{
  "ts_utc": "2026-03-04T09:54:53Z",
  "threshold_m": 150,
  "source": "stations_override.txt (ICAO list) + aviationweather.gov (METAR/TAF raw)",
  "station_count": 159,
  "stations": [
    {
      "icao": "BIKF",
      "alert": "OK",
      "vis_m": 9999,
      "fzfg": false,
      "metar_trigger": false,
      "taf_trigger": false,
      "metar": "METAR BIKF 040930Z 24006KT 9999 VCSH FEW037TCU SCT048 BKN110 01/M04 Q0993",
      "taf": ""
    },
    {
      "icao": "BKPR",
      "alert": "OK",
      "vis_m": null,
      "fzfg": false,
      "metar_trigger": false,
      "taf_trigger": false,
      "metar": "",
      "taf": "TAF BKPR 040530Z 0406/0506 17006KT 3000 BR FEW030"
    },
    {
      "icao": "EBCI",
      "alert": "OK",
      "vis_m": 9999,
      "fzfg": false,
      "metar_trigger": false,
      "taf_trigger": false,
      "metar": "METAR EBCI 040920Z VRB02KT CAVOK 13/05 Q1027 NOISG",
      "taf": "TAF EBCI 040513Z 0406/0512 10002KT CAVOK"
    },
    {
      "icao": "EDDB",
      "alert": "OK",
      "vis_m": 9999,
      "fzfg": false,
      "metar_trigger": false,
      "taf_trigger": false,
      "metar": "METAR EDDB 040950Z AUTO 04005KT 340V080 9999 FEW027 10/M01 Q1029 NOSIG",
      "taf": "TAF EDDB 040500Z 0406/0506 02003KT CAVOK"
    },
    {
      "icao": "EDDH",
      "alert": "OK",
      "vis_m": 9999,
      "fzfg": false,
      "metar_trigger": false,
      "taf_trigger": false,
      "metar": "METAR EDDH 040950Z AUTO 07004KT 040V110 CAVOK 08/00 Q1030 NOSIG",
      "taf": "TAF EDDH 040500Z 0406/0512 04004KT CAVOK"
    },
    {
      "icao": "EDDK",
      "alert": "OK",
      "vis_m": 9999,
      "fzfg": false,
      "metar_trigger": false,
      "taf_trigger": false,
      "metar": "METAR EDDK 040950Z AUTO 14004KT 070V170 CAVOK 12/06 Q1027 NOSIG",
      "taf": "TAF EDDK 040500Z 0406/0512 VRB03KT CAVOK"
    },
    {
      "icao": "EDDN",
      "alert": "OK",
      "vis_m": 6000,
      "fzfg": false,
      "metar_trigger": false,
      "taf_trigger": false,
      "metar": "METAR EDDN 040950Z AUTO 11004KT 060V140 6000 SCT003 05/04 Q1028 NOSIG",
      "taf": ""
    },
    {
      "icao": "EDDS",
      "alert": "OK",
      "vis_m": 9999,
      "fzfg": false,
      "metar_trigger": false,
      "taf_trigger": false,
      "metar": "METAR EDDS 040950Z AUTO VRB02KT CAVOK 09/04 Q1026 NOSIG",
      "taf": "TAF EDDS 040500Z 0406/0506 VRB03KT CAVOK"
    },
    {
      "icao": "EDFH",
      "alert": "OK",
      "vis_m": 9999,
      "fzfg": false,
      "metar_trigger": false,
      "taf_trigger": false,
      "metar": "METAR EDFH 040920Z 14009KT CAVOK 10/05 Q1027",
      "taf": "TAF EDFH 040500Z 0406/0506 14004KT CAVOK"
    },
    {
      "icao": "EDJA",
      "alert": "OK",
      "vis_m": 200,
      "fzfg": true,
      "metar_trigger": false,
      "taf_trigger": false,
      "metar": "METAR EDJA 040920Z VRB02KT 0200 R24/0225N FG VV/// 01/01 Q1027",
      "taf": "TAF EDJA 040800Z 0409/0418 06005KT 0300 FZFG VV001"
    },
    {
      "icao": "EDLW",
      "alert": "OK",
      "vis_m": 9999,
      "fzfg": false,
      "metar_trigger": false,
      "taf_trigger": false,
      "metar": "METAR EDLW 040920Z 32004KT 290V350 CAVOK 07/05 Q1027",
      "taf": "TAF EDLW 040500Z 0406/0506 07004KT CAVOK"
    },
    {
      "icao": "EDNY",
      "alert": "OK",
      "vis_m": 1400,
      "fzfg": false,
      "metar_trigger": false,
      "taf_trigger": false,
      "metar": "METAR EDNY 040920Z 06004KT 010V130 1400 R24/1800N BR BKN002 OVC004 03/03 Q1028",
      "taf": "TAF EDNY 040800Z 0409/0418 04004KT 0400 FG VV001"
    },
    {
      "icao": "EDSB",
      "alert": "OK",
      "vis_m": 9999,
      "fzfg": false,
      "metar_trigger": false,
      "taf_trigger": false,
      "metar": "METAR EDSB 040920Z 05003KT 010V100 CAVOK 08/05 Q1027",
      "taf": "TAF EDSB 040500Z 0406/0506 VRB03KT CAVOK"
    },
    {
      "icao": "EETN",
      "alert": "OK",
      "vis_m": 9999,
      "fzfg": false,
      "metar_trigger": false,
      "taf_trigger": false,
      "metar": "METAR EETN 040950Z 27015KT CAVOK 04/M02 Q1009 NOSIG",
      "taf": ""
    },
    {
      "icao": "EFTU",
      "alert": "OK",
      "vis_m": 9999,
      "fzfg": false,
      "metar_trigger": false,
      "taf_trigger": false,
      "metar": "METAR EFTU 040950Z AUTO 30013KT 270V350 CAVOK 05/M04 Q1008",
      "taf": "TAF EFTU 040832Z 0409/0509 30015KT 9999 SCT045"
    },
    {
      "icao": "EGBB",
      "alert": "OK",
      "vis_m": 2700,
      "fzfg": false,
      "metar_trigger": false,
      "taf_trigger": false,
      "metar": "METAR EGBB 040920Z 11005KT 2700 BR OVC002 05/04 Q1026",
      "taf": ""
    },
    {
      "icao": "EGGP",
      "alert": "OK",
      "vis_m": 9999,
      "fzfg": false,
      "metar_trigger": false,
      "taf_trigger": false,
      "metar": "METAR EGGP 040920Z 14008KT CAVOK 09/04 Q1025",
      "taf": "TAF EGGP 040457Z 0406/0506 14008KT 9999 SCT030"
    },
    {
      "icao": "EGGW",
      "alert": "OK",
      "vis_m": 100,
      "fzfg": false,
      "metar_trigger": false,
      "taf_trigger": false,
      "metar": "METAR EGGW 040920Z AUTO 12004KT 080V150 0100 R07/0250N FG OVC001 05/04 Q1026",
      "taf": ""
    },
    {
      "icao": "EGKK",
      "alert": "OK",
      "vis_m": 900,
      "fzfg": false,
      "metar_trigger": false,
      "taf_trigger": false,
      "metar": "METAR EGKK 040920Z 09005KT 0900 R08R/1200D FG OVC001 07/07 Q1026",
      "taf": ""
    },
    {
      "icao": "EGNM",
      "alert": "OK",
      "vis_m": 6000,
      "fzfg": false,
      "metar_trigger": false,
      "taf_trigger": false,
      "metar": "METAR EGNM 040920Z 15007KT 6000 SCT003 SCT006 06/05 Q1025",
      "taf": ""
    },
    {
      "icao": "EGPD",
      "alert": "OK",
      "vis_m": 9999,
      "fzfg": false,
      "metar_trigger": false,
      "taf_trigger": false,
      "metar": "METAR EGPD 040920Z COR AUTO 16007KT 130V200 9999 FEW038 06/03 Q1022 NOSIG",
      "taf": "TAF EGPD 040454Z 0406/0506 17007KT 9999 FEW025"
    },
    {
      "icao": "EGPF",
      "alert": "OK",
      "vis_m": 7000,
      "fzfg": false,
      "metar_trigger": false,
      "taf_trigger": false,
      "metar": "METAR EGPF 040920Z AUTO VRB01KT 7000 -RA OVC017/// //////TCU 03/02 Q1022",
      "taf": "TAF EGPF 040501Z 0406/0506 16006KT 9999 SCT030"
    },
    {
      "icao": "EHBK",
      "alert": "OK",
      "vis_m": 9999,
      "fzfg": false,
      "metar_trigger": false,
      "taf_trigger": false,
      "metar": "METAR EHBK 040925Z AUTO VRB01KT 9999 NSC 12/07 Q1026 NOSIG",
      "taf": "TAF EHBK 040513Z 0406/0512 06003KT 4000 BR NSC"
    },
    {
      "icao": "EHEH",
      "alert": "OK",
      "vis_m": 8000,
      "fzfg": false,
      "metar_trigger": false,
      "taf_trigger": false,
      "metar": "METAR EHEH 040925Z AUTO 06002KT 8000 BR OVC250 10/07 Q1027 BLU NOSIG RMK TREND REMOTE BY EHWX",
      "taf": "TAF EHEH 040518Z 0406/0512 06003KT 1200 BR MIFG NSC"
    },
    {
      "icao": "EKBI",
      "alert": "WARNING",
      "vis_m": 1000,
      "fzfg": true,
      "metar_trigger": false,
      "taf_trigger": true,
      "metar": "METAR EKBI 040950Z 29006KT 1000 R09/1000U R27/1100U BR BKN002 03/03 Q1029",
      "taf": "TAF EKBI 040827Z 0409/0509 26005KT 0100 FZFG VV002"
    },
    {
      "icao": "EKCH",
      "alert": "OK",
      "vis_m": 9999,
      "fzfg": false,
      "metar_trigger": false,
      "taf_trigger": false,
      "metar": "METAR EKCH 040950Z AUTO 31011KT 9999 NCD 08/02 Q1028 NOSIG",
      "taf": "TAF EKCH 040827Z 0409/0509 28010KT 9999 SCT008"
    },
    {
      "icao": "ENAL",
      "alert": "OK",
      "vis_m": 8000,
      "fzfg": false,
      "metar_trigger": false,
      "taf_trigger": false,
      "metar": "METAR ENAL 040920Z 25013KT 8000 -DZRA SCT009 BKN019 07/06 Q1020",
      "taf": "TAF ENAL 040800Z 0409/0418 23018KT 9999 FEW012 BKN030"
    },
    {
      "icao": "ENBR",
      "alert": "OK",
      "vis_m": 9999,
      "fzfg": false,
      "metar_trigger": false,
      "taf_trigger": false,
      "metar": "METAR ENBR 040920Z 17006KT 9999 SCT048 06/04 Q1025 NOSIG RMK WIND 1200FT 23013KT",
      "taf": "TAF ENBR 040500Z 0406/0506 24008KT 9999 FEW008 BKN020"
    },
    {
      "icao": "ENGM",
      "alert": "OK",
      "vis_m": 9999,
      "fzfg": false,
      "metar_trigger": false,
      "taf_trigger": false,
      "metar": "METAR ENGM 040920Z 14007KT 9999 0750NW NSC 03/M03 Q1019 NOSIG",
      "taf": "TAF ENGM 040500Z 0406/0506 19006KT CAVOK"
    },
    {
      "icao": "ENHD",
      "alert": "OK",
      "vis_m": 9999,
      "fzfg": false,
      "metar_trigger": false,
      "taf_trigger": false,
      "metar": "METAR ENHD 040920Z 18007KT CAVOK 07/04 Q1026",
      "taf": "TAF ENHD 040800Z 0409/0418 20009KT 9999 BKN040"
    },
    {
      "icao": "ENTC",
      "alert": "OK",
      "vis_m": 9999,
      "fzfg": false,
      "metar_trigger": false,
      "taf_trigger": false,
      "metar": "METAR ENTC 040920Z 19010KT 9999 BKN044 M01/M04 Q0998 NOSIG RMK WIND 2600FT 24010KT",
      "taf": "TAF ENTC 040500Z 0406/0506 18005KT 9999 FEW015 SCT030"
    },
    {
      "icao": "ENTO",
      "alert": "OK",
      "vis_m": 9999,
      "fzfg": false,
      "metar_trigger": false,
      "taf_trigger": false,
      "metar": "METAR ENTO 040920Z 22010KT CAVOK 05/M02 Q1022 NOSIG",
      "taf": "TAF ENTO 040500Z 0406/0506 24006KT CAVOK"
    },
    {
      "icao": "ENVA",
      "alert": "OK",
      "vis_m": 9999,
      "fzfg": false,
      "metar_trigger": false,
      "taf_trigger": false,
      "metar": "METAR ENVA 040920Z 28023KT 9999 VCSH SCT035 BKN045 06/02 Q1016 NOSIG RMK WIND 670FT 28028G38KT",
      "taf": ""
    },
    {
      "icao": "ENZV",
      "alert": "OK",
      "vis_m": 9999,
      "fzfg": false,
      "metar_trigger": false,
      "taf_trigger": false,
      "metar": "METAR ENZV 040920Z 15003KT CAVOK 07/04 Q1027 NOSIG",
      "taf": "TAF ENZV 040500Z 0406/0506 24006KT 9999 SCT030"
    },
    {
      "icao": "EPGD",
      "alert": "OK",
      "vis_m": 9999,
      "fzfg": false,
      "metar_trigger": false,
      "taf_trigger": false,
      "metar": "METAR EPGD 040930Z 29015KT 9999 FEW015 04/01 Q1024",
      "taf": "TAF EPGD 040530Z 0406/0506 29012KT CAVOK"
    },
    {
      "icao": "EPKK",
      "alert": "OK",
      "vis_m": 9999,
      "fzfg": false,
      "metar_trigger": false,
      "taf_trigger": false,
      "metar": "METAR EPKK 040930Z 23007KT CAVOK 12/04 Q1026",
      "taf": "TAF EPKK 040830Z 0409/0509 20006KT CAVOK"
    },
    {
      "icao": "EPKT",
      "alert": "OK",
      "vis_m": 9999,
      "fzfg": false,
      "metar_trigger": false,
      "taf_trigger": false,
      "metar": "METAR EPKT 040930Z 26009KT CAVOK 11/00 Q1026",
      "taf": "TAF EPKT 040530Z 0406/0506 VRB02KT CAVOK"
    },
    {
      "icao": "EPLB",
      "alert": "OK",
      "vis_m": 9999,
      "fzfg": false,
      "metar_trigger": false,
      "taf_trigger": false,
      "metar": "METAR EPLB 040930Z 29008KT CAVOK 11/02 Q1023",
      "taf": "TAF EPLB 040530Z 0406/0506 29010KT CAVOK"
    },
    {
      "icao": "EPMO",
      "alert": "OK",
      "vis_m": 9999,
      "fzfg": false,
      "metar_trigger": false,
      "taf_trigger": false,
      "metar": "METAR EPMO 040930Z 28012KT CAVOK 08/M00 Q1024",
      "taf": "TAF EPMO 040530Z 0406/0506 29008KT CAVOK"
    },
    {
      "icao": "EPPO",
      "alert": "OK",
      "vis_m": 9999,
      "fzfg": false,
      "metar_trigger": false,
      "taf_trigger": false,
      "metar": "METAR EPPO 040930Z 32007KT CAVOK 07/M02 Q1027",
      "taf": "TAF EPPO 040530Z 0406/0506 33005KT CAVOK"
    },
    {
      "icao": "EPRA",
      "alert": "OK",
      "vis_m": 9999,
      "fzfg": false,
      "metar_trigger": false,
      "taf_trigger": false,
      "metar": "METAR EPRA 040930Z 28008KT 250V320 CAVOK 11/01 Q1024",
      "taf": "TAF EPRA 040830Z 0409/0418 29010KT CAVOK"
    },
    {
      "icao": "EPRZ",
      "alert": "OK",
      "vis_m": 9999,
      "fzfg": false,
      "metar_trigger": false,
      "taf_trigger": false,
      "metar": "METAR EPRZ 040930Z 26015KT CAVOK 12/04 Q1025",
      "taf": "TAF EPRZ 040530Z 0406/0506 24002KT CAVOK"
    },
    {
      "icao": "EPSC",
      "alert": "OK",
      "vis_m": 9999,
      "fzfg": true,
      "metar_trigger": false,
      "taf_trigger": false,
      "metar": "METAR EPSC 040930Z 29008KT CAVOK 06/01 Q1028",
      "taf": "TAF EPSC 040530Z 0406/0506 VRB02KT 0200 FZFG BKN001"
    },
    {
      "icao": "EPSY",
      "alert": "OK",
      "vis_m": 9999,
      "fzfg": false,
      "metar_trigger": false,
      "taf_trigger": false,
      "metar": "METAR EPSY 040930Z 31009KT 270V350 CAVOK 06/M00 Q1023",
      "taf": "TAF EPSY 040830Z 0409/0418 31010KT CAVOK"
    },
    {
      "icao": "EPWA",
      "alert": "OK",
      "vis_m": 9999,
      "fzfg": false,
      "metar_trigger": false,
      "taf_trigger": false,
      "metar": "METAR EPWA 040930Z 30009KT CAVOK 08/M01 Q1024 NOSIG",
      "taf": "TAF EPWA 040830Z 0409/0509 29009KT CAVOK"
    },
    {
      "icao": "EPWR",
      "alert": "OK",
      "vis_m": 9999,
      "fzfg": false,
      "metar_trigger": false,
      "taf_trigger": false,
      "metar": "METAR EPWR 040930Z 30009KT CAVOK 10/02 Q1027",
      "taf": "TAF EPWR 040830Z 0409/0509 27005KT CAVOK"
    },
    {
      "icao": "ESGG",
      "alert": "OK",
      "vis_m": 9999,
      "fzfg": false,
      "metar_trigger": false,
      "taf_trigger": false,
      "metar": "METAR ESGG 040920Z 28009KT 250V310 CAVOK 05/00 Q1024",
      "taf": "TAF ESGG 040830Z 0409/0509 27008KT CAVOK"
    },
    {
      "icao": "ESKN",
      "alert": "OK",
      "vis_m": 9999,
      "fzfg": false,
      "metar_trigger": false,
      "taf_trigger": false,
      "metar": "METAR ESKN 040920Z 28017KT CAVOK 05/M03 Q1018",
      "taf": "TAF ESKN 040830Z 0409/0509 28012KT CAVOK"
    },
    {
      "icao": "ESMS",
      "alert": "OK",
      "vis_m": 9999,
      "fzfg": false,
      "metar_trigger": false,
      "taf_trigger": false,
      "metar": "METAR ESMS 040920Z 31012KT 9999 SCT010 05/03 Q1026",
      "taf": "TAF ESMS 040827Z 0409/0509 30010KT 8000 SCT008"
    },
    {
      "icao": "ESSA",
      "alert": "OK",
      "vis_m": 9999,
      "fzfg": false,
      "metar_trigger": false,
      "taf_trigger": false,
      "metar": "METAR ESSA 040920Z 29013KT CAVOK 05/M04 Q1015 NOSIG",
      "taf": "TAF ESSA 040830Z 0409/0509 26005KT CAVOK"
    },
    {
      "icao": "EYKA",
      "alert": "OK",
      "vis_m": 9999,
      "fzfg": false,
      "metar_trigger": false,
      "taf_trigger": false,
      "metar": "METAR EYKA 040950Z 26012KT 9999 SCT014 03/M00 Q1019",
      "taf": "TAF EYKA 040500Z 0406/0506 27012KT 5000 BR BKN005"
    },
    {
      "icao": "EYPA",
      "alert": "OK",
      "vis_m": 9999,
      "fzfg": false,
      "metar_trigger": false,
      "taf_trigger": false,
      "metar": "METAR EYPA 040950Z 29004KT 190V350 CAVOK 03/01 Q1020",
      "taf": "TAF EYPA 040500Z 0406/0506 VRB05KT 9000 NSC"
    },
    {
      "icao": "EYVI",
      "alert": "OK",
      "vis_m": 9999,
      "fzfg": false,
      "metar_trigger": false,
      "taf_trigger": false,
      "metar": "METAR EYVI 040950Z 27010KT 9999 FEW015 04/M01 Q1018 NOSIG",
      "taf": "TAF EYVI 040507Z 0406/0506 28012KT 9000 OVC005"
    },
    {
      "icao": "GCFV",
      "alert": "OK",
      "vis_m": 9999,
      "fzfg": false,
      "metar_trigger": false,
      "taf_trigger": false,
      "metar": "METAR GCFV 040930Z 34017KT 9999 SCT027 BKN038 17/12 Q1016",
      "taf": "TAF GCFV 040800Z 0409/0509 35015KT 9999 SCT035 TX20/0414Z TN15/0506Z"
    },
    {
      "icao": "GCLP",
      "alert": "OK",
      "vis_m": 9999,
      "fzfg": false,
      "metar_trigger": false,
      "taf_trigger": false,
      "metar": "METAR GCLP 040930Z 34017G29KT 300V010 9999 FEW030 SCT060 17/13 Q1017 NOSIG",
      "taf": "TAF GCLP 040800Z 0409/0509 36020KT 9999 SCT040 TX21/0414Z TN15/0506Z"
    },
    {
      "icao": "GCTS",
      "alert": "OK",
      "vis_m": 9999,
      "fzfg": false,
      "metar_trigger": false,
      "taf_trigger": false,
      "metar": "METAR GCTS 040930Z VRB04KT 9999 FEW035 18/08 Q1018 NOSIG",
      "taf": "TAF GCTS 040800Z 0409/0509 20010KT 9999 SCT040 TX22/0414Z TN14/0506Z"
    },
    {
      "icao": "GMAD",
      "alert": "OK",
      "vis_m": 9999,
      "fzfg": false,
      "metar_trigger": false,
      "taf_trigger": false,
      "metar": "METAR GMAD 040930Z 05007KT 9999 FEW023 12/10 Q1014 NOSIG",
      "taf": "TAF GMAD 040500Z 0406/0512 22004KT 8000 SCT010 SCT080"
    },
    {
      "icao": "GMMN",
      "alert": "OK",
      "vis_m": 9999,
      "fzfg": false,
      "metar_trigger": false,
      "taf_trigger": false,
      "metar": "METAR GMMN 040930Z 20010KT 9999 -RA BKN030 09/07 Q1013 NOSIG",
      "taf": "TAF GMMN 040500Z 0406/0512 19008KT 9999 -RA BKN026"
    },
    {
      "icao": "GMMX",
      "alert": "OK",
      "vis_m": 9999,
      "fzfg": false,
      "metar_trigger": false,
      "taf_trigger": false,
      "metar": "METAR GMMX 040930Z 31003KT 220V340 9999 FEW030 BKN090 10/06 Q1013 NOSIG",
      "taf": "TAF GMMX 040500Z 0406/0512 06006KT 8000 SCT030 SCT100"
    },
    {
      "icao": "HEGN",
      "alert": "OK",
      "vis_m": null,
      "fzfg": false,
      "metar_trigger": false,
      "taf_trigger": false,
      "metar": "",
      "taf": "TAF HEGN 040500Z 0406/0512 31008G20KT CAVOK"
    },
    {
      "icao": "HEMA",
      "alert": "OK",
      "vis_m": null,
      "fzfg": false,
      "metar_trigger": false,
      "taf_trigger": false,
      "metar": "",
      "taf": "TAF HEMA 040500Z 0406/0512 32008G20KT CAVOK"
    },
    {
      "icao": "HESH",
      "alert": "OK",
      "vis_m": null,
      "fzfg": false,
      "metar_trigger": false,
      "taf_trigger": false,
      "metar": "",
      "taf": "TAF HESH 040500Z 0406/0512 33008G18KT CAVOK"
    },
    {
      "icao": "HESX",
      "alert": "OK",
      "vis_m": null,
      "fzfg": false,
      "metar_trigger": false,
      "taf_trigger": false,
      "metar": "",
      "taf": "TAF HESX 040500Z 0406/0512 02008KT 9999 SCT020"
    },
    {
      "icao": "LATI",
      "alert": "OK",
      "vis_m": 9999,
      "fzfg": false,
      "metar_trigger": false,
      "taf_trigger": false,
      "metar": "METAR LATI 040950Z 00000KT 9999 BKN180 15/09 Q1028 NOSIG",
      "taf": "TAF LATI 040500Z 0406/0506 VRB05KT CAVOK TX19/0412Z TN05/0504Z"
    },
    {
      "icao": "LBPD",
      "alert": "OK",
      "vis_m": 9999,
      "fzfg": false,
      "metar_trigger": false,
      "taf_trigger": false,
      "metar": "METAR LBPD 040930Z AUTO VRB04KT 9999 NCD 11/04 Q1029 NOSIG",
      "taf": "TAF LBPD 040500Z 0406/0506 VRB03KT CAVOK"
    },
    {
      "icao": "LBSF",
      "alert": "OK",
      "vis_m": 9999,
      "fzfg": false,
      "metar_trigger": false,
      "taf_trigger": false,
      "metar": "METAR LBSF 040930Z VRB02KT CAVOK 10/02 Q1028 NOSIG",
      "taf": "TAF LBSF 040500Z 0406/0506 VRB03KT CAVOK"
    },
    {
      "icao": "LBWN",
      "alert": "OK",
      "vis_m": 9999,
      "fzfg": false,
      "metar_trigger": false,
      "taf_trigger": false,
      "metar": "METAR LBWN 040930Z 21004KT 140V310 9999 FEW025 12/05 Q1029 NOSIG",
      "taf": "TAF LBWN 040500Z 0406/0506 VRB04KT 2000 BR NSC"
    },
    {
      "icao": "LCLK",
      "alert": "OK",
      "vis_m": 9999,
      "fzfg": false,
      "metar_trigger": false,
      "taf_trigger": false,
      "metar": "METAR LCLK 040930Z 17008KT 140V200 9999 SCT030 19/10 Q1020 NOSIG",
      "taf": "TAF LCLK 040530Z 0406/0506 31007KT 9999 FEW030"
    },
    {
      "icao": "LCPH",
      "alert": "OK",
      "vis_m": 9999,
      "fzfg": false,
      "metar_trigger": false,
      "taf_trigger": false,
      "metar": "METAR LCPH 040930Z 31015KT 260V320 9999 FEW025 SCT030 18/11 Q1021 NOSIG",
      "taf": "TAF LCPH 040530Z 0406/0506 35007KT 9999 SCT025"
    },
    {
      "icao": "LEAL",
      "alert": "OK",
      "vis_m": 9999,
      "fzfg": false,
      "metar_trigger": false,
      "taf_trigger": false,
      "metar": "METAR LEAL 040930Z 07008KT 030V180 9999 BKN050 19/11 Q1014 NOSIG",
      "taf": "TAF LEAL 040500Z 0406/0506 05009KT 9999 FEW020 TX21/0412Z TN12/0407Z"
    },
    {
      "icao": "LEBB",
      "alert": "OK",
      "vis_m": 9999,
      "fzfg": false,
      "metar_trigger": false,
      "taf_trigger": false,
      "metar": "METAR LEBB 040930Z 09003KT 050V160 CAVOK 16/08 Q1019 NOSIG",
      "taf": "TAF LEBB 040500Z 0406/0506 13009KT CAVOK TX21/0415Z TN09/0407Z"
    },
    {
      "icao": "LEBL",
      "alert": "OK",
      "vis_m": 9999,
      "fzfg": false,
      "metar_trigger": false,
      "taf_trigger": false,
      "metar": "METAR LEBL 040930Z 06021KT 9999 BKN030 16/11 Q1020 NOSIG",
      "taf": "TAF LEBL 040500Z 0406/0506 05015KT 9999 SCT020 TX17/0412Z TN13/0406Z"
    },
    {
      "icao": "LECH",
      "alert": "OK",
      "vis_m": 6000,
      "fzfg": false,
      "metar_trigger": false,
      "taf_trigger": false,
      "metar": "METAR LECH 040930Z AUTO 03010KT 360V060 6000 OVC004 11/10 Q1019",
      "taf": ""
    },
    {
      "icao": "LEMD",
      "alert": "OK",
      "vis_m": 9999,
      "fzfg": false,
      "metar_trigger": false,
      "taf_trigger": false,
      "metar": "METAR LEMD 040930Z 04005KT 340V110 CAVOK 11/05 Q1017 NOSIG",
      "taf": "TAF LEMD 040500Z 0406/0512 36005KT CAVOK TX18/0414Z TN07/0407Z"
    },
    {
      "icao": "LEMG",
      "alert": "OK",
      "vis_m": 4000,
      "fzfg": false,
      "metar_trigger": false,
      "taf_trigger": false,
      "metar": "METAR LEMG 040930Z 32009KT 4000 -RA FEW022TCU SCT035 BKN065 13/12 Q1010 RERA NOSIG",
      "taf": "TAF LEMG 040500Z 0406/0506 VRB03KT 9999 FEW040 TX17/0414Z TN12/0407Z"
    },
    {
      "icao": "LEVC",
      "alert": "OK",
      "vis_m": 9999,
      "fzfg": false,
      "metar_trigger": false,
      "taf_trigger": false,
      "metar": "METAR LEVC 040930Z VRB12KT 9999 OVC015 15/11 Q1018 NOSIG",
      "taf": "TAF LEVC 040500Z 0406/0506 05013KT 9999 BKN020 TX17/0412Z TN13/0407Z"
    },
    {
      "icao": "LEXJ",
      "alert": "OK",
      "vis_m": 9999,
      "fzfg": false,
      "metar_trigger": false,
      "taf_trigger": false,
      "metar": "METAR LEXJ 040930Z 00000KT CAVOK 12/07 Q1018",
      "taf": "TAF LEXJ 040800Z 0409/0509 07009KT CAVOK TX22/0412Z TN10/0507Z"
    },
    {
      "icao": "LEZG",
      "alert": "OK",
      "vis_m": 2500,
      "fzfg": false,
      "metar_trigger": false,
      "taf_trigger": false,
      "metar": "METAR LEZG 040930Z 29004KT 2500 BR BKN040 OVC050 09/09 Q1021 NOSIG",
      "taf": ""
    },
    {
      "icao": "LEZL",
      "alert": "OK",
      "vis_m": 9999,
      "fzfg": false,
      "metar_trigger": false,
      "taf_trigger": false,
      "metar": "METAR LEZL 040930Z 23007KT 9999 FEW025 SCT036 14/10 Q1013 NOSIG",
      "taf": "TAF LEZL 040800Z 0409/0509 VRB03KT CAVOK TX18/0415Z TN08/0507Z"
    },
    {
      "icao": "LFBD",
      "alert": "OK",
      "vis_m": 9999,
      "fzfg": false,
      "metar_trigger": false,
      "taf_trigger": false,
      "metar": "METAR LFBD 040930Z AUTO 11010KT CAVOK 14/09 Q1021 NOSIG",
      "taf": "TAF LFBD 040500Z 0406/0512 07010KT CAVOK TX19/0414Z TN07/0406Z"
    },
    {
      "icao": "LFLL",
      "alert": "OK",
      "vis_m": 9999,
      "fzfg": false,
      "metar_trigger": false,
      "taf_trigger": false,
      "metar": "METAR LFLL 040930Z 12004KT CAVOK 11/07 Q1025 NOSIG",
      "taf": "TAF LFLL 040500Z 0406/0512 VRB02KT CAVOK"
    },
    {
      "icao": "LFLS",
      "alert": "OK",
      "vis_m": 9999,
      "fzfg": false,
      "metar_trigger": false,
      "taf_trigger": false,
      "metar": "METAR LFLS 040930Z AUTO 09006KT CAVOK 11/05 Q1025 NOSIG",
      "taf": "TAF LFLS 040800Z 0409/0509 08006KT CAVOK"
    },
    {
      "icao": "LFMN",
      "alert": "OK",
      "vis_m": 9999,
      "fzfg": false,
      "metar_trigger": false,
      "taf_trigger": false,
      "metar": "METAR LFMN 040930Z 35004KT 320V050 CAVOK 16/05 Q1025 BECMG 09010KT",
      "taf": "TAF LFMN 040800Z 0409/0515 33010KT CAVOK"
    },
    {
      "icao": "LFOB",
      "alert": "OK",
      "vis_m": 9999,
      "fzfg": false,
      "metar_trigger": false,
      "taf_trigger": false,
      "metar": "METAR LFOB 040930Z AUTO VRB03KT CAVOK 12/08 Q1025 NOSIG",
      "taf": "TAF LFOB 040500Z 0406/0506 VRB03KT CAVOK"
    },
    {
      "icao": "LFPO",
      "alert": "OK",
      "vis_m": 9999,
      "fzfg": false,
      "metar_trigger": false,
      "taf_trigger": false,
      "metar": "METAR LFPO 040930Z AUTO 10004KT 050V130 CAVOK 13/05 Q1025 NOSIG",
      "taf": "TAF LFPO 040500Z 0406/0512 06003KT CAVOK"
    },
    {
      "icao": "LFSB",
      "alert": "OK",
      "vis_m": 9999,
      "fzfg": false,
      "metar_trigger": false,
      "taf_trigger": false,
      "metar": "METAR LFSB 040930Z AUTO VRB01KT CAVOK 11/04 Q1026 NOSIG",
      "taf": ""
    },
    {
      "icao": "LGAV",
      "alert": "OK",
      "vis_m": 9999,
      "fzfg": false,
      "metar_trigger": false,
      "taf_trigger": false,
      "metar": "METAR LGAV 040920Z 05011KT 010V070 9999 FEW025 SCT070 15/07 Q1029 NOSIG",
      "taf": "TAF LGAV 040500Z 0406/0506 02018KT 9999 FEW020"
    },
    {
      "icao": "LGTS",
      "alert": "OK",
      "vis_m": 9999,
      "fzfg": false,
      "metar_trigger": false,
      "taf_trigger": false,
      "metar": "METAR LGTS 040920Z 28004KT 9999 SCT025 13/09 Q1031 NOSIG",
      "taf": "TAF LGTS 040500Z 0406/0506 VRB03KT 9999 FEW008 SCT025"
    },
    {
      "icao": "LHBP",
      "alert": "OK",
      "vis_m": 9999,
      "fzfg": false,
      "metar_trigger": false,
      "taf_trigger": false,
      "metar": "METAR LHBP 040930Z 22005KT 190V250 CAVOK 12/02 Q1028 NOSIG",
      "taf": "TAF LHBP 040515Z 0406/0506 VRB03KT CAVOK"
    },
    {
      "icao": "LHDC",
      "alert": "OK",
      "vis_m": 9999,
      "fzfg": false,
      "metar_trigger": false,
      "taf_trigger": false,
      "metar": "METAR LHDC 040915Z AUTO 21004KT 160V260 CAVOK 10/04 Q1028 NOSIG",
      "taf": "TAF LHDC 040815Z 0409/0418 24006KT CAVOK"
    },
    {
      "icao": "LIBD",
      "alert": "OK",
      "vis_m": 3000,
      "fzfg": false,
      "metar_trigger": false,
      "taf_trigger": false,
      "metar": "METAR LIBD 040920Z 32003KT 230V350 3000 BR NSC 11/10 Q1028",
      "taf": "TAF LIBD 040500Z 0406/0506 VRB05KT 6000 SCT015"
    },
    {
      "icao": "LIBG",
      "alert": "OK",
      "vis_m": 9999,
      "fzfg": false,
      "metar_trigger": false,
      "taf_trigger": false,
      "metar": "METAR LIBG 040850Z VRB02KT CAVOK 15/10 Q1028",
      "taf": "TAF LIBG 040800Z 0409/0418 VRB06KT 9999 FEW020"
    },
    {
      "icao": "LIBP",
      "alert": "OK",
      "vis_m": 7000,
      "fzfg": false,
      "metar_trigger": false,
      "taf_trigger": false,
      "metar": "METAR LIBP 040920Z AUTO VRB01KT 7000 SCT006/// BKN120/// 13/11 Q1028",
      "taf": "TAF LIBP 040500Z 0406/0506 VRB05KT 6000 BKN025"
    },
    {
      "icao": "LIBR",
      "alert": "OK",
      "vis_m": 8000,
      "fzfg": false,
      "metar_trigger": false,
      "taf_trigger": false,
      "metar": "METAR LIBR 040920Z 32006KT 8000 SCT015 14/12 Q1028",
      "taf": "TAF LIBR 040500Z 0406/0506 VRB05KT 8000 SCT020"
    },
    {
      "icao": "LICA",
      "alert": "OK",
      "vis_m": 9999,
      "fzfg": false,
      "metar_trigger": false,
      "taf_trigger": false,
      "metar": "METAR LICA 040920Z AUTO 08013KT 9999 FEW150/// 17/11 Q1027",
      "taf": "TAF LICA 040500Z 0406/0506 07018KT CAVOK"
    },
    {
      "icao": "LICC",
      "alert": "OK",
      "vis_m": 9999,
      "fzfg": false,
      "metar_trigger": false,
      "taf_trigger": false,
      "metar": "METAR LICC 040920Z 10006KT 070V140 9999 SCT020 17/14 Q1027",
      "taf": "TAF LICC 040500Z 0406/0506 VRB05KT 9999 SCT040"
    },
    {
      "icao": "LICJ",
      "alert": "OK",
      "vis_m": 9999,
      "fzfg": false,
      "metar_trigger": false,
      "taf_trigger": false,
      "metar": "METAR LICJ 040920Z 28004KT 260V320 CAVOK 16/12 Q1026",
      "taf": "TAF LICJ 040500Z 0406/0506 VRB05KT 9999 SCT025"
    },
    {
      "icao": "LIMC",
      "alert": "OK",
      "vis_m": 8000,
      "fzfg": false,
      "metar_trigger": false,
      "taf_trigger": false,
      "metar": "METAR LIMC 040920Z 35004KT 8000 SCT050 10/07 Q1028 NOSIG",
      "taf": "TAF LIMC 040500Z 0406/0512 VRB05KT 8000 SCT030"
    },
    {
      "icao": "LIME",
      "alert": "OK",
      "vis_m": 7000,
      "fzfg": false,
      "metar_trigger": false,
      "taf_trigger": false,
      "metar": "METAR LIME 040920Z VRB02KT 7000 SCT010 SCT040 11/07 Q1028 NOSIG",
      "taf": "TAF LIME 040500Z 0406/0506 VRB05KT 8000 BKN025"
    },
    {
      "icao": "LIMF",
      "alert": "OK",
      "vis_m": 7000,
      "fzfg": false,
      "metar_trigger": false,
      "taf_trigger": false,
      "metar": "METAR LIMF 040920Z VRB02KT 7000 BKN030 BKN050 11/05 Q1028",
      "taf": "TAF LIMF 040500Z 0406/0506 VRB04KT 7000 BKN035"
    },
    {
      "icao": "LIMJ",
      "alert": "OK",
      "vis_m": 9999,
      "fzfg": false,
      "metar_trigger": false,
      "taf_trigger": false,
      "metar": "METAR LIMJ 040920Z 03012KT 9999 FEW080 13/07 Q1026",
      "taf": "TAF LIMJ 040500Z 0406/0506 03012KT 9999 SCT050"
    },
    {
      "icao": "LIPE",
      "alert": "OK",
      "vis_m": 5000,
      "fzfg": false,
      "metar_trigger": false,
      "taf_trigger": false,
      "metar": "METAR LIPE 040920Z 10003KT 050V120 5000 BR BKN015 10/08 Q1028",
      "taf": "TAF LIPE 040500Z 0406/0506 VRB04KT 6000 SCT015"
    },
    {
      "icao": "LIPH",
      "alert": "OK",
      "vis_m": 1000,
      "fzfg": false,
      "metar_trigger": false,
      "taf_trigger": false,
      "metar": "METAR LIPH 040920Z 21003KT 170V240 1000 R07/P2000N BR BKN002 09/09 Q1028",
      "taf": "TAF LIPH 040500Z 0406/0506 VRB04KT 2000 BR SCT030"
    },
    {
      "icao": "LIPQ",
      "alert": "OK",
      "vis_m": 5000,
      "fzfg": false,
      "metar_trigger": false,
      "taf_trigger": false,
      "metar": "METAR LIPQ 040920Z AUTO VRB02KT 5000 BR BKN002/// 08/08 Q1028",
      "taf": ""
    },
    {
      "icao": "LIPR",
      "alert": "OK",
      "vis_m": 6000,
      "fzfg": false,
      "metar_trigger": false,
      "taf_trigger": false,
      "metar": "METAR LIPR 040920Z 32003KT 280V360 6000 BKN010 11/09 Q1028",
      "taf": "TAF LIPR 040500Z 0406/0506 VRB05KT 6000 BKN015"
    },
    {
      "icao": "LIPX",
      "alert": "OK",
      "vis_m": 800,
      "fzfg": false,
      "metar_trigger": false,
      "taf_trigger": false,
      "metar": "METAR LIPX 040920Z 12004KT 080V160 0800 R04/0650N PRFG VV002 08/08 Q1028",
      "taf": ""
    },
    {
      "icao": "LIPY",
      "alert": "OK",
      "vis_m": 6000,
      "fzfg": false,
      "metar_trigger": false,
      "taf_trigger": false,
      "metar": "METAR LIPY 040920Z AUTO VRB01KT 6000 OVC013/// 11/10 Q1028",
      "taf": "TAF LIPY 040500Z 0406/0506 VRB05KT 6000 FEW015"
    },
    {
      "icao": "LIPZ",
      "alert": "OK",
      "vis_m": 3000,
      "fzfg": false,
      "metar_trigger": false,
      "taf_trigger": false,
      "metar": "METAR LIPZ 040920Z VRB03KT 3000 BR BKN009 09/08 Q1029 BECMG 6000",
      "taf": "TAF LIPZ 040500Z 0406/0512 VRB04KT 1200 BCFG SCT030"
    },
    {
      "icao": "LIRF",
      "alert": "OK",
      "vis_m": 6000,
      "fzfg": false,
      "metar_trigger": false,
      "taf_trigger": false,
      "metar": "METAR LIRF 040920Z 09006KT 070V130 6000 NSC 15/12 Q1026 NOSIG",
      "taf": "TAF LIRF 040500Z 0406/0512 06006KT 7000 FEW050"
    },
    {
      "icao": "LIRN",
      "alert": "OK",
      "vis_m": 8000,
      "fzfg": false,
      "metar_trigger": false,
      "taf_trigger": false,
      "metar": "METAR LIRN 040920Z 17004KT 090V240 8000 NSC 17/09 Q1027 NOSIG",
      "taf": "TAF LIRN 040500Z 0406/0506 VRB05KT 7000 NSC"
    },
    {
      "icao": "LIRP",
      "alert": "OK",
      "vis_m": 9999,
      "fzfg": false,
      "metar_trigger": false,
      "taf_trigger": false,
      "metar": "METAR LIRP 040915Z 11001KT 9999 SCT070 13/11 Q1026 NOSIG",
      "taf": "TAF LIRP 040500Z 0406/0506 09005KT 9999 SCT060"
    },
    {
      "icao": "LIRZ",
      "alert": "OK",
      "vis_m": 9999,
      "fzfg": false,
      "metar_trigger": false,
      "taf_trigger": false,
      "metar": "METAR LIRZ 040920Z AUTO VRB01KT 9999 FEW095/// 10/08 Q1027",
      "taf": "TAF LIRZ 040500Z 0406/0506 VRB05KT 9999 SCT040"
    },
    {
      "icao": "LJLJ",
      "alert": "OK",
      "vis_m": 9999,
      "fzfg": false,
      "metar_trigger": false,
      "taf_trigger": false,
      "metar": "METAR LJLJ 040930Z 10002KT 9999 FEW060 08/04 Q1027 NOSIG",
      "taf": "TAF LJLJ 040500Z 0406/0506 VRB02KT CAVOK"
    },
    {
      "icao": "LKMT",
      "alert": "OK",
      "vis_m": 9999,
      "fzfg": false,
      "metar_trigger": false,
      "taf_trigger": false,
      "metar": "METAR LKMT 040930Z 24005KT 9999 FEW040 10/06 Q1027 NOSIG",
      "taf": "TAF LKMT 040500Z 0406/0506 23007KT CAVOK"
    },
    {
      "icao": "LKPR",
      "alert": "OK",
      "vis_m": 5000,
      "fzfg": false,
      "metar_trigger": false,
      "taf_trigger": false,
      "metar": "METAR LKPR 040930Z 33003KT 270V010 5000 BR NSC 05/02 Q1027 NOSIG",
      "taf": "TAF LKPR 040800Z 0409/0515 VRB02KT 5000 BR NSC"
    },
    {
      "icao": "LLBG",
      "alert": "OK",
      "vis_m": 9999,
      "fzfg": false,
      "metar_trigger": false,
      "taf_trigger": false,
      "metar": "METAR LLBG 040950Z 23010KT 9999 SCT036 18/09 Q1022 NOSIG RMK SCT070",
      "taf": "TAF LLBG 040503Z 0406/0506 VRB04KT 9999 FEW035 TX19/0411Z TN09/0503Z"
    },
    {
      "icao": "LMML",
      "alert": "OK",
      "vis_m": 9999,
      "fzfg": false,
      "metar_trigger": false,
      "taf_trigger": false,
      "metar": "METAR LMML 040945Z 12014KT 9999 FEW015 18/14 Q1027 NOSIG",
      "taf": "TAF LMML 040500Z 0406/0506 14014KT 9999 FEW015"
    },
    {
      "icao": "LOWW",
      "alert": "OK",
      "vis_m": 9000,
      "fzfg": false,
      "metar_trigger": false,
      "taf_trigger": false,
      "metar": "METAR LOWW 040920Z VRB02KT 9000 NSC 07/04 Q1027 NOSIG",
      "taf": "TAF LOWW 040815Z 0409/0515 34004KT CAVOK TX14/0514Z TN03/0505Z"
    },
    {
      "icao": "LPFR",
      "alert": "OK",
      "vis_m": 9999,
      "fzfg": false,
      "metar_trigger": false,
      "taf_trigger": false,
      "metar": "METAR LPFR 040930Z 03004KT 330V100 9999 FEW010 SCT027 14/11 Q1012",
      "taf": "TAF LPFR 040500Z 0406/0506 VRB02KT 9999 SCT020"
    },
    {
      "icao": "LPMA",
      "alert": "OK",
      "vis_m": 9999,
      "fzfg": false,
      "metar_trigger": false,
      "taf_trigger": false,
      "metar": "METAR LPMA 040930Z 36015G26KT 330V030 9999 -SHRA BKN015 FEW018CB 15/12 Q1020",
      "taf": "TAF LPMA 040500Z 0406/0506 36015KT 9999 SCT015"
    },
    {
      "icao": "LPPR",
      "alert": "OK",
      "vis_m": 9999,
      "fzfg": false,
      "metar_trigger": false,
      "taf_trigger": false,
      "metar": "METAR LPPR 040930Z 00000KT CAVOK 15/09 Q1016",
      "taf": "TAF LPPR 040500Z 0406/0506 VRB02KT CAVOK"
    },
    {
      "icao": "LPPS",
      "alert": "OK",
      "vis_m": 9999,
      "fzfg": false,
      "metar_trigger": false,
      "taf_trigger": false,
      "metar": "METAR LPPS 040930Z 36019KT 9999 SCT014 FEW016TCU 16/12 Q1020",
      "taf": "TAF LPPS 040500Z 0406/0512 36020KT 9999 SCT015"
    },
    {
      "icao": "LPPT",
      "alert": "OK",
      "vis_m": 9999,
      "fzfg": false,
      "metar_trigger": false,
      "taf_trigger": false,
      "metar": "METAR LPPT 040930Z 04017KT CAVOK 15/09 Q1014",
      "taf": "TAF LPPT 040500Z 0406/0512 04008KT CAVOK"
    },
    {
      "icao": "LQBK",
      "alert": "OK",
      "vis_m": 9999,
      "fzfg": false,
      "metar_trigger": false,
      "taf_trigger": false,
      "metar": "METAR LQBK 040930Z VRB02KT CAVOK 11/04 Q1027 NOSIG",
      "taf": "TAF LQBK 040500Z 0406/0506 34005KT CAVOK TX17/0414Z TN01/0406Z"
    },
    {
      "icao": "LQSA",
      "alert": "OK",
      "vis_m": 9999,
      "fzfg": false,
      "metar_trigger": false,
      "taf_trigger": false,
      "metar": "METAR LQSA 040930Z VRB01KT CAVOK 07/03 Q1028 NOSIG",
      "taf": "TAF LQSA 040500Z 0406/0506 VRB02KT CAVOK TX18/0414Z TNM01/0406Z"
    },
    {
      "icao": "LQTZ",
      "alert": "OK",
      "vis_m": 9999,
      "fzfg": false,
      "metar_trigger": false,
      "taf_trigger": false,
      "metar": "METAR LQTZ 040930Z VRB03KT CAVOK 09/05 Q1027",
      "taf": ""
    },
    {
      "icao": "LRBC",
      "alert": "OK",
      "vis_m": 9999,
      "fzfg": false,
      "metar_trigger": false,
      "taf_trigger": false,
      "metar": "METAR LRBC 040930Z 16006KT 140V200 CAVOK 10/03 Q1027",
      "taf": "TAF LRBC 040800Z 0409/0418 VRB04KT CAVOK"
    },
    {
      "icao": "LRBS",
      "alert": "OK",
      "vis_m": 9999,
      "fzfg": false,
      "metar_trigger": false,
      "taf_trigger": false,
      "metar": "METAR LRBS 040930Z VRB01KT CAVOK 11/04 Q1029 NOSIG",
      "taf": "TAF LRBS 040500Z 0406/0506 VRB04KT 3000 BR NSC"
    },
    {
      "icao": "LRBV",
      "alert": "OK",
      "vis_m": 9999,
      "fzfg": false,
      "metar_trigger": false,
      "taf_trigger": false,
      "metar": "METAR LRBV 040930Z 14001KT CAVOK 08/01 Q1027",
      "taf": "TAF LRBV 040800Z 0409/0418 VRB04KT CAVOK"
    },
    {
      "icao": "LRCL",
      "alert": "OK",
      "vis_m": 9999,
      "fzfg": false,
      "metar_trigger": false,
      "taf_trigger": false,
      "metar": "METAR LRCL 040930Z 08003KT 010V130 CAVOK 10/M00 Q1028",
      "taf": "TAF LRCL 040800Z 0409/0418 VRB04KT CAVOK"
    },
    {
      "icao": "LRCV",
      "alert": "OK",
      "vis_m": 9999,
      "fzfg": false,
      "metar_trigger": false,
      "taf_trigger": false,
      "metar": "METAR LRCV 040930Z 10003KT 060V170 CAVOK 10/05 Q1029",
      "taf": "TAF LRCV 040800Z 0409/0418 04006KT 5000 BR NSC"
    },
    {
      "icao": "LRIA",
      "alert": "OK",
      "vis_m": 9999,
      "fzfg": false,
      "metar_trigger": false,
      "taf_trigger": false,
      "metar": "METAR LRIA 040930Z 11003KT 080V140 CAVOK 08/03 Q1027",
      "taf": "TAF LRIA 040800Z 0409/0418 VRB04KT 5000 BR NSC"
    },
    {
      "icao": "LROP",
      "alert": "OK",
      "vis_m": 9999,
      "fzfg": false,
      "metar_trigger": false,
      "taf_trigger": false,
      "metar": "METAR LROP 040930Z VRB01KT CAVOK 11/01 Q1029 NOSIG",
      "taf": "TAF LROP 040500Z 0406/0506 VRB04KT 3000 BR NSC"
    },
    {
      "icao": "LRSB",
      "alert": "OK",
      "vis_m": 9999,
      "fzfg": false,
      "metar_trigger": false,
      "taf_trigger": false,
      "metar": "METAR LRSB 040930Z VRB02KT CAVOK 11/01 Q1027",
      "taf": "TAF LRSB 040500Z 0406/0506 VRB04KT 5000 BR NSC"
    },
    {
      "icao": "LRSM",
      "alert": "OK",
      "vis_m": 9999,
      "fzfg": false,
      "metar_trigger": false,
      "taf_trigger": false,
      "metar": "METAR LRSM 040930Z VRB01KT CAVOK 11/02 Q1028",
      "taf": "TAF LRSM 040800Z 0409/0418 VRB04KT CAVOK"
    },
    {
      "icao": "LRSV",
      "alert": "OK",
      "vis_m": 9999,
      "fzfg": false,
      "metar_trigger": false,
      "taf_trigger": false,
      "metar": "METAR LRSV 040930Z 23005KT 200V270 CAVOK 11/02 Q1025",
      "taf": "TAF LRSV 040800Z 0409/0418 23008KT CAVOK"
    },
    {
      "icao": "LRTM",
      "alert": "OK",
      "vis_m": 9999,
      "fzfg": false,
      "metar_trigger": false,
      "taf_trigger": false,
      "metar": "METAR LRTM 040930Z VRB02KT CAVOK 10/01 Q1028",
      "taf": "TAF LRTM 040800Z 0409/0418 VRB04KT CAVOK"
    },
    {
      "icao": "LRTR",
      "alert": "OK",
      "vis_m": 9999,
      "fzfg": false,
      "metar_trigger": false,
      "taf_trigger": false,
      "metar": "METAR LRTR 040930Z 13003KT 100V160 CAVOK 10/05 Q1028 NOSIG",
      "taf": "TAF LRTR 040500Z 0406/0506 VRB04KT 5000 BR NSC"
    },
    {
      "icao": "LTAC",
      "alert": "OK",
      "vis_m": 9999,
      "fzfg": false,
      "metar_trigger": false,
      "taf_trigger": false,
      "metar": "METAR LTAC 040920Z 07007KT 320V110 9999 FEW040 07/M07 Q1026 NOSIG RMK RWY21C 06011KT 360V080 RWY03L 06006KT 010V090 RWY21R 04008KT 350V070 RWY03R 06008KT 020V100 RWY21L 04011KT 360V070",
      "taf": "TAF LTAC 040440Z 0406/0506 VRB02KT 9999 SCT040 SCT180"
    },
    {
      "icao": "LTFM",
      "alert": "OK",
      "vis_m": 9999,
      "fzfg": false,
      "metar_trigger": false,
      "taf_trigger": false,
      "metar": "METAR LTFM 040920Z 03005KT 340V080 CAVOK 10/03 Q1030 NOSIG RMK RWY17L 03005KT RWY34L 01004KT 320V050 RWY16R 02004KT 340V050 RWY36 02005KT RWY18 04004KT 360V070",
      "taf": "TAF LTFM 040440Z 0406/0512 VRB02KT 0300 FG VV001"
    },
    {
      "icao": "LUKK",
      "alert": "OK",
      "vis_m": 9999,
      "fzfg": false,
      "metar_trigger": false,
      "taf_trigger": false,
      "metar": "METAR LUKK 040930Z 25007KT 220V280 9999 BKN041 10/02 Q1027 NOSIG",
      "taf": "TAF LUKK 040506Z 0406/0506 24010KT CAVOK"
    },
    {
      "icao": "LWOH",
      "alert": "OK",
      "vis_m": 9999,
      "fzfg": false,
      "metar_trigger": false,
      "taf_trigger": false,
      "metar": "METAR LWOH 040950Z 16006KT 9999 FEW040 SCT090 09/05 Q1028",
      "taf": "TAF LWOH 040810Z 0409/0509 VRB02KT CAVOK"
    },
    {
      "icao": "LWSK",
      "alert": "OK",
      "vis_m": 9999,
      "fzfg": false,
      "metar_trigger": false,
      "taf_trigger": false,
      "metar": "METAR LWSK 040950Z VRB01KT CAVOK 15/05 Q1029 NOSIG",
      "taf": "TAF LWSK 040810Z 0409/0509 VRB02KT CAVOK"
    },
    {
      "icao": "LYBE",
      "alert": "OK",
      "vis_m": 9999,
      "fzfg": false,
      "metar_trigger": false,
      "taf_trigger": false,
      "metar": "METAR LYBE 040930Z 12003KT 090V190 CAVOK 14/05 Q1028 NOSIG",
      "taf": "TAF LYBE 040500Z 0406/0506 10005KT 5000 BR NSC TX17/0413Z TN03/0406Z"
    },
    {
      "icao": "LYNI",
      "alert": "OK",
      "vis_m": 9999,
      "fzfg": false,
      "metar_trigger": false,
      "taf_trigger": false,
      "metar": "METAR LYNI 040930Z VRB02KT CAVOK 11/05 Q1028 NOSIG",
      "taf": "TAF LYNI 040500Z 0406/0506 17004KT CAVOK TX18/0414Z TN03/0406Z"
    },
    {
      "icao": "LYPG",
      "alert": "OK",
      "vis_m": 9999,
      "fzfg": false,
      "metar_trigger": false,
      "taf_trigger": false,
      "metar": "METAR LYPG 040930Z 00000KT CAVOK 13/06 Q1028 NOSIG",
      "taf": "TAF LYPG 040500Z 0406/0506 18006KT 9999 FEW040 TX18/0413Z TN06/0506Z"
    },
    {
      "icao": "LZIB",
      "alert": "OK",
      "vis_m": 9999,
      "fzfg": false,
      "metar_trigger": false,
      "taf_trigger": false,
      "metar": "METAR LZIB 040930Z VRB03KT CAVOK 10/04 Q1027 NOSIG",
      "taf": "TAF LZIB 040515Z 0406/0506 VRB04KT 9999 FEW045"
    },
    {
      "icao": "LZKZ",
      "alert": "OK",
      "vis_m": 9999,
      "fzfg": false,
      "metar_trigger": false,
      "taf_trigger": false,
      "metar": "METAR LZKZ 040930Z VRB02KT CAVOK 10/02 Q1027 NOSIG",
      "taf": "TAF LZKZ 040515Z 0406/0506 VRB02KT CAVOK"
    },
    {
      "icao": "LZTT",
      "alert": "OK",
      "vis_m": 9999,
      "fzfg": false,
      "metar_trigger": false,
      "taf_trigger": false,
      "metar": "METAR LZTT 040930Z 07005KT 050V110 9999 FEW053 08/01 Q1026 NOSIG",
      "taf": "TAF LZTT 040515Z 0406/0506 VRB02KT CAVOK"
    },
    {
      "icao": "OEJN",
      "alert": "OK",
      "vis_m": 5000,
      "fzfg": false,
      "metar_trigger": false,
      "taf_trigger": false,
      "metar": "METAR OEJN 040900Z 04016KT 5000 BLDU NSC 29/M05 Q1015 TEMPO 4000",
      "taf": "TAF OEJN 040500Z 0406/0512 08016KT 7000 NSC"
    },
    {
      "icao": "OEMA",
      "alert": "OK",
      "vis_m": 9999,
      "fzfg": false,
      "metar_trigger": false,
      "taf_trigger": false,
      "metar": "METAR OEMA 040900Z 07009KT CAVOK 19/M08 Q1023 NOSIG",
      "taf": "TAF OEMA 040500Z 0406/0512 08012KT CAVOK"
    },
    {
      "icao": "OJAI",
      "alert": "OK",
      "vis_m": 5000,
      "fzfg": false,
      "metar_trigger": false,
      "taf_trigger": false,
      "metar": "METAR OJAI 040900Z 28012KT 5000 HZ BKN035 13/04 Q1023 NOSIG",
      "taf": "TAF OJAI 040433Z 0406/0512 29010KT 5000 HZ NSC"
    },
    {
      "icao": "OMAA",
      "alert": "OK",
      "vis_m": 9999,
      "fzfg": false,
      "metar_trigger": false,
      "taf_trigger": false,
      "metar": "METAR OMAA 040900Z 31012KT 190V340 9999 FEW030 30/12 Q1013 NOSIG",
      "taf": "TAF OMAA 040500Z 0406/0512 VRB02KT 8000 NSC"
    },
    {
      "icao": "OMDB",
      "alert": "OK",
      "vis_m": 7000,
      "fzfg": false,
      "metar_trigger": false,
      "taf_trigger": false,
      "metar": "METAR OMDB 040900Z 22010KT 180V250 7000 NSC 32/11 Q1012 NOSIG",
      "taf": "TAF OMDB 040500Z 0406/0512 19012KT 8000 NSC"
    },
    {
      "icao": "UAAA",
      "alert": "OK",
      "vis_m": 5000,
      "fzfg": false,
      "metar_trigger": false,
      "taf_trigger": false,
      "metar": "METAR UAAA 040930Z 21004MPS 5000 BR SCT050 OVC100 06/01 Q1013 NOSIG",
      "taf": "TAF UAAA 040509Z 0406/0506 34003G08MPS 6000 BKN011 OVC050 TX05/0409Z TNM02/0501Z"
    },
    {
      "icao": "UBBB",
      "alert": "OK",
      "vis_m": 9999,
      "fzfg": false,
      "metar_trigger": false,
      "taf_trigger": false,
      "metar": "METAR UBBB 040930Z 33014KT 9999 FEW026 10/04 Q1019 NOSIG",
      "taf": "TAF UBBB 040500Z 0406/0506 32014KT 9999 SCT012 BKN020 TX12/0410Z TN04/0501Z"
    },
    {
      "icao": "UDSG",
      "alert": "OK",
      "vis_m": 3200,
      "fzfg": false,
      "metar_trigger": false,
      "taf_trigger": false,
      "metar": "METAR UDSG 040930Z 21001KT 3200 -SN BR OVC020 M01/M04 Q1017 NOSIG",
      "taf": "TAF UDSG 040458Z 0406/0506 VRB04KT 5000 BR BKN040"
    },
    {
      "icao": "UDYZ",
      "alert": "OK",
      "vis_m": 9999,
      "fzfg": false,
      "metar_trigger": false,
      "taf_trigger": false,
      "metar": "METAR UDYZ 040930Z 27003KT 200V340 9999 FEW046 07/M05 Q1017 NOSIG",
      "taf": "TAF UDYZ 040500Z 0406/0506 VRB06KT 9999 SCT030"
    },
    {
      "icao": "UGKO",
      "alert": "OK",
      "vis_m": 9999,
      "fzfg": false,
      "metar_trigger": false,
      "taf_trigger": false,
      "metar": "METAR UGKO 040930Z VRB02KT 9999 SCT015 OVC025 06/04 Q1022 NOSIG",
      "taf": "TAF UGKO 040500Z 0406/0506 25006KT 9999 SCT030 OVC050 TX08/0410Z TN01/0503Z"
    }
  ]
}