{
  "ts_utc": "2026-03-06T23:55:51Z",
  "threshold_m": 150,
  "source": "stations_override.txt (ICAO list) + aviationweather.gov (METAR/TAF raw)",
  "station_count": 159,
  "stations": [
    {
      "icao": "BIKF",
      "alert": "OK",
      "vis_m": 9999,
      "fzfg": false,
      "metar_trigger": false,
      "taf_trigger": false,
      "metar": "METAR BIKF 062330Z 18035G48KT 9999 VCSH FEW010CB BKN021 BKN049 02/01 Q0968",
      "taf": "TAF BIKF 062248Z 0700/0800 16038G52KT 9999 SCT015 BKN035 TX04/0700Z TN01/0706Z"
    },
    {
      "icao": "BKPR",
      "alert": "OK",
      "vis_m": 9999,
      "fzfg": false,
      "metar_trigger": false,
      "taf_trigger": false,
      "metar": "METAR BKPR 062330Z 20001KT CAVOK 03/02 Q1027 BECMG 5000 BR",
      "taf": "TAF BKPR 062330Z 0700/0724 VRB03KT CAVOK"
    },
    {
      "icao": "EBCI",
      "alert": "OK",
      "vis_m": 9999,
      "fzfg": false,
      "metar_trigger": false,
      "taf_trigger": false,
      "metar": "METAR EBCI 062320Z 36002KT CAVOK 11/07 Q1023 NOSIG",
      "taf": ""
    },
    {
      "icao": "EDDB",
      "alert": "OK",
      "vis_m": 9999,
      "fzfg": false,
      "metar_trigger": false,
      "taf_trigger": false,
      "metar": "METAR EDDB 062350Z AUTO 11002KT CAVOK 03/M02 Q1025 NOSIG",
      "taf": "TAF EDDB 062300Z 0700/0724 12004KT CAVOK"
    },
    {
      "icao": "EDDH",
      "alert": "OK",
      "vis_m": 9999,
      "fzfg": false,
      "metar_trigger": false,
      "taf_trigger": false,
      "metar": "METAR EDDH 062350Z AUTO 09003KT CAVOK 05/02 Q1024 NOSIG",
      "taf": "TAF EDDH 062300Z 0700/0806 VRB03KT CAVOK"
    },
    {
      "icao": "EDDK",
      "alert": "OK",
      "vis_m": 9999,
      "fzfg": false,
      "metar_trigger": false,
      "taf_trigger": false,
      "metar": "METAR EDDK 062350Z AUTO VRB02KT CAVOK 06/04 Q1024 NOSIG",
      "taf": "TAF EDDK 062300Z 0700/0806 VRB03KT CAVOK"
    },
    {
      "icao": "EDDN",
      "alert": "OK",
      "vis_m": 9999,
      "fzfg": false,
      "metar_trigger": false,
      "taf_trigger": false,
      "metar": "METAR EDDN 062350Z AUTO VRB01KT CAVOK 03/01 Q1024",
      "taf": "TAF EDDN 062300Z 0700/0724 VRB03KT CAVOK"
    },
    {
      "icao": "EDDS",
      "alert": "OK",
      "vis_m": 9999,
      "fzfg": false,
      "metar_trigger": false,
      "taf_trigger": false,
      "metar": "METAR EDDS 062350Z AUTO 33002KT CAVOK 05/03 Q1022",
      "taf": "TAF EDDS 062300Z 0700/0724 VRB03KT CAVOK"
    },
    {
      "icao": "EDFH",
      "alert": "OK",
      "vis_m": 9999,
      "fzfg": false,
      "metar_trigger": false,
      "taf_trigger": false,
      "metar": "METAR EDFH 062320Z 12006KT CAVOK 08/04 Q1023",
      "taf": "TAF EDFH 062300Z 0700/0724 13005KT CAVOK"
    },
    {
      "icao": "EDJA",
      "alert": "OK",
      "vis_m": 9999,
      "fzfg": false,
      "metar_trigger": false,
      "taf_trigger": false,
      "metar": "METAR EDJA 062320Z AUTO VRB01KT 9999 // FEW160/// 02/01 Q1022",
      "taf": "TAF EDJA 061700Z 0618/0703 VRB03KT CAVOK"
    },
    {
      "icao": "EDLW",
      "alert": "OK",
      "vis_m": 9999,
      "fzfg": false,
      "metar_trigger": false,
      "taf_trigger": false,
      "metar": "METAR EDLW 062320Z AUTO 13008KT 9999 // NCD 08/04 Q1023",
      "taf": "TAF EDLW 061700Z 0618/0718 VRB03KT CAVOK"
    },
    {
      "icao": "EDNY",
      "alert": "OK",
      "vis_m": 7000,
      "fzfg": false,
      "metar_trigger": false,
      "taf_trigger": false,
      "metar": "METAR EDNY 062320Z AUTO 00000KT 7000 NCD 04/04 Q1022",
      "taf": "TAF EDNY 061700Z 0618/0703 VRB03KT CAVOK"
    },
    {
      "icao": "EDSB",
      "alert": "OK",
      "vis_m": 9999,
      "fzfg": false,
      "metar_trigger": false,
      "taf_trigger": false,
      "metar": "METAR EDSB 062320Z AUTO 36003KT 9999 NCD 08/05 Q1022",
      "taf": "TAF EDSB 062300Z 0700/0724 VRB03KT CAVOK"
    },
    {
      "icao": "EETN",
      "alert": "OK",
      "vis_m": 9999,
      "fzfg": false,
      "metar_trigger": false,
      "taf_trigger": false,
      "metar": "METAR EETN 062350Z 30007KT CAVOK 02/M01 Q1022",
      "taf": "TAF EETN 062330Z 0700/0724 29007KT CAVOK"
    },
    {
      "icao": "EFTU",
      "alert": "OK",
      "vis_m": 9999,
      "fzfg": false,
      "metar_trigger": false,
      "taf_trigger": false,
      "metar": "METAR EFTU 062350Z AUTO VRB02KT CAVOK M00/M01 Q1023",
      "taf": "TAF EFTU 062324Z 0700/0724 32002KT CAVOK"
    },
    {
      "icao": "EGBB",
      "alert": "OK",
      "vis_m": 7000,
      "fzfg": false,
      "metar_trigger": false,
      "taf_trigger": false,
      "metar": "METAR EGBB 062320Z 02003KT 7000 SCT015 BKN035 06/03 Q1027",
      "taf": "TAF EGBB 062257Z 0700/0724 01004KT 9999 BKN020"
    },
    {
      "icao": "EGGP",
      "alert": "OK",
      "vis_m": 9999,
      "fzfg": false,
      "metar_trigger": false,
      "taf_trigger": false,
      "metar": "METAR EGGP 062320Z 27005KT 9999 FEW021 SCT030 05/03 Q1027",
      "taf": "TAF EGGP 062256Z 0700/0724 VRB03KT 9999 SCT030"
    },
    {
      "icao": "EGGW",
      "alert": "OK",
      "vis_m": 6000,
      "fzfg": false,
      "metar_trigger": false,
      "taf_trigger": false,
      "metar": "METAR EGGW 062320Z AUTO 02008KT 6000 BKN003 06/05 Q1026",
      "taf": "TAF EGGW 062259Z 0700/0724 04008KT 9999 OVC003"
    },
    {
      "icao": "EGKK",
      "alert": "OK",
      "vis_m": 3300,
      "fzfg": false,
      "metar_trigger": false,
      "taf_trigger": false,
      "metar": "METAR EGKK 062320Z 36006KT 3300 -RADZ BR BKN004 08/08 Q1025",
      "taf": "TAF EGKK 062256Z 0700/0806 02005KT 9999 BKN010"
    },
    {
      "icao": "EGNM",
      "alert": "OK",
      "vis_m": 9999,
      "fzfg": false,
      "metar_trigger": false,
      "taf_trigger": false,
      "metar": "METAR EGNM 062250Z 27002KT 9999 BKN023 05/03 Q1026",
      "taf": "TAF EGNM 061657Z 0618/0718 VRB03KT 9999 SCT015"
    },
    {
      "icao": "EGPD",
      "alert": "OK",
      "vis_m": 9999,
      "fzfg": false,
      "metar_trigger": false,
      "taf_trigger": false,
      "metar": "METAR EGPD 062320Z COR AUTO 20003KT 9999 NCD 01/M01 Q1024 NOSIG",
      "taf": "TAF EGPD 062255Z 0700/0724 17006KT CAVOK"
    },
    {
      "icao": "EGPF",
      "alert": "OK",
      "vis_m": 9999,
      "fzfg": false,
      "metar_trigger": false,
      "taf_trigger": false,
      "metar": "METAR EGPF 062320Z AUTO VRB02KT 9999 NCD M01/M01 Q1026",
      "taf": ""
    },
    {
      "icao": "EHBK",
      "alert": "OK",
      "vis_m": 9999,
      "fzfg": false,
      "metar_trigger": false,
      "taf_trigger": false,
      "metar": "METAR EHBK 062325Z AUTO 09002KT 9999 NSC 08/05 Q1023",
      "taf": "TAF EHBK 062312Z 0700/0806 VRB02KT CAVOK"
    },
    {
      "icao": "EHEH",
      "alert": "OK",
      "vis_m": 9999,
      "fzfg": false,
      "metar_trigger": false,
      "taf_trigger": false,
      "metar": "METAR EHEH 062325Z AUTO 33001KT 9999 OVC120 07/05 Q1023 BLU",
      "taf": "TAF EHEH 061728Z 0618/0724 VRB01KT CAVOK"
    },
    {
      "icao": "EKBI",
      "alert": "OK",
      "vis_m": 9999,
      "fzfg": false,
      "metar_trigger": false,
      "taf_trigger": false,
      "metar": "METAR EKBI 062350Z AUTO 11002KT 9999 NCD 03/01 Q1024",
      "taf": ""
    },
    {
      "icao": "EKCH",
      "alert": "OK",
      "vis_m": 7000,
      "fzfg": false,
      "metar_trigger": false,
      "taf_trigger": false,
      "metar": "METAR EKCH 062350Z AUTO 13001KT 7000 NCD 02/00 Q1025 NOSIG",
      "taf": "TAF EKCH 062327Z 0700/0724 15007KT CAVOK"
    },
    {
      "icao": "ENAL",
      "alert": "OK",
      "vis_m": 9999,
      "fzfg": false,
      "metar_trigger": false,
      "taf_trigger": false,
      "metar": "METAR ENAL 062320Z AUTO VRB02KT 9999 OVC043/// 02/02 Q1022",
      "taf": "TAF ENAL 062300Z 0700/0709 15006KT CAVOK"
    },
    {
      "icao": "ENBR",
      "alert": "OK",
      "vis_m": 800,
      "fzfg": false,
      "metar_trigger": false,
      "taf_trigger": false,
      "metar": "METAR ENBR 062320Z 19002KT 0800 R17/P2000N R35/P2000N FG BKN001 OVC004 05/04 Q1023 RMK WIND 1200FT 21007KT",
      "taf": "TAF ENBR 062300Z 0700/0724 VRB04KT 4000 -RADZ BR SCT003 OVC008"
    },
    {
      "icao": "ENGM",
      "alert": "OK",
      "vis_m": 8000,
      "fzfg": false,
      "metar_trigger": false,
      "taf_trigger": false,
      "metar": "METAR ENGM 062320Z 34004KT 8000 NSC M00/M01 Q1024",
      "taf": "TAF ENGM 062300Z 0700/0724 36005KT 8000 BKN020"
    },
    {
      "icao": "ENHD",
      "alert": "OK",
      "vis_m": 2000,
      "fzfg": false,
      "metar_trigger": false,
      "taf_trigger": false,
      "metar": "METAR ENHD 062320Z AUTO 19003KT 160V220 2000 BR OVC005/// 05/04 Q1023",
      "taf": "TAF ENHD 061400Z 0615/0623 20008KT 9000 -RA BKN020"
    },
    {
      "icao": "ENTC",
      "alert": "OK",
      "vis_m": 9999,
      "fzfg": false,
      "metar_trigger": false,
      "taf_trigger": false,
      "metar": "METAR ENTC 062320Z AUTO 27018KT 9999 -RA FEW037/// SCT047/// BKN060/// 04/M04 Q1010 RMK WIND 2600FT 29036G57KT",
      "taf": "TAF ENTC 062300Z 0700/0724 27016KT 9999 FEW015 SCT025"
    },
    {
      "icao": "ENTO",
      "alert": "OK",
      "vis_m": 150,
      "fzfg": false,
      "metar_trigger": false,
      "taf_trigger": false,
      "metar": "METAR ENTO 062320Z AUTO VRB02KT 0150 R18/0550N R36/0650N FG VV001 00/00 Q1024",
      "taf": "TAF ENTO 062300Z 0700/0724 36005KT 6000 BKN020"
    },
    {
      "icao": "ENVA",
      "alert": "OK",
      "vis_m": 9999,
      "fzfg": false,
      "metar_trigger": false,
      "taf_trigger": false,
      "metar": "METAR ENVA 062320Z 08006KT CAVOK M00/M01 Q1024 RMK WIND 670FT 13009KT",
      "taf": "TAF ENVA 062300Z 0700/0724 09006KT 9999 FEW030"
    },
    {
      "icao": "ENZV",
      "alert": "OK",
      "vis_m": 3500,
      "fzfg": false,
      "metar_trigger": false,
      "taf_trigger": false,
      "metar": "METAR ENZV 062320Z 27003KT 3500 BR OVC045 05/04 Q1022",
      "taf": "TAF ENZV 062300Z 0700/0724 VRB04KT 4000 RADZ SCT005 BKN035"
    },
    {
      "icao": "EPGD",
      "alert": "OK",
      "vis_m": 8000,
      "fzfg": false,
      "metar_trigger": false,
      "taf_trigger": false,
      "metar": "METAR EPGD 062330Z VRB02KT 8000 NSC M00/M02 Q1027",
      "taf": "TAF EPGD 062330Z 0700/0724 VRB02KT 6000 NSC"
    },
    {
      "icao": "EPKK",
      "alert": "OK",
      "vis_m": 9999,
      "fzfg": false,
      "metar_trigger": false,
      "taf_trigger": false,
      "metar": "METAR EPKK 062330Z 06004KT CAVOK M02/M04 Q1027",
      "taf": "TAF EPKK 062330Z 0700/0724 VRB02KT CAVOK"
    },
    {
      "icao": "EPKT",
      "alert": "OK",
      "vis_m": 9999,
      "fzfg": false,
      "metar_trigger": false,
      "taf_trigger": false,
      "metar": "METAR EPKT 062330Z VRB02KT CAVOK M05/M07 Q1027",
      "taf": "TAF EPKT 062330Z 0700/0724 07003KT CAVOK"
    },
    {
      "icao": "EPLB",
      "alert": "OK",
      "vis_m": 9999,
      "fzfg": false,
      "metar_trigger": false,
      "taf_trigger": false,
      "metar": "METAR EPLB 062330Z 24002KT CAVOK M02/M04 Q1028",
      "taf": "TAF EPLB 062330Z 0700/0724 VRB02KT CAVOK"
    },
    {
      "icao": "EPMO",
      "alert": "OK",
      "vis_m": 7000,
      "fzfg": false,
      "metar_trigger": false,
      "taf_trigger": false,
      "metar": "METAR EPMO 062330Z VRB02KT 7000 NSC M01/M02 Q1028",
      "taf": "TAF EPMO 062330Z 0700/0724 VRB02KT CAVOK"
    },
    {
      "icao": "EPPO",
      "alert": "OK",
      "vis_m": 9999,
      "fzfg": false,
      "metar_trigger": false,
      "taf_trigger": false,
      "metar": "METAR EPPO 062330Z 09006KT CAVOK 01/M04 Q1027",
      "taf": "TAF EPPO 062330Z 0700/0724 14004KT CAVOK"
    },
    {
      "icao": "EPRA",
      "alert": "OK",
      "vis_m": 9999,
      "fzfg": false,
      "metar_trigger": false,
      "taf_trigger": false,
      "metar": "METAR EPRA 062330Z VRB02KT CAVOK M00/M05 Q1028",
      "taf": "TAF EPRA 062330Z 0700/0709 VRB03KT CAVOK"
    },
    {
      "icao": "EPRZ",
      "alert": "OK",
      "vis_m": 8000,
      "fzfg": false,
      "metar_trigger": false,
      "taf_trigger": false,
      "metar": "METAR EPRZ 062330Z VRB01KT 8000 NSC M02/M04 Q1028",
      "taf": "TAF EPRZ 062330Z 0700/0724 VRB02KT 8000 NSC"
    },
    {
      "icao": "EPSC",
      "alert": "OK",
      "vis_m": 9999,
      "fzfg": false,
      "metar_trigger": false,
      "taf_trigger": false,
      "metar": "METAR EPSC 062330Z 12008KT CAVOK 04/M02 Q1026",
      "taf": "TAF EPSC 062330Z 0700/0724 12006KT CAVOK"
    },
    {
      "icao": "EPSY",
      "alert": "OK",
      "vis_m": 9999,
      "fzfg": false,
      "metar_trigger": false,
      "taf_trigger": false,
      "metar": "METAR EPSY 062330Z 00000KT CAVOK M04/M05 Q1028",
      "taf": "TAF EPSY 062330Z 0700/0709 VRB03KT CAVOK"
    },
    {
      "icao": "EPWA",
      "alert": "OK",
      "vis_m": 9000,
      "fzfg": false,
      "metar_trigger": false,
      "taf_trigger": false,
      "metar": "METAR EPWA 062330Z 13002KT 9000 NSC M02/M03 Q1028 NOSIG",
      "taf": "TAF EPWA 062330Z 0700/0724 VRB02KT CAVOK"
    },
    {
      "icao": "EPWR",
      "alert": "OK",
      "vis_m": 9999,
      "fzfg": false,
      "metar_trigger": false,
      "taf_trigger": false,
      "metar": "METAR EPWR 062330Z 13004KT CAVOK 02/M02 Q1026",
      "taf": "TAF EPWR 062330Z 0700/0724 14004KT CAVOK"
    },
    {
      "icao": "ESGG",
      "alert": "OK",
      "vis_m": 9999,
      "fzfg": false,
      "metar_trigger": false,
      "taf_trigger": false,
      "metar": "METAR ESGG 062320Z 16005KT CAVOK 03/M03 Q1024",
      "taf": "TAF ESGG 062330Z 0700/0724 16005KT CAVOK"
    },
    {
      "icao": "ESKN",
      "alert": "OK",
      "vis_m": 9999,
      "fzfg": false,
      "metar_trigger": false,
      "taf_trigger": false,
      "metar": "METAR ESKN 062320Z 29004KT CAVOK 00/M00 Q1024",
      "taf": "TAF ESKN 062330Z 0700/0724 29005KT CAVOK"
    },
    {
      "icao": "ESMS",
      "alert": "OK",
      "vis_m": 9999,
      "fzfg": false,
      "metar_trigger": false,
      "taf_trigger": false,
      "metar": "METAR ESMS 062320Z 10004KT CAVOK 01/M01 Q1025",
      "taf": "TAF ESMS 062327Z 0700/0724 16008KT CAVOK"
    },
    {
      "icao": "ESSA",
      "alert": "OK",
      "vis_m": 9999,
      "fzfg": false,
      "metar_trigger": false,
      "taf_trigger": false,
      "metar": "METAR ESSA 062320Z 06006KT CAVOK 04/00 Q1024 NOSIG",
      "taf": "TAF ESSA 062330Z 0700/0724 05005KT CAVOK"
    },
    {
      "icao": "EYKA",
      "alert": "OK",
      "vis_m": 3100,
      "fzfg": false,
      "metar_trigger": false,
      "taf_trigger": false,
      "metar": "METAR EYKA 062350Z AUTO VRB02KT 3100 BR NCD M03/M03 Q1027",
      "taf": "TAF EYKA 062312Z 0700/0724 VRB03KT 3000 BR SCT002"
    },
    {
      "icao": "EYPA",
      "alert": "OK",
      "vis_m": 8000,
      "fzfg": false,
      "metar_trigger": false,
      "taf_trigger": false,
      "metar": "METAR EYPA 062350Z AUTO VRB02KT 8000 NCD M03/M03 Q1027",
      "taf": "TAF EYPA 062311Z 0700/0724 VRB03KT 5000 BR SCT002"
    },
    {
      "icao": "EYVI",
      "alert": "OK",
      "vis_m": 5000,
      "fzfg": false,
      "metar_trigger": false,
      "taf_trigger": false,
      "metar": "METAR EYVI 062350Z 18005KT 5000 BR FEW001 M03/M03 Q1027 NOSIG",
      "taf": "TAF EYVI 062313Z 0700/0724 VRB03KT 5000 BR FEW002"
    },
    {
      "icao": "GCFV",
      "alert": "OK",
      "vis_m": 9999,
      "fzfg": false,
      "metar_trigger": false,
      "taf_trigger": false,
      "metar": "METAR GCFV 062330Z AUTO 01022KT 9999 OVC039 16/08 Q1022",
      "taf": "TAF GCFV 062000Z 0621/0721 02018KT 9999 BKN030 TX20/0714Z TN14/0706Z"
    },
    {
      "icao": "GCLP",
      "alert": "OK",
      "vis_m": 9999,
      "fzfg": false,
      "metar_trigger": false,
      "taf_trigger": false,
      "metar": "METAR GCLP 062330Z 01019KT 9999 BKN040 16/08 Q1022 NOSIG",
      "taf": "TAF GCLP 062000Z 0621/0721 02020KT 9999 BKN030 TX18/0714Z TN14/0706Z"
    },
    {
      "icao": "GCTS",
      "alert": "OK",
      "vis_m": 9999,
      "fzfg": false,
      "metar_trigger": false,
      "taf_trigger": false,
      "metar": "METAR GCTS 062330Z 06018KT 9999 FEW040 16/06 Q1022 NOSIG",
      "taf": "TAF GCTS 062000Z 0621/0721 05015KT 9999 SCT040 TX22/0714Z TN14/0706Z"
    },
    {
      "icao": "GMAD",
      "alert": "OK",
      "vis_m": 8000,
      "fzfg": false,
      "metar_trigger": false,
      "taf_trigger": false,
      "metar": "METAR GMAD 062330Z 20003KT 8000 NSC 12/10 Q1017 NOSIG",
      "taf": "TAF GMAD 062300Z 0700/0806 06006KT 6000 NSC"
    },
    {
      "icao": "GMMN",
      "alert": "OK",
      "vis_m": 9999,
      "fzfg": false,
      "metar_trigger": false,
      "taf_trigger": false,
      "metar": "METAR GMMN 062330Z 20005KT 9999 BKN026 07/05 Q1021 NOSIG",
      "taf": "TAF GMMN 062300Z 0700/0806 20006KT 9999 BKN026"
    },
    {
      "icao": "GMMX",
      "alert": "OK",
      "vis_m": 9999,
      "fzfg": false,
      "metar_trigger": false,
      "taf_trigger": false,
      "metar": "METAR GMMX 062330Z 04006KT 020V080 9999 BKN020 10/06 Q1020 NOSIG",
      "taf": "TAF GMMX 062300Z 0700/0806 06006KT 9999 SCT020"
    },
    {
      "icao": "HEGN",
      "alert": "OK",
      "vis_m": 9999,
      "fzfg": false,
      "metar_trigger": false,
      "taf_trigger": false,
      "metar": "METAR HEGN 062300Z 28008KT CAVOK 16/02 Q1016 NOSIG",
      "taf": "TAF HEGN 062300Z 0700/0806 29010G22KT CAVOK"
    },
    {
      "icao": "HEMA",
      "alert": "OK",
      "vis_m": null,
      "fzfg": false,
      "metar_trigger": false,
      "taf_trigger": false,
      "metar": "",
      "taf": "TAF HEMA 062300Z 0700/0806 30010G22KT CAVOK"
    },
    {
      "icao": "HESH",
      "alert": "OK",
      "vis_m": 9999,
      "fzfg": false,
      "metar_trigger": false,
      "taf_trigger": false,
      "metar": "METAR HESH 062300Z 35010KT CAVOK 20/10 Q1015 NOSIG",
      "taf": "TAF HESH 062300Z 0700/0806 32014KT CAVOK"
    },
    {
      "icao": "HESX",
      "alert": "OK",
      "vis_m": 9999,
      "fzfg": false,
      "metar_trigger": false,
      "taf_trigger": false,
      "metar": "METAR HESX 062300Z 01004KT CAVOK 11/09 Q1021 NOSIG",
      "taf": "TAF HESX 062300Z 0700/0806 35009KT CAVOK"
    },
    {
      "icao": "LATI",
      "alert": "OK",
      "vis_m": 9999,
      "fzfg": false,
      "metar_trigger": false,
      "taf_trigger": false,
      "metar": "METAR LATI 062350Z 15003KT CAVOK 06/03 Q1025 NOSIG",
      "taf": "TAF LATI 062300Z 0700/0724 VRB03KT CAVOK TX21/0713Z TN04/0705Z"
    },
    {
      "icao": "LBPD",
      "alert": "OK",
      "vis_m": 9999,
      "fzfg": false,
      "metar_trigger": false,
      "taf_trigger": false,
      "metar": "METAR LBPD 062330Z AUTO 12008KT 9999 NCD 06/05 Q1027",
      "taf": "TAF LBPD 062300Z 0700/0724 VRB03KT 9999 SCT080"
    },
    {
      "icao": "LBSF",
      "alert": "OK",
      "vis_m": 9999,
      "fzfg": false,
      "metar_trigger": false,
      "taf_trigger": false,
      "metar": "METAR LBSF 062330Z AUTO 17006KT 9999 NCD 02/M00 Q1027 NOSIG",
      "taf": "TAF LBSF 062300Z 0700/0724 VRB04KT CAVOK"
    },
    {
      "icao": "LBWN",
      "alert": "OK",
      "vis_m": 9999,
      "fzfg": false,
      "metar_trigger": false,
      "taf_trigger": false,
      "metar": "METAR LBWN 062330Z AUTO VRB01KT 9999 NSC 05/M01 Q1028 NOSIG",
      "taf": "TAF LBWN 062300Z 0700/0724 VRB03KT 9999 SCT040"
    },
    {
      "icao": "LCLK",
      "alert": "OK",
      "vis_m": 9999,
      "fzfg": false,
      "metar_trigger": false,
      "taf_trigger": false,
      "metar": "METAR LCLK 062330Z 30005KT CAVOK 11/09 Q1018 NOSIG",
      "taf": "TAF LCLK 062330Z 0700/0800 31008KT 9999 FEW030"
    },
    {
      "icao": "LCPH",
      "alert": "OK",
      "vis_m": 9999,
      "fzfg": false,
      "metar_trigger": false,
      "taf_trigger": false,
      "metar": "METAR LCPH 062330Z 02007KT 010V080 CAVOK 11/08 Q1018 NOSIG",
      "taf": "TAF LCPH 062330Z 0700/0800 02008KT 9999 FEW030"
    },
    {
      "icao": "LEAL",
      "alert": "OK",
      "vis_m": 9999,
      "fzfg": false,
      "metar_trigger": false,
      "taf_trigger": false,
      "metar": "METAR LEAL 062330Z VRB03KT 9999 FEW020 BKN042 13/12 Q1013 NOSIG",
      "taf": "TAF LEAL 062300Z 0700/0724 VRB04KT 9999 FEW020 TX15/0713Z TN09/0706Z"
    },
    {
      "icao": "LEBB",
      "alert": "OK",
      "vis_m": 4400,
      "fzfg": false,
      "metar_trigger": false,
      "taf_trigger": false,
      "metar": "METAR LEBB 062330Z AUTO 29018KT 4400 -RA BR OVC006 11/10 Q1020 RERA",
      "taf": "TAF LEBB 062300Z 0700/0724 31009KT 7000 SCT005 BKN016 TX14/0714Z TN09/0724Z"
    },
    {
      "icao": "LEBL",
      "alert": "OK",
      "vis_m": 9000,
      "fzfg": false,
      "metar_trigger": false,
      "taf_trigger": false,
      "metar": "SPECI LEBL 062344Z 09012KT 9000 BKN014 BKN022 14/13 Q1017 NOSIG",
      "taf": "TAF LEBL 062300Z 0700/0724 09014KT 9999 SCT020 TX15/0712Z TN11/0706Z"
    },
    {
      "icao": "LECH",
      "alert": "OK",
      "vis_m": 9000,
      "fzfg": false,
      "metar_trigger": false,
      "taf_trigger": false,
      "metar": "METAR LECH 062330Z AUTO 03004KT 350V080 9000 -RA SCT009 BKN015 BKN030 10/09 Q1014",
      "taf": ""
    },
    {
      "icao": "LEMD",
      "alert": "OK",
      "vis_m": 9999,
      "fzfg": false,
      "metar_trigger": false,
      "taf_trigger": false,
      "metar": "METAR LEMD 062330Z 04003KT 340V110 9999 -DZ FEW060 SCT070 BKN080 08/05 Q1015 NOSIG",
      "taf": "TAF LEMD 062300Z 0700/0806 VRB04KT 9999 SCT030 TX14/0713Z TN06/0707Z"
    },
    {
      "icao": "LEMG",
      "alert": "OK",
      "vis_m": 9999,
      "fzfg": false,
      "metar_trigger": false,
      "taf_trigger": false,
      "metar": "METAR LEMG 062330Z 25005KT 220V280 9999 OVC065 10/05 Q1016 NOSIG",
      "taf": "TAF LEMG 062300Z 0700/0724 29006KT 9999 FEW035 TX18/0714Z TN07/0707Z"
    },
    {
      "icao": "LEVC",
      "alert": "OK",
      "vis_m": 9999,
      "fzfg": false,
      "metar_trigger": false,
      "taf_trigger": false,
      "metar": "METAR LEVC 062330Z 01004KT 340V040 9999 FEW009 BKN014 12/11 Q1014 NOSIG",
      "taf": "TAF LEVC 062300Z 0700/0724 09006KT 9999 SCT015 TX13/0713Z TN09/0706Z"
    },
    {
      "icao": "LEXJ",
      "alert": "OK",
      "vis_m": 8000,
      "fzfg": false,
      "metar_trigger": false,
      "taf_trigger": false,
      "metar": "METAR LEXJ 062330Z AUTO 33012KT 270V020 8000 2800E -RA SCT038 BKN045 BKN050 09/07 Q1022",
      "taf": ""
    },
    {
      "icao": "LEZG",
      "alert": "OK",
      "vis_m": 6000,
      "fzfg": false,
      "metar_trigger": false,
      "taf_trigger": false,
      "metar": "METAR LEZG 062330Z 29006KT 6000 RA SCT010 BKN050 OVC060 10/10 Q1017 NOSIG",
      "taf": "TAF LEZG 062300Z 0700/0724 VRB04KT 9999 BKN020 TX15/0714Z TN08/0706Z"
    },
    {
      "icao": "LEZL",
      "alert": "OK",
      "vis_m": 9999,
      "fzfg": false,
      "metar_trigger": false,
      "taf_trigger": false,
      "metar": "METAR LEZL 062330Z 21004KT 9999 SCT030 OVC040 12/10 Q1015 NOSIG",
      "taf": "TAF LEZL 062000Z 0621/0721 22005KT 9999 SCT040 TX17/0715Z TN08/0707Z"
    },
    {
      "icao": "LFBD",
      "alert": "OK",
      "vis_m": 9999,
      "fzfg": false,
      "metar_trigger": false,
      "taf_trigger": false,
      "metar": "METAR LFBD 062330Z AUTO 05007KT CAVOK 13/09 Q1020 NOSIG",
      "taf": "TAF LFBD 062300Z 0700/0806 08010KT CAVOK TX16/0715Z TN10/0705Z"
    },
    {
      "icao": "LFLL",
      "alert": "OK",
      "vis_m": 9999,
      "fzfg": false,
      "metar_trigger": false,
      "taf_trigger": false,
      "metar": "METAR LFLL 062330Z 15004KT CAVOK 12/07 Q1022 NOSIG",
      "taf": "TAF LFLL 062300Z 0700/0806 16003KT CAVOK"
    },
    {
      "icao": "LFLS",
      "alert": "OK",
      "vis_m": 9999,
      "fzfg": false,
      "metar_trigger": false,
      "taf_trigger": false,
      "metar": "METAR LFLS 062330Z AUTO 09005KT CAVOK 08/07 Q1022",
      "taf": "TAF LFLS 061400Z 0615/0715 03005KT CAVOK"
    },
    {
      "icao": "LFMN",
      "alert": "OK",
      "vis_m": 8000,
      "fzfg": false,
      "metar_trigger": false,
      "taf_trigger": false,
      "metar": "METAR LFMN 062330Z 08012KT 8000 BKN086 16/08 Q1023 NOSIG",
      "taf": "TAF LFMN 062000Z 0621/0803 08020KT 8000 BKN090"
    },
    {
      "icao": "LFOB",
      "alert": "OK",
      "vis_m": 4700,
      "fzfg": false,
      "metar_trigger": false,
      "taf_trigger": false,
      "metar": "METAR LFOB 062330Z AUTO 31006KT 4700 BR NSC 09/09 Q1024 TEMPO OVC003",
      "taf": "TAF LFOB 062300Z 0700/0724 35006KT 7000 NSC"
    },
    {
      "icao": "LFPO",
      "alert": "OK",
      "vis_m": 9999,
      "fzfg": false,
      "metar_trigger": false,
      "taf_trigger": false,
      "metar": "METAR LFPO 062330Z 36003KT CAVOK 12/09 Q1023 NOSIG",
      "taf": "TAF LFPO 062300Z 0700/0806 02004KT CAVOK"
    },
    {
      "icao": "LFSB",
      "alert": "OK",
      "vis_m": 7000,
      "fzfg": false,
      "metar_trigger": false,
      "taf_trigger": false,
      "metar": "METAR LFSB 062330Z AUTO 20001KT 7000 NSC 05/03 Q1022 TEMPO 3000 BR",
      "taf": "TAF LFSB 062300Z 0700/0724 VRB03KT 7000 NSC"
    },
    {
      "icao": "LGAV",
      "alert": "OK",
      "vis_m": 9999,
      "fzfg": false,
      "metar_trigger": false,
      "taf_trigger": false,
      "metar": "METAR LGAV 062320Z 20004KT 9999 FEW030 07/04 Q1025 NOSIG",
      "taf": "TAF LGAV 062300Z 0700/0724 03010KT 9999 FEW025"
    },
    {
      "icao": "LGTS",
      "alert": "OK",
      "vis_m": 9999,
      "fzfg": false,
      "metar_trigger": false,
      "taf_trigger": false,
      "metar": "METAR LGTS 062320Z 10006KT 9999 FEW020 06/03 Q1026 NOSIG",
      "taf": "TAF LGTS 062300Z 0700/0724 VRB03KT 9999 FEW025"
    },
    {
      "icao": "LHBP",
      "alert": "OK",
      "vis_m": 9999,
      "fzfg": false,
      "metar_trigger": false,
      "taf_trigger": false,
      "metar": "METAR LHBP 062330Z 00000KT CAVOK 01/M03 Q1027 NOSIG",
      "taf": "TAF LHBP 062315Z 0700/0724 VRB03KT CAVOK"
    },
    {
      "icao": "LHDC",
      "alert": "OK",
      "vis_m": 9000,
      "fzfg": false,
      "metar_trigger": false,
      "taf_trigger": false,
      "metar": "METAR LHDC 062315Z AUTO 05002KT 9000 NCD 03/M04 Q1027",
      "taf": "TAF LHDC 061415Z 0615/0624 02006KT CAVOK"
    },
    {
      "icao": "LIBD",
      "alert": "OK",
      "vis_m": 7000,
      "fzfg": false,
      "metar_trigger": false,
      "taf_trigger": false,
      "metar": "METAR LIBD 062320Z 24005KT 7000 FEW020 07/07 Q1025",
      "taf": "TAF LIBD 062300Z 0700/0724 VRB05KT 7000 SCT018"
    },
    {
      "icao": "LIBG",
      "alert": "OK",
      "vis_m": null,
      "fzfg": false,
      "metar_trigger": false,
      "taf_trigger": false,
      "metar": "",
      "taf": "TAF LIBG 061700Z 0618/0703 VRB05KT CAVOK"
    },
    {
      "icao": "LIBP",
      "alert": "OK",
      "vis_m": 9999,
      "fzfg": false,
      "metar_trigger": false,
      "taf_trigger": false,
      "metar": "METAR LIBP 062320Z AUTO VRB01KT 9999 OVC033/// 11/10 Q1026",
      "taf": "TAF LIBP 062300Z 0700/0724 VRB06KT 7000 FEW025"
    },
    {
      "icao": "LIBR",
      "alert": "OK",
      "vis_m": 9999,
      "fzfg": false,
      "metar_trigger": false,
      "taf_trigger": false,
      "metar": "METAR LIBR 062320Z VRB02KT CAVOK 10/09 Q1024",
      "taf": "TAF LIBR 062300Z 0700/0724 VRB05KT 7000 FEW015"
    },
    {
      "icao": "LICA",
      "alert": "OK",
      "vis_m": 9999,
      "fzfg": false,
      "metar_trigger": false,
      "taf_trigger": false,
      "metar": "METAR LICA 062320Z AUTO 05011KT 9999 BKN120/// 13/10 Q1023",
      "taf": "TAF LICA 062300Z 0700/0724 08010KT 9999 SCT040"
    },
    {
      "icao": "LICC",
      "alert": "OK",
      "vis_m": 9999,
      "fzfg": false,
      "metar_trigger": false,
      "taf_trigger": false,
      "metar": "METAR LICC 062320Z 04008KT 9999 SCT020 BKN060 15/13 Q1023",
      "taf": "TAF LICC 062300Z 0700/0724 07008KT 9999 SCT015 BKN040"
    },
    {
      "icao": "LICJ",
      "alert": "OK",
      "vis_m": 9999,
      "fzfg": false,
      "metar_trigger": false,
      "taf_trigger": false,
      "metar": "METAR LICJ 062320Z 04006KT CAVOK 13/11 Q1021",
      "taf": "TAF LICJ 062300Z 0700/0724 VRB05KT 9999 FEW040"
    },
    {
      "icao": "LIMC",
      "alert": "OK",
      "vis_m": 7000,
      "fzfg": false,
      "metar_trigger": false,
      "taf_trigger": false,
      "metar": "METAR LIMC 062320Z 02002KT 7000 NSC 05/03 Q1026 NOSIG",
      "taf": "TAF LIMC 062300Z 0700/0806 VRB05KT 7000 NSC"
    },
    {
      "icao": "LIME",
      "alert": "OK",
      "vis_m": 8000,
      "fzfg": false,
      "metar_trigger": false,
      "taf_trigger": false,
      "metar": "METAR LIME 062320Z 01003KT 8000 NSC 07/05 Q1025 NOSIG",
      "taf": "TAF LIME 062300Z 0700/0724 VRB05KT 9000 FEW030"
    },
    {
      "icao": "LIMF",
      "alert": "OK",
      "vis_m": 5000,
      "fzfg": false,
      "metar_trigger": false,
      "taf_trigger": false,
      "metar": "METAR LIMF 062320Z 30004KT 5000 BR NSC 09/05 Q1026",
      "taf": "TAF LIMF 062300Z 0700/0724 VRB04KT 4000 BR SCT035"
    },
    {
      "icao": "LIMJ",
      "alert": "OK",
      "vis_m": 7000,
      "fzfg": false,
      "metar_trigger": false,
      "taf_trigger": false,
      "metar": "METAR LIMJ 062320Z 02013KT 7000 NSC 13/07 Q1024",
      "taf": "TAF LIMJ 062300Z 0700/0724 03012KT 8000 SCT040"
    },
    {
      "icao": "LIPE",
      "alert": "OK",
      "vis_m": 8000,
      "fzfg": false,
      "metar_trigger": false,
      "taf_trigger": false,
      "metar": "METAR LIPE 062320Z VRB02KT 8000 NSC 09/06 Q1026",
      "taf": "TAF LIPE 062300Z 0700/0724 VRB04KT 7000 BKN020"
    },
    {
      "icao": "LIPH",
      "alert": "OK",
      "vis_m": 4800,
      "fzfg": false,
      "metar_trigger": false,
      "taf_trigger": false,
      "metar": "METAR LIPH 062320Z AUTO VRB01KT 4800 BR NCD 06/06 Q1025",
      "taf": "TAF LIPH 062300Z 0700/0724 VRB04KT 4000 BR NSC"
    },
    {
      "icao": "LIPQ",
      "alert": "OK",
      "vis_m": 2000,
      "fzfg": false,
      "metar_trigger": false,
      "taf_trigger": false,
      "metar": "METAR LIPQ 062320Z AUTO 33002KT 2000 BCFG NCD 04/04 Q1025",
      "taf": "TAF LIPQ 062300Z 0700/0724 VRB04KT CAVOK"
    },
    {
      "icao": "LIPR",
      "alert": "OK",
      "vis_m": 7000,
      "fzfg": false,
      "metar_trigger": false,
      "taf_trigger": false,
      "metar": "METAR LIPR 062320Z AUTO 20006KT 7000 OVC026/// 08/07 Q1025",
      "taf": "TAF LIPR 062300Z 0700/0724 VRB05KT 7000 SCT020"
    },
    {
      "icao": "LIPX",
      "alert": "OK",
      "vis_m": 6000,
      "fzfg": false,
      "metar_trigger": false,
      "taf_trigger": false,
      "metar": "METAR LIPX 062320Z 33004KT 6000 NSC 06/05 Q1025",
      "taf": "TAF LIPX 062300Z 0700/0724 VRB05KT 4000 BR SCT020"
    },
    {
      "icao": "LIPY",
      "alert": "OK",
      "vis_m": 5000,
      "fzfg": false,
      "metar_trigger": false,
      "taf_trigger": false,
      "metar": "METAR LIPY 062320Z AUTO 17004KT 5000 BR NCD 07/06 Q1026",
      "taf": "TAF LIPY 062300Z 0700/0724 VRB05KT 2000 BR NSC"
    },
    {
      "icao": "LIPZ",
      "alert": "OK",
      "vis_m": 7000,
      "fzfg": false,
      "metar_trigger": false,
      "taf_trigger": false,
      "metar": "METAR LIPZ 062320Z 24004KT 7000 NSC 09/07 Q1025 NOSIG",
      "taf": "TAF LIPZ 062300Z 0700/0806 VRB04KT 8000 NSC"
    },
    {
      "icao": "LIRF",
      "alert": "OK",
      "vis_m": 9999,
      "fzfg": false,
      "metar_trigger": false,
      "taf_trigger": false,
      "metar": "METAR LIRF 062320Z 04004KT CAVOK 11/10 Q1023 NOSIG",
      "taf": "TAF LIRF 062300Z 0700/0806 05006KT CAVOK"
    },
    {
      "icao": "LIRN",
      "alert": "OK",
      "vis_m": 9999,
      "fzfg": false,
      "metar_trigger": false,
      "taf_trigger": false,
      "metar": "METAR LIRN 062320Z 35004KT CAVOK 13/08 Q1023 NOSIG",
      "taf": "TAF LIRN 062300Z 0700/0724 VRB05KT CAVOK"
    },
    {
      "icao": "LIRP",
      "alert": "OK",
      "vis_m": 9999,
      "fzfg": false,
      "metar_trigger": false,
      "taf_trigger": false,
      "metar": "METAR LIRP 062315Z 11006KT 9999 FEW030 SCT040 09/08 Q1024 NOSIG",
      "taf": "TAF LIRP 062300Z 0700/0724 11005KT 9999 FEW030 SCT060"
    },
    {
      "icao": "LIRZ",
      "alert": "OK",
      "vis_m": 9999,
      "fzfg": false,
      "metar_trigger": false,
      "taf_trigger": false,
      "metar": "METAR LIRZ 062320Z AUTO 36008KT 9999 NCD 08/07 Q1024",
      "taf": "TAF LIRZ 062300Z 0700/0724 VRB05KT CAVOK"
    },
    {
      "icao": "LJLJ",
      "alert": "OK",
      "vis_m": 9999,
      "fzfg": false,
      "metar_trigger": false,
      "taf_trigger": false,
      "metar": "METAR LJLJ 062330Z VRB01KT CAVOK 02/01 Q1026 NOSIG",
      "taf": "TAF LJLJ 062300Z 0700/0800 29003KT CAVOK"
    },
    {
      "icao": "LKMT",
      "alert": "OK",
      "vis_m": 9999,
      "fzfg": false,
      "metar_trigger": false,
      "taf_trigger": false,
      "metar": "METAR LKMT 062330Z VRB01KT CAVOK 01/M02 Q1027 NOSIG",
      "taf": "TAF LKMT 062300Z 0700/0724 20002KT CAVOK"
    },
    {
      "icao": "LKPR",
      "alert": "OK",
      "vis_m": 9999,
      "fzfg": false,
      "metar_trigger": false,
      "taf_trigger": false,
      "metar": "METAR LKPR 062330Z 13004KT CAVOK 07/01 Q1025 NOSIG",
      "taf": "TAF LKPR 062300Z 0700/0806 14004KT CAVOK"
    },
    {
      "icao": "LLBG",
      "alert": "OK",
      "vis_m": 9999,
      "fzfg": false,
      "metar_trigger": false,
      "taf_trigger": false,
      "metar": "METAR LLBG 062350Z 13004KT 9999 FEW033 11/07 Q1018 NOSIG",
      "taf": "TAF LLBG 062309Z 0700/0724 VRB04KT 9999 SCT035 TX19/0711Z TN09/0703Z"
    },
    {
      "icao": "LMML",
      "alert": "OK",
      "vis_m": 9999,
      "fzfg": false,
      "metar_trigger": false,
      "taf_trigger": false,
      "metar": "METAR LMML 062345Z 08008KT 9999 SCT007 15/14 Q1021 NOSIG",
      "taf": "TAF LMML 062300Z 0700/0724 10013KT 9999 SCT010"
    },
    {
      "icao": "LOWW",
      "alert": "OK",
      "vis_m": 9999,
      "fzfg": false,
      "metar_trigger": false,
      "taf_trigger": false,
      "metar": "METAR LOWW 062320Z 15011KT CAVOK 09/03 Q1025 NOSIG",
      "taf": "TAF LOWW 062315Z 0700/0806 13012KT CAVOK TX16/0714Z TN02/0805Z"
    },
    {
      "icao": "LPFR",
      "alert": "OK",
      "vis_m": 9999,
      "fzfg": false,
      "metar_trigger": false,
      "taf_trigger": false,
      "metar": "METAR LPFR 062330Z 27005KT CAVOK 12/07 Q1017",
      "taf": "TAF LPFR 062300Z 0700/0724 VRB02KT CAVOK"
    },
    {
      "icao": "LPMA",
      "alert": "OK",
      "vis_m": 9999,
      "fzfg": false,
      "metar_trigger": false,
      "taf_trigger": false,
      "metar": "METAR LPMA 062330Z 02012KT 9999 BKN016 14/05 Q1027",
      "taf": "TAF LPMA 062300Z 0700/0724 02012KT 9999 SCT015 SCT030"
    },
    {
      "icao": "LPPR",
      "alert": "OK",
      "vis_m": 9999,
      "fzfg": false,
      "metar_trigger": false,
      "taf_trigger": false,
      "metar": "METAR LPPR 062330Z 35007KT CAVOK 08/03 Q1020",
      "taf": "TAF LPPR 062300Z 0700/0724 35010KT CAVOK"
    },
    {
      "icao": "LPPS",
      "alert": "OK",
      "vis_m": 9999,
      "fzfg": false,
      "metar_trigger": false,
      "taf_trigger": false,
      "metar": "METAR LPPS 062330Z 03006KT 360V060 9999 FEW015 BKN030 14/07 Q1027",
      "taf": "TAF LPPS 062300Z 0700/0806 03012KT 9999 FEW015 BKN030"
    },
    {
      "icao": "LPPT",
      "alert": "OK",
      "vis_m": 9999,
      "fzfg": false,
      "metar_trigger": false,
      "taf_trigger": false,
      "metar": "METAR LPPT 062330Z 33015KT CAVOK 11/08 Q1018",
      "taf": "TAF LPPT 062300Z 0700/0806 34013KT CAVOK"
    },
    {
      "icao": "LQBK",
      "alert": "OK",
      "vis_m": 9999,
      "fzfg": false,
      "metar_trigger": false,
      "taf_trigger": false,
      "metar": "METAR LQBK 062330Z VRB01KT CAVOK 03/00 Q1026 NOSIG",
      "taf": "TAF LQBK 062300Z 0700/0724 16005KT CAVOK TX17/0714Z TN00/0706Z"
    },
    {
      "icao": "LQSA",
      "alert": "OK",
      "vis_m": 9999,
      "fzfg": false,
      "metar_trigger": false,
      "taf_trigger": false,
      "metar": "METAR LQSA 062330Z VRB02KT CAVOK 02/01 Q1026",
      "taf": "TAF LQSA 062300Z 0700/0724 VRB02KT CAVOK TX19/0714Z TNM01/0705Z"
    },
    {
      "icao": "LQTZ",
      "alert": "OK",
      "vis_m": 9999,
      "fzfg": false,
      "metar_trigger": false,
      "taf_trigger": false,
      "metar": "METAR LQTZ 062330Z VRB01KT CAVOK 02/01 Q1026",
      "taf": "TAF LQTZ 062300Z 0700/0724 VRB02KT CAVOK TX17/0714Z TNM02/0706Z"
    },
    {
      "icao": "LRBC",
      "alert": "OK",
      "vis_m": 9999,
      "fzfg": false,
      "metar_trigger": false,
      "taf_trigger": false,
      "metar": "METAR LRBC 062330Z 30004KT 9999 SCT052 00/M02 Q1029",
      "taf": "TAF LRBC 062300Z 0700/0709 34007KT CAVOK"
    },
    {
      "icao": "LRBS",
      "alert": "OK",
      "vis_m": 9999,
      "fzfg": false,
      "metar_trigger": false,
      "taf_trigger": false,
      "metar": "METAR LRBS 062330Z 00000KT CAVOK 05/M00 Q1029 NOSIG",
      "taf": "TAF LRBS 062300Z 0700/0724 VRB04KT CAVOK"
    },
    {
      "icao": "LRBV",
      "alert": "OK",
      "vis_m": 9999,
      "fzfg": false,
      "metar_trigger": false,
      "taf_trigger": false,
      "metar": "METAR LRBV 062330Z AUTO 22006KT 9999 NCD M01/M04 Q1028",
      "taf": "TAF LRBV 062000Z 0621/0706 VRB04KT CAVOK"
    },
    {
      "icao": "LRCL",
      "alert": "OK",
      "vis_m": 9999,
      "fzfg": false,
      "metar_trigger": false,
      "taf_trigger": false,
      "metar": "METAR LRCL 062330Z 25004KT 220V280 CAVOK 01/M05 Q1027",
      "taf": "TAF LRCL 062300Z 0700/0709 VRB04KT CAVOK"
    },
    {
      "icao": "LRCV",
      "alert": "OK",
      "vis_m": 9999,
      "fzfg": false,
      "metar_trigger": false,
      "taf_trigger": false,
      "metar": "METAR LRCV 062330Z 08010KT CAVOK 04/02 Q1028",
      "taf": "TAF LRCV 062300Z 0700/0709 08008KT CAVOK"
    },
    {
      "icao": "LRIA",
      "alert": "OK",
      "vis_m": 9999,
      "fzfg": false,
      "metar_trigger": false,
      "taf_trigger": false,
      "metar": "METAR LRIA 062330Z VRB02KT CAVOK 02/M01 Q1029",
      "taf": "TAF LRIA 062300Z 0700/0709 VRB04KT CAVOK"
    },
    {
      "icao": "LROP",
      "alert": "OK",
      "vis_m": 9999,
      "fzfg": false,
      "metar_trigger": false,
      "taf_trigger": false,
      "metar": "METAR LROP 062330Z 17002KT CAVOK 03/M02 Q1029 NOSIG",
      "taf": "TAF LROP 062300Z 0700/0724 VRB04KT CAVOK"
    },
    {
      "icao": "LRSB",
      "alert": "OK",
      "vis_m": 9999,
      "fzfg": false,
      "metar_trigger": false,
      "taf_trigger": false,
      "metar": "METAR LRSB 062330Z COR 10003KT CAVOK M00/M03 Q1027",
      "taf": "TAF LRSB 062300Z 0700/0724 VRB04KT CAVOK"
    },
    {
      "icao": "LRSM",
      "alert": "OK",
      "vis_m": 9999,
      "fzfg": false,
      "metar_trigger": false,
      "taf_trigger": false,
      "metar": "METAR LRSM 062330Z AUTO VRB01KT 9999 NCD 00/M02 Q1027",
      "taf": "TAF LRSM 061400Z 0615/0624 VRB04KT CAVOK"
    },
    {
      "icao": "LRSV",
      "alert": "OK",
      "vis_m": 9999,
      "fzfg": false,
      "metar_trigger": false,
      "taf_trigger": false,
      "metar": "METAR LRSV 062330Z 25006KT CAVOK 03/M01 Q1028",
      "taf": "TAF LRSV 062300Z 0700/0709 VRB04KT CAVOK"
    },
    {
      "icao": "LRTM",
      "alert": "OK",
      "vis_m": 9999,
      "fzfg": false,
      "metar_trigger": false,
      "taf_trigger": false,
      "metar": "METAR LRTM 062330Z AUTO 08005KT 9999 NCD M03/M04 Q1028",
      "taf": "TAF LRTM 061400Z 0615/0624 VRB04KT CAVOK"
    },
    {
      "icao": "LRTR",
      "alert": "OK",
      "vis_m": 9999,
      "fzfg": false,
      "metar_trigger": false,
      "taf_trigger": false,
      "metar": "METAR LRTR 062330Z VRB02KT CAVOK 02/00 Q1026",
      "taf": "TAF LRTR 062300Z 0700/0724 VRB04KT CAVOK"
    },
    {
      "icao": "LTAC",
      "alert": "OK",
      "vis_m": 9999,
      "fzfg": false,
      "metar_trigger": false,
      "taf_trigger": false,
      "metar": "METAR LTAC 062320Z 33009KT 9999 BKN040 01/M07 Q1022 NOSIG RMK RWY21C 32011KT RWY03L 32007KT 290V350 RWY21R 32009KT RWY03R 31006KT RWY21L 33009KT",
      "taf": "TAF LTAC 062240Z 0700/0724 03008KT 9999 BKN033"
    },
    {
      "icao": "LTFM",
      "alert": "OK",
      "vis_m": 9999,
      "fzfg": false,
      "metar_trigger": false,
      "taf_trigger": false,
      "metar": "METAR LTFM 062320Z 32004KT 250V010 CAVOK 05/04 Q1028 NOSIG RMK RWY17L 28005KT 260V350 RWY34L VRB02KT RWY16R 26003KT RWY36 01004KT RWY18 34004KT 260V040",
      "taf": "TAF LTFM 062240Z 0700/0806 VRB02KT CAVOK"
    },
    {
      "icao": "LUKK",
      "alert": "OK",
      "vis_m": 9999,
      "fzfg": false,
      "metar_trigger": false,
      "taf_trigger": false,
      "metar": "METAR LUKK 062330Z 29004KT 9999 FEW039 M01/M04 Q1029 NOSIG",
      "taf": "TAF LUKK 062310Z 0700/0724 VRB05KT CAVOK"
    },
    {
      "icao": "LWOH",
      "alert": "OK",
      "vis_m": null,
      "fzfg": false,
      "metar_trigger": false,
      "taf_trigger": false,
      "metar": "",
      "taf": "TAF LWOH 062335Z 0700/0724 34006KT CAVOK"
    },
    {
      "icao": "LWSK",
      "alert": "OK",
      "vis_m": 9999,
      "fzfg": false,
      "metar_trigger": false,
      "taf_trigger": false,
      "metar": "METAR LWSK 062320Z VRB02KT CAVOK 03/00 Q1026 NOSIG",
      "taf": "TAF LWSK 062335Z 0700/0724 VRB02KT CAVOK"
    },
    {
      "icao": "LYBE",
      "alert": "OK",
      "vis_m": 9999,
      "fzfg": false,
      "metar_trigger": false,
      "taf_trigger": false,
      "metar": "METAR LYBE 062330Z VRB01KT CAVOK 04/M01 Q1027 NOSIG",
      "taf": "TAF LYBE 062300Z 0700/0724 07004KT CAVOK TX18/0713Z TN01/0705Z"
    },
    {
      "icao": "LYNI",
      "alert": "OK",
      "vis_m": 9999,
      "fzfg": false,
      "metar_trigger": false,
      "taf_trigger": false,
      "metar": "METAR LYNI 062330Z VRB01KT CAVOK 03/03 Q1027 NOSIG",
      "taf": "TAF LYNI 062300Z 0700/0724 13004KT CAVOK TX18/0714Z TN01/0706Z"
    },
    {
      "icao": "LYPG",
      "alert": "OK",
      "vis_m": 9999,
      "fzfg": false,
      "metar_trigger": false,
      "taf_trigger": false,
      "metar": "METAR LYPG 062330Z 32003KT 250V340 CAVOK 08/01 Q1025 NOSIG",
      "taf": "TAF LYPG 062300Z 0700/0724 36005KT CAVOK TX20/0714Z TN04/0705Z"
    },
    {
      "icao": "LZIB",
      "alert": "OK",
      "vis_m": 9999,
      "fzfg": false,
      "metar_trigger": false,
      "taf_trigger": false,
      "metar": "METAR LZIB 062330Z 01006KT CAVOK 05/01 Q1026 NOSIG",
      "taf": "TAF LZIB 062315Z 0700/0800 03004KT CAVOK"
    },
    {
      "icao": "LZKZ",
      "alert": "OK",
      "vis_m": 9999,
      "fzfg": false,
      "metar_trigger": false,
      "taf_trigger": false,
      "metar": "METAR LZKZ 062330Z VRB02KT CAVOK 02/M04 Q1027 NOSIG",
      "taf": "TAF LZKZ 062315Z 0700/0800 VRB02KT CAVOK"
    },
    {
      "icao": "LZTT",
      "alert": "OK",
      "vis_m": 9999,
      "fzfg": false,
      "metar_trigger": false,
      "taf_trigger": false,
      "metar": "METAR LZTT 062330Z 32003KT 280V340 CAVOK M01/M06 Q1027",
      "taf": "TAF LZTT 062315Z 0700/0800 26004KT CAVOK"
    },
    {
      "icao": "OEJN",
      "alert": "OK",
      "vis_m": 9999,
      "fzfg": false,
      "metar_trigger": false,
      "taf_trigger": false,
      "metar": "METAR OEJN 062300Z 32008KT 9999 FEW040 25/17 Q1012 NOSIG",
      "taf": "TAF OEJN 062300Z 0700/0806 35005KT 7000 SCT040"
    },
    {
      "icao": "OEMA",
      "alert": "OK",
      "vis_m": 9999,
      "fzfg": false,
      "metar_trigger": false,
      "taf_trigger": false,
      "metar": "METAR OEMA 062300Z 02003KT CAVOK 22/03 Q1015 NOSIG",
      "taf": "TAF OEMA 062300Z 0700/0806 VRB03KT 9999 FEW040"
    },
    {
      "icao": "OJAI",
      "alert": "OK",
      "vis_m": 5000,
      "fzfg": false,
      "metar_trigger": false,
      "taf_trigger": false,
      "metar": "METAR OJAI 062300Z 19002KT 5000 HZ NSC 05/02 Q1018 NOSIG",
      "taf": "TAF OJAI 062250Z 0700/0806 28008KT 5000 HZ NSC"
    },
    {
      "icao": "OMAA",
      "alert": "OK",
      "vis_m": null,
      "fzfg": false,
      "metar_trigger": false,
      "taf_trigger": false,
      "metar": "",
      "taf": ""
    },
    {
      "icao": "OMDB",
      "alert": "OK",
      "vis_m": null,
      "fzfg": false,
      "metar_trigger": false,
      "taf_trigger": false,
      "metar": "",
      "taf": ""
    },
    {
      "icao": "UAAA",
      "alert": "OK",
      "vis_m": 9999,
      "fzfg": false,
      "metar_trigger": false,
      "taf_trigger": false,
      "metar": "METAR UAAA 062330Z 27002MPS 9999 OVC018 01/M01 Q1023 NOSIG",
      "taf": "TAF UAAA 062301Z 0700/0724 04003MPS 3100 BR FU BKN011 OVC030 TX09/0709Z TNM00/0701Z"
    },
    {
      "icao": "UBBB",
      "alert": "OK",
      "vis_m": 9999,
      "fzfg": false,
      "metar_trigger": false,
      "taf_trigger": false,
      "metar": "METAR UBBB 062330Z 32016KT 9999 BKN009 BKN025 06/05 Q1017 NOSIG",
      "taf": "TAF UBBB 062305Z 0700/0724 31018G28KT 9999 BKN010 BKN030 TX09/0710Z TN05/0701Z"
    },
    {
      "icao": "UDSG",
      "alert": "OK",
      "vis_m": 1900,
      "fzfg": false,
      "metar_trigger": false,
      "taf_trigger": false,
      "metar": "METAR UDSG 062330Z 35002KT 1900 R02/P2000N SN BR OVC023 M03/M04 Q1016 NOSIG",
      "taf": "TAF UDSG 062300Z 0700/0724 VRB06KT 1000 BR BKN010"
    },
    {
      "icao": "UDYZ",
      "alert": "OK",
      "vis_m": 9999,
      "fzfg": false,
      "metar_trigger": false,
      "taf_trigger": false,
      "metar": "METAR UDYZ 062330Z VRB02KT 9999 -RA OVC032 03/01 Q1016 NOSIG",
      "taf": "TAF UDYZ 062300Z 0700/0724 VRB06KT 6000 BKN040"
    },
    {
      "icao": "UGKO",
      "alert": "OK",
      "vis_m": 6000,
      "fzfg": false,
      "metar_trigger": false,
      "taf_trigger": false,
      "metar": "METAR UGKO 062330Z 10003KT 060V160 6000 -RA SCT005 BKN048 02/01 Q1022 NOSIG",
      "taf": "TAF UGKO 062300Z 0700/0724 11007KT 9999 SCT022 BKN050 TX09/0711Z TN02/0703Z"
    }
  ]
}