{
  "ts_utc": "2026-04-24T03:45:48Z",
  "threshold_m": 150,
  "source": "stations_override.txt (ICAO list) + aviationweather.gov (METAR/TAF raw)",
  "station_count": 159,
  "stations": [
    {
      "icao": "BIKF",
      "alert": "OK",
      "vis_m": 9999,
      "fzfg": false,
      "metar_trigger": false,
      "taf_trigger": false,
      "metar": "METAR BIKF 240330Z 25007KT 9999 OVC019 06/02 Q1027",
      "taf": "TAF BIKF 240106Z 2403/2503 26007KT 9999 OVC014 TX09/2415Z TN04/2406Z"
    },
    {
      "icao": "BKPR",
      "alert": "OK",
      "vis_m": 9999,
      "fzfg": false,
      "metar_trigger": false,
      "taf_trigger": false,
      "metar": "METAR BKPR 240330Z VRB01KT CAVOK 01/M01 Q1016 NOSIG",
      "taf": "TAF BKPR 232330Z 2400/2424 32007KT 9999 FEW070"
    },
    {
      "icao": "EBCI",
      "alert": "OK",
      "vis_m": 9999,
      "fzfg": false,
      "metar_trigger": false,
      "taf_trigger": false,
      "metar": "METAR EBCI 240320Z 05006KT CAVOK 04/M00 Q1025 NOSIG",
      "taf": "TAF EBCI 232305Z 2400/2506 03006KT CAVOK"
    },
    {
      "icao": "EDDB",
      "alert": "OK",
      "vis_m": 9999,
      "fzfg": false,
      "metar_trigger": false,
      "taf_trigger": false,
      "metar": "METAR EDDB 240320Z AUTO 31013KT 9999 OVC011 07/04 Q1018 NOSIG",
      "taf": "TAF EDDB 232300Z 2400/2424 28010KT CAVOK"
    },
    {
      "icao": "EDDH",
      "alert": "OK",
      "vis_m": 9999,
      "fzfg": false,
      "metar_trigger": false,
      "taf_trigger": false,
      "metar": "METAR EDDH 240320Z AUTO 30012KT 9999 OVC012 08/05 Q1020 NOSIG",
      "taf": "TAF EDDH 232300Z 2400/2506 29008KT 9999 BKN012"
    },
    {
      "icao": "EDDK",
      "alert": "OK",
      "vis_m": 9999,
      "fzfg": false,
      "metar_trigger": false,
      "taf_trigger": false,
      "metar": "METAR EDDK 240320Z AUTO VRB01KT CAVOK 04/03 Q1024 NOSIG",
      "taf": "TAF EDDK 232300Z 2400/2506 VRB03KT CAVOK"
    },
    {
      "icao": "EDDN",
      "alert": "OK",
      "vis_m": 9999,
      "fzfg": false,
      "metar_trigger": false,
      "taf_trigger": false,
      "metar": "METAR EDDN 240320Z AUTO 10006KT CAVOK 02/M03 Q1021",
      "taf": "TAF EDDN 232300Z 2400/2424 VRB02KT CAVOK"
    },
    {
      "icao": "EDDS",
      "alert": "OK",
      "vis_m": 9999,
      "fzfg": false,
      "metar_trigger": false,
      "taf_trigger": false,
      "metar": "METAR EDDS 240320Z AUTO VRB01KT CAVOK 03/00 Q1022",
      "taf": "TAF EDDS 232300Z 2400/2424 VRB03KT CAVOK"
    },
    {
      "icao": "EDFH",
      "alert": "OK",
      "vis_m": 9999,
      "fzfg": false,
      "metar_trigger": false,
      "taf_trigger": false,
      "metar": "METAR EDFH 240320Z VRB01KT CAVOK 05/02 Q1023",
      "taf": "TAF EDFH 232300Z 2400/2424 36006KT CAVOK"
    },
    {
      "icao": "EDJA",
      "alert": "OK",
      "vis_m": 9999,
      "fzfg": false,
      "metar_trigger": false,
      "taf_trigger": false,
      "metar": "METAR EDJA 240320Z AUTO VRB02KT 9999 // FEW140/// 00/M03 Q1022",
      "taf": "TAF EDJA 240200Z 2403/2412 VRB03KT CAVOK"
    },
    {
      "icao": "EDLW",
      "alert": "OK",
      "vis_m": 4200,
      "fzfg": false,
      "metar_trigger": false,
      "taf_trigger": false,
      "metar": "METAR EDLW 240320Z 27003KT 240V330 4200 BR SCT002 OVC005 05/04 Q1024",
      "taf": "TAF EDLW 240320Z 2404/2424 VRB03KT 4000 BR OVC003"
    },
    {
      "icao": "EDNY",
      "alert": "OK",
      "vis_m": 9999,
      "fzfg": false,
      "metar_trigger": false,
      "taf_trigger": false,
      "metar": "METAR EDNY 240320Z AUTO 06006KT 9999 // NCD 02/M01 Q1022",
      "taf": "TAF EDNY 240200Z 2403/2412 VRB03KT CAVOK"
    },
    {
      "icao": "EDSB",
      "alert": "OK",
      "vis_m": 9999,
      "fzfg": false,
      "metar_trigger": false,
      "taf_trigger": false,
      "metar": "METAR EDSB 240320Z 02004KT CAVOK 06/00 Q1022",
      "taf": "TAF EDSB 232300Z 2400/2424 VRB03KT CAVOK"
    },
    {
      "icao": "EETN",
      "alert": "OK",
      "vis_m": 9999,
      "fzfg": false,
      "metar_trigger": false,
      "taf_trigger": false,
      "metar": "METAR EETN 240320Z VRB01KT CAVOK 03/01 Q1005",
      "taf": "TAF EETN 232330Z 2400/2424 26007KT 9999 SCT040"
    },
    {
      "icao": "EFTU",
      "alert": "OK",
      "vis_m": 9999,
      "fzfg": false,
      "metar_trigger": false,
      "taf_trigger": false,
      "metar": "METAR EFTU 240320Z AUTO 33005KT 290V360 CAVOK 03/01 Q1007",
      "taf": "TAF EFTU 240229Z 2403/2503 32006KT CAVOK"
    },
    {
      "icao": "EGBB",
      "alert": "OK",
      "vis_m": 7000,
      "fzfg": false,
      "metar_trigger": false,
      "taf_trigger": false,
      "metar": "METAR EGBB 240320Z COR 04005KT 7000 BKN003 04/03 Q1028",
      "taf": ""
    },
    {
      "icao": "EGGP",
      "alert": "OK",
      "vis_m": 9999,
      "fzfg": false,
      "metar_trigger": false,
      "taf_trigger": false,
      "metar": "METAR EGGP 240320Z VRB02KT CAVOK 03/01 Q1028",
      "taf": "TAF EGGP 232257Z 2400/2424 09008KT CAVOK"
    },
    {
      "icao": "EGGW",
      "alert": "OK",
      "vis_m": 800,
      "fzfg": false,
      "metar_trigger": false,
      "taf_trigger": false,
      "metar": "METAR EGGW 240320Z AUTO 03005KT 0800 R25/0550N FG BKN001 01/01 Q1027",
      "taf": "TAF EGGW 232258Z 2400/2424 07007KT CAVOK"
    },
    {
      "icao": "EGKK",
      "alert": "OK",
      "vis_m": 9999,
      "fzfg": false,
      "metar_trigger": false,
      "taf_trigger": false,
      "metar": "METAR EGKK 240320Z 11002KT CAVOK 04/03 Q1026",
      "taf": "TAF EGKK 232257Z 2400/2506 07009KT 9999 FEW045"
    },
    {
      "icao": "EGNM",
      "alert": "OK",
      "vis_m": null,
      "fzfg": false,
      "metar_trigger": false,
      "taf_trigger": false,
      "metar": "",
      "taf": "TAF EGNM 232256Z 2400/2424 10006KT CAVOK"
    },
    {
      "icao": "EGPD",
      "alert": "OK",
      "vis_m": 250,
      "fzfg": false,
      "metar_trigger": false,
      "taf_trigger": false,
      "metar": "METAR EGPD 240320Z COR AUTO 34002KT 0250 FG OVC001 01/00 Q1028 NOSIG",
      "taf": "TAF EGPD 232253Z 2400/2424 VRB03KT CAVOK"
    },
    {
      "icao": "EGPF",
      "alert": "OK",
      "vis_m": 9000,
      "fzfg": false,
      "metar_trigger": false,
      "taf_trigger": false,
      "metar": "METAR EGPF 240320Z AUTO VRB01KT 9000 NCD 01/M00 Q1028",
      "taf": "TAF EGPF 232315Z 2400/2424 07005KT CAVOK"
    },
    {
      "icao": "EHBK",
      "alert": "OK",
      "vis_m": 9999,
      "fzfg": false,
      "metar_trigger": false,
      "taf_trigger": false,
      "metar": "METAR EHBK 240325Z AUTO VRB01KT 9999 BKN000/// BKN002/// 04/03 Q1025",
      "taf": "TAF EHBK 232316Z 2400/2506 36006KT CAVOK"
    },
    {
      "icao": "EHEH",
      "alert": "OK",
      "vis_m": 9999,
      "fzfg": false,
      "metar_trigger": false,
      "taf_trigger": false,
      "metar": "METAR EHEH 240325Z AUTO 35004KT 300V030 9999 BKN006 06/05 Q1025 YLO",
      "taf": "TAF EHEH 232332Z 2400/2506 35003KT CAVOK"
    },
    {
      "icao": "EKBI",
      "alert": "OK",
      "vis_m": 9000,
      "fzfg": false,
      "metar_trigger": false,
      "taf_trigger": false,
      "metar": "METAR EKBI 240320Z AUTO 29007KT 9000 NCD 04/04 Q1019",
      "taf": "TAF EKBI 240227Z 2403/2503 29006KT CAVOK"
    },
    {
      "icao": "EKCH",
      "alert": "OK",
      "vis_m": 9999,
      "fzfg": false,
      "metar_trigger": false,
      "taf_trigger": false,
      "metar": "METAR EKCH 240320Z AUTO 29007KT 9999 NCD 07/05 Q1016 NOSIG",
      "taf": "TAF EKCH 240227Z 2403/2503 30008KT CAVOK"
    },
    {
      "icao": "ENAL",
      "alert": "OK",
      "vis_m": 4900,
      "fzfg": false,
      "metar_trigger": false,
      "taf_trigger": false,
      "metar": "METAR ENAL 240320Z AUTO 24013KT 4900 DZ BKN005/// BKN008/// OVC016/// 06/05 Q1024 RERA",
      "taf": "TAF ENAL 240200Z 2403/2412 25012KT 9000 -DZ SCT005 BKN015"
    },
    {
      "icao": "ENBR",
      "alert": "OK",
      "vis_m": 9999,
      "fzfg": false,
      "metar_trigger": false,
      "taf_trigger": false,
      "metar": "METAR ENBR 240320Z 35010KT 9999 -DZ FEW006 BKN010 05/04 Q1026 RMK WIND 1200FT 34016KT",
      "taf": "TAF ENBR 232300Z 2400/2424 33010KT 9999 FEW010 BKN020"
    },
    {
      "icao": "ENGM",
      "alert": "OK",
      "vis_m": 9999,
      "fzfg": false,
      "metar_trigger": false,
      "taf_trigger": false,
      "metar": "METAR ENGM 240320Z 01003KT 320V030 CAVOK 05/M01 Q1017",
      "taf": "TAF ENGM 232300Z 2400/2424 35005KT CAVOK"
    },
    {
      "icao": "ENHD",
      "alert": "OK",
      "vis_m": 9999,
      "fzfg": false,
      "metar_trigger": false,
      "taf_trigger": false,
      "metar": "METAR ENHD 240320Z AUTO 34017KT 9999 OVC022/// 07/03 Q1025",
      "taf": "TAF ENHD 240200Z 2403/2412 34018KT 9999 SCT020"
    },
    {
      "icao": "ENTC",
      "alert": "OK",
      "vis_m": 9999,
      "fzfg": false,
      "metar_trigger": false,
      "taf_trigger": false,
      "metar": "METAR ENTC 240320Z 02007KT 340V040 9999 VCSH FEW037 SCT041 BKN059 M00/M05 Q1011 RMK WIND 2600FT 34033KT",
      "taf": "TAF ENTC 232300Z 2400/2424 34014KT 9999 FEW010 BKN030"
    },
    {
      "icao": "ENTO",
      "alert": "OK",
      "vis_m": 9999,
      "fzfg": false,
      "metar_trigger": false,
      "taf_trigger": false,
      "metar": "METAR ENTO 240320Z AUTO 33003KT 9999 NCD 07/00 Q1017",
      "taf": "TAF ENTO 232300Z 2400/2424 35008KT CAVOK"
    },
    {
      "icao": "ENVA",
      "alert": "OK",
      "vis_m": 9999,
      "fzfg": false,
      "metar_trigger": false,
      "taf_trigger": false,
      "metar": "METAR ENVA 240320Z 27017KT 9999 VCSH SCT012 BKN018 06/05 Q1020 RMK WIND 670FT 27014G24KT",
      "taf": "TAF ENVA 232300Z 2400/2424 28018KT 9999 -DZ SCT010 BKN018"
    },
    {
      "icao": "ENZV",
      "alert": "OK",
      "vis_m": 9999,
      "fzfg": false,
      "metar_trigger": false,
      "taf_trigger": false,
      "metar": "METAR ENZV 240320Z AUTO 34013KT 9999 SCT020/// 07/03 Q1024",
      "taf": "TAF ENZV 232300Z 2400/2424 33016KT 9999 FEW025"
    },
    {
      "icao": "EPGD",
      "alert": "OK",
      "vis_m": 9999,
      "fzfg": false,
      "metar_trigger": false,
      "taf_trigger": false,
      "metar": "METAR EPGD 240330Z 25002KT CAVOK 05/03 Q1013",
      "taf": "TAF EPGD 232330Z 2400/2424 VRB03KT CAVOK"
    },
    {
      "icao": "EPKK",
      "alert": "OK",
      "vis_m": 9999,
      "fzfg": false,
      "metar_trigger": false,
      "taf_trigger": false,
      "metar": "METAR EPKK 240330Z 21003KT 9999 FEW052 08/04 Q1015",
      "taf": "TAF EPKK 240230Z 2403/2503 30006KT 9999 BKN053"
    },
    {
      "icao": "EPKT",
      "alert": "OK",
      "vis_m": 9999,
      "fzfg": false,
      "metar_trigger": false,
      "taf_trigger": false,
      "metar": "METAR EPKT 240330Z 28005KT CAVOK 03/01 Q1015",
      "taf": "TAF EPKT 232330Z 2400/2424 30008KT CAVOK"
    },
    {
      "icao": "EPLB",
      "alert": "OK",
      "vis_m": 9999,
      "fzfg": false,
      "metar_trigger": false,
      "taf_trigger": false,
      "metar": "METAR EPLB 240330Z 29006KT CAVOK 03/M03 Q1013",
      "taf": "TAF EPLB 232330Z 2400/2424 33010KT CAVOK"
    },
    {
      "icao": "EPMO",
      "alert": "OK",
      "vis_m": 9999,
      "fzfg": false,
      "metar_trigger": false,
      "taf_trigger": false,
      "metar": "METAR EPMO 240330Z 26003KT CAVOK 02/M03 Q1014",
      "taf": "TAF EPMO 232330Z 2400/2424 30008KT CAVOK"
    },
    {
      "icao": "EPPO",
      "alert": "OK",
      "vis_m": 9999,
      "fzfg": false,
      "metar_trigger": false,
      "taf_trigger": false,
      "metar": "METAR EPPO 240330Z 29004KT CAVOK 05/04 Q1015",
      "taf": "TAF EPPO 232330Z 2400/2424 29005KT CAVOK"
    },
    {
      "icao": "EPRA",
      "alert": "OK",
      "vis_m": 9999,
      "fzfg": false,
      "metar_trigger": false,
      "taf_trigger": false,
      "metar": "METAR EPRA 240330Z 29004KT CAVOK 04/M03 Q1014",
      "taf": "TAF EPRA 240230Z 2403/2412 28010KT CAVOK"
    },
    {
      "icao": "EPRZ",
      "alert": "OK",
      "vis_m": 9999,
      "fzfg": false,
      "metar_trigger": false,
      "taf_trigger": false,
      "metar": "METAR EPRZ 240330Z 27006KT 9999 FEW046 04/M02 Q1014",
      "taf": "TAF EPRZ 232330Z 2400/2424 30009KT CAVOK"
    },
    {
      "icao": "EPSC",
      "alert": "OK",
      "vis_m": 9999,
      "fzfg": false,
      "metar_trigger": false,
      "taf_trigger": false,
      "metar": "METAR EPSC 240330Z 27008KT 9999 SCT009 07/05 Q1016",
      "taf": "TAF EPSC 232330Z 2400/2424 27005KT CAVOK"
    },
    {
      "icao": "EPSY",
      "alert": "OK",
      "vis_m": 9999,
      "fzfg": false,
      "metar_trigger": false,
      "taf_trigger": false,
      "metar": "METAR EPSY 240330Z 23003KT 200V270 CAVOK M01/M04 Q1013",
      "taf": "TAF EPSY 240230Z 2403/2412 28006KT CAVOK"
    },
    {
      "icao": "EPWA",
      "alert": "OK",
      "vis_m": 9999,
      "fzfg": false,
      "metar_trigger": false,
      "taf_trigger": false,
      "metar": "METAR EPWA 240330Z 26004KT CAVOK 01/M04 Q1014 NOSIG",
      "taf": "TAF EPWA 240230Z 2403/2503 29005KT CAVOK"
    },
    {
      "icao": "EPWR",
      "alert": "OK",
      "vis_m": 9999,
      "fzfg": false,
      "metar_trigger": false,
      "taf_trigger": false,
      "metar": "METAR EPWR 240330Z 27004KT CAVOK 04/03 Q1016",
      "taf": "TAF EPWR 240230Z 2403/2503 27008KT CAVOK"
    },
    {
      "icao": "ESGG",
      "alert": "OK",
      "vis_m": 9999,
      "fzfg": false,
      "metar_trigger": false,
      "taf_trigger": false,
      "metar": "METAR ESGG 240320Z 02009KT CAVOK 04/02 Q1016",
      "taf": "TAF ESGG 240230Z 2403/2503 01008KT CAVOK"
    },
    {
      "icao": "ESKN",
      "alert": "OK",
      "vis_m": 9999,
      "fzfg": false,
      "metar_trigger": false,
      "taf_trigger": false,
      "metar": "METAR ESKN 240320Z 31005KT 280V340 CAVOK 05/01 Q1013",
      "taf": "TAF ESKN 240230Z 2403/2503 32005KT CAVOK"
    },
    {
      "icao": "ESMS",
      "alert": "OK",
      "vis_m": 8000,
      "fzfg": false,
      "metar_trigger": false,
      "taf_trigger": false,
      "metar": "METAR ESMS 240320Z 32008KT 8000 R17/P2000N R35/P2000N BCFG NSC 03/03 Q1015",
      "taf": "TAF ESMS 240227Z 2403/2503 32006KT CAVOK"
    },
    {
      "icao": "ESSA",
      "alert": "OK",
      "vis_m": 9999,
      "fzfg": false,
      "metar_trigger": false,
      "taf_trigger": false,
      "metar": "METAR ESSA 240320Z 32005KT 9999 BKN039 06/01 Q1012 NOSIG",
      "taf": "TAF ESSA 240230Z 2403/2503 35007KT 9999 BKN040"
    },
    {
      "icao": "EYKA",
      "alert": "OK",
      "vis_m": 9999,
      "fzfg": false,
      "metar_trigger": false,
      "taf_trigger": false,
      "metar": "METAR EYKA 240320Z 30004KT CAVOK 01/M01 Q1010",
      "taf": "TAF EYKA 232300Z 2400/2424 VRB04KT 9000 NSC"
    },
    {
      "icao": "EYPA",
      "alert": "OK",
      "vis_m": 9999,
      "fzfg": false,
      "metar_trigger": false,
      "taf_trigger": false,
      "metar": "METAR EYPA 240320Z VRB01KT CAVOK 05/03 Q1011",
      "taf": "TAF EYPA 232300Z 2400/2424 VRB04KT 9000 NSC"
    },
    {
      "icao": "EYVI",
      "alert": "OK",
      "vis_m": 9999,
      "fzfg": false,
      "metar_trigger": false,
      "taf_trigger": false,
      "metar": "METAR EYVI 240320Z 32005KT 300V020 9999 FEW013 02/M01 Q1008 NOSIG",
      "taf": "TAF EYVI 232300Z 2400/2424 VRB04KT 9000 NSC"
    },
    {
      "icao": "GCFV",
      "alert": "OK",
      "vis_m": 9999,
      "fzfg": false,
      "metar_trigger": false,
      "taf_trigger": false,
      "metar": "METAR GCFV 240330Z AUTO 32005KT 9999 SCT025 BKN036 17/12 Q1016",
      "taf": "TAF GCFV 240200Z 2403/2503 36006KT 9999 SCT030 TX23/2414Z TN16/2406Z"
    },
    {
      "icao": "GCLP",
      "alert": "OK",
      "vis_m": 9999,
      "fzfg": false,
      "metar_trigger": false,
      "taf_trigger": false,
      "metar": "METAR GCLP 240330Z 35009KT 9999 FEW025 17/12 Q1017 NOSIG",
      "taf": "TAF GCLP 240200Z 2403/2503 36010KT 9999 SCT030 TX23/2414Z TN16/2406Z"
    },
    {
      "icao": "GCTS",
      "alert": "OK",
      "vis_m": 9999,
      "fzfg": false,
      "metar_trigger": false,
      "taf_trigger": false,
      "metar": "METAR GCTS 240330Z 02006KT 9999 FEW055 16/10 Q1017 NOSIG",
      "taf": "TAF GCTS 240200Z 2403/2503 04006KT 9999 SCT040 TX24/2414Z TN15/2406Z"
    },
    {
      "icao": "GMAD",
      "alert": "OK",
      "vis_m": 8000,
      "fzfg": false,
      "metar_trigger": false,
      "taf_trigger": false,
      "metar": "METAR GMAD 240330Z 14004KT 100V180 8000 FEW020 SCT100 16/13 Q1014 NOSIG",
      "taf": "TAF GMAD 232300Z 2400/2506 06008KT 8000 SCT020"
    },
    {
      "icao": "GMMN",
      "alert": "OK",
      "vis_m": 8000,
      "fzfg": false,
      "metar_trigger": false,
      "taf_trigger": false,
      "metar": "METAR GMMN 240330Z 01004KT 8000 3000N SCT015 SCT080 12/11 Q1015 NOSIG",
      "taf": "TAF GMMN 232300Z 2400/2506 05007KT 9999 SCT015 BKN070"
    },
    {
      "icao": "GMMX",
      "alert": "OK",
      "vis_m": 8000,
      "fzfg": false,
      "metar_trigger": false,
      "taf_trigger": false,
      "metar": "METAR GMMX 240330Z 24005KT 8000 OVC016 16/12 Q1015 NOSIG",
      "taf": "TAF GMMX 232300Z 2400/2506 34006KT 8000 OVC020"
    },
    {
      "icao": "HEGN",
      "alert": "OK",
      "vis_m": 9999,
      "fzfg": false,
      "metar_trigger": false,
      "taf_trigger": false,
      "metar": "METAR HEGN 240300Z 30014KT CAVOK 22/M00 Q1008 NOSIG",
      "taf": "TAF HEGN 232300Z 2400/2506 28010KT CAVOK"
    },
    {
      "icao": "HEMA",
      "alert": "OK",
      "vis_m": 9999,
      "fzfg": false,
      "metar_trigger": false,
      "taf_trigger": false,
      "metar": "METAR HEMA 240300Z 32011KT CAVOK 24/M04 Q1006 NOSIG",
      "taf": "TAF HEMA 232300Z 2400/2506 29010KT CAVOK"
    },
    {
      "icao": "HESH",
      "alert": "OK",
      "vis_m": 9999,
      "fzfg": false,
      "metar_trigger": false,
      "taf_trigger": false,
      "metar": "METAR HESH 240300Z 34014KT CAVOK 24/10 Q1006 NOSIG",
      "taf": "TAF HESH 232300Z 2400/2506 33010KT CAVOK"
    },
    {
      "icao": "HESX",
      "alert": "OK",
      "vis_m": 9999,
      "fzfg": false,
      "metar_trigger": false,
      "taf_trigger": false,
      "metar": "METAR HESX 240300Z 04707KT CAVOK 15/09 Q1010 NOSIG",
      "taf": "TAF HESX 232300Z 2400/2506 05008KT CAVOK"
    },
    {
      "icao": "LATI",
      "alert": "OK",
      "vis_m": 9999,
      "fzfg": false,
      "metar_trigger": false,
      "taf_trigger": false,
      "metar": "METAR LATI 240320Z VRB01KT CAVOK 07/05 Q1015 NOSIG",
      "taf": "TAF LATI 232300Z 2400/2424 VRB04KT CAVOK TX23/2412Z TN06/2404Z"
    },
    {
      "icao": "LBPD",
      "alert": "OK",
      "vis_m": 9999,
      "fzfg": false,
      "metar_trigger": false,
      "taf_trigger": false,
      "metar": "METAR LBPD 240330Z AUTO 28007KT 9999 NCD 10/00 Q1013 NOSIG",
      "taf": "TAF LBPD 232300Z 2400/2424 29010KT 9999 SCT070"
    },
    {
      "icao": "LBSF",
      "alert": "OK",
      "vis_m": 9999,
      "fzfg": false,
      "metar_trigger": false,
      "taf_trigger": false,
      "metar": "METAR LBSF 240330Z 00000KT CAVOK 04/M01 Q1014 NOSIG",
      "taf": "TAF LBSF 232300Z 2400/2424 30010KT 9999 SCT060"
    },
    {
      "icao": "LBWN",
      "alert": "OK",
      "vis_m": 9999,
      "fzfg": false,
      "metar_trigger": false,
      "taf_trigger": false,
      "metar": "METAR LBWN 240330Z AUTO VRB02KT 9999 NSC 06/02 Q1011 NOSIG",
      "taf": "TAF LBWN 232300Z 2400/2424 30006KT 9999 SCT045"
    },
    {
      "icao": "LCLK",
      "alert": "OK",
      "vis_m": 9999,
      "fzfg": false,
      "metar_trigger": false,
      "taf_trigger": false,
      "metar": "METAR LCLK 240330Z 30002KT 9999 FEW020 12/12 Q1011 NOSIG",
      "taf": "TAF LCLK 232330Z 2400/2500 32006KT 9999 FEW020 SCT040"
    },
    {
      "icao": "LCPH",
      "alert": "OK",
      "vis_m": 9999,
      "fzfg": false,
      "metar_trigger": false,
      "taf_trigger": false,
      "metar": "METAR LCPH 240330Z 08004KT 9999 FEW035 14/11 Q1010 TEMPO BKN012",
      "taf": "TAF LCPH 232330Z 2400/2500 04007KT 9999 FEW020"
    },
    {
      "icao": "LEAL",
      "alert": "OK",
      "vis_m": 9999,
      "fzfg": false,
      "metar_trigger": false,
      "taf_trigger": false,
      "metar": "METAR LEAL 240330Z 02006KT 350V050 CAVOK 18/11 Q1015 NOSIG",
      "taf": "TAF LEAL 232300Z 2400/2424 08010KT 9999 FEW010 TX22/2412Z TN14/2406Z"
    },
    {
      "icao": "LEBB",
      "alert": "OK",
      "vis_m": 9999,
      "fzfg": false,
      "metar_trigger": false,
      "taf_trigger": false,
      "metar": "METAR LEBB 240330Z 14006KT 080V210 CAVOK 21/08 Q1014 NOSIG",
      "taf": "TAF LEBB 232300Z 2400/2424 13009KT 9999 FEW060 TX22/2412Z TN13/2424Z"
    },
    {
      "icao": "LEBL",
      "alert": "OK",
      "vis_m": 9999,
      "fzfg": false,
      "metar_trigger": false,
      "taf_trigger": false,
      "metar": "METAR LEBL 240330Z 33006KT 9999 SCT030 14/09 Q1019 NOSIG",
      "taf": "TAF LEBL 232300Z 2400/2424 06008KT 9999 FEW020 TX19/2412Z TN13/2405Z"
    },
    {
      "icao": "LECH",
      "alert": "OK",
      "vis_m": 9000,
      "fzfg": false,
      "metar_trigger": false,
      "taf_trigger": false,
      "metar": "METAR LECH 240330Z AUTO 02003KT 330V080 9000 OVC010 13/10 Q1019",
      "taf": "TAF LECH 232300Z 2400/2424 05010KT 9999 BKN020 TX23/2413Z TN10/2407Z"
    },
    {
      "icao": "LEMD",
      "alert": "OK",
      "vis_m": 9000,
      "fzfg": false,
      "metar_trigger": false,
      "taf_trigger": false,
      "metar": "METAR LEMD 240330Z VRB01KT 9000 -SHRA VCTS SCT041 BKN060CB BKN076 13/13 Q1017 RETSRA NOSIG",
      "taf": "TAF LEMD 232300Z 2400/2506 VRB04KT CAVOK TX22/2416Z TN10/2406Z"
    },
    {
      "icao": "LEMG",
      "alert": "OK",
      "vis_m": 9999,
      "fzfg": false,
      "metar_trigger": false,
      "taf_trigger": false,
      "metar": "METAR LEMG 240330Z VRB02KT 9999 FEW030 SCT045 17/12 Q1015 NOSIG",
      "taf": "TAF LEMG 232300Z 2400/2424 VRB03KT 9999 BKN025 TX20/2414Z TN15/2406Z"
    },
    {
      "icao": "LEVC",
      "alert": "OK",
      "vis_m": 9999,
      "fzfg": false,
      "metar_trigger": false,
      "taf_trigger": false,
      "metar": "METAR LEVC 240330Z 29003KT 9999 BKN024 15/11 Q1018 NOSIG",
      "taf": "TAF LEVC 232300Z 2400/2424 07009KT 9999 SCT020 TX21/2412Z TN14/2406Z"
    },
    {
      "icao": "LEXJ",
      "alert": "OK",
      "vis_m": 6000,
      "fzfg": false,
      "metar_trigger": false,
      "taf_trigger": false,
      "metar": "METAR LEXJ 240330Z VRB01KT 6000 FEW040 14/13 Q1013",
      "taf": "TAF LEXJ 240200Z 2403/2503 26009KT 9999 SCT040 TX19/2412Z TN13/2403Z"
    },
    {
      "icao": "LEZG",
      "alert": "OK",
      "vis_m": 9999,
      "fzfg": false,
      "metar_trigger": false,
      "taf_trigger": false,
      "metar": "METAR LEZG 240330Z 10003KT 080V150 CAVOK 13/09 Q1019 NOSIG",
      "taf": "TAF LEZG 232300Z 2400/2424 11012KT 9999 SCT010 TX25/2415Z TN12/2406Z"
    },
    {
      "icao": "LEZL",
      "alert": "OK",
      "vis_m": 9999,
      "fzfg": false,
      "metar_trigger": false,
      "taf_trigger": false,
      "metar": "METAR LEZL 240330Z 21003KT 180V240 9999 FEW028 17/13 Q1015 NOSIG",
      "taf": "TAF LEZL 240200Z 2403/2503 VRB03KT CAVOK TX24/2415Z TN16/2406Z"
    },
    {
      "icao": "LFBD",
      "alert": "OK",
      "vis_m": 9999,
      "fzfg": false,
      "metar_trigger": false,
      "taf_trigger": false,
      "metar": "METAR LFBD 240330Z AUTO 10007KT CAVOK 14/04 Q1016 NOSIG",
      "taf": "TAF LFBD 232300Z 2400/2506 11010KT CAVOK TX24/2413Z TN14/2405Z"
    },
    {
      "icao": "LFLL",
      "alert": "OK",
      "vis_m": 9999,
      "fzfg": false,
      "metar_trigger": false,
      "taf_trigger": false,
      "metar": "METAR LFLL 240330Z 21003KT CAVOK 09/06 Q1020 NOSIG",
      "taf": "TAF LFLL 232300Z 2400/2506 VRB04KT CAVOK"
    },
    {
      "icao": "LFLS",
      "alert": "OK",
      "vis_m": 9999,
      "fzfg": false,
      "metar_trigger": false,
      "taf_trigger": false,
      "metar": "METAR LFLS 240330Z AUTO 10006KT CAVOK 06/04 Q1019 NOSIG",
      "taf": "TAF LFLS 240200Z 2403/2503 09007KT CAVOK"
    },
    {
      "icao": "LFMN",
      "alert": "OK",
      "vis_m": 9999,
      "fzfg": false,
      "metar_trigger": false,
      "taf_trigger": false,
      "metar": "METAR LFMN 240330Z 34006KT CAVOK 14/07 Q1019 NOSIG",
      "taf": "TAF LFMN 232000Z 2321/2503 35005KT CAVOK"
    },
    {
      "icao": "LFOB",
      "alert": "OK",
      "vis_m": 9999,
      "fzfg": false,
      "metar_trigger": false,
      "taf_trigger": false,
      "metar": "METAR LFOB 240330Z AUTO VRB02KT CAVOK 04/02 Q1024 NOSIG",
      "taf": "TAF LFOB 232300Z 2400/2424 05008KT CAVOK"
    },
    {
      "icao": "LFPO",
      "alert": "OK",
      "vis_m": 9999,
      "fzfg": false,
      "metar_trigger": false,
      "taf_trigger": false,
      "metar": "METAR LFPO 240330Z 05007KT CAVOK 10/00 Q1022 NOSIG",
      "taf": "TAF LFPO 232300Z 2400/2506 04008KT CAVOK"
    },
    {
      "icao": "LFSB",
      "alert": "OK",
      "vis_m": 9999,
      "fzfg": false,
      "metar_trigger": false,
      "taf_trigger": false,
      "metar": "METAR LFSB 240330Z AUTO 17001KT CAVOK 01/M01 Q1022 NOSIG",
      "taf": "TAF LFSB 232300Z 2400/2424 VRB03KT CAVOK"
    },
    {
      "icao": "LGAV",
      "alert": "OK",
      "vis_m": 9999,
      "fzfg": false,
      "metar_trigger": false,
      "taf_trigger": false,
      "metar": "METAR LGAV 240320Z 27003KT 9999 FEW020 06/04 Q1014 NOSIG",
      "taf": "TAF LGAV 232300Z 2400/2424 34008KT 9999 FEW018 SCT030"
    },
    {
      "icao": "LGTS",
      "alert": "OK",
      "vis_m": 9999,
      "fzfg": false,
      "metar_trigger": false,
      "taf_trigger": false,
      "metar": "METAR LGTS 240320Z VRB02KT 9999 FEW025 07/06 Q1015 NOSIG",
      "taf": "TAF LGTS 232300Z 2400/2424 VRB03KT 9999 FEW030"
    },
    {
      "icao": "LHBP",
      "alert": "OK",
      "vis_m": 9999,
      "fzfg": false,
      "metar_trigger": false,
      "taf_trigger": false,
      "metar": "METAR LHBP 240330Z 32008KT CAVOK 09/03 Q1015 NOSIG",
      "taf": "TAF LHBP 232315Z 2400/2424 31007KT CAVOK"
    },
    {
      "icao": "LHDC",
      "alert": "OK",
      "vis_m": 9999,
      "fzfg": false,
      "metar_trigger": false,
      "taf_trigger": false,
      "metar": "METAR LHDC 240315Z AUTO 00000KT CAVOK 05/01 Q1014 NOSIG",
      "taf": "TAF LHDC 240215Z 2403/2412 VRB04KT CAVOK"
    },
    {
      "icao": "LIBD",
      "alert": "OK",
      "vis_m": 9999,
      "fzfg": false,
      "metar_trigger": false,
      "taf_trigger": false,
      "metar": "METAR LIBD 240320Z 28006KT CAVOK 11/05 Q1017",
      "taf": "TAF LIBD 232300Z 2400/2424 28008KT CAVOK"
    },
    {
      "icao": "LIBG",
      "alert": "OK",
      "vis_m": null,
      "fzfg": false,
      "metar_trigger": false,
      "taf_trigger": false,
      "metar": "",
      "taf": ""
    },
    {
      "icao": "LIBP",
      "alert": "OK",
      "vis_m": 9999,
      "fzfg": false,
      "metar_trigger": false,
      "taf_trigger": false,
      "metar": "METAR LIBP 240320Z AUTO 25005KT 9999 NCD 06/03 Q1019",
      "taf": "TAF LIBP 232300Z 2400/2424 24006KT CAVOK"
    },
    {
      "icao": "LIBR",
      "alert": "OK",
      "vis_m": 9999,
      "fzfg": false,
      "metar_trigger": false,
      "taf_trigger": false,
      "metar": "METAR LIBR 240320Z 30014KT CAVOK 13/09 Q1015",
      "taf": "TAF LIBR 232300Z 2400/2424 33014KT CAVOK"
    },
    {
      "icao": "LICA",
      "alert": "OK",
      "vis_m": 9999,
      "fzfg": false,
      "metar_trigger": false,
      "taf_trigger": false,
      "metar": "METAR LICA 240320Z AUTO 06003KT 9999 NCD 04/02 Q1017",
      "taf": "TAF LICA 232300Z 2400/2424 VRB05KT 9999 FEW040"
    },
    {
      "icao": "LICC",
      "alert": "OK",
      "vis_m": 9999,
      "fzfg": false,
      "metar_trigger": false,
      "taf_trigger": false,
      "metar": "METAR LICC 240320Z 26004KT 210V340 CAVOK 08/05 Q1017",
      "taf": "TAF LICC 232300Z 2400/2424 26008KT 9999 FEW030"
    },
    {
      "icao": "LICJ",
      "alert": "OK",
      "vis_m": 9999,
      "fzfg": false,
      "metar_trigger": false,
      "taf_trigger": false,
      "metar": "METAR LICJ 240320Z 05011KT CAVOK 15/05 Q1017",
      "taf": "TAF LICJ 232300Z 2400/2424 04012KT CAVOK"
    },
    {
      "icao": "LIMC",
      "alert": "OK",
      "vis_m": 9999,
      "fzfg": false,
      "metar_trigger": false,
      "taf_trigger": false,
      "metar": "METAR LIMC 240320Z 08002KT CAVOK 08/08 Q1018 NOSIG",
      "taf": "TAF LIMC 232300Z 2400/2506 VRB05KT CAVOK"
    },
    {
      "icao": "LIME",
      "alert": "OK",
      "vis_m": 9999,
      "fzfg": false,
      "metar_trigger": false,
      "taf_trigger": false,
      "metar": "METAR LIME 240320Z 36004KT CAVOK 12/07 Q1018 NOSIG",
      "taf": "TAF LIME 232300Z 2400/2424 VRB05KT CAVOK"
    },
    {
      "icao": "LIMF",
      "alert": "OK",
      "vis_m": 9999,
      "fzfg": false,
      "metar_trigger": false,
      "taf_trigger": false,
      "metar": "METAR LIMF 240320Z 32003KT CAVOK 10/05 Q1018",
      "taf": "TAF LIMF 232300Z 2400/2424 VRB03KT CAVOK"
    },
    {
      "icao": "LIMJ",
      "alert": "OK",
      "vis_m": 9999,
      "fzfg": false,
      "metar_trigger": false,
      "taf_trigger": false,
      "metar": "METAR LIMJ 240320Z 03002KT CAVOK 12/08 Q1018",
      "taf": "TAF LIMJ 232300Z 2400/2424 05007KT 9999 FEW015"
    },
    {
      "icao": "LIPE",
      "alert": "OK",
      "vis_m": 9999,
      "fzfg": false,
      "metar_trigger": false,
      "taf_trigger": false,
      "metar": "METAR LIPE 240320Z 20009KT CAVOK 10/M01 Q1018",
      "taf": "TAF LIPE 232300Z 2400/2424 19010KT CAVOK"
    },
    {
      "icao": "LIPH",
      "alert": "OK",
      "vis_m": 9999,
      "fzfg": false,
      "metar_trigger": false,
      "taf_trigger": false,
      "metar": "METAR LIPH 240320Z AUTO VRB02KT 9999 NCD 09/08 Q1018",
      "taf": "TAF LIPH 232300Z 2400/2424 VRB05KT CAVOK"
    },
    {
      "icao": "LIPQ",
      "alert": "OK",
      "vis_m": 9999,
      "fzfg": false,
      "metar_trigger": false,
      "taf_trigger": false,
      "metar": "METAR LIPQ 240320Z AUTO VRB02KT 9999 NCD 05/04 Q1018",
      "taf": "TAF LIPQ 232300Z 2400/2424 VRB05KT CAVOK"
    },
    {
      "icao": "LIPR",
      "alert": "OK",
      "vis_m": 9999,
      "fzfg": false,
      "metar_trigger": false,
      "taf_trigger": false,
      "metar": "METAR LIPR 240320Z AUTO 26002KT 9999 NCD 07/00 Q1018",
      "taf": "TAF LIPR 232300Z 2400/2424 20006KT CAVOK"
    },
    {
      "icao": "LIPX",
      "alert": "OK",
      "vis_m": 9999,
      "fzfg": false,
      "metar_trigger": false,
      "taf_trigger": false,
      "metar": "METAR LIPX 240320Z 34004KT CAVOK 07/05 Q1018",
      "taf": "TAF LIPX 232300Z 2400/2424 VRB05KT CAVOK"
    },
    {
      "icao": "LIPY",
      "alert": "OK",
      "vis_m": 9999,
      "fzfg": false,
      "metar_trigger": false,
      "taf_trigger": false,
      "metar": "METAR LIPY 240320Z AUTO 19004KT 9999 NCD 08/02 Q1019",
      "taf": "TAF LIPY 232300Z 2400/2424 21005KT CAVOK"
    },
    {
      "icao": "LIPZ",
      "alert": "OK",
      "vis_m": 9999,
      "fzfg": false,
      "metar_trigger": false,
      "taf_trigger": false,
      "metar": "METAR LIPZ 240320Z 03006KT CAVOK 09/08 Q1018 NOSIG",
      "taf": "TAF LIPZ 232300Z 2400/2506 VRB05KT CAVOK"
    },
    {
      "icao": "LIRF",
      "alert": "OK",
      "vis_m": 9999,
      "fzfg": false,
      "metar_trigger": false,
      "taf_trigger": false,
      "metar": "METAR LIRF 240320Z 05005KT CAVOK 07/02 Q1019 NOSIG",
      "taf": "TAF LIRF 232300Z 2400/2506 05008KT CAVOK"
    },
    {
      "icao": "LIRN",
      "alert": "OK",
      "vis_m": 9999,
      "fzfg": false,
      "metar_trigger": false,
      "taf_trigger": false,
      "metar": "METAR LIRN 240320Z 32005KT CAVOK 09/00 Q1018 NOSIG",
      "taf": "TAF LIRN 232300Z 2400/2424 VRB05KT CAVOK"
    },
    {
      "icao": "LIRP",
      "alert": "OK",
      "vis_m": 9999,
      "fzfg": false,
      "metar_trigger": false,
      "taf_trigger": false,
      "metar": "METAR LIRP 240315Z 12003KT CAVOK 05/04 Q1019 NOSIG",
      "taf": "TAF LIRP 232300Z 2400/2424 10003KT CAVOK"
    },
    {
      "icao": "LIRZ",
      "alert": "OK",
      "vis_m": 9999,
      "fzfg": false,
      "metar_trigger": false,
      "taf_trigger": false,
      "metar": "METAR LIRZ 240320Z AUTO 34004KT 9999 NCD 03/00 Q1020",
      "taf": "TAF LIRZ 232300Z 2400/2424 VRB05KT CAVOK"
    },
    {
      "icao": "LJLJ",
      "alert": "OK",
      "vis_m": 9999,
      "fzfg": false,
      "metar_trigger": false,
      "taf_trigger": false,
      "metar": "METAR LJLJ 240330Z 31003KT 280V350 CAVOK 01/M00 Q1019 NOSIG",
      "taf": "TAF LJLJ 232300Z 2400/2500 VRB02KT CAVOK"
    },
    {
      "icao": "LKMT",
      "alert": "OK",
      "vis_m": 9999,
      "fzfg": false,
      "metar_trigger": false,
      "taf_trigger": false,
      "metar": "METAR LKMT 240330Z VRB02KT 9999 FEW039 BKN047 09/05 Q1017 NOSIG",
      "taf": "TAF LKMT 232300Z 2400/2424 29005KT CAVOK"
    },
    {
      "icao": "LKPR",
      "alert": "OK",
      "vis_m": 9999,
      "fzfg": false,
      "metar_trigger": false,
      "taf_trigger": false,
      "metar": "METAR LKPR 240330Z 24009KT CAVOK 06/02 Q1018 NOSIG",
      "taf": "TAF LKPR 240200Z 2403/2509 27008KT CAVOK"
    },
    {
      "icao": "LLBG",
      "alert": "OK",
      "vis_m": 9999,
      "fzfg": false,
      "metar_trigger": false,
      "taf_trigger": false,
      "metar": "METAR LLBG 240320Z VRB03KT CAVOK 13/09 Q1011 NOSIG",
      "taf": "TAF LLBG 232304Z 2400/2424 VRB04KT 9999 FEW020 TX26/2411Z TN12/2403Z"
    },
    {
      "icao": "LMML",
      "alert": "OK",
      "vis_m": 9999,
      "fzfg": false,
      "metar_trigger": false,
      "taf_trigger": false,
      "metar": "METAR LMML 240345Z 05005KT 020V080 9999 FEW030 14/10 Q1016 NOSIG",
      "taf": "TAF LMML 232300Z 2400/2424 06008KT 9999 FEW030"
    },
    {
      "icao": "LOWW",
      "alert": "OK",
      "vis_m": 9999,
      "fzfg": false,
      "metar_trigger": false,
      "taf_trigger": false,
      "metar": "METAR LOWW 240320Z 32009KT CAVOK 10/02 Q1018 NOSIG",
      "taf": "TAF LOWW 240215Z 2403/2509 32012KT CAVOK TX20/2415Z TN09/2504Z"
    },
    {
      "icao": "LPFR",
      "alert": "OK",
      "vis_m": 9999,
      "fzfg": false,
      "metar_trigger": false,
      "taf_trigger": false,
      "metar": "METAR LPFR 240330Z 31006KT CAVOK 14/10 Q1015",
      "taf": "TAF LPFR 232300Z 2400/2424 VRB02KT CAVOK"
    },
    {
      "icao": "LPMA",
      "alert": "OK",
      "vis_m": 9999,
      "fzfg": false,
      "metar_trigger": false,
      "taf_trigger": false,
      "metar": "METAR LPMA 240330Z VRB02KT 9999 FEW015 16/13 Q1016",
      "taf": "TAF LPMA 232300Z 2400/2424 VRB05KT 9999 SCT015"
    },
    {
      "icao": "LPPR",
      "alert": "OK",
      "vis_m": 8000,
      "fzfg": false,
      "metar_trigger": false,
      "taf_trigger": false,
      "metar": "METAR LPPR 240330Z 00000KT 8000 FEW004 BKN006 12/11 Q1016",
      "taf": "TAF LPPR 232300Z 2400/2424 VRB02KT 9999 FEW008"
    },
    {
      "icao": "LPPS",
      "alert": "OK",
      "vis_m": 9999,
      "fzfg": false,
      "metar_trigger": false,
      "taf_trigger": false,
      "metar": "METAR LPPS 240330Z 34006KT 9999 SCT012 17/15 Q1016",
      "taf": "TAF LPPS 232300Z 2400/2506 30010KT 9999 SCT012 BKN030"
    },
    {
      "icao": "LPPT",
      "alert": "OK",
      "vis_m": 9999,
      "fzfg": false,
      "metar_trigger": false,
      "taf_trigger": false,
      "metar": "METAR LPPT 240330Z VRB02KT 9999 BKN020 14/12 Q1016",
      "taf": "TAF LPPT 232300Z 2400/2506 VRB02KT 9999 FEW018"
    },
    {
      "icao": "LQBK",
      "alert": "OK",
      "vis_m": 9999,
      "fzfg": false,
      "metar_trigger": false,
      "taf_trigger": false,
      "metar": "METAR LQBK 240330Z 14004KT CAVOK 05/01 Q1018 NOSIG",
      "taf": "TAF LQBK 232300Z 2400/2424 15005KT CAVOK TX20/2413Z TN02/2404Z"
    },
    {
      "icao": "LQSA",
      "alert": "OK",
      "vis_m": 9999,
      "fzfg": false,
      "metar_trigger": false,
      "taf_trigger": false,
      "metar": "METAR LQSA 240330Z VRB02KT CAVOK 01/00 Q1018 NOSIG",
      "taf": "TAF LQSA 232300Z 2400/2424 VRB02KT CAVOK TX19/2414Z TN03/2404Z"
    },
    {
      "icao": "LQTZ",
      "alert": "OK",
      "vis_m": 9999,
      "fzfg": false,
      "metar_trigger": false,
      "taf_trigger": false,
      "metar": "METAR LQTZ 240330Z VRB01KT CAVOK 01/01 Q1017",
      "taf": "TAF LQTZ 232300Z 2400/2424 27005KT CAVOK TX18/2413Z TN00/2404Z"
    },
    {
      "icao": "LRBC",
      "alert": "OK",
      "vis_m": 9999,
      "fzfg": false,
      "metar_trigger": false,
      "taf_trigger": false,
      "metar": "METAR LRBC 240330Z 04003KT 010V070 CAVOK 08/01 Q1010",
      "taf": "TAF LRBC 240200Z 2403/2412 35008KT CAVOK"
    },
    {
      "icao": "LRBS",
      "alert": "OK",
      "vis_m": 9999,
      "fzfg": false,
      "metar_trigger": false,
      "taf_trigger": false,
      "metar": "METAR LRBS 240330Z 28003KT 250V330 CAVOK 08/03 Q1010 NOSIG",
      "taf": "TAF LRBS 232300Z 2400/2424 30006KT CAVOK"
    },
    {
      "icao": "LRBV",
      "alert": "OK",
      "vis_m": 9999,
      "fzfg": false,
      "metar_trigger": false,
      "taf_trigger": false,
      "metar": "METAR LRBV 240330Z AUTO 29007KT 9999 BKN120/// 08/00 Q1011",
      "taf": "TAF LRBV 240200Z 2403/2412 29009KT CAVOK"
    },
    {
      "icao": "LRCL",
      "alert": "OK",
      "vis_m": 9999,
      "fzfg": false,
      "metar_trigger": false,
      "taf_trigger": false,
      "metar": "METAR LRCL 240330Z 27006KT CAVOK 07/01 Q1012",
      "taf": "TAF LRCL 240200Z 2403/2412 28009KT CAVOK"
    },
    {
      "icao": "LRCV",
      "alert": "OK",
      "vis_m": 9999,
      "fzfg": false,
      "metar_trigger": false,
      "taf_trigger": false,
      "metar": "METAR LRCV 240330Z 31007KT CAVOK 06/01 Q1011",
      "taf": "TAF LRCV 240200Z 2403/2412 29008KT CAVOK"
    },
    {
      "icao": "LRIA",
      "alert": "OK",
      "vis_m": 9999,
      "fzfg": false,
      "metar_trigger": false,
      "taf_trigger": false,
      "metar": "METAR LRIA 240330Z 25006KT 230V350 CAVOK 07/00 Q1009",
      "taf": "TAF LRIA 240200Z 2403/2412 30010KT CAVOK"
    },
    {
      "icao": "LROP",
      "alert": "OK",
      "vis_m": 9999,
      "fzfg": false,
      "metar_trigger": false,
      "taf_trigger": false,
      "metar": "METAR LROP 240330Z 26005KT CAVOK 07/01 Q1010 NOSIG",
      "taf": "TAF LROP 232300Z 2400/2424 30006KT CAVOK"
    },
    {
      "icao": "LRSB",
      "alert": "OK",
      "vis_m": 9999,
      "fzfg": false,
      "metar_trigger": false,
      "taf_trigger": false,
      "metar": "METAR LRSB 240330Z COR 27003KT CAVOK 06/00 Q1012",
      "taf": "TAF LRSB 232300Z 2400/2424 VRB04KT CAVOK"
    },
    {
      "icao": "LRSM",
      "alert": "OK",
      "vis_m": 9999,
      "fzfg": false,
      "metar_trigger": false,
      "taf_trigger": false,
      "metar": "METAR LRSM 240330Z AUTO 30006KT 9999 FEW065/// 05/00 Q1013",
      "taf": "TAF LRSM 240200Z 2403/2412 32008KT CAVOK"
    },
    {
      "icao": "LRSV",
      "alert": "OK",
      "vis_m": 9999,
      "fzfg": false,
      "metar_trigger": false,
      "taf_trigger": false,
      "metar": "METAR LRSV 240330Z 29010KT CAVOK 06/M02 Q1009",
      "taf": "TAF LRSV 240200Z 2403/2412 30010KT CAVOK"
    },
    {
      "icao": "LRTM",
      "alert": "OK",
      "vis_m": 9999,
      "fzfg": false,
      "metar_trigger": false,
      "taf_trigger": false,
      "metar": "METAR LRTM 240330Z 23008KT CAVOK 05/02 Q1012",
      "taf": "TAF LRTM 240200Z 2403/2412 28008KT CAVOK"
    },
    {
      "icao": "LRTR",
      "alert": "OK",
      "vis_m": 9999,
      "fzfg": false,
      "metar_trigger": false,
      "taf_trigger": false,
      "metar": "METAR LRTR 240330Z 10004KT CAVOK 01/01 Q1013",
      "taf": "TAF LRTR 232300Z 2400/2424 VRB04KT CAVOK"
    },
    {
      "icao": "LTAC",
      "alert": "OK",
      "vis_m": 9999,
      "fzfg": false,
      "metar_trigger": false,
      "taf_trigger": false,
      "metar": "METAR LTAC 240320Z 03003KT 9999 FEW040 00/M01 Q1013 NOSIG RMK RWY21C VRB02KT RWY03L 04002KT RWY21R 01003KT RWY03R 00000KT RWY21L 00000KT",
      "taf": "TAF LTAC 232240Z 2400/2424 VRB02KT 9999 SCT040"
    },
    {
      "icao": "LTFM",
      "alert": "OK",
      "vis_m": 9999,
      "fzfg": false,
      "metar_trigger": false,
      "taf_trigger": false,
      "metar": "METAR LTFM 240320Z 22011KT CAVOK 09/04 Q1012 NOSIG RMK RWY17L 22014KT RWY34L 22011KT RWY16R 22010KT RWY36 22008KT RWY18 22010KT",
      "taf": "TAF LTFM 232240Z 2400/2506 20012KT CAVOK"
    },
    {
      "icao": "LUKK",
      "alert": "OK",
      "vis_m": 9999,
      "fzfg": false,
      "metar_trigger": false,
      "taf_trigger": false,
      "metar": "METAR LUKK 240330Z 29008KT CAVOK 07/M01 Q1008 NOSIG",
      "taf": "TAF LUKK 232315Z 2400/2424 30009KT CAVOK"
    },
    {
      "icao": "LWOH",
      "alert": "OK",
      "vis_m": null,
      "fzfg": false,
      "metar_trigger": false,
      "taf_trigger": false,
      "metar": "",
      "taf": "TAF LWOH 240230Z 2403/2503 33008KT 9999 FEW050"
    },
    {
      "icao": "LWSK",
      "alert": "OK",
      "vis_m": 9999,
      "fzfg": false,
      "metar_trigger": false,
      "taf_trigger": false,
      "metar": "METAR LWSK 240320Z 02003KT 350V100 CAVOK 01/M01 Q1016 NOSIG",
      "taf": "TAF LWSK 240230Z 2403/2503 VRB02KT CAVOK"
    },
    {
      "icao": "LYBE",
      "alert": "OK",
      "vis_m": 9999,
      "fzfg": false,
      "metar_trigger": false,
      "taf_trigger": false,
      "metar": "METAR LYBE 240330Z 24007KT CAVOK 07/01 Q1014 NOSIG",
      "taf": "TAF LYBE 232300Z 2400/2424 27007KT CAVOK TX19/2413Z TN05/2404Z"
    },
    {
      "icao": "LYNI",
      "alert": "OK",
      "vis_m": 9999,
      "fzfg": false,
      "metar_trigger": false,
      "taf_trigger": false,
      "metar": "METAR LYNI 240330Z VRB02KT CAVOK 03/01 Q1015 NOSIG",
      "taf": "TAF LYNI 232300Z 2400/2424 09004KT CAVOK TX20/2413Z TN04/2404Z"
    },
    {
      "icao": "LYPG",
      "alert": "OK",
      "vis_m": 9999,
      "fzfg": false,
      "metar_trigger": false,
      "taf_trigger": false,
      "metar": "METAR LYPG 240330Z 05003KT 350V080 CAVOK 08/02 Q1016 NOSIG",
      "taf": "TAF LYPG 232300Z 2400/2424 34008KT CAVOK TX23/2413Z TN09/2404Z"
    },
    {
      "icao": "LZIB",
      "alert": "OK",
      "vis_m": 9999,
      "fzfg": false,
      "metar_trigger": false,
      "taf_trigger": false,
      "metar": "METAR LZIB 240330Z 29009KT CAVOK 09/02 Q1017 NOSIG",
      "taf": "TAF LZIB 232315Z 2400/2500 33011KT CAVOK"
    },
    {
      "icao": "LZKZ",
      "alert": "OK",
      "vis_m": 9999,
      "fzfg": false,
      "metar_trigger": false,
      "taf_trigger": false,
      "metar": "METAR LZKZ 240330Z 13003KT 040V170 CAVOK 09/02 Q1013 NOSIG",
      "taf": "TAF LZKZ 232315Z 2400/2500 35007KT CAVOK"
    },
    {
      "icao": "LZTT",
      "alert": "OK",
      "vis_m": 9999,
      "fzfg": false,
      "metar_trigger": false,
      "taf_trigger": false,
      "metar": "METAR LZTT 240330Z 27011KT 9999 FEW040 06/01 Q1013",
      "taf": "TAF LZTT 232315Z 2400/2500 25007KT 9999 FEW050"
    },
    {
      "icao": "OEJN",
      "alert": "OK",
      "vis_m": 9999,
      "fzfg": false,
      "metar_trigger": false,
      "taf_trigger": false,
      "metar": "METAR OEJN 240300Z 33005KT 9999 FEW040 26/17 Q1005 NOSIG",
      "taf": "TAF OEJN 232300Z 2400/2506 VRB03KT 9999 FEW040"
    },
    {
      "icao": "OEMA",
      "alert": "OK",
      "vis_m": 8000,
      "fzfg": false,
      "metar_trigger": false,
      "taf_trigger": false,
      "metar": "METAR OEMA 240300Z 02009KT 8000 FEW045 25/15 Q1011 NOSIG",
      "taf": "TAF OEMA 232300Z 2400/2506 VRB03KT 9999 FEW045"
    },
    {
      "icao": "OJAI",
      "alert": "OK",
      "vis_m": 5000,
      "fzfg": false,
      "metar_trigger": false,
      "taf_trigger": false,
      "metar": "METAR OJAI 240300Z 30002KT 5000 HZ NSC 05/00 Q1012 NOSIG",
      "taf": "TAF OJAI 232300Z 2400/2506 31010KT 5000 HZ NSC"
    },
    {
      "icao": "OMAA",
      "alert": "OK",
      "vis_m": 9999,
      "fzfg": false,
      "metar_trigger": false,
      "taf_trigger": false,
      "metar": "METAR OMAA 240330Z 35008KT CAVOK 28/20 Q1009 NOSIG",
      "taf": "TAF OMAA 232300Z 2400/2506 04006KT 8000 NSC"
    },
    {
      "icao": "OMDB",
      "alert": "OK",
      "vis_m": 9999,
      "fzfg": false,
      "metar_trigger": false,
      "taf_trigger": false,
      "metar": "METAR OMDB 240330Z 33006KT 300V040 CAVOK 31/17 Q1009 NOSIG",
      "taf": "TAF OMDB 232300Z 2400/2506 06007KT CAVOK"
    },
    {
      "icao": "UAAA",
      "alert": "OK",
      "vis_m": 9999,
      "fzfg": false,
      "metar_trigger": false,
      "taf_trigger": false,
      "metar": "METAR UAAA 240330Z VRB01MPS 9999 BKN050CB OVC100 15/12 Q1018 NOSIG",
      "taf": "TAF UAAA 232302Z 2400/2424 20002G07MPS 9999 BKN030CB OVC100 TX19/2409Z TN10/2401Z"
    },
    {
      "icao": "UBBB",
      "alert": "OK",
      "vis_m": 9999,
      "fzfg": false,
      "metar_trigger": false,
      "taf_trigger": false,
      "metar": "METAR UBBB 240330Z 34010KT 9999 SCT013 BKN023 10/08 Q1008 NOSIG",
      "taf": "TAF UBBB 232255Z 2400/2424 30008KT 6000 BKN006 TX15/2410Z TN08/2401Z"
    },
    {
      "icao": "UDSG",
      "alert": "OK",
      "vis_m": 9999,
      "fzfg": false,
      "metar_trigger": false,
      "taf_trigger": false,
      "metar": "METAR UDSG 240330Z 20015KT 9999 BKN043CB 11/01 Q1010 NOSIG",
      "taf": "TAF UDSG 232300Z 2400/2424 21006KT 9999 BKN040"
    },
    {
      "icao": "UDYZ",
      "alert": "OK",
      "vis_m": 9999,
      "fzfg": false,
      "metar_trigger": false,
      "taf_trigger": false,
      "metar": "METAR UDYZ 240330Z VRB03KT 9999 BKN043CB 14/04 Q1009 NOSIG",
      "taf": "TAF UDYZ 232300Z 2400/2424 14006KT 9999 SCT040"
    },
    {
      "icao": "UGKO",
      "alert": "OK",
      "vis_m": 8000,
      "fzfg": false,
      "metar_trigger": false,
      "taf_trigger": false,
      "metar": "METAR UGKO 240330Z 11004KT 8000 -RA SCT021 BKN056 05/04 Q1016 NOSIG",
      "taf": "TAF UGKO 232300Z 2400/2424 25007KT 9999 SCT020 BKN050 TX13/2411Z TN05/2403Z"
    }
  ]
}