{
  "ts_utc": "2025-12-31T10:41:33Z",
  "threshold_m": 150,
  "source": "stations_override.txt (ICAO list) + aviationweather.gov (METAR/TAF raw)",
  "station_count": 159,
  "stations": [
    {
      "icao": "BIKF",
      "alert": "OK",
      "vis_m": 9999,
      "fzfg": false,
      "metar_trigger": false,
      "taf_trigger": false,
      "metar": "METAR BIKF 311030Z 33020KT CAVOK 04/00 Q1026",
      "taf": "TAF BIKF 311034Z 3112/0112 33015KT 9999 FEW020 BKN040 TX05/3112Z TNM04/0106Z"
    },
    {
      "icao": "BKPR",
      "alert": "OK",
      "vis_m": 9999,
      "fzfg": false,
      "metar_trigger": false,
      "taf_trigger": false,
      "metar": "METAR BKPR 311030Z 32018KT 9999 FEW040 M02/M13 Q1017 NOSIG",
      "taf": "TAF BKPR 310530Z 3106/0106 33008KT 9999 FEW050"
    },
    {
      "icao": "EBCI",
      "alert": "OK",
      "vis_m": 1200,
      "fzfg": false,
      "metar_trigger": false,
      "taf_trigger": false,
      "metar": "METAR EBCI 311020Z 25006KT 1200 R24/P2000N BR SCT001 BKN027 00/M00 Q1027 TEMPO 0700 BCFG",
      "taf": "TAF EBCI 310510Z 3106/0112 26005KT 3500 BR FEW012 SCT040"
    },
    {
      "icao": "EDDB",
      "alert": "OK",
      "vis_m": 7000,
      "fzfg": false,
      "metar_trigger": false,
      "taf_trigger": false,
      "metar": "METAR EDDB 311020Z AUTO 24011KT 7000 -FZDZ BKN005 00/M00 Q1012 BECMG 5000 NSW",
      "taf": "TAF EDDB 310500Z 3106/0106 26010KT 9999 SCT030"
    },
    {
      "icao": "EDDH",
      "alert": "OK",
      "vis_m": 9999,
      "fzfg": false,
      "metar_trigger": false,
      "taf_trigger": false,
      "metar": "METAR EDDH 311020Z AUTO 28009KT 250V310 9999 VCSH SCT010 BKN041 FEW///TCU 06/05 Q1014 TEMPO SHRA BKN014CB",
      "taf": "TAF EDDH 310500Z 3106/0112 28009KT 9999 BKN025"
    },
    {
      "icao": "EDDK",
      "alert": "OK",
      "vis_m": 8000,
      "fzfg": false,
      "metar_trigger": false,
      "taf_trigger": false,
      "metar": "METAR EDDK 311020Z AUTO VRB02KT 8000 BKN008 BKN020 OVC030 01/M00 Q1025 NOSIG",
      "taf": ""
    },
    {
      "icao": "EDDN",
      "alert": "OK",
      "vis_m": 9999,
      "fzfg": false,
      "metar_trigger": false,
      "taf_trigger": false,
      "metar": "METAR EDDN 311020Z COR AUTO 28004G17KT 230V340 9999 OVC017 M02/M05 Q1023 BECMG OVC012",
      "taf": ""
    },
    {
      "icao": "EDDS",
      "alert": "OK",
      "vis_m": 9999,
      "fzfg": false,
      "metar_trigger": false,
      "taf_trigger": false,
      "metar": "METAR EDDS 311020Z AUTO 23005KT 180V270 9999 OVC031 M03/M08 Q1024 NOSIG",
      "taf": "TAF EDDS 310500Z 3106/0106 VRB02KT CAVOK"
    },
    {
      "icao": "EDFH",
      "alert": "OK",
      "vis_m": 500,
      "fzfg": true,
      "metar_trigger": false,
      "taf_trigger": false,
      "metar": "METAR EDFH 311020Z 26008KT 0500 R21/1300D FZFG SCT000 OVC001 M03/M03 Q1024",
      "taf": ""
    },
    {
      "icao": "EDJA",
      "alert": "OK",
      "vis_m": 9999,
      "fzfg": false,
      "metar_trigger": false,
      "taf_trigger": false,
      "metar": "METAR EDJA 311020Z 20006KT CAVOK M05/M08 Q1024",
      "taf": "TAF EDJA 310800Z 3109/3118 19004KT CAVOK"
    },
    {
      "icao": "EDLW",
      "alert": "OK",
      "vis_m": 4600,
      "fzfg": false,
      "metar_trigger": false,
      "taf_trigger": false,
      "metar": "METAR EDLW 311020Z 23009KT 4600 BR OVC004 01/01 Q1023",
      "taf": ""
    },
    {
      "icao": "EDNY",
      "alert": "OK",
      "vis_m": 9999,
      "fzfg": false,
      "metar_trigger": false,
      "taf_trigger": false,
      "metar": "METAR EDNY 311020Z 08004KT CAVOK M03/M06 Q1026",
      "taf": "TAF EDNY 310800Z 3109/3118 VRB03KT CAVOK"
    },
    {
      "icao": "EDSB",
      "alert": "OK",
      "vis_m": 9999,
      "fzfg": false,
      "metar_trigger": false,
      "taf_trigger": false,
      "metar": "METAR EDSB 311020Z 20005KT 9999 SCT029 OVC041 M03/M05 Q1028",
      "taf": "TAF EDSB 310500Z 3106/0106 20005KT CAVOK"
    },
    {
      "icao": "EETN",
      "alert": "OK",
      "vis_m": 9999,
      "fzfg": false,
      "metar_trigger": false,
      "taf_trigger": false,
      "metar": "METAR EETN 311020Z 01011KT 340V050 9999 FEW035 M05/M12 Q1006 NOSIG",
      "taf": "TAF EETN 310530Z 3106/0106 36012KT CAVOK"
    },
    {
      "icao": "EFTU",
      "alert": "OK",
      "vis_m": 9999,
      "fzfg": false,
      "metar_trigger": false,
      "taf_trigger": false,
      "metar": "METAR EFTU 311020Z AUTO VRB01KT CAVOK M09/M10 Q1008",
      "taf": "TAF EFTU 310824Z 3109/0109 VRB01KT CAVOK"
    },
    {
      "icao": "EGBB",
      "alert": "OK",
      "vis_m": 9999,
      "fzfg": false,
      "metar_trigger": false,
      "taf_trigger": false,
      "metar": "METAR EGBB 311020Z 26006KT CAVOK 01/M00 Q1030",
      "taf": "TAF EGBB 310454Z 3106/0106 VRB04KT 9999 SCT035"
    },
    {
      "icao": "EGGP",
      "alert": "OK",
      "vis_m": 9999,
      "fzfg": false,
      "metar_trigger": false,
      "taf_trigger": false,
      "metar": "METAR EGGP 311020Z 30006KT 280V340 9999 BKN030 05/M00 Q1030",
      "taf": ""
    },
    {
      "icao": "EGGW",
      "alert": "OK",
      "vis_m": 9999,
      "fzfg": false,
      "metar_trigger": false,
      "taf_trigger": false,
      "metar": "METAR EGGW 311020Z AUTO 29007KT 9999 NCD 01/M01 Q1029",
      "taf": "TAF EGGW 310500Z 3106/0106 31006KT 9999 SCT025"
    },
    {
      "icao": "EGKK",
      "alert": "OK",
      "vis_m": 9000,
      "fzfg": false,
      "metar_trigger": false,
      "taf_trigger": false,
      "metar": "METAR EGKK 311020Z 29003KT 250V330 9000 NSC 02/01 Q1030",
      "taf": ""
    },
    {
      "icao": "EGNM",
      "alert": "OK",
      "vis_m": 9999,
      "fzfg": false,
      "metar_trigger": false,
      "taf_trigger": false,
      "metar": "METAR EGNM 311020Z 28019KT 9999 FEW012 01/M01 Q1027",
      "taf": ""
    },
    {
      "icao": "EGPD",
      "alert": "OK",
      "vis_m": 9999,
      "fzfg": false,
      "metar_trigger": false,
      "taf_trigger": false,
      "metar": "METAR EGPD 311020Z COR AUTO 26005KT 240V300 9999 BKN029 05/01 Q1022 NOSIG",
      "taf": "TAF EGPD 310457Z 3106/0106 28009KT 9999 SCT030"
    },
    {
      "icao": "EGPF",
      "alert": "OK",
      "vis_m": 9999,
      "fzfg": false,
      "metar_trigger": false,
      "taf_trigger": false,
      "metar": "METAR EGPF 311020Z AUTO 23010KT 9999 BKN024 BKN031 04/03 Q1027",
      "taf": "TAF EGPF 310452Z 3106/0106 VRB02KT 9999 FEW040"
    },
    {
      "icao": "EHBK",
      "alert": "OK",
      "vis_m": 3800,
      "fzfg": false,
      "metar_trigger": false,
      "taf_trigger": false,
      "metar": "METAR EHBK 311025Z AUTO 21007KT 3800 BR SCT002 OVC004 01/00 Q1026 BECMG SCT040",
      "taf": "TAF EHBK 310517Z 3106/0112 24003KT 6000 BKN002"
    },
    {
      "icao": "EHEH",
      "alert": "OK",
      "vis_m": 9999,
      "fzfg": false,
      "metar_trigger": false,
      "taf_trigger": false,
      "metar": "METAR EHEH 311025Z AUTO 24007KT 210V270 9999 SCT022 BKN035 BKN039 03/02 Q1026 BLU NOSIG RMK TREND REMOTE BY EHWX",
      "taf": ""
    },
    {
      "icao": "EKBI",
      "alert": "OK",
      "vis_m": 9999,
      "fzfg": false,
      "metar_trigger": false,
      "taf_trigger": false,
      "metar": "METAR EKBI 311020Z AUTO 28007KT 9999 BKN031/// 04/03 Q1013",
      "taf": "TAF EKBI 310827Z 3109/0109 29010KT 9999 SCT020"
    },
    {
      "icao": "EKCH",
      "alert": "OK",
      "vis_m": 9999,
      "fzfg": false,
      "metar_trigger": false,
      "taf_trigger": false,
      "metar": "METAR EKCH 311020Z 28007KT 9999 BKN004 02/01 Q1010 TEMPO BKN020",
      "taf": ""
    },
    {
      "icao": "ENAL",
      "alert": "OK",
      "vis_m": 9999,
      "fzfg": false,
      "metar_trigger": false,
      "taf_trigger": false,
      "metar": "METAR ENAL 311020Z 23014KT 9999 VCSH SCT020 BKN030 04/02 Q1007",
      "taf": "TAF ENAL 310800Z 3109/3118 25012KT 9999 -SHRA FEW020 BKN030"
    },
    {
      "icao": "ENBR",
      "alert": "OK",
      "vis_m": 9999,
      "fzfg": false,
      "metar_trigger": false,
      "taf_trigger": false,
      "metar": "METAR ENBR 311020Z 11002KT 9999 -SHRA FEW005 SCT010 BKN016 02/02 Q1013 TEMPO 1500 SHSNRA VV010 RMK WIND 1200FT 17003KT",
      "taf": "TAF ENBR 310500Z 3106/0106 VRB05KT 9999 -SHRASN SCT010 BKN020"
    },
    {
      "icao": "ENGM",
      "alert": "OK",
      "vis_m": 9999,
      "fzfg": false,
      "metar_trigger": false,
      "taf_trigger": false,
      "metar": "METAR ENGM 311020Z 00000KT 9999 BKN049 M01/M05 Q1009 NOSIG",
      "taf": "TAF ENGM 310500Z 3106/0106 35005KT CAVOK"
    },
    {
      "icao": "ENHD",
      "alert": "OK",
      "vis_m": 9999,
      "fzfg": false,
      "metar_trigger": false,
      "taf_trigger": false,
      "metar": "METAR ENHD 311020Z 14003KT 9999 VCSH SCT022 BKN027 BKN040 03/02 Q1013",
      "taf": "TAF ENHD 310800Z 3109/3118 VRB05KT 9999 -SHRA FEW012 BKN025"
    },
    {
      "icao": "ENTC",
      "alert": "OK",
      "vis_m": 9999,
      "fzfg": false,
      "metar_trigger": false,
      "taf_trigger": false,
      "metar": "METAR ENTC 311020Z 23008KT 9999 FEW012 M08/M10 Q1008 NOSIG RMK WIND 2600FT 19003KT",
      "taf": "TAF ENTC 310500Z 3106/0106 22006KT 9999 -SHSN SCT040"
    },
    {
      "icao": "ENTO",
      "alert": "OK",
      "vis_m": 9999,
      "fzfg": false,
      "metar_trigger": false,
      "taf_trigger": false,
      "metar": "METAR ENTO 311020Z 34003KT CAVOK M01/M06 Q1010 NOSIG",
      "taf": "TAF ENTO 310500Z 3106/0106 28005KT CAVOK"
    },
    {
      "icao": "ENVA",
      "alert": "OK",
      "vis_m": 9999,
      "fzfg": false,
      "metar_trigger": false,
      "taf_trigger": false,
      "metar": "METAR ENVA 311020Z 07006KT 9999 VCSH SCT027 BKN048 M02/M02 Q1006 TEMPO 1500 SHSN FEW010 BKN018CB RMK WIND 670FT 20008KT",
      "taf": "TAF ENVA 310500Z 3106/0106 12008KT 9999 -SHSNRA FEW010TCU BKN025"
    },
    {
      "icao": "ENZV",
      "alert": "OK",
      "vis_m": 9999,
      "fzfg": false,
      "metar_trigger": false,
      "taf_trigger": false,
      "metar": "METAR ENZV 311020Z 18003KT 150V210 9999 VCSH BKN020 03/02 Q1014 TEMPO 4000 SHRA BKN010 SCT015CB",
      "taf": "TAF ENZV 310500Z 3106/0106 35005KT 9999 FEW015 BKN030"
    },
    {
      "icao": "EPGD",
      "alert": "OK",
      "vis_m": 2800,
      "fzfg": false,
      "metar_trigger": false,
      "taf_trigger": false,
      "metar": "METAR EPGD 311030Z 27006KT 2800 SHSN SCT012CB BKN022 M02/M03 Q1008",
      "taf": "TAF EPGD 310530Z 3106/0106 30012KT 9999 SCT035"
    },
    {
      "icao": "EPKK",
      "alert": "OK",
      "vis_m": 9999,
      "fzfg": false,
      "metar_trigger": false,
      "taf_trigger": false,
      "metar": "METAR EPKK 311030Z 26008KT 230V290 9999 FEW015 BKN024 M03/M05 Q1013",
      "taf": "TAF EPKK 310830Z 3109/0109 27012KT 9999 BKN020"
    },
    {
      "icao": "EPKT",
      "alert": "OK",
      "vis_m": 9999,
      "fzfg": false,
      "metar_trigger": false,
      "taf_trigger": false,
      "metar": "METAR EPKT 311030Z 29012KT 9999 BKN011 M04/M06 Q1013",
      "taf": ""
    },
    {
      "icao": "EPLB",
      "alert": "OK",
      "vis_m": 9999,
      "fzfg": false,
      "metar_trigger": false,
      "taf_trigger": false,
      "metar": "METAR EPLB 311030Z 30011KT 260V330 9999 FEW026 M03/M07 Q1008",
      "taf": "TAF EPLB 310504Z 3106/0106 30014KT 9999 DRSN BKN025"
    },
    {
      "icao": "EPMO",
      "alert": "OK",
      "vis_m": 9999,
      "fzfg": false,
      "metar_trigger": false,
      "taf_trigger": false,
      "metar": "METAR EPMO 311030Z 26007KT 9999 BKN018 M04/M06 Q1010",
      "taf": ""
    },
    {
      "icao": "EPPO",
      "alert": "OK",
      "vis_m": 9999,
      "fzfg": false,
      "metar_trigger": false,
      "taf_trigger": false,
      "metar": "METAR EPPO 311030Z 25007KT CAVOK M01/M06 Q1012",
      "taf": ""
    },
    {
      "icao": "EPRA",
      "alert": "OK",
      "vis_m": 9999,
      "fzfg": false,
      "metar_trigger": false,
      "taf_trigger": false,
      "metar": "METAR EPRA 311030Z 30011KT 9999 SCT017 M04/M07 Q1010",
      "taf": "TAF EPRA 310830Z 3109/3118 29010KT 9999 BKN025"
    },
    {
      "icao": "EPRZ",
      "alert": "OK",
      "vis_m": 9999,
      "fzfg": false,
      "metar_trigger": false,
      "taf_trigger": false,
      "metar": "METAR EPRZ 311030Z 29016KT 9999 BKN020 M04/M07 Q1011",
      "taf": ""
    },
    {
      "icao": "EPSC",
      "alert": "OK",
      "vis_m": 7000,
      "fzfg": false,
      "metar_trigger": false,
      "taf_trigger": false,
      "metar": "METAR EPSC 311030Z 19004KT 7000 -SN FEW004 BKN008 BKN009 M02/M03 Q1011",
      "taf": ""
    },
    {
      "icao": "EPSY",
      "alert": "OK",
      "vis_m": 9999,
      "fzfg": false,
      "metar_trigger": false,
      "taf_trigger": false,
      "metar": "METAR EPSY 311030Z 26006KT 9999 SCT031 M04/M07 Q1008",
      "taf": "TAF EPSY 310830Z 3109/3118 31006KT 9999 BKN040"
    },
    {
      "icao": "EPWA",
      "alert": "OK",
      "vis_m": 9999,
      "fzfg": false,
      "metar_trigger": false,
      "taf_trigger": false,
      "metar": "METAR EPWA 311030Z 28010KT 9999 BKN030 M04/M06 Q1010 NOSIG",
      "taf": "TAF EPWA 310830Z 3109/0109 28010KT 9999 FEW023"
    },
    {
      "icao": "EPWR",
      "alert": "OK",
      "vis_m": 9999,
      "fzfg": false,
      "metar_trigger": false,
      "taf_trigger": false,
      "metar": "METAR EPWR 311030Z 27013KT CAVOK M01/M06 Q1014",
      "taf": "TAF EPWR 310830Z 3109/0109 29012KT 9999 FEW020 SCT030"
    },
    {
      "icao": "ESGG",
      "alert": "OK",
      "vis_m": 9999,
      "fzfg": false,
      "metar_trigger": false,
      "taf_trigger": false,
      "metar": "METAR ESGG 311020Z 02005KT CAVOK M00/M03 Q1010",
      "taf": "TAF ESGG 310830Z 3109/0109 36006KT CAVOK"
    },
    {
      "icao": "ESKN",
      "alert": "OK",
      "vis_m": 9999,
      "fzfg": false,
      "metar_trigger": false,
      "taf_trigger": false,
      "metar": "METAR ESKN 311020Z 03004KT CAVOK M05/M06 Q1009",
      "taf": "TAF ESKN 310830Z 3109/0109 36005KT CAVOK"
    },
    {
      "icao": "ESMS",
      "alert": "OK",
      "vis_m": 550,
      "fzfg": false,
      "metar_trigger": false,
      "taf_trigger": false,
      "metar": "METAR ESMS 311020Z 30007KT 0550 R17/1300D R35/1000N BCFG OVC002 01/01 Q1009",
      "taf": ""
    },
    {
      "icao": "ESSA",
      "alert": "OK",
      "vis_m": 9999,
      "fzfg": false,
      "metar_trigger": false,
      "taf_trigger": false,
      "metar": "METAR ESSA 311020Z 00000KT CAVOK M08/M09 Q1009 NOSIG",
      "taf": "TAF ESSA 310830Z 3109/0109 31003KT CAVOK"
    },
    {
      "icao": "EYKA",
      "alert": "OK",
      "vis_m": 9999,
      "fzfg": false,
      "metar_trigger": false,
      "taf_trigger": false,
      "metar": "METAR EYKA 311020Z 30005KT 240V020 CAVOK M06/M12 Q1005",
      "taf": "TAF EYKA 310500Z 3106/0106 VRB04KT 8000 SCT030"
    },
    {
      "icao": "EYPA",
      "alert": "OK",
      "vis_m": 9999,
      "fzfg": false,
      "metar_trigger": false,
      "taf_trigger": false,
      "metar": "METAR EYPA 311020Z 08005KT 050V120 CAVOK M05/M14 Q1008",
      "taf": "TAF EYPA 310500Z 3106/0106 VRB05KT 8000 SCT040"
    },
    {
      "icao": "EYVI",
      "alert": "OK",
      "vis_m": 9999,
      "fzfg": false,
      "metar_trigger": false,
      "taf_trigger": false,
      "metar": "METAR EYVI 311020Z 32009KT 9999 -SN BKN015 M07/M10 Q1002 NOSIG",
      "taf": ""
    },
    {
      "icao": "GCFV",
      "alert": "OK",
      "vis_m": 9999,
      "fzfg": false,
      "metar_trigger": false,
      "taf_trigger": false,
      "metar": "METAR GCFV 311030Z 19005KT 160V240 9999 FEW025 19/14 Q1021",
      "taf": "TAF GCFV 310800Z 3109/0109 16008KT 9999 FEW025 TX21/3114Z TN14/0106Z"
    },
    {
      "icao": "GCLP",
      "alert": "OK",
      "vis_m": 9999,
      "fzfg": false,
      "metar_trigger": false,
      "taf_trigger": false,
      "metar": "METAR GCLP 311030Z VRB04KT 9999 FEW017 20/15 Q1021 NOSIG",
      "taf": "TAF GCLP 310800Z 3109/0109 19014KT 9999 FEW030 TX22/3114Z TN15/0106Z"
    },
    {
      "icao": "GCTS",
      "alert": "OK",
      "vis_m": 9999,
      "fzfg": false,
      "metar_trigger": false,
      "taf_trigger": false,
      "metar": "METAR GCTS 311030Z 20003KT 130V260 9999 FEW025 19/13 Q1021 NOSIG",
      "taf": "TAF GCTS 310800Z 3109/0109 22010KT 9999 SCT030 TX24/3114Z TN17/0106Z"
    },
    {
      "icao": "GMAD",
      "alert": "OK",
      "vis_m": 9999,
      "fzfg": false,
      "metar_trigger": false,
      "taf_trigger": false,
      "metar": "METAR GMAD 311030Z 10005KT 060V130 9999 SCT040 16/12 Q1021 NOSIG",
      "taf": "TAF GMAD 310500Z 3106/0112 06008KT CAVOK"
    },
    {
      "icao": "GMMN",
      "alert": "OK",
      "vis_m": null,
      "fzfg": false,
      "metar_trigger": false,
      "taf_trigger": false,
      "metar": "METAR GMMN 311030Z COR 21017KT BKN013 15/13 Q1020 NOSIG",
      "taf": ""
    },
    {
      "icao": "GMMX",
      "alert": "OK",
      "vis_m": 9999,
      "fzfg": false,
      "metar_trigger": false,
      "taf_trigger": false,
      "metar": "METAR GMMX 311030Z VRB02KT 9999 FEW023 SCT080 17/11 Q1021 NOSIG",
      "taf": "TAF GMMX 310500Z 3106/0112 06006KT 8000 SCT020 SCT080"
    },
    {
      "icao": "HEGN",
      "alert": "OK",
      "vis_m": 9999,
      "fzfg": false,
      "metar_trigger": false,
      "taf_trigger": false,
      "metar": "METAR HEGN 311000Z 30003KT CAVOK 22/10 Q1015 NOSIG",
      "taf": "TAF HEGN 310500Z 3106/0112 32010KT CAVOK"
    },
    {
      "icao": "HEMA",
      "alert": "OK",
      "vis_m": 9999,
      "fzfg": false,
      "metar_trigger": false,
      "taf_trigger": false,
      "metar": "METAR HEMA 311000Z 10007KT CAVOK 24/11 Q1015 NOSIG",
      "taf": "TAF HEMA 310500Z 3106/0112 29010KT CAVOK"
    },
    {
      "icao": "HESH",
      "alert": "OK",
      "vis_m": 9999,
      "fzfg": false,
      "metar_trigger": false,
      "taf_trigger": false,
      "metar": "METAR HESH 311000Z 18008KT CAVOK 24/10 Q1016 NOSIG",
      "taf": "TAF HESH 310500Z 3106/0112 25010KT CAVOK"
    },
    {
      "icao": "HESX",
      "alert": "OK",
      "vis_m": 9999,
      "fzfg": false,
      "metar_trigger": false,
      "taf_trigger": false,
      "metar": "METAR HESX 311000Z 21014KT CAVOK 19/03 Q1014 NOSIG",
      "taf": "TAF HESX 310501Z 3106/0112 20009KT 6000 NSC"
    },
    {
      "icao": "LATI",
      "alert": "OK",
      "vis_m": 9999,
      "fzfg": false,
      "metar_trigger": false,
      "taf_trigger": false,
      "metar": "METAR LATI 311020Z 36005KT 300V070 CAVOK 08/M13 Q1014 NOSIG",
      "taf": "TAF LATI 310500Z 3106/0106 31008KT CAVOK TX07/3112Z TNM05/0105Z"
    },
    {
      "icao": "LBPD",
      "alert": "OK",
      "vis_m": 9999,
      "fzfg": false,
      "metar_trigger": false,
      "taf_trigger": false,
      "metar": "METAR LBPD 311030Z AUTO 29022KT 9999 NCD 02/M11 Q1015 NOSIG",
      "taf": "TAF LBPD 310500Z 3106/0106 27016KT CAVOK"
    },
    {
      "icao": "LBSF",
      "alert": "OK",
      "vis_m": 9999,
      "fzfg": false,
      "metar_trigger": false,
      "taf_trigger": false,
      "metar": "METAR LBSF 311030Z 28022KT 9999 SCT036 M03/M11 Q1014 NOSIG",
      "taf": "TAF LBSF 310500Z 3106/0106 28012KT CAVOK"
    },
    {
      "icao": "LBWN",
      "alert": "OK",
      "vis_m": 9999,
      "fzfg": false,
      "metar_trigger": false,
      "taf_trigger": false,
      "metar": "METAR LBWN 311030Z AUTO 29022KT 9999 NCD 02/M09 Q1011 NOSIG",
      "taf": "TAF LBWN 310500Z 3106/0106 29012KT 9999 SCT030"
    },
    {
      "icao": "LCLK",
      "alert": "OK",
      "vis_m": 9999,
      "fzfg": false,
      "metar_trigger": false,
      "taf_trigger": false,
      "metar": "METAR LCLK 311030Z 24020KT 9999 FEW025 FEW030CB 19/13 Q1005 NOSIG",
      "taf": ""
    },
    {
      "icao": "LCPH",
      "alert": "OK",
      "vis_m": 9999,
      "fzfg": false,
      "metar_trigger": false,
      "taf_trigger": false,
      "metar": "METAR LCPH 311030Z 26019KT 250V320 9999 FEW025CB BKN060 18/11 Q1006 TEMPO 3000 TSRA SCT025CB RMK CB TO N. SW",
      "taf": ""
    },
    {
      "icao": "LEAL",
      "alert": "OK",
      "vis_m": 9999,
      "fzfg": false,
      "metar_trigger": false,
      "taf_trigger": false,
      "metar": "METAR LEAL 311030Z 29012KT 260V320 CAVOK 14/06 Q1019 NOSIG",
      "taf": "TAF LEAL 310500Z 3106/0106 29006KT CAVOK TX17/3114Z TN07/3106Z"
    },
    {
      "icao": "LEBB",
      "alert": "OK",
      "vis_m": 9999,
      "fzfg": false,
      "metar_trigger": false,
      "taf_trigger": false,
      "metar": "METAR LEBB 311030Z 01003KT 320V060 9999 SCT022 BKN033 08/04 Q1023 NOSIG",
      "taf": "TAF LEBB 310500Z 3106/0106 VRB03KT 9999 SCT010 BKN020 TX10/3114Z TN01/3124Z"
    },
    {
      "icao": "LEBL",
      "alert": "OK",
      "vis_m": 9999,
      "fzfg": false,
      "metar_trigger": false,
      "taf_trigger": false,
      "metar": "METAR LEBL 311030Z 33012KT 280V360 9999 FEW025 BKN045 10/05 Q1019 NOSIG",
      "taf": ""
    },
    {
      "icao": "LECH",
      "alert": "OK",
      "vis_m": 9999,
      "fzfg": false,
      "metar_trigger": false,
      "taf_trigger": false,
      "metar": "METAR LECH 311030Z AUTO VRB02KT CAVOK 10/02 Q1019",
      "taf": ""
    },
    {
      "icao": "LEMD",
      "alert": "OK",
      "vis_m": 9999,
      "fzfg": false,
      "metar_trigger": false,
      "taf_trigger": false,
      "metar": "METAR LEMD 311030Z 28002KT CAVOK 03/01 Q1020 NOSIG",
      "taf": "TAF LEMD 310500Z 3106/0112 VRB03KT CAVOK TX08/3114Z TNM02/0106Z"
    },
    {
      "icao": "LEMG",
      "alert": "OK",
      "vis_m": 9999,
      "fzfg": false,
      "metar_trigger": false,
      "taf_trigger": false,
      "metar": "METAR LEMG 311030Z 31006KT CAVOK 10/07 Q1019 NOSIG",
      "taf": "TAF LEMG 310500Z 3106/0106 29010KT CAVOK TX18/3114Z TN08/3106Z"
    },
    {
      "icao": "LEVC",
      "alert": "OK",
      "vis_m": 9999,
      "fzfg": false,
      "metar_trigger": false,
      "taf_trigger": false,
      "metar": "METAR LEVC 311030Z VRB02KT 9999 FEW045 11/04 Q1020 NOSIG",
      "taf": "TAF LEVC 310500Z 3106/0106 29006KT 9999 FEW020 TX17/3114Z TN05/3106Z"
    },
    {
      "icao": "LEXJ",
      "alert": "OK",
      "vis_m": 9999,
      "fzfg": false,
      "metar_trigger": false,
      "taf_trigger": false,
      "metar": "METAR LEXJ 311030Z VRB02KT 9999 BKN022 OVC033 09/05 Q1023",
      "taf": "TAF LEXJ 310800Z 3109/0109 VRB03KT 9999 SCT020 BKN030 TX10/3115Z TN03/0103Z"
    },
    {
      "icao": "LEZG",
      "alert": "OK",
      "vis_m": 9999,
      "fzfg": false,
      "metar_trigger": false,
      "taf_trigger": false,
      "metar": "METAR LEZG 311030Z 29012KT 260V320 CAVOK 08/02 Q1020 NOSIG",
      "taf": "TAF LEZG 310500Z 3106/0106 29010KT 9999 FEW020 TX12/3114Z TN05/3106Z"
    },
    {
      "icao": "LEZL",
      "alert": "OK",
      "vis_m": 2500,
      "fzfg": false,
      "metar_trigger": false,
      "taf_trigger": false,
      "metar": "METAR LEZL 311030Z 05009KT 2500 BR OVC003 08/08 Q1020 BECMG 3000 BKN005",
      "taf": "TAF LEZL 310800Z 3109/0109 05005KT CAVOK TX15/3115Z TN10/0106Z"
    },
    {
      "icao": "LFBD",
      "alert": "OK",
      "vis_m": 9999,
      "fzfg": false,
      "metar_trigger": false,
      "taf_trigger": false,
      "metar": "METAR LFBD 311030Z AUTO 09007KT CAVOK 01/M03 Q1024 NOSIG",
      "taf": "TAF LFBD 310500Z 3106/0112 04005KT CAVOK TX04/3114Z TNM05/0106Z"
    },
    {
      "icao": "LFLL",
      "alert": "OK",
      "vis_m": 9999,
      "fzfg": false,
      "metar_trigger": false,
      "taf_trigger": false,
      "metar": "METAR LFLL 311030Z 34006KT 9999 FEW018 M01/M06 Q1025 NOSIG",
      "taf": ""
    },
    {
      "icao": "LFLS",
      "alert": "OK",
      "vis_m": 9999,
      "fzfg": false,
      "metar_trigger": false,
      "taf_trigger": false,
      "metar": "METAR LFLS 311030Z AUTO 35008KT 9999 FEW013 M02/M04 Q1024 TEMPO BKN011",
      "taf": "TAF LFLS 310800Z 3109/0109 36005KT CAVOK"
    },
    {
      "icao": "LFMN",
      "alert": "OK",
      "vis_m": 9999,
      "fzfg": false,
      "metar_trigger": false,
      "taf_trigger": false,
      "metar": "METAR LFMN 311030Z 32009KT 9999 FEW043 10/00 Q1018 BECMG 11012KT",
      "taf": "TAF LFMN 310800Z 3109/0115 33008KT 9999 FEW043"
    },
    {
      "icao": "LFOB",
      "alert": "OK",
      "vis_m": 9999,
      "fzfg": false,
      "metar_trigger": false,
      "taf_trigger": false,
      "metar": "METAR LFOB 311030Z AUTO 26002KT 9999 BKN031 BKN045 01/M00 Q1029 NOSIG",
      "taf": "TAF LFOB 310500Z 3106/0106 26005KT CAVOK"
    },
    {
      "icao": "LFPO",
      "alert": "OK",
      "vis_m": 9000,
      "fzfg": false,
      "metar_trigger": false,
      "taf_trigger": false,
      "metar": "METAR LFPO 311030Z VRB02KT 9000 NSC 03/M00 Q1029 NOSIG",
      "taf": "TAF LFPO 310500Z 3106/0112 36005KT CAVOK"
    },
    {
      "icao": "LFSB",
      "alert": "OK",
      "vis_m": 9999,
      "fzfg": false,
      "metar_trigger": false,
      "taf_trigger": false,
      "metar": "METAR LFSB 311030Z AUTO VRB02KT CAVOK M01/M04 Q1027 NOSIG",
      "taf": "TAF LFSB 310500Z 3106/0106 VRB03KT 6000 NSC"
    },
    {
      "icao": "LGAV",
      "alert": "OK",
      "vis_m": 9999,
      "fzfg": false,
      "metar_trigger": false,
      "taf_trigger": false,
      "metar": "METAR LGAV 311020Z 03013KT 9999 SCT020 BKN070 08/02 Q1011 NOSIG",
      "taf": "TAF LGAV 310500Z 3106/0106 01020G30KT 9999 SCT020"
    },
    {
      "icao": "LGTS",
      "alert": "OK",
      "vis_m": 9999,
      "fzfg": false,
      "metar_trigger": false,
      "taf_trigger": false,
      "metar": "METAR LGTS 311020Z 32019KT 9999 FEW025 04/M09 Q1016 NOSIG",
      "taf": "TAF LGTS 310500Z 3106/0106 34017G27KT 9999 SCT030"
    },
    {
      "icao": "LHBP",
      "alert": "OK",
      "vis_m": 9999,
      "fzfg": false,
      "metar_trigger": false,
      "taf_trigger": false,
      "metar": "METAR LHBP 311030Z 30014KT 9999 FEW028 SCT012 M01/M07 Q1017 NOSIG",
      "taf": "TAF LHBP 310515Z 3106/0106 31014G24KT CAVOK"
    },
    {
      "icao": "LHDC",
      "alert": "OK",
      "vis_m": 9999,
      "fzfg": false,
      "metar_trigger": false,
      "taf_trigger": false,
      "metar": "METAR LHDC 311015Z AUTO VRB01KT CAVOK M03/M07 Q1015 NOSIG",
      "taf": "TAF LHDC 310815Z 3109/3118 27008KT CAVOK"
    },
    {
      "icao": "LIBD",
      "alert": "OK",
      "vis_m": 9999,
      "fzfg": false,
      "metar_trigger": false,
      "taf_trigger": false,
      "metar": "METAR LIBD 311020Z 01007KT 320V060 9999 SCT030 07/M04 Q1018",
      "taf": "TAF LIBD 310500Z 3106/0106 36015KT 9999 FEW050"
    },
    {
      "icao": "LIBG",
      "alert": "OK",
      "vis_m": 9999,
      "fzfg": false,
      "metar_trigger": false,
      "taf_trigger": false,
      "metar": "METAR LIBG 310950Z 35018KT CAVOK 07/M04 Q1017",
      "taf": "TAF LIBG 310800Z 3108/3115 35014KT CAVOK"
    },
    {
      "icao": "LIBP",
      "alert": "OK",
      "vis_m": 9999,
      "fzfg": false,
      "metar_trigger": false,
      "taf_trigger": false,
      "metar": "METAR LIBP 311020Z AUTO 09010KT 9999 NCD 08/M05 Q1021",
      "taf": "TAF LIBP 310500Z 3106/0106 04012KT 9999 SCT045"
    },
    {
      "icao": "LIBR",
      "alert": "OK",
      "vis_m": 9999,
      "fzfg": false,
      "metar_trigger": false,
      "taf_trigger": false,
      "metar": "METAR LIBR 311020Z 01018KT 9999 SCT030 07/M04 Q1016",
      "taf": "TAF LIBR 310500Z 3106/0106 35016KT 9999 FEW030"
    },
    {
      "icao": "LICA",
      "alert": "OK",
      "vis_m": 9999,
      "fzfg": false,
      "metar_trigger": false,
      "taf_trigger": false,
      "metar": "METAR LICA 311020Z AUTO 01013KT 9999 NCD 12/M01 Q1014",
      "taf": "TAF LICA 310500Z 3106/0106 08010KT 9999 SCT060"
    },
    {
      "icao": "LICC",
      "alert": "OK",
      "vis_m": 9999,
      "fzfg": false,
      "metar_trigger": false,
      "taf_trigger": false,
      "metar": "METAR LICC 311020Z 04012KT 9999 RA SCT020 BKN050 12/09 Q1015",
      "taf": "TAF LICC 310500Z 3106/0106 30007KT 9999 SCT030"
    },
    {
      "icao": "LICJ",
      "alert": "OK",
      "vis_m": 9999,
      "fzfg": false,
      "metar_trigger": false,
      "taf_trigger": false,
      "metar": "METAR LICJ 311020Z 22006KT CAVOK 14/09 Q1014",
      "taf": "TAF LICJ 310500Z 3106/0106 22007KT 9999 SCT030"
    },
    {
      "icao": "LIMC",
      "alert": "OK",
      "vis_m": 9999,
      "fzfg": false,
      "metar_trigger": false,
      "taf_trigger": false,
      "metar": "METAR LIMC 311020Z VRB02KT CAVOK 06/M00 Q1020 NOSIG",
      "taf": "TAF LIMC 310500Z 3106/0112 03006KT 9999 BKN030"
    },
    {
      "icao": "LIME",
      "alert": "OK",
      "vis_m": 9999,
      "fzfg": false,
      "metar_trigger": false,
      "taf_trigger": false,
      "metar": "METAR LIME 311020Z 22003KT 190V260 9999 FEW055 06/M01 Q1020 NOSIG",
      "taf": "TAF LIME 310500Z 3106/0106 VRB05KT 9999 BKN030"
    },
    {
      "icao": "LIMF",
      "alert": "OK",
      "vis_m": 3000,
      "fzfg": false,
      "metar_trigger": false,
      "taf_trigger": false,
      "metar": "METAR LIMF 311020Z 09004KT 3000 BR NSC 04/01 Q1020",
      "taf": "TAF LIMF 310500Z 3106/0106 VRB05KT 3000 BR SCT010"
    },
    {
      "icao": "LIMJ",
      "alert": "OK",
      "vis_m": 9999,
      "fzfg": false,
      "metar_trigger": false,
      "taf_trigger": false,
      "metar": "METAR LIMJ 311020Z 03013KT CAVOK 08/01 Q1019",
      "taf": "TAF LIMJ 310500Z 3106/0106 02018KT 9999 FEW020"
    },
    {
      "icao": "LIPE",
      "alert": "OK",
      "vis_m": 5000,
      "fzfg": false,
      "metar_trigger": false,
      "taf_trigger": false,
      "metar": "METAR LIPE 311020Z 28004KT 260V320 5000 BR NSC 04/02 Q1021",
      "taf": "TAF LIPE 310500Z 3106/0106 VRB04KT 3000 BR BKN020"
    },
    {
      "icao": "LIPH",
      "alert": "OK",
      "vis_m": 9999,
      "fzfg": false,
      "metar_trigger": false,
      "taf_trigger": false,
      "metar": "METAR LIPH 311020Z 03005KT 360V060 CAVOK 04/M05 Q1021",
      "taf": "TAF LIPH 310500Z 3106/0106 VRB04KT 9999 SCT045"
    },
    {
      "icao": "LIPQ",
      "alert": "OK",
      "vis_m": 9999,
      "fzfg": false,
      "metar_trigger": false,
      "taf_trigger": false,
      "metar": "METAR LIPQ 311020Z AUTO 02003KT 340V050 9999 BKN050/// 04/M06 Q1021",
      "taf": "TAF LIPQ 310500Z 3106/0106 VRB05KT 9999 SCT050"
    },
    {
      "icao": "LIPR",
      "alert": "OK",
      "vis_m": 9999,
      "fzfg": false,
      "metar_trigger": false,
      "taf_trigger": false,
      "metar": "METAR LIPR 311020Z 34004KT 290V360 9999 FEW045 06/02 Q1020",
      "taf": "TAF LIPR 310500Z 3106/0106 17008KT 3000 BR BKN020"
    },
    {
      "icao": "LIPX",
      "alert": "OK",
      "vis_m": 9999,
      "fzfg": false,
      "metar_trigger": false,
      "taf_trigger": false,
      "metar": "METAR LIPX 311020Z 18003KT 140V220 9999 FEW050 06/M00 Q1021",
      "taf": "TAF LIPX 310500Z 3106/0106 VRB05KT 9999 SCT040"
    },
    {
      "icao": "LIPY",
      "alert": "OK",
      "vis_m": 9999,
      "fzfg": false,
      "metar_trigger": false,
      "taf_trigger": false,
      "metar": "METAR LIPY 311020Z AUTO 15004KT 090V190 9999 OVC062/// 08/M02 Q1020",
      "taf": "TAF LIPY 310500Z 3106/0106 13006KT 6000 SCT045"
    },
    {
      "icao": "LIPZ",
      "alert": "OK",
      "vis_m": 9999,
      "fzfg": false,
      "metar_trigger": false,
      "taf_trigger": false,
      "metar": "METAR LIPZ 311020Z 02007KT CAVOK 04/M03 Q1021 NOSIG",
      "taf": "TAF LIPZ 310500Z 3106/0112 06006KT 9999 SCT040"
    },
    {
      "icao": "LIRF",
      "alert": "OK",
      "vis_m": 9999,
      "fzfg": false,
      "metar_trigger": false,
      "taf_trigger": false,
      "metar": "METAR LIRF 311020Z 04008KT 9999 SCT045 08/M02 Q1017 NOSIG",
      "taf": "TAF LIRF 310500Z 3106/0112 03010KT 9999 SCT040"
    },
    {
      "icao": "LIRN",
      "alert": "OK",
      "vis_m": 9999,
      "fzfg": false,
      "metar_trigger": false,
      "taf_trigger": false,
      "metar": "METAR LIRN 311020Z 05010KT 9999 FEW070 08/M08 Q1017 NOSIG",
      "taf": "TAF LIRN 310500Z 3106/0106 05015KT 9999 FEW060"
    },
    {
      "icao": "LIRP",
      "alert": "OK",
      "vis_m": 9999,
      "fzfg": false,
      "metar_trigger": false,
      "taf_trigger": false,
      "metar": "METAR LIRP 311015Z 12012KT 9999 FEW050 08/M02 Q1019 NOSIG",
      "taf": "TAF LIRP 310500Z 3106/0106 09011KT 9999 FEW060"
    },
    {
      "icao": "LIRZ",
      "alert": "OK",
      "vis_m": 9999,
      "fzfg": false,
      "metar_trigger": false,
      "taf_trigger": false,
      "metar": "METAR LIRZ 311020Z AUTO 08010KT 050V110 9999 NCD 08/M05 Q1018",
      "taf": "TAF LIRZ 310500Z 3106/0106 04010KT CAVOK"
    },
    {
      "icao": "LJLJ",
      "alert": "OK",
      "vis_m": 9999,
      "fzfg": false,
      "metar_trigger": false,
      "taf_trigger": false,
      "metar": "METAR LJLJ 311030Z VRB02KT 9999 VCFG FEW040 M03/M05 Q1020 NOSIG",
      "taf": "TAF LJLJ 310500Z 3106/0106 VRB02KT 9999 FEW005"
    },
    {
      "icao": "LKMT",
      "alert": "OK",
      "vis_m": 9999,
      "fzfg": false,
      "metar_trigger": false,
      "taf_trigger": false,
      "metar": "METAR LKMT 311030Z 21008KT 9999 BKN036 BKN045 M03/M06 Q1016 NOSIG",
      "taf": "TAF LKMT 310500Z 3106/0106 24012KT 9999 BKN030"
    },
    {
      "icao": "LKPR",
      "alert": "OK",
      "vis_m": 9999,
      "fzfg": false,
      "metar_trigger": false,
      "taf_trigger": false,
      "metar": "METAR LKPR 311030Z 22018KT 9999 FEW035 SCT041 M02/M06 Q1016 BECMG -SN BKN025",
      "taf": "TAF LKPR 310800Z 3109/0115 22010KT CAVOK"
    },
    {
      "icao": "LLBG",
      "alert": "OK",
      "vis_m": 9999,
      "fzfg": false,
      "metar_trigger": false,
      "taf_trigger": false,
      "metar": "METAR LLBG 311020Z 23016KT 9999 FEW045 18/09 Q1012 NOSIG",
      "taf": "TAF LLBG 310504Z 3106/0106 17007KT 9999 FEW035"
    },
    {
      "icao": "LMML",
      "alert": "OK",
      "vis_m": 9999,
      "fzfg": false,
      "metar_trigger": false,
      "taf_trigger": false,
      "metar": "METAR LMML 311015Z 24006KT 9999 VCSH FEW018TCU 12/09 Q1014 NOSIG",
      "taf": "TAF LMML 310500Z 3106/0106 29012KT 9999 SCT020TCU"
    },
    {
      "icao": "LOWW",
      "alert": "OK",
      "vis_m": 9999,
      "fzfg": false,
      "metar_trigger": false,
      "taf_trigger": false,
      "metar": "METAR LOWW 311020Z 31021KT CAVOK M00/M09 Q1020 NOSIG",
      "taf": "TAF LOWW 310815Z 3109/0115 30015KT CAVOK TX06/0111Z TNM02/3109Z"
    },
    {
      "icao": "LPFR",
      "alert": "OK",
      "vis_m": 9999,
      "fzfg": false,
      "metar_trigger": false,
      "taf_trigger": false,
      "metar": "METAR LPFR 311030Z 06009KT 030V120 9999 BKN033 13/07 Q1019",
      "taf": "TAF LPFR 310500Z 3106/0106 04007KT CAVOK"
    },
    {
      "icao": "LPMA",
      "alert": "OK",
      "vis_m": 9999,
      "fzfg": false,
      "metar_trigger": false,
      "taf_trigger": false,
      "metar": "METAR LPMA 311030Z 21016KT 9999 SCT015 FEW018CB 20/14 Q1017",
      "taf": "TAF LPMA 310500Z 3106/0106 VRB05KT 9999 SCT015"
    },
    {
      "icao": "LPPR",
      "alert": "OK",
      "vis_m": 9999,
      "fzfg": false,
      "metar_trigger": false,
      "taf_trigger": false,
      "metar": "METAR LPPR 311030Z 11009KT CAVOK 10/05 Q1020",
      "taf": "TAF LPPR 310500Z 3106/0106 09005KT CAVOK"
    },
    {
      "icao": "LPPS",
      "alert": "OK",
      "vis_m": 9999,
      "fzfg": false,
      "metar_trigger": false,
      "taf_trigger": false,
      "metar": "METAR LPPS 311030Z 17009KT 9999 FEW010 19/17 Q1017",
      "taf": "TAF LPPS 310500Z 3106/0112 20007KT 9999 SCT010"
    },
    {
      "icao": "LPPT",
      "alert": "OK",
      "vis_m": 150,
      "fzfg": false,
      "metar_trigger": false,
      "taf_trigger": false,
      "metar": "METAR LPPT 311030Z 05005KT 340V110 0150 R02/0375 FG VV001 06/06 Q1020",
      "taf": "TAF LPPT 310500Z 3106/0112 06005KT 5000 BR SCT002"
    },
    {
      "icao": "LQBK",
      "alert": "OK",
      "vis_m": 9999,
      "fzfg": false,
      "metar_trigger": false,
      "taf_trigger": false,
      "metar": "METAR LQBK 311030Z VRB03KT CAVOK 01/M04 Q1022 NOSIG",
      "taf": ""
    },
    {
      "icao": "LQSA",
      "alert": "OK",
      "vis_m": 9999,
      "fzfg": false,
      "metar_trigger": false,
      "taf_trigger": false,
      "metar": "METAR LQSA 311030Z VRB02KT 9999 BKN050 M02/M10 Q1019 NOSIG",
      "taf": "TAF LQSA 310500Z 3106/0106 29005KT 9999 SCT045 TXM00/3113Z TNM08/0104Z"
    },
    {
      "icao": "LQTZ",
      "alert": "OK",
      "vis_m": 9999,
      "fzfg": false,
      "metar_trigger": false,
      "taf_trigger": false,
      "metar": "METAR LQTZ 311030Z 31009KT 280V340 9999 FEW035 SCT045 00/M08 Q1021",
      "taf": "TAF LQTZ 310500Z 3106/0106 27006KT 9999 SCT040 TX00/3113Z TNM09/3106Z"
    },
    {
      "icao": "LRBC",
      "alert": "OK",
      "vis_m": 9999,
      "fzfg": false,
      "metar_trigger": false,
      "taf_trigger": false,
      "metar": "METAR LRBC 311030Z 26014KT CAVOK 02/M12 Q1007",
      "taf": "TAF LRBC 310800Z 3109/3118 28012KT 9999 BKN055"
    },
    {
      "icao": "LRBS",
      "alert": "OK",
      "vis_m": 9999,
      "fzfg": false,
      "metar_trigger": false,
      "taf_trigger": false,
      "metar": "METAR LRBS 311030Z 29009KT 250V340 CAVOK 02/M10 Q1012 NOSIG",
      "taf": "TAF LRBS 310500Z 3106/0106 27010KT CAVOK"
    },
    {
      "icao": "LRBV",
      "alert": "OK",
      "vis_m": 9999,
      "fzfg": false,
      "metar_trigger": false,
      "taf_trigger": false,
      "metar": "METAR LRBV 311030Z 28014KT 260V320 9999 FEW025 BKN035 BKN056 M04/M10 Q1010",
      "taf": "TAF LRBV 310800Z 3109/3118 28010KT 9999 SCT025 BKN040"
    },
    {
      "icao": "LRCL",
      "alert": "OK",
      "vis_m": 9999,
      "fzfg": false,
      "metar_trigger": false,
      "taf_trigger": false,
      "metar": "METAR LRCL 311030Z 29013KT 9999 FEW036 BKN067 M01/M11 Q1012",
      "taf": "TAF LRCL 310800Z 3109/3118 30010KT 9999 BKN050"
    },
    {
      "icao": "LRCV",
      "alert": "OK",
      "vis_m": 9999,
      "fzfg": false,
      "metar_trigger": false,
      "taf_trigger": false,
      "metar": "METAR LRCV 311030Z 29017KT CAVOK M00/M07 Q1013",
      "taf": "TAF LRCV 310800Z 3109/3118 28014KT CAVOK"
    },
    {
      "icao": "LRIA",
      "alert": "OK",
      "vis_m": 9999,
      "fzfg": false,
      "metar_trigger": false,
      "taf_trigger": false,
      "metar": "METAR LRIA 311030Z 28013G23KT 240V320 9999 BKN035 M00/M07 Q1006",
      "taf": "TAF LRIA 310800Z 3109/3118 28012KT 9999 BKN035"
    },
    {
      "icao": "LROP",
      "alert": "OK",
      "vis_m": 9999,
      "fzfg": false,
      "metar_trigger": false,
      "taf_trigger": false,
      "metar": "METAR LROP 311030Z 27009KT CAVOK 02/M12 Q1012 NOSIG",
      "taf": "TAF LROP 310500Z 3106/0106 27010KT CAVOK"
    },
    {
      "icao": "LRSB",
      "alert": "OK",
      "vis_m": 9999,
      "fzfg": false,
      "metar_trigger": false,
      "taf_trigger": false,
      "metar": "METAR LRSB 311030Z 28013KT 9999 BKN052 M03/M10 Q1011",
      "taf": "TAF LRSB 310500Z 3106/0106 29010KT 9999 SCT045"
    },
    {
      "icao": "LRSM",
      "alert": "OK",
      "vis_m": 9999,
      "fzfg": false,
      "metar_trigger": false,
      "taf_trigger": false,
      "metar": "METAR LRSM 311030Z 26014KT CAVOK M03/M07 Q1013",
      "taf": "TAF LRSM 310800Z 3109/3118 26012KT 9999 BKN040"
    },
    {
      "icao": "LRSV",
      "alert": "OK",
      "vis_m": 9999,
      "fzfg": false,
      "metar_trigger": false,
      "taf_trigger": false,
      "metar": "METAR LRSV 311030Z 31017KT 9999 DRSN BKN032 M03/M08 Q1005",
      "taf": "TAF LRSV 310800Z 3109/3118 29014KT 5000 -SN BKN025"
    },
    {
      "icao": "LRTM",
      "alert": "OK",
      "vis_m": 9999,
      "fzfg": false,
      "metar_trigger": false,
      "taf_trigger": false,
      "metar": "METAR LRTM 311030Z 26012KT 9999 FEW024 SCT038 M02/M10 Q1011",
      "taf": "TAF LRTM 310800Z 3109/3118 25010KT 9999 SCT025 OVC040"
    },
    {
      "icao": "LRTR",
      "alert": "OK",
      "vis_m": 9999,
      "fzfg": false,
      "metar_trigger": false,
      "taf_trigger": false,
      "metar": "METAR LRTR 311030Z 31010KT 9999 SCT022 M01/M06 Q1017",
      "taf": "TAF LRTR 310500Z 3106/0106 28008KT CAVOK"
    },
    {
      "icao": "LTAC",
      "alert": "OK",
      "vis_m": 9999,
      "fzfg": false,
      "metar_trigger": false,
      "taf_trigger": false,
      "metar": "METAR LTAC 311020Z 32006KT 280V030 9999 FEW015 BKN030 BKN080 01/M04 Q1003 NOSIG RMK RWY21C 33008KT RWY03L 31005KT 270V330 RWY21R 32007KT RWY03R 30005KT RWY21L 30006KT",
      "taf": "TAF LTAC 310440Z 3106/0106 VRB02KT 9999 SCT040 BKN100"
    },
    {
      "icao": "LTFM",
      "alert": "OK",
      "vis_m": 9999,
      "fzfg": false,
      "metar_trigger": false,
      "taf_trigger": false,
      "metar": "METAR LTFM 311020Z 33013KT 9999 FEW040 BKN090 02/M09 Q1013 NOSIG RMK RWY17L 33012KT RWY34L 32012KT RWY16R 32011KT 290V350 RWY36 33015KT RWY18 33014KT",
      "taf": "TAF LTFM 310440Z 3106/0112 33018G28KT 9999 SCT035 BKN080"
    },
    {
      "icao": "LUKK",
      "alert": "OK",
      "vis_m": 9999,
      "fzfg": false,
      "metar_trigger": false,
      "taf_trigger": false,
      "metar": "METAR LUKK 311030Z 31020KT 9999 BKN031 M01/M07 Q1005 TEMPO 30018G28KT 4000 SHSN BKN012 SCT025CB",
      "taf": ""
    },
    {
      "icao": "LWOH",
      "alert": "OK",
      "vis_m": 9999,
      "fzfg": false,
      "metar_trigger": false,
      "taf_trigger": false,
      "metar": "METAR LWOH 311020Z 36012KT 310V030 9999 FEW045 M00/M14 Q1013",
      "taf": "TAF LWOH 310805Z 3109/0109 33010KT 9999 BKN050"
    },
    {
      "icao": "LWSK",
      "alert": "OK",
      "vis_m": 9999,
      "fzfg": false,
      "metar_trigger": false,
      "taf_trigger": false,
      "metar": "METAR LWSK 311020Z 30006KT 250V350 9999 FEW054 01/M12 Q1018 NOSIG",
      "taf": "TAF LWSK 310805Z 3109/0109 VRB02KT CAVOK"
    },
    {
      "icao": "LYBE",
      "alert": "OK",
      "vis_m": 9999,
      "fzfg": false,
      "metar_trigger": false,
      "taf_trigger": false,
      "metar": "METAR LYBE 311030Z 30013KT 9999 SCT035 M00/M07 Q1019 NOSIG",
      "taf": "TAF LYBE 310500Z 3106/0106 30014KT CAVOK TX00/3112Z TNM06/3106Z"
    },
    {
      "icao": "LYNI",
      "alert": "OK",
      "vis_m": 9999,
      "fzfg": false,
      "metar_trigger": false,
      "taf_trigger": false,
      "metar": "METAR LYNI 311030Z 30013G23KT 9999 BKN040 M01/M10 Q1018 NOSIG",
      "taf": "TAF LYNI 310500Z 3106/0106 28008KT 9999 SCT040 TXM00/3112Z TNM03/3106Z"
    },
    {
      "icao": "LYPG",
      "alert": "OK",
      "vis_m": 9999,
      "fzfg": false,
      "metar_trigger": false,
      "taf_trigger": false,
      "metar": "METAR LYPG 311030Z 36018KT 330V030 CAVOK 04/M16 Q1018 NOSIG",
      "taf": "TAF LYPG 310500Z 3106/0106 36015G25KT CAVOK TX07/3112Z TNM05/0106Z"
    },
    {
      "icao": "LZIB",
      "alert": "OK",
      "vis_m": 9999,
      "fzfg": false,
      "metar_trigger": false,
      "taf_trigger": false,
      "metar": "METAR LZIB 311030Z 29016KT 270V330 9999 FEW035 SCT045 M00/M08 Q1019 NOSIG",
      "taf": "TAF LZIB 310515Z 3106/0106 31012KT 9999 FEW035"
    },
    {
      "icao": "LZKZ",
      "alert": "OK",
      "vis_m": 9999,
      "fzfg": false,
      "metar_trigger": false,
      "taf_trigger": false,
      "metar": "METAR LZKZ 311030Z 32006KT CAVOK M02/M12 Q1012 NOSIG",
      "taf": "TAF LZKZ 310515Z 3106/0106 31009KT 9999 SCT030"
    },
    {
      "icao": "LZTT",
      "alert": "OK",
      "vis_m": 3500,
      "fzfg": false,
      "metar_trigger": false,
      "taf_trigger": false,
      "metar": "METAR LZTT 311030Z 25006KT 3500 -SHSN SCT023 BKN053 M06/M09 Q1010 NOSIG",
      "taf": ""
    },
    {
      "icao": "OEJN",
      "alert": "OK",
      "vis_m": 9999,
      "fzfg": false,
      "metar_trigger": false,
      "taf_trigger": false,
      "metar": "METAR OEJN 311000Z VRB05KT CAVOK 30/M04 Q1014 NOSIG",
      "taf": "TAF OEJN 310500Z 3106/0112 27005KT CAVOK"
    },
    {
      "icao": "OEMA",
      "alert": "OK",
      "vis_m": 9999,
      "fzfg": false,
      "metar_trigger": false,
      "taf_trigger": false,
      "metar": "METAR OEMA 311000Z 32004KT CAVOK 22/M03 Q1018 NOSIG",
      "taf": "TAF OEMA 310500Z 3106/0112 12010KT 7000 NSC"
    },
    {
      "icao": "OJAI",
      "alert": "OK",
      "vis_m": 4000,
      "fzfg": false,
      "metar_trigger": false,
      "taf_trigger": false,
      "metar": "METAR OJAI 311000Z 25021KT 4000 BLDU SCT030 SCT200 13/07 Q1014 NOSIG",
      "taf": "TAF OJAI 310420Z 3106/0112 VRB02KT 3000 BR FEW030"
    },
    {
      "icao": "OMAA",
      "alert": "OK",
      "vis_m": 9999,
      "fzfg": false,
      "metar_trigger": false,
      "taf_trigger": false,
      "metar": "METAR OMAA 311000Z 30015KT 9999 SCT040 22/08 Q1017 NOSIG",
      "taf": "TAF OMAA 310500Z 3106/0112 31014KT 8000 SCT040"
    },
    {
      "icao": "OMDB",
      "alert": "OK",
      "vis_m": 9999,
      "fzfg": false,
      "metar_trigger": false,
      "taf_trigger": false,
      "metar": "METAR OMDB 311030Z 31011KT 9999 BKN045 22/10 Q1016 NOSIG",
      "taf": "TAF OMDB 310500Z 3106/0112 29012KT 8000 FEW040"
    },
    {
      "icao": "UAAA",
      "alert": "OK",
      "vis_m": 5000,
      "fzfg": false,
      "metar_trigger": false,
      "taf_trigger": false,
      "metar": "METAR UAAA 311030Z 12003MPS 5000 FU SCT050 BKN100 08/02 Q1012 NOSIG",
      "taf": "TAF UAAA 310505Z 3106/0106 29003G08MPS 5000 BR FU BKN050CB BKN100 TX08/3109Z TNM01/0101Z"
    },
    {
      "icao": "UBBB",
      "alert": "OK",
      "vis_m": 9999,
      "fzfg": false,
      "metar_trigger": false,
      "taf_trigger": false,
      "metar": "METAR UBBB 311030Z 21032G43KT CAVOK 09/M04 Q1004 NOSIG",
      "taf": "TAF UBBB 310509Z 3106/0106 19020G30KT CAVOK TX11/3110Z TN04/0103Z"
    },
    {
      "icao": "UDSG",
      "alert": "OK",
      "vis_m": 7000,
      "fzfg": false,
      "metar_trigger": false,
      "taf_trigger": false,
      "metar": "METAR UDSG 311030Z 35004KT 7000 -SN OVC033 M06/M11 Q1009 NOSIG",
      "taf": "TAF UDSG 310458Z 3106/0106 VRB06KT 5000 BR BKN030"
    },
    {
      "icao": "UDYZ",
      "alert": "OK",
      "vis_m": 9999,
      "fzfg": false,
      "metar_trigger": false,
      "taf_trigger": false,
      "metar": "METAR UDYZ 311030Z 05003KT 9999 SCT046 M02/M08 Q1012 NOSIG",
      "taf": "TAF UDYZ 310500Z 3106/0106 VRB04KT 9999 SCT040"
    },
    {
      "icao": "UGKO",
      "alert": "OK",
      "vis_m": 9999,
      "fzfg": false,
      "metar_trigger": false,
      "taf_trigger": false,
      "metar": "METAR UGKO 311030Z 06009KT 9999 OVC053 04/M02 Q1005 NOSIG",
      "taf": "TAF UGKO 310500Z 3106/0106 08007KT CAVOK TX05/3112Z TNM00/0101Z"
    }
  ]
}