{
  "ts_utc": "2026-06-30T21:52:28Z",
  "threshold_m": 150,
  "source": "stations_override.txt (ICAO list) + aviationweather.gov (METAR/TAF raw)",
  "station_count": 159,
  "stations": [
    {
      "icao": "BIKF",
      "alert": "OK",
      "vis_m": 9000,
      "fzfg": false,
      "metar_trigger": false,
      "taf_trigger": false,
      "metar": "METAR BIKF 302130Z 17020KT 9000 -DZRA BKN008 BKN025 OVC054 10/09 Q1009",
      "taf": "TAF BIKF 301959Z 3021/0121 18022G32KT 9999 -RA BKN013 OVC025 TX11/0113Z TN08/0121Z"
    },
    {
      "icao": "BKPR",
      "alert": "OK",
      "vis_m": 9999,
      "fzfg": false,
      "metar_trigger": false,
      "taf_trigger": false,
      "metar": "METAR BKPR 302130Z 31010KT 9999 FEW050 23/13 Q1017 NOSIG",
      "taf": ""
    },
    {
      "icao": "EBCI",
      "alert": "OK",
      "vis_m": 9999,
      "fzfg": false,
      "metar_trigger": false,
      "taf_trigger": false,
      "metar": "METAR EBCI 302120Z 33003KT CAVOK 18/11 Q1022 NOSIG",
      "taf": "TAF EBCI 301704Z 3018/0124 33006KT 9999 FEW045"
    },
    {
      "icao": "EDDB",
      "alert": "OK",
      "vis_m": 9999,
      "fzfg": false,
      "metar_trigger": false,
      "taf_trigger": false,
      "metar": "METAR EDDB 302120Z AUTO VRB01KT CAVOK 19/16 Q1019 NOSIG",
      "taf": "TAF EDDB 301700Z 3018/0118 13010KT CAVOK"
    },
    {
      "icao": "EDDH",
      "alert": "OK",
      "vis_m": 9999,
      "fzfg": false,
      "metar_trigger": false,
      "taf_trigger": false,
      "metar": "METAR EDDH 302120Z AUTO VRB02KT 9999 -SHRA FEW///TCU 17/16 Q1020 NOSIG",
      "taf": ""
    },
    {
      "icao": "EDDK",
      "alert": "OK",
      "vis_m": 9999,
      "fzfg": false,
      "metar_trigger": false,
      "taf_trigger": false,
      "metar": "METAR EDDK 302120Z AUTO 33004KT 9999 VCSH FEW///TCU 19/16 Q1021 RESHRA NOSIG",
      "taf": "TAF EDDK 301700Z 3018/0124 34010KT CAVOK"
    },
    {
      "icao": "EDDN",
      "alert": "OK",
      "vis_m": 9999,
      "fzfg": false,
      "metar_trigger": false,
      "taf_trigger": false,
      "metar": "METAR EDDN 302120Z AUTO VRB02KT CAVOK 22/19 Q1018",
      "taf": "TAF EDDN 301700Z 3018/0118 04004KT 9999 BKN035"
    },
    {
      "icao": "EDDS",
      "alert": "OK",
      "vis_m": 9999,
      "fzfg": false,
      "metar_trigger": false,
      "taf_trigger": false,
      "metar": "METAR EDDS 302120Z AUTO 23003KT 140V270 CAVOK 21/18 Q1019",
      "taf": "TAF EDDS 301700Z 3018/0118 35006KT 9999 FEW040"
    },
    {
      "icao": "EDFH",
      "alert": "OK",
      "vis_m": 9999,
      "fzfg": false,
      "metar_trigger": false,
      "taf_trigger": false,
      "metar": "METAR EDFH 302120Z 31005KT 280V350 CAVOK 19/13 Q1022",
      "taf": "TAF EDFH 301700Z 3018/0118 01005KT CAVOK"
    },
    {
      "icao": "EDJA",
      "alert": "OK",
      "vis_m": 9999,
      "fzfg": false,
      "metar_trigger": false,
      "taf_trigger": false,
      "metar": "METAR EDJA 302120Z AUTO 17004KT 9999 // FEW071/// SCT095/// OVC150/// 19/15 Q1020",
      "taf": "TAF EDJA 301700Z 3018/0103 20006KT CAVOK"
    },
    {
      "icao": "EDLW",
      "alert": "OK",
      "vis_m": 9999,
      "fzfg": false,
      "metar_trigger": false,
      "taf_trigger": false,
      "metar": "METAR EDLW 302120Z AUTO 00000KT 9999 // FEW075/// OVC094/// 19/16 Q1021",
      "taf": "TAF EDLW 301700Z 3018/0118 30004KT CAVOK"
    },
    {
      "icao": "EDNY",
      "alert": "OK",
      "vis_m": 9999,
      "fzfg": false,
      "metar_trigger": false,
      "taf_trigger": false,
      "metar": "METAR EDNY 302120Z AUTO 27004KT 230V300 9999 // FEW080/// OVC100/// 21/19 Q1021",
      "taf": "TAF EDNY 301700Z 3018/0103 VRB03KT CAVOK"
    },
    {
      "icao": "EDSB",
      "alert": "OK",
      "vis_m": 9999,
      "fzfg": false,
      "metar_trigger": false,
      "taf_trigger": false,
      "metar": "METAR EDSB 302120Z VRB02KT CAVOK 23/21 Q1018",
      "taf": "TAF EDSB 301700Z 3018/0118 35007KT CAVOK"
    },
    {
      "icao": "EETN",
      "alert": "OK",
      "vis_m": 9999,
      "fzfg": false,
      "metar_trigger": false,
      "taf_trigger": false,
      "metar": "METAR EETN 302150Z 29005KT CAVOK 18/14 Q1019 NOSIG",
      "taf": "TAF EETN 301730Z 3018/0118 27012KT CAVOK"
    },
    {
      "icao": "EFTU",
      "alert": "OK",
      "vis_m": 9999,
      "fzfg": false,
      "metar_trigger": false,
      "taf_trigger": false,
      "metar": "METAR EFTU 302120Z AUTO 31004KT CAVOK 14/10 Q1020",
      "taf": "TAF EFTU 302031Z 3021/0121 31005KT CAVOK"
    },
    {
      "icao": "EGBB",
      "alert": "OK",
      "vis_m": 9999,
      "fzfg": false,
      "metar_trigger": false,
      "taf_trigger": false,
      "metar": "METAR EGBB 302120Z 31004KT 270V350 9999 VCSH FEW013 BKN018 BKN025CB 17/14 Q1021",
      "taf": "TAF EGBB 301659Z 3018/0118 28006KT 9999 SCT030"
    },
    {
      "icao": "EGGP",
      "alert": "OK",
      "vis_m": 9999,
      "fzfg": false,
      "metar_trigger": false,
      "taf_trigger": false,
      "metar": "METAR EGGP 302120Z 32003KT 9999 FEW026 SCT043 16/15 Q1020",
      "taf": "TAF EGGP 301703Z 3018/0118 21010KT 9999 SCT025"
    },
    {
      "icao": "EGGW",
      "alert": "OK",
      "vis_m": 9999,
      "fzfg": false,
      "metar_trigger": false,
      "taf_trigger": false,
      "metar": "METAR EGGW 302120Z AUTO 27012KT 9999 NCD 18/13 Q1021",
      "taf": "TAF EGGW 301656Z 3018/0118 24008KT 9999 SCT038"
    },
    {
      "icao": "EGKK",
      "alert": "OK",
      "vis_m": 9999,
      "fzfg": false,
      "metar_trigger": false,
      "taf_trigger": false,
      "metar": "METAR EGKK 302120Z 22005KT CAVOK 17/13 Q1022",
      "taf": "TAF EGKK 301658Z 3018/0124 24010KT 9999 SCT030"
    },
    {
      "icao": "EGNM",
      "alert": "OK",
      "vis_m": 9999,
      "fzfg": false,
      "metar_trigger": false,
      "taf_trigger": false,
      "metar": "METAR EGNM 302120Z 25004KT 9999 SCT045 15/14 Q1020",
      "taf": ""
    },
    {
      "icao": "EGPD",
      "alert": "OK",
      "vis_m": 9999,
      "fzfg": false,
      "metar_trigger": false,
      "taf_trigger": false,
      "metar": "METAR EGPD 302120Z AUTO 16006KT 9999 NCD 15/12 Q1020",
      "taf": "TAF EGPD 301658Z 3018/0118 17010KT 9999 FEW035"
    },
    {
      "icao": "EGPF",
      "alert": "OK",
      "vis_m": 9999,
      "fzfg": false,
      "metar_trigger": false,
      "taf_trigger": false,
      "metar": "METAR EGPF 302120Z AUTO VRB02KT 9999 BKN016 BKN026 OVC034 16/15 Q1020 RERA",
      "taf": "TAF EGPF 301652Z 3018/0118 VRB04KT 9999 BKN024"
    },
    {
      "icao": "EHBK",
      "alert": "OK",
      "vis_m": 9999,
      "fzfg": false,
      "metar_trigger": false,
      "taf_trigger": false,
      "metar": "METAR EHBK 302125Z AUTO 36003KT 330V030 9999 NSC 19/14 Q1021",
      "taf": "TAF EHBK 301655Z 3018/0124 35006KT CAVOK"
    },
    {
      "icao": "EHEH",
      "alert": "OK",
      "vis_m": 9999,
      "fzfg": false,
      "metar_trigger": false,
      "taf_trigger": false,
      "metar": "METAR EHEH 302125Z AUTO 28002KT 9999 SCT110 BKN310 16/15 Q1021 BLU",
      "taf": "TAF EHEH 301709Z 3018/0124 35004KT CAVOK"
    },
    {
      "icao": "EKBI",
      "alert": "OK",
      "vis_m": 9999,
      "fzfg": false,
      "metar_trigger": false,
      "taf_trigger": false,
      "metar": "METAR EKBI 302120Z AUTO 04005KT 9999 FEW047/// FEW089/// SCT100/// BKN130/// 16/13 Q1021",
      "taf": "TAF EKBI 302027Z 3021/0121 32008KT 9999 FEW040"
    },
    {
      "icao": "EKCH",
      "alert": "OK",
      "vis_m": 9999,
      "fzfg": false,
      "metar_trigger": false,
      "taf_trigger": false,
      "metar": "METAR EKCH 302120Z AUTO 01005KT 9999 FEW038/// 18/13 Q1022 NOSIG",
      "taf": "TAF EKCH 302027Z 3021/0121 02008KT 9999 FEW040"
    },
    {
      "icao": "ENAL",
      "alert": "OK",
      "vis_m": 9999,
      "fzfg": false,
      "metar_trigger": false,
      "taf_trigger": false,
      "metar": "METAR ENAL 302120Z 11003KT 070V140 9999 BKN051 13/10 Q1022",
      "taf": "TAF ENAL 302000Z 3021/0106 VRB03KT 9999 BKN050"
    },
    {
      "icao": "ENBR",
      "alert": "OK",
      "vis_m": 9999,
      "fzfg": false,
      "metar_trigger": false,
      "taf_trigger": false,
      "metar": "METAR ENBR 302120Z VRB02KT CAVOK 14/12 Q1022 RMK WIND 1200FT VRB02KT",
      "taf": "TAF ENBR 301700Z 3018/0118 30005KT 9999 FEW020 SCT045"
    },
    {
      "icao": "ENGM",
      "alert": "OK",
      "vis_m": 9999,
      "fzfg": false,
      "metar_trigger": false,
      "taf_trigger": false,
      "metar": "METAR ENGM 302120Z 22005KT CAVOK 14/08 Q1019",
      "taf": "TAF ENGM 301700Z 3018/0118 19010KT CAVOK"
    },
    {
      "icao": "ENHD",
      "alert": "OK",
      "vis_m": 9999,
      "fzfg": false,
      "metar_trigger": false,
      "taf_trigger": false,
      "metar": "METAR ENHD 302120Z AUTO 33003KT 9999 NCD 15/13 Q1022",
      "taf": "TAF ENHD 301400Z 3015/3022 21010KT 9999 FEW030"
    },
    {
      "icao": "ENTC",
      "alert": "OK",
      "vis_m": 9999,
      "fzfg": false,
      "metar_trigger": false,
      "taf_trigger": false,
      "metar": "METAR ENTC 302120Z 22022KT 9999 -RA FEW029 BKN036 BKN046 11/08 Q1012 RMK WIND 2600FT 22020KT",
      "taf": "TAF ENTC 301700Z 3018/0118 21018KT 9999 -SHRA FEW015 BKN030"
    },
    {
      "icao": "ENTO",
      "alert": "OK",
      "vis_m": 9999,
      "fzfg": false,
      "metar_trigger": false,
      "taf_trigger": false,
      "metar": "METAR ENTO 302120Z 16004KT CAVOK 14/14 Q1019",
      "taf": "TAF ENTO 301700Z 3018/0118 19012KT CAVOK"
    },
    {
      "icao": "ENVA",
      "alert": "OK",
      "vis_m": 9999,
      "fzfg": false,
      "metar_trigger": false,
      "taf_trigger": false,
      "metar": "METAR ENVA 302120Z VRB02KT 9999 BKN044 13/09 Q1023 RMK WIND 670FT 35003KT",
      "taf": "TAF ENVA 301700Z 3018/0118 26005KT 9999 FEW020 BKN040"
    },
    {
      "icao": "ENZV",
      "alert": "OK",
      "vis_m": 9999,
      "fzfg": false,
      "metar_trigger": false,
      "taf_trigger": false,
      "metar": "METAR ENZV 302120Z 30003KT CAVOK 16/13 Q1022",
      "taf": "TAF ENZV 301700Z 3018/0118 30008KT CAVOK"
    },
    {
      "icao": "EPGD",
      "alert": "OK",
      "vis_m": 9999,
      "fzfg": false,
      "metar_trigger": false,
      "taf_trigger": false,
      "metar": "METAR EPGD 302130Z 07003KT 360V100 9999 FEW053TCU 17/14 Q1021",
      "taf": "TAF EPGD 301730Z 3018/0118 06006KT CAVOK"
    },
    {
      "icao": "EPKK",
      "alert": "OK",
      "vis_m": 9999,
      "fzfg": false,
      "metar_trigger": false,
      "taf_trigger": false,
      "metar": "METAR EPKK 302130Z 04007KT CAVOK 26/19 Q1017",
      "taf": "TAF EPKK 302030Z 3021/0121 06004KT CAVOK"
    },
    {
      "icao": "EPKT",
      "alert": "OK",
      "vis_m": 9999,
      "fzfg": false,
      "metar_trigger": false,
      "taf_trigger": false,
      "metar": "METAR EPKT 302130Z 06004KT CAVOK 21/20 Q1017",
      "taf": "TAF EPKT 301730Z 3018/0118 10010KT CAVOK"
    },
    {
      "icao": "EPLB",
      "alert": "OK",
      "vis_m": 9999,
      "fzfg": false,
      "metar_trigger": false,
      "taf_trigger": false,
      "metar": "METAR EPLB 302130Z 05004KT CAVOK 24/16 Q1018",
      "taf": "TAF EPLB 301730Z 3018/0118 05010KT CAVOK"
    },
    {
      "icao": "EPMO",
      "alert": "OK",
      "vis_m": 9999,
      "fzfg": false,
      "metar_trigger": false,
      "taf_trigger": false,
      "metar": "METAR EPMO 302130Z 05009KT CAVOK 24/17 Q1019",
      "taf": "TAF EPMO 301730Z 3018/0118 05010KT CAVOK"
    },
    {
      "icao": "EPPO",
      "alert": "OK",
      "vis_m": 9999,
      "fzfg": false,
      "metar_trigger": false,
      "taf_trigger": false,
      "metar": "METAR EPPO 302130Z 34010KT 9999 -TSRA FEW007 BKN053CB 20/19 Q1018",
      "taf": "TAF EPPO 301730Z 3018/0118 04007KT CAVOK"
    },
    {
      "icao": "EPRA",
      "alert": "OK",
      "vis_m": 9999,
      "fzfg": false,
      "metar_trigger": false,
      "taf_trigger": false,
      "metar": "METAR EPRA 302130Z 07008KT CAVOK 26/15 Q1018",
      "taf": "TAF EPRA 302030Z 3021/0106 07006KT CAVOK"
    },
    {
      "icao": "EPRZ",
      "alert": "OK",
      "vis_m": 9999,
      "fzfg": false,
      "metar_trigger": false,
      "taf_trigger": false,
      "metar": "METAR EPRZ 302130Z 07004KT CAVOK 26/18 Q1018",
      "taf": "TAF EPRZ 301730Z 3018/0118 06010KT CAVOK"
    },
    {
      "icao": "EPSC",
      "alert": "OK",
      "vis_m": 9999,
      "fzfg": false,
      "metar_trigger": false,
      "taf_trigger": false,
      "metar": "METAR EPSC 302130Z 02003KT 350V080 CAVOK 19/13 Q1020",
      "taf": ""
    },
    {
      "icao": "EPSY",
      "alert": "OK",
      "vis_m": 9999,
      "fzfg": false,
      "metar_trigger": false,
      "taf_trigger": false,
      "metar": "METAR EPSY 302130Z 02006KT CAVOK 18/12 Q1021",
      "taf": "TAF EPSY 302030Z 3021/0106 02004KT CAVOK"
    },
    {
      "icao": "EPWA",
      "alert": "OK",
      "vis_m": 9999,
      "fzfg": false,
      "metar_trigger": false,
      "taf_trigger": false,
      "metar": "METAR EPWA 302130Z 06011KT 030V090 CAVOK 26/16 Q1018 NOSIG",
      "taf": "TAF EPWA 302030Z 3021/0121 05010KT CAVOK"
    },
    {
      "icao": "EPWR",
      "alert": "OK",
      "vis_m": 9999,
      "fzfg": false,
      "metar_trigger": false,
      "taf_trigger": false,
      "metar": "METAR EPWR 302130Z 30007KT CAVOK 26/20 Q1017",
      "taf": "TAF EPWR 302030Z 3021/0121 34006KT 9999 SCT040"
    },
    {
      "icao": "ESGG",
      "alert": "OK",
      "vis_m": 9999,
      "fzfg": false,
      "metar_trigger": false,
      "taf_trigger": false,
      "metar": "METAR ESGG 302120Z 00000KT CAVOK 15/12 Q1021",
      "taf": "TAF ESGG 302030Z 3021/0121 23006KT CAVOK"
    },
    {
      "icao": "ESKN",
      "alert": "OK",
      "vis_m": 9999,
      "fzfg": false,
      "metar_trigger": false,
      "taf_trigger": false,
      "metar": "METAR ESKN 302120Z 21002KT CAVOK 17/15 Q1020",
      "taf": "TAF ESKN 302030Z 3021/0121 VRB03KT CAVOK"
    },
    {
      "icao": "ESMS",
      "alert": "OK",
      "vis_m": 9999,
      "fzfg": false,
      "metar_trigger": false,
      "taf_trigger": false,
      "metar": "METAR ESMS 302120Z 08002KT CAVOK 15/14 Q1021",
      "taf": "TAF ESMS 302027Z 3021/0121 27005KT 9999 FEW040"
    },
    {
      "icao": "ESSA",
      "alert": "OK",
      "vis_m": 9999,
      "fzfg": false,
      "metar_trigger": false,
      "taf_trigger": false,
      "metar": "METAR ESSA 302120Z 13007KT CAVOK 16/11 Q1021 NOSIG",
      "taf": "TAF ESSA 302030Z 3021/0121 14008KT CAVOK"
    },
    {
      "icao": "EYKA",
      "alert": "OK",
      "vis_m": 9999,
      "fzfg": false,
      "metar_trigger": false,
      "taf_trigger": false,
      "metar": "METAR EYKA 302150Z VRB02KT CAVOK 18/16 Q1020",
      "taf": "TAF EYKA 301720Z 3018/0118 VRB03KT 9000 NSC"
    },
    {
      "icao": "EYPA",
      "alert": "OK",
      "vis_m": 9999,
      "fzfg": false,
      "metar_trigger": false,
      "taf_trigger": false,
      "metar": "METAR EYPA 302150Z VRB01KT 9999 BCFG NSC 15/14 Q1021",
      "taf": "TAF EYPA 301707Z 3018/0118 VRB03KT 9000 NSC"
    },
    {
      "icao": "EYVI",
      "alert": "OK",
      "vis_m": 9999,
      "fzfg": false,
      "metar_trigger": false,
      "taf_trigger": false,
      "metar": "METAR EYVI 302150Z VRB01KT CAVOK 16/14 Q1020 NOSIG",
      "taf": "TAF EYVI 301728Z 3018/0118 36010KT 9000 NSC"
    },
    {
      "icao": "GCFV",
      "alert": "OK",
      "vis_m": 9999,
      "fzfg": false,
      "metar_trigger": false,
      "taf_trigger": false,
      "metar": "METAR GCFV 302130Z 04011KT CAVOK 22/19 Q1017",
      "taf": "TAF GCFV 302000Z 3021/0121 35009KT 9999 FEW015 TX28/0114Z TN21/0106Z"
    },
    {
      "icao": "GCLP",
      "alert": "OK",
      "vis_m": 9999,
      "fzfg": false,
      "metar_trigger": false,
      "taf_trigger": false,
      "metar": "METAR GCLP 302130Z 01024KT 9999 FEW020 23/18 Q1017 NOSIG",
      "taf": "TAF GCLP 302000Z 3021/0121 36025KT 9999 FEW020 TX29/0114Z TN23/0106Z"
    },
    {
      "icao": "GCTS",
      "alert": "OK",
      "vis_m": 9999,
      "fzfg": false,
      "metar_trigger": false,
      "taf_trigger": false,
      "metar": "METAR GCTS 302130Z 07016KT 9999 FEW025 24/18 Q1017 BECMG 05004KT",
      "taf": "TAF GCTS 302000Z 3021/0121 05009KT 9999 FEW025 TX29/0114Z TN21/0106Z"
    },
    {
      "icao": "GMAD",
      "alert": "OK",
      "vis_m": 8000,
      "fzfg": false,
      "metar_trigger": false,
      "taf_trigger": false,
      "metar": "METAR GMAD 302130Z 22008KT 8000 NSC 20/18 Q1013 NOSIG",
      "taf": "TAF GMAD 301700Z 3018/0124 24014KT CAVOK"
    },
    {
      "icao": "GMMN",
      "alert": "OK",
      "vis_m": 9999,
      "fzfg": false,
      "metar_trigger": false,
      "taf_trigger": false,
      "metar": "METAR GMMN 302130Z 36005KT CAVOK 22/18 Q1016 NOSIG",
      "taf": "TAF GMMN 301100Z 3012/0118 34012KT CAVOK"
    },
    {
      "icao": "GMMX",
      "alert": "OK",
      "vis_m": 9999,
      "fzfg": false,
      "metar_trigger": false,
      "taf_trigger": false,
      "metar": "METAR GMMX 302130Z 35005KT 310V060 CAVOK 31/15 Q1016 NOSIG",
      "taf": "TAF GMMX 301700Z 3018/0124 06006KT 8000 NSC"
    },
    {
      "icao": "HEGN",
      "alert": "OK",
      "vis_m": 9999,
      "fzfg": false,
      "metar_trigger": false,
      "taf_trigger": false,
      "metar": "METAR HEGN 302100Z 29010KT CAVOK 32/08 Q1006 NOSIG",
      "taf": "TAF HEGN 301700Z 3018/0124 33010G20KT CAVOK"
    },
    {
      "icao": "HEMA",
      "alert": "OK",
      "vis_m": 9999,
      "fzfg": false,
      "metar_trigger": false,
      "taf_trigger": false,
      "metar": "METAR HEMA 302100Z 32009KT CAVOK 31/08 Q1005 NOSIG",
      "taf": "TAF HEMA 301700Z 3018/0124 32012G22KT CAVOK"
    },
    {
      "icao": "HESH",
      "alert": "OK",
      "vis_m": 9999,
      "fzfg": false,
      "metar_trigger": false,
      "taf_trigger": false,
      "metar": "METAR HESH 302100Z 35013KT CAVOK 35/12 Q1004 NOSIG",
      "taf": "TAF HESH 301700Z 3018/0124 36012KT CAVOK"
    },
    {
      "icao": "HESX",
      "alert": "OK",
      "vis_m": 9999,
      "fzfg": false,
      "metar_trigger": false,
      "taf_trigger": false,
      "metar": "METAR HESX 302100Z 33007KT CAVOK 24/19 Q1011 NOSIG",
      "taf": "TAF HESX 301700Z 3018/0124 34012G22KT CAVOK"
    },
    {
      "icao": "LATI",
      "alert": "OK",
      "vis_m": 9999,
      "fzfg": false,
      "metar_trigger": false,
      "taf_trigger": false,
      "metar": "METAR LATI 302150Z 13003KT 090V170 9999 SCT140 26/16 Q1015 NOSIG",
      "taf": "TAF LATI 301700Z 3018/0118 24010KT 9999 FEW040CB SCT100 TX35/0112Z TN21/0104Z"
    },
    {
      "icao": "LBPD",
      "alert": "OK",
      "vis_m": 9999,
      "fzfg": false,
      "metar_trigger": false,
      "taf_trigger": false,
      "metar": "METAR LBPD 302130Z AUTO 00000KT 9999 NCD 26/15 Q1014",
      "taf": "TAF LBPD 301700Z 3018/0118 11010KT 9999 SCT065"
    },
    {
      "icao": "LBSF",
      "alert": "OK",
      "vis_m": 9999,
      "fzfg": false,
      "metar_trigger": false,
      "taf_trigger": false,
      "metar": "METAR LBSF 302130Z AUTO 00000KT 9999 FEW069/// SCT078/// 19/18 Q1017 NOSIG",
      "taf": "TAF LBSF 301700Z 3018/0118 VRB04KT 9999 SCT060"
    },
    {
      "icao": "LBWN",
      "alert": "OK",
      "vis_m": 9999,
      "fzfg": false,
      "metar_trigger": false,
      "taf_trigger": false,
      "metar": "METAR LBWN 302130Z AUTO 32004KT 9999 NSC 20/16 Q1013 NOSIG",
      "taf": "TAF LBWN 301700Z 3018/0118 VRB03KT CAVOK"
    },
    {
      "icao": "LCLK",
      "alert": "OK",
      "vis_m": 9999,
      "fzfg": false,
      "metar_trigger": false,
      "taf_trigger": false,
      "metar": "METAR LCLK 302130Z 20002KT CAVOK 26/25 Q1007 NOSIG",
      "taf": "TAF LCLK 301730Z 3018/0118 21012KT 9999 FEW025"
    },
    {
      "icao": "LCPH",
      "alert": "OK",
      "vis_m": 9999,
      "fzfg": false,
      "metar_trigger": false,
      "taf_trigger": false,
      "metar": "METAR LCPH 302130Z 32003KT CAVOK 23/20 Q1008 NOSIG",
      "taf": "TAF LCPH 301730Z 3018/0118 29013KT 9999 FEW020"
    },
    {
      "icao": "LEAL",
      "alert": "OK",
      "vis_m": 9999,
      "fzfg": false,
      "metar_trigger": false,
      "taf_trigger": false,
      "metar": "METAR LEAL 302130Z VRB01KT CAVOK 27/23 Q1020 NOSIG",
      "taf": "TAF LEAL 301700Z 3018/0118 09007KT CAVOK TX32/0112Z TN23/0106Z"
    },
    {
      "icao": "LEBB",
      "alert": "OK",
      "vis_m": 9999,
      "fzfg": false,
      "metar_trigger": false,
      "taf_trigger": false,
      "metar": "METAR LEBB 302130Z VRB01KT 9999 FEW023 BKN039 21/17 Q1027 NOSIG",
      "taf": "TAF LEBB 301700Z 3018/0118 34009KT 9999 BKN020 TX22/3018Z TN19/0105Z"
    },
    {
      "icao": "LEBL",
      "alert": "OK",
      "vis_m": 9999,
      "fzfg": false,
      "metar_trigger": false,
      "taf_trigger": false,
      "metar": "METAR LEBL 302130Z 17003KT 150V210 CAVOK 27/23 Q1019 NOSIG",
      "taf": "TAF LEBL 301700Z 3018/0118 18010KT CAVOK TX31/0113Z TN24/0106Z"
    },
    {
      "icao": "LECH",
      "alert": "OK",
      "vis_m": 9999,
      "fzfg": false,
      "metar_trigger": false,
      "taf_trigger": false,
      "metar": "METAR LECH 302130Z AUTO 21004KT 160V250 CAVOK 25/17 Q1021",
      "taf": "TAF LECH 301700Z 3018/0118 15009KT CAVOK TX33/0112Z TN19/0106Z"
    },
    {
      "icao": "LEMD",
      "alert": "OK",
      "vis_m": 9999,
      "fzfg": false,
      "metar_trigger": false,
      "taf_trigger": false,
      "metar": "METAR LEMD 302130Z 34007KT 310V010 CAVOK 30/10 Q1020 NOSIG",
      "taf": "TAF LEMD 301700Z 3018/0124 VRB04KT CAVOK TX38/0116Z TN20/0105Z"
    },
    {
      "icao": "LEMG",
      "alert": "OK",
      "vis_m": 9999,
      "fzfg": false,
      "metar_trigger": false,
      "taf_trigger": false,
      "metar": "METAR LEMG 302130Z 12005KT CAVOK 26/17 Q1020 NOSIG",
      "taf": "TAF LEMG 301700Z 3018/0118 14007KT 9999 FEW060 TX31/0114Z TN24/0105Z"
    },
    {
      "icao": "LEVC",
      "alert": "OK",
      "vis_m": 9999,
      "fzfg": false,
      "metar_trigger": false,
      "taf_trigger": false,
      "metar": "METAR LEVC 302130Z 04005KT 350V070 CAVOK 28/19 Q1019 NOSIG",
      "taf": "TAF LEVC 301700Z 3018/0118 12010KT CAVOK TX33/0112Z TN24/0106Z"
    },
    {
      "icao": "LEXJ",
      "alert": "OK",
      "vis_m": 9999,
      "fzfg": false,
      "metar_trigger": false,
      "taf_trigger": false,
      "metar": "METAR LEXJ 302130Z AUTO VRB02KT 9999 BKN040 20/16 Q1028",
      "taf": "TAF LEXJ 302000Z 3021/0121 33009KT 9999 FEW020 BKN030 TX23/0115Z TN18/0106Z"
    },
    {
      "icao": "LEZG",
      "alert": "OK",
      "vis_m": 9999,
      "fzfg": false,
      "metar_trigger": false,
      "taf_trigger": false,
      "metar": "METAR LEZG 302130Z 29022KT CAVOK 23/14 Q1022 NOSIG",
      "taf": "TAF LEZG 301700Z 3018/0118 31010KT CAVOK TX30/0113Z TN18/0106Z"
    },
    {
      "icao": "LEZL",
      "alert": "OK",
      "vis_m": 9999,
      "fzfg": false,
      "metar_trigger": false,
      "taf_trigger": false,
      "metar": "METAR LEZL 302130Z 27007KT CAVOK 33/16 Q1017 NOSIG",
      "taf": "TAF LEZL 302000Z 3021/0121 23010KT CAVOK TX41/0115Z TN24/0105Z"
    },
    {
      "icao": "LFBD",
      "alert": "OK",
      "vis_m": 9999,
      "fzfg": false,
      "metar_trigger": false,
      "taf_trigger": false,
      "metar": "METAR LFBD 302130Z AUTO 29005KT 9999 SCT027 BKN032 19/15 Q1025 NOSIG",
      "taf": "TAF LFBD 301700Z 3018/0124 30010KT CAVOK TX26/0114Z TN17/0102Z"
    },
    {
      "icao": "LFLL",
      "alert": "OK",
      "vis_m": 9999,
      "fzfg": false,
      "metar_trigger": false,
      "taf_trigger": false,
      "metar": "METAR LFLL 302130Z 35004KT CAVOK 26/13 Q1020 NOSIG",
      "taf": "TAF LFLL 301700Z 3018/0124 35010KT CAVOK"
    },
    {
      "icao": "LFLS",
      "alert": "OK",
      "vis_m": 9999,
      "fzfg": false,
      "metar_trigger": false,
      "taf_trigger": false,
      "metar": "METAR LFLS 302130Z AUTO 11003KT CAVOK 22/17 Q1020",
      "taf": "TAF LFLS 301400Z 3015/0115 34010KT 9999 SCT060"
    },
    {
      "icao": "LFMN",
      "alert": "OK",
      "vis_m": 9999,
      "fzfg": false,
      "metar_trigger": false,
      "taf_trigger": false,
      "metar": "METAR LFMN 302130Z 32009KT CAVOK 27/17 Q1016 NOSIG",
      "taf": "TAF LFMN 302000Z 3021/0203 33010KT CAVOK"
    },
    {
      "icao": "LFOB",
      "alert": "OK",
      "vis_m": 9999,
      "fzfg": false,
      "metar_trigger": false,
      "taf_trigger": false,
      "metar": "METAR LFOB 302130Z AUTO 33007KT CAVOK 17/12 Q1023 NOSIG",
      "taf": "TAF LFOB 301700Z 3018/0118 36007KT CAVOK"
    },
    {
      "icao": "LFPO",
      "alert": "OK",
      "vis_m": 9999,
      "fzfg": false,
      "metar_trigger": false,
      "taf_trigger": false,
      "metar": "METAR LFPO 302130Z AUTO 04010KT CAVOK 22/11 Q1022 NOSIG",
      "taf": "TAF LFPO 301700Z 3018/0124 03011KT CAVOK"
    },
    {
      "icao": "LFSB",
      "alert": "OK",
      "vis_m": 9999,
      "fzfg": false,
      "metar_trigger": false,
      "taf_trigger": false,
      "metar": "METAR LFSB 302130Z AUTO VRB01KT 9999 VCTS BKN052/// BKN094/// OVC110/// ///CB 22/19 Q1019 BECMG NSW NSC",
      "taf": ""
    },
    {
      "icao": "LGAV",
      "alert": "OK",
      "vis_m": 9999,
      "fzfg": false,
      "metar_trigger": false,
      "taf_trigger": false,
      "metar": "METAR LGAV 302120Z 28004KT CAVOK 22/15 Q1011 NOSIG",
      "taf": "TAF LGAV 301700Z 3018/0118 04015KT 9999 FEW025"
    },
    {
      "icao": "LGTS",
      "alert": "OK",
      "vis_m": 9999,
      "fzfg": false,
      "metar_trigger": false,
      "taf_trigger": false,
      "metar": "METAR LGTS 302120Z 31005KT 9999 FEW025 26/20 Q1013 NOSIG",
      "taf": "TAF LGTS 301700Z 3018/0118 34013KT 9999 FEW030"
    },
    {
      "icao": "LHBP",
      "alert": "OK",
      "vis_m": 9999,
      "fzfg": false,
      "metar_trigger": false,
      "taf_trigger": false,
      "metar": "METAR LHBP 302130Z 10005KT CAVOK 27/14 Q1016 NOSIG",
      "taf": "TAF LHBP 301715Z 3018/0118 VRB04KT CAVOK"
    },
    {
      "icao": "LHDC",
      "alert": "OK",
      "vis_m": 9999,
      "fzfg": false,
      "metar_trigger": false,
      "taf_trigger": false,
      "metar": "METAR LHDC 302115Z AUTO VRB02KT CAVOK 24/18 Q1016",
      "taf": "TAF LHDC 301715Z 3018/0103 06007KT CAVOK"
    },
    {
      "icao": "LIBD",
      "alert": "OK",
      "vis_m": 9999,
      "fzfg": false,
      "metar_trigger": false,
      "taf_trigger": false,
      "metar": "METAR LIBD 302120Z AUTO 27004KT 250V310 9999 NCD 25/23 Q1014",
      "taf": ""
    },
    {
      "icao": "LIBG",
      "alert": "OK",
      "vis_m": 9999,
      "fzfg": false,
      "metar_trigger": false,
      "taf_trigger": false,
      "metar": "METAR LIBG 302120Z AUTO VRB02KT 9999 BKN110/// 28/21 Q1014",
      "taf": "TAF LIBG 301700Z 3018/0118 08010KT CAVOK"
    },
    {
      "icao": "LIBP",
      "alert": "OK",
      "vis_m": 9999,
      "fzfg": false,
      "metar_trigger": false,
      "taf_trigger": false,
      "metar": "METAR LIBP 302120Z AUTO 24006KT 9999 NCD 25/15 Q1015",
      "taf": "TAF LIBP 301700Z 3018/0118 VRB05KT CAVOK"
    },
    {
      "icao": "LIBR",
      "alert": "OK",
      "vis_m": 9999,
      "fzfg": false,
      "metar_trigger": false,
      "taf_trigger": false,
      "metar": "METAR LIBR 302120Z 20008KT CAVOK 29/17 Q1012",
      "taf": ""
    },
    {
      "icao": "LICA",
      "alert": "OK",
      "vis_m": 9999,
      "fzfg": false,
      "metar_trigger": false,
      "taf_trigger": false,
      "metar": "METAR LICA 302120Z AUTO VRB02KT 9999 FEW020/// 24/22 Q1015",
      "taf": "TAF LICA 301700Z 3018/0118 28015KT 9999 FEW030"
    },
    {
      "icao": "LICC",
      "alert": "OK",
      "vis_m": 9999,
      "fzfg": false,
      "metar_trigger": false,
      "taf_trigger": false,
      "metar": "METAR LICC 302120Z VRB01KT CAVOK 26/18 Q1015",
      "taf": "TAF LICC 301700Z 3018/0118 09012KT 9999 FEW020"
    },
    {
      "icao": "LICJ",
      "alert": "OK",
      "vis_m": 9999,
      "fzfg": false,
      "metar_trigger": false,
      "taf_trigger": false,
      "metar": "METAR LICJ 302120Z 07007KT CAVOK 28/22 Q1016",
      "taf": "TAF LICJ 301700Z 3018/0118 36010KT 9999 FEW020"
    },
    {
      "icao": "LIMC",
      "alert": "OK",
      "vis_m": 9999,
      "fzfg": false,
      "metar_trigger": false,
      "taf_trigger": false,
      "metar": "METAR LIMC 302120Z 02004KT CAVOK 25/19 Q1017 NOSIG",
      "taf": "TAF LIMC 301700Z 3018/0124 VRB05KT 9999 SCT050"
    },
    {
      "icao": "LIME",
      "alert": "OK",
      "vis_m": 9999,
      "fzfg": false,
      "metar_trigger": false,
      "taf_trigger": false,
      "metar": "METAR LIME 302120Z 01005KT CAVOK 26/18 Q1017 NOSIG",
      "taf": "TAF LIME 301700Z 3018/0118 VRB05KT 9999 FEW050"
    },
    {
      "icao": "LIMF",
      "alert": "OK",
      "vis_m": 9999,
      "fzfg": false,
      "metar_trigger": false,
      "taf_trigger": false,
      "metar": "METAR LIMF 302120Z VRB01KT 9999 SCT120 27/19 Q1017",
      "taf": "TAF LIMF 301700Z 3018/0118 VRB05KT 9999 FEW040"
    },
    {
      "icao": "LIMJ",
      "alert": "OK",
      "vis_m": 9999,
      "fzfg": false,
      "metar_trigger": false,
      "taf_trigger": false,
      "metar": "METAR LIMJ 302120Z 12002KT CAVOK 27/21 Q1016",
      "taf": "TAF LIMJ 301700Z 3018/0118 VRB05KT CAVOK"
    },
    {
      "icao": "LIPE",
      "alert": "OK",
      "vis_m": 9999,
      "fzfg": false,
      "metar_trigger": false,
      "taf_trigger": false,
      "metar": "METAR LIPE 302120Z AUTO 23005KT 9999 NCD 28/20 Q1015",
      "taf": "TAF LIPE 301700Z 3018/0118 VRB05KT 9999 SCT030"
    },
    {
      "icao": "LIPH",
      "alert": "OK",
      "vis_m": 9999,
      "fzfg": false,
      "metar_trigger": false,
      "taf_trigger": false,
      "metar": "METAR LIPH 302120Z AUTO 08003KT 9999 NCD 28/22 Q1015",
      "taf": "TAF LIPH 301700Z 3018/0118 VRB05KT 9999 FEW040"
    },
    {
      "icao": "LIPQ",
      "alert": "OK",
      "vis_m": 9999,
      "fzfg": false,
      "metar_trigger": false,
      "taf_trigger": false,
      "metar": "METAR LIPQ 302120Z 02004KT CAVOK 23/19 Q1015",
      "taf": "TAF LIPQ 301700Z 3018/0118 VRB05KT 9999 FEW040"
    },
    {
      "icao": "LIPR",
      "alert": "OK",
      "vis_m": 9999,
      "fzfg": false,
      "metar_trigger": false,
      "taf_trigger": false,
      "metar": "METAR LIPR 302120Z 20003KT 190V250 CAVOK 27/20 Q1014",
      "taf": "TAF LIPR 301700Z 3018/0118 VRB05KT CAVOK"
    },
    {
      "icao": "LIPX",
      "alert": "OK",
      "vis_m": 9999,
      "fzfg": false,
      "metar_trigger": false,
      "taf_trigger": false,
      "metar": "METAR LIPX 302120Z 33003KT 300V030 CAVOK 28/22 Q1015",
      "taf": "TAF LIPX 301700Z 3018/0118 VRB05KT CAVOK"
    },
    {
      "icao": "LIPY",
      "alert": "OK",
      "vis_m": 9999,
      "fzfg": false,
      "metar_trigger": false,
      "taf_trigger": false,
      "metar": "METAR LIPY 302120Z AUTO 19004KT 9999 NCD 26/18 Q1015",
      "taf": "TAF LIPY 301700Z 3018/0118 VRB05KT CAVOK"
    },
    {
      "icao": "LIPZ",
      "alert": "OK",
      "vis_m": 9999,
      "fzfg": false,
      "metar_trigger": false,
      "taf_trigger": false,
      "metar": "METAR LIPZ 302120Z VRB02KT CAVOK 28/25 Q1015 NOSIG",
      "taf": "TAF LIPZ 301700Z 3018/0124 VRB05KT 9999 FEW040"
    },
    {
      "icao": "LIRF",
      "alert": "OK",
      "vis_m": 9999,
      "fzfg": false,
      "metar_trigger": false,
      "taf_trigger": false,
      "metar": "METAR LIRF 302120Z 29005KT CAVOK 26/23 Q1015 NOSIG",
      "taf": "TAF LIRF 301700Z 3018/0124 30011KT CAVOK"
    },
    {
      "icao": "LIRN",
      "alert": "OK",
      "vis_m": 9999,
      "fzfg": false,
      "metar_trigger": false,
      "taf_trigger": false,
      "metar": "METAR LIRN 302120Z 09003KT CAVOK 28/20 Q1015 NOSIG",
      "taf": "TAF LIRN 301700Z 3018/0118 22010KT CAVOK"
    },
    {
      "icao": "LIRP",
      "alert": "OK",
      "vis_m": 9999,
      "fzfg": false,
      "metar_trigger": false,
      "taf_trigger": false,
      "metar": "METAR LIRP 302115Z 17003KT CAVOK 23/20 Q1016 NOSIG",
      "taf": "TAF LIRP 301700Z 3018/0118 29009KT CAVOK"
    },
    {
      "icao": "LIRZ",
      "alert": "OK",
      "vis_m": 9999,
      "fzfg": false,
      "metar_trigger": false,
      "taf_trigger": false,
      "metar": "METAR LIRZ 302120Z AUTO 36004KT 9999 NCD 23/16 Q1017",
      "taf": "TAF LIRZ 301700Z 3018/0118 VRB05KT CAVOK"
    },
    {
      "icao": "LJLJ",
      "alert": "OK",
      "vis_m": 9999,
      "fzfg": false,
      "metar_trigger": false,
      "taf_trigger": false,
      "metar": "METAR LJLJ 302130Z 33006KT CAVOK 19/16 Q1018 NOSIG",
      "taf": "TAF LJLJ 301700Z 3018/0118 03004KT 9999 FEW060"
    },
    {
      "icao": "LKMT",
      "alert": "OK",
      "vis_m": 9999,
      "fzfg": false,
      "metar_trigger": false,
      "taf_trigger": false,
      "metar": "METAR LKMT 302130Z 00000KT CAVOK 24/21 Q1017 NOSIG",
      "taf": "TAF LKMT 301700Z 3018/0118 06005KT CAVOK"
    },
    {
      "icao": "LKPR",
      "alert": "OK",
      "vis_m": 9999,
      "fzfg": false,
      "metar_trigger": false,
      "taf_trigger": false,
      "metar": "METAR LKPR 302130Z 35006KT 340V050 CAVOK 20/19 Q1019 NOSIG",
      "taf": "TAF LKPR 302000Z 3021/0203 34008KT CAVOK"
    },
    {
      "icao": "LLBG",
      "alert": "OK",
      "vis_m": 9999,
      "fzfg": false,
      "metar_trigger": false,
      "taf_trigger": false,
      "metar": "METAR LLBG 302150Z 16005KT CAVOK 25/21 Q1009 NOSIG",
      "taf": "TAF LLBG 301701Z 3018/0118 VRB04KT 9999 FEW020 TX31/0111Z TN22/0102Z"
    },
    {
      "icao": "LMML",
      "alert": "OK",
      "vis_m": 9999,
      "fzfg": false,
      "metar_trigger": false,
      "taf_trigger": false,
      "metar": "METAR LMML 302145Z 28004KT CAVOK 27/21 Q1016 NOSIG",
      "taf": "TAF LMML 301700Z 3018/0118 30010KT 9999 FEW018"
    },
    {
      "icao": "LOWW",
      "alert": "OK",
      "vis_m": 9999,
      "fzfg": false,
      "metar_trigger": false,
      "taf_trigger": false,
      "metar": "METAR LOWW 302120Z 33005KT CAVOK 27/17 Q1016 NOSIG",
      "taf": "TAF LOWW 302015Z 3021/0203 VRB04KT CAVOK TX30/0111Z TN18/0203Z"
    },
    {
      "icao": "LPFR",
      "alert": "OK",
      "vis_m": 9999,
      "fzfg": false,
      "metar_trigger": false,
      "taf_trigger": false,
      "metar": "METAR LPFR 302130Z 25006KT CAVOK 24/19 Q1017",
      "taf": "TAF LPFR 301700Z 3018/0118 26012KT CAVOK"
    },
    {
      "icao": "LPMA",
      "alert": "OK",
      "vis_m": 9999,
      "fzfg": false,
      "metar_trigger": false,
      "taf_trigger": false,
      "metar": "METAR LPMA 302130Z 01023G33KT 330V040 9999 FEW014 SCT030 21/15 Q1021",
      "taf": "TAF LPMA 301700Z 3018/0118 02018G30KT 9999 SCT015"
    },
    {
      "icao": "LPPR",
      "alert": "OK",
      "vis_m": 9999,
      "fzfg": false,
      "metar_trigger": false,
      "taf_trigger": false,
      "metar": "METAR LPPR 302130Z 35009KT CAVOK 19/15 Q1021",
      "taf": "TAF LPPR 301700Z 3018/0118 33015KT CAVOK"
    },
    {
      "icao": "LPPS",
      "alert": "OK",
      "vis_m": 9999,
      "fzfg": false,
      "metar_trigger": false,
      "taf_trigger": false,
      "metar": "METAR LPPS 302130Z 03015G27KT 9999 SCT014 BKN030 21/15 Q1023",
      "taf": "TAF LPPS 301700Z 3018/0124 02015KT 9999 SCT015 SCT030"
    },
    {
      "icao": "LPPT",
      "alert": "OK",
      "vis_m": 9999,
      "fzfg": false,
      "metar_trigger": false,
      "taf_trigger": false,
      "metar": "METAR LPPT 302130Z 33014KT 9999 FEW012 20/16 Q1021 WS R02 NOSIG",
      "taf": "TAF LPPT 301700Z 3018/0124 33015KT CAVOK"
    },
    {
      "icao": "LQBK",
      "alert": "OK",
      "vis_m": 9999,
      "fzfg": false,
      "metar_trigger": false,
      "taf_trigger": false,
      "metar": "METAR LQBK 302130Z 20010KT 9999 SCT047 29/14 Q1015 TEMPO 12015G25KT TSRA FEW040CB SCT043",
      "taf": "TAF LQBK 301700Z 3018/0118 15005KT CAVOK TX34/0113Z TN19/0103Z"
    },
    {
      "icao": "LQSA",
      "alert": "OK",
      "vis_m": 9999,
      "fzfg": false,
      "metar_trigger": false,
      "taf_trigger": false,
      "metar": "METAR LQSA 302130Z 01007KT 320V030 9999 TSRA FEW040CB SCT055 19/17 Q1021 NOSIG",
      "taf": "TAF LQSA 301700Z 3018/0118 VRB02KT CAVOK TX30/0112Z TN18/0103Z"
    },
    {
      "icao": "LQTZ",
      "alert": "OK",
      "vis_m": 9999,
      "fzfg": false,
      "metar_trigger": false,
      "taf_trigger": false,
      "metar": "METAR LQTZ 302130Z VRB04KT 9999 -TSRA FEW035CB BKN045 22/21 Q1017",
      "taf": "TAF LQTZ 301700Z 3018/0118 03005KT 9999 FEW050 TX30/0113Z TN19/0103Z"
    },
    {
      "icao": "LRBC",
      "alert": "OK",
      "vis_m": 9999,
      "fzfg": false,
      "metar_trigger": false,
      "taf_trigger": false,
      "metar": "METAR LRBC 302130Z 34005KT CAVOK 24/19 Q1017",
      "taf": "TAF LRBC 302000Z 3021/0106 33005KT CAVOK"
    },
    {
      "icao": "LRBS",
      "alert": "OK",
      "vis_m": 3500,
      "fzfg": false,
      "metar_trigger": false,
      "taf_trigger": false,
      "metar": "METAR LRBS 302130Z VRB04KT 3500 +TSRA SCT008 OVC025CB 20/19 Q1018 TEMPO 1500 +TSRA",
      "taf": ""
    },
    {
      "icao": "LRBV",
      "alert": "OK",
      "vis_m": 9999,
      "fzfg": false,
      "metar_trigger": false,
      "taf_trigger": false,
      "metar": "METAR LRBV 302130Z 19003KT 150V250 9999 FEW010 SCT054 19/18 Q1020",
      "taf": "TAF LRBV 302000Z 3021/0106 VRB04KT 9999 SCT040"
    },
    {
      "icao": "LRCL",
      "alert": "OK",
      "vis_m": 9999,
      "fzfg": false,
      "metar_trigger": false,
      "taf_trigger": false,
      "metar": "METAR LRCL 302130Z 08009KT CAVOK 22/19 Q1019",
      "taf": "TAF LRCL 302000Z 3021/0106 VRB04KT 9999 SCT040"
    },
    {
      "icao": "LRCV",
      "alert": "OK",
      "vis_m": 9999,
      "fzfg": false,
      "metar_trigger": false,
      "taf_trigger": false,
      "metar": "METAR LRCV 302130Z 11010KT 9999 -SHRA FEW010 BKN049CB 22/20 Q1016",
      "taf": "TAF LRCV 302000Z 3021/0106 08020KT 9999 SCT045"
    },
    {
      "icao": "LRIA",
      "alert": "OK",
      "vis_m": 9999,
      "fzfg": false,
      "metar_trigger": false,
      "taf_trigger": false,
      "metar": "METAR LRIA 302130Z 32002KT CAVOK 24/19 Q1017",
      "taf": "TAF LRIA 302000Z 3021/0106 04006KT CAVOK"
    },
    {
      "icao": "LROP",
      "alert": "OK",
      "vis_m": 2000,
      "fzfg": false,
      "metar_trigger": false,
      "taf_trigger": false,
      "metar": "METAR LROP 302130Z VRB07KT 2000 +TSRA BKN024CB 20/20 Q1019 TEMPO 0800 +TSRA",
      "taf": ""
    },
    {
      "icao": "LRSB",
      "alert": "OK",
      "vis_m": 9999,
      "fzfg": false,
      "metar_trigger": false,
      "taf_trigger": false,
      "metar": "METAR LRSB 302130Z 10004KT 060V140 CAVOK 20/19 Q1019",
      "taf": "TAF LRSB 301700Z 3018/0118 28008KT 9999 SCT045"
    },
    {
      "icao": "LRSM",
      "alert": "OK",
      "vis_m": 9999,
      "fzfg": false,
      "metar_trigger": false,
      "taf_trigger": false,
      "metar": "METAR LRSM 302130Z 10010KT CAVOK 25/16 Q1017",
      "taf": "TAF LRSM 302000Z 3021/0106 VRB04KT CAVOK"
    },
    {
      "icao": "LRSV",
      "alert": "OK",
      "vis_m": 9999,
      "fzfg": false,
      "metar_trigger": false,
      "taf_trigger": false,
      "metar": "METAR LRSV 302130Z 33005KT CAVOK 25/19 Q1019",
      "taf": "TAF LRSV 302000Z 3021/0106 VRB04KT CAVOK"
    },
    {
      "icao": "LRTM",
      "alert": "OK",
      "vis_m": 9999,
      "fzfg": false,
      "metar_trigger": false,
      "taf_trigger": false,
      "metar": "METAR LRTM 302130Z 07008KT CAVOK 21/20 Q1019",
      "taf": "TAF LRTM 302000Z 3021/0106 VRB04KT 9999 SCT040CB"
    },
    {
      "icao": "LRTR",
      "alert": "OK",
      "vis_m": 9999,
      "fzfg": false,
      "metar_trigger": false,
      "taf_trigger": false,
      "metar": "METAR LRTR 302130Z 14007KT CAVOK 24/18 Q1013",
      "taf": "TAF LRTR 301700Z 3018/0118 09009KT 9999 SCT045"
    },
    {
      "icao": "LTAC",
      "alert": "OK",
      "vis_m": 9999,
      "fzfg": false,
      "metar_trigger": false,
      "taf_trigger": false,
      "metar": "METAR LTAC 302120Z 03008KT CAVOK 22/12 Q1017 NOSIG RMK RWY21C 02005KT RWY03L 02008KT RWY21R 36004KT RWY03R 01007KT RWY21L 01006KT",
      "taf": "TAF LTAC 301640Z 3018/0118 VRB02KT CAVOK"
    },
    {
      "icao": "LTFM",
      "alert": "OK",
      "vis_m": 9999,
      "fzfg": false,
      "metar_trigger": false,
      "taf_trigger": false,
      "metar": "METAR LTFM 302120Z 04011KT CAVOK 24/22 Q1012 NOSIG RMK RWY17L 05007KT RWY34L 03009KT RWY16R 04007KT RWY36 04009KT RWY18 05007KT",
      "taf": "TAF LTFM 301640Z 3018/0124 05010KT 9999 SCT011"
    },
    {
      "icao": "LUKK",
      "alert": "OK",
      "vis_m": 9999,
      "fzfg": false,
      "metar_trigger": false,
      "taf_trigger": false,
      "metar": "METAR LUKK 302130Z 01006KT CAVOK 27/19 Q1016 NOSIG",
      "taf": ""
    },
    {
      "icao": "LWOH",
      "alert": "OK",
      "vis_m": 9999,
      "fzfg": false,
      "metar_trigger": false,
      "taf_trigger": false,
      "metar": "METAR LWOH 302150Z 35007KT 320V020 9999 SCT045 BKN090 16/15 Q1021",
      "taf": "TAF LWOH 302040Z 3021/0121 VRB02KT 9999 FEW050 SCT090"
    },
    {
      "icao": "LWSK",
      "alert": "OK",
      "vis_m": 9999,
      "fzfg": false,
      "metar_trigger": false,
      "taf_trigger": false,
      "metar": "METAR LWSK 302120Z 30003KT 9999 FEW090 21/18 Q1016 NOSIG",
      "taf": "TAF LWSK 302040Z 3021/0121 VRB02KT 9999 FEW050 SCT090"
    },
    {
      "icao": "LYBE",
      "alert": "OK",
      "vis_m": 9999,
      "fzfg": false,
      "metar_trigger": false,
      "taf_trigger": false,
      "metar": "METAR LYBE 302130Z 10008KT 070V130 CAVOK 29/16 Q1014 NOSIG",
      "taf": "TAF LYBE 301700Z 3018/0118 06006KT CAVOK TX33/0113Z TN21/0103Z"
    },
    {
      "icao": "LYNI",
      "alert": "OK",
      "vis_m": 9999,
      "fzfg": false,
      "metar_trigger": false,
      "taf_trigger": false,
      "metar": "METAR LYNI 302130Z VRB02KT CAVOK 24/21 Q1014 NOSIG",
      "taf": "TAF LYNI 301700Z 3018/0118 35005KT CAVOK TX33/0114Z TN19/0103Z"
    },
    {
      "icao": "LYPG",
      "alert": "OK",
      "vis_m": 9999,
      "fzfg": false,
      "metar_trigger": false,
      "taf_trigger": false,
      "metar": "METAR LYPG 302130Z 34003KT 300V080 9999 -TSRA FEW034CB BKN040 24/18 Q1015 NOSIG",
      "taf": "TAF LYPG 301700Z 3018/0118 34008KT 9999 SCT040 BKN080 TX36/0113Z TN23/0103Z"
    },
    {
      "icao": "LZIB",
      "alert": "OK",
      "vis_m": 9999,
      "fzfg": false,
      "metar_trigger": false,
      "taf_trigger": false,
      "metar": "METAR LZIB 302130Z 03004KT CAVOK 27/18 Q1015 NOSIG",
      "taf": "TAF LZIB 301715Z 3018/0118 30005KT CAVOK"
    },
    {
      "icao": "LZKZ",
      "alert": "OK",
      "vis_m": 9999,
      "fzfg": false,
      "metar_trigger": false,
      "taf_trigger": false,
      "metar": "METAR LZKZ 302130Z VRB02KT CAVOK 27/20 Q1018 NOSIG",
      "taf": ""
    },
    {
      "icao": "LZTT",
      "alert": "OK",
      "vis_m": 9999,
      "fzfg": false,
      "metar_trigger": false,
      "taf_trigger": false,
      "metar": "METAR LZTT 302130Z 27003KT 9999 FEW050 21/20 Q1021",
      "taf": "TAF LZTT 301715Z 3018/0118 07008KT 9999 FEW050"
    },
    {
      "icao": "OEJN",
      "alert": "OK",
      "vis_m": 9999,
      "fzfg": false,
      "metar_trigger": false,
      "taf_trigger": false,
      "metar": "METAR OEJN 302100Z 35005KT CAVOK 32/15 Q1003 NOSIG",
      "taf": "TAF OEJN 301700Z 3018/0124 36008KT CAVOK"
    },
    {
      "icao": "OEMA",
      "alert": "OK",
      "vis_m": 9999,
      "fzfg": false,
      "metar_trigger": false,
      "taf_trigger": false,
      "metar": "METAR OEMA 302100Z 30003KT CAVOK 37/M01 Q1009 NOSIG",
      "taf": "TAF OEMA 301700Z 3018/0124 28008KT CAVOK"
    },
    {
      "icao": "OJAI",
      "alert": "OK",
      "vis_m": 5000,
      "fzfg": false,
      "metar_trigger": false,
      "taf_trigger": false,
      "metar": "METAR OJAI 302100Z 29007KT 5000 HZ NSC 21/11 Q1013 NOSIG",
      "taf": "TAF OJAI 301651Z 3018/0124 30010KT 5000 HZ NSC"
    },
    {
      "icao": "OMAA",
      "alert": "OK",
      "vis_m": 9999,
      "fzfg": false,
      "metar_trigger": false,
      "taf_trigger": false,
      "metar": "METAR OMAA 302130Z 27002KT CAVOK 33/22 Q0997 NOSIG",
      "taf": "TAF OMAA 301700Z 3018/0200 28010KT 8000 NSC"
    },
    {
      "icao": "OMDB",
      "alert": "OK",
      "vis_m": 9999,
      "fzfg": false,
      "metar_trigger": false,
      "taf_trigger": false,
      "metar": "METAR OMDB 302130Z 23006KT 190V250 CAVOK 33/26 Q0996 NOSIG",
      "taf": "TAF OMDB 301700Z 3018/0200 19005KT 8000 NSC"
    },
    {
      "icao": "UAAA",
      "alert": "OK",
      "vis_m": 9999,
      "fzfg": false,
      "metar_trigger": false,
      "taf_trigger": false,
      "metar": "METAR UAAA 302130Z 18003MPS 9999 BKN050CB OVC100 24/13 Q1010 NOSIG",
      "taf": "TAF UAAA 301704Z 3018/0118 25003G08MPS 9999 BKN040CB OVC100 TX27/0110Z TN20/0101Z"
    },
    {
      "icao": "UBBB",
      "alert": "OK",
      "vis_m": 9999,
      "fzfg": false,
      "metar_trigger": false,
      "taf_trigger": false,
      "metar": "METAR UBBB 302130Z 33006KT 9999 FEW060CB 22/17 Q1011 NOSIG",
      "taf": "TAF UBBB 301716Z 3018/0118 33006KT 9999 FEW060CB TX29/0110Z TN19/0101Z"
    },
    {
      "icao": "UDSG",
      "alert": "OK",
      "vis_m": 9999,
      "fzfg": false,
      "metar_trigger": false,
      "taf_trigger": false,
      "metar": "METAR UDSG 302130Z 31008KT 9999 NSC 13/08 Q1019 NOSIG",
      "taf": "TAF UDSG 301700Z 3018/0118 36006KT 9999 FEW050"
    },
    {
      "icao": "UDYZ",
      "alert": "OK",
      "vis_m": 9999,
      "fzfg": false,
      "metar_trigger": false,
      "taf_trigger": false,
      "metar": "METAR UDYZ 302130Z VRB01KT 9999 NSC 21/11 Q1012 NOSIG",
      "taf": "TAF UDYZ 301700Z 3018/0118 02006KT 9999 FEW040"
    },
    {
      "icao": "UGKO",
      "alert": "OK",
      "vis_m": 9999,
      "fzfg": false,
      "metar_trigger": false,
      "taf_trigger": false,
      "metar": "METAR UGKO 302130Z 15003KT 120V180 9999 BKN066 20/18 Q1014 NOSIG",
      "taf": "TAF UGKO 301700Z 3018/0118 26007KT 9999 SCT060 TX30/0111Z TN18/0102Z"
    }
  ]
}