{
  "ts_utc": "2026-03-12T14:34:56Z",
  "threshold_m": 150,
  "source": "stations_override.txt (ICAO list) + aviationweather.gov (METAR/TAF raw)",
  "station_count": 159,
  "stations": [
    {
      "icao": "BIKF",
      "alert": "OK",
      "vis_m": 9999,
      "fzfg": false,
      "metar_trigger": false,
      "taf_trigger": false,
      "metar": "METAR BIKF 121400Z 35026KT 9999 BKN020 BKN078 00/M04 Q0966",
      "taf": ""
    },
    {
      "icao": "BKPR",
      "alert": "OK",
      "vis_m": 9999,
      "fzfg": false,
      "metar_trigger": false,
      "taf_trigger": false,
      "metar": "METAR BKPR 121430Z 11004KT 9999 FEW050 17/M03 Q1020 NOSIG",
      "taf": "TAF BKPR 121130Z 1212/1312 13006KT 9999 FEW050"
    },
    {
      "icao": "EBCI",
      "alert": "OK",
      "vis_m": 9999,
      "fzfg": false,
      "metar_trigger": false,
      "taf_trigger": false,
      "metar": "METAR EBCI 121420Z 20018KT 170V230 9999 SCT038 12/02 Q1019 NOSIG",
      "taf": "TAF EBCI 121103Z 1212/1318 20015G25KT 9999 FEW030"
    },
    {
      "icao": "EDDB",
      "alert": "OK",
      "vis_m": 9999,
      "fzfg": false,
      "metar_trigger": false,
      "taf_trigger": false,
      "metar": "METAR EDDB 121420Z AUTO 23011KT 200V260 CAVOK 14/00 Q1020 NOSIG",
      "taf": "TAF EDDB 121100Z 1212/1312 24010KT 9999 FEW040"
    },
    {
      "icao": "EDDH",
      "alert": "OK",
      "vis_m": 9999,
      "fzfg": false,
      "metar_trigger": false,
      "taf_trigger": false,
      "metar": "METAR EDDH 121420Z AUTO 21018KT 9999 BKN041 12/03 Q1016 TEMPO 21020G30KT",
      "taf": ""
    },
    {
      "icao": "EDDK",
      "alert": "OK",
      "vis_m": 9999,
      "fzfg": false,
      "metar_trigger": false,
      "taf_trigger": false,
      "metar": "METAR EDDK 121420Z AUTO 18014KT 9999 SCT043 12/02 Q1020 NOSIG",
      "taf": "TAF EDDK 121100Z 1212/1318 21012KT 9999 SCT030"
    },
    {
      "icao": "EDDN",
      "alert": "OK",
      "vis_m": 9999,
      "fzfg": false,
      "metar_trigger": false,
      "taf_trigger": false,
      "metar": "METAR EDDN 121420Z AUTO 23005KT CAVOK 11/02 Q1022 NOSIG",
      "taf": "TAF EDDN 121100Z 1212/1312 26005KT 9999 FEW015"
    },
    {
      "icao": "EDDS",
      "alert": "OK",
      "vis_m": 9999,
      "fzfg": false,
      "metar_trigger": false,
      "taf_trigger": false,
      "metar": "METAR EDDS 121420Z AUTO VRB03KT 9999 SCT048 13/01 Q1022 NOSIG",
      "taf": "TAF EDDS 121100Z 1212/1312 23005KT 9999 SCT030"
    },
    {
      "icao": "EDFH",
      "alert": "OK",
      "vis_m": 9999,
      "fzfg": false,
      "metar_trigger": false,
      "taf_trigger": false,
      "metar": "METAR EDFH 121420Z 22012KT 190V270 9999 SCT030 08/02 Q1020",
      "taf": "TAF EDFH 121100Z 1212/1312 23011KT 9999 SCT020"
    },
    {
      "icao": "EDJA",
      "alert": "OK",
      "vis_m": 9999,
      "fzfg": false,
      "metar_trigger": false,
      "taf_trigger": false,
      "metar": "METAR EDJA 121420Z 29004KT 240V360 9999 BKN027 BKN040 10/03 Q1023",
      "taf": "TAF EDJA 121400Z 1215/1224 20005KT 9999 BKN035"
    },
    {
      "icao": "EDLW",
      "alert": "OK",
      "vis_m": 9999,
      "fzfg": false,
      "metar_trigger": false,
      "taf_trigger": false,
      "metar": "METAR EDLW 121420Z 19017KT 9999 FEW040 11/02 Q1018",
      "taf": "TAF EDLW 121100Z 1212/1312 21012KT 9999 SCT030"
    },
    {
      "icao": "EDNY",
      "alert": "OK",
      "vis_m": 9999,
      "fzfg": false,
      "metar_trigger": false,
      "taf_trigger": false,
      "metar": "METAR EDNY 121420Z VRB04KT CAVOK 12/04 Q1023",
      "taf": "TAF EDNY 121400Z 1215/1224 23005KT 9999 FEW015 SCT040"
    },
    {
      "icao": "EDSB",
      "alert": "OK",
      "vis_m": 9999,
      "fzfg": false,
      "metar_trigger": false,
      "taf_trigger": false,
      "metar": "METAR EDSB 121420Z 18005KT 130V240 9999 FEW046 13/02 Q1023",
      "taf": "TAF EDSB 121100Z 1212/1312 24006KT 9999 SCT025"
    },
    {
      "icao": "EETN",
      "alert": "OK",
      "vis_m": 9000,
      "fzfg": false,
      "metar_trigger": false,
      "taf_trigger": false,
      "metar": "METAR EETN 121420Z 24011KT 9000 SCT005 BKN009 OVC021 06/05 Q1012 NOSIG",
      "taf": "TAF EETN 121130Z 1212/1312 21012KT 8000 SCT010 BKN025"
    },
    {
      "icao": "EFTU",
      "alert": "OK",
      "vis_m": 9999,
      "fzfg": false,
      "metar_trigger": false,
      "taf_trigger": false,
      "metar": "METAR EFTU 121420Z AUTO 22011KT 9999 SCT013 05/02 Q1008",
      "taf": "TAF EFTU 121131Z 1212/1312 23008KT 5000 OVC003"
    },
    {
      "icao": "EGBB",
      "alert": "OK",
      "vis_m": 8000,
      "fzfg": false,
      "metar_trigger": false,
      "taf_trigger": false,
      "metar": "METAR EGBB 121420Z 20015G28KT 170V230 8000 -RA BKN011 11/09 Q1002",
      "taf": "TAF EGBB 121054Z 1212/1312 20020G32KT 9999 SCT020"
    },
    {
      "icao": "EGGP",
      "alert": "OK",
      "vis_m": 9999,
      "fzfg": false,
      "metar_trigger": false,
      "taf_trigger": false,
      "metar": "METAR EGGP 121420Z 22020G35KT 9999 SCT018 BKN034 14/09 Q0995",
      "taf": "TAF EGGP 121057Z 1212/1312 19017G28KT 9999 SCT030"
    },
    {
      "icao": "EGGW",
      "alert": "OK",
      "vis_m": 9999,
      "fzfg": false,
      "metar_trigger": false,
      "taf_trigger": false,
      "metar": "METAR EGGW 121420Z AUTO 21021KT 9999 OVC014 10/07 Q1007",
      "taf": "TAF EGGW 121057Z 1212/1312 21020G30KT 9999 SCT025"
    },
    {
      "icao": "EGKK",
      "alert": "OK",
      "vis_m": 4500,
      "fzfg": false,
      "metar_trigger": false,
      "taf_trigger": false,
      "metar": "METAR EGKK 121420Z 21016G26KT 4500 -RA BKN013 10/08 Q1011",
      "taf": ""
    },
    {
      "icao": "EGNM",
      "alert": "OK",
      "vis_m": 9999,
      "fzfg": false,
      "metar_trigger": false,
      "taf_trigger": false,
      "metar": "METAR EGNM 121420Z 20026G38KT 9999 -RA SCT012 BKN021 11/09 Q0994",
      "taf": "TAF EGNM 121056Z 1212/1312 21025G35KT 9999 SCT018"
    },
    {
      "icao": "EGPD",
      "alert": "OK",
      "vis_m": 9999,
      "fzfg": false,
      "metar_trigger": false,
      "taf_trigger": false,
      "metar": "METAR EGPD 121420Z COR AUTO 20020G30KT 9999 FEW028 10/03 Q0982 NOSIG",
      "taf": "TAF EGPD 121059Z 1212/1312 20022G35KT 9999 SCT020"
    },
    {
      "icao": "EGPF",
      "alert": "OK",
      "vis_m": 9999,
      "fzfg": false,
      "metar_trigger": false,
      "taf_trigger": false,
      "metar": "METAR EGPF 121420Z AUTO 23022KT 9999 //////TCU 07/03 Q0986",
      "taf": ""
    },
    {
      "icao": "EHBK",
      "alert": "OK",
      "vis_m": 9999,
      "fzfg": false,
      "metar_trigger": false,
      "taf_trigger": false,
      "metar": "METAR EHBK 121425Z AUTO 23018KT 200V260 9999 SCT039/// BKN044/// 12/03 Q1018 NOSIG",
      "taf": "TAF EHBK 121102Z 1212/1318 22016G26KT 9999 SCT030"
    },
    {
      "icao": "EHEH",
      "alert": "OK",
      "vis_m": 9999,
      "fzfg": false,
      "metar_trigger": false,
      "taf_trigger": false,
      "metar": "METAR EHEH 121425Z AUTO 21018KT 9999 BKN039 OVC044 12/04 Q1017 BLU TEMPO 21017G27KT",
      "taf": "TAF EHEH 121108Z 1212/1318 21015G27KT SCT024"
    },
    {
      "icao": "EKBI",
      "alert": "OK",
      "vis_m": 9999,
      "fzfg": false,
      "metar_trigger": false,
      "taf_trigger": false,
      "metar": "METAR EKBI 121420Z AUTO 19019G33KT 9999 BKN021/// 09/04 Q1009",
      "taf": "TAF EKBI 121427Z 1215/1315 20020KT 9999 BKN020"
    },
    {
      "icao": "EKCH",
      "alert": "OK",
      "vis_m": 9999,
      "fzfg": false,
      "metar_trigger": false,
      "taf_trigger": false,
      "metar": "METAR EKCH 121420Z AUTO 19014KT 9999 FEW038/// 08/04 Q1015 NOSIG",
      "taf": "TAF EKCH 121427Z 1215/1315 19015KT 9999 FEW030"
    },
    {
      "icao": "ENAL",
      "alert": "OK",
      "vis_m": 9999,
      "fzfg": false,
      "metar_trigger": false,
      "taf_trigger": false,
      "metar": "METAR ENAL 121420Z 19024G40KT 9999 VCSH FEW019 SCT042 09/02 Q0979",
      "taf": ""
    },
    {
      "icao": "ENBR",
      "alert": "OK",
      "vis_m": 9999,
      "fzfg": false,
      "metar_trigger": false,
      "taf_trigger": false,
      "metar": "METAR ENBR 121420Z 16033G44KT 9999 -RA BKN010 BKN014 05/04 Q0987 TEMPO 3000 SHRA BR BKN007 SCT018CB RMK WIND 1200FT 16044G59KT",
      "taf": "TAF ENBR 121100Z 1212/1312 16028KT 9999 -RA SCT008 BKN012"
    },
    {
      "icao": "ENGM",
      "alert": "OK",
      "vis_m": 5000,
      "fzfg": false,
      "metar_trigger": false,
      "taf_trigger": false,
      "metar": "METAR ENGM 121420Z 19020KT 5000 -RA BR BKN010 03/01 Q0999 TEMPO BKN007",
      "taf": "TAF ENGM 121100Z 1212/1312 18018KT 9999 OVC004"
    },
    {
      "icao": "ENHD",
      "alert": "OK",
      "vis_m": 4100,
      "fzfg": false,
      "metar_trigger": false,
      "taf_trigger": false,
      "metar": "METAR ENHD 121420Z 16023G34KT 4100 RA BR OVC006 06/05 Q0990",
      "taf": "TAF ENHD 121100Z 1212/1221 17030KT 9999 -RA SCT008 BKN012"
    },
    {
      "icao": "ENTC",
      "alert": "OK",
      "vis_m": 9999,
      "fzfg": false,
      "metar_trigger": false,
      "taf_trigger": false,
      "metar": "METAR ENTC 121420Z 22006KT 200V330 9999 FEW030 03/01 Q0990 NOSIG RMK WIND 2600FT 19025KT",
      "taf": "TAF ENTC 121100Z 1212/1312 20015KT 9999 -RA BKN040"
    },
    {
      "icao": "ENTO",
      "alert": "OK",
      "vis_m": 9999,
      "fzfg": false,
      "metar_trigger": false,
      "taf_trigger": false,
      "metar": "METAR ENTO 121420Z 20024G37KT 9999 BKN007 OVC009 05/04 Q1002 NOSIG",
      "taf": "TAF ENTO 121100Z 1212/1312 21025KT 9999 BKN006"
    },
    {
      "icao": "ENVA",
      "alert": "OK",
      "vis_m": 9999,
      "fzfg": false,
      "metar_trigger": false,
      "taf_trigger": false,
      "metar": "METAR ENVA 121420Z 15022KT CAVOK 09/M00 Q0987 TEMPO 16022G32KT RMK WIND 670FT 16031G44KT",
      "taf": ""
    },
    {
      "icao": "ENZV",
      "alert": "OK",
      "vis_m": 9999,
      "fzfg": false,
      "metar_trigger": false,
      "taf_trigger": false,
      "metar": "METAR ENZV 121420Z 17025G37KT 9999 OVC010 07/04 Q0993 TEMPO 4000 SHRA BR BKN008 SCT020CB",
      "taf": "TAF ENZV 121100Z 1212/1312 17028KT 9999 -RA BKN012"
    },
    {
      "icao": "EPGD",
      "alert": "OK",
      "vis_m": 9999,
      "fzfg": false,
      "metar_trigger": false,
      "taf_trigger": false,
      "metar": "METAR EPGD 121430Z 25007KT 220V290 9999 FEW037 11/01 Q1019",
      "taf": "TAF EPGD 121130Z 1212/1312 27012KT 9999 SCT030"
    },
    {
      "icao": "EPKK",
      "alert": "OK",
      "vis_m": 9999,
      "fzfg": false,
      "metar_trigger": false,
      "taf_trigger": false,
      "metar": "METAR EPKK 121430Z 23009KT 9999 SCT054TCU 16/04 Q1020",
      "taf": "TAF EPKK 121430Z 1215/1315 23010KT CAVOK"
    },
    {
      "icao": "EPKT",
      "alert": "OK",
      "vis_m": 9999,
      "fzfg": false,
      "metar_trigger": false,
      "taf_trigger": false,
      "metar": "METAR EPKT 121430Z 31009KT 9999 FEW034 13/05 Q1021",
      "taf": "TAF EPKT 121130Z 1212/1312 24007KT CAVOK"
    },
    {
      "icao": "EPLB",
      "alert": "OK",
      "vis_m": 9999,
      "fzfg": false,
      "metar_trigger": false,
      "taf_trigger": false,
      "metar": "METAR EPLB 121430Z 22006KT CAVOK 16/05 Q1021",
      "taf": "TAF EPLB 121130Z 1212/1312 21010KT CAVOK"
    },
    {
      "icao": "EPMO",
      "alert": "OK",
      "vis_m": 9999,
      "fzfg": false,
      "metar_trigger": false,
      "taf_trigger": false,
      "metar": "METAR EPMO 121430Z 27009KT 9999 FEW032 SCT041 14/07 Q1020",
      "taf": "TAF EPMO 121130Z 1212/1312 29010KT CAVOK"
    },
    {
      "icao": "EPPO",
      "alert": "OK",
      "vis_m": 9999,
      "fzfg": false,
      "metar_trigger": false,
      "taf_trigger": false,
      "metar": "METAR EPPO 121430Z 28007KT 230V290 9999 FEW045 13/02 Q1021",
      "taf": "TAF EPPO 121130Z 1212/1312 29010KT 9999 SCT030"
    },
    {
      "icao": "EPRA",
      "alert": "OK",
      "vis_m": 9999,
      "fzfg": false,
      "metar_trigger": false,
      "taf_trigger": false,
      "metar": "METAR EPRA 121430Z VRB02KT CAVOK 16/04 Q1020",
      "taf": "TAF EPRA 121430Z 1215/1224 29010KT 9999 SCT040"
    },
    {
      "icao": "EPRZ",
      "alert": "OK",
      "vis_m": 9999,
      "fzfg": false,
      "metar_trigger": false,
      "taf_trigger": false,
      "metar": "METAR EPRZ 121430Z VRB02KT CAVOK 18/02 Q1021",
      "taf": "TAF EPRZ 121130Z 1212/1312 23008KT CAVOK"
    },
    {
      "icao": "EPSC",
      "alert": "OK",
      "vis_m": 9999,
      "fzfg": false,
      "metar_trigger": false,
      "taf_trigger": false,
      "metar": "METAR EPSC 121430Z 20010KT 160V220 9999 FEW049 12/01 Q1019",
      "taf": "TAF EPSC 121130Z 1212/1312 26008KT 9999 SCT040"
    },
    {
      "icao": "EPSY",
      "alert": "OK",
      "vis_m": 9999,
      "fzfg": false,
      "metar_trigger": false,
      "taf_trigger": false,
      "metar": "METAR EPSY 121430Z 29007KT 250V310 9999 SCT032 BKN043 13/06 Q1020",
      "taf": "TAF EPSY 121430Z 1215/1224 27010KT 9999 BKN030"
    },
    {
      "icao": "EPWA",
      "alert": "OK",
      "vis_m": 9999,
      "fzfg": false,
      "metar_trigger": false,
      "taf_trigger": false,
      "metar": "METAR EPWA 121430Z 27007KT 9999 FEW043 15/06 Q1020 NOSIG",
      "taf": "TAF EPWA 121430Z 1215/1315 29010KT 9999 SCT040"
    },
    {
      "icao": "EPWR",
      "alert": "OK",
      "vis_m": 9999,
      "fzfg": false,
      "metar_trigger": false,
      "taf_trigger": false,
      "metar": "METAR EPWR 121430Z 27006KT 9999 SCT025 BKN037 12/06 Q1022",
      "taf": "TAF EPWR 121430Z 1215/1315 24006KT 9999 BKN030"
    },
    {
      "icao": "ESGG",
      "alert": "OK",
      "vis_m": 9999,
      "fzfg": false,
      "metar_trigger": false,
      "taf_trigger": false,
      "metar": "METAR ESGG 121420Z 19020KT CAVOK 06/03 Q1009",
      "taf": "TAF ESGG 121430Z 1215/1315 19018G33KT 9999 SCT020"
    },
    {
      "icao": "ESKN",
      "alert": "OK",
      "vis_m": 9999,
      "fzfg": false,
      "metar_trigger": false,
      "taf_trigger": false,
      "metar": "METAR ESKN 121420Z 23017KT 9999 FEW042 11/01 Q1009",
      "taf": "TAF ESKN 121430Z 1215/1315 23015KT 9999 SCT040"
    },
    {
      "icao": "ESMS",
      "alert": "OK",
      "vis_m": 9999,
      "fzfg": false,
      "metar_trigger": false,
      "taf_trigger": false,
      "metar": "METAR ESMS 121420Z 22017KT CAVOK 09/03 Q1015",
      "taf": "TAF ESMS 121427Z 1215/1315 21012KT 9999 FEW030"
    },
    {
      "icao": "ESSA",
      "alert": "OK",
      "vis_m": 9999,
      "fzfg": false,
      "metar_trigger": false,
      "taf_trigger": false,
      "metar": "METAR ESSA 121420Z 22014KT CAVOK 09/01 Q1008 NOSIG",
      "taf": "TAF ESSA 121430Z 1215/1315 21015KT CAVOK"
    },
    {
      "icao": "EYKA",
      "alert": "OK",
      "vis_m": 9999,
      "fzfg": false,
      "metar_trigger": false,
      "taf_trigger": false,
      "metar": "METAR EYKA 121420Z 27009KT 240V300 9999 SCT046 15/05 Q1018",
      "taf": "TAF EYKA 121122Z 1212/1312 VRB03KT 9000 BKN035"
    },
    {
      "icao": "EYPA",
      "alert": "OK",
      "vis_m": 9000,
      "fzfg": false,
      "metar_trigger": false,
      "taf_trigger": false,
      "metar": "METAR EYPA 121420Z 24006KT 190V270 9000 SCT004 04/03 Q1019",
      "taf": ""
    },
    {
      "icao": "EYVI",
      "alert": "OK",
      "vis_m": 9999,
      "fzfg": false,
      "metar_trigger": false,
      "taf_trigger": false,
      "metar": "METAR EYVI 121420Z 21012KT CAVOK 16/03 Q1018 NOSIG",
      "taf": "TAF EYVI 121125Z 1212/1312 20012KT 9000 NSC"
    },
    {
      "icao": "GCFV",
      "alert": "OK",
      "vis_m": 9999,
      "fzfg": false,
      "metar_trigger": false,
      "taf_trigger": false,
      "metar": "METAR GCFV 121400Z 04009KT CAVOK 20/11 Q1018",
      "taf": "TAF GCFV 121400Z 1215/1315 04012KT 9000 NSC TX22/1314Z TN15/1306Z"
    },
    {
      "icao": "GCLP",
      "alert": "OK",
      "vis_m": 9999,
      "fzfg": false,
      "metar_trigger": false,
      "taf_trigger": false,
      "metar": "METAR GCLP 121400Z 03020KT 9999 FEW035 20/11 Q1018 NOSIG",
      "taf": "TAF GCLP 121400Z 1215/1315 03020KT 9999 FEW030 TX21/1314Z TN15/1306Z"
    },
    {
      "icao": "GCTS",
      "alert": "OK",
      "vis_m": 9999,
      "fzfg": false,
      "metar_trigger": false,
      "taf_trigger": false,
      "metar": "METAR GCTS 121400Z 09020KT 9999 FEW045 21/10 Q1018 WS R07 NOSIG",
      "taf": "TAF GCTS 121400Z 1215/1315 09020KT 9999 FEW045 TX22/1314Z TN14/1306Z"
    },
    {
      "icao": "GMAD",
      "alert": "OK",
      "vis_m": 8000,
      "fzfg": false,
      "metar_trigger": false,
      "taf_trigger": false,
      "metar": "METAR GMAD 121430Z 26011KT 8000 NSC 25/09 Q1016 NOSIG",
      "taf": "TAF GMAD 121100Z 1212/1318 27010KT 8000 NSC"
    },
    {
      "icao": "GMMN",
      "alert": "OK",
      "vis_m": 9999,
      "fzfg": false,
      "metar_trigger": false,
      "taf_trigger": false,
      "metar": "METAR GMMN 121430Z 32005KT 270V020 CAVOK 21/13 Q1019 NOSIG",
      "taf": "TAF GMMN 121100Z 1212/1318 36010KT CAVOK"
    },
    {
      "icao": "GMMX",
      "alert": "OK",
      "vis_m": 9999,
      "fzfg": false,
      "metar_trigger": false,
      "taf_trigger": false,
      "metar": "METAR GMMX 121430Z 34004KT 230V040 CAVOK 23/07 Q1018 NOSIG",
      "taf": "TAF GMMX 121100Z 1212/1318 06006KT 8000 SCT026"
    },
    {
      "icao": "HEGN",
      "alert": "OK",
      "vis_m": 9999,
      "fzfg": false,
      "metar_trigger": false,
      "taf_trigger": false,
      "metar": "METAR HEGN 121400Z 01004KT CAVOK 27/04 Q1013 NOSIG",
      "taf": "TAF HEGN 121100Z 1212/1318 36012KT CAVOK"
    },
    {
      "icao": "HEMA",
      "alert": "OK",
      "vis_m": 9999,
      "fzfg": false,
      "metar_trigger": false,
      "taf_trigger": false,
      "metar": "METAR HEMA 121400Z 02006KT CAVOK 24/14 Q1013 NOSIG",
      "taf": "TAF HEMA 121100Z 1212/1318 01010G20KT CAVOK"
    },
    {
      "icao": "HESH",
      "alert": "OK",
      "vis_m": 9999,
      "fzfg": false,
      "metar_trigger": false,
      "taf_trigger": false,
      "metar": "METAR HESH 121400Z 03005KT CAVOK 26/06 Q1012 NOSIG",
      "taf": "TAF HESH 121100Z 1212/1318 03010KT CAVOK"
    },
    {
      "icao": "HESX",
      "alert": "OK",
      "vis_m": 9999,
      "fzfg": false,
      "metar_trigger": false,
      "taf_trigger": false,
      "metar": "METAR HESX 121400Z 03009KT CAVOK 22/08 Q1016 NOSIG",
      "taf": "TAF HESX 121100Z 1212/1318 35007KT 9999 FEW020"
    },
    {
      "icao": "LATI",
      "alert": "OK",
      "vis_m": 9999,
      "fzfg": false,
      "metar_trigger": false,
      "taf_trigger": false,
      "metar": "METAR LATI 121420Z 34010KT CAVOK 18/07 Q1020 NOSIG",
      "taf": "TAF LATI 121100Z 1212/1312 33008KT CAVOK TX20/1311Z TN04/1305Z"
    },
    {
      "icao": "LBPD",
      "alert": "OK",
      "vis_m": 9999,
      "fzfg": false,
      "metar_trigger": false,
      "taf_trigger": false,
      "metar": "METAR LBPD 121430Z AUTO 10010KT 9999 SCT210/// 15/03 Q1021 NOSIG",
      "taf": "TAF LBPD 121100Z 1212/1312 VRB04KT CAVOK"
    },
    {
      "icao": "LBSF",
      "alert": "OK",
      "vis_m": 9999,
      "fzfg": false,
      "metar_trigger": false,
      "taf_trigger": false,
      "metar": "METAR LBSF 121430Z 03009KT 350V070 CAVOK 17/M02 Q1020 NOSIG",
      "taf": "TAF LBSF 121100Z 1212/1312 VRB04KT CAVOK"
    },
    {
      "icao": "LBWN",
      "alert": "OK",
      "vis_m": 9999,
      "fzfg": false,
      "metar_trigger": false,
      "taf_trigger": false,
      "metar": "METAR LBWN 121430Z 14013KT 9999 FEW030 10/04 Q1024 NOSIG",
      "taf": "TAF LBWN 121100Z 1212/1312 12012KT 9999 SCT020"
    },
    {
      "icao": "LCLK",
      "alert": "OK",
      "vis_m": 9999,
      "fzfg": false,
      "metar_trigger": false,
      "taf_trigger": false,
      "metar": "METAR LCLK 121430Z 05012KT 9999 FEW030 20/09 Q1016 NOSIG",
      "taf": "TAF LCLK 121130Z 1212/1312 04016KT 9999 FEW030"
    },
    {
      "icao": "LCPH",
      "alert": "OK",
      "vis_m": 9999,
      "fzfg": false,
      "metar_trigger": false,
      "taf_trigger": false,
      "metar": "METAR LCPH 121430Z 31011KT 9999 FEW030 21/05 Q1015 NOSIG",
      "taf": "TAF LCPH 121130Z 1212/1312 27012KT 9999 FEW030 SCT050"
    },
    {
      "icao": "LEAL",
      "alert": "OK",
      "vis_m": 9999,
      "fzfg": false,
      "metar_trigger": false,
      "taf_trigger": false,
      "metar": "METAR LEAL 121400Z 19005KT 140V230 CAVOK 19/11 Q1025 NOSIG",
      "taf": "TAF LEAL 121100Z 1212/1312 VRB04KT 9999 FEW035 TX16/1212Z TN07/1306Z"
    },
    {
      "icao": "LEBB",
      "alert": "OK",
      "vis_m": 9999,
      "fzfg": false,
      "metar_trigger": false,
      "taf_trigger": false,
      "metar": "METAR LEBB 121400Z 29010KT 260V340 9999 FEW038 20/11 Q1023 NOSIG",
      "taf": ""
    },
    {
      "icao": "LEBL",
      "alert": "OK",
      "vis_m": 8000,
      "fzfg": false,
      "metar_trigger": false,
      "taf_trigger": false,
      "metar": "METAR LEBL 121400Z 18007KT 130V220 8000 SCT020 16/13 Q1023 NOSIG",
      "taf": "TAF LEBL 121100Z 1212/1312 20010KT 9999 SCT020 TX17/1213Z TN10/1307Z"
    },
    {
      "icao": "LECH",
      "alert": "OK",
      "vis_m": 9999,
      "fzfg": false,
      "metar_trigger": false,
      "taf_trigger": false,
      "metar": "METAR LECH 121400Z AUTO 21008KT 170V250 CAVOK 18/07 Q1023",
      "taf": ""
    },
    {
      "icao": "LEMD",
      "alert": "OK",
      "vis_m": 9999,
      "fzfg": false,
      "metar_trigger": false,
      "taf_trigger": false,
      "metar": "METAR LEMD 121400Z 18002KT CAVOK 18/06 Q1024 NOSIG",
      "taf": "TAF LEMD 121100Z 1212/1318 VRB04KT CAVOK TX18/1215Z TN02/1307Z"
    },
    {
      "icao": "LEMG",
      "alert": "OK",
      "vis_m": 9999,
      "fzfg": false,
      "metar_trigger": false,
      "taf_trigger": false,
      "metar": "METAR LEMG 121400Z 10005KT 020V150 9999 FEW040 16/10 Q1026 NOSIG",
      "taf": "TAF LEMG 121100Z 1212/1312 14007KT CAVOK TX18/1215Z TN07/1307Z"
    },
    {
      "icao": "LEVC",
      "alert": "OK",
      "vis_m": 9999,
      "fzfg": false,
      "metar_trigger": false,
      "taf_trigger": false,
      "metar": "METAR LEVC 121400Z 12010KT 9999 FEW040 19/09 Q1024 NOSIG",
      "taf": "TAF LEVC 121100Z 1212/1312 27005KT 9999 FEW035 TX17/1214Z TN08/1306Z"
    },
    {
      "icao": "LEXJ",
      "alert": "OK",
      "vis_m": 9999,
      "fzfg": false,
      "metar_trigger": false,
      "taf_trigger": false,
      "metar": "METAR LEXJ 121400Z 04006KT 360V100 9999 SCT031 14/08 Q1025",
      "taf": "TAF LEXJ 121400Z 1215/1315 21006KT 9999 FEW040 TX19/1311Z TN09/1302Z"
    },
    {
      "icao": "LEZG",
      "alert": "OK",
      "vis_m": 9999,
      "fzfg": false,
      "metar_trigger": false,
      "taf_trigger": false,
      "metar": "METAR LEZG 121400Z 35003KT CAVOK 18/09 Q1023 NOSIG",
      "taf": "TAF LEZG 121100Z 1212/1312 27007KT 9999 FEW030 TX17/1214Z TN08/1306Z"
    },
    {
      "icao": "LEZL",
      "alert": "OK",
      "vis_m": 9999,
      "fzfg": false,
      "metar_trigger": false,
      "taf_trigger": false,
      "metar": "METAR LEZL 121400Z 06005KT 010V100 CAVOK 22/11 Q1024 NOSIG",
      "taf": "TAF LEZL 121400Z 1215/1315 06005KT CAVOK TX24/1315Z TN08/1307Z"
    },
    {
      "icao": "LFBD",
      "alert": "OK",
      "vis_m": 9999,
      "fzfg": false,
      "metar_trigger": false,
      "taf_trigger": false,
      "metar": "METAR LFBD 121430Z AUTO 25007KT 210V300 9999 SCT045 16/06 Q1024 NOSIG",
      "taf": "TAF LFBD 121100Z 1212/1318 23005KT 9999 BKN030 TX16/1214Z TN06/1306Z"
    },
    {
      "icao": "LFLL",
      "alert": "OK",
      "vis_m": 9999,
      "fzfg": false,
      "metar_trigger": false,
      "taf_trigger": false,
      "metar": "METAR LFLL 121430Z 34006KT 310V020 9999 FEW040 13/01 Q1023 NOSIG",
      "taf": "TAF LFLL 121100Z 1212/1318 36008KT CAVOK"
    },
    {
      "icao": "LFLS",
      "alert": "OK",
      "vis_m": 9999,
      "fzfg": false,
      "metar_trigger": false,
      "taf_trigger": false,
      "metar": "METAR LFLS 121430Z AUTO 33008KT 310V020 9999 BKN043 12/04 Q1023 NOSIG",
      "taf": "TAF LFLS 121400Z 1215/1315 36005KT CAVOK"
    },
    {
      "icao": "LFMN",
      "alert": "OK",
      "vis_m": 9999,
      "fzfg": false,
      "metar_trigger": false,
      "taf_trigger": false,
      "metar": "METAR LFMN 121430Z 20008KT 9999 FEW016 SCT100 15/10 Q1019 NOSIG",
      "taf": "TAF LFMN 120800Z 1209/1315 08010KT 9999 SCT020 BKN100"
    },
    {
      "icao": "LFOB",
      "alert": "OK",
      "vis_m": 9999,
      "fzfg": false,
      "metar_trigger": false,
      "taf_trigger": false,
      "metar": "METAR LFOB 121430Z AUTO 21017KT 190V250 9999 OVC040 12/04 Q1019 BECMG 22015G25KT",
      "taf": "TAF LFOB 121100Z 1212/1312 22015G25KT 9999 BKN030"
    },
    {
      "icao": "LFPO",
      "alert": "OK",
      "vis_m": 9999,
      "fzfg": false,
      "metar_trigger": false,
      "taf_trigger": false,
      "metar": "METAR LFPO 121430Z 22014KT 180V240 9999 SCT036 BKN043 12/05 Q1021 NOSIG",
      "taf": "TAF LFPO 121100Z 1212/1318 22012KT 9999 BKN030"
    },
    {
      "icao": "LFSB",
      "alert": "OK",
      "vis_m": 9999,
      "fzfg": false,
      "metar_trigger": false,
      "taf_trigger": false,
      "metar": "METAR LFSB 121430Z AUTO 33004KT 270V060 9999 SCT046 14/02 Q1023 NOSIG",
      "taf": "TAF LFSB 121100Z 1212/1312 29005KT 9999 FEW028"
    },
    {
      "icao": "LGAV",
      "alert": "OK",
      "vis_m": 9999,
      "fzfg": false,
      "metar_trigger": false,
      "taf_trigger": false,
      "metar": "METAR LGAV 121420Z 04009KT 010V080 9999 FEW025 16/07 Q1021 NOSIG",
      "taf": "TAF LGAV 121100Z 1212/1312 04010KT 9999 FEW025"
    },
    {
      "icao": "LGTS",
      "alert": "OK",
      "vis_m": 9999,
      "fzfg": false,
      "metar_trigger": false,
      "taf_trigger": false,
      "metar": "METAR LGTS 121420Z 19008KT 9999 FEW025 17/03 Q1021 NOSIG",
      "taf": "TAF LGTS 121100Z 1212/1312 VRB03KT 9999 FEW030"
    },
    {
      "icao": "LHBP",
      "alert": "OK",
      "vis_m": 9999,
      "fzfg": false,
      "metar_trigger": false,
      "taf_trigger": false,
      "metar": "METAR LHBP 121430Z 19007KT 170V240 9999 VCSH FEW050CB BKN060 17/05 Q1021 TEMPO TSRA SHRA",
      "taf": "TAF LHBP 121115Z 1212/1312 19007KT CAVOK"
    },
    {
      "icao": "LHDC",
      "alert": "OK",
      "vis_m": 9999,
      "fzfg": false,
      "metar_trigger": false,
      "taf_trigger": false,
      "metar": "METAR LHDC 121415Z AUTO VRB01KT CAVOK 17/04 Q1022 NOSIG",
      "taf": "TAF LHDC 121415Z 1215/1224 VRB03KT CAVOK"
    },
    {
      "icao": "LIBD",
      "alert": "OK",
      "vis_m": 9999,
      "fzfg": false,
      "metar_trigger": false,
      "taf_trigger": false,
      "metar": "METAR LIBD 121420Z 08009KT CAVOK 16/12 Q1020",
      "taf": "TAF LIBD 121100Z 1212/1312 10010KT 9999 FEW030"
    },
    {
      "icao": "LIBG",
      "alert": "OK",
      "vis_m": 9999,
      "fzfg": false,
      "metar_trigger": false,
      "taf_trigger": false,
      "metar": "METAR LIBG 121350Z 07008KT 9999 SCT030 16/10 Q1020",
      "taf": "TAF LIBG 121400Z 1215/1224 VRB05KT 9999 FEW030"
    },
    {
      "icao": "LIBP",
      "alert": "OK",
      "vis_m": 9999,
      "fzfg": false,
      "metar_trigger": false,
      "taf_trigger": false,
      "metar": "METAR LIBP 121420Z AUTO 06009KT 9999 FEW075/// SCT180/// 17/10 Q1020",
      "taf": "TAF LIBP 121100Z 1212/1312 06010KT 9999 SCT090"
    },
    {
      "icao": "LIBR",
      "alert": "OK",
      "vis_m": 9999,
      "fzfg": false,
      "metar_trigger": false,
      "taf_trigger": false,
      "metar": "METAR LIBR 121420Z 10007KT 090V150 9999 FEW020CB 15/12 Q1021",
      "taf": "TAF LIBR 121100Z 1212/1312 12010KT 9999 FEW030"
    },
    {
      "icao": "LICA",
      "alert": "OK",
      "vis_m": 9999,
      "fzfg": false,
      "metar_trigger": false,
      "taf_trigger": false,
      "metar": "METAR LICA 121420Z AUTO 25012KT 9999 FEW048/// 16/13 Q1021",
      "taf": "TAF LICA 121100Z 1212/1312 26012KT 9999 SCT020"
    },
    {
      "icao": "LICC",
      "alert": "OK",
      "vis_m": 9999,
      "fzfg": false,
      "metar_trigger": false,
      "taf_trigger": false,
      "metar": "METAR LICC 121420Z 08010KT 9999 FEW025 18/15 Q1021",
      "taf": "TAF LICC 121100Z 1212/1312 11010KT 9999 SCT030"
    },
    {
      "icao": "LICJ",
      "alert": "OK",
      "vis_m": 9999,
      "fzfg": false,
      "metar_trigger": false,
      "taf_trigger": false,
      "metar": "METAR LICJ 121420Z 31007KT 9999 FEW018 16/11 Q1022",
      "taf": "TAF LICJ 121100Z 1212/1312 33010KT 9999 SCT030"
    },
    {
      "icao": "LIMC",
      "alert": "OK",
      "vis_m": 9999,
      "fzfg": false,
      "metar_trigger": false,
      "taf_trigger": false,
      "metar": "METAR LIMC 121420Z 22007KT 160V260 CAVOK 17/07 Q1020 NOSIG",
      "taf": "TAF LIMC 121100Z 1212/1318 VRB05KT 7000 NSC"
    },
    {
      "icao": "LIME",
      "alert": "OK",
      "vis_m": 9999,
      "fzfg": false,
      "metar_trigger": false,
      "taf_trigger": false,
      "metar": "METAR LIME 121420Z 17005KT 130V200 9999 SCT035 16/07 Q1020 NOSIG",
      "taf": "TAF LIME 121100Z 1212/1312 VRB04KT CAVOK"
    },
    {
      "icao": "LIMF",
      "alert": "OK",
      "vis_m": 8000,
      "fzfg": false,
      "metar_trigger": false,
      "taf_trigger": false,
      "metar": "METAR LIMF 121420Z 11005KT 070V140 8000 FEW030 17/06 Q1020",
      "taf": "TAF LIMF 121100Z 1212/1312 VRB04KT 7000 NSC"
    },
    {
      "icao": "LIMJ",
      "alert": "OK",
      "vis_m": 9999,
      "fzfg": false,
      "metar_trigger": false,
      "taf_trigger": false,
      "metar": "METAR LIMJ 121420Z 16004KT 9999 SCT035 BKN050 13/09 Q1020",
      "taf": "TAF LIMJ 121100Z 1212/1312 03008KT 9999 SCT040"
    },
    {
      "icao": "LIPE",
      "alert": "OK",
      "vis_m": 8000,
      "fzfg": false,
      "metar_trigger": false,
      "taf_trigger": false,
      "metar": "METAR LIPE 121420Z 07008KT 8000 SCT055 16/10 Q1020",
      "taf": "TAF LIPE 121100Z 1212/1312 VRB05KT 7000 SCT060"
    },
    {
      "icao": "LIPH",
      "alert": "OK",
      "vis_m": 9999,
      "fzfg": false,
      "metar_trigger": false,
      "taf_trigger": false,
      "metar": "METAR LIPH 121420Z 19003KT 150V230 9999 FEW030 16/09 Q1020",
      "taf": "TAF LIPH 121100Z 1212/1312 VRB04KT 8000 SCT015"
    },
    {
      "icao": "LIPQ",
      "alert": "OK",
      "vis_m": 9999,
      "fzfg": false,
      "metar_trigger": false,
      "taf_trigger": false,
      "metar": "METAR LIPQ 121420Z AUTO 21010KT 9999 NCD 16/09 Q1020",
      "taf": "TAF LIPQ 121100Z 1212/1312 VRB05KT 9999 SCT050"
    },
    {
      "icao": "LIPR",
      "alert": "OK",
      "vis_m": 9999,
      "fzfg": false,
      "metar_trigger": false,
      "taf_trigger": false,
      "metar": "METAR LIPR 121420Z 11008KT 9999 SCT040 SCT060 14/10 Q1020",
      "taf": "TAF LIPR 121100Z 1212/1312 13010KT 7000 OVC070"
    },
    {
      "icao": "LIPX",
      "alert": "OK",
      "vis_m": 9000,
      "fzfg": false,
      "metar_trigger": false,
      "taf_trigger": false,
      "metar": "METAR LIPX 121420Z VRB02KT 9000 BKN040 16/08 Q1020",
      "taf": "TAF LIPX 121100Z 1212/1312 VRB05KT 9999 BKN040"
    },
    {
      "icao": "LIPY",
      "alert": "OK",
      "vis_m": 9999,
      "fzfg": false,
      "metar_trigger": false,
      "taf_trigger": false,
      "metar": "METAR LIPY 121420Z AUTO 15004KT 120V190 9999 -RA OVC065/// 14/11 Q1020",
      "taf": "TAF LIPY 121100Z 1212/1312 VRB05KT 9999 OVC070"
    },
    {
      "icao": "LIPZ",
      "alert": "OK",
      "vis_m": 9999,
      "fzfg": false,
      "metar_trigger": false,
      "taf_trigger": false,
      "metar": "METAR LIPZ 121420Z 15004KT CAVOK 15/12 Q1021 NOSIG",
      "taf": ""
    },
    {
      "icao": "LIRF",
      "alert": "OK",
      "vis_m": 7000,
      "fzfg": false,
      "metar_trigger": false,
      "taf_trigger": false,
      "metar": "METAR LIRF 121420Z 04005KT 7000 RA FEW015TCU BKN025 12/11 Q1020 NOSIG",
      "taf": "TAF LIRF 121100Z 1212/1318 10012KT 9999 SCT020"
    },
    {
      "icao": "LIRN",
      "alert": "OK",
      "vis_m": 9999,
      "fzfg": false,
      "metar_trigger": false,
      "taf_trigger": false,
      "metar": "METAR LIRN 121420Z 19008KT 150V230 9999 FEW040 17/11 Q1021 NOSIG",
      "taf": "TAF LIRN 121100Z 1212/1312 22010KT 7000 SCT020"
    },
    {
      "icao": "LIRP",
      "alert": "OK",
      "vis_m": 9999,
      "fzfg": false,
      "metar_trigger": false,
      "taf_trigger": false,
      "metar": "METAR LIRP 121415Z 12006KT 9999 BKN070 14/12 Q1019 NOSIG",
      "taf": "TAF LIRP 121100Z 1212/1312 VRB04KT 9999 SCT030 BKN070"
    },
    {
      "icao": "LIRZ",
      "alert": "OK",
      "vis_m": 9999,
      "fzfg": false,
      "metar_trigger": false,
      "taf_trigger": false,
      "metar": "METAR LIRZ 121420Z AUTO 14005KT 110V170 9999 -RA OVC052/// 12/09 Q1021",
      "taf": "TAF LIRZ 121100Z 1212/1312 VRB05KT 9999 BKN040"
    },
    {
      "icao": "LJLJ",
      "alert": "OK",
      "vis_m": 9999,
      "fzfg": false,
      "metar_trigger": false,
      "taf_trigger": false,
      "metar": "METAR LJLJ 121400Z 06003KT 290V100 9999 FEW045TCU SCT065 16/04 Q1020 NOSIG",
      "taf": "TAF LJLJ 121100Z 1212/1312 09005KT 9999 FEW050"
    },
    {
      "icao": "LKMT",
      "alert": "OK",
      "vis_m": 9999,
      "fzfg": false,
      "metar_trigger": false,
      "taf_trigger": false,
      "metar": "METAR LKMT 121430Z 35005KT CAVOK 14/06 Q1021 NOSIG",
      "taf": "TAF LKMT 121100Z 1212/1312 22008KT 9999 SCT035"
    },
    {
      "icao": "LKPR",
      "alert": "OK",
      "vis_m": 9999,
      "fzfg": false,
      "metar_trigger": false,
      "taf_trigger": false,
      "metar": "METAR LKPR 121430Z 06003KT 9999 SCT025 SCT040 10/06 Q1022 NOSIG",
      "taf": "TAF LKPR 121400Z 1215/1321 01005KT 9999 SCT020"
    },
    {
      "icao": "LLBG",
      "alert": "OK",
      "vis_m": 9999,
      "fzfg": false,
      "metar_trigger": false,
      "taf_trigger": false,
      "metar": "METAR LLBG 121420Z 29008KT CAVOK 20/07 Q1014 NOSIG",
      "taf": "TAF LLBG 121103Z 1212/1312 29010KT 9999 FEW040 TX22/1212Z TN09/1304Z"
    },
    {
      "icao": "LMML",
      "alert": "OK",
      "vis_m": 9999,
      "fzfg": false,
      "metar_trigger": false,
      "taf_trigger": false,
      "metar": "METAR LMML 121415Z VRB03KT 9999 FEW023 16/11 Q1022 NOSIG",
      "taf": "TAF LMML 121100Z 1212/1312 VRB07KT 9999 SCT017"
    },
    {
      "icao": "LOWW",
      "alert": "OK",
      "vis_m": 9999,
      "fzfg": false,
      "metar_trigger": false,
      "taf_trigger": false,
      "metar": "METAR LOWW 121420Z 32010KT 9999 FEW036 15/06 Q1022 NOSIG",
      "taf": "TAF LOWW 121415Z 1215/1321 32014KT CAVOK TX17/1314Z TN03/1305Z"
    },
    {
      "icao": "LPFR",
      "alert": "OK",
      "vis_m": 9999,
      "fzfg": false,
      "metar_trigger": false,
      "taf_trigger": false,
      "metar": "METAR LPFR 121400Z 09009KT 9999 FEW025 19/11 Q1024",
      "taf": "TAF LPFR 121100Z 1212/1312 10012KT CAVOK"
    },
    {
      "icao": "LPMA",
      "alert": "OK",
      "vis_m": 9999,
      "fzfg": false,
      "metar_trigger": false,
      "taf_trigger": false,
      "metar": "METAR LPMA 121400Z 03015KT 350V050 9999 SCT016 18/10 Q1024",
      "taf": "TAF LPMA 121100Z 1212/1312 02015KT 9999 SCT015"
    },
    {
      "icao": "LPPR",
      "alert": "OK",
      "vis_m": 9999,
      "fzfg": false,
      "metar_trigger": false,
      "taf_trigger": false,
      "metar": "METAR LPPR 121400Z 30007KT 270V330 9999 SCT020 BKN025 15/10 Q1026",
      "taf": "TAF LPPR 121100Z 1212/1312 31008KT 9999 SCT020"
    },
    {
      "icao": "LPPS",
      "alert": "OK",
      "vis_m": 9999,
      "fzfg": false,
      "metar_trigger": false,
      "taf_trigger": false,
      "metar": "METAR LPPS 121400Z 06016G26KT 020V090 9999 FEW015 18/10 Q1024",
      "taf": "TAF LPPS 121100Z 1212/1318 06015KT 9999 SCT015"
    },
    {
      "icao": "LPPT",
      "alert": "OK",
      "vis_m": 9999,
      "fzfg": false,
      "metar_trigger": false,
      "taf_trigger": false,
      "metar": "METAR LPPT 121400Z 07004KT 020V140 9999 FEW022 19/12 Q1025",
      "taf": "TAF LPPT 121100Z 1212/1318 08005KT 9999 FEW020"
    },
    {
      "icao": "LQBK",
      "alert": "OK",
      "vis_m": 9999,
      "fzfg": false,
      "metar_trigger": false,
      "taf_trigger": false,
      "metar": "METAR LQBK 121430Z 15007KT 9999 FEW045 15/07 Q1021 NOSIG",
      "taf": "TAF LQBK 121100Z 1212/1312 15005KT 9999 SCT045 TX17/1214Z TN07/1306Z"
    },
    {
      "icao": "LQSA",
      "alert": "OK",
      "vis_m": 9999,
      "fzfg": false,
      "metar_trigger": false,
      "taf_trigger": false,
      "metar": "METAR LQSA 121430Z 30006KT 260V320 CAVOK 14/03 Q1020 NOSIG",
      "taf": "TAF LQSA 121100Z 1212/1312 33005KT 9999 SCT060 TX16/1214Z TN03/1305Z"
    },
    {
      "icao": "LQTZ",
      "alert": "OK",
      "vis_m": 9999,
      "fzfg": false,
      "metar_trigger": false,
      "taf_trigger": false,
      "metar": "METAR LQTZ 121430Z VRB01KT CAVOK 16/04 Q1020",
      "taf": "TAF LQTZ 121100Z 1212/1312 03007KT 9999 SCT055 TX17/1212Z TN02/1306Z"
    },
    {
      "icao": "LRBC",
      "alert": "OK",
      "vis_m": 9999,
      "fzfg": false,
      "metar_trigger": false,
      "taf_trigger": false,
      "metar": "METAR LRBC 121400Z 17011KT CAVOK 11/02 Q1024",
      "taf": "TAF LRBC 121400Z 1215/1224 16012KT CAVOK"
    },
    {
      "icao": "LRBS",
      "alert": "OK",
      "vis_m": 9999,
      "fzfg": false,
      "metar_trigger": false,
      "taf_trigger": false,
      "metar": "METAR LRBS 121400Z 05006KT 330V090 CAVOK 12/05 Q1024 NOSIG",
      "taf": "TAF LRBS 121100Z 1212/1312 08008KT CAVOK"
    },
    {
      "icao": "LRBV",
      "alert": "OK",
      "vis_m": 9999,
      "fzfg": false,
      "metar_trigger": false,
      "taf_trigger": false,
      "metar": "METAR LRBV 121400Z 12004KT 040V170 CAVOK 16/M07 Q1021",
      "taf": "TAF LRBV 121400Z 1215/1224 VRB04KT CAVOK"
    },
    {
      "icao": "LRCL",
      "alert": "OK",
      "vis_m": 9999,
      "fzfg": false,
      "metar_trigger": false,
      "taf_trigger": false,
      "metar": "METAR LRCL 121400Z VRB03KT CAVOK 17/M06 Q1021",
      "taf": "TAF LRCL 121400Z 1215/1224 VRB04KT CAVOK"
    },
    {
      "icao": "LRCV",
      "alert": "OK",
      "vis_m": 9999,
      "fzfg": false,
      "metar_trigger": false,
      "taf_trigger": false,
      "metar": "METAR LRCV 121400Z 10009KT CAVOK 11/06 Q1023",
      "taf": "TAF LRCV 121400Z 1215/1224 09008KT CAVOK"
    },
    {
      "icao": "LRIA",
      "alert": "OK",
      "vis_m": 9999,
      "fzfg": false,
      "metar_trigger": false,
      "taf_trigger": false,
      "metar": "METAR LRIA 121400Z 12009KT CAVOK 12/M01 Q1024",
      "taf": "TAF LRIA 121400Z 1215/1224 13008KT CAVOK"
    },
    {
      "icao": "LROP",
      "alert": "OK",
      "vis_m": 9999,
      "fzfg": false,
      "metar_trigger": false,
      "taf_trigger": false,
      "metar": "METAR LROP 121400Z 07007KT 030V100 CAVOK 12/03 Q1024 NOSIG",
      "taf": "TAF LROP 121100Z 1212/1312 08008KT CAVOK"
    },
    {
      "icao": "LRSB",
      "alert": "OK",
      "vis_m": 9999,
      "fzfg": false,
      "metar_trigger": false,
      "taf_trigger": false,
      "metar": "METAR LRSB 121400Z VRB03KT CAVOK 17/M06 Q1021",
      "taf": "TAF LRSB 121100Z 1212/1312 VRB04KT CAVOK"
    },
    {
      "icao": "LRSM",
      "alert": "OK",
      "vis_m": 9999,
      "fzfg": false,
      "metar_trigger": false,
      "taf_trigger": false,
      "metar": "METAR LRSM 121400Z VRB02KT CAVOK 19/M02 Q1022",
      "taf": "TAF LRSM 121400Z 1215/1224 VRB04KT CAVOK"
    },
    {
      "icao": "LRSV",
      "alert": "OK",
      "vis_m": 9999,
      "fzfg": false,
      "metar_trigger": false,
      "taf_trigger": false,
      "metar": "METAR LRSV 121400Z 12009KT CAVOK 12/00 Q1023",
      "taf": "TAF LRSV 121400Z 1215/1224 12008KT CAVOK"
    },
    {
      "icao": "LRTM",
      "alert": "OK",
      "vis_m": 9999,
      "fzfg": false,
      "metar_trigger": false,
      "taf_trigger": false,
      "metar": "METAR LRTM 121400Z VRB04KT CAVOK 18/M05 Q1021",
      "taf": "TAF LRTM 121400Z 1215/1224 VRB04KT CAVOK"
    },
    {
      "icao": "LRTR",
      "alert": "OK",
      "vis_m": 9999,
      "fzfg": false,
      "metar_trigger": false,
      "taf_trigger": false,
      "metar": "METAR LRTR 121400Z COR 36003KT 260V050 CAVOK 19/02 Q1021",
      "taf": "TAF LRTR 121100Z 1212/1312 VRB04KT CAVOK"
    },
    {
      "icao": "LTAC",
      "alert": "OK",
      "vis_m": 9999,
      "fzfg": false,
      "metar_trigger": false,
      "taf_trigger": false,
      "metar": "METAR LTAC 121420Z 06009KT 020V120 CAVOK 13/M06 Q1017 NOSIG RMK RWY21C 04007KT 360V070 RWY03L 04008KT RWY21R 03008KT 360V060 RWY03R 02006KT 330V120 RWY21L 02009KT",
      "taf": "TAF LTAC 121040Z 1212/1312 VRB02KT CAVOK"
    },
    {
      "icao": "LTFM",
      "alert": "OK",
      "vis_m": 9999,
      "fzfg": false,
      "metar_trigger": false,
      "taf_trigger": false,
      "metar": "METAR LTFM 121420Z 36011KT 9999 BKN020 08/04 Q1023 NOSIG RMK RWY17L 35009KT RWY34L 36012KT RWY16R 36008KT RWY36 01010KT RWY18 01008KT",
      "taf": "TAF LTFM 121040Z 1212/1318 35012KT 9999 BKN016"
    },
    {
      "icao": "LUKK",
      "alert": "OK",
      "vis_m": 9999,
      "fzfg": false,
      "metar_trigger": false,
      "taf_trigger": false,
      "metar": "METAR LUKK 121430Z 15005KT 100V190 CAVOK 14/M01 Q1025 NOSIG",
      "taf": "TAF LUKK 121117Z 1212/1312 16010KT CAVOK"
    },
    {
      "icao": "LWOH",
      "alert": "OK",
      "vis_m": 9999,
      "fzfg": false,
      "metar_trigger": false,
      "taf_trigger": false,
      "metar": "METAR LWOH 121420Z 15004KT 9999 FEW040 14/03 Q1019",
      "taf": "TAF LWOH 121430Z 1215/1315 16008KT 9999 FEW040"
    },
    {
      "icao": "LWSK",
      "alert": "OK",
      "vis_m": 9999,
      "fzfg": false,
      "metar_trigger": false,
      "taf_trigger": false,
      "metar": "METAR LWSK 121420Z VRB03KT CAVOK 20/M02 Q1019 NOSIG",
      "taf": "TAF LWSK 121430Z 1215/1315 VRB02KT CAVOK"
    },
    {
      "icao": "LYBE",
      "alert": "OK",
      "vis_m": 9999,
      "fzfg": false,
      "metar_trigger": false,
      "taf_trigger": false,
      "metar": "METAR LYBE 121430Z 31004KT 280V360 CAVOK 19/02 Q1020 NOSIG",
      "taf": "TAF LYBE 121100Z 1212/1312 32005KT CAVOK TX20/1213Z TN05/1305Z"
    },
    {
      "icao": "LYNI",
      "alert": "OK",
      "vis_m": 9999,
      "fzfg": false,
      "metar_trigger": false,
      "taf_trigger": false,
      "metar": "METAR LYNI 121430Z VRB01KT 9999 FEW050 20/M03 Q1019 TEMPO FM1500 05011KT",
      "taf": "TAF LYNI 121100Z 1212/1312 11005KT CAVOK TX20/1214Z TN03/1305Z"
    },
    {
      "icao": "LYPG",
      "alert": "OK",
      "vis_m": 9999,
      "fzfg": false,
      "metar_trigger": false,
      "taf_trigger": false,
      "metar": "METAR LYPG 121430Z 12005KT 080V170 9999 FEW040 19/01 Q1020 NOSIG",
      "taf": "TAF LYPG 121100Z 1212/1312 18005KT 9999 FEW040 SCT090 TX18/1214Z TN07/1305Z"
    },
    {
      "icao": "LZIB",
      "alert": "OK",
      "vis_m": 9999,
      "fzfg": false,
      "metar_trigger": false,
      "taf_trigger": false,
      "metar": "METAR LZIB 121430Z 34010KT 310V010 CAVOK 16/05 Q1021 NOSIG",
      "taf": "TAF LZIB 121115Z 1212/1312 06005KT CAVOK"
    },
    {
      "icao": "LZKZ",
      "alert": "OK",
      "vis_m": 9999,
      "fzfg": false,
      "metar_trigger": false,
      "taf_trigger": false,
      "metar": "METAR LZKZ 121430Z 19007KT 160V220 CAVOK 16/04 Q1021 NOSIG",
      "taf": "TAF LZKZ 121115Z 1212/1312 VRB02KT CAVOK"
    },
    {
      "icao": "LZTT",
      "alert": "OK",
      "vis_m": 9999,
      "fzfg": false,
      "metar_trigger": false,
      "taf_trigger": false,
      "metar": "METAR LZTT 121430Z 30005KT 210V350 9999 VCSH SCT030 BKN056 12/03 Q1021 NOSIG",
      "taf": "TAF LZTT 121115Z 1212/1312 26005KT 9999 FEW050"
    },
    {
      "icao": "OEJN",
      "alert": "OK",
      "vis_m": 9999,
      "fzfg": false,
      "metar_trigger": false,
      "taf_trigger": false,
      "metar": "METAR OEJN 121400Z 29011KT CAVOK 28/16 Q1011 NOSIG",
      "taf": "TAF OEJN 121100Z 1212/1312 30012KT 9999 FEW040"
    },
    {
      "icao": "OEMA",
      "alert": "OK",
      "vis_m": 9999,
      "fzfg": false,
      "metar_trigger": false,
      "taf_trigger": false,
      "metar": "METAR OEMA 121400Z 28012KT CAVOK 30/M06 Q1013 NOSIG",
      "taf": "TAF OEMA 121100Z 1212/1312 30012KT CAVOK"
    },
    {
      "icao": "OJAI",
      "alert": "OK",
      "vis_m": 4000,
      "fzfg": false,
      "metar_trigger": false,
      "taf_trigger": false,
      "metar": "METAR OJAI 121400Z 30009KT 4000 HZ NSC 19/M01 Q1016 NOSIG",
      "taf": "TAF OJAI 121100Z 1212/1318 26012KT 4000 DU"
    },
    {
      "icao": "OMAA",
      "alert": "OK",
      "vis_m": null,
      "fzfg": false,
      "metar_trigger": false,
      "taf_trigger": false,
      "metar": "",
      "taf": ""
    },
    {
      "icao": "OMDB",
      "alert": "OK",
      "vis_m": null,
      "fzfg": false,
      "metar_trigger": false,
      "taf_trigger": false,
      "metar": "",
      "taf": ""
    },
    {
      "icao": "UAAA",
      "alert": "OK",
      "vis_m": 5000,
      "fzfg": false,
      "metar_trigger": false,
      "taf_trigger": false,
      "metar": "SPECI UAAA 121423Z VRB01MPS 5000 BR FU NSC M03/M06 Q1035 NOSIG",
      "taf": "TAF UAAA 121106Z 1212/1312 19003MPS 5000 BR FU SCT011 TX04/1309Z TNM12/1301Z"
    },
    {
      "icao": "UBBB",
      "alert": "OK",
      "vis_m": 9999,
      "fzfg": false,
      "metar_trigger": false,
      "taf_trigger": false,
      "metar": "METAR UBBB 121430Z 15012KT 9999 FEW016 08/02 Q1029 NOSIG",
      "taf": "TAF UBBB 121053Z 1212/1312 12005KT 9999 SCT020 TX09/1212Z TN03/1301Z"
    },
    {
      "icao": "UDSG",
      "alert": "OK",
      "vis_m": 9999,
      "fzfg": false,
      "metar_trigger": false,
      "taf_trigger": false,
      "metar": "METAR UDSG 121400Z 25008KT 9999 FEW049 00/M05 Q1023 NOSIG",
      "taf": "TAF UDSG 121058Z 1212/1312 VRB06KT 9999 SCT040"
    },
    {
      "icao": "UDYZ",
      "alert": "OK",
      "vis_m": 9999,
      "fzfg": false,
      "metar_trigger": false,
      "taf_trigger": false,
      "metar": "METAR UDYZ 121400Z 29003KT 240V320 9999 BKN046 09/M06 Q1023 NOSIG",
      "taf": "TAF UDYZ 121100Z 1212/1312 06006KT 9999 BKN040"
    },
    {
      "icao": "UGKO",
      "alert": "OK",
      "vis_m": 9999,
      "fzfg": false,
      "metar_trigger": false,
      "taf_trigger": false,
      "metar": "METAR UGKO 121400Z 07019G29KT CAVOK 15/M02 Q1020 NOSIG",
      "taf": "TAF UGKO 121100Z 1212/1312 08020KT CAVOK TX17/1212Z TN09/1303Z"
    }
  ]
}