{
  "ts_utc": "2026-01-06T11:44:09Z",
  "threshold_m": 150,
  "source": "stations_override.txt (ICAO list) + aviationweather.gov (METAR/TAF raw)",
  "station_count": 159,
  "stations": [
    {
      "icao": "BIKF",
      "alert": "OK",
      "vis_m": 9999,
      "fzfg": false,
      "metar_trigger": false,
      "taf_trigger": false,
      "metar": "METAR BIKF 061130Z 09007KT CAVOK M05/M10 Q1020",
      "taf": "TAF BIKF 061033Z 0612/0712 07013KT CAVOK TXM01/0707Z TNM04/0612Z"
    },
    {
      "icao": "BKPR",
      "alert": "OK",
      "vis_m": 5000,
      "fzfg": false,
      "metar_trigger": false,
      "taf_trigger": false,
      "metar": "METAR BKPR 061130Z 17006KT 5000 -RA SCT012 OVC030 07/07 Q1008 NOSIG",
      "taf": "TAF BKPR 061130Z 0612/0712 17008KT 9999 SCT015 BKN030"
    },
    {
      "icao": "EBCI",
      "alert": "OK",
      "vis_m": 500,
      "fzfg": true,
      "metar_trigger": false,
      "taf_trigger": false,
      "metar": "METAR EBCI 061120Z 24008KT 0500 R24/1300D FZFG BKN002 BKN003 M02/M03 Q1017 TEMPO 0500 FZFG BKN001",
      "taf": "TAF EBCI 061100Z 0612/0718 24004KT 9999 BKN006"
    },
    {
      "icao": "EDDB",
      "alert": "OK",
      "vis_m": 9999,
      "fzfg": false,
      "metar_trigger": false,
      "taf_trigger": false,
      "metar": "METAR EDDB 061120Z AUTO 23005KT 200V260 9999 -SN BKN013 BKN017 OVC022 M04/M06 Q1014 BECMG BKN015",
      "taf": "TAF EDDB 061100Z 0612/0712 21005KT 9999 BKN009"
    },
    {
      "icao": "EDDH",
      "alert": "OK",
      "vis_m": 8000,
      "fzfg": false,
      "metar_trigger": false,
      "taf_trigger": false,
      "metar": "METAR EDDH 061120Z AUTO 22009KT 8000 BKN008 BKN027 M00/M02 Q1013 TEMPO 4500 -SG",
      "taf": "TAF EDDH 061100Z 0612/0718 20008KT 9000 OVC008"
    },
    {
      "icao": "EDDK",
      "alert": "OK",
      "vis_m": 9999,
      "fzfg": false,
      "metar_trigger": false,
      "taf_trigger": false,
      "metar": "METAR EDDK 061120Z AUTO 29004KT 260V320 9999 OVC011 M00/M03 Q1017 NOSIG",
      "taf": "TAF EDDK 061100Z 0612/0718 VRB03KT 9999 OVC012"
    },
    {
      "icao": "EDDN",
      "alert": "OK",
      "vis_m": 9999,
      "fzfg": false,
      "metar_trigger": false,
      "taf_trigger": false,
      "metar": "METAR EDDN 061120Z AUTO VRB02KT 9999 -SN BKN017 BKN032 BKN043 M05/M09 Q1015 TEMPO BKN014",
      "taf": "TAF EDDN 061100Z 0612/0712 VRB03KT 8000 FEW006 BKN020"
    },
    {
      "icao": "EDDS",
      "alert": "OK",
      "vis_m": 9999,
      "fzfg": false,
      "metar_trigger": false,
      "taf_trigger": false,
      "metar": "METAR EDDS 061120Z AUTO VRB02KT 9999 BKN011 OVC015 M04/M07 Q1015 NOSIG",
      "taf": "TAF EDDS 061100Z 0612/0712 VRB03KT 8000 SCT007 BKN025"
    },
    {
      "icao": "EDFH",
      "alert": "OK",
      "vis_m": 5000,
      "fzfg": false,
      "metar_trigger": false,
      "taf_trigger": false,
      "metar": "METAR EDFH 061120Z 28005KT 250V310 5000 BR OVC002 M04/M05 Q1014",
      "taf": "TAF EDFH 061100Z 0612/0712 28005KT 4000 BR OVC002"
    },
    {
      "icao": "EDJA",
      "alert": "OK",
      "vis_m": 9999,
      "fzfg": false,
      "metar_trigger": false,
      "taf_trigger": false,
      "metar": "METAR EDJA 061120Z 22004KT CAVOK M07/M10 Q1013",
      "taf": "TAF EDJA 061100Z 0612/0621 VRB03KT CAVOK"
    },
    {
      "icao": "EDLW",
      "alert": "OK",
      "vis_m": 9999,
      "fzfg": false,
      "metar_trigger": false,
      "taf_trigger": false,
      "metar": "METAR EDLW 061120Z 23008KT 9999 SCT009 OVC012 M01/M03 Q1015",
      "taf": "TAF EDLW 061100Z 0612/0712 21008KT 9999 BKN009"
    },
    {
      "icao": "EDNY",
      "alert": "OK",
      "vis_m": 9999,
      "fzfg": false,
      "metar_trigger": false,
      "taf_trigger": false,
      "metar": "METAR EDNY 061120Z 24002KT 9999 OVC012 M05/M07 Q1016",
      "taf": "TAF EDNY 061100Z 0612/0621 VRB03KT 9999 OVC012"
    },
    {
      "icao": "EDSB",
      "alert": "OK",
      "vis_m": 9999,
      "fzfg": false,
      "metar_trigger": false,
      "taf_trigger": false,
      "metar": "METAR EDSB 061120Z 19005KT 9999 -SN OVC015 M03/M05 Q1018",
      "taf": "TAF EDSB 061100Z 0612/0712 20005KT 9999 OVC012"
    },
    {
      "icao": "EETN",
      "alert": "OK",
      "vis_m": 9999,
      "fzfg": false,
      "metar_trigger": false,
      "taf_trigger": false,
      "metar": "METAR EETN 061120Z 12010KT 9999 FEW007 OVC018 M08/M09 Q1017 NOSIG",
      "taf": "TAF EETN 061130Z 0612/0712 13012KT 9999 BKN020"
    },
    {
      "icao": "EFTU",
      "alert": "OK",
      "vis_m": 9999,
      "fzfg": false,
      "metar_trigger": false,
      "taf_trigger": false,
      "metar": "METAR EFTU 061120Z AUTO 10011KT 9999 BKN013 M06/M08 Q1016",
      "taf": "TAF EFTU 061127Z 0612/0712 10010KT 9999 BKN013"
    },
    {
      "icao": "EGBB",
      "alert": "OK",
      "vis_m": 9999,
      "fzfg": false,
      "metar_trigger": false,
      "taf_trigger": false,
      "metar": "METAR EGBB 061120Z 23008KT CAVOK 02/M00 Q1015",
      "taf": "TAF EGBB 061059Z 0612/0712 22008KT 9999 SCT040"
    },
    {
      "icao": "EGGP",
      "alert": "OK",
      "vis_m": 9999,
      "fzfg": false,
      "metar_trigger": false,
      "taf_trigger": false,
      "metar": "METAR EGGP 061120Z 21005KT 170V240 9999 FEW040 02/01 Q1013",
      "taf": "TAF EGGP 061055Z 0612/0712 20005KT 9999 FEW030"
    },
    {
      "icao": "EGGW",
      "alert": "OK",
      "vis_m": 4000,
      "fzfg": false,
      "metar_trigger": false,
      "taf_trigger": false,
      "metar": "METAR EGGW 061120Z 24008KT 4000 -SHSN SCT005 OVC016 01/M00 Q1015",
      "taf": "TAF EGGW 061055Z 0612/0712 23007KT 9999 SCT030"
    },
    {
      "icao": "EGKK",
      "alert": "OK",
      "vis_m": 9999,
      "fzfg": false,
      "metar_trigger": false,
      "taf_trigger": false,
      "metar": "METAR EGKK 061120Z 23005KT 9999 BKN048 00/M02 Q1017",
      "taf": ""
    },
    {
      "icao": "EGNM",
      "alert": "OK",
      "vis_m": 4000,
      "fzfg": false,
      "metar_trigger": false,
      "taf_trigger": false,
      "metar": "METAR EGNM 061120Z 22006KT 4000 BR SCT003 SCT007 01/00 Q1011",
      "taf": "TAF EGNM 061056Z 0612/0712 21009KT 3000 BR BKN003"
    },
    {
      "icao": "EGPD",
      "alert": "OK",
      "vis_m": 9999,
      "fzfg": false,
      "metar_trigger": false,
      "taf_trigger": false,
      "metar": "METAR EGPD 061120Z COR 13004KT CAVOK M01/M02 Q1005 NOSIG",
      "taf": "TAF EGPD 061102Z 0612/0712 20004KT 9999 FEW030"
    },
    {
      "icao": "EGPF",
      "alert": "OK",
      "vis_m": 7000,
      "fzfg": false,
      "metar_trigger": false,
      "taf_trigger": false,
      "metar": "METAR EGPF 061120Z 05004KT 7000 -RA BKN014CB BKN025 OVC039 01/00 Q1007",
      "taf": "TAF EGPF 061058Z 0612/0712 21010KT 9999 FEW020 BKN035"
    },
    {
      "icao": "EHBK",
      "alert": "OK",
      "vis_m": 9999,
      "fzfg": false,
      "metar_trigger": false,
      "taf_trigger": false,
      "metar": "METAR EHBK 061125Z AUTO 23007KT 210V270 9999 FEW003/// BKN005/// OVC006/// M00/M02 Q1016 TEMPO BKN020",
      "taf": "TAF EHBK 061122Z 0612/0718 22008KT CAVOK"
    },
    {
      "icao": "EHEH",
      "alert": "OK",
      "vis_m": 8000,
      "fzfg": false,
      "metar_trigger": false,
      "taf_trigger": false,
      "metar": "METAR EHEH 061125Z AUTO 20004KT 8000 BR FEW027 BKN031 OVC036 M00/M01 Q1016 REFZRA BLU NOSIG RMK TREND REMOTE BY EHWX",
      "taf": ""
    },
    {
      "icao": "EKBI",
      "alert": "OK",
      "vis_m": 2600,
      "fzfg": false,
      "metar_trigger": false,
      "taf_trigger": false,
      "metar": "METAR EKBI 061120Z AUTO 14005KT 2600 BR FEW110/// BKN170/// M03/M04 Q1010",
      "taf": "TAF EKBI 061127Z 0612/0712 15008KT 9999 FEW002 BKN025"
    },
    {
      "icao": "EKCH",
      "alert": "OK",
      "vis_m": 6000,
      "fzfg": false,
      "metar_trigger": false,
      "taf_trigger": false,
      "metar": "METAR EKCH 061120Z AUTO 23002KT 6000 OVC043/// M02/M02 Q1012 TEMPO 4000",
      "taf": "TAF EKCH 061127Z 0612/0712 22004KT 8000 BKN040"
    },
    {
      "icao": "ENAL",
      "alert": "OK",
      "vis_m": 9999,
      "fzfg": false,
      "metar_trigger": false,
      "taf_trigger": false,
      "metar": "METAR ENAL 061120Z 13012KT 090V160 CAVOK M04/M13 Q1011",
      "taf": "TAF ENAL 061100Z 0612/0621 14012KT CAVOK"
    },
    {
      "icao": "ENBR",
      "alert": "OK",
      "vis_m": 9999,
      "fzfg": false,
      "metar_trigger": false,
      "taf_trigger": false,
      "metar": "METAR ENBR 061120Z 05003KT CAVOK M06/M14 Q1010 NOSIG RMK WIND 1200FT 11011KT",
      "taf": "TAF ENBR 061100Z 0612/0712 07005KT CAVOK"
    },
    {
      "icao": "ENGM",
      "alert": "OK",
      "vis_m": 6000,
      "fzfg": false,
      "metar_trigger": false,
      "taf_trigger": false,
      "metar": "METAR ENGM 061120Z 01009KT 6000 -SN FEW015 SCT046 M08/M11 Q1011 NOSIG",
      "taf": "TAF ENGM 061100Z 0612/0712 01009KT 8000 -SN FEW015 BKN030"
    },
    {
      "icao": "ENHD",
      "alert": "OK",
      "vis_m": 9999,
      "fzfg": false,
      "metar_trigger": false,
      "taf_trigger": false,
      "metar": "METAR ENHD 061120Z 09007KT CAVOK M04/M08 Q1010",
      "taf": "TAF ENHD 061100Z 0612/0621 09008KT 9999 FEW035"
    },
    {
      "icao": "ENTC",
      "alert": "OK",
      "vis_m": 9999,
      "fzfg": false,
      "metar_trigger": false,
      "taf_trigger": false,
      "metar": "METAR ENTC 061120Z VRB02KT CAVOK M13/M16 Q1019 NOSIG RMK WIND 2600FT 16006KT",
      "taf": "TAF ENTC 061100Z 0612/0712 15003KT CAVOK"
    },
    {
      "icao": "ENTO",
      "alert": "OK",
      "vis_m": 9999,
      "fzfg": false,
      "metar_trigger": false,
      "taf_trigger": false,
      "metar": "METAR ENTO 061120Z 36010KT 9999 SCT015 M09/M12 Q1012 TEMPO BKN014",
      "taf": "TAF ENTO 061100Z 0612/0712 36010KT 9999 SCT012 BKN016"
    },
    {
      "icao": "ENVA",
      "alert": "OK",
      "vis_m": 9999,
      "fzfg": false,
      "metar_trigger": false,
      "taf_trigger": false,
      "metar": "METAR ENVA 061120Z 12008KT CAVOK M17/M21 Q1016 NOSIG RMK WIND 670FT 10009KT",
      "taf": "TAF ENVA 061100Z 0612/0712 11008KT CAVOK"
    },
    {
      "icao": "ENZV",
      "alert": "OK",
      "vis_m": 9999,
      "fzfg": false,
      "metar_trigger": false,
      "taf_trigger": false,
      "metar": "METAR ENZV 061120Z 00000KT 9999 OVC037 M03/M05 Q1010 NOSIG",
      "taf": "TAF ENZV 061100Z 0612/0712 09005KT 9999 SCT035"
    },
    {
      "icao": "EPGD",
      "alert": "OK",
      "vis_m": 9999,
      "fzfg": false,
      "metar_trigger": false,
      "taf_trigger": false,
      "metar": "METAR EPGD 061130Z 24005KT CAVOK M02/M07 Q1012",
      "taf": "TAF EPGD 061130Z 0612/0712 25006KT CAVOK"
    },
    {
      "icao": "EPKK",
      "alert": "OK",
      "vis_m": 9999,
      "fzfg": false,
      "metar_trigger": false,
      "taf_trigger": false,
      "metar": "METAR EPKK 061130Z 24007KT CAVOK M03/M08 Q1014",
      "taf": "TAF EPKK 061130Z 0612/0712 25010KT CAVOK"
    },
    {
      "icao": "EPKT",
      "alert": "OK",
      "vis_m": 9999,
      "fzfg": false,
      "metar_trigger": false,
      "taf_trigger": false,
      "metar": "METAR EPKT 061130Z 27004KT 240V310 CAVOK M03/M08 Q1014",
      "taf": "TAF EPKT 061130Z 0612/0712 28005KT CAVOK"
    },
    {
      "icao": "EPLB",
      "alert": "OK",
      "vis_m": 9999,
      "fzfg": false,
      "metar_trigger": false,
      "taf_trigger": false,
      "metar": "METAR EPLB 061130Z 29006KT 9999 OVC012 M03/M05 Q1012",
      "taf": "TAF EPLB 061130Z 0612/0712 29010KT 9999 BKN020"
    },
    {
      "icao": "EPMO",
      "alert": "OK",
      "vis_m": 3100,
      "fzfg": false,
      "metar_trigger": false,
      "taf_trigger": false,
      "metar": "METAR EPMO 061130Z 26008KT 3100 BR NSC M10/M10 Q1013",
      "taf": "TAF EPMO 061130Z 0612/0712 27007KT 4000 BR NSC"
    },
    {
      "icao": "EPPO",
      "alert": "OK",
      "vis_m": 9999,
      "fzfg": false,
      "metar_trigger": false,
      "taf_trigger": false,
      "metar": "METAR EPPO 061130Z 25003KT CAVOK M05/M09 Q1014",
      "taf": "TAF EPPO 061130Z 0612/0712 27003KT CAVOK"
    },
    {
      "icao": "EPRA",
      "alert": "OK",
      "vis_m": 9999,
      "fzfg": false,
      "metar_trigger": false,
      "taf_trigger": false,
      "metar": "METAR EPRA 061130Z 29006KT CAVOK M05/M09 Q1013",
      "taf": "TAF EPRA 061130Z 0612/0621 27006KT CAVOK"
    },
    {
      "icao": "EPRZ",
      "alert": "OK",
      "vis_m": 9999,
      "fzfg": false,
      "metar_trigger": false,
      "taf_trigger": false,
      "metar": "METAR EPRZ 061130Z 28008KT 9999 FEW018 M02/M06 Q1012",
      "taf": "TAF EPRZ 061130Z 0612/0712 27010KT CAVOK"
    },
    {
      "icao": "EPSC",
      "alert": "OK",
      "vis_m": 9999,
      "fzfg": false,
      "metar_trigger": false,
      "taf_trigger": false,
      "metar": "METAR EPSC 061130Z 20006KT 9999 SCT008 M03/M05 Q1013",
      "taf": "TAF EPSC 061130Z 0612/0712 20003KT CAVOK"
    },
    {
      "icao": "EPSY",
      "alert": "OK",
      "vis_m": 6000,
      "fzfg": false,
      "metar_trigger": false,
      "taf_trigger": false,
      "metar": "METAR EPSY 061130Z 21002KT 6000 BKN028 M06/M07 Q1012",
      "taf": "TAF EPSY 061130Z 0612/0621 VRB02KT 6000 BKN025"
    },
    {
      "icao": "EPWA",
      "alert": "OK",
      "vis_m": 5000,
      "fzfg": false,
      "metar_trigger": false,
      "taf_trigger": false,
      "metar": "METAR EPWA 061130Z 27005KT 5000 BR NSC M08/M10 Q1013 NOSIG",
      "taf": "TAF EPWA 061130Z 0612/0712 27005KT 8000 NSC"
    },
    {
      "icao": "EPWR",
      "alert": "OK",
      "vis_m": 9999,
      "fzfg": false,
      "metar_trigger": false,
      "taf_trigger": false,
      "metar": "METAR EPWR 061130Z 25003KT CAVOK M02/M08 Q1015",
      "taf": "TAF EPWR 061130Z 0612/0712 26004KT CAVOK"
    },
    {
      "icao": "ESGG",
      "alert": "OK",
      "vis_m": 400,
      "fzfg": true,
      "metar_trigger": false,
      "taf_trigger": false,
      "metar": "METAR ESGG 061120Z VRB02KT 0400 R03/P2000N R21/0750N FZFG VV002 M08/M09 Q1011",
      "taf": "TAF ESGG 061130Z 0612/0712 09004KT 0800 FZFG OVC002"
    },
    {
      "icao": "ESKN",
      "alert": "OK",
      "vis_m": 600,
      "fzfg": false,
      "metar_trigger": false,
      "taf_trigger": false,
      "metar": "METAR ESKN 061120Z 30008KT 0600 R08/0650N R26/1300U SN VV012 M05/M05 Q1008",
      "taf": "TAF ESKN 060830Z 0609/0709 VRB03KT 9000 -SN SCT006 BKN030"
    },
    {
      "icao": "ESMS",
      "alert": "CRITICAL",
      "vis_m": 100,
      "fzfg": true,
      "metar_trigger": true,
      "taf_trigger": false,
      "metar": "METAR ESMS 061120Z 00000KT 0100 R17/0225N R35/0225N FZFG VV002 M03/M03 Q1011",
      "taf": "TAF ESMS 061127Z 0612/0712 VRB03KT 5000 BKN040"
    },
    {
      "icao": "ESSA",
      "alert": "OK",
      "vis_m": 9999,
      "fzfg": false,
      "metar_trigger": false,
      "taf_trigger": false,
      "metar": "METAR ESSA 061120Z 07008KT 9999 BKN044 M02/M03 Q1009 TEMPO 1200 SHSN BKN014",
      "taf": "TAF ESSA 061130Z 0612/0712 09008KT 9999 BKN040"
    },
    {
      "icao": "EYKA",
      "alert": "OK",
      "vis_m": 5000,
      "fzfg": false,
      "metar_trigger": false,
      "taf_trigger": false,
      "metar": "METAR EYKA 061120Z 08004KT 5000 -SN BR OVC027 M06/M07 Q1013",
      "taf": "TAF EYKA 061118Z 0612/0712 VRB03KT 5000 SN OVC025"
    },
    {
      "icao": "EYPA",
      "alert": "OK",
      "vis_m": 9999,
      "fzfg": false,
      "metar_trigger": false,
      "taf_trigger": false,
      "metar": "METAR EYPA 061120Z 15007KT CAVOK M04/M07 Q1013",
      "taf": "TAF EYPA 061113Z 0612/0712 15008KT 7000 BKN040"
    },
    {
      "icao": "EYVI",
      "alert": "OK",
      "vis_m": 4000,
      "fzfg": false,
      "metar_trigger": false,
      "taf_trigger": false,
      "metar": "METAR EYVI 061120Z 11005KT 070V150 4000 -SN BR OVC038 M06/M07 Q1012 NOSIG",
      "taf": "TAF EYVI 061101Z 0612/0712 09012KT 1500 SN BR OVC015"
    },
    {
      "icao": "GCFV",
      "alert": "OK",
      "vis_m": 9999,
      "fzfg": false,
      "metar_trigger": false,
      "taf_trigger": false,
      "metar": "METAR GCFV 061130Z 35017KT 9999 SCT040 17/11 Q1024",
      "taf": "TAF GCFV 060800Z 0609/0709 02018KT 9999 SCT035 TX21/0614Z TN15/0706Z"
    },
    {
      "icao": "GCLP",
      "alert": "OK",
      "vis_m": 9999,
      "fzfg": false,
      "metar_trigger": false,
      "taf_trigger": false,
      "metar": "METAR GCLP 061130Z 03018KT 350V050 9999 SCT035 BKN045 19/11 Q1024 NOSIG",
      "taf": "TAF GCLP 060800Z 0609/0709 36019KT 9999 FEW030 SCT045 TX21/0614Z TN15/0706Z"
    },
    {
      "icao": "GCTS",
      "alert": "OK",
      "vis_m": 9999,
      "fzfg": false,
      "metar_trigger": false,
      "taf_trigger": false,
      "metar": "METAR GCTS 061130Z 08021KT 9999 FEW040 19/08 Q1025 NOSIG",
      "taf": "TAF GCTS 060800Z 0609/0709 08018KT 9999 SCT045 TX23/0614Z TN16/0706Z"
    },
    {
      "icao": "GMAD",
      "alert": "OK",
      "vis_m": 9999,
      "fzfg": false,
      "metar_trigger": false,
      "taf_trigger": false,
      "metar": "METAR GMAD 061130Z 35015KT 9999 FEW026 17/04 Q1018 NOSIG",
      "taf": "TAF GMAD 061100Z 0612/0718 28013KT 8000 SCT023"
    },
    {
      "icao": "GMMN",
      "alert": "OK",
      "vis_m": 9999,
      "fzfg": false,
      "metar_trigger": false,
      "taf_trigger": false,
      "metar": "METAR GMMN 061130Z 35010KT 9999 BKN024 12/07 Q1021 NOSIG",
      "taf": "TAF GMMN 061100Z 0612/0718 34011KT 9999 BKN024"
    },
    {
      "icao": "GMMX",
      "alert": "OK",
      "vis_m": 8000,
      "fzfg": false,
      "metar_trigger": false,
      "taf_trigger": false,
      "metar": "METAR GMMX 061130Z 05007KT 8000 -RA SCT010 BKN020 08/07 Q1021 NOSIG",
      "taf": "TAF GMMX 061100Z 0612/0718 02006KT 8000 BKN023 SCT080"
    },
    {
      "icao": "HEGN",
      "alert": "OK",
      "vis_m": 9999,
      "fzfg": false,
      "metar_trigger": false,
      "taf_trigger": false,
      "metar": "METAR HEGN 061100Z 35006KT CAVOK 25/06 Q1019 NOSIG",
      "taf": "TAF HEGN 061100Z 0612/0718 35015KT CAVOK"
    },
    {
      "icao": "HEMA",
      "alert": "OK",
      "vis_m": 6000,
      "fzfg": false,
      "metar_trigger": false,
      "taf_trigger": false,
      "metar": "METAR HEMA 061100Z 35016KT 6000 NSC 25/12 Q1017 NOSIG",
      "taf": "TAF HEMA 061100Z 0612/0718 36016KT 6000 NSC"
    },
    {
      "icao": "HESH",
      "alert": "OK",
      "vis_m": 9999,
      "fzfg": false,
      "metar_trigger": false,
      "taf_trigger": false,
      "metar": "METAR HESH 061100Z 36014KT CAVOK 25/12 Q1019 NOSIG",
      "taf": "TAF HESH 061100Z 0612/0718 02013KT CAVOK"
    },
    {
      "icao": "HESX",
      "alert": "OK",
      "vis_m": 9999,
      "fzfg": false,
      "metar_trigger": false,
      "taf_trigger": false,
      "metar": "METAR HESX 061100Z VRB03KT CAVOK 19/04 Q1020 NOSIG",
      "taf": "TAF HESX 061100Z 0612/0718 VRB03KT 6000 NSC"
    },
    {
      "icao": "LATI",
      "alert": "OK",
      "vis_m": 9999,
      "fzfg": false,
      "metar_trigger": false,
      "taf_trigger": false,
      "metar": "METAR LATI 061120Z 13008KT 100V170 9999 VCTS -RA FEW008 SCT025CB BKN030 13/11 Q1006 NOSIG",
      "taf": ""
    },
    {
      "icao": "LBPD",
      "alert": "OK",
      "vis_m": 9999,
      "fzfg": false,
      "metar_trigger": false,
      "taf_trigger": false,
      "metar": "METAR LBPD 061130Z AUTO 23003KT 170V250 9999 OVC130/// 13/10 Q1009 NOSIG",
      "taf": "TAF LBPD 061100Z 0612/0712 VRB04KT 8000 BKN060"
    },
    {
      "icao": "LBSF",
      "alert": "OK",
      "vis_m": 9999,
      "fzfg": false,
      "metar_trigger": false,
      "taf_trigger": false,
      "metar": "METAR LBSF 061130Z 04005KT 340V070 9999 SCT048 BKN060 13/06 Q1008 NOSIG",
      "taf": "TAF LBSF 061100Z 0612/0712 10012KT 9999 BKN040"
    },
    {
      "icao": "LBWN",
      "alert": "OK",
      "vis_m": 9999,
      "fzfg": false,
      "metar_trigger": false,
      "taf_trigger": false,
      "metar": "METAR LBWN 061130Z 23010KT 9999 BKN037 18/11 Q1010 NOSIG",
      "taf": "TAF LBWN 061100Z 0612/0712 11010KT 9999 SCT030"
    },
    {
      "icao": "LCLK",
      "alert": "OK",
      "vis_m": 9999,
      "fzfg": false,
      "metar_trigger": false,
      "taf_trigger": false,
      "metar": "METAR LCLK 061130Z 07005KT 9999 FEW030 20/13 Q1020 NOSIG",
      "taf": "TAF LCLK 061130Z 0612/0712 04012KT 9999 FEW035"
    },
    {
      "icao": "LCPH",
      "alert": "OK",
      "vis_m": 9999,
      "fzfg": false,
      "metar_trigger": false,
      "taf_trigger": false,
      "metar": "METAR LCPH 061130Z 15011KT 9999 FEW035 21/13 Q1019 NOSIG",
      "taf": "TAF LCPH 061130Z 0612/0712 15012KT 9999 FEW030"
    },
    {
      "icao": "LEAL",
      "alert": "OK",
      "vis_m": 9999,
      "fzfg": false,
      "metar_trigger": false,
      "taf_trigger": false,
      "metar": "METAR LEAL 061130Z 34009KT 320V020 9999 FEW055 10/M02 Q1014 NOSIG",
      "taf": "TAF LEAL 061100Z 0612/0712 02008KT 9999 FEW030 TX12/0614Z TN04/0706Z"
    },
    {
      "icao": "LEBB",
      "alert": "OK",
      "vis_m": 4300,
      "fzfg": false,
      "metar_trigger": false,
      "taf_trigger": false,
      "metar": "METAR LEBB 061130Z 35015G26KT 320V030 4300 RA FEW016 BKN027 BKN045 04/02 Q1023 TEMPO 6000",
      "taf": "TAF LEBB 061100Z 0612/0712 35009KT 9999 SCT020 BKN040 TX09/0712Z TN01/0619Z"
    },
    {
      "icao": "LEBL",
      "alert": "OK",
      "vis_m": 9999,
      "fzfg": false,
      "metar_trigger": false,
      "taf_trigger": false,
      "metar": "METAR LEBL 061130Z 34013KT CAVOK 06/M02 Q1012 NOSIG",
      "taf": "TAF LEBL 061100Z 0612/0712 34013KT CAVOK TX10/0613Z TN01/0706Z"
    },
    {
      "icao": "LECH",
      "alert": "OK",
      "vis_m": 9999,
      "fzfg": false,
      "metar_trigger": false,
      "taf_trigger": false,
      "metar": "METAR LECH 061130Z AUTO 34017KT 290V020 CAVOK 07/M04 Q1012",
      "taf": ""
    },
    {
      "icao": "LEMD",
      "alert": "OK",
      "vis_m": 9999,
      "fzfg": false,
      "metar_trigger": false,
      "taf_trigger": false,
      "metar": "METAR LEMD 061130Z 36015KT 330V050 CAVOK 04/M08 Q1017 NOSIG",
      "taf": "TAF LEMD 061100Z 0612/0718 01010KT CAVOK TX06/0614Z TNM04/0707Z"
    },
    {
      "icao": "LEMG",
      "alert": "OK",
      "vis_m": 9999,
      "fzfg": false,
      "metar_trigger": false,
      "taf_trigger": false,
      "metar": "METAR LEMG 061130Z 30014G25KT CAVOK 09/M03 Q1016 NOSIG",
      "taf": "TAF LEMG 061100Z 0612/0712 30014KT CAVOK TX12/0614Z TN04/0706Z"
    },
    {
      "icao": "LEVC",
      "alert": "OK",
      "vis_m": 9999,
      "fzfg": false,
      "metar_trigger": false,
      "taf_trigger": false,
      "metar": "METAR LEVC 061130Z COR 04004KT 330V110 9999 FEW040 11/M02 Q1013 NOSIG",
      "taf": "TAF LEVC 061100Z 0612/0712 35009KT CAVOK TX12/0614Z TNM01/0706Z"
    },
    {
      "icao": "LEXJ",
      "alert": "OK",
      "vis_m": 9999,
      "fzfg": false,
      "metar_trigger": false,
      "taf_trigger": false,
      "metar": "METAR LEXJ 061130Z 03009KT 350V070 9999 FEW050 08/M02 Q1024",
      "taf": "TAF LEXJ 060800Z 0609/0709 35012KT 9999 SCT045 TX09/0614Z TN04/0619Z"
    },
    {
      "icao": "LEZG",
      "alert": "OK",
      "vis_m": 9999,
      "fzfg": false,
      "metar_trigger": false,
      "taf_trigger": false,
      "metar": "METAR LEZG 061130Z 31024G34KT 280V340 9999 FEW035 07/M03 Q1015 NOSIG",
      "taf": "TAF LEZG 061100Z 0612/0712 32020KT 9999 FEW030 TX07/0615Z TNM01/0706Z"
    },
    {
      "icao": "LEZL",
      "alert": "OK",
      "vis_m": 9999,
      "fzfg": false,
      "metar_trigger": false,
      "taf_trigger": false,
      "metar": "METAR LEZL 061130Z 28003KT CAVOK 09/M00 Q1020 NOSIG",
      "taf": "TAF LEZL 060800Z 0609/0709 VRB03KT CAVOK TX13/0615Z TN02/0707Z"
    },
    {
      "icao": "LFBD",
      "alert": "OK",
      "vis_m": 9999,
      "fzfg": false,
      "metar_trigger": false,
      "taf_trigger": false,
      "metar": "METAR LFBD 061130Z AUTO 01009KT 340V040 CAVOK 03/M02 Q1021",
      "taf": "TAF LFBD 060500Z 0606/0712 03010KT 9999 BKN045 TX04/0614Z TNM03/0700Z"
    },
    {
      "icao": "LFLL",
      "alert": "OK",
      "vis_m": 6000,
      "fzfg": false,
      "metar_trigger": false,
      "taf_trigger": false,
      "metar": "METAR LFLL 061130Z 35014KT 6000 OVC005 M03/M04 Q1017 NOSIG",
      "taf": "TAF LFLL 061100Z 0612/0718 VRB02KT 6000 BKN006"
    },
    {
      "icao": "LFLS",
      "alert": "OK",
      "vis_m": 9999,
      "fzfg": false,
      "metar_trigger": false,
      "taf_trigger": false,
      "metar": "METAR LFLS 061130Z AUTO 36008KT 320V060 9999 OVC008 M04/M05 Q1015 TEMPO 36015G25KT BECMG BKN012",
      "taf": ""
    },
    {
      "icao": "LFMN",
      "alert": "OK",
      "vis_m": 9999,
      "fzfg": false,
      "metar_trigger": false,
      "taf_trigger": false,
      "metar": "METAR LFMN 061130Z 32009KT CAVOK 10/M03 Q1005 BECMG 21005KT",
      "taf": "TAF LFMN 060800Z 0609/0715 33010KT CAVOK"
    },
    {
      "icao": "LFOB",
      "alert": "OK",
      "vis_m": 8000,
      "fzfg": false,
      "metar_trigger": false,
      "taf_trigger": false,
      "metar": "METAR LFOB 061130Z AUTO 00000KT 8000 0400 R30/0500D R12/P5000 // NSC 00/M02 Q1019",
      "taf": "TAF LFOB 060500Z 0606/0706 27005KT 6000 NSC"
    },
    {
      "icao": "LFPO",
      "alert": "OK",
      "vis_m": 8000,
      "fzfg": false,
      "metar_trigger": false,
      "taf_trigger": false,
      "metar": "METAR LFPO 061130Z 23003KT 8000 NSC 01/M02 Q1020 NOSIG",
      "taf": "TAF LFPO 061100Z 0612/0718 27003KT CAVOK"
    },
    {
      "icao": "LFSB",
      "alert": "OK",
      "vis_m": 9999,
      "fzfg": false,
      "metar_trigger": false,
      "taf_trigger": false,
      "metar": "METAR LFSB 061130Z AUTO 16004KT 130V200 9999 FEW014 OVC039 M04/M07 Q1017 NOSIG",
      "taf": "TAF LFSB 061100Z 0612/0712 VRB03KT 9999 FEW015 BKN040"
    },
    {
      "icao": "LGAV",
      "alert": "OK",
      "vis_m": 9999,
      "fzfg": false,
      "metar_trigger": false,
      "taf_trigger": false,
      "metar": "METAR LGAV 061120Z 19017KT 9999 FEW018 SCT030 19/11 Q1014 NOSIG",
      "taf": "TAF LGAV 061100Z 0612/0712 18012KT 9999 FEW020"
    },
    {
      "icao": "LGTS",
      "alert": "OK",
      "vis_m": 9999,
      "fzfg": false,
      "metar_trigger": false,
      "taf_trigger": false,
      "metar": "METAR LGTS 061120Z 15010KT 9999 FEW025 19/10 Q1010 NOSIG",
      "taf": "TAF LGTS 061100Z 0612/0712 14013KT 9999 SCT030"
    },
    {
      "icao": "LHBP",
      "alert": "OK",
      "vis_m": 9999,
      "fzfg": false,
      "metar_trigger": false,
      "taf_trigger": false,
      "metar": "METAR LHBP 061130Z 31006KT CAVOK M02/M05 Q1012 NOSIG",
      "taf": "TAF LHBP 061115Z 0612/0712 32007KT CAVOK"
    },
    {
      "icao": "LHDC",
      "alert": "OK",
      "vis_m": 9999,
      "fzfg": false,
      "metar_trigger": false,
      "taf_trigger": false,
      "metar": "METAR LHDC 061115Z AUTO 03007KT 9999 OVC019 M00/M03 Q1012 NOSIG",
      "taf": "TAF LHDC 061115Z 0612/0621 03006KT 9999 SCT012 OVC020"
    },
    {
      "icao": "LIBD",
      "alert": "OK",
      "vis_m": 7000,
      "fzfg": false,
      "metar_trigger": false,
      "taf_trigger": false,
      "metar": "METAR LIBD 061120Z 07005KT 050V110 7000 OVC006 13/12 Q1003",
      "taf": "TAF LIBD 061100Z 0612/0712 15008KT 6000 BKN007"
    },
    {
      "icao": "LIBG",
      "alert": "OK",
      "vis_m": 8000,
      "fzfg": false,
      "metar_trigger": false,
      "taf_trigger": false,
      "metar": "METAR LIBG 061050Z 19006KT 160V220 8000 SCT010 17/17 Q1004",
      "taf": "TAF LIBG 061100Z 0612/0621 15008KT 9999 SCT015"
    },
    {
      "icao": "LIBP",
      "alert": "OK",
      "vis_m": 9999,
      "fzfg": false,
      "metar_trigger": false,
      "taf_trigger": false,
      "metar": "METAR LIBP 061120Z AUTO 35004KT 310V020 9999 RA OVC010/// 07/06 Q1004",
      "taf": "TAF LIBP 061100Z 0612/0712 31012KT 6000 RA OVC005"
    },
    {
      "icao": "LIBR",
      "alert": "OK",
      "vis_m": 7000,
      "fzfg": false,
      "metar_trigger": false,
      "taf_trigger": false,
      "metar": "METAR LIBR 061120Z 20013KT 7000 SCT015 17/14 Q1004",
      "taf": "TAF LIBR 061100Z 0612/0712 18013KT 9999 BKN015"
    },
    {
      "icao": "LICA",
      "alert": "OK",
      "vis_m": 9999,
      "fzfg": false,
      "metar_trigger": false,
      "taf_trigger": false,
      "metar": "METAR LICA 061120Z AUTO 07008KT 9999 FEW110/// 19/13 Q1004",
      "taf": "TAF LICA 061100Z 0612/0712 07012KT 9999 SCT050"
    },
    {
      "icao": "LICC",
      "alert": "OK",
      "vis_m": 9999,
      "fzfg": false,
      "metar_trigger": false,
      "taf_trigger": false,
      "metar": "METAR LICC 061120Z 24004KT 190V270 9999 FEW035 20/17 Q1005",
      "taf": "TAF LICC 061100Z 0612/0712 26013KT 9999 FEW030"
    },
    {
      "icao": "LICJ",
      "alert": "OK",
      "vis_m": 9000,
      "fzfg": false,
      "metar_trigger": false,
      "taf_trigger": false,
      "metar": "METAR LICJ 061120Z 22020KT 9000 SCT040 18/12 Q1002",
      "taf": "TAF LICJ 061100Z 0612/0712 21016KT 9999 FEW030"
    },
    {
      "icao": "LIMC",
      "alert": "OK",
      "vis_m": 9999,
      "fzfg": false,
      "metar_trigger": false,
      "taf_trigger": false,
      "metar": "METAR LIMC 061120Z VRB02KT CAVOK 05/M06 Q1008 NOSIG",
      "taf": "TAF LIMC 061100Z 0612/0718 VRB04KT CAVOK"
    },
    {
      "icao": "LIME",
      "alert": "OK",
      "vis_m": 9999,
      "fzfg": false,
      "metar_trigger": false,
      "taf_trigger": false,
      "metar": "METAR LIME 061120Z VRB01KT CAVOK 03/M06 Q1008 NOSIG",
      "taf": "TAF LIME 061100Z 0612/0712 VRB03KT CAVOK"
    },
    {
      "icao": "LIMF",
      "alert": "OK",
      "vis_m": 9999,
      "fzfg": false,
      "metar_trigger": false,
      "taf_trigger": false,
      "metar": "METAR LIMF 061120Z 14003KT 100V170 CAVOK 03/M07 Q1008",
      "taf": "TAF LIMF 061100Z 0612/0712 VRB03KT CAVOK"
    },
    {
      "icao": "LIMJ",
      "alert": "OK",
      "vis_m": 9999,
      "fzfg": false,
      "metar_trigger": false,
      "taf_trigger": false,
      "metar": "METAR LIMJ 061120Z 06013G23KT CAVOK 06/M06 Q1006",
      "taf": "TAF LIMJ 061100Z 0612/0712 03016KT CAVOK"
    },
    {
      "icao": "LIPE",
      "alert": "OK",
      "vis_m": 600,
      "fzfg": false,
      "metar_trigger": false,
      "taf_trigger": false,
      "metar": "METAR LIPE 061120Z 29007KT 0600 R12/0800N R30/0800N SN FG VV003 00/00 Q1009",
      "taf": "TAF LIPE 061100Z 0612/0712 28007KT 0800 SN OVC004"
    },
    {
      "icao": "LIPH",
      "alert": "OK",
      "vis_m": 9999,
      "fzfg": false,
      "metar_trigger": false,
      "taf_trigger": false,
      "metar": "METAR LIPH 061120Z 08006KT 9999 BKN070 03/M04 Q1009",
      "taf": "TAF LIPH 061100Z 0612/0712 05006KT 9999 SCT070"
    },
    {
      "icao": "LIPQ",
      "alert": "OK",
      "vis_m": 9999,
      "fzfg": false,
      "metar_trigger": false,
      "taf_trigger": false,
      "metar": "METAR LIPQ 061120Z AUTO 10004KT 9999 -RASN OVC036/// 02/M02 Q1010",
      "taf": "TAF LIPQ 061100Z 0612/0712 10014KT 9999 SCT030"
    },
    {
      "icao": "LIPR",
      "alert": "OK",
      "vis_m": 1300,
      "fzfg": false,
      "metar_trigger": false,
      "taf_trigger": false,
      "metar": "METAR LIPR 061120Z 29012KT 1300 R30/1600N SN BR BKN005 BKN013 00/00 Q1007",
      "taf": "TAF LIPR 061100Z 0612/0712 31012KT 1200 SN OVC004"
    },
    {
      "icao": "LIPX",
      "alert": "OK",
      "vis_m": 9999,
      "fzfg": false,
      "metar_trigger": false,
      "taf_trigger": false,
      "metar": "METAR LIPX 061120Z 15002KT CAVOK 04/M06 Q1009",
      "taf": "TAF LIPX 061100Z 0612/0712 VRB04KT CAVOK"
    },
    {
      "icao": "LIPY",
      "alert": "OK",
      "vis_m": 5000,
      "fzfg": false,
      "metar_trigger": false,
      "taf_trigger": false,
      "metar": "METAR LIPY 061120Z AUTO 30008KT 260V340 5000 -RA OVC007/// 02/02 Q1006 REDZ",
      "taf": "TAF LIPY 061100Z 0612/0712 32013KT 6000 RA OVC005"
    },
    {
      "icao": "LIPZ",
      "alert": "OK",
      "vis_m": 9999,
      "fzfg": false,
      "metar_trigger": false,
      "taf_trigger": false,
      "metar": "METAR LIPZ 061120Z 08012KT 9999 FEW020 BKN060 02/00 Q1009 NOSIG",
      "taf": "TAF LIPZ 061100Z 0612/0718 08016KT 9999 SCT040"
    },
    {
      "icao": "LIRF",
      "alert": "OK",
      "vis_m": 8000,
      "fzfg": false,
      "metar_trigger": false,
      "taf_trigger": false,
      "metar": "METAR LIRF 061120Z 14009KT 100V190 8000 -SHRA FEW004 SCT010 BKN030 13/13 Q0998 NOSIG",
      "taf": "TAF LIRF 061100Z 0612/0718 34012KT 9999 SCT020"
    },
    {
      "icao": "LIRN",
      "alert": "OK",
      "vis_m": 9999,
      "fzfg": false,
      "metar_trigger": false,
      "taf_trigger": false,
      "metar": "METAR LIRN 061120Z VRB04KT 9999 FEW035 BKN055 16/10 Q1001 NOSIG",
      "taf": "TAF LIRN 061100Z 0612/0712 18010KT 9999 SCT020 SCT050"
    },
    {
      "icao": "LIRP",
      "alert": "OK",
      "vis_m": 9999,
      "fzfg": false,
      "metar_trigger": false,
      "taf_trigger": false,
      "metar": "METAR LIRP 061115Z 12010KT 9999 FEW030 BKN060 04/03 Q1005 NOSIG",
      "taf": "TAF LIRP 061100Z 0612/0712 12008KT 9999 SCT030 BKN070"
    },
    {
      "icao": "LIRZ",
      "alert": "OK",
      "vis_m": 9999,
      "fzfg": false,
      "metar_trigger": false,
      "taf_trigger": false,
      "metar": "METAR LIRZ 061120Z AUTO 01012KT 9999 -RA OVC022/// 06/03 Q1001",
      "taf": "TAF LIRZ 061100Z 0612/0712 01010KT 6000 RA BKN020"
    },
    {
      "icao": "LJLJ",
      "alert": "OK",
      "vis_m": 1000,
      "fzfg": false,
      "metar_trigger": false,
      "taf_trigger": false,
      "metar": "METAR LJLJ 061130Z 11002KT 1000 R30/1100N -SN BR BKN006 OVC010 M03/M04 Q1012 TEMPO BKN003",
      "taf": "TAF LJLJ 061100Z 0612/0712 VRB02KT 1500 -SN BKN006 OVC020"
    },
    {
      "icao": "LKMT",
      "alert": "OK",
      "vis_m": 9999,
      "fzfg": false,
      "metar_trigger": false,
      "taf_trigger": false,
      "metar": "METAR LKMT 061130Z VRB01KT 9999 OVC042 M03/M08 Q1015 NOSIG",
      "taf": "TAF LKMT 061100Z 0612/0712 VRB02KT CAVOK"
    },
    {
      "icao": "LKPR",
      "alert": "OK",
      "vis_m": 9999,
      "fzfg": false,
      "metar_trigger": false,
      "taf_trigger": false,
      "metar": "METAR LKPR 061130Z 22007KT 9999 FEW041 M04/M08 Q1014 NOSIG",
      "taf": "TAF LKPR 061100Z 0612/0718 21007KT CAVOK"
    },
    {
      "icao": "LLBG",
      "alert": "OK",
      "vis_m": 9999,
      "fzfg": false,
      "metar_trigger": false,
      "taf_trigger": false,
      "metar": "METAR LLBG 061120Z 36004KT 300V040 CAVOK 21/13 Q1019 NOSIG",
      "taf": "TAF LLBG 061102Z 0612/0712 32006KT CAVOK"
    },
    {
      "icao": "LMML",
      "alert": "OK",
      "vis_m": 8000,
      "fzfg": false,
      "metar_trigger": false,
      "taf_trigger": false,
      "metar": "METAR LMML 061115Z 20012G22KT 160V220 8000 NSC 19/16 Q1006 NOSIG",
      "taf": "TAF LMML 061100Z 0612/0712 20015KT 8000 NSC"
    },
    {
      "icao": "LOWW",
      "alert": "OK",
      "vis_m": 9999,
      "fzfg": false,
      "metar_trigger": false,
      "taf_trigger": false,
      "metar": "METAR LOWW 061120Z 34013KT CAVOK M01/M10 Q1015 NOSIG",
      "taf": "TAF LOWW 061115Z 0612/0718 32012KT 9999 FEW050 TXM01/0612Z TNM04/0704Z"
    },
    {
      "icao": "LPFR",
      "alert": "OK",
      "vis_m": 9999,
      "fzfg": false,
      "metar_trigger": false,
      "taf_trigger": false,
      "metar": "METAR LPFR 061130Z 36012KT CAVOK 12/M01 Q1022",
      "taf": "TAF LPFR 061100Z 0612/0712 36013KT CAVOK"
    },
    {
      "icao": "LPMA",
      "alert": "OK",
      "vis_m": 9999,
      "fzfg": false,
      "metar_trigger": false,
      "taf_trigger": false,
      "metar": "METAR LPMA 061130Z 03013KT 360V060 9999 SCT015 FEW018TCU 17/09 Q1028",
      "taf": "TAF LPMA 061100Z 0612/0712 02015KT 9999 SCT015"
    },
    {
      "icao": "LPPR",
      "alert": "OK",
      "vis_m": 9999,
      "fzfg": false,
      "metar_trigger": false,
      "taf_trigger": false,
      "metar": "METAR LPPR 061130Z 36009KT 340V040 9999 FEW040 08/01 Q1026",
      "taf": "TAF LPPR 061100Z 0612/0712 01008KT CAVOK"
    },
    {
      "icao": "LPPS",
      "alert": "OK",
      "vis_m": 9999,
      "fzfg": false,
      "metar_trigger": false,
      "taf_trigger": false,
      "metar": "METAR LPPS 061130Z 04012KT 010V070 9999 FEW015 16/08 Q1028",
      "taf": "TAF LPPS 061100Z 0612/0718 03013KT 9999 FEW015 SCT030"
    },
    {
      "icao": "LPPT",
      "alert": "OK",
      "vis_m": 9999,
      "fzfg": false,
      "metar_trigger": false,
      "taf_trigger": false,
      "metar": "METAR LPPT 061130Z 34017KT 9999 FEW025 10/03 Q1024",
      "taf": "TAF LPPT 061100Z 0612/0718 34015KT CAVOK"
    },
    {
      "icao": "LQBK",
      "alert": "OK",
      "vis_m": 2500,
      "fzfg": false,
      "metar_trigger": false,
      "taf_trigger": false,
      "metar": "METAR LQBK 061130Z 32005KT 2500 -SN BR SCT005 OVC013 M02/M03 Q1013 TEMPO SN",
      "taf": "TAF LQBK 061100Z 0612/0712 33007KT 7000 -SN SCT010 OVC020 TXM01/0613Z TNM04/0705Z"
    },
    {
      "icao": "LQSA",
      "alert": "OK",
      "vis_m": 7000,
      "fzfg": false,
      "metar_trigger": false,
      "taf_trigger": false,
      "metar": "METAR LQSA 061130Z 31003KT 7000 BKN007 M00/M01 Q1008 NOSIG",
      "taf": ""
    },
    {
      "icao": "LQTZ",
      "alert": "OK",
      "vis_m": 4100,
      "fzfg": false,
      "metar_trigger": false,
      "taf_trigger": false,
      "metar": "METAR LQTZ 061130Z 28004KT 4100 BR BKN005 OVC010 M01/M01 Q1011",
      "taf": "TAF LQTZ 061100Z 0612/0712 30005KT 4000 BR BKN004 OVC010 TXM00/0613Z TNM06/0705Z"
    },
    {
      "icao": "LRBC",
      "alert": "OK",
      "vis_m": 3000,
      "fzfg": false,
      "metar_trigger": false,
      "taf_trigger": false,
      "metar": "METAR LRBC 061130Z 15005KT 3000 BR OVC002 01/01 Q1009",
      "taf": "TAF LRBC 061100Z 0612/0621 18004KT 3000 BR OVC002"
    },
    {
      "icao": "LRBS",
      "alert": "OK",
      "vis_m": 9999,
      "fzfg": false,
      "metar_trigger": false,
      "taf_trigger": false,
      "metar": "METAR LRBS 061130Z 00000KT 9999 SCT005 05/05 Q1010 NOSIG",
      "taf": "TAF LRBS 061100Z 0612/0712 VRB04KT 9999 SCT005"
    },
    {
      "icao": "LRBV",
      "alert": "OK",
      "vis_m": 9999,
      "fzfg": false,
      "metar_trigger": false,
      "taf_trigger": false,
      "metar": "METAR LRBV 061130Z 34004KT 310V030 9999 OVC075 05/02 Q1009",
      "taf": "TAF LRBV 061100Z 0612/0621 VRB04KT 9999 BKN045"
    },
    {
      "icao": "LRCL",
      "alert": "OK",
      "vis_m": 9000,
      "fzfg": false,
      "metar_trigger": false,
      "taf_trigger": false,
      "metar": "METAR LRCL 061130Z AUTO 00000KT 9000 OVC009/// 03/01 Q1010 RERA",
      "taf": "TAF LRCL 061100Z 0612/0621 29005KT 9999 BKN010 OVC040"
    },
    {
      "icao": "LRCV",
      "alert": "OK",
      "vis_m": 3000,
      "fzfg": false,
      "metar_trigger": false,
      "taf_trigger": false,
      "metar": "METAR LRCV 061130Z 31005KT 3000 -RA BR OVC002 02/02 Q1011 REDZ",
      "taf": "TAF LRCV 061100Z 0612/0621 VRB04KT 5000 -RA BR BKN005 OVC045"
    },
    {
      "icao": "LRIA",
      "alert": "OK",
      "vis_m": 300,
      "fzfg": false,
      "metar_trigger": false,
      "taf_trigger": false,
      "metar": "METAR LRIA 061130Z 07002KT 0300 R14/0650N FG VV002 02/02 Q1010",
      "taf": "TAF LRIA 061100Z 0612/0621 VRB04KT 0300 FG VV002"
    },
    {
      "icao": "LROP",
      "alert": "OK",
      "vis_m": 9999,
      "fzfg": false,
      "metar_trigger": false,
      "taf_trigger": false,
      "metar": "METAR LROP 061130Z 22003KT 150V300 9999 SCT005 04/04 Q1010 NOSIG",
      "taf": "TAF LROP 061100Z 0612/0712 VRB04KT 9999 SCT005"
    },
    {
      "icao": "LRSB",
      "alert": "OK",
      "vis_m": 5000,
      "fzfg": false,
      "metar_trigger": false,
      "taf_trigger": false,
      "metar": "METAR LRSB 061130Z 06003KT 5000 BR FEW004 BKN007 BKN080 03/02 Q1009 TEMPO 3000 BR OVC005",
      "taf": "TAF LRSB 061100Z 0612/0712 VRB04KT 5000 BR SCT015 SCT060"
    },
    {
      "icao": "LRSM",
      "alert": "OK",
      "vis_m": 9999,
      "fzfg": false,
      "metar_trigger": false,
      "taf_trigger": false,
      "metar": "METAR LRSM 061130Z 26004KT 9999 FEW004 BKN007 01/00 Q1011",
      "taf": "TAF LRSM 061100Z 0612/0621 VRB04KT 9999 BKN005"
    },
    {
      "icao": "LRSV",
      "alert": "OK",
      "vis_m": 4000,
      "fzfg": false,
      "metar_trigger": false,
      "taf_trigger": false,
      "metar": "METAR LRSV 061130Z 35006KT 4000 -FZRA BR SCT020 00/00 Q1008",
      "taf": "TAF LRSV 061100Z 0612/0621 35008KT 5000 -FZRA BR SCT010"
    },
    {
      "icao": "LRTM",
      "alert": "OK",
      "vis_m": 1200,
      "fzfg": false,
      "metar_trigger": false,
      "taf_trigger": false,
      "metar": "METAR LRTM 061130Z 24003KT 1200 R07/1300N -RA BR SCT004 BKN007 OVC015 01/01 Q1010",
      "taf": "TAF LRTM 061100Z 0612/0621 VRB04KT 3000 BR BKN010 BKN035"
    },
    {
      "icao": "LRTR",
      "alert": "OK",
      "vis_m": 3500,
      "fzfg": false,
      "metar_trigger": false,
      "taf_trigger": false,
      "metar": "METAR LRTR 061130Z 20004KT 3500 BR SCT002 BKN003 OVC004 00/M00 Q1012",
      "taf": "TAF LRTR 061100Z 0612/0712 VRB04KT 3000 BR BKN002"
    },
    {
      "icao": "LTAC",
      "alert": "OK",
      "vis_m": 6000,
      "fzfg": false,
      "metar_trigger": false,
      "taf_trigger": false,
      "metar": "METAR LTAC 061120Z VRB02KT 6000 NSC 07/01 Q1020 NOSIG RMK RWY21C VRB01KT RWY03L VRB02KT RWY21R 00000KT RWY03R 00000KT RWY21L 00000KT",
      "taf": "TAF LTAC 061040Z 0612/0712 VRB02KT CAVOK"
    },
    {
      "icao": "LTFM",
      "alert": "OK",
      "vis_m": 9999,
      "fzfg": false,
      "metar_trigger": false,
      "taf_trigger": false,
      "metar": "METAR LTFM 061120Z 21020KT CAVOK 17/06 Q1014 NOSIG RMK RWY17L 21020KT RWY34L 19017KT RWY16R 21019KT RWY36 21021KT RWY18 21022G32KT",
      "taf": "TAF LTFM 061040Z 0612/0718 19015G25KT CAVOK"
    },
    {
      "icao": "LUKK",
      "alert": "OK",
      "vis_m": 250,
      "fzfg": false,
      "metar_trigger": false,
      "taf_trigger": false,
      "metar": "METAR LUKK 061130Z 12005KT 0250 R08/0300N FG VV001 04/04 Q1010 NOSIG",
      "taf": "TAF LUKK 061116Z 0612/0712 VRB06KT 0300 FG VV001"
    },
    {
      "icao": "LWOH",
      "alert": "OK",
      "vis_m": 9999,
      "fzfg": false,
      "metar_trigger": false,
      "taf_trigger": false,
      "metar": "METAR LWOH 061120Z 03005KT 9999 -RA SCT010 OVC040 09/08 Q1008",
      "taf": "TAF LWOH 061130Z 0612/0712 VRB02KT 9999 -RA SCT015 OVC040"
    },
    {
      "icao": "LWSK",
      "alert": "OK",
      "vis_m": 7000,
      "fzfg": false,
      "metar_trigger": false,
      "taf_trigger": false,
      "metar": "METAR LWSK 061120Z VRB02KT 7000 SCT017 BKN040 BKN075 11/09 Q1009 NOSIG",
      "taf": "TAF LWSK 061130Z 0612/0712 VRB02KT 9999 SCT020 BKN045 BKN075"
    },
    {
      "icao": "LYBE",
      "alert": "OK",
      "vis_m": 9999,
      "fzfg": false,
      "metar_trigger": false,
      "taf_trigger": false,
      "metar": "METAR LYBE 061130Z 31004KT 9999 BKN007 M01/M02 Q1013 REFZDZ NOSIG",
      "taf": "TAF LYBE 061100Z 0612/0712 30007KT 7000 BKN007 BKN025 TXM01/0613Z TNM03/0706Z"
    },
    {
      "icao": "LYNI",
      "alert": "OK",
      "vis_m": 9999,
      "fzfg": false,
      "metar_trigger": false,
      "taf_trigger": false,
      "metar": "METAR LYNI 061130Z 33012KT 280V360 9999 -RASN SCT005 BKN017 BKN035 02/01 Q1010 NOSIG",
      "taf": "TAF LYNI 061100Z 0612/0712 33010KT 9999 BKN010 BKN030 BKN070 TX02/0613Z TNM02/0706Z"
    },
    {
      "icao": "LYPG",
      "alert": "OK",
      "vis_m": 9999,
      "fzfg": false,
      "metar_trigger": false,
      "taf_trigger": false,
      "metar": "METAR LYPG 061130Z 25003KT 220V280 9999 FEW015 SCT034 OVC070 12/11 Q1006 NOSIG",
      "taf": "TAF LYPG 061100Z 0612/0712 14005KT 8000 SCT005 BKN030 TX14/0613Z TN11/0705Z"
    },
    {
      "icao": "LZIB",
      "alert": "OK",
      "vis_m": 9999,
      "fzfg": false,
      "metar_trigger": false,
      "taf_trigger": false,
      "metar": "METAR LZIB 061130Z 33011KT CAVOK M01/M09 Q1014 NOSIG",
      "taf": "TAF LZIB 061115Z 0612/0712 33009KT 9999 FEW020"
    },
    {
      "icao": "LZKZ",
      "alert": "OK",
      "vis_m": 9999,
      "fzfg": false,
      "metar_trigger": false,
      "taf_trigger": false,
      "metar": "METAR LZKZ 061130Z 02009KT 9999 BKN040 M00/M04 Q1011 NOSIG",
      "taf": "TAF LZKZ 061115Z 0612/0712 03015KT 9999 BKN040"
    },
    {
      "icao": "LZTT",
      "alert": "OK",
      "vis_m": 9999,
      "fzfg": false,
      "metar_trigger": false,
      "taf_trigger": false,
      "metar": "METAR LZTT 061130Z VRB03KT 9999 SCT016 BKN043 M04/M08 Q1009 NOSIG",
      "taf": "TAF LZTT 061115Z 0612/0712 26009KT 9999 SCT016 BKN050"
    },
    {
      "icao": "OEJN",
      "alert": "OK",
      "vis_m": 7000,
      "fzfg": false,
      "metar_trigger": false,
      "taf_trigger": false,
      "metar": "METAR OEJN 061100Z 25005KT 7000 FEW040 33/07 Q1014 NOSIG",
      "taf": "TAF OEJN 061100Z 0612/0718 30010KT 7000 NSC"
    },
    {
      "icao": "OEMA",
      "alert": "OK",
      "vis_m": 6000,
      "fzfg": false,
      "metar_trigger": false,
      "taf_trigger": false,
      "metar": "METAR OEMA 061100Z 08005KT 6000 NSC 25/02 Q1021 NOSIG",
      "taf": "TAF OEMA 061100Z 0612/0718 07010KT 7000 NSC"
    },
    {
      "icao": "OJAI",
      "alert": "OK",
      "vis_m": 5000,
      "fzfg": false,
      "metar_trigger": false,
      "taf_trigger": false,
      "metar": "METAR OJAI 061100Z 08010KT 5000 HZ NSC 14/01 Q1022 NOSIG",
      "taf": "TAF OJAI 061100Z 0612/0718 11008KT 5000 HZ NSC"
    },
    {
      "icao": "OMAA",
      "alert": "OK",
      "vis_m": 9999,
      "fzfg": false,
      "metar_trigger": false,
      "taf_trigger": false,
      "metar": "METAR OMAA 061100Z 32013KT 9999 FEW045 25/10 Q1019 NOSIG",
      "taf": "TAF OMAA 061100Z 0612/0718 33012KT 8000 FEW045"
    },
    {
      "icao": "OMDB",
      "alert": "OK",
      "vis_m": 9999,
      "fzfg": false,
      "metar_trigger": false,
      "taf_trigger": false,
      "metar": "METAR OMDB 061130Z 34014KT 320V020 CAVOK 25/11 Q1019 NOSIG",
      "taf": "TAF OMDB 061100Z 0612/0718 35012KT 8000 NSC"
    },
    {
      "icao": "UAAA",
      "alert": "OK",
      "vis_m": 4500,
      "fzfg": false,
      "metar_trigger": false,
      "taf_trigger": false,
      "metar": "METAR UAAA 061130Z 04002MPS 4500 BR NSC 02/M03 Q1028 NOSIG",
      "taf": "TAF UAAA 061100Z 0612/0712 22003MPS 3100 BR FU BKN011 BKN050 TX03/0709Z TNM04/0701Z"
    },
    {
      "icao": "UBBB",
      "alert": "OK",
      "vis_m": 9999,
      "fzfg": false,
      "metar_trigger": false,
      "taf_trigger": false,
      "metar": "METAR UBBB 061130Z 14010KT 9999 BKN019 11/07 Q1024 NOSIG",
      "taf": "TAF UBBB 061101Z 0612/0712 16006KT 9999 BKN025 TX12/0612Z TN04/0703Z"
    },
    {
      "icao": "UDSG",
      "alert": "OK",
      "vis_m": 9000,
      "fzfg": false,
      "metar_trigger": false,
      "taf_trigger": false,
      "metar": "METAR UDSG 061130Z 23001KT 9000 NSC M07/M13 Q1028 NOSIG",
      "taf": "TAF UDSG 061058Z 0612/0712 VRB06KT 9999 FEW040"
    },
    {
      "icao": "UDYZ",
      "alert": "OK",
      "vis_m": 4600,
      "fzfg": false,
      "metar_trigger": false,
      "taf_trigger": false,
      "metar": "METAR UDYZ 061130Z VRB01KT 4600 BR NSC M03/M09 Q1031 NOSIG",
      "taf": "TAF UDYZ 061100Z 0612/0712 VRB04KT 3500 BR FEW040"
    },
    {
      "icao": "UGKO",
      "alert": "OK",
      "vis_m": 9999,
      "fzfg": false,
      "metar_trigger": false,
      "taf_trigger": false,
      "metar": "METAR UGKO 061130Z 10015KT CAVOK 16/01 Q1017 NOSIG",
      "taf": "TAF UGKO 061100Z 0612/0712 09008KT CAVOK TX17/0712Z TN03/0703Z"
    }
  ]
}