{
  "ts_utc": "2025-12-27T22:11:56Z",
  "threshold_m": 150,
  "source": "stations_override.txt (ICAO list) + aviationweather.gov (METAR/TAF raw)",
  "station_count": 159,
  "stations": [
    {
      "icao": "BIKF",
      "alert": "OK",
      "vis_m": 9999,
      "fzfg": false,
      "metar_trigger": false,
      "taf_trigger": false,
      "metar": "METAR BIKF 272200Z 23009KT 9999 -RA BR BKN004 BKN013 OVC042 07/07 Q1038",
      "taf": "TAF BIKF 271942Z 2721/2821 23015KT 9999 SCT010 BKN020 TX07/2721Z TN03/2821Z"
    },
    {
      "icao": "BKPR",
      "alert": "OK",
      "vis_m": 7000,
      "fzfg": false,
      "metar_trigger": false,
      "taf_trigger": false,
      "metar": "METAR BKPR 272200Z 33003KT 7000 NSC M03/M03 Q1020 NOSIG",
      "taf": "TAF BKPR 271730Z 2718/2818 32008KT CAVOK"
    },
    {
      "icao": "EBCI",
      "alert": "OK",
      "vis_m": 800,
      "fzfg": false,
      "metar_trigger": false,
      "taf_trigger": false,
      "metar": "METAR EBCI 272150Z 06008KT 0800 R24/1600N FG SCT001 OVC002 01/01 Q1032 TEMPO 0800 FG BKN001",
      "taf": "TAF EBCI 271700Z 2718/2824 06006KT 1800 BR BKN002"
    },
    {
      "icao": "EDDB",
      "alert": "OK",
      "vis_m": 9999,
      "fzfg": false,
      "metar_trigger": false,
      "taf_trigger": false,
      "metar": "METAR EDDB 272150Z AUTO 31007KT CAVOK 02/01 Q1027 NOSIG",
      "taf": "TAF EDDB 271700Z 2718/2818 26010KT 9000 BKN007"
    },
    {
      "icao": "EDDH",
      "alert": "OK",
      "vis_m": 800,
      "fzfg": true,
      "metar_trigger": false,
      "taf_trigger": false,
      "metar": "METAR EDDH 272150Z AUTO VRB01KT 0800 0550 R05/1700U R33/0900U FZFG FEW010 M02/M02 Q1030 TEMPO 0500 OVC001",
      "taf": ""
    },
    {
      "icao": "EDDK",
      "alert": "OK",
      "vis_m": 9999,
      "fzfg": false,
      "metar_trigger": false,
      "taf_trigger": false,
      "metar": "METAR EDDK 272150Z AUTO VRB02KT 9999 BKN005 OVC013 M00/M02 Q1032 TEMPO 4000 BR BKN003",
      "taf": "TAF EDDK 271700Z 2718/2824 VRB03KT CAVOK"
    },
    {
      "icao": "EDDN",
      "alert": "OK",
      "vis_m": 9999,
      "fzfg": false,
      "metar_trigger": false,
      "taf_trigger": false,
      "metar": "METAR EDDN 272150Z AUTO VRB02KT CAVOK M04/M06 Q1028",
      "taf": "TAF EDDN 271700Z 2718/2818 VRB02KT CAVOK"
    },
    {
      "icao": "EDDS",
      "alert": "OK",
      "vis_m": 8000,
      "fzfg": false,
      "metar_trigger": false,
      "taf_trigger": false,
      "metar": "METAR EDDS 272150Z AUTO 08003KT 040V170 8000 NCD M04/M05 Q1028",
      "taf": "TAF EDDS 271700Z 2718/2818 35002KT CAVOK"
    },
    {
      "icao": "EDFH",
      "alert": "OK",
      "vis_m": 9999,
      "fzfg": false,
      "metar_trigger": false,
      "taf_trigger": false,
      "metar": "METAR EDFH 272150Z 01005KT 350V050 CAVOK M01/M06 Q1029",
      "taf": "TAF EDFH 271700Z 2718/2818 05002KT CAVOK"
    },
    {
      "icao": "EDJA",
      "alert": "OK",
      "vis_m": 1900,
      "fzfg": true,
      "metar_trigger": false,
      "taf_trigger": false,
      "metar": "METAR EDJA 272150Z VRB02KT 1900 R06/1300D FZFG VV/// M04/M05 Q1028",
      "taf": "TAF EDJA 271700Z 2718/2803 VRB02KT 0700 FZFG OVC002"
    },
    {
      "icao": "EDLW",
      "alert": "OK",
      "vis_m": 1600,
      "fzfg": false,
      "metar_trigger": false,
      "taf_trigger": false,
      "metar": "METAR EDLW 272150Z 18004KT 1600 BR OVC002 01/01 Q1031",
      "taf": "TAF EDLW 271700Z 2718/2818 VRB03KT 4000 -DZ BR OVC005"
    },
    {
      "icao": "EDNY",
      "alert": "OK",
      "vis_m": 7000,
      "fzfg": false,
      "metar_trigger": false,
      "taf_trigger": false,
      "metar": "METAR EDNY 272150Z AUTO 02003KT 350V050 7000 // OVC005/// M02/M02 Q1029",
      "taf": "TAF EDNY 271700Z 2718/2803 05004KT 9999 OVC010"
    },
    {
      "icao": "EDSB",
      "alert": "OK",
      "vis_m": 1800,
      "fzfg": false,
      "metar_trigger": false,
      "taf_trigger": false,
      "metar": "METAR EDSB 272150Z 20003KT 1800 BR NSC M03/M03 Q1029",
      "taf": ""
    },
    {
      "icao": "EETN",
      "alert": "OK",
      "vis_m": 9999,
      "fzfg": false,
      "metar_trigger": false,
      "taf_trigger": false,
      "metar": "METAR EETN 272150Z 34022G34KT 9999 OVC025 03/M01 Q0999 TEMPO 34024G42KT",
      "taf": "TAF EETN 271730Z 2718/2818 31020G32KT 9999 BKN020"
    },
    {
      "icao": "EFTU",
      "alert": "OK",
      "vis_m": 9999,
      "fzfg": false,
      "metar_trigger": false,
      "taf_trigger": false,
      "metar": "METAR EFTU 272150Z AUTO 34015G28KT 300V030 9999 BKN048 02/M07 Q1006",
      "taf": ""
    },
    {
      "icao": "EGBB",
      "alert": "OK",
      "vis_m": 8000,
      "fzfg": false,
      "metar_trigger": false,
      "taf_trigger": false,
      "metar": "METAR EGBB 272150Z 07009KT 020V110 8000 -DZ BKN009 06/04 Q1037 REDZ",
      "taf": ""
    },
    {
      "icao": "EGGP",
      "alert": "OK",
      "vis_m": 9999,
      "fzfg": false,
      "metar_trigger": false,
      "taf_trigger": false,
      "metar": "METAR EGGP 272150Z 08008KT 9999 OVC023 07/03 Q1038",
      "taf": "TAF EGGP 271658Z 2718/2818 03006KT 9999 BKN020"
    },
    {
      "icao": "EGGW",
      "alert": "OK",
      "vis_m": 9000,
      "fzfg": false,
      "metar_trigger": false,
      "taf_trigger": false,
      "metar": "METAR EGGW 272150Z COR 06009KT 9000 -DZ OVC011 05/04 Q1035",
      "taf": "TAF EGGW 271700Z 2718/2818 04012KT 9999 BKN015"
    },
    {
      "icao": "EGKK",
      "alert": "OK",
      "vis_m": 9000,
      "fzfg": false,
      "metar_trigger": false,
      "taf_trigger": false,
      "metar": "METAR EGKK 272150Z 04013KT 9000 BKN008 07/06 Q1033",
      "taf": ""
    },
    {
      "icao": "EGNM",
      "alert": "OK",
      "vis_m": 9999,
      "fzfg": false,
      "metar_trigger": false,
      "taf_trigger": false,
      "metar": "METAR EGNM 272150Z 06008KT 010V080 9999 BKN021 05/03 Q1038",
      "taf": ""
    },
    {
      "icao": "EGPD",
      "alert": "OK",
      "vis_m": 9999,
      "fzfg": false,
      "metar_trigger": false,
      "taf_trigger": false,
      "metar": "METAR EGPD 272150Z COR AUTO 35003KT 330V030 9999 OVC027 04/01 Q1042 NOSIG",
      "taf": "TAF EGPD 271654Z 2718/2818 32006KT 9999 SCT015"
    },
    {
      "icao": "EGPF",
      "alert": "OK",
      "vis_m": 9999,
      "fzfg": false,
      "metar_trigger": false,
      "taf_trigger": false,
      "metar": "METAR EGPF 272150Z AUTO 06012KT 9999 OVC028 07/02 Q1041",
      "taf": "TAF EGPF 271657Z 2718/2818 06006KT 9999 BKN014"
    },
    {
      "icao": "EHBK",
      "alert": "OK",
      "vis_m": 900,
      "fzfg": false,
      "metar_trigger": false,
      "taf_trigger": false,
      "metar": "METAR EHBK 272155Z AUTO VRB02KT 0900 R03/0900D FG VV000 02/02 Q1032",
      "taf": "TAF EHBK 271708Z 2718/2824 05005KT 9999 BKN004"
    },
    {
      "icao": "EHEH",
      "alert": "OK",
      "vis_m": 2700,
      "fzfg": false,
      "metar_trigger": false,
      "taf_trigger": false,
      "metar": "METAR EHEH 272155Z AUTO 35002KT 2700 BR SCT014 OVC016 03/03 Q1033 YLO",
      "taf": "TAF EHEH 271729Z 2718/2824 VRB02KT 3000 BR SCT003 OVC005"
    },
    {
      "icao": "EKBI",
      "alert": "OK",
      "vis_m": 9999,
      "fzfg": false,
      "metar_trigger": false,
      "taf_trigger": false,
      "metar": "METAR EKBI 272150Z AUTO 03003KT 9999 FZBCFG NCD M02/M02 Q1032",
      "taf": ""
    },
    {
      "icao": "EKCH",
      "alert": "OK",
      "vis_m": 9999,
      "fzfg": false,
      "metar_trigger": false,
      "taf_trigger": false,
      "metar": "METAR EKCH 272150Z AUTO 35020KT 9999 NCD 05/M04 Q1028 NOSIG",
      "taf": "TAF EKCH 272027Z 2721/2821 34015KT CAVOK"
    },
    {
      "icao": "ENAL",
      "alert": "OK",
      "vis_m": 9999,
      "fzfg": false,
      "metar_trigger": false,
      "taf_trigger": false,
      "metar": "METAR ENAL 272150Z 31004KT 9999 BKN037 04/M02 Q1037",
      "taf": ""
    },
    {
      "icao": "ENBR",
      "alert": "OK",
      "vis_m": 9999,
      "fzfg": false,
      "metar_trigger": false,
      "taf_trigger": false,
      "metar": "METAR ENBR 272150Z 33007KT CAVOK 02/M02 Q1037 RMK WIND 1200FT 35013KT",
      "taf": "TAF ENBR 271700Z 2718/2818 34008KT 9999 FEW035 SCT050"
    },
    {
      "icao": "ENGM",
      "alert": "OK",
      "vis_m": 9999,
      "fzfg": false,
      "metar_trigger": false,
      "taf_trigger": false,
      "metar": "METAR ENGM 272150Z 31005KT 260V360 CAVOK 01/M09 Q1030 NOSIG",
      "taf": "TAF ENGM 271700Z 2718/2818 32005KT CAVOK"
    },
    {
      "icao": "ENHD",
      "alert": "OK",
      "vis_m": 9999,
      "fzfg": false,
      "metar_trigger": false,
      "taf_trigger": false,
      "metar": "METAR ENHD 272150Z AUTO 36020KT 9999 NCD 05/M01 Q1036",
      "taf": "TAF ENHD 271400Z 2715/2723 01028G38KT 9999 SCT035"
    },
    {
      "icao": "ENTC",
      "alert": "OK",
      "vis_m": 2000,
      "fzfg": false,
      "metar_trigger": false,
      "taf_trigger": false,
      "metar": "METAR ENTC 272150Z 17007KT 2000 -SHSN FEW009 SCT017 BKN050 M03/M04 Q1013 RMK WIND 2600FT 30030KT",
      "taf": "TAF ENTC 271700Z 2718/2818 32018KT 9999 SCT018CB BKN025"
    },
    {
      "icao": "ENTO",
      "alert": "OK",
      "vis_m": 9999,
      "fzfg": false,
      "metar_trigger": false,
      "taf_trigger": false,
      "metar": "METAR ENTO 272150Z AUTO 34005KT 320V020 9999 // NCD 00/M08 Q1032",
      "taf": "TAF ENTO 271700Z 2718/2818 31008KT CAVOK"
    },
    {
      "icao": "ENVA",
      "alert": "OK",
      "vis_m": 9999,
      "fzfg": false,
      "metar_trigger": false,
      "taf_trigger": false,
      "metar": "METAR ENVA 272150Z 29017KT 9999 FEW034 BKN046 03/M02 Q1031 RMK WIND 670FT 30027KT",
      "taf": "TAF ENVA 271700Z 2718/2818 29018KT 9999 -SHRASN FEW015TCU SCT030"
    },
    {
      "icao": "ENZV",
      "alert": "OK",
      "vis_m": 9999,
      "fzfg": false,
      "metar_trigger": false,
      "taf_trigger": false,
      "metar": "METAR ENZV 272150Z 02016G26KT CAVOK 04/M01 Q1036",
      "taf": ""
    },
    {
      "icao": "EPGD",
      "alert": "OK",
      "vis_m": 9999,
      "fzfg": false,
      "metar_trigger": false,
      "taf_trigger": false,
      "metar": "METAR EPGD 272200Z 34022G32KT 9999 SCT045 03/M04 Q1017",
      "taf": "TAF EPGD 271730Z 2718/2818 33018G28KT 9999 SCT045"
    },
    {
      "icao": "EPKK",
      "alert": "OK",
      "vis_m": 8000,
      "fzfg": false,
      "metar_trigger": false,
      "taf_trigger": false,
      "metar": "METAR EPKK 272200Z 25011KT 8000 -SG SCT008 BKN011 M01/M02 Q1019",
      "taf": "TAF EPKK 272030Z 2721/2821 24010KT 5000 -SN BR FEW007 BKN010"
    },
    {
      "icao": "EPKT",
      "alert": "OK",
      "vis_m": 9999,
      "fzfg": false,
      "metar_trigger": false,
      "taf_trigger": false,
      "metar": "METAR EPKT 272200Z 28010KT 9999 -SN OVC004 M01/M02 Q1019",
      "taf": ""
    },
    {
      "icao": "EPLB",
      "alert": "OK",
      "vis_m": 9999,
      "fzfg": false,
      "metar_trigger": false,
      "taf_trigger": false,
      "metar": "METAR EPLB 272200Z 30012KT 9999 -SN SCT009 BKN013 OVC021 01/M00 Q1011",
      "taf": "TAF EPLB 271730Z 2718/2818 28015KT 7000 BKN005"
    },
    {
      "icao": "EPMO",
      "alert": "OK",
      "vis_m": 9999,
      "fzfg": false,
      "metar_trigger": false,
      "taf_trigger": false,
      "metar": "METAR EPMO 272200Z 28014KT 9999 SCT043 02/M00 Q1014",
      "taf": "TAF EPMO 271730Z 2718/2818 27015KT 8000 BKN005"
    },
    {
      "icao": "EPPO",
      "alert": "OK",
      "vis_m": 9999,
      "fzfg": false,
      "metar_trigger": false,
      "taf_trigger": false,
      "metar": "METAR EPPO 272200Z 31005KT 9999 FEW003 01/00 Q1022",
      "taf": "TAF EPPO 271730Z 2718/2818 29014KT 6000 OVC003"
    },
    {
      "icao": "EPRA",
      "alert": "OK",
      "vis_m": 9999,
      "fzfg": false,
      "metar_trigger": false,
      "taf_trigger": false,
      "metar": "METAR EPRA 272200Z 28013KT 9999 OVC008 01/M00 Q1014",
      "taf": "TAF EPRA 272030Z 2721/2806 28012KT 8000 OVC007"
    },
    {
      "icao": "EPRZ",
      "alert": "OK",
      "vis_m": 9999,
      "fzfg": false,
      "metar_trigger": false,
      "taf_trigger": false,
      "metar": "METAR EPRZ 272200Z 28019KT 9999 OVC013 M00/M02 Q1015",
      "taf": ""
    },
    {
      "icao": "EPSC",
      "alert": "OK",
      "vis_m": 9999,
      "fzfg": false,
      "metar_trigger": false,
      "taf_trigger": false,
      "metar": "METAR EPSC 272200Z 32009KT CAVOK 02/M03 Q1024",
      "taf": "TAF EPSC 271730Z 2718/2818 31010KT 9999 BKN006"
    },
    {
      "icao": "EPSY",
      "alert": "OK",
      "vis_m": 9999,
      "fzfg": false,
      "metar_trigger": false,
      "taf_trigger": false,
      "metar": "METAR EPSY 272200Z 33012KT 280V350 CAVOK 03/M03 Q1012",
      "taf": "TAF EPSY 272030Z 2721/2806 32012KT 9999 SCT040"
    },
    {
      "icao": "EPWA",
      "alert": "OK",
      "vis_m": 9999,
      "fzfg": false,
      "metar_trigger": false,
      "taf_trigger": false,
      "metar": "METAR EPWA 272200Z 28014KT 9999 -SHSN FEW006 SCT014TCU 01/01 Q1014 NOSIG",
      "taf": "TAF EPWA 272030Z 2721/2821 29015KT 7000 BKN012"
    },
    {
      "icao": "EPWR",
      "alert": "OK",
      "vis_m": 9999,
      "fzfg": false,
      "metar_trigger": false,
      "taf_trigger": false,
      "metar": "METAR EPWR 272200Z 29014KT 9999 OVC005 01/00 Q1023",
      "taf": "TAF EPWR 272030Z 2721/2821 32012KT 9999 OVC009"
    },
    {
      "icao": "ESGG",
      "alert": "OK",
      "vis_m": 9999,
      "fzfg": false,
      "metar_trigger": false,
      "taf_trigger": false,
      "metar": "METAR ESGG 272150Z 34012KT CAVOK 02/M07 Q1029",
      "taf": "TAF ESGG 272030Z 2721/2821 35010KT CAVOK"
    },
    {
      "icao": "ESKN",
      "alert": "OK",
      "vis_m": 9999,
      "fzfg": false,
      "metar_trigger": false,
      "taf_trigger": false,
      "metar": "METAR ESKN 272150Z 32017G28KT CAVOK 02/M08 Q1020",
      "taf": "TAF ESKN 272030Z 2721/2821 33019G34KT CAVOK"
    },
    {
      "icao": "ESMS",
      "alert": "OK",
      "vis_m": 9999,
      "fzfg": false,
      "metar_trigger": false,
      "taf_trigger": false,
      "metar": "METAR ESMS 272150Z 33017KT CAVOK 02/M06 Q1026",
      "taf": "TAF ESMS 272027Z 2721/2821 34012KT CAVOK"
    },
    {
      "icao": "ESSA",
      "alert": "OK",
      "vis_m": 9999,
      "fzfg": false,
      "metar_trigger": false,
      "taf_trigger": false,
      "metar": "METAR ESSA 272150Z 34017G30KT CAVOK 01/M09 Q1018 NOSIG",
      "taf": "TAF ESSA 272030Z 2721/2821 33019G30KT CAVOK"
    },
    {
      "icao": "EYKA",
      "alert": "OK",
      "vis_m": 9999,
      "fzfg": false,
      "metar_trigger": false,
      "taf_trigger": false,
      "metar": "METAR EYKA 272150Z 29013G24KT 250V340 9999 -RA OVC027 02/M02 Q1003",
      "taf": "TAF EYKA 271711Z 2718/2818 30012KT 6000 SCT035"
    },
    {
      "icao": "EYPA",
      "alert": "OK",
      "vis_m": 9999,
      "fzfg": false,
      "metar_trigger": false,
      "taf_trigger": false,
      "metar": "METAR EYPA 272150Z AUTO 35014G31KT 290V020 9999 -SHRA FEW017/// SCT023/// BKN032/// 04/01 Q1010",
      "taf": "TAF EYPA 271700Z 2718/2818 34016G26KT 8000 BKN035"
    },
    {
      "icao": "EYVI",
      "alert": "OK",
      "vis_m": 9999,
      "fzfg": false,
      "metar_trigger": false,
      "taf_trigger": false,
      "metar": "METAR EYVI 272150Z 31014KT 270V340 9999 -SHRASN BKN021CB 01/M02 Q0999 WS R01 TEMPO 1500 SHRASN",
      "taf": "TAF EYVI 271722Z 2718/2818 31014KT 8000 BKN030"
    },
    {
      "icao": "GCFV",
      "alert": "OK",
      "vis_m": 9999,
      "fzfg": false,
      "metar_trigger": false,
      "taf_trigger": false,
      "metar": "METAR GCFV 272200Z 17004KT 140V200 9999 SCT030 17/13 Q1019",
      "taf": "TAF GCFV 272000Z 2721/2821 26005KT 9999 SCT040 TX22/2814Z TN13/2806Z"
    },
    {
      "icao": "GCLP",
      "alert": "OK",
      "vis_m": 9999,
      "fzfg": false,
      "metar_trigger": false,
      "taf_trigger": false,
      "metar": "METAR GCLP 272200Z 29005KT 270V030 9999 FEW050 17/11 Q1019 NOSIG",
      "taf": "TAF GCLP 272000Z 2721/2821 28004KT 9999 SCT040 TX22/2814Z TN14/2806Z"
    },
    {
      "icao": "GCTS",
      "alert": "OK",
      "vis_m": 9999,
      "fzfg": false,
      "metar_trigger": false,
      "taf_trigger": false,
      "metar": "METAR GCTS 272200Z 01007KT 350V060 9999 FEW040 17/08 Q1019 NOSIG",
      "taf": "TAF GCTS 272000Z 2721/2821 VRB07KT 9999 FEW040 TX23/2814Z TN14/2806Z"
    },
    {
      "icao": "GMAD",
      "alert": "OK",
      "vis_m": 6000,
      "fzfg": false,
      "metar_trigger": false,
      "taf_trigger": false,
      "metar": "METAR GMAD 272200Z 04004KT 6000 BKN020TCU BKN080 12/12 Q1016 NOSIG",
      "taf": "TAF GMAD 271700Z 2718/2824 04005KT 6000 BKN020TCU BKN080"
    },
    {
      "icao": "GMMN",
      "alert": "OK",
      "vis_m": 9999,
      "fzfg": false,
      "metar_trigger": false,
      "taf_trigger": false,
      "metar": "METAR GMMN 272200Z 23013KT 190V260 9999 TS BKN016TCU SCT033CB 10/09 Q1013 TEMPO 2000 TSRA",
      "taf": "TAF GMMN 271700Z 2718/2824 22010KT 9999 SCT016TCU BKN020"
    },
    {
      "icao": "GMMX",
      "alert": "OK",
      "vis_m": 6000,
      "fzfg": false,
      "metar_trigger": false,
      "taf_trigger": false,
      "metar": "METAR GMMX 272200Z 18008KT 6000 SCT010 BKN016 11/10 Q1015 TEMPO 3000 RA",
      "taf": "TAF GMMX 271700Z 2718/2824 24012KT 5000 -RA SCT010 BKN016"
    },
    {
      "icao": "HEGN",
      "alert": "OK",
      "vis_m": 9999,
      "fzfg": false,
      "metar_trigger": false,
      "taf_trigger": false,
      "metar": "METAR HEGN 272100Z 30010KT CAVOK 15/07 Q1013 NOSIG",
      "taf": "TAF HEGN 271700Z 2718/2824 30015KT CAVOK"
    },
    {
      "icao": "HEMA",
      "alert": "OK",
      "vis_m": 9999,
      "fzfg": false,
      "metar_trigger": false,
      "taf_trigger": false,
      "metar": "METAR HEMA 272100Z 24007KT CAVOK 16/09 Q1013 NOSIG",
      "taf": "TAF HEMA 271700Z 2718/2824 31014KT CAVOK"
    },
    {
      "icao": "HESH",
      "alert": "OK",
      "vis_m": 9999,
      "fzfg": false,
      "metar_trigger": false,
      "taf_trigger": false,
      "metar": "METAR HESH 272100Z 25004KT CAVOK 17/08 Q1012 NOSIG",
      "taf": "TAF HESH 271700Z 2718/2824 35012KT CAVOK"
    },
    {
      "icao": "HESX",
      "alert": "OK",
      "vis_m": 9999,
      "fzfg": false,
      "metar_trigger": false,
      "taf_trigger": false,
      "metar": "METAR HESX 272100Z 27006KT CAVOK 13/08 Q1014 NOSIG",
      "taf": "TAF HESX 271700Z 2718/2824 29010KT 9999 SCT025"
    },
    {
      "icao": "LATI",
      "alert": "OK",
      "vis_m": 9999,
      "fzfg": false,
      "metar_trigger": false,
      "taf_trigger": false,
      "metar": "METAR LATI 272150Z 16004KT CAVOK 02/M01 Q1019 NOSIG",
      "taf": "TAF LATI 271700Z 2718/2818 VRB05KT CAVOK TX15/2812Z TNM01/2805Z"
    },
    {
      "icao": "LBPD",
      "alert": "OK",
      "vis_m": 9999,
      "fzfg": false,
      "metar_trigger": false,
      "taf_trigger": false,
      "metar": "METAR LBPD 272200Z AUTO 27008KT 9999 NCD 03/M03 Q1016",
      "taf": "TAF LBPD 271700Z 2718/2818 29018KT 9999 SCT020"
    },
    {
      "icao": "LBSF",
      "alert": "OK",
      "vis_m": 9999,
      "fzfg": false,
      "metar_trigger": false,
      "taf_trigger": false,
      "metar": "METAR LBSF 272200Z AUTO 31007KT 280V340 9999 NSC M02/M04 Q1018 NOSIG",
      "taf": "TAF LBSF 271700Z 2718/2818 29018KT 9999 BKN015"
    },
    {
      "icao": "LBWN",
      "alert": "OK",
      "vis_m": 9999,
      "fzfg": false,
      "metar_trigger": false,
      "taf_trigger": false,
      "metar": "METAR LBWN 272200Z AUTO 29008KT 9999 NSC M00/M01 Q1013 NOSIG",
      "taf": "TAF LBWN 271700Z 2718/2818 32012KT 9999 SCT030"
    },
    {
      "icao": "LCLK",
      "alert": "OK",
      "vis_m": 9999,
      "fzfg": false,
      "metar_trigger": false,
      "taf_trigger": false,
      "metar": "METAR LCLK 272200Z 31006KT 260V340 9999 FEW025 11/06 Q1008 NOSIG",
      "taf": "TAF LCLK 271730Z 2718/2818 34009KT 9999 FEW025"
    },
    {
      "icao": "LCPH",
      "alert": "OK",
      "vis_m": 9999,
      "fzfg": false,
      "metar_trigger": false,
      "taf_trigger": false,
      "metar": "METAR LCPH 272200Z 35004KT 9999 FEW035 SCT080 10/04 Q1007 NOSIG",
      "taf": "TAF LCPH 271730Z 2718/2818 33010KT 9999 FEW020 SCT035"
    },
    {
      "icao": "LEAL",
      "alert": "OK",
      "vis_m": 9999,
      "fzfg": false,
      "metar_trigger": false,
      "taf_trigger": false,
      "metar": "METAR LEAL 272200Z 02005KT 350V060 9999 BKN018 12/09 Q1016 NOSIG",
      "taf": "TAF LEAL 271700Z 2718/2818 08007KT 9999 SCT020 TX15/2813Z TN11/2806Z"
    },
    {
      "icao": "LEBB",
      "alert": "OK",
      "vis_m": 9999,
      "fzfg": false,
      "metar_trigger": false,
      "taf_trigger": false,
      "metar": "METAR LEBB 272200Z VRB01KT CAVOK 08/07 Q1019 NOSIG",
      "taf": "TAF LEBB 271700Z 2718/2818 11005KT 9999 FEW040 TX14/2815Z TN04/2806Z"
    },
    {
      "icao": "LEBL",
      "alert": "OK",
      "vis_m": 8000,
      "fzfg": false,
      "metar_trigger": false,
      "taf_trigger": false,
      "metar": "SPECI LEBL 272206Z 04013KT 8000 RA SCT025 12/10 Q1020 NOSIG",
      "taf": "TAF LEBL 271700Z 2718/2818 07012KT 9999 SCT014 TX16/2812Z TN11/2807Z"
    },
    {
      "icao": "LECH",
      "alert": "OK",
      "vis_m": 9999,
      "fzfg": false,
      "metar_trigger": false,
      "taf_trigger": false,
      "metar": "METAR LECH 272200Z AUTO 06010KT 020V080 9999 -RA BKN003 OVC007 09/09 Q1018",
      "taf": ""
    },
    {
      "icao": "LEMD",
      "alert": "OK",
      "vis_m": 9999,
      "fzfg": false,
      "metar_trigger": false,
      "taf_trigger": false,
      "metar": "METAR LEMD 272200Z 07002KT 9999 BKN050 08/04 Q1015 NOSIG",
      "taf": "TAF LEMD 271700Z 2718/2824 09006KT 9999 SCT040 BKN045 TX12/2815Z TN04/2806Z"
    },
    {
      "icao": "LEMG",
      "alert": "OK",
      "vis_m": 6000,
      "fzfg": false,
      "metar_trigger": false,
      "taf_trigger": false,
      "metar": "SPECI LEMG 272205Z 09023KT 6000 TSRA SCT014 SCT020CB BKN038 13/11 Q1010 NOSIG",
      "taf": "TAF LEMG 271700Z 2718/2818 11020KT 9999 FEW045 TX16/2814Z TN12/2806Z"
    },
    {
      "icao": "LEVC",
      "alert": "OK",
      "vis_m": 9999,
      "fzfg": false,
      "metar_trigger": false,
      "taf_trigger": false,
      "metar": "METAR LEVC 272200Z 03007KT 9999 FEW024 BKN052 12/09 Q1017 NOSIG",
      "taf": "TAF LEVC 271700Z 2718/2818 02005KT 9999 FEW015 BKN040 TX13/2813Z TN09/2806Z"
    },
    {
      "icao": "LEXJ",
      "alert": "OK",
      "vis_m": 9999,
      "fzfg": false,
      "metar_trigger": false,
      "taf_trigger": false,
      "metar": "METAR LEXJ 272200Z 14007KT CAVOK 11/07 Q1018",
      "taf": "TAF LEXJ 272000Z 2721/2821 10009KT 9999 FEW060 TX15/2814Z TN07/2809Z"
    },
    {
      "icao": "LEZG",
      "alert": "OK",
      "vis_m": 9999,
      "fzfg": false,
      "metar_trigger": false,
      "taf_trigger": false,
      "metar": "METAR LEZG 272200Z 09010KT 060V120 9999 BKN018 10/09 Q1018 NOSIG",
      "taf": "TAF LEZG 271700Z 2718/2818 VRB05KT 9999 FEW015 BKN020 TX11/2814Z TN05/2806Z"
    },
    {
      "icao": "LEZL",
      "alert": "OK",
      "vis_m": 9999,
      "fzfg": false,
      "metar_trigger": false,
      "taf_trigger": false,
      "metar": "METAR LEZL 272200Z 13007KT 100V160 9999 SCT032 12/10 Q1010 NOSIG",
      "taf": "TAF LEZL 272000Z 2721/2821 13010KT 9999 SCT025 TX17/2815Z TN08/2806Z"
    },
    {
      "icao": "LFBD",
      "alert": "OK",
      "vis_m": 9999,
      "fzfg": false,
      "metar_trigger": false,
      "taf_trigger": false,
      "metar": "METAR LFBD 272200Z AUTO 06008KT CAVOK 09/04 Q1021 NOSIG",
      "taf": "TAF LFBD 271700Z 2718/2824 08005KT CAVOK TX12/2814Z TN03/2805Z"
    },
    {
      "icao": "LFLL",
      "alert": "OK",
      "vis_m": 1500,
      "fzfg": true,
      "metar_trigger": false,
      "taf_trigger": false,
      "metar": "METAR LFLL 272200Z VRB03KT 1500 0750 R35L/1300D R17R/P2000 R35R/1600D R17L/1400D PRFG BR OVC001 00/00 Q1028 TEMPO 0500 FZFG VV///",
      "taf": ""
    },
    {
      "icao": "LFLS",
      "alert": "OK",
      "vis_m": 7000,
      "fzfg": false,
      "metar_trigger": false,
      "taf_trigger": false,
      "metar": "METAR LFLS 272200Z AUTO VRB02KT 7000 NSC M02/M02 Q1026",
      "taf": "TAF LFLS 271400Z 2715/2815 VRB02KT CAVOK"
    },
    {
      "icao": "LFMN",
      "alert": "OK",
      "vis_m": 9999,
      "fzfg": false,
      "metar_trigger": false,
      "taf_trigger": false,
      "metar": "METAR LFMN 272200Z 34011KT CAVOK 10/M00 Q1022 NOSIG",
      "taf": "TAF LFMN 272000Z 2721/2903 33012KT CAVOK"
    },
    {
      "icao": "LFOB",
      "alert": "OK",
      "vis_m": 9999,
      "fzfg": false,
      "metar_trigger": false,
      "taf_trigger": false,
      "metar": "METAR LFOB 272200Z AUTO 04005KT CAVOK M01/M03 Q1031 NOSIG",
      "taf": "TAF LFOB 271700Z 2718/2818 02006KT 8000 NSC"
    },
    {
      "icao": "LFPO",
      "alert": "OK",
      "vis_m": 8000,
      "fzfg": false,
      "metar_trigger": false,
      "taf_trigger": false,
      "metar": "METAR LFPO 272200Z VRB02KT 8000 NSC M02/M03 Q1030 NOSIG",
      "taf": "TAF LFPO 271700Z 2718/2824 03006KT 7000 NSC"
    },
    {
      "icao": "LFSB",
      "alert": "OK",
      "vis_m": 9000,
      "fzfg": false,
      "metar_trigger": false,
      "taf_trigger": false,
      "metar": "METAR LFSB 272200Z AUTO 12004KT 9000 NSC M01/M02 Q1029 TEMPO 4000 BCFG BKN014",
      "taf": ""
    },
    {
      "icao": "LGAV",
      "alert": "OK",
      "vis_m": 9999,
      "fzfg": false,
      "metar_trigger": false,
      "taf_trigger": false,
      "metar": "METAR LGAV 272150Z VRB02KT 9999 FEW020 04/02 Q1019 NOSIG",
      "taf": "TAF LGAV 271700Z 2718/2818 02013KT 9999 FEW018 BKN035"
    },
    {
      "icao": "LGTS",
      "alert": "OK",
      "vis_m": 9999,
      "fzfg": false,
      "metar_trigger": false,
      "taf_trigger": false,
      "metar": "METAR LGTS 272150Z 36009KT CAVOK 07/M01 Q1019 NOSIG",
      "taf": "TAF LGTS 271700Z 2718/2818 33015KT 9999 FEW025"
    },
    {
      "icao": "LHBP",
      "alert": "OK",
      "vis_m": 9999,
      "fzfg": false,
      "metar_trigger": false,
      "taf_trigger": false,
      "metar": "METAR LHBP 272200Z 30016KT CAVOK 02/M03 Q1016 NOSIG",
      "taf": "TAF LHBP 271715Z 2718/2818 25007KT CAVOK"
    },
    {
      "icao": "LHDC",
      "alert": "OK",
      "vis_m": 6000,
      "fzfg": false,
      "metar_trigger": false,
      "taf_trigger": false,
      "metar": "METAR LHDC 272145Z AUTO 20012KT 170V230 6000 BKN005 M00/M01 Q1016",
      "taf": ""
    },
    {
      "icao": "LIBD",
      "alert": "OK",
      "vis_m": 9999,
      "fzfg": false,
      "metar_trigger": false,
      "taf_trigger": false,
      "metar": "METAR LIBD 272150Z 26009KT CAVOK 07/04 Q1021",
      "taf": "TAF LIBD 271700Z 2718/2818 28012KT 9999 SCT030"
    },
    {
      "icao": "LIBG",
      "alert": "OK",
      "vis_m": null,
      "fzfg": false,
      "metar_trigger": false,
      "taf_trigger": false,
      "metar": "",
      "taf": "TAF LIBG 271700Z 2718/2803 35012KT 9999 SCT030"
    },
    {
      "icao": "LIBP",
      "alert": "OK",
      "vis_m": 9999,
      "fzfg": false,
      "metar_trigger": false,
      "taf_trigger": false,
      "metar": "METAR LIBP 272150Z AUTO 24005KT 9999 NCD 03/02 Q1023",
      "taf": "TAF LIBP 271700Z 2718/2818 VRB05KT 9999 BKN030"
    },
    {
      "icao": "LIBR",
      "alert": "OK",
      "vis_m": 9999,
      "fzfg": false,
      "metar_trigger": false,
      "taf_trigger": false,
      "metar": "METAR LIBR 272150Z 32018KT 9999 FEW025 12/09 Q1020",
      "taf": "TAF LIBR 271700Z 2718/2818 35015KT 9999 FEW030"
    },
    {
      "icao": "LICA",
      "alert": "OK",
      "vis_m": 9999,
      "fzfg": false,
      "metar_trigger": false,
      "taf_trigger": false,
      "metar": "METAR LICA 272150Z AUTO 08008KT 9999 NCD 06/04 Q1021",
      "taf": "TAF LICA 271700Z 2718/2818 VRB05KT CAVOK"
    },
    {
      "icao": "LICC",
      "alert": "OK",
      "vis_m": 9999,
      "fzfg": false,
      "metar_trigger": false,
      "taf_trigger": false,
      "metar": "METAR LICC 272150Z 24004KT 9999 FEW025 SCT045 13/10 Q1021",
      "taf": "TAF LICC 271700Z 2718/2818 07012KT 9999 SCT040"
    },
    {
      "icao": "LICJ",
      "alert": "OK",
      "vis_m": 9999,
      "fzfg": false,
      "metar_trigger": false,
      "taf_trigger": false,
      "metar": "METAR LICJ 272150Z VRB01KT CAVOK 12/09 Q1020",
      "taf": "TAF LICJ 271700Z 2718/2818 05012KT 9999 FEW040"
    },
    {
      "icao": "LIMC",
      "alert": "OK",
      "vis_m": 9999,
      "fzfg": false,
      "metar_trigger": false,
      "taf_trigger": false,
      "metar": "METAR LIMC 272150Z 30004KT 270V350 CAVOK 01/00 Q1023 NOSIG",
      "taf": "TAF LIMC 271700Z 2718/2824 VRB05KT CAVOK"
    },
    {
      "icao": "LIME",
      "alert": "OK",
      "vis_m": 9999,
      "fzfg": false,
      "metar_trigger": false,
      "taf_trigger": false,
      "metar": "METAR LIME 272150Z AUTO 03004KT 9999 NCD 02/01 Q1022",
      "taf": "TAF LIME 271700Z 2718/2818 VRB05KT CAVOK"
    },
    {
      "icao": "LIMF",
      "alert": "OK",
      "vis_m": 9999,
      "fzfg": false,
      "metar_trigger": false,
      "taf_trigger": false,
      "metar": "METAR LIMF 272150Z VRB02KT CAVOK 02/M02 Q1023",
      "taf": "TAF LIMF 271700Z 2718/2818 VRB06KT CAVOK"
    },
    {
      "icao": "LIMJ",
      "alert": "OK",
      "vis_m": 9999,
      "fzfg": false,
      "metar_trigger": false,
      "taf_trigger": false,
      "metar": "METAR LIMJ 272150Z AUTO 04014KT 9999 NCD 13/M02 Q1022",
      "taf": "TAF LIMJ 271700Z 2718/2818 03015KT CAVOK"
    },
    {
      "icao": "LIPE",
      "alert": "OK",
      "vis_m": 9999,
      "fzfg": false,
      "metar_trigger": false,
      "taf_trigger": false,
      "metar": "METAR LIPE 272150Z 22005KT 190V260 CAVOK 03/01 Q1023",
      "taf": "TAF LIPE 271700Z 2718/2818 VRB05KT CAVOK"
    },
    {
      "icao": "LIPH",
      "alert": "OK",
      "vis_m": 6000,
      "fzfg": false,
      "metar_trigger": false,
      "taf_trigger": false,
      "metar": "METAR LIPH 272150Z 28003KT 6000 MIFG NSC 02/02 Q1021",
      "taf": "TAF LIPH 271700Z 2718/2818 VRB05KT CAVOK"
    },
    {
      "icao": "LIPQ",
      "alert": "OK",
      "vis_m": 9999,
      "fzfg": false,
      "metar_trigger": false,
      "taf_trigger": false,
      "metar": "METAR LIPQ 272150Z AUTO VRB02KT 9999 NCD M01/M02 Q1021",
      "taf": "TAF LIPQ 271700Z 2718/2818 VRB05KT CAVOK"
    },
    {
      "icao": "LIPR",
      "alert": "OK",
      "vis_m": 9999,
      "fzfg": false,
      "metar_trigger": false,
      "taf_trigger": false,
      "metar": "METAR LIPR 272150Z 25005KT CAVOK 05/00 Q1023",
      "taf": "TAF LIPR 271700Z 2718/2818 31010KT CAVOK"
    },
    {
      "icao": "LIPX",
      "alert": "OK",
      "vis_m": 9999,
      "fzfg": false,
      "metar_trigger": false,
      "taf_trigger": false,
      "metar": "METAR LIPX 272150Z 25013KT CAVOK 07/02 Q1021",
      "taf": ""
    },
    {
      "icao": "LIPY",
      "alert": "OK",
      "vis_m": 9999,
      "fzfg": false,
      "metar_trigger": false,
      "taf_trigger": false,
      "metar": "METAR LIPY 272150Z AUTO 19003KT 9999 NCD 03/01 Q1023",
      "taf": "TAF LIPY 271700Z 2718/2818 31010KT CAVOK"
    },
    {
      "icao": "LIPZ",
      "alert": "OK",
      "vis_m": 8000,
      "fzfg": false,
      "metar_trigger": false,
      "taf_trigger": false,
      "metar": "METAR LIPZ 272150Z 25006KT 200V290 8000 NSC 02/02 Q1021 NOSIG",
      "taf": "TAF LIPZ 271700Z 2718/2824 VRB05KT CAVOK"
    },
    {
      "icao": "LIRF",
      "alert": "OK",
      "vis_m": 9999,
      "fzfg": false,
      "metar_trigger": false,
      "taf_trigger": false,
      "metar": "METAR LIRF 272150Z 06005KT CAVOK 05/04 Q1022 NOSIG",
      "taf": "TAF LIRF 271700Z 2718/2824 04008KT CAVOK"
    },
    {
      "icao": "LIRN",
      "alert": "OK",
      "vis_m": 9999,
      "fzfg": false,
      "metar_trigger": false,
      "taf_trigger": false,
      "metar": "METAR LIRN 272150Z 30004KT 260V320 CAVOK 07/03 Q1021 NOSIG",
      "taf": "TAF LIRN 271700Z 2718/2818 03007KT CAVOK"
    },
    {
      "icao": "LIRP",
      "alert": "OK",
      "vis_m": 9999,
      "fzfg": false,
      "metar_trigger": false,
      "taf_trigger": false,
      "metar": "METAR LIRP 272145Z VRB02KT CAVOK 02/02 Q1023 NOSIG",
      "taf": "TAF LIRP 271700Z 2718/2818 12005KT CAVOK"
    },
    {
      "icao": "LIRZ",
      "alert": "OK",
      "vis_m": 9999,
      "fzfg": false,
      "metar_trigger": false,
      "taf_trigger": false,
      "metar": "METAR LIRZ 272150Z AUTO 02004KT 9999 NCD 01/M01 Q1022",
      "taf": "TAF LIRZ 271700Z 2718/2818 01010KT CAVOK"
    },
    {
      "icao": "LJLJ",
      "alert": "OK",
      "vis_m": 500,
      "fzfg": true,
      "metar_trigger": false,
      "taf_trigger": false,
      "metar": "METAR LJLJ 272200Z 24003KT 190V280 0500 R30/0800N FZFG VV002 M02/M02 Q1022 NOSIG",
      "taf": "TAF LJLJ 271700Z 2718/2818 30002KT 0400 FZFG VV002"
    },
    {
      "icao": "LKMT",
      "alert": "OK",
      "vis_m": 9999,
      "fzfg": false,
      "metar_trigger": false,
      "taf_trigger": false,
      "metar": "METAR LKMT 272200Z VRB01KT 9999 -SN BKN016 OVC034 01/M01 Q1021 NOSIG",
      "taf": "TAF LKMT 271700Z 2718/2818 35010KT 9999 BKN020"
    },
    {
      "icao": "LKPR",
      "alert": "OK",
      "vis_m": 9999,
      "fzfg": false,
      "metar_trigger": false,
      "taf_trigger": false,
      "metar": "METAR LKPR 272200Z 28009KT 9999 OVC016 01/M01 Q1025 TEMPO BKN014",
      "taf": "TAF LKPR 272000Z 2721/2903 31008KT 9999 BKN023"
    },
    {
      "icao": "LLBG",
      "alert": "OK",
      "vis_m": 9999,
      "fzfg": false,
      "metar_trigger": false,
      "taf_trigger": false,
      "metar": "METAR LLBG 272150Z 26011KT 9999 BKN035 17/10 Q1008 TEMPO 5000 RA FEW025TCU BKN030 RMK RERA",
      "taf": "TAF LLBG 271703Z 2718/2818 20006KT 9999 BKN050"
    },
    {
      "icao": "LMML",
      "alert": "OK",
      "vis_m": 9999,
      "fzfg": false,
      "metar_trigger": false,
      "taf_trigger": false,
      "metar": "METAR LMML 272145Z 07012KT 9999 FEW022 BKN043 15/11 Q1020 NOSIG",
      "taf": "TAF LMML 271700Z 2718/2818 07012KT 9999 SCT020"
    },
    {
      "icao": "LOWW",
      "alert": "OK",
      "vis_m": 9999,
      "fzfg": false,
      "metar_trigger": false,
      "taf_trigger": false,
      "metar": "METAR LOWW 272150Z 29021KT CAVOK 05/M02 Q1020 NOSIG",
      "taf": "TAF LOWW 272015Z 2721/2903 31015G25KT 9999 SCT020 TX05/2721Z TNM03/2903Z"
    },
    {
      "icao": "LPFR",
      "alert": "OK",
      "vis_m": 9999,
      "fzfg": false,
      "metar_trigger": false,
      "taf_trigger": false,
      "metar": "METAR LPFR 272200Z 23008KT 9999 FEW010 13/07 Q1007",
      "taf": "TAF LPFR 271700Z 2718/2818 12008KT 9999 SCT015 BKN030"
    },
    {
      "icao": "LPMA",
      "alert": "OK",
      "vis_m": 9999,
      "fzfg": false,
      "metar_trigger": false,
      "taf_trigger": false,
      "metar": "METAR LPMA 272200Z 28006KT 240V350 9999 SCT016 FEW018TCU 16/06 Q1017",
      "taf": "TAF LPMA 271700Z 2718/2818 35010KT 9999 SCT015"
    },
    {
      "icao": "LPPR",
      "alert": "OK",
      "vis_m": 9999,
      "fzfg": false,
      "metar_trigger": false,
      "taf_trigger": false,
      "metar": "METAR LPPR 272200Z 04004KT CAVOK 07/03 Q1012",
      "taf": "TAF LPPR 271700Z 2718/2818 05005KT CAVOK"
    },
    {
      "icao": "LPPS",
      "alert": "OK",
      "vis_m": 9999,
      "fzfg": false,
      "metar_trigger": false,
      "taf_trigger": false,
      "metar": "METAR LPPS 272200Z 31018KT 9999 SCT015 16/09 Q1016",
      "taf": "TAF LPPS 271700Z 2718/2824 33012KT 9999 SCT015"
    },
    {
      "icao": "LPPT",
      "alert": "OK",
      "vis_m": 7000,
      "fzfg": false,
      "metar_trigger": false,
      "taf_trigger": false,
      "metar": "METAR LPPT 272200Z 05013KT 7000 -RA SCT008 BKN026 09/08 Q1007",
      "taf": "TAF LPPT 271700Z 2718/2824 05013KT 9999 FEW020 BKN035"
    },
    {
      "icao": "LQBK",
      "alert": "OK",
      "vis_m": 8000,
      "fzfg": false,
      "metar_trigger": false,
      "taf_trigger": false,
      "metar": "METAR LQBK 272200Z 15007KT 100V160 8000 NSC M01/M02 Q1022 NOSIG",
      "taf": ""
    },
    {
      "icao": "LQSA",
      "alert": "OK",
      "vis_m": 9999,
      "fzfg": false,
      "metar_trigger": false,
      "taf_trigger": false,
      "metar": "METAR LQSA 272200Z VRB02KT 9999 BKN012 OVC020 00/M02 Q1023 NOSIG",
      "taf": "TAF LQSA 271700Z 2718/2818 28005KT 9999 BKN035 TX03/2813Z TNM04/2805Z"
    },
    {
      "icao": "LQTZ",
      "alert": "OK",
      "vis_m": 3600,
      "fzfg": false,
      "metar_trigger": false,
      "taf_trigger": false,
      "metar": "METAR LQTZ 272200Z VRB03KT 3600 BR NSC M03/M03 Q1022",
      "taf": ""
    },
    {
      "icao": "LRBC",
      "alert": "OK",
      "vis_m": 9999,
      "fzfg": false,
      "metar_trigger": false,
      "taf_trigger": false,
      "metar": "METAR LRBC 272200Z 24015KT CAVOK 04/M05 Q1006",
      "taf": "TAF LRBC 272000Z 2721/2806 VRB04KT 9999 BKN050"
    },
    {
      "icao": "LRBS",
      "alert": "OK",
      "vis_m": 3000,
      "fzfg": true,
      "metar_trigger": false,
      "taf_trigger": false,
      "metar": "METAR LRBS 272200Z 23010KT 3000 BR OVC002 M02/M03 Q1012 NOSIG",
      "taf": "TAF LRBS 271700Z 2718/2818 24008KT 0800 FZFG OVC001"
    },
    {
      "icao": "LRBV",
      "alert": "OK",
      "vis_m": 9999,
      "fzfg": false,
      "metar_trigger": false,
      "taf_trigger": false,
      "metar": "METAR LRBV 272200Z AUTO 28005KT 9999 BKN010/// OVC014/// M01/M04 Q1011",
      "taf": "TAF LRBV 272000Z 2721/2806 31014KT 9999 BKN025"
    },
    {
      "icao": "LRCL",
      "alert": "OK",
      "vis_m": 8000,
      "fzfg": false,
      "metar_trigger": false,
      "taf_trigger": false,
      "metar": "METAR LRCL 272200Z VRB02KT 8000 FEW055 M05/M06 Q1013",
      "taf": "TAF LRCL 272000Z 2721/2806 VRB04KT CAVOK"
    },
    {
      "icao": "LRCV",
      "alert": "OK",
      "vis_m": 9999,
      "fzfg": false,
      "metar_trigger": false,
      "taf_trigger": false,
      "metar": "METAR LRCV 272200Z AUTO 27012KT 9999 BKN240/// M00/M03 Q1013",
      "taf": "TAF LRCV 272000Z 2721/2806 27012KT CAVOK"
    },
    {
      "icao": "LRIA",
      "alert": "OK",
      "vis_m": 9999,
      "fzfg": false,
      "metar_trigger": false,
      "taf_trigger": false,
      "metar": "METAR LRIA 272200Z VRB03KT 9999 BKN045 02/M02 Q1004",
      "taf": "TAF LRIA 272000Z 2721/2806 VRB04KT 9999 BKN035"
    },
    {
      "icao": "LROP",
      "alert": "OK",
      "vis_m": 2000,
      "fzfg": true,
      "metar_trigger": false,
      "taf_trigger": false,
      "metar": "METAR LROP 272200Z 24011KT 2000 BR OVC001 M02/M02 Q1012 NOSIG",
      "taf": "TAF LROP 271700Z 2718/2818 24008KT 0800 FZFG OVC001"
    },
    {
      "icao": "LRSB",
      "alert": "OK",
      "vis_m": 9999,
      "fzfg": false,
      "metar_trigger": false,
      "taf_trigger": false,
      "metar": "METAR LRSB 272200Z VRB01KT 9999 BKN009 OVC011 M01/M02 Q1013",
      "taf": "TAF LRSB 271700Z 2718/2818 VRB04KT 9999 SCT020"
    },
    {
      "icao": "LRSM",
      "alert": "OK",
      "vis_m": 9000,
      "fzfg": false,
      "metar_trigger": false,
      "taf_trigger": false,
      "metar": "METAR LRSM 272200Z AUTO 24012KT 9000 BKN009/// BKN011/// M00/M02 Q1014",
      "taf": ""
    },
    {
      "icao": "LRSV",
      "alert": "OK",
      "vis_m": 9999,
      "fzfg": false,
      "metar_trigger": false,
      "taf_trigger": false,
      "metar": "METAR LRSV 272200Z 26012KT 9999 SCT040 02/M03 Q1003",
      "taf": "TAF LRSV 272000Z 2721/2806 25006KT CAVOK"
    },
    {
      "icao": "LRTM",
      "alert": "OK",
      "vis_m": 9999,
      "fzfg": false,
      "metar_trigger": false,
      "taf_trigger": false,
      "metar": "METAR LRTM 272200Z AUTO VRB02KT 9999 SCT012/// M02/M03 Q1013",
      "taf": "TAF LRTM 271400Z 2715/2724 31006KT 9999 SCT020 BKN035"
    },
    {
      "icao": "LRTR",
      "alert": "OK",
      "vis_m": 8000,
      "fzfg": false,
      "metar_trigger": false,
      "taf_trigger": false,
      "metar": "METAR LRTR 272200Z 18007KT 8000 FEW008 BKN013 00/M00 Q1018",
      "taf": "TAF LRTR 271700Z 2718/2818 22008KT 9999 OVC010"
    },
    {
      "icao": "LTAC",
      "alert": "OK",
      "vis_m": 9999,
      "fzfg": false,
      "metar_trigger": false,
      "taf_trigger": false,
      "metar": "METAR LTAC 272150Z 28008KT 220V290 9999 -SN BKN030 BKN080 M01/M05 Q1010 NOSIG RMK RWY21C 26007KT 220V280 RWY03L 27007KT RWY21R 25009KT RWY03R 24004KT 170V270 RWY21L 23006KT 200V260",
      "taf": "TAF LTAC 271640Z 2718/2818 VRB02KT 9999 SCT030 SCT080"
    },
    {
      "icao": "LTFM",
      "alert": "OK",
      "vis_m": 9999,
      "fzfg": false,
      "metar_trigger": false,
      "taf_trigger": false,
      "metar": "METAR LTFM 272150Z 26007KT 190V290 CAVOK 02/M03 Q1016 NOSIG RMK RWY17L 26005KT RWY34L 25006KT RWY16R 25006KT RWY36 27007KT RWY18 26008KT",
      "taf": "TAF LTFM 271640Z 2718/2824 33015KT 9999 BKN032"
    },
    {
      "icao": "LUKK",
      "alert": "OK",
      "vis_m": 9999,
      "fzfg": false,
      "metar_trigger": false,
      "taf_trigger": false,
      "metar": "METAR LUKK 272200Z 26014KT 9999 BKN040 OVC047 00/M03 Q1004 TEMPO 29016G26KT",
      "taf": "TAF LUKK 271724Z 2718/2818 27009KT 9999 BKN012 OVC020"
    },
    {
      "icao": "LWOH",
      "alert": "OK",
      "vis_m": null,
      "fzfg": false,
      "metar_trigger": false,
      "taf_trigger": false,
      "metar": "",
      "taf": "TAF LWOH 272015Z 2721/2821 32005KT CAVOK"
    },
    {
      "icao": "LWSK",
      "alert": "OK",
      "vis_m": 9999,
      "fzfg": false,
      "metar_trigger": false,
      "taf_trigger": false,
      "metar": "METAR LWSK 272157Z COR 12004KT CAVOK M03/M04 Q1021 NOSIG",
      "taf": "TAF LWSK 272015Z 2721/2821 01005KT CAVOK"
    },
    {
      "icao": "LYBE",
      "alert": "OK",
      "vis_m": 9000,
      "fzfg": false,
      "metar_trigger": false,
      "taf_trigger": false,
      "metar": "METAR LYBE 272200Z 22010KT 9000 NSC 01/M01 Q1019 NOSIG",
      "taf": "TAF LYBE 271700Z 2718/2818 25006KT CAVOK TX04/2812Z TNM01/2802Z"
    },
    {
      "icao": "LYNI",
      "alert": "OK",
      "vis_m": 8000,
      "fzfg": false,
      "metar_trigger": false,
      "taf_trigger": false,
      "metar": "METAR LYNI 272200Z VRB01KT 8000 BKN017 M01/M02 Q1021 NOSIG",
      "taf": "TAF LYNI 271700Z 2718/2818 35004KT 9999 BKN015 TX03/2812Z TNM01/2802Z"
    },
    {
      "icao": "LYPG",
      "alert": "OK",
      "vis_m": 9999,
      "fzfg": false,
      "metar_trigger": false,
      "taf_trigger": false,
      "metar": "METAR LYPG 272200Z VRB01KT CAVOK M00/M02 Q1019 NOSIG",
      "taf": "TAF LYPG 271700Z 2718/2818 36005KT CAVOK TX14/2813Z TN02/2801Z"
    },
    {
      "icao": "LZIB",
      "alert": "OK",
      "vis_m": 9999,
      "fzfg": false,
      "metar_trigger": false,
      "taf_trigger": false,
      "metar": "METAR LZIB 272200Z 31016KT CAVOK 04/M01 Q1020 NOSIG",
      "taf": ""
    },
    {
      "icao": "LZKZ",
      "alert": "OK",
      "vis_m": 2200,
      "fzfg": false,
      "metar_trigger": false,
      "taf_trigger": false,
      "metar": "METAR LZKZ 272200Z 03006KT 2200 BR BKN002 M01/M01 Q1015 BECMG 3000 BR",
      "taf": ""
    },
    {
      "icao": "LZTT",
      "alert": "OK",
      "vis_m": 9999,
      "fzfg": false,
      "metar_trigger": false,
      "taf_trigger": false,
      "metar": "METAR LZTT 272200Z 27016KT 9999 FEW053 04/M05 Q1011",
      "taf": "TAF LZTT 271715Z 2718/2818 26009KT CAVOK"
    },
    {
      "icao": "OEJN",
      "alert": "OK",
      "vis_m": 9999,
      "fzfg": false,
      "metar_trigger": false,
      "taf_trigger": false,
      "metar": "METAR OEJN 272200Z 36002KT CAVOK 22/18 Q1011 NOSIG",
      "taf": "TAF OEJN 271700Z 2718/2824 04008KT 7000 FEW040"
    },
    {
      "icao": "OEMA",
      "alert": "OK",
      "vis_m": 9999,
      "fzfg": false,
      "metar_trigger": false,
      "taf_trigger": false,
      "metar": "METAR OEMA 272200Z 25009KT CAVOK 19/01 Q1013 NOSIG",
      "taf": "TAF OEMA 271700Z 2718/2824 26008KT 9999 FEW045"
    },
    {
      "icao": "OJAI",
      "alert": "OK",
      "vis_m": 3000,
      "fzfg": false,
      "metar_trigger": false,
      "taf_trigger": false,
      "metar": "METAR OJAI 272200Z 23012KT 3000 BR FEW025 SCT080 10/09 Q1009 NOSIG",
      "taf": "TAF OJAI 271700Z 2718/2824 25017KT 3000 RA BR SCT025TCU BKN030"
    },
    {
      "icao": "OMAA",
      "alert": "OK",
      "vis_m": 8000,
      "fzfg": false,
      "metar_trigger": false,
      "taf_trigger": false,
      "metar": "METAR OMAA 272200Z 08005KT 8000 NSC 19/15 Q1013 NOSIG",
      "taf": "TAF OMAA 271700Z 2718/2900 07005KT 8000 NSC"
    },
    {
      "icao": "OMDB",
      "alert": "OK",
      "vis_m": 9000,
      "fzfg": false,
      "metar_trigger": false,
      "taf_trigger": false,
      "metar": "METAR OMDB 272200Z 07004KT 030V100 9000 NSC 21/14 Q1014 NOSIG",
      "taf": "TAF OMDB 271700Z 2718/2900 06005KT 8000 NSC"
    },
    {
      "icao": "UAAA",
      "alert": "OK",
      "vis_m": 200,
      "fzfg": true,
      "metar_trigger": false,
      "taf_trigger": false,
      "metar": "METAR UAAA 272200Z 24002MPS 190V270 0200 R23L/0750U FZFG VV001 M02/M03 Q1016 NOSIG RMK QBB050",
      "taf": "TAF UAAA 271701Z 2718/2818 20003MPS 1200 BR FU BKN011 OVC030 TX01/2809Z TNM05/2801Z"
    },
    {
      "icao": "UBBB",
      "alert": "OK",
      "vis_m": 9999,
      "fzfg": false,
      "metar_trigger": false,
      "taf_trigger": false,
      "metar": "METAR UBBB 272200Z 33018KT 9999 BKN025 07/03 Q1003 NOSIG",
      "taf": "TAF UBBB 271703Z 2718/2818 32016G26KT 9999 BKN010 BKN018 TX06/2810Z TN04/2802Z"
    },
    {
      "icao": "UDSG",
      "alert": "OK",
      "vis_m": 8000,
      "fzfg": false,
      "metar_trigger": false,
      "taf_trigger": false,
      "metar": "METAR UDSG 272200Z 01008KT 8000 OVC026 M04/M09 Q1001 NOSIG",
      "taf": "TAF UDSG 271658Z 2718/2818 VRB06KT 3000 BR BKN020"
    },
    {
      "icao": "UDYZ",
      "alert": "OK",
      "vis_m": 2500,
      "fzfg": false,
      "metar_trigger": false,
      "taf_trigger": false,
      "metar": "METAR UDYZ 272200Z VRB01KT 2500 -SN BR OVC003 M00/M01 Q1001 NOSIG",
      "taf": "TAF UDYZ 271700Z 2718/2818 VRB06KT 3500 BR SCT030"
    },
    {
      "icao": "UGKO",
      "alert": "OK",
      "vis_m": 7000,
      "fzfg": false,
      "metar_trigger": false,
      "taf_trigger": false,
      "metar": "METAR UGKO 272200Z 06003KT 030V090 7000 BKN044 00/00 Q1008 NOSIG",
      "taf": "TAF UGKO 271700Z 2718/2818 09007KT 9999 SCT015 OVC040 TX04/2811Z TN00/2804Z"
    }
  ]
}