{
  "ts_utc": "2026-07-14T11:51:18Z",
  "threshold_m": 150,
  "source": "stations_override.txt (ICAO list) + aviationweather.gov (METAR/TAF raw)",
  "station_count": 159,
  "stations": [
    {
      "icao": "BIKF",
      "alert": "OK",
      "vis_m": 8000,
      "fzfg": false,
      "metar_trigger": false,
      "taf_trigger": false,
      "metar": "METAR BIKF 141130Z 15019KT 8000 -RA OVC004 11/11 Q1018",
      "taf": "TAF BIKF 141036Z 1412/1512 16018KT 4000 RADZ BKN005 OVC010 TX11/1415Z TN10/1503Z"
    },
    {
      "icao": "BKPR",
      "alert": "OK",
      "vis_m": 9999,
      "fzfg": false,
      "metar_trigger": false,
      "taf_trigger": false,
      "metar": "METAR BKPR 141130Z 02006KT 290V060 9999 SCT055 27/13 Q1020 NOSIG",
      "taf": "TAF BKPR 141130Z 1412/1512 34008KT 9999 FEW050"
    },
    {
      "icao": "EBCI",
      "alert": "OK",
      "vis_m": 9999,
      "fzfg": false,
      "metar_trigger": false,
      "taf_trigger": false,
      "metar": "METAR EBCI 141120Z 03010KT 350V080 CAVOK 29/17 Q1018 NOSIG",
      "taf": "TAF EBCI 141100Z 1412/1518 04010KT CAVOK"
    },
    {
      "icao": "EDDB",
      "alert": "OK",
      "vis_m": 9999,
      "fzfg": false,
      "metar_trigger": false,
      "taf_trigger": false,
      "metar": "METAR EDDB 141120Z AUTO 12003KT 080V160 9999 -SHRA FEW046 FEW///TCU 20/14 Q1021 RESHRA NOSIG",
      "taf": "TAF EDDB 141100Z 1412/1512 06010KT 9999 SCT030"
    },
    {
      "icao": "EDDH",
      "alert": "OK",
      "vis_m": 9999,
      "fzfg": false,
      "metar_trigger": false,
      "taf_trigger": false,
      "metar": "METAR EDDH 141120Z AUTO 07010KT 030V100 CAVOK 25/12 Q1021 NOSIG",
      "taf": "TAF EDDH 141100Z 1412/1518 03010KT CAVOK"
    },
    {
      "icao": "EDDK",
      "alert": "OK",
      "vis_m": 9999,
      "fzfg": false,
      "metar_trigger": false,
      "taf_trigger": false,
      "metar": "METAR EDDK 141120Z AUTO VRB06KT CAVOK 32/14 Q1017 NOSIG",
      "taf": "TAF EDDK 141100Z 1412/1518 04008KT CAVOK"
    },
    {
      "icao": "EDDN",
      "alert": "OK",
      "vis_m": 9999,
      "fzfg": false,
      "metar_trigger": false,
      "taf_trigger": false,
      "metar": "METAR EDDN 141120Z AUTO VRB04KT CAVOK 31/13 Q1016 NOSIG",
      "taf": "TAF EDDN 141100Z 1412/1512 20004KT CAVOK"
    },
    {
      "icao": "EDDS",
      "alert": "OK",
      "vis_m": 9999,
      "fzfg": false,
      "metar_trigger": false,
      "taf_trigger": false,
      "metar": "METAR EDDS 141120Z AUTO VRB03KT CAVOK 29/17 Q1017 NOSIG",
      "taf": "TAF EDDS 141100Z 1412/1512 30008KT CAVOK"
    },
    {
      "icao": "EDFH",
      "alert": "OK",
      "vis_m": 9999,
      "fzfg": false,
      "metar_trigger": false,
      "taf_trigger": false,
      "metar": "METAR EDFH 141120Z 03009KT 350V070 CAVOK 28/13 Q1018",
      "taf": "TAF EDFH 141100Z 1412/1512 05010KT CAVOK"
    },
    {
      "icao": "EDJA",
      "alert": "OK",
      "vis_m": 9999,
      "fzfg": false,
      "metar_trigger": false,
      "taf_trigger": false,
      "metar": "METAR EDJA 141120Z 21006KT 160V240 CAVOK 25/15 Q1019",
      "taf": "TAF EDJA 141100Z 1412/1421 VRB03KT CAVOK"
    },
    {
      "icao": "EDLW",
      "alert": "OK",
      "vis_m": 9999,
      "fzfg": false,
      "metar_trigger": false,
      "taf_trigger": false,
      "metar": "METAR EDLW 141120Z 05008KT 360V100 CAVOK 27/14 Q1018",
      "taf": "TAF EDLW 141100Z 1412/1512 06009KT CAVOK"
    },
    {
      "icao": "EDNY",
      "alert": "OK",
      "vis_m": 9999,
      "fzfg": false,
      "metar_trigger": false,
      "taf_trigger": false,
      "metar": "METAR EDNY 141120Z 04004KT 340V130 CAVOK 27/18 Q1017",
      "taf": "TAF EDNY 141100Z 1412/1421 05004KT CAVOK"
    },
    {
      "icao": "EDSB",
      "alert": "OK",
      "vis_m": 9999,
      "fzfg": false,
      "metar_trigger": false,
      "taf_trigger": false,
      "metar": "METAR EDSB 141120Z 31005KT 270V340 CAVOK 29/14 Q1016",
      "taf": "TAF EDSB 141100Z 1412/1512 33005KT 9999 FEW030"
    },
    {
      "icao": "EETN",
      "alert": "OK",
      "vis_m": 9999,
      "fzfg": false,
      "metar_trigger": false,
      "taf_trigger": false,
      "metar": "METAR EETN 141120Z 02005KT 9999 SCT022 19/14 Q1020 NOSIG",
      "taf": "TAF EETN 141130Z 1412/1512 01010KT 9999 BKN025"
    },
    {
      "icao": "EFTU",
      "alert": "OK",
      "vis_m": 9999,
      "fzfg": false,
      "metar_trigger": false,
      "taf_trigger": false,
      "metar": "METAR EFTU 141120Z AUTO 36006KT 330V050 CAVOK 23/10 Q1021",
      "taf": "TAF EFTU 141125Z 1412/1512 35008KT CAVOK"
    },
    {
      "icao": "EGBB",
      "alert": "OK",
      "vis_m": 9999,
      "fzfg": false,
      "metar_trigger": false,
      "taf_trigger": false,
      "metar": "METAR EGBB 141120Z 06011KT 030V100 9999 BKN025 21/13 Q1024",
      "taf": "TAF EGBB 141054Z 1412/1512 04010KT 9999 SCT020"
    },
    {
      "icao": "EGGP",
      "alert": "OK",
      "vis_m": 9999,
      "fzfg": false,
      "metar_trigger": false,
      "taf_trigger": false,
      "metar": "METAR EGGP 141120Z 11010KT CAVOK 23/10 Q1024",
      "taf": "TAF EGGP 141100Z 1412/1512 08010KT 9999 FEW045"
    },
    {
      "icao": "EGGW",
      "alert": "OK",
      "vis_m": 6000,
      "fzfg": false,
      "metar_trigger": false,
      "taf_trigger": false,
      "metar": "METAR EGGW 141120Z 03011KT 6000 OVC006 17/15 Q1023",
      "taf": "TAF EGGW 141102Z 1412/1512 04012KT 6000 BKN008"
    },
    {
      "icao": "EGKK",
      "alert": "OK",
      "vis_m": 9999,
      "fzfg": false,
      "metar_trigger": false,
      "taf_trigger": false,
      "metar": "METAR EGKK 141120Z 04010KT 360V070 9999 BKN031 25/16 Q1021",
      "taf": "TAF EGKK 141055Z 1412/1518 05012KT 9999 FEW035"
    },
    {
      "icao": "EGNM",
      "alert": "OK",
      "vis_m": 9999,
      "fzfg": false,
      "metar_trigger": false,
      "taf_trigger": false,
      "metar": "METAR EGNM 141120Z 02011KT 360V060 9999 FEW029 20/11 Q1026",
      "taf": "TAF EGNM 141057Z 1412/1512 04012KT 9999 FEW035"
    },
    {
      "icao": "EGPD",
      "alert": "OK",
      "vis_m": 9999,
      "fzfg": false,
      "metar_trigger": false,
      "taf_trigger": false,
      "metar": "METAR EGPD 141120Z AUTO 34005KT 290V010 9999 BKN010 OVC015 15/12 Q1029",
      "taf": "TAF EGPD 141102Z 1412/1512 09010KT 9999 OVC009"
    },
    {
      "icao": "EGPF",
      "alert": "OK",
      "vis_m": 9999,
      "fzfg": false,
      "metar_trigger": false,
      "taf_trigger": false,
      "metar": "METAR EGPF 141120Z AUTO 06011KT 9999 BKN020 17/12 Q1028",
      "taf": "TAF EGPF 141111Z 1412/1512 09008KT 9999 BKN025"
    },
    {
      "icao": "EHBK",
      "alert": "OK",
      "vis_m": 9999,
      "fzfg": false,
      "metar_trigger": false,
      "taf_trigger": false,
      "metar": "METAR EHBK 141125Z AUTO 05012KT 020V080 9999 NCD 30/14 Q1017 NOSIG",
      "taf": "TAF EHBK 141030Z 1412/1518 05010KT CAVOK"
    },
    {
      "icao": "EHEH",
      "alert": "OK",
      "vis_m": 9999,
      "fzfg": false,
      "metar_trigger": false,
      "taf_trigger": false,
      "metar": "METAR EHEH 141125Z AUTO 06010KT 340V090 9999 NCD 29/14 Q1018 BLU NOSIG RMK TREND REMOTE BY EHWX",
      "taf": "TAF EHEH 140530Z 1406/1512 03006KT CAVOK"
    },
    {
      "icao": "EKBI",
      "alert": "OK",
      "vis_m": 9999,
      "fzfg": false,
      "metar_trigger": false,
      "taf_trigger": false,
      "metar": "METAR EKBI 141120Z AUTO 01005KT 290V040 9999 FEW061/// 26/11 Q1024",
      "taf": "TAF EKBI 141127Z 1412/1512 03008KT 9999 FEW045"
    },
    {
      "icao": "EKCH",
      "alert": "OK",
      "vis_m": 9999,
      "fzfg": false,
      "metar_trigger": false,
      "taf_trigger": false,
      "metar": "METAR EKCH 141120Z AUTO 12006KT 100V160 9999 NCD 24/15 Q1023 NOSIG",
      "taf": "TAF EKCH 141127Z 1412/1512 13006KT CAVOK"
    },
    {
      "icao": "ENAL",
      "alert": "OK",
      "vis_m": 9999,
      "fzfg": false,
      "metar_trigger": false,
      "taf_trigger": false,
      "metar": "METAR ENAL 141120Z 06008KT 9999 BKN010 15/12 Q1028",
      "taf": "TAF ENAL 141100Z 1412/1421 04009KT 9999 SCT006"
    },
    {
      "icao": "ENBR",
      "alert": "OK",
      "vis_m": 9999,
      "fzfg": false,
      "metar_trigger": false,
      "taf_trigger": false,
      "metar": "METAR ENBR 141120Z 32007KT CAVOK 20/13 Q1025 NOSIG RMK WIND 1200FT 29004KT",
      "taf": "TAF ENBR 141100Z 1412/1512 33008KT CAVOK"
    },
    {
      "icao": "ENGM",
      "alert": "OK",
      "vis_m": 9999,
      "fzfg": false,
      "metar_trigger": false,
      "taf_trigger": false,
      "metar": "METAR ENGM 141120Z 06006KT 340V110 CAVOK 25/09 Q1024 NOSIG",
      "taf": "TAF ENGM 141100Z 1412/1512 02005KT CAVOK"
    },
    {
      "icao": "ENHD",
      "alert": "OK",
      "vis_m": 9999,
      "fzfg": false,
      "metar_trigger": false,
      "taf_trigger": false,
      "metar": "METAR ENHD 141120Z 35011KT 9999 2500E FEW003 SCT004 16/12 Q1025",
      "taf": "TAF ENHD 141100Z 1412/1421 34012KT 9999 FEW003"
    },
    {
      "icao": "ENTC",
      "alert": "OK",
      "vis_m": 9999,
      "fzfg": false,
      "metar_trigger": false,
      "taf_trigger": false,
      "metar": "METAR ENTC 141120Z 28013KT 9999 -DZRA SCT012 BKN021 10/08 Q1020 NOSIG RMK WIND 2600FT 26024KT",
      "taf": "TAF ENTC 141100Z 1412/1512 25010KT 9999 -DZ SCT010 BKN020"
    },
    {
      "icao": "ENTO",
      "alert": "OK",
      "vis_m": 9999,
      "fzfg": false,
      "metar_trigger": false,
      "taf_trigger": false,
      "metar": "METAR ENTO 141120Z 02006KT 350V050 CAVOK 24/12 Q1024 NOSIG",
      "taf": "TAF ENTO 141100Z 1412/1512 02005KT CAVOK"
    },
    {
      "icao": "ENVA",
      "alert": "OK",
      "vis_m": 9999,
      "fzfg": false,
      "metar_trigger": false,
      "taf_trigger": false,
      "metar": "METAR ENVA 141120Z 26009KT CAVOK 17/11 Q1028 NOSIG RMK WIND 670FT 28008KT",
      "taf": "TAF ENVA 141100Z 1412/1512 27009KT 9999 FEW020"
    },
    {
      "icao": "ENZV",
      "alert": "OK",
      "vis_m": 9999,
      "fzfg": false,
      "metar_trigger": false,
      "taf_trigger": false,
      "metar": "METAR ENZV 141120Z 29009KT CAVOK 18/14 Q1025 NOSIG",
      "taf": "TAF ENZV 141100Z 1412/1512 30008KT CAVOK"
    },
    {
      "icao": "EPGD",
      "alert": "OK",
      "vis_m": 9999,
      "fzfg": false,
      "metar_trigger": false,
      "taf_trigger": false,
      "metar": "METAR EPGD 141130Z 03012KT 340V050 CAVOK 21/06 Q1022",
      "taf": "TAF EPGD 141130Z 1412/1512 02013KT CAVOK"
    },
    {
      "icao": "EPKK",
      "alert": "OK",
      "vis_m": 9999,
      "fzfg": false,
      "metar_trigger": false,
      "taf_trigger": false,
      "metar": "METAR EPKK 141130Z 06005KT 360V130 9999 VCTS SCT034CB 27/17 Q1018",
      "taf": "TAF EPKK 141130Z 1412/1512 10005KT CAVOK"
    },
    {
      "icao": "EPKT",
      "alert": "OK",
      "vis_m": 9999,
      "fzfg": false,
      "metar_trigger": false,
      "taf_trigger": false,
      "metar": "METAR EPKT 141130Z 36007KT 320V060 9999 FEW030 26/18 Q1018",
      "taf": "TAF EPKT 141130Z 1412/1512 36005KT CAVOK"
    },
    {
      "icao": "EPLB",
      "alert": "OK",
      "vis_m": 9999,
      "fzfg": false,
      "metar_trigger": false,
      "taf_trigger": false,
      "metar": "METAR EPLB 141130Z 33004KT 300V040 9999 FEW027 27/19 Q1018",
      "taf": "TAF EPLB 141130Z 1412/1512 33008KT CAVOK"
    },
    {
      "icao": "EPMO",
      "alert": "OK",
      "vis_m": 9999,
      "fzfg": false,
      "metar_trigger": false,
      "taf_trigger": false,
      "metar": "METAR EPMO 141130Z VRB06KT CAVOK 25/14 Q1019",
      "taf": "TAF EPMO 141130Z 1412/1512 VRB06KT CAVOK"
    },
    {
      "icao": "EPPO",
      "alert": "OK",
      "vis_m": 9999,
      "fzfg": false,
      "metar_trigger": false,
      "taf_trigger": false,
      "metar": "METAR EPPO 141130Z 04007G17KT 360V070 CAVOK 26/08 Q1020",
      "taf": "TAF EPPO 141130Z 1412/1512 06007KT CAVOK"
    },
    {
      "icao": "EPRA",
      "alert": "OK",
      "vis_m": 9999,
      "fzfg": false,
      "metar_trigger": false,
      "taf_trigger": false,
      "metar": "METAR EPRA 141130Z 03005KT 340V070 CAVOK 26/16 Q1018",
      "taf": "TAF EPRA 141130Z 1412/1421 36005KT CAVOK"
    },
    {
      "icao": "EPRZ",
      "alert": "OK",
      "vis_m": 9999,
      "fzfg": false,
      "metar_trigger": false,
      "taf_trigger": false,
      "metar": "METAR EPRZ 141130Z 36006KT 310V040 9999 SCT033CB 27/18 Q1018",
      "taf": "TAF EPRZ 141130Z 1412/1512 34005KT CAVOK"
    },
    {
      "icao": "EPSC",
      "alert": "OK",
      "vis_m": 9999,
      "fzfg": false,
      "metar_trigger": false,
      "taf_trigger": false,
      "metar": "METAR EPSC 141130Z 04009KT 350V090 CAVOK 23/10 Q1021",
      "taf": "TAF EPSC 141130Z 1412/1512 05010KT CAVOK"
    },
    {
      "icao": "EPSY",
      "alert": "OK",
      "vis_m": 9999,
      "fzfg": false,
      "metar_trigger": false,
      "taf_trigger": false,
      "metar": "METAR EPSY 141130Z 36009KT 330V040 CAVOK 22/12 Q1020",
      "taf": "TAF EPSY 141130Z 1412/1421 36008KT CAVOK"
    },
    {
      "icao": "EPWA",
      "alert": "OK",
      "vis_m": 9999,
      "fzfg": false,
      "metar_trigger": false,
      "taf_trigger": false,
      "metar": "METAR EPWA 141130Z 34005KT 300V060 9999 FEW040 25/15 Q1018 NOSIG",
      "taf": "TAF EPWA 141130Z 1412/1512 VRB06KT CAVOK"
    },
    {
      "icao": "EPWR",
      "alert": "OK",
      "vis_m": 9999,
      "fzfg": false,
      "metar_trigger": false,
      "taf_trigger": false,
      "metar": "METAR EPWR 141130Z 05004KT 010V070 9999 FEW040CB 25/16 Q1019",
      "taf": "TAF EPWR 141130Z 1412/1512 05004KT CAVOK"
    },
    {
      "icao": "ESGG",
      "alert": "OK",
      "vis_m": 9999,
      "fzfg": false,
      "metar_trigger": false,
      "taf_trigger": false,
      "metar": "METAR ESGG 141120Z 32007KT 280V350 CAVOK 26/11 Q1023",
      "taf": "TAF ESGG 141130Z 1412/1512 36007KT CAVOK"
    },
    {
      "icao": "ESKN",
      "alert": "OK",
      "vis_m": 9999,
      "fzfg": false,
      "metar_trigger": false,
      "taf_trigger": false,
      "metar": "METAR ESKN 141120Z 03003KT 310V120 CAVOK 24/10 Q1023",
      "taf": "TAF ESKN 141130Z 1412/1512 02006KT CAVOK"
    },
    {
      "icao": "ESMS",
      "alert": "OK",
      "vis_m": 9999,
      "fzfg": false,
      "metar_trigger": false,
      "taf_trigger": false,
      "metar": "METAR ESMS 141120Z 32005KT 280V040 CAVOK 25/12 Q1022",
      "taf": "TAF ESMS 141127Z 1412/1512 32010KT CAVOK"
    },
    {
      "icao": "ESSA",
      "alert": "OK",
      "vis_m": 9999,
      "fzfg": false,
      "metar_trigger": false,
      "taf_trigger": false,
      "metar": "METAR ESSA 141120Z 04008KT 020V080 CAVOK 23/07 Q1022 NOSIG",
      "taf": "TAF ESSA 141130Z 1412/1512 02009KT CAVOK"
    },
    {
      "icao": "EYKA",
      "alert": "OK",
      "vis_m": 9999,
      "fzfg": false,
      "metar_trigger": false,
      "taf_trigger": false,
      "metar": "METAR EYKA 141120Z VRB02KT 9999 SCT016 SCT032 22/18 Q1019",
      "taf": "TAF EYKA 141100Z 1412/1512 VRB03KT 9000 SCT020 BKN035"
    },
    {
      "icao": "EYPA",
      "alert": "OK",
      "vis_m": 9999,
      "fzfg": false,
      "metar_trigger": false,
      "taf_trigger": false,
      "metar": "METAR EYPA 141120Z 33005KT 260V060 9999 FEW035 20/16 Q1020",
      "taf": "TAF EYPA 141100Z 1412/1512 VRB03KT 9000 SCT030"
    },
    {
      "icao": "EYVI",
      "alert": "OK",
      "vis_m": 9999,
      "fzfg": false,
      "metar_trigger": false,
      "taf_trigger": false,
      "metar": "METAR EYVI 141120Z 34007KT 300V010 9999 OVC007 19/17 Q1019 NOSIG",
      "taf": ""
    },
    {
      "icao": "GCFV",
      "alert": "OK",
      "vis_m": 9999,
      "fzfg": false,
      "metar_trigger": false,
      "taf_trigger": false,
      "metar": "METAR GCFV 141130Z 06010KT 9999 FEW022 26/19 Q1018",
      "taf": "TAF GCFV 140800Z 1409/1509 05011KT 9999 SCT025 TX26/1414Z TN21/1506Z"
    },
    {
      "icao": "GCLP",
      "alert": "OK",
      "vis_m": 9999,
      "fzfg": false,
      "metar_trigger": false,
      "taf_trigger": false,
      "metar": "METAR GCLP 141130Z 03016KT 9999 FEW020 26/19 Q1017 NOSIG",
      "taf": "TAF GCLP 140800Z 1409/1509 02017KT 9999 SCT020 TX27/1414Z TN21/1506Z"
    },
    {
      "icao": "GCTS",
      "alert": "OK",
      "vis_m": 9999,
      "fzfg": false,
      "metar_trigger": false,
      "taf_trigger": false,
      "metar": "METAR GCTS 141130Z 10016KT 070V130 9999 FEW030 26/18 Q1018 NOSIG",
      "taf": "TAF GCTS 140800Z 1409/1509 09015KT 9999 FEW030 TX27/1414Z TN20/1506Z"
    },
    {
      "icao": "GMAD",
      "alert": "OK",
      "vis_m": 9999,
      "fzfg": false,
      "metar_trigger": false,
      "taf_trigger": false,
      "metar": "METAR GMAD 141130Z 27003KT 200V330 CAVOK 30/18 Q1015 NOSIG",
      "taf": "TAF GMAD 141100Z 1412/1518 33005KT CAVOK"
    },
    {
      "icao": "GMMN",
      "alert": "OK",
      "vis_m": 9999,
      "fzfg": false,
      "metar_trigger": false,
      "taf_trigger": false,
      "metar": "METAR GMMN 141130Z 01008KT 330V070 CAVOK 29/19 Q1018 NOSIG",
      "taf": "TAF GMMN 141100Z 1412/1518 36012KT CAVOK"
    },
    {
      "icao": "GMMX",
      "alert": "OK",
      "vis_m": 9999,
      "fzfg": false,
      "metar_trigger": false,
      "taf_trigger": false,
      "metar": "METAR GMMX 141130Z VRB04KT 9999 FEW033 31/18 Q1018 NOSIG",
      "taf": "TAF GMMX 141100Z 1412/1518 30006KT CAVOK"
    },
    {
      "icao": "HEGN",
      "alert": "OK",
      "vis_m": 9999,
      "fzfg": false,
      "metar_trigger": false,
      "taf_trigger": false,
      "metar": "METAR HEGN 141100Z 36014KT CAVOK 35/12 Q1005 NOSIG",
      "taf": "TAF HEGN 141100Z 1412/1518 02018KT CAVOK"
    },
    {
      "icao": "HEMA",
      "alert": "OK",
      "vis_m": 9999,
      "fzfg": false,
      "metar_trigger": false,
      "taf_trigger": false,
      "metar": "METAR HEMA 141100Z 36017KT CAVOK 36/19 Q1005 NOSIG",
      "taf": "TAF HEMA 141100Z 1412/1518 36018KT CAVOK"
    },
    {
      "icao": "HESH",
      "alert": "OK",
      "vis_m": 9999,
      "fzfg": false,
      "metar_trigger": false,
      "taf_trigger": false,
      "metar": "METAR HESH 141100Z 02011KT CAVOK 37/14 Q1004 NOSIG",
      "taf": "TAF HESH 141100Z 1412/1518 02015KT CAVOK"
    },
    {
      "icao": "HESX",
      "alert": "OK",
      "vis_m": 9999,
      "fzfg": false,
      "metar_trigger": false,
      "taf_trigger": false,
      "metar": "METAR HESX 141100Z 31007KT CAVOK 34/18 Q1008 NOSIG",
      "taf": "TAF HESX 141100Z 1412/1518 32012KT CAVOK"
    },
    {
      "icao": "LATI",
      "alert": "OK",
      "vis_m": 9999,
      "fzfg": false,
      "metar_trigger": false,
      "taf_trigger": false,
      "metar": "METAR LATI 141150Z 32012KT CAVOK 33/15 Q1016 NOSIG",
      "taf": "TAF LATI 141100Z 1412/1512 34012KT CAVOK TX37/1512Z TN19/1504Z"
    },
    {
      "icao": "LBPD",
      "alert": "OK",
      "vis_m": 9999,
      "fzfg": false,
      "metar_trigger": false,
      "taf_trigger": false,
      "metar": "METAR LBPD 141130Z AUTO VRB04G14KT 9999 FEW096/// 30/11 Q1016 NOSIG",
      "taf": "TAF LBPD 141100Z 1412/1512 31010KT CAVOK"
    },
    {
      "icao": "LBSF",
      "alert": "OK",
      "vis_m": 9999,
      "fzfg": false,
      "metar_trigger": false,
      "taf_trigger": false,
      "metar": "METAR LBSF 141130Z 28008KT 240V340 9999 BKN068 27/10 Q1018 NOSIG",
      "taf": "TAF LBSF 141100Z 1412/1512 31010KT CAVOK"
    },
    {
      "icao": "LBWN",
      "alert": "OK",
      "vis_m": 9999,
      "fzfg": false,
      "metar_trigger": false,
      "taf_trigger": false,
      "metar": "METAR LBWN 141130Z 33010KT 280V360 9999 SCT030 28/15 Q1014 NOSIG",
      "taf": "TAF LBWN 141100Z 1412/1512 35008KT 9999 SCT050"
    },
    {
      "icao": "LCLK",
      "alert": "OK",
      "vis_m": 9999,
      "fzfg": false,
      "metar_trigger": false,
      "taf_trigger": false,
      "metar": "METAR LCLK 141130Z 21020KT 9999 FEW025 33/24 Q1005 NOSIG",
      "taf": "TAF LCLK 141130Z 1412/1512 21020KT 9999 FEW025"
    },
    {
      "icao": "LCPH",
      "alert": "OK",
      "vis_m": 9999,
      "fzfg": false,
      "metar_trigger": false,
      "taf_trigger": false,
      "metar": "METAR LCPH 141130Z 25007KT 9999 FEW025 32/24 Q1007 NOSIG",
      "taf": "TAF LCPH 141130Z 1412/1512 25010KT 9999 FEW025"
    },
    {
      "icao": "LEAL",
      "alert": "OK",
      "vis_m": 9999,
      "fzfg": false,
      "metar_trigger": false,
      "taf_trigger": false,
      "metar": "METAR LEAL 141130Z 11008KT 070V140 9999 FEW050 31/22 Q1016 NOSIG",
      "taf": "TAF LEAL 141100Z 1412/1512 11010KT CAVOK TX34/1414Z TN25/1505Z"
    },
    {
      "icao": "LEBB",
      "alert": "OK",
      "vis_m": 9999,
      "fzfg": false,
      "metar_trigger": false,
      "taf_trigger": false,
      "metar": "METAR LEBB 141130Z VRB02KT CAVOK 32/21 Q1015 NOSIG",
      "taf": "TAF LEBB 141100Z 1412/1512 32008KT 9999 FEW020 TX31/1414Z TN21/1505Z"
    },
    {
      "icao": "LEBL",
      "alert": "OK",
      "vis_m": 9999,
      "fzfg": false,
      "metar_trigger": false,
      "taf_trigger": false,
      "metar": "METAR LEBL 141130Z 14008KT 090V210 9999 R06R///// SCT010 29/24 Q1017 NOSIG",
      "taf": "TAF LEBL 141100Z 1412/1512 14006KT 9999 FEW020 TX31/1412Z TN25/1506Z"
    },
    {
      "icao": "LECH",
      "alert": "OK",
      "vis_m": 9000,
      "fzfg": false,
      "metar_trigger": false,
      "taf_trigger": false,
      "metar": "METAR LECH 141130Z AUTO 11007KT 060V140 9000 OVC023 28/22 Q1018",
      "taf": "TAF LECH 141100Z 1412/1512 13009KT 9999 FEW010 TX34/1414Z TN22/1505Z"
    },
    {
      "icao": "LEMD",
      "alert": "OK",
      "vis_m": 9999,
      "fzfg": false,
      "metar_trigger": false,
      "taf_trigger": false,
      "metar": "METAR LEMD 141130Z 21008G21KT 120V290 CAVOK 32/08 Q1017 NOSIG",
      "taf": "TAF LEMD 141100Z 1412/1518 20010KT CAVOK TX37/1416Z TN20/1505Z"
    },
    {
      "icao": "LEMG",
      "alert": "OK",
      "vis_m": 9999,
      "fzfg": false,
      "metar_trigger": false,
      "taf_trigger": false,
      "metar": "METAR LEMG 141130Z 13007KT 080V170 CAVOK 34/16 Q1015 NOSIG",
      "taf": "TAF LEMG 141100Z 1412/1512 14010KT CAVOK TX35/1414Z TN22/1505Z"
    },
    {
      "icao": "LEVC",
      "alert": "OK",
      "vis_m": 9999,
      "fzfg": false,
      "metar_trigger": false,
      "taf_trigger": false,
      "metar": "METAR LEVC 141130Z 10010KT 050V140 9999 FEW022 32/22 Q1016 NOSIG",
      "taf": "TAF LEVC 141100Z 1412/1512 09010KT 9999 FEW020 TX33/1414Z TN24/1505Z"
    },
    {
      "icao": "LEXJ",
      "alert": "OK",
      "vis_m": 9999,
      "fzfg": false,
      "metar_trigger": false,
      "taf_trigger": false,
      "metar": "METAR LEXJ 141130Z VRB06KT 9999 FEW025 25/21 Q1015",
      "taf": "TAF LEXJ 140800Z 1409/1509 VRB03KT 9999 FEW020 TX27/1412Z TN21/1503Z"
    },
    {
      "icao": "LEZG",
      "alert": "OK",
      "vis_m": 9999,
      "fzfg": false,
      "metar_trigger": false,
      "taf_trigger": false,
      "metar": "METAR LEZG 141130Z 07003KT CAVOK 33/19 Q1015 NOSIG",
      "taf": "TAF LEZG 141100Z 1412/1512 VRB04KT CAVOK TX40/1415Z TN24/1505Z"
    },
    {
      "icao": "LEZL",
      "alert": "OK",
      "vis_m": 9999,
      "fzfg": false,
      "metar_trigger": false,
      "taf_trigger": false,
      "metar": "METAR LEZL 141130Z 23008KT 170V300 CAVOK 30/15 Q1016 NOSIG",
      "taf": "TAF LEZL 140800Z 1409/1509 VRB03KT CAVOK TX34/1415Z TN18/1505Z"
    },
    {
      "icao": "LFBD",
      "alert": "OK",
      "vis_m": 9999,
      "fzfg": false,
      "metar_trigger": false,
      "taf_trigger": false,
      "metar": "METAR LFBD 141130Z AUTO VRB04KT CAVOK 33/18 Q1015 NOSIG",
      "taf": "TAF LFBD 141100Z 1412/1518 06005KT CAVOK TX37/1415Z TN21/1502Z"
    },
    {
      "icao": "LFLL",
      "alert": "OK",
      "vis_m": 9999,
      "fzfg": false,
      "metar_trigger": false,
      "taf_trigger": false,
      "metar": "METAR LFLL 141130Z VRB03KT CAVOK 35/13 Q1016 NOSIG",
      "taf": "TAF LFLL 141100Z 1412/1518 34005KT CAVOK"
    },
    {
      "icao": "LFLS",
      "alert": "OK",
      "vis_m": 9999,
      "fzfg": false,
      "metar_trigger": false,
      "taf_trigger": false,
      "metar": "METAR LFLS 141130Z AUTO 30006KT 250V360 CAVOK 33/14 Q1017 NOSIG",
      "taf": "TAF LFLS 140800Z 1409/1509 20006KT CAVOK"
    },
    {
      "icao": "LFMN",
      "alert": "OK",
      "vis_m": 9999,
      "fzfg": false,
      "metar_trigger": false,
      "taf_trigger": false,
      "metar": "METAR LFMN 141130Z 12007KT 9999 FEW019 30/24 Q1016 NOSIG",
      "taf": "TAF LFMN 140800Z 1409/1515 10008KT 9999 FEW022"
    },
    {
      "icao": "LFOB",
      "alert": "OK",
      "vis_m": 9999,
      "fzfg": false,
      "metar_trigger": false,
      "taf_trigger": false,
      "metar": "METAR LFOB 141130Z AUTO 02013KT 350V050 CAVOK 30/18 Q1017 NOSIG",
      "taf": "TAF LFOB 141100Z 1412/1512 02008KT CAVOK"
    },
    {
      "icao": "LFPO",
      "alert": "OK",
      "vis_m": 9999,
      "fzfg": false,
      "metar_trigger": false,
      "taf_trigger": false,
      "metar": "METAR LFPO 141130Z 04007KT 360V070 CAVOK 31/16 Q1016 NOSIG",
      "taf": "TAF LFPO 141100Z 1412/1518 02007KT CAVOK"
    },
    {
      "icao": "LFSB",
      "alert": "OK",
      "vis_m": 9999,
      "fzfg": false,
      "metar_trigger": false,
      "taf_trigger": false,
      "metar": "METAR LFSB 141130Z AUTO 30006KT 260V350 CAVOK 33/15 Q1015 TEMPO FEW080CB",
      "taf": "TAF LFSB 141100Z 1412/1512 32005KT CAVOK"
    },
    {
      "icao": "LGAV",
      "alert": "OK",
      "vis_m": 9999,
      "fzfg": false,
      "metar_trigger": false,
      "taf_trigger": false,
      "metar": "METAR LGAV 141120Z 08015KT 9999 SCT025 29/14 Q1015 NOSIG",
      "taf": "TAF LGAV 141100Z 1412/1512 04012KT 9999 FEW025"
    },
    {
      "icao": "LGTS",
      "alert": "OK",
      "vis_m": 9999,
      "fzfg": false,
      "metar_trigger": false,
      "taf_trigger": false,
      "metar": "METAR LGTS 141120Z 29011KT 9999 FEW025 32/16 Q1015 NOSIG",
      "taf": "TAF LGTS 141100Z 1412/1512 33015KT 9999 FEW030"
    },
    {
      "icao": "LHBP",
      "alert": "OK",
      "vis_m": 9999,
      "fzfg": false,
      "metar_trigger": false,
      "taf_trigger": false,
      "metar": "METAR LHBP 141130Z 23007KT 180V270 CAVOK 31/12 Q1017 NOSIG",
      "taf": "TAF LHBP 141115Z 1412/1512 20007KT CAVOK"
    },
    {
      "icao": "LHDC",
      "alert": "OK",
      "vis_m": 9999,
      "fzfg": false,
      "metar_trigger": false,
      "taf_trigger": false,
      "metar": "METAR LHDC 141115Z AUTO VRB06KT CAVOK 29/14 Q1017 NOSIG",
      "taf": "TAF LHDC 141115Z 1412/1421 33005KT CAVOK"
    },
    {
      "icao": "LIBD",
      "alert": "OK",
      "vis_m": 9999,
      "fzfg": false,
      "metar_trigger": false,
      "taf_trigger": false,
      "metar": "METAR LIBD 141120Z 04005KT 340V080 CAVOK 32/18 Q1018",
      "taf": "TAF LIBD 141100Z 1412/1512 02007KT CAVOK"
    },
    {
      "icao": "LIBG",
      "alert": "OK",
      "vis_m": 9999,
      "fzfg": false,
      "metar_trigger": false,
      "taf_trigger": false,
      "metar": "METAR LIBG 141120Z AUTO 02010KT 340V050 9999 NCD 34/12 Q1017",
      "taf": "TAF LIBG 141100Z 1412/1512 03010KT 9999 FEW030"
    },
    {
      "icao": "LIBP",
      "alert": "OK",
      "vis_m": 9999,
      "fzfg": false,
      "metar_trigger": false,
      "taf_trigger": false,
      "metar": "METAR LIBP 141120Z AUTO 07010KT 9999 NCD 34/17 Q1016",
      "taf": "TAF LIBP 141100Z 1412/1512 10013KT 9999 FEW050"
    },
    {
      "icao": "LIBR",
      "alert": "OK",
      "vis_m": 9999,
      "fzfg": false,
      "metar_trigger": false,
      "taf_trigger": false,
      "metar": "METAR LIBR 141120Z 01009KT CAVOK 29/20 Q1017",
      "taf": "TAF LIBR 141100Z 1412/1512 34012KT CAVOK"
    },
    {
      "icao": "LICA",
      "alert": "OK",
      "vis_m": 9999,
      "fzfg": false,
      "metar_trigger": false,
      "taf_trigger": false,
      "metar": "METAR LICA 141120Z AUTO 25015KT 9999 NCD 30/25 Q1019",
      "taf": "TAF LICA 141100Z 1412/1512 27013KT 9999 FEW020"
    },
    {
      "icao": "LICC",
      "alert": "OK",
      "vis_m": 9999,
      "fzfg": false,
      "metar_trigger": false,
      "taf_trigger": false,
      "metar": "METAR LICC 141120Z 08011KT CAVOK 32/22 Q1018",
      "taf": "TAF LICC 141100Z 1412/1512 09012KT CAVOK"
    },
    {
      "icao": "LICJ",
      "alert": "OK",
      "vis_m": 9999,
      "fzfg": false,
      "metar_trigger": false,
      "taf_trigger": false,
      "metar": "METAR LICJ 141120Z AUTO 03012KT 9999 NCD 29/24 Q1019",
      "taf": "TAF LICJ 141100Z 1412/1512 04013KT CAVOK"
    },
    {
      "icao": "LIMC",
      "alert": "OK",
      "vis_m": 9999,
      "fzfg": false,
      "metar_trigger": false,
      "taf_trigger": false,
      "metar": "METAR LIMC 141120Z 27006KT 200V350 CAVOK 33/18 Q1016 NOSIG",
      "taf": "TAF LIMC 141100Z 1412/1518 VRB05KT 9999 FEW060"
    },
    {
      "icao": "LIME",
      "alert": "OK",
      "vis_m": 9999,
      "fzfg": false,
      "metar_trigger": false,
      "taf_trigger": false,
      "metar": "METAR LIME 141120Z 21006KT 150V260 9999 FEW060 31/18 Q1016 NOSIG",
      "taf": "TAF LIME 141100Z 1412/1512 21010KT 9999 FEW060"
    },
    {
      "icao": "LIMF",
      "alert": "OK",
      "vis_m": 9999,
      "fzfg": false,
      "metar_trigger": false,
      "taf_trigger": false,
      "metar": "METAR LIMF 141120Z 14004KT 060V230 CAVOK 32/17 Q1017",
      "taf": "TAF LIMF 141100Z 1412/1512 VRB05KT 9999 SCT060"
    },
    {
      "icao": "LIMJ",
      "alert": "OK",
      "vis_m": 9999,
      "fzfg": false,
      "metar_trigger": false,
      "taf_trigger": false,
      "metar": "METAR LIMJ 141120Z 14010KT 9999 FEW025 28/25 Q1016",
      "taf": "TAF LIMJ 141100Z 1412/1512 15010KT 9999 FEW020"
    },
    {
      "icao": "LIPE",
      "alert": "OK",
      "vis_m": 9999,
      "fzfg": false,
      "metar_trigger": false,
      "taf_trigger": false,
      "metar": "METAR LIPE 141120Z VRB03KT CAVOK 34/19 Q1015",
      "taf": "TAF LIPE 141100Z 1412/1512 VRB06KT CAVOK"
    },
    {
      "icao": "LIPH",
      "alert": "OK",
      "vis_m": 9999,
      "fzfg": false,
      "metar_trigger": false,
      "taf_trigger": false,
      "metar": "METAR LIPH 141120Z 13008KT 110V170 9999 FEW030 33/17 Q1015",
      "taf": "TAF LIPH 141100Z 1412/1512 16010KT 9999 SCT030"
    },
    {
      "icao": "LIPQ",
      "alert": "OK",
      "vis_m": 9999,
      "fzfg": false,
      "metar_trigger": false,
      "taf_trigger": false,
      "metar": "METAR LIPQ 141120Z AUTO 19006KT 150V250 9999 NCD 32/14 Q1015",
      "taf": "TAF LIPQ 141100Z 1412/1512 18010KT 9999 SCT040"
    },
    {
      "icao": "LIPR",
      "alert": "OK",
      "vis_m": 9999,
      "fzfg": false,
      "metar_trigger": false,
      "taf_trigger": false,
      "metar": "METAR LIPR 141120Z 10010KT CAVOK 29/22 Q1015",
      "taf": "TAF LIPR 141100Z 1412/1512 10010KT CAVOK"
    },
    {
      "icao": "LIPX",
      "alert": "OK",
      "vis_m": 9999,
      "fzfg": false,
      "metar_trigger": false,
      "taf_trigger": false,
      "metar": "METAR LIPX 141120Z 12003KT 050V160 CAVOK 32/19 Q1015",
      "taf": "TAF LIPX 141100Z 1412/1512 VRB05KT 9999 FEW060"
    },
    {
      "icao": "LIPY",
      "alert": "OK",
      "vis_m": 9999,
      "fzfg": false,
      "metar_trigger": false,
      "taf_trigger": false,
      "metar": "METAR LIPY 141120Z AUTO 07008KT 9999 NCD 35/18 Q1015",
      "taf": "TAF LIPY 141100Z 1412/1512 12013KT 9999 FEW050"
    },
    {
      "icao": "LIPZ",
      "alert": "OK",
      "vis_m": 9999,
      "fzfg": false,
      "metar_trigger": false,
      "taf_trigger": false,
      "metar": "METAR LIPZ 141120Z 14007KT CAVOK 31/20 Q1015 NOSIG",
      "taf": "TAF LIPZ 141100Z 1412/1518 14011KT CAVOK"
    },
    {
      "icao": "LIRF",
      "alert": "OK",
      "vis_m": 9999,
      "fzfg": false,
      "metar_trigger": false,
      "taf_trigger": false,
      "metar": "METAR LIRF 141120Z 19008KT 150V220 CAVOK 34/19 Q1017 NOSIG",
      "taf": "TAF LIRF 141100Z 1412/1518 19012KT CAVOK"
    },
    {
      "icao": "LIRN",
      "alert": "OK",
      "vis_m": 9999,
      "fzfg": false,
      "metar_trigger": false,
      "taf_trigger": false,
      "metar": "METAR LIRN 141120Z 18007KT 140V220 CAVOK 31/23 Q1019 NOSIG",
      "taf": "TAF LIRN 141100Z 1412/1512 24010KT CAVOK"
    },
    {
      "icao": "LIRP",
      "alert": "OK",
      "vis_m": 9999,
      "fzfg": false,
      "metar_trigger": false,
      "taf_trigger": false,
      "metar": "METAR LIRP 141115Z 25010KT CAVOK 33/19 Q1016 NOSIG",
      "taf": "TAF LIRP 141100Z 1412/1512 27010KT CAVOK"
    },
    {
      "icao": "LIRZ",
      "alert": "OK",
      "vis_m": 9999,
      "fzfg": false,
      "metar_trigger": false,
      "taf_trigger": false,
      "metar": "METAR LIRZ 141120Z AUTO 21009G19KT 170V230 9999 NCD 34/14 Q1017",
      "taf": "TAF LIRZ 141100Z 1412/1512 22012KT CAVOK"
    },
    {
      "icao": "LJLJ",
      "alert": "OK",
      "vis_m": 9999,
      "fzfg": false,
      "metar_trigger": false,
      "taf_trigger": false,
      "metar": "METAR LJLJ 141130Z VRB04KT 9999 FEW040 BKN055 30/15 Q1017 NOSIG",
      "taf": "TAF LJLJ 141100Z 1412/1512 VRB02KT 9999 SCT055"
    },
    {
      "icao": "LKMT",
      "alert": "OK",
      "vis_m": 9999,
      "fzfg": false,
      "metar_trigger": false,
      "taf_trigger": false,
      "metar": "METAR LKMT 141130Z 01009KT 330V050 9999 SCT048 28/17 Q1018 NOSIG",
      "taf": "TAF LKMT 141100Z 1412/1512 02008KT 9999 SCT040"
    },
    {
      "icao": "LKPR",
      "alert": "OK",
      "vis_m": 9999,
      "fzfg": false,
      "metar_trigger": false,
      "taf_trigger": false,
      "metar": "METAR LKPR 141130Z 36012KT 340V050 CAVOK 26/16 Q1018 NOSIG",
      "taf": "TAF LKPR 141100Z 1412/1518 01006KT CAVOK"
    },
    {
      "icao": "LLBG",
      "alert": "OK",
      "vis_m": 9999,
      "fzfg": false,
      "metar_trigger": false,
      "taf_trigger": false,
      "metar": "METAR LLBG 141120Z 29012KT CAVOK 31/20 Q1007 NOSIG",
      "taf": "TAF LLBG 141101Z 1412/1512 28010KT CAVOK TX31/1412Z TN23/1503Z"
    },
    {
      "icao": "LMML",
      "alert": "OK",
      "vis_m": 9999,
      "fzfg": false,
      "metar_trigger": false,
      "taf_trigger": false,
      "metar": "METAR LMML 141145Z 32009KT 290V010 CAVOK 35/18 Q1019 NOSIG",
      "taf": "TAF LMML 141100Z 1412/1512 29008KT 9999 FEW015"
    },
    {
      "icao": "LOWW",
      "alert": "OK",
      "vis_m": 9999,
      "fzfg": false,
      "metar_trigger": false,
      "taf_trigger": false,
      "metar": "METAR LOWW 141120Z 16008KT 120V190 CAVOK 30/11 Q1016 NOSIG",
      "taf": "TAF LOWW 141115Z 1412/1518 11010KT CAVOK TX31/1413Z TN19/1504Z"
    },
    {
      "icao": "LPFR",
      "alert": "OK",
      "vis_m": 9999,
      "fzfg": false,
      "metar_trigger": false,
      "taf_trigger": false,
      "metar": "METAR LPFR 141130Z 23010KT CAVOK 23/18 Q1017",
      "taf": "TAF LPFR 141100Z 1412/1512 24013KT CAVOK"
    },
    {
      "icao": "LPMA",
      "alert": "OK",
      "vis_m": 9999,
      "fzfg": false,
      "metar_trigger": false,
      "taf_trigger": false,
      "metar": "METAR LPMA 141130Z 18008KT 160V220 9999 SCT015 24/20 Q1018",
      "taf": "TAF LPMA 141100Z 1412/1512 19010KT 9999 SCT015"
    },
    {
      "icao": "LPPR",
      "alert": "OK",
      "vis_m": 9999,
      "fzfg": false,
      "metar_trigger": false,
      "taf_trigger": false,
      "metar": "METAR LPPR 141130Z 29004KT 260V330 9999 FEW014 22/16 Q1017",
      "taf": "TAF LPPR 141100Z 1412/1512 29010KT 9999 SCT020"
    },
    {
      "icao": "LPPS",
      "alert": "OK",
      "vis_m": 9999,
      "fzfg": false,
      "metar_trigger": false,
      "taf_trigger": false,
      "metar": "METAR LPPS 141130Z 16006KT 120V200 9999 FEW015 24/18 Q1019",
      "taf": "TAF LPPS 141100Z 1412/1518 18010KT 9999 SCT015"
    },
    {
      "icao": "LPPT",
      "alert": "OK",
      "vis_m": 9999,
      "fzfg": false,
      "metar_trigger": false,
      "taf_trigger": false,
      "metar": "METAR LPPT 141130Z VRB05KT 9999 FEW040 25/15 Q1017 NOSIG",
      "taf": "TAF LPPT 141100Z 1412/1518 VRB05KT 9999 FEW030"
    },
    {
      "icao": "LQBK",
      "alert": "OK",
      "vis_m": 9999,
      "fzfg": false,
      "metar_trigger": false,
      "taf_trigger": false,
      "metar": "METAR LQBK 141130Z VRB04KT 9999 FEW040 33/12 Q1016 NOSIG",
      "taf": "TAF LQBK 141100Z 1412/1512 14005KT CAVOK TX34/1414Z TN18/1503Z"
    },
    {
      "icao": "LQSA",
      "alert": "OK",
      "vis_m": 9999,
      "fzfg": false,
      "metar_trigger": false,
      "taf_trigger": false,
      "metar": "METAR LQSA 141130Z VRB03KT CAVOK 29/12 Q1019 NOSIG",
      "taf": "TAF LQSA 141100Z 1412/1512 VRB02KT CAVOK TX32/1512Z TN15/1504Z"
    },
    {
      "icao": "LQTZ",
      "alert": "OK",
      "vis_m": 9999,
      "fzfg": false,
      "metar_trigger": false,
      "taf_trigger": false,
      "metar": "METAR LQTZ 141130Z 12006KT 080V160 CAVOK 30/13 Q1018",
      "taf": "TAF LQTZ 141100Z 1412/1512 VRB02KT CAVOK TX32/1414Z TN16/1503Z"
    },
    {
      "icao": "LRBC",
      "alert": "OK",
      "vis_m": 9999,
      "fzfg": false,
      "metar_trigger": false,
      "taf_trigger": false,
      "metar": "METAR LRBC 141130Z 35012KT 9999 BKN033 27/18 Q1015",
      "taf": "TAF LRBC 141100Z 1412/1421 34012KT 9999 BKN035"
    },
    {
      "icao": "LRBS",
      "alert": "OK",
      "vis_m": 9999,
      "fzfg": false,
      "metar_trigger": false,
      "taf_trigger": false,
      "metar": "METAR LRBS 141130Z 27007KT 220V340 CAVOK 29/15 Q1015 NOSIG",
      "taf": "TAF LRBS 141100Z 1412/1512 VRB04KT CAVOK"
    },
    {
      "icao": "LRBV",
      "alert": "OK",
      "vis_m": 9999,
      "fzfg": false,
      "metar_trigger": false,
      "taf_trigger": false,
      "metar": "METAR LRBV 141130Z 29011KT 250V330 9999 FEW037 SCT055 24/14 Q1018",
      "taf": "TAF LRBV 141100Z 1412/1421 29010KT 9999 BKN045"
    },
    {
      "icao": "LRCL",
      "alert": "OK",
      "vis_m": 9999,
      "fzfg": false,
      "metar_trigger": false,
      "taf_trigger": false,
      "metar": "METAR LRCL 141130Z 31008KT 260V040 9999 FEW042 29/14 Q1017",
      "taf": "TAF LRCL 141100Z 1412/1421 32008KT 9999 SCT040"
    },
    {
      "icao": "LRCV",
      "alert": "OK",
      "vis_m": 9999,
      "fzfg": false,
      "metar_trigger": false,
      "taf_trigger": false,
      "metar": "METAR LRCV 141130Z 30005KT 250V330 CAVOK 29/13 Q1016",
      "taf": "TAF LRCV 141100Z 1412/1421 29007KT CAVOK"
    },
    {
      "icao": "LRIA",
      "alert": "OK",
      "vis_m": 9999,
      "fzfg": false,
      "metar_trigger": false,
      "taf_trigger": false,
      "metar": "METAR LRIA 141130Z 32008KT 270V010 9999 SCT025 26/18 Q1014",
      "taf": "TAF LRIA 141100Z 1412/1421 33012KT 9999 SCT035"
    },
    {
      "icao": "LROP",
      "alert": "OK",
      "vis_m": 9999,
      "fzfg": false,
      "metar_trigger": false,
      "taf_trigger": false,
      "metar": "METAR LROP 141130Z 30010KT CAVOK 29/14 Q1015 NOSIG",
      "taf": "TAF LROP 141100Z 1412/1512 VRB04KT CAVOK"
    },
    {
      "icao": "LRSB",
      "alert": "OK",
      "vis_m": 9999,
      "fzfg": false,
      "metar_trigger": false,
      "taf_trigger": false,
      "metar": "METAR LRSB 141130Z VRB05KT 9999 FEW043 26/15 Q1018",
      "taf": "TAF LRSB 141100Z 1412/1512 VRB04KT 9999 SCT050"
    },
    {
      "icao": "LRSM",
      "alert": "OK",
      "vis_m": 9999,
      "fzfg": false,
      "metar_trigger": false,
      "taf_trigger": false,
      "metar": "METAR LRSM 141130Z VRB03KT 9999 FEW045 29/16 Q1016",
      "taf": "TAF LRSM 141100Z 1412/1421 34006KT 9999 SCT045"
    },
    {
      "icao": "LRSV",
      "alert": "OK",
      "vis_m": 9999,
      "fzfg": false,
      "metar_trigger": false,
      "taf_trigger": false,
      "metar": "METAR LRSV 141130Z 32013KT 9999 SCT032 26/19 Q1016",
      "taf": "TAF LRSV 141100Z 1412/1421 32014KT 9999 SCT040"
    },
    {
      "icao": "LRTM",
      "alert": "OK",
      "vis_m": 9999,
      "fzfg": false,
      "metar_trigger": false,
      "taf_trigger": false,
      "metar": "METAR LRTM 141130Z VRB05KT 9999 SCT040 27/18 Q1017",
      "taf": "TAF LRTM 141100Z 1412/1421 30008KT 9999 SCT040"
    },
    {
      "icao": "LRTR",
      "alert": "OK",
      "vis_m": 9999,
      "fzfg": false,
      "metar_trigger": false,
      "taf_trigger": false,
      "metar": "METAR LRTR 141130Z 31007KT 200V350 CAVOK 30/15 Q1017",
      "taf": "TAF LRTR 141100Z 1412/1512 31006KT 9999 SCT045"
    },
    {
      "icao": "LTAC",
      "alert": "OK",
      "vis_m": 9999,
      "fzfg": false,
      "metar_trigger": false,
      "taf_trigger": false,
      "metar": "METAR LTAC 141120Z 32009KT 240V350 9999 SCT040 SCT100 26/10 Q1013 NOSIG RMK RWY21C 29009KT 220V360 RWY03L 31008KT 250V350 RWY21R 28008KT 160V310 RWY03R 31010KT 260V350 RWY21L VRB08KT",
      "taf": "TAF LTAC 141040Z 1412/1512 VRB02KT 9999 SCT040 SCT100"
    },
    {
      "icao": "LTFM",
      "alert": "OK",
      "vis_m": 9999,
      "fzfg": false,
      "metar_trigger": false,
      "taf_trigger": false,
      "metar": "METAR LTFM 141120Z 35015KT 9999 SCT025 24/17 Q1016 NOSIG RMK RWY17L 35015KT RWY34L 35015KT RWY16R 34014KT RWY36 36015KT RWY18 35015KT 330V030",
      "taf": "TAF LTFM 141040Z 1412/1518 35015KT 9999 SCT025"
    },
    {
      "icao": "LUKK",
      "alert": "OK",
      "vis_m": 9999,
      "fzfg": false,
      "metar_trigger": false,
      "taf_trigger": false,
      "metar": "METAR LUKK 141130Z 34006KT 280V070 9999 SCT037 26/17 Q1013 TEMPO SCT035CB",
      "taf": "TAF LUKK 141054Z 1412/1512 33009KT 9999 SCT040"
    },
    {
      "icao": "LWOH",
      "alert": "OK",
      "vis_m": 9999,
      "fzfg": false,
      "metar_trigger": false,
      "taf_trigger": false,
      "metar": "METAR LWOH 141150Z 17007KT 140V220 9999 FEW040 26/15 Q1020",
      "taf": "TAF LWOH 141125Z 1412/1512 16008KT 9999 FEW040"
    },
    {
      "icao": "LWSK",
      "alert": "OK",
      "vis_m": 9999,
      "fzfg": false,
      "metar_trigger": false,
      "taf_trigger": false,
      "metar": "METAR LWSK 141150Z 28006KT 220V340 9999 SCT055 30/14 Q1017 NOSIG",
      "taf": "TAF LWSK 141125Z 1412/1512 26006KT 9999 SCT050"
    },
    {
      "icao": "LYBE",
      "alert": "OK",
      "vis_m": 9999,
      "fzfg": false,
      "metar_trigger": false,
      "taf_trigger": false,
      "metar": "METAR LYBE 141130Z VRB05KT CAVOK 29/15 Q1018 NOSIG",
      "taf": "TAF LYBE 141100Z 1412/1512 03006KT CAVOK TX31/1414Z TN21/1503Z"
    },
    {
      "icao": "LYNI",
      "alert": "OK",
      "vis_m": 9999,
      "fzfg": false,
      "metar_trigger": false,
      "taf_trigger": false,
      "metar": "METAR LYNI 141130Z 32012KT 280V360 9999 FEW040 30/13 Q1018 NOSIG",
      "taf": "TAF LYNI 141100Z 1412/1512 33012KT CAVOK TX32/1512Z TN15/1503Z"
    },
    {
      "icao": "LYPG",
      "alert": "OK",
      "vis_m": 9999,
      "fzfg": false,
      "metar_trigger": false,
      "taf_trigger": false,
      "metar": "METAR LYPG 141130Z 15006KT 080V200 9999 FEW050 33/13 Q1016 NOSIG",
      "taf": "TAF LYPG 141100Z 1412/1512 18010KT 9999 FEW050 TX35/1413Z TN23/1503Z"
    },
    {
      "icao": "LZIB",
      "alert": "OK",
      "vis_m": 9999,
      "fzfg": false,
      "metar_trigger": false,
      "taf_trigger": false,
      "metar": "METAR LZIB 141130Z VRB04KT CAVOK 30/13 Q1016 NOSIG",
      "taf": ""
    },
    {
      "icao": "LZKZ",
      "alert": "OK",
      "vis_m": 9999,
      "fzfg": false,
      "metar_trigger": false,
      "taf_trigger": false,
      "metar": "METAR LZKZ 141130Z 02006KT 330V080 9999 SCT045 28/16 Q1017 NOSIG",
      "taf": "TAF LZKZ 141115Z 1412/1512 01008KT CAVOK"
    },
    {
      "icao": "LZTT",
      "alert": "OK",
      "vis_m": 9999,
      "fzfg": false,
      "metar_trigger": false,
      "taf_trigger": false,
      "metar": "METAR LZTT 141130Z 04005KT 010V080 9999 SCT036 25/12 Q1020 NOSIG",
      "taf": "TAF LZTT 141115Z 1412/1512 VRB02KT 9999 FEW060"
    },
    {
      "icao": "OEJN",
      "alert": "OK",
      "vis_m": 9999,
      "fzfg": false,
      "metar_trigger": false,
      "taf_trigger": false,
      "metar": "METAR OEJN 141100Z 29010KT CAVOK 36/19 Q1003 NOSIG",
      "taf": "TAF OEJN 141100Z 1412/1518 30012KT 9999 FEW040"
    },
    {
      "icao": "OEMA",
      "alert": "OK",
      "vis_m": 9999,
      "fzfg": false,
      "metar_trigger": false,
      "taf_trigger": false,
      "metar": "METAR OEMA 141100Z 12007KT CAVOK 44/M04 Q1007 NOSIG",
      "taf": "TAF OEMA 141100Z 1412/1518 30010KT CAVOK"
    },
    {
      "icao": "OJAI",
      "alert": "OK",
      "vis_m": 5000,
      "fzfg": false,
      "metar_trigger": false,
      "taf_trigger": false,
      "metar": "METAR OJAI 141100Z 27009KT 5000 HZ NSC 33/08 Q1011 NOSIG",
      "taf": "TAF OJAI 140943Z 1412/1518 30008KT 5000 HZ NSC"
    },
    {
      "icao": "OMAA",
      "alert": "OK",
      "vis_m": 9999,
      "fzfg": false,
      "metar_trigger": false,
      "taf_trigger": false,
      "metar": "METAR OMAA 141130Z 27004KT 230V320 CAVOK 43/15 Q0995 NOSIG",
      "taf": "TAF OMAA 141100Z 1412/1518 30010KT 8000 NSC"
    },
    {
      "icao": "OMDB",
      "alert": "OK",
      "vis_m": 9000,
      "fzfg": false,
      "metar_trigger": false,
      "taf_trigger": false,
      "metar": "METAR OMDB 141130Z 33011KT 9000 NSC 39/25 Q0995 NOSIG",
      "taf": "TAF OMDB 141100Z 1412/1518 34010KT 8000 NSC"
    },
    {
      "icao": "UAAA",
      "alert": "OK",
      "vis_m": 9999,
      "fzfg": false,
      "metar_trigger": false,
      "taf_trigger": false,
      "metar": "METAR UAAA 141130Z 12003MPS 090V170 9999 FEW050CB SCT100 BKN200 34/09 Q1009 NOSIG",
      "taf": "TAF UAAA 141102Z 1412/1512 15003MPS 9999 FEW050CB SCT100 TX35/1510Z TN20/1501Z"
    },
    {
      "icao": "UBBB",
      "alert": "OK",
      "vis_m": 9999,
      "fzfg": false,
      "metar_trigger": false,
      "taf_trigger": false,
      "metar": "METAR UBBB 141130Z 03010KT CAVOK 32/17 Q1006 NOSIG",
      "taf": "TAF UBBB 141048Z 1412/1512 02008KT CAVOK TX32/1412Z TN24/1501Z"
    },
    {
      "icao": "UDSG",
      "alert": "OK",
      "vis_m": 9999,
      "fzfg": false,
      "metar_trigger": false,
      "taf_trigger": false,
      "metar": "METAR UDSG 141130Z 06010KT 9999 FEW049 29/16 Q1013 NOSIG",
      "taf": "TAF UDSG 141058Z 1412/1512 36008KT 9999 FEW050"
    },
    {
      "icao": "UDYZ",
      "alert": "OK",
      "vis_m": 9999,
      "fzfg": false,
      "metar_trigger": false,
      "taf_trigger": false,
      "metar": "METAR UDYZ 141130Z 17005KT 060V220 9999 FEW046 36/14 Q1005 NOSIG",
      "taf": "TAF UDYZ 141100Z 1412/1512 22006KT 9999 FEW040"
    },
    {
      "icao": "UGKO",
      "alert": "OK",
      "vis_m": 9999,
      "fzfg": false,
      "metar_trigger": false,
      "taf_trigger": false,
      "metar": "METAR UGKO 141130Z 27005KT 9999 SCT035 OVC046 25/20 Q1009 NOSIG",
      "taf": "TAF UGKO 141100Z 1412/1512 25007KT 9999 SCT015 OVC030 TX26/1511Z TN20/1502Z"
    }
  ]
}