{
  "ts_utc": "2026-02-12T06:45:44Z",
  "threshold_m": 150,
  "source": "stations_override.txt (ICAO list) + aviationweather.gov (METAR/TAF raw)",
  "station_count": 159,
  "stations": [
    {
      "icao": "BIKF",
      "alert": "OK",
      "vis_m": 9999,
      "fzfg": false,
      "metar_trigger": false,
      "taf_trigger": false,
      "metar": "METAR BIKF 120630Z 03015KT CAVOK M04/M10 Q1006",
      "taf": "TAF BIKF 120459Z 1206/1306 07007KT CAVOK TXM04/1218Z TNM07/1209Z"
    },
    {
      "icao": "BKPR",
      "alert": "OK",
      "vis_m": 9999,
      "fzfg": false,
      "metar_trigger": false,
      "taf_trigger": false,
      "metar": "METAR BKPR 120630Z 16002KT 9999 SCT015 BKN025 05/05 Q0994 NOSIG",
      "taf": "TAF BKPR 120530Z 1206/1306 18010KT 9999 SCT020 BKN050"
    },
    {
      "icao": "EBCI",
      "alert": "OK",
      "vis_m": 6000,
      "fzfg": false,
      "metar_trigger": false,
      "taf_trigger": false,
      "metar": "METAR EBCI 120620Z 30012KT 270V350 6000 -RADZ SCT003 BKN004 07/07 Q0975 TEMPO 4500 -SHRA",
      "taf": "TAF EBCI 120510Z 1206/1312 27009KT 7000 -RA SCT007 BKN012"
    },
    {
      "icao": "EDDB",
      "alert": "OK",
      "vis_m": 5000,
      "fzfg": false,
      "metar_trigger": false,
      "taf_trigger": false,
      "metar": "METAR EDDB 120620Z AUTO 16003KT 5000 1100 R24R/P2000N R24L/1700U BR FEW002 BKN021 OVC046 05/05 Q0980 REDZ TEMPO 0600 FG BKN001",
      "taf": "TAF EDDB 120500Z 1206/1306 16004KT 0400 FG VV002"
    },
    {
      "icao": "EDDH",
      "alert": "OK",
      "vis_m": 7000,
      "fzfg": false,
      "metar_trigger": false,
      "taf_trigger": false,
      "metar": "METAR EDDH 120620Z AUTO 09006KT 7000 OVC003 02/01 Q0979 TEMPO 4000 BR",
      "taf": "TAF EDDH 120500Z 1206/1312 08008KT 4000 BR OVC003"
    },
    {
      "icao": "EDDK",
      "alert": "OK",
      "vis_m": 9999,
      "fzfg": false,
      "metar_trigger": false,
      "taf_trigger": false,
      "metar": "METAR EDDK 120620Z AUTO 11003KT 070V140 9999 -SHRA OVC021 FEW///TCU 09/08 Q0974 RESHRA NOSIG",
      "taf": "TAF EDDK 120500Z 1206/1312 15009KT 9999 BKN020"
    },
    {
      "icao": "EDDN",
      "alert": "OK",
      "vis_m": 9999,
      "fzfg": false,
      "metar_trigger": false,
      "taf_trigger": false,
      "metar": "METAR EDDN 120620Z AUTO 15009KT 9999 BKN038 BKN045 05/04 Q0980 NOSIG",
      "taf": "TAF EDDN 120500Z 1206/1306 14009KT 9999 FEW014 BKN020"
    },
    {
      "icao": "EDDS",
      "alert": "OK",
      "vis_m": 9999,
      "fzfg": false,
      "metar_trigger": false,
      "taf_trigger": false,
      "metar": "METAR EDDS 120620Z AUTO 18007KT 9999 BKN035 07/05 Q0979 NOSIG",
      "taf": "TAF EDDS 120500Z 1206/1306 18006KT 9999 BKN030"
    },
    {
      "icao": "EDFH",
      "alert": "OK",
      "vis_m": 9999,
      "fzfg": false,
      "metar_trigger": false,
      "taf_trigger": false,
      "metar": "METAR EDFH 120620Z 21014KT 9999 FEW006 BKN011 OVC031 07/06 Q0975",
      "taf": "TAF EDFH 120500Z 1206/1306 20012KT 9999 BKN015"
    },
    {
      "icao": "EDJA",
      "alert": "OK",
      "vis_m": 9999,
      "fzfg": false,
      "metar_trigger": false,
      "taf_trigger": false,
      "metar": "METAR EDJA 120620Z COR 17008KT 9999 BKN039 05/03 Q0981",
      "taf": "TAF EDJA 120500Z 1206/1215 20006KT 9999 BKN030"
    },
    {
      "icao": "EDLW",
      "alert": "OK",
      "vis_m": 7000,
      "fzfg": false,
      "metar_trigger": false,
      "taf_trigger": false,
      "metar": "METAR EDLW 120620Z 07004KT 040V100 7000 BKN015 BKN020 OVC024 08/07 Q0973",
      "taf": "TAF EDLW 120500Z 1206/1306 12006KT 9999 BKN020"
    },
    {
      "icao": "EDNY",
      "alert": "OK",
      "vis_m": 9999,
      "fzfg": false,
      "metar_trigger": false,
      "taf_trigger": false,
      "metar": "METAR EDNY 120620Z VRB02KT 9999 -RA FEW049 BKN056 05/04 Q0982",
      "taf": "TAF EDNY 120500Z 1206/1215 VRB02KT 9999 BKN035"
    },
    {
      "icao": "EDSB",
      "alert": "OK",
      "vis_m": 9999,
      "fzfg": false,
      "metar_trigger": false,
      "taf_trigger": false,
      "metar": "METAR EDSB 120620Z 20014KT 9999 -SHRA BKN036 OVC045 10/08 Q0979",
      "taf": "TAF EDSB 120500Z 1206/1306 21012KT 9999 BKN035"
    },
    {
      "icao": "EETN",
      "alert": "OK",
      "vis_m": 9999,
      "fzfg": false,
      "metar_trigger": false,
      "taf_trigger": false,
      "metar": "METAR EETN 120620Z 10007KT CAVOK M09/M12 Q0992 NOSIG",
      "taf": "TAF EETN 120530Z 1206/1306 09008KT 9999 BKN045"
    },
    {
      "icao": "EFTU",
      "alert": "OK",
      "vis_m": 9999,
      "fzfg": false,
      "metar_trigger": false,
      "taf_trigger": false,
      "metar": "METAR EFTU 120620Z AUTO 05006KT 020V080 9999 SCT011 M11/M13 Q0993",
      "taf": "TAF EFTU 120537Z 1206/1306 05006KT 9999 BKN018"
    },
    {
      "icao": "EGBB",
      "alert": "OK",
      "vis_m": 9999,
      "fzfg": false,
      "metar_trigger": false,
      "taf_trigger": false,
      "metar": "METAR EGBB 120620Z 24003KT CAVOK 05/04 Q0980",
      "taf": "TAF EGBB 120502Z 1206/1306 28006KT 9999 FEW020"
    },
    {
      "icao": "EGGP",
      "alert": "OK",
      "vis_m": 9999,
      "fzfg": false,
      "metar_trigger": false,
      "taf_trigger": false,
      "metar": "METAR EGGP 120620Z 04006KT 9999 BKN013 OVC024 05/04 Q0980",
      "taf": ""
    },
    {
      "icao": "EGGW",
      "alert": "OK",
      "vis_m": 9999,
      "fzfg": false,
      "metar_trigger": false,
      "taf_trigger": false,
      "metar": "METAR EGGW 120620Z AUTO 27009KT 9999 BKN044 06/05 Q0979",
      "taf": "TAF EGGW 120453Z 1206/1306 27004KT 9999 SCT020"
    },
    {
      "icao": "EGKK",
      "alert": "OK",
      "vis_m": 9999,
      "fzfg": false,
      "metar_trigger": false,
      "taf_trigger": false,
      "metar": "METAR EGKK 120620Z 24006KT 9999 BKN048 07/06 Q0980",
      "taf": "TAF EGKK 120455Z 1206/1312 VRB03KT 9999 SCT030"
    },
    {
      "icao": "EGNM",
      "alert": "OK",
      "vis_m": 8000,
      "fzfg": false,
      "metar_trigger": false,
      "taf_trigger": false,
      "metar": "METAR EGNM 120620Z 01015KT 8000 -RADZ OVC004 03/03 Q0980",
      "taf": "TAF EGNM 120454Z 1206/1306 36015KT 9999 FEW004 BKN010"
    },
    {
      "icao": "EGPD",
      "alert": "OK",
      "vis_m": 9999,
      "fzfg": false,
      "metar_trigger": false,
      "taf_trigger": false,
      "metar": "METAR EGPD 120620Z AUTO 02009KT 9999 -RA SCT025 OVC029 02/M01 Q0989 TEMPO BKN012",
      "taf": ""
    },
    {
      "icao": "EGPF",
      "alert": "OK",
      "vis_m": 9999,
      "fzfg": false,
      "metar_trigger": false,
      "taf_trigger": false,
      "metar": "METAR EGPF 120620Z AUTO 06011KT 9999 FEW023 SCT036 03/00 Q0986",
      "taf": "TAF EGPF 120458Z 1206/1306 07013KT 9999 BKN025"
    },
    {
      "icao": "EHBK",
      "alert": "OK",
      "vis_m": 3100,
      "fzfg": false,
      "metar_trigger": false,
      "taf_trigger": false,
      "metar": "METAR EHBK 120625Z AUTO 24006KT 210V270 3100 +DZ OVC001 09/09 Q0974 TEMPO 1200",
      "taf": "TAF EHBK 120505Z 1206/1312 21008KT 6000 -RADZ BKN018"
    },
    {
      "icao": "EHEH",
      "alert": "OK",
      "vis_m": 4200,
      "fzfg": false,
      "metar_trigger": false,
      "taf_trigger": false,
      "metar": "METAR EHEH 120625Z AUTO 34007KT 290V020 4200 -RA BKN002 BKN003 SCT015CB 08/08 Q0974 RERA REDZ AMB TEMPO 3000 RADZ SCT002 BKN004 RMK TREND REMOTE BY EHWX",
      "taf": ""
    },
    {
      "icao": "EKBI",
      "alert": "OK",
      "vis_m": 3600,
      "fzfg": false,
      "metar_trigger": false,
      "taf_trigger": false,
      "metar": "METAR EKBI 120620Z 06016KT 3600 -SN DRSN OVC007 M01/M02 Q0983",
      "taf": "TAF EKBI 120527Z 1206/1306 08015KT 1200 SN BKN005"
    },
    {
      "icao": "EKCH",
      "alert": "OK",
      "vis_m": 9999,
      "fzfg": false,
      "metar_trigger": false,
      "taf_trigger": false,
      "metar": "METAR EKCH 120620Z 07016KT 9999 BKN008 00/M02 Q0985 TEMPO BKN011",
      "taf": "TAF EKCH 120527Z 1206/1306 07015KT 8000 BKN015"
    },
    {
      "icao": "ENAL",
      "alert": "OK",
      "vis_m": 9999,
      "fzfg": false,
      "metar_trigger": false,
      "taf_trigger": false,
      "metar": "METAR ENAL 120620Z 15010KT CAVOK M02/M08 Q0990",
      "taf": "TAF ENAL 120500Z 1206/1215 17008KT 9999 FEW020 BKN040"
    },
    {
      "icao": "ENBR",
      "alert": "OK",
      "vis_m": 9999,
      "fzfg": false,
      "metar_trigger": false,
      "taf_trigger": false,
      "metar": "METAR ENBR 120620Z 08003KT 9999 SCT040 M04/M10 Q0991 NOSIG RMK WIND 1200FT 12006KT",
      "taf": "TAF ENBR 120500Z 1206/1306 VRB03KT 9999 FEW020 BKN040"
    },
    {
      "icao": "ENGM",
      "alert": "OK",
      "vis_m": 9999,
      "fzfg": false,
      "metar_trigger": false,
      "taf_trigger": false,
      "metar": "METAR ENGM 120620Z 02004KT 9999 SCT036 M10/M15 Q0993 NOSIG",
      "taf": "TAF ENGM 120500Z 1206/1306 01006KT 9999 BKN040"
    },
    {
      "icao": "ENHD",
      "alert": "OK",
      "vis_m": 9999,
      "fzfg": false,
      "metar_trigger": false,
      "taf_trigger": false,
      "metar": "METAR ENHD 120620Z 10004KT 9999 FEW034 BKN047 M02/M09 Q0991",
      "taf": "TAF ENHD 120500Z 1206/1215 11008KT 9999 FEW025 BKN040"
    },
    {
      "icao": "ENTC",
      "alert": "OK",
      "vis_m": 9999,
      "fzfg": false,
      "metar_trigger": false,
      "taf_trigger": false,
      "metar": "METAR ENTC 120620Z 23009KT 9999 SCT020 BKN044 M08/M12 Q0995 NOSIG RMK WIND 2600FT 28012KT",
      "taf": "TAF ENTC 120500Z 1206/1306 21008KT 9999 SCT050"
    },
    {
      "icao": "ENTO",
      "alert": "OK",
      "vis_m": 9999,
      "fzfg": false,
      "metar_trigger": false,
      "taf_trigger": false,
      "metar": "METAR ENTO 120620Z 03006KT 9999 OVC041 M07/M12 Q0993 NOSIG",
      "taf": "TAF ENTO 120500Z 1206/1306 04008KT 9999 FEW015 BKN040"
    },
    {
      "icao": "ENVA",
      "alert": "OK",
      "vis_m": 9999,
      "fzfg": false,
      "metar_trigger": false,
      "taf_trigger": false,
      "metar": "METAR ENVA 120620Z 07007KT CAVOK M11/M16 Q0994 NOSIG RMK WIND 670FT 13015KT",
      "taf": "TAF ENVA 120500Z 1206/1306 12008KT CAVOK"
    },
    {
      "icao": "ENZV",
      "alert": "OK",
      "vis_m": 9999,
      "fzfg": false,
      "metar_trigger": false,
      "taf_trigger": false,
      "metar": "METAR ENZV 120620Z 11005KT 9999 SCT045 M04/M09 Q0991 NOSIG",
      "taf": "TAF ENZV 120500Z 1206/1306 10005KT 9999 FEW020 BKN040"
    },
    {
      "icao": "EPGD",
      "alert": "OK",
      "vis_m": 150,
      "fzfg": true,
      "metar_trigger": false,
      "taf_trigger": false,
      "metar": "METAR EPGD 120630Z 06006KT 020V080 0150 R29/0375N FZFG VV001 M00/M00 Q0983",
      "taf": "TAF EPGD 120530Z 1206/1306 07008KT 0800 FG OVC002"
    },
    {
      "icao": "EPKK",
      "alert": "OK",
      "vis_m": 9999,
      "fzfg": false,
      "metar_trigger": false,
      "taf_trigger": false,
      "metar": "METAR EPKK 120630Z 25003KT 9999 BKN026 05/03 Q0985",
      "taf": "TAF EPKK 120530Z 1206/1306 24004KT 9999 BKN025"
    },
    {
      "icao": "EPKT",
      "alert": "OK",
      "vis_m": 9999,
      "fzfg": false,
      "metar_trigger": false,
      "taf_trigger": false,
      "metar": "METAR EPKT 120630Z 21007KT 9999 SCT007 BKN029 06/05 Q0984",
      "taf": "TAF EPKT 120530Z 1206/1306 22012KT 9999 OVC025"
    },
    {
      "icao": "EPLB",
      "alert": "OK",
      "vis_m": 9000,
      "fzfg": false,
      "metar_trigger": false,
      "taf_trigger": false,
      "metar": "METAR EPLB 120630Z 21008KT 9000 -RA OVC020 03/03 Q0985",
      "taf": "TAF EPLB 120530Z 1206/1306 21008KT 9999 -RA OVC018"
    },
    {
      "icao": "EPMO",
      "alert": "OK",
      "vis_m": 1500,
      "fzfg": false,
      "metar_trigger": false,
      "taf_trigger": false,
      "metar": "METAR EPMO 120630Z 07002KT 1500 0700E PRFG BR OVC004 01/01 Q0984",
      "taf": "TAF EPMO 120530Z 1206/1306 09003KT 2000 BR OVC005"
    },
    {
      "icao": "EPPO",
      "alert": "OK",
      "vis_m": 600,
      "fzfg": false,
      "metar_trigger": false,
      "taf_trigger": false,
      "metar": "METAR EPPO 120630Z 13004KT 0600 R28/1900D FG OVC001 02/02 Q0982",
      "taf": ""
    },
    {
      "icao": "EPRA",
      "alert": "OK",
      "vis_m": 5000,
      "fzfg": false,
      "metar_trigger": false,
      "taf_trigger": false,
      "metar": "METAR EPRA 120630Z 19007KT 5000 -DZ BR SCT008 OVC012 03/02 Q0984",
      "taf": "TAF EPRA 120530Z 1206/1215 19008KT 9999 OVC014"
    },
    {
      "icao": "EPRZ",
      "alert": "OK",
      "vis_m": 9999,
      "fzfg": false,
      "metar_trigger": false,
      "taf_trigger": false,
      "metar": "METAR EPRZ 120630Z 19011KT 9999 -RA BKN043 06/04 Q0986",
      "taf": "TAF EPRZ 120530Z 1206/1306 20012KT 9999 BKN035"
    },
    {
      "icao": "EPSC",
      "alert": "OK",
      "vis_m": 2900,
      "fzfg": false,
      "metar_trigger": false,
      "taf_trigger": false,
      "metar": "METAR EPSC 120630Z 06005KT 2900 BR FEW002 SCT003 BKN013 02/02 Q0981",
      "taf": "TAF EPSC 120530Z 1206/1306 07007KT 2300 -RA BR OVC002"
    },
    {
      "icao": "EPSY",
      "alert": "OK",
      "vis_m": 2400,
      "fzfg": false,
      "metar_trigger": false,
      "taf_trigger": false,
      "metar": "METAR EPSY 120630Z VRB02KT 2400 BR BKN017 OVC037 00/00 Q0983",
      "taf": "TAF EPSY 120530Z 1206/1215 VRB02KT 5000 BR BKN030"
    },
    {
      "icao": "EPWA",
      "alert": "OK",
      "vis_m": 1700,
      "fzfg": false,
      "metar_trigger": false,
      "taf_trigger": false,
      "metar": "METAR EPWA 120630Z 14005KT 1700 1100SE -DZ BR OVC002 02/01 Q0984 TEMPO 0800 FG",
      "taf": "TAF EPWA 120530Z 1206/1306 14005KT 6000 BKN010"
    },
    {
      "icao": "EPWR",
      "alert": "OK",
      "vis_m": 9999,
      "fzfg": false,
      "metar_trigger": false,
      "taf_trigger": false,
      "metar": "METAR EPWR 120630Z 19005KT 9999 BKN022 06/05 Q0982",
      "taf": "TAF EPWR 120530Z 1206/1306 18006KT 9999 SCT005 BKN019"
    },
    {
      "icao": "ESGG",
      "alert": "OK",
      "vis_m": 9999,
      "fzfg": false,
      "metar_trigger": false,
      "taf_trigger": false,
      "metar": "METAR ESGG 120620Z 03010KT 9999 OVC010 M05/M07 Q0989",
      "taf": "TAF ESGG 120530Z 1206/1306 04011KT 9999 BKN035"
    },
    {
      "icao": "ESKN",
      "alert": "OK",
      "vis_m": 9999,
      "fzfg": false,
      "metar_trigger": false,
      "taf_trigger": false,
      "metar": "METAR ESKN 120620Z 36005KT 290V030 9999 -SN BKN021 M07/M09 Q0992",
      "taf": "TAF ESKN 120530Z 1206/1306 01005KT 9999 -SN BKN020"
    },
    {
      "icao": "ESMS",
      "alert": "OK",
      "vis_m": 8000,
      "fzfg": false,
      "metar_trigger": false,
      "taf_trigger": false,
      "metar": "METAR ESMS 120620Z 06017KT 8000 OVC006 M00/M01 Q0984",
      "taf": "TAF ESMS 120527Z 1206/1306 07015KT 6000 OVC015"
    },
    {
      "icao": "ESSA",
      "alert": "OK",
      "vis_m": 9999,
      "fzfg": false,
      "metar_trigger": false,
      "taf_trigger": false,
      "metar": "METAR ESSA 120620Z 33005KT CAVOK M09/M11 Q0993 NOSIG",
      "taf": "TAF ESSA 120530Z 1206/1306 34005KT CAVOK"
    },
    {
      "icao": "EYKA",
      "alert": "OK",
      "vis_m": 1500,
      "fzfg": false,
      "metar_trigger": false,
      "taf_trigger": false,
      "metar": "METAR EYKA 120620Z 09002KT 1500 -SN BR OVC004 M00/M00 Q0986",
      "taf": "TAF EYKA 120500Z 1206/1306 VRB04KT 3000 SNRA BR OVC005"
    },
    {
      "icao": "EYPA",
      "alert": "OK",
      "vis_m": 4000,
      "fzfg": false,
      "metar_trigger": false,
      "taf_trigger": false,
      "metar": "METAR EYPA 120620Z 06008KT 4000 BR OVC007 M05/M07 Q0987",
      "taf": ""
    },
    {
      "icao": "EYVI",
      "alert": "OK",
      "vis_m": 4700,
      "fzfg": false,
      "metar_trigger": false,
      "taf_trigger": false,
      "metar": "METAR EYVI 120620Z 17005KT 4700 -SN BR OVC005 M01/M02 Q0986 TEMPO 3000 SN BR",
      "taf": "TAF EYVI 120500Z 1206/1306 VRB04KT 5000 SN BR BKN005"
    },
    {
      "icao": "GCFV",
      "alert": "OK",
      "vis_m": 9999,
      "fzfg": false,
      "metar_trigger": false,
      "taf_trigger": false,
      "metar": "METAR GCFV 120630Z 03012KT 9999 OVC013 18/15 Q1024",
      "taf": "TAF GCFV 120200Z 1203/1303 05012KT 9999 BKN016 TX22/1214Z TN17/1206Z"
    },
    {
      "icao": "GCLP",
      "alert": "OK",
      "vis_m": 9999,
      "fzfg": false,
      "metar_trigger": false,
      "taf_trigger": false,
      "metar": "METAR GCLP 120630Z 01013KT 9999 BKN020 18/15 Q1024 NOSIG",
      "taf": "TAF GCLP 120200Z 1203/1303 02014KT 9999 SCT015 TX23/1214Z TN17/1206Z"
    },
    {
      "icao": "GCTS",
      "alert": "OK",
      "vis_m": 9999,
      "fzfg": false,
      "metar_trigger": false,
      "taf_trigger": false,
      "metar": "METAR GCTS 120630Z 05008KT 9999 FEW015 17/14 Q1023 NOSIG",
      "taf": "TAF GCTS 120200Z 1203/1303 04009KT 9999 FEW020 TX25/1214Z TN17/1206Z"
    },
    {
      "icao": "GMAD",
      "alert": "OK",
      "vis_m": 4000,
      "fzfg": false,
      "metar_trigger": false,
      "taf_trigger": false,
      "metar": "METAR GMAD 120630Z 04003KT 360V070 4000 BR OVC002 15/15 Q1022 BECMG 5000 SCT010 BKN016",
      "taf": "TAF GMAD 120500Z 1206/1312 07004KT 3000 BR OVC004"
    },
    {
      "icao": "GMMN",
      "alert": "OK",
      "vis_m": 8000,
      "fzfg": false,
      "metar_trigger": false,
      "taf_trigger": false,
      "metar": "METAR GMMN 120630Z 30003KT 8000 SCT016 10/09 Q1025 NOSIG",
      "taf": "TAF GMMN 120500Z 1206/1312 18007KT 8000 SCT016"
    },
    {
      "icao": "GMMX",
      "alert": "OK",
      "vis_m": 4000,
      "fzfg": false,
      "metar_trigger": false,
      "taf_trigger": false,
      "metar": "METAR GMMX 120630Z 08004KT 4000 BR OVC006 15/14 Q1024 NOSIG",
      "taf": "TAF GMMX 120500Z 1206/1312 06006KT 0800 FG OVC004"
    },
    {
      "icao": "HEGN",
      "alert": "OK",
      "vis_m": 9999,
      "fzfg": false,
      "metar_trigger": false,
      "taf_trigger": false,
      "metar": "METAR HEGN 120600Z 29006KT CAVOK 18/01 Q1017 NOSIG",
      "taf": "TAF HEGN 120500Z 1206/1312 25008KT 6000 NSC"
    },
    {
      "icao": "HEMA",
      "alert": "OK",
      "vis_m": 9999,
      "fzfg": false,
      "metar_trigger": false,
      "taf_trigger": false,
      "metar": "METAR HEMA 120600Z 28008KT CAVOK 20/07 Q1017 NOSIG",
      "taf": "TAF HEMA 120500Z 1206/1312 26008KT CAVOK"
    },
    {
      "icao": "HESH",
      "alert": "OK",
      "vis_m": 9999,
      "fzfg": false,
      "metar_trigger": false,
      "taf_trigger": false,
      "metar": "METAR HESH 120600Z 34007KT CAVOK 21/05 Q1017 NOSIG",
      "taf": "TAF HESH 120500Z 1206/1312 29008KT 6000 NSC"
    },
    {
      "icao": "HESX",
      "alert": "OK",
      "vis_m": 9999,
      "fzfg": false,
      "metar_trigger": false,
      "taf_trigger": false,
      "metar": "METAR HESX 120600Z 16008KT CAVOK 17/02 Q1015 NOSIG",
      "taf": "TAF HESX 120500Z 1206/1312 20010KT 7000 NSC"
    },
    {
      "icao": "LATI",
      "alert": "OK",
      "vis_m": 9999,
      "fzfg": false,
      "metar_trigger": false,
      "taf_trigger": false,
      "metar": "METAR LATI 120620Z 10004KT 050V140 9999 SCT030 BKN060 10/10 Q0995 NOSIG",
      "taf": "TAF LATI 120500Z 1206/1306 VRB05KT 9999 SCT035 BKN070 TX15/1212Z TN09/1304Z"
    },
    {
      "icao": "LBPD",
      "alert": "OK",
      "vis_m": 7000,
      "fzfg": false,
      "metar_trigger": false,
      "taf_trigger": false,
      "metar": "METAR LBPD 120630Z AUTO 29006KT 7000 -RA SCT008/// OVC010/// 02/02 Q0997 NOSIG",
      "taf": "TAF LBPD 120500Z 1206/1306 VRB04KT 9999 BKN010"
    },
    {
      "icao": "LBSF",
      "alert": "OK",
      "vis_m": 6000,
      "fzfg": false,
      "metar_trigger": false,
      "taf_trigger": false,
      "metar": "METAR LBSF 120630Z 11003KT 6000 FEW085 M01/M01 Q0996 TEMPO 3000 BR",
      "taf": "TAF LBSF 120500Z 1206/1306 VRB04KT 9999 BKN070"
    },
    {
      "icao": "LBWN",
      "alert": "OK",
      "vis_m": 6000,
      "fzfg": false,
      "metar_trigger": false,
      "taf_trigger": false,
      "metar": "METAR LBWN 120630Z 12004KT 6000 FEW040 06/06 Q0998 NOSIG",
      "taf": "TAF LBWN 120500Z 1206/1306 09008KT 9999 SCT020 BKN050"
    },
    {
      "icao": "LCLK",
      "alert": "OK",
      "vis_m": 9999,
      "fzfg": false,
      "metar_trigger": false,
      "taf_trigger": false,
      "metar": "METAR LCLK 120630Z 21011KT 9999 SCT020 SCT060 18/15 Q1011 NOSIG",
      "taf": "TAF LCLK 120530Z 1206/1306 23010KT 9999 FEW030"
    },
    {
      "icao": "LCPH",
      "alert": "OK",
      "vis_m": 9999,
      "fzfg": false,
      "metar_trigger": false,
      "taf_trigger": false,
      "metar": "METAR LCPH 120630Z 17005KT 150V240 9999 FEW030 BKN050 BKN080 18/13 Q1011 NOSIG",
      "taf": "TAF LCPH 120530Z 1206/1306 23009KT 9999 FEW025 SCT035"
    },
    {
      "icao": "LEAL",
      "alert": "OK",
      "vis_m": 9999,
      "fzfg": false,
      "metar_trigger": false,
      "taf_trigger": false,
      "metar": "METAR LEAL 120630Z 28017KT 250V310 CAVOK 18/04 Q1011 NOSIG",
      "taf": "TAF LEAL 120500Z 1206/1306 27015KT 9999 FEW030 TX23/1213Z TN12/1206Z"
    },
    {
      "icao": "LEBB",
      "alert": "OK",
      "vis_m": 9999,
      "fzfg": false,
      "metar_trigger": false,
      "taf_trigger": false,
      "metar": "METAR LEBB 120630Z 27015KT 220V310 9999 SCT050 13/05 Q1008 NOSIG",
      "taf": ""
    },
    {
      "icao": "LEBL",
      "alert": "OK",
      "vis_m": 9999,
      "fzfg": false,
      "metar_trigger": false,
      "taf_trigger": false,
      "metar": "METAR LEBL 120630Z 28042G58KT 250V310 CAVOK 16/01 Q0996 NOSIG",
      "taf": ""
    },
    {
      "icao": "LECH",
      "alert": "OK",
      "vis_m": 9999,
      "fzfg": false,
      "metar_trigger": false,
      "taf_trigger": false,
      "metar": "METAR LECH 120630Z AUTO 27016KT 240V320 CAVOK 13/M01 Q1008",
      "taf": ""
    },
    {
      "icao": "LEMD",
      "alert": "OK",
      "vis_m": 9999,
      "fzfg": false,
      "metar_trigger": false,
      "taf_trigger": false,
      "metar": "METAR LEMD 120630Z 27010KT 240V300 CAVOK 09/01 Q1014 NOSIG",
      "taf": "TAF LEMD 120500Z 1206/1312 25010KT 9999 FEW030 TX13/1215Z TN08/1307Z"
    },
    {
      "icao": "LEMG",
      "alert": "OK",
      "vis_m": 9999,
      "fzfg": false,
      "metar_trigger": false,
      "taf_trigger": false,
      "metar": "METAR LEMG 120630Z 32009G20KT 280V350 9999 SCT045 17/12 Q1019 NOSIG",
      "taf": "TAF LEMG 120500Z 1206/1306 VRB03KT 9999 SCT050 TX23/1214Z TN11/1207Z"
    },
    {
      "icao": "LEVC",
      "alert": "OK",
      "vis_m": 9999,
      "fzfg": false,
      "metar_trigger": false,
      "taf_trigger": false,
      "metar": "METAR LEVC 120630Z 26022G32KT CAVOK 15/06 Q1011 NOSIG",
      "taf": "TAF LEVC 120500Z 1206/1306 27015KT 9999 FEW045 TX21/1214Z TN15/1206Z"
    },
    {
      "icao": "LEXJ",
      "alert": "OK",
      "vis_m": 9999,
      "fzfg": false,
      "metar_trigger": false,
      "taf_trigger": false,
      "metar": "METAR LEXJ 120630Z 29021KT 260V320 9999 FEW030 SCT065 13/05 Q1009",
      "taf": "TAF LEXJ 120200Z 1203/1303 27015KT 9999 FEW050 TX16/1213Z TN10/1207Z"
    },
    {
      "icao": "LEZG",
      "alert": "OK",
      "vis_m": 9999,
      "fzfg": false,
      "metar_trigger": false,
      "taf_trigger": false,
      "metar": "METAR LEZG 120630Z 28017KT CAVOK 12/03 Q1007 NOSIG",
      "taf": "TAF LEZG 120500Z 1206/1306 27015KT 9999 FEW050 TX17/1212Z TN10/1206Z"
    },
    {
      "icao": "LEZL",
      "alert": "OK",
      "vis_m": 9999,
      "fzfg": false,
      "metar_trigger": false,
      "taf_trigger": false,
      "metar": "METAR LEZL 120630Z 18003KT 140V220 9999 SCT015 14/13 Q1021 NOSIG",
      "taf": "TAF LEZL 120200Z 1203/1303 26005KT 9999 SCT030 TX20/1215Z TN13/1207Z"
    },
    {
      "icao": "LFBD",
      "alert": "OK",
      "vis_m": 9000,
      "fzfg": false,
      "metar_trigger": false,
      "taf_trigger": false,
      "metar": "METAR LFBD 120630Z AUTO 28028G41KT 9000 BKN028/// BKN033/// BKN040/// ///TCU 12/07 Q0999 TEMPO 1400 TSRA BKN014 BKN025CB",
      "taf": ""
    },
    {
      "icao": "LFLL",
      "alert": "OK",
      "vis_m": 9999,
      "fzfg": false,
      "metar_trigger": false,
      "taf_trigger": false,
      "metar": "METAR LFLL 120630Z 23015KT 9999 -RA FEW036TCU BKN040 10/07 Q0987 TEMPO 29015G25KT 4000 SHRA BKN035TCU",
      "taf": "TAF LFLL 120500Z 1206/1312 27012KT 9999 BKN040"
    },
    {
      "icao": "LFLS",
      "alert": "OK",
      "vis_m": 9999,
      "fzfg": false,
      "metar_trigger": false,
      "taf_trigger": false,
      "metar": "METAR LFLS 120630Z AUTO 21014KT 170V230 9999 -RA BKN041/// OVC048/// ///TCU 09/06 Q0987 TEMPO 26015G25KT RA",
      "taf": "TAF LFLS 120200Z 1203/1303 20012KT 9999 FEW025 OVC045"
    },
    {
      "icao": "LFMN",
      "alert": "OK",
      "vis_m": 9999,
      "fzfg": false,
      "metar_trigger": false,
      "taf_trigger": false,
      "metar": "METAR LFMN 120630Z VRB03KT 9999 FEW066 BKN230 13/07 Q0985 TEMPO 26025KT",
      "taf": ""
    },
    {
      "icao": "LFOB",
      "alert": "OK",
      "vis_m": 9999,
      "fzfg": false,
      "metar_trigger": false,
      "taf_trigger": false,
      "metar": "METAR LFOB 120630Z AUTO 28012KT 9999 -RADZ FEW013/// BKN021/// BKN029/// ///TCU 09/08 Q0982 TEMPO 28020G35KT 3000 SHRA BKN009",
      "taf": "TAF LFOB 120500Z 1206/1306 28015G25KT 9999 BKN020"
    },
    {
      "icao": "LFPO",
      "alert": "OK",
      "vis_m": 8000,
      "fzfg": false,
      "metar_trigger": false,
      "taf_trigger": false,
      "metar": "METAR LFPO 120630Z 28013KT 8000 OVC015 09/07 Q0983 TEMPO 20015G35KT",
      "taf": ""
    },
    {
      "icao": "LFSB",
      "alert": "OK",
      "vis_m": 9999,
      "fzfg": false,
      "metar_trigger": false,
      "taf_trigger": false,
      "metar": "METAR LFSB 120630Z AUTO 19005KT 160V220 9999 -RA FEW043/// SCT058/// BKN068/// ///CB 09/06 Q0981 TEMPO SHRA BECMG 24020G30KT",
      "taf": "TAF LFSB 120500Z 1206/1306 22010KT 9999 OVC045"
    },
    {
      "icao": "LGAV",
      "alert": "OK",
      "vis_m": 9999,
      "fzfg": false,
      "metar_trigger": false,
      "taf_trigger": false,
      "metar": "METAR LGAV 120620Z 26005KT 9999 SCT025 13/10 Q0996 NOSIG",
      "taf": "TAF LGAV 120500Z 1206/1306 21015KT 9999 SCT025 SCT070"
    },
    {
      "icao": "LGTS",
      "alert": "OK",
      "vis_m": 9999,
      "fzfg": false,
      "metar_trigger": false,
      "taf_trigger": false,
      "metar": "METAR LGTS 120620Z 31011KT 9999 FEW010 BKN030 BKN050 10/10 Q0995 NOSIG",
      "taf": "TAF LGTS 120500Z 1206/1306 34013KT 9999 FEW010 BKN030"
    },
    {
      "icao": "LHBP",
      "alert": "OK",
      "vis_m": 2300,
      "fzfg": false,
      "metar_trigger": false,
      "taf_trigger": false,
      "metar": "METAR LHBP 120630Z 11003KT 2300 0350SE R13R/2000N R13L/0500D BCFG BR NSC 03/02 Q0989 TEMPO 1400",
      "taf": "TAF LHBP 120515Z 1206/1306 14005KT 9999 BKN030 BKN080"
    },
    {
      "icao": "LHDC",
      "alert": "OK",
      "vis_m": 9999,
      "fzfg": false,
      "metar_trigger": false,
      "taf_trigger": false,
      "metar": "METAR LHDC 120615Z AUTO 18010KT 9999 OVC040 07/04 Q0991 NOSIG",
      "taf": "TAF LHDC 120515Z 1206/1215 18011KT 9999 SCT020 BKN080"
    },
    {
      "icao": "LIBD",
      "alert": "OK",
      "vis_m": 9999,
      "fzfg": false,
      "metar_trigger": false,
      "taf_trigger": false,
      "metar": "METAR LIBD 120620Z 20005KT CAVOK 08/07 Q0992",
      "taf": "TAF LIBD 120500Z 1206/1306 21006KT 9999 FEW040"
    },
    {
      "icao": "LIBG",
      "alert": "OK",
      "vis_m": null,
      "fzfg": false,
      "metar_trigger": false,
      "taf_trigger": false,
      "metar": "",
      "taf": ""
    },
    {
      "icao": "LIBP",
      "alert": "OK",
      "vis_m": 9999,
      "fzfg": false,
      "metar_trigger": false,
      "taf_trigger": false,
      "metar": "METAR LIBP 120620Z AUTO 19008KT 9999 -RA OVC070/// 13/06 Q0990",
      "taf": "TAF LIBP 120500Z 1206/1306 24008KT 9999 FEW060"
    },
    {
      "icao": "LIBR",
      "alert": "OK",
      "vis_m": 9999,
      "fzfg": false,
      "metar_trigger": false,
      "taf_trigger": false,
      "metar": "METAR LIBR 120620Z 21006KT CAVOK 09/08 Q0994",
      "taf": "TAF LIBR 120500Z 1206/1306 23006KT 9999 SCT030"
    },
    {
      "icao": "LICA",
      "alert": "OK",
      "vis_m": 9000,
      "fzfg": false,
      "metar_trigger": false,
      "taf_trigger": false,
      "metar": "METAR LICA 120620Z AUTO 25013KT 9000 SCT011/// BKN027/// 15/13 Q0997",
      "taf": "TAF LICA 120500Z 1206/1306 26016KT 9999 BKN020"
    },
    {
      "icao": "LICC",
      "alert": "OK",
      "vis_m": 9999,
      "fzfg": false,
      "metar_trigger": false,
      "taf_trigger": false,
      "metar": "METAR LICC 120620Z 27011KT 9999 RA BKN060 12/09 Q0999",
      "taf": "TAF LICC 120500Z 1206/1306 26016KT 9999 SCT030"
    },
    {
      "icao": "LICJ",
      "alert": "OK",
      "vis_m": 9999,
      "fzfg": false,
      "metar_trigger": false,
      "taf_trigger": false,
      "metar": "METAR LICJ 120620Z 21018KT 9999 -RA BKN025 16/14 Q0997",
      "taf": "TAF LICJ 120500Z 1206/1306 22018KT 9999 SCT020"
    },
    {
      "icao": "LIMC",
      "alert": "OK",
      "vis_m": 4000,
      "fzfg": false,
      "metar_trigger": false,
      "taf_trigger": false,
      "metar": "METAR LIMC 120620Z 36004KT 4000 BR OVC009 07/06 Q0987 NOSIG",
      "taf": "TAF LIMC 120500Z 1206/1312 VRB04KT 8000 SCT030"
    },
    {
      "icao": "LIME",
      "alert": "OK",
      "vis_m": 800,
      "fzfg": false,
      "metar_trigger": false,
      "taf_trigger": false,
      "metar": "METAR LIME 120620Z 19004KT 130V230 0800 R28/P2000N -DZ FG BKN003 OVC008 07/07 Q0987 NOSIG",
      "taf": "TAF LIME 120500Z 1206/1306 VRB05KT 7000 SCT020"
    },
    {
      "icao": "LIMF",
      "alert": "OK",
      "vis_m": 6000,
      "fzfg": false,
      "metar_trigger": false,
      "taf_trigger": false,
      "metar": "METAR LIMF 120620Z VRB01KT 6000 -DZ OVC012 07/05 Q0987",
      "taf": "TAF LIMF 120500Z 1206/1306 VRB05KT 9999 SCT020"
    },
    {
      "icao": "LIMJ",
      "alert": "OK",
      "vis_m": 9999,
      "fzfg": false,
      "metar_trigger": false,
      "taf_trigger": false,
      "metar": "METAR LIMJ 120620Z 04009KT 9999 SCT016 BKN028 11/09 Q0985",
      "taf": "TAF LIMJ 120500Z 1206/1306 03010KT 9999 SCT016"
    },
    {
      "icao": "LIPE",
      "alert": "OK",
      "vis_m": 50,
      "fzfg": false,
      "metar_trigger": false,
      "taf_trigger": false,
      "metar": "METAR LIPE 120620Z 33002KT 0050 R12/0375N R30/0325N FG VV001 07/07 Q0986",
      "taf": "TAF LIPE 120500Z 1206/1306 VRB05KT 0300 FG BKN001"
    },
    {
      "icao": "LIPH",
      "alert": "OK",
      "vis_m": 800,
      "fzfg": false,
      "metar_trigger": false,
      "taf_trigger": false,
      "metar": "METAR LIPH 120620Z 05004KT 0800 R07/P2000N -RA FG SCT001 BKN002 08/08 Q0988",
      "taf": "TAF LIPH 120500Z 1206/1306 04006KT 3000 BR BKN050"
    },
    {
      "icao": "LIPQ",
      "alert": "OK",
      "vis_m": 2600,
      "fzfg": false,
      "metar_trigger": false,
      "taf_trigger": false,
      "metar": "METAR LIPQ 120620Z AUTO 03002KT 2600 BR OVC002/// 09/09 Q0988",
      "taf": "TAF LIPQ 120500Z 1206/1306 VRB04KT 2000 BCFG BKN002"
    },
    {
      "icao": "LIPR",
      "alert": "OK",
      "vis_m": 9999,
      "fzfg": false,
      "metar_trigger": false,
      "taf_trigger": false,
      "metar": "METAR LIPR 120620Z 20013KT 9999 -RA BKN060 13/08 Q0987",
      "taf": "TAF LIPR 120500Z 1206/1306 16006KT 8000 BKN050"
    },
    {
      "icao": "LIPX",
      "alert": "OK",
      "vis_m": 3000,
      "fzfg": false,
      "metar_trigger": false,
      "taf_trigger": false,
      "metar": "METAR LIPX 120620Z 09006KT 060V120 3000 -DZ BR FEW015 BKN045 08/08 Q0987",
      "taf": "TAF LIPX 120500Z 1206/1306 07006KT 1500 BR BKN010"
    },
    {
      "icao": "LIPY",
      "alert": "OK",
      "vis_m": 9999,
      "fzfg": false,
      "metar_trigger": false,
      "taf_trigger": false,
      "metar": "METAR LIPY 120620Z AUTO VRB02KT 9999 DZ OVC053/// 11/08 Q0989",
      "taf": "TAF LIPY 120500Z 1206/1306 16006KT 7000 BKN050"
    },
    {
      "icao": "LIPZ",
      "alert": "OK",
      "vis_m": 2000,
      "fzfg": false,
      "metar_trigger": false,
      "taf_trigger": false,
      "metar": "METAR LIPZ 120620Z 04006KT 2000 -RA BR OVC002 08/08 Q0988 NOSIG",
      "taf": "TAF LIPZ 120500Z 1206/1312 06006KT 6000 SCT050"
    },
    {
      "icao": "LIRF",
      "alert": "OK",
      "vis_m": 4000,
      "fzfg": false,
      "metar_trigger": false,
      "taf_trigger": false,
      "metar": "METAR LIRF 120620Z 18007KT 150V210 4000 SHRA BR SCT005 BKN015 13/12 Q0990 RERA NOSIG",
      "taf": "TAF LIRF 120500Z 1206/1312 16008KT 9999 FEW020"
    },
    {
      "icao": "LIRN",
      "alert": "OK",
      "vis_m": 5000,
      "fzfg": false,
      "metar_trigger": false,
      "taf_trigger": false,
      "metar": "METAR LIRN 120620Z 18007KT 140V220 5000 -RA BR BKN020 13/12 Q0993 NOSIG",
      "taf": "TAF LIRN 120500Z 1206/1306 25012KT 9999 SCT020"
    },
    {
      "icao": "LIRP",
      "alert": "OK",
      "vis_m": 9999,
      "fzfg": false,
      "metar_trigger": false,
      "taf_trigger": false,
      "metar": "METAR LIRP 120615Z 20012KT 9999 -RA SCT030 BKN040 12/11 Q0985 NOSIG",
      "taf": "TAF LIRP 120500Z 1206/1306 10005KT 9999 SCT030 BKN040"
    },
    {
      "icao": "LIRZ",
      "alert": "OK",
      "vis_m": 9999,
      "fzfg": false,
      "metar_trigger": false,
      "taf_trigger": false,
      "metar": "METAR LIRZ 120620Z AUTO 13006KT 9999 -RA SCT030/// OVC039/// 10/09 Q0989",
      "taf": "TAF LIRZ 120500Z 1206/1306 19008KT 9999 BKN030"
    },
    {
      "icao": "LJLJ",
      "alert": "OK",
      "vis_m": 3000,
      "fzfg": false,
      "metar_trigger": false,
      "taf_trigger": false,
      "metar": "METAR LJLJ 120630Z VRB01KT 3000 BR SCT003 BKN040 05/05 Q0988 BECMG 5000",
      "taf": "TAF LJLJ 120500Z 1206/1306 VRB02KT 0300 FG VV002"
    },
    {
      "icao": "LKMT",
      "alert": "OK",
      "vis_m": 9999,
      "fzfg": false,
      "metar_trigger": false,
      "taf_trigger": false,
      "metar": "METAR LKMT 120630Z 24006KT 9999 BKN023 04/04 Q0985 NOSIG",
      "taf": "TAF LKMT 120500Z 1206/1306 22010KT 9999 BKN022"
    },
    {
      "icao": "LKPR",
      "alert": "OK",
      "vis_m": 9999,
      "fzfg": false,
      "metar_trigger": false,
      "taf_trigger": false,
      "metar": "METAR LKPR 120630Z 16006KT CAVOK 05/04 Q0982 NOSIG",
      "taf": "TAF LKPR 120500Z 1206/1312 19008KT 9999 SCT030"
    },
    {
      "icao": "LLBG",
      "alert": "OK",
      "vis_m": 9999,
      "fzfg": false,
      "metar_trigger": false,
      "taf_trigger": false,
      "metar": "METAR LLBG 120620Z 16006KT CAVOK 18/08 Q1016 NOSIG",
      "taf": "TAF LLBG 120504Z 1206/1306 16007KT CAVOK"
    },
    {
      "icao": "LMML",
      "alert": "OK",
      "vis_m": 9999,
      "fzfg": false,
      "metar_trigger": false,
      "taf_trigger": false,
      "metar": "METAR LMML 120615Z 21013KT 9999 FEW015 16/14 Q1002 NOSIG",
      "taf": "TAF LMML 120500Z 1206/1306 25015KT 9999 FEW020"
    },
    {
      "icao": "LOWW",
      "alert": "OK",
      "vis_m": 800,
      "fzfg": false,
      "metar_trigger": false,
      "taf_trigger": false,
      "metar": "METAR LOWW 120620Z 11008KT 0800 R16/1400N R29/0650D BCFG FEW000 SCT001 03/03 Q0985 TEMPO 0600 BCFG BKN002",
      "taf": "TAF LOWW 120515Z 1206/1312 14010KT 7000 FEW005 TX11/1312Z TN03/1206Z"
    },
    {
      "icao": "LPFR",
      "alert": "OK",
      "vis_m": 8000,
      "fzfg": false,
      "metar_trigger": false,
      "taf_trigger": false,
      "metar": "METAR LPFR 120630Z 27010KT 8000 SCT003 BKN005 15/15 Q1021",
      "taf": "TAF LPFR 120500Z 1206/1306 28007KT 9999 SCT025"
    },
    {
      "icao": "LPMA",
      "alert": "OK",
      "vis_m": 9999,
      "fzfg": false,
      "metar_trigger": false,
      "taf_trigger": false,
      "metar": "METAR LPMA 120630Z 21008KT 9999 BKN014 17/11 Q1025",
      "taf": "TAF LPMA 120500Z 1206/1306 22008KT 9999 SCT015"
    },
    {
      "icao": "LPPR",
      "alert": "OK",
      "vis_m": 9999,
      "fzfg": false,
      "metar_trigger": false,
      "taf_trigger": false,
      "metar": "METAR LPPR 120630Z 26004KT 220V350 9999 FEW020 12/09 Q1017",
      "taf": "TAF LPPR 120500Z 1206/1306 26005KT 9999 SCT015 SCT035"
    },
    {
      "icao": "LPPS",
      "alert": "OK",
      "vis_m": 9999,
      "fzfg": false,
      "metar_trigger": false,
      "taf_trigger": false,
      "metar": "METAR LPPS 120630Z 25004KT 9999 FEW014 14/11 Q1025",
      "taf": "TAF LPPS 120500Z 1206/1312 VRB05KT 9999 SCT015"
    },
    {
      "icao": "LPPT",
      "alert": "OK",
      "vis_m": 9999,
      "fzfg": false,
      "metar_trigger": false,
      "taf_trigger": false,
      "metar": "METAR LPPT 120630Z 23006KT 9999 FEW012 BKN026 13/12 Q1020",
      "taf": "TAF LPPT 120500Z 1206/1312 25008KT 9999 SCT025"
    },
    {
      "icao": "LQBK",
      "alert": "OK",
      "vis_m": 9999,
      "fzfg": false,
      "metar_trigger": false,
      "taf_trigger": false,
      "metar": "METAR LQBK 120630Z 15007KT CAVOK 04/03 Q0989 NOSIG",
      "taf": "TAF LQBK 120500Z 1206/1306 15005KT 9999 SCT045 TX13/1213Z TN03/1206Z"
    },
    {
      "icao": "LQSA",
      "alert": "OK",
      "vis_m": 9999,
      "fzfg": false,
      "metar_trigger": false,
      "taf_trigger": false,
      "metar": "METAR LQSA 120630Z 00000KT CAVOK 02/02 Q0991 NOSIG",
      "taf": "TAF LQSA 120500Z 1206/1306 11005KT 9999 SCT050 TX13/1213Z TN02/1206Z"
    },
    {
      "icao": "LQTZ",
      "alert": "OK",
      "vis_m": 9999,
      "fzfg": false,
      "metar_trigger": false,
      "taf_trigger": false,
      "metar": "METAR LQTZ 120630Z 11001KT 9999 FEW001 01/01 Q0991",
      "taf": "TAF LQTZ 120500Z 1206/1306 31005KT 9999 SCT060 TX17/1213Z TN00/1206Z"
    },
    {
      "icao": "LRBC",
      "alert": "OK",
      "vis_m": 200,
      "fzfg": true,
      "metar_trigger": false,
      "taf_trigger": false,
      "metar": "METAR LRBC 120630Z 18009KT 0200 R16/0500N FZFG VV002 M01/M01 Q0995",
      "taf": "TAF LRBC 120500Z 1206/1215 17010KT 0600 FZFG OVC001"
    },
    {
      "icao": "LRBS",
      "alert": "OK",
      "vis_m": 3000,
      "fzfg": false,
      "metar_trigger": false,
      "taf_trigger": false,
      "metar": "METAR LRBS 120630Z 22005KT 3000 BR NSC 01/00 Q0997 NOSIG",
      "taf": "TAF LRBS 120500Z 1206/1306 VRB04KT 3000 BR NSC"
    },
    {
      "icao": "LRBV",
      "alert": "OK",
      "vis_m": 9999,
      "fzfg": false,
      "metar_trigger": false,
      "taf_trigger": false,
      "metar": "METAR LRBV 120630Z VRB01KT 9999 FEW074 M00/M02 Q0994",
      "taf": "TAF LRBV 120500Z 1206/1215 VRB04KT CAVOK"
    },
    {
      "icao": "LRCL",
      "alert": "OK",
      "vis_m": 9999,
      "fzfg": false,
      "metar_trigger": false,
      "taf_trigger": false,
      "metar": "METAR LRCL 120630Z 00000KT 9999 SCT054 04/02 Q0992",
      "taf": "TAF LRCL 120500Z 1206/1215 VRB04KT CAVOK"
    },
    {
      "icao": "LRCV",
      "alert": "OK",
      "vis_m": 250,
      "fzfg": true,
      "metar_trigger": false,
      "taf_trigger": false,
      "metar": "METAR LRCV 120630Z VRB02KT 0250 R26/0300N FZFG VV001 M01/M01 Q0996",
      "taf": "TAF LRCV 120500Z 1206/1215 VRB04KT 0150 FZFG VV001"
    },
    {
      "icao": "LRIA",
      "alert": "OK",
      "vis_m": 200,
      "fzfg": true,
      "metar_trigger": false,
      "taf_trigger": false,
      "metar": "METAR LRIA 120630Z 11012KT 0200 R14/0500N FG VV001 00/M00 Q0994",
      "taf": "TAF LRIA 120500Z 1206/1215 10008KT 0300 FZFG OVC001"
    },
    {
      "icao": "LROP",
      "alert": "OK",
      "vis_m": 2000,
      "fzfg": false,
      "metar_trigger": false,
      "taf_trigger": false,
      "metar": "METAR LROP 120630Z 24003KT 190V280 2000 BR NSC 00/00 Q0997 NOSIG",
      "taf": "TAF LROP 120500Z 1206/1306 VRB04KT 3000 BR NSC"
    },
    {
      "icao": "LRSB",
      "alert": "OK",
      "vis_m": 9999,
      "fzfg": false,
      "metar_trigger": false,
      "taf_trigger": false,
      "metar": "METAR LRSB 120630Z VRB02KT 9999 SCT080 04/02 Q0993 NOSIG",
      "taf": "TAF LRSB 120500Z 1206/1306 VRB04KT CAVOK"
    },
    {
      "icao": "LRSM",
      "alert": "OK",
      "vis_m": 9999,
      "fzfg": false,
      "metar_trigger": false,
      "taf_trigger": false,
      "metar": "METAR LRSM 120630Z 12004KT 9999 -RA BKN040 07/04 Q0991",
      "taf": "TAF LRSM 120500Z 1206/1215 13008KT 9999 BKN030"
    },
    {
      "icao": "LRSV",
      "alert": "OK",
      "vis_m": 9999,
      "fzfg": false,
      "metar_trigger": false,
      "taf_trigger": false,
      "metar": "METAR LRSV 120630Z 24005KT CAVOK 02/M00 Q0991",
      "taf": "TAF LRSV 120500Z 1206/1215 21006KT CAVOK"
    },
    {
      "icao": "LRTM",
      "alert": "OK",
      "vis_m": 9999,
      "fzfg": false,
      "metar_trigger": false,
      "taf_trigger": false,
      "metar": "METAR LRTM 120630Z 09004KT 9999 SCT039 FEW043CB 04/02 Q0993",
      "taf": "TAF LRTM 120500Z 1206/1215 VRB04KT CAVOK"
    },
    {
      "icao": "LRTR",
      "alert": "OK",
      "vis_m": 9999,
      "fzfg": false,
      "metar_trigger": false,
      "taf_trigger": false,
      "metar": "METAR LRTR 120630Z 11009KT CAVOK 04/04 Q0992",
      "taf": "TAF LRTR 120500Z 1206/1306 08006KT CAVOK"
    },
    {
      "icao": "LTAC",
      "alert": "OK",
      "vis_m": 4000,
      "fzfg": false,
      "metar_trigger": false,
      "taf_trigger": false,
      "metar": "METAR LTAC 120620Z 00000KT 4000 BR FEW010 SCT040 BKN100 03/01 Q1005 BECMG TL0720 9999 NSW RMK RWY21C VRB02KT RWY03L 00000KT RWY21R VRB01KT RWY03R VRB01KT RWY21L 33002KT",
      "taf": "TAF LTAC 120440Z 1206/1306 VRB02KT 9999 SCT040 BKN100"
    },
    {
      "icao": "LTFM",
      "alert": "OK",
      "vis_m": 9999,
      "fzfg": false,
      "metar_trigger": false,
      "taf_trigger": false,
      "metar": "METAR LTFM 120620Z 16011KT 9999 -SHRA SCT035 BKN090 10/05 Q0997 NOSIG RMK RWY17L 16011KT RWY34L 16010KT RWY16R 16011KT RWY36 17010KT RWY18 17011KT",
      "taf": "TAF LTFM 120440Z 1206/1312 15012KT 9999 -SHRA BKN035 BKN080"
    },
    {
      "icao": "LUKK",
      "alert": "OK",
      "vis_m": 8000,
      "fzfg": false,
      "metar_trigger": false,
      "taf_trigger": false,
      "metar": "METAR LUKK 120630Z 17006KT 8000 OVC003 01/01 Q0996 NOSIG",
      "taf": "TAF LUKK 120510Z 1206/1306 17009KT 9999 OVC008"
    },
    {
      "icao": "LWOH",
      "alert": "OK",
      "vis_m": 9999,
      "fzfg": false,
      "metar_trigger": false,
      "taf_trigger": false,
      "metar": "METAR LWOH 120620Z 33002KT 9999 BKN020 OVC033 05/04 Q0995",
      "taf": "TAF LWOH 120530Z 1206/1306 18008KT 9999 SCT020 BKN040"
    },
    {
      "icao": "LWSK",
      "alert": "OK",
      "vis_m": 2000,
      "fzfg": false,
      "metar_trigger": false,
      "taf_trigger": false,
      "metar": "METAR LWSK 120620Z 00000KT 2000 BR OVC005 07/06 Q0995 NOSIG",
      "taf": ""
    },
    {
      "icao": "LYBE",
      "alert": "OK",
      "vis_m": 9999,
      "fzfg": false,
      "metar_trigger": false,
      "taf_trigger": false,
      "metar": "METAR LYBE 120630Z 13006KT CAVOK 06/03 Q0991 NOSIG",
      "taf": "TAF LYBE 120500Z 1206/1306 12010KT CAVOK TX17/1213Z TN04/1306Z"
    },
    {
      "icao": "LYNI",
      "alert": "OK",
      "vis_m": 9999,
      "fzfg": false,
      "metar_trigger": false,
      "taf_trigger": false,
      "metar": "METAR LYNI 120630Z 10012KT 9999 FEW037 06/02 Q0994 NOSIG",
      "taf": "TAF LYNI 120500Z 1206/1306 12010KT 9999 SCT060 TX15/1212Z TN04/1206Z"
    },
    {
      "icao": "LYPG",
      "alert": "OK",
      "vis_m": 3000,
      "fzfg": false,
      "metar_trigger": false,
      "taf_trigger": false,
      "metar": "METAR LYPG 120630Z VRB02KT 3000 BR FEW003 SCT040 BKN070 09/09 Q0995 BECMG 4000",
      "taf": "TAF LYPG 120500Z 1206/1306 16005KT 0400 FG FEW007 BKN040 OVC070 TX11/1213Z TN08/1305Z"
    },
    {
      "icao": "LZIB",
      "alert": "OK",
      "vis_m": 400,
      "fzfg": false,
      "metar_trigger": false,
      "taf_trigger": false,
      "metar": "METAR LZIB 120630Z 03007KT 0400 R31/0450N R22/0700N FG VV002 04/04 Q0987 TEMPO 0800 FG",
      "taf": "TAF LZIB 120515Z 1206/1306 03003KT 0800 FG BKN003"
    },
    {
      "icao": "LZKZ",
      "alert": "OK",
      "vis_m": 100,
      "fzfg": false,
      "metar_trigger": false,
      "taf_trigger": false,
      "metar": "METAR LZKZ 120630Z 23005KT 0100 R01/0450N FG VV002 04/04 Q0989 NOSIG",
      "taf": ""
    },
    {
      "icao": "LZTT",
      "alert": "OK",
      "vis_m": 9999,
      "fzfg": false,
      "metar_trigger": false,
      "taf_trigger": false,
      "metar": "METAR LZTT 120630Z 24010KT 9999 FEW020 SCT080 04/01 Q0986 NOSIG",
      "taf": "TAF LZTT 120515Z 1206/1306 24011KT 9999 BKN030"
    },
    {
      "icao": "OEJN",
      "alert": "OK",
      "vis_m": 8000,
      "fzfg": false,
      "metar_trigger": false,
      "taf_trigger": false,
      "metar": "METAR OEJN 120600Z 36004KT 8000 NSC 26/19 Q1014 NOSIG",
      "taf": "TAF OEJN 120500Z 1206/1312 30010KT 9999 FEW040"
    },
    {
      "icao": "OEMA",
      "alert": "OK",
      "vis_m": 9999,
      "fzfg": false,
      "metar_trigger": false,
      "taf_trigger": false,
      "metar": "METAR OEMA 120600Z 35003KT CAVOK 23/08 Q1019 NOSIG",
      "taf": "TAF OEMA 120500Z 1206/1312 VRB03KT CAVOK"
    },
    {
      "icao": "OJAI",
      "alert": "OK",
      "vis_m": 4000,
      "fzfg": false,
      "metar_trigger": false,
      "taf_trigger": false,
      "metar": "METAR OJAI 120600Z 12004KT 4000 BR NSC 09/06 Q1019 NOSIG",
      "taf": "TAF OJAI 120500Z 1206/1312 25012KT 5000 HZ FEW035"
    },
    {
      "icao": "OMAA",
      "alert": "OK",
      "vis_m": 9999,
      "fzfg": false,
      "metar_trigger": false,
      "taf_trigger": false,
      "metar": "METAR OMAA 120630Z 17009KT CAVOK 24/15 Q1019 NOSIG",
      "taf": "TAF OMAA 120500Z 1206/1312 17010KT 8000 NSC"
    },
    {
      "icao": "OMDB",
      "alert": "OK",
      "vis_m": 9999,
      "fzfg": false,
      "metar_trigger": false,
      "taf_trigger": false,
      "metar": "METAR OMDB 120630Z 16010KT 130V260 CAVOK 27/14 Q1020 NOSIG",
      "taf": "TAF OMDB 120500Z 1206/1312 16008KT 8000 NSC"
    },
    {
      "icao": "UAAA",
      "alert": "OK",
      "vis_m": 5000,
      "fzfg": false,
      "metar_trigger": false,
      "taf_trigger": false,
      "metar": "METAR UAAA 120630Z 01004MPS 5000 BR SCT005 BKN018CB OVC100 M01/M02 Q1021 NOSIG RMK QBB170",
      "taf": "TAF UAAA 120507Z 1206/1306 35003MPS 6000 BKN011CB OVC020 TX00/1209Z TNM05/1303Z"
    },
    {
      "icao": "UBBB",
      "alert": "OK",
      "vis_m": 9999,
      "fzfg": false,
      "metar_trigger": false,
      "taf_trigger": false,
      "metar": "METAR UBBB 120630Z 22004KT 9999 SCT012 04/01 Q1016 NOSIG",
      "taf": "TAF UBBB 120504Z 1206/1306 16010KT 9999 SCT025 TX08/1210Z TN01/1301Z"
    },
    {
      "icao": "UDSG",
      "alert": "OK",
      "vis_m": 3000,
      "fzfg": false,
      "metar_trigger": false,
      "taf_trigger": false,
      "metar": "METAR UDSG 120630Z 11001KT 3000 BR OVC005 M01/M01 Q1014 NOSIG",
      "taf": "TAF UDSG 120458Z 1206/1306 VRB06KT 3000 BR OVC020"
    },
    {
      "icao": "UDYZ",
      "alert": "OK",
      "vis_m": 3100,
      "fzfg": false,
      "metar_trigger": false,
      "taf_trigger": false,
      "metar": "METAR UDYZ 120630Z 26005KT 3100 -SHRA BR OVC025CB 03/02 Q1015 NOSIG",
      "taf": "TAF UDYZ 120500Z 1206/1306 VRB06KT 2300 BR OVC020"
    },
    {
      "icao": "UGKO",
      "alert": "OK",
      "vis_m": 9999,
      "fzfg": false,
      "metar_trigger": false,
      "taf_trigger": false,
      "metar": "METAR UGKO 120630Z 08014KT 9999 BKN096 08/01 Q1011 NOSIG",
      "taf": "TAF UGKO 120500Z 1206/1306 08015KT CAVOK TX17/1211Z TN09/1206Z"
    }
  ]
}