{
  "ts_utc": "2026-02-15T07:48:57Z",
  "threshold_m": 150,
  "source": "stations_override.txt (ICAO list) + aviationweather.gov (METAR/TAF raw)",
  "station_count": 159,
  "stations": [
    {
      "icao": "BIKF",
      "alert": "OK",
      "vis_m": 9999,
      "fzfg": false,
      "metar_trigger": false,
      "taf_trigger": false,
      "metar": "METAR BIKF 150730Z 06007KT CAVOK M04/M11 Q0996",
      "taf": "TAF BIKF 150438Z 1506/1606 07017KT CAVOK TXM02/1515Z TNM06/1522Z"
    },
    {
      "icao": "BKPR",
      "alert": "OK",
      "vis_m": 9999,
      "fzfg": false,
      "metar_trigger": false,
      "taf_trigger": false,
      "metar": "METAR BKPR 150730Z 07005KT 9999 FEW030 BKN055 06/06 Q0998 NOSIG",
      "taf": "TAF BKPR 150530Z 1506/1606 15006KT 9999 BKN030"
    },
    {
      "icao": "EBCI",
      "alert": "OK",
      "vis_m": 9999,
      "fzfg": false,
      "metar_trigger": false,
      "taf_trigger": false,
      "metar": "METAR EBCI 150720Z 18005KT CAVOK M03/M05 Q1016 NOSIG",
      "taf": "TAF EBCI 150515Z 1506/1612 14005KT CAVOK"
    },
    {
      "icao": "EDDB",
      "alert": "OK",
      "vis_m": 9999,
      "fzfg": false,
      "metar_trigger": false,
      "taf_trigger": false,
      "metar": "METAR EDDB 150720Z AUTO 01001KT 9999 BKN039 M02/M06 Q1020 NOSIG",
      "taf": "TAF EDDB 150500Z 1506/1606 35004KT 9999 BKN035"
    },
    {
      "icao": "EDDH",
      "alert": "OK",
      "vis_m": 9999,
      "fzfg": false,
      "metar_trigger": false,
      "taf_trigger": false,
      "metar": "METAR EDDH 150720Z AUTO 14005KT CAVOK M08/M09 Q1019 NOSIG",
      "taf": "TAF EDDH 150500Z 1506/1612 VRB02KT 9999 SCT015"
    },
    {
      "icao": "EDDK",
      "alert": "OK",
      "vis_m": 6000,
      "fzfg": false,
      "metar_trigger": false,
      "taf_trigger": false,
      "metar": "METAR EDDK 150720Z AUTO 11004KT 6000 NCD M04/M05 Q1018 NOSIG",
      "taf": "TAF EDDK 150500Z 1506/1612 VRB03KT 9999 FEW030"
    },
    {
      "icao": "EDDN",
      "alert": "OK",
      "vis_m": 9999,
      "fzfg": false,
      "metar_trigger": false,
      "taf_trigger": false,
      "metar": "METAR EDDN 150720Z AUTO VRB02KT 9999 FEW024 OVC036 M01/M04 Q1018 NOSIG",
      "taf": "TAF EDDN 150500Z 1506/1606 02003KT 9999 BKN020"
    },
    {
      "icao": "EDDS",
      "alert": "OK",
      "vis_m": 9999,
      "fzfg": false,
      "metar_trigger": false,
      "taf_trigger": false,
      "metar": "METAR EDDS 150720Z AUTO 06002KT 9999 FEW011 OVC029 M00/M02 Q1017 NOSIG",
      "taf": "TAF EDDS 150500Z 1506/1606 36004KT 9999 BKN025"
    },
    {
      "icao": "EDFH",
      "alert": "OK",
      "vis_m": 9999,
      "fzfg": false,
      "metar_trigger": false,
      "taf_trigger": false,
      "metar": "METAR EDFH 150720Z 13004KT 9999 FEW014 BKN024 M03/M04 Q1016",
      "taf": "TAF EDFH 150500Z 1506/1606 VRB03KT 9999 BKN025"
    },
    {
      "icao": "EDJA",
      "alert": "OK",
      "vis_m": 9999,
      "fzfg": false,
      "metar_trigger": false,
      "taf_trigger": false,
      "metar": "METAR EDJA 150720Z 04003KT 360V070 9999 BKN006 BKN014 OVC020 M02/M03 Q1016",
      "taf": "TAF EDJA 150500Z 1506/1515 01005KT 9999 SCT008 OVC013"
    },
    {
      "icao": "EDLW",
      "alert": "OK",
      "vis_m": 9999,
      "fzfg": false,
      "metar_trigger": false,
      "taf_trigger": false,
      "metar": "METAR EDLW 150720Z 11006KT 030V130 CAVOK M04/M06 Q1017",
      "taf": "TAF EDLW 150500Z 1506/1606 14004KT CAVOK"
    },
    {
      "icao": "EDNY",
      "alert": "OK",
      "vis_m": 4000,
      "fzfg": false,
      "metar_trigger": false,
      "taf_trigger": false,
      "metar": "METAR EDNY 150720Z VRB01KT 4000 BR SCT005 SCT007 OVC009 00/M00 Q1017",
      "taf": "TAF EDNY 150500Z 1506/1515 02004KT 6000 SCT013 OVC015"
    },
    {
      "icao": "EDSB",
      "alert": "OK",
      "vis_m": 9999,
      "fzfg": false,
      "metar_trigger": false,
      "taf_trigger": false,
      "metar": "METAR EDSB 150720Z 09005KT 9999 BKN045 01/M01 Q1018",
      "taf": "TAF EDSB 150500Z 1506/1606 02004KT 9999 BKN020"
    },
    {
      "icao": "EETN",
      "alert": "OK",
      "vis_m": 9999,
      "fzfg": false,
      "metar_trigger": false,
      "taf_trigger": false,
      "metar": "METAR EETN 150720Z 20006KT 9999 FEW015 M13/M17 Q1016 NOSIG",
      "taf": "TAF EETN 150530Z 1506/1606 20008KT 9999 SCT020"
    },
    {
      "icao": "EFTU",
      "alert": "OK",
      "vis_m": 9999,
      "fzfg": false,
      "metar_trigger": false,
      "taf_trigger": false,
      "metar": "METAR EFTU 150720Z AUTO 21005KT 9999 OVC006 M09/M11 Q1014",
      "taf": "TAF EFTU 150527Z 1506/1606 22005KT 9999 BKN007"
    },
    {
      "icao": "EGBB",
      "alert": "OK",
      "vis_m": 6000,
      "fzfg": false,
      "metar_trigger": false,
      "taf_trigger": false,
      "metar": "METAR EGBB 150720Z 17010KT 6000 -RA BKN007 BKN017 03/02 Q1004",
      "taf": "TAF EGBB 150458Z 1506/1606 17011KT 9999 BKN014"
    },
    {
      "icao": "EGGP",
      "alert": "OK",
      "vis_m": 9999,
      "fzfg": false,
      "metar_trigger": false,
      "taf_trigger": false,
      "metar": "METAR EGGP 150720Z 16011KT 9999 VCSH SCT017 BKN027 04/02 Q1000",
      "taf": "TAF EGGP 150455Z 1506/1606 17011KT 9999 SCT025"
    },
    {
      "icao": "EGGW",
      "alert": "OK",
      "vis_m": 8000,
      "fzfg": false,
      "metar_trigger": false,
      "taf_trigger": false,
      "metar": "METAR EGGW 150720Z AUTO 17012G22KT 140V200 8000 OVC006 02/01 Q1006",
      "taf": "TAF EGGW 150507Z 1506/1606 18017G27KT 9999 SCT025"
    },
    {
      "icao": "EGKK",
      "alert": "OK",
      "vis_m": 6000,
      "fzfg": false,
      "metar_trigger": false,
      "taf_trigger": false,
      "metar": "METAR EGKK 150720Z 17009KT 140V200 6000 -RA BKN007 04/03 Q1008",
      "taf": "TAF EGKK 150458Z 1506/1612 17012KT 9999 SCT012 BKN018"
    },
    {
      "icao": "EGNM",
      "alert": "OK",
      "vis_m": 9999,
      "fzfg": false,
      "metar_trigger": false,
      "taf_trigger": false,
      "metar": "METAR EGNM 150720Z 17010KT 9999 BKN006 01/01 Q1000",
      "taf": ""
    },
    {
      "icao": "EGPD",
      "alert": "OK",
      "vis_m": 9999,
      "fzfg": false,
      "metar_trigger": false,
      "taf_trigger": false,
      "metar": "METAR EGPD 150720Z AUTO 20015KT 9999 BKN010 02/00 Q0994 TEMPO SCT010",
      "taf": "TAF EGPD 150454Z 1506/1606 18018G30KT 9999 SCT020"
    },
    {
      "icao": "EGPF",
      "alert": "OK",
      "vis_m": 9000,
      "fzfg": false,
      "metar_trigger": false,
      "taf_trigger": false,
      "metar": "METAR EGPF 150720Z AUTO 17007KT 9000 -RA OVC010 05/04 Q0995",
      "taf": ""
    },
    {
      "icao": "EHBK",
      "alert": "OK",
      "vis_m": 9999,
      "fzfg": false,
      "metar_trigger": false,
      "taf_trigger": false,
      "metar": "METAR EHBK 150725Z AUTO 16006KT 9999 NSC M03/M05 Q1017 NOSIG",
      "taf": "TAF EHBK 150504Z 1506/1612 15005KT CAVOK"
    },
    {
      "icao": "EHEH",
      "alert": "OK",
      "vis_m": 9999,
      "fzfg": false,
      "metar_trigger": false,
      "taf_trigger": false,
      "metar": "METAR EHEH 150725Z AUTO 14005KT 060V210 9999 SCT280 BKN340 M04/M06 Q1017 BLU NOSIG RMK TREND REMOTE BY EHWX",
      "taf": "TAF EHEH 150503Z 1506/1612 15005KT CAVOK"
    },
    {
      "icao": "EKBI",
      "alert": "OK",
      "vis_m": 9999,
      "fzfg": false,
      "metar_trigger": false,
      "taf_trigger": false,
      "metar": "METAR EKBI 150720Z AUTO 15007KT 9999 BKN032/// OVC042/// M04/M06 Q1017",
      "taf": "TAF EKBI 150527Z 1506/1606 15005KT 9999 BKN030"
    },
    {
      "icao": "EKCH",
      "alert": "OK",
      "vis_m": 9999,
      "fzfg": false,
      "metar_trigger": false,
      "taf_trigger": false,
      "metar": "METAR EKCH 150720Z AUTO 14007KT 9999 NCD M04/M11 Q1020 NOSIG",
      "taf": "TAF EKCH 150527Z 1506/1606 VRB03KT CAVOK"
    },
    {
      "icao": "ENAL",
      "alert": "OK",
      "vis_m": 9999,
      "fzfg": false,
      "metar_trigger": false,
      "taf_trigger": false,
      "metar": "METAR ENAL 150720Z 19009KT 160V220 CAVOK 02/M07 Q1003",
      "taf": "TAF ENAL 150500Z 1506/1515 17012KT CAVOK"
    },
    {
      "icao": "ENBR",
      "alert": "OK",
      "vis_m": 9999,
      "fzfg": false,
      "metar_trigger": false,
      "taf_trigger": false,
      "metar": "METAR ENBR 150720Z 13014KT 9999 BKN038 00/M04 Q1006 NOSIG RMK WIND 1200FT 14030KT",
      "taf": "TAF ENBR 150500Z 1506/1606 14008KT 9999 SCT015"
    },
    {
      "icao": "ENGM",
      "alert": "OK",
      "vis_m": 9999,
      "fzfg": false,
      "metar_trigger": false,
      "taf_trigger": false,
      "metar": "METAR ENGM 150720Z 35002KT 9999 -SHSN BKN005 M17/M20 Q1014 TEMPO BKN004",
      "taf": ""
    },
    {
      "icao": "ENHD",
      "alert": "OK",
      "vis_m": 9999,
      "fzfg": false,
      "metar_trigger": false,
      "taf_trigger": false,
      "metar": "METAR ENHD 150720Z AUTO 13018KT 9999 SCT022/// 01/M02 Q1007",
      "taf": "TAF ENHD 150500Z 1506/1515 14012KT 9999 BKN030"
    },
    {
      "icao": "ENTC",
      "alert": "OK",
      "vis_m": 700,
      "fzfg": false,
      "metar_trigger": false,
      "taf_trigger": false,
      "metar": "METAR ENTC 150720Z 22017KT 0700 SN VV007 M03/M04 Q1000 RMK WIND 2600FT 25023KT",
      "taf": ""
    },
    {
      "icao": "ENTO",
      "alert": "OK",
      "vis_m": 9999,
      "fzfg": false,
      "metar_trigger": false,
      "taf_trigger": false,
      "metar": "METAR ENTO 150720Z 36004KT 9999 -SHSN SCT014 BKN018 OVC032 M10/M12 Q1015 BECMG BKN012",
      "taf": "TAF ENTO 150500Z 1506/1606 VRB03KT 9999 -SN BKN012"
    },
    {
      "icao": "ENVA",
      "alert": "OK",
      "vis_m": 9999,
      "fzfg": false,
      "metar_trigger": false,
      "taf_trigger": false,
      "metar": "METAR ENVA 150720Z 09007KT CAVOK M11/M14 Q1007 NOSIG RMK WIND 670FT 15010KT",
      "taf": "TAF ENVA 150500Z 1506/1606 10008KT 9999 FEW015 SCT025"
    },
    {
      "icao": "ENZV",
      "alert": "OK",
      "vis_m": 9999,
      "fzfg": false,
      "metar_trigger": false,
      "taf_trigger": false,
      "metar": "METAR ENZV 150720Z 13014KT 9999 FEW006 SCT025 BKN041 M00/M02 Q1008 TEMPO 1000 SHSN SCT018TCU",
      "taf": ""
    },
    {
      "icao": "EPGD",
      "alert": "OK",
      "vis_m": 9999,
      "fzfg": false,
      "metar_trigger": false,
      "taf_trigger": false,
      "metar": "METAR EPGD 150730Z 03003KT 9999 BKN018 M05/M07 Q1018",
      "taf": "TAF EPGD 150530Z 1506/1606 04005KT CAVOK"
    },
    {
      "icao": "EPKK",
      "alert": "OK",
      "vis_m": 2200,
      "fzfg": false,
      "metar_trigger": false,
      "taf_trigger": false,
      "metar": "METAR EPKK 150730Z VRB02KT 2200 -SN BR FEW003 OVC020 M03/M04 Q1013",
      "taf": ""
    },
    {
      "icao": "EPKT",
      "alert": "OK",
      "vis_m": 2300,
      "fzfg": false,
      "metar_trigger": false,
      "taf_trigger": false,
      "metar": "METAR EPKT 150730Z 34009KT 2300 -SN BR FEW006 BKN010 M04/M05 Q1014",
      "taf": "TAF EPKT 150530Z 1506/1606 34006KT 3000 -SN BR BKN020"
    },
    {
      "icao": "EPLB",
      "alert": "OK",
      "vis_m": 2600,
      "fzfg": false,
      "metar_trigger": false,
      "taf_trigger": false,
      "metar": "METAR EPLB 150730Z 36007KT 330V030 2600 -SN BR BKN035 OVC047 M07/M08 Q1013",
      "taf": "TAF EPLB 150530Z 1506/1606 36010KT 5000 -SN BR SCT008 BKN010"
    },
    {
      "icao": "EPMO",
      "alert": "OK",
      "vis_m": 9999,
      "fzfg": false,
      "metar_trigger": false,
      "taf_trigger": false,
      "metar": "METAR EPMO 150730Z 01006KT 9999 -SN BKN013 M07/M09 Q1016",
      "taf": "TAF EPMO 150530Z 1506/1606 36008KT 9999 BKN012"
    },
    {
      "icao": "EPPO",
      "alert": "OK",
      "vis_m": 9999,
      "fzfg": false,
      "metar_trigger": false,
      "taf_trigger": false,
      "metar": "METAR EPPO 150730Z 36007KT 9999 BKN037 M03/M10 Q1018",
      "taf": "TAF EPPO 150530Z 1506/1606 35010KT 9999 BKN020"
    },
    {
      "icao": "EPRA",
      "alert": "OK",
      "vis_m": 4000,
      "fzfg": false,
      "metar_trigger": false,
      "taf_trigger": false,
      "metar": "METAR EPRA 150730Z 35008KT 4000 -SN BR BKN007 OVC020 M05/M07 Q1014",
      "taf": "TAF EPRA 150530Z 1506/1515 35008KT 6000 -SN OVC006"
    },
    {
      "icao": "EPRZ",
      "alert": "OK",
      "vis_m": 4000,
      "fzfg": false,
      "metar_trigger": false,
      "taf_trigger": false,
      "metar": "METAR EPRZ 150730Z 31007KT 4000 -SN BR SCT003 BKN020 M04/M05 Q1012",
      "taf": ""
    },
    {
      "icao": "EPSC",
      "alert": "OK",
      "vis_m": 9999,
      "fzfg": false,
      "metar_trigger": false,
      "taf_trigger": false,
      "metar": "METAR EPSC 150730Z 29003KT 9999 FEW029 BKN042 M03/M05 Q1019",
      "taf": "TAF EPSC 150530Z 1506/1606 35005KT 9999 BKN035"
    },
    {
      "icao": "EPSY",
      "alert": "OK",
      "vis_m": 9999,
      "fzfg": false,
      "metar_trigger": false,
      "taf_trigger": false,
      "metar": "METAR EPSY 150730Z 01007KT CAVOK M10/M12 Q1017",
      "taf": "TAF EPSY 150530Z 1506/1515 01008KT CAVOK"
    },
    {
      "icao": "EPWA",
      "alert": "OK",
      "vis_m": 8000,
      "fzfg": false,
      "metar_trigger": false,
      "taf_trigger": false,
      "metar": "METAR EPWA 150730Z 02009KT 8000 -SN OVC013 M06/M08 Q1015 NOSIG",
      "taf": "TAF EPWA 150530Z 1506/1606 36007KT 9999 BKN013"
    },
    {
      "icao": "EPWR",
      "alert": "OK",
      "vis_m": 9999,
      "fzfg": false,
      "metar_trigger": false,
      "taf_trigger": false,
      "metar": "METAR EPWR 150730Z 34009KT 9999 OVC027 M02/M08 Q1017",
      "taf": "TAF EPWR 150530Z 1506/1606 34012KT 9999 BKN020"
    },
    {
      "icao": "ESGG",
      "alert": "OK",
      "vis_m": 9999,
      "fzfg": false,
      "metar_trigger": false,
      "taf_trigger": false,
      "metar": "METAR ESGG 150720Z 15007KT CAVOK M10/M13 Q1017",
      "taf": "TAF ESGG 150530Z 1506/1606 16008KT CAVOK"
    },
    {
      "icao": "ESKN",
      "alert": "OK",
      "vis_m": 9999,
      "fzfg": false,
      "metar_trigger": false,
      "taf_trigger": false,
      "metar": "METAR ESKN 150720Z 23001KT CAVOK M14/M16 Q1018",
      "taf": "TAF ESKN 150530Z 1506/1606 26003KT CAVOK"
    },
    {
      "icao": "ESMS",
      "alert": "OK",
      "vis_m": 9999,
      "fzfg": false,
      "metar_trigger": false,
      "taf_trigger": false,
      "metar": "METAR ESMS 150720Z 11003KT CAVOK M14/M15 Q1019",
      "taf": "TAF ESMS 150527Z 1506/1606 VRB03KT CAVOK"
    },
    {
      "icao": "ESSA",
      "alert": "OK",
      "vis_m": 9999,
      "fzfg": false,
      "metar_trigger": false,
      "taf_trigger": false,
      "metar": "METAR ESSA 150720Z 24010KT CAVOK M12/M14 Q1016 NOSIG",
      "taf": "TAF ESSA 150530Z 1506/1606 25008KT CAVOK"
    },
    {
      "icao": "EYKA",
      "alert": "OK",
      "vis_m": 9999,
      "fzfg": false,
      "metar_trigger": false,
      "taf_trigger": false,
      "metar": "METAR EYKA 150720Z 34004KT CAVOK M15/M18 Q1018",
      "taf": "TAF EYKA 150500Z 1506/1606 VRB04KT 9000 NSC"
    },
    {
      "icao": "EYPA",
      "alert": "OK",
      "vis_m": 9999,
      "fzfg": false,
      "metar_trigger": false,
      "taf_trigger": false,
      "metar": "METAR EYPA 150720Z VRB01KT CAVOK M19/M22 Q1020",
      "taf": "TAF EYPA 150500Z 1506/1606 VRB03KT 9000 NSC"
    },
    {
      "icao": "EYVI",
      "alert": "OK",
      "vis_m": 9999,
      "fzfg": false,
      "metar_trigger": false,
      "taf_trigger": false,
      "metar": "METAR EYVI 150720Z 03006KT CAVOK M14/M16 Q1016 NOSIG",
      "taf": "TAF EYVI 150500Z 1506/1606 VRB05KT 9000 NSC"
    },
    {
      "icao": "GCFV",
      "alert": "OK",
      "vis_m": 9999,
      "fzfg": false,
      "metar_trigger": false,
      "taf_trigger": false,
      "metar": "METAR GCFV 150730Z 02027KT 9999 FEW030 17/09 Q1025",
      "taf": "TAF GCFV 150200Z 1503/1603 03025KT 9999 FEW040 TX20/1514Z TN16/1506Z"
    },
    {
      "icao": "GCLP",
      "alert": "OK",
      "vis_m": 9999,
      "fzfg": false,
      "metar_trigger": false,
      "taf_trigger": false,
      "metar": "METAR GCLP 150730Z 01023KT 9999 FEW035 17/09 Q1026 NOSIG",
      "taf": "TAF GCLP 150200Z 1503/1603 02026KT 9999 FEW035 TX20/1514Z TN16/1506Z"
    },
    {
      "icao": "GCTS",
      "alert": "OK",
      "vis_m": 9999,
      "fzfg": false,
      "metar_trigger": false,
      "taf_trigger": false,
      "metar": "METAR GCTS 150730Z 07028G42KT 9999 FEW030 18/03 Q1024 NOSIG",
      "taf": ""
    },
    {
      "icao": "GMAD",
      "alert": "OK",
      "vis_m": 9999,
      "fzfg": false,
      "metar_trigger": false,
      "taf_trigger": false,
      "metar": "METAR GMAD 150730Z 09003KT CAVOK 06/04 Q1022 NOSIG",
      "taf": "TAF GMAD 150500Z 1506/1612 07004KT CAVOK"
    },
    {
      "icao": "GMMN",
      "alert": "OK",
      "vis_m": 9999,
      "fzfg": false,
      "metar_trigger": false,
      "taf_trigger": false,
      "metar": "METAR GMMN 150730Z 15004KT 9999 FEW026 05/03 Q1030 NOSIG",
      "taf": "TAF GMMN 150500Z 1506/1612 14004KT 9999 BKN024"
    },
    {
      "icao": "GMMX",
      "alert": "OK",
      "vis_m": 9999,
      "fzfg": false,
      "metar_trigger": false,
      "taf_trigger": false,
      "metar": "METAR GMMX 150730Z 08005KT CAVOK 04/03 Q1029 NOSIG",
      "taf": "TAF GMMX 150500Z 1506/1612 06006KT CAVOK"
    },
    {
      "icao": "HEGN",
      "alert": "OK",
      "vis_m": 9999,
      "fzfg": false,
      "metar_trigger": false,
      "taf_trigger": false,
      "metar": "METAR HEGN 150700Z 31010KT CAVOK 21/M03 Q1019 NOSIG",
      "taf": "TAF HEGN 150500Z 1506/1612 29012KT 6000 NSC"
    },
    {
      "icao": "HEMA",
      "alert": "OK",
      "vis_m": 9999,
      "fzfg": false,
      "metar_trigger": false,
      "taf_trigger": false,
      "metar": "METAR HEMA 150700Z 34015KT CAVOK 24/11 Q1018 NOSIG",
      "taf": "TAF HEMA 150540Z 1506/1612 32012KT 6000 NSC"
    },
    {
      "icao": "HESH",
      "alert": "OK",
      "vis_m": 9999,
      "fzfg": false,
      "metar_trigger": false,
      "taf_trigger": false,
      "metar": "METAR HESH 150700Z 34012KT CAVOK 23/09 Q1019 NOSIG",
      "taf": "TAF HESH 150500Z 1506/1612 35012KT 6000 NSC"
    },
    {
      "icao": "HESX",
      "alert": "OK",
      "vis_m": 9999,
      "fzfg": false,
      "metar_trigger": false,
      "taf_trigger": false,
      "metar": "METAR HESX 150700Z 13005KT CAVOK 18/00 Q1019 NOSIG",
      "taf": "TAF HESX 150540Z 1506/1612 14008KT 6000 NSC"
    },
    {
      "icao": "LATI",
      "alert": "OK",
      "vis_m": null,
      "fzfg": false,
      "metar_trigger": false,
      "taf_trigger": false,
      "metar": "",
      "taf": ""
    },
    {
      "icao": "LBPD",
      "alert": "OK",
      "vis_m": 9999,
      "fzfg": false,
      "metar_trigger": false,
      "taf_trigger": false,
      "metar": "METAR LBPD 150730Z AUTO 30011KT 9999 -SHRA FEW034/// BKN052/// BKN087/// 09/09 Q1001 TEMPO 5000 RA",
      "taf": "TAF LBPD 150500Z 1506/1606 10010KT 9999 SCT005 BKN050"
    },
    {
      "icao": "LBSF",
      "alert": "OK",
      "vis_m": 5000,
      "fzfg": false,
      "metar_trigger": false,
      "taf_trigger": false,
      "metar": "METAR LBSF 150730Z 26005KT 5000 -RA BR SCT052 OVC067 06/05 Q1000 TEMPO 2500 RA",
      "taf": "TAF LBSF 150500Z 1506/1606 VRB03KT 8000 BKN040"
    },
    {
      "icao": "LBWN",
      "alert": "OK",
      "vis_m": 9999,
      "fzfg": false,
      "metar_trigger": false,
      "taf_trigger": false,
      "metar": "METAR LBWN 150730Z 13010KT 110V170 9999 SCT036 12/08 Q1005 NOSIG",
      "taf": "TAF LBWN 150500Z 1506/1606 09010KT 9999 SCT045"
    },
    {
      "icao": "LCLK",
      "alert": "OK",
      "vis_m": 9999,
      "fzfg": false,
      "metar_trigger": false,
      "taf_trigger": false,
      "metar": "METAR LCLK 150730Z VRB02KT 9999 FEW025 19/14 Q1022 NOSIG",
      "taf": "TAF LCLK 150530Z 1506/1606 30007KT 9999 FEW020"
    },
    {
      "icao": "LCPH",
      "alert": "OK",
      "vis_m": 9999,
      "fzfg": false,
      "metar_trigger": false,
      "taf_trigger": false,
      "metar": "METAR LCPH 150730Z 13011KT 090V160 9999 FEW020 19/12 Q1021 NOSIG",
      "taf": "TAF LCPH 150530Z 1506/1606 02007KT 8000 SCT018"
    },
    {
      "icao": "LEAL",
      "alert": "OK",
      "vis_m": 9999,
      "fzfg": false,
      "metar_trigger": false,
      "taf_trigger": false,
      "metar": "METAR LEAL 150730Z 31020G31KT CAVOK 13/M05 Q1020 NOSIG",
      "taf": "TAF LEAL 150500Z 1506/1606 31020KT 9999 FEW040 TX20/1513Z TN09/1506Z"
    },
    {
      "icao": "LEBB",
      "alert": "OK",
      "vis_m": 9999,
      "fzfg": false,
      "metar_trigger": false,
      "taf_trigger": false,
      "metar": "METAR LEBB 150730Z 08002KT 9999 SCT048 OVC050 09/05 Q1022 NOSIG",
      "taf": "TAF LEBB 150500Z 1506/1606 18005KT 9999 SCT020 BKN030 TX15/1512Z TN09/1506Z"
    },
    {
      "icao": "LEBL",
      "alert": "OK",
      "vis_m": 9999,
      "fzfg": false,
      "metar_trigger": false,
      "taf_trigger": false,
      "metar": "METAR LEBL 150730Z 35008KT 310V070 9999 FEW028 08/01 Q1017 NOSIG",
      "taf": "TAF LEBL 150500Z 1506/1606 32008KT 9999 FEW035 TX15/1513Z TN07/1506Z"
    },
    {
      "icao": "LECH",
      "alert": "OK",
      "vis_m": 9999,
      "fzfg": false,
      "metar_trigger": false,
      "taf_trigger": false,
      "metar": "METAR LECH 150730Z AUTO 05006KT CAVOK 12/M02 Q1018",
      "taf": ""
    },
    {
      "icao": "LEMD",
      "alert": "OK",
      "vis_m": 9999,
      "fzfg": false,
      "metar_trigger": false,
      "taf_trigger": false,
      "metar": "METAR LEMD 150730Z 00000KT CAVOK M01/M01 Q1025 NOSIG",
      "taf": "TAF LEMD 150500Z 1506/1612 VRB04KT 9999 FEW040 TX13/1515Z TNM00/1507Z"
    },
    {
      "icao": "LEMG",
      "alert": "OK",
      "vis_m": 9999,
      "fzfg": false,
      "metar_trigger": false,
      "taf_trigger": false,
      "metar": "METAR LEMG 150730Z 29019KT CAVOK 09/03 Q1026 NOSIG",
      "taf": "TAF LEMG 150500Z 1506/1606 30012KT CAVOK TX18/1514Z TN09/1507Z"
    },
    {
      "icao": "LEVC",
      "alert": "OK",
      "vis_m": 9999,
      "fzfg": false,
      "metar_trigger": false,
      "taf_trigger": false,
      "metar": "METAR LEVC 150730Z 29017KT 260V320 CAVOK 13/M04 Q1020 NOSIG",
      "taf": ""
    },
    {
      "icao": "LEXJ",
      "alert": "OK",
      "vis_m": 9999,
      "fzfg": false,
      "metar_trigger": false,
      "taf_trigger": false,
      "metar": "METAR LEXJ 150730Z 23008KT 200V280 9999 BKN058 11/04 Q1021",
      "taf": "TAF LEXJ 150200Z 1503/1603 22009KT 9999 SCT020 BKN040 TX15/1514Z TN09/1503Z"
    },
    {
      "icao": "LEZG",
      "alert": "OK",
      "vis_m": 9999,
      "fzfg": false,
      "metar_trigger": false,
      "taf_trigger": false,
      "metar": "METAR LEZG 150730Z 27013KT 9999 BKN040 08/M00 Q1022 NOSIG",
      "taf": ""
    },
    {
      "icao": "LEZL",
      "alert": "OK",
      "vis_m": 9999,
      "fzfg": false,
      "metar_trigger": false,
      "taf_trigger": false,
      "metar": "METAR LEZL 150730Z VRB02KT CAVOK 06/05 Q1030 NOSIG",
      "taf": "TAF LEZL 150200Z 1503/1603 21005KT 9999 FEW040 TX18/1515Z TN06/1507Z"
    },
    {
      "icao": "LFBD",
      "alert": "OK",
      "vis_m": 7000,
      "fzfg": false,
      "metar_trigger": false,
      "taf_trigger": false,
      "metar": "METAR LFBD 150730Z AUTO 19009KT 7000 -RA FEW009/// BKN015/// BKN023/// ///TCU 06/05 Q1018 TEMPO 4000 RA BKN007",
      "taf": "TAF LFBD 150500Z 1506/1612 19005KT 9999 BKN030 TX13/1612Z TN05/1506Z"
    },
    {
      "icao": "LFLL",
      "alert": "OK",
      "vis_m": 9999,
      "fzfg": false,
      "metar_trigger": false,
      "taf_trigger": false,
      "metar": "METAR LFLL 150730Z 33009KT 9999 OVC026 01/M03 Q1019 NOSIG",
      "taf": "TAF LFLL 150500Z 1506/1612 34010KT 9999 BKN020"
    },
    {
      "icao": "LFLS",
      "alert": "OK",
      "vis_m": 9999,
      "fzfg": false,
      "metar_trigger": false,
      "taf_trigger": false,
      "metar": "METAR LFLS 150730Z AUTO 24004KT 140V290 9999 OVC012 M00/M02 Q1017 BECMG FEW012",
      "taf": "TAF LFLS 150200Z 1503/1603 35018KT 9999 BKN012"
    },
    {
      "icao": "LFMN",
      "alert": "OK",
      "vis_m": 9999,
      "fzfg": false,
      "metar_trigger": false,
      "taf_trigger": false,
      "metar": "METAR LFMN 150730Z 32010KT CAVOK 09/02 Q1006 NOSIG",
      "taf": "TAF LFMN 150200Z 1503/1609 34010KT CAVOK"
    },
    {
      "icao": "LFOB",
      "alert": "OK",
      "vis_m": 9999,
      "fzfg": false,
      "metar_trigger": false,
      "taf_trigger": false,
      "metar": "METAR LFOB 150730Z AUTO 17009KT CAVOK 01/M02 Q1014 TEMPO 1200 +SN OVC002",
      "taf": "TAF LFOB 150500Z 1506/1606 17012KT 9999 OVC040"
    },
    {
      "icao": "LFPO",
      "alert": "OK",
      "vis_m": 9999,
      "fzfg": false,
      "metar_trigger": false,
      "taf_trigger": false,
      "metar": "METAR LFPO 150730Z 18008KT CAVOK 00/M02 Q1016 BECMG 2000 -SN BKN007",
      "taf": "TAF LFPO 150500Z 1506/1612 17007KT CAVOK"
    },
    {
      "icao": "LFSB",
      "alert": "OK",
      "vis_m": 9999,
      "fzfg": false,
      "metar_trigger": false,
      "taf_trigger": false,
      "metar": "METAR LFSB 150730Z AUTO 30002KT 9999 FEW014 OVC034 01/M01 Q1018 TEMPO BKN008",
      "taf": "TAF LFSB 150530Z 1506/1606 VRB03KT 9999 FEW009 BKN030"
    },
    {
      "icao": "LGAV",
      "alert": "OK",
      "vis_m": 9000,
      "fzfg": false,
      "metar_trigger": false,
      "taf_trigger": false,
      "metar": "METAR LGAV 150720Z 17028KT 9000 FEW020 SCT070 19/10 Q1004 NOSIG",
      "taf": "TAF LGAV 150500Z 1506/1606 16012KT 9999 SCT025"
    },
    {
      "icao": "LGTS",
      "alert": "OK",
      "vis_m": 7000,
      "fzfg": false,
      "metar_trigger": false,
      "taf_trigger": false,
      "metar": "METAR LGTS 150720Z 12012G22KT 7000 -RA FEW006 BKN025 15/15 Q1001 RERA NOSIG",
      "taf": "TAF LGTS 150500Z 1506/1606 13015KT 9999 SCT025"
    },
    {
      "icao": "LHBP",
      "alert": "OK",
      "vis_m": 9999,
      "fzfg": false,
      "metar_trigger": false,
      "taf_trigger": false,
      "metar": "METAR LHBP 150730Z 32016KT 9999 BKN029 OVC065 04/00 Q1005 NOSIG",
      "taf": "TAF LHBP 150515Z 1506/1606 32007KT 9999 SCT020 BKN050"
    },
    {
      "icao": "LHDC",
      "alert": "OK",
      "vis_m": 9999,
      "fzfg": false,
      "metar_trigger": false,
      "taf_trigger": false,
      "metar": "METAR LHDC 150715Z AUTO 03019KT CAVOK 04/01 Q1003 NOSIG",
      "taf": "TAF LHDC 150515Z 1506/1515 02012KT CAVOK"
    },
    {
      "icao": "LIBD",
      "alert": "OK",
      "vis_m": 9000,
      "fzfg": false,
      "metar_trigger": false,
      "taf_trigger": false,
      "metar": "METAR LIBD 150720Z 24009KT 9000 -RA BKN040 10/08 Q0998",
      "taf": "TAF LIBD 150500Z 1506/1606 26012KT 9999 BKN030"
    },
    {
      "icao": "LIBG",
      "alert": "OK",
      "vis_m": 9999,
      "fzfg": false,
      "metar_trigger": false,
      "taf_trigger": false,
      "metar": "SPECI LIBG 150655Z VRB01KT 9999 FEW040 08/08 Q0998",
      "taf": "TAF LIBG 150738Z 1508/1515 VRB05KT 9999 SCT040"
    },
    {
      "icao": "LIBP",
      "alert": "OK",
      "vis_m": 9999,
      "fzfg": false,
      "metar_trigger": false,
      "taf_trigger": false,
      "metar": "METAR LIBP 150720Z AUTO 29005KT 230V360 9999 -RA OVC044/// 11/10 Q1001",
      "taf": "TAF LIBP 150500Z 1506/1606 31012KT 9999 BKN030"
    },
    {
      "icao": "LIBR",
      "alert": "OK",
      "vis_m": 9999,
      "fzfg": false,
      "metar_trigger": false,
      "taf_trigger": false,
      "metar": "METAR LIBR 150720Z 25006KT 230V290 9999 FEW045 11/09 Q0998",
      "taf": "TAF LIBR 150500Z 1506/1606 24015KT 9999 SCT030"
    },
    {
      "icao": "LICA",
      "alert": "OK",
      "vis_m": 9999,
      "fzfg": false,
      "metar_trigger": false,
      "taf_trigger": false,
      "metar": "METAR LICA 150720Z AUTO 08005KT 9999 OVC066/// 10/09 Q0999",
      "taf": "TAF LICA 150500Z 1506/1606 08008KT 9999 SCT020 SCT050"
    },
    {
      "icao": "LICC",
      "alert": "OK",
      "vis_m": 9999,
      "fzfg": false,
      "metar_trigger": false,
      "taf_trigger": false,
      "metar": "METAR LICC 150720Z 25003KT 9999 -RA FEW030 SCT060 12/09 Q0999",
      "taf": "TAF LICC 150500Z 1506/1606 26007KT 9999 SCT020"
    },
    {
      "icao": "LICJ",
      "alert": "OK",
      "vis_m": 9999,
      "fzfg": false,
      "metar_trigger": false,
      "taf_trigger": false,
      "metar": "METAR LICJ 150720Z 31017KT 9999 FEW017 SCT030 BKN060 14/11 Q0999",
      "taf": "TAF LICJ 150500Z 1506/1606 25018KT 9999 SCT030"
    },
    {
      "icao": "LIMC",
      "alert": "OK",
      "vis_m": 9999,
      "fzfg": false,
      "metar_trigger": false,
      "taf_trigger": false,
      "metar": "METAR LIMC 150720Z 02015KT CAVOK 10/M07 Q1006 NOSIG",
      "taf": "TAF LIMC 150500Z 1506/1612 01012KT CAVOK"
    },
    {
      "icao": "LIME",
      "alert": "OK",
      "vis_m": 9999,
      "fzfg": false,
      "metar_trigger": false,
      "taf_trigger": false,
      "metar": "METAR LIME 150720Z AUTO 36004KT 9999 NCD 05/04 Q1006",
      "taf": "TAF LIME 150500Z 1506/1606 VRB05KT CAVOK"
    },
    {
      "icao": "LIMF",
      "alert": "OK",
      "vis_m": 9999,
      "fzfg": false,
      "metar_trigger": false,
      "taf_trigger": false,
      "metar": "METAR LIMF 150720Z 24003KT 220V300 CAVOK 03/01 Q1006",
      "taf": "TAF LIMF 150500Z 1506/1606 VRB05KT CAVOK"
    },
    {
      "icao": "LIMJ",
      "alert": "OK",
      "vis_m": 9999,
      "fzfg": false,
      "metar_trigger": false,
      "taf_trigger": false,
      "metar": "METAR LIMJ 150720Z 07008KT CAVOK 12/M02 Q1005 WS R10",
      "taf": "TAF LIMJ 150500Z 1506/1606 03013KT CAVOK"
    },
    {
      "icao": "LIPE",
      "alert": "OK",
      "vis_m": 8000,
      "fzfg": false,
      "metar_trigger": false,
      "taf_trigger": false,
      "metar": "METAR LIPE 150720Z 25004KT 8000 SCT060 09/08 Q1006",
      "taf": "TAF LIPE 150500Z 1506/1606 VRB05KT 8000 SCT030"
    },
    {
      "icao": "LIPH",
      "alert": "OK",
      "vis_m": 9999,
      "fzfg": false,
      "metar_trigger": false,
      "taf_trigger": false,
      "metar": "METAR LIPH 150720Z 27005KT 9999 FEW080 09/07 Q1004",
      "taf": "TAF LIPH 150500Z 1506/1606 04007KT 8000 BKN040"
    },
    {
      "icao": "LIPQ",
      "alert": "OK",
      "vis_m": 9999,
      "fzfg": false,
      "metar_trigger": false,
      "taf_trigger": false,
      "metar": "METAR LIPQ 150720Z AUTO VRB02KT 9999 OVC110/// 08/07 Q1004",
      "taf": "TAF LIPQ 150500Z 1506/1606 04012KT 9999 SCT040"
    },
    {
      "icao": "LIPR",
      "alert": "OK",
      "vis_m": 4000,
      "fzfg": false,
      "metar_trigger": false,
      "taf_trigger": false,
      "metar": "METAR LIPR 150720Z 34008KT 4000 DZ BR BKN004 BKN010 09/09 Q1004",
      "taf": "TAF LIPR 150500Z 1506/1606 33013KT 8000 BKN030"
    },
    {
      "icao": "LIPX",
      "alert": "OK",
      "vis_m": 9999,
      "fzfg": false,
      "metar_trigger": false,
      "taf_trigger": false,
      "metar": "METAR LIPX 150720Z 25006KT CAVOK 06/04 Q1005",
      "taf": "TAF LIPX 150500Z 1506/1606 VRB05KT 8000 FEW050"
    },
    {
      "icao": "LIPY",
      "alert": "OK",
      "vis_m": 9999,
      "fzfg": false,
      "metar_trigger": false,
      "taf_trigger": false,
      "metar": "METAR LIPY 150720Z AUTO 33011KT 9999 -RA SCT005/// OVC010/// 10/10 Q1002",
      "taf": "TAF LIPY 150500Z 1506/1606 33013KT 8000 BKN040"
    },
    {
      "icao": "LIPZ",
      "alert": "OK",
      "vis_m": 9999,
      "fzfg": false,
      "metar_trigger": false,
      "taf_trigger": false,
      "metar": "METAR LIPZ 150720Z 01006KT CAVOK 11/05 Q1004 NOSIG",
      "taf": "TAF LIPZ 150500Z 1506/1612 VRB05KT 8000 BKN030"
    },
    {
      "icao": "LIRF",
      "alert": "OK",
      "vis_m": 9999,
      "fzfg": false,
      "metar_trigger": false,
      "taf_trigger": false,
      "metar": "METAR LIRF 150720Z 05003KT CAVOK 09/08 Q1000 NOSIG",
      "taf": "TAF LIRF 150500Z 1506/1612 34013KT 9999 FEW040"
    },
    {
      "icao": "LIRN",
      "alert": "OK",
      "vis_m": 9999,
      "fzfg": false,
      "metar_trigger": false,
      "taf_trigger": false,
      "metar": "METAR LIRN 150720Z 34005KT 310V050 9999 SCT070 10/09 Q1000 NOSIG",
      "taf": "TAF LIRN 150500Z 1506/1606 VRB05KT 9999 SCT040"
    },
    {
      "icao": "LIRP",
      "alert": "OK",
      "vis_m": 9999,
      "fzfg": false,
      "metar_trigger": false,
      "taf_trigger": false,
      "metar": "METAR LIRP 150715Z 15004KT 9999 FEW035 06/05 Q1003 NOSIG",
      "taf": "TAF LIRP 150500Z 1506/1606 VRB03KT CAVOK"
    },
    {
      "icao": "LIRZ",
      "alert": "OK",
      "vis_m": 9999,
      "fzfg": false,
      "metar_trigger": false,
      "taf_trigger": false,
      "metar": "METAR LIRZ 150720Z AUTO 03005KT 9999 BKN036/// 08/06 Q1002",
      "taf": "TAF LIRZ 150500Z 1506/1606 02011KT 9999 FEW030"
    },
    {
      "icao": "LJLJ",
      "alert": "OK",
      "vis_m": 9999,
      "fzfg": false,
      "metar_trigger": false,
      "taf_trigger": false,
      "metar": "METAR LJLJ 150730Z VRB01KT 9999 FEW065 BKN110 06/04 Q1005 NOSIG",
      "taf": "TAF LJLJ 150500Z 1506/1606 20004KT 9999 FEW002 SCT045 BKN090"
    },
    {
      "icao": "LKMT",
      "alert": "OK",
      "vis_m": 3500,
      "fzfg": false,
      "metar_trigger": false,
      "taf_trigger": false,
      "metar": "METAR LKMT 150730Z 03008KT 3500 -SN BR SCT010 BKN020 OVC028 M03/M03 Q1014 TEMPO 2500 BR BKN010",
      "taf": "TAF LKMT 150500Z 1506/1606 01012KT 9999 BKN020"
    },
    {
      "icao": "LKPR",
      "alert": "OK",
      "vis_m": 9999,
      "fzfg": false,
      "metar_trigger": false,
      "taf_trigger": false,
      "metar": "METAR LKPR 150730Z 29007KT 9999 -SN FEW025 OVC037 M03/M06 Q1017 NOSIG",
      "taf": "TAF LKPR 150500Z 1506/1612 35010KT 9999 OVC035"
    },
    {
      "icao": "LLBG",
      "alert": "OK",
      "vis_m": 6000,
      "fzfg": false,
      "metar_trigger": false,
      "taf_trigger": false,
      "metar": "METAR LLBG 150720Z VRB02KT 6000 NSC 17/08 Q1022 TEMPO 5000 DU",
      "taf": "TAF LLBG 150508Z 1506/1606 VRB04KT 8000 NSC"
    },
    {
      "icao": "LMML",
      "alert": "OK",
      "vis_m": 9999,
      "fzfg": false,
      "metar_trigger": false,
      "taf_trigger": false,
      "metar": "METAR LMML 150745Z 25019G29KT 9999 SCT018 BKN042 13/11 Q1004 NOSIG",
      "taf": "TAF LMML 150500Z 1506/1606 25018KT 9999 FEW018"
    },
    {
      "icao": "LOWW",
      "alert": "OK",
      "vis_m": 9999,
      "fzfg": false,
      "metar_trigger": false,
      "taf_trigger": false,
      "metar": "METAR LOWW 150720Z 33016G26KT 300V360 9999 FEW013 SCT016 BKN019 00/M03 Q1014 NOSIG",
      "taf": "TAF LOWW 150515Z 1506/1612 34010KT 9999 SCT009 BKN020 TX01/1509Z TNM05/1602Z"
    },
    {
      "icao": "LPFR",
      "alert": "OK",
      "vis_m": 9999,
      "fzfg": false,
      "metar_trigger": false,
      "taf_trigger": false,
      "metar": "METAR LPFR 150730Z 29005KT CAVOK 09/08 Q1031",
      "taf": "TAF LPFR 150500Z 1506/1606 VRB02KT CAVOK"
    },
    {
      "icao": "LPMA",
      "alert": "OK",
      "vis_m": 9999,
      "fzfg": false,
      "metar_trigger": false,
      "taf_trigger": false,
      "metar": "METAR LPMA 150730Z 02014KT 9999 FEW016 15/09 Q1031",
      "taf": "TAF LPMA 150500Z 1506/1606 02012KT 9999 SCT015"
    },
    {
      "icao": "LPPR",
      "alert": "OK",
      "vis_m": 9999,
      "fzfg": false,
      "metar_trigger": false,
      "taf_trigger": false,
      "metar": "METAR LPPR 150730Z 28005KT 230V330 9999 SCT012 BKN033 11/10 Q1029",
      "taf": "TAF LPPR 150500Z 1506/1606 VRB02KT 9999 FEW012 BKN025"
    },
    {
      "icao": "LPPS",
      "alert": "OK",
      "vis_m": 9999,
      "fzfg": false,
      "metar_trigger": false,
      "taf_trigger": false,
      "metar": "METAR LPPS 150730Z 07008KT 050V110 9999 SCT015 14/09 Q1032",
      "taf": "TAF LPPS 150500Z 1506/1612 06010KT 9999 SCT015"
    },
    {
      "icao": "LPPT",
      "alert": "OK",
      "vis_m": 9999,
      "fzfg": false,
      "metar_trigger": false,
      "taf_trigger": false,
      "metar": "METAR LPPT 150730Z VRB01KT 9999 FEW018 BKN024 11/10 Q1030",
      "taf": "TAF LPPT 150500Z 1506/1612 29005KT 9999 SCT030"
    },
    {
      "icao": "LQBK",
      "alert": "OK",
      "vis_m": 8000,
      "fzfg": false,
      "metar_trigger": false,
      "taf_trigger": false,
      "metar": "METAR LQBK 150730Z 30014KT 8000 RA BKN013 OVC023 03/01 Q1005 TEMPO 30019G30KT",
      "taf": "TAF LQBK 150500Z 1506/1606 35012KT 9999 RA SCT007 BKN012 OVC020 TX05/1506Z TNM06/1606Z"
    },
    {
      "icao": "LQSA",
      "alert": "OK",
      "vis_m": 7000,
      "fzfg": false,
      "metar_trigger": false,
      "taf_trigger": false,
      "metar": "METAR LQSA 150730Z 10005KT 050V120 7000 RA SCT006 BKN010 OVC035 02/02 Q1000 BECMG 2000 SN",
      "taf": "TAF LQSA 150500Z 1506/1606 29007KT 1500 SN BKN010 OVC030 TX03/1506Z TNM04/1605Z"
    },
    {
      "icao": "LQTZ",
      "alert": "OK",
      "vis_m": 5000,
      "fzfg": false,
      "metar_trigger": false,
      "taf_trigger": false,
      "metar": "METAR LQTZ 150730Z 32009KT 290V350 5000 RA BR FEW006 BKN015 OVC025 06/05 Q1001",
      "taf": "TAF LQTZ 150500Z 1506/1606 27005KT 9999 SCT005 BKN012 OVC025 TX06/1506Z TNM06/1606Z"
    },
    {
      "icao": "LRBC",
      "alert": "OK",
      "vis_m": 1200,
      "fzfg": false,
      "metar_trigger": false,
      "taf_trigger": false,
      "metar": "METAR LRBC 150730Z 34003KT 1200 R34/1800N -RA BR OVC003 04/04 Q1005",
      "taf": "TAF LRBC 150500Z 1506/1515 VRB04KT 0300 FG VV001"
    },
    {
      "icao": "LRBS",
      "alert": "OK",
      "vis_m": 6000,
      "fzfg": false,
      "metar_trigger": false,
      "taf_trigger": false,
      "metar": "METAR LRBS 150730Z 03006KT 360V060 6000 BKN003 06/06 Q1003 NOSIG",
      "taf": "TAF LRBS 150500Z 1506/1606 05010KT 3000 BR SCT045"
    },
    {
      "icao": "LRBV",
      "alert": "OK",
      "vis_m": 9999,
      "fzfg": false,
      "metar_trigger": false,
      "taf_trigger": false,
      "metar": "METAR LRBV 150730Z 16003KT 9999 -RA SCT049 OVC070 05/03 Q1002",
      "taf": "TAF LRBV 150500Z 1506/1515 VRB04KT 9999 BKN055"
    },
    {
      "icao": "LRCL",
      "alert": "OK",
      "vis_m": 9999,
      "fzfg": false,
      "metar_trigger": false,
      "taf_trigger": false,
      "metar": "METAR LRCL 150730Z 00000KT 9999 -RA OVC061 03/02 Q1002",
      "taf": "TAF LRCL 150500Z 1506/1515 VRB04KT 9999 SCT045"
    },
    {
      "icao": "LRCV",
      "alert": "OK",
      "vis_m": 8000,
      "fzfg": false,
      "metar_trigger": false,
      "taf_trigger": false,
      "metar": "METAR LRCV 150730Z 08012KT 8000 -RA NSC 07/06 Q1000",
      "taf": "TAF LRCV 150500Z 1506/1515 08014KT 5000 -RA BR BKN045"
    },
    {
      "icao": "LRIA",
      "alert": "OK",
      "vis_m": 7000,
      "fzfg": false,
      "metar_trigger": false,
      "taf_trigger": false,
      "metar": "METAR LRIA 150730Z 11012KT 7000 -RA OVC012 05/04 Q1006",
      "taf": "TAF LRIA 150500Z 1506/1515 10010KT CAVOK"
    },
    {
      "icao": "LROP",
      "alert": "OK",
      "vis_m": 4000,
      "fzfg": false,
      "metar_trigger": false,
      "taf_trigger": false,
      "metar": "METAR LROP 150730Z COR 04008KT 4000 BR FEW005 06/06 Q1003 NOSIG",
      "taf": "TAF LROP 150500Z 1506/1606 05010KT 3000 BR SCT045"
    },
    {
      "icao": "LRSB",
      "alert": "OK",
      "vis_m": 9999,
      "fzfg": false,
      "metar_trigger": false,
      "taf_trigger": false,
      "metar": "METAR LRSB 150730Z 12007KT 9999 SCT055 BKN080 06/05 Q1001",
      "taf": "TAF LRSB 150500Z 1506/1606 13005KT 9999 BKN050"
    },
    {
      "icao": "LRSM",
      "alert": "OK",
      "vis_m": 9999,
      "fzfg": false,
      "metar_trigger": false,
      "taf_trigger": false,
      "metar": "METAR LRSM 150730Z 34006KT CAVOK 05/03 Q1003",
      "taf": "TAF LRSM 150500Z 1506/1515 VRB04KT CAVOK"
    },
    {
      "icao": "LRSV",
      "alert": "OK",
      "vis_m": 200,
      "fzfg": false,
      "metar_trigger": false,
      "taf_trigger": false,
      "metar": "METAR LRSV 150730Z 30007KT 0200 R34/0550N FG VV001 02/02 Q1005",
      "taf": "TAF LRSV 150500Z 1506/1515 33006KT 0300 FG VV001"
    },
    {
      "icao": "LRTM",
      "alert": "OK",
      "vis_m": 9999,
      "fzfg": false,
      "metar_trigger": false,
      "taf_trigger": false,
      "metar": "METAR LRTM 150730Z 07003KT 020V110 9999 -RA FEW026 SCT030 BKN040 05/03 Q1002",
      "taf": "TAF LRTM 150500Z 1506/1515 VRB04KT 9999 SCT045"
    },
    {
      "icao": "LRTR",
      "alert": "OK",
      "vis_m": 8000,
      "fzfg": false,
      "metar_trigger": false,
      "taf_trigger": false,
      "metar": "METAR LRTR 150730Z 04005KT 8000 RA BKN043 08/08 Q1001",
      "taf": "TAF LRTR 150500Z 1506/1606 09006KT 5000 -RA BKN040"
    },
    {
      "icao": "LTAC",
      "alert": "OK",
      "vis_m": 8000,
      "fzfg": false,
      "metar_trigger": false,
      "taf_trigger": false,
      "metar": "METAR LTAC 150720Z VRB02KT 8000 NSC 03/01 Q1019 NOSIG RMK RWY21C VRB01KT RWY03L VRB02KT RWY21R 00000KT RWY03R VRB02KT RWY21L VRB01KT",
      "taf": "TAF LTAC 150440Z 1506/1606 VRB02KT CAVOK"
    },
    {
      "icao": "LTFM",
      "alert": "OK",
      "vis_m": 9999,
      "fzfg": false,
      "metar_trigger": false,
      "taf_trigger": false,
      "metar": "METAR LTFM 150720Z 17009KT CAVOK 16/06 Q1008 NOSIG RMK RWY17L 16009KT RWY34L 16009KT RWY16R 17007KT RWY36 17009KT RWY18 17012KT",
      "taf": "TAF LTFM 150440Z 1506/1612 16012KT CAVOK"
    },
    {
      "icao": "LUKK",
      "alert": "OK",
      "vis_m": 350,
      "fzfg": false,
      "metar_trigger": false,
      "taf_trigger": false,
      "metar": "METAR LUKK 150730Z 09008KT 0350 0300SE R08/0450N -RA FG VV001 02/02 Q1007 TEMPO 0800 FG",
      "taf": ""
    },
    {
      "icao": "LWOH",
      "alert": "OK",
      "vis_m": null,
      "fzfg": false,
      "metar_trigger": false,
      "taf_trigger": false,
      "metar": "",
      "taf": "TAF LWOH 150550Z 1506/1606 15012KT 9999 -RA BKN015 OVC035"
    },
    {
      "icao": "LWSK",
      "alert": "OK",
      "vis_m": null,
      "fzfg": false,
      "metar_trigger": false,
      "taf_trigger": false,
      "metar": "",
      "taf": "TAF LWSK 150550Z 1506/1606 24008KT 7000 -RA SCT010 OVC050"
    },
    {
      "icao": "LYBE",
      "alert": "OK",
      "vis_m": 8000,
      "fzfg": false,
      "metar_trigger": false,
      "taf_trigger": false,
      "metar": "METAR LYBE 150730Z 06007KT 8000 -RA BKN005 BKN030 08/07 Q0999 NOSIG",
      "taf": "TAF LYBE 150500Z 1506/1606 06008KT 8000 RA BKN006 BKN025 TX07/1506Z TNM03/1606Z"
    },
    {
      "icao": "LYNI",
      "alert": "OK",
      "vis_m": 8000,
      "fzfg": false,
      "metar_trigger": false,
      "taf_trigger": false,
      "metar": "METAR LYNI 150730Z 10007KT 040V160 8000 RA SCT017 BKN040 OVC067 09/09 Q0999 NOSIG",
      "taf": "TAF LYNI 150500Z 1506/1606 10008KT 9999 FEW017 BKN040 BKN070 TX12/1511Z TN00/1606Z"
    },
    {
      "icao": "LYPG",
      "alert": "OK",
      "vis_m": 8000,
      "fzfg": false,
      "metar_trigger": false,
      "taf_trigger": false,
      "metar": "METAR LYPG 150730Z 33004KT 300V020 8000 -SHRA FEW007 FEW027TCU BKN030 09/09 Q0997 TEMPO VRB15G25KT 3000 TSRA FEW007 FEW027CB BKN040",
      "taf": "TAF LYPG 150500Z 1506/1606 17005KT 9999 FEW010 BKN034 OVC070 TX11/1512Z TN07/1605Z"
    },
    {
      "icao": "LZIB",
      "alert": "OK",
      "vis_m": 9999,
      "fzfg": false,
      "metar_trigger": false,
      "taf_trigger": false,
      "metar": "METAR LZIB 150730Z 34017KT 9999 BKN026 01/M04 Q1013 NOSIG",
      "taf": "TAF LZIB 150515Z 1506/1606 33017KT 9999 BKN020"
    },
    {
      "icao": "LZKZ",
      "alert": "OK",
      "vis_m": 9999,
      "fzfg": false,
      "metar_trigger": false,
      "taf_trigger": false,
      "metar": "METAR LZKZ 150730Z 01022KT CAVOK 01/M03 Q1006 NOSIG",
      "taf": "TAF LZKZ 150515Z 1506/1606 36023KT CAVOK"
    },
    {
      "icao": "LZTT",
      "alert": "OK",
      "vis_m": 9999,
      "fzfg": false,
      "metar_trigger": false,
      "taf_trigger": false,
      "metar": "METAR LZTT 150730Z 08008KT 9999 -SN BKN007 OVC014 M03/M05 Q1007 NOSIG",
      "taf": "TAF LZTT 150515Z 1506/1606 07012KT 9999 OVC020"
    },
    {
      "icao": "OEJN",
      "alert": "OK",
      "vis_m": 9999,
      "fzfg": false,
      "metar_trigger": false,
      "taf_trigger": false,
      "metar": "METAR OEJN 150700Z 34006KT CAVOK 27/18 Q1015 NOSIG",
      "taf": "TAF OEJN 150500Z 1506/1612 29010KT CAVOK"
    },
    {
      "icao": "OEMA",
      "alert": "OK",
      "vis_m": 9999,
      "fzfg": false,
      "metar_trigger": false,
      "taf_trigger": false,
      "metar": "METAR OEMA 150700Z 03011KT CAVOK 23/M03 Q1023 NOSIG",
      "taf": "TAF OEMA 150500Z 1506/1612 08015KT 7000 NSC"
    },
    {
      "icao": "OJAI",
      "alert": "OK",
      "vis_m": 2500,
      "fzfg": false,
      "metar_trigger": false,
      "taf_trigger": false,
      "metar": "METAR OJAI 150700Z 15006KT 2500 DU NSC 10/04 Q1025 NOSIG",
      "taf": "TAF OJAI 150500Z 1506/1612 14010KT 2000 DU NSC"
    },
    {
      "icao": "OMAA",
      "alert": "OK",
      "vis_m": 9999,
      "fzfg": false,
      "metar_trigger": false,
      "taf_trigger": false,
      "metar": "METAR OMAA 150730Z 23006KT 210V270 CAVOK 30/01 Q1016 NOSIG",
      "taf": "TAF OMAA 150500Z 1506/1612 16006KT 8000 NSC"
    },
    {
      "icao": "OMDB",
      "alert": "OK",
      "vis_m": 9999,
      "fzfg": false,
      "metar_trigger": false,
      "taf_trigger": false,
      "metar": "METAR OMDB 150730Z 26004KT 200V330 CAVOK 29/02 Q1016 NOSIG",
      "taf": "TAF OMDB 150500Z 1506/1612 20005KT CAVOK"
    },
    {
      "icao": "UAAA",
      "alert": "OK",
      "vis_m": 1600,
      "fzfg": false,
      "metar_trigger": false,
      "taf_trigger": false,
      "metar": "METAR UAAA 150730Z 21002MPS 1600 R23L/1600 BR OVC004 M00/M01 Q1019 NOSIG RMK QBB130",
      "taf": "TAF UAAA 150503Z 1506/1606 VRB01MPS 1100 BR FU OVC004 TX01/1509Z TNM02/1602Z"
    },
    {
      "icao": "UBBB",
      "alert": "OK",
      "vis_m": 9999,
      "fzfg": false,
      "metar_trigger": false,
      "taf_trigger": false,
      "metar": "METAR UBBB 150730Z 33022G32KT 9999 SCT060CB 11/06 Q1016 NOSIG",
      "taf": "TAF UBBB 150459Z 1506/1606 32020G30KT 9999 SCT012 BKN035 TX11/1510Z TN05/1601Z"
    },
    {
      "icao": "UDSG",
      "alert": "OK",
      "vis_m": 9999,
      "fzfg": false,
      "metar_trigger": false,
      "taf_trigger": false,
      "metar": "METAR UDSG 150730Z 08002KT 9999 SCT049 04/M00 Q1022 NOSIG",
      "taf": "TAF UDSG 150458Z 1506/1606 VRB06KT 9999 SCT040"
    },
    {
      "icao": "UDYZ",
      "alert": "OK",
      "vis_m": 9999,
      "fzfg": false,
      "metar_trigger": false,
      "taf_trigger": false,
      "metar": "METAR UDYZ 150730Z VRB02KT 9999 NSC 08/03 Q1021 NOSIG",
      "taf": "TAF UDYZ 150500Z 1506/1606 20006KT 9999 FEW040"
    },
    {
      "icao": "UGKO",
      "alert": "OK",
      "vis_m": 9999,
      "fzfg": false,
      "metar_trigger": false,
      "taf_trigger": false,
      "metar": "METAR UGKO 150730Z VRB02KT 9999 SCT010 BKN013 11/09 Q1021 NOSIG",
      "taf": "TAF UGKO 150500Z 1506/1606 30007KT 9999 BKN050 TX18/1511Z TN10/1506Z"
    }
  ]
}