{
  "ts_utc": "2026-01-28T09:01:06Z",
  "threshold_m": 150,
  "source": "stations_override.txt (ICAO list) + aviationweather.gov (METAR/TAF raw)",
  "station_count": 159,
  "stations": [
    {
      "icao": "BIKF",
      "alert": "OK",
      "vis_m": 9999,
      "fzfg": false,
      "metar_trigger": false,
      "taf_trigger": false,
      "metar": "METAR BIKF 280830Z 06014KT CAVOK 04/M05 Q0998",
      "taf": "TAF BIKF 280740Z 2809/2909 05014KT CAVOK TX04/2815Z TN02/2904Z"
    },
    {
      "icao": "BKPR",
      "alert": "OK",
      "vis_m": 9999,
      "fzfg": false,
      "metar_trigger": false,
      "taf_trigger": false,
      "metar": "METAR BKPR 280900Z 14005KT CAVOK 02/02 Q1005 NOSIG",
      "taf": "TAF BKPR 280530Z 2806/2906 17005KT 1200 BCFG BKN005"
    },
    {
      "icao": "EBCI",
      "alert": "OK",
      "vis_m": 4500,
      "fzfg": false,
      "metar_trigger": false,
      "taf_trigger": false,
      "metar": "METAR EBCI 280850Z 27002KT 4500 MIFG BR FEW045 04/04 Q0994 TEMPO 1200 BR",
      "taf": "TAF EBCI 280520Z 2806/2912 33003KT 6000 BKN008"
    },
    {
      "icao": "EDDB",
      "alert": "OK",
      "vis_m": 9999,
      "fzfg": false,
      "metar_trigger": false,
      "taf_trigger": false,
      "metar": "METAR EDDB 280850Z AUTO 07011KT 9999 OVC024 M01/M02 Q1000 NOSIG",
      "taf": "TAF EDDB 280500Z 2806/2906 07009KT 9000 SCT008 OVC015"
    },
    {
      "icao": "EDDH",
      "alert": "OK",
      "vis_m": 9999,
      "fzfg": false,
      "metar_trigger": false,
      "taf_trigger": false,
      "metar": "METAR EDDH 280850Z AUTO 10009KT 070V130 9999 OVC013 00/M03 Q1001 TEMPO OVC015",
      "taf": "TAF EDDH 280500Z 2806/2912 09011KT 9999 OVC012"
    },
    {
      "icao": "EDDK",
      "alert": "OK",
      "vis_m": 6000,
      "fzfg": false,
      "metar_trigger": false,
      "taf_trigger": false,
      "metar": "METAR EDDK 280850Z AUTO VRB02KT 6000 OVC006 04/03 Q0994 TEMPO OVC004",
      "taf": ""
    },
    {
      "icao": "EDDN",
      "alert": "OK",
      "vis_m": 9999,
      "fzfg": false,
      "metar_trigger": false,
      "taf_trigger": false,
      "metar": "METAR EDDN 280850Z AUTO VRB02KT CAVOK 02/00 Q0993 NOSIG",
      "taf": "TAF EDDN 280500Z 2806/2906 05006KT 7000 NSC"
    },
    {
      "icao": "EDDS",
      "alert": "OK",
      "vis_m": 6000,
      "fzfg": false,
      "metar_trigger": false,
      "taf_trigger": false,
      "metar": "METAR EDDS 280850Z AUTO 02004KT 330V050 6000 SCT004 03/02 Q0991 TEMPO BKN004",
      "taf": ""
    },
    {
      "icao": "EDFH",
      "alert": "OK",
      "vis_m": 800,
      "fzfg": false,
      "metar_trigger": false,
      "taf_trigger": false,
      "metar": "METAR EDFH 280850Z 01003KT 320V040 0800 R21/1300D -RA FG VV/// 03/03 Q0992",
      "taf": "TAF EDFH 280500Z 2806/2906 VRB03KT 2000 -RADZ OVC002"
    },
    {
      "icao": "EDJA",
      "alert": "OK",
      "vis_m": 4700,
      "fzfg": false,
      "metar_trigger": false,
      "taf_trigger": false,
      "metar": "METAR EDJA 280850Z 02004KT 350V050 4700 BR OVC003 M01/M02 Q0989",
      "taf": "TAF EDJA 280800Z 2809/2818 03005KT 6000 BKN003"
    },
    {
      "icao": "EDLW",
      "alert": "OK",
      "vis_m": 2600,
      "fzfg": false,
      "metar_trigger": false,
      "taf_trigger": false,
      "metar": "METAR EDLW 280850Z 01005KT 2600 BR FEW001 OVC003 01/01 Q0994",
      "taf": "TAF EDLW 280500Z 2806/2906 06007KT 3000 BR OVC010"
    },
    {
      "icao": "EDNY",
      "alert": "OK",
      "vis_m": 9999,
      "fzfg": false,
      "metar_trigger": false,
      "taf_trigger": false,
      "metar": "METAR EDNY 280850Z 35003KT 280V060 CAVOK 01/M00 Q0991",
      "taf": "TAF EDNY 280800Z 2809/2818 VRB03KT 9999 FEW007"
    },
    {
      "icao": "EDSB",
      "alert": "OK",
      "vis_m": 6000,
      "fzfg": false,
      "metar_trigger": false,
      "taf_trigger": false,
      "metar": "METAR EDSB 280850Z 01007KT 6000 -RA OVC004 04/04 Q0992 RERA",
      "taf": "TAF EDSB 280500Z 2806/2906 02007KT 3000 -RADZ SCT002 BKN010"
    },
    {
      "icao": "EETN",
      "alert": "OK",
      "vis_m": 9000,
      "fzfg": false,
      "metar_trigger": false,
      "taf_trigger": false,
      "metar": "METAR EETN 280850Z 08012KT 9000 -SN OVC009 M08/M10 Q1014 NOSIG",
      "taf": "TAF EETN 280530Z 2806/2906 07010KT 9999 OVC008"
    },
    {
      "icao": "EFTU",
      "alert": "OK",
      "vis_m": 9999,
      "fzfg": false,
      "metar_trigger": false,
      "taf_trigger": false,
      "metar": "METAR EFTU 280850Z AUTO 08005KT CAVOK M13/M14 Q1016",
      "taf": "TAF EFTU 280825Z 2809/2909 08005KT CAVOK"
    },
    {
      "icao": "EGBB",
      "alert": "OK",
      "vis_m": 9999,
      "fzfg": false,
      "metar_trigger": false,
      "taf_trigger": false,
      "metar": "METAR EGBB 280850Z 16003KT CAVOK 00/00 Q0992",
      "taf": "TAF EGBB 280454Z 2806/2906 16005KT 9999 FEW025"
    },
    {
      "icao": "EGGP",
      "alert": "OK",
      "vis_m": 9999,
      "fzfg": false,
      "metar_trigger": false,
      "taf_trigger": false,
      "metar": "METAR EGGP 280850Z 10005KT 9999 FEW022 02/01 Q0992",
      "taf": "TAF EGGP 280454Z 2806/2906 15004KT 9999 FEW030"
    },
    {
      "icao": "EGGW",
      "alert": "OK",
      "vis_m": 9000,
      "fzfg": false,
      "metar_trigger": false,
      "taf_trigger": false,
      "metar": "METAR EGGW 280850Z COR 21003KT 9000 BCFG NSC 02/01 Q0993",
      "taf": "TAF EGGW 280457Z 2806/2906 VRB05KT 9999 FEW020"
    },
    {
      "icao": "EGKK",
      "alert": "OK",
      "vis_m": 6000,
      "fzfg": false,
      "metar_trigger": false,
      "taf_trigger": false,
      "metar": "METAR EGKK 280850Z 10003KT 6000 2000NE VCFG FEW002 SCT008 00/00 Q0993",
      "taf": "TAF EGKK 280455Z 2806/2912 14003KT 9999 FEW042"
    },
    {
      "icao": "EGNM",
      "alert": "OK",
      "vis_m": 9999,
      "fzfg": false,
      "metar_trigger": false,
      "taf_trigger": false,
      "metar": "METAR EGNM 280850Z 05003KT 9999 VCFG NSC 02/02 Q0992",
      "taf": ""
    },
    {
      "icao": "EGPD",
      "alert": "OK",
      "vis_m": 8000,
      "fzfg": false,
      "metar_trigger": false,
      "taf_trigger": false,
      "metar": "METAR EGPD 280850Z 14013KT 8000 -RA BKN006 OVC009 06/05 Q0993 RERA TEMPO 4000 RA",
      "taf": "TAF EGPD 280456Z 2806/2906 12015G25KT 9999 SCT010 BKN020"
    },
    {
      "icao": "EGPF",
      "alert": "OK",
      "vis_m": 9999,
      "fzfg": false,
      "metar_trigger": false,
      "taf_trigger": false,
      "metar": "METAR EGPF 280850Z AUTO 05005KT 9999 OVC044 05/04 Q0991",
      "taf": "TAF EGPF 280459Z 2806/2906 09005KT 9999 FEW018"
    },
    {
      "icao": "EHBK",
      "alert": "OK",
      "vis_m": 2600,
      "fzfg": false,
      "metar_trigger": false,
      "taf_trigger": false,
      "metar": "METAR EHBK 280855Z AUTO VRB02KT 2600 BR SCT001/// OVC003/// 05/05 Q0994 NOSIG",
      "taf": "TAF EHBK 280512Z 2806/2912 VRB02KT 9999 BKN030"
    },
    {
      "icao": "EHEH",
      "alert": "OK",
      "vis_m": null,
      "fzfg": false,
      "metar_trigger": false,
      "taf_trigger": false,
      "metar": "",
      "taf": ""
    },
    {
      "icao": "EKBI",
      "alert": "OK",
      "vis_m": 9999,
      "fzfg": false,
      "metar_trigger": false,
      "taf_trigger": false,
      "metar": "METAR EKBI 280850Z AUTO 08013KT 9999 -SN OVC011/// M01/M03 Q1004",
      "taf": "TAF EKBI 280827Z 2809/2909 08015KT 9999 -SN BKN008"
    },
    {
      "icao": "EKCH",
      "alert": "OK",
      "vis_m": 9999,
      "fzfg": false,
      "metar_trigger": false,
      "taf_trigger": false,
      "metar": "METAR EKCH 280850Z 06015KT 9999 BKN015 M01/M04 Q1006 NOSIG",
      "taf": "TAF EKCH 280827Z 2809/2909 06016KT 9999 FEW015"
    },
    {
      "icao": "ENAL",
      "alert": "OK",
      "vis_m": 9999,
      "fzfg": false,
      "metar_trigger": false,
      "taf_trigger": false,
      "metar": "METAR ENAL 280850Z 14007KT CAVOK M06/M09 Q1006",
      "taf": "TAF ENAL 280800Z 2809/2818 16006KT CAVOK"
    },
    {
      "icao": "ENBR",
      "alert": "OK",
      "vis_m": 9999,
      "fzfg": false,
      "metar_trigger": false,
      "taf_trigger": false,
      "metar": "METAR ENBR 280850Z VRB02KT CAVOK M07/M08 Q1006 NOSIG RMK WIND 1200FT 02010KT",
      "taf": "TAF ENBR 280500Z 2806/2906 08005KT CAVOK"
    },
    {
      "icao": "ENGM",
      "alert": "OK",
      "vis_m": 9999,
      "fzfg": false,
      "metar_trigger": false,
      "taf_trigger": false,
      "metar": "METAR ENGM 280850Z 03005KT 360V060 9999 -SN BKN022 M09/M12 Q1014 NOSIG",
      "taf": "TAF ENGM 280500Z 2806/2906 02005KT 9999 -SN BKN024"
    },
    {
      "icao": "ENHD",
      "alert": "OK",
      "vis_m": 9999,
      "fzfg": false,
      "metar_trigger": false,
      "taf_trigger": false,
      "metar": "METAR ENHD 280850Z 00000KT CAVOK M02/M10 Q1006",
      "taf": "TAF ENHD 280800Z 2809/2818 07005KT 9999 SCT040"
    },
    {
      "icao": "ENTC",
      "alert": "OK",
      "vis_m": 9999,
      "fzfg": false,
      "metar_trigger": false,
      "taf_trigger": false,
      "metar": "METAR ENTC 280850Z 22011KT 9999 -SHSN FEW006 SCT008 BKN017 M06/M08 Q1013 TEMPO 2000 -SHSN VV008 RMK WIND 2600FT 35006KT",
      "taf": ""
    },
    {
      "icao": "ENTO",
      "alert": "OK",
      "vis_m": 9999,
      "fzfg": false,
      "metar_trigger": false,
      "taf_trigger": false,
      "metar": "METAR ENTO 280850Z 02010KT 9999 -SN OVC025 M06/M10 Q1013 NOSIG",
      "taf": "TAF ENTO 280500Z 2806/2906 02008KT 9999 BKN020"
    },
    {
      "icao": "ENVA",
      "alert": "OK",
      "vis_m": 9999,
      "fzfg": false,
      "metar_trigger": false,
      "taf_trigger": false,
      "metar": "METAR ENVA 280850Z 11008KT CAVOK M12/M15 Q1011 NOSIG RMK WIND 670FT 14019KT",
      "taf": "TAF ENVA 280500Z 2806/2906 10008KT CAVOK"
    },
    {
      "icao": "ENZV",
      "alert": "OK",
      "vis_m": 9999,
      "fzfg": false,
      "metar_trigger": false,
      "taf_trigger": false,
      "metar": "METAR ENZV 280850Z 16007KT 9999 FEW047 M03/M15 Q1007 NOSIG",
      "taf": "TAF ENZV 280500Z 2806/2906 11008KT CAVOK"
    },
    {
      "icao": "EPGD",
      "alert": "OK",
      "vis_m": 9000,
      "fzfg": false,
      "metar_trigger": false,
      "taf_trigger": false,
      "metar": "METAR EPGD 280830Z 02005KT 350V050 9000 OVC005 M02/M03 Q1002",
      "taf": ""
    },
    {
      "icao": "EPKK",
      "alert": "OK",
      "vis_m": 3700,
      "fzfg": false,
      "metar_trigger": false,
      "taf_trigger": false,
      "metar": "METAR EPKK 280830Z VRB02KT 3700 BR BKN043 M00/M02 Q0998",
      "taf": "TAF EPKK 280830Z 2809/2909 VRB02KT 3500 BR BKN040"
    },
    {
      "icao": "EPKT",
      "alert": "OK",
      "vis_m": 4000,
      "fzfg": false,
      "metar_trigger": false,
      "taf_trigger": false,
      "metar": "METAR EPKT 280830Z 01003KT 4000 BR BKN042 01/M01 Q0998",
      "taf": "TAF EPKT 280530Z 2806/2906 VRB02KT 9999 OVC020"
    },
    {
      "icao": "EPLB",
      "alert": "OK",
      "vis_m": 2400,
      "fzfg": false,
      "metar_trigger": false,
      "taf_trigger": false,
      "metar": "METAR EPLB 280830Z 04001KT 2400 BR NSC M02/M02 Q0999",
      "taf": "TAF EPLB 280530Z 2806/2906 VRB02KT 3000 BR SCT049"
    },
    {
      "icao": "EPMO",
      "alert": "OK",
      "vis_m": 1600,
      "fzfg": false,
      "metar_trigger": false,
      "taf_trigger": false,
      "metar": "METAR EPMO 280830Z 32006KT 1600 BR BKN006 M03/M03 Q1000",
      "taf": "TAF EPMO 280530Z 2806/2906 VRB02KT 2000 -SN BR BKN007"
    },
    {
      "icao": "EPPO",
      "alert": "OK",
      "vis_m": 2900,
      "fzfg": false,
      "metar_trigger": false,
      "taf_trigger": false,
      "metar": "METAR EPPO 280830Z 05003KT 2900 BR BKN004 BKN020 M01/M02 Q1001",
      "taf": "TAF EPPO 280530Z 2806/2906 07007KT 2000 BR OVC003"
    },
    {
      "icao": "EPRA",
      "alert": "OK",
      "vis_m": 1900,
      "fzfg": false,
      "metar_trigger": false,
      "taf_trigger": false,
      "metar": "METAR EPRA 280830Z 34004KT 1900 -SN BR OVC002 M00/M01 Q0999",
      "taf": "TAF EPRA 280830Z 2809/2818 35008KT 5000 BR OVC005"
    },
    {
      "icao": "EPRZ",
      "alert": "OK",
      "vis_m": 4000,
      "fzfg": false,
      "metar_trigger": false,
      "taf_trigger": false,
      "metar": "METAR EPRZ 280830Z VRB01KT 4000 BR BKN040 M01/M02 Q0999",
      "taf": "TAF EPRZ 280530Z 2806/2906 19007KT 6000 NSC"
    },
    {
      "icao": "EPSC",
      "alert": "OK",
      "vis_m": 3500,
      "fzfg": false,
      "metar_trigger": false,
      "taf_trigger": false,
      "metar": "METAR EPSC 280830Z VRB02KT 3500 BR OVC003 M01/M01 Q1002",
      "taf": ""
    },
    {
      "icao": "EPSY",
      "alert": "OK",
      "vis_m": 1900,
      "fzfg": false,
      "metar_trigger": false,
      "taf_trigger": false,
      "metar": "METAR EPSY 280830Z 33005KT 1900 BR OVC001 M01/M01 Q1000",
      "taf": "TAF EPSY 280830Z 2809/2818 01006KT 2000 BR OVC002"
    },
    {
      "icao": "EPWA",
      "alert": "OK",
      "vis_m": 2500,
      "fzfg": false,
      "metar_trigger": false,
      "taf_trigger": false,
      "metar": "METAR EPWA 280830Z 32006KT 2500 -SN BR BKN005 BKN015 M00/M01 Q1000 BECMG 3000 BR SCT005 BKN014",
      "taf": "TAF EPWA 280830Z 2809/2909 34005KT 4000 BR BKN014 BKN016"
    },
    {
      "icao": "EPWR",
      "alert": "OK",
      "vis_m": 8000,
      "fzfg": false,
      "metar_trigger": false,
      "taf_trigger": false,
      "metar": "METAR EPWR 280830Z 06004KT 8000 SCT008 OVC035 01/M01 Q0999",
      "taf": "TAF EPWR 280830Z 2809/2909 08006KT 7000 BKN008 BKN013"
    },
    {
      "icao": "ESGG",
      "alert": "OK",
      "vis_m": 9999,
      "fzfg": false,
      "metar_trigger": false,
      "taf_trigger": false,
      "metar": "METAR ESGG 280850Z 07013KT 9999 SCT024 M04/M09 Q1008",
      "taf": "TAF ESGG 280830Z 2809/2909 07012KT 9999 SCT025"
    },
    {
      "icao": "ESKN",
      "alert": "OK",
      "vis_m": 9999,
      "fzfg": false,
      "metar_trigger": false,
      "taf_trigger": false,
      "metar": "METAR ESKN 280850Z 03010KT 350V050 9999 BKN035 M04/M07 Q1012",
      "taf": "TAF ESKN 280830Z 2809/2909 02010KT 9999 BKN030"
    },
    {
      "icao": "ESMS",
      "alert": "OK",
      "vis_m": 9999,
      "fzfg": false,
      "metar_trigger": false,
      "taf_trigger": false,
      "metar": "METAR ESMS 280850Z 05012KT 9999 OVC011 M02/M04 Q1005",
      "taf": "TAF ESMS 280827Z 2809/2909 05010KT 9999 OVC012"
    },
    {
      "icao": "ESSA",
      "alert": "OK",
      "vis_m": 9999,
      "fzfg": false,
      "metar_trigger": false,
      "taf_trigger": false,
      "metar": "METAR ESSA 280850Z 05008KT 9999 OVC016 M07/M09 Q1014 NOSIG",
      "taf": "TAF ESSA 280830Z 2809/2909 05008KT 9999 BKN015"
    },
    {
      "icao": "EYKA",
      "alert": "OK",
      "vis_m": 7000,
      "fzfg": false,
      "metar_trigger": false,
      "taf_trigger": false,
      "metar": "METAR EYKA 280850Z 01005KT 340V040 7000 -SN FEW009 OVC040 M06/M07 Q1002",
      "taf": "TAF EYKA 280500Z 2806/2906 VRB04KT 5000 SN BR OVC020"
    },
    {
      "icao": "EYPA",
      "alert": "OK",
      "vis_m": 6000,
      "fzfg": false,
      "metar_trigger": false,
      "taf_trigger": false,
      "metar": "METAR EYPA 280850Z 07012KT 6000 -SN BKN032 BKN039 M07/M10 Q1005",
      "taf": "TAF EYPA 280500Z 2806/2906 06011KT 5000 SN BR SCT015 BKN030"
    },
    {
      "icao": "EYVI",
      "alert": "OK",
      "vis_m": 9000,
      "fzfg": false,
      "metar_trigger": false,
      "taf_trigger": false,
      "metar": "METAR EYVI 280850Z 04008KT 9000 -SN FEW007 OVC037 M05/M06 Q1000 NOSIG",
      "taf": "TAF EYVI 280500Z 2806/2906 04009KT 5000 SN BR SCT010 BKN015"
    },
    {
      "icao": "GCFV",
      "alert": "OK",
      "vis_m": 9999,
      "fzfg": false,
      "metar_trigger": false,
      "taf_trigger": false,
      "metar": "METAR GCFV 280830Z 28004KT 230V340 9999 BKN018 19/14 Q1021",
      "taf": "TAF GCFV 280800Z 2809/2909 34012KT 9999 SCT030 TX22/2814Z TN14/2906Z"
    },
    {
      "icao": "GCLP",
      "alert": "OK",
      "vis_m": 9999,
      "fzfg": false,
      "metar_trigger": false,
      "taf_trigger": false,
      "metar": "METAR GCLP 280830Z 30003KT 270V350 9999 FEW030 18/13 Q1022 NOSIG",
      "taf": "TAF GCLP 280800Z 2809/2909 VRB05KT 9999 FEW030 TX22/2814Z TN15/2906Z"
    },
    {
      "icao": "GCTS",
      "alert": "OK",
      "vis_m": 9999,
      "fzfg": false,
      "metar_trigger": false,
      "taf_trigger": false,
      "metar": "METAR GCTS 280830Z VRB01KT 9999 SCT030 18/11 Q1022 NOSIG",
      "taf": "TAF GCTS 280800Z 2809/2909 VRB05KT 9999 SCT030 TX22/2814Z TN16/2906Z"
    },
    {
      "icao": "GMAD",
      "alert": "OK",
      "vis_m": 5000,
      "fzfg": false,
      "metar_trigger": false,
      "taf_trigger": false,
      "metar": "METAR GMAD 280800Z 12002KT 5000 FEW010 SCT016 BKN080 13/13 Q1022 NOSIG",
      "taf": "TAF GMAD 280500Z 2806/2912 22005KT 8000 SCT020 BKN080"
    },
    {
      "icao": "GMMN",
      "alert": "OK",
      "vis_m": 9999,
      "fzfg": false,
      "metar_trigger": false,
      "taf_trigger": false,
      "metar": "METAR GMMN 280830Z 22020KT 200V260 9999 BKN008 14/13 Q1017 NOSIG",
      "taf": "TAF GMMN 280500Z 2806/2912 22015KT 9999 BKN008"
    },
    {
      "icao": "GMMX",
      "alert": "OK",
      "vis_m": 8000,
      "fzfg": false,
      "metar_trigger": false,
      "taf_trigger": false,
      "metar": "METAR GMMX 280830Z 15007KT 8000 SCT020 14/12 Q1021 NOSIG",
      "taf": "TAF GMMX 280500Z 2806/2912 06006KT 8000 SCT023 SCT080"
    },
    {
      "icao": "HEGN",
      "alert": "OK",
      "vis_m": 1000,
      "fzfg": false,
      "metar_trigger": false,
      "taf_trigger": false,
      "metar": "METAR HEGN 280800Z 33014KT 1000 R34/1000 R16/1200 SA NSC 19/M03 Q1020 NOSIG",
      "taf": "TAF HEGN 280900Z 2809/2912 34018KT CAVOK"
    },
    {
      "icao": "HEMA",
      "alert": "OK",
      "vis_m": 9999,
      "fzfg": false,
      "metar_trigger": false,
      "taf_trigger": false,
      "metar": "METAR HEMA 280800Z 29007KT CAVOK 22/M09 Q1020 NOSIG",
      "taf": ""
    },
    {
      "icao": "HESH",
      "alert": "OK",
      "vis_m": 2000,
      "fzfg": false,
      "metar_trigger": false,
      "taf_trigger": false,
      "metar": "METAR HESH 280800Z 01007KT 2000 HZ NSC 22/M01 Q1017 NOSIG",
      "taf": ""
    },
    {
      "icao": "HESX",
      "alert": "OK",
      "vis_m": 9999,
      "fzfg": false,
      "metar_trigger": false,
      "taf_trigger": false,
      "metar": "METAR HESX 280800Z 23010KT CAVOK 14/05 Q1018 NOSIG",
      "taf": "TAF HESX 280500Z 2806/2912 24009KT 6000 SCT030"
    },
    {
      "icao": "LATI",
      "alert": "OK",
      "vis_m": 9999,
      "fzfg": false,
      "metar_trigger": false,
      "taf_trigger": false,
      "metar": "METAR LATI 280850Z 14003KT 100V160 9999 SCT053 BKN170 11/04 Q1007 NOSIG",
      "taf": "TAF LATI 280500Z 2806/2906 VRB05KT CAVOK TX15/2812Z TN05/2905Z"
    },
    {
      "icao": "LBPD",
      "alert": "OK",
      "vis_m": 9999,
      "fzfg": false,
      "metar_trigger": false,
      "taf_trigger": false,
      "metar": "METAR LBPD 280830Z AUTO 31004KT 260V340 9999 NCD 07/02 Q1008 NOSIG",
      "taf": "TAF LBPD 280500Z 2806/2906 VRB04KT CAVOK"
    },
    {
      "icao": "LBSF",
      "alert": "OK",
      "vis_m": 350,
      "fzfg": true,
      "metar_trigger": false,
      "taf_trigger": false,
      "metar": "METAR LBSF 280830Z 23003KT 180V260 0350 R27/0450U FZFG VV002 M01/M01 Q1008 TEMPO 0600 FZFG",
      "taf": ""
    },
    {
      "icao": "LBWN",
      "alert": "OK",
      "vis_m": 9999,
      "fzfg": false,
      "metar_trigger": false,
      "taf_trigger": false,
      "metar": "METAR LBWN 280830Z AUTO VRB02KT 9999 SCT039/// 08/05 Q1007 NOSIG",
      "taf": ""
    },
    {
      "icao": "LCLK",
      "alert": "OK",
      "vis_m": 8000,
      "fzfg": false,
      "metar_trigger": false,
      "taf_trigger": false,
      "metar": "METAR LCLK 280830Z 01003KT 340V060 8000 SCT042 17/12 Q1012 NOSIG",
      "taf": "TAF LCLK 280530Z 2806/2906 33006KT 9999 FEW020 SCT040"
    },
    {
      "icao": "LCPH",
      "alert": "OK",
      "vis_m": 5000,
      "fzfg": false,
      "metar_trigger": false,
      "taf_trigger": false,
      "metar": "METAR LCPH 280830Z 15005KT 5000 DU FEW035 SCT050 17/10 Q1012 TEMPO 3000 DU SHRA VCTS FEW025CB SCT030TCU",
      "taf": "TAF LCPH 280530Z 2806/2906 08009KT 9999 FEW020 SCT050"
    },
    {
      "icao": "LEAL",
      "alert": "OK",
      "vis_m": 9999,
      "fzfg": false,
      "metar_trigger": false,
      "taf_trigger": false,
      "metar": "METAR LEAL 280830Z 03005KT 9999 -RA BKN064 09/06 Q1000 NOSIG",
      "taf": "TAF LEAL 280500Z 2806/2906 27010KT 9999 FEW040 TX20/2814Z TN10/2807Z"
    },
    {
      "icao": "LEBB",
      "alert": "OK",
      "vis_m": 9999,
      "fzfg": false,
      "metar_trigger": false,
      "taf_trigger": false,
      "metar": "METAR LEBB 280830Z 12008KT 080V140 9999 FEW032 05/02 Q0993 NOSIG",
      "taf": "TAF LEBB 280500Z 2806/2906 22009KT 9999 FEW030 TX10/2816Z TN04/2806Z"
    },
    {
      "icao": "LEBL",
      "alert": "OK",
      "vis_m": 9999,
      "fzfg": false,
      "metar_trigger": false,
      "taf_trigger": false,
      "metar": "METAR LEBL 280830Z 26014KT 9999 FEW040 09/01 Q0997 NOSIG",
      "taf": "TAF LEBL 280500Z 2806/2906 23008KT 9999 FEW020 TX12/2812Z TN07/2806Z"
    },
    {
      "icao": "LECH",
      "alert": "OK",
      "vis_m": 9000,
      "fzfg": false,
      "metar_trigger": false,
      "taf_trigger": false,
      "metar": "METAR LECH 280830Z AUTO VRB02KT 9000 NSC 06/01 Q0998",
      "taf": ""
    },
    {
      "icao": "LEMD",
      "alert": "OK",
      "vis_m": 9000,
      "fzfg": false,
      "metar_trigger": false,
      "taf_trigger": false,
      "metar": "METAR LEMD 280830Z 09003KT 9000 -RA SCT008 BKN014 02/02 Q0991 TEMPO RA",
      "taf": ""
    },
    {
      "icao": "LEMG",
      "alert": "OK",
      "vis_m": 7000,
      "fzfg": false,
      "metar_trigger": false,
      "taf_trigger": false,
      "metar": "METAR LEMG 280830Z 23014G27KT 160V260 7000 -RA FEW020 SCT038 BKN050 15/11 Q1001 NOSIG",
      "taf": "TAF LEMG 280500Z 2806/2906 23014KT 9999 SCT025 TX19/2814Z TN14/2807Z"
    },
    {
      "icao": "LEVC",
      "alert": "OK",
      "vis_m": 9999,
      "fzfg": false,
      "metar_trigger": false,
      "taf_trigger": false,
      "metar": "SPECI LEVC 280835Z 17006KT 150V210 9999 RA BKN050 09/05 Q0998 NOSIG",
      "taf": "TAF LEVC 280500Z 2806/2906 18005KT 9999 FEW040 TX18/2814Z TN08/2807Z"
    },
    {
      "icao": "LEXJ",
      "alert": "OK",
      "vis_m": 9999,
      "fzfg": false,
      "metar_trigger": false,
      "taf_trigger": false,
      "metar": "METAR LEXJ 280830Z VRB03KT CAVOK 08/00 Q0992",
      "taf": "TAF LEXJ 280800Z 2809/2909 20009KT 9999 FEW040 TX12/2814Z TN09/2905Z"
    },
    {
      "icao": "LEZG",
      "alert": "OK",
      "vis_m": 9999,
      "fzfg": false,
      "metar_trigger": false,
      "taf_trigger": false,
      "metar": "METAR LEZG 280830Z 11004KT CAVOK 06/02 Q0996 NOSIG",
      "taf": "TAF LEZG 280500Z 2806/2906 25005KT 9999 FEW040 TX08/2813Z TN03/2900Z"
    },
    {
      "icao": "LEZL",
      "alert": "OK",
      "vis_m": 6000,
      "fzfg": false,
      "metar_trigger": false,
      "taf_trigger": false,
      "metar": "METAR LEZL 280830Z 28026G37KT 250V320 6000 -RA SCT016 BKN028 16/14 Q1001 RERA NOSIG",
      "taf": "TAF LEZL 280800Z 2809/2909 22016KT 9999 SCT020 TX18/2815Z TN15/2907Z"
    },
    {
      "icao": "LFBD",
      "alert": "OK",
      "vis_m": 9999,
      "fzfg": false,
      "metar_trigger": false,
      "taf_trigger": false,
      "metar": "METAR LFBD 280830Z AUTO 13004KT 9999 FEW003 06/05 Q0994 NOSIG",
      "taf": ""
    },
    {
      "icao": "LFLL",
      "alert": "OK",
      "vis_m": 9999,
      "fzfg": false,
      "metar_trigger": false,
      "taf_trigger": false,
      "metar": "METAR LFLL 280830Z 33008KT 9999 -RA FEW008 OVC020 05/04 Q0993 TEMPO BKN009",
      "taf": "TAF LFLL 280500Z 2806/2912 32009KT 9999 -RA FEW010 OVC025"
    },
    {
      "icao": "LFLS",
      "alert": "OK",
      "vis_m": 9999,
      "fzfg": false,
      "metar_trigger": false,
      "taf_trigger": false,
      "metar": "METAR LFLS 280830Z AUTO 35005KT 310V030 9999 RA BKN014 BKN019 OVC027 04/03 Q0993 TEMPO 1000 SN OVC004",
      "taf": "TAF LFLS 280800Z 2809/2909 34007KT 6000 -RA BKN012 OVC020"
    },
    {
      "icao": "LFMN",
      "alert": "OK",
      "vis_m": 9999,
      "fzfg": false,
      "metar_trigger": false,
      "taf_trigger": false,
      "metar": "METAR LFMN 280830Z 35007KT 9999 -RA SCT015 BKN020 BKN033 08/07 Q0989 TEMPO 4000 SHRA",
      "taf": "TAF LFMN 280800Z 2809/2915 VRB07KT 9999 BKN030"
    },
    {
      "icao": "LFOB",
      "alert": "OK",
      "vis_m": 750,
      "fzfg": true,
      "metar_trigger": false,
      "taf_trigger": false,
      "metar": "METAR LFOB 280830Z AUTO 31002KT 0750 0650 R30/0900U R12/0800D FZFG VV/// M00/M00 Q0994 NOSIG",
      "taf": "TAF LFOB 280500Z 2806/2906 VRB03KT 9999 NSC"
    },
    {
      "icao": "LFPO",
      "alert": "OK",
      "vis_m": 3900,
      "fzfg": false,
      "metar_trigger": false,
      "taf_trigger": false,
      "metar": "METAR LFPO 280830Z AUTO 00000KT 3900 1000 R02/1500D R25/P2000 R07/1100U R24/1800U R06/P2000 BR FEW015 SCT170 03/03 Q0995 TEMPO 0800 FG VV///",
      "taf": "TAF LFPO 280500Z 2806/2912 VRB03KT 6000 NSC"
    },
    {
      "icao": "LFSB",
      "alert": "OK",
      "vis_m": 2300,
      "fzfg": false,
      "metar_trigger": false,
      "taf_trigger": false,
      "metar": "METAR LFSB 280830Z AUTO 29003KT 2300 BR BKN005 OVC009 04/04 Q0992 NOSIG",
      "taf": ""
    },
    {
      "icao": "LGAV",
      "alert": "OK",
      "vis_m": 9999,
      "fzfg": false,
      "metar_trigger": false,
      "taf_trigger": false,
      "metar": "METAR LGAV 280850Z 24005KT 200V270 9999 FEW025 16/03 Q1011 NOSIG",
      "taf": "TAF LGAV 280500Z 2806/2906 27010KT 9999 FEW018 SCT030"
    },
    {
      "icao": "LGTS",
      "alert": "OK",
      "vis_m": 9999,
      "fzfg": false,
      "metar_trigger": false,
      "taf_trigger": false,
      "metar": "METAR LGTS 280850Z VRB01KT CAVOK 09/04 Q1009 NOSIG",
      "taf": "TAF LGTS 280500Z 2806/2906 34005KT 9999 FEW030"
    },
    {
      "icao": "LHBP",
      "alert": "OK",
      "vis_m": 7000,
      "fzfg": false,
      "metar_trigger": false,
      "taf_trigger": false,
      "metar": "METAR LHBP 280830Z 10006KT 7000 -RA OVC049 02/00 Q0999 WS ALL RWY NOSIG",
      "taf": "TAF LHBP 280515Z 2806/2906 11007KT CAVOK"
    },
    {
      "icao": "LHDC",
      "alert": "OK",
      "vis_m": 9999,
      "fzfg": false,
      "metar_trigger": false,
      "taf_trigger": false,
      "metar": "METAR LHDC 280815Z AUTO 17005KT 140V210 CAVOK 01/01 Q1002 NOSIG",
      "taf": "TAF LHDC 280815Z 2809/2818 16006KT 9999 BKN045 OVC080"
    },
    {
      "icao": "LIBD",
      "alert": "OK",
      "vis_m": 8000,
      "fzfg": false,
      "metar_trigger": false,
      "taf_trigger": false,
      "metar": "METAR LIBD 280850Z 16005KT 8000 -RA SCT045 11/09 Q1001",
      "taf": "TAF LIBD 280500Z 2806/2906 19006KT 9999 SCT030"
    },
    {
      "icao": "LIBG",
      "alert": "OK",
      "vis_m": 9999,
      "fzfg": false,
      "metar_trigger": false,
      "taf_trigger": false,
      "metar": "METAR LIBG 280750Z 15005KT 9999 SCT020 12/10 Q1004",
      "taf": "TAF LIBG 280800Z 2809/2818 17013KT 9999 SCT020 SCT050"
    },
    {
      "icao": "LIBP",
      "alert": "OK",
      "vis_m": 9999,
      "fzfg": false,
      "metar_trigger": false,
      "taf_trigger": false,
      "metar": "METAR LIBP 280850Z AUTO VRB02KT 9999 BKN180/// 09/06 Q0993",
      "taf": "TAF LIBP 280500Z 2806/2906 23010KT 9999 SCT070"
    },
    {
      "icao": "LIBR",
      "alert": "OK",
      "vis_m": 9999,
      "fzfg": false,
      "metar_trigger": false,
      "taf_trigger": false,
      "metar": "METAR LIBR 280850Z 18012KT CAVOK 13/09 Q1004",
      "taf": "TAF LIBR 280500Z 2806/2906 18006KT 9999 FEW030"
    },
    {
      "icao": "LICA",
      "alert": "OK",
      "vis_m": 7000,
      "fzfg": false,
      "metar_trigger": false,
      "taf_trigger": false,
      "metar": "METAR LICA 280850Z AUTO 03006KT 7000 -RA OVC033/// 10/08 Q1006 RERA",
      "taf": "TAF LICA 280500Z 2806/2906 07012KT 9999 SCT040"
    },
    {
      "icao": "LICC",
      "alert": "OK",
      "vis_m": 9999,
      "fzfg": false,
      "metar_trigger": false,
      "taf_trigger": false,
      "metar": "METAR LICC 280850Z 23009KT 9999 -DZ SCT020 BKN060 11/08 Q1007 REDZ",
      "taf": "TAF LICC 280500Z 2806/2906 26010KT 9999 SCT030"
    },
    {
      "icao": "LICJ",
      "alert": "OK",
      "vis_m": 9999,
      "fzfg": false,
      "metar_trigger": false,
      "taf_trigger": false,
      "metar": "METAR LICJ 280850Z 22023G33KT 9999 BKN030 16/10 Q1004",
      "taf": "TAF LICJ 280500Z 2806/2906 18018G30KT 9999 SCT040"
    },
    {
      "icao": "LIMC",
      "alert": "OK",
      "vis_m": 9000,
      "fzfg": false,
      "metar_trigger": false,
      "taf_trigger": false,
      "metar": "METAR LIMC 280850Z 01006KT 9000 -RA BKN020 05/04 Q0992 NOSIG",
      "taf": ""
    },
    {
      "icao": "LIME",
      "alert": "OK",
      "vis_m": 9000,
      "fzfg": false,
      "metar_trigger": false,
      "taf_trigger": false,
      "metar": "METAR LIME 280850Z AUTO 28008KT 9000 RA SCT010/// OVC029/// 05/05 Q0991",
      "taf": "TAF LIME 280500Z 2806/2906 VRB04KT 3000 RA BKN014"
    },
    {
      "icao": "LIMF",
      "alert": "OK",
      "vis_m": 8000,
      "fzfg": false,
      "metar_trigger": false,
      "taf_trigger": false,
      "metar": "METAR LIMF 280850Z 22006KT 8000 SCT025 OVC060 03/01 Q0992",
      "taf": "TAF LIMF 280500Z 2806/2906 VRB04KT 4000 RA BKN014"
    },
    {
      "icao": "LIMJ",
      "alert": "OK",
      "vis_m": 9999,
      "fzfg": false,
      "metar_trigger": false,
      "taf_trigger": false,
      "metar": "METAR LIMJ 280850Z 04019G29KT 9999 -RA FEW013 OVC075 06/02 Q0990",
      "taf": ""
    },
    {
      "icao": "LIPE",
      "alert": "OK",
      "vis_m": 2000,
      "fzfg": false,
      "metar_trigger": false,
      "taf_trigger": false,
      "metar": "METAR LIPE 280850Z 25014KT 2000 RA BR SCT005 SCT045 07/06 Q0991",
      "taf": "TAF LIPE 280500Z 2806/2906 09010KT 6000 BKN030"
    },
    {
      "icao": "LIPH",
      "alert": "OK",
      "vis_m": 5000,
      "fzfg": false,
      "metar_trigger": false,
      "taf_trigger": false,
      "metar": "METAR LIPH 280850Z 05012KT 5000 RA BR FEW005 BKN020 07/06 Q0994",
      "taf": "TAF LIPH 280500Z 2806/2906 05010KT 4000 RA BKN008"
    },
    {
      "icao": "LIPQ",
      "alert": "OK",
      "vis_m": 9999,
      "fzfg": false,
      "metar_trigger": false,
      "taf_trigger": false,
      "metar": "METAR LIPQ 280850Z AUTO 03008KT 9999 -RA OVC021/// 08/07 Q0995",
      "taf": "TAF LIPQ 280500Z 2806/2906 05007KT 4000 RA BKN020"
    },
    {
      "icao": "LIPR",
      "alert": "OK",
      "vis_m": 9999,
      "fzfg": false,
      "metar_trigger": false,
      "taf_trigger": false,
      "metar": "METAR LIPR 280850Z 15012KT 9999 -RA SCT040 BKN060 12/05 Q0991",
      "taf": "TAF LIPR 280500Z 2806/2906 13012KT 9999 BKN030"
    },
    {
      "icao": "LIPX",
      "alert": "OK",
      "vis_m": 7000,
      "fzfg": false,
      "metar_trigger": false,
      "taf_trigger": false,
      "metar": "METAR LIPX 280850Z 07011G21KT 7000 RA SCT015 OVC020 08/06 Q0991",
      "taf": "TAF LIPX 280500Z 2806/2906 06010KT 3000 RA BKN014"
    },
    {
      "icao": "LIPY",
      "alert": "OK",
      "vis_m": 9999,
      "fzfg": false,
      "metar_trigger": false,
      "taf_trigger": false,
      "metar": "METAR LIPY 280850Z AUTO 15007G18KT 100V190 9999 OVC072/// 12/07 Q0992",
      "taf": "TAF LIPY 280500Z 2806/2906 14010KT 9999 BKN050"
    },
    {
      "icao": "LIPZ",
      "alert": "OK",
      "vis_m": 6000,
      "fzfg": false,
      "metar_trigger": false,
      "taf_trigger": false,
      "metar": "METAR LIPZ 280850Z 05016KT 6000 -RA SCT005 BKN015 07/06 Q0993 NOSIG",
      "taf": "TAF LIPZ 280500Z 2806/2912 05013KT 4000 RA BKN015"
    },
    {
      "icao": "LIRF",
      "alert": "OK",
      "vis_m": 8000,
      "fzfg": false,
      "metar_trigger": false,
      "taf_trigger": false,
      "metar": "METAR LIRF 280850Z 23020KT 8000 -RA FEW015 SCT045 15/12 Q0994 NOSIG",
      "taf": "TAF LIRF 280500Z 2806/2912 16020G30KT 9999 RA SCT030"
    },
    {
      "icao": "LIRN",
      "alert": "OK",
      "vis_m": 3000,
      "fzfg": false,
      "metar_trigger": false,
      "taf_trigger": false,
      "metar": "METAR LIRN 280850Z 18010G20KT 140V210 3000 -RA BR SCT010 BKN030 12/11 Q0999 NOSIG",
      "taf": "TAF LIRN 280500Z 2806/2906 17012KT 9999 SCT030"
    },
    {
      "icao": "LIRP",
      "alert": "OK",
      "vis_m": 9999,
      "fzfg": false,
      "metar_trigger": false,
      "taf_trigger": false,
      "metar": "METAR LIRP 280845Z 10005KT 9999 -RA SCT010 SCT020 12/12 Q0990 NOSIG",
      "taf": "TAF LIRP 280500Z 2806/2906 19012KT 6000 -RA FEW015 SCT020 BKN035"
    },
    {
      "icao": "LIRZ",
      "alert": "OK",
      "vis_m": 9999,
      "fzfg": false,
      "metar_trigger": false,
      "taf_trigger": false,
      "metar": "METAR LIRZ 280850Z AUTO 14009KT 9999 -RA SCT018/// BKN027/// BKN049/// 11/10 Q0993",
      "taf": "TAF LIRZ 280500Z 2806/2906 17014KT 7000 RA BKN025"
    },
    {
      "icao": "LJLJ",
      "alert": "OK",
      "vis_m": 9999,
      "fzfg": false,
      "metar_trigger": false,
      "taf_trigger": false,
      "metar": "METAR LJLJ 280830Z 30006KT 9999 -RA FEW003 OVC025 03/02 Q0996 NOSIG",
      "taf": "TAF LJLJ 280500Z 2806/2906 VRB02KT 7000 FEW008 OVC027"
    },
    {
      "icao": "LKMT",
      "alert": "OK",
      "vis_m": 3500,
      "fzfg": false,
      "metar_trigger": false,
      "taf_trigger": false,
      "metar": "METAR LKMT 280830Z 03003KT 3500 BR OVC032 00/M00 Q0998 NOSIG",
      "taf": "TAF LKMT 280500Z 2806/2906 04008KT 8000 BKN015 OVC025"
    },
    {
      "icao": "LKPR",
      "alert": "OK",
      "vis_m": 3800,
      "fzfg": false,
      "metar_trigger": false,
      "taf_trigger": false,
      "metar": "METAR LKPR 280830Z 06005KT 3800 BR BKN004 M01/M01 Q0996 NOSIG",
      "taf": "TAF LKPR 280800Z 2809/2915 06008KT 4500 BR BKN006"
    },
    {
      "icao": "LLBG",
      "alert": "OK",
      "vis_m": 4000,
      "fzfg": false,
      "metar_trigger": false,
      "taf_trigger": false,
      "metar": "METAR LLBG 280850Z 20018KT 4000 DU SCT040 17/06 Q1015 NOSIG",
      "taf": "TAF LLBG 280500Z 2806/2906 19010KT 8000 SCT040"
    },
    {
      "icao": "LMML",
      "alert": "OK",
      "vis_m": 9999,
      "fzfg": false,
      "metar_trigger": false,
      "taf_trigger": false,
      "metar": "METAR LMML 280845Z 24014KT 210V270 9999 FEW047 17/13 Q1008 NOSIG",
      "taf": "TAF LMML 280500Z 2806/2906 20015KT 9999 FEW025"
    },
    {
      "icao": "LOWW",
      "alert": "OK",
      "vis_m": 900,
      "fzfg": false,
      "metar_trigger": false,
      "taf_trigger": false,
      "metar": "METAR LOWW 280850Z 06003KT 020V100 0900 R16/1000U R29/1000N FG FEW000 OVC001 01/01 Q0996 BECMG 1500 BR OVC003",
      "taf": "TAF LOWW 280815Z 2809/2915 13007KT 0800 FG OVC001 TX01/2821Z TN00/2906Z"
    },
    {
      "icao": "LPFR",
      "alert": "OK",
      "vis_m": 2500,
      "fzfg": false,
      "metar_trigger": false,
      "taf_trigger": false,
      "metar": "METAR LPFR 280830Z 24033G44KT 2500 RA BR SCT008 BKN015 16/15 Q1002",
      "taf": "TAF LPFR 280500Z 2806/2906 22023G38KT 9999 SCT012 BKN025"
    },
    {
      "icao": "LPMA",
      "alert": "OK",
      "vis_m": 9999,
      "fzfg": false,
      "metar_trigger": false,
      "taf_trigger": false,
      "metar": "METAR LPMA 280830Z 26005KT 220V290 9999 FEW015 16/12 Q1017",
      "taf": "TAF LPMA 280500Z 2806/2906 VRB05KT 9999 FEW015"
    },
    {
      "icao": "LPPR",
      "alert": "OK",
      "vis_m": 9999,
      "fzfg": false,
      "metar_trigger": false,
      "taf_trigger": false,
      "metar": "METAR LPPR 280830Z 17005KT 9999 FEW018 BKN030 07/06 Q0996",
      "taf": ""
    },
    {
      "icao": "LPPS",
      "alert": "OK",
      "vis_m": 9000,
      "fzfg": false,
      "metar_trigger": false,
      "taf_trigger": false,
      "metar": "METAR LPPS 280830Z 29019KT 9000 VCSH SCT004 BKN009 17/15 Q1017",
      "taf": "TAF LPPS 280500Z 2806/2912 27015KT 9999 SCT015 SCT030"
    },
    {
      "icao": "LPPT",
      "alert": "OK",
      "vis_m": 9999,
      "fzfg": false,
      "metar_trigger": false,
      "taf_trigger": false,
      "metar": "METAR LPPT 280830Z 28013G24KT 9999 FEW025 13/09 Q1000",
      "taf": "TAF LPPT 280500Z 2806/2912 29020G35KT 9999 SCT025"
    },
    {
      "icao": "LQBK",
      "alert": "OK",
      "vis_m": 9999,
      "fzfg": false,
      "metar_trigger": false,
      "taf_trigger": false,
      "metar": "METAR LQBK 280830Z VRB01KT 9999 -RA BKN047 04/03 Q0998 NOSIG",
      "taf": "TAF LQBK 280500Z 2806/2906 34005KT 9999 SCT040 TX11/2813Z TN01/2806Z"
    },
    {
      "icao": "LQSA",
      "alert": "OK",
      "vis_m": 9999,
      "fzfg": false,
      "metar_trigger": false,
      "taf_trigger": false,
      "metar": "METAR LQSA 280830Z 15012KT 130V190 9999 FEW060 07/02 Q1002 TEMPO 16018G30KT",
      "taf": "TAF LQSA 280500Z 2806/2906 11008KT 9999 SCT050 TX12/2814Z TNM00/2806Z"
    },
    {
      "icao": "LQTZ",
      "alert": "OK",
      "vis_m": 9999,
      "fzfg": false,
      "metar_trigger": false,
      "taf_trigger": false,
      "metar": "METAR LQTZ 280830Z VRB02KT 9999 FEW040 BKN060 11/01 Q1000",
      "taf": "TAF LQTZ 280500Z 2806/2906 10005KT 9999 SCT060 TX14/2813Z TNM00/2806Z"
    },
    {
      "icao": "LRBC",
      "alert": "OK",
      "vis_m": 300,
      "fzfg": true,
      "metar_trigger": false,
      "taf_trigger": false,
      "metar": "METAR LRBC 280830Z 17009KT 0300 R16/0375N FG VV002 00/M00 Q1004",
      "taf": "TAF LRBC 280800Z 2809/2818 16008KT 0300 FZFG VV001"
    },
    {
      "icao": "LRBS",
      "alert": "OK",
      "vis_m": 9999,
      "fzfg": false,
      "metar_trigger": false,
      "taf_trigger": false,
      "metar": "METAR LRBS 280830Z 18004KT 140V220 9999 FEW004 05/05 Q1006 NOSIG",
      "taf": ""
    },
    {
      "icao": "LRBV",
      "alert": "OK",
      "vis_m": 800,
      "fzfg": false,
      "metar_trigger": false,
      "taf_trigger": false,
      "metar": "METAR LRBV 280830Z 09005KT 0800 R21/P2000N FG SCT015 02/02 Q1003",
      "taf": "TAF LRBV 280800Z 2809/2818 VRB04KT 0600 FG BKN002"
    },
    {
      "icao": "LRCL",
      "alert": "OK",
      "vis_m": 9000,
      "fzfg": false,
      "metar_trigger": false,
      "taf_trigger": false,
      "metar": "METAR LRCL 280830Z AUTO 12008KT 9000 OVC005/// 02/02 Q1003",
      "taf": "TAF LRCL 280800Z 2809/2818 11007KT 5000 BR OVC005"
    },
    {
      "icao": "LRCV",
      "alert": "OK",
      "vis_m": 100,
      "fzfg": false,
      "metar_trigger": false,
      "taf_trigger": false,
      "metar": "METAR LRCV 280830Z 03003KT 0100 R26/0150N FG OVC001 00/00 Q1006",
      "taf": "TAF LRCV 280800Z 2809/2818 VRB04KT 0200 FG OVC001"
    },
    {
      "icao": "LRIA",
      "alert": "OK",
      "vis_m": 2000,
      "fzfg": false,
      "metar_trigger": false,
      "taf_trigger": false,
      "metar": "METAR LRIA 280830Z 12005KT 2000 BR BKN001 01/01 Q1004",
      "taf": "TAF LRIA 280800Z 2809/2818 10006KT 0600 FG OVC002"
    },
    {
      "icao": "LROP",
      "alert": "OK",
      "vis_m": 5000,
      "fzfg": false,
      "metar_trigger": false,
      "taf_trigger": false,
      "metar": "METAR LROP 280830Z COR 20005KT 170V230 5000 BR BKN002 05/04 Q1006 NOSIG",
      "taf": "TAF LROP 280500Z 2806/2906 24008KT 0200 FG VV001"
    },
    {
      "icao": "LRSB",
      "alert": "OK",
      "vis_m": 900,
      "fzfg": false,
      "metar_trigger": false,
      "taf_trigger": false,
      "metar": "METAR LRSB 280830Z 10003KT 070V130 0900 R27/1000U FG OVC003 03/03 Q1003",
      "taf": "TAF LRSB 280500Z 2806/2906 VRB04KT 0200 FG VV001"
    },
    {
      "icao": "LRSM",
      "alert": "OK",
      "vis_m": 9999,
      "fzfg": false,
      "metar_trigger": false,
      "taf_trigger": false,
      "metar": "METAR LRSM 280830Z 11005KT CAVOK 03/02 Q1002",
      "taf": "TAF LRSM 280800Z 2809/2818 14010KT 9999 BKN045"
    },
    {
      "icao": "LRSV",
      "alert": "CRITICAL",
      "vis_m": 100,
      "fzfg": true,
      "metar_trigger": true,
      "taf_trigger": true,
      "metar": "METAR LRSV 280830Z 19003KT 0100 R34/0200N FZFG VV001 M01/M01 Q1002",
      "taf": "TAF LRSV 280800Z 2809/2818 VRB04KT 0100 FZFG VV001"
    },
    {
      "icao": "LRTM",
      "alert": "OK",
      "vis_m": 200,
      "fzfg": false,
      "metar_trigger": false,
      "taf_trigger": false,
      "metar": "METAR LRTM 280830Z 11001KT 0200 R07/0325N FG BKN001 OVC004 02/02 Q1004",
      "taf": "TAF LRTM 280800Z 2809/2818 VRB04KT 0200 FG BKN001 OVC003"
    },
    {
      "icao": "LRTR",
      "alert": "OK",
      "vis_m": 9999,
      "fzfg": false,
      "metar_trigger": false,
      "taf_trigger": false,
      "metar": "METAR LRTR 280830Z 11009KT CAVOK 03/03 Q1002 NOSIG",
      "taf": "TAF LRTR 280500Z 2806/2906 11010KT 0350 FG VV001"
    },
    {
      "icao": "LTAC",
      "alert": "OK",
      "vis_m": 9999,
      "fzfg": false,
      "metar_trigger": false,
      "taf_trigger": false,
      "metar": "METAR LTAC 280850Z 04003KT 350V100 9999 SCT025 BKN080 07/02 Q1010 NOSIG RMK RWY21C VRB02KT RWY03L 02003KT 350V050 RWY21R VRB02KT RWY03R 07003KT 350V140 RWY21L VRB02KT",
      "taf": ""
    },
    {
      "icao": "LTFM",
      "alert": "OK",
      "vis_m": 9999,
      "fzfg": false,
      "metar_trigger": false,
      "taf_trigger": false,
      "metar": "METAR LTFM 280850Z 16004KT 110V250 9999 SCT009 BKN025 10/08 Q1009 NOSIG RMK RWY17L 12003KT 070V150 RWY34L VRB03KT RWY16R 12004KT 050V150 RWY36 VRB02KT RWY18 VRB02KT",
      "taf": "TAF LTFM 280440Z 2806/2912 01005KT 9999 SCT008 BKN022"
    },
    {
      "icao": "LUKK",
      "alert": "OK",
      "vis_m": 300,
      "fzfg": true,
      "metar_trigger": false,
      "taf_trigger": false,
      "metar": "METAR LUKK 280830Z VRB03KT 0300 0250S R08/0500N FZFG VV002 M00/M00 Q1005 TEMPO 0400 FZFG",
      "taf": "TAF LUKK 280523Z 2806/2906 13006KT 0300 FZFG VV001"
    },
    {
      "icao": "LWOH",
      "alert": "OK",
      "vis_m": 9999,
      "fzfg": false,
      "metar_trigger": false,
      "taf_trigger": false,
      "metar": "METAR LWOH 280850Z VRB02KT 9999 FEW040 SCT090 04/03 Q1008",
      "taf": "TAF LWOH 280840Z 2809/2909 VRB03KT 9999 FEW040 SCT090"
    },
    {
      "icao": "LWSK",
      "alert": "OK",
      "vis_m": 500,
      "fzfg": false,
      "metar_trigger": false,
      "taf_trigger": false,
      "metar": "METAR LWSK 280850Z VRB02KT 0500 R34/0800N FG OVC002 01/00 Q1009 NOSIG",
      "taf": "TAF LWSK 280840Z 2809/2909 VRB02KT 0600 FG BKN003"
    },
    {
      "icao": "LYBE",
      "alert": "OK",
      "vis_m": 9999,
      "fzfg": false,
      "metar_trigger": false,
      "taf_trigger": false,
      "metar": "METAR LYBE 280830Z 15006KT CAVOK 07/01 Q1001 NOSIG",
      "taf": "TAF LYBE 280500Z 2806/2906 12006KT CAVOK TX11/2812Z TN01/2906Z"
    },
    {
      "icao": "LYNI",
      "alert": "OK",
      "vis_m": 9999,
      "fzfg": false,
      "metar_trigger": false,
      "taf_trigger": false,
      "metar": "METAR LYNI 280830Z 19003KT 150V240 9999 4000E FEW002 01/01 Q1006 NOSIG",
      "taf": ""
    },
    {
      "icao": "LYPG",
      "alert": "OK",
      "vis_m": 9999,
      "fzfg": false,
      "metar_trigger": false,
      "taf_trigger": false,
      "metar": "METAR LYPG 280830Z 00000KT 9999 FEW030 BKN050 08/04 Q1007 NOSIG",
      "taf": "TAF LYPG 280500Z 2806/2906 16006KT 9999 SCT040 BKN080 TX10/2813Z TN05/2806Z"
    },
    {
      "icao": "LZIB",
      "alert": "OK",
      "vis_m": 6000,
      "fzfg": false,
      "metar_trigger": false,
      "taf_trigger": false,
      "metar": "METAR LZIB 280830Z 06004KT 6000 SCT005 BKN009 BKN010 01/01 Q0997 TEMPO BKN008",
      "taf": "TAF LZIB 280515Z 2806/2906 05007KT 7000 OVC018"
    },
    {
      "icao": "LZKZ",
      "alert": "OK",
      "vis_m": 3200,
      "fzfg": false,
      "metar_trigger": false,
      "taf_trigger": false,
      "metar": "METAR LZKZ 280830Z 28003KT 3200 BR OVC009 01/01 Q1001 NOSIG",
      "taf": "TAF LZKZ 280515Z 2806/2906 19006KT 8000 BKN012"
    },
    {
      "icao": "LZTT",
      "alert": "OK",
      "vis_m": 9999,
      "fzfg": false,
      "metar_trigger": false,
      "taf_trigger": false,
      "metar": "METAR LZTT 280830Z 15006KT 120V180 9999 FEW010 BKN036 01/M01 Q0996 NOSIG",
      "taf": "TAF LZTT 280515Z 2806/2906 26008KT 9999 BKN035"
    },
    {
      "icao": "OEJN",
      "alert": "OK",
      "vis_m": 9999,
      "fzfg": false,
      "metar_trigger": false,
      "taf_trigger": false,
      "metar": "METAR OEJN 280800Z 31006KT 9999 FEW040 28/17 Q1016 NOSIG",
      "taf": "TAF OEJN 280500Z 2806/2912 28012KT 9999 FEW040"
    },
    {
      "icao": "OEMA",
      "alert": "OK",
      "vis_m": 9999,
      "fzfg": false,
      "metar_trigger": false,
      "taf_trigger": false,
      "metar": "METAR OEMA 280800Z 22006KT CAVOK 24/11 Q1019 NOSIG",
      "taf": "TAF OEMA 280500Z 2806/2912 28014KT 9999 SCT040"
    },
    {
      "icao": "OJAI",
      "alert": "OK",
      "vis_m": 1500,
      "fzfg": false,
      "metar_trigger": false,
      "taf_trigger": false,
      "metar": "METAR OJAI 280800Z 25021KT 1500 BLDU NSC 11/02 Q1015 NOSIG",
      "taf": "TAF OJAI 280434Z 2806/2912 26012KT 4000 HZ SCT035"
    },
    {
      "icao": "OMAA",
      "alert": "OK",
      "vis_m": 9999,
      "fzfg": false,
      "metar_trigger": false,
      "taf_trigger": false,
      "metar": "METAR OMAA 280830Z 19007KT 160V220 CAVOK 25/09 Q1020 NOSIG",
      "taf": "TAF OMAA 280500Z 2806/2912 16008KT 8000 NSC"
    },
    {
      "icao": "OMDB",
      "alert": "OK",
      "vis_m": 9999,
      "fzfg": false,
      "metar_trigger": false,
      "taf_trigger": false,
      "metar": "METAR OMDB 280830Z 17009KT 9999 FEW045 25/11 Q1020 NOSIG",
      "taf": "TAF OMDB 280500Z 2806/2912 16005KT 8000 NSC"
    },
    {
      "icao": "UAAA",
      "alert": "OK",
      "vis_m": 9999,
      "fzfg": false,
      "metar_trigger": false,
      "taf_trigger": false,
      "metar": "METAR UAAA 280830Z 01004MPS 9999 FEW050 SCT100 03/M02 Q1021 NOSIG",
      "taf": "TAF UAAA 280503Z 2806/2906 04003MPS 3100 BR FU BKN030CB OVC100 TX02/2806Z TNM05/2902Z"
    },
    {
      "icao": "UBBB",
      "alert": "OK",
      "vis_m": 9999,
      "fzfg": false,
      "metar_trigger": false,
      "taf_trigger": false,
      "metar": "METAR UBBB 280830Z 20012KT 9999 SCT012 OVC020 08/05 Q1020 NOSIG",
      "taf": "TAF UBBB 280513Z 2806/2906 15016KT 9999 OVC030 TX09/2808Z TN05/2901Z"
    },
    {
      "icao": "UDSG",
      "alert": "OK",
      "vis_m": 2700,
      "fzfg": true,
      "metar_trigger": false,
      "taf_trigger": false,
      "metar": "METAR UDSG 280830Z 10001KT 2700 BR SCT023 M07/M07 Q1020 NOSIG",
      "taf": "TAF UDSG 280458Z 2806/2906 VRB06KT 0800 FZFG OVC010"
    },
    {
      "icao": "UDYZ",
      "alert": "OK",
      "vis_m": 3800,
      "fzfg": false,
      "metar_trigger": false,
      "taf_trigger": false,
      "metar": "METAR UDYZ 280830Z VRB02KT 3800 BR BKN008 M04/M06 Q1023 NOSIG",
      "taf": "TAF UDYZ 280500Z 2806/2906 VRB04KT 2300 BR BKN008"
    },
    {
      "icao": "UGKO",
      "alert": "OK",
      "vis_m": 9999,
      "fzfg": false,
      "metar_trigger": false,
      "taf_trigger": false,
      "metar": "METAR UGKO 280830Z 09021KT CAVOK 12/M00 Q1013 NOSIG",
      "taf": "TAF UGKO 280500Z 2806/2906 08017KT CAVOK TX15/2812Z TN03/2903Z"
    }
  ]
}