{
  "ts_utc": "2026-02-09T12:06:42Z",
  "threshold_m": 150,
  "source": "stations_override.txt (ICAO list) + aviationweather.gov (METAR/TAF raw)",
  "station_count": 159,
  "stations": [
    {
      "icao": "BIKF",
      "alert": "OK",
      "vis_m": 9999,
      "fzfg": false,
      "metar_trigger": false,
      "taf_trigger": false,
      "metar": "METAR BIKF 091200Z 05012KT 9999 SCT038 03/M01 Q1007",
      "taf": "TAF BIKF 091033Z 0912/1012 03012KT CAVOK TX03/0915Z TN02/0920Z"
    },
    {
      "icao": "BKPR",
      "alert": "OK",
      "vis_m": 9999,
      "fzfg": false,
      "metar_trigger": false,
      "taf_trigger": false,
      "metar": "METAR BKPR 091200Z 16004KT 9999 FEW040 10/06 Q1007 NOSIG",
      "taf": "TAF BKPR 091130Z 0912/1012 06008KT 9999 SCT030 BKN080"
    },
    {
      "icao": "EBCI",
      "alert": "OK",
      "vis_m": 9999,
      "fzfg": false,
      "metar_trigger": false,
      "taf_trigger": false,
      "metar": "METAR EBCI 091150Z 15007KT 120V200 9999 BKN012 06/03 Q1004 BECMG SCT015",
      "taf": "TAF EBCI 091100Z 0912/1018 17009KT 9999 BKN012"
    },
    {
      "icao": "EDDB",
      "alert": "OK",
      "vis_m": 4600,
      "fzfg": false,
      "metar_trigger": false,
      "taf_trigger": false,
      "metar": "METAR EDDB 091150Z AUTO 12009KT 4600 BR OVC006 00/M01 Q1012 BECMG 5000",
      "taf": "TAF EDDB 091100Z 0912/1012 11007KT 4000 BR BKN005"
    },
    {
      "icao": "EDDH",
      "alert": "OK",
      "vis_m": 6000,
      "fzfg": false,
      "metar_trigger": false,
      "taf_trigger": false,
      "metar": "METAR EDDH 091150Z AUTO 11008KT 080V140 6000 OVC008 01/M01 Q1010 NOSIG",
      "taf": "TAF EDDH 091100Z 0912/1018 11008KT 7000 OVC008"
    },
    {
      "icao": "EDDK",
      "alert": "OK",
      "vis_m": 9999,
      "fzfg": false,
      "metar_trigger": false,
      "taf_trigger": false,
      "metar": "METAR EDDK 091150Z AUTO 14018KT 9999 BKN024 06/01 Q1006 NOSIG",
      "taf": "TAF EDDK 091100Z 0912/1018 13009KT 9999 FEW035"
    },
    {
      "icao": "EDDN",
      "alert": "OK",
      "vis_m": 9999,
      "fzfg": false,
      "metar_trigger": false,
      "taf_trigger": false,
      "metar": "METAR EDDN 091150Z AUTO 10006KT 9999 BKN017 BKN032 06/02 Q1008 NOSIG",
      "taf": "TAF EDDN 091100Z 0912/1012 12006KT 9999 BKN035"
    },
    {
      "icao": "EDDS",
      "alert": "OK",
      "vis_m": 9999,
      "fzfg": false,
      "metar_trigger": false,
      "taf_trigger": false,
      "metar": "METAR EDDS 091150Z AUTO 10004KT 070V140 9999 OVC017 05/01 Q1006 NOSIG",
      "taf": "TAF EDDS 091100Z 0912/1012 12004KT 9999 BKN013"
    },
    {
      "icao": "EDFH",
      "alert": "OK",
      "vis_m": 9999,
      "fzfg": false,
      "metar_trigger": false,
      "taf_trigger": false,
      "metar": "METAR EDFH 091150Z 15011KT 9999 BKN009 03/01 Q1005",
      "taf": "TAF EDFH 091100Z 0912/1012 14012KT 9999 SCT006 BKN015"
    },
    {
      "icao": "EDJA",
      "alert": "OK",
      "vis_m": 9999,
      "fzfg": false,
      "metar_trigger": false,
      "taf_trigger": false,
      "metar": "METAR EDJA 091150Z 06003KT 330V110 9999 BKN016 04/M00 Q1006",
      "taf": "TAF EDJA 091100Z 0912/0921 VRB03KT 9999 OVC015"
    },
    {
      "icao": "EDLW",
      "alert": "OK",
      "vis_m": 9999,
      "fzfg": false,
      "metar_trigger": false,
      "taf_trigger": false,
      "metar": "METAR EDLW 091150Z 12009KT CAVOK 08/01 Q1006",
      "taf": "TAF EDLW 091100Z 0912/1012 14006KT CAVOK"
    },
    {
      "icao": "EDNY",
      "alert": "OK",
      "vis_m": 9999,
      "fzfg": false,
      "metar_trigger": false,
      "taf_trigger": false,
      "metar": "METAR EDNY 091150Z 26004KT 9999 OVC022 06/01 Q1007",
      "taf": "TAF EDNY 091100Z 0912/0921 VRB03KT 9999 SCT025"
    },
    {
      "icao": "EDSB",
      "alert": "OK",
      "vis_m": 7000,
      "fzfg": false,
      "metar_trigger": false,
      "taf_trigger": false,
      "metar": "METAR EDSB 091150Z 05003KT 010V100 7000 FEW007 OVC032 05/03 Q1007",
      "taf": "TAF EDSB 091100Z 0912/1012 03004KT 9999 SCT006 BKN030"
    },
    {
      "icao": "EETN",
      "alert": "OK",
      "vis_m": 9999,
      "fzfg": false,
      "metar_trigger": false,
      "taf_trigger": false,
      "metar": "METAR EETN 091150Z 23012KT 9999 FEW010 BKN023 M06/M07 Q1014 NOSIG",
      "taf": "TAF EETN 091130Z 0912/1012 21012KT 9999 BKN020"
    },
    {
      "icao": "EFTU",
      "alert": "OK",
      "vis_m": 9999,
      "fzfg": false,
      "metar_trigger": false,
      "taf_trigger": false,
      "metar": "METAR EFTU 091150Z AUTO 26014KT 9999 OVC013 M06/M09 Q1013",
      "taf": "TAF EFTU 091130Z 0912/1012 26014KT 9999 BKN013"
    },
    {
      "icao": "EGBB",
      "alert": "OK",
      "vis_m": 9999,
      "fzfg": false,
      "metar_trigger": false,
      "taf_trigger": false,
      "metar": "METAR EGBB 091150Z 13011KT 9999 BKN014 09/07 Q0998",
      "taf": "TAF EGBB 091059Z 0912/1012 15008KT 9999 SCT010"
    },
    {
      "icao": "EGGP",
      "alert": "OK",
      "vis_m": 9999,
      "fzfg": false,
      "metar_trigger": false,
      "taf_trigger": false,
      "metar": "METAR EGGP 091150Z 14010KT 120V180 9999 BKN013 09/06 Q0997",
      "taf": "TAF EGGP 091056Z 0912/1012 14008KT 9999 BKN020"
    },
    {
      "icao": "EGGW",
      "alert": "OK",
      "vis_m": 9999,
      "fzfg": false,
      "metar_trigger": false,
      "taf_trigger": false,
      "metar": "METAR EGGW 091150Z AUTO 14007KT 9999 OVC010 08/07 Q0999",
      "taf": "TAF EGGW 091059Z 0912/1012 15007KT 9999 FEW008 SCT020"
    },
    {
      "icao": "EGKK",
      "alert": "OK",
      "vis_m": 9999,
      "fzfg": false,
      "metar_trigger": false,
      "taf_trigger": false,
      "metar": "METAR EGKK 091150Z 14007KT 9999 BKN012 10/08 Q1000",
      "taf": "TAF EGKK 091104Z 0912/1018 14009KT 9999 SCT015"
    },
    {
      "icao": "EGNM",
      "alert": "OK",
      "vis_m": 7000,
      "fzfg": false,
      "metar_trigger": false,
      "taf_trigger": false,
      "metar": "METAR EGNM 091150Z 13008KT 100V170 7000 -DZ SCT005 BKN006 07/06 Q0998",
      "taf": "TAF EGNM 091056Z 0912/1012 12007KT 4500 -RA BR BKN003"
    },
    {
      "icao": "EGPD",
      "alert": "OK",
      "vis_m": 9999,
      "fzfg": false,
      "metar_trigger": false,
      "taf_trigger": false,
      "metar": "METAR EGPD 091150Z AUTO 16013KT 9999 BKN007 OVC018 08/06 Q0999 TEMPO BKN003",
      "taf": "TAF EGPD 091054Z 0912/1012 15009KT 9999 SCT008 BKN010"
    },
    {
      "icao": "EGPF",
      "alert": "OK",
      "vis_m": 9999,
      "fzfg": false,
      "metar_trigger": false,
      "taf_trigger": false,
      "metar": "METAR EGPF 091150Z AUTO 06007KT 9999 FEW012 BKN043 08/06 Q0997",
      "taf": "TAF EGPF 091056Z 0912/1012 06006KT 9999 BKN030"
    },
    {
      "icao": "EHBK",
      "alert": "OK",
      "vis_m": 9999,
      "fzfg": false,
      "metar_trigger": false,
      "taf_trigger": false,
      "metar": "METAR EHBK 091155Z AUTO 10005KT 070V140 9999 NSC 06/03 Q1005 NOSIG",
      "taf": "TAF EHBK 091119Z 0912/1018 15006KT CAVOK"
    },
    {
      "icao": "EHEH",
      "alert": "OK",
      "vis_m": 7000,
      "fzfg": false,
      "metar_trigger": false,
      "taf_trigger": false,
      "metar": "METAR EHEH 091155Z AUTO 10005KT 080V150 7000 BR BKN004 OVC005 03/02 Q1005 YLO BECMG SCT010 BKN015 RMK TREND REMOTE BY EHWX",
      "taf": "TAF EHEH 091152Z 0912/1018 12002KT 7000 SCT005 BKN008"
    },
    {
      "icao": "EKBI",
      "alert": "OK",
      "vis_m": 8000,
      "fzfg": false,
      "metar_trigger": false,
      "taf_trigger": false,
      "metar": "METAR EKBI 091150Z AUTO 10007KT 070V130 8000 OVC008/// M00/M02 Q1011",
      "taf": "TAF EKBI 091127Z 0912/1012 10008KT 9000 BKN008"
    },
    {
      "icao": "EKCH",
      "alert": "OK",
      "vis_m": 9999,
      "fzfg": false,
      "metar_trigger": false,
      "taf_trigger": false,
      "metar": "METAR EKCH 091150Z 10010KT 9999 OVC007 M01/M02 Q1014 NOSIG",
      "taf": "TAF EKCH 091127Z 0912/1012 11010KT 9999 BKN008"
    },
    {
      "icao": "ENAL",
      "alert": "OK",
      "vis_m": 9999,
      "fzfg": false,
      "metar_trigger": false,
      "taf_trigger": false,
      "metar": "METAR ENAL 091150Z 16005G18KT 9999 FEW030 04/M02 Q1012",
      "taf": "TAF ENAL 091100Z 0912/0921 15006KT 9999 SCT030"
    },
    {
      "icao": "ENBR",
      "alert": "OK",
      "vis_m": 9999,
      "fzfg": false,
      "metar_trigger": false,
      "taf_trigger": false,
      "metar": "METAR ENBR 091150Z 00000KT 9999 FEW045 04/M05 Q1011 NOSIG RMK WIND 1200FT 16005KT",
      "taf": "TAF ENBR 091100Z 0912/1012 VRB03KT 9999 SCT045"
    },
    {
      "icao": "ENGM",
      "alert": "OK",
      "vis_m": 9999,
      "fzfg": false,
      "metar_trigger": false,
      "taf_trigger": false,
      "metar": "METAR ENGM 091150Z 03004KT 9999 -SN OVC020 M09/M11 Q1015 NOSIG",
      "taf": "TAF ENGM 091100Z 0912/1012 03005KT 9999 -SN BKN020"
    },
    {
      "icao": "ENHD",
      "alert": "OK",
      "vis_m": 9999,
      "fzfg": false,
      "metar_trigger": false,
      "taf_trigger": false,
      "metar": "METAR ENHD 091150Z 13012KT 9999 BKN047 03/M04 Q1012",
      "taf": "TAF ENHD 091100Z 0912/0921 12010KT 9999 BKN045"
    },
    {
      "icao": "ENTC",
      "alert": "OK",
      "vis_m": 9999,
      "fzfg": false,
      "metar_trigger": false,
      "taf_trigger": false,
      "metar": "METAR ENTC 091150Z 03008KT 9999 VCSH SCT020 BKN040 M03/M07 Q1011 TEMPO 2500 -SHSN VV010 RMK WIND 2600FT 35011KT",
      "taf": "TAF ENTC 091100Z 0912/1012 VRB03KT 9999 FEW015 BKN035"
    },
    {
      "icao": "ENTO",
      "alert": "OK",
      "vis_m": 9999,
      "fzfg": false,
      "metar_trigger": false,
      "taf_trigger": false,
      "metar": "METAR ENTO 091150Z VRB02KT 9999 BKN009 M05/M08 Q1015 TEMPO BKN010",
      "taf": ""
    },
    {
      "icao": "ENVA",
      "alert": "OK",
      "vis_m": 9999,
      "fzfg": false,
      "metar_trigger": false,
      "taf_trigger": false,
      "metar": "METAR ENVA 091150Z 10003KT 9999 VCSH BKN018 M03/M09 Q1013 NOSIG RMK WIND 670FT 16007KT",
      "taf": ""
    },
    {
      "icao": "ENZV",
      "alert": "OK",
      "vis_m": 9999,
      "fzfg": false,
      "metar_trigger": false,
      "taf_trigger": false,
      "metar": "METAR ENZV 091150Z 13015KT 9999 OVC042 02/M05 Q1012 NOSIG",
      "taf": "TAF ENZV 091100Z 0912/1012 12010KT 9999 BKN045"
    },
    {
      "icao": "EPGD",
      "alert": "OK",
      "vis_m": 6000,
      "fzfg": false,
      "metar_trigger": false,
      "taf_trigger": false,
      "metar": "METAR EPGD 091200Z 16007KT 6000 OVC002 M08/M09 Q1016",
      "taf": "TAF EPGD 091130Z 0912/1012 16010KT 4500 BR BKN004"
    },
    {
      "icao": "EPKK",
      "alert": "OK",
      "vis_m": 9999,
      "fzfg": false,
      "metar_trigger": false,
      "taf_trigger": false,
      "metar": "METAR EPKK 091200Z 08012KT 9999 OVC012 M03/M06 Q1014",
      "taf": "TAF EPKK 091130Z 0912/1012 07014KT 9999 OVC011"
    },
    {
      "icao": "EPKT",
      "alert": "OK",
      "vis_m": 9999,
      "fzfg": false,
      "metar_trigger": false,
      "taf_trigger": false,
      "metar": "METAR EPKT 091200Z 09015KT 9999 BKN011 M03/M06 Q1013",
      "taf": "TAF EPKT 091130Z 0912/1012 10015KT 9999 BKN012"
    },
    {
      "icao": "EPLB",
      "alert": "OK",
      "vis_m": 9999,
      "fzfg": false,
      "metar_trigger": false,
      "taf_trigger": false,
      "metar": "METAR EPLB 091200Z 12010KT 9999 FEW015 M08/M10 Q1019",
      "taf": "TAF EPLB 091130Z 0912/1012 12010KT 9999 SCT014"
    },
    {
      "icao": "EPMO",
      "alert": "OK",
      "vis_m": 9999,
      "fzfg": false,
      "metar_trigger": false,
      "taf_trigger": false,
      "metar": "METAR EPMO 091200Z 11009KT CAVOK M05/M10 Q1018",
      "taf": "TAF EPMO 091130Z 0912/1012 12010KT 9999 SCT014"
    },
    {
      "icao": "EPPO",
      "alert": "OK",
      "vis_m": 9999,
      "fzfg": false,
      "metar_trigger": false,
      "taf_trigger": false,
      "metar": "METAR EPPO 091200Z 12013KT 9999 SCT015 M00/M04 Q1014",
      "taf": "TAF EPPO 091130Z 0912/1012 11012KT 9999 OVC017"
    },
    {
      "icao": "EPRA",
      "alert": "OK",
      "vis_m": 9999,
      "fzfg": false,
      "metar_trigger": false,
      "taf_trigger": false,
      "metar": "METAR EPRA 091200Z 10013KT 9999 SCT020 M05/M10 Q1017",
      "taf": "TAF EPRA 091130Z 0912/0921 10012KT 9999 BKN025"
    },
    {
      "icao": "EPRZ",
      "alert": "OK",
      "vis_m": 9999,
      "fzfg": false,
      "metar_trigger": false,
      "taf_trigger": false,
      "metar": "METAR EPRZ 091200Z 08020KT 9999 BKN014 M04/M07 Q1016",
      "taf": "TAF EPRZ 091130Z 0912/1012 09015KT 9999 OVC013"
    },
    {
      "icao": "EPSC",
      "alert": "OK",
      "vis_m": 9999,
      "fzfg": false,
      "metar_trigger": false,
      "taf_trigger": false,
      "metar": "METAR EPSC 091200Z 12010KT 9999 OVC013 M01/M03 Q1013",
      "taf": "TAF EPSC 091130Z 0912/1012 13010KT 9999 OVC014"
    },
    {
      "icao": "EPSY",
      "alert": "OK",
      "vis_m": 9999,
      "fzfg": false,
      "metar_trigger": false,
      "taf_trigger": false,
      "metar": "METAR EPSY 091200Z 13007KT 080V160 9999 SCT007 M10/M11 Q1019",
      "taf": "TAF EPSY 091130Z 0912/0921 15006KT 9999 SCT014"
    },
    {
      "icao": "EPWA",
      "alert": "OK",
      "vis_m": 9999,
      "fzfg": false,
      "metar_trigger": false,
      "taf_trigger": false,
      "metar": "METAR EPWA 091200Z 12011KT CAVOK M06/M10 Q1018 NOSIG",
      "taf": "TAF EPWA 091130Z 0912/1012 11011KT 9999 SCT014"
    },
    {
      "icao": "EPWR",
      "alert": "OK",
      "vis_m": 9999,
      "fzfg": false,
      "metar_trigger": false,
      "taf_trigger": false,
      "metar": "METAR EPWR 091200Z 12011KT 9999 OVC014 00/M02 Q1013",
      "taf": "TAF EPWR 091130Z 0912/1012 14012KT 9999 OVC012"
    },
    {
      "icao": "ESGG",
      "alert": "OK",
      "vis_m": 9999,
      "fzfg": false,
      "metar_trigger": false,
      "taf_trigger": false,
      "metar": "METAR ESGG 091150Z 11006KT CAVOK M04/M08 Q1014",
      "taf": "TAF ESGG 091130Z 0912/1012 12007KT 9999 FEW040"
    },
    {
      "icao": "ESKN",
      "alert": "OK",
      "vis_m": 9999,
      "fzfg": false,
      "metar_trigger": false,
      "taf_trigger": false,
      "metar": "METAR ESKN 091150Z 26007KT 9999 OVC011 M07/M09 Q1016",
      "taf": "TAF ESKN 091130Z 0912/1012 25005KT 9999 OVC012"
    },
    {
      "icao": "ESMS",
      "alert": "OK",
      "vis_m": 7000,
      "fzfg": false,
      "metar_trigger": false,
      "taf_trigger": false,
      "metar": "METAR ESMS 091150Z 10008KT 7000 OVC006 M02/M03 Q1014",
      "taf": "TAF ESMS 091127Z 0912/1012 10007KT 9999 OVC008"
    },
    {
      "icao": "ESSA",
      "alert": "OK",
      "vis_m": 9999,
      "fzfg": false,
      "metar_trigger": false,
      "taf_trigger": false,
      "metar": "METAR ESSA 091150Z 24011KT 9999 BKN010 M07/M08 Q1015 NOSIG",
      "taf": "TAF ESSA 091130Z 0912/1012 24003KT 9999 SCT012"
    },
    {
      "icao": "EYKA",
      "alert": "OK",
      "vis_m": 9999,
      "fzfg": false,
      "metar_trigger": false,
      "taf_trigger": false,
      "metar": "METAR EYKA 091150Z 16004KT 130V210 CAVOK M12/M16 Q1021",
      "taf": "TAF EYKA 091100Z 0912/1012 VRB04KT 8000 NSC"
    },
    {
      "icao": "EYPA",
      "alert": "OK",
      "vis_m": 9999,
      "fzfg": false,
      "metar_trigger": false,
      "taf_trigger": false,
      "metar": "METAR EYPA 091150Z 15006KT CAVOK M09/M14 Q1019",
      "taf": ""
    },
    {
      "icao": "EYVI",
      "alert": "OK",
      "vis_m": 9999,
      "fzfg": false,
      "metar_trigger": false,
      "taf_trigger": false,
      "metar": "METAR EYVI 091150Z 19004KT CAVOK M12/M14 Q1020 NOSIG",
      "taf": "TAF EYVI 091100Z 0912/1012 18007KT 9000 NSC"
    },
    {
      "icao": "GCFV",
      "alert": "OK",
      "vis_m": 9999,
      "fzfg": false,
      "metar_trigger": false,
      "taf_trigger": false,
      "metar": "METAR GCFV 091200Z 01010KT 340V050 9999 FEW025 22/12 Q1024",
      "taf": "TAF GCFV 090800Z 0909/1009 03010KT 9999 FEW030 TX22/0914Z TN16/1006Z"
    },
    {
      "icao": "GCLP",
      "alert": "OK",
      "vis_m": 9999,
      "fzfg": false,
      "metar_trigger": false,
      "taf_trigger": false,
      "metar": "METAR GCLP 091200Z 03018KT 9999 FEW025 21/15 Q1025 NOSIG",
      "taf": "TAF GCLP 090800Z 0909/1009 03015KT 9999 FEW030 TX22/0914Z TN16/1006Z"
    },
    {
      "icao": "GCTS",
      "alert": "OK",
      "vis_m": 9999,
      "fzfg": false,
      "metar_trigger": false,
      "taf_trigger": false,
      "metar": "METAR GCTS 091200Z 16007KT 140V200 9999 FEW035 20/12 Q1025 NOSIG",
      "taf": "TAF GCTS 090800Z 0909/1009 10007KT 9999 FEW035 TX22/0914Z TN15/1006Z"
    },
    {
      "icao": "GMAD",
      "alert": "OK",
      "vis_m": 9999,
      "fzfg": false,
      "metar_trigger": false,
      "taf_trigger": false,
      "metar": "METAR GMAD 091200Z 10003KT 360V160 9999 FEW013 BKN200 20/17 Q1021 NOSIG",
      "taf": "TAF GMAD 091100Z 0912/1018 28010KT 6000 SCT016"
    },
    {
      "icao": "GMMN",
      "alert": "OK",
      "vis_m": 9999,
      "fzfg": false,
      "metar_trigger": false,
      "taf_trigger": false,
      "metar": "METAR GMMN 091200Z 23014KT 190V250 9999 BKN007 17/16 Q1022 NOSIG",
      "taf": "TAF GMMN 091100Z 0912/1018 22014KT 8000 BKN004"
    },
    {
      "icao": "GMMX",
      "alert": "OK",
      "vis_m": 9999,
      "fzfg": false,
      "metar_trigger": false,
      "taf_trigger": false,
      "metar": "METAR GMMX 091200Z VRB03KT 9999 FEW026 SCT080 20/14 Q1023 NOSIG",
      "taf": "TAF GMMX 091100Z 0912/1018 16006KT 8000 SCT020 SCT080"
    },
    {
      "icao": "HEGN",
      "alert": "OK",
      "vis_m": 9999,
      "fzfg": false,
      "metar_trigger": false,
      "taf_trigger": false,
      "metar": "METAR HEGN 091100Z 12010KT CAVOK 27/17 Q1013 NOSIG",
      "taf": "TAF HEGN 091100Z 0912/1018 12015KT CAVOK"
    },
    {
      "icao": "HEMA",
      "alert": "OK",
      "vis_m": 9999,
      "fzfg": false,
      "metar_trigger": false,
      "taf_trigger": false,
      "metar": "METAR HEMA 091100Z 11011KT CAVOK 27/14 Q1013 NOSIG",
      "taf": "TAF HEMA 091100Z 0912/1018 12016KT 6000 NSC"
    },
    {
      "icao": "HESH",
      "alert": "OK",
      "vis_m": 9999,
      "fzfg": false,
      "metar_trigger": false,
      "taf_trigger": false,
      "metar": "METAR HESH 091100Z 14005KT CAVOK 26/18 Q1014 NOSIG",
      "taf": "TAF HESH 091100Z 0912/1018 16012KT CAVOK"
    },
    {
      "icao": "HESX",
      "alert": "OK",
      "vis_m": 9999,
      "fzfg": false,
      "metar_trigger": false,
      "taf_trigger": false,
      "metar": "METAR HESX 091100Z 07008KT CAVOK 23/11 Q1011 NOSIG",
      "taf": "TAF HESX 091100Z 0912/1018 10010KT CAVOK"
    },
    {
      "icao": "LATI",
      "alert": "OK",
      "vis_m": 9999,
      "fzfg": false,
      "metar_trigger": false,
      "taf_trigger": false,
      "metar": "METAR LATI 091150Z VRB01KT 9999 BKN062 OVC110 13/06 Q1006 NOSIG",
      "taf": "TAF LATI 091100Z 0912/1012 VRB05KT 9999 FEW010 SCT040 BKN070 TX15/1012Z TN05/1004Z"
    },
    {
      "icao": "LBPD",
      "alert": "OK",
      "vis_m": 9999,
      "fzfg": false,
      "metar_trigger": false,
      "taf_trigger": false,
      "metar": "METAR LBPD 091200Z AUTO 10015KT 9999 -RA OVC007/// 05/05 Q1011 NOSIG",
      "taf": "TAF LBPD 091100Z 0912/1012 11014KT 6000 RA BKN006 BKN030"
    },
    {
      "icao": "LBSF",
      "alert": "OK",
      "vis_m": 9999,
      "fzfg": false,
      "metar_trigger": false,
      "taf_trigger": false,
      "metar": "METAR LBSF 091200Z 13009KT 9999 FEW024 BKN049 09/04 Q1009 NOSIG",
      "taf": "TAF LBSF 091100Z 0912/1012 11012KT 9999 BKN030"
    },
    {
      "icao": "LBWN",
      "alert": "OK",
      "vis_m": 9999,
      "fzfg": false,
      "metar_trigger": false,
      "taf_trigger": false,
      "metar": "METAR LBWN 091200Z 04008KT 340V120 9999 FEW016 OVC029 01/M02 Q1016 NOSIG",
      "taf": "TAF LBWN 091100Z 0912/1012 06014KT 9999 BKN010 OVC020"
    },
    {
      "icao": "LCLK",
      "alert": "OK",
      "vis_m": 9999,
      "fzfg": false,
      "metar_trigger": false,
      "taf_trigger": false,
      "metar": "METAR LCLK 091200Z 22014KT 9999 FEW020 20/15 Q1008 NOSIG",
      "taf": "TAF LCLK 091130Z 0912/1012 22015KT 9999 FEW025"
    },
    {
      "icao": "LCPH",
      "alert": "OK",
      "vis_m": 9999,
      "fzfg": false,
      "metar_trigger": false,
      "taf_trigger": false,
      "metar": "METAR LCPH 091200Z 26010KT 250V320 9999 SCT017 18/15 Q1009 NOSIG",
      "taf": "TAF LCPH 091130Z 0912/1012 29015KT 9999 SCT013"
    },
    {
      "icao": "LEAL",
      "alert": "OK",
      "vis_m": 9999,
      "fzfg": false,
      "metar_trigger": false,
      "taf_trigger": false,
      "metar": "METAR LEAL 091200Z 22009KT 9999 FEW035 17/09 Q1010 NOSIG",
      "taf": "TAF LEAL 091100Z 0912/1012 28010KT 9999 FEW040 TX21/0914Z TN13/1006Z"
    },
    {
      "icao": "LEBB",
      "alert": "OK",
      "vis_m": 9999,
      "fzfg": false,
      "metar_trigger": false,
      "taf_trigger": false,
      "metar": "METAR LEBB 091200Z 14004KT 070V210 9999 FEW030 15/07 Q1005 NOSIG",
      "taf": "TAF LEBB 091100Z 0912/1012 20009KT 9999 FEW040 SCT060 TX16/0913Z TN11/1006Z"
    },
    {
      "icao": "LEBL",
      "alert": "OK",
      "vis_m": 9999,
      "fzfg": false,
      "metar_trigger": false,
      "taf_trigger": false,
      "metar": "METAR LEBL 091200Z 16005KT 120V210 9999 FEW040 13/08 Q1007 NOSIG",
      "taf": "TAF LEBL 091100Z 0912/1012 23010KT 9999 FEW030 TX16/1012Z TN12/1005Z"
    },
    {
      "icao": "LECH",
      "alert": "OK",
      "vis_m": 9000,
      "fzfg": false,
      "metar_trigger": false,
      "taf_trigger": false,
      "metar": "METAR LECH 091200Z AUTO 23006KT 180V260 9000 NSC 14/03 Q1008",
      "taf": ""
    },
    {
      "icao": "LEMD",
      "alert": "OK",
      "vis_m": 9999,
      "fzfg": false,
      "metar_trigger": false,
      "taf_trigger": false,
      "metar": "METAR LEMD 091200Z 21010G20KT 170V230 9999 FEW018 12/09 Q1010 NOSIG",
      "taf": "TAF LEMD 091100Z 0912/1018 22010KT 9999 SCT030 TX13/0915Z TN05/1006Z"
    },
    {
      "icao": "LEMG",
      "alert": "OK",
      "vis_m": 9999,
      "fzfg": false,
      "metar_trigger": false,
      "taf_trigger": false,
      "metar": "METAR LEMG 091200Z 16004KT 110V260 9999 FEW045 21/14 Q1015 NOSIG",
      "taf": "TAF LEMG 091100Z 0912/1012 29010KT 9999 SCT030 TX22/0914Z TN15/1007Z"
    },
    {
      "icao": "LEVC",
      "alert": "OK",
      "vis_m": 9999,
      "fzfg": false,
      "metar_trigger": false,
      "taf_trigger": false,
      "metar": "METAR LEVC 091200Z 27018KT 9999 FEW040 17/07 Q1009 NOSIG",
      "taf": "TAF LEVC 091100Z 0912/1012 28012KT 9999 FEW040 TX21/0914Z TN17/1006Z"
    },
    {
      "icao": "LEXJ",
      "alert": "OK",
      "vis_m": 9000,
      "fzfg": false,
      "metar_trigger": false,
      "taf_trigger": false,
      "metar": "METAR LEXJ 091200Z 22008KT 160V260 9000 -RA OVC070 15/05 Q1003",
      "taf": "TAF LEXJ 090800Z 0909/1009 21009KT 9999 SCT060 TX16/0913Z TN13/1007Z"
    },
    {
      "icao": "LEZG",
      "alert": "OK",
      "vis_m": 9999,
      "fzfg": false,
      "metar_trigger": false,
      "taf_trigger": false,
      "metar": "METAR LEZG 091200Z 03001KT CAVOK 13/06 Q1008 NOSIG",
      "taf": "TAF LEZG 091100Z 0912/1012 27010KT 9999 SCT040 TX18/0912Z TN08/1006Z"
    },
    {
      "icao": "LEZL",
      "alert": "OK",
      "vis_m": 9999,
      "fzfg": false,
      "metar_trigger": false,
      "taf_trigger": false,
      "metar": "METAR LEZL 091200Z 24011KT 210V270 9999 SCT015 BKN020 BKN030 18/16 Q1016 NOSIG",
      "taf": ""
    },
    {
      "icao": "LFBD",
      "alert": "OK",
      "vis_m": 9999,
      "fzfg": false,
      "metar_trigger": false,
      "taf_trigger": false,
      "metar": "METAR LFBD 091200Z AUTO 19009KT 160V230 9999 4500 BKN009 BKN014 BKN048 11/09 Q1004 TEMPO 4000 -SHRA BKN010 BKN015TCU",
      "taf": ""
    },
    {
      "icao": "LFLL",
      "alert": "OK",
      "vis_m": 9999,
      "fzfg": false,
      "metar_trigger": false,
      "taf_trigger": false,
      "metar": "METAR LFLL 091200Z 13007KT CAVOK 11/05 Q1006 NOSIG",
      "taf": "TAF LFLL 091100Z 0912/1018 14005KT CAVOK"
    },
    {
      "icao": "LFLS",
      "alert": "OK",
      "vis_m": 9999,
      "fzfg": false,
      "metar_trigger": false,
      "taf_trigger": false,
      "metar": "METAR LFLS 091200Z AUTO 05004KT 020V090 CAVOK 09/03 Q1006 BECMG 21010KT",
      "taf": "TAF LFLS 090800Z 0909/1009 08007KT CAVOK"
    },
    {
      "icao": "LFMN",
      "alert": "OK",
      "vis_m": 9999,
      "fzfg": false,
      "metar_trigger": false,
      "taf_trigger": false,
      "metar": "METAR LFMN 091200Z 20007KT 9999 FEW036 SCT260 14/08 Q1006 NOSIG",
      "taf": "TAF LFMN 090800Z 0909/1015 32010KT 9999 SCT100"
    },
    {
      "icao": "LFOB",
      "alert": "OK",
      "vis_m": 6000,
      "fzfg": false,
      "metar_trigger": false,
      "taf_trigger": false,
      "metar": "METAR LFOB 091200Z AUTO 14009KT 6000 OVC004 06/06 Q1003 BECMG BKN013",
      "taf": "TAF LFOB 091100Z 0912/1012 13010KT 9999 OVC003"
    },
    {
      "icao": "LFPO",
      "alert": "OK",
      "vis_m": 9999,
      "fzfg": false,
      "metar_trigger": false,
      "taf_trigger": false,
      "metar": "METAR LFPO 091200Z 18005KT 140V210 9999 SCT011 BKN160 08/05 Q1003 NOSIG",
      "taf": "TAF LFPO 091100Z 0912/1018 17008KT 9999 BKN012"
    },
    {
      "icao": "LFSB",
      "alert": "OK",
      "vis_m": 9999,
      "fzfg": false,
      "metar_trigger": false,
      "taf_trigger": false,
      "metar": "METAR LFSB 091200Z AUTO 09006KT 060V140 9999 FEW027 BKN230 09/03 Q1006 NOSIG",
      "taf": "TAF LFSB 091100Z 0912/1012 10005KT CAVOK"
    },
    {
      "icao": "LGAV",
      "alert": "OK",
      "vis_m": 9999,
      "fzfg": false,
      "metar_trigger": false,
      "taf_trigger": false,
      "metar": "METAR LGAV 091150Z 23009KT 9999 FEW030 18/06 Q1007 NOSIG",
      "taf": "TAF LGAV 091100Z 0912/1012 VRB05KT 9999 SCT025 SCT070"
    },
    {
      "icao": "LGTS",
      "alert": "OK",
      "vis_m": 9999,
      "fzfg": false,
      "metar_trigger": false,
      "taf_trigger": false,
      "metar": "METAR LGTS 091150Z 27001KT 9999 FEW015 SCT030 12/11 Q1008 NOSIG",
      "taf": "TAF LGTS 091100Z 0912/1012 VRB03KT 9999 FEW010 BKN025"
    },
    {
      "icao": "LHBP",
      "alert": "OK",
      "vis_m": 9999,
      "fzfg": false,
      "metar_trigger": false,
      "taf_trigger": false,
      "metar": "METAR LHBP 091130Z 09009KT 9999 BKN016 OVC100 06/02 Q1011 NOSIG",
      "taf": "TAF LHBP 091115Z 0912/1012 07005KT 9999 BKN016 OVC070"
    },
    {
      "icao": "LHDC",
      "alert": "OK",
      "vis_m": 9999,
      "fzfg": false,
      "metar_trigger": false,
      "taf_trigger": false,
      "metar": "METAR LHDC 091115Z AUTO 04009KT 9999 FEW011 SCT021 OVC037 05/02 Q1011 NOSIG",
      "taf": "TAF LHDC 091115Z 0912/0921 05009KT 9999 BKN020"
    },
    {
      "icao": "LIBD",
      "alert": "OK",
      "vis_m": 8000,
      "fzfg": false,
      "metar_trigger": false,
      "taf_trigger": false,
      "metar": "METAR LIBD 091150Z VRB01KT 8000 -RA BKN020 11/11 Q1004",
      "taf": "TAF LIBD 091100Z 0912/1012 VRB05KT 9999 SCT040"
    },
    {
      "icao": "LIBG",
      "alert": "OK",
      "vis_m": 9999,
      "fzfg": false,
      "metar_trigger": false,
      "taf_trigger": false,
      "metar": "METAR LIBG 091150Z 12013KT 9999 SCT015 SCT040 13/10 Q1004",
      "taf": "TAF LIBG 091100Z 0912/0921 VRB05KT 9999 SCT040"
    },
    {
      "icao": "LIBP",
      "alert": "OK",
      "vis_m": 9999,
      "fzfg": false,
      "metar_trigger": false,
      "taf_trigger": false,
      "metar": "METAR LIBP 091150Z AUTO 06005KT 030V090 9999 FEW013/// OVC064/// 12/09 Q1005",
      "taf": "TAF LIBP 091100Z 0912/1012 VRB05KT 7000 BKN020"
    },
    {
      "icao": "LIBR",
      "alert": "OK",
      "vis_m": 9999,
      "fzfg": false,
      "metar_trigger": false,
      "taf_trigger": false,
      "metar": "METAR LIBR 091150Z 15009KT 9999 BKN020 12/09 Q1004",
      "taf": "TAF LIBR 091100Z 0912/1012 15012KT 9999 SCT040"
    },
    {
      "icao": "LICA",
      "alert": "OK",
      "vis_m": 9000,
      "fzfg": false,
      "metar_trigger": false,
      "taf_trigger": false,
      "metar": "METAR LICA 091150Z AUTO 27006KT 9000 -RA OVC012/// 12/10 Q1005",
      "taf": "TAF LICA 091100Z 0912/1012 26010KT 9999 SCT010 SCT030"
    },
    {
      "icao": "LICC",
      "alert": "OK",
      "vis_m": 9999,
      "fzfg": false,
      "metar_trigger": false,
      "taf_trigger": false,
      "metar": "METAR LICC 091150Z 26011KT 230V300 9999 -RA SCT030 BKN060 16/12 Q1005",
      "taf": "TAF LICC 091100Z 0912/1012 26015KT 9999 SCT030"
    },
    {
      "icao": "LICJ",
      "alert": "OK",
      "vis_m": 9999,
      "fzfg": false,
      "metar_trigger": false,
      "taf_trigger": false,
      "metar": "METAR LICJ 091150Z 20010KT 9999 SCT030 15/10 Q1005",
      "taf": "TAF LICJ 091100Z 0912/1012 26014KT 9999 FEW020 SCT040"
    },
    {
      "icao": "LIMC",
      "alert": "OK",
      "vis_m": 9999,
      "fzfg": false,
      "metar_trigger": false,
      "taf_trigger": false,
      "metar": "METAR LIMC 091150Z VRB02KT 9999 SCT030 11/06 Q1007 NOSIG",
      "taf": "TAF LIMC 091100Z 0912/1018 VRB04KT 9999 SCT050"
    },
    {
      "icao": "LIME",
      "alert": "OK",
      "vis_m": 9999,
      "fzfg": false,
      "metar_trigger": false,
      "taf_trigger": false,
      "metar": "METAR LIME 091150Z 22004KT 160V290 9999 FEW030 SCT090 12/05 Q1007 NOSIG",
      "taf": "TAF LIME 091100Z 0912/1012 VRB04KT 9999 SCT080"
    },
    {
      "icao": "LIMF",
      "alert": "OK",
      "vis_m": 9999,
      "fzfg": false,
      "metar_trigger": false,
      "taf_trigger": false,
      "metar": "METAR LIMF 091150Z VRB01KT 9999 SCT020 BKN065 11/06 Q1007",
      "taf": "TAF LIMF 091100Z 0912/1012 VRB04KT 9999 BKN040"
    },
    {
      "icao": "LIMJ",
      "alert": "OK",
      "vis_m": 9999,
      "fzfg": false,
      "metar_trigger": false,
      "taf_trigger": false,
      "metar": "METAR LIMJ 091150Z 04014KT 9999 FEW025 13/07 Q1006",
      "taf": "TAF LIMJ 091100Z 0912/1012 35010KT CAVOK"
    },
    {
      "icao": "LIPE",
      "alert": "OK",
      "vis_m": 2200,
      "fzfg": false,
      "metar_trigger": false,
      "taf_trigger": false,
      "metar": "METAR LIPE 091150Z 29005KT 2200 -RA BR VV003 09/09 Q1007",
      "taf": "TAF LIPE 091100Z 0912/1012 VRB05KT 6000 SCT010"
    },
    {
      "icao": "LIPH",
      "alert": "OK",
      "vis_m": 9999,
      "fzfg": false,
      "metar_trigger": false,
      "taf_trigger": false,
      "metar": "METAR LIPH 091150Z 07004KT 040V100 9999 BKN070 12/07 Q1007",
      "taf": "TAF LIPH 091100Z 0912/1012 VRB05KT 7000 SCT060"
    },
    {
      "icao": "LIPQ",
      "alert": "OK",
      "vis_m": 9999,
      "fzfg": false,
      "metar_trigger": false,
      "taf_trigger": false,
      "metar": "METAR LIPQ 091150Z AUTO 11005KT 080V140 9999 NCD 13/06 Q1007",
      "taf": "TAF LIPQ 091100Z 0912/1012 03006KT 9999 BKN050"
    },
    {
      "icao": "LIPR",
      "alert": "OK",
      "vis_m": 8000,
      "fzfg": false,
      "metar_trigger": false,
      "taf_trigger": false,
      "metar": "METAR LIPR 091150Z 31009KT 8000 SCT008 BKN050 11/09 Q1007",
      "taf": "TAF LIPR 091100Z 0912/1012 30006KT 6000 SCT010 SCT040"
    },
    {
      "icao": "LIPX",
      "alert": "OK",
      "vis_m": 9999,
      "fzfg": false,
      "metar_trigger": false,
      "taf_trigger": false,
      "metar": "METAR LIPX 091150Z VRB02KT 9999 SCT065 SCT090 11/06 Q1007",
      "taf": "TAF LIPX 091100Z 0912/1012 VRB04KT 8000 BKN090"
    },
    {
      "icao": "LIPY",
      "alert": "OK",
      "vis_m": 9999,
      "fzfg": false,
      "metar_trigger": false,
      "taf_trigger": false,
      "metar": "METAR LIPY 091150Z AUTO 34007KT 9999 -RA OVC017/// 11/10 Q1006",
      "taf": "TAF LIPY 091100Z 0912/1012 30006KT 7000 SCT060"
    },
    {
      "icao": "LIPZ",
      "alert": "OK",
      "vis_m": 9999,
      "fzfg": false,
      "metar_trigger": false,
      "taf_trigger": false,
      "metar": "METAR LIPZ 091150Z 06003KT 9999 SCT070 10/06 Q1007 NOSIG",
      "taf": "TAF LIPZ 091100Z 0912/1018 05006KT 9999 SCT060"
    },
    {
      "icao": "LIRF",
      "alert": "OK",
      "vis_m": 9999,
      "fzfg": false,
      "metar_trigger": false,
      "taf_trigger": false,
      "metar": "METAR LIRF 091150Z VRB02KT 9999 FEW030 SCT040 15/07 Q1004 NOSIG",
      "taf": "TAF LIRF 091100Z 0912/1018 30007KT 9999 FEW050"
    },
    {
      "icao": "LIRN",
      "alert": "OK",
      "vis_m": 9999,
      "fzfg": false,
      "metar_trigger": false,
      "taf_trigger": false,
      "metar": "METAR LIRN 091150Z 35004KT 280V080 9999 FEW030 SCT050 15/07 Q1004 NOSIG",
      "taf": "TAF LIRN 091100Z 0912/1012 VRB05KT 9999 SCT040"
    },
    {
      "icao": "LIRP",
      "alert": "OK",
      "vis_m": 9999,
      "fzfg": false,
      "metar_trigger": false,
      "taf_trigger": false,
      "metar": "METAR LIRP 091145Z 33003KT 9999 SCT050 13/08 Q1006 NOSIG",
      "taf": "TAF LIRP 091100Z 0912/1012 VRB03KT 9999 FEW020 SCT050"
    },
    {
      "icao": "LIRZ",
      "alert": "OK",
      "vis_m": 9999,
      "fzfg": false,
      "metar_trigger": false,
      "taf_trigger": false,
      "metar": "METAR LIRZ 091150Z AUTO VRB02KT 9999 FEW034/// BKN086/// 13/06 Q1005",
      "taf": "TAF LIRZ 091100Z 0912/1012 02008KT 9999 SCT050"
    },
    {
      "icao": "LJLJ",
      "alert": "OK",
      "vis_m": 9999,
      "fzfg": false,
      "metar_trigger": false,
      "taf_trigger": false,
      "metar": "METAR LJLJ 091200Z 27003KT 9999 FEW005 BKN013 OVC023 07/06 Q1008 NOSIG",
      "taf": "TAF LJLJ 091100Z 0912/1012 VRB02KT 9999 FEW005 SCT013 OVC035"
    },
    {
      "icao": "LKMT",
      "alert": "OK",
      "vis_m": 2500,
      "fzfg": false,
      "metar_trigger": false,
      "taf_trigger": false,
      "metar": "METAR LKMT 091200Z 02006KT 2500 BR OVC008 M01/M02 Q1012 NOSIG",
      "taf": "TAF LKMT 091100Z 0912/1012 02008KT 4000 BR OVC010"
    },
    {
      "icao": "LKPR",
      "alert": "OK",
      "vis_m": 3500,
      "fzfg": false,
      "metar_trigger": false,
      "taf_trigger": false,
      "metar": "METAR LKPR 091200Z 04003KT 010V070 3500 BR OVC003 01/01 Q1009 NOSIG",
      "taf": "TAF LKPR 091100Z 0912/1018 07004KT 2500 BR OVC002"
    },
    {
      "icao": "LLBG",
      "alert": "OK",
      "vis_m": 9999,
      "fzfg": false,
      "metar_trigger": false,
      "taf_trigger": false,
      "metar": "METAR LLBG 091150Z 19008KT CAVOK 24/11 Q1010 NOSIG",
      "taf": "TAF LLBG 091112Z 0912/1012 22010KT CAVOK"
    },
    {
      "icao": "LMML",
      "alert": "OK",
      "vis_m": 9999,
      "fzfg": false,
      "metar_trigger": false,
      "taf_trigger": false,
      "metar": "METAR LMML 091145Z 26018KT 9999 SCT028 16/09 Q1007 NOSIG",
      "taf": "TAF LMML 091100Z 0912/1012 28017KT 9999 SCT020"
    },
    {
      "icao": "LOWW",
      "alert": "OK",
      "vis_m": 9999,
      "fzfg": false,
      "metar_trigger": false,
      "taf_trigger": false,
      "metar": "METAR LOWW 091150Z 03004KT 340V060 9999 SCT012 BKN030 05/02 Q1010 BECMG 11007KT BKN012",
      "taf": "TAF LOWW 091115Z 0912/1018 13007KT 9999 FEW013 BKN018 TX05/1013Z TN02/1005Z"
    },
    {
      "icao": "LPFR",
      "alert": "OK",
      "vis_m": 3000,
      "fzfg": false,
      "metar_trigger": false,
      "taf_trigger": false,
      "metar": "METAR LPFR 091200Z 24010KT 3000 -DZ BR BKN002 BKN005 15/15 Q1016",
      "taf": "TAF LPFR 091100Z 0912/1012 25013KT 8000 SCT006 SCT012"
    },
    {
      "icao": "LPMA",
      "alert": "OK",
      "vis_m": 9999,
      "fzfg": false,
      "metar_trigger": false,
      "taf_trigger": false,
      "metar": "METAR LPMA 091200Z 09003KT 030V180 9999 SCT015 20/16 Q1024",
      "taf": "TAF LPMA 091100Z 0912/1012 VRB05KT 9999 SCT015"
    },
    {
      "icao": "LPPR",
      "alert": "OK",
      "vis_m": 1500,
      "fzfg": false,
      "metar_trigger": false,
      "taf_trigger": false,
      "metar": "METAR LPPR 091200Z 23011KT 190V260 1500 0500S -DZ PRFG OVC002 14/14 Q1009",
      "taf": "TAF LPPR 091100Z 0912/1012 22012KT 6000 -RADZ SCT004 BKN008"
    },
    {
      "icao": "LPPS",
      "alert": "OK",
      "vis_m": 9999,
      "fzfg": false,
      "metar_trigger": false,
      "taf_trigger": false,
      "metar": "METAR LPPS 091200Z 28012KT 9999 BKN006 19/17 Q1024",
      "taf": "TAF LPPS 091100Z 0912/1018 27010KT 9999 SCT008 SCT012"
    },
    {
      "icao": "LPPT",
      "alert": "OK",
      "vis_m": 9999,
      "fzfg": false,
      "metar_trigger": false,
      "taf_trigger": false,
      "metar": "METAR LPPT 091200Z 24012KT 9999 4000SW -RADZ SCT003 BKN006 16/15 Q1014 RERA",
      "taf": "TAF LPPT 091100Z 0912/1018 24010KT 8000 SCT006 BKN012"
    },
    {
      "icao": "LQBK",
      "alert": "OK",
      "vis_m": 9999,
      "fzfg": false,
      "metar_trigger": false,
      "taf_trigger": false,
      "metar": "METAR LQBK 091200Z 01008KT 9999 SCT015 BKN033 09/07 Q1008 NOSIG",
      "taf": "TAF LQBK 091100Z 0912/1012 34005KT 9999 SCT010 BKN025 TX10/0913Z TN05/1005Z"
    },
    {
      "icao": "LQSA",
      "alert": "OK",
      "vis_m": 9999,
      "fzfg": false,
      "metar_trigger": false,
      "taf_trigger": false,
      "metar": "METAR LQSA 091200Z 28005KT 240V310 9999 FEW018 09/06 Q1006 NOSIG",
      "taf": "TAF LQSA 091100Z 0912/1012 VRB02KT 9999 FEW015 BKN050 TX10/0913Z TN03/1005Z"
    },
    {
      "icao": "LQTZ",
      "alert": "OK",
      "vis_m": 9999,
      "fzfg": false,
      "metar_trigger": false,
      "taf_trigger": false,
      "metar": "METAR LQTZ 091200Z 10009KT 9999 FEW018 SCT035 BKN060 11/07 Q1007",
      "taf": "TAF LQTZ 091100Z 0912/1012 04005KT 9999 SCT025 BKN045 TX12/0913Z TN03/1005Z"
    },
    {
      "icao": "LRBC",
      "alert": "OK",
      "vis_m": 9999,
      "fzfg": false,
      "metar_trigger": false,
      "taf_trigger": false,
      "metar": "METAR LRBC 091200Z 02004KT 340V050 9999 OVC015 M04/M07 Q1020",
      "taf": "TAF LRBC 091100Z 0912/0921 03007KT 7000 OVC015"
    },
    {
      "icao": "LRBS",
      "alert": "OK",
      "vis_m": 9000,
      "fzfg": false,
      "metar_trigger": false,
      "taf_trigger": false,
      "metar": "METAR LRBS 091200Z 06016KT 9000 -SN BKN015 OVC042 M02/M05 Q1018 NOSIG",
      "taf": "TAF LRBS 091100Z 0912/1012 07020KT 9999 BKN015 BKN035"
    },
    {
      "icao": "LRBV",
      "alert": "OK",
      "vis_m": 9999,
      "fzfg": false,
      "metar_trigger": false,
      "taf_trigger": false,
      "metar": "METAR LRBV 091200Z 08013KT 9999 OVC018 M01/M05 Q1013",
      "taf": "TAF LRBV 091100Z 0912/0921 10012KT 9999 BKN020 OVC040"
    },
    {
      "icao": "LRCL",
      "alert": "OK",
      "vis_m": 9999,
      "fzfg": false,
      "metar_trigger": false,
      "taf_trigger": false,
      "metar": "METAR LRCL 091200Z 08009KT 9999 -RA OVC007 02/01 Q1012",
      "taf": "TAF LRCL 091100Z 0912/0921 10008KT 9999 OVC010"
    },
    {
      "icao": "LRCV",
      "alert": "OK",
      "vis_m": 9999,
      "fzfg": false,
      "metar_trigger": false,
      "taf_trigger": false,
      "metar": "METAR LRCV 091200Z 09018KT 9999 OVC015 M00/M03 Q1016",
      "taf": "TAF LRCV 091100Z 0912/0921 10018KT 9999 BKN015 OVC035"
    },
    {
      "icao": "LRIA",
      "alert": "OK",
      "vis_m": 9999,
      "fzfg": false,
      "metar_trigger": false,
      "taf_trigger": false,
      "metar": "METAR LRIA 091200Z 36006KT 330V030 9999 BKN017 M06/M10 Q1021",
      "taf": "TAF LRIA 091100Z 0912/0921 02008KT 9999 OVC020"
    },
    {
      "icao": "LROP",
      "alert": "OK",
      "vis_m": 9999,
      "fzfg": false,
      "metar_trigger": false,
      "taf_trigger": false,
      "metar": "METAR LROP 091200Z 08017KT 9999 -SN OVC014 M01/M05 Q1018 BECMG BKN020",
      "taf": "TAF LROP 091100Z 0912/1012 07020KT 9999 BKN015 BKN035"
    },
    {
      "icao": "LRSB",
      "alert": "OK",
      "vis_m": 9999,
      "fzfg": false,
      "metar_trigger": false,
      "taf_trigger": false,
      "metar": "METAR LRSB 091200Z 12013KT 080V140 9999 FEW034 SCT054 07/01 Q1010",
      "taf": "TAF LRSB 091100Z 0912/1012 10012KT 9999 SCT050"
    },
    {
      "icao": "LRSM",
      "alert": "OK",
      "vis_m": 9999,
      "fzfg": false,
      "metar_trigger": false,
      "taf_trigger": false,
      "metar": "METAR LRSM 091200Z 12006KT 9999 SCT020 BKN040 08/03 Q1012",
      "taf": "TAF LRSM 091100Z 0912/0921 12010KT 9999 BKN030"
    },
    {
      "icao": "LRSV",
      "alert": "OK",
      "vis_m": 9999,
      "fzfg": false,
      "metar_trigger": false,
      "taf_trigger": false,
      "metar": "METAR LRSV 091200Z VRB03KT 9999 BKN010 BKN025 M07/M07 Q1018",
      "taf": "TAF LRSV 091100Z 0912/0921 08006KT 8000 BKN010 BKN025"
    },
    {
      "icao": "LRTM",
      "alert": "OK",
      "vis_m": 9999,
      "fzfg": false,
      "metar_trigger": false,
      "taf_trigger": false,
      "metar": "METAR LRTM 091200Z 08011KT 9999 FEW015 SCT018 BKN024 03/00 Q1012",
      "taf": "TAF LRTM 091100Z 0912/0921 10008KT 9999 BKN020"
    },
    {
      "icao": "LRTR",
      "alert": "OK",
      "vis_m": 9999,
      "fzfg": false,
      "metar_trigger": false,
      "taf_trigger": false,
      "metar": "METAR LRTR 091200Z 19004KT 140V240 9999 BKN044 10/06 Q1010",
      "taf": "TAF LRTR 091100Z 0912/1012 VRB04KT 9999 BKN045"
    },
    {
      "icao": "LTAC",
      "alert": "OK",
      "vis_m": 9999,
      "fzfg": false,
      "metar_trigger": false,
      "taf_trigger": false,
      "metar": "METAR LTAC 091150Z 28003KT 220V330 9999 SCT030 BKN100 09/M00 Q1009 NOSIG RMK RWY21C 28004KT 220V350 RWY03L 25003KT 200V320 RWY21R VRB03KT RWY03R VRB01KT RWY21L VRB01KT",
      "taf": "TAF LTAC 091040Z 0912/1012 VRB02KT 9999 SCT040 BKN100"
    },
    {
      "icao": "LTFM",
      "alert": "OK",
      "vis_m": 7000,
      "fzfg": false,
      "metar_trigger": false,
      "taf_trigger": false,
      "metar": "METAR LTFM 091150Z 06016KT 7000 BKN004 BKN022 07/07 Q1012 NOSIG RMK RWY17L 06016KT RWY34L 05014KT RWY16R 06018KT RWY36 06017G27KT RWY18 07016KT",
      "taf": "TAF LTFM 091040Z 0912/1018 06015KT 9999 BKN008 BKN022"
    },
    {
      "icao": "LUKK",
      "alert": "OK",
      "vis_m": 9999,
      "fzfg": false,
      "metar_trigger": false,
      "taf_trigger": false,
      "metar": "METAR LUKK 091200Z 03008KT 350V070 9999 BKN017 M06/M10 Q1021 NOSIG",
      "taf": "TAF LUKK 091122Z 0912/1012 04009KT 9999 BKN018"
    },
    {
      "icao": "LWOH",
      "alert": "OK",
      "vis_m": 9999,
      "fzfg": false,
      "metar_trigger": false,
      "taf_trigger": false,
      "metar": "METAR LWOH 091150Z 15003KT 050V210 9999 BKN040 08/06 Q1006",
      "taf": "TAF LWOH 091115Z 0912/1012 14006KT 9999 BKN045"
    },
    {
      "icao": "LWSK",
      "alert": "OK",
      "vis_m": 9999,
      "fzfg": false,
      "metar_trigger": false,
      "taf_trigger": false,
      "metar": "METAR LWSK 091150Z 33003KT 210V010 9999 FEW055 11/06 Q1008 NOSIG",
      "taf": "TAF LWSK 091115Z 0912/1012 VRB02KT 9999 FEW035 SCT070"
    },
    {
      "icao": "LYBE",
      "alert": "OK",
      "vis_m": 9999,
      "fzfg": false,
      "metar_trigger": false,
      "taf_trigger": false,
      "metar": "METAR LYBE 091200Z 13016KT CAVOK 09/03 Q1009 NOSIG",
      "taf": "TAF LYBE 091100Z 0912/1012 11015KT 9999 SCT045 TX11/0913Z TNM01/1006Z"
    },
    {
      "icao": "LYNI",
      "alert": "OK",
      "vis_m": 9999,
      "fzfg": false,
      "metar_trigger": false,
      "taf_trigger": false,
      "metar": "METAR LYNI 091200Z 06011KT 020V080 9999 -RA FEW017 SCT030 BKN060 06/03 Q1009 NOSIG",
      "taf": "TAF LYNI 091100Z 0912/1012 05012KT 9999 FEW015 BKN045 OVC080 TX08/0912Z TNM01/1005Z"
    },
    {
      "icao": "LYPG",
      "alert": "OK",
      "vis_m": 9999,
      "fzfg": false,
      "metar_trigger": false,
      "taf_trigger": false,
      "metar": "METAR LYPG 091200Z VRB01KT 9999 FEW015 13/08 Q1006 NOSIG",
      "taf": "TAF LYPG 091100Z 0912/1012 16005KT 9999 FEW025 SCT050 BKN080 TX13/0913Z TN07/1005Z"
    },
    {
      "icao": "LZIB",
      "alert": "OK",
      "vis_m": 5000,
      "fzfg": false,
      "metar_trigger": false,
      "taf_trigger": false,
      "metar": "METAR LZIB 091130Z 04005KT 5000 BR FEW005 OVC006 05/04 Q1010 NOSIG",
      "taf": ""
    },
    {
      "icao": "LZKZ",
      "alert": "OK",
      "vis_m": 9999,
      "fzfg": false,
      "metar_trigger": false,
      "taf_trigger": false,
      "metar": "METAR LZKZ 091130Z 03012KT 9999 SCT030 04/M03 Q1012 NOSIG",
      "taf": "TAF LZKZ 091115Z 0912/1012 01012KT 9999 BKN035"
    },
    {
      "icao": "LZTT",
      "alert": "OK",
      "vis_m": 7000,
      "fzfg": false,
      "metar_trigger": false,
      "taf_trigger": false,
      "metar": "METAR LZTT 091130Z 08004KT 7000 BKN005 M02/M03 Q1010 NOSIG",
      "taf": "TAF LZTT 091115Z 0912/1012 14005KT 9999 SCT002 OVC011"
    },
    {
      "icao": "OEJN",
      "alert": "OK",
      "vis_m": 9999,
      "fzfg": false,
      "metar_trigger": false,
      "taf_trigger": false,
      "metar": "METAR OEJN 091200Z 27008KT CAVOK 32/06 Q1011 NOSIG",
      "taf": "TAF OEJN 091100Z 0912/1018 30010KT CAVOK"
    },
    {
      "icao": "OEMA",
      "alert": "OK",
      "vis_m": 9999,
      "fzfg": false,
      "metar_trigger": false,
      "taf_trigger": false,
      "metar": "METAR OEMA 091200Z VRB03KT CAVOK 29/M03 Q1015 NOSIG",
      "taf": "TAF OEMA 091100Z 0912/1018 27006KT CAVOK"
    },
    {
      "icao": "OJAI",
      "alert": "OK",
      "vis_m": 3000,
      "fzfg": false,
      "metar_trigger": false,
      "taf_trigger": false,
      "metar": "METAR OJAI 091100Z 24020KT 3000 BLDU FEW030 SCT080 20/04 Q1013 NOSIG",
      "taf": "TAF OJAI 091100Z 0912/1018 23012KT 3000 DU NSC"
    },
    {
      "icao": "OMAA",
      "alert": "OK",
      "vis_m": 9999,
      "fzfg": false,
      "metar_trigger": false,
      "taf_trigger": false,
      "metar": "METAR OMAA 091200Z 30012KT CAVOK 28/10 Q1013 NOSIG",
      "taf": "TAF OMAA 091100Z 0912/1018 33012KT 8000 NSC"
    },
    {
      "icao": "OMDB",
      "alert": "OK",
      "vis_m": 9999,
      "fzfg": false,
      "metar_trigger": false,
      "taf_trigger": false,
      "metar": "METAR OMDB 091200Z 30012KT CAVOK 27/10 Q1013 NOSIG",
      "taf": "TAF OMDB 091100Z 0912/1018 29012KT CAVOK"
    },
    {
      "icao": "UAAA",
      "alert": "OK",
      "vis_m": 5000,
      "fzfg": false,
      "metar_trigger": false,
      "taf_trigger": false,
      "metar": "METAR UAAA 091200Z 06001MPS 5000 FU SCT100 BKN200 02/M03 Q1003 NOSIG",
      "taf": "TAF UAAA 091102Z 0912/1012 20003MPS 3100 BR FU SCT020 BKN100 TX07/1009Z TNM05/1002Z"
    },
    {
      "icao": "UBBB",
      "alert": "OK",
      "vis_m": 9999,
      "fzfg": false,
      "metar_trigger": false,
      "taf_trigger": false,
      "metar": "METAR UBBB 091200Z 03006KT 9999 BKN023 08/04 Q1006 NOSIG",
      "taf": "TAF UBBB 091056Z 0912/1012 32005KT 9999 BKN012 BKN023 TX09/0912Z TN02/1004Z"
    },
    {
      "icao": "UDSG",
      "alert": "OK",
      "vis_m": 9999,
      "fzfg": false,
      "metar_trigger": false,
      "taf_trigger": false,
      "metar": "METAR UDSG 091200Z 00000KT 9999 FEW043 03/M00 Q1007 NOSIG",
      "taf": "TAF UDSG 091100Z 0912/1012 VRB06KT 5000 BR BKN020"
    },
    {
      "icao": "UDYZ",
      "alert": "OK",
      "vis_m": 9999,
      "fzfg": false,
      "metar_trigger": false,
      "taf_trigger": false,
      "metar": "METAR UDYZ 091200Z VRB01KT 9999 SCT010 BKN023CB 07/04 Q1007 NOSIG",
      "taf": "TAF UDYZ 091100Z 0912/1012 22006KT 6000 BKN020"
    },
    {
      "icao": "UGKO",
      "alert": "OK",
      "vis_m": 9999,
      "fzfg": false,
      "metar_trigger": false,
      "taf_trigger": false,
      "metar": "METAR UGKO 091200Z 26011KT 9999 SCT021 OVC046 08/07 Q1009 NOSIG",
      "taf": "TAF UGKO 091100Z 0912/1012 26010KT 9999 SCT022 OVC040 TX09/0912Z TN03/1005Z"
    }
  ]
}