{
  "ts_utc": "2026-03-18T09:06:28Z",
  "threshold_m": 150,
  "source": "stations_override.txt (ICAO list) + aviationweather.gov (METAR/TAF raw)",
  "station_count": 159,
  "stations": [
    {
      "icao": "BIKF",
      "alert": "OK",
      "vis_m": 9999,
      "fzfg": false,
      "metar_trigger": false,
      "taf_trigger": false,
      "metar": "METAR BIKF 180830Z 35008KT 9999 FEW020 BKN050 00/M04 Q1009",
      "taf": "TAF BIKF 180759Z 1809/1909 36012KT 9999 FEW018 BKN035 TX06/1909Z TNM00/1809Z"
    },
    {
      "icao": "BKPR",
      "alert": "OK",
      "vis_m": 9999,
      "fzfg": false,
      "metar_trigger": false,
      "taf_trigger": false,
      "metar": "METAR BKPR 180900Z 09012KT 9999 FEW025 BKN050 07/01 Q1015 NOSIG",
      "taf": "TAF BKPR 180530Z 1806/1906 07008KT 9999 SCT020 BKN040"
    },
    {
      "icao": "EBCI",
      "alert": "OK",
      "vis_m": 9999,
      "fzfg": false,
      "metar_trigger": false,
      "taf_trigger": false,
      "metar": "METAR EBCI 180850Z 11008KT 080V150 CAVOK 10/M02 Q1023 NOSIG",
      "taf": "TAF EBCI 180510Z 1806/1912 11010KT CAVOK"
    },
    {
      "icao": "EDDB",
      "alert": "OK",
      "vis_m": 9999,
      "fzfg": false,
      "metar_trigger": false,
      "taf_trigger": false,
      "metar": "METAR EDDB 180850Z AUTO 11007KT 070V140 CAVOK 09/02 Q1031 NOSIG",
      "taf": "TAF EDDB 180500Z 1806/1906 09004KT CAVOK"
    },
    {
      "icao": "EDDH",
      "alert": "OK",
      "vis_m": 9999,
      "fzfg": false,
      "metar_trigger": false,
      "taf_trigger": false,
      "metar": "METAR EDDH 180850Z AUTO 16010KT CAVOK 09/01 Q1030 NOSIG",
      "taf": "TAF EDDH 180500Z 1806/1912 15008KT CAVOK"
    },
    {
      "icao": "EDDK",
      "alert": "OK",
      "vis_m": 9999,
      "fzfg": false,
      "metar_trigger": false,
      "taf_trigger": false,
      "metar": "METAR EDDK 180850Z AUTO 14013KT 110V170 CAVOK 10/M00 Q1026 NOSIG",
      "taf": "TAF EDDK 180500Z 1806/1912 11007KT CAVOK"
    },
    {
      "icao": "EDDN",
      "alert": "OK",
      "vis_m": 9999,
      "fzfg": false,
      "metar_trigger": false,
      "taf_trigger": false,
      "metar": "METAR EDDN 180850Z AUTO 08009KT 040V130 CAVOK ///// Q//// NOSIG",
      "taf": "TAF EDDN 180500Z 1806/1906 08005KT CAVOK"
    },
    {
      "icao": "EDDS",
      "alert": "OK",
      "vis_m": 9999,
      "fzfg": false,
      "metar_trigger": false,
      "taf_trigger": false,
      "metar": "METAR EDDS 180850Z AUTO 08017KT CAVOK 06/M00 Q1022 TEMPO 08015G25KT",
      "taf": "TAF EDDS 180500Z 1806/1906 07006KT CAVOK"
    },
    {
      "icao": "EDFH",
      "alert": "OK",
      "vis_m": 9999,
      "fzfg": false,
      "metar_trigger": false,
      "taf_trigger": false,
      "metar": "METAR EDFH 180850Z 10011KT 080V140 CAVOK 06/M02 Q1024",
      "taf": "TAF EDFH 180500Z 1806/1906 11010KT CAVOK"
    },
    {
      "icao": "EDJA",
      "alert": "OK",
      "vis_m": 9999,
      "fzfg": false,
      "metar_trigger": false,
      "taf_trigger": false,
      "metar": "METAR EDJA 180850Z 06014KT CAVOK 03/M00 Q1021",
      "taf": "TAF EDJA 180800Z 1809/1818 06012KT 9999 SCT015"
    },
    {
      "icao": "EDLW",
      "alert": "OK",
      "vis_m": 9999,
      "fzfg": false,
      "metar_trigger": false,
      "taf_trigger": false,
      "metar": "METAR EDLW 180850Z 11007KT 080V170 CAVOK 10/M01 Q1026",
      "taf": "TAF EDLW 180500Z 1806/1906 12005KT CAVOK"
    },
    {
      "icao": "EDNY",
      "alert": "OK",
      "vis_m": 9999,
      "fzfg": false,
      "metar_trigger": false,
      "taf_trigger": false,
      "metar": "METAR EDNY 180850Z 06017KT CAVOK 07/M03 Q1020",
      "taf": "TAF EDNY 180800Z 1809/1818 04015G25KT CAVOK"
    },
    {
      "icao": "EDSB",
      "alert": "OK",
      "vis_m": 9999,
      "fzfg": false,
      "metar_trigger": false,
      "taf_trigger": false,
      "metar": "METAR EDSB 180850Z 04018KT CAVOK 07/00 Q1022",
      "taf": ""
    },
    {
      "icao": "EETN",
      "alert": "OK",
      "vis_m": 9999,
      "fzfg": false,
      "metar_trigger": false,
      "taf_trigger": false,
      "metar": "METAR EETN 180850Z 21009KT 9999 OVC004 01/01 Q1031 TEMPO OVC005",
      "taf": "TAF EETN 180530Z 1806/1906 20010KT 5000 BR BKN003 OVC005"
    },
    {
      "icao": "EFTU",
      "alert": "OK",
      "vis_m": 9999,
      "fzfg": false,
      "metar_trigger": false,
      "taf_trigger": false,
      "metar": "METAR EFTU 180850Z AUTO 20012KT 9999 OVC003 02/01 Q1027",
      "taf": "TAF EFTU 180832Z 1809/1909 20012KT 9999 OVC002"
    },
    {
      "icao": "EGBB",
      "alert": "OK",
      "vis_m": 9999,
      "fzfg": false,
      "metar_trigger": false,
      "taf_trigger": false,
      "metar": "METAR EGBB 180850Z 12006KT 080V140 CAVOK 10/08 Q1020",
      "taf": "TAF EGBB 180455Z 1806/1906 15005KT CAVOK"
    },
    {
      "icao": "EGGP",
      "alert": "OK",
      "vis_m": 9999,
      "fzfg": false,
      "metar_trigger": false,
      "taf_trigger": false,
      "metar": "METAR EGGP 180850Z 11003KT 090V150 CAVOK 08/06 Q1019",
      "taf": "TAF EGGP 180458Z 1806/1906 15006KT 9999 FEW030"
    },
    {
      "icao": "EGGW",
      "alert": "OK",
      "vis_m": 9999,
      "fzfg": false,
      "metar_trigger": false,
      "taf_trigger": false,
      "metar": "METAR EGGW 180850Z AUTO 13007KT 9999 NCD 10/07 Q1020",
      "taf": "TAF EGGW 180458Z 1806/1906 14006KT CAVOK"
    },
    {
      "icao": "EGKK",
      "alert": "OK",
      "vis_m": 9999,
      "fzfg": false,
      "metar_trigger": false,
      "taf_trigger": false,
      "metar": "METAR EGKK 180850Z 06005KT CAVOK 11/09 Q1020",
      "taf": "TAF EGKK 180456Z 1806/1912 10006KT CAVOK"
    },
    {
      "icao": "EGNM",
      "alert": "OK",
      "vis_m": 9999,
      "fzfg": false,
      "metar_trigger": false,
      "taf_trigger": false,
      "metar": "METAR EGNM 180850Z VRB01KT CAVOK 10/07 Q1020",
      "taf": "TAF EGNM 180500Z 1806/1906 14006KT 9999 FEW030"
    },
    {
      "icao": "EGPD",
      "alert": "OK",
      "vis_m": 9999,
      "fzfg": false,
      "metar_trigger": false,
      "taf_trigger": false,
      "metar": "METAR EGPD 180850Z COR AUTO 13003KT 070V220 9999 NCD 09/03 Q1018 NOSIG",
      "taf": "TAF EGPD 180455Z 1806/1906 VRB04KT CAVOK"
    },
    {
      "icao": "EGPF",
      "alert": "OK",
      "vis_m": 9999,
      "fzfg": false,
      "metar_trigger": false,
      "taf_trigger": false,
      "metar": "METAR EGPF 180850Z VRB01KT 9999 BKN006 08/08 Q1019",
      "taf": ""
    },
    {
      "icao": "EHBK",
      "alert": "OK",
      "vis_m": 9999,
      "fzfg": false,
      "metar_trigger": false,
      "taf_trigger": false,
      "metar": "METAR EHBK 180855Z AUTO 10007KT 070V140 9999 NCD 10/01 Q1024 NOSIG",
      "taf": "TAF EHBK 180507Z 1806/1912 09007KT CAVOK"
    },
    {
      "icao": "EHEH",
      "alert": "OK",
      "vis_m": 9999,
      "fzfg": false,
      "metar_trigger": false,
      "taf_trigger": false,
      "metar": "METAR EHEH 180825Z AUTO 12009KT 090V190 9999 NCD 10/03 Q1025 BLU NOSIG RMK TREND REMOTE BY EHWX",
      "taf": "TAF EHEH 172312Z 1800/1906 13006KT CAVOK"
    },
    {
      "icao": "EKBI",
      "alert": "OK",
      "vis_m": 9999,
      "fzfg": false,
      "metar_trigger": false,
      "taf_trigger": false,
      "metar": "METAR EKBI 180850Z 17008KT 140V200 9999 BKN032 09/03 Q1028",
      "taf": "TAF EKBI 180827Z 1809/1909 15008KT 9999 BKN025"
    },
    {
      "icao": "EKCH",
      "alert": "OK",
      "vis_m": 9999,
      "fzfg": false,
      "metar_trigger": false,
      "taf_trigger": false,
      "metar": "METAR EKCH 180850Z AUTO 18011KT 9999 NCD 06/02 Q1032 NOSIG",
      "taf": "TAF EKCH 180827Z 1809/1909 18010KT CAVOK"
    },
    {
      "icao": "ENAL",
      "alert": "OK",
      "vis_m": 9999,
      "fzfg": false,
      "metar_trigger": false,
      "taf_trigger": false,
      "metar": "METAR ENAL 180850Z 22024KT 9999 VCSH FEW015 SCT028 09/05 Q1010",
      "taf": "TAF ENAL 180800Z 1809/1818 22018KT 9999 -RA FEW015 BKN030"
    },
    {
      "icao": "ENBR",
      "alert": "OK",
      "vis_m": 9000,
      "fzfg": false,
      "metar_trigger": false,
      "taf_trigger": false,
      "metar": "METAR ENBR 180850Z 17019KT 9000 -DZ SCT003 BKN006 06/05 Q1018 TEMPO 4000 -RADZ BR BKN003 RMK WIND 1200FT 18023KT",
      "taf": "TAF ENBR 180500Z 1806/1906 16022KT 8000 -RADZ BKN006"
    },
    {
      "icao": "ENGM",
      "alert": "OK",
      "vis_m": 3000,
      "fzfg": false,
      "metar_trigger": false,
      "taf_trigger": false,
      "metar": "METAR ENGM 180850Z 19012KT 3000 BR OVC003 05/04 Q1021 NOSIG",
      "taf": "TAF ENGM 180500Z 1806/1906 19012KT 7000 OVC002"
    },
    {
      "icao": "ENHD",
      "alert": "OK",
      "vis_m": 3800,
      "fzfg": false,
      "metar_trigger": false,
      "taf_trigger": false,
      "metar": "METAR ENHD 180850Z COR 17012KT 3800 -DZ BR OVC003 07/06 Q1020",
      "taf": "TAF ENHD 180800Z 1809/1818 16015KT 6000 SCT004 BKN006"
    },
    {
      "icao": "ENTC",
      "alert": "OK",
      "vis_m": 9999,
      "fzfg": false,
      "metar_trigger": false,
      "taf_trigger": false,
      "metar": "METAR ENTC 180850Z 18016KT 9999 FEW020 SCT025 BKN036 06/02 Q0996 NOSIG RMK WIND 2600FT 20039KT",
      "taf": "TAF ENTC 180500Z 1806/1906 20015KT 9999 -RA SCT020 BKN030"
    },
    {
      "icao": "ENTO",
      "alert": "OK",
      "vis_m": 6000,
      "fzfg": false,
      "metar_trigger": false,
      "taf_trigger": false,
      "metar": "METAR ENTO 180850Z 20016KT 6000 -DZ OVC004 05/05 Q1023 TEMPO 4000 BR DZ",
      "taf": "TAF ENTO 180500Z 1806/1906 20015KT 5000 -DZ BR OVC004"
    },
    {
      "icao": "ENVA",
      "alert": "OK",
      "vis_m": 9999,
      "fzfg": false,
      "metar_trigger": false,
      "taf_trigger": false,
      "metar": "METAR ENVA 180850Z 22007KT CAVOK 11/01 Q1009 NOSIG RMK WIND 670FT 20010KT",
      "taf": ""
    },
    {
      "icao": "ENZV",
      "alert": "OK",
      "vis_m": 7000,
      "fzfg": false,
      "metar_trigger": false,
      "taf_trigger": false,
      "metar": "METAR ENZV 180850Z 17013KT 7000 OVC005 08/06 Q1021 TEMPO 3000 BR BKN004",
      "taf": "TAF ENZV 180500Z 1806/1906 16015KT 8000 SCT006 BKN012"
    },
    {
      "icao": "EPGD",
      "alert": "OK",
      "vis_m": 9999,
      "fzfg": false,
      "metar_trigger": false,
      "taf_trigger": false,
      "metar": "METAR EPGD 180830Z 31003KT 270V360 CAVOK 06/02 Q1033",
      "taf": "TAF EPGD 180530Z 1806/1906 VRB02KT 4500 BR NSC"
    },
    {
      "icao": "EPKK",
      "alert": "OK",
      "vis_m": 9999,
      "fzfg": false,
      "metar_trigger": false,
      "taf_trigger": false,
      "metar": "METAR EPKK 180830Z 07007KT 010V080 CAVOK 07/02 Q1028",
      "taf": "TAF EPKK 180830Z 1809/1909 07010KT 9999 SCT040"
    },
    {
      "icao": "EPKT",
      "alert": "OK",
      "vis_m": 9999,
      "fzfg": false,
      "metar_trigger": false,
      "taf_trigger": false,
      "metar": "METAR EPKT 180830Z 07006KT 030V110 CAVOK 09/02 Q1029",
      "taf": "TAF EPKT 180530Z 1806/1906 VRB02KT 7000 NSC"
    },
    {
      "icao": "EPLB",
      "alert": "OK",
      "vis_m": 9999,
      "fzfg": false,
      "metar_trigger": false,
      "taf_trigger": false,
      "metar": "METAR EPLB 180830Z 08006KT CAVOK 09/02 Q1030",
      "taf": "TAF EPLB 180530Z 1806/1906 VRB03KT CAVOK"
    },
    {
      "icao": "EPMO",
      "alert": "OK",
      "vis_m": 9999,
      "fzfg": false,
      "metar_trigger": false,
      "taf_trigger": false,
      "metar": "METAR EPMO 180830Z 02005KT 350V050 CAVOK 07/04 Q1031",
      "taf": "TAF EPMO 180530Z 1806/1906 03007KT CAVOK"
    },
    {
      "icao": "EPPO",
      "alert": "OK",
      "vis_m": 9999,
      "fzfg": false,
      "metar_trigger": false,
      "taf_trigger": false,
      "metar": "METAR EPPO 180830Z 06009KT CAVOK 09/01 Q1032",
      "taf": "TAF EPPO 180530Z 1806/1906 VRB02KT 5000 BR NSC"
    },
    {
      "icao": "EPRA",
      "alert": "OK",
      "vis_m": 9999,
      "fzfg": false,
      "metar_trigger": false,
      "taf_trigger": false,
      "metar": "METAR EPRA 180830Z 04003KT 360V080 CAVOK 08/02 Q1030",
      "taf": "TAF EPRA 180830Z 1809/1818 07008KT CAVOK"
    },
    {
      "icao": "EPRZ",
      "alert": "OK",
      "vis_m": 9999,
      "fzfg": false,
      "metar_trigger": false,
      "taf_trigger": false,
      "metar": "METAR EPRZ 180830Z 11006KT 070V130 CAVOK 08/01 Q1028",
      "taf": "TAF EPRZ 180530Z 1806/1906 33003KT 5000 BR NSC"
    },
    {
      "icao": "EPSC",
      "alert": "OK",
      "vis_m": 9999,
      "fzfg": false,
      "metar_trigger": false,
      "taf_trigger": false,
      "metar": "METAR EPSC 180830Z 14003KT 100V180 CAVOK 08/02 Q1032",
      "taf": "TAF EPSC 180530Z 1806/1906 12005KT CAVOK"
    },
    {
      "icao": "EPSY",
      "alert": "OK",
      "vis_m": 9999,
      "fzfg": false,
      "metar_trigger": false,
      "taf_trigger": false,
      "metar": "METAR EPSY 180830Z 04007KT 020V090 CAVOK 08/01 Q1032",
      "taf": "TAF EPSY 180830Z 1809/1818 05008KT CAVOK"
    },
    {
      "icao": "EPWA",
      "alert": "OK",
      "vis_m": 9999,
      "fzfg": false,
      "metar_trigger": false,
      "taf_trigger": false,
      "metar": "METAR EPWA 180830Z 10003KT 040V140 CAVOK 08/02 Q1031 NOSIG",
      "taf": "TAF EPWA 180830Z 1809/1909 05006KT CAVOK"
    },
    {
      "icao": "EPWR",
      "alert": "OK",
      "vis_m": 9999,
      "fzfg": false,
      "metar_trigger": false,
      "taf_trigger": false,
      "metar": "METAR EPWR 180830Z 05004KT 020V100 CAVOK 08/02 Q1030",
      "taf": "TAF EPWR 180830Z 1809/1909 05006KT CAVOK"
    },
    {
      "icao": "ESGG",
      "alert": "OK",
      "vis_m": 9999,
      "fzfg": false,
      "metar_trigger": false,
      "taf_trigger": false,
      "metar": "METAR ESGG 180850Z 20013KT 9999 BKN048 07/02 Q1027",
      "taf": "TAF ESGG 180830Z 1809/1909 19012KT 9999 BKN040"
    },
    {
      "icao": "ESKN",
      "alert": "OK",
      "vis_m": 9999,
      "fzfg": false,
      "metar_trigger": false,
      "taf_trigger": false,
      "metar": "METAR ESKN 180850Z 23009KT 190V260 CAVOK 07/02 Q1028",
      "taf": "TAF ESKN 180830Z 1809/1909 19007KT CAVOK"
    },
    {
      "icao": "ESMS",
      "alert": "OK",
      "vis_m": 9999,
      "fzfg": false,
      "metar_trigger": false,
      "taf_trigger": false,
      "metar": "METAR ESMS 180850Z 17007KT CAVOK 07/03 Q1031",
      "taf": "TAF ESMS 180827Z 1809/1909 17006KT 9999 FEW008"
    },
    {
      "icao": "ESSA",
      "alert": "OK",
      "vis_m": 9999,
      "fzfg": false,
      "metar_trigger": false,
      "taf_trigger": false,
      "metar": "METAR ESSA 180850Z 22012KT CAVOK 05/01 Q1026 NOSIG",
      "taf": "TAF ESSA 180830Z 1809/1909 22012KT CAVOK"
    },
    {
      "icao": "EYKA",
      "alert": "OK",
      "vis_m": 9000,
      "fzfg": true,
      "metar_trigger": false,
      "taf_trigger": false,
      "metar": "METAR EYKA 180850Z VRB01KT 9000 NSC 06/05 Q1032",
      "taf": "TAF EYKA 180500Z 1806/1906 VRB03KT 0350 FG FZFG VV002"
    },
    {
      "icao": "EYPA",
      "alert": "OK",
      "vis_m": 9999,
      "fzfg": false,
      "metar_trigger": false,
      "taf_trigger": false,
      "metar": "METAR EYPA 180850Z VRB02KT 9999 BKN004 OVC017 03/02 Q1034",
      "taf": "TAF EYPA 180515Z 1806/1906 VRB03KT 6000 FEW002 BKN020"
    },
    {
      "icao": "EYVI",
      "alert": "OK",
      "vis_m": 9999,
      "fzfg": false,
      "metar_trigger": false,
      "taf_trigger": false,
      "metar": "METAR EYVI 180850Z 18003KT 160V250 9999 FEW048 06/00 Q1032 NOSIG",
      "taf": "TAF EYVI 180500Z 1806/1906 VRB04KT 9000 SCT040"
    },
    {
      "icao": "GCFV",
      "alert": "OK",
      "vis_m": 9999,
      "fzfg": false,
      "metar_trigger": false,
      "taf_trigger": false,
      "metar": "METAR GCFV 180830Z 21009KT 180V240 9999 FEW016 SCT025 19/14 Q1007",
      "taf": "TAF GCFV 180800Z 1809/1909 23018KT 9999 SCT025 TX22/1814Z TN15/1906Z"
    },
    {
      "icao": "GCLP",
      "alert": "OK",
      "vis_m": 9999,
      "fzfg": false,
      "metar_trigger": false,
      "taf_trigger": false,
      "metar": "METAR GCLP 180830Z 21012KT 9999 FEW025 SCT035 19/14 Q1006 NOSIG",
      "taf": "TAF GCLP 180800Z 1809/1909 22016KT 9999 SCT035 TX22/1814Z TN15/1906Z"
    },
    {
      "icao": "GCTS",
      "alert": "OK",
      "vis_m": 9999,
      "fzfg": false,
      "metar_trigger": false,
      "taf_trigger": false,
      "metar": "METAR GCTS 180830Z 27017KT 9999 SCT040 BKN050 18/13 Q1007 NOSIG",
      "taf": "TAF GCTS 180800Z 1809/1909 27013KT 9999 SCT025 TX23/1814Z TN15/1906Z"
    },
    {
      "icao": "GMAD",
      "alert": "OK",
      "vis_m": 5000,
      "fzfg": false,
      "metar_trigger": false,
      "taf_trigger": false,
      "metar": "METAR GMAD 180830Z 06004KT 5000 FEW006 14/12 Q1009 NOSIG",
      "taf": "TAF GMAD 180500Z 1806/1912 07004KT 0800 FG BKN002"
    },
    {
      "icao": "GMMN",
      "alert": "OK",
      "vis_m": 5000,
      "fzfg": false,
      "metar_trigger": false,
      "taf_trigger": false,
      "metar": "METAR GMMN 180830Z 15007KT 5000 NSC 15/14 Q1008 NOSIG",
      "taf": "TAF GMMN 180500Z 1806/1912 18006KT 9999 BKN016"
    },
    {
      "icao": "GMMX",
      "alert": "OK",
      "vis_m": 6000,
      "fzfg": false,
      "metar_trigger": false,
      "taf_trigger": false,
      "metar": "METAR GMMX 180830Z 08008KT 6000 FEW016 14/12 Q1008 BECMG 8000",
      "taf": "TAF GMMX 180500Z 1806/1912 06006KT 6000 BKN016"
    },
    {
      "icao": "HEGN",
      "alert": "OK",
      "vis_m": 9999,
      "fzfg": false,
      "metar_trigger": false,
      "taf_trigger": false,
      "metar": "METAR HEGN 180800Z 11009KT 9999 SCT020 BKN025 24/16 Q1005 NOSIG",
      "taf": "TAF HEGN 180500Z 1806/1912 12015KT 9999 SCT025"
    },
    {
      "icao": "HEMA",
      "alert": "OK",
      "vis_m": 9999,
      "fzfg": false,
      "metar_trigger": false,
      "taf_trigger": false,
      "metar": "METAR HEMA 180800Z 14010KT CAVOK 25/14 Q1006 NOSIG",
      "taf": "TAF HEMA 180500Z 1806/1912 13016KT 9999 SCT025"
    },
    {
      "icao": "HESH",
      "alert": "OK",
      "vis_m": 9999,
      "fzfg": false,
      "metar_trigger": false,
      "taf_trigger": false,
      "metar": "METAR HESH 180800Z 02005KT CAVOK 26/04 Q1007 NOSIG",
      "taf": "TAF HESH 180500Z 1806/1912 18014KT 9999 SCT025"
    },
    {
      "icao": "HESX",
      "alert": "OK",
      "vis_m": 9999,
      "fzfg": false,
      "metar_trigger": false,
      "taf_trigger": false,
      "metar": "METAR HESX 180800Z 07007KT 9999 SCT020 BKN025 19/06 Q1001 NOSIG",
      "taf": "TAF HESX 180500Z 1806/1912 07012KT CAVOK"
    },
    {
      "icao": "LATI",
      "alert": "OK",
      "vis_m": 9999,
      "fzfg": false,
      "metar_trigger": false,
      "taf_trigger": false,
      "metar": "METAR LATI 180850Z 36006KT 330V050 9999 BKN061 OVC080 14/05 Q1009 NOSIG",
      "taf": "TAF LATI 180500Z 1806/1906 VRB03KT 1200 BCFG BKN002 TX15/1812Z TN08/1905Z"
    },
    {
      "icao": "LBPD",
      "alert": "OK",
      "vis_m": 9999,
      "fzfg": false,
      "metar_trigger": false,
      "taf_trigger": false,
      "metar": "METAR LBPD 180830Z AUTO 14004KT 9999 -RA SCT021/// OVC024/// 06/04 Q1020 NOSIG",
      "taf": "TAF LBPD 180500Z 1806/1906 VRB03KT 9999 SCT030 BKN050"
    },
    {
      "icao": "LBSF",
      "alert": "OK",
      "vis_m": 9999,
      "fzfg": false,
      "metar_trigger": false,
      "taf_trigger": false,
      "metar": "METAR LBSF 180830Z 10017KT 9999 OVC037 06/M02 Q1018 NOSIG",
      "taf": "TAF LBSF 180500Z 1806/1906 12015KT 9999 SCT040 BKN060"
    },
    {
      "icao": "LBWN",
      "alert": "OK",
      "vis_m": 9999,
      "fzfg": false,
      "metar_trigger": false,
      "taf_trigger": false,
      "metar": "METAR LBWN 180830Z 07015KT 9999 FEW037 12/02 Q1020 NOSIG",
      "taf": "TAF LBWN 180500Z 1806/1906 04012KT 9999 SCT040"
    },
    {
      "icao": "LCLK",
      "alert": "OK",
      "vis_m": 9000,
      "fzfg": false,
      "metar_trigger": false,
      "taf_trigger": false,
      "metar": "METAR LCLK 180830Z 04015KT 9000 NSC 21/14 Q1009 NOSIG",
      "taf": "TAF LCLK 180530Z 1806/1906 35008KT CAVOK"
    },
    {
      "icao": "LCPH",
      "alert": "OK",
      "vis_m": 9999,
      "fzfg": false,
      "metar_trigger": false,
      "taf_trigger": false,
      "metar": "METAR LCPH 180830Z 22005KT 170V260 CAVOK 20/10 Q1007 NOSIG",
      "taf": "TAF LCPH 180530Z 1806/1906 04007KT CAVOK"
    },
    {
      "icao": "LEAL",
      "alert": "OK",
      "vis_m": 9999,
      "fzfg": false,
      "metar_trigger": false,
      "taf_trigger": false,
      "metar": "METAR LEAL 180830Z 03007KT 360V060 CAVOK 15/01 Q1010 NOSIG",
      "taf": ""
    },
    {
      "icao": "LEBB",
      "alert": "OK",
      "vis_m": 9999,
      "fzfg": false,
      "metar_trigger": false,
      "taf_trigger": false,
      "metar": "METAR LEBB 180830Z VRB01KT CAVOK 19/07 Q1007 NOSIG",
      "taf": "TAF LEBB 180500Z 1806/1906 11009KT CAVOK TX26/1814Z TN09/1906Z"
    },
    {
      "icao": "LEBL",
      "alert": "OK",
      "vis_m": 9000,
      "fzfg": false,
      "metar_trigger": false,
      "taf_trigger": false,
      "metar": "METAR LEBL 180830Z 34003KT 9000 FEW006 12/10 Q1011 NOSIG",
      "taf": ""
    },
    {
      "icao": "LECH",
      "alert": "OK",
      "vis_m": 9999,
      "fzfg": false,
      "metar_trigger": false,
      "taf_trigger": false,
      "metar": "METAR LECH 180830Z AUTO 32001KT CAVOK 11/06 Q1010",
      "taf": ""
    },
    {
      "icao": "LEMD",
      "alert": "OK",
      "vis_m": 9999,
      "fzfg": false,
      "metar_trigger": false,
      "taf_trigger": false,
      "metar": "METAR LEMD 180830Z VRB01KT CAVOK 07/00 Q1009 NOSIG",
      "taf": "TAF LEMD 180500Z 1806/1912 VRB04KT CAVOK TX20/1815Z TN04/1906Z"
    },
    {
      "icao": "LEMG",
      "alert": "OK",
      "vis_m": 9999,
      "fzfg": false,
      "metar_trigger": false,
      "taf_trigger": false,
      "metar": "METAR LEMG 180830Z 32008KT 9999 FEW080 13/08 Q1009 NOSIG",
      "taf": "TAF LEMG 180500Z 1806/1906 29007KT CAVOK TX19/1814Z TN08/1807Z"
    },
    {
      "icao": "LEVC",
      "alert": "OK",
      "vis_m": 9999,
      "fzfg": false,
      "metar_trigger": false,
      "taf_trigger": false,
      "metar": "METAR LEVC 180830Z 27003KT 240V340 CAVOK 11/06 Q1011 NOSIG",
      "taf": ""
    },
    {
      "icao": "LEXJ",
      "alert": "OK",
      "vis_m": 9999,
      "fzfg": false,
      "metar_trigger": false,
      "taf_trigger": false,
      "metar": "METAR LEXJ 180830Z 31007KT 280V020 CAVOK 16/04 Q1007",
      "taf": "TAF LEXJ 180800Z 1809/1909 27009KT CAVOK TX20/1812Z TN08/1907Z"
    },
    {
      "icao": "LEZG",
      "alert": "OK",
      "vis_m": 9999,
      "fzfg": false,
      "metar_trigger": false,
      "taf_trigger": false,
      "metar": "METAR LEZG 180830Z 17001KT CAVOK 11/06 Q1010 NOSIG",
      "taf": ""
    },
    {
      "icao": "LEZL",
      "alert": "OK",
      "vis_m": 9999,
      "fzfg": false,
      "metar_trigger": false,
      "taf_trigger": false,
      "metar": "METAR LEZL 180830Z VRB02KT CAVOK 17/08 Q1008 NOSIG",
      "taf": "TAF LEZL 180800Z 1809/1909 VRB03KT 9999 FEW030 TX25/1815Z TN12/1907Z"
    },
    {
      "icao": "LFBD",
      "alert": "OK",
      "vis_m": 9999,
      "fzfg": false,
      "metar_trigger": false,
      "taf_trigger": false,
      "metar": "METAR LFBD 180830Z AUTO 10009KT 9999 FEW010 15/06 Q1010 NOSIG",
      "taf": "TAF LFBD 180500Z 1806/1912 10010KT CAVOK TX22/1815Z TN09/1905Z"
    },
    {
      "icao": "LFLL",
      "alert": "OK",
      "vis_m": 9999,
      "fzfg": false,
      "metar_trigger": false,
      "taf_trigger": false,
      "metar": "METAR LFLL 180830Z VRB02KT 9999 SCT010 06/04 Q1013 NOSIG",
      "taf": "TAF LFLL 180500Z 1806/1912 VRB03KT CAVOK"
    },
    {
      "icao": "LFLS",
      "alert": "OK",
      "vis_m": 9999,
      "fzfg": false,
      "metar_trigger": false,
      "taf_trigger": false,
      "metar": "METAR LFLS 180830Z AUTO 07006KT 030V120 CAVOK 10/04 Q1013 NOSIG",
      "taf": "TAF LFLS 180800Z 1809/1909 VRB03KT CAVOK"
    },
    {
      "icao": "LFMN",
      "alert": "OK",
      "vis_m": 9000,
      "fzfg": false,
      "metar_trigger": false,
      "taf_trigger": false,
      "metar": "METAR LFMN 180830Z 08031KT 9000 -RA BKN013 OVC043 10/08 Q1015 NOSIG",
      "taf": ""
    },
    {
      "icao": "LFOB",
      "alert": "OK",
      "vis_m": 9999,
      "fzfg": false,
      "metar_trigger": false,
      "taf_trigger": false,
      "metar": "METAR LFOB 180830Z AUTO 09010KT CAVOK 10/06 Q1021 NOSIG",
      "taf": "TAF LFOB 180500Z 1806/1906 08008KT CAVOK"
    },
    {
      "icao": "LFPO",
      "alert": "OK",
      "vis_m": 9999,
      "fzfg": false,
      "metar_trigger": false,
      "taf_trigger": false,
      "metar": "METAR LFPO 180830Z 09013KT CAVOK 11/03 Q1019 NOSIG",
      "taf": "TAF LFPO 180500Z 1806/1912 06004KT CAVOK"
    },
    {
      "icao": "LFSB",
      "alert": "OK",
      "vis_m": 9999,
      "fzfg": false,
      "metar_trigger": false,
      "taf_trigger": false,
      "metar": "METAR LFSB 180830Z AUTO VRB03KT CAVOK 08/M02 Q1018 NOSIG",
      "taf": "TAF LFSB 180500Z 1806/1906 32004KT CAVOK"
    },
    {
      "icao": "LGAV",
      "alert": "OK",
      "vis_m": 9999,
      "fzfg": false,
      "metar_trigger": false,
      "taf_trigger": false,
      "metar": "METAR LGAV 180850Z 04015KT 9999 FEW020 SCT040 BKN070 13/08 Q1011 NOSIG",
      "taf": "TAF LGAV 180500Z 1806/1906 03015KT 9999 FEW025 SCT035 BKN070"
    },
    {
      "icao": "LGTS",
      "alert": "OK",
      "vis_m": 9999,
      "fzfg": false,
      "metar_trigger": false,
      "taf_trigger": false,
      "metar": "METAR LGTS 180850Z 04009KT 9999 SCT025 12/02 Q1016 NOSIG",
      "taf": "TAF LGTS 180500Z 1806/1906 14013KT 9999 SCT025"
    },
    {
      "icao": "LHBP",
      "alert": "OK",
      "vis_m": 9999,
      "fzfg": false,
      "metar_trigger": false,
      "taf_trigger": false,
      "metar": "METAR LHBP 180830Z 07013G25KT CAVOK 13/00 Q1023 NOSIG",
      "taf": "TAF LHBP 180515Z 1806/1906 05012KT CAVOK"
    },
    {
      "icao": "LHDC",
      "alert": "OK",
      "vis_m": 9999,
      "fzfg": false,
      "metar_trigger": false,
      "taf_trigger": false,
      "metar": "METAR LHDC 180815Z AUTO 08015KT 050V110 CAVOK 13/M01 Q1023 NOSIG",
      "taf": "TAF LHDC 180815Z 1809/1818 06012KT CAVOK"
    },
    {
      "icao": "LIBD",
      "alert": "OK",
      "vis_m": 9999,
      "fzfg": false,
      "metar_trigger": false,
      "taf_trigger": false,
      "metar": "METAR LIBD 180850Z 26008KT 9999 BKN040 08/04 Q1009",
      "taf": "TAF LIBD 180500Z 1806/1906 28010KT 9999 SCT030"
    },
    {
      "icao": "LIBG",
      "alert": "OK",
      "vis_m": 9999,
      "fzfg": false,
      "metar_trigger": false,
      "taf_trigger": false,
      "metar": "METAR LIBG 180750Z VRB02KT 9999 FEW010 SCT030 09/06 Q1009",
      "taf": "TAF LIBG 180800Z 1809/1818 VRB06KT 9999 SCT025"
    },
    {
      "icao": "LIBP",
      "alert": "OK",
      "vis_m": 9999,
      "fzfg": false,
      "metar_trigger": false,
      "taf_trigger": false,
      "metar": "METAR LIBP 180850Z AUTO 24006KT 210V270 9999 RA OVC025/// 07/06 Q1011",
      "taf": "TAF LIBP 180500Z 1806/1906 28010KT 9999 BKN020"
    },
    {
      "icao": "LIBR",
      "alert": "OK",
      "vis_m": 9999,
      "fzfg": false,
      "metar_trigger": false,
      "taf_trigger": false,
      "metar": "METAR LIBR 180850Z 32006KT 9999 -RA SCT015 OVC035 09/07 Q1009",
      "taf": "TAF LIBR 180500Z 1806/1906 30010KT 9999 BKN030"
    },
    {
      "icao": "LICA",
      "alert": "OK",
      "vis_m": 9999,
      "fzfg": false,
      "metar_trigger": false,
      "taf_trigger": false,
      "metar": "METAR LICA 180850Z AUTO 22006KT 9999 FEW044/// 13/09 Q1009",
      "taf": "TAF LICA 180500Z 1806/1906 08010KT 9999 BKN040"
    },
    {
      "icao": "LICC",
      "alert": "OK",
      "vis_m": 8000,
      "fzfg": false,
      "metar_trigger": false,
      "taf_trigger": false,
      "metar": "METAR LICC 180850Z 09006KT 8000 BKN015 15/13 Q1009",
      "taf": "TAF LICC 180500Z 1806/1906 VRB05KT 9999 BKN030"
    },
    {
      "icao": "LICJ",
      "alert": "OK",
      "vis_m": 9999,
      "fzfg": false,
      "metar_trigger": false,
      "taf_trigger": false,
      "metar": "METAR LICJ 180850Z 04005KT 9999 SCT025 15/10 Q1009",
      "taf": "TAF LICJ 180500Z 1806/1906 03016KT 9999 SCT020"
    },
    {
      "icao": "LIMC",
      "alert": "OK",
      "vis_m": 9999,
      "fzfg": false,
      "metar_trigger": false,
      "taf_trigger": false,
      "metar": "METAR LIMC 180850Z VRB04KT CAVOK 12/02 Q1018 NOSIG",
      "taf": "TAF LIMC 180500Z 1806/1912 10010KT 9999 SCT050"
    },
    {
      "icao": "LIME",
      "alert": "OK",
      "vis_m": 9999,
      "fzfg": false,
      "metar_trigger": false,
      "taf_trigger": false,
      "metar": "METAR LIME 180850Z 01005KT 330V060 9999 FEW045 11/03 Q1017 NOSIG",
      "taf": "TAF LIME 180500Z 1806/1906 VRB06KT 9999 SCT050"
    },
    {
      "icao": "LIMF",
      "alert": "OK",
      "vis_m": 7000,
      "fzfg": false,
      "metar_trigger": false,
      "taf_trigger": false,
      "metar": "METAR LIMF 180850Z 02005KT 360V060 7000 -RA SCT035 OVC050 06/03 Q1020",
      "taf": ""
    },
    {
      "icao": "LIMJ",
      "alert": "OK",
      "vis_m": 9999,
      "fzfg": false,
      "metar_trigger": false,
      "taf_trigger": false,
      "metar": "METAR LIMJ 180850Z 04008KT 9999 SCT080 10/06 Q1016",
      "taf": "TAF LIMJ 180500Z 1806/1906 VRB05KT 9999 SCT020"
    },
    {
      "icao": "LIPE",
      "alert": "OK",
      "vis_m": 9999,
      "fzfg": false,
      "metar_trigger": false,
      "taf_trigger": false,
      "metar": "METAR LIPE 180850Z 33006KT 270V030 9999 -RA FEW030 BKN050 09/02 Q1017",
      "taf": "TAF LIPE 180500Z 1806/1906 VRB05KT 9999 BKN050"
    },
    {
      "icao": "LIPH",
      "alert": "OK",
      "vis_m": 9999,
      "fzfg": false,
      "metar_trigger": false,
      "taf_trigger": false,
      "metar": "METAR LIPH 180850Z 05010KT 020V080 9999 -RA BKN050 12/M00 Q1018",
      "taf": "TAF LIPH 180500Z 1806/1906 36005KT 9999 SCT060"
    },
    {
      "icao": "LIPQ",
      "alert": "OK",
      "vis_m": 9999,
      "fzfg": false,
      "metar_trigger": false,
      "taf_trigger": false,
      "metar": "METAR LIPQ 180850Z AUTO 04004KT 360V070 9999 BKN049/// BKN120/// 11/02 Q1018",
      "taf": "TAF LIPQ 180500Z 1806/1906 05015KT 9999 FEW060 SCT090"
    },
    {
      "icao": "LIPR",
      "alert": "OK",
      "vis_m": 9999,
      "fzfg": false,
      "metar_trigger": false,
      "taf_trigger": false,
      "metar": "METAR LIPR 180850Z 03013KT 9999 -RA BKN035 10/05 Q1014",
      "taf": "TAF LIPR 180500Z 1806/1906 04016KT 9999 BKN040"
    },
    {
      "icao": "LIPX",
      "alert": "OK",
      "vis_m": 9999,
      "fzfg": false,
      "metar_trigger": false,
      "taf_trigger": false,
      "metar": "METAR LIPX 180850Z 06012KT 9999 SCT060 BKN080 12/M01 Q1017",
      "taf": "TAF LIPX 180500Z 1806/1906 VRB05KT 9999 SCT030"
    },
    {
      "icao": "LIPY",
      "alert": "OK",
      "vis_m": 9999,
      "fzfg": false,
      "metar_trigger": false,
      "taf_trigger": false,
      "metar": "METAR LIPY 180850Z AUTO 05010KT 020V090 9999 RA OVC030/// 09/06 Q1012",
      "taf": "TAF LIPY 180500Z 1806/1906 03014KT 9999 BKN040"
    },
    {
      "icao": "LIPZ",
      "alert": "OK",
      "vis_m": 9999,
      "fzfg": false,
      "metar_trigger": false,
      "taf_trigger": false,
      "metar": "METAR LIPZ 180850Z 06020KT 9999 -RA BKN050 11/02 Q1017 TEMPO 05018G28KT",
      "taf": ""
    },
    {
      "icao": "LIRF",
      "alert": "OK",
      "vis_m": 9999,
      "fzfg": false,
      "metar_trigger": false,
      "taf_trigger": false,
      "metar": "METAR LIRF 180850Z 01013KT 340V040 CAVOK 12/01 Q1010 NOSIG",
      "taf": "TAF LIRF 180500Z 1806/1912 01015KT CAVOK"
    },
    {
      "icao": "LIRN",
      "alert": "OK",
      "vis_m": 9999,
      "fzfg": false,
      "metar_trigger": false,
      "taf_trigger": false,
      "metar": "METAR LIRN 180850Z 01003KT 280V090 CAVOK 11/M00 Q1009 NOSIG",
      "taf": "TAF LIRN 180500Z 1806/1906 03008KT 9999 BKN040"
    },
    {
      "icao": "LIRP",
      "alert": "OK",
      "vis_m": 9999,
      "fzfg": false,
      "metar_trigger": false,
      "taf_trigger": false,
      "metar": "METAR LIRP 180845Z 06008KT CAVOK 13/M03 Q1013 NOSIG",
      "taf": "TAF LIRP 180500Z 1806/1906 08010KT 9999 FEW050 BKN080"
    },
    {
      "icao": "LIRZ",
      "alert": "OK",
      "vis_m": 9999,
      "fzfg": false,
      "metar_trigger": false,
      "taf_trigger": false,
      "metar": "METAR LIRZ 180850Z AUTO 36010KT 300V030 9999 BKN030/// 10/03 Q1011",
      "taf": "TAF LIRZ 180500Z 1806/1906 03014KT CAVOK"
    },
    {
      "icao": "LJLJ",
      "alert": "OK",
      "vis_m": 9999,
      "fzfg": false,
      "metar_trigger": false,
      "taf_trigger": false,
      "metar": "METAR LJLJ 180830Z 10009KT 9999 FEW020 OVC040 07/03 Q1020 NOSIG",
      "taf": "TAF LJLJ 180500Z 1806/1906 VRB02KT 9999 -RA FEW003 BKN045 OVC060"
    },
    {
      "icao": "LKMT",
      "alert": "OK",
      "vis_m": 9999,
      "fzfg": false,
      "metar_trigger": false,
      "taf_trigger": false,
      "metar": "METAR LKMT 180830Z 04009KT 9999 SCT016 06/03 Q1028 NOSIG",
      "taf": "TAF LKMT 180500Z 1806/1906 04004KT 7000 NSC"
    },
    {
      "icao": "LKPR",
      "alert": "OK",
      "vis_m": 9999,
      "fzfg": false,
      "metar_trigger": false,
      "taf_trigger": false,
      "metar": "METAR LKPR 180830Z 06007KT 030V090 CAVOK 06/01 Q1027 NOSIG",
      "taf": "TAF LKPR 180800Z 1809/1915 03006KT CAVOK"
    },
    {
      "icao": "LLBG",
      "alert": "OK",
      "vis_m": 9999,
      "fzfg": false,
      "metar_trigger": false,
      "taf_trigger": false,
      "metar": "METAR LLBG 180850Z 12015KT CAVOK 29/01 Q1004 NOSIG",
      "taf": "TAF LLBG 180500Z 1806/1906 14008KT CAVOK TX29/1812Z TN12/1903Z"
    },
    {
      "icao": "LMML",
      "alert": "OK",
      "vis_m": 9999,
      "fzfg": false,
      "metar_trigger": false,
      "taf_trigger": false,
      "metar": "METAR LMML 180845Z 26010KT 9999 SCT021 16/12 Q1009 NOSIG",
      "taf": "TAF LMML 180500Z 1806/1906 35011KT 9999 FEW015"
    },
    {
      "icao": "LOWW",
      "alert": "OK",
      "vis_m": 9999,
      "fzfg": false,
      "metar_trigger": false,
      "taf_trigger": false,
      "metar": "METAR LOWW 180850Z 35009KT CAVOK 10/04 Q1025 TEMPO FM1030 05010KT",
      "taf": "TAF LOWW 180815Z 1809/1915 36005KT CAVOK TX16/1814Z TN02/1904Z"
    },
    {
      "icao": "LPFR",
      "alert": "OK",
      "vis_m": 9999,
      "fzfg": false,
      "metar_trigger": false,
      "taf_trigger": false,
      "metar": "METAR LPFR 180830Z 14015KT 9999 FEW018 FEW020CB BKN030 16/12 Q1006",
      "taf": "TAF LPFR 180500Z 1806/1906 13010KT 9999 SCT015 SCT035"
    },
    {
      "icao": "LPMA",
      "alert": "OK",
      "vis_m": 9999,
      "fzfg": false,
      "metar_trigger": false,
      "taf_trigger": false,
      "metar": "METAR LPMA 180830Z 33009KT 280V030 9999 SCT013 FEW018CB 13/08 Q1000",
      "taf": "TAF LPMA 180500Z 1806/1906 VRB05KT 9999 SCT015"
    },
    {
      "icao": "LPPR",
      "alert": "OK",
      "vis_m": 9999,
      "fzfg": false,
      "metar_trigger": false,
      "taf_trigger": false,
      "metar": "METAR LPPR 180830Z 10006KT 060V140 9999 FEW048 15/11 Q1004",
      "taf": "TAF LPPR 180500Z 1806/1906 14008KT 9999 SCT018 SCT040"
    },
    {
      "icao": "LPPS",
      "alert": "OK",
      "vis_m": 9000,
      "fzfg": false,
      "metar_trigger": false,
      "taf_trigger": false,
      "metar": "METAR LPPS 180830Z 28017KT 9000 -RA SCT012 FEW015CB 11/09 Q1000",
      "taf": "TAF LPPS 180500Z 1806/1912 27015KT 9999 SCT015 SCT030"
    },
    {
      "icao": "LPPT",
      "alert": "OK",
      "vis_m": 9999,
      "fzfg": false,
      "metar_trigger": false,
      "taf_trigger": false,
      "metar": "METAR LPPT 180830Z 16012KT 9999 FEW010 BKN012 FEW018TCU 14/13 Q1003",
      "taf": ""
    },
    {
      "icao": "LQBK",
      "alert": "OK",
      "vis_m": 9999,
      "fzfg": false,
      "metar_trigger": false,
      "taf_trigger": false,
      "metar": "METAR LQBK 180830Z 36005KT 9999 SCT045 09/03 Q1018 TEMPO 06015G25KT",
      "taf": "TAF LQBK 180500Z 1806/1906 34005KT 9999 SCT013 BKN030 TX12/1814Z TN03/1905Z"
    },
    {
      "icao": "LQSA",
      "alert": "OK",
      "vis_m": 6000,
      "fzfg": false,
      "metar_trigger": false,
      "taf_trigger": false,
      "metar": "METAR LQSA 180830Z VRB02KT 6000 FEW004 SCT010 BKN030 02/01 Q1014 NOSIG",
      "taf": "TAF LQSA 180500Z 1806/1906 33005KT 9999 SCT006 BKN040 TX07/1814Z TN00/1905Z"
    },
    {
      "icao": "LQTZ",
      "alert": "OK",
      "vis_m": 9999,
      "fzfg": false,
      "metar_trigger": false,
      "taf_trigger": false,
      "metar": "METAR LQTZ 180830Z 10018KT CAVOK 10/01 Q1016",
      "taf": "TAF LQTZ 180500Z 1806/1906 03006KT 9999 SCT013 BKN030 TX11/1813Z TN02/1905Z"
    },
    {
      "icao": "LRBC",
      "alert": "OK",
      "vis_m": 9999,
      "fzfg": false,
      "metar_trigger": false,
      "taf_trigger": false,
      "metar": "METAR LRBC 180830Z 01008KT 340V040 9999 FEW060 09/M01 Q1025",
      "taf": "TAF LRBC 180800Z 1809/1818 35012KT 9999 SCT060"
    },
    {
      "icao": "LRBS",
      "alert": "OK",
      "vis_m": 9999,
      "fzfg": false,
      "metar_trigger": false,
      "taf_trigger": false,
      "metar": "METAR LRBS 180830Z 06013KT 030V090 CAVOK 11/01 Q1023 NOSIG",
      "taf": "TAF LRBS 180500Z 1806/1906 06012KT CAVOK"
    },
    {
      "icao": "LRBV",
      "alert": "OK",
      "vis_m": 9999,
      "fzfg": false,
      "metar_trigger": false,
      "taf_trigger": false,
      "metar": "METAR LRBV 180830Z 07009KT 030V090 CAVOK 08/M02 Q1023",
      "taf": "TAF LRBV 180800Z 1809/1818 06014KT CAVOK"
    },
    {
      "icao": "LRCL",
      "alert": "OK",
      "vis_m": 9999,
      "fzfg": false,
      "metar_trigger": false,
      "taf_trigger": false,
      "metar": "METAR LRCL 180830Z 06004KT 030V110 CAVOK 10/M01 Q1023",
      "taf": "TAF LRCL 180800Z 1809/1818 VRB04KT CAVOK"
    },
    {
      "icao": "LRCV",
      "alert": "OK",
      "vis_m": 9999,
      "fzfg": false,
      "metar_trigger": false,
      "taf_trigger": false,
      "metar": "METAR LRCV 180830Z 07017KT CAVOK 09/01 Q1022",
      "taf": "TAF LRCV 180800Z 1809/1818 08018KT CAVOK"
    },
    {
      "icao": "LRIA",
      "alert": "OK",
      "vis_m": 9999,
      "fzfg": false,
      "metar_trigger": false,
      "taf_trigger": false,
      "metar": "METAR LRIA 180830Z VRB04KT 9999 FEW035 10/00 Q1026",
      "taf": "TAF LRIA 180800Z 1809/1818 VRB04KT CAVOK"
    },
    {
      "icao": "LROP",
      "alert": "OK",
      "vis_m": 9999,
      "fzfg": false,
      "metar_trigger": false,
      "taf_trigger": false,
      "metar": "METAR LROP 180830Z 07017KT CAVOK 11/M02 Q1023 NOSIG",
      "taf": "TAF LROP 180500Z 1806/1906 06012KT CAVOK"
    },
    {
      "icao": "LRSB",
      "alert": "OK",
      "vis_m": 9999,
      "fzfg": false,
      "metar_trigger": false,
      "taf_trigger": false,
      "metar": "METAR LRSB 180830Z 10012KT CAVOK 09/M02 Q1022",
      "taf": "TAF LRSB 180500Z 1806/1906 VRB04KT CAVOK"
    },
    {
      "icao": "LRSM",
      "alert": "OK",
      "vis_m": 9999,
      "fzfg": false,
      "metar_trigger": false,
      "taf_trigger": false,
      "metar": "METAR LRSM 180830Z 08006KT 040V110 CAVOK 13/M01 Q1024",
      "taf": "TAF LRSM 180800Z 1809/1818 05010KT CAVOK"
    },
    {
      "icao": "LRSV",
      "alert": "OK",
      "vis_m": 9999,
      "fzfg": false,
      "metar_trigger": false,
      "taf_trigger": false,
      "metar": "METAR LRSV 180830Z 36005KT 320V040 CAVOK 06/M01 Q1025",
      "taf": "TAF LRSV 180800Z 1809/1818 02008KT CAVOK"
    },
    {
      "icao": "LRTM",
      "alert": "OK",
      "vis_m": 9999,
      "fzfg": false,
      "metar_trigger": false,
      "taf_trigger": false,
      "metar": "METAR LRTM 180830Z 30003KT 260V350 CAVOK 09/M01 Q1023",
      "taf": "TAF LRTM 180800Z 1809/1818 VRB04KT CAVOK"
    },
    {
      "icao": "LRTR",
      "alert": "OK",
      "vis_m": 9999,
      "fzfg": false,
      "metar_trigger": false,
      "taf_trigger": false,
      "metar": "METAR LRTR 180830Z 10008KT CAVOK 10/01 Q1021 NOSIG",
      "taf": "TAF LRTR 180500Z 1806/1906 08010KT CAVOK"
    },
    {
      "icao": "LTAC",
      "alert": "OK",
      "vis_m": 9999,
      "fzfg": false,
      "metar_trigger": false,
      "taf_trigger": false,
      "metar": "METAR LTAC 180850Z 04007KT 360V090 9999 SCT040 BKN080 13/03 Q1013 NOSIG RMK RWY21C 04008KT RWY03L 05006KT 350V070 RWY21R 04008KT 350V060 RWY03R 03004KT 330V070 RWY21L 03007KT 330V080",
      "taf": "TAF LTAC 180440Z 1806/1906 VRB02KT 9999 SCT040 BKN080"
    },
    {
      "icao": "LTFM",
      "alert": "OK",
      "vis_m": 9999,
      "fzfg": false,
      "metar_trigger": false,
      "taf_trigger": false,
      "metar": "METAR LTFM 180850Z 03019KT 9999 SCT013 BKN023 09/06 Q1017 NOSIG RMK RWY17L 04015KT RWY34L 03016KT RWY16R 03016KT RWY36 04017KT RWY18 04016KT",
      "taf": "TAF LTFM 180440Z 1806/1912 05015KT 9999 SCT012 BKN023"
    },
    {
      "icao": "LUKK",
      "alert": "OK",
      "vis_m": 9999,
      "fzfg": false,
      "metar_trigger": false,
      "taf_trigger": false,
      "metar": "METAR LUKK 180830Z 05009KT 020V090 CAVOK 09/00 Q1025 NOSIG",
      "taf": "TAF LUKK 180516Z 1806/1906 VRB05KT CAVOK"
    },
    {
      "icao": "LWOH",
      "alert": "OK",
      "vis_m": 9999,
      "fzfg": false,
      "metar_trigger": false,
      "taf_trigger": false,
      "metar": "METAR LWOH 180850Z 06008KT 020V090 9999 FEW025 BKN037 07/01 Q1012",
      "taf": "TAF LWOH 180830Z 1809/1909 04012KT 9999 BKN033 BKN090"
    },
    {
      "icao": "LWSK",
      "alert": "OK",
      "vis_m": 9999,
      "fzfg": false,
      "metar_trigger": false,
      "taf_trigger": false,
      "metar": "METAR LWSK 180850Z 10008KT 050V130 9999 SCT040 BKN075 11/02 Q1015 NOSIG",
      "taf": "TAF LWSK 180830Z 1809/1909 11010KT 9999 SCT035 BKN075"
    },
    {
      "icao": "LYBE",
      "alert": "OK",
      "vis_m": 9999,
      "fzfg": false,
      "metar_trigger": false,
      "taf_trigger": false,
      "metar": "METAR LYBE 180830Z 09014KT CAVOK 10/M02 Q1019 NOSIG",
      "taf": "TAF LYBE 180500Z 1806/1906 10016KT CAVOK TX14/1813Z TN06/1905Z"
    },
    {
      "icao": "LYNI",
      "alert": "OK",
      "vis_m": 9999,
      "fzfg": false,
      "metar_trigger": false,
      "taf_trigger": false,
      "metar": "METAR LYNI 180830Z 05013KT 020V080 CAVOK 10/M02 Q1017 NOSIG",
      "taf": "TAF LYNI 180500Z 1806/1906 09012KT CAVOK TX14/1814Z TN05/1905Z"
    },
    {
      "icao": "LYPG",
      "alert": "OK",
      "vis_m": 9999,
      "fzfg": false,
      "metar_trigger": false,
      "taf_trigger": false,
      "metar": "METAR LYPG 180830Z VRB02KT 9999 FEW016 BKN080 11/08 Q1010 NOSIG",
      "taf": "TAF LYPG 180500Z 1806/1906 34006KT 9999 SCT050 BKN080 TX15/1813Z TN07/1806Z"
    },
    {
      "icao": "LZIB",
      "alert": "OK",
      "vis_m": 9999,
      "fzfg": false,
      "metar_trigger": false,
      "taf_trigger": false,
      "metar": "METAR LZIB 180830Z 04010KT 010V070 CAVOK 12/02 Q1024 NOSIG",
      "taf": "TAF LZIB 180515Z 1806/1906 03009KT CAVOK"
    },
    {
      "icao": "LZKZ",
      "alert": "OK",
      "vis_m": 9999,
      "fzfg": false,
      "metar_trigger": false,
      "taf_trigger": false,
      "metar": "METAR LZKZ 180830Z 01013KT CAVOK 12/01 Q1025 NOSIG",
      "taf": "TAF LZKZ 180515Z 1806/1906 01015KT CAVOK"
    },
    {
      "icao": "LZTT",
      "alert": "OK",
      "vis_m": 9999,
      "fzfg": false,
      "metar_trigger": false,
      "taf_trigger": false,
      "metar": "METAR LZTT 180830Z 05014KT 9999 FEW046 09/M01 Q1026 NOSIG",
      "taf": "TAF LZTT 180515Z 1806/1906 07012KT 9999 FEW040"
    },
    {
      "icao": "OEJN",
      "alert": "OK",
      "vis_m": 8000,
      "fzfg": false,
      "metar_trigger": false,
      "taf_trigger": false,
      "metar": "METAR OEJN 180800Z 24006KT 8000 SCT040 33/15 Q1007 NOSIG",
      "taf": "TAF OEJN 180500Z 1806/1912 08014KT 7000 SCT040"
    },
    {
      "icao": "OEMA",
      "alert": "OK",
      "vis_m": 9999,
      "fzfg": false,
      "metar_trigger": false,
      "taf_trigger": false,
      "metar": "METAR OEMA 180800Z 09004KT 9999 BKN040 30/03 Q1012 NOSIG",
      "taf": "TAF OEMA 180500Z 1806/1912 27015KT 7000 SCT045"
    },
    {
      "icao": "OJAI",
      "alert": "OK",
      "vis_m": 4000,
      "fzfg": false,
      "metar_trigger": false,
      "taf_trigger": false,
      "metar": "METAR OJAI 180800Z 11018KT 4000 BLDU NSC 20/M00 Q1011 NOSIG",
      "taf": "TAF OJAI 180440Z 1806/1912 13016KT 5000 BLDU NSC"
    },
    {
      "icao": "OMAA",
      "alert": "OK",
      "vis_m": null,
      "fzfg": false,
      "metar_trigger": false,
      "taf_trigger": false,
      "metar": "",
      "taf": ""
    },
    {
      "icao": "OMDB",
      "alert": "OK",
      "vis_m": null,
      "fzfg": false,
      "metar_trigger": false,
      "taf_trigger": false,
      "metar": "",
      "taf": ""
    },
    {
      "icao": "UAAA",
      "alert": "OK",
      "vis_m": 9999,
      "fzfg": false,
      "metar_trigger": false,
      "taf_trigger": false,
      "metar": "METAR UAAA 180830Z 36002MPS 9999 NSC 10/M01 Q1017 NOSIG",
      "taf": "TAF UAAA 180502Z 1806/1906 03003MPS 9999 SCT100 TX11/1809Z TNM03/1901Z"
    },
    {
      "icao": "UBBB",
      "alert": "OK",
      "vis_m": 9999,
      "fzfg": false,
      "metar_trigger": false,
      "taf_trigger": false,
      "metar": "METAR UBBB 180830Z 31018KT CAVOK 13/06 Q1020 NOSIG",
      "taf": "TAF UBBB 180500Z 1806/1906 30012KT CAVOK TX13/1810Z TN05/1901Z"
    },
    {
      "icao": "UDSG",
      "alert": "OK",
      "vis_m": 9999,
      "fzfg": false,
      "metar_trigger": false,
      "taf_trigger": false,
      "metar": "METAR UDSG 180830Z 24006KT 9999 FEW049 05/01 Q1020 NOSIG",
      "taf": "TAF UDSG 180500Z 1806/1906 VRB06KT 9999 FEW050"
    },
    {
      "icao": "UDYZ",
      "alert": "OK",
      "vis_m": 9999,
      "fzfg": false,
      "metar_trigger": false,
      "taf_trigger": false,
      "metar": "METAR UDYZ 180830Z 13003KT 080V190 9999 FEW046 13/03 Q1018 NOSIG",
      "taf": "TAF UDYZ 180500Z 1806/1906 VRB06KT 9999 FEW040"
    },
    {
      "icao": "UGKO",
      "alert": "OK",
      "vis_m": 9999,
      "fzfg": false,
      "metar_trigger": false,
      "taf_trigger": false,
      "metar": "METAR UGKO 180830Z 09008KT CAVOK 15/05 Q1017 NOSIG",
      "taf": "TAF UGKO 180500Z 1806/1906 08007KT CAVOK TX19/1812Z TN08/1818Z"
    }
  ]
}