{
  "ts_utc": "2026-06-06T07:26:52Z",
  "threshold_m": 150,
  "source": "stations_override.txt (ICAO list) + aviationweather.gov (METAR/TAF raw)",
  "station_count": 159,
  "stations": [
    {
      "icao": "BIKF",
      "alert": "OK",
      "vis_m": 9999,
      "fzfg": false,
      "metar_trigger": false,
      "taf_trigger": false,
      "metar": "METAR BIKF 060700Z 09007KT 9999 -SHRA BKN022CB BKN032 07/05 Q0992",
      "taf": "TAF BIKF 060450Z 0606/0706 14008KT 9999 SCT020 BKN045 TX12/0615Z TN05/0703Z"
    },
    {
      "icao": "BKPR",
      "alert": "OK",
      "vis_m": null,
      "fzfg": false,
      "metar_trigger": false,
      "taf_trigger": false,
      "metar": "",
      "taf": "TAF BKPR 060530Z 0606/0706 35006KT 9999 FEW050"
    },
    {
      "icao": "EBCI",
      "alert": "OK",
      "vis_m": 9999,
      "fzfg": false,
      "metar_trigger": false,
      "taf_trigger": false,
      "metar": "METAR EBCI 060720Z 16008KT CAVOK 16/09 Q1014 NOSIG",
      "taf": "TAF EBCI 060500Z 0606/0712 16008KT 9999 FEW030 SCT045"
    },
    {
      "icao": "EDDB",
      "alert": "OK",
      "vis_m": 9999,
      "fzfg": false,
      "metar_trigger": false,
      "taf_trigger": false,
      "metar": "METAR EDDB 060720Z AUTO VRB02KT CAVOK 19/11 Q1017 NOSIG",
      "taf": "TAF EDDB 060500Z 0606/0706 VRB03KT CAVOK"
    },
    {
      "icao": "EDDH",
      "alert": "OK",
      "vis_m": 9999,
      "fzfg": false,
      "metar_trigger": false,
      "taf_trigger": false,
      "metar": "METAR EDDH 060720Z AUTO 15008KT 110V180 9999 FEW018 18/13 Q1016 NOSIG",
      "taf": "TAF EDDH 060500Z 0606/0712 VRB03KT 9999 SCT030"
    },
    {
      "icao": "EDDK",
      "alert": "OK",
      "vis_m": 9999,
      "fzfg": false,
      "metar_trigger": false,
      "taf_trigger": false,
      "metar": "METAR EDDK 060720Z AUTO 14005KT 100V170 CAVOK 16/12 Q1016 NOSIG",
      "taf": "TAF EDDK 060500Z 0606/0712 13003KT CAVOK"
    },
    {
      "icao": "EDDN",
      "alert": "OK",
      "vis_m": 9999,
      "fzfg": false,
      "metar_trigger": false,
      "taf_trigger": false,
      "metar": "METAR EDDN 060720Z AUTO VRB04KT CAVOK 18/10 Q1017 NOSIG",
      "taf": "TAF EDDN 060500Z 0606/0706 13004KT CAVOK"
    },
    {
      "icao": "EDDS",
      "alert": "OK",
      "vis_m": 9999,
      "fzfg": false,
      "metar_trigger": false,
      "taf_trigger": false,
      "metar": "METAR EDDS 060720Z AUTO VRB02KT CAVOK 15/10 Q1016 NOSIG",
      "taf": "TAF EDDS 060500Z 0606/0706 VRB03KT CAVOK"
    },
    {
      "icao": "EDFH",
      "alert": "OK",
      "vis_m": 9999,
      "fzfg": false,
      "metar_trigger": false,
      "taf_trigger": false,
      "metar": "METAR EDFH 060720Z 13009KT CAVOK 14/10 Q1016",
      "taf": "TAF EDFH 060500Z 0606/0706 14007KT CAVOK"
    },
    {
      "icao": "EDJA",
      "alert": "OK",
      "vis_m": 9999,
      "fzfg": false,
      "metar_trigger": false,
      "taf_trigger": false,
      "metar": "METAR EDJA 060720Z VRB02KT CAVOK 13/10 Q1015",
      "taf": "TAF EDJA 060500Z 0606/0615 05004KT CAVOK"
    },
    {
      "icao": "EDLW",
      "alert": "OK",
      "vis_m": 9999,
      "fzfg": false,
      "metar_trigger": false,
      "taf_trigger": false,
      "metar": "METAR EDLW 060720Z 14005KT 110V220 CAVOK 17/12 Q1015",
      "taf": "TAF EDLW 060500Z 0606/0706 15006KT CAVOK"
    },
    {
      "icao": "EDNY",
      "alert": "OK",
      "vis_m": 9999,
      "fzfg": false,
      "metar_trigger": false,
      "taf_trigger": false,
      "metar": "METAR EDNY 060720Z VRB01KT CAVOK 14/10 Q1016",
      "taf": "TAF EDNY 060500Z 0606/0615 03004KT CAVOK"
    },
    {
      "icao": "EDSB",
      "alert": "OK",
      "vis_m": 9999,
      "fzfg": false,
      "metar_trigger": false,
      "taf_trigger": false,
      "metar": "METAR EDSB 060720Z 20003KT 170V270 CAVOK 15/09 Q1016",
      "taf": "TAF EDSB 060500Z 0606/0706 04005KT CAVOK"
    },
    {
      "icao": "EETN",
      "alert": "OK",
      "vis_m": 9999,
      "fzfg": false,
      "metar_trigger": false,
      "taf_trigger": false,
      "metar": "METAR EETN 060720Z 14009KT 9999 -SHRA BKN011 FEW029CB BKN035 18/16 Q1010 TEMPO 4000 SHRA",
      "taf": "TAF EETN 060530Z 0606/0706 14010KT 9999 SCT008 FEW025CB BKN030"
    },
    {
      "icao": "EFTU",
      "alert": "OK",
      "vis_m": 9000,
      "fzfg": false,
      "metar_trigger": false,
      "taf_trigger": false,
      "metar": "METAR EFTU 060720Z AUTO 03004KT 9000 -SHRA OVC003 //////CB 16/15 Q1010",
      "taf": "TAF EFTU 060538Z 0606/0706 31006KT 9999 SCT004 BKN015"
    },
    {
      "icao": "EGBB",
      "alert": "OK",
      "vis_m": 9999,
      "fzfg": false,
      "metar_trigger": false,
      "taf_trigger": false,
      "metar": "METAR EGBB 060720Z 14011KT 9999 VCSH BKN010 11/10 Q1003",
      "taf": "TAF EGBB 060459Z 0606/0706 15015G25KT 9999 FEW015 SCT030"
    },
    {
      "icao": "EGGP",
      "alert": "OK",
      "vis_m": 9999,
      "fzfg": false,
      "metar_trigger": false,
      "taf_trigger": false,
      "metar": "METAR EGGP 060720Z 12016KT 9999 VCSH SCT016 BKN029 12/09 Q1001",
      "taf": "TAF EGGP 060458Z 0606/0706 14011KT 9999 SCT040"
    },
    {
      "icao": "EGGW",
      "alert": "OK",
      "vis_m": 9999,
      "fzfg": false,
      "metar_trigger": false,
      "taf_trigger": false,
      "metar": "METAR EGGW 060720Z AUTO 15012KT 9999 -DZRA FEW013 BKN019 12/10 Q1006",
      "taf": "TAF EGGW 060502Z 0606/0706 15013KT 9999 FEW009 BKN040"
    },
    {
      "icao": "EGKK",
      "alert": "OK",
      "vis_m": 4000,
      "fzfg": false,
      "metar_trigger": false,
      "taf_trigger": false,
      "metar": "METAR EGKK 060720Z 16011KT 4000 -RA FEW028 SCT033 12/11 Q1007",
      "taf": "TAF EGKK 060457Z 0606/0712 15005KT 9999 FEW040"
    },
    {
      "icao": "EGNM",
      "alert": "OK",
      "vis_m": 9000,
      "fzfg": false,
      "metar_trigger": false,
      "taf_trigger": false,
      "metar": "METAR EGNM 060720Z 12009KT 9000 -RA SCT004 BKN010 10/09 Q1005",
      "taf": "TAF EGNM 060457Z 0606/0706 15008KT 9999 SCT040"
    },
    {
      "icao": "EGPD",
      "alert": "OK",
      "vis_m": 9999,
      "fzfg": false,
      "metar_trigger": false,
      "taf_trigger": false,
      "metar": "METAR EGPD 060720Z COR AUTO 14008KT 100V160 9999 FEW009 12/10 Q1006 NOSIG",
      "taf": "TAF EGPD 060459Z 0606/0706 15009KT 9999 SCT045"
    },
    {
      "icao": "EGPF",
      "alert": "OK",
      "vis_m": 9999,
      "fzfg": false,
      "metar_trigger": false,
      "taf_trigger": false,
      "metar": "METAR EGPF 060720Z AUTO 06008KT 9999 -RA FEW038 13/09 Q1004",
      "taf": "TAF EGPF 060454Z 0606/0706 07010KT 9999 SCT035"
    },
    {
      "icao": "EHBK",
      "alert": "OK",
      "vis_m": 9999,
      "fzfg": false,
      "metar_trigger": false,
      "taf_trigger": false,
      "metar": "METAR EHBK 060655Z AUTO 20005KT 9999 NSC 14/11 Q1015 NOSIG",
      "taf": "TAF EHBK 060509Z 0606/0712 17005KT CAVOK"
    },
    {
      "icao": "EHEH",
      "alert": "OK",
      "vis_m": 9999,
      "fzfg": false,
      "metar_trigger": false,
      "taf_trigger": false,
      "metar": "METAR EHEH 060655Z AUTO 18005KT 150V220 9999 OVC150 15/11 Q1014 BLU NOSIG RMK TREND REMOTE BY EHWX",
      "taf": "TAF EHEH 060527Z 0606/0712 17005KT 9999 FEW035 SCT050"
    },
    {
      "icao": "EKBI",
      "alert": "OK",
      "vis_m": 9999,
      "fzfg": false,
      "metar_trigger": false,
      "taf_trigger": false,
      "metar": "METAR EKBI 060720Z AUTO 19004KT 160V280 9999 FEW021/// 14/09 Q1016",
      "taf": "TAF EKBI 060527Z 0606/0706 23005KT 9999 FEW020"
    },
    {
      "icao": "EKCH",
      "alert": "OK",
      "vis_m": 9999,
      "fzfg": false,
      "metar_trigger": false,
      "taf_trigger": false,
      "metar": "METAR EKCH 060720Z AUTO 28003KT 9999 FEW024/// 17/10 Q1016 NOSIG",
      "taf": "TAF EKCH 060527Z 0606/0706 27008KT 9999 FEW030"
    },
    {
      "icao": "ENAL",
      "alert": "OK",
      "vis_m": 9999,
      "fzfg": false,
      "metar_trigger": false,
      "taf_trigger": false,
      "metar": "METAR ENAL 060720Z 31005KT 280V010 9999 FEW030TCU BKN057 13/10 Q1013",
      "taf": "TAF ENAL 060500Z 0606/0615 22009KT 9999 BKN035"
    },
    {
      "icao": "ENBR",
      "alert": "OK",
      "vis_m": 9999,
      "fzfg": false,
      "metar_trigger": false,
      "taf_trigger": false,
      "metar": "METAR ENBR 060720Z 24005KT 180V270 9999 FEW018 11/09 Q1013 NOSIG RMK WIND 1200FT 14007KT",
      "taf": "TAF ENBR 060500Z 0606/0706 18008KT 9999 BKN020"
    },
    {
      "icao": "ENGM",
      "alert": "OK",
      "vis_m": 9999,
      "fzfg": false,
      "metar_trigger": false,
      "taf_trigger": false,
      "metar": "METAR ENGM 060720Z 16004KT 130V190 9999 -SHRA FEW012 BKN018 13/11 Q1011 NOSIG",
      "taf": "TAF ENGM 060500Z 0606/0706 17008KT 9999 BKN004"
    },
    {
      "icao": "ENHD",
      "alert": "OK",
      "vis_m": 9999,
      "fzfg": false,
      "metar_trigger": false,
      "taf_trigger": false,
      "metar": "METAR ENHD 060720Z 26003KT 230V290 9999 FEW015 SCT020 13/08 Q1013",
      "taf": "TAF ENHD 060500Z 0606/0615 25007KT 9999 SCT040"
    },
    {
      "icao": "ENTC",
      "alert": "OK",
      "vis_m": 9999,
      "fzfg": false,
      "metar_trigger": false,
      "taf_trigger": false,
      "metar": "METAR ENTC 060720Z 24013KT 9999 SCT058 BKN068 16/09 Q1010 NOSIG RMK WIND 2600FT 20024KT",
      "taf": "TAF ENTC 060500Z 0606/0706 19008KT 9999 SCT065"
    },
    {
      "icao": "ENTO",
      "alert": "OK",
      "vis_m": 9999,
      "fzfg": false,
      "metar_trigger": false,
      "taf_trigger": false,
      "metar": "METAR ENTO 060720Z 23003KT 200V310 CAVOK 15/10 Q1011 NOSIG",
      "taf": "TAF ENTO 060500Z 0606/0706 VRB03KT CAVOK"
    },
    {
      "icao": "ENVA",
      "alert": "OK",
      "vis_m": 9999,
      "fzfg": false,
      "metar_trigger": false,
      "taf_trigger": false,
      "metar": "METAR ENVA 060720Z 26003KT 210V290 9999 FEW003 SCT026 BKN045 13/11 Q1014 NOSIG RMK WIND 670FT 00000KT",
      "taf": "TAF ENVA 060500Z 0606/0706 26008KT 9999 FEW030 BKN045"
    },
    {
      "icao": "ENZV",
      "alert": "OK",
      "vis_m": 9999,
      "fzfg": false,
      "metar_trigger": false,
      "taf_trigger": false,
      "metar": "METAR ENZV 060720Z VRB01KT 9999 FEW011 SCT033 13/08 Q1013 NOSIG",
      "taf": "TAF ENZV 060500Z 0606/0706 27008KT 9999 -SHRA FEW010 SCT030"
    },
    {
      "icao": "EPGD",
      "alert": "OK",
      "vis_m": 9999,
      "fzfg": false,
      "metar_trigger": false,
      "taf_trigger": false,
      "metar": "METAR EPGD 060700Z 27010KT 9999 FEW017 17/12 Q1016",
      "taf": "TAF EPGD 060530Z 0606/0706 26010KT CAVOK"
    },
    {
      "icao": "EPKK",
      "alert": "OK",
      "vis_m": 9999,
      "fzfg": false,
      "metar_trigger": false,
      "taf_trigger": false,
      "metar": "METAR EPKK 060700Z VRB02KT 9999 FEW017 16/09 Q1019",
      "taf": "TAF EPKK 060530Z 0606/0706 06005KT 2500 BR NSC"
    },
    {
      "icao": "EPKT",
      "alert": "OK",
      "vis_m": 9999,
      "fzfg": false,
      "metar_trigger": false,
      "taf_trigger": false,
      "metar": "METAR EPKT 060700Z VRB02KT 9999 FEW008 16/12 Q1019",
      "taf": "TAF EPKT 060530Z 0606/0706 12005KT 3000 BR BKN001"
    },
    {
      "icao": "EPLB",
      "alert": "OK",
      "vis_m": 9999,
      "fzfg": false,
      "metar_trigger": false,
      "taf_trigger": false,
      "metar": "METAR EPLB 060700Z 34005KT 290V010 9999 FEW018 BKN021 16/12 Q1019",
      "taf": "TAF EPLB 060530Z 0606/0706 31007KT 9999 BKN014"
    },
    {
      "icao": "EPMO",
      "alert": "OK",
      "vis_m": 9999,
      "fzfg": false,
      "metar_trigger": false,
      "taf_trigger": false,
      "metar": "METAR EPMO 060700Z 20005KT 170V240 9999 SCT013 17/14 Q1018",
      "taf": "TAF EPMO 060530Z 0606/0706 28005KT 9999 SCT025"
    },
    {
      "icao": "EPPO",
      "alert": "OK",
      "vis_m": 9999,
      "fzfg": false,
      "metar_trigger": false,
      "taf_trigger": false,
      "metar": "METAR EPPO 060700Z 27003KT 190V290 CAVOK 18/14 Q1018",
      "taf": "TAF EPPO 060530Z 0606/0706 25004KT CAVOK"
    },
    {
      "icao": "EPRA",
      "alert": "OK",
      "vis_m": 9999,
      "fzfg": false,
      "metar_trigger": false,
      "taf_trigger": false,
      "metar": "METAR EPRA 060700Z 32005KT 260V020 9999 SCT018 16/11 Q1019",
      "taf": "TAF EPRA 060530Z 0606/0615 27006KT CAVOK"
    },
    {
      "icao": "EPRZ",
      "alert": "OK",
      "vis_m": 9999,
      "fzfg": false,
      "metar_trigger": false,
      "taf_trigger": false,
      "metar": "METAR EPRZ 060700Z 33004KT 300V060 9999 SCT013 BKN023 15/11 Q1019",
      "taf": "TAF EPRZ 060530Z 0606/0706 26006KT 9999 BKN018"
    },
    {
      "icao": "EPSC",
      "alert": "OK",
      "vis_m": 9999,
      "fzfg": false,
      "metar_trigger": false,
      "taf_trigger": false,
      "metar": "METAR EPSC 060700Z VRB01KT 9999 FEW006 SCT009 16/14 Q1017",
      "taf": "TAF EPSC 060530Z 0606/0706 VRB04KT CAVOK"
    },
    {
      "icao": "EPSY",
      "alert": "OK",
      "vis_m": 9999,
      "fzfg": false,
      "metar_trigger": false,
      "taf_trigger": false,
      "metar": "METAR EPSY 060700Z 23006KT 200V290 9999 BKN012 16/13 Q1017",
      "taf": ""
    },
    {
      "icao": "EPWA",
      "alert": "OK",
      "vis_m": 9999,
      "fzfg": false,
      "metar_trigger": false,
      "taf_trigger": false,
      "metar": "METAR EPWA 060700Z 25004KT 210V310 9999 SCT018 17/13 Q1018 NOSIG",
      "taf": "TAF EPWA 060530Z 0606/0706 29005KT 9999 SCT020"
    },
    {
      "icao": "EPWR",
      "alert": "OK",
      "vis_m": 9999,
      "fzfg": false,
      "metar_trigger": false,
      "taf_trigger": false,
      "metar": "METAR EPWR 060700Z VRB02KT CAVOK 19/10 Q1018",
      "taf": "TAF EPWR 060530Z 0606/0706 13003KT CAVOK"
    },
    {
      "icao": "ESGG",
      "alert": "OK",
      "vis_m": 9999,
      "fzfg": false,
      "metar_trigger": false,
      "taf_trigger": false,
      "metar": "METAR ESGG 060720Z 23009KT 9999 FEW018 SCT035 BKN041 13/09 Q1014",
      "taf": "TAF ESGG 060530Z 0606/0706 24005KT 9999 SCT015"
    },
    {
      "icao": "ESKN",
      "alert": "OK",
      "vis_m": 9999,
      "fzfg": false,
      "metar_trigger": false,
      "taf_trigger": false,
      "metar": "METAR ESKN 060720Z 28008KT 250V310 9999 SCT011 14/12 Q1013",
      "taf": ""
    },
    {
      "icao": "ESMS",
      "alert": "OK",
      "vis_m": 9999,
      "fzfg": false,
      "metar_trigger": false,
      "taf_trigger": false,
      "metar": "METAR ESMS 060720Z 30007KT 9999 SCT024 16/10 Q1016",
      "taf": "TAF ESMS 060527Z 0606/0706 25008KT 9999 SCT020"
    },
    {
      "icao": "ESSA",
      "alert": "OK",
      "vis_m": 9999,
      "fzfg": false,
      "metar_trigger": false,
      "taf_trigger": false,
      "metar": "METAR ESSA 060720Z 26006KT CAVOK 14/12 Q1012 NOSIG",
      "taf": "TAF ESSA 060530Z 0606/0706 27005KT CAVOK"
    },
    {
      "icao": "EYKA",
      "alert": "OK",
      "vis_m": 9999,
      "fzfg": false,
      "metar_trigger": false,
      "taf_trigger": false,
      "metar": "METAR EYKA 060720Z 29011KT 9999 SCT013 BKN018 OVC022 15/13 Q1016",
      "taf": "TAF EYKA 060500Z 0606/0706 28009KT 5000 BR SCT005 BKN010"
    },
    {
      "icao": "EYPA",
      "alert": "OK",
      "vis_m": 9999,
      "fzfg": false,
      "metar_trigger": false,
      "taf_trigger": false,
      "metar": "METAR EYPA 060720Z 23004KT 180V270 9999 OVC006 14/13 Q1015",
      "taf": ""
    },
    {
      "icao": "EYVI",
      "alert": "OK",
      "vis_m": 9999,
      "fzfg": false,
      "metar_trigger": false,
      "taf_trigger": false,
      "metar": "METAR EYVI 060720Z 29007KT 260V330 9999 BKN005 OVC008 14/13 Q1015 NOSIG",
      "taf": "TAF EYVI 060513Z 0606/0706 28010KT 5000 -RA BR OVC005"
    },
    {
      "icao": "GCFV",
      "alert": "OK",
      "vis_m": 9999,
      "fzfg": false,
      "metar_trigger": false,
      "taf_trigger": false,
      "metar": "METAR GCFV 060700Z 36016KT 9999 FEW020 20/15 Q1017",
      "taf": "TAF GCFV 060200Z 0603/0703 36016KT 9999 SCT020 TX26/0614Z TN19/0606Z"
    },
    {
      "icao": "GCLP",
      "alert": "OK",
      "vis_m": 9999,
      "fzfg": false,
      "metar_trigger": false,
      "taf_trigger": false,
      "metar": "METAR GCLP 060700Z 36024G36KT 9999 FEW020 20/13 Q1017 NOSIG",
      "taf": "TAF GCLP 060200Z 0603/0703 36024KT 9999 SCT020 TX26/0614Z TN19/0606Z"
    },
    {
      "icao": "GCTS",
      "alert": "OK",
      "vis_m": 9999,
      "fzfg": false,
      "metar_trigger": false,
      "taf_trigger": false,
      "metar": "METAR GCTS 060700Z VRB01KT 9999 FEW025 20/15 Q1019 NOSIG",
      "taf": "TAF GCTS 060200Z 0603/0703 02005KT 9999 FEW030 TX28/0614Z TN20/0606Z"
    },
    {
      "icao": "GMAD",
      "alert": "OK",
      "vis_m": 8000,
      "fzfg": false,
      "metar_trigger": false,
      "taf_trigger": false,
      "metar": "METAR GMAD 060700Z 00000KT 8000 NSC 18/14 Q1012 NOSIG",
      "taf": "TAF GMAD 060500Z 0606/0712 01003KT 8000 NSC"
    },
    {
      "icao": "GMMN",
      "alert": "OK",
      "vis_m": 9999,
      "fzfg": false,
      "metar_trigger": false,
      "taf_trigger": false,
      "metar": "METAR GMMN 060700Z 04006KT CAVOK 18/15 Q1017 NOSIG",
      "taf": "TAF GMMN 060500Z 0606/0712 12004KT CAVOK"
    },
    {
      "icao": "GMMX",
      "alert": "OK",
      "vis_m": 9999,
      "fzfg": false,
      "metar_trigger": false,
      "taf_trigger": false,
      "metar": "METAR GMMX 060700Z 07006KT 040V100 CAVOK 19/12 Q1016 NOSIG",
      "taf": "TAF GMMX 060500Z 0606/0712 06006KT 8000 NSC"
    },
    {
      "icao": "HEGN",
      "alert": "OK",
      "vis_m": 9999,
      "fzfg": false,
      "metar_trigger": false,
      "taf_trigger": false,
      "metar": "METAR HEGN 060600Z 33006KT CAVOK 31/08 Q1013 NOSIG",
      "taf": "TAF HEGN 060500Z 0606/0712 33012KT CAVOK"
    },
    {
      "icao": "HEMA",
      "alert": "OK",
      "vis_m": 9999,
      "fzfg": false,
      "metar_trigger": false,
      "taf_trigger": false,
      "metar": "METAR HEMA 060600Z 33022KT CAVOK 32/10 Q1012 NOSIG",
      "taf": "TAF HEMA 060500Z 0606/0712 34010G20KT CAVOK"
    },
    {
      "icao": "HESH",
      "alert": "OK",
      "vis_m": 9999,
      "fzfg": false,
      "metar_trigger": false,
      "taf_trigger": false,
      "metar": "METAR HESH 060600Z 34016KT CAVOK 31/11 Q1012 NOSIG",
      "taf": "TAF HESH 060500Z 0606/0712 36015KT CAVOK"
    },
    {
      "icao": "HESX",
      "alert": "OK",
      "vis_m": 9999,
      "fzfg": false,
      "metar_trigger": false,
      "taf_trigger": false,
      "metar": "METAR HESX 060600Z 19013KT CAVOK 30/08 Q1013 NOSIG",
      "taf": "TAF HESX 060500Z 0606/0712 35010KT 7000 NSC"
    },
    {
      "icao": "LATI",
      "alert": "OK",
      "vis_m": 9999,
      "fzfg": false,
      "metar_trigger": false,
      "taf_trigger": false,
      "metar": "METAR LATI 060720Z VRB01KT CAVOK 25/14 Q1016 NOSIG",
      "taf": "TAF LATI 060500Z 0606/0706 VRB03KT CAVOK TX31/0612Z TN15/0704Z"
    },
    {
      "icao": "LBPD",
      "alert": "OK",
      "vis_m": 9999,
      "fzfg": false,
      "metar_trigger": false,
      "taf_trigger": false,
      "metar": "METAR LBPD 060700Z AUTO 29005KT 260V340 9999 NCD 24/18 Q1016 NOSIG",
      "taf": "TAF LBPD 060500Z 0606/0706 VRB04KT 9999 FEW025 SCT040"
    },
    {
      "icao": "LBSF",
      "alert": "OK",
      "vis_m": 9999,
      "fzfg": false,
      "metar_trigger": false,
      "taf_trigger": false,
      "metar": "METAR LBSF 060700Z VRB02KT 9999 FEW016 22/16 Q1018 NOSIG",
      "taf": "TAF LBSF 060500Z 0606/0706 VRB04KT 9999 SCT050"
    },
    {
      "icao": "LBWN",
      "alert": "OK",
      "vis_m": 9999,
      "fzfg": false,
      "metar_trigger": false,
      "taf_trigger": false,
      "metar": "METAR LBWN 060700Z 13006KT 110V170 9999 NSC 22/20 Q1016 NOSIG",
      "taf": "TAF LBWN 060500Z 0606/0706 VRB04KT 3000 BR SCT003 BKN007"
    },
    {
      "icao": "LCLK",
      "alert": "OK",
      "vis_m": 9999,
      "fzfg": false,
      "metar_trigger": false,
      "taf_trigger": false,
      "metar": "METAR LCLK 060700Z 12008KT CAVOK 26/19 Q1012 NOSIG",
      "taf": "TAF LCLK 060530Z 0606/0706 02007KT CAVOK"
    },
    {
      "icao": "LCPH",
      "alert": "OK",
      "vis_m": 9999,
      "fzfg": false,
      "metar_trigger": false,
      "taf_trigger": false,
      "metar": "METAR LCPH 060700Z 26007KT 230V320 CAVOK 24/19 Q1012 NOSIG",
      "taf": "TAF LCPH 060530Z 0606/0706 02006KT CAVOK"
    },
    {
      "icao": "LEAL",
      "alert": "OK",
      "vis_m": 9999,
      "fzfg": false,
      "metar_trigger": false,
      "taf_trigger": false,
      "metar": "METAR LEAL 060700Z VRB01KT 9999 SCT012 BKN018 24/20 Q1017 NOSIG",
      "taf": "TAF LEAL 060500Z 0606/0706 VRB04KT 9999 BKN040 TX27/0612Z TN20/0606Z"
    },
    {
      "icao": "LEBB",
      "alert": "OK",
      "vis_m": 9999,
      "fzfg": false,
      "metar_trigger": false,
      "taf_trigger": false,
      "metar": "METAR LEBB 060700Z 08003KT 040V150 9999 FEW027 BKN050 16/14 Q1019 BECMG 30010KT",
      "taf": "TAF LEBB 060500Z 0606/0706 11006KT 9999 BKN025 TX18/0607Z TN11/0705Z"
    },
    {
      "icao": "LEBL",
      "alert": "OK",
      "vis_m": 9999,
      "fzfg": false,
      "metar_trigger": false,
      "taf_trigger": false,
      "metar": "METAR LEBL 060700Z 32003KT 220V010 9999 BKN025 BKN041 20/16 Q1017 NOSIG",
      "taf": ""
    },
    {
      "icao": "LECH",
      "alert": "OK",
      "vis_m": 8000,
      "fzfg": false,
      "metar_trigger": false,
      "taf_trigger": false,
      "metar": "METAR LECH 060700Z AUTO 24006KT 210V280 8000 BKN010 18/15 Q1018",
      "taf": ""
    },
    {
      "icao": "LEMD",
      "alert": "OK",
      "vis_m": 9999,
      "fzfg": false,
      "metar_trigger": false,
      "taf_trigger": false,
      "metar": "METAR LEMD 060700Z VRB02KT CAVOK 18/10 Q1019 NOSIG",
      "taf": "TAF LEMD 060500Z 0606/0712 VRB05KT CAVOK TX31/0616Z TN15/0606Z"
    },
    {
      "icao": "LEMG",
      "alert": "OK",
      "vis_m": 9999,
      "fzfg": false,
      "metar_trigger": false,
      "taf_trigger": false,
      "metar": "METAR LEMG 060700Z 29004KT 9999 BKN020 22/18 Q1018 NOSIG",
      "taf": "TAF LEMG 060500Z 0606/0706 VRB02KT 9999 BKN030 TX28/0614Z TN19/0606Z"
    },
    {
      "icao": "LEVC",
      "alert": "OK",
      "vis_m": 9999,
      "fzfg": false,
      "metar_trigger": false,
      "taf_trigger": false,
      "metar": "METAR LEVC 060700Z 20004KT 140V260 CAVOK 22/17 Q1017 NOSIG",
      "taf": "TAF LEVC 060500Z 0606/0706 VRB04KT 9999 SCT040 TX28/0612Z TN17/0606Z"
    },
    {
      "icao": "LEXJ",
      "alert": "OK",
      "vis_m": 9000,
      "fzfg": false,
      "metar_trigger": false,
      "taf_trigger": false,
      "metar": "METAR LEXJ 060700Z 29008KT 260V320 9000 -DZ SCT015 BKN020 17/15 Q1019",
      "taf": "TAF LEXJ 060200Z 0603/0703 20006KT 9999 SCT025 BKN040 TX18/0616Z TN12/0703Z"
    },
    {
      "icao": "LEZG",
      "alert": "OK",
      "vis_m": 9999,
      "fzfg": false,
      "metar_trigger": false,
      "taf_trigger": false,
      "metar": "METAR LEZG 060700Z 08006KT 050V110 CAVOK 19/14 Q1018 NOSIG",
      "taf": "TAF LEZG 060500Z 0606/0706 10007KT CAVOK TX32/0615Z TN16/0606Z"
    },
    {
      "icao": "LEZL",
      "alert": "OK",
      "vis_m": 9999,
      "fzfg": false,
      "metar_trigger": false,
      "taf_trigger": false,
      "metar": "METAR LEZL 060700Z 04005KT CAVOK 22/10 Q1017 NOSIG",
      "taf": "TAF LEZL 060200Z 0603/0703 04005KT CAVOK TX34/0615Z TN19/0606Z"
    },
    {
      "icao": "LFBD",
      "alert": "OK",
      "vis_m": 9999,
      "fzfg": false,
      "metar_trigger": false,
      "taf_trigger": false,
      "metar": "METAR LFBD 060700Z AUTO 24010KT CAVOK 18/13 Q1016 TEMPO 4000 -RA BECMG 17005KT",
      "taf": "TAF LFBD 060500Z 0606/0712 17005KT CAVOK TX24/0712Z TN10/0704Z"
    },
    {
      "icao": "LFLL",
      "alert": "OK",
      "vis_m": 9999,
      "fzfg": false,
      "metar_trigger": false,
      "taf_trigger": false,
      "metar": "METAR LFLL 060700Z VRB02KT CAVOK 16/08 Q1017 NOSIG",
      "taf": "TAF LFLL 060500Z 0606/0712 VRB04KT CAVOK"
    },
    {
      "icao": "LFLS",
      "alert": "OK",
      "vis_m": 9999,
      "fzfg": false,
      "metar_trigger": false,
      "taf_trigger": false,
      "metar": "METAR LFLS 060700Z AUTO VRB03KT CAVOK 17/09 Q1018 NOSIG",
      "taf": "TAF LFLS 060200Z 0603/0703 VRB02KT CAVOK"
    },
    {
      "icao": "LFMN",
      "alert": "OK",
      "vis_m": 9999,
      "fzfg": false,
      "metar_trigger": false,
      "taf_trigger": false,
      "metar": "METAR LFMN 060700Z 17004KT 130V200 9999 FEW020 SCT200 22/16 Q1016 NOSIG",
      "taf": "TAF LFMN 060200Z 0603/0709 32010KT 9999 BKN030"
    },
    {
      "icao": "LFOB",
      "alert": "OK",
      "vis_m": 9999,
      "fzfg": false,
      "metar_trigger": false,
      "taf_trigger": false,
      "metar": "METAR LFOB 060700Z AUTO 14005KT 9999 ///TCU 14/11 Q1012 TEMPO 19015G25KT 4500 -RA",
      "taf": "TAF LFOB 060500Z 0606/0706 16010KT 9999 BKN040 OVC060"
    },
    {
      "icao": "LFPO",
      "alert": "OK",
      "vis_m": 9999,
      "fzfg": false,
      "metar_trigger": false,
      "taf_trigger": false,
      "metar": "METAR LFPO 060700Z 18010KT 150V210 CAVOK 16/08 Q1013 NOSIG",
      "taf": "TAF LFPO 060500Z 0606/0712 16006KT CAVOK"
    },
    {
      "icao": "LFSB",
      "alert": "OK",
      "vis_m": 9999,
      "fzfg": false,
      "metar_trigger": false,
      "taf_trigger": false,
      "metar": "METAR LFSB 060700Z AUTO VRB02KT CAVOK 15/10 Q1017 NOSIG",
      "taf": "TAF LFSB 060500Z 0606/0706 VRB02KT CAVOK"
    },
    {
      "icao": "LGAV",
      "alert": "OK",
      "vis_m": 9999,
      "fzfg": false,
      "metar_trigger": false,
      "taf_trigger": false,
      "metar": "METAR LGAV 060720Z 06004KT 010V150 CAVOK 26/14 Q1016 NOSIG",
      "taf": "TAF LGAV 060500Z 0606/0706 VRB05KT 9999 FEW030"
    },
    {
      "icao": "LGTS",
      "alert": "OK",
      "vis_m": 9999,
      "fzfg": false,
      "metar_trigger": false,
      "taf_trigger": false,
      "metar": "METAR LGTS 060720Z 29006KT 9999 FEW020 23/18 Q1016 NOSIG",
      "taf": "TAF LGTS 060500Z 0606/0706 VRB03KT 9999 FEW030"
    },
    {
      "icao": "LHBP",
      "alert": "OK",
      "vis_m": 9999,
      "fzfg": false,
      "metar_trigger": false,
      "taf_trigger": false,
      "metar": "METAR LHBP 060700Z VRB02KT CAVOK 17/11 Q1017 NOSIG",
      "taf": "TAF LHBP 060515Z 0606/0706 31008KT CAVOK"
    },
    {
      "icao": "LHDC",
      "alert": "OK",
      "vis_m": 9999,
      "fzfg": false,
      "metar_trigger": false,
      "taf_trigger": false,
      "metar": "METAR LHDC 060645Z AUTO VRB01KT 9999 -SHRA //////TCU 17/13 Q1017 NOSIG",
      "taf": "TAF LHDC 060515Z 0606/0615 VRB03KT CAVOK"
    },
    {
      "icao": "LIBD",
      "alert": "OK",
      "vis_m": 9999,
      "fzfg": false,
      "metar_trigger": false,
      "taf_trigger": false,
      "metar": "METAR LIBD 060720Z 34004KT 260V040 CAVOK 25/16 Q1015",
      "taf": "TAF LIBD 060500Z 0606/0706 VRB06KT CAVOK"
    },
    {
      "icao": "LIBG",
      "alert": "OK",
      "vis_m": 9999,
      "fzfg": false,
      "metar_trigger": false,
      "taf_trigger": false,
      "metar": "METAR LIBG 060720Z AUTO 16004KT 120V200 9999 NCD 25/19 Q1016",
      "taf": "TAF LIBG 060500Z 0606/0706 VRB05KT CAVOK"
    },
    {
      "icao": "LIBP",
      "alert": "OK",
      "vis_m": 9999,
      "fzfg": false,
      "metar_trigger": false,
      "taf_trigger": false,
      "metar": "METAR LIBP 060720Z AUTO VRB01KT 9999 NCD 23/16 Q1015",
      "taf": "TAF LIBP 060500Z 0606/0706 VRB05KT 9999 SCT080"
    },
    {
      "icao": "LIBR",
      "alert": "OK",
      "vis_m": 9999,
      "fzfg": false,
      "metar_trigger": false,
      "taf_trigger": false,
      "metar": "METAR LIBR 060720Z 10005KT 070V130 CAVOK 24/19 Q1016",
      "taf": "TAF LIBR 060500Z 0606/0706 VRB05KT CAVOK"
    },
    {
      "icao": "LICA",
      "alert": "OK",
      "vis_m": 9999,
      "fzfg": false,
      "metar_trigger": false,
      "taf_trigger": false,
      "metar": "METAR LICA 060720Z AUTO 24005KT 200V280 9999 NCD 24/17 Q1016",
      "taf": "TAF LICA 060500Z 0606/0706 VRB04KT 9999 FEW020"
    },
    {
      "icao": "LICC",
      "alert": "OK",
      "vis_m": 9999,
      "fzfg": false,
      "metar_trigger": false,
      "taf_trigger": false,
      "metar": "METAR LICC 060720Z VRB02KT CAVOK 27/21 Q1015",
      "taf": "TAF LICC 060500Z 0606/0706 VRB04KT CAVOK"
    },
    {
      "icao": "LICJ",
      "alert": "OK",
      "vis_m": 9999,
      "fzfg": false,
      "metar_trigger": false,
      "taf_trigger": false,
      "metar": "METAR LICJ 060720Z 03007KT CAVOK 23/19 Q1016",
      "taf": "TAF LICJ 060500Z 0606/0706 04008KT CAVOK"
    },
    {
      "icao": "LIMC",
      "alert": "OK",
      "vis_m": 9999,
      "fzfg": false,
      "metar_trigger": false,
      "taf_trigger": false,
      "metar": "METAR LIMC 060720Z 13008KT 100V160 9999 BKN010 19/16 Q1016 NOSIG",
      "taf": "TAF LIMC 060500Z 0606/0712 VRB05KT 9999 SCT030"
    },
    {
      "icao": "LIME",
      "alert": "OK",
      "vis_m": 9999,
      "fzfg": false,
      "metar_trigger": false,
      "taf_trigger": false,
      "metar": "METAR LIME 060720Z VRB02KT 9999 SCT008 BKN020 17/15 Q1017 NOSIG",
      "taf": "TAF LIME 060500Z 0606/0706 VRB05KT 9999 SCT030"
    },
    {
      "icao": "LIMF",
      "alert": "OK",
      "vis_m": 9999,
      "fzfg": false,
      "metar_trigger": false,
      "taf_trigger": false,
      "metar": "METAR LIMF 060720Z 05005KT 9999 SCT015 19/15 Q1016",
      "taf": "TAF LIMF 060500Z 0606/0706 VRB05KT 9999 SCT040"
    },
    {
      "icao": "LIMJ",
      "alert": "OK",
      "vis_m": 9999,
      "fzfg": false,
      "metar_trigger": false,
      "taf_trigger": false,
      "metar": "METAR LIMJ 060720Z 14006KT 9999 SCT030 20/15 Q1016",
      "taf": "TAF LIMJ 060500Z 0606/0706 05007KT 9999 SCT020"
    },
    {
      "icao": "LIPE",
      "alert": "OK",
      "vis_m": 9999,
      "fzfg": false,
      "metar_trigger": false,
      "taf_trigger": false,
      "metar": "METAR LIPE 060720Z 26004KT 200V320 9999 FEW015 20/15 Q1016",
      "taf": "TAF LIPE 060500Z 0606/0706 26006KT 9999 FEW010"
    },
    {
      "icao": "LIPH",
      "alert": "OK",
      "vis_m": 9999,
      "fzfg": false,
      "metar_trigger": false,
      "taf_trigger": false,
      "metar": "METAR LIPH 060720Z 06007KT 030V090 9999 FEW040 SCT060 20/14 Q1016",
      "taf": "TAF LIPH 060500Z 0606/0706 05013KT 9999 FEW040"
    },
    {
      "icao": "LIPQ",
      "alert": "OK",
      "vis_m": 9999,
      "fzfg": false,
      "metar_trigger": false,
      "taf_trigger": false,
      "metar": "METAR LIPQ 060720Z AUTO 36003KT 300V080 9999 BKN052/// 21/16 Q1016",
      "taf": "TAF LIPQ 060500Z 0606/0706 VRB06KT 9999 OVC030"
    },
    {
      "icao": "LIPR",
      "alert": "OK",
      "vis_m": 9999,
      "fzfg": false,
      "metar_trigger": false,
      "taf_trigger": false,
      "metar": "METAR LIPR 060720Z 03006KT 9999 SCT045 21/11 Q1015",
      "taf": "TAF LIPR 060500Z 0606/0706 VRB05KT 9999 BKN060"
    },
    {
      "icao": "LIPX",
      "alert": "OK",
      "vis_m": 9999,
      "fzfg": false,
      "metar_trigger": false,
      "taf_trigger": false,
      "metar": "METAR LIPX 060720Z 08007KT 040V130 9999 BKN030 21/13 Q1016",
      "taf": "TAF LIPX 060500Z 0606/0706 09010KT 9999 FEW040"
    },
    {
      "icao": "LIPY",
      "alert": "OK",
      "vis_m": 9999,
      "fzfg": false,
      "metar_trigger": false,
      "taf_trigger": false,
      "metar": "METAR LIPY 060720Z AUTO VRB02KT 9999 FEW095/// 23/17 Q1015",
      "taf": "TAF LIPY 060500Z 0606/0706 19006KT 9999 BKN070"
    },
    {
      "icao": "LIPZ",
      "alert": "OK",
      "vis_m": 9999,
      "fzfg": false,
      "metar_trigger": false,
      "taf_trigger": false,
      "metar": "METAR LIPZ 060720Z 05008KT 9999 SCT040 20/15 Q1016 NOSIG",
      "taf": "TAF LIPZ 060500Z 0606/0712 04015KT 9999 FEW040"
    },
    {
      "icao": "LIRF",
      "alert": "OK",
      "vis_m": 9999,
      "fzfg": false,
      "metar_trigger": false,
      "taf_trigger": false,
      "metar": "METAR LIRF 060720Z 19005KT 110V240 9999 SCT025 24/17 Q1016 NOSIG",
      "taf": "TAF LIRF 060500Z 0606/0712 VRB04KT 9999 FEW020"
    },
    {
      "icao": "LIRN",
      "alert": "OK",
      "vis_m": 9999,
      "fzfg": false,
      "metar_trigger": false,
      "taf_trigger": false,
      "metar": "METAR LIRN 060720Z 14004KT 090V210 CAVOK 24/17 Q1017 NOSIG",
      "taf": "TAF LIRN 060500Z 0606/0706 VRB03KT 9999 FEW020"
    },
    {
      "icao": "LIRP",
      "alert": "OK",
      "vis_m": 9999,
      "fzfg": false,
      "metar_trigger": false,
      "taf_trigger": false,
      "metar": "METAR LIRP 060715Z 15003KT CAVOK 19/13 Q1017 NOSIG",
      "taf": "TAF LIRP 060500Z 0606/0706 12003KT 9999 FEW050"
    },
    {
      "icao": "LIRZ",
      "alert": "OK",
      "vis_m": 9999,
      "fzfg": false,
      "metar_trigger": false,
      "taf_trigger": false,
      "metar": "METAR LIRZ 060720Z AUTO VRB02KT 9999 NCD 21/15 Q1016",
      "taf": "TAF LIRZ 060500Z 0606/0706 VRB03KT 9999 FEW030"
    },
    {
      "icao": "LJLJ",
      "alert": "OK",
      "vis_m": 9999,
      "fzfg": false,
      "metar_trigger": false,
      "taf_trigger": false,
      "metar": "METAR LJLJ 060700Z VRB02KT 9999 SCT003 BKN040 15/13 Q1019 NOSIG",
      "taf": "TAF LJLJ 060500Z 0606/0706 VRB02KT 9999 FEW003 BKN015 OVC040"
    },
    {
      "icao": "LKMT",
      "alert": "OK",
      "vis_m": 4500,
      "fzfg": false,
      "metar_trigger": false,
      "taf_trigger": false,
      "metar": "METAR LKMT 060700Z VRB02KT 4500 BR VCFG SCT005 13/12 Q1019 BECMG NSW",
      "taf": "TAF LKMT 060500Z 0606/0706 VRB02KT 1400 BR BCFG BKN002"
    },
    {
      "icao": "LKPR",
      "alert": "OK",
      "vis_m": 9999,
      "fzfg": false,
      "metar_trigger": false,
      "taf_trigger": false,
      "metar": "METAR LKPR 060700Z VRB02KT 9999 FEW007 15/12 Q1018 NOSIG",
      "taf": "TAF LKPR 060500Z 0606/0712 25004KT CAVOK"
    },
    {
      "icao": "LLBG",
      "alert": "OK",
      "vis_m": 9999,
      "fzfg": false,
      "metar_trigger": false,
      "taf_trigger": false,
      "metar": "METAR LLBG 060720Z 29005KT 240V330 CAVOK 29/08 Q1013 NOSIG",
      "taf": "TAF LLBG 060510Z 0606/0706 VRB04KT CAVOK TX33/0613Z TN19/0703Z"
    },
    {
      "icao": "LMML",
      "alert": "OK",
      "vis_m": 9999,
      "fzfg": false,
      "metar_trigger": false,
      "taf_trigger": false,
      "metar": "METAR LMML 060715Z 02009KT 9999 FEW008 24/21 Q1015 NOSIG",
      "taf": "TAF LMML 060500Z 0606/0706 VRB07KT CAVOK"
    },
    {
      "icao": "LOWW",
      "alert": "OK",
      "vis_m": 9999,
      "fzfg": false,
      "metar_trigger": false,
      "taf_trigger": false,
      "metar": "METAR LOWW 060720Z 09003KT 020V160 CAVOK 18/11 Q1018 NOSIG",
      "taf": "TAF LOWW 060515Z 0606/0712 VRB03KT CAVOK TX26/0712Z TN15/0606Z"
    },
    {
      "icao": "LPFR",
      "alert": "OK",
      "vis_m": 9999,
      "fzfg": false,
      "metar_trigger": false,
      "taf_trigger": false,
      "metar": "METAR LPFR 060700Z 03003KT 350V060 CAVOK 19/08 Q1018",
      "taf": "TAF LPFR 060500Z 0606/0706 VRB05KT CAVOK"
    },
    {
      "icao": "LPMA",
      "alert": "OK",
      "vis_m": 9999,
      "fzfg": false,
      "metar_trigger": false,
      "taf_trigger": false,
      "metar": "METAR LPMA 060700Z VRB04KT 9999 FEW014 20/15 Q1021",
      "taf": "TAF LPMA 060500Z 0606/0706 01010KT 9999 SCT014"
    },
    {
      "icao": "LPPR",
      "alert": "OK",
      "vis_m": 2000,
      "fzfg": false,
      "metar_trigger": false,
      "taf_trigger": false,
      "metar": "METAR LPPR 060700Z 04004KT 350V100 2000 -DZ BR BKN004 BKN007 15/14 Q1020",
      "taf": "TAF LPPR 060500Z 0606/0706 VRB02KT 3000 -RADZ BR SCT002 BKN004"
    },
    {
      "icao": "LPPS",
      "alert": "OK",
      "vis_m": 9999,
      "fzfg": false,
      "metar_trigger": false,
      "taf_trigger": false,
      "metar": "METAR LPPS 060700Z 35012KT 9999 SCT012 BKN030 20/17 Q1022",
      "taf": "TAF LPPS 060500Z 0606/0712 35012KT 9999 SCT012 SCT025"
    },
    {
      "icao": "LPPT",
      "alert": "OK",
      "vis_m": 9999,
      "fzfg": false,
      "metar_trigger": false,
      "taf_trigger": false,
      "metar": "METAR LPPT 060700Z 31004KT 270V350 9999 FEW008 SCT014 18/16 Q1019",
      "taf": "TAF LPPT 060500Z 0606/0712 30007KT 9999 SCT025"
    },
    {
      "icao": "LQBK",
      "alert": "OK",
      "vis_m": 9999,
      "fzfg": false,
      "metar_trigger": false,
      "taf_trigger": false,
      "metar": "METAR LQBK 060700Z 33003KT 250V360 9999 BKN014 OVC027 16/13 Q1019 NOSIG",
      "taf": "TAF LQBK 060500Z 0606/0706 04005KT 9999 SCT040 TX23/0613Z TN15/0703Z"
    },
    {
      "icao": "LQSA",
      "alert": "OK",
      "vis_m": 9999,
      "fzfg": false,
      "metar_trigger": false,
      "taf_trigger": false,
      "metar": "METAR LQSA 060700Z 30004KT 250V010 9999 FEW015 BKN025 19/16 Q1018 NOSIG",
      "taf": "TAF LQSA 060500Z 0606/0706 27006KT 9999 SCT050 TX26/0613Z TN15/0703Z"
    },
    {
      "icao": "LQTZ",
      "alert": "OK",
      "vis_m": 9999,
      "fzfg": false,
      "metar_trigger": false,
      "taf_trigger": false,
      "metar": "METAR LQTZ 060700Z 13003KT 110V170 9999 FEW025 BKN045 17/15 Q1019",
      "taf": "TAF LQTZ 060500Z 0606/0706 27005KT 9999 BKN040 TX25/0613Z TN14/0703Z"
    },
    {
      "icao": "LRBC",
      "alert": "OK",
      "vis_m": 9999,
      "fzfg": false,
      "metar_trigger": false,
      "taf_trigger": false,
      "metar": "METAR LRBC 060700Z VRB01KT 9999 FEW005 22/19 Q1016",
      "taf": "TAF LRBC 060500Z 0606/0615 VRB04KT 5000 BR BKN005"
    },
    {
      "icao": "LRBS",
      "alert": "OK",
      "vis_m": 9999,
      "fzfg": false,
      "metar_trigger": false,
      "taf_trigger": false,
      "metar": "METAR LRBS 060700Z 29003KT 220V010 CAVOK 27/19 Q1015 NOSIG",
      "taf": "TAF LRBS 060500Z 0606/0706 VRB04KT CAVOK"
    },
    {
      "icao": "LRBV",
      "alert": "OK",
      "vis_m": 9999,
      "fzfg": false,
      "metar_trigger": false,
      "taf_trigger": false,
      "metar": "METAR LRBV 060700Z 00000KT 9999 FEW030 BKN070 OVC080 21/16 Q1018",
      "taf": "TAF LRBV 060500Z 0606/0615 20007KT 9999 SCT040 BKN060"
    },
    {
      "icao": "LRCL",
      "alert": "OK",
      "vis_m": 9999,
      "fzfg": false,
      "metar_trigger": false,
      "taf_trigger": false,
      "metar": "METAR LRCL 060700Z 00000KT 9999 FEW039 BKN052 22/16 Q1017",
      "taf": "TAF LRCL 060500Z 0606/0615 VRB04KT 9999 SCT045"
    },
    {
      "icao": "LRCV",
      "alert": "OK",
      "vis_m": 9999,
      "fzfg": false,
      "metar_trigger": false,
      "taf_trigger": false,
      "metar": "METAR LRCV 060700Z 27003KT 220V320 CAVOK 25/18 Q1016",
      "taf": "TAF LRCV 060500Z 0606/0615 VRB04KT CAVOK"
    },
    {
      "icao": "LRIA",
      "alert": "OK",
      "vis_m": 9999,
      "fzfg": false,
      "metar_trigger": false,
      "taf_trigger": false,
      "metar": "METAR LRIA 060700Z 10003KT 030V170 9999 OVC017 22/17 Q1016",
      "taf": ""
    },
    {
      "icao": "LROP",
      "alert": "OK",
      "vis_m": 9999,
      "fzfg": false,
      "metar_trigger": false,
      "taf_trigger": false,
      "metar": "METAR LROP 060700Z 24003KT 170V290 CAVOK 25/19 Q1016 NOSIG",
      "taf": "TAF LROP 060500Z 0606/0706 VRB04KT CAVOK"
    },
    {
      "icao": "LRSB",
      "alert": "OK",
      "vis_m": 9999,
      "fzfg": false,
      "metar_trigger": false,
      "taf_trigger": false,
      "metar": "METAR LRSB 060700Z 02003KT 290V060 9999 FEW045 BKN065 22/16 Q1017",
      "taf": "TAF LRSB 060500Z 0606/0706 VRB04KT 9999 SCT045 BKN070"
    },
    {
      "icao": "LRSM",
      "alert": "OK",
      "vis_m": 9999,
      "fzfg": false,
      "metar_trigger": false,
      "taf_trigger": false,
      "metar": "METAR LRSM 060700Z 26004KT 220V300 9999 BKN010 18/15 Q1017",
      "taf": ""
    },
    {
      "icao": "LRSV",
      "alert": "OK",
      "vis_m": 5000,
      "fzfg": false,
      "metar_trigger": false,
      "taf_trigger": false,
      "metar": "METAR LRSV 060700Z 31012KT 5000 BR BKN005 18/17 Q1017",
      "taf": ""
    },
    {
      "icao": "LRTM",
      "alert": "OK",
      "vis_m": 9999,
      "fzfg": false,
      "metar_trigger": false,
      "taf_trigger": false,
      "metar": "METAR LRTM 060700Z VRB01KT 9999 SCT049 23/18 Q1017",
      "taf": "TAF LRTM 060500Z 0606/0615 VRB04KT 9999 SCT045"
    },
    {
      "icao": "LRTR",
      "alert": "OK",
      "vis_m": 9999,
      "fzfg": false,
      "metar_trigger": false,
      "taf_trigger": false,
      "metar": "METAR LRTR 060700Z 31007KT 9999 VCSH FEW045CB 17/14 Q1018 NOSIG",
      "taf": "TAF LRTR 060500Z 0606/0706 33010KT CAVOK"
    },
    {
      "icao": "LTAC",
      "alert": "OK",
      "vis_m": 9999,
      "fzfg": false,
      "metar_trigger": false,
      "taf_trigger": false,
      "metar": "METAR LTAC 060720Z 05009KT 010V070 9999 FEW040 SCT100 24/11 Q1017 NOSIG",
      "taf": "TAF LTAC 060440Z 0606/0706 VRB02KT 9999 SCT040 SCT100"
    },
    {
      "icao": "LTFM",
      "alert": "OK",
      "vis_m": 9999,
      "fzfg": false,
      "metar_trigger": false,
      "taf_trigger": false,
      "metar": "METAR LTFM 060720Z 04010KT 010V070 9999 SCT013 21/16 Q1016 NOSIG",
      "taf": "TAF LTFM 060440Z 0606/0712 03012KT 9999 BKN009"
    },
    {
      "icao": "LUKK",
      "alert": "OK",
      "vis_m": 9999,
      "fzfg": false,
      "metar_trigger": false,
      "taf_trigger": false,
      "metar": "METAR LUKK 060700Z 15006KT 100V180 9999 FEW037 23/18 Q1016 NOSIG",
      "taf": "TAF LUKK 060507Z 0606/0706 VRB06KT CAVOK"
    },
    {
      "icao": "LWOH",
      "alert": "OK",
      "vis_m": 9999,
      "fzfg": false,
      "metar_trigger": false,
      "taf_trigger": false,
      "metar": "METAR LWOH 060720Z 16004KT 120V220 9999 FEW040 20/15 Q1019",
      "taf": "TAF LWOH 060515Z 0606/0706 VRB02KT 9999 FEW040"
    },
    {
      "icao": "LWSK",
      "alert": "OK",
      "vis_m": 9999,
      "fzfg": false,
      "metar_trigger": false,
      "taf_trigger": false,
      "metar": "METAR LWSK 060720Z VRB02KT CAVOK 25/17 Q1017 NOSIG",
      "taf": "TAF LWSK 060515Z 0606/0706 VRB02KT CAVOK"
    },
    {
      "icao": "LYBE",
      "alert": "OK",
      "vis_m": 9999,
      "fzfg": false,
      "metar_trigger": false,
      "taf_trigger": false,
      "metar": "METAR LYBE 060700Z VRB01KT 9999 RA SCT040 15/14 Q1019 BECMG NSW",
      "taf": "TAF LYBE 060500Z 0606/0706 32007KT 9999 SCT040 TX25/0613Z TN15/0704Z"
    },
    {
      "icao": "LYNI",
      "alert": "OK",
      "vis_m": 9999,
      "fzfg": false,
      "metar_trigger": false,
      "taf_trigger": false,
      "metar": "METAR LYNI 060700Z 33014KT 300V360 9999 FEW030 SCT070 20/16 Q1017 NOSIG",
      "taf": "TAF LYNI 060500Z 0606/0706 32012KT 9999 SCT040 SCT080 TX27/0614Z TN14/0704Z"
    },
    {
      "icao": "LYPG",
      "alert": "OK",
      "vis_m": 9999,
      "fzfg": false,
      "metar_trigger": false,
      "taf_trigger": false,
      "metar": "METAR LYPG 060700Z VRB02KT CAVOK 24/14 Q1016 NOSIG",
      "taf": "TAF LYPG 060500Z 0606/0706 16005KT 9999 FEW040 TX29/0614Z TN19/0703Z"
    },
    {
      "icao": "LZIB",
      "alert": "OK",
      "vis_m": 9999,
      "fzfg": false,
      "metar_trigger": false,
      "taf_trigger": false,
      "metar": "METAR LZIB 060700Z VRB02KT CAVOK 20/11 Q1017 NOSIG",
      "taf": "TAF LZIB 060515Z 0606/0706 VRB02KT 9999 FEW030"
    },
    {
      "icao": "LZKZ",
      "alert": "OK",
      "vis_m": 9999,
      "fzfg": false,
      "metar_trigger": false,
      "taf_trigger": false,
      "metar": "METAR LZKZ 060700Z 36014KT CAVOK 17/10 Q1018 NOSIG",
      "taf": "TAF LZKZ 060515Z 0606/0706 02012KT CAVOK"
    },
    {
      "icao": "LZTT",
      "alert": "OK",
      "vis_m": 9999,
      "fzfg": false,
      "metar_trigger": false,
      "taf_trigger": false,
      "metar": "METAR LZTT 060700Z 08008KT 050V110 9999 FEW013 SCT058 15/08 Q1019 NOSIG",
      "taf": "TAF LZTT 060515Z 0606/0706 VRB02KT 9999 FEW020 SCT045"
    },
    {
      "icao": "OEJN",
      "alert": "OK",
      "vis_m": 9999,
      "fzfg": false,
      "metar_trigger": false,
      "taf_trigger": false,
      "metar": "METAR OEJN 060700Z 31006KT CAVOK 34/22 Q1009 NOSIG",
      "taf": "TAF OEJN 060500Z 0606/0712 30016KT CAVOK"
    },
    {
      "icao": "OEMA",
      "alert": "OK",
      "vis_m": 9999,
      "fzfg": false,
      "metar_trigger": false,
      "taf_trigger": false,
      "metar": "METAR OEMA 060700Z 29004KT CAVOK 38/M04 Q1014 NOSIG",
      "taf": "TAF OEMA 060500Z 0606/0712 28016KT CAVOK"
    },
    {
      "icao": "OJAI",
      "alert": "OK",
      "vis_m": 5000,
      "fzfg": false,
      "metar_trigger": false,
      "taf_trigger": false,
      "metar": "METAR OJAI 060700Z 26006KT 5000 HZ NSC 25/01 Q1016 NOSIG",
      "taf": "TAF OJAI 060431Z 0606/0712 30012KT 5000 HZ NSC"
    },
    {
      "icao": "OMAA",
      "alert": "OK",
      "vis_m": 9999,
      "fzfg": false,
      "metar_trigger": false,
      "taf_trigger": false,
      "metar": "METAR OMAA 060700Z 27011KT CAVOK 36/17 Q1002 NOSIG",
      "taf": "TAF OMAA 060500Z 0606/0712 29013KT 8000 NSC"
    },
    {
      "icao": "OMDB",
      "alert": "OK",
      "vis_m": 9999,
      "fzfg": false,
      "metar_trigger": false,
      "taf_trigger": false,
      "metar": "METAR OMDB 060700Z 19007KT 150V250 CAVOK 38/21 Q1001 NOSIG",
      "taf": "TAF OMDB 060500Z 0606/0712 22008KT 8000 NSC"
    },
    {
      "icao": "UAAA",
      "alert": "OK",
      "vis_m": 9999,
      "fzfg": false,
      "metar_trigger": false,
      "taf_trigger": false,
      "metar": "METAR UAAA 060700Z 20001MPS 9999 -SHRA SCT050CB OVC100 23/14 Q1016 NOSIG",
      "taf": "TAF UAAA 060502Z 0606/0706 16003MPS 9999 BKN050CB OVC100 TX22/0609Z TN16/0701Z"
    },
    {
      "icao": "UBBB",
      "alert": "OK",
      "vis_m": 9999,
      "fzfg": false,
      "metar_trigger": false,
      "taf_trigger": false,
      "metar": "METAR UBBB 060700Z 20012KT CAVOK 25/08 Q1014 NOSIG",
      "taf": "TAF UBBB 060503Z 0606/0706 19012KT CAVOK TX27/0610Z TN16/0701Z"
    },
    {
      "icao": "UDSG",
      "alert": "OK",
      "vis_m": 9999,
      "fzfg": false,
      "metar_trigger": false,
      "taf_trigger": false,
      "metar": "METAR UDSG 060700Z 29003KT 9999 SCT049CB 20/10 Q1019 NOSIG",
      "taf": "TAF UDSG 060500Z 0606/0706 24006KT 9999 SCT050"
    },
    {
      "icao": "UDYZ",
      "alert": "OK",
      "vis_m": 9999,
      "fzfg": false,
      "metar_trigger": false,
      "taf_trigger": false,
      "metar": "METAR UDYZ 060700Z 17005KT 140V210 9999 FEW046 26/10 Q1015 NOSIG",
      "taf": "TAF UDYZ 060500Z 0606/0706 24006KT 9999 FEW040"
    },
    {
      "icao": "UGKO",
      "alert": "OK",
      "vis_m": 9999,
      "fzfg": false,
      "metar_trigger": false,
      "taf_trigger": false,
      "metar": "METAR UGKO 060700Z AUTO 09004KT 030V170 CAVOK 26/15 Q1013 NOSIG",
      "taf": "TAF UGKO 060500Z 0606/0706 26007KT CAVOK TX29/0611Z TN15/0702Z"
    }
  ]
}