{
  "ts_utc": "2026-05-15T23:14:42Z",
  "threshold_m": 150,
  "source": "stations_override.txt (ICAO list) + aviationweather.gov (METAR/TAF raw)",
  "station_count": 159,
  "stations": [
    {
      "icao": "BIKF",
      "alert": "OK",
      "vis_m": 9999,
      "fzfg": false,
      "metar_trigger": false,
      "taf_trigger": false,
      "metar": "METAR BIKF 152300Z 12024G36KT 9999 -RA BKN012 OVC039 08/06 Q1000",
      "taf": "TAF BIKF 152236Z 1600/1700 13026KT 9999 -RA BKN011 OVC020 TX07/1600Z TN06/1609Z"
    },
    {
      "icao": "BKPR",
      "alert": "OK",
      "vis_m": 9999,
      "fzfg": false,
      "metar_trigger": false,
      "taf_trigger": false,
      "metar": "METAR BKPR 152300Z 21005KT CAVOK 12/07 Q1008 NOSIG",
      "taf": ""
    },
    {
      "icao": "EBCI",
      "alert": "OK",
      "vis_m": 9999,
      "fzfg": false,
      "metar_trigger": false,
      "taf_trigger": false,
      "metar": "METAR EBCI 152250Z 24005KT CAVOK 05/03 Q1008 NOSIG",
      "taf": "TAF EBCI 151700Z 1518/1624 32007KT 9999 FEW020TCU SCT040"
    },
    {
      "icao": "EDDB",
      "alert": "OK",
      "vis_m": 9999,
      "fzfg": false,
      "metar_trigger": false,
      "taf_trigger": false,
      "metar": "METAR EDDB 152250Z AUTO 27004KT CAVOK 07/05 Q1003 NOSIG",
      "taf": "TAF EDDB 151700Z 1518/1618 27005KT CAVOK"
    },
    {
      "icao": "EDDH",
      "alert": "OK",
      "vis_m": 9999,
      "fzfg": false,
      "metar_trigger": false,
      "taf_trigger": false,
      "metar": "METAR EDDH 152250Z AUTO 23005KT CAVOK 06/05 Q1002 NOSIG",
      "taf": "TAF EDDH 151700Z 1518/1624 24007KT 9999 SCT030"
    },
    {
      "icao": "EDDK",
      "alert": "OK",
      "vis_m": 9999,
      "fzfg": false,
      "metar_trigger": false,
      "taf_trigger": false,
      "metar": "METAR EDDK 152250Z AUTO 27007KT 9999 SCT041 06/04 Q1007 NOSIG",
      "taf": "TAF EDDK 151700Z 1518/1624 30008KT 9999 SCT035"
    },
    {
      "icao": "EDDN",
      "alert": "OK",
      "vis_m": 9999,
      "fzfg": false,
      "metar_trigger": false,
      "taf_trigger": false,
      "metar": "METAR EDDN 152250Z AUTO 28003KT CAVOK 04/03 Q1004",
      "taf": ""
    },
    {
      "icao": "EDDS",
      "alert": "OK",
      "vis_m": 9999,
      "fzfg": false,
      "metar_trigger": false,
      "taf_trigger": false,
      "metar": "METAR EDDS 152250Z AUTO VRB02KT CAVOK 06/03 Q1005",
      "taf": "TAF EDDS 151700Z 1518/1618 30005KT 9999 SCT035"
    },
    {
      "icao": "EDFH",
      "alert": "OK",
      "vis_m": 9999,
      "fzfg": false,
      "metar_trigger": false,
      "taf_trigger": false,
      "metar": "METAR EDFH 152250Z 30005KT 9999 FEW012 05/03 Q1006",
      "taf": "TAF EDFH 151700Z 1518/1618 29005KT 9999 SCT035"
    },
    {
      "icao": "EDJA",
      "alert": "OK",
      "vis_m": 9999,
      "fzfg": false,
      "metar_trigger": false,
      "taf_trigger": false,
      "metar": "METAR EDJA 152250Z AUTO 22007KT 9999 FEW006/// BKN022/// OVC063/// 05/04 Q1005",
      "taf": "TAF EDJA 151700Z 1518/1603 26006KT 9999 SCT030"
    },
    {
      "icao": "EDLW",
      "alert": "OK",
      "vis_m": 9999,
      "fzfg": false,
      "metar_trigger": false,
      "taf_trigger": false,
      "metar": "METAR EDLW 152250Z AUTO 24005KT 9999 // BKN049/// 06/05 Q1005",
      "taf": "TAF EDLW 151700Z 1518/1618 23010KT 9999 SCT040"
    },
    {
      "icao": "EDNY",
      "alert": "OK",
      "vis_m": 9999,
      "fzfg": false,
      "metar_trigger": false,
      "taf_trigger": false,
      "metar": "METAR EDNY 152250Z AUTO 26004KT 230V290 9999 // SCT021/// BKN044/// OVC069/// 07/05 Q1006",
      "taf": ""
    },
    {
      "icao": "EDSB",
      "alert": "OK",
      "vis_m": 9999,
      "fzfg": false,
      "metar_trigger": false,
      "taf_trigger": false,
      "metar": "METAR EDSB 152250Z AUTO 22005KT 9999 FEW068/// 06/06 Q1006",
      "taf": "TAF EDSB 151700Z 1518/1618 17004KT 9999 FEW045"
    },
    {
      "icao": "EETN",
      "alert": "OK",
      "vis_m": 9999,
      "fzfg": false,
      "metar_trigger": false,
      "taf_trigger": false,
      "metar": "METAR EETN 152250Z 00000KT CAVOK 10/04 Q1004",
      "taf": "TAF EETN 151730Z 1518/1618 08010KT CAVOK"
    },
    {
      "icao": "EFTU",
      "alert": "OK",
      "vis_m": 9999,
      "fzfg": false,
      "metar_trigger": false,
      "taf_trigger": false,
      "metar": "METAR EFTU 152250Z AUTO 03003KT CAVOK 09/07 Q1004",
      "taf": "TAF EFTU 152032Z 1521/1621 34003KT CAVOK"
    },
    {
      "icao": "EGBB",
      "alert": "OK",
      "vis_m": 9999,
      "fzfg": false,
      "metar_trigger": false,
      "taf_trigger": false,
      "metar": "METAR EGBB 152250Z 29005KT CAVOK 06/01 Q1009",
      "taf": "TAF EGBB 152303Z 1600/1624 28004KT 9999 FEW040"
    },
    {
      "icao": "EGGP",
      "alert": "OK",
      "vis_m": 9999,
      "fzfg": false,
      "metar_trigger": false,
      "taf_trigger": false,
      "metar": "METAR EGGP 152250Z 29010KT CAVOK 08/03 Q1008",
      "taf": "TAF EGGP 152259Z 1600/1624 26005KT 9999 SCT035"
    },
    {
      "icao": "EGGW",
      "alert": "OK",
      "vis_m": 9999,
      "fzfg": false,
      "metar_trigger": false,
      "taf_trigger": false,
      "metar": "METAR EGGW 152250Z AUTO 31006KT 9999 NCD 07/M00 Q1008",
      "taf": "TAF EGGW 152254Z 1600/1624 28005KT 9999 FEW040"
    },
    {
      "icao": "EGKK",
      "alert": "OK",
      "vis_m": 9999,
      "fzfg": false,
      "metar_trigger": false,
      "taf_trigger": false,
      "metar": "METAR EGKK 152250Z 24002KT CAVOK 09/06 Q1008",
      "taf": "TAF EGKK 152300Z 1600/1706 30005KT 9999 FEW045"
    },
    {
      "icao": "EGNM",
      "alert": "OK",
      "vis_m": 9999,
      "fzfg": false,
      "metar_trigger": false,
      "taf_trigger": false,
      "metar": "METAR EGNM 152250Z 29009KT CAVOK 07/02 Q1007",
      "taf": "TAF EGNM 152259Z 1600/1624 26007KT 9999 FEW030"
    },
    {
      "icao": "EGPD",
      "alert": "OK",
      "vis_m": 9999,
      "fzfg": false,
      "metar_trigger": false,
      "taf_trigger": false,
      "metar": "METAR EGPD 152250Z AUTO 31012KT 9999 NCD 06/02 Q1005",
      "taf": "TAF EGPD 152257Z 1600/1624 30010KT 9999 FEW020"
    },
    {
      "icao": "EGPF",
      "alert": "OK",
      "vis_m": 9999,
      "fzfg": false,
      "metar_trigger": false,
      "taf_trigger": false,
      "metar": "METAR EGPF 152250Z AUTO 23005KT 9999 NCD 01/M01 Q1007",
      "taf": "TAF EGPF 152300Z 1600/1624 VRB03KT 9999 SCT030"
    },
    {
      "icao": "EHBK",
      "alert": "OK",
      "vis_m": 9999,
      "fzfg": false,
      "metar_trigger": false,
      "taf_trigger": false,
      "metar": "METAR EHBK 152255Z AUTO 24004KT 200V280 9999 NSC 05/04 Q1007",
      "taf": "TAF EHBK 151720Z 1518/1624 27007KT 9999 BKN035"
    },
    {
      "icao": "EHEH",
      "alert": "OK",
      "vis_m": 9999,
      "fzfg": false,
      "metar_trigger": false,
      "taf_trigger": false,
      "metar": "METAR EHEH 152255Z AUTO 24004KT 9999 BKN240 05/04 Q1007 BLU NOSIG RMK TREND REMOTE BY EHWX",
      "taf": "TAF EHEH 151755Z 1518/1624 27006KT 9999 SCT030"
    },
    {
      "icao": "EKBI",
      "alert": "OK",
      "vis_m": 9999,
      "fzfg": false,
      "metar_trigger": false,
      "taf_trigger": false,
      "metar": "METAR EKBI 152250Z AUTO 19007KT 9999 -RA OVC008/// 08/07 Q0998",
      "taf": "TAF EKBI 152027Z 1521/1621 19011KT 9999 BKN012"
    },
    {
      "icao": "EKCH",
      "alert": "OK",
      "vis_m": 9999,
      "fzfg": false,
      "metar_trigger": false,
      "taf_trigger": false,
      "metar": "METAR EKCH 152250Z AUTO 18008KT 9999 NCD 10/05 Q1001 NOSIG",
      "taf": "TAF EKCH 152027Z 1521/1621 15013KT 9999 SCT030"
    },
    {
      "icao": "ENAL",
      "alert": "OK",
      "vis_m": 9999,
      "fzfg": false,
      "metar_trigger": false,
      "taf_trigger": false,
      "metar": "METAR ENAL 152250Z AUTO 15005KT 9999 NCD 07/03 Q0999",
      "taf": "TAF ENAL 152000Z 1521/1606 11010KT 9999 FEW060"
    },
    {
      "icao": "ENBR",
      "alert": "OK",
      "vis_m": 9999,
      "fzfg": false,
      "metar_trigger": false,
      "taf_trigger": false,
      "metar": "METAR ENBR 152250Z AUTO 06006KT 9999 NCD 10/M00 Q0997 RMK WIND 1200FT 10013KT",
      "taf": "TAF ENBR 151700Z 1518/1618 12005KT 9999 SCT050"
    },
    {
      "icao": "ENGM",
      "alert": "OK",
      "vis_m": 9999,
      "fzfg": false,
      "metar_trigger": false,
      "taf_trigger": false,
      "metar": "METAR ENGM 152250Z 04007KT 9999 SCT038 BKN048 05/03 Q1001",
      "taf": "TAF ENGM 151700Z 1518/1618 02008KT 9999 FEW020 SCT040"
    },
    {
      "icao": "ENHD",
      "alert": "OK",
      "vis_m": 9999,
      "fzfg": false,
      "metar_trigger": false,
      "taf_trigger": false,
      "metar": "METAR ENHD 152250Z AUTO 09003KT 9999 OVC044/// 09/03 Q0996",
      "taf": "TAF ENHD 151400Z 1515/1522 11008KT 9999 BKN040"
    },
    {
      "icao": "ENTC",
      "alert": "OK",
      "vis_m": 9999,
      "fzfg": false,
      "metar_trigger": false,
      "taf_trigger": false,
      "metar": "METAR ENTC 152250Z AUTO 18011KT 9999 NCD 10/02 Q1005 RMK WIND 2600FT 18027KT",
      "taf": "TAF ENTC 151700Z 1518/1618 18015KT CAVOK"
    },
    {
      "icao": "ENTO",
      "alert": "OK",
      "vis_m": 9999,
      "fzfg": false,
      "metar_trigger": false,
      "taf_trigger": false,
      "metar": "METAR ENTO 152250Z AUTO 03006KT 9999 NCD 06/05 Q1000",
      "taf": "TAF ENTO 151700Z 1518/1618 15010KT 9999 SCT030"
    },
    {
      "icao": "ENVA",
      "alert": "OK",
      "vis_m": 9999,
      "fzfg": false,
      "metar_trigger": false,
      "taf_trigger": false,
      "metar": "METAR ENVA 152250Z AUTO 07007KT 020V090 9999 NCD 10/02 Q1002 RMK WIND 670FT 08007KT",
      "taf": "TAF ENVA 151700Z 1518/1618 13012KT 9999 FEW050"
    },
    {
      "icao": "ENZV",
      "alert": "OK",
      "vis_m": 9999,
      "fzfg": false,
      "metar_trigger": false,
      "taf_trigger": false,
      "metar": "METAR ENZV 152250Z VRB02KT 9999 SCT039 09/03 Q0996",
      "taf": ""
    },
    {
      "icao": "EPGD",
      "alert": "OK",
      "vis_m": 9999,
      "fzfg": false,
      "metar_trigger": false,
      "taf_trigger": false,
      "metar": "METAR EPGD 152300Z 29004KT 9999 BKN012 08/08 Q1001",
      "taf": ""
    },
    {
      "icao": "EPKK",
      "alert": "OK",
      "vis_m": 9999,
      "fzfg": false,
      "metar_trigger": false,
      "taf_trigger": false,
      "metar": "METAR EPKK 152300Z VRB01KT 9999 -RA BKN050 10/09 Q1002",
      "taf": "TAF EPKK 152030Z 1521/1621 VRB02KT CAVOK"
    },
    {
      "icao": "EPKT",
      "alert": "OK",
      "vis_m": 9999,
      "fzfg": false,
      "metar_trigger": false,
      "taf_trigger": false,
      "metar": "METAR EPKT 152300Z 09003KT CAVOK 06/06 Q1002",
      "taf": "TAF EPKT 151730Z 1518/1618 24008KT CAVOK"
    },
    {
      "icao": "EPLB",
      "alert": "OK",
      "vis_m": 9999,
      "fzfg": false,
      "metar_trigger": false,
      "taf_trigger": false,
      "metar": "METAR EPLB 152300Z 07001KT CAVOK 09/09 Q1002",
      "taf": "TAF EPLB 151730Z 1518/1618 18005KT CAVOK"
    },
    {
      "icao": "EPMO",
      "alert": "OK",
      "vis_m": 9999,
      "fzfg": false,
      "metar_trigger": false,
      "taf_trigger": false,
      "metar": "METAR EPMO 152300Z 17004KT CAVOK 09/09 Q1002",
      "taf": ""
    },
    {
      "icao": "EPPO",
      "alert": "OK",
      "vis_m": 100,
      "fzfg": false,
      "metar_trigger": false,
      "taf_trigger": false,
      "metar": "METAR EPPO 152300Z 00000KT 0100 R28/0400N FG FEW002 04/04 Q1002",
      "taf": ""
    },
    {
      "icao": "EPRA",
      "alert": "OK",
      "vis_m": 9999,
      "fzfg": false,
      "metar_trigger": false,
      "taf_trigger": false,
      "metar": "METAR EPRA 152300Z 21004KT CAVOK 10/09 Q1002",
      "taf": "TAF EPRA 152030Z 1521/1606 20010KT CAVOK"
    },
    {
      "icao": "EPRZ",
      "alert": "OK",
      "vis_m": 9999,
      "fzfg": false,
      "metar_trigger": false,
      "taf_trigger": false,
      "metar": "METAR EPRZ 152300Z 19008KT 9999 -SHRA BKN050CB 12/10 Q1003",
      "taf": "TAF EPRZ 151730Z 1518/1618 18005KT CAVOK"
    },
    {
      "icao": "EPSC",
      "alert": "OK",
      "vis_m": 9999,
      "fzfg": false,
      "metar_trigger": false,
      "taf_trigger": false,
      "metar": "METAR EPSC 152300Z VRB01KT 9999 1900SE NSC 04/04 Q1002",
      "taf": ""
    },
    {
      "icao": "EPSY",
      "alert": "OK",
      "vis_m": 9999,
      "fzfg": false,
      "metar_trigger": false,
      "taf_trigger": false,
      "metar": "METAR EPSY 152300Z 00000KT CAVOK 06/06 Q1001",
      "taf": "TAF EPSY 152030Z 1521/1606 17005KT CAVOK"
    },
    {
      "icao": "EPWA",
      "alert": "OK",
      "vis_m": 9999,
      "fzfg": false,
      "metar_trigger": false,
      "taf_trigger": false,
      "metar": "METAR EPWA 152300Z 18004KT CAVOK 10/08 Q1002 NOSIG",
      "taf": "TAF EPWA 152030Z 1521/1621 VRB04KT CAVOK"
    },
    {
      "icao": "EPWR",
      "alert": "OK",
      "vis_m": 9999,
      "fzfg": false,
      "metar_trigger": false,
      "taf_trigger": false,
      "metar": "METAR EPWR 152300Z VRB02KT 9999 MIFG NSC 07/07 Q1002",
      "taf": "TAF EPWR 152030Z 1521/1621 VRB02KT CAVOK"
    },
    {
      "icao": "ESGG",
      "alert": "OK",
      "vis_m": 9999,
      "fzfg": false,
      "metar_trigger": false,
      "taf_trigger": false,
      "metar": "METAR ESGG 152250Z 10006KT CAVOK 06/04 Q0999",
      "taf": "TAF ESGG 152030Z 1521/1621 11005KT CAVOK"
    },
    {
      "icao": "ESKN",
      "alert": "OK",
      "vis_m": 6000,
      "fzfg": false,
      "metar_trigger": false,
      "taf_trigger": false,
      "metar": "METAR ESKN 152250Z 34006KT 6000 RA FEW047 BKN055 08/08 Q1001",
      "taf": "TAF ESKN 152030Z 1521/1621 VRB03KT 9999 -RADZ SCT045"
    },
    {
      "icao": "ESMS",
      "alert": "OK",
      "vis_m": 9999,
      "fzfg": false,
      "metar_trigger": false,
      "taf_trigger": false,
      "metar": "METAR ESMS 152250Z 16005KT CAVOK 04/04 Q1001",
      "taf": "TAF ESMS 152027Z 1521/1621 17007KT 9999 SCT025"
    },
    {
      "icao": "ESSA",
      "alert": "OK",
      "vis_m": 9999,
      "fzfg": false,
      "metar_trigger": false,
      "taf_trigger": false,
      "metar": "METAR ESSA 152250Z 04010KT CAVOK 08/04 Q1002 NOSIG",
      "taf": "TAF ESSA 152030Z 1521/1621 08007KT CAVOK"
    },
    {
      "icao": "EYKA",
      "alert": "OK",
      "vis_m": 9999,
      "fzfg": false,
      "metar_trigger": false,
      "taf_trigger": false,
      "metar": "METAR EYKA 152250Z AUTO 09006KT 9999 BKN088/// 11/06 Q1001",
      "taf": "TAF EYKA 152301Z 1600/1624 VRB03KT 9000 NSC"
    },
    {
      "icao": "EYPA",
      "alert": "OK",
      "vis_m": 9999,
      "fzfg": false,
      "metar_trigger": false,
      "taf_trigger": false,
      "metar": "METAR EYPA 152250Z AUTO 20003KT 160V270 9999 FEW042/// SCT100/// 12/07 Q1000",
      "taf": "TAF EYPA 152302Z 1600/1624 VRB03KT 8000 NSC"
    },
    {
      "icao": "EYVI",
      "alert": "OK",
      "vis_m": 9999,
      "fzfg": false,
      "metar_trigger": false,
      "taf_trigger": false,
      "metar": "METAR EYVI 152250Z 14006KT CAVOK 11/04 Q1002 NOSIG",
      "taf": "TAF EYVI 152301Z 1600/1624 VRB03KT 9000 NSC"
    },
    {
      "icao": "GCFV",
      "alert": "OK",
      "vis_m": 9999,
      "fzfg": false,
      "metar_trigger": false,
      "taf_trigger": false,
      "metar": "METAR GCFV 152300Z AUTO 36017KT 9999 SCT047 19/12 Q1019",
      "taf": "TAF GCFV 152000Z 1521/1621 02020KT 9999 SCT035 TX24/1614Z TN17/1606Z"
    },
    {
      "icao": "GCLP",
      "alert": "OK",
      "vis_m": 9999,
      "fzfg": false,
      "metar_trigger": false,
      "taf_trigger": false,
      "metar": "METAR GCLP 152300Z 36016KT 9999 FEW030 18/11 Q1020 NOSIG",
      "taf": "TAF GCLP 152000Z 1521/1621 02022KT 9999 SCT030 TX23/1614Z TN17/1606Z"
    },
    {
      "icao": "GCTS",
      "alert": "OK",
      "vis_m": 9999,
      "fzfg": false,
      "metar_trigger": false,
      "taf_trigger": false,
      "metar": "METAR GCTS 152300Z 07017KT 9999 BKN040 19/10 Q1021 NOSIG",
      "taf": "TAF GCTS 152000Z 1521/1621 VRB06KT 9999 SCT035 TX23/1614Z TN15/1606Z"
    },
    {
      "icao": "GMAD",
      "alert": "OK",
      "vis_m": 9999,
      "fzfg": false,
      "metar_trigger": false,
      "taf_trigger": false,
      "metar": "METAR GMAD 152300Z 17007KT CAVOK 17/09 Q1012 NOSIG",
      "taf": "TAF GMAD 151700Z 1518/1624 26019KT 8000 FEW033"
    },
    {
      "icao": "GMMN",
      "alert": "OK",
      "vis_m": 9999,
      "fzfg": false,
      "metar_trigger": false,
      "taf_trigger": false,
      "metar": "METAR GMMN 152300Z 34008KT 9999 BKN020 15/11 Q1016 NOSIG",
      "taf": "TAF GMMN 151700Z 1518/1624 32012KT 9999 BKN030"
    },
    {
      "icao": "GMMX",
      "alert": "OK",
      "vis_m": 6000,
      "fzfg": false,
      "metar_trigger": false,
      "taf_trigger": false,
      "metar": "METAR GMMX 152300Z 01005KT 320V070 6000 -RA SCT010 BKN023 FEW033TCU 15/10 Q1016 TEMPO 2000 RA",
      "taf": "TAF GMMX 151700Z 1518/1624 24006KT 8000 SCT023 SCT080"
    },
    {
      "icao": "HEGN",
      "alert": "OK",
      "vis_m": 9999,
      "fzfg": false,
      "metar_trigger": false,
      "taf_trigger": false,
      "metar": "METAR HEGN 152300Z 30012KT CAVOK 28/04 Q1009 NOSIG",
      "taf": "TAF HEGN 152300Z 1600/1706 32012G22KT CAVOK"
    },
    {
      "icao": "HEMA",
      "alert": "OK",
      "vis_m": 9999,
      "fzfg": false,
      "metar_trigger": false,
      "taf_trigger": false,
      "metar": "METAR HEMA 152300Z 33008KT CAVOK 29/03 Q1007 NOSIG",
      "taf": "TAF HEMA 152300Z 1600/1706 30016KT CAVOK"
    },
    {
      "icao": "HESH",
      "alert": "OK",
      "vis_m": 9999,
      "fzfg": false,
      "metar_trigger": false,
      "taf_trigger": false,
      "metar": "METAR HESH 152300Z 05006KT CAVOK 27/14 Q1007 NOSIG",
      "taf": "TAF HESH 152300Z 1600/1706 35014KT CAVOK"
    },
    {
      "icao": "HESX",
      "alert": "OK",
      "vis_m": 9999,
      "fzfg": false,
      "metar_trigger": false,
      "taf_trigger": false,
      "metar": "METAR HESX 152300Z 35005KT CAVOK 17/12 Q1014 NOSIG",
      "taf": "TAF HESX 151700Z 1518/1624 32010KT CAVOK"
    },
    {
      "icao": "LATI",
      "alert": "OK",
      "vis_m": 9999,
      "fzfg": false,
      "metar_trigger": false,
      "taf_trigger": false,
      "metar": "METAR LATI 152250Z 07004KT 010V140 9999 BKN078 16/10 Q1007 NOSIG",
      "taf": "TAF LATI 152300Z 1600/1624 17005KT 9999 SCT050 BKN070 TX21/1610Z TN09/1624Z"
    },
    {
      "icao": "LBPD",
      "alert": "OK",
      "vis_m": 9999,
      "fzfg": false,
      "metar_trigger": false,
      "taf_trigger": false,
      "metar": "METAR LBPD 152300Z AUTO VRB01KT 9999 NCD 12/10 Q1007",
      "taf": "TAF LBPD 151700Z 1518/1618 12010KT 9999 SCT070"
    },
    {
      "icao": "LBSF",
      "alert": "OK",
      "vis_m": 9999,
      "fzfg": false,
      "metar_trigger": false,
      "taf_trigger": false,
      "metar": "METAR LBSF 152300Z AUTO 10004KT 060V190 9999 FEW073/// 11/08 Q1007 NOSIG",
      "taf": "TAF LBSF 151700Z 1518/1618 12010KT 9999 SCT060"
    },
    {
      "icao": "LBWN",
      "alert": "OK",
      "vis_m": 9999,
      "fzfg": false,
      "metar_trigger": false,
      "taf_trigger": false,
      "metar": "METAR LBWN 152300Z AUTO VRB01KT 9999 NCD 11/11 Q1007 NOSIG",
      "taf": "TAF LBWN 151700Z 1518/1618 10010KT 9999 SCT045"
    },
    {
      "icao": "LCLK",
      "alert": "OK",
      "vis_m": 9999,
      "fzfg": false,
      "metar_trigger": false,
      "taf_trigger": false,
      "metar": "METAR LCLK 152300Z 23004KT 190V300 CAVOK 16/13 Q1006 NOSIG",
      "taf": "TAF LCLK 151730Z 1518/1618 21010KT 9999 FEW030"
    },
    {
      "icao": "LCPH",
      "alert": "OK",
      "vis_m": 9999,
      "fzfg": false,
      "metar_trigger": false,
      "taf_trigger": false,
      "metar": "METAR LCPH 152300Z 32008KT 9999 SCT016 BKN020 19/17 Q1008 NOSIG",
      "taf": "TAF LCPH 151730Z 1518/1618 29016KT 9999 SCT014"
    },
    {
      "icao": "LEAL",
      "alert": "OK",
      "vis_m": 9999,
      "fzfg": false,
      "metar_trigger": false,
      "taf_trigger": false,
      "metar": "METAR LEAL 152300Z 31007KT 290V360 CAVOK 16/08 Q1013 NOSIG",
      "taf": "TAF LEAL 151700Z 1518/1618 30006KT 9999 FEW015 TX23/1612Z TN11/1606Z"
    },
    {
      "icao": "LEBB",
      "alert": "OK",
      "vis_m": 9999,
      "fzfg": false,
      "metar_trigger": false,
      "taf_trigger": false,
      "metar": "METAR LEBB 152300Z AUTO VRB02KT 9999 SCT038 SCT044 11/09 Q1017",
      "taf": "TAF LEBB 151700Z 1518/1618 31009KT 9999 FEW020 BKN040 TX18/1615Z TN07/1603Z"
    },
    {
      "icao": "LEBL",
      "alert": "OK",
      "vis_m": 9999,
      "fzfg": false,
      "metar_trigger": false,
      "taf_trigger": false,
      "metar": "METAR LEBL 152300Z 34001KT 9999 FEW020 SCT040 14/11 Q1011 NOSIG",
      "taf": ""
    },
    {
      "icao": "LECH",
      "alert": "OK",
      "vis_m": 9999,
      "fzfg": false,
      "metar_trigger": false,
      "taf_trigger": false,
      "metar": "METAR LECH 152300Z AUTO 34011G24KT 270V070 CAVOK 12/01 Q1012",
      "taf": ""
    },
    {
      "icao": "LEMD",
      "alert": "OK",
      "vis_m": 9999,
      "fzfg": false,
      "metar_trigger": false,
      "taf_trigger": false,
      "metar": "METAR LEMD 152300Z VRB01KT CAVOK 08/01 Q1015 NOSIG",
      "taf": "TAF LEMD 151700Z 1518/1624 34010KT 9999 SCT030 TX21/1616Z TN05/1605Z"
    },
    {
      "icao": "LEMG",
      "alert": "OK",
      "vis_m": 9999,
      "fzfg": false,
      "metar_trigger": false,
      "taf_trigger": false,
      "metar": "METAR LEMG 152300Z 28007KT CAVOK 17/09 Q1013 NOSIG",
      "taf": "TAF LEMG 151700Z 1518/1618 29012KT 9999 FEW040 TX23/1614Z TN16/1607Z"
    },
    {
      "icao": "LEVC",
      "alert": "OK",
      "vis_m": 9999,
      "fzfg": false,
      "metar_trigger": false,
      "taf_trigger": false,
      "metar": "METAR LEVC 152300Z 32007KT CAVOK 14/02 Q1013 NOSIG",
      "taf": "TAF LEVC 151700Z 1518/1618 27008KT 9999 SCT050 TX23/1612Z TN09/1606Z"
    },
    {
      "icao": "LEXJ",
      "alert": "OK",
      "vis_m": 9999,
      "fzfg": false,
      "metar_trigger": false,
      "taf_trigger": false,
      "metar": "METAR LEXJ 152300Z AUTO 26007KT 230V290 9999 2800E -RA FEW032 SCT042 BKN058 10/08 Q1018",
      "taf": "TAF LEXJ 152000Z 1521/1621 28009KT 9999 SCT020 BKN045 TX17/1614Z TN10/1606Z"
    },
    {
      "icao": "LEZG",
      "alert": "OK",
      "vis_m": 9999,
      "fzfg": false,
      "metar_trigger": false,
      "taf_trigger": false,
      "metar": "METAR LEZG 152300Z 30012KT CAVOK 10/04 Q1015 NOSIG",
      "taf": "TAF LEZG 151700Z 1518/1618 32020KT 9999 FEW030 TX18/1618Z TN08/1605Z"
    },
    {
      "icao": "LEZL",
      "alert": "OK",
      "vis_m": 9999,
      "fzfg": false,
      "metar_trigger": false,
      "taf_trigger": false,
      "metar": "METAR LEZL 152300Z 20007KT 150V230 CAVOK 17/13 Q1013 NOSIG",
      "taf": "TAF LEZL 152000Z 1521/1621 20010KT CAVOK TX30/1615Z TN14/1607Z"
    },
    {
      "icao": "LFBD",
      "alert": "OK",
      "vis_m": 9999,
      "fzfg": false,
      "metar_trigger": false,
      "taf_trigger": false,
      "metar": "METAR LFBD 152300Z AUTO 24006KT 9999 BKN038/// BKN045/// BKN052/// ///CB 08/06 Q1013 TEMPO 4500 -SHRA",
      "taf": "TAF LFBD 151700Z 1518/1624 33010KT 9999 SCT040 TX16/1614Z TN07/1601Z"
    },
    {
      "icao": "LFLL",
      "alert": "OK",
      "vis_m": 9999,
      "fzfg": false,
      "metar_trigger": false,
      "taf_trigger": false,
      "metar": "METAR LFLL 152300Z 31002KT 9999 SCT043 06/04 Q1009 NOSIG",
      "taf": "TAF LFLL 151700Z 1518/1624 32004KT 9999 FEW025 SCT040"
    },
    {
      "icao": "LFLS",
      "alert": "OK",
      "vis_m": 9999,
      "fzfg": false,
      "metar_trigger": false,
      "taf_trigger": false,
      "metar": "METAR LFLS 152300Z AUTO VRB02KT 9999 FEW030 SCT035 BKN042 05/05 Q1009",
      "taf": "TAF LFLS 151400Z 1515/1615 36010KT 9999 SCT025TCU BKN035"
    },
    {
      "icao": "LFMN",
      "alert": "OK",
      "vis_m": 9999,
      "fzfg": false,
      "metar_trigger": false,
      "taf_trigger": false,
      "metar": "METAR LFMN 152300Z 07008KT 330V080 9999 FEW066 15/08 Q1001 NOSIG",
      "taf": "TAF LFMN 152000Z 1521/1703 07016KT CAVOK"
    },
    {
      "icao": "LFOB",
      "alert": "OK",
      "vis_m": 9999,
      "fzfg": false,
      "metar_trigger": false,
      "taf_trigger": false,
      "metar": "METAR LFOB 152300Z AUTO 24003KT CAVOK 07/06 Q1009 TEMPO 4000 -SHRA SCT020TCU",
      "taf": "TAF LFOB 151700Z 1518/1618 32008KT 9999 SCT030"
    },
    {
      "icao": "LFPO",
      "alert": "OK",
      "vis_m": 9999,
      "fzfg": false,
      "metar_trigger": false,
      "taf_trigger": false,
      "metar": "METAR LFPO 152300Z AUTO 22004KT 9999 ///TCU 08/07 Q1009 BECMG BKN040",
      "taf": "TAF LFPO 151700Z 1518/1624 32006KT 9999 BKN040"
    },
    {
      "icao": "LFSB",
      "alert": "OK",
      "vis_m": 9999,
      "fzfg": false,
      "metar_trigger": false,
      "taf_trigger": false,
      "metar": "METAR LFSB 152300Z AUTO 15003KT 9999 BKN052 BKN090 05/04 Q1007 NOSIG",
      "taf": ""
    },
    {
      "icao": "LGAV",
      "alert": "OK",
      "vis_m": 9999,
      "fzfg": false,
      "metar_trigger": false,
      "taf_trigger": false,
      "metar": "METAR LGAV 152250Z VRB02KT 9999 FEW030 18/11 Q1010 NOSIG",
      "taf": "TAF LGAV 152300Z 1600/1624 VRB03KT 9999 FEW025"
    },
    {
      "icao": "LGTS",
      "alert": "OK",
      "vis_m": 9999,
      "fzfg": false,
      "metar_trigger": false,
      "taf_trigger": false,
      "metar": "METAR LGTS 152250Z VRB02KT 9999 FEW020 15/13 Q1008 NOSIG",
      "taf": "TAF LGTS 152300Z 1600/1624 VRB03KT 9999 FEW030"
    },
    {
      "icao": "LHBP",
      "alert": "OK",
      "vis_m": 9999,
      "fzfg": false,
      "metar_trigger": false,
      "taf_trigger": false,
      "metar": "METAR LHBP 152300Z 06004KT 9999 -SHRA NSC 12/10 Q1001 BECMG SHRA",
      "taf": "TAF LHBP 151715Z 1518/1618 11005KT 9999 -RA NSC"
    },
    {
      "icao": "LHDC",
      "alert": "OK",
      "vis_m": 9999,
      "fzfg": false,
      "metar_trigger": false,
      "taf_trigger": false,
      "metar": "METAR LHDC 152245Z AUTO 12007KT 090V150 9999 -RA NSC 13/11 Q1003",
      "taf": "TAF LHDC 151415Z 1515/1524 18011KT CAVOK"
    },
    {
      "icao": "LIBD",
      "alert": "OK",
      "vis_m": 9999,
      "fzfg": false,
      "metar_trigger": false,
      "taf_trigger": false,
      "metar": "METAR LIBD 152250Z 20009KT CAVOK 17/14 Q1003",
      "taf": "TAF LIBD 151700Z 1518/1618 19013KT 9999 SCT040"
    },
    {
      "icao": "LIBG",
      "alert": "OK",
      "vis_m": null,
      "fzfg": false,
      "metar_trigger": false,
      "taf_trigger": false,
      "metar": "",
      "taf": "TAF LIBG 151400Z 1515/1524 16014KT 9999 FEW040"
    },
    {
      "icao": "LIBP",
      "alert": "OK",
      "vis_m": 9999,
      "fzfg": false,
      "metar_trigger": false,
      "taf_trigger": false,
      "metar": "METAR LIBP 152250Z AUTO 23010KT 9999 BKN084/// 19/08 Q1000",
      "taf": "TAF LIBP 151700Z 1518/1618 22015KT 9999 FEW020 SCT070"
    },
    {
      "icao": "LIBR",
      "alert": "OK",
      "vis_m": 9999,
      "fzfg": false,
      "metar_trigger": false,
      "taf_trigger": false,
      "metar": "METAR LIBR 152250Z 18013KT 9999 BKN020 19/16 Q1005",
      "taf": "TAF LIBR 151700Z 1518/1618 19015KT 9999 FEW040"
    },
    {
      "icao": "LICA",
      "alert": "OK",
      "vis_m": 9999,
      "fzfg": false,
      "metar_trigger": false,
      "taf_trigger": false,
      "metar": "METAR LICA 152250Z AUTO VRB02KT 9999 SCT059/// 16/14 Q1006",
      "taf": "TAF LICA 151700Z 1518/1618 08006KT 9999 SCT025"
    },
    {
      "icao": "LICC",
      "alert": "OK",
      "vis_m": 9999,
      "fzfg": false,
      "metar_trigger": false,
      "taf_trigger": false,
      "metar": "METAR LICC 152250Z 26012KT 9999 FEW090 SCT120 21/15 Q1007",
      "taf": "TAF LICC 151700Z 1518/1618 10010KT 9999 SCT050"
    },
    {
      "icao": "LICJ",
      "alert": "OK",
      "vis_m": 9999,
      "fzfg": false,
      "metar_trigger": false,
      "taf_trigger": false,
      "metar": "METAR LICJ 152250Z 19010KT CAVOK 21/09 Q1006",
      "taf": "TAF LICJ 151700Z 1518/1618 20012KT 9999 SCT040"
    },
    {
      "icao": "LIMC",
      "alert": "OK",
      "vis_m": 9999,
      "fzfg": false,
      "metar_trigger": false,
      "taf_trigger": false,
      "metar": "METAR LIMC 152250Z 02002KT CAVOK 09/08 Q1001 NOSIG",
      "taf": "TAF LIMC 151700Z 1518/1624 VRB05KT 9999 SCT050"
    },
    {
      "icao": "LIME",
      "alert": "OK",
      "vis_m": 9999,
      "fzfg": false,
      "metar_trigger": false,
      "taf_trigger": false,
      "metar": "METAR LIME 152250Z VRB02KT 9999 BKN015 11/08 Q1001 NOSIG",
      "taf": "TAF LIME 151700Z 1518/1618 12007KT 9999 SCT040"
    },
    {
      "icao": "LIMF",
      "alert": "OK",
      "vis_m": 9999,
      "fzfg": false,
      "metar_trigger": false,
      "taf_trigger": false,
      "metar": "METAR LIMF 152250Z 02002KT CAVOK 09/08 Q1001",
      "taf": "TAF LIMF 151700Z 1518/1618 VRB05KT 9999 SCT040"
    },
    {
      "icao": "LIMJ",
      "alert": "OK",
      "vis_m": 9999,
      "fzfg": false,
      "metar_trigger": false,
      "taf_trigger": false,
      "metar": "METAR LIMJ 152250Z AUTO 04008KT 9999 -DZ FEW058/// OVC092/// 11/08 Q1000",
      "taf": "TAF LIMJ 151700Z 1518/1618 03012KT 9999 FEW015 BKN040"
    },
    {
      "icao": "LIPE",
      "alert": "OK",
      "vis_m": 4000,
      "fzfg": false,
      "metar_trigger": false,
      "taf_trigger": false,
      "metar": "METAR LIPE 152250Z VRB02KT 4000 BR BKN004 BKN010 11/11 Q1001",
      "taf": "TAF LIPE 151700Z 1518/1618 VRB05KT 7000 BKN040"
    },
    {
      "icao": "LIPH",
      "alert": "OK",
      "vis_m": 4600,
      "fzfg": false,
      "metar_trigger": false,
      "taf_trigger": false,
      "metar": "METAR LIPH 152250Z AUTO VRB01KT 4600 1500E -RA BCFG FEW041/// SCT073/// BKN220/// 10/10 Q1001",
      "taf": "TAF LIPH 151700Z 1518/1618 VRB06KT 7000 SCT010 BKN045"
    },
    {
      "icao": "LIPQ",
      "alert": "OK",
      "vis_m": 9999,
      "fzfg": false,
      "metar_trigger": false,
      "taf_trigger": false,
      "metar": "METAR LIPQ 152250Z AUTO 06002KT 9999 BKN170/// 10/09 Q1001",
      "taf": "TAF LIPQ 151700Z 1518/1618 04008KT 8000 SCT020 BKN060"
    },
    {
      "icao": "LIPR",
      "alert": "OK",
      "vis_m": 9999,
      "fzfg": false,
      "metar_trigger": false,
      "taf_trigger": false,
      "metar": "METAR LIPR 152250Z AUTO 16003KT 130V210 9999 BKN120/// 12/11 Q1001",
      "taf": "TAF LIPR 151700Z 1518/1618 20010KT 8000 SCT040"
    },
    {
      "icao": "LIPX",
      "alert": "OK",
      "vis_m": 6000,
      "fzfg": false,
      "metar_trigger": false,
      "taf_trigger": false,
      "metar": "METAR LIPX 152250Z 20003KT 170V230 6000 -RA SCT007 BKN025 BKN050 11/10 Q1002",
      "taf": "TAF LIPX 151700Z 1518/1618 VRB05KT 9999 BKN030"
    },
    {
      "icao": "LIPY",
      "alert": "OK",
      "vis_m": 9999,
      "fzfg": false,
      "metar_trigger": false,
      "taf_trigger": false,
      "metar": "METAR LIPY 152250Z AUTO VRB02KT 9999 -RA OVC063/// 13/12 Q1001 RERA",
      "taf": "TAF LIPY 151700Z 1518/1618 34007KT 9999 BKN060"
    },
    {
      "icao": "LIPZ",
      "alert": "OK",
      "vis_m": 9999,
      "fzfg": false,
      "metar_trigger": false,
      "taf_trigger": false,
      "metar": "METAR LIPZ 152250Z 34003KT CAVOK 10/10 Q1001 NOSIG",
      "taf": "TAF LIPZ 151700Z 1518/1624 02007KT 9999 BKN040"
    },
    {
      "icao": "LIRF",
      "alert": "OK",
      "vis_m": 9999,
      "fzfg": false,
      "metar_trigger": false,
      "taf_trigger": false,
      "metar": "METAR LIRF 152250Z 22009KT 9999 -RA FEW010 15/13 Q1003 NOSIG",
      "taf": "TAF LIRF 151700Z 1518/1624 24012KT 9999 BKN030"
    },
    {
      "icao": "LIRN",
      "alert": "OK",
      "vis_m": 9999,
      "fzfg": false,
      "metar_trigger": false,
      "taf_trigger": false,
      "metar": "METAR LIRN 152250Z 18008KT 9999 FEW040 19/15 Q1004 NOSIG",
      "taf": "TAF LIRN 151700Z 1518/1618 21012KT 9999 BKN035"
    },
    {
      "icao": "LIRP",
      "alert": "OK",
      "vis_m": 9999,
      "fzfg": false,
      "metar_trigger": false,
      "taf_trigger": false,
      "metar": "METAR LIRP 152245Z 25006KT 9999 SCT030 14/09 Q1001 NOSIG",
      "taf": "TAF LIRP 151700Z 1518/1618 25010KT 9999 SCT020 SCT080"
    },
    {
      "icao": "LIRZ",
      "alert": "OK",
      "vis_m": 9999,
      "fzfg": false,
      "metar_trigger": false,
      "taf_trigger": false,
      "metar": "METAR LIRZ 152250Z AUTO 23003KT 170V300 9999 -RA FEW009/// BKN030/// 11/11 Q1002",
      "taf": "TAF LIRZ 151700Z 1518/1618 20012KT 9999 BKN030"
    },
    {
      "icao": "LJLJ",
      "alert": "OK",
      "vis_m": 9999,
      "fzfg": false,
      "metar_trigger": false,
      "taf_trigger": false,
      "metar": "METAR LJLJ 152300Z 28005KT 9999 FEW003 BKN050 OVC110 07/06 Q1001 NOSIG",
      "taf": "TAF LJLJ 152300Z 1600/1700 28003KT 9999 FEW003 BKN055"
    },
    {
      "icao": "LKMT",
      "alert": "OK",
      "vis_m": 9999,
      "fzfg": false,
      "metar_trigger": false,
      "taf_trigger": false,
      "metar": "METAR LKMT 152300Z 11002KT CAVOK 08/08 Q1002 NOSIG",
      "taf": "TAF LKMT 151700Z 1518/1618 22006KT 9999 SCT035"
    },
    {
      "icao": "LKPR",
      "alert": "OK",
      "vis_m": 9999,
      "fzfg": false,
      "metar_trigger": false,
      "taf_trigger": false,
      "metar": "METAR LKPR 152300Z 04004KT 010V090 CAVOK 09/06 Q1002 NOSIG",
      "taf": "TAF LKPR 152000Z 1521/1703 34006KT CAVOK"
    },
    {
      "icao": "LLBG",
      "alert": "OK",
      "vis_m": 9999,
      "fzfg": false,
      "metar_trigger": false,
      "taf_trigger": false,
      "metar": "METAR LLBG 152250Z 29010KT 9999 FEW023 SCT043 20/14 Q1010 NOSIG",
      "taf": "TAF LLBG 151703Z 1518/1618 28006KT 9999 SCT025 TX24/1610Z TN18/1604Z"
    },
    {
      "icao": "LMML",
      "alert": "OK",
      "vis_m": 9999,
      "fzfg": false,
      "metar_trigger": false,
      "taf_trigger": false,
      "metar": "METAR LMML 152245Z 17002KT CAVOK 20/16 Q1008 NOSIG",
      "taf": "TAF LMML 152300Z 1600/1624 VRB05KT 9999 FEW018"
    },
    {
      "icao": "LOWW",
      "alert": "OK",
      "vis_m": 7000,
      "fzfg": false,
      "metar_trigger": false,
      "taf_trigger": false,
      "metar": "METAR LOWW 152250Z 05003KT 020V080 7000 -RA FEW003 SCT012 BKN018 11/10 Q1001 TEMPO RA FEW003 BKN012",
      "taf": "TAF LOWW 152015Z 1521/1703 VRB04KT 9999 -RA FEW020 BKN040 TX10/1521Z TN09/1703Z"
    },
    {
      "icao": "LPFR",
      "alert": "OK",
      "vis_m": 9999,
      "fzfg": false,
      "metar_trigger": false,
      "taf_trigger": false,
      "metar": "METAR LPFR 152300Z 33013KT CAVOK 17/10 Q1015",
      "taf": "TAF LPFR 151700Z 1518/1618 32013KT CAVOK"
    },
    {
      "icao": "LPMA",
      "alert": "OK",
      "vis_m": 9999,
      "fzfg": false,
      "metar_trigger": false,
      "taf_trigger": false,
      "metar": "METAR LPMA 152300Z 01007KT 330V040 9999 SCT016 16/10 Q1023",
      "taf": "TAF LPMA 151700Z 1518/1618 01013KT 9999 SCT015"
    },
    {
      "icao": "LPPR",
      "alert": "OK",
      "vis_m": 9999,
      "fzfg": false,
      "metar_trigger": false,
      "taf_trigger": false,
      "metar": "METAR LPPR 152300Z 35008KT CAVOK 13/08 Q1018",
      "taf": "TAF LPPR 151700Z 1518/1618 33015KT 9999 SCT030"
    },
    {
      "icao": "LPPS",
      "alert": "OK",
      "vis_m": 9999,
      "fzfg": false,
      "metar_trigger": false,
      "taf_trigger": false,
      "metar": "METAR LPPS 152300Z 35006KT 9999 VCSH SCT012 SCT030 15/13 Q1024",
      "taf": "TAF LPPS 151700Z 1518/1624 01015KT 9999 SCT015"
    },
    {
      "icao": "LPPT",
      "alert": "OK",
      "vis_m": 9999,
      "fzfg": false,
      "metar_trigger": false,
      "taf_trigger": false,
      "metar": "METAR LPPT 152300Z 33006KT 270V360 9999 FEW018 13/10 Q1017",
      "taf": "TAF LPPT 151700Z 1518/1624 35015KT 9999 FEW035"
    },
    {
      "icao": "LQBK",
      "alert": "OK",
      "vis_m": 9999,
      "fzfg": false,
      "metar_trigger": false,
      "taf_trigger": false,
      "metar": "METAR LQBK 152300Z 30007KT 270V330 9999 RA SCT033 BKN043 13/11 Q1001 NOSIG",
      "taf": "TAF LQBK 152300Z 1600/1624 02006KT 9999 SCT030 BKN040 TX12/1600Z TN09/1700Z"
    },
    {
      "icao": "LQSA",
      "alert": "OK",
      "vis_m": 9999,
      "fzfg": false,
      "metar_trigger": false,
      "taf_trigger": false,
      "metar": "METAR LQSA 152300Z 18013G24KT 150V230 9999 -RA BKN055 16/07 Q1002",
      "taf": "TAF LQSA 152300Z 1600/1624 17006KT 9999 BKN050 TX16/1613Z TN10/1605Z"
    },
    {
      "icao": "LQTZ",
      "alert": "OK",
      "vis_m": 9999,
      "fzfg": false,
      "metar_trigger": false,
      "taf_trigger": false,
      "metar": "METAR LQTZ 152300Z 12004KT CAVOK 14/09 Q1001",
      "taf": "TAF LQTZ 152300Z 1600/1624 12006KT 9999 SCT040 TX19/1610Z TN07/1624Z"
    },
    {
      "icao": "LRBC",
      "alert": "OK",
      "vis_m": 9999,
      "fzfg": false,
      "metar_trigger": false,
      "taf_trigger": false,
      "metar": "METAR LRBC 152300Z 18008KT CAVOK 12/10 Q1006",
      "taf": "TAF LRBC 152000Z 1521/1606 17007KT CAVOK"
    },
    {
      "icao": "LRBS",
      "alert": "OK",
      "vis_m": 9999,
      "fzfg": false,
      "metar_trigger": false,
      "taf_trigger": false,
      "metar": "METAR LRBS 152300Z 04002KT CAVOK 14/08 Q1006 NOSIG",
      "taf": "TAF LRBS 151700Z 1518/1618 VRB04KT CAVOK"
    },
    {
      "icao": "LRBV",
      "alert": "OK",
      "vis_m": 9999,
      "fzfg": false,
      "metar_trigger": false,
      "taf_trigger": false,
      "metar": "METAR LRBV 152300Z AUTO 22011KT 9999 SCT190/// 12/07 Q1006",
      "taf": "TAF LRBV 151700Z 1518/1603 21008KT CAVOK"
    },
    {
      "icao": "LRCL",
      "alert": "OK",
      "vis_m": 9999,
      "fzfg": false,
      "metar_trigger": false,
      "taf_trigger": false,
      "metar": "METAR LRCL 152300Z 09003KT 060V140 CAVOK 12/09 Q1005",
      "taf": "TAF LRCL 152000Z 1521/1606 VRB04KT CAVOK"
    },
    {
      "icao": "LRCV",
      "alert": "OK",
      "vis_m": 9999,
      "fzfg": false,
      "metar_trigger": false,
      "taf_trigger": false,
      "metar": "METAR LRCV 152300Z 36004KT 320V020 CAVOK 13/10 Q1006",
      "taf": "TAF LRCV 152000Z 1521/1606 15006KT CAVOK"
    },
    {
      "icao": "LRIA",
      "alert": "OK",
      "vis_m": 9999,
      "fzfg": false,
      "metar_trigger": false,
      "taf_trigger": false,
      "metar": "METAR LRIA 152300Z 10007KT CAVOK 13/06 Q1006",
      "taf": "TAF LRIA 152000Z 1521/1606 VRB03KT CAVOK"
    },
    {
      "icao": "LROP",
      "alert": "OK",
      "vis_m": 9999,
      "fzfg": false,
      "metar_trigger": false,
      "taf_trigger": false,
      "metar": "METAR LROP 152300Z VRB02KT CAVOK 13/09 Q1006 NOSIG",
      "taf": "TAF LROP 151700Z 1518/1618 VRB04KT CAVOK"
    },
    {
      "icao": "LRSB",
      "alert": "OK",
      "vis_m": 9999,
      "fzfg": false,
      "metar_trigger": false,
      "taf_trigger": false,
      "metar": "METAR LRSB 152300Z 19005KT 160V250 CAVOK 15/07 Q1005",
      "taf": "TAF LRSB 151700Z 1518/1618 VRB04KT CAVOK"
    },
    {
      "icao": "LRSM",
      "alert": "OK",
      "vis_m": 9999,
      "fzfg": false,
      "metar_trigger": false,
      "taf_trigger": false,
      "metar": "METAR LRSM 152300Z AUTO VRB02KT 9999 -SHRA SCT075/// BKN090/// 13/11 Q1003",
      "taf": "TAF LRSM 151400Z 1515/1524 19008KT CAVOK"
    },
    {
      "icao": "LRSV",
      "alert": "OK",
      "vis_m": 9999,
      "fzfg": false,
      "metar_trigger": false,
      "taf_trigger": false,
      "metar": "METAR LRSV 152300Z 22010KT CAVOK 12/08 Q1005",
      "taf": "TAF LRSV 152000Z 1521/1606 14006KT CAVOK"
    },
    {
      "icao": "LRTM",
      "alert": "OK",
      "vis_m": 9999,
      "fzfg": false,
      "metar_trigger": false,
      "taf_trigger": false,
      "metar": "METAR LRTM 152300Z 08005KT CAVOK 11/09 Q1005",
      "taf": "TAF LRTM 152000Z 1521/1606 VRB04KT CAVOK"
    },
    {
      "icao": "LRTR",
      "alert": "OK",
      "vis_m": 9999,
      "fzfg": false,
      "metar_trigger": false,
      "taf_trigger": false,
      "metar": "METAR LRTR 152300Z 10007KT CAVOK 12/11 Q1003 NOSIG",
      "taf": "TAF LRTR 151700Z 1518/1618 16007KT CAVOK"
    },
    {
      "icao": "LTAC",
      "alert": "OK",
      "vis_m": 9999,
      "fzfg": false,
      "metar_trigger": false,
      "taf_trigger": false,
      "metar": "METAR LTAC 152250Z 19002KT CAVOK 06/04 Q1011 NOSIG RMK RWY21C VRB01KT RWY03L 18002KT RWY21R 00000KT RWY03R 00000KT RWY21L 18002KT",
      "taf": "TAF LTAC 152240Z 1600/1624 VRB02KT CAVOK"
    },
    {
      "icao": "LTFM",
      "alert": "OK",
      "vis_m": 9999,
      "fzfg": false,
      "metar_trigger": false,
      "taf_trigger": false,
      "metar": "METAR LTFM 152250Z 19008KT CAVOK 14/05 Q1009 NOSIG RMK RWY17L 20011G22KT RWY34L 20009KT RWY16R 19011KT RWY36 21006KT RWY18 20009KT",
      "taf": "TAF LTFM 152240Z 1600/1706 19010KT CAVOK"
    },
    {
      "icao": "LUKK",
      "alert": "OK",
      "vis_m": 9999,
      "fzfg": false,
      "metar_trigger": false,
      "taf_trigger": false,
      "metar": "METAR LUKK 152300Z 21005KT 180V240 CAVOK 12/08 Q1007 NOSIG",
      "taf": "TAF LUKK 151710Z 1518/1618 VRB05KT CAVOK"
    },
    {
      "icao": "LWOH",
      "alert": "OK",
      "vis_m": null,
      "fzfg": false,
      "metar_trigger": false,
      "taf_trigger": false,
      "metar": "",
      "taf": "TAF LWOH 152045Z 1521/1621 VRB02KT 9999 FEW040"
    },
    {
      "icao": "LWSK",
      "alert": "OK",
      "vis_m": 9999,
      "fzfg": false,
      "metar_trigger": false,
      "taf_trigger": false,
      "metar": "METAR LWSK 152250Z VRB02KT CAVOK 10/08 Q1007 NOSIG",
      "taf": "TAF LWSK 152045Z 1521/1621 VRB02KT 9999 FEW080"
    },
    {
      "icao": "LYBE",
      "alert": "OK",
      "vis_m": 9999,
      "fzfg": false,
      "metar_trigger": false,
      "taf_trigger": false,
      "metar": "METAR LYBE 152300Z 17009KT CAVOK 17/07 Q1002 NOSIG",
      "taf": "TAF LYBE 151700Z 1518/1618 17010KT CAVOK TX20/1612Z TN14/1604Z"
    },
    {
      "icao": "LYNI",
      "alert": "OK",
      "vis_m": 9999,
      "fzfg": false,
      "metar_trigger": false,
      "taf_trigger": false,
      "metar": "METAR LYNI 152300Z 00000KT CAVOK 15/07 Q1006 NOSIG",
      "taf": "TAF LYNI 151700Z 1518/1618 22010KT CAVOK TX21/1613Z TN10/1604Z"
    },
    {
      "icao": "LYPG",
      "alert": "OK",
      "vis_m": 9999,
      "fzfg": false,
      "metar_trigger": false,
      "taf_trigger": false,
      "metar": "METAR LYPG 152300Z 14005KT 100V170 9999 FEW030 SCT060 BKN080 18/11 Q1006 NOSIG",
      "taf": "TAF LYPG 151700Z 1518/1618 16008KT 9999 FEW027 BKN040 TX21/1613Z TN14/1604Z"
    },
    {
      "icao": "LZIB",
      "alert": "OK",
      "vis_m": 8000,
      "fzfg": false,
      "metar_trigger": false,
      "taf_trigger": false,
      "metar": "METAR LZIB 152300Z 08005KT 8000 RA FEW007 SCT017 BKN019 11/11 Q1001 TEMPO BKN012 OVC017",
      "taf": ""
    },
    {
      "icao": "LZKZ",
      "alert": "OK",
      "vis_m": 9999,
      "fzfg": false,
      "metar_trigger": false,
      "taf_trigger": false,
      "metar": "METAR LZKZ 152300Z VRB02KT CAVOK 11/11 Q1002 NOSIG",
      "taf": ""
    },
    {
      "icao": "LZTT",
      "alert": "OK",
      "vis_m": 9999,
      "fzfg": false,
      "metar_trigger": false,
      "taf_trigger": false,
      "metar": "METAR LZTT 152300Z VRB02KT 9999 FEW006 OVC026 08/08 Q1002",
      "taf": ""
    },
    {
      "icao": "OEJN",
      "alert": "OK",
      "vis_m": 9999,
      "fzfg": false,
      "metar_trigger": false,
      "taf_trigger": false,
      "metar": "METAR OEJN 152300Z 32004KT CAVOK 29/13 Q1004 NOSIG",
      "taf": "TAF OEJN 152300Z 1600/1706 01005KT CAVOK"
    },
    {
      "icao": "OEMA",
      "alert": "OK",
      "vis_m": 9999,
      "fzfg": false,
      "metar_trigger": false,
      "taf_trigger": false,
      "metar": "METAR OEMA 152300Z 29010KT CAVOK 33/M03 Q1009 NOSIG",
      "taf": "TAF OEMA 152300Z 1600/1706 VRB03KT CAVOK"
    },
    {
      "icao": "OJAI",
      "alert": "OK",
      "vis_m": 5000,
      "fzfg": false,
      "metar_trigger": false,
      "taf_trigger": false,
      "metar": "METAR OJAI 152300Z 28010KT 5000 HZ SCT020 14/11 Q1011 NOSIG",
      "taf": "TAF OJAI 152300Z 1600/1706 27014KT 5000 HZ SCT030"
    },
    {
      "icao": "OMAA",
      "alert": "OK",
      "vis_m": 9999,
      "fzfg": false,
      "metar_trigger": false,
      "taf_trigger": false,
      "metar": "METAR OMAA 152300Z 24005KT CAVOK 27/18 Q1001 NOSIG",
      "taf": "TAF OMAA 152300Z 1600/1706 22005KT 8000 NSC"
    },
    {
      "icao": "OMDB",
      "alert": "OK",
      "vis_m": 9999,
      "fzfg": false,
      "metar_trigger": false,
      "taf_trigger": false,
      "metar": "METAR OMDB 152300Z 19006KT 130V240 CAVOK 27/19 Q1000 NOSIG",
      "taf": "TAF OMDB 152300Z 1600/1706 20008KT CAVOK"
    },
    {
      "icao": "UAAA",
      "alert": "OK",
      "vis_m": 9999,
      "fzfg": false,
      "metar_trigger": false,
      "taf_trigger": false,
      "metar": "METAR UAAA 152300Z 24002MPS 210V270 9999 NSC 06/01 Q1014 NOSIG",
      "taf": "TAF UAAA 151701Z 1518/1618 24003MPS 9999 FEW100 TX23/1610Z TN05/1601Z"
    },
    {
      "icao": "UBBB",
      "alert": "OK",
      "vis_m": 2000,
      "fzfg": false,
      "metar_trigger": false,
      "taf_trigger": false,
      "metar": "METAR UBBB 152300Z 33008KT 2000 BR OVC001 14/14 Q1001 NOSIG",
      "taf": "TAF UBBB 152258Z 1600/1624 32010KT 3000 BR OVC003 TX21/1610Z TN14/1601Z"
    },
    {
      "icao": "UDSG",
      "alert": "OK",
      "vis_m": 9999,
      "fzfg": false,
      "metar_trigger": false,
      "taf_trigger": false,
      "metar": "METAR UDSG 152300Z 13002KT 9999 BKN046CB 07/06 Q1007 NOSIG",
      "taf": "TAF UDSG 151658Z 1518/1618 24006KT 9999 BKN040"
    },
    {
      "icao": "UDYZ",
      "alert": "OK",
      "vis_m": 9999,
      "fzfg": false,
      "metar_trigger": false,
      "taf_trigger": false,
      "metar": "METAR UDYZ 152300Z 09003KT 070V160 9999 -SHRA BKN043CB 13/10 Q1005 NOSIG",
      "taf": "TAF UDYZ 151700Z 1518/1618 07006KT 9999 SCT040"
    },
    {
      "icao": "UGKO",
      "alert": "OK",
      "vis_m": 3500,
      "fzfg": false,
      "metar_trigger": false,
      "taf_trigger": false,
      "metar": "METAR UGKO 152300Z 25009KT 3500 SHRA SCT004 BKN014CB OVC026 12/12 Q1009 NOSIG",
      "taf": "TAF UGKO 152300Z 1600/1624 26012KT 9999 BKN050 TX15/1612Z TN12/1602Z"
    }
  ]
}