{
  "ts_utc": "2026-01-26T18:16:55Z",
  "threshold_m": 150,
  "source": "stations_override.txt (ICAO list) + aviationweather.gov (METAR/TAF raw)",
  "station_count": 159,
  "stations": [
    {
      "icao": "BIKF",
      "alert": "OK",
      "vis_m": 9999,
      "fzfg": false,
      "metar_trigger": false,
      "taf_trigger": false,
      "metar": "METAR BIKF 261800Z 07028KT CAVOK 05/M03 Q0999",
      "taf": "TAF BIKF 261645Z 2618/2718 08022G32KT 9999 SCT045 TX06/2715Z TN02/2709Z"
    },
    {
      "icao": "BKPR",
      "alert": "OK",
      "vis_m": 9999,
      "fzfg": false,
      "metar_trigger": false,
      "taf_trigger": false,
      "metar": "METAR BKPR 261800Z 30009KT 9999 -RA SCT025 BKN040 07/05 Q0998 TEMPO 5000",
      "taf": "TAF BKPR 261730Z 2618/2718 33008KT 9999 SCT015 BKN030"
    },
    {
      "icao": "EBCI",
      "alert": "OK",
      "vis_m": 2800,
      "fzfg": false,
      "metar_trigger": false,
      "taf_trigger": false,
      "metar": "METAR EBCI 261750Z 08004KT 2800 BR SCT004 OVC005 01/M01 Q1003 NOSIG",
      "taf": "TAF EBCI 261722Z 2618/2724 14006KT 4000 BR BKN006"
    },
    {
      "icao": "EDDB",
      "alert": "OK",
      "vis_m": 4900,
      "fzfg": false,
      "metar_trigger": false,
      "taf_trigger": false,
      "metar": "METAR EDDB 261750Z AUTO 19004KT 4900 -SN BR BKN011 BKN022 M01/M02 Q0999 TEMPO 6000 BKN009",
      "taf": "TAF EDDB 261700Z 2618/2718 18005KT 7000 FEW012 BKN020"
    },
    {
      "icao": "EDDH",
      "alert": "OK",
      "vis_m": 9999,
      "fzfg": false,
      "metar_trigger": false,
      "taf_trigger": false,
      "metar": "METAR EDDH 261750Z AUTO 02007KT 330V060 9999 -DZ SCT007 BKN011 01/M00 Q1000 TEMPO 2500 SN BKN007",
      "taf": ""
    },
    {
      "icao": "EDDK",
      "alert": "OK",
      "vis_m": 4800,
      "fzfg": false,
      "metar_trigger": false,
      "taf_trigger": false,
      "metar": "METAR EDDK 261750Z AUTO 27006KT 4800 -SN BR OVC007 M00/M01 Q1003 NOSIG",
      "taf": "TAF EDDK 261700Z 2618/2724 VRB03KT 4000 BR BKN007"
    },
    {
      "icao": "EDDN",
      "alert": "OK",
      "vis_m": 2000,
      "fzfg": false,
      "metar_trigger": false,
      "taf_trigger": false,
      "metar": "METAR EDDN 261750Z AUTO 29003KT 2000 SN BR BKN003 M00/M01 Q1002 TEMPO 1200 SN OVC001",
      "taf": "TAF EDDN 261700Z 2618/2718 25005KT 2000 -SN BR OVC003"
    },
    {
      "icao": "EDDS",
      "alert": "OK",
      "vis_m": 9999,
      "fzfg": false,
      "metar_trigger": false,
      "taf_trigger": false,
      "metar": "METAR EDDS 261750Z AUTO 22004KT 190V270 9999 BKN021 OVC026 04/01 Q1002 NOSIG",
      "taf": "TAF EDDS 261700Z 2618/2718 25005KT 9999 BKN020"
    },
    {
      "icao": "EDFH",
      "alert": "OK",
      "vis_m": 9999,
      "fzfg": false,
      "metar_trigger": false,
      "taf_trigger": false,
      "metar": "METAR EDFH 261750Z 29010KT 9999 FEW007 SCT016 OVC019 01/M01 Q1001",
      "taf": "TAF EDFH 261700Z 2618/2718 27010KT 9999 BKN015"
    },
    {
      "icao": "EDJA",
      "alert": "OK",
      "vis_m": 9999,
      "fzfg": false,
      "metar_trigger": false,
      "taf_trigger": false,
      "metar": "METAR EDJA 261750Z 23011KT 9999 BKN040 02/00 Q1003",
      "taf": "TAF EDJA 261700Z 2618/2703 23012KT 9999 FEW030"
    },
    {
      "icao": "EDLW",
      "alert": "OK",
      "vis_m": 2900,
      "fzfg": false,
      "metar_trigger": false,
      "taf_trigger": false,
      "metar": "METAR EDLW 261750Z COR 26004KT 220V310 2900 -SN OVC003 00/M00 Q1002",
      "taf": "TAF EDLW 261700Z 2618/2718 24005KT 4000 BR BKN005"
    },
    {
      "icao": "EDNY",
      "alert": "OK",
      "vis_m": 9999,
      "fzfg": false,
      "metar_trigger": false,
      "taf_trigger": false,
      "metar": "METAR EDNY 261750Z 22009KT 9999 OVC041 05/02 Q1004",
      "taf": "TAF EDNY 261700Z 2618/2703 23007KT 9999 SCT035"
    },
    {
      "icao": "EDSB",
      "alert": "OK",
      "vis_m": 9999,
      "fzfg": false,
      "metar_trigger": false,
      "taf_trigger": false,
      "metar": "METAR EDSB 261750Z 22006KT 9999 BKN031 OVC035 06/03 Q1004",
      "taf": "TAF EDSB 261700Z 2618/2718 21007KT 6000 BKN020"
    },
    {
      "icao": "EETN",
      "alert": "OK",
      "vis_m": 9999,
      "fzfg": false,
      "metar_trigger": false,
      "taf_trigger": false,
      "metar": "METAR EETN 261750Z VRB02KT CAVOK M09/M11 Q1010 NOSIG",
      "taf": "TAF EETN 261730Z 2618/2718 VRB02KT 9999 SCT015"
    },
    {
      "icao": "EFTU",
      "alert": "OK",
      "vis_m": 9999,
      "fzfg": false,
      "metar_trigger": false,
      "taf_trigger": false,
      "metar": "METAR EFTU 261750Z AUTO 04008KT 010V070 9999 OVC007 M07/M09 Q1012",
      "taf": "TAF EFTU 261736Z 2618/2718 01004KT 9999 BKN006"
    },
    {
      "icao": "EGBB",
      "alert": "OK",
      "vis_m": 6000,
      "fzfg": false,
      "metar_trigger": false,
      "taf_trigger": false,
      "metar": "METAR EGBB 261750Z 11011KT 6000 BKN010 04/02 Q0998",
      "taf": "TAF EGBB 261703Z 2618/2718 12009KT 6000 BKN010"
    },
    {
      "icao": "EGGP",
      "alert": "OK",
      "vis_m": 6000,
      "fzfg": false,
      "metar_trigger": false,
      "taf_trigger": false,
      "metar": "METAR EGGP 261750Z 12014KT 6000 VCSH BKN014 OVC030 04/01 Q0998",
      "taf": "TAF EGGP 261656Z 2618/2718 12010KT 9999 SCT015 BKN020"
    },
    {
      "icao": "EGGW",
      "alert": "OK",
      "vis_m": 3800,
      "fzfg": false,
      "metar_trigger": false,
      "taf_trigger": false,
      "metar": "METAR EGGW 261750Z AUTO 12010KT 3800 HZ OVC006 03/02 Q0999",
      "taf": ""
    },
    {
      "icao": "EGKK",
      "alert": "OK",
      "vis_m": 7000,
      "fzfg": false,
      "metar_trigger": false,
      "taf_trigger": false,
      "metar": "METAR EGKK 261750Z 10008KT 7000 FEW012 BKN019 06/04 Q0999",
      "taf": "TAF EGKK 261653Z 2618/2724 11009KT 9999 SCT020"
    },
    {
      "icao": "EGNM",
      "alert": "OK",
      "vis_m": 6000,
      "fzfg": false,
      "metar_trigger": false,
      "taf_trigger": false,
      "metar": "METAR EGNM 261750Z 10010KT 6000 BKN008 01/00 Q0999",
      "taf": "TAF EGNM 261657Z 2618/2718 11008KT 6000 SCT007 BKN010"
    },
    {
      "icao": "EGPD",
      "alert": "OK",
      "vis_m": 9999,
      "fzfg": false,
      "metar_trigger": false,
      "taf_trigger": false,
      "metar": "METAR EGPD 261750Z AUTO 13016KT 9999 BKN018 BKN023 BKN029 05/01 Q1002 TEMPO BKN012",
      "taf": "TAF EGPD 261659Z 2618/2718 13016G28KT 9999 SCT016 BKN030"
    },
    {
      "icao": "EGPF",
      "alert": "OK",
      "vis_m": 9999,
      "fzfg": false,
      "metar_trigger": false,
      "taf_trigger": false,
      "metar": "METAR EGPF 261750Z AUTO 11010KT 9999 OVC025/// //////TCU 05/00 Q0997",
      "taf": "TAF EGPF 261702Z 2618/2718 08011KT 9999 FEW018 SCT030"
    },
    {
      "icao": "EHBK",
      "alert": "OK",
      "vis_m": 4500,
      "fzfg": false,
      "metar_trigger": false,
      "taf_trigger": false,
      "metar": "METAR EHBK 261755Z AUTO 23006KT 4500 BR OVC004/// M01/M01 Q1004 NOSIG",
      "taf": "TAF EHBK 261718Z 2618/2724 30003KT 6000 SCT008"
    },
    {
      "icao": "EHEH",
      "alert": "OK",
      "vis_m": null,
      "fzfg": false,
      "metar_trigger": false,
      "taf_trigger": false,
      "metar": "",
      "taf": "TAF EHEH 261754Z 2618/2724 24005KT 4000 BR BKN007"
    },
    {
      "icao": "EKBI",
      "alert": "OK",
      "vis_m": 9999,
      "fzfg": false,
      "metar_trigger": false,
      "taf_trigger": false,
      "metar": "METAR EKBI 261750Z AUTO 04012KT 010V070 9999 OVC011/// M02/M04 Q1005",
      "taf": "TAF EKBI 261727Z 2618/2718 05015KT 9999 BKN018"
    },
    {
      "icao": "EKCH",
      "alert": "OK",
      "vis_m": 2000,
      "fzfg": false,
      "metar_trigger": false,
      "taf_trigger": false,
      "metar": "METAR EKCH 261750Z 04014KT 2000 -SN OVC010 M01/M01 Q1005 TEMPO 1200 BKN008",
      "taf": "TAF EKCH 261727Z 2618/2718 05015KT 1200 SN BKN008"
    },
    {
      "icao": "ENAL",
      "alert": "OK",
      "vis_m": 9999,
      "fzfg": false,
      "metar_trigger": false,
      "taf_trigger": false,
      "metar": "METAR ENAL 261750Z 19004KT CAVOK M06/M07 Q1011",
      "taf": "TAF ENAL 261700Z 2618/2703 15005KT CAVOK"
    },
    {
      "icao": "ENBR",
      "alert": "OK",
      "vis_m": 9999,
      "fzfg": false,
      "metar_trigger": false,
      "taf_trigger": false,
      "metar": "METAR ENBR 261750Z 07002KT CAVOK M06/M10 Q1010 NOSIG RMK WIND 1200FT VRB02KT",
      "taf": "TAF ENBR 261700Z 2618/2718 07004KT CAVOK"
    },
    {
      "icao": "ENGM",
      "alert": "OK",
      "vis_m": 9999,
      "fzfg": false,
      "metar_trigger": false,
      "taf_trigger": false,
      "metar": "METAR ENGM 261750Z VRB01KT CAVOK M13/M15 Q1014 NOSIG",
      "taf": "TAF ENGM 261700Z 2618/2718 36008KT 9999 SCT030"
    },
    {
      "icao": "ENHD",
      "alert": "OK",
      "vis_m": 9999,
      "fzfg": false,
      "metar_trigger": false,
      "taf_trigger": false,
      "metar": "METAR ENHD 261750Z /////KT CAVOK M07/M11 Q1010 RMK WIND RWY 31 00000KT",
      "taf": "TAF ENHD 261400Z 2615/2623 12005KT CAVOK"
    },
    {
      "icao": "ENTC",
      "alert": "OK",
      "vis_m": 9999,
      "fzfg": false,
      "metar_trigger": false,
      "taf_trigger": false,
      "metar": "METAR ENTC 261750Z VRB02KT 9999 BKN048 M04/M06 Q1011 NOSIG RMK WIND 2600FT 35014KT",
      "taf": "TAF ENTC 261700Z 2618/2718 18003KT 9999 FEW020 BKN045"
    },
    {
      "icao": "ENTO",
      "alert": "OK",
      "vis_m": 9999,
      "fzfg": false,
      "metar_trigger": false,
      "taf_trigger": false,
      "metar": "METAR ENTO 261750Z 02006KT CAVOK M10/M13 Q1014 NOSIG",
      "taf": "TAF ENTO 261700Z 2618/2718 01008KT CAVOK"
    },
    {
      "icao": "ENVA",
      "alert": "OK",
      "vis_m": 9999,
      "fzfg": false,
      "metar_trigger": false,
      "taf_trigger": false,
      "metar": "METAR ENVA 261750Z 08004KT CAVOK M10/M12 Q1013 NOSIG RMK WIND 670FT 12006KT",
      "taf": "TAF ENVA 261700Z 2618/2718 11008KT CAVOK"
    },
    {
      "icao": "ENZV",
      "alert": "OK",
      "vis_m": 9999,
      "fzfg": false,
      "metar_trigger": false,
      "taf_trigger": false,
      "metar": "METAR ENZV 261750Z 19007KT CAVOK M06/M13 Q1010 NOSIG",
      "taf": "TAF ENZV 261700Z 2618/2718 13006KT CAVOK"
    },
    {
      "icao": "EPGD",
      "alert": "OK",
      "vis_m": 2000,
      "fzfg": false,
      "metar_trigger": false,
      "taf_trigger": false,
      "metar": "METAR EPGD 261800Z 09003KT 2000 -SG BR OVC003 M03/M03 Q1002",
      "taf": "TAF EPGD 261730Z 2618/2718 11004KT 2500 BR OVC003"
    },
    {
      "icao": "EPKK",
      "alert": "OK",
      "vis_m": 3500,
      "fzfg": false,
      "metar_trigger": false,
      "taf_trigger": false,
      "metar": "METAR EPKK 261800Z VRB01KT 3500 BR NSC 00/M01 Q1001",
      "taf": "TAF EPKK 261730Z 2618/2718 25004KT 6000 NSC"
    },
    {
      "icao": "EPKT",
      "alert": "OK",
      "vis_m": 8000,
      "fzfg": false,
      "metar_trigger": false,
      "taf_trigger": false,
      "metar": "METAR EPKT 261800Z 24009KT 8000 NSC 01/00 Q1001",
      "taf": "TAF EPKT 261730Z 2618/2718 25003KT 4000 BR NSC"
    },
    {
      "icao": "EPLB",
      "alert": "OK",
      "vis_m": 9999,
      "fzfg": false,
      "metar_trigger": false,
      "taf_trigger": false,
      "metar": "METAR EPLB 261800Z 13005KT 9999 FEW007 02/01 Q1002",
      "taf": "TAF EPLB 261730Z 2618/2718 VRB03KT 9999 BKN035"
    },
    {
      "icao": "EPMO",
      "alert": "OK",
      "vis_m": 6000,
      "fzfg": false,
      "metar_trigger": false,
      "taf_trigger": false,
      "metar": "METAR EPMO 261800Z 12004KT 6000 BKN012 00/M00 Q1001",
      "taf": "TAF EPMO 261730Z 2618/2718 VRB02KT 4000 BR SCT012 BKN020"
    },
    {
      "icao": "EPPO",
      "alert": "OK",
      "vis_m": 1100,
      "fzfg": false,
      "metar_trigger": false,
      "taf_trigger": false,
      "metar": "METAR EPPO 261800Z 12006KT 1100 R28/P2000D BR OVC001 01/01 Q1000",
      "taf": "TAF EPPO 261730Z 2618/2718 11004KT 0200 FG OVC001"
    },
    {
      "icao": "EPRA",
      "alert": "OK",
      "vis_m": 9999,
      "fzfg": false,
      "metar_trigger": false,
      "taf_trigger": false,
      "metar": "METAR EPRA 261800Z 16003KT 120V180 CAVOK 01/00 Q1001",
      "taf": "TAF EPRA 261730Z 2618/2703 17006KT 8000 BKN040"
    },
    {
      "icao": "EPRZ",
      "alert": "OK",
      "vis_m": 4400,
      "fzfg": false,
      "metar_trigger": false,
      "taf_trigger": false,
      "metar": "METAR EPRZ 261800Z 07007KT 4400 -RA BR FEW007 OVC030 01/01 Q1002",
      "taf": "TAF EPRZ 261730Z 2618/2718 06004KT 9999 BKN040"
    },
    {
      "icao": "EPSC",
      "alert": "OK",
      "vis_m": 2600,
      "fzfg": false,
      "metar_trigger": false,
      "taf_trigger": false,
      "metar": "METAR EPSC 261800Z 11006KT 2600 BR OVC003 M01/M01 Q1000",
      "taf": "TAF EPSC 261730Z 2618/2718 12004KT 2000 BR OVC003"
    },
    {
      "icao": "EPSY",
      "alert": "OK",
      "vis_m": 2500,
      "fzfg": false,
      "metar_trigger": false,
      "taf_trigger": false,
      "metar": "METAR EPSY 261800Z VRB02KT 2500 BR OVC001 M02/M02 Q1002",
      "taf": "TAF EPSY 261730Z 2618/2703 10004KT 3000 BR OVC002"
    },
    {
      "icao": "EPWA",
      "alert": "OK",
      "vis_m": 9000,
      "fzfg": false,
      "metar_trigger": false,
      "taf_trigger": false,
      "metar": "METAR EPWA 261800Z 14005KT 9000 BKN020 01/M00 Q1001 NOSIG",
      "taf": "TAF EPWA 261730Z 2618/2718 VRB02KT 8000 SCT012 BKN020"
    },
    {
      "icao": "EPWR",
      "alert": "OK",
      "vis_m": 9999,
      "fzfg": false,
      "metar_trigger": false,
      "taf_trigger": false,
      "metar": "METAR EPWR 261800Z 14003KT 9999 BKN048 02/M01 Q1000",
      "taf": "TAF EPWR 261730Z 2618/2718 26003KT 9999 BKN040"
    },
    {
      "icao": "ESGG",
      "alert": "OK",
      "vis_m": 9999,
      "fzfg": false,
      "metar_trigger": false,
      "taf_trigger": false,
      "metar": "METAR ESGG 261750Z 04010KT 9999 OVC027 M05/M08 Q1008",
      "taf": "TAF ESGG 261730Z 2618/2718 05010KT 9999 OVC020"
    },
    {
      "icao": "ESKN",
      "alert": "OK",
      "vis_m": 9999,
      "fzfg": false,
      "metar_trigger": false,
      "taf_trigger": false,
      "metar": "METAR ESKN 261750Z 01007KT 330V030 CAVOK M07/M10 Q1012",
      "taf": "TAF ESKN 261730Z 2618/2718 02006KT CAVOK"
    },
    {
      "icao": "ESMS",
      "alert": "OK",
      "vis_m": 2400,
      "fzfg": false,
      "metar_trigger": false,
      "taf_trigger": false,
      "metar": "METAR ESMS 261750Z 06016KT 2400 -SN SCT009 OVC013 M00/M01 Q1003",
      "taf": "TAF ESMS 261727Z 2618/2718 06012KT 1200 SN BKN008"
    },
    {
      "icao": "ESSA",
      "alert": "OK",
      "vis_m": 9999,
      "fzfg": false,
      "metar_trigger": false,
      "taf_trigger": false,
      "metar": "METAR ESSA 261750Z 32006KT 9999 BKN013 M07/M09 Q1013 TEMPO BKN016",
      "taf": "TAF ESSA 261730Z 2618/2718 31005KT 9999 BKN016"
    },
    {
      "icao": "EYKA",
      "alert": "OK",
      "vis_m": 4000,
      "fzfg": false,
      "metar_trigger": false,
      "taf_trigger": false,
      "metar": "METAR EYKA 261750Z 09005KT 4000 -FZRA -SN BKN007 OVC021 M04/M05 Q1006",
      "taf": "TAF EYKA 261709Z 2618/2718 VRB04KT 3000 -FZRA -SN OVC005"
    },
    {
      "icao": "EYPA",
      "alert": "OK",
      "vis_m": 3600,
      "fzfg": false,
      "metar_trigger": false,
      "taf_trigger": false,
      "metar": "METAR EYPA 261750Z 07008KT 040V100 3600 SN FEW012 OVC033 M06/M09 Q1006",
      "taf": "TAF EYPA 261708Z 2618/2718 07012KT 3000 SN BKN005 OVC010"
    },
    {
      "icao": "EYVI",
      "alert": "OK",
      "vis_m": 6000,
      "fzfg": false,
      "metar_trigger": false,
      "taf_trigger": false,
      "metar": "METAR EYVI 261750Z 14007KT 6000 -FZRA OVC005 M05/M06 Q1005 NOSIG",
      "taf": "TAF EYVI 261710Z 2618/2718 VRB04KT 3000 -FZRA SN OVC005"
    },
    {
      "icao": "GCFV",
      "alert": "OK",
      "vis_m": 9999,
      "fzfg": false,
      "metar_trigger": false,
      "taf_trigger": false,
      "metar": "METAR GCFV 261800Z 14003KT 110V190 9999 SCT035 18/10 Q1023",
      "taf": "TAF GCFV 261400Z 2615/2715 27005KT CAVOK TX22/2714Z TN12/2706Z"
    },
    {
      "icao": "GCLP",
      "alert": "OK",
      "vis_m": 9999,
      "fzfg": false,
      "metar_trigger": false,
      "taf_trigger": false,
      "metar": "METAR GCLP 261800Z 14003KT 070V240 9999 BKN033 18/11 Q1023 NOSIG",
      "taf": "TAF GCLP 261400Z 2615/2715 13005KT 9999 SCT035 TX22/2714Z TN12/2706Z"
    },
    {
      "icao": "GCTS",
      "alert": "OK",
      "vis_m": 9999,
      "fzfg": false,
      "metar_trigger": false,
      "taf_trigger": false,
      "metar": "METAR GCTS 261800Z 25010KT 9999 SCT032 19/10 Q1023 NOSIG",
      "taf": "TAF GCTS 261400Z 2615/2715 22010KT 9999 SCT035 TX22/2714Z TN14/2706Z"
    },
    {
      "icao": "GMAD",
      "alert": "OK",
      "vis_m": 9999,
      "fzfg": false,
      "metar_trigger": false,
      "taf_trigger": false,
      "metar": "METAR GMAD 261800Z 26009KT 9999 FEW020 15/12 Q1021 NOSIG",
      "taf": "TAF GMAD 261700Z 2618/2724 20008KT 8000 NSC"
    },
    {
      "icao": "GMMN",
      "alert": "OK",
      "vis_m": 9999,
      "fzfg": false,
      "metar_trigger": false,
      "taf_trigger": false,
      "metar": "METAR GMMN 261800Z 24005KT 9999 BKN026 15/13 Q1021 NOSIG",
      "taf": "TAF GMMN 261700Z 2618/2724 22008KT 9999 BKN026"
    },
    {
      "icao": "GMMX",
      "alert": "OK",
      "vis_m": 9999,
      "fzfg": false,
      "metar_trigger": false,
      "taf_trigger": false,
      "metar": "METAR GMMX 261800Z VRB02KT CAVOK 16/08 Q1021 NOSIG",
      "taf": "TAF GMMX 261700Z 2618/2724 24006KT 8000 NSC"
    },
    {
      "icao": "HEGN",
      "alert": "OK",
      "vis_m": 9999,
      "fzfg": false,
      "metar_trigger": false,
      "taf_trigger": false,
      "metar": "METAR HEGN 261700Z 10003KT CAVOK 21/12 Q1015 NOSIG",
      "taf": "TAF HEGN 261700Z 2618/2724 11010KT CAVOK"
    },
    {
      "icao": "HEMA",
      "alert": "OK",
      "vis_m": 6000,
      "fzfg": false,
      "metar_trigger": false,
      "taf_trigger": false,
      "metar": "METAR HEMA 261700Z 16003KT 6000 NSC 21/13 Q1015 NOSIG",
      "taf": "TAF HEMA 261700Z 2618/2724 10010KT 6000 NSC"
    },
    {
      "icao": "HESH",
      "alert": "OK",
      "vis_m": 9999,
      "fzfg": false,
      "metar_trigger": false,
      "taf_trigger": false,
      "metar": "METAR HESH 261700Z 17004KT CAVOK 21/11 Q1015 NOSIG",
      "taf": "TAF HESH 261700Z 2618/2724 16010KT CAVOK"
    },
    {
      "icao": "HESX",
      "alert": "OK",
      "vis_m": 9999,
      "fzfg": false,
      "metar_trigger": false,
      "taf_trigger": false,
      "metar": "METAR HESX 261700Z 22010KT CAVOK 18/03 Q1014 NOSIG",
      "taf": "TAF HESX 261700Z 2618/2724 22009KT CAVOK"
    },
    {
      "icao": "LATI",
      "alert": "OK",
      "vis_m": null,
      "fzfg": false,
      "metar_trigger": false,
      "taf_trigger": false,
      "metar": "",
      "taf": "TAF LATI 261700Z 2618/2718 VRB05KT 9999 SCT040 BKN080 TX14/2712Z TN06/2705Z"
    },
    {
      "icao": "LBPD",
      "alert": "OK",
      "vis_m": 6000,
      "fzfg": false,
      "metar_trigger": false,
      "taf_trigger": false,
      "metar": "METAR LBPD 261800Z AUTO VRB02KT 6000 RA BKN055/// OVC064/// 07/07 Q0998 NOSIG",
      "taf": "TAF LBPD 261700Z 2618/2718 11008KT 7000 SCT015 BKN040"
    },
    {
      "icao": "LBSF",
      "alert": "OK",
      "vis_m": 4200,
      "fzfg": false,
      "metar_trigger": false,
      "taf_trigger": false,
      "metar": "METAR LBSF 261800Z AUTO VRB01KT 4200 RA FEW023/// BKN026/// OVC034/// 07/06 Q0997 TEMPO 1200 RA BR",
      "taf": "TAF LBSF 261700Z 2618/2718 VRB04KT 6000 RA SCT012 OVC025"
    },
    {
      "icao": "LBWN",
      "alert": "OK",
      "vis_m": 9999,
      "fzfg": false,
      "metar_trigger": false,
      "taf_trigger": false,
      "metar": "METAR LBWN 261800Z AUTO 08009KT 9999 BKN012/// 09/09 Q1003 TEMPO 5000 RA",
      "taf": "TAF LBWN 261700Z 2618/2718 10010KT 9999 SCT015 BKN040"
    },
    {
      "icao": "LCLK",
      "alert": "OK",
      "vis_m": 9999,
      "fzfg": false,
      "metar_trigger": false,
      "taf_trigger": false,
      "metar": "METAR LCLK 261800Z 11013KT 9999 FEW030 17/14 Q1013 NOSIG",
      "taf": "TAF LCLK 261730Z 2618/2718 10013KT 9999 FEW020"
    },
    {
      "icao": "LCPH",
      "alert": "OK",
      "vis_m": 9999,
      "fzfg": false,
      "metar_trigger": false,
      "taf_trigger": false,
      "metar": "METAR LCPH 261800Z 11010KT 090V160 CAVOK 16/12 Q1012 NOSIG",
      "taf": "TAF LCPH 261730Z 2618/2718 11015KT 9999 FEW030"
    },
    {
      "icao": "LEAL",
      "alert": "OK",
      "vis_m": 9999,
      "fzfg": false,
      "metar_trigger": false,
      "taf_trigger": false,
      "metar": "METAR LEAL 261800Z 24004KT CAVOK 16/13 Q1010 NOSIG",
      "taf": "TAF LEAL 261700Z 2618/2718 27007KT 9999 FEW040 TX20/2712Z TN11/2706Z"
    },
    {
      "icao": "LEBB",
      "alert": "OK",
      "vis_m": 9999,
      "fzfg": false,
      "metar_trigger": false,
      "taf_trigger": false,
      "metar": "METAR LEBB 261800Z VRB03KT 9999 FEW025 12/09 Q1001 NOSIG",
      "taf": "TAF LEBB 261700Z 2618/2718 20009KT 9999 FEW020 BKN035 TX16/2623Z TN11/2709Z"
    },
    {
      "icao": "LEBL",
      "alert": "OK",
      "vis_m": 9999,
      "fzfg": false,
      "metar_trigger": false,
      "taf_trigger": false,
      "metar": "METAR LEBL 261800Z 27005KT 220V310 9999 FEW030TCU 13/05 Q1007 NOSIG",
      "taf": "TAF LEBL 261700Z 2618/2718 27010KT 9999 FEW055 TX16/2712Z TN09/2706Z"
    },
    {
      "icao": "LECH",
      "alert": "OK",
      "vis_m": 9999,
      "fzfg": false,
      "metar_trigger": false,
      "taf_trigger": false,
      "metar": "METAR LECH 261800Z AUTO 03004KT CAVOK 10/08 Q1008",
      "taf": ""
    },
    {
      "icao": "LEMD",
      "alert": "OK",
      "vis_m": 5000,
      "fzfg": false,
      "metar_trigger": false,
      "taf_trigger": false,
      "metar": "METAR LEMD 261800Z 33001KT 5000 BR FEW001 SCT009 BKN014 09/09 Q1009 NOSIG",
      "taf": "TAF LEMD 261700Z 2618/2724 23010KT 9999 SCT020 TX11/2620Z TN09/2703Z"
    },
    {
      "icao": "LEMG",
      "alert": "OK",
      "vis_m": 9999,
      "fzfg": false,
      "metar_trigger": false,
      "taf_trigger": false,
      "metar": "METAR LEMG 261800Z 27001KT 9999 BKN050 16/12 Q1015 NOSIG",
      "taf": "TAF LEMG 261700Z 2618/2718 30009KT 9999 FEW040 TX19/2714Z TN10/2707Z"
    },
    {
      "icao": "LEVC",
      "alert": "OK",
      "vis_m": 9999,
      "fzfg": false,
      "metar_trigger": false,
      "taf_trigger": false,
      "metar": "METAR LEVC 261800Z 24010KT 9999 SCT055 17/09 Q1008 NOSIG",
      "taf": "TAF LEVC 261700Z 2618/2718 23009KT 9999 FEW040 TX20/2712Z TN11/2706Z"
    },
    {
      "icao": "LEXJ",
      "alert": "OK",
      "vis_m": 9999,
      "fzfg": false,
      "metar_trigger": false,
      "taf_trigger": false,
      "metar": "METAR LEXJ 261800Z 21013G24KT 170V250 CAVOK 15/07 Q0998",
      "taf": "TAF LEXJ 261400Z 2615/2715 23009KT 9999 SCT060 TX16/2621Z TN10/2709Z"
    },
    {
      "icao": "LEZG",
      "alert": "OK",
      "vis_m": 9999,
      "fzfg": false,
      "metar_trigger": false,
      "taf_trigger": false,
      "metar": "METAR LEZG 261800Z 10007KT 9999 -RA BKN050 BKN060 09/09 Q1007 NOSIG",
      "taf": "TAF LEZG 261700Z 2618/2718 12008KT 9999 FEW040 TX15/2714Z TN08/2706Z"
    },
    {
      "icao": "LEZL",
      "alert": "OK",
      "vis_m": 9999,
      "fzfg": false,
      "metar_trigger": false,
      "taf_trigger": false,
      "metar": "METAR LEZL 261800Z 24010KT 210V280 9999 SCT020 17/15 Q1015 NOSIG",
      "taf": "TAF LEZL 261400Z 2615/2715 24010KT 9999 FEW015 SCT030 TX19/2615Z TN11/2707Z"
    },
    {
      "icao": "LFBD",
      "alert": "OK",
      "vis_m": 9999,
      "fzfg": false,
      "metar_trigger": false,
      "taf_trigger": false,
      "metar": "METAR LFBD 261800Z AUTO 15010KT 9999 OVC036 10/07 Q1001 NOSIG",
      "taf": "TAF LFBD 261700Z 2618/2724 15010KT CAVOK TX11/2714Z TN07/2724Z"
    },
    {
      "icao": "LFLL",
      "alert": "OK",
      "vis_m": 9999,
      "fzfg": false,
      "metar_trigger": false,
      "taf_trigger": false,
      "metar": "METAR LFLL 261800Z 15004KT CAVOK 05/01 Q1006 NOSIG",
      "taf": "TAF LFLL 261700Z 2618/2724 16005KT CAVOK"
    },
    {
      "icao": "LFLS",
      "alert": "OK",
      "vis_m": 9999,
      "fzfg": false,
      "metar_trigger": false,
      "taf_trigger": false,
      "metar": "METAR LFLS 261800Z AUTO 11005KT CAVOK 00/M02 Q1006 NOSIG",
      "taf": "TAF LFLS 261400Z 2615/2715 36006KT 9999 SCT035"
    },
    {
      "icao": "LFMN",
      "alert": "OK",
      "vis_m": 9999,
      "fzfg": false,
      "metar_trigger": false,
      "taf_trigger": false,
      "metar": "METAR LFMN 261800Z 27007KT 250V330 CAVOK 11/05 Q1005 BECMG 34010KT",
      "taf": "TAF LFMN 261400Z 2615/2721 21010KT CAVOK"
    },
    {
      "icao": "LFOB",
      "alert": "OK",
      "vis_m": 9999,
      "fzfg": false,
      "metar_trigger": false,
      "taf_trigger": false,
      "metar": "METAR LFOB 261800Z AUTO 14005KT 9999 BKN021 BKN027 OVC041 07/05 Q1002 BECMG OVC011",
      "taf": "TAF LFOB 261700Z 2618/2718 14008KT 9999 BKN025 OVC035"
    },
    {
      "icao": "LFPO",
      "alert": "OK",
      "vis_m": 9999,
      "fzfg": false,
      "metar_trigger": false,
      "taf_trigger": false,
      "metar": "METAR LFPO 261800Z 18008KT 9999 BKN014 06/04 Q1002 NOSIG",
      "taf": "TAF LFPO 261700Z 2618/2724 19010KT 9999 SCT016 BKN030"
    },
    {
      "icao": "LFSB",
      "alert": "OK",
      "vis_m": 9999,
      "fzfg": false,
      "metar_trigger": false,
      "taf_trigger": false,
      "metar": "METAR LFSB 261800Z AUTO 20006KT 9999 BKN050 06/01 Q1005 NOSIG",
      "taf": "TAF LFSB 261700Z 2618/2718 VRB03KT 9999 BKN050"
    },
    {
      "icao": "LGAV",
      "alert": "OK",
      "vis_m": 9999,
      "fzfg": false,
      "metar_trigger": false,
      "taf_trigger": false,
      "metar": "METAR LGAV 261750Z 25009KT 9999 FEW015TCU SCT025 BKN070 11/07 Q1000 NOSIG",
      "taf": "TAF LGAV 261700Z 2618/2718 23012KT 9999 SCT025"
    },
    {
      "icao": "LGTS",
      "alert": "OK",
      "vis_m": 9999,
      "fzfg": false,
      "metar_trigger": false,
      "taf_trigger": false,
      "metar": "METAR LGTS 261750Z VRB02KT 9999 -DZ SCT010 BKN025 10/10 Q0996 NOSIG",
      "taf": "TAF LGTS 261700Z 2618/2718 34010KT 9999 SCT010 BKN025"
    },
    {
      "icao": "LHBP",
      "alert": "OK",
      "vis_m": 7000,
      "fzfg": false,
      "metar_trigger": false,
      "taf_trigger": false,
      "metar": "METAR LHBP 261800Z 31006KT 7000 SCT003 OVC006 04/04 Q1002 NOSIG",
      "taf": ""
    },
    {
      "icao": "LHDC",
      "alert": "OK",
      "vis_m": 1200,
      "fzfg": false,
      "metar_trigger": false,
      "taf_trigger": false,
      "metar": "METAR LHDC 261745Z AUTO 05003KT 1200 R04/1600D BR OVC007 06/05 Q1001 NOSIG",
      "taf": "TAF LHDC 261715Z 2618/2703 VRB03KT 6000 -RA SCT010 OVC030"
    },
    {
      "icao": "LIBD",
      "alert": "OK",
      "vis_m": 9999,
      "fzfg": false,
      "metar_trigger": false,
      "taf_trigger": false,
      "metar": "METAR LIBD 261750Z AUTO 27004KT 9999 NCD 08/06 Q1001",
      "taf": "TAF LIBD 261700Z 2618/2718 28008KT 9999 SCT025"
    },
    {
      "icao": "LIBG",
      "alert": "OK",
      "vis_m": 9999,
      "fzfg": false,
      "metar_trigger": false,
      "taf_trigger": false,
      "metar": "METAR LIBG 261750Z VRB02KT CAVOK 10/06 Q1000",
      "taf": "TAF LIBG 261700Z 2618/2703 32006KT 9999 FEW030"
    },
    {
      "icao": "LIBP",
      "alert": "OK",
      "vis_m": 9999,
      "fzfg": false,
      "metar_trigger": false,
      "taf_trigger": false,
      "metar": "METAR LIBP 261750Z AUTO 34004KT 280V090 9999 OVC042/// 08/05 Q1004",
      "taf": "TAF LIBP 261700Z 2618/2718 02010KT CAVOK"
    },
    {
      "icao": "LIBR",
      "alert": "OK",
      "vis_m": 9999,
      "fzfg": false,
      "metar_trigger": false,
      "taf_trigger": false,
      "metar": "METAR LIBR 261750Z 34007KT CAVOK 12/06 Q1000",
      "taf": "TAF LIBR 261700Z 2618/2718 33006KT 9999 FEW020"
    },
    {
      "icao": "LICA",
      "alert": "OK",
      "vis_m": 9999,
      "fzfg": false,
      "metar_trigger": false,
      "taf_trigger": false,
      "metar": "METAR LICA 261750Z AUTO 09003KT 9999 BKN073/// 11/09 Q1000",
      "taf": "TAF LICA 261700Z 2618/2718 VRB05KT 9999 SCT030"
    },
    {
      "icao": "LICC",
      "alert": "OK",
      "vis_m": 9999,
      "fzfg": false,
      "metar_trigger": false,
      "taf_trigger": false,
      "metar": "METAR LICC 261750Z 26011KT 9999 FEW020 BKN080 11/08 Q0999",
      "taf": "TAF LICC 261700Z 2618/2718 26008KT 9999 SCT030"
    },
    {
      "icao": "LICJ",
      "alert": "OK",
      "vis_m": 9999,
      "fzfg": false,
      "metar_trigger": false,
      "taf_trigger": false,
      "metar": "METAR LICJ 261750Z 31012KT 9999 SCT020 13/08 Q1001",
      "taf": "TAF LICJ 261700Z 2618/2718 29012KT 9999 SCT030"
    },
    {
      "icao": "LIMC",
      "alert": "OK",
      "vis_m": 9999,
      "fzfg": false,
      "metar_trigger": false,
      "taf_trigger": false,
      "metar": "METAR LIMC 261750Z 26006KT CAVOK 06/03 Q1003 NOSIG",
      "taf": "TAF LIMC 261700Z 2618/2724 VRB04KT 3000 BR SCT025"
    },
    {
      "icao": "LIME",
      "alert": "OK",
      "vis_m": 9999,
      "fzfg": false,
      "metar_trigger": false,
      "taf_trigger": false,
      "metar": "METAR LIME 261750Z VRB02KT CAVOK 05/03 Q1003 NOSIG",
      "taf": "TAF LIME 261700Z 2618/2718 VRB05KT 7000 FEW020"
    },
    {
      "icao": "LIMF",
      "alert": "OK",
      "vis_m": 9999,
      "fzfg": false,
      "metar_trigger": false,
      "taf_trigger": false,
      "metar": "METAR LIMF 261750Z VRB01KT CAVOK 06/02 Q1003",
      "taf": "TAF LIMF 261700Z 2618/2718 VRB04KT 6000 SCT020"
    },
    {
      "icao": "LIMJ",
      "alert": "OK",
      "vis_m": 9999,
      "fzfg": false,
      "metar_trigger": false,
      "taf_trigger": false,
      "metar": "METAR LIMJ 261750Z 03012KT CAVOK 09/02 Q1003",
      "taf": "TAF LIMJ 261700Z 2618/2718 03010KT 9999 SCT040"
    },
    {
      "icao": "LIPE",
      "alert": "OK",
      "vis_m": 9999,
      "fzfg": false,
      "metar_trigger": false,
      "taf_trigger": false,
      "metar": "METAR LIPE 261750Z 21004KT 160V240 CAVOK 04/03 Q1004",
      "taf": "TAF LIPE 261700Z 2618/2718 VRB05KT 6000 SCT020"
    },
    {
      "icao": "LIPH",
      "alert": "OK",
      "vis_m": 9999,
      "fzfg": false,
      "metar_trigger": false,
      "taf_trigger": false,
      "metar": "METAR LIPH 261750Z 22002KT CAVOK 06/05 Q1003",
      "taf": "TAF LIPH 261700Z 2618/2718 25005KT 8000 FEW010"
    },
    {
      "icao": "LIPQ",
      "alert": "OK",
      "vis_m": 9999,
      "fzfg": false,
      "metar_trigger": false,
      "taf_trigger": false,
      "metar": "METAR LIPQ 261750Z AUTO VRB01KT 9999 NCD 06/05 Q1003",
      "taf": "TAF LIPQ 261700Z 2618/2718 VRB04KT 9999 SCT020"
    },
    {
      "icao": "LIPR",
      "alert": "OK",
      "vis_m": 8000,
      "fzfg": false,
      "metar_trigger": false,
      "taf_trigger": false,
      "metar": "METAR LIPR 261750Z 28005KT 8000 BKN025 06/04 Q1004",
      "taf": "TAF LIPR 261700Z 2618/2718 23005KT 9999 SCT015"
    },
    {
      "icao": "LIPX",
      "alert": "OK",
      "vis_m": 9999,
      "fzfg": false,
      "metar_trigger": false,
      "taf_trigger": false,
      "metar": "METAR LIPX 261750Z 24004KT CAVOK 05/03 Q1004",
      "taf": "TAF LIPX 261700Z 2618/2718 VRB04KT 8000 SCT020"
    },
    {
      "icao": "LIPY",
      "alert": "OK",
      "vis_m": 9999,
      "fzfg": false,
      "metar_trigger": false,
      "taf_trigger": false,
      "metar": "METAR LIPY 261750Z AUTO 26005KT 9999 OVC024/// 07/05 Q1004",
      "taf": "TAF LIPY 261700Z 2618/2718 VRB05KT 9999 SCT015"
    },
    {
      "icao": "LIPZ",
      "alert": "OK",
      "vis_m": 9999,
      "fzfg": false,
      "metar_trigger": false,
      "taf_trigger": false,
      "metar": "METAR LIPZ 261750Z 23005KT CAVOK 06/04 Q1003 NOSIG",
      "taf": "TAF LIPZ 261700Z 2618/2724 25005KT 8000 FEW020"
    },
    {
      "icao": "LIRF",
      "alert": "OK",
      "vis_m": 9999,
      "fzfg": false,
      "metar_trigger": false,
      "taf_trigger": false,
      "metar": "METAR LIRF 261750Z 30003KT CAVOK 08/07 Q1002 NOSIG",
      "taf": "TAF LIRF 261700Z 2618/2724 36006KT 9999 FEW030"
    },
    {
      "icao": "LIRN",
      "alert": "OK",
      "vis_m": 9999,
      "fzfg": false,
      "metar_trigger": false,
      "taf_trigger": false,
      "metar": "METAR LIRN 261750Z 34005KT 9999 BKN060 10/08 Q1000 NOSIG",
      "taf": "TAF LIRN 261700Z 2618/2718 04005KT 9999 SCT040"
    },
    {
      "icao": "LIRP",
      "alert": "OK",
      "vis_m": 9999,
      "fzfg": false,
      "metar_trigger": false,
      "taf_trigger": false,
      "metar": "METAR LIRP 261745Z 33003KT CAVOK 09/07 Q1004 NOSIG",
      "taf": "TAF LIRP 261700Z 2618/2718 13004KT 9999 FEW020 SCT040"
    },
    {
      "icao": "LIRZ",
      "alert": "OK",
      "vis_m": 9999,
      "fzfg": false,
      "metar_trigger": false,
      "taf_trigger": false,
      "metar": "METAR LIRZ 261750Z AUTO 02007KT 9999 NCD 07/03 Q1002",
      "taf": "TAF LIRZ 261700Z 2618/2718 VRB05KT 8000 FEW040"
    },
    {
      "icao": "LJLJ",
      "alert": "OK",
      "vis_m": 500,
      "fzfg": false,
      "metar_trigger": false,
      "taf_trigger": false,
      "metar": "METAR LJLJ 261800Z 32006KT 0500 R30/0700N FG VV001 02/02 Q1003 NOSIG",
      "taf": "TAF LJLJ 261700Z 2618/2718 30003KT 0400 FG VV001"
    },
    {
      "icao": "LKMT",
      "alert": "OK",
      "vis_m": 9999,
      "fzfg": false,
      "metar_trigger": false,
      "taf_trigger": false,
      "metar": "METAR LKMT 261800Z 21006KT CAVOK 01/M00 Q1001 NOSIG",
      "taf": "TAF LKMT 261700Z 2618/2718 23008KT CAVOK"
    },
    {
      "icao": "LKPR",
      "alert": "OK",
      "vis_m": 9999,
      "fzfg": false,
      "metar_trigger": false,
      "taf_trigger": false,
      "metar": "METAR LKPR 261800Z 22007KT 9999 FEW012 00/M00 Q0999 NOSIG",
      "taf": "TAF LKPR 261700Z 2618/2724 23008KT 9999 OVC015"
    },
    {
      "icao": "LLBG",
      "alert": "OK",
      "vis_m": 9999,
      "fzfg": false,
      "metar_trigger": false,
      "taf_trigger": false,
      "metar": "METAR LLBG 261750Z VRB03KT CAVOK 16/05 Q1014 NOSIG",
      "taf": "TAF LLBG 261703Z 2618/2718 11005KT CAVOK"
    },
    {
      "icao": "LMML",
      "alert": "OK",
      "vis_m": 9999,
      "fzfg": false,
      "metar_trigger": false,
      "taf_trigger": false,
      "metar": "METAR LMML 261815Z 29020G31KT 9999 FEW017 11/08 Q1003 NOSIG",
      "taf": "TAF LMML 261700Z 2618/2718 30020KT 9999 SCT015"
    },
    {
      "icao": "LOWW",
      "alert": "OK",
      "vis_m": 3500,
      "fzfg": false,
      "metar_trigger": false,
      "taf_trigger": false,
      "metar": "METAR LOWW 261750Z 18006KT 3500 R29/P1500N R34/0500D BR FEW050 M00/M01 Q1003 TEMPO 2000 BCFG",
      "taf": "TAF LOWW 261715Z 2618/2724 22005KT 9999 FEW005 TX03/2714Z TNM01/2706Z"
    },
    {
      "icao": "LPFR",
      "alert": "OK",
      "vis_m": 9000,
      "fzfg": false,
      "metar_trigger": false,
      "taf_trigger": false,
      "metar": "METAR LPFR 261800Z 24010KT 9000 SCT018 BKN035 15/14 Q1014",
      "taf": "TAF LPFR 261700Z 2618/2718 25015KT 9999 SCT012 BKN030"
    },
    {
      "icao": "LPMA",
      "alert": "OK",
      "vis_m": 9999,
      "fzfg": false,
      "metar_trigger": false,
      "taf_trigger": false,
      "metar": "METAR LPMA 261800Z 23011KT 200V270 9999 BKN016 18/13 Q1017",
      "taf": "TAF LPMA 261700Z 2618/2718 22018KT 9999 SCT015"
    },
    {
      "icao": "LPPR",
      "alert": "OK",
      "vis_m": 5000,
      "fzfg": false,
      "metar_trigger": false,
      "taf_trigger": false,
      "metar": "METAR LPPR 261800Z 19020G30KT 5000 -RADZ BR BKN006 BKN011 14/13 Q1003",
      "taf": "TAF LPPR 261700Z 2618/2718 20018G30KT 6000 -RA SCT006 BKN012"
    },
    {
      "icao": "LPPS",
      "alert": "OK",
      "vis_m": 9999,
      "fzfg": false,
      "metar_trigger": false,
      "taf_trigger": false,
      "metar": "METAR LPPS 261800Z 25004KT 200V290 9999 SCT015 19/11 Q1017",
      "taf": "TAF LPPS 261700Z 2618/2724 23010KT 9999 SCT015 SCT030"
    },
    {
      "icao": "LPPT",
      "alert": "OK",
      "vis_m": 9999,
      "fzfg": false,
      "metar_trigger": false,
      "taf_trigger": false,
      "metar": "METAR LPPT 261800Z 21017KT 9999 FEW012 SCT045 15/13 Q1008",
      "taf": "TAF LPPT 261700Z 2618/2724 23017KT 9999 SCT012 BKN025"
    },
    {
      "icao": "LQBK",
      "alert": "OK",
      "vis_m": 9999,
      "fzfg": false,
      "metar_trigger": false,
      "taf_trigger": false,
      "metar": "METAR LQBK 261800Z 34005KT 9999 -RA FEW030 SCT045 05/05 Q1003 NOSIG",
      "taf": ""
    },
    {
      "icao": "LQSA",
      "alert": "OK",
      "vis_m": 9999,
      "fzfg": false,
      "metar_trigger": false,
      "taf_trigger": false,
      "metar": "METAR LQSA 261800Z VRB02KT 9999 BKN040 04/04 Q1001 NOSIG",
      "taf": "TAF LQSA 261700Z 2618/2718 VRB02KT 9999 SCT045 TX08/2713Z TN01/2705Z"
    },
    {
      "icao": "LQTZ",
      "alert": "OK",
      "vis_m": 9999,
      "fzfg": false,
      "metar_trigger": false,
      "taf_trigger": false,
      "metar": "METAR LQTZ 261800Z VRB02KT 9999 FEW027 SCT055 07/06 Q1001",
      "taf": "TAF LQTZ 261700Z 2618/2718 28006KT 9999 SCT015 BKN030 TX11/2713Z TN00/2706Z"
    },
    {
      "icao": "LRBC",
      "alert": "OK",
      "vis_m": 550,
      "fzfg": false,
      "metar_trigger": false,
      "taf_trigger": false,
      "metar": "METAR LRBC 261800Z 15006KT 0550 R16/0600N -RA FG VV002 03/03 Q1005",
      "taf": "TAF LRBC 261700Z 2618/2703 17010KT 0150 FG VV002"
    },
    {
      "icao": "LRBS",
      "alert": "OK",
      "vis_m": 3000,
      "fzfg": false,
      "metar_trigger": false,
      "taf_trigger": false,
      "metar": "METAR LRBS 261800Z 06008KT 3000 BR BKN003 07/07 Q1002 TEMPO 0800 FG OVC002",
      "taf": "TAF LRBS 261700Z 2618/2718 07012KT 3000 BR BKN003"
    },
    {
      "icao": "LRBV",
      "alert": "OK",
      "vis_m": 9999,
      "fzfg": false,
      "metar_trigger": false,
      "taf_trigger": false,
      "metar": "METAR LRBV 261800Z 09011KT 9999 FEW038 BKN043 08/04 Q1001",
      "taf": "TAF LRBV 261700Z 2618/2703 02008KT 9999 BKN045"
    },
    {
      "icao": "LRCL",
      "alert": "OK",
      "vis_m": 4000,
      "fzfg": false,
      "metar_trigger": false,
      "taf_trigger": false,
      "metar": "METAR LRCL 261800Z 00000KT 4000 -RA BR OVC045 02/02 Q1001",
      "taf": "TAF LRCL 261700Z 2618/2703 VRB04KT 9999 -RA BKN050"
    },
    {
      "icao": "LRCV",
      "alert": "OK",
      "vis_m": 600,
      "fzfg": false,
      "metar_trigger": false,
      "taf_trigger": false,
      "metar": "METAR LRCV 261800Z 08007KT 0600 R26/0600N -RA FG VV003 04/04 Q1000",
      "taf": "TAF LRCV 261700Z 2618/2703 VRB04KT 0800 -RADZ FG BKN002 OVC020"
    },
    {
      "icao": "LRIA",
      "alert": "OK",
      "vis_m": 9999,
      "fzfg": false,
      "metar_trigger": false,
      "taf_trigger": false,
      "metar": "METAR LRIA 261800Z 12017KT 9999 -RA OVC002 04/03 Q1006",
      "taf": "TAF LRIA 261700Z 2618/2703 12018KT 9999 -RA BKN003 OVC010"
    },
    {
      "icao": "LROP",
      "alert": "OK",
      "vis_m": 3900,
      "fzfg": false,
      "metar_trigger": false,
      "taf_trigger": false,
      "metar": "METAR LROP 261800Z 06013KT 3900 BR OVC003 07/07 Q1002 TEMPO 0800 FG OVC002",
      "taf": "TAF LROP 261700Z 2618/2718 07012KT 3000 BR BKN003"
    },
    {
      "icao": "LRSB",
      "alert": "OK",
      "vis_m": 9999,
      "fzfg": false,
      "metar_trigger": false,
      "taf_trigger": false,
      "metar": "METAR LRSB 261800Z 16012KT 9999 FEW055 SCT065 11/07 Q0999",
      "taf": "TAF LRSB 261700Z 2618/2718 14012KT 9999 SCT040"
    },
    {
      "icao": "LRSM",
      "alert": "OK",
      "vis_m": 700,
      "fzfg": false,
      "metar_trigger": false,
      "taf_trigger": false,
      "metar": "METAR LRSM 261800Z AUTO 00000KT 0700 R19/0800D -SHRA BKN055/// 03/03 Q1001",
      "taf": ""
    },
    {
      "icao": "LRSV",
      "alert": "OK",
      "vis_m": 250,
      "fzfg": false,
      "metar_trigger": false,
      "taf_trigger": false,
      "metar": "METAR LRSV 261800Z 13009KT 0250 R34/0550N -DZ FG VV001 02/02 Q1004",
      "taf": "TAF LRSV 261700Z 2618/2703 14012KT 0350 -RADZ FG VV001"
    },
    {
      "icao": "LRTM",
      "alert": "OK",
      "vis_m": 4400,
      "fzfg": false,
      "metar_trigger": false,
      "taf_trigger": false,
      "metar": "METAR LRTM 261800Z AUTO 28003KT 250V320 4400 BR NCD 02/01 Q1000",
      "taf": "TAF LRTM 261400Z 2615/2624 VRB04KT 5000 -RA BR SCT015"
    },
    {
      "icao": "LRTR",
      "alert": "OK",
      "vis_m": 4500,
      "fzfg": false,
      "metar_trigger": false,
      "taf_trigger": false,
      "metar": "METAR LRTR 261800Z 34005KT 4500 -RA BR SCT004 BKN015 06/06 Q1000",
      "taf": "TAF LRTR 261700Z 2618/2718 31006KT 5000 -RA BR BKN005 OVC030"
    },
    {
      "icao": "LTAC",
      "alert": "OK",
      "vis_m": 9999,
      "fzfg": false,
      "metar_trigger": false,
      "taf_trigger": false,
      "metar": "METAR LTAC 261750Z VRB04KT 9999 SCT040 BKN100 08/03 Q1009 NOSIG",
      "taf": "TAF LTAC 261640Z 2618/2718 17008KT 9999 SCT040 BKN100"
    },
    {
      "icao": "LTFM",
      "alert": "OK",
      "vis_m": 9999,
      "fzfg": false,
      "metar_trigger": false,
      "taf_trigger": false,
      "metar": "METAR LTFM 261750Z 07006KT 9999 SCT040 BKN110 12/08 Q0999 NOSIG",
      "taf": "TAF LTFM 261640Z 2618/2724 12007KT 9999 SCT040 BKN090"
    },
    {
      "icao": "LUKK",
      "alert": "OK",
      "vis_m": 5000,
      "fzfg": false,
      "metar_trigger": false,
      "taf_trigger": false,
      "metar": "METAR LUKK 261800Z 09008KT 5000 -RA BR OVC002 00/00 Q1009 TEMPO 3000 RA BR OVC002",
      "taf": "TAF LUKK 261720Z 2618/2718 09009KT 5000 RA BR OVC002"
    },
    {
      "icao": "LWOH",
      "alert": "OK",
      "vis_m": 9999,
      "fzfg": false,
      "metar_trigger": false,
      "taf_trigger": false,
      "metar": "METAR LWOH 261750Z 10002KT 9999 BKN040 06/04 Q0997",
      "taf": "TAF LWOH 261430Z 2615/2715 VRB02KT 9999 SCT020 BKN035"
    },
    {
      "icao": "LWSK",
      "alert": "OK",
      "vis_m": 6000,
      "fzfg": false,
      "metar_trigger": false,
      "taf_trigger": false,
      "metar": "METAR LWSK 261750Z VRB02KT 6000 RA FEW003 BKN009 OVC032 09/07 Q0997 NOSIG",
      "taf": ""
    },
    {
      "icao": "LYBE",
      "alert": "OK",
      "vis_m": 9999,
      "fzfg": false,
      "metar_trigger": false,
      "taf_trigger": false,
      "metar": "METAR LYBE 261800Z 31005KT 9999 BKN014 06/04 Q1000 TEMPO BKN008",
      "taf": "TAF LYBE 261700Z 2618/2718 30008KT 9999 SCT017 TX10/2712Z TN03/2706Z"
    },
    {
      "icao": "LYNI",
      "alert": "OK",
      "vis_m": 9999,
      "fzfg": false,
      "metar_trigger": false,
      "taf_trigger": false,
      "metar": "METAR LYNI 261800Z 34010KT 9999 -RA SCT017 BKN040 OVC080 06/05 Q0999 NOSIG",
      "taf": "TAF LYNI 261700Z 2618/2718 35015KT 9999 SCT020 BKN050 TX07/2713Z TN03/2706Z"
    },
    {
      "icao": "LYPG",
      "alert": "OK",
      "vis_m": 9999,
      "fzfg": false,
      "metar_trigger": false,
      "taf_trigger": false,
      "metar": "METAR LYPG 261800Z VRB01KT 9999 FEW016 07/06 Q0999 NOSIG",
      "taf": "TAF LYPG 261700Z 2618/2718 34005KT 9999 FEW020 TX14/2713Z TN04/2704Z"
    },
    {
      "icao": "LZIB",
      "alert": "OK",
      "vis_m": 200,
      "fzfg": false,
      "metar_trigger": false,
      "taf_trigger": false,
      "metar": "METAR LZIB 261800Z 21005KT 0200 R31/0700D R22/0400N FG OVC001 01/00 Q1003 NOSIG",
      "taf": ""
    },
    {
      "icao": "LZKZ",
      "alert": "OK",
      "vis_m": 6000,
      "fzfg": false,
      "metar_trigger": false,
      "taf_trigger": false,
      "metar": "METAR LZKZ 261800Z 33003KT 6000 BCFG BKN018 OVC042 04/04 Q1001 NOSIG",
      "taf": ""
    },
    {
      "icao": "LZTT",
      "alert": "OK",
      "vis_m": 3000,
      "fzfg": false,
      "metar_trigger": false,
      "taf_trigger": false,
      "metar": "METAR LZTT 261800Z 26005KT 3000 BR OVC003 02/02 Q1000 NOSIG",
      "taf": "TAF LZTT 261715Z 2618/2718 24004KT 9999 FEW006 SCT035"
    },
    {
      "icao": "OEJN",
      "alert": "OK",
      "vis_m": 9999,
      "fzfg": false,
      "metar_trigger": false,
      "taf_trigger": false,
      "metar": "METAR OEJN 261800Z 02002KT CAVOK 26/12 Q1014 NOSIG",
      "taf": "TAF OEJN 261700Z 2618/2724 VRB03KT 7000 NSC"
    },
    {
      "icao": "OEMA",
      "alert": "OK",
      "vis_m": 9999,
      "fzfg": false,
      "metar_trigger": false,
      "taf_trigger": false,
      "metar": "METAR OEMA 261800Z 32004KT CAVOK 18/M03 Q1020 NOSIG",
      "taf": "TAF OEMA 261700Z 2618/2724 08015KT 7000 NSC"
    },
    {
      "icao": "OJAI",
      "alert": "OK",
      "vis_m": 5000,
      "fzfg": false,
      "metar_trigger": false,
      "taf_trigger": false,
      "metar": "METAR OJAI 261800Z 10003KT 5000 HZ NSC 10/01 Q1018 NOSIG",
      "taf": "TAF OJAI 261658Z 2618/2724 VRB02KT 5000 HZ NSC"
    },
    {
      "icao": "OMAA",
      "alert": "OK",
      "vis_m": 9999,
      "fzfg": false,
      "metar_trigger": false,
      "taf_trigger": false,
      "metar": "METAR OMAA 261800Z 29007KT CAVOK 19/13 Q1019 NOSIG",
      "taf": "TAF OMAA 261700Z 2618/2800 31010KT 8000 FEW045"
    },
    {
      "icao": "OMDB",
      "alert": "OK",
      "vis_m": 9999,
      "fzfg": false,
      "metar_trigger": false,
      "taf_trigger": false,
      "metar": "METAR OMDB 261800Z 07004KT 9999 FEW030 20/13 Q1019 NOSIG",
      "taf": "TAF OMDB 261700Z 2618/2800 14004KT 8000 NSC"
    },
    {
      "icao": "UAAA",
      "alert": "OK",
      "vis_m": 2800,
      "fzfg": false,
      "metar_trigger": false,
      "taf_trigger": false,
      "metar": "METAR UAAA 261800Z 20002MPS 2800 BR FU SCT200 M04/M07 Q1020 NOSIG",
      "taf": "TAF UAAA 261701Z 2618/2718 22003MPS 1500 BR FU SCT020 BKN050 TX03/2708Z TNM07/2702Z"
    },
    {
      "icao": "UBBB",
      "alert": "OK",
      "vis_m": 9999,
      "fzfg": false,
      "metar_trigger": false,
      "taf_trigger": false,
      "metar": "METAR UBBB 261800Z 35020KT 9999 BKN009 OVC023 05/03 Q1024 NOSIG",
      "taf": "TAF UBBB 261700Z 2618/2718 32018G28KT 9999 SCT009 BKN025 TX05/2710Z TN02/2701Z"
    },
    {
      "icao": "UDSG",
      "alert": "OK",
      "vis_m": 2400,
      "fzfg": false,
      "metar_trigger": false,
      "taf_trigger": false,
      "metar": "METAR UDSG 261800Z 05002KT 2400 BR FEW049 M13/M14 Q1021 NOSIG",
      "taf": "TAF UDSG 261658Z 2618/2718 VRB06KT 3000 BR BKN030"
    },
    {
      "icao": "UDYZ",
      "alert": "OK",
      "vis_m": 2400,
      "fzfg": false,
      "metar_trigger": false,
      "taf_trigger": false,
      "metar": "METAR UDYZ 261800Z 23003KT 2400 BR BKN006 M05/M06 Q1025 NOSIG",
      "taf": "TAF UDYZ 261700Z 2618/2718 VRB06KT 2300 BR BKN006"
    },
    {
      "icao": "UGKO",
      "alert": "OK",
      "vis_m": 9999,
      "fzfg": false,
      "metar_trigger": false,
      "taf_trigger": false,
      "metar": "METAR UGKO 261800Z 07017KT CAVOK 08/02 Q1013 NOSIG",
      "taf": "TAF UGKO 261700Z 2618/2718 08027G37KT CAVOK TX13/2711Z TN07/2620Z"
    }
  ]
}