{
  "ts_utc": "2026-03-31T22:29:10Z",
  "threshold_m": 150,
  "source": "stations_override.txt (ICAO list) + aviationweather.gov (METAR/TAF raw)",
  "station_count": 159,
  "stations": [
    {
      "icao": "BIKF",
      "alert": "OK",
      "vis_m": 1100,
      "fzfg": false,
      "metar_trigger": false,
      "taf_trigger": false,
      "metar": "METAR BIKF 312200Z 25025G39KT 220V280 1100 R28/P1500D -SHSN DRSN OVC010 M01/M02 Q1009",
      "taf": "TAF BIKF 311944Z 3121/0121 26028G40KT 9999 BKN020 TX04/0115Z TNM01/0100Z"
    },
    {
      "icao": "BKPR",
      "alert": "OK",
      "vis_m": null,
      "fzfg": false,
      "metar_trigger": false,
      "taf_trigger": false,
      "metar": "",
      "taf": "TAF BKPR 311730Z 3118/0118 02014KT 9999 SCT020 BKN040"
    },
    {
      "icao": "EBCI",
      "alert": "OK",
      "vis_m": 9999,
      "fzfg": false,
      "metar_trigger": false,
      "taf_trigger": false,
      "metar": "METAR EBCI 312220Z VRB02KT CAVOK 05/02 Q1028 NOSIG",
      "taf": "TAF EBCI 311702Z 3118/0124 32005KT 9999 FEW025 SCT045"
    },
    {
      "icao": "EDDB",
      "alert": "OK",
      "vis_m": 9999,
      "fzfg": false,
      "metar_trigger": false,
      "taf_trigger": false,
      "metar": "METAR EDDB 312220Z AUTO 30005KT CAVOK 03/02 Q1024 NOSIG",
      "taf": "TAF EDDB 311700Z 3118/0118 29007KT 9999 SCT035"
    },
    {
      "icao": "EDDH",
      "alert": "OK",
      "vis_m": 9999,
      "fzfg": false,
      "metar_trigger": false,
      "taf_trigger": false,
      "metar": "METAR EDDH 312220Z AUTO VRB02KT CAVOK 04/03 Q1026 BECMG 1200 BCFG",
      "taf": ""
    },
    {
      "icao": "EDDK",
      "alert": "OK",
      "vis_m": 9999,
      "fzfg": false,
      "metar_trigger": false,
      "taf_trigger": false,
      "metar": "METAR EDDK 312220Z AUTO 05003KT CAVOK 03/02 Q1028 NOSIG",
      "taf": "TAF EDDK 311700Z 3118/0124 31010KT 9999 SCT045"
    },
    {
      "icao": "EDDN",
      "alert": "OK",
      "vis_m": 9999,
      "fzfg": false,
      "metar_trigger": false,
      "taf_trigger": false,
      "metar": "METAR EDDN 312220Z AUTO VRB02KT 9999 BKN045 02/M00 Q1025",
      "taf": ""
    },
    {
      "icao": "EDDS",
      "alert": "OK",
      "vis_m": 9999,
      "fzfg": false,
      "metar_trigger": false,
      "taf_trigger": false,
      "metar": "METAR EDDS 312220Z AUTO 24002KT CAVOK 03/01 Q1025",
      "taf": "TAF EDDS 311700Z 3118/0118 25004KT 9999 FEW045"
    },
    {
      "icao": "EDFH",
      "alert": "OK",
      "vis_m": 9999,
      "fzfg": false,
      "metar_trigger": false,
      "taf_trigger": false,
      "metar": "METAR EDFH 312220Z 29004KT 9999 FEW037 04/01 Q1026",
      "taf": "TAF EDFH 311700Z 3118/0118 34005KT 9999 FEW045"
    },
    {
      "icao": "EDJA",
      "alert": "OK",
      "vis_m": 9999,
      "fzfg": false,
      "metar_trigger": false,
      "taf_trigger": false,
      "metar": "METAR EDJA 312220Z AUTO 21004KT 9999 // SCT051/// OVC080/// M00/M01 Q1025",
      "taf": "TAF EDJA 311700Z 3118/0103 23005KT 9999 SCT015 BKN030"
    },
    {
      "icao": "EDLW",
      "alert": "OK",
      "vis_m": 9999,
      "fzfg": false,
      "metar_trigger": false,
      "taf_trigger": false,
      "metar": "METAR EDLW 312220Z AUTO 21002KT 9999 // NCD 04/01 Q1027",
      "taf": "TAF EDLW 311700Z 3118/0118 31007KT 9999 SCT045"
    },
    {
      "icao": "EDNY",
      "alert": "OK",
      "vis_m": 9999,
      "fzfg": false,
      "metar_trigger": false,
      "taf_trigger": false,
      "metar": "METAR EDNY 312220Z AUTO VRB02KT 9999 // SCT012/// OVC094/// 01/M00 Q1026",
      "taf": "TAF EDNY 311700Z 3118/0103 VRB03KT 9999 SCT040"
    },
    {
      "icao": "EDSB",
      "alert": "OK",
      "vis_m": 9999,
      "fzfg": false,
      "metar_trigger": false,
      "taf_trigger": false,
      "metar": "METAR EDSB 312220Z AUTO 21004KT 9999 // FEW055/// BKN063/// OVC077/// 04/02 Q1027",
      "taf": "TAF EDSB 311700Z 3118/0118 22004KT 9999 FEW045"
    },
    {
      "icao": "EETN",
      "alert": "OK",
      "vis_m": 600,
      "fzfg": true,
      "metar_trigger": false,
      "taf_trigger": false,
      "metar": "METAR EETN 312220Z 27008KT 0600 R26/1900D FZFG VV002 M00/M00 Q1020",
      "taf": "TAF EETN 311730Z 3118/0118 28006KT 3000 BR BKN003"
    },
    {
      "icao": "EFTU",
      "alert": "OK",
      "vis_m": 9999,
      "fzfg": false,
      "metar_trigger": false,
      "taf_trigger": false,
      "metar": "METAR EFTU 312220Z AUTO VRB02KT 9999 OVC002 01/01 Q1021",
      "taf": "TAF EFTU 312030Z 3121/0121 28005KT 9999 OVC003"
    },
    {
      "icao": "EGBB",
      "alert": "OK",
      "vis_m": 9999,
      "fzfg": false,
      "metar_trigger": false,
      "taf_trigger": false,
      "metar": "METAR EGBB 312220Z VRB02KT 9999 FEW040 07/05 Q1029",
      "taf": "TAF EGBB 311655Z 3118/0118 29007KT 9999 SCT045"
    },
    {
      "icao": "EGGP",
      "alert": "OK",
      "vis_m": 9999,
      "fzfg": false,
      "metar_trigger": false,
      "taf_trigger": false,
      "metar": "METAR EGGP 312220Z 25004KT 9999 BKN047 09/05 Q1028",
      "taf": "TAF EGGP 311655Z 3118/0118 29010KT 9999 FEW010 SCT035"
    },
    {
      "icao": "EGGW",
      "alert": "OK",
      "vis_m": 9999,
      "fzfg": false,
      "metar_trigger": false,
      "taf_trigger": false,
      "metar": "METAR EGGW 312220Z AUTO 22003KT 180V290 9999 NCD 10/07 Q1028",
      "taf": "TAF EGGW 311702Z 3118/0118 VRB02KT 9999 FEW030"
    },
    {
      "icao": "EGKK",
      "alert": "OK",
      "vis_m": 9999,
      "fzfg": false,
      "metar_trigger": false,
      "taf_trigger": false,
      "metar": "METAR EGKK 312220Z VRB01KT CAVOK 09/08 Q1028",
      "taf": "TAF EGKK 311657Z 3118/0124 30004KT 9999 SCT020"
    },
    {
      "icao": "EGNM",
      "alert": "OK",
      "vis_m": 9999,
      "fzfg": false,
      "metar_trigger": false,
      "taf_trigger": false,
      "metar": "METAR EGNM 312220Z 27007KT 9999 OVC037 09/06 Q1027",
      "taf": "TAF EGNM 311703Z 3118/0118 27012KT 9999 SCT030"
    },
    {
      "icao": "EGPD",
      "alert": "OK",
      "vis_m": 9999,
      "fzfg": false,
      "metar_trigger": false,
      "taf_trigger": false,
      "metar": "METAR EGPD 312220Z COR AUTO VRB02KT 9999 NCD 06/03 Q1022 NOSIG",
      "taf": "TAF EGPD 311656Z 3118/0118 28010KT 9999 FEW040"
    },
    {
      "icao": "EGPF",
      "alert": "OK",
      "vis_m": 9999,
      "fzfg": false,
      "metar_trigger": false,
      "taf_trigger": false,
      "metar": "METAR EGPF 312220Z AUTO 23008KT 9999 OVC045 10/08 Q1025",
      "taf": "TAF EGPF 311702Z 3118/0118 26012KT 9999 BKN020"
    },
    {
      "icao": "EHBK",
      "alert": "OK",
      "vis_m": 9999,
      "fzfg": false,
      "metar_trigger": false,
      "taf_trigger": false,
      "metar": "METAR EHBK 312225Z AUTO 35002KT 9999 NSC 07/02 Q1027",
      "taf": "TAF EHBK 311700Z 3118/0124 30003KT 9999 SCT040"
    },
    {
      "icao": "EHEH",
      "alert": "OK",
      "vis_m": 9999,
      "fzfg": false,
      "metar_trigger": false,
      "taf_trigger": false,
      "metar": "METAR EHEH 312155Z AUTO VRB01KT 9999 NCD 03/02 Q1028 BLU",
      "taf": ""
    },
    {
      "icao": "EKBI",
      "alert": "OK",
      "vis_m": 900,
      "fzfg": false,
      "metar_trigger": false,
      "taf_trigger": false,
      "metar": "METAR EKBI 312220Z AUTO 29005KT 0900 R09/P1500N R27/P1500N BR BKN002/// 02/02 Q1026",
      "taf": ""
    },
    {
      "icao": "EKCH",
      "alert": "OK",
      "vis_m": 9999,
      "fzfg": false,
      "metar_trigger": false,
      "taf_trigger": false,
      "metar": "METAR EKCH 312220Z AUTO 32003KT 9999 NCD 04/01 Q1024 NOSIG",
      "taf": "TAF EKCH 312027Z 3121/0121 33005KT 9999 FEW040"
    },
    {
      "icao": "ENAL",
      "alert": "OK",
      "vis_m": 9999,
      "fzfg": false,
      "metar_trigger": false,
      "taf_trigger": false,
      "metar": "METAR ENAL 312220Z AUTO 20017KT 9999 -DZRA OVC023/// 09/05 Q1013 REDZ",
      "taf": "TAF ENAL 312000Z 3121/0106 20018KT 9999 -RA FEW015 BKN025"
    },
    {
      "icao": "ENBR",
      "alert": "OK",
      "vis_m": 2500,
      "fzfg": false,
      "metar_trigger": false,
      "taf_trigger": false,
      "metar": "METAR ENBR 312220Z 14009KT 2500 DZ BR OVC005 05/04 Q1021 RMK WIND 1200FT 15017KT",
      "taf": ""
    },
    {
      "icao": "ENGM",
      "alert": "OK",
      "vis_m": 9999,
      "fzfg": false,
      "metar_trigger": false,
      "taf_trigger": false,
      "metar": "METAR ENGM 312220Z 20006KT CAVOK 03/M02 Q1019",
      "taf": "TAF ENGM 311700Z 3118/0118 17008KT CAVOK"
    },
    {
      "icao": "ENHD",
      "alert": "OK",
      "vis_m": 1700,
      "fzfg": false,
      "metar_trigger": false,
      "taf_trigger": false,
      "metar": "METAR ENHD 312220Z AUTO 14011KT 1700 +RA SCT002/// OVC003/// 06/06 Q1023 REDZ REDZRA",
      "taf": "TAF ENHD 311400Z 3115/3122 22008KT 9999 SCT025"
    },
    {
      "icao": "ENTC",
      "alert": "OK",
      "vis_m": 9999,
      "fzfg": false,
      "metar_trigger": false,
      "taf_trigger": false,
      "metar": "METAR ENTC 312220Z AUTO 19014KT 9999 FEW059/// 05/M03 Q1002 RMK WIND 2600FT 17041KT",
      "taf": "TAF ENTC 311700Z 3118/0118 21014KT 9999 -SHRA SCT025 BKN040"
    },
    {
      "icao": "ENTO",
      "alert": "OK",
      "vis_m": 9999,
      "fzfg": false,
      "metar_trigger": false,
      "taf_trigger": false,
      "metar": "METAR ENTO 312220Z 21004KT CAVOK 05/01 Q1021",
      "taf": "TAF ENTO 311700Z 3118/0118 22008KT CAVOK"
    },
    {
      "icao": "ENVA",
      "alert": "OK",
      "vis_m": 9999,
      "fzfg": false,
      "metar_trigger": false,
      "taf_trigger": false,
      "metar": "METAR ENVA 312220Z 06003KT 030V110 9999 -RA BKN040 06/04 Q1012 RMK WIND 670FT 16009KT",
      "taf": "TAF ENVA 311700Z 3118/0118 10008KT 9999 BKN050"
    },
    {
      "icao": "ENZV",
      "alert": "OK",
      "vis_m": 4000,
      "fzfg": false,
      "metar_trigger": false,
      "taf_trigger": false,
      "metar": "METAR ENZV 312220Z 16005KT 4000 SHRA VV014 06/06 Q1023",
      "taf": ""
    },
    {
      "icao": "EPGD",
      "alert": "OK",
      "vis_m": 6000,
      "fzfg": false,
      "metar_trigger": false,
      "taf_trigger": false,
      "metar": "METAR EPGD 312200Z 31002KT 6000 NSC 01/01 Q1022",
      "taf": ""
    },
    {
      "icao": "EPKK",
      "alert": "OK",
      "vis_m": 9999,
      "fzfg": false,
      "metar_trigger": false,
      "taf_trigger": false,
      "metar": "METAR EPKK 312200Z 32007KT 280V350 9999 FEW028 BKN056 05/01 Q1020",
      "taf": "TAF EPKK 312030Z 3121/0121 26006KT 9999 BKN030"
    },
    {
      "icao": "EPKT",
      "alert": "OK",
      "vis_m": 9999,
      "fzfg": false,
      "metar_trigger": false,
      "taf_trigger": false,
      "metar": "METAR EPKT 312200Z 29003KT CAVOK 01/M00 Q1021",
      "taf": "TAF EPKT 311730Z 3118/0118 35010KT 9999 BKN030"
    },
    {
      "icao": "EPLB",
      "alert": "OK",
      "vis_m": 9999,
      "fzfg": false,
      "metar_trigger": false,
      "taf_trigger": false,
      "metar": "METAR EPLB 312200Z 36009KT 9999 OVC035 07/01 Q1017",
      "taf": "TAF EPLB 311730Z 3118/0118 35011KT 9999 -RA BKN045"
    },
    {
      "icao": "EPMO",
      "alert": "OK",
      "vis_m": 9999,
      "fzfg": false,
      "metar_trigger": false,
      "taf_trigger": false,
      "metar": "METAR EPMO 312200Z 34007KT CAVOK 04/00 Q1021",
      "taf": "TAF EPMO 311730Z 3118/0118 33009KT CAVOK"
    },
    {
      "icao": "EPPO",
      "alert": "OK",
      "vis_m": 9999,
      "fzfg": false,
      "metar_trigger": false,
      "taf_trigger": false,
      "metar": "METAR EPPO 312200Z 33003KT CAVOK 02/01 Q1023",
      "taf": "TAF EPPO 311730Z 3118/0118 31010KT 9999 SCT025"
    },
    {
      "icao": "EPRA",
      "alert": "OK",
      "vis_m": 9999,
      "fzfg": false,
      "metar_trigger": false,
      "taf_trigger": false,
      "metar": "METAR EPRA 312200Z 34007KT CAVOK 06/M01 Q1019",
      "taf": "TAF EPRA 312030Z 3121/0106 33008KT CAVOK"
    },
    {
      "icao": "EPRZ",
      "alert": "OK",
      "vis_m": 9999,
      "fzfg": false,
      "metar_trigger": false,
      "taf_trigger": false,
      "metar": "METAR EPRZ 312200Z 29011KT CAVOK 07/01 Q1017",
      "taf": "TAF EPRZ 311730Z 3118/0118 32010KT 9999 BKN030"
    },
    {
      "icao": "EPSC",
      "alert": "OK",
      "vis_m": 200,
      "fzfg": true,
      "metar_trigger": false,
      "taf_trigger": false,
      "metar": "METAR EPSC 312200Z 12003KT 0200 R31/0500N FZFG NSC M01/M01 Q1023",
      "taf": ""
    },
    {
      "icao": "EPSY",
      "alert": "OK",
      "vis_m": 9999,
      "fzfg": false,
      "metar_trigger": false,
      "taf_trigger": false,
      "metar": "METAR EPSY 312200Z 33008KT CAVOK 03/00 Q1021",
      "taf": "TAF EPSY 312030Z 3121/0106 34010KT CAVOK"
    },
    {
      "icao": "EPWA",
      "alert": "OK",
      "vis_m": 9999,
      "fzfg": false,
      "metar_trigger": false,
      "taf_trigger": false,
      "metar": "METAR EPWA 312200Z 34010KT CAVOK 06/00 Q1020 NOSIG",
      "taf": "TAF EPWA 312030Z 3121/0121 34009KT CAVOK"
    },
    {
      "icao": "EPWR",
      "alert": "OK",
      "vis_m": 9999,
      "fzfg": false,
      "metar_trigger": false,
      "taf_trigger": false,
      "metar": "METAR EPWR 312200Z 29005KT 9999 FEW027 SCT036 05/02 Q1023",
      "taf": "TAF EPWR 312030Z 3121/0121 32002KT 9999 SCT040"
    },
    {
      "icao": "ESGG",
      "alert": "OK",
      "vis_m": 9999,
      "fzfg": false,
      "metar_trigger": false,
      "taf_trigger": false,
      "metar": "METAR ESGG 312220Z VRB03KT CAVOK 03/00 Q1023",
      "taf": "TAF ESGG 312030Z 3121/0121 VRB03KT CAVOK"
    },
    {
      "icao": "ESKN",
      "alert": "OK",
      "vis_m": 9999,
      "fzfg": false,
      "metar_trigger": false,
      "taf_trigger": false,
      "metar": "METAR ESKN 312220Z 27001KT 9999 BCFG NSC M01/M01 Q1022",
      "taf": "TAF ESKN 312030Z 3121/0121 VRB03KT CAVOK"
    },
    {
      "icao": "ESMS",
      "alert": "OK",
      "vis_m": 9999,
      "fzfg": false,
      "metar_trigger": false,
      "taf_trigger": false,
      "metar": "METAR ESMS 312220Z 00000KT CAVOK 02/02 Q1023",
      "taf": "TAF ESMS 312027Z 3121/0121 30006KT 9999 FEW030"
    },
    {
      "icao": "ESSA",
      "alert": "OK",
      "vis_m": 9999,
      "fzfg": false,
      "metar_trigger": false,
      "taf_trigger": false,
      "metar": "METAR ESSA 312220Z 17003KT CAVOK 00/M01 Q1021 NOSIG",
      "taf": "TAF ESSA 312030Z 3121/0121 01003KT CAVOK"
    },
    {
      "icao": "EYKA",
      "alert": "OK",
      "vis_m": 9999,
      "fzfg": false,
      "metar_trigger": false,
      "taf_trigger": false,
      "metar": "METAR EYKA 312220Z AUTO 01005KT 300V060 9999 BKN058/// 06/01 Q1018",
      "taf": "TAF EYKA 311700Z 3118/0118 VRB05KT 9000 SCT045"
    },
    {
      "icao": "EYPA",
      "alert": "OK",
      "vis_m": 800,
      "fzfg": true,
      "metar_trigger": false,
      "taf_trigger": false,
      "metar": "METAR EYPA 312220Z VRB01KT 0800 R19/1000N FZFG VV002 M01/M01 Q1022",
      "taf": "TAF EYPA 311700Z 3118/0118 VRB04KT 0800 FG VV002"
    },
    {
      "icao": "EYVI",
      "alert": "OK",
      "vis_m": 9999,
      "fzfg": false,
      "metar_trigger": false,
      "taf_trigger": false,
      "metar": "METAR EYVI 312220Z 34011KT CAVOK 05/02 Q1016 NOSIG",
      "taf": "TAF EYVI 311700Z 3118/0118 34012KT 9000 BKN045"
    },
    {
      "icao": "GCFV",
      "alert": "OK",
      "vis_m": 9000,
      "fzfg": false,
      "metar_trigger": false,
      "taf_trigger": false,
      "metar": "METAR GCFV 312200Z 34009KT 9000 NSC 19/05 Q1020",
      "taf": "TAF GCFV 312000Z 3121/0121 02009KT 8000 NSC TX23/0114Z TN16/0106Z"
    },
    {
      "icao": "GCLP",
      "alert": "OK",
      "vis_m": 7000,
      "fzfg": false,
      "metar_trigger": false,
      "taf_trigger": false,
      "metar": "METAR GCLP 312200Z 35011KT 7000 NSC 21/06 Q1020 NOSIG",
      "taf": "TAF GCLP 312000Z 3121/0121 35012KT 6000 NSC TX24/0114Z TN19/0106Z"
    },
    {
      "icao": "GCTS",
      "alert": "OK",
      "vis_m": 7000,
      "fzfg": false,
      "metar_trigger": false,
      "taf_trigger": false,
      "metar": "METAR GCTS 312200Z 06023KT 7000 NSC 21/00 Q1018 NOSIG",
      "taf": "TAF GCTS 312000Z 3121/0121 05018KT 6000 NSC TX26/0114Z TN18/0106Z"
    },
    {
      "icao": "GMAD",
      "alert": "OK",
      "vis_m": 8000,
      "fzfg": false,
      "metar_trigger": false,
      "taf_trigger": false,
      "metar": "METAR GMAD 312200Z 30003KT 240V340 8000 NSC 15/14 Q1020 NOSIG",
      "taf": "TAF GMAD 311700Z 3118/0124 20010KT 8000 NSC"
    },
    {
      "icao": "GMMN",
      "alert": "OK",
      "vis_m": 9999,
      "fzfg": false,
      "metar_trigger": false,
      "taf_trigger": false,
      "metar": "METAR GMMN 312200Z 15006KT CAVOK 09/07 Q1021 NOSIG",
      "taf": "TAF GMMN 311700Z 3118/0124 36010KT CAVOK"
    },
    {
      "icao": "GMMX",
      "alert": "OK",
      "vis_m": 9999,
      "fzfg": false,
      "metar_trigger": false,
      "taf_trigger": false,
      "metar": "METAR GMMX 312200Z 05006KT 020V090 CAVOK 16/07 Q1020 NOSIG",
      "taf": "TAF GMMX 311700Z 3118/0124 06006KT CAVOK"
    },
    {
      "icao": "HEGN",
      "alert": "OK",
      "vis_m": 9999,
      "fzfg": false,
      "metar_trigger": false,
      "taf_trigger": false,
      "metar": "METAR HEGN 312200Z 00000KT CAVOK 20/12 Q1011 NOSIG",
      "taf": "TAF HEGN 311700Z 3118/0124 14011KT 9999 SCT020"
    },
    {
      "icao": "HEMA",
      "alert": "OK",
      "vis_m": 9999,
      "fzfg": false,
      "metar_trigger": false,
      "taf_trigger": false,
      "metar": "METAR HEMA 312200Z 00000KT CAVOK 20/14 Q1012 NOSIG",
      "taf": "TAF HEMA 311700Z 3118/0124 14011KT 9999 SCT020"
    },
    {
      "icao": "HESH",
      "alert": "OK",
      "vis_m": 9999,
      "fzfg": false,
      "metar_trigger": false,
      "taf_trigger": false,
      "metar": "METAR HESH 312200Z 31002KT CAVOK 21/06 Q1013 NOSIG",
      "taf": "TAF HESH 311700Z 3118/0124 34008KT 9999 SCT020"
    },
    {
      "icao": "HESX",
      "alert": "OK",
      "vis_m": 9999,
      "fzfg": false,
      "metar_trigger": false,
      "taf_trigger": false,
      "metar": "METAR HESX 312200Z 07011KT CAVOK 17/08 Q1011 NOSIG",
      "taf": "TAF HESX 311700Z 3118/0124 08011KT CAVOK"
    },
    {
      "icao": "LATI",
      "alert": "OK",
      "vis_m": 9999,
      "fzfg": false,
      "metar_trigger": false,
      "taf_trigger": false,
      "metar": "METAR LATI 312220Z VRB02KT 9999 OVC076 10/08 Q1006 NOSIG",
      "taf": "TAF LATI 311700Z 3118/0118 VRB03KT 9999 SCT080 TX18/0111Z TN07/0104Z"
    },
    {
      "icao": "LBPD",
      "alert": "OK",
      "vis_m": 9999,
      "fzfg": false,
      "metar_trigger": false,
      "taf_trigger": false,
      "metar": "METAR LBPD 312200Z AUTO VRB02KT 9999 -SHRA BKN042/// OVC048/// 11/09 Q1011",
      "taf": "TAF LBPD 311700Z 3118/0118 VRB03KT 9999 SCT040 BKN060"
    },
    {
      "icao": "LBSF",
      "alert": "OK",
      "vis_m": 9999,
      "fzfg": false,
      "metar_trigger": false,
      "taf_trigger": false,
      "metar": "METAR LBSF 312200Z AUTO 28007KT 9999 -RA SCT035/// BKN048/// OVC086/// 05/02 Q1012 NOSIG",
      "taf": "TAF LBSF 311700Z 3118/0118 28010KT 9999 SCT015 BKN030"
    },
    {
      "icao": "LBWN",
      "alert": "OK",
      "vis_m": 9999,
      "fzfg": false,
      "metar_trigger": false,
      "taf_trigger": false,
      "metar": "METAR LBWN 312200Z AUTO 14004KT 060V200 9999 OVC045/// 09/09 Q1011 NOSIG",
      "taf": "TAF LBWN 311700Z 3118/0118 VRB03KT 9999 SCT030 BKN050"
    },
    {
      "icao": "LCLK",
      "alert": "OK",
      "vis_m": 9999,
      "fzfg": false,
      "metar_trigger": false,
      "taf_trigger": false,
      "metar": "METAR LCLK 312200Z 34004KT CAVOK 12/10 Q1014 NOSIG",
      "taf": "TAF LCLK 311730Z 3118/0118 32006KT 9999 FEW025"
    },
    {
      "icao": "LCPH",
      "alert": "OK",
      "vis_m": 9999,
      "fzfg": false,
      "metar_trigger": false,
      "taf_trigger": false,
      "metar": "METAR LCPH 312200Z 07007KT 010V080 9999 FEW030 13/09 Q1013 NOSIG",
      "taf": "TAF LCPH 311730Z 3118/0118 25010KT 9999 FEW030"
    },
    {
      "icao": "LEAL",
      "alert": "OK",
      "vis_m": 9999,
      "fzfg": false,
      "metar_trigger": false,
      "taf_trigger": false,
      "metar": "METAR LEAL 312200Z 28004KT CAVOK 12/11 Q1021 NOSIG",
      "taf": "TAF LEAL 311700Z 3118/0118 VRB04KT CAVOK TX22/0112Z TN09/0105Z"
    },
    {
      "icao": "LEBB",
      "alert": "OK",
      "vis_m": 9999,
      "fzfg": false,
      "metar_trigger": false,
      "taf_trigger": false,
      "metar": "METAR LEBB 312200Z AUTO 32004KT 290V350 9999 -RA SCT020 OVC026 12/10 Q1032",
      "taf": "TAF LEBB 311700Z 3118/0118 32009KT 9999 BKN020 TX13/0111Z TN10/0103Z"
    },
    {
      "icao": "LEBL",
      "alert": "OK",
      "vis_m": 9999,
      "fzfg": false,
      "metar_trigger": false,
      "taf_trigger": false,
      "metar": "METAR LEBL 312200Z 31004KT 9999 FEW013 12/09 Q1019 NOSIG",
      "taf": "TAF LEBL 311700Z 3118/0118 18010KT 9999 FEW040 TX17/0114Z TN09/0106Z"
    },
    {
      "icao": "LECH",
      "alert": "OK",
      "vis_m": 9999,
      "fzfg": false,
      "metar_trigger": false,
      "taf_trigger": false,
      "metar": "METAR LECH 312200Z AUTO 33020G33KT 290V010 CAVOK 12/01 Q1019",
      "taf": "TAF LECH 311700Z 3118/0118 33015KT CAVOK TX22/0113Z TN10/0105Z"
    },
    {
      "icao": "LEMD",
      "alert": "OK",
      "vis_m": 9999,
      "fzfg": false,
      "metar_trigger": false,
      "taf_trigger": false,
      "metar": "METAR LEMD 312200Z 36010KT 340V060 CAVOK 10/01 Q1025 NOSIG",
      "taf": "TAF LEMD 311700Z 3118/0124 36012KT CAVOK TX20/0115Z TN08/0106Z"
    },
    {
      "icao": "LEMG",
      "alert": "OK",
      "vis_m": 9999,
      "fzfg": false,
      "metar_trigger": false,
      "taf_trigger": false,
      "metar": "METAR LEMG 312200Z 28004KT CAVOK 13/10 Q1019 NOSIG",
      "taf": "TAF LEMG 311700Z 3118/0118 29005KT CAVOK TX23/0113Z TN09/0107Z"
    },
    {
      "icao": "LEVC",
      "alert": "OK",
      "vis_m": 9999,
      "fzfg": false,
      "metar_trigger": false,
      "taf_trigger": false,
      "metar": "METAR LEVC 312200Z 34016KT CAVOK 15/01 Q1021 NOSIG",
      "taf": "TAF LEVC 311700Z 3118/0118 VRB04KT 9999 FEW030 TX25/0112Z TN10/0105Z"
    },
    {
      "icao": "LEXJ",
      "alert": "OK",
      "vis_m": 9000,
      "fzfg": false,
      "metar_trigger": false,
      "taf_trigger": false,
      "metar": "METAR LEXJ 312200Z AUTO 34003KT 280V050 9000 SCT021 BKN033 12/08 Q1033",
      "taf": "TAF LEXJ 312000Z 3121/0121 32009KT 9999 BKN020 TX14/0114Z TN10/0105Z"
    },
    {
      "icao": "LEZG",
      "alert": "OK",
      "vis_m": 9999,
      "fzfg": false,
      "metar_trigger": false,
      "taf_trigger": false,
      "metar": "METAR LEZG 312200Z 31026G37KT 9999 FEW040 11/04 Q1024 NOSIG",
      "taf": "TAF LEZG 311700Z 3118/0118 32020KT 9999 FEW040 TX19/0114Z TN10/0105Z"
    },
    {
      "icao": "LEZL",
      "alert": "OK",
      "vis_m": 9999,
      "fzfg": false,
      "metar_trigger": false,
      "taf_trigger": false,
      "metar": "METAR LEZL 312200Z 04002KT CAVOK 19/07 Q1019 NOSIG",
      "taf": "TAF LEZL 312000Z 3121/0121 03008KT CAVOK TX26/0115Z TN10/0107Z"
    },
    {
      "icao": "LFBD",
      "alert": "OK",
      "vis_m": 9999,
      "fzfg": false,
      "metar_trigger": false,
      "taf_trigger": false,
      "metar": "METAR LFBD 312200Z AUTO 30008KT 9999 FEW009 OVC058 11/09 Q1030 TEMPO 2000 -RADZ BKN005",
      "taf": "TAF LFBD 311700Z 3118/0124 33010KT CAVOK TX15/0114Z TN09/0101Z"
    },
    {
      "icao": "LFLL",
      "alert": "OK",
      "vis_m": 9999,
      "fzfg": false,
      "metar_trigger": false,
      "taf_trigger": false,
      "metar": "METAR LFLL 312200Z 36007KT CAVOK 06/M01 Q1026 NOSIG",
      "taf": "TAF LFLL 311700Z 3118/0124 36020G30KT CAVOK"
    },
    {
      "icao": "LFLS",
      "alert": "OK",
      "vis_m": 9999,
      "fzfg": false,
      "metar_trigger": false,
      "taf_trigger": false,
      "metar": "METAR LFLS 312200Z AUTO 34014KT CAVOK 05/M02 Q1023",
      "taf": "TAF LFLS 311400Z 3115/0115 34015KT 9999 BKN060"
    },
    {
      "icao": "LFMN",
      "alert": "OK",
      "vis_m": 9999,
      "fzfg": false,
      "metar_trigger": false,
      "taf_trigger": false,
      "metar": "METAR LFMN 312200Z 06010KT 020V090 CAVOK 13/M10 Q1015 NOSIG",
      "taf": "TAF LFMN 312000Z 3121/0203 33010KT CAVOK"
    },
    {
      "icao": "LFOB",
      "alert": "OK",
      "vis_m": 9999,
      "fzfg": false,
      "metar_trigger": false,
      "taf_trigger": false,
      "metar": "METAR LFOB 312200Z AUTO 30006KT 9999 SCT013 OVC022 09/09 Q1029 TEMPO 4000 BR BKN006",
      "taf": "TAF LFOB 311700Z 3118/0118 32007KT 9999 BKN025"
    },
    {
      "icao": "LFPO",
      "alert": "OK",
      "vis_m": 9999,
      "fzfg": false,
      "metar_trigger": false,
      "taf_trigger": false,
      "metar": "METAR LFPO 312200Z 00000KT 9999 BKN016 09/08 Q1029 NOSIG",
      "taf": "TAF LFPO 311700Z 3118/0124 35008KT 9999 BKN020"
    },
    {
      "icao": "LFSB",
      "alert": "OK",
      "vis_m": 9999,
      "fzfg": false,
      "metar_trigger": false,
      "taf_trigger": false,
      "metar": "METAR LFSB 312200Z AUTO VRB03KT CAVOK 03/M00 Q1027 NOSIG",
      "taf": "TAF LFSB 311700Z 3118/0118 36007KT 9999 FEW045 BKN080"
    },
    {
      "icao": "LGAV",
      "alert": "OK",
      "vis_m": 9999,
      "fzfg": false,
      "metar_trigger": false,
      "taf_trigger": false,
      "metar": "METAR LGAV 312220Z VRB01KT 9999 SCT025 13/09 Q1009 NOSIG",
      "taf": "TAF LGAV 311700Z 3118/0118 20012KT 9999 FEW025 SCT070"
    },
    {
      "icao": "LGTS",
      "alert": "OK",
      "vis_m": 9999,
      "fzfg": false,
      "metar_trigger": false,
      "taf_trigger": false,
      "metar": "METAR LGTS 312220Z 27008KT 9999 FEW018TCU SCT025 13/10 Q1009 NOSIG",
      "taf": "TAF LGTS 311700Z 3118/0118 VRB03KT 9999 SCT025"
    },
    {
      "icao": "LHBP",
      "alert": "OK",
      "vis_m": 9999,
      "fzfg": false,
      "metar_trigger": false,
      "taf_trigger": false,
      "metar": "METAR LHBP 312200Z 32006KT 9999 -RA SCT034 OVC052 05/04 Q1018 NOSIG",
      "taf": "TAF LHBP 311715Z 3118/0118 33006KT 9999 FEW015 BKN035"
    },
    {
      "icao": "LHDC",
      "alert": "OK",
      "vis_m": 9999,
      "fzfg": false,
      "metar_trigger": false,
      "taf_trigger": false,
      "metar": "METAR LHDC 312145Z AUTO 02016G28KT 350V050 CAVOK 07/03 Q1016",
      "taf": "TAF LHDC 311415Z 3115/3124 36007KT 9999 SCT010 OVC020"
    },
    {
      "icao": "LIBD",
      "alert": "OK",
      "vis_m": 7000,
      "fzfg": false,
      "metar_trigger": false,
      "taf_trigger": false,
      "metar": "METAR LIBD 312220Z 11010KT 7000 RA BKN015 10/09 Q1004",
      "taf": "TAF LIBD 311700Z 3118/0118 VRB05KT 9999 SCT030"
    },
    {
      "icao": "LIBG",
      "alert": "OK",
      "vis_m": null,
      "fzfg": false,
      "metar_trigger": false,
      "taf_trigger": false,
      "metar": "",
      "taf": "TAF LIBG 311400Z 3115/3124 12012KT 9999 SCT020"
    },
    {
      "icao": "LIBP",
      "alert": "OK",
      "vis_m": 9999,
      "fzfg": false,
      "metar_trigger": false,
      "taf_trigger": false,
      "metar": "METAR LIBP 312220Z AUTO 02009KT 9999 -RA OVC024/// 08/07 Q1010 RERA",
      "taf": "TAF LIBP 311700Z 3118/0118 36010KT 9999 SCT030"
    },
    {
      "icao": "LIBR",
      "alert": "OK",
      "vis_m": 6000,
      "fzfg": false,
      "metar_trigger": false,
      "taf_trigger": false,
      "metar": "METAR LIBR 312220Z 10015G25KT 6000 -RA SCT025 12/10 Q1003",
      "taf": "TAF LIBR 311700Z 3118/0118 14014KT 9999 BKN030"
    },
    {
      "icao": "LICA",
      "alert": "OK",
      "vis_m": 9999,
      "fzfg": false,
      "metar_trigger": false,
      "taf_trigger": false,
      "metar": "METAR LICA 312220Z AUTO 06013KT 9999 SCT084/// SCT100/// BKN180/// 12/10 Q0997",
      "taf": "TAF LICA 311700Z 3118/0118 08016KT 8000 SCT040"
    },
    {
      "icao": "LICC",
      "alert": "OK",
      "vis_m": 9999,
      "fzfg": false,
      "metar_trigger": false,
      "taf_trigger": false,
      "metar": "METAR LICC 312220Z 26005KT 9999 SCT070 08/05 Q0997",
      "taf": "TAF LICC 311700Z 3118/0118 26010KT 9999 SCT030 BKN050"
    },
    {
      "icao": "LICJ",
      "alert": "OK",
      "vis_m": 9000,
      "fzfg": false,
      "metar_trigger": false,
      "taf_trigger": false,
      "metar": "METAR LICJ 312220Z 03013KT 9000 -RA FEW015 SCT020 12/10 Q0996",
      "taf": "TAF LICJ 311700Z 3118/0118 02015KT 9999 SCT020"
    },
    {
      "icao": "LIMC",
      "alert": "OK",
      "vis_m": 9999,
      "fzfg": false,
      "metar_trigger": false,
      "taf_trigger": false,
      "metar": "METAR LIMC 312220Z 34012G22KT 320V030 CAVOK 10/M13 Q1017 NOSIG",
      "taf": "TAF LIMC 311700Z 3118/0124 35014KT CAVOK"
    },
    {
      "icao": "LIME",
      "alert": "OK",
      "vis_m": 9999,
      "fzfg": false,
      "metar_trigger": false,
      "taf_trigger": false,
      "metar": "METAR LIME 312220Z 01005KT CAVOK 08/M11 Q1016 NOSIG",
      "taf": "TAF LIME 311700Z 3118/0118 02012KT 9999 FEW030"
    },
    {
      "icao": "LIMF",
      "alert": "OK",
      "vis_m": 9999,
      "fzfg": false,
      "metar_trigger": false,
      "taf_trigger": false,
      "metar": "METAR LIMF 312220Z 27005KT CAVOK 06/M09 Q1018",
      "taf": "TAF LIMF 311700Z 3118/0118 03010KT CAVOK"
    },
    {
      "icao": "LIMJ",
      "alert": "OK",
      "vis_m": 9999,
      "fzfg": false,
      "metar_trigger": false,
      "taf_trigger": false,
      "metar": "METAR LIMJ 312220Z 03006KT 330V070 CAVOK 12/M11 Q1015",
      "taf": "TAF LIMJ 311700Z 3118/0118 03014KT 9999 FEW030"
    },
    {
      "icao": "LIPE",
      "alert": "OK",
      "vis_m": 9999,
      "fzfg": false,
      "metar_trigger": false,
      "taf_trigger": false,
      "metar": "METAR LIPE 312220Z 35005KT CAVOK 09/M05 Q1015",
      "taf": "TAF LIPE 311700Z 3118/0118 VRB05KT 9999 SCT030"
    },
    {
      "icao": "LIPH",
      "alert": "OK",
      "vis_m": 9999,
      "fzfg": false,
      "metar_trigger": false,
      "taf_trigger": false,
      "metar": "METAR LIPH 312220Z AUTO 01004KT 9999 NCD 09/M07 Q1016",
      "taf": "TAF LIPH 311700Z 3118/0118 VRB05KT CAVOK"
    },
    {
      "icao": "LIPQ",
      "alert": "OK",
      "vis_m": 9999,
      "fzfg": false,
      "metar_trigger": false,
      "taf_trigger": false,
      "metar": "METAR LIPQ 312220Z AUTO 08009KT 050V110 9999 BKN230/// 11/M07 Q1016",
      "taf": "TAF LIPQ 311700Z 3118/0118 VRB04KT CAVOK"
    },
    {
      "icao": "LIPR",
      "alert": "OK",
      "vis_m": 9999,
      "fzfg": false,
      "metar_trigger": false,
      "taf_trigger": false,
      "metar": "METAR LIPR 312220Z AUTO 07014KT 9999 BKN076/// 11/04 Q1014",
      "taf": "TAF LIPR 311700Z 3118/0118 04017KT 9999 BKN070"
    },
    {
      "icao": "LIPX",
      "alert": "OK",
      "vis_m": 9999,
      "fzfg": false,
      "metar_trigger": false,
      "taf_trigger": false,
      "metar": "METAR LIPX 312220Z 01013KT CAVOK 11/M11 Q1016",
      "taf": ""
    },
    {
      "icao": "LIPY",
      "alert": "OK",
      "vis_m": 9999,
      "fzfg": false,
      "metar_trigger": false,
      "taf_trigger": false,
      "metar": "METAR LIPY 312220Z AUTO 06017KT 9999 OVC077/// 11/05 Q1012",
      "taf": "TAF LIPY 311700Z 3118/0118 03015KT 9999 SCT040"
    },
    {
      "icao": "LIPZ",
      "alert": "OK",
      "vis_m": 9999,
      "fzfg": false,
      "metar_trigger": false,
      "taf_trigger": false,
      "metar": "METAR LIPZ 312220Z 07008KT CAVOK 10/M01 Q1016 NOSIG",
      "taf": "TAF LIPZ 311700Z 3118/0124 VRB06KT 9999 SCT040"
    },
    {
      "icao": "LIRF",
      "alert": "OK",
      "vis_m": 9999,
      "fzfg": false,
      "metar_trigger": false,
      "taf_trigger": false,
      "metar": "METAR LIRF 312220Z 02016KT CAVOK 11/01 Q1004 NOSIG",
      "taf": "TAF LIRF 311700Z 3118/0124 02020G30KT 9999 SCT040"
    },
    {
      "icao": "LIRN",
      "alert": "OK",
      "vis_m": 9999,
      "fzfg": false,
      "metar_trigger": false,
      "taf_trigger": false,
      "metar": "METAR LIRN 312220Z 04011KT 9999 SCT040 BKN060 10/04 Q1002 NOSIG",
      "taf": "TAF LIRN 311700Z 3118/0118 04014KT 9999 SCT040"
    },
    {
      "icao": "LIRP",
      "alert": "OK",
      "vis_m": 9999,
      "fzfg": false,
      "metar_trigger": false,
      "taf_trigger": false,
      "metar": "METAR LIRP 312215Z 03011KT CAVOK 12/M10 Q1012 NOSIG",
      "taf": "TAF LIRP 311700Z 3118/0118 05010KT 9999 SCT070"
    },
    {
      "icao": "LIRZ",
      "alert": "OK",
      "vis_m": 9999,
      "fzfg": false,
      "metar_trigger": false,
      "taf_trigger": false,
      "metar": "METAR LIRZ 312220Z AUTO 01012KT 330V030 9999 FEW040/// BKN092/// 07/03 Q1010",
      "taf": "TAF LIRZ 311700Z 3118/0118 03016KT 9999 FEW040"
    },
    {
      "icao": "LJLJ",
      "alert": "OK",
      "vis_m": 9999,
      "fzfg": false,
      "metar_trigger": false,
      "taf_trigger": false,
      "metar": "METAR LJLJ 312200Z 23005KT 210V290 9999 FEW070 SCT110 02/M05 Q1017 WS ALL RWY NOSIG",
      "taf": "TAF LJLJ 311700Z 3118/0118 35010KT 9999 SCT070"
    },
    {
      "icao": "LKMT",
      "alert": "OK",
      "vis_m": 9999,
      "fzfg": false,
      "metar_trigger": false,
      "taf_trigger": false,
      "metar": "METAR LKMT 312200Z 01004KT 9999 BKN047 04/01 Q1022 NOSIG",
      "taf": "TAF LKMT 311700Z 3118/0118 04008KT 9999 SCT020 BKN035"
    },
    {
      "icao": "LKPR",
      "alert": "OK",
      "vis_m": 9999,
      "fzfg": false,
      "metar_trigger": false,
      "taf_trigger": false,
      "metar": "METAR LKPR 312200Z 27008KT 9999 FEW035 02/M01 Q1023 NOSIG",
      "taf": "TAF LKPR 312000Z 3121/0203 27006KT 9999 SCT040"
    },
    {
      "icao": "LLBG",
      "alert": "OK",
      "vis_m": 9999,
      "fzfg": false,
      "metar_trigger": false,
      "taf_trigger": false,
      "metar": "METAR LLBG 312220Z VRB02KT CAVOK 15/11 Q1012 NOSIG",
      "taf": "TAF LLBG 311703Z 3118/0118 VRB04KT CAVOK TX28/0112Z TN13/0101Z"
    },
    {
      "icao": "LMML",
      "alert": "OK",
      "vis_m": 9999,
      "fzfg": false,
      "metar_trigger": false,
      "taf_trigger": false,
      "metar": "METAR LMML 312215Z 24020G34KT 210V280 9999 SCT027TCU 11/07 Q1000 NOSIG",
      "taf": "TAF LMML 311700Z 3118/0118 26020KT 9999 SCT018TCU"
    },
    {
      "icao": "LOWW",
      "alert": "OK",
      "vis_m": 9999,
      "fzfg": false,
      "metar_trigger": false,
      "taf_trigger": false,
      "metar": "METAR LOWW 312220Z 33012KT CAVOK 06/M01 Q1022 NOSIG",
      "taf": "TAF LOWW 312015Z 3121/0203 32013KT 9999 FEW015 BKN030 TX12/0114Z TN04/0105Z"
    },
    {
      "icao": "LPFR",
      "alert": "OK",
      "vis_m": 9999,
      "fzfg": false,
      "metar_trigger": false,
      "taf_trigger": false,
      "metar": "METAR LPFR 312200Z 36011KT CAVOK 21/08 Q1020",
      "taf": "TAF LPFR 311700Z 3118/0118 27010KT CAVOK"
    },
    {
      "icao": "LPMA",
      "alert": "OK",
      "vis_m": 9999,
      "fzfg": false,
      "metar_trigger": false,
      "taf_trigger": false,
      "metar": "METAR LPMA 312200Z 02011KT 340V040 9999 SCT016 16/12 Q1024",
      "taf": "TAF LPMA 311700Z 3118/0118 03015KT 9999 SCT015"
    },
    {
      "icao": "LPPR",
      "alert": "OK",
      "vis_m": 9999,
      "fzfg": false,
      "metar_trigger": false,
      "taf_trigger": false,
      "metar": "METAR LPPR 312200Z VRB02KT CAVOK 16/09 Q1024",
      "taf": "TAF LPPR 311700Z 3118/0118 33012KT CAVOK"
    },
    {
      "icao": "LPPS",
      "alert": "OK",
      "vis_m": 9999,
      "fzfg": false,
      "metar_trigger": false,
      "taf_trigger": false,
      "metar": "METAR LPPS 312200Z 07007KT 040V100 9999 FEW012 16/13 Q1025",
      "taf": "TAF LPPS 311700Z 3118/0124 08015KT 9999 SCT015"
    },
    {
      "icao": "LPPT",
      "alert": "OK",
      "vis_m": 9999,
      "fzfg": false,
      "metar_trigger": false,
      "taf_trigger": false,
      "metar": "METAR LPPT 312200Z 36008KT CAVOK 18/08 Q1023",
      "taf": "TAF LPPT 311700Z 3118/0124 33010KT CAVOK"
    },
    {
      "icao": "LQBK",
      "alert": "OK",
      "vis_m": 9999,
      "fzfg": false,
      "metar_trigger": false,
      "taf_trigger": false,
      "metar": "METAR LQBK 312200Z 35011KT 9999 DZ OVC020 06/02 Q1018 NOSIG",
      "taf": "TAF LQBK 311700Z 3118/0118 33006KT 9999 SCT020 OVC035 TX08/0113Z TN03/0105Z"
    },
    {
      "icao": "LQSA",
      "alert": "OK",
      "vis_m": 8000,
      "fzfg": false,
      "metar_trigger": false,
      "taf_trigger": false,
      "metar": "METAR LQSA 312200Z VRB01KT 8000 -DZ SCT020 OVC030 03/02 Q1015 NOSIG",
      "taf": "TAF LQSA 311700Z 3118/0118 30006KT 9999 SCT020 BKN040 TX07/0113Z TN01/0105Z"
    },
    {
      "icao": "LQTZ",
      "alert": "OK",
      "vis_m": 350,
      "fzfg": false,
      "metar_trigger": false,
      "taf_trigger": false,
      "metar": "METAR LQTZ 312200Z 00000KT 0350 R09/0400N -DZ FG OVC003 03/03 Q1016",
      "taf": ""
    },
    {
      "icao": "LRBC",
      "alert": "OK",
      "vis_m": 9999,
      "fzfg": false,
      "metar_trigger": false,
      "taf_trigger": false,
      "metar": "METAR LRBC 312200Z 35008KT 9999 -RA OVC036 08/05 Q1012",
      "taf": "TAF LRBC 312000Z 3121/0106 34010KT 9999 BKN045"
    },
    {
      "icao": "LRBS",
      "alert": "OK",
      "vis_m": 7000,
      "fzfg": false,
      "metar_trigger": false,
      "taf_trigger": false,
      "metar": "METAR LRBS 312200Z 00000KT 7000 FEW010 SCT022 BKN046 09/08 Q1012 NOSIG",
      "taf": "TAF LRBS 311700Z 3118/0118 25008KT 9999 BKN040"
    },
    {
      "icao": "LRBV",
      "alert": "OK",
      "vis_m": 9999,
      "fzfg": false,
      "metar_trigger": false,
      "taf_trigger": false,
      "metar": "METAR LRBV 312200Z AUTO 29006KT 270V330 9999 BKN009/// BKN013/// OVC016/// 06/04 Q1013",
      "taf": "TAF LRBV 311700Z 3118/0103 29007KT 9999 BKN015 BKN035"
    },
    {
      "icao": "LRCL",
      "alert": "OK",
      "vis_m": 9999,
      "fzfg": false,
      "metar_trigger": false,
      "taf_trigger": false,
      "metar": "METAR LRCL 312200Z 27004KT 240V310 9999 BKN010 BKN015 07/04 Q1014",
      "taf": "TAF LRCL 312000Z 3121/0106 28007KT 9999 BKN010 OVC030"
    },
    {
      "icao": "LRCV",
      "alert": "OK",
      "vis_m": 9999,
      "fzfg": false,
      "metar_trigger": false,
      "taf_trigger": false,
      "metar": "METAR LRCV 312200Z 27007KT 9999 FEW048 06/03 Q1012",
      "taf": "TAF LRCV 312000Z 3121/0106 VRB04KT 9999 BKN040"
    },
    {
      "icao": "LRIA",
      "alert": "OK",
      "vis_m": 9999,
      "fzfg": false,
      "metar_trigger": false,
      "taf_trigger": false,
      "metar": "METAR LRIA 312200Z 29013KT 9999 -RA BKN009 08/06 Q1011",
      "taf": "TAF LRIA 312000Z 3121/0106 30012KT 9999 BKN015 OVC040"
    },
    {
      "icao": "LROP",
      "alert": "OK",
      "vis_m": 8000,
      "fzfg": false,
      "metar_trigger": false,
      "taf_trigger": false,
      "metar": "METAR LROP 312200Z 02004KT 8000 BKN046 10/08 Q1012 NOSIG",
      "taf": "TAF LROP 311700Z 3118/0118 25008KT 9999 BKN040"
    },
    {
      "icao": "LRSB",
      "alert": "OK",
      "vis_m": 9999,
      "fzfg": false,
      "metar_trigger": false,
      "taf_trigger": false,
      "metar": "METAR LRSB 312200Z VRB01KT 9999 OVC024 06/04 Q1013",
      "taf": "TAF LRSB 311700Z 3118/0118 VRB04KT 9999 OVC030"
    },
    {
      "icao": "LRSM",
      "alert": "OK",
      "vis_m": 9999,
      "fzfg": false,
      "metar_trigger": false,
      "taf_trigger": false,
      "metar": "METAR LRSM 312200Z AUTO 35012KT 9999 BKN060/// OVC075/// 07/04 Q1015",
      "taf": "TAF LRSM 311400Z 3115/3124 26008KT 9999 BKN005 OVC010"
    },
    {
      "icao": "LRSV",
      "alert": "OK",
      "vis_m": 9999,
      "fzfg": false,
      "metar_trigger": false,
      "taf_trigger": false,
      "metar": "METAR LRSV 312200Z 30015KT 9999 -RA OVC010 06/04 Q1011",
      "taf": "TAF LRSV 312000Z 3121/0106 31014KT 9999 BKN010 OVC040"
    },
    {
      "icao": "LRTM",
      "alert": "OK",
      "vis_m": 9999,
      "fzfg": false,
      "metar_trigger": false,
      "taf_trigger": false,
      "metar": "METAR LRTM 312200Z 27005KT 9999 -RA FEW009 SCT013 BKN024 07/05 Q1014",
      "taf": "TAF LRTM 312000Z 3121/0106 VRB04KT 9999 BKN015 OVC030"
    },
    {
      "icao": "LRTR",
      "alert": "OK",
      "vis_m": 7000,
      "fzfg": false,
      "metar_trigger": false,
      "taf_trigger": false,
      "metar": "METAR LRTR 312200Z 36006KT 7000 SCT025 OVC040 07/07 Q1015",
      "taf": "TAF LRTR 311700Z 3118/0118 VRB04KT 9999 SCT020 BKN040"
    },
    {
      "icao": "LTAC",
      "alert": "OK",
      "vis_m": 7000,
      "fzfg": false,
      "metar_trigger": false,
      "taf_trigger": false,
      "metar": "METAR LTAC 312220Z 01002KT 7000 NSC 05/04 Q1012 NOSIG RMK RWY21C VRB01KT RWY03L 36001KT RWY21R 00000KT RWY03R 00000KT RWY21L 06002KT",
      "taf": "TAF LTAC 311640Z 3118/0118 VRB02KT 9999 SCT040 BKN100"
    },
    {
      "icao": "LTFM",
      "alert": "OK",
      "vis_m": 9999,
      "fzfg": false,
      "metar_trigger": false,
      "taf_trigger": false,
      "metar": "METAR LTFM 312220Z 23003KT 140V280 9999 FEW040 BKN100 12/06 Q1011 NOSIG RMK RWY17L VRB01KT RWY34L VRB02KT RWY16R 00000KT RWY36 00000KT RWY18 VRB02KT",
      "taf": "TAF LTFM 311640Z 3118/0124 18010KT 9999 SCT040 BKN100"
    },
    {
      "icao": "LUKK",
      "alert": "OK",
      "vis_m": 9999,
      "fzfg": false,
      "metar_trigger": false,
      "taf_trigger": false,
      "metar": "METAR LUKK 312200Z 33011KT 300V360 9999 -RA OVC011 09/08 Q1008 NOSIG",
      "taf": "TAF LUKK 311702Z 3118/0118 30010KT 9999 OVC010"
    },
    {
      "icao": "LWOH",
      "alert": "OK",
      "vis_m": null,
      "fzfg": false,
      "metar_trigger": false,
      "taf_trigger": false,
      "metar": "",
      "taf": "TAF LWOH 312025Z 3121/0121 33005KT 9999 SCT010 OVC033"
    },
    {
      "icao": "LWSK",
      "alert": "OK",
      "vis_m": 9999,
      "fzfg": false,
      "metar_trigger": false,
      "taf_trigger": false,
      "metar": "METAR LWSK 312220Z VRB02KT 9999 DZ BKN020 OVC033 06/05 Q1012 NOSIG",
      "taf": "TAF LWSK 312025Z 3121/0121 VRB03KT 9999 BKN035 OVC080"
    },
    {
      "icao": "LYBE",
      "alert": "OK",
      "vis_m": 6000,
      "fzfg": false,
      "metar_trigger": false,
      "taf_trigger": false,
      "metar": "METAR LYBE 312200Z 32007KT 6000 SCT003 BKN012 06/06 Q1016 NOSIG",
      "taf": ""
    },
    {
      "icao": "LYNI",
      "alert": "OK",
      "vis_m": 9999,
      "fzfg": false,
      "metar_trigger": false,
      "taf_trigger": false,
      "metar": "METAR LYNI 312200Z 33012KT 9999 FEW017 BKN033 OVC070 06/04 Q1014 NOSIG",
      "taf": "TAF LYNI 311700Z 3118/0118 33009KT 9999 SCT015 BKN023 TX10/0113Z TN04/0105Z"
    },
    {
      "icao": "LYPG",
      "alert": "OK",
      "vis_m": 9999,
      "fzfg": false,
      "metar_trigger": false,
      "taf_trigger": false,
      "metar": "METAR LYPG 312200Z 02016KT 9999 BKN080 11/M00 Q1008 NOSIG",
      "taf": "TAF LYPG 311700Z 3118/0118 02018G30KT 9999 SCT080 TX17/0114Z TN06/0104Z"
    },
    {
      "icao": "LZIB",
      "alert": "OK",
      "vis_m": 9999,
      "fzfg": false,
      "metar_trigger": false,
      "taf_trigger": false,
      "metar": "METAR LZIB 312200Z 33012KT CAVOK 07/01 Q1021 NOSIG",
      "taf": "TAF LZIB 311715Z 3118/0118 32014KT 9999 SCT040"
    },
    {
      "icao": "LZKZ",
      "alert": "OK",
      "vis_m": 9999,
      "fzfg": false,
      "metar_trigger": false,
      "taf_trigger": false,
      "metar": "METAR LZKZ 312200Z 01014KT CAVOK 07/01 Q1017 NOSIG",
      "taf": "TAF LZKZ 311715Z 3118/0118 01013KT 9999 SCT040"
    },
    {
      "icao": "LZTT",
      "alert": "OK",
      "vis_m": 9999,
      "fzfg": false,
      "metar_trigger": false,
      "taf_trigger": false,
      "metar": "METAR LZTT 312200Z VRB01KT 9999 FEW030 00/M00 Q1017",
      "taf": ""
    },
    {
      "icao": "OEJN",
      "alert": "OK",
      "vis_m": 9999,
      "fzfg": false,
      "metar_trigger": false,
      "taf_trigger": false,
      "metar": "METAR OEJN 312200Z 33006KT CAVOK 26/19 Q1010 NOSIG",
      "taf": "TAF OEJN 311700Z 3118/0124 01006KT 7000 NSC"
    },
    {
      "icao": "OEMA",
      "alert": "OK",
      "vis_m": 9999,
      "fzfg": false,
      "metar_trigger": false,
      "taf_trigger": false,
      "metar": "METAR OEMA 312200Z VRB03KT CAVOK 26/07 Q1015 NOSIG",
      "taf": "TAF OEMA 311700Z 3118/0124 VRB03KT CAVOK"
    },
    {
      "icao": "OJAI",
      "alert": "OK",
      "vis_m": 4000,
      "fzfg": false,
      "metar_trigger": false,
      "taf_trigger": false,
      "metar": "METAR OJAI 312200Z 07004KT 4000 BR NSC 09/07 Q1016 NOSIG",
      "taf": "TAF OJAI 311631Z 3118/0124 26010KT 5000 HZ FEW035"
    },
    {
      "icao": "OMAA",
      "alert": "OK",
      "vis_m": null,
      "fzfg": false,
      "metar_trigger": false,
      "taf_trigger": false,
      "metar": "",
      "taf": ""
    },
    {
      "icao": "OMDB",
      "alert": "OK",
      "vis_m": null,
      "fzfg": false,
      "metar_trigger": false,
      "taf_trigger": false,
      "metar": "",
      "taf": ""
    },
    {
      "icao": "UAAA",
      "alert": "OK",
      "vis_m": 9999,
      "fzfg": false,
      "metar_trigger": false,
      "taf_trigger": false,
      "metar": "METAR UAAA 312200Z 00000MPS 9999 SCT100 11/04 Q1010 NOSIG",
      "taf": "TAF UAAA 311702Z 3118/0118 19002MPS 9999 SCT050 BKN100 TX25/0110Z TN09/0101Z"
    },
    {
      "icao": "UBBB",
      "alert": "OK",
      "vis_m": 8000,
      "fzfg": false,
      "metar_trigger": false,
      "taf_trigger": false,
      "metar": "METAR UBBB 312200Z 34002KT 8000 SCT050CB 12/11 Q1011 NOSIG",
      "taf": "TAF UBBB 311706Z 3118/0118 15005KT 9999 SCT030 TX18/0110Z TN09/0101Z"
    },
    {
      "icao": "UDSG",
      "alert": "OK",
      "vis_m": 9999,
      "fzfg": false,
      "metar_trigger": false,
      "taf_trigger": false,
      "metar": "METAR UDSG 312200Z 36002KT 9999 FEW049 M02/M05 Q1015 NOSIG",
      "taf": "TAF UDSG 311658Z 3118/0118 06006KT 9999 FEW040"
    },
    {
      "icao": "UDYZ",
      "alert": "OK",
      "vis_m": 9999,
      "fzfg": false,
      "metar_trigger": false,
      "taf_trigger": false,
      "metar": "METAR UDYZ 312200Z 14003KT 9999 FEW046 05/01 Q1013 NOSIG",
      "taf": "TAF UDYZ 311700Z 3118/0118 06006KT 9999 FEW040"
    },
    {
      "icao": "UGKO",
      "alert": "OK",
      "vis_m": 9999,
      "fzfg": false,
      "metar_trigger": false,
      "taf_trigger": false,
      "metar": "METAR UGKO 312200Z VRB02KT 9999 BKN083 10/08 Q1013 NOSIG",
      "taf": "TAF UGKO 311700Z 3118/0118 09007KT CAVOK TX22/0111Z TN05/0103Z"
    }
  ]
}