{
  "ts_utc": "2026-04-04T07:59:10Z",
  "threshold_m": 150,
  "source": "stations_override.txt (ICAO list) + aviationweather.gov (METAR/TAF raw)",
  "station_count": 159,
  "stations": [
    {
      "icao": "BIKF",
      "alert": "OK",
      "vis_m": 9999,
      "fzfg": false,
      "metar_trigger": false,
      "taf_trigger": false,
      "metar": "METAR BIKF 040730Z 11006KT 9999 FEW003 BKN051 BKN080 M02/M03 Q0993",
      "taf": "TAF BIKF 040747Z 0409/0509 12008KT 9999 FEW015CB BKN030 TX02/0415Z TNM05/0506Z"
    },
    {
      "icao": "BKPR",
      "alert": "OK",
      "vis_m": null,
      "fzfg": false,
      "metar_trigger": false,
      "taf_trigger": false,
      "metar": "",
      "taf": "TAF BKPR 040530Z 0406/0506 35008KT 9999 SCT012 BKN030"
    },
    {
      "icao": "EBCI",
      "alert": "OK",
      "vis_m": 9999,
      "fzfg": false,
      "metar_trigger": false,
      "taf_trigger": false,
      "metar": "METAR EBCI 040750Z 25010KT 220V280 9999 SCT009 BKN024 10/08 Q1021 TEMPO BKN010",
      "taf": "TAF EBCI 040512Z 0406/0512 24008KT 8000 -RADZ -DZ SCT008 BKN012 TEMP 0406/0408 4000 DZ DZRA BKN008"
    },
    {
      "icao": "EDDB",
      "alert": "OK",
      "vis_m": 9999,
      "fzfg": false,
      "metar_trigger": false,
      "taf_trigger": false,
      "metar": "METAR EDDB 040750Z AUTO 26012KT 9999 FEW013 11/09 Q1014 TEMPO 30015G25KT",
      "taf": "TAF EDDB 040500Z 0406/0506 23010KT 9999 OVC025"
    },
    {
      "icao": "EDDH",
      "alert": "OK",
      "vis_m": 9999,
      "fzfg": false,
      "metar_trigger": false,
      "taf_trigger": false,
      "metar": "METAR EDDH 040750Z AUTO 28017KT 240V320 9999 SCT023 BKN028 BKN033 09/03 Q1014 TEMPO 28015G25KT",
      "taf": "TAF EDDH 040500Z 0406/0512 27012KT 9999 FEW025"
    },
    {
      "icao": "EDDK",
      "alert": "OK",
      "vis_m": 9999,
      "fzfg": false,
      "metar_trigger": false,
      "taf_trigger": false,
      "metar": "METAR EDDK 040750Z AUTO 24010KT 9999 SCT015 BKN020 BKN027 12/10 Q1019 NOSIG",
      "taf": "TAF EDDK 040500Z 0406/0512 27009KT 9999 SCT015 BKN030"
    },
    {
      "icao": "EDDN",
      "alert": "OK",
      "vis_m": 9999,
      "fzfg": false,
      "metar_trigger": false,
      "taf_trigger": false,
      "metar": "METAR EDDN 040750Z AUTO 25011KT 9999 BKN017 BKN041 11/07 Q1020 NOSIG",
      "taf": "TAF EDDN 040500Z 0406/0506 25010KT 9999 BKN025"
    },
    {
      "icao": "EDDS",
      "alert": "OK",
      "vis_m": 9999,
      "fzfg": false,
      "metar_trigger": false,
      "taf_trigger": false,
      "metar": "METAR EDDS 040750Z AUTO 24008KT 160V300 9999 BKN021 OVC027 11/06 Q1021 NOSIG",
      "taf": "TAF EDDS 040500Z 0406/0506 22005KT 9999 BKN020"
    },
    {
      "icao": "EDFH",
      "alert": "OK",
      "vis_m": 9999,
      "fzfg": false,
      "metar_trigger": false,
      "taf_trigger": false,
      "metar": "METAR EDFH 040750Z 27012KT 240V300 9999 BKN008 10/08 Q1020",
      "taf": "TAF EDFH 040500Z 0406/0506 26012KT 9999 BKN005"
    },
    {
      "icao": "EDJA",
      "alert": "OK",
      "vis_m": 9999,
      "fzfg": false,
      "metar_trigger": false,
      "taf_trigger": false,
      "metar": "METAR EDJA 040750Z 22014G24KT 9999 BKN020 07/04 Q1023",
      "taf": "TAF EDJA 040500Z 0406/0415 23015G25KT 9999 BKN030"
    },
    {
      "icao": "EDLW",
      "alert": "OK",
      "vis_m": 9999,
      "fzfg": false,
      "metar_trigger": false,
      "taf_trigger": false,
      "metar": "METAR EDLW 040750Z 25006KT 220V280 9999 FEW009 10/09 Q1018",
      "taf": "TAF EDLW 040500Z 0406/0506 26009KT 9999 SCT010 BKN020"
    },
    {
      "icao": "EDNY",
      "alert": "OK",
      "vis_m": 9999,
      "fzfg": false,
      "metar_trigger": false,
      "taf_trigger": false,
      "metar": "METAR EDNY 040750Z 16005KT 9999 OVC032 09/05 Q1024",
      "taf": "TAF EDNY 040500Z 0406/0415 23006KT 9999 OVC030"
    },
    {
      "icao": "EDSB",
      "alert": "OK",
      "vis_m": 9999,
      "fzfg": false,
      "metar_trigger": false,
      "taf_trigger": false,
      "metar": "METAR EDSB 040750Z 19012KT 9999 OVC018 11/09 Q1023",
      "taf": "TAF EDSB 040500Z 0406/0506 21010KT 9999 OVC020"
    },
    {
      "icao": "EETN",
      "alert": "OK",
      "vis_m": 9999,
      "fzfg": false,
      "metar_trigger": false,
      "taf_trigger": false,
      "metar": "METAR EETN 040750Z 20008KT 9999 OVC004 03/03 Q1003 BECMG OVC008",
      "taf": "TAF EETN 040530Z 0406/0506 20010KT 4000 BR OVC003"
    },
    {
      "icao": "EFTU",
      "alert": "OK",
      "vis_m": 2000,
      "fzfg": false,
      "metar_trigger": false,
      "taf_trigger": false,
      "metar": "METAR EFTU 040750Z AUTO 17008KT 130V220 2000 BR OVC001 02/02 Q1000",
      "taf": ""
    },
    {
      "icao": "EGBB",
      "alert": "OK",
      "vis_m": 9999,
      "fzfg": false,
      "metar_trigger": false,
      "taf_trigger": false,
      "metar": "METAR EGBB 040750Z 18005KT 150V220 9999 FEW008 BKN042 08/07 Q1015",
      "taf": "TAF EGBB 040453Z 0406/0506 16004KT 9999 FEW045"
    },
    {
      "icao": "EGGP",
      "alert": "OK",
      "vis_m": 9999,
      "fzfg": false,
      "metar_trigger": false,
      "taf_trigger": false,
      "metar": "METAR EGGP 040750Z 17006KT 140V200 9999 BKN040 07/04 Q1013",
      "taf": "TAF EGGP 040500Z 0406/0506 17005KT 9999 FEW040"
    },
    {
      "icao": "EGGW",
      "alert": "OK",
      "vis_m": 9999,
      "fzfg": false,
      "metar_trigger": false,
      "taf_trigger": false,
      "metar": "METAR EGGW 040750Z AUTO 20005KT 160V220 9999 BKN038 08/06 Q1017",
      "taf": "TAF EGGW 040456Z 0406/0506 26009KT 9999 SCT025"
    },
    {
      "icao": "EGKK",
      "alert": "OK",
      "vis_m": 9999,
      "fzfg": false,
      "metar_trigger": false,
      "taf_trigger": false,
      "metar": "METAR EGKK 040750Z 21005KT 180V250 9999 BKN025 11/09 Q1018",
      "taf": "TAF EGKK 040455Z 0406/0512 21008KT 9999 FEW030"
    },
    {
      "icao": "EGNM",
      "alert": "OK",
      "vis_m": 9999,
      "fzfg": false,
      "metar_trigger": false,
      "taf_trigger": false,
      "metar": "METAR EGNM 040750Z 14004KT 110V180 9999 -RA FEW015 BKN035 05/03 Q1013",
      "taf": "TAF EGNM 040502Z 0406/0506 VRB04KT 9999 FEW018 SCT025"
    },
    {
      "icao": "EGPD",
      "alert": "OK",
      "vis_m": 9999,
      "fzfg": false,
      "metar_trigger": false,
      "taf_trigger": false,
      "metar": "METAR EGPD 040750Z COR AUTO 21006KT 9999 NCD 04/M01 Q1009 NOSIG",
      "taf": "TAF EGPD 040455Z 0406/0506 27009KT 9999 SCT020"
    },
    {
      "icao": "EGPF",
      "alert": "OK",
      "vis_m": 9999,
      "fzfg": false,
      "metar_trigger": false,
      "taf_trigger": false,
      "metar": "METAR EGPF 040750Z AUTO VRB02KT 9999 NCD 05/03 Q1010",
      "taf": "TAF EGPF 040457Z 0406/0506 24005KT 9999 FEW025"
    },
    {
      "icao": "EHBK",
      "alert": "OK",
      "vis_m": 9999,
      "fzfg": false,
      "metar_trigger": false,
      "taf_trigger": false,
      "metar": "METAR EHBK 040755Z AUTO 25009KT 200V290 9999 SCT011/// BKN014/// BKN020/// 12/09 Q1019 TEMPO SCT014",
      "taf": "TAF EHBK 040512Z 0406/0512 25010KT 9999 BKN012"
    },
    {
      "icao": "EHEH",
      "alert": "OK",
      "vis_m": 9999,
      "fzfg": false,
      "metar_trigger": false,
      "taf_trigger": false,
      "metar": "METAR EHEH 040725Z AUTO 25006KT 230V300 9999 SCT011 BKN014 OVC043 12/09 Q1018 GRN NOSIG RMK TREND REMOTE BY EHWX",
      "taf": "TAF EHEH 040505Z 0406/0512 27005KT 9999 BKN040"
    },
    {
      "icao": "EKBI",
      "alert": "OK",
      "vis_m": 9999,
      "fzfg": false,
      "metar_trigger": false,
      "taf_trigger": false,
      "metar": "METAR EKBI 040750Z AUTO 27022KT 9999 BKN018/// 06/03 Q1010",
      "taf": "TAF EKBI 040527Z 0406/0506 27015KT 9999 BKN020"
    },
    {
      "icao": "EKCH",
      "alert": "OK",
      "vis_m": 9999,
      "fzfg": false,
      "metar_trigger": false,
      "taf_trigger": false,
      "metar": "METAR EKCH 040750Z AUTO 28017KT 9999 BKN018/// 07/04 Q1007 TEMPO 27018G30KT",
      "taf": "TAF EKCH 040527Z 0406/0506 25018KT 9999 BKN030"
    },
    {
      "icao": "ENAL",
      "alert": "OK",
      "vis_m": 9999,
      "fzfg": false,
      "metar_trigger": false,
      "taf_trigger": false,
      "metar": "METAR ENAL 040750Z 19014KT 9999 -RA FEW006 SCT011 BKN019 04/02 Q0992",
      "taf": "TAF ENAL 040500Z 0406/0415 21018KT 9999 -SHRA FEW020 BKN040"
    },
    {
      "icao": "ENBR",
      "alert": "OK",
      "vis_m": 9999,
      "fzfg": false,
      "metar_trigger": false,
      "taf_trigger": false,
      "metar": "METAR ENBR 040750Z 25011KT 220V280 9999 FEW022CB SCT031 05/00 Q1000 TEMPO 26015G25KT SHRA SCT020CB RMK WIND 1200FT 27023KT",
      "taf": "TAF ENBR 040500Z 0406/0506 25008KT 9999 FEW015TCU SCT030"
    },
    {
      "icao": "ENGM",
      "alert": "OK",
      "vis_m": 9999,
      "fzfg": false,
      "metar_trigger": false,
      "taf_trigger": false,
      "metar": "METAR ENGM 040750Z 31005KT 270V360 CAVOK 02/M02 Q0994 NOSIG",
      "taf": "TAF ENGM 040500Z 0406/0506 01005KT 9999 SCT030"
    },
    {
      "icao": "ENHD",
      "alert": "OK",
      "vis_m": 9999,
      "fzfg": false,
      "metar_trigger": false,
      "taf_trigger": false,
      "metar": "METAR ENHD 040750Z 27023KT 9999 FEW023 06/01 Q1002",
      "taf": "TAF ENHD 040500Z 0406/0415 28015KT 9999 -SHRA FEW015TCU BKN025"
    },
    {
      "icao": "ENTC",
      "alert": "OK",
      "vis_m": 9999,
      "fzfg": false,
      "metar_trigger": false,
      "taf_trigger": false,
      "metar": "METAR ENTC 040750Z 01005KT CAVOK M00/M06 Q1002 NOSIG RMK WIND 2600FT 14006KT",
      "taf": "TAF ENTC 040500Z 0406/0506 02008KT 9999 FEW050"
    },
    {
      "icao": "ENTO",
      "alert": "OK",
      "vis_m": 9999,
      "fzfg": false,
      "metar_trigger": false,
      "taf_trigger": false,
      "metar": "METAR ENTO 040750Z 24007KT CAVOK 03/01 Q0997 NOSIG",
      "taf": "TAF ENTO 040500Z 0406/0506 27008KT CAVOK"
    },
    {
      "icao": "ENVA",
      "alert": "OK",
      "vis_m": 9999,
      "fzfg": false,
      "metar_trigger": false,
      "taf_trigger": false,
      "metar": "METAR ENVA 040750Z 23007KT 9999 VCSH SCT020 BKN030 05/M01 Q0993 TEMPO SHRA BKN018CB RMK WIND 670FT 21011KT",
      "taf": ""
    },
    {
      "icao": "ENZV",
      "alert": "OK",
      "vis_m": 9999,
      "fzfg": false,
      "metar_trigger": false,
      "taf_trigger": false,
      "metar": "METAR ENZV 040750Z 27014KT 9999 FEW023CB 06/01 Q1003 TEMPO 29020G30KT 4000 SHRA SCT008 BKN018CB",
      "taf": "TAF ENZV 040500Z 0406/0506 28018KT 9999 FEW015TCU BKN035"
    },
    {
      "icao": "EPGD",
      "alert": "OK",
      "vis_m": 9999,
      "fzfg": false,
      "metar_trigger": false,
      "taf_trigger": false,
      "metar": "METAR EPGD 040730Z 23012KT 190V250 9999 FEW007 BKN014 04/03 Q1007",
      "taf": "TAF EPGD 040530Z 0406/0506 19009KT 9999 BKN035"
    },
    {
      "icao": "EPKK",
      "alert": "OK",
      "vis_m": 9999,
      "fzfg": false,
      "metar_trigger": false,
      "taf_trigger": false,
      "metar": "METAR EPKK 040730Z 21005KT 190V250 CAVOK 10/03 Q1016",
      "taf": "TAF EPKK 040530Z 0406/0506 VRB02KT CAVOK"
    },
    {
      "icao": "EPKT",
      "alert": "OK",
      "vis_m": 9999,
      "fzfg": false,
      "metar_trigger": false,
      "taf_trigger": false,
      "metar": "METAR EPKT 040730Z 23010KT CAVOK 10/03 Q1015",
      "taf": "TAF EPKT 040530Z 0406/0506 24008KT CAVOK"
    },
    {
      "icao": "EPLB",
      "alert": "OK",
      "vis_m": 9999,
      "fzfg": false,
      "metar_trigger": false,
      "taf_trigger": false,
      "metar": "METAR EPLB 040730Z 25011KT 9999 FEW023 09/03 Q1015",
      "taf": "TAF EPLB 040530Z 0406/0506 28010KT CAVOK"
    },
    {
      "icao": "EPMO",
      "alert": "OK",
      "vis_m": 9999,
      "fzfg": false,
      "metar_trigger": false,
      "taf_trigger": false,
      "metar": "METAR EPMO 040730Z 21012KT 180V240 CAVOK 10/03 Q1012",
      "taf": "TAF EPMO 040530Z 0406/0506 19005KT CAVOK"
    },
    {
      "icao": "EPPO",
      "alert": "OK",
      "vis_m": 9999,
      "fzfg": false,
      "metar_trigger": false,
      "taf_trigger": false,
      "metar": "METAR EPPO 040730Z 23010KT 9999 OVC023 08/06 Q1012",
      "taf": "TAF EPPO 040530Z 0406/0506 19004KT CAVOK"
    },
    {
      "icao": "EPRA",
      "alert": "OK",
      "vis_m": 9999,
      "fzfg": false,
      "metar_trigger": false,
      "taf_trigger": false,
      "metar": "METAR EPRA 040730Z 24009KT CAVOK 10/02 Q1014",
      "taf": "TAF EPRA 040530Z 0406/0415 22005KT CAVOK"
    },
    {
      "icao": "EPRZ",
      "alert": "OK",
      "vis_m": 9999,
      "fzfg": false,
      "metar_trigger": false,
      "taf_trigger": false,
      "metar": "METAR EPRZ 040730Z 25006KT 220V280 CAVOK 11/04 Q1016",
      "taf": "TAF EPRZ 040530Z 0406/0506 24005KT CAVOK"
    },
    {
      "icao": "EPSC",
      "alert": "OK",
      "vis_m": 9999,
      "fzfg": false,
      "metar_trigger": false,
      "taf_trigger": false,
      "metar": "METAR EPSC 040730Z 26013KT 9999 SCT018 11/07 Q1010",
      "taf": "TAF EPSC 040530Z 0406/0506 21008KT 9999 BKN017"
    },
    {
      "icao": "EPSY",
      "alert": "OK",
      "vis_m": 9999,
      "fzfg": false,
      "metar_trigger": false,
      "taf_trigger": false,
      "metar": "METAR EPSY 040730Z 20008KT 9999 SCT038 BKN045 06/00 Q1010",
      "taf": "TAF EPSY 040530Z 0406/0415 VRB02KT CAVOK"
    },
    {
      "icao": "EPWA",
      "alert": "OK",
      "vis_m": 9999,
      "fzfg": false,
      "metar_trigger": false,
      "taf_trigger": false,
      "metar": "METAR EPWA 040730Z 23009KT CAVOK 11/03 Q1013 NOSIG",
      "taf": "TAF EPWA 040530Z 0406/0506 VRB03KT CAVOK"
    },
    {
      "icao": "EPWR",
      "alert": "OK",
      "vis_m": 9999,
      "fzfg": false,
      "metar_trigger": false,
      "taf_trigger": false,
      "metar": "METAR EPWR 040730Z 26012KT 9999 -RA FEW009 SCT020 BKN027 10/06 Q1015",
      "taf": "TAF EPWR 040530Z 0406/0506 20006KT CAVOK"
    },
    {
      "icao": "ESGG",
      "alert": "OK",
      "vis_m": 9999,
      "fzfg": false,
      "metar_trigger": false,
      "taf_trigger": false,
      "metar": "METAR ESGG 040750Z 27018G28KT 9999 BKN012 05/02 Q1000",
      "taf": "TAF ESGG 040530Z 0406/0506 27016G28KT 9999 BKN009"
    },
    {
      "icao": "ESKN",
      "alert": "OK",
      "vis_m": 9999,
      "fzfg": false,
      "metar_trigger": false,
      "taf_trigger": false,
      "metar": "METAR ESKN 040750Z 21011KT 9999 -DZ SCT007 BKN010 03/03 Q0993",
      "taf": ""
    },
    {
      "icao": "ESMS",
      "alert": "OK",
      "vis_m": 6000,
      "fzfg": false,
      "metar_trigger": false,
      "taf_trigger": false,
      "metar": "METAR ESMS 040750Z 27016KT 6000 BKN016 06/05 Q1006",
      "taf": "TAF ESMS 040527Z 0406/0506 27016KT 9999 BKN030"
    },
    {
      "icao": "ESSA",
      "alert": "OK",
      "vis_m": 3500,
      "fzfg": false,
      "metar_trigger": false,
      "taf_trigger": false,
      "metar": "METAR ESSA 040750Z 13010KT 3500 -SNRA BKN004 00/M00 Q0994 TEMPO 2500 SN BKN003",
      "taf": "TAF ESSA 040530Z 0406/0506 16008KT 9999 OVC005"
    },
    {
      "icao": "EYKA",
      "alert": "OK",
      "vis_m": 9999,
      "fzfg": false,
      "metar_trigger": false,
      "taf_trigger": false,
      "metar": "METAR EYKA 040750Z 24009G19KT 160V290 9999 BKN032 05/M03 Q1010",
      "taf": "TAF EYKA 040500Z 0406/0506 23011KT 9000 BKN035"
    },
    {
      "icao": "EYPA",
      "alert": "OK",
      "vis_m": 9999,
      "fzfg": false,
      "metar_trigger": false,
      "taf_trigger": false,
      "metar": "METAR EYPA 040750Z 19017KT 9999 -RA BKN044 05/00 Q1005",
      "taf": "TAF EYPA 040500Z 0406/0506 20011KT 9000 BKN030"
    },
    {
      "icao": "EYVI",
      "alert": "OK",
      "vis_m": 9999,
      "fzfg": false,
      "metar_trigger": false,
      "taf_trigger": false,
      "metar": "METAR EYVI 040750Z 24011KT 210V280 9999 BKN025 04/M03 Q1010 NOSIG",
      "taf": "TAF EYVI 040506Z 0406/0506 21010G20KT 9000 OVC030"
    },
    {
      "icao": "GCFV",
      "alert": "OK",
      "vis_m": 9999,
      "fzfg": false,
      "metar_trigger": false,
      "taf_trigger": false,
      "metar": "METAR GCFV 040730Z 17003KT 100V210 9999 FEW025 18/13 Q1017",
      "taf": "TAF GCFV 040200Z 0403/0503 34009KT CAVOK TX24/0414Z TN16/0406Z"
    },
    {
      "icao": "GCLP",
      "alert": "OK",
      "vis_m": 9999,
      "fzfg": false,
      "metar_trigger": false,
      "taf_trigger": false,
      "metar": "METAR GCLP 040730Z 36008KT 9999 FEW020 17/14 Q1017 NOSIG",
      "taf": ""
    },
    {
      "icao": "GCTS",
      "alert": "OK",
      "vis_m": 9999,
      "fzfg": false,
      "metar_trigger": false,
      "taf_trigger": false,
      "metar": "METAR GCTS 040730Z 07009KT 9999 FEW080 BKN100 17/14 Q1017 NOSIG",
      "taf": "TAF GCTS 040200Z 0403/0503 07009KT 9999 FEW020 SCT060 TX25/0414Z TN18/0406Z"
    },
    {
      "icao": "GMAD",
      "alert": "OK",
      "vis_m": 8000,
      "fzfg": false,
      "metar_trigger": false,
      "taf_trigger": false,
      "metar": "METAR GMAD 040730Z 05009KT 8000 NSC 18/09 Q1015 NOSIG",
      "taf": "TAF GMAD 040500Z 0406/0512 07005KT 8000 NSC"
    },
    {
      "icao": "GMMN",
      "alert": "OK",
      "vis_m": 9999,
      "fzfg": false,
      "metar_trigger": false,
      "taf_trigger": false,
      "metar": "METAR GMMN 040730Z 20003KT CAVOK 10/07 Q1018 NOSIG",
      "taf": "TAF GMMN 040500Z 0406/0512 09005KT CAVOK"
    },
    {
      "icao": "GMMX",
      "alert": "OK",
      "vis_m": 9999,
      "fzfg": false,
      "metar_trigger": false,
      "taf_trigger": false,
      "metar": "METAR GMMX 040730Z VRB02KT CAVOK 15/09 Q1017 NOSIG",
      "taf": "TAF GMMX 040500Z 0406/0512 08006KT CAVOK"
    },
    {
      "icao": "HEGN",
      "alert": "OK",
      "vis_m": 9999,
      "fzfg": false,
      "metar_trigger": false,
      "taf_trigger": false,
      "metar": "METAR HEGN 040700Z 31014KT 9999 SCT025 26/02 Q1015 NOSIG",
      "taf": "TAF HEGN 040500Z 0406/0512 33010G22KT 9999 SCT020"
    },
    {
      "icao": "HEMA",
      "alert": "OK",
      "vis_m": 9999,
      "fzfg": false,
      "metar_trigger": false,
      "taf_trigger": false,
      "metar": "METAR HEMA 040700Z 32014KT CAVOK 24/04 Q1015 NOSIG",
      "taf": "TAF HEMA 040500Z 0406/0512 34010G22KT 9999 SCT020"
    },
    {
      "icao": "HESH",
      "alert": "OK",
      "vis_m": 8000,
      "fzfg": false,
      "metar_trigger": false,
      "taf_trigger": false,
      "metar": "METAR HESH 040700Z 34008KT 8000 NSC 26/05 Q1015 NOSIG",
      "taf": "TAF HESH 040500Z 0406/0512 35008G20KT 9999 SCT020"
    },
    {
      "icao": "HESX",
      "alert": "OK",
      "vis_m": 9999,
      "fzfg": false,
      "metar_trigger": false,
      "taf_trigger": false,
      "metar": "METAR HESX 040700Z 26005KT CAVOK 19/06 Q1017 NOSIG",
      "taf": "TAF HESX 040500Z 0406/0512 27009KT CAVOK"
    },
    {
      "icao": "LATI",
      "alert": "OK",
      "vis_m": 9999,
      "fzfg": false,
      "metar_trigger": false,
      "taf_trigger": false,
      "metar": "METAR LATI 040750Z 31007KT 250V020 9999 FEW068 SCT130 18/05 Q1014 NOSIG",
      "taf": "TAF LATI 040500Z 0406/0506 VRB05KT CAVOK TX23/0412Z TN07/0504Z"
    },
    {
      "icao": "LBPD",
      "alert": "OK",
      "vis_m": 9999,
      "fzfg": false,
      "metar_trigger": false,
      "taf_trigger": false,
      "metar": "METAR LBPD 040730Z AUTO 28012KT 9999 FEW059/// SCT070/// OVC081/// 14/08 Q1013 NOSIG",
      "taf": "TAF LBPD 040500Z 0406/0506 29014KT 9999 BKN040"
    },
    {
      "icao": "LBSF",
      "alert": "OK",
      "vis_m": 8000,
      "fzfg": false,
      "metar_trigger": false,
      "taf_trigger": false,
      "metar": "METAR LBSF 040730Z 29007KT 8000 -RA FEW006 SCT016 OVC039 09/07 Q1015 RERA TEMPO 3000 RA",
      "taf": "TAF LBSF 040500Z 0406/0506 29012KT 9999 SCT015 BKN035"
    },
    {
      "icao": "LBWN",
      "alert": "OK",
      "vis_m": 9999,
      "fzfg": false,
      "metar_trigger": false,
      "taf_trigger": false,
      "metar": "METAR LBWN 040730Z 35014KT 9999 SCT016 13/11 Q1012 NOSIG",
      "taf": "TAF LBWN 040500Z 0406/0506 34010KT 9999 SCT010 BKN030"
    },
    {
      "icao": "LCLK",
      "alert": "OK",
      "vis_m": 6000,
      "fzfg": false,
      "metar_trigger": false,
      "taf_trigger": false,
      "metar": "METAR LCLK 040730Z 22017KT 6000 NSC 20/12 Q1014 NOSIG",
      "taf": "TAF LCLK 040530Z 0406/0506 27008KT 4000 DU FEW025"
    },
    {
      "icao": "LCPH",
      "alert": "OK",
      "vis_m": 9999,
      "fzfg": false,
      "metar_trigger": false,
      "taf_trigger": false,
      "metar": "METAR LCPH 040730Z 22004KT 170V260 9999 FEW025 SCT040 19/12 Q1015 NOSIG",
      "taf": "TAF LCPH 040530Z 0406/0506 30006KT 7000 FEW030 SCT050"
    },
    {
      "icao": "LEAL",
      "alert": "OK",
      "vis_m": 9999,
      "fzfg": false,
      "metar_trigger": false,
      "taf_trigger": false,
      "metar": "METAR LEAL 040730Z 25004KT 210V280 CAVOK 14/08 Q1025 NOSIG",
      "taf": "TAF LEAL 040500Z 0406/0506 VRB03KT CAVOK TX21/0412Z TN08/0406Z"
    },
    {
      "icao": "LEBB",
      "alert": "OK",
      "vis_m": 9999,
      "fzfg": false,
      "metar_trigger": false,
      "taf_trigger": false,
      "metar": "METAR LEBB 040730Z 12005KT 040V150 CAVOK 12/06 Q1024 NOSIG",
      "taf": "TAF LEBB 040500Z 0406/0506 13006KT CAVOK TX27/0414Z TN06/0406Z"
    },
    {
      "icao": "LEBL",
      "alert": "OK",
      "vis_m": 9999,
      "fzfg": false,
      "metar_trigger": false,
      "taf_trigger": false,
      "metar": "METAR LEBL 040730Z VRB10G21KT 9999 FEW020 13/06 Q1024 NOSIG",
      "taf": "TAF LEBL 040500Z 0406/0506 34005KT 9999 FEW020 TX19/0412Z TN09/0406Z"
    },
    {
      "icao": "LECH",
      "alert": "OK",
      "vis_m": 9000,
      "fzfg": false,
      "metar_trigger": false,
      "taf_trigger": false,
      "metar": "METAR LECH 040730Z AUTO 21005KT 9000 NCD 13/03 Q1024",
      "taf": "TAF LECH 040500Z 0406/0506 VRB04KT CAVOK TX23/0413Z TN08/0406Z"
    },
    {
      "icao": "LEMD",
      "alert": "OK",
      "vis_m": 9999,
      "fzfg": false,
      "metar_trigger": false,
      "taf_trigger": false,
      "metar": "METAR LEMD 040730Z 36004KT 340V040 CAVOK 09/04 Q1025 NOSIG",
      "taf": "TAF LEMD 040500Z 0406/0512 VRB04KT CAVOK TX23/0416Z TN07/0506Z"
    },
    {
      "icao": "LEMG",
      "alert": "OK",
      "vis_m": 9999,
      "fzfg": false,
      "metar_trigger": false,
      "taf_trigger": false,
      "metar": "METAR LEMG 040730Z 32005KT CAVOK 09/05 Q1025 NOSIG",
      "taf": "TAF LEMG 040500Z 0406/0506 29006KT CAVOK TX21/0414Z TN11/0407Z"
    },
    {
      "icao": "LEVC",
      "alert": "OK",
      "vis_m": 9999,
      "fzfg": false,
      "metar_trigger": false,
      "taf_trigger": false,
      "metar": "METAR LEVC 040730Z VRB02KT CAVOK 13/05 Q1024 NOSIG",
      "taf": "TAF LEVC 040500Z 0406/0506 VRB03KT CAVOK TX25/0414Z TN08/0406Z"
    },
    {
      "icao": "LEXJ",
      "alert": "OK",
      "vis_m": 9999,
      "fzfg": false,
      "metar_trigger": false,
      "taf_trigger": false,
      "metar": "METAR LEXJ 040730Z 29001KT CAVOK 10/07 Q1022",
      "taf": "TAF LEXJ 040200Z 0403/0503 VRB03KT CAVOK TX26/0412Z TN09/0405Z"
    },
    {
      "icao": "LEZG",
      "alert": "OK",
      "vis_m": 9999,
      "fzfg": false,
      "metar_trigger": false,
      "taf_trigger": false,
      "metar": "METAR LEZG 040730Z VRB01KT CAVOK 11/02 Q1025 NOSIG",
      "taf": "TAF LEZG 040500Z 0406/0506 28005KT 9999 FEW050 TX27/0414Z TN09/0406Z"
    },
    {
      "icao": "LEZL",
      "alert": "OK",
      "vis_m": 9999,
      "fzfg": false,
      "metar_trigger": false,
      "taf_trigger": false,
      "metar": "METAR LEZL 040730Z VRB02KT CAVOK 13/06 Q1023 NOSIG",
      "taf": "TAF LEZL 040200Z 0403/0503 06008KT CAVOK TX28/0415Z TN09/0407Z"
    },
    {
      "icao": "LFBD",
      "alert": "OK",
      "vis_m": 6000,
      "fzfg": false,
      "metar_trigger": false,
      "taf_trigger": false,
      "metar": "METAR LFBD 040730Z AUTO 14007KT 6000 2300 OVC003 08/08 Q1026 BECMG SCT015",
      "taf": ""
    },
    {
      "icao": "LFLL",
      "alert": "OK",
      "vis_m": 9999,
      "fzfg": false,
      "metar_trigger": false,
      "taf_trigger": false,
      "metar": "METAR LFLL 040730Z VRB03KT 9999 BKN010 BKN020 11/09 Q1026 NOSIG",
      "taf": "TAF LFLL 040500Z 0406/0512 35005KT 9999 BKN030"
    },
    {
      "icao": "LFLS",
      "alert": "OK",
      "vis_m": 9999,
      "fzfg": false,
      "metar_trigger": false,
      "taf_trigger": false,
      "metar": "METAR LFLS 040730Z AUTO 24003KT 150V320 9999 OVC015 11/08 Q1025 TEMPO BKN014",
      "taf": "TAF LFLS 040200Z 0403/0503 VRB03KT 9999 BKN023"
    },
    {
      "icao": "LFMN",
      "alert": "OK",
      "vis_m": 9999,
      "fzfg": false,
      "metar_trigger": false,
      "taf_trigger": false,
      "metar": "METAR LFMN 040730Z 04005KT CAVOK 17/01 Q1020 NOSIG",
      "taf": "TAF LFMN 040200Z 0403/0509 34010KT CAVOK"
    },
    {
      "icao": "LFOB",
      "alert": "OK",
      "vis_m": 9999,
      "fzfg": false,
      "metar_trigger": false,
      "taf_trigger": false,
      "metar": "METAR LFOB 040730Z AUTO 23006KT 190V270 9999 OVC009 12/11 Q1022 TEMPO 3000 DZRA OVC003",
      "taf": "TAF LFOB 040500Z 0406/0506 25012KT 9999 OVC012"
    },
    {
      "icao": "LFPO",
      "alert": "OK",
      "vis_m": 9999,
      "fzfg": false,
      "metar_trigger": false,
      "taf_trigger": false,
      "metar": "METAR LFPO 040730Z 23011KT 200V260 9999 BKN010 BKN026 BKN040 13/11 Q1023 BECMG SCT012 BKN020",
      "taf": ""
    },
    {
      "icao": "LFSB",
      "alert": "OK",
      "vis_m": 9999,
      "fzfg": false,
      "metar_trigger": false,
      "taf_trigger": false,
      "metar": "METAR LFSB 040730Z AUTO 13005KT 9999 BKN045 OVC052 10/09 Q1024 TEMPO BKN014 FEW025TCU",
      "taf": "TAF LFSB 040500Z 0406/0506 27006KT 9999 BKN030"
    },
    {
      "icao": "LGAV",
      "alert": "OK",
      "vis_m": 9999,
      "fzfg": false,
      "metar_trigger": false,
      "taf_trigger": false,
      "metar": "METAR LGAV 040750Z 34007KT 300V020 9999 SCT025 BKN050 16/07 Q1011 NOSIG",
      "taf": "TAF LGAV 040500Z 0406/0506 35010KT 9999 SCT025 SCT070"
    },
    {
      "icao": "LGTS",
      "alert": "OK",
      "vis_m": 9999,
      "fzfg": false,
      "metar_trigger": false,
      "taf_trigger": false,
      "metar": "METAR LGTS 040750Z 30010KT 9999 SCT025 15/08 Q1012 NOSIG",
      "taf": "TAF LGTS 040500Z 0406/0506 33005KT 9999 SCT030"
    },
    {
      "icao": "LHBP",
      "alert": "OK",
      "vis_m": 9999,
      "fzfg": false,
      "metar_trigger": false,
      "taf_trigger": false,
      "metar": "METAR LHBP 040730Z 32004KT 270V350 CAVOK 13/01 Q1019 NOSIG",
      "taf": "TAF LHBP 040515Z 0406/0506 34005KT CAVOK"
    },
    {
      "icao": "LHDC",
      "alert": "OK",
      "vis_m": 9999,
      "fzfg": false,
      "metar_trigger": false,
      "taf_trigger": false,
      "metar": "METAR LHDC 040715Z AUTO 34006KT 290V040 CAVOK 13/02 Q1018 NOSIG",
      "taf": "TAF LHDC 040515Z 0406/0415 36006KT CAVOK"
    },
    {
      "icao": "LIBD",
      "alert": "OK",
      "vis_m": 9999,
      "fzfg": false,
      "metar_trigger": false,
      "taf_trigger": false,
      "metar": "METAR LIBD 040750Z 31010KT CAVOK 15/07 Q1017",
      "taf": "TAF LIBD 040500Z 0406/0506 28012KT CAVOK"
    },
    {
      "icao": "LIBG",
      "alert": "OK",
      "vis_m": 9999,
      "fzfg": false,
      "metar_trigger": false,
      "taf_trigger": false,
      "metar": "METAR LIBG 040650Z 35010KT 330V030 CAVOK 16/09 Q1014",
      "taf": "TAF LIBG 040500Z 0407/0415 35015KT 9999 SCT025"
    },
    {
      "icao": "LIBP",
      "alert": "OK",
      "vis_m": 9999,
      "fzfg": false,
      "metar_trigger": false,
      "taf_trigger": false,
      "metar": "METAR LIBP 040750Z AUTO 23005KT 9999 NCD 13/07 Q1021",
      "taf": "TAF LIBP 040500Z 0406/0506 26006KT CAVOK"
    },
    {
      "icao": "LIBR",
      "alert": "OK",
      "vis_m": 9999,
      "fzfg": false,
      "metar_trigger": false,
      "taf_trigger": false,
      "metar": "METAR LIBR 040750Z 35013KT CAVOK 16/10 Q1015",
      "taf": "TAF LIBR 040500Z 0406/0506 33016KT CAVOK"
    },
    {
      "icao": "LICA",
      "alert": "OK",
      "vis_m": 9999,
      "fzfg": false,
      "metar_trigger": false,
      "taf_trigger": false,
      "metar": "METAR LICA 040750Z AUTO 24005KT 210V270 9999 NCD 15/13 Q1016",
      "taf": "TAF LICA 040500Z 0406/0506 VRB05KT 9999 FEW030"
    },
    {
      "icao": "LICC",
      "alert": "OK",
      "vis_m": 9999,
      "fzfg": false,
      "metar_trigger": false,
      "taf_trigger": false,
      "metar": "METAR LICC 040750Z 21004KT 9999 BKN090 14/12 Q1016",
      "taf": "TAF LICC 040500Z 0406/0506 VRB05KT 9999 SCT040"
    },
    {
      "icao": "LICJ",
      "alert": "OK",
      "vis_m": 9999,
      "fzfg": false,
      "metar_trigger": false,
      "taf_trigger": false,
      "metar": "METAR LICJ 040750Z 05007KT 9999 FEW030 16/12 Q1018",
      "taf": "TAF LICJ 040500Z 0406/0506 02014KT 9999 SCT040"
    },
    {
      "icao": "LIMC",
      "alert": "OK",
      "vis_m": 9999,
      "fzfg": false,
      "metar_trigger": false,
      "taf_trigger": false,
      "metar": "METAR LIMC 040750Z 10003KT 050V140 CAVOK 17/M02 Q1021 NOSIG",
      "taf": "TAF LIMC 040500Z 0406/0512 VRB05KT CAVOK"
    },
    {
      "icao": "LIME",
      "alert": "OK",
      "vis_m": 9999,
      "fzfg": false,
      "metar_trigger": false,
      "taf_trigger": false,
      "metar": "METAR LIME 040750Z 19004KT 150V250 CAVOK 14/00 Q1021 NOSIG",
      "taf": "TAF LIME 040500Z 0406/0506 VRB05KT CAVOK"
    },
    {
      "icao": "LIMF",
      "alert": "OK",
      "vis_m": 9999,
      "fzfg": false,
      "metar_trigger": false,
      "taf_trigger": false,
      "metar": "METAR LIMF 040750Z VRB02KT CAVOK 15/03 Q1021",
      "taf": "TAF LIMF 040500Z 0406/0506 VRB05KT CAVOK"
    },
    {
      "icao": "LIMJ",
      "alert": "OK",
      "vis_m": 9999,
      "fzfg": false,
      "metar_trigger": false,
      "taf_trigger": false,
      "metar": "METAR LIMJ 040750Z 13003KT CAVOK 15/06 Q1020",
      "taf": "TAF LIMJ 040500Z 0406/0506 04006KT CAVOK"
    },
    {
      "icao": "LIPE",
      "alert": "OK",
      "vis_m": 9999,
      "fzfg": false,
      "metar_trigger": false,
      "taf_trigger": false,
      "metar": "METAR LIPE 040750Z 21003KT CAVOK 13/00 Q1021",
      "taf": "TAF LIPE 040500Z 0406/0506 VRB05KT CAVOK"
    },
    {
      "icao": "LIPH",
      "alert": "OK",
      "vis_m": 9999,
      "fzfg": false,
      "metar_trigger": false,
      "taf_trigger": false,
      "metar": "METAR LIPH 040720Z VRB02KT CAVOK 15/07 Q1021",
      "taf": "TAF LIPH 040500Z 0406/0506 VRB05KT CAVOK"
    },
    {
      "icao": "LIPQ",
      "alert": "OK",
      "vis_m": 9999,
      "fzfg": false,
      "metar_trigger": false,
      "taf_trigger": false,
      "metar": "METAR LIPQ 040750Z AUTO VRB02KT 9999 BKN130/// 16/03 Q1021",
      "taf": "TAF LIPQ 040500Z 0406/0506 VRB05KT CAVOK"
    },
    {
      "icao": "LIPR",
      "alert": "OK",
      "vis_m": 9999,
      "fzfg": false,
      "metar_trigger": false,
      "taf_trigger": false,
      "metar": "METAR LIPR 040750Z 03003KT 350V080 CAVOK 14/05 Q1021",
      "taf": "TAF LIPR 040500Z 0406/0506 VRB05KT CAVOK"
    },
    {
      "icao": "LIPX",
      "alert": "OK",
      "vis_m": 9999,
      "fzfg": false,
      "metar_trigger": false,
      "taf_trigger": false,
      "metar": "METAR LIPX 040750Z 12003KT 050V170 CAVOK 15/05 Q1021",
      "taf": "TAF LIPX 040500Z 0406/0506 VRB05KT CAVOK"
    },
    {
      "icao": "LIPY",
      "alert": "OK",
      "vis_m": 9999,
      "fzfg": false,
      "metar_trigger": false,
      "taf_trigger": false,
      "metar": "METAR LIPY 040750Z AUTO 23003KT 190V270 9999 NCD 14/07 Q1021",
      "taf": "TAF LIPY 040500Z 0406/0506 VRB05KT CAVOK"
    },
    {
      "icao": "LIPZ",
      "alert": "OK",
      "vis_m": 9999,
      "fzfg": false,
      "metar_trigger": false,
      "taf_trigger": false,
      "metar": "METAR LIPZ 040750Z VRB02KT CAVOK 16/07 Q1021 NOSIG",
      "taf": "TAF LIPZ 040500Z 0406/0512 VRB05KT CAVOK"
    },
    {
      "icao": "LIRF",
      "alert": "OK",
      "vis_m": 9999,
      "fzfg": false,
      "metar_trigger": false,
      "taf_trigger": false,
      "metar": "METAR LIRF 040750Z 04008KT CAVOK 15/04 Q1019 NOSIG",
      "taf": "TAF LIRF 040500Z 0406/0512 03012KT CAVOK"
    },
    {
      "icao": "LIRN",
      "alert": "OK",
      "vis_m": 9999,
      "fzfg": false,
      "metar_trigger": false,
      "taf_trigger": false,
      "metar": "METAR LIRN 040750Z 01004KT 340V040 CAVOK 16/03 Q1018 NOSIG",
      "taf": "TAF LIRN 040500Z 0406/0506 03012KT 9999 FEW080"
    },
    {
      "icao": "LIRP",
      "alert": "OK",
      "vis_m": 9999,
      "fzfg": false,
      "metar_trigger": false,
      "taf_trigger": false,
      "metar": "METAR LIRP 040745Z 12005KT CAVOK 13/06 Q1021 NOSIG",
      "taf": "TAF LIRP 040500Z 0406/0506 VRB03KT CAVOK"
    },
    {
      "icao": "LIRZ",
      "alert": "OK",
      "vis_m": 9999,
      "fzfg": false,
      "metar_trigger": false,
      "taf_trigger": false,
      "metar": "METAR LIRZ 040750Z AUTO 34006KT 9999 NCD 14/04 Q1020",
      "taf": "TAF LIRZ 040500Z 0406/0506 02013KT CAVOK"
    },
    {
      "icao": "LJLJ",
      "alert": "OK",
      "vis_m": 9999,
      "fzfg": false,
      "metar_trigger": false,
      "taf_trigger": false,
      "metar": "METAR LJLJ 040730Z VRB01KT CAVOK 09/00 Q1021 NOSIG",
      "taf": "TAF LJLJ 040500Z 0406/0506 34003KT CAVOK"
    },
    {
      "icao": "LKMT",
      "alert": "OK",
      "vis_m": 9999,
      "fzfg": false,
      "metar_trigger": false,
      "taf_trigger": false,
      "metar": "METAR LKMT 040730Z 22016KT CAVOK 10/03 Q1017 NOSIG",
      "taf": "TAF LKMT 040500Z 0406/0506 22012KT CAVOK"
    },
    {
      "icao": "LKPR",
      "alert": "OK",
      "vis_m": 9999,
      "fzfg": false,
      "metar_trigger": false,
      "taf_trigger": false,
      "metar": "METAR LKPR 040730Z 25018KT 9999 FEW022 BKN047 10/05 Q1017 NOSIG",
      "taf": "TAF LKPR 040500Z 0406/0512 25015KT 9999 SCT025 BKN035"
    },
    {
      "icao": "LLBG",
      "alert": "OK",
      "vis_m": 7000,
      "fzfg": false,
      "metar_trigger": false,
      "taf_trigger": false,
      "metar": "METAR LLBG 040750Z VRB02KT 7000 NSC 23/03 Q1016 NOSIG",
      "taf": "TAF LLBG 040503Z 0406/0506 28010KT 7000 NSC TX23/0410Z TN12/0504Z"
    },
    {
      "icao": "LMML",
      "alert": "OK",
      "vis_m": 9999,
      "fzfg": false,
      "metar_trigger": false,
      "taf_trigger": false,
      "metar": "METAR LMML 040745Z 01009KT 340V040 9999 FEW017 16/11 Q1016 NOSIG",
      "taf": "TAF LMML 040500Z 0406/0506 31007KT 9999 SCT025"
    },
    {
      "icao": "LOWW",
      "alert": "OK",
      "vis_m": 9999,
      "fzfg": false,
      "metar_trigger": false,
      "taf_trigger": false,
      "metar": "METAR LOWW 040750Z 28018KT 260V320 9999 FEW045 SCT050 13/03 Q1019 NOSIG",
      "taf": "TAF LOWW 040515Z 0406/0512 29006KT CAVOK TX22/0512Z TN07/0504Z"
    },
    {
      "icao": "LPFR",
      "alert": "OK",
      "vis_m": 9999,
      "fzfg": false,
      "metar_trigger": false,
      "taf_trigger": false,
      "metar": "METAR LPFR 040730Z 07007KT 030V090 CAVOK 16/09 Q1022",
      "taf": "TAF LPFR 040500Z 0406/0506 04010KT CAVOK"
    },
    {
      "icao": "LPMA",
      "alert": "OK",
      "vis_m": 9999,
      "fzfg": false,
      "metar_trigger": false,
      "taf_trigger": false,
      "metar": "METAR LPMA 040730Z VRB02KT 9999 SCT016 SCT030 14/03 Q1020",
      "taf": "TAF LPMA 040500Z 0406/0506 36012KT 9999 SCT015"
    },
    {
      "icao": "LPPR",
      "alert": "OK",
      "vis_m": 9999,
      "fzfg": false,
      "metar_trigger": false,
      "taf_trigger": false,
      "metar": "METAR LPPR 040730Z VRB02KT CAVOK 12/08 Q1022",
      "taf": "TAF LPPR 040500Z 0406/0506 VRB02KT CAVOK"
    },
    {
      "icao": "LPPS",
      "alert": "OK",
      "vis_m": 9999,
      "fzfg": false,
      "metar_trigger": false,
      "taf_trigger": false,
      "metar": "METAR LPPS 040730Z 36009KT 9999 FEW012 14/13 Q1020",
      "taf": "TAF LPPS 040500Z 0406/0512 VRB05KT 9999 SCT012"
    },
    {
      "icao": "LPPT",
      "alert": "OK",
      "vis_m": 9999,
      "fzfg": false,
      "metar_trigger": false,
      "taf_trigger": false,
      "metar": "METAR LPPT 040730Z 02003KT CAVOK 15/09 Q1023",
      "taf": "TAF LPPT 040500Z 0406/0512 VRB05KT CAVOK"
    },
    {
      "icao": "LQBK",
      "alert": "OK",
      "vis_m": 9999,
      "fzfg": false,
      "metar_trigger": false,
      "taf_trigger": false,
      "metar": "METAR LQBK 040730Z 14006KT CAVOK 11/03 Q1021",
      "taf": "TAF LQBK 040500Z 0406/0506 16005KT CAVOK TX16/0413Z TN03/0406Z"
    },
    {
      "icao": "LQSA",
      "alert": "OK",
      "vis_m": 3500,
      "fzfg": false,
      "metar_trigger": false,
      "taf_trigger": false,
      "metar": "METAR LQSA 040730Z VRB02KT 3500 1500NW R11/1300U BR SCT003 05/05 Q1020 BECMG 8000 NSW",
      "taf": "TAF LQSA 040500Z 0406/0506 VRB02KT 9999 SCT055 TX15/0414Z TN03/0504Z"
    },
    {
      "icao": "LQTZ",
      "alert": "OK",
      "vis_m": 9999,
      "fzfg": false,
      "metar_trigger": false,
      "taf_trigger": false,
      "metar": "METAR LQTZ 040730Z 27004KT 240V310 CAVOK 10/04 Q1021",
      "taf": "TAF LQTZ 040500Z 0406/0506 27005KT 9999 FEW040 SCT060 TX16/0413Z TN04/0406Z"
    },
    {
      "icao": "LRBC",
      "alert": "OK",
      "vis_m": 9999,
      "fzfg": false,
      "metar_trigger": false,
      "taf_trigger": false,
      "metar": "METAR LRBC 040730Z 34014KT 9999 SCT067 13/01 Q1015",
      "taf": "TAF LRBC 040500Z 0406/0415 35010KT CAVOK"
    },
    {
      "icao": "LRBS",
      "alert": "OK",
      "vis_m": 9999,
      "fzfg": false,
      "metar_trigger": false,
      "taf_trigger": false,
      "metar": "METAR LRBS 040730Z VRB01KT 9999 FEW040 OVC047 12/10 Q1014 REUP NOSIG",
      "taf": "TAF LRBS 040500Z 0406/0506 VRB04KT 9999 BKN045"
    },
    {
      "icao": "LRBV",
      "alert": "OK",
      "vis_m": 9999,
      "fzfg": false,
      "metar_trigger": false,
      "taf_trigger": false,
      "metar": "METAR LRBV 040730Z 30007KT 260V330 9999 SCT017 BKN046 10/07 Q1016",
      "taf": "TAF LRBV 040500Z 0406/0415 29006KT 9999 BKN045"
    },
    {
      "icao": "LRCL",
      "alert": "OK",
      "vis_m": 9999,
      "fzfg": false,
      "metar_trigger": false,
      "taf_trigger": false,
      "metar": "METAR LRCL 040730Z VRB02KT CAVOK 12/07 Q1016",
      "taf": "TAF LRCL 040500Z 0406/0415 VRB04KT CAVOK"
    },
    {
      "icao": "LRCV",
      "alert": "OK",
      "vis_m": 9999,
      "fzfg": false,
      "metar_trigger": false,
      "taf_trigger": false,
      "metar": "METAR LRCV 040730Z VRB01KT CAVOK 13/11 Q1015",
      "taf": "TAF LRCV 040500Z 0406/0415 VRB04KT CAVOK"
    },
    {
      "icao": "LRIA",
      "alert": "OK",
      "vis_m": 9999,
      "fzfg": false,
      "metar_trigger": false,
      "taf_trigger": false,
      "metar": "METAR LRIA 040730Z 30007KT 260V330 CAVOK 11/04 Q1015",
      "taf": "TAF LRIA 040500Z 0406/0415 30008KT CAVOK"
    },
    {
      "icao": "LROP",
      "alert": "OK",
      "vis_m": 9999,
      "fzfg": false,
      "metar_trigger": false,
      "taf_trigger": false,
      "metar": "METAR LROP 040730Z 24002KT 9999 BKN048 11/11 Q1015 NOSIG",
      "taf": "TAF LROP 040500Z 0406/0506 VRB04KT 9999 BKN045"
    },
    {
      "icao": "LRSB",
      "alert": "OK",
      "vis_m": 9999,
      "fzfg": false,
      "metar_trigger": false,
      "taf_trigger": false,
      "metar": "METAR LRSB 040730Z 21005KT 9999 FEW035 OVC050 10/08 Q1016 NOSIG",
      "taf": "TAF LRSB 040500Z 0406/0506 VRB04KT 9999 BKN040"
    },
    {
      "icao": "LRSM",
      "alert": "OK",
      "vis_m": 9999,
      "fzfg": false,
      "metar_trigger": false,
      "taf_trigger": false,
      "metar": "METAR LRSM 040730Z 24004KT 210V270 CAVOK 11/03 Q1017",
      "taf": "TAF LRSM 040500Z 0406/0415 VRB04KT CAVOK"
    },
    {
      "icao": "LRSV",
      "alert": "OK",
      "vis_m": 9999,
      "fzfg": false,
      "metar_trigger": false,
      "taf_trigger": false,
      "metar": "METAR LRSV 040730Z 30007KT 260V340 CAVOK 11/02 Q1016",
      "taf": "TAF LRSV 040500Z 0406/0415 32010KT CAVOK"
    },
    {
      "icao": "LRTM",
      "alert": "OK",
      "vis_m": 9999,
      "fzfg": false,
      "metar_trigger": false,
      "taf_trigger": false,
      "metar": "METAR LRTM 040730Z 21005KT 170V250 9999 FEW015 12/09 Q1016",
      "taf": "TAF LRTM 040500Z 0406/0415 VRB04KT CAVOK"
    },
    {
      "icao": "LRTR",
      "alert": "OK",
      "vis_m": 9999,
      "fzfg": false,
      "metar_trigger": false,
      "taf_trigger": false,
      "metar": "METAR LRTR 040730Z 35008KT CAVOK 11/04 Q1018 NOSIG",
      "taf": "TAF LRTR 040500Z 0406/0506 35010KT CAVOK"
    },
    {
      "icao": "LTAC",
      "alert": "OK",
      "vis_m": 9999,
      "fzfg": false,
      "metar_trigger": false,
      "taf_trigger": false,
      "metar": "METAR LTAC 040750Z 25012KT 9999 SCT029 SCT100 12/03 Q1012 BECMG VRB02KT",
      "taf": "TAF LTAC 040440Z 0406/0506 VRB02KT 9999 SCT040 SCT100"
    },
    {
      "icao": "LTFM",
      "alert": "OK",
      "vis_m": 400,
      "fzfg": false,
      "metar_trigger": false,
      "taf_trigger": false,
      "metar": "METAR LTFM 040750Z 34012KT 0400 R35R/0550N R17L/0900U R34L/0500U R36/0375N -SHRA FG VV002 09/09 Q1012 NOSIG",
      "taf": ""
    },
    {
      "icao": "LUKK",
      "alert": "OK",
      "vis_m": 9999,
      "fzfg": false,
      "metar_trigger": false,
      "taf_trigger": false,
      "metar": "METAR LUKK 040730Z 36012KT CAVOK 14/05 Q1013 NOSIG",
      "taf": "TAF LUKK 040501Z 0406/0506 32012KT CAVOK"
    },
    {
      "icao": "LWOH",
      "alert": "OK",
      "vis_m": 9999,
      "fzfg": false,
      "metar_trigger": false,
      "taf_trigger": false,
      "metar": "METAR LWOH 040750Z 32008KT 280V360 9999 SCT040 SCT080 12/05 Q1014",
      "taf": "TAF LWOH 040515Z 0406/0506 34010KT 9999 SCT050"
    },
    {
      "icao": "LWSK",
      "alert": "OK",
      "vis_m": 9999,
      "fzfg": false,
      "metar_trigger": false,
      "taf_trigger": false,
      "metar": "METAR LWSK 040750Z 27007KT 220V330 9999 SCT030 BKN057 12/07 Q1016 NOSIG",
      "taf": "TAF LWSK 040515Z 0406/0506 VRB02KT 9999 SCT035 BKN060"
    },
    {
      "icao": "LYBE",
      "alert": "OK",
      "vis_m": 9999,
      "fzfg": false,
      "metar_trigger": false,
      "taf_trigger": false,
      "metar": "METAR LYBE 040730Z 30009KT CAVOK 11/04 Q1019 NOSIG",
      "taf": "TAF LYBE 040500Z 0406/0506 30010KT CAVOK TX18/0413Z TN06/0406Z"
    },
    {
      "icao": "LYNI",
      "alert": "OK",
      "vis_m": 9999,
      "fzfg": false,
      "metar_trigger": false,
      "taf_trigger": false,
      "metar": "METAR LYNI 040730Z 32010KT 270V350 9999 BKN030 OVC063 09/06 Q1017 NOSIG",
      "taf": "TAF LYNI 040500Z 0406/0506 33016KT 9999 BKN025 TX14/0413Z TN04/0505Z"
    },
    {
      "icao": "LYPG",
      "alert": "OK",
      "vis_m": 9999,
      "fzfg": false,
      "metar_trigger": false,
      "taf_trigger": false,
      "metar": "METAR LYPG 040730Z 35016KT 9999 FEW050 18/01 Q1014 TEMPO 02030KT",
      "taf": "TAF LYPG 040500Z 0406/0506 36018KT 9999 FEW060 TX21/0413Z TN10/0504Z"
    },
    {
      "icao": "LZIB",
      "alert": "OK",
      "vis_m": 9999,
      "fzfg": false,
      "metar_trigger": false,
      "taf_trigger": false,
      "metar": "METAR LZIB 040730Z 23007KT 9999 FEW049 13/02 Q1019 NOSIG",
      "taf": "TAF LZIB 040515Z 0406/0506 30006KT CAVOK"
    },
    {
      "icao": "LZKZ",
      "alert": "OK",
      "vis_m": 9999,
      "fzfg": false,
      "metar_trigger": false,
      "taf_trigger": false,
      "metar": "METAR LZKZ 040730Z VRB02KT CAVOK 10/02 Q1017 NOSIG",
      "taf": "TAF LZKZ 040515Z 0406/0506 36005KT CAVOK"
    },
    {
      "icao": "LZTT",
      "alert": "OK",
      "vis_m": 9999,
      "fzfg": false,
      "metar_trigger": false,
      "taf_trigger": false,
      "metar": "METAR LZTT 040730Z 27006KT 240V310 9999 FEW080 08/01 Q1016 NOSIG",
      "taf": "TAF LZTT 040515Z 0406/0506 24005KT CAVOK"
    },
    {
      "icao": "OEJN",
      "alert": "OK",
      "vis_m": 3000,
      "fzfg": false,
      "metar_trigger": false,
      "taf_trigger": false,
      "metar": "METAR OEJN 040700Z 33012KT 3000 BLDU FEW040 SCT100 31/20 Q1011 NOSIG",
      "taf": "TAF OEJN 040500Z 0406/0512 34020KT 7000 SCT040"
    },
    {
      "icao": "OEMA",
      "alert": "OK",
      "vis_m": 9999,
      "fzfg": false,
      "metar_trigger": false,
      "taf_trigger": false,
      "metar": "METAR OEMA 040700Z 27009KT CAVOK 30/11 Q1014 NOSIG",
      "taf": "TAF OEMA 040500Z 0406/0512 29010KT 7000 SCT040"
    },
    {
      "icao": "OJAI",
      "alert": "OK",
      "vis_m": 3500,
      "fzfg": false,
      "metar_trigger": false,
      "taf_trigger": false,
      "metar": "METAR OJAI 040700Z 10002KT 3500 HZ NSC 14/04 Q1018 NOSIG",
      "taf": "TAF OJAI 040440Z 0406/0512 29004KT 3000 DU NSC"
    },
    {
      "icao": "OMAA",
      "alert": "OK",
      "vis_m": null,
      "fzfg": false,
      "metar_trigger": false,
      "taf_trigger": false,
      "metar": "",
      "taf": ""
    },
    {
      "icao": "OMDB",
      "alert": "OK",
      "vis_m": null,
      "fzfg": false,
      "metar_trigger": false,
      "taf_trigger": false,
      "metar": "",
      "taf": ""
    },
    {
      "icao": "UAAA",
      "alert": "OK",
      "vis_m": 9999,
      "fzfg": false,
      "metar_trigger": false,
      "taf_trigger": false,
      "metar": "METAR UAAA 040730Z 27006MPS 240V300 9999 SCT100 BKN200 25/06 Q1007 NOSIG",
      "taf": "TAF UAAA 040503Z 0406/0506 30003MPS 9999 SCT050 BKN100 TX26/0410Z TN10/0501Z"
    },
    {
      "icao": "UBBB",
      "alert": "OK",
      "vis_m": 9999,
      "fzfg": false,
      "metar_trigger": false,
      "taf_trigger": false,
      "metar": "METAR UBBB 040730Z 33016KT 9999 SCT006 SCT045CB OVC045 11/09 Q1002 NOSIG",
      "taf": "TAF UBBB 040503Z 0406/0506 32014KT 9999 SCT010 FEW040CB BKN040 TX15/0409Z TN10/0501Z"
    },
    {
      "icao": "UDSG",
      "alert": "OK",
      "vis_m": 9999,
      "fzfg": false,
      "metar_trigger": false,
      "taf_trigger": false,
      "metar": "METAR UDSG 040730Z 21007KT 9999 -SHRA SCT023CB OVC033 04/04 Q1008 NOSIG",
      "taf": "TAF UDSG 040458Z 0406/0506 22006KT 9999 BKN040"
    },
    {
      "icao": "UDYZ",
      "alert": "OK",
      "vis_m": 9999,
      "fzfg": false,
      "metar_trigger": false,
      "taf_trigger": false,
      "metar": "METAR UDYZ 040730Z 23008KT 9999 -SHRA BKN030CB 10/05 Q1007 NOSIG",
      "taf": "TAF UDYZ 040500Z 0406/0506 20006KT 9999 BKN040"
    },
    {
      "icao": "UGKO",
      "alert": "OK",
      "vis_m": 9999,
      "fzfg": false,
      "metar_trigger": false,
      "taf_trigger": false,
      "metar": "METAR UGKO 040730Z 24014KT 9999 SCT004 BKN006 OVC007 11/10 Q1010 NOSIG",
      "taf": "TAF UGKO 040500Z 0406/0506 26007KT 9999 BKN050 TX15/0411Z TN07/0422Z"
    }
  ]
}