{
  "ts_utc": "2026-02-27T03:30:13Z",
  "threshold_m": 150,
  "source": "stations_override.txt (ICAO list) + aviationweather.gov (METAR/TAF raw)",
  "station_count": 159,
  "stations": [
    {
      "icao": "BIKF",
      "alert": "OK",
      "vis_m": 1300,
      "fzfg": false,
      "metar_trigger": false,
      "taf_trigger": false,
      "metar": "METAR BIKF 270300Z 26025KT 1300 R28/P1500N -SHSN BLSN FEW003 SCT015CB BKN040 M06/M09 Q0985",
      "taf": "TAF BIKF 270108Z 2703/2803 29018G32KT 9999 -SHSN SCT015 BKN025 TX00/2716Z TNM04/2703Z"
    },
    {
      "icao": "BKPR",
      "alert": "OK",
      "vis_m": null,
      "fzfg": false,
      "metar_trigger": false,
      "taf_trigger": false,
      "metar": "",
      "taf": "TAF BKPR 262330Z 2700/2724 VRB03KT CAVOK"
    },
    {
      "icao": "EBCI",
      "alert": "OK",
      "vis_m": 9999,
      "fzfg": false,
      "metar_trigger": false,
      "taf_trigger": false,
      "metar": "METAR EBCI 270320Z 18008KT CAVOK 11/08 Q1017 NOSIG",
      "taf": "TAF EBCI 262301Z 2700/2806 19009KT 9999 FEW025"
    },
    {
      "icao": "EDDB",
      "alert": "OK",
      "vis_m": 9999,
      "fzfg": false,
      "metar_trigger": false,
      "taf_trigger": false,
      "metar": "METAR EDDB 270320Z AUTO 18004KT 9999 1100 R24R/P2000N R24L/P2000N BR NSC 05/04 Q1019 NOSIG",
      "taf": "TAF EDDB 262300Z 2700/2724 19007KT CAVOK"
    },
    {
      "icao": "EDDH",
      "alert": "OK",
      "vis_m": 9999,
      "fzfg": false,
      "metar_trigger": false,
      "taf_trigger": false,
      "metar": "METAR EDDH 270320Z AUTO 21008KT 9999 FEW038 BKN047 11/08 Q1015 NOSIG",
      "taf": "TAF EDDH 262300Z 2700/2806 20008KT CAVOK"
    },
    {
      "icao": "EDDK",
      "alert": "OK",
      "vis_m": 9999,
      "fzfg": false,
      "metar_trigger": false,
      "taf_trigger": false,
      "metar": "METAR EDDK 270320Z AUTO 14006KT 100V180 CAVOK 10/07 Q1018 NOSIG",
      "taf": "TAF EDDK 262300Z 2700/2806 15006KT CAVOK"
    },
    {
      "icao": "EDDN",
      "alert": "OK",
      "vis_m": 1600,
      "fzfg": false,
      "metar_trigger": false,
      "taf_trigger": false,
      "metar": "METAR EDDN 270320Z AUTO 15005KT 1600 1400 R10/1700D BR FEW001 02/02 Q1023",
      "taf": ""
    },
    {
      "icao": "EDDS",
      "alert": "OK",
      "vis_m": 9999,
      "fzfg": false,
      "metar_trigger": false,
      "taf_trigger": false,
      "metar": "METAR EDDS 270320Z AUTO VRB01KT CAVOK 03/03 Q1021",
      "taf": "TAF EDDS 262300Z 2700/2724 VRB03KT CAVOK"
    },
    {
      "icao": "EDFH",
      "alert": "OK",
      "vis_m": 9999,
      "fzfg": false,
      "metar_trigger": false,
      "taf_trigger": false,
      "metar": "METAR EDFH 270320Z 18007KT CAVOK 09/07 Q1020",
      "taf": "TAF EDFH 262300Z 2700/2724 20009KT CAVOK"
    },
    {
      "icao": "EDJA",
      "alert": "OK",
      "vis_m": 9999,
      "fzfg": false,
      "metar_trigger": false,
      "taf_trigger": false,
      "metar": "METAR EDJA 270320Z AUTO 20003KT 9999 // SCT140/// 01/M01 Q1023",
      "taf": "TAF EDJA 270200Z 2703/2712 21004KT CAVOK"
    },
    {
      "icao": "EDLW",
      "alert": "OK",
      "vis_m": 9999,
      "fzfg": false,
      "metar_trigger": false,
      "taf_trigger": false,
      "metar": "METAR EDLW 270320Z AUTO 19010KT 9999 // NCD 11/08 Q1017",
      "taf": "TAF EDLW 261700Z 2618/2718 20011KT CAVOK"
    },
    {
      "icao": "EDNY",
      "alert": "OK",
      "vis_m": 9999,
      "fzfg": false,
      "metar_trigger": false,
      "taf_trigger": false,
      "metar": "METAR EDNY 270320Z AUTO 08002KT 9999 // NCD 01/01 Q1024",
      "taf": "TAF EDNY 270200Z 2703/2712 VRB01KT 7000 NSC"
    },
    {
      "icao": "EDSB",
      "alert": "OK",
      "vis_m": 9000,
      "fzfg": false,
      "metar_trigger": false,
      "taf_trigger": false,
      "metar": "METAR EDSB 270320Z 00000KT 9000 BCFG NSC 04/04 Q1021",
      "taf": ""
    },
    {
      "icao": "EETN",
      "alert": "OK",
      "vis_m": 2200,
      "fzfg": false,
      "metar_trigger": false,
      "taf_trigger": false,
      "metar": "METAR EETN 270320Z 20014KT 2200 DZ BR OVC004 01/01 Q1010",
      "taf": ""
    },
    {
      "icao": "EFTU",
      "alert": "OK",
      "vis_m": 2600,
      "fzfg": false,
      "metar_trigger": false,
      "taf_trigger": false,
      "metar": "METAR EFTU 270320Z AUTO 23009KT 2600 DZ OVC001 02/02 Q1005",
      "taf": "TAF EFTU 270234Z 2703/2803 24009KT 4000 -DZ OVC002"
    },
    {
      "icao": "EGBB",
      "alert": "OK",
      "vis_m": 3500,
      "fzfg": false,
      "metar_trigger": false,
      "taf_trigger": false,
      "metar": "METAR EGBB 270320Z 02004KT 340V070 3500 RA OVC006 08/07 Q1007",
      "taf": ""
    },
    {
      "icao": "EGGP",
      "alert": "OK",
      "vis_m": 9999,
      "fzfg": false,
      "metar_trigger": false,
      "taf_trigger": false,
      "metar": "METAR EGGP 270320Z VRB02KT 9999 -RA FEW019 SCT024 BKN036 08/06 Q1007",
      "taf": "TAF EGGP 262257Z 2700/2724 19006KT 9999 SCT030"
    },
    {
      "icao": "EGGW",
      "alert": "OK",
      "vis_m": 9999,
      "fzfg": false,
      "metar_trigger": false,
      "taf_trigger": false,
      "metar": "METAR EGGW 270320Z AUTO 20012KT 9999 -RA BKN012 BKN018 09/08 Q1009",
      "taf": ""
    },
    {
      "icao": "EGKK",
      "alert": "OK",
      "vis_m": 9999,
      "fzfg": false,
      "metar_trigger": false,
      "taf_trigger": false,
      "metar": "METAR EGKK 270320Z 21011KT 9999 -RA BKN014 10/09 Q1011",
      "taf": "TAF EGKK 262300Z 2700/2806 21012KT 9999 BKN016"
    },
    {
      "icao": "EGNM",
      "alert": "OK",
      "vis_m": null,
      "fzfg": false,
      "metar_trigger": false,
      "taf_trigger": false,
      "metar": "",
      "taf": "TAF EGNM 261658Z 2618/2718 22018G30KT 9999 BKN020"
    },
    {
      "icao": "EGPD",
      "alert": "OK",
      "vis_m": 9999,
      "fzfg": false,
      "metar_trigger": false,
      "taf_trigger": false,
      "metar": "METAR EGPD 270320Z COR AUTO 19008KT 160V220 9999 NCD 08/02 Q1000 NOSIG",
      "taf": "TAF EGPD 262254Z 2700/2724 22008KT 9999 FEW035"
    },
    {
      "icao": "EGPF",
      "alert": "OK",
      "vis_m": 9999,
      "fzfg": false,
      "metar_trigger": false,
      "taf_trigger": false,
      "metar": "METAR EGPF 270320Z AUTO 20005KT 9999 NCD 06/04 Q1003",
      "taf": "TAF EGPF 262257Z 2700/2724 23010KT 9999 SCT030"
    },
    {
      "icao": "EHBK",
      "alert": "OK",
      "vis_m": 9999,
      "fzfg": false,
      "metar_trigger": false,
      "taf_trigger": false,
      "metar": "METAR EHBK 270325Z AUTO 20008KT 9999 NCD 11/09 Q1017",
      "taf": "TAF EHBK 262319Z 2700/2806 21011KT CAVOK"
    },
    {
      "icao": "EHEH",
      "alert": "OK",
      "vis_m": 9999,
      "fzfg": false,
      "metar_trigger": false,
      "taf_trigger": false,
      "metar": "METAR EHEH 270255Z AUTO 19007KT 9999 OVC310 10/08 Q1016 BLU",
      "taf": "TAF EHEH 262352Z 2700/2806 22006KT CAVOK"
    },
    {
      "icao": "EKBI",
      "alert": "OK",
      "vis_m": 6000,
      "fzfg": false,
      "metar_trigger": false,
      "taf_trigger": false,
      "metar": "METAR EKBI 270320Z AUTO 21009KT 6000 -RA OVC004/// 07/07 Q1010",
      "taf": "TAF EKBI 270227Z 2703/2803 20012KT 8000 -RADZ BKN008"
    },
    {
      "icao": "EKCH",
      "alert": "OK",
      "vis_m": 2900,
      "fzfg": false,
      "metar_trigger": false,
      "taf_trigger": false,
      "metar": "METAR EKCH 270320Z 20009KT 2900 BR BKN010 04/04 Q1013 NOSIG",
      "taf": ""
    },
    {
      "icao": "ENAL",
      "alert": "OK",
      "vis_m": 9000,
      "fzfg": false,
      "metar_trigger": false,
      "taf_trigger": false,
      "metar": "METAR ENAL 270320Z AUTO 20011KT 9000 RA SCT005/// BKN019/// BKN023/// 06/05 Q0992",
      "taf": "TAF ENAL 270200Z 2703/2712 20008KT 9999 -RA FEW020 BKN030"
    },
    {
      "icao": "ENBR",
      "alert": "OK",
      "vis_m": 9999,
      "fzfg": false,
      "metar_trigger": false,
      "taf_trigger": false,
      "metar": "METAR ENBR 270250Z 18014KT 9999 BKN009 06/06 Q0998 RMK WIND 1200FT 20019KT",
      "taf": "TAF ENBR 262300Z 2700/2724 18018KT 8000 -RA SCT003 BKN006"
    },
    {
      "icao": "ENGM",
      "alert": "OK",
      "vis_m": 800,
      "fzfg": false,
      "metar_trigger": false,
      "taf_trigger": false,
      "metar": "METAR ENGM 270320Z 18010KT 0800 0750SE R19R/1000N R01R/0900U R19L/1100N R01L/0900D FG VV002 02/01 Q1001",
      "taf": "TAF ENGM 262300Z 2700/2724 18008KT 0300 FG VV001"
    },
    {
      "icao": "ENHD",
      "alert": "OK",
      "vis_m": 9000,
      "fzfg": false,
      "metar_trigger": false,
      "taf_trigger": false,
      "metar": "METAR ENHD 270320Z AUTO 18014KT 9000 BKN005/// OVC007/// 07/06 Q1000",
      "taf": "TAF ENHD 270200Z 2703/2712 18012KT 7000 -RA SCT004 BKN006"
    },
    {
      "icao": "ENTC",
      "alert": "OK",
      "vis_m": 9999,
      "fzfg": false,
      "metar_trigger": false,
      "taf_trigger": false,
      "metar": "METAR ENTC 270320Z AUTO 11003KT 080V160 9999 NCD M04/M09 Q0997 RMK WIND 2600FT 16017KT",
      "taf": "TAF ENTC 262300Z 2700/2724 18008KT CAVOK"
    },
    {
      "icao": "ENTO",
      "alert": "OK",
      "vis_m": 150,
      "fzfg": false,
      "metar_trigger": false,
      "taf_trigger": false,
      "metar": "METAR ENTO 270320Z AUTO 19008KT 0150 R18/0700N R36/0650N +RA VV001 02/02 Q1002",
      "taf": "TAF ENTO 262300Z 2700/2724 20010KT 0200 FG VV001"
    },
    {
      "icao": "ENVA",
      "alert": "OK",
      "vis_m": 9999,
      "fzfg": false,
      "metar_trigger": false,
      "taf_trigger": false,
      "metar": "METAR ENVA 270320Z 06004KT CAVOK 05/01 Q0993 RMK WIND 670FT 19012KT",
      "taf": "TAF ENVA 262300Z 2700/2724 09005KT 9999 FEW030 BKN040"
    },
    {
      "icao": "ENZV",
      "alert": "OK",
      "vis_m": 9999,
      "fzfg": false,
      "metar_trigger": false,
      "taf_trigger": false,
      "metar": "METAR ENZV 270320Z 19012KT 9999 OVC008 08/06 Q1001",
      "taf": "TAF ENZV 262300Z 2700/2724 18015KT 8000 SCT004 BKN006"
    },
    {
      "icao": "EPGD",
      "alert": "OK",
      "vis_m": 9999,
      "fzfg": false,
      "metar_trigger": false,
      "taf_trigger": false,
      "metar": "METAR EPGD 270300Z 19005KT CAVOK 03/01 Q1018",
      "taf": ""
    },
    {
      "icao": "EPKK",
      "alert": "OK",
      "vis_m": 8000,
      "fzfg": false,
      "metar_trigger": false,
      "taf_trigger": false,
      "metar": "METAR EPKK 270300Z 06003KT 8000 MIFG NSC M03/M04 Q1024",
      "taf": "TAF EPKK 270230Z 2703/2803 VRB02KT CAVOK"
    },
    {
      "icao": "EPKT",
      "alert": "OK",
      "vis_m": 9999,
      "fzfg": false,
      "metar_trigger": false,
      "taf_trigger": false,
      "metar": "METAR EPKT 270300Z 19006KT CAVOK 03/M01 Q1023",
      "taf": "TAF EPKT 262330Z 2700/2724 20007KT CAVOK"
    },
    {
      "icao": "EPLB",
      "alert": "OK",
      "vis_m": 9999,
      "fzfg": false,
      "metar_trigger": false,
      "taf_trigger": false,
      "metar": "METAR EPLB 270300Z 15003KT 120V180 CAVOK M03/M03 Q1026",
      "taf": "TAF EPLB 262330Z 2700/2724 13007KT CAVOK"
    },
    {
      "icao": "EPMO",
      "alert": "OK",
      "vis_m": 9999,
      "fzfg": false,
      "metar_trigger": false,
      "taf_trigger": false,
      "metar": "METAR EPMO 270300Z 14006KT CAVOK M00/M02 Q1022",
      "taf": "TAF EPMO 262330Z 2700/2724 14008KT CAVOK"
    },
    {
      "icao": "EPPO",
      "alert": "OK",
      "vis_m": 9000,
      "fzfg": false,
      "metar_trigger": false,
      "taf_trigger": false,
      "metar": "METAR EPPO 270300Z 19003KT 9000 NSC 03/02 Q1020",
      "taf": "TAF EPPO 262330Z 2700/2724 19006KT CAVOK"
    },
    {
      "icao": "EPRA",
      "alert": "OK",
      "vis_m": 9999,
      "fzfg": false,
      "metar_trigger": false,
      "taf_trigger": false,
      "metar": "METAR EPRA 270300Z 17008KT CAVOK M01/M03 Q1024",
      "taf": "TAF EPRA 270230Z 2703/2712 16008KT CAVOK"
    },
    {
      "icao": "EPRZ",
      "alert": "OK",
      "vis_m": 9999,
      "fzfg": false,
      "metar_trigger": false,
      "taf_trigger": false,
      "metar": "METAR EPRZ 270300Z 11003KT CAVOK M02/M03 Q1026",
      "taf": "TAF EPRZ 262330Z 2700/2724 09004KT CAVOK"
    },
    {
      "icao": "EPSC",
      "alert": "OK",
      "vis_m": 7000,
      "fzfg": false,
      "metar_trigger": false,
      "taf_trigger": false,
      "metar": "METAR EPSC 270300Z 14007KT 7000 NSC 04/04 Q1018",
      "taf": ""
    },
    {
      "icao": "EPSY",
      "alert": "OK",
      "vis_m": 9999,
      "fzfg": false,
      "metar_trigger": false,
      "taf_trigger": false,
      "metar": "METAR EPSY 270300Z 17005KT CAVOK M00/M03 Q1022",
      "taf": "TAF EPSY 270230Z 2703/2712 17006KT CAVOK"
    },
    {
      "icao": "EPWA",
      "alert": "OK",
      "vis_m": 9999,
      "fzfg": false,
      "metar_trigger": false,
      "taf_trigger": false,
      "metar": "METAR EPWA 270300Z 13006KT CAVOK M03/M04 Q1023 NOSIG",
      "taf": "TAF EPWA 270230Z 2703/2803 14006KT CAVOK"
    },
    {
      "icao": "EPWR",
      "alert": "OK",
      "vis_m": 9999,
      "fzfg": false,
      "metar_trigger": false,
      "taf_trigger": false,
      "metar": "METAR EPWR 270300Z 13004KT CAVOK 01/01 Q1022",
      "taf": "TAF EPWR 270230Z 2703/2803 13004KT CAVOK"
    },
    {
      "icao": "ESGG",
      "alert": "OK",
      "vis_m": 450,
      "fzfg": false,
      "metar_trigger": false,
      "taf_trigger": false,
      "metar": "METAR ESGG 270320Z 21013KT 0450 R03/1600U R21/1500U FG VV002 05/05 Q1008",
      "taf": "TAF ESGG 270230Z 2703/2803 21013KT 0200 FG VV002"
    },
    {
      "icao": "ESKN",
      "alert": "OK",
      "vis_m": 9999,
      "fzfg": false,
      "metar_trigger": false,
      "taf_trigger": false,
      "metar": "METAR ESKN 270320Z 21010KT 9999 OVC015 07/06 Q1007",
      "taf": "TAF ESKN 270230Z 2703/2803 22009KT 9999 SCT016"
    },
    {
      "icao": "ESMS",
      "alert": "OK",
      "vis_m": 2900,
      "fzfg": false,
      "metar_trigger": false,
      "taf_trigger": false,
      "metar": "METAR ESMS 270320Z 20010KT 2900 BR VV005 06/06 Q1013",
      "taf": "TAF ESMS 270227Z 2703/2803 20010KT 8000 BKN015"
    },
    {
      "icao": "ESSA",
      "alert": "OK",
      "vis_m": 9999,
      "fzfg": false,
      "metar_trigger": false,
      "taf_trigger": false,
      "metar": "METAR ESSA 270320Z 20008KT 9999 OVC011 05/04 Q1006 TEMPO 4000 BR BKN004",
      "taf": "TAF ESSA 270230Z 2703/2803 22009KT 9999 BKN010"
    },
    {
      "icao": "EYKA",
      "alert": "OK",
      "vis_m": 9999,
      "fzfg": false,
      "metar_trigger": false,
      "taf_trigger": false,
      "metar": "METAR EYKA 270320Z 19006KT 130V240 CAVOK M00/M04 Q1022",
      "taf": "TAF EYKA 262300Z 2700/2724 18010KT 9000 NSC"
    },
    {
      "icao": "EYPA",
      "alert": "OK",
      "vis_m": 9999,
      "fzfg": false,
      "metar_trigger": false,
      "taf_trigger": false,
      "metar": "METAR EYPA 270320Z 19013KT 9999 OVC021 03/M01 Q1018",
      "taf": "TAF EYPA 262300Z 2700/2724 18014KT 9000 OVC015"
    },
    {
      "icao": "EYVI",
      "alert": "OK",
      "vis_m": 9999,
      "fzfg": false,
      "metar_trigger": false,
      "taf_trigger": false,
      "metar": "METAR EYVI 270320Z 18012KT CAVOK M03/M05 Q1023 NOSIG",
      "taf": "TAF EYVI 262300Z 2700/2724 18014KT 9000 NSC"
    },
    {
      "icao": "GCFV",
      "alert": "OK",
      "vis_m": 9999,
      "fzfg": false,
      "metar_trigger": false,
      "taf_trigger": false,
      "metar": "METAR GCFV 270300Z AUTO 32007KT 9999 BKN049 16/08 Q1015",
      "taf": "TAF GCFV 270200Z 2703/2803 36012KT 9999 FEW020 TX24/2714Z TN15/2706Z"
    },
    {
      "icao": "GCLP",
      "alert": "OK",
      "vis_m": 9999,
      "fzfg": false,
      "metar_trigger": false,
      "taf_trigger": false,
      "metar": "METAR GCLP 270300Z 36023G34KT 9999 SCT023 BKN040 18/14 Q1016 NOSIG",
      "taf": "TAF GCLP 270200Z 2703/2803 36025KT 9999 SCT020 TX22/2714Z TN16/2706Z"
    },
    {
      "icao": "GCTS",
      "alert": "OK",
      "vis_m": 9999,
      "fzfg": false,
      "metar_trigger": false,
      "taf_trigger": false,
      "metar": "METAR GCTS 270300Z 29012KT 260V320 9999 FEW050 18/12 Q1017 NOSIG",
      "taf": "TAF GCTS 270200Z 2703/2803 30006KT 9999 FEW030 TX27/2714Z TN16/2706Z"
    },
    {
      "icao": "GMAD",
      "alert": "OK",
      "vis_m": 6000,
      "fzfg": false,
      "metar_trigger": false,
      "taf_trigger": false,
      "metar": "METAR GMAD 270300Z 07015KT 6000 NSC 23/M04 Q1014 NOSIG",
      "taf": "TAF GMAD 262300Z 2700/2806 10014KT 6000 NSC"
    },
    {
      "icao": "GMMN",
      "alert": "OK",
      "vis_m": 5000,
      "fzfg": false,
      "metar_trigger": false,
      "taf_trigger": false,
      "metar": "METAR GMMN 270300Z VRB01KT 5000 NSC 11/10 Q1019 NOSIG",
      "taf": "TAF GMMN 262300Z 2700/2806 VRB02KT 5000 NSC"
    },
    {
      "icao": "GMMX",
      "alert": "OK",
      "vis_m": 8000,
      "fzfg": false,
      "metar_trigger": false,
      "taf_trigger": false,
      "metar": "METAR GMMX 270300Z 18006KT 8000 SCT080 16/03 Q1018 NOSIG",
      "taf": "TAF GMMX 262300Z 2700/2806 06006KT 8000 SCT090"
    },
    {
      "icao": "HEGN",
      "alert": "OK",
      "vis_m": 9999,
      "fzfg": false,
      "metar_trigger": false,
      "taf_trigger": false,
      "metar": "METAR HEGN 270300Z 32014KT CAVOK 15/06 Q1016 NOSIG",
      "taf": "TAF HEGN 262300Z 2700/2806 29015KT CAVOK"
    },
    {
      "icao": "HEMA",
      "alert": "OK",
      "vis_m": 9999,
      "fzfg": false,
      "metar_trigger": false,
      "taf_trigger": false,
      "metar": "METAR HEMA 270300Z 31014KT CAVOK 17/09 Q1014 NOSIG",
      "taf": "TAF HEMA 262300Z 2700/2806 26010KT CAVOK"
    },
    {
      "icao": "HESH",
      "alert": "OK",
      "vis_m": 9999,
      "fzfg": false,
      "metar_trigger": false,
      "taf_trigger": false,
      "metar": "METAR HESH 270300Z 34014KT CAVOK 17/06 Q1014 NOSIG",
      "taf": "TAF HESH 262300Z 2700/2806 30010KT CAVOK"
    },
    {
      "icao": "HESX",
      "alert": "OK",
      "vis_m": 9999,
      "fzfg": false,
      "metar_trigger": false,
      "taf_trigger": false,
      "metar": "METAR HESX 270300Z 27003KT CAVOK 07/04 Q1018 NOSIG",
      "taf": "TAF HESX 262300Z 2700/2806 31006KT 9999 FEW020"
    },
    {
      "icao": "LATI",
      "alert": "OK",
      "vis_m": 9999,
      "fzfg": false,
      "metar_trigger": false,
      "taf_trigger": false,
      "metar": "METAR LATI 270320Z 16002KT CAVOK 03/00 Q1026 NOSIG",
      "taf": "TAF LATI 262300Z 2700/2724 VRB05KT CAVOK TX18/2712Z TN02/2705Z"
    },
    {
      "icao": "LBPD",
      "alert": "OK",
      "vis_m": 9999,
      "fzfg": false,
      "metar_trigger": false,
      "taf_trigger": false,
      "metar": "METAR LBPD 270300Z AUTO 00000KT 9999 FEW030/// OVC042/// 02/01 Q1029",
      "taf": "TAF LBPD 262300Z 2700/2724 VRB03KT 9999 SCT070"
    },
    {
      "icao": "LBSF",
      "alert": "OK",
      "vis_m": 9999,
      "fzfg": false,
      "metar_trigger": false,
      "taf_trigger": false,
      "metar": "METAR LBSF 270300Z AUTO 10002KT 9999 NCD M04/M05 Q1028 TEMPO 5000 BR",
      "taf": "TAF LBSF 262300Z 2700/2724 VRB04KT 9999 SCT050"
    },
    {
      "icao": "LBWN",
      "alert": "OK",
      "vis_m": 9999,
      "fzfg": false,
      "metar_trigger": false,
      "taf_trigger": false,
      "metar": "METAR LBWN 270300Z AUTO 32005KT 9999 NCD M02/M02 Q1029 NOSIG",
      "taf": "TAF LBWN 262300Z 2700/2724 30010KT 9999 SCT020"
    },
    {
      "icao": "LCLK",
      "alert": "OK",
      "vis_m": 9999,
      "fzfg": false,
      "metar_trigger": false,
      "taf_trigger": false,
      "metar": "METAR LCLK 270300Z VRB03KT CAVOK 06/01 Q1015 NOSIG",
      "taf": "TAF LCLK 262330Z 2700/2800 35016KT 9999 FEW025"
    },
    {
      "icao": "LCPH",
      "alert": "OK",
      "vis_m": 9999,
      "fzfg": false,
      "metar_trigger": false,
      "taf_trigger": false,
      "metar": "METAR LCPH 270300Z AUTO 02008KT 9999 NCD 06/00 Q1016 NOSIG",
      "taf": "TAF LCPH 262330Z 2700/2800 36008KT 9999 FEW030"
    },
    {
      "icao": "LEAL",
      "alert": "OK",
      "vis_m": 9000,
      "fzfg": false,
      "metar_trigger": false,
      "taf_trigger": false,
      "metar": "METAR LEAL 270300Z 28005KT 9000 NSC 08/07 Q1026 NOSIG",
      "taf": "TAF LEAL 262300Z 2700/2724 VRB04KT CAVOK TX19/2712Z TN06/2706Z"
    },
    {
      "icao": "LEBB",
      "alert": "OK",
      "vis_m": 9999,
      "fzfg": false,
      "metar_trigger": false,
      "taf_trigger": false,
      "metar": "METAR LEBB 270300Z AUTO 30005KT 250V320 CAVOK 18/07 Q1020",
      "taf": "TAF LEBB 262300Z 2700/2724 10005KT 9999 FEW010 TX18/2712Z TN08/2705Z"
    },
    {
      "icao": "LEBL",
      "alert": "OK",
      "vis_m": 3000,
      "fzfg": false,
      "metar_trigger": false,
      "taf_trigger": false,
      "metar": "METAR LEBL 270300Z 33006KT 3000 BR BKN006 10/10 Q1025 NOSIG",
      "taf": "TAF LEBL 262300Z 2700/2724 VRB03KT 9999 FEW015 TX17/2713Z TN07/2706Z"
    },
    {
      "icao": "LECH",
      "alert": "OK",
      "vis_m": 3600,
      "fzfg": false,
      "metar_trigger": false,
      "taf_trigger": false,
      "metar": "METAR LECH 270300Z AUTO VRB01KT 3600 BR NCD 05/05 Q1025",
      "taf": ""
    },
    {
      "icao": "LEMD",
      "alert": "OK",
      "vis_m": 9999,
      "fzfg": false,
      "metar_trigger": false,
      "taf_trigger": false,
      "metar": "METAR LEMD 270300Z VRB01KT CAVOK 04/01 Q1024 NOSIG",
      "taf": "TAF LEMD 262300Z 2700/2806 VRB04KT CAVOK TX20/2715Z TN02/2706Z"
    },
    {
      "icao": "LEMG",
      "alert": "OK",
      "vis_m": 9999,
      "fzfg": false,
      "metar_trigger": false,
      "taf_trigger": false,
      "metar": "METAR LEMG 270300Z 29005KT 9999 BKN022 09/09 Q1024 NOSIG",
      "taf": "TAF LEMG 262300Z 2700/2724 29004KT 9999 FEW010 BKN020 TX20/2714Z TN08/2707Z"
    },
    {
      "icao": "LEVC",
      "alert": "OK",
      "vis_m": 5000,
      "fzfg": false,
      "metar_trigger": false,
      "taf_trigger": false,
      "metar": "METAR LEVC 270300Z 31003KT 5000 BR NSC 06/05 Q1026 NOSIG",
      "taf": "TAF LEVC 262300Z 2700/2724 VRB04KT CAVOK TX20/2712Z TN05/2706Z"
    },
    {
      "icao": "LEXJ",
      "alert": "OK",
      "vis_m": 3700,
      "fzfg": false,
      "metar_trigger": false,
      "taf_trigger": false,
      "metar": "METAR LEXJ 270300Z AUTO 23004KT 3700 BR OVC004 09/08 Q1020",
      "taf": "TAF LEXJ 270200Z 2703/2803 VRB03KT 9999 SCT010 TX16/2712Z TN09/2707Z"
    },
    {
      "icao": "LEZG",
      "alert": "OK",
      "vis_m": 9999,
      "fzfg": false,
      "metar_trigger": false,
      "taf_trigger": false,
      "metar": "METAR LEZG 270300Z 12005KT CAVOK 08/07 Q1024 NOSIG",
      "taf": "TAF LEZG 262300Z 2700/2724 11009KT CAVOK TX20/2715Z TN06/2706Z"
    },
    {
      "icao": "LEZL",
      "alert": "OK",
      "vis_m": 9999,
      "fzfg": false,
      "metar_trigger": false,
      "taf_trigger": false,
      "metar": "METAR LEZL 270300Z AUTO 03004KT CAVOK 09/08 Q1023",
      "taf": "TAF LEZL 270200Z 2703/2803 05006KT CAVOK TX24/2715Z TN10/2707Z"
    },
    {
      "icao": "LFBD",
      "alert": "OK",
      "vis_m": 9999,
      "fzfg": false,
      "metar_trigger": false,
      "taf_trigger": false,
      "metar": "METAR LFBD 270300Z AUTO 18005KT CAVOK 09/09 Q1019 TEMPO 1500 MIFG",
      "taf": "TAF LFBD 262300Z 2700/2806 VRB03KT CAVOK TX19/2712Z TN08/2706Z"
    },
    {
      "icao": "LFLL",
      "alert": "OK",
      "vis_m": 9999,
      "fzfg": false,
      "metar_trigger": false,
      "taf_trigger": false,
      "metar": "METAR LFLL 270300Z 14007KT CAVOK 08/06 Q1023 NOSIG",
      "taf": "TAF LFLL 262300Z 2700/2806 17008KT CAVOK"
    },
    {
      "icao": "LFLS",
      "alert": "OK",
      "vis_m": 9999,
      "fzfg": false,
      "metar_trigger": false,
      "taf_trigger": false,
      "metar": "METAR LFLS 270300Z AUTO 07006KT CAVOK 04/03 Q1024 TEMPO 3000 MIFG",
      "taf": "TAF LFLS 270200Z 2703/2803 09005KT CAVOK"
    },
    {
      "icao": "LFMN",
      "alert": "OK",
      "vis_m": 9999,
      "fzfg": false,
      "metar_trigger": false,
      "taf_trigger": false,
      "metar": "METAR LFMN 270300Z 33006KT 9999 BKN026 13/09 Q1026 NOSIG",
      "taf": "TAF LFMN 270200Z 2703/2809 33005KT 9999 BKN025"
    },
    {
      "icao": "LFOB",
      "alert": "OK",
      "vis_m": 8000,
      "fzfg": false,
      "metar_trigger": false,
      "taf_trigger": false,
      "metar": "METAR LFOB 270300Z AUTO 09003KT 050V110 8000 NSC 06/06 Q1016 TEMPO BKN012 BECMG 20010KT",
      "taf": "TAF LFOB 262300Z 2700/2724 VRB03KT CAVOK"
    },
    {
      "icao": "LFPO",
      "alert": "OK",
      "vis_m": 9999,
      "fzfg": false,
      "metar_trigger": false,
      "taf_trigger": false,
      "metar": "METAR LFPO 270300Z AUTO 17004KT 140V200 CAVOK 09/08 Q1017 TEMPO BKN004",
      "taf": "TAF LFPO 262300Z 2700/2806 18005KT CAVOK"
    },
    {
      "icao": "LFSB",
      "alert": "OK",
      "vis_m": 9999,
      "fzfg": false,
      "metar_trigger": false,
      "taf_trigger": false,
      "metar": "METAR LFSB 270300Z AUTO 16006KT CAVOK 06/05 Q1023 TEMPO 4000 BR",
      "taf": "TAF LFSB 262300Z 2700/2724 19003KT CAVOK"
    },
    {
      "icao": "LGAV",
      "alert": "OK",
      "vis_m": 9999,
      "fzfg": false,
      "metar_trigger": false,
      "taf_trigger": false,
      "metar": "METAR LGAV 270250Z 36006KT 9999 FEW025 SCT040 08/02 Q1028 NOSIG",
      "taf": "TAF LGAV 262300Z 2700/2724 03012KT 9999 SCT020"
    },
    {
      "icao": "LGTS",
      "alert": "OK",
      "vis_m": 9999,
      "fzfg": false,
      "metar_trigger": false,
      "taf_trigger": false,
      "metar": "METAR LGTS 270320Z VRB03KT 9999 FEW030 07/05 Q1028 NOSIG",
      "taf": "TAF LGTS 262300Z 2700/2724 13010KT 9999 SCT030"
    },
    {
      "icao": "LHBP",
      "alert": "OK",
      "vis_m": 9999,
      "fzfg": false,
      "metar_trigger": false,
      "taf_trigger": false,
      "metar": "METAR LHBP 270300Z 05002KT CAVOK M03/M04 Q1028 NOSIG",
      "taf": "TAF LHBP 262315Z 2700/2724 VRB03KT CAVOK"
    },
    {
      "icao": "LHDC",
      "alert": "OK",
      "vis_m": 9999,
      "fzfg": false,
      "metar_trigger": false,
      "taf_trigger": false,
      "metar": "METAR LHDC 270245Z AUTO 05003KT CAVOK M04/M06 Q1029",
      "taf": ""
    },
    {
      "icao": "LIBD",
      "alert": "OK",
      "vis_m": 9999,
      "fzfg": false,
      "metar_trigger": false,
      "taf_trigger": false,
      "metar": "METAR LIBD 270320Z 21005KT CAVOK 05/05 Q1026",
      "taf": "TAF LIBD 262300Z 2700/2724 VRB05KT CAVOK"
    },
    {
      "icao": "LIBG",
      "alert": "OK",
      "vis_m": null,
      "fzfg": false,
      "metar_trigger": false,
      "taf_trigger": false,
      "metar": "",
      "taf": "TAF LIBG 261700Z 2618/2703 VRB05KT CAVOK"
    },
    {
      "icao": "LIBP",
      "alert": "OK",
      "vis_m": 3700,
      "fzfg": false,
      "metar_trigger": false,
      "taf_trigger": false,
      "metar": "METAR LIBP 270320Z AUTO 20003KT 3700 BR NCD 05/05 Q1026",
      "taf": "TAF LIBP 262300Z 2700/2724 VRB05KT 7000 NSC"
    },
    {
      "icao": "LIBR",
      "alert": "OK",
      "vis_m": 7000,
      "fzfg": false,
      "metar_trigger": false,
      "taf_trigger": false,
      "metar": "METAR LIBR 270320Z 26005KT 7000 3000SW NSC 09/09 Q1026",
      "taf": "TAF LIBR 262300Z 2700/2724 VRB05KT 9999 SCT010"
    },
    {
      "icao": "LICA",
      "alert": "OK",
      "vis_m": 9999,
      "fzfg": false,
      "metar_trigger": false,
      "taf_trigger": false,
      "metar": "METAR LICA 270320Z AUTO 07004KT 9999 NCD 07/07 Q1027",
      "taf": "TAF LICA 262300Z 2700/2724 VRB05KT 9999 SCT020"
    },
    {
      "icao": "LICC",
      "alert": "OK",
      "vis_m": 4000,
      "fzfg": false,
      "metar_trigger": false,
      "taf_trigger": false,
      "metar": "METAR LICC 270320Z 21006KT 4000 BR NSC 09/07 Q1026",
      "taf": "TAF LICC 262300Z 2700/2724 VRB05KT CAVOK"
    },
    {
      "icao": "LICJ",
      "alert": "OK",
      "vis_m": 9999,
      "fzfg": false,
      "metar_trigger": false,
      "taf_trigger": false,
      "metar": "METAR LICJ 270320Z 17002KT CAVOK 10/08 Q1026",
      "taf": "TAF LICJ 262300Z 2700/2724 VRB05KT CAVOK"
    },
    {
      "icao": "LIMC",
      "alert": "OK",
      "vis_m": 9999,
      "fzfg": false,
      "metar_trigger": false,
      "taf_trigger": false,
      "metar": "METAR LIMC 270320Z 36004KT 310V060 9999 BCFG NSC 04/03 Q1026 NOSIG",
      "taf": "TAF LIMC 262300Z 2700/2806 VRB04KT 3000 BR NSC"
    },
    {
      "icao": "LIME",
      "alert": "OK",
      "vis_m": 7000,
      "fzfg": false,
      "metar_trigger": false,
      "taf_trigger": false,
      "metar": "METAR LIME 270320Z 01005KT 7000 NSC 07/05 Q1025 NOSIG",
      "taf": "TAF LIME 262300Z 2700/2724 VRB05KT 3000 BR FEW030"
    },
    {
      "icao": "LIMF",
      "alert": "OK",
      "vis_m": 9999,
      "fzfg": false,
      "metar_trigger": false,
      "taf_trigger": false,
      "metar": "METAR LIMF 270320Z 30004KT CAVOK 06/02 Q1026",
      "taf": "TAF LIMF 262300Z 2700/2724 VRB04KT 4000 BR NSC"
    },
    {
      "icao": "LIMJ",
      "alert": "OK",
      "vis_m": 9999,
      "fzfg": false,
      "metar_trigger": false,
      "taf_trigger": false,
      "metar": "METAR LIMJ 270320Z 08004KT 9999 FEW010 BKN025 14/11 Q1026",
      "taf": "TAF LIMJ 262300Z 2700/2724 VRB05KT 9999 SCT030"
    },
    {
      "icao": "LIPE",
      "alert": "OK",
      "vis_m": 3500,
      "fzfg": false,
      "metar_trigger": false,
      "taf_trigger": false,
      "metar": "METAR LIPE 270320Z VRB02KT 3500 BR NSC 07/06 Q1026",
      "taf": "TAF LIPE 262300Z 2700/2724 VRB04KT 4000 BR FEW025"
    },
    {
      "icao": "LIPH",
      "alert": "OK",
      "vis_m": 0,
      "fzfg": false,
      "metar_trigger": false,
      "taf_trigger": false,
      "metar": "METAR LIPH 270320Z AUTO VRB01KT 0000 R07/0175N FG VV001 06/06 Q1026",
      "taf": "TAF LIPH 262300Z 2700/2724 VRB05KT 0100 FG OVC001"
    },
    {
      "icao": "LIPQ",
      "alert": "OK",
      "vis_m": 400,
      "fzfg": false,
      "metar_trigger": false,
      "taf_trigger": false,
      "metar": "METAR LIPQ 270320Z AUTO 10002KT 0400 R09/0800D BCFG BKN014/// 03/03 Q1026",
      "taf": "TAF LIPQ 262300Z 2700/2724 VRB04KT 0150 FG OVC002"
    },
    {
      "icao": "LIPR",
      "alert": "OK",
      "vis_m": 2400,
      "fzfg": false,
      "metar_trigger": false,
      "taf_trigger": false,
      "metar": "METAR LIPR 270320Z AUTO VRB01KT 2400 BR NCD 05/05 Q1026",
      "taf": "TAF LIPR 262300Z 2700/2724 VRB04KT 3000 BR NSC"
    },
    {
      "icao": "LIPX",
      "alert": "OK",
      "vis_m": 6000,
      "fzfg": false,
      "metar_trigger": false,
      "taf_trigger": false,
      "metar": "METAR LIPX 270320Z 31003KT 6000 NSC 05/05 Q1026",
      "taf": ""
    },
    {
      "icao": "LIPY",
      "alert": "OK",
      "vis_m": 3200,
      "fzfg": false,
      "metar_trigger": false,
      "taf_trigger": false,
      "metar": "METAR LIPY 270320Z AUTO 20004KT 3200 BR NCD 06/05 Q1026",
      "taf": "TAF LIPY 262300Z 2700/2724 VRB04KT 7000 NSC"
    },
    {
      "icao": "LIPZ",
      "alert": "OK",
      "vis_m": 50,
      "fzfg": false,
      "metar_trigger": false,
      "taf_trigger": false,
      "metar": "METAR LIPZ 270320Z 03002KT 0050 R04R/0225N FG VV001 05/05 Q1026 NOSIG",
      "taf": "TAF LIPZ 262300Z 2700/2806 VRB04KT 0100 FG OVC001"
    },
    {
      "icao": "LIRF",
      "alert": "OK",
      "vis_m": 100,
      "fzfg": false,
      "metar_trigger": false,
      "taf_trigger": false,
      "metar": "METAR LIRF 270320Z 08002KT 0100 R16L/0750N R16R/0300N R25/0375N R34R/0500N FG NSC 07/07 Q1026 NOSIG",
      "taf": "TAF LIRF 262300Z 2700/2806 VRB05KT 4000 MIFG FEW030"
    },
    {
      "icao": "LIRN",
      "alert": "OK",
      "vis_m": 3000,
      "fzfg": false,
      "metar_trigger": false,
      "taf_trigger": false,
      "metar": "METAR LIRN 270320Z VRB02KT 3000 BR NSC 12/11 Q1027 NOSIG",
      "taf": "TAF LIRN 262300Z 2700/2724 VRB05KT 6000 NSC"
    },
    {
      "icao": "LIRP",
      "alert": "OK",
      "vis_m": 6000,
      "fzfg": false,
      "metar_trigger": false,
      "taf_trigger": false,
      "metar": "METAR LIRP 270315Z 12003KT 6000 BKN020 08/08 Q1027 NOSIG",
      "taf": "TAF LIRP 262300Z 2700/2724 VRB02KT 0600 BCFG BKN005"
    },
    {
      "icao": "LIRZ",
      "alert": "OK",
      "vis_m": 9999,
      "fzfg": false,
      "metar_trigger": false,
      "taf_trigger": false,
      "metar": "METAR LIRZ 270320Z AUTO VRB01KT 9999 2800S NCD 05/05 Q1026",
      "taf": "TAF LIRZ 262300Z 2700/2724 VRB05KT 4000 BR NSC"
    },
    {
      "icao": "LJLJ",
      "alert": "OK",
      "vis_m": 9999,
      "fzfg": false,
      "metar_trigger": false,
      "taf_trigger": false,
      "metar": "METAR LJLJ 270230Z VRB02KT 9999 MIFG NSC 00/00 Q1026 NOSIG",
      "taf": "TAF LJLJ 262300Z 2700/2800 VRB02KT CAVOK"
    },
    {
      "icao": "LKMT",
      "alert": "OK",
      "vis_m": 9999,
      "fzfg": false,
      "metar_trigger": false,
      "taf_trigger": false,
      "metar": "METAR LKMT 270300Z 23010KT CAVOK 01/M01 Q1024 NOSIG",
      "taf": "TAF LKMT 262300Z 2700/2724 22012KT CAVOK"
    },
    {
      "icao": "LKPR",
      "alert": "OK",
      "vis_m": 800,
      "fzfg": false,
      "metar_trigger": false,
      "taf_trigger": false,
      "metar": "METAR LKPR 270300Z 00000KT 0800 R24/1200U R30/0900N FG NSC 03/03 Q1023 NOSIG",
      "taf": "TAF LKPR 270200Z 2703/2809 VRB02KT 3000 BR NSC"
    },
    {
      "icao": "LLBG",
      "alert": "OK",
      "vis_m": 9999,
      "fzfg": false,
      "metar_trigger": false,
      "taf_trigger": false,
      "metar": "METAR LLBG 270320Z 36005KT 320V020 9999 FEW028 SCT050 12/09 Q1015 NOSIG RMK BKN090 RERA",
      "taf": "TAF LLBG 262305Z 2700/2724 29008KT 9999 SCT040 TX17/2711Z TN12/2704Z"
    },
    {
      "icao": "LMML",
      "alert": "OK",
      "vis_m": 9999,
      "fzfg": false,
      "metar_trigger": false,
      "taf_trigger": false,
      "metar": "METAR LMML 270315Z 27003KT 9999 SCT009 10/10 Q1026 BECMG 8000 BKN007",
      "taf": "TAF LMML 262300Z 2700/2724 VRB05KT 9999 FEW015"
    },
    {
      "icao": "LOWW",
      "alert": "OK",
      "vis_m": 9999,
      "fzfg": false,
      "metar_trigger": false,
      "taf_trigger": false,
      "metar": "METAR LOWW 270320Z 13003KT CAVOK 00/M01 Q1026 NOSIG",
      "taf": "TAF LOWW 270215Z 2703/2809 15005KT CAVOK TX11/2715Z TNM01/2706Z"
    },
    {
      "icao": "LPFR",
      "alert": "OK",
      "vis_m": 9999,
      "fzfg": false,
      "metar_trigger": false,
      "taf_trigger": false,
      "metar": "METAR LPFR 270300Z 02005KT CAVOK 12/09 Q1022",
      "taf": "TAF LPFR 262300Z 2700/2724 VRB02KT CAVOK"
    },
    {
      "icao": "LPMA",
      "alert": "OK",
      "vis_m": 9999,
      "fzfg": false,
      "metar_trigger": false,
      "taf_trigger": false,
      "metar": "METAR LPMA 270300Z 34021G32KT 290V020 9999 BKN015 16/11 Q1024",
      "taf": "TAF LPMA 262300Z 2700/2724 01015KT 9999 SCT015"
    },
    {
      "icao": "LPPR",
      "alert": "OK",
      "vis_m": 9999,
      "fzfg": false,
      "metar_trigger": false,
      "taf_trigger": false,
      "metar": "METAR LPPR 270300Z 12007KT 9999 FEW011 BKN016 10/09 Q1024",
      "taf": "TAF LPPR 262300Z 2700/2724 VRB02KT 9999 SCT012"
    },
    {
      "icao": "LPPS",
      "alert": "OK",
      "vis_m": 9999,
      "fzfg": false,
      "metar_trigger": false,
      "taf_trigger": false,
      "metar": "METAR LPPS 270300Z 36018KT 9999 BKN013 15/12 Q1026",
      "taf": "TAF LPPS 262300Z 2700/2806 02017KT 9999 SCT015"
    },
    {
      "icao": "LPPT",
      "alert": "OK",
      "vis_m": 9999,
      "fzfg": false,
      "metar_trigger": false,
      "taf_trigger": false,
      "metar": "METAR LPPT 270300Z 32008KT 290V360 9999 FEW012 11/10 Q1024",
      "taf": "TAF LPPT 262300Z 2700/2806 32007KT 9999 FEW012"
    },
    {
      "icao": "LQBK",
      "alert": "OK",
      "vis_m": 9999,
      "fzfg": false,
      "metar_trigger": false,
      "taf_trigger": false,
      "metar": "METAR LQBK 270300Z 14005KT CAVOK M00/M00 Q1027 NOSIG",
      "taf": "TAF LQBK 262300Z 2700/2724 17005KT CAVOK TX16/2714Z TNM02/2706Z"
    },
    {
      "icao": "LQSA",
      "alert": "OK",
      "vis_m": 9999,
      "fzfg": false,
      "metar_trigger": false,
      "taf_trigger": false,
      "metar": "METAR LQSA 270300Z VRB01KT CAVOK M01/M01 Q1027",
      "taf": "TAF LQSA 262300Z 2700/2724 VRB02KT CAVOK TX17/2714Z TNM00/2705Z"
    },
    {
      "icao": "LQTZ",
      "alert": "OK",
      "vis_m": 4500,
      "fzfg": false,
      "metar_trigger": false,
      "taf_trigger": false,
      "metar": "METAR LQTZ 270300Z 11003KT 4500 BR NSC M01/M01 Q1027",
      "taf": "TAF LQTZ 262300Z 2700/2724 VRB02KT CAVOK TX16/2714Z TNM03/2706Z"
    },
    {
      "icao": "LRBC",
      "alert": "OK",
      "vis_m": 9999,
      "fzfg": false,
      "metar_trigger": false,
      "taf_trigger": false,
      "metar": "METAR LRBC 270300Z 00000KT 9999 BKN020 M01/M02 Q1030",
      "taf": "TAF LRBC 270200Z 2703/2712 VRB04KT 9999 OVC020"
    },
    {
      "icao": "LRBS",
      "alert": "OK",
      "vis_m": 5000,
      "fzfg": false,
      "metar_trigger": false,
      "taf_trigger": false,
      "metar": "METAR LRBS 270300Z 00000KT 5000 BCFG BR FEW028 M04/M05 Q1030 TEMPO 3000 BR",
      "taf": "TAF LRBS 262300Z 2700/2724 VRB04KT CAVOK"
    },
    {
      "icao": "LRBV",
      "alert": "OK",
      "vis_m": 5000,
      "fzfg": false,
      "metar_trigger": false,
      "taf_trigger": false,
      "metar": "METAR LRBV 270300Z AUTO 20002KT 5000 NCD M07/M08 Q1028",
      "taf": "TAF LRBV 270200Z 2703/2712 VRB03KT 5000 BR NSC"
    },
    {
      "icao": "LRCL",
      "alert": "OK",
      "vis_m": 9999,
      "fzfg": false,
      "metar_trigger": false,
      "taf_trigger": false,
      "metar": "METAR LRCL 270300Z 00000KT CAVOK M05/M07 Q1028",
      "taf": "TAF LRCL 270200Z 2703/2712 VRB03KT CAVOK"
    },
    {
      "icao": "LRCV",
      "alert": "OK",
      "vis_m": 9999,
      "fzfg": false,
      "metar_trigger": false,
      "taf_trigger": false,
      "metar": "METAR LRCV 270300Z 03002KT 9999 OVC035 M01/M02 Q1029",
      "taf": "TAF LRCV 270200Z 2703/2712 VRB03KT CAVOK"
    },
    {
      "icao": "LRIA",
      "alert": "OK",
      "vis_m": 9999,
      "fzfg": false,
      "metar_trigger": false,
      "taf_trigger": false,
      "metar": "METAR LRIA 270300Z 03004KT 010V070 9999 OVC012 M01/M04 Q1031",
      "taf": "TAF LRIA 270200Z 2703/2712 VRB04KT 9999 BKN015"
    },
    {
      "icao": "LROP",
      "alert": "OK",
      "vis_m": 3500,
      "fzfg": false,
      "metar_trigger": false,
      "taf_trigger": false,
      "metar": "METAR LROP 270300Z 05001KT 3500 BCFG SCT028 M04/M04 Q1030 TEMPO 1500 BR",
      "taf": "TAF LROP 262300Z 2700/2724 VRB04KT CAVOK"
    },
    {
      "icao": "LRSB",
      "alert": "OK",
      "vis_m": 9999,
      "fzfg": false,
      "metar_trigger": false,
      "taf_trigger": false,
      "metar": "METAR LRSB 270300Z 10004KT CAVOK M04/M05 Q1028",
      "taf": "TAF LRSB 262300Z 2700/2724 VRB04KT CAVOK"
    },
    {
      "icao": "LRSM",
      "alert": "OK",
      "vis_m": 9999,
      "fzfg": false,
      "metar_trigger": false,
      "taf_trigger": false,
      "metar": "METAR LRSM 270300Z AUTO 00000KT 9999 FEW240/// M03/M04 Q1029",
      "taf": "TAF LRSM 270200Z 2703/2712 08005KT CAVOK"
    },
    {
      "icao": "LRSV",
      "alert": "OK",
      "vis_m": 9999,
      "fzfg": false,
      "metar_trigger": false,
      "taf_trigger": false,
      "metar": "METAR LRSV 270300Z 09003KT 9999 BKN011 M03/M04 Q1028",
      "taf": "TAF LRSV 270200Z 2703/2712 VRB04KT 9999 BKN015"
    },
    {
      "icao": "LRTM",
      "alert": "OK",
      "vis_m": 9999,
      "fzfg": false,
      "metar_trigger": false,
      "taf_trigger": false,
      "metar": "METAR LRTM 270300Z AUTO 10004KT 9999 NCD M05/M06 Q1029",
      "taf": "TAF LRTM 270200Z 2703/2712 VRB02KT CAVOK"
    },
    {
      "icao": "LRTR",
      "alert": "OK",
      "vis_m": 9999,
      "fzfg": false,
      "metar_trigger": false,
      "taf_trigger": false,
      "metar": "METAR LRTR 270300Z 08006KT CAVOK M02/M02 Q1028",
      "taf": "TAF LRTR 262300Z 2700/2724 09006KT CAVOK"
    },
    {
      "icao": "LTAC",
      "alert": "OK",
      "vis_m": 9999,
      "fzfg": false,
      "metar_trigger": false,
      "taf_trigger": false,
      "metar": "METAR LTAC 270320Z 31009KT 280V340 9999 BKN040 M01/M06 Q1018 NOSIG RMK RWY21C 30008KT 260V320 RWY03L 30010KT 270V330 RWY21R 29008KT 250V330 RWY03R 29008KT RWY21L 29009KT",
      "taf": "TAF LTAC 262240Z 2700/2724 VRB02KT 9999 BKN040"
    },
    {
      "icao": "LTFM",
      "alert": "OK",
      "vis_m": 9999,
      "fzfg": false,
      "metar_trigger": false,
      "taf_trigger": false,
      "metar": "METAR LTFM 270320Z 35013KT 9999 BKN028 04/M00 Q1028 NOSIG RMK RWY17L 35013KT RWY34L 34012KT RWY16R 35012KT RWY36 36014KT RWY18 01012KT",
      "taf": "TAF LTFM 262240Z 2700/2806 36015KT 9999 BKN028"
    },
    {
      "icao": "LUKK",
      "alert": "OK",
      "vis_m": 9999,
      "fzfg": false,
      "metar_trigger": false,
      "taf_trigger": false,
      "metar": "METAR LUKK 270300Z 02005KT 9999 OVC016 M01/M04 Q1030 NOSIG",
      "taf": "TAF LUKK 262316Z 2700/2724 VRB06KT 9999 OVC014"
    },
    {
      "icao": "LWOH",
      "alert": "OK",
      "vis_m": null,
      "fzfg": false,
      "metar_trigger": false,
      "taf_trigger": false,
      "metar": "",
      "taf": "TAF LWOH 270230Z 2703/2803 VRB02KT CAVOK"
    },
    {
      "icao": "LWSK",
      "alert": "OK",
      "vis_m": 9999,
      "fzfg": false,
      "metar_trigger": false,
      "taf_trigger": false,
      "metar": "METAR LWSK 270320Z 11003KT 080V140 CAVOK M02/M05 Q1028 NOSIG",
      "taf": "TAF LWSK 270230Z 2703/2803 VRB02KT CAVOK"
    },
    {
      "icao": "LYBE",
      "alert": "OK",
      "vis_m": 9999,
      "fzfg": false,
      "metar_trigger": false,
      "taf_trigger": false,
      "metar": "METAR LYBE 270300Z 11003KT CAVOK M00/M01 Q1027 NOSIG",
      "taf": "TAF LYBE 262300Z 2700/2724 07005KT CAVOK TX13/2713Z TNM00/2706Z"
    },
    {
      "icao": "LYNI",
      "alert": "OK",
      "vis_m": 9999,
      "fzfg": false,
      "metar_trigger": false,
      "taf_trigger": false,
      "metar": "METAR LYNI 270300Z 13003KT 9999 MIFG NSC M01/M01 Q1028 NOSIG",
      "taf": "TAF LYNI 262300Z 2700/2724 07004KT CAVOK TX14/2714Z TNM02/2705Z"
    },
    {
      "icao": "LYPG",
      "alert": "OK",
      "vis_m": 9999,
      "fzfg": false,
      "metar_trigger": false,
      "taf_trigger": false,
      "metar": "METAR LYPG 270300Z 34004KT CAVOK 05/M00 Q1026 NOSIG",
      "taf": "TAF LYPG 262300Z 2700/2724 36005KT CAVOK TX19/2712Z TN04/2705Z"
    },
    {
      "icao": "LZIB",
      "alert": "OK",
      "vis_m": 9999,
      "fzfg": false,
      "metar_trigger": false,
      "taf_trigger": false,
      "metar": "METAR LZIB 270300Z 03008KT CAVOK M00/M02 Q1027 NOSIG",
      "taf": "TAF LZIB 262315Z 2700/2800 06007KT CAVOK"
    },
    {
      "icao": "LZKZ",
      "alert": "OK",
      "vis_m": 9999,
      "fzfg": false,
      "metar_trigger": false,
      "taf_trigger": false,
      "metar": "METAR LZKZ 270300Z 35002KT CAVOK M03/M04 Q1028 NOSIG",
      "taf": "TAF LZKZ 262315Z 2700/2800 VRB02KT CAVOK"
    },
    {
      "icao": "LZTT",
      "alert": "OK",
      "vis_m": 9999,
      "fzfg": false,
      "metar_trigger": false,
      "taf_trigger": false,
      "metar": "METAR LZTT 270300Z VRB02KT CAVOK M06/M06 Q1025",
      "taf": "TAF LZTT 262315Z 2700/2800 VRB02KT CAVOK"
    },
    {
      "icao": "OEJN",
      "alert": "OK",
      "vis_m": 9999,
      "fzfg": false,
      "metar_trigger": false,
      "taf_trigger": false,
      "metar": "METAR OEJN 270300Z 01003KT CAVOK 22/14 Q1011 NOSIG",
      "taf": "TAF OEJN 262300Z 2700/2806 VRB03KT CAVOK"
    },
    {
      "icao": "OEMA",
      "alert": "OK",
      "vis_m": 9999,
      "fzfg": false,
      "metar_trigger": false,
      "taf_trigger": false,
      "metar": "METAR OEMA 270300Z 02004KT CAVOK 18/M01 Q1013 NOSIG",
      "taf": "TAF OEMA 262300Z 2700/2806 VRB03KT 7000 NSC"
    },
    {
      "icao": "OJAI",
      "alert": "OK",
      "vis_m": 3500,
      "fzfg": false,
      "metar_trigger": false,
      "taf_trigger": false,
      "metar": "METAR OJAI 270300Z 26004KT 3500 BR FEW015 SCT025 06/04 Q1014 NOSIG",
      "taf": "TAF OJAI 262208Z 2700/2806 28018KT 3000 -RA BLDU SCT025 BKN030"
    },
    {
      "icao": "OMAA",
      "alert": "OK",
      "vis_m": null,
      "fzfg": false,
      "metar_trigger": false,
      "taf_trigger": false,
      "metar": "",
      "taf": "TAF OMAA 262300Z 2700/2806 26007KT 8000 NSC"
    },
    {
      "icao": "OMDB",
      "alert": "OK",
      "vis_m": null,
      "fzfg": false,
      "metar_trigger": false,
      "taf_trigger": false,
      "metar": "",
      "taf": "TAF OMDB 262300Z 2700/2806 27010KT 8000 NSC"
    },
    {
      "icao": "UAAA",
      "alert": "OK",
      "vis_m": 3300,
      "fzfg": false,
      "metar_trigger": false,
      "taf_trigger": false,
      "metar": "METAR UAAA 270300Z 02001MPS 3300 BR FU SCT050 OVC100 M00/M01 Q1017 NOSIG",
      "taf": "TAF UAAA 262301Z 2700/2724 22003G08MPS 3100 -SHRASN BR BKN011CB OVC020 TX02/2708Z TNM07/2702Z"
    },
    {
      "icao": "UBBB",
      "alert": "OK",
      "vis_m": 9999,
      "fzfg": false,
      "metar_trigger": false,
      "taf_trigger": false,
      "metar": "METAR UBBB 270300Z 06014KT 9999 BKN012 06/04 Q1017 NOSIG",
      "taf": "TAF UBBB 262306Z 2700/2724 06010KT 9999 BKN030 TX08/2710Z TN04/2701Z"
    },
    {
      "icao": "UDSG",
      "alert": "OK",
      "vis_m": 9999,
      "fzfg": false,
      "metar_trigger": false,
      "taf_trigger": false,
      "metar": "METAR UDSG 270300Z 06026G37KT 9999 DRSN OVC033 00/M02 Q1004 NOSIG",
      "taf": "TAF UDSG 262300Z 2700/2724 VRB06KT 9999 BKN040"
    },
    {
      "icao": "UDYZ",
      "alert": "OK",
      "vis_m": 9999,
      "fzfg": false,
      "metar_trigger": false,
      "taf_trigger": false,
      "metar": "METAR UDYZ 270300Z 21003KT 170V260 9999 -SHRA FEW006 OVC038CB 04/03 Q1004 NOSIG",
      "taf": "TAF UDYZ 262300Z 2700/2724 13006KT 9999 BKN040"
    },
    {
      "icao": "UGKO",
      "alert": "OK",
      "vis_m": 9999,
      "fzfg": false,
      "metar_trigger": false,
      "taf_trigger": false,
      "metar": "METAR UGKO 270300Z 09006KT 9999 SCT011 BKN046 01/00 Q1014 NOSIG",
      "taf": "TAF UGKO 262300Z 2700/2724 08007KT 9999 -RA SCT020 OVC040 TX03/2712Z TN01/2703Z"
    }
  ]
}