{
  "ts_utc": "2026-02-09T21:55:42Z",
  "threshold_m": 150,
  "source": "stations_override.txt (ICAO list) + aviationweather.gov (METAR/TAF raw)",
  "station_count": 159,
  "stations": [
    {
      "icao": "BIKF",
      "alert": "OK",
      "vis_m": 9999,
      "fzfg": false,
      "metar_trigger": false,
      "taf_trigger": false,
      "metar": "METAR BIKF 092130Z 03009KT CAVOK 02/M01 Q1006",
      "taf": "TAF BIKF 091946Z 0921/1021 04010KT 9999 FEW040 TX04/1013Z TN01/1021Z"
    },
    {
      "icao": "BKPR",
      "alert": "OK",
      "vis_m": null,
      "fzfg": false,
      "metar_trigger": false,
      "taf_trigger": false,
      "metar": "",
      "taf": ""
    },
    {
      "icao": "EBCI",
      "alert": "OK",
      "vis_m": 9999,
      "fzfg": false,
      "metar_trigger": false,
      "taf_trigger": false,
      "metar": "METAR EBCI 092120Z 14009KT 9999 FEW010 04/03 Q1000 NOSIG",
      "taf": "TAF EBCI 091700Z 0918/1024 15009KT CAVOK"
    },
    {
      "icao": "EDDB",
      "alert": "OK",
      "vis_m": 5000,
      "fzfg": false,
      "metar_trigger": false,
      "taf_trigger": false,
      "metar": "METAR EDDB 092150Z AUTO 11006KT 5000 BR OVC005 00/M01 Q1008 NOSIG",
      "taf": "TAF EDDB 091700Z 0918/1018 11007KT 5000 BR OVC005"
    },
    {
      "icao": "EDDH",
      "alert": "OK",
      "vis_m": 5000,
      "fzfg": false,
      "metar_trigger": false,
      "taf_trigger": false,
      "metar": "METAR EDDH 092150Z AUTO 13009KT 5000 BR OVC004 01/M00 Q1006 TEMPO 3000",
      "taf": "TAF EDDH 091700Z 0918/1024 12005KT 6000 OVC006"
    },
    {
      "icao": "EDDK",
      "alert": "OK",
      "vis_m": 9999,
      "fzfg": false,
      "metar_trigger": false,
      "taf_trigger": false,
      "metar": "METAR EDDK 092150Z AUTO 12007KT 090V150 CAVOK 04/01 Q1003 NOSIG",
      "taf": "TAF EDDK 091700Z 0918/1024 13009KT CAVOK"
    },
    {
      "icao": "EDDN",
      "alert": "OK",
      "vis_m": 9999,
      "fzfg": false,
      "metar_trigger": false,
      "taf_trigger": false,
      "metar": "METAR EDDN 092150Z AUTO 13008KT 9999 OVC020 03/M00 Q1006",
      "taf": "TAF EDDN 091700Z 0918/1018 12006KT 9999 BKN035"
    },
    {
      "icao": "EDDS",
      "alert": "OK",
      "vis_m": 7000,
      "fzfg": false,
      "metar_trigger": false,
      "taf_trigger": false,
      "metar": "METAR EDDS 092150Z AUTO VRB01KT 7000 1900 BR NSC M02/M03 Q1003",
      "taf": "TAF EDDS 091700Z 0918/1018 09004KT CAVOK"
    },
    {
      "icao": "EDFH",
      "alert": "OK",
      "vis_m": 4100,
      "fzfg": false,
      "metar_trigger": false,
      "taf_trigger": false,
      "metar": "METAR EDFH 092120Z 14013KT 4100 BR SCT002 01/01 Q1002",
      "taf": "TAF EDFH 091700Z 0918/1018 15012KT 9999 BKN007"
    },
    {
      "icao": "EDJA",
      "alert": "OK",
      "vis_m": 6000,
      "fzfg": false,
      "metar_trigger": false,
      "taf_trigger": false,
      "metar": "METAR EDJA 092120Z VRB01KT 6000 NSC M03/M03 Q1004",
      "taf": "TAF EDJA 091700Z 0918/1003 05003KT CAVOK"
    },
    {
      "icao": "EDLW",
      "alert": "OK",
      "vis_m": 9999,
      "fzfg": false,
      "metar_trigger": false,
      "taf_trigger": false,
      "metar": "METAR EDLW 092120Z AUTO 10006KT 9999 // NCD 03/00 Q1002",
      "taf": "TAF EDLW 091700Z 0918/1018 14007KT CAVOK"
    },
    {
      "icao": "EDNY",
      "alert": "OK",
      "vis_m": 6000,
      "fzfg": false,
      "metar_trigger": false,
      "taf_trigger": false,
      "metar": "METAR EDNY 092120Z AUTO VRB02KT 6000 // SCT210/// M02/M03 Q1005",
      "taf": "TAF EDNY 091700Z 0918/1003 VRB03KT CAVOK"
    },
    {
      "icao": "EDSB",
      "alert": "OK",
      "vis_m": 9999,
      "fzfg": false,
      "metar_trigger": false,
      "taf_trigger": false,
      "metar": "METAR EDSB 092120Z VRB02KT 9999 BCFG SCT003 01/00 Q1004",
      "taf": "TAF EDSB 091700Z 0918/1018 VRB03KT CAVOK"
    },
    {
      "icao": "EETN",
      "alert": "OK",
      "vis_m": 9999,
      "fzfg": false,
      "metar_trigger": false,
      "taf_trigger": false,
      "metar": "METAR EETN 092150Z 25006KT 9999 OVC025 M04/M06 Q1010 NOSIG",
      "taf": ""
    },
    {
      "icao": "EFTU",
      "alert": "OK",
      "vis_m": 9999,
      "fzfg": false,
      "metar_trigger": false,
      "taf_trigger": false,
      "metar": "METAR EFTU 092150Z AUTO 23005KT 9999 OVC012 M06/M08 Q1009",
      "taf": "TAF EFTU 092035Z 0921/1021 24006KT 9999 OVC012"
    },
    {
      "icao": "EGBB",
      "alert": "OK",
      "vis_m": 6000,
      "fzfg": false,
      "metar_trigger": false,
      "taf_trigger": false,
      "metar": "METAR EGBB 092150Z 11010KT 6000 -RA OVC008 07/05 Q0993",
      "taf": "TAF EGBB 091657Z 0918/1018 15010KT 9999 SCT010 BKN020"
    },
    {
      "icao": "EGGP",
      "alert": "OK",
      "vis_m": 9999,
      "fzfg": false,
      "metar_trigger": false,
      "taf_trigger": false,
      "metar": "METAR EGGP 092150Z 11011KT 9999 BKN018 07/05 Q0993",
      "taf": "TAF EGGP 091656Z 0918/1018 12010KT 9999 SCT040"
    },
    {
      "icao": "EGGW",
      "alert": "OK",
      "vis_m": 7000,
      "fzfg": false,
      "metar_trigger": false,
      "taf_trigger": false,
      "metar": "METAR EGGW 092150Z AUTO 12010KT 7000 OVC006 06/05 Q0994",
      "taf": "TAF EGGW 091702Z 0918/1018 15007KT 9999 FEW008 SCT020"
    },
    {
      "icao": "EGKK",
      "alert": "OK",
      "vis_m": 8000,
      "fzfg": false,
      "metar_trigger": false,
      "taf_trigger": false,
      "metar": "METAR EGKK 092150Z 12009KT 8000 -RADZ BKN009 BKN018 08/07 Q0993",
      "taf": "TAF EGKK 091705Z 0918/1024 12010KT 9999 BKN010"
    },
    {
      "icao": "EGNM",
      "alert": "OK",
      "vis_m": 8000,
      "fzfg": false,
      "metar_trigger": false,
      "taf_trigger": false,
      "metar": "METAR EGNM 092150Z 10008KT 8000 SCT005 BKN010 06/05 Q0995",
      "taf": ""
    },
    {
      "icao": "EGPD",
      "alert": "OK",
      "vis_m": 2200,
      "fzfg": false,
      "metar_trigger": false,
      "taf_trigger": false,
      "metar": "METAR EGPD 092150Z COR AUTO 13010KT 2200 RA OVC002 07/06 Q0998 REDZ NOSIG",
      "taf": ""
    },
    {
      "icao": "EGPF",
      "alert": "OK",
      "vis_m": 9999,
      "fzfg": false,
      "metar_trigger": false,
      "taf_trigger": false,
      "metar": "METAR EGPF 092150Z AUTO 06006KT 9999 NCD 06/05 Q0995",
      "taf": "TAF EGPF 091657Z 0918/1018 06008KT 9999 FEW015 BKN030"
    },
    {
      "icao": "EHBK",
      "alert": "OK",
      "vis_m": 9999,
      "fzfg": false,
      "metar_trigger": false,
      "taf_trigger": false,
      "metar": "METAR EHBK 092125Z AUTO 16005KT 9999 NSC 05/02 Q1001 NOSIG",
      "taf": "TAF EHBK 091700Z 0918/1024 15006KT CAVOK"
    },
    {
      "icao": "EHEH",
      "alert": "OK",
      "vis_m": 9999,
      "fzfg": false,
      "metar_trigger": false,
      "taf_trigger": false,
      "metar": "SPECI EHEH 092134Z AUTO 12004KT 9999 OVC210 03/02 Q1001 BLU RMK TREND REMOTED BY EHWX",
      "taf": "TAF EHEH 091746Z 0918/1024 12004KT CAVOK"
    },
    {
      "icao": "EKBI",
      "alert": "OK",
      "vis_m": 4100,
      "fzfg": false,
      "metar_trigger": false,
      "taf_trigger": false,
      "metar": "METAR EKBI 092150Z AUTO 09007KT 4100 BR OVC005/// M01/M01 Q1007",
      "taf": "TAF EKBI 092027Z 0921/1021 10008KT 6000 BKN004"
    },
    {
      "icao": "EKCH",
      "alert": "OK",
      "vis_m": 4500,
      "fzfg": false,
      "metar_trigger": false,
      "taf_trigger": false,
      "metar": "METAR EKCH 092150Z 09006KT 4500 -SG SCT007 BKN009 M01/M01 Q1009 TEMPO 8000 NSW BKN012",
      "taf": "TAF EKCH 092027Z 0921/1021 11006KT 7000 OVC006"
    },
    {
      "icao": "ENAL",
      "alert": "OK",
      "vis_m": 9999,
      "fzfg": false,
      "metar_trigger": false,
      "taf_trigger": false,
      "metar": "METAR ENAL 092120Z AUTO 16004KT 9999 NCD M01/M04 Q1008",
      "taf": "TAF ENAL 092000Z 0921/1006 15005KT 9999 SCT025"
    },
    {
      "icao": "ENBR",
      "alert": "OK",
      "vis_m": 9999,
      "fzfg": false,
      "metar_trigger": false,
      "taf_trigger": false,
      "metar": "METAR ENBR 092120Z 12004KT 9999 SCT035 M01/M05 Q1009 RMK WIND 1200FT 20006KT",
      "taf": "TAF ENBR 091700Z 0918/1018 VRB03KT 9999 FEW040"
    },
    {
      "icao": "ENGM",
      "alert": "OK",
      "vis_m": 9999,
      "fzfg": false,
      "metar_trigger": false,
      "taf_trigger": false,
      "metar": "METAR ENGM 092120Z 35004KT 310V020 9999 -SN OVC014 M09/M12 Q1011 NOSIG",
      "taf": "TAF ENGM 091700Z 0918/1018 03005KT 9999 SCT010 BKN018"
    },
    {
      "icao": "ENHD",
      "alert": "OK",
      "vis_m": 9999,
      "fzfg": false,
      "metar_trigger": false,
      "taf_trigger": false,
      "metar": "METAR ENHD 092120Z AUTO 10010KT 9999 OVC030/// 01/M06 Q1008",
      "taf": "TAF ENHD 091400Z 0915/0923 13010KT 9999 BKN045"
    },
    {
      "icao": "ENTC",
      "alert": "OK",
      "vis_m": 9999,
      "fzfg": false,
      "metar_trigger": false,
      "taf_trigger": false,
      "metar": "METAR ENTC 092120Z 12003KT 080V140 CAVOK M07/M10 Q1010 NOSIG RMK WIND 2600FT 35013KT",
      "taf": "TAF ENTC 091700Z 0918/1018 05004KT 9999 FEW020 SCT050"
    },
    {
      "icao": "ENTO",
      "alert": "OK",
      "vis_m": 9999,
      "fzfg": false,
      "metar_trigger": false,
      "taf_trigger": false,
      "metar": "METAR ENTO 092120Z AUTO 36003KT 9999 BKN021/// M07/M09 Q1011",
      "taf": "TAF ENTO 091700Z 0918/1018 01005KT 9999 SCT010 BKN025"
    },
    {
      "icao": "ENVA",
      "alert": "OK",
      "vis_m": 9999,
      "fzfg": false,
      "metar_trigger": false,
      "taf_trigger": false,
      "metar": "METAR ENVA 092120Z 09004KT 9999 SCT027 M04/M05 Q1009 RMK WIND 670FT 15006KT",
      "taf": "TAF ENVA 091700Z 0918/1018 09005KT 9999 BKN020"
    },
    {
      "icao": "ENZV",
      "alert": "OK",
      "vis_m": 9999,
      "fzfg": false,
      "metar_trigger": false,
      "taf_trigger": false,
      "metar": "METAR ENZV 092120Z 11008KT 9999 OVC032 01/M06 Q1009",
      "taf": "TAF ENZV 091700Z 0918/1018 12010KT 9999 BKN025"
    },
    {
      "icao": "EPGD",
      "alert": "OK",
      "vis_m": 5000,
      "fzfg": false,
      "metar_trigger": false,
      "taf_trigger": false,
      "metar": "METAR EPGD 092130Z 19007KT 160V220 5000 BR BKN005 M09/M10 Q1012",
      "taf": ""
    },
    {
      "icao": "EPKK",
      "alert": "OK",
      "vis_m": 9999,
      "fzfg": false,
      "metar_trigger": false,
      "taf_trigger": false,
      "metar": "METAR EPKK 092130Z 06008KT CAVOK M03/M06 Q1011",
      "taf": "TAF EPKK 092030Z 0921/1021 07007KT 9999 BKN013"
    },
    {
      "icao": "EPKT",
      "alert": "OK",
      "vis_m": 9999,
      "fzfg": false,
      "metar_trigger": false,
      "taf_trigger": false,
      "metar": "METAR EPKT 092130Z 11006KT 9999 BKN038 M03/M05 Q1010",
      "taf": ""
    },
    {
      "icao": "EPLB",
      "alert": "OK",
      "vis_m": 9999,
      "fzfg": false,
      "metar_trigger": false,
      "taf_trigger": false,
      "metar": "METAR EPLB 092130Z 13006KT 9999 OVC008 M11/M12 Q1015",
      "taf": "TAF EPLB 091730Z 0918/1018 12010KT 9999 SCT014"
    },
    {
      "icao": "EPMO",
      "alert": "OK",
      "vis_m": 5000,
      "fzfg": false,
      "metar_trigger": false,
      "taf_trigger": false,
      "metar": "METAR EPMO 092130Z 09005KT 5000 BR NSC M13/M13 Q1014",
      "taf": "TAF EPMO 091730Z 0918/1018 12010KT 9999 SCT014"
    },
    {
      "icao": "EPPO",
      "alert": "OK",
      "vis_m": 9999,
      "fzfg": false,
      "metar_trigger": false,
      "taf_trigger": false,
      "metar": "METAR EPPO 092130Z 10007KT 9999 OVC014 M02/M05 Q1010",
      "taf": "TAF EPPO 091730Z 0918/1018 11008KT 9999 OVC020"
    },
    {
      "icao": "EPRA",
      "alert": "OK",
      "vis_m": 9999,
      "fzfg": false,
      "metar_trigger": false,
      "taf_trigger": false,
      "metar": "METAR EPRA 092130Z 13006KT 090V150 9999 BKN009 M08/M11 Q1013",
      "taf": "TAF EPRA 092030Z 0921/1006 13008KT 9999 BKN014"
    },
    {
      "icao": "EPRZ",
      "alert": "OK",
      "vis_m": 9999,
      "fzfg": false,
      "metar_trigger": false,
      "taf_trigger": false,
      "metar": "METAR EPRZ 092130Z 10012KT 9999 OVC031 M04/M07 Q1013",
      "taf": "TAF EPRZ 091730Z 0918/1018 10015KT 9999 OVC014"
    },
    {
      "icao": "EPSC",
      "alert": "OK",
      "vis_m": 9999,
      "fzfg": false,
      "metar_trigger": false,
      "taf_trigger": false,
      "metar": "METAR EPSC 092130Z 13008KT 9999 OVC013 M01/M03 Q1010",
      "taf": "TAF EPSC 091730Z 0918/1018 13010KT 7000 OVC012"
    },
    {
      "icao": "EPSY",
      "alert": "OK",
      "vis_m": 7000,
      "fzfg": false,
      "metar_trigger": false,
      "taf_trigger": false,
      "metar": "METAR EPSY 092130Z VRB03KT 7000 NSC M14/M16 Q1014",
      "taf": "TAF EPSY 092030Z 0921/1006 13004KT 5000 BR NSC"
    },
    {
      "icao": "EPWA",
      "alert": "OK",
      "vis_m": 9999,
      "fzfg": false,
      "metar_trigger": false,
      "taf_trigger": false,
      "metar": "METAR EPWA 092130Z 12007KT CAVOK M10/M12 Q1014 BECMG BKN012",
      "taf": "TAF EPWA 092030Z 0921/1021 14008KT CAVOK"
    },
    {
      "icao": "EPWR",
      "alert": "OK",
      "vis_m": 9999,
      "fzfg": false,
      "metar_trigger": false,
      "taf_trigger": false,
      "metar": "METAR EPWR 092130Z 12011KT 9999 FEW013 SCT045 M01/M03 Q1010",
      "taf": "TAF EPWR 092030Z 0921/1021 12012KT 9999 SCT014 BKN024"
    },
    {
      "icao": "ESGG",
      "alert": "OK",
      "vis_m": 9999,
      "fzfg": false,
      "metar_trigger": false,
      "taf_trigger": false,
      "metar": "METAR ESGG 092150Z 10005KT 9999 OVC048 M05/M08 Q1010",
      "taf": "TAF ESGG 092030Z 0921/1021 10004KT CAVOK"
    },
    {
      "icao": "ESKN",
      "alert": "OK",
      "vis_m": 9999,
      "fzfg": false,
      "metar_trigger": false,
      "taf_trigger": false,
      "metar": "METAR ESKN 092150Z 19002KT CAVOK M13/M14 Q1011",
      "taf": ""
    },
    {
      "icao": "ESMS",
      "alert": "OK",
      "vis_m": 3500,
      "fzfg": false,
      "metar_trigger": false,
      "taf_trigger": false,
      "metar": "METAR ESMS 092150Z 11005KT 3500 BR BKN004 OVC006 M01/M01 Q1009",
      "taf": "TAF ESMS 092027Z 0921/1021 11006KT 4000 BR OVC003"
    },
    {
      "icao": "ESSA",
      "alert": "OK",
      "vis_m": 9999,
      "fzfg": false,
      "metar_trigger": false,
      "taf_trigger": false,
      "metar": "METAR ESSA 092150Z 22004KT CAVOK M11/M12 Q1010 NOSIG",
      "taf": "TAF ESSA 092030Z 0921/1021 24008KT CAVOK"
    },
    {
      "icao": "EYKA",
      "alert": "OK",
      "vis_m": 9999,
      "fzfg": false,
      "metar_trigger": false,
      "taf_trigger": false,
      "metar": "METAR EYKA 092150Z 17004KT 150V210 9999 SCT001 M15/M17 Q1016",
      "taf": "TAF EYKA 091700Z 0918/1018 VRB04KT 5000 BR NSC"
    },
    {
      "icao": "EYPA",
      "alert": "OK",
      "vis_m": 9999,
      "fzfg": false,
      "metar_trigger": false,
      "taf_trigger": false,
      "metar": "METAR EYPA 092150Z 15007KT 9999 OVC007 M12/M14 Q1014",
      "taf": ""
    },
    {
      "icao": "EYVI",
      "alert": "OK",
      "vis_m": 9000,
      "fzfg": false,
      "metar_trigger": false,
      "taf_trigger": false,
      "metar": "METAR EYVI 092150Z 17008KT 9000 NSC M17/M19 Q1016 NOSIG",
      "taf": ""
    },
    {
      "icao": "GCFV",
      "alert": "OK",
      "vis_m": 9999,
      "fzfg": false,
      "metar_trigger": false,
      "taf_trigger": false,
      "metar": "METAR GCFV 092130Z 34009KT 9999 FEW022 19/14 Q1023",
      "taf": "TAF GCFV 092000Z 0921/1021 01009KT 9999 SCT020 TX23/1014Z TN16/1006Z"
    },
    {
      "icao": "GCLP",
      "alert": "OK",
      "vis_m": 9999,
      "fzfg": false,
      "metar_trigger": false,
      "taf_trigger": false,
      "metar": "METAR GCLP 092130Z 01013KT 9999 FEW025 18/14 Q1024 NOSIG",
      "taf": "TAF GCLP 092000Z 0921/1021 36015KT 9999 FEW025 TX22/1014Z TN16/1006Z"
    },
    {
      "icao": "GCTS",
      "alert": "OK",
      "vis_m": 9999,
      "fzfg": false,
      "metar_trigger": false,
      "taf_trigger": false,
      "metar": "METAR GCTS 092130Z 35002KT 9999 FEW035 18/12 Q1024 NOSIG",
      "taf": "TAF GCTS 092000Z 0921/1021 05004KT 9999 FEW035 TX22/1014Z TN16/1006Z"
    },
    {
      "icao": "GMAD",
      "alert": "OK",
      "vis_m": 8000,
      "fzfg": false,
      "metar_trigger": false,
      "taf_trigger": false,
      "metar": "METAR GMAD 092130Z 00000KT 8000 OVC010 17/16 Q1021 NOSIG",
      "taf": "TAF GMAD 091700Z 0918/1024 22005KT 8000 SCT020"
    },
    {
      "icao": "GMMN",
      "alert": "OK",
      "vis_m": 9999,
      "fzfg": false,
      "metar_trigger": false,
      "taf_trigger": false,
      "metar": "METAR GMMN 092130Z 28005KT 9999 SCT010 BKN015 16/15 Q1024 NOSIG",
      "taf": "TAF GMMN 091700Z 0918/1024 24010KT 8000 BKN013"
    },
    {
      "icao": "GMMX",
      "alert": "OK",
      "vis_m": 9999,
      "fzfg": false,
      "metar_trigger": false,
      "taf_trigger": false,
      "metar": "METAR GMMX 092130Z 06004KT 9999 FEW030 16/14 Q1024 NOSIG",
      "taf": "TAF GMMX 091700Z 0918/1024 24008KT 8000 SCT023"
    },
    {
      "icao": "HEGN",
      "alert": "OK",
      "vis_m": 9999,
      "fzfg": false,
      "metar_trigger": false,
      "taf_trigger": false,
      "metar": "METAR HEGN 092100Z 00000KT CAVOK 21/19 Q1012 NOSIG",
      "taf": "TAF HEGN 091700Z 0918/1024 14012KT CAVOK"
    },
    {
      "icao": "HEMA",
      "alert": "OK",
      "vis_m": 9999,
      "fzfg": false,
      "metar_trigger": false,
      "taf_trigger": false,
      "metar": "METAR HEMA 092100Z 36002KT CAVOK 20/18 Q1012 NOSIG",
      "taf": "TAF HEMA 091700Z 0918/1024 16015KT 6000 NSC"
    },
    {
      "icao": "HESH",
      "alert": "OK",
      "vis_m": 9999,
      "fzfg": false,
      "metar_trigger": false,
      "taf_trigger": false,
      "metar": "METAR HESH 092100Z 00000KT CAVOK 22/07 Q1013 NOSIG",
      "taf": "TAF HESH 091700Z 0918/1024 26012KT CAVOK"
    },
    {
      "icao": "HESX",
      "alert": "OK",
      "vis_m": 9999,
      "fzfg": false,
      "metar_trigger": false,
      "taf_trigger": false,
      "metar": "METAR HESX 092100Z 33006KT CAVOK 17/13 Q1012 NOSIG",
      "taf": "TAF HESX 091700Z 0918/1024 27008KT CAVOK"
    },
    {
      "icao": "LATI",
      "alert": "OK",
      "vis_m": 9000,
      "fzfg": false,
      "metar_trigger": false,
      "taf_trigger": false,
      "metar": "METAR LATI 092150Z 29002KT 9000 -DZ SCT050 BKN068 10/08 Q1006 NOSIG",
      "taf": "TAF LATI 091700Z 0918/1018 VRB05KT 9999 SCT030 BKN070 TX13/1012Z TN06/1005Z"
    },
    {
      "icao": "LBPD",
      "alert": "OK",
      "vis_m": 4000,
      "fzfg": false,
      "metar_trigger": false,
      "taf_trigger": false,
      "metar": "METAR LBPD 092130Z AUTO 11004KT 4000 -SN FEW005/// OVC011/// 00/00 Q1016",
      "taf": "TAF LBPD 091700Z 0918/1018 11010KT 8000 RA BKN010 BKN020"
    },
    {
      "icao": "LBSF",
      "alert": "OK",
      "vis_m": 9999,
      "fzfg": false,
      "metar_trigger": false,
      "taf_trigger": false,
      "metar": "METAR LBSF 092130Z AUTO 11015KT 9999 OVC030/// 01/M02 Q1013 NOSIG",
      "taf": "TAF LBSF 091700Z 0918/1018 11012KT 9999 SCT015 BKN020"
    },
    {
      "icao": "LBWN",
      "alert": "OK",
      "vis_m": 9999,
      "fzfg": false,
      "metar_trigger": false,
      "taf_trigger": false,
      "metar": "METAR LBWN 092130Z AUTO 06011KT 9999 -SN OVC027/// M00/M03 Q1018 NOSIG",
      "taf": "TAF LBWN 091700Z 0918/1018 06012KT 9999 SCT015 OVC030"
    },
    {
      "icao": "LCLK",
      "alert": "OK",
      "vis_m": 9999,
      "fzfg": false,
      "metar_trigger": false,
      "taf_trigger": false,
      "metar": "METAR LCLK 092130Z 31003KT 9999 BKN030 15/14 Q1009 NOSIG",
      "taf": "TAF LCLK 091730Z 0918/1018 32006KT 9999 FEW025"
    },
    {
      "icao": "LCPH",
      "alert": "OK",
      "vis_m": 9999,
      "fzfg": false,
      "metar_trigger": false,
      "taf_trigger": false,
      "metar": "METAR LCPH 092130Z 01003KT 9999 SCT025 13/11 Q1010 NOSIG",
      "taf": "TAF LCPH 091730Z 0918/1018 04007KT 9999 SCT013"
    },
    {
      "icao": "LEAL",
      "alert": "OK",
      "vis_m": 9999,
      "fzfg": false,
      "metar_trigger": false,
      "taf_trigger": false,
      "metar": "METAR LEAL 092130Z 22008KT CAVOK 16/13 Q1010 NOSIG",
      "taf": ""
    },
    {
      "icao": "LEBB",
      "alert": "OK",
      "vis_m": 9999,
      "fzfg": false,
      "metar_trigger": false,
      "taf_trigger": false,
      "metar": "METAR LEBB 092130Z 09004KT 030V140 9999 FEW015 BKN027 FEW035TCU 12/12 Q1004 RESHRA TEMPO 3000 RA",
      "taf": ""
    },
    {
      "icao": "LEBL",
      "alert": "OK",
      "vis_m": 9999,
      "fzfg": false,
      "metar_trigger": false,
      "taf_trigger": false,
      "metar": "METAR LEBL 092130Z 23009KT 9999 -RA FEW040TCU 12/10 Q1007 NOSIG",
      "taf": "TAF LEBL 091700Z 0918/1018 28007KT 9999 FEW030 TX18/1014Z TN12/1005Z"
    },
    {
      "icao": "LECH",
      "alert": "OK",
      "vis_m": 9000,
      "fzfg": false,
      "metar_trigger": false,
      "taf_trigger": false,
      "metar": "METAR LECH 092130Z AUTO 36003KT 270V060 9000 NSC 09/06 Q1007",
      "taf": ""
    },
    {
      "icao": "LEMD",
      "alert": "OK",
      "vis_m": 9999,
      "fzfg": false,
      "metar_trigger": false,
      "taf_trigger": false,
      "metar": "METAR LEMD 092130Z 22010KT 9999 FEW012 SCT048 12/12 Q1010 NOSIG",
      "taf": ""
    },
    {
      "icao": "LEMG",
      "alert": "OK",
      "vis_m": 9999,
      "fzfg": false,
      "metar_trigger": false,
      "taf_trigger": false,
      "metar": "METAR LEMG 092130Z VRB02KT 9999 BKN045 16/14 Q1015 NOSIG",
      "taf": "TAF LEMG 091700Z 0918/1018 VRB03KT 9999 SCT020 TX22/1014Z TN15/1007Z"
    },
    {
      "icao": "LEVC",
      "alert": "OK",
      "vis_m": 9999,
      "fzfg": false,
      "metar_trigger": false,
      "taf_trigger": false,
      "metar": "METAR LEVC 092130Z 23008KT 210V270 9999 BKN038 17/11 Q1008 NOSIG",
      "taf": ""
    },
    {
      "icao": "LEXJ",
      "alert": "OK",
      "vis_m": 8000,
      "fzfg": false,
      "metar_trigger": false,
      "taf_trigger": false,
      "metar": "METAR LEXJ 092130Z 28004KT 250V310 8000 SCT042 BKN057 12/11 Q1004",
      "taf": "TAF LEXJ 092000Z 0921/1021 21009KT 9999 BKN030 TX19/1013Z TN13/1007Z"
    },
    {
      "icao": "LEZG",
      "alert": "OK",
      "vis_m": 9999,
      "fzfg": false,
      "metar_trigger": false,
      "taf_trigger": false,
      "metar": "METAR LEZG 092130Z 07003KT 030V100 9999 FEW050 BKN070 10/10 Q1005 NOSIG",
      "taf": ""
    },
    {
      "icao": "LEZL",
      "alert": "OK",
      "vis_m": 9999,
      "fzfg": false,
      "metar_trigger": false,
      "taf_trigger": false,
      "metar": "METAR LEZL 092130Z 22010KT 200V260 9999 BKN005 16/16 Q1016 NOSIG",
      "taf": "TAF LEZL 092000Z 0921/1021 24010KT 9999 BKN018 TX18/1015Z TN15/1007Z"
    },
    {
      "icao": "LFBD",
      "alert": "OK",
      "vis_m": 9999,
      "fzfg": false,
      "metar_trigger": false,
      "taf_trigger": false,
      "metar": "METAR LFBD 092130Z AUTO 21011KT 9999 BKN007/// BKN019/// BKN056/// ///CB 11/11 Q1001 TEMPO 20015G25KT 3000 RA",
      "taf": ""
    },
    {
      "icao": "LFLL",
      "alert": "OK",
      "vis_m": 9999,
      "fzfg": false,
      "metar_trigger": false,
      "taf_trigger": false,
      "metar": "METAR LFLL 092130Z 19018KT CAVOK 10/05 Q1003 NOSIG",
      "taf": "TAF LFLL 091700Z 0918/1024 18015G25KT CAVOK"
    },
    {
      "icao": "LFLS",
      "alert": "OK",
      "vis_m": 9999,
      "fzfg": false,
      "metar_trigger": false,
      "taf_trigger": false,
      "metar": "METAR LFLS 092130Z AUTO VRB03KT 9999 FEW048 BKN068 OVC140 08/03 Q1004",
      "taf": "TAF LFLS 091400Z 0915/1015 08007KT CAVOK"
    },
    {
      "icao": "LFMN",
      "alert": "OK",
      "vis_m": 9999,
      "fzfg": false,
      "metar_trigger": false,
      "taf_trigger": false,
      "metar": "METAR LFMN 092130Z 32009KT 9999 FEW100 09/07 Q1007 NOSIG",
      "taf": "TAF LFMN 092000Z 0921/1103 33010KT 9999 FEW100 BKN260"
    },
    {
      "icao": "LFOB",
      "alert": "OK",
      "vis_m": 9999,
      "fzfg": false,
      "metar_trigger": false,
      "taf_trigger": false,
      "metar": "METAR LFOB 092130Z AUTO 13011KT 9999 -RA OVC024/// ///TCU 08/06 Q0995 TEMPO 3000 RA BKN006 OVC012",
      "taf": "TAF LFOB 091700Z 0918/1018 13010KT 9999 BKN018"
    },
    {
      "icao": "LFPO",
      "alert": "OK",
      "vis_m": 9999,
      "fzfg": false,
      "metar_trigger": false,
      "taf_trigger": false,
      "metar": "METAR LFPO 092130Z 17010KT 9999 -RA BKN016 09/07 Q0996 BECMG BKN012",
      "taf": "TAF LFPO 091700Z 0918/1024 16010KT 9999 SCT025"
    },
    {
      "icao": "LFSB",
      "alert": "OK",
      "vis_m": 9999,
      "fzfg": false,
      "metar_trigger": false,
      "taf_trigger": false,
      "metar": "METAR LFSB 092130Z AUTO 12005KT CAVOK 06/02 Q1004 NOSIG",
      "taf": "TAF LFSB 091700Z 0918/1018 18007KT CAVOK"
    },
    {
      "icao": "LGAV",
      "alert": "OK",
      "vis_m": 9999,
      "fzfg": false,
      "metar_trigger": false,
      "taf_trigger": false,
      "metar": "METAR LGAV 092150Z COR 22005KT 200V260 9999 DZ FEW020TCU BKN030 BKN070 13/09 Q1005 NOSIG",
      "taf": "TAF LGAV 091700Z 0918/1018 VRB05KT 9999 SCT025 SCT070"
    },
    {
      "icao": "LGTS",
      "alert": "OK",
      "vis_m": 9999,
      "fzfg": false,
      "metar_trigger": false,
      "taf_trigger": false,
      "metar": "METAR LGTS 092120Z 08005KT 9999 FEW010 SCT025 10/06 Q1008 NOSIG",
      "taf": "TAF LGTS 091700Z 0918/1018 VRB03KT 9999 FEW010 BKN025"
    },
    {
      "icao": "LHBP",
      "alert": "OK",
      "vis_m": 9999,
      "fzfg": false,
      "metar_trigger": false,
      "taf_trigger": false,
      "metar": "SPECI LHBP 092139Z 10006KT 9999 OVC008 04/02 Q1011 NOSIG",
      "taf": "TAF LHBP 091715Z 0918/1018 07005KT 9999 OVC015"
    },
    {
      "icao": "LHDC",
      "alert": "OK",
      "vis_m": 9999,
      "fzfg": false,
      "metar_trigger": false,
      "taf_trigger": false,
      "metar": "METAR LHDC 092115Z AUTO 07005KT 040V110 CAVOK 04/02 Q1011 NOSIG",
      "taf": "TAF LHDC 091715Z 0918/1003 05007KT CAVOK"
    },
    {
      "icao": "LIBD",
      "alert": "OK",
      "vis_m": 9999,
      "fzfg": false,
      "metar_trigger": false,
      "taf_trigger": false,
      "metar": "METAR LIBD 092120Z 25005KT 9999 SCT015 10/08 Q1006",
      "taf": "TAF LIBD 091700Z 0918/1018 26007KT 9999 SCT040"
    },
    {
      "icao": "LIBG",
      "alert": "OK",
      "vis_m": 9999,
      "fzfg": false,
      "metar_trigger": false,
      "taf_trigger": false,
      "metar": "METAR LIBG 092050Z VRB01KT 9999 FEW040 11/09 Q1006",
      "taf": "TAF LIBG 092000Z 0921/1006 VRB05KT 9999 SCT015 SCT040"
    },
    {
      "icao": "LIBP",
      "alert": "OK",
      "vis_m": 3700,
      "fzfg": false,
      "metar_trigger": false,
      "taf_trigger": false,
      "metar": "METAR LIBP 092120Z AUTO 23002KT 3700 BR NCD 07/07 Q1007",
      "taf": "TAF LIBP 091700Z 0918/1018 26006KT 7000 BKN020"
    },
    {
      "icao": "LIBR",
      "alert": "OK",
      "vis_m": 9999,
      "fzfg": false,
      "metar_trigger": false,
      "taf_trigger": false,
      "metar": "METAR LIBR 092120Z 34004KT 9999 FEW020 BKN040 11/09 Q1006",
      "taf": "TAF LIBR 091700Z 0918/1018 VRB05KT 9999 SCT020"
    },
    {
      "icao": "LICA",
      "alert": "OK",
      "vis_m": 9999,
      "fzfg": false,
      "metar_trigger": false,
      "taf_trigger": false,
      "metar": "METAR LICA 092120Z AUTO 07003KT 9999 NCD 08/07 Q1007",
      "taf": "TAF LICA 091700Z 0918/1018 VRB05KT 9999 BKN040"
    },
    {
      "icao": "LICC",
      "alert": "OK",
      "vis_m": 9999,
      "fzfg": false,
      "metar_trigger": false,
      "taf_trigger": false,
      "metar": "METAR LICC 092120Z 28005KT 9999 SCT060 11/07 Q1007",
      "taf": "TAF LICC 091700Z 0918/1018 26005KT 9999 SCT030"
    },
    {
      "icao": "LICJ",
      "alert": "OK",
      "vis_m": 9999,
      "fzfg": false,
      "metar_trigger": false,
      "taf_trigger": false,
      "metar": "METAR LICJ 092120Z AUTO 27015KT 9999 FEW019/// BKN062/// 15/11 Q1008",
      "taf": "TAF LICJ 091700Z 0918/1018 26015KT 9999 FEW020 SCT040"
    },
    {
      "icao": "LIMC",
      "alert": "OK",
      "vis_m": 9999,
      "fzfg": false,
      "metar_trigger": false,
      "taf_trigger": false,
      "metar": "METAR LIMC 092120Z 02004KT 9999 BKN040 06/05 Q1007 NOSIG",
      "taf": "TAF LIMC 091700Z 0918/1024 VRB04KT 9999 SCT030"
    },
    {
      "icao": "LIME",
      "alert": "OK",
      "vis_m": 9999,
      "fzfg": false,
      "metar_trigger": false,
      "taf_trigger": false,
      "metar": "METAR LIME 092120Z 01005KT 9999 BKN040 07/06 Q1008 NOSIG",
      "taf": "TAF LIME 091700Z 0918/1018 VRB04KT 9999 SCT030"
    },
    {
      "icao": "LIMF",
      "alert": "OK",
      "vis_m": 9999,
      "fzfg": false,
      "metar_trigger": false,
      "taf_trigger": false,
      "metar": "METAR LIMF 092120Z 02006KT 9999 BKN025 BKN060 08/05 Q1007",
      "taf": "TAF LIMF 091700Z 0918/1018 VRB04KT 9999 BKN030"
    },
    {
      "icao": "LIMJ",
      "alert": "OK",
      "vis_m": 9999,
      "fzfg": false,
      "metar_trigger": false,
      "taf_trigger": false,
      "metar": "METAR LIMJ 092120Z 03005KT 9999 SCT045 10/05 Q1007",
      "taf": "TAF LIMJ 091700Z 0918/1018 05007KT 9999 FEW020"
    },
    {
      "icao": "LIPE",
      "alert": "OK",
      "vis_m": 3000,
      "fzfg": false,
      "metar_trigger": false,
      "taf_trigger": false,
      "metar": "METAR LIPE 092120Z 22002KT 3000 BR VCFG BKN050 09/09 Q1008",
      "taf": "TAF LIPE 091700Z 0918/1018 VRB05KT 3000 BR SCT020"
    },
    {
      "icao": "LIPH",
      "alert": "OK",
      "vis_m": 9999,
      "fzfg": false,
      "metar_trigger": false,
      "taf_trigger": false,
      "metar": "METAR LIPH 092120Z 00000KT CAVOK 08/06 Q1008",
      "taf": "TAF LIPH 091700Z 0918/1018 VRB05KT 7000 SCT060"
    },
    {
      "icao": "LIPQ",
      "alert": "OK",
      "vis_m": 9999,
      "fzfg": false,
      "metar_trigger": false,
      "taf_trigger": false,
      "metar": "METAR LIPQ 092120Z AUTO 34003KT 9999 SCT055/// BKN085/// BKN100/// 07/05 Q1008",
      "taf": "TAF LIPQ 091700Z 0918/1018 VRB05KT 9999 BKN050"
    },
    {
      "icao": "LIPR",
      "alert": "OK",
      "vis_m": 6000,
      "fzfg": false,
      "metar_trigger": false,
      "taf_trigger": false,
      "metar": "METAR LIPR 092120Z 28005KT 250V310 6000 -RA BKN005 SCT020 09/09 Q1007",
      "taf": "TAF LIPR 091700Z 0918/1018 VRB05KT 6000 SCT010 BKN020"
    },
    {
      "icao": "LIPX",
      "alert": "OK",
      "vis_m": 9999,
      "fzfg": false,
      "metar_trigger": false,
      "taf_trigger": false,
      "metar": "METAR LIPX 092120Z 35005KT 9999 SCT080 07/06 Q1008",
      "taf": "TAF LIPX 091700Z 0918/1018 VRB04KT 9999 SCT050"
    },
    {
      "icao": "LIPY",
      "alert": "OK",
      "vis_m": 9999,
      "fzfg": false,
      "metar_trigger": false,
      "taf_trigger": false,
      "metar": "METAR LIPY 092120Z AUTO 18003KT 150V210 9999 SCT035/// BKN062/// OVC091/// 10/09 Q1007",
      "taf": "TAF LIPY 091700Z 0918/1018 31007KT 7000 BKN020"
    },
    {
      "icao": "LIPZ",
      "alert": "OK",
      "vis_m": 9999,
      "fzfg": false,
      "metar_trigger": false,
      "taf_trigger": false,
      "metar": "METAR LIPZ 092120Z VRB01KT CAVOK 07/06 Q1008 NOSIG",
      "taf": "TAF LIPZ 091700Z 0918/1024 05006KT 9999 SCT060"
    },
    {
      "icao": "LIRF",
      "alert": "OK",
      "vis_m": 9999,
      "fzfg": false,
      "metar_trigger": false,
      "taf_trigger": false,
      "metar": "METAR LIRF 092120Z 06002KT CAVOK 10/09 Q1007 NOSIG",
      "taf": "TAF LIRF 091700Z 0918/1024 08005KT 9999 FEW050"
    },
    {
      "icao": "LIRN",
      "alert": "OK",
      "vis_m": 9999,
      "fzfg": false,
      "metar_trigger": false,
      "taf_trigger": false,
      "metar": "METAR LIRN 092120Z VRB01KT 9999 BKN060 11/08 Q1007 NOSIG",
      "taf": "TAF LIRN 091700Z 0918/1018 VRB05KT 9999 SCT040"
    },
    {
      "icao": "LIRP",
      "alert": "OK",
      "vis_m": 9999,
      "fzfg": false,
      "metar_trigger": false,
      "taf_trigger": false,
      "metar": "METAR LIRP 092115Z 15002KT 9999 SCT050 SCT070 10/09 Q1007 NOSIG",
      "taf": "TAF LIRP 091700Z 0918/1018 VRB03KT 9999 FEW030 SCT060"
    },
    {
      "icao": "LIRZ",
      "alert": "OK",
      "vis_m": 9999,
      "fzfg": false,
      "metar_trigger": false,
      "taf_trigger": false,
      "metar": "METAR LIRZ 092120Z AUTO 33005KT 9999 BKN056/// 09/07 Q1007",
      "taf": "TAF LIRZ 091700Z 0918/1018 02008KT 9999 SCT050"
    },
    {
      "icao": "LJLJ",
      "alert": "OK",
      "vis_m": 6000,
      "fzfg": false,
      "metar_trigger": false,
      "taf_trigger": false,
      "metar": "METAR LJLJ 092130Z VRB01KT 6000 FEW003 SCT010 OVC025 05/04 Q1008 NOSIG",
      "taf": "TAF LJLJ 091700Z 0918/1018 VRB02KT 9999 FEW005 SCT013 OVC035"
    },
    {
      "icao": "LKMT",
      "alert": "OK",
      "vis_m": 6000,
      "fzfg": false,
      "metar_trigger": false,
      "taf_trigger": false,
      "metar": "METAR LKMT 092130Z 02003KT 6000 OVC025 M02/M03 Q1010 NOSIG",
      "taf": ""
    },
    {
      "icao": "LKPR",
      "alert": "OK",
      "vis_m": 8000,
      "fzfg": false,
      "metar_trigger": false,
      "taf_trigger": false,
      "metar": "METAR LKPR 092130Z VRB02KT 8000 OVC015 02/01 Q1007 BECMG OVC010",
      "taf": "TAF LKPR 092000Z 0921/1103 07004KT 7000 SCT008 BKN018"
    },
    {
      "icao": "LLBG",
      "alert": "OK",
      "vis_m": 8000,
      "fzfg": false,
      "metar_trigger": false,
      "taf_trigger": false,
      "metar": "METAR LLBG 092150Z 21004KT 8000 BKN040 17/15 Q1010 NOSIG",
      "taf": "TAF LLBG 091710Z 0918/1018 VRB04KT CAVOK"
    },
    {
      "icao": "LMML",
      "alert": "OK",
      "vis_m": 9999,
      "fzfg": false,
      "metar_trigger": false,
      "taf_trigger": false,
      "metar": "METAR LMML 092145Z 27016KT 9999 FEW024 14/10 Q1010 NOSIG",
      "taf": ""
    },
    {
      "icao": "LOWW",
      "alert": "OK",
      "vis_m": 9999,
      "fzfg": false,
      "metar_trigger": false,
      "taf_trigger": false,
      "metar": "METAR LOWW 092150Z 15011KT 9999 SCT009 BKN020 05/03 Q1008 TEMPO BKN009",
      "taf": ""
    },
    {
      "icao": "LPFR",
      "alert": "OK",
      "vis_m": 8000,
      "fzfg": false,
      "metar_trigger": false,
      "taf_trigger": false,
      "metar": "METAR LPFR 092130Z 25013KT 8000 -DZ OVC003 15/15 Q1018",
      "taf": "TAF LPFR 091700Z 0918/1018 25013KT 8000 SCT004 BKN008"
    },
    {
      "icao": "LPMA",
      "alert": "OK",
      "vis_m": 9999,
      "fzfg": false,
      "metar_trigger": false,
      "taf_trigger": false,
      "metar": "METAR LPMA 092130Z 34003KT 310V020 9999 FEW015 18/15 Q1024",
      "taf": "TAF LPMA 091700Z 0918/1018 VRB05KT 9999 SCT015"
    },
    {
      "icao": "LPPR",
      "alert": "OK",
      "vis_m": 1200,
      "fzfg": false,
      "metar_trigger": false,
      "taf_trigger": false,
      "metar": "METAR LPPR 092130Z 22009KT 190V260 1200 R17/P2000 -RA BR BKN001 14/14 Q1012",
      "taf": "TAF LPPR 091700Z 0918/1018 22010KT 6000 SCT004 BKN008"
    },
    {
      "icao": "LPPS",
      "alert": "OK",
      "vis_m": 9999,
      "fzfg": false,
      "metar_trigger": false,
      "taf_trigger": false,
      "metar": "METAR LPPS 092130Z 28008KT 9999 SCT005 17/16 Q1024",
      "taf": "TAF LPPS 091700Z 0918/1024 28010KT 9999 SCT008 SCT015"
    },
    {
      "icao": "LPPT",
      "alert": "OK",
      "vis_m": 9999,
      "fzfg": false,
      "metar_trigger": false,
      "taf_trigger": false,
      "metar": "METAR LPPT 092130Z 26010KT 230V290 9999 FEW002 BKN005 15/15 Q1016",
      "taf": "TAF LPPT 091700Z 0918/1024 25010KT 6000 SCT004 BKN008"
    },
    {
      "icao": "LQBK",
      "alert": "OK",
      "vis_m": 5000,
      "fzfg": false,
      "metar_trigger": false,
      "taf_trigger": false,
      "metar": "METAR LQBK 092130Z 33004KT 5000 BR BKN013 OVC025 07/07 Q1008 NOSIG",
      "taf": "TAF LQBK 091700Z 0918/1018 34005KT 9999 BKN015 OVC025 TX08/1013Z TN05/1005Z"
    },
    {
      "icao": "LQSA",
      "alert": "OK",
      "vis_m": 9999,
      "fzfg": false,
      "metar_trigger": false,
      "taf_trigger": false,
      "metar": "METAR LQSA 092130Z 00000KT 9999 FEW025 BKN045 07/06 Q1007 NOSIG",
      "taf": "TAF LQSA 091700Z 0918/1018 VRB02KT 9999 SCT035 TX09/1013Z TN03/1005Z"
    },
    {
      "icao": "LQTZ",
      "alert": "OK",
      "vis_m": 9999,
      "fzfg": false,
      "metar_trigger": false,
      "taf_trigger": false,
      "metar": "METAR LQTZ 092130Z 12006KT 9999 SCT060 05/05 Q1008",
      "taf": "TAF LQTZ 091700Z 0918/1018 09005KT 9999 SCT025 BKN045 TX11/1012Z TN03/1005Z"
    },
    {
      "icao": "LRBC",
      "alert": "OK",
      "vis_m": 9999,
      "fzfg": false,
      "metar_trigger": false,
      "taf_trigger": false,
      "metar": "METAR LRBC 092130Z VRB01KT 9999 OVC014 M07/M08 Q1021",
      "taf": "TAF LRBC 092000Z 0921/1006 VRB04KT 9999 OVC020"
    },
    {
      "icao": "LRBS",
      "alert": "OK",
      "vis_m": 9999,
      "fzfg": false,
      "metar_trigger": false,
      "taf_trigger": false,
      "metar": "METAR LRBS 092130Z 06014KT 020V080 9999 FEW014 OVC044 M03/M07 Q1021 NOSIG",
      "taf": "TAF LRBS 091700Z 0918/1018 07016KT 9999 SCT015 BKN035"
    },
    {
      "icao": "LRBV",
      "alert": "OK",
      "vis_m": 9999,
      "fzfg": false,
      "metar_trigger": false,
      "taf_trigger": false,
      "metar": "METAR LRBV 092130Z AUTO 07011KT 9999 SCT060/// OVC069/// M03/M06 Q1014",
      "taf": "TAF LRBV 092000Z 0921/1006 08008KT 9999 SCT045"
    },
    {
      "icao": "LRCL",
      "alert": "OK",
      "vis_m": 9999,
      "fzfg": false,
      "metar_trigger": false,
      "taf_trigger": false,
      "metar": "METAR LRCL 092130Z 12008KT 9999 OVC069 02/M02 Q1013",
      "taf": "TAF LRCL 092000Z 0921/1006 11008KT 9999 SCT025 OVC050"
    },
    {
      "icao": "LRCV",
      "alert": "OK",
      "vis_m": 3700,
      "fzfg": false,
      "metar_trigger": false,
      "taf_trigger": false,
      "metar": "METAR LRCV 092130Z 09017KT 3700 SN OVC012 M03/M04 Q1018",
      "taf": "TAF LRCV 092000Z 0921/1006 09016KT 3000 SN BR OVC010"
    },
    {
      "icao": "LRIA",
      "alert": "OK",
      "vis_m": 9999,
      "fzfg": false,
      "metar_trigger": false,
      "taf_trigger": false,
      "metar": "METAR LRIA 092130Z 13005KT 9999 BKN014 M07/M10 Q1022",
      "taf": "TAF LRIA 092000Z 0921/1006 VRB04KT 9999 OVC015"
    },
    {
      "icao": "LROP",
      "alert": "OK",
      "vis_m": 9999,
      "fzfg": false,
      "metar_trigger": false,
      "taf_trigger": false,
      "metar": "METAR LROP 092130Z 07015KT 9999 BKN014 OVC042 M03/M07 Q1021 NOSIG",
      "taf": "TAF LROP 091700Z 0918/1018 07016KT 9999 SCT015 BKN035"
    },
    {
      "icao": "LRSB",
      "alert": "OK",
      "vis_m": 9999,
      "fzfg": false,
      "metar_trigger": false,
      "taf_trigger": false,
      "metar": "METAR LRSB 092130Z 17003KT CAVOK 00/M04 Q1012",
      "taf": "TAF LRSB 091700Z 0918/1018 10012KT 9999 BKN050"
    },
    {
      "icao": "LRSM",
      "alert": "OK",
      "vis_m": 9999,
      "fzfg": false,
      "metar_trigger": false,
      "taf_trigger": false,
      "metar": "METAR LRSM 092130Z AUTO 13008KT 9999 OVC070/// 04/M00 Q1012",
      "taf": "TAF LRSM 091400Z 0915/0924 13008KT 9999 BKN045"
    },
    {
      "icao": "LRSV",
      "alert": "OK",
      "vis_m": 8000,
      "fzfg": false,
      "metar_trigger": false,
      "taf_trigger": false,
      "metar": "METAR LRSV 092130Z 17010KT 8000 OVC004 M09/M10 Q1017",
      "taf": "TAF LRSV 092000Z 0921/1006 16012KT 9999 BKN005"
    },
    {
      "icao": "LRTM",
      "alert": "OK",
      "vis_m": 9999,
      "fzfg": false,
      "metar_trigger": false,
      "taf_trigger": false,
      "metar": "METAR LRTM 092130Z AUTO 13004KT 9999 NCD 00/M03 Q1014",
      "taf": "TAF LRTM 092000Z 0921/1006 10006KT 9999 BKN025"
    },
    {
      "icao": "LRTR",
      "alert": "OK",
      "vis_m": 9999,
      "fzfg": false,
      "metar_trigger": false,
      "taf_trigger": false,
      "metar": "METAR LRTR 092130Z 13004KT 9999 BKN040 04/M00 Q1012",
      "taf": "TAF LRTR 091700Z 0918/1018 VRB04KT 9999 BKN030"
    },
    {
      "icao": "LTAC",
      "alert": "OK",
      "vis_m": 9999,
      "fzfg": false,
      "metar_trigger": false,
      "taf_trigger": false,
      "metar": "METAR LTAC 092150Z 03008KT 9999 BKN030 BKN080 04/02 Q1010 NOSIG",
      "taf": "TAF LTAC 091640Z 0918/1018 VRB02KT 9999 SCT040 BKN100"
    },
    {
      "icao": "LTFM",
      "alert": "OK",
      "vis_m": 9999,
      "fzfg": false,
      "metar_trigger": false,
      "taf_trigger": false,
      "metar": "METAR LTFM 092150Z 07021KT 9999 BKN009 BKN022 05/03 Q1013 NOSIG",
      "taf": "TAF LTFM 091640Z 0918/1024 06020G30KT 9999 -RA BKN007 BKN022"
    },
    {
      "icao": "LUKK",
      "alert": "OK",
      "vis_m": 9000,
      "fzfg": false,
      "metar_trigger": false,
      "taf_trigger": false,
      "metar": "METAR LUKK 092130Z VRB02KT 9000 NSC M12/M14 Q1022 NOSIG",
      "taf": "TAF LUKK 091727Z 0918/1018 VRB05KT CAVOK"
    },
    {
      "icao": "LWOH",
      "alert": "OK",
      "vis_m": null,
      "fzfg": false,
      "metar_trigger": false,
      "taf_trigger": false,
      "metar": "",
      "taf": "TAF LWOH 092030Z 0921/1021 33010KT 9999 SCT045 BKN080"
    },
    {
      "icao": "LWSK",
      "alert": "OK",
      "vis_m": 9999,
      "fzfg": false,
      "metar_trigger": false,
      "taf_trigger": false,
      "metar": "METAR LWSK 092150Z 03004KT 9999 -RA FEW030 OVC050 08/07 Q1009 NOSIG",
      "taf": "TAF LWSK 092030Z 0921/1021 10005KT 9999 FEW035 SCT050 BKN080"
    },
    {
      "icao": "LYBE",
      "alert": "OK",
      "vis_m": 9999,
      "fzfg": false,
      "metar_trigger": false,
      "taf_trigger": false,
      "metar": "METAR LYBE 092130Z 12014KT 9999 BKN043 02/M04 Q1012 NOSIG",
      "taf": "TAF LYBE 091700Z 0918/1018 11018KT 9999 SCT045 TX04/1013Z TNM01/1006Z"
    },
    {
      "icao": "LYNI",
      "alert": "OK",
      "vis_m": 9999,
      "fzfg": false,
      "metar_trigger": false,
      "taf_trigger": false,
      "metar": "METAR LYNI 092130Z 06015KT 020V080 9999 SCT037 BKN090 02/M02 Q1011 NOSIG",
      "taf": "TAF LYNI 091700Z 0918/1018 06009KT 9999 SCT017 BKN045 OVC080 TX03/1012Z TNM01/1005Z"
    },
    {
      "icao": "LYPG",
      "alert": "OK",
      "vis_m": 9999,
      "fzfg": false,
      "metar_trigger": false,
      "taf_trigger": false,
      "metar": "METAR LYPG 092130Z 07002KT 9999 FEW040 SCT060 OVC080 09/08 Q1007 NOSIG",
      "taf": "TAF LYPG 091700Z 0918/1018 VRB02KT 9999 FEW015 SCT040 BKN070 TX12/1012Z TN08/1005Z"
    },
    {
      "icao": "LZIB",
      "alert": "OK",
      "vis_m": 9999,
      "fzfg": false,
      "metar_trigger": false,
      "taf_trigger": false,
      "metar": "METAR LZIB 092130Z 10007KT 9999 FEW010 BKN017 OVC019 05/04 Q1010 NOSIG",
      "taf": "TAF LZIB 091715Z 0918/1018 12008KT 7000 FEW010 BKN025"
    },
    {
      "icao": "LZKZ",
      "alert": "OK",
      "vis_m": 9999,
      "fzfg": false,
      "metar_trigger": false,
      "taf_trigger": false,
      "metar": "METAR LZKZ 092130Z 04004KT 9999 BKN019 02/M01 Q1012 NOSIG",
      "taf": "TAF LZKZ 091715Z 0918/1018 01016KT 9999 BKN035"
    },
    {
      "icao": "LZTT",
      "alert": "OK",
      "vis_m": 6000,
      "fzfg": false,
      "metar_trigger": false,
      "taf_trigger": false,
      "metar": "METAR LZTT 092130Z 00000KT 6000 SCT009 OVC022 M01/M02 Q1009",
      "taf": "TAF LZTT 091715Z 0918/1018 14005KT 9999 SCT002 OVC011"
    },
    {
      "icao": "OEJN",
      "alert": "OK",
      "vis_m": 9999,
      "fzfg": false,
      "metar_trigger": false,
      "taf_trigger": false,
      "metar": "METAR OEJN 092100Z 30004KT CAVOK 26/14 Q1012 NOSIG",
      "taf": "TAF OEJN 091700Z 0918/1024 VRB03KT CAVOK"
    },
    {
      "icao": "OEMA",
      "alert": "OK",
      "vis_m": 9999,
      "fzfg": false,
      "metar_trigger": false,
      "taf_trigger": false,
      "metar": "METAR OEMA 092100Z VRB02KT CAVOK 21/M03 Q1017 NOSIG",
      "taf": "TAF OEMA 091700Z 0918/1024 VRB03KT CAVOK"
    },
    {
      "icao": "OJAI",
      "alert": "OK",
      "vis_m": null,
      "fzfg": false,
      "metar_trigger": false,
      "taf_trigger": false,
      "metar": "",
      "taf": "TAF OJAI 091700Z 0918/1024 25012KT 3000 DU NSC"
    },
    {
      "icao": "OMAA",
      "alert": "OK",
      "vis_m": 9999,
      "fzfg": false,
      "metar_trigger": false,
      "taf_trigger": false,
      "metar": "METAR OMAA 092130Z 31002KT CAVOK 21/16 Q1014 NOSIG",
      "taf": "TAF OMAA 091700Z 0918/1100 VRB02KT 8000 NSC"
    },
    {
      "icao": "OMDB",
      "alert": "OK",
      "vis_m": 8000,
      "fzfg": false,
      "metar_trigger": false,
      "taf_trigger": false,
      "metar": "METAR OMDB 092130Z 23004KT 210V270 8000 NSC 22/19 Q1014 NOSIG",
      "taf": "TAF OMDB 091700Z 0918/1100 22005KT 8000 NSC"
    },
    {
      "icao": "UAAA",
      "alert": "OK",
      "vis_m": 1700,
      "fzfg": false,
      "metar_trigger": false,
      "taf_trigger": false,
      "metar": "METAR UAAA 092130Z 15001MPS 1700 R23L/P2000N BR SCT100 BKN200 M02/M03 Q1004 NOSIG",
      "taf": "TAF UAAA 091711Z 0918/1018 21003MPS 3100 BR FU SCT050CB BKN100 TX07/1009Z TNM03/1002Z"
    },
    {
      "icao": "UBBB",
      "alert": "OK",
      "vis_m": 9999,
      "fzfg": false,
      "metar_trigger": false,
      "taf_trigger": false,
      "metar": "METAR UBBB 092130Z 15006KT CAVOK 05/05 Q1008 NOSIG",
      "taf": "TAF UBBB 091705Z 0918/1018 VRB04KT 6000 BKN012 BKN020 TX04/1006Z TN02/1002Z"
    },
    {
      "icao": "UDSG",
      "alert": "OK",
      "vis_m": 8000,
      "fzfg": false,
      "metar_trigger": false,
      "taf_trigger": false,
      "metar": "METAR UDSG 092130Z 28006KT 8000 BKN040 M00/M00 Q1009 NOSIG",
      "taf": ""
    },
    {
      "icao": "UDYZ",
      "alert": "OK",
      "vis_m": 8000,
      "fzfg": false,
      "metar_trigger": false,
      "taf_trigger": false,
      "metar": "METAR UDYZ 092130Z 06005KT 8000 SCT046 04/03 Q1008 NOSIG",
      "taf": "TAF UDYZ 091700Z 0918/1018 VRB06KT 2000 BR SCT040"
    },
    {
      "icao": "UGKO",
      "alert": "OK",
      "vis_m": 4700,
      "fzfg": false,
      "metar_trigger": false,
      "taf_trigger": false,
      "metar": "METAR UGKO 092130Z 26009KT 4700 -RA SCT014 OVC030 06/05 Q1012 NOSIG",
      "taf": ""
    }
  ]
}