{
  "ts_utc": "2026-05-25T22:45:36Z",
  "threshold_m": 150,
  "source": "stations_override.txt (ICAO list) + aviationweather.gov (METAR/TAF raw)",
  "station_count": 159,
  "stations": [
    {
      "icao": "BIKF",
      "alert": "OK",
      "vis_m": 9999,
      "fzfg": false,
      "metar_trigger": false,
      "taf_trigger": false,
      "metar": "METAR BIKF 252230Z 24009KT 9999 FEW014 08/06 Q1016",
      "taf": "TAF BIKF 252212Z 2600/2700 24012KT 9999 -SHRA SCT015TCU BKN028 TX10/2613Z TN05/2601Z"
    },
    {
      "icao": "BKPR",
      "alert": "OK",
      "vis_m": 9999,
      "fzfg": false,
      "metar_trigger": false,
      "taf_trigger": false,
      "metar": "METAR BKPR 252230Z VRB02KT CAVOK 15/11 Q1027 NOSIG",
      "taf": "TAF BKPR 251730Z 2518/2618 01008KT 9999 FEW060"
    },
    {
      "icao": "EBCI",
      "alert": "OK",
      "vis_m": 9999,
      "fzfg": false,
      "metar_trigger": false,
      "taf_trigger": false,
      "metar": "METAR EBCI 252220Z 06004KT CAVOK 20/11 Q1031 NOSIG",
      "taf": "TAF EBCI 251700Z 2518/2624 03006KT CAVOK"
    },
    {
      "icao": "EDDB",
      "alert": "OK",
      "vis_m": 9999,
      "fzfg": false,
      "metar_trigger": false,
      "taf_trigger": false,
      "metar": "METAR EDDB 252220Z AUTO VRB01KT CAVOK 16/12 Q1029 NOSIG",
      "taf": "TAF EDDB 251700Z 2518/2618 30009KT CAVOK"
    },
    {
      "icao": "EDDH",
      "alert": "OK",
      "vis_m": 9999,
      "fzfg": false,
      "metar_trigger": false,
      "taf_trigger": false,
      "metar": "METAR EDDH 252220Z AUTO 34001KT CAVOK 15/13 Q1030 NOSIG",
      "taf": "TAF EDDH 251700Z 2518/2624 30007KT CAVOK"
    },
    {
      "icao": "EDDK",
      "alert": "OK",
      "vis_m": 9999,
      "fzfg": false,
      "metar_trigger": false,
      "taf_trigger": false,
      "metar": "METAR EDDK 252220Z AUTO 16003KT CAVOK 16/10 Q1031 NOSIG",
      "taf": ""
    },
    {
      "icao": "EDDN",
      "alert": "OK",
      "vis_m": 9999,
      "fzfg": false,
      "metar_trigger": false,
      "taf_trigger": false,
      "metar": "METAR EDDN 252220Z AUTO 34003KT CAVOK 17/11 Q1030",
      "taf": "TAF EDDN 251700Z 2518/2618 34005KT CAVOK"
    },
    {
      "icao": "EDDS",
      "alert": "OK",
      "vis_m": 9999,
      "fzfg": false,
      "metar_trigger": false,
      "taf_trigger": false,
      "metar": "METAR EDDS 252220Z AUTO 33002KT CAVOK 18/12 Q1030",
      "taf": "TAF EDDS 251700Z 2518/2618 35006KT CAVOK"
    },
    {
      "icao": "EDFH",
      "alert": "OK",
      "vis_m": 9999,
      "fzfg": false,
      "metar_trigger": false,
      "taf_trigger": false,
      "metar": "METAR EDFH 252220Z 04004KT 360V080 CAVOK 18/10 Q1032",
      "taf": "TAF EDFH 251700Z 2518/2618 05005KT CAVOK"
    },
    {
      "icao": "EDJA",
      "alert": "OK",
      "vis_m": 9999,
      "fzfg": false,
      "metar_trigger": false,
      "taf_trigger": false,
      "metar": "METAR EDJA 252220Z AUTO VRB01KT 9999 // NCD 15/11 Q1030",
      "taf": "TAF EDJA 251700Z 2518/2603 04006KT CAVOK"
    },
    {
      "icao": "EDLW",
      "alert": "OK",
      "vis_m": 9999,
      "fzfg": false,
      "metar_trigger": false,
      "taf_trigger": false,
      "metar": "METAR EDLW 252220Z AUTO 15007KT 9999 // NCD 18/10 Q1031",
      "taf": "TAF EDLW 251700Z 2518/2618 04004KT CAVOK"
    },
    {
      "icao": "EDNY",
      "alert": "OK",
      "vis_m": 9999,
      "fzfg": false,
      "metar_trigger": false,
      "taf_trigger": false,
      "metar": "METAR EDNY 252220Z AUTO 06005KT 9999 // NCD 18/11 Q1030",
      "taf": "TAF EDNY 251700Z 2518/2603 03004KT CAVOK"
    },
    {
      "icao": "EDSB",
      "alert": "OK",
      "vis_m": 9999,
      "fzfg": false,
      "metar_trigger": false,
      "taf_trigger": false,
      "metar": "METAR EDSB 252220Z AUTO 01004KT 9999 // NCD 18/14 Q1029",
      "taf": "TAF EDSB 251700Z 2518/2618 02004KT CAVOK"
    },
    {
      "icao": "EETN",
      "alert": "OK",
      "vis_m": 9999,
      "fzfg": false,
      "metar_trigger": false,
      "taf_trigger": false,
      "metar": "METAR EETN 252220Z 29013KT CAVOK 10/06 Q1014",
      "taf": "TAF EETN 251730Z 2518/2618 28020G30KT CAVOK"
    },
    {
      "icao": "EFTU",
      "alert": "OK",
      "vis_m": 9999,
      "fzfg": false,
      "metar_trigger": false,
      "taf_trigger": false,
      "metar": "METAR EFTU 252220Z AUTO 30005KT CAVOK 08/03 Q1015",
      "taf": "TAF EFTU 252024Z 2521/2621 30007KT CAVOK"
    },
    {
      "icao": "EGBB",
      "alert": "OK",
      "vis_m": 9999,
      "fzfg": false,
      "metar_trigger": false,
      "taf_trigger": false,
      "metar": "METAR EGBB 252220Z 19004KT CAVOK 19/15 Q1029",
      "taf": "TAF EGBB 251659Z 2518/2618 17006KT CAVOK"
    },
    {
      "icao": "EGGP",
      "alert": "OK",
      "vis_m": 9999,
      "fzfg": false,
      "metar_trigger": false,
      "taf_trigger": false,
      "metar": "METAR EGGP 252220Z 27004KT CAVOK 18/12 Q1028",
      "taf": ""
    },
    {
      "icao": "EGGW",
      "alert": "OK",
      "vis_m": 9999,
      "fzfg": false,
      "metar_trigger": false,
      "taf_trigger": false,
      "metar": "METAR EGGW 252220Z AUTO 14005KT 9999 NCD 20/15 Q1030",
      "taf": "TAF EGGW 251655Z 2518/2618 14007KT CAVOK"
    },
    {
      "icao": "EGKK",
      "alert": "OK",
      "vis_m": 9999,
      "fzfg": false,
      "metar_trigger": false,
      "taf_trigger": false,
      "metar": "METAR EGKK 252220Z 08002KT CAVOK 21/15 Q1029",
      "taf": "TAF EGKK 251700Z 2518/2624 14010KT CAVOK"
    },
    {
      "icao": "EGNM",
      "alert": "OK",
      "vis_m": 9999,
      "fzfg": false,
      "metar_trigger": false,
      "taf_trigger": false,
      "metar": "METAR EGNM 252220Z 27008KT CAVOK 22/14 Q1029",
      "taf": "TAF EGNM 251654Z 2518/2618 22010KT CAVOK"
    },
    {
      "icao": "EGPD",
      "alert": "OK",
      "vis_m": 9999,
      "fzfg": false,
      "metar_trigger": false,
      "taf_trigger": false,
      "metar": "METAR EGPD 252220Z COR AUTO VRB02KT 9999 NCD 13/10 Q1028 NOSIG",
      "taf": "TAF EGPD 251656Z 2518/2618 06005KT 9999 FEW045"
    },
    {
      "icao": "EGPF",
      "alert": "OK",
      "vis_m": 9999,
      "fzfg": false,
      "metar_trigger": false,
      "taf_trigger": false,
      "metar": "METAR EGPF 252220Z AUTO 23006KT 9999 NCD 14/11 Q1029",
      "taf": "TAF EGPF 251652Z 2518/2618 29006KT 9999 FEW030"
    },
    {
      "icao": "EHBK",
      "alert": "OK",
      "vis_m": 9999,
      "fzfg": false,
      "metar_trigger": false,
      "taf_trigger": false,
      "metar": "METAR EHBK 252225Z AUTO 07005KT 9999 NCD 18/11 Q1030",
      "taf": "TAF EHBK 251709Z 2518/2624 06003KT CAVOK"
    },
    {
      "icao": "EHEH",
      "alert": "OK",
      "vis_m": 9999,
      "fzfg": false,
      "metar_trigger": false,
      "taf_trigger": false,
      "metar": "METAR EHEH 252225Z AUTO 01001KT 9999 ////// 15/14 Q1031 BLU",
      "taf": "TAF EHEH 251712Z 2518/2624 04005KT CAVOK"
    },
    {
      "icao": "EKBI",
      "alert": "OK",
      "vis_m": 9999,
      "fzfg": false,
      "metar_trigger": false,
      "taf_trigger": false,
      "metar": "METAR EKBI 252220Z AUTO 26006KT 9999 NCD 11/10 Q1029",
      "taf": "TAF EKBI 252027Z 2521/2621 25007KT CAVOK"
    },
    {
      "icao": "EKCH",
      "alert": "OK",
      "vis_m": 9999,
      "fzfg": false,
      "metar_trigger": false,
      "taf_trigger": false,
      "metar": "METAR EKCH 252220Z AUTO 28011KT 9999 NCD 17/11 Q1027 NOSIG",
      "taf": "TAF EKCH 252027Z 2521/2621 28011KT CAVOK"
    },
    {
      "icao": "ENAL",
      "alert": "OK",
      "vis_m": 9999,
      "fzfg": false,
      "metar_trigger": false,
      "taf_trigger": false,
      "metar": "METAR ENAL 252220Z 24018KT 9999 SCT023 10/08 Q1020",
      "taf": "TAF ENAL 252000Z 2521/2606 23012KT 9999 -SHRA FEW008 BKN018"
    },
    {
      "icao": "ENBR",
      "alert": "OK",
      "vis_m": 4000,
      "fzfg": false,
      "metar_trigger": false,
      "taf_trigger": false,
      "metar": "METAR ENBR 252220Z 20004KT 4000 BCFG OVC002 09/09 Q1026 RMK WIND 1200FT 25008KT",
      "taf": "TAF ENBR 251700Z 2518/2618 19007KT 8000 -RA BKN003"
    },
    {
      "icao": "ENGM",
      "alert": "OK",
      "vis_m": 9999,
      "fzfg": false,
      "metar_trigger": false,
      "taf_trigger": false,
      "metar": "METAR ENGM 252220Z 23006KT CAVOK 15/05 Q1021",
      "taf": "TAF ENGM 251700Z 2518/2618 24008KT 9999 SCT040"
    },
    {
      "icao": "ENHD",
      "alert": "OK",
      "vis_m": 9999,
      "fzfg": false,
      "metar_trigger": false,
      "taf_trigger": false,
      "metar": "METAR ENHD 252220Z AUTO 27006KT 9999 NCD 11/10 Q1027",
      "taf": ""
    },
    {
      "icao": "ENTC",
      "alert": "OK",
      "vis_m": 9999,
      "fzfg": false,
      "metar_trigger": false,
      "taf_trigger": false,
      "metar": "METAR ENTC 252220Z 24004KT 9999 FEW019 SCT027 BKN032 07/04 Q1011 RMK WIND 2600FT 22011KT",
      "taf": ""
    },
    {
      "icao": "ENTO",
      "alert": "OK",
      "vis_m": 9999,
      "fzfg": false,
      "metar_trigger": false,
      "taf_trigger": false,
      "metar": "METAR ENTO 252220Z 26006KT 230V290 CAVOK 16/06 Q1023",
      "taf": ""
    },
    {
      "icao": "ENVA",
      "alert": "OK",
      "vis_m": 9999,
      "fzfg": false,
      "metar_trigger": false,
      "taf_trigger": false,
      "metar": "METAR ENVA 252220Z VRB02KT 9999 SCT028 SCT038 10/08 Q1018 RMK WIND 670FT 22012KT",
      "taf": "TAF ENVA 251700Z 2518/2618 24008KT 9999 SCT030 BKN050"
    },
    {
      "icao": "ENZV",
      "alert": "OK",
      "vis_m": 9999,
      "fzfg": false,
      "metar_trigger": false,
      "taf_trigger": false,
      "metar": "METAR ENZV 252220Z VRB02KT 9999 -SHRA SCT023 12/10 Q1028",
      "taf": ""
    },
    {
      "icao": "EPGD",
      "alert": "OK",
      "vis_m": 9999,
      "fzfg": false,
      "metar_trigger": false,
      "taf_trigger": false,
      "metar": "METAR EPGD 252230Z 28014KT CAVOK 15/11 Q1024",
      "taf": ""
    },
    {
      "icao": "EPKK",
      "alert": "OK",
      "vis_m": 9999,
      "fzfg": false,
      "metar_trigger": false,
      "taf_trigger": false,
      "metar": "METAR EPKK 252230Z 25003KT CAVOK 15/10 Q1028",
      "taf": "TAF EPKK 252030Z 2521/2621 VRB02KT CAVOK"
    },
    {
      "icao": "EPKT",
      "alert": "OK",
      "vis_m": 9999,
      "fzfg": false,
      "metar_trigger": false,
      "taf_trigger": false,
      "metar": "METAR EPKT 252230Z 28001KT CAVOK 12/10 Q1029",
      "taf": "TAF EPKT 251730Z 2518/2618 34010KT CAVOK"
    },
    {
      "icao": "EPLB",
      "alert": "OK",
      "vis_m": 9999,
      "fzfg": false,
      "metar_trigger": false,
      "taf_trigger": false,
      "metar": "METAR EPLB 252230Z 30006KT CAVOK 17/11 Q1025",
      "taf": "TAF EPLB 251730Z 2518/2618 30010KT CAVOK"
    },
    {
      "icao": "EPMO",
      "alert": "OK",
      "vis_m": 9999,
      "fzfg": false,
      "metar_trigger": false,
      "taf_trigger": false,
      "metar": "METAR EPMO 252230Z 26006KT CAVOK 15/11 Q1025",
      "taf": "TAF EPMO 251730Z 2518/2618 29010KT CAVOK"
    },
    {
      "icao": "EPPO",
      "alert": "OK",
      "vis_m": 9999,
      "fzfg": false,
      "metar_trigger": false,
      "taf_trigger": false,
      "metar": "METAR EPPO 252230Z 31007KT CAVOK 18/11 Q1028",
      "taf": "TAF EPPO 251730Z 2518/2618 32008KT CAVOK"
    },
    {
      "icao": "EPRA",
      "alert": "OK",
      "vis_m": 9999,
      "fzfg": false,
      "metar_trigger": false,
      "taf_trigger": false,
      "metar": "METAR EPRA 252230Z 28009KT CAVOK 19/10 Q1026",
      "taf": "TAF EPRA 252030Z 2521/2606 28008KT CAVOK"
    },
    {
      "icao": "EPRZ",
      "alert": "OK",
      "vis_m": 9999,
      "fzfg": false,
      "metar_trigger": false,
      "taf_trigger": false,
      "metar": "METAR EPRZ 252230Z 25009KT CAVOK 14/10 Q1027",
      "taf": "TAF EPRZ 251730Z 2518/2618 33012KT CAVOK"
    },
    {
      "icao": "EPSC",
      "alert": "OK",
      "vis_m": 9999,
      "fzfg": false,
      "metar_trigger": false,
      "taf_trigger": false,
      "metar": "METAR EPSC 252230Z VRB01KT CAVOK 11/10 Q1028",
      "taf": ""
    },
    {
      "icao": "EPSY",
      "alert": "OK",
      "vis_m": 9999,
      "fzfg": false,
      "metar_trigger": false,
      "taf_trigger": false,
      "metar": "METAR EPSY 252230Z 29005KT 260V330 CAVOK 16/07 Q1024",
      "taf": "TAF EPSY 252030Z 2521/2606 30004KT CAVOK"
    },
    {
      "icao": "EPWA",
      "alert": "OK",
      "vis_m": 9999,
      "fzfg": false,
      "metar_trigger": false,
      "taf_trigger": false,
      "metar": "METAR EPWA 252230Z 27007KT CAVOK 17/12 Q1025 NOSIG",
      "taf": "TAF EPWA 252030Z 2521/2621 30010KT CAVOK"
    },
    {
      "icao": "EPWR",
      "alert": "OK",
      "vis_m": 9999,
      "fzfg": false,
      "metar_trigger": false,
      "taf_trigger": false,
      "metar": "METAR EPWR 252230Z 27005KT CAVOK 18/12 Q1028",
      "taf": "TAF EPWR 252030Z 2521/2621 VRB02KT CAVOK"
    },
    {
      "icao": "ESGG",
      "alert": "OK",
      "vis_m": 9999,
      "fzfg": false,
      "metar_trigger": false,
      "taf_trigger": false,
      "metar": "METAR ESGG 252220Z 24007KT CAVOK 12/10 Q1024",
      "taf": "TAF ESGG 252030Z 2521/2621 27010KT CAVOK"
    },
    {
      "icao": "ESKN",
      "alert": "OK",
      "vis_m": 9999,
      "fzfg": false,
      "metar_trigger": false,
      "taf_trigger": false,
      "metar": "METAR ESKN 252220Z 29006KT CAVOK 15/11 Q1019",
      "taf": "TAF ESKN 252030Z 2521/2621 28007KT CAVOK"
    },
    {
      "icao": "ESMS",
      "alert": "OK",
      "vis_m": 9999,
      "fzfg": false,
      "metar_trigger": false,
      "taf_trigger": false,
      "metar": "METAR ESMS 252220Z 29009KT CAVOK 17/10 Q1026",
      "taf": "TAF ESMS 252027Z 2521/2621 25010KT CAVOK"
    },
    {
      "icao": "ESSA",
      "alert": "OK",
      "vis_m": 9999,
      "fzfg": false,
      "metar_trigger": false,
      "taf_trigger": false,
      "metar": "METAR ESSA 252220Z 28004KT CAVOK 12/06 Q1018 NOSIG",
      "taf": "TAF ESSA 252030Z 2521/2621 28004KT CAVOK"
    },
    {
      "icao": "EYKA",
      "alert": "OK",
      "vis_m": 9999,
      "fzfg": false,
      "metar_trigger": false,
      "taf_trigger": false,
      "metar": "METAR EYKA 252220Z 27012KT CAVOK 14/10 Q1019",
      "taf": "TAF EYKA 251700Z 2518/2618 28010KT 9000 NSC"
    },
    {
      "icao": "EYPA",
      "alert": "OK",
      "vis_m": 9999,
      "fzfg": false,
      "metar_trigger": false,
      "taf_trigger": false,
      "metar": "METAR EYPA 252220Z AUTO 31004KT 220V030 9999 NCD 12/10 Q1019",
      "taf": "TAF EYPA 251700Z 2518/2618 VRB03KT 9000 BKN045"
    },
    {
      "icao": "EYVI",
      "alert": "OK",
      "vis_m": 9999,
      "fzfg": false,
      "metar_trigger": false,
      "taf_trigger": false,
      "metar": "METAR EYVI 252220Z 26006KT CAVOK 15/08 Q1019 NOSIG",
      "taf": "TAF EYVI 251700Z 2518/2618 28010KT 9000 NSC"
    },
    {
      "icao": "GCFV",
      "alert": "OK",
      "vis_m": 9999,
      "fzfg": false,
      "metar_trigger": false,
      "taf_trigger": false,
      "metar": "METAR GCFV 252230Z AUTO 20004KT 170V230 CAVOK 21/18 Q1018",
      "taf": "TAF GCFV 252000Z 2521/2621 VRB05KT CAVOK TX33/2614Z TN20/2606Z"
    },
    {
      "icao": "GCLP",
      "alert": "OK",
      "vis_m": 9999,
      "fzfg": false,
      "metar_trigger": false,
      "taf_trigger": false,
      "metar": "METAR GCLP 252230Z 01016KT CAVOK 20/18 Q1018 NOSIG",
      "taf": "TAF GCLP 252000Z 2521/2621 02019KT CAVOK TX29/2614Z TN20/2606Z"
    },
    {
      "icao": "GCTS",
      "alert": "OK",
      "vis_m": 9999,
      "fzfg": false,
      "metar_trigger": false,
      "taf_trigger": false,
      "metar": "METAR GCTS 252230Z 08008KT CAVOK 20/17 Q1019 NOSIG",
      "taf": "TAF GCTS 252000Z 2521/2621 03010KT CAVOK TX30/2614Z TN21/2606Z"
    },
    {
      "icao": "GMAD",
      "alert": "OK",
      "vis_m": 9999,
      "fzfg": false,
      "metar_trigger": false,
      "taf_trigger": false,
      "metar": "METAR GMAD 252230Z 04003KT CAVOK 25/12 Q1017 NOSIG",
      "taf": "TAF GMAD 251700Z 2518/2624 20008KT 8000 SCT040"
    },
    {
      "icao": "GMMN",
      "alert": "OK",
      "vis_m": 9999,
      "fzfg": false,
      "metar_trigger": false,
      "taf_trigger": false,
      "metar": "METAR GMMN 252230Z 04010KT CAVOK 29/14 Q1019 NOSIG",
      "taf": "TAF GMMN 251700Z 2518/2624 02014KT CAVOK"
    },
    {
      "icao": "GMMX",
      "alert": "OK",
      "vis_m": 8000,
      "fzfg": false,
      "metar_trigger": false,
      "taf_trigger": false,
      "metar": "METAR GMMX 252230Z 14006KT 8000 SCT030 SCT100 30/10 Q1019 NOSIG",
      "taf": "TAF GMMX 251700Z 2518/2624 24016KT 8000 SCT033 SCT100"
    },
    {
      "icao": "HEGN",
      "alert": "OK",
      "vis_m": 9999,
      "fzfg": false,
      "metar_trigger": false,
      "taf_trigger": false,
      "metar": "METAR HEGN 252200Z 28005KT CAVOK 26/09 Q1013 NOSIG NOSIG",
      "taf": "TAF HEGN 251700Z 2518/2624 33008G20KT CAVOK"
    },
    {
      "icao": "HEMA",
      "alert": "OK",
      "vis_m": 9999,
      "fzfg": false,
      "metar_trigger": false,
      "taf_trigger": false,
      "metar": "METAR HEMA 252200Z 32014KT CAVOK 27/10 Q1011 NOSIG",
      "taf": "TAF HEMA 251707Z 2518/2624 34008G20KT CAVOK"
    },
    {
      "icao": "HESH",
      "alert": "OK",
      "vis_m": 9999,
      "fzfg": false,
      "metar_trigger": false,
      "taf_trigger": false,
      "metar": "METAR HESH 252200Z 34014KT CAVOK 27/14 Q1011 NOSIG",
      "taf": "TAF HESH 251700Z 2518/2624 36014KT CAVOK"
    },
    {
      "icao": "HESX",
      "alert": "OK",
      "vis_m": 9999,
      "fzfg": false,
      "metar_trigger": false,
      "taf_trigger": false,
      "metar": "METAR HESX 252200Z 03005KT CAVOK 19/14 Q1017 NOSIG",
      "taf": "TAF HESX 251707Z 2518/2624 35010KT CAVOK"
    },
    {
      "icao": "LATI",
      "alert": "OK",
      "vis_m": 9999,
      "fzfg": false,
      "metar_trigger": false,
      "taf_trigger": false,
      "metar": "METAR LATI 252220Z 17003KT 140V230 CAVOK 18/11 Q1024 NOSIG",
      "taf": "TAF LATI 251700Z 2518/2618 VRB05KT CAVOK TX32/2612Z TN14/2604Z"
    },
    {
      "icao": "LBPD",
      "alert": "OK",
      "vis_m": 9999,
      "fzfg": false,
      "metar_trigger": false,
      "taf_trigger": false,
      "metar": "METAR LBPD 252230Z AUTO 15006KT 9999 BKN093/// OVC120/// 20/13 Q1023",
      "taf": "TAF LBPD 251700Z 2518/2618 VRB04KT 9999 SCT060"
    },
    {
      "icao": "LBSF",
      "alert": "OK",
      "vis_m": 9999,
      "fzfg": false,
      "metar_trigger": false,
      "taf_trigger": false,
      "metar": "METAR LBSF 252230Z AUTO VRB02KT 9999 NSC 13/10 Q1026 NOSIG",
      "taf": "TAF LBSF 251700Z 2518/2618 04010KT 9999 SCT060"
    },
    {
      "icao": "LBWN",
      "alert": "OK",
      "vis_m": 9999,
      "fzfg": false,
      "metar_trigger": false,
      "taf_trigger": false,
      "metar": "METAR LBWN 252230Z AUTO VRB02KT 9999 NSC 17/15 Q1021 NOSIG",
      "taf": "TAF LBWN 251700Z 2518/2618 VRB04KT 9999 SCT040"
    },
    {
      "icao": "LCLK",
      "alert": "OK",
      "vis_m": 9999,
      "fzfg": false,
      "metar_trigger": false,
      "taf_trigger": false,
      "metar": "METAR LCLK 252230Z 31007KT CAVOK 19/17 Q1016 NOSIG",
      "taf": "TAF LCLK 251730Z 2518/2618 32007KT 9999 FEW025"
    },
    {
      "icao": "LCPH",
      "alert": "OK",
      "vis_m": 9999,
      "fzfg": false,
      "metar_trigger": false,
      "taf_trigger": false,
      "metar": "METAR LCPH 252230Z AUTO 02005KT 9999 NCD 19/16 Q1016 NOSIG",
      "taf": "TAF LCPH 251730Z 2518/2618 33010KT 9999 FEW020"
    },
    {
      "icao": "LEAL",
      "alert": "OK",
      "vis_m": 9999,
      "fzfg": false,
      "metar_trigger": false,
      "taf_trigger": false,
      "metar": "METAR LEAL 252230Z 04003KT 020V080 CAVOK 22/15 Q1027 NOSIG",
      "taf": "TAF LEAL 251700Z 2518/2618 09010KT CAVOK TX28/2612Z TN15/2605Z"
    },
    {
      "icao": "LEBB",
      "alert": "OK",
      "vis_m": 9999,
      "fzfg": false,
      "metar_trigger": false,
      "taf_trigger": false,
      "metar": "METAR LEBB 252230Z AUTO VRB01KT CAVOK 24/15 Q1023",
      "taf": "TAF LEBB 251700Z 2518/2618 13009KT CAVOK TX38/2615Z TN18/2605Z"
    },
    {
      "icao": "LEBL",
      "alert": "OK",
      "vis_m": 9999,
      "fzfg": false,
      "metar_trigger": false,
      "taf_trigger": false,
      "metar": "METAR LEBL 252230Z 29004KT 250V330 CAVOK 21/16 Q1028 NOSIG",
      "taf": "TAF LEBL 251700Z 2518/2618 VRB04KT 9999 FEW010 TX27/2612Z TN18/2605Z"
    },
    {
      "icao": "LECH",
      "alert": "OK",
      "vis_m": 9999,
      "fzfg": false,
      "metar_trigger": false,
      "taf_trigger": false,
      "metar": "METAR LECH 252230Z AUTO VRB01KT CAVOK 17/10 Q1029",
      "taf": "TAF LECH 251700Z 2518/2618 09009KT CAVOK TX30/2613Z TN13/2605Z"
    },
    {
      "icao": "LEMD",
      "alert": "OK",
      "vis_m": 9999,
      "fzfg": false,
      "metar_trigger": false,
      "taf_trigger": false,
      "metar": "METAR LEMD 252230Z 14007KT 100V160 CAVOK 22/04 Q1027 NOSIG",
      "taf": "TAF LEMD 251700Z 2518/2624 VRB04KT CAVOK TX33/2616Z TN14/2605Z"
    },
    {
      "icao": "LEMG",
      "alert": "OK",
      "vis_m": 9999,
      "fzfg": false,
      "metar_trigger": false,
      "taf_trigger": false,
      "metar": "METAR LEMG 252230Z VRB02KT CAVOK 19/12 Q1027 NOSIG",
      "taf": "TAF LEMG 251700Z 2518/2618 29004KT CAVOK TX27/2614Z TN17/2606Z"
    },
    {
      "icao": "LEVC",
      "alert": "OK",
      "vis_m": 9999,
      "fzfg": false,
      "metar_trigger": false,
      "taf_trigger": false,
      "metar": "METAR LEVC 252230Z 09003KT CAVOK 21/18 Q1028 NOSIG",
      "taf": "TAF LEVC 251700Z 2518/2618 09010KT CAVOK TX30/2612Z TN15/2605Z"
    },
    {
      "icao": "LEXJ",
      "alert": "OK",
      "vis_m": 6000,
      "fzfg": false,
      "metar_trigger": false,
      "taf_trigger": false,
      "metar": "METAR LEXJ 252230Z AUTO 00000KT 6000 NCD 20/18 Q1022",
      "taf": "TAF LEXJ 252000Z 2521/2621 VRB03KT CAVOK TX36/2612Z TN18/2621Z"
    },
    {
      "icao": "LEZG",
      "alert": "OK",
      "vis_m": 9999,
      "fzfg": false,
      "metar_trigger": false,
      "taf_trigger": false,
      "metar": "METAR LEZG 252230Z 10006KT CAVOK 23/06 Q1027 NOSIG",
      "taf": "TAF LEZG 251700Z 2518/2618 11012KT CAVOK TX34/2615Z TN17/2605Z"
    },
    {
      "icao": "LEZL",
      "alert": "OK",
      "vis_m": 9999,
      "fzfg": false,
      "metar_trigger": false,
      "taf_trigger": false,
      "metar": "METAR LEZL 252230Z 01001KT CAVOK 24/11 Q1022 NOSIG",
      "taf": "TAF LEZL 252000Z 2521/2621 VRB03KT CAVOK TX37/2615Z TN15/2606Z"
    },
    {
      "icao": "LFBD",
      "alert": "OK",
      "vis_m": 9999,
      "fzfg": false,
      "metar_trigger": false,
      "taf_trigger": false,
      "metar": "METAR LFBD 252230Z AUTO 14007KT CAVOK 25/15 Q1025 NOSIG",
      "taf": "TAF LFBD 251700Z 2518/2624 11008KT CAVOK TX37/2615Z TN20/2605Z"
    },
    {
      "icao": "LFLL",
      "alert": "OK",
      "vis_m": 9999,
      "fzfg": false,
      "metar_trigger": false,
      "taf_trigger": false,
      "metar": "METAR LFLL 252230Z 22003KT CAVOK 24/17 Q1028 NOSIG",
      "taf": "TAF LFLL 251700Z 2518/2624 VRB04KT CAVOK"
    },
    {
      "icao": "LFLS",
      "alert": "OK",
      "vis_m": 9999,
      "fzfg": false,
      "metar_trigger": false,
      "taf_trigger": false,
      "metar": "METAR LFLS 252230Z AUTO 11005KT CAVOK 16/14 Q1029",
      "taf": "TAF LFLS 251400Z 2515/2615 21006KT CAVOK"
    },
    {
      "icao": "LFMN",
      "alert": "OK",
      "vis_m": 9999,
      "fzfg": false,
      "metar_trigger": false,
      "taf_trigger": false,
      "metar": "METAR LFMN 252230Z 34008KT CAVOK 25/08 Q1027 NOSIG",
      "taf": "TAF LFMN 252000Z 2521/2703 34010KT CAVOK"
    },
    {
      "icao": "LFOB",
      "alert": "OK",
      "vis_m": 9999,
      "fzfg": false,
      "metar_trigger": false,
      "taf_trigger": false,
      "metar": "METAR LFOB 252230Z AUTO VRB02KT CAVOK 16/15 Q1030 NOSIG",
      "taf": "TAF LFOB 251700Z 2518/2618 07008KT CAVOK"
    },
    {
      "icao": "LFPO",
      "alert": "OK",
      "vis_m": 9999,
      "fzfg": false,
      "metar_trigger": false,
      "taf_trigger": false,
      "metar": "METAR LFPO 252230Z AUTO 00000KT CAVOK 20/15 Q1029 NOSIG",
      "taf": "TAF LFPO 251700Z 2518/2624 08008KT CAVOK"
    },
    {
      "icao": "LFSB",
      "alert": "OK",
      "vis_m": 9999,
      "fzfg": false,
      "metar_trigger": false,
      "taf_trigger": false,
      "metar": "METAR LFSB 252230Z AUTO VRB02KT CAVOK 18/14 Q1029 NOSIG",
      "taf": "TAF LFSB 251700Z 2518/2618 36006KT CAVOK"
    },
    {
      "icao": "LGAV",
      "alert": "OK",
      "vis_m": 9999,
      "fzfg": false,
      "metar_trigger": false,
      "taf_trigger": false,
      "metar": "METAR LGAV 252220Z 01010KT CAVOK 21/09 Q1022 NOSIG",
      "taf": "TAF LGAV 251700Z 2518/2618 04012KT 9999 FEW025"
    },
    {
      "icao": "LGTS",
      "alert": "OK",
      "vis_m": 9999,
      "fzfg": false,
      "metar_trigger": false,
      "taf_trigger": false,
      "metar": "METAR LGTS 252220Z 09003KT 9999 FEW020TCU 19/14 Q1023 NOSIG",
      "taf": "TAF LGTS 251700Z 2518/2618 VRB03KT 9999 FEW025"
    },
    {
      "icao": "LHBP",
      "alert": "OK",
      "vis_m": 9999,
      "fzfg": false,
      "metar_trigger": false,
      "taf_trigger": false,
      "metar": "METAR LHBP 252230Z 04004KT CAVOK 19/10 Q1026 NOSIG",
      "taf": "TAF LHBP 251715Z 2518/2618 34010KT CAVOK"
    },
    {
      "icao": "LHDC",
      "alert": "OK",
      "vis_m": 9999,
      "fzfg": false,
      "metar_trigger": false,
      "taf_trigger": false,
      "metar": "METAR LHDC 252215Z AUTO 03011KT 350V060 CAVOK 21/09 Q1026",
      "taf": "TAF LHDC 251715Z 2518/2603 02009KT CAVOK"
    },
    {
      "icao": "LIBD",
      "alert": "OK",
      "vis_m": 9999,
      "fzfg": false,
      "metar_trigger": false,
      "taf_trigger": false,
      "metar": "METAR LIBD 252220Z 23006KT CAVOK 16/12 Q1025",
      "taf": "TAF LIBD 251700Z 2518/2618 35010KT CAVOK"
    },
    {
      "icao": "LIBG",
      "alert": "OK",
      "vis_m": 9999,
      "fzfg": false,
      "metar_trigger": false,
      "taf_trigger": false,
      "metar": "METAR LIBG 252220Z AUTO 33004KT 290V010 9999 FEW240/// 22/09 Q1024",
      "taf": "TAF LIBG 251700Z 2518/2618 32008KT CAVOK"
    },
    {
      "icao": "LIBP",
      "alert": "OK",
      "vis_m": 9999,
      "fzfg": false,
      "metar_trigger": false,
      "taf_trigger": false,
      "metar": "METAR LIBP 252220Z AUTO 25006KT 9999 NCD 18/12 Q1027",
      "taf": "TAF LIBP 251700Z 2518/2618 VRB05KT CAVOK"
    },
    {
      "icao": "LIBR",
      "alert": "OK",
      "vis_m": 9999,
      "fzfg": false,
      "metar_trigger": false,
      "taf_trigger": false,
      "metar": "METAR LIBR 252220Z 32013KT CAVOK 21/15 Q1024",
      "taf": "TAF LIBR 251700Z 2518/2618 35013KT CAVOK"
    },
    {
      "icao": "LICA",
      "alert": "OK",
      "vis_m": 1800,
      "fzfg": false,
      "metar_trigger": false,
      "taf_trigger": false,
      "metar": "METAR LICA 252220Z AUTO 09002KT 1800 BR NCD 16/15 Q1026",
      "taf": "TAF LICA 251700Z 2518/2618 VRB05KT 9999 FEW050"
    },
    {
      "icao": "LICC",
      "alert": "OK",
      "vis_m": 9999,
      "fzfg": false,
      "metar_trigger": false,
      "taf_trigger": false,
      "metar": "METAR LICC 252220Z 25004KT CAVOK 18/11 Q1025",
      "taf": "TAF LICC 251700Z 2518/2618 VRB05KT 9999 FEW060"
    },
    {
      "icao": "LICJ",
      "alert": "OK",
      "vis_m": 9999,
      "fzfg": false,
      "metar_trigger": false,
      "taf_trigger": false,
      "metar": "METAR LICJ 252220Z 19003KT CAVOK 20/18 Q1025",
      "taf": "TAF LICJ 251700Z 2518/2618 06013KT CAVOK"
    },
    {
      "icao": "LIMC",
      "alert": "OK",
      "vis_m": 9999,
      "fzfg": false,
      "metar_trigger": false,
      "taf_trigger": false,
      "metar": "METAR LIMC 252220Z 02006KT CAVOK 20/14 Q1028 NOSIG",
      "taf": "TAF LIMC 251700Z 2518/2624 VRB05KT CAVOK"
    },
    {
      "icao": "LIME",
      "alert": "OK",
      "vis_m": 9999,
      "fzfg": false,
      "metar_trigger": false,
      "taf_trigger": false,
      "metar": "METAR LIME 252220Z 01005KT CAVOK 23/14 Q1028 NOSIG",
      "taf": "TAF LIME 251700Z 2518/2618 VRB05KT 9999 FEW055"
    },
    {
      "icao": "LIMF",
      "alert": "OK",
      "vis_m": 9999,
      "fzfg": false,
      "metar_trigger": false,
      "taf_trigger": false,
      "metar": "METAR LIMF 252220Z 30004KT CAVOK 25/14 Q1028",
      "taf": "TAF LIMF 251700Z 2518/2618 VRB04KT CAVOK"
    },
    {
      "icao": "LIMJ",
      "alert": "OK",
      "vis_m": 9999,
      "fzfg": false,
      "metar_trigger": false,
      "taf_trigger": false,
      "metar": "METAR LIMJ 252220Z VRB01KT CAVOK 24/13 Q1026",
      "taf": "TAF LIMJ 251700Z 2518/2618 VRB05KT 9999 FEW030"
    },
    {
      "icao": "LIPE",
      "alert": "OK",
      "vis_m": 9999,
      "fzfg": false,
      "metar_trigger": false,
      "taf_trigger": false,
      "metar": "METAR LIPE 252220Z 19008KT 140V200 CAVOK 24/15 Q1026",
      "taf": "TAF LIPE 251700Z 2518/2618 VRB05KT CAVOK"
    },
    {
      "icao": "LIPH",
      "alert": "OK",
      "vis_m": 9999,
      "fzfg": false,
      "metar_trigger": false,
      "taf_trigger": false,
      "metar": "METAR LIPH 252220Z AUTO 01003KT 9999 NCD 22/18 Q1026",
      "taf": "TAF LIPH 251700Z 2518/2618 VRB05KT CAVOK"
    },
    {
      "icao": "LIPQ",
      "alert": "OK",
      "vis_m": 9999,
      "fzfg": false,
      "metar_trigger": false,
      "taf_trigger": false,
      "metar": "METAR LIPQ 252220Z AUTO 10003KT 9999 NCD 20/16 Q1027",
      "taf": "TAF LIPQ 251700Z 2518/2618 VRB05KT CAVOK"
    },
    {
      "icao": "LIPR",
      "alert": "OK",
      "vis_m": 9999,
      "fzfg": false,
      "metar_trigger": false,
      "taf_trigger": false,
      "metar": "METAR LIPR 252220Z AUTO 22003KT 9999 NCD 20/13 Q1027",
      "taf": "TAF LIPR 251700Z 2518/2618 VRB05KT CAVOK"
    },
    {
      "icao": "LIPX",
      "alert": "OK",
      "vis_m": 9999,
      "fzfg": false,
      "metar_trigger": false,
      "taf_trigger": false,
      "metar": "METAR LIPX 252220Z 36005KT CAVOK 22/15 Q1027",
      "taf": "TAF LIPX 251700Z 2518/2618 VRB05KT CAVOK"
    },
    {
      "icao": "LIPY",
      "alert": "OK",
      "vis_m": 9999,
      "fzfg": false,
      "metar_trigger": false,
      "taf_trigger": false,
      "metar": "METAR LIPY 252220Z AUTO 20004KT 9999 NCD 18/13 Q1027",
      "taf": "TAF LIPY 251700Z 2518/2618 VRB05KT CAVOK"
    },
    {
      "icao": "LIPZ",
      "alert": "OK",
      "vis_m": 9999,
      "fzfg": false,
      "metar_trigger": false,
      "taf_trigger": false,
      "metar": "METAR LIPZ 252220Z 24005KT CAVOK 25/18 Q1026 NOSIG",
      "taf": "TAF LIPZ 251700Z 2518/2624 17010KT CAVOK"
    },
    {
      "icao": "LIRF",
      "alert": "OK",
      "vis_m": 9999,
      "fzfg": false,
      "metar_trigger": false,
      "taf_trigger": false,
      "metar": "METAR LIRF 252220Z 12004KT CAVOK 19/18 Q1026 NOSIG",
      "taf": "TAF LIRF 251700Z 2518/2624 30010KT CAVOK"
    },
    {
      "icao": "LIRN",
      "alert": "OK",
      "vis_m": 9999,
      "fzfg": false,
      "metar_trigger": false,
      "taf_trigger": false,
      "metar": "METAR LIRN 252220Z 07008KT 040V100 CAVOK 24/09 Q1026 NOSIG",
      "taf": "TAF LIRN 251700Z 2518/2618 30010KT CAVOK"
    },
    {
      "icao": "LIRP",
      "alert": "OK",
      "vis_m": 9999,
      "fzfg": false,
      "metar_trigger": false,
      "taf_trigger": false,
      "metar": "METAR LIRP 252215Z 15004KT CAVOK 18/14 Q1027 NOSIG",
      "taf": "TAF LIRP 251700Z 2518/2618 32012KT CAVOK"
    },
    {
      "icao": "LIRZ",
      "alert": "OK",
      "vis_m": 9999,
      "fzfg": false,
      "metar_trigger": false,
      "taf_trigger": false,
      "metar": "METAR LIRZ 252220Z AUTO 01004KT 9999 NCD 18/11 Q1028",
      "taf": "TAF LIRZ 251700Z 2518/2618 05010KT CAVOK"
    },
    {
      "icao": "LJLJ",
      "alert": "OK",
      "vis_m": 9999,
      "fzfg": false,
      "metar_trigger": false,
      "taf_trigger": false,
      "metar": "METAR LJLJ 252230Z VRB02KT CAVOK 18/15 Q1029 NOSIG",
      "taf": "TAF LJLJ 251700Z 2518/2618 29004KT 9999 FEW070"
    },
    {
      "icao": "LKMT",
      "alert": "OK",
      "vis_m": 9999,
      "fzfg": false,
      "metar_trigger": false,
      "taf_trigger": false,
      "metar": "METAR LKMT 252230Z 19002KT CAVOK 14/10 Q1029 NOSIG",
      "taf": "TAF LKMT 251700Z 2518/2618 01006KT CAVOK"
    },
    {
      "icao": "LKPR",
      "alert": "OK",
      "vis_m": 9999,
      "fzfg": false,
      "metar_trigger": false,
      "taf_trigger": false,
      "metar": "METAR LKPR 252230Z 32004KT CAVOK 16/10 Q1030 NOSIG",
      "taf": "TAF LKPR 252000Z 2521/2703 34006KT CAVOK"
    },
    {
      "icao": "LLBG",
      "alert": "OK",
      "vis_m": 9999,
      "fzfg": false,
      "metar_trigger": false,
      "taf_trigger": false,
      "metar": "METAR LLBG 252220Z VRB03KT 9999 FEW025 20/15 Q1016 NOSIG",
      "taf": "TAF LLBG 251702Z 2518/2618 34005KT 9999 SCT025 TX26/2611Z TN17/2603Z"
    },
    {
      "icao": "LMML",
      "alert": "OK",
      "vis_m": 9999,
      "fzfg": false,
      "metar_trigger": false,
      "taf_trigger": false,
      "metar": "METAR LMML 252215Z 35006KT 9999 SCT006 19/18 Q1025 NOSIG",
      "taf": "TAF LMML 251700Z 2518/2618 03006KT 9999 FEW012"
    },
    {
      "icao": "LOWW",
      "alert": "OK",
      "vis_m": 9999,
      "fzfg": false,
      "metar_trigger": false,
      "taf_trigger": false,
      "metar": "METAR LOWW 252220Z 33006KT CAVOK 18/12 Q1029 NOSIG",
      "taf": "TAF LOWW 252015Z 2521/2703 35007KT CAVOK TX31/2614Z TN16/2703Z"
    },
    {
      "icao": "LPFR",
      "alert": "OK",
      "vis_m": 9999,
      "fzfg": false,
      "metar_trigger": false,
      "taf_trigger": false,
      "metar": "METAR LPFR 252230Z 07009KT CAVOK 23/13 Q1022",
      "taf": "TAF LPFR 251700Z 2518/2618 08010KT CAVOK"
    },
    {
      "icao": "LPMA",
      "alert": "OK",
      "vis_m": 9999,
      "fzfg": false,
      "metar_trigger": false,
      "taf_trigger": false,
      "metar": "METAR LPMA 252230Z 04006KT 9999 SCT013 BKN030 19/15 Q1020",
      "taf": "TAF LPMA 251700Z 2518/2618 03015KT 9999 SCT015"
    },
    {
      "icao": "LPPR",
      "alert": "OK",
      "vis_m": 7000,
      "fzfg": false,
      "metar_trigger": false,
      "taf_trigger": false,
      "metar": "METAR LPPR 252230Z 33004KT 7000 NSC 16/15 Q1023",
      "taf": "TAF LPPR 251700Z 2518/2618 VRB02KT CAVOK"
    },
    {
      "icao": "LPPS",
      "alert": "OK",
      "vis_m": 9999,
      "fzfg": false,
      "metar_trigger": false,
      "taf_trigger": false,
      "metar": "METAR LPPS 252230Z 36003KT 9999 FEW014 17/14 Q1021",
      "taf": "TAF LPPS 251700Z 2518/2624 01010KT 9999 SCT015"
    },
    {
      "icao": "LPPT",
      "alert": "OK",
      "vis_m": 9999,
      "fzfg": false,
      "metar_trigger": false,
      "taf_trigger": false,
      "metar": "METAR LPPT 252230Z VRB02KT CAVOK 19/13 Q1022",
      "taf": "TAF LPPT 251700Z 2518/2624 24008KT CAVOK"
    },
    {
      "icao": "LQBK",
      "alert": "OK",
      "vis_m": 9999,
      "fzfg": false,
      "metar_trigger": false,
      "taf_trigger": false,
      "metar": "METAR LQBK 252230Z 14003KT CAVOK 17/14 Q1027 NOSIG",
      "taf": "TAF LQBK 251700Z 2518/2618 32005KT CAVOK TX30/2614Z TN14/2604Z"
    },
    {
      "icao": "LQSA",
      "alert": "OK",
      "vis_m": 9999,
      "fzfg": false,
      "metar_trigger": false,
      "taf_trigger": false,
      "metar": "METAR LQSA 252230Z VRB02KT CAVOK 15/12 Q1029",
      "taf": "TAF LQSA 251700Z 2518/2618 VRB02KT 9999 SCT060 TX28/2614Z TN11/2604Z"
    },
    {
      "icao": "LQTZ",
      "alert": "OK",
      "vis_m": 9999,
      "fzfg": false,
      "metar_trigger": false,
      "taf_trigger": false,
      "metar": "METAR LQTZ 252230Z 33002KT 9999 SCT065 15/15 Q1027",
      "taf": "TAF LQTZ 251700Z 2518/2618 32005KT 9999 SCT055 TX29/2614Z TN14/2604Z"
    },
    {
      "icao": "LRBC",
      "alert": "OK",
      "vis_m": 9999,
      "fzfg": false,
      "metar_trigger": false,
      "taf_trigger": false,
      "metar": "METAR LRBC 252230Z 33010KT CAVOK 17/08 Q1024",
      "taf": "TAF LRBC 252000Z 2521/2606 34012KT CAVOK"
    },
    {
      "icao": "LRBS",
      "alert": "OK",
      "vis_m": 9999,
      "fzfg": false,
      "metar_trigger": false,
      "taf_trigger": false,
      "metar": "METAR LRBS 252230Z 05004KT CAVOK 19/16 Q1022 NOSIG",
      "taf": "TAF LRBS 251700Z 2518/2618 27007KT CAVOK"
    },
    {
      "icao": "LRBV",
      "alert": "OK",
      "vis_m": 9999,
      "fzfg": false,
      "metar_trigger": false,
      "taf_trigger": false,
      "metar": "METAR LRBV 252230Z AUTO 32005KT 9999 NCD 16/11 Q1025",
      "taf": "TAF LRBV 251700Z 2518/2603 30010KT 9999 SCT060"
    },
    {
      "icao": "LRCL",
      "alert": "OK",
      "vis_m": 9999,
      "fzfg": false,
      "metar_trigger": false,
      "taf_trigger": false,
      "metar": "METAR LRCL 252230Z 29004KT 240V320 CAVOK 15/10 Q1025",
      "taf": "TAF LRCL 252000Z 2521/2606 26006KT CAVOK"
    },
    {
      "icao": "LRCV",
      "alert": "OK",
      "vis_m": 9999,
      "fzfg": false,
      "metar_trigger": false,
      "taf_trigger": false,
      "metar": "METAR LRCV 252230Z 36006KT CAVOK 19/15 Q1023",
      "taf": "TAF LRCV 252000Z 2521/2606 32008KT CAVOK"
    },
    {
      "icao": "LRIA",
      "alert": "OK",
      "vis_m": 9999,
      "fzfg": false,
      "metar_trigger": false,
      "taf_trigger": false,
      "metar": "METAR LRIA 252230Z 30010KT CAVOK 16/07 Q1023",
      "taf": "TAF LRIA 252000Z 2521/2606 31008KT CAVOK"
    },
    {
      "icao": "LROP",
      "alert": "OK",
      "vis_m": 9999,
      "fzfg": false,
      "metar_trigger": false,
      "taf_trigger": false,
      "metar": "METAR LROP 252230Z 06004KT CAVOK 19/17 Q1022 NOSIG",
      "taf": "TAF LROP 251700Z 2518/2618 27007KT CAVOK"
    },
    {
      "icao": "LRSB",
      "alert": "OK",
      "vis_m": 9999,
      "fzfg": false,
      "metar_trigger": false,
      "taf_trigger": false,
      "metar": "METAR LRSB 252230Z 27009KT CAVOK 18/11 Q1025",
      "taf": "TAF LRSB 251700Z 2518/2618 31008KT 9999 SCT050"
    },
    {
      "icao": "LRSM",
      "alert": "OK",
      "vis_m": 9999,
      "fzfg": false,
      "metar_trigger": false,
      "taf_trigger": false,
      "metar": "METAR LRSM 252230Z AUTO 32006KT 9999 NCD 16/11 Q1025",
      "taf": "TAF LRSM 251400Z 2515/2524 33014KT CAVOK"
    },
    {
      "icao": "LRSV",
      "alert": "OK",
      "vis_m": 9999,
      "fzfg": false,
      "metar_trigger": false,
      "taf_trigger": false,
      "metar": "METAR LRSV 252230Z 28007KT CAVOK 15/07 Q1025",
      "taf": "TAF LRSV 252000Z 2521/2606 31012KT CAVOK"
    },
    {
      "icao": "LRTM",
      "alert": "OK",
      "vis_m": 9999,
      "fzfg": false,
      "metar_trigger": false,
      "taf_trigger": false,
      "metar": "METAR LRTM 252230Z 25006KT CAVOK 15/12 Q1024",
      "taf": "TAF LRTM 252000Z 2521/2606 25006KT CAVOK"
    },
    {
      "icao": "LRTR",
      "alert": "OK",
      "vis_m": 9999,
      "fzfg": false,
      "metar_trigger": false,
      "taf_trigger": false,
      "metar": "METAR LRTR 252230Z 36007KT CAVOK 17/14 Q1024",
      "taf": "TAF LRTR 251700Z 2518/2618 VRB04KT CAVOK"
    },
    {
      "icao": "LTAC",
      "alert": "OK",
      "vis_m": 9999,
      "fzfg": false,
      "metar_trigger": false,
      "taf_trigger": false,
      "metar": "METAR LTAC 252220Z 04003KT 010V080 CAVOK 11/09 Q1022 NOSIG RMK RWY21C VRB01KT RWY03L 04002KT RWY21R 00000KT RWY03R 12001KT RWY21L 00000KT",
      "taf": "TAF LTAC 251640Z 2518/2618 03012KT 9999 SCT040 SCT100"
    },
    {
      "icao": "LTFM",
      "alert": "OK",
      "vis_m": 9999,
      "fzfg": false,
      "metar_trigger": false,
      "taf_trigger": false,
      "metar": "METAR LTFM 252220Z 21004KT 160V270 CAVOK 17/11 Q1022 NOSIG RMK RWY17L 25003KT 160V310 RWY34L 21003KT RWY16R VRB01KT RWY36 18004KT 130V210 RWY18 22006KT 180V270",
      "taf": "TAF LTFM 251640Z 2518/2624 VRB02KT CAVOK"
    },
    {
      "icao": "LUKK",
      "alert": "OK",
      "vis_m": 9999,
      "fzfg": false,
      "metar_trigger": false,
      "taf_trigger": false,
      "metar": "METAR LUKK 252230Z 33010KT CAVOK 18/07 Q1021 NOSIG",
      "taf": "TAF LUKK 251710Z 2518/2618 31012KT CAVOK"
    },
    {
      "icao": "LWOH",
      "alert": "OK",
      "vis_m": null,
      "fzfg": false,
      "metar_trigger": false,
      "taf_trigger": false,
      "metar": "",
      "taf": "TAF LWOH 252020Z 2521/2621 34005KT 9999 FEW040 SCT090"
    },
    {
      "icao": "LWSK",
      "alert": "OK",
      "vis_m": 9999,
      "fzfg": false,
      "metar_trigger": false,
      "taf_trigger": false,
      "metar": "METAR LWSK 252220Z VRB02KT CAVOK 16/11 Q1025 NOSIG",
      "taf": "TAF LWSK 252020Z 2521/2621 VRB02KT CAVOK"
    },
    {
      "icao": "LYBE",
      "alert": "OK",
      "vis_m": 9999,
      "fzfg": false,
      "metar_trigger": false,
      "taf_trigger": false,
      "metar": "METAR LYBE 252230Z 26006KT CAVOK 20/15 Q1025 NOSIG",
      "taf": "TAF LYBE 251700Z 2518/2618 30005KT CAVOK TX32/2613Z TN16/2604Z"
    },
    {
      "icao": "LYNI",
      "alert": "OK",
      "vis_m": 9999,
      "fzfg": false,
      "metar_trigger": false,
      "taf_trigger": false,
      "metar": "METAR LYNI 252230Z 10002KT CAVOK 17/14 Q1025 NOSIG",
      "taf": "TAF LYNI 251700Z 2518/2618 06005KT CAVOK TX30/2613Z TN13/2604Z"
    },
    {
      "icao": "LYPG",
      "alert": "OK",
      "vis_m": 9999,
      "fzfg": false,
      "metar_trigger": false,
      "taf_trigger": false,
      "metar": "METAR LYPG 252230Z 35009KT CAVOK 25/10 Q1024 NOSIG",
      "taf": "TAF LYPG 251700Z 2518/2618 36008KT CAVOK TX32/2613Z TN20/2604Z"
    },
    {
      "icao": "LZIB",
      "alert": "OK",
      "vis_m": 9999,
      "fzfg": false,
      "metar_trigger": false,
      "taf_trigger": false,
      "metar": "METAR LZIB 252230Z VRB03KT CAVOK 20/11 Q1028 NOSIG",
      "taf": "TAF LZIB 251715Z 2518/2618 01010KT CAVOK"
    },
    {
      "icao": "LZKZ",
      "alert": "OK",
      "vis_m": 9999,
      "fzfg": false,
      "metar_trigger": false,
      "taf_trigger": false,
      "metar": "METAR LZKZ 252230Z 36006KT CAVOK 19/09 Q1027 NOSIG",
      "taf": "TAF LZKZ 251715Z 2518/2618 01012KT CAVOK"
    },
    {
      "icao": "LZTT",
      "alert": "OK",
      "vis_m": 9999,
      "fzfg": false,
      "metar_trigger": false,
      "taf_trigger": false,
      "metar": "METAR LZTT 252230Z VRB01KT CAVOK 09/07 Q1029",
      "taf": "TAF LZTT 251715Z 2518/2618 26005KT CAVOK"
    },
    {
      "icao": "OEJN",
      "alert": "OK",
      "vis_m": 9999,
      "fzfg": false,
      "metar_trigger": false,
      "taf_trigger": false,
      "metar": "METAR OEJN 252200Z 34008KT CAVOK 28/20 Q1007 NOSIG",
      "taf": "TAF OEJN 251700Z 2518/2624 35006KT CAVOK"
    },
    {
      "icao": "OEMA",
      "alert": "OK",
      "vis_m": 9999,
      "fzfg": false,
      "metar_trigger": false,
      "taf_trigger": false,
      "metar": "METAR OEMA 252200Z 33004KT CAVOK 34/03 Q1012 NOSIG",
      "taf": "TAF OEMA 251700Z 2518/2624 30006KT CAVOK"
    },
    {
      "icao": "OJAI",
      "alert": "OK",
      "vis_m": 5000,
      "fzfg": false,
      "metar_trigger": false,
      "taf_trigger": false,
      "metar": "METAR OJAI 252200Z 26005KT 5000 HZ NSC 14/11 Q1018 NOSIG",
      "taf": "TAF OJAI 251700Z 2518/2624 28010KT 5000 HZ NSC"
    },
    {
      "icao": "OMAA",
      "alert": "OK",
      "vis_m": 9999,
      "fzfg": false,
      "metar_trigger": false,
      "taf_trigger": false,
      "metar": "METAR OMAA 252230Z 18002KT CAVOK 30/21 Q1005 NOSIG",
      "taf": "TAF OMAA 251700Z 2518/2700 VRB02KT 8000 NSC"
    },
    {
      "icao": "OMDB",
      "alert": "OK",
      "vis_m": 9999,
      "fzfg": false,
      "metar_trigger": false,
      "taf_trigger": false,
      "metar": "METAR OMDB 252230Z 17005KT CAVOK 32/19 Q1004 NOSIG",
      "taf": "TAF OMDB 251700Z 2518/2700 18006KT 8000 NSC"
    },
    {
      "icao": "UAAA",
      "alert": "OK",
      "vis_m": 9999,
      "fzfg": false,
      "metar_trigger": false,
      "taf_trigger": false,
      "metar": "METAR UAAA 252230Z 13001MPS 9999 SCT100 BKN200 12/07 Q1012 NOSIG",
      "taf": "TAF UAAA 251702Z 2518/2618 19003MPS 9999 SCT100 TX25/2610Z TN11/2601Z"
    },
    {
      "icao": "UBBB",
      "alert": "OK",
      "vis_m": 9999,
      "fzfg": false,
      "metar_trigger": false,
      "taf_trigger": false,
      "metar": "METAR UBBB 252230Z 31008KT 9999 FEW060CB 19/13 Q1011 NOSIG",
      "taf": "TAF UBBB 251712Z 2518/2618 33018G28KT 9999 FEW040CB TX24/2610Z TN16/2501Z"
    },
    {
      "icao": "UDSG",
      "alert": "OK",
      "vis_m": 9999,
      "fzfg": false,
      "metar_trigger": false,
      "taf_trigger": false,
      "metar": "METAR UDSG 252230Z 10002KT 9999 FEW049 05/04 Q1020 NOSIG",
      "taf": "TAF UDSG 251700Z 2518/2618 36006KT 9999 SCT050"
    },
    {
      "icao": "UDYZ",
      "alert": "OK",
      "vis_m": 9999,
      "fzfg": false,
      "metar_trigger": false,
      "taf_trigger": false,
      "metar": "METAR UDYZ 252230Z 01004KT 9999 SCT043CB 12/11 Q1015 NOSIG",
      "taf": ""
    },
    {
      "icao": "UGKO",
      "alert": "OK",
      "vis_m": 9999,
      "fzfg": false,
      "metar_trigger": false,
      "taf_trigger": false,
      "metar": "METAR UGKO 252230Z 29004KT 250V320 9999 FEW010 SCT015 16/15 Q1017 NOSIG",
      "taf": "TAF UGKO 251700Z 2518/2618 27010KT 9999 BKN050 TX19/2611Z TN14/2602Z"
    }
  ]
}