{
  "ts_utc": "2026-01-20T02:52:12Z",
  "threshold_m": 150,
  "source": "stations_override.txt (ICAO list) + aviationweather.gov (METAR/TAF raw)",
  "station_count": 159,
  "stations": [
    {
      "icao": "BIKF",
      "alert": "OK",
      "vis_m": 9999,
      "fzfg": false,
      "metar_trigger": false,
      "taf_trigger": false,
      "metar": "METAR BIKF 200230Z 16013KT 140V200 9999 -SHRASN FEW010CB SCT026 BKN037 03/00 Q1000",
      "taf": "TAF BIKF 200103Z 2003/2103 15020G30KT 9999 -SHRA FEW015 BKN035 TX06/2014Z TN01/2022Z"
    },
    {
      "icao": "BKPR",
      "alert": "OK",
      "vis_m": null,
      "fzfg": false,
      "metar_trigger": false,
      "taf_trigger": false,
      "metar": "",
      "taf": "TAF BKPR 192330Z 2000/2024 35008KT CAVOK"
    },
    {
      "icao": "EBCI",
      "alert": "OK",
      "vis_m": 7000,
      "fzfg": false,
      "metar_trigger": false,
      "taf_trigger": false,
      "metar": "METAR EBCI 200220Z 19003KT 7000 NSC 02/01 Q1018 NOSIG",
      "taf": "TAF EBCI 192300Z 2000/2106 16004KT CAVOK"
    },
    {
      "icao": "EDDB",
      "alert": "OK",
      "vis_m": 9999,
      "fzfg": false,
      "metar_trigger": false,
      "taf_trigger": false,
      "metar": "METAR EDDB 200220Z AUTO 14006KT CAVOK M03/M07 Q1024 NOSIG",
      "taf": "TAF EDDB 192300Z 2000/2024 13008KT CAVOK"
    },
    {
      "icao": "EDDH",
      "alert": "OK",
      "vis_m": 9999,
      "fzfg": false,
      "metar_trigger": false,
      "taf_trigger": false,
      "metar": "METAR EDDH 200220Z AUTO 12003KT CAVOK M02/M05 Q1021 NOSIG",
      "taf": "TAF EDDH 192300Z 2000/2106 11005KT CAVOK"
    },
    {
      "icao": "EDDK",
      "alert": "OK",
      "vis_m": 7000,
      "fzfg": false,
      "metar_trigger": false,
      "taf_trigger": false,
      "metar": "METAR EDDK 200220Z AUTO 11004KT 080V140 7000 NCD M01/M02 Q1020 TEMPO BKN008",
      "taf": "TAF EDDK 192300Z 2000/2106 12008KT 9999 OVC007"
    },
    {
      "icao": "EDDN",
      "alert": "OK",
      "vis_m": 9999,
      "fzfg": false,
      "metar_trigger": false,
      "taf_trigger": false,
      "metar": "METAR EDDN 200220Z AUTO 10008KT CAVOK M04/M08 Q1021",
      "taf": "TAF EDDN 192300Z 2000/2024 11006KT CAVOK"
    },
    {
      "icao": "EDDS",
      "alert": "OK",
      "vis_m": 6000,
      "fzfg": false,
      "metar_trigger": false,
      "taf_trigger": false,
      "metar": "METAR EDDS 200220Z AUTO VRB01KT 6000 NCD M04/M05 Q1018",
      "taf": "TAF EDDS 192300Z 2000/2024 VRB03KT CAVOK"
    },
    {
      "icao": "EDFH",
      "alert": "OK",
      "vis_m": 300,
      "fzfg": true,
      "metar_trigger": false,
      "taf_trigger": false,
      "metar": "METAR EDFH 200220Z 13007KT 090V160 0300 R21/0300N FZFG VV/// M02/M02 Q1018",
      "taf": "TAF EDFH 192300Z 2000/2024 14010KT 0400 FZFG OVC001"
    },
    {
      "icao": "EDJA",
      "alert": "OK",
      "vis_m": 650,
      "fzfg": false,
      "metar_trigger": false,
      "taf_trigger": false,
      "metar": "METAR EDJA 200220Z AUTO 00000KT 0650 0450 R24/0450N // FEW003/// M06/M07 Q1019",
      "taf": "TAF EDJA 200200Z 2003/2012 VRB02KT 2500 BR SCT003"
    },
    {
      "icao": "EDLW",
      "alert": "OK",
      "vis_m": 9999,
      "fzfg": false,
      "metar_trigger": false,
      "taf_trigger": false,
      "metar": "METAR EDLW 200220Z AUTO 10004KT 9999 // NCD M01/M03 Q1019",
      "taf": "TAF EDLW 191700Z 1918/2018 14004KT CAVOK"
    },
    {
      "icao": "EDNY",
      "alert": "OK",
      "vis_m": 2000,
      "fzfg": false,
      "metar_trigger": false,
      "taf_trigger": false,
      "metar": "METAR EDNY 200220Z AUTO 01003KT 330V050 2000 1300 R06/1600U // BKN002/// OVC005/// M03/M03 Q1020",
      "taf": "TAF EDNY 200200Z 2003/2012 35002KT 1600 BR OVC002"
    },
    {
      "icao": "EDSB",
      "alert": "OK",
      "vis_m": 2600,
      "fzfg": false,
      "metar_trigger": false,
      "taf_trigger": false,
      "metar": "METAR EDSB 200220Z AUTO 02003KT 340V080 2600 OVC002/// M00/M00 Q1020",
      "taf": "TAF EDSB 192300Z 2000/2024 07005KT 3000 BR OVC003"
    },
    {
      "icao": "EETN",
      "alert": "OK",
      "vis_m": 5000,
      "fzfg": false,
      "metar_trigger": false,
      "taf_trigger": false,
      "metar": "METAR EETN 200250Z 27003KT 5000 BR OVC003 M10/M11 Q1030",
      "taf": "TAF EETN 192330Z 2000/2024 22005KT 3000 BR OVC003"
    },
    {
      "icao": "EFTU",
      "alert": "OK",
      "vis_m": 9999,
      "fzfg": false,
      "metar_trigger": false,
      "taf_trigger": false,
      "metar": "METAR EFTU 200220Z AUTO 15006KT 110V180 9999 OVC005 M02/M03 Q1028",
      "taf": "TAF EFTU 200228Z 2003/2103 14005KT 9999 BKN005"
    },
    {
      "icao": "EGBB",
      "alert": "OK",
      "vis_m": 9999,
      "fzfg": false,
      "metar_trigger": false,
      "taf_trigger": false,
      "metar": "METAR EGBB 200220Z 15008KT 9999 FEW041 07/06 Q1010",
      "taf": "TAF EGBB 192259Z 2000/2024 15010KT 9999 BKN024"
    },
    {
      "icao": "EGGP",
      "alert": "OK",
      "vis_m": 6000,
      "fzfg": false,
      "metar_trigger": false,
      "taf_trigger": false,
      "metar": "METAR EGGP 200220Z AUTO 13003KT 6000 BKN010/// 06/05 Q1008",
      "taf": "TAF EGGP 192303Z 2000/2024 15008KT 9999 FEW010 SCT020"
    },
    {
      "icao": "EGGW",
      "alert": "OK",
      "vis_m": 9999,
      "fzfg": false,
      "metar_trigger": false,
      "taf_trigger": false,
      "metar": "METAR EGGW 200220Z AUTO 17009KT 140V200 9999 SCT007 BKN012 BKN016 08/07 Q1011",
      "taf": "TAF EGGW 192305Z 2000/2024 16010KT 9999 BKN006"
    },
    {
      "icao": "EGKK",
      "alert": "OK",
      "vis_m": 9999,
      "fzfg": false,
      "metar_trigger": false,
      "taf_trigger": false,
      "metar": "METAR EGKK 200220Z AUTO 16006KT 110V190 9999 BKN009/// BKN013/// 09/08 Q1012",
      "taf": "TAF EGKK 192301Z 2000/2106 14005KT 9999 SCT012 BKN020"
    },
    {
      "icao": "EGNM",
      "alert": "OK",
      "vis_m": null,
      "fzfg": false,
      "metar_trigger": false,
      "taf_trigger": false,
      "metar": "",
      "taf": "TAF EGNM 192300Z 2000/2024 14007KT 0300 FG VV///"
    },
    {
      "icao": "EGPD",
      "alert": "OK",
      "vis_m": 1400,
      "fzfg": false,
      "metar_trigger": false,
      "taf_trigger": false,
      "metar": "METAR EGPD 200220Z AUTO 15007KT 1400 R16/1200N BR OVC001 07/07 Q1010 TEMPO 0600 FG",
      "taf": "TAF EGPD 192258Z 2000/2024 VRB04KT 1200 BR BKN002"
    },
    {
      "icao": "EGPF",
      "alert": "OK",
      "vis_m": 7000,
      "fzfg": false,
      "metar_trigger": false,
      "taf_trigger": false,
      "metar": "METAR EGPF 200220Z AUTO 08007KT 7000 SCT026 BKN045 05/04 Q1008",
      "taf": "TAF EGPF 192301Z 2000/2024 08006KT 3000 BR BKN003"
    },
    {
      "icao": "EHBK",
      "alert": "OK",
      "vis_m": 9999,
      "fzfg": false,
      "metar_trigger": false,
      "taf_trigger": false,
      "metar": "METAR EHBK 200225Z AUTO 11003KT 9999 NCD M00/M01 Q1018",
      "taf": "TAF EHBK 192317Z 2000/2106 12003KT CAVOK"
    },
    {
      "icao": "EHEH",
      "alert": "OK",
      "vis_m": 5000,
      "fzfg": false,
      "metar_trigger": false,
      "taf_trigger": false,
      "metar": "METAR EHEH 200225Z AUTO 12005KT 090V150 5000 BR NCD 00/M01 Q1018 WHT",
      "taf": "TAF EHEH 192315Z 2000/2106 14004KT 7000 NSC"
    },
    {
      "icao": "EKBI",
      "alert": "OK",
      "vis_m": 6000,
      "fzfg": false,
      "metar_trigger": false,
      "taf_trigger": false,
      "metar": "METAR EKBI 200220Z AUTO 08006KT 6000 NCD M03/M04 Q1021",
      "taf": "TAF EKBI 200227Z 2003/2103 10004KT 6000 NSC"
    },
    {
      "icao": "EKCH",
      "alert": "OK",
      "vis_m": 9999,
      "fzfg": false,
      "metar_trigger": false,
      "taf_trigger": false,
      "metar": "METAR EKCH 200220Z AUTO 16007KT 9999 NCD 01/M03 Q1023 NOSIG",
      "taf": "TAF EKCH 200227Z 2003/2103 15008KT CAVOK"
    },
    {
      "icao": "ENAL",
      "alert": "OK",
      "vis_m": 9999,
      "fzfg": false,
      "metar_trigger": false,
      "taf_trigger": false,
      "metar": "METAR ENAL 200220Z AUTO 26005KT 9999 FEW011/// SCT017/// 03/02 Q1020",
      "taf": "TAF ENAL 200200Z 2003/2012 24005KT CAVOK"
    },
    {
      "icao": "ENBR",
      "alert": "OK",
      "vis_m": 9999,
      "fzfg": false,
      "metar_trigger": false,
      "taf_trigger": false,
      "metar": "METAR ENBR 200220Z 00000KT 9999 BKN018 01/01 Q1021 RMK WIND 1200FT VRB02KT",
      "taf": "TAF ENBR 192300Z 2000/2024 12005KT 9999 FEW007 SCT050"
    },
    {
      "icao": "ENGM",
      "alert": "OK",
      "vis_m": 9999,
      "fzfg": false,
      "metar_trigger": false,
      "taf_trigger": false,
      "metar": "METAR ENGM 200220Z 11003KT 080V150 9999 OVC012 M02/M04 Q1024",
      "taf": "TAF ENGM 192300Z 2000/2024 03005KT 9999 BKN018"
    },
    {
      "icao": "ENHD",
      "alert": "OK",
      "vis_m": 9999,
      "fzfg": false,
      "metar_trigger": false,
      "taf_trigger": false,
      "metar": "METAR ENHD 200220Z AUTO 12005KT 9999 NCD M01/M02 Q1020",
      "taf": "TAF ENHD 200200Z 2003/2012 16008KT 9999 FEW050"
    },
    {
      "icao": "ENTC",
      "alert": "WARNING",
      "vis_m": 150,
      "fzfg": true,
      "metar_trigger": false,
      "taf_trigger": true,
      "metar": "METAR ENTC 200220Z VRB01KT 0150 R36/0550N R18/0650N FZFG VV001 M03/M03 Q1027 RMK WIND 2600FT 09007KT",
      "taf": "TAF ENTC 192300Z 2000/2024 VRB02KT 0100 FZFG VV000"
    },
    {
      "icao": "ENTO",
      "alert": "OK",
      "vis_m": 9999,
      "fzfg": false,
      "metar_trigger": false,
      "taf_trigger": false,
      "metar": "METAR ENTO 200220Z AUTO 04004KT 010V070 9999 OVC015/// M01/M03 Q1025",
      "taf": "TAF ENTO 192300Z 2000/2024 03005KT 9999 BKN012"
    },
    {
      "icao": "ENVA",
      "alert": "OK",
      "vis_m": 9999,
      "fzfg": false,
      "metar_trigger": false,
      "taf_trigger": false,
      "metar": "METAR ENVA 200220Z AUTO 11007KT 9999 NCD M01/M05 Q1023 RMK WIND 670FT 10010KT",
      "taf": "TAF ENVA 192300Z 2000/2024 09005KT CAVOK"
    },
    {
      "icao": "ENZV",
      "alert": "OK",
      "vis_m": 9999,
      "fzfg": false,
      "metar_trigger": false,
      "taf_trigger": false,
      "metar": "METAR ENZV 200220Z AUTO VRB02KT 9999 NCD M03/M04 Q1021",
      "taf": "TAF ENZV 191700Z 1918/2018 12005KT CAVOK"
    },
    {
      "icao": "EPGD",
      "alert": "OK",
      "vis_m": 4300,
      "fzfg": false,
      "metar_trigger": false,
      "taf_trigger": false,
      "metar": "METAR EPGD 200230Z 20003KT 4300 BR NSC M08/M10 Q1027",
      "taf": "TAF EPGD 192330Z 2000/2024 17005KT 7000 NSC"
    },
    {
      "icao": "EPKK",
      "alert": "OK",
      "vis_m": 2600,
      "fzfg": false,
      "metar_trigger": false,
      "taf_trigger": false,
      "metar": "METAR EPKK 200230Z 04003KT 2600 BR NSC M13/M16 Q1031",
      "taf": "TAF EPKK 200230Z 2003/2103 VRB02KT 2500 BR NSC"
    },
    {
      "icao": "EPKT",
      "alert": "OK",
      "vis_m": 5000,
      "fzfg": false,
      "metar_trigger": false,
      "taf_trigger": false,
      "metar": "METAR EPKT 200230Z 16006KT 5000 BR NSC M07/M10 Q1030",
      "taf": "TAF EPKT 192330Z 2000/2024 10003KT 3500 BR NSC"
    },
    {
      "icao": "EPLB",
      "alert": "OK",
      "vis_m": 3700,
      "fzfg": false,
      "metar_trigger": false,
      "taf_trigger": false,
      "metar": "METAR EPLB 200230Z VRB01KT 3700 BR NSC M16/M17 Q1032",
      "taf": "TAF EPLB 192330Z 2000/2024 VRB04KT CAVOK"
    },
    {
      "icao": "EPMO",
      "alert": "OK",
      "vis_m": 2800,
      "fzfg": false,
      "metar_trigger": false,
      "taf_trigger": false,
      "metar": "METAR EPMO 200230Z 09004KT 060V120 2800 BR NSC M16/M17 Q1032",
      "taf": "TAF EPMO 192330Z 2000/2024 12005KT 7000 NSC"
    },
    {
      "icao": "EPPO",
      "alert": "OK",
      "vis_m": 9999,
      "fzfg": false,
      "metar_trigger": false,
      "taf_trigger": false,
      "metar": "METAR EPPO 200230Z 14008KT CAVOK M04/M08 Q1027",
      "taf": "TAF EPPO 192330Z 2000/2024 15006KT CAVOK"
    },
    {
      "icao": "EPRA",
      "alert": "OK",
      "vis_m": 8000,
      "fzfg": false,
      "metar_trigger": false,
      "taf_trigger": false,
      "metar": "METAR EPRA 200230Z 15004KT 130V190 8000 NSC M12/M14 Q1032",
      "taf": "TAF EPRA 200230Z 2003/2012 16005KT CAVOK"
    },
    {
      "icao": "EPRZ",
      "alert": "OK",
      "vis_m": 2500,
      "fzfg": false,
      "metar_trigger": false,
      "taf_trigger": false,
      "metar": "METAR EPRZ 200230Z 08003KT 2500 BR NSC M14/M16 Q1033",
      "taf": "TAF EPRZ 192330Z 2000/2024 08005KT 3500 BR NSC"
    },
    {
      "icao": "EPSC",
      "alert": "OK",
      "vis_m": 9999,
      "fzfg": false,
      "metar_trigger": false,
      "taf_trigger": false,
      "metar": "METAR EPSC 200230Z 13011KT CAVOK M03/M06 Q1025",
      "taf": "TAF EPSC 192330Z 2000/2024 14010KT CAVOK"
    },
    {
      "icao": "EPSY",
      "alert": "OK",
      "vis_m": 5000,
      "fzfg": false,
      "metar_trigger": false,
      "taf_trigger": false,
      "metar": "METAR EPSY 200230Z VRB01KT 5000 BR NSC M20/M22 Q1031",
      "taf": "TAF EPSY 200230Z 2003/2012 VRB02KT 6000 NSC"
    },
    {
      "icao": "EPWA",
      "alert": "OK",
      "vis_m": 4800,
      "fzfg": false,
      "metar_trigger": false,
      "taf_trigger": false,
      "metar": "METAR EPWA 200230Z 14005KT 4800 BR NSC M13/M14 Q1032 NOSIG",
      "taf": "TAF EPWA 200230Z 2003/2103 13004KT 6000 NSC"
    },
    {
      "icao": "EPWR",
      "alert": "OK",
      "vis_m": 9999,
      "fzfg": false,
      "metar_trigger": false,
      "taf_trigger": false,
      "metar": "METAR EPWR 200230Z 13011KT CAVOK M03/M08 Q1027",
      "taf": "TAF EPWR 200230Z 2003/2103 13010KT CAVOK"
    },
    {
      "icao": "ESGG",
      "alert": "OK",
      "vis_m": 5000,
      "fzfg": false,
      "metar_trigger": false,
      "taf_trigger": false,
      "metar": "METAR ESGG 200220Z 10006KT 5000 BR OVC004 M03/M03 Q1023",
      "taf": "TAF ESGG 200230Z 2003/2103 11007KT 6000 OVC003"
    },
    {
      "icao": "ESKN",
      "alert": "OK",
      "vis_m": 5000,
      "fzfg": false,
      "metar_trigger": false,
      "taf_trigger": false,
      "metar": "METAR ESKN 200220Z VRB01KT 5000 BR OVC004 M01/M01 Q1026",
      "taf": "TAF ESKN 200230Z 2003/2103 18006KT 8000 OVC004"
    },
    {
      "icao": "ESMS",
      "alert": "OK",
      "vis_m": 9999,
      "fzfg": false,
      "metar_trigger": false,
      "taf_trigger": false,
      "metar": "METAR ESMS 200220Z 14006KT CAVOK M01/M03 Q1023",
      "taf": "TAF ESMS 200227Z 2003/2103 14008KT CAVOK"
    },
    {
      "icao": "ESSA",
      "alert": "OK",
      "vis_m": 9999,
      "fzfg": false,
      "metar_trigger": false,
      "taf_trigger": false,
      "metar": "METAR ESSA 200220Z 22003KT 9999 BKN011 M00/M02 Q1026 NOSIG",
      "taf": "TAF ESSA 200230Z 2003/2103 19005KT 9999 OVC010"
    },
    {
      "icao": "EYKA",
      "alert": "OK",
      "vis_m": 7000,
      "fzfg": false,
      "metar_trigger": false,
      "taf_trigger": false,
      "metar": "METAR EYKA 200250Z VRB02KT 7000 NSC M15/M17 Q1032",
      "taf": "TAF EYKA 192300Z 2000/2024 VRB04KT 5000 BR NSC"
    },
    {
      "icao": "EYPA",
      "alert": "OK",
      "vis_m": 8000,
      "fzfg": false,
      "metar_trigger": false,
      "taf_trigger": false,
      "metar": "METAR EYPA 200250Z 15007KT 8000 NSC M13/M15 Q1029",
      "taf": "TAF EYPA 192300Z 2000/2024 15008KT 9000 NSC"
    },
    {
      "icao": "EYVI",
      "alert": "OK",
      "vis_m": 6000,
      "fzfg": false,
      "metar_trigger": false,
      "taf_trigger": false,
      "metar": "METAR EYVI 200250Z 18008KT 6000 NSC M16/M18 Q1031 NOSIG",
      "taf": "TAF EYVI 192300Z 2000/2024 18008KT 5000 BR NSC"
    },
    {
      "icao": "GCFV",
      "alert": "OK",
      "vis_m": 9999,
      "fzfg": false,
      "metar_trigger": false,
      "taf_trigger": false,
      "metar": "METAR GCFV 200230Z AUTO 02018KT 9999 FEW034 16/09 Q1023",
      "taf": "TAF GCFV 200200Z 2003/2103 36009KT 9999 SCT035 TX21/2014Z TN14/2006Z"
    },
    {
      "icao": "GCLP",
      "alert": "OK",
      "vis_m": 9999,
      "fzfg": false,
      "metar_trigger": false,
      "taf_trigger": false,
      "metar": "METAR GCLP 200230Z 36013KT 9999 FEW030 BKN047 16/10 Q1023 NOSIG",
      "taf": "TAF GCLP 200200Z 2003/2103 02015KT 9999 BKN035 TX20/2014Z TN16/2006Z"
    },
    {
      "icao": "GCTS",
      "alert": "OK",
      "vis_m": 9999,
      "fzfg": false,
      "metar_trigger": false,
      "taf_trigger": false,
      "metar": "METAR GCTS 200230Z 03010KT 9999 FEW040 16/05 Q1024 NOSIG",
      "taf": "TAF GCTS 200200Z 2003/2103 03008KT 9999 SCT040 TX22/2014Z TN14/2006Z"
    },
    {
      "icao": "GMAD",
      "alert": "OK",
      "vis_m": 9999,
      "fzfg": false,
      "metar_trigger": false,
      "taf_trigger": false,
      "metar": "METAR GMAD 200230Z 05003KT CAVOK 06/05 Q1019 NOSIG",
      "taf": "TAF GMAD 192300Z 2000/2106 06008KT 8000 SCT020"
    },
    {
      "icao": "GMMN",
      "alert": "OK",
      "vis_m": 9999,
      "fzfg": false,
      "metar_trigger": false,
      "taf_trigger": false,
      "metar": "METAR GMMN 200230Z 19007KT 9999 SCT030 05/04 Q1022 NOSIG",
      "taf": ""
    },
    {
      "icao": "GMMX",
      "alert": "OK",
      "vis_m": 9999,
      "fzfg": false,
      "metar_trigger": false,
      "taf_trigger": false,
      "metar": "METAR GMMX 200230Z 17005KT CAVOK 06/05 Q1023 NOSIG",
      "taf": "TAF GMMX 192300Z 2000/2106 06006KT 8000 NSC"
    },
    {
      "icao": "HEGN",
      "alert": "OK",
      "vis_m": null,
      "fzfg": false,
      "metar_trigger": false,
      "taf_trigger": false,
      "metar": "",
      "taf": "TAF HEGN 192300Z 2000/2106 30012KT CAVOK"
    },
    {
      "icao": "HEMA",
      "alert": "OK",
      "vis_m": null,
      "fzfg": false,
      "metar_trigger": false,
      "taf_trigger": false,
      "metar": "",
      "taf": "TAF HEMA 192300Z 2000/2106 31012KT CAVOK"
    },
    {
      "icao": "HESH",
      "alert": "OK",
      "vis_m": null,
      "fzfg": false,
      "metar_trigger": false,
      "taf_trigger": false,
      "metar": "",
      "taf": "TAF HESH 192300Z 2000/2106 33010KT CAVOK"
    },
    {
      "icao": "HESX",
      "alert": "OK",
      "vis_m": null,
      "fzfg": false,
      "metar_trigger": false,
      "taf_trigger": false,
      "metar": "",
      "taf": "TAF HESX 192300Z 2000/2106 01008KT CAVOK"
    },
    {
      "icao": "LATI",
      "alert": "OK",
      "vis_m": 9999,
      "fzfg": false,
      "metar_trigger": false,
      "taf_trigger": false,
      "metar": "METAR LATI 200250Z 04003KT CAVOK M03/M06 Q1027 NOSIG",
      "taf": "TAF LATI 192300Z 2000/2024 VRB05KT CAVOK TX13/2012Z TNM04/2005Z"
    },
    {
      "icao": "LBPD",
      "alert": "OK",
      "vis_m": 9999,
      "fzfg": false,
      "metar_trigger": false,
      "taf_trigger": false,
      "metar": "METAR LBPD 200230Z AUTO 27003KT 9999 NCD M06/M08 Q1036",
      "taf": "TAF LBPD 192300Z 2000/2024 VRB03KT 9999 SCT040"
    },
    {
      "icao": "LBSF",
      "alert": "OK",
      "vis_m": 9999,
      "fzfg": false,
      "metar_trigger": false,
      "taf_trigger": false,
      "metar": "METAR LBSF 200230Z AUTO 30002KT 9999 NCD M09/M10 Q1034 NOSIG",
      "taf": "TAF LBSF 192300Z 2000/2024 11010KT 9999 SCT050"
    },
    {
      "icao": "LBWN",
      "alert": "OK",
      "vis_m": 8000,
      "fzfg": false,
      "metar_trigger": false,
      "taf_trigger": false,
      "metar": "METAR LBWN 200230Z AUTO 28004KT 240V350 8000 FEW016/// M07/M09 Q1036 NOSIG",
      "taf": "TAF LBWN 192300Z 2000/2024 30010KT 9999 BKN010"
    },
    {
      "icao": "LCLK",
      "alert": "OK",
      "vis_m": 9999,
      "fzfg": false,
      "metar_trigger": false,
      "taf_trigger": false,
      "metar": "METAR LCLK 200230Z 32004KT CAVOK 04/M01 Q1023 NOSIG",
      "taf": "TAF LCLK 192330Z 2000/2100 34009KT 9999 FEW030"
    },
    {
      "icao": "LCPH",
      "alert": "OK",
      "vis_m": 9999,
      "fzfg": false,
      "metar_trigger": false,
      "taf_trigger": false,
      "metar": "METAR LCPH 200230Z AUTO 01007KT 9999 NCD 06/M02 Q1022 NOSIG",
      "taf": "TAF LCPH 192330Z 2000/2100 06008KT 9999 FEW030 SCT045"
    },
    {
      "icao": "LEAL",
      "alert": "OK",
      "vis_m": 9999,
      "fzfg": false,
      "metar_trigger": false,
      "taf_trigger": false,
      "metar": "METAR LEAL 200230Z 29011KT 9999 BKN045 12/04 Q1011 NOSIG",
      "taf": ""
    },
    {
      "icao": "LEBB",
      "alert": "OK",
      "vis_m": 9999,
      "fzfg": false,
      "metar_trigger": false,
      "taf_trigger": false,
      "metar": "METAR LEBB 200230Z AUTO 08005KT CAVOK 04/04 Q1019",
      "taf": "TAF LEBB 192300Z 2000/2024 20005KT 9999 BKN030 TX13/2013Z TN02/2007Z"
    },
    {
      "icao": "LEBL",
      "alert": "OK",
      "vis_m": 9999,
      "fzfg": false,
      "metar_trigger": false,
      "taf_trigger": false,
      "metar": "METAR LEBL 200230Z 02018KT 9999 -RA FEW020 BKN050 10/08 Q1012 NOSIG",
      "taf": "TAF LEBL 192300Z 2000/2024 01013KT 9999 SCT020 BKN030 TX14/2013Z TN09/2006Z"
    },
    {
      "icao": "LECH",
      "alert": "OK",
      "vis_m": 9999,
      "fzfg": false,
      "metar_trigger": false,
      "taf_trigger": false,
      "metar": "METAR LECH 200230Z AUTO 02009KT 340V050 9999 BKN048 09/04 Q1013",
      "taf": ""
    },
    {
      "icao": "LEMD",
      "alert": "OK",
      "vis_m": 9999,
      "fzfg": false,
      "metar_trigger": false,
      "taf_trigger": false,
      "metar": "METAR LEMD 200230Z 31002KT CAVOK M01/M02 Q1017 NOSIG",
      "taf": "TAF LEMD 192300Z 2000/2106 VRB03KT CAVOK TX12/2014Z TNM03/2006Z"
    },
    {
      "icao": "LEMG",
      "alert": "OK",
      "vis_m": 9999,
      "fzfg": false,
      "metar_trigger": false,
      "taf_trigger": false,
      "metar": "METAR LEMG 200230Z 30016KT CAVOK 09/03 Q1017 NOSIG",
      "taf": "TAF LEMG 192300Z 2000/2024 29012KT CAVOK TX14/2014Z TN06/2006Z"
    },
    {
      "icao": "LEVC",
      "alert": "OK",
      "vis_m": 9999,
      "fzfg": false,
      "metar_trigger": false,
      "taf_trigger": false,
      "metar": "METAR LEVC 200230Z 24004KT 9999 BKN052 09/06 Q1013 NOSIG",
      "taf": "TAF LEVC 192300Z 2000/2024 31007KT 9999 SCT035 TX15/2013Z TN07/2006Z"
    },
    {
      "icao": "LEXJ",
      "alert": "OK",
      "vis_m": 9999,
      "fzfg": false,
      "metar_trigger": false,
      "taf_trigger": false,
      "metar": "METAR LEXJ 200230Z AUTO VRB03KT CAVOK 06/01 Q1018",
      "taf": "TAF LEXJ 200200Z 2003/2103 22009KT 9999 SCT040 TX13/2014Z TN05/2008Z"
    },
    {
      "icao": "LEZG",
      "alert": "OK",
      "vis_m": 9999,
      "fzfg": false,
      "metar_trigger": false,
      "taf_trigger": false,
      "metar": "METAR LEZG 200230Z 28011KT 9999 FEW065 07/04 Q1016 NOSIG",
      "taf": "TAF LEZG 192300Z 2000/2024 30010KT 9999 SCT030 TX10/2015Z TN03/2006Z"
    },
    {
      "icao": "LEZL",
      "alert": "OK",
      "vis_m": 9999,
      "fzfg": false,
      "metar_trigger": false,
      "taf_trigger": false,
      "metar": "METAR LEZL 200230Z AUTO VRB01KT CAVOK 04/04 Q1019",
      "taf": "TAF LEZL 200200Z 2003/2103 VRB04KT CAVOK TX15/2015Z TN03/2007Z"
    },
    {
      "icao": "LFBD",
      "alert": "OK",
      "vis_m": 650,
      "fzfg": false,
      "metar_trigger": false,
      "taf_trigger": false,
      "metar": "METAR LFBD 200230Z AUTO VRB01KT 0650 0400 R23/0750D R05/0800N R29/0700D FG FEW003 04/04 Q1017 TEMPO 0500 FG VV///",
      "taf": "TAF LFBD 192300Z 2000/2106 VRB03KT 8000 NSC TX12/2013Z TN05/2005Z"
    },
    {
      "icao": "LFLL",
      "alert": "OK",
      "vis_m": 550,
      "fzfg": false,
      "metar_trigger": false,
      "taf_trigger": false,
      "metar": "METAR LFLL 200230Z VRB03KT 0550 R35L/0600D R17R/0600N R35R/0700N R17L/0600N FG VV/// 01/01 Q1019 NOSIG",
      "taf": "TAF LFLL 192300Z 2000/2106 VRB02KT 0600 FG VV///"
    },
    {
      "icao": "LFLS",
      "alert": "OK",
      "vis_m": 2500,
      "fzfg": false,
      "metar_trigger": false,
      "taf_trigger": false,
      "metar": "METAR LFLS 200230Z AUTO 00000KT 2500 BR VV/// M01/M01 Q1018 TEMPO 0400 FG",
      "taf": "TAF LFLS 200200Z 2003/2103 09005KT 2000 BR NSC"
    },
    {
      "icao": "LFMN",
      "alert": "OK",
      "vis_m": 9999,
      "fzfg": false,
      "metar_trigger": false,
      "taf_trigger": false,
      "metar": "METAR LFMN 200230Z 03009KT 9999 BKN100 11/M01 Q1018 NOSIG",
      "taf": "TAF LFMN 200200Z 2003/2109 06015KT 9999 BKN100"
    },
    {
      "icao": "LFOB",
      "alert": "OK",
      "vis_m": 7000,
      "fzfg": false,
      "metar_trigger": false,
      "taf_trigger": false,
      "metar": "METAR LFOB 200230Z AUTO 11009KT 7000 NSC 05/05 Q1016 TEMPO 0700 FG BKN001",
      "taf": "TAF LFOB 192300Z 2000/2024 10005KT 8000 NSC"
    },
    {
      "icao": "LFPO",
      "alert": "OK",
      "vis_m": 9999,
      "fzfg": false,
      "metar_trigger": false,
      "taf_trigger": false,
      "metar": "METAR LFPO 200230Z AUTO 13005KT 100V160 CAVOK 07/06 Q1017",
      "taf": "TAF LFPO 191700Z 1918/2024 11005KT CAVOK"
    },
    {
      "icao": "LFSB",
      "alert": "OK",
      "vis_m": 7000,
      "fzfg": true,
      "metar_trigger": false,
      "taf_trigger": false,
      "metar": "METAR LFSB 200230Z AUTO 15003KT 7000 OVC004 00/M00 Q1020 TEMPO 0300 FZFG VV///",
      "taf": ""
    },
    {
      "icao": "LGAV",
      "alert": "OK",
      "vis_m": 9999,
      "fzfg": false,
      "metar_trigger": false,
      "taf_trigger": false,
      "metar": "METAR LGAV 200220Z 03011G21KT 340V070 9999 FEW020 BKN035 06/00 Q1030 NOSIG",
      "taf": "TAF LGAV 192300Z 2000/2024 03015KT 9999 SCT020 BKN040"
    },
    {
      "icao": "LGTS",
      "alert": "OK",
      "vis_m": 9999,
      "fzfg": false,
      "metar_trigger": false,
      "taf_trigger": false,
      "metar": "METAR LGTS 200220Z VRB03KT CAVOK M01/M05 Q1035 NOSIG",
      "taf": "TAF LGTS 192300Z 2000/2024 11010KT 9999 SCT030"
    },
    {
      "icao": "LHBP",
      "alert": "OK",
      "vis_m": 1400,
      "fzfg": true,
      "metar_trigger": false,
      "taf_trigger": false,
      "metar": "METAR LHBP 200230Z 08003KT 050V110 1400 R13R/P2000N R13L/P2000N BR OVC002 M09/M10 Q1036 TEMPO 0700 FZFG",
      "taf": "TAF LHBP 192315Z 2000/2024 04005KT 5000 BR BKN006"
    },
    {
      "icao": "LHDC",
      "alert": "OK",
      "vis_m": 1800,
      "fzfg": false,
      "metar_trigger": false,
      "taf_trigger": false,
      "metar": "METAR LHDC 200215Z AUTO 05004KT 010V110 1800 BR VV002 M07/M07 Q1036",
      "taf": "TAF LHDC 191715Z 1918/2003 VRB02KT 3000 BR OVC002"
    },
    {
      "icao": "LIBD",
      "alert": "OK",
      "vis_m": 9999,
      "fzfg": false,
      "metar_trigger": false,
      "taf_trigger": false,
      "metar": "METAR LIBD 200220Z AUTO 13006KT 9999 BKN220/// 07/02 Q1024",
      "taf": "TAF LIBD 192300Z 2000/2024 16008KT 9999 SCT040"
    },
    {
      "icao": "LIBG",
      "alert": "OK",
      "vis_m": null,
      "fzfg": false,
      "metar_trigger": false,
      "taf_trigger": false,
      "metar": "",
      "taf": "TAF LIBG 191700Z 1918/2003 11008KT 9999 SCT030"
    },
    {
      "icao": "LIBP",
      "alert": "OK",
      "vis_m": 9999,
      "fzfg": false,
      "metar_trigger": false,
      "taf_trigger": false,
      "metar": "METAR LIBP 200220Z AUTO 09003KT 9999 OVC050/// 09/08 Q1024",
      "taf": "TAF LIBP 192300Z 2000/2024 VRB05KT 9999 BKN030"
    },
    {
      "icao": "LIBR",
      "alert": "OK",
      "vis_m": 9999,
      "fzfg": false,
      "metar_trigger": false,
      "taf_trigger": false,
      "metar": "METAR LIBR 200220Z 19005KT 9999 SCT040 08/02 Q1025",
      "taf": "TAF LIBR 192300Z 2000/2024 VRB05KT 9999 SCT040"
    },
    {
      "icao": "LICA",
      "alert": "OK",
      "vis_m": 9999,
      "fzfg": false,
      "metar_trigger": false,
      "taf_trigger": false,
      "metar": "METAR LICA 200220Z AUTO 06022G32KT 9999 -DZRA FEW036/// OVC084/// 11/07 Q1018",
      "taf": "TAF LICA 192300Z 2000/2024 09024G40KT 9999 SCT020 BKN060"
    },
    {
      "icao": "LICC",
      "alert": "OK",
      "vis_m": 9999,
      "fzfg": false,
      "metar_trigger": false,
      "taf_trigger": false,
      "metar": "METAR LICC 200220Z 09027KT 9999 -RA BKN020 BKN050 13/11 Q1015 RERA",
      "taf": "TAF LICC 192300Z 2000/2024 10023G40KT 4000 RA BKN015"
    },
    {
      "icao": "LICJ",
      "alert": "OK",
      "vis_m": 9999,
      "fzfg": false,
      "metar_trigger": false,
      "taf_trigger": false,
      "metar": "METAR LICJ 200220Z 09024G38KT 060V120 9999 SCT040 BKN070 16/06 Q1010",
      "taf": "TAF LICJ 192300Z 2000/2024 10025G45KT 9999 SCT040 BKN060"
    },
    {
      "icao": "LIMC",
      "alert": "OK",
      "vis_m": 9999,
      "fzfg": false,
      "metar_trigger": false,
      "taf_trigger": false,
      "metar": "METAR LIMC 200220Z 02003KT 9999 BKN077 01/M00 Q1027 NOSIG",
      "taf": "TAF LIMC 191700Z 1918/2024 VRB04KT 9999 SCT050 SCT090"
    },
    {
      "icao": "LIME",
      "alert": "OK",
      "vis_m": 9999,
      "fzfg": false,
      "metar_trigger": false,
      "taf_trigger": false,
      "metar": "METAR LIME 200220Z 05001KT 9999 SCT060 03/01 Q1027 NOSIG",
      "taf": "TAF LIME 192300Z 2000/2024 VRB04KT 9999 BKN040"
    },
    {
      "icao": "LIMF",
      "alert": "OK",
      "vis_m": 9999,
      "fzfg": false,
      "metar_trigger": false,
      "taf_trigger": false,
      "metar": "METAR LIMF 200220Z 29004KT CAVOK 02/M01 Q1027",
      "taf": "TAF LIMF 192300Z 2000/2024 VRB04KT 9999 BKN060"
    },
    {
      "icao": "LIMJ",
      "alert": "OK",
      "vis_m": 9999,
      "fzfg": false,
      "metar_trigger": false,
      "taf_trigger": false,
      "metar": "METAR LIMJ 200220Z AUTO 03009KT 9999 BKN100/// BKN140/// 07/M00 Q1023",
      "taf": "TAF LIMJ 192300Z 2000/2024 02015KT CAVOK"
    },
    {
      "icao": "LIPE",
      "alert": "OK",
      "vis_m": 5000,
      "fzfg": false,
      "metar_trigger": false,
      "taf_trigger": false,
      "metar": "METAR LIPE 200220Z 29002KT 5000 BR FEW024 BKN028 03/00 Q1027",
      "taf": "TAF LIPE 192300Z 2000/2024 28006KT 8000 BKN020"
    },
    {
      "icao": "LIPH",
      "alert": "OK",
      "vis_m": 9999,
      "fzfg": false,
      "metar_trigger": false,
      "taf_trigger": false,
      "metar": "METAR LIPH 200220Z AUTO 03004KT 9999 NCD M00/M06 Q1028",
      "taf": "TAF LIPH 192300Z 2000/2024 06008KT CAVOK"
    },
    {
      "icao": "LIPQ",
      "alert": "OK",
      "vis_m": 9999,
      "fzfg": false,
      "metar_trigger": false,
      "taf_trigger": false,
      "metar": "METAR LIPQ 200220Z AUTO 05003KT 360V140 9999 NCD M00/M09 Q1028",
      "taf": "TAF LIPQ 192300Z 2000/2024 VRB05KT CAVOK"
    },
    {
      "icao": "LIPR",
      "alert": "OK",
      "vis_m": 9999,
      "fzfg": false,
      "metar_trigger": false,
      "taf_trigger": false,
      "metar": "METAR LIPR 200220Z AUTO 10010KT 9999 OVC062/// 10/04 Q1025",
      "taf": "TAF LIPR 192300Z 2000/2024 10012KT 9999 BKN030"
    },
    {
      "icao": "LIPX",
      "alert": "OK",
      "vis_m": 9999,
      "fzfg": false,
      "metar_trigger": false,
      "taf_trigger": false,
      "metar": "METAR LIPX 200220Z VRB02KT 9999 BKN050 03/M06 Q1027",
      "taf": "TAF LIPX 192300Z 2000/2024 VRB05KT 9999 SCT050"
    },
    {
      "icao": "LIPY",
      "alert": "OK",
      "vis_m": 9999,
      "fzfg": false,
      "metar_trigger": false,
      "taf_trigger": false,
      "metar": "METAR LIPY 200220Z AUTO 10005KT 070V130 9999 -RA OVC029/// 09/06 Q1025",
      "taf": "TAF LIPY 192300Z 2000/2024 09011KT 9999 BKN040"
    },
    {
      "icao": "LIPZ",
      "alert": "OK",
      "vis_m": 9999,
      "fzfg": false,
      "metar_trigger": false,
      "taf_trigger": false,
      "metar": "METAR LIPZ 200220Z 02008KT CAVOK M01/M06 Q1028 NOSIG",
      "taf": "TAF LIPZ 192300Z 2000/2106 05010KT CAVOK"
    },
    {
      "icao": "LIRF",
      "alert": "OK",
      "vis_m": 9999,
      "fzfg": false,
      "metar_trigger": false,
      "taf_trigger": false,
      "metar": "METAR LIRF 200220Z 06010KT 9999 -DZ FEW055 11/07 Q1018 NOSIG",
      "taf": "TAF LIRF 192300Z 2000/2106 06013KT 9999 SCT050"
    },
    {
      "icao": "LIRN",
      "alert": "OK",
      "vis_m": 9999,
      "fzfg": false,
      "metar_trigger": false,
      "taf_trigger": false,
      "metar": "METAR LIRN 200220Z 02008KT 350V050 CAVOK 11/04 Q1019 NOSIG",
      "taf": "TAF LIRN 192300Z 2000/2024 05012KT 9999 SCT060"
    },
    {
      "icao": "LIRP",
      "alert": "OK",
      "vis_m": 9999,
      "fzfg": false,
      "metar_trigger": false,
      "taf_trigger": false,
      "metar": "METAR LIRP 200215Z 06011KT 9999 BKN070 10/02 Q1021 NOSIG",
      "taf": "TAF LIRP 192300Z 2000/2024 08016KT 9999 SCT020 BKN060"
    },
    {
      "icao": "LIRZ",
      "alert": "OK",
      "vis_m": 9999,
      "fzfg": false,
      "metar_trigger": false,
      "taf_trigger": false,
      "metar": "METAR LIRZ 200220Z AUTO 04013KT 9999 BKN100/// 10/04 Q1021",
      "taf": "TAF LIRZ 192300Z 2000/2024 04015KT 9999 SCT070"
    },
    {
      "icao": "LJLJ",
      "alert": "OK",
      "vis_m": 8000,
      "fzfg": false,
      "metar_trigger": false,
      "taf_trigger": false,
      "metar": "METAR LJLJ 200230Z 14006KT 8000 FEW003 OVC020 M04/M08 Q1031 NOSIG",
      "taf": "TAF LJLJ 192300Z 2000/2100 11004KT 9999 FEW003 OVC023"
    },
    {
      "icao": "LKMT",
      "alert": "OK",
      "vis_m": 9999,
      "fzfg": false,
      "metar_trigger": false,
      "taf_trigger": false,
      "metar": "METAR LKMT 200230Z 22011KT CAVOK M03/M08 Q1031 NOSIG",
      "taf": "TAF LKMT 192300Z 2000/2024 24012KT CAVOK"
    },
    {
      "icao": "LKPR",
      "alert": "OK",
      "vis_m": 9999,
      "fzfg": false,
      "metar_trigger": false,
      "taf_trigger": false,
      "metar": "METAR LKPR 200230Z 11005KT CAVOK M07/M09 Q1025 NOSIG",
      "taf": "TAF LKPR 200200Z 2003/2109 10006KT CAVOK"
    },
    {
      "icao": "LLBG",
      "alert": "OK",
      "vis_m": 9999,
      "fzfg": false,
      "metar_trigger": false,
      "taf_trigger": false,
      "metar": "METAR LLBG 200220Z VRB03KT CAVOK 06/02 Q1021 NOSIG",
      "taf": "TAF LLBG 192308Z 2000/2024 05005KT 9999 SCT050"
    },
    {
      "icao": "LMML",
      "alert": "OK",
      "vis_m": 9000,
      "fzfg": false,
      "metar_trigger": false,
      "taf_trigger": false,
      "metar": "METAR LMML 200245Z 09029G44KT 9000 BKN016 BKN020 15/12 Q1009 NOSIG",
      "taf": "TAF LMML 192300Z 2000/2024 09027G38KT 9999 BKN018"
    },
    {
      "icao": "LOWW",
      "alert": "OK",
      "vis_m": 9999,
      "fzfg": false,
      "metar_trigger": false,
      "taf_trigger": false,
      "metar": "METAR LOWW 200220Z 13016KT 9999 FEW009 M06/M08 Q1032 TEMPO BKN008",
      "taf": "TAF LOWW 200215Z 2003/2109 14013KT 9999 FEW015 TXM03/2014Z TNM08/2106Z"
    },
    {
      "icao": "LPFR",
      "alert": "OK",
      "vis_m": 9999,
      "fzfg": false,
      "metar_trigger": false,
      "taf_trigger": false,
      "metar": "METAR LPFR 200230Z 28006KT CAVOK 08/07 Q1020",
      "taf": "TAF LPFR 192300Z 2000/2024 30005KT CAVOK"
    },
    {
      "icao": "LPMA",
      "alert": "OK",
      "vis_m": 9999,
      "fzfg": false,
      "metar_trigger": false,
      "taf_trigger": false,
      "metar": "METAR LPMA 200230Z 35006KT 9999 FEW015 14/10 Q1026",
      "taf": "TAF LPMA 192300Z 2000/2024 33008KT 9999 SCT015"
    },
    {
      "icao": "LPPR",
      "alert": "OK",
      "vis_m": 9000,
      "fzfg": false,
      "metar_trigger": false,
      "taf_trigger": false,
      "metar": "METAR LPPR 200230Z 11006KT 090V150 9000 NSC 06/06 Q1020",
      "taf": "TAF LPPR 192300Z 2000/2024 VRB02KT 9999 FEW012"
    },
    {
      "icao": "LPPS",
      "alert": "OK",
      "vis_m": 9999,
      "fzfg": false,
      "metar_trigger": false,
      "taf_trigger": false,
      "metar": "METAR LPPS 200230Z 35005KT 9999 SCT014 13/08 Q1025",
      "taf": "TAF LPPS 192300Z 2000/2106 33007KT 9999 SCT015 SCT030"
    },
    {
      "icao": "LPPT",
      "alert": "OK",
      "vis_m": 9999,
      "fzfg": false,
      "metar_trigger": false,
      "taf_trigger": false,
      "metar": "METAR LPPT 200230Z 27004KT 9999 FEW020 SCT028 09/08 Q1021",
      "taf": "TAF LPPT 192300Z 2000/2106 29007KT 9999 SCT025"
    },
    {
      "icao": "LQBK",
      "alert": "OK",
      "vis_m": 9999,
      "fzfg": false,
      "metar_trigger": false,
      "taf_trigger": false,
      "metar": "METAR LQBK 200230Z 31003KT 9999 SCT027 M04/M06 Q1034 NOSIG",
      "taf": "TAF LQBK 192300Z 2000/2024 VRB02KT 9999 BKN020 TXM01/2014Z TNM05/2006Z"
    },
    {
      "icao": "LQSA",
      "alert": "OK",
      "vis_m": 6000,
      "fzfg": false,
      "metar_trigger": false,
      "taf_trigger": false,
      "metar": "METAR LQSA 200230Z 31002KT 6000 OVC012 M05/M06 Q1030",
      "taf": ""
    },
    {
      "icao": "LQTZ",
      "alert": "OK",
      "vis_m": 250,
      "fzfg": true,
      "metar_trigger": false,
      "taf_trigger": false,
      "metar": "METAR LQTZ 200230Z VRB01KT 0250 R09/0300N FZFG VV002 M09/M09 Q1033",
      "taf": ""
    },
    {
      "icao": "LRBC",
      "alert": "OK",
      "vis_m": 5000,
      "fzfg": false,
      "metar_trigger": false,
      "taf_trigger": false,
      "metar": "METAR LRBC 200230Z 00000KT 5000 BR NSC M12/M14 Q1035",
      "taf": "TAF LRBC 192300Z 2000/2009 VRB04KT CAVOK"
    },
    {
      "icao": "LRBS",
      "alert": "OK",
      "vis_m": 3000,
      "fzfg": false,
      "metar_trigger": false,
      "taf_trigger": false,
      "metar": "METAR LRBS 200230Z 28004KT 250V330 3000 BR NSC M08/M09 Q1037 NOSIG",
      "taf": "TAF LRBS 192300Z 2000/2024 25006KT 3000 BR NSC"
    },
    {
      "icao": "LRBV",
      "alert": "OK",
      "vis_m": 9999,
      "fzfg": false,
      "metar_trigger": false,
      "taf_trigger": false,
      "metar": "METAR LRBV 200230Z AUTO 22006KT 9999 NCD M12/M14 Q1034",
      "taf": "TAF LRBV 200200Z 2003/2012 VRB04KT 5000 BR NSC"
    },
    {
      "icao": "LRCL",
      "alert": "OK",
      "vis_m": 5000,
      "fzfg": false,
      "metar_trigger": false,
      "taf_trigger": false,
      "metar": "METAR LRCL 200200Z 09002KT 5000 BR NSC M14/M16 Q1036",
      "taf": "TAF LRCL 200200Z 2003/2012 VRB04KT 5000 BR NSC"
    },
    {
      "icao": "LRCV",
      "alert": "OK",
      "vis_m": 9000,
      "fzfg": false,
      "metar_trigger": false,
      "taf_trigger": false,
      "metar": "METAR LRCV 200230Z 27005KT 9000 NSC M09/M10 Q1037",
      "taf": "TAF LRCV 200200Z 2003/2012 VRB04KT CAVOK"
    },
    {
      "icao": "LRIA",
      "alert": "OK",
      "vis_m": 6000,
      "fzfg": false,
      "metar_trigger": false,
      "taf_trigger": false,
      "metar": "METAR LRIA 200230Z VRB02KT 6000 NSC M16/M18 Q1036",
      "taf": "TAF LRIA 192300Z 2000/2009 VRB04KT 5000 BR NSC"
    },
    {
      "icao": "LROP",
      "alert": "OK",
      "vis_m": 3000,
      "fzfg": false,
      "metar_trigger": false,
      "taf_trigger": false,
      "metar": "METAR LROP 200230Z 28003KT 3000 BR NSC M10/M12 Q1037 NOSIG",
      "taf": "TAF LROP 192300Z 2000/2024 25006KT 3000 BR NSC"
    },
    {
      "icao": "LRSB",
      "alert": "OK",
      "vis_m": 6000,
      "fzfg": false,
      "metar_trigger": false,
      "taf_trigger": false,
      "metar": "METAR LRSB 200230Z VRB02KT 6000 NSC M13/M14 Q1034",
      "taf": "TAF LRSB 192300Z 2000/2024 VRB04KT 3000 BR NSC"
    },
    {
      "icao": "LRSM",
      "alert": "OK",
      "vis_m": 300,
      "fzfg": true,
      "metar_trigger": false,
      "taf_trigger": false,
      "metar": "METAR LRSM 200230Z AUTO 07003KT 0300 R19/0325N FZFG VV001 M12/M13 Q1037",
      "taf": "TAF LRSM 200200Z 2003/2012 VRB04KT 0300 FZFG VV001"
    },
    {
      "icao": "LRSV",
      "alert": "OK",
      "vis_m": 9999,
      "fzfg": false,
      "metar_trigger": false,
      "taf_trigger": false,
      "metar": "METAR LRSV 200230Z 23003KT CAVOK M10/M11 Q1032",
      "taf": "TAF LRSV 192300Z 2000/2009 VRB04KT CAVOK"
    },
    {
      "icao": "LRTM",
      "alert": "OK",
      "vis_m": 5000,
      "fzfg": false,
      "metar_trigger": false,
      "taf_trigger": false,
      "metar": "METAR LRTM 200230Z AUTO 09002KT 5000 NCD M17/M19 Q1036",
      "taf": "TAF LRTM 200200Z 2003/2012 VRB04KT 1500 BR NSC"
    },
    {
      "icao": "LRTR",
      "alert": "OK",
      "vis_m": 9999,
      "fzfg": false,
      "metar_trigger": false,
      "taf_trigger": false,
      "metar": "METAR LRTR 200230Z 04004KT CAVOK M09/M10 Q1035",
      "taf": "TAF LRTR 192300Z 2000/2024 VRB04KT 5000 BR NSC"
    },
    {
      "icao": "LTAC",
      "alert": "OK",
      "vis_m": 9999,
      "fzfg": false,
      "metar_trigger": false,
      "taf_trigger": false,
      "metar": "METAR LTAC 200220Z 04003KT 9999 FEW040 M08/M11 Q1025 NOSIG RMK RWY21C 01004KT RWY03L 02003KT RWY21R 01005KT RWY03R 04002KT RWY21L 09003KT 020V100",
      "taf": "TAF LTAC 192240Z 2000/2024 VRB02KT 9999 SCT035"
    },
    {
      "icao": "LTFM",
      "alert": "OK",
      "vis_m": 9999,
      "fzfg": false,
      "metar_trigger": false,
      "taf_trigger": false,
      "metar": "METAR LTFM 200220Z 01019KT 9999 -RA BKN013 BKN022 02/M01 Q1033 NOSIG RMK RWY17L 36016G26KT RWY34L 36018KT RWY16R 36017KT RWY36 36018KT RWY18 01018KT",
      "taf": "TAF LTFM 192240Z 2000/2106 04016G26KT 7000 -RA BKN011 BKN022"
    },
    {
      "icao": "LUKK",
      "alert": "OK",
      "vis_m": 5000,
      "fzfg": false,
      "metar_trigger": false,
      "taf_trigger": false,
      "metar": "METAR LUKK 200230Z VRB02KT 5000 BR NSC M16/M17 Q1036 TEMPO 3000 BR",
      "taf": "TAF LUKK 192319Z 2000/2024 VRB04KT 5000 BR NSC"
    },
    {
      "icao": "LWOH",
      "alert": "OK",
      "vis_m": null,
      "fzfg": false,
      "metar_trigger": false,
      "taf_trigger": false,
      "metar": "",
      "taf": "TAF LWOH 200203Z 2003/2103 06008KT 9999 FEW040"
    },
    {
      "icao": "LWSK",
      "alert": "OK",
      "vis_m": 9999,
      "fzfg": false,
      "metar_trigger": false,
      "taf_trigger": false,
      "metar": "METAR LWSK 200250Z 00000KT CAVOK M08/M10 Q1034 NOSIG",
      "taf": "TAF LWSK 200203Z 2003/2103 VRB02KT CAVOK"
    },
    {
      "icao": "LYBE",
      "alert": "OK",
      "vis_m": 9999,
      "fzfg": false,
      "metar_trigger": false,
      "taf_trigger": false,
      "metar": "METAR LYBE 200230Z 11008KT CAVOK M04/M08 Q1034 NOSIG",
      "taf": "TAF LYBE 192300Z 2000/2024 11010KT CAVOK TX03/2013Z TNM05/2006Z"
    },
    {
      "icao": "LYNI",
      "alert": "OK",
      "vis_m": 9999,
      "fzfg": false,
      "metar_trigger": false,
      "taf_trigger": false,
      "metar": "METAR LYNI 200230Z VRB01KT CAVOK M08/M09 Q1035 NOSIG",
      "taf": "TAF LYNI 192300Z 2000/2024 10005KT CAVOK TX04/2013Z TNM10/2006Z"
    },
    {
      "icao": "LYPG",
      "alert": "OK",
      "vis_m": 9999,
      "fzfg": false,
      "metar_trigger": false,
      "taf_trigger": false,
      "metar": "METAR LYPG 200230Z 33003KT CAVOK M03/M05 Q1029 NOSIG",
      "taf": "TAF LYPG 192300Z 2000/2024 35005KT CAVOK TX10/2013Z TNM03/2005Z"
    },
    {
      "icao": "LZIB",
      "alert": "OK",
      "vis_m": 5000,
      "fzfg": false,
      "metar_trigger": false,
      "taf_trigger": false,
      "metar": "METAR LZIB 200230Z 11008KT 5000 BR BKN004 OVC005 M06/M07 Q1034 NOSIG",
      "taf": "TAF LZIB 192315Z 2000/2100 12009KT CAVOK"
    },
    {
      "icao": "LZKZ",
      "alert": "OK",
      "vis_m": 300,
      "fzfg": true,
      "metar_trigger": false,
      "taf_trigger": false,
      "metar": "METAR LZKZ 200230Z 20002KT 0300 R01/1900N FZFG NSC M14/M16 Q1035 NOSIG",
      "taf": "TAF LZKZ 192315Z 2000/2100 VRB02KT 2500 BR NSC"
    },
    {
      "icao": "LZTT",
      "alert": "OK",
      "vis_m": 9999,
      "fzfg": false,
      "metar_trigger": false,
      "taf_trigger": false,
      "metar": "METAR LZTT 200230Z 31003KT CAVOK M15/M16 Q1030",
      "taf": "TAF LZTT 192315Z 2000/2100 26005KT CAVOK"
    },
    {
      "icao": "OEJN",
      "alert": "OK",
      "vis_m": 9999,
      "fzfg": false,
      "metar_trigger": false,
      "taf_trigger": false,
      "metar": "METAR OEJN 200200Z 02006KT CAVOK 21/09 Q1014 NOSIG",
      "taf": "TAF OEJN 192300Z 2000/2106 03006KT 9999 FEW040"
    },
    {
      "icao": "OEMA",
      "alert": "OK",
      "vis_m": 9999,
      "fzfg": false,
      "metar_trigger": false,
      "taf_trigger": false,
      "metar": "METAR OEMA 200200Z 35006KT CAVOK 11/M06 Q1018 NOSIG",
      "taf": "TAF OEMA 192300Z 2000/2106 VRB03KT CAVOK"
    },
    {
      "icao": "OJAI",
      "alert": "OK",
      "vis_m": 4000,
      "fzfg": false,
      "metar_trigger": false,
      "taf_trigger": false,
      "metar": "METAR OJAI 200200Z 32004KT 4000 BR NSC 03/02 Q1020 NOSIG",
      "taf": "TAF OJAI 192250Z 2000/2106 VRB02KT 5000 HZ NSC"
    },
    {
      "icao": "OMAA",
      "alert": "OK",
      "vis_m": 9999,
      "fzfg": false,
      "metar_trigger": false,
      "taf_trigger": false,
      "metar": "METAR OMAA 200200Z 12006KT CAVOK 16/07 Q1014 NOSIG",
      "taf": "TAF OMAA 192300Z 2000/2106 15007KT 8000 NSC"
    },
    {
      "icao": "OMDB",
      "alert": "OK",
      "vis_m": 8000,
      "fzfg": false,
      "metar_trigger": false,
      "taf_trigger": false,
      "metar": "METAR OMDB 200230Z VRB02KT 8000 NSC 18/11 Q1015 NOSIG",
      "taf": "TAF OMDB 192300Z 2000/2106 13005KT 8000 NSC"
    },
    {
      "icao": "UAAA",
      "alert": "OK",
      "vis_m": 2300,
      "fzfg": false,
      "metar_trigger": false,
      "taf_trigger": false,
      "metar": "METAR UAAA 200230Z VRB01MPS 2300 BR SCT100 BKN200 M14/M16 Q1026 NOSIG",
      "taf": "TAF UAAA 192300Z 2000/2024 23003MPS 1200 BR FU SCT011 BKN030 TXM07/2008Z TNM16/2003Z"
    },
    {
      "icao": "UBBB",
      "alert": "OK",
      "vis_m": 9999,
      "fzfg": false,
      "metar_trigger": false,
      "taf_trigger": false,
      "metar": "METAR UBBB 200230Z 35020KT 9999 -RASN SCT015 OVC030 02/M00 Q1021 NOSIG",
      "taf": "TAF UBBB 192300Z 2000/2024 35016KT 9999 OVC025 TX03/2011Z TN01/2001Z"
    },
    {
      "icao": "UDSG",
      "alert": "OK",
      "vis_m": 9999,
      "fzfg": false,
      "metar_trigger": false,
      "taf_trigger": false,
      "metar": "METAR UDSG 200230Z 09005KT 030V130 9999 OVC040 M07/M11 Q1011 NOSIG",
      "taf": "TAF UDSG 192258Z 2000/2024 36006KT 9999 BKN030"
    },
    {
      "icao": "UDYZ",
      "alert": "OK",
      "vis_m": 9999,
      "fzfg": false,
      "metar_trigger": false,
      "taf_trigger": false,
      "metar": "METAR UDYZ 200230Z 35005KT 9999 BKN046 M03/M04 Q1011 NOSIG",
      "taf": "TAF UDYZ 192300Z 2000/2024 14006KT 1200 BR SCT003 BKN020"
    },
    {
      "icao": "UGKO",
      "alert": "OK",
      "vis_m": 9999,
      "fzfg": false,
      "metar_trigger": false,
      "taf_trigger": false,
      "metar": "METAR UGKO 200230Z VRB02KT 9999 SCT084 00/M01 Q1019 NOSIG",
      "taf": "TAF UGKO 192300Z 2000/2024 08006KT 9999 SCT030 BKN070 TX06/2012Z TNM01/2002Z"
    }
  ]
}