{
  "ts_utc": "2026-03-13T19:32:49Z",
  "threshold_m": 150,
  "source": "stations_override.txt (ICAO list) + aviationweather.gov (METAR/TAF raw)",
  "station_count": 159,
  "stations": [
    {
      "icao": "BIKF",
      "alert": "OK",
      "vis_m": 9999,
      "fzfg": false,
      "metar_trigger": false,
      "taf_trigger": false,
      "metar": "METAR BIKF 131900Z 34008KT 9999 FEW026 SCT060 BKN150 01/M03 Q0983",
      "taf": "TAF BIKF 131659Z 1318/1418 35012KT 9999 SCT025 BKN035 TX04/1415Z TNM02/1407Z"
    },
    {
      "icao": "BKPR",
      "alert": "OK",
      "vis_m": 9999,
      "fzfg": false,
      "metar_trigger": false,
      "taf_trigger": false,
      "metar": "METAR BKPR 131930Z 31004KT CAVOK 09/M02 Q1015 NOSIG",
      "taf": "TAF BKPR 131730Z 1318/1418 VRB03KT CAVOK"
    },
    {
      "icao": "EBCI",
      "alert": "OK",
      "vis_m": 8000,
      "fzfg": false,
      "metar_trigger": false,
      "taf_trigger": false,
      "metar": "METAR EBCI 131920Z 29006KT 260V330 8000 -RA SCT005 BKN013 04/03 Q1002 TEMPO BKN008",
      "taf": "TAF EBCI 131720Z 1318/1424 VRB03KT -RA 9999 SCT010 BKN020"
    },
    {
      "icao": "EDDB",
      "alert": "OK",
      "vis_m": 9999,
      "fzfg": false,
      "metar_trigger": false,
      "taf_trigger": false,
      "metar": "METAR EDDB 131920Z AUTO 18007KT 9999 BKN049 13/03 Q1004 NOSIG",
      "taf": "TAF EDDB 131700Z 1318/1418 18008KT CAVOK"
    },
    {
      "icao": "EDDH",
      "alert": "OK",
      "vis_m": 9999,
      "fzfg": false,
      "metar_trigger": false,
      "taf_trigger": false,
      "metar": "METAR EDDH 131920Z AUTO VRB02KT 9999 BKN027 OVC034 06/05 Q1002 NOSIG",
      "taf": "TAF EDDH 131700Z 1318/1424 23005KT 9999 BKN020"
    },
    {
      "icao": "EDDK",
      "alert": "OK",
      "vis_m": 9999,
      "fzfg": false,
      "metar_trigger": false,
      "taf_trigger": false,
      "metar": "METAR EDDK 131920Z AUTO 31004KT 9999 RA FEW007 BKN017 BKN024 06/05 Q1003 TEMPO NSW",
      "taf": "TAF EDDK 131700Z 1318/1424 33005KT 9999 BKN020"
    },
    {
      "icao": "EDDN",
      "alert": "OK",
      "vis_m": 9999,
      "fzfg": false,
      "metar_trigger": false,
      "taf_trigger": false,
      "metar": "METAR EDDN 131920Z AUTO 16007KT CAVOK 11/02 Q1006 NOSIG",
      "taf": "TAF EDDN 131700Z 1318/1418 19007KT CAVOK"
    },
    {
      "icao": "EDDS",
      "alert": "OK",
      "vis_m": 9999,
      "fzfg": false,
      "metar_trigger": false,
      "taf_trigger": false,
      "metar": "METAR EDDS 131920Z AUTO VRB01KT CAVOK 10/03 Q1005 NOSIG",
      "taf": "TAF EDDS 131700Z 1318/1418 20004KT 9999 BKN030"
    },
    {
      "icao": "EDFH",
      "alert": "OK",
      "vis_m": 9999,
      "fzfg": false,
      "metar_trigger": false,
      "taf_trigger": false,
      "metar": "METAR EDFH 131920Z 19014KT 9999 -RA SCT013 BKN018 09/07 Q1001",
      "taf": "TAF EDFH 131700Z 1318/1418 20010KT 9999 BKN010"
    },
    {
      "icao": "EDJA",
      "alert": "OK",
      "vis_m": 9999,
      "fzfg": false,
      "metar_trigger": false,
      "taf_trigger": false,
      "metar": "METAR EDJA 131920Z 16007KT CAVOK 07/01 Q1007",
      "taf": "TAF EDJA 131700Z 1318/1403 20004KT CAVOK"
    },
    {
      "icao": "EDLW",
      "alert": "OK",
      "vis_m": 9999,
      "fzfg": false,
      "metar_trigger": false,
      "taf_trigger": false,
      "metar": "METAR EDLW 131920Z VRB02KT 9999 -RA FEW004 BKN012 OVC014 05/04 Q1002",
      "taf": "TAF EDLW 131700Z 1318/1418 VRB03KT 9999 BKN015"
    },
    {
      "icao": "EDNY",
      "alert": "OK",
      "vis_m": 9999,
      "fzfg": false,
      "metar_trigger": false,
      "taf_trigger": false,
      "metar": "METAR EDNY 131920Z 00000KT CAVOK 07/04 Q1007",
      "taf": "TAF EDNY 131700Z 1318/1403 VRB03KT CAVOK"
    },
    {
      "icao": "EDSB",
      "alert": "OK",
      "vis_m": 9999,
      "fzfg": false,
      "metar_trigger": false,
      "taf_trigger": false,
      "metar": "METAR EDSB 131920Z 19007KT CAVOK 13/05 Q1004",
      "taf": "TAF EDSB 131700Z 1318/1418 20010KT 9999 BKN030"
    },
    {
      "icao": "EETN",
      "alert": "OK",
      "vis_m": 9999,
      "fzfg": false,
      "metar_trigger": false,
      "taf_trigger": false,
      "metar": "METAR EETN 131920Z 19012KT CAVOK 08/02 Q1008 NOSIG",
      "taf": "TAF EETN 131730Z 1318/1418 18010KT"
    },
    {
      "icao": "EFTU",
      "alert": "OK",
      "vis_m": 9999,
      "fzfg": false,
      "metar_trigger": false,
      "taf_trigger": false,
      "metar": "METAR EFTU 131920Z AUTO 20015KT 170V230 9999 OVC042 06/01 Q1002",
      "taf": "TAF EFTU 131731Z 1318/1418 19018KT CAVOK"
    },
    {
      "icao": "EGBB",
      "alert": "OK",
      "vis_m": 9999,
      "fzfg": false,
      "metar_trigger": false,
      "taf_trigger": false,
      "metar": "METAR EGBB 131920Z 22005KT 180V260 CAVOK 05/M00 Q0998",
      "taf": "TAF EGBB 131658Z 1318/1418 22010KT 9999 FEW045"
    },
    {
      "icao": "EGGP",
      "alert": "OK",
      "vis_m": 9999,
      "fzfg": false,
      "metar_trigger": false,
      "taf_trigger": false,
      "metar": "METAR EGGP 131920Z 24008KT 9999 FEW026 SCT031 05/02 Q0997",
      "taf": "TAF EGGP 131657Z 1318/1418 26009KT 9999 SCT030"
    },
    {
      "icao": "EGGW",
      "alert": "OK",
      "vis_m": 9999,
      "fzfg": false,
      "metar_trigger": false,
      "taf_trigger": false,
      "metar": "METAR EGGW 131920Z AUTO 25009KT 9999 NCD 03/M00 Q0998",
      "taf": "TAF EGGW 131702Z 1318/1418 24009KT 9999 FEW020 SCT040"
    },
    {
      "icao": "EGKK",
      "alert": "OK",
      "vis_m": 9999,
      "fzfg": false,
      "metar_trigger": false,
      "taf_trigger": false,
      "metar": "METAR EGKK 131920Z 21005KT CAVOK 04/03 Q1000",
      "taf": "TAF EGKK 131702Z 1318/1424 24010KT 9999 FEW045"
    },
    {
      "icao": "EGNM",
      "alert": "OK",
      "vis_m": 9999,
      "fzfg": false,
      "metar_trigger": false,
      "taf_trigger": false,
      "metar": "METAR EGNM 131920Z 25006KT 9999 VCSH SCT015 SCT020 04/02 Q0996",
      "taf": "TAF EGNM 131657Z 1318/1418 26009KT 9999 SCT025"
    },
    {
      "icao": "EGPD",
      "alert": "OK",
      "vis_m": 9999,
      "fzfg": false,
      "metar_trigger": false,
      "taf_trigger": false,
      "metar": "METAR EGPD 131920Z COR AUTO 23003KT 150V310 9999 NCD 05/M02 Q0989 NOSIG",
      "taf": "TAF EGPD 131656Z 1318/1418 24010KT 9999 FEW040"
    },
    {
      "icao": "EGPF",
      "alert": "OK",
      "vis_m": 9999,
      "fzfg": false,
      "metar_trigger": false,
      "taf_trigger": false,
      "metar": "METAR EGPF 131920Z AUTO 27009KT 240V320 9999 -RA SCT024/// BKN029/// //////TCU 05/03 Q0994",
      "taf": "TAF EGPF 131658Z 1318/1418 24009KT 9999 SCT030"
    },
    {
      "icao": "EHBK",
      "alert": "OK",
      "vis_m": 9999,
      "fzfg": false,
      "metar_trigger": false,
      "taf_trigger": false,
      "metar": "METAR EHBK 131925Z AUTO 18009KT 140V210 9999 FEW029/// BKN038/// OVC044/// 05/02 Q1002 NOSIG",
      "taf": "TAF EHBK 131720Z 1318/1424 18006KT 9999 -RA BKN025"
    },
    {
      "icao": "EHEH",
      "alert": "OK",
      "vis_m": 9999,
      "fzfg": false,
      "metar_trigger": false,
      "taf_trigger": false,
      "metar": "METAR EHEH 131925Z AUTO 20006KT 9999 SCT016 BKN043 BKN051 06/04 Q1002 BLU TEMPO SCT015 RMK TREND REMOTE BY EHWX",
      "taf": "TAF EHEH 131728Z 1318/1424 22007KT 9999 SCT035 BKN050"
    },
    {
      "icao": "EKBI",
      "alert": "OK",
      "vis_m": 9999,
      "fzfg": false,
      "metar_trigger": false,
      "taf_trigger": false,
      "metar": "METAR EKBI 131920Z AUTO 18004KT 150V210 9999 BKN027/// BKN120/// 05/02 Q1000",
      "taf": "TAF EKBI 131727Z 1318/1418 22008KT 9999 BKN025"
    },
    {
      "icao": "EKCH",
      "alert": "OK",
      "vis_m": 9999,
      "fzfg": false,
      "metar_trigger": false,
      "taf_trigger": false,
      "metar": "METAR EKCH 131920Z AUTO 17004KT 9999 -RA OVC038/// 05/04 Q1003 NOSIG",
      "taf": "TAF EKCH 131727Z 1318/1418 21008KT 9999 -RA BKN020"
    },
    {
      "icao": "ENAL",
      "alert": "OK",
      "vis_m": 9999,
      "fzfg": false,
      "metar_trigger": false,
      "taf_trigger": false,
      "metar": "METAR ENAL 131920Z 21016KT 9999 -RA BKN032 04/01 Q0982",
      "taf": "TAF ENAL 131700Z 1318/1403 18012KT 9999 FEW020TCU SCT050"
    },
    {
      "icao": "ENBR",
      "alert": "OK",
      "vis_m": 9999,
      "fzfg": false,
      "metar_trigger": false,
      "taf_trigger": false,
      "metar": "METAR ENBR 131920Z 16018KT 9999 -SHRA SCT011CB BKN019 04/02 Q0987 TEMPO SHRA BKN012CB RMK WIND 1200FT 17018KT",
      "taf": "TAF ENBR 131700Z 1318/1418 16012KT 9999 -SHRA FEW007 BKN020"
    },
    {
      "icao": "ENGM",
      "alert": "OK",
      "vis_m": 9999,
      "fzfg": false,
      "metar_trigger": false,
      "taf_trigger": false,
      "metar": "METAR ENGM 131920Z 13007KT 100V170 9999 FEW015 BKN017 03/M00 Q0992 TEMPO BKN008",
      "taf": "TAF ENGM 131700Z 1318/1418 20015KT 9999 FEW010"
    },
    {
      "icao": "ENHD",
      "alert": "OK",
      "vis_m": 9999,
      "fzfg": false,
      "metar_trigger": false,
      "taf_trigger": false,
      "metar": "METAR ENHD 131920Z 18013KT 9999 VCSH FEW019CB BKN035 05/03 Q0989",
      "taf": "TAF ENHD 131400Z 1315/1323 19018KT 9999 -SHRA FEW012 BKN020"
    },
    {
      "icao": "ENTC",
      "alert": "OK",
      "vis_m": 9999,
      "fzfg": false,
      "metar_trigger": false,
      "taf_trigger": false,
      "metar": "METAR ENTC 131920Z 03010KT CAVOK 03/01 Q0981 NOSIG RMK WIND 2600FT 11012KT",
      "taf": "TAF ENTC 131700Z 1318/1418 03003KT 9999 FEW015 SCT030"
    },
    {
      "icao": "ENTO",
      "alert": "OK",
      "vis_m": 9999,
      "fzfg": false,
      "metar_trigger": false,
      "taf_trigger": false,
      "metar": "METAR ENTO 131920Z 21020KT 9999 NSC 04/02 Q0994 BECMG BKN012",
      "taf": "TAF ENTO 131700Z 1318/1418 20015KT 9999 SCT020"
    },
    {
      "icao": "ENVA",
      "alert": "OK",
      "vis_m": 9999,
      "fzfg": false,
      "metar_trigger": false,
      "taf_trigger": false,
      "metar": "METAR ENVA 131920Z 23010KT 9999 -RA FEW016 SCT024 04/02 Q0982 BECMG 13005KT RMK WIND 670FT 22014KT",
      "taf": "TAF ENVA 131700Z 1318/1418 13006KT 9999 BKN030"
    },
    {
      "icao": "ENZV",
      "alert": "OK",
      "vis_m": 9999,
      "fzfg": false,
      "metar_trigger": false,
      "taf_trigger": false,
      "metar": "METAR ENZV 131920Z 18013KT 9999 VCSH FEW009CB BKN019 05/03 Q0990 TEMPO SHRA BKN012TCU",
      "taf": "TAF ENZV 131700Z 1318/1418 19015KT 9999 -SHRA SCT015 BKN030"
    },
    {
      "icao": "EPGD",
      "alert": "OK",
      "vis_m": 9999,
      "fzfg": false,
      "metar_trigger": false,
      "taf_trigger": false,
      "metar": "METAR EPGD 131900Z 18012KT CAVOK 12/04 Q1006",
      "taf": "TAF EPGD 131730Z 1318/1418 18010KT CAVOK"
    },
    {
      "icao": "EPKK",
      "alert": "OK",
      "vis_m": 9999,
      "fzfg": false,
      "metar_trigger": false,
      "taf_trigger": false,
      "metar": "METAR EPKK 131900Z 22002KT CAVOK 11/01 Q1013",
      "taf": "TAF EPKK 131730Z 1318/1418 19004KT CAVOK"
    },
    {
      "icao": "EPKT",
      "alert": "OK",
      "vis_m": 9999,
      "fzfg": false,
      "metar_trigger": false,
      "taf_trigger": false,
      "metar": "METAR EPKT 131900Z 17006KT CAVOK 11/03 Q1012",
      "taf": "TAF EPKT 131730Z 1318/1418 18010KT CAVOK"
    },
    {
      "icao": "EPLB",
      "alert": "OK",
      "vis_m": 9999,
      "fzfg": false,
      "metar_trigger": false,
      "taf_trigger": false,
      "metar": "METAR EPLB 131900Z 15006KT CAVOK 11/05 Q1014",
      "taf": "TAF EPLB 131730Z 1318/1418 16006KT CAVOK"
    },
    {
      "icao": "EPMO",
      "alert": "OK",
      "vis_m": 9999,
      "fzfg": false,
      "metar_trigger": false,
      "taf_trigger": false,
      "metar": "METAR EPMO 131900Z 14006KT 110V180 CAVOK 13/04 Q1011",
      "taf": "TAF EPMO 131730Z 1318/1418 17010KT CAVOK"
    },
    {
      "icao": "EPPO",
      "alert": "OK",
      "vis_m": 9999,
      "fzfg": false,
      "metar_trigger": false,
      "taf_trigger": false,
      "metar": "METAR EPPO 131900Z 17006KT CAVOK 11/04 Q1007",
      "taf": "TAF EPPO 131730Z 1318/1418 18010KT CAVOK"
    },
    {
      "icao": "EPRA",
      "alert": "OK",
      "vis_m": 9999,
      "fzfg": false,
      "metar_trigger": false,
      "taf_trigger": false,
      "metar": "METAR EPRA 131900Z 15006KT CAVOK 11/02 Q1012",
      "taf": "TAF EPRA 131730Z 1318/1403 17006KT CAVOK"
    },
    {
      "icao": "EPRZ",
      "alert": "OK",
      "vis_m": 9999,
      "fzfg": false,
      "metar_trigger": false,
      "taf_trigger": false,
      "metar": "METAR EPRZ 131900Z 17006KT CAVOK 12/02 Q1014",
      "taf": "TAF EPRZ 131730Z 1318/1418 17006KT CAVOK"
    },
    {
      "icao": "EPSC",
      "alert": "OK",
      "vis_m": 9999,
      "fzfg": false,
      "metar_trigger": false,
      "taf_trigger": false,
      "metar": "METAR EPSC 131900Z 15008KT CAVOK 11/02 Q1004",
      "taf": "TAF EPSC 131730Z 1318/1418 17010KT CAVOK"
    },
    {
      "icao": "EPSY",
      "alert": "OK",
      "vis_m": 9999,
      "fzfg": false,
      "metar_trigger": false,
      "taf_trigger": false,
      "metar": "METAR EPSY 131900Z 16007KT CAVOK 11/05 Q1010",
      "taf": "TAF EPSY 131730Z 1318/1403 17007KT CAVOK"
    },
    {
      "icao": "EPWA",
      "alert": "OK",
      "vis_m": 9999,
      "fzfg": false,
      "metar_trigger": false,
      "taf_trigger": false,
      "metar": "METAR EPWA 131900Z 15007KT CAVOK 11/03 Q1012 NOSIG",
      "taf": "TAF EPWA 131730Z 1318/1418 17010KT CAVOK"
    },
    {
      "icao": "EPWR",
      "alert": "OK",
      "vis_m": 9999,
      "fzfg": false,
      "metar_trigger": false,
      "taf_trigger": false,
      "metar": "METAR EPWR 131900Z 15009KT CAVOK 11/04 Q1008",
      "taf": "TAF EPWR 131730Z 1318/1418 15010KT CAVOK"
    },
    {
      "icao": "ESGG",
      "alert": "OK",
      "vis_m": 9999,
      "fzfg": false,
      "metar_trigger": false,
      "taf_trigger": false,
      "metar": "METAR ESGG 131920Z 17008KT CAVOK 03/02 Q0999",
      "taf": "TAF ESGG 131730Z 1318/1418 19009KT 9999 BKN045"
    },
    {
      "icao": "ESKN",
      "alert": "OK",
      "vis_m": 9999,
      "fzfg": false,
      "metar_trigger": false,
      "taf_trigger": false,
      "metar": "METAR ESKN 131920Z 23010KT 9999 -RA BKN023 06/04 Q1000",
      "taf": ""
    },
    {
      "icao": "ESMS",
      "alert": "OK",
      "vis_m": 9999,
      "fzfg": false,
      "metar_trigger": false,
      "taf_trigger": false,
      "metar": "METAR ESMS 131920Z 25004KT 9999 -RA SCT006 BKN012 05/05 Q1002",
      "taf": ""
    },
    {
      "icao": "ESSA",
      "alert": "OK",
      "vis_m": 9999,
      "fzfg": false,
      "metar_trigger": false,
      "taf_trigger": false,
      "metar": "METAR ESSA 131920Z 18010KT 9999 -DZ BKN035 05/03 Q0999 NOSIG",
      "taf": "TAF ESSA 131730Z 1318/1418 18020G35KT 9999 FEW030"
    },
    {
      "icao": "EYKA",
      "alert": "OK",
      "vis_m": 9999,
      "fzfg": false,
      "metar_trigger": false,
      "taf_trigger": false,
      "metar": "METAR EYKA 131920Z 14010KT CAVOK 12/03 Q1012",
      "taf": "TAF EYKA 131700Z 1318/1418 15010KT 9000 NSC"
    },
    {
      "icao": "EYPA",
      "alert": "OK",
      "vis_m": 9999,
      "fzfg": false,
      "metar_trigger": false,
      "taf_trigger": false,
      "metar": "METAR EYPA 131920Z 16011KT CAVOK 10/05 Q1008",
      "taf": "TAF EYPA 131700Z 1318/1418 16012KT 9000 NSC"
    },
    {
      "icao": "EYVI",
      "alert": "OK",
      "vis_m": 9999,
      "fzfg": false,
      "metar_trigger": false,
      "taf_trigger": false,
      "metar": "METAR EYVI 131920Z 15012KT CAVOK 10/01 Q1015 NOSIG",
      "taf": "TAF EYVI 131700Z 1318/1418 15010KT 9000 NSC"
    },
    {
      "icao": "GCFV",
      "alert": "OK",
      "vis_m": 9999,
      "fzfg": false,
      "metar_trigger": false,
      "taf_trigger": false,
      "metar": "METAR GCFV 131900Z 36015KT 9999 FEW010 18/15 Q1019",
      "taf": "TAF GCFV 131400Z 1315/1415 03015KT CAVOK TX20/1414Z TN16/1406Z"
    },
    {
      "icao": "GCLP",
      "alert": "OK",
      "vis_m": 9999,
      "fzfg": false,
      "metar_trigger": false,
      "taf_trigger": false,
      "metar": "METAR GCLP 131900Z 02023KT 9999 FEW025 19/15 Q1018 NOSIG",
      "taf": "TAF GCLP 131400Z 1315/1415 01018KT 9999 FEW020 TX21/1414Z TN16/1406Z"
    },
    {
      "icao": "GCTS",
      "alert": "OK",
      "vis_m": 9999,
      "fzfg": false,
      "metar_trigger": false,
      "taf_trigger": false,
      "metar": "METAR GCTS 131900Z 06019KT 9999 FEW030 19/13 Q1018 NOSIG",
      "taf": "TAF GCTS 131400Z 1315/1415 07022KT 9999 FEW025 TX22/1414Z TN16/1406Z"
    },
    {
      "icao": "GMAD",
      "alert": "OK",
      "vis_m": 9999,
      "fzfg": false,
      "metar_trigger": false,
      "taf_trigger": false,
      "metar": "METAR GMAD 131900Z 24011KT CAVOK 20/07 Q1016 NOSIG",
      "taf": "TAF GMAD 131700Z 1318/1424 20010KT CAVOK"
    },
    {
      "icao": "GMMN",
      "alert": "OK",
      "vis_m": 9999,
      "fzfg": false,
      "metar_trigger": false,
      "taf_trigger": false,
      "metar": "METAR GMMN 131900Z 35007KT 9999 FEW020 12/10 Q1020 NOSIG",
      "taf": "TAF GMMN 131700Z 1318/1424 36008KT CAVOK"
    },
    {
      "icao": "GMMX",
      "alert": "OK",
      "vis_m": 9999,
      "fzfg": false,
      "metar_trigger": false,
      "taf_trigger": false,
      "metar": "METAR GMMX 131900Z 36007KT 320V040 9999 FEW026 20/11 Q1018 NOSIG",
      "taf": "TAF GMMX 131700Z 1318/1424 06006KT 8000 NSC"
    },
    {
      "icao": "HEGN",
      "alert": "OK",
      "vis_m": 9999,
      "fzfg": false,
      "metar_trigger": false,
      "taf_trigger": false,
      "metar": "METAR HEGN 131900Z 15004KT 9999 SCT020 BKN025 23/16 Q1009 NOSIG",
      "taf": "TAF HEGN 131740Z 1318/1424 09015KT 6000 SCT025"
    },
    {
      "icao": "HEMA",
      "alert": "OK",
      "vis_m": 9999,
      "fzfg": false,
      "metar_trigger": false,
      "taf_trigger": false,
      "metar": "METAR HEMA 131900Z 17006KT CAVOK 23/13 Q1010 NOSIG",
      "taf": "TAF HEMA 131800Z 1318/1424 11015KT 6000 SCT025"
    },
    {
      "icao": "HESH",
      "alert": "OK",
      "vis_m": 9999,
      "fzfg": false,
      "metar_trigger": false,
      "taf_trigger": false,
      "metar": "METAR HESH 131900Z 01007KT CAVOK 23/09 Q1011 NOSIG",
      "taf": "TAF HESH 131740Z 1318/1424 08015KT 6000 SCT025"
    },
    {
      "icao": "HESX",
      "alert": "OK",
      "vis_m": 9999,
      "fzfg": false,
      "metar_trigger": false,
      "taf_trigger": false,
      "metar": "METAR HESX 131900Z 12017KT CAVOK 22/06 Q1003 NOSIG",
      "taf": "TAF HESX 131800Z 1318/1424 08018G28KT 6000 BKN025"
    },
    {
      "icao": "LATI",
      "alert": "OK",
      "vis_m": 9999,
      "fzfg": false,
      "metar_trigger": false,
      "taf_trigger": false,
      "metar": "METAR LATI 131920Z 15002KT CAVOK 10/07 Q1015 NOSIG",
      "taf": "TAF LATI 131700Z 1318/1418 VRB04KT CAVOK TX19/1412Z TN05/1405Z"
    },
    {
      "icao": "LBPD",
      "alert": "OK",
      "vis_m": 9999,
      "fzfg": false,
      "metar_trigger": false,
      "taf_trigger": false,
      "metar": "METAR LBPD 131930Z AUTO 15008KT 9999 NCD 08/M03 Q1018 NOSIG",
      "taf": "TAF LBPD 131700Z 1318/1418 VRB04KT CAVOK"
    },
    {
      "icao": "LBSF",
      "alert": "OK",
      "vis_m": 9999,
      "fzfg": false,
      "metar_trigger": false,
      "taf_trigger": false,
      "metar": "METAR LBSF 131930Z AUTO 10009KT 9999 NCD 05/M02 Q1018 NOSIG",
      "taf": "TAF LBSF 131700Z 1318/1418 11010KT CAVOK"
    },
    {
      "icao": "LBWN",
      "alert": "OK",
      "vis_m": 5000,
      "fzfg": false,
      "metar_trigger": false,
      "taf_trigger": false,
      "metar": "METAR LBWN 131930Z AUTO 12004KT 5000 BR OVC004/// 05/05 Q1020 TEMPO 2000 BR SCT003 BKN004",
      "taf": ""
    },
    {
      "icao": "LCLK",
      "alert": "OK",
      "vis_m": 9999,
      "fzfg": false,
      "metar_trigger": false,
      "taf_trigger": false,
      "metar": "METAR LCLK 131930Z 01010KT CAVOK 14/11 Q1013 NOSIG",
      "taf": "TAF LCLK 131730Z 1318/1418 07011KT 9999 FEW030"
    },
    {
      "icao": "LCPH",
      "alert": "OK",
      "vis_m": 9999,
      "fzfg": false,
      "metar_trigger": false,
      "taf_trigger": false,
      "metar": "METAR LCPH 131930Z 07004KT CAVOK 15/09 Q1012 NOSIG",
      "taf": "TAF LCPH 131730Z 1318/1418 08008KT 9999 FEW020"
    },
    {
      "icao": "LEAL",
      "alert": "OK",
      "vis_m": 9999,
      "fzfg": false,
      "metar_trigger": false,
      "taf_trigger": false,
      "metar": "METAR LEAL 131900Z 22005KT CAVOK 18/11 Q1015 NOSIG",
      "taf": "TAF LEAL 131700Z 1318/1418 VRB04KT CAVOK TX21/1412Z TN12/1406Z"
    },
    {
      "icao": "LEBB",
      "alert": "OK",
      "vis_m": 9000,
      "fzfg": false,
      "metar_trigger": false,
      "taf_trigger": false,
      "metar": "METAR LEBB 131900Z 31013KT 9000 RA FEW015 SCT022 BKN030 13/12 Q1013 TEMPO 3000",
      "taf": "TAF LEBB 131700Z 1318/1418 32009KT 9999 SCT030 BKN040 TX12/1318Z TN07/1407Z"
    },
    {
      "icao": "LEBL",
      "alert": "OK",
      "vis_m": 9999,
      "fzfg": false,
      "metar_trigger": false,
      "taf_trigger": false,
      "metar": "METAR LEBL 131900Z 22009KT 9999 FEW010 14/13 Q1013 NOSIG",
      "taf": "TAF LEBL 131700Z 1318/1418 22009KT 9999 SCT015 TX14/1413Z TN08/1406Z"
    },
    {
      "icao": "LECH",
      "alert": "OK",
      "vis_m": 9999,
      "fzfg": false,
      "metar_trigger": false,
      "taf_trigger": false,
      "metar": "METAR LECH 131900Z AUTO 17007KT CAVOK 13/08 Q1013",
      "taf": ""
    },
    {
      "icao": "LEMD",
      "alert": "OK",
      "vis_m": 9999,
      "fzfg": false,
      "metar_trigger": false,
      "taf_trigger": false,
      "metar": "METAR LEMD 131900Z 27011KT 240V300 9999 FEW070 15/02 Q1015 NOSIG",
      "taf": "TAF LEMD 131700Z 1318/1424 24010KT CAVOK TX13/1415Z TN08/1407Z"
    },
    {
      "icao": "LEMG",
      "alert": "OK",
      "vis_m": 9999,
      "fzfg": false,
      "metar_trigger": false,
      "taf_trigger": false,
      "metar": "METAR LEMG 131900Z 03004G16KT CAVOK 15/12 Q1018 NOSIG",
      "taf": "TAF LEMG 131700Z 1318/1418 VRB03KT 9999 FEW040 TX19/1415Z TN10/1407Z"
    },
    {
      "icao": "LEVC",
      "alert": "OK",
      "vis_m": 9999,
      "fzfg": false,
      "metar_trigger": false,
      "taf_trigger": false,
      "metar": "METAR LEVC 131900Z VRB04KT CAVOK 15/11 Q1013 NOSIG",
      "taf": "TAF LEVC 131700Z 1318/1418 11010KT CAVOK TX18/1414Z TN11/1406Z"
    },
    {
      "icao": "LEXJ",
      "alert": "OK",
      "vis_m": 5000,
      "fzfg": false,
      "metar_trigger": false,
      "taf_trigger": false,
      "metar": "METAR LEXJ 131900Z 30010KT 270V330 5000 RA SCT015 OVC025 10/08 Q1014",
      "taf": "TAF LEXJ 131400Z 1315/1415 29009KT 9999 SCT035 TX15/1315Z TN08/1408Z"
    },
    {
      "icao": "LEZG",
      "alert": "OK",
      "vis_m": 9999,
      "fzfg": false,
      "metar_trigger": false,
      "taf_trigger": false,
      "metar": "METAR LEZG 131900Z 26008KT 9999 SCT085 18/04 Q1012 NOSIG",
      "taf": "TAF LEZG 131700Z 1318/1418 27009KT 9999 FEW050 TX13/1414Z TN07/1406Z"
    },
    {
      "icao": "LEZL",
      "alert": "OK",
      "vis_m": 9999,
      "fzfg": false,
      "metar_trigger": false,
      "taf_trigger": false,
      "metar": "METAR LEZL 131900Z 22010KT CAVOK 20/12 Q1017 NOSIG",
      "taf": "TAF LEZL 131400Z 1315/1415 VRB03KT CAVOK TX24/1315Z TN10/1407Z"
    },
    {
      "icao": "LFBD",
      "alert": "OK",
      "vis_m": 9999,
      "fzfg": false,
      "metar_trigger": false,
      "taf_trigger": false,
      "metar": "METAR LFBD 131900Z AUTO 28010KT 9999 -RA FEW015/// SCT022/// BKN032/// ///TCU 11/10 Q1010 TEMPO 24015G25KT 3000 RA BKN010 BKN030TCU",
      "taf": "TAF LFBD 131700Z 1318/1424 23010G20KT 9999 BKN030 TX12/1318Z TN03/1424Z"
    },
    {
      "icao": "LFLL",
      "alert": "OK",
      "vis_m": 9999,
      "fzfg": false,
      "metar_trigger": false,
      "taf_trigger": false,
      "metar": "METAR LFLL 131900Z 18019KT CAVOK 14/04 Q1008 TEMPO 19020G30KT",
      "taf": "TAF LFLL 131700Z 1318/1424 18017G27KT CAVOK"
    },
    {
      "icao": "LFLS",
      "alert": "OK",
      "vis_m": 9999,
      "fzfg": false,
      "metar_trigger": false,
      "taf_trigger": false,
      "metar": "METAR LFLS 131900Z AUTO 19014KT CAVOK 12/05 Q1009 TEMPO 21015G25KT",
      "taf": "TAF LFLS 131400Z 1315/1415 22010KT CAVOK"
    },
    {
      "icao": "LFMN",
      "alert": "OK",
      "vis_m": 9999,
      "fzfg": false,
      "metar_trigger": false,
      "taf_trigger": false,
      "metar": "METAR LFMN 131900Z 21004KT 9999 BKN056 14/11 Q1014 NOSIG",
      "taf": "TAF LFMN 131400Z 1315/1421 18010KT CAVOK"
    },
    {
      "icao": "LFOB",
      "alert": "OK",
      "vis_m": 9999,
      "fzfg": false,
      "metar_trigger": false,
      "taf_trigger": false,
      "metar": "METAR LFOB 131900Z AUTO 19004KT 170V230 9999 FEW016/// BKN023/// BKN046/// ///TCU 06/05 Q1003 TEMPO 31010G20KT 2500 SHRAGS BKN007 BKN012",
      "taf": "TAF LFOB 131700Z 1318/1418 VRB06KT 9999 BKN025 OVC040"
    },
    {
      "icao": "LFPO",
      "alert": "OK",
      "vis_m": 9999,
      "fzfg": false,
      "metar_trigger": false,
      "taf_trigger": false,
      "metar": "METAR LFPO 131900Z AUTO 31003KT 9999 FEW038 OVC088 06/05 Q1004 TEMPO 4000 -RA BKN012",
      "taf": "TAF LFPO 131700Z 1318/1424 25005KT 9999 BKN030"
    },
    {
      "icao": "LFSB",
      "alert": "OK",
      "vis_m": 9999,
      "fzfg": false,
      "metar_trigger": false,
      "taf_trigger": false,
      "metar": "METAR LFSB 131900Z AUTO 13003KT CAVOK 12/04 Q1005 NOSIG",
      "taf": "TAF LFSB 131700Z 1318/1418 16006KT CAVOK"
    },
    {
      "icao": "LGAV",
      "alert": "OK",
      "vis_m": 9999,
      "fzfg": false,
      "metar_trigger": false,
      "taf_trigger": false,
      "metar": "METAR LGAV 131920Z 04011KT 9999 FEW025 09/03 Q1016 NOSIG",
      "taf": "TAF LGAV 131700Z 1318/1418 36010KT 9999 FEW025"
    },
    {
      "icao": "LGTS",
      "alert": "OK",
      "vis_m": 9999,
      "fzfg": false,
      "metar_trigger": false,
      "taf_trigger": false,
      "metar": "METAR LGTS 131920Z 10005KT 9999 FEW025 08/07 Q1018 NOSIG",
      "taf": "TAF LGTS 131700Z 1318/1418 VRB03KT 9999 FEW030"
    },
    {
      "icao": "LHBP",
      "alert": "OK",
      "vis_m": 9999,
      "fzfg": false,
      "metar_trigger": false,
      "taf_trigger": false,
      "metar": "METAR LHBP 131930Z 13006KT CAVOK 09/02 Q1014 NOSIG",
      "taf": "TAF LHBP 131715Z 1318/1418 12007KT CAVOK"
    },
    {
      "icao": "LHDC",
      "alert": "OK",
      "vis_m": 9999,
      "fzfg": false,
      "metar_trigger": false,
      "taf_trigger": false,
      "metar": "METAR LHDC 131845Z AUTO 00000KT CAVOK 10/02 Q1016 NOSIG",
      "taf": "TAF LHDC 131415Z 1315/1324 19006KT CAVOK"
    },
    {
      "icao": "LIBD",
      "alert": "OK",
      "vis_m": 9999,
      "fzfg": false,
      "metar_trigger": false,
      "taf_trigger": false,
      "metar": "METAR LIBD 131920Z 27005KT CAVOK 11/08 Q1015",
      "taf": "TAF LIBD 131700Z 1318/1418 22005KT 9999 SCT010"
    },
    {
      "icao": "LIBG",
      "alert": "OK",
      "vis_m": 9999,
      "fzfg": false,
      "metar_trigger": false,
      "taf_trigger": false,
      "metar": "METAR LIBG 131850Z 10004KT CAVOK 11/10 Q1015",
      "taf": "TAF LIBG 131700Z 1318/1403 VRB05KT 9999 SCT020"
    },
    {
      "icao": "LIBP",
      "alert": "OK",
      "vis_m": 9999,
      "fzfg": false,
      "metar_trigger": false,
      "taf_trigger": false,
      "metar": "METAR LIBP 131920Z AUTO 21002KT 9999 FEW130/// BKN160/// BKN210/// 10/10 Q1015",
      "taf": "TAF LIBP 131700Z 1318/1418 VRB05KT 9999 SCT010"
    },
    {
      "icao": "LIBR",
      "alert": "OK",
      "vis_m": 9999,
      "fzfg": false,
      "metar_trigger": false,
      "taf_trigger": false,
      "metar": "METAR LIBR 131920Z 25004KT 9999 BKN015 12/10 Q1015",
      "taf": "TAF LIBR 131700Z 1318/1418 VRB05KT 9999 SCT020"
    },
    {
      "icao": "LICA",
      "alert": "OK",
      "vis_m": 9999,
      "fzfg": false,
      "metar_trigger": false,
      "taf_trigger": false,
      "metar": "METAR LICA 131920Z AUTO 05009KT 9999 NCD 12/09 Q1015",
      "taf": ""
    },
    {
      "icao": "LICC",
      "alert": "OK",
      "vis_m": 9999,
      "fzfg": false,
      "metar_trigger": false,
      "taf_trigger": false,
      "metar": "METAR LICC 131920Z VRB01KT 9999 SCT050 13/10 Q1015",
      "taf": "TAF LICC 131700Z 1318/1418 26007KT 9999 SCT030"
    },
    {
      "icao": "LICJ",
      "alert": "OK",
      "vis_m": 9999,
      "fzfg": false,
      "metar_trigger": false,
      "taf_trigger": false,
      "metar": "METAR LICJ 131920Z VRB02KT 9999 SCT025 13/09 Q1015",
      "taf": "TAF LICJ 131700Z 1318/1418 20008KT 9999 SCT040"
    },
    {
      "icao": "LIMC",
      "alert": "OK",
      "vis_m": 9999,
      "fzfg": false,
      "metar_trigger": false,
      "taf_trigger": false,
      "metar": "METAR LIMC 131920Z VRB02KT CAVOK 11/06 Q1013 NOSIG",
      "taf": "TAF LIMC 131700Z 1318/1424 VRB04KT 9999 FEW040"
    },
    {
      "icao": "LIME",
      "alert": "OK",
      "vis_m": 9999,
      "fzfg": false,
      "metar_trigger": false,
      "taf_trigger": false,
      "metar": "METAR LIME 131920Z AUTO VRB02KT 9999 FEW084/// 12/08 Q1013",
      "taf": "TAF LIME 131700Z 1318/1418 VRB04KT 9999 FEW030"
    },
    {
      "icao": "LIMF",
      "alert": "OK",
      "vis_m": 9999,
      "fzfg": false,
      "metar_trigger": false,
      "taf_trigger": false,
      "metar": "METAR LIMF 131920Z 12003KT 9999 BKN070 14/06 Q1012",
      "taf": "TAF LIMF 131700Z 1318/1418 VRB04KT CAVOK"
    },
    {
      "icao": "LIMJ",
      "alert": "OK",
      "vis_m": 9999,
      "fzfg": false,
      "metar_trigger": false,
      "taf_trigger": false,
      "metar": "METAR LIMJ 131920Z 14004KT 9999 BKN017 14/11 Q1014",
      "taf": "TAF LIMJ 131700Z 1318/1418 VRB05KT CAVOK"
    },
    {
      "icao": "LIPE",
      "alert": "OK",
      "vis_m": 9999,
      "fzfg": false,
      "metar_trigger": false,
      "taf_trigger": false,
      "metar": "METAR LIPE 131920Z 11004KT CAVOK 10/07 Q1013",
      "taf": "TAF LIPE 131700Z 1318/1418 VRB05KT 9999 FEW050"
    },
    {
      "icao": "LIPH",
      "alert": "OK",
      "vis_m": 9999,
      "fzfg": false,
      "metar_trigger": false,
      "taf_trigger": false,
      "metar": "METAR LIPH 131920Z 16001KT 9999 FEW060 11/10 Q1013",
      "taf": "TAF LIPH 131700Z 1318/1418 VRB05KT 9000 SCT040"
    },
    {
      "icao": "LIPQ",
      "alert": "OK",
      "vis_m": 9999,
      "fzfg": false,
      "metar_trigger": false,
      "taf_trigger": false,
      "metar": "METAR LIPQ 131920Z AUTO 14002KT 9999 NCD 10/08 Q1014",
      "taf": "TAF LIPQ 131700Z 1318/1418 VRB05KT 7000 SCT040"
    },
    {
      "icao": "LIPR",
      "alert": "OK",
      "vis_m": 9999,
      "fzfg": false,
      "metar_trigger": false,
      "taf_trigger": false,
      "metar": "METAR LIPR 131920Z 13005KT 110V170 CAVOK 11/10 Q1014",
      "taf": "TAF LIPR 131700Z 1318/1418 VRB05KT 7000 SCT050"
    },
    {
      "icao": "LIPX",
      "alert": "OK",
      "vis_m": 9999,
      "fzfg": false,
      "metar_trigger": false,
      "taf_trigger": false,
      "metar": "METAR LIPX 131920Z VRB02KT CAVOK 10/06 Q1013",
      "taf": "TAF LIPX 131700Z 1318/1418 VRB04KT 9999 FEW020"
    },
    {
      "icao": "LIPY",
      "alert": "OK",
      "vis_m": 9000,
      "fzfg": false,
      "metar_trigger": false,
      "taf_trigger": false,
      "metar": "METAR LIPY 131920Z AUTO 00000KT 9000 NCD 10/09 Q1015",
      "taf": "TAF LIPY 131700Z 1318/1418 VRB05KT 4000 BR SCT020"
    },
    {
      "icao": "LIPZ",
      "alert": "OK",
      "vis_m": 9999,
      "fzfg": false,
      "metar_trigger": false,
      "taf_trigger": false,
      "metar": "METAR LIPZ 131920Z 19005KT CAVOK 13/11 Q1013 NOSIG",
      "taf": "TAF LIPZ 131700Z 1318/1424 VRB05KT 9999 SCT045"
    },
    {
      "icao": "LIRF",
      "alert": "OK",
      "vis_m": 9999,
      "fzfg": false,
      "metar_trigger": false,
      "taf_trigger": false,
      "metar": "METAR LIRF 131920Z 36003KT CAVOK 10/09 Q1015 NOSIG",
      "taf": "TAF LIRF 131700Z 1318/1424 VRB05KT 9999 SCT030"
    },
    {
      "icao": "LIRN",
      "alert": "OK",
      "vis_m": 9999,
      "fzfg": false,
      "metar_trigger": false,
      "taf_trigger": false,
      "metar": "METAR LIRN 131920Z 30003KT 260V360 9999 FEW060 14/08 Q1015 NOSIG",
      "taf": "TAF LIRN 131700Z 1318/1418 VRB05KT 9999 SCT020"
    },
    {
      "icao": "LIRP",
      "alert": "OK",
      "vis_m": 9999,
      "fzfg": false,
      "metar_trigger": false,
      "taf_trigger": false,
      "metar": "METAR LIRP 131915Z 18002KT CAVOK 11/10 Q1014 NOSIG",
      "taf": "TAF LIRP 131700Z 1318/1418 28005KT 9999 FEW040"
    },
    {
      "icao": "LIRZ",
      "alert": "OK",
      "vis_m": 9999,
      "fzfg": false,
      "metar_trigger": false,
      "taf_trigger": false,
      "metar": "METAR LIRZ 131920Z AUTO 02003KT 9999 NCD 10/06 Q1014",
      "taf": "TAF LIRZ 131700Z 1318/1418 VRB05KT 9999 FEW040"
    },
    {
      "icao": "LJLJ",
      "alert": "OK",
      "vis_m": 9999,
      "fzfg": false,
      "metar_trigger": false,
      "taf_trigger": false,
      "metar": "METAR LJLJ 131900Z 30002KT 9999 FEW045 07/05 Q1013 NOSIG",
      "taf": "TAF LJLJ 131700Z 1318/1418 VRB02KT 9999 FEW040"
    },
    {
      "icao": "LKMT",
      "alert": "OK",
      "vis_m": 9999,
      "fzfg": false,
      "metar_trigger": false,
      "taf_trigger": false,
      "metar": "METAR LKMT 131900Z 18008KT CAVOK 13/04 Q1012 NOSIG",
      "taf": "TAF LKMT 131700Z 1318/1418 20018KT CAVOK"
    },
    {
      "icao": "LKPR",
      "alert": "OK",
      "vis_m": 9999,
      "fzfg": false,
      "metar_trigger": false,
      "taf_trigger": false,
      "metar": "METAR LKPR 131900Z 16006KT CAVOK 08/00 Q1008 NOSIG",
      "taf": "TAF LKPR 131700Z 1318/1424 17012KT CAVOK"
    },
    {
      "icao": "LLBG",
      "alert": "OK",
      "vis_m": 9999,
      "fzfg": false,
      "metar_trigger": false,
      "taf_trigger": false,
      "metar": "METAR LLBG 131920Z 03006KT CAVOK 17/11 Q1010 NOSIG RMK BKN120",
      "taf": "TAF LLBG 131700Z 1318/1418 12006KT CAVOK TX28/1412Z TN15/1400Z"
    },
    {
      "icao": "LMML",
      "alert": "OK",
      "vis_m": 9999,
      "fzfg": false,
      "metar_trigger": false,
      "taf_trigger": false,
      "metar": "METAR LMML 131915Z 28005KT 9999 FEW024 12/10 Q1016 NOSIG",
      "taf": "TAF LMML 131700Z 1318/1418 28008KT 9999 SCT018"
    },
    {
      "icao": "LOWW",
      "alert": "OK",
      "vis_m": 9999,
      "fzfg": false,
      "metar_trigger": false,
      "taf_trigger": false,
      "metar": "METAR LOWW 131920Z 16013KT CAVOK 12/05 Q1011 NOSIG",
      "taf": "TAF LOWW 131715Z 1318/1424 15011KT CAVOK TX18/1414Z TN07/1405Z"
    },
    {
      "icao": "LPFR",
      "alert": "OK",
      "vis_m": 9999,
      "fzfg": false,
      "metar_trigger": false,
      "taf_trigger": false,
      "metar": "METAR LPFR 131900Z 31011KT CAVOK 18/11 Q1019",
      "taf": "TAF LPFR 131700Z 1318/1418 25012KT 9999 FEW040"
    },
    {
      "icao": "LPMA",
      "alert": "OK",
      "vis_m": 9999,
      "fzfg": false,
      "metar_trigger": false,
      "taf_trigger": false,
      "metar": "METAR LPMA 131900Z 02013KT 9999 BKN015 16/10 Q1024",
      "taf": "TAF LPMA 131700Z 1318/1418 02013KT 9999 SCT015"
    },
    {
      "icao": "LPPR",
      "alert": "OK",
      "vis_m": 9999,
      "fzfg": false,
      "metar_trigger": false,
      "taf_trigger": false,
      "metar": "METAR LPPR 131900Z 24004KT 210V270 9999 BKN002 BKN011 13/13 Q1019",
      "taf": "TAF LPPR 131700Z 1318/1418 22012KT 1500 DZRA BR BKN002"
    },
    {
      "icao": "LPPS",
      "alert": "OK",
      "vis_m": 9999,
      "fzfg": false,
      "metar_trigger": false,
      "taf_trigger": false,
      "metar": "METAR LPPS 131900Z 04010KT 010V080 9999 FEW015 BKN030 16/10 Q1025",
      "taf": "TAF LPPS 131700Z 1318/1424 05012KT 9999 SCT015 BKN030"
    },
    {
      "icao": "LPPT",
      "alert": "OK",
      "vis_m": 9999,
      "fzfg": false,
      "metar_trigger": false,
      "taf_trigger": false,
      "metar": "METAR LPPT 131900Z 30008KT 9999 BKN012 13/11 Q1021",
      "taf": "TAF LPPT 131700Z 1318/1424 29010KT 9999 FEW008 BKN015"
    },
    {
      "icao": "LQBK",
      "alert": "OK",
      "vis_m": 9999,
      "fzfg": false,
      "metar_trigger": false,
      "taf_trigger": false,
      "metar": "METAR LQBK 131900Z 18006KT CAVOK 11/04 Q1015 NOSIG",
      "taf": ""
    },
    {
      "icao": "LQSA",
      "alert": "OK",
      "vis_m": 9999,
      "fzfg": false,
      "metar_trigger": false,
      "taf_trigger": false,
      "metar": "METAR LQSA 131900Z 15002KT 9999 SCT065 10/03 Q1015 NOSIG",
      "taf": "TAF LQSA 131700Z 1318/1418 VRB02KT CAVOK TX17/1414Z TN01/1405Z"
    },
    {
      "icao": "LQTZ",
      "alert": "OK",
      "vis_m": 9999,
      "fzfg": false,
      "metar_trigger": false,
      "taf_trigger": false,
      "metar": "METAR LQTZ 131900Z 33003KT CAVOK 09/04 Q1014",
      "taf": "TAF LQTZ 131700Z 1318/1418 VRB02KT 9999 SCT050 TX20/1413Z TN04/1405Z"
    },
    {
      "icao": "LRBC",
      "alert": "OK",
      "vis_m": 9999,
      "fzfg": false,
      "metar_trigger": false,
      "taf_trigger": false,
      "metar": "METAR LRBC 131900Z 18009KT CAVOK 06/M02 Q1021",
      "taf": "TAF LRBC 131700Z 1318/1403 VRB04KT CAVOK"
    },
    {
      "icao": "LRBS",
      "alert": "OK",
      "vis_m": 9999,
      "fzfg": false,
      "metar_trigger": false,
      "taf_trigger": false,
      "metar": "METAR LRBS 131900Z 06006KT CAVOK 08/01 Q1019 NOSIG",
      "taf": "TAF LRBS 131700Z 1318/1418 06008KT CAVOK"
    },
    {
      "icao": "LRBV",
      "alert": "OK",
      "vis_m": 9999,
      "fzfg": false,
      "metar_trigger": false,
      "taf_trigger": false,
      "metar": "METAR LRBV 131900Z 05005KT 330V130 CAVOK 07/M04 Q1018",
      "taf": "TAF LRBV 131700Z 1318/1403 VRB04KT CAVOK"
    },
    {
      "icao": "LRCL",
      "alert": "OK",
      "vis_m": 9999,
      "fzfg": false,
      "metar_trigger": false,
      "taf_trigger": false,
      "metar": "METAR LRCL 131900Z VRB02KT CAVOK 06/M03 Q1016",
      "taf": "TAF LRCL 131700Z 1318/1403 VRB04KT CAVOK"
    },
    {
      "icao": "LRCV",
      "alert": "OK",
      "vis_m": 9999,
      "fzfg": false,
      "metar_trigger": false,
      "taf_trigger": false,
      "metar": "METAR LRCV 131900Z 07005KT CAVOK 06/01 Q1019",
      "taf": "TAF LRCV 131700Z 1318/1403 08008KT CAVOK"
    },
    {
      "icao": "LRIA",
      "alert": "OK",
      "vis_m": 9999,
      "fzfg": false,
      "metar_trigger": false,
      "taf_trigger": false,
      "metar": "METAR LRIA 131900Z 09009KT CAVOK 08/M04 Q1021",
      "taf": "TAF LRIA 131700Z 1318/1403 13007KT CAVOK"
    },
    {
      "icao": "LROP",
      "alert": "OK",
      "vis_m": 9999,
      "fzfg": false,
      "metar_trigger": false,
      "taf_trigger": false,
      "metar": "METAR LROP 131900Z 07007KT CAVOK 09/M02 Q1019 NOSIG",
      "taf": "TAF LROP 131700Z 1318/1418 06008KT CAVOK"
    },
    {
      "icao": "LRSB",
      "alert": "OK",
      "vis_m": 9999,
      "fzfg": false,
      "metar_trigger": false,
      "taf_trigger": false,
      "metar": "METAR LRSB 131900Z VRB02KT CAVOK 11/M07 Q1017",
      "taf": "TAF LRSB 131700Z 1318/1418 15008KT CAVOK"
    },
    {
      "icao": "LRSM",
      "alert": "OK",
      "vis_m": 9999,
      "fzfg": false,
      "metar_trigger": false,
      "taf_trigger": false,
      "metar": "METAR LRSM 131900Z AUTO 21005KT 9999 NCD 09/00 Q1016",
      "taf": "TAF LRSM 131400Z 1315/1324 VRB04KT CAVOK"
    },
    {
      "icao": "LRSV",
      "alert": "OK",
      "vis_m": 9999,
      "fzfg": false,
      "metar_trigger": false,
      "taf_trigger": false,
      "metar": "METAR LRSV 131900Z 13007KT CAVOK 07/M04 Q1019",
      "taf": "TAF LRSV 131700Z 1318/1403 19009KT CAVOK"
    },
    {
      "icao": "LRTM",
      "alert": "OK",
      "vis_m": 9999,
      "fzfg": false,
      "metar_trigger": false,
      "taf_trigger": false,
      "metar": "METAR LRTM 131900Z AUTO 05005KT 9999 NCD 05/M06 Q1017",
      "taf": "TAF LRTM 131400Z 1315/1324 VRB04KT CAVOK"
    },
    {
      "icao": "LRTR",
      "alert": "OK",
      "vis_m": 9999,
      "fzfg": false,
      "metar_trigger": false,
      "taf_trigger": false,
      "metar": "METAR LRTR 131900Z 21005KT CAVOK 11/02 Q1016",
      "taf": "TAF LRTR 131700Z 1318/1418 VRB04KT CAVOK"
    },
    {
      "icao": "LTAC",
      "alert": "OK",
      "vis_m": 9999,
      "fzfg": false,
      "metar_trigger": false,
      "taf_trigger": false,
      "metar": "METAR LTAC 131920Z 04004KT CAVOK 05/M07 Q1015 NOSIG RMK RWY21C 05004KT RWY03L 03005KT RWY21R 03004KT 360V060 RWY03R VRB01KT RWY21L 05004KT",
      "taf": "TAF LTAC 131640Z 1318/1418 VRB02KT CAVOK"
    },
    {
      "icao": "LTFM",
      "alert": "OK",
      "vis_m": 9999,
      "fzfg": false,
      "metar_trigger": false,
      "taf_trigger": false,
      "metar": "METAR LTFM 131920Z 07011KT 030V090 9999 BKN018 07/02 Q1018 NOSIG RMK RWY17L 07013KT RWY34L 07012KT RWY16R 08012KT RWY36 06010KT 020V080 RWY18 07012KT",
      "taf": "TAF LTFM 131640Z 1318/1424 05012KT 9999 BKN018"
    },
    {
      "icao": "LUKK",
      "alert": "OK",
      "vis_m": 9999,
      "fzfg": false,
      "metar_trigger": false,
      "taf_trigger": false,
      "metar": "METAR LUKK 131900Z 00000KT CAVOK 08/01 Q1021 NOSIG",
      "taf": "TAF LUKK 131714Z 1318/1418 VRB06KT CAVOK"
    },
    {
      "icao": "LWOH",
      "alert": "OK",
      "vis_m": 9999,
      "fzfg": false,
      "metar_trigger": false,
      "taf_trigger": false,
      "metar": "METAR LWOH 131920Z 10003KT 020V180 9999 SCT040 09/01 Q1015",
      "taf": "TAF LWOH 131730Z 1318/1418 07006KT 9999 SCT040"
    },
    {
      "icao": "LWSK",
      "alert": "OK",
      "vis_m": 9999,
      "fzfg": false,
      "metar_trigger": false,
      "taf_trigger": false,
      "metar": "METAR LWSK 131920Z VRB02KT CAVOK 10/01 Q1015 NOSIG",
      "taf": "TAF LWSK 131730Z 1318/1418 14005KT CAVOK"
    },
    {
      "icao": "LYBE",
      "alert": "OK",
      "vis_m": 9999,
      "fzfg": false,
      "metar_trigger": false,
      "taf_trigger": false,
      "metar": "METAR LYBE 131900Z 11013KT CAVOK 12/M02 Q1016 NOSIG",
      "taf": "TAF LYBE 131700Z 1318/1418 12010KT CAVOK TX19/1413Z TN03/1405Z"
    },
    {
      "icao": "LYNI",
      "alert": "OK",
      "vis_m": 9999,
      "fzfg": false,
      "metar_trigger": false,
      "taf_trigger": false,
      "metar": "METAR LYNI 131900Z 33004KT 280V010 CAVOK 09/M01 Q1016 NOSIG",
      "taf": "TAF LYNI 131700Z 1318/1418 05007KT CAVOK TX19/1414Z TN03/1405Z"
    },
    {
      "icao": "LYPG",
      "alert": "OK",
      "vis_m": 9999,
      "fzfg": false,
      "metar_trigger": false,
      "taf_trigger": false,
      "metar": "METAR LYPG 131900Z 19005KT 160V220 CAVOK 14/06 Q1014 NOSIG",
      "taf": "TAF LYPG 131700Z 1318/1418 35005KT CAVOK TX19/1413Z TN06/1405Z"
    },
    {
      "icao": "LZIB",
      "alert": "OK",
      "vis_m": 9999,
      "fzfg": false,
      "metar_trigger": false,
      "taf_trigger": false,
      "metar": "METAR LZIB 131930Z 14006KT CAVOK 09/04 Q1012 NOSIG",
      "taf": "TAF LZIB 131715Z 1318/1418 16009KT CAVOK"
    },
    {
      "icao": "LZKZ",
      "alert": "OK",
      "vis_m": 9999,
      "fzfg": false,
      "metar_trigger": false,
      "taf_trigger": false,
      "metar": "METAR LZKZ 131930Z 02003KT CAVOK 08/02 Q1015 NOSIG",
      "taf": "TAF LZKZ 131715Z 1318/1418 VRB02KT CAVOK"
    },
    {
      "icao": "LZTT",
      "alert": "OK",
      "vis_m": 9999,
      "fzfg": false,
      "metar_trigger": false,
      "taf_trigger": false,
      "metar": "METAR LZTT 131930Z 26006KT 9999 FEW070 04/01 Q1015",
      "taf": "TAF LZTT 131715Z 1318/1418 23005KT 9999 FEW050"
    },
    {
      "icao": "OEJN",
      "alert": "OK",
      "vis_m": 9999,
      "fzfg": false,
      "metar_trigger": false,
      "taf_trigger": false,
      "metar": "METAR OEJN 131900Z VRB02KT CAVOK 27/16 Q1010 NOSIG",
      "taf": "TAF OEJN 131700Z 1318/1424 12008KT 7000 NSC"
    },
    {
      "icao": "OEMA",
      "alert": "OK",
      "vis_m": 9999,
      "fzfg": false,
      "metar_trigger": false,
      "taf_trigger": false,
      "metar": "METAR OEMA 131900Z 05006KT CAVOK 27/M07 Q1014 NOSIG",
      "taf": "TAF OEMA 131700Z 1318/1424 09012KT CAVOK"
    },
    {
      "icao": "OJAI",
      "alert": "OK",
      "vis_m": 4000,
      "fzfg": false,
      "metar_trigger": false,
      "taf_trigger": false,
      "metar": "METAR OJAI 131900Z COR 08007KT 4000 -DZ NSC 15/01 Q1014 NOSIG",
      "taf": "TAF OJAI 131642Z 1318/1424 23008KT 4000 HZ NSC"
    },
    {
      "icao": "OMAA",
      "alert": "OK",
      "vis_m": null,
      "fzfg": false,
      "metar_trigger": false,
      "taf_trigger": false,
      "metar": "",
      "taf": ""
    },
    {
      "icao": "OMDB",
      "alert": "OK",
      "vis_m": null,
      "fzfg": false,
      "metar_trigger": false,
      "taf_trigger": false,
      "metar": "",
      "taf": ""
    },
    {
      "icao": "UAAA",
      "alert": "OK",
      "vis_m": 5000,
      "fzfg": false,
      "metar_trigger": false,
      "taf_trigger": false,
      "metar": "METAR UAAA 131900Z 19001MPS 5000 BR FU FEW100 M03/M06 Q1031 NOSIG",
      "taf": "TAF UAAA 131701Z 1318/1418 19002MPS 3100 BR FU SCT100 TX07/1409Z TNM07/1401Z"
    },
    {
      "icao": "UBBB",
      "alert": "OK",
      "vis_m": 9999,
      "fzfg": false,
      "metar_trigger": false,
      "taf_trigger": false,
      "metar": "METAR UBBB 131930Z 00000KT CAVOK 04/01 Q1025 NOSIG",
      "taf": "TAF UBBB 131657Z 1318/1418 VRB04KT 9999 FEW025 TX13/1410Z TN02/1402Z"
    },
    {
      "icao": "UDSG",
      "alert": "OK",
      "vis_m": 9999,
      "fzfg": false,
      "metar_trigger": false,
      "taf_trigger": false,
      "metar": "METAR UDSG 131900Z 34002KT 9999 FEW049 M02/M05 Q1020 NOSIG",
      "taf": "TAF UDSG 131658Z 1318/1418 VRB06KT 9999 SCT040"
    },
    {
      "icao": "UDYZ",
      "alert": "OK",
      "vis_m": 9999,
      "fzfg": false,
      "metar_trigger": false,
      "taf_trigger": false,
      "metar": "METAR UDYZ 131900Z 04010KT 9999 FEW046 06/M05 Q1019 NOSIG",
      "taf": "TAF UDYZ 131700Z 1318/1418 04006KT 9999 FEW040"
    },
    {
      "icao": "UGKO",
      "alert": "OK",
      "vis_m": 9999,
      "fzfg": false,
      "metar_trigger": false,
      "taf_trigger": false,
      "metar": "METAR UGKO 131900Z 08022KT CAVOK 10/M02 Q1019 NOSIG",
      "taf": "TAF UGKO 131700Z 1318/1418 08020KT CAVOK TX17/1412Z TN09/1403Z"
    }
  ]
}