{
  "ts_utc": "2026-05-09T15:35:21Z",
  "threshold_m": 150,
  "source": "stations_override.txt (ICAO list) + aviationweather.gov (METAR/TAF raw)",
  "station_count": 159,
  "stations": [
    {
      "icao": "BIKF",
      "alert": "OK",
      "vis_m": 9999,
      "fzfg": false,
      "metar_trigger": false,
      "taf_trigger": false,
      "metar": "METAR BIKF 091530Z 24010KT 9999 SCT012 OVC034 08/06 Q1023",
      "taf": "TAF BIKF 091347Z 0915/1015 26010KT 9999 BKN015 TX08/1010Z TN05/1006Z"
    },
    {
      "icao": "BKPR",
      "alert": "OK",
      "vis_m": 9999,
      "fzfg": false,
      "metar_trigger": false,
      "taf_trigger": false,
      "metar": "METAR BKPR 091530Z VRB01KT 9999 SCT040 BKN070 17/11 Q1016 NOSIG",
      "taf": "TAF BKPR 091130Z 0912/1012 35007KT 9999 FEW015 BKN030"
    },
    {
      "icao": "EBCI",
      "alert": "OK",
      "vis_m": 9999,
      "fzfg": false,
      "metar_trigger": false,
      "taf_trigger": false,
      "metar": "METAR EBCI 091520Z 04008KT 010V080 CAVOK 20/07 Q1015 NOSIG",
      "taf": "TAF EBCI 091107Z 0912/1018 03008KT CAVOK"
    },
    {
      "icao": "EDDB",
      "alert": "OK",
      "vis_m": 9999,
      "fzfg": false,
      "metar_trigger": false,
      "taf_trigger": false,
      "metar": "METAR EDDB 091520Z AUTO 17004KT 130V210 CAVOK 17/06 Q1019 NOSIG",
      "taf": "TAF EDDB 091100Z 0912/1012 08005KT CAVOK"
    },
    {
      "icao": "EDDH",
      "alert": "OK",
      "vis_m": 9999,
      "fzfg": false,
      "metar_trigger": false,
      "taf_trigger": false,
      "metar": "METAR EDDH 091520Z AUTO 15009KT 110V200 CAVOK 16/05 Q1019 NOSIG",
      "taf": "TAF EDDH 091100Z 0912/1018 12007KT 9999 SCT040"
    },
    {
      "icao": "EDDK",
      "alert": "OK",
      "vis_m": 9999,
      "fzfg": false,
      "metar_trigger": false,
      "taf_trigger": false,
      "metar": "METAR EDDK 091520Z AUTO 16005KT 120V210 CAVOK 21/06 Q1015 NOSIG",
      "taf": "TAF EDDK 091100Z 0912/1018 05003KT CAVOK"
    },
    {
      "icao": "EDDN",
      "alert": "OK",
      "vis_m": 9999,
      "fzfg": false,
      "metar_trigger": false,
      "taf_trigger": false,
      "metar": "METAR EDDN 091520Z AUTO VRB04KT CAVOK 22/08 Q1015 NOSIG",
      "taf": "TAF EDDN 091100Z 0912/1012 05005KT CAVOK"
    },
    {
      "icao": "EDDS",
      "alert": "OK",
      "vis_m": 9999,
      "fzfg": false,
      "metar_trigger": false,
      "taf_trigger": false,
      "metar": "METAR EDDS 091520Z AUTO 03004KT 300V080 CAVOK 22/08 Q1014 NOSIG",
      "taf": "TAF EDDS 091100Z 0912/1012 04005KT CAVOK"
    },
    {
      "icao": "EDFH",
      "alert": "OK",
      "vis_m": 9999,
      "fzfg": false,
      "metar_trigger": false,
      "taf_trigger": false,
      "metar": "METAR EDFH 091520Z VRB05KT CAVOK 19/07 Q1015",
      "taf": "TAF EDFH 091100Z 0912/1012 11007KT CAVOK"
    },
    {
      "icao": "EDJA",
      "alert": "OK",
      "vis_m": 9999,
      "fzfg": false,
      "metar_trigger": false,
      "taf_trigger": false,
      "metar": "METAR EDJA 091520Z 06006KT 030V100 CAVOK 20/06 Q1015",
      "taf": "TAF EDJA 091400Z 0915/0924 06005KT CAVOK"
    },
    {
      "icao": "EDLW",
      "alert": "OK",
      "vis_m": 9999,
      "fzfg": false,
      "metar_trigger": false,
      "taf_trigger": false,
      "metar": "METAR EDLW 091520Z 07006KT 020V120 CAVOK 18/08 Q1016",
      "taf": "TAF EDLW 091100Z 0912/1012 05004KT CAVOK"
    },
    {
      "icao": "EDNY",
      "alert": "OK",
      "vis_m": 9999,
      "fzfg": false,
      "metar_trigger": false,
      "taf_trigger": false,
      "metar": "METAR EDNY 091520Z 25005KT 190V290 CAVOK 23/07 Q1014",
      "taf": "TAF EDNY 091400Z 0915/0924 23005KT CAVOK"
    },
    {
      "icao": "EDSB",
      "alert": "OK",
      "vis_m": 9999,
      "fzfg": false,
      "metar_trigger": false,
      "taf_trigger": false,
      "metar": "METAR EDSB 091520Z 36008KT CAVOK 23/10 Q1013",
      "taf": "TAF EDSB 091100Z 0912/1012 01006KT CAVOK"
    },
    {
      "icao": "EETN",
      "alert": "OK",
      "vis_m": 9999,
      "fzfg": false,
      "metar_trigger": false,
      "taf_trigger": false,
      "metar": "METAR EETN 091520Z 08014KT CAVOK 12/M02 Q1024 NOSIG",
      "taf": "TAF EETN 091130Z 0912/1012 05012KT CAVOK"
    },
    {
      "icao": "EFTU",
      "alert": "OK",
      "vis_m": 9999,
      "fzfg": false,
      "metar_trigger": false,
      "taf_trigger": false,
      "metar": "METAR EFTU 091520Z AUTO 14009KT 110V180 CAVOK 15/M11 Q1024",
      "taf": "TAF EFTU 091509Z 0915/1015 14009KT CAVOK"
    },
    {
      "icao": "EGBB",
      "alert": "OK",
      "vis_m": 9999,
      "fzfg": false,
      "metar_trigger": false,
      "taf_trigger": false,
      "metar": "METAR EGBB 091520Z 07005KT 030V130 CAVOK 19/04 Q1017",
      "taf": "TAF EGBB 091054Z 0912/1012 09006KT 9999 FEW045"
    },
    {
      "icao": "EGGP",
      "alert": "OK",
      "vis_m": 9999,
      "fzfg": false,
      "metar_trigger": false,
      "taf_trigger": false,
      "metar": "METAR EGGP 091520Z 14003KT 9999 BKN022CB 13/08 Q1019",
      "taf": "TAF EGGP 091059Z 0912/1012 30006KT 9999 FEW045"
    },
    {
      "icao": "EGGW",
      "alert": "OK",
      "vis_m": 9999,
      "fzfg": false,
      "metar_trigger": false,
      "taf_trigger": false,
      "metar": "METAR EGGW 091520Z AUTO 11005KT 080V140 9999 NCD 19/03 Q1017",
      "taf": "TAF EGGW 091100Z 0912/1012 08006KT 9999 FEW045"
    },
    {
      "icao": "EGKK",
      "alert": "OK",
      "vis_m": 9999,
      "fzfg": false,
      "metar_trigger": false,
      "taf_trigger": false,
      "metar": "METAR EGKK 091520Z 06013KT CAVOK 20/06 Q1016",
      "taf": "TAF EGKK 091057Z 0912/1018 08010KT CAVOK"
    },
    {
      "icao": "EGNM",
      "alert": "OK",
      "vis_m": 9999,
      "fzfg": false,
      "metar_trigger": false,
      "taf_trigger": false,
      "metar": "METAR EGNM 091520Z 01013KT 9999 -SHRA SCT007 BKN014 08/07 Q1021",
      "taf": "TAF EGNM 091100Z 0912/1012 03003KT 9999 SCT040"
    },
    {
      "icao": "EGPD",
      "alert": "OK",
      "vis_m": 9999,
      "fzfg": false,
      "metar_trigger": false,
      "taf_trigger": false,
      "metar": "METAR EGPD 091520Z COR AUTO 36012KT 9999 NCD 11/M01 Q1024 NOSIG",
      "taf": "TAF EGPD 091054Z 0912/1012 34007KT 9999 FEW035"
    },
    {
      "icao": "EGPF",
      "alert": "OK",
      "vis_m": 9999,
      "fzfg": false,
      "metar_trigger": false,
      "taf_trigger": false,
      "metar": "METAR EGPF 091520Z AUTO 08007KT 040V120 9999 NCD 12/06 Q1023",
      "taf": "TAF EGPF 091104Z 0912/1012 10010KT 9999 SCT030"
    },
    {
      "icao": "EHBK",
      "alert": "OK",
      "vis_m": 9999,
      "fzfg": false,
      "metar_trigger": false,
      "taf_trigger": false,
      "metar": "METAR EHBK 091525Z AUTO 03007KT 290V090 9999 NCD 20/08 Q1015 NOSIG",
      "taf": "TAF EHBK 091117Z 0912/1018 06005KT CAVOK"
    },
    {
      "icao": "EHEH",
      "alert": "OK",
      "vis_m": 9999,
      "fzfg": false,
      "metar_trigger": false,
      "taf_trigger": false,
      "metar": "METAR EHEH 091525Z AUTO 02003KT 290V040 9999 BKN069 BKN370 19/06 Q1016 BLU NOSIG RMK TREND REMOTE BY EHWX",
      "taf": "TAF EHEH 091119Z 0912/1018 03005KT CAVOK"
    },
    {
      "icao": "EKBI",
      "alert": "OK",
      "vis_m": 9999,
      "fzfg": false,
      "metar_trigger": false,
      "taf_trigger": false,
      "metar": "METAR EKBI 091520Z AUTO 12007KT 070V160 9999 NCD 15/M01 Q1020",
      "taf": "TAF EKBI 091427Z 0915/1015 11006KT CAVOK"
    },
    {
      "icao": "EKCH",
      "alert": "OK",
      "vis_m": 9999,
      "fzfg": false,
      "metar_trigger": false,
      "taf_trigger": false,
      "metar": "METAR EKCH 091520Z AUTO 17008KT 9999 NCD 13/05 Q1021 NOSIG",
      "taf": "TAF EKCH 091427Z 0915/1015 19010KT CAVOK"
    },
    {
      "icao": "ENAL",
      "alert": "OK",
      "vis_m": 9999,
      "fzfg": false,
      "metar_trigger": false,
      "taf_trigger": false,
      "metar": "METAR ENAL 091520Z 24024KT 9999 FEW035 SCT043 08/02 Q1017",
      "taf": "TAF ENAL 091400Z 0915/0924 24020KT 9999 -SHRA FEW020 SCT040"
    },
    {
      "icao": "ENBR",
      "alert": "OK",
      "vis_m": 9999,
      "fzfg": false,
      "metar_trigger": false,
      "taf_trigger": false,
      "metar": "METAR ENBR 091520Z 17007KT 150V210 9999 FEW018 SCT025 BKN050 07/04 Q1021 NOSIG RMK WIND 1200FT 27010KT",
      "taf": "TAF ENBR 091100Z 0912/1012 16008KT 9999 SCT008 BKN018"
    },
    {
      "icao": "ENGM",
      "alert": "OK",
      "vis_m": 9999,
      "fzfg": false,
      "metar_trigger": false,
      "taf_trigger": false,
      "metar": "METAR ENGM 091520Z 21009KT 170V240 CAVOK 13/M04 Q1019 NOSIG",
      "taf": ""
    },
    {
      "icao": "ENHD",
      "alert": "OK",
      "vis_m": 9999,
      "fzfg": false,
      "metar_trigger": false,
      "taf_trigger": false,
      "metar": "METAR ENHD 091520Z VRB01KT 9999 -SHRA SCT021 BKN033 07/04 Q1022",
      "taf": "TAF ENHD 091400Z 0915/0922 33005KT 9999 -RA FEW008 BKN020"
    },
    {
      "icao": "ENTC",
      "alert": "OK",
      "vis_m": 9999,
      "fzfg": false,
      "metar_trigger": false,
      "taf_trigger": false,
      "metar": "METAR ENTC 091520Z 20008KT 9999 SCT070 11/01 Q1015 NOSIG RMK WIND 2600FT 17014KT",
      "taf": "TAF ENTC 091100Z 0912/1012 20010KT CAVOK"
    },
    {
      "icao": "ENTO",
      "alert": "OK",
      "vis_m": 9999,
      "fzfg": false,
      "metar_trigger": false,
      "taf_trigger": false,
      "metar": "METAR ENTO 091520Z 20015KT CAVOK 12/02 Q1020 NOSIG",
      "taf": "TAF ENTO 091100Z 0912/1012 20015KT 9999 SCT030"
    },
    {
      "icao": "ENVA",
      "alert": "OK",
      "vis_m": 9999,
      "fzfg": false,
      "metar_trigger": false,
      "taf_trigger": false,
      "metar": "METAR ENVA 091520Z 25011KT 9999 VCSH FEW031 BKN055 10/06 Q1016 RMK WIND 670FT 28013KT",
      "taf": "TAF ENVA 091100Z 0912/1012 18008KT 9999 -RA SCT020 BKN035"
    },
    {
      "icao": "ENZV",
      "alert": "OK",
      "vis_m": 9999,
      "fzfg": false,
      "metar_trigger": false,
      "taf_trigger": false,
      "metar": "METAR ENZV 091520Z 02005KT 9999 -RA OVC036 06/04 Q1023 TEMPO RA",
      "taf": "TAF ENZV 091100Z 0912/1012 32008KT 9999 -RA SCT010 BKN025"
    },
    {
      "icao": "EPGD",
      "alert": "OK",
      "vis_m": 9999,
      "fzfg": false,
      "metar_trigger": false,
      "taf_trigger": false,
      "metar": "METAR EPGD 091530Z 05010KT CAVOK 11/M02 Q1021",
      "taf": "TAF EPGD 091130Z 0912/1012 04010KT CAVOK"
    },
    {
      "icao": "EPKK",
      "alert": "OK",
      "vis_m": 9999,
      "fzfg": false,
      "metar_trigger": false,
      "taf_trigger": false,
      "metar": "METAR EPKK 091530Z 36006KT 9999 OVC054 14/06 Q1019",
      "taf": "TAF EPKK 091430Z 0915/1015 34005KT 9999 BKN045"
    },
    {
      "icao": "EPKT",
      "alert": "OK",
      "vis_m": 9999,
      "fzfg": false,
      "metar_trigger": false,
      "taf_trigger": false,
      "metar": "METAR EPKT 091530Z 02004KT 350V050 9999 FEW044 12/06 Q1020",
      "taf": "TAF EPKT 091130Z 0912/1012 31005KT 9999 BKN040"
    },
    {
      "icao": "EPLB",
      "alert": "OK",
      "vis_m": 9999,
      "fzfg": false,
      "metar_trigger": false,
      "taf_trigger": false,
      "metar": "METAR EPLB 091530Z 31006KT 9999 FEW030 BKN042 11/05 Q1019",
      "taf": "TAF EPLB 091130Z 0912/1012 34010KT 9999 BKN025"
    },
    {
      "icao": "EPMO",
      "alert": "OK",
      "vis_m": 9999,
      "fzfg": false,
      "metar_trigger": false,
      "taf_trigger": false,
      "metar": "METAR EPMO 091530Z 01009KT 330V060 CAVOK 14/03 Q1019",
      "taf": "TAF EPMO 091130Z 0912/1012 36010KT 9999 BKN040"
    },
    {
      "icao": "EPPO",
      "alert": "OK",
      "vis_m": 9999,
      "fzfg": false,
      "metar_trigger": false,
      "taf_trigger": false,
      "metar": "METAR EPPO 091530Z VRB02KT CAVOK 18/03 Q1020",
      "taf": "TAF EPPO 091130Z 0912/1012 09010KT CAVOK"
    },
    {
      "icao": "EPRA",
      "alert": "OK",
      "vis_m": 9999,
      "fzfg": false,
      "metar_trigger": false,
      "taf_trigger": false,
      "metar": "METAR EPRA 091530Z 01005KT 280V050 9999 SCT043 13/02 Q1019",
      "taf": "TAF EPRA 091430Z 0915/0924 35008KT 9999 BKN040"
    },
    {
      "icao": "EPRZ",
      "alert": "OK",
      "vis_m": 9999,
      "fzfg": false,
      "metar_trigger": false,
      "taf_trigger": false,
      "metar": "METAR EPRZ 091530Z 32005KT 9999 OVC046 13/06 Q1019",
      "taf": "TAF EPRZ 091130Z 0912/1012 32007KT 9999 BKN040"
    },
    {
      "icao": "EPSC",
      "alert": "OK",
      "vis_m": 9999,
      "fzfg": false,
      "metar_trigger": false,
      "taf_trigger": false,
      "metar": "METAR EPSC 091530Z 32009KT CAVOK 17/04 Q1020",
      "taf": "TAF EPSC 091130Z 0912/1012 10004KT CAVOK"
    },
    {
      "icao": "EPSY",
      "alert": "OK",
      "vis_m": 9999,
      "fzfg": false,
      "metar_trigger": false,
      "taf_trigger": false,
      "metar": "METAR EPSY 091530Z 03010KT 360V060 CAVOK 13/02 Q1019",
      "taf": "TAF EPSY 091430Z 0915/0924 02010KT 9999 SCT040"
    },
    {
      "icao": "EPWA",
      "alert": "OK",
      "vis_m": 9999,
      "fzfg": false,
      "metar_trigger": false,
      "taf_trigger": false,
      "metar": "METAR EPWA 091530Z 35006KT 310V040 9999 SCT045 14/05 Q1019 NOSIG",
      "taf": "TAF EPWA 091430Z 0915/1015 34010KT 9999 SCT045"
    },
    {
      "icao": "EPWR",
      "alert": "OK",
      "vis_m": 9999,
      "fzfg": false,
      "metar_trigger": false,
      "taf_trigger": false,
      "metar": "METAR EPWR 091530Z 10004KT 060V120 CAVOK 15/06 Q1020",
      "taf": "TAF EPWR 091430Z 0915/1015 VRB02KT 9999 SCT045"
    },
    {
      "icao": "ESGG",
      "alert": "OK",
      "vis_m": 9999,
      "fzfg": false,
      "metar_trigger": false,
      "taf_trigger": false,
      "metar": "METAR ESGG 091520Z 27008KT CAVOK 15/01 Q1020",
      "taf": "TAF ESGG 091430Z 0915/1015 26010KT CAVOK"
    },
    {
      "icao": "ESKN",
      "alert": "OK",
      "vis_m": 9999,
      "fzfg": false,
      "metar_trigger": false,
      "taf_trigger": false,
      "metar": "METAR ESKN 091520Z 13012KT CAVOK 10/M02 Q1023",
      "taf": "TAF ESKN 091430Z 0915/1015 15012KT CAVOK"
    },
    {
      "icao": "ESMS",
      "alert": "OK",
      "vis_m": 9999,
      "fzfg": false,
      "metar_trigger": false,
      "taf_trigger": false,
      "metar": "METAR ESMS 091520Z 15010KT CAVOK 14/M01 Q1021",
      "taf": "TAF ESMS 091427Z 0915/1015 14010KT CAVOK"
    },
    {
      "icao": "ESSA",
      "alert": "OK",
      "vis_m": 9999,
      "fzfg": false,
      "metar_trigger": false,
      "taf_trigger": false,
      "metar": "METAR ESSA 091520Z 12011KT CAVOK 13/M04 Q1023 NOSIG",
      "taf": "TAF ESSA 091430Z 0915/1015 15011KT CAVOK"
    },
    {
      "icao": "EYKA",
      "alert": "OK",
      "vis_m": 9999,
      "fzfg": false,
      "metar_trigger": false,
      "taf_trigger": false,
      "metar": "METAR EYKA 091520Z 36010KT 330V030 9999 -DZ SCT011 BKN016 OVC021 07/05 Q1018",
      "taf": "TAF EYKA 091100Z 0912/1012 01008KT 5000 RA BR BKN010"
    },
    {
      "icao": "EYPA",
      "alert": "OK",
      "vis_m": 9999,
      "fzfg": false,
      "metar_trigger": false,
      "taf_trigger": false,
      "metar": "METAR EYPA 091520Z VRB04KT CAVOK 14/01 Q1020",
      "taf": "TAF EYPA 091100Z 0912/1012 VRB03KT 9000 NSC"
    },
    {
      "icao": "EYVI",
      "alert": "OK",
      "vis_m": 5000,
      "fzfg": false,
      "metar_trigger": false,
      "taf_trigger": false,
      "metar": "METAR EYVI 091520Z 35009KT 5000 BR OVC006 06/05 Q1016 NOSIG",
      "taf": "TAF EYVI 091100Z 0912/1012 02012KT 5000 BR OVC010"
    },
    {
      "icao": "GCFV",
      "alert": "OK",
      "vis_m": 9999,
      "fzfg": false,
      "metar_trigger": false,
      "taf_trigger": false,
      "metar": "METAR GCFV 091500Z 12010KT 080V140 9999 FEW045 22/15 Q1016",
      "taf": "TAF GCFV 091400Z 0915/1015 13010KT 9999 FEW040 TX24/1014Z TN17/1006Z"
    },
    {
      "icao": "GCLP",
      "alert": "OK",
      "vis_m": 9999,
      "fzfg": false,
      "metar_trigger": false,
      "taf_trigger": false,
      "metar": "METAR GCLP 091500Z 06005KT 030V100 9999 SCT030 BKN035 21/13 Q1016 NOSIG",
      "taf": "TAF GCLP 091400Z 0915/1015 04007KT 9999 SCT030 BKN040 TX23/1014Z TN17/1006Z"
    },
    {
      "icao": "GCTS",
      "alert": "OK",
      "vis_m": 9999,
      "fzfg": false,
      "metar_trigger": false,
      "taf_trigger": false,
      "metar": "METAR GCTS 091500Z 14008KT 110V170 9999 SCT040 22/13 Q1016 NOSIG",
      "taf": "TAF GCTS 091400Z 0915/1015 24008KT 9999 SCT030 TX25/1014Z TN18/1006Z"
    },
    {
      "icao": "GMAD",
      "alert": "OK",
      "vis_m": 9999,
      "fzfg": false,
      "metar_trigger": false,
      "taf_trigger": false,
      "metar": "METAR GMAD 091530Z 27012KT 9999 SCT033 24/13 Q1015 NOSIG",
      "taf": "TAF GMAD 091100Z 0912/1018 28012KT 8000 SCT20"
    },
    {
      "icao": "GMMN",
      "alert": "OK",
      "vis_m": 9999,
      "fzfg": false,
      "metar_trigger": false,
      "taf_trigger": false,
      "metar": "METAR GMMN 091530Z 25013KT 230V290 9999 BKN030 24/12 Q1013 NOSIG",
      "taf": "TAF GMMN 091100Z 0912/1018 22019KT 9999 BKN030"
    },
    {
      "icao": "GMMX",
      "alert": "OK",
      "vis_m": 9999,
      "fzfg": false,
      "metar_trigger": false,
      "taf_trigger": false,
      "metar": "METAR GMMX 091530Z 29009KT 230V350 9999 SCT026 25/12 Q1014 NOSIG",
      "taf": "TAF GMMX 091100Z 0912/1018 06006KT 8000 NSC"
    },
    {
      "icao": "HEGN",
      "alert": "OK",
      "vis_m": 9999,
      "fzfg": false,
      "metar_trigger": false,
      "taf_trigger": false,
      "metar": "METAR HEGN 091500Z 34022KT CAVOK 29/11 Q1009 NOSIG",
      "taf": "TAF HEGN 091100Z 0912/1018 35015G25KT CAVOK"
    },
    {
      "icao": "HEMA",
      "alert": "OK",
      "vis_m": 9999,
      "fzfg": false,
      "metar_trigger": false,
      "taf_trigger": false,
      "metar": "METAR HEMA 091500Z 35012KT CAVOK 30/13 Q1008 NOSIG",
      "taf": "TAF HEMA 091100Z 0912/1018 36010G20KT CAVOK"
    },
    {
      "icao": "HESH",
      "alert": "OK",
      "vis_m": 9999,
      "fzfg": false,
      "metar_trigger": false,
      "taf_trigger": false,
      "metar": "METAR HESH 091500Z 35012KT CAVOK 34/13 Q1008 NOSIG",
      "taf": "TAF HESH 091100Z 0912/1018 02015G25KT CAVOK"
    },
    {
      "icao": "HESX",
      "alert": "OK",
      "vis_m": 9999,
      "fzfg": false,
      "metar_trigger": false,
      "taf_trigger": false,
      "metar": "METAR HESX 091500Z 05016KT 9999 FEW020 SCT100 27/05 Q1015 NOSIG",
      "taf": "TAF HESX 091100Z 0912/1018 06014KT CAVOK"
    },
    {
      "icao": "LATI",
      "alert": "OK",
      "vis_m": 9999,
      "fzfg": false,
      "metar_trigger": false,
      "taf_trigger": false,
      "metar": "METAR LATI 091520Z 04004KT 010V070 9999 FEW036 BKN046 18/14 Q1016 NOSIG",
      "taf": "TAF LATI 091100Z 0912/1012 VRB05KT 9999 SCT020 BKN040 TX23/1012Z TN10/1004Z"
    },
    {
      "icao": "LBPD",
      "alert": "OK",
      "vis_m": 9999,
      "fzfg": false,
      "metar_trigger": false,
      "taf_trigger": false,
      "metar": "METAR LBPD 091530Z AUTO 09003KT 040V120 9999 FEW062/// BKN097/// 20/15 Q1013 NOSIG",
      "taf": "TAF LBPD 091100Z 0912/1012 29012KT 9999 SCT020 BKN070"
    },
    {
      "icao": "LBSF",
      "alert": "OK",
      "vis_m": 9999,
      "fzfg": false,
      "metar_trigger": false,
      "taf_trigger": false,
      "metar": "METAR LBSF 091530Z AUTO 32005KT 290V020 9999 OVC081/// 19/11 Q1015 NOSIG",
      "taf": "TAF LBSF 091100Z 0912/1012 29010KT 9999 SCT020 BKN050"
    },
    {
      "icao": "LBWN",
      "alert": "OK",
      "vis_m": 9999,
      "fzfg": false,
      "metar_trigger": false,
      "taf_trigger": false,
      "metar": "METAR LBWN 091530Z 15004KT 110V170 9999 FEW033 BKN042 16/14 Q1013 TEMPO 5000 SHRA FEW035TCU",
      "taf": "TAF LBWN 091100Z 0912/1012 12012KT 9999 SCT020 BKN045"
    },
    {
      "icao": "LCLK",
      "alert": "OK",
      "vis_m": 9999,
      "fzfg": false,
      "metar_trigger": false,
      "taf_trigger": false,
      "metar": "METAR LCLK 091530Z 22009KT CAVOK 26/15 Q1014 NOSIG",
      "taf": "TAF LCLK 091130Z 0912/1012 20012KT CAVOK"
    },
    {
      "icao": "LCPH",
      "alert": "OK",
      "vis_m": 9999,
      "fzfg": false,
      "metar_trigger": false,
      "taf_trigger": false,
      "metar": "METAR LCPH 091530Z AUTO 31012KT 9999 NCD 22/16 Q1015 NOSIG",
      "taf": "TAF LCPH 091130Z 0912/1012 29014KT CAVOK"
    },
    {
      "icao": "LEAL",
      "alert": "OK",
      "vis_m": 9999,
      "fzfg": false,
      "metar_trigger": false,
      "taf_trigger": false,
      "metar": "METAR LEAL 091500Z VRB04KT 9999 FEW018 20/14 Q1011 NOSIG",
      "taf": "TAF LEAL 091100Z 0912/1012 VRB05KT 9999 FEW035 TX24/0912Z TN13/1005Z"
    },
    {
      "icao": "LEBB",
      "alert": "OK",
      "vis_m": 9999,
      "fzfg": false,
      "metar_trigger": false,
      "taf_trigger": false,
      "metar": "METAR LEBB 091500Z 11008KT 070V150 CAVOK 24/13 Q1006 NOSIG",
      "taf": ""
    },
    {
      "icao": "LEBL",
      "alert": "OK",
      "vis_m": 5000,
      "fzfg": false,
      "metar_trigger": false,
      "taf_trigger": false,
      "metar": "METAR LEBL 091500Z COR 05010KT 020V080 5000 SHRA FEW016TCU BKN018 16/14 Q1011 NOSIG",
      "taf": "TAF LEBL 091100Z 0912/1012 06012KT 9999 FEW020 TX19/0913Z TN13/1005Z"
    },
    {
      "icao": "LECH",
      "alert": "OK",
      "vis_m": 9999,
      "fzfg": false,
      "metar_trigger": false,
      "taf_trigger": false,
      "metar": "METAR LECH 091500Z AUTO 02006KT 310V070 CAVOK 14/13 Q1011",
      "taf": "TAF LECH 091100Z 0912/1012 04010KT 9999 FEW020 TX19/0914Z TN09/1005Z"
    },
    {
      "icao": "LEMD",
      "alert": "OK",
      "vis_m": 9999,
      "fzfg": false,
      "metar_trigger": false,
      "taf_trigger": false,
      "metar": "METAR LEMD 091500Z 13005KT 100V160 9999 -SHRA FEW034 SCT070TCU 15/11 Q1010 TEMPO SHRA",
      "taf": ""
    },
    {
      "icao": "LEMG",
      "alert": "OK",
      "vis_m": 6000,
      "fzfg": false,
      "metar_trigger": false,
      "taf_trigger": false,
      "metar": "SPECI LEMG 091518Z VRB02KT 6000 2500S SHRA SCT012 SCT025TCU BKN038 17/15 Q1013 BECMG NSW SCT020",
      "taf": "TAF LEMG 091100Z 0912/1012 15008KT 9999 FEW015 SCT030 TX21/0914Z TN15/1007Z"
    },
    {
      "icao": "LEVC",
      "alert": "OK",
      "vis_m": 9999,
      "fzfg": false,
      "metar_trigger": false,
      "taf_trigger": false,
      "metar": "METAR LEVC 091500Z 04006KT 330V100 9999 FEW015 BKN021 19/14 Q1011 NOSIG",
      "taf": "TAF LEVC 091100Z 0912/1012 VRB04KT 9999 BKN020 TX20/0912Z TN13/1005Z"
    },
    {
      "icao": "LEXJ",
      "alert": "OK",
      "vis_m": 9999,
      "fzfg": false,
      "metar_trigger": false,
      "taf_trigger": false,
      "metar": "METAR LEXJ 091500Z 15009KT 9999 FEW040 SCT070 22/12 Q1005",
      "taf": "TAF LEXJ 091400Z 0915/1015 18007KT 9999 FEW050 TX21/0915Z TN13/1005Z"
    },
    {
      "icao": "LEZG",
      "alert": "OK",
      "vis_m": 9999,
      "fzfg": false,
      "metar_trigger": false,
      "taf_trigger": false,
      "metar": "METAR LEZG 091500Z 11013KT 080V150 9999 BKN025 20/13 Q1010 NOSIG",
      "taf": "TAF LEZG 091100Z 0912/1012 12010KT 9999 FEW020 TX20/0914Z TN11/1005Z"
    },
    {
      "icao": "LEZL",
      "alert": "OK",
      "vis_m": 9999,
      "fzfg": false,
      "metar_trigger": false,
      "taf_trigger": false,
      "metar": "METAR LEZL 091500Z 23019KT 190V270 9999 BKN045 23/12 Q1010 NOSIG",
      "taf": "TAF LEZL 091400Z 0915/1015 20008KT 9999 SCT030 TX23/0915Z TN12/1007Z"
    },
    {
      "icao": "LFBD",
      "alert": "OK",
      "vis_m": 9999,
      "fzfg": false,
      "metar_trigger": false,
      "taf_trigger": false,
      "metar": "METAR LFBD 091530Z AUTO 14010KT CAVOK 23/13 Q1008 TEMPO 2000 TSRA BKN040CB",
      "taf": "TAF LFBD 091100Z 0912/1018 12010KT CAVOK TX25/0914Z TN15/1006Z"
    },
    {
      "icao": "LFLL",
      "alert": "OK",
      "vis_m": 9999,
      "fzfg": false,
      "metar_trigger": false,
      "taf_trigger": false,
      "metar": "METAR LFLL 091530Z 20006KT 170V230 CAVOK 24/08 Q1012 NOSIG",
      "taf": ""
    },
    {
      "icao": "LFLS",
      "alert": "OK",
      "vis_m": 9999,
      "fzfg": false,
      "metar_trigger": false,
      "taf_trigger": false,
      "metar": "METAR LFLS 091530Z AUTO 25010KT 210V300 9999 FEW052 22/10 Q1012 NOSIG",
      "taf": "TAF LFLS 091400Z 0915/1015 30005KT CAVOK"
    },
    {
      "icao": "LFMN",
      "alert": "OK",
      "vis_m": 9999,
      "fzfg": false,
      "metar_trigger": false,
      "taf_trigger": false,
      "metar": "METAR LFMN 091530Z 09011KT CAVOK 20/14 Q1013 NOSIG",
      "taf": "TAF LFMN 091400Z 0915/1021 09010KT CAVOK"
    },
    {
      "icao": "LFOB",
      "alert": "OK",
      "vis_m": 9999,
      "fzfg": false,
      "metar_trigger": false,
      "taf_trigger": false,
      "metar": "METAR LFOB 091530Z AUTO 06011KT 9999 FEW015 22/11 Q1013 TEMPO 4000 TSRA BKN050CB",
      "taf": "TAF LFOB 091100Z 0912/1012 08010KT CAVOK"
    },
    {
      "icao": "LFPO",
      "alert": "OK",
      "vis_m": 9999,
      "fzfg": false,
      "metar_trigger": false,
      "taf_trigger": false,
      "metar": "METAR LFPO 091530Z 11010KT 070V140 CAVOK 24/12 Q1012 NOSIG",
      "taf": "TAF LFPO 091100Z 0912/1018 08005KT CAVOK"
    },
    {
      "icao": "LFSB",
      "alert": "OK",
      "vis_m": 9999,
      "fzfg": false,
      "metar_trigger": false,
      "taf_trigger": false,
      "metar": "METAR LFSB 091530Z AUTO 01004KT 320V110 CAVOK 25/07 Q1012 NOSIG",
      "taf": "TAF LFSB 091100Z 0912/1012 36006KT CAVOK"
    },
    {
      "icao": "LGAV",
      "alert": "OK",
      "vis_m": 9999,
      "fzfg": false,
      "metar_trigger": false,
      "taf_trigger": false,
      "metar": "METAR LGAV 091520Z 24009KT CAVOK 25/06 Q1013 NOSIG",
      "taf": "TAF LGAV 091100Z 0912/1012 20010KT 9999 FEW025"
    },
    {
      "icao": "LGTS",
      "alert": "OK",
      "vis_m": 9999,
      "fzfg": false,
      "metar_trigger": false,
      "taf_trigger": false,
      "metar": "METAR LGTS 091520Z 25008KT 9999 SCT020 21/17 Q1014 NOSIG",
      "taf": "TAF LGTS 091100Z 0912/1012 VRB03KT 9999 FEW025"
    },
    {
      "icao": "LHBP",
      "alert": "OK",
      "vis_m": 9999,
      "fzfg": false,
      "metar_trigger": false,
      "taf_trigger": false,
      "metar": "METAR LHBP 091530Z 32011KT CAVOK 24/06 Q1015 NOSIG",
      "taf": ""
    },
    {
      "icao": "LHDC",
      "alert": "OK",
      "vis_m": 9999,
      "fzfg": false,
      "metar_trigger": false,
      "taf_trigger": false,
      "metar": "METAR LHDC 091515Z AUTO 01007KT 310V050 CAVOK 23/08 Q1014 NOSIG",
      "taf": "TAF LHDC 091415Z 0915/0924 02007KT CAVOK"
    },
    {
      "icao": "LIBD",
      "alert": "OK",
      "vis_m": 9999,
      "fzfg": false,
      "metar_trigger": false,
      "taf_trigger": false,
      "metar": "METAR LIBD 091520Z 01006KT 330V040 CAVOK 21/10 Q1016",
      "taf": "TAF LIBD 091100Z 0912/1012 34012KT CAVOK"
    },
    {
      "icao": "LIBG",
      "alert": "OK",
      "vis_m": 9999,
      "fzfg": false,
      "metar_trigger": false,
      "taf_trigger": false,
      "metar": "METAR LIBG 091450Z 18006KT 110V260 CAVOK 24/13 Q1016",
      "taf": "TAF LIBG 091400Z 0915/0924 VRB05KT 9999 FEW040"
    },
    {
      "icao": "LIBP",
      "alert": "OK",
      "vis_m": 9999,
      "fzfg": false,
      "metar_trigger": false,
      "taf_trigger": false,
      "metar": "METAR LIBP 091520Z AUTO 06007KT 040V100 9999 NCD 21/14 Q1016",
      "taf": "TAF LIBP 091100Z 0912/1012 07010KT CAVOK"
    },
    {
      "icao": "LIBR",
      "alert": "OK",
      "vis_m": 9999,
      "fzfg": false,
      "metar_trigger": false,
      "taf_trigger": false,
      "metar": "METAR LIBR 091520Z 01008KT CAVOK 19/13 Q1016",
      "taf": "TAF LIBR 091100Z 0912/1012 35012KT CAVOK"
    },
    {
      "icao": "LICA",
      "alert": "OK",
      "vis_m": 9999,
      "fzfg": false,
      "metar_trigger": false,
      "taf_trigger": false,
      "metar": "METAR LICA 091520Z AUTO 25006KT 230V290 9999 NCD 21/15 Q1017",
      "taf": "TAF LICA 091100Z 0912/1012 26012KT 9999 SCT050"
    },
    {
      "icao": "LICC",
      "alert": "OK",
      "vis_m": 9999,
      "fzfg": false,
      "metar_trigger": false,
      "taf_trigger": false,
      "metar": "METAR LICC 091520Z 08011KT 9999 SCT015 20/17 Q1017",
      "taf": "TAF LICC 091100Z 0912/1012 09012KT CAVOK"
    },
    {
      "icao": "LICJ",
      "alert": "OK",
      "vis_m": 9999,
      "fzfg": false,
      "metar_trigger": false,
      "taf_trigger": false,
      "metar": "METAR LICJ 091520Z 21010KT CAVOK 21/16 Q1014",
      "taf": "TAF LICJ 091100Z 0912/1012 04010KT CAVOK"
    },
    {
      "icao": "LIMC",
      "alert": "OK",
      "vis_m": 9999,
      "fzfg": false,
      "metar_trigger": false,
      "taf_trigger": false,
      "metar": "METAR LIMC 091520Z 21004KT 150V320 CAVOK 24/06 Q1015 NOSIG",
      "taf": "TAF LIMC 091100Z 0912/1018 VRB05KT 9999 FEW030"
    },
    {
      "icao": "LIME",
      "alert": "OK",
      "vis_m": 9999,
      "fzfg": false,
      "metar_trigger": false,
      "taf_trigger": false,
      "metar": "METAR LIME 091520Z VRB04KT CAVOK 24/09 Q1015 NOSIG",
      "taf": "TAF LIME 091100Z 0912/1012 VRB05KT 9999 FEW040"
    },
    {
      "icao": "LIMF",
      "alert": "OK",
      "vis_m": 9999,
      "fzfg": false,
      "metar_trigger": false,
      "taf_trigger": false,
      "metar": "METAR LIMF 091520Z 32004KT 250V350 9999 SCT040 22/11 Q1015",
      "taf": "TAF LIMF 091100Z 0912/1012 VRB05KT 9999 FEW030"
    },
    {
      "icao": "LIMJ",
      "alert": "OK",
      "vis_m": 9999,
      "fzfg": false,
      "metar_trigger": false,
      "taf_trigger": false,
      "metar": "METAR LIMJ 091520Z 20003KT 9999 FEW030 20/16 Q1015",
      "taf": "TAF LIMJ 091100Z 0912/1012 19010KT 9999 SCT020"
    },
    {
      "icao": "LIPE",
      "alert": "OK",
      "vis_m": 9999,
      "fzfg": false,
      "metar_trigger": false,
      "taf_trigger": false,
      "metar": "METAR LIPE 091520Z 07008KT 040V110 CAVOK 24/12 Q1014",
      "taf": "TAF LIPE 091100Z 0912/1012 VRB05KT CAVOK"
    },
    {
      "icao": "LIPH",
      "alert": "OK",
      "vis_m": 9999,
      "fzfg": false,
      "metar_trigger": false,
      "taf_trigger": false,
      "metar": "METAR LIPH 091520Z 17007KT 120V210 CAVOK 24/13 Q1014",
      "taf": "TAF LIPH 091100Z 0912/1012 14007KT CAVOK"
    },
    {
      "icao": "LIPQ",
      "alert": "OK",
      "vis_m": 9999,
      "fzfg": false,
      "metar_trigger": false,
      "taf_trigger": false,
      "metar": "METAR LIPQ 091520Z AUTO 23008KT 9999 NCD 24/10 Q1015",
      "taf": "TAF LIPQ 091100Z 0912/1012 20010KT CAVOK"
    },
    {
      "icao": "LIPR",
      "alert": "OK",
      "vis_m": 9999,
      "fzfg": false,
      "metar_trigger": false,
      "taf_trigger": false,
      "metar": "METAR LIPR 091520Z 09006KT 060V130 9999 SCT050 20/13 Q1016",
      "taf": "TAF LIPR 091100Z 0912/1012 07010KT CAVOK"
    },
    {
      "icao": "LIPX",
      "alert": "OK",
      "vis_m": 9999,
      "fzfg": false,
      "metar_trigger": false,
      "taf_trigger": false,
      "metar": "METAR LIPX 091520Z 16004KT 9999 FEW060 25/11 Q1014",
      "taf": "TAF LIPX 091100Z 0912/1012 VRB05KT 9999 FEW040"
    },
    {
      "icao": "LIPY",
      "alert": "OK",
      "vis_m": 9999,
      "fzfg": false,
      "metar_trigger": false,
      "taf_trigger": false,
      "metar": "METAR LIPY 091520Z AUTO 06008KT 9999 NCD 20/13 Q1016",
      "taf": "TAF LIPY 091100Z 0912/1012 05010KT CAVOK"
    },
    {
      "icao": "LIPZ",
      "alert": "OK",
      "vis_m": 9999,
      "fzfg": false,
      "metar_trigger": false,
      "taf_trigger": false,
      "metar": "METAR LIPZ 091520Z 16007KT CAVOK 22/13 Q1015 NOSIG",
      "taf": "TAF LIPZ 091100Z 0912/1018 15010KT CAVOK"
    },
    {
      "icao": "LIRF",
      "alert": "OK",
      "vis_m": 9999,
      "fzfg": false,
      "metar_trigger": false,
      "taf_trigger": false,
      "metar": "METAR LIRF 091520Z 26007KT CAVOK 21/15 Q1015 NOSIG",
      "taf": "TAF LIRF 091144Z 0912/1018 20010KT CAVOK"
    },
    {
      "icao": "LIRN",
      "alert": "OK",
      "vis_m": 9999,
      "fzfg": false,
      "metar_trigger": false,
      "taf_trigger": false,
      "metar": "METAR LIRN 091520Z 18010KT CAVOK 22/08 Q1016 NOSIG",
      "taf": "TAF LIRN 091100Z 0912/1012 21010KT 9999 FEW050"
    },
    {
      "icao": "LIRP",
      "alert": "OK",
      "vis_m": 9999,
      "fzfg": false,
      "metar_trigger": false,
      "taf_trigger": false,
      "metar": "METAR LIRP 091515Z 31004KT CAVOK 23/13 Q1015 NOSIG",
      "taf": "TAF LIRP 091100Z 0912/1012 25009KT 9999 SCT060"
    },
    {
      "icao": "LIRZ",
      "alert": "OK",
      "vis_m": 9999,
      "fzfg": false,
      "metar_trigger": false,
      "taf_trigger": false,
      "metar": "METAR LIRZ 091520Z AUTO 23005KT 9999 NCD 24/11 Q1015",
      "taf": "TAF LIRZ 091100Z 0912/1012 VRB05KT 9999 SCT040"
    },
    {
      "icao": "LJLJ",
      "alert": "OK",
      "vis_m": 9999,
      "fzfg": false,
      "metar_trigger": false,
      "taf_trigger": false,
      "metar": "METAR LJLJ 091500Z 16007KT 130V220 9999 FEW070 23/07 Q1015 NOSIG",
      "taf": "TAF LJLJ 091100Z 0912/1012 12005KT 9999 FEW055 SCT085"
    },
    {
      "icao": "LKMT",
      "alert": "OK",
      "vis_m": 9999,
      "fzfg": false,
      "metar_trigger": false,
      "taf_trigger": false,
      "metar": "METAR LKMT 091530Z 03008KT 9999 BKN044 14/06 Q1019 NOSIG",
      "taf": "TAF LKMT 091100Z 0912/1012 02008KT CAVOK"
    },
    {
      "icao": "LKPR",
      "alert": "OK",
      "vis_m": 9999,
      "fzfg": false,
      "metar_trigger": false,
      "taf_trigger": false,
      "metar": "METAR LKPR 091530Z 07006KT 030V110 9999 SCT045 16/07 Q1018 NOSIG",
      "taf": "TAF LKPR 091400Z 0915/1021 04005KT CAVOK"
    },
    {
      "icao": "LLBG",
      "alert": "OK",
      "vis_m": 9999,
      "fzfg": false,
      "metar_trigger": false,
      "taf_trigger": false,
      "metar": "METAR LLBG 091520Z 33011KT CAVOK 24/14 Q1014 NOSIG",
      "taf": "TAF LLBG 091109Z 0912/1012 33010KT CAVOK TX28/0912Z TN15/1003Z"
    },
    {
      "icao": "LMML",
      "alert": "OK",
      "vis_m": 9999,
      "fzfg": false,
      "metar_trigger": false,
      "taf_trigger": false,
      "metar": "METAR LMML 091515Z 08014KT CAVOK 22/16 Q1016 NOSIG",
      "taf": "TAF LMML 091100Z 0912/1012 09014KT 9999 FEW012"
    },
    {
      "icao": "LOWW",
      "alert": "OK",
      "vis_m": 9999,
      "fzfg": false,
      "metar_trigger": false,
      "taf_trigger": false,
      "metar": "METAR LOWW 091520Z 35004KT 330V030 CAVOK 19/07 Q1017 NOSIG",
      "taf": "TAF LOWW 091415Z 0915/1021 36008KT CAVOK TX24/1014Z TN08/1003Z"
    },
    {
      "icao": "LPFR",
      "alert": "OK",
      "vis_m": 9999,
      "fzfg": false,
      "metar_trigger": false,
      "taf_trigger": false,
      "metar": "METAR LPFR 091500Z 24014KT 9999 FEW020 FEW022TCU 19/14 Q1009",
      "taf": "TAF LPFR 091100Z 0912/1012 23015KT 9999 SCT020"
    },
    {
      "icao": "LPMA",
      "alert": "OK",
      "vis_m": 9999,
      "fzfg": false,
      "metar_trigger": false,
      "taf_trigger": false,
      "metar": "METAR LPMA 091500Z 04009KT 360V100 9999 SCT015 19/12 Q1012",
      "taf": "TAF LPMA 091100Z 0912/1012 VRB05KT 9999 SCT015"
    },
    {
      "icao": "LPPR",
      "alert": "OK",
      "vis_m": 9999,
      "fzfg": false,
      "metar_trigger": false,
      "taf_trigger": false,
      "metar": "METAR LPPR 091500Z 19010KT 160V220 9999 SCT018 SCT025CB 16/12 Q1004",
      "taf": "TAF LPPR 091100Z 0912/1012 15010KT 9999 SCT020"
    },
    {
      "icao": "LPPS",
      "alert": "OK",
      "vis_m": 9999,
      "fzfg": false,
      "metar_trigger": false,
      "taf_trigger": false,
      "metar": "METAR LPPS 091500Z 27015KT 9999 FEW015 BKN030 18/12 Q1013",
      "taf": "TAF LPPS 091100Z 0912/1018 27015KT 9999 SCT015 SCT030"
    },
    {
      "icao": "LPPT",
      "alert": "OK",
      "vis_m": 9999,
      "fzfg": false,
      "metar_trigger": false,
      "taf_trigger": false,
      "metar": "METAR LPPT 091500Z 23014KT 200V280 9999 VCSH SCT020 SCT025CB 17/12 Q1005 WS R20",
      "taf": "TAF LPPT 091100Z 0912/1018 22015KT 9999 SCT020"
    },
    {
      "icao": "LQBK",
      "alert": "OK",
      "vis_m": 9999,
      "fzfg": false,
      "metar_trigger": false,
      "taf_trigger": false,
      "metar": "METAR LQBK 091530Z 12008KT CAVOK 23/08 Q1015 NOSIG",
      "taf": "TAF LQBK 091100Z 0912/1012 15005KT CAVOK TX25/0913Z TN11/1004Z"
    },
    {
      "icao": "LQSA",
      "alert": "OK",
      "vis_m": 9999,
      "fzfg": false,
      "metar_trigger": false,
      "taf_trigger": false,
      "metar": "METAR LQSA 091530Z VRB03KT 9999 SCT040 18/10 Q1017 NOSIG",
      "taf": "TAF LQSA 091100Z 0912/1012 VRB02KT 9999 BKN050 TX22/1012Z TN08/1004Z"
    },
    {
      "icao": "LQTZ",
      "alert": "OK",
      "vis_m": 9999,
      "fzfg": false,
      "metar_trigger": false,
      "taf_trigger": false,
      "metar": "METAR LQTZ 091530Z 29003KT 250V340 CAVOK 20/13 Q1016",
      "taf": "TAF LQTZ 091100Z 0912/1012 27005KT 9999 SCT045 TX24/1012Z TN08/1004Z"
    },
    {
      "icao": "LRBC",
      "alert": "OK",
      "vis_m": 7000,
      "fzfg": false,
      "metar_trigger": false,
      "taf_trigger": false,
      "metar": "METAR LRBC 091500Z 35007KT 7000 -SHRA FEW008 BKN025 SCT035CB 16/15 Q1015",
      "taf": "TAF LRBC 091400Z 0915/0924 33008KT 9999 SCT015 OVC040"
    },
    {
      "icao": "LRBS",
      "alert": "OK",
      "vis_m": 9999,
      "fzfg": false,
      "metar_trigger": false,
      "taf_trigger": false,
      "metar": "METAR LRBS 091500Z 36006KT 320V040 9999 FEW005 SCT033 BKN038 15/14 Q1014 NOSIG",
      "taf": "TAF LRBS 091100Z 0912/1012 06014KT 9999 BKN040"
    },
    {
      "icao": "LRBV",
      "alert": "OK",
      "vis_m": 8000,
      "fzfg": false,
      "metar_trigger": false,
      "taf_trigger": false,
      "metar": "METAR LRBV 091500Z 05005KT 8000 -RA FEW015 BKN034 OVC049 15/13 Q1015",
      "taf": "TAF LRBV 091400Z 0915/0924 VRB04KT 9999 -RA BKN015 OVC040"
    },
    {
      "icao": "LRCL",
      "alert": "OK",
      "vis_m": 9999,
      "fzfg": false,
      "metar_trigger": false,
      "taf_trigger": false,
      "metar": "METAR LRCL 091500Z 12004KT 9999 SCT049 15/12 Q1016",
      "taf": "TAF LRCL 091400Z 0915/0924 VRB04KT 9999 SCT050"
    },
    {
      "icao": "LRCV",
      "alert": "OK",
      "vis_m": 9999,
      "fzfg": false,
      "metar_trigger": false,
      "taf_trigger": false,
      "metar": "METAR LRCV 091500Z 06003KT 9999 BKN018 BKN038 18/15 Q1014",
      "taf": "TAF LRCV 091400Z 0915/0924 VRB04KT 9999 SCT015 OVC030"
    },
    {
      "icao": "LRIA",
      "alert": "OK",
      "vis_m": 9999,
      "fzfg": false,
      "metar_trigger": false,
      "taf_trigger": false,
      "metar": "METAR LRIA 091500Z 02005KT 9999 FEW038 18/14 Q1015",
      "taf": "TAF LRIA 091400Z 0915/0924 VRB04KT 9999 SCT040"
    },
    {
      "icao": "LROP",
      "alert": "OK",
      "vis_m": 8000,
      "fzfg": false,
      "metar_trigger": false,
      "taf_trigger": false,
      "metar": "METAR LROP 091500Z 02008KT 8000 -SHRA BKN040 FEW050CB 16/14 Q1014 RERA NOSIG",
      "taf": "TAF LROP 091100Z 0912/1012 06014KT 9999 SCT040"
    },
    {
      "icao": "LRSB",
      "alert": "OK",
      "vis_m": 9999,
      "fzfg": false,
      "metar_trigger": false,
      "taf_trigger": false,
      "metar": "METAR LRSB 091500Z 31005KT 9999 -RA VCSH FEW025 SCT030CB BKN050 15/13 Q1016",
      "taf": "TAF LRSB 091100Z 0912/1012 32010KT 9999 SCT055"
    },
    {
      "icao": "LRSM",
      "alert": "OK",
      "vis_m": 9999,
      "fzfg": false,
      "metar_trigger": false,
      "taf_trigger": false,
      "metar": "METAR LRSM 091500Z 33009KT 280V010 9999 SCT047 23/11 Q1014",
      "taf": "TAF LRSM 091400Z 0915/0924 34006KT CAVOK"
    },
    {
      "icao": "LRSV",
      "alert": "OK",
      "vis_m": 6000,
      "fzfg": false,
      "metar_trigger": false,
      "taf_trigger": false,
      "metar": "METAR LRSV 091500Z 35007KT 6000 -RA BKN032 13/13 Q1017",
      "taf": "TAF LRSV 091400Z 0915/0924 VRB04KT 9999 SCT010 BKN040"
    },
    {
      "icao": "LRTM",
      "alert": "OK",
      "vis_m": 9999,
      "fzfg": false,
      "metar_trigger": false,
      "taf_trigger": false,
      "metar": "METAR LRTM 091500Z 32003KT 290V350 9999 -RA FEW012 16/13 Q1016",
      "taf": "TAF LRTM 091400Z 0915/0924 VRB04KT 9999 SCT045"
    },
    {
      "icao": "LRTR",
      "alert": "OK",
      "vis_m": 9999,
      "fzfg": false,
      "metar_trigger": false,
      "taf_trigger": false,
      "metar": "METAR LRTR 091500Z 12006KT 090V160 9999 FEW044 23/12 Q1014",
      "taf": "TAF LRTR 091100Z 0912/1012 VRB04KT CAVOK"
    },
    {
      "icao": "LTAC",
      "alert": "OK",
      "vis_m": 9999,
      "fzfg": false,
      "metar_trigger": false,
      "taf_trigger": false,
      "metar": "METAR LTAC 091520Z 04006KT 9999 SCT040 BKN100 18/07 Q1017 NOSIG RMK RWY21C 02005KT RWY03L 03006KT RWY21R 02005KT RWY03R 02006KT RWY21L 01005KT",
      "taf": "TAF LTAC 091040Z 0912/1012 VRB02KT 9999 SCT040 SCT100"
    },
    {
      "icao": "LTFM",
      "alert": "OK",
      "vis_m": 9999,
      "fzfg": false,
      "metar_trigger": false,
      "taf_trigger": false,
      "metar": "METAR LTFM 091520Z 25010KT 200V270 9999 FEW040 BKN100 24/12 Q1013 NOSIG RMK RWY17L 24011KT 200V260 RWY34L 23010KT 200V260 RWY16R 23011KT RWY36 23009KT RWY18 26010KT",
      "taf": "TAF LTFM 091040Z 0912/1018 20012KT 9999 FEW035 BKN100"
    },
    {
      "icao": "LUKK",
      "alert": "OK",
      "vis_m": 9999,
      "fzfg": false,
      "metar_trigger": false,
      "taf_trigger": false,
      "metar": "METAR LUKK 091530Z 21004KT 190V250 CAVOK 18/12 Q1015 NOSIG",
      "taf": "TAF LUKK 091115Z 0912/1012 15009KT 9999 SCT045"
    },
    {
      "icao": "LWOH",
      "alert": "OK",
      "vis_m": 9999,
      "fzfg": false,
      "metar_trigger": false,
      "taf_trigger": false,
      "metar": "METAR LWOH 091520Z 14005KT 9999 BKN040 16/12 Q1017",
      "taf": "TAF LWOH 091450Z 0915/1015 16006KT 9999 SCT040"
    },
    {
      "icao": "LWSK",
      "alert": "OK",
      "vis_m": 9999,
      "fzfg": false,
      "metar_trigger": false,
      "taf_trigger": false,
      "metar": "METAR LWSK 091520Z 35006KT 310V030 9999 SCT035 BKN085 20/12 Q1015 NOSIG",
      "taf": "TAF LWSK 091450Z 0915/1015 VRB02KT 9999 SCT030 SCT080"
    },
    {
      "icao": "LYBE",
      "alert": "OK",
      "vis_m": 9999,
      "fzfg": false,
      "metar_trigger": false,
      "taf_trigger": false,
      "metar": "METAR LYBE 091530Z 26006KT 220V280 9999 -SHRA SCT040TCU SCT043 17/15 Q1015 RESHRA NOSIG",
      "taf": "TAF LYBE 091100Z 0912/1012 29010KT 9999 SCT040 TX22/0913Z TN11/1003Z"
    },
    {
      "icao": "LYNI",
      "alert": "OK",
      "vis_m": 9999,
      "fzfg": false,
      "metar_trigger": false,
      "taf_trigger": false,
      "metar": "METAR LYNI 091530Z 06003KT 040V100 9999 -SHRA FEW030TCU SCT040 BKN070 18/15 Q1015 TEMPO 5000 SHRA SCT030TCU SCT040",
      "taf": "TAF LYNI 091100Z 0912/1012 33010KT 9999 SCT030 BKN070 TX23/1012Z TN09/1003Z"
    },
    {
      "icao": "LYPG",
      "alert": "OK",
      "vis_m": 9999,
      "fzfg": false,
      "metar_trigger": false,
      "taf_trigger": false,
      "metar": "METAR LYPG 091530Z 14004KT 090V200 9999 FEW036 21/14 Q1016 NOSIG",
      "taf": "TAF LYPG 091100Z 0912/1012 15005KT 9999 FEW030 TX24/0914Z TN13/1005Z"
    },
    {
      "icao": "LZIB",
      "alert": "OK",
      "vis_m": 9999,
      "fzfg": false,
      "metar_trigger": false,
      "taf_trigger": false,
      "metar": "METAR LZIB 091530Z 34010KT CAVOK 20/07 Q1017 NOSIG",
      "taf": "TAF LZIB 091115Z 0912/1012 33006KT CAVOK"
    },
    {
      "icao": "LZKZ",
      "alert": "OK",
      "vis_m": 9999,
      "fzfg": false,
      "metar_trigger": false,
      "taf_trigger": false,
      "metar": "METAR LZKZ 091530Z 36016KT CAVOK 16/07 Q1016 NOSIG",
      "taf": "TAF LZKZ 091115Z 0912/1012 02012KT CAVOK"
    },
    {
      "icao": "LZTT",
      "alert": "OK",
      "vis_m": 9999,
      "fzfg": false,
      "metar_trigger": false,
      "taf_trigger": false,
      "metar": "METAR LZTT 091530Z 06013KT 9999 FEW016 BKN030 11/07 Q1018 NOSIG",
      "taf": ""
    },
    {
      "icao": "OEJN",
      "alert": "OK",
      "vis_m": 9999,
      "fzfg": false,
      "metar_trigger": false,
      "taf_trigger": false,
      "metar": "METAR OEJN 091500Z 32009KT 9999 FEW040 SCT100 32/18 Q1006 NOSIG",
      "taf": "TAF OEJN 091100Z 0912/1018 34014KT 7000 FEW040"
    },
    {
      "icao": "OEMA",
      "alert": "OK",
      "vis_m": 9999,
      "fzfg": false,
      "metar_trigger": false,
      "taf_trigger": false,
      "metar": "METAR OEMA 091500Z 26007KT 9999 FEW045 39/00 Q1010 NOSIG",
      "taf": "TAF OEMA 091100Z 0912/1018 19013KT 7000 NSC"
    },
    {
      "icao": "OJAI",
      "alert": "OK",
      "vis_m": 4000,
      "fzfg": false,
      "metar_trigger": false,
      "taf_trigger": false,
      "metar": "METAR OJAI 091500Z 28012KT 4000 HZ NSC 28/09 Q1015 NOSIG",
      "taf": "TAF OJAI 091039Z 0912/1018 29012KT 5000 HZ NSC"
    },
    {
      "icao": "OMAA",
      "alert": "OK",
      "vis_m": 9999,
      "fzfg": false,
      "metar_trigger": false,
      "taf_trigger": false,
      "metar": "METAR OMAA 091530Z 31011KT CAVOK 33/17 Q1007 NOSIG",
      "taf": "TAF OMAA 091100Z 0912/1018 32015KT 8000 NSC"
    },
    {
      "icao": "OMDB",
      "alert": "OK",
      "vis_m": 9999,
      "fzfg": false,
      "metar_trigger": false,
      "taf_trigger": false,
      "metar": "METAR OMDB 091530Z 24005KT 200V300 CAVOK 34/18 Q1007 NOSIG",
      "taf": "TAF OMDB 091100Z 0912/1018 28014KT 8000 NSC"
    },
    {
      "icao": "UAAA",
      "alert": "OK",
      "vis_m": 5000,
      "fzfg": false,
      "metar_trigger": false,
      "taf_trigger": false,
      "metar": "METAR UAAA 091500Z 13002MPS 5000 FU SCT050CB BKN100 22/13 Q1010 NOSIG",
      "taf": "TAF UAAA 091103Z 0912/1012 20003G08MPS 9999 SCT050CB OVC100 TX22/1010Z TN17/1000Z"
    },
    {
      "icao": "UBBB",
      "alert": "OK",
      "vis_m": 9999,
      "fzfg": false,
      "metar_trigger": false,
      "taf_trigger": false,
      "metar": "METAR UBBB 091530Z 18010KT CAVOK 20/12 Q1017 NOSIG",
      "taf": "TAF UBBB 091054Z 0912/1012 03010KT 9999 SCT030 TX21/0912Z TN13/1001Z"
    },
    {
      "icao": "UDSG",
      "alert": "OK",
      "vis_m": 9999,
      "fzfg": false,
      "metar_trigger": false,
      "taf_trigger": false,
      "metar": "METAR UDSG 091500Z 31003KT 9999 FEW049 16/01 Q1021 NOSIG",
      "taf": "TAF UDSG 091100Z 0912/1012 21006KT 9999 SCT050"
    },
    {
      "icao": "UDYZ",
      "alert": "OK",
      "vis_m": 9999,
      "fzfg": false,
      "metar_trigger": false,
      "taf_trigger": false,
      "metar": "METAR UDYZ 091500Z VRB01KT 9999 NSC 24/00 Q1017 NOSIG",
      "taf": "TAF UDYZ 091100Z 0912/1012 23006KT 9999 FEW040"
    },
    {
      "icao": "UGKO",
      "alert": "OK",
      "vis_m": 9999,
      "fzfg": false,
      "metar_trigger": false,
      "taf_trigger": false,
      "metar": "METAR UGKO 091500Z 27006KT CAVOK 26/08 Q1015 NOSIG",
      "taf": "TAF UGKO 091100Z 0912/1012 28007KT CAVOK TX29/1011Z TN12/0920Z"
    }
  ]
}