{
  "ts_utc": "2026-01-03T20:31:59Z",
  "threshold_m": 150,
  "source": "stations_override.txt (ICAO list) + aviationweather.gov (METAR/TAF raw)",
  "station_count": 159,
  "stations": [
    {
      "icao": "BIKF",
      "alert": "OK",
      "vis_m": 9999,
      "fzfg": false,
      "metar_trigger": false,
      "taf_trigger": false,
      "metar": "METAR BIKF 032000Z 02007KT CAVOK M03/M07 Q1029",
      "taf": "TAF BIKF 031950Z 0321/0421 01008KT CAVOK TX02/0417Z TNM04/0408Z"
    },
    {
      "icao": "BKPR",
      "alert": "OK",
      "vis_m": 9999,
      "fzfg": false,
      "metar_trigger": false,
      "taf_trigger": false,
      "metar": "METAR BKPR 032030Z 35004KT 320V030 9999 SCT007 BKN015 OVC025 01/01 Q1008 NOSIG",
      "taf": "TAF BKPR 031730Z 0318/0418 35010KT 9999 FEW020 BKN040"
    },
    {
      "icao": "EBCI",
      "alert": "OK",
      "vis_m": 1600,
      "fzfg": false,
      "metar_trigger": false,
      "taf_trigger": false,
      "metar": "METAR EBCI 032020Z 25008KT 1600 SHSN BKN003 M01/M01 Q1009 BECMG 9999 NSW SCT035",
      "taf": "TAF EBCI 031720Z 0318/0424 27008KT 9999 SCT015"
    },
    {
      "icao": "EDDB",
      "alert": "OK",
      "vis_m": 9999,
      "fzfg": false,
      "metar_trigger": false,
      "taf_trigger": false,
      "metar": "METAR EDDB 032020Z AUTO 24015KT 9999 SCT015 OVC023 M00/M02 Q0997 TEMPO 2500 SHSN BKN009",
      "taf": ""
    },
    {
      "icao": "EDDH",
      "alert": "OK",
      "vis_m": 4500,
      "fzfg": false,
      "metar_trigger": false,
      "taf_trigger": false,
      "metar": "METAR EDDH 032020Z AUTO 32023KT 4500 -SN BR FEW006 BKN012 BKN017 M02/M04 Q0996 TEMPO 31020G30KT 2000 SHSN BKN005",
      "taf": "TAF EDDH 031700Z 0318/0424 24010KT 9999 BKN015"
    },
    {
      "icao": "EDDK",
      "alert": "OK",
      "vis_m": 9999,
      "fzfg": false,
      "metar_trigger": false,
      "taf_trigger": false,
      "metar": "METAR EDDK 032020Z AUTO 24008KT 9999 SCT014 SCT046 M00/M02 Q1006 TEMPO 2000 SHSN BKN008CB",
      "taf": "TAF EDDK 031700Z 0318/0424 27012KT 9999 BKN020"
    },
    {
      "icao": "EDDN",
      "alert": "OK",
      "vis_m": 9999,
      "fzfg": false,
      "metar_trigger": false,
      "taf_trigger": false,
      "metar": "METAR EDDN 032020Z AUTO 26015KT 9999 -SN FEW025 SCT039 BKN049 M01/M06 Q1006 NOSIG",
      "taf": "TAF EDDN 031700Z 0318/0418 24009KT 9999 BKN015"
    },
    {
      "icao": "EDDS",
      "alert": "OK",
      "vis_m": 9999,
      "fzfg": false,
      "metar_trigger": false,
      "taf_trigger": false,
      "metar": "METAR EDDS 032020Z AUTO VRB02KT 9999 BKN040 M04/M07 Q1008 NOSIG",
      "taf": "TAF EDDS 031700Z 0318/0418 22006KT 9999 FEW020 BKN040"
    },
    {
      "icao": "EDFH",
      "alert": "OK",
      "vis_m": 9999,
      "fzfg": false,
      "metar_trigger": false,
      "taf_trigger": false,
      "metar": "METAR EDFH 032020Z 27012KT 9999 BKN014 M03/M06 Q1006",
      "taf": ""
    },
    {
      "icao": "EDJA",
      "alert": "OK",
      "vis_m": 9999,
      "fzfg": false,
      "metar_trigger": false,
      "taf_trigger": false,
      "metar": "METAR EDJA 032020Z 23007KT 9999 -SN FEW017 BKN024 OVC031 M03/M06 Q1007",
      "taf": "TAF EDJA 031700Z 0318/0403 24010KT 9999 BKN040"
    },
    {
      "icao": "EDLW",
      "alert": "OK",
      "vis_m": 9999,
      "fzfg": false,
      "metar_trigger": false,
      "taf_trigger": false,
      "metar": "METAR EDLW 032020Z 24011KT 220V290 9999 SCT009 BKN011 00/M01 Q1004",
      "taf": "TAF EDLW 031700Z 0318/0418 25009KT 9999 SCT010 BKN015"
    },
    {
      "icao": "EDNY",
      "alert": "OK",
      "vis_m": 9999,
      "fzfg": false,
      "metar_trigger": false,
      "taf_trigger": false,
      "metar": "METAR EDNY 032020Z 25012KT 9999 BKN025 BKN036 OVC055 M01/M05 Q1009",
      "taf": "TAF EDNY 031700Z 0318/0403 25005KT 9999 BKN030"
    },
    {
      "icao": "EDSB",
      "alert": "OK",
      "vis_m": 9999,
      "fzfg": false,
      "metar_trigger": false,
      "taf_trigger": false,
      "metar": "METAR EDSB 032020Z 20006KT 9999 FEW027 BKN049 M03/M04 Q1010",
      "taf": "TAF EDSB 031700Z 0318/0418 21008KT 9999 FEW020 BKN030"
    },
    {
      "icao": "EETN",
      "alert": "OK",
      "vis_m": 1100,
      "fzfg": false,
      "metar_trigger": false,
      "taf_trigger": false,
      "metar": "METAR EETN 032020Z 10008KT 1100 R08/P2000N +SN SCT015 OVC030 M03/M03 Q0992 TEMPO 0800",
      "taf": "TAF EETN 031730Z 0318/0418 08012KT 3000 SN SCT008 OVC015"
    },
    {
      "icao": "EFTU",
      "alert": "OK",
      "vis_m": 9999,
      "fzfg": false,
      "metar_trigger": false,
      "taf_trigger": false,
      "metar": "METAR EFTU 032020Z AUTO 07009KT 9999 -SN NSC M10/M12 Q0994",
      "taf": "TAF EFTU 031726Z 0318/0418 07010KT 9999 BKN015"
    },
    {
      "icao": "EGBB",
      "alert": "OK",
      "vis_m": 9999,
      "fzfg": false,
      "metar_trigger": false,
      "taf_trigger": false,
      "metar": "METAR EGBB 032020Z 30009KT CAVOK M01/M05 Q1013",
      "taf": "TAF EGBB 031659Z 0318/0418 32009KT CAVOK"
    },
    {
      "icao": "EGGP",
      "alert": "OK",
      "vis_m": 9999,
      "fzfg": false,
      "metar_trigger": false,
      "taf_trigger": false,
      "metar": "METAR EGGP 032020Z 32006KT 9999 FEW038 M00/M07 Q1014",
      "taf": "TAF EGGP 031658Z 0318/0418 31009KT 9999 SCT035"
    },
    {
      "icao": "EGGW",
      "alert": "OK",
      "vis_m": 9999,
      "fzfg": false,
      "metar_trigger": false,
      "taf_trigger": false,
      "metar": "METAR EGGW 032020Z AUTO 30010KT 9999 NCD M01/M05 Q1012",
      "taf": "TAF EGGW 031659Z 0318/0418 30012KT 9999 FEW025"
    },
    {
      "icao": "EGKK",
      "alert": "OK",
      "vis_m": 9999,
      "fzfg": false,
      "metar_trigger": false,
      "taf_trigger": false,
      "metar": "METAR EGKK 032020Z 27005KT 210V310 CAVOK M01/M05 Q1013",
      "taf": "TAF EGKK 031655Z 0318/0424 30010KT CAVOK"
    },
    {
      "icao": "EGNM",
      "alert": "OK",
      "vis_m": 9999,
      "fzfg": false,
      "metar_trigger": false,
      "taf_trigger": false,
      "metar": "METAR EGNM 032020Z 30015KT CAVOK M02/M07 Q1012",
      "taf": "TAF EGNM 031657Z 0318/0418 30015KT 9999 FEW045"
    },
    {
      "icao": "EGPD",
      "alert": "OK",
      "vis_m": 5000,
      "fzfg": false,
      "metar_trigger": false,
      "taf_trigger": false,
      "metar": "METAR EGPD 032020Z 31014KT 5000 -SHSN SCT016 BKN022 M01/M03 Q1010 RESHSN TEMPO 1800 SHSN BKN014",
      "taf": "TAF EGPD 031658Z 0318/0418 31012KT 9999 FEW012"
    },
    {
      "icao": "EGPF",
      "alert": "OK",
      "vis_m": 9999,
      "fzfg": false,
      "metar_trigger": false,
      "taf_trigger": false,
      "metar": "METAR EGPF 032020Z AUTO 24006KT 9999 NCD M04/M06 Q1015",
      "taf": "TAF EGPF 031704Z 0318/0418 30007KT 9999 FEW030"
    },
    {
      "icao": "EHBK",
      "alert": "OK",
      "vis_m": 3900,
      "fzfg": false,
      "metar_trigger": false,
      "taf_trigger": false,
      "metar": "METAR EHBK 032025Z AUTO 24010KT 210V280 3900 -SN SCT005 OVC006 M00/M01 Q1007 TEMPO 2000 SHSN BKN015CB",
      "taf": "TAF EHBK 031710Z 0318/0424 24011KT 9999 BKN006"
    },
    {
      "icao": "EHEH",
      "alert": "OK",
      "vis_m": 9999,
      "fzfg": false,
      "metar_trigger": false,
      "taf_trigger": false,
      "metar": "METAR EHEH 032025Z AUTO 25009KT 200V280 9999 -SN SCT025 BKN029 BKN033 01/M00 Q1006 BLU TEMPO 2500 -SHSN SCT005 SCT015CB RMK TREND REMOTE BY EHWX",
      "taf": ""
    },
    {
      "icao": "EKBI",
      "alert": "OK",
      "vis_m": 9999,
      "fzfg": false,
      "metar_trigger": false,
      "taf_trigger": false,
      "metar": "METAR EKBI 032020Z AUTO 31006KT 9999 FEW016/// M06/M07 Q0996",
      "taf": "TAF EKBI 032027Z 0321/0421 26005KT 9999 FEW030"
    },
    {
      "icao": "EKCH",
      "alert": "OK",
      "vis_m": 9999,
      "fzfg": false,
      "metar_trigger": false,
      "taf_trigger": false,
      "metar": "METAR EKCH 032020Z 27007KT 9999 -SHSN NSC M05/M07 Q0993 NOSIG",
      "taf": "TAF EKCH 032027Z 0321/0421 28010KT 9999 -SHSN BKN040"
    },
    {
      "icao": "ENAL",
      "alert": "OK",
      "vis_m": 9999,
      "fzfg": false,
      "metar_trigger": false,
      "taf_trigger": false,
      "metar": "METAR ENAL 032020Z 07004KT 030V130 CAVOK M07/M12 Q1002",
      "taf": "TAF ENAL 031700Z 0318/0403 14009KT CAVOK"
    },
    {
      "icao": "ENBR",
      "alert": "OK",
      "vis_m": 9999,
      "fzfg": false,
      "metar_trigger": false,
      "taf_trigger": false,
      "metar": "METAR ENBR 032020Z 06003KT CAVOK M08/M14 Q1000 RMK WIND 1200FT 36003KT",
      "taf": "TAF ENBR 031700Z 0318/0418 08005KT CAVOK"
    },
    {
      "icao": "ENGM",
      "alert": "OK",
      "vis_m": 9000,
      "fzfg": false,
      "metar_trigger": false,
      "taf_trigger": false,
      "metar": "METAR ENGM 032020Z 01016KT 9000 -SN SCT038 BKN046 M08/M12 Q0997 TEMPO 4000",
      "taf": "TAF ENGM 031700Z 0318/0418 36015KT 9000 -SN BKN040"
    },
    {
      "icao": "ENHD",
      "alert": "OK",
      "vis_m": 9999,
      "fzfg": false,
      "metar_trigger": false,
      "taf_trigger": false,
      "metar": "METAR ENHD 032020Z 11006KT CAVOK M06/M13 Q1000",
      "taf": "TAF ENHD 031400Z 0315/0323 06009KT CAVOK"
    },
    {
      "icao": "ENTC",
      "alert": "OK",
      "vis_m": 9999,
      "fzfg": false,
      "metar_trigger": false,
      "taf_trigger": false,
      "metar": "METAR ENTC 032020Z 00000KT CAVOK M10/M13 Q1004 RMK WIND 2600FT 14010KT",
      "taf": "TAF ENTC 031700Z 0318/0418 19009KT 9999 FEW040"
    },
    {
      "icao": "ENTO",
      "alert": "OK",
      "vis_m": 1900,
      "fzfg": false,
      "metar_trigger": false,
      "taf_trigger": false,
      "metar": "METAR ENTO 032020Z 36012KT 1900 -SN VV011 M08/M10 Q0997 NOSIG",
      "taf": "TAF ENTO 031700Z 0318/0418 01012KT 8000 -SN BKN025"
    },
    {
      "icao": "ENVA",
      "alert": "OK",
      "vis_m": 9999,
      "fzfg": false,
      "metar_trigger": false,
      "taf_trigger": false,
      "metar": "METAR ENVA 032020Z 11008KT 9999 FEW001 M17/M18 Q1006 RMK WIND 670FT 14008KT",
      "taf": "TAF ENVA 031700Z 0318/0418 12009KT CAVOK"
    },
    {
      "icao": "ENZV",
      "alert": "OK",
      "vis_m": 9999,
      "fzfg": false,
      "metar_trigger": false,
      "taf_trigger": false,
      "metar": "METAR ENZV 032020Z 04008KT CAVOK M05/M15 Q1000 NOSIG",
      "taf": "TAF ENZV 031700Z 0318/0418 07005KT CAVOK"
    },
    {
      "icao": "EPGD",
      "alert": "OK",
      "vis_m": 9999,
      "fzfg": false,
      "metar_trigger": false,
      "taf_trigger": false,
      "metar": "METAR EPGD 032000Z 24012KT CAVOK M04/M09 Q0993",
      "taf": "TAF EPGD 031730Z 0318/0418 23010KT CAVOK"
    },
    {
      "icao": "EPKK",
      "alert": "OK",
      "vis_m": 9999,
      "fzfg": false,
      "metar_trigger": false,
      "taf_trigger": false,
      "metar": "METAR EPKK 032000Z 26006KT CAVOK M02/M08 Q1003",
      "taf": "TAF EPKK 032030Z 0321/0421 25005KT CAVOK"
    },
    {
      "icao": "EPKT",
      "alert": "OK",
      "vis_m": 9999,
      "fzfg": false,
      "metar_trigger": false,
      "taf_trigger": false,
      "metar": "METAR EPKT 032000Z 22015KT CAVOK M01/M07 Q1002",
      "taf": ""
    },
    {
      "icao": "EPLB",
      "alert": "OK",
      "vis_m": 9999,
      "fzfg": false,
      "metar_trigger": false,
      "taf_trigger": false,
      "metar": "METAR EPLB 032000Z 22015KT 9999 DRSN NSC M00/M06 Q1002",
      "taf": "TAF EPLB 031730Z 0318/0418 21013KT CAVOK"
    },
    {
      "icao": "EPMO",
      "alert": "OK",
      "vis_m": 9999,
      "fzfg": false,
      "metar_trigger": false,
      "taf_trigger": false,
      "metar": "METAR EPMO 032000Z 22013KT 9999 BKN037CB 01/M03 Q0998 RESHSN",
      "taf": "TAF EPMO 031730Z 0318/0418 21012KT 9999 BKN030"
    },
    {
      "icao": "EPPO",
      "alert": "OK",
      "vis_m": 9999,
      "fzfg": false,
      "metar_trigger": false,
      "taf_trigger": false,
      "metar": "METAR EPPO 032000Z 25011KT 9999 FEW043 M01/M04 Q0997",
      "taf": "TAF EPPO 031730Z 0318/0418 23014KT 9999 FEW017"
    },
    {
      "icao": "EPRA",
      "alert": "OK",
      "vis_m": 9999,
      "fzfg": false,
      "metar_trigger": false,
      "taf_trigger": false,
      "metar": "METAR EPRA 032000Z 23013KT CAVOK M00/M06 Q1001",
      "taf": "TAF EPRA 032030Z 0321/0406 23012KT 9999 SCT040"
    },
    {
      "icao": "EPRZ",
      "alert": "OK",
      "vis_m": 9999,
      "fzfg": false,
      "metar_trigger": false,
      "taf_trigger": false,
      "metar": "METAR EPRZ 032000Z 21006KT CAVOK M02/M11 Q1004",
      "taf": "TAF EPRZ 031730Z 0318/0418 20011KT CAVOK"
    },
    {
      "icao": "EPSC",
      "alert": "OK",
      "vis_m": 9999,
      "fzfg": false,
      "metar_trigger": false,
      "taf_trigger": false,
      "metar": "METAR EPSC 032000Z 14003KT 9999 SCT020 M06/M07 Q0995",
      "taf": "TAF EPSC 031730Z 0318/0418 20003KT CAVOK"
    },
    {
      "icao": "EPSY",
      "alert": "OK",
      "vis_m": 7000,
      "fzfg": false,
      "metar_trigger": false,
      "taf_trigger": false,
      "metar": "METAR EPSY 032000Z 20005KT 7000 FEW013 SCT023 M03/M03 Q0996",
      "taf": "TAF EPSY 032030Z 0321/0406 19006KT 7000 BKN020"
    },
    {
      "icao": "EPWA",
      "alert": "OK",
      "vis_m": 9999,
      "fzfg": false,
      "metar_trigger": false,
      "taf_trigger": false,
      "metar": "METAR EPWA 032000Z 23014KT 9999 -SHSN SCT045CB 01/M05 Q0999 NOSIG",
      "taf": "TAF EPWA 032030Z 0321/0421 23012KT 9999 BKN035"
    },
    {
      "icao": "EPWR",
      "alert": "OK",
      "vis_m": 9999,
      "fzfg": false,
      "metar_trigger": false,
      "taf_trigger": false,
      "metar": "METAR EPWR 032000Z 23015KT CAVOK 00/M06 Q1000",
      "taf": "TAF EPWR 032030Z 0321/0421 23012KT CAVOK"
    },
    {
      "icao": "ESGG",
      "alert": "OK",
      "vis_m": 9999,
      "fzfg": false,
      "metar_trigger": false,
      "taf_trigger": false,
      "metar": "METAR ESGG 032020Z 34009KT 9999 BKN007 M08/M09 Q0992",
      "taf": "TAF ESGG 031730Z 0318/0418 35009KT 6000 -SN SCT012 BKN020"
    },
    {
      "icao": "ESKN",
      "alert": "OK",
      "vis_m": 5000,
      "fzfg": false,
      "metar_trigger": false,
      "taf_trigger": false,
      "metar": "METAR ESKN 032020Z 01008KT 330V040 5000 -SHSN BLSN SCT007 BKN014 BKN019CB M02/M03 Q0989",
      "taf": "TAF ESKN 031730Z 0318/0418 01008KT 7000 -SN SCT008 BKN020"
    },
    {
      "icao": "ESMS",
      "alert": "OK",
      "vis_m": 9999,
      "fzfg": false,
      "metar_trigger": false,
      "taf_trigger": false,
      "metar": "METAR ESMS 032020Z 25007KT 9999 FEW031 M04/M06 Q0992",
      "taf": "TAF ESMS 031727Z 0318/0418 30010KT 9999 -SN BKN016"
    },
    {
      "icao": "ESSA",
      "alert": "OK",
      "vis_m": 9999,
      "fzfg": false,
      "metar_trigger": false,
      "taf_trigger": false,
      "metar": "METAR ESSA 032020Z 03014KT 9999 OVC005 M03/M04 Q0992 NOSIG",
      "taf": "TAF ESSA 031730Z 0318/0418 02015KT 9000 -SN BKN007"
    },
    {
      "icao": "EYKA",
      "alert": "OK",
      "vis_m": 9999,
      "fzfg": false,
      "metar_trigger": false,
      "taf_trigger": false,
      "metar": "METAR EYKA 032020Z 21007KT 170V240 CAVOK M02/M06 Q0995",
      "taf": "TAF EYKA 031700Z 0318/0418 22010KT 8000 SCT010 BKN020"
    },
    {
      "icao": "EYPA",
      "alert": "OK",
      "vis_m": 9999,
      "fzfg": false,
      "metar_trigger": false,
      "taf_trigger": false,
      "metar": "METAR EYPA 032020Z 24008KT 200V320 9999 -SHSNRA SCT008 BKN017CB BKN027 00/M01 Q0989",
      "taf": "TAF EYPA 031700Z 0318/0418 23010KT 8000 BKN020"
    },
    {
      "icao": "EYVI",
      "alert": "OK",
      "vis_m": 9999,
      "fzfg": false,
      "metar_trigger": false,
      "taf_trigger": false,
      "metar": "METAR EYVI 032020Z 22011KT 9999 OVC013 M03/M05 Q0995 BECMG BKN015",
      "taf": "TAF EYVI 031700Z 0318/0418 21010KT 8000 SCT010 BKN020"
    },
    {
      "icao": "GCFV",
      "alert": "OK",
      "vis_m": 9999,
      "fzfg": false,
      "metar_trigger": false,
      "taf_trigger": false,
      "metar": "METAR GCFV 032000Z 25013KT 230V360 9999 SCT035 19/14 Q1008",
      "taf": "TAF GCFV 032000Z 0321/0421 27015KT 9999 FEW025 SCT035 TX22/0414Z TN17/0406Z"
    },
    {
      "icao": "GCLP",
      "alert": "OK",
      "vis_m": 9999,
      "fzfg": false,
      "metar_trigger": false,
      "taf_trigger": false,
      "metar": "METAR GCLP 032000Z 24005KT 210V290 9999 FEW040 19/14 Q1009 NOSIG",
      "taf": "TAF GCLP 032000Z 0321/0421 28005KT 9999 FEW020 SCT035 TX21/0414Z TN16/0406Z"
    },
    {
      "icao": "GCTS",
      "alert": "OK",
      "vis_m": 9999,
      "fzfg": false,
      "metar_trigger": false,
      "taf_trigger": false,
      "metar": "METAR GCTS 032000Z VRB05KT 9999 FEW030 19/13 Q1008 NOSIG",
      "taf": "TAF GCTS 032000Z 0321/0421 33008KT 9999 SCT030 TX25/0414Z TN17/0406Z"
    },
    {
      "icao": "GMAD",
      "alert": "OK",
      "vis_m": 6000,
      "fzfg": false,
      "metar_trigger": false,
      "taf_trigger": false,
      "metar": "METAR GMAD 032000Z 21018KT 6000 FEW016 SCT026 BKN080 17/16 Q1005 NOSIG",
      "taf": "TAF GMAD 031700Z 0318/0424 20016KT 6000 SCT030TCU SCT080"
    },
    {
      "icao": "GMMN",
      "alert": "OK",
      "vis_m": 9999,
      "fzfg": false,
      "metar_trigger": false,
      "taf_trigger": false,
      "metar": "METAR GMMN 032000Z COR 21020KT 9999 SCT015 BKN024TCU 14/12 Q1000 NOSIG",
      "taf": "TAF GMMN 031700Z 0318/0424 22018KT 9999 SCT016 BKN030"
    },
    {
      "icao": "GMMX",
      "alert": "OK",
      "vis_m": 8000,
      "fzfg": false,
      "metar_trigger": false,
      "taf_trigger": false,
      "metar": "METAR GMMX 032000Z 26011KT 8000 SCT016 BKN080 14/11 Q1002 RERA NOSIG",
      "taf": "TAF GMMX 031700Z 0318/0424 12006KT 8000 SCT016 BKN023"
    },
    {
      "icao": "HEGN",
      "alert": "OK",
      "vis_m": 9999,
      "fzfg": false,
      "metar_trigger": false,
      "taf_trigger": false,
      "metar": "METAR HEGN 032000Z 30008KT CAVOK 16/08 Q1023 NOSIG",
      "taf": "TAF HEGN 031700Z 0318/0424 30010KT CAVOK"
    },
    {
      "icao": "HEMA",
      "alert": "OK",
      "vis_m": 9999,
      "fzfg": false,
      "metar_trigger": false,
      "taf_trigger": false,
      "metar": "METAR HEMA 032000Z 31012KT CAVOK 17/11 Q1021 NOSIG",
      "taf": "TAF HEMA 031700Z 0318/0424 34018KT CAVOK"
    },
    {
      "icao": "HESH",
      "alert": "OK",
      "vis_m": 9999,
      "fzfg": false,
      "metar_trigger": false,
      "taf_trigger": false,
      "metar": "METAR HESH 032000Z 35012KT CAVOK 19/12 Q1021 NOSIG",
      "taf": "TAF HESH 031700Z 0318/0424 33010KT CAVOK"
    },
    {
      "icao": "HESX",
      "alert": "OK",
      "vis_m": 9999,
      "fzfg": false,
      "metar_trigger": false,
      "taf_trigger": false,
      "metar": "METAR HESX 032000Z 05010KT CAVOK 11/07 Q1024 NOSIG",
      "taf": "TAF HESX 031700Z 0318/0424 04012KT CAVOK"
    },
    {
      "icao": "LATI",
      "alert": "OK",
      "vis_m": 9999,
      "fzfg": false,
      "metar_trigger": false,
      "taf_trigger": false,
      "metar": "METAR LATI 032020Z 13010KT 9999 SCT027 BKN078 15/08 Q1010 NOSIG",
      "taf": "TAF LATI 031700Z 0318/0418 15010KT 9999 SCT020 OVC070 TX16/0412Z TN09/0403Z"
    },
    {
      "icao": "LBPD",
      "alert": "OK",
      "vis_m": 9999,
      "fzfg": false,
      "metar_trigger": false,
      "taf_trigger": false,
      "metar": "METAR LBPD 032030Z AUTO VRB01KT 9999 OVC110/// 08/02 Q1009",
      "taf": "TAF LBPD 031700Z 0318/0418 VRB03KT 9999 SCT020 BKN080"
    },
    {
      "icao": "LBSF",
      "alert": "OK",
      "vis_m": 9999,
      "fzfg": false,
      "metar_trigger": false,
      "taf_trigger": false,
      "metar": "METAR LBSF 032030Z AUTO 34003KT 250V060 9999 BKN042/// BKN067/// OVC086/// 03/01 Q1009 NOSIG",
      "taf": "TAF LBSF 031700Z 0318/0418 30012KT 9999 SCT025 BKN050"
    },
    {
      "icao": "LBWN",
      "alert": "OK",
      "vis_m": 9999,
      "fzfg": false,
      "metar_trigger": false,
      "taf_trigger": false,
      "metar": "METAR LBWN 032030Z AUTO 30008KT 9999 BKN043/// 08/04 Q1012 NOSIG",
      "taf": "TAF LBWN 031700Z 0318/0418 32010KT 9999 SCT045"
    },
    {
      "icao": "LCLK",
      "alert": "OK",
      "vis_m": 9999,
      "fzfg": false,
      "metar_trigger": false,
      "taf_trigger": false,
      "metar": "METAR LCLK 032000Z 32006KT 9999 FEW035 10/07 Q1028 NOSIG",
      "taf": "TAF LCLK 031730Z 0318/0418 35007KT 9999 SCT050"
    },
    {
      "icao": "LCPH",
      "alert": "OK",
      "vis_m": 9999,
      "fzfg": false,
      "metar_trigger": false,
      "taf_trigger": false,
      "metar": "METAR LCPH 032000Z 07008KT 030V090 9999 SCT050 12/06 Q1027 NOSIG",
      "taf": "TAF LCPH 031730Z 0318/0418 06008KT 9999 SCT050"
    },
    {
      "icao": "LEAL",
      "alert": "OK",
      "vis_m": 9999,
      "fzfg": false,
      "metar_trigger": false,
      "taf_trigger": false,
      "metar": "METAR LEAL 032000Z 30003KT 280V010 CAVOK 15/10 Q1002 NOSIG",
      "taf": "TAF LEAL 031700Z 0318/0418 30003KT 9999 SCT020 TX15/0414Z TN11/0406Z"
    },
    {
      "icao": "LEBB",
      "alert": "OK",
      "vis_m": 9999,
      "fzfg": false,
      "metar_trigger": false,
      "taf_trigger": false,
      "metar": "METAR LEBB 032000Z 00000KT 9999 -RA SCT027 BKN037 06/05 Q1012 NOSIG",
      "taf": ""
    },
    {
      "icao": "LEBL",
      "alert": "OK",
      "vis_m": 9999,
      "fzfg": false,
      "metar_trigger": false,
      "taf_trigger": false,
      "metar": "METAR LEBL 032000Z 07008KT 9999 -DZ BKN023 11/08 Q1007 NOSIG",
      "taf": "TAF LEBL 031700Z 0318/0418 07010KT 9999 SCT025 BKN055 TX11/0412Z TN08/0406Z"
    },
    {
      "icao": "LECH",
      "alert": "OK",
      "vis_m": 8000,
      "fzfg": false,
      "metar_trigger": false,
      "taf_trigger": false,
      "metar": "METAR LECH 032000Z AUTO 03007KT 010V070 8000 BKN006 10/09 Q1005",
      "taf": ""
    },
    {
      "icao": "LEMD",
      "alert": "OK",
      "vis_m": 9999,
      "fzfg": false,
      "metar_trigger": false,
      "taf_trigger": false,
      "metar": "METAR LEMD 032000Z 32002KT CAVOK 08/07 Q1003 NOSIG",
      "taf": "TAF LEMD 031700Z 0318/0424 VRB04KT 9999 FEW045 TX09/0414Z TN03/0407Z"
    },
    {
      "icao": "LEMG",
      "alert": "OK",
      "vis_m": 9999,
      "fzfg": false,
      "metar_trigger": false,
      "taf_trigger": false,
      "metar": "METAR LEMG 032000Z 11007KT 060V140 9999 FEW015 BKN055 15/14 Q1001 NOSIG",
      "taf": "TAF LEMG 031700Z 0318/0418 11009KT 9999 SCT020 TX18/0414Z TN11/0407Z"
    },
    {
      "icao": "LEVC",
      "alert": "OK",
      "vis_m": 9999,
      "fzfg": false,
      "metar_trigger": false,
      "taf_trigger": false,
      "metar": "METAR LEVC 032000Z VRB08KT 9999 FEW025 BKN030 13/10 Q1005 NOSIG",
      "taf": "TAF LEVC 031700Z 0318/0418 03010KT 9999 SCT020 TX12/0414Z TN08/0406Z"
    },
    {
      "icao": "LEXJ",
      "alert": "OK",
      "vis_m": 6000,
      "fzfg": false,
      "metar_trigger": false,
      "taf_trigger": false,
      "metar": "METAR LEXJ 032000Z 09005KT 050V140 6000 DZ BKN016 BKN023 OVC041 06/04 Q1012",
      "taf": "TAF LEXJ 032000Z 0321/0421 08009KT 9000 SCT010 BKN020 TX08/0415Z TN03/0408Z"
    },
    {
      "icao": "LEZG",
      "alert": "OK",
      "vis_m": 7000,
      "fzfg": false,
      "metar_trigger": false,
      "taf_trigger": false,
      "metar": "METAR LEZG 032000Z 26009KT 240V300 7000 -RA BKN060 OVC070 08/08 Q1006 NOSIG",
      "taf": "TAF LEZG 031700Z 0318/0418 VRB04KT 9999 BKN050 TX06/0415Z TN02/0406Z"
    },
    {
      "icao": "LEZL",
      "alert": "OK",
      "vis_m": 6000,
      "fzfg": false,
      "metar_trigger": false,
      "taf_trigger": false,
      "metar": "SPECI LEZL 032016Z 10006KT 070V140 6000 RA FEW015 SCT030 14/14 Q1000 NOSIG",
      "taf": "TAF LEZL 032000Z 0321/0421 08010KT 9999 SCT030 TX16/0415Z TN09/0407Z"
    },
    {
      "icao": "LFBD",
      "alert": "OK",
      "vis_m": 9999,
      "fzfg": false,
      "metar_trigger": false,
      "taf_trigger": false,
      "metar": "METAR LFBD 032000Z AUTO 01003KT CAVOK M02/M03 Q1013 NOSIG",
      "taf": "TAF LFBD 031700Z 0318/0424 01004KT CAVOK TX03/0414Z TNM04/0407Z"
    },
    {
      "icao": "LFLL",
      "alert": "OK",
      "vis_m": 9999,
      "fzfg": false,
      "metar_trigger": false,
      "taf_trigger": false,
      "metar": "METAR LFLL 032000Z 36007KT CAVOK M02/M05 Q1011 NOSIG",
      "taf": "TAF LFLL 031700Z 0318/0424 35007KT CAVOK"
    },
    {
      "icao": "LFLS",
      "alert": "OK",
      "vis_m": 9999,
      "fzfg": false,
      "metar_trigger": false,
      "taf_trigger": false,
      "metar": "METAR LFLS 032000Z AUTO 02005KT CAVOK M02/M06 Q1010 NOSIG",
      "taf": "TAF LFLS 031400Z 0315/0415 35009KT CAVOK"
    },
    {
      "icao": "LFMN",
      "alert": "OK",
      "vis_m": 9999,
      "fzfg": false,
      "metar_trigger": false,
      "taf_trigger": false,
      "metar": "METAR LFMN 032000Z 33009KT 9999 FEW033 SCT240 06/03 Q1002 NOSIG",
      "taf": "TAF LFMN 032000Z 0321/0503 33010KT 9999 FEW030 BKN200"
    },
    {
      "icao": "LFOB",
      "alert": "OK",
      "vis_m": 9999,
      "fzfg": false,
      "metar_trigger": false,
      "taf_trigger": false,
      "metar": "METAR LFOB 032000Z AUTO 27003KT 9999 BKN038 BKN044 M01/M03 Q1012 NOSIG",
      "taf": "TAF LFOB 031700Z 0318/0418 28004KT CAVOK"
    },
    {
      "icao": "LFPO",
      "alert": "OK",
      "vis_m": 9999,
      "fzfg": false,
      "metar_trigger": false,
      "taf_trigger": false,
      "metar": "METAR LFPO 032000Z AUTO 25005KT 9999 BKN046 M00/M04 Q1012",
      "taf": ""
    },
    {
      "icao": "LFSB",
      "alert": "OK",
      "vis_m": 9999,
      "fzfg": false,
      "metar_trigger": false,
      "taf_trigger": false,
      "metar": "METAR LFSB 032000Z AUTO 26010KT 9999 FEW021 M01/M03 Q1011 NOSIG",
      "taf": ""
    },
    {
      "icao": "LGAV",
      "alert": "OK",
      "vis_m": 9999,
      "fzfg": false,
      "metar_trigger": false,
      "taf_trigger": false,
      "metar": "METAR LGAV 032020Z 22012KT 9999 FEW025 SCT060 16/08 Q1017 NOSIG",
      "taf": "TAF LGAV 031700Z 0318/0418 21019KT 9999 FEW025 SCT060"
    },
    {
      "icao": "LGTS",
      "alert": "OK",
      "vis_m": 9999,
      "fzfg": false,
      "metar_trigger": false,
      "taf_trigger": false,
      "metar": "METAR LGTS 032020Z VRB02KT 9999 FEW025 05/04 Q1011 NOSIG",
      "taf": "TAF LGTS 031700Z 0318/0418 VRB03KT 9999 FEW025"
    },
    {
      "icao": "LHBP",
      "alert": "OK",
      "vis_m": 9999,
      "fzfg": false,
      "metar_trigger": false,
      "taf_trigger": false,
      "metar": "METAR LHBP 032000Z 08003KT 050V110 9999 BKN002 BKN100 M05/M06 Q1008 TEMPO 4000 BR",
      "taf": "TAF LHBP 031715Z 0318/0418 VRB03KT CAVOK"
    },
    {
      "icao": "LHDC",
      "alert": "OK",
      "vis_m": 9999,
      "fzfg": false,
      "metar_trigger": false,
      "taf_trigger": false,
      "metar": "METAR LHDC 031945Z AUTO 20006KT 170V230 CAVOK M03/M04 Q1010",
      "taf": "TAF LHDC 031415Z 0315/0324 25010KT CAVOK"
    },
    {
      "icao": "LIBD",
      "alert": "OK",
      "vis_m": 9999,
      "fzfg": false,
      "metar_trigger": false,
      "taf_trigger": false,
      "metar": "METAR LIBD 032020Z 19005KT CAVOK 14/08 Q1007",
      "taf": "TAF LIBD 031700Z 0318/0418 19010KT 9999 FEW040"
    },
    {
      "icao": "LIBG",
      "alert": "OK",
      "vis_m": null,
      "fzfg": false,
      "metar_trigger": false,
      "taf_trigger": false,
      "metar": "",
      "taf": "TAF LIBG 031700Z 0318/0403 21006KT 9999 FEW040"
    },
    {
      "icao": "LIBP",
      "alert": "OK",
      "vis_m": 8000,
      "fzfg": false,
      "metar_trigger": false,
      "taf_trigger": false,
      "metar": "METAR LIBP 032020Z AUTO 14003KT 090V220 8000 SCT150/// BKN230/// 10/08 Q1003",
      "taf": "TAF LIBP 031700Z 0318/0418 VRB05KT 9999 BKN070"
    },
    {
      "icao": "LIBR",
      "alert": "OK",
      "vis_m": 9999,
      "fzfg": false,
      "metar_trigger": false,
      "taf_trigger": false,
      "metar": "METAR LIBR 032020Z 17006KT CAVOK 14/12 Q1009",
      "taf": "TAF LIBR 031700Z 0318/0418 19012KT 9999 FEW030"
    },
    {
      "icao": "LICA",
      "alert": "OK",
      "vis_m": 9999,
      "fzfg": false,
      "metar_trigger": false,
      "taf_trigger": false,
      "metar": "METAR LICA 032020Z AUTO 07007KT 9999 NCD 09/07 Q1010",
      "taf": "TAF LICA 031700Z 0318/0418 07010KT 9999 SCT040"
    },
    {
      "icao": "LICC",
      "alert": "OK",
      "vis_m": 9999,
      "fzfg": false,
      "metar_trigger": false,
      "taf_trigger": false,
      "metar": "METAR LICC 032020Z 27011KT 9999 BKN040 16/11 Q1012",
      "taf": ""
    },
    {
      "icao": "LICJ",
      "alert": "OK",
      "vis_m": 9999,
      "fzfg": false,
      "metar_trigger": false,
      "taf_trigger": false,
      "metar": "METAR LICJ 032020Z AUTO 20014KT 9999 NCD 15/08 Q1009",
      "taf": ""
    },
    {
      "icao": "LIMC",
      "alert": "OK",
      "vis_m": 300,
      "fzfg": true,
      "metar_trigger": false,
      "taf_trigger": false,
      "metar": "METAR LIMC 032020Z VRB02KT 0300 R35R/0275N R17L/0325N R35L/0275N FZFG OVC001 M01/M01 Q1004 NOSIG",
      "taf": "TAF LIMC 031700Z 0318/0424 VRB04KT 6000 BKN014"
    },
    {
      "icao": "LIME",
      "alert": "OK",
      "vis_m": 1500,
      "fzfg": false,
      "metar_trigger": false,
      "taf_trigger": false,
      "metar": "METAR LIME 032020Z VRB01KT 1500 R28/0450D BCFG FEW002 M02/M02 Q1004 NOSIG",
      "taf": "TAF LIME 031700Z 0318/0418 VRB04KT 3000 BR BKN015"
    },
    {
      "icao": "LIMF",
      "alert": "OK",
      "vis_m": 200,
      "fzfg": true,
      "metar_trigger": false,
      "taf_trigger": false,
      "metar": "METAR LIMF 032020Z VRB01KT 0200 R36/0500N FZFG BKN001 M04/M05 Q1003",
      "taf": ""
    },
    {
      "icao": "LIMJ",
      "alert": "OK",
      "vis_m": 9999,
      "fzfg": false,
      "metar_trigger": false,
      "taf_trigger": false,
      "metar": "METAR LIMJ 032020Z 04010KT CAVOK 09/M05 Q1002",
      "taf": "TAF LIMJ 031700Z 0318/0418 03015KT 9999 FEW030"
    },
    {
      "icao": "LIPE",
      "alert": "OK",
      "vis_m": 2300,
      "fzfg": false,
      "metar_trigger": false,
      "taf_trigger": false,
      "metar": "METAR LIPE 032020Z 26004KT 2300 BR SCT003 BKN005 02/02 Q1004",
      "taf": "TAF LIPE 031700Z 0318/0418 VRB05KT 2000 BR OVC008"
    },
    {
      "icao": "LIPH",
      "alert": "OK",
      "vis_m": 9999,
      "fzfg": false,
      "metar_trigger": false,
      "taf_trigger": false,
      "metar": "METAR LIPH 032020Z 03004KT CAVOK 04/M02 Q1004",
      "taf": "TAF LIPH 031700Z 0318/0418 VRB05KT 9000 SCT030"
    },
    {
      "icao": "LIPQ",
      "alert": "OK",
      "vis_m": 9999,
      "fzfg": false,
      "metar_trigger": false,
      "taf_trigger": false,
      "metar": "METAR LIPQ 032020Z AUTO 06005KT 030V090 9999 RA SCT025/// OVC035/// 05/03 Q1004",
      "taf": "TAF LIPQ 031700Z 0318/0418 VRB05KT 9999 SCT050"
    },
    {
      "icao": "LIPR",
      "alert": "OK",
      "vis_m": 200,
      "fzfg": false,
      "metar_trigger": false,
      "taf_trigger": false,
      "metar": "METAR LIPR 032020Z 31005KT 0200 R30/0750N FG VV002 03/03 Q1004",
      "taf": "TAF LIPR 031700Z 0318/0418 VRB05KT 1500 BR OVC006"
    },
    {
      "icao": "LIPX",
      "alert": "OK",
      "vis_m": 200,
      "fzfg": false,
      "metar_trigger": false,
      "taf_trigger": false,
      "metar": "METAR LIPX 032020Z 31005KT 0200 R04/1000D FG VV001 01/01 Q1004",
      "taf": "TAF LIPX 031700Z 0318/0418 VRB04KT 2000 BR SCT008"
    },
    {
      "icao": "LIPY",
      "alert": "OK",
      "vis_m": 2300,
      "fzfg": false,
      "metar_trigger": false,
      "taf_trigger": false,
      "metar": "METAR LIPY 032020Z AUTO VRB01KT 2300 BR SCT005/// BKN050/// 07/06 Q1003",
      "taf": "TAF LIPY 031700Z 0318/0418 VRB05KT 2000 BR FEW008 SCT040"
    },
    {
      "icao": "LIPZ",
      "alert": "OK",
      "vis_m": 7000,
      "fzfg": false,
      "metar_trigger": false,
      "taf_trigger": false,
      "metar": "METAR LIPZ 032020Z 04004KT 7000 SCT045 02/01 Q1004 NOSIG",
      "taf": "TAF LIPZ 031700Z 0318/0424 VRB05KT 8000 SCT030"
    },
    {
      "icao": "LIRF",
      "alert": "OK",
      "vis_m": 9999,
      "fzfg": false,
      "metar_trigger": false,
      "taf_trigger": false,
      "metar": "METAR LIRF 032020Z 22009KT 9999 BKN020 14/13 Q1005 NOSIG",
      "taf": "TAF LIRF 031700Z 0318/0424 24015KT 9999 SCT030"
    },
    {
      "icao": "LIRN",
      "alert": "OK",
      "vis_m": 9999,
      "fzfg": false,
      "metar_trigger": false,
      "taf_trigger": false,
      "metar": "METAR LIRN 032020Z 20009KT 170V230 9999 SCT020 15/13 Q1007 NOSIG",
      "taf": "TAF LIRN 031700Z 0318/0418 22014KT 9999 SCT030"
    },
    {
      "icao": "LIRP",
      "alert": "OK",
      "vis_m": 9999,
      "fzfg": false,
      "metar_trigger": false,
      "taf_trigger": false,
      "metar": "METAR LIRP 032015Z 26011KT 9999 FEW030 10/05 Q1003 NOSIG",
      "taf": "TAF LIRP 031700Z 0318/0418 22012KT 9999 FEW020 SCT040"
    },
    {
      "icao": "LIRZ",
      "alert": "OK",
      "vis_m": 9999,
      "fzfg": false,
      "metar_trigger": false,
      "taf_trigger": false,
      "metar": "METAR LIRZ 032020Z AUTO 17003KT 9999 FEW027/// SCT064/// BKN160/// 10/08 Q1003",
      "taf": "TAF LIRZ 031700Z 0318/0418 19013KT 9999 SCT030"
    },
    {
      "icao": "LJLJ",
      "alert": "OK",
      "vis_m": 9999,
      "fzfg": false,
      "metar_trigger": false,
      "taf_trigger": false,
      "metar": "METAR LJLJ 032000Z 31005KT 9999 -SN FEW010 OVC030 01/M01 Q1005 NOSIG",
      "taf": "TAF LJLJ 031700Z 0318/0418 VRB02KT 9999 FEW025 BKN040"
    },
    {
      "icao": "LKMT",
      "alert": "OK",
      "vis_m": 9999,
      "fzfg": false,
      "metar_trigger": false,
      "taf_trigger": false,
      "metar": "METAR LKMT 032000Z 20008KT CAVOK M01/M06 Q1004 NOSIG",
      "taf": "TAF LKMT 031700Z 0318/0418 21012KT CAVOK"
    },
    {
      "icao": "LKPR",
      "alert": "OK",
      "vis_m": 9999,
      "fzfg": false,
      "metar_trigger": false,
      "taf_trigger": false,
      "metar": "METAR LKPR 032000Z 21020KT 9999 FEW028 M02/M06 Q1002 NOSIG",
      "taf": "TAF LKPR 032000Z 0321/0503 22016KT 9999 SCT030"
    },
    {
      "icao": "LLBG",
      "alert": "OK",
      "vis_m": 9999,
      "fzfg": false,
      "metar_trigger": false,
      "taf_trigger": false,
      "metar": "METAR LLBG 032020Z VRB02KT CAVOK 10/06 Q1026 NOSIG",
      "taf": "TAF LLBG 031705Z 0318/0418 05005KT CAVOK"
    },
    {
      "icao": "LMML",
      "alert": "OK",
      "vis_m": 9999,
      "fzfg": false,
      "metar_trigger": false,
      "taf_trigger": false,
      "metar": "METAR LMML 032015Z 20011KT 150V230 CAVOK 16/11 Q1013 NOSIG",
      "taf": "TAF LMML 031700Z 0318/0418 21015KT 9999 FEW020"
    },
    {
      "icao": "LOWW",
      "alert": "OK",
      "vis_m": 9999,
      "fzfg": false,
      "metar_trigger": false,
      "taf_trigger": false,
      "metar": "METAR LOWW 032020Z 23007KT 9999 FEW048 OVC050 02/M07 Q1007 BECMG 29010KT",
      "taf": "TAF LOWW 032015Z 0321/0503 28012KT CAVOK TX01/0413Z TNM06/0502Z"
    },
    {
      "icao": "LPFR",
      "alert": "OK",
      "vis_m": 9999,
      "fzfg": false,
      "metar_trigger": false,
      "taf_trigger": false,
      "metar": "METAR LPFR 032000Z 09008KT 9999 FEW012 FEW018TCU SCT020 BKN030 16/14 Q0996",
      "taf": "TAF LPFR 031700Z 0318/0418 10010KT 9999 SCT015 SCT030"
    },
    {
      "icao": "LPMA",
      "alert": "OK",
      "vis_m": 9999,
      "fzfg": false,
      "metar_trigger": false,
      "taf_trigger": false,
      "metar": "METAR LPMA 032000Z 33011G23KT 270V030 9999 FEW015 18/09 Q1003",
      "taf": "TAF LPMA 031700Z 0318/0418 34010KT 9999 SCT015"
    },
    {
      "icao": "LPPR",
      "alert": "OK",
      "vis_m": 9999,
      "fzfg": false,
      "metar_trigger": false,
      "taf_trigger": false,
      "metar": "METAR LPPR 032000Z 06004KT CAVOK 14/09 Q1001",
      "taf": "TAF LPPR 031700Z 0318/0418 08007KT 9999 SCT045"
    },
    {
      "icao": "LPPS",
      "alert": "OK",
      "vis_m": 9999,
      "fzfg": false,
      "metar_trigger": false,
      "taf_trigger": false,
      "metar": "METAR LPPS 032000Z 30021KT 9999 SCT012 17/14 Q1002",
      "taf": "TAF LPPS 031700Z 0318/0424 31020KT 9999 SCT015"
    },
    {
      "icao": "LPPT",
      "alert": "OK",
      "vis_m": 9999,
      "fzfg": false,
      "metar_trigger": false,
      "taf_trigger": false,
      "metar": "METAR LPPT 032000Z 06008KT 9999 SCT004 BKN010 13/13 Q0998",
      "taf": "TAF LPPT 031700Z 0318/0424 10010KT 9999 SCT012 SCT018"
    },
    {
      "icao": "LQBK",
      "alert": "OK",
      "vis_m": 7000,
      "fzfg": false,
      "metar_trigger": false,
      "taf_trigger": false,
      "metar": "METAR LQBK 032000Z 32003KT 7000 OVC006 00/00 Q1006 NOSIG",
      "taf": "TAF LQBK 031700Z 0318/0418 06005KT 9999 SCT015 BKN040 TX01/0411Z TNM01/0418Z"
    },
    {
      "icao": "LQSA",
      "alert": "OK",
      "vis_m": 2500,
      "fzfg": false,
      "metar_trigger": false,
      "taf_trigger": false,
      "metar": "METAR LQSA 032000Z VRB02KT 2500 BR SCT007 BKN040 00/00 Q1005 NOSIG",
      "taf": ""
    },
    {
      "icao": "LQTZ",
      "alert": "OK",
      "vis_m": 9999,
      "fzfg": false,
      "metar_trigger": false,
      "taf_trigger": false,
      "metar": "METAR LQTZ 032000Z 12009KT 9999 SCT045 02/01 Q1006",
      "taf": "TAF LQTZ 031700Z 0318/0418 27005KT 8000 SCT015 BKN045 TX02/0318Z TNM01/0418Z"
    },
    {
      "icao": "LRBC",
      "alert": "OK",
      "vis_m": 9999,
      "fzfg": false,
      "metar_trigger": false,
      "taf_trigger": false,
      "metar": "METAR LRBC 032000Z 06005KT CAVOK 01/M06 Q1010",
      "taf": "TAF LRBC 032000Z 0321/0406 VRB04KT CAVOK"
    },
    {
      "icao": "LRBS",
      "alert": "OK",
      "vis_m": 7000,
      "fzfg": false,
      "metar_trigger": false,
      "taf_trigger": false,
      "metar": "METAR LRBS 032000Z 23005KT 7000 BKN005 03/02 Q1012 NOSIG",
      "taf": "TAF LRBS 031700Z 0318/0418 VRB04KT 9999 BKN045"
    },
    {
      "icao": "LRBV",
      "alert": "OK",
      "vis_m": 9999,
      "fzfg": false,
      "metar_trigger": false,
      "taf_trigger": false,
      "metar": "METAR LRBV 032000Z 22005KT CAVOK M07/M07 Q1010",
      "taf": "TAF LRBV 032000Z 0321/0406 VRB04KT CAVOK"
    },
    {
      "icao": "LRCL",
      "alert": "OK",
      "vis_m": 1600,
      "fzfg": false,
      "metar_trigger": false,
      "taf_trigger": false,
      "metar": "METAR LRCL 032000Z 12002KT 1600 BCFG BR FEW003 M10/M11 Q1011",
      "taf": "TAF LRCL 032000Z 0321/0406 VRB04KT 1500 BR NSC"
    },
    {
      "icao": "LRCV",
      "alert": "OK",
      "vis_m": 9999,
      "fzfg": false,
      "metar_trigger": false,
      "taf_trigger": false,
      "metar": "METAR LRCV 032000Z 21003KT 170V250 CAVOK 02/00 Q1011",
      "taf": "TAF LRCV 032000Z 0321/0406 VRB04KT CAVOK"
    },
    {
      "icao": "LRIA",
      "alert": "OK",
      "vis_m": 9999,
      "fzfg": false,
      "metar_trigger": false,
      "taf_trigger": false,
      "metar": "METAR LRIA 032000Z 29004KT 250V310 CAVOK 01/M05 Q1010",
      "taf": "TAF LRIA 032000Z 0321/0406 VRB04KT CAVOK"
    },
    {
      "icao": "LROP",
      "alert": "OK",
      "vis_m": 7000,
      "fzfg": false,
      "metar_trigger": false,
      "taf_trigger": false,
      "metar": "METAR LROP 032000Z 21006KT 7000 SCT004 02/02 Q1012 NOSIG",
      "taf": "TAF LROP 031700Z 0318/0418 VRB04KT 9999 BKN045"
    },
    {
      "icao": "LRSB",
      "alert": "OK",
      "vis_m": 4000,
      "fzfg": false,
      "metar_trigger": false,
      "taf_trigger": false,
      "metar": "METAR LRSB 032000Z 28004KT 4000 0600SW R27/P2000 PRFG BR NSC M06/M06 Q1010",
      "taf": ""
    },
    {
      "icao": "LRSM",
      "alert": "OK",
      "vis_m": 9999,
      "fzfg": false,
      "metar_trigger": false,
      "taf_trigger": false,
      "metar": "METAR LRSM 032000Z AUTO 16005KT 9999 SCT130/// M04/M06 Q1010",
      "taf": ""
    },
    {
      "icao": "LRSV",
      "alert": "OK",
      "vis_m": 9999,
      "fzfg": false,
      "metar_trigger": false,
      "taf_trigger": false,
      "metar": "METAR LRSV 032000Z 26009KT CAVOK M01/M09 Q1007",
      "taf": "TAF LRSV 032000Z 0321/0406 27010KT CAVOK"
    },
    {
      "icao": "LRTM",
      "alert": "OK",
      "vis_m": 9999,
      "fzfg": false,
      "metar_trigger": false,
      "taf_trigger": false,
      "metar": "METAR LRTM 032000Z AUTO 08005KT 9999 BKN025/// BKN110/// M03/M04 Q1011",
      "taf": "TAF LRTM 031400Z 0315/0324 VRB04KT 9999 SCT010 BKN025"
    },
    {
      "icao": "LRTR",
      "alert": "OK",
      "vis_m": 400,
      "fzfg": true,
      "metar_trigger": false,
      "taf_trigger": false,
      "metar": "METAR LRTR 032000Z 11004KT 0400 R29/0600U FZFG VV001 M02/M02 Q1010",
      "taf": ""
    },
    {
      "icao": "LTAC",
      "alert": "OK",
      "vis_m": 7000,
      "fzfg": false,
      "metar_trigger": false,
      "taf_trigger": false,
      "metar": "METAR LTAC 032020Z VRB02KT 7000 SCT040 BKN080 M01/M05 Q1023 NOSIG RMK RWY21C 14002KT RWY03L VRB02KT RWY21R 12002KT RWY03R VRB02KT RWY21L VRB02KT",
      "taf": "TAF LTAC 031640Z 0318/0418 VRB02KT 8000 SCT035 BKN100"
    },
    {
      "icao": "LTFM",
      "alert": "OK",
      "vis_m": 9999,
      "fzfg": false,
      "metar_trigger": false,
      "taf_trigger": false,
      "metar": "METAR LTFM 032020Z 21027KT 9999 SCT035 BKN080 13/09 Q1013 NOSIG RMK RWY17L 21026KT RWY34L 20023KT RWY16R 21024KT RWY36 21027KT RWY18 22030KT",
      "taf": "TAF LTFM 031640Z 0318/0424 21025G37KT 9999 -SHRA SCT035 BKN080"
    },
    {
      "icao": "LUKK",
      "alert": "OK",
      "vis_m": 9999,
      "fzfg": false,
      "metar_trigger": false,
      "taf_trigger": false,
      "metar": "METAR LUKK 032000Z 28006KT 220V300 CAVOK M00/M02 Q1010 NOSIG",
      "taf": "TAF LUKK 031717Z 0318/0418 VRB06KT CAVOK"
    },
    {
      "icao": "LWOH",
      "alert": "OK",
      "vis_m": 9999,
      "fzfg": false,
      "metar_trigger": false,
      "taf_trigger": false,
      "metar": "METAR LWOH 031950Z 11008KT 9999 FEW015 SCT040 11/06 Q1010",
      "taf": "TAF LWOH 032030Z 0321/0421 13010KT 9999 SCT020 OVC035"
    },
    {
      "icao": "LWSK",
      "alert": "OK",
      "vis_m": 9999,
      "fzfg": false,
      "metar_trigger": false,
      "taf_trigger": false,
      "metar": "METAR LWSK 032020Z 03012KT 9999 SCT050 BKN070 06/02 Q1009 NOSIG",
      "taf": "TAF LWSK 032030Z 0321/0421 03012KT 9999 SCT040 BKN060"
    },
    {
      "icao": "LYBE",
      "alert": "OK",
      "vis_m": 9999,
      "fzfg": false,
      "metar_trigger": false,
      "taf_trigger": false,
      "metar": "METAR LYBE 032000Z 12006KT 9999 SCT045 01/00 Q1009 NOSIG",
      "taf": "TAF LYBE 031700Z 0318/0418 14008KT 9999 SCT040 TX02/0405Z TNM01/0418Z"
    },
    {
      "icao": "LYNI",
      "alert": "OK",
      "vis_m": 7000,
      "fzfg": false,
      "metar_trigger": false,
      "taf_trigger": false,
      "metar": "METAR LYNI 032000Z VRB01KT 7000 SCT007 BKN040 OVC085 02/01 Q1010 NOSIG",
      "taf": "TAF LYNI 031700Z 0318/0418 02006KT 9999 SCT017 BKN035 OVC070 TX13/0411Z TN00/0418Z"
    },
    {
      "icao": "LYPG",
      "alert": "OK",
      "vis_m": 4000,
      "fzfg": false,
      "metar_trigger": false,
      "taf_trigger": false,
      "metar": "METAR LYPG 032000Z 21001KT 4000 RA FEW030 SCT040 OVC070 11/10 Q1007 NOSIG",
      "taf": "TAF LYPG 031700Z 0318/0418 15007KT 9999 FEW020 BKN040 OVC070 TX11/0413Z TN08/0406Z"
    },
    {
      "icao": "LZIB",
      "alert": "OK",
      "vis_m": 9999,
      "fzfg": false,
      "metar_trigger": false,
      "taf_trigger": false,
      "metar": "METAR LZIB 032000Z 21007KT CAVOK 01/M01 Q1007 NOSIG",
      "taf": "TAF LZIB 031715Z 0318/0418 19009KT 9999 FEW045"
    },
    {
      "icao": "LZKZ",
      "alert": "OK",
      "vis_m": 9999,
      "fzfg": false,
      "metar_trigger": false,
      "taf_trigger": false,
      "metar": "METAR LZKZ 032000Z 19007KT CAVOK M02/M07 Q1007 NOSIG",
      "taf": "TAF LZKZ 031715Z 0318/0418 22007KT CAVOK"
    },
    {
      "icao": "LZTT",
      "alert": "OK",
      "vis_m": 9999,
      "fzfg": false,
      "metar_trigger": false,
      "taf_trigger": false,
      "metar": "METAR LZTT 032000Z 25007KT CAVOK M04/M10 Q1003",
      "taf": "TAF LZTT 031715Z 0318/0418 26011KT CAVOK"
    },
    {
      "icao": "OEJN",
      "alert": "OK",
      "vis_m": 9999,
      "fzfg": false,
      "metar_trigger": false,
      "taf_trigger": false,
      "metar": "METAR OEJN 032000Z 34006KT CAVOK 25/16 Q1016 NOSIG",
      "taf": "TAF OEJN 031700Z 0318/0424 02005KT CAVOK"
    },
    {
      "icao": "OEMA",
      "alert": "OK",
      "vis_m": 8000,
      "fzfg": false,
      "metar_trigger": false,
      "taf_trigger": false,
      "metar": "METAR OEMA 032000Z 04012KT 8000 NSC 20/01 Q1024 NOSIG",
      "taf": "TAF OEMA 031700Z 0318/0424 05020KT 7000 NSC"
    },
    {
      "icao": "OJAI",
      "alert": "OK",
      "vis_m": 5000,
      "fzfg": false,
      "metar_trigger": false,
      "taf_trigger": false,
      "metar": "METAR OJAI 032000Z 07010KT 5000 HZ NSC 06/01 Q1029 NOSIG",
      "taf": "TAF OJAI 031700Z 0318/0424 12006KT 6000 NSC"
    },
    {
      "icao": "OMAA",
      "alert": "OK",
      "vis_m": 9999,
      "fzfg": false,
      "metar_trigger": false,
      "taf_trigger": false,
      "metar": "METAR OMAA 032000Z 28005KT CAVOK 20/17 Q1019 NOSIG",
      "taf": "TAF OMAA 031700Z 0318/0500 25005KT 8000 NSC"
    },
    {
      "icao": "OMDB",
      "alert": "OK",
      "vis_m": 9999,
      "fzfg": false,
      "metar_trigger": false,
      "taf_trigger": false,
      "metar": "METAR OMDB 032030Z 20003KT 9999 BKN030 21/17 Q1019 NOSIG",
      "taf": "TAF OMDB 031700Z 0318/0500 18005KT 8000 NSC"
    },
    {
      "icao": "UAAA",
      "alert": "OK",
      "vis_m": 150,
      "fzfg": true,
      "metar_trigger": false,
      "taf_trigger": false,
      "metar": "SPECI UAAA 032024Z 13001MPS 0150 R23L/0550D FZFG BKN005 M03/M03 Q1023 NOSIG RMK QBB150",
      "taf": "TAF UAAA 031702Z 0318/0418 16003MPS 0200 FZFG VV001 TX05/0409Z TNM03/0402Z"
    },
    {
      "icao": "UBBB",
      "alert": "OK",
      "vis_m": 9999,
      "fzfg": false,
      "metar_trigger": false,
      "taf_trigger": false,
      "metar": "METAR UBBB 032000Z 20020KT CAVOK 05/M03 Q1022 NOSIG",
      "taf": "TAF UBBB 031705Z 0318/0418 18018G28KT CAVOK TX07/0409Z TN01/0401Z"
    },
    {
      "icao": "UDSG",
      "alert": "OK",
      "vis_m": 5000,
      "fzfg": false,
      "metar_trigger": false,
      "taf_trigger": false,
      "metar": "METAR UDSG 032000Z 06003KT 5000 BR NSC M25/M28 Q1028 NOSIG",
      "taf": "TAF UDSG 031658Z 0318/0418 VRB06KT 5000 BR FEW040"
    },
    {
      "icao": "UDYZ",
      "alert": "OK",
      "vis_m": 7000,
      "fzfg": false,
      "metar_trigger": false,
      "taf_trigger": false,
      "metar": "METAR UDYZ 032000Z 11001KT 7000 NSC M11/M14 Q1031 NOSIG",
      "taf": "TAF UDYZ 031700Z 0318/0418 VRB04KT 6000 NSC"
    },
    {
      "icao": "UGKO",
      "alert": "OK",
      "vis_m": 9999,
      "fzfg": false,
      "metar_trigger": false,
      "taf_trigger": false,
      "metar": "METAR UGKO 032000Z 09012KT CAVOK 00/M07 Q1022 NOSIG",
      "taf": "TAF UGKO 031700Z 0318/0418 08008KT CAVOK TX08/0412Z TNM02/0402Z"
    }
  ]
}