{
  "ts_utc": "2026-06-24T04:41:06Z",
  "threshold_m": 150,
  "source": "stations_override.txt (ICAO list) + aviationweather.gov (METAR/TAF raw)",
  "station_count": 159,
  "stations": [
    {
      "icao": "BIKF",
      "alert": "OK",
      "vis_m": 9999,
      "fzfg": false,
      "metar_trigger": false,
      "taf_trigger": false,
      "metar": "METAR BIKF 240430Z 01005KT 9999 FEW009 SCT034 BKN085 09/09 Q1001",
      "taf": "TAF BIKF 240111Z 2403/2503 01007KT 9999 -RA BKN020 TX13/2415Z TN09/2403Z"
    },
    {
      "icao": "BKPR",
      "alert": "OK",
      "vis_m": 9999,
      "fzfg": false,
      "metar_trigger": false,
      "taf_trigger": false,
      "metar": "METAR BKPR 240430Z VRB01KT 9999 SCT050 17/16 Q1019 NOSIG",
      "taf": "TAF BKPR 232330Z 2400/2424 34008KT 9999 FEW050"
    },
    {
      "icao": "EBCI",
      "alert": "OK",
      "vis_m": 9999,
      "fzfg": false,
      "metar_trigger": false,
      "taf_trigger": false,
      "metar": "METAR EBCI 240420Z 16003KT CAVOK 22/17 Q1018 NOSIG",
      "taf": "TAF EBCI 232314Z 2400/2506 VRB04KT CAVOK"
    },
    {
      "icao": "EDDB",
      "alert": "OK",
      "vis_m": 9999,
      "fzfg": false,
      "metar_trigger": false,
      "taf_trigger": false,
      "metar": "METAR EDDB 240420Z AUTO 07003KT CAVOK 18/13 Q1019 NOSIG",
      "taf": "TAF EDDB 232300Z 2400/2424 VRB03KT CAVOK"
    },
    {
      "icao": "EDDH",
      "alert": "OK",
      "vis_m": 9999,
      "fzfg": false,
      "metar_trigger": false,
      "taf_trigger": false,
      "metar": "METAR EDDH 240420Z AUTO 08003KT CAVOK 17/12 Q1019 NOSIG",
      "taf": "TAF EDDH 232300Z 2400/2506 VRB03KT CAVOK"
    },
    {
      "icao": "EDDK",
      "alert": "OK",
      "vis_m": 9999,
      "fzfg": false,
      "metar_trigger": false,
      "taf_trigger": false,
      "metar": "METAR EDDK 240420Z AUTO 07003KT 050V130 CAVOK 18/17 Q1019 NOSIG",
      "taf": "TAF EDDK 232300Z 2400/2506 11003KT CAVOK"
    },
    {
      "icao": "EDDN",
      "alert": "OK",
      "vis_m": 9999,
      "fzfg": false,
      "metar_trigger": false,
      "taf_trigger": false,
      "metar": "METAR EDDN 240420Z AUTO VRB01KT CAVOK 19/16 Q1020 NOSIG",
      "taf": "TAF EDDN 232300Z 2400/2424 VRB02KT CAVOK"
    },
    {
      "icao": "EDDS",
      "alert": "OK",
      "vis_m": 9999,
      "fzfg": false,
      "metar_trigger": false,
      "taf_trigger": false,
      "metar": "METAR EDDS 240420Z AUTO 10002KT CAVOK 20/17 Q1020 NOSIG",
      "taf": "TAF EDDS 232300Z 2400/2424 VRB03KT CAVOK"
    },
    {
      "icao": "EDFH",
      "alert": "OK",
      "vis_m": 9999,
      "fzfg": false,
      "metar_trigger": false,
      "taf_trigger": false,
      "metar": "METAR EDFH 240420Z 11003KT CAVOK 20/16 Q1021",
      "taf": "TAF EDFH 232300Z 2400/2424 12004KT CAVOK"
    },
    {
      "icao": "EDJA",
      "alert": "OK",
      "vis_m": 9999,
      "fzfg": false,
      "metar_trigger": false,
      "taf_trigger": false,
      "metar": "METAR EDJA 240420Z 13002KT CAVOK 16/14 Q1021",
      "taf": "TAF EDJA 240200Z 2403/2412 VRB02KT CAVOK"
    },
    {
      "icao": "EDLW",
      "alert": "OK",
      "vis_m": 9999,
      "fzfg": false,
      "metar_trigger": false,
      "taf_trigger": false,
      "metar": "METAR EDLW 240420Z 15006KT CAVOK 20/17 Q1019",
      "taf": "TAF EDLW 240320Z 2404/2424 14006KT CAVOK"
    },
    {
      "icao": "EDNY",
      "alert": "OK",
      "vis_m": 9999,
      "fzfg": false,
      "metar_trigger": false,
      "taf_trigger": false,
      "metar": "METAR EDNY 240420Z 04004KT 360V070 CAVOK 18/16 Q1020",
      "taf": "TAF EDNY 240200Z 2403/2412 VRB02KT CAVOK"
    },
    {
      "icao": "EDSB",
      "alert": "OK",
      "vis_m": 9999,
      "fzfg": false,
      "metar_trigger": false,
      "taf_trigger": false,
      "metar": "METAR EDSB 240420Z 01007KT CAVOK 22/19 Q1018",
      "taf": "TAF EDSB 232300Z 2400/2424 VRB03KT CAVOK"
    },
    {
      "icao": "EETN",
      "alert": "OK",
      "vis_m": 9999,
      "fzfg": false,
      "metar_trigger": false,
      "taf_trigger": false,
      "metar": "METAR EETN 240420Z 18006KT 9999 -RA NSC 13/12 Q1014 TEMPO 5000 RA",
      "taf": "TAF EETN 232330Z 2400/2424 19007KT 9999 SCT045"
    },
    {
      "icao": "EFTU",
      "alert": "OK",
      "vis_m": 9999,
      "fzfg": false,
      "metar_trigger": false,
      "taf_trigger": false,
      "metar": "METAR EFTU 240420Z AUTO 23003KT 190V270 9999 -SHRA FEW006 15/14 Q1012",
      "taf": ""
    },
    {
      "icao": "EGBB",
      "alert": "OK",
      "vis_m": 9999,
      "fzfg": false,
      "metar_trigger": false,
      "taf_trigger": false,
      "metar": "METAR EGBB 240420Z 32007KT 9999 SCT034 21/18 Q1018",
      "taf": ""
    },
    {
      "icao": "EGGP",
      "alert": "OK",
      "vis_m": 5000,
      "fzfg": false,
      "metar_trigger": false,
      "taf_trigger": false,
      "metar": "METAR EGGP 240420Z VRB02KT 5000 HZ NSC 17/16 Q1019",
      "taf": ""
    },
    {
      "icao": "EGGW",
      "alert": "OK",
      "vis_m": 9999,
      "fzfg": false,
      "metar_trigger": false,
      "taf_trigger": false,
      "metar": "METAR EGGW 240420Z AUTO 35004KT 290V010 9999 NCD 21/19 Q1017",
      "taf": "TAF EGGW 232253Z 2400/2424 13002KT CAVOK"
    },
    {
      "icao": "EGKK",
      "alert": "OK",
      "vis_m": 9999,
      "fzfg": false,
      "metar_trigger": false,
      "taf_trigger": false,
      "metar": "METAR EGKK 240420Z 32003KT 9999 MIFG NSC 22/20 Q1016",
      "taf": "TAF EGKK 232300Z 2400/2506 02003KT CAVOK"
    },
    {
      "icao": "EGNM",
      "alert": "OK",
      "vis_m": 9999,
      "fzfg": false,
      "metar_trigger": false,
      "taf_trigger": false,
      "metar": "METAR EGNM 240420Z 27006KT 9999 FEW027 18/17 Q1019",
      "taf": "TAF EGNM 232254Z 2400/2424 31005KT 9999 FEW040"
    },
    {
      "icao": "EGPD",
      "alert": "OK",
      "vis_m": 9999,
      "fzfg": false,
      "metar_trigger": false,
      "taf_trigger": false,
      "metar": "METAR EGPD 240420Z AUTO 01004KT 340V050 9999 BKN035 13/13 Q1018",
      "taf": "TAF EGPD 232255Z 2400/2424 VRB03KT 9999 FEW030"
    },
    {
      "icao": "EGPF",
      "alert": "OK",
      "vis_m": 9999,
      "fzfg": false,
      "metar_trigger": false,
      "taf_trigger": false,
      "metar": "METAR EGPF 240420Z AUTO 24006KT 9999 OVC021 15/14 Q1019",
      "taf": "TAF EGPF 232258Z 2400/2424 31005KT 9999 BKN020"
    },
    {
      "icao": "EHBK",
      "alert": "OK",
      "vis_m": 9999,
      "fzfg": false,
      "metar_trigger": false,
      "taf_trigger": false,
      "metar": "METAR EHBK 240425Z AUTO 16002KT 9999 NCD 21/17 Q1018 NOSIG",
      "taf": "TAF EHBK 232314Z 2400/2506 09003KT CAVOK"
    },
    {
      "icao": "EHEH",
      "alert": "OK",
      "vis_m": 9999,
      "fzfg": false,
      "metar_trigger": false,
      "taf_trigger": false,
      "metar": "METAR EHEH 240425Z AUTO VRB02KT 9999 NCD 20/18 Q1018 BLU",
      "taf": "TAF EHEH 232309Z 2400/2506 09003KT CAVOK"
    },
    {
      "icao": "EKBI",
      "alert": "OK",
      "vis_m": 9999,
      "fzfg": false,
      "metar_trigger": false,
      "taf_trigger": false,
      "metar": "METAR EKBI 240420Z AUTO 14002KT 9999 BKN064/// BKN240/// 15/15 Q1019",
      "taf": "TAF EKBI 240227Z 2403/2503 VRB03KT CAVOK"
    },
    {
      "icao": "EKCH",
      "alert": "OK",
      "vis_m": 9999,
      "fzfg": false,
      "metar_trigger": false,
      "taf_trigger": false,
      "metar": "METAR EKCH 240420Z AUTO 22002KT 9999 BKN120/// 16/13 Q1020 NOSIG",
      "taf": "TAF EKCH 240227Z 2403/2503 VRB02KT CAVOK"
    },
    {
      "icao": "ENAL",
      "alert": "OK",
      "vis_m": 9999,
      "fzfg": false,
      "metar_trigger": false,
      "taf_trigger": false,
      "metar": "METAR ENAL 240420Z 15006KT 110V170 9999 -RA FEW007 SCT012 BKN022 12/12 Q1012",
      "taf": "TAF ENAL 240200Z 2403/2412 14005KT 9999 -RA FEW015 BKN025"
    },
    {
      "icao": "ENBR",
      "alert": "OK",
      "vis_m": 9999,
      "fzfg": false,
      "metar_trigger": false,
      "taf_trigger": false,
      "metar": "METAR ENBR 240350Z 15010KT 9999 BKN013 13/10 Q1015 RMK WIND 1200FT 16020KT",
      "taf": "TAF ENBR 232300Z 2400/2424 15012KT 9999 FEW008 BKN014"
    },
    {
      "icao": "ENGM",
      "alert": "OK",
      "vis_m": 9999,
      "fzfg": false,
      "metar_trigger": false,
      "taf_trigger": false,
      "metar": "METAR ENGM 240420Z 00000KT 9999 VCFG NSC 13/12 Q1014 NOSIG",
      "taf": "TAF ENGM 232300Z 2400/2424 VRB03KT CAVOK"
    },
    {
      "icao": "ENHD",
      "alert": "OK",
      "vis_m": 9999,
      "fzfg": false,
      "metar_trigger": false,
      "taf_trigger": false,
      "metar": "METAR ENHD 240420Z 15006KT 9999 BKN009 15/12 Q1016",
      "taf": "TAF ENHD 240200Z 2403/2412 16010KT 9999 BKN012"
    },
    {
      "icao": "ENTC",
      "alert": "OK",
      "vis_m": 9999,
      "fzfg": false,
      "metar_trigger": false,
      "taf_trigger": false,
      "metar": "METAR ENTC 240420Z 00000KT 9999 FEW015 BKN053 09/06 Q1014 RMK WIND 2600FT VRB02KT",
      "taf": ""
    },
    {
      "icao": "ENTO",
      "alert": "OK",
      "vis_m": 9999,
      "fzfg": false,
      "metar_trigger": false,
      "taf_trigger": false,
      "metar": "METAR ENTO 240420Z 21006KT 160V220 CAVOK 15/08 Q1015 NOSIG",
      "taf": "TAF ENTO 232300Z 2400/2424 23008KT CAVOK"
    },
    {
      "icao": "ENVA",
      "alert": "OK",
      "vis_m": 9999,
      "fzfg": false,
      "metar_trigger": false,
      "taf_trigger": false,
      "metar": "METAR ENVA 240420Z 09004KT 9999 -DZRA FEW004 SCT015 BKN038 11/11 Q1013 TEMPO RA BKN014 RMK WIND 670FT 09003KT",
      "taf": "TAF ENVA 232300Z 2400/2424 VRB05KT 9999 -RA FEW020 BKN040"
    },
    {
      "icao": "ENZV",
      "alert": "OK",
      "vis_m": 9999,
      "fzfg": false,
      "metar_trigger": false,
      "taf_trigger": false,
      "metar": "METAR ENZV 240420Z 18005KT 9999 OVC016 15/12 Q1016 BECMG BKN012",
      "taf": "TAF ENZV 232300Z 2400/2424 17010KT 9999 BKN045"
    },
    {
      "icao": "EPGD",
      "alert": "OK",
      "vis_m": 9999,
      "fzfg": false,
      "metar_trigger": false,
      "taf_trigger": false,
      "metar": "METAR EPGD 240430Z 26006KT CAVOK 14/12 Q1019",
      "taf": ""
    },
    {
      "icao": "EPKK",
      "alert": "OK",
      "vis_m": 9999,
      "fzfg": false,
      "metar_trigger": false,
      "taf_trigger": false,
      "metar": "METAR EPKK 240430Z 26002KT CAVOK 16/13 Q1020",
      "taf": "TAF EPKK 240230Z 2403/2503 VRB02KT CAVOK"
    },
    {
      "icao": "EPKT",
      "alert": "OK",
      "vis_m": 9999,
      "fzfg": false,
      "metar_trigger": false,
      "taf_trigger": false,
      "metar": "METAR EPKT 240430Z VRB01KT CAVOK 16/13 Q1020",
      "taf": "TAF EPKT 232330Z 2400/2424 VRB02KT CAVOK"
    },
    {
      "icao": "EPLB",
      "alert": "OK",
      "vis_m": 9999,
      "fzfg": false,
      "metar_trigger": false,
      "taf_trigger": false,
      "metar": "METAR EPLB 240430Z 30003KT CAVOK 17/12 Q1019",
      "taf": "TAF EPLB 232330Z 2400/2424 31005KT CAVOK"
    },
    {
      "icao": "EPMO",
      "alert": "OK",
      "vis_m": 9999,
      "fzfg": false,
      "metar_trigger": false,
      "taf_trigger": false,
      "metar": "METAR EPMO 240430Z VRB01KT CAVOK 17/13 Q1019",
      "taf": "TAF EPMO 232330Z 2400/2424 VRB02KT CAVOK"
    },
    {
      "icao": "EPPO",
      "alert": "OK",
      "vis_m": 9999,
      "fzfg": false,
      "metar_trigger": false,
      "taf_trigger": false,
      "metar": "METAR EPPO 240430Z VRB02KT CAVOK 15/12 Q1020",
      "taf": "TAF EPPO 232330Z 2400/2424 VRB02KT CAVOK"
    },
    {
      "icao": "EPRA",
      "alert": "OK",
      "vis_m": 9999,
      "fzfg": false,
      "metar_trigger": false,
      "taf_trigger": false,
      "metar": "METAR EPRA 240430Z 27003KT CAVOK 17/08 Q1020",
      "taf": "TAF EPRA 240230Z 2403/2412 27008KT CAVOK"
    },
    {
      "icao": "EPRZ",
      "alert": "OK",
      "vis_m": 9999,
      "fzfg": false,
      "metar_trigger": false,
      "taf_trigger": false,
      "metar": "METAR EPRZ 240430Z 26005KT CAVOK 16/11 Q1019",
      "taf": "TAF EPRZ 232330Z 2400/2424 VRB02KT CAVOK"
    },
    {
      "icao": "EPSC",
      "alert": "OK",
      "vis_m": 9999,
      "fzfg": false,
      "metar_trigger": false,
      "taf_trigger": false,
      "metar": "METAR EPSC 240430Z 00000KT CAVOK 17/13 Q1020",
      "taf": "TAF EPSC 232330Z 2400/2424 VRB02KT CAVOK"
    },
    {
      "icao": "EPSY",
      "alert": "OK",
      "vis_m": 9999,
      "fzfg": false,
      "metar_trigger": false,
      "taf_trigger": false,
      "metar": "METAR EPSY 240430Z VRB01KT CAVOK 13/12 Q1019",
      "taf": "TAF EPSY 240230Z 2403/2412 VRB02KT CAVOK"
    },
    {
      "icao": "EPWA",
      "alert": "OK",
      "vis_m": 9999,
      "fzfg": false,
      "metar_trigger": false,
      "taf_trigger": false,
      "metar": "METAR EPWA 240430Z 24002KT CAVOK 16/12 Q1019 NOSIG",
      "taf": "TAF EPWA 240230Z 2403/2503 VRB03KT CAVOK"
    },
    {
      "icao": "EPWR",
      "alert": "OK",
      "vis_m": 9999,
      "fzfg": false,
      "metar_trigger": false,
      "taf_trigger": false,
      "metar": "METAR EPWR 240430Z VRB01KT CAVOK 15/12 Q1020",
      "taf": "TAF EPWR 240230Z 2403/2503 VRB02KT CAVOK"
    },
    {
      "icao": "ESGG",
      "alert": "OK",
      "vis_m": 9999,
      "fzfg": false,
      "metar_trigger": false,
      "taf_trigger": false,
      "metar": "METAR ESGG 240420Z 23006KT CAVOK 15/11 Q1017",
      "taf": "TAF ESGG 240230Z 2403/2503 25006KT CAVOK"
    },
    {
      "icao": "ESKN",
      "alert": "OK",
      "vis_m": 9999,
      "fzfg": false,
      "metar_trigger": false,
      "taf_trigger": false,
      "metar": "METAR ESKN 240420Z 25005KT CAVOK 16/12 Q1014",
      "taf": "TAF ESKN 240230Z 2403/2503 25007KT CAVOK"
    },
    {
      "icao": "ESMS",
      "alert": "OK",
      "vis_m": 9999,
      "fzfg": false,
      "metar_trigger": false,
      "taf_trigger": false,
      "metar": "METAR ESMS 240420Z 00000KT CAVOK 12/12 Q1020",
      "taf": "TAF ESMS 240227Z 2403/2503 VRB02KT CAVOK"
    },
    {
      "icao": "ESSA",
      "alert": "OK",
      "vis_m": 9999,
      "fzfg": false,
      "metar_trigger": false,
      "taf_trigger": false,
      "metar": "METAR ESSA 240420Z 27003KT CAVOK 14/12 Q1013 NOSIG",
      "taf": "TAF ESSA 240230Z 2403/2503 VRB03KT CAVOK"
    },
    {
      "icao": "EYKA",
      "alert": "OK",
      "vis_m": 9999,
      "fzfg": false,
      "metar_trigger": false,
      "taf_trigger": false,
      "metar": "METAR EYKA 240420Z VRB01KT CAVOK 14/09 Q1019",
      "taf": "TAF EYKA 232300Z 2400/2424 VRB03KT CAVOK"
    },
    {
      "icao": "EYPA",
      "alert": "OK",
      "vis_m": 9999,
      "fzfg": false,
      "metar_trigger": false,
      "taf_trigger": false,
      "metar": "METAR EYPA 240420Z 17004KT CAVOK 16/14 Q1018",
      "taf": "TAF EYPA 232300Z 2400/2424 VRB03KT 9000 NSC"
    },
    {
      "icao": "EYVI",
      "alert": "OK",
      "vis_m": 9999,
      "fzfg": false,
      "metar_trigger": false,
      "taf_trigger": false,
      "metar": "METAR EYVI 240420Z 04003KT 360V090 CAVOK 16/10 Q1019 NOSIG",
      "taf": "TAF EYVI 232300Z 2400/2424 VRB03KT CAVOK"
    },
    {
      "icao": "GCFV",
      "alert": "OK",
      "vis_m": 9999,
      "fzfg": false,
      "metar_trigger": false,
      "taf_trigger": false,
      "metar": "METAR GCFV 240430Z AUTO 35006KT CAVOK 20/16 Q1016",
      "taf": "TAF GCFV 240200Z 2403/2503 36008KT 9999 BKN018 TX25/2414Z TN20/2406Z"
    },
    {
      "icao": "GCLP",
      "alert": "OK",
      "vis_m": 9999,
      "fzfg": false,
      "metar_trigger": false,
      "taf_trigger": false,
      "metar": "METAR GCLP 240430Z 36012KT 9999 FEW020 21/16 Q1016 NOSIG",
      "taf": "TAF GCLP 240200Z 2403/2503 01012KT 9999 BKN025 TX25/2414Z TN20/2406Z"
    },
    {
      "icao": "GCTS",
      "alert": "OK",
      "vis_m": 9999,
      "fzfg": false,
      "metar_trigger": false,
      "taf_trigger": false,
      "metar": "METAR GCTS 240430Z 09007KT 9999 SCT030 22/17 Q1016 NOSIG",
      "taf": "TAF GCTS 240200Z 2403/2503 03008KT 9999 BKN025 TX26/2414Z TN19/2406Z"
    },
    {
      "icao": "GMAD",
      "alert": "OK",
      "vis_m": 8000,
      "fzfg": false,
      "metar_trigger": false,
      "taf_trigger": false,
      "metar": "METAR GMAD 240430Z 09003KT 8000 FEW020 17/15 Q1014 NOSIG",
      "taf": "TAF GMAD 232300Z 2400/2506 06008KT 8000 SCT010"
    },
    {
      "icao": "GMMN",
      "alert": "OK",
      "vis_m": 9999,
      "fzfg": false,
      "metar_trigger": false,
      "taf_trigger": false,
      "metar": "METAR GMMN 240430Z 05004KT 010V070 9999 BKN013 20/16 Q1014 NOSIG",
      "taf": "TAF GMMN 232300Z 2400/2506 36003KT 9999 BKN013"
    },
    {
      "icao": "GMMX",
      "alert": "OK",
      "vis_m": 9999,
      "fzfg": false,
      "metar_trigger": false,
      "taf_trigger": false,
      "metar": "METAR GMMX 240400Z 25004KT CAVOK 18/15 Q1015 NOSIG",
      "taf": "TAF GMMX 232300Z 2400/2506 24006KT 8000 NSC"
    },
    {
      "icao": "HEGN",
      "alert": "OK",
      "vis_m": 9999,
      "fzfg": false,
      "metar_trigger": false,
      "taf_trigger": false,
      "metar": "METAR HEGN 240400Z 31010KT CAVOK 26/12 Q1009 NOSIG",
      "taf": "TAF HEGN 232300Z 2400/2506 29008G20KT CAVOK"
    },
    {
      "icao": "HEMA",
      "alert": "OK",
      "vis_m": 9999,
      "fzfg": false,
      "metar_trigger": false,
      "taf_trigger": false,
      "metar": "METAR HEMA 240400Z 32016KT CAVOK 30/06 Q1008 NOSIG",
      "taf": "TAF HEMA 232300Z 2400/2506 30008G20KT CAVOK"
    },
    {
      "icao": "HESH",
      "alert": "OK",
      "vis_m": 9999,
      "fzfg": false,
      "metar_trigger": false,
      "taf_trigger": false,
      "metar": "METAR HESH 240400Z 36011KT CAVOK 29/15 Q1008 NOSIG",
      "taf": "TAF HESH 232300Z 2400/2506 32012KT CAVOK"
    },
    {
      "icao": "HESX",
      "alert": "OK",
      "vis_m": 9999,
      "fzfg": false,
      "metar_trigger": false,
      "taf_trigger": false,
      "metar": "METAR HESX 240400Z 26003KT CAVOK 21/16 Q1011 NOSIG",
      "taf": "TAF HESX 232300Z 2400/2506 32009KT CAVOK"
    },
    {
      "icao": "LATI",
      "alert": "OK",
      "vis_m": 9999,
      "fzfg": false,
      "metar_trigger": false,
      "taf_trigger": false,
      "metar": "METAR LATI 240420Z 15003KT 100V200 CAVOK 22/17 Q1014 NOSIG",
      "taf": "TAF LATI 232300Z 2400/2424 VRB03KT CAVOK TX34/2412Z TN20/2404Z"
    },
    {
      "icao": "LBPD",
      "alert": "OK",
      "vis_m": 9999,
      "fzfg": false,
      "metar_trigger": false,
      "taf_trigger": false,
      "metar": "METAR LBPD 240430Z AUTO 31009KT 9999 BKN073/// 21/17 Q1017 NOSIG",
      "taf": "TAF LBPD 232300Z 2400/2424 VRB04KT 9999 SCT070"
    },
    {
      "icao": "LBSF",
      "alert": "OK",
      "vis_m": 8000,
      "fzfg": false,
      "metar_trigger": false,
      "taf_trigger": false,
      "metar": "METAR LBSF 240430Z 30005KT 8000 FEW008 SCT015 BKN066 17/15 Q1018 TEMPO BKN002",
      "taf": "TAF LBSF 232300Z 2400/2424 VRB04KT 9999 SCT060"
    },
    {
      "icao": "LBWN",
      "alert": "OK",
      "vis_m": 4400,
      "fzfg": false,
      "metar_trigger": false,
      "taf_trigger": false,
      "metar": "METAR LBWN 240430Z 28003KT 260V330 4400 BR NSC 17/14 Q1015 TEMPO 2000 BR",
      "taf": "TAF LBWN 232300Z 2400/2424 VRB03KT CAVOK"
    },
    {
      "icao": "LCLK",
      "alert": "OK",
      "vis_m": 9999,
      "fzfg": false,
      "metar_trigger": false,
      "taf_trigger": false,
      "metar": "METAR LCLK 240430Z 25004KT CAVOK 31/18 Q1007 NOSIG",
      "taf": "TAF LCLK 232330Z 2400/2500 28007KT 9999 FEW025"
    },
    {
      "icao": "LCPH",
      "alert": "OK",
      "vis_m": 9999,
      "fzfg": false,
      "metar_trigger": false,
      "taf_trigger": false,
      "metar": "METAR LCPH 240430Z AUTO 33004KT 310V010 9999 SCT006 27/21 Q1008 NOSIG",
      "taf": "TAF LCPH 232330Z 2400/2500 35009KT 9999 FEW020"
    },
    {
      "icao": "LEAL",
      "alert": "OK",
      "vis_m": 9999,
      "fzfg": false,
      "metar_trigger": false,
      "taf_trigger": false,
      "metar": "METAR LEAL 240430Z 29003KT 250V350 9999 FEW011 24/11 Q1015 NOSIG",
      "taf": "TAF LEAL 232300Z 2400/2424 34004KT CAVOK TX33/2412Z TN22/2406Z"
    },
    {
      "icao": "LEBB",
      "alert": "OK",
      "vis_m": 9999,
      "fzfg": false,
      "metar_trigger": false,
      "taf_trigger": false,
      "metar": "METAR LEBB 240430Z 09003KT 040V130 CAVOK 23/18 Q1013 NOSIG",
      "taf": "TAF LEBB 232300Z 2400/2424 12005KT CAVOK TX38/2412Z TN24/2406Z"
    },
    {
      "icao": "LEBL",
      "alert": "OK",
      "vis_m": 7000,
      "fzfg": false,
      "metar_trigger": false,
      "taf_trigger": false,
      "metar": "METAR LEBL 240430Z 32005KT 7000 NSC 23/18 Q1016 NOSIG",
      "taf": "TAF LEBL 232300Z 2400/2424 VRB04KT CAVOK TX31/2412Z TN23/2405Z"
    },
    {
      "icao": "LECH",
      "alert": "OK",
      "vis_m": 9999,
      "fzfg": false,
      "metar_trigger": false,
      "taf_trigger": false,
      "metar": "METAR LECH 240430Z AUTO VRB01KT CAVOK 20/11 Q1017",
      "taf": "TAF LECH 232300Z 2400/2424 VRB03KT CAVOK TX35/2412Z TN20/2406Z"
    },
    {
      "icao": "LEMD",
      "alert": "OK",
      "vis_m": 9999,
      "fzfg": false,
      "metar_trigger": false,
      "taf_trigger": false,
      "metar": "METAR LEMD 240430Z VRB02KT CAVOK 24/08 Q1018 NOSIG",
      "taf": "TAF LEMD 232300Z 2400/2506 VRB04KT CAVOK TX40/2416Z TN23/2405Z"
    },
    {
      "icao": "LEMG",
      "alert": "OK",
      "vis_m": 9999,
      "fzfg": false,
      "metar_trigger": false,
      "taf_trigger": false,
      "metar": "METAR LEMG 240430Z 28008KT CAVOK 23/14 Q1014 NOSIG",
      "taf": "TAF LEMG 232300Z 2400/2424 29006KT CAVOK TX30/2414Z TN22/2406Z"
    },
    {
      "icao": "LEVC",
      "alert": "OK",
      "vis_m": 9999,
      "fzfg": false,
      "metar_trigger": false,
      "taf_trigger": false,
      "metar": "METAR LEVC 240430Z 27003KT CAVOK 21/13 Q1015 NOSIG",
      "taf": "TAF LEVC 232300Z 2400/2424 31004KT CAVOK TX35/2412Z TN22/2406Z"
    },
    {
      "icao": "LEXJ",
      "alert": "OK",
      "vis_m": 9999,
      "fzfg": false,
      "metar_trigger": false,
      "taf_trigger": false,
      "metar": "METAR LEXJ 240430Z VRB02KT CAVOK 21/19 Q1012",
      "taf": "TAF LEXJ 240200Z 2403/2503 18005KT 9999 FEW010 TX38/2412Z TN20/2405Z"
    },
    {
      "icao": "LEZG",
      "alert": "OK",
      "vis_m": 9999,
      "fzfg": false,
      "metar_trigger": false,
      "taf_trigger": false,
      "metar": "METAR LEZG 240430Z 06002KT CAVOK 25/12 Q1016 NOSIG",
      "taf": "TAF LEZG 232300Z 2400/2424 11007KT CAVOK TX40/2415Z TN25/2406Z"
    },
    {
      "icao": "LEZL",
      "alert": "OK",
      "vis_m": 9999,
      "fzfg": false,
      "metar_trigger": false,
      "taf_trigger": false,
      "metar": "METAR LEZL 240430Z 12004KT CAVOK 22/20 Q1014 NOSIG",
      "taf": "TAF LEZL 240200Z 2403/2503 VRB03KT CAVOK TX35/2415Z TN21/2406Z"
    },
    {
      "icao": "LFBD",
      "alert": "OK",
      "vis_m": 9999,
      "fzfg": false,
      "metar_trigger": false,
      "taf_trigger": false,
      "metar": "METAR LFBD 240430Z AUTO 10005KT CAVOK 26/16 Q1014 NOSIG",
      "taf": "TAF LFBD 232300Z 2400/2506 06008KT CAVOK TX42/2415Z TN27/2404Z"
    },
    {
      "icao": "LFLL",
      "alert": "OK",
      "vis_m": 9999,
      "fzfg": false,
      "metar_trigger": false,
      "taf_trigger": false,
      "metar": "METAR LFLL 240430Z VRB02KT CAVOK 23/16 Q1017 NOSIG",
      "taf": "TAF LFLL 232300Z 2400/2506 VRB02KT CAVOK"
    },
    {
      "icao": "LFLS",
      "alert": "OK",
      "vis_m": 9999,
      "fzfg": false,
      "metar_trigger": false,
      "taf_trigger": false,
      "metar": "METAR LFLS 240430Z AUTO 08007KT CAVOK 19/16 Q1018 NOSIG",
      "taf": "TAF LFLS 240200Z 2403/2503 09007KT CAVOK"
    },
    {
      "icao": "LFMN",
      "alert": "OK",
      "vis_m": 9999,
      "fzfg": false,
      "metar_trigger": false,
      "taf_trigger": false,
      "metar": "METAR LFMN 240430Z 34008KT CAVOK 26/17 Q1015 NOSIG",
      "taf": "TAF LFMN 240200Z 2403/2509 33010KT CAVOK"
    },
    {
      "icao": "LFOB",
      "alert": "OK",
      "vis_m": 9999,
      "fzfg": false,
      "metar_trigger": false,
      "taf_trigger": false,
      "metar": "METAR LFOB 240430Z AUTO VRB02KT CAVOK 20/18 Q1017 NOSIG",
      "taf": "TAF LFOB 232300Z 2400/2424 12006KT CAVOK"
    },
    {
      "icao": "LFPO",
      "alert": "OK",
      "vis_m": 9999,
      "fzfg": false,
      "metar_trigger": false,
      "taf_trigger": false,
      "metar": "METAR LFPO 240430Z AUTO VRB01KT CAVOK 25/16 Q1017 NOSIG",
      "taf": "TAF LFPO 232300Z 2400/2506 12008KT CAVOK"
    },
    {
      "icao": "LFSB",
      "alert": "OK",
      "vis_m": 9999,
      "fzfg": false,
      "metar_trigger": false,
      "taf_trigger": false,
      "metar": "METAR LFSB 240430Z AUTO VRB01KT CAVOK 20/18 Q1019 NOSIG",
      "taf": "TAF LFSB 232300Z 2400/2424 VRB03KT CAVOK"
    },
    {
      "icao": "LGAV",
      "alert": "OK",
      "vis_m": 9999,
      "fzfg": false,
      "metar_trigger": false,
      "taf_trigger": false,
      "metar": "METAR LGAV 240420Z 06006KT CAVOK 24/12 Q1014 NOSIG",
      "taf": "TAF LGAV 232300Z 2400/2424 02012KT 9999 FEW025"
    },
    {
      "icao": "LGTS",
      "alert": "OK",
      "vis_m": 9999,
      "fzfg": false,
      "metar_trigger": false,
      "taf_trigger": false,
      "metar": "METAR LGTS 240420Z VRB03KT 9999 FEW025 23/19 Q1015 NOSIG",
      "taf": "TAF LGTS 232300Z 2400/2424 VRB03KT 9999 SCT025"
    },
    {
      "icao": "LHBP",
      "alert": "OK",
      "vis_m": 9999,
      "fzfg": false,
      "metar_trigger": false,
      "taf_trigger": false,
      "metar": "METAR LHBP 240430Z 35005KT CAVOK 22/15 Q1018 NOSIG",
      "taf": "TAF LHBP 232315Z 2400/2424 09009KT CAVOK"
    },
    {
      "icao": "LHDC",
      "alert": "OK",
      "vis_m": 9999,
      "fzfg": false,
      "metar_trigger": false,
      "taf_trigger": false,
      "metar": "METAR LHDC 240415Z AUTO 03009KT CAVOK 22/13 Q1017 NOSIG",
      "taf": "TAF LHDC 240215Z 2403/2412 03009KT CAVOK"
    },
    {
      "icao": "LIBD",
      "alert": "OK",
      "vis_m": 9999,
      "fzfg": false,
      "metar_trigger": false,
      "taf_trigger": false,
      "metar": "METAR LIBD 240420Z 28004KT CAVOK 26/16 Q1014",
      "taf": "TAF LIBD 232300Z 2400/2424 27006KT CAVOK"
    },
    {
      "icao": "LIBG",
      "alert": "OK",
      "vis_m": 9999,
      "fzfg": false,
      "metar_trigger": false,
      "taf_trigger": false,
      "metar": "METAR LIBG 240420Z AUTO VRB01KT 9999 NCD 23/17 Q1014",
      "taf": "TAF LIBG 232300Z 2400/2424 VRB04KT 9999 FEW050"
    },
    {
      "icao": "LIBP",
      "alert": "OK",
      "vis_m": 9999,
      "fzfg": false,
      "metar_trigger": false,
      "taf_trigger": false,
      "metar": "METAR LIBP 240420Z AUTO 23005KT 9999 NCD 21/17 Q1016",
      "taf": "TAF LIBP 232300Z 2400/2424 VRB04KT CAVOK"
    },
    {
      "icao": "LIBR",
      "alert": "OK",
      "vis_m": 9999,
      "fzfg": false,
      "metar_trigger": false,
      "taf_trigger": false,
      "metar": "METAR LIBR 240420Z 31004KT CAVOK 24/19 Q1013",
      "taf": "TAF LIBR 232300Z 2400/2424 28006KT CAVOK"
    },
    {
      "icao": "LICA",
      "alert": "OK",
      "vis_m": 9999,
      "fzfg": false,
      "metar_trigger": false,
      "taf_trigger": false,
      "metar": "METAR LICA 240420Z AUTO 07003KT 9999 FEW015/// 23/22 Q1015",
      "taf": "TAF LICA 232300Z 2400/2424 VRB05KT 9999 FEW020"
    },
    {
      "icao": "LICC",
      "alert": "OK",
      "vis_m": 9999,
      "fzfg": false,
      "metar_trigger": false,
      "taf_trigger": false,
      "metar": "METAR LICC 240420Z 23003KT CAVOK 22/15 Q1015",
      "taf": "TAF LICC 232300Z 2400/2424 26006KT CAVOK"
    },
    {
      "icao": "LICJ",
      "alert": "OK",
      "vis_m": 9999,
      "fzfg": false,
      "metar_trigger": false,
      "taf_trigger": false,
      "metar": "METAR LICJ 240420Z 19003KT 150V220 CAVOK 24/22 Q1015",
      "taf": "TAF LICJ 232300Z 2400/2424 VRB05KT CAVOK"
    },
    {
      "icao": "LIMC",
      "alert": "OK",
      "vis_m": 9999,
      "fzfg": false,
      "metar_trigger": false,
      "taf_trigger": false,
      "metar": "METAR LIMC 240420Z VRB02KT CAVOK 24/20 Q1018 NOSIG",
      "taf": "TAF LIMC 232300Z 2400/2506 VRB06KT CAVOK"
    },
    {
      "icao": "LIME",
      "alert": "OK",
      "vis_m": 9999,
      "fzfg": false,
      "metar_trigger": false,
      "taf_trigger": false,
      "metar": "METAR LIME 240420Z AUTO 01003KT 330V030 9999 NCD 23/20 Q1018",
      "taf": "TAF LIME 232300Z 2400/2424 VRB05KT 9999 FEW060"
    },
    {
      "icao": "LIMF",
      "alert": "OK",
      "vis_m": 9999,
      "fzfg": false,
      "metar_trigger": false,
      "taf_trigger": false,
      "metar": "METAR LIMF 240420Z 34004KT CAVOK 26/19 Q1018",
      "taf": "TAF LIMF 232300Z 2400/2424 VRB06KT CAVOK"
    },
    {
      "icao": "LIMJ",
      "alert": "OK",
      "vis_m": 9999,
      "fzfg": false,
      "metar_trigger": false,
      "taf_trigger": false,
      "metar": "METAR LIMJ 240420Z VRB02KT CAVOK 26/15 Q1015",
      "taf": "TAF LIMJ 232300Z 2400/2424 VRB06KT CAVOK"
    },
    {
      "icao": "LIPE",
      "alert": "OK",
      "vis_m": 9999,
      "fzfg": false,
      "metar_trigger": false,
      "taf_trigger": false,
      "metar": "METAR LIPE 240420Z AUTO 20003KT 170V240 9999 FEW170/// 25/19 Q1016",
      "taf": "TAF LIPE 232300Z 2400/2424 10010KT CAVOK"
    },
    {
      "icao": "LIPH",
      "alert": "OK",
      "vis_m": 9999,
      "fzfg": false,
      "metar_trigger": false,
      "taf_trigger": false,
      "metar": "METAR LIPH 240420Z AUTO VRB02KT 9999 SCT110/// 25/20 Q1017",
      "taf": "TAF LIPH 232300Z 2400/2424 VRB05KT 9999 FEW040"
    },
    {
      "icao": "LIPQ",
      "alert": "OK",
      "vis_m": 9999,
      "fzfg": false,
      "metar_trigger": false,
      "taf_trigger": false,
      "metar": "METAR LIPQ 240420Z AUTO VRB02KT 9999 NCD 22/20 Q1017",
      "taf": "TAF LIPQ 232300Z 2400/2424 08007KT 9999 FEW040"
    },
    {
      "icao": "LIPR",
      "alert": "OK",
      "vis_m": 9999,
      "fzfg": false,
      "metar_trigger": false,
      "taf_trigger": false,
      "metar": "METAR LIPR 240420Z AUTO VRB01KT 9999 NCD 23/18 Q1016",
      "taf": "TAF LIPR 232300Z 2400/2424 VRB05KT CAVOK"
    },
    {
      "icao": "LIPX",
      "alert": "OK",
      "vis_m": 9999,
      "fzfg": false,
      "metar_trigger": false,
      "taf_trigger": false,
      "metar": "METAR LIPX 240420Z VRB01KT CAVOK 25/20 Q1017",
      "taf": "TAF LIPX 232300Z 2400/2424 VRB05KT 9999 FEW060"
    },
    {
      "icao": "LIPY",
      "alert": "OK",
      "vis_m": 9999,
      "fzfg": false,
      "metar_trigger": false,
      "taf_trigger": false,
      "metar": "METAR LIPY 240420Z AUTO 21003KT 9999 OVC150/// 23/19 Q1016",
      "taf": "TAF LIPY 232300Z 2400/2424 VRB05KT CAVOK"
    },
    {
      "icao": "LIPZ",
      "alert": "OK",
      "vis_m": 9999,
      "fzfg": false,
      "metar_trigger": false,
      "taf_trigger": false,
      "metar": "METAR LIPZ 240420Z 03006KT CAVOK 24/19 Q1016 NOSIG",
      "taf": "TAF LIPZ 232300Z 2400/2506 VRB05KT CAVOK"
    },
    {
      "icao": "LIRF",
      "alert": "OK",
      "vis_m": 9999,
      "fzfg": false,
      "metar_trigger": false,
      "taf_trigger": false,
      "metar": "METAR LIRF 240420Z 02003KT CAVOK 21/19 Q1015 NOSIG",
      "taf": "TAF LIRF 232300Z 2400/2506 VRB05KT CAVOK"
    },
    {
      "icao": "LIRN",
      "alert": "OK",
      "vis_m": 9999,
      "fzfg": false,
      "metar_trigger": false,
      "taf_trigger": false,
      "metar": "METAR LIRN 240420Z VRB02KT CAVOK 23/18 Q1015 NOSIG",
      "taf": "TAF LIRN 232300Z 2400/2424 VRB05KT CAVOK"
    },
    {
      "icao": "LIRP",
      "alert": "OK",
      "vis_m": 9999,
      "fzfg": false,
      "metar_trigger": false,
      "taf_trigger": false,
      "metar": "METAR LIRP 240415Z 13002KT CAVOK 22/18 Q1015 NOSIG",
      "taf": "TAF LIRP 232300Z 2400/2424 12005KT CAVOK"
    },
    {
      "icao": "LIRZ",
      "alert": "OK",
      "vis_m": 9999,
      "fzfg": false,
      "metar_trigger": false,
      "taf_trigger": false,
      "metar": "METAR LIRZ 240420Z AUTO 01004KT 330V030 9999 NCD 21/15 Q1017",
      "taf": "TAF LIRZ 232300Z 2400/2424 VRB05KT CAVOK"
    },
    {
      "icao": "LJLJ",
      "alert": "OK",
      "vis_m": 9999,
      "fzfg": false,
      "metar_trigger": false,
      "taf_trigger": false,
      "metar": "METAR LJLJ 240430Z 33005KT 9999 FEW007 19/18 Q1020 NOSIG",
      "taf": "TAF LJLJ 232300Z 2400/2500 09006KT 9999 SCT055"
    },
    {
      "icao": "LKMT",
      "alert": "OK",
      "vis_m": 9999,
      "fzfg": false,
      "metar_trigger": false,
      "taf_trigger": false,
      "metar": "METAR LKMT 240430Z VRB02KT CAVOK 14/12 Q1021 NOSIG",
      "taf": "TAF LKMT 232300Z 2400/2424 VRB02KT CAVOK"
    },
    {
      "icao": "LKPR",
      "alert": "OK",
      "vis_m": 9999,
      "fzfg": false,
      "metar_trigger": false,
      "taf_trigger": false,
      "metar": "METAR LKPR 240430Z VRB02KT CAVOK 18/14 Q1021 NOSIG",
      "taf": "TAF LKPR 240200Z 2403/2509 06004KT CAVOK"
    },
    {
      "icao": "LLBG",
      "alert": "OK",
      "vis_m": 9999,
      "fzfg": false,
      "metar_trigger": false,
      "taf_trigger": false,
      "metar": "METAR LLBG 240420Z 17006KT 9999 SCT021 25/13 Q1010 NOSIG",
      "taf": "TAF LLBG 232306Z 2400/2424 VRB04KT 9999 FEW020 TX31/2411Z TN22/2403Z"
    },
    {
      "icao": "LMML",
      "alert": "OK",
      "vis_m": 9999,
      "fzfg": false,
      "metar_trigger": false,
      "taf_trigger": false,
      "metar": "METAR LMML 240415Z 29004KT CAVOK 24/21 Q1015 NOSIG",
      "taf": "TAF LMML 232300Z 2400/2424 27008KT 9999 FEW018"
    },
    {
      "icao": "LOWW",
      "alert": "OK",
      "vis_m": 9999,
      "fzfg": false,
      "metar_trigger": false,
      "taf_trigger": false,
      "metar": "METAR LOWW 240420Z 33006KT CAVOK 19/13 Q1020 NOSIG",
      "taf": "TAF LOWW 240215Z 2403/2509 34004KT CAVOK TX32/2414Z TN18/2503Z"
    },
    {
      "icao": "LPFR",
      "alert": "OK",
      "vis_m": 9999,
      "fzfg": false,
      "metar_trigger": false,
      "taf_trigger": false,
      "metar": "METAR LPFR 240430Z 30004KT 9999 FEW009 20/18 Q1013",
      "taf": "TAF LPFR 232300Z 2400/2424 27008KT 9999 SCT008"
    },
    {
      "icao": "LPMA",
      "alert": "OK",
      "vis_m": 9999,
      "fzfg": false,
      "metar_trigger": false,
      "taf_trigger": false,
      "metar": "METAR LPMA 240430Z 31003KT 220V330 9999 FEW015 19/16 Q1015",
      "taf": "TAF LPMA 232300Z 2400/2424 VRB05KT 9999 SCT015"
    },
    {
      "icao": "LPPR",
      "alert": "OK",
      "vis_m": 8000,
      "fzfg": false,
      "metar_trigger": false,
      "taf_trigger": false,
      "metar": "METAR LPPR 240430Z 00000KT 8000 3500W BCFG FEW001 18/18 Q1012",
      "taf": ""
    },
    {
      "icao": "LPPS",
      "alert": "OK",
      "vis_m": 9999,
      "fzfg": false,
      "metar_trigger": false,
      "taf_trigger": false,
      "metar": "METAR LPPS 240430Z 29010KT 9999 SCT015 20/16 Q1015",
      "taf": "TAF LPPS 232300Z 2400/2506 30010KT 9999 FEW015"
    },
    {
      "icao": "LPPT",
      "alert": "OK",
      "vis_m": 9999,
      "fzfg": false,
      "metar_trigger": false,
      "taf_trigger": false,
      "metar": "METAR LPPT 240430Z 20007KT 9999 BKN009 19/17 Q1014",
      "taf": "TAF LPPT 232300Z 2400/2506 29007KT 9999 SCT015"
    },
    {
      "icao": "LQBK",
      "alert": "OK",
      "vis_m": 9999,
      "fzfg": false,
      "metar_trigger": false,
      "taf_trigger": false,
      "metar": "METAR LQBK 240430Z 00000KT CAVOK 19/17 Q1017 NOSIG",
      "taf": "TAF LQBK 232300Z 2400/2424 15005KT CAVOK TX33/2414Z TN18/2403Z"
    },
    {
      "icao": "LQSA",
      "alert": "OK",
      "vis_m": 9999,
      "fzfg": false,
      "metar_trigger": false,
      "taf_trigger": false,
      "metar": "METAR LQSA 240430Z 00000KT 9999 SCT065 17/15 Q1019 NOSIG",
      "taf": ""
    },
    {
      "icao": "LQTZ",
      "alert": "OK",
      "vis_m": 9999,
      "fzfg": false,
      "metar_trigger": false,
      "taf_trigger": false,
      "metar": "METAR LQTZ 240430Z 00000KT 9999 FEW070 18/18 Q1018",
      "taf": "TAF LQTZ 232300Z 2400/2424 30005KT CAVOK TX30/2414Z TN17/2403Z"
    },
    {
      "icao": "LRBC",
      "alert": "OK",
      "vis_m": 9999,
      "fzfg": false,
      "metar_trigger": false,
      "taf_trigger": false,
      "metar": "METAR LRBC 240430Z AUTO 35004KT 320V020 9999 NCD 21/18 Q1017",
      "taf": "TAF LRBC 240200Z 2403/2412 VRB04KT CAVOK"
    },
    {
      "icao": "LRBS",
      "alert": "OK",
      "vis_m": 9999,
      "fzfg": false,
      "metar_trigger": false,
      "taf_trigger": false,
      "metar": "METAR LRBS 240430Z 31004KT 270V330 CAVOK 21/20 Q1016 NOSIG",
      "taf": "TAF LRBS 232300Z 2400/2424 VRB04KT CAVOK"
    },
    {
      "icao": "LRBV",
      "alert": "OK",
      "vis_m": 9999,
      "fzfg": false,
      "metar_trigger": false,
      "taf_trigger": false,
      "metar": "METAR LRBV 240430Z VRB02KT 9999 FEW010 17/15 Q1019",
      "taf": "TAF LRBV 240200Z 2403/2412 VRB04KT CAVOK"
    },
    {
      "icao": "LRCL",
      "alert": "OK",
      "vis_m": 9999,
      "fzfg": false,
      "metar_trigger": false,
      "taf_trigger": false,
      "metar": "METAR LRCL 240430Z 00000KT CAVOK 19/16 Q1018",
      "taf": "TAF LRCL 240200Z 2403/2412 VRB04KT CAVOK"
    },
    {
      "icao": "LRCV",
      "alert": "OK",
      "vis_m": 150,
      "fzfg": false,
      "metar_trigger": false,
      "taf_trigger": false,
      "metar": "METAR LRCV 240430Z VRB01KT 0150 R26/0200N FG OVC001 18/18 Q1017",
      "taf": "TAF LRCV 240200Z 2403/2412 VRB04KT 0600 FG BKN002"
    },
    {
      "icao": "LRIA",
      "alert": "OK",
      "vis_m": 9999,
      "fzfg": false,
      "metar_trigger": false,
      "taf_trigger": false,
      "metar": "METAR LRIA 240430Z 24004KT CAVOK 20/18 Q1017",
      "taf": ""
    },
    {
      "icao": "LROP",
      "alert": "OK",
      "vis_m": 9999,
      "fzfg": false,
      "metar_trigger": false,
      "taf_trigger": false,
      "metar": "METAR LROP 240430Z 31005KT CAVOK 21/20 Q1017 NOSIG",
      "taf": "TAF LROP 232300Z 2400/2424 VRB04KT CAVOK"
    },
    {
      "icao": "LRSB",
      "alert": "OK",
      "vis_m": 9999,
      "fzfg": false,
      "metar_trigger": false,
      "taf_trigger": false,
      "metar": "METAR LRSB 240430Z 13003KT CAVOK 19/17 Q1018",
      "taf": "TAF LRSB 232300Z 2400/2424 VRB04KT CAVOK"
    },
    {
      "icao": "LRSM",
      "alert": "OK",
      "vis_m": 9999,
      "fzfg": false,
      "metar_trigger": false,
      "taf_trigger": false,
      "metar": "METAR LRSM 240430Z 00000KT CAVOK 18/16 Q1017",
      "taf": "TAF LRSM 240200Z 2403/2412 VRB04KT CAVOK"
    },
    {
      "icao": "LRSV",
      "alert": "OK",
      "vis_m": 9999,
      "fzfg": false,
      "metar_trigger": false,
      "taf_trigger": false,
      "metar": "METAR LRSV 240430Z 36004KT 320V030 CAVOK 20/17 Q1018",
      "taf": "TAF LRSV 240200Z 2403/2412 31008KT CAVOK"
    },
    {
      "icao": "LRTM",
      "alert": "OK",
      "vis_m": 9999,
      "fzfg": false,
      "metar_trigger": false,
      "taf_trigger": false,
      "metar": "METAR LRTM 240430Z 06006KT 9999 FEW045 19/18 Q1018",
      "taf": "TAF LRTM 240200Z 2403/2412 VRB04KT 5000 BR SCT010"
    },
    {
      "icao": "LRTR",
      "alert": "OK",
      "vis_m": 9999,
      "fzfg": false,
      "metar_trigger": false,
      "taf_trigger": false,
      "metar": "METAR LRTR 240430Z 07003KT 020V090 CAVOK 20/20 Q1016",
      "taf": "TAF LRTR 232300Z 2400/2424 VRB04KT 3000 BR NSC"
    },
    {
      "icao": "LTAC",
      "alert": "OK",
      "vis_m": 9999,
      "fzfg": false,
      "metar_trigger": false,
      "taf_trigger": false,
      "metar": "METAR LTAC 240420Z VRB02KT CAVOK 15/10 Q1016 NOSIG RMK RWY21C VRB02KT RWY03L VRB01KT RWY21R 00000KT RWY03R 00000KT RWY21L VRB02KT",
      "taf": "TAF LTAC 232240Z 2400/2424 04009KT CAVOK"
    },
    {
      "icao": "LTFM",
      "alert": "OK",
      "vis_m": 9999,
      "fzfg": false,
      "metar_trigger": false,
      "taf_trigger": false,
      "metar": "METAR LTFM 240420Z 05013KT 9999 SCT014 23/18 Q1015 NOSIG RMK RWY17L 05010KT RWY34L 04011KT RWY16R 05012KT RWY36 05012KT RWY18 06009KT",
      "taf": "TAF LTFM 232240Z 2400/2506 04007KT CAVOK"
    },
    {
      "icao": "LUKK",
      "alert": "OK",
      "vis_m": 9999,
      "fzfg": false,
      "metar_trigger": false,
      "taf_trigger": false,
      "metar": "METAR LUKK 240430Z 35004KT 320V020 CAVOK 22/18 Q1016 NOSIG",
      "taf": "TAF LUKK 232323Z 2400/2424 34006KT CAVOK"
    },
    {
      "icao": "LWOH",
      "alert": "OK",
      "vis_m": 9999,
      "fzfg": false,
      "metar_trigger": false,
      "taf_trigger": false,
      "metar": "METAR LWOH 240420Z VRB02KT 9999 FEW025 16/15 Q1018",
      "taf": "TAF LWOH 240230Z 2403/2503 34005KT 9999 FEW050"
    },
    {
      "icao": "LWSK",
      "alert": "OK",
      "vis_m": 9999,
      "fzfg": false,
      "metar_trigger": false,
      "taf_trigger": false,
      "metar": "METAR LWSK 240420Z 03005KT 9999 FEW050 21/17 Q1017 NOSIG",
      "taf": "TAF LWSK 240230Z 2403/2503 VRB02KT CAVOK"
    },
    {
      "icao": "LYBE",
      "alert": "OK",
      "vis_m": 9999,
      "fzfg": false,
      "metar_trigger": false,
      "taf_trigger": false,
      "metar": "METAR LYBE 240430Z 27005KT 220V300 CAVOK 21/18 Q1016 NOSIG",
      "taf": "TAF LYBE 232300Z 2400/2424 23005KT CAVOK TX33/2414Z TN19/2403Z"
    },
    {
      "icao": "LYNI",
      "alert": "OK",
      "vis_m": 9999,
      "fzfg": false,
      "metar_trigger": false,
      "taf_trigger": false,
      "metar": "METAR LYNI 240430Z 00000KT 9999 FEW015 20/18 Q1017 NOSIG",
      "taf": "TAF LYNI 232300Z 2400/2424 08005KT 9999 SCT050 TX30/2414Z TN18/2403Z"
    },
    {
      "icao": "LYPG",
      "alert": "OK",
      "vis_m": 9999,
      "fzfg": false,
      "metar_trigger": false,
      "taf_trigger": false,
      "metar": "METAR LYPG 240430Z VRB02KT CAVOK 22/21 Q1014 NOSIG",
      "taf": "TAF LYPG 232300Z 2400/2424 34005KT CAVOK TX35/2412Z TN22/2401Z"
    },
    {
      "icao": "LZIB",
      "alert": "OK",
      "vis_m": 9999,
      "fzfg": false,
      "metar_trigger": false,
      "taf_trigger": false,
      "metar": "METAR LZIB 240430Z VRB03KT CAVOK 21/13 Q1018 NOSIG",
      "taf": "TAF LZIB 232315Z 2400/2500 03005KT CAVOK"
    },
    {
      "icao": "LZKZ",
      "alert": "OK",
      "vis_m": 9999,
      "fzfg": false,
      "metar_trigger": false,
      "taf_trigger": false,
      "metar": "METAR LZKZ 240430Z 06004KT 010V090 CAVOK 21/13 Q1018 NOSIG",
      "taf": "TAF LZKZ 232315Z 2400/2500 35010KT CAVOK"
    },
    {
      "icao": "LZTT",
      "alert": "OK",
      "vis_m": 9999,
      "fzfg": false,
      "metar_trigger": false,
      "taf_trigger": false,
      "metar": "METAR LZTT 240430Z 28005KT 9999 FEW050 14/12 Q1021",
      "taf": "TAF LZTT 232315Z 2400/2500 31003KT CAVOK"
    },
    {
      "icao": "OEJN",
      "alert": "OK",
      "vis_m": 9999,
      "fzfg": false,
      "metar_trigger": false,
      "taf_trigger": false,
      "metar": "METAR OEJN 240400Z 26005KT 9999 SCT040 30/24 Q1006 NOSIG",
      "taf": "TAF OEJN 232300Z 2400/2506 VRB03KT CAVOK"
    },
    {
      "icao": "OEMA",
      "alert": "OK",
      "vis_m": 9999,
      "fzfg": false,
      "metar_trigger": false,
      "taf_trigger": false,
      "metar": "METAR OEMA 240400Z VRB02KT CAVOK 34/00 Q1011 NOSIG",
      "taf": "TAF OEMA 232300Z 2400/2506 26005KT CAVOK"
    },
    {
      "icao": "OJAI",
      "alert": "OK",
      "vis_m": 5000,
      "fzfg": false,
      "metar_trigger": false,
      "taf_trigger": false,
      "metar": "METAR OJAI 240400Z 19002KT 5000 HZ NSC 18/11 Q1014 NOSIG",
      "taf": "TAF OJAI 232228Z 2400/2506 29004KT 5000 HZ NSC"
    },
    {
      "icao": "OMAA",
      "alert": "OK",
      "vis_m": 6000,
      "fzfg": false,
      "metar_trigger": false,
      "taf_trigger": false,
      "metar": "METAR OMAA 240430Z 15012KT 6000 NSC 36/21 Q0999 NOSIG",
      "taf": "TAF OMAA 232300Z 2400/2506 11005KT 8000 NSC"
    },
    {
      "icao": "OMDB",
      "alert": "OK",
      "vis_m": 6000,
      "fzfg": false,
      "metar_trigger": false,
      "taf_trigger": false,
      "metar": "METAR OMDB 240430Z 18010KT 140V250 6000 NSC 38/21 Q0999 NOSIG",
      "taf": "TAF OMDB 232300Z 2400/2506 10005KT 8000 NSC"
    },
    {
      "icao": "UAAA",
      "alert": "OK",
      "vis_m": 9999,
      "fzfg": false,
      "metar_trigger": false,
      "taf_trigger": false,
      "metar": "METAR UAAA 240430Z 26008MPS 9999 FEW050 SCT100 BKN200 27/12 Q1012 NOSIG",
      "taf": "TAF UAAA 232303Z 2400/2424 32003G08MPS 9999 SCT050CB BKN100 TX35/2410Z TN18/2401Z"
    },
    {
      "icao": "UBBB",
      "alert": "OK",
      "vis_m": 9999,
      "fzfg": false,
      "metar_trigger": false,
      "taf_trigger": false,
      "metar": "METAR UBBB 240430Z 10004KT 040V150 CAVOK 27/13 Q1011 NOSIG",
      "taf": "TAF UBBB 232302Z 2400/2424 VRB04KT CAVOK TX29/2410Z TN21/2401Z"
    },
    {
      "icao": "UDSG",
      "alert": "OK",
      "vis_m": 9999,
      "fzfg": false,
      "metar_trigger": false,
      "taf_trigger": false,
      "metar": "METAR UDSG 240430Z 05005G15KT 9999 BKN043CB 17/11 Q1016 NOSIG",
      "taf": "TAF UDSG 232258Z 2400/2424 06006KT 9999 SCT040"
    },
    {
      "icao": "UDYZ",
      "alert": "OK",
      "vis_m": 9999,
      "fzfg": false,
      "metar_trigger": false,
      "taf_trigger": false,
      "metar": "METAR UDYZ 240430Z 03006KT 340V100 9999 VCTS -SHRA BKN043CB 21/12 Q1011 NOSIG",
      "taf": "TAF UDYZ 232300Z 2400/2424 04006KT 9999 SCT040"
    },
    {
      "icao": "UGKO",
      "alert": "OK",
      "vis_m": 9999,
      "fzfg": false,
      "metar_trigger": false,
      "taf_trigger": false,
      "metar": "METAR UGKO 240430Z 26009KT 9999 SCT010 BKN025 20/18 Q1011 NOSIG",
      "taf": "TAF UGKO 232300Z 2400/2424 25006KT 9999 SCT023 OVC030 TX23/2411Z TN18/2402Z"
    }
  ]
}