{
  "ts_utc": "2026-02-22T16:56:30Z",
  "threshold_m": 150,
  "source": "stations_override.txt (ICAO list) + aviationweather.gov (METAR/TAF raw)",
  "station_count": 159,
  "stations": [
    {
      "icao": "BIKF",
      "alert": "OK",
      "vis_m": 9999,
      "fzfg": false,
      "metar_trigger": false,
      "taf_trigger": false,
      "metar": "METAR BIKF 221630Z 07014KT 9999 -RA SCT018 BKN047 02/M01 Q0991",
      "taf": "TAF BIKF 221640Z 2218/2318 07015KT 9999 SCT018 BKN035 TX07/2312Z TN02/2218Z"
    },
    {
      "icao": "BKPR",
      "alert": "OK",
      "vis_m": 9999,
      "fzfg": false,
      "metar_trigger": false,
      "taf_trigger": false,
      "metar": "METAR BKPR 221630Z 03003KT 9999 BKN045 06/02 Q1024 NOSIG",
      "taf": "TAF BKPR 221130Z 2212/2312 35008KT 9999 BKN050"
    },
    {
      "icao": "EBCI",
      "alert": "OK",
      "vis_m": 2800,
      "fzfg": false,
      "metar_trigger": false,
      "taf_trigger": false,
      "metar": "METAR EBCI 221620Z 25017G27KT 2800 RADZ SCT006 BKN009 11/10 Q1018 TEMPO 23015G25KT",
      "taf": "TAF EBCI 221120Z 2212/2318 24014KT 9999 -RADZ SCT004 BKN007"
    },
    {
      "icao": "EDDB",
      "alert": "OK",
      "vis_m": 9999,
      "fzfg": false,
      "metar_trigger": false,
      "taf_trigger": false,
      "metar": "METAR EDDB 221620Z AUTO 24012KT 9999 -RA SCT012 BKN017 BKN034 10/10 Q1009 TEMPO RA BKN007",
      "taf": "TAF EDDB 221100Z 2212/2312 24012KT 9000 SCT008 OVC015"
    },
    {
      "icao": "EDDH",
      "alert": "OK",
      "vis_m": 2600,
      "fzfg": false,
      "metar_trigger": false,
      "taf_trigger": false,
      "metar": "METAR EDDH 221620Z AUTO 26013KT 220V300 2600 SHRA BR BKN006 BKN018 FEW///TCU 10/10 Q1008 TEMPO 27015G25KT 4000 -DZRA SCT006 BKN012",
      "taf": "TAF EDDH 221100Z 2212/2318 26008KT 8000 OVC006"
    },
    {
      "icao": "EDDK",
      "alert": "OK",
      "vis_m": 9999,
      "fzfg": false,
      "metar_trigger": false,
      "taf_trigger": false,
      "metar": "METAR EDDK 221620Z AUTO 27011KT 9999 -SHRA FEW006 OVC015 FEW///TCU 12/11 Q1016 TEMPO 4000 RA BKN008",
      "taf": "TAF EDDK 221100Z 2212/2318 25012KT 9999 BKN020"
    },
    {
      "icao": "EDDN",
      "alert": "OK",
      "vis_m": 9999,
      "fzfg": false,
      "metar_trigger": false,
      "taf_trigger": false,
      "metar": "METAR EDDN 221620Z AUTO 25012KT 9999 -RA BKN018 10/08 Q1018 TEMPO BKN012",
      "taf": "TAF EDDN 221100Z 2212/2312 25012KT 9999 SCT012 BKN020"
    },
    {
      "icao": "EDDS",
      "alert": "OK",
      "vis_m": 9999,
      "fzfg": false,
      "metar_trigger": false,
      "taf_trigger": false,
      "metar": "METAR EDDS 221620Z AUTO 23008KT 180V270 9999 -SHRA BKN026 FEW///CB 11/07 Q1020 TEMPO SHRA",
      "taf": "TAF EDDS 221100Z 2212/2312 22008KT 9999 BKN025"
    },
    {
      "icao": "EDFH",
      "alert": "OK",
      "vis_m": 6000,
      "fzfg": false,
      "metar_trigger": false,
      "taf_trigger": false,
      "metar": "METAR EDFH 221620Z 25017KT 6000 OVC005 09/08 Q1018",
      "taf": "TAF EDFH 221100Z 2212/2312 26012KT 9999 SCT002 BKN010"
    },
    {
      "icao": "EDJA",
      "alert": "OK",
      "vis_m": 9999,
      "fzfg": false,
      "metar_trigger": false,
      "taf_trigger": false,
      "metar": "METAR EDJA 221620Z 23016G27KT 9999 BKN054 09/05 Q1021",
      "taf": "TAF EDJA 221400Z 2215/2224 23013KT 9999 SCT040"
    },
    {
      "icao": "EDLW",
      "alert": "OK",
      "vis_m": 9999,
      "fzfg": false,
      "metar_trigger": false,
      "taf_trigger": false,
      "metar": "METAR EDLW 221620Z 23015KT 9999 BKN008 OVC015 11/10 Q1014",
      "taf": "TAF EDLW 221100Z 2212/2312 24015G25KT 9999 BKN012"
    },
    {
      "icao": "EDNY",
      "alert": "OK",
      "vis_m": 9999,
      "fzfg": false,
      "metar_trigger": false,
      "taf_trigger": false,
      "metar": "METAR EDNY 221620Z 25004KT 9999 OVC029 10/06 Q1023",
      "taf": "TAF EDNY 221400Z 2215/2224 24007KT 9999 SCT045"
    },
    {
      "icao": "EDSB",
      "alert": "OK",
      "vis_m": 9999,
      "fzfg": false,
      "metar_trigger": false,
      "taf_trigger": false,
      "metar": "METAR EDSB 221620Z 21012KT 9999 OVC027 12/08 Q1021",
      "taf": "TAF EDSB 221100Z 2212/2312 21012KT 9999 BKN025"
    },
    {
      "icao": "EETN",
      "alert": "OK",
      "vis_m": 9999,
      "fzfg": false,
      "metar_trigger": false,
      "taf_trigger": false,
      "metar": "METAR EETN 221650Z 29010KT CAVOK M04/M06 Q1008 NOSIG",
      "taf": "TAF EETN 221130Z 2212/2312 30018G30KT 9999 DRSN BKN013"
    },
    {
      "icao": "EFTU",
      "alert": "OK",
      "vis_m": 9999,
      "fzfg": false,
      "metar_trigger": false,
      "taf_trigger": false,
      "metar": "METAR EFTU 221620Z AUTO 27005KT 9999 BCFG NCD M06/M07 Q1008",
      "taf": ""
    },
    {
      "icao": "EGBB",
      "alert": "OK",
      "vis_m": 9999,
      "fzfg": false,
      "metar_trigger": false,
      "taf_trigger": false,
      "metar": "METAR EGBB 221620Z 25011KT 210V270 9999 SCT037 13/05 Q1013",
      "taf": "TAF EGBB 221102Z 2212/2312 23012KT 9999 FEW025"
    },
    {
      "icao": "EGGP",
      "alert": "OK",
      "vis_m": 9999,
      "fzfg": false,
      "metar_trigger": false,
      "taf_trigger": false,
      "metar": "METAR EGGP 221620Z 22013G23KT CAVOK 11/05 Q1011",
      "taf": ""
    },
    {
      "icao": "EGGW",
      "alert": "OK",
      "vis_m": 9999,
      "fzfg": false,
      "metar_trigger": false,
      "taf_trigger": false,
      "metar": "METAR EGGW 221620Z AUTO 24018KT 9999 FEW027 11/06 Q1014",
      "taf": "TAF EGGW 221055Z 2212/2312 25013KT 9999 FEW030"
    },
    {
      "icao": "EGKK",
      "alert": "OK",
      "vis_m": 9999,
      "fzfg": false,
      "metar_trigger": false,
      "taf_trigger": false,
      "metar": "METAR EGKK 221620Z 23009KT 9999 FEW015 12/10 Q1016",
      "taf": ""
    },
    {
      "icao": "EGNM",
      "alert": "OK",
      "vis_m": 9999,
      "fzfg": false,
      "metar_trigger": false,
      "taf_trigger": false,
      "metar": "METAR EGNM 221620Z 25021G35KT 9999 FEW028 10/03 Q1008",
      "taf": "TAF EGNM 221055Z 2212/2312 26014KT 9999 SCT030"
    },
    {
      "icao": "EGPD",
      "alert": "OK",
      "vis_m": 9999,
      "fzfg": false,
      "metar_trigger": false,
      "taf_trigger": false,
      "metar": "METAR EGPD 221620Z COR AUTO 23007KT 180V270 9999 NCD 09/02 Q1000 NOSIG",
      "taf": "TAF EGPD 221057Z 2212/2312 23009KT 9999 FEW035"
    },
    {
      "icao": "EGPF",
      "alert": "OK",
      "vis_m": 4700,
      "fzfg": false,
      "metar_trigger": false,
      "taf_trigger": false,
      "metar": "METAR EGPF 221620Z AUTO 25018G31KT 4700 RA SCT017/// BKN023/// BKN030/// //////CB 08/06 Q1005 RERA",
      "taf": "TAF EGPF 221057Z 2212/2312 22009KT 9999 FEW020 SCT035"
    },
    {
      "icao": "EHBK",
      "alert": "OK",
      "vis_m": 9999,
      "fzfg": false,
      "metar_trigger": false,
      "taf_trigger": false,
      "metar": "METAR EHBK 221625Z AUTO 24011KT 200V290 9999 -RA SCT006 BKN007 BKN009 SCT015CB 11/11 Q1016 TEMPO 7000 -RADZ",
      "taf": "TAF EHBK 221115Z 2212/2318 25015KT 7000 -RADZ SCT008 BKN012"
    },
    {
      "icao": "EHEH",
      "alert": "OK",
      "vis_m": 9999,
      "fzfg": false,
      "metar_trigger": false,
      "taf_trigger": false,
      "metar": "METAR EHEH 221625Z AUTO 23012KT 210V290 9999 FEW005 BKN006 BKN008 11/11 Q1015 REDZ YLO NOSIG RMK TREND REMOTE BY EHWX",
      "taf": "TAF EHEH 221124Z 2212/2318 24012G22KT 8000 -RA FEW006 BKN008 OVC012"
    },
    {
      "icao": "EKBI",
      "alert": "OK",
      "vis_m": 9999,
      "fzfg": false,
      "metar_trigger": false,
      "taf_trigger": false,
      "metar": "METAR EKBI 221620Z AUTO 22005KT 170V260 9999 RA BKN003/// OVC047/// 05/05 Q1004 RERA",
      "taf": "TAF EKBI 221427Z 2215/2315 14010KT 5000 SCT003 BKN010"
    },
    {
      "icao": "EKCH",
      "alert": "OK",
      "vis_m": 1100,
      "fzfg": false,
      "metar_trigger": false,
      "taf_trigger": false,
      "metar": "METAR EKCH 221620Z 13012KT 1100 R22L/P1500N R04L/P1500N R12/P1500N BR VV002 01/01 Q1006 BECMG 0600 FG",
      "taf": ""
    },
    {
      "icao": "ENAL",
      "alert": "OK",
      "vis_m": 9999,
      "fzfg": false,
      "metar_trigger": false,
      "taf_trigger": false,
      "metar": "METAR ENAL 221620Z 13015KT 9999 VCSH FEW032 SCT048 BKN062 02/M04 Q0998",
      "taf": "TAF ENAL 221400Z 2215/2224 14012KT 9999 SCT030"
    },
    {
      "icao": "ENBR",
      "alert": "OK",
      "vis_m": 9000,
      "fzfg": false,
      "metar_trigger": false,
      "taf_trigger": false,
      "metar": "METAR ENBR 221620Z 13011KT 9000 -RA FEW004 SCT009 OVC015 02/01 Q0997 TEMPO 3000 RA VV008 RMK WIND 1200FT 13019KT",
      "taf": ""
    },
    {
      "icao": "ENGM",
      "alert": "OK",
      "vis_m": 1600,
      "fzfg": false,
      "metar_trigger": false,
      "taf_trigger": false,
      "metar": "METAR ENGM 221620Z 00000KT 1600 1400SE -SN SCT017 BKN021 M05/M06 Q1006 TEMPO 2500 -SN",
      "taf": "TAF ENGM 221100Z 2212/2312 01005KT 9999 FEW040"
    },
    {
      "icao": "ENHD",
      "alert": "OK",
      "vis_m": 9999,
      "fzfg": false,
      "metar_trigger": false,
      "taf_trigger": false,
      "metar": "METAR ENHD 221620Z 14014KT 9999 -RA FEW005 BKN017 02/01 Q0999",
      "taf": "TAF ENHD 221400Z 2215/2223 13015KT 8000 -RA SCT005 BKN020"
    },
    {
      "icao": "ENTC",
      "alert": "OK",
      "vis_m": 1000,
      "fzfg": false,
      "metar_trigger": false,
      "taf_trigger": false,
      "metar": "METAR ENTC 221620Z 19009KT 150V240 1000 R36/P2000D R18/P2000D SN VV009 M02/M03 Q1002 TEMPO 0800 SHSN VV006 RMK WIND 2600FT 16012KT",
      "taf": "TAF ENTC 221100Z 2212/2312 22009KT 0700 SHSN VV006"
    },
    {
      "icao": "ENTO",
      "alert": "OK",
      "vis_m": 9999,
      "fzfg": false,
      "metar_trigger": false,
      "taf_trigger": false,
      "metar": "METAR ENTO 221620Z 04005KT 010V070 9999 BKN013 OVC025 M03/M04 Q1006 TEMPO 4000 -FZDZ BKN008",
      "taf": ""
    },
    {
      "icao": "ENVA",
      "alert": "OK",
      "vis_m": 9999,
      "fzfg": false,
      "metar_trigger": false,
      "taf_trigger": false,
      "metar": "METAR ENVA 221620Z 08010KT CAVOK M00/M06 Q1002 RMK WIND 670FT 13011KT",
      "taf": "TAF ENVA 221100Z 2212/2312 12008KT 9999 FEW010 BKN020"
    },
    {
      "icao": "ENZV",
      "alert": "OK",
      "vis_m": 9999,
      "fzfg": false,
      "metar_trigger": false,
      "taf_trigger": false,
      "metar": "METAR ENZV 221620Z 15012KT 9999 -SHRA FEW024 SCT037 BKN044 04/00 Q1000 NOSIG",
      "taf": "TAF ENZV 221100Z 2212/2312 15015KT 9999 FEW020 BKN030"
    },
    {
      "icao": "EPGD",
      "alert": "OK",
      "vis_m": 9999,
      "fzfg": false,
      "metar_trigger": false,
      "taf_trigger": false,
      "metar": "METAR EPGD 221630Z 14007KT 9999 -RA BKN017 01/00 Q1009",
      "taf": ""
    },
    {
      "icao": "EPKK",
      "alert": "OK",
      "vis_m": 9999,
      "fzfg": false,
      "metar_trigger": false,
      "taf_trigger": false,
      "metar": "METAR EPKK 221630Z 24006KT 9999 BKN020 06/02 Q1014",
      "taf": "TAF EPKK 221430Z 2215/2315 24010KT 9999 BKN025"
    },
    {
      "icao": "EPKT",
      "alert": "OK",
      "vis_m": 4800,
      "fzfg": false,
      "metar_trigger": false,
      "taf_trigger": false,
      "metar": "METAR EPKT 221630Z 21013KT 4800 -RA BR SCT003 OVC005 05/04 Q1013",
      "taf": ""
    },
    {
      "icao": "EPLB",
      "alert": "OK",
      "vis_m": 9999,
      "fzfg": false,
      "metar_trigger": false,
      "taf_trigger": false,
      "metar": "METAR EPLB 221630Z 22004KT 9999 -RA OVC024 04/03 Q1014",
      "taf": "TAF EPLB 221130Z 2212/2312 22008KT 6000 -RA BKN015"
    },
    {
      "icao": "EPMO",
      "alert": "OK",
      "vis_m": 1500,
      "fzfg": false,
      "metar_trigger": false,
      "taf_trigger": false,
      "metar": "METAR EPMO 221630Z 14005KT 110V190 1500 0900W R08/0900U -RA BCFG BR OVC001 04/04 Q1012",
      "taf": ""
    },
    {
      "icao": "EPPO",
      "alert": "OK",
      "vis_m": 1600,
      "fzfg": false,
      "metar_trigger": false,
      "taf_trigger": false,
      "metar": "METAR EPPO 221630Z 22006KT 1600 -RA BR BKN001 07/07 Q1009",
      "taf": "TAF EPPO 221130Z 2212/2312 19006KT 1400 -DZ BR OVC001"
    },
    {
      "icao": "EPRA",
      "alert": "OK",
      "vis_m": 8000,
      "fzfg": false,
      "metar_trigger": false,
      "taf_trigger": false,
      "metar": "METAR EPRA 221630Z 19005KT 8000 -RA OVC016 05/03 Q1013",
      "taf": "TAF EPRA 221430Z 2215/2224 19008KT 8000 OVC015"
    },
    {
      "icao": "EPRZ",
      "alert": "OK",
      "vis_m": 9999,
      "fzfg": false,
      "metar_trigger": false,
      "taf_trigger": false,
      "metar": "METAR EPRZ 221630Z 21009KT 9999 BKN034 03/M00 Q1016",
      "taf": "TAF EPRZ 221130Z 2212/2312 21014KT 9999 BKN040"
    },
    {
      "icao": "EPSC",
      "alert": "OK",
      "vis_m": 4800,
      "fzfg": false,
      "metar_trigger": false,
      "taf_trigger": false,
      "metar": "METAR EPSC 221630Z 20003KT 130V240 4800 -RA BR OVC002 08/08 Q1007 RERA",
      "taf": ""
    },
    {
      "icao": "EPSY",
      "alert": "OK",
      "vis_m": 9999,
      "fzfg": false,
      "metar_trigger": false,
      "taf_trigger": false,
      "metar": "METAR EPSY 221630Z 18005KT 9999 SCT016 OVC028 02/M00 Q1011",
      "taf": "TAF EPSY 221430Z 2215/2224 20006KT 9999 SCT020"
    },
    {
      "icao": "EPWA",
      "alert": "OK",
      "vis_m": 3800,
      "fzfg": false,
      "metar_trigger": false,
      "taf_trigger": false,
      "metar": "METAR EPWA 221630Z 15006KT 3800 -RA BR OVC002 04/04 Q1012 TEMPO 0800 RADZ FG",
      "taf": "TAF EPWA 221430Z 2215/2315 16005KT 5000 BR OVC005"
    },
    {
      "icao": "EPWR",
      "alert": "OK",
      "vis_m": 9999,
      "fzfg": false,
      "metar_trigger": false,
      "taf_trigger": false,
      "metar": "METAR EPWR 221630Z 22008KT 180V240 9999 -RA OVC022 08/06 Q1012",
      "taf": "TAF EPWR 221430Z 2215/2315 19008KT 9999 BKN018"
    },
    {
      "icao": "ESGG",
      "alert": "OK",
      "vis_m": 3600,
      "fzfg": false,
      "metar_trigger": false,
      "taf_trigger": false,
      "metar": "METAR ESGG 221620Z 12007KT 3600 -SN FEW005 OVC023 M00/M01 Q1004",
      "taf": "TAF ESGG 221430Z 2215/2315 14006KT 9999 -SN SCT030 BKN040"
    },
    {
      "icao": "ESKN",
      "alert": "OK",
      "vis_m": 9999,
      "fzfg": false,
      "metar_trigger": false,
      "taf_trigger": false,
      "metar": "METAR ESKN 221620Z 13004KT CAVOK M00/M05 Q1009",
      "taf": "TAF ESKN 221430Z 2215/2315 27005KT CAVOK"
    },
    {
      "icao": "ESMS",
      "alert": "OK",
      "vis_m": 1600,
      "fzfg": false,
      "metar_trigger": false,
      "taf_trigger": false,
      "metar": "METAR ESMS 221620Z 11010KT 1600 BR OVC002 01/01 Q1005",
      "taf": ""
    },
    {
      "icao": "ESSA",
      "alert": "OK",
      "vis_m": 9999,
      "fzfg": false,
      "metar_trigger": false,
      "taf_trigger": false,
      "metar": "METAR ESSA 221620Z 18003KT CAVOK M03/M04 Q1009 NOSIG",
      "taf": "TAF ESSA 221430Z 2215/2315 VRB03KT CAVOK"
    },
    {
      "icao": "EYKA",
      "alert": "OK",
      "vis_m": 9999,
      "fzfg": false,
      "metar_trigger": false,
      "taf_trigger": false,
      "metar": "METAR EYKA 221650Z 23003KT CAVOK M01/M04 Q1013",
      "taf": "TAF EYKA 221104Z 2212/2312 VRB04KT 9000 SCT025"
    },
    {
      "icao": "EYPA",
      "alert": "OK",
      "vis_m": 9999,
      "fzfg": false,
      "metar_trigger": false,
      "taf_trigger": false,
      "metar": "METAR EYPA 221650Z 16003KT CAVOK M02/M04 Q1012",
      "taf": "TAF EYPA 221104Z 2212/2312 VRB04KT 9000 SCT030"
    },
    {
      "icao": "EYVI",
      "alert": "OK",
      "vis_m": 9999,
      "fzfg": false,
      "metar_trigger": false,
      "taf_trigger": false,
      "metar": "METAR EYVI 221620Z 26004KT 9999 BKN020 M01/M04 Q1013 NOSIG",
      "taf": "TAF EYVI 221100Z 2212/2312 27012KT 9000 BKN020"
    },
    {
      "icao": "GCFV",
      "alert": "OK",
      "vis_m": 9999,
      "fzfg": false,
      "metar_trigger": false,
      "taf_trigger": false,
      "metar": "METAR GCFV 221630Z 03006KT CAVOK 22/17 Q1022",
      "taf": "TAF GCFV 221400Z 2215/2315 02010KT 8000 NSC TX24/2314Z TN18/2306Z"
    },
    {
      "icao": "GCLP",
      "alert": "OK",
      "vis_m": 9999,
      "fzfg": false,
      "metar_trigger": false,
      "taf_trigger": false,
      "metar": "METAR GCLP 221630Z 16007KT 110V190 CAVOK 23/13 Q1021 NOSIG",
      "taf": "TAF GCLP 221400Z 2215/2315 16005KT 8000 NSC TX25/2314Z TN19/2306Z"
    },
    {
      "icao": "GCTS",
      "alert": "OK",
      "vis_m": 9999,
      "fzfg": false,
      "metar_trigger": false,
      "taf_trigger": false,
      "metar": "METAR GCTS 221630Z 10008KT 080V140 CAVOK 28/07 Q1021 NOSIG",
      "taf": "TAF GCTS 221400Z 2215/2315 10013KT 8000 NSC TX27/2314Z TN19/2306Z"
    },
    {
      "icao": "GMAD",
      "alert": "OK",
      "vis_m": 9999,
      "fzfg": false,
      "metar_trigger": false,
      "taf_trigger": false,
      "metar": "METAR GMAD 221630Z 27012KT CAVOK 30/M01 Q1021 NOSIG",
      "taf": "TAF GMAD 221100Z 2212/2318 08010KT CAVOK"
    },
    {
      "icao": "GMMN",
      "alert": "OK",
      "vis_m": 9999,
      "fzfg": false,
      "metar_trigger": false,
      "taf_trigger": false,
      "metar": "METAR GMMN 221630Z VRB02KT CAVOK 28/15 Q1024 NOSIG",
      "taf": "TAF GMMN 221100Z 2212/2318 12006KT CAVOK"
    },
    {
      "icao": "GMMX",
      "alert": "OK",
      "vis_m": 9999,
      "fzfg": false,
      "metar_trigger": false,
      "taf_trigger": false,
      "metar": "METAR GMMX 221630Z 03003KT 290V080 CAVOK 29/02 Q1024 NOSIG",
      "taf": "TAF GMMX 221100Z 2212/2318 06006KT 8000 NSC"
    },
    {
      "icao": "HEGN",
      "alert": "OK",
      "vis_m": 9999,
      "fzfg": false,
      "metar_trigger": false,
      "taf_trigger": false,
      "metar": "METAR HEGN 221600Z 34016KT CAVOK 22/08 Q1012 NOSIG",
      "taf": ""
    },
    {
      "icao": "HEMA",
      "alert": "OK",
      "vis_m": 9999,
      "fzfg": false,
      "metar_trigger": false,
      "taf_trigger": false,
      "metar": "METAR HEMA 221600Z 01014KT CAVOK 23/12 Q1011 NOSIG",
      "taf": ""
    },
    {
      "icao": "HESH",
      "alert": "OK",
      "vis_m": 9999,
      "fzfg": false,
      "metar_trigger": false,
      "taf_trigger": false,
      "metar": "METAR HESH 221600Z 34009KT CAVOK 24/08 Q1011 NOSIG",
      "taf": ""
    },
    {
      "icao": "HESX",
      "alert": "OK",
      "vis_m": 9999,
      "fzfg": false,
      "metar_trigger": false,
      "taf_trigger": false,
      "metar": "METAR HESX 221600Z 27009KT CAVOK 19/03 Q1015 NOSIG",
      "taf": ""
    },
    {
      "icao": "LATI",
      "alert": "OK",
      "vis_m": 9999,
      "fzfg": false,
      "metar_trigger": false,
      "taf_trigger": false,
      "metar": "METAR LATI 221650Z 31010KT CAVOK 11/02 Q1022 NOSIG",
      "taf": "TAF LATI 221100Z 2212/2312 34010KT CAVOK TX16/2312Z TN04/2305Z"
    },
    {
      "icao": "LBPD",
      "alert": "OK",
      "vis_m": 9999,
      "fzfg": false,
      "metar_trigger": false,
      "taf_trigger": false,
      "metar": "METAR LBPD 221630Z AUTO 27008KT 9999 NCD 07/01 Q1021 NOSIG",
      "taf": "TAF LBPD 221100Z 2212/2312 27016KT 9999 SCT040 BKN060"
    },
    {
      "icao": "LBSF",
      "alert": "OK",
      "vis_m": 9999,
      "fzfg": false,
      "metar_trigger": false,
      "taf_trigger": false,
      "metar": "METAR LBSF 221630Z AUTO 29009KT 9999 FEW019/// OVC022/// 02/M01 Q1023 NOSIG",
      "taf": "TAF LBSF 221100Z 2212/2312 29012KT 9999 SCT025 BKN050"
    },
    {
      "icao": "LBWN",
      "alert": "OK",
      "vis_m": 9999,
      "fzfg": false,
      "metar_trigger": false,
      "taf_trigger": false,
      "metar": "METAR LBWN 221630Z 31009KT CAVOK 02/00 Q1022 NOSIG",
      "taf": "TAF LBWN 221100Z 2212/2312 31016KT 9999 OVC015"
    },
    {
      "icao": "LCLK",
      "alert": "OK",
      "vis_m": 9999,
      "fzfg": false,
      "metar_trigger": false,
      "taf_trigger": false,
      "metar": "METAR LCLK 221630Z 25004KT 9999 FEW025 BKN036 16/12 Q1013 NOSIG",
      "taf": "TAF LCLK 221130Z 2212/2312 22016KT 9999 FEW025"
    },
    {
      "icao": "LCPH",
      "alert": "OK",
      "vis_m": 9999,
      "fzfg": false,
      "metar_trigger": false,
      "taf_trigger": false,
      "metar": "METAR LCPH 221630Z 33005KT 9999 SCT025 16/10 Q1013 NOSIG",
      "taf": "TAF LCPH 221130Z 2212/2312 28012KT 9999 SCT020"
    },
    {
      "icao": "LEAL",
      "alert": "OK",
      "vis_m": 9999,
      "fzfg": false,
      "metar_trigger": false,
      "taf_trigger": false,
      "metar": "METAR LEAL 221630Z 20005KT 150V240 CAVOK 19/03 Q1027 NOSIG",
      "taf": "TAF LEAL 221100Z 2212/2312 19009KT CAVOK TX20/2212Z TN08/2306Z"
    },
    {
      "icao": "LEBB",
      "alert": "OK",
      "vis_m": 9999,
      "fzfg": false,
      "metar_trigger": false,
      "taf_trigger": false,
      "metar": "METAR LEBB 221630Z 28010KT CAVOK 14/09 Q1028 NOSIG",
      "taf": "TAF LEBB 221100Z 2212/2312 10005KT CAVOK TX17/2212Z TN04/2307Z"
    },
    {
      "icao": "LEBL",
      "alert": "OK",
      "vis_m": 9999,
      "fzfg": false,
      "metar_trigger": false,
      "taf_trigger": false,
      "metar": "METAR LEBL 221630Z 22013KT CAVOK 16/08 Q1025 NOSIG",
      "taf": "TAF LEBL 221100Z 2212/2312 20010KT CAVOK TX18/2312Z TN07/2306Z"
    },
    {
      "icao": "LECH",
      "alert": "OK",
      "vis_m": 9000,
      "fzfg": false,
      "metar_trigger": false,
      "taf_trigger": false,
      "metar": "METAR LECH 221630Z AUTO 09006KT 9000 NCD 16/07 Q1027",
      "taf": ""
    },
    {
      "icao": "LEMD",
      "alert": "OK",
      "vis_m": 9999,
      "fzfg": false,
      "metar_trigger": false,
      "taf_trigger": false,
      "metar": "METAR LEMD 221630Z 20003KT 170V240 CAVOK 19/01 Q1027 NOSIG",
      "taf": "TAF LEMD 221100Z 2212/2318 VRB04KT CAVOK TX20/2216Z TN02/2307Z"
    },
    {
      "icao": "LEMG",
      "alert": "OK",
      "vis_m": 9999,
      "fzfg": false,
      "metar_trigger": false,
      "taf_trigger": false,
      "metar": "METAR LEMG 221630Z 12005KT CAVOK 16/04 Q1027 NOSIG",
      "taf": "TAF LEMG 221100Z 2212/2312 13006KT CAVOK TX17/2214Z TN06/2307Z"
    },
    {
      "icao": "LEVC",
      "alert": "OK",
      "vis_m": 9999,
      "fzfg": false,
      "metar_trigger": false,
      "taf_trigger": false,
      "metar": "METAR LEVC 221630Z 08007KT 050V130 CAVOK 17/08 Q1026 NOSIG",
      "taf": "TAF LEVC 221100Z 2212/2312 VRB04KT CAVOK TX23/2212Z TN07/2306Z"
    },
    {
      "icao": "LEXJ",
      "alert": "OK",
      "vis_m": 9999,
      "fzfg": false,
      "metar_trigger": false,
      "taf_trigger": false,
      "metar": "METAR LEXJ 221630Z 31007KT 290V350 9999 SCT015 12/09 Q1029",
      "taf": "TAF LEXJ 221400Z 2215/2315 VRB03KT CAVOK TX19/2314Z TN05/2306Z"
    },
    {
      "icao": "LEZG",
      "alert": "OK",
      "vis_m": 9999,
      "fzfg": false,
      "metar_trigger": false,
      "taf_trigger": false,
      "metar": "METAR LEZG 221630Z 28008KT CAVOK 19/06 Q1027 NOSIG",
      "taf": "TAF LEZG 221100Z 2212/2312 30009KT CAVOK TX19/2214Z TN05/2306Z"
    },
    {
      "icao": "LEZL",
      "alert": "OK",
      "vis_m": 9999,
      "fzfg": false,
      "metar_trigger": false,
      "taf_trigger": false,
      "metar": "METAR LEZL 221630Z VRB02KT CAVOK 24/09 Q1025 NOSIG",
      "taf": "TAF LEZL 221400Z 2215/2315 05005KT CAVOK TX23/2215Z TN08/2307Z"
    },
    {
      "icao": "LFBD",
      "alert": "OK",
      "vis_m": 9999,
      "fzfg": false,
      "metar_trigger": false,
      "taf_trigger": false,
      "metar": "METAR LFBD 221630Z AUTO 26008KT CAVOK 15/08 Q1027 NOSIG",
      "taf": "TAF LFBD 221100Z 2212/2318 VRB03KT CAVOK TX16/2315Z TN08/2307Z"
    },
    {
      "icao": "LFLL",
      "alert": "OK",
      "vis_m": 9999,
      "fzfg": false,
      "metar_trigger": false,
      "taf_trigger": false,
      "metar": "METAR LFLL 221630Z 04004KT 360V070 CAVOK 13/06 Q1025 NOSIG",
      "taf": "TAF LFLL 221100Z 2212/2318 VRB02KT CAVOK"
    },
    {
      "icao": "LFLS",
      "alert": "OK",
      "vis_m": 9999,
      "fzfg": false,
      "metar_trigger": false,
      "taf_trigger": false,
      "metar": "METAR LFLS 221630Z AUTO 03007KT CAVOK 12/07 Q1025 NOSIG",
      "taf": "TAF LFLS 221400Z 2215/2315 09005KT CAVOK"
    },
    {
      "icao": "LFMN",
      "alert": "OK",
      "vis_m": 9999,
      "fzfg": false,
      "metar_trigger": false,
      "taf_trigger": false,
      "metar": "METAR LFMN 221630Z 15003KT 9999 BKN026 BKN230 14/10 Q1024 NOSIG",
      "taf": "TAF LFMN 221400Z 2215/2321 12005KT 9999 SCT028 SCT230"
    },
    {
      "icao": "LFOB",
      "alert": "OK",
      "vis_m": 8000,
      "fzfg": false,
      "metar_trigger": false,
      "taf_trigger": false,
      "metar": "METAR LFOB 221630Z AUTO 22010KT 200V260 8000 -RA BKN013/// OVC020/// //////CB 11/11 Q1020 TEMPO 3000 RADZ BKN009",
      "taf": "TAF LFOB 221100Z 2212/2312 23012KT 9999 BKN016 OVC030"
    },
    {
      "icao": "LFPO",
      "alert": "OK",
      "vis_m": 9999,
      "fzfg": false,
      "metar_trigger": false,
      "taf_trigger": false,
      "metar": "METAR LFPO 221630Z 23011KT 9999 -RA SCT018 BKN025 12/09 Q1022 NOSIG",
      "taf": "TAF LFPO 221100Z 2212/2318 23012KT 9999 BKN014"
    },
    {
      "icao": "LFSB",
      "alert": "OK",
      "vis_m": 9999,
      "fzfg": false,
      "metar_trigger": false,
      "taf_trigger": false,
      "metar": "METAR LFSB 221630Z AUTO 26005KT 230V290 9999 BKN028 OVC110 12/08 Q1023 NOSIG",
      "taf": ""
    },
    {
      "icao": "LGAV",
      "alert": "OK",
      "vis_m": 9999,
      "fzfg": false,
      "metar_trigger": false,
      "taf_trigger": false,
      "metar": "METAR LGAV 221620Z 02010KT 9999 FEW018 BKN025 09/05 Q1020 NOSIG",
      "taf": "TAF LGAV 221100Z 2212/2312 02013KT 9999 FEW020 SCT040"
    },
    {
      "icao": "LGTS",
      "alert": "OK",
      "vis_m": 9999,
      "fzfg": false,
      "metar_trigger": false,
      "taf_trigger": false,
      "metar": "METAR LGTS 221620Z 32011KT 9999 FEW030 10/03 Q1022 NOSIG",
      "taf": "TAF LGTS 221100Z 2212/2312 34015KT 9999 FEW030"
    },
    {
      "icao": "LHBP",
      "alert": "OK",
      "vis_m": 9999,
      "fzfg": false,
      "metar_trigger": false,
      "taf_trigger": false,
      "metar": "METAR LHBP 221630Z 22005KT 9999 BKN035 08/05 Q1021 NOSIG",
      "taf": ""
    },
    {
      "icao": "LHDC",
      "alert": "OK",
      "vis_m": 7000,
      "fzfg": false,
      "metar_trigger": false,
      "taf_trigger": false,
      "metar": "METAR LHDC 221615Z AUTO 17009KT 140V200 7000 -RA OVC019 06/04 Q1022 TEMPO OVC014",
      "taf": "TAF LHDC 221415Z 2215/2224 20006KT 9999 OVC015"
    },
    {
      "icao": "LIBD",
      "alert": "OK",
      "vis_m": 9999,
      "fzfg": false,
      "metar_trigger": false,
      "taf_trigger": false,
      "metar": "METAR LIBD 221620Z 33005KT 300V010 CAVOK 13/05 Q1024",
      "taf": "TAF LIBD 221100Z 2212/2312 34016KT 9999 FEW020"
    },
    {
      "icao": "LIBG",
      "alert": "OK",
      "vis_m": 9999,
      "fzfg": false,
      "metar_trigger": false,
      "taf_trigger": false,
      "metar": "METAR LIBG 221550Z 34013KT CAVOK 13/03 Q1023",
      "taf": "TAF LIBG 221400Z 2215/2224 35010KT CAVOK"
    },
    {
      "icao": "LIBP",
      "alert": "OK",
      "vis_m": 9999,
      "fzfg": false,
      "metar_trigger": false,
      "taf_trigger": false,
      "metar": "METAR LIBP 221620Z AUTO 03005KT 9999 NCD 13/06 Q1023",
      "taf": "TAF LIBP 221100Z 2212/2312 VRB06KT CAVOK"
    },
    {
      "icao": "LIBR",
      "alert": "OK",
      "vis_m": 9999,
      "fzfg": false,
      "metar_trigger": false,
      "taf_trigger": false,
      "metar": "METAR LIBR 221620Z 34010KT CAVOK 13/04 Q1023",
      "taf": "TAF LIBR 221100Z 2212/2312 36016KT 9999 SCT020"
    },
    {
      "icao": "LICA",
      "alert": "OK",
      "vis_m": 9999,
      "fzfg": false,
      "metar_trigger": false,
      "taf_trigger": false,
      "metar": "METAR LICA 221620Z AUTO 27014KT 9999 NCD 14/10 Q1024",
      "taf": "TAF LICA 221100Z 2212/2312 28013KT 9999 FEW020"
    },
    {
      "icao": "LICC",
      "alert": "OK",
      "vis_m": 9999,
      "fzfg": false,
      "metar_trigger": false,
      "taf_trigger": false,
      "metar": "METAR LICC 221620Z 14012KT 100V160 CAVOK 17/12 Q1023 WS R08",
      "taf": "TAF LICC 221100Z 2212/2312 11010KT CAVOK"
    },
    {
      "icao": "LICJ",
      "alert": "OK",
      "vis_m": 9999,
      "fzfg": false,
      "metar_trigger": false,
      "taf_trigger": false,
      "metar": "METAR LICJ 221620Z 31005KT 9999 FEW018 15/11 Q1027",
      "taf": "TAF LICJ 221100Z 2212/2312 33014KT 9999 FEW030"
    },
    {
      "icao": "LIMC",
      "alert": "OK",
      "vis_m": 9999,
      "fzfg": false,
      "metar_trigger": false,
      "taf_trigger": false,
      "metar": "METAR LIMC 221620Z 24004KT 200V280 CAVOK 13/07 Q1022 NOSIG",
      "taf": "TAF LIMC 221100Z 2212/2318 VRB05KT CAVOK"
    },
    {
      "icao": "LIME",
      "alert": "OK",
      "vis_m": 7000,
      "fzfg": false,
      "metar_trigger": false,
      "taf_trigger": false,
      "metar": "METAR LIME 221620Z 19003KT 160V260 7000 NSC 12/07 Q1022 NOSIG",
      "taf": "TAF LIME 221100Z 2212/2312 VRB05KT CAVOK"
    },
    {
      "icao": "LIMF",
      "alert": "OK",
      "vis_m": 7000,
      "fzfg": false,
      "metar_trigger": false,
      "taf_trigger": false,
      "metar": "METAR LIMF 221620Z 10002KT 7000 NSC 14/03 Q1022",
      "taf": "TAF LIMF 221100Z 2212/2312 VRB05KT CAVOK"
    },
    {
      "icao": "LIMJ",
      "alert": "OK",
      "vis_m": 9999,
      "fzfg": false,
      "metar_trigger": false,
      "taf_trigger": false,
      "metar": "METAR LIMJ 221620Z 12010KT 9999 FEW012 SCT030 14/11 Q1024",
      "taf": "TAF LIMJ 221100Z 2212/2312 15010KT 9999 FEW020"
    },
    {
      "icao": "LIPE",
      "alert": "OK",
      "vis_m": 9999,
      "fzfg": false,
      "metar_trigger": false,
      "taf_trigger": false,
      "metar": "METAR LIPE 221620Z 04004KT CAVOK 14/07 Q1023",
      "taf": "TAF LIPE 221100Z 2212/2312 VRB05KT CAVOK"
    },
    {
      "icao": "LIPH",
      "alert": "OK",
      "vis_m": 9999,
      "fzfg": false,
      "metar_trigger": false,
      "taf_trigger": false,
      "metar": "METAR LIPH 221620Z 18002KT CAVOK 11/07 Q1023",
      "taf": "TAF LIPH 221100Z 2212/2312 VRB05KT CAVOK"
    },
    {
      "icao": "LIPQ",
      "alert": "OK",
      "vis_m": 9999,
      "fzfg": false,
      "metar_trigger": false,
      "taf_trigger": false,
      "metar": "METAR LIPQ 221620Z AUTO 16003KT 9999 BKN150/// BKN170/// 10/07 Q1023",
      "taf": "TAF LIPQ 221100Z 2212/2312 VRB06KT CAVOK"
    },
    {
      "icao": "LIPR",
      "alert": "OK",
      "vis_m": 9999,
      "fzfg": false,
      "metar_trigger": false,
      "taf_trigger": false,
      "metar": "METAR LIPR 221620Z 07004KT 050V110 CAVOK 11/09 Q1023",
      "taf": "TAF LIPR 221100Z 2212/2312 VRB05KT CAVOK"
    },
    {
      "icao": "LIPX",
      "alert": "OK",
      "vis_m": 9999,
      "fzfg": false,
      "metar_trigger": false,
      "taf_trigger": false,
      "metar": "METAR LIPX 221620Z 13002KT CAVOK 12/06 Q1023",
      "taf": "TAF LIPX 221100Z 2212/2312 VRB05KT CAVOK"
    },
    {
      "icao": "LIPY",
      "alert": "OK",
      "vis_m": 9999,
      "fzfg": false,
      "metar_trigger": false,
      "taf_trigger": false,
      "metar": "METAR LIPY 221620Z AUTO VRB02KT 9999 NCD 15/06 Q1023",
      "taf": "TAF LIPY 221100Z 2212/2312 VRB05KT CAVOK"
    },
    {
      "icao": "LIPZ",
      "alert": "OK",
      "vis_m": 9999,
      "fzfg": false,
      "metar_trigger": false,
      "taf_trigger": false,
      "metar": "METAR LIPZ 221620Z 20002KT CAVOK 10/07 Q1023 NOSIG",
      "taf": "TAF LIPZ 221100Z 2212/2318 VRB05KT 9999 FEW060"
    },
    {
      "icao": "LIRF",
      "alert": "OK",
      "vis_m": 9999,
      "fzfg": false,
      "metar_trigger": false,
      "taf_trigger": false,
      "metar": "METAR LIRF 221620Z 26007KT CAVOK 14/09 Q1025 NOSIG",
      "taf": "TAF LIRF 221100Z 2212/2318 28008KT CAVOK"
    },
    {
      "icao": "LIRN",
      "alert": "OK",
      "vis_m": 9999,
      "fzfg": false,
      "metar_trigger": false,
      "taf_trigger": false,
      "metar": "METAR LIRN 221620Z AUTO 29009KT 9999 NCD 15/02 Q1025",
      "taf": "TAF LIRN 221100Z 2212/2312 29008KT CAVOK"
    },
    {
      "icao": "LIRP",
      "alert": "OK",
      "vis_m": 9999,
      "fzfg": false,
      "metar_trigger": false,
      "taf_trigger": false,
      "metar": "METAR LIRP 221615Z 27005KT CAVOK 13/11 Q1025 NOSIG",
      "taf": "TAF LIRP 221100Z 2212/2312 26004KT CAVOK"
    },
    {
      "icao": "LIRZ",
      "alert": "OK",
      "vis_m": 9999,
      "fzfg": false,
      "metar_trigger": false,
      "taf_trigger": false,
      "metar": "METAR LIRZ 221620Z AUTO 16003KT 9999 NCD 15/06 Q1024",
      "taf": "TAF LIRZ 221100Z 2212/2312 VRB05KT 9999 FEW030"
    },
    {
      "icao": "LJLJ",
      "alert": "OK",
      "vis_m": 9999,
      "fzfg": false,
      "metar_trigger": false,
      "taf_trigger": false,
      "metar": "METAR LJLJ 221630Z 23003KT CAVOK 06/04 Q1022 NOSIG",
      "taf": "TAF LJLJ 221100Z 2212/2312 VRB02KT 9999 FEW005"
    },
    {
      "icao": "LKMT",
      "alert": "OK",
      "vis_m": 9000,
      "fzfg": false,
      "metar_trigger": false,
      "taf_trigger": false,
      "metar": "METAR LKMT 221630Z 22011KT 9000 -RA BKN012 OVC026 05/05 Q1016 NOSIG",
      "taf": "TAF LKMT 221100Z 2212/2312 24012KT 8000 BKN040"
    },
    {
      "icao": "LKPR",
      "alert": "OK",
      "vis_m": 9999,
      "fzfg": false,
      "metar_trigger": false,
      "taf_trigger": false,
      "metar": "METAR LKPR 221630Z 21017KT 9999 -RA SCT012 SCT030 09/08 Q1015 NOSIG",
      "taf": "TAF LKPR 221400Z 2215/2321 22018KT 9999 BKN040"
    },
    {
      "icao": "LLBG",
      "alert": "OK",
      "vis_m": 9999,
      "fzfg": false,
      "metar_trigger": false,
      "taf_trigger": false,
      "metar": "METAR LLBG 221620Z 29004KT 9999 FEW030 16/11 Q1015 NOSIG",
      "taf": "TAF LLBG 221105Z 2212/2312 28010KT 9999 SCT030"
    },
    {
      "icao": "LMML",
      "alert": "OK",
      "vis_m": 9999,
      "fzfg": false,
      "metar_trigger": false,
      "taf_trigger": false,
      "metar": "METAR LMML 221645Z 24008KT 9999 FEW025 15/08 Q1025 NOSIG",
      "taf": "TAF LMML 221100Z 2212/2312 34016KT CAVOK"
    },
    {
      "icao": "LOWW",
      "alert": "OK",
      "vis_m": 9000,
      "fzfg": false,
      "metar_trigger": false,
      "taf_trigger": false,
      "metar": "METAR LOWW 221620Z 18009KT 9000 4400S -RA BR FEW026 SCT028 BKN038 03/03 Q1020 NOSIG",
      "taf": "TAF LOWW 221415Z 2215/2321 20006KT 9999 FEW040 BKN050 TX12/2314Z TN02/2218Z"
    },
    {
      "icao": "LPFR",
      "alert": "OK",
      "vis_m": 9999,
      "fzfg": false,
      "metar_trigger": false,
      "taf_trigger": false,
      "metar": "METAR LPFR 221630Z 10010KT CAVOK 20/03 Q1025",
      "taf": "TAF LPFR 221100Z 2212/2312 10010KT CAVOK"
    },
    {
      "icao": "LPMA",
      "alert": "OK",
      "vis_m": 9999,
      "fzfg": false,
      "metar_trigger": false,
      "taf_trigger": false,
      "metar": "METAR LPMA 221630Z 04009KT 010V090 9999 FEW016 18/12 Q1023",
      "taf": "TAF LPMA 221100Z 2212/2312 02010KT 9999 SCT015"
    },
    {
      "icao": "LPPR",
      "alert": "OK",
      "vis_m": 9999,
      "fzfg": false,
      "metar_trigger": false,
      "taf_trigger": false,
      "metar": "METAR LPPR 221630Z 34006KT CAVOK 16/09 Q1027",
      "taf": "TAF LPPR 221100Z 2212/2312 VRB02KT CAVOK"
    },
    {
      "icao": "LPPS",
      "alert": "OK",
      "vis_m": 9999,
      "fzfg": false,
      "metar_trigger": false,
      "taf_trigger": false,
      "metar": "METAR LPPS 221630Z 14005KT 100V230 9999 FEW015 18/12 Q1024",
      "taf": "TAF LPPS 221100Z 2212/2318 09008KT 9999 SCT015 SCT030"
    },
    {
      "icao": "LPPT",
      "alert": "OK",
      "vis_m": 9999,
      "fzfg": false,
      "metar_trigger": false,
      "taf_trigger": false,
      "metar": "METAR LPPT 221630Z 06005KT 360V090 CAVOK 21/08 Q1026",
      "taf": "TAF LPPT 221100Z 2212/2318 06007KT CAVOK"
    },
    {
      "icao": "LQBK",
      "alert": "OK",
      "vis_m": 9999,
      "fzfg": false,
      "metar_trigger": false,
      "taf_trigger": false,
      "metar": "METAR LQBK 221630Z VRB02KT CAVOK 13/04 Q1022 NOSIG",
      "taf": "TAF LQBK 221100Z 2212/2312 22005KT CAVOK TX14/2312Z TN02/2306Z"
    },
    {
      "icao": "LQSA",
      "alert": "OK",
      "vis_m": 9999,
      "fzfg": false,
      "metar_trigger": false,
      "taf_trigger": false,
      "metar": "METAR LQSA 221630Z 13005KT CAVOK 08/01 Q1024 NOSIG",
      "taf": "TAF LQSA 221100Z 2212/2312 VRB02KT 9999 BKN030 TX12/2312Z TN01/2304Z"
    },
    {
      "icao": "LQTZ",
      "alert": "OK",
      "vis_m": 9999,
      "fzfg": false,
      "metar_trigger": false,
      "taf_trigger": false,
      "metar": "METAR LQTZ 221630Z 10004KT CAVOK 09/03 Q1023",
      "taf": "TAF LQTZ 221100Z 2212/2312 VRB02KT 9999 SCT050 TX11/2213Z TNM01/2305Z"
    },
    {
      "icao": "LRBC",
      "alert": "OK",
      "vis_m": 9999,
      "fzfg": false,
      "metar_trigger": false,
      "taf_trigger": false,
      "metar": "METAR LRBC 221630Z 22005KT 9999 SCT062 02/M01 Q1020",
      "taf": "TAF LRBC 221400Z 2215/2224 VRB04KT CAVOK"
    },
    {
      "icao": "LRBS",
      "alert": "OK",
      "vis_m": 1500,
      "fzfg": true,
      "metar_trigger": false,
      "taf_trigger": false,
      "metar": "METAR LRBS 221630Z 26009KT 1500 BR SCT002 BKN004 OVC008 M01/M02 Q1023 BECMG 0800 FZFG BKN002",
      "taf": "TAF LRBS 221100Z 2212/2312 25009KT CAVOK"
    },
    {
      "icao": "LRBV",
      "alert": "OK",
      "vis_m": 9999,
      "fzfg": false,
      "metar_trigger": false,
      "taf_trigger": false,
      "metar": "METAR LRBV 221630Z 28005KT 9999 OVC022 02/M01 Q1022",
      "taf": "TAF LRBV 221400Z 2215/2224 29006KT 9999 SCT015 BKN025"
    },
    {
      "icao": "LRCL",
      "alert": "OK",
      "vis_m": 9999,
      "fzfg": false,
      "metar_trigger": false,
      "taf_trigger": false,
      "metar": "METAR LRCL 221630Z VRB02KT 9999 BKN028 BKN067 05/00 Q1023",
      "taf": "TAF LRCL 221400Z 2215/2224 VRB03KT 9999 SCT025 BKN055"
    },
    {
      "icao": "LRCV",
      "alert": "OK",
      "vis_m": 300,
      "fzfg": true,
      "metar_trigger": false,
      "taf_trigger": false,
      "metar": "METAR LRCV 221630Z 01004KT 0300 R26/0350N FZFG VV001 M01/M01 Q1022",
      "taf": ""
    },
    {
      "icao": "LRIA",
      "alert": "OK",
      "vis_m": 9999,
      "fzfg": false,
      "metar_trigger": false,
      "taf_trigger": false,
      "metar": "METAR LRIA 221630Z VRB02KT CAVOK 04/00 Q1020",
      "taf": "TAF LRIA 221400Z 2215/2224 30006KT 9999 SCT025"
    },
    {
      "icao": "LROP",
      "alert": "OK",
      "vis_m": 3000,
      "fzfg": false,
      "metar_trigger": false,
      "taf_trigger": false,
      "metar": "METAR LROP 221630Z 26009KT 3000 BR BKN003 M01/M01 Q1022 BECMG 1500 BR BKN002",
      "taf": "TAF LROP 221100Z 2212/2312 25009KT CAVOK"
    },
    {
      "icao": "LRSB",
      "alert": "OK",
      "vis_m": 9999,
      "fzfg": false,
      "metar_trigger": false,
      "taf_trigger": false,
      "metar": "METAR LRSB 221630Z COR 13002KT 9999 SCT017 BKN035 02/01 Q1023 NOSIG",
      "taf": "TAF LRSB 221100Z 2212/2312 VRB03KT 9999 SCT010 BKN035"
    },
    {
      "icao": "LRSM",
      "alert": "OK",
      "vis_m": 9999,
      "fzfg": false,
      "metar_trigger": false,
      "taf_trigger": false,
      "metar": "METAR LRSM 221630Z 18003KT 9999 OVC019 05/02 Q1023",
      "taf": "TAF LRSM 221400Z 2215/2224 VRB04KT 9999 OVC015"
    },
    {
      "icao": "LRSV",
      "alert": "OK",
      "vis_m": 9999,
      "fzfg": false,
      "metar_trigger": false,
      "taf_trigger": false,
      "metar": "METAR LRSV 221630Z 16002KT CAVOK 03/M00 Q1019",
      "taf": "TAF LRSV 221400Z 2215/2224 VRB04KT CAVOK"
    },
    {
      "icao": "LRTM",
      "alert": "OK",
      "vis_m": 9999,
      "fzfg": false,
      "metar_trigger": false,
      "taf_trigger": false,
      "metar": "METAR LRTM 221630Z 17005KT 9999 SCT032 03/01 Q1023",
      "taf": "TAF LRTM 221400Z 2215/2224 24004KT 9999 SCT020 BKN030"
    },
    {
      "icao": "LRTR",
      "alert": "OK",
      "vis_m": 9999,
      "fzfg": false,
      "metar_trigger": false,
      "taf_trigger": false,
      "metar": "METAR LRTR 221630Z 15007KT 9999 SCT020 06/05 Q1024 NOSIG",
      "taf": "TAF LRTR 221100Z 2212/2312 VRB04KT 9999 OVC010"
    },
    {
      "icao": "LTAC",
      "alert": "OK",
      "vis_m": 9999,
      "fzfg": false,
      "metar_trigger": false,
      "taf_trigger": false,
      "metar": "METAR LTAC 221620Z 33007KT 290V350 9999 SCT040 BKN100 05/M00 Q1013 NOSIG RMK RWY21C 34005KT 300V020 RWY03L 32005KT 290V350 RWY21R 33005KT 260V020 RWY03R 31007KT RWY21L 33008KT",
      "taf": "TAF LTAC 221040Z 2212/2312 VRB02KT 9999 SCT030 BKN100"
    },
    {
      "icao": "LTFM",
      "alert": "OK",
      "vis_m": 9999,
      "fzfg": false,
      "metar_trigger": false,
      "taf_trigger": false,
      "metar": "METAR LTFM 221620Z 36010KT 9999 BKN014 BKN028 04/01 Q1022 NOSIG RMK RWY17L 35009KT RWY34L 34009KT RWY16R 35008KT RWY36 36011KT RWY18 36009KT",
      "taf": "TAF LTFM 221040Z 2212/2318 36017KT 9999 BKN009 BKN025"
    },
    {
      "icao": "LUKK",
      "alert": "OK",
      "vis_m": 9999,
      "fzfg": false,
      "metar_trigger": false,
      "taf_trigger": false,
      "metar": "METAR LUKK 221630Z 33006KT CAVOK 01/M02 Q1020 NOSIG",
      "taf": "TAF LUKK 221101Z 2212/2312 34009KT CAVOK"
    },
    {
      "icao": "LWOH",
      "alert": "OK",
      "vis_m": 9999,
      "fzfg": false,
      "metar_trigger": false,
      "taf_trigger": false,
      "metar": "METAR LWOH 221650Z 36008KT 320V030 CAVOK 06/M01 Q1022",
      "taf": "TAF LWOH 221425Z 2215/2315 01012KT 9999 FEW040"
    },
    {
      "icao": "LWSK",
      "alert": "OK",
      "vis_m": 9999,
      "fzfg": false,
      "metar_trigger": false,
      "taf_trigger": false,
      "metar": "METAR LWSK 221650Z 02011KT 9999 FEW045 05/01 Q1025 NOSIG",
      "taf": "TAF LWSK 221425Z 2215/2315 01012KT 9999 SCT040"
    },
    {
      "icao": "LYBE",
      "alert": "OK",
      "vis_m": 9999,
      "fzfg": false,
      "metar_trigger": false,
      "taf_trigger": false,
      "metar": "METAR LYBE 221630Z 24005KT CAVOK 09/04 Q1024 NOSIG",
      "taf": "TAF LYBE 221100Z 2212/2312 27008KT 9999 SCT020 TX13/2312Z TN04/2306Z"
    },
    {
      "icao": "LYNI",
      "alert": "OK",
      "vis_m": 9999,
      "fzfg": false,
      "metar_trigger": false,
      "taf_trigger": false,
      "metar": "METAR LYNI 221630Z VRB02KT 9999 BKN017 BKN033 04/02 Q1025 NOSIG",
      "taf": "TAF LYNI 221100Z 2212/2312 32010KT 9999 SCT012 BKN023 TX12/2312Z TNM01/2305Z"
    },
    {
      "icao": "LYPG",
      "alert": "OK",
      "vis_m": 9999,
      "fzfg": false,
      "metar_trigger": false,
      "taf_trigger": false,
      "metar": "METAR LYPG 221630Z 36012KT CAVOK 13/M01 Q1023 NOSIG",
      "taf": "TAF LYPG 221100Z 2212/2312 36009KT CAVOK TX16/2213Z TN02/2305Z"
    },
    {
      "icao": "LZIB",
      "alert": "OK",
      "vis_m": 700,
      "fzfg": false,
      "metar_trigger": false,
      "taf_trigger": false,
      "metar": "METAR LZIB 221630Z VRB01KT 0700 R31/1900N R22/0650N -RA FG FEW010 OVC028 02/02 Q1020 BECMG 0500 -RA FG",
      "taf": ""
    },
    {
      "icao": "LZKZ",
      "alert": "OK",
      "vis_m": 2500,
      "fzfg": false,
      "metar_trigger": false,
      "taf_trigger": false,
      "metar": "METAR LZKZ 221630Z 19009KT 2500 -DZ BR BKN005 BKN009 01/01 Q1020 TEMPO OVC004",
      "taf": ""
    },
    {
      "icao": "LZTT",
      "alert": "OK",
      "vis_m": 9999,
      "fzfg": false,
      "metar_trigger": false,
      "taf_trigger": false,
      "metar": "METAR LZTT 221630Z VRB01KT 9999 FEW016 SCT050 04/01 Q1016 NOSIG",
      "taf": "TAF LZTT 221115Z 2212/2312 25008KT 9999 FEW030 SCT060"
    },
    {
      "icao": "OEJN",
      "alert": "OK",
      "vis_m": null,
      "fzfg": false,
      "metar_trigger": false,
      "taf_trigger": false,
      "metar": "",
      "taf": "TAF OEJN 221100Z 2212/2318 30010KT CAVOK"
    },
    {
      "icao": "OEMA",
      "alert": "OK",
      "vis_m": null,
      "fzfg": false,
      "metar_trigger": false,
      "taf_trigger": false,
      "metar": "",
      "taf": "TAF OEMA 221100Z 2212/2318 12010KT 7000 NSC"
    },
    {
      "icao": "OJAI",
      "alert": "OK",
      "vis_m": 5000,
      "fzfg": false,
      "metar_trigger": false,
      "taf_trigger": false,
      "metar": "METAR OJAI 221600Z 26006KT 5000 HZ FEW030 12/06 Q1016 NOSIG",
      "taf": "TAF OJAI 221100Z 2212/2318 29012KT 5000 HZ SCT030"
    },
    {
      "icao": "OMAA",
      "alert": "OK",
      "vis_m": 9999,
      "fzfg": false,
      "metar_trigger": false,
      "taf_trigger": false,
      "metar": "METAR OMAA 221630Z 29006KT CAVOK 23/20 Q1011 NOSIG",
      "taf": "TAF OMAA 221100Z 2212/2318 31011KT 8000 NSC"
    },
    {
      "icao": "OMDB",
      "alert": "OK",
      "vis_m": 9999,
      "fzfg": false,
      "metar_trigger": false,
      "taf_trigger": false,
      "metar": "METAR OMDB 221630Z 24004KT CAVOK 24/19 Q1010 NOSIG",
      "taf": "TAF OMDB 221100Z 2212/2318 29010KT 8000 NSC"
    },
    {
      "icao": "UAAA",
      "alert": "OK",
      "vis_m": 1800,
      "fzfg": false,
      "metar_trigger": false,
      "taf_trigger": false,
      "metar": "METAR UAAA 221630Z 14002MPS 1800 R05R/P2000 BR FU BKN200 03/00 Q1016 NOSIG",
      "taf": "TAF UAAA 221102Z 2212/2312 23003MPS 3100 BR FU SCT030 BKN100 TX08/2309Z TN00/2301Z"
    },
    {
      "icao": "UBBB",
      "alert": "OK",
      "vis_m": 9999,
      "fzfg": false,
      "metar_trigger": false,
      "taf_trigger": false,
      "metar": "METAR UBBB 221630Z 32012KT 9999 BKN013 06/04 Q1017 NOSIG",
      "taf": "TAF UBBB 221048Z 2212/2312 34016G26KT 9999 BKN010 BKN025 TX09/2212Z TN04/2301Z"
    },
    {
      "icao": "UDSG",
      "alert": "OK",
      "vis_m": 9999,
      "fzfg": false,
      "metar_trigger": false,
      "taf_trigger": false,
      "metar": "METAR UDSG 221630Z 12003KT 9999 BKN049 02/M01 Q1013 NOSIG",
      "taf": "TAF UDSG 221100Z 2212/2312 VRB06KT 9999 SCT050"
    },
    {
      "icao": "UDYZ",
      "alert": "OK",
      "vis_m": 9999,
      "fzfg": false,
      "metar_trigger": false,
      "taf_trigger": false,
      "metar": "METAR UDYZ 221630Z 34003KT 9999 SCT043CB 09/M00 Q1010 NOSIG",
      "taf": "TAF UDYZ 221100Z 2212/2312 24006KT 9999 SCT040"
    },
    {
      "icao": "UGKO",
      "alert": "OK",
      "vis_m": 9999,
      "fzfg": false,
      "metar_trigger": false,
      "taf_trigger": false,
      "metar": "METAR UGKO 221630Z 26008KT 9999 BKN087 10/05 Q1012 NOSIG",
      "taf": "TAF UGKO 221100Z 2212/2312 08017KT 9999 BKN050 TX17/2212Z TN07/2303Z"
    }
  ]
}