{
  "ts_utc": "2026-01-12T07:24:13Z",
  "threshold_m": 150,
  "source": "stations_override.txt (ICAO list) + aviationweather.gov (METAR/TAF raw)",
  "station_count": 159,
  "stations": [
    {
      "icao": "BIKF",
      "alert": "OK",
      "vis_m": 9999,
      "fzfg": false,
      "metar_trigger": false,
      "taf_trigger": false,
      "metar": "METAR BIKF 120700Z 01027G37KT 9999 BKN023 M02/M07 Q0995",
      "taf": "TAF BIKF 120459Z 1206/1306 01027G37KT 9999 SCT025 TX00/1208Z TNM03/1306Z"
    },
    {
      "icao": "BKPR",
      "alert": "OK",
      "vis_m": null,
      "fzfg": false,
      "metar_trigger": false,
      "taf_trigger": false,
      "metar": "",
      "taf": "TAF BKPR 120530Z 1206/1306 32006KT 9999 SCT030"
    },
    {
      "icao": "EBCI",
      "alert": "OK",
      "vis_m": 9000,
      "fzfg": false,
      "metar_trigger": false,
      "taf_trigger": false,
      "metar": "METAR EBCI 120650Z 20014KT 170V230 9000 -DZRA SCT006 BKN009 03/02 Q1009 TEMPO 1400 -DZ BR BKN004",
      "taf": "TAF EBCI 120502Z 1206/1312 20013KT 9999 SCT003 BKN005"
    },
    {
      "icao": "EDDB",
      "alert": "OK",
      "vis_m": 9999,
      "fzfg": false,
      "metar_trigger": false,
      "taf_trigger": false,
      "metar": "METAR EDDB 120650Z AUTO 11004KT 090V160 CAVOK M10/M12 Q1018 NOSIG",
      "taf": "TAF EDDB 120500Z 1206/1306 13005KT CAVOK"
    },
    {
      "icao": "EDDH",
      "alert": "OK",
      "vis_m": 9999,
      "fzfg": false,
      "metar_trigger": false,
      "taf_trigger": false,
      "metar": "METAR EDDH 120650Z AUTO 15012KT 9999 FEW033 SCT042 BKN049 M03/M07 Q1012 NOSIG",
      "taf": "TAF EDDH 120500Z 1206/1312 14010KT 9999 BKN030"
    },
    {
      "icao": "EDDK",
      "alert": "OK",
      "vis_m": 9999,
      "fzfg": false,
      "metar_trigger": false,
      "taf_trigger": false,
      "metar": "METAR EDDK 120650Z AUTO 13007KT 9999 -RA FEW007 BKN020 01/M01 Q1012 TEMPO 4000 RADZ",
      "taf": "TAF EDDK 120500Z 1206/1312 14011KT 9999 BKN020"
    },
    {
      "icao": "EDDN",
      "alert": "OK",
      "vis_m": 9999,
      "fzfg": false,
      "metar_trigger": false,
      "taf_trigger": false,
      "metar": "METAR EDDN 120650Z AUTO 15006KT 9999 FEW034 BKN044 M04/M06 Q1018 TEMPO FM0730 4000 -SN",
      "taf": "TAF EDDN 120500Z 1206/1306 15007KT CAVOK"
    },
    {
      "icao": "EDDS",
      "alert": "OK",
      "vis_m": 5000,
      "fzfg": false,
      "metar_trigger": false,
      "taf_trigger": false,
      "metar": "METAR EDDS 120650Z AUTO 10003KT 070V150 5000 -SHSN BR FEW027 BKN037 OVC044 FEW///TCU M01/M02 Q1016 REFZDZ TEMPO 4000 -FZDZ",
      "taf": ""
    },
    {
      "icao": "EDFH",
      "alert": "OK",
      "vis_m": 3500,
      "fzfg": false,
      "metar_trigger": false,
      "taf_trigger": false,
      "metar": "METAR EDFH 120650Z 15008KT 3500 -FZRA BKN003 BKN011 M01/M02 Q1012",
      "taf": "TAF EDFH 120500Z 1206/1306 18012KT 9999 BKN020"
    },
    {
      "icao": "EDJA",
      "alert": "OK",
      "vis_m": 9999,
      "fzfg": false,
      "metar_trigger": false,
      "taf_trigger": false,
      "metar": "METAR EDJA 120650Z 21010KT 9999 -SN FEW023 BKN029 OVC058 M03/M07 Q1018",
      "taf": "TAF EDJA 120500Z 1206/1215 21006KT CAVOK"
    },
    {
      "icao": "EDLW",
      "alert": "OK",
      "vis_m": 9999,
      "fzfg": false,
      "metar_trigger": false,
      "taf_trigger": false,
      "metar": "METAR EDLW 120650Z 19014KT 9999 -RA OVC021 02/M00 Q1009",
      "taf": "TAF EDLW 120500Z 1206/1306 18013KT 9999 BKN025"
    },
    {
      "icao": "EDNY",
      "alert": "OK",
      "vis_m": 9999,
      "fzfg": false,
      "metar_trigger": false,
      "taf_trigger": false,
      "metar": "METAR EDNY 120650Z 10004KT 330V120 9999 SCT042 OVC060 M02/M03 Q1020",
      "taf": "TAF EDNY 120500Z 1206/1215 VRB02KT 9999 SCT010 BKN050"
    },
    {
      "icao": "EDSB",
      "alert": "OK",
      "vis_m": 9999,
      "fzfg": false,
      "metar_trigger": false,
      "taf_trigger": false,
      "metar": "METAR EDSB 120650Z 24005KT 210V270 9999 -RASN BKN039 OVC044 01/M01 Q1017",
      "taf": "TAF EDSB 120500Z 1206/1306 20005KT 9999 BKN040"
    },
    {
      "icao": "EETN",
      "alert": "OK",
      "vis_m": 9999,
      "fzfg": false,
      "metar_trigger": false,
      "taf_trigger": false,
      "metar": "METAR EETN 120720Z 09003KT 9999 BKN011 OVC016 M07/M08 Q1016 TEMPO BKN009",
      "taf": "TAF EETN 120530Z 1206/1306 08010KT 9999 SCT015 BKN030"
    },
    {
      "icao": "EFTU",
      "alert": "OK",
      "vis_m": 9999,
      "fzfg": false,
      "metar_trigger": false,
      "taf_trigger": false,
      "metar": "METAR EFTU 120720Z AUTO 07009KT CAVOK M09/M11 Q1018",
      "taf": "TAF EFTU 120526Z 1206/1306 06007KT 9999 FEW020"
    },
    {
      "icao": "EGBB",
      "alert": "OK",
      "vis_m": 9999,
      "fzfg": false,
      "metar_trigger": false,
      "taf_trigger": false,
      "metar": "METAR EGBB 120650Z 20009KT 160V230 9999 BKN010 09/07 Q0998",
      "taf": ""
    },
    {
      "icao": "EGGP",
      "alert": "OK",
      "vis_m": 9999,
      "fzfg": false,
      "metar_trigger": false,
      "taf_trigger": false,
      "metar": "METAR EGGP 120650Z 20007KT 9999 FEW037 08/05 Q0995",
      "taf": "TAF EGGP 120454Z 1206/1306 21012KT 9999 SCT030"
    },
    {
      "icao": "EGGW",
      "alert": "OK",
      "vis_m": 9999,
      "fzfg": false,
      "metar_trigger": false,
      "taf_trigger": false,
      "metar": "METAR EGGW 120650Z AUTO 20009KT 9999 BKN013 08/07 Q1001",
      "taf": "TAF EGGW 120454Z 1206/1306 20010KT 9999 SCT020"
    },
    {
      "icao": "EGKK",
      "alert": "OK",
      "vis_m": 9999,
      "fzfg": false,
      "metar_trigger": false,
      "taf_trigger": false,
      "metar": "METAR EGKK 120650Z 22009KT 9999 4200NE -RA SCT009 BKN012 10/10 Q1003",
      "taf": "TAF EGKK 120453Z 1206/1312 21010KT 9999 SCT017"
    },
    {
      "icao": "EGNM",
      "alert": "OK",
      "vis_m": 9999,
      "fzfg": false,
      "metar_trigger": false,
      "taf_trigger": false,
      "metar": "METAR EGNM 120650Z 22016KT 9999 SCT030 08/05 Q0994",
      "taf": "TAF EGNM 120525Z 1206/1306 22016G26KT 9999 BKN040"
    },
    {
      "icao": "EGPD",
      "alert": "OK",
      "vis_m": 9999,
      "fzfg": false,
      "metar_trigger": false,
      "taf_trigger": false,
      "metar": "METAR EGPD 120650Z COR AUTO 21023KT 9999 BKN024 08/04 Q0982 NOSIG",
      "taf": "TAF EGPD 120454Z 1206/1306 20020G32KT 9999 SCT020"
    },
    {
      "icao": "EGPF",
      "alert": "OK",
      "vis_m": 6000,
      "fzfg": false,
      "metar_trigger": false,
      "taf_trigger": false,
      "metar": "METAR EGPF 120650Z AUTO 22017KT 6000 -RA SCT017/// BKN026/// BKN045/// //////TCU 08/06 Q0987",
      "taf": ""
    },
    {
      "icao": "EHBK",
      "alert": "OK",
      "vis_m": 9999,
      "fzfg": false,
      "metar_trigger": false,
      "taf_trigger": false,
      "metar": "METAR EHBK 120655Z AUTO 20016KT 9999 FEW006 SCT008 BKN009 02/02 Q1010 REDZ TEMPO BKN016",
      "taf": "TAF EHBK 120501Z 1206/1312 21012KT 9999 BKN018"
    },
    {
      "icao": "EHEH",
      "alert": "OK",
      "vis_m": 5000,
      "fzfg": false,
      "metar_trigger": false,
      "taf_trigger": false,
      "metar": "METAR EHEH 120655Z AUTO 18009KT 150V210 5000 BR SCT004 OVC005 03/02 Q1009 YLO TEMPO 3000 BR -DZ SCT003 BKN005",
      "taf": "TAF EHEH 120539Z 1206/1312 19011KT 6000 SCT006 BKN008 OVC010"
    },
    {
      "icao": "EKBI",
      "alert": "OK",
      "vis_m": 1400,
      "fzfg": false,
      "metar_trigger": false,
      "taf_trigger": false,
      "metar": "METAR EKBI 120720Z 13012KT 100V160 1400 R09/P1500N R27/P1500N -SN DRSN OVC018 M02/M04 Q1010",
      "taf": ""
    },
    {
      "icao": "EKCH",
      "alert": "OK",
      "vis_m": 9999,
      "fzfg": false,
      "metar_trigger": false,
      "taf_trigger": false,
      "metar": "METAR EKCH 120720Z AUTO 13013KT 9999 BKN120/// M03/M07 Q1016 NOSIG",
      "taf": "TAF EKCH 120527Z 1206/1306 07005KT CAVOK"
    },
    {
      "icao": "ENAL",
      "alert": "OK",
      "vis_m": 9999,
      "fzfg": false,
      "metar_trigger": false,
      "taf_trigger": false,
      "metar": "METAR ENAL 120650Z 14013KT 9999 SCT048 BKN056 06/M05 Q0996",
      "taf": "TAF ENAL 120500Z 1206/1215 14012KT 9999 BKN050"
    },
    {
      "icao": "ENBR",
      "alert": "OK",
      "vis_m": 9999,
      "fzfg": false,
      "metar_trigger": false,
      "taf_trigger": false,
      "metar": "METAR ENBR 120650Z 15026G40KT 9999 -SNRA BKN043 03/M05 Q0998 NOSIG RMK WIND 1200FT 14057G75KT",
      "taf": "TAF ENBR 120500Z 1206/1306 13022G35KT 9999 BKN040"
    },
    {
      "icao": "ENGM",
      "alert": "OK",
      "vis_m": 9999,
      "fzfg": false,
      "metar_trigger": false,
      "taf_trigger": false,
      "metar": "METAR ENGM 120650Z 35002KT 9999 BKN023 M14/M16 Q1016 NOSIG",
      "taf": "TAF ENGM 120500Z 1206/1306 02005KT 9999 SCT012 BKN018"
    },
    {
      "icao": "ENHD",
      "alert": "OK",
      "vis_m": 8000,
      "fzfg": false,
      "metar_trigger": false,
      "taf_trigger": false,
      "metar": "METAR ENHD 120650Z 13036G47KT 8000 -RASN BKN024 01/M03 Q1000",
      "taf": "TAF ENHD 120500Z 1206/1215 13032G48KT 9999 FEW030 BKN040"
    },
    {
      "icao": "ENTC",
      "alert": "OK",
      "vis_m": 9999,
      "fzfg": false,
      "metar_trigger": false,
      "taf_trigger": false,
      "metar": "METAR ENTC 120650Z 00000KT CAVOK M06/M10 Q1016 NOSIG RMK WIND 2600FT 17023KT",
      "taf": "TAF ENTC 120500Z 1206/1306 21009KT CAVOK"
    },
    {
      "icao": "ENTO",
      "alert": "OK",
      "vis_m": 9999,
      "fzfg": false,
      "metar_trigger": false,
      "taf_trigger": false,
      "metar": "METAR ENTO 120650Z 36007KT 9999 SCT013 M11/M13 Q1016 NOSIG",
      "taf": "TAF ENTO 120500Z 1206/1306 02008KT 9999 FEW010 BKN020"
    },
    {
      "icao": "ENVA",
      "alert": "OK",
      "vis_m": 9999,
      "fzfg": false,
      "metar_trigger": false,
      "taf_trigger": false,
      "metar": "METAR ENVA 120650Z 11017G28KT 080V150 CAVOK M03/M13 Q1010 NOSIG RMK WIND 670FT 13031G45KT",
      "taf": "TAF ENVA 120500Z 1206/1306 11018KT CAVOK"
    },
    {
      "icao": "ENZV",
      "alert": "OK",
      "vis_m": 8000,
      "fzfg": false,
      "metar_trigger": false,
      "taf_trigger": false,
      "metar": "METAR ENZV 120650Z 14031G45KT 8000 SNRA DRSN BKN020 00/M03 Q1001 NOSIG",
      "taf": "TAF ENZV 120500Z 1206/1306 14030G42KT 9999 SCT045"
    },
    {
      "icao": "EPGD",
      "alert": "OK",
      "vis_m": 9999,
      "fzfg": false,
      "metar_trigger": false,
      "taf_trigger": false,
      "metar": "METAR EPGD 120700Z 27004KT 210V310 9999 BKN025 M04/M05 Q1014",
      "taf": "TAF EPGD 120530Z 1206/1306 28007KT 9999 -SHSN SCT020CB"
    },
    {
      "icao": "EPKK",
      "alert": "OK",
      "vis_m": 9999,
      "fzfg": false,
      "metar_trigger": false,
      "taf_trigger": false,
      "metar": "METAR EPKK 120700Z 26011KT 9999 BKN028 M06/M09 Q1017",
      "taf": "TAF EPKK 120530Z 1206/1306 27015KT 6000 -SN BKN020"
    },
    {
      "icao": "EPKT",
      "alert": "OK",
      "vis_m": 9000,
      "fzfg": false,
      "metar_trigger": false,
      "taf_trigger": false,
      "metar": "METAR EPKT 120700Z 26010KT 9000 DRSN SCT002 SCT008 M08/M09 Q1017",
      "taf": "TAF EPKT 120530Z 1206/1306 28015KT 6000 -SN DRSN BKN014"
    },
    {
      "icao": "EPLB",
      "alert": "OK",
      "vis_m": 9999,
      "fzfg": false,
      "metar_trigger": false,
      "taf_trigger": false,
      "metar": "METAR EPLB 120700Z VRB03KT 9999 BKN012 M08/M10 Q1014",
      "taf": "TAF EPLB 120530Z 1206/1306 30008KT 7000 -SN BKN014 BKN025"
    },
    {
      "icao": "EPMO",
      "alert": "OK",
      "vis_m": 9999,
      "fzfg": false,
      "metar_trigger": false,
      "taf_trigger": false,
      "metar": "METAR EPMO 120700Z 32002KT 9999 FEW022 M06/M07 Q1015",
      "taf": "TAF EPMO 120530Z 1206/1306 30010KT 9999 BKN030"
    },
    {
      "icao": "EPPO",
      "alert": "OK",
      "vis_m": 9999,
      "fzfg": false,
      "metar_trigger": false,
      "taf_trigger": false,
      "metar": "METAR EPPO 120700Z 29004KT 260V330 9999 FEW029 M11/M13 Q1018",
      "taf": "TAF EPPO 120530Z 1206/1306 29010KT 9999 FEW029"
    },
    {
      "icao": "EPRA",
      "alert": "OK",
      "vis_m": 9000,
      "fzfg": false,
      "metar_trigger": false,
      "taf_trigger": false,
      "metar": "METAR EPRA 120700Z 36004KT 9000 -SN BKN014 M06/M07 Q1014",
      "taf": "TAF EPRA 120530Z 1206/1215 33010KT 8000 -SN BKN014 OVC025"
    },
    {
      "icao": "EPRZ",
      "alert": "OK",
      "vis_m": 2500,
      "fzfg": false,
      "metar_trigger": false,
      "taf_trigger": false,
      "metar": "METAR EPRZ 120700Z 27017KT 2500 -SN DRSN BR FEW003 SCT010 BKN023 M05/M06 Q1014",
      "taf": "TAF EPRZ 120530Z 1206/1306 28012KT 3000 -SN DRSN BKN014"
    },
    {
      "icao": "EPSC",
      "alert": "OK",
      "vis_m": 9999,
      "fzfg": false,
      "metar_trigger": false,
      "taf_trigger": false,
      "metar": "METAR EPSC 120700Z 13003KT CAVOK M12/M14 Q1017",
      "taf": "TAF EPSC 120530Z 1206/1306 VRB02KT CAVOK"
    },
    {
      "icao": "EPSY",
      "alert": "OK",
      "vis_m": 9999,
      "fzfg": false,
      "metar_trigger": false,
      "taf_trigger": false,
      "metar": "METAR EPSY 120700Z VRB03KT CAVOK M10/M11 Q1014",
      "taf": "TAF EPSY 120530Z 1206/1215 32005KT CAVOK"
    },
    {
      "icao": "EPWA",
      "alert": "OK",
      "vis_m": 9999,
      "fzfg": false,
      "metar_trigger": false,
      "taf_trigger": false,
      "metar": "METAR EPWA 120700Z 33005KT 300V360 CAVOK M06/M07 Q1015 NOSIG",
      "taf": "TAF EPWA 120530Z 1206/1306 33010KT 9999 SCT014 BKN025"
    },
    {
      "icao": "EPWR",
      "alert": "OK",
      "vis_m": 9999,
      "fzfg": false,
      "metar_trigger": false,
      "taf_trigger": false,
      "metar": "METAR EPWR 120700Z 26004KT CAVOK M12/M14 Q1019",
      "taf": "TAF EPWR 120530Z 1206/1306 27008KT CAVOK"
    },
    {
      "icao": "ESGG",
      "alert": "OK",
      "vis_m": 9999,
      "fzfg": false,
      "metar_trigger": false,
      "taf_trigger": false,
      "metar": "METAR ESGG 120650Z 11008KT CAVOK M09/M11 Q1015",
      "taf": "TAF ESGG 120530Z 1206/1306 12008KT CAVOK"
    },
    {
      "icao": "ESKN",
      "alert": "OK",
      "vis_m": 9999,
      "fzfg": false,
      "metar_trigger": false,
      "taf_trigger": false,
      "metar": "METAR ESKN 120650Z 33004KT 9999 SCT020 M07/M08 Q1017",
      "taf": "TAF ESKN 120530Z 1206/1306 34006KT 9999 SCT020"
    },
    {
      "icao": "ESMS",
      "alert": "OK",
      "vis_m": 9999,
      "fzfg": false,
      "metar_trigger": false,
      "taf_trigger": false,
      "metar": "METAR ESMS 120650Z 10006KT CAVOK M12/M13 Q1016",
      "taf": "TAF ESMS 120527Z 1206/1306 VRB04KT CAVOK"
    },
    {
      "icao": "ESSA",
      "alert": "OK",
      "vis_m": 9999,
      "fzfg": false,
      "metar_trigger": false,
      "taf_trigger": false,
      "metar": "METAR ESSA 120650Z 04006KT 9999 FEW022 M08/M09 Q1017 NOSIG",
      "taf": "TAF ESSA 120530Z 1206/1306 05006KT 9999 BKN020"
    },
    {
      "icao": "EYKA",
      "alert": "OK",
      "vis_m": 8000,
      "fzfg": false,
      "metar_trigger": false,
      "taf_trigger": false,
      "metar": "METAR EYKA 120720Z 00000KT 8000 BKN017 M14/M16 Q1014",
      "taf": "TAF EYKA 120504Z 1206/1306 VRB04KT 5000 BR SCT015"
    },
    {
      "icao": "EYPA",
      "alert": "OK",
      "vis_m": 9999,
      "fzfg": false,
      "metar_trigger": false,
      "taf_trigger": false,
      "metar": "METAR EYPA 120720Z VRB02KT 9999 BKN026 M07/M08 Q1014",
      "taf": "TAF EYPA 120505Z 1206/1306 VRB04KT 5000 BR SCT005 BKN015"
    },
    {
      "icao": "EYVI",
      "alert": "OK",
      "vis_m": 9999,
      "fzfg": false,
      "metar_trigger": false,
      "taf_trigger": false,
      "metar": "METAR EYVI 120720Z 30003KT 280V340 9999 -SN BKN010 M13/M14 Q1012 NOSIG",
      "taf": "TAF EYVI 120507Z 1206/1306 VRB04KT 9000 OVC015"
    },
    {
      "icao": "GCFV",
      "alert": "OK",
      "vis_m": 9999,
      "fzfg": false,
      "metar_trigger": false,
      "taf_trigger": false,
      "metar": "METAR GCFV 120700Z 31005KT 9999 SCT020 14/11 Q1023",
      "taf": "TAF GCFV 120200Z 1203/1303 06005KT 9999 SCT015 TX21/1214Z TN14/1206Z"
    },
    {
      "icao": "GCLP",
      "alert": "OK",
      "vis_m": 9999,
      "fzfg": false,
      "metar_trigger": false,
      "taf_trigger": false,
      "metar": "METAR GCLP 120700Z 32006KT 9999 FEW025 15/12 Q1022 NOSIG",
      "taf": "TAF GCLP 120200Z 1203/1303 33007KT 9999 SCT025 TX21/1214Z TN15/1206Z"
    },
    {
      "icao": "GCTS",
      "alert": "OK",
      "vis_m": 9999,
      "fzfg": false,
      "metar_trigger": false,
      "taf_trigger": false,
      "metar": "METAR GCTS 120700Z 04009KT 9999 FEW030 16/09 Q1022 NOSIG",
      "taf": "TAF GCTS 120200Z 1203/1303 01005KT 9999 FEW030 TX23/1214Z TN16/1206Z"
    },
    {
      "icao": "GMAD",
      "alert": "OK",
      "vis_m": 9999,
      "fzfg": false,
      "metar_trigger": false,
      "taf_trigger": false,
      "metar": "METAR GMAD 120700Z 09007KT CAVOK 07/05 Q1023 NOSIG",
      "taf": "TAF GMAD 120500Z 1206/1312 12005KT CAVOK"
    },
    {
      "icao": "GMMN",
      "alert": "OK",
      "vis_m": 8000,
      "fzfg": false,
      "metar_trigger": false,
      "taf_trigger": false,
      "metar": "METAR GMMN 120700Z 18005KT 8000 NSC 06/06 Q1022 NOSIG",
      "taf": "TAF GMMN 120500Z 1206/1312 19004KT 6000 FEW020"
    },
    {
      "icao": "GMMX",
      "alert": "OK",
      "vis_m": 8000,
      "fzfg": false,
      "metar_trigger": false,
      "taf_trigger": false,
      "metar": "METAR GMMX 120700Z 07003KT 8000 NSC 05/04 Q1023 NOSIG",
      "taf": ""
    },
    {
      "icao": "HEGN",
      "alert": "OK",
      "vis_m": 9999,
      "fzfg": false,
      "metar_trigger": false,
      "taf_trigger": false,
      "metar": "METAR HEGN 120600Z 32004KT CAVOK 15/03 Q1017 NOSIG",
      "taf": "TAF HEGN 120500Z 1206/1312 33012G24KT 6000 SCT025"
    },
    {
      "icao": "HEMA",
      "alert": "OK",
      "vis_m": 9999,
      "fzfg": false,
      "metar_trigger": false,
      "taf_trigger": false,
      "metar": "METAR HEMA 120600Z 25006KT CAVOK 19/07 Q1016 NOSIG",
      "taf": "TAF HEMA 120500Z 1206/1312 32008G20KT CAVOK"
    },
    {
      "icao": "HESH",
      "alert": "OK",
      "vis_m": 9999,
      "fzfg": false,
      "metar_trigger": false,
      "taf_trigger": false,
      "metar": "METAR HESH 120600Z 29006KT CAVOK 18/12 Q1016 NOSIG",
      "taf": "TAF HESH 120500Z 1206/1312 35006G18KT 9999 SCT025"
    },
    {
      "icao": "HESX",
      "alert": "OK",
      "vis_m": 9999,
      "fzfg": false,
      "metar_trigger": false,
      "taf_trigger": false,
      "metar": "METAR HESX 120600Z 24010KT CAVOK 09/00 Q1017 NOSIG",
      "taf": "TAF HESX 120605Z 1206/1312 21010KT CAVOK"
    },
    {
      "icao": "LATI",
      "alert": "OK",
      "vis_m": 9999,
      "fzfg": false,
      "metar_trigger": false,
      "taf_trigger": false,
      "metar": "METAR LATI 120720Z 33010KT 310V010 CAVOK 00/M09 Q1022 NOSIG",
      "taf": ""
    },
    {
      "icao": "LBPD",
      "alert": "OK",
      "vis_m": 9999,
      "fzfg": false,
      "metar_trigger": false,
      "taf_trigger": false,
      "metar": "METAR LBPD 120700Z AUTO 28016KT 9999 NCD M02/M10 Q1020 NOSIG",
      "taf": "TAF LBPD 120500Z 1206/1306 28020KT CAVOK"
    },
    {
      "icao": "LBSF",
      "alert": "OK",
      "vis_m": 9999,
      "fzfg": false,
      "metar_trigger": false,
      "taf_trigger": false,
      "metar": "METAR LBSF 120700Z 28011KT 9999 SCT025 M06/M10 Q1019 NOSIG",
      "taf": "TAF LBSF 120500Z 1206/1306 28012KT 9999 BKN030"
    },
    {
      "icao": "LBWN",
      "alert": "OK",
      "vis_m": 9999,
      "fzfg": false,
      "metar_trigger": false,
      "taf_trigger": false,
      "metar": "METAR LBWN 120700Z 29013KT 9999 FEW030 M03/M07 Q1018 NOSIG",
      "taf": "TAF LBWN 120500Z 1206/1306 31012KT 9999 SCT020 BKN040"
    },
    {
      "icao": "LCLK",
      "alert": "OK",
      "vis_m": 5000,
      "fzfg": false,
      "metar_trigger": false,
      "taf_trigger": false,
      "metar": "METAR LCLK 120700Z 30005KT 5000 FEW025CB BKN060 15/13 Q1009 TEMPO 3000 TSRA SCT020CB RMK CB TO W",
      "taf": "TAF LCLK 120530Z 1206/1306 22010KT 9999 FEW025 BKN050"
    },
    {
      "icao": "LCPH",
      "alert": "OK",
      "vis_m": 9999,
      "fzfg": false,
      "metar_trigger": false,
      "taf_trigger": false,
      "metar": "METAR LCPH 120700Z 25014KT 9999 FEW025 SCT035 BKN060 17/09 Q1008 NOSIG",
      "taf": "TAF LCPH 120530Z 1206/1306 24010KT 9999 FEW020 SCT050"
    },
    {
      "icao": "LEAL",
      "alert": "OK",
      "vis_m": 9999,
      "fzfg": false,
      "metar_trigger": false,
      "taf_trigger": false,
      "metar": "METAR LEAL 120700Z VRB02KT CAVOK 06/04 Q1023 NOSIG",
      "taf": "TAF LEAL 120500Z 1206/1306 29007KT CAVOK TX16/1213Z TN07/1206Z"
    },
    {
      "icao": "LEBB",
      "alert": "OK",
      "vis_m": 9999,
      "fzfg": false,
      "metar_trigger": false,
      "taf_trigger": false,
      "metar": "METAR LEBB 120700Z 16006KT 080V240 CAVOK 16/06 Q1016 NOSIG",
      "taf": "TAF LEBB 120500Z 1206/1306 19009KT 9999 SCT060 TX15/1214Z TN11/1306Z"
    },
    {
      "icao": "LEBL",
      "alert": "OK",
      "vis_m": 9999,
      "fzfg": false,
      "metar_trigger": false,
      "taf_trigger": false,
      "metar": "METAR LEBL 120700Z 32010KT CAVOK 05/02 Q1022 NOSIG",
      "taf": "TAF LEBL 120500Z 1206/1306 31008KT 9999 FEW020 TX15/1213Z TN05/1206Z"
    },
    {
      "icao": "LECH",
      "alert": "OK",
      "vis_m": 9999,
      "fzfg": false,
      "metar_trigger": false,
      "taf_trigger": false,
      "metar": "METAR LECH 120700Z AUTO 00000KT CAVOK 04/01 Q1022",
      "taf": ""
    },
    {
      "icao": "LEMD",
      "alert": "OK",
      "vis_m": 9999,
      "fzfg": false,
      "metar_trigger": false,
      "taf_trigger": false,
      "metar": "METAR LEMD 120700Z 33002KT 9999 BKN006 BKN020 03/03 Q1024 NOSIG",
      "taf": ""
    },
    {
      "icao": "LEMG",
      "alert": "OK",
      "vis_m": 9999,
      "fzfg": false,
      "metar_trigger": false,
      "taf_trigger": false,
      "metar": "METAR LEMG 120700Z 30008KT CAVOK 04/03 Q1024 NOSIG",
      "taf": "TAF LEMG 120500Z 1206/1306 27006KT CAVOK TX17/1214Z TN07/1207Z"
    },
    {
      "icao": "LEVC",
      "alert": "OK",
      "vis_m": 9999,
      "fzfg": false,
      "metar_trigger": false,
      "taf_trigger": false,
      "metar": "METAR LEVC 120700Z 30003KT 280V340 CAVOK 04/02 Q1023 NOSIG",
      "taf": "TAF LEVC 120500Z 1206/1306 27005KT CAVOK TX19/1214Z TN05/1206Z"
    },
    {
      "icao": "LEXJ",
      "alert": "OK",
      "vis_m": 7000,
      "fzfg": false,
      "metar_trigger": false,
      "taf_trigger": false,
      "metar": "METAR LEXJ 120700Z 20022G38KT 170V250 7000 FEW040 15/06 Q1013",
      "taf": ""
    },
    {
      "icao": "LEZG",
      "alert": "OK",
      "vis_m": 9999,
      "fzfg": false,
      "metar_trigger": false,
      "taf_trigger": false,
      "metar": "METAR LEZG 120700Z 12005KT 070V160 CAVOK 05/03 Q1022 NOSIG",
      "taf": "TAF LEZG 120500Z 1206/1306 VRB04KT CAVOK TX14/1215Z TN04/1206Z"
    },
    {
      "icao": "LEZL",
      "alert": "OK",
      "vis_m": 9999,
      "fzfg": false,
      "metar_trigger": false,
      "taf_trigger": false,
      "metar": "METAR LEZL 120700Z 07003KT CAVOK 06/06 Q1023 NOSIG",
      "taf": "TAF LEZL 120200Z 1203/1303 03004KT CAVOK TX16/1215Z TN05/1207Z"
    },
    {
      "icao": "LFBD",
      "alert": "OK",
      "vis_m": 9999,
      "fzfg": false,
      "metar_trigger": false,
      "taf_trigger": false,
      "metar": "METAR LFBD 120700Z AUTO 15005KT CAVOK 05/04 Q1016",
      "taf": ""
    },
    {
      "icao": "LFLL",
      "alert": "OK",
      "vis_m": 9999,
      "fzfg": false,
      "metar_trigger": false,
      "taf_trigger": false,
      "metar": "METAR LFLL 120700Z AUTO 13008KT 9999 FEW041 OVC064 03/M01 Q1020",
      "taf": "TAF LFLL 120500Z 1206/1312 16005KT CAVOK"
    },
    {
      "icao": "LFLS",
      "alert": "OK",
      "vis_m": 9999,
      "fzfg": false,
      "metar_trigger": false,
      "taf_trigger": false,
      "metar": "METAR LFLS 120700Z AUTO 08008KT 9999 OVC058 01/M02 Q1021",
      "taf": "TAF LFLS 120200Z 1203/1303 09005KT 9999 BKN060"
    },
    {
      "icao": "LFMN",
      "alert": "OK",
      "vis_m": 9999,
      "fzfg": false,
      "metar_trigger": false,
      "taf_trigger": false,
      "metar": "METAR LFMN 120700Z 33014KT CAVOK 06/M06 Q1022 NOSIG",
      "taf": "TAF LFMN 120200Z 1203/1309 33010KT CAVOK"
    },
    {
      "icao": "LFOB",
      "alert": "OK",
      "vis_m": 9999,
      "fzfg": false,
      "metar_trigger": false,
      "taf_trigger": false,
      "metar": "METAR LFOB 120700Z AUTO 20008KT 170V230 9999 OVC007 08/08 Q1009",
      "taf": "TAF LFOB 112300Z 1200/1224 18015G25KT 9999 OVC020"
    },
    {
      "icao": "LFPO",
      "alert": "OK",
      "vis_m": 9999,
      "fzfg": false,
      "metar_trigger": false,
      "taf_trigger": false,
      "metar": "METAR LFPO 120700Z 22012KT 9999 OVC009 09/07 Q1011 NOSIG",
      "taf": "TAF LFPO 120500Z 1206/1312 21012KT 9999 BKN008"
    },
    {
      "icao": "LFSB",
      "alert": "OK",
      "vis_m": 9999,
      "fzfg": false,
      "metar_trigger": false,
      "taf_trigger": false,
      "metar": "METAR LFSB 120700Z AUTO 16006KT 140V200 9999 BKN049 01/M01 Q1018 NOSIG",
      "taf": "TAF LFSB 120500Z 1206/1306 16005KT 9999 BKN050 OVC070"
    },
    {
      "icao": "LGAV",
      "alert": "OK",
      "vis_m": 9999,
      "fzfg": false,
      "metar_trigger": false,
      "taf_trigger": false,
      "metar": "METAR LGAV 120650Z 03004KT 9999 SCT030 06/M02 Q1014 NOSIG",
      "taf": "TAF LGAV 120500Z 1206/1306 35015KT 9999 FEW020 SCT040"
    },
    {
      "icao": "LGTS",
      "alert": "OK",
      "vis_m": 9999,
      "fzfg": false,
      "metar_trigger": false,
      "taf_trigger": false,
      "metar": "METAR LGTS 120650Z 33018G28KT 9999 FEW025 00/M07 Q1020 NOSIG",
      "taf": "TAF LGTS 120500Z 1206/1306 34015G30KT 9999 FEW025"
    },
    {
      "icao": "LHBP",
      "alert": "OK",
      "vis_m": 9999,
      "fzfg": false,
      "metar_trigger": false,
      "taf_trigger": false,
      "metar": "METAR LHBP 120700Z 30009G19KT CAVOK M07/M12 Q1020 NOSIG",
      "taf": "TAF LHBP 120515Z 1206/1306 29006KT CAVOK"
    },
    {
      "icao": "LHDC",
      "alert": "OK",
      "vis_m": 9999,
      "fzfg": false,
      "metar_trigger": false,
      "taf_trigger": false,
      "metar": "METAR LHDC 120645Z AUTO 16005KT 120V200 CAVOK M11/M14 Q1019 NOSIG",
      "taf": "TAF LHDC 120515Z 1206/1215 18008KT CAVOK"
    },
    {
      "icao": "LIBD",
      "alert": "OK",
      "vis_m": 9999,
      "fzfg": false,
      "metar_trigger": false,
      "taf_trigger": false,
      "metar": "METAR LIBD 120650Z 34011KT 310V020 CAVOK 06/M07 Q1024",
      "taf": "TAF LIBD 120500Z 1206/1306 34016KT 9999 FEW040"
    },
    {
      "icao": "LIBG",
      "alert": "OK",
      "vis_m": 9999,
      "fzfg": false,
      "metar_trigger": false,
      "taf_trigger": false,
      "metar": "SPECI LIBG 120657Z 29003KT 250V330 9999 FEW030 02/M04 Q1023",
      "taf": "TAF LIBG 120703Z 1208/1215 28005KT 9999 FEW040"
    },
    {
      "icao": "LIBP",
      "alert": "OK",
      "vis_m": 9999,
      "fzfg": false,
      "metar_trigger": false,
      "taf_trigger": false,
      "metar": "METAR LIBP 120650Z AUTO 22004KT 9999 NCD M03/M04 Q1025",
      "taf": "TAF LIBP 120500Z 1206/1306 22006KT CAVOK"
    },
    {
      "icao": "LIBR",
      "alert": "OK",
      "vis_m": 9999,
      "fzfg": false,
      "metar_trigger": false,
      "taf_trigger": false,
      "metar": "METAR LIBR 120650Z 36021G31KT 9999 FEW040 05/M05 Q1022",
      "taf": "TAF LIBR 120500Z 1206/1306 35020G35KT 9999 SCT040"
    },
    {
      "icao": "LICA",
      "alert": "OK",
      "vis_m": 9999,
      "fzfg": false,
      "metar_trigger": false,
      "taf_trigger": false,
      "metar": "METAR LICA 120650Z AUTO 02010KT 9999 NCD 06/M10 Q1025",
      "taf": "TAF LICA 120500Z 1206/1306 04007KT CAVOK"
    },
    {
      "icao": "LICC",
      "alert": "OK",
      "vis_m": 9999,
      "fzfg": false,
      "metar_trigger": false,
      "taf_trigger": false,
      "metar": "METAR LICC 120650Z 26005KT 9999 FEW060 05/01 Q1024",
      "taf": "TAF LICC 120500Z 1206/1306 26008KT 9999 FEW040"
    },
    {
      "icao": "LICJ",
      "alert": "OK",
      "vis_m": 9999,
      "fzfg": false,
      "metar_trigger": false,
      "taf_trigger": false,
      "metar": "METAR LICJ 120650Z 08005KT 050V110 9999 FEW040 10/04 Q1025",
      "taf": "TAF LICJ 120500Z 1206/1306 08012KT 9999 FEW030"
    },
    {
      "icao": "LIMC",
      "alert": "OK",
      "vis_m": 9999,
      "fzfg": false,
      "metar_trigger": false,
      "taf_trigger": false,
      "metar": "METAR LIMC 120650Z 01005KT CAVOK M02/M07 Q1022 NOSIG",
      "taf": "TAF LIMC 120500Z 1206/1312 VRB05KT CAVOK"
    },
    {
      "icao": "LIME",
      "alert": "OK",
      "vis_m": 9999,
      "fzfg": false,
      "metar_trigger": false,
      "taf_trigger": false,
      "metar": "METAR LIME 120650Z 02005KT CAVOK M00/M09 Q1022 NOSIG",
      "taf": "TAF LIME 120500Z 1206/1306 VRB05KT CAVOK"
    },
    {
      "icao": "LIMF",
      "alert": "OK",
      "vis_m": 9999,
      "fzfg": false,
      "metar_trigger": false,
      "taf_trigger": false,
      "metar": "METAR LIMF 120650Z 31002KT CAVOK 00/M08 Q1022",
      "taf": "TAF LIMF 120500Z 1206/1306 VRB05KT CAVOK"
    },
    {
      "icao": "LIMJ",
      "alert": "OK",
      "vis_m": 9999,
      "fzfg": false,
      "metar_trigger": false,
      "taf_trigger": false,
      "metar": "METAR LIMJ 120650Z 20012KT 9999 SCT025 13/05 Q1022",
      "taf": "TAF LIMJ 120500Z 1206/1306 VRB05KT CAVOK"
    },
    {
      "icao": "LIPE",
      "alert": "OK",
      "vis_m": 9999,
      "fzfg": false,
      "metar_trigger": false,
      "taf_trigger": false,
      "metar": "METAR LIPE 120650Z 21004KT CAVOK 00/M07 Q1023",
      "taf": "TAF LIPE 120500Z 1206/1306 VRB05KT CAVOK"
    },
    {
      "icao": "LIPH",
      "alert": "OK",
      "vis_m": 9999,
      "fzfg": false,
      "metar_trigger": false,
      "taf_trigger": false,
      "metar": "METAR LIPH 120650Z VRB01KT CAVOK M03/M04 Q1023",
      "taf": "TAF LIPH 120500Z 1206/1306 VRB05KT 9999 FEW030"
    },
    {
      "icao": "LIPQ",
      "alert": "OK",
      "vis_m": 9999,
      "fzfg": false,
      "metar_trigger": false,
      "taf_trigger": false,
      "metar": "METAR LIPQ 120650Z AUTO 08003KT 9999 BKN160/// M01/M05 Q1023",
      "taf": "TAF LIPQ 120500Z 1206/1306 VRB05KT 9999 SCT040"
    },
    {
      "icao": "LIPR",
      "alert": "OK",
      "vis_m": 9999,
      "fzfg": false,
      "metar_trigger": false,
      "taf_trigger": false,
      "metar": "METAR LIPR 120650Z VRB02KT CAVOK M04/M05 Q1023",
      "taf": "TAF LIPR 120500Z 1206/1306 VRB05KT CAVOK"
    },
    {
      "icao": "LIPX",
      "alert": "OK",
      "vis_m": 9999,
      "fzfg": false,
      "metar_trigger": false,
      "taf_trigger": false,
      "metar": "METAR LIPX 120650Z VRB02KT CAVOK M02/M06 Q1023",
      "taf": "TAF LIPX 120500Z 1206/1306 VRB05KT CAVOK"
    },
    {
      "icao": "LIPY",
      "alert": "OK",
      "vis_m": 9999,
      "fzfg": false,
      "metar_trigger": false,
      "taf_trigger": false,
      "metar": "METAR LIPY 120650Z AUTO 18003KT 9999 NCD M00/M03 Q1024",
      "taf": "TAF LIPY 120500Z 1206/1306 22007KT 9999 FEW040"
    },
    {
      "icao": "LIPZ",
      "alert": "OK",
      "vis_m": 9999,
      "fzfg": false,
      "metar_trigger": false,
      "taf_trigger": false,
      "metar": "METAR LIPZ 120650Z 01006KT CAVOK M00/M04 Q1023 NOSIG",
      "taf": "TAF LIPZ 120500Z 1206/1312 VRB05KT CAVOK"
    },
    {
      "icao": "LIRF",
      "alert": "OK",
      "vis_m": 9999,
      "fzfg": false,
      "metar_trigger": false,
      "taf_trigger": false,
      "metar": "METAR LIRF 120650Z 07005KT CAVOK M01/M03 Q1026 NOSIG",
      "taf": "TAF LIRF 120500Z 1206/1312 05008KT CAVOK"
    },
    {
      "icao": "LIRN",
      "alert": "OK",
      "vis_m": 9999,
      "fzfg": false,
      "metar_trigger": false,
      "taf_trigger": false,
      "metar": "METAR LIRN 120650Z 32004KT CAVOK 00/M06 Q1026 NOSIG",
      "taf": "TAF LIRN 120500Z 1206/1306 VRB05KT CAVOK"
    },
    {
      "icao": "LIRP",
      "alert": "OK",
      "vis_m": 9999,
      "fzfg": false,
      "metar_trigger": false,
      "taf_trigger": false,
      "metar": "METAR LIRP 120645Z 12005KT 9999 FEW040 M00/M02 Q1024 NOSIG",
      "taf": "TAF LIRP 120500Z 1206/1306 14005KT 9999 SCT020 SCT050"
    },
    {
      "icao": "LIRZ",
      "alert": "OK",
      "vis_m": 9999,
      "fzfg": false,
      "metar_trigger": false,
      "taf_trigger": false,
      "metar": "METAR LIRZ 120650Z AUTO 04002KT 9999 NCD M05/M06 Q1025",
      "taf": "TAF LIRZ 120500Z 1206/1306 VRB05KT 9999 FEW050"
    },
    {
      "icao": "LJLJ",
      "alert": "OK",
      "vis_m": 9999,
      "fzfg": false,
      "metar_trigger": false,
      "taf_trigger": false,
      "metar": "METAR LJLJ 120700Z VRB01KT 9999 FEW003 BKN150 M14/M16 Q1022 NOSIG",
      "taf": "TAF LJLJ 120500Z 1206/1306 VRB02KT 9999 SCT001"
    },
    {
      "icao": "LKMT",
      "alert": "OK",
      "vis_m": 9999,
      "fzfg": false,
      "metar_trigger": false,
      "taf_trigger": false,
      "metar": "METAR LKMT 120700Z 22005KT CAVOK M11/M13 Q1020 NOSIG",
      "taf": "TAF LKMT 120500Z 1206/1306 23010KT CAVOK"
    },
    {
      "icao": "LKPR",
      "alert": "OK",
      "vis_m": 9999,
      "fzfg": false,
      "metar_trigger": false,
      "taf_trigger": false,
      "metar": "METAR LKPR 120700Z 20009KT CAVOK M08/M10 Q1018 NOSIG",
      "taf": "TAF LKPR 120500Z 1206/1312 21010KT CAVOK"
    },
    {
      "icao": "LLBG",
      "alert": "OK",
      "vis_m": 9999,
      "fzfg": false,
      "metar_trigger": false,
      "taf_trigger": false,
      "metar": "METAR LLBG 120720Z 19015KT CAVOK 16/08 Q1015 NOSIG",
      "taf": "TAF LLBG 120503Z 1206/1306 17010KT CAVOK"
    },
    {
      "icao": "LMML",
      "alert": "OK",
      "vis_m": 9999,
      "fzfg": false,
      "metar_trigger": false,
      "taf_trigger": false,
      "metar": "METAR LMML 120715Z 33010KT 9999 FEW030 11/02 Q1025 NOSIG",
      "taf": "TAF LMML 120500Z 1206/1306 34012KT CAVOK"
    },
    {
      "icao": "LOWW",
      "alert": "OK",
      "vis_m": 9999,
      "fzfg": false,
      "metar_trigger": false,
      "taf_trigger": false,
      "metar": "METAR LOWW 120650Z 10003KT CAVOK M11/M13 Q1021 NOSIG",
      "taf": "TAF LOWW 120515Z 1206/1312 11005KT CAVOK TXM00/1312Z TNM07/1207Z"
    },
    {
      "icao": "LPFR",
      "alert": "OK",
      "vis_m": 9999,
      "fzfg": false,
      "metar_trigger": false,
      "taf_trigger": false,
      "metar": "METAR LPFR 120700Z 05006KT 030V090 9999 FEW012 SCT025 09/08 Q1022",
      "taf": "TAF LPFR 120500Z 1206/1306 03005KT 9999 FEW012 SCT020"
    },
    {
      "icao": "LPMA",
      "alert": "OK",
      "vis_m": 9999,
      "fzfg": false,
      "metar_trigger": false,
      "taf_trigger": false,
      "metar": "METAR LPMA 120700Z 23009KT 9999 FEW015 15/12 Q1021",
      "taf": "TAF LPMA 120500Z 1206/1306 VRB05KT 9999 SCT015"
    },
    {
      "icao": "LPPR",
      "alert": "OK",
      "vis_m": 9999,
      "fzfg": false,
      "metar_trigger": false,
      "taf_trigger": false,
      "metar": "METAR LPPR 120700Z 17021KT 9999 OVC008 13/11 Q1017",
      "taf": "TAF LPPR 120500Z 1206/1306 18017KT 9999 SCT006 BKN012"
    },
    {
      "icao": "LPPS",
      "alert": "OK",
      "vis_m": 7000,
      "fzfg": false,
      "metar_trigger": false,
      "taf_trigger": false,
      "metar": "METAR LPPS 120700Z 18006KT 7000 -DZ SCT004 BKN010 15/14 Q1021",
      "taf": "TAF LPPS 120500Z 1206/1312 VRB05KT 9999 SCT012 BKN025"
    },
    {
      "icao": "LPPT",
      "alert": "OK",
      "vis_m": 8000,
      "fzfg": false,
      "metar_trigger": false,
      "taf_trigger": false,
      "metar": "METAR LPPT 120700Z 16008KT 8000 -DZ FEW000 BKN006 12/11 Q1020",
      "taf": "TAF LPPT 120500Z 1206/1312 18010KT 6000 SCT004 BKN008"
    },
    {
      "icao": "LQBK",
      "alert": "OK",
      "vis_m": 9999,
      "fzfg": false,
      "metar_trigger": false,
      "taf_trigger": false,
      "metar": "METAR LQBK 120700Z VRB02KT CAVOK M13/M14 Q1024 NOSIG",
      "taf": "TAF LQBK 120500Z 1206/1306 16007KT CAVOK TX01/1212Z TNM09/1206Z"
    },
    {
      "icao": "LQSA",
      "alert": "OK",
      "vis_m": 9999,
      "fzfg": false,
      "metar_trigger": false,
      "taf_trigger": false,
      "metar": "METAR LQSA 120700Z VRB02KT 9999 FEW006 M13/M14 Q1024 NOSIG",
      "taf": "TAF LQSA 120500Z 1206/1306 VRB02KT CAVOK TXM03/1214Z TNM12/1206Z"
    },
    {
      "icao": "LQTZ",
      "alert": "OK",
      "vis_m": 9999,
      "fzfg": false,
      "metar_trigger": false,
      "taf_trigger": false,
      "metar": "METAR LQTZ 120700Z VRB01KT CAVOK M13/M14 Q1024",
      "taf": "TAF LQTZ 120500Z 1206/1306 28005KT CAVOK TXM01/1213Z TNM10/1206Z"
    },
    {
      "icao": "LRBC",
      "alert": "OK",
      "vis_m": 9999,
      "fzfg": false,
      "metar_trigger": false,
      "taf_trigger": false,
      "metar": "METAR LRBC 120700Z 25011KT CAVOK M02/M12 Q1014",
      "taf": "TAF LRBC 120500Z 1206/1215 26007KT CAVOK"
    },
    {
      "icao": "LRBS",
      "alert": "OK",
      "vis_m": 6000,
      "fzfg": true,
      "metar_trigger": false,
      "taf_trigger": false,
      "metar": "METAR LRBS 120700Z 27007KT 250V310 6000 NSC M08/M09 Q1019 BECMG 9999 NSW",
      "taf": "TAF LRBS 120500Z 1206/1306 25008KT 0600 FZFG OVC001"
    },
    {
      "icao": "LRBV",
      "alert": "OK",
      "vis_m": 3200,
      "fzfg": false,
      "metar_trigger": false,
      "taf_trigger": false,
      "metar": "METAR LRBV 120700Z VRB01KT 3200 -SN BR BKN019 BKN027 M07/M10 Q1016",
      "taf": "TAF LRBV 120500Z 1206/1215 VRB04KT 9999 BKN025"
    },
    {
      "icao": "LRCL",
      "alert": "OK",
      "vis_m": 4500,
      "fzfg": false,
      "metar_trigger": false,
      "taf_trigger": false,
      "metar": "METAR LRCL 120700Z 07001KT 4500 -SN OVC040 M09/M10 Q1017",
      "taf": ""
    },
    {
      "icao": "LRCV",
      "alert": "OK",
      "vis_m": 9999,
      "fzfg": false,
      "metar_trigger": false,
      "taf_trigger": false,
      "metar": "METAR LRCV 120700Z 28009KT CAVOK M06/M09 Q1019",
      "taf": "TAF LRCV 120500Z 1206/1215 29008KT CAVOK"
    },
    {
      "icao": "LRIA",
      "alert": "OK",
      "vis_m": 9999,
      "fzfg": false,
      "metar_trigger": false,
      "taf_trigger": false,
      "metar": "METAR LRIA 120700Z 23004KT 180V270 CAVOK M04/M10 Q1014",
      "taf": "TAF LRIA 120500Z 1206/1215 24006KT CAVOK"
    },
    {
      "icao": "LROP",
      "alert": "OK",
      "vis_m": 4000,
      "fzfg": true,
      "metar_trigger": false,
      "taf_trigger": false,
      "metar": "METAR LROP 120700Z 28006KT 260V320 4000 BR NSC M09/M11 Q1018 BECMG 9999 NSW",
      "taf": "TAF LROP 120500Z 1206/1306 25008KT 0600 FZFG OVC001"
    },
    {
      "icao": "LRSB",
      "alert": "OK",
      "vis_m": 9999,
      "fzfg": false,
      "metar_trigger": false,
      "taf_trigger": false,
      "metar": "METAR LRSB 120700Z 07003KT 320V120 CAVOK M11/M12 Q1017",
      "taf": "TAF LRSB 120500Z 1206/1306 VRB04KT CAVOK"
    },
    {
      "icao": "LRSM",
      "alert": "OK",
      "vis_m": 5000,
      "fzfg": false,
      "metar_trigger": false,
      "taf_trigger": false,
      "metar": "METAR LRSM 120700Z 25011KT 5000 -SN BKN018 OVC030 M06/M08 Q1018",
      "taf": "TAF LRSM 120500Z 1206/1215 25012KT 5000 -SN BKN025"
    },
    {
      "icao": "LRSV",
      "alert": "OK",
      "vis_m": 9999,
      "fzfg": false,
      "metar_trigger": false,
      "taf_trigger": false,
      "metar": "METAR LRSV 120700Z COR 26009KT CAVOK M05/M12 Q1011",
      "taf": "TAF LRSV 120500Z 1206/1215 27010KT CAVOK"
    },
    {
      "icao": "LRTM",
      "alert": "OK",
      "vis_m": 7000,
      "fzfg": false,
      "metar_trigger": false,
      "taf_trigger": false,
      "metar": "METAR LRTM 120700Z VRB02KT 7000 SCT043 M11/M12 Q1018",
      "taf": "TAF LRTM 120500Z 1206/1215 VRB04KT 9999 SCT045"
    },
    {
      "icao": "LRTR",
      "alert": "OK",
      "vis_m": 9999,
      "fzfg": false,
      "metar_trigger": false,
      "taf_trigger": false,
      "metar": "METAR LRTR 120700Z 13004KT CAVOK M14/M16 Q1022",
      "taf": "TAF LRTR 120500Z 1206/1306 VRB04KT CAVOK"
    },
    {
      "icao": "LTAC",
      "alert": "OK",
      "vis_m": 8000,
      "fzfg": false,
      "metar_trigger": false,
      "taf_trigger": false,
      "metar": "METAR LTAC 120650Z 28004KT 8000 FEW015 BKN023 BKN080 01/M01 Q1007 NOSIG RMK RWY21C 22002KT RWY03L 27004KT RWY21R 00000KT RWY03R 26006KT RWY21L 23004KT",
      "taf": "TAF LTAC 120440Z 1206/1306 VRB02KT 8000 SCT030 BKN090"
    },
    {
      "icao": "LTFM",
      "alert": "OK",
      "vis_m": 4000,
      "fzfg": false,
      "metar_trigger": false,
      "taf_trigger": false,
      "metar": "METAR LTFM 120650Z 01023KT 4000 1800N -SHSN FEW006 BKN011 BKN020 01/00 Q1016 BECMG TL0750 6000 NSW RMK RWY17L 01020KT RWY34L 36022KT RWY16R 36020KT RWY36 02020KT RWY18 02018KT",
      "taf": "TAF LTFM 120440Z 1206/1312 01020G30KT 9999 -SHSN BKN011 BKN020"
    },
    {
      "icao": "LUKK",
      "alert": "OK",
      "vis_m": 9999,
      "fzfg": false,
      "metar_trigger": false,
      "taf_trigger": false,
      "metar": "METAR LUKK 120700Z 19004KT 150V250 CAVOK M07/M12 Q1014 NOSIG",
      "taf": "TAF LUKK 120518Z 1206/1306 28008KT CAVOK"
    },
    {
      "icao": "LWOH",
      "alert": "OK",
      "vis_m": 9999,
      "fzfg": false,
      "metar_trigger": false,
      "taf_trigger": false,
      "metar": "METAR LWOH 120720Z 36009KT CAVOK M06/M12 Q1019",
      "taf": "TAF LWOH 120540Z 1206/1306 34008KT 9999 FEW040"
    },
    {
      "icao": "LWSK",
      "alert": "OK",
      "vis_m": 9999,
      "fzfg": false,
      "metar_trigger": false,
      "taf_trigger": false,
      "metar": "METAR LWSK 120720Z 35005KT 9999 SCT050 M02/M09 Q1023 NOSIG",
      "taf": "TAF LWSK 120540Z 1206/1306 VRB02KT CAVOK"
    },
    {
      "icao": "LYBE",
      "alert": "OK",
      "vis_m": 9999,
      "fzfg": false,
      "metar_trigger": false,
      "taf_trigger": false,
      "metar": "METAR LYBE 120700Z 26009KT CAVOK M07/M12 Q1024 NOSIG",
      "taf": "TAF LYBE 120500Z 1206/1306 27008KT CAVOK TXM01/1212Z TNM09/1206Z"
    },
    {
      "icao": "LYNI",
      "alert": "OK",
      "vis_m": 9999,
      "fzfg": false,
      "metar_trigger": false,
      "taf_trigger": false,
      "metar": "METAR LYNI 120700Z VRB02KT 9999 FEW033 SCT050 M06/M08 Q1023 NOSIG",
      "taf": "TAF LYNI 120500Z 1206/1306 34007KT 9999 BKN050 TXM02/1212Z TNM07/1206Z"
    },
    {
      "icao": "LYPG",
      "alert": "OK",
      "vis_m": 9999,
      "fzfg": false,
      "metar_trigger": false,
      "taf_trigger": false,
      "metar": "METAR LYPG 120700Z 01012KT 340V040 CAVOK 01/M13 Q1024 NOSIG",
      "taf": "TAF LYPG 120500Z 1206/1306 36015G25KT CAVOK TX06/1213Z TNM04/1301Z"
    },
    {
      "icao": "LZIB",
      "alert": "OK",
      "vis_m": 9999,
      "fzfg": false,
      "metar_trigger": false,
      "taf_trigger": false,
      "metar": "METAR LZIB 120700Z VRB03KT CAVOK M08/M13 Q1021 NOSIG",
      "taf": "TAF LZIB 120515Z 1206/1306 31010KT CAVOK"
    },
    {
      "icao": "LZKZ",
      "alert": "OK",
      "vis_m": 9999,
      "fzfg": false,
      "metar_trigger": false,
      "taf_trigger": false,
      "metar": "METAR LZKZ 120700Z 16003KT CAVOK M09/M10 Q1017 NOSIG",
      "taf": "TAF LZKZ 120515Z 1206/1306 VRB02KT 9999 SCT025"
    },
    {
      "icao": "LZTT",
      "alert": "OK",
      "vis_m": 9999,
      "fzfg": false,
      "metar_trigger": false,
      "taf_trigger": false,
      "metar": "METAR LZTT 120700Z 27016KT 9999 -SN DRSN FEW016 SCT060 M08/M11 Q1013 NOSIG",
      "taf": "TAF LZTT 120515Z 1206/1306 28017KT 5000 -SN DRSN SCT013 BKN030"
    },
    {
      "icao": "OEJN",
      "alert": "OK",
      "vis_m": 8000,
      "fzfg": false,
      "metar_trigger": false,
      "taf_trigger": false,
      "metar": "METAR OEJN 120700Z 16004KT 8000 NSC 28/16 Q1016 NOSIG",
      "taf": "TAF OEJN 120500Z 1206/1312 26008KT 7000 NSC"
    },
    {
      "icao": "OEMA",
      "alert": "OK",
      "vis_m": 9000,
      "fzfg": false,
      "metar_trigger": false,
      "taf_trigger": false,
      "metar": "METAR OEMA 120700Z 05005KT 9000 NSC 20/M01 Q1021 NOSIG",
      "taf": "TAF OEMA 120500Z 1206/1312 26012KT 7000 NSC"
    },
    {
      "icao": "OJAI",
      "alert": "OK",
      "vis_m": 5000,
      "fzfg": false,
      "metar_trigger": false,
      "taf_trigger": false,
      "metar": "METAR OJAI 120700Z 17003KT 5000 HZ NSC 07/03 Q1017 NOSIG",
      "taf": "TAF OJAI 120500Z 1206/1312 24014KT 5000 HZ NSC"
    },
    {
      "icao": "OMAA",
      "alert": "OK",
      "vis_m": 9999,
      "fzfg": false,
      "metar_trigger": false,
      "taf_trigger": false,
      "metar": "METAR OMAA 120700Z VRB02KT CAVOK 23/13 Q1022 NOSIG",
      "taf": "TAF OMAA 120500Z 1206/1312 VRB02KT 8000 NSC"
    },
    {
      "icao": "OMDB",
      "alert": "OK",
      "vis_m": 9999,
      "fzfg": false,
      "metar_trigger": false,
      "taf_trigger": false,
      "metar": "METAR OMDB 120700Z 11005KT 070V140 CAVOK 23/12 Q1022 NOSIG",
      "taf": "TAF OMDB 120500Z 1206/1312 18005KT 8000 NSC"
    },
    {
      "icao": "UAAA",
      "alert": "OK",
      "vis_m": 5000,
      "fzfg": false,
      "metar_trigger": false,
      "taf_trigger": false,
      "metar": "METAR UAAA 120700Z 25002MPS 200V290 5000 FU SCT050 BKN100 06/M02 Q1023 NOSIG",
      "taf": "TAF UAAA 120503Z 1206/1306 34003MPS 3100 BR FU SCT050CB BKN100 TX08/1209Z TNM03/1301Z"
    },
    {
      "icao": "UBBB",
      "alert": "OK",
      "vis_m": 9999,
      "fzfg": false,
      "metar_trigger": false,
      "taf_trigger": false,
      "metar": "METAR UBBB 120700Z 19020KT CAVOK 13/02 Q1009 NOSIG",
      "taf": "TAF UBBB 120500Z 1206/1306 18018G28KT CAVOK TX14/1209Z TN07/1302Z"
    },
    {
      "icao": "UDSG",
      "alert": "OK",
      "vis_m": 9999,
      "fzfg": false,
      "metar_trigger": false,
      "taf_trigger": false,
      "metar": "METAR UDSG 120700Z 24005KT 9999 SCT043 M01/M05 Q1016 NOSIG",
      "taf": "TAF UDSG 120458Z 1206/1306 VRB04KT 9999 SCT050"
    },
    {
      "icao": "UDYZ",
      "alert": "OK",
      "vis_m": 2400,
      "fzfg": false,
      "metar_trigger": false,
      "taf_trigger": false,
      "metar": "METAR UDYZ 120700Z VRB02KT 2400 BR FEW046 00/M03 Q1017 NOSIG",
      "taf": "TAF UDYZ 120500Z 1206/1306 VRB04KT 1500 BR FEW040"
    },
    {
      "icao": "UGKO",
      "alert": "OK",
      "vis_m": 9999,
      "fzfg": false,
      "metar_trigger": false,
      "taf_trigger": false,
      "metar": "METAR UGKO 120700Z 07022KT CAVOK 15/M01 Q1006 NOSIG",
      "taf": "TAF UGKO 120500Z 1206/1306 08007KT CAVOK TX15/1212Z TN05/1302Z"
    }
  ]
}