{
  "ts_utc": "2026-01-08T06:29:57Z",
  "threshold_m": 150,
  "source": "stations_override.txt (ICAO list) + aviationweather.gov (METAR/TAF raw)",
  "station_count": 159,
  "stations": [
    {
      "icao": "BIKF",
      "alert": "OK",
      "vis_m": 9999,
      "fzfg": false,
      "metar_trigger": false,
      "taf_trigger": false,
      "metar": "METAR BIKF 080600Z 07017KT CAVOK 01/M07 Q0999",
      "taf": "TAF BIKF 080412Z 0806/0906 07015KT 9999 FEW045 TX02/0815Z TNM03/0906Z"
    },
    {
      "icao": "BKPR",
      "alert": "OK",
      "vis_m": 9999,
      "fzfg": false,
      "metar_trigger": false,
      "taf_trigger": false,
      "metar": "METAR BKPR 080600Z 35010KT 9999 -SN SCT010 OVC025 M04/M05 Q1004 TEMPO 1500 SN",
      "taf": "TAF BKPR 080530Z 0806/0906 34010KT 9999 SCT020 BKN040"
    },
    {
      "icao": "EBCI",
      "alert": "OK",
      "vis_m": 1800,
      "fzfg": false,
      "metar_trigger": false,
      "taf_trigger": false,
      "metar": "METAR EBCI 080620Z 20008KT 1800 BR SCT002 BKN003 01/01 Q1006 TEMPO 0500 -FZDZRA FG BKN001",
      "taf": "TAF EBCI 080500Z 0806/0912 19005KT 2500 BR SCT002 BKN003"
    },
    {
      "icao": "EDDB",
      "alert": "OK",
      "vis_m": 9999,
      "fzfg": false,
      "metar_trigger": false,
      "taf_trigger": false,
      "metar": "METAR EDDB 080620Z AUTO 12005KT 100V230 CAVOK M11/M13 Q1010 NOSIG",
      "taf": "TAF EDDB 080500Z 0806/0906 12007KT 9000 BKN035"
    },
    {
      "icao": "EDDH",
      "alert": "OK",
      "vis_m": 1000,
      "fzfg": false,
      "metar_trigger": false,
      "taf_trigger": false,
      "metar": "METAR EDDH 080620Z AUTO 14009KT 1000 0700 R23/1900D R15/1800D +SHSN BCFG SCT004 BKN007 BKN020 FEW///CB M03/M03 Q1005 TEMPO 1200 OVC004",
      "taf": "TAF EDDH 080500Z 0806/0912 13008KT 9999 OVC009"
    },
    {
      "icao": "EDDK",
      "alert": "OK",
      "vis_m": 9999,
      "fzfg": false,
      "metar_trigger": false,
      "taf_trigger": false,
      "metar": "METAR EDDK 080620Z AUTO 17006KT 150V220 9999 SCT030 OVC044 01/M02 Q1007 NOSIG",
      "taf": "TAF EDDK 080500Z 0806/0912 19008KT 9999 OVC040"
    },
    {
      "icao": "EDDN",
      "alert": "OK",
      "vis_m": 6000,
      "fzfg": false,
      "metar_trigger": false,
      "taf_trigger": false,
      "metar": "METAR EDDN 080620Z AUTO 11006KT 6000 OVC015 M04/M05 Q1010 TEMPO 4000 -SN OVC013",
      "taf": "TAF EDDN 080500Z 0806/0906 15005KT 9999 BKN015"
    },
    {
      "icao": "EDDS",
      "alert": "OK",
      "vis_m": 9999,
      "fzfg": false,
      "metar_trigger": false,
      "taf_trigger": false,
      "metar": "METAR EDDS 080620Z AUTO 23004KT 170V330 CAVOK M01/M04 Q1009 NOSIG",
      "taf": "TAF EDDS 080500Z 0806/0906 22004KT 9999 BKN020"
    },
    {
      "icao": "EDFH",
      "alert": "OK",
      "vis_m": 2000,
      "fzfg": false,
      "metar_trigger": false,
      "taf_trigger": false,
      "metar": "METAR EDFH 080620Z 22007KT 2000 BR OVC001 M02/M02 Q1006",
      "taf": "TAF EDFH 080500Z 0806/0906 24010KT 6000 OVC004"
    },
    {
      "icao": "EDJA",
      "alert": "OK",
      "vis_m": 9999,
      "fzfg": false,
      "metar_trigger": false,
      "taf_trigger": false,
      "metar": "METAR EDJA 080620Z 22008KT 9999 FEW050 OVC062 M03/M06 Q1010",
      "taf": "TAF EDJA 080500Z 0806/0815 22010KT 9999 FEW006 BKN020"
    },
    {
      "icao": "EDLW",
      "alert": "OK",
      "vis_m": 9999,
      "fzfg": false,
      "metar_trigger": false,
      "taf_trigger": false,
      "metar": "METAR EDLW 080620Z 20014KT 9999 BKN044 01/M01 Q1005",
      "taf": "TAF EDLW 080500Z 0806/0906 19011KT 9999 FEW015 OVC040"
    },
    {
      "icao": "EDNY",
      "alert": "OK",
      "vis_m": 9999,
      "fzfg": false,
      "metar_trigger": false,
      "taf_trigger": false,
      "metar": "METAR EDNY 080550Z 13005KT 090V160 9999 SCT048 M03/M06 Q1012",
      "taf": "TAF EDNY 080500Z 0806/0815 18005KT 9999 FEW012 BKN040"
    },
    {
      "icao": "EDSB",
      "alert": "OK",
      "vis_m": 9999,
      "fzfg": false,
      "metar_trigger": false,
      "taf_trigger": false,
      "metar": "METAR EDSB 080620Z 20010KT 9999 BKN028 BKN059 01/M02 Q1010",
      "taf": "TAF EDSB 080500Z 0806/0906 20010KT 9999 BKN025"
    },
    {
      "icao": "EETN",
      "alert": "OK",
      "vis_m": 9999,
      "fzfg": false,
      "metar_trigger": false,
      "taf_trigger": false,
      "metar": "METAR EETN 080620Z VRB02KT 9999 OVC028 M07/M08 Q1019 NOSIG",
      "taf": "TAF EETN 080530Z 0806/0906 VRB02KT 9999 OVC025"
    },
    {
      "icao": "EFTU",
      "alert": "OK",
      "vis_m": 9999,
      "fzfg": false,
      "metar_trigger": false,
      "taf_trigger": false,
      "metar": "METAR EFTU 080620Z AUTO 11009KT 9999 OVC024 M08/M11 Q1018",
      "taf": "TAF EFTU 080528Z 0806/0906 10008KT 9999 OVC025"
    },
    {
      "icao": "EGBB",
      "alert": "OK",
      "vis_m": 750,
      "fzfg": false,
      "metar_trigger": false,
      "taf_trigger": false,
      "metar": "METAR EGBB 080620Z 15003KT 0750 R33/P1500N FG BKN002 OVC006 02/01 Q1004",
      "taf": ""
    },
    {
      "icao": "EGGP",
      "alert": "OK",
      "vis_m": 8000,
      "fzfg": false,
      "metar_trigger": false,
      "taf_trigger": false,
      "metar": "METAR EGGP 080620Z 15003KT 110V190 8000 SCT003 OVC011 02/01 Q1003",
      "taf": "TAF EGGP 080500Z 0806/0906 17003KT 9999 SCT020"
    },
    {
      "icao": "EGGW",
      "alert": "OK",
      "vis_m": 2800,
      "fzfg": false,
      "metar_trigger": false,
      "taf_trigger": false,
      "metar": "METAR EGGW 080620Z AUTO 19002KT 2800 BR SCT003 BKN007 BKN010 01/01 Q1004",
      "taf": "TAF EGGW 080456Z 0806/0906 24004KT 9999 SCT030"
    },
    {
      "icao": "EGKK",
      "alert": "OK",
      "vis_m": 9999,
      "fzfg": false,
      "metar_trigger": false,
      "taf_trigger": false,
      "metar": "METAR EGKK 080620Z 14001KT 9999 BKN007 03/03 Q1005",
      "taf": "TAF EGKK 080452Z 0806/0912 20004KT 9999 BKN015"
    },
    {
      "icao": "EGNM",
      "alert": "OK",
      "vis_m": 9999,
      "fzfg": false,
      "metar_trigger": false,
      "taf_trigger": false,
      "metar": "METAR EGNM 080620Z 27008KT CAVOK M00/M02 Q1002",
      "taf": "TAF EGNM 080503Z 0806/0906 28003KT 9999 FEW015"
    },
    {
      "icao": "EGPD",
      "alert": "OK",
      "vis_m": 2300,
      "fzfg": true,
      "metar_trigger": false,
      "taf_trigger": false,
      "metar": "METAR EGPD 080620Z AUTO 21004KT 2300 R16/1200U BR VV/// M01/M02 Q1001",
      "taf": "TAF EGPD 080453Z 0806/0906 17005KT 0200 FZFG VV///"
    },
    {
      "icao": "EGPF",
      "alert": "OK",
      "vis_m": 9999,
      "fzfg": false,
      "metar_trigger": false,
      "taf_trigger": false,
      "metar": "METAR EGPF 080620Z AUTO 06004KT 9999 OVC027 M02/M02 Q1002",
      "taf": "TAF EGPF 080455Z 0806/0906 VRB04KT 9999 SCT025"
    },
    {
      "icao": "EHBK",
      "alert": "OK",
      "vis_m": 9999,
      "fzfg": false,
      "metar_trigger": false,
      "taf_trigger": false,
      "metar": "METAR EHBK 080625Z AUTO 20012KT 9999 NSC M00/M01 Q1006 NOSIG",
      "taf": "TAF EHBK 080520Z 0806/0912 20008KT CAVOK"
    },
    {
      "icao": "EHEH",
      "alert": "OK",
      "vis_m": 9999,
      "fzfg": false,
      "metar_trigger": false,
      "taf_trigger": false,
      "metar": "METAR EHEH 080555Z AUTO 21009KT 9999 OVC029 01/M01 Q1006 BLU NOSIG RMK TREND REMOTE BY EHWX",
      "taf": "TAF EHEH 080550Z 0806/0912 21010KT 9999 BKN030"
    },
    {
      "icao": "EKBI",
      "alert": "OK",
      "vis_m": 8000,
      "fzfg": false,
      "metar_trigger": false,
      "taf_trigger": false,
      "metar": "METAR EKBI 080620Z AUTO 13005KT 8000 SCT007/// OVC021/// M02/M03 Q1004",
      "taf": "TAF EKBI 080527Z 0806/0906 13008KT 9999 SCT008 BKN010"
    },
    {
      "icao": "EKCH",
      "alert": "OK",
      "vis_m": 9999,
      "fzfg": false,
      "metar_trigger": false,
      "taf_trigger": false,
      "metar": "METAR EKCH 080618Z 17013KT 9999 BKN014 M01/M04 Q1008 TEMPO BKN015",
      "taf": "TAF EKCH 080527Z 0806/0906 16015KT 9999 BKN016"
    },
    {
      "icao": "ENAL",
      "alert": "OK",
      "vis_m": 9999,
      "fzfg": false,
      "metar_trigger": false,
      "taf_trigger": false,
      "metar": "METAR ENAL 080620Z 18005KT CAVOK M06/M10 Q1004",
      "taf": "TAF ENAL 080500Z 0806/0815 16008KT 9999 FEW030"
    },
    {
      "icao": "ENBR",
      "alert": "OK",
      "vis_m": 9999,
      "fzfg": false,
      "metar_trigger": false,
      "taf_trigger": false,
      "metar": "METAR ENBR 080620Z 13003KT CAVOK M12/M15 Q1004 NOSIG RMK WIND 1200FT 02005KT",
      "taf": "TAF ENBR 080500Z 0806/0906 07005KT CAVOK"
    },
    {
      "icao": "ENGM",
      "alert": "OK",
      "vis_m": 9999,
      "fzfg": false,
      "metar_trigger": false,
      "taf_trigger": false,
      "metar": "METAR ENGM 080620Z 23003KT 9999 BKN022 M08/M10 Q1000 NOSIG",
      "taf": "TAF ENGM 080500Z 0806/0906 27003KT 9999 BKN018"
    },
    {
      "icao": "ENHD",
      "alert": "OK",
      "vis_m": 9999,
      "fzfg": false,
      "metar_trigger": false,
      "taf_trigger": false,
      "metar": "METAR ENHD 080620Z 08005KT CAVOK M09/M13 Q1004",
      "taf": "TAF ENHD 080500Z 0806/0815 10008KT CAVOK"
    },
    {
      "icao": "ENTC",
      "alert": "OK",
      "vis_m": 9999,
      "fzfg": false,
      "metar_trigger": false,
      "taf_trigger": false,
      "metar": "METAR ENTC 080620Z 12002KT CAVOK M11/M16 Q1022 NOSIG RMK WIND 2600FT 17024KT",
      "taf": ""
    },
    {
      "icao": "ENTO",
      "alert": "OK",
      "vis_m": 9999,
      "fzfg": false,
      "metar_trigger": false,
      "taf_trigger": false,
      "metar": "METAR ENTO 080620Z 27005KT CAVOK M10/M12 Q1003 NOSIG",
      "taf": "TAF ENTO 080500Z 0806/0906 27003KT CAVOK"
    },
    {
      "icao": "ENVA",
      "alert": "OK",
      "vis_m": 9999,
      "fzfg": false,
      "metar_trigger": false,
      "taf_trigger": false,
      "metar": "METAR ENVA 080620Z 07013KT CAVOK M06/M12 Q1006 NOSIG RMK WIND 670FT 07010KT",
      "taf": "TAF ENVA 080500Z 0806/0906 07012KT 9999 -SN SCT050"
    },
    {
      "icao": "ENZV",
      "alert": "OK",
      "vis_m": 9999,
      "fzfg": false,
      "metar_trigger": false,
      "taf_trigger": false,
      "metar": "METAR ENZV 080620Z 00000KT CAVOK M13/M14 Q1004 NOSIG",
      "taf": "TAF ENZV 080500Z 0806/0906 13005KT CAVOK"
    },
    {
      "icao": "EPGD",
      "alert": "OK",
      "vis_m": 450,
      "fzfg": true,
      "metar_trigger": false,
      "taf_trigger": false,
      "metar": "METAR EPGD 080600Z 14002KT 0450 R29/0600D FZFG BKN002 M11/M13 Q1013",
      "taf": "TAF EPGD 080530Z 0806/0906 VRB02KT 1500 BR OVC002"
    },
    {
      "icao": "EPKK",
      "alert": "OK",
      "vis_m": 2500,
      "fzfg": false,
      "metar_trigger": false,
      "taf_trigger": false,
      "metar": "METAR EPKK 080600Z 25004KT 2500 -SN BR BKN020 M07/M08 Q1009 RESN",
      "taf": "TAF EPKK 080530Z 0806/0906 VRB02KT 3500 -SN BR FEW008 BKN020"
    },
    {
      "icao": "EPKT",
      "alert": "OK",
      "vis_m": 2800,
      "fzfg": false,
      "metar_trigger": false,
      "taf_trigger": false,
      "metar": "METAR EPKT 080600Z 35004KT 2800 -SN BR FEW002 OVC005 M08/M09 Q1009",
      "taf": "TAF EPKT 080530Z 0806/0906 34005KT 5000 -SN BR SCT004 BKN009"
    },
    {
      "icao": "EPLB",
      "alert": "OK",
      "vis_m": 2500,
      "fzfg": false,
      "metar_trigger": false,
      "taf_trigger": false,
      "metar": "METAR EPLB 080600Z 03006KT 2500 -SN BR BKN018 OVC022 M05/M06 Q1008",
      "taf": "TAF EPLB 080530Z 0806/0906 01010KT 4000 -SN BR SCT005 OVC015"
    },
    {
      "icao": "EPMO",
      "alert": "OK",
      "vis_m": 3500,
      "fzfg": false,
      "metar_trigger": false,
      "taf_trigger": false,
      "metar": "METAR EPMO 080600Z 32004KT 3500 BR OVC004 M11/M12 Q1012",
      "taf": "TAF EPMO 080530Z 0806/0906 VRB02KT 3500 BR SCT005 BKN015"
    },
    {
      "icao": "EPPO",
      "alert": "OK",
      "vis_m": 6000,
      "fzfg": false,
      "metar_trigger": false,
      "taf_trigger": false,
      "metar": "METAR EPPO 080600Z 08005KT 6000 OVC007 M07/M09 Q1012",
      "taf": "TAF EPPO 080530Z 0806/0906 14004KT 6000 OVC008"
    },
    {
      "icao": "EPRA",
      "alert": "OK",
      "vis_m": 2800,
      "fzfg": false,
      "metar_trigger": false,
      "taf_trigger": false,
      "metar": "METAR EPRA 080600Z 35007KT 2800 -SN BR FEW010 BKN020 M09/M11 Q1009 RESN",
      "taf": "TAF EPRA 080530Z 0806/0815 35008KT 4000 -SN BR OVC020"
    },
    {
      "icao": "EPRZ",
      "alert": "OK",
      "vis_m": 1000,
      "fzfg": false,
      "metar_trigger": false,
      "taf_trigger": false,
      "metar": "METAR EPRZ 080600Z 34008KT 1000 R27/P2000N -SN BR FEW008 OVC015 M05/M06 Q1006",
      "taf": "TAF EPRZ 080530Z 0806/0906 35008KT 4000 -SN BR FEW009 OVC020"
    },
    {
      "icao": "EPSC",
      "alert": "OK",
      "vis_m": 4500,
      "fzfg": false,
      "metar_trigger": false,
      "taf_trigger": false,
      "metar": "METAR EPSC 080600Z 13011KT 4500 BR SCT004 M10/M11 Q1011",
      "taf": "TAF EPSC 080530Z 0806/0906 13008KT 5000 BR SCT007"
    },
    {
      "icao": "EPSY",
      "alert": "OK",
      "vis_m": 4900,
      "fzfg": false,
      "metar_trigger": false,
      "taf_trigger": false,
      "metar": "METAR EPSY 080600Z 01004KT 4900 BR NSC M12/M13 Q1012",
      "taf": "TAF EPSY 080530Z 0806/0815 VRB02KT 5000 BR NSC"
    },
    {
      "icao": "EPWA",
      "alert": "OK",
      "vis_m": 4800,
      "fzfg": false,
      "metar_trigger": false,
      "taf_trigger": false,
      "metar": "METAR EPWA 080600Z 32006KT 280V340 4800 BR SCT006 BKN026 M09/M10 Q1011 TEMPO BKN006",
      "taf": "TAF EPWA 080530Z 0806/0906 34006KT 4500 BR SCT005 BKN015"
    },
    {
      "icao": "EPWR",
      "alert": "OK",
      "vis_m": 4000,
      "fzfg": false,
      "metar_trigger": false,
      "taf_trigger": false,
      "metar": "METAR EPWR 080600Z VRB01KT 4000 BR BKN015 M11/M12 Q1012",
      "taf": ""
    },
    {
      "icao": "ESGG",
      "alert": "OK",
      "vis_m": 5000,
      "fzfg": false,
      "metar_trigger": false,
      "taf_trigger": false,
      "metar": "METAR ESGG 080620Z 16012KT 5000 -SN BKN006 M03/M04 Q1005",
      "taf": "TAF ESGG 080530Z 0806/0906 16012KT 7000 -SN SCT010 BKN015"
    },
    {
      "icao": "ESKN",
      "alert": "OK",
      "vis_m": 9999,
      "fzfg": false,
      "metar_trigger": false,
      "taf_trigger": false,
      "metar": "METAR ESKN 080620Z 16012KT 9999 BKN027 M01/M04 Q1010",
      "taf": "TAF ESKN 080530Z 0806/0906 18012KT 9999 OVC035"
    },
    {
      "icao": "ESMS",
      "alert": "OK",
      "vis_m": 9000,
      "fzfg": false,
      "metar_trigger": false,
      "taf_trigger": false,
      "metar": "METAR ESMS 080620Z 15009KT 9000 FEW018 M04/M07 Q1008",
      "taf": "TAF ESMS 080527Z 0806/0906 16010KT 9999 SCT015"
    },
    {
      "icao": "ESSA",
      "alert": "OK",
      "vis_m": 9999,
      "fzfg": false,
      "metar_trigger": false,
      "taf_trigger": false,
      "metar": "METAR ESSA 080620Z 15012KT 9999 BKN027 OVC036 M01/M03 Q1011 NOSIG",
      "taf": "TAF ESSA 080530Z 0806/0906 15012KT 9999 BKN025"
    },
    {
      "icao": "EYKA",
      "alert": "OK",
      "vis_m": 7000,
      "fzfg": false,
      "metar_trigger": false,
      "taf_trigger": false,
      "metar": "METAR EYKA 080620Z VRB01KT 7000 OVC003 M12/M13 Q1016",
      "taf": "TAF EYKA 080506Z 0806/0906 VRB05KT 5000 BR OVC005"
    },
    {
      "icao": "EYPA",
      "alert": "OK",
      "vis_m": 9999,
      "fzfg": false,
      "metar_trigger": false,
      "taf_trigger": false,
      "metar": "METAR EYPA 080620Z VRB02KT CAVOK M12/M14 Q1016",
      "taf": "TAF EYPA 080506Z 0806/0906 VRB04KT 6000 NSC"
    },
    {
      "icao": "EYVI",
      "alert": "OK",
      "vis_m": 9999,
      "fzfg": false,
      "metar_trigger": false,
      "taf_trigger": false,
      "metar": "METAR EYVI 080620Z 05009KT 9999 OVC007 M07/M09 Q1013 NOSIG",
      "taf": "TAF EYVI 080515Z 0806/0906 06010KT 5000 BR OVC005"
    },
    {
      "icao": "GCFV",
      "alert": "OK",
      "vis_m": 9999,
      "fzfg": false,
      "metar_trigger": false,
      "taf_trigger": false,
      "metar": "METAR GCFV 080600Z 03017KT 9999 BKN032 17/10 Q1029",
      "taf": "TAF GCFV 080200Z 0803/0903 05018KT 9999 SCT035 TX20/0814Z TN14/0806Z"
    },
    {
      "icao": "GCLP",
      "alert": "OK",
      "vis_m": 9999,
      "fzfg": false,
      "metar_trigger": false,
      "taf_trigger": false,
      "metar": "METAR GCLP 080600Z 04016KT 9999 SCT035 17/09 Q1029 NOSIG",
      "taf": "TAF GCLP 080200Z 0803/0903 04016KT 9999 BKN035 TX20/0814Z TN14/0806Z"
    },
    {
      "icao": "GCTS",
      "alert": "OK",
      "vis_m": 9999,
      "fzfg": false,
      "metar_trigger": false,
      "taf_trigger": false,
      "metar": "METAR GCTS 080600Z 07017KT 9999 FEW040 16/09 Q1029 NOSIG",
      "taf": "TAF GCTS 080200Z 0803/0903 05020KT 9999 SCT040 TX23/0814Z TN16/0806Z"
    },
    {
      "icao": "GMAD",
      "alert": "OK",
      "vis_m": 9999,
      "fzfg": false,
      "metar_trigger": false,
      "taf_trigger": false,
      "metar": "METAR GMAD 080600Z 09008KT CAVOK 07/05 Q1028 NOSIG",
      "taf": "TAF GMAD 080500Z 0806/0912 07006KT CAVOK"
    },
    {
      "icao": "GMMN",
      "alert": "OK",
      "vis_m": 9999,
      "fzfg": false,
      "metar_trigger": false,
      "taf_trigger": false,
      "metar": "METAR GMMN 080600Z 14003KT CAVOK 03/02 Q1032 NOSIG",
      "taf": "TAF GMMN 080500Z 0806/0912 12004KT CAVOK"
    },
    {
      "icao": "GMMX",
      "alert": "OK",
      "vis_m": 9999,
      "fzfg": false,
      "metar_trigger": false,
      "taf_trigger": false,
      "metar": "METAR GMMX 080600Z 09006KT CAVOK 03/01 Q1030 NOSIG",
      "taf": "TAF GMMX 080500Z 0806/0912 24004KT 8000 NSC"
    },
    {
      "icao": "HEGN",
      "alert": "OK",
      "vis_m": 9999,
      "fzfg": false,
      "metar_trigger": false,
      "taf_trigger": false,
      "metar": "METAR HEGN 080600Z 27004KT CAVOK 18/06 Q1020 NOSIG",
      "taf": "TAF HEGN 080500Z 0806/0912 33013KT CAVOK"
    },
    {
      "icao": "HEMA",
      "alert": "OK",
      "vis_m": 4000,
      "fzfg": false,
      "metar_trigger": false,
      "taf_trigger": false,
      "metar": "METAR HEMA 080600Z 27008KT 4000 HZ NSC 23/10 Q1019 NOSIG",
      "taf": "TAF HEMA 080500Z 0806/0912 33015KT 6000 NSC"
    },
    {
      "icao": "HESH",
      "alert": "OK",
      "vis_m": 9999,
      "fzfg": false,
      "metar_trigger": false,
      "taf_trigger": false,
      "metar": "METAR HESH 080600Z 34010KT CAVOK 22/08 Q1020 NOSIG",
      "taf": "TAF HESH 080500Z 0806/0912 35011KT CAVOK"
    },
    {
      "icao": "HESX",
      "alert": "OK",
      "vis_m": 3000,
      "fzfg": false,
      "metar_trigger": false,
      "taf_trigger": false,
      "metar": "METAR HESX 080600Z 17006KT 3000 HZ NSC 15/05 Q1019 NOSIG",
      "taf": "TAF HESX 080500Z 0806/0912 21010KT 9999 SCT025"
    },
    {
      "icao": "LATI",
      "alert": "OK",
      "vis_m": 9999,
      "fzfg": false,
      "metar_trigger": false,
      "taf_trigger": false,
      "metar": "METAR LATI 080620Z 15005KT 100V200 9999 RA FEW007 SCT017 BKN030 05/04 Q1005 NOSIG",
      "taf": "TAF LATI 080500Z 0806/0906 30007KT 9999 -RA FEW025TCU SCT035 BKN070 TX08/0812Z TN00/0905Z"
    },
    {
      "icao": "LBPD",
      "alert": "OK",
      "vis_m": 9999,
      "fzfg": false,
      "metar_trigger": false,
      "taf_trigger": false,
      "metar": "METAR LBPD 080600Z AUTO 28017KT 9999 SCT041/// BKN069/// OVC082/// 09/05 Q0997 TEMPO 5000 RA SCT005 OVC020",
      "taf": "TAF LBPD 080500Z 0806/0906 29020G35KT 9999 BKN040"
    },
    {
      "icao": "LBSF",
      "alert": "OK",
      "vis_m": 4000,
      "fzfg": false,
      "metar_trigger": false,
      "taf_trigger": false,
      "metar": "METAR LBSF 080600Z 29013KT 260V320 4000 -SN BR FEW016 SCT027 OVC035 M03/M06 Q1002 TEMPO 1500 SN",
      "taf": "TAF LBSF 080500Z 0806/0906 28014G30KT 5000 -SN SCT012 OVC025"
    },
    {
      "icao": "LBWN",
      "alert": "OK",
      "vis_m": 9999,
      "fzfg": false,
      "metar_trigger": false,
      "taf_trigger": false,
      "metar": "METAR LBWN 080600Z 29009KT 230V330 9999 FEW010 SCT025 BKN040 10/10 Q0996 NOSIG",
      "taf": "TAF LBWN 080500Z 0806/0906 28018G28KT 9999 OVC035"
    },
    {
      "icao": "LCLK",
      "alert": "OK",
      "vis_m": 9999,
      "fzfg": false,
      "metar_trigger": false,
      "taf_trigger": false,
      "metar": "METAR LCLK 080600Z 32004KT CAVOK 14/13 Q1019 NOSIG",
      "taf": "TAF LCLK 080530Z 0806/0906 10006KT 9999 FEW025"
    },
    {
      "icao": "LCPH",
      "alert": "OK",
      "vis_m": 9999,
      "fzfg": false,
      "metar_trigger": false,
      "taf_trigger": false,
      "metar": "METAR LCPH 080600Z 09006KT CAVOK 14/02 Q1018 NOSIG",
      "taf": "TAF LCPH 080530Z 0806/0906 07007KT 9999 FEW025"
    },
    {
      "icao": "LEAL",
      "alert": "OK",
      "vis_m": 9999,
      "fzfg": false,
      "metar_trigger": false,
      "taf_trigger": false,
      "metar": "METAR LEAL 080600Z 30017KT 260V340 CAVOK 11/02 Q1026 NOSIG",
      "taf": "TAF LEAL 080500Z 0806/0906 31020KT CAVOK TX16/0814Z TN07/0806Z"
    },
    {
      "icao": "LEBB",
      "alert": "OK",
      "vis_m": 9999,
      "fzfg": false,
      "metar_trigger": false,
      "taf_trigger": false,
      "metar": "METAR LEBB 080600Z VRB02KT 9999 SCT036 BKN050 11/06 Q1023 NOSIG",
      "taf": "TAF LEBB 080500Z 0806/0906 22009KT 9999 FEW030 SCT050 TX14/0814Z TN07/0906Z"
    },
    {
      "icao": "LEBL",
      "alert": "OK",
      "vis_m": 9999,
      "fzfg": false,
      "metar_trigger": false,
      "taf_trigger": false,
      "metar": "METAR LEBL 080600Z 32006KT 9999 FEW012 05/02 Q1021 NOSIG",
      "taf": "TAF LEBL 080500Z 0806/0906 33009KT 9999 FEW015 TX15/0813Z TN04/0806Z"
    },
    {
      "icao": "LECH",
      "alert": "OK",
      "vis_m": 9999,
      "fzfg": false,
      "metar_trigger": false,
      "taf_trigger": false,
      "metar": "METAR LECH 080600Z AUTO 28008KT 240V330 CAVOK 13/02 Q1023",
      "taf": ""
    },
    {
      "icao": "LEMD",
      "alert": "OK",
      "vis_m": 3000,
      "fzfg": false,
      "metar_trigger": false,
      "taf_trigger": false,
      "metar": "METAR LEMD 080600Z VRB02KT 3000 1200E BR BCFG SCT002 OVC005 00/00 Q1028 NOSIG",
      "taf": "TAF LEMD 080500Z 0806/0912 VRB03KT 4000 BR BKN004 TX10/0912Z TNM00/0806Z"
    },
    {
      "icao": "LEMG",
      "alert": "OK",
      "vis_m": 9999,
      "fzfg": false,
      "metar_trigger": false,
      "taf_trigger": false,
      "metar": "METAR LEMG 080600Z 27008KT 9999 FEW028 08/04 Q1030 NOSIG",
      "taf": "TAF LEMG 080500Z 0806/0906 29012KT 9999 FEW035 TX16/0814Z TN06/0806Z"
    },
    {
      "icao": "LEVC",
      "alert": "OK",
      "vis_m": 9999,
      "fzfg": false,
      "metar_trigger": false,
      "taf_trigger": false,
      "metar": "METAR LEVC 080600Z 25012KT CAVOK 08/02 Q1026 NOSIG",
      "taf": "TAF LEVC 080500Z 0806/0906 25012KT CAVOK TX15/0814Z TN06/0806Z"
    },
    {
      "icao": "LEXJ",
      "alert": "OK",
      "vis_m": 9999,
      "fzfg": false,
      "metar_trigger": false,
      "taf_trigger": false,
      "metar": "METAR LEXJ 080600Z 23010KT 200V260 9999 SCT052 11/05 Q1023",
      "taf": "TAF LEXJ 080200Z 0803/0903 24009KT 9999 SCT030 BKN060 TX15/0813Z TN08/0806Z"
    },
    {
      "icao": "LEZG",
      "alert": "OK",
      "vis_m": 9999,
      "fzfg": false,
      "metar_trigger": false,
      "taf_trigger": false,
      "metar": "METAR LEZG 080600Z 25012KT 9999 SCT075 08/03 Q1024 NOSIG",
      "taf": "TAF LEZG 080500Z 0806/0906 VRB04KT CAVOK TX12/0815Z TN05/0806Z"
    },
    {
      "icao": "LEZL",
      "alert": "OK",
      "vis_m": 9999,
      "fzfg": false,
      "metar_trigger": false,
      "taf_trigger": false,
      "metar": "METAR LEZL 080600Z 04006KT 9999 OVC025 08/08 Q1031 NOSIG",
      "taf": "TAF LEZL 080200Z 0803/0903 04004KT 9999 SCT020 TX14/0815Z TN05/0807Z"
    },
    {
      "icao": "LFBD",
      "alert": "OK",
      "vis_m": 9999,
      "fzfg": false,
      "metar_trigger": false,
      "taf_trigger": false,
      "metar": "METAR LFBD 080600Z AUTO 28016KT 9999 SCT017 BKN028 OVC034 12/10 Q1018 TEMPO 27015G25KT 4000 -RA BKN010 OVC025",
      "taf": "TAF LFBD 080500Z 0806/0912 27010KT 9999 BKN025 TX13/0814Z TN08/0906Z"
    },
    {
      "icao": "LFLL",
      "alert": "OK",
      "vis_m": 6000,
      "fzfg": false,
      "metar_trigger": false,
      "taf_trigger": false,
      "metar": "METAR LFLL 080600Z 13005KT 6000 -SN BKN024 M00/M01 Q1015 TEMPO 3000",
      "taf": "TAF LFLL 080500Z 0806/0912 16008KT 9999 -RA BKN030"
    },
    {
      "icao": "LFLS",
      "alert": "OK",
      "vis_m": 4900,
      "fzfg": false,
      "metar_trigger": false,
      "taf_trigger": false,
      "metar": "METAR LFLS 080600Z AUTO 08006KT 4900 -SN BR FEW017 BKN027 BKN047 M01/M02 Q1014 TEMPO 1200 SN BKN008",
      "taf": "TAF LFLS 080200Z 0803/0903 08005KT 9999 OVC050"
    },
    {
      "icao": "LFMN",
      "alert": "OK",
      "vis_m": 9999,
      "fzfg": false,
      "metar_trigger": false,
      "taf_trigger": false,
      "metar": "METAR LFMN 080600Z 32014KT CAVOK 02/M07 Q1013 NOSIG",
      "taf": "TAF LFMN 080200Z 0803/0909 33010KT CAVOK"
    },
    {
      "icao": "LFOB",
      "alert": "OK",
      "vis_m": 700,
      "fzfg": true,
      "metar_trigger": false,
      "taf_trigger": false,
      "metar": "METAR LFOB 080600Z AUTO 12005KT 0700 R30/0800N R12/0800N FG BKN003 OVC007 02/02 Q1006 TEMPO 0800 FZFG VV///",
      "taf": "TAF LFOB 080500Z 0806/0906 VRB03KT 9999 OVC009"
    },
    {
      "icao": "LFPO",
      "alert": "OK",
      "vis_m": 3000,
      "fzfg": false,
      "metar_trigger": false,
      "taf_trigger": false,
      "metar": "METAR LFPO 080600Z 24007KT 3000 -DZ BR BKN004 OVC014 04/04 Q1007 BECMG BKN004",
      "taf": ""
    },
    {
      "icao": "LFSB",
      "alert": "OK",
      "vis_m": 3700,
      "fzfg": false,
      "metar_trigger": false,
      "taf_trigger": false,
      "metar": "METAR LFSB 080600Z AUTO VRB02KT 3700 -SN BR SCT016 BKN023 BKN035 M01/M02 Q1012 TEMPO 1500 -SN BKN003",
      "taf": "TAF LFSB 080500Z 0806/0906 VRB03KT 7000 FEW010 BKN020"
    },
    {
      "icao": "LGAV",
      "alert": "OK",
      "vis_m": 9999,
      "fzfg": false,
      "metar_trigger": false,
      "taf_trigger": false,
      "metar": "METAR LGAV 080620Z 25017G28KT 230V290 9999 SCT040 15/06 Q1006 NOSIG",
      "taf": "TAF LGAV 080500Z 0806/0906 26014G30KT 9999 FEW020 SCT030"
    },
    {
      "icao": "LGTS",
      "alert": "OK",
      "vis_m": 9999,
      "fzfg": false,
      "metar_trigger": false,
      "taf_trigger": false,
      "metar": "METAR LGTS 080620Z 28005KT 9999 SCT020 12/08 Q1000 NOSIG",
      "taf": ""
    },
    {
      "icao": "LHBP",
      "alert": "OK",
      "vis_m": 9999,
      "fzfg": false,
      "metar_trigger": false,
      "taf_trigger": false,
      "metar": "METAR LHBP 080600Z 30011KT CAVOK M07/M09 Q1007 NOSIG",
      "taf": "TAF LHBP 080515Z 0806/0906 30013KT CAVOK"
    },
    {
      "icao": "LHDC",
      "alert": "OK",
      "vis_m": 9999,
      "fzfg": false,
      "metar_trigger": false,
      "taf_trigger": false,
      "metar": "METAR LHDC 080545Z AUTO 25006KT CAVOK M04/M05 Q1005 NOSIG",
      "taf": "TAF LHDC 080515Z 0806/0815 28008KT CAVOK"
    },
    {
      "icao": "LIBD",
      "alert": "OK",
      "vis_m": 9999,
      "fzfg": false,
      "metar_trigger": false,
      "taf_trigger": false,
      "metar": "METAR LIBD 080620Z 27013KT CAVOK 04/M01 Q1010",
      "taf": "TAF LIBD 080500Z 0806/0906 28020G30KT CAVOK"
    },
    {
      "icao": "LIBG",
      "alert": "OK",
      "vis_m": null,
      "fzfg": false,
      "metar_trigger": false,
      "taf_trigger": false,
      "metar": "",
      "taf": ""
    },
    {
      "icao": "LIBP",
      "alert": "OK",
      "vis_m": 9999,
      "fzfg": false,
      "metar_trigger": false,
      "taf_trigger": false,
      "metar": "METAR LIBP 080620Z AUTO 23007KT 9999 FEW240/// 00/M03 Q1013",
      "taf": "TAF LIBP 080500Z 0806/0906 23006KT 9999 BKN030"
    },
    {
      "icao": "LIBR",
      "alert": "OK",
      "vis_m": 9999,
      "fzfg": false,
      "metar_trigger": false,
      "taf_trigger": false,
      "metar": "METAR LIBR 080620Z 29014KT 9999 FEW020 05/01 Q1008",
      "taf": "TAF LIBR 080500Z 0806/0906 31022G33KT 9999 SCT030"
    },
    {
      "icao": "LICA",
      "alert": "OK",
      "vis_m": 9999,
      "fzfg": false,
      "metar_trigger": false,
      "taf_trigger": false,
      "metar": "METAR LICA 080620Z AUTO 29020KT 9999 -RA BKN046/// 10/03 Q1012",
      "taf": "TAF LICA 080500Z 0806/0906 28020G30KT 9999 SCT030"
    },
    {
      "icao": "LICC",
      "alert": "OK",
      "vis_m": 9999,
      "fzfg": false,
      "metar_trigger": false,
      "taf_trigger": false,
      "metar": "METAR LICC 080620Z 26012KT CAVOK 07/03 Q1016",
      "taf": "TAF LICC 080500Z 0806/0906 27015KT 9999 FEW060"
    },
    {
      "icao": "LICJ",
      "alert": "OK",
      "vis_m": 9999,
      "fzfg": false,
      "metar_trigger": false,
      "taf_trigger": false,
      "metar": "METAR LICJ 080620Z 27028KT 9999 SCT040 SCT060 14/06 Q1015",
      "taf": "TAF LICJ 080500Z 0806/0906 28025G35KT 9999 SCT020"
    },
    {
      "icao": "LIMC",
      "alert": "OK",
      "vis_m": 9999,
      "fzfg": false,
      "metar_trigger": false,
      "taf_trigger": false,
      "metar": "METAR LIMC 080620Z 36003KT CAVOK M07/M08 Q1012 NOSIG",
      "taf": "TAF LIMC 080500Z 0806/0912 VRB04KT CAVOK"
    },
    {
      "icao": "LIME",
      "alert": "OK",
      "vis_m": 9999,
      "fzfg": false,
      "metar_trigger": false,
      "taf_trigger": false,
      "metar": "METAR LIME 080620Z 02003KT CAVOK M05/M10 Q1011 NOSIG",
      "taf": "TAF LIME 080500Z 0806/0906 VRB04KT CAVOK"
    },
    {
      "icao": "LIMF",
      "alert": "OK",
      "vis_m": 9999,
      "fzfg": false,
      "metar_trigger": false,
      "taf_trigger": false,
      "metar": "METAR LIMF 080620Z 29004KT 250V320 9999 SCT110 M04/M09 Q1012",
      "taf": "TAF LIMF 080500Z 0806/0906 VRB03KT CAVOK"
    },
    {
      "icao": "LIMJ",
      "alert": "OK",
      "vis_m": 9999,
      "fzfg": false,
      "metar_trigger": false,
      "taf_trigger": false,
      "metar": "METAR LIMJ 080620Z VRB02KT CAVOK 03/M04 Q1012",
      "taf": "TAF LIMJ 080500Z 0806/0906 04010KT CAVOK"
    },
    {
      "icao": "LIPE",
      "alert": "OK",
      "vis_m": 9999,
      "fzfg": false,
      "metar_trigger": false,
      "taf_trigger": false,
      "metar": "METAR LIPE 080620Z VRB02KT CAVOK M05/M08 Q1013",
      "taf": "TAF LIPE 080500Z 0806/0906 VRB05KT 9999 FEW030"
    },
    {
      "icao": "LIPH",
      "alert": "OK",
      "vis_m": 9999,
      "fzfg": false,
      "metar_trigger": false,
      "taf_trigger": false,
      "metar": "METAR LIPH 080620Z 36003KT 320V020 CAVOK M05/M08 Q1012",
      "taf": "TAF LIPH 080500Z 0806/0906 VRB05KT CAVOK"
    },
    {
      "icao": "LIPQ",
      "alert": "OK",
      "vis_m": 9999,
      "fzfg": false,
      "metar_trigger": false,
      "taf_trigger": false,
      "metar": "METAR LIPQ 080620Z AUTO 06002KT 9999 NCD M06/M08 Q1012",
      "taf": "TAF LIPQ 080500Z 0806/0906 VRB05KT 9999 SCT070"
    },
    {
      "icao": "LIPR",
      "alert": "OK",
      "vis_m": 9999,
      "fzfg": false,
      "metar_trigger": false,
      "taf_trigger": false,
      "metar": "METAR LIPR 080620Z 25004KT CAVOK M05/M07 Q1013",
      "taf": "TAF LIPR 080500Z 0806/0906 25008KT 9999 SCT030"
    },
    {
      "icao": "LIPX",
      "alert": "OK",
      "vis_m": 200,
      "fzfg": true,
      "metar_trigger": false,
      "taf_trigger": false,
      "metar": "METAR LIPX 080620Z VRB01KT 0200 R04/0450N FZFG VV001 M05/M06 Q1012",
      "taf": "TAF LIPX 080500Z 0806/0906 VRB05KT 2000 BR NSC"
    },
    {
      "icao": "LIPY",
      "alert": "OK",
      "vis_m": 9999,
      "fzfg": false,
      "metar_trigger": false,
      "taf_trigger": false,
      "metar": "METAR LIPY 080620Z AUTO 18004KT 9999 NCD M01/M04 Q1013",
      "taf": "TAF LIPY 080500Z 0806/0906 23006KT 9999 SCT030"
    },
    {
      "icao": "LIPZ",
      "alert": "OK",
      "vis_m": 9999,
      "fzfg": false,
      "metar_trigger": false,
      "taf_trigger": false,
      "metar": "METAR LIPZ 080620Z 03006KT CAVOK M04/M08 Q1012 NOSIG",
      "taf": "TAF LIPZ 080500Z 0806/0912 VRB05KT CAVOK"
    },
    {
      "icao": "LIRF",
      "alert": "OK",
      "vis_m": 9999,
      "fzfg": false,
      "metar_trigger": false,
      "taf_trigger": false,
      "metar": "METAR LIRF 080620Z 06005KT CAVOK 01/M03 Q1013 NOSIG",
      "taf": "TAF LIRF 080500Z 0806/0912 04010KT CAVOK"
    },
    {
      "icao": "LIRN",
      "alert": "OK",
      "vis_m": 9999,
      "fzfg": false,
      "metar_trigger": false,
      "taf_trigger": false,
      "metar": "METAR LIRN 080620Z 23004KT CAVOK 02/M01 Q1012 NOSIG",
      "taf": "TAF LIRN 080500Z 0806/0906 03006KT CAVOK"
    },
    {
      "icao": "LIRP",
      "alert": "OK",
      "vis_m": 9999,
      "fzfg": false,
      "metar_trigger": false,
      "taf_trigger": false,
      "metar": "METAR LIRP 080615Z 12006KT 9999 BKN030 M01/M03 Q1013 NOSIG",
      "taf": "TAF LIRP 080500Z 0806/0906 11007KT CAVOK"
    },
    {
      "icao": "LIRZ",
      "alert": "OK",
      "vis_m": 9999,
      "fzfg": false,
      "metar_trigger": false,
      "taf_trigger": false,
      "metar": "METAR LIRZ 080620Z AUTO 33007KT 9999 NCD M04/M06 Q1013",
      "taf": "TAF LIRZ 080500Z 0806/0906 VRB05KT 9999 FEW060"
    },
    {
      "icao": "LJLJ",
      "alert": "OK",
      "vis_m": 9999,
      "fzfg": false,
      "metar_trigger": false,
      "taf_trigger": false,
      "metar": "METAR LJLJ 080600Z 25004KT 220V280 9999 FEW001 M11/M12 Q1011 NOSIG",
      "taf": "TAF LJLJ 080500Z 0806/0906 VRB02KT 9999 FEW020"
    },
    {
      "icao": "LKMT",
      "alert": "OK",
      "vis_m": 8000,
      "fzfg": false,
      "metar_trigger": false,
      "taf_trigger": false,
      "metar": "METAR LKMT 080600Z 01005KT 8000 -SN OVC014 M06/M08 Q1010 NOSIG",
      "taf": "TAF LKMT 080500Z 0806/0906 01008KT 6000 -SN SCT009 OVC014"
    },
    {
      "icao": "LKPR",
      "alert": "OK",
      "vis_m": 9999,
      "fzfg": false,
      "metar_trigger": false,
      "taf_trigger": false,
      "metar": "METAR LKPR 080600Z 19005KT CAVOK M08/M11 Q1009 NOSIG",
      "taf": "TAF LKPR 080500Z 0806/0912 20006KT CAVOK"
    },
    {
      "icao": "LLBG",
      "alert": "OK",
      "vis_m": 9999,
      "fzfg": false,
      "metar_trigger": false,
      "taf_trigger": false,
      "metar": "METAR LLBG 080620Z VRB01KT CAVOK 15/07 Q1019 NOSIG",
      "taf": "TAF LLBG 080503Z 0806/0906 VRB03KT CAVOK"
    },
    {
      "icao": "LMML",
      "alert": "OK",
      "vis_m": 9999,
      "fzfg": false,
      "metar_trigger": false,
      "taf_trigger": false,
      "metar": "METAR LMML 080615Z 27016KT 9999 -SHRA SCT020CB BKN049 10/07 Q1019 TEMPO 7000 SHRA",
      "taf": "TAF LMML 080500Z 0806/0906 29025G35KT 9999 SCT025"
    },
    {
      "icao": "LOWW",
      "alert": "OK",
      "vis_m": 9999,
      "fzfg": false,
      "metar_trigger": false,
      "taf_trigger": false,
      "metar": "METAR LOWW 080620Z 34009KT CAVOK M08/M12 Q1012 NOSIG",
      "taf": ""
    },
    {
      "icao": "LPFR",
      "alert": "OK",
      "vis_m": 9999,
      "fzfg": false,
      "metar_trigger": false,
      "taf_trigger": false,
      "metar": "METAR LPFR 080600Z 03005KT CAVOK 05/04 Q1032",
      "taf": "TAF LPFR 080500Z 0806/0906 04005KT CAVOK"
    },
    {
      "icao": "LPMA",
      "alert": "OK",
      "vis_m": 9999,
      "fzfg": false,
      "metar_trigger": false,
      "taf_trigger": false,
      "metar": "METAR LPMA 080600Z 01006KT 320V030 9999 SCT015 14/10 Q1033",
      "taf": "TAF LPMA 080500Z 0806/0906 01010KT 9999 SCT015"
    },
    {
      "icao": "LPPR",
      "alert": "OK",
      "vis_m": 8000,
      "fzfg": false,
      "metar_trigger": false,
      "taf_trigger": false,
      "metar": "METAR LPPR 080600Z 13009KT 8000 -DZRA BKN005 BKN011 08/07 Q1030",
      "taf": "TAF LPPR 080500Z 0806/0906 13007KT 9999 SCT012 BKN025"
    },
    {
      "icao": "LPPS",
      "alert": "OK",
      "vis_m": 9999,
      "fzfg": false,
      "metar_trigger": false,
      "taf_trigger": false,
      "metar": "METAR LPPS 080600Z 01008KT 9999 SCT014 14/13 Q1033",
      "taf": "TAF LPPS 080500Z 0806/0912 03008KT 9999 SCT015"
    },
    {
      "icao": "LPPT",
      "alert": "OK",
      "vis_m": 9999,
      "fzfg": false,
      "metar_trigger": false,
      "taf_trigger": false,
      "metar": "METAR LPPT 080600Z 30003KT 9999 BKN026 10/07 Q1031",
      "taf": "TAF LPPT 080500Z 0806/0912 VRB02KT 9999 SCT020"
    },
    {
      "icao": "LQBK",
      "alert": "OK",
      "vis_m": 9999,
      "fzfg": false,
      "metar_trigger": false,
      "taf_trigger": false,
      "metar": "METAR LQBK 080600Z 26005KT CAVOK M05/M08 Q1012 NOSIG",
      "taf": "TAF LQBK 080500Z 0806/0906 23006KT 9999 FEW020 SCT045 TXM03/0813Z TNM09/0900Z"
    },
    {
      "icao": "LQSA",
      "alert": "OK",
      "vis_m": 6000,
      "fzfg": false,
      "metar_trigger": false,
      "taf_trigger": false,
      "metar": "METAR LQSA 080600Z 11002KT 6000 -SN FEW018 BKN025 OVC035 M06/M06 Q1008 NOSIG",
      "taf": "TAF LQSA 080500Z 0806/0906 29005KT 7000 SCT012 OVC030 TXM03/0813Z TNM09/0901Z"
    },
    {
      "icao": "LQTZ",
      "alert": "OK",
      "vis_m": 1200,
      "fzfg": false,
      "metar_trigger": false,
      "taf_trigger": false,
      "metar": "METAR LQTZ 080600Z 29006KT 1200 R09/1300N SN BR BKN004 OVC008 M04/M04 Q1010",
      "taf": "TAF LQTZ 080500Z 0806/0906 23005KT 9999 SCT013 BKN030 TXM02/0813Z TNM08/0905Z"
    },
    {
      "icao": "LRBC",
      "alert": "OK",
      "vis_m": 7000,
      "fzfg": false,
      "metar_trigger": false,
      "taf_trigger": false,
      "metar": "METAR LRBC 080600Z 33006KT 7000 -SN BKN009 OVC024 M01/M03 Q0999",
      "taf": "TAF LRBC 080500Z 0806/0815 34010KT 3000 -SN BR BKN005 OVC020"
    },
    {
      "icao": "LRBS",
      "alert": "OK",
      "vis_m": 7000,
      "fzfg": false,
      "metar_trigger": false,
      "taf_trigger": false,
      "metar": "METAR LRBS 080600Z 21004KT 7000 -RA FEW004 OVC010 02/01 Q0999 BECMG 5000 SN",
      "taf": "TAF LRBS 080500Z 0806/0906 VRB04KT 7000 -RA BKN005 OVC015"
    },
    {
      "icao": "LRBV",
      "alert": "OK",
      "vis_m": 7000,
      "fzfg": false,
      "metar_trigger": false,
      "taf_trigger": false,
      "metar": "METAR LRBV 080600Z 30012KT 270V330 7000 -SN FEW010 SCT023 BKN039 M01/M04 Q0999",
      "taf": "TAF LRBV 080500Z 0806/0815 29016KT 9999 BKN015 BKN035"
    },
    {
      "icao": "LRCL",
      "alert": "OK",
      "vis_m": 9999,
      "fzfg": false,
      "metar_trigger": false,
      "taf_trigger": false,
      "metar": "METAR LRCL 080600Z 29009KT 9999 -SN OVC045 M04/M05 Q1002",
      "taf": "TAF LRCL 080500Z 0806/0815 29010KT 5000 -SN BR BKN015 BKN035"
    },
    {
      "icao": "LRCV",
      "alert": "OK",
      "vis_m": 9999,
      "fzfg": false,
      "metar_trigger": false,
      "taf_trigger": false,
      "metar": "METAR LRCV 080600Z 28017KT 9999 OVC014 M02/M03 Q1000",
      "taf": "TAF LRCV 080500Z 0806/0815 27015KT 5000 -SN BR BKN005 BKN020"
    },
    {
      "icao": "LRIA",
      "alert": "OK",
      "vis_m": 5000,
      "fzfg": false,
      "metar_trigger": false,
      "taf_trigger": false,
      "metar": "METAR LRIA 080600Z 30006KT 260V340 5000 -FZRA OVC003 M01/M01 Q0999",
      "taf": "TAF LRIA 080500Z 0806/0815 31010KT 1500 SN OVC002"
    },
    {
      "icao": "LROP",
      "alert": "OK",
      "vis_m": 6000,
      "fzfg": false,
      "metar_trigger": false,
      "taf_trigger": false,
      "metar": "METAR LROP 080600Z 20006KT 6000 -RA OVC007 02/02 Q0998 BECMG 5000 SN",
      "taf": "TAF LROP 080500Z 0806/0906 VRB04KT 7000 -RA BKN005 OVC015"
    },
    {
      "icao": "LRSB",
      "alert": "OK",
      "vis_m": 9999,
      "fzfg": false,
      "metar_trigger": false,
      "taf_trigger": false,
      "metar": "METAR LRSB 080600Z 29014KT 9999 BKN040 SCT050 M03/M05 Q1000",
      "taf": "TAF LRSB 080500Z 0806/0906 33014KT 9999 SCT035"
    },
    {
      "icao": "LRSM",
      "alert": "OK",
      "vis_m": 2500,
      "fzfg": false,
      "metar_trigger": false,
      "taf_trigger": false,
      "metar": "METAR LRSM 080600Z 27009KT 2500 -SN BR VV009 M04/M05 Q1004",
      "taf": "TAF LRSM 080500Z 0806/0815 28010KT 3000 -SN BR BKN010 OVC020"
    },
    {
      "icao": "LRSV",
      "alert": "OK",
      "vis_m": 1500,
      "fzfg": false,
      "metar_trigger": false,
      "taf_trigger": false,
      "metar": "METAR LRSV 080600Z 33010KT 1500 SN BR BKN016 M04/M05 Q0999 RESHSN",
      "taf": "TAF LRSV 080500Z 0806/0815 34008KT 1500 SN BKN010 OVC020"
    },
    {
      "icao": "LRTM",
      "alert": "OK",
      "vis_m": 3300,
      "fzfg": false,
      "metar_trigger": false,
      "taf_trigger": false,
      "metar": "METAR LRTM 080600Z 26004KT 3300 -SG SCT008 BKN013 BKN017 M03/M04 Q1002",
      "taf": "TAF LRTM 080500Z 0806/0815 29010KT 3000 -SN BR BKN010 BKN035"
    },
    {
      "icao": "LRTR",
      "alert": "OK",
      "vis_m": 3500,
      "fzfg": false,
      "metar_trigger": false,
      "taf_trigger": false,
      "metar": "METAR LRTR 080600Z 27007KT 3500 BR BKN005 BKN035 M05/M05 Q1008 NOSIG",
      "taf": "TAF LRTR 080500Z 0806/0906 30010KT 3000 -SN BR BKN015 OVC030"
    },
    {
      "icao": "LTAC",
      "alert": "OK",
      "vis_m": 2400,
      "fzfg": false,
      "metar_trigger": false,
      "taf_trigger": false,
      "metar": "METAR LTAC 080620Z VRB02KT 2400 -RA BR BKN040 BKN080 03/03 Q1014 BECMG 4000 RMK RWY21C VRB02KT RWY03L VRB02KT RWY21R VRB02KT RWY03R 17002KT RWY21L 19003KT",
      "taf": "TAF LTAC 080440Z 0806/0906 VRB02KT 4000 BR SCT040 BKN100"
    },
    {
      "icao": "LTFM",
      "alert": "OK",
      "vis_m": 9999,
      "fzfg": false,
      "metar_trigger": false,
      "taf_trigger": false,
      "metar": "METAR LTFM 080620Z 19031G46KT 9999 SCT040 BKN080 15/09 Q1001 NOSIG RMK RWY17L 18031G41KT RWY34L 18030G43KT RWY16R 19029G39KT RWY36 19033G44KT RWY18 19034G46KT",
      "taf": "TAF LTFM 080440Z 0806/0912 20022G32KT 9999 -SHRA SCT040 BKN080"
    },
    {
      "icao": "LUKK",
      "alert": "OK",
      "vis_m": 5000,
      "fzfg": false,
      "metar_trigger": false,
      "taf_trigger": false,
      "metar": "METAR LUKK 080600Z 03005KT 360V060 5000 BR OVC002CB 01/01 Q0997 RESHRA TEMPO 2500 -SHRA BR OVC001 BKN010CB",
      "taf": "TAF LUKK 080519Z 0806/0906 30010KT 3000 -RA BR OVC002"
    },
    {
      "icao": "LWOH",
      "alert": "OK",
      "vis_m": 9999,
      "fzfg": false,
      "metar_trigger": false,
      "taf_trigger": false,
      "metar": "METAR LWOH 080620Z 16015KT 9999 -RA SCT010 OVC033 03/02 Q1002",
      "taf": "TAF LWOH 080535Z 0806/0906 17012KT 9999 SCT015 OVC035"
    },
    {
      "icao": "LWSK",
      "alert": "OK",
      "vis_m": 9999,
      "fzfg": false,
      "metar_trigger": false,
      "taf_trigger": false,
      "metar": "METAR LWSK 080620Z 01014KT 9999 BKN020 OVC030 M00/M04 Q1003 NOSIG",
      "taf": "TAF LWSK 080535Z 0806/0906 02015KT 9999 SCT015 OVC035"
    },
    {
      "icao": "LYBE",
      "alert": "OK",
      "vis_m": 3000,
      "fzfg": false,
      "metar_trigger": false,
      "taf_trigger": false,
      "metar": "METAR LYBE 080600Z 29011KT 3000 SN BKN007 OVC030 M04/M05 Q1009 NOSIG",
      "taf": "TAF LYBE 080500Z 0806/0906 28010KT 4000 -SN BKN007 BKN030 TXM04/0813Z TNM12/0905Z"
    },
    {
      "icao": "LYNI",
      "alert": "OK",
      "vis_m": 9999,
      "fzfg": false,
      "metar_trigger": false,
      "taf_trigger": false,
      "metar": "METAR LYNI 080600Z 29006KT 250V320 9999 -SN SCT010 BKN020 OVC070 M03/M05 Q1007 NOSIG",
      "taf": "TAF LYNI 080500Z 0806/0906 32010KT 9999 BKN017 BKN027 BKN070 TXM02/0813Z TNM10/0906Z"
    },
    {
      "icao": "LYPG",
      "alert": "OK",
      "vis_m": 9999,
      "fzfg": false,
      "metar_trigger": false,
      "taf_trigger": false,
      "metar": "METAR LYPG 080600Z 34008KT 9999 FEW020 BKN040 06/02 Q1003 NOSIG",
      "taf": ""
    },
    {
      "icao": "LZIB",
      "alert": "OK",
      "vis_m": 9999,
      "fzfg": false,
      "metar_trigger": false,
      "taf_trigger": false,
      "metar": "METAR LZIB 080600Z 31012KT 280V340 9999 FEW029 M05/M11 Q1010 NOSIG",
      "taf": "TAF LZIB 080515Z 0806/0906 32012KT 9999 FEW028"
    },
    {
      "icao": "LZKZ",
      "alert": "OK",
      "vis_m": 9999,
      "fzfg": false,
      "metar_trigger": false,
      "taf_trigger": false,
      "metar": "METAR LZKZ 080600Z 36010KT CAVOK M03/M09 Q1004 NOSIG",
      "taf": "TAF LZKZ 080515Z 0806/0906 36017KT 9999 FEW035"
    },
    {
      "icao": "LZTT",
      "alert": "OK",
      "vis_m": 7000,
      "fzfg": false,
      "metar_trigger": false,
      "taf_trigger": false,
      "metar": "METAR LZTT 080600Z 27012KT 7000 -SN FEW010 OVC023 M09/M11 Q1002 NOSIG",
      "taf": "TAF LZTT 080515Z 0806/0906 27010KT 9999 OVC020"
    },
    {
      "icao": "OEJN",
      "alert": "OK",
      "vis_m": 9999,
      "fzfg": false,
      "metar_trigger": false,
      "taf_trigger": false,
      "metar": "METAR OEJN 080600Z 13003KT CAVOK 25/12 Q1018 NOSIG",
      "taf": "TAF OEJN 080500Z 0806/0912 20010KT 9999 FEW040"
    },
    {
      "icao": "OEMA",
      "alert": "OK",
      "vis_m": 9999,
      "fzfg": false,
      "metar_trigger": false,
      "taf_trigger": false,
      "metar": "METAR OEMA 080600Z VRB02KT CAVOK 17/00 Q1025 NOSIG",
      "taf": "TAF OEMA 080500Z 0806/0912 09010KT CAVOK"
    },
    {
      "icao": "OJAI",
      "alert": "OK",
      "vis_m": 5000,
      "fzfg": false,
      "metar_trigger": false,
      "taf_trigger": false,
      "metar": "METAR OJAI 080500Z 08005KT 5000 HZ NSC 06/01 Q1024 NOSIG",
      "taf": "TAF OJAI 080500Z 0806/0912 12010KT 5000 HZ NSC"
    },
    {
      "icao": "OMAA",
      "alert": "OK",
      "vis_m": 9999,
      "fzfg": false,
      "metar_trigger": false,
      "taf_trigger": false,
      "metar": "METAR OMAA 080600Z 13001KT 9999 FEW045 22/13 Q1022 NOSIG",
      "taf": "TAF OMAA 080500Z 0806/0912 VRB02KT 8000 NSC"
    },
    {
      "icao": "OMDB",
      "alert": "OK",
      "vis_m": null,
      "fzfg": false,
      "metar_trigger": false,
      "taf_trigger": false,
      "metar": "",
      "taf": "TAF OMDB 080500Z 0806/0912 08005KT CAVOK"
    },
    {
      "icao": "UAAA",
      "alert": "OK",
      "vis_m": 2100,
      "fzfg": false,
      "metar_trigger": false,
      "taf_trigger": false,
      "metar": "METAR UAAA 080600Z 09002MPS 050V130 2100 -SN BR BKN005 OVC026 M05/M06 Q1032 NOSIG RMK QBB160",
      "taf": "TAF UAAA 080504Z 0806/0906 03003MPS 2200 BR FU BKN011 OVC100 TXM01/0809Z TNM07/0901Z"
    },
    {
      "icao": "UBBB",
      "alert": "OK",
      "vis_m": 700,
      "fzfg": false,
      "metar_trigger": false,
      "taf_trigger": false,
      "metar": "METAR UBBB 080600Z 17008KT 0700 R16/0700 R17/1500 FG VV002 05/05 Q1020 NOSIG",
      "taf": "TAF UBBB 080521Z 0806/0906 18010KT 0800 FG VV002 TX10/0910Z TN04/0903Z"
    },
    {
      "icao": "UDSG",
      "alert": "OK",
      "vis_m": 3800,
      "fzfg": false,
      "metar_trigger": false,
      "taf_trigger": false,
      "metar": "METAR UDSG 080600Z 33002KT 3800 BR FEW049 M12/M13 Q1025 NOSIG",
      "taf": "TAF UDSG 080500Z 0806/0906 VRB06KT 5000 BR FEW040"
    },
    {
      "icao": "UDYZ",
      "alert": "OK",
      "vis_m": 1800,
      "fzfg": false,
      "metar_trigger": false,
      "taf_trigger": false,
      "metar": "METAR UDYZ 080600Z 00000KT 1800 1100E R08/2000U BR NSC M09/M11 Q1028 NOSIG",
      "taf": ""
    },
    {
      "icao": "UGKO",
      "alert": "OK",
      "vis_m": 9999,
      "fzfg": false,
      "metar_trigger": false,
      "taf_trigger": false,
      "metar": "METAR UGKO 080600Z 07018KT CAVOK 12/01 Q1016 NOSIG",
      "taf": "TAF UGKO 080500Z 0806/0906 07015KT CAVOK TX18/0812Z TN09/0823Z"
    }
  ]
}