{
  "ts_utc": "2026-04-09T22:08:12Z",
  "threshold_m": 150,
  "source": "stations_override.txt (ICAO list) + aviationweather.gov (METAR/TAF raw)",
  "station_count": 159,
  "stations": [
    {
      "icao": "BIKF",
      "alert": "OK",
      "vis_m": 9999,
      "fzfg": false,
      "metar_trigger": false,
      "taf_trigger": false,
      "metar": "METAR BIKF 092200Z 23027KT 9999 BKN010 BKN018 OVC046 03/M00 Q0989",
      "taf": "TAF BIKF 091950Z 0921/1021 23030G40KT 6000 -RADZ BKN008 TX05/1015Z TN00/1006Z"
    },
    {
      "icao": "BKPR",
      "alert": "OK",
      "vis_m": 9999,
      "fzfg": false,
      "metar_trigger": false,
      "taf_trigger": false,
      "metar": "METAR BKPR 092200Z 31003KT CAVOK 03/M02 Q1018 NOSIG",
      "taf": "TAF BKPR 091730Z 0918/1018 01007KT CAVOK"
    },
    {
      "icao": "EBCI",
      "alert": "OK",
      "vis_m": 9999,
      "fzfg": false,
      "metar_trigger": false,
      "taf_trigger": false,
      "metar": "METAR EBCI 092150Z 28012KT 260V320 9999 FEW022 14/10 Q1017 NOSIG",
      "taf": "TAF EBCI 091703Z 0918/1024 25005KT CAVOK"
    },
    {
      "icao": "EDDB",
      "alert": "OK",
      "vis_m": 9999,
      "fzfg": false,
      "metar_trigger": false,
      "taf_trigger": false,
      "metar": "METAR EDDB 092150Z AUTO 06005KT CAVOK 02/M03 Q1020 NOSIG",
      "taf": "TAF EDDB 091700Z 0918/1018 09006KT CAVOK"
    },
    {
      "icao": "EDDH",
      "alert": "OK",
      "vis_m": 9999,
      "fzfg": false,
      "metar_trigger": false,
      "taf_trigger": false,
      "metar": "METAR EDDH 092150Z AUTO 11011KT CAVOK 07/M04 Q1017 NOSIG",
      "taf": "TAF EDDH 091700Z 0918/1024 11012KT 9999 SCT030"
    },
    {
      "icao": "EDDK",
      "alert": "OK",
      "vis_m": 9999,
      "fzfg": false,
      "metar_trigger": false,
      "taf_trigger": false,
      "metar": "METAR EDDK 092150Z AUTO 13002KT 9999 -SHRA FEW///TCU 16/03 Q1014 TEMPO 23008KT SHRA",
      "taf": "TAF EDDK 091700Z 0918/1024 16006KT CAVOK"
    },
    {
      "icao": "EDDN",
      "alert": "OK",
      "vis_m": 9999,
      "fzfg": false,
      "metar_trigger": false,
      "taf_trigger": false,
      "metar": "METAR EDDN 092150Z AUTO 09006KT 9999 FEW044 10/M00 Q1016",
      "taf": ""
    },
    {
      "icao": "EDDS",
      "alert": "OK",
      "vis_m": 9999,
      "fzfg": false,
      "metar_trigger": false,
      "taf_trigger": false,
      "metar": "METAR EDDS 092150Z AUTO 28005KT CAVOK 09/00 Q1016",
      "taf": "TAF EDDS 091700Z 0918/1018 01007KT CAVOK"
    },
    {
      "icao": "EDFH",
      "alert": "OK",
      "vis_m": 9999,
      "fzfg": false,
      "metar_trigger": false,
      "taf_trigger": false,
      "metar": "METAR EDFH 092150Z 19008KT CAVOK 14/04 Q1015",
      "taf": ""
    },
    {
      "icao": "EDJA",
      "alert": "OK",
      "vis_m": 9999,
      "fzfg": false,
      "metar_trigger": false,
      "taf_trigger": false,
      "metar": "METAR EDJA 092150Z AUTO 00000KT 9999 // OVC100/// 08/04 Q1016",
      "taf": ""
    },
    {
      "icao": "EDLW",
      "alert": "OK",
      "vis_m": 9999,
      "fzfg": false,
      "metar_trigger": false,
      "taf_trigger": false,
      "metar": "METAR EDLW 092150Z AUTO 20009KT 9999 // FEW068/// OVC083/// 16/03 Q1013",
      "taf": "TAF EDLW 091700Z 0918/1018 09007KT CAVOK"
    },
    {
      "icao": "EDNY",
      "alert": "OK",
      "vis_m": 9999,
      "fzfg": false,
      "metar_trigger": false,
      "taf_trigger": false,
      "metar": "METAR EDNY 092150Z AUTO 09003KT 9999 BKN140/// BKN190/// 12/04 Q1016",
      "taf": "TAF EDNY 091700Z 0918/1003 VRB03KT CAVOK"
    },
    {
      "icao": "EDSB",
      "alert": "OK",
      "vis_m": 9999,
      "fzfg": false,
      "metar_trigger": false,
      "taf_trigger": false,
      "metar": "METAR EDSB 092150Z AUTO 23003KT 9999 // NCD 10/03 Q1016",
      "taf": "TAF EDSB 091700Z 0918/1018 35003KT CAVOK"
    },
    {
      "icao": "EETN",
      "alert": "OK",
      "vis_m": 9999,
      "fzfg": false,
      "metar_trigger": false,
      "taf_trigger": false,
      "metar": "METAR EETN 092150Z 08004KT CAVOK M01/M04 Q1027 NOSIG",
      "taf": "TAF EETN 091730Z 0918/1018 07012KT CAVOK"
    },
    {
      "icao": "EFTU",
      "alert": "OK",
      "vis_m": 9999,
      "fzfg": false,
      "metar_trigger": false,
      "taf_trigger": false,
      "metar": "METAR EFTU 092150Z AUTO 09003KT 060V120 CAVOK M03/M06 Q1028",
      "taf": "TAF EFTU 092025Z 0921/1021 VRB02KT CAVOK"
    },
    {
      "icao": "EGBB",
      "alert": "OK",
      "vis_m": 9999,
      "fzfg": false,
      "metar_trigger": false,
      "taf_trigger": false,
      "metar": "METAR EGBB 092150Z 28006KT CAVOK 07/M01 Q1019",
      "taf": "TAF EGBB 091702Z 0918/1018 28009KT 9999 FEW045"
    },
    {
      "icao": "EGGP",
      "alert": "OK",
      "vis_m": 9999,
      "fzfg": false,
      "metar_trigger": false,
      "taf_trigger": false,
      "metar": "METAR EGGP 092150Z 28013KT 9999 FEW030 BKN040 06/02 Q1019",
      "taf": "TAF EGGP 091657Z 0918/1018 28014KT 9999 SCT025"
    },
    {
      "icao": "EGGW",
      "alert": "OK",
      "vis_m": 9999,
      "fzfg": false,
      "metar_trigger": false,
      "taf_trigger": false,
      "metar": "METAR EGGW 092150Z AUTO 29011KT 9999 NCD 06/M01 Q1019",
      "taf": ""
    },
    {
      "icao": "EGKK",
      "alert": "OK",
      "vis_m": 9999,
      "fzfg": false,
      "metar_trigger": false,
      "taf_trigger": false,
      "metar": "METAR EGKK 092150Z 30012KT CAVOK 09/M00 Q1021",
      "taf": "TAF EGKK 091656Z 0918/1024 24015KT CAVOK"
    },
    {
      "icao": "EGNM",
      "alert": "OK",
      "vis_m": 9999,
      "fzfg": false,
      "metar_trigger": false,
      "taf_trigger": false,
      "metar": "METAR EGNM 092150Z 26019G30KT 9999 FEW035 05/01 Q1015",
      "taf": "TAF EGNM 091657Z 0918/1018 28018G28KT 9999 SCT025"
    },
    {
      "icao": "EGPD",
      "alert": "OK",
      "vis_m": 9999,
      "fzfg": false,
      "metar_trigger": false,
      "taf_trigger": false,
      "metar": "METAR EGPD 092150Z COR AUTO VRB02KT 9999 NCD 04/M00 Q1009 NOSIG",
      "taf": "TAF EGPD 091655Z 0918/1018 29008KT 9999 FEW040"
    },
    {
      "icao": "EGPF",
      "alert": "OK",
      "vis_m": 9999,
      "fzfg": false,
      "metar_trigger": false,
      "taf_trigger": false,
      "metar": "METAR EGPF 092150Z AUTO 22010KT 9999 BKN024 BKN031 05/03 Q1014",
      "taf": "TAF EGPF 091654Z 0918/1018 26012KT 9999 FEW020"
    },
    {
      "icao": "EHBK",
      "alert": "OK",
      "vis_m": 9999,
      "fzfg": false,
      "metar_trigger": false,
      "taf_trigger": false,
      "metar": "METAR EHBK 092155Z AUTO 25007KT 200V290 9999 NSC 17/12 Q1014 REDZ",
      "taf": "TAF EHBK 091719Z 0918/1024 19005KT CAVOK"
    },
    {
      "icao": "EHEH",
      "alert": "OK",
      "vis_m": 9999,
      "fzfg": false,
      "metar_trigger": false,
      "taf_trigger": false,
      "metar": "METAR EHEH 092155Z AUTO 29015G28KT 240V350 9999 SCT028 OVC032 15/08 Q1015 REDZ BLU",
      "taf": ""
    },
    {
      "icao": "EKBI",
      "alert": "OK",
      "vis_m": 9999,
      "fzfg": false,
      "metar_trigger": false,
      "taf_trigger": false,
      "metar": "METAR EKBI 092150Z AUTO 11015G25KT 9999 SCT100/// 03/M07 Q1017",
      "taf": "TAF EKBI 092027Z 0921/1021 11015KT 9999 BKN045"
    },
    {
      "icao": "EKCH",
      "alert": "OK",
      "vis_m": 9999,
      "fzfg": false,
      "metar_trigger": false,
      "taf_trigger": false,
      "metar": "METAR EKCH 092150Z AUTO 12014KT 9999 NCD 03/M03 Q1023 NOSIG",
      "taf": "TAF EKCH 092027Z 0921/1021 12013KT CAVOK"
    },
    {
      "icao": "ENAL",
      "alert": "OK",
      "vis_m": 9999,
      "fzfg": false,
      "metar_trigger": false,
      "taf_trigger": false,
      "metar": "METAR ENAL 092150Z 35003KT 310V010 9999 -RA BKN061 06/04 Q1010",
      "taf": "TAF ENAL 092000Z 0921/1006 VRB07KT 9999 -RA BKN050"
    },
    {
      "icao": "ENBR",
      "alert": "OK",
      "vis_m": 9999,
      "fzfg": false,
      "metar_trigger": false,
      "taf_trigger": false,
      "metar": "METAR ENBR 092150Z 14022G32KT 9999 -SHRA SCT047 09/M02 Q1010 RMK WIND 1200FT 14034G48KT",
      "taf": "TAF ENBR 091700Z 0918/1018 15020KT 9999 FEW040 SCT050"
    },
    {
      "icao": "ENGM",
      "alert": "OK",
      "vis_m": 9999,
      "fzfg": false,
      "metar_trigger": false,
      "taf_trigger": false,
      "metar": "METAR ENGM 092150Z 12003KT CAVOK 04/M07 Q1020",
      "taf": "TAF ENGM 091700Z 0918/1018 16007KT 9999 SCT040"
    },
    {
      "icao": "ENHD",
      "alert": "OK",
      "vis_m": 9999,
      "fzfg": false,
      "metar_trigger": false,
      "taf_trigger": false,
      "metar": "METAR ENHD 092150Z AUTO 15024G36KT 120V190 9999 -RA SQ OVC034/// 07/01 Q1010",
      "taf": "TAF ENHD 091400Z 0915/0922 14018KT 9999 -RA SCT050"
    },
    {
      "icao": "ENTC",
      "alert": "OK",
      "vis_m": 9999,
      "fzfg": false,
      "metar_trigger": false,
      "taf_trigger": false,
      "metar": "METAR ENTC 092150Z 26003KT 210V310 CAVOK 06/M01 Q1016 RMK WIND 2600FT 19010KT",
      "taf": "TAF ENTC 091700Z 0918/1018 18012KT 9999 BKN060"
    },
    {
      "icao": "ENTO",
      "alert": "OK",
      "vis_m": 9999,
      "fzfg": false,
      "metar_trigger": false,
      "taf_trigger": false,
      "metar": "METAR ENTO 092150Z 12003KT CAVOK 03/03 Q1020",
      "taf": "TAF ENTO 091700Z 0918/1018 15008KT CAVOK"
    },
    {
      "icao": "ENVA",
      "alert": "OK",
      "vis_m": 9999,
      "fzfg": false,
      "metar_trigger": false,
      "taf_trigger": false,
      "metar": "METAR ENVA 092150Z 15014KT 120V190 9999 -RA NSC 11/M01 Q1014 RMK WIND 670FT 17026G42KT",
      "taf": "TAF ENVA 091700Z 0918/1018 14015KT CAVOK"
    },
    {
      "icao": "ENZV",
      "alert": "OK",
      "vis_m": 9999,
      "fzfg": false,
      "metar_trigger": false,
      "taf_trigger": false,
      "metar": "METAR ENZV 092150Z 16032G44KT 9999 -RA FEW028 SCT036 BKN046 08/M00 Q1011",
      "taf": "TAF ENZV 091700Z 0918/1018 14022KT CAVOK"
    },
    {
      "icao": "EPGD",
      "alert": "OK",
      "vis_m": 9999,
      "fzfg": false,
      "metar_trigger": false,
      "taf_trigger": false,
      "metar": "METAR EPGD 092200Z 04002KT 9999 FEW008 M00/M01 Q1023",
      "taf": "TAF EPGD 091730Z 0918/1018 04010KT CAVOK"
    },
    {
      "icao": "EPKK",
      "alert": "OK",
      "vis_m": 9000,
      "fzfg": false,
      "metar_trigger": false,
      "taf_trigger": false,
      "metar": "METAR EPKK 092200Z 22003KT 9000 BKN050 00/M03 Q1020",
      "taf": "TAF EPKK 092030Z 0921/1021 VRB02KT 9999 SCT045"
    },
    {
      "icao": "EPKT",
      "alert": "OK",
      "vis_m": 9999,
      "fzfg": false,
      "metar_trigger": false,
      "taf_trigger": false,
      "metar": "METAR EPKT 092200Z VRB01KT CAVOK M02/M04 Q1020",
      "taf": ""
    },
    {
      "icao": "EPLB",
      "alert": "OK",
      "vis_m": 9999,
      "fzfg": false,
      "metar_trigger": false,
      "taf_trigger": false,
      "metar": "METAR EPLB 092200Z 01003KT CAVOK 01/M00 Q1021",
      "taf": "TAF EPLB 091730Z 0918/1018 VRB05KT 9999 BKN020"
    },
    {
      "icao": "EPMO",
      "alert": "OK",
      "vis_m": 9999,
      "fzfg": false,
      "metar_trigger": false,
      "taf_trigger": false,
      "metar": "METAR EPMO 092200Z 02004KT CAVOK M01/M05 Q1022",
      "taf": "TAF EPMO 091730Z 0918/1018 04007KT CAVOK"
    },
    {
      "icao": "EPPO",
      "alert": "OK",
      "vis_m": 9999,
      "fzfg": false,
      "metar_trigger": false,
      "taf_trigger": false,
      "metar": "METAR EPPO 092200Z 07009KT CAVOK 01/M05 Q1022",
      "taf": "TAF EPPO 091730Z 0918/1018 09008KT CAVOK"
    },
    {
      "icao": "EPRA",
      "alert": "OK",
      "vis_m": 9999,
      "fzfg": false,
      "metar_trigger": false,
      "taf_trigger": false,
      "metar": "METAR EPRA 092200Z 04003KT CAVOK 02/M01 Q1021",
      "taf": "TAF EPRA 092030Z 0921/1006 06005KT 9999 SCT040"
    },
    {
      "icao": "EPRZ",
      "alert": "OK",
      "vis_m": 9999,
      "fzfg": false,
      "metar_trigger": false,
      "taf_trigger": false,
      "metar": "METAR EPRZ 092200Z 33001KT 9999 FEW040CB 01/01 Q1020",
      "taf": "TAF EPRZ 091730Z 0918/1018 30010KT 9999 BKN030"
    },
    {
      "icao": "EPSC",
      "alert": "OK",
      "vis_m": 9999,
      "fzfg": false,
      "metar_trigger": false,
      "taf_trigger": false,
      "metar": "METAR EPSC 092200Z 05007KT CAVOK 01/M04 Q1022",
      "taf": "TAF EPSC 091730Z 0918/1018 03010KT CAVOK"
    },
    {
      "icao": "EPSY",
      "alert": "OK",
      "vis_m": 9999,
      "fzfg": false,
      "metar_trigger": false,
      "taf_trigger": false,
      "metar": "METAR EPSY 092200Z 03003KT CAVOK 02/M04 Q1023",
      "taf": "TAF EPSY 092030Z 0921/1006 03006KT CAVOK"
    },
    {
      "icao": "EPWA",
      "alert": "OK",
      "vis_m": 9999,
      "fzfg": false,
      "metar_trigger": false,
      "taf_trigger": false,
      "metar": "METAR EPWA 092200Z 06007KT CAVOK 03/M04 Q1021 NOSIG",
      "taf": "TAF EPWA 092030Z 0921/1021 06005KT CAVOK"
    },
    {
      "icao": "EPWR",
      "alert": "OK",
      "vis_m": 9999,
      "fzfg": false,
      "metar_trigger": false,
      "taf_trigger": false,
      "metar": "METAR EPWR 092200Z 26003KT 190V270 CAVOK M01/M05 Q1021",
      "taf": "TAF EPWR 092030Z 0921/1021 VRB02KT CAVOK"
    },
    {
      "icao": "ESGG",
      "alert": "OK",
      "vis_m": 9999,
      "fzfg": false,
      "metar_trigger": false,
      "taf_trigger": false,
      "metar": "METAR ESGG 092150Z 14006KT CAVOK 02/M03 Q1021",
      "taf": "TAF ESGG 092030Z 0921/1021 14008KT CAVOK"
    },
    {
      "icao": "ESKN",
      "alert": "OK",
      "vis_m": 9999,
      "fzfg": false,
      "metar_trigger": false,
      "taf_trigger": false,
      "metar": "METAR ESKN 092150Z 09004KT CAVOK M02/M03 Q1026",
      "taf": "TAF ESKN 092030Z 0921/1021 11006KT CAVOK"
    },
    {
      "icao": "ESMS",
      "alert": "OK",
      "vis_m": 9999,
      "fzfg": false,
      "metar_trigger": false,
      "taf_trigger": false,
      "metar": "METAR ESMS 092150Z 10011KT CAVOK 00/M04 Q1022",
      "taf": "TAF ESMS 092027Z 0921/1021 11008KT CAVOK"
    },
    {
      "icao": "ESSA",
      "alert": "OK",
      "vis_m": 9999,
      "fzfg": false,
      "metar_trigger": false,
      "taf_trigger": false,
      "metar": "METAR ESSA 092150Z 08003KT CAVOK M04/M06 Q1027 NOSIG",
      "taf": "TAF ESSA 092030Z 0921/1021 12004KT CAVOK"
    },
    {
      "icao": "EYKA",
      "alert": "OK",
      "vis_m": 9999,
      "fzfg": false,
      "metar_trigger": false,
      "taf_trigger": false,
      "metar": "METAR EYKA 092150Z VRB01KT 9999 BKN042 M00/M04 Q1024",
      "taf": "TAF EYKA 091700Z 0918/1018 VRB04KT 9000 BKN040"
    },
    {
      "icao": "EYPA",
      "alert": "OK",
      "vis_m": 9999,
      "fzfg": false,
      "metar_trigger": false,
      "taf_trigger": false,
      "metar": "METAR EYPA 092150Z 08004KT CAVOK M00/M05 Q1025",
      "taf": "TAF EYPA 091700Z 0918/1018 08010KT 9000 SCT040"
    },
    {
      "icao": "EYVI",
      "alert": "OK",
      "vis_m": 9999,
      "fzfg": false,
      "metar_trigger": false,
      "taf_trigger": false,
      "metar": "METAR EYVI 092150Z 36005KT 9999 OVC036 02/M03 Q1022 NOSIG",
      "taf": "TAF EYVI 091700Z 0918/1018 VRB04KT 9000 BKN035"
    },
    {
      "icao": "GCFV",
      "alert": "OK",
      "vis_m": 9999,
      "fzfg": false,
      "metar_trigger": false,
      "taf_trigger": false,
      "metar": "METAR GCFV 092200Z 34014KT 9999 FEW027 17/10 Q1018",
      "taf": "TAF GCFV 092000Z 0921/1021 34010KT 9999 SCT030 TX21/1014Z TN15/1006Z"
    },
    {
      "icao": "GCLP",
      "alert": "OK",
      "vis_m": 9999,
      "fzfg": false,
      "metar_trigger": false,
      "taf_trigger": false,
      "metar": "METAR GCLP 092200Z 34014G24KT 310V020 9999 SCT035 17/13 Q1019 NOSIG",
      "taf": "TAF GCLP 092000Z 0921/1021 33020KT 9999 SCT030 TX22/1014Z TN15/1006Z"
    },
    {
      "icao": "GCTS",
      "alert": "OK",
      "vis_m": 9999,
      "fzfg": false,
      "metar_trigger": false,
      "taf_trigger": false,
      "metar": "METAR GCTS 092200Z VRB02KT 9999 FEW030 18/12 Q1019 NOSIG",
      "taf": "TAF GCTS 092000Z 0921/1021 VRB09KT 9999 SCT030 TX23/1014Z TN15/1006Z"
    },
    {
      "icao": "GMAD",
      "alert": "OK",
      "vis_m": 9999,
      "fzfg": false,
      "metar_trigger": false,
      "taf_trigger": false,
      "metar": "METAR GMAD 092200Z 11004KT 9999 FEW020 FEW030TCU SCT080 15/12 Q1013 NOSIG",
      "taf": "TAF GMAD 091700Z 0918/1024 18006KT 6000 SCT020 SCT080"
    },
    {
      "icao": "GMMN",
      "alert": "OK",
      "vis_m": 9999,
      "fzfg": false,
      "metar_trigger": false,
      "taf_trigger": false,
      "metar": "METAR GMMN 092200Z 04005KT 9999 FEW026 SCT100 12/09 Q1015 NOSIG",
      "taf": "TAF GMMN 091700Z 0918/1024 03009KT 9999 SCT030"
    },
    {
      "icao": "GMMX",
      "alert": "OK",
      "vis_m": 8000,
      "fzfg": false,
      "metar_trigger": false,
      "taf_trigger": false,
      "metar": "METAR GMMX 092200Z 27004KT 250V350 8000 FEW020 BKN026 12/09 Q1014 NOSIG",
      "taf": "TAF GMMX 091700Z 0918/1024 24015KT 8000 ST015 BKN023"
    },
    {
      "icao": "HEGN",
      "alert": "OK",
      "vis_m": 9999,
      "fzfg": false,
      "metar_trigger": false,
      "taf_trigger": false,
      "metar": "METAR HEGN 092100Z 00000KT CAVOK 21/00 Q1015 NOSIG",
      "taf": "TAF HEGN 091700Z 0918/1024 24010KT CAVOK"
    },
    {
      "icao": "HEMA",
      "alert": "OK",
      "vis_m": 9999,
      "fzfg": false,
      "metar_trigger": false,
      "taf_trigger": false,
      "metar": "METAR HEMA 092100Z 26007KT CAVOK 19/08 Q1015 NOSIG",
      "taf": "TAF HEMA 091700Z 0918/1024 23010KT CAVOK"
    },
    {
      "icao": "HESH",
      "alert": "OK",
      "vis_m": 9999,
      "fzfg": false,
      "metar_trigger": false,
      "taf_trigger": false,
      "metar": "METAR HESH 092100Z 03003KT CAVOK 21/13 Q1015 NOSIG",
      "taf": "TAF HESH 091700Z 0918/1024 26010KT CAVOK"
    },
    {
      "icao": "HESX",
      "alert": "OK",
      "vis_m": 9999,
      "fzfg": false,
      "metar_trigger": false,
      "taf_trigger": false,
      "metar": "METAR HESX 092100Z 32004KT CAVOK 17/09 Q1016 NOSIG",
      "taf": "TAF HESX 091700Z 0918/1024 27012KT CAVOK"
    },
    {
      "icao": "LATI",
      "alert": "OK",
      "vis_m": 9999,
      "fzfg": false,
      "metar_trigger": false,
      "taf_trigger": false,
      "metar": "METAR LATI 092150Z 16004KT CAVOK 08/04 Q1016 NOSIG",
      "taf": "TAF LATI 091700Z 0918/1018 VRB03KT CAVOK TX21/1013Z TN04/1003Z"
    },
    {
      "icao": "LBPD",
      "alert": "OK",
      "vis_m": 9999,
      "fzfg": false,
      "metar_trigger": false,
      "taf_trigger": false,
      "metar": "METAR LBPD 092200Z AUTO 13004KT 9999 BKN072/// BKN087/// 06/02 Q1016",
      "taf": "TAF LBPD 091700Z 0918/1018 32010KT 9999 SCT060"
    },
    {
      "icao": "LBSF",
      "alert": "OK",
      "vis_m": 9999,
      "fzfg": false,
      "metar_trigger": false,
      "taf_trigger": false,
      "metar": "METAR LBSF 092200Z AUTO 29004KT 9999 NSC 02/M03 Q1016 NOSIG",
      "taf": "TAF LBSF 091700Z 0918/1018 31012KT 9999 SCT060"
    },
    {
      "icao": "LBWN",
      "alert": "OK",
      "vis_m": 9999,
      "fzfg": false,
      "metar_trigger": false,
      "taf_trigger": false,
      "metar": "METAR LBWN 092200Z AUTO 35003KT 9999 NSC 05/05 Q1016 TEMPO 5000 RA",
      "taf": "TAF LBWN 091700Z 0918/1018 13010KT 7000 RA BKN040"
    },
    {
      "icao": "LCLK",
      "alert": "OK",
      "vis_m": 9999,
      "fzfg": false,
      "metar_trigger": false,
      "taf_trigger": false,
      "metar": "METAR LCLK 092200Z 22014KT 9999 FEW025 16/14 Q1011 NOSIG",
      "taf": "TAF LCLK 091730Z 0918/1018 25009KT 9999 FEW020 SCT050"
    },
    {
      "icao": "LCPH",
      "alert": "OK",
      "vis_m": 9999,
      "fzfg": false,
      "metar_trigger": false,
      "taf_trigger": false,
      "metar": "METAR LCPH 092200Z 28011KT 250V320 9999 SCT017 BKN040 17/14 Q1011 NOSIG",
      "taf": "TAF LCPH 091730Z 0918/1018 26010KT 9999 SCT018"
    },
    {
      "icao": "LEAL",
      "alert": "OK",
      "vis_m": 9999,
      "fzfg": false,
      "metar_trigger": false,
      "taf_trigger": false,
      "metar": "METAR LEAL 092200Z 03006KT 360V070 CAVOK 19/07 Q1017 NOSIG",
      "taf": "TAF LEAL 091700Z 0918/1018 08010KT CAVOK TX26/1013Z TN15/1006Z"
    },
    {
      "icao": "LEBB",
      "alert": "OK",
      "vis_m": 9999,
      "fzfg": false,
      "metar_trigger": false,
      "taf_trigger": false,
      "metar": "METAR LEBB 092200Z VRB01KT 9999 FEW011 SCT025 14/12 Q1023 NOSIG",
      "taf": "TAF LEBB 091700Z 0918/1018 31009KT 9999 FEW010 TX30/1014Z TN11/1006Z"
    },
    {
      "icao": "LEBL",
      "alert": "OK",
      "vis_m": 9000,
      "fzfg": false,
      "metar_trigger": false,
      "taf_trigger": false,
      "metar": "METAR LEBL 092200Z 25005KT 9000 FEW004 15/14 Q1018 NOSIG",
      "taf": "TAF LEBL 091700Z 0918/1018 20008KT 9999 FEW035 TX23/1012Z TN12/1006Z"
    },
    {
      "icao": "LECH",
      "alert": "OK",
      "vis_m": 9999,
      "fzfg": false,
      "metar_trigger": false,
      "taf_trigger": false,
      "metar": "METAR LECH 092200Z AUTO 20004KT CAVOK 16/02 Q1019",
      "taf": "TAF LECH 091700Z 0918/1018 VRB04KT CAVOK TX26/1014Z TN09/1006Z"
    },
    {
      "icao": "LEMD",
      "alert": "OK",
      "vis_m": 9999,
      "fzfg": false,
      "metar_trigger": false,
      "taf_trigger": false,
      "metar": "METAR LEMD 092200Z 28001KT CAVOK 16/03 Q1019 NOSIG",
      "taf": "TAF LEMD 091700Z 0918/1024 01006KT CAVOK TX29/1015Z TN09/1006Z"
    },
    {
      "icao": "LEMG",
      "alert": "OK",
      "vis_m": 9999,
      "fzfg": false,
      "metar_trigger": false,
      "taf_trigger": false,
      "metar": "METAR LEMG 092200Z 27004KT CAVOK 17/12 Q1013 NOSIG",
      "taf": "TAF LEMG 091700Z 0918/1018 29005KT 9999 FEW015 SCT025 TX24/1014Z TN14/1007Z"
    },
    {
      "icao": "LEVC",
      "alert": "OK",
      "vis_m": 9999,
      "fzfg": false,
      "metar_trigger": false,
      "taf_trigger": false,
      "metar": "METAR LEVC 092200Z 31003KT 280V340 CAVOK 14/07 Q1019 NOSIG",
      "taf": "TAF LEVC 091700Z 0918/1018 VRB04KT 9999 FEW010 TX26/1013Z TN13/1006Z"
    },
    {
      "icao": "LEXJ",
      "alert": "OK",
      "vis_m": 7000,
      "fzfg": false,
      "metar_trigger": false,
      "taf_trigger": false,
      "metar": "METAR LEXJ 092200Z AUTO 25005KT 220V280 7000 BKN016 14/11 Q1024",
      "taf": "TAF LEXJ 092000Z 0921/1021 28007KT 9000 SCT010 TX24/1014Z TN12/1007Z"
    },
    {
      "icao": "LEZG",
      "alert": "OK",
      "vis_m": 9999,
      "fzfg": false,
      "metar_trigger": false,
      "taf_trigger": false,
      "metar": "METAR LEZG 092200Z 28012KT CAVOK 19/08 Q1019 NOSIG",
      "taf": "TAF LEZG 091700Z 0918/1018 VRB03KT CAVOK TX31/1015Z TN12/1006Z"
    },
    {
      "icao": "LEZL",
      "alert": "OK",
      "vis_m": 9999,
      "fzfg": false,
      "metar_trigger": false,
      "taf_trigger": false,
      "metar": "METAR LEZL 092200Z 22003KT 190V250 CAVOK 17/12 Q1014 NOSIG",
      "taf": "TAF LEZL 092000Z 0921/1021 21006KT CAVOK TX26/1015Z TN11/1007Z"
    },
    {
      "icao": "LFBD",
      "alert": "OK",
      "vis_m": 9999,
      "fzfg": false,
      "metar_trigger": false,
      "taf_trigger": false,
      "metar": "METAR LFBD 092200Z AUTO 25007KT CAVOK 14/13 Q1020 BECMG 3000 BR BKN002",
      "taf": "TAF LFBD 091700Z 0918/1024 30010KT CAVOK TX26/1015Z TN13/1001Z"
    },
    {
      "icao": "LFLL",
      "alert": "OK",
      "vis_m": 9999,
      "fzfg": false,
      "metar_trigger": false,
      "taf_trigger": false,
      "metar": "METAR LFLL 092200Z VRB01KT CAVOK 16/09 Q1017 NOSIG",
      "taf": "TAF LFLL 091700Z 0918/1024 VRB02KT CAVOK"
    },
    {
      "icao": "LFLS",
      "alert": "OK",
      "vis_m": 9999,
      "fzfg": false,
      "metar_trigger": false,
      "taf_trigger": false,
      "metar": "METAR LFLS 092200Z AUTO 10005KT CAVOK 10/07 Q1018",
      "taf": "TAF LFLS 091400Z 0915/1015 09005KT CAVOK"
    },
    {
      "icao": "LFMN",
      "alert": "OK",
      "vis_m": 9999,
      "fzfg": false,
      "metar_trigger": false,
      "taf_trigger": false,
      "metar": "METAR LFMN 092200Z 08006KT 9999 BKN014 16/13 Q1015 NOSIG",
      "taf": "TAF LFMN 092000Z 0921/1103 VRB03KT 9999 FEW012"
    },
    {
      "icao": "LFOB",
      "alert": "OK",
      "vis_m": 9999,
      "fzfg": false,
      "metar_trigger": false,
      "taf_trigger": false,
      "metar": "METAR LFOB 092200Z AUTO 30015KT 9999 FEW023 SCT140 BKN250 11/07 Q1020 TEMPO BKN014 BECMG 31015G25KT",
      "taf": "TAF LFOB 091700Z 0918/1018 31015G25KT CAVOK"
    },
    {
      "icao": "LFPO",
      "alert": "OK",
      "vis_m": 9999,
      "fzfg": false,
      "metar_trigger": false,
      "taf_trigger": false,
      "metar": "METAR LFPO 092200Z 32013KT CAVOK 13/07 Q1020 NOSIG",
      "taf": "TAF LFPO 091700Z 0918/1024 27008KT CAVOK"
    },
    {
      "icao": "LFSB",
      "alert": "OK",
      "vis_m": 9999,
      "fzfg": false,
      "metar_trigger": false,
      "taf_trigger": false,
      "metar": "METAR LFSB 092200Z AUTO VRB03KT CAVOK 11/06 Q1017 NOSIG",
      "taf": "TAF LFSB 091700Z 0918/1018 VRB03KT CAVOK"
    },
    {
      "icao": "LGAV",
      "alert": "OK",
      "vis_m": 9999,
      "fzfg": false,
      "metar_trigger": false,
      "taf_trigger": false,
      "metar": "METAR LGAV 092150Z 26003KT 9999 FEW040 09/06 Q1015 NOSIG",
      "taf": "TAF LGAV 091700Z 0918/1018 VRB05KT 9999 SCT030"
    },
    {
      "icao": "LGTS",
      "alert": "OK",
      "vis_m": 9999,
      "fzfg": false,
      "metar_trigger": false,
      "taf_trigger": false,
      "metar": "METAR LGTS 092150Z 10005KT 9999 FEW020 08/06 Q1015 NOSIG",
      "taf": "TAF LGTS 091700Z 0918/1018 VRB03KT 9999 FEW025"
    },
    {
      "icao": "LHBP",
      "alert": "OK",
      "vis_m": 9999,
      "fzfg": false,
      "metar_trigger": false,
      "taf_trigger": false,
      "metar": "METAR LHBP 092200Z 08008KT CAVOK 03/M01 Q1019 NOSIG",
      "taf": "TAF LHBP 091715Z 0918/1018 30009KT CAVOK"
    },
    {
      "icao": "LHDC",
      "alert": "OK",
      "vis_m": 9999,
      "fzfg": false,
      "metar_trigger": false,
      "taf_trigger": false,
      "metar": "METAR LHDC 092145Z AUTO 03009KT 330V060 9999 -RA OVC035 04/M01 Q1020",
      "taf": "TAF LHDC 091415Z 0915/0924 03008KT CAVOK"
    },
    {
      "icao": "LIBD",
      "alert": "OK",
      "vis_m": 9999,
      "fzfg": false,
      "metar_trigger": false,
      "taf_trigger": false,
      "metar": "METAR LIBD 092150Z 24006KT CAVOK 11/05 Q1015",
      "taf": "TAF LIBD 091700Z 0918/1018 22006KT CAVOK"
    },
    {
      "icao": "LIBG",
      "alert": "OK",
      "vis_m": null,
      "fzfg": false,
      "metar_trigger": false,
      "taf_trigger": false,
      "metar": "",
      "taf": "TAF LIBG 091400Z 0915/0924 01012KT CAVOK"
    },
    {
      "icao": "LIBP",
      "alert": "OK",
      "vis_m": 9999,
      "fzfg": false,
      "metar_trigger": false,
      "taf_trigger": false,
      "metar": "METAR LIBP 092150Z AUTO 20004KT 9999 NCD 09/08 Q1015",
      "taf": "TAF LIBP 091700Z 0918/1018 VRB05KT CAVOK"
    },
    {
      "icao": "LIBR",
      "alert": "OK",
      "vis_m": 9999,
      "fzfg": false,
      "metar_trigger": false,
      "taf_trigger": false,
      "metar": "METAR LIBR 092150Z 24005KT CAVOK 12/03 Q1016",
      "taf": "TAF LIBR 091700Z 0918/1018 33011KT CAVOK"
    },
    {
      "icao": "LICA",
      "alert": "OK",
      "vis_m": 9999,
      "fzfg": false,
      "metar_trigger": false,
      "taf_trigger": false,
      "metar": "METAR LICA 092150Z AUTO 21004KT 9999 NCD 11/09 Q1017",
      "taf": "TAF LICA 091700Z 0918/1018 26012KT 9999 FEW020"
    },
    {
      "icao": "LICC",
      "alert": "OK",
      "vis_m": 9999,
      "fzfg": false,
      "metar_trigger": false,
      "taf_trigger": false,
      "metar": "METAR LICC 092150Z 24005KT CAVOK 11/06 Q1017",
      "taf": "TAF LICC 091700Z 0918/1018 VRB05KT CAVOK"
    },
    {
      "icao": "LICJ",
      "alert": "OK",
      "vis_m": 9999,
      "fzfg": false,
      "metar_trigger": false,
      "taf_trigger": false,
      "metar": "METAR LICJ 092150Z 22004KT CAVOK 15/08 Q1017",
      "taf": "TAF LICJ 091700Z 0918/1018 VRB05KT CAVOK"
    },
    {
      "icao": "LIMC",
      "alert": "OK",
      "vis_m": 9999,
      "fzfg": false,
      "metar_trigger": false,
      "taf_trigger": false,
      "metar": "METAR LIMC 092150Z VRB02KT CAVOK 12/09 Q1015 NOSIG",
      "taf": "TAF LIMC 091700Z 0918/1024 VRB05KT CAVOK"
    },
    {
      "icao": "LIME",
      "alert": "OK",
      "vis_m": 9999,
      "fzfg": false,
      "metar_trigger": false,
      "taf_trigger": false,
      "metar": "METAR LIME 092150Z 13007KT CAVOK 13/07 Q1015 NOSIG",
      "taf": "TAF LIME 091700Z 0918/1018 VRB05KT CAVOK"
    },
    {
      "icao": "LIMF",
      "alert": "OK",
      "vis_m": 9999,
      "fzfg": false,
      "metar_trigger": false,
      "taf_trigger": false,
      "metar": "METAR LIMF 092150Z 33003KT CAVOK 16/09 Q1014",
      "taf": "TAF LIMF 091700Z 0918/1018 VRB05KT CAVOK"
    },
    {
      "icao": "LIMJ",
      "alert": "OK",
      "vis_m": 9999,
      "fzfg": false,
      "metar_trigger": false,
      "taf_trigger": false,
      "metar": "METAR LIMJ 092150Z 04003KT CAVOK 14/11 Q1015",
      "taf": "TAF LIMJ 091700Z 0918/1018 VRB05KT 9999 FEW015"
    },
    {
      "icao": "LIPE",
      "alert": "OK",
      "vis_m": 9999,
      "fzfg": false,
      "metar_trigger": false,
      "taf_trigger": false,
      "metar": "METAR LIPE 092150Z 09004KT CAVOK 11/04 Q1015",
      "taf": "TAF LIPE 091700Z 0918/1018 10010KT CAVOK"
    },
    {
      "icao": "LIPH",
      "alert": "OK",
      "vis_m": 9999,
      "fzfg": false,
      "metar_trigger": false,
      "taf_trigger": false,
      "metar": "METAR LIPH 092050Z VRB01KT CAVOK 10/07 Q1016",
      "taf": "TAF LIPH 091700Z 0918/1018 VRB05KT CAVOK"
    },
    {
      "icao": "LIPQ",
      "alert": "OK",
      "vis_m": 9999,
      "fzfg": false,
      "metar_trigger": false,
      "taf_trigger": false,
      "metar": "METAR LIPQ 092150Z AUTO VRB02KT 9999 NCD 07/06 Q1016",
      "taf": "TAF LIPQ 091700Z 0918/1018 VRB05KT CAVOK"
    },
    {
      "icao": "LIPR",
      "alert": "OK",
      "vis_m": 9999,
      "fzfg": false,
      "metar_trigger": false,
      "taf_trigger": false,
      "metar": "METAR LIPR 092150Z AUTO 20001KT 9999 SCT069/// 11/09 Q1015",
      "taf": "TAF LIPR 091700Z 0918/1018 VRB05KT CAVOK"
    },
    {
      "icao": "LIPX",
      "alert": "OK",
      "vis_m": 9999,
      "fzfg": false,
      "metar_trigger": false,
      "taf_trigger": false,
      "metar": "METAR LIPX 092150Z 12003KT CAVOK 11/07 Q1016",
      "taf": "TAF LIPX 091700Z 0918/1018 10006KT CAVOK"
    },
    {
      "icao": "LIPY",
      "alert": "OK",
      "vis_m": 9999,
      "fzfg": false,
      "metar_trigger": false,
      "taf_trigger": false,
      "metar": "METAR LIPY 092150Z AUTO 19001KT 9999 FEW091/// 11/08 Q1015",
      "taf": "TAF LIPY 091700Z 0918/1018 VRB05KT CAVOK"
    },
    {
      "icao": "LIPZ",
      "alert": "OK",
      "vis_m": 9999,
      "fzfg": false,
      "metar_trigger": false,
      "taf_trigger": false,
      "metar": "METAR LIPZ 092150Z VRB01KT CAVOK 11/08 Q1016 NOSIG",
      "taf": "TAF LIPZ 091700Z 0918/1024 VRB05KT CAVOK"
    },
    {
      "icao": "LIRF",
      "alert": "OK",
      "vis_m": 9000,
      "fzfg": false,
      "metar_trigger": false,
      "taf_trigger": false,
      "metar": "METAR LIRF 092150Z 15003KT 120V220 9000 NSC 12/12 Q1016 NOSIG",
      "taf": ""
    },
    {
      "icao": "LIRN",
      "alert": "OK",
      "vis_m": 9999,
      "fzfg": false,
      "metar_trigger": false,
      "taf_trigger": false,
      "metar": "METAR LIRN 092150Z AUTO 13002KT 9999 FEW010/// 14/13 Q1017",
      "taf": "TAF LIRN 091700Z 0918/1018 VRB05KT 9999 FEW020"
    },
    {
      "icao": "LIRP",
      "alert": "OK",
      "vis_m": 6000,
      "fzfg": false,
      "metar_trigger": false,
      "taf_trigger": false,
      "metar": "METAR LIRP 092145Z 15004KT 6000 MIFG SCT070 10/09 Q1016 TEMPO 5000",
      "taf": "TAF LIRP 091700Z 0918/1018 25005KT CAVOK"
    },
    {
      "icao": "LIRZ",
      "alert": "OK",
      "vis_m": 9999,
      "fzfg": false,
      "metar_trigger": false,
      "taf_trigger": false,
      "metar": "METAR LIRZ 092150Z AUTO VRB02KT 9999 NCD 13/03 Q1016",
      "taf": "TAF LIRZ 091700Z 0918/1018 VRB05KT CAVOK"
    },
    {
      "icao": "LJLJ",
      "alert": "OK",
      "vis_m": 9999,
      "fzfg": false,
      "metar_trigger": false,
      "taf_trigger": false,
      "metar": "METAR LJLJ 092200Z VRB02KT CAVOK 03/M00 Q1017 NOSIG",
      "taf": "TAF LJLJ 091700Z 0918/1018 VRB02KT CAVOK"
    },
    {
      "icao": "LKMT",
      "alert": "OK",
      "vis_m": 9999,
      "fzfg": false,
      "metar_trigger": false,
      "taf_trigger": false,
      "metar": "METAR LKMT 092200Z 36003KT CAVOK M01/M03 Q1020 NOSIG",
      "taf": "TAF LKMT 091700Z 0918/1018 01008KT CAVOK"
    },
    {
      "icao": "LKPR",
      "alert": "OK",
      "vis_m": 9999,
      "fzfg": false,
      "metar_trigger": false,
      "taf_trigger": false,
      "metar": "METAR LKPR 092200Z 09008KT CAVOK 02/M06 Q1019 NOSIG",
      "taf": "TAF LKPR 092000Z 0921/1103 10006KT CAVOK"
    },
    {
      "icao": "LLBG",
      "alert": "OK",
      "vis_m": 9999,
      "fzfg": false,
      "metar_trigger": false,
      "taf_trigger": false,
      "metar": "METAR LLBG 092150Z 16004KT CAVOK 14/10 Q1015 NOSIG",
      "taf": "TAF LLBG 091704Z 0918/1018 VRB04KT CAVOK TX22/1010Z TN13/1003Z"
    },
    {
      "icao": "LMML",
      "alert": "OK",
      "vis_m": 9999,
      "fzfg": false,
      "metar_trigger": false,
      "taf_trigger": false,
      "metar": "METAR LMML 092145Z 26005KT CAVOK 14/08 Q1018 NOSIG",
      "taf": "TAF LMML 091700Z 0918/1018 VRB05KT CAVOK"
    },
    {
      "icao": "LOWW",
      "alert": "OK",
      "vis_m": 9999,
      "fzfg": false,
      "metar_trigger": false,
      "taf_trigger": false,
      "metar": "METAR LOWW 092150Z 01007KT CAVOK 03/M04 Q1019 NOSIG",
      "taf": "TAF LOWW 092015Z 0921/1103 36008KT CAVOK TX06/1011Z TN00/1004Z"
    },
    {
      "icao": "LPFR",
      "alert": "OK",
      "vis_m": 9999,
      "fzfg": false,
      "metar_trigger": false,
      "taf_trigger": false,
      "metar": "METAR LPFR 092200Z 19011KT 140V220 9999 -RA FEW015 16/13 Q1014",
      "taf": "TAF LPFR 091700Z 0918/1018 29007KT 9999 SCT030"
    },
    {
      "icao": "LPMA",
      "alert": "OK",
      "vis_m": 9999,
      "fzfg": false,
      "metar_trigger": false,
      "taf_trigger": false,
      "metar": "METAR LPMA 092200Z 35007KT 300V030 9999 -SHRA BKN015 16/10 Q1020",
      "taf": "TAF LPMA 091700Z 0918/1018 36015KT 9999 SCT015"
    },
    {
      "icao": "LPPR",
      "alert": "OK",
      "vis_m": 9999,
      "fzfg": false,
      "metar_trigger": false,
      "taf_trigger": false,
      "metar": "METAR LPPR 092200Z 07009KT CAVOK 23/13 Q1015",
      "taf": "TAF LPPR 091700Z 0918/1018 35008KT CAVOK"
    },
    {
      "icao": "LPPS",
      "alert": "OK",
      "vis_m": 9000,
      "fzfg": false,
      "metar_trigger": false,
      "taf_trigger": false,
      "metar": "METAR LPPS 092200Z 36012KT 9000 -SHRA SCT012 BKN030 14/13 Q1020",
      "taf": "TAF LPPS 091700Z 0918/1024 01015KT 9999 SCT012 SCT030"
    },
    {
      "icao": "LPPT",
      "alert": "OK",
      "vis_m": 9999,
      "fzfg": false,
      "metar_trigger": false,
      "taf_trigger": false,
      "metar": "METAR LPPT 092200Z 26003KT 220V280 CAVOK 17/13 Q1014",
      "taf": "TAF LPPT 091700Z 0918/1024 34012KT 9999 SCT030"
    },
    {
      "icao": "LQBK",
      "alert": "OK",
      "vis_m": 9999,
      "fzfg": false,
      "metar_trigger": false,
      "taf_trigger": false,
      "metar": "METAR LQBK 092200Z VRB02KT CAVOK 03/M01 Q1018 NOSIG",
      "taf": "TAF LQBK 091700Z 0918/1018 29005KT CAVOK TX15/1013Z TN00/1004Z"
    },
    {
      "icao": "LQSA",
      "alert": "OK",
      "vis_m": 9999,
      "fzfg": false,
      "metar_trigger": false,
      "taf_trigger": false,
      "metar": "METAR LQSA 092200Z 14003KT CAVOK 02/M04 Q1018",
      "taf": "TAF LQSA 091700Z 0918/1018 32006KT CAVOK TX17/1014Z TNM02/1005Z"
    },
    {
      "icao": "LQTZ",
      "alert": "OK",
      "vis_m": 9999,
      "fzfg": false,
      "metar_trigger": false,
      "taf_trigger": false,
      "metar": "METAR LQTZ 092200Z VRB01KT CAVOK 01/M01 Q1018",
      "taf": "TAF LQTZ 091700Z 0918/1018 VRB03KT CAVOK TX14/1013Z TNM01/1004Z"
    },
    {
      "icao": "LRBC",
      "alert": "OK",
      "vis_m": 9999,
      "fzfg": false,
      "metar_trigger": false,
      "taf_trigger": false,
      "metar": "METAR LRBC 092200Z 33008KT 9999 SCT039 03/M02 Q1018",
      "taf": "TAF LRBC 092000Z 0921/1006 34012KT 9999 SCT035"
    },
    {
      "icao": "LRBS",
      "alert": "OK",
      "vis_m": 9999,
      "fzfg": false,
      "metar_trigger": false,
      "taf_trigger": false,
      "metar": "METAR LRBS 092200Z 06005KT 9999 -RA SCT036 BKN041 BKN047 05/02 Q1018 NOSIG",
      "taf": "TAF LRBS 091700Z 0918/1018 VRB04KT CAVOK"
    },
    {
      "icao": "LRBV",
      "alert": "OK",
      "vis_m": 6000,
      "fzfg": false,
      "metar_trigger": false,
      "taf_trigger": false,
      "metar": "METAR LRBV 092200Z AUTO 09008KT 6000 -SN FEW006/// BKN013/// OVC019/// 00/M01 Q1016 RESN REUP",
      "taf": "TAF LRBV 092000Z 0921/1006 29006KT 9999 SCT020 BKN040"
    },
    {
      "icao": "LRCL",
      "alert": "OK",
      "vis_m": 9999,
      "fzfg": false,
      "metar_trigger": false,
      "taf_trigger": false,
      "metar": "METAR LRCL 092200Z VRB02KT 9999 BKN063 02/M03 Q1017",
      "taf": "TAF LRCL 092000Z 0921/1006 VRB04KT CAVOK"
    },
    {
      "icao": "LRCV",
      "alert": "OK",
      "vis_m": 9999,
      "fzfg": false,
      "metar_trigger": false,
      "taf_trigger": false,
      "metar": "METAR LRCV 092200Z 04006KT CAVOK 05/02 Q1016",
      "taf": "TAF LRCV 092000Z 0921/1006 VRB04KT CAVOK"
    },
    {
      "icao": "LRIA",
      "alert": "OK",
      "vis_m": 9999,
      "fzfg": false,
      "metar_trigger": false,
      "taf_trigger": false,
      "metar": "METAR LRIA 092200Z 30010KT 9999 -RA BKN010 02/01 Q1017",
      "taf": "TAF LRIA 092000Z 0921/1006 30009KT 9999 SCT025"
    },
    {
      "icao": "LROP",
      "alert": "OK",
      "vis_m": 9999,
      "fzfg": false,
      "metar_trigger": false,
      "taf_trigger": false,
      "metar": "METAR LROP 092200Z 11006KT 080V140 9999 -RA BKN041 06/01 Q1018 NOSIG",
      "taf": "TAF LROP 091700Z 0918/1018 VRB04KT CAVOK"
    },
    {
      "icao": "LRSB",
      "alert": "OK",
      "vis_m": 9999,
      "fzfg": false,
      "metar_trigger": false,
      "taf_trigger": false,
      "metar": "METAR LRSB 092200Z 25005KT 9999 BKN055 SCT070 02/01 Q1016",
      "taf": "TAF LRSB 091700Z 0918/1018 VRB04KT 9999 SCT045"
    },
    {
      "icao": "LRSM",
      "alert": "OK",
      "vis_m": 9999,
      "fzfg": false,
      "metar_trigger": false,
      "taf_trigger": false,
      "metar": "METAR LRSM 092200Z AUTO 15001KT 9999 SCT130/// M00/M05 Q1018",
      "taf": "TAF LRSM 092000Z 0921/1006 35006KT CAVOK"
    },
    {
      "icao": "LRSV",
      "alert": "OK",
      "vis_m": 9999,
      "fzfg": false,
      "metar_trigger": false,
      "taf_trigger": false,
      "metar": "METAR LRSV 092200Z 31009KT 9999 FEW035 01/M02 Q1017",
      "taf": "TAF LRSV 092000Z 0921/1006 32010KT 9999 SCT035"
    },
    {
      "icao": "LRTM",
      "alert": "OK",
      "vis_m": 9999,
      "fzfg": false,
      "metar_trigger": false,
      "taf_trigger": false,
      "metar": "METAR LRTM 092200Z 26003KT 110V270 CAVOK 01/M01 Q1017",
      "taf": "TAF LRTM 092000Z 0921/1006 VRB04KT CAVOK"
    },
    {
      "icao": "LRTR",
      "alert": "OK",
      "vis_m": 9999,
      "fzfg": false,
      "metar_trigger": false,
      "taf_trigger": false,
      "metar": "METAR LRTR 092200Z 08003KT 050V120 CAVOK 02/M00 Q1018 NOSIG",
      "taf": "TAF LRTR 091700Z 0918/1018 09007KT CAVOK"
    },
    {
      "icao": "LTAC",
      "alert": "OK",
      "vis_m": 9999,
      "fzfg": false,
      "metar_trigger": false,
      "taf_trigger": false,
      "metar": "METAR LTAC 092150Z VRB02KT 9999 SCT040 BKN080 03/M02 Q1012 NOSIG RMK RWY21C 00000KT RWY03L VRB01KT RWY21R 36001KT RWY03R VRB01KT RWY21L 00000KT",
      "taf": "TAF LTAC 091640Z 0918/1018 30008KT 9999 SCT040 BKN100"
    },
    {
      "icao": "LTFM",
      "alert": "OK",
      "vis_m": 9999,
      "fzfg": false,
      "metar_trigger": false,
      "taf_trigger": false,
      "metar": "METAR LTFM 092150Z 01007KT 9999 SCT035 BKN090 08/04 Q1016 NOSIG RMK RWY17L 01006KT RWY34L 35006KT RWY16R 34003KT 300V360 RWY36 01008KT RWY18 02008KT",
      "taf": "TAF LTFM 091640Z 0918/1024 VRB02KT 9999 SCT035 BKN090"
    },
    {
      "icao": "LUKK",
      "alert": "OK",
      "vis_m": 9000,
      "fzfg": false,
      "metar_trigger": false,
      "taf_trigger": false,
      "metar": "METAR LUKK 092200Z 35008KT 9000 -SHRA BKN010 BKN024CB 03/02 Q1016 TEMPO 5000 SHRA BKN012 BKN030CB",
      "taf": "TAF LUKK 091702Z 0918/1018 32009KT 9999 SCT040"
    },
    {
      "icao": "LWOH",
      "alert": "OK",
      "vis_m": null,
      "fzfg": false,
      "metar_trigger": false,
      "taf_trigger": false,
      "metar": "",
      "taf": "TAF LWOH 092025Z 0921/1021 34005KT CAVOK"
    },
    {
      "icao": "LWSK",
      "alert": "OK",
      "vis_m": 9999,
      "fzfg": false,
      "metar_trigger": false,
      "taf_trigger": false,
      "metar": "METAR LWSK 092150Z 36011KT CAVOK 08/M02 Q1017 NOSIG",
      "taf": "TAF LWSK 092025Z 0921/1021 02015KT CAVOK"
    },
    {
      "icao": "LYBE",
      "alert": "OK",
      "vis_m": 9999,
      "fzfg": false,
      "metar_trigger": false,
      "taf_trigger": false,
      "metar": "METAR LYBE 092200Z 18006KT CAVOK 06/00 Q1018 NOSIG",
      "taf": "TAF LYBE 091700Z 0918/1018 24005KT CAVOK TX13/1013Z TN01/1004Z"
    },
    {
      "icao": "LYNI",
      "alert": "OK",
      "vis_m": 9999,
      "fzfg": false,
      "metar_trigger": false,
      "taf_trigger": false,
      "metar": "METAR LYNI 092200Z 35004KT 9999 BKN080 07/M01 Q1018 NOSIG",
      "taf": "TAF LYNI 091700Z 0918/1018 32006KT 9999 SCT060 TX15/1012Z TN00/1004Z"
    },
    {
      "icao": "LYPG",
      "alert": "OK",
      "vis_m": 9999,
      "fzfg": false,
      "metar_trigger": false,
      "taf_trigger": false,
      "metar": "METAR LYPG 092200Z VRB01KT CAVOK 11/03 Q1015 NOSIG",
      "taf": "TAF LYPG 091700Z 0918/1018 32008KT CAVOK TX22/1013Z TN06/1004Z"
    },
    {
      "icao": "LZIB",
      "alert": "OK",
      "vis_m": 9999,
      "fzfg": false,
      "metar_trigger": false,
      "taf_trigger": false,
      "metar": "METAR LZIB 092200Z 03009KT CAVOK 04/M05 Q1019 NOSIG",
      "taf": "TAF LZIB 091715Z 0918/1018 34009KT CAVOK"
    },
    {
      "icao": "LZKZ",
      "alert": "OK",
      "vis_m": 9999,
      "fzfg": false,
      "metar_trigger": false,
      "taf_trigger": false,
      "metar": "METAR LZKZ 092200Z 02008KT CAVOK 02/M05 Q1019 NOSIG",
      "taf": "TAF LZKZ 091715Z 0918/1018 36007KT CAVOK"
    },
    {
      "icao": "LZTT",
      "alert": "OK",
      "vis_m": 9999,
      "fzfg": false,
      "metar_trigger": false,
      "taf_trigger": false,
      "metar": "METAR LZTT 092200Z 11006KT 9999 BKN036 M02/M06 Q1018",
      "taf": "TAF LZTT 091715Z 0918/1018 07007KT 9999 FEW050"
    },
    {
      "icao": "OEJN",
      "alert": "OK",
      "vis_m": 9999,
      "fzfg": false,
      "metar_trigger": false,
      "taf_trigger": false,
      "metar": "METAR OEJN 092200Z 35006KT CAVOK 22/12 Q1012 NOSIG",
      "taf": "TAF OEJN 091700Z 0918/1024 33010KT CAVOK"
    },
    {
      "icao": "OEMA",
      "alert": "OK",
      "vis_m": 9999,
      "fzfg": false,
      "metar_trigger": false,
      "taf_trigger": false,
      "metar": "METAR OEMA 092200Z 02005KT CAVOK 21/M10 Q1016 NOSIG",
      "taf": "TAF OEMA 091700Z 0918/1024 VRB03KT CAVOK"
    },
    {
      "icao": "OJAI",
      "alert": "OK",
      "vis_m": 5000,
      "fzfg": false,
      "metar_trigger": false,
      "taf_trigger": false,
      "metar": "METAR OJAI 092100Z 22002KT 5000 HZ NSC 08/03 Q1017 NOSIG",
      "taf": "TAF OJAI 091700Z 0918/1024 28010KT 5000 HZ NSC"
    },
    {
      "icao": "OMAA",
      "alert": "OK",
      "vis_m": null,
      "fzfg": false,
      "metar_trigger": false,
      "taf_trigger": false,
      "metar": "",
      "taf": ""
    },
    {
      "icao": "OMDB",
      "alert": "OK",
      "vis_m": null,
      "fzfg": false,
      "metar_trigger": false,
      "taf_trigger": false,
      "metar": "",
      "taf": ""
    },
    {
      "icao": "UAAA",
      "alert": "OK",
      "vis_m": 9999,
      "fzfg": false,
      "metar_trigger": false,
      "taf_trigger": false,
      "metar": "METAR UAAA 092200Z 17002MPS 9999 -SHRA BKN050CB OVC100 10/09 Q1020 NOSIG",
      "taf": "TAF UAAA 091704Z 0918/1018 17003G08MPS 5000 -SHRA BR BKN020CB OVC050 TX18/1008Z TN08/1001Z"
    },
    {
      "icao": "UBBB",
      "alert": "OK",
      "vis_m": 9999,
      "fzfg": false,
      "metar_trigger": false,
      "taf_trigger": false,
      "metar": "METAR UBBB 092200Z 32004KT CAVOK 08/06 Q1016 NOSIG",
      "taf": "TAF UBBB 091704Z 0918/1018 36008KT 9999 BKN020 TX15/1010Z TN07/1001Z"
    },
    {
      "icao": "UDSG",
      "alert": "OK",
      "vis_m": 9999,
      "fzfg": false,
      "metar_trigger": false,
      "taf_trigger": false,
      "metar": "METAR UDSG 092200Z 12004KT 9999 -SHSN BKN026CB 00/00 Q1013 NOSIG",
      "taf": "TAF UDSG 091658Z 0918/1018 24006KT 9999 BKN040"
    },
    {
      "icao": "UDYZ",
      "alert": "OK",
      "vis_m": 9999,
      "fzfg": false,
      "metar_trigger": false,
      "taf_trigger": false,
      "metar": "METAR UDYZ 092200Z 08003KT 9999 -SHRA OVC043CB 09/06 Q1012 NOSIG",
      "taf": ""
    },
    {
      "icao": "UGKO",
      "alert": "OK",
      "vis_m": 9999,
      "fzfg": false,
      "metar_trigger": false,
      "taf_trigger": false,
      "metar": "METAR UGKO 092200Z 08010KT CAVOK 06/03 Q1013 NOSIG",
      "taf": "TAF UGKO 091700Z 0918/1018 08010KT 9999 SCT020 OVC050 TX12/1011Z TN05/1003Z"
    }
  ]
}