{
  "ts_utc": "2026-04-02T02:53:03Z",
  "threshold_m": 150,
  "source": "stations_override.txt (ICAO list) + aviationweather.gov (METAR/TAF raw)",
  "station_count": 159,
  "stations": [
    {
      "icao": "BIKF",
      "alert": "OK",
      "vis_m": 9999,
      "fzfg": false,
      "metar_trigger": false,
      "taf_trigger": false,
      "metar": "METAR BIKF 020230Z 13033G44KT 9999 -RA FEW014 OVC042 04/00 Q0999",
      "taf": "TAF BIKF 020110Z 0203/0303 14038G52KT 5000 RASN BKN012 OVC020 TX03/0203Z TNM02/0303Z"
    },
    {
      "icao": "BKPR",
      "alert": "OK",
      "vis_m": 9999,
      "fzfg": false,
      "metar_trigger": false,
      "taf_trigger": false,
      "metar": "METAR BKPR 020230Z 01016KT 9999 -RA FEW015 BKN050 07/06 Q1000 NOSIG",
      "taf": "TAF BKPR 012330Z 0200/0224 02018KT 9999 SCT020 BKN040"
    },
    {
      "icao": "EBCI",
      "alert": "OK",
      "vis_m": 9999,
      "fzfg": false,
      "metar_trigger": false,
      "taf_trigger": false,
      "metar": "METAR EBCI 020220Z 21004KT CAVOK 05/02 Q1018 NOSIG",
      "taf": "TAF EBCI 012307Z 0200/0306 20005KT 9999 FEW040"
    },
    {
      "icao": "EDDB",
      "alert": "OK",
      "vis_m": 550,
      "fzfg": true,
      "metar_trigger": false,
      "taf_trigger": false,
      "metar": "METAR EDDB 020220Z AUTO 23003KT 0550 0400 R24R/0650N R24L/0600N FZFG FEW000 M00/M01 Q1019 TEMPO 1200 BCFG",
      "taf": "TAF EDDB 012300Z 0200/0224 24004KT CAVOK"
    },
    {
      "icao": "EDDH",
      "alert": "OK",
      "vis_m": 9999,
      "fzfg": false,
      "metar_trigger": false,
      "taf_trigger": false,
      "metar": "METAR EDDH 020220Z AUTO 16004KT CAVOK 04/01 Q1017 NOSIG",
      "taf": "TAF EDDH 012300Z 0200/0306 18004KT CAVOK"
    },
    {
      "icao": "EDDK",
      "alert": "OK",
      "vis_m": 9999,
      "fzfg": false,
      "metar_trigger": false,
      "taf_trigger": false,
      "metar": "METAR EDDK 020220Z AUTO VRB01KT CAVOK M00/M02 Q1018 NOSIG",
      "taf": "TAF EDDK 012300Z 0200/0306 12004KT CAVOK"
    },
    {
      "icao": "EDDN",
      "alert": "OK",
      "vis_m": 9999,
      "fzfg": false,
      "metar_trigger": false,
      "taf_trigger": false,
      "metar": "METAR EDDN 020220Z AUTO VRB01KT CAVOK M02/M03 Q1018",
      "taf": "TAF EDDN 012300Z 0200/0224 VRB02KT CAVOK"
    },
    {
      "icao": "EDDS",
      "alert": "OK",
      "vis_m": 9999,
      "fzfg": false,
      "metar_trigger": false,
      "taf_trigger": false,
      "metar": "METAR EDDS 020220Z AUTO 28001KT CAVOK 01/M02 Q1016",
      "taf": "TAF EDDS 012300Z 0200/0224 VRB01KT CAVOK"
    },
    {
      "icao": "EDFH",
      "alert": "OK",
      "vis_m": 9999,
      "fzfg": false,
      "metar_trigger": false,
      "taf_trigger": false,
      "metar": "METAR EDFH 020220Z 15006KT CAVOK 01/M02 Q1018",
      "taf": "TAF EDFH 012300Z 0200/0224 17004KT CAVOK"
    },
    {
      "icao": "EDJA",
      "alert": "OK",
      "vis_m": 9999,
      "fzfg": false,
      "metar_trigger": false,
      "taf_trigger": false,
      "metar": "METAR EDJA 020220Z AUTO 05005KT 9999 // NCD M01/M02 Q1015",
      "taf": "TAF EDJA 020200Z 0203/0212 05005KT 9999 FEW045"
    },
    {
      "icao": "EDLW",
      "alert": "OK",
      "vis_m": 9999,
      "fzfg": false,
      "metar_trigger": false,
      "taf_trigger": false,
      "metar": "METAR EDLW 020220Z AUTO 16008KT 9999 // NCD 04/M01 Q1017",
      "taf": "TAF EDLW 011700Z 0118/0218 07004KT CAVOK"
    },
    {
      "icao": "EDNY",
      "alert": "OK",
      "vis_m": 9999,
      "fzfg": false,
      "metar_trigger": false,
      "taf_trigger": false,
      "metar": "METAR EDNY 020220Z AUTO 05005KT 9999 // NCD 01/M01 Q1016",
      "taf": "TAF EDNY 020200Z 0203/0212 04006KT CAVOK"
    },
    {
      "icao": "EDSB",
      "alert": "OK",
      "vis_m": 9999,
      "fzfg": false,
      "metar_trigger": false,
      "taf_trigger": false,
      "metar": "METAR EDSB 020220Z AUTO 05006KT 9999 // NCD 00/M01 Q1018",
      "taf": "TAF EDSB 012300Z 0200/0224 VRB02KT CAVOK"
    },
    {
      "icao": "EETN",
      "alert": "OK",
      "vis_m": 9999,
      "fzfg": false,
      "metar_trigger": false,
      "taf_trigger": false,
      "metar": "METAR EETN 020220Z 19006KT CAVOK M01/M02 Q1015",
      "taf": "TAF EETN 012330Z 0200/0209 19008KT 9999 SCT005"
    },
    {
      "icao": "EFTU",
      "alert": "OK",
      "vis_m": 9999,
      "fzfg": false,
      "metar_trigger": false,
      "taf_trigger": false,
      "metar": "METAR EFTU 020250Z AUTO 19005KT 160V240 CAVOK 02/01 Q1011",
      "taf": "TAF EFTU 020238Z 0203/0303 20007KT CAVOK"
    },
    {
      "icao": "EGBB",
      "alert": "OK",
      "vis_m": 9999,
      "fzfg": false,
      "metar_trigger": false,
      "taf_trigger": false,
      "metar": "METAR EGBB 020220Z 33006KT 300V360 9999 FEW031 05/03 Q1021",
      "taf": "TAF EGBB 012256Z 0200/0224 33010KT 9999 FEW030"
    },
    {
      "icao": "EGGP",
      "alert": "OK",
      "vis_m": 9999,
      "fzfg": false,
      "metar_trigger": false,
      "taf_trigger": false,
      "metar": "METAR EGGP 020220Z 31005KT 9999 FEW019 BKN033 06/03 Q1021",
      "taf": ""
    },
    {
      "icao": "EGGW",
      "alert": "OK",
      "vis_m": 9999,
      "fzfg": false,
      "metar_trigger": false,
      "taf_trigger": false,
      "metar": "METAR EGGW 020220Z AUTO 32016KT 9999 NCD 07/01 Q1019",
      "taf": "TAF EGGW 012253Z 0200/0224 28010KT 9999 SCT030"
    },
    {
      "icao": "EGKK",
      "alert": "OK",
      "vis_m": 9999,
      "fzfg": false,
      "metar_trigger": false,
      "taf_trigger": false,
      "metar": "METAR EGKK 020220Z 30005KT 9999 BKN028 10/07 Q1019",
      "taf": "TAF EGKK 012253Z 0200/0306 26005KT 9999 FEW040"
    },
    {
      "icao": "EGNM",
      "alert": "OK",
      "vis_m": null,
      "fzfg": false,
      "metar_trigger": false,
      "taf_trigger": false,
      "metar": "",
      "taf": "TAF EGNM 012256Z 0200/0224 36010KT 9999 FEW015 SCT030"
    },
    {
      "icao": "EGPD",
      "alert": "OK",
      "vis_m": 9999,
      "fzfg": false,
      "metar_trigger": false,
      "taf_trigger": false,
      "metar": "METAR EGPD 020220Z COR AUTO 28009KT 9999 NCD 02/00 Q1021 NOSIG",
      "taf": "TAF EGPD 012255Z 0200/0224 29007KT 9999 SCT035"
    },
    {
      "icao": "EGPF",
      "alert": "OK",
      "vis_m": 9999,
      "fzfg": false,
      "metar_trigger": false,
      "taf_trigger": false,
      "metar": "METAR EGPF 020220Z AUTO 23003KT 9999 NCD M01/M02 Q1023",
      "taf": "TAF EGPF 012246Z 0200/0224 VRB02KT 9999 SCT040"
    },
    {
      "icao": "EHBK",
      "alert": "OK",
      "vis_m": 9999,
      "fzfg": false,
      "metar_trigger": false,
      "taf_trigger": false,
      "metar": "METAR EHBK 020225Z AUTO 20007KT 9999 NCD 04/M01 Q1018",
      "taf": "TAF EHBK 012308Z 0200/0306 19006KT CAVOK"
    },
    {
      "icao": "EHEH",
      "alert": "OK",
      "vis_m": 9999,
      "fzfg": false,
      "metar_trigger": false,
      "taf_trigger": false,
      "metar": "METAR EHEH 020225Z AUTO 17004KT 9999 OVC077 05/01 Q1017 BLU",
      "taf": "TAF EHEH 012323Z 0200/0306 19002KT CAVOK"
    },
    {
      "icao": "EKBI",
      "alert": "OK",
      "vis_m": 9999,
      "fzfg": false,
      "metar_trigger": false,
      "taf_trigger": false,
      "metar": "METAR EKBI 020220Z AUTO 16003KT 9999 OVC022/// 05/02 Q1015",
      "taf": "TAF EKBI 020227Z 0203/0303 19006KT 9999 FEW030"
    },
    {
      "icao": "EKCH",
      "alert": "OK",
      "vis_m": 9999,
      "fzfg": false,
      "metar_trigger": false,
      "taf_trigger": false,
      "metar": "METAR EKCH 020220Z AUTO 21004KT 9999 NCD 01/01 Q1017 NOSIG",
      "taf": "TAF EKCH 020227Z 0203/0303 24005KT CAVOK"
    },
    {
      "icao": "ENAL",
      "alert": "OK",
      "vis_m": 9999,
      "fzfg": false,
      "metar_trigger": false,
      "taf_trigger": false,
      "metar": "METAR ENAL 020220Z AUTO VRB04KT 9999 -RA SCT017/// SCT025/// BKN041/// 01/M00 Q1014 RESN",
      "taf": "TAF ENAL 020200Z 0203/0212 32008KT 9999 FEW015 BKN030"
    },
    {
      "icao": "ENBR",
      "alert": "OK",
      "vis_m": 9999,
      "fzfg": false,
      "metar_trigger": false,
      "taf_trigger": false,
      "metar": "METAR ENBR 020220Z AUTO 33014KT 9999 NCD 02/M03 Q1012 RMK WIND 1200FT 35020KT",
      "taf": "TAF ENBR 012300Z 0200/0224 34012KT 9999 SCT030"
    },
    {
      "icao": "ENGM",
      "alert": "OK",
      "vis_m": 9999,
      "fzfg": false,
      "metar_trigger": false,
      "taf_trigger": false,
      "metar": "METAR ENGM 020220Z 18007KT CAVOK 05/03 Q1008",
      "taf": "TAF ENGM 012300Z 0200/0224 20008KT 9999 BKN018"
    },
    {
      "icao": "ENHD",
      "alert": "OK",
      "vis_m": 9999,
      "fzfg": false,
      "metar_trigger": false,
      "taf_trigger": false,
      "metar": "METAR ENHD 020220Z AUTO 35024KT 9999 -RA SCT014/// BKN032/// BKN048/// 04/01 Q1010",
      "taf": "TAF ENHD 020200Z 0203/0212 35022KT 9999 FEW015 SCT040"
    },
    {
      "icao": "ENTC",
      "alert": "OK",
      "vis_m": 1500,
      "fzfg": false,
      "metar_trigger": false,
      "taf_trigger": false,
      "metar": "METAR ENTC 020220Z AUTO 21029KT 1500 -SN VV013 01/M01 Q0994 RMK WIND 2600FT 20035G49KT",
      "taf": ""
    },
    {
      "icao": "ENTO",
      "alert": "OK",
      "vis_m": 550,
      "fzfg": false,
      "metar_trigger": false,
      "taf_trigger": false,
      "metar": "METAR ENTO 020220Z AUTO 21010KT 0550 R18/1800N R36/P2000N FG VV002 05/05 Q1010",
      "taf": "TAF ENTO 012300Z 0200/0224 21010KT 9999 OVC004"
    },
    {
      "icao": "ENVA",
      "alert": "OK",
      "vis_m": 9999,
      "fzfg": false,
      "metar_trigger": false,
      "taf_trigger": false,
      "metar": "METAR ENVA 020220Z 26003KT 9999 FEW014 SCT021 BKN025 01/01 Q1012 RESN RMK WIND 670FT 24005KT",
      "taf": "TAF ENVA 012300Z 0200/0224 24005KT 8000 -RASN SCT007 BKN016"
    },
    {
      "icao": "ENZV",
      "alert": "OK",
      "vis_m": 9999,
      "fzfg": false,
      "metar_trigger": false,
      "taf_trigger": false,
      "metar": "METAR ENZV 020220Z 34014KT 9999 -SHRA BKN008 OVC009 03/02 Q1010",
      "taf": ""
    },
    {
      "icao": "EPGD",
      "alert": "OK",
      "vis_m": 8000,
      "fzfg": false,
      "metar_trigger": false,
      "taf_trigger": false,
      "metar": "METAR EPGD 020230Z 34002KT 8000 NSC M03/M03 Q1018",
      "taf": ""
    },
    {
      "icao": "EPKK",
      "alert": "OK",
      "vis_m": 4500,
      "fzfg": false,
      "metar_trigger": false,
      "taf_trigger": false,
      "metar": "METAR EPKK 020230Z 24003KT 4500 BR SCT047 02/01 Q1014",
      "taf": "TAF EPKK 020230Z 0203/0303 21003KT 5000 BR BKN047"
    },
    {
      "icao": "EPKT",
      "alert": "OK",
      "vis_m": 9999,
      "fzfg": false,
      "metar_trigger": false,
      "taf_trigger": false,
      "metar": "METAR EPKT 020230Z 35006KT CAVOK 04/M01 Q1015",
      "taf": "TAF EPKT 012330Z 0200/0224 36003KT CAVOK"
    },
    {
      "icao": "EPLB",
      "alert": "OK",
      "vis_m": 9999,
      "fzfg": false,
      "metar_trigger": false,
      "taf_trigger": false,
      "metar": "METAR EPLB 020230Z 33004KT CAVOK 06/00 Q1014",
      "taf": "TAF EPLB 012330Z 0200/0224 36008KT CAVOK"
    },
    {
      "icao": "EPMO",
      "alert": "OK",
      "vis_m": 9999,
      "fzfg": false,
      "metar_trigger": false,
      "taf_trigger": false,
      "metar": "METAR EPMO 020230Z 36003KT 310V030 CAVOK 00/M03 Q1017",
      "taf": "TAF EPMO 012330Z 0200/0224 36008KT CAVOK"
    },
    {
      "icao": "EPPO",
      "alert": "OK",
      "vis_m": 7000,
      "fzfg": false,
      "metar_trigger": false,
      "taf_trigger": false,
      "metar": "METAR EPPO 020230Z 30002KT 7000 0500NW BCFG NSC M01/M02 Q1018",
      "taf": "TAF EPPO 012330Z 0200/0224 33003KT CAVOK"
    },
    {
      "icao": "EPRA",
      "alert": "OK",
      "vis_m": 9999,
      "fzfg": false,
      "metar_trigger": false,
      "taf_trigger": false,
      "metar": "METAR EPRA 020230Z 36006KT CAVOK 06/M02 Q1015",
      "taf": "TAF EPRA 020230Z 0203/0212 36006KT CAVOK"
    },
    {
      "icao": "EPRZ",
      "alert": "OK",
      "vis_m": 9999,
      "fzfg": false,
      "metar_trigger": false,
      "taf_trigger": false,
      "metar": "METAR EPRZ 020230Z 31004KT CAVOK 05/02 Q1013",
      "taf": "TAF EPRZ 012330Z 0200/0224 29004KT 9999 BKN040"
    },
    {
      "icao": "EPSC",
      "alert": "OK",
      "vis_m": 9999,
      "fzfg": false,
      "metar_trigger": false,
      "taf_trigger": false,
      "metar": "METAR EPSC 020230Z 08001KT 9999 FEW046 M01/M02 Q1018",
      "taf": "TAF EPSC 012330Z 0200/0224 VRB01KT CAVOK"
    },
    {
      "icao": "EPSY",
      "alert": "OK",
      "vis_m": 9999,
      "fzfg": false,
      "metar_trigger": false,
      "taf_trigger": false,
      "metar": "METAR EPSY 020230Z VRB02KT CAVOK M04/M05 Q1018",
      "taf": "TAF EPSY 020230Z 0203/0212 02006KT CAVOK"
    },
    {
      "icao": "EPWA",
      "alert": "OK",
      "vis_m": 9999,
      "fzfg": false,
      "metar_trigger": false,
      "taf_trigger": false,
      "metar": "METAR EPWA 020230Z 01006KT CAVOK 04/M02 Q1017 NOSIG",
      "taf": "TAF EPWA 020230Z 0203/0303 02006KT CAVOK"
    },
    {
      "icao": "EPWR",
      "alert": "OK",
      "vis_m": 9999,
      "fzfg": false,
      "metar_trigger": false,
      "taf_trigger": false,
      "metar": "METAR EPWR 020230Z 28005KT CAVOK 00/M01 Q1017",
      "taf": "TAF EPWR 020230Z 0203/0303 30004KT CAVOK"
    },
    {
      "icao": "ESGG",
      "alert": "OK",
      "vis_m": 2100,
      "fzfg": false,
      "metar_trigger": false,
      "taf_trigger": false,
      "metar": "METAR ESGG 020220Z 19008KT 2100 BR VV003 06/05 Q1014 REDZ",
      "taf": "TAF ESGG 020230Z 0203/0303 20009KT 9999 BKN008"
    },
    {
      "icao": "ESKN",
      "alert": "OK",
      "vis_m": 9999,
      "fzfg": false,
      "metar_trigger": false,
      "taf_trigger": false,
      "metar": "METAR ESKN 020220Z 23007KT 9999 FEW018 BKN058 08/05 Q1013",
      "taf": "TAF ESKN 020230Z 0203/0303 23008KT CAVOK"
    },
    {
      "icao": "ESMS",
      "alert": "OK",
      "vis_m": 9999,
      "fzfg": false,
      "metar_trigger": false,
      "taf_trigger": false,
      "metar": "METAR ESMS 020220Z 19004KT CAVOK M00/M00 Q1017",
      "taf": "TAF ESMS 020227Z 0203/0303 23007KT CAVOK"
    },
    {
      "icao": "ESSA",
      "alert": "OK",
      "vis_m": 9999,
      "fzfg": false,
      "metar_trigger": false,
      "taf_trigger": false,
      "metar": "METAR ESSA 020220Z 21009KT 9999 BKN021 06/04 Q1011 NOSIG",
      "taf": "TAF ESSA 020230Z 0203/0303 22008KT 9999 BKN020"
    },
    {
      "icao": "EYKA",
      "alert": "OK",
      "vis_m": 9999,
      "fzfg": false,
      "metar_trigger": false,
      "taf_trigger": false,
      "metar": "METAR EYKA 020250Z 31003KT CAVOK M01/M03 Q1017",
      "taf": "TAF EYKA 012300Z 0200/0224 VRB03KT 9000 NSC"
    },
    {
      "icao": "EYPA",
      "alert": "OK",
      "vis_m": 600,
      "fzfg": true,
      "metar_trigger": false,
      "taf_trigger": false,
      "metar": "METAR EYPA 020250Z 17004KT 0600 R19/0800N FZFG VV001 M02/M03 Q1018",
      "taf": "TAF EYPA 012300Z 0200/0224 VRB03KT 9000 SCT005"
    },
    {
      "icao": "EYVI",
      "alert": "OK",
      "vis_m": 9999,
      "fzfg": false,
      "metar_trigger": false,
      "taf_trigger": false,
      "metar": "METAR EYVI 020250Z 35005KT CAVOK 00/M03 Q1016 NOSIG",
      "taf": "TAF EYVI 012300Z 0200/0224 35007KT 9000 NSC"
    },
    {
      "icao": "GCFV",
      "alert": "OK",
      "vis_m": 9999,
      "fzfg": false,
      "metar_trigger": false,
      "taf_trigger": false,
      "metar": "METAR GCFV 020230Z AUTO 35007KT CAVOK 16/11 Q1019",
      "taf": "TAF GCFV 020200Z 0203/0303 36007KT CAVOK TX24/0214Z TN16/0206Z"
    },
    {
      "icao": "GCLP",
      "alert": "OK",
      "vis_m": 9999,
      "fzfg": false,
      "metar_trigger": false,
      "taf_trigger": false,
      "metar": "METAR GCLP 020230Z 36008KT CAVOK 19/05 Q1019 NOSIG",
      "taf": "TAF GCLP 020200Z 0203/0303 36012KT CAVOK TX24/0214Z TN18/0206Z"
    },
    {
      "icao": "GCTS",
      "alert": "OK",
      "vis_m": 9999,
      "fzfg": false,
      "metar_trigger": false,
      "taf_trigger": false,
      "metar": "METAR GCTS 020230Z 07015KT CAVOK 21/01 Q1018 WS R07 NOSIG",
      "taf": "TAF GCTS 020200Z 0203/0303 05014KT CAVOK TX25/0214Z TN17/0206Z"
    },
    {
      "icao": "GMAD",
      "alert": "OK",
      "vis_m": 8000,
      "fzfg": false,
      "metar_trigger": false,
      "taf_trigger": false,
      "metar": "METAR GMAD 020230Z 10003KT 8000 SCT020 11/11 Q1015 NOSIG",
      "taf": "TAF GMAD 012300Z 0200/0306 18006KT 6000 BKN013"
    },
    {
      "icao": "GMMN",
      "alert": "OK",
      "vis_m": 6000,
      "fzfg": false,
      "metar_trigger": false,
      "taf_trigger": false,
      "metar": "METAR GMMN 020230Z 13005KT 6000 BKN016 08/07 Q1019 NOSIG",
      "taf": "TAF GMMN 012300Z 0200/0306 04005KT 9999 BKN016"
    },
    {
      "icao": "GMMX",
      "alert": "OK",
      "vis_m": 9999,
      "fzfg": false,
      "metar_trigger": false,
      "taf_trigger": false,
      "metar": "METAR GMMX 020230Z VRB02KT CAVOK 14/09 Q1017 NOSIG",
      "taf": "TAF GMMX 012300Z 0200/0306 06006KT CAVOK"
    },
    {
      "icao": "HEGN",
      "alert": "OK",
      "vis_m": 9999,
      "fzfg": false,
      "metar_trigger": false,
      "taf_trigger": false,
      "metar": "METAR HEGN 020200Z 00000KT 9999 SCT020 BKN025 22/06 Q1006 NOSIG",
      "taf": "TAF HEGN 012300Z 0200/0306 19006G16KT 9999 BKN020"
    },
    {
      "icao": "HEMA",
      "alert": "OK",
      "vis_m": 9999,
      "fzfg": false,
      "metar_trigger": false,
      "taf_trigger": false,
      "metar": "METAR HEMA 020200Z 00000KT CAVOK 20/17 Q1005 NOSIG",
      "taf": "TAF HEMA 012300Z 0200/0306 17008KT 9999 BKN020"
    },
    {
      "icao": "HESH",
      "alert": "OK",
      "vis_m": 9999,
      "fzfg": false,
      "metar_trigger": false,
      "taf_trigger": false,
      "metar": "METAR HESH 020200Z 33006KT CAVOK 24/09 Q1008 NOSIG",
      "taf": "TAF HESH 012300Z 0200/0306 30013KT 9999 BKN020"
    },
    {
      "icao": "HESX",
      "alert": "OK",
      "vis_m": 9999,
      "fzfg": false,
      "metar_trigger": false,
      "taf_trigger": false,
      "metar": "METAR HESX 020200Z 17010KT CAVOK 19/15 Q1005 NOSIG",
      "taf": "TAF HESX 012300Z 0200/0306 15015KT 9999 SCT025 BKN070"
    },
    {
      "icao": "LATI",
      "alert": "OK",
      "vis_m": 9999,
      "fzfg": false,
      "metar_trigger": false,
      "taf_trigger": false,
      "metar": "METAR LATI 020250Z 33010KT 9999 BKN064 OVC080 13/05 Q0993 NOSIG",
      "taf": ""
    },
    {
      "icao": "LBPD",
      "alert": "OK",
      "vis_m": 9999,
      "fzfg": false,
      "metar_trigger": false,
      "taf_trigger": false,
      "metar": "METAR LBPD 020230Z AUTO 12007KT 9999 -RA SCT008/// BKN010/// OVC013/// 08/08 Q1002",
      "taf": "TAF LBPD 012300Z 0200/0224 11010KT 3000 RA SCT010 BKN015 OVC030"
    },
    {
      "icao": "LBSF",
      "alert": "OK",
      "vis_m": 9999,
      "fzfg": false,
      "metar_trigger": false,
      "taf_trigger": false,
      "metar": "METAR LBSF 020230Z AUTO 12009KT 9999 -RA BKN036/// BKN052/// OVC062/// 06/05 Q1001 NOSIG",
      "taf": "TAF LBSF 012300Z 0200/0224 09010KT 4000 RA SCT008 BKN015 OVC030"
    },
    {
      "icao": "LBWN",
      "alert": "OK",
      "vis_m": 9999,
      "fzfg": false,
      "metar_trigger": false,
      "taf_trigger": false,
      "metar": "METAR LBWN 020230Z AUTO 06010KT 020V090 9999 -RA OVC009/// 09/09 Q1004 TEMPO 5000 RA",
      "taf": "TAF LBWN 012300Z 0200/0224 05014KT 9999 BKN013 OVC020"
    },
    {
      "icao": "LCLK",
      "alert": "OK",
      "vis_m": 8000,
      "fzfg": false,
      "metar_trigger": false,
      "taf_trigger": false,
      "metar": "METAR LCLK 020230Z 05011KT 8000 -RA SCT016 FEW021TCU OVC027 16/15 Q1006 NOSIG RMK RAIN",
      "taf": "TAF LCLK 012330Z 0200/0300 08014KT 9999 SCT035"
    },
    {
      "icao": "LCPH",
      "alert": "OK",
      "vis_m": 9999,
      "fzfg": false,
      "metar_trigger": false,
      "taf_trigger": false,
      "metar": "METAR LCPH 020230Z AUTO 09009KT 9999 -RA BKN060 18/16 Q1004 NOSIG",
      "taf": "TAF LCPH 012330Z 0200/0300 11018KT 9999 SCT040"
    },
    {
      "icao": "LEAL",
      "alert": "OK",
      "vis_m": 9999,
      "fzfg": false,
      "metar_trigger": false,
      "taf_trigger": false,
      "metar": "METAR LEAL 020230Z 06001KT CAVOK 12/03 Q1014 NOSIG",
      "taf": "TAF LEAL 012300Z 0200/0224 32006KT CAVOK TX21/0212Z TN10/0205Z"
    },
    {
      "icao": "LEBB",
      "alert": "OK",
      "vis_m": 9999,
      "fzfg": false,
      "metar_trigger": false,
      "taf_trigger": false,
      "metar": "METAR LEBB 020230Z AUTO 29005KT 250V330 9999 SCT036 BKN042 OVC048 11/09 Q1024",
      "taf": "TAF LEBB 012300Z 0200/0224 32009KT 9999 FEW020 BKN030 TX13/0214Z TN09/0206Z"
    },
    {
      "icao": "LEBL",
      "alert": "OK",
      "vis_m": 9999,
      "fzfg": false,
      "metar_trigger": false,
      "taf_trigger": false,
      "metar": "METAR LEBL 020230Z 08006KT 050V110 9999 SCT040 12/08 Q1012 NOSIG",
      "taf": "TAF LEBL 012300Z 0200/0224 19008KT 9999 SCT020 SCT030 TX21/0213Z TN09/0206Z"
    },
    {
      "icao": "LECH",
      "alert": "OK",
      "vis_m": 9999,
      "fzfg": false,
      "metar_trigger": false,
      "taf_trigger": false,
      "metar": "METAR LECH 020230Z AUTO 34027G41KT 290V020 CAVOK 12/00 Q1013",
      "taf": "TAF LECH 012300Z 0200/0224 33020KT 9999 FEW050 TX19/0213Z TN11/0205Z"
    },
    {
      "icao": "LEMD",
      "alert": "OK",
      "vis_m": 9999,
      "fzfg": false,
      "metar_trigger": false,
      "taf_trigger": false,
      "metar": "METAR LEMD 020230Z 35002KT CAVOK 08/M02 Q1020 NOSIG",
      "taf": "TAF LEMD 012300Z 0200/0306 01012KT CAVOK TX18/0215Z TN04/0206Z"
    },
    {
      "icao": "LEMG",
      "alert": "OK",
      "vis_m": 9999,
      "fzfg": false,
      "metar_trigger": false,
      "taf_trigger": false,
      "metar": "METAR LEMG 020230Z 29009KT 260V320 CAVOK 15/05 Q1016 NOSIG",
      "taf": "TAF LEMG 012300Z 0200/0224 30010KT CAVOK TX24/0213Z TN09/0207Z"
    },
    {
      "icao": "LEVC",
      "alert": "OK",
      "vis_m": 9999,
      "fzfg": false,
      "metar_trigger": false,
      "taf_trigger": false,
      "metar": "METAR LEVC 020230Z 31013KT 280V340 CAVOK 15/M00 Q1015 NOSIG",
      "taf": "TAF LEVC 012300Z 0200/0224 32015KT CAVOK TX23/0214Z TN12/0205Z"
    },
    {
      "icao": "LEXJ",
      "alert": "OK",
      "vis_m": 9999,
      "fzfg": false,
      "metar_trigger": false,
      "taf_trigger": false,
      "metar": "METAR LEXJ 020230Z AUTO 27006KT 240V300 9999 SCT016 BKN027 BKN035 11/09 Q1025",
      "taf": "TAF LEXJ 020200Z 0203/0303 32009KT 9999 SCT010 BKN020 TX14/0215Z TN09/0303Z"
    },
    {
      "icao": "LEZG",
      "alert": "OK",
      "vis_m": 9999,
      "fzfg": false,
      "metar_trigger": false,
      "taf_trigger": false,
      "metar": "METAR LEZG 020230Z 31019KT 9999 SCT050 10/04 Q1018 NOSIG",
      "taf": "TAF LEZG 012300Z 0200/0224 29020KT 9999 FEW040 TX17/0214Z TN09/0205Z"
    },
    {
      "icao": "LEZL",
      "alert": "OK",
      "vis_m": 9999,
      "fzfg": false,
      "metar_trigger": false,
      "taf_trigger": false,
      "metar": "METAR LEZL 020230Z AUTO VRB01KT CAVOK 12/07 Q1018",
      "taf": "TAF LEZL 020200Z 0203/0303 VRB03KT CAVOK TX26/0215Z TN09/0207Z"
    },
    {
      "icao": "LFBD",
      "alert": "OK",
      "vis_m": 9999,
      "fzfg": false,
      "metar_trigger": false,
      "taf_trigger": false,
      "metar": "METAR LFBD 020230Z AUTO 33007KT 9999 OVC049 10/05 Q1021 NOSIG",
      "taf": "TAF LFBD 012300Z 0200/0306 32005KT 9999 BKN030 TX16/0214Z TN07/0305Z"
    },
    {
      "icao": "LFLL",
      "alert": "OK",
      "vis_m": 9999,
      "fzfg": false,
      "metar_trigger": false,
      "taf_trigger": false,
      "metar": "METAR LFLL 020230Z 35007KT CAVOK 03/M01 Q1015 NOSIG",
      "taf": "TAF LFLL 012300Z 0200/0306 35009KT CAVOK"
    },
    {
      "icao": "LFLS",
      "alert": "OK",
      "vis_m": 9999,
      "fzfg": false,
      "metar_trigger": false,
      "taf_trigger": false,
      "metar": "METAR LFLS 020230Z AUTO 13003KT CAVOK M04/M06 Q1014",
      "taf": "TAF LFLS 020200Z 0203/0303 23005KT CAVOK"
    },
    {
      "icao": "LFMN",
      "alert": "OK",
      "vis_m": 9999,
      "fzfg": false,
      "metar_trigger": false,
      "taf_trigger": false,
      "metar": "METAR LFMN 020230Z 33010KT 9999 FEW110 09/M05 Q1007 NOSIG",
      "taf": "TAF LFMN 020200Z 0203/0309 33010KT CAVOK"
    },
    {
      "icao": "LFOB",
      "alert": "OK",
      "vis_m": 6000,
      "fzfg": false,
      "metar_trigger": false,
      "taf_trigger": false,
      "metar": "METAR LFOB 020230Z AUTO 21006KT 180V240 6000 -RADZ SCT005/// BKN014/// BKN023/// ///TCU 09/08 Q1019 TEMPO 1200 RADZ BKN002 OVC007",
      "taf": ""
    },
    {
      "icao": "LFPO",
      "alert": "OK",
      "vis_m": 6000,
      "fzfg": false,
      "metar_trigger": false,
      "taf_trigger": false,
      "metar": "METAR LFPO 020230Z AUTO 00000KT 6000 1500 NSC 08/08 Q1019 TEMPO 4000 BR BKN003",
      "taf": "TAF LFPO 012300Z 0200/0306 VRB02KT 8000 BKN025"
    },
    {
      "icao": "LFSB",
      "alert": "OK",
      "vis_m": 9999,
      "fzfg": false,
      "metar_trigger": false,
      "taf_trigger": false,
      "metar": "METAR LFSB 020230Z AUTO 26003KT 9999 BKN044 00/M01 Q1017 NOSIG",
      "taf": "TAF LFSB 012300Z 0200/0224 VRB03KT 9999 FEW050"
    },
    {
      "icao": "LGAV",
      "alert": "OK",
      "vis_m": 9000,
      "fzfg": false,
      "metar_trigger": false,
      "taf_trigger": false,
      "metar": "METAR LGAV 020220Z 22010KT 9000 SCT015 BKN025 BKN070 13/10 Q0992 NOSIG",
      "taf": "TAF LGAV 012300Z 0200/0224 01025KT 9000 FEW015 BKN025 OVC070"
    },
    {
      "icao": "LGTS",
      "alert": "OK",
      "vis_m": 9999,
      "fzfg": false,
      "metar_trigger": false,
      "taf_trigger": false,
      "metar": "METAR LGTS 020220Z 02007KT 9999 -DZ FEW010 SCT025 12/07 Q0995 NOSIG",
      "taf": "TAF LGTS 012300Z 0200/0224 07015KT 9999 FEW010 BKN025"
    },
    {
      "icao": "LHBP",
      "alert": "OK",
      "vis_m": 9999,
      "fzfg": false,
      "metar_trigger": false,
      "taf_trigger": false,
      "metar": "METAR LHBP 020230Z 33008KT CAVOK 05/02 Q1010 NOSIG",
      "taf": "TAF LHBP 012315Z 0200/0224 35006KT CAVOK"
    },
    {
      "icao": "LHDC",
      "alert": "OK",
      "vis_m": 9999,
      "fzfg": false,
      "metar_trigger": false,
      "taf_trigger": false,
      "metar": "METAR LHDC 020215Z AUTO 03012KT CAVOK 05/03 Q1009 NOSIG",
      "taf": "TAF LHDC 020215Z 0203/0212 04012KT CAVOK"
    },
    {
      "icao": "LIBD",
      "alert": "OK",
      "vis_m": 9999,
      "fzfg": false,
      "metar_trigger": false,
      "taf_trigger": false,
      "metar": "METAR LIBD 020220Z 05009KT 010V080 9999 RA BKN010 11/11 Q0995",
      "taf": "TAF LIBD 012300Z 0200/0224 04012KT 7000 RA BKN040"
    },
    {
      "icao": "LIBG",
      "alert": "OK",
      "vis_m": null,
      "fzfg": false,
      "metar_trigger": false,
      "taf_trigger": false,
      "metar": "",
      "taf": ""
    },
    {
      "icao": "LIBP",
      "alert": "OK",
      "vis_m": 7000,
      "fzfg": false,
      "metar_trigger": false,
      "taf_trigger": false,
      "metar": "METAR LIBP 020220Z AUTO 03008KT 7000 RA OVC023/// 10/09 Q1001",
      "taf": "TAF LIBP 012300Z 0200/0224 36015KT 7000 RA OVC030"
    },
    {
      "icao": "LIBR",
      "alert": "OK",
      "vis_m": 9999,
      "fzfg": false,
      "metar_trigger": false,
      "taf_trigger": false,
      "metar": "METAR LIBR 020220Z 06013KT 9999 -RA BKN045 13/11 Q0993",
      "taf": "TAF LIBR 012300Z 0200/0224 05014KT 7000 RA OVC040"
    },
    {
      "icao": "LICA",
      "alert": "OK",
      "vis_m": 9999,
      "fzfg": false,
      "metar_trigger": false,
      "taf_trigger": false,
      "metar": "METAR LICA 020220Z AUTO 11005KT 9999 -RA OVC065/// 10/08 Q0993",
      "taf": "TAF LICA 012300Z 0200/0224 VRB05KT 9999 BKN040"
    },
    {
      "icao": "LICC",
      "alert": "OK",
      "vis_m": 7000,
      "fzfg": false,
      "metar_trigger": false,
      "taf_trigger": false,
      "metar": "METAR LICC 020220Z 30005KT 7000 RA BKN030 11/08 Q0993",
      "taf": "TAF LICC 012300Z 0200/0224 26006KT 9999 SCT020 BKN050"
    },
    {
      "icao": "LICJ",
      "alert": "OK",
      "vis_m": 9999,
      "fzfg": false,
      "metar_trigger": false,
      "taf_trigger": false,
      "metar": "METAR LICJ 020220Z 03015KT 9999 -RA SCT018 BKN060 12/10 Q0994",
      "taf": "TAF LICJ 012300Z 0200/0224 35008KT 9999 SCT020"
    },
    {
      "icao": "LIMC",
      "alert": "OK",
      "vis_m": 9999,
      "fzfg": false,
      "metar_trigger": false,
      "taf_trigger": false,
      "metar": "METAR LIMC 020220Z 02004KT CAVOK 04/M04 Q1009 NOSIG",
      "taf": "TAF LIMC 012300Z 0200/0306 VRB05KT CAVOK"
    },
    {
      "icao": "LIME",
      "alert": "OK",
      "vis_m": 9999,
      "fzfg": false,
      "metar_trigger": false,
      "taf_trigger": false,
      "metar": "METAR LIME 020220Z AUTO 02005KT 9999 NCD 06/M03 Q1008",
      "taf": "TAF LIME 012300Z 0200/0224 01005KT 9999 FEW100"
    },
    {
      "icao": "LIMF",
      "alert": "OK",
      "vis_m": 9999,
      "fzfg": false,
      "metar_trigger": false,
      "taf_trigger": false,
      "metar": "METAR LIMF 020220Z 30003KT CAVOK 06/M05 Q1009",
      "taf": "TAF LIMF 012300Z 0200/0224 VRB05KT 9999 FEW090"
    },
    {
      "icao": "LIMJ",
      "alert": "OK",
      "vis_m": 9999,
      "fzfg": false,
      "metar_trigger": false,
      "taf_trigger": false,
      "metar": "METAR LIMJ 020220Z 05010KT CAVOK 12/M06 Q1008",
      "taf": "TAF LIMJ 012300Z 0200/0224 02010KT CAVOK"
    },
    {
      "icao": "LIPE",
      "alert": "OK",
      "vis_m": 9999,
      "fzfg": false,
      "metar_trigger": false,
      "taf_trigger": false,
      "metar": "METAR LIPE 020220Z 26006KT 9999 BKN072 07/M06 Q1008",
      "taf": "TAF LIPE 012300Z 0200/0224 VRB05KT 9999 SCT060"
    },
    {
      "icao": "LIPH",
      "alert": "OK",
      "vis_m": 9999,
      "fzfg": false,
      "metar_trigger": false,
      "taf_trigger": false,
      "metar": "METAR LIPH 020220Z AUTO 33003KT 9999 FEW230/// 07/M01 Q1008",
      "taf": "TAF LIPH 012300Z 0200/0224 VRB05KT 9999 SCT060"
    },
    {
      "icao": "LIPQ",
      "alert": "OK",
      "vis_m": 9999,
      "fzfg": false,
      "metar_trigger": false,
      "taf_trigger": false,
      "metar": "METAR LIPQ 020220Z AUTO 12011KT 9999 BKN210/// 08/M01 Q1008",
      "taf": "TAF LIPQ 012300Z 0200/0224 VRB05KT CAVOK"
    },
    {
      "icao": "LIPR",
      "alert": "OK",
      "vis_m": 9999,
      "fzfg": false,
      "metar_trigger": false,
      "taf_trigger": false,
      "metar": "METAR LIPR 020220Z AUTO 05011KT 9999 OVC069/// 12/05 Q1006",
      "taf": "TAF LIPR 012300Z 0200/0224 03015KT 9999 SCT050"
    },
    {
      "icao": "LIPX",
      "alert": "OK",
      "vis_m": 9999,
      "fzfg": false,
      "metar_trigger": false,
      "taf_trigger": false,
      "metar": "METAR LIPX 020220Z 36004KT 320V020 CAVOK 04/00 Q1009",
      "taf": "TAF LIPX 012300Z 0200/0224 VRB05KT 9999 SCT090"
    },
    {
      "icao": "LIPY",
      "alert": "OK",
      "vis_m": 9999,
      "fzfg": false,
      "metar_trigger": false,
      "taf_trigger": false,
      "metar": "METAR LIPY 020220Z AUTO 05012KT 020V080 9999 -RA FEW036/// OVC072/// 12/05 Q1004",
      "taf": "TAF LIPY 012300Z 0200/0224 03015KT 9999 BKN050"
    },
    {
      "icao": "LIPZ",
      "alert": "OK",
      "vis_m": 9999,
      "fzfg": false,
      "metar_trigger": false,
      "taf_trigger": false,
      "metar": "METAR LIPZ 020220Z 09010KT CAVOK 10/02 Q1008 NOSIG",
      "taf": "TAF LIPZ 012300Z 0200/0306 04008KT CAVOK"
    },
    {
      "icao": "LIRF",
      "alert": "OK",
      "vis_m": 9999,
      "fzfg": false,
      "metar_trigger": false,
      "taf_trigger": false,
      "metar": "METAR LIRF 020220Z 01014KT CAVOK 11/04 Q0998 NOSIG",
      "taf": "TAF LIRF 012300Z 0200/0306 02016KT CAVOK"
    },
    {
      "icao": "LIRN",
      "alert": "OK",
      "vis_m": 9999,
      "fzfg": false,
      "metar_trigger": false,
      "taf_trigger": false,
      "metar": "METAR LIRN 020220Z 36006KT 9999 -RA BKN050 11/08 Q0996 NOSIG",
      "taf": "TAF LIRN 012300Z 0200/0224 03009KT 9999 SCT050"
    },
    {
      "icao": "LIRP",
      "alert": "OK",
      "vis_m": 9999,
      "fzfg": false,
      "metar_trigger": false,
      "taf_trigger": false,
      "metar": "METAR LIRP 020215Z 03011KT 9999 FEW070 12/M01 Q1006 NOSIG",
      "taf": "TAF LIRP 012300Z 0200/0224 03010KT 9999 SCT060"
    },
    {
      "icao": "LIRZ",
      "alert": "OK",
      "vis_m": 9999,
      "fzfg": false,
      "metar_trigger": false,
      "taf_trigger": false,
      "metar": "METAR LIRZ 020220Z AUTO 02015KT 350V050 9999 BKN037/// 09/04 Q1002",
      "taf": "TAF LIRZ 012300Z 0200/0224 03013KT 9999 BKN040"
    },
    {
      "icao": "LJLJ",
      "alert": "OK",
      "vis_m": 9999,
      "fzfg": false,
      "metar_trigger": false,
      "taf_trigger": false,
      "metar": "METAR LJLJ 020230Z VRB01KT 9999 SCT055 BKN220 M01/M03 Q1010 NOSIG",
      "taf": "TAF LJLJ 012300Z 0200/0300 10006KT 9999 FEW060"
    },
    {
      "icao": "LKMT",
      "alert": "OK",
      "vis_m": 9999,
      "fzfg": false,
      "metar_trigger": false,
      "taf_trigger": false,
      "metar": "METAR LKMT 020230Z 04008KT CAVOK 05/01 Q1015 NOSIG",
      "taf": "TAF LKMT 012300Z 0200/0224 04008KT 9999 SCT023 BKN040"
    },
    {
      "icao": "LKPR",
      "alert": "OK",
      "vis_m": 9999,
      "fzfg": false,
      "metar_trigger": false,
      "taf_trigger": false,
      "metar": "METAR LKPR 020230Z 30004KT CAVOK M00/M02 Q1017 NOSIG",
      "taf": "TAF LKPR 020200Z 0203/0309 34006KT CAVOK"
    },
    {
      "icao": "LLBG",
      "alert": "OK",
      "vis_m": 9999,
      "fzfg": false,
      "metar_trigger": false,
      "taf_trigger": false,
      "metar": "METAR LLBG 020250Z 17017G27KT 9999 FEW035 23/14 Q1006 NOSIG RMK BKN120",
      "taf": "TAF LLBG 012302Z 0200/0224 09007KT CAVOK TX24/0209Z TN18/0202Z"
    },
    {
      "icao": "LMML",
      "alert": "OK",
      "vis_m": 9999,
      "fzfg": false,
      "metar_trigger": false,
      "taf_trigger": false,
      "metar": "METAR LMML 020245Z 28020KT 9999 FEW021 12/08 Q0994 NOSIG",
      "taf": "TAF LMML 012300Z 0200/0224 29020KT 9999 SCT020"
    },
    {
      "icao": "LOWW",
      "alert": "OK",
      "vis_m": 9999,
      "fzfg": false,
      "metar_trigger": false,
      "taf_trigger": false,
      "metar": "METAR LOWW 020220Z 33012KT 9999 FEW040 BKN044 06/02 Q1014 NOSIG",
      "taf": "TAF LOWW 020215Z 0203/0309 33015G25KT 9999 BKN040 TX12/0309Z TN06/0304Z"
    },
    {
      "icao": "LPFR",
      "alert": "OK",
      "vis_m": 9999,
      "fzfg": false,
      "metar_trigger": false,
      "taf_trigger": false,
      "metar": "METAR LPFR 020230Z 34008KT CAVOK 15/07 Q1019",
      "taf": "TAF LPFR 012300Z 0200/0224 35007KT CAVOK"
    },
    {
      "icao": "LPMA",
      "alert": "OK",
      "vis_m": 9999,
      "fzfg": false,
      "metar_trigger": false,
      "taf_trigger": false,
      "metar": "METAR LPMA 020230Z 36013KT 320V030 9999 FEW015 20/05 Q1022",
      "taf": "TAF LPMA 012300Z 0200/0224 02015KT 9999 SCT015"
    },
    {
      "icao": "LPPR",
      "alert": "OK",
      "vis_m": 9999,
      "fzfg": false,
      "metar_trigger": false,
      "taf_trigger": false,
      "metar": "METAR LPPR 020230Z VRB01KT CAVOK 08/08 Q1021",
      "taf": "TAF LPPR 012300Z 0200/0224 VRB02KT CAVOK"
    },
    {
      "icao": "LPPS",
      "alert": "OK",
      "vis_m": 9999,
      "fzfg": false,
      "metar_trigger": false,
      "taf_trigger": false,
      "metar": "METAR LPPS 020230Z 01012KT 9999 FEW012 15/13 Q1022",
      "taf": "TAF LPPS 012300Z 0200/0306 03010KT 9999 SCT012"
    },
    {
      "icao": "LPPT",
      "alert": "OK",
      "vis_m": 9999,
      "fzfg": false,
      "metar_trigger": false,
      "taf_trigger": false,
      "metar": "METAR LPPT 020230Z VRB02KT CAVOK 14/06 Q1021",
      "taf": "TAF LPPT 012300Z 0200/0306 33007KT CAVOK"
    },
    {
      "icao": "LQBK",
      "alert": "OK",
      "vis_m": 9999,
      "fzfg": false,
      "metar_trigger": false,
      "taf_trigger": false,
      "metar": "METAR LQBK 020230Z 31007KT 9999 SCT035 BKN047 06/01 Q1009 NOSIG",
      "taf": "TAF LQBK 012300Z 0200/0224 29005KT 9999 BKN045 TX10/0213Z TN05/0205Z"
    },
    {
      "icao": "LQSA",
      "alert": "OK",
      "vis_m": 9999,
      "fzfg": false,
      "metar_trigger": false,
      "taf_trigger": false,
      "metar": "METAR LQSA 020230Z 33005KT 300V020 9999 -RA BKN020 OVC030 06/03 Q1004",
      "taf": "TAF LQSA 012300Z 0200/0224 28006KT 9999 -RA SCT020 BKN035 TX07/0213Z TN03/0205Z"
    },
    {
      "icao": "LQTZ",
      "alert": "OK",
      "vis_m": 2100,
      "fzfg": false,
      "metar_trigger": false,
      "taf_trigger": false,
      "metar": "METAR LQTZ 020230Z VRB02KT 2100 BR BKN004 OVC019 03/03 Q1007",
      "taf": "TAF LQTZ 012300Z 0200/0224 30005KT 1500 BR SCT003 OVC030 TX05/0213Z TN02/0205Z"
    },
    {
      "icao": "LRBC",
      "alert": "OK",
      "vis_m": 9999,
      "fzfg": false,
      "metar_trigger": false,
      "taf_trigger": false,
      "metar": "METAR LRBC 020230Z 36010KT 9999 OVC013 07/04 Q1009",
      "taf": "TAF LRBC 020200Z 0203/0212 35012KT 9999 BKN020 BKN045"
    },
    {
      "icao": "LRBS",
      "alert": "OK",
      "vis_m": 9999,
      "fzfg": false,
      "metar_trigger": false,
      "taf_trigger": false,
      "metar": "METAR LRBS 020230Z 06016KT 9999 FEW013 SCT028 OVC040 07/05 Q1006 NOSIG",
      "taf": "TAF LRBS 012300Z 0200/0224 07014KT 9999 SCT030"
    },
    {
      "icao": "LRBV",
      "alert": "OK",
      "vis_m": 9999,
      "fzfg": false,
      "metar_trigger": false,
      "taf_trigger": false,
      "metar": "METAR LRBV 020230Z AUTO 22001KT 9999 OVC029/// 05/04 Q1007",
      "taf": "TAF LRBV 020200Z 0203/0212 VRB04KT CAVOK"
    },
    {
      "icao": "LRCL",
      "alert": "OK",
      "vis_m": 9999,
      "fzfg": false,
      "metar_trigger": false,
      "taf_trigger": false,
      "metar": "METAR LRCL 020230Z 24003KT 220V300 CAVOK 01/M00 Q1008",
      "taf": "TAF LRCL 020200Z 0203/0212 VRB04KT CAVOK"
    },
    {
      "icao": "LRCV",
      "alert": "OK",
      "vis_m": 9999,
      "fzfg": false,
      "metar_trigger": false,
      "taf_trigger": false,
      "metar": "METAR LRCV 020230Z 10010KT 9999 BKN009 OVC030 07/07 Q1006",
      "taf": "TAF LRCV 020200Z 0203/0212 08012KT 9999 BKN010 OVC030"
    },
    {
      "icao": "LRIA",
      "alert": "OK",
      "vis_m": 5000,
      "fzfg": false,
      "metar_trigger": false,
      "taf_trigger": false,
      "metar": "METAR LRIA 020230Z 31011KT 5000 BR OVC005 06/04 Q1010",
      "taf": "TAF LRIA 020200Z 0203/0212 31008KT 9999 OVC010"
    },
    {
      "icao": "LROP",
      "alert": "OK",
      "vis_m": 9999,
      "fzfg": false,
      "metar_trigger": false,
      "taf_trigger": false,
      "metar": "METAR LROP 020230Z 08016KT 9999 OVC030 08/04 Q1007 NOSIG",
      "taf": "TAF LROP 012300Z 0200/0224 07012KT 9999 SCT035"
    },
    {
      "icao": "LRSB",
      "alert": "OK",
      "vis_m": 9999,
      "fzfg": false,
      "metar_trigger": false,
      "taf_trigger": false,
      "metar": "METAR LRSB 020230Z VRB01KT 9999 FEW027 BKN032 05/05 Q1007",
      "taf": "TAF LRSB 012300Z 0200/0224 VRB04KT 9999 BKN035"
    },
    {
      "icao": "LRSM",
      "alert": "OK",
      "vis_m": 9999,
      "fzfg": false,
      "metar_trigger": false,
      "taf_trigger": false,
      "metar": "METAR LRSM 020230Z AUTO 17001KT 9999 NCD 00/M01 Q1009",
      "taf": "TAF LRSM 020200Z 0203/0212 VRB04KT CAVOK"
    },
    {
      "icao": "LRSV",
      "alert": "OK",
      "vis_m": 9999,
      "fzfg": false,
      "metar_trigger": false,
      "taf_trigger": false,
      "metar": "METAR LRSV 020230Z 31012KT 9999 FEW012 BKN022 05/04 Q1009",
      "taf": "TAF LRSV 020200Z 0203/0212 31010KT 9999 BKN010"
    },
    {
      "icao": "LRTM",
      "alert": "OK",
      "vis_m": 600,
      "fzfg": false,
      "metar_trigger": false,
      "taf_trigger": false,
      "metar": "METAR LRTM 020230Z VRB02KT 0600 R07/0900N FG SCT001 BKN003 OVC006 02/02 Q1008",
      "taf": "TAF LRTM 020200Z 0203/0212 VRB04KT 0800 FG BKN002"
    },
    {
      "icao": "LRTR",
      "alert": "OK",
      "vis_m": 9999,
      "fzfg": false,
      "metar_trigger": false,
      "taf_trigger": false,
      "metar": "METAR LRTR 020230Z 01007KT CAVOK 03/03 Q1006",
      "taf": "TAF LRTR 012300Z 0200/0224 01008KT CAVOK"
    },
    {
      "icao": "LTAC",
      "alert": "OK",
      "vis_m": 7000,
      "fzfg": false,
      "metar_trigger": false,
      "taf_trigger": false,
      "metar": "METAR LTAC 020220Z 05004KT 7000 -SHRA FEW025CB BKN030 09/08 Q1006 RESHRA NOSIG RMK RWY21C 03002KT RWY03L 06003KT RWY21R 03002KT RWY03R 05003KT RWY21L 02003KT",
      "taf": "TAF LTAC 012240Z 0200/0224 14008KT 9999 SCT040 BKN100"
    },
    {
      "icao": "LTFM",
      "alert": "OK",
      "vis_m": 6000,
      "fzfg": false,
      "metar_trigger": false,
      "taf_trigger": false,
      "metar": "METAR LTFM 020220Z 07014KT 6000 -RA BKN003 BKN032 09/08 Q0998 NOSIG RMK RWY17L 07016KT RWY34L 06012KT RWY16R 07016KT RWY36 07021KT RWY18 08016KT",
      "taf": "TAF LTFM 012240Z 0200/0306 06017G27KT 4000 -RA BR BKN004 BKN020"
    },
    {
      "icao": "LUKK",
      "alert": "OK",
      "vis_m": 8000,
      "fzfg": false,
      "metar_trigger": false,
      "taf_trigger": false,
      "metar": "METAR LUKK 020230Z 32006KT 290V350 8000 OVC004 08/07 Q1008 TEMPO 5000 BR",
      "taf": "TAF LUKK 012321Z 0200/0224 34006KT 9999 BKN008"
    },
    {
      "icao": "LWOH",
      "alert": "OK",
      "vis_m": null,
      "fzfg": false,
      "metar_trigger": false,
      "taf_trigger": false,
      "metar": "",
      "taf": "TAF LWOH 020230Z 0203/0303 34010KT 9999 RA SCT020 OVC040"
    },
    {
      "icao": "LWSK",
      "alert": "OK",
      "vis_m": 8000,
      "fzfg": false,
      "metar_trigger": false,
      "taf_trigger": false,
      "metar": "METAR LWSK 020250Z VRB02KT 8000 -RA FEW020 BKN040 OVC068 08/07 Q0998 NOSIG",
      "taf": "TAF LWSK 020230Z 0203/0303 VRB02KT 7000 -RA FEW020 BKN035 OVC050"
    },
    {
      "icao": "LYBE",
      "alert": "OK",
      "vis_m": 9999,
      "fzfg": false,
      "metar_trigger": false,
      "taf_trigger": false,
      "metar": "METAR LYBE 020230Z 36007KT CAVOK 04/03 Q1006 NOSIG",
      "taf": "TAF LYBE 012300Z 0200/0224 02010KT CAVOK TX11/0213Z TN05/0204Z"
    },
    {
      "icao": "LYNI",
      "alert": "OK",
      "vis_m": 9999,
      "fzfg": false,
      "metar_trigger": false,
      "taf_trigger": false,
      "metar": "METAR LYNI 020230Z 02003KT 340V070 9999 -RA BKN045 OVC074 11/08 Q1002 NOSIG",
      "taf": "TAF LYNI 012300Z 0200/0224 04014KT 9999 SCT040 BKN080 TX10/0213Z TN07/0222Z"
    },
    {
      "icao": "LYPG",
      "alert": "OK",
      "vis_m": 9999,
      "fzfg": false,
      "metar_trigger": false,
      "taf_trigger": false,
      "metar": "METAR LYPG 020230Z 01014KT 9999 FEW050 OVC090 14/03 Q0996 TEMPO 02035KT",
      "taf": "TAF LYPG 012300Z 0200/0224 36015G25KT 9999 FEW050 OVC090 TX16/0212Z TN12/0204Z"
    },
    {
      "icao": "LZIB",
      "alert": "OK",
      "vis_m": 9999,
      "fzfg": false,
      "metar_trigger": false,
      "taf_trigger": false,
      "metar": "METAR LZIB 020230Z 34009KT 9999 BKN043 08/01 Q1013 NOSIG",
      "taf": "TAF LZIB 012315Z 0200/0300 36009KT CAVOK"
    },
    {
      "icao": "LZKZ",
      "alert": "OK",
      "vis_m": 9999,
      "fzfg": false,
      "metar_trigger": false,
      "taf_trigger": false,
      "metar": "METAR LZKZ 020230Z 01015KT 9999 FEW035 08/02 Q1011 NOSIG",
      "taf": "TAF LZKZ 012315Z 0200/0300 01018KT 9999 BKN042"
    },
    {
      "icao": "LZTT",
      "alert": "OK",
      "vis_m": 9999,
      "fzfg": false,
      "metar_trigger": false,
      "taf_trigger": false,
      "metar": "METAR LZTT 020230Z 05010KT 9999 BKN029 OVC043 04/01 Q1012",
      "taf": "TAF LZTT 012315Z 0200/0300 07013KT 9999 -RA FEW005 OVC033"
    },
    {
      "icao": "OEJN",
      "alert": "OK",
      "vis_m": 9999,
      "fzfg": false,
      "metar_trigger": false,
      "taf_trigger": false,
      "metar": "METAR OEJN 020200Z 31002KT CAVOK 27/17 Q1007 NOSIG",
      "taf": "TAF OEJN 012300Z 0200/0306 16006KT 7000 NSC"
    },
    {
      "icao": "OEMA",
      "alert": "OK",
      "vis_m": 9999,
      "fzfg": false,
      "metar_trigger": false,
      "taf_trigger": false,
      "metar": "METAR OEMA 020200Z VRB03KT CAVOK 25/02 Q1015 NOSIG",
      "taf": "TAF OEMA 012300Z 0200/0306 09010KT 7000 FEW040"
    },
    {
      "icao": "OJAI",
      "alert": "OK",
      "vis_m": 4000,
      "fzfg": false,
      "metar_trigger": false,
      "taf_trigger": false,
      "metar": "METAR OJAI 020200Z 13014KT 4000 -RA SCT035 SCT080 12/10 Q1014 NOSIG",
      "taf": "TAF OJAI 012300Z 0200/0306 12014KT 4000 BR FEW025TCU SCT030"
    },
    {
      "icao": "OMAA",
      "alert": "OK",
      "vis_m": null,
      "fzfg": false,
      "metar_trigger": false,
      "taf_trigger": false,
      "metar": "",
      "taf": ""
    },
    {
      "icao": "OMDB",
      "alert": "OK",
      "vis_m": null,
      "fzfg": false,
      "metar_trigger": false,
      "taf_trigger": false,
      "metar": "",
      "taf": ""
    },
    {
      "icao": "UAAA",
      "alert": "OK",
      "vis_m": 9999,
      "fzfg": false,
      "metar_trigger": false,
      "taf_trigger": false,
      "metar": "METAR UAAA 020230Z 36002MPS 330V030 9999 FEW100 14/04 Q1013 NOSIG",
      "taf": "TAF UAAA 012301Z 0200/0224 35002G07MPS 9999 FEW100 TX26/0210Z TN08/0201Z"
    },
    {
      "icao": "UBBB",
      "alert": "OK",
      "vis_m": 200,
      "fzfg": false,
      "metar_trigger": false,
      "taf_trigger": false,
      "metar": "METAR UBBB 020230Z 15006KT 0200 R17/0200 FG VV001 10/10 Q1014 NOSIG",
      "taf": "TAF UBBB 012303Z 0200/0224 16006KT 0600 FG BKN003 TX19/0210Z TN09/0201Z"
    },
    {
      "icao": "UDSG",
      "alert": "OK",
      "vis_m": 9999,
      "fzfg": false,
      "metar_trigger": false,
      "taf_trigger": false,
      "metar": "METAR UDSG 020230Z 31001KT 9999 SCT049 01/M02 Q1017 NOSIG",
      "taf": "TAF UDSG 012258Z 0200/0224 24006KT 9999 SCT050"
    },
    {
      "icao": "UDYZ",
      "alert": "OK",
      "vis_m": 9999,
      "fzfg": false,
      "metar_trigger": false,
      "taf_trigger": false,
      "metar": "METAR UDYZ 020230Z 08002KT 9999 NSC 04/00 Q1016 NOSIG",
      "taf": "TAF UDYZ 012300Z 0200/0224 03006KT 9999 FEW040"
    },
    {
      "icao": "UGKO",
      "alert": "OK",
      "vis_m": 9999,
      "fzfg": false,
      "metar_trigger": false,
      "taf_trigger": false,
      "metar": "METAR UGKO 020230Z AUTO 08010KT CAVOK 11/05 Q1010 NOSIG",
      "taf": "TAF UGKO 012300Z 0200/0224 08017KT CAVOK TX25/0212Z TN09/0201Z"
    }
  ]
}