{
  "ts_utc": "2026-01-01T21:10:51Z",
  "threshold_m": 150,
  "source": "stations_override.txt (ICAO list) + aviationweather.gov (METAR/TAF raw)",
  "station_count": 159,
  "stations": [
    {
      "icao": "BIKF",
      "alert": "OK",
      "vis_m": 9999,
      "fzfg": false,
      "metar_trigger": false,
      "taf_trigger": false,
      "metar": "METAR BIKF 012100Z 14001KT 9999 FEW013 SCT300 01/M01 Q1023",
      "taf": "TAF BIKF 011931Z 0121/0221 07006KT 9999 FEW040 TXM00/0121Z TNM05/0221Z"
    },
    {
      "icao": "BKPR",
      "alert": "OK",
      "vis_m": 9999,
      "fzfg": false,
      "metar_trigger": false,
      "taf_trigger": false,
      "metar": "METAR BKPR 012100Z 19008KT CAVOK M04/M11 Q1018 NOSIG",
      "taf": "TAF BKPR 011730Z 0118/0218 19008KT CAVOK"
    },
    {
      "icao": "EBCI",
      "alert": "OK",
      "vis_m": 9999,
      "fzfg": false,
      "metar_trigger": false,
      "taf_trigger": false,
      "metar": "METAR EBCI 012050Z 25013KT 9999 SCT044 03/00 Q1003 NOSIG",
      "taf": "TAF EBCI 011715Z 0118/0224 25012KT 9999 SCT012TCU SCT035"
    },
    {
      "icao": "EDDB",
      "alert": "OK",
      "vis_m": 9999,
      "fzfg": false,
      "metar_trigger": false,
      "taf_trigger": false,
      "metar": "METAR EDDB 012050Z AUTO 24018KT 9999 BKN028 BKN036 OVC044 04/M00 Q0991 TEMPO 23020G30KT",
      "taf": "TAF EDDB 011700Z 0118/0218 24020G35KT 9999 SCT020 OVC030"
    },
    {
      "icao": "EDDH",
      "alert": "OK",
      "vis_m": 9999,
      "fzfg": false,
      "metar_trigger": false,
      "taf_trigger": false,
      "metar": "METAR EDDH 012050Z AUTO 25015KT 210V280 9999 -SHRA BKN012 BKN018 FEW///CB 02/01 Q0987 TEMPO 24020G30KT 2500 SHSN BKN006",
      "taf": "TAF EDDH 011700Z 0118/0224 26020G35KT 9999 SCT015 BKN025"
    },
    {
      "icao": "EDDK",
      "alert": "OK",
      "vis_m": 9999,
      "fzfg": false,
      "metar_trigger": false,
      "taf_trigger": false,
      "metar": "METAR EDDK 012050Z AUTO 26018KT 9999 BKN022 04/00 Q1001 NOSIG",
      "taf": "TAF EDDK 011700Z 0118/0224 26014KT 9999 BKN020"
    },
    {
      "icao": "EDDN",
      "alert": "OK",
      "vis_m": 9999,
      "fzfg": false,
      "metar_trigger": false,
      "taf_trigger": false,
      "metar": "METAR EDDN 012050Z AUTO 25014KT 220V280 9999 BKN024 BKN032 01/M04 Q1002 TEMPO 25015G25KT",
      "taf": "TAF EDDN 011700Z 0118/0218 24015G25KT 9999 BKN020"
    },
    {
      "icao": "EDDS",
      "alert": "OK",
      "vis_m": 9999,
      "fzfg": false,
      "metar_trigger": false,
      "taf_trigger": false,
      "metar": "METAR EDDS 012050Z AUTO 22008KT 180V260 9999 BKN038 00/M07 Q1004 NOSIG",
      "taf": "TAF EDDS 011700Z 0118/0218 22008KT CAVOK"
    },
    {
      "icao": "EDFH",
      "alert": "OK",
      "vis_m": 7000,
      "fzfg": false,
      "metar_trigger": false,
      "taf_trigger": false,
      "metar": "METAR EDFH 012050Z 26017G27KT 220V280 7000 -FZRA BKN003 M01/M01 Q1001",
      "taf": ""
    },
    {
      "icao": "EDJA",
      "alert": "OK",
      "vis_m": 9999,
      "fzfg": false,
      "metar_trigger": false,
      "taf_trigger": false,
      "metar": "METAR EDJA 012050Z 23013KT CAVOK M01/M06 Q1005",
      "taf": "TAF EDJA 011700Z 0118/0203 24020G35KT CAVOK"
    },
    {
      "icao": "EDLW",
      "alert": "OK",
      "vis_m": 9999,
      "fzfg": false,
      "metar_trigger": false,
      "taf_trigger": false,
      "metar": "METAR EDLW 012050Z 23018KT 9999 FEW019 OVC022 04/00 Q0997",
      "taf": "TAF EDLW 011700Z 0118/0218 24015G25KT 9999 SCT012 BKN015"
    },
    {
      "icao": "EDNY",
      "alert": "OK",
      "vis_m": 9999,
      "fzfg": false,
      "metar_trigger": false,
      "taf_trigger": false,
      "metar": "METAR EDNY 012050Z AUTO 24014KT 9999 // FEW240/// 01/M06 Q1008",
      "taf": ""
    },
    {
      "icao": "EDSB",
      "alert": "OK",
      "vis_m": 9999,
      "fzfg": false,
      "metar_trigger": false,
      "taf_trigger": false,
      "metar": "METAR EDSB 012050Z 20017KT 9999 -SN BKN032 OVC045 02/M06 Q1007",
      "taf": "TAF EDSB 011700Z 0118/0218 22013KT 9999 OVC040"
    },
    {
      "icao": "EETN",
      "alert": "OK",
      "vis_m": 9999,
      "fzfg": false,
      "metar_trigger": false,
      "taf_trigger": false,
      "metar": "METAR EETN 012050Z 12013KT 9999 BKN026 OVC045 M08/M11 Q0985 TEMPO BKN015",
      "taf": ""
    },
    {
      "icao": "EFTU",
      "alert": "OK",
      "vis_m": 9999,
      "fzfg": false,
      "metar_trigger": false,
      "taf_trigger": false,
      "metar": "METAR EFTU 012050Z AUTO 09018G28KT 9999 OVC014 M07/M10 Q0983",
      "taf": "TAF EFTU 012031Z 0121/0221 10018G28KT 9999 BKN014"
    },
    {
      "icao": "EGBB",
      "alert": "OK",
      "vis_m": 9999,
      "fzfg": false,
      "metar_trigger": false,
      "taf_trigger": false,
      "metar": "METAR EGBB 012050Z 30011KT 9999 FEW023 04/M00 Q1006",
      "taf": ""
    },
    {
      "icao": "EGGP",
      "alert": "OK",
      "vis_m": 9999,
      "fzfg": false,
      "metar_trigger": false,
      "taf_trigger": false,
      "metar": "METAR EGGP 012050Z 32013KT 290V350 9999 FEW031 05/M01 Q1007",
      "taf": "TAF EGGP 011659Z 0118/0218 32012KT 9999 SCT035"
    },
    {
      "icao": "EGGW",
      "alert": "OK",
      "vis_m": 9999,
      "fzfg": false,
      "metar_trigger": false,
      "taf_trigger": false,
      "metar": "METAR EGGW 012050Z AUTO 29013KT 9999 NCD 02/00 Q1005",
      "taf": "TAF EGGW 011657Z 0118/0218 28014KT 9999 FEW025"
    },
    {
      "icao": "EGKK",
      "alert": "OK",
      "vis_m": 9999,
      "fzfg": false,
      "metar_trigger": false,
      "taf_trigger": false,
      "metar": "METAR EGKK 012050Z 29010KT CAVOK 04/01 Q1007",
      "taf": "TAF EGKK 011653Z 0118/0224 26012KT 9999 SCT030"
    },
    {
      "icao": "EGNM",
      "alert": "OK",
      "vis_m": 9999,
      "fzfg": false,
      "metar_trigger": false,
      "taf_trigger": false,
      "metar": "METAR EGNM 012050Z 28019KT CAVOK 01/M03 Q1004",
      "taf": "TAF EGNM 011700Z 0118/0218 29015KT 9999 SCT030"
    },
    {
      "icao": "EGPD",
      "alert": "OK",
      "vis_m": 9999,
      "fzfg": false,
      "metar_trigger": false,
      "taf_trigger": false,
      "metar": "METAR EGPD 012050Z AUTO 30014KT 9999 -SN SCT030 01/M03 Q1000 TEMPO 1500 SHSN",
      "taf": "TAF EGPD 011658Z 0118/0218 31015KT 9999 SCT012"
    },
    {
      "icao": "EGPF",
      "alert": "OK",
      "vis_m": 9999,
      "fzfg": false,
      "metar_trigger": false,
      "taf_trigger": false,
      "metar": "METAR EGPF 012050Z AUTO 28010KT 9999 NCD 03/M01 Q1005",
      "taf": "TAF EGPF 011657Z 0118/0218 29012KT 9999 FEW035"
    },
    {
      "icao": "EHBK",
      "alert": "OK",
      "vis_m": 9999,
      "fzfg": false,
      "metar_trigger": false,
      "taf_trigger": false,
      "metar": "METAR EHBK 012055Z AUTO 24013KT 210V300 9999 FEW014 SCT018 03/01 Q1001 NOSIG",
      "taf": "TAF EHBK 011714Z 0118/0224 25015G25KT 9999 SCT008 BKN010"
    },
    {
      "icao": "EHEH",
      "alert": "OK",
      "vis_m": 9999,
      "fzfg": false,
      "metar_trigger": false,
      "taf_trigger": false,
      "metar": "METAR EHEH 012055Z AUTO 24011KT 210V280 9999 FEW025 SCT034 BKN047 04/01 Q1000 BLU NOSIG RMK TREND REMOTE BY EHWX",
      "taf": ""
    },
    {
      "icao": "EKBI",
      "alert": "OK",
      "vis_m": 9999,
      "fzfg": false,
      "metar_trigger": false,
      "taf_trigger": false,
      "metar": "METAR EKBI 012050Z 23016KT 9999 -SHRA BKN014 SCT020CB 03/M00 Q0977",
      "taf": "TAF EKBI 012027Z 0121/0221 26014KT 9999 FEW010 BKN015"
    },
    {
      "icao": "EKCH",
      "alert": "OK",
      "vis_m": 9999,
      "fzfg": false,
      "metar_trigger": false,
      "taf_trigger": false,
      "metar": "METAR EKCH 012053Z 24016KT 9999 FEW043 03/01 Q0979 NOSIG",
      "taf": "TAF EKCH 012027Z 0121/0221 25015KT 9999 SCT040"
    },
    {
      "icao": "ENAL",
      "alert": "OK",
      "vis_m": 9999,
      "fzfg": false,
      "metar_trigger": false,
      "taf_trigger": false,
      "metar": "METAR ENAL 012050Z 06028G38KT 9999 FEW049 SCT059 01/M07 Q0989",
      "taf": "TAF ENAL 012000Z 0121/0206 06025KT 9999 SCT030"
    },
    {
      "icao": "ENBR",
      "alert": "OK",
      "vis_m": 9999,
      "fzfg": false,
      "metar_trigger": false,
      "taf_trigger": false,
      "metar": "METAR ENBR 012050Z 34010KT CAVOK 01/M03 Q0981 RMK WIND 1200FT 35017G27KT",
      "taf": "TAF ENBR 011700Z 0118/0218 35012KT 9999 FEW010 SCT050"
    },
    {
      "icao": "ENGM",
      "alert": "OK",
      "vis_m": 5000,
      "fzfg": false,
      "metar_trigger": false,
      "taf_trigger": false,
      "metar": "METAR ENGM 012050Z 36012KT 5000 -SN SCT015 BKN022 M03/M05 Q0974 TEMPO 3000 -SN BKN014",
      "taf": "TAF ENGM 011700Z 0118/0218 36012KT 9999 -SN BKN020"
    },
    {
      "icao": "ENHD",
      "alert": "OK",
      "vis_m": 9999,
      "fzfg": false,
      "metar_trigger": false,
      "taf_trigger": false,
      "metar": "METAR ENHD 012050Z AUTO 36024KT 9999 NCD 04/M01 Q0979",
      "taf": "TAF ENHD 011400Z 0115/0123 34020KT 9999 FEW020 SCT040"
    },
    {
      "icao": "ENTC",
      "alert": "OK",
      "vis_m": 9999,
      "fzfg": false,
      "metar_trigger": false,
      "taf_trigger": false,
      "metar": "METAR ENTC 012050Z 26008KT 9999 FEW015 M12/M13 Q1001 NOSIG RMK WIND 2600FT 18003KT",
      "taf": ""
    },
    {
      "icao": "ENTO",
      "alert": "OK",
      "vis_m": 9999,
      "fzfg": false,
      "metar_trigger": false,
      "taf_trigger": false,
      "metar": "METAR ENTO 012050Z 34011KT 9999 NSC M03/M08 Q0975 NOSIG",
      "taf": "TAF ENTO 011700Z 0118/0218 35008KT 9999 SCT020"
    },
    {
      "icao": "ENVA",
      "alert": "OK",
      "vis_m": 2500,
      "fzfg": false,
      "metar_trigger": false,
      "taf_trigger": false,
      "metar": "METAR ENVA 012050Z 06004KT 350V090 2500 -SN VV010 M04/M05 Q0988 RMK WIND 670FT 05010KT",
      "taf": "TAF ENVA 011700Z 0118/0218 09008KT 9999 -SN SCT009 BKN020"
    },
    {
      "icao": "ENZV",
      "alert": "OK",
      "vis_m": 9999,
      "fzfg": false,
      "metar_trigger": false,
      "taf_trigger": false,
      "metar": "METAR ENZV 012050Z 36015KT CAVOK 03/M00 Q0979",
      "taf": "TAF ENZV 011700Z 0118/0218 34018KT 9999 FEW020"
    },
    {
      "icao": "EPGD",
      "alert": "OK",
      "vis_m": 9999,
      "fzfg": false,
      "metar_trigger": false,
      "taf_trigger": false,
      "metar": "METAR EPGD 012100Z 23015KT 9999 -SN BKN012 01/M00 Q0982",
      "taf": "TAF EPGD 011730Z 0118/0218 23014KT 7000 -SN BKN014"
    },
    {
      "icao": "EPKK",
      "alert": "OK",
      "vis_m": 9999,
      "fzfg": false,
      "metar_trigger": false,
      "taf_trigger": false,
      "metar": "METAR EPKK 012100Z 25016KT CAVOK 02/M05 Q0998",
      "taf": "TAF EPKK 012030Z 0121/0221 23015KT 9999 BKN040"
    },
    {
      "icao": "EPKT",
      "alert": "OK",
      "vis_m": 9999,
      "fzfg": false,
      "metar_trigger": false,
      "taf_trigger": false,
      "metar": "METAR EPKT 012100Z 22019KT 9999 -SN FEW007 BKN035 01/M04 Q0997",
      "taf": "TAF EPKT 011730Z 0118/0218 24012KT 9999 BKN030"
    },
    {
      "icao": "EPLB",
      "alert": "OK",
      "vis_m": 9999,
      "fzfg": false,
      "metar_trigger": false,
      "taf_trigger": false,
      "metar": "METAR EPLB 012100Z 23017KT 9999 OVC047 00/M03 Q0995",
      "taf": "TAF EPLB 011730Z 0118/0218 22015KT 9999 OVC020"
    },
    {
      "icao": "EPMO",
      "alert": "OK",
      "vis_m": 9999,
      "fzfg": false,
      "metar_trigger": false,
      "taf_trigger": false,
      "metar": "METAR EPMO 012100Z 22015G26KT 9999 -RA BKN012 00/M01 Q0991 RESN",
      "taf": "TAF EPMO 011730Z 0118/0218 23012KT 9999 BKN025"
    },
    {
      "icao": "EPPO",
      "alert": "OK",
      "vis_m": 9999,
      "fzfg": false,
      "metar_trigger": false,
      "taf_trigger": false,
      "metar": "METAR EPPO 012100Z 23015G31KT 9999 FEW026 OVC033 03/M02 Q0990",
      "taf": "TAF EPPO 011730Z 0118/0218 24015G25KT 9999 OVC021"
    },
    {
      "icao": "EPRA",
      "alert": "OK",
      "vis_m": 9999,
      "fzfg": false,
      "metar_trigger": false,
      "taf_trigger": false,
      "metar": "METAR EPRA 012100Z 24018KT 9999 BKN037 OVC048 01/M04 Q0994",
      "taf": "TAF EPRA 012030Z 0121/0206 22015KT 9999 BKN030"
    },
    {
      "icao": "EPRZ",
      "alert": "OK",
      "vis_m": 9999,
      "fzfg": false,
      "metar_trigger": false,
      "taf_trigger": false,
      "metar": "METAR EPRZ 012100Z 21019KT CAVOK 01/M04 Q0998",
      "taf": "TAF EPRZ 011730Z 0118/0218 20012KT 9999 BKN020"
    },
    {
      "icao": "EPSC",
      "alert": "OK",
      "vis_m": 9999,
      "fzfg": false,
      "metar_trigger": false,
      "taf_trigger": false,
      "metar": "METAR EPSC 012100Z 22009KT 180V260 9999 -RA FEW004 SCT006 BKN008 02/01 Q0986",
      "taf": "TAF EPSC 011730Z 0118/0218 23012KT 9999 -RA BKN018"
    },
    {
      "icao": "EPSY",
      "alert": "OK",
      "vis_m": 1800,
      "fzfg": false,
      "metar_trigger": false,
      "taf_trigger": false,
      "metar": "METAR EPSY 012100Z 22015KT 1800 -RASN BR BKN001 OVC004 M00/M00 Q0987",
      "taf": "TAF EPSY 012030Z 0121/0206 22014KT 4000 -SNRA BR OVC005"
    },
    {
      "icao": "EPWA",
      "alert": "OK",
      "vis_m": 7000,
      "fzfg": false,
      "metar_trigger": false,
      "taf_trigger": false,
      "metar": "METAR EPWA 012100Z 21011KT 7000 -SN SCT008 BKN014 00/M01 Q0992 RESN NOSIG",
      "taf": "TAF EPWA 012030Z 0121/0221 23012G25KT 9999 BKN022"
    },
    {
      "icao": "EPWR",
      "alert": "OK",
      "vis_m": 9999,
      "fzfg": false,
      "metar_trigger": false,
      "taf_trigger": false,
      "metar": "METAR EPWR 012100Z 24013KT 9999 FEW035 BKN039 02/M03 Q0995",
      "taf": "TAF EPWR 012030Z 0121/0221 24013KT 9999 OVC035"
    },
    {
      "icao": "ESGG",
      "alert": "OK",
      "vis_m": 6000,
      "fzfg": false,
      "metar_trigger": false,
      "taf_trigger": false,
      "metar": "METAR ESGG 012050Z 10002KT 6000 -SN SCT035 OVC042 00/M00 Q0972",
      "taf": "TAF ESGG 012030Z 0121/0221 10005KT 7000 -SN BKN017"
    },
    {
      "icao": "ESKN",
      "alert": "OK",
      "vis_m": 200,
      "fzfg": true,
      "metar_trigger": false,
      "taf_trigger": false,
      "metar": "METAR ESKN 012050Z 06002KT 0200 R08/P2000N R26/0800N FZFG SCT006 BKN009 M01/M01 Q0973",
      "taf": "TAF ESKN 012030Z 0121/0221 08004KT 9999 SCT025"
    },
    {
      "icao": "ESMS",
      "alert": "OK",
      "vis_m": 9999,
      "fzfg": false,
      "metar_trigger": false,
      "taf_trigger": false,
      "metar": "METAR ESMS 012050Z 25016KT 9999 FEW016 03/01 Q0978",
      "taf": "TAF ESMS 012027Z 0121/0221 27015KT 9999 FEW010 BKN015"
    },
    {
      "icao": "ESSA",
      "alert": "OK",
      "vis_m": 2900,
      "fzfg": false,
      "metar_trigger": false,
      "taf_trigger": false,
      "metar": "METAR ESSA 012050Z 08011KT 2900 -SN VV010 M00/M01 Q0974 TEMPO 4000 -SN BKN008",
      "taf": "TAF ESSA 012030Z 0121/0221 08007KT 6000 -SN VV004"
    },
    {
      "icao": "EYKA",
      "alert": "OK",
      "vis_m": 3100,
      "fzfg": false,
      "metar_trigger": false,
      "taf_trigger": false,
      "metar": "METAR EYKA 012050Z 17010KT 140V220 3100 -SN BR OVC006 M01/M01 Q0985",
      "taf": "TAF EYKA 011718Z 0118/0218 18012G22KT 1500 SN BLSN BKN010 OVC015"
    },
    {
      "icao": "EYPA",
      "alert": "OK",
      "vis_m": 9999,
      "fzfg": false,
      "metar_trigger": false,
      "taf_trigger": false,
      "metar": "METAR EYPA 012050Z 22011KT 190V260 9999 -SHRASN BKN014CB BKN020 03/01 Q0979",
      "taf": "TAF EYPA 011717Z 0118/0218 22012G25KT 5000 RA BKN005"
    },
    {
      "icao": "EYVI",
      "alert": "OK",
      "vis_m": 1000,
      "fzfg": false,
      "metar_trigger": false,
      "taf_trigger": false,
      "metar": "METAR EYVI 012050Z 16014KT 1000 R19/P2000N SN OVC009 M05/M06 Q0987 BECMG 1500 SN",
      "taf": "TAF EYVI 011727Z 0118/0218 17017KT 1500 SN OVC010"
    },
    {
      "icao": "GCFV",
      "alert": "OK",
      "vis_m": 9999,
      "fzfg": false,
      "metar_trigger": false,
      "taf_trigger": false,
      "metar": "METAR GCFV 012100Z 21015KT 9999 FEW020 20/15 Q1009",
      "taf": "TAF GCFV 012000Z 0121/0221 20012KT 9999 FEW025 TX23/0214Z TN17/0206Z"
    },
    {
      "icao": "GCLP",
      "alert": "OK",
      "vis_m": 9999,
      "fzfg": false,
      "metar_trigger": false,
      "taf_trigger": false,
      "metar": "METAR GCLP 012100Z 20013KT 9999 FEW030 SCT040 20/15 Q1008 NOSIG",
      "taf": "TAF GCLP 012000Z 0121/0221 20013KT 9999 SCT030 BKN040 TX23/0214Z TN17/0206Z"
    },
    {
      "icao": "GCTS",
      "alert": "OK",
      "vis_m": 9999,
      "fzfg": false,
      "metar_trigger": false,
      "taf_trigger": false,
      "metar": "METAR GCTS 012100Z 28010KT 9999 FEW015 SCT040 18/14 Q1009 NOSIG",
      "taf": "TAF GCTS 012000Z 0121/0221 27012KT 9999 SCT015 BKN040 TX25/0214Z TN18/0206Z"
    },
    {
      "icao": "GMAD",
      "alert": "OK",
      "vis_m": 9999,
      "fzfg": false,
      "metar_trigger": false,
      "taf_trigger": false,
      "metar": "METAR GMAD 012100Z 09005KT CAVOK 17/10 Q1011 NOSIG",
      "taf": "TAF GMAD 011700Z 0118/0224 07006KT CAVOK"
    },
    {
      "icao": "GMMN",
      "alert": "OK",
      "vis_m": 9999,
      "fzfg": false,
      "metar_trigger": false,
      "taf_trigger": false,
      "metar": "METAR GMMN 012100Z 15005KT CAVOK 13/10 Q1011 NOSIG",
      "taf": "TAF GMMN 011700Z 0118/0224 18006KT CAVOK"
    },
    {
      "icao": "GMMX",
      "alert": "OK",
      "vis_m": 9999,
      "fzfg": false,
      "metar_trigger": false,
      "taf_trigger": false,
      "metar": "METAR GMMX 012100Z 10004KT 080V160 9999 SCT090 15/10 Q1011 NOSIG",
      "taf": "TAF GMMX 011700Z 0118/0224 06006KT 8000 SCT020 SCT090"
    },
    {
      "icao": "HEGN",
      "alert": "OK",
      "vis_m": 9999,
      "fzfg": false,
      "metar_trigger": false,
      "taf_trigger": false,
      "metar": "METAR HEGN 012000Z 33006KT CAVOK 15/06 Q1018 NOSIG",
      "taf": "TAF HEGN 011700Z 0118/0224 30008KT CAVOK"
    },
    {
      "icao": "HEMA",
      "alert": "OK",
      "vis_m": 9999,
      "fzfg": false,
      "metar_trigger": false,
      "taf_trigger": false,
      "metar": "METAR HEMA 012000Z 21003KT CAVOK 18/08 Q1017 NOSIG",
      "taf": "TAF HEMA 011700Z 0118/0224 11008KT CAVOK"
    },
    {
      "icao": "HESH",
      "alert": "OK",
      "vis_m": 9999,
      "fzfg": false,
      "metar_trigger": false,
      "taf_trigger": false,
      "metar": "METAR HESH 012000Z 31004KT CAVOK 19/00 Q1016 NOSIG",
      "taf": "TAF HESH 011700Z 0118/0224 24008KT CAVOK"
    },
    {
      "icao": "HESX",
      "alert": "OK",
      "vis_m": 9999,
      "fzfg": false,
      "metar_trigger": false,
      "taf_trigger": false,
      "metar": "METAR HESX 012000Z 30005KT CAVOK 11/03 Q1017 NOSIG",
      "taf": "TAF HESX 011700Z 0118/0224 27008KT 6000 FEW025 SCT070"
    },
    {
      "icao": "LATI",
      "alert": "OK",
      "vis_m": 9999,
      "fzfg": false,
      "metar_trigger": false,
      "taf_trigger": false,
      "metar": "METAR LATI 012050Z 17004KT CAVOK M02/M08 Q1022 NOSIG",
      "taf": "TAF LATI 011700Z 0118/0218 VRB05KT CAVOK TX12/0212Z TNM02/0202Z"
    },
    {
      "icao": "LBPD",
      "alert": "OK",
      "vis_m": 9999,
      "fzfg": false,
      "metar_trigger": false,
      "taf_trigger": false,
      "metar": "METAR LBPD 012100Z AUTO 00000KT 9999 NCD M02/M10 Q1020",
      "taf": "TAF LBPD 011700Z 0118/0218 VRB04KT 9999 SCT070"
    },
    {
      "icao": "LBSF",
      "alert": "OK",
      "vis_m": 9999,
      "fzfg": false,
      "metar_trigger": false,
      "taf_trigger": false,
      "metar": "METAR LBSF 012100Z AUTO 15003KT 110V220 9999 NCD M08/M11 Q1018 NOSIG",
      "taf": "TAF LBSF 011700Z 0118/0218 VRB04KT 9999 SCT040"
    },
    {
      "icao": "LBWN",
      "alert": "OK",
      "vis_m": 9999,
      "fzfg": false,
      "metar_trigger": false,
      "taf_trigger": false,
      "metar": "METAR LBWN 012100Z AUTO 01005KT 9999 NCD M04/M10 Q1019 NOSIG",
      "taf": "TAF LBWN 011700Z 0118/0218 VRB03KT CAVOK"
    },
    {
      "icao": "LCLK",
      "alert": "OK",
      "vis_m": 9999,
      "fzfg": false,
      "metar_trigger": false,
      "taf_trigger": false,
      "metar": "METAR LCLK 012100Z 36010KT 9999 FEW050 09/02 Q1016 NOSIG",
      "taf": "TAF LCLK 011730Z 0118/0218 29012KT 9999 FEW025 SCT050"
    },
    {
      "icao": "LCPH",
      "alert": "OK",
      "vis_m": 9999,
      "fzfg": false,
      "metar_trigger": false,
      "taf_trigger": false,
      "metar": "METAR LCPH 012100Z 35007KT 9999 BKN050 11/01 Q1016 NOSIG",
      "taf": "TAF LCPH 011730Z 0118/0218 33015KT 9999 FEW025 SCT040"
    },
    {
      "icao": "LEAL",
      "alert": "OK",
      "vis_m": 9999,
      "fzfg": false,
      "metar_trigger": false,
      "taf_trigger": false,
      "metar": "METAR LEAL 012100Z 30003KT 270V350 CAVOK 11/09 Q1016 NOSIG",
      "taf": "TAF LEAL 011700Z 0118/0218 29004KT 9999 FEW030 TX16/0214Z TN07/0206Z"
    },
    {
      "icao": "LEBB",
      "alert": "OK",
      "vis_m": 9999,
      "fzfg": false,
      "metar_trigger": false,
      "taf_trigger": false,
      "metar": "METAR LEBB 012100Z 12005KT 080V140 CAVOK 07/02 Q1013 NOSIG",
      "taf": "TAF LEBB 011700Z 0118/0218 12006KT 9999 FEW070 TX11/0214Z TN03/0122Z"
    },
    {
      "icao": "LEBL",
      "alert": "OK",
      "vis_m": 9999,
      "fzfg": false,
      "metar_trigger": false,
      "taf_trigger": false,
      "metar": "METAR LEBL 012100Z 36003KT 340V060 CAVOK 08/06 Q1014 NOSIG",
      "taf": "TAF LEBL 011700Z 0118/0218 24010KT 9999 FEW015 TX15/0212Z TN05/0206Z"
    },
    {
      "icao": "LECH",
      "alert": "OK",
      "vis_m": 8000,
      "fzfg": false,
      "metar_trigger": false,
      "taf_trigger": false,
      "metar": "METAR LECH 012100Z AUTO 04006KT 8000 NSC 06/05 Q1014",
      "taf": ""
    },
    {
      "icao": "LEMD",
      "alert": "OK",
      "vis_m": 9999,
      "fzfg": false,
      "metar_trigger": false,
      "taf_trigger": false,
      "metar": "METAR LEMD 012100Z VRB02KT 9999 OVC032 04/03 Q1015 NOSIG",
      "taf": "TAF LEMD 011700Z 0118/0224 VRB03KT 9999 SCT030 TX11/0215Z TN04/0208Z"
    },
    {
      "icao": "LEMG",
      "alert": "OK",
      "vis_m": 9999,
      "fzfg": false,
      "metar_trigger": false,
      "taf_trigger": false,
      "metar": "METAR LEMG 012100Z 27001KT 9999 SCT018 BKN025 BKN035 13/11 Q1016 NOSIG",
      "taf": "TAF LEMG 011700Z 0118/0218 11006KT 9999 SCT020 TX16/0214Z TN09/0207Z"
    },
    {
      "icao": "LEVC",
      "alert": "OK",
      "vis_m": 9999,
      "fzfg": false,
      "metar_trigger": false,
      "taf_trigger": false,
      "metar": "METAR LEVC 012100Z 31003KT CAVOK 10/07 Q1015 NOSIG",
      "taf": "TAF LEVC 011700Z 0118/0218 26005KT 9999 FEW035 TX16/0214Z TN05/0206Z"
    },
    {
      "icao": "LEXJ",
      "alert": "OK",
      "vis_m": 9999,
      "fzfg": false,
      "metar_trigger": false,
      "taf_trigger": false,
      "metar": "METAR LEXJ 012100Z 15001KT CAVOK 06/04 Q1013",
      "taf": "TAF LEXJ 012000Z 0121/0221 10007KT 9999 FEW070 TX12/0213Z TN07/0121Z"
    },
    {
      "icao": "LEZG",
      "alert": "OK",
      "vis_m": 5000,
      "fzfg": false,
      "metar_trigger": false,
      "taf_trigger": false,
      "metar": "METAR LEZG 012100Z 25005KT 210V280 5000 R12R///// BR OVC005 03/03 Q1016 NOSIG",
      "taf": ""
    },
    {
      "icao": "LEZL",
      "alert": "OK",
      "vis_m": 9999,
      "fzfg": false,
      "metar_trigger": false,
      "taf_trigger": false,
      "metar": "METAR LEZL 012100Z 06003KT 9999 FEW045 12/10 Q1013 NOSIG",
      "taf": "TAF LEZL 012000Z 0121/0221 05007KT 9999 FEW040 TX18/0215Z TN09/0207Z"
    },
    {
      "icao": "LFBD",
      "alert": "OK",
      "vis_m": 1200,
      "fzfg": true,
      "metar_trigger": false,
      "taf_trigger": false,
      "metar": "METAR LFBD 012100Z AUTO 13006KT 100V160 1200 0650 R23/1700D R05/1400U R29/1100D BCFG VV/// 00/00 Q1015 TEMPO 0300 FZFG",
      "taf": ""
    },
    {
      "icao": "LFLL",
      "alert": "OK",
      "vis_m": 5000,
      "fzfg": false,
      "metar_trigger": false,
      "taf_trigger": false,
      "metar": "METAR LFLL 012100Z 35007KT 5000 BR NSC M03/M04 Q1012 NOSIG",
      "taf": "TAF LFLL 011700Z 0118/0224 VRB03KT 6000 NSC"
    },
    {
      "icao": "LFLS",
      "alert": "OK",
      "vis_m": 9999,
      "fzfg": false,
      "metar_trigger": false,
      "taf_trigger": false,
      "metar": "METAR LFLS 012100Z AUTO 08008KT CAVOK M03/M04 Q1012",
      "taf": "TAF LFLS 011400Z 0115/0215 VRB03KT CAVOK"
    },
    {
      "icao": "LFMN",
      "alert": "OK",
      "vis_m": 9999,
      "fzfg": false,
      "metar_trigger": false,
      "taf_trigger": false,
      "metar": "METAR LFMN 012100Z 32007KT 280V340 9999 SCT060 05/01 Q1012 NOSIG",
      "taf": "TAF LFMN 012000Z 0121/0303 33010KT 9999 FEW060"
    },
    {
      "icao": "LFOB",
      "alert": "OK",
      "vis_m": 9999,
      "fzfg": false,
      "metar_trigger": false,
      "taf_trigger": false,
      "metar": "METAR LFOB 012100Z AUTO 24008KT 9999 BKN008 BKN019 BKN036 03/02 Q1008 TEMPO 4000 -RADZ",
      "taf": "TAF LFOB 011700Z 0118/0218 24009KT 9999 BKN025"
    },
    {
      "icao": "LFPO",
      "alert": "OK",
      "vis_m": 9999,
      "fzfg": false,
      "metar_trigger": false,
      "taf_trigger": false,
      "metar": "METAR LFPO 012100Z AUTO 25011KT 9999 FEW028 BKN033 BKN041 02/01 Q1010 TEMPO BKN012",
      "taf": "TAF LFPO 011900Z 0119/0224 24010KT 9999 BKN035"
    },
    {
      "icao": "LFSB",
      "alert": "OK",
      "vis_m": 9999,
      "fzfg": false,
      "metar_trigger": false,
      "taf_trigger": false,
      "metar": "METAR LFSB 012100Z AUTO 00000KT CAVOK M02/M07 Q1011 NOSIG",
      "taf": "TAF LFSB 011705Z 0118/0218 25007KT CAVOK"
    },
    {
      "icao": "LGAV",
      "alert": "OK",
      "vis_m": 9999,
      "fzfg": false,
      "metar_trigger": false,
      "taf_trigger": false,
      "metar": "METAR LGAV 012050Z VRB01KT CAVOK M00/M03 Q1024 NOSIG",
      "taf": "TAF LGAV 011700Z 0118/0218 VRB03KT 9999 FEW020"
    },
    {
      "icao": "LGTS",
      "alert": "OK",
      "vis_m": 9999,
      "fzfg": false,
      "metar_trigger": false,
      "taf_trigger": false,
      "metar": "METAR LGTS 012050Z 10005KT CAVOK M02/M08 Q1023 NOSIG",
      "taf": "TAF LGTS 011700Z 0118/0218 VRB03KT 9999 FEW030"
    },
    {
      "icao": "LHBP",
      "alert": "OK",
      "vis_m": 9999,
      "fzfg": false,
      "metar_trigger": false,
      "taf_trigger": false,
      "metar": "METAR LHBP 012100Z 19004KT 160V220 CAVOK 01/M03 Q1006 NOSIG",
      "taf": "TAF LHBP 011715Z 0118/0218 15006KT CAVOK"
    },
    {
      "icao": "LHDC",
      "alert": "OK",
      "vis_m": 9999,
      "fzfg": false,
      "metar_trigger": false,
      "taf_trigger": false,
      "metar": "METAR LHDC 012045Z AUTO 18014KT 9999 BKN045 M00/M04 Q1009",
      "taf": "TAF LHDC 011415Z 0115/0124 18014KT 8000 SN BKN005 BKN025"
    },
    {
      "icao": "LIBD",
      "alert": "OK",
      "vis_m": 9999,
      "fzfg": false,
      "metar_trigger": false,
      "taf_trigger": false,
      "metar": "METAR LIBD 012050Z 20009KT CAVOK 06/01 Q1018",
      "taf": "TAF LIBD 011700Z 0118/0218 17010KT CAVOK"
    },
    {
      "icao": "LIBG",
      "alert": "OK",
      "vis_m": null,
      "fzfg": false,
      "metar_trigger": false,
      "taf_trigger": false,
      "metar": "",
      "taf": "TAF LIBG 011700Z 0118/0203 VRB05KT CAVOK"
    },
    {
      "icao": "LIBP",
      "alert": "OK",
      "vis_m": 9999,
      "fzfg": false,
      "metar_trigger": false,
      "taf_trigger": false,
      "metar": "METAR LIBP 012050Z AUTO 23019KT 9999 NCD 12/01 Q1013",
      "taf": "TAF LIBP 011700Z 0118/0218 24008KT CAVOK"
    },
    {
      "icao": "LIBR",
      "alert": "OK",
      "vis_m": 9999,
      "fzfg": false,
      "metar_trigger": false,
      "taf_trigger": false,
      "metar": "METAR LIBR 012050Z 18008KT CAVOK 05/M01 Q1020",
      "taf": "TAF LIBR 011700Z 0118/0218 20012KT CAVOK"
    },
    {
      "icao": "LICA",
      "alert": "OK",
      "vis_m": 9999,
      "fzfg": false,
      "metar_trigger": false,
      "taf_trigger": false,
      "metar": "METAR LICA 012050Z AUTO 07006KT 9999 NCD 04/02 Q1021",
      "taf": "TAF LICA 011700Z 0118/0218 07012KT 9999 SCT050"
    },
    {
      "icao": "LICC",
      "alert": "OK",
      "vis_m": 9999,
      "fzfg": false,
      "metar_trigger": false,
      "taf_trigger": false,
      "metar": "METAR LICC 012050Z 28003KT 9999 FEW040 SCT070 08/05 Q1022",
      "taf": "TAF LICC 011700Z 0118/0218 VRB05KT 9999 SCT030"
    },
    {
      "icao": "LICJ",
      "alert": "OK",
      "vis_m": 9999,
      "fzfg": false,
      "metar_trigger": false,
      "taf_trigger": false,
      "metar": "METAR LICJ 012050Z 20016KT 9999 SCT060 14/08 Q1019 WS R20",
      "taf": "TAF LICJ 011700Z 0118/0218 19018G30KT 9999 SCT030"
    },
    {
      "icao": "LIMC",
      "alert": "OK",
      "vis_m": 9999,
      "fzfg": false,
      "metar_trigger": false,
      "taf_trigger": false,
      "metar": "METAR LIMC 012050Z VRB02KT 9999 OVC050 03/00 Q1012 NOSIG",
      "taf": "TAF LIMC 011700Z 0118/0224 VRB04KT 7000 BKN040"
    },
    {
      "icao": "LIME",
      "alert": "OK",
      "vis_m": 4000,
      "fzfg": false,
      "metar_trigger": false,
      "taf_trigger": false,
      "metar": "METAR LIME 012050Z VRB02KT 4000 BR BKN045 02/01 Q1012 NOSIG",
      "taf": "TAF LIME 011700Z 0118/0218 VRB04KT 7000 BKN040"
    },
    {
      "icao": "LIMF",
      "alert": "OK",
      "vis_m": 2000,
      "fzfg": false,
      "metar_trigger": false,
      "taf_trigger": false,
      "metar": "METAR LIMF 012050Z VRB02KT 2000 BR SCT035 01/M00 Q1012",
      "taf": "TAF LIMF 011700Z 0118/0218 VRB04KT 3000 BR BKN040"
    },
    {
      "icao": "LIMJ",
      "alert": "OK",
      "vis_m": 9999,
      "fzfg": false,
      "metar_trigger": false,
      "taf_trigger": false,
      "metar": "METAR LIMJ 012050Z 15010KT 9999 BKN045 12/06 Q1011",
      "taf": "TAF LIMJ 011700Z 0118/0218 18012KT 9999 SCT025 SCT050"
    },
    {
      "icao": "LIPE",
      "alert": "OK",
      "vis_m": 2000,
      "fzfg": false,
      "metar_trigger": false,
      "taf_trigger": false,
      "metar": "METAR LIPE 012050Z 31002KT 2000 BR SCT008 BKN055 01/01 Q1013",
      "taf": "TAF LIPE 011700Z 0118/0218 VRB05KT 9999 FEW050"
    },
    {
      "icao": "LIPH",
      "alert": "OK",
      "vis_m": 9999,
      "fzfg": false,
      "metar_trigger": false,
      "taf_trigger": false,
      "metar": "METAR LIPH 012050Z AUTO VRB01KT 9999 OVC032/// 02/M02 Q1013",
      "taf": "TAF LIPH 011700Z 0118/0218 VRB04KT 9999 SCT050"
    },
    {
      "icao": "LIPQ",
      "alert": "OK",
      "vis_m": 9999,
      "fzfg": false,
      "metar_trigger": false,
      "taf_trigger": false,
      "metar": "METAR LIPQ 012050Z AUTO 35001KT 9999 FEW029/// OVC043/// 03/00 Q1012",
      "taf": "TAF LIPQ 011700Z 0118/0218 VRB05KT 9999 BKN060"
    },
    {
      "icao": "LIPR",
      "alert": "OK",
      "vis_m": 9999,
      "fzfg": false,
      "metar_trigger": false,
      "taf_trigger": false,
      "metar": "METAR LIPR 012050Z 17005KT CAVOK 07/03 Q1013",
      "taf": "TAF LIPR 011700Z 0118/0218 20008KT 9999 SCT050"
    },
    {
      "icao": "LIPX",
      "alert": "OK",
      "vis_m": 6000,
      "fzfg": false,
      "metar_trigger": false,
      "taf_trigger": false,
      "metar": "METAR LIPX 012050Z 21003KT 180V240 6000 OVC070 01/M00 Q1013",
      "taf": "TAF LIPX 011700Z 0118/0218 VRB04KT 6000 BKN040"
    },
    {
      "icao": "LIPY",
      "alert": "OK",
      "vis_m": 9999,
      "fzfg": false,
      "metar_trigger": false,
      "taf_trigger": false,
      "metar": "METAR LIPY 012050Z AUTO VRB02KT 9999 OVC033/// 07/02 Q1014",
      "taf": "TAF LIPY 011700Z 0118/0218 VRB05KT 9999 BKN040"
    },
    {
      "icao": "LIPZ",
      "alert": "OK",
      "vis_m": 9999,
      "fzfg": false,
      "metar_trigger": false,
      "taf_trigger": false,
      "metar": "METAR LIPZ 012050Z 33004KT 9999 BKN033 03/M02 Q1013 NOSIG",
      "taf": "TAF LIPZ 011700Z 0118/0224 VRB05KT 9999 SCT050"
    },
    {
      "icao": "LIRF",
      "alert": "OK",
      "vis_m": 9999,
      "fzfg": false,
      "metar_trigger": false,
      "taf_trigger": false,
      "metar": "METAR LIRF 012050Z 13010KT 9999 SCT030 SCT045 10/04 Q1016 NOSIG",
      "taf": "TAF LIRF 011700Z 0118/0224 14015KT 9999 BKN030"
    },
    {
      "icao": "LIRN",
      "alert": "OK",
      "vis_m": 9999,
      "fzfg": false,
      "metar_trigger": false,
      "taf_trigger": false,
      "metar": "METAR LIRN 012050Z 10003KT 060V150 9999 SCT070 08/01 Q1018 NOSIG",
      "taf": "TAF LIRN 011700Z 0118/0218 VRB05KT 9999 SCT040"
    },
    {
      "icao": "LIRP",
      "alert": "OK",
      "vis_m": 9999,
      "fzfg": false,
      "metar_trigger": false,
      "taf_trigger": false,
      "metar": "METAR LIRP 012045Z 10006KT 9999 FEW040 BKN060 05/03 Q1014 NOSIG",
      "taf": "TAF LIRP 011700Z 0118/0218 12006KT 9999 FEW040"
    },
    {
      "icao": "LIRZ",
      "alert": "OK",
      "vis_m": 9999,
      "fzfg": false,
      "metar_trigger": false,
      "taf_trigger": false,
      "metar": "METAR LIRZ 012050Z AUTO 33005KT 9999 -RA OVC032/// 05/03 Q1015",
      "taf": "TAF LIRZ 011700Z 0118/0218 19012KT 9999 BKN040"
    },
    {
      "icao": "LJLJ",
      "alert": "OK",
      "vis_m": 9999,
      "fzfg": false,
      "metar_trigger": false,
      "taf_trigger": false,
      "metar": "METAR LJLJ 012100Z VRB02KT 9999 OVC030 01/M01 Q1010 NOSIG",
      "taf": "TAF LJLJ 011700Z 0118/0218 VRB02KT 9999 SCT035 BKN055"
    },
    {
      "icao": "LKMT",
      "alert": "OK",
      "vis_m": 9999,
      "fzfg": false,
      "metar_trigger": false,
      "taf_trigger": false,
      "metar": "METAR LKMT 012100Z 22019KT 9999 OVC040 01/M05 Q1000 NOSIG",
      "taf": "TAF LKMT 011700Z 0118/0218 21018KT 9999 SCT040"
    },
    {
      "icao": "LKPR",
      "alert": "OK",
      "vis_m": 9999,
      "fzfg": false,
      "metar_trigger": false,
      "taf_trigger": false,
      "metar": "METAR LKPR 012100Z 21021KT 9999 BKN022 00/M03 Q0998 NOSIG",
      "taf": "TAF LKPR 012000Z 0121/0303 22018KT 9999 BKN020"
    },
    {
      "icao": "LLBG",
      "alert": "OK",
      "vis_m": 5000,
      "fzfg": false,
      "metar_trigger": false,
      "taf_trigger": false,
      "metar": "METAR LLBG 012050Z 18010KT 5000 +RA BKN015 FEW020TCU 13/12 Q1016 TEMPO 9999 NSW",
      "taf": "TAF LLBG 011703Z 0118/0218 21007KT 9999 SCT030 BKN040"
    },
    {
      "icao": "LMML",
      "alert": "OK",
      "vis_m": 9999,
      "fzfg": false,
      "metar_trigger": false,
      "taf_trigger": false,
      "metar": "METAR LMML 012045Z 14010KT 9999 -RA FEW023 13/10 Q1022 NOSIG",
      "taf": "TAF LMML 011700Z 0118/0218 14014KT 9999 SCT025"
    },
    {
      "icao": "LOWW",
      "alert": "OK",
      "vis_m": 9999,
      "fzfg": false,
      "metar_trigger": false,
      "taf_trigger": false,
      "metar": "METAR LOWW 012050Z 20005KT CAVOK M01/M05 Q1004 NOSIG",
      "taf": "TAF LOWW 012015Z 0121/0303 20007KT CAVOK TX05/0213Z TNM01/0121Z"
    },
    {
      "icao": "LPFR",
      "alert": "OK",
      "vis_m": 9999,
      "fzfg": false,
      "metar_trigger": false,
      "taf_trigger": false,
      "metar": "METAR LPFR 012100Z 11014KT 9999 SCT010 16/15 Q1009",
      "taf": "TAF LPFR 011700Z 0118/0218 13012KT 9999 FEW020 SCT035"
    },
    {
      "icao": "LPMA",
      "alert": "OK",
      "vis_m": 9999,
      "fzfg": false,
      "metar_trigger": false,
      "taf_trigger": false,
      "metar": "METAR LPMA 012100Z 28003KT 210V020 9999 SCT013 FEW018TCU 16/13 Q1002",
      "taf": ""
    },
    {
      "icao": "LPPR",
      "alert": "OK",
      "vis_m": 9999,
      "fzfg": false,
      "metar_trigger": false,
      "taf_trigger": false,
      "metar": "METAR LPPR 012100Z 11012KT 9999 SCT048 12/07 Q1007",
      "taf": "TAF LPPR 011700Z 0118/0218 11015KT 9999 SCT040"
    },
    {
      "icao": "LPPS",
      "alert": "OK",
      "vis_m": 9999,
      "fzfg": false,
      "metar_trigger": false,
      "taf_trigger": false,
      "metar": "METAR LPPS 012100Z 27014KT 9999 FEW013 17/14 Q1002",
      "taf": "TAF LPPS 011700Z 0118/0224 27015KT 9999 SCT012 SCT030"
    },
    {
      "icao": "LPPT",
      "alert": "OK",
      "vis_m": 9999,
      "fzfg": false,
      "metar_trigger": false,
      "taf_trigger": false,
      "metar": "METAR LPPT 012100Z 13012KT 9999 FEW008 SCT011 14/14 Q1006",
      "taf": "TAF LPPT 011700Z 0118/0224 10010KT 8000 BKN006"
    },
    {
      "icao": "LQBK",
      "alert": "OK",
      "vis_m": 9999,
      "fzfg": false,
      "metar_trigger": false,
      "taf_trigger": false,
      "metar": "METAR LQBK 012100Z 18006KT CAVOK 03/M03 Q1010 NOSIG",
      "taf": "TAF LQBK 011700Z 0118/0218 15005KT CAVOK TX13/0213Z TNM02/0200Z"
    },
    {
      "icao": "LQSA",
      "alert": "OK",
      "vis_m": 9999,
      "fzfg": false,
      "metar_trigger": false,
      "taf_trigger": false,
      "metar": "METAR LQSA 012100Z VRB02KT 9999 FEW060 M03/M06 Q1014 NOSIG",
      "taf": "TAF LQSA 011700Z 0118/0218 VRB02KT CAVOK TX08/0213Z TN02/0120Z"
    },
    {
      "icao": "LQTZ",
      "alert": "OK",
      "vis_m": 9999,
      "fzfg": false,
      "metar_trigger": false,
      "taf_trigger": false,
      "metar": "METAR LQTZ 012100Z 13003KT 070V210 CAVOK 03/M04 Q1012",
      "taf": "TAF LQTZ 011700Z 0118/0218 14005KT CAVOK TX13/0213Z TNM04/0200Z"
    },
    {
      "icao": "LRBC",
      "alert": "OK",
      "vis_m": 9999,
      "fzfg": false,
      "metar_trigger": false,
      "taf_trigger": false,
      "metar": "METAR LRBC 012100Z 18010KT CAVOK M04/M09 Q1011",
      "taf": "TAF LRBC 012000Z 0121/0206 17010KT CAVOK"
    },
    {
      "icao": "LRBS",
      "alert": "OK",
      "vis_m": 9999,
      "fzfg": false,
      "metar_trigger": false,
      "taf_trigger": false,
      "metar": "METAR LRBS 012100Z 27003KT 250V310 CAVOK M03/M08 Q1017 NOSIG",
      "taf": "TAF LRBS 011700Z 0118/0218 25008KT CAVOK"
    },
    {
      "icao": "LRBV",
      "alert": "OK",
      "vis_m": 9999,
      "fzfg": false,
      "metar_trigger": false,
      "taf_trigger": false,
      "metar": "METAR LRBV 012100Z VRB02KT 9999 FEW065 M07/M09 Q1012",
      "taf": "TAF LRBV 012000Z 0121/0206 VRB04KT 9999 SCT035 BKN050"
    },
    {
      "icao": "LRCL",
      "alert": "OK",
      "vis_m": 9999,
      "fzfg": false,
      "metar_trigger": false,
      "taf_trigger": false,
      "metar": "METAR LRCL 012100Z VRB02KT 9999 SCT055 M04/M06 Q1011",
      "taf": "TAF LRCL 012000Z 0121/0206 VRB04KT 9999 SCT040"
    },
    {
      "icao": "LRCV",
      "alert": "OK",
      "vis_m": 9999,
      "fzfg": false,
      "metar_trigger": false,
      "taf_trigger": false,
      "metar": "METAR LRCV 012100Z 00000KT CAVOK M04/M07 Q1016",
      "taf": "TAF LRCV 012000Z 0121/0206 VRB04KT CAVOK"
    },
    {
      "icao": "LRIA",
      "alert": "OK",
      "vis_m": 9999,
      "fzfg": false,
      "metar_trigger": false,
      "taf_trigger": false,
      "metar": "METAR LRIA 012100Z 20007KT CAVOK M01/M09 Q1010",
      "taf": "TAF LRIA 012000Z 0121/0206 20009KT CAVOK"
    },
    {
      "icao": "LROP",
      "alert": "OK",
      "vis_m": 9999,
      "fzfg": false,
      "metar_trigger": false,
      "taf_trigger": false,
      "metar": "METAR LROP 012100Z 26006KT CAVOK M05/M10 Q1017 NOSIG",
      "taf": "TAF LROP 011700Z 0118/0218 25007KT CAVOK"
    },
    {
      "icao": "LRSB",
      "alert": "OK",
      "vis_m": 9999,
      "fzfg": false,
      "metar_trigger": false,
      "taf_trigger": false,
      "metar": "METAR LRSB 012100Z 23005KT CAVOK M08/M09 Q1012",
      "taf": "TAF LRSB 011700Z 0118/0218 VRB04KT 9999 BKN045"
    },
    {
      "icao": "LRSM",
      "alert": "OK",
      "vis_m": 9999,
      "fzfg": false,
      "metar_trigger": false,
      "taf_trigger": false,
      "metar": "METAR LRSM 012100Z AUTO 17007KT 130V190 9999 OVC048/// 01/M05 Q1009",
      "taf": ""
    },
    {
      "icao": "LRSV",
      "alert": "OK",
      "vis_m": 9999,
      "fzfg": false,
      "metar_trigger": false,
      "taf_trigger": false,
      "metar": "METAR LRSV 012100Z 21012KT CAVOK M03/M08 Q1005",
      "taf": "TAF LRSV 012000Z 0121/0206 21012KT CAVOK"
    },
    {
      "icao": "LRTM",
      "alert": "OK",
      "vis_m": 9999,
      "fzfg": false,
      "metar_trigger": false,
      "taf_trigger": false,
      "metar": "METAR LRTM 012100Z AUTO 22004KT 190V270 9999 NCD M03/M06 Q1012",
      "taf": "TAF LRTM 011400Z 0115/0124 21006KT 9999 BKN035"
    },
    {
      "icao": "LRTR",
      "alert": "OK",
      "vis_m": 9999,
      "fzfg": false,
      "metar_trigger": false,
      "taf_trigger": false,
      "metar": "METAR LRTR 012100Z 17012KT CAVOK 01/M07 Q1012 NOSIG",
      "taf": "TAF LRTR 011700Z 0118/0218 11009KT 9999 BKN045"
    },
    {
      "icao": "LTAC",
      "alert": "OK",
      "vis_m": 9999,
      "fzfg": false,
      "metar_trigger": false,
      "taf_trigger": false,
      "metar": "METAR LTAC 012050Z 32004KT 210V010 CAVOK M10/M13 Q1019 NOSIG RMK RWY21C 31004KT 250V340 RWY03L 35003KT 280V030 RWY21R 32003KT 280V360 RWY03R 19004KT RWY21L 10002KT",
      "taf": "TAF LTAC 011640Z 0118/0218 29012KT 9999 SCT040"
    },
    {
      "icao": "LTFM",
      "alert": "OK",
      "vis_m": 9999,
      "fzfg": false,
      "metar_trigger": false,
      "taf_trigger": false,
      "metar": "METAR LTFM 012050Z 19005KT CAVOK M04/M07 Q1023 NOSIG RMK RWY17L 20006KT RWY34L 23002KT RWY16R 18004KT RWY36 18004KT RWY18 19007KT",
      "taf": "TAF LTFM 011640Z 0118/0224 21008KT CAVOK"
    },
    {
      "icao": "LUKK",
      "alert": "OK",
      "vis_m": 9999,
      "fzfg": false,
      "metar_trigger": false,
      "taf_trigger": false,
      "metar": "METAR LUKK 012100Z 23007KT CAVOK M04/M10 Q1012 NOSIG",
      "taf": "TAF LUKK 011705Z 0118/0218 24008KT CAVOK"
    },
    {
      "icao": "LWOH",
      "alert": "OK",
      "vis_m": null,
      "fzfg": false,
      "metar_trigger": false,
      "taf_trigger": false,
      "metar": "",
      "taf": "TAF LWOH 012020Z 0121/0221 VRB03KT CAVOK"
    },
    {
      "icao": "LWSK",
      "alert": "OK",
      "vis_m": 9999,
      "fzfg": false,
      "metar_trigger": false,
      "taf_trigger": false,
      "metar": "METAR LWSK 012050Z VRB02KT CAVOK M07/M12 Q1021 NOSIG",
      "taf": "TAF LWSK 012020Z 0121/0221 VRB02KT CAVOK"
    },
    {
      "icao": "LYBE",
      "alert": "OK",
      "vis_m": 9999,
      "fzfg": false,
      "metar_trigger": false,
      "taf_trigger": false,
      "metar": "METAR LYBE 012100Z 18010KT CAVOK 03/M07 Q1013 NOSIG",
      "taf": "TAF LYBE 011700Z 0118/0218 17008KT CAVOK TX11/0212Z TN00/0121Z"
    },
    {
      "icao": "LYNI",
      "alert": "OK",
      "vis_m": 9999,
      "fzfg": false,
      "metar_trigger": false,
      "taf_trigger": false,
      "metar": "METAR LYNI 012100Z VRB02KT CAVOK M03/M10 Q1018 NOSIG",
      "taf": "TAF LYNI 011700Z 0118/0218 14007KT CAVOK TX09/0212Z TNM02/0122Z"
    },
    {
      "icao": "LYPG",
      "alert": "OK",
      "vis_m": 9999,
      "fzfg": false,
      "metar_trigger": false,
      "taf_trigger": false,
      "metar": "METAR LYPG 012100Z 35007KT CAVOK M03/M09 Q1022 NOSIG",
      "taf": "TAF LYPG 011700Z 0118/0218 36006KT CAVOK TX06/0218Z TNM02/0122Z"
    },
    {
      "icao": "LZIB",
      "alert": "OK",
      "vis_m": 9999,
      "fzfg": false,
      "metar_trigger": false,
      "taf_trigger": false,
      "metar": "METAR LZIB 012100Z 21007KT CAVOK M02/M04 Q1004 NOSIG",
      "taf": "TAF LZIB 011715Z 0118/0218 26005KT CAVOK"
    },
    {
      "icao": "LZKZ",
      "alert": "OK",
      "vis_m": 9999,
      "fzfg": false,
      "metar_trigger": false,
      "taf_trigger": false,
      "metar": "METAR LZKZ 012100Z 19007KT 9999 FEW014 BKN030 M01/M03 Q1005 NOSIG",
      "taf": "TAF LZKZ 011715Z 0118/0218 22009KT CAVOK"
    },
    {
      "icao": "LZTT",
      "alert": "OK",
      "vis_m": 9999,
      "fzfg": false,
      "metar_trigger": false,
      "taf_trigger": false,
      "metar": "METAR LZTT 012100Z 26011KT 9999 FEW060 M01/M07 Q0999",
      "taf": "TAF LZTT 011715Z 0118/0218 26015KT 9999 BKN040"
    },
    {
      "icao": "OEJN",
      "alert": "OK",
      "vis_m": 9999,
      "fzfg": false,
      "metar_trigger": false,
      "taf_trigger": false,
      "metar": "METAR OEJN 012100Z 36004KT CAVOK 22/13 Q1015 NOSIG",
      "taf": "TAF OEJN 011700Z 0118/0224 02008KT CAVOK"
    },
    {
      "icao": "OEMA",
      "alert": "OK",
      "vis_m": 9999,
      "fzfg": false,
      "metar_trigger": false,
      "taf_trigger": false,
      "metar": "METAR OEMA 012100Z 02004KT CAVOK 15/M03 Q1020 NOSIG",
      "taf": "TAF OEMA 011700Z 0118/0224 VRB03KT CAVOK"
    },
    {
      "icao": "OJAI",
      "alert": "OK",
      "vis_m": 4000,
      "fzfg": false,
      "metar_trigger": false,
      "taf_trigger": false,
      "metar": "METAR OJAI 012100Z 24014KT 4000 HZ BKN040 10/06 Q1016 NOSIG",
      "taf": "TAF OJAI 011614Z 0118/0224 25012KT 5000 HZ SCT035"
    },
    {
      "icao": "OMAA",
      "alert": "OK",
      "vis_m": 9999,
      "fzfg": false,
      "metar_trigger": false,
      "taf_trigger": false,
      "metar": "METAR OMAA 012100Z 19005KT 9999 FEW035 18/14 Q1018 NOSIG",
      "taf": "TAF OMAA 011700Z 0118/0300 VRB02KT 8000 FEW035"
    },
    {
      "icao": "OMDB",
      "alert": "OK",
      "vis_m": 9999,
      "fzfg": false,
      "metar_trigger": false,
      "taf_trigger": false,
      "metar": "METAR OMDB 012100Z 16005KT 120V180 CAVOK 18/11 Q1018 NOSIG",
      "taf": "TAF OMDB 011700Z 0118/0300 18005KT 8000 NSC"
    },
    {
      "icao": "UAAA",
      "alert": "OK",
      "vis_m": 5000,
      "fzfg": false,
      "metar_trigger": false,
      "taf_trigger": false,
      "metar": "METAR UAAA 012100Z 29002MPS 5000 BR OVC003 M00/M01 Q1020 NOSIG RMK QBB110",
      "taf": "TAF UAAA 011700Z 0118/0218 32003MPS 1200 BR BKN004 OVC011 TX02/0209Z TNM03/0202Z"
    },
    {
      "icao": "UBBB",
      "alert": "OK",
      "vis_m": 9999,
      "fzfg": false,
      "metar_trigger": false,
      "taf_trigger": false,
      "metar": "METAR UBBB 012100Z 32010KT 9999 BKN030 05/01 Q1012 NOSIG",
      "taf": "TAF UBBB 011706Z 0118/0218 32014KT 9999 BKN025 TX04/0210Z TN02/0203Z"
    },
    {
      "icao": "UDSG",
      "alert": "OK",
      "vis_m": 6000,
      "fzfg": false,
      "metar_trigger": false,
      "taf_trigger": false,
      "metar": "METAR UDSG 012100Z 32008KT 6000 -SN OVC023 M03/M03 Q1005 NOSIG",
      "taf": "TAF UDSG 011700Z 0118/0218 VRB06KT 1200 BR OVC020"
    },
    {
      "icao": "UDYZ",
      "alert": "OK",
      "vis_m": 1500,
      "fzfg": false,
      "metar_trigger": false,
      "taf_trigger": false,
      "metar": "METAR UDYZ 012100Z VRB01KT 1500 R08/P2000N BR SCT043CB M03/M03 Q1006 NOSIG",
      "taf": "TAF UDYZ 011700Z 0118/0218 24006KT 1500 BR BKN020"
    },
    {
      "icao": "UGKO",
      "alert": "OK",
      "vis_m": 9999,
      "fzfg": false,
      "metar_trigger": false,
      "taf_trigger": false,
      "metar": "METAR UGKO 012100Z 23013KT 9999 BKN060 03/00 Q1014 NOSIG",
      "taf": "TAF UGKO 011700Z 0118/0218 25010KT 9999 BKN050 TX03/0211Z TNM03/0204Z"
    }
  ]
}