{
  "ts_utc": "2026-03-03T19:47:11Z",
  "threshold_m": 150,
  "source": "stations_override.txt (ICAO list) + aviationweather.gov (METAR/TAF raw)",
  "station_count": 159,
  "stations": [
    {
      "icao": "BIKF",
      "alert": "OK",
      "vis_m": 9999,
      "fzfg": false,
      "metar_trigger": false,
      "taf_trigger": false,
      "metar": "METAR BIKF 031930Z 23005KT 180V260 9999 SCT020 BKN028 OVC056 04/03 Q0988",
      "taf": "TAF BIKF 031632Z 0318/0418 12028G40KT 5000 RADZ BKN012 TX07/0318Z TN00/0408Z"
    },
    {
      "icao": "BKPR",
      "alert": "OK",
      "vis_m": 9999,
      "fzfg": false,
      "metar_trigger": false,
      "taf_trigger": false,
      "metar": "METAR BKPR 031930Z 33005KT CAVOK 08/03 Q1027 NOSIG",
      "taf": "TAF BKPR 031730Z 0318/0418 VRB05KT CAVOK"
    },
    {
      "icao": "EBCI",
      "alert": "OK",
      "vis_m": 9999,
      "fzfg": false,
      "metar_trigger": false,
      "taf_trigger": false,
      "metar": "METAR EBCI 031920Z 01002KT CAVOK 12/05 Q1026 NOSIG",
      "taf": ""
    },
    {
      "icao": "EDDB",
      "alert": "OK",
      "vis_m": 9999,
      "fzfg": false,
      "metar_trigger": false,
      "taf_trigger": false,
      "metar": "METAR EDDB 031920Z AUTO VRB01KT CAVOK 08/03 Q1026 NOSIG",
      "taf": "TAF EDDB 031700Z 0318/0418 26005KT CAVOK"
    },
    {
      "icao": "EDDH",
      "alert": "OK",
      "vis_m": 9999,
      "fzfg": false,
      "metar_trigger": false,
      "taf_trigger": false,
      "metar": "METAR EDDH 031920Z AUTO 31006KT 280V340 CAVOK 08/06 Q1027 NOSIG",
      "taf": "TAF EDDH 031700Z 0318/0424 31005KT CAVOK"
    },
    {
      "icao": "EDDK",
      "alert": "OK",
      "vis_m": 9999,
      "fzfg": false,
      "metar_trigger": false,
      "taf_trigger": false,
      "metar": "METAR EDDK 031920Z AUTO 06005KT CAVOK 09/05 Q1026 NOSIG",
      "taf": "TAF EDDK 031700Z 0318/0424 VRB03KT CAVOK"
    },
    {
      "icao": "EDDN",
      "alert": "OK",
      "vis_m": 9999,
      "fzfg": false,
      "metar_trigger": false,
      "taf_trigger": false,
      "metar": "METAR EDDN 031920Z AUTO VRB01KT CAVOK 07/04 Q1026 NOSIG",
      "taf": "TAF EDDN 031700Z 0318/0418 VRB02KT CAVOK"
    },
    {
      "icao": "EDDS",
      "alert": "OK",
      "vis_m": 9999,
      "fzfg": false,
      "metar_trigger": false,
      "taf_trigger": false,
      "metar": "METAR EDDS 031920Z AUTO VRB01KT CAVOK 08/02 Q1026 NOSIG",
      "taf": "TAF EDDS 031700Z 0318/0418 VRB03KT CAVOK"
    },
    {
      "icao": "EDFH",
      "alert": "OK",
      "vis_m": 9999,
      "fzfg": false,
      "metar_trigger": false,
      "taf_trigger": false,
      "metar": "METAR EDFH 031920Z 13003KT CAVOK 10/04 Q1026",
      "taf": "TAF EDFH 031700Z 0318/0418 18004KT CAVOK"
    },
    {
      "icao": "EDJA",
      "alert": "OK",
      "vis_m": 5000,
      "fzfg": false,
      "metar_trigger": false,
      "taf_trigger": false,
      "metar": "METAR EDJA 031920Z 17001KT 5000 NSC 03/03 Q1026",
      "taf": "TAF EDJA 031700Z 0318/0403 VRB03KT CAVOK"
    },
    {
      "icao": "EDLW",
      "alert": "OK",
      "vis_m": 9999,
      "fzfg": false,
      "metar_trigger": false,
      "taf_trigger": false,
      "metar": "METAR EDLW 031920Z 00000KT CAVOK 12/04 Q1026",
      "taf": "TAF EDLW 031700Z 0318/0418 VRB03KT CAVOK"
    },
    {
      "icao": "EDNY",
      "alert": "OK",
      "vis_m": 9999,
      "fzfg": false,
      "metar_trigger": false,
      "taf_trigger": false,
      "metar": "METAR EDNY 031920Z VRB02KT CAVOK 04/03 Q1026",
      "taf": "TAF EDNY 031700Z 0318/0403 VRB02KT CAVOK"
    },
    {
      "icao": "EDSB",
      "alert": "OK",
      "vis_m": 9999,
      "fzfg": false,
      "metar_trigger": false,
      "taf_trigger": false,
      "metar": "METAR EDSB 031920Z VRB01KT CAVOK 08/04 Q1026",
      "taf": "TAF EDSB 031700Z 0318/0418 04004KT CAVOK"
    },
    {
      "icao": "EETN",
      "alert": "OK",
      "vis_m": 9999,
      "fzfg": false,
      "metar_trigger": false,
      "taf_trigger": false,
      "metar": "METAR EETN 031920Z 22012KT 9999 SCT007 OVC015 03/02 Q1011 NOSIG",
      "taf": "TAF EETN 031730Z 0318/0418 20014KT 9999 BKN004 OVC010"
    },
    {
      "icao": "EFTU",
      "alert": "OK",
      "vis_m": 9999,
      "fzfg": false,
      "metar_trigger": false,
      "taf_trigger": false,
      "metar": "METAR EFTU 031920Z AUTO 28012KT 9999 FEW011 02/01 Q1008",
      "taf": ""
    },
    {
      "icao": "EGBB",
      "alert": "OK",
      "vis_m": 9999,
      "fzfg": false,
      "metar_trigger": false,
      "taf_trigger": false,
      "metar": "METAR EGBB 031920Z 09008KT 9999 OVC031 09/05 Q1028",
      "taf": "TAF EGBB 031655Z 0318/0418 07007KT 9999 SCT040"
    },
    {
      "icao": "EGGP",
      "alert": "OK",
      "vis_m": 9999,
      "fzfg": false,
      "metar_trigger": false,
      "taf_trigger": false,
      "metar": "METAR EGGP 031920Z 12007KT 9999 FEW041 09/04 Q1028",
      "taf": "TAF EGGP 031658Z 0318/0418 14007KT 9999 FEW035"
    },
    {
      "icao": "EGGW",
      "alert": "OK",
      "vis_m": 9999,
      "fzfg": false,
      "metar_trigger": false,
      "taf_trigger": false,
      "metar": "METAR EGGW 031920Z AUTO 09007KT 9999 NCD 10/06 Q1027",
      "taf": "TAF EGGW 031655Z 0318/0418 07006KT 9999 SCT030"
    },
    {
      "icao": "EGKK",
      "alert": "OK",
      "vis_m": 9999,
      "fzfg": false,
      "metar_trigger": false,
      "taf_trigger": false,
      "metar": "METAR EGKK 031920Z 08007KT CAVOK 08/05 Q1027",
      "taf": ""
    },
    {
      "icao": "EGNM",
      "alert": "OK",
      "vis_m": 9999,
      "fzfg": false,
      "metar_trigger": false,
      "taf_trigger": false,
      "metar": "METAR EGNM 031920Z 10005KT CAVOK 05/01 Q1029",
      "taf": "TAF EGNM 031656Z 0318/0418 11005KT 9999 FEW030"
    },
    {
      "icao": "EGPD",
      "alert": "OK",
      "vis_m": 9999,
      "fzfg": false,
      "metar_trigger": false,
      "taf_trigger": false,
      "metar": "METAR EGPD 031920Z COR AUTO 22005KT 9999 NCD 05/01 Q1027 NOSIG",
      "taf": "TAF EGPD 031656Z 0318/0418 19005KT 9999 FEW040"
    },
    {
      "icao": "EGPF",
      "alert": "OK",
      "vis_m": 9999,
      "fzfg": false,
      "metar_trigger": false,
      "taf_trigger": false,
      "metar": "METAR EGPF 031920Z AUTO 33001KT 9999 NCD 03/01 Q1028",
      "taf": "TAF EGPF 031658Z 0318/0418 11004KT 9999 FEW030"
    },
    {
      "icao": "EHBK",
      "alert": "OK",
      "vis_m": 9999,
      "fzfg": false,
      "metar_trigger": false,
      "taf_trigger": false,
      "metar": "METAR EHBK 031925Z AUTO 09003KT 9999 NCD 11/06 Q1026 NOSIG",
      "taf": "TAF EHBK 031717Z 0318/0424 09006KT CAVOK"
    },
    {
      "icao": "EHEH",
      "alert": "OK",
      "vis_m": 9999,
      "fzfg": false,
      "metar_trigger": false,
      "taf_trigger": false,
      "metar": "METAR EHEH 031925Z AUTO 36003KT 9999 NCD 10/07 Q1026 BLU NOSIG",
      "taf": "TAF EHEH 031739Z 0318/0424 02005KT CAVOK"
    },
    {
      "icao": "EKBI",
      "alert": "OK",
      "vis_m": 9999,
      "fzfg": false,
      "metar_trigger": false,
      "taf_trigger": false,
      "metar": "METAR EKBI 031920Z AUTO 28006KT 9999 NCD 02/01 Q1028",
      "taf": "TAF EKBI 031727Z 0318/0418 30010KT 9999 SCT020"
    },
    {
      "icao": "EKCH",
      "alert": "OK",
      "vis_m": 9999,
      "fzfg": false,
      "metar_trigger": false,
      "taf_trigger": false,
      "metar": "METAR EKCH 031920Z AUTO 29008KT 9999 NCD 05/01 Q1026 NOSIG",
      "taf": "TAF EKCH 031727Z 0318/0418 30012KT 9999 FEW020"
    },
    {
      "icao": "ENAL",
      "alert": "OK",
      "vis_m": 9999,
      "fzfg": false,
      "metar_trigger": false,
      "taf_trigger": false,
      "metar": "METAR ENAL 031920Z 26022KT 9999 FEW034 SCT052 05/M01 Q1016",
      "taf": "TAF ENAL 031700Z 0318/0403 26020KT 9999 -SHRA FEW012TCU BKN025"
    },
    {
      "icao": "ENBR",
      "alert": "OK",
      "vis_m": 9999,
      "fzfg": false,
      "metar_trigger": false,
      "taf_trigger": false,
      "metar": "METAR ENBR 031920Z VRB02KT 9999 VCSH FEW005 SCT019TCU BKN035 05/02 Q1022 NOSIG RMK WIND 1200FT 29014KT",
      "taf": "TAF ENBR 031700Z 0318/0418 25008KT 9999 FEW015TCU SCT040"
    },
    {
      "icao": "ENGM",
      "alert": "OK",
      "vis_m": 9999,
      "fzfg": false,
      "metar_trigger": false,
      "taf_trigger": false,
      "metar": "METAR ENGM 031920Z 25006KT 220V290 CAVOK 04/M05 Q1015 NOSIG",
      "taf": "TAF ENGM 031700Z 0318/0418 24008KT CAVOK"
    },
    {
      "icao": "ENHD",
      "alert": "OK",
      "vis_m": 9000,
      "fzfg": false,
      "metar_trigger": false,
      "taf_trigger": false,
      "metar": "METAR ENHD 031920Z 26014KT 9000 SCT013 06/04 Q1024",
      "taf": "TAF ENHD 031400Z 0315/0323 27015KT 9999 FEW010 SCT030"
    },
    {
      "icao": "ENTC",
      "alert": "OK",
      "vis_m": 9999,
      "fzfg": false,
      "metar_trigger": false,
      "taf_trigger": false,
      "metar": "METAR ENTC 031920Z 19017KT 9999 BKN053 00/M04 Q0992 NOSIG RMK WIND 2600FT 19018KT",
      "taf": "TAF ENTC 031700Z 0318/0418 20015KT 9999 FEW015 BKN040"
    },
    {
      "icao": "ENTO",
      "alert": "OK",
      "vis_m": 9999,
      "fzfg": false,
      "metar_trigger": false,
      "taf_trigger": false,
      "metar": "METAR ENTO 031920Z 23008KT CAVOK 04/M02 Q1019 NOSIG",
      "taf": "TAF ENTO 031700Z 0318/0418 24008KT CAVOK"
    },
    {
      "icao": "ENVA",
      "alert": "OK",
      "vis_m": 9999,
      "fzfg": false,
      "metar_trigger": false,
      "taf_trigger": false,
      "metar": "METAR ENVA 031920Z 24019KT 9999 VCSH SCT038 BKN052 04/00 Q1009 TEMPO 4000 SHRAGS BKN014CB RMK WIND 670FT 25019G34KT",
      "taf": "TAF ENVA 031700Z 0318/0418 25025KT 9999 FEW020TCU BKN030"
    },
    {
      "icao": "ENZV",
      "alert": "OK",
      "vis_m": 7000,
      "fzfg": false,
      "metar_trigger": false,
      "taf_trigger": false,
      "metar": "METAR ENZV 031920Z 27013KT 7000 NSC 05/03 Q1025 NOSIG",
      "taf": "TAF ENZV 031700Z 0318/0418 28012KT 9999 FEW020 SCT040"
    },
    {
      "icao": "EPGD",
      "alert": "OK",
      "vis_m": 9999,
      "fzfg": false,
      "metar_trigger": false,
      "taf_trigger": false,
      "metar": "METAR EPGD 031930Z 23005KT CAVOK 07/M01 Q1023",
      "taf": "TAF EPGD 031730Z 0318/0418 23004KT CAVOK"
    },
    {
      "icao": "EPKK",
      "alert": "OK",
      "vis_m": 9999,
      "fzfg": false,
      "metar_trigger": false,
      "taf_trigger": false,
      "metar": "METAR EPKK 031930Z 00000KT CAVOK 04/M01 Q1027",
      "taf": "TAF EPKK 031730Z 0318/0418 VRB02KT CAVOK"
    },
    {
      "icao": "EPKT",
      "alert": "OK",
      "vis_m": 9999,
      "fzfg": false,
      "metar_trigger": false,
      "taf_trigger": false,
      "metar": "METAR EPKT 031930Z 07002KT CAVOK 02/M03 Q1026",
      "taf": "TAF EPKT 031730Z 0318/0418 VRB02KT CAVOK"
    },
    {
      "icao": "EPLB",
      "alert": "OK",
      "vis_m": 4600,
      "fzfg": false,
      "metar_trigger": false,
      "taf_trigger": false,
      "metar": "METAR EPLB 031930Z VRB01KT 4600 BR NSC 04/03 Q1026",
      "taf": "TAF EPLB 031730Z 0318/0418 21004KT 9999 SCT040"
    },
    {
      "icao": "EPMO",
      "alert": "OK",
      "vis_m": 9999,
      "fzfg": false,
      "metar_trigger": false,
      "taf_trigger": false,
      "metar": "METAR EPMO 031930Z 22007KT CAVOK 07/01 Q1025",
      "taf": "TAF EPMO 031730Z 0318/0418 22005KT CAVOK"
    },
    {
      "icao": "EPPO",
      "alert": "OK",
      "vis_m": 8000,
      "fzfg": false,
      "metar_trigger": false,
      "taf_trigger": false,
      "metar": "METAR EPPO 031930Z 18001KT 8000 NSC 03/M00 Q1025",
      "taf": "TAF EPPO 031730Z 0318/0418 VRB02KT CAVOK"
    },
    {
      "icao": "EPRA",
      "alert": "OK",
      "vis_m": 9000,
      "fzfg": false,
      "metar_trigger": false,
      "taf_trigger": false,
      "metar": "METAR EPRA 031930Z 21005KT 9000 NSC 05/00 Q1026",
      "taf": "TAF EPRA 031730Z 0318/0403 VRB02KT 8000 NSC"
    },
    {
      "icao": "EPRZ",
      "alert": "OK",
      "vis_m": 9999,
      "fzfg": false,
      "metar_trigger": false,
      "taf_trigger": false,
      "metar": "METAR EPRZ 031930Z 09002KT CAVOK 05/01 Q1027",
      "taf": "TAF EPRZ 031730Z 0318/0418 VRB02KT CAVOK"
    },
    {
      "icao": "EPSC",
      "alert": "OK",
      "vis_m": 9999,
      "fzfg": false,
      "metar_trigger": false,
      "taf_trigger": false,
      "metar": "METAR EPSC 031930Z VRB01KT CAVOK 06/02 Q1025",
      "taf": "TAF EPSC 031730Z 0318/0418 22010KT CAVOK"
    },
    {
      "icao": "EPSY",
      "alert": "OK",
      "vis_m": 9999,
      "fzfg": false,
      "metar_trigger": false,
      "taf_trigger": false,
      "metar": "METAR EPSY 031930Z VRB03KT CAVOK 01/01 Q1024",
      "taf": "TAF EPSY 031730Z 0318/0403 21006KT CAVOK"
    },
    {
      "icao": "EPWA",
      "alert": "OK",
      "vis_m": 9999,
      "fzfg": false,
      "metar_trigger": false,
      "taf_trigger": false,
      "metar": "METAR EPWA 031930Z 22005KT CAVOK 07/01 Q1025 NOSIG",
      "taf": "TAF EPWA 031730Z 0318/0418 23005KT CAVOK"
    },
    {
      "icao": "EPWR",
      "alert": "OK",
      "vis_m": 9999,
      "fzfg": false,
      "metar_trigger": false,
      "taf_trigger": false,
      "metar": "METAR EPWR 031930Z 13002KT CAVOK 04/00 Q1026",
      "taf": "TAF EPWR 031730Z 0318/0418 VRB02KT CAVOK"
    },
    {
      "icao": "ESGG",
      "alert": "OK",
      "vis_m": 9999,
      "fzfg": false,
      "metar_trigger": false,
      "taf_trigger": false,
      "metar": "METAR ESGG 031920Z 26009KT CAVOK 03/01 Q1021",
      "taf": "TAF ESGG 031730Z 0318/0418 27010KT CAVOK"
    },
    {
      "icao": "ESKN",
      "alert": "OK",
      "vis_m": 9999,
      "fzfg": false,
      "metar_trigger": false,
      "taf_trigger": false,
      "metar": "METAR ESKN 031920Z 25011KT CAVOK 04/M01 Q1016",
      "taf": "TAF ESKN 031730Z 0318/0418 26014KT CAVOK"
    },
    {
      "icao": "ESMS",
      "alert": "OK",
      "vis_m": 9999,
      "fzfg": false,
      "metar_trigger": false,
      "taf_trigger": false,
      "metar": "METAR ESMS 031920Z 30008KT CAVOK 04/01 Q1025",
      "taf": "TAF ESMS 031727Z 0318/0418 27012KT 9999 FEW025"
    },
    {
      "icao": "ESSA",
      "alert": "OK",
      "vis_m": 9999,
      "fzfg": false,
      "metar_trigger": false,
      "taf_trigger": false,
      "metar": "METAR ESSA 031920Z 26010KT CAVOK 04/00 Q1013 NOSIG",
      "taf": "TAF ESSA 031730Z 0318/0418 26012KT CAVOK"
    },
    {
      "icao": "EYKA",
      "alert": "OK",
      "vis_m": 9999,
      "fzfg": false,
      "metar_trigger": false,
      "taf_trigger": false,
      "metar": "METAR EYKA 031920Z 21005KT 170V240 9999 SCT034 03/M00 Q1022",
      "taf": "TAF EYKA 031705Z 0318/0418 VRB04KT 5000 BR SCT005 BKN015"
    },
    {
      "icao": "EYPA",
      "alert": "OK",
      "vis_m": 9999,
      "fzfg": false,
      "metar_trigger": false,
      "taf_trigger": false,
      "metar": "METAR EYPA 031920Z 21009KT 180V240 CAVOK 05/01 Q1019",
      "taf": "TAF EYPA 031700Z 0318/0418 28008KT 9000 NSC"
    },
    {
      "icao": "EYVI",
      "alert": "OK",
      "vis_m": 9999,
      "fzfg": false,
      "metar_trigger": false,
      "taf_trigger": false,
      "metar": "METAR EYVI 031920Z 20006KT 9999 FEW018 BKN035 01/M02 Q1022 NOSIG",
      "taf": "TAF EYVI 031710Z 0318/0418 20010KT 5000 BR SCT005 BKN015"
    },
    {
      "icao": "GCFV",
      "alert": "OK",
      "vis_m": 9999,
      "fzfg": false,
      "metar_trigger": false,
      "taf_trigger": false,
      "metar": "METAR GCFV 031930Z VRB02KT 9999 SCT035CB 14/09 Q1015 RESHRA",
      "taf": ""
    },
    {
      "icao": "GCLP",
      "alert": "OK",
      "vis_m": 9999,
      "fzfg": false,
      "metar_trigger": false,
      "taf_trigger": false,
      "metar": "METAR GCLP 031930Z 35011KT 320V020 9999 SCT030 BKN050 14/09 Q1017 RERA NOSIG",
      "taf": "TAF GCLP 031400Z 0315/0415 33015KT 9999 FEW035 SCT050 TX21/0414Z TN14/0406Z"
    },
    {
      "icao": "GCTS",
      "alert": "OK",
      "vis_m": 9999,
      "fzfg": false,
      "metar_trigger": false,
      "taf_trigger": false,
      "metar": "METAR GCTS 031930Z 12008KT 090V160 9999 FEW035 BKN055 17/08 Q1016 NOSIG",
      "taf": "TAF GCTS 031400Z 0315/0415 13012KT 9999 BKN050 TX22/0414Z TN13/0406Z"
    },
    {
      "icao": "GMAD",
      "alert": "OK",
      "vis_m": 8000,
      "fzfg": false,
      "metar_trigger": false,
      "taf_trigger": false,
      "metar": "METAR GMAD 031930Z 17006KT 120V190 8000 FEW020TCU FEW026 SCT080 10/08 Q1012 NOSIG",
      "taf": ""
    },
    {
      "icao": "GMMN",
      "alert": "OK",
      "vis_m": 9999,
      "fzfg": false,
      "metar_trigger": false,
      "taf_trigger": false,
      "metar": "METAR GMMN 031930Z 14005KT 9999 SCT030 07/05 Q1010 NOSIG",
      "taf": "TAF GMMN 031700Z 0318/0424 16012KT 9999 SCT030"
    },
    {
      "icao": "GMMX",
      "alert": "OK",
      "vis_m": 8000,
      "fzfg": false,
      "metar_trigger": false,
      "taf_trigger": false,
      "metar": "METAR GMMX 031930Z 25004KT 230V290 8000 BKN023 FEW030TCU 09/06 Q1010 NOSIG",
      "taf": "TAF GMMX 031700Z 0318/0424 28012KT 8000 BKN023"
    },
    {
      "icao": "HEGN",
      "alert": "OK",
      "vis_m": 9999,
      "fzfg": false,
      "metar_trigger": false,
      "taf_trigger": false,
      "metar": "METAR HEGN 031900Z 33015KT CAVOK 18/06 Q1020 NOSIG",
      "taf": "TAF HEGN 031700Z 0318/0424 33008G20KT CAVOK"
    },
    {
      "icao": "HEMA",
      "alert": "OK",
      "vis_m": 9999,
      "fzfg": false,
      "metar_trigger": false,
      "taf_trigger": false,
      "metar": "METAR HEMA 031900Z 31010KT CAVOK 18/06 Q1019 NOSIG",
      "taf": "TAF HEMA 031700Z 0318/0424 34008G20KT 6000 NSC"
    },
    {
      "icao": "HESH",
      "alert": "OK",
      "vis_m": 9999,
      "fzfg": false,
      "metar_trigger": false,
      "taf_trigger": false,
      "metar": "METAR HESH 031900Z 29006KT CAVOK 21/07 Q1019 NOSIG",
      "taf": "TAF HESH 031700Z 0318/0424 03006G18KT CAVOK"
    },
    {
      "icao": "HESX",
      "alert": "OK",
      "vis_m": 9999,
      "fzfg": false,
      "metar_trigger": false,
      "taf_trigger": false,
      "metar": "METAR HESX 031900Z 01008KT CAVOK 13/08 Q1024 NOSIG",
      "taf": "TAF HESX 031700Z 0318/0424 01009KT 9999 SCT020"
    },
    {
      "icao": "LATI",
      "alert": "OK",
      "vis_m": null,
      "fzfg": false,
      "metar_trigger": false,
      "taf_trigger": false,
      "metar": "",
      "taf": "TAF LATI 031700Z 0318/0418 VRB03KT CAVOK TX19/0412Z TN04/0403Z"
    },
    {
      "icao": "LBPD",
      "alert": "OK",
      "vis_m": 9999,
      "fzfg": false,
      "metar_trigger": false,
      "taf_trigger": false,
      "metar": "METAR LBPD 031930Z AUTO VRB02KT 9999 NCD 06/02 Q1027 NOSIG",
      "taf": "TAF LBPD 031700Z 0318/0418 VRB03KT 9999 SCT080"
    },
    {
      "icao": "LBSF",
      "alert": "OK",
      "vis_m": 9999,
      "fzfg": false,
      "metar_trigger": false,
      "taf_trigger": false,
      "metar": "METAR LBSF 031930Z AUTO 00000KT 9999 NSC 07/01 Q1027 NOSIG",
      "taf": "TAF LBSF 031700Z 0318/0418 VRB03KT 9999 SCT060"
    },
    {
      "icao": "LBWN",
      "alert": "OK",
      "vis_m": 9999,
      "fzfg": false,
      "metar_trigger": false,
      "taf_trigger": false,
      "metar": "METAR LBWN 031930Z AUTO VRB02KT 9999 NCD 05/05 Q1028 TEMPO 5000 BR",
      "taf": "TAF LBWN 031700Z 0318/0418 VRB04KT CAVOK"
    },
    {
      "icao": "LCLK",
      "alert": "OK",
      "vis_m": 9999,
      "fzfg": false,
      "metar_trigger": false,
      "taf_trigger": false,
      "metar": "METAR LCLK 031930Z 32004KT CAVOK 10/06 Q1022 NOSIG",
      "taf": "TAF LCLK 031730Z 0318/0418 30006KT 9999 FEW030"
    },
    {
      "icao": "LCPH",
      "alert": "OK",
      "vis_m": 9999,
      "fzfg": false,
      "metar_trigger": false,
      "taf_trigger": false,
      "metar": "METAR LCPH 031930Z 02006KT 9999 FEW040 11/06 Q1023 NOSIG",
      "taf": "TAF LCPH 031730Z 0318/0418 03010KT 9999 FEW020"
    },
    {
      "icao": "LEAL",
      "alert": "OK",
      "vis_m": 9999,
      "fzfg": false,
      "metar_trigger": false,
      "taf_trigger": false,
      "metar": "METAR LEAL 031930Z 05007KT 010V090 CAVOK 17/10 Q1014 NOSIG",
      "taf": "TAF LEAL 031700Z 0318/0418 05015KT 9999 FEW020 TX20/0412Z TN12/0407Z"
    },
    {
      "icao": "LEBB",
      "alert": "OK",
      "vis_m": 9999,
      "fzfg": false,
      "metar_trigger": false,
      "taf_trigger": false,
      "metar": "METAR LEBB 031930Z 09005KT CAVOK 14/09 Q1019 NOSIG",
      "taf": "TAF LEBB 031700Z 0318/0418 13009KT CAVOK TX21/0415Z TN09/0407Z"
    },
    {
      "icao": "LEBL",
      "alert": "OK",
      "vis_m": 9999,
      "fzfg": false,
      "metar_trigger": false,
      "taf_trigger": false,
      "metar": "METAR LEBL 031930Z 07018KT 9999 FEW015 SCT060 14/11 Q1021 NOSIG",
      "taf": "TAF LEBL 031700Z 0318/0418 05015KT 9999 FEW020 TX17/0412Z TN13/0406Z"
    },
    {
      "icao": "LECH",
      "alert": "OK",
      "vis_m": 9000,
      "fzfg": false,
      "metar_trigger": false,
      "taf_trigger": false,
      "metar": "METAR LECH 031930Z AUTO 05013KT 360V070 9000 NCD 12/08 Q1020",
      "taf": ""
    },
    {
      "icao": "LEMD",
      "alert": "OK",
      "vis_m": 9999,
      "fzfg": false,
      "metar_trigger": false,
      "taf_trigger": false,
      "metar": "METAR LEMD 031930Z 05007G17KT 340V100 CAVOK 13/06 Q1016 NOSIG",
      "taf": "TAF LEMD 031700Z 0318/0424 02006KT 9999 SCT060 TX18/0414Z TN07/0407Z"
    },
    {
      "icao": "LEMG",
      "alert": "OK",
      "vis_m": 7000,
      "fzfg": false,
      "metar_trigger": false,
      "taf_trigger": false,
      "metar": "METAR LEMG 031930Z VRB01KT 7000 FEW050 15/10 Q1010 NOSIG",
      "taf": "TAF LEMG 031700Z 0318/0418 18005KT 9999 FEW040 TX17/0414Z TN12/0407Z"
    },
    {
      "icao": "LEVC",
      "alert": "OK",
      "vis_m": 8000,
      "fzfg": false,
      "metar_trigger": false,
      "taf_trigger": false,
      "metar": "METAR LEVC 031930Z 05014KT 8000 -DZ FEW015 SCT020 BKN025 14/11 Q1019 NOSIG",
      "taf": "TAF LEVC 031700Z 0318/0418 05010KT 9999 BKN020 TX16/0412Z TN13/0407Z"
    },
    {
      "icao": "LEXJ",
      "alert": "OK",
      "vis_m": 9999,
      "fzfg": false,
      "metar_trigger": false,
      "taf_trigger": false,
      "metar": "METAR LEXJ 031930Z 13004KT 100V160 CAVOK 14/06 Q1018",
      "taf": "TAF LEXJ 031400Z 0315/0415 17007KT CAVOK TX19/0412Z TN09/0407Z"
    },
    {
      "icao": "LEZG",
      "alert": "OK",
      "vis_m": 9999,
      "fzfg": false,
      "metar_trigger": false,
      "taf_trigger": false,
      "metar": "METAR LEZG 031930Z 24004KT CAVOK 13/11 Q1021 NOSIG",
      "taf": "TAF LEZG 031700Z 0318/0418 VRB03KT 9999 FEW030 TX18/0415Z TN07/0406Z"
    },
    {
      "icao": "LEZL",
      "alert": "OK",
      "vis_m": 9999,
      "fzfg": false,
      "metar_trigger": false,
      "taf_trigger": false,
      "metar": "METAR LEZL 031930Z 32001KT CAVOK 18/11 Q1010 NOSIG",
      "taf": "TAF LEZL 031400Z 0315/0415 07010KT CAVOK TX23/0315Z TN11/0407Z"
    },
    {
      "icao": "LFBD",
      "alert": "OK",
      "vis_m": 9999,
      "fzfg": false,
      "metar_trigger": false,
      "taf_trigger": false,
      "metar": "METAR LFBD 031930Z AUTO 11007KT CAVOK 14/09 Q1022 NOSIG",
      "taf": "TAF LFBD 031700Z 0318/0424 12010KT CAVOK TX19/0414Z TN07/0406Z"
    },
    {
      "icao": "LFLL",
      "alert": "OK",
      "vis_m": 9999,
      "fzfg": false,
      "metar_trigger": false,
      "taf_trigger": false,
      "metar": "METAR LFLL 031930Z 15007KT CAVOK 12/05 Q1024 NOSIG",
      "taf": "TAF LFLL 031700Z 0318/0424 14004KT CAVOK"
    },
    {
      "icao": "LFLS",
      "alert": "OK",
      "vis_m": 9999,
      "fzfg": false,
      "metar_trigger": false,
      "taf_trigger": false,
      "metar": "METAR LFLS 031930Z AUTO 09005KT CAVOK 07/05 Q1025 NOSIG",
      "taf": "TAF LFLS 031400Z 0315/0415 VRB03KT CAVOK"
    },
    {
      "icao": "LFMN",
      "alert": "OK",
      "vis_m": 9999,
      "fzfg": false,
      "metar_trigger": false,
      "taf_trigger": false,
      "metar": "METAR LFMN 031930Z 07015KT CAVOK 15/10 Q1025 NOSIG",
      "taf": "TAF LFMN 031400Z 0315/0421 09018KT CAVOK"
    },
    {
      "icao": "LFOB",
      "alert": "OK",
      "vis_m": 9999,
      "fzfg": false,
      "metar_trigger": false,
      "taf_trigger": false,
      "metar": "METAR LFOB 031930Z AUTO 04006KT CAVOK 09/07 Q1025 NOSIG",
      "taf": "TAF LFOB 031700Z 0318/0418 04005KT CAVOK"
    },
    {
      "icao": "LFPO",
      "alert": "OK",
      "vis_m": 9999,
      "fzfg": false,
      "metar_trigger": false,
      "taf_trigger": false,
      "metar": "METAR LFPO 031930Z 08003KT CAVOK 12/06 Q1025 NOSIG",
      "taf": "TAF LFPO 031700Z 0318/0424 09004KT CAVOK"
    },
    {
      "icao": "LFSB",
      "alert": "OK",
      "vis_m": 9999,
      "fzfg": false,
      "metar_trigger": false,
      "taf_trigger": false,
      "metar": "METAR LFSB 031930Z AUTO VRB02KT CAVOK 10/05 Q1025 NOSIG",
      "taf": "TAF LFSB 031700Z 0318/0418 34003KT CAVOK"
    },
    {
      "icao": "LGAV",
      "alert": "OK",
      "vis_m": 9999,
      "fzfg": false,
      "metar_trigger": false,
      "taf_trigger": false,
      "metar": "METAR LGAV 031920Z 01003KT 9999 FEW025 07/05 Q1026 NOSIG",
      "taf": "TAF LGAV 031700Z 0318/0418 VRB05KT 9999 FEW020"
    },
    {
      "icao": "LGTS",
      "alert": "OK",
      "vis_m": 9999,
      "fzfg": false,
      "metar_trigger": false,
      "taf_trigger": false,
      "metar": "METAR LGTS 031920Z 11006KT 9999 FEW025 11/08 Q1026 NOSIG",
      "taf": "TAF LGTS 031700Z 0318/0418 VRB03KT 9999 FEW025"
    },
    {
      "icao": "LHBP",
      "alert": "OK",
      "vis_m": 9999,
      "fzfg": false,
      "metar_trigger": false,
      "taf_trigger": false,
      "metar": "METAR LHBP 031930Z 03002KT CAVOK 03/M01 Q1028 NOSIG",
      "taf": "TAF LHBP 031715Z 0318/0418 36003KT CAVOK"
    },
    {
      "icao": "LHDC",
      "alert": "OK",
      "vis_m": 9999,
      "fzfg": false,
      "metar_trigger": false,
      "taf_trigger": false,
      "metar": "METAR LHDC 031915Z AUTO 00000KT CAVOK 05/M01 Q1028",
      "taf": ""
    },
    {
      "icao": "LIBD",
      "alert": "OK",
      "vis_m": 8000,
      "fzfg": false,
      "metar_trigger": false,
      "taf_trigger": false,
      "metar": "METAR LIBD 031920Z 23003KT 8000 FEW015 08/08 Q1027",
      "taf": "TAF LIBD 031700Z 0318/0418 VRB05KT 7000 SCT030"
    },
    {
      "icao": "LIBG",
      "alert": "OK",
      "vis_m": 9999,
      "fzfg": false,
      "metar_trigger": false,
      "taf_trigger": false,
      "metar": "METAR LIBG 031850Z VRB02KT CAVOK 11/09 Q1027",
      "taf": "TAF LIBG 031700Z 0318/0403 VRB06KT 9999 FEW020"
    },
    {
      "icao": "LIBP",
      "alert": "OK",
      "vis_m": 9000,
      "fzfg": false,
      "metar_trigger": false,
      "taf_trigger": false,
      "metar": "METAR LIBP 031920Z AUTO 01001KT 9000 BKN015/// BKN063/// 11/11 Q1028",
      "taf": "TAF LIBP 031700Z 0318/0418 VRB05KT 7000 FEW020"
    },
    {
      "icao": "LIBR",
      "alert": "OK",
      "vis_m": 9999,
      "fzfg": false,
      "metar_trigger": false,
      "taf_trigger": false,
      "metar": "METAR LIBR 031920Z 29005KT CAVOK 11/11 Q1027",
      "taf": "TAF LIBR 031700Z 0318/0418 VRB05KT 7000 SCT020"
    },
    {
      "icao": "LICA",
      "alert": "OK",
      "vis_m": 9999,
      "fzfg": false,
      "metar_trigger": false,
      "taf_trigger": false,
      "metar": "METAR LICA 031920Z AUTO 05010KT 9999 NCD 13/11 Q1026",
      "taf": "TAF LICA 031700Z 0318/0418 07015G25KT CAVOK"
    },
    {
      "icao": "LICC",
      "alert": "OK",
      "vis_m": 9999,
      "fzfg": false,
      "metar_trigger": false,
      "taf_trigger": false,
      "metar": "METAR LICC 031920Z 08006KT 9999 BKN120 14/12 Q1026",
      "taf": "TAF LICC 031700Z 0318/0418 08010KT 9999 SCT040"
    },
    {
      "icao": "LICJ",
      "alert": "OK",
      "vis_m": 9999,
      "fzfg": false,
      "metar_trigger": false,
      "taf_trigger": false,
      "metar": "METAR LICJ 031920Z 19005KT CAVOK 14/10 Q1024",
      "taf": "TAF LICJ 031700Z 0318/0418 04013KT 9999 SCT025"
    },
    {
      "icao": "LIMC",
      "alert": "OK",
      "vis_m": 9999,
      "fzfg": false,
      "metar_trigger": false,
      "taf_trigger": false,
      "metar": "METAR LIMC 031920Z VRB02KT CAVOK 09/06 Q1027 NOSIG",
      "taf": "TAF LIMC 031700Z 0318/0424 VRB05KT 9999 FEW030"
    },
    {
      "icao": "LIME",
      "alert": "OK",
      "vis_m": 8000,
      "fzfg": false,
      "metar_trigger": false,
      "taf_trigger": false,
      "metar": "METAR LIME 031920Z VRB02KT 8000 SCT050 12/08 Q1027 NOSIG",
      "taf": "TAF LIME 031700Z 0318/0418 VRB05KT 9999 SCT030"
    },
    {
      "icao": "LIMF",
      "alert": "OK",
      "vis_m": 6000,
      "fzfg": false,
      "metar_trigger": false,
      "taf_trigger": false,
      "metar": "METAR LIMF 031920Z VRB01KT 6000 SCT060 11/06 Q1027",
      "taf": "TAF LIMF 031700Z 0318/0418 VRB04KT 6000 SCT030"
    },
    {
      "icao": "LIMJ",
      "alert": "OK",
      "vis_m": 9999,
      "fzfg": false,
      "metar_trigger": false,
      "taf_trigger": false,
      "metar": "METAR LIMJ 031920Z 02004KT CAVOK 13/08 Q1026",
      "taf": "TAF LIMJ 031700Z 0318/0418 VRB05KT 9999 FEW050"
    },
    {
      "icao": "LIPE",
      "alert": "OK",
      "vis_m": 8000,
      "fzfg": false,
      "metar_trigger": false,
      "taf_trigger": false,
      "metar": "METAR LIPE 031920Z 11004KT 8000 NSC 09/06 Q1027",
      "taf": "TAF LIPE 031700Z 0318/0418 VRB04KT 6000 SCT015"
    },
    {
      "icao": "LIPH",
      "alert": "OK",
      "vis_m": 9999,
      "fzfg": false,
      "metar_trigger": false,
      "taf_trigger": false,
      "metar": "METAR LIPH 031920Z 13002KT CAVOK 10/09 Q1028",
      "taf": "TAF LIPH 031700Z 0318/0418 VRB04KT 5000 BR SCT030"
    },
    {
      "icao": "LIPQ",
      "alert": "OK",
      "vis_m": 350,
      "fzfg": false,
      "metar_trigger": false,
      "taf_trigger": false,
      "metar": "METAR LIPQ 031920Z AUTO 12003KT 0350 R09/0400U BCFG NCD 09/09 Q1028",
      "taf": "TAF LIPQ 031700Z 0318/0418 VRB05KT 6000 SCT030"
    },
    {
      "icao": "LIPR",
      "alert": "OK",
      "vis_m": 5000,
      "fzfg": false,
      "metar_trigger": false,
      "taf_trigger": false,
      "metar": "METAR LIPR 031920Z 08003KT 5000 BR SCT015 10/09 Q1028",
      "taf": "TAF LIPR 031700Z 0318/0418 VRB05KT 5000 BR BKN010"
    },
    {
      "icao": "LIPX",
      "alert": "OK",
      "vis_m": 7000,
      "fzfg": false,
      "metar_trigger": false,
      "taf_trigger": false,
      "metar": "METAR LIPX 031920Z VRB01KT 7000 SCT030 10/08 Q1028",
      "taf": "TAF LIPX 031700Z 0318/0418 VRB05KT 7000 SCT025"
    },
    {
      "icao": "LIPY",
      "alert": "OK",
      "vis_m": 6000,
      "fzfg": false,
      "metar_trigger": false,
      "taf_trigger": false,
      "metar": "METAR LIPY 031920Z AUTO 32003KT 290V360 6000 OVC006/// 10/09 Q1028",
      "taf": "TAF LIPY 031700Z 0318/0418 VRB05KT 6000 BKN006"
    },
    {
      "icao": "LIPZ",
      "alert": "OK",
      "vis_m": 9999,
      "fzfg": false,
      "metar_trigger": false,
      "taf_trigger": false,
      "metar": "METAR LIPZ 031920Z 20004KT CAVOK 09/08 Q1028 NOSIG",
      "taf": "TAF LIPZ 031700Z 0318/0424 VRB04KT CAVOK"
    },
    {
      "icao": "LIRF",
      "alert": "OK",
      "vis_m": 9999,
      "fzfg": false,
      "metar_trigger": false,
      "taf_trigger": false,
      "metar": "METAR LIRF 031920Z 07003KT CAVOK 12/11 Q1026 NOSIG",
      "taf": "TAF LIRF 031700Z 0318/0424 04006KT CAVOK"
    },
    {
      "icao": "LIRN",
      "alert": "OK",
      "vis_m": 8000,
      "fzfg": false,
      "metar_trigger": false,
      "taf_trigger": false,
      "metar": "METAR LIRN 031920Z VRB01KT 8000 NSC 13/10 Q1026 NOSIG",
      "taf": "TAF LIRN 031700Z 0318/0418 VRB05KT CAVOK"
    },
    {
      "icao": "LIRP",
      "alert": "OK",
      "vis_m": 9999,
      "fzfg": false,
      "metar_trigger": false,
      "taf_trigger": false,
      "metar": "METAR LIRP 031915Z 05003KT 9999 SCT060 13/12 Q1026 NOSIG",
      "taf": "TAF LIRP 031700Z 0318/0418 26006KT 9999 SCT030 SCT060"
    },
    {
      "icao": "LIRZ",
      "alert": "OK",
      "vis_m": 9999,
      "fzfg": false,
      "metar_trigger": false,
      "taf_trigger": false,
      "metar": "METAR LIRZ 031920Z 01006KT CAVOK 10/08 Q1026",
      "taf": "TAF LIRZ 031700Z 0318/0418 VRB05KT 9999 SCT040"
    },
    {
      "icao": "LJLJ",
      "alert": "OK",
      "vis_m": 9999,
      "fzfg": false,
      "metar_trigger": false,
      "taf_trigger": false,
      "metar": "METAR LJLJ 031930Z 00000KT CAVOK 04/03 Q1027 NOSIG",
      "taf": "TAF LJLJ 031700Z 0318/0418 VRB02KT 9999 FEW040"
    },
    {
      "icao": "LKMT",
      "alert": "OK",
      "vis_m": 9999,
      "fzfg": false,
      "metar_trigger": false,
      "taf_trigger": false,
      "metar": "METAR LKMT 031930Z 19003KT 160V250 CAVOK 07/03 Q1027 NOSIG",
      "taf": "TAF LKMT 031700Z 0318/0418 23003KT CAVOK"
    },
    {
      "icao": "LKPR",
      "alert": "OK",
      "vis_m": 5000,
      "fzfg": false,
      "metar_trigger": false,
      "taf_trigger": false,
      "metar": "METAR LKPR 031930Z VRB02KT 5000 BR MIFG NSC 03/03 Q1027 BECMG 3000 BR SCT003",
      "taf": "TAF LKPR 031700Z 0318/0424 VRB02KT CAVOK"
    },
    {
      "icao": "LLBG",
      "alert": "OK",
      "vis_m": 9999,
      "fzfg": false,
      "metar_trigger": false,
      "taf_trigger": false,
      "metar": "METAR LLBG 031920Z VRB02KT CAVOK 14/05 Q1023 NOSIG",
      "taf": "TAF LLBG 031703Z 0318/0418 VRB04KT CAVOK TX19/0412Z TN07/0404Z"
    },
    {
      "icao": "LMML",
      "alert": "OK",
      "vis_m": 9999,
      "fzfg": false,
      "metar_trigger": false,
      "taf_trigger": false,
      "metar": "METAR LMML 031945Z 11013KT 9999 BKN011 15/13 Q1025 NOSIG",
      "taf": "TAF LMML 031910Z 0319/0418 12012KT 9999 SCT013"
    },
    {
      "icao": "LOWW",
      "alert": "OK",
      "vis_m": 9999,
      "fzfg": false,
      "metar_trigger": false,
      "taf_trigger": false,
      "metar": "METAR LOWW 031920Z 15003KT CAVOK 08/04 Q1027 NOSIG",
      "taf": "TAF LOWW 031715Z 0318/0424 14008KT CAVOK TX13/0414Z TN02/0405Z"
    },
    {
      "icao": "LPFR",
      "alert": "OK",
      "vis_m": 9999,
      "fzfg": false,
      "metar_trigger": false,
      "taf_trigger": false,
      "metar": "METAR LPFR 031930Z 06005KT 020V090 9999 FEW012 18/11 Q1010",
      "taf": "TAF LPFR 031700Z 0318/0418 05007KT 9999 SCT020"
    },
    {
      "icao": "LPMA",
      "alert": "OK",
      "vis_m": 9999,
      "fzfg": false,
      "metar_trigger": false,
      "taf_trigger": false,
      "metar": "METAR LPMA 031930Z 35023G37KT 290V020 9999 BKN015 FEW018CB 15/07 Q1014",
      "taf": "TAF LPMA 031700Z 0318/0418 35020G32KT 9999 SCT015"
    },
    {
      "icao": "LPPR",
      "alert": "OK",
      "vis_m": 9999,
      "fzfg": false,
      "metar_trigger": false,
      "taf_trigger": false,
      "metar": "METAR LPPR 031930Z 36004KT CAVOK 15/11 Q1015",
      "taf": "TAF LPPR 031700Z 0318/0418 33007KT CAVOK"
    },
    {
      "icao": "LPPS",
      "alert": "OK",
      "vis_m": 9999,
      "fzfg": false,
      "metar_trigger": false,
      "taf_trigger": false,
      "metar": "METAR LPPS 031930Z 34029G39KT 9999 SCT014 FEW016TCU 15/10 Q1015 WS R18",
      "taf": "TAF LPPS 031700Z 0318/0424 34023KT 9999 SCT015"
    },
    {
      "icao": "LPPT",
      "alert": "OK",
      "vis_m": 9999,
      "fzfg": false,
      "metar_trigger": false,
      "taf_trigger": false,
      "metar": "METAR LPPT 031930Z 03011KT CAVOK 17/08 Q1013",
      "taf": "TAF LPPT 031700Z 0318/0424 04013KT CAVOK"
    },
    {
      "icao": "LQBK",
      "alert": "OK",
      "vis_m": 9999,
      "fzfg": false,
      "metar_trigger": false,
      "taf_trigger": false,
      "metar": "METAR LQBK 031930Z VRB02KT CAVOK 06/02 Q1027 NOSIG",
      "taf": "TAF LQBK 031700Z 0318/0418 VRB02KT CAVOK TX17/0414Z TN03/0406Z"
    },
    {
      "icao": "LQSA",
      "alert": "OK",
      "vis_m": 9999,
      "fzfg": false,
      "metar_trigger": false,
      "taf_trigger": false,
      "metar": "METAR LQSA 031930Z 12003KT CAVOK 07/03 Q1027 NOSIG",
      "taf": "TAF LQSA 031700Z 0318/0418 VRB02KT 9999 SCT050 TX17/0414Z TN01/0405Z"
    },
    {
      "icao": "LQTZ",
      "alert": "OK",
      "vis_m": 9999,
      "fzfg": false,
      "metar_trigger": false,
      "taf_trigger": false,
      "metar": "METAR LQTZ 031930Z VRB01KT CAVOK 07/04 Q1027",
      "taf": "TAF LQTZ 031700Z 0318/0418 06005KT 9999 SCT050 TX16/0414Z TN01/0405Z"
    },
    {
      "icao": "LRBC",
      "alert": "OK",
      "vis_m": 9999,
      "fzfg": false,
      "metar_trigger": false,
      "taf_trigger": false,
      "metar": "METAR LRBC 031930Z 33005KT CAVOK 04/00 Q1028",
      "taf": "TAF LRBC 031700Z 0318/0403 34010KT CAVOK"
    },
    {
      "icao": "LRBS",
      "alert": "OK",
      "vis_m": 7000,
      "fzfg": false,
      "metar_trigger": false,
      "taf_trigger": false,
      "metar": "METAR LRBS 031930Z 30002KT 7000 NSC 05/03 Q1028 BECMG 5000 BR",
      "taf": "TAF LRBS 031700Z 0318/0418 25004KT CAVOK"
    },
    {
      "icao": "LRBV",
      "alert": "OK",
      "vis_m": 9999,
      "fzfg": false,
      "metar_trigger": false,
      "taf_trigger": false,
      "metar": "METAR LRBV 031930Z 20010KT CAVOK 02/M00 Q1027",
      "taf": "TAF LRBV 031700Z 0318/0403 VRB04KT CAVOK"
    },
    {
      "icao": "LRCL",
      "alert": "OK",
      "vis_m": 9999,
      "fzfg": false,
      "metar_trigger": false,
      "taf_trigger": false,
      "metar": "METAR LRCL 031930Z 29006KT CAVOK 04/M01 Q1027",
      "taf": "TAF LRCL 031700Z 0318/0403 VRB04KT CAVOK"
    },
    {
      "icao": "LRCV",
      "alert": "OK",
      "vis_m": 6000,
      "fzfg": false,
      "metar_trigger": false,
      "taf_trigger": false,
      "metar": "METAR LRCV 031930Z 20005KT 6000 NSC 04/03 Q1027",
      "taf": "TAF LRCV 031700Z 0318/0403 VRB04KT 5000 BR NSC"
    },
    {
      "icao": "LRIA",
      "alert": "OK",
      "vis_m": 9999,
      "fzfg": false,
      "metar_trigger": false,
      "taf_trigger": false,
      "metar": "METAR LRIA 031930Z 25004KT 210V290 CAVOK 03/01 Q1028",
      "taf": "TAF LRIA 031700Z 0318/0403 33010KT CAVOK"
    },
    {
      "icao": "LROP",
      "alert": "OK",
      "vis_m": 6000,
      "fzfg": false,
      "metar_trigger": false,
      "taf_trigger": false,
      "metar": "METAR LROP 031930Z 25004KT 6000 NSC 03/03 Q1028 BECMG 3000 BR",
      "taf": "TAF LROP 031700Z 0318/0418 25004KT CAVOK"
    },
    {
      "icao": "LRSB",
      "alert": "OK",
      "vis_m": 9999,
      "fzfg": false,
      "metar_trigger": false,
      "taf_trigger": false,
      "metar": "METAR LRSB 031930Z 25004KT 200V270 9999 SCT060 05/01 Q1027",
      "taf": "TAF LRSB 031700Z 0318/0418 VRB04KT CAVOK"
    },
    {
      "icao": "LRSM",
      "alert": "OK",
      "vis_m": 9999,
      "fzfg": false,
      "metar_trigger": false,
      "taf_trigger": false,
      "metar": "METAR LRSM 031930Z AUTO 21006KT 9999 NCD 04/00 Q1028",
      "taf": "TAF LRSM 031400Z 0315/0324 VRB04KT CAVOK"
    },
    {
      "icao": "LRSV",
      "alert": "OK",
      "vis_m": 9999,
      "fzfg": false,
      "metar_trigger": false,
      "taf_trigger": false,
      "metar": "METAR LRSV 031930Z 25006KT CAVOK 02/00 Q1027",
      "taf": "TAF LRSV 031700Z 0318/0403 32006KT CAVOK"
    },
    {
      "icao": "LRTM",
      "alert": "OK",
      "vis_m": 9999,
      "fzfg": false,
      "metar_trigger": false,
      "taf_trigger": false,
      "metar": "METAR LRTM 031930Z AUTO 20001KT 9999 NCD 01/M02 Q1027",
      "taf": "TAF LRTM 031400Z 0315/0324 VRB04KT CAVOK"
    },
    {
      "icao": "LRTR",
      "alert": "OK",
      "vis_m": 9999,
      "fzfg": false,
      "metar_trigger": false,
      "taf_trigger": false,
      "metar": "METAR LRTR 031930Z 03003KT CAVOK 05/04 Q1028",
      "taf": "TAF LRTR 031700Z 0318/0418 VRB04KT CAVOK"
    },
    {
      "icao": "LTAC",
      "alert": "OK",
      "vis_m": 9999,
      "fzfg": false,
      "metar_trigger": false,
      "taf_trigger": false,
      "metar": "METAR LTAC 031920Z 33011KT 9999 FEW040 BKN180 06/M01 Q1021 NOSIG RMK RWY21C 30007KT RWY03L 32009KT RWY21R 29006KT RWY03R 31009KT RWY21L 31010KT",
      "taf": "TAF LTAC 031640Z 0318/0418 VRB02KT 9999 FEW040 SCT100 BKN180"
    },
    {
      "icao": "LTFM",
      "alert": "OK",
      "vis_m": 6000,
      "fzfg": false,
      "metar_trigger": false,
      "taf_trigger": false,
      "metar": "METAR LTFM 031920Z 07006KT 6000 BKN005 06/04 Q1028 NOSIG RMK RWY17L 07004KT RWY34L 04006KT RWY16R 06005KT RWY36 07004KT RWY18 07003KT",
      "taf": "TAF LTFM 031640Z 0318/0424 VRB02KT 3200 BR BKN004"
    },
    {
      "icao": "LUKK",
      "alert": "OK",
      "vis_m": 9999,
      "fzfg": false,
      "metar_trigger": false,
      "taf_trigger": false,
      "metar": "METAR LUKK 031930Z 33009KT CAVOK 03/01 Q1027 NOSIG",
      "taf": "TAF LUKK 031711Z 0318/0418 33009KT 9999 SCT035"
    },
    {
      "icao": "LWOH",
      "alert": "OK",
      "vis_m": null,
      "fzfg": false,
      "metar_trigger": false,
      "taf_trigger": false,
      "metar": "",
      "taf": "TAF LWOH 031730Z 0318/0418 33008KT CAVOK"
    },
    {
      "icao": "LWSK",
      "alert": "OK",
      "vis_m": null,
      "fzfg": false,
      "metar_trigger": false,
      "taf_trigger": false,
      "metar": "",
      "taf": "TAF LWSK 031730Z 0318/0418 VRB02KT CAVOK"
    },
    {
      "icao": "LYBE",
      "alert": "OK",
      "vis_m": 8000,
      "fzfg": false,
      "metar_trigger": false,
      "taf_trigger": false,
      "metar": "METAR LYBE 031930Z 01002KT 8000 NSC 08/05 Q1028 NOSIG",
      "taf": "TAF LYBE 031700Z 0318/0418 VRB02KT 8000 NSC TX17/0413Z TN02/0405Z"
    },
    {
      "icao": "LYNI",
      "alert": "OK",
      "vis_m": 9999,
      "fzfg": false,
      "metar_trigger": false,
      "taf_trigger": false,
      "metar": "METAR LYNI 031930Z VRB03KT 9999 BKN080 11/04 Q1027 NOSIG",
      "taf": "TAF LYNI 031700Z 0318/0418 34005KT 9999 SCT080 TX19/0414Z TN01/0405Z"
    },
    {
      "icao": "LYPG",
      "alert": "OK",
      "vis_m": 9999,
      "fzfg": false,
      "metar_trigger": false,
      "taf_trigger": false,
      "metar": "METAR LYPG 031930Z 00000KT CAVOK 10/07 Q1026 NOSIG",
      "taf": "TAF LYPG 031700Z 0318/0418 36005KT CAVOK TX18/0413Z TN06/0405Z"
    },
    {
      "icao": "LZIB",
      "alert": "OK",
      "vis_m": 9999,
      "fzfg": false,
      "metar_trigger": false,
      "taf_trigger": false,
      "metar": "METAR LZIB 031930Z 01003KT CAVOK 07/04 Q1027 NOSIG",
      "taf": "TAF LZIB 031715Z 0318/0418 VRB02KT CAVOK"
    },
    {
      "icao": "LZKZ",
      "alert": "OK",
      "vis_m": 9999,
      "fzfg": false,
      "metar_trigger": false,
      "taf_trigger": false,
      "metar": "METAR LZKZ 031930Z VRB02KT CAVOK 05/M01 Q1027 NOSIG",
      "taf": "TAF LZKZ 031715Z 0318/0418 VRB02KT CAVOK"
    },
    {
      "icao": "LZTT",
      "alert": "OK",
      "vis_m": 9999,
      "fzfg": false,
      "metar_trigger": false,
      "taf_trigger": false,
      "metar": "METAR LZTT 031930Z 31005KT CAVOK 01/M04 Q1027",
      "taf": "TAF LZTT 031715Z 0318/0418 24005KT CAVOK"
    },
    {
      "icao": "OEJN",
      "alert": "OK",
      "vis_m": 9999,
      "fzfg": false,
      "metar_trigger": false,
      "taf_trigger": false,
      "metar": "METAR OEJN 031900Z 35004KT CAVOK 20/05 Q1016 NOSIG",
      "taf": "TAF OEJN 031700Z 0318/0424 34006KT 9999 FEW040"
    },
    {
      "icao": "OEMA",
      "alert": "OK",
      "vis_m": 9999,
      "fzfg": false,
      "metar_trigger": false,
      "taf_trigger": false,
      "metar": "METAR OEMA 031900Z 02015KT CAVOK 20/M06 Q1019 NOSIG",
      "taf": "TAF OEMA 031700Z 0318/0424 02008KT CAVOK"
    },
    {
      "icao": "OJAI",
      "alert": "OK",
      "vis_m": 5000,
      "fzfg": false,
      "metar_trigger": false,
      "taf_trigger": false,
      "metar": "METAR OJAI 031900Z 30002KT 5000 HZ NSC 08/M03 Q1023 NOSIG",
      "taf": "TAF OJAI 031650Z 0318/0424 29008KT 5000 HZ NSC"
    },
    {
      "icao": "OMAA",
      "alert": "OK",
      "vis_m": 9999,
      "fzfg": false,
      "metar_trigger": false,
      "taf_trigger": false,
      "metar": "METAR OMAA 031930Z 30003KT CAVOK 26/12 Q1011 NOSIG",
      "taf": "TAF OMAA 031700Z 0318/0500 04006KT 8000 NSC"
    },
    {
      "icao": "OMDB",
      "alert": "OK",
      "vis_m": 9999,
      "fzfg": false,
      "metar_trigger": false,
      "taf_trigger": false,
      "metar": "METAR OMDB 031930Z 07005KT CAVOK 28/10 Q1011 NOSIG",
      "taf": "TAF OMDB 031700Z 0318/0500 08005KT 8000 NSC"
    },
    {
      "icao": "UAAA",
      "alert": "OK",
      "vis_m": 400,
      "fzfg": false,
      "metar_trigger": false,
      "taf_trigger": false,
      "metar": "METAR UAAA 031930Z 31002MPS 240V360 0400 R23L/1200 FG VV002 01/01 Q1022 NOSIG RMK QBB070",
      "taf": "TAF UAAA 031704Z 0318/0418 12003MPS 1100 BR FU BKN011 OVC050 TX03/0409Z TNM03/0401Z"
    },
    {
      "icao": "UBBB",
      "alert": "OK",
      "vis_m": 9999,
      "fzfg": false,
      "metar_trigger": false,
      "taf_trigger": false,
      "metar": "METAR UBBB 031930Z 20010KT CAVOK 09/01 Q1019 NOSIG",
      "taf": "TAF UBBB 031704Z 0318/0418 19008KT 9999 SCT030 TX12/0410Z TN04/0401Z"
    },
    {
      "icao": "UDSG",
      "alert": "OK",
      "vis_m": 9999,
      "fzfg": false,
      "metar_trigger": false,
      "taf_trigger": false,
      "metar": "METAR UDSG 031930Z 19001KT 9999 BKN043 M05/M07 Q1020 NOSIG",
      "taf": "TAF UDSG 031658Z 0318/0418 VRB06KT 9999 SCT040"
    },
    {
      "icao": "UDYZ",
      "alert": "OK",
      "vis_m": 9000,
      "fzfg": false,
      "metar_trigger": false,
      "taf_trigger": false,
      "metar": "METAR UDYZ 031930Z 14003KT 9000 NSC 00/M04 Q1020 NOSIG",
      "taf": "TAF UDYZ 031700Z 0318/0418 VRB06KT 9999 FEW040"
    },
    {
      "icao": "UGKO",
      "alert": "OK",
      "vis_m": 9999,
      "fzfg": false,
      "metar_trigger": false,
      "taf_trigger": false,
      "metar": "METAR UGKO 031930Z 07005KT 9999 SCT045 08/04 Q1020 NOSIG",
      "taf": "TAF UGKO 031700Z 0318/0418 25006KT 9999 SCT030 OVC050 TX08/0318Z TN04/0403Z"
    }
  ]
}