{
  "ts_utc": "2026-02-05T10:01:30Z",
  "threshold_m": 150,
  "source": "stations_override.txt (ICAO list) + aviationweather.gov (METAR/TAF raw)",
  "station_count": 159,
  "stations": [
    {
      "icao": "BIKF",
      "alert": "OK",
      "vis_m": 9999,
      "fzfg": false,
      "metar_trigger": false,
      "taf_trigger": false,
      "metar": "METAR BIKF 050930Z 07007KT CAVOK M03/M07 Q1006",
      "taf": "TAF BIKF 050758Z 0509/0609 05008KT CAVOK TX03/0515Z TNM02/0603Z"
    },
    {
      "icao": "BKPR",
      "alert": "OK",
      "vis_m": 9999,
      "fzfg": false,
      "metar_trigger": false,
      "taf_trigger": false,
      "metar": "METAR BKPR 051000Z 13004KT 9999 SCT070 11/06 Q0998 NOSIG",
      "taf": "TAF BKPR 050530Z 0506/0606 19006KT 9999 BKN060"
    },
    {
      "icao": "EBCI",
      "alert": "OK",
      "vis_m": 9000,
      "fzfg": false,
      "metar_trigger": false,
      "taf_trigger": false,
      "metar": "METAR EBCI 050950Z 14009KT 9000 BKN020 05/02 Q0988 NOSIG",
      "taf": "TAF EBCI 050515Z 0506/0612 15008KT CAVOK"
    },
    {
      "icao": "EDDB",
      "alert": "OK",
      "vis_m": 4800,
      "fzfg": false,
      "metar_trigger": false,
      "taf_trigger": false,
      "metar": "METAR EDDB 050950Z AUTO 09009KT 4800 BR OVC005 M03/M04 Q0998 REFZDZ TEMPO 5000 -FZDZ OVC004",
      "taf": "TAF EDDB 050500Z 0506/0606 07011KT 6000 OVC008"
    },
    {
      "icao": "EDDH",
      "alert": "OK",
      "vis_m": 9999,
      "fzfg": false,
      "metar_trigger": false,
      "taf_trigger": false,
      "metar": "METAR EDDH 050950Z AUTO 09010KT 9999 3700 BR OVC009 M03/M05 Q0999",
      "taf": "TAF EDDH 050500Z 0506/0612 08010KT 7000 OVC008"
    },
    {
      "icao": "EDDK",
      "alert": "OK",
      "vis_m": 9999,
      "fzfg": false,
      "metar_trigger": false,
      "taf_trigger": false,
      "metar": "METAR EDDK 050950Z AUTO 13013KT 9999 SCT015 04/00 Q0992 NOSIG",
      "taf": "TAF EDDK 050500Z 0506/0612 11008KT 9999 BKN030"
    },
    {
      "icao": "EDDN",
      "alert": "OK",
      "vis_m": 9999,
      "fzfg": false,
      "metar_trigger": false,
      "taf_trigger": false,
      "metar": "METAR EDDN 050950Z AUTO 34001KT 9999 BKN007 OVC013 02/01 Q0994 TEMPO OVC013",
      "taf": ""
    },
    {
      "icao": "EDDS",
      "alert": "OK",
      "vis_m": 400,
      "fzfg": true,
      "metar_trigger": false,
      "taf_trigger": false,
      "metar": "METAR EDDS 050950Z AUTO 13003KT 100V160 0400 0350 R07/P2000N FZFG BKN003 M01/M01 Q0992 BECMG 2500 BKN006",
      "taf": ""
    },
    {
      "icao": "EDFH",
      "alert": "OK",
      "vis_m": 200,
      "fzfg": true,
      "metar_trigger": false,
      "taf_trigger": false,
      "metar": "METAR EDFH 050950Z 14015KT 0200 R21/0300N FZFG VV/// 00/M00 Q0991",
      "taf": ""
    },
    {
      "icao": "EDJA",
      "alert": "OK",
      "vis_m": 9999,
      "fzfg": false,
      "metar_trigger": false,
      "taf_trigger": false,
      "metar": "METAR EDJA 050950Z 24007KT 9999 BKN004 02/M00 Q0993",
      "taf": "TAF EDJA 050800Z 0509/0518 24005KT 2500 BR OVC003"
    },
    {
      "icao": "EDLW",
      "alert": "OK",
      "vis_m": 6000,
      "fzfg": false,
      "metar_trigger": false,
      "taf_trigger": false,
      "metar": "METAR EDLW 050950Z 03008KT 6000 OVC016 01/M00 Q0992",
      "taf": "TAF EDLW 050500Z 0506/0606 08008KT 8000 BKN030"
    },
    {
      "icao": "EDNY",
      "alert": "OK",
      "vis_m": 9999,
      "fzfg": false,
      "metar_trigger": false,
      "taf_trigger": false,
      "metar": "METAR EDNY 050950Z VRB02KT 9999 BKN009 02/00 Q0994",
      "taf": "TAF EDNY 050800Z 0509/0518 VRB03KT 8000 OVC008"
    },
    {
      "icao": "EDSB",
      "alert": "OK",
      "vis_m": 7000,
      "fzfg": false,
      "metar_trigger": false,
      "taf_trigger": false,
      "metar": "METAR EDSB 050950Z VRB02KT 7000 OVC005 02/01 Q0993",
      "taf": "TAF EDSB 050500Z 0506/0606 02004KT 9000 OVC006"
    },
    {
      "icao": "EETN",
      "alert": "OK",
      "vis_m": 9999,
      "fzfg": false,
      "metar_trigger": false,
      "taf_trigger": false,
      "metar": "METAR EETN 050950Z 09008KT CAVOK M15/M16 Q1020 NOSIG",
      "taf": "TAF EETN 050530Z 0506/0606 10008KT 9999 OVC007"
    },
    {
      "icao": "EFTU",
      "alert": "OK",
      "vis_m": 9999,
      "fzfg": false,
      "metar_trigger": false,
      "taf_trigger": false,
      "metar": "METAR EFTU 050950Z AUTO 08006KT 9999 -SHSN OVC010 M12/M13 Q1021",
      "taf": "TAF EFTU 050835Z 0509/0609 07005KT 9999 -SN BKN009"
    },
    {
      "icao": "EGBB",
      "alert": "OK",
      "vis_m": 3500,
      "fzfg": false,
      "metar_trigger": false,
      "taf_trigger": false,
      "metar": "METAR EGBB 050950Z 09014KT 3500 RA OVC006 05/03 Q0983",
      "taf": ""
    },
    {
      "icao": "EGGP",
      "alert": "OK",
      "vis_m": 9999,
      "fzfg": false,
      "metar_trigger": false,
      "taf_trigger": false,
      "metar": "METAR EGGP 050950Z 09023G33KT 9999 7000SW VCSH BKN017 05/01 Q0984",
      "taf": "TAF EGGP 050455Z 0506/0606 09020G30KT 9999 SCT017"
    },
    {
      "icao": "EGGW",
      "alert": "OK",
      "vis_m": 4500,
      "fzfg": false,
      "metar_trigger": false,
      "taf_trigger": false,
      "metar": "METAR EGGW 050950Z AUTO 10014KT 4500 -RA OVC004/// //////TCU 05/05 Q0983",
      "taf": ""
    },
    {
      "icao": "EGKK",
      "alert": "OK",
      "vis_m": 4900,
      "fzfg": false,
      "metar_trigger": false,
      "taf_trigger": false,
      "metar": "METAR EGKK 050950Z 09008KT 4900 -DZ BKN006 07/07 Q0982",
      "taf": "TAF EGKK 050456Z 0506/0612 09009KT 9999 BKN010"
    },
    {
      "icao": "EGNM",
      "alert": "OK",
      "vis_m": 3500,
      "fzfg": false,
      "metar_trigger": false,
      "taf_trigger": false,
      "metar": "METAR EGNM 050950Z 09019G31KT 3500 BR SCT003 BKN005 02/02 Q0988",
      "taf": "TAF EGNM 050524Z 0506/0606 07009KT 4000 -DZ BR SCT004 BKN006"
    },
    {
      "icao": "EGPD",
      "alert": "OK",
      "vis_m": 9999,
      "fzfg": false,
      "metar_trigger": false,
      "taf_trigger": false,
      "metar": "METAR EGPD 050950Z COR AUTO 11016KT 9999 BKN008 OVC013 04/02 Q0999 RERA NOSIG",
      "taf": "TAF EGPD 050500Z 0506/0606 12015KT 9999 BKN016"
    },
    {
      "icao": "EGPF",
      "alert": "OK",
      "vis_m": 9999,
      "fzfg": false,
      "metar_trigger": false,
      "taf_trigger": false,
      "metar": "METAR EGPF 050950Z AUTO 07016KT 9999 BKN020 06/03 Q0992",
      "taf": ""
    },
    {
      "icao": "EHBK",
      "alert": "OK",
      "vis_m": 9999,
      "fzfg": false,
      "metar_trigger": false,
      "taf_trigger": false,
      "metar": "METAR EHBK 050955Z AUTO 10008KT 9999 NSC 04/02 Q0990 NOSIG",
      "taf": "TAF EHBK 050506Z 0506/0612 08008KT 8000 NSC"
    },
    {
      "icao": "EHEH",
      "alert": "OK",
      "vis_m": null,
      "fzfg": false,
      "metar_trigger": false,
      "taf_trigger": false,
      "metar": "",
      "taf": "TAF EHEH 050557Z 0506/0612 08010KT 6000 BR BKN016"
    },
    {
      "icao": "EKBI",
      "alert": "OK",
      "vis_m": 8000,
      "fzfg": false,
      "metar_trigger": false,
      "taf_trigger": false,
      "metar": "METAR EKBI 050950Z 07019G29KT 8000 -SN DRSN BKN008 M03/M04 Q1003",
      "taf": ""
    },
    {
      "icao": "EKCH",
      "alert": "OK",
      "vis_m": 9999,
      "fzfg": false,
      "metar_trigger": false,
      "taf_trigger": false,
      "metar": "METAR EKCH 050950Z 06018KT 9999 BKN008 M02/M04 Q1005 TEMPO 07017G27KT",
      "taf": "TAF EKCH 050827Z 0509/0609 08016KT 9999 BKN010"
    },
    {
      "icao": "ENAL",
      "alert": "OK",
      "vis_m": 9999,
      "fzfg": false,
      "metar_trigger": false,
      "taf_trigger": false,
      "metar": "METAR ENAL 050950Z 13007KT CAVOK M00/M12 Q1011",
      "taf": "TAF ENAL 050800Z 0509/0518 14008KT CAVOK"
    },
    {
      "icao": "ENBR",
      "alert": "OK",
      "vis_m": 9999,
      "fzfg": false,
      "metar_trigger": false,
      "taf_trigger": false,
      "metar": "METAR ENBR 050950Z 00000KT CAVOK M05/M13 Q1010 NOSIG RMK WIND 1200FT VRB01KT",
      "taf": "TAF ENBR 050500Z 0506/0606 06005KT CAVOK"
    },
    {
      "icao": "ENGM",
      "alert": "OK",
      "vis_m": 9999,
      "fzfg": false,
      "metar_trigger": false,
      "taf_trigger": false,
      "metar": "METAR ENGM 050950Z 01005KT 9999 VCSH FEW018 SCT021 M12/M15 Q1017 NOSIG",
      "taf": "TAF ENGM 050500Z 0506/0606 02008KT 9999 -SN BKN025"
    },
    {
      "icao": "ENHD",
      "alert": "OK",
      "vis_m": 9999,
      "fzfg": false,
      "metar_trigger": false,
      "taf_trigger": false,
      "metar": "METAR ENHD 050950Z 06005KT CAVOK M03/M12 Q1009",
      "taf": "TAF ENHD 050800Z 0509/0518 06008KT CAVOK"
    },
    {
      "icao": "ENTC",
      "alert": "OK",
      "vis_m": 9999,
      "fzfg": false,
      "metar_trigger": false,
      "taf_trigger": false,
      "metar": "METAR ENTC 050950Z VRB02KT 9999 -SHSN FEW004 SCT012 BKN018 00/M01 Q1015 TEMPO 2000 -SN VV008 RMK WIND 2600FT 32012KT",
      "taf": ""
    },
    {
      "icao": "ENTO",
      "alert": "OK",
      "vis_m": 6000,
      "fzfg": false,
      "metar_trigger": false,
      "taf_trigger": false,
      "metar": "METAR ENTO 050950Z 02015KT 6000 -SN OVC024 M08/M12 Q1016 NOSIG",
      "taf": "TAF ENTO 050500Z 0506/0606 03012KT 9999 BKN025"
    },
    {
      "icao": "ENVA",
      "alert": "OK",
      "vis_m": 9999,
      "fzfg": false,
      "metar_trigger": false,
      "taf_trigger": false,
      "metar": "METAR ENVA 050950Z 09005KT CAVOK M11/M18 Q1015 NOSIG RMK WIND 670FT 12008KT",
      "taf": "TAF ENVA 050500Z 0506/0606 10008KT CAVOK"
    },
    {
      "icao": "ENZV",
      "alert": "OK",
      "vis_m": 9999,
      "fzfg": false,
      "metar_trigger": false,
      "taf_trigger": false,
      "metar": "METAR ENZV 050950Z VRB02KT CAVOK M00/M12 Q1009 NOSIG",
      "taf": ""
    },
    {
      "icao": "EPGD",
      "alert": "OK",
      "vis_m": 4500,
      "fzfg": false,
      "metar_trigger": false,
      "taf_trigger": false,
      "metar": "METAR EPGD 050930Z 10008KT 4500 BR OVC005 M07/M08 Q1005",
      "taf": "TAF EPGD 050530Z 0506/0606 09010KT 9000 OVC007"
    },
    {
      "icao": "EPKK",
      "alert": "OK",
      "vis_m": 4500,
      "fzfg": false,
      "metar_trigger": false,
      "taf_trigger": false,
      "metar": "METAR EPKK 050930Z 07009KT 4500 BR OVC005 01/M01 Q0999",
      "taf": "TAF EPKK 050830Z 0509/0609 06008KT 4500 BR OVC005"
    },
    {
      "icao": "EPKT",
      "alert": "OK",
      "vis_m": 7000,
      "fzfg": false,
      "metar_trigger": false,
      "taf_trigger": false,
      "metar": "METAR EPKT 050930Z 08006KT 7000 SCT006 01/M00 Q0999",
      "taf": "TAF EPKT 050530Z 0506/0606 07005KT 1200 BR BKN002"
    },
    {
      "icao": "EPLB",
      "alert": "OK",
      "vis_m": 1300,
      "fzfg": false,
      "metar_trigger": false,
      "taf_trigger": false,
      "metar": "METAR EPLB 050930Z 10016KT 1300 R25/1600N BR OVC002 M02/M02 Q1003",
      "taf": ""
    },
    {
      "icao": "EPMO",
      "alert": "OK",
      "vis_m": 7000,
      "fzfg": false,
      "metar_trigger": false,
      "taf_trigger": false,
      "metar": "METAR EPMO 050930Z 07012KT 7000 BKN007 M04/M05 Q1004",
      "taf": "TAF EPMO 050530Z 0506/0606 08010KT 6000 BKN007 OVC012"
    },
    {
      "icao": "EPPO",
      "alert": "OK",
      "vis_m": 7000,
      "fzfg": false,
      "metar_trigger": false,
      "taf_trigger": false,
      "metar": "METAR EPPO 050930Z 10011KT 7000 -FZRA OVC005 M03/M05 Q1001",
      "taf": ""
    },
    {
      "icao": "EPRA",
      "alert": "OK",
      "vis_m": 8000,
      "fzfg": false,
      "metar_trigger": false,
      "taf_trigger": false,
      "metar": "METAR EPRA 050930Z 10009KT 8000 OVC003 M01/M02 Q1002",
      "taf": "TAF EPRA 050830Z 0509/0518 10010KT 8000 OVC004"
    },
    {
      "icao": "EPRZ",
      "alert": "OK",
      "vis_m": 4700,
      "fzfg": false,
      "metar_trigger": false,
      "taf_trigger": false,
      "metar": "METAR EPRZ 050930Z 10016KT 4700 BR OVC003 01/00 Q1001",
      "taf": "TAF EPRZ 050530Z 0506/0606 08012KT 4000 BR OVC004"
    },
    {
      "icao": "EPSC",
      "alert": "OK",
      "vis_m": 7000,
      "fzfg": false,
      "metar_trigger": false,
      "taf_trigger": false,
      "metar": "METAR EPSC 050930Z 09006KT 050V110 7000 -PL OVC008 M05/M06 Q1001 REFZRA",
      "taf": "TAF EPSC 050530Z 0506/0606 08008KT 7000 -SN BKN020"
    },
    {
      "icao": "EPSY",
      "alert": "OK",
      "vis_m": 7000,
      "fzfg": false,
      "metar_trigger": false,
      "taf_trigger": false,
      "metar": "METAR EPSY 050930Z 08006KT 050V120 7000 OVC007 M06/M08 Q1006",
      "taf": "TAF EPSY 050830Z 0509/0518 10010KT 7000 OVC006"
    },
    {
      "icao": "EPWA",
      "alert": "OK",
      "vis_m": 8000,
      "fzfg": false,
      "metar_trigger": false,
      "taf_trigger": false,
      "metar": "METAR EPWA 050930Z 08010KT 8000 OVC007 M03/M04 Q1003 TEMPO -FZDZ",
      "taf": "TAF EPWA 050830Z 0509/0609 09011KT 9999 OVC007"
    },
    {
      "icao": "EPWR",
      "alert": "OK",
      "vis_m": 4000,
      "fzfg": false,
      "metar_trigger": false,
      "taf_trigger": false,
      "metar": "METAR EPWR 050930Z 11008KT 4000 BR OVC004 M01/M02 Q0999",
      "taf": ""
    },
    {
      "icao": "ESGG",
      "alert": "OK",
      "vis_m": 9999,
      "fzfg": false,
      "metar_trigger": false,
      "taf_trigger": false,
      "metar": "METAR ESGG 050950Z 07014KT CAVOK M03/M08 Q1009",
      "taf": "TAF ESGG 050830Z 0509/0609 07012G22KT 9999 SCT030"
    },
    {
      "icao": "ESKN",
      "alert": "OK",
      "vis_m": 9999,
      "fzfg": false,
      "metar_trigger": false,
      "taf_trigger": false,
      "metar": "METAR ESKN 050950Z AUTO 04008KT 010V070 9999 -SN OVC015/// M05/M07 Q1015",
      "taf": "TAF ESKN 050830Z 0509/0609 06008KT 9999 OVC015"
    },
    {
      "icao": "ESMS",
      "alert": "OK",
      "vis_m": 7000,
      "fzfg": false,
      "metar_trigger": false,
      "taf_trigger": false,
      "metar": "METAR ESMS 050950Z 08019KT 7000 BKN006 M01/M02 Q1004",
      "taf": "TAF ESMS 050827Z 0509/0609 08018KT 7000 BKN006"
    },
    {
      "icao": "ESSA",
      "alert": "OK",
      "vis_m": 9999,
      "fzfg": false,
      "metar_trigger": false,
      "taf_trigger": false,
      "metar": "METAR ESSA 050950Z 08008KT 9999 BKN016 M06/M09 Q1018 TEMPO BKN012",
      "taf": "TAF ESSA 050830Z 0509/0609 07008KT 9999 -SN BKN018"
    },
    {
      "icao": "EYKA",
      "alert": "OK",
      "vis_m": 9999,
      "fzfg": false,
      "metar_trigger": false,
      "taf_trigger": false,
      "metar": "METAR EYKA 050950Z 10010KT 9999 -SN OVC014 M08/M11 Q1012",
      "taf": "TAF EYKA 050500Z 0506/0606 10009KT 8000 BKN030"
    },
    {
      "icao": "EYPA",
      "alert": "OK",
      "vis_m": 9999,
      "fzfg": false,
      "metar_trigger": false,
      "taf_trigger": false,
      "metar": "METAR EYPA 050950Z 10011KT 9999 OVC030 M10/M14 Q1011",
      "taf": "TAF EYPA 050500Z 0506/0606 09010KT 8000 NSC"
    },
    {
      "icao": "EYVI",
      "alert": "OK",
      "vis_m": 9999,
      "fzfg": false,
      "metar_trigger": false,
      "taf_trigger": false,
      "metar": "METAR EYVI 050950Z 12009KT 9999 OVC011 M08/M11 Q1012 NOSIG",
      "taf": "TAF EYVI 050505Z 0506/0606 10010KT 9000 OVC025"
    },
    {
      "icao": "GCFV",
      "alert": "OK",
      "vis_m": 9999,
      "fzfg": false,
      "metar_trigger": false,
      "taf_trigger": false,
      "metar": "METAR GCFV 050930Z 24003KT 170V280 9999 BKN025 19/14 Q1016",
      "taf": "TAF GCFV 050800Z 0509/0609 25005KT 9999 FEW025 TX22/0514Z TN16/0606Z"
    },
    {
      "icao": "GCLP",
      "alert": "OK",
      "vis_m": 9999,
      "fzfg": false,
      "metar_trigger": false,
      "taf_trigger": false,
      "metar": "METAR GCLP 050930Z VRB01KT 9999 FEW020 BKN028 19/15 Q1016 NOSIG",
      "taf": "TAF GCLP 050800Z 0509/0609 16010KT 9999 FEW025 TX22/0514Z TN16/0606Z"
    },
    {
      "icao": "GCTS",
      "alert": "OK",
      "vis_m": 9999,
      "fzfg": false,
      "metar_trigger": false,
      "taf_trigger": false,
      "metar": "METAR GCTS 050930Z 27012KT 9999 FEW030 20/15 Q1016 NOSIG",
      "taf": "TAF GCTS 050800Z 0509/0609 26010KT 9999 FEW025 TX25/0514Z TN16/0606Z"
    },
    {
      "icao": "GMAD",
      "alert": "OK",
      "vis_m": 8000,
      "fzfg": false,
      "metar_trigger": false,
      "taf_trigger": false,
      "metar": "METAR GMAD 050930Z 05005KT 8000 BKN023 14/12 Q1016 NOSIG",
      "taf": "TAF GMAD 050500Z 0506/0612 12004KT 0800 FG OVC003"
    },
    {
      "icao": "GMMN",
      "alert": "OK",
      "vis_m": 9999,
      "fzfg": false,
      "metar_trigger": false,
      "taf_trigger": false,
      "metar": "METAR GMMN 050930Z 22022KT 9999 BKN007 15/13 Q1012 TEMPO 23022G32KT",
      "taf": "TAF GMMN 050500Z 0506/0612 22017KT 9999 BKN008 SCT016"
    },
    {
      "icao": "GMMX",
      "alert": "OK",
      "vis_m": 9999,
      "fzfg": false,
      "metar_trigger": false,
      "taf_trigger": false,
      "metar": "METAR GMMX 050930Z 12003KT 080V190 9999 FEW023 14/14 Q1014 NOSIG",
      "taf": "TAF GMMX 050500Z 0506/0612 06006KT 3000 BR OVC004"
    },
    {
      "icao": "HEGN",
      "alert": "OK",
      "vis_m": 9999,
      "fzfg": false,
      "metar_trigger": false,
      "taf_trigger": false,
      "metar": "METAR HEGN 050900Z 34006KT CAVOK 22/05 Q1015 NOSIG",
      "taf": "TAF HEGN 050500Z 0506/0612 34009KT CAVOK"
    },
    {
      "icao": "HEMA",
      "alert": "OK",
      "vis_m": 9999,
      "fzfg": false,
      "metar_trigger": false,
      "taf_trigger": false,
      "metar": "METAR HEMA 050900Z 31010KT CAVOK 22/04 Q1016 NOSIG",
      "taf": "TAF HEMA 050500Z 0506/0612 33014KT CAVOK"
    },
    {
      "icao": "HESH",
      "alert": "OK",
      "vis_m": 9999,
      "fzfg": false,
      "metar_trigger": false,
      "taf_trigger": false,
      "metar": "METAR HESH 050900Z 01006KT CAVOK 24/09 Q1015 NOSIG",
      "taf": "TAF HESH 050500Z 0506/0612 36009KT CAVOK"
    },
    {
      "icao": "HESX",
      "alert": "OK",
      "vis_m": 9999,
      "fzfg": false,
      "metar_trigger": false,
      "taf_trigger": false,
      "metar": "METAR HESX 050900Z 15005KT CAVOK 18/07 Q1014 NOSIG",
      "taf": "TAF HESX 050500Z 0506/0612 08007KT CAVOK"
    },
    {
      "icao": "LATI",
      "alert": "OK",
      "vis_m": 9999,
      "fzfg": false,
      "metar_trigger": false,
      "taf_trigger": false,
      "metar": "METAR LATI 050950Z 15012KT 9999 FEW057 SCT098 14/05 Q0998 NOSIG",
      "taf": "TAF LATI 050500Z 0506/0606 15010KT 9999 SCT040 BKN080 TX15/0511Z TN08/0523Z"
    },
    {
      "icao": "LBPD",
      "alert": "OK",
      "vis_m": 6000,
      "fzfg": false,
      "metar_trigger": false,
      "taf_trigger": false,
      "metar": "METAR LBPD 050930Z AUTO 30003KT 270V350 6000 SCT011/// OVC015/// 01/01 Q1002 NOSIG",
      "taf": "TAF LBPD 050500Z 0506/0606 VRB03KT 2000 RA BR SCT003 BKN007 OVC012"
    },
    {
      "icao": "LBSF",
      "alert": "OK",
      "vis_m": 9999,
      "fzfg": false,
      "metar_trigger": false,
      "taf_trigger": false,
      "metar": "METAR LBSF 050930Z 10011KT 9999 -RA SCT021 BKN037 OVC051 04/02 Q1000 TEMPO 5000 RA",
      "taf": "TAF LBSF 050500Z 0506/0606 10012KT 9999 SCT012 BKN025 OVC040"
    },
    {
      "icao": "LBWN",
      "alert": "OK",
      "vis_m": 9999,
      "fzfg": false,
      "metar_trigger": false,
      "taf_trigger": false,
      "metar": "METAR LBWN 050930Z 12008KT 9999 -RA FEW009 SCT020 OVC040 09/09 Q1006 TEMPO 5000 RA",
      "taf": "TAF LBWN 050500Z 0506/0606 09010KT 9999 BKN008 OVC040"
    },
    {
      "icao": "LCLK",
      "alert": "OK",
      "vis_m": 9999,
      "fzfg": false,
      "metar_trigger": false,
      "taf_trigger": false,
      "metar": "METAR LCLK 050930Z 08007KT 9999 FEW020 SCT030 19/12 Q1016 NOSIG",
      "taf": "TAF LCLK 050530Z 0506/0606 32006KT 9999 FEW025"
    },
    {
      "icao": "LCPH",
      "alert": "OK",
      "vis_m": 9999,
      "fzfg": false,
      "metar_trigger": false,
      "taf_trigger": false,
      "metar": "METAR LCPH 050930Z 15012KT 9999 FEW030 BKN040 18/10 Q1015 NOSIG",
      "taf": "TAF LCPH 050530Z 0506/0606 04007KT 9999 FEW020"
    },
    {
      "icao": "LEAL",
      "alert": "OK",
      "vis_m": 5000,
      "fzfg": false,
      "metar_trigger": false,
      "taf_trigger": false,
      "metar": "METAR LEAL 050930Z VRB02KT 5000 BR FEW010 SCT025 14/13 Q0996 NOSIG",
      "taf": ""
    },
    {
      "icao": "LEBB",
      "alert": "OK",
      "vis_m": 9999,
      "fzfg": false,
      "metar_trigger": false,
      "taf_trigger": false,
      "metar": "METAR LEBB 050930Z 11012KT 070V140 9999 FEW035 BKN051 13/07 Q0981 NOSIG",
      "taf": ""
    },
    {
      "icao": "LEBL",
      "alert": "OK",
      "vis_m": 7000,
      "fzfg": false,
      "metar_trigger": false,
      "taf_trigger": false,
      "metar": "METAR LEBL 050930Z 34005KT 280V030 7000 -RA FEW010 SCT035 FEW040TCU BKN055 09/08 Q0993 RERA TEMPO 4000 RA",
      "taf": ""
    },
    {
      "icao": "LECH",
      "alert": "OK",
      "vis_m": 9000,
      "fzfg": false,
      "metar_trigger": false,
      "taf_trigger": false,
      "metar": "METAR LECH 050930Z AUTO VRB02KT 9000 BKN036 BKN045 OVC055 10/09 Q0992",
      "taf": ""
    },
    {
      "icao": "LEMD",
      "alert": "OK",
      "vis_m": 9999,
      "fzfg": false,
      "metar_trigger": false,
      "taf_trigger": false,
      "metar": "SPECI LEMD 050940Z 24015KT 200V260 9999 SCT009 BKN018 BKN025 12/12 Q0988 RERA NOSIG",
      "taf": ""
    },
    {
      "icao": "LEMG",
      "alert": "OK",
      "vis_m": 9000,
      "fzfg": false,
      "metar_trigger": false,
      "taf_trigger": false,
      "metar": "METAR LEMG 050930Z 24013G27KT 190V300 9000 -RA FEW040 BKN070 18/14 Q1001 TEMPO 4000 RA",
      "taf": ""
    },
    {
      "icao": "LEVC",
      "alert": "OK",
      "vis_m": 9999,
      "fzfg": false,
      "metar_trigger": false,
      "taf_trigger": false,
      "metar": "METAR LEVC 050930Z 18006KT 130V250 9999 FEW052 16/10 Q0993 NOSIG",
      "taf": ""
    },
    {
      "icao": "LEXJ",
      "alert": "OK",
      "vis_m": 9999,
      "fzfg": false,
      "metar_trigger": false,
      "taf_trigger": false,
      "metar": "METAR LEXJ 050930Z 20010KT 160V250 9999 FEW030 15/07 Q0979",
      "taf": "TAF LEXJ 050800Z 0509/0609 20009KT 9999 SCT045 TX19/0513Z TN10/0608Z"
    },
    {
      "icao": "LEZG",
      "alert": "OK",
      "vis_m": 2000,
      "fzfg": false,
      "metar_trigger": false,
      "taf_trigger": false,
      "metar": "SPECI LEZG 050938Z 10011KT 2000 RA BKN005 BKN030 09/09 Q0989 NOSIG",
      "taf": "TAF LEZG 050500Z 0506/0606 10009KT 9999 FEW020 TX17/0514Z TN03/0606Z"
    },
    {
      "icao": "LEZL",
      "alert": "OK",
      "vis_m": 3500,
      "fzfg": false,
      "metar_trigger": false,
      "taf_trigger": false,
      "metar": "SPECI LEZL 050955Z 23020KT 200V260 3500 -RA OVC008 BKN015 17/16 Q0999 RERA NOSIG",
      "taf": ""
    },
    {
      "icao": "LFBD",
      "alert": "OK",
      "vis_m": 9999,
      "fzfg": false,
      "metar_trigger": false,
      "taf_trigger": false,
      "metar": "METAR LFBD 050930Z AUTO 14011KT CAVOK 09/06 Q0983 TEMPO 4000 SHRA BKN040TCU",
      "taf": "TAF LFBD 050500Z 0506/0612 14005KT CAVOK TX12/0515Z TN07/0506Z"
    },
    {
      "icao": "LFLL",
      "alert": "OK",
      "vis_m": 9999,
      "fzfg": false,
      "metar_trigger": false,
      "taf_trigger": false,
      "metar": "METAR LFLL 050930Z 16012KT 9999 FEW018 BKN260 10/06 Q0991 NOSIG",
      "taf": "TAF LFLL 050500Z 0506/0612 17012KT CAVOK"
    },
    {
      "icao": "LFLS",
      "alert": "OK",
      "vis_m": 9999,
      "fzfg": false,
      "metar_trigger": false,
      "taf_trigger": false,
      "metar": "METAR LFLS 050930Z AUTO 08003KT 040V130 9999 FEW022 08/06 Q0992 NOSIG",
      "taf": "TAF LFLS 050800Z 0509/0609 09007KT 9999 FEW020 SCT080"
    },
    {
      "icao": "LFMN",
      "alert": "OK",
      "vis_m": 9999,
      "fzfg": false,
      "metar_trigger": false,
      "taf_trigger": false,
      "metar": "METAR LFMN 050930Z 32010KT CAVOK 10/04 Q0995 NOSIG",
      "taf": "TAF LFMN 050800Z 0509/0615 33010KT CAVOK"
    },
    {
      "icao": "LFOB",
      "alert": "OK",
      "vis_m": 7000,
      "fzfg": false,
      "metar_trigger": false,
      "taf_trigger": false,
      "metar": "METAR LFOB 050930Z AUTO 14010KT 7000 OVC004 08/08 Q0984 TEMPO 4000 RA BKN003 BKN012 SCT030TCU",
      "taf": ""
    },
    {
      "icao": "LFPO",
      "alert": "OK",
      "vis_m": 9999,
      "fzfg": false,
      "metar_trigger": false,
      "taf_trigger": false,
      "metar": "METAR LFPO 050930Z 17008KT 9999 -RA OVC012 09/08 Q0985 BECMG BKN040",
      "taf": "TAF LFPO 050500Z 0506/0612 16009KT 9999 BKN013"
    },
    {
      "icao": "LFSB",
      "alert": "OK",
      "vis_m": 9999,
      "fzfg": false,
      "metar_trigger": false,
      "taf_trigger": false,
      "metar": "METAR LFSB 050930Z AUTO 14006KT 120V180 CAVOK 04/02 Q0992 NOSIG",
      "taf": ""
    },
    {
      "icao": "LGAV",
      "alert": "OK",
      "vis_m": 9999,
      "fzfg": false,
      "metar_trigger": false,
      "taf_trigger": false,
      "metar": "METAR LGAV 050950Z 21024KT 9999 SCT015 BKN025 BKN070 16/11 Q1001 NOSIG",
      "taf": "TAF LGAV 050500Z 0506/0606 19020KT 9999 FEW020 SCT035"
    },
    {
      "icao": "LGTS",
      "alert": "OK",
      "vis_m": 9999,
      "fzfg": false,
      "metar_trigger": false,
      "taf_trigger": false,
      "metar": "METAR LGTS 050950Z 30005KT 9999 FEW025 13/13 Q0999 NOSIG",
      "taf": "TAF LGTS 050500Z 0506/0606 VRB03KT 9999 FEW010 BKN030"
    },
    {
      "icao": "LHBP",
      "alert": "OK",
      "vis_m": 9999,
      "fzfg": false,
      "metar_trigger": false,
      "taf_trigger": false,
      "metar": "METAR LHBP 050930Z 10014KT 9999 FEW012 SCT066 08/05 Q0997 NOSIG",
      "taf": "TAF LHBP 050515Z 0506/0606 08012KT 9999 BKN045"
    },
    {
      "icao": "LHDC",
      "alert": "OK",
      "vis_m": 9999,
      "fzfg": false,
      "metar_trigger": false,
      "taf_trigger": false,
      "metar": "METAR LHDC 050915Z AUTO 05004KT 020V090 9999 -SHRA NSC 07/05 Q0999 NOSIG",
      "taf": "TAF LHDC 050815Z 0509/0518 06007KT CAVOK"
    },
    {
      "icao": "LIBD",
      "alert": "OK",
      "vis_m": 9999,
      "fzfg": false,
      "metar_trigger": false,
      "taf_trigger": false,
      "metar": "METAR LIBD 050950Z 21009KT CAVOK 14/08 Q0996",
      "taf": "TAF LIBD 050500Z 0506/0606 17012KT 8000 SCT030"
    },
    {
      "icao": "LIBG",
      "alert": "OK",
      "vis_m": 9999,
      "fzfg": false,
      "metar_trigger": false,
      "taf_trigger": false,
      "metar": "METAR LIBG 050850Z VRB01KT 9999 FEW045 12/10 Q0996",
      "taf": "TAF LIBG 050800Z 0509/0518 VRB05KT 9999 SCT045"
    },
    {
      "icao": "LIBP",
      "alert": "OK",
      "vis_m": 9999,
      "fzfg": false,
      "metar_trigger": false,
      "taf_trigger": false,
      "metar": "METAR LIBP 050950Z AUTO 05004KT 9999 NCD 13/10 Q0995",
      "taf": "TAF LIBP 050500Z 0506/0606 VRB05KT 9999 BKN030"
    },
    {
      "icao": "LIBR",
      "alert": "OK",
      "vis_m": 9999,
      "fzfg": false,
      "metar_trigger": false,
      "taf_trigger": false,
      "metar": "METAR LIBR 050950Z 22008KT CAVOK 14/09 Q0996",
      "taf": "TAF LIBR 050500Z 0506/0606 20012KT 8000 SCT025"
    },
    {
      "icao": "LICA",
      "alert": "OK",
      "vis_m": 9999,
      "fzfg": false,
      "metar_trigger": false,
      "taf_trigger": false,
      "metar": "METAR LICA 050950Z AUTO 35003KT 300V050 9999 -RA OVC023/// 12/11 Q0998",
      "taf": "TAF LICA 050500Z 0506/0606 VRB05KT 9999 BKN030"
    },
    {
      "icao": "LICC",
      "alert": "OK",
      "vis_m": 9999,
      "fzfg": false,
      "metar_trigger": false,
      "taf_trigger": false,
      "metar": "METAR LICC 050950Z 24015KT 9999 FEW040 16/14 Q0999",
      "taf": "TAF LICC 050500Z 0506/0606 23012KT 9999 SCT030 BKN050"
    },
    {
      "icao": "LICJ",
      "alert": "OK",
      "vis_m": 9999,
      "fzfg": false,
      "metar_trigger": false,
      "taf_trigger": false,
      "metar": "METAR LICJ 050950Z 25016KT 9999 SCT035 15/10 Q1000",
      "taf": "TAF LICJ 050500Z 0506/0606 21016KT 9999 SCT030"
    },
    {
      "icao": "LIMC",
      "alert": "OK",
      "vis_m": 9999,
      "fzfg": false,
      "metar_trigger": false,
      "taf_trigger": false,
      "metar": "METAR LIMC 050950Z 24003KT 210V280 9999 2000SW BCFG NSC 05/05 Q0994 NOSIG",
      "taf": "TAF LIMC 050500Z 0506/0612 VRB05KT 3000 BR BKN030"
    },
    {
      "icao": "LIME",
      "alert": "OK",
      "vis_m": 400,
      "fzfg": false,
      "metar_trigger": false,
      "taf_trigger": false,
      "metar": "METAR LIME 050950Z VRB02KT 0400 R28/1700D FG VV002 06/06 Q0993 BECMG 0800 FG",
      "taf": ""
    },
    {
      "icao": "LIMF",
      "alert": "OK",
      "vis_m": 9999,
      "fzfg": false,
      "metar_trigger": false,
      "taf_trigger": false,
      "metar": "METAR LIMF 050950Z 23004KT 9999 MIFG NSC 06/02 Q0994",
      "taf": "TAF LIMF 050500Z 0506/0606 VRB05KT 9999 BKN030"
    },
    {
      "icao": "LIMJ",
      "alert": "OK",
      "vis_m": 9999,
      "fzfg": false,
      "metar_trigger": false,
      "taf_trigger": false,
      "metar": "METAR LIMJ 050950Z 07003KT 040V110 CAVOK 11/05 Q0995",
      "taf": "TAF LIMJ 050500Z 0506/0606 03014KT 9999 SCT050"
    },
    {
      "icao": "LIPE",
      "alert": "OK",
      "vis_m": 9999,
      "fzfg": false,
      "metar_trigger": false,
      "taf_trigger": false,
      "metar": "METAR LIPE 050950Z 27007KT 240V300 CAVOK 10/06 Q0994",
      "taf": "TAF LIPE 050500Z 0506/0606 27008KT 7000 BKN020"
    },
    {
      "icao": "LIPH",
      "alert": "OK",
      "vis_m": 9999,
      "fzfg": false,
      "metar_trigger": false,
      "taf_trigger": false,
      "metar": "METAR LIPH 050950Z VRB01KT 9999 BKN040 09/07 Q0993",
      "taf": "TAF LIPH 050500Z 0506/0606 30010KT 8000 BKN020"
    },
    {
      "icao": "LIPQ",
      "alert": "OK",
      "vis_m": 9999,
      "fzfg": false,
      "metar_trigger": false,
      "taf_trigger": false,
      "metar": "METAR LIPQ 050950Z AUTO 11009KT 9999 -DZ OVC016/// 08/06 Q0993",
      "taf": "TAF LIPQ 050500Z 0506/0606 04010KT 8000 BKN040"
    },
    {
      "icao": "LIPR",
      "alert": "OK",
      "vis_m": 9999,
      "fzfg": false,
      "metar_trigger": false,
      "taf_trigger": false,
      "metar": "METAR LIPR 050950Z 30006KT 9999 BKN030 10/06 Q0994",
      "taf": "TAF LIPR 050500Z 0506/0606 28013KT 7000 BKN030"
    },
    {
      "icao": "LIPX",
      "alert": "OK",
      "vis_m": 2000,
      "fzfg": false,
      "metar_trigger": false,
      "taf_trigger": false,
      "metar": "METAR LIPX 050950Z 26007KT 2000 BR BKN003 07/06 Q0993",
      "taf": ""
    },
    {
      "icao": "LIPY",
      "alert": "OK",
      "vis_m": 9999,
      "fzfg": false,
      "metar_trigger": false,
      "taf_trigger": false,
      "metar": "METAR LIPY 050950Z AUTO 36006KT 330V030 9999 BKN040/// 10/07 Q0995",
      "taf": "TAF LIPY 050500Z 0506/0606 VRB05KT 9999 BKN020"
    },
    {
      "icao": "LIPZ",
      "alert": "OK",
      "vis_m": 9999,
      "fzfg": false,
      "metar_trigger": false,
      "taf_trigger": false,
      "metar": "METAR LIPZ 050950Z 33005KT 230V030 9999 BKN040 09/08 Q0993 NOSIG",
      "taf": "TAF LIPZ 050500Z 0506/0612 30010KT 7000 BKN050"
    },
    {
      "icao": "LIRF",
      "alert": "OK",
      "vis_m": 9999,
      "fzfg": false,
      "metar_trigger": false,
      "taf_trigger": false,
      "metar": "METAR LIRF 050950Z 33005KT 290V360 CAVOK 13/08 Q0997 NOSIG",
      "taf": ""
    },
    {
      "icao": "LIRN",
      "alert": "OK",
      "vis_m": 9999,
      "fzfg": false,
      "metar_trigger": false,
      "taf_trigger": false,
      "metar": "METAR LIRN 050950Z 19004KT 150V250 9999 FEW020 14/10 Q0996 NOSIG",
      "taf": "TAF LIRN 050500Z 0506/0606 24010KT 9999 BKN030"
    },
    {
      "icao": "LIRP",
      "alert": "OK",
      "vis_m": 6000,
      "fzfg": false,
      "metar_trigger": false,
      "taf_trigger": false,
      "metar": "METAR LIRP 050945Z 23003KT 6000 RA SCT025 BKN030 09/09 Q0996 NOSIG",
      "taf": "TAF LIRP 050500Z 0506/0606 30012KT 9999 SCT025"
    },
    {
      "icao": "LIRZ",
      "alert": "OK",
      "vis_m": 9999,
      "fzfg": false,
      "metar_trigger": false,
      "taf_trigger": false,
      "metar": "METAR LIRZ 050950Z AUTO 19005KT 9999 FEW024/// SCT028/// BKN037/// 10/06 Q0996",
      "taf": "TAF LIRZ 050500Z 0506/0606 22006KT 6000 SCT040"
    },
    {
      "icao": "LJLJ",
      "alert": "OK",
      "vis_m": 9999,
      "fzfg": false,
      "metar_trigger": false,
      "taf_trigger": false,
      "metar": "METAR LJLJ 050930Z VRB01KT 9999 -RA FEW002 SCT012 BKN025 04/03 Q0994 NOSIG",
      "taf": "TAF LJLJ 050500Z 0506/0606 30004KT 8000 -RA BKN010 OVC040"
    },
    {
      "icao": "LKMT",
      "alert": "OK",
      "vis_m": 2000,
      "fzfg": false,
      "metar_trigger": false,
      "taf_trigger": false,
      "metar": "METAR LKMT 050930Z 03005KT 2000 BR BKN005 M00/M01 Q0999 NOSIG",
      "taf": "TAF LKMT 050500Z 0506/0606 02004KT 4500 BR NSC"
    },
    {
      "icao": "LKPR",
      "alert": "OK",
      "vis_m": 6000,
      "fzfg": false,
      "metar_trigger": false,
      "taf_trigger": false,
      "metar": "METAR LKPR 050930Z 12003KT 100V170 6000 OVC014 03/03 Q0995 NOSIG",
      "taf": "TAF LKPR 050800Z 0509/0615 10008KT 2500 BR OVC012"
    },
    {
      "icao": "LLBG",
      "alert": "OK",
      "vis_m": 9999,
      "fzfg": false,
      "metar_trigger": false,
      "taf_trigger": false,
      "metar": "METAR LLBG 050950Z VRB02KT CAVOK 21/07 Q1014 NOSIG",
      "taf": "TAF LLBG 050503Z 0506/0606 VRB03KT CAVOK"
    },
    {
      "icao": "LMML",
      "alert": "OK",
      "vis_m": 9999,
      "fzfg": false,
      "metar_trigger": false,
      "taf_trigger": false,
      "metar": "METAR LMML 050945Z 26014KT CAVOK 16/12 Q1003 NOSIG",
      "taf": "TAF LMML 050500Z 0506/0606 25012KT 8000 FEW015"
    },
    {
      "icao": "LOWW",
      "alert": "OK",
      "vis_m": 9999,
      "fzfg": false,
      "metar_trigger": false,
      "taf_trigger": false,
      "metar": "METAR LOWW 050950Z 13005KT 9999 -DZ FEW006 SCT009 BKN015 05/03 Q0996 TEMPO BKN009",
      "taf": "TAF LOWW 050815Z 0509/0615 12005KT 9000 FEW010 BKN020 TX04/0511Z TN02/0605Z"
    },
    {
      "icao": "LPFR",
      "alert": "OK",
      "vis_m": 6000,
      "fzfg": false,
      "metar_trigger": false,
      "taf_trigger": false,
      "metar": "METAR LPFR 050930Z 24019KT 6000 FEW012 SCT016 16/15 Q1000",
      "taf": "TAF LPFR 050500Z 0506/0606 23017KT 8000 SCT012 BKN025"
    },
    {
      "icao": "LPMA",
      "alert": "OK",
      "vis_m": 9999,
      "fzfg": false,
      "metar_trigger": false,
      "taf_trigger": false,
      "metar": "METAR LPMA 050930Z 04013KT 360V070 9999 FEW015 19/14 Q1008",
      "taf": "TAF LPMA 050500Z 0506/0606 24012KT 9999 SCT015"
    },
    {
      "icao": "LPPR",
      "alert": "OK",
      "vis_m": 9999,
      "fzfg": false,
      "metar_trigger": false,
      "taf_trigger": false,
      "metar": "METAR LPPR 050930Z 21016G29KT 9999 FEW016CB SCT020 14/10 Q0987",
      "taf": "TAF LPPR 050500Z 0506/0606 22017KT 4000 RADZ BR BKN008"
    },
    {
      "icao": "LPPS",
      "alert": "OK",
      "vis_m": 9999,
      "fzfg": false,
      "metar_trigger": false,
      "taf_trigger": false,
      "metar": "METAR LPPS 050930Z 28016KT 9999 FEW014 18/15 Q1009",
      "taf": "TAF LPPS 050500Z 0506/0612 26017KT 9999 SCT015"
    },
    {
      "icao": "LPPT",
      "alert": "OK",
      "vis_m": 9000,
      "fzfg": false,
      "metar_trigger": false,
      "taf_trigger": false,
      "metar": "METAR LPPT 050930Z 23021KT 9000 VCSH FEW018 FEW020CB BKN028 15/12 Q0994 WS R20",
      "taf": "TAF LPPT 050500Z 0506/0612 25017KT 3000 RADZ BR BKN004"
    },
    {
      "icao": "LQBK",
      "alert": "OK",
      "vis_m": 9999,
      "fzfg": false,
      "metar_trigger": false,
      "taf_trigger": false,
      "metar": "METAR LQBK 050930Z 32003KT 290V020 9999 -RA FEW010 BKN047 06/05 Q0995 NOSIG",
      "taf": "TAF LQBK 050500Z 0506/0606 08005KT 9999 SCT045 TX10/0513Z TN03/0605Z"
    },
    {
      "icao": "LQSA",
      "alert": "OK",
      "vis_m": 9999,
      "fzfg": false,
      "metar_trigger": false,
      "taf_trigger": false,
      "metar": "METAR LQSA 050930Z 13011KT 110V170 9999 SCT050 11/06 Q0994 NOSIG",
      "taf": ""
    },
    {
      "icao": "LQTZ",
      "alert": "OK",
      "vis_m": 9999,
      "fzfg": false,
      "metar_trigger": false,
      "taf_trigger": false,
      "metar": "METAR LQTZ 050930Z 12006KT 9999 FEW060 11/05 Q0994",
      "taf": "TAF LQTZ 050500Z 0506/0606 10005KT 9999 SCT050 TX15/0514Z TN03/0605Z"
    },
    {
      "icao": "LRBC",
      "alert": "OK",
      "vis_m": 400,
      "fzfg": false,
      "metar_trigger": false,
      "taf_trigger": false,
      "metar": "METAR LRBC 050930Z 17008KT 0400 R16/0900D FG VV002 04/04 Q1007",
      "taf": "TAF LRBC 050800Z 0509/0518 16012KT 1500 BR OVC002"
    },
    {
      "icao": "LRBS",
      "alert": "OK",
      "vis_m": 9999,
      "fzfg": false,
      "metar_trigger": false,
      "taf_trigger": false,
      "metar": "METAR LRBS 050930Z 06009KT 9999 -RA FEW006 BKN009 OVC045 05/04 Q1004 TEMPO 5000 -RA BR",
      "taf": "TAF LRBS 050500Z 0506/0606 05012KT 5000 -RA BR BKN010 BKN040"
    },
    {
      "icao": "LRBV",
      "alert": "OK",
      "vis_m": 9999,
      "fzfg": false,
      "metar_trigger": false,
      "taf_trigger": false,
      "metar": "METAR LRBV 050930Z VRB01KT 9999 FEW040 BKN071 08/03 Q1002",
      "taf": "TAF LRBV 050800Z 0509/0518 10007KT 9999 BKN040"
    },
    {
      "icao": "LRCL",
      "alert": "OK",
      "vis_m": 9999,
      "fzfg": false,
      "metar_trigger": false,
      "taf_trigger": false,
      "metar": "METAR LRCL 050930Z 13010KT CAVOK 10/03 Q1000",
      "taf": "TAF LRCL 050800Z 0509/0518 VRB04KT 9999 BKN045"
    },
    {
      "icao": "LRCV",
      "alert": "OK",
      "vis_m": 2200,
      "fzfg": false,
      "metar_trigger": false,
      "taf_trigger": false,
      "metar": "METAR LRCV 050930Z 11006KT 2200 -RA BR OVC006 03/03 Q1002",
      "taf": ""
    },
    {
      "icao": "LRIA",
      "alert": "OK",
      "vis_m": 3000,
      "fzfg": false,
      "metar_trigger": false,
      "taf_trigger": false,
      "metar": "METAR LRIA 050930Z 12020KT 3000 -DZ BR OVC002 03/02 Q1009",
      "taf": "TAF LRIA 050800Z 0509/0518 12018KT 9999 OVC005"
    },
    {
      "icao": "LROP",
      "alert": "OK",
      "vis_m": 9999,
      "fzfg": false,
      "metar_trigger": false,
      "taf_trigger": false,
      "metar": "METAR LROP 050930Z 07012KT 9999 BKN008 OVC042 05/05 Q1004 TEMPO 5000 -RA BR",
      "taf": "TAF LROP 050500Z 0506/0606 05012KT 5000 -RA BR BKN010 BKN040"
    },
    {
      "icao": "LRSB",
      "alert": "OK",
      "vis_m": 9999,
      "fzfg": false,
      "metar_trigger": false,
      "taf_trigger": false,
      "metar": "METAR LRSB 050930Z 17013KT 140V200 9999 FEW075 12/04 Q0999",
      "taf": "TAF LRSB 050500Z 0506/0606 13012KT CAVOK"
    },
    {
      "icao": "LRSM",
      "alert": "OK",
      "vis_m": 9999,
      "fzfg": false,
      "metar_trigger": false,
      "taf_trigger": false,
      "metar": "METAR LRSM 050930Z 13009KT CAVOK 10/04 Q0999",
      "taf": "TAF LRSM 050800Z 0509/0518 12012KT 9999 BKN045"
    },
    {
      "icao": "LRSV",
      "alert": "OK",
      "vis_m": 300,
      "fzfg": false,
      "metar_trigger": false,
      "taf_trigger": false,
      "metar": "METAR LRSV 050930Z 15015KT 0300 R34/0650U -RA FG VV002 02/02 Q1005",
      "taf": "TAF LRSV 050800Z 0509/0518 14015KT 0200 -DZ FG VV001"
    },
    {
      "icao": "LRTM",
      "alert": "OK",
      "vis_m": 9999,
      "fzfg": false,
      "metar_trigger": false,
      "taf_trigger": false,
      "metar": "METAR LRTM 050930Z 11010KT 070V140 CAVOK 12/05 Q1000",
      "taf": "TAF LRTM 050800Z 0509/0518 VRB04KT 9999 BKN045"
    },
    {
      "icao": "LRTR",
      "alert": "OK",
      "vis_m": 9999,
      "fzfg": false,
      "metar_trigger": false,
      "taf_trigger": false,
      "metar": "METAR LRTR 050930Z 12009KT CAVOK 12/06 Q0997 NOSIG",
      "taf": "TAF LRTR 050500Z 0506/0606 10010KT CAVOK"
    },
    {
      "icao": "LTAC",
      "alert": "OK",
      "vis_m": 9999,
      "fzfg": false,
      "metar_trigger": false,
      "taf_trigger": false,
      "metar": "METAR LTAC 050950Z 02006KT 330V060 9999 FEW040 BKN180 07/00 Q1013 NOSIG",
      "taf": "TAF LTAC 050440Z 0506/0606 VRB02KT 9999 FEW040 BKN100"
    },
    {
      "icao": "LTFM",
      "alert": "OK",
      "vis_m": 9999,
      "fzfg": false,
      "metar_trigger": false,
      "taf_trigger": false,
      "metar": "METAR LTFM 050950Z 17005KT 9999 -RA SCT033 BKN080 13/05 Q1006 NOSIG",
      "taf": "TAF LTFM 050440Z 0506/0612 16010KT CAVOK"
    },
    {
      "icao": "LUKK",
      "alert": "OK",
      "vis_m": 3500,
      "fzfg": false,
      "metar_trigger": false,
      "taf_trigger": false,
      "metar": "METAR LUKK 050930Z 11013KT 3500 -FZRA BR OVC004 M01/M01 Q1012 NOSIG",
      "taf": "TAF LUKK 050526Z 0506/0606 11014KT 3000 -FZDZ BR OVC003"
    },
    {
      "icao": "LWOH",
      "alert": "OK",
      "vis_m": 9999,
      "fzfg": false,
      "metar_trigger": false,
      "taf_trigger": false,
      "metar": "METAR LWOH 050950Z 15006KT 120V180 9999 FEW015 BKN035 10/06 Q0999",
      "taf": "TAF LWOH 050845Z 0509/0609 20006KT 9999 SCT020 BKN040"
    },
    {
      "icao": "LWSK",
      "alert": "OK",
      "vis_m": 9999,
      "fzfg": false,
      "metar_trigger": false,
      "taf_trigger": false,
      "metar": "METAR LWSK 050950Z VRB01KT 9999 SCT050 11/08 Q0999 NOSIG",
      "taf": "TAF LWSK 050845Z 0509/0609 VRB02KT 9999 SCT040"
    },
    {
      "icao": "LYBE",
      "alert": "OK",
      "vis_m": 9999,
      "fzfg": false,
      "metar_trigger": false,
      "taf_trigger": false,
      "metar": "METAR LYBE 050930Z 14015KT CAVOK 10/02 Q0996 NOSIG",
      "taf": "TAF LYBE 050500Z 0506/0606 14014KT CAVOK TX13/0513Z TN04/0606Z"
    },
    {
      "icao": "LYNI",
      "alert": "OK",
      "vis_m": 9999,
      "fzfg": false,
      "metar_trigger": false,
      "taf_trigger": false,
      "metar": "METAR LYNI 050930Z 09017KT 9999 FEW037 BKN050 09/03 Q0998 NOSIG",
      "taf": ""
    },
    {
      "icao": "LYPG",
      "alert": "OK",
      "vis_m": 9999,
      "fzfg": false,
      "metar_trigger": false,
      "taf_trigger": false,
      "metar": "METAR LYPG 050930Z 12008KT 9999 FEW020 SCT040 BKN070 12/08 Q0998 NOSIG",
      "taf": "TAF LYPG 050500Z 0506/0606 16005KT 9999 FEW010 BKN040 OVC070 TX11/0512Z TN08/0605Z"
    },
    {
      "icao": "LZIB",
      "alert": "OK",
      "vis_m": 9999,
      "fzfg": false,
      "metar_trigger": false,
      "taf_trigger": false,
      "metar": "METAR LZIB 050930Z 04006KT 9999 FEW009 SCT028 06/05 Q0996 NOSIG",
      "taf": "TAF LZIB 050515Z 0506/0606 04010KT 9999 FEW010 BKN018"
    },
    {
      "icao": "LZKZ",
      "alert": "OK",
      "vis_m": 9999,
      "fzfg": false,
      "metar_trigger": false,
      "taf_trigger": false,
      "metar": "METAR LZKZ 050930Z 01008KT CAVOK 04/03 Q0999 NOSIG",
      "taf": "TAF LZKZ 050515Z 0506/0606 01009KT 9999 FEW017 BKN025"
    },
    {
      "icao": "LZTT",
      "alert": "OK",
      "vis_m": 9999,
      "fzfg": false,
      "metar_trigger": false,
      "taf_trigger": false,
      "metar": "METAR LZTT 050930Z VRB02KT 9999 FEW005 BKN045 02/01 Q0999 NOSIG",
      "taf": "TAF LZTT 050515Z 0506/0606 VRB02KT 9999 FEW005 BKN020 OVC033"
    },
    {
      "icao": "OEJN",
      "alert": "OK",
      "vis_m": 9999,
      "fzfg": false,
      "metar_trigger": false,
      "taf_trigger": false,
      "metar": "METAR OEJN 050900Z 33004KT CAVOK 30/06 Q1012 NOSIG",
      "taf": "TAF OEJN 050500Z 0506/0612 36008KT CAVOK"
    },
    {
      "icao": "OEMA",
      "alert": "OK",
      "vis_m": 9999,
      "fzfg": false,
      "metar_trigger": false,
      "taf_trigger": false,
      "metar": "METAR OEMA 050900Z 09009KT CAVOK 23/M01 Q1019 NOSIG",
      "taf": ""
    },
    {
      "icao": "OJAI",
      "alert": "OK",
      "vis_m": 4000,
      "fzfg": false,
      "metar_trigger": false,
      "taf_trigger": false,
      "metar": "METAR OJAI 050900Z 12012KT 4000 HZ NSC 17/02 Q1018 NOSIG",
      "taf": "TAF OJAI 050500Z 0506/0612 14010KT 4000 BR NSC"
    },
    {
      "icao": "OMAA",
      "alert": "OK",
      "vis_m": 9999,
      "fzfg": false,
      "metar_trigger": false,
      "taf_trigger": false,
      "metar": "METAR OMAA 050930Z 30009KT 270V340 9999 FEW030 25/16 Q1018 NOSIG",
      "taf": "TAF OMAA 050500Z 0506/0612 29010KT 8000 FEW020"
    },
    {
      "icao": "OMDB",
      "alert": "OK",
      "vis_m": 7000,
      "fzfg": false,
      "metar_trigger": false,
      "taf_trigger": false,
      "metar": "METAR OMDB 050930Z 30010KT 270V330 7000 FEW025 25/18 Q1018 NOSIG",
      "taf": "TAF OMDB 050500Z 0506/0612 21007KT 8000 NSC"
    },
    {
      "icao": "UAAA",
      "alert": "OK",
      "vis_m": 9999,
      "fzfg": false,
      "metar_trigger": false,
      "taf_trigger": false,
      "metar": "METAR UAAA 050930Z VRB01MPS 9999 SCT200 07/M02 Q1012 NOSIG",
      "taf": "TAF UAAA 050503Z 0506/0606 04003G08MPS 3100 BR FU SCT050 BKN100 TX06/0508Z TNM02/0524Z"
    },
    {
      "icao": "UBBB",
      "alert": "OK",
      "vis_m": 9999,
      "fzfg": false,
      "metar_trigger": false,
      "taf_trigger": false,
      "metar": "METAR UBBB 050930Z 32010KT 9999 FEW013 BKN024 01/M02 Q1028 NOSIG",
      "taf": "TAF UBBB 050500Z 0506/0606 34014KT 9999 SCT012 BKN025 TX03/0510Z TN02/0602Z"
    },
    {
      "icao": "UDSG",
      "alert": "OK",
      "vis_m": 9999,
      "fzfg": false,
      "metar_trigger": false,
      "taf_trigger": false,
      "metar": "METAR UDSG 050930Z 20001KT 9999 NSC M04/M11 Q1022 NOSIG",
      "taf": "TAF UDSG 050458Z 0506/0606 VRB06KT 9999 SCT040"
    },
    {
      "icao": "UDYZ",
      "alert": "OK",
      "vis_m": 9999,
      "fzfg": false,
      "metar_trigger": false,
      "taf_trigger": false,
      "metar": "METAR UDYZ 050930Z 09002KT 9999 NSC 04/M05 Q1023 NOSIG",
      "taf": "TAF UDYZ 050500Z 0506/0606 VRB04KT 9999 FEW040"
    },
    {
      "icao": "UGKO",
      "alert": "OK",
      "vis_m": 9999,
      "fzfg": false,
      "metar_trigger": false,
      "taf_trigger": false,
      "metar": "METAR UGKO 050930Z 08026G37KT CAVOK 09/M02 Q1016 NOSIG",
      "taf": "TAF UGKO 050500Z 0506/0606 08020G37KT CAVOK TX13/0511Z TN02/0506Z"
    }
  ]
}