{
  "ts_utc": "2026-07-21T04:27:19Z",
  "threshold_m": 150,
  "source": "stations_override.txt (ICAO list) + aviationweather.gov (METAR/TAF raw)",
  "station_count": 159,
  "stations": [
    {
      "icao": "BIKF",
      "alert": "OK",
      "vis_m": 1000,
      "fzfg": false,
      "metar_trigger": false,
      "taf_trigger": false,
      "metar": "METAR BIKF 210400Z 21011KT 1000 R19/1000N -DZ FG OVC002 11/11 Q1025",
      "taf": "TAF BIKF 210102Z 2103/2203 23012KT 2500 -DZ BR OVC004 TX11/2115Z TN10/2106Z"
    },
    {
      "icao": "BKPR",
      "alert": "OK",
      "vis_m": null,
      "fzfg": false,
      "metar_trigger": false,
      "taf_trigger": false,
      "metar": "",
      "taf": ""
    },
    {
      "icao": "EBCI",
      "alert": "OK",
      "vis_m": 9999,
      "fzfg": false,
      "metar_trigger": false,
      "taf_trigger": false,
      "metar": "METAR EBCI 210420Z 02005KT CAVOK 11/09 Q1026 NOSIG",
      "taf": "TAF EBCI 202302Z 2100/2206 02005KT 9999 FEW040"
    },
    {
      "icao": "EDDB",
      "alert": "OK",
      "vis_m": 9999,
      "fzfg": false,
      "metar_trigger": false,
      "taf_trigger": false,
      "metar": "METAR EDDB 210420Z AUTO 30007KT CAVOK 13/11 Q1020 NOSIG",
      "taf": "TAF EDDB 202300Z 2100/2124 30007KT CAVOK"
    },
    {
      "icao": "EDDH",
      "alert": "OK",
      "vis_m": 9999,
      "fzfg": false,
      "metar_trigger": false,
      "taf_trigger": false,
      "metar": "METAR EDDH 210420Z AUTO 32003KT 9999 FEW002 10/10 Q1022 NOSIG",
      "taf": ""
    },
    {
      "icao": "EDDK",
      "alert": "OK",
      "vis_m": 9999,
      "fzfg": false,
      "metar_trigger": false,
      "taf_trigger": false,
      "metar": "METAR EDDK 210420Z AUTO VRB01KT CAVOK 09/08 Q1025 NOSIG",
      "taf": "TAF EDDK 202300Z 2100/2206 VRB03KT CAVOK"
    },
    {
      "icao": "EDDN",
      "alert": "OK",
      "vis_m": 9999,
      "fzfg": false,
      "metar_trigger": false,
      "taf_trigger": false,
      "metar": "METAR EDDN 210420Z AUTO 10002KT CAVOK 08/07 Q1023 NOSIG",
      "taf": "TAF EDDN 202300Z 2100/2124 VRB03KT CAVOK"
    },
    {
      "icao": "EDDS",
      "alert": "OK",
      "vis_m": 9999,
      "fzfg": false,
      "metar_trigger": false,
      "taf_trigger": false,
      "metar": "METAR EDDS 210420Z AUTO 32004KT CAVOK 12/07 Q1023 NOSIG",
      "taf": "TAF EDDS 202300Z 2100/2124 VRB03KT CAVOK"
    },
    {
      "icao": "EDFH",
      "alert": "OK",
      "vis_m": 9999,
      "fzfg": false,
      "metar_trigger": false,
      "taf_trigger": false,
      "metar": "METAR EDFH 210420Z 03003KT 350V070 CAVOK 11/08 Q1024",
      "taf": "TAF EDFH 202300Z 2100/2124 01006KT CAVOK"
    },
    {
      "icao": "EDJA",
      "alert": "OK",
      "vis_m": 9999,
      "fzfg": false,
      "metar_trigger": false,
      "taf_trigger": false,
      "metar": "METAR EDJA 210420Z 05005KT CAVOK 08/06 Q1022",
      "taf": "TAF EDJA 210200Z 2103/2112 03005KT CAVOK"
    },
    {
      "icao": "EDLW",
      "alert": "OK",
      "vis_m": 9999,
      "fzfg": false,
      "metar_trigger": false,
      "taf_trigger": false,
      "metar": "METAR EDLW 210420Z 26002KT CAVOK 10/09 Q1024",
      "taf": "TAF EDLW 210320Z 2104/2124 VRB03KT CAVOK"
    },
    {
      "icao": "EDNY",
      "alert": "OK",
      "vis_m": 9999,
      "fzfg": false,
      "metar_trigger": false,
      "taf_trigger": false,
      "metar": "METAR EDNY 210420Z 03007KT CAVOK 12/06 Q1021",
      "taf": "TAF EDNY 210200Z 2103/2112 02007KT CAVOK"
    },
    {
      "icao": "EDSB",
      "alert": "OK",
      "vis_m": null,
      "fzfg": false,
      "metar_trigger": false,
      "taf_trigger": false,
      "metar": "",
      "taf": ""
    },
    {
      "icao": "EETN",
      "alert": "OK",
      "vis_m": 9999,
      "fzfg": false,
      "metar_trigger": false,
      "taf_trigger": false,
      "metar": "METAR EETN 210420Z 05012KT 020V080 9999 -RA SCT011 OVC014 12/11 Q1012 TEMPO FEW025CB",
      "taf": "TAF EETN 202330Z 2100/2124 05014KT 9999 BKN025"
    },
    {
      "icao": "EFTU",
      "alert": "OK",
      "vis_m": 9999,
      "fzfg": false,
      "metar_trigger": false,
      "taf_trigger": false,
      "metar": "METAR EFTU 210420Z AUTO 02004KT 340V060 CAVOK 11/08 Q1016",
      "taf": "TAF EFTU 210222Z 2103/2203 04009KT CAVOK"
    },
    {
      "icao": "EGBB",
      "alert": "OK",
      "vis_m": 9999,
      "fzfg": false,
      "metar_trigger": false,
      "taf_trigger": false,
      "metar": "METAR EGBB 210420Z 33003KT CAVOK 11/10 Q1029",
      "taf": "TAF EGBB 202252Z 2100/2124 02004KT 9999 FEW045"
    },
    {
      "icao": "EGGP",
      "alert": "OK",
      "vis_m": 9999,
      "fzfg": false,
      "metar_trigger": false,
      "taf_trigger": false,
      "metar": "METAR EGGP 210420Z 27007KT 9999 FEW006 BKN013 14/13 Q1029",
      "taf": "TAF EGGP 202253Z 2100/2124 29005KT 9999 FEW035"
    },
    {
      "icao": "EGGW",
      "alert": "OK",
      "vis_m": 9999,
      "fzfg": false,
      "metar_trigger": false,
      "taf_trigger": false,
      "metar": "METAR EGGW 210420Z AUTO 03005KT 9999 NCD 12/11 Q1028",
      "taf": ""
    },
    {
      "icao": "EGKK",
      "alert": "OK",
      "vis_m": 9999,
      "fzfg": false,
      "metar_trigger": false,
      "taf_trigger": false,
      "metar": "METAR EGKK 210420Z VRB01KT CAVOK 12/10 Q1028",
      "taf": "TAF EGKK 202259Z 2100/2206 VRB02KT 9999 SCT025"
    },
    {
      "icao": "EGNM",
      "alert": "OK",
      "vis_m": 9999,
      "fzfg": false,
      "metar_trigger": false,
      "taf_trigger": false,
      "metar": "METAR EGNM 210420Z 27003KT CAVOK 11/09 Q1029",
      "taf": "TAF EGNM 202255Z 2100/2124 VRB03KT 9999 FEW025"
    },
    {
      "icao": "EGPD",
      "alert": "OK",
      "vis_m": 9999,
      "fzfg": false,
      "metar_trigger": false,
      "taf_trigger": false,
      "metar": "METAR EGPD 210420Z AUTO 31008KT 9999 BKN015 OVC020 14/11 Q1029",
      "taf": "TAF EGPD 202253Z 2100/2124 26005KT 9999 SCT020"
    },
    {
      "icao": "EGPF",
      "alert": "OK",
      "vis_m": 9999,
      "fzfg": false,
      "metar_trigger": false,
      "taf_trigger": false,
      "metar": "METAR EGPF 210420Z AUTO 25002KT 9999 NCD 10/10 Q1029",
      "taf": "TAF EGPF 202251Z 2100/2124 VRB05KT CAVOK"
    },
    {
      "icao": "EHBK",
      "alert": "OK",
      "vis_m": 9999,
      "fzfg": false,
      "metar_trigger": false,
      "taf_trigger": false,
      "metar": "METAR EHBK 210355Z AUTO 03005KT 9999 NCD 11/09 Q1025 NOSIG",
      "taf": "TAF EHBK 202310Z 2100/2206 01005KT CAVOK"
    },
    {
      "icao": "EHEH",
      "alert": "OK",
      "vis_m": 9999,
      "fzfg": false,
      "metar_trigger": false,
      "taf_trigger": false,
      "metar": "METAR EHEH 210355Z AUTO 00000KT 9999 OVC021 09/08 Q1025 WHT",
      "taf": "TAF EHEH 202354Z 2100/2206 36004KT CAVOK"
    },
    {
      "icao": "EKBI",
      "alert": "OK",
      "vis_m": 800,
      "fzfg": false,
      "metar_trigger": false,
      "taf_trigger": false,
      "metar": "METAR EKBI 210420Z AUTO 27002KT 0800 R09/0550N R27/P1500D BCFG SCT006/// 08/08 Q1023",
      "taf": ""
    },
    {
      "icao": "EKCH",
      "alert": "OK",
      "vis_m": 9999,
      "fzfg": false,
      "metar_trigger": false,
      "taf_trigger": false,
      "metar": "METAR EKCH 210420Z AUTO 31007KT 290V360 9999 NCD 15/10 Q1020 NOSIG",
      "taf": "TAF EKCH 210227Z 2103/2203 33008KT 9999 SCT030"
    },
    {
      "icao": "ENAL",
      "alert": "OK",
      "vis_m": 9999,
      "fzfg": false,
      "metar_trigger": false,
      "taf_trigger": false,
      "metar": "METAR ENAL 210420Z 23007KT 9999 FEW008 12/11 Q1021",
      "taf": "TAF ENAL 210200Z 2103/2112 VRB03KT 9999 FEW060"
    },
    {
      "icao": "ENBR",
      "alert": "OK",
      "vis_m": 9999,
      "fzfg": false,
      "metar_trigger": false,
      "taf_trigger": false,
      "metar": "METAR ENBR 210420Z 35004KT 9999 BKN007 11/09 Q1023 TEMPO BKN010 RMK WIND 1200FT 33013KT",
      "taf": ""
    },
    {
      "icao": "ENGM",
      "alert": "OK",
      "vis_m": 9999,
      "fzfg": false,
      "metar_trigger": false,
      "taf_trigger": false,
      "metar": "METAR ENGM 210420Z 36002KT CAVOK 10/06 Q1020 NOSIG",
      "taf": "TAF ENGM 202300Z 2100/2124 36003KT CAVOK"
    },
    {
      "icao": "ENHD",
      "alert": "OK",
      "vis_m": 9999,
      "fzfg": false,
      "metar_trigger": false,
      "taf_trigger": false,
      "metar": "METAR ENHD 210420Z 35010KT 9999 BKN013 12/09 Q1023",
      "taf": "TAF ENHD 210200Z 2103/2112 34010KT 9999 SCT012 BKN015"
    },
    {
      "icao": "ENTC",
      "alert": "OK",
      "vis_m": 9999,
      "fzfg": false,
      "metar_trigger": false,
      "taf_trigger": false,
      "metar": "METAR ENTC 210420Z 01005KT 360V060 9999 BKN050 09/06 Q1011 RMK WIND 2600FT 17024KT",
      "taf": "TAF ENTC 202300Z 2100/2124 07004KT 9999 FEW020 SCT050"
    },
    {
      "icao": "ENTO",
      "alert": "OK",
      "vis_m": 9999,
      "fzfg": false,
      "metar_trigger": false,
      "taf_trigger": false,
      "metar": "METAR ENTO 210420Z 28004KT CAVOK 16/07 Q1020 NOSIG",
      "taf": "TAF ENTO 202300Z 2100/2124 28005KT CAVOK"
    },
    {
      "icao": "ENVA",
      "alert": "OK",
      "vis_m": 9999,
      "fzfg": false,
      "metar_trigger": false,
      "taf_trigger": false,
      "metar": "METAR ENVA 210420Z 13003KT 070V180 9999 BKN040 11/11 Q1020 NOSIG RMK WIND 670FT 07003KT",
      "taf": "TAF ENVA 202300Z 2100/2124 27005KT 9999 FEW020"
    },
    {
      "icao": "ENZV",
      "alert": "OK",
      "vis_m": 9999,
      "fzfg": false,
      "metar_trigger": false,
      "taf_trigger": false,
      "metar": "METAR ENZV 210420Z 34010KT 9999 BKN011 12/10 Q1023 TEMPO SCT014",
      "taf": "TAF ENZV 202300Z 2100/2124 35008KT CAVOK"
    },
    {
      "icao": "EPGD",
      "alert": "OK",
      "vis_m": 4700,
      "fzfg": false,
      "metar_trigger": false,
      "taf_trigger": false,
      "metar": "METAR EPGD 210400Z 31014KT 4700 -RADZ OVC005 14/13 Q1010",
      "taf": "TAF EPGD 202330Z 2100/2124 32010KT 9999 FEW003"
    },
    {
      "icao": "EPKK",
      "alert": "OK",
      "vis_m": 9999,
      "fzfg": false,
      "metar_trigger": false,
      "taf_trigger": false,
      "metar": "METAR EPKK 210400Z 21006KT 9999 FEW045 13/10 Q1018",
      "taf": "TAF EPKK 210230Z 2103/2203 24008KT CAVOK"
    },
    {
      "icao": "EPKT",
      "alert": "OK",
      "vis_m": 9999,
      "fzfg": false,
      "metar_trigger": false,
      "taf_trigger": false,
      "metar": "METAR EPKT 210400Z 26012KT 9999 BKN013 14/11 Q1018",
      "taf": "TAF EPKT 202330Z 2100/2124 28010KT CAVOK"
    },
    {
      "icao": "EPLB",
      "alert": "OK",
      "vis_m": 9999,
      "fzfg": false,
      "metar_trigger": false,
      "taf_trigger": false,
      "metar": "METAR EPLB 210400Z 24012KT CAVOK 14/12 Q1014",
      "taf": "TAF EPLB 202330Z 2100/2124 23008KT CAVOK"
    },
    {
      "icao": "EPMO",
      "alert": "OK",
      "vis_m": 5000,
      "fzfg": false,
      "metar_trigger": false,
      "taf_trigger": false,
      "metar": "METAR EPMO 210400Z 24012KT 5000 -RA BR BKN007 13/13 Q1011",
      "taf": ""
    },
    {
      "icao": "EPPO",
      "alert": "OK",
      "vis_m": 9999,
      "fzfg": false,
      "metar_trigger": false,
      "taf_trigger": false,
      "metar": "METAR EPPO 210400Z 30011KT 9999 OVC009 14/12 Q1016",
      "taf": "TAF EPPO 202330Z 2100/2124 28012KT 9999 BKN010"
    },
    {
      "icao": "EPRA",
      "alert": "OK",
      "vis_m": 9999,
      "fzfg": false,
      "metar_trigger": false,
      "taf_trigger": false,
      "metar": "METAR EPRA 210400Z 25011KT 9999 SCT010 BKN017 OVC038 14/12 Q1014",
      "taf": "TAF EPRA 210230Z 2103/2112 24010KT 9999 BKN014"
    },
    {
      "icao": "EPRZ",
      "alert": "OK",
      "vis_m": 9999,
      "fzfg": false,
      "metar_trigger": false,
      "taf_trigger": false,
      "metar": "METAR EPRZ 210400Z 25007KT CAVOK 14/10 Q1017",
      "taf": "TAF EPRZ 202330Z 2100/2124 27008KT CAVOK"
    },
    {
      "icao": "EPSC",
      "alert": "OK",
      "vis_m": 9999,
      "fzfg": false,
      "metar_trigger": false,
      "taf_trigger": false,
      "metar": "METAR EPSC 210400Z 29007KT 9999 OVC039 14/13 Q1018",
      "taf": ""
    },
    {
      "icao": "EPSY",
      "alert": "OK",
      "vis_m": 8000,
      "fzfg": false,
      "metar_trigger": false,
      "taf_trigger": false,
      "metar": "METAR EPSY 210400Z 24006KT 210V290 8000 -SHRA BKN011CB 13/12 Q1009",
      "taf": "TAF EPSY 210230Z 2103/2112 20008KT 9999 BKN014"
    },
    {
      "icao": "EPWA",
      "alert": "OK",
      "vis_m": 4900,
      "fzfg": false,
      "metar_trigger": false,
      "taf_trigger": false,
      "metar": "METAR EPWA 210400Z 25012KT 4900 -SHRA BR BKN007 BKN013CB 13/13 Q1012 TEMPO 6000",
      "taf": "TAF EPWA 210230Z 2103/2203 24010KT 9999 -RA BKN012"
    },
    {
      "icao": "EPWR",
      "alert": "OK",
      "vis_m": 9999,
      "fzfg": false,
      "metar_trigger": false,
      "taf_trigger": false,
      "metar": "METAR EPWR 210400Z 27012KT CAVOK 15/11 Q1018",
      "taf": "TAF EPWR 210230Z 2103/2203 28012KT CAVOK"
    },
    {
      "icao": "ESGG",
      "alert": "OK",
      "vis_m": 9999,
      "fzfg": false,
      "metar_trigger": false,
      "taf_trigger": false,
      "metar": "METAR ESGG 210420Z 07004KT CAVOK 15/05 Q1020",
      "taf": "TAF ESGG 210230Z 2103/2203 36004KT CAVOK"
    },
    {
      "icao": "ESKN",
      "alert": "OK",
      "vis_m": 9999,
      "fzfg": false,
      "metar_trigger": false,
      "taf_trigger": false,
      "metar": "METAR ESKN 210420Z 32007KT CAVOK 12/08 Q1017",
      "taf": "TAF ESKN 210230Z 2103/2203 35005KT CAVOK"
    },
    {
      "icao": "ESMS",
      "alert": "OK",
      "vis_m": 9999,
      "fzfg": false,
      "metar_trigger": false,
      "taf_trigger": false,
      "metar": "METAR ESMS 210420Z 30003KT 260V020 CAVOK 12/08 Q1019",
      "taf": "TAF ESMS 210227Z 2103/2203 33008KT 9999 SCT030"
    },
    {
      "icao": "ESSA",
      "alert": "OK",
      "vis_m": 9999,
      "fzfg": false,
      "metar_trigger": false,
      "taf_trigger": false,
      "metar": "METAR ESSA 210420Z 35007KT CAVOK 10/08 Q1017 NOSIG",
      "taf": "TAF ESSA 210230Z 2103/2203 35010KT CAVOK"
    },
    {
      "icao": "EYKA",
      "alert": "OK",
      "vis_m": 9999,
      "fzfg": false,
      "metar_trigger": false,
      "taf_trigger": false,
      "metar": "METAR EYKA 210420Z 18007KT CAVOK 14/12 Q1009",
      "taf": "TAF EYKA 202300Z 2100/2124 VRB05KT 9000 SCT030"
    },
    {
      "icao": "EYPA",
      "alert": "OK",
      "vis_m": 9999,
      "fzfg": false,
      "metar_trigger": false,
      "taf_trigger": false,
      "metar": "METAR EYPA 210420Z VRB02KT 9999 BKN012 BKN025 OVC034 16/15 Q1007",
      "taf": "TAF EYPA 202300Z 2100/2124 19010KT 9000 SCT010 OVC015"
    },
    {
      "icao": "EYVI",
      "alert": "OK",
      "vis_m": 9999,
      "fzfg": false,
      "metar_trigger": false,
      "taf_trigger": false,
      "metar": "METAR EYVI 210420Z 17004KT CAVOK 12/11 Q1010 NOSIG",
      "taf": ""
    },
    {
      "icao": "GCFV",
      "alert": "OK",
      "vis_m": 9999,
      "fzfg": false,
      "metar_trigger": false,
      "taf_trigger": false,
      "metar": "METAR GCFV 210400Z AUTO 36013KT CAVOK 22/18 Q1016",
      "taf": "TAF GCFV 210200Z 2103/2203 02015KT 9999 SCT020 TX27/2114Z TN22/2106Z"
    },
    {
      "icao": "GCLP",
      "alert": "OK",
      "vis_m": 9999,
      "fzfg": false,
      "metar_trigger": false,
      "taf_trigger": false,
      "metar": "METAR GCLP 210400Z 36024KT 9999 FEW023 23/18 Q1016 NOSIG",
      "taf": "TAF GCLP 210200Z 2103/2203 36023KT 9999 FEW025 TX27/2114Z TN22/2106Z"
    },
    {
      "icao": "GCTS",
      "alert": "OK",
      "vis_m": 9999,
      "fzfg": false,
      "metar_trigger": false,
      "taf_trigger": false,
      "metar": "METAR GCTS 210400Z 06015KT CAVOK 23/18 Q1016 NOSIG",
      "taf": "TAF GCTS 210200Z 2103/2203 04010KT 9999 SCT020 TX29/2114Z TN22/2106Z"
    },
    {
      "icao": "GMAD",
      "alert": "OK",
      "vis_m": 8000,
      "fzfg": false,
      "metar_trigger": false,
      "taf_trigger": false,
      "metar": "METAR GMAD 210400Z 25007KT 8000 NSC 20/18 Q1011 NOSIG",
      "taf": "TAF GMAD 202300Z 2100/2206 12006KT 8000 NSC"
    },
    {
      "icao": "GMMN",
      "alert": "OK",
      "vis_m": 9999,
      "fzfg": false,
      "metar_trigger": false,
      "taf_trigger": false,
      "metar": "METAR GMMN 210400Z 02008KT 9999 BKN013 21/18 Q1016 NOSIG",
      "taf": "TAF GMMN 202300Z 2100/2206 02006KT 9999 SCT012"
    },
    {
      "icao": "GMMX",
      "alert": "OK",
      "vis_m": 8000,
      "fzfg": false,
      "metar_trigger": false,
      "taf_trigger": false,
      "metar": "METAR GMMX 08004KT 050V120 8000 NSC 25/16 Q1015 NOSIG",
      "taf": "TAF GMMX 201700Z 2018/2124 32006KT 8000 NSC"
    },
    {
      "icao": "HEGN",
      "alert": "OK",
      "vis_m": 9999,
      "fzfg": false,
      "metar_trigger": false,
      "taf_trigger": false,
      "metar": "METAR HEGN 210400Z 33007KT CAVOK 31/12 Q1007 NOSIG",
      "taf": "TAF HEGN 202300Z 2100/2206 30012KT CAVOK"
    },
    {
      "icao": "HEMA",
      "alert": "OK",
      "vis_m": 9999,
      "fzfg": false,
      "metar_trigger": false,
      "taf_trigger": false,
      "metar": "METAR HEMA 210400Z 33012KT CAVOK 33/08 Q1005 NOSIG",
      "taf": "TAF HEMA 202300Z 2100/2206 30006G18KT CAVOK"
    },
    {
      "icao": "HESH",
      "alert": "OK",
      "vis_m": 9999,
      "fzfg": false,
      "metar_trigger": false,
      "taf_trigger": false,
      "metar": "METAR HESH 210400Z 35007KT CAVOK 30/17 Q1006 NOSIG",
      "taf": "TAF HESH 202300Z 2100/2206 32011KT CAVOK"
    },
    {
      "icao": "HESX",
      "alert": "OK",
      "vis_m": 100,
      "fzfg": false,
      "metar_trigger": false,
      "taf_trigger": false,
      "metar": "METAR HESX 210400Z 34003KT 0100 R34/R0100 FG NSC 22/22 Q1010 TEMPO 0500",
      "taf": ""
    },
    {
      "icao": "LATI",
      "alert": "OK",
      "vis_m": 9999,
      "fzfg": false,
      "metar_trigger": false,
      "taf_trigger": false,
      "metar": "METAR LATI 210420Z 15004KT 100V170 CAVOK 23/14 Q1014 NOSIG",
      "taf": "TAF LATI 202300Z 2100/2124 VRB05KT CAVOK TX37/2112Z TN21/2104Z"
    },
    {
      "icao": "LBPD",
      "alert": "OK",
      "vis_m": 9999,
      "fzfg": false,
      "metar_trigger": false,
      "taf_trigger": false,
      "metar": "METAR LBPD 210400Z AUTO 18002KT 9999 SCT100/// 20/19 Q1016 NOSIG",
      "taf": "TAF LBPD 202300Z 2100/2124 VRB04KT 9999 SCT070"
    },
    {
      "icao": "LBSF",
      "alert": "OK",
      "vis_m": 9999,
      "fzfg": false,
      "metar_trigger": false,
      "taf_trigger": false,
      "metar": "METAR LBSF 210400Z VRB01KT 9999 SCT069 15/14 Q1019 NOSIG",
      "taf": "TAF LBSF 202300Z 2100/2124 VRB04KT 9999 SCT060"
    },
    {
      "icao": "LBWN",
      "alert": "OK",
      "vis_m": 9999,
      "fzfg": false,
      "metar_trigger": false,
      "taf_trigger": false,
      "metar": "METAR LBWN 210400Z AUTO 26003KT 9999 NSC 21/21 Q1014 NOSIG",
      "taf": "TAF LBWN 202300Z 2100/2124 VRB03KT 9999 SCT045"
    },
    {
      "icao": "LCLK",
      "alert": "OK",
      "vis_m": 8000,
      "fzfg": false,
      "metar_trigger": false,
      "taf_trigger": false,
      "metar": "METAR LCLK 210400Z 33004KT 270V350 8000 NSC 27/25 Q1007 NOSIG",
      "taf": "TAF LCLK 202330Z 2100/2200 28005KT CAVOK"
    },
    {
      "icao": "LCPH",
      "alert": "OK",
      "vis_m": 8000,
      "fzfg": false,
      "metar_trigger": false,
      "taf_trigger": false,
      "metar": "METAR LCPH 210400Z 35004KT 8000 FEW010 27/23 Q1007 NOSIG",
      "taf": "TAF LCPH 202330Z 2100/2200 02004KT 9999 FEW012"
    },
    {
      "icao": "LEAL",
      "alert": "OK",
      "vis_m": 9999,
      "fzfg": false,
      "metar_trigger": false,
      "taf_trigger": false,
      "metar": "METAR LEAL 210400Z 29008KT CAVOK 27/21 Q1012 NOSIG",
      "taf": "TAF LEAL 202300Z 2100/2124 VRB04KT 9999 SCT015 TX35/2116Z TN25/2106Z"
    },
    {
      "icao": "LEBB",
      "alert": "OK",
      "vis_m": 9999,
      "fzfg": false,
      "metar_trigger": false,
      "taf_trigger": false,
      "metar": "METAR LEBB 210400Z 09004KT CAVOK 19/18 Q1019 NOSIG",
      "taf": "TAF LEBB 202300Z 2100/2124 VRB03KT 9999 FEW045 TX28/2113Z TN18/2105Z"
    },
    {
      "icao": "LEBL",
      "alert": "OK",
      "vis_m": 9999,
      "fzfg": false,
      "metar_trigger": false,
      "taf_trigger": false,
      "metar": "METAR LEBL 210400Z 00000KT 9999 FEW018 26/24 Q1014 NOSIG",
      "taf": "TAF LEBL 202300Z 2100/2124 33005KT 9999 FEW020 TX32/2113Z TN26/2105Z"
    },
    {
      "icao": "LECH",
      "alert": "OK",
      "vis_m": 6000,
      "fzfg": false,
      "metar_trigger": false,
      "taf_trigger": false,
      "metar": "METAR LECH 210400Z AUTO 36003KT 300V070 6000 SCT005 24/23 Q1015",
      "taf": "TAF LECH 202300Z 2100/2124 VRB04KT 9999 FEW015 TX36/2113Z TN22/2106Z"
    },
    {
      "icao": "LEMD",
      "alert": "OK",
      "vis_m": 9999,
      "fzfg": false,
      "metar_trigger": false,
      "taf_trigger": false,
      "metar": "METAR LEMD 210400Z 34003KT CAVOK 20/03 Q1017 NOSIG",
      "taf": "TAF LEMD 202300Z 2100/2206 VRB04KT CAVOK TX38/2116Z TN18/2105Z"
    },
    {
      "icao": "LEMG",
      "alert": "OK",
      "vis_m": 9999,
      "fzfg": false,
      "metar_trigger": false,
      "taf_trigger": false,
      "metar": "METAR LEMG 210400Z 30004KT 270V330 CAVOK 23/17 Q1013 NOSIG",
      "taf": "TAF LEMG 202300Z 2100/2124 29004KT CAVOK TX36/2114Z TN24/2105Z"
    },
    {
      "icao": "LEVC",
      "alert": "OK",
      "vis_m": 8000,
      "fzfg": false,
      "metar_trigger": false,
      "taf_trigger": false,
      "metar": "METAR LEVC 210400Z VRB01KT 8000 NSC 26/24 Q1012 NOSIG",
      "taf": "TAF LEVC 202300Z 2100/2124 VRB04KT 9999 SCT010 TX34/2112Z TN25/2106Z"
    },
    {
      "icao": "LEXJ",
      "alert": "OK",
      "vis_m": 9999,
      "fzfg": false,
      "metar_trigger": false,
      "taf_trigger": false,
      "metar": "METAR LEXJ 210400Z 23007KT CAVOK 20/16 Q1019",
      "taf": "TAF LEXJ 210200Z 2103/2203 22007KT 9000 NSC TX28/2113Z TN19/2203Z"
    },
    {
      "icao": "LEZG",
      "alert": "OK",
      "vis_m": 9999,
      "fzfg": false,
      "metar_trigger": false,
      "taf_trigger": false,
      "metar": "METAR LEZG 210400Z 28007KT CAVOK 23/14 Q1016 NOSIG",
      "taf": "TAF LEZG 202300Z 2100/2124 30012KT CAVOK TX39/2115Z TN23/2106Z"
    },
    {
      "icao": "LEZL",
      "alert": "OK",
      "vis_m": 9999,
      "fzfg": false,
      "metar_trigger": false,
      "taf_trigger": false,
      "metar": "METAR LEZL 210400Z VRB02KT CAVOK 23/17 Q1014 NOSIG",
      "taf": "TAF LEZL 210200Z 2103/2203 VRB03KT CAVOK TX37/2115Z TN21/2105Z"
    },
    {
      "icao": "LFBD",
      "alert": "OK",
      "vis_m": 9999,
      "fzfg": false,
      "metar_trigger": false,
      "taf_trigger": false,
      "metar": "METAR LFBD 210400Z AUTO 02008KT CAVOK 20/06 Q1018 NOSIG",
      "taf": "TAF LFBD 202300Z 2100/2206 03010KT CAVOK TX33/2115Z TN19/2105Z"
    },
    {
      "icao": "LFLL",
      "alert": "OK",
      "vis_m": 9999,
      "fzfg": false,
      "metar_trigger": false,
      "taf_trigger": false,
      "metar": "METAR LFLL 210400Z 34007KT CAVOK 16/07 Q1019 NOSIG",
      "taf": "TAF LFLL 202300Z 2100/2206 35005KT CAVOK"
    },
    {
      "icao": "LFLS",
      "alert": "OK",
      "vis_m": 9999,
      "fzfg": false,
      "metar_trigger": false,
      "taf_trigger": false,
      "metar": "METAR LFLS 210400Z AUTO VRB02KT CAVOK 13/08 Q1019 NOSIG",
      "taf": "TAF LFLS 210200Z 2103/2203 VRB03KT CAVOK"
    },
    {
      "icao": "LFMN",
      "alert": "OK",
      "vis_m": 9999,
      "fzfg": false,
      "metar_trigger": false,
      "taf_trigger": false,
      "metar": "METAR LFMN 210400Z 32010KT 9999 FEW018 26/20 Q1014 NOSIG",
      "taf": "TAF LFMN 210200Z 2103/2209 07007KT CAVOK"
    },
    {
      "icao": "LFOB",
      "alert": "OK",
      "vis_m": 9999,
      "fzfg": false,
      "metar_trigger": false,
      "taf_trigger": false,
      "metar": "METAR LFOB 210400Z AUTO 36007KT CAVOK 11/09 Q1025 NOSIG",
      "taf": "TAF LFOB 202300Z 2100/2124 01010KT CAVOK"
    },
    {
      "icao": "LFPO",
      "alert": "OK",
      "vis_m": 9999,
      "fzfg": false,
      "metar_trigger": false,
      "taf_trigger": false,
      "metar": "METAR LFPO 210400Z AUTO 01004KT 330V040 CAVOK 15/09 Q1024 NOSIG",
      "taf": "TAF LFPO 202300Z 2100/2206 02012KT CAVOK"
    },
    {
      "icao": "LFSB",
      "alert": "OK",
      "vis_m": 9999,
      "fzfg": false,
      "metar_trigger": false,
      "taf_trigger": false,
      "metar": "METAR LFSB 210400Z AUTO 32004KT CAVOK 11/08 Q1022 NOSIG",
      "taf": "TAF LFSB 202300Z 2100/2124 34005KT CAVOK"
    },
    {
      "icao": "LGAV",
      "alert": "OK",
      "vis_m": 9999,
      "fzfg": false,
      "metar_trigger": false,
      "taf_trigger": false,
      "metar": "METAR LGAV 210420Z VRB01KT CAVOK 28/17 Q1014 NOSIG",
      "taf": "TAF LGAV 202300Z 2100/2124 VRB05KT 9999 FEW025"
    },
    {
      "icao": "LGTS",
      "alert": "OK",
      "vis_m": 9999,
      "fzfg": false,
      "metar_trigger": false,
      "taf_trigger": false,
      "metar": "METAR LGTS 210420Z VRB02KT 9999 FEW025 24/17 Q1015 NOSIG",
      "taf": "TAF LGTS 202300Z 2100/2124 VRB03KT 9999 FEW030"
    },
    {
      "icao": "LHBP",
      "alert": "OK",
      "vis_m": 9999,
      "fzfg": false,
      "metar_trigger": false,
      "taf_trigger": false,
      "metar": "METAR LHBP 210400Z 31003KT 9999 FEW011 14/11 Q1019 NOSIG",
      "taf": "TAF LHBP 202315Z 2100/2124 32008KT CAVOK"
    },
    {
      "icao": "LHDC",
      "alert": "OK",
      "vis_m": 9999,
      "fzfg": false,
      "metar_trigger": false,
      "taf_trigger": false,
      "metar": "METAR LHDC 210345Z AUTO 00000KT CAVOK 14/07 Q1018 NOSIG",
      "taf": "TAF LHDC 210215Z 2103/2112 VRB03KT CAVOK"
    },
    {
      "icao": "LIBD",
      "alert": "OK",
      "vis_m": 9999,
      "fzfg": false,
      "metar_trigger": false,
      "taf_trigger": false,
      "metar": "METAR LIBD 210420Z VRB01KT CAVOK 24/21 Q1014",
      "taf": "TAF LIBD 202300Z 2100/2124 26007KT CAVOK"
    },
    {
      "icao": "LIBG",
      "alert": "OK",
      "vis_m": null,
      "fzfg": false,
      "metar_trigger": false,
      "taf_trigger": false,
      "metar": "",
      "taf": ""
    },
    {
      "icao": "LIBP",
      "alert": "OK",
      "vis_m": 9999,
      "fzfg": false,
      "metar_trigger": false,
      "taf_trigger": false,
      "metar": "METAR LIBP 210420Z AUTO 23004KT 9999 NCD 23/23 Q1014",
      "taf": "TAF LIBP 202300Z 2100/2124 VRB05KT CAVOK"
    },
    {
      "icao": "LIBR",
      "alert": "OK",
      "vis_m": 9999,
      "fzfg": false,
      "metar_trigger": false,
      "taf_trigger": false,
      "metar": "METAR LIBR 210420Z 34006KT CAVOK 27/26 Q1014",
      "taf": "TAF LIBR 202300Z 2100/2124 30006KT 9999 FEW010"
    },
    {
      "icao": "LICA",
      "alert": "OK",
      "vis_m": 9999,
      "fzfg": false,
      "metar_trigger": false,
      "taf_trigger": false,
      "metar": "METAR LICA 210420Z AUTO 08005KT 9999 NCD 20/14 Q1015",
      "taf": "TAF LICA 202300Z 2100/2124 VRB05KT CAVOK"
    },
    {
      "icao": "LICC",
      "alert": "OK",
      "vis_m": 9999,
      "fzfg": false,
      "metar_trigger": false,
      "taf_trigger": false,
      "metar": "METAR LICC 210420Z 25005KT CAVOK 24/12 Q1014",
      "taf": "TAF LICC 202300Z 2100/2124 09012KT CAVOK"
    },
    {
      "icao": "LICJ",
      "alert": "OK",
      "vis_m": 9999,
      "fzfg": false,
      "metar_trigger": false,
      "taf_trigger": false,
      "metar": "METAR LICJ 210420Z 22004KT 180V250 CAVOK 29/20 Q1014",
      "taf": "TAF LICJ 202300Z 2100/2124 VRB05KT CAVOK"
    },
    {
      "icao": "LIMC",
      "alert": "OK",
      "vis_m": 9999,
      "fzfg": false,
      "metar_trigger": false,
      "taf_trigger": false,
      "metar": "METAR LIMC 210420Z 07004KT 040V110 9999 BKN040 23/18 Q1016 NOSIG",
      "taf": "TAF LIMC 202300Z 2100/2206 VRB05KT 9999 FEW050"
    },
    {
      "icao": "LIME",
      "alert": "OK",
      "vis_m": 9999,
      "fzfg": false,
      "metar_trigger": false,
      "taf_trigger": false,
      "metar": "METAR LIME 210420Z 36005KT CAVOK 21/17 Q1015 NOSIG",
      "taf": "TAF LIME 202300Z 2100/2124 VRB05KT 9999 SCT030"
    },
    {
      "icao": "LIMF",
      "alert": "OK",
      "vis_m": 9999,
      "fzfg": false,
      "metar_trigger": false,
      "taf_trigger": false,
      "metar": "METAR LIMF 210420Z 35005KT 9999 BKN030 24/18 Q1016",
      "taf": "TAF LIMF 202300Z 2100/2124 VRB05KT 9999 SCT030"
    },
    {
      "icao": "LIMJ",
      "alert": "OK",
      "vis_m": 9999,
      "fzfg": false,
      "metar_trigger": false,
      "taf_trigger": false,
      "metar": "METAR LIMJ 210420Z 07003KT 040V100 9999 FEW023 27/23 Q1014",
      "taf": "TAF LIMJ 202300Z 2100/2124 VRB05KT 9999 SCT030"
    },
    {
      "icao": "LIPE",
      "alert": "OK",
      "vis_m": 9999,
      "fzfg": false,
      "metar_trigger": false,
      "taf_trigger": false,
      "metar": "METAR LIPE 210420Z AUTO VRB02KT 9999 BKN028/// 23/21 Q1015",
      "taf": "TAF LIPE 202300Z 2100/2124 VRB05KT CAVOK"
    },
    {
      "icao": "LIPH",
      "alert": "OK",
      "vis_m": 9999,
      "fzfg": false,
      "metar_trigger": false,
      "taf_trigger": false,
      "metar": "METAR LIPH 210420Z AUTO VRB02KT 9999 FEW140/// 21/17 Q1016",
      "taf": "TAF LIPH 202300Z 2100/2124 VRB05KT 9999 FEW030"
    },
    {
      "icao": "LIPQ",
      "alert": "OK",
      "vis_m": 9999,
      "fzfg": false,
      "metar_trigger": false,
      "taf_trigger": false,
      "metar": "METAR LIPQ 210420Z AUTO 35005KT 9999 BKN110/// 22/14 Q1015",
      "taf": "TAF LIPQ 202300Z 2100/2124 10006KT CAVOK"
    },
    {
      "icao": "LIPR",
      "alert": "OK",
      "vis_m": 9999,
      "fzfg": false,
      "metar_trigger": false,
      "taf_trigger": false,
      "metar": "METAR LIPR 210420Z AUTO VRB04KT 9999 SCT140/// SCT180/// BKN210/// 22/21 Q1014",
      "taf": "TAF LIPR 202300Z 2100/2124 VRB05KT CAVOK"
    },
    {
      "icao": "LIPX",
      "alert": "OK",
      "vis_m": 9999,
      "fzfg": false,
      "metar_trigger": false,
      "taf_trigger": false,
      "metar": "METAR LIPX 210420Z AUTO 10004KT 060V120 9999 NCD 23/15 Q1015",
      "taf": "TAF LIPX 202300Z 2100/2124 VRB05KT 9999 SCT050"
    },
    {
      "icao": "LIPY",
      "alert": "OK",
      "vis_m": 9999,
      "fzfg": false,
      "metar_trigger": false,
      "taf_trigger": false,
      "metar": "METAR LIPY 210420Z AUTO 22003KT 9999 FEW110/// BKN150/// BKN180/// 22/21 Q1015",
      "taf": "TAF LIPY 202300Z 2100/2124 23006KT CAVOK"
    },
    {
      "icao": "LIPZ",
      "alert": "OK",
      "vis_m": 9999,
      "fzfg": false,
      "metar_trigger": false,
      "taf_trigger": false,
      "metar": "METAR LIPZ 210420Z 05008KT CAVOK 21/16 Q1015 NOSIG",
      "taf": "TAF LIPZ 202300Z 2100/2206 03008KT 9999 FEW030"
    },
    {
      "icao": "LIRF",
      "alert": "OK",
      "vis_m": 9999,
      "fzfg": false,
      "metar_trigger": false,
      "taf_trigger": false,
      "metar": "METAR LIRF 210420Z 08003KT 060V120 CAVOK 25/23 Q1013 NOSIG",
      "taf": "TAF LIRF 202300Z 2100/2206 VRB05KT CAVOK"
    },
    {
      "icao": "LIRN",
      "alert": "OK",
      "vis_m": 8000,
      "fzfg": false,
      "metar_trigger": false,
      "taf_trigger": false,
      "metar": "METAR LIRN 210420Z VRB01KT 8000 NSC 25/23 Q1014 NOSIG",
      "taf": "TAF LIRN 202300Z 2100/2124 VRB05KT CAVOK"
    },
    {
      "icao": "LIRP",
      "alert": "OK",
      "vis_m": 9999,
      "fzfg": false,
      "metar_trigger": false,
      "taf_trigger": false,
      "metar": "METAR LIRP 210415Z 32002KT 9999 SCT030 23/22 Q1014 NOSIG",
      "taf": "TAF LIRP 202300Z 2100/2124 09005KT CAVOK"
    },
    {
      "icao": "LIRZ",
      "alert": "OK",
      "vis_m": 9999,
      "fzfg": false,
      "metar_trigger": false,
      "taf_trigger": false,
      "metar": "METAR LIRZ 210420Z AUTO 01006KT 9999 NCD 22/16 Q1015",
      "taf": "TAF LIRZ 202300Z 2100/2124 VRB05KT 9999 FEW040"
    },
    {
      "icao": "LJLJ",
      "alert": "OK",
      "vis_m": 9999,
      "fzfg": false,
      "metar_trigger": false,
      "taf_trigger": false,
      "metar": "METAR LJLJ 210400Z VRB02KT 9999 FEW020 SCT120 15/15 Q1019 NOSIG",
      "taf": "TAF LJLJ 202300Z 2100/2200 VRB02KT 9999 FEW050"
    },
    {
      "icao": "LKMT",
      "alert": "OK",
      "vis_m": 9999,
      "fzfg": false,
      "metar_trigger": false,
      "taf_trigger": false,
      "metar": "METAR LKMT 210400Z 26004KT 9999 FEW047 12/10 Q1020 NOSIG",
      "taf": "TAF LKMT 202300Z 2100/2124 23005KT CAVOK"
    },
    {
      "icao": "LKPR",
      "alert": "OK",
      "vis_m": 9999,
      "fzfg": false,
      "metar_trigger": false,
      "taf_trigger": false,
      "metar": "METAR LKPR 210400Z 25007KT CAVOK 11/10 Q1022 NOSIG",
      "taf": "TAF LKPR 210200Z 2103/2209 31008KT CAVOK"
    },
    {
      "icao": "LLBG",
      "alert": "OK",
      "vis_m": 9999,
      "fzfg": false,
      "metar_trigger": false,
      "taf_trigger": false,
      "metar": "METAR LLBG 210420Z VRB03KT 9999 FEW012 26/18 Q1009 NOSIG",
      "taf": "TAF LLBG 202321Z 2100/2124 VRB03KT 9999 FEW015 TX33/2111Z TN23/2103Z"
    },
    {
      "icao": "LMML",
      "alert": "OK",
      "vis_m": 9999,
      "fzfg": false,
      "metar_trigger": false,
      "taf_trigger": false,
      "metar": "METAR LMML 210415Z 30006KT CAVOK 29/22 Q1014 NOSIG",
      "taf": "TAF LMML 202300Z 2100/2124 30006KT CAVOK"
    },
    {
      "icao": "LOWW",
      "alert": "OK",
      "vis_m": 9999,
      "fzfg": false,
      "metar_trigger": false,
      "taf_trigger": false,
      "metar": "METAR LOWW 210420Z 34007KT CAVOK 16/09 Q1021 NOSIG",
      "taf": "TAF LOWW 210215Z 2103/2209 30008KT CAVOK TX24/2114Z TN13/2103Z"
    },
    {
      "icao": "LPFR",
      "alert": "OK",
      "vis_m": 9999,
      "fzfg": false,
      "metar_trigger": false,
      "taf_trigger": false,
      "metar": "METAR LPFR 210400Z VRB01KT CAVOK 20/16 Q1015",
      "taf": "TAF LPFR 202300Z 2100/2124 32008KT CAVOK"
    },
    {
      "icao": "LPMA",
      "alert": "OK",
      "vis_m": 9999,
      "fzfg": false,
      "metar_trigger": false,
      "taf_trigger": false,
      "metar": "METAR LPMA 210400Z 01011KT 320V050 9999 FEW015 23/17 Q1021",
      "taf": "TAF LPMA 202300Z 2100/2124 02012KT 9999 SCT015"
    },
    {
      "icao": "LPPR",
      "alert": "OK",
      "vis_m": 5000,
      "fzfg": false,
      "metar_trigger": false,
      "taf_trigger": false,
      "metar": "METAR LPPR 210400Z 02002KT 5000 BR FEW007 SCT016 BKN036 17/17 Q1016",
      "taf": "TAF LPPR 202300Z 2100/2124 VRB02KT 9999 SCT012"
    },
    {
      "icao": "LPPS",
      "alert": "OK",
      "vis_m": 9999,
      "fzfg": false,
      "metar_trigger": false,
      "taf_trigger": false,
      "metar": "METAR LPPS 210400Z 02012KT 9999 FEW014 22/17 Q1021",
      "taf": "TAF LPPS 202300Z 2100/2206 01010KT 9999 SCT015"
    },
    {
      "icao": "LPPT",
      "alert": "OK",
      "vis_m": 9999,
      "fzfg": false,
      "metar_trigger": false,
      "taf_trigger": false,
      "metar": "METAR LPPT 210400Z VRB02KT 9999 FEW013 19/18 Q1017 NOSIG",
      "taf": "TAF LPPT 202300Z 2100/2206 30008KT 9999 FEW012"
    },
    {
      "icao": "LQBK",
      "alert": "OK",
      "vis_m": 9999,
      "fzfg": false,
      "metar_trigger": false,
      "taf_trigger": false,
      "metar": "METAR LQBK 210400Z VRB03KT CAVOK 13/12 Q1019 NOSIG",
      "taf": "TAF LQBK 202300Z 2100/2124 16005KT CAVOK TX26/2113Z TN13/2103Z"
    },
    {
      "icao": "LQSA",
      "alert": "OK",
      "vis_m": 9999,
      "fzfg": false,
      "metar_trigger": false,
      "taf_trigger": false,
      "metar": "METAR LQSA 210400Z 14004KT 9999 SCT012 BKN030 18/15 Q1020 NOSIG",
      "taf": "TAF LQSA 202300Z 2100/2124 VRB02KT 9999 FEW015 TX25/2111Z TN16/2103Z"
    },
    {
      "icao": "LQTZ",
      "alert": "OK",
      "vis_m": 8000,
      "fzfg": false,
      "metar_trigger": false,
      "taf_trigger": false,
      "metar": "METAR LQTZ 210400Z VRB01KT 8000 BKN004 OVC010 17/17 Q1019",
      "taf": ""
    },
    {
      "icao": "LRBC",
      "alert": "OK",
      "vis_m": 5000,
      "fzfg": false,
      "metar_trigger": false,
      "taf_trigger": false,
      "metar": "METAR LRBC 210400Z 02002KT 5000 BR NSC 18/17 Q1017",
      "taf": "TAF LRBC 210200Z 2103/2112 31005KT 7000 BKN035"
    },
    {
      "icao": "LRBS",
      "alert": "OK",
      "vis_m": 9999,
      "fzfg": false,
      "metar_trigger": false,
      "taf_trigger": false,
      "metar": "METAR LRBS 210400Z 07007KT CAVOK 21/18 Q1016 NOSIG",
      "taf": "TAF LRBS 202300Z 2100/2124 06006KT CAVOK"
    },
    {
      "icao": "LRBV",
      "alert": "OK",
      "vis_m": 9999,
      "fzfg": false,
      "metar_trigger": false,
      "taf_trigger": false,
      "metar": "METAR LRBV 210400Z 25006KT 9999 FEW003 SCT050 14/13 Q1019",
      "taf": "TAF LRBV 210200Z 2103/2112 25006KT CAVOK"
    },
    {
      "icao": "LRCL",
      "alert": "OK",
      "vis_m": 9999,
      "fzfg": false,
      "metar_trigger": false,
      "taf_trigger": false,
      "metar": "METAR LRCL 210400Z 29002KT CAVOK 16/09 Q1018",
      "taf": "TAF LRCL 210200Z 2103/2112 VRB04KT CAVOK"
    },
    {
      "icao": "LRCV",
      "alert": "OK",
      "vis_m": 9999,
      "fzfg": false,
      "metar_trigger": false,
      "taf_trigger": false,
      "metar": "METAR LRCV 210400Z 05007KT CAVOK 19/16 Q1016",
      "taf": "TAF LRCV 210200Z 2103/2112 34005KT CAVOK"
    },
    {
      "icao": "LRIA",
      "alert": "OK",
      "vis_m": 9999,
      "fzfg": false,
      "metar_trigger": false,
      "taf_trigger": false,
      "metar": "METAR LRIA 210400Z 26003KT CAVOK 17/16 Q1017",
      "taf": "TAF LRIA 210200Z 2103/2112 28005KT CAVOK"
    },
    {
      "icao": "LROP",
      "alert": "OK",
      "vis_m": 9999,
      "fzfg": false,
      "metar_trigger": false,
      "taf_trigger": false,
      "metar": "METAR LROP 210400Z 10005KT CAVOK 20/19 Q1016 NOSIG",
      "taf": "TAF LROP 202300Z 2100/2124 06006KT CAVOK"
    },
    {
      "icao": "LRSB",
      "alert": "OK",
      "vis_m": 9999,
      "fzfg": false,
      "metar_trigger": false,
      "taf_trigger": false,
      "metar": "METAR LRSB 210400Z 30003KT CAVOK 16/11 Q1019",
      "taf": "TAF LRSB 202300Z 2100/2124 VRB04KT CAVOK"
    },
    {
      "icao": "LRSM",
      "alert": "OK",
      "vis_m": 9999,
      "fzfg": false,
      "metar_trigger": false,
      "taf_trigger": false,
      "metar": "METAR LRSM 210400Z AUTO 26003KT 230V330 9999 BKN070/// BKN085/// 14/09 Q1018",
      "taf": ""
    },
    {
      "icao": "LRSV",
      "alert": "OK",
      "vis_m": 9999,
      "fzfg": false,
      "metar_trigger": false,
      "taf_trigger": false,
      "metar": "METAR LRSV 210400Z 22004KT CAVOK 16/15 Q1017",
      "taf": "TAF LRSV 210200Z 2103/2112 VRB04KT CAVOK"
    },
    {
      "icao": "LRTM",
      "alert": "OK",
      "vis_m": 9999,
      "fzfg": false,
      "metar_trigger": false,
      "taf_trigger": false,
      "metar": "METAR LRTM 210400Z VRB01KT CAVOK 15/14 Q1018",
      "taf": "TAF LRTM 210200Z 2103/2112 VRB04KT CAVOK"
    },
    {
      "icao": "LRTR",
      "alert": "OK",
      "vis_m": 9999,
      "fzfg": false,
      "metar_trigger": false,
      "taf_trigger": false,
      "metar": "METAR LRTR 210400Z 09002KT CAVOK 14/10 Q1018",
      "taf": "TAF LRTR 202300Z 2100/2124 30006KT CAVOK"
    },
    {
      "icao": "LTAC",
      "alert": "OK",
      "vis_m": 9999,
      "fzfg": false,
      "metar_trigger": false,
      "taf_trigger": false,
      "metar": "METAR LTAC 210420Z VRB02KT CAVOK 20/08 Q1017 NOSIG",
      "taf": "TAF LTAC 202240Z 2100/2124 VRB02KT CAVOK"
    },
    {
      "icao": "LTFM",
      "alert": "OK",
      "vis_m": 9999,
      "fzfg": false,
      "metar_trigger": false,
      "taf_trigger": false,
      "metar": "METAR LTFM 210420Z 15004KT 100V200 CAVOK 23/19 Q1014 NOSIG",
      "taf": "TAF LTFM 202240Z 2100/2206 12005KT CAVOK"
    },
    {
      "icao": "LUKK",
      "alert": "OK",
      "vis_m": 9999,
      "fzfg": false,
      "metar_trigger": false,
      "taf_trigger": false,
      "metar": "METAR LUKK 210400Z 02005KT CAVOK 19/18 Q1016 NOSIG",
      "taf": ""
    },
    {
      "icao": "LWOH",
      "alert": "OK",
      "vis_m": null,
      "fzfg": false,
      "metar_trigger": false,
      "taf_trigger": false,
      "metar": "",
      "taf": "TAF LWOH 210220Z 2103/2203 16006KT CAVOK"
    },
    {
      "icao": "LWSK",
      "alert": "OK",
      "vis_m": 9999,
      "fzfg": false,
      "metar_trigger": false,
      "taf_trigger": false,
      "metar": "METAR LWSK 210420Z VRB02KT CAVOK 17/15 Q1019 NOSIG",
      "taf": "TAF LWSK 210210Z 2103/2203 VRB02KT CAVOK"
    },
    {
      "icao": "LYBE",
      "alert": "OK",
      "vis_m": 8000,
      "fzfg": false,
      "metar_trigger": false,
      "taf_trigger": false,
      "metar": "METAR LYBE 210400Z 20005KT 8000 NSC 17/16 Q1018 TEMPO 0300 FG",
      "taf": ""
    },
    {
      "icao": "LYNI",
      "alert": "OK",
      "vis_m": 8000,
      "fzfg": false,
      "metar_trigger": false,
      "taf_trigger": false,
      "metar": "METAR LYNI 210400Z VRB02KT 8000 FEW003 BKN006 17/17 Q1019 TEMPO 3000 BR",
      "taf": ""
    },
    {
      "icao": "LYPG",
      "alert": "OK",
      "vis_m": 9999,
      "fzfg": false,
      "metar_trigger": false,
      "taf_trigger": false,
      "metar": "METAR LYPG 210400Z 35007KT CAVOK 25/14 Q1014 NOSIG",
      "taf": "TAF LYPG 202300Z 2100/2124 35006KT CAVOK TX37/2113Z TN24/2103Z"
    },
    {
      "icao": "LZIB",
      "alert": "OK",
      "vis_m": 9999,
      "fzfg": false,
      "metar_trigger": false,
      "taf_trigger": false,
      "metar": "METAR LZIB 210400Z VRB01KT CAVOK 16/08 Q1020 NOSIG",
      "taf": "TAF LZIB 202315Z 2100/2200 34005KT CAVOK"
    },
    {
      "icao": "LZKZ",
      "alert": "OK",
      "vis_m": 9999,
      "fzfg": false,
      "metar_trigger": false,
      "taf_trigger": false,
      "metar": "METAR LZKZ 210400Z 32002KT CAVOK 13/09 Q1018 NOSIG",
      "taf": "TAF LZKZ 202315Z 2100/2200 34004KT CAVOK"
    },
    {
      "icao": "LZTT",
      "alert": "OK",
      "vis_m": 9999,
      "fzfg": false,
      "metar_trigger": false,
      "taf_trigger": false,
      "metar": "METAR LZTT 210400Z 28014KT 9999 FEW063 10/07 Q1019",
      "taf": "TAF LZTT 202315Z 2100/2200 25007KT CAVOK"
    },
    {
      "icao": "OEJN",
      "alert": "OK",
      "vis_m": 9999,
      "fzfg": false,
      "metar_trigger": false,
      "taf_trigger": false,
      "metar": "METAR OEJN 210400Z 33010KT CAVOK 33/20 Q1000 NOSIG",
      "taf": "TAF OEJN 202300Z 2100/2206 01006KT 9999 FEW040"
    },
    {
      "icao": "OEMA",
      "alert": "OK",
      "vis_m": 9999,
      "fzfg": false,
      "metar_trigger": false,
      "taf_trigger": false,
      "metar": "METAR OEMA 210400Z 35004KT CAVOK 34/M01 Q1010 NOSIG",
      "taf": "TAF OEMA 202300Z 2100/2206 28006KT CAVOK"
    },
    {
      "icao": "OJAI",
      "alert": "OK",
      "vis_m": 5000,
      "fzfg": false,
      "metar_trigger": false,
      "taf_trigger": false,
      "metar": "METAR OJAI 210400Z 28003KT 5000 HZ NSC 23/07 Q1013 NOSIG",
      "taf": "TAF OJAI 202258Z 2100/2206 29010KT 5000 HZ NSC"
    },
    {
      "icao": "OMAA",
      "alert": "OK",
      "vis_m": 9999,
      "fzfg": false,
      "metar_trigger": false,
      "taf_trigger": false,
      "metar": "METAR OMAA 210400Z 25003KT CAVOK 37/17 Q0997 NOSIG",
      "taf": "TAF OMAA 202300Z 2100/2206 20005KT 7000 NSC"
    },
    {
      "icao": "OMDB",
      "alert": "OK",
      "vis_m": 8000,
      "fzfg": false,
      "metar_trigger": false,
      "taf_trigger": false,
      "metar": "METAR OMDB 210400Z 19005KT 130V240 8000 NSC 37/17 Q0997 NOSIG",
      "taf": "TAF OMDB 202300Z 2100/2206 18008KT 8000 NSC"
    },
    {
      "icao": "UAAA",
      "alert": "OK",
      "vis_m": 9999,
      "fzfg": false,
      "metar_trigger": false,
      "taf_trigger": false,
      "metar": "METAR UAAA 210400Z 24005MPS 220V280 9999 SCT050CB BKN100 35/08 Q1001 NOSIG",
      "taf": "TAF UAAA 202301Z 2100/2124 21003MPS 9999 SCT050CB BKN100 TX34/2110Z TN26/2100Z"
    },
    {
      "icao": "UBBB",
      "alert": "OK",
      "vis_m": 9999,
      "fzfg": false,
      "metar_trigger": false,
      "taf_trigger": false,
      "metar": "METAR UBBB 210400Z 34006KT 310V010 CAVOK 27/20 Q1013 NOSIG",
      "taf": "TAF UBBB 202259Z 2100/2124 33008KT 9999 FEW015 TX32/2110Z TN21/2101Z"
    },
    {
      "icao": "UDSG",
      "alert": "OK",
      "vis_m": 9999,
      "fzfg": false,
      "metar_trigger": false,
      "taf_trigger": false,
      "metar": "METAR UDSG 210400Z 26002KT 9999 NSC 17/12 Q1021 NOSIG",
      "taf": "TAF UDSG 202258Z 2100/2124 VRB06KT 9999 FEW050"
    },
    {
      "icao": "UDYZ",
      "alert": "OK",
      "vis_m": 9999,
      "fzfg": false,
      "metar_trigger": false,
      "taf_trigger": false,
      "metar": "METAR UDYZ 210400Z 10005KT 9999 NSC 25/13 Q1015 NOSIG",
      "taf": "TAF UDYZ 202300Z 2100/2124 16006KT 9999 FEW050"
    },
    {
      "icao": "UGKO",
      "alert": "OK",
      "vis_m": 9999,
      "fzfg": false,
      "metar_trigger": false,
      "taf_trigger": false,
      "metar": "METAR UGKO 210400Z VRB02KT 9999 BKN034 22/19 Q1013 NOSIG",
      "taf": "TAF UGKO 202300Z 2100/2124 25007KT CAVOK TX30/2111Z TN19/2102Z"
    }
  ]
}