{
  "ts_utc": "2026-05-29T04:25:10Z",
  "threshold_m": 150,
  "source": "stations_override.txt (ICAO list) + aviationweather.gov (METAR/TAF raw)",
  "station_count": 159,
  "stations": [
    {
      "icao": "BIKF",
      "alert": "OK",
      "vis_m": 9999,
      "fzfg": false,
      "metar_trigger": false,
      "taf_trigger": false,
      "metar": "METAR BIKF 290400Z 02010KT 9999 BKN041 BKN077 07/04 Q1007",
      "taf": "TAF BIKF 290123Z 2903/3003 02010KT 9999 SCT025 BKN035 TX08/2911Z TN06/2918Z"
    },
    {
      "icao": "BKPR",
      "alert": "OK",
      "vis_m": null,
      "fzfg": false,
      "metar_trigger": false,
      "taf_trigger": false,
      "metar": "",
      "taf": "TAF BKPR 282330Z 2900/2924 35007KT CAVOK"
    },
    {
      "icao": "EBCI",
      "alert": "OK",
      "vis_m": 9999,
      "fzfg": false,
      "metar_trigger": false,
      "taf_trigger": false,
      "metar": "METAR EBCI 290350Z 16003KT CAVOK 19/14 Q1023 NOSIG",
      "taf": "TAF EBCI 282305Z 2900/3006 17005KT CAVOK"
    },
    {
      "icao": "EDDB",
      "alert": "OK",
      "vis_m": 9999,
      "fzfg": false,
      "metar_trigger": false,
      "taf_trigger": false,
      "metar": "METAR EDDB 290420Z AUTO VRB02KT CAVOK 10/07 Q1025 NOSIG",
      "taf": "TAF EDDB 282300Z 2900/2924 VRB03KT CAVOK"
    },
    {
      "icao": "EDDH",
      "alert": "OK",
      "vis_m": 9999,
      "fzfg": false,
      "metar_trigger": false,
      "taf_trigger": false,
      "metar": "METAR EDDH 290420Z AUTO 07003KT CAVOK 10/08 Q1023 NOSIG",
      "taf": "TAF EDDH 282300Z 2900/3006 VRB03KT CAVOK"
    },
    {
      "icao": "EDDK",
      "alert": "OK",
      "vis_m": 9999,
      "fzfg": false,
      "metar_trigger": false,
      "taf_trigger": false,
      "metar": "METAR EDDK 290420Z AUTO 08004KT 050V120 CAVOK 15/06 Q1023 NOSIG",
      "taf": "TAF EDDK 282300Z 2900/3006 11004KT CAVOK"
    },
    {
      "icao": "EDDN",
      "alert": "OK",
      "vis_m": 9999,
      "fzfg": false,
      "metar_trigger": false,
      "taf_trigger": false,
      "metar": "METAR EDDN 290420Z AUTO VRB01KT CAVOK 09/04 Q1025 NOSIG",
      "taf": "TAF EDDN 282300Z 2900/2924 VRB03KT CAVOK"
    },
    {
      "icao": "EDDS",
      "alert": "OK",
      "vis_m": 9999,
      "fzfg": false,
      "metar_trigger": false,
      "taf_trigger": false,
      "metar": "METAR EDDS 290420Z AUTO VRB01KT CAVOK 12/09 Q1024 NOSIG",
      "taf": "TAF EDDS 282300Z 2900/2924 VRB03KT CAVOK"
    },
    {
      "icao": "EDFH",
      "alert": "OK",
      "vis_m": 9999,
      "fzfg": false,
      "metar_trigger": false,
      "taf_trigger": false,
      "metar": "METAR EDFH 290350Z 19004KT CAVOK 15/04 Q1025",
      "taf": "TAF EDFH 282300Z 2900/2924 13004KT CAVOK"
    },
    {
      "icao": "EDJA",
      "alert": "OK",
      "vis_m": 9999,
      "fzfg": false,
      "metar_trigger": false,
      "taf_trigger": false,
      "metar": "METAR EDJA 290350Z VRB02KT CAVOK 08/05 Q1025",
      "taf": "TAF EDJA 290200Z 2903/2912 VRB03KT CAVOK"
    },
    {
      "icao": "EDLW",
      "alert": "OK",
      "vis_m": 9999,
      "fzfg": false,
      "metar_trigger": false,
      "taf_trigger": false,
      "metar": "METAR EDLW 290350Z VRB04KT CAVOK 13/06 Q1023",
      "taf": "TAF EDLW 290320Z 2904/2924 16006KT CAVOK"
    },
    {
      "icao": "EDNY",
      "alert": "OK",
      "vis_m": 9999,
      "fzfg": false,
      "metar_trigger": false,
      "taf_trigger": false,
      "metar": "METAR EDNY 290350Z 06003KT CAVOK 12/06 Q1024",
      "taf": "TAF EDNY 290200Z 2903/2912 05004KT CAVOK"
    },
    {
      "icao": "EDSB",
      "alert": "OK",
      "vis_m": 9999,
      "fzfg": false,
      "metar_trigger": false,
      "taf_trigger": false,
      "metar": "METAR EDSB 290350Z 08002KT CAVOK 13/08 Q1023",
      "taf": "TAF EDSB 282300Z 2900/2924 VRB03KT CAVOK"
    },
    {
      "icao": "EETN",
      "alert": "OK",
      "vis_m": 9999,
      "fzfg": false,
      "metar_trigger": false,
      "taf_trigger": false,
      "metar": "METAR EETN 290420Z 32011KT CAVOK 10/03 Q1012 NOSIG",
      "taf": "TAF EETN 282330Z 2900/2924 32012G22KT CAVOK"
    },
    {
      "icao": "EFTU",
      "alert": "OK",
      "vis_m": 9999,
      "fzfg": false,
      "metar_trigger": false,
      "taf_trigger": false,
      "metar": "METAR EFTU 290420Z AUTO 33006KT 290V360 CAVOK 09/04 Q1014",
      "taf": "TAF EFTU 290222Z 2903/3003 31007KT CAVOK"
    },
    {
      "icao": "EGBB",
      "alert": "OK",
      "vis_m": 9999,
      "fzfg": false,
      "metar_trigger": false,
      "taf_trigger": false,
      "metar": "METAR EGBB 290350Z 27005KT CAVOK 14/11 Q1020",
      "taf": "TAF EGBB 282253Z 2900/2924 27005KT CAVOK"
    },
    {
      "icao": "EGGP",
      "alert": "OK",
      "vis_m": 9999,
      "fzfg": false,
      "metar_trigger": false,
      "taf_trigger": false,
      "metar": "METAR EGGP 290350Z 24010KT 9999 FEW025 15/11 Q1019",
      "taf": "TAF EGGP 282258Z 2900/2924 23008KT 9999 SCT030"
    },
    {
      "icao": "EGGW",
      "alert": "OK",
      "vis_m": 9999,
      "fzfg": false,
      "metar_trigger": false,
      "taf_trigger": false,
      "metar": "METAR EGGW 290350Z AUTO 31006KT 9999 NCD 16/13 Q1020",
      "taf": "TAF EGGW 282257Z 2900/2924 27006KT CAVOK"
    },
    {
      "icao": "EGKK",
      "alert": "OK",
      "vis_m": 9999,
      "fzfg": false,
      "metar_trigger": false,
      "taf_trigger": false,
      "metar": "METAR EGKK 290350Z 31004KT CAVOK 18/13 Q1020",
      "taf": "TAF EGKK 282303Z 2900/3006 27003KT CAVOK"
    },
    {
      "icao": "EGNM",
      "alert": "OK",
      "vis_m": 9999,
      "fzfg": false,
      "metar_trigger": false,
      "taf_trigger": false,
      "metar": "METAR EGNM 290350Z 24006KT 9999 FEW018 13/11 Q1018",
      "taf": "TAF EGNM 282257Z 2900/2924 26010KT 9999 SCT040"
    },
    {
      "icao": "EGPD",
      "alert": "OK",
      "vis_m": 9999,
      "fzfg": false,
      "metar_trigger": false,
      "taf_trigger": false,
      "metar": "METAR EGPD 290350Z COR AUTO 22009KT 9999 NCD 15/11 Q1010 NOSIG",
      "taf": ""
    },
    {
      "icao": "EGPF",
      "alert": "OK",
      "vis_m": 9999,
      "fzfg": false,
      "metar_trigger": false,
      "taf_trigger": false,
      "metar": "METAR EGPF 290350Z AUTO 22015KT 9999 BKN042 13/10 Q1014",
      "taf": "TAF EGPF 282255Z 2900/2924 21014KT 9999 SCT020"
    },
    {
      "icao": "EHBK",
      "alert": "OK",
      "vis_m": 9999,
      "fzfg": false,
      "metar_trigger": false,
      "taf_trigger": false,
      "metar": "METAR EHBK 290355Z AUTO 17004KT 9999 NSC 16/11 Q1022 NOSIG",
      "taf": "TAF EHBK 282333Z 2900/3006 12005KT CAVOK"
    },
    {
      "icao": "EHEH",
      "alert": "OK",
      "vis_m": 9999,
      "fzfg": false,
      "metar_trigger": false,
      "taf_trigger": false,
      "metar": "METAR EHEH 290355Z AUTO 14004KT 110V170 9999 SCT230 OVC340 17/08 Q1022 BLU",
      "taf": "TAF EHEH 282324Z 2900/3006 15005KT CAVOK"
    },
    {
      "icao": "EKBI",
      "alert": "OK",
      "vis_m": 9999,
      "fzfg": false,
      "metar_trigger": false,
      "taf_trigger": false,
      "metar": "METAR EKBI 290420Z AUTO 13003KT 9999 NCD 07/07 Q1022",
      "taf": "TAF EKBI 290227Z 2903/3003 17006KT 9999 FEW040"
    },
    {
      "icao": "EKCH",
      "alert": "OK",
      "vis_m": 9999,
      "fzfg": false,
      "metar_trigger": false,
      "taf_trigger": false,
      "metar": "METAR EKCH 290420Z AUTO 16004KT 9999 NCD 13/11 Q1023 NOSIG",
      "taf": "TAF EKCH 290227Z 2903/3003 21004KT 9999 FEW040"
    },
    {
      "icao": "ENAL",
      "alert": "OK",
      "vis_m": 9999,
      "fzfg": false,
      "metar_trigger": false,
      "taf_trigger": false,
      "metar": "METAR ENAL 290350Z AUTO 10003KT 050V150 9999 BKN046/// OVC056/// 10/06 Q1015",
      "taf": "TAF ENAL 290200Z 2903/2912 12005KT 9999 SCT045"
    },
    {
      "icao": "ENBR",
      "alert": "OK",
      "vis_m": 9999,
      "fzfg": false,
      "metar_trigger": false,
      "taf_trigger": false,
      "metar": "METAR ENBR 290350Z 20002KT 9999 BKN050 09/06 Q1017 RMK WIND 1200FT 14019KT",
      "taf": "TAF ENBR 282300Z 2900/2924 14008KT CAVOK"
    },
    {
      "icao": "ENGM",
      "alert": "OK",
      "vis_m": 9999,
      "fzfg": false,
      "metar_trigger": false,
      "taf_trigger": false,
      "metar": "METAR ENGM 290350Z VRB01KT CAVOK 08/05 Q1019 NOSIG",
      "taf": "TAF ENGM 282300Z 2900/2924 VRB03KT CAVOK"
    },
    {
      "icao": "ENHD",
      "alert": "OK",
      "vis_m": 9999,
      "fzfg": false,
      "metar_trigger": false,
      "taf_trigger": false,
      "metar": "METAR ENHD 290350Z AUTO 13011KT 9999 NCD 10/08 Q1018",
      "taf": "TAF ENHD 290200Z 2903/2912 12012KT CAVOK"
    },
    {
      "icao": "ENTC",
      "alert": "OK",
      "vis_m": 9999,
      "fzfg": false,
      "metar_trigger": false,
      "taf_trigger": false,
      "metar": "METAR ENTC 290350Z 29009KT 9999 FEW019 OVC027 04/00 Q1013 RMK WIND 2600FT 32008KT",
      "taf": ""
    },
    {
      "icao": "ENTO",
      "alert": "OK",
      "vis_m": 9999,
      "fzfg": false,
      "metar_trigger": false,
      "taf_trigger": false,
      "metar": "METAR ENTO 290320Z AUTO 34002KT 9999 NCD 08/08 Q1019",
      "taf": "TAF ENTO 282300Z 2900/2924 34003KT CAVOK"
    },
    {
      "icao": "ENVA",
      "alert": "OK",
      "vis_m": 9999,
      "fzfg": false,
      "metar_trigger": false,
      "taf_trigger": false,
      "metar": "METAR ENVA 290350Z 10003KT 9999 -RA BKN053 08/07 Q1018 RMK WIND 670FT 15010KT",
      "taf": "TAF ENVA 282300Z 2900/2924 08008KT 9999 -RA FEW020 BKN040"
    },
    {
      "icao": "ENZV",
      "alert": "OK",
      "vis_m": 9999,
      "fzfg": false,
      "metar_trigger": false,
      "taf_trigger": false,
      "metar": "METAR ENZV 290350Z 14004KT CAVOK 08/04 Q1018",
      "taf": "TAF ENZV 282300Z 2900/2924 15009KT CAVOK"
    },
    {
      "icao": "EPGD",
      "alert": "OK",
      "vis_m": 9999,
      "fzfg": false,
      "metar_trigger": false,
      "taf_trigger": false,
      "metar": "METAR EPGD 290400Z 27004KT CAVOK 09/07 Q1021",
      "taf": "TAF EPGD 282330Z 2900/2924 VRB02KT CAVOK"
    },
    {
      "icao": "EPKK",
      "alert": "OK",
      "vis_m": 9999,
      "fzfg": false,
      "metar_trigger": false,
      "taf_trigger": false,
      "metar": "METAR EPKK 290400Z VRB02KT CAVOK 07/04 Q1024",
      "taf": "TAF EPKK 290230Z 2903/3003 VRB02KT CAVOK"
    },
    {
      "icao": "EPKT",
      "alert": "OK",
      "vis_m": 9999,
      "fzfg": false,
      "metar_trigger": false,
      "taf_trigger": false,
      "metar": "METAR EPKT 290400Z VRB01KT CAVOK 05/02 Q1024",
      "taf": "TAF EPKT 282330Z 2900/2924 VRB02KT CAVOK"
    },
    {
      "icao": "EPLB",
      "alert": "OK",
      "vis_m": 9999,
      "fzfg": false,
      "metar_trigger": false,
      "taf_trigger": false,
      "metar": "METAR EPLB 290400Z 29008KT CAVOK 08/02 Q1022",
      "taf": "TAF EPLB 282330Z 2900/2924 30005KT CAVOK"
    },
    {
      "icao": "EPMO",
      "alert": "OK",
      "vis_m": 9999,
      "fzfg": false,
      "metar_trigger": false,
      "taf_trigger": false,
      "metar": "METAR EPMO 290400Z 25004KT CAVOK 07/03 Q1023",
      "taf": "TAF EPMO 282330Z 2900/2924 29005KT CAVOK"
    },
    {
      "icao": "EPPO",
      "alert": "OK",
      "vis_m": 9999,
      "fzfg": false,
      "metar_trigger": false,
      "taf_trigger": false,
      "metar": "METAR EPPO 290400Z 26001KT CAVOK 09/05 Q1024",
      "taf": "TAF EPPO 282330Z 2900/2924 VRB02KT CAVOK"
    },
    {
      "icao": "EPRA",
      "alert": "OK",
      "vis_m": 9999,
      "fzfg": false,
      "metar_trigger": false,
      "taf_trigger": false,
      "metar": "METAR EPRA 290400Z 30004KT 270V330 CAVOK 09/01 Q1023",
      "taf": "TAF EPRA 290230Z 2903/2912 29006KT CAVOK"
    },
    {
      "icao": "EPRZ",
      "alert": "OK",
      "vis_m": 9999,
      "fzfg": false,
      "metar_trigger": false,
      "taf_trigger": false,
      "metar": "METAR EPRZ 290400Z 27008KT CAVOK 08/02 Q1023 WS R27",
      "taf": "TAF EPRZ 282330Z 2900/2924 26005KT CAVOK"
    },
    {
      "icao": "EPSC",
      "alert": "OK",
      "vis_m": 9999,
      "fzfg": false,
      "metar_trigger": false,
      "taf_trigger": false,
      "metar": "METAR EPSC 290400Z VRB01KT CAVOK 07/05 Q1024",
      "taf": "TAF EPSC 282330Z 2900/2924 VRB01KT CAVOK"
    },
    {
      "icao": "EPSY",
      "alert": "OK",
      "vis_m": 9999,
      "fzfg": false,
      "metar_trigger": false,
      "taf_trigger": false,
      "metar": "METAR EPSY 290400Z VRB03KT CAVOK 06/05 Q1021",
      "taf": "TAF EPSY 290230Z 2903/2912 22006KT CAVOK"
    },
    {
      "icao": "EPWA",
      "alert": "OK",
      "vis_m": 9999,
      "fzfg": false,
      "metar_trigger": false,
      "taf_trigger": false,
      "metar": "METAR EPWA 290400Z 27004KT CAVOK 08/03 Q1023 NOSIG",
      "taf": "TAF EPWA 290230Z 2903/3003 28004KT CAVOK"
    },
    {
      "icao": "EPWR",
      "alert": "OK",
      "vis_m": 9999,
      "fzfg": false,
      "metar_trigger": false,
      "taf_trigger": false,
      "metar": "METAR EPWR 290400Z 28001KT CAVOK 09/05 Q1024",
      "taf": "TAF EPWR 290230Z 2903/3003 VRB02KT CAVOK"
    },
    {
      "icao": "ESGG",
      "alert": "OK",
      "vis_m": 9999,
      "fzfg": false,
      "metar_trigger": false,
      "taf_trigger": false,
      "metar": "METAR ESGG 290350Z 21009KT CAVOK 09/07 Q1021",
      "taf": "TAF ESGG 290230Z 2903/3003 19010KT CAVOK"
    },
    {
      "icao": "ESKN",
      "alert": "OK",
      "vis_m": 9999,
      "fzfg": false,
      "metar_trigger": false,
      "taf_trigger": false,
      "metar": "METAR ESKN 290350Z 25005KT CAVOK 08/05 Q1019",
      "taf": "TAF ESKN 290230Z 2903/3003 28005KT CAVOK"
    },
    {
      "icao": "ESMS",
      "alert": "OK",
      "vis_m": 9999,
      "fzfg": false,
      "metar_trigger": false,
      "taf_trigger": false,
      "metar": "METAR ESMS 290350Z 08003KT CAVOK 06/06 Q1023",
      "taf": "TAF ESMS 290227Z 2903/3003 23004KT 9999 FEW040"
    },
    {
      "icao": "ESSA",
      "alert": "OK",
      "vis_m": 9999,
      "fzfg": false,
      "metar_trigger": false,
      "taf_trigger": false,
      "metar": "METAR ESSA 290350Z VRB03KT CAVOK 07/05 Q1019 NOSIG",
      "taf": "TAF ESSA 290230Z 2903/3003 32002KT CAVOK"
    },
    {
      "icao": "EYKA",
      "alert": "OK",
      "vis_m": 9999,
      "fzfg": false,
      "metar_trigger": false,
      "taf_trigger": false,
      "metar": "METAR EYKA 290420Z 31007KT 270V350 CAVOK 09/04 Q1018",
      "taf": "TAF EYKA 282300Z 2900/2924 29010KT 9000 NSC"
    },
    {
      "icao": "EYPA",
      "alert": "OK",
      "vis_m": 9999,
      "fzfg": false,
      "metar_trigger": false,
      "taf_trigger": false,
      "metar": "METAR EYPA 290420Z 24003KT 190V300 CAVOK 10/08 Q1019",
      "taf": "TAF EYPA 282300Z 2900/2924 VRB03KT 9000 NSC"
    },
    {
      "icao": "EYVI",
      "alert": "OK",
      "vis_m": 9999,
      "fzfg": false,
      "metar_trigger": false,
      "taf_trigger": false,
      "metar": "METAR EYVI 290420Z 32011KT CAVOK 08/03 Q1016 NOSIG",
      "taf": "TAF EYVI 282300Z 2900/2924 30010KT 9000 NSC"
    },
    {
      "icao": "GCFV",
      "alert": "OK",
      "vis_m": 9999,
      "fzfg": false,
      "metar_trigger": false,
      "taf_trigger": false,
      "metar": "METAR GCFV 290400Z AUTO 01011KT 9999 OVC027 20/13 Q1021",
      "taf": "TAF GCFV 290200Z 2903/3003 03013KT 9999 BKN020 TX24/2914Z TN18/2906Z"
    },
    {
      "icao": "GCLP",
      "alert": "OK",
      "vis_m": 9999,
      "fzfg": false,
      "metar_trigger": false,
      "taf_trigger": false,
      "metar": "METAR GCLP 290400Z 01017KT 9999 BKN027 20/14 Q1021 NOSIG",
      "taf": "TAF GCLP 290200Z 2903/3003 01022KT 9999 BKN025 TX24/2914Z TN19/2906Z"
    },
    {
      "icao": "GCTS",
      "alert": "OK",
      "vis_m": 9999,
      "fzfg": false,
      "metar_trigger": false,
      "taf_trigger": false,
      "metar": "METAR GCTS 290400Z 05007KT 9999 FEW025 19/14 Q1021 NOSIG",
      "taf": "TAF GCTS 290200Z 2903/3003 04007KT 9999 FEW025 TX25/2914Z TN18/2906Z"
    },
    {
      "icao": "GMAD",
      "alert": "OK",
      "vis_m": 8000,
      "fzfg": false,
      "metar_trigger": false,
      "taf_trigger": false,
      "metar": "METAR GMAD 290400Z 00000KT 8000 NSC 15/14 Q1018 NOSIG",
      "taf": "TAF GMAD 282300Z 2900/3006 12008KT 8000 NSC"
    },
    {
      "icao": "GMMN",
      "alert": "OK",
      "vis_m": 9999,
      "fzfg": false,
      "metar_trigger": false,
      "taf_trigger": false,
      "metar": "METAR GMMN 290400Z 14005KT CAVOK 14/12 Q1019 NOSIG",
      "taf": "TAF GMMN 282300Z 2900/3006 24004KT CAVOK"
    },
    {
      "icao": "GMMX",
      "alert": "OK",
      "vis_m": 9999,
      "fzfg": false,
      "metar_trigger": false,
      "taf_trigger": false,
      "metar": "METAR GMMX 290400Z 25007KT 9999 FEW026 16/13 Q1019 NOSIG",
      "taf": "TAF GMMX 282300Z 2900/3006 28006KT 8000 FEW026"
    },
    {
      "icao": "HEGN",
      "alert": "OK",
      "vis_m": 9999,
      "fzfg": false,
      "metar_trigger": false,
      "taf_trigger": false,
      "metar": "METAR HEGN 290400Z 35010KT CAVOK 25/05 Q1013 NOSIG",
      "taf": "TAF HEGN 282300Z 2900/3006 29006G18KT CAVOK"
    },
    {
      "icao": "HEMA",
      "alert": "OK",
      "vis_m": 9999,
      "fzfg": false,
      "metar_trigger": false,
      "taf_trigger": false,
      "metar": "METAR HEMA 290400Z 28011KT CAVOK 26/07 Q1012 NOSIG",
      "taf": "TAF HEMA 282300Z 2900/3006 28006G18KT CAVOK"
    },
    {
      "icao": "HESH",
      "alert": "OK",
      "vis_m": 9999,
      "fzfg": false,
      "metar_trigger": false,
      "taf_trigger": false,
      "metar": "METAR HESH 290400Z 29005KT CAVOK 27/11 Q1012 NOSIG",
      "taf": "TAF HESH 282300Z 2900/3006 32011KT CAVOK"
    },
    {
      "icao": "HESX",
      "alert": "OK",
      "vis_m": 9999,
      "fzfg": false,
      "metar_trigger": false,
      "taf_trigger": false,
      "metar": "METAR HESX 290400Z 04004KT CAVOK 19/14 Q1015 NOSIG",
      "taf": "TAF HESX 282300Z 2900/3006 35005KT CAVOK"
    },
    {
      "icao": "LATI",
      "alert": "OK",
      "vis_m": 9999,
      "fzfg": false,
      "metar_trigger": false,
      "taf_trigger": false,
      "metar": "METAR LATI 290420Z VRB02KT CAVOK 18/10 Q1016 NOSIG",
      "taf": "TAF LATI 282300Z 2900/2924 VRB05KT CAVOK TX33/2912Z TN18/2904Z"
    },
    {
      "icao": "LBPD",
      "alert": "OK",
      "vis_m": 9999,
      "fzfg": false,
      "metar_trigger": false,
      "taf_trigger": false,
      "metar": "METAR LBPD 290400Z AUTO 11004KT 080V140 9999 BKN069/// 13/13 Q1019 NOSIG",
      "taf": "TAF LBPD 282300Z 2900/2924 VRB04KT 9999 SCT030"
    },
    {
      "icao": "LBSF",
      "alert": "OK",
      "vis_m": 9999,
      "fzfg": false,
      "metar_trigger": false,
      "taf_trigger": false,
      "metar": "METAR LBSF 290400Z 31003KT 240V010 CAVOK 12/05 Q1021 NOSIG",
      "taf": "TAF LBSF 282300Z 2900/2924 29006KT CAVOK"
    },
    {
      "icao": "LBWN",
      "alert": "OK",
      "vis_m": 9999,
      "fzfg": false,
      "metar_trigger": false,
      "taf_trigger": false,
      "metar": "METAR LBWN 290400Z AUTO 31005KT 270V340 9999 NSC 13/13 Q1018 TEMPO 5000 RA",
      "taf": "TAF LBWN 282300Z 2900/2924 01010KT 9999 SCT040"
    },
    {
      "icao": "LCLK",
      "alert": "OK",
      "vis_m": 9999,
      "fzfg": false,
      "metar_trigger": false,
      "taf_trigger": false,
      "metar": "METAR LCLK 290400Z 20005KT 9999 FEW030 21/16 Q1010 NOSIG",
      "taf": "TAF LCLK 282330Z 2900/3000 23009KT 9999 FEW025"
    },
    {
      "icao": "LCPH",
      "alert": "OK",
      "vis_m": 9999,
      "fzfg": false,
      "metar_trigger": false,
      "taf_trigger": false,
      "metar": "METAR LCPH 290400Z 27008KT 250V320 9999 SCT009 SCT018 BKN025 21/19 Q1011 NOSIG",
      "taf": "TAF LCPH 282330Z 2900/3000 34009KT 9999 SCT012 SCT020"
    },
    {
      "icao": "LEAL",
      "alert": "OK",
      "vis_m": 9999,
      "fzfg": false,
      "metar_trigger": false,
      "taf_trigger": false,
      "metar": "METAR LEAL 290400Z 26006KT CAVOK 18/09 Q1019 NOSIG",
      "taf": "TAF LEAL 282300Z 2900/2924 27004KT CAVOK TX31/2912Z TN18/2906Z"
    },
    {
      "icao": "LEBB",
      "alert": "OK",
      "vis_m": 9000,
      "fzfg": false,
      "metar_trigger": false,
      "taf_trigger": false,
      "metar": "METAR LEBB 290400Z 35005KT 320V020 9000 OVC008 19/17 Q1021 NOSIG",
      "taf": "TAF LEBB 282300Z 2900/2924 31009KT 9999 FEW010 TX24/2913Z TN17/2901Z"
    },
    {
      "icao": "LEBL",
      "alert": "OK",
      "vis_m": 9999,
      "fzfg": false,
      "metar_trigger": false,
      "taf_trigger": false,
      "metar": "METAR LEBL 290400Z 33005KT 300V360 9999 FEW025 22/12 Q1018 NOSIG",
      "taf": "TAF LEBL 282300Z 2900/2924 VRB04KT CAVOK TX29/2912Z TN21/2906Z"
    },
    {
      "icao": "LECH",
      "alert": "OK",
      "vis_m": 9999,
      "fzfg": false,
      "metar_trigger": false,
      "taf_trigger": false,
      "metar": "METAR LECH 290400Z AUTO 19005KT CAVOK 19/09 Q1019",
      "taf": "TAF LECH 282300Z 2900/2924 VRB03KT CAVOK TX35/2913Z TN16/2906Z"
    },
    {
      "icao": "LEMD",
      "alert": "OK",
      "vis_m": 9999,
      "fzfg": false,
      "metar_trigger": false,
      "taf_trigger": false,
      "metar": "METAR LEMD 290400Z 35003KT 330V030 CAVOK 16/07 Q1021 NOSIG",
      "taf": "TAF LEMD 282300Z 2900/3006 VRB04KT CAVOK TX36/2916Z TN16/2905Z"
    },
    {
      "icao": "LEMG",
      "alert": "OK",
      "vis_m": 9999,
      "fzfg": false,
      "metar_trigger": false,
      "taf_trigger": false,
      "metar": "METAR LEMG 290400Z 30007KT CAVOK 14/07 Q1020 NOSIG",
      "taf": "TAF LEMG 282300Z 2900/2924 29005KT CAVOK TX28/2914Z TN17/2907Z"
    },
    {
      "icao": "LEVC",
      "alert": "OK",
      "vis_m": 9999,
      "fzfg": false,
      "metar_trigger": false,
      "taf_trigger": false,
      "metar": "METAR LEVC 290400Z 26005KT CAVOK 17/07 Q1018 NOSIG",
      "taf": "TAF LEVC 282300Z 2900/2924 27004KT CAVOK TX36/2912Z TN17/2906Z"
    },
    {
      "icao": "LEXJ",
      "alert": "OK",
      "vis_m": 9000,
      "fzfg": false,
      "metar_trigger": false,
      "taf_trigger": false,
      "metar": "METAR LEXJ 290400Z 27007KT 240V300 9000 OVC012 18/15 Q1022",
      "taf": "TAF LEXJ 290200Z 2903/3003 28009KT 8000 SCT015 BKN025 TX23/2913Z TN17/2905Z"
    },
    {
      "icao": "LEZG",
      "alert": "OK",
      "vis_m": 9999,
      "fzfg": false,
      "metar_trigger": false,
      "taf_trigger": false,
      "metar": "METAR LEZG 290400Z 04003KT CAVOK 20/13 Q1019 NOSIG",
      "taf": "TAF LEZG 282300Z 2900/2924 28006KT CAVOK TX38/2915Z TN21/2906Z"
    },
    {
      "icao": "LEZL",
      "alert": "OK",
      "vis_m": 9999,
      "fzfg": false,
      "metar_trigger": false,
      "taf_trigger": false,
      "metar": "METAR LEZL 290400Z 11004KT CAVOK 17/15 Q1019 NOSIG",
      "taf": "TAF LEZL 290200Z 2903/3003 23007KT CAVOK TX38/2915Z TN17/2907Z"
    },
    {
      "icao": "LFBD",
      "alert": "OK",
      "vis_m": 9999,
      "fzfg": false,
      "metar_trigger": false,
      "taf_trigger": false,
      "metar": "METAR LFBD 290400Z AUTO 11002KT CAVOK 19/15 Q1019 NOSIG",
      "taf": "TAF LFBD 282300Z 2900/3006 04005KT CAVOK TX34/2914Z TN18/3005Z"
    },
    {
      "icao": "LFLL",
      "alert": "OK",
      "vis_m": 9999,
      "fzfg": false,
      "metar_trigger": false,
      "taf_trigger": false,
      "metar": "METAR LFLL 290400Z 01002KT CAVOK 17/13 Q1020 NOSIG",
      "taf": "TAF LFLL 282300Z 2900/3006 VRB04KT CAVOK"
    },
    {
      "icao": "LFLS",
      "alert": "OK",
      "vis_m": 9999,
      "fzfg": false,
      "metar_trigger": false,
      "taf_trigger": false,
      "metar": "METAR LFLS 290400Z AUTO VRB01KT CAVOK 12/11 Q1021 NOSIG",
      "taf": "TAF LFLS 290200Z 2903/3003 VRB04KT CAVOK"
    },
    {
      "icao": "LFMN",
      "alert": "OK",
      "vis_m": 9999,
      "fzfg": false,
      "metar_trigger": false,
      "taf_trigger": false,
      "metar": "METAR LFMN 290400Z 34008KT 9999 FEW010 SCT100 22/13 Q1018 NOSIG",
      "taf": "TAF LFMN 290200Z 2903/3009 09005KT CAVOK"
    },
    {
      "icao": "LFOB",
      "alert": "OK",
      "vis_m": 9999,
      "fzfg": false,
      "metar_trigger": false,
      "taf_trigger": false,
      "metar": "METAR LFOB 290400Z AUTO 12001KT CAVOK 15/15 Q1021 NOSIG",
      "taf": "TAF LFOB 282300Z 2900/2924 VRB03KT CAVOK"
    },
    {
      "icao": "LFPO",
      "alert": "OK",
      "vis_m": 9999,
      "fzfg": false,
      "metar_trigger": false,
      "taf_trigger": false,
      "metar": "METAR LFPO 290400Z AUTO 00000KT CAVOK 17/15 Q1022 NOSIG",
      "taf": "TAF LFPO 282300Z 2900/3006 15004KT CAVOK"
    },
    {
      "icao": "LFSB",
      "alert": "OK",
      "vis_m": 9999,
      "fzfg": false,
      "metar_trigger": false,
      "taf_trigger": false,
      "metar": "METAR LFSB 290400Z AUTO 29001KT CAVOK 12/10 Q1024 NOSIG",
      "taf": "TAF LFSB 282317Z 2900/2924 VRB03KT CAVOK"
    },
    {
      "icao": "LGAV",
      "alert": "OK",
      "vis_m": 9999,
      "fzfg": false,
      "metar_trigger": false,
      "taf_trigger": false,
      "metar": "METAR LGAV 290350Z VRB01KT 9999 SCT025 23/13 Q1014 NOSIG",
      "taf": "TAF LGAV 282300Z 2900/2924 VRB05KT 9999 FEW025"
    },
    {
      "icao": "LGTS",
      "alert": "OK",
      "vis_m": 9999,
      "fzfg": false,
      "metar_trigger": false,
      "taf_trigger": false,
      "metar": "METAR LGTS 290350Z 34014KT 9999 FEW025 22/07 Q1017 NOSIG",
      "taf": "TAF LGTS 282300Z 2900/2924 34015KT 9999 FEW025"
    },
    {
      "icao": "LHBP",
      "alert": "OK",
      "vis_m": 9999,
      "fzfg": false,
      "metar_trigger": false,
      "taf_trigger": false,
      "metar": "METAR LHBP 290400Z VRB02KT CAVOK 08/04 Q1024 NOSIG",
      "taf": "TAF LHBP 282315Z 2900/2924 VRB03KT CAVOK"
    },
    {
      "icao": "LHDC",
      "alert": "OK",
      "vis_m": 9999,
      "fzfg": false,
      "metar_trigger": false,
      "taf_trigger": false,
      "metar": "METAR LHDC 290345Z AUTO 32003KT 200V360 CAVOK 11/03 Q1023 NOSIG",
      "taf": "TAF LHDC 290215Z 2903/2912 36004KT CAVOK"
    },
    {
      "icao": "LIBD",
      "alert": "OK",
      "vis_m": 9999,
      "fzfg": false,
      "metar_trigger": false,
      "taf_trigger": false,
      "metar": "METAR LIBD 290350Z 30005KT CAVOK 19/14 Q1018",
      "taf": "TAF LIBD 282300Z 2900/2924 VRB04KT CAVOK"
    },
    {
      "icao": "LIBG",
      "alert": "OK",
      "vis_m": 9999,
      "fzfg": false,
      "metar_trigger": false,
      "taf_trigger": false,
      "metar": "METAR LIBG 290350Z AUTO 01011KT 9999 FEW240/// 21/13 Q1016",
      "taf": "TAF LIBG 282300Z 2900/2924 35012KT 9999 FEW040"
    },
    {
      "icao": "LIBP",
      "alert": "OK",
      "vis_m": 9999,
      "fzfg": false,
      "metar_trigger": false,
      "taf_trigger": false,
      "metar": "METAR LIBP 290350Z AUTO 23003KT 200V260 9999 NCD 16/15 Q1020",
      "taf": "TAF LIBP 282300Z 2900/2924 VRB04KT 9999 FEW040"
    },
    {
      "icao": "LIBR",
      "alert": "OK",
      "vis_m": 9999,
      "fzfg": false,
      "metar_trigger": false,
      "taf_trigger": false,
      "metar": "METAR LIBR 290350Z 33012KT CAVOK 21/18 Q1015",
      "taf": "TAF LIBR 282300Z 2900/2924 33016KT CAVOK"
    },
    {
      "icao": "LICA",
      "alert": "OK",
      "vis_m": 9999,
      "fzfg": false,
      "metar_trigger": false,
      "taf_trigger": false,
      "metar": "METAR LICA 290350Z AUTO VRB01KT 9999 NCD 18/17 Q1017",
      "taf": "TAF LICA 282300Z 2900/2924 VRB05KT 9999 SCT020"
    },
    {
      "icao": "LICC",
      "alert": "OK",
      "vis_m": 9999,
      "fzfg": false,
      "metar_trigger": false,
      "taf_trigger": false,
      "metar": "METAR LICC 290350Z 25004KT 9999 FEW120 17/12 Q1017",
      "taf": "TAF LICC 282300Z 2900/2924 VRB05KT 9999 SCT060"
    },
    {
      "icao": "LICJ",
      "alert": "OK",
      "vis_m": 9999,
      "fzfg": false,
      "metar_trigger": false,
      "taf_trigger": false,
      "metar": "METAR LICJ 290350Z 21003KT CAVOK 20/18 Q1017",
      "taf": "TAF LICJ 282300Z 2900/2924 VRB05KT CAVOK"
    },
    {
      "icao": "LIMC",
      "alert": "OK",
      "vis_m": 9999,
      "fzfg": false,
      "metar_trigger": false,
      "taf_trigger": false,
      "metar": "METAR LIMC 290350Z 02003KT 290V060 CAVOK 18/15 Q1020 NOSIG",
      "taf": "TAF LIMC 282300Z 2900/3006 09010KT CAVOK"
    },
    {
      "icao": "LIME",
      "alert": "OK",
      "vis_m": 9999,
      "fzfg": false,
      "metar_trigger": false,
      "taf_trigger": false,
      "metar": "METAR LIME 290350Z 11009KT 9999 FEW110 21/16 Q1022 NOSIG",
      "taf": "TAF LIME 282300Z 2900/2924 VRB05KT 9999 FEW090"
    },
    {
      "icao": "LIMF",
      "alert": "OK",
      "vis_m": 9999,
      "fzfg": false,
      "metar_trigger": false,
      "taf_trigger": false,
      "metar": "METAR LIMF 290350Z 36005KT CAVOK 18/13 Q1020",
      "taf": "TAF LIMF 282300Z 2900/2924 VRB05KT CAVOK"
    },
    {
      "icao": "LIMJ",
      "alert": "OK",
      "vis_m": 9999,
      "fzfg": false,
      "metar_trigger": false,
      "taf_trigger": false,
      "metar": "METAR LIMJ 290350Z AUTO 08005KT 9999 BKN240/// 19/17 Q1019",
      "taf": "TAF LIMJ 282300Z 2900/2924 VRB05KT 9999 FEW020"
    },
    {
      "icao": "LIPE",
      "alert": "OK",
      "vis_m": 9999,
      "fzfg": false,
      "metar_trigger": false,
      "taf_trigger": false,
      "metar": "METAR LIPE 290350Z 02005KT 330V060 9999 FEW070CB 21/15 Q1021",
      "taf": ""
    },
    {
      "icao": "LIPH",
      "alert": "OK",
      "vis_m": 9999,
      "fzfg": false,
      "metar_trigger": false,
      "taf_trigger": false,
      "metar": "METAR LIPH 290350Z AUTO 35003KT 280V010 9999 NCD 18/18 Q1021",
      "taf": "TAF LIPH 282300Z 2900/2924 VRB05KT 9999 SCT030"
    },
    {
      "icao": "LIPQ",
      "alert": "OK",
      "vis_m": 9999,
      "fzfg": false,
      "metar_trigger": false,
      "taf_trigger": false,
      "metar": "METAR LIPQ 290350Z AUTO 12006KT 9999 BKN070/// 20/11 Q1021",
      "taf": "TAF LIPQ 282300Z 2900/2924 VRB04KT 9999 SCT030"
    },
    {
      "icao": "LIPR",
      "alert": "OK",
      "vis_m": 9999,
      "fzfg": false,
      "metar_trigger": false,
      "taf_trigger": false,
      "metar": "METAR LIPR 290350Z AUTO 12003KT 090V220 9999 BKN100/// BKN130/// 22/16 Q1020",
      "taf": "TAF LIPR 282300Z 2900/2924 VRB04KT 9999 SCT040"
    },
    {
      "icao": "LIPX",
      "alert": "OK",
      "vis_m": 9999,
      "fzfg": false,
      "metar_trigger": false,
      "taf_trigger": false,
      "metar": "METAR LIPX 290350Z AUTO 24003KT 9999 FEW120/// 18/16 Q1021",
      "taf": "TAF LIPX 282300Z 2900/2924 VRB05KT CAVOK"
    },
    {
      "icao": "LIPY",
      "alert": "OK",
      "vis_m": 9999,
      "fzfg": false,
      "metar_trigger": false,
      "taf_trigger": false,
      "metar": "METAR LIPY 290350Z AUTO 22005KT 9999 BKN120/// 17/15 Q1020",
      "taf": "TAF LIPY 282300Z 2900/2924 VRB04KT 9999 SCT030"
    },
    {
      "icao": "LIPZ",
      "alert": "OK",
      "vis_m": 9999,
      "fzfg": false,
      "metar_trigger": false,
      "taf_trigger": false,
      "metar": "METAR LIPZ 290350Z 01006KT 9999 FEW060 20/18 Q1021 NOSIG",
      "taf": "TAF LIPZ 282300Z 2900/3006 VRB05KT 9999 SCT030"
    },
    {
      "icao": "LIRF",
      "alert": "OK",
      "vis_m": 9999,
      "fzfg": false,
      "metar_trigger": false,
      "taf_trigger": false,
      "metar": "METAR LIRF 290350Z 12003KT 080V160 CAVOK 20/17 Q1018 NOSIG",
      "taf": ""
    },
    {
      "icao": "LIRN",
      "alert": "OK",
      "vis_m": 3000,
      "fzfg": false,
      "metar_trigger": false,
      "taf_trigger": false,
      "metar": "METAR LIRN 290350Z VRB02KT 3000 BR NSC 20/20 Q1018 NOSIG",
      "taf": "TAF LIRN 282300Z 2900/2924 VRB05KT 9999 FEW010"
    },
    {
      "icao": "LIRP",
      "alert": "OK",
      "vis_m": 9999,
      "fzfg": false,
      "metar_trigger": false,
      "taf_trigger": false,
      "metar": "METAR LIRP 290345Z 17004KT 9999 FEW025 SCT070 18/17 Q1019 NOSIG",
      "taf": "TAF LIRP 282300Z 2900/2924 30008KT 9999 FEW040 SCT080"
    },
    {
      "icao": "LIRZ",
      "alert": "OK",
      "vis_m": 9999,
      "fzfg": false,
      "metar_trigger": false,
      "taf_trigger": false,
      "metar": "METAR LIRZ 290350Z AUTO 33003KT 270V030 9999 SCT150/// 15/14 Q1019",
      "taf": "TAF LIRZ 282300Z 2900/2924 VRB05KT 9999 FEW050"
    },
    {
      "icao": "LJLJ",
      "alert": "OK",
      "vis_m": 9999,
      "fzfg": false,
      "metar_trigger": false,
      "taf_trigger": false,
      "metar": "METAR LJLJ 290400Z VRB01KT 9999 MIFG FEW046 12/11 Q1025 NOSIG",
      "taf": "TAF LJLJ 282300Z 2900/3000 12005KT 9999 FEW050"
    },
    {
      "icao": "LKMT",
      "alert": "OK",
      "vis_m": 9999,
      "fzfg": false,
      "metar_trigger": false,
      "taf_trigger": false,
      "metar": "METAR LKMT 290400Z 20002KT CAVOK 07/04 Q1025 NOSIG",
      "taf": "TAF LKMT 282300Z 2900/2924 20005KT CAVOK"
    },
    {
      "icao": "LKPR",
      "alert": "OK",
      "vis_m": 9999,
      "fzfg": false,
      "metar_trigger": false,
      "taf_trigger": false,
      "metar": "METAR LKPR 290400Z 25006KT CAVOK 08/03 Q1025 NOSIG",
      "taf": "TAF LKPR 290200Z 2903/3009 35004KT CAVOK"
    },
    {
      "icao": "LLBG",
      "alert": "OK",
      "vis_m": 9999,
      "fzfg": false,
      "metar_trigger": false,
      "taf_trigger": false,
      "metar": "METAR LLBG 290420Z 16007KT 9999 BKN016 24/14 Q1014 NOSIG",
      "taf": "TAF LLBG 282315Z 2900/2924 VRB04KT 9999 SCT018 TX27/2911Z TN18/2903Z"
    },
    {
      "icao": "LMML",
      "alert": "OK",
      "vis_m": 9999,
      "fzfg": false,
      "metar_trigger": false,
      "taf_trigger": false,
      "metar": "METAR LMML 290415Z VRB02KT CAVOK 20/17 Q1017 NOSIG",
      "taf": "TAF LMML 281700Z 2818/2918 28008KT CAVOK"
    },
    {
      "icao": "LOWW",
      "alert": "OK",
      "vis_m": 9999,
      "fzfg": false,
      "metar_trigger": false,
      "taf_trigger": false,
      "metar": "METAR LOWW 290350Z 18004KT CAVOK 08/05 Q1025 NOSIG",
      "taf": "TAF LOWW 290215Z 2903/3009 VRB02KT CAVOK TX26/2914Z TN10/2903Z"
    },
    {
      "icao": "LPFR",
      "alert": "OK",
      "vis_m": 9999,
      "fzfg": false,
      "metar_trigger": false,
      "taf_trigger": false,
      "metar": "METAR LPFR 290400Z 17003KT 9999 BKN005 19/18 Q1019",
      "taf": "TAF LPFR 282300Z 2900/2924 VRB02KT 9999 FEW012"
    },
    {
      "icao": "LPMA",
      "alert": "OK",
      "vis_m": 9999,
      "fzfg": false,
      "metar_trigger": false,
      "taf_trigger": false,
      "metar": "METAR LPMA 290400Z 03008KT 9999 SCT015 19/16 Q1024",
      "taf": "TAF LPMA 282300Z 2900/2924 02008KT 9999 SCT015 SCT030"
    },
    {
      "icao": "LPPR",
      "alert": "OK",
      "vis_m": 9999,
      "fzfg": false,
      "metar_trigger": false,
      "taf_trigger": false,
      "metar": "METAR LPPR 290400Z 12003KT 9999 FEW010 SCT012 17/14 Q1020",
      "taf": ""
    },
    {
      "icao": "LPPS",
      "alert": "OK",
      "vis_m": 9999,
      "fzfg": false,
      "metar_trigger": false,
      "taf_trigger": false,
      "metar": "METAR LPPS 290400Z 01009KT 9999 SCT014 18/15 Q1024",
      "taf": "TAF LPPS 282300Z 2900/3006 01008KT 9999 FEW015 BKN030"
    },
    {
      "icao": "LPPT",
      "alert": "OK",
      "vis_m": 9999,
      "fzfg": false,
      "metar_trigger": false,
      "taf_trigger": false,
      "metar": "METAR LPPT 290400Z 33007KT 280V360 CAVOK 16/14 Q1020",
      "taf": "TAF LPPT 282300Z 2900/3006 33007KT CAVOK"
    },
    {
      "icao": "LQBK",
      "alert": "OK",
      "vis_m": 9999,
      "fzfg": false,
      "metar_trigger": false,
      "taf_trigger": false,
      "metar": "METAR LQBK 290400Z 16001KT CAVOK 08/06 Q1024 NOSIG",
      "taf": "TAF LQBK 282300Z 2900/2924 04005KT CAVOK TX25/2914Z TN09/2904Z"
    },
    {
      "icao": "LQSA",
      "alert": "OK",
      "vis_m": 9999,
      "fzfg": false,
      "metar_trigger": false,
      "taf_trigger": false,
      "metar": "METAR LQSA 290400Z 13003KT CAVOK 07/06 Q1024 NOSIG",
      "taf": "TAF LQSA 282300Z 2900/2924 30005KT CAVOK TX24/2914Z TN10/2904Z"
    },
    {
      "icao": "LQTZ",
      "alert": "OK",
      "vis_m": 9999,
      "fzfg": false,
      "metar_trigger": false,
      "taf_trigger": false,
      "metar": "METAR LQTZ 290400Z 08003KT CAVOK 06/06 Q1024",
      "taf": "TAF LQTZ 282300Z 2900/2924 28005KT CAVOK TX26/2913Z TN07/2904Z"
    },
    {
      "icao": "LRBC",
      "alert": "OK",
      "vis_m": 9999,
      "fzfg": false,
      "metar_trigger": false,
      "taf_trigger": false,
      "metar": "METAR LRBC 290400Z VRB02KT CAVOK 12/07 Q1019",
      "taf": "TAF LRBC 290200Z 2903/2912 VRB04KT CAVOK"
    },
    {
      "icao": "LRBS",
      "alert": "OK",
      "vis_m": 9999,
      "fzfg": false,
      "metar_trigger": false,
      "taf_trigger": false,
      "metar": "METAR LRBS 290400Z 31006KT CAVOK 12/07 Q1020 NOSIG",
      "taf": "TAF LRBS 282300Z 2900/2924 09006KT CAVOK"
    },
    {
      "icao": "LRBV",
      "alert": "OK",
      "vis_m": 9999,
      "fzfg": false,
      "metar_trigger": false,
      "taf_trigger": false,
      "metar": "METAR LRBV 290400Z 31004KT 260V360 9999 FEW074 10/06 Q1021",
      "taf": "TAF LRBV 290200Z 2903/2912 VRB04KT 9999 BKN045"
    },
    {
      "icao": "LRCL",
      "alert": "OK",
      "vis_m": 9999,
      "fzfg": false,
      "metar_trigger": false,
      "taf_trigger": false,
      "metar": "METAR LRCL 290400Z 28003KT 210V010 CAVOK 10/03 Q1022",
      "taf": "TAF LRCL 290200Z 2903/2912 32010KT CAVOK"
    },
    {
      "icao": "LRCV",
      "alert": "OK",
      "vis_m": 9999,
      "fzfg": false,
      "metar_trigger": false,
      "taf_trigger": false,
      "metar": "METAR LRCV 290400Z VRB01KT CAVOK 12/11 Q1021",
      "taf": "TAF LRCV 290200Z 2903/2912 VRB04KT CAVOK"
    },
    {
      "icao": "LRIA",
      "alert": "OK",
      "vis_m": 9999,
      "fzfg": false,
      "metar_trigger": false,
      "taf_trigger": false,
      "metar": "METAR LRIA 290400Z 24006KT CAVOK 10/05 Q1018",
      "taf": "TAF LRIA 290200Z 2903/2912 31008KT CAVOK"
    },
    {
      "icao": "LROP",
      "alert": "OK",
      "vis_m": 9999,
      "fzfg": false,
      "metar_trigger": false,
      "taf_trigger": false,
      "metar": "METAR LROP 290400Z 29006KT CAVOK 12/09 Q1020 NOSIG",
      "taf": "TAF LROP 282300Z 2900/2924 09006KT CAVOK"
    },
    {
      "icao": "LRSB",
      "alert": "OK",
      "vis_m": 9999,
      "fzfg": false,
      "metar_trigger": false,
      "taf_trigger": false,
      "metar": "METAR LRSB 290400Z 27007KT CAVOK 11/03 Q1022",
      "taf": "TAF LRSB 282300Z 2900/2924 31010KT CAVOK"
    },
    {
      "icao": "LRSM",
      "alert": "OK",
      "vis_m": 9999,
      "fzfg": false,
      "metar_trigger": false,
      "taf_trigger": false,
      "metar": "METAR LRSM 290400Z 24003KT CAVOK 08/04 Q1023",
      "taf": "TAF LRSM 290200Z 2903/2912 VRB04KT CAVOK"
    },
    {
      "icao": "LRSV",
      "alert": "OK",
      "vis_m": 9999,
      "fzfg": false,
      "metar_trigger": false,
      "taf_trigger": false,
      "metar": "METAR LRSV 290400Z 29014KT CAVOK 10/02 Q1019",
      "taf": "TAF LRSV 290200Z 2903/2912 30012KT CAVOK"
    },
    {
      "icao": "LRTM",
      "alert": "OK",
      "vis_m": 9999,
      "fzfg": false,
      "metar_trigger": false,
      "taf_trigger": false,
      "metar": "METAR LRTM 290400Z 25002KT CAVOK 09/05 Q1022",
      "taf": "TAF LRTM 290200Z 2903/2912 VRB04KT CAVOK"
    },
    {
      "icao": "LRTR",
      "alert": "OK",
      "vis_m": 9999,
      "fzfg": false,
      "metar_trigger": false,
      "taf_trigger": false,
      "metar": "METAR LRTR 290400Z 06006KT 020V100 CAVOK 12/03 Q1022",
      "taf": "TAF LRTR 282300Z 2900/2924 02008KT CAVOK"
    },
    {
      "icao": "LTAC",
      "alert": "OK",
      "vis_m": 9999,
      "fzfg": false,
      "metar_trigger": false,
      "taf_trigger": false,
      "metar": "METAR LTAC 290350Z VRB01KT 9999 SCT035 BKN090 12/11 Q1013 NOSIG RMK RWY21C VRB02KT RWY03L 00000KT RWY21R 00000KT RWY03R 00000KT RWY21L VRB01KT",
      "taf": "TAF LTAC 282240Z 2900/2924 VRB02KT 9999 SCT040 SCT100"
    },
    {
      "icao": "LTFM",
      "alert": "OK",
      "vis_m": 9999,
      "fzfg": false,
      "metar_trigger": false,
      "taf_trigger": false,
      "metar": "METAR LTFM 290350Z 03012KT 9999 BKN035 BKN080 17/12 Q1017 NOSIG RMK RWY17L 02012KT RWY34L 01012KT RWY16R 02010KT RWY36 02013KT RWY18 03010KT",
      "taf": "TAF LTFM 282240Z 2900/3006 03014KT 9999 SCT012 BKN028 BKN080"
    },
    {
      "icao": "LUKK",
      "alert": "OK",
      "vis_m": 9999,
      "fzfg": false,
      "metar_trigger": false,
      "taf_trigger": false,
      "metar": "METAR LUKK 290400Z 36004KT 320V110 CAVOK 12/03 Q1017 NOSIG",
      "taf": "TAF LUKK 282309Z 2900/2924 31008KT CAVOK"
    },
    {
      "icao": "LWOH",
      "alert": "OK",
      "vis_m": null,
      "fzfg": false,
      "metar_trigger": false,
      "taf_trigger": false,
      "metar": "",
      "taf": "TAF LWOH 290230Z 2903/3003 32007KT CAVOK"
    },
    {
      "icao": "LWSK",
      "alert": "OK",
      "vis_m": 9999,
      "fzfg": false,
      "metar_trigger": false,
      "taf_trigger": false,
      "metar": "METAR LWSK 290420Z VRB02KT CAVOK 13/08 Q1021 NOSIG",
      "taf": "TAF LWSK 290230Z 2903/3003 03008KT CAVOK"
    },
    {
      "icao": "LYBE",
      "alert": "OK",
      "vis_m": 9999,
      "fzfg": false,
      "metar_trigger": false,
      "taf_trigger": false,
      "metar": "METAR LYBE 290400Z 28003KT 240V340 CAVOK 09/05 Q1022 NOSIG",
      "taf": "TAF LYBE 282300Z 2900/2924 33008KT CAVOK TX26/2913Z TN10/2904Z"
    },
    {
      "icao": "LYNI",
      "alert": "OK",
      "vis_m": 9999,
      "fzfg": false,
      "metar_trigger": false,
      "taf_trigger": false,
      "metar": "METAR LYNI 290400Z VRB01KT CAVOK 11/06 Q1021 NOSIG",
      "taf": "TAF LYNI 282300Z 2900/2924 02005KT CAVOK TX26/2914Z TN09/2904Z"
    },
    {
      "icao": "LYPG",
      "alert": "OK",
      "vis_m": 9999,
      "fzfg": false,
      "metar_trigger": false,
      "taf_trigger": false,
      "metar": "METAR LYPG 290400Z 35015KT CAVOK 21/03 Q1018 NOSIG",
      "taf": "TAF LYPG 282300Z 2900/2924 36014KT CAVOK TX31/2912Z TN21/2903Z"
    },
    {
      "icao": "LZIB",
      "alert": "OK",
      "vis_m": 9999,
      "fzfg": false,
      "metar_trigger": false,
      "taf_trigger": false,
      "metar": "METAR LZIB 290400Z 36001KT CAVOK 12/04 Q1024 NOSIG",
      "taf": "TAF LZIB 282315Z 2900/3000 03005KT CAVOK"
    },
    {
      "icao": "LZKZ",
      "alert": "OK",
      "vis_m": 9999,
      "fzfg": false,
      "metar_trigger": false,
      "taf_trigger": false,
      "metar": "METAR LZKZ 290400Z 36009KT CAVOK 11/03 Q1023 NOSIG",
      "taf": "TAF LZKZ 282315Z 2900/3000 VRB02KT CAVOK"
    },
    {
      "icao": "LZTT",
      "alert": "OK",
      "vis_m": 9999,
      "fzfg": false,
      "metar_trigger": false,
      "taf_trigger": false,
      "metar": "METAR LZTT 290400Z 28005KT 250V310 9999 FEW063 04/02 Q1024",
      "taf": "TAF LZTT 282315Z 2900/3000 25004KT 9999 FEW065"
    },
    {
      "icao": "OEJN",
      "alert": "OK",
      "vis_m": 9999,
      "fzfg": false,
      "metar_trigger": false,
      "taf_trigger": false,
      "metar": "METAR OEJN 290400Z 33008KT CAVOK 28/20 Q1009 NOSIG",
      "taf": "TAF OEJN 282300Z 2900/3006 36005KT CAVOK"
    },
    {
      "icao": "OEMA",
      "alert": "OK",
      "vis_m": 9999,
      "fzfg": false,
      "metar_trigger": false,
      "taf_trigger": false,
      "metar": "METAR OEMA 290400Z 00000KT CAVOK 32/02 Q1014 NOSIG",
      "taf": "TAF OEMA 282300Z 2900/3006 VRB03KT CAVOK"
    },
    {
      "icao": "OJAI",
      "alert": "OK",
      "vis_m": 5000,
      "fzfg": false,
      "metar_trigger": false,
      "taf_trigger": false,
      "metar": "METAR OJAI 290400Z 06003KT 5000 HZ NSC 14/08 Q1017 NOSIG",
      "taf": "TAF OJAI 282300Z 2900/3006 29012KT 5000 HZ NSC"
    },
    {
      "icao": "OMAA",
      "alert": "OK",
      "vis_m": 9999,
      "fzfg": false,
      "metar_trigger": false,
      "taf_trigger": false,
      "metar": "METAR OMAA 290400Z 18007KT 150V210 CAVOK 30/23 Q1006 NOSIG",
      "taf": "TAF OMAA 282300Z 2900/3006 18005KT 8000 NSC"
    },
    {
      "icao": "OMDB",
      "alert": "OK",
      "vis_m": 9999,
      "fzfg": false,
      "metar_trigger": false,
      "taf_trigger": false,
      "metar": "METAR OMDB 290400Z 16007KT 120V190 CAVOK 32/19 Q1006 NOSIG",
      "taf": "TAF OMDB 282300Z 2900/3006 19005KT 8000 NSC"
    },
    {
      "icao": "UAAA",
      "alert": "OK",
      "vis_m": 9999,
      "fzfg": false,
      "metar_trigger": false,
      "taf_trigger": false,
      "metar": "METAR UAAA 290400Z 03006MPS 010V070 9999 NSC 22/15 Q1022 NOSIG",
      "taf": "TAF UAAA 282302Z 2900/2924 34003MPS 9999 FEW050CB SCT100 TX26/2910Z TN12/2901Z"
    },
    {
      "icao": "UBBB",
      "alert": "OK",
      "vis_m": 9999,
      "fzfg": false,
      "metar_trigger": false,
      "taf_trigger": false,
      "metar": "METAR UBBB 290400Z 31010KT 9999 BKN003 17/16 Q1005 NOSIG",
      "taf": "TAF UBBB 282302Z 2900/2924 19005KT 9999 SCT030 TX26/2908Z TN17/2901Z"
    },
    {
      "icao": "UDSG",
      "alert": "OK",
      "vis_m": 9999,
      "fzfg": false,
      "metar_trigger": false,
      "taf_trigger": false,
      "metar": "METAR UDSG 290400Z 03001KT 9999 SCT043CB 12/10 Q1009 NOSIG",
      "taf": "TAF UDSG 282300Z 2900/2924 24006KT 9999 SCT040"
    },
    {
      "icao": "UDYZ",
      "alert": "OK",
      "vis_m": 9999,
      "fzfg": false,
      "metar_trigger": false,
      "taf_trigger": false,
      "metar": "METAR UDYZ 290400Z VRB02KT 9999 SCT043CB 17/13 Q1004 NOSIG",
      "taf": "TAF UDYZ 282300Z 2900/2924 04006KT 9999 SCT040"
    },
    {
      "icao": "UGKO",
      "alert": "OK",
      "vis_m": 9999,
      "fzfg": false,
      "metar_trigger": false,
      "taf_trigger": false,
      "metar": "METAR UGKO 290400Z 26007KT 9999 VCTS SCT022CB BKN044 15/15 Q1007 TEMPO TS",
      "taf": "TAF UGKO 282300Z 2900/2924 26007KT 9999 SCT022 BKN050 TX19/2911Z TN15/2903Z"
    }
  ]
}