{
  "ts_utc": "2026-02-20T19:44:08Z",
  "threshold_m": 150,
  "source": "stations_override.txt (ICAO list) + aviationweather.gov (METAR/TAF raw)",
  "station_count": 159,
  "stations": [
    {
      "icao": "BIKF",
      "alert": "OK",
      "vis_m": 9999,
      "fzfg": false,
      "metar_trigger": false,
      "taf_trigger": false,
      "metar": "METAR BIKF 201930Z 02005KT CAVOK M02/M07 Q1009",
      "taf": "TAF BIKF 201930Z 2021/2121 02005KT CAVOK TX01/2115Z TNM06/2106Z"
    },
    {
      "icao": "BKPR",
      "alert": "OK",
      "vis_m": 9999,
      "fzfg": false,
      "metar_trigger": false,
      "taf_trigger": false,
      "metar": "METAR BKPR 201930Z 29003KT CAVOK 04/04 Q1014 NOSIG",
      "taf": "TAF BKPR 201730Z 2018/2118 25005KT 9999 FEW015 SCT030"
    },
    {
      "icao": "EBCI",
      "alert": "OK",
      "vis_m": 9999,
      "fzfg": false,
      "metar_trigger": false,
      "taf_trigger": false,
      "metar": "METAR EBCI 201920Z 20016G27KT 9999 -SHRA FEW012 BKN015 07/06 Q1018 TEMPO BKN014",
      "taf": "TAF EBCI 201720Z 2018/2124 23008KT 9999 SCT020 SCT040"
    },
    {
      "icao": "EDDB",
      "alert": "OK",
      "vis_m": 9999,
      "fzfg": false,
      "metar_trigger": false,
      "taf_trigger": false,
      "metar": "METAR EDDB 201920Z AUTO 14009KT CAVOK M02/M06 Q1021 NOSIG",
      "taf": "TAF EDDB 201700Z 2018/2118 16009KT 9999 SCT014"
    },
    {
      "icao": "EDDH",
      "alert": "OK",
      "vis_m": 9999,
      "fzfg": false,
      "metar_trigger": false,
      "taf_trigger": false,
      "metar": "METAR EDDH 201920Z AUTO 17011KT 9999 OVC014 02/M01 Q1015 TEMPO 4500 -RADZ",
      "taf": "TAF EDDH 201700Z 2018/2124 18012KT 9999 OVC020"
    },
    {
      "icao": "EDDK",
      "alert": "OK",
      "vis_m": 9999,
      "fzfg": false,
      "metar_trigger": false,
      "taf_trigger": false,
      "metar": "METAR EDDK 201920Z AUTO 17009KT 9999 -SHRA FEW019 BKN036 BKN044 SCT///TCU 05/03 Q1019 RESHRA NOSIG",
      "taf": "TAF EDDK 201700Z 2018/2124 16008KT 9999 BKN030"
    },
    {
      "icao": "EDDN",
      "alert": "OK",
      "vis_m": 9999,
      "fzfg": false,
      "metar_trigger": false,
      "taf_trigger": false,
      "metar": "METAR EDDN 201920Z AUTO 16007KT 9999 OVC019 02/M01 Q1023 NOSIG",
      "taf": "TAF EDDN 201700Z 2018/2118 17006KT 9999 OVC020"
    },
    {
      "icao": "EDDS",
      "alert": "OK",
      "vis_m": 9999,
      "fzfg": false,
      "metar_trigger": false,
      "taf_trigger": false,
      "metar": "METAR EDDS 201920Z AUTO VRB02KT 9999 SCT032 BKN049 05/03 Q1022 RESHRA NOSIG",
      "taf": "TAF EDDS 201700Z 2018/2118 20003KT 9999 BKN015"
    },
    {
      "icao": "EDFH",
      "alert": "OK",
      "vis_m": 9999,
      "fzfg": false,
      "metar_trigger": false,
      "taf_trigger": false,
      "metar": "METAR EDFH 201920Z 20008KT 9999 -RA BKN012 BKN046 03/02 Q1020",
      "taf": "TAF EDFH 201700Z 2018/2118 20007KT 6000 SCT003 BKN015"
    },
    {
      "icao": "EDJA",
      "alert": "OK",
      "vis_m": 9999,
      "fzfg": false,
      "metar_trigger": false,
      "taf_trigger": false,
      "metar": "METAR EDJA 201920Z 21006KT 9999 FEW026 OVC050 03/02 Q1023",
      "taf": "TAF EDJA 201700Z 2018/2103 21008KT 9999 FEW015 BKN040"
    },
    {
      "icao": "EDLW",
      "alert": "OK",
      "vis_m": 9999,
      "fzfg": false,
      "metar_trigger": false,
      "taf_trigger": false,
      "metar": "METAR EDLW 201920Z 19012KT 9999 R24///// BKN025 OVC040 05/03 Q1018",
      "taf": "TAF EDLW 201700Z 2018/2118 19012KT 9999 BKN030"
    },
    {
      "icao": "EDNY",
      "alert": "OK",
      "vis_m": 9999,
      "fzfg": false,
      "metar_trigger": false,
      "taf_trigger": false,
      "metar": "METAR EDNY 201920Z VRB02KT 9999 SCT039 OVC057 04/03 Q1025",
      "taf": "TAF EDNY 201700Z 2018/2103 22004KT 9999 FEW007 BKN040"
    },
    {
      "icao": "EDSB",
      "alert": "OK",
      "vis_m": 9999,
      "fzfg": false,
      "metar_trigger": false,
      "taf_trigger": false,
      "metar": "METAR EDSB 201920Z 18011KT 9999 BKN033 OVC040 06/05 Q1024",
      "taf": "TAF EDSB 201700Z 2018/2118 19006KT 9999 FEW015 BKN020"
    },
    {
      "icao": "EETN",
      "alert": "OK",
      "vis_m": 9999,
      "fzfg": false,
      "metar_trigger": false,
      "taf_trigger": false,
      "metar": "METAR EETN 201920Z 24007KT CAVOK M04/M06 Q1015 NOSIG",
      "taf": "TAF EETN 201730Z 2018/2118 25010KT 9999 SCT030"
    },
    {
      "icao": "EFTU",
      "alert": "OK",
      "vis_m": 9999,
      "fzfg": false,
      "metar_trigger": false,
      "taf_trigger": false,
      "metar": "METAR EFTU 201920Z AUTO 23006KT CAVOK M05/M10 Q1012",
      "taf": "TAF EFTU 201734Z 2018/2118 24008KT CAVOK"
    },
    {
      "icao": "EGBB",
      "alert": "OK",
      "vis_m": 9999,
      "fzfg": false,
      "metar_trigger": false,
      "taf_trigger": false,
      "metar": "METAR EGBB 201920Z 26009KT 9999 SCT027 09/05 Q1012",
      "taf": "TAF EGBB 201658Z 2018/2118 26010KT 9999 FEW030"
    },
    {
      "icao": "EGGP",
      "alert": "OK",
      "vis_m": 9999,
      "fzfg": false,
      "metar_trigger": false,
      "taf_trigger": false,
      "metar": "METAR EGGP 201920Z 26015KT CAVOK 08/05 Q1011",
      "taf": "TAF EGGP 201657Z 2018/2118 25012KT 9999 SCT035"
    },
    {
      "icao": "EGGW",
      "alert": "OK",
      "vis_m": 9999,
      "fzfg": false,
      "metar_trigger": false,
      "taf_trigger": false,
      "metar": "METAR EGGW 201920Z AUTO 27019KT 9999 FEW030 SCT040 08/05 Q1012",
      "taf": "TAF EGGW 201657Z 2018/2118 26016G26KT 9999 SCT018"
    },
    {
      "icao": "EGKK",
      "alert": "OK",
      "vis_m": 9999,
      "fzfg": false,
      "metar_trigger": false,
      "taf_trigger": false,
      "metar": "METAR EGKK 201920Z 25016KT 9999 BKN033 11/07 Q1015",
      "taf": "TAF EGKK 201652Z 2018/2124 23012KT 9999 SCT018"
    },
    {
      "icao": "EGNM",
      "alert": "OK",
      "vis_m": 9999,
      "fzfg": false,
      "metar_trigger": false,
      "taf_trigger": false,
      "metar": "METAR EGNM 201920Z 26017KT 9999 BKN010 07/05 Q1007",
      "taf": ""
    },
    {
      "icao": "EGPD",
      "alert": "OK",
      "vis_m": 9999,
      "fzfg": false,
      "metar_trigger": false,
      "taf_trigger": false,
      "metar": "METAR EGPD 201920Z COR AUTO 24008KT 9999 NCD 07/02 Q0998 NOSIG",
      "taf": "TAF EGPD 201653Z 2018/2118 24007KT 9999 FEW045"
    },
    {
      "icao": "EGPF",
      "alert": "OK",
      "vis_m": 9999,
      "fzfg": false,
      "metar_trigger": false,
      "taf_trigger": false,
      "metar": "METAR EGPF 201920Z AUTO 23014KT 9999 -RA SCT017 SCT034 BKN046 08/07 Q1004",
      "taf": "TAF EGPF 201704Z 2018/2118 23012KT 9999 FEW012 SCT025"
    },
    {
      "icao": "EHBK",
      "alert": "OK",
      "vis_m": 9999,
      "fzfg": false,
      "metar_trigger": false,
      "taf_trigger": false,
      "metar": "METAR EHBK 201925Z AUTO 21017KT 9999 -RADZ FEW035 SCT041 BKN046 07/05 Q1017 REDZRA BECMG 7000 DZRA BKN012",
      "taf": "TAF EHBK 201713Z 2018/2124 21010KT 9999 -RADZ BKN025"
    },
    {
      "icao": "EHEH",
      "alert": "OK",
      "vis_m": 9999,
      "fzfg": false,
      "metar_trigger": false,
      "taf_trigger": false,
      "metar": "SPECI EHEH 201933Z AUTO 20012KT 170V230 9999 -SHRA SCT013 OVC016 08/06 Q1015 WHT TEMPO 4000 RA SCT010 BKN015",
      "taf": "TAF EHEH 201732Z 2018/2124 21012KT 9999 BKN040"
    },
    {
      "icao": "EKBI",
      "alert": "OK",
      "vis_m": 2400,
      "fzfg": false,
      "metar_trigger": false,
      "taf_trigger": false,
      "metar": "METAR EKBI 201920Z 18008KT 2400 -SN OVC004 00/M00 Q1010",
      "taf": ""
    },
    {
      "icao": "EKCH",
      "alert": "OK",
      "vis_m": 4400,
      "fzfg": false,
      "metar_trigger": false,
      "taf_trigger": false,
      "metar": "METAR EKCH 201920Z AUTO 18018G28KT 4400 -SN OVC026/// M01/M04 Q1016 BECMG 3000 -SN BKN012",
      "taf": "TAF EKCH 201727Z 2018/2118 18018KT 9000 BKN020"
    },
    {
      "icao": "ENAL",
      "alert": "OK",
      "vis_m": 9999,
      "fzfg": false,
      "metar_trigger": false,
      "taf_trigger": false,
      "metar": "METAR ENAL 201920Z 20009KT 9999 BKN041 06/M01 Q0993",
      "taf": "TAF ENAL 201700Z 2018/2103 18015KT 9999 FEW020 BKN030"
    },
    {
      "icao": "ENBR",
      "alert": "OK",
      "vis_m": 9999,
      "fzfg": false,
      "metar_trigger": false,
      "taf_trigger": false,
      "metar": "METAR ENBR 201920Z 14015KT 9999 -RA SCT008 BKN010 02/01 Q0997 TEMPO 3000 RADZ BKN008 RMK WIND 1200FT 15025KT",
      "taf": "TAF ENBR 201700Z 2018/2118 15015KT 9000 -RADZ FEW008 BKN012"
    },
    {
      "icao": "ENGM",
      "alert": "OK",
      "vis_m": 3900,
      "fzfg": false,
      "metar_trigger": false,
      "taf_trigger": false,
      "metar": "METAR ENGM 201920Z 20013KT 3900 -SN SCT008 BKN010 M03/M04 Q1005 TEMPO 2000 OVC006",
      "taf": "TAF ENGM 201700Z 2018/2118 19010KT 6000 -SN BKN012"
    },
    {
      "icao": "ENHD",
      "alert": "OK",
      "vis_m": 7000,
      "fzfg": false,
      "metar_trigger": false,
      "taf_trigger": false,
      "metar": "METAR ENHD 201920Z 15016KT 7000 -RA FEW002 BKN005 BKN011 03/03 Q0998",
      "taf": "TAF ENHD 201400Z 2015/2023 15015KT 7000 -RA SCT005 BKN010"
    },
    {
      "icao": "ENTC",
      "alert": "OK",
      "vis_m": 9999,
      "fzfg": false,
      "metar_trigger": false,
      "taf_trigger": false,
      "metar": "METAR ENTC 201920Z 17003KT 130V220 CAVOK M09/M15 Q0997 NOSIG RMK WIND 2600FT 19007KT",
      "taf": "TAF ENTC 201700Z 2018/2118 20008KT CAVOK"
    },
    {
      "icao": "ENTO",
      "alert": "OK",
      "vis_m": 1500,
      "fzfg": false,
      "metar_trigger": false,
      "taf_trigger": false,
      "metar": "METAR ENTO 201920Z 18014KT 1500 -SN VV003 M01/M01 Q1006 TEMPO 1200",
      "taf": "TAF ENTO 201700Z 2018/2118 18012KT 6000 -SN BKN012"
    },
    {
      "icao": "ENVA",
      "alert": "OK",
      "vis_m": 9999,
      "fzfg": false,
      "metar_trigger": false,
      "taf_trigger": false,
      "metar": "METAR ENVA 201920Z VRB03KT 9999 FEW053 01/M07 Q0996 TEMPO 2000 -SN VV008 RMK WIND 670FT 15015KT",
      "taf": "TAF ENVA 201700Z 2018/2118 10008KT 9999 -SN FEW020 BKN030"
    },
    {
      "icao": "ENZV",
      "alert": "OK",
      "vis_m": 5000,
      "fzfg": false,
      "metar_trigger": false,
      "taf_trigger": false,
      "metar": "METAR ENZV 201920Z 16014KT 5000 DZRA SCT005 BKN015 04/03 Q1000 TEMPO 3000 RADZ BKN007",
      "taf": ""
    },
    {
      "icao": "EPGD",
      "alert": "OK",
      "vis_m": 9999,
      "fzfg": false,
      "metar_trigger": false,
      "taf_trigger": false,
      "metar": "METAR EPGD 201930Z 17006KT CAVOK M05/M09 Q1023",
      "taf": "TAF EPGD 201730Z 2018/2118 17012KT CAVOK"
    },
    {
      "icao": "EPKK",
      "alert": "OK",
      "vis_m": 9999,
      "fzfg": false,
      "metar_trigger": false,
      "taf_trigger": false,
      "metar": "METAR EPKK 201930Z 06005KT CAVOK M04/M09 Q1026",
      "taf": "TAF EPKK 201730Z 2018/2118 06010KT CAVOK"
    },
    {
      "icao": "EPKT",
      "alert": "OK",
      "vis_m": 9999,
      "fzfg": false,
      "metar_trigger": false,
      "taf_trigger": false,
      "metar": "METAR EPKT 201930Z 11005KT CAVOK M07/M09 Q1025",
      "taf": "TAF EPKT 201730Z 2018/2118 07010KT CAVOK"
    },
    {
      "icao": "EPLB",
      "alert": "OK",
      "vis_m": 8000,
      "fzfg": false,
      "metar_trigger": false,
      "taf_trigger": false,
      "metar": "METAR EPLB 201930Z VRB01KT 8000 NSC M09/M11 Q1028",
      "taf": "TAF EPLB 201730Z 2018/2118 VRB02KT 8000 NSC"
    },
    {
      "icao": "EPMO",
      "alert": "OK",
      "vis_m": 9999,
      "fzfg": false,
      "metar_trigger": false,
      "taf_trigger": false,
      "metar": "METAR EPMO 201930Z 10006KT CAVOK M05/M09 Q1027",
      "taf": "TAF EPMO 201730Z 2018/2118 VRB04KT CAVOK"
    },
    {
      "icao": "EPPO",
      "alert": "OK",
      "vis_m": 9999,
      "fzfg": false,
      "metar_trigger": false,
      "taf_trigger": false,
      "metar": "METAR EPPO 201930Z 16010KT CAVOK M03/M08 Q1025",
      "taf": "TAF EPPO 201730Z 2018/2118 16010KT CAVOK"
    },
    {
      "icao": "EPRA",
      "alert": "OK",
      "vis_m": 9999,
      "fzfg": false,
      "metar_trigger": false,
      "taf_trigger": false,
      "metar": "METAR EPRA 201930Z 11005KT CAVOK M05/M10 Q1027",
      "taf": "TAF EPRA 201730Z 2018/2103 11006KT CAVOK"
    },
    {
      "icao": "EPRZ",
      "alert": "OK",
      "vis_m": 9999,
      "fzfg": false,
      "metar_trigger": false,
      "taf_trigger": false,
      "metar": "METAR EPRZ 201930Z 07004KT CAVOK M05/M11 Q1027",
      "taf": "TAF EPRZ 201730Z 2018/2118 05007KT CAVOK"
    },
    {
      "icao": "EPSC",
      "alert": "OK",
      "vis_m": 9999,
      "fzfg": false,
      "metar_trigger": false,
      "taf_trigger": false,
      "metar": "METAR EPSC 201930Z 15013KT CAVOK M02/M08 Q1021",
      "taf": "TAF EPSC 201730Z 2018/2118 15012KT CAVOK"
    },
    {
      "icao": "EPSY",
      "alert": "OK",
      "vis_m": 9999,
      "fzfg": false,
      "metar_trigger": false,
      "taf_trigger": false,
      "metar": "METAR EPSY 201930Z VRB01KT CAVOK M08/M10 Q1027",
      "taf": "TAF EPSY 201730Z 2018/2103 VRB02KT CAVOK"
    },
    {
      "icao": "EPWA",
      "alert": "OK",
      "vis_m": 9999,
      "fzfg": false,
      "metar_trigger": false,
      "taf_trigger": false,
      "metar": "METAR EPWA 201930Z 13007KT CAVOK M04/M08 Q1027 NOSIG",
      "taf": "TAF EPWA 201730Z 2018/2118 VRB04KT CAVOK"
    },
    {
      "icao": "EPWR",
      "alert": "OK",
      "vis_m": 9999,
      "fzfg": false,
      "metar_trigger": false,
      "taf_trigger": false,
      "metar": "METAR EPWR 201930Z 21002KT CAVOK M06/M08 Q1026",
      "taf": "TAF EPWR 201730Z 2018/2118 12007KT CAVOK"
    },
    {
      "icao": "ESGG",
      "alert": "OK",
      "vis_m": 1100,
      "fzfg": false,
      "metar_trigger": false,
      "taf_trigger": false,
      "metar": "METAR ESGG 201920Z 19020G32KT 1100 R03/P2000N R21/P2000N -SN VV009 M03/M04 Q1010",
      "taf": "TAF ESGG 201730Z 2018/2118 18018G28KT 3000 -SN BKN015"
    },
    {
      "icao": "ESKN",
      "alert": "OK",
      "vis_m": 9999,
      "fzfg": false,
      "metar_trigger": false,
      "taf_trigger": false,
      "metar": "METAR ESKN 201920Z 16010KT CAVOK M01/M10 Q1012",
      "taf": "TAF ESKN 201730Z 2018/2118 19012KT CAVOK"
    },
    {
      "icao": "ESMS",
      "alert": "OK",
      "vis_m": 9999,
      "fzfg": false,
      "metar_trigger": false,
      "taf_trigger": false,
      "metar": "METAR ESMS 201920Z 18019KT CAVOK M02/M06 Q1016",
      "taf": "TAF ESMS 201727Z 2018/2118 16016KT 9999 BKN030"
    },
    {
      "icao": "ESSA",
      "alert": "OK",
      "vis_m": 9999,
      "fzfg": false,
      "metar_trigger": false,
      "taf_trigger": false,
      "metar": "METAR ESSA 201920Z 20014KT CAVOK M01/M10 Q1011 NOSIG",
      "taf": "TAF ESSA 201730Z 2018/2118 18010KT CAVOK"
    },
    {
      "icao": "EYKA",
      "alert": "OK",
      "vis_m": 9999,
      "fzfg": false,
      "metar_trigger": false,
      "taf_trigger": false,
      "metar": "METAR EYKA 201920Z 22004KT 190V250 CAVOK M06/M09 Q1026",
      "taf": "TAF EYKA 201700Z 2018/2118 VRB05KT 9000 NSC"
    },
    {
      "icao": "EYPA",
      "alert": "OK",
      "vis_m": 9999,
      "fzfg": false,
      "metar_trigger": false,
      "taf_trigger": false,
      "metar": "METAR EYPA 201920Z 21009KT 180V240 CAVOK M01/M05 Q1024",
      "taf": "TAF EYPA 201700Z 2018/2118 22011KT 9000 SCT010"
    },
    {
      "icao": "EYVI",
      "alert": "OK",
      "vis_m": 9999,
      "fzfg": false,
      "metar_trigger": false,
      "taf_trigger": false,
      "metar": "METAR EYVI 201920Z 21004KT CAVOK M07/M09 Q1025 NOSIG",
      "taf": "TAF EYVI 201700Z 2018/2118 VRB05KT 5000 BR SCT003"
    },
    {
      "icao": "GCFV",
      "alert": "OK",
      "vis_m": 9999,
      "fzfg": false,
      "metar_trigger": false,
      "taf_trigger": false,
      "metar": "METAR GCFV 201930Z 03013KT 9999 FEW018 18/14 Q1022",
      "taf": "TAF GCFV 201400Z 2015/2115 03010KT 9999 FEW020 TX23/2114Z TN15/2106Z"
    },
    {
      "icao": "GCLP",
      "alert": "OK",
      "vis_m": 9999,
      "fzfg": false,
      "metar_trigger": false,
      "taf_trigger": false,
      "metar": "METAR GCLP 201930Z 01016KT 9999 FEW040 18/13 Q1022 NOSIG",
      "taf": "TAF GCLP 201400Z 2015/2115 03018KT 9999 FEW025 TX23/2114Z TN15/2106Z"
    },
    {
      "icao": "GCTS",
      "alert": "OK",
      "vis_m": 9999,
      "fzfg": false,
      "metar_trigger": false,
      "taf_trigger": false,
      "metar": "METAR GCTS 201930Z 06014KT CAVOK 18/13 Q1022 NOSIG",
      "taf": "TAF GCTS 201400Z 2015/2115 08020KT CAVOK TX26/2114Z TN16/2106Z"
    },
    {
      "icao": "GMAD",
      "alert": "OK",
      "vis_m": 6000,
      "fzfg": false,
      "metar_trigger": false,
      "taf_trigger": false,
      "metar": "METAR GMAD 201930Z 23005KT 6000 FEW016 14/13 Q1021 NOSIG",
      "taf": "TAF GMAD 201700Z 2018/2124 26008KT 6000 SCT016"
    },
    {
      "icao": "GMMN",
      "alert": "OK",
      "vis_m": 9999,
      "fzfg": false,
      "metar_trigger": false,
      "taf_trigger": false,
      "metar": "METAR GMMN 201930Z 35004KT CAVOK 11/09 Q1024 NOSIG",
      "taf": "TAF GMMN 201700Z 2018/2124 36007KT CAVOK"
    },
    {
      "icao": "GMMX",
      "alert": "OK",
      "vis_m": 9999,
      "fzfg": false,
      "metar_trigger": false,
      "taf_trigger": false,
      "metar": "METAR GMMX 201930Z 28003KT 230V010 CAVOK 19/11 Q1023 NOSIG",
      "taf": "TAF GMMX 201700Z 2018/2124 06006KT 8000 NSC"
    },
    {
      "icao": "HEGN",
      "alert": "OK",
      "vis_m": 9999,
      "fzfg": false,
      "metar_trigger": false,
      "taf_trigger": false,
      "metar": "METAR HEGN 201900Z 33007KT CAVOK 19/09 Q1017 NOSIG",
      "taf": "TAF HEGN 201700Z 2018/2124 29013KT CAVOK"
    },
    {
      "icao": "HEMA",
      "alert": "OK",
      "vis_m": 9999,
      "fzfg": false,
      "metar_trigger": false,
      "taf_trigger": false,
      "metar": "METAR HEMA 201900Z 30012KT CAVOK 20/13 Q1015 NOSIG",
      "taf": "TAF HEMA 201700Z 2018/2124 30014KT CAVOK"
    },
    {
      "icao": "HESH",
      "alert": "OK",
      "vis_m": 9999,
      "fzfg": false,
      "metar_trigger": false,
      "taf_trigger": false,
      "metar": "METAR HESH 201900Z 36008KT CAVOK 21/08 Q1016 NOSIG",
      "taf": "TAF HESH 201700Z 2018/2124 01012KT CAVOK"
    },
    {
      "icao": "HESX",
      "alert": "OK",
      "vis_m": 9999,
      "fzfg": false,
      "metar_trigger": false,
      "taf_trigger": false,
      "metar": "METAR HESX 201900Z 02007KT CAVOK 13/07 Q1020 NOSIG",
      "taf": "TAF HESX 201700Z 2018/2124 04010KT CAVOK"
    },
    {
      "icao": "LATI",
      "alert": "OK",
      "vis_m": 9999,
      "fzfg": false,
      "metar_trigger": false,
      "taf_trigger": false,
      "metar": "METAR LATI 201920Z VRB02KT 9999 -RA FEW031 BKN096 10/07 Q1014 NOSIG",
      "taf": "TAF LATI 201700Z 2018/2118 VRB05KT 9999 -RA FEW030CB BKN070 TX15/2112Z TN04/2105Z"
    },
    {
      "icao": "LBPD",
      "alert": "OK",
      "vis_m": 9999,
      "fzfg": false,
      "metar_trigger": false,
      "taf_trigger": false,
      "metar": "METAR LBPD 201930Z AUTO 22003KT 170V250 9999 OVC072/// 08/07 Q1014 NOSIG",
      "taf": "TAF LBPD 201700Z 2018/2118 VRB04KT 9999 BKN060"
    },
    {
      "icao": "LBSF",
      "alert": "OK",
      "vis_m": 9999,
      "fzfg": false,
      "metar_trigger": false,
      "taf_trigger": false,
      "metar": "METAR LBSF 201930Z AUTO 25004KT 9999 FEW074/// 05/04 Q1015 TEMPO 3000 BR",
      "taf": "TAF LBSF 201700Z 2018/2118 VRB04KT 9999 SCT050 BKN070"
    },
    {
      "icao": "LBWN",
      "alert": "OK",
      "vis_m": 9999,
      "fzfg": false,
      "metar_trigger": false,
      "taf_trigger": false,
      "metar": "METAR LBWN 201930Z AUTO 04007KT 330V090 9999 -RA SCT010/// OVC019/// 04/03 Q1019 TEMPO RA",
      "taf": "TAF LBWN 201700Z 2018/2118 04012KT 9999 BKN045"
    },
    {
      "icao": "LCLK",
      "alert": "OK",
      "vis_m": 9999,
      "fzfg": false,
      "metar_trigger": false,
      "taf_trigger": false,
      "metar": "METAR LCLK 201930Z 36009KT CAVOK 13/10 Q1021 NOSIG",
      "taf": "TAF LCLK 201730Z 2018/2118 35009KT 9999 FEW035"
    },
    {
      "icao": "LCPH",
      "alert": "OK",
      "vis_m": 9999,
      "fzfg": false,
      "metar_trigger": false,
      "taf_trigger": false,
      "metar": "METAR LCPH 201930Z 06006KT 010V080 9999 FEW035 13/09 Q1020 NOSIG",
      "taf": "TAF LCPH 201730Z 2018/2118 01008KT 9999 FEW035"
    },
    {
      "icao": "LEAL",
      "alert": "OK",
      "vis_m": 9999,
      "fzfg": false,
      "metar_trigger": false,
      "taf_trigger": false,
      "metar": "METAR LEAL 201930Z 01006KT 340V070 CAVOK 14/07 Q1027 NOSIG",
      "taf": "TAF LEAL 201700Z 2018/2118 VRB04KT CAVOK TX17/2113Z TN07/2106Z"
    },
    {
      "icao": "LEBB",
      "alert": "OK",
      "vis_m": 9999,
      "fzfg": false,
      "metar_trigger": false,
      "taf_trigger": false,
      "metar": "METAR LEBB 201930Z 09003KT 9999 FEW042 SCT052 08/06 Q1033 NOSIG",
      "taf": "TAF LEBB 201700Z 2018/2118 12005KT 9999 FEW040 TX18/2115Z TN03/2107Z"
    },
    {
      "icao": "LEBL",
      "alert": "OK",
      "vis_m": 9999,
      "fzfg": false,
      "metar_trigger": false,
      "taf_trigger": false,
      "metar": "METAR LEBL 201930Z 04006KT 360V080 9999 FEW020 12/07 Q1026 NOSIG",
      "taf": "TAF LEBL 201700Z 2018/2118 VRB03KT 9999 FEW040 TX17/2113Z TN07/2107Z"
    },
    {
      "icao": "LECH",
      "alert": "OK",
      "vis_m": 9999,
      "fzfg": false,
      "metar_trigger": false,
      "taf_trigger": false,
      "metar": "METAR LECH 201930Z AUTO VRB02KT CAVOK 11/02 Q1027",
      "taf": ""
    },
    {
      "icao": "LEMD",
      "alert": "OK",
      "vis_m": 9999,
      "fzfg": false,
      "metar_trigger": false,
      "taf_trigger": false,
      "metar": "METAR LEMD 201930Z 00000KT CAVOK 07/00 Q1028 NOSIG",
      "taf": ""
    },
    {
      "icao": "LEMG",
      "alert": "OK",
      "vis_m": 9999,
      "fzfg": false,
      "metar_trigger": false,
      "taf_trigger": false,
      "metar": "METAR LEMG 201930Z 00000KT CAVOK 11/07 Q1027 NOSIG",
      "taf": "TAF LEMG 201700Z 2018/2118 VRB02KT CAVOK TX20/2114Z TN11/2107Z"
    },
    {
      "icao": "LEVC",
      "alert": "OK",
      "vis_m": 9999,
      "fzfg": false,
      "metar_trigger": false,
      "taf_trigger": false,
      "metar": "METAR LEVC 201930Z 34005KT 290V040 CAVOK 13/04 Q1027 NOSIG",
      "taf": "TAF LEVC 201700Z 2018/2118 VRB03KT CAVOK TX19/2114Z TN06/2106Z"
    },
    {
      "icao": "LEXJ",
      "alert": "OK",
      "vis_m": 9999,
      "fzfg": false,
      "metar_trigger": false,
      "taf_trigger": false,
      "metar": "METAR LEXJ 201930Z 23004KT 200V260 9999 BKN050 11/06 Q1033",
      "taf": "TAF LEXJ 201400Z 2015/2115 22007KT 9999 FEW040 TX15/2114Z TN06/2107Z"
    },
    {
      "icao": "LEZG",
      "alert": "OK",
      "vis_m": 9999,
      "fzfg": false,
      "metar_trigger": false,
      "taf_trigger": false,
      "metar": "METAR LEZG 201930Z 28015KT CAVOK 10/04 Q1029 NOSIG",
      "taf": "TAF LEZG 201700Z 2018/2118 30016KT CAVOK TX16/2114Z TN05/2106Z"
    },
    {
      "icao": "LEZL",
      "alert": "OK",
      "vis_m": 9999,
      "fzfg": false,
      "metar_trigger": false,
      "taf_trigger": false,
      "metar": "METAR LEZL 201930Z 03004KT CAVOK 13/10 Q1026 NOSIG",
      "taf": "TAF LEZL 201400Z 2015/2115 05007KT CAVOK TX19/2015Z TN05/2107Z"
    },
    {
      "icao": "LFBD",
      "alert": "OK",
      "vis_m": 9999,
      "fzfg": false,
      "metar_trigger": false,
      "taf_trigger": false,
      "metar": "METAR LFBD 201930Z AUTO 24005KT CAVOK 10/08 Q1031 NOSIG",
      "taf": "TAF LFBD 201700Z 2018/2124 27005KT 9999 BKN030 TX14/2113Z TN06/2124Z"
    },
    {
      "icao": "LFLL",
      "alert": "OK",
      "vis_m": 9999,
      "fzfg": false,
      "metar_trigger": false,
      "taf_trigger": false,
      "metar": "METAR LFLL 201930Z 21002KT 9999 FEW040 OVC050 06/04 Q1028 NOSIG",
      "taf": "TAF LFLL 201700Z 2018/2124 04004KT 9999 BKN040"
    },
    {
      "icao": "LFLS",
      "alert": "OK",
      "vis_m": 9999,
      "fzfg": false,
      "metar_trigger": false,
      "taf_trigger": false,
      "metar": "METAR LFLS 201930Z AUTO VRB03KT 9999 BKN031 BKN043 OVC090 06/02 Q1028 NOSIG",
      "taf": "TAF LFLS 201400Z 2015/2115 35009KT 9999 BKN030"
    },
    {
      "icao": "LFMN",
      "alert": "OK",
      "vis_m": 9999,
      "fzfg": false,
      "metar_trigger": false,
      "taf_trigger": false,
      "metar": "METAR LFMN 201930Z VRB03KT CAVOK 13/08 Q1016 NOSIG",
      "taf": "TAF LFMN 201400Z 2015/2121 09005KT CAVOK"
    },
    {
      "icao": "LFOB",
      "alert": "OK",
      "vis_m": 9999,
      "fzfg": false,
      "metar_trigger": false,
      "taf_trigger": false,
      "metar": "METAR LFOB 201930Z AUTO 22012KT 9999 BKN013 BKN018 OVC023 09/08 Q1020 TEMPO 4000 -RADZ BECMG 26015G25KT",
      "taf": "TAF LFOB 201700Z 2018/2118 21013KT 9999 OVC025"
    },
    {
      "icao": "LFPO",
      "alert": "OK",
      "vis_m": 9999,
      "fzfg": false,
      "metar_trigger": false,
      "taf_trigger": false,
      "metar": "METAR LFPO 201930Z 22011KT 9999 OVC036 10/06 Q1022 NOSIG",
      "taf": "TAF LFPO 201700Z 2018/2124 23010KT 9999 SCT030"
    },
    {
      "icao": "LFSB",
      "alert": "OK",
      "vis_m": 9999,
      "fzfg": false,
      "metar_trigger": false,
      "taf_trigger": false,
      "metar": "METAR LFSB 201930Z AUTO 22006KT 9999 FEW024 BKN034 BKN042 06/04 Q1026 NOSIG",
      "taf": "TAF LFSB 201700Z 2018/2118 25008KT 9999 FEW020 BKN040"
    },
    {
      "icao": "LGAV",
      "alert": "OK",
      "vis_m": 9999,
      "fzfg": false,
      "metar_trigger": false,
      "taf_trigger": false,
      "metar": "METAR LGAV 201920Z 17014KT 150V210 9999 -RA FEW018 SCT025 BKN070 13/10 Q1015 RERA NOSIG",
      "taf": "TAF LGAV 201700Z 2018/2118 20018KT 9999 SCT020"
    },
    {
      "icao": "LGTS",
      "alert": "OK",
      "vis_m": 9999,
      "fzfg": false,
      "metar_trigger": false,
      "taf_trigger": false,
      "metar": "METAR LGTS 201850Z 29005KT 9999 FEW010 SCT025 12/11 Q1013 NOSIG",
      "taf": "TAF LGTS 201700Z 2018/2118 VRB03KT 9999 SCT025"
    },
    {
      "icao": "LHBP",
      "alert": "OK",
      "vis_m": 9999,
      "fzfg": false,
      "metar_trigger": false,
      "taf_trigger": false,
      "metar": "METAR LHBP 201930Z 33009KT CAVOK 04/M08 Q1021 NOSIG",
      "taf": "TAF LHBP 201715Z 2018/2118 34007KT CAVOK"
    },
    {
      "icao": "LHDC",
      "alert": "OK",
      "vis_m": 9999,
      "fzfg": false,
      "metar_trigger": false,
      "taf_trigger": false,
      "metar": "METAR LHDC 201915Z AUTO 04015KT CAVOK 02/M06 Q1019",
      "taf": "TAF LHDC 201415Z 2015/2024 03020G30KT CAVOK"
    },
    {
      "icao": "LIBD",
      "alert": "OK",
      "vis_m": 9999,
      "fzfg": false,
      "metar_trigger": false,
      "taf_trigger": false,
      "metar": "METAR LIBD 201920Z 35007KT 320V020 9999 FEW015 SCT030 12/09 Q1014",
      "taf": ""
    },
    {
      "icao": "LIBG",
      "alert": "OK",
      "vis_m": 9999,
      "fzfg": false,
      "metar_trigger": false,
      "taf_trigger": false,
      "metar": "METAR LIBG 201850Z 36004KT CAVOK 10/07 Q1012",
      "taf": "TAF LIBG 201700Z 2018/2103 36008KT 9999 SCT020"
    },
    {
      "icao": "LIBP",
      "alert": "OK",
      "vis_m": 9999,
      "fzfg": false,
      "metar_trigger": false,
      "taf_trigger": false,
      "metar": "METAR LIBP 201920Z AUTO 31006KT 240V360 9999 FEW043/// OVC072/// 09/03 Q1017",
      "taf": "TAF LIBP 201700Z 2018/2118 31012KT 9999 SCT030"
    },
    {
      "icao": "LIBR",
      "alert": "OK",
      "vis_m": 9999,
      "fzfg": false,
      "metar_trigger": false,
      "taf_trigger": false,
      "metar": "METAR LIBR 201920Z VRB01KT CAVOK 10/08 Q1013",
      "taf": "TAF LIBR 201700Z 2018/2118 VRB06KT CAVOK"
    },
    {
      "icao": "LICA",
      "alert": "OK",
      "vis_m": 9999,
      "fzfg": false,
      "metar_trigger": false,
      "taf_trigger": false,
      "metar": "METAR LICA 201920Z AUTO VRB02KT 9999 FEW024/// OVC071/// 10/09 Q1014",
      "taf": "TAF LICA 201700Z 2018/2118 26012KT 9999 SCT030 BKN050"
    },
    {
      "icao": "LICC",
      "alert": "OK",
      "vis_m": 9999,
      "fzfg": false,
      "metar_trigger": false,
      "taf_trigger": false,
      "metar": "METAR LICC 201920Z 28012KT 9999 FEW050 SCT100 10/06 Q1014",
      "taf": "TAF LICC 201700Z 2018/2118 26008KT 9999 SCT040"
    },
    {
      "icao": "LICJ",
      "alert": "OK",
      "vis_m": 9999,
      "fzfg": false,
      "metar_trigger": false,
      "taf_trigger": false,
      "metar": "METAR LICJ 201920Z 31011KT 9999 SCT030 15/11 Q1016",
      "taf": "TAF LICJ 201700Z 2018/2118 27016G26KT 9999 SCT035"
    },
    {
      "icao": "LIMC",
      "alert": "OK",
      "vis_m": 9999,
      "fzfg": false,
      "metar_trigger": false,
      "taf_trigger": false,
      "metar": "METAR LIMC 201920Z 12008KT CAVOK 11/06 Q1018 NOSIG",
      "taf": "TAF LIMC 201700Z 2018/2124 VRB05KT CAVOK"
    },
    {
      "icao": "LIME",
      "alert": "OK",
      "vis_m": 9999,
      "fzfg": false,
      "metar_trigger": false,
      "taf_trigger": false,
      "metar": "METAR LIME 201920Z VRB02KT 9999 SCT030 08/07 Q1019 NOSIG",
      "taf": "TAF LIME 201700Z 2018/2118 VRB05KT CAVOK"
    },
    {
      "icao": "LIMF",
      "alert": "OK",
      "vis_m": 9999,
      "fzfg": false,
      "metar_trigger": false,
      "taf_trigger": false,
      "metar": "METAR LIMF 201920Z 32002KT CAVOK 12/00 Q1017",
      "taf": "TAF LIMF 201700Z 2018/2118 VRB05KT CAVOK"
    },
    {
      "icao": "LIMJ",
      "alert": "OK",
      "vis_m": 9999,
      "fzfg": false,
      "metar_trigger": false,
      "taf_trigger": false,
      "metar": "METAR LIMJ 201920Z 04005KT CAVOK 14/03 Q1016",
      "taf": "TAF LIMJ 201700Z 2018/2118 03007KT CAVOK"
    },
    {
      "icao": "LIPE",
      "alert": "OK",
      "vis_m": 9999,
      "fzfg": false,
      "metar_trigger": false,
      "taf_trigger": false,
      "metar": "METAR LIPE 201920Z 13008KT CAVOK 07/02 Q1019",
      "taf": "TAF LIPE 201700Z 2018/2118 12010KT CAVOK"
    },
    {
      "icao": "LIPH",
      "alert": "OK",
      "vis_m": 9999,
      "fzfg": false,
      "metar_trigger": false,
      "taf_trigger": false,
      "metar": "METAR LIPH 201920Z VRB01KT 9999 BKN025 08/05 Q1019",
      "taf": "TAF LIPH 201700Z 2018/2118 VRB05KT 9999 FEW040"
    },
    {
      "icao": "LIPQ",
      "alert": "OK",
      "vis_m": 9999,
      "fzfg": false,
      "metar_trigger": false,
      "taf_trigger": false,
      "metar": "METAR LIPQ 201920Z AUTO 11009KT 9999 NCD 07/01 Q1019",
      "taf": "TAF LIPQ 201700Z 2018/2118 VRB06KT 9999 SCT030"
    },
    {
      "icao": "LIPR",
      "alert": "OK",
      "vis_m": 9999,
      "fzfg": false,
      "metar_trigger": false,
      "taf_trigger": false,
      "metar": "METAR LIPR 201920Z 25004KT CAVOK 05/04 Q1018",
      "taf": "TAF LIPR 201700Z 2018/2118 VRB06KT 9999 FEW030"
    },
    {
      "icao": "LIPX",
      "alert": "OK",
      "vis_m": 9999,
      "fzfg": false,
      "metar_trigger": false,
      "taf_trigger": false,
      "metar": "METAR LIPX 201920Z 04003KT 020V090 9999 SCT025 06/05 Q1019",
      "taf": "TAF LIPX 201700Z 2018/2118 VRB05KT 9999 SCT020"
    },
    {
      "icao": "LIPY",
      "alert": "OK",
      "vis_m": 9999,
      "fzfg": false,
      "metar_trigger": false,
      "taf_trigger": false,
      "metar": "METAR LIPY 201920Z AUTO 03011KT 9999 BKN065/// 10/04 Q1018",
      "taf": "TAF LIPY 201700Z 2018/2118 35015KT 9999 SCT030"
    },
    {
      "icao": "LIPZ",
      "alert": "OK",
      "vis_m": 9999,
      "fzfg": false,
      "metar_trigger": false,
      "taf_trigger": false,
      "metar": "METAR LIPZ 201920Z 10005KT 9999 SCT025 08/05 Q1019 NOSIG",
      "taf": "TAF LIPZ 201700Z 2018/2124 VRB05KT CAVOK"
    },
    {
      "icao": "LIRF",
      "alert": "OK",
      "vis_m": 9999,
      "fzfg": false,
      "metar_trigger": false,
      "taf_trigger": false,
      "metar": "METAR LIRF 201920Z 33006KT CAVOK 08/07 Q1015 NOSIG",
      "taf": ""
    },
    {
      "icao": "LIRN",
      "alert": "OK",
      "vis_m": 9999,
      "fzfg": false,
      "metar_trigger": false,
      "taf_trigger": false,
      "metar": "METAR LIRN 201920Z 07003KT 030V130 9999 SCT035 10/06 Q1014 NOSIG",
      "taf": "TAF LIRN 201700Z 2018/2118 24008KT 9999 SCT020"
    },
    {
      "icao": "LIRP",
      "alert": "OK",
      "vis_m": 9999,
      "fzfg": false,
      "metar_trigger": false,
      "taf_trigger": false,
      "metar": "METAR LIRP 201915Z 13009KT CAVOK 10/05 Q1017 NOSIG",
      "taf": "TAF LIRP 201700Z 2018/2118 VRB03KT CAVOK"
    },
    {
      "icao": "LIRZ",
      "alert": "OK",
      "vis_m": 9999,
      "fzfg": false,
      "metar_trigger": false,
      "taf_trigger": false,
      "metar": "METAR LIRZ 201920Z AUTO 04006KT 9999 BKN030/// 07/03 Q1017",
      "taf": "TAF LIRZ 201700Z 2018/2118 01014KT 9999 SCT035"
    },
    {
      "icao": "LJLJ",
      "alert": "OK",
      "vis_m": 9999,
      "fzfg": false,
      "metar_trigger": false,
      "taf_trigger": false,
      "metar": "METAR LJLJ 201930Z 00000KT 9999 SCT003 BKN047 01/01 Q1021 NOSIG",
      "taf": "TAF LJLJ 201700Z 2018/2118 13003KT 9999 FEW008 SCT040 BKN050"
    },
    {
      "icao": "LKMT",
      "alert": "OK",
      "vis_m": 9999,
      "fzfg": false,
      "metar_trigger": false,
      "taf_trigger": false,
      "metar": "METAR LKMT 201930Z 05008KT CAVOK M05/M08 Q1024 NOSIG",
      "taf": "TAF LKMT 201700Z 2018/2118 03010KT CAVOK"
    },
    {
      "icao": "LKPR",
      "alert": "OK",
      "vis_m": 9999,
      "fzfg": false,
      "metar_trigger": false,
      "taf_trigger": false,
      "metar": "METAR LKPR 201930Z 15007KT CAVOK M02/M06 Q1023 NOSIG",
      "taf": "TAF LKPR 201700Z 2018/2124 16006KT CAVOK"
    },
    {
      "icao": "LLBG",
      "alert": "OK",
      "vis_m": 9999,
      "fzfg": false,
      "metar_trigger": false,
      "taf_trigger": false,
      "metar": "METAR LLBG 201920Z 16005KT CAVOK 16/11 Q1018 NOSIG",
      "taf": "TAF LLBG 201703Z 2018/2118 17005KT CAVOK"
    },
    {
      "icao": "LMML",
      "alert": "OK",
      "vis_m": 9000,
      "fzfg": false,
      "metar_trigger": false,
      "taf_trigger": false,
      "metar": "METAR LMML 201915Z 27021G34KT 9000 -RA SCT025 BKN040 13/10 Q1016 RESHRA NOSIG",
      "taf": "TAF LMML 201700Z 2018/2118 29023G39KT 9999 SCT019"
    },
    {
      "icao": "LOWW",
      "alert": "OK",
      "vis_m": 9999,
      "fzfg": false,
      "metar_trigger": false,
      "taf_trigger": false,
      "metar": "METAR LOWW 201920Z 33010KT 9999 BKN050 M00/M04 Q1024 NOSIG",
      "taf": "TAF LOWW 201715Z 2018/2124 35013KT 9999 BKN040 TX05/2123Z TNM05/2100Z"
    },
    {
      "icao": "LPFR",
      "alert": "OK",
      "vis_m": 9999,
      "fzfg": false,
      "metar_trigger": false,
      "taf_trigger": false,
      "metar": "METAR LPFR 201930Z 30003KT CAVOK 13/09 Q1027",
      "taf": "TAF LPFR 201700Z 2018/2118 25007KT CAVOK"
    },
    {
      "icao": "LPMA",
      "alert": "OK",
      "vis_m": 9999,
      "fzfg": false,
      "metar_trigger": false,
      "taf_trigger": false,
      "metar": "METAR LPMA 201930Z 04012KT 9999 SCT016 SCT030 16/10 Q1026",
      "taf": "TAF LPMA 201700Z 2018/2118 03013KT 9999 SCT015"
    },
    {
      "icao": "LPPR",
      "alert": "OK",
      "vis_m": 9999,
      "fzfg": false,
      "metar_trigger": false,
      "taf_trigger": false,
      "metar": "METAR LPPR 201930Z 35003KT CAVOK 10/06 Q1030",
      "taf": "TAF LPPR 201700Z 2018/2118 31010KT CAVOK"
    },
    {
      "icao": "LPPS",
      "alert": "OK",
      "vis_m": 9999,
      "fzfg": false,
      "metar_trigger": false,
      "taf_trigger": false,
      "metar": "METAR LPPS 201930Z 08010KT 050V130 9999 FEW015 BKN030 16/10 Q1027",
      "taf": "TAF LPPS 201700Z 2018/2124 09012KT 9999 FEW015 BKN030"
    },
    {
      "icao": "LPPT",
      "alert": "OK",
      "vis_m": 9999,
      "fzfg": false,
      "metar_trigger": false,
      "taf_trigger": false,
      "metar": "METAR LPPT 201930Z 33009KT CAVOK 12/08 Q1028",
      "taf": "TAF LPPT 201700Z 2018/2124 08008KT CAVOK"
    },
    {
      "icao": "LQBK",
      "alert": "OK",
      "vis_m": 7000,
      "fzfg": false,
      "metar_trigger": false,
      "taf_trigger": false,
      "metar": "METAR LQBK 201930Z 27009KT 7000 -SN FEW007 BKN016 OVC025 00/M01 Q1022 NOSIG",
      "taf": "TAF LQBK 201700Z 2018/2118 30007KT 9999 SCT012 BKN025 TX04/2113Z TNM01/2106Z"
    },
    {
      "icao": "LQSA",
      "alert": "OK",
      "vis_m": 9999,
      "fzfg": false,
      "metar_trigger": false,
      "taf_trigger": false,
      "metar": "METAR LQSA 201930Z 31006KT 9999 -DZ BKN010 BKN025 03/03 Q1017 NOSIG",
      "taf": "TAF LQSA 201700Z 2018/2118 30006KT 9999 SCT008 BKN025 TX05/2113Z TNM01/2104Z"
    },
    {
      "icao": "LQTZ",
      "alert": "OK",
      "vis_m": 9999,
      "fzfg": false,
      "metar_trigger": false,
      "taf_trigger": false,
      "metar": "METAR LQTZ 201930Z 31010KT 9999 -DZ SCT009 OVC015 02/01 Q1019",
      "taf": "TAF LQTZ 201700Z 2018/2118 27007KT 9999 SCT015 OVC030 TX04/2018Z TNM01/2106Z"
    },
    {
      "icao": "LRBC",
      "alert": "OK",
      "vis_m": 9999,
      "fzfg": false,
      "metar_trigger": false,
      "taf_trigger": false,
      "metar": "METAR LRBC 201930Z 35012KT 9999 BKN059 M00/M05 Q1028",
      "taf": "TAF LRBC 201700Z 2018/2103 35014KT CAVOK"
    },
    {
      "icao": "LRBS",
      "alert": "OK",
      "vis_m": 9999,
      "fzfg": false,
      "metar_trigger": false,
      "taf_trigger": false,
      "metar": "METAR LRBS 201930Z 05019G29KT 010V080 9999 -RASN BKN041 OVC046 02/M04 Q1021 NOSIG",
      "taf": "TAF LRBS 201700Z 2018/2118 08025KT 9999 BKN045"
    },
    {
      "icao": "LRBV",
      "alert": "OK",
      "vis_m": 9999,
      "fzfg": false,
      "metar_trigger": false,
      "taf_trigger": false,
      "metar": "METAR LRBV 201930Z 08019KT 9999 -SN FEW018 SCT031 BKN040 M01/M07 Q1021",
      "taf": "TAF LRBV 201700Z 2018/2103 09017KT 9999 BKN055"
    },
    {
      "icao": "LRCL",
      "alert": "OK",
      "vis_m": 9999,
      "fzfg": false,
      "metar_trigger": false,
      "taf_trigger": false,
      "metar": "METAR LRCL 201930Z 09007KT 9999 -RA BKN031 OVC058 04/M01 Q1020",
      "taf": "TAF LRCL 201700Z 2018/2103 06006KT 9999 BKN050"
    },
    {
      "icao": "LRCV",
      "alert": "OK",
      "vis_m": 9000,
      "fzfg": false,
      "metar_trigger": false,
      "taf_trigger": false,
      "metar": "METAR LRCV 201930Z 10019KT 9000 -RA BKN011 OVC029 02/01 Q1020",
      "taf": "TAF LRCV 201700Z 2018/2103 09017KT 5000 RA OVC030"
    },
    {
      "icao": "LRIA",
      "alert": "OK",
      "vis_m": 9999,
      "fzfg": false,
      "metar_trigger": false,
      "taf_trigger": false,
      "metar": "METAR LRIA 201930Z 34011KT CAVOK M02/M06 Q1028",
      "taf": "TAF LRIA 201700Z 2018/2103 35010KT CAVOK"
    },
    {
      "icao": "LROP",
      "alert": "OK",
      "vis_m": 4000,
      "fzfg": false,
      "metar_trigger": false,
      "taf_trigger": false,
      "metar": "METAR LROP 201930Z 06027KT 4000 RASN OVC041 02/M06 Q1021 NOSIG",
      "taf": "TAF LROP 201700Z 2018/2118 08025KT 9999 BKN045"
    },
    {
      "icao": "LRSB",
      "alert": "OK",
      "vis_m": 9999,
      "fzfg": false,
      "metar_trigger": false,
      "taf_trigger": false,
      "metar": "METAR LRSB 201930Z 09012KT 9999 -RA FEW020 BKN032 OVC040 03/01 Q1018",
      "taf": "TAF LRSB 201700Z 2018/2118 12006KT 9999 BKN060"
    },
    {
      "icao": "LRSM",
      "alert": "OK",
      "vis_m": 9999,
      "fzfg": false,
      "metar_trigger": false,
      "taf_trigger": false,
      "metar": "METAR LRSM 201930Z AUTO 07006KT 9999 BKN055/// OVC070/// 04/M01 Q1019",
      "taf": "TAF LRSM 201400Z 2015/2024 04014KT CAVOK"
    },
    {
      "icao": "LRSV",
      "alert": "OK",
      "vis_m": 9999,
      "fzfg": false,
      "metar_trigger": false,
      "taf_trigger": false,
      "metar": "METAR LRSV 201930Z 32006KT CAVOK M06/M10 Q1027",
      "taf": "TAF LRSV 201700Z 2018/2103 33010KT CAVOK"
    },
    {
      "icao": "LRTM",
      "alert": "OK",
      "vis_m": 9999,
      "fzfg": false,
      "metar_trigger": false,
      "taf_trigger": false,
      "metar": "METAR LRTM 201930Z AUTO 06006KT 9999 FEW044/// 04/M00 Q1020",
      "taf": "TAF LRTM 201400Z 2015/2024 08012KT 9999 BKN050"
    },
    {
      "icao": "LRTR",
      "alert": "OK",
      "vis_m": 4000,
      "fzfg": false,
      "metar_trigger": false,
      "taf_trigger": false,
      "metar": "METAR LRTR 201930Z 01007KT 4000 -RA BR SCT037 BKN045 06/06 Q1017",
      "taf": "TAF LRTR 201700Z 2018/2118 VRB04KT 5000 -RA BR OVC045"
    },
    {
      "icao": "LTAC",
      "alert": "OK",
      "vis_m": 9999,
      "fzfg": false,
      "metar_trigger": false,
      "taf_trigger": false,
      "metar": "METAR LTAC 201920Z 02005KT CAVOK 03/M01 Q1021 NOSIG RMK RWY21C 02006KT RWY03L 03003KT RWY21R 01006KT RWY03R VRB02KT RWY21L VRB02KT",
      "taf": "TAF LTAC 201640Z 2018/2118 VRB02KT CAVOK"
    },
    {
      "icao": "LTFM",
      "alert": "OK",
      "vis_m": 9999,
      "fzfg": false,
      "metar_trigger": false,
      "taf_trigger": false,
      "metar": "METAR LTFM 201920Z 16006KT CAVOK 11/05 Q1018 NOSIG RMK RWY17L 15005KT 100V210 RWY34L 17004KT RWY16R 15004KT 110V190 RWY36 13007KT RWY18 13006KT",
      "taf": "TAF LTFM 201640Z 2018/2124 20010KT CAVOK"
    },
    {
      "icao": "LUKK",
      "alert": "OK",
      "vis_m": 9999,
      "fzfg": false,
      "metar_trigger": false,
      "taf_trigger": false,
      "metar": "METAR LUKK 201930Z 03014KT CAVOK M03/M08 Q1026 NOSIG",
      "taf": "TAF LUKK 201716Z 2018/2118 02012KT CAVOK"
    },
    {
      "icao": "LWOH",
      "alert": "OK",
      "vis_m": 9999,
      "fzfg": false,
      "metar_trigger": false,
      "taf_trigger": false,
      "metar": "METAR LWOH 201920Z VRB01KT 9999 SCT040 SCT090 06/04 Q1014",
      "taf": "TAF LWOH 201740Z 2018/2118 VRB03KT 9999 SCT040 SCT090"
    },
    {
      "icao": "LWSK",
      "alert": "OK",
      "vis_m": 9999,
      "fzfg": false,
      "metar_trigger": false,
      "taf_trigger": false,
      "metar": "METAR LWSK 201920Z 14003KT 9999 SCT023 06/04 Q1014 NOSIG",
      "taf": "TAF LWSK 201740Z 2018/2118 VRB03KT 9999 FEW040 SCT080"
    },
    {
      "icao": "LYBE",
      "alert": "OK",
      "vis_m": 5000,
      "fzfg": false,
      "metar_trigger": false,
      "taf_trigger": false,
      "metar": "METAR LYBE 201930Z 25004KT 5000 RA BKN003 BKN027 05/05 Q1017 NOSIG",
      "taf": "TAF LYBE 201700Z 2018/2118 05008KT 9999 SCT012 BKN027 TX06/2018Z TN01/2106Z"
    },
    {
      "icao": "LYNI",
      "alert": "OK",
      "vis_m": 9999,
      "fzfg": false,
      "metar_trigger": false,
      "taf_trigger": false,
      "metar": "METAR LYNI 201930Z 33005KT 9999 SCT050 05/05 Q1015 NOSIG",
      "taf": "TAF LYNI 201700Z 2018/2118 06005KT 9999 SCT040 TX07/2018Z TN01/2106Z"
    },
    {
      "icao": "LYPG",
      "alert": "OK",
      "vis_m": 9999,
      "fzfg": false,
      "metar_trigger": false,
      "taf_trigger": false,
      "metar": "METAR LYPG 201930Z VRB01KT 9999 FEW030 07/06 Q1015 NOSIG",
      "taf": "TAF LYPG 201700Z 2018/2118 34005KT 6000 FEW030 SCT090 TX14/2113Z TN05/2024Z"
    },
    {
      "icao": "LZIB",
      "alert": "OK",
      "vis_m": 9999,
      "fzfg": false,
      "metar_trigger": false,
      "taf_trigger": false,
      "metar": "METAR LZIB 201930Z 32012KT CAVOK 00/M07 Q1023 NOSIG",
      "taf": "TAF LZIB 201715Z 2018/2118 31012KT 9999 FEW040"
    },
    {
      "icao": "LZKZ",
      "alert": "OK",
      "vis_m": 9999,
      "fzfg": false,
      "metar_trigger": false,
      "taf_trigger": false,
      "metar": "METAR LZKZ 201930Z 01023KT CAVOK M01/M10 Q1021 NOSIG",
      "taf": "TAF LZKZ 201715Z 2018/2118 01015KT CAVOK"
    },
    {
      "icao": "LZTT",
      "alert": "OK",
      "vis_m": 9999,
      "fzfg": false,
      "metar_trigger": false,
      "taf_trigger": false,
      "metar": "METAR LZTT 201930Z 14007KT CAVOK M07/M11 Q1022",
      "taf": "TAF LZTT 201715Z 2018/2118 07007KT 9999 FEW050"
    },
    {
      "icao": "OEJN",
      "alert": "OK",
      "vis_m": 9999,
      "fzfg": false,
      "metar_trigger": false,
      "taf_trigger": false,
      "metar": "METAR OEJN 201900Z 35004KT CAVOK 26/19 Q1014 NOSIG",
      "taf": "TAF OEJN 201700Z 2018/2124 36006KT 7000 NSC"
    },
    {
      "icao": "OEMA",
      "alert": "OK",
      "vis_m": 9999,
      "fzfg": false,
      "metar_trigger": false,
      "taf_trigger": false,
      "metar": "METAR OEMA 201900Z 08012KT CAVOK 28/M05 Q1020 NOSIG",
      "taf": "TAF OEMA 201700Z 2018/2124 10010KT 7000 NSC"
    },
    {
      "icao": "OJAI",
      "alert": "OK",
      "vis_m": 4500,
      "fzfg": false,
      "metar_trigger": false,
      "taf_trigger": false,
      "metar": "METAR OJAI 201900Z 10015KT 4500 BLDU NSC 15/01 Q1021 NOSIG",
      "taf": "TAF OJAI 201648Z 2018/2124 12010KT 5000 HZ NSC"
    },
    {
      "icao": "OMAA",
      "alert": "OK",
      "vis_m": 9999,
      "fzfg": false,
      "metar_trigger": false,
      "taf_trigger": false,
      "metar": "METAR OMAA 201930Z 32006KT CAVOK 23/18 Q1017 NOSIG",
      "taf": "TAF OMAA 201700Z 2018/2200 03006KT 8000 NSC"
    },
    {
      "icao": "OMDB",
      "alert": "OK",
      "vis_m": 9999,
      "fzfg": false,
      "metar_trigger": false,
      "taf_trigger": false,
      "metar": "METAR OMDB 201930Z 02005KT 330V090 CAVOK 24/17 Q1017 NOSIG",
      "taf": "TAF OMDB 201700Z 2018/2200 05005KT 8000 NSC"
    },
    {
      "icao": "UAAA",
      "alert": "OK",
      "vis_m": 1600,
      "fzfg": false,
      "metar_trigger": false,
      "taf_trigger": false,
      "metar": "METAR UAAA 201930Z 30002MPS 260V330 1600 R23L/P2000 BR OVC002 04/04 Q1019 NOSIG RMK QBB070",
      "taf": "TAF UAAA 201707Z 2018/2118 24003MPS 1400 BR FU BKN005 OVC011 TX08/2109Z TN01/2103Z"
    },
    {
      "icao": "UBBB",
      "alert": "OK",
      "vis_m": 9999,
      "fzfg": false,
      "metar_trigger": false,
      "taf_trigger": false,
      "metar": "METAR UBBB 201930Z 13008KT 9999 SCT019 07/05 Q1029 NOSIG",
      "taf": "TAF UBBB 201701Z 2018/2118 18008KT 9999 SCT025 TX12/2110Z TN07/2101Z"
    },
    {
      "icao": "UDSG",
      "alert": "OK",
      "vis_m": 9999,
      "fzfg": false,
      "metar_trigger": false,
      "taf_trigger": false,
      "metar": "METAR UDSG 201930Z 11001KT 9999 NSC M04/M06 Q1028 NOSIG",
      "taf": "TAF UDSG 201658Z 2018/2118 VRB06KT 9999 FEW040"
    },
    {
      "icao": "UDYZ",
      "alert": "OK",
      "vis_m": 9999,
      "fzfg": false,
      "metar_trigger": false,
      "taf_trigger": false,
      "metar": "METAR UDYZ 201930Z 04003KT 9999 NSC 03/M03 Q1028 NOSIG",
      "taf": "TAF UDYZ 201700Z 2018/2118 VRB04KT 9999 FEW040"
    },
    {
      "icao": "UGKO",
      "alert": "OK",
      "vis_m": 9999,
      "fzfg": false,
      "metar_trigger": false,
      "taf_trigger": false,
      "metar": "METAR UGKO 201930Z 08020G30KT CAVOK 12/M04 Q1022 NOSIG",
      "taf": "TAF UGKO 201700Z 2018/2118 08017KT CAVOK TX22/2111Z TN08/2102Z"
    }
  ]
}