{
  "ts_utc": "2025-12-31T23:54:46Z",
  "threshold_m": 150,
  "source": "stations_override.txt (ICAO list) + aviationweather.gov (METAR/TAF raw)",
  "station_count": 159,
  "stations": [
    {
      "icao": "BIKF",
      "alert": "OK",
      "vis_m": 9999,
      "fzfg": false,
      "metar_trigger": false,
      "taf_trigger": false,
      "metar": "METAR BIKF 312330Z 31001KT CAVOK M03/M05 Q1027",
      "taf": "TAF BIKF 312255Z 0100/0200 01008KT CAVOK TX04/0110Z TNM03/0102Z"
    },
    {
      "icao": "BKPR",
      "alert": "OK",
      "vis_m": 9999,
      "fzfg": false,
      "metar_trigger": false,
      "taf_trigger": false,
      "metar": "METAR BKPR 312330Z 30005KT CAVOK M08/M13 Q1018 NOSIG",
      "taf": "TAF BKPR 312330Z 0100/0124 26009KT CAVOK"
    },
    {
      "icao": "EBCI",
      "alert": "OK",
      "vis_m": 8000,
      "fzfg": false,
      "metar_trigger": false,
      "taf_trigger": false,
      "metar": "METAR EBCI 312320Z 22009KT 8000 FEW003 BKN021 01/M00 Q1019 NOSIG",
      "taf": "TAF EBCI 312311Z 0100/0206 25010KT 7000 SCT012 BKN015"
    },
    {
      "icao": "EDDB",
      "alert": "OK",
      "vis_m": 2000,
      "fzfg": false,
      "metar_trigger": false,
      "taf_trigger": false,
      "metar": "METAR EDDB 312350Z AUTO 26010KT 2000 1300 R24R/P2000N R24L/1700D -RADZ BR BKN008 03/03 Q1008 REDZ TEMPO 3000 -RADZ BR",
      "taf": "TAF EDDB 312300Z 0100/0124 27008KT 9000 SCT008 BKN015"
    },
    {
      "icao": "EDDH",
      "alert": "OK",
      "vis_m": 7000,
      "fzfg": false,
      "metar_trigger": false,
      "taf_trigger": false,
      "metar": "METAR EDDH 312350Z AUTO 25014G24KT 220V280 7000 OVC012 04/03 Q1008 TEMPO 4500 -DZRA BKN009",
      "taf": "TAF EDDH 312300Z 0100/0206 25015G25KT 9999 FEW008 BKN013"
    },
    {
      "icao": "EDDK",
      "alert": "OK",
      "vis_m": 9999,
      "fzfg": false,
      "metar_trigger": false,
      "taf_trigger": false,
      "metar": "METAR EDDK 312350Z AUTO 25011KT 9999 OVC028 02/M01 Q1018 NOSIG",
      "taf": "TAF EDDK 312300Z 0100/0206 24008KT 9999 BKN025"
    },
    {
      "icao": "EDDN",
      "alert": "OK",
      "vis_m": 9000,
      "fzfg": false,
      "metar_trigger": false,
      "taf_trigger": false,
      "metar": "METAR EDDN 312350Z AUTO 22007KT 9000 SCT016 OVC031 00/M03 Q1017",
      "taf": "TAF EDDN 312300Z 0100/0124 25009KT 9999 BKN015"
    },
    {
      "icao": "EDDS",
      "alert": "OK",
      "vis_m": 9999,
      "fzfg": false,
      "metar_trigger": false,
      "taf_trigger": false,
      "metar": "METAR EDDS 312350Z AUTO 25003KT 210V290 9999 BKN030 M04/M07 Q1019",
      "taf": "TAF EDDS 312300Z 0100/0124 22004KT 9999 FEW025"
    },
    {
      "icao": "EDFH",
      "alert": "OK",
      "vis_m": 9999,
      "fzfg": false,
      "metar_trigger": false,
      "taf_trigger": false,
      "metar": "METAR EDFH 312320Z 26014KT 9999 FEW008 BKN017 M01/M02 Q1017",
      "taf": "TAF EDFH 312300Z 0100/0124 26010KT 6000 BKN005"
    },
    {
      "icao": "EDJA",
      "alert": "OK",
      "vis_m": 9999,
      "fzfg": false,
      "metar_trigger": false,
      "taf_trigger": false,
      "metar": "METAR EDJA 312320Z AUTO 20006KT 9999 // FEW140/// M07/M10 Q1019",
      "taf": "TAF EDJA 311700Z 3118/0103 22007KT CAVOK"
    },
    {
      "icao": "EDLW",
      "alert": "OK",
      "vis_m": 9999,
      "fzfg": false,
      "metar_trigger": false,
      "taf_trigger": false,
      "metar": "METAR EDLW 312320Z AUTO 22012KT 9999 // FEW025/// OVC030/// 02/M00 Q1016",
      "taf": "TAF EDLW 311700Z 3118/0118 23010KT 4000 -DZ OVC007"
    },
    {
      "icao": "EDNY",
      "alert": "OK",
      "vis_m": 9000,
      "fzfg": false,
      "metar_trigger": false,
      "taf_trigger": false,
      "metar": "METAR EDNY 312320Z AUTO 00000KT 9000 // NCD M09/M09 Q1021",
      "taf": "TAF EDNY 311700Z 3118/0103 VRB02KT CAVOK"
    },
    {
      "icao": "EDSB",
      "alert": "OK",
      "vis_m": 9999,
      "fzfg": false,
      "metar_trigger": false,
      "taf_trigger": false,
      "metar": "METAR EDSB 312320Z AUTO 21006KT 9999 SCT019/// OVC035/// M03/M06 Q1022",
      "taf": "TAF EDSB 312300Z 0100/0124 21005KT 9999 FEW040"
    },
    {
      "icao": "EETN",
      "alert": "OK",
      "vis_m": 9999,
      "fzfg": false,
      "metar_trigger": false,
      "taf_trigger": false,
      "metar": "METAR EETN 312350Z 24004KT 9999 BKN040 M10/M13 Q1002",
      "taf": "TAF EETN 312330Z 0100/0124 25005KT 9999 SCT020"
    },
    {
      "icao": "EFTU",
      "alert": "OK",
      "vis_m": 8000,
      "fzfg": false,
      "metar_trigger": false,
      "taf_trigger": false,
      "metar": "METAR EFTU 312350Z AUTO 09002KT 8000 NSC M15/M17 Q1001",
      "taf": "TAF EFTU 312328Z 0100/0124 VRB02KT 4000 BR BKN001"
    },
    {
      "icao": "EGBB",
      "alert": "OK",
      "vis_m": 9999,
      "fzfg": false,
      "metar_trigger": false,
      "taf_trigger": false,
      "metar": "METAR EGBB 312320Z 28008KT 9999 OVC027 03/M01 Q1018",
      "taf": "TAF EGBB 312258Z 0100/0124 26008KT 9999 SCT025"
    },
    {
      "icao": "EGGP",
      "alert": "OK",
      "vis_m": 9999,
      "fzfg": false,
      "metar_trigger": false,
      "taf_trigger": false,
      "metar": "METAR EGGP 312320Z 27018KT 9999 SCT031 03/M02 Q1018",
      "taf": "TAF EGGP 312255Z 0100/0124 26012KT 9999 SCT035"
    },
    {
      "icao": "EGGW",
      "alert": "OK",
      "vis_m": 9999,
      "fzfg": false,
      "metar_trigger": false,
      "taf_trigger": false,
      "metar": "METAR EGGW 312320Z AUTO 27012KT 9999 BKN024 00/M01 Q1018",
      "taf": "TAF EGGW 312303Z 0100/0124 27012KT 9999 SCT028"
    },
    {
      "icao": "EGKK",
      "alert": "OK",
      "vis_m": 9999,
      "fzfg": false,
      "metar_trigger": false,
      "taf_trigger": false,
      "metar": "METAR EGKK 312320Z 23007KT CAVOK M02/M02 Q1020",
      "taf": "TAF EGKK 312253Z 0100/0206 26005KT 9999 FEW030"
    },
    {
      "icao": "EGNM",
      "alert": "OK",
      "vis_m": null,
      "fzfg": false,
      "metar_trigger": false,
      "taf_trigger": false,
      "metar": "",
      "taf": "TAF EGNM 311700Z 3118/0118 28018KT 9999 SCT030"
    },
    {
      "icao": "EGPD",
      "alert": "OK",
      "vis_m": 9999,
      "fzfg": false,
      "metar_trigger": false,
      "taf_trigger": false,
      "metar": "METAR EGPD 312320Z AUTO 29015G25KT 9999 -RA SCT023/// BKN029/// BKN035/// //////TCU 05/02 Q1005 TEMPO SHRA",
      "taf": "TAF EGPD 312256Z 0100/0124 30018G34KT 9999 SCT015"
    },
    {
      "icao": "EGPF",
      "alert": "OK",
      "vis_m": 9999,
      "fzfg": false,
      "metar_trigger": false,
      "taf_trigger": false,
      "metar": "METAR EGPF 312320Z AUTO 26011KT 9999 BKN024/// BKN029/// //////TCU 07/05 Q1011",
      "taf": "TAF EGPF 312256Z 0100/0124 25012KT 9999 SCT025"
    },
    {
      "icao": "EHBK",
      "alert": "OK",
      "vis_m": 5000,
      "fzfg": false,
      "metar_trigger": false,
      "taf_trigger": false,
      "metar": "METAR EHBK 312325Z AUTO 23010KT 200V270 5000 BR FEW009/// OVC021/// 02/00 Q1018",
      "taf": "TAF EHBK 312259Z 0100/0206 24011KT 9999 BKN018"
    },
    {
      "icao": "EHEH",
      "alert": "OK",
      "vis_m": 9999,
      "fzfg": false,
      "metar_trigger": false,
      "taf_trigger": false,
      "metar": "METAR EHEH 312325Z AUTO 22011KT 9999 OVC025 03/00 Q1017 BLU",
      "taf": "TAF EHEH 312319Z 0100/0206 23011KT 9999 OVC025"
    },
    {
      "icao": "EKBI",
      "alert": "OK",
      "vis_m": 6000,
      "fzfg": false,
      "metar_trigger": false,
      "taf_trigger": false,
      "metar": "METAR EKBI 312350Z AUTO 23009KT 6000 BKN013/// 05/04 Q1000",
      "taf": "TAF EKBI 312327Z 0100/0124 25015KT 9999 BKN015"
    },
    {
      "icao": "EKCH",
      "alert": "OK",
      "vis_m": 6000,
      "fzfg": false,
      "metar_trigger": false,
      "taf_trigger": false,
      "metar": "METAR EKCH 312320Z 22008KT 6000 BKN005 02/02 Q1002 BECMG SCT005 BKN020",
      "taf": "TAF EKCH 312336Z 0100/0124 23012KT 6000 SCT005 BKN020"
    },
    {
      "icao": "ENAL",
      "alert": "OK",
      "vis_m": 9999,
      "fzfg": false,
      "metar_trigger": false,
      "taf_trigger": false,
      "metar": "METAR ENAL 312320Z AUTO 25010KT 9999 -RA SCT015/// BKN029/// BKN042/// 04/02 Q0983",
      "taf": "TAF ENAL 312300Z 0100/0109 28008KT 9999 -SHRA FEW005 SCT010 BKN018"
    },
    {
      "icao": "ENBR",
      "alert": "OK",
      "vis_m": 9999,
      "fzfg": false,
      "metar_trigger": false,
      "taf_trigger": false,
      "metar": "METAR ENBR 312320Z 29009G24KT 210V330 9999 -SHRA SCT010CB BKN016 03/02 Q0988 RMK WIND 1200FT 30032G46KT",
      "taf": "TAF ENBR 312300Z 0100/0124 31008KT 9999 -SHRA FEW007 SCT015TCU BKN018"
    },
    {
      "icao": "ENGM",
      "alert": "OK",
      "vis_m": 9999,
      "fzfg": false,
      "metar_trigger": false,
      "taf_trigger": false,
      "metar": "METAR ENGM 312320Z 16006KT 9999 -SN SCT007 BKN011 M02/M03 Q0988",
      "taf": "TAF ENGM 312300Z 0100/0124 15008KT 9999 OVC008"
    },
    {
      "icao": "ENHD",
      "alert": "OK",
      "vis_m": 9999,
      "fzfg": false,
      "metar_trigger": false,
      "taf_trigger": false,
      "metar": "METAR ENHD 312320Z AUTO 29031KT 9999 -RA FEW015/// SCT021/// BKN039/// 05/02 Q0990 RERA",
      "taf": ""
    },
    {
      "icao": "ENTC",
      "alert": "OK",
      "vis_m": 9999,
      "fzfg": false,
      "metar_trigger": false,
      "taf_trigger": false,
      "metar": "METAR ENTC 312320Z AUTO 23007KT 9999 FEW012/// M11/M13 Q1001 RMK WIND 2600FT 16004KT",
      "taf": "TAF ENTC 312300Z 0100/0124 24006KT 9999 FEW010"
    },
    {
      "icao": "ENTO",
      "alert": "OK",
      "vis_m": 2100,
      "fzfg": false,
      "metar_trigger": false,
      "taf_trigger": false,
      "metar": "METAR ENTO 312320Z AUTO 20012KT 2100 DZ BKN004/// BKN005/// OVC007/// 03/03 Q0989 REDZRA",
      "taf": ""
    },
    {
      "icao": "ENVA",
      "alert": "OK",
      "vis_m": 9999,
      "fzfg": false,
      "metar_trigger": false,
      "taf_trigger": false,
      "metar": "METAR ENVA 312320Z 10008KT 9999 FEW051 02/M04 Q0985 RMK WIND 670FT 14011KT",
      "taf": "TAF ENVA 312300Z 0100/0124 10008KT 9999 -SN FEW020 BKN035"
    },
    {
      "icao": "ENZV",
      "alert": "OK",
      "vis_m": 9999,
      "fzfg": false,
      "metar_trigger": false,
      "taf_trigger": false,
      "metar": "METAR ENZV 312320Z 29022KT 9999 VCSH BKN020 07/03 Q0991",
      "taf": "TAF ENZV 312300Z 0100/0124 28020KT 9999 -SHRA FEW010 SCT015CB BKN025"
    },
    {
      "icao": "EPGD",
      "alert": "OK",
      "vis_m": 5000,
      "fzfg": false,
      "metar_trigger": false,
      "taf_trigger": false,
      "metar": "METAR EPGD 312330Z 23005KT 200V260 5000 BR BKN006 M05/M05 Q1005",
      "taf": "TAF EPGD 312330Z 0100/0124 VRB02KT 4000 BR BKN006"
    },
    {
      "icao": "EPKK",
      "alert": "OK",
      "vis_m": 9999,
      "fzfg": false,
      "metar_trigger": false,
      "taf_trigger": false,
      "metar": "METAR EPKK 312330Z 21006KT 9999 OVC010 M02/M05 Q1009",
      "taf": "TAF EPKK 312330Z 0100/0124 24008KT 9999 OVC012"
    },
    {
      "icao": "EPKT",
      "alert": "OK",
      "vis_m": 5000,
      "fzfg": false,
      "metar_trigger": false,
      "taf_trigger": false,
      "metar": "METAR EPKT 312330Z 25006KT 5000 -SN BR BKN003 M03/M04 Q1009",
      "taf": "TAF EPKT 312330Z 0100/0124 24007KT 6000 OVC006"
    },
    {
      "icao": "EPLB",
      "alert": "OK",
      "vis_m": 5000,
      "fzfg": false,
      "metar_trigger": false,
      "taf_trigger": false,
      "metar": "METAR EPLB 312330Z 10007KT 5000 -SN BR BKN007 OVC010 M05/M05 Q1008",
      "taf": "TAF EPLB 312330Z 0100/0124 VRB02KT 5000 BR SCT009 BKN012"
    },
    {
      "icao": "EPMO",
      "alert": "OK",
      "vis_m": 3100,
      "fzfg": false,
      "metar_trigger": false,
      "taf_trigger": false,
      "metar": "METAR EPMO 312330Z 09004KT 060V150 3100 BR OVC008 M04/M04 Q1008",
      "taf": "TAF EPMO 312330Z 0100/0124 VRB02KT 7000 SCT009 BKN015"
    },
    {
      "icao": "EPPO",
      "alert": "OK",
      "vis_m": 4700,
      "fzfg": false,
      "metar_trigger": false,
      "taf_trigger": false,
      "metar": "METAR EPPO 312330Z 26004KT 4700 BR OVC014 M00/M01 Q1007",
      "taf": ""
    },
    {
      "icao": "EPRA",
      "alert": "OK",
      "vis_m": 7000,
      "fzfg": false,
      "metar_trigger": false,
      "taf_trigger": false,
      "metar": "METAR EPRA 312330Z 25006KT 7000 -SN BKN010 OVC016 M03/M04 Q1008",
      "taf": "TAF EPRA 312330Z 0100/0109 24006KT 9999 BKN020"
    },
    {
      "icao": "EPRZ",
      "alert": "OK",
      "vis_m": 9999,
      "fzfg": false,
      "metar_trigger": false,
      "taf_trigger": false,
      "metar": "METAR EPRZ 312330Z 21004KT 9999 BKN023 M04/M07 Q1009",
      "taf": "TAF EPRZ 312330Z 0100/0124 27010KT 9999 OVC020"
    },
    {
      "icao": "EPSC",
      "alert": "OK",
      "vis_m": 6000,
      "fzfg": false,
      "metar_trigger": false,
      "taf_trigger": false,
      "metar": "METAR EPSC 312330Z 14005KT 6000 FEW002 BKN005 M02/M02 Q1006",
      "taf": "TAF EPSC 312330Z 0100/0124 VRB03KT 4000 BR NSC"
    },
    {
      "icao": "EPSY",
      "alert": "OK",
      "vis_m": 400,
      "fzfg": true,
      "metar_trigger": false,
      "taf_trigger": false,
      "metar": "METAR EPSY 312330Z 00000KT 0400 R01/P2000D FZFG BKN026 M15/M17 Q1007",
      "taf": "TAF EPSY 312330Z 0100/0109 VRB02KT 5000 BR SCT014 BKN030"
    },
    {
      "icao": "EPWA",
      "alert": "OK",
      "vis_m": 8000,
      "fzfg": false,
      "metar_trigger": false,
      "taf_trigger": false,
      "metar": "METAR EPWA 312330Z 00000KT 8000 BKN011 M03/M04 Q1008 NOSIG",
      "taf": "TAF EPWA 312330Z 0100/0124 VRB02KT 7000 SCT009 BKN015"
    },
    {
      "icao": "EPWR",
      "alert": "OK",
      "vis_m": 9999,
      "fzfg": false,
      "metar_trigger": false,
      "taf_trigger": false,
      "metar": "METAR EPWR 312330Z 27008KT 9999 -SN FEW006 BKN010 BKN030 01/M00 Q1009",
      "taf": "TAF EPWR 312330Z 0100/0124 25010KT 9999 -SN FEW003 BKN020"
    },
    {
      "icao": "ESGG",
      "alert": "OK",
      "vis_m": 9999,
      "fzfg": false,
      "metar_trigger": false,
      "taf_trigger": false,
      "metar": "METAR ESGG 312320Z 16010KT 9999 BKN004 OVC006 M00/M01 Q0995",
      "taf": "TAF ESGG 312330Z 0100/0124 18010KT 8000 -DZRA OVC007"
    },
    {
      "icao": "ESKN",
      "alert": "OK",
      "vis_m": 9999,
      "fzfg": false,
      "metar_trigger": false,
      "taf_trigger": false,
      "metar": "METAR ESKN 312320Z 14004KT CAVOK M06/M06 Q1000",
      "taf": "TAF ESKN 312330Z 0100/0124 16010KT CAVOK"
    },
    {
      "icao": "ESMS",
      "alert": "OK",
      "vis_m": 5000,
      "fzfg": false,
      "metar_trigger": false,
      "taf_trigger": false,
      "metar": "METAR ESMS 312320Z 20007KT 5000 BR SCT009 M01/M01 Q1002",
      "taf": "TAF ESMS 312327Z 0100/0124 20007KT 9999 SCT008 BKN020"
    },
    {
      "icao": "ESSA",
      "alert": "OK",
      "vis_m": 9999,
      "fzfg": false,
      "metar_trigger": false,
      "taf_trigger": false,
      "metar": "METAR ESSA 312320Z 16006KT 9999 SCT018 M07/M08 Q0999 NOSIG",
      "taf": "TAF ESSA 312330Z 0100/0124 17007KT CAVOK"
    },
    {
      "icao": "EYKA",
      "alert": "OK",
      "vis_m": 3400,
      "fzfg": false,
      "metar_trigger": false,
      "taf_trigger": false,
      "metar": "METAR EYKA 312350Z VRB02KT 3400 FU NSC M13/M14 Q1007",
      "taf": "TAF EYKA 312300Z 0100/0124 VRB04KT 9000 NSC"
    },
    {
      "icao": "EYPA",
      "alert": "OK",
      "vis_m": 9999,
      "fzfg": false,
      "metar_trigger": false,
      "taf_trigger": false,
      "metar": "METAR EYPA 312350Z AUTO 17011KT 9999 BKN067/// M07/M11 Q1005",
      "taf": "TAF EYPA 312300Z 0100/0124 15010KT 9000 NSC"
    },
    {
      "icao": "EYVI",
      "alert": "OK",
      "vis_m": 4100,
      "fzfg": false,
      "metar_trigger": false,
      "taf_trigger": false,
      "metar": "METAR EYVI 312350Z 19003KT 4100 BR NSC M16/M18 Q1006 NOSIG",
      "taf": "TAF EYVI 312300Z 0100/0124 VRB04KT 9000 NSC"
    },
    {
      "icao": "GCFV",
      "alert": "OK",
      "vis_m": 9999,
      "fzfg": false,
      "metar_trigger": false,
      "taf_trigger": false,
      "metar": "METAR GCFV 312330Z AUTO 24004KT CAVOK 14/11 Q1016",
      "taf": "TAF GCFV 312000Z 3121/0121 18003KT 9999 FEW010 TX21/0114Z TN15/0106Z"
    },
    {
      "icao": "GCLP",
      "alert": "OK",
      "vis_m": 9999,
      "fzfg": false,
      "metar_trigger": false,
      "taf_trigger": false,
      "metar": "METAR GCLP 312330Z 21012KT CAVOK 16/13 Q1015 NOSIG",
      "taf": "TAF GCLP 312000Z 3121/0121 19012KT 9999 FEW020 TX21/0114Z TN16/0106Z"
    },
    {
      "icao": "GCTS",
      "alert": "OK",
      "vis_m": 9999,
      "fzfg": false,
      "metar_trigger": false,
      "taf_trigger": false,
      "metar": "METAR GCTS 312330Z 29010KT 9999 FEW025 18/13 Q1016 NOSIG",
      "taf": "TAF GCTS 312000Z 3121/0121 28010KT 9999 FEW020 TX22/0114Z TN16/0106Z"
    },
    {
      "icao": "GMAD",
      "alert": "OK",
      "vis_m": 9999,
      "fzfg": false,
      "metar_trigger": false,
      "taf_trigger": false,
      "metar": "METAR GMAD 312330Z 07004KT CAVOK 12/12 Q1018 NOSIG",
      "taf": "TAF GMAD 312300Z 0100/0206 13003KT CAVOK"
    },
    {
      "icao": "GMMN",
      "alert": "OK",
      "vis_m": 9999,
      "fzfg": false,
      "metar_trigger": false,
      "taf_trigger": false,
      "metar": "METAR GMMN 312330Z 20007KT 9999 SCT010 SCT026 14/13 Q1018 NOSIG",
      "taf": "TAF GMMN 312300Z 0100/0206 20007KT 9999 SCT010 SCT026"
    },
    {
      "icao": "GMMX",
      "alert": "OK",
      "vis_m": 8000,
      "fzfg": false,
      "metar_trigger": false,
      "taf_trigger": false,
      "metar": "METAR GMMX 312330Z VRB02KT 8000 FEW026 13/12 Q1018 NOSIG",
      "taf": "TAF GMMX 312300Z 0100/0206 26008KT 8000 SCT026"
    },
    {
      "icao": "HEGN",
      "alert": "OK",
      "vis_m": 9999,
      "fzfg": false,
      "metar_trigger": false,
      "taf_trigger": false,
      "metar": "METAR HEGN 312300Z 00000KT CAVOK 13/06 Q1015 NOSIG",
      "taf": "TAF HEGN 312300Z 0100/0206 26008KT CAVOK"
    },
    {
      "icao": "HEMA",
      "alert": "OK",
      "vis_m": 9999,
      "fzfg": false,
      "metar_trigger": false,
      "taf_trigger": false,
      "metar": "METAR HEMA 312300Z 24006KT CAVOK 15/10 Q1015 NOSIG",
      "taf": "TAF HEMA 312300Z 0100/0206 24008KT CAVOK"
    },
    {
      "icao": "HESH",
      "alert": "OK",
      "vis_m": 9999,
      "fzfg": false,
      "metar_trigger": false,
      "taf_trigger": false,
      "metar": "METAR HESH 312300Z 22004KT CAVOK 17/08 Q1014 NOSIG",
      "taf": "TAF HESH 312300Z 0100/0206 24008KT CAVOK"
    },
    {
      "icao": "HESX",
      "alert": "OK",
      "vis_m": 9999,
      "fzfg": false,
      "metar_trigger": false,
      "taf_trigger": false,
      "metar": "METAR HESX 312300Z 21008KT CAVOK 12/01 Q1014 NOSIG",
      "taf": "TAF HESX 312300Z 0100/0206 23010KT CAVOK"
    },
    {
      "icao": "LATI",
      "alert": "OK",
      "vis_m": 9999,
      "fzfg": false,
      "metar_trigger": false,
      "taf_trigger": false,
      "metar": "METAR LATI 312350Z VRB01KT CAVOK M05/M09 Q1019 NOSIG",
      "taf": "TAF LATI 312300Z 0100/0124 VRB05KT CAVOK TX09/0112Z TNM07/0105Z"
    },
    {
      "icao": "LBPD",
      "alert": "OK",
      "vis_m": 9999,
      "fzfg": false,
      "metar_trigger": false,
      "taf_trigger": false,
      "metar": "METAR LBPD 312330Z AUTO 27014KT 9999 NCD M02/M12 Q1016",
      "taf": "TAF LBPD 312300Z 0100/0124 28016KT 9999 SCT040"
    },
    {
      "icao": "LBSF",
      "alert": "OK",
      "vis_m": 9999,
      "fzfg": false,
      "metar_trigger": false,
      "taf_trigger": false,
      "metar": "METAR LBSF 312330Z AUTO 28010KT 9999 FEW061/// M06/M11 Q1016 NOSIG",
      "taf": "TAF LBSF 312300Z 0100/0124 28012KT 9999 SCT040"
    },
    {
      "icao": "LBWN",
      "alert": "OK",
      "vis_m": 9999,
      "fzfg": false,
      "metar_trigger": false,
      "taf_trigger": false,
      "metar": "METAR LBWN 312330Z AUTO 26006KT 9999 NSC M03/M08 Q1014 NOSIG",
      "taf": "TAF LBWN 312300Z 0100/0124 27010KT 9999 SCT045"
    },
    {
      "icao": "LCLK",
      "alert": "OK",
      "vis_m": 9999,
      "fzfg": false,
      "metar_trigger": false,
      "taf_trigger": false,
      "metar": "METAR LCLK 312330Z 32006KT 9999 FEW025 14/10 Q1006 NOSIG",
      "taf": "TAF LCLK 312330Z 0100/0200 25009KT 9999 FEW025 SCT050"
    },
    {
      "icao": "LCPH",
      "alert": "OK",
      "vis_m": 9999,
      "fzfg": false,
      "metar_trigger": false,
      "taf_trigger": false,
      "metar": "METAR LCPH 312330Z 31018KT 9999 FEW020 FEW025TCU FEW030CB BKN040 17/10 Q1007 NOSIG",
      "taf": "TAF LCPH 312330Z 0100/0200 29020KT 9999 FEW025TCU FEW030CB SCT040"
    },
    {
      "icao": "LEAL",
      "alert": "OK",
      "vis_m": 9999,
      "fzfg": false,
      "metar_trigger": false,
      "taf_trigger": false,
      "metar": "METAR LEAL 312330Z 36005KT 9999 FEW030 BKN040 10/07 Q1020 NOSIG",
      "taf": "TAF LEAL 312300Z 0100/0124 VRB04KT 9999 BKN035 TX15/0114Z TN07/0106Z"
    },
    {
      "icao": "LEBB",
      "alert": "OK",
      "vis_m": 9999,
      "fzfg": false,
      "metar_trigger": false,
      "taf_trigger": false,
      "metar": "METAR LEBB 312330Z AUTO 10005KT 9999 3000SE NCD 04/02 Q1019",
      "taf": "TAF LEBB 312300Z 0100/0124 13006KT 9999 FEW030 TX13/0114Z TN01/0101Z"
    },
    {
      "icao": "LEBL",
      "alert": "OK",
      "vis_m": 9999,
      "fzfg": false,
      "metar_trigger": false,
      "taf_trigger": false,
      "metar": "METAR LEBL 312330Z 35008KT 9999 SCT025 BKN029 BKN044 07/04 Q1021 NOSIG",
      "taf": "TAF LEBL 312300Z 0100/0124 34009KT 9999 SCT020 TX13/0112Z TN04/0106Z"
    },
    {
      "icao": "LECH",
      "alert": "OK",
      "vis_m": 8000,
      "fzfg": false,
      "metar_trigger": false,
      "taf_trigger": false,
      "metar": "METAR LECH 312330Z AUTO 00000KT 8000 OVC040 07/06 Q1020",
      "taf": ""
    },
    {
      "icao": "LEMD",
      "alert": "OK",
      "vis_m": 9999,
      "fzfg": false,
      "metar_trigger": false,
      "taf_trigger": false,
      "metar": "METAR LEMD 312330Z 35003KT CAVOK M01/M01 Q1019 NOSIG",
      "taf": "TAF LEMD 312300Z 0100/0206 VRB03KT CAVOK TX06/0115Z TNM03/0108Z"
    },
    {
      "icao": "LEMG",
      "alert": "OK",
      "vis_m": 9999,
      "fzfg": false,
      "metar_trigger": false,
      "taf_trigger": false,
      "metar": "METAR LEMG 312330Z 10002KT 9999 SCT024 OVC030 13/10 Q1019 NOSIG",
      "taf": "TAF LEMG 312300Z 0100/0124 30004KT 9999 BKN020 TX17/0114Z TN12/0106Z"
    },
    {
      "icao": "LEVC",
      "alert": "OK",
      "vis_m": 9999,
      "fzfg": false,
      "metar_trigger": false,
      "taf_trigger": false,
      "metar": "METAR LEVC 312330Z 29003KT 9999 BKN028 06/05 Q1021 NOSIG",
      "taf": "TAF LEVC 312300Z 0100/0124 VRB04KT 9999 BKN025 TX15/0114Z TN05/0106Z"
    },
    {
      "icao": "LEXJ",
      "alert": "OK",
      "vis_m": 5000,
      "fzfg": false,
      "metar_trigger": false,
      "taf_trigger": false,
      "metar": "METAR LEXJ 312330Z AUTO 20002KT 5000 1800W BR NCD 03/02 Q1019",
      "taf": "TAF LEXJ 312000Z 3121/0121 22006KT 9999 FEW030 TX11/0114Z TN01/0104Z"
    },
    {
      "icao": "LEZG",
      "alert": "OK",
      "vis_m": 9999,
      "fzfg": false,
      "metar_trigger": false,
      "taf_trigger": false,
      "metar": "METAR LEZG 312330Z 10004KT CAVOK 02/02 Q1021 NOSIG",
      "taf": "TAF LEZG 312300Z 0100/0124 VRB03KT 9999 SCT010 TX09/0114Z TNM00/0106Z"
    },
    {
      "icao": "LEZL",
      "alert": "OK",
      "vis_m": 9999,
      "fzfg": false,
      "metar_trigger": false,
      "taf_trigger": false,
      "metar": "METAR LEZL 312330Z 01003KT 340V070 9999 FEW049 08/07 Q1018 NOSIG",
      "taf": "TAF LEZL 312000Z 3121/0121 02004KT CAVOK TX16/0114Z TN09/0107Z"
    },
    {
      "icao": "LFBD",
      "alert": "OK",
      "vis_m": 500,
      "fzfg": true,
      "metar_trigger": false,
      "taf_trigger": false,
      "metar": "METAR LFBD 312330Z AUTO 11005KT 0500 0450 R23/0500N R05/0700D R29/0600N FZFG VV/// M03/M03 Q1021 TEMPO 0200",
      "taf": "TAF LFBD 312300Z 0100/0206 12005KT 0500 FZFG VV/// TX05/0114Z TNM04/0105Z"
    },
    {
      "icao": "LFLL",
      "alert": "OK",
      "vis_m": 9999,
      "fzfg": false,
      "metar_trigger": false,
      "taf_trigger": false,
      "metar": "METAR LFLL 312330Z 15006KT CAVOK M04/M06 Q1022 NOSIG",
      "taf": "TAF LFLL 312300Z 0100/0206 15005KT CAVOK"
    },
    {
      "icao": "LFLS",
      "alert": "OK",
      "vis_m": 9999,
      "fzfg": false,
      "metar_trigger": false,
      "taf_trigger": false,
      "metar": "METAR LFLS 312330Z AUTO 11004KT CAVOK M08/M09 Q1021",
      "taf": "TAF LFLS 311400Z 3115/0115 VRB02KT CAVOK"
    },
    {
      "icao": "LFMN",
      "alert": "OK",
      "vis_m": 9999,
      "fzfg": false,
      "metar_trigger": false,
      "taf_trigger": false,
      "metar": "METAR LFMN 312330Z 34009KT 9999 FEW050 06/01 Q1019 NOSIG",
      "taf": "TAF LFMN 312000Z 3121/0203 33010KT 9999 BKN050"
    },
    {
      "icao": "LFOB",
      "alert": "OK",
      "vis_m": 3700,
      "fzfg": false,
      "metar_trigger": false,
      "taf_trigger": false,
      "metar": "METAR LFOB 312330Z AUTO 00000KT 3700 0650 R30/1400N R12/P5000 BCFG SCT024 SCT140 M02/M02 Q1022 TEMPO 0800 FG VV///",
      "taf": "TAF LFOB 312300Z 0100/0124 VRB03KT 9999 BKN035"
    },
    {
      "icao": "LFPO",
      "alert": "OK",
      "vis_m": 4000,
      "fzfg": true,
      "metar_trigger": false,
      "taf_trigger": false,
      "metar": "METAR LFPO 312330Z AUTO 22004KT 4000 BR NSC M03/M03 Q1023 TEMPO 0500 FZFG VV///",
      "taf": "TAF LFPO 312300Z 0100/0206 24004KT 4000 BR NSC"
    },
    {
      "icao": "LFSB",
      "alert": "OK",
      "vis_m": 6000,
      "fzfg": false,
      "metar_trigger": false,
      "taf_trigger": false,
      "metar": "METAR LFSB 312330Z AUTO 17003KT 6000 NSC M07/M09 Q1021 NOSIG",
      "taf": "TAF LFSB 312300Z 0100/0124 19003KT CAVOK"
    },
    {
      "icao": "LGAV",
      "alert": "OK",
      "vis_m": 9999,
      "fzfg": false,
      "metar_trigger": false,
      "taf_trigger": false,
      "metar": "METAR LGAV 312320Z 33008KT 9999 BKN025 BKN070 05/M01 Q1015 NOSIG",
      "taf": "TAF LGAV 312300Z 0100/0124 36014KT 9999 BKN025 BKN070"
    },
    {
      "icao": "LGTS",
      "alert": "OK",
      "vis_m": 9999,
      "fzfg": false,
      "metar_trigger": false,
      "taf_trigger": false,
      "metar": "METAR LGTS 312320Z 31020KT 9999 FEW025 02/M09 Q1019 NOSIG",
      "taf": "TAF LGTS 312300Z 0100/0124 34018G30KT 9999 FEW030"
    },
    {
      "icao": "LHBP",
      "alert": "OK",
      "vis_m": 9999,
      "fzfg": false,
      "metar_trigger": false,
      "taf_trigger": false,
      "metar": "METAR LHBP 312330Z 22007KT 9999 BKN008 OVC012 M02/M03 Q1013 REFZRA NOSIG",
      "taf": "TAF LHBP 312315Z 0100/0124 27013KT 9999 SCT010 BKN040"
    },
    {
      "icao": "LHDC",
      "alert": "OK",
      "vis_m": 4900,
      "fzfg": false,
      "metar_trigger": false,
      "taf_trigger": false,
      "metar": "METAR LHDC 312315Z AUTO 22008KT 190V260 4900 -SN BR OVC027 M03/M04 Q1014",
      "taf": "TAF LHDC 311415Z 3115/3124 27005KT CAVOK"
    },
    {
      "icao": "LIBD",
      "alert": "OK",
      "vis_m": 9999,
      "fzfg": false,
      "metar_trigger": false,
      "taf_trigger": false,
      "metar": "METAR LIBD 312320Z 26007KT CAVOK 02/M05 Q1020",
      "taf": "TAF LIBD 312300Z 0100/0124 26007KT 9999 FEW050"
    },
    {
      "icao": "LIBG",
      "alert": "OK",
      "vis_m": null,
      "fzfg": false,
      "metar_trigger": false,
      "taf_trigger": false,
      "metar": "",
      "taf": "TAF LIBG 311700Z 3118/0103 35007KT CAVOK"
    },
    {
      "icao": "LIBP",
      "alert": "OK",
      "vis_m": 9999,
      "fzfg": false,
      "metar_trigger": false,
      "taf_trigger": false,
      "metar": "METAR LIBP 312320Z AUTO 20002KT 9999 NCD M02/M04 Q1021",
      "taf": "TAF LIBP 312300Z 0100/0124 VRB05KT CAVOK"
    },
    {
      "icao": "LIBR",
      "alert": "OK",
      "vis_m": 9999,
      "fzfg": false,
      "metar_trigger": false,
      "taf_trigger": false,
      "metar": "METAR LIBR 312320Z 01015KT CAVOK 06/M04 Q1019",
      "taf": "TAF LIBR 312300Z 0100/0124 35013KT 9999 FEW030"
    },
    {
      "icao": "LICA",
      "alert": "OK",
      "vis_m": 9999,
      "fzfg": false,
      "metar_trigger": false,
      "taf_trigger": false,
      "metar": "METAR LICA 312320Z AUTO 05010KT 9999 NCD 04/M08 Q1019",
      "taf": "TAF LICA 312300Z 0100/0124 08013KT CAVOK"
    },
    {
      "icao": "LICC",
      "alert": "OK",
      "vis_m": 8000,
      "fzfg": false,
      "metar_trigger": false,
      "taf_trigger": false,
      "metar": "METAR LICC 312320Z 08006KT 8000 -RA FEW010 BKN025 10/08 Q1018",
      "taf": "TAF LICC 312300Z 0100/0124 VRB04KT 9999 BKN030"
    },
    {
      "icao": "LICJ",
      "alert": "OK",
      "vis_m": 9999,
      "fzfg": false,
      "metar_trigger": false,
      "taf_trigger": false,
      "metar": "METAR LICJ 312320Z VRB02KT 9999 FEW040 12/07 Q1017",
      "taf": "TAF LICJ 312300Z 0100/0124 08010KT 9999 FEW030"
    },
    {
      "icao": "LIMC",
      "alert": "OK",
      "vis_m": 9999,
      "fzfg": false,
      "metar_trigger": false,
      "taf_trigger": false,
      "metar": "METAR LIMC 312320Z 01005KT CAVOK M02/M03 Q1019 NOSIG",
      "taf": "TAF LIMC 312300Z 0100/0206 VRB04KT 9999 SCT040"
    },
    {
      "icao": "LIME",
      "alert": "OK",
      "vis_m": 9999,
      "fzfg": false,
      "metar_trigger": false,
      "taf_trigger": false,
      "metar": "METAR LIME 312320Z 01004KT CAVOK M00/M02 Q1019 NOSIG",
      "taf": "TAF LIME 312300Z 0100/0124 VRB04KT 9999 SCT040"
    },
    {
      "icao": "LIMF",
      "alert": "OK",
      "vis_m": 9999,
      "fzfg": false,
      "metar_trigger": false,
      "taf_trigger": false,
      "metar": "METAR LIMF 312320Z 33004KT 280V360 CAVOK 01/M02 Q1019",
      "taf": "TAF LIMF 312300Z 0100/0124 VRB04KT 9999 SCT030"
    },
    {
      "icao": "LIMJ",
      "alert": "OK",
      "vis_m": 9999,
      "fzfg": false,
      "metar_trigger": false,
      "taf_trigger": false,
      "metar": "METAR LIMJ 312320Z 05008KT 9999 SCT040 06/M03 Q1019",
      "taf": "TAF LIMJ 312300Z 0100/0124 05007KT 9999 SCT030"
    },
    {
      "icao": "LIPE",
      "alert": "OK",
      "vis_m": 9999,
      "fzfg": false,
      "metar_trigger": false,
      "taf_trigger": false,
      "metar": "METAR LIPE 312320Z 22004KT CAVOK M00/M01 Q1020",
      "taf": "TAF LIPE 312300Z 0100/0124 VRB05KT CAVOK"
    },
    {
      "icao": "LIPH",
      "alert": "OK",
      "vis_m": 9999,
      "fzfg": false,
      "metar_trigger": false,
      "taf_trigger": false,
      "metar": "METAR LIPH 312320Z AUTO 10003KT 9999 NCD M02/M04 Q1020",
      "taf": "TAF LIPH 312300Z 0100/0124 VRB04KT 9999 FEW040"
    },
    {
      "icao": "LIPQ",
      "alert": "OK",
      "vis_m": 9999,
      "fzfg": false,
      "metar_trigger": false,
      "taf_trigger": false,
      "metar": "METAR LIPQ 312320Z AUTO VRB02KT 9999 NCD M03/M06 Q1020",
      "taf": "TAF LIPQ 312300Z 0100/0124 VRB05KT CAVOK"
    },
    {
      "icao": "LIPR",
      "alert": "OK",
      "vis_m": 9999,
      "fzfg": false,
      "metar_trigger": false,
      "taf_trigger": false,
      "metar": "METAR LIPR 312320Z AUTO 21004KT 9999 NCD M02/M03 Q1021",
      "taf": "TAF LIPR 312300Z 0100/0124 VRB05KT CAVOK"
    },
    {
      "icao": "LIPX",
      "alert": "OK",
      "vis_m": 9999,
      "fzfg": false,
      "metar_trigger": false,
      "taf_trigger": false,
      "metar": "METAR LIPX 312320Z 33006KT CAVOK M02/M03 Q1020",
      "taf": "TAF LIPX 312300Z 0100/0124 VRB04KT 9999 SCT050"
    },
    {
      "icao": "LIPY",
      "alert": "OK",
      "vis_m": 9999,
      "fzfg": false,
      "metar_trigger": false,
      "taf_trigger": false,
      "metar": "METAR LIPY 312320Z AUTO 22004KT 9999 NCD M02/M04 Q1020",
      "taf": "TAF LIPY 312300Z 0100/0124 VRB05KT CAVOK"
    },
    {
      "icao": "LIPZ",
      "alert": "OK",
      "vis_m": 9999,
      "fzfg": false,
      "metar_trigger": false,
      "taf_trigger": false,
      "metar": "METAR LIPZ 312320Z 02002KT CAVOK M01/M04 Q1020 NOSIG",
      "taf": "TAF LIPZ 312300Z 0100/0206 VRB05KT CAVOK"
    },
    {
      "icao": "LIRF",
      "alert": "OK",
      "vis_m": 9999,
      "fzfg": false,
      "metar_trigger": false,
      "taf_trigger": false,
      "metar": "METAR LIRF 312320Z 05005KT 9999 FEW040 03/M02 Q1020 NOSIG",
      "taf": "TAF LIRF 312300Z 0100/0206 07007KT 9999 SCT040"
    },
    {
      "icao": "LIRN",
      "alert": "OK",
      "vis_m": 5000,
      "fzfg": false,
      "metar_trigger": false,
      "taf_trigger": false,
      "metar": "METAR LIRN 312320Z 34005KT 5000 BR NSC 01/M07 Q1020 NOSIG",
      "taf": "TAF LIRN 312300Z 0100/0124 VRB04KT CAVOK"
    },
    {
      "icao": "LIRP",
      "alert": "OK",
      "vis_m": 9999,
      "fzfg": false,
      "metar_trigger": false,
      "taf_trigger": false,
      "metar": "METAR LIRP 312315Z 10005KT CAVOK 01/M01 Q1020 NOSIG",
      "taf": "TAF LIRP 312300Z 0100/0124 12007KT CAVOK"
    },
    {
      "icao": "LIRZ",
      "alert": "OK",
      "vis_m": 9999,
      "fzfg": false,
      "metar_trigger": false,
      "taf_trigger": false,
      "metar": "METAR LIRZ 312320Z AUTO VRB02KT 9999 NCD M02/M05 Q1020",
      "taf": "TAF LIRZ 312300Z 0100/0124 VRB03KT 9999 FEW040"
    },
    {
      "icao": "LJLJ",
      "alert": "OK",
      "vis_m": 9999,
      "fzfg": false,
      "metar_trigger": false,
      "taf_trigger": false,
      "metar": "METAR LJLJ 312330Z 29004KT CAVOK M10/M11 Q1017 NOSIG",
      "taf": "TAF LJLJ 312300Z 0100/0200 VRB02KT CAVOK"
    },
    {
      "icao": "LKMT",
      "alert": "OK",
      "vis_m": 9999,
      "fzfg": false,
      "metar_trigger": false,
      "taf_trigger": false,
      "metar": "METAR LKMT 312330Z 23010KT 9999 SCT028 OVC044 M02/M03 Q1011 NOSIG",
      "taf": "TAF LKMT 312300Z 0100/0124 22010KT 9999 BKN030"
    },
    {
      "icao": "LKPR",
      "alert": "OK",
      "vis_m": 9999,
      "fzfg": false,
      "metar_trigger": false,
      "taf_trigger": false,
      "metar": "METAR LKPR 312330Z 23021KT 9999 FEW033 00/M02 Q1011 NOSIG",
      "taf": "TAF LKPR 312300Z 0100/0206 22017KT 9999 SCT030"
    },
    {
      "icao": "LLBG",
      "alert": "OK",
      "vis_m": 9999,
      "fzfg": false,
      "metar_trigger": false,
      "taf_trigger": false,
      "metar": "METAR LLBG 312320Z 18010KT CAVOK 14/05 Q1011 NOSIG",
      "taf": "TAF LLBG 312320Z 0100/0124 17010KT 9999 SCT050"
    },
    {
      "icao": "LMML",
      "alert": "OK",
      "vis_m": 9999,
      "fzfg": false,
      "metar_trigger": false,
      "taf_trigger": false,
      "metar": "METAR LMML 312345Z 14003KT 100V190 9999 FEW010 12/10 Q1017 RESHRA NOSIG",
      "taf": "TAF LMML 312300Z 0100/0124 10012KT 9999 SCT018"
    },
    {
      "icao": "LOWW",
      "alert": "OK",
      "vis_m": 9999,
      "fzfg": false,
      "metar_trigger": false,
      "taf_trigger": false,
      "metar": "METAR LOWW 312320Z 29022KT CAVOK 01/M05 Q1013 NOSIG",
      "taf": "TAF LOWW 312315Z 0100/0206 28025G35KT 9999 BKN030 TX05/0111Z TNM00/0122Z"
    },
    {
      "icao": "LPFR",
      "alert": "OK",
      "vis_m": 9999,
      "fzfg": false,
      "metar_trigger": false,
      "taf_trigger": false,
      "metar": "METAR LPFR 312330Z 05009KT 9999 FEW020 12/09 Q1017",
      "taf": "TAF LPFR 312300Z 0100/0124 07012KT CAVOK"
    },
    {
      "icao": "LPMA",
      "alert": "OK",
      "vis_m": 9999,
      "fzfg": false,
      "metar_trigger": false,
      "taf_trigger": false,
      "metar": "METAR LPMA 312330Z 20023KT 9999 BKN013 19/16 Q1010",
      "taf": "TAF LPMA 312300Z 0100/0124 20022KT 9999 BKN015"
    },
    {
      "icao": "LPPR",
      "alert": "OK",
      "vis_m": 9999,
      "fzfg": false,
      "metar_trigger": false,
      "taf_trigger": false,
      "metar": "METAR LPPR 312330Z 11011KT CAVOK 09/03 Q1017",
      "taf": "TAF LPPR 312300Z 0100/0124 11012KT CAVOK"
    },
    {
      "icao": "LPPS",
      "alert": "OK",
      "vis_m": 9999,
      "fzfg": false,
      "metar_trigger": false,
      "taf_trigger": false,
      "metar": "METAR LPPS 312330Z 17018KT 9999 SCT013 18/16 Q1009",
      "taf": "TAF LPPS 312300Z 0100/0206 19020KT 9999 SCT012 BKN030"
    },
    {
      "icao": "LPPT",
      "alert": "OK",
      "vis_m": 9999,
      "fzfg": false,
      "metar_trigger": false,
      "taf_trigger": false,
      "metar": "METAR LPPT 312330Z 07004KT CAVOK 09/07 Q1016",
      "taf": "TAF LPPT 312300Z 0100/0206 09005KT 9999 FEW012"
    },
    {
      "icao": "LQBK",
      "alert": "OK",
      "vis_m": 9999,
      "fzfg": false,
      "metar_trigger": false,
      "taf_trigger": false,
      "metar": "METAR LQBK 312330Z 19007KT CAVOK M01/M12 Q1018 NOSIG",
      "taf": "TAF LQBK 312300Z 0100/0124 15005KT CAVOK TX07/0114Z TNM02/0105Z"
    },
    {
      "icao": "LQSA",
      "alert": "OK",
      "vis_m": 9999,
      "fzfg": false,
      "metar_trigger": false,
      "taf_trigger": false,
      "metar": "METAR LQSA 312330Z 00000KT CAVOK M10/M12 Q1018",
      "taf": "TAF LQSA 312300Z 0100/0124 29005KT 9999 FEW050 TX02/0112Z TNM10/0103Z"
    },
    {
      "icao": "LQTZ",
      "alert": "OK",
      "vis_m": 9999,
      "fzfg": false,
      "metar_trigger": false,
      "taf_trigger": false,
      "metar": "METAR LQTZ 312330Z 00000KT CAVOK M08/M09 Q1018",
      "taf": "TAF LQTZ 312300Z 0100/0124 24005KT CAVOK TX06/0113Z TNM07/0100Z"
    },
    {
      "icao": "LRBC",
      "alert": "OK",
      "vis_m": 9999,
      "fzfg": false,
      "metar_trigger": false,
      "taf_trigger": false,
      "metar": "METAR LRBC 312330Z 30004KT 220V350 CAVOK M05/M13 Q1013",
      "taf": "TAF LRBC 312300Z 0100/0109 VRB04KT CAVOK"
    },
    {
      "icao": "LRBS",
      "alert": "OK",
      "vis_m": 9999,
      "fzfg": false,
      "metar_trigger": false,
      "taf_trigger": false,
      "metar": "METAR LRBS 312330Z 30004KT CAVOK M05/M10 Q1015 NOSIG",
      "taf": "TAF LRBS 312300Z 0100/0124 VRB04KT CAVOK"
    },
    {
      "icao": "LRBV",
      "alert": "OK",
      "vis_m": 6000,
      "fzfg": false,
      "metar_trigger": false,
      "taf_trigger": false,
      "metar": "METAR LRBV 312330Z AUTO 30004KT 270V330 6000 SG FEW016/// BKN021/// OVC035/// M07/M10 Q1013 REDZ",
      "taf": "TAF LRBV 312000Z 3121/0106 28008KT 9999 SCT025 BKN045"
    },
    {
      "icao": "LRCL",
      "alert": "OK",
      "vis_m": 9999,
      "fzfg": false,
      "metar_trigger": false,
      "taf_trigger": false,
      "metar": "METAR LRCL 312330Z VRB01KT CAVOK M09/M12 Q1014",
      "taf": "TAF LRCL 312300Z 0100/0109 VRB04KT 9999 BKN050"
    },
    {
      "icao": "LRCV",
      "alert": "OK",
      "vis_m": 9999,
      "fzfg": false,
      "metar_trigger": false,
      "taf_trigger": false,
      "metar": "METAR LRCV 312330Z 29006KT CAVOK M07/M09 Q1016",
      "taf": "TAF LRCV 312300Z 0100/0109 30006KT CAVOK"
    },
    {
      "icao": "LRIA",
      "alert": "OK",
      "vis_m": 9999,
      "fzfg": false,
      "metar_trigger": false,
      "taf_trigger": false,
      "metar": "METAR LRIA 312330Z 25003KT 160V310 CAVOK M05/M10 Q1012",
      "taf": "TAF LRIA 312300Z 0100/0109 VRB04KT CAVOK"
    },
    {
      "icao": "LROP",
      "alert": "OK",
      "vis_m": 9999,
      "fzfg": false,
      "metar_trigger": false,
      "taf_trigger": false,
      "metar": "METAR LROP 312330Z 30004KT CAVOK M06/M12 Q1014 NOSIG",
      "taf": "TAF LROP 312300Z 0100/0124 VRB04KT CAVOK"
    },
    {
      "icao": "LRSB",
      "alert": "OK",
      "vis_m": 9999,
      "fzfg": false,
      "metar_trigger": false,
      "taf_trigger": false,
      "metar": "METAR LRSB 312330Z 13004KT CAVOK M09/M12 Q1014",
      "taf": "TAF LRSB 312300Z 0100/0124 VRB04KT 9999 BKN045"
    },
    {
      "icao": "LRSM",
      "alert": "OK",
      "vis_m": 9999,
      "fzfg": false,
      "metar_trigger": false,
      "taf_trigger": false,
      "metar": "METAR LRSM 312330Z AUTO 19006KT 9999 FEW080/// SCT100/// BKN110/// M06/M09 Q1014",
      "taf": ""
    },
    {
      "icao": "LRSV",
      "alert": "OK",
      "vis_m": 9999,
      "fzfg": false,
      "metar_trigger": false,
      "taf_trigger": false,
      "metar": "METAR LRSV 312330Z 26007KT 9999 SCT040 M07/M13 Q1009",
      "taf": "TAF LRSV 312300Z 0100/0109 26008KT 9999 SCT040"
    },
    {
      "icao": "LRTM",
      "alert": "OK",
      "vis_m": 9999,
      "fzfg": false,
      "metar_trigger": false,
      "taf_trigger": false,
      "metar": "METAR LRTM 312330Z AUTO 21003KT 9999 R25////// NCD M09/M11 Q1014",
      "taf": "TAF LRTM 311400Z 3115/3124 28012KT 9999 SCT025 BKN040"
    },
    {
      "icao": "LRTR",
      "alert": "OK",
      "vis_m": 9999,
      "fzfg": false,
      "metar_trigger": false,
      "taf_trigger": false,
      "metar": "METAR LRTR 312330Z VRB01KT 9999 FEW047 M05/M07 Q1017",
      "taf": "TAF LRTR 312300Z 0100/0124 21010KT 9999 BKN045"
    },
    {
      "icao": "LTAC",
      "alert": "OK",
      "vis_m": 9999,
      "fzfg": false,
      "metar_trigger": false,
      "taf_trigger": false,
      "metar": "METAR LTAC 312320Z 02007KT 9999 BKN035 BKN080 M06/M10 Q1007 NOSIG RMK RWY21C 01007KT RWY03L 02006KT RWY21R 36008KT RWY03R 36007KT RWY21L 36006KT",
      "taf": "TAF LTAC 312240Z 0100/0124 36009KT 9999 SCT040 BKN100"
    },
    {
      "icao": "LTFM",
      "alert": "OK",
      "vis_m": 9999,
      "fzfg": false,
      "metar_trigger": false,
      "taf_trigger": false,
      "metar": "METAR LTFM 312320Z 30011KT 9999 FEW030 SCT080 M01/M08 Q1013 NOSIG RMK RWY17L 27009KT RWY34L 29009KT RWY16R 27008KT RWY36 30010KT RWY18 29010G21KT 270V020",
      "taf": "TAF LTFM 312240Z 0100/0206 28012KT 9999 SCT025 BKN090"
    },
    {
      "icao": "LUKK",
      "alert": "OK",
      "vis_m": 9999,
      "fzfg": false,
      "metar_trigger": false,
      "taf_trigger": false,
      "metar": "METAR LUKK 312330Z 30007KT CAVOK M07/M11 Q1012 NOSIG",
      "taf": "TAF LUKK 312309Z 0100/0124 26008KT 9999 SCT035"
    },
    {
      "icao": "LWOH",
      "alert": "OK",
      "vis_m": null,
      "fzfg": false,
      "metar_trigger": false,
      "taf_trigger": false,
      "metar": "",
      "taf": "TAF LWOH 312340Z 0100/0124 33005KT CAVOK"
    },
    {
      "icao": "LWSK",
      "alert": "OK",
      "vis_m": 9999,
      "fzfg": false,
      "metar_trigger": false,
      "taf_trigger": false,
      "metar": "METAR LWSK 312320Z VRB02KT CAVOK M08/M13 Q1020 NOSIG",
      "taf": "TAF LWSK 312340Z 0100/0124 VRB02KT CAVOK"
    },
    {
      "icao": "LYBE",
      "alert": "OK",
      "vis_m": 9999,
      "fzfg": false,
      "metar_trigger": false,
      "taf_trigger": false,
      "metar": "METAR LYBE 312330Z 19007KT CAVOK M03/M08 Q1018 NOSIG",
      "taf": "TAF LYBE 312300Z 0100/0124 22006KT 9999 BKN035 TX06/0112Z TNM04/3124Z"
    },
    {
      "icao": "LYNI",
      "alert": "OK",
      "vis_m": 9999,
      "fzfg": false,
      "metar_trigger": false,
      "taf_trigger": false,
      "metar": "METAR LYNI 312330Z 06003KT 9999 BKN040 BKN067 M03/M06 Q1019 NOSIG",
      "taf": "TAF LYNI 312300Z 0100/0124 18005KT 9999 SCT040 TX02/0113Z TNM06/0106Z"
    },
    {
      "icao": "LYPG",
      "alert": "OK",
      "vis_m": 9999,
      "fzfg": false,
      "metar_trigger": false,
      "taf_trigger": false,
      "metar": "METAR LYPG 312330Z 31006KT CAVOK M03/M13 Q1021 NOSIG",
      "taf": "TAF LYPG 312300Z 0100/0124 34008KT CAVOK TX07/0114Z TNM05/0106Z"
    },
    {
      "icao": "LZIB",
      "alert": "OK",
      "vis_m": 9999,
      "fzfg": false,
      "metar_trigger": false,
      "taf_trigger": false,
      "metar": "METAR LZIB 312330Z 29015KT 250V310 9999 -RASN BKN033 01/M03 Q1013 NOSIG",
      "taf": "TAF LZIB 312315Z 0100/0200 28010KT 9999 BKN033"
    },
    {
      "icao": "LZKZ",
      "alert": "OK",
      "vis_m": 9999,
      "fzfg": false,
      "metar_trigger": false,
      "taf_trigger": false,
      "metar": "METAR LZKZ 312330Z 20007KT 180V240 CAVOK M03/M07 Q1011 NOSIG",
      "taf": ""
    },
    {
      "icao": "LZTT",
      "alert": "OK",
      "vis_m": 9999,
      "fzfg": false,
      "metar_trigger": false,
      "taf_trigger": false,
      "metar": "METAR LZTT 312330Z 27011KT 9999 -SN BKN050 M06/M09 Q1007",
      "taf": "TAF LZTT 312315Z 0100/0200 23008KT 9999 -SN SCT035 BKN050"
    },
    {
      "icao": "OEJN",
      "alert": "OK",
      "vis_m": 9999,
      "fzfg": false,
      "metar_trigger": false,
      "taf_trigger": false,
      "metar": "METAR OEJN 312300Z 00000KT CAVOK 21/14 Q1015 NOSIG",
      "taf": "TAF OEJN 312300Z 0100/0206 VRB03KT CAVOK"
    },
    {
      "icao": "OEMA",
      "alert": "OK",
      "vis_m": 9999,
      "fzfg": false,
      "metar_trigger": false,
      "taf_trigger": false,
      "metar": "METAR OEMA 312300Z 07005KT CAVOK 16/M03 Q1017 NOSIG",
      "taf": "TAF OEMA 312300Z 0100/0206 VRB03KT CAVOK"
    },
    {
      "icao": "OJAI",
      "alert": "OK",
      "vis_m": null,
      "fzfg": false,
      "metar_trigger": false,
      "taf_trigger": false,
      "metar": "",
      "taf": "TAF OJAI 312300Z 0100/0206 24014KT 5000 HZ SCT035"
    },
    {
      "icao": "OMAA",
      "alert": "OK",
      "vis_m": 9999,
      "fzfg": false,
      "metar_trigger": false,
      "taf_trigger": false,
      "metar": "METAR OMAA 312300Z 35005KT 310V050 9999 BKN040 19/11 Q1017 NOSIG",
      "taf": "TAF OMAA 312300Z 0100/0206 22005KT 8000 SCT040"
    },
    {
      "icao": "OMDB",
      "alert": "OK",
      "vis_m": 9999,
      "fzfg": false,
      "metar_trigger": false,
      "taf_trigger": false,
      "metar": "METAR OMDB 312300Z 16003KT 140V200 9999 FEW040 18/10 Q1016 NOSIG",
      "taf": "TAF OMDB 312300Z 0100/0206 18005KT 8000 FEW040"
    },
    {
      "icao": "UAAA",
      "alert": "OK",
      "vis_m": 2100,
      "fzfg": false,
      "metar_trigger": false,
      "taf_trigger": false,
      "metar": "METAR UAAA 312330Z 18002MPS 2100 -SHRA BR SCT005 BKN017CB OVC100 01/00 Q1024 NOSIG RMK QBB170",
      "taf": "TAF UAAA 312302Z 0100/0124 20003MPS 3100 -SHRASN BR BKN005 OVC015CB TX01/0109Z TNM01/0102Z"
    },
    {
      "icao": "UBBB",
      "alert": "OK",
      "vis_m": 9999,
      "fzfg": false,
      "metar_trigger": false,
      "taf_trigger": false,
      "metar": "METAR UBBB 312330Z 31008KT CAVOK 05/03 Q1007 NOSIG",
      "taf": "TAF UBBB 312302Z 0100/0124 32014KT 9999 SCT040 TX07/0110Z TN04/0103Z"
    },
    {
      "icao": "UDSG",
      "alert": "OK",
      "vis_m": 2300,
      "fzfg": false,
      "metar_trigger": false,
      "taf_trigger": false,
      "metar": "METAR UDSG 312330Z 01003KT 2300 -SN BR OVC016 M06/M06 Q1007 NOSIG",
      "taf": "TAF UDSG 312300Z 0100/0124 VRB06KT 2000 BR OVC020"
    },
    {
      "icao": "UDYZ",
      "alert": "OK",
      "vis_m": 900,
      "fzfg": true,
      "metar_trigger": false,
      "taf_trigger": false,
      "metar": "METAR UDYZ 312330Z 26005KT 0900 0750E R08/2000D SHSN FZFG SCT013 OVC024CB M03/M04 Q1010 NOSIG",
      "taf": ""
    },
    {
      "icao": "UGKO",
      "alert": "OK",
      "vis_m": 7000,
      "fzfg": false,
      "metar_trigger": false,
      "taf_trigger": false,
      "metar": "METAR UGKO 312330Z 11006KT 7000 -RA SCT012 OVC036 00/M00 Q1009 NOSIG",
      "taf": "TAF UGKO 312300Z 0100/0124 08006KT 9999 SCT017 OVC040 TX02/0111Z TNM01/0103Z"
    }
  ]
}