{
  "ts_utc": "2026-01-28T16:36:28Z",
  "threshold_m": 150,
  "source": "stations_override.txt (ICAO list) + aviationweather.gov (METAR/TAF raw)",
  "station_count": 159,
  "stations": [
    {
      "icao": "BIKF",
      "alert": "OK",
      "vis_m": 9999,
      "fzfg": false,
      "metar_trigger": false,
      "taf_trigger": false,
      "metar": "METAR BIKF 281630Z 06015KT CAVOK 04/M04 Q0998",
      "taf": "TAF BIKF 281332Z 2815/2915 07020G30KT CAVOK TX04/2815Z TN02/2904Z"
    },
    {
      "icao": "BKPR",
      "alert": "OK",
      "vis_m": 9999,
      "fzfg": false,
      "metar_trigger": false,
      "taf_trigger": false,
      "metar": "METAR BKPR 281630Z 19009KT 9999 BKN050 06/01 Q1000 NOSIG",
      "taf": "TAF BKPR 281130Z 2812/2912 17012KT 9999 BKN050"
    },
    {
      "icao": "EBCI",
      "alert": "OK",
      "vis_m": 800,
      "fzfg": false,
      "metar_trigger": false,
      "taf_trigger": false,
      "metar": "METAR EBCI 281620Z 36005KT 0800 R24/P2000N FG SCT001 OVC002 04/04 Q0995 TEMPO 0400 FG",
      "taf": "TAF EBCI 281101Z 2812/2918 02003KT 1200 BR MIFG SCT002 BKN003"
    },
    {
      "icao": "EDDB",
      "alert": "OK",
      "vis_m": 9999,
      "fzfg": false,
      "metar_trigger": false,
      "taf_trigger": false,
      "metar": "METAR EDDB 281620Z AUTO 08008KT 9999 OVC011 M01/M03 Q1001 TEMPO BKN009",
      "taf": ""
    },
    {
      "icao": "EDDH",
      "alert": "OK",
      "vis_m": 9999,
      "fzfg": false,
      "metar_trigger": false,
      "taf_trigger": false,
      "metar": "METAR EDDH 281620Z AUTO 08011KT 9999 OVC010 01/M01 Q1001 TEMPO OVC009",
      "taf": "TAF EDDH 281100Z 2812/2918 09011KT 9999 OVC013"
    },
    {
      "icao": "EDDK",
      "alert": "OK",
      "vis_m": 7000,
      "fzfg": false,
      "metar_trigger": false,
      "taf_trigger": false,
      "metar": "METAR EDDK 281620Z AUTO 01006KT 7000 -RA OVC005 04/03 Q0994 RESHRA TEMPO 2500 RADZ BKN004",
      "taf": ""
    },
    {
      "icao": "EDDN",
      "alert": "OK",
      "vis_m": 9999,
      "fzfg": false,
      "metar_trigger": false,
      "taf_trigger": false,
      "metar": "METAR EDDN 281620Z AUTO 02006KT 350V050 CAVOK 03/M00 Q0991 NOSIG",
      "taf": "TAF EDDN 281100Z 2812/2912 05005KT CAVOK"
    },
    {
      "icao": "EDDS",
      "alert": "OK",
      "vis_m": 9000,
      "fzfg": false,
      "metar_trigger": false,
      "taf_trigger": false,
      "metar": "METAR EDDS 281620Z AUTO 33006KT 9000 FEW007 BKN047 03/02 Q0990 TEMPO 4000 -RADZ BKN008",
      "taf": "TAF EDDS 281100Z 2812/2912 34003KT 9999 OVC025"
    },
    {
      "icao": "EDFH",
      "alert": "OK",
      "vis_m": 4000,
      "fzfg": false,
      "metar_trigger": false,
      "taf_trigger": false,
      "metar": "METAR EDFH 281620Z 03006KT 4000 -RA BR FEW001 BKN002 02/02 Q0992",
      "taf": "TAF EDFH 281100Z 2812/2912 05005KT 2000 -RADZ OVC004"
    },
    {
      "icao": "EDJA",
      "alert": "OK",
      "vis_m": 8000,
      "fzfg": false,
      "metar_trigger": false,
      "taf_trigger": false,
      "metar": "METAR EDJA 281620Z VRB01KT 8000 BKN008 00/M01 Q0989",
      "taf": "TAF EDJA 281400Z 2815/2824 29004KT 9000 SCT005 OVC010"
    },
    {
      "icao": "EDLW",
      "alert": "OK",
      "vis_m": 6000,
      "fzfg": false,
      "metar_trigger": false,
      "taf_trigger": false,
      "metar": "METAR EDLW 281620Z COR 01007KT 6000 -DZ SCT003 OVC005 01/00 Q0995",
      "taf": ""
    },
    {
      "icao": "EDNY",
      "alert": "OK",
      "vis_m": 5000,
      "fzfg": false,
      "metar_trigger": false,
      "taf_trigger": false,
      "metar": "METAR EDNY 281620Z 05003KT 350V070 5000 BR OVC020 02/01 Q0990",
      "taf": "TAF EDNY 281400Z 2815/2824 VRB03KT 7000 SCT010 BKN015"
    },
    {
      "icao": "EDSB",
      "alert": "OK",
      "vis_m": 5000,
      "fzfg": false,
      "metar_trigger": false,
      "taf_trigger": false,
      "metar": "METAR EDSB 281620Z 02006KT 5000 RA BR FEW006 SCT015 OVC017 04/04 Q0992",
      "taf": ""
    },
    {
      "icao": "EETN",
      "alert": "OK",
      "vis_m": 9999,
      "fzfg": false,
      "metar_trigger": false,
      "taf_trigger": false,
      "metar": "METAR EETN 281620Z 07010KT 9999 OVC014 M07/M09 Q1014 NOSIG",
      "taf": "TAF EETN 281130Z 2812/2912 07012KT 9999 OVC008"
    },
    {
      "icao": "EFTU",
      "alert": "OK",
      "vis_m": 9999,
      "fzfg": false,
      "metar_trigger": false,
      "taf_trigger": false,
      "metar": "METAR EFTU 281620Z AUTO 08007KT 9999 -SHSN OVC011 M11/M13 Q1016",
      "taf": ""
    },
    {
      "icao": "EGBB",
      "alert": "OK",
      "vis_m": 9999,
      "fzfg": false,
      "metar_trigger": false,
      "taf_trigger": false,
      "metar": "METAR EGBB 281620Z 13004KT 9999 FEW020 06/03 Q0994",
      "taf": "TAF EGBB 281101Z 2812/2912 14004KT 9999 FEW025"
    },
    {
      "icao": "EGGP",
      "alert": "OK",
      "vis_m": 9999,
      "fzfg": false,
      "metar_trigger": false,
      "taf_trigger": false,
      "metar": "METAR EGGP 281620Z 11006KT 9999 FEW036 07/03 Q0994",
      "taf": "TAF EGGP 281055Z 2812/2912 12006KT 9999 FEW035"
    },
    {
      "icao": "EGGW",
      "alert": "OK",
      "vis_m": 9999,
      "fzfg": false,
      "metar_trigger": false,
      "taf_trigger": false,
      "metar": "METAR EGGW 281620Z AUTO 12004KT 9999 OVC043 06/04 Q0995",
      "taf": ""
    },
    {
      "icao": "EGKK",
      "alert": "OK",
      "vis_m": 9999,
      "fzfg": false,
      "metar_trigger": false,
      "taf_trigger": false,
      "metar": "METAR EGKK 281620Z 13002KT 9999 FEW023 BKN049 08/05 Q0995",
      "taf": ""
    },
    {
      "icao": "EGNM",
      "alert": "OK",
      "vis_m": 150,
      "fzfg": false,
      "metar_trigger": false,
      "taf_trigger": false,
      "metar": "METAR EGNM 281620Z 06003KT 030V090 0150 R32/0250N FG VV/// 02/02 Q0995",
      "taf": ""
    },
    {
      "icao": "EGPD",
      "alert": "OK",
      "vis_m": 4000,
      "fzfg": false,
      "metar_trigger": false,
      "taf_trigger": false,
      "metar": "METAR EGPD 281620Z 13011KT 4000 RA BKN006 07/05 Q0997 TEMPO 2000 +RA",
      "taf": "TAF EGPD 281053Z 2812/2912 13011KT 9999 BKN010"
    },
    {
      "icao": "EGPF",
      "alert": "OK",
      "vis_m": 9999,
      "fzfg": false,
      "metar_trigger": false,
      "taf_trigger": false,
      "metar": "METAR EGPF 281620Z AUTO 07007KT 9999 FEW049 06/03 Q0995",
      "taf": "TAF EGPF 281056Z 2812/2912 09005KT 9999 SCT040"
    },
    {
      "icao": "EHBK",
      "alert": "OK",
      "vis_m": 1500,
      "fzfg": false,
      "metar_trigger": false,
      "taf_trigger": false,
      "metar": "METAR EHBK 281625Z AUTO 01006KT 320V050 1500 BR OVC001/// 04/04 Q0995 TEMPO 1000",
      "taf": "TAF EHBK 281105Z 2812/2918 01005KT 2000 BR BKN001"
    },
    {
      "icao": "EHEH",
      "alert": "OK",
      "vis_m": null,
      "fzfg": false,
      "metar_trigger": false,
      "taf_trigger": false,
      "metar": "",
      "taf": "TAF EHEH 281143Z 2812/2918 05004KT 3000 BR BKN005 OVC006"
    },
    {
      "icao": "EKBI",
      "alert": "OK",
      "vis_m": 9999,
      "fzfg": false,
      "metar_trigger": false,
      "taf_trigger": false,
      "metar": "METAR EKBI 281620Z AUTO 08015KT 9999 OVC012/// M01/M03 Q1005",
      "taf": "TAF EKBI 281427Z 2815/2915 08015KT 9999 BKN012"
    },
    {
      "icao": "EKCH",
      "alert": "OK",
      "vis_m": 9999,
      "fzfg": false,
      "metar_trigger": false,
      "taf_trigger": false,
      "metar": "METAR EKCH 281620Z AUTO 04014KT 9999 OVC022/// M01/M05 Q1007 NOSIG",
      "taf": "TAF EKCH 281427Z 2815/2915 05015KT 9999 BKN018"
    },
    {
      "icao": "ENAL",
      "alert": "OK",
      "vis_m": 9999,
      "fzfg": false,
      "metar_trigger": false,
      "taf_trigger": false,
      "metar": "METAR ENAL 281620Z 15011KT 9999 BKN023 00/M06 Q1009",
      "taf": "TAF ENAL 281400Z 2815/2824 16006KT 9999 SCT020"
    },
    {
      "icao": "ENBR",
      "alert": "OK",
      "vis_m": 9999,
      "fzfg": false,
      "metar_trigger": false,
      "taf_trigger": false,
      "metar": "METAR ENBR 281620Z 06002KT CAVOK M02/M06 Q1009 NOSIG RMK WIND 1200FT 30003KT",
      "taf": "TAF ENBR 281100Z 2812/2912 14005KT CAVOK"
    },
    {
      "icao": "ENGM",
      "alert": "OK",
      "vis_m": 9999,
      "fzfg": false,
      "metar_trigger": false,
      "taf_trigger": false,
      "metar": "METAR ENGM 281620Z 02007KT 9999 -SN OVC029 M09/M12 Q1015 NOSIG",
      "taf": "TAF ENGM 281100Z 2812/2912 02007KT 9999 -SN BKN025"
    },
    {
      "icao": "ENHD",
      "alert": "OK",
      "vis_m": 9999,
      "fzfg": false,
      "metar_trigger": false,
      "taf_trigger": false,
      "metar": "METAR ENHD 281620Z 10010KT CAVOK M02/M13 Q1009",
      "taf": "TAF ENHD 281400Z 2815/2823 10008KT CAVOK"
    },
    {
      "icao": "ENTC",
      "alert": "OK",
      "vis_m": 9999,
      "fzfg": false,
      "metar_trigger": false,
      "taf_trigger": false,
      "metar": "METAR ENTC 281620Z VRB02KT 9999 BKN009 M06/M08 Q1015 TEMPO BKN012 RMK WIND 2600FT 04004KT",
      "taf": "TAF ENTC 281100Z 2812/2912 22015KT 9999 FEW010 SCT015"
    },
    {
      "icao": "ENTO",
      "alert": "OK",
      "vis_m": 9999,
      "fzfg": false,
      "metar_trigger": false,
      "taf_trigger": false,
      "metar": "METAR ENTO 281620Z 01011KT 9999 -SN OVC028 M07/M10 Q1014 NOSIG",
      "taf": "TAF ENTO 281100Z 2812/2912 02008KT 9999 -SN BKN025"
    },
    {
      "icao": "ENVA",
      "alert": "OK",
      "vis_m": 9999,
      "fzfg": false,
      "metar_trigger": false,
      "taf_trigger": false,
      "metar": "METAR ENVA 281620Z 08006KT CAVOK M10/M17 Q1012 NOSIG RMK WIND 670FT 10009KT",
      "taf": "TAF ENVA 281100Z 2812/2912 10008KT CAVOK"
    },
    {
      "icao": "ENZV",
      "alert": "OK",
      "vis_m": 9999,
      "fzfg": false,
      "metar_trigger": false,
      "taf_trigger": false,
      "metar": "METAR ENZV 281620Z 14007KT 9999 BKN042 M02/M15 Q1009 NOSIG",
      "taf": "TAF ENZV 281100Z 2812/2912 14006KT CAVOK"
    },
    {
      "icao": "EPGD",
      "alert": "OK",
      "vis_m": 7000,
      "fzfg": false,
      "metar_trigger": false,
      "taf_trigger": false,
      "metar": "METAR EPGD 281630Z 04008KT 7000 OVC004 M03/M04 Q1003",
      "taf": "TAF EPGD 281130Z 2812/2912 05008KT 9999 BKN007"
    },
    {
      "icao": "EPKK",
      "alert": "OK",
      "vis_m": 5000,
      "fzfg": false,
      "metar_trigger": false,
      "taf_trigger": false,
      "metar": "METAR EPKK 281630Z 07007KT 5000 BR BKN010 01/M01 Q0998",
      "taf": "TAF EPKK 281430Z 2815/2915 06007KT 9999 BKN040"
    },
    {
      "icao": "EPKT",
      "alert": "OK",
      "vis_m": 5000,
      "fzfg": false,
      "metar_trigger": false,
      "taf_trigger": false,
      "metar": "METAR EPKT 281630Z 05009KT 5000 BR BKN004 00/M01 Q0998",
      "taf": ""
    },
    {
      "icao": "EPLB",
      "alert": "OK",
      "vis_m": 3000,
      "fzfg": false,
      "metar_trigger": false,
      "taf_trigger": false,
      "metar": "METAR EPLB 281630Z 34003KT 3000 BR OVC004 00/M00 Q0999",
      "taf": "TAF EPLB 281130Z 2812/2912 VRB02KT 6000 BKN010"
    },
    {
      "icao": "EPMO",
      "alert": "OK",
      "vis_m": 5000,
      "fzfg": false,
      "metar_trigger": false,
      "taf_trigger": false,
      "metar": "METAR EPMO 281630Z 34005KT 5000 BR BKN022 M00/M01 Q1000",
      "taf": ""
    },
    {
      "icao": "EPPO",
      "alert": "OK",
      "vis_m": 9999,
      "fzfg": false,
      "metar_trigger": false,
      "taf_trigger": false,
      "metar": "METAR EPPO 281630Z 09008KT 9999 OVC013 M00/M03 Q1001",
      "taf": ""
    },
    {
      "icao": "EPRA",
      "alert": "OK",
      "vis_m": 2500,
      "fzfg": false,
      "metar_trigger": false,
      "taf_trigger": false,
      "metar": "METAR EPRA 281630Z 01005KT 2500 BR OVC003 M00/M01 Q0999",
      "taf": ""
    },
    {
      "icao": "EPRZ",
      "alert": "OK",
      "vis_m": 9999,
      "fzfg": false,
      "metar_trigger": false,
      "taf_trigger": false,
      "metar": "METAR EPRZ 281630Z 23002KT 9999 OVC015 03/00 Q0998",
      "taf": ""
    },
    {
      "icao": "EPSC",
      "alert": "OK",
      "vis_m": 5000,
      "fzfg": false,
      "metar_trigger": false,
      "taf_trigger": false,
      "metar": "METAR EPSC 281630Z 05006KT 020V080 5000 BR OVC003 M01/M01 Q1002",
      "taf": ""
    },
    {
      "icao": "EPSY",
      "alert": "OK",
      "vis_m": 6000,
      "fzfg": false,
      "metar_trigger": false,
      "taf_trigger": false,
      "metar": "METAR EPSY 281630Z 01007KT 6000 OVC004 M04/M05 Q1001",
      "taf": "TAF EPSY 281430Z 2815/2824 02008KT 5000 BR OVC005"
    },
    {
      "icao": "EPWA",
      "alert": "OK",
      "vis_m": 9000,
      "fzfg": false,
      "metar_trigger": false,
      "taf_trigger": false,
      "metar": "METAR EPWA 281630Z 02005KT 350V080 9000 BKN008 01/M01 Q1000 TEMPO BKN010",
      "taf": "TAF EPWA 281430Z 2815/2915 35008KT 6000 BKN010"
    },
    {
      "icao": "EPWR",
      "alert": "OK",
      "vis_m": 9999,
      "fzfg": false,
      "metar_trigger": false,
      "taf_trigger": false,
      "metar": "METAR EPWR 281630Z 05006KT 9999 BKN014 01/M01 Q0999",
      "taf": "TAF EPWR 281430Z 2815/2915 08008KT 9999 BKN020"
    },
    {
      "icao": "ESGG",
      "alert": "OK",
      "vis_m": 9999,
      "fzfg": false,
      "metar_trigger": false,
      "taf_trigger": false,
      "metar": "METAR ESGG 281620Z 05007KT CAVOK M05/M09 Q1009",
      "taf": "TAF ESGG 281430Z 2815/2915 07012KT CAVOK"
    },
    {
      "icao": "ESKN",
      "alert": "OK",
      "vis_m": 9999,
      "fzfg": false,
      "metar_trigger": false,
      "taf_trigger": false,
      "metar": "METAR ESKN 281620Z 05010KT 9999 BKN035 M04/M08 Q1014",
      "taf": "TAF ESKN 281430Z 2815/2915 02008KT 9999 BKN035"
    },
    {
      "icao": "ESMS",
      "alert": "OK",
      "vis_m": 9999,
      "fzfg": false,
      "metar_trigger": false,
      "taf_trigger": false,
      "metar": "METAR ESMS 281620Z 06015KT 9999 OVC013 M01/M03 Q1006",
      "taf": "TAF ESMS 281427Z 2815/2915 06014KT 9999 OVC012"
    },
    {
      "icao": "ESSA",
      "alert": "OK",
      "vis_m": 9999,
      "fzfg": false,
      "metar_trigger": false,
      "taf_trigger": false,
      "metar": "METAR ESSA 281620Z 35005KT CAVOK M10/M11 Q1015 NOSIG",
      "taf": "TAF ESSA 281430Z 2815/2915 03010KT 9999 FEW020"
    },
    {
      "icao": "EYKA",
      "alert": "OK",
      "vis_m": 9999,
      "fzfg": false,
      "metar_trigger": false,
      "taf_trigger": false,
      "metar": "METAR EYKA 281620Z 02007KT 340V070 9999 -SN OVC014 M08/M10 Q1003",
      "taf": "TAF EYKA 281100Z 2812/2912 03008KT 5000 SN BR OVC010"
    },
    {
      "icao": "EYPA",
      "alert": "OK",
      "vis_m": 9999,
      "fzfg": false,
      "metar_trigger": false,
      "taf_trigger": false,
      "metar": "METAR EYPA 281620Z 07010KT CAVOK M08/M12 Q1006",
      "taf": "TAF EYPA 281100Z 2812/2912 06011KT 5000 SN BR SCT020"
    },
    {
      "icao": "EYVI",
      "alert": "OK",
      "vis_m": 6000,
      "fzfg": false,
      "metar_trigger": false,
      "taf_trigger": false,
      "metar": "METAR EYVI 281620Z 04009KT 6000 -SN FEW008 BKN031 M06/M08 Q1001 NOSIG",
      "taf": ""
    },
    {
      "icao": "GCFV",
      "alert": "OK",
      "vis_m": 9999,
      "fzfg": false,
      "metar_trigger": false,
      "taf_trigger": false,
      "metar": "METAR GCFV 281630Z 27011KT 260V320 9999 FEW020 BKN025 21/16 Q1021",
      "taf": "TAF GCFV 281400Z 2815/2915 31013KT 9999 FEW020 BKN030 TX23/2914Z TN14/2906Z"
    },
    {
      "icao": "GCLP",
      "alert": "OK",
      "vis_m": 9999,
      "fzfg": false,
      "metar_trigger": false,
      "taf_trigger": false,
      "metar": "METAR GCLP 281630Z VRB06KT 9999 BKN025 20/16 Q1021 NOSIG",
      "taf": "TAF GCLP 281400Z 2815/2915 10004KT 9999 FEW020 BKN030 TX22/2914Z TN15/2906Z"
    },
    {
      "icao": "GCTS",
      "alert": "OK",
      "vis_m": 9999,
      "fzfg": false,
      "metar_trigger": false,
      "taf_trigger": false,
      "metar": "METAR GCTS 281630Z 15006KT 9999 BKN030 21/15 Q1021 NOSIG",
      "taf": "TAF GCTS 281400Z 2815/2915 17007KT 9999 SCT030 TX23/2914Z TN16/2906Z"
    },
    {
      "icao": "GMAD",
      "alert": "OK",
      "vis_m": 6000,
      "fzfg": false,
      "metar_trigger": false,
      "taf_trigger": false,
      "metar": "METAR GMAD 281630Z 25015KT 6000 BKN016 17/16 Q1019 NOSIG",
      "taf": "TAF GMAD 281100Z 2812/2918 28012KT 8000 SCT020 BKN080"
    },
    {
      "icao": "GMMN",
      "alert": "OK",
      "vis_m": 9999,
      "fzfg": false,
      "metar_trigger": false,
      "taf_trigger": false,
      "metar": "METAR GMMN 281630Z 23017KT 9999 BKN020 18/14 Q1017 NOSIG",
      "taf": "TAF GMMN 281100Z 2812/2918 23018KT 9999 SCT016 BKN023"
    },
    {
      "icao": "GMMX",
      "alert": "OK",
      "vis_m": 9999,
      "fzfg": false,
      "metar_trigger": false,
      "taf_trigger": false,
      "metar": "METAR GMMX 281630Z 28009KT 250V310 9999 SCT020 SCT090 19/12 Q1019 NOSIG",
      "taf": "TAF GMMX 281100Z 2812/2918 06006KT 8000 SCT033 SCT100"
    },
    {
      "icao": "HEGN",
      "alert": "OK",
      "vis_m": null,
      "fzfg": false,
      "metar_trigger": false,
      "taf_trigger": false,
      "metar": "",
      "taf": "TAF HEGN 281100Z 2812/2918 34018KT 34018KT 6000 NSC"
    },
    {
      "icao": "HEMA",
      "alert": "OK",
      "vis_m": null,
      "fzfg": false,
      "metar_trigger": false,
      "taf_trigger": false,
      "metar": "",
      "taf": "TAF HEMA 281100Z 2812/2918 36018KT 6000 NSC"
    },
    {
      "icao": "HESH",
      "alert": "OK",
      "vis_m": null,
      "fzfg": false,
      "metar_trigger": false,
      "taf_trigger": false,
      "metar": "",
      "taf": "TAF HESH 281100Z 2812/2918 36012KT 6000 NSC"
    },
    {
      "icao": "HESX",
      "alert": "OK",
      "vis_m": null,
      "fzfg": false,
      "metar_trigger": false,
      "taf_trigger": false,
      "metar": "",
      "taf": "TAF HESX 281100Z 2812/2918 22010KT 9999 SCT020"
    },
    {
      "icao": "LATI",
      "alert": "OK",
      "vis_m": 9999,
      "fzfg": false,
      "metar_trigger": false,
      "taf_trigger": false,
      "metar": "METAR LATI 281620Z 18009KT 150V210 9999 RA BKN045 OVC070 10/07 Q0999 NOSIG",
      "taf": "TAF LATI 281100Z 2812/2912 14012KT 9999 SCT060 BKN080 TX15/2812Z TN06/2905Z"
    },
    {
      "icao": "LBPD",
      "alert": "OK",
      "vis_m": 9999,
      "fzfg": false,
      "metar_trigger": false,
      "taf_trigger": false,
      "metar": "METAR LBPD 281630Z AUTO 00000KT 9999 OVC140/// 09/05 Q1003 NOSIG",
      "taf": "TAF LBPD 281100Z 2812/2912 VRB04KT CAVOK"
    },
    {
      "icao": "LBSF",
      "alert": "OK",
      "vis_m": 9999,
      "fzfg": false,
      "metar_trigger": false,
      "taf_trigger": false,
      "metar": "METAR LBSF 281630Z AUTO VRB02KT 9999 NSC 02/01 Q1002 NOSIG",
      "taf": "TAF LBSF 281100Z 2812/2912 VRB04KT 9999 SCT050"
    },
    {
      "icao": "LBWN",
      "alert": "OK",
      "vis_m": 9999,
      "fzfg": false,
      "metar_trigger": false,
      "taf_trigger": false,
      "metar": "METAR LBWN 281630Z AUTO 11009KT 9999 BKN041/// 06/06 Q1004 NOSIG",
      "taf": "TAF LBWN 281100Z 2812/2912 16010KT 9999 SCT040"
    },
    {
      "icao": "LCLK",
      "alert": "OK",
      "vis_m": 8000,
      "fzfg": false,
      "metar_trigger": false,
      "taf_trigger": false,
      "metar": "METAR LCLK 281630Z 31004KT 8000 FEW025 SCT050 14/12 Q1013 NOSIG",
      "taf": "TAF LCLK 281130Z 2812/2912 20010KT 8000 FEW020 SCT040"
    },
    {
      "icao": "LCPH",
      "alert": "OK",
      "vis_m": 9999,
      "fzfg": false,
      "metar_trigger": false,
      "taf_trigger": false,
      "metar": "METAR LCPH 281630Z 31017KT 9999 FEW030 SCT040 16/10 Q1013 NOSIG",
      "taf": "TAF LCPH 281130Z 2812/2912 24006KT 5000 DU SCT030 SCT040"
    },
    {
      "icao": "LEAL",
      "alert": "OK",
      "vis_m": 9999,
      "fzfg": false,
      "metar_trigger": false,
      "taf_trigger": false,
      "metar": "METAR LEAL 281630Z 28031G47KT 250V320 9999 FEW060 18/02 Q0997 WS R28 NOSIG",
      "taf": ""
    },
    {
      "icao": "LEBB",
      "alert": "OK",
      "vis_m": 9999,
      "fzfg": false,
      "metar_trigger": false,
      "taf_trigger": false,
      "metar": "METAR LEBB 281630Z 29008KT 240V330 9999 -SHRA FEW035TCU SCT048 12/06 Q0997 TEMPO 3000 SHRA",
      "taf": "TAF LEBB 281100Z 2812/2912 22009KT 9999 FEW030 TX10/2816Z TN08/2906Z"
    },
    {
      "icao": "LEBL",
      "alert": "OK",
      "vis_m": 9999,
      "fzfg": false,
      "metar_trigger": false,
      "taf_trigger": false,
      "metar": "METAR LEBL 281630Z 32010KT 290V350 9999 FEW030 11/04 Q0993 NOSIG",
      "taf": "TAF LEBL 281100Z 2812/2912 23008KT 9999 FEW020 TX11/2812Z TN07/2906Z"
    },
    {
      "icao": "LECH",
      "alert": "OK",
      "vis_m": 9999,
      "fzfg": false,
      "metar_trigger": false,
      "taf_trigger": false,
      "metar": "METAR LECH 281630Z AUTO 04007KT 010V070 9999 FEW056 08/02 Q0997",
      "taf": ""
    },
    {
      "icao": "LEMD",
      "alert": "OK",
      "vis_m": 9999,
      "fzfg": false,
      "metar_trigger": false,
      "taf_trigger": false,
      "metar": "METAR LEMD 281630Z 26010KT 220V300 9999 FEW045 BKN060 09/01 Q1001 NOSIG",
      "taf": ""
    },
    {
      "icao": "LEMG",
      "alert": "OK",
      "vis_m": 9999,
      "fzfg": false,
      "metar_trigger": false,
      "taf_trigger": false,
      "metar": "METAR LEMG 281630Z 28007KT 240V310 9999 SCT070 16/09 Q1007 NOSIG",
      "taf": "TAF LEMG 281100Z 2812/2912 29012KT 9999 SCT020 TX19/2814Z TN13/2907Z"
    },
    {
      "icao": "LEVC",
      "alert": "OK",
      "vis_m": 9999,
      "fzfg": false,
      "metar_trigger": false,
      "taf_trigger": false,
      "metar": "METAR LEVC 281630Z 28020KT 9999 FEW030 12/03 Q0998 NOSIG",
      "taf": "TAF LEVC 281100Z 2812/2912 15005KT 9999 FEW030 TX17/2814Z TN09/2907Z"
    },
    {
      "icao": "LEXJ",
      "alert": "OK",
      "vis_m": 9999,
      "fzfg": false,
      "metar_trigger": false,
      "taf_trigger": false,
      "metar": "METAR LEXJ 281630Z 24003KT 190V300 9999 FEW073 12/05 Q0996",
      "taf": "TAF LEXJ 281400Z 2815/2915 20009KT 9999 FEW040 TX16/2914Z TN09/2905Z"
    },
    {
      "icao": "LEZG",
      "alert": "OK",
      "vis_m": 9999,
      "fzfg": false,
      "metar_trigger": false,
      "taf_trigger": false,
      "metar": "METAR LEZG 281630Z 32004KT 280V350 9999 BKN040 07/05 Q0999 NOSIG",
      "taf": "TAF LEZG 281100Z 2812/2912 09009KT 9999 FEW040 TX08/2813Z TN06/2900Z"
    },
    {
      "icao": "LEZL",
      "alert": "OK",
      "vis_m": 9999,
      "fzfg": false,
      "metar_trigger": false,
      "taf_trigger": false,
      "metar": "METAR LEZL 281630Z 23013KT 200V260 9999 FEW045 17/14 Q1007 NOSIG",
      "taf": "TAF LEZL 281400Z 2815/2915 24012KT 9999 SCT020 TX18/2915Z TN14/2907Z"
    },
    {
      "icao": "LFBD",
      "alert": "OK",
      "vis_m": 9999,
      "fzfg": false,
      "metar_trigger": false,
      "taf_trigger": false,
      "metar": "METAR LFBD 281630Z AUTO 08005KT 030V100 9999 SCT024 SCT029 10/06 Q0996 NOSIG",
      "taf": "TAF LFBD 281100Z 2812/2918 VRB03KT 9999 BKN008 TX12/2815Z TN06/2906Z"
    },
    {
      "icao": "LFLL",
      "alert": "OK",
      "vis_m": 8000,
      "fzfg": false,
      "metar_trigger": false,
      "taf_trigger": false,
      "metar": "METAR LFLL 281630Z 32009KT 8000 -RA FEW014 SCT018 OVC025 06/05 Q0994 NOSIG",
      "taf": "TAF LFLL 281100Z 2812/2918 33006KT 9999 BKN016 BKN035"
    },
    {
      "icao": "LFLS",
      "alert": "OK",
      "vis_m": 9999,
      "fzfg": false,
      "metar_trigger": false,
      "taf_trigger": false,
      "metar": "METAR LFLS 281630Z AUTO 00000KT 9999 -RA BKN014 OVC021 04/03 Q0993 TEMPO 4000 RA OVC008",
      "taf": "TAF LFLS 281400Z 2815/2915 VRB05KT 6000 -RA SCT012 OVC020"
    },
    {
      "icao": "LFMN",
      "alert": "OK",
      "vis_m": 9999,
      "fzfg": false,
      "metar_trigger": false,
      "taf_trigger": false,
      "metar": "METAR LFMN 281630Z 02003KT 9999 FEW013 BKN023 10/08 Q0990 NOSIG",
      "taf": "TAF LFMN 281400Z 2815/2921 24010KT 9999 BKN020"
    },
    {
      "icao": "LFOB",
      "alert": "OK",
      "vis_m": 9999,
      "fzfg": false,
      "metar_trigger": false,
      "taf_trigger": false,
      "metar": "METAR LFOB 281630Z AUTO 31004KT CAVOK 05/04 Q0995 TEMPO BKN010 BECMG 3000 BR",
      "taf": "TAF LFOB 281100Z 2812/2912 VRB03KT CAVOK"
    },
    {
      "icao": "LFPO",
      "alert": "OK",
      "vis_m": 9999,
      "fzfg": false,
      "metar_trigger": false,
      "taf_trigger": false,
      "metar": "METAR LFPO 281630Z AUTO 34004KT CAVOK 07/04 Q0995 NOSIG",
      "taf": "TAF LFPO 281100Z 2812/2918 VRB03KT CAVOK"
    },
    {
      "icao": "LFSB",
      "alert": "OK",
      "vis_m": 9999,
      "fzfg": false,
      "metar_trigger": false,
      "taf_trigger": false,
      "metar": "METAR LFSB 281630Z AUTO 26008KT 9999 RA OVC012 04/03 Q0992 TEMPO 4000 -RA",
      "taf": "TAF LFSB 281100Z 2812/2912 32004KT 9999 SCT012 BKN020"
    },
    {
      "icao": "LGAV",
      "alert": "OK",
      "vis_m": 9999,
      "fzfg": false,
      "metar_trigger": false,
      "taf_trigger": false,
      "metar": "METAR LGAV 281620Z VRB02KT 9999 FEW025 14/08 Q1007 NOSIG",
      "taf": "TAF LGAV 281100Z 2812/2912 22010KT 9999 FEW018 SCT070"
    },
    {
      "icao": "LGTS",
      "alert": "OK",
      "vis_m": 9999,
      "fzfg": false,
      "metar_trigger": false,
      "taf_trigger": false,
      "metar": "METAR LGTS 281620Z 10003KT 9999 FEW030 12/04 Q1005 NOSIG",
      "taf": "TAF LGTS 281100Z 2812/2912 15010KT 9999 SCT030"
    },
    {
      "icao": "LHBP",
      "alert": "OK",
      "vis_m": 4500,
      "fzfg": false,
      "metar_trigger": false,
      "taf_trigger": false,
      "metar": "METAR LHBP 281630Z 03004KT 4500 -RA BR BKN004 OVC038 03/02 Q0997 NOSIG",
      "taf": ""
    },
    {
      "icao": "LHDC",
      "alert": "OK",
      "vis_m": 9999,
      "fzfg": false,
      "metar_trigger": false,
      "taf_trigger": false,
      "metar": "METAR LHDC 281615Z AUTO 08006KT 9999 -SHRA BKN045 OVC084 04/03 Q0998 NOSIG",
      "taf": "TAF LHDC 281415Z 2815/2824 13006KT 9999 BKN045 OVC080"
    },
    {
      "icao": "LIBD",
      "alert": "OK",
      "vis_m": 9999,
      "fzfg": false,
      "metar_trigger": false,
      "taf_trigger": false,
      "metar": "METAR LIBD 281620Z 21014KT CAVOK 13/07 Q0996",
      "taf": "TAF LIBD 281100Z 2812/2912 17016KT 9999 SCT040"
    },
    {
      "icao": "LIBG",
      "alert": "OK",
      "vis_m": 9999,
      "fzfg": false,
      "metar_trigger": false,
      "taf_trigger": false,
      "metar": "METAR LIBG 281550Z 20006KT 180V240 CAVOK 13/11 Q0997",
      "taf": "TAF LIBG 281400Z 2815/2824 21012KT 9999 FEW020"
    },
    {
      "icao": "LIBP",
      "alert": "OK",
      "vis_m": 9999,
      "fzfg": false,
      "metar_trigger": false,
      "taf_trigger": false,
      "metar": "METAR LIBP 281620Z AUTO 23016KT 9999 NCD 13/03 Q0991",
      "taf": "TAF LIBP 281100Z 2812/2912 23012KT 9999 SCT080"
    },
    {
      "icao": "LIBR",
      "alert": "OK",
      "vis_m": 9999,
      "fzfg": false,
      "metar_trigger": false,
      "taf_trigger": false,
      "metar": "METAR LIBR 281620Z 21010KT CAVOK 14/10 Q0998",
      "taf": "TAF LIBR 281100Z 2812/2912 18016KT 9999 SCT030"
    },
    {
      "icao": "LICA",
      "alert": "OK",
      "vis_m": 9999,
      "fzfg": false,
      "metar_trigger": false,
      "taf_trigger": false,
      "metar": "METAR LICA 281620Z AUTO 27015KT 9999 BKN051/// BKN180/// 15/10 Q1003",
      "taf": "TAF LICA 281100Z 2812/2912 27016KT 9999 SCT040"
    },
    {
      "icao": "LICC",
      "alert": "OK",
      "vis_m": 9999,
      "fzfg": false,
      "metar_trigger": false,
      "taf_trigger": false,
      "metar": "METAR LICC 281620Z 26022KT 9999 SCT120 16/13 Q1002",
      "taf": "TAF LICC 281100Z 2812/2912 25012KT 9999 SCT030"
    },
    {
      "icao": "LICJ",
      "alert": "OK",
      "vis_m": 9999,
      "fzfg": false,
      "metar_trigger": false,
      "taf_trigger": false,
      "metar": "METAR LICJ 281620Z 21014KT 9999 FEW060 13/08 Q1001",
      "taf": "TAF LICJ 281100Z 2812/2912 23022G32KT 9999 SCT040"
    },
    {
      "icao": "LIMC",
      "alert": "OK",
      "vis_m": 5000,
      "fzfg": false,
      "metar_trigger": false,
      "taf_trigger": false,
      "metar": "METAR LIMC 281620Z 28004KT 250V340 5000 BR SCT004 OVC030 05/05 Q0990 NOSIG",
      "taf": "TAF LIMC 281100Z 2812/2918 36010KT 3000 RA BKN014"
    },
    {
      "icao": "LIME",
      "alert": "OK",
      "vis_m": 9999,
      "fzfg": false,
      "metar_trigger": false,
      "taf_trigger": false,
      "metar": "METAR LIME 281620Z 24002KT 9999 FEW010 BKN035 06/05 Q0990 NOSIG",
      "taf": "TAF LIME 281100Z 2812/2912 VRB04KT 3000 RA BKN014"
    },
    {
      "icao": "LIMF",
      "alert": "OK",
      "vis_m": 9999,
      "fzfg": false,
      "metar_trigger": false,
      "taf_trigger": false,
      "metar": "METAR LIMF 281620Z 13002KT 9999 SCT020 BKN050 06/03 Q0990",
      "taf": "TAF LIMF 281100Z 2812/2912 VRB04KT 7000 FEW040"
    },
    {
      "icao": "LIMJ",
      "alert": "OK",
      "vis_m": 9999,
      "fzfg": false,
      "metar_trigger": false,
      "taf_trigger": false,
      "metar": "METAR LIMJ 281620Z 04006KT 9999 SCT037 BKN046 08/04 Q0991",
      "taf": "TAF LIMJ 281100Z 2812/2912 04015KT 4000 RA BKN014"
    },
    {
      "icao": "LIPE",
      "alert": "OK",
      "vis_m": 8000,
      "fzfg": false,
      "metar_trigger": false,
      "taf_trigger": false,
      "metar": "METAR LIPE 281620Z 27008KT 8000 BKN005 BKN014 08/07 Q0990",
      "taf": ""
    },
    {
      "icao": "LIPH",
      "alert": "OK",
      "vis_m": 9999,
      "fzfg": false,
      "metar_trigger": false,
      "taf_trigger": false,
      "metar": "METAR LIPH 281620Z 05006KT 9999 BKN010 09/09 Q0989",
      "taf": ""
    },
    {
      "icao": "LIPQ",
      "alert": "OK",
      "vis_m": 9999,
      "fzfg": false,
      "metar_trigger": false,
      "taf_trigger": false,
      "metar": "METAR LIPQ 281620Z AUTO 13007KT 9999 RA OVC012/// 11/10 Q0989",
      "taf": "TAF LIPQ 281100Z 2812/2912 12010KT 6000 RA OVC012"
    },
    {
      "icao": "LIPR",
      "alert": "OK",
      "vis_m": 9999,
      "fzfg": false,
      "metar_trigger": false,
      "taf_trigger": false,
      "metar": "METAR LIPR 281620Z AUTO 26004KT 9999 BKN074/// 11/08 Q0989",
      "taf": "TAF LIPR 281100Z 2812/2912 14010KT 8000 SCT040"
    },
    {
      "icao": "LIPX",
      "alert": "OK",
      "vis_m": 8000,
      "fzfg": false,
      "metar_trigger": false,
      "taf_trigger": false,
      "metar": "METAR LIPX 281620Z 30005KT 8000 -RA FEW015 OVC030 07/05 Q0989",
      "taf": ""
    },
    {
      "icao": "LIPY",
      "alert": "OK",
      "vis_m": 9999,
      "fzfg": false,
      "metar_trigger": false,
      "taf_trigger": false,
      "metar": "METAR LIPY 281620Z AUTO 23014KT 9999 BKN095/// 12/06 Q0990",
      "taf": "TAF LIPY 281100Z 2812/2912 14010KT 9999 FEW040 BKN070"
    },
    {
      "icao": "LIPZ",
      "alert": "OK",
      "vis_m": 8000,
      "fzfg": false,
      "metar_trigger": false,
      "taf_trigger": false,
      "metar": "METAR LIPZ 281620Z 18002KT 8000 -RA BKN010 09/08 Q0989 NOSIG",
      "taf": ""
    },
    {
      "icao": "LIRF",
      "alert": "OK",
      "vis_m": 9999,
      "fzfg": false,
      "metar_trigger": false,
      "taf_trigger": false,
      "metar": "METAR LIRF 281620Z 25017KT 9999 BKN035 13/07 Q0994 NOSIG",
      "taf": "TAF LIRF 281100Z 2812/2918 24021G33KT 9999 SCT030"
    },
    {
      "icao": "LIRN",
      "alert": "OK",
      "vis_m": 9999,
      "fzfg": false,
      "metar_trigger": false,
      "taf_trigger": false,
      "metar": "METAR LIRN 281620Z 23011KT 9999 BKN035 13/07 Q0997 NOSIG",
      "taf": "TAF LIRN 281100Z 2812/2912 23018G30KT 9999 SCT030"
    },
    {
      "icao": "LIRP",
      "alert": "OK",
      "vis_m": 9999,
      "fzfg": false,
      "metar_trigger": false,
      "taf_trigger": false,
      "metar": "METAR LIRP 281615Z 25009KT 9999 -RA SCT011 SCT020 10/09 Q0991 NOSIG",
      "taf": "TAF LIRP 281100Z 2812/2912 26010KT 9999 SCT020 SCT040"
    },
    {
      "icao": "LIRZ",
      "alert": "OK",
      "vis_m": 9999,
      "fzfg": false,
      "metar_trigger": false,
      "taf_trigger": false,
      "metar": "METAR LIRZ 281620Z AUTO 15006KT 9999 BKN019/// OVC059/// 08/07 Q0993",
      "taf": "TAF LIRZ 281100Z 2812/2912 20016KT 7000 BKN025"
    },
    {
      "icao": "LJLJ",
      "alert": "OK",
      "vis_m": 5000,
      "fzfg": false,
      "metar_trigger": false,
      "taf_trigger": false,
      "metar": "METAR LJLJ 281630Z 29004KT 5000 -RA BR FEW002 SCT015 BKN030 05/04 Q0991 NOSIG",
      "taf": "TAF LJLJ 281100Z 2812/2912 29005KT 7000 -RA SCT003 BKN020 OVC033"
    },
    {
      "icao": "LKMT",
      "alert": "OK",
      "vis_m": 3500,
      "fzfg": false,
      "metar_trigger": false,
      "taf_trigger": false,
      "metar": "METAR LKMT 281630Z 01005KT 3500 BR BKN016 OVC038 01/M00 Q0997 NOSIG",
      "taf": ""
    },
    {
      "icao": "LKPR",
      "alert": "OK",
      "vis_m": 6000,
      "fzfg": false,
      "metar_trigger": false,
      "taf_trigger": false,
      "metar": "METAR LKPR 281630Z 08010KT 6000 -SG FEW009 BKN012 OVC014 00/M00 Q0995 NOSIG",
      "taf": "TAF LKPR 281400Z 2815/2921 06008KT 6000 BKN008"
    },
    {
      "icao": "LLBG",
      "alert": "OK",
      "vis_m": 9999,
      "fzfg": false,
      "metar_trigger": false,
      "taf_trigger": false,
      "metar": "METAR LLBG 281620Z 11004KT 070V150 9999 FEW033 SCT042 15/11 Q1016 TEMPO 5000 TSRA FEW025CB BKN030",
      "taf": "TAF LLBG 281108Z 2812/2912 22017KT 8000 SCT035"
    },
    {
      "icao": "LMML",
      "alert": "OK",
      "vis_m": 9999,
      "fzfg": false,
      "metar_trigger": false,
      "taf_trigger": false,
      "metar": "METAR LMML 281615Z 23010KT CAVOK 15/12 Q1005 NOSIG",
      "taf": "TAF LMML 281100Z 2812/2912 25011KT 9999 FEW030"
    },
    {
      "icao": "LOWW",
      "alert": "OK",
      "vis_m": 4000,
      "fzfg": false,
      "metar_trigger": false,
      "taf_trigger": false,
      "metar": "METAR LOWW 281620Z 35002KT 4000 BR FEW003 OVC004 01/01 Q0993 TEMPO 2000 BR",
      "taf": ""
    },
    {
      "icao": "LPFR",
      "alert": "OK",
      "vis_m": 4500,
      "fzfg": false,
      "metar_trigger": false,
      "taf_trigger": false,
      "metar": "METAR LPFR 281630Z 25016KT 4500 -RA BR SCT012 BKN030 15/14 Q1008",
      "taf": "TAF LPFR 281100Z 2812/2912 26013KT 9999 SCT025"
    },
    {
      "icao": "LPMA",
      "alert": "OK",
      "vis_m": 9999,
      "fzfg": false,
      "metar_trigger": false,
      "taf_trigger": false,
      "metar": "METAR LPMA 281630Z 04007KT 9999 FEW014 20/14 Q1017",
      "taf": "TAF LPMA 281100Z 2812/2912 VRB05KT 9999 SCT015"
    },
    {
      "icao": "LPPR",
      "alert": "OK",
      "vis_m": 9000,
      "fzfg": false,
      "metar_trigger": false,
      "taf_trigger": false,
      "metar": "METAR LPPR 281630Z 22009KT 200V260 9000 VCSH FEW015 SCT025 13/10 Q1002",
      "taf": "TAF LPPR 281100Z 2812/2912 26012KT 9999 SCT025"
    },
    {
      "icao": "LPPS",
      "alert": "OK",
      "vis_m": 9999,
      "fzfg": false,
      "metar_trigger": false,
      "taf_trigger": false,
      "metar": "METAR LPPS 281630Z 28019KT 9999 SCT011 SCT030 17/16 Q1018",
      "taf": "TAF LPPS 281100Z 2812/2918 27015KT 9999 SCT015 SCT030"
    },
    {
      "icao": "LPPT",
      "alert": "OK",
      "vis_m": 9999,
      "fzfg": false,
      "metar_trigger": false,
      "taf_trigger": false,
      "metar": "METAR LPPT 281630Z 23011KT 9999 FEW012 BKN015 15/12 Q1006",
      "taf": "TAF LPPT 281100Z 2812/2918 27012KT 9999 SCT025"
    },
    {
      "icao": "LQBK",
      "alert": "OK",
      "vis_m": 9999,
      "fzfg": false,
      "metar_trigger": false,
      "taf_trigger": false,
      "metar": "METAR LQBK 281630Z 30004KT 9999 -RA FEW040 BKN047 07/07 Q0992 NOSIG",
      "taf": ""
    },
    {
      "icao": "LQSA",
      "alert": "OK",
      "vis_m": 9999,
      "fzfg": false,
      "metar_trigger": false,
      "taf_trigger": false,
      "metar": "METAR LQSA 281630Z 15016KT 9999 SCT055 10/03 Q0993 TEMPO 15015G25KT",
      "taf": "TAF LQSA 281100Z 2812/2912 15020KT 9999 SCT050 TX12/2814Z TN03/2905Z"
    },
    {
      "icao": "LQTZ",
      "alert": "OK",
      "vis_m": 9999,
      "fzfg": false,
      "metar_trigger": false,
      "taf_trigger": false,
      "metar": "METAR LQTZ 281630Z 10007KT 9999 BKN060 11/04 Q0993",
      "taf": "TAF LQTZ 281100Z 2812/2912 10005KT 9999 SCT060 TX14/2813Z TN02/2905Z"
    },
    {
      "icao": "LRBC",
      "alert": "OK",
      "vis_m": 700,
      "fzfg": false,
      "metar_trigger": false,
      "taf_trigger": false,
      "metar": "METAR LRBC 281630Z VRB02KT 0700 R16/0800N FG VV002 01/01 Q1000",
      "taf": "TAF LRBC 281400Z 2815/2824 17008KT 0200 FG VV001"
    },
    {
      "icao": "LRBS",
      "alert": "OK",
      "vis_m": 9999,
      "fzfg": false,
      "metar_trigger": false,
      "taf_trigger": false,
      "metar": "METAR LRBS 281630Z 00000KT CAVOK 06/05 Q1002 NOSIG",
      "taf": "TAF LRBS 281100Z 2812/2912 24008KT 9999 SCT020"
    },
    {
      "icao": "LRBV",
      "alert": "OK",
      "vis_m": 9999,
      "fzfg": false,
      "metar_trigger": false,
      "taf_trigger": false,
      "metar": "METAR LRBV 281630Z 15004KT CAVOK 05/02 Q0999",
      "taf": "TAF LRBV 281400Z 2815/2824 11007KT CAVOK"
    },
    {
      "icao": "LRCL",
      "alert": "OK",
      "vis_m": 6000,
      "fzfg": false,
      "metar_trigger": false,
      "taf_trigger": false,
      "metar": "METAR LRCL 281630Z 07003KT 6000 BKN004 01/01 Q0999",
      "taf": "TAF LRCL 281400Z 2815/2824 08005KT 9999 OVC005"
    },
    {
      "icao": "LRCV",
      "alert": "OK",
      "vis_m": 350,
      "fzfg": false,
      "metar_trigger": false,
      "taf_trigger": false,
      "metar": "METAR LRCV 281630Z 07006KT 0350 R26/0375N FG BKN001 OVC004 03/03 Q1001",
      "taf": ""
    },
    {
      "icao": "LRIA",
      "alert": "OK",
      "vis_m": 200,
      "fzfg": false,
      "metar_trigger": false,
      "taf_trigger": false,
      "metar": "METAR LRIA 281630Z 09006KT 0200 R14/0600N FG VV002 02/01 Q1001",
      "taf": ""
    },
    {
      "icao": "LROP",
      "alert": "OK",
      "vis_m": 6000,
      "fzfg": false,
      "metar_trigger": false,
      "taf_trigger": false,
      "metar": "METAR LROP 281630Z 27003KT 6000 NSC 05/05 Q1002 BECMG 3000 BR",
      "taf": "TAF LROP 281100Z 2812/2912 24008KT 9999 SCT020"
    },
    {
      "icao": "LRSB",
      "alert": "OK",
      "vis_m": 4000,
      "fzfg": false,
      "metar_trigger": false,
      "taf_trigger": false,
      "metar": "METAR LRSB 281630Z 23004KT 4000 BR NSC 03/03 Q0999",
      "taf": "TAF LRSB 281100Z 2812/2912 VRB04KT 9999 SCT005"
    },
    {
      "icao": "LRSM",
      "alert": "OK",
      "vis_m": 9999,
      "fzfg": false,
      "metar_trigger": false,
      "taf_trigger": false,
      "metar": "METAR LRSM 281630Z VRB02KT CAVOK 05/02 Q0999",
      "taf": "TAF LRSM 281400Z 2815/2824 11005KT 9999 BKN040"
    },
    {
      "icao": "LRSV",
      "alert": "OK",
      "vis_m": 200,
      "fzfg": true,
      "metar_trigger": false,
      "taf_trigger": false,
      "metar": "METAR LRSV 281630Z 11004KT 0200 R34/0550N FZFG VV002 M00/M00 Q0999",
      "taf": "TAF LRSV 281400Z 2815/2824 VRB04KT 0100 FG VV001"
    },
    {
      "icao": "LRTM",
      "alert": "OK",
      "vis_m": 400,
      "fzfg": false,
      "metar_trigger": false,
      "taf_trigger": false,
      "metar": "METAR LRTM 281630Z 22003KT 0400 R07/0650N FG BKN001 OVC004 01/01 Q1000",
      "taf": "TAF LRTM 281400Z 2815/2824 VRB04KT 0300 FG BKN001 OVC005"
    },
    {
      "icao": "LRTR",
      "alert": "OK",
      "vis_m": 9999,
      "fzfg": false,
      "metar_trigger": false,
      "taf_trigger": false,
      "metar": "METAR LRTR 281630Z 11007KT CAVOK 07/04 Q0996 NOSIG",
      "taf": "TAF LRTR 281100Z 2812/2912 11010KT CAVOK"
    },
    {
      "icao": "LTAC",
      "alert": "OK",
      "vis_m": 9999,
      "fzfg": false,
      "metar_trigger": false,
      "taf_trigger": false,
      "metar": "METAR LTAC 281620Z VRB02KT 9999 -SHRA FEW015 BKN030 BKN080 05/04 Q1010 NOSIG RMK RWY21C 00000KT RWY03L 00000KT RWY21R 00000KT RWY03R 00000KT RWY21L VRB01KT",
      "taf": "TAF LTAC 281040Z 2812/2912 VRB02KT 9999 SCT040 BKN100"
    },
    {
      "icao": "LTFM",
      "alert": "OK",
      "vis_m": 9999,
      "fzfg": false,
      "metar_trigger": false,
      "taf_trigger": false,
      "metar": "METAR LTFM 281620Z 21010KT 9999 SCT038 11/08 Q1007 NOSIG RMK RWY17L 21011G21KT 140V220 RWY34L 20009KT RWY16R 21008KT RWY36 20007KT RWY18 21010KT",
      "taf": "TAF LTFM 281040Z 2812/2918 VRB02KT 9999 SCT018 BKN028"
    },
    {
      "icao": "LUKK",
      "alert": "OK",
      "vis_m": 1000,
      "fzfg": false,
      "metar_trigger": false,
      "taf_trigger": false,
      "metar": "METAR LUKK 281630Z 16007KT 1000 0600SW R08/0700N -DZ BR PRFG OVC002 02/02 Q1002 NOSIG",
      "taf": ""
    },
    {
      "icao": "LWOH",
      "alert": "OK",
      "vis_m": 9999,
      "fzfg": false,
      "metar_trigger": false,
      "taf_trigger": false,
      "metar": "METAR LWOH 281620Z VRB02KT 9999 -RA OVC040 07/05 Q1001",
      "taf": "TAF LWOH 281445Z 2815/2915 VRB03KT 9999 -RA BKN040"
    },
    {
      "icao": "LWSK",
      "alert": "OK",
      "vis_m": 9999,
      "fzfg": false,
      "metar_trigger": false,
      "taf_trigger": false,
      "metar": "METAR LWSK 281620Z VRB01KT 9999 FEW006 BKN070 03/02 Q1003 NOSIG",
      "taf": "TAF LWSK 281445Z 2815/2915 VRB02KT 9999 BKN060"
    },
    {
      "icao": "LYBE",
      "alert": "OK",
      "vis_m": 9999,
      "fzfg": false,
      "metar_trigger": false,
      "taf_trigger": false,
      "metar": "METAR LYBE 281630Z 14011KT CAVOK 11/03 Q0995 NOSIG",
      "taf": "TAF LYBE 281100Z 2812/2912 12012KT CAVOK TX14/2912Z TN06/2906Z"
    },
    {
      "icao": "LYNI",
      "alert": "OK",
      "vis_m": 9999,
      "fzfg": false,
      "metar_trigger": false,
      "taf_trigger": false,
      "metar": "METAR LYNI 281630Z 14007KT 120V180 CAVOK 09/00 Q0999 NOSIG",
      "taf": "TAF LYNI 281100Z 2812/2912 13007KT CAVOK TX12/2813Z TN05/2906Z"
    },
    {
      "icao": "LYPG",
      "alert": "OK",
      "vis_m": 3000,
      "fzfg": false,
      "metar_trigger": false,
      "taf_trigger": false,
      "metar": "METAR LYPG 281630Z VRB01KT 3000 RA BR FEW010 BKN040 OVC070 08/08 Q0998 TEMPO 1500",
      "taf": "TAF LYPG 281100Z 2812/2912 16006KT 9999 FEW010 BKN040 OVC070 TX10/2813Z TN05/2905Z"
    },
    {
      "icao": "LZIB",
      "alert": "OK",
      "vis_m": 9999,
      "fzfg": false,
      "metar_trigger": false,
      "taf_trigger": false,
      "metar": "METAR LZIB 281630Z 05011KT 9999 FEW010 SCT026 BKN033 03/02 Q0994 NOSIG",
      "taf": "TAF LZIB 281115Z 2812/2912 06009KT 9999 BKN014 OVC030"
    },
    {
      "icao": "LZKZ",
      "alert": "OK",
      "vis_m": 3500,
      "fzfg": false,
      "metar_trigger": false,
      "taf_trigger": false,
      "metar": "METAR LZKZ 281630Z 34001KT 3500 BR OVC012 01/01 Q0998 NOSIG",
      "taf": "TAF LZKZ 281115Z 2812/2912 VRB02KT 5000 BR BKN014 OVC025"
    },
    {
      "icao": "LZTT",
      "alert": "OK",
      "vis_m": 9999,
      "fzfg": false,
      "metar_trigger": false,
      "taf_trigger": false,
      "metar": "METAR LZTT 281630Z 04004KT 9999 FEW011 BKN020 00/M01 Q0995 NOSIG",
      "taf": ""
    },
    {
      "icao": "OEJN",
      "alert": "OK",
      "vis_m": 9999,
      "fzfg": false,
      "metar_trigger": false,
      "taf_trigger": false,
      "metar": "METAR OEJN 281600Z 33014KT CAVOK 25/15 Q1016 NOSIG",
      "taf": "TAF OEJN 281100Z 2812/2918 30015KT 9999 SCT040"
    },
    {
      "icao": "OEMA",
      "alert": "OK",
      "vis_m": 9999,
      "fzfg": false,
      "metar_trigger": false,
      "taf_trigger": false,
      "metar": "METAR OEMA 281600Z 20015KT CAVOK 24/M05 Q1017 NOSIG",
      "taf": "TAF OEMA 281100Z 2812/2918 25015KT 7000 FEW040"
    },
    {
      "icao": "OJAI",
      "alert": "OK",
      "vis_m": 4000,
      "fzfg": false,
      "metar_trigger": false,
      "taf_trigger": false,
      "metar": "METAR OJAI 281600Z 26012KT 4000 HZ SCT030 10/03 Q1017 NOSIG",
      "taf": "TAF OJAI 281035Z 2812/2918 24014KT 2500 DU SCT035"
    },
    {
      "icao": "OMAA",
      "alert": "OK",
      "vis_m": 9999,
      "fzfg": false,
      "metar_trigger": false,
      "taf_trigger": false,
      "metar": "METAR OMAA 281630Z 02006KT CAVOK 20/14 Q1019 NOSIG",
      "taf": "TAF OMAA 281100Z 2812/2918 21008KT 8000 NSC"
    },
    {
      "icao": "OMDB",
      "alert": "OK",
      "vis_m": 9999,
      "fzfg": false,
      "metar_trigger": false,
      "taf_trigger": false,
      "metar": "METAR OMDB 281630Z 04009KT 010V070 CAVOK 22/14 Q1019 NOSIG",
      "taf": "TAF OMDB 281100Z 2812/2918 34010KT 8000 NSC"
    },
    {
      "icao": "UAAA",
      "alert": "OK",
      "vis_m": 300,
      "fzfg": true,
      "metar_trigger": false,
      "taf_trigger": false,
      "metar": "METAR UAAA 281630Z 22002MPS 170V270 0300 R23L/1000U FZFG VV001 M02/M02 Q1025 NOSIG RMK QBB050",
      "taf": ""
    },
    {
      "icao": "UBBB",
      "alert": "OK",
      "vis_m": 9999,
      "fzfg": false,
      "metar_trigger": false,
      "taf_trigger": false,
      "metar": "METAR UBBB 281630Z 16010KT 9999 BKN024 07/05 Q1017 NOSIG",
      "taf": "TAF UBBB 281058Z 2812/2912 15012KT 8000 SCT012 OVC025 TX07/2812Z TN05/2901Z"
    },
    {
      "icao": "UDSG",
      "alert": "OK",
      "vis_m": 3000,
      "fzfg": false,
      "metar_trigger": false,
      "taf_trigger": false,
      "metar": "METAR UDSG 281630Z 01003KT 3000 BR FEW040 M11/M12 Q1015 NOSIG",
      "taf": "TAF UDSG 281058Z 2812/2912 VRB06KT 3000 BR SCT020"
    },
    {
      "icao": "UDYZ",
      "alert": "OK",
      "vis_m": 3700,
      "fzfg": false,
      "metar_trigger": false,
      "taf_trigger": false,
      "metar": "METAR UDYZ 281630Z 19003KT 3700 BR BKN012 M03/M06 Q1018 NOSIG",
      "taf": "TAF UDYZ 281100Z 2812/2912 VRB04KT 3500 BR BKN010"
    },
    {
      "icao": "UGKO",
      "alert": "OK",
      "vis_m": 9999,
      "fzfg": false,
      "metar_trigger": false,
      "taf_trigger": false,
      "metar": "METAR UGKO 281630Z 10012KT CAVOK 10/M01 Q1009 NOSIG",
      "taf": "TAF UGKO 281100Z 2812/2912 09007KT CAVOK TX16/2911Z TN03/2905Z"
    }
  ]
}