{
  "ts_utc": "2026-01-26T17:49:50Z",
  "threshold_m": 150,
  "source": "stations_override.txt (ICAO list) + aviationweather.gov (METAR/TAF raw)",
  "station_count": 159,
  "stations": [
    {
      "icao": "BIKF",
      "alert": "OK",
      "vis_m": 9999,
      "fzfg": false,
      "metar_trigger": false,
      "taf_trigger": false,
      "metar": "METAR BIKF 261730Z 07027KT CAVOK 05/M02 Q0998",
      "taf": "TAF BIKF 261645Z 2618/2718 08022G32KT 9999 SCT045 TX06/2715Z TN02/2709Z"
    },
    {
      "icao": "BKPR",
      "alert": "OK",
      "vis_m": 9999,
      "fzfg": false,
      "metar_trigger": false,
      "taf_trigger": false,
      "metar": "METAR BKPR 261730Z 30007KT 9999 -RA FEW020 BKN040 07/06 Q0998 TEMPO 5000",
      "taf": "TAF BKPR 261730Z 2618/2718 33008KT 9999 SCT015 BKN030"
    },
    {
      "icao": "EBCI",
      "alert": "OK",
      "vis_m": 2800,
      "fzfg": false,
      "metar_trigger": false,
      "taf_trigger": false,
      "metar": "METAR EBCI 261720Z 08003KT 060V120 2800 BR SCT004 OVC005 01/M01 Q1003 NOSIG",
      "taf": "TAF EBCI 261722Z 2618/2724 14006KT 4000 BR BKN006"
    },
    {
      "icao": "EDDB",
      "alert": "OK",
      "vis_m": 7000,
      "fzfg": false,
      "metar_trigger": false,
      "taf_trigger": false,
      "metar": "METAR EDDB 261720Z AUTO 19005KT 7000 -SN FEW012 BKN026 M01/M02 Q0999 TEMPO 4000 -SN BKN009",
      "taf": "TAF EDDB 261700Z 2618/2718 18005KT 7000 FEW012 BKN020"
    },
    {
      "icao": "EDDH",
      "alert": "OK",
      "vis_m": 9999,
      "fzfg": false,
      "metar_trigger": false,
      "taf_trigger": false,
      "metar": "METAR EDDH 261720Z AUTO 01005KT 330V050 9999 -DZ BKN006 OVC011 01/00 Q1000 TEMPO 2500 SN BKN004",
      "taf": "TAF EDDH 261700Z 2618/2724 36004KT 9999 BKN007"
    },
    {
      "icao": "EDDK",
      "alert": "OK",
      "vis_m": 5000,
      "fzfg": false,
      "metar_trigger": false,
      "taf_trigger": false,
      "metar": "METAR EDDK 261720Z AUTO 26005KT 240V300 5000 BR OVC007 M00/M02 Q1003 NOSIG",
      "taf": "TAF EDDK 261700Z 2618/2724 VRB03KT 4000 BR BKN007"
    },
    {
      "icao": "EDDN",
      "alert": "OK",
      "vis_m": 2400,
      "fzfg": false,
      "metar_trigger": false,
      "taf_trigger": false,
      "metar": "METAR EDDN 261720Z AUTO 29004KT 2400 SN BR FEW001 BKN005 BKN018 M00/M01 Q1001 TEMPO 1200 SN OVC001",
      "taf": "TAF EDDN 261700Z 2618/2718 25005KT 2000 -SN BR OVC003"
    },
    {
      "icao": "EDDS",
      "alert": "OK",
      "vis_m": 9999,
      "fzfg": false,
      "metar_trigger": false,
      "taf_trigger": false,
      "metar": "METAR EDDS 261720Z AUTO 22004KT 180V260 9999 OVC020 04/01 Q1002 NOSIG",
      "taf": "TAF EDDS 261700Z 2618/2718 25005KT 9999 BKN020"
    },
    {
      "icao": "EDFH",
      "alert": "OK",
      "vis_m": 9999,
      "fzfg": false,
      "metar_trigger": false,
      "taf_trigger": false,
      "metar": "METAR EDFH 261720Z 28011KT 9999 BKN015 01/M01 Q1001",
      "taf": "TAF EDFH 261700Z 2618/2718 27010KT 9999 BKN015"
    },
    {
      "icao": "EDJA",
      "alert": "OK",
      "vis_m": 9999,
      "fzfg": false,
      "metar_trigger": false,
      "taf_trigger": false,
      "metar": "METAR EDJA 261720Z 23013KT CAVOK 02/M00 Q1003",
      "taf": "TAF EDJA 261700Z 2618/2703 23012KT 9999 FEW030"
    },
    {
      "icao": "EDLW",
      "alert": "OK",
      "vis_m": 2600,
      "fzfg": false,
      "metar_trigger": false,
      "taf_trigger": false,
      "metar": "METAR EDLW 261720Z 27004KT 230V310 2600 -SN SCT002 OVC004 00/M00 Q1001",
      "taf": "TAF EDLW 261700Z 2618/2718 24005KT 4000 BR BKN005"
    },
    {
      "icao": "EDNY",
      "alert": "OK",
      "vis_m": 9999,
      "fzfg": false,
      "metar_trigger": false,
      "taf_trigger": false,
      "metar": "METAR EDNY 261720Z COR 22009KT 9999 OVC041 05/02 Q1004",
      "taf": "TAF EDNY 261700Z 2618/2703 23007KT 9999 SCT035"
    },
    {
      "icao": "EDSB",
      "alert": "OK",
      "vis_m": 9999,
      "fzfg": false,
      "metar_trigger": false,
      "taf_trigger": false,
      "metar": "METAR EDSB 261720Z 22007KT 9999 FEW031 BKN036 OVC041 06/03 Q1004",
      "taf": "TAF EDSB 261700Z 2618/2718 21007KT 6000 BKN020"
    },
    {
      "icao": "EETN",
      "alert": "OK",
      "vis_m": 9999,
      "fzfg": false,
      "metar_trigger": false,
      "taf_trigger": false,
      "metar": "METAR EETN 261720Z 01003KT CAVOK M07/M09 Q1010 NOSIG",
      "taf": "TAF EETN 261730Z 2618/2718 VRB02KT 9999 SCT015"
    },
    {
      "icao": "EFTU",
      "alert": "OK",
      "vis_m": 9999,
      "fzfg": false,
      "metar_trigger": false,
      "taf_trigger": false,
      "metar": "METAR EFTU 261720Z AUTO 04007KT 360V080 9999 OVC007 M07/M08 Q1012",
      "taf": "TAF EFTU 261736Z 2618/2718 01004KT 9999 BKN006"
    },
    {
      "icao": "EGBB",
      "alert": "OK",
      "vis_m": 6000,
      "fzfg": false,
      "metar_trigger": false,
      "taf_trigger": false,
      "metar": "METAR EGBB 261720Z 12009KT 6000 BKN010 04/02 Q0998",
      "taf": "TAF EGBB 261703Z 2618/2718 12009KT 6000 BKN010"
    },
    {
      "icao": "EGGP",
      "alert": "OK",
      "vis_m": 8000,
      "fzfg": false,
      "metar_trigger": false,
      "taf_trigger": false,
      "metar": "METAR EGGP 261720Z 12012KT 8000 -DZ BKN015 OVC035 04/01 Q0998",
      "taf": "TAF EGGP 261656Z 2618/2718 12010KT 9999 SCT015 BKN020"
    },
    {
      "icao": "EGGW",
      "alert": "OK",
      "vis_m": 4700,
      "fzfg": false,
      "metar_trigger": false,
      "taf_trigger": false,
      "metar": "METAR EGGW 261720Z AUTO 12009KT 4700 HZ OVC007 03/02 Q1000",
      "taf": "TAF EGGW 261705Z 2618/2718 12009KT 6000 BKN010"
    },
    {
      "icao": "EGKK",
      "alert": "OK",
      "vis_m": 7000,
      "fzfg": false,
      "metar_trigger": false,
      "taf_trigger": false,
      "metar": "METAR EGKK 261720Z 10007KT 7000 BKN013 06/04 Q1000",
      "taf": "TAF EGKK 261653Z 2618/2724 11009KT 9999 SCT020"
    },
    {
      "icao": "EGNM",
      "alert": "OK",
      "vis_m": 6000,
      "fzfg": false,
      "metar_trigger": false,
      "taf_trigger": false,
      "metar": "METAR EGNM 261720Z 10010KT 6000 FEW007 BKN009 01/00 Q0999",
      "taf": "TAF EGNM 261657Z 2618/2718 11008KT 6000 SCT007 BKN010"
    },
    {
      "icao": "EGPD",
      "alert": "OK",
      "vis_m": 9999,
      "fzfg": false,
      "metar_trigger": false,
      "taf_trigger": false,
      "metar": "METAR EGPD 261720Z AUTO 14014KT 9999 BKN018 OVC034 05/02 Q1002 TEMPO BKN012",
      "taf": "TAF EGPD 261659Z 2618/2718 13016G28KT 9999 SCT016 BKN030"
    },
    {
      "icao": "EGPF",
      "alert": "OK",
      "vis_m": 9999,
      "fzfg": false,
      "metar_trigger": false,
      "taf_trigger": false,
      "metar": "METAR EGPF 261720Z AUTO 10012KT 9999 OVC025 05/00 Q0997",
      "taf": "TAF EGPF 261702Z 2618/2718 08011KT 9999 FEW018 SCT030"
    },
    {
      "icao": "EHBK",
      "alert": "OK",
      "vis_m": 5000,
      "fzfg": false,
      "metar_trigger": false,
      "taf_trigger": false,
      "metar": "METAR EHBK 261725Z AUTO 24006KT 210V270 5000 BR SCT005/// OVC006/// M01/M01 Q1004 NOSIG",
      "taf": "TAF EHBK 261718Z 2618/2724 30003KT 6000 SCT008"
    },
    {
      "icao": "EHEH",
      "alert": "OK",
      "vis_m": null,
      "fzfg": false,
      "metar_trigger": false,
      "taf_trigger": false,
      "metar": "",
      "taf": "TAF EHEH 261150Z 2612/2718 29006KT 2500 BR BKN007"
    },
    {
      "icao": "EKBI",
      "alert": "OK",
      "vis_m": 9999,
      "fzfg": false,
      "metar_trigger": false,
      "taf_trigger": false,
      "metar": "METAR EKBI 261720Z AUTO 04011KT 9999 OVC010/// M02/M04 Q1005",
      "taf": "TAF EKBI 261727Z 2618/2718 05015KT 9999 BKN018"
    },
    {
      "icao": "EKCH",
      "alert": "OK",
      "vis_m": 1000,
      "fzfg": false,
      "metar_trigger": false,
      "taf_trigger": false,
      "metar": "METAR EKCH 261720Z 05015KT 1000 R22L/P1500N R04L/P1500N R12/P1500N -SN OVC010 M01/M01 Q1004 TEMPO 1500 BKN008",
      "taf": "TAF EKCH 261727Z 2618/2718 05015KT 1200 SN BKN008"
    },
    {
      "icao": "ENAL",
      "alert": "OK",
      "vis_m": 9999,
      "fzfg": false,
      "metar_trigger": false,
      "taf_trigger": false,
      "metar": "METAR ENAL 261720Z 18004KT CAVOK M05/M08 Q1011",
      "taf": "TAF ENAL 261700Z 2618/2703 15005KT CAVOK"
    },
    {
      "icao": "ENBR",
      "alert": "OK",
      "vis_m": 9999,
      "fzfg": false,
      "metar_trigger": false,
      "taf_trigger": false,
      "metar": "METAR ENBR 261720Z 07003KT CAVOK M04/M10 Q1010 NOSIG RMK WIND 1200FT 00000KT",
      "taf": "TAF ENBR 261700Z 2618/2718 07004KT CAVOK"
    },
    {
      "icao": "ENGM",
      "alert": "OK",
      "vis_m": 9999,
      "fzfg": false,
      "metar_trigger": false,
      "taf_trigger": false,
      "metar": "METAR ENGM 261720Z 01002KT CAVOK M14/M16 Q1014 NOSIG",
      "taf": "TAF ENGM 261700Z 2618/2718 36008KT 9999 SCT030"
    },
    {
      "icao": "ENHD",
      "alert": "OK",
      "vis_m": 9999,
      "fzfg": false,
      "metar_trigger": false,
      "taf_trigger": false,
      "metar": "METAR ENHD 261720Z /////KT CAVOK M05/M10 Q1010 RMK WIND RWY 31 VRB02KT",
      "taf": "TAF ENHD 261400Z 2615/2623 12005KT CAVOK"
    },
    {
      "icao": "ENTC",
      "alert": "OK",
      "vis_m": 9999,
      "fzfg": false,
      "metar_trigger": false,
      "taf_trigger": false,
      "metar": "METAR ENTC 261720Z 10003KT 050V150 9999 BKN050 M04/M07 Q1011 NOSIG RMK WIND 2600FT 36017KT",
      "taf": "TAF ENTC 261700Z 2618/2718 18003KT 9999 FEW020 BKN045"
    },
    {
      "icao": "ENTO",
      "alert": "OK",
      "vis_m": 9999,
      "fzfg": false,
      "metar_trigger": false,
      "taf_trigger": false,
      "metar": "METAR ENTO 261720Z 01006KT CAVOK M11/M13 Q1013 NOSIG",
      "taf": "TAF ENTO 261700Z 2618/2718 01008KT CAVOK"
    },
    {
      "icao": "ENVA",
      "alert": "OK",
      "vis_m": 9999,
      "fzfg": false,
      "metar_trigger": false,
      "taf_trigger": false,
      "metar": "METAR ENVA 261720Z 11005KT CAVOK M11/M13 Q1013 NOSIG RMK WIND 670FT 10008KT",
      "taf": "TAF ENVA 261700Z 2618/2718 11008KT CAVOK"
    },
    {
      "icao": "ENZV",
      "alert": "OK",
      "vis_m": 9999,
      "fzfg": false,
      "metar_trigger": false,
      "taf_trigger": false,
      "metar": "METAR ENZV 261720Z VRB02KT CAVOK M05/M13 Q1010 NOSIG",
      "taf": "TAF ENZV 261700Z 2618/2718 13006KT CAVOK"
    },
    {
      "icao": "EPGD",
      "alert": "OK",
      "vis_m": 3600,
      "fzfg": false,
      "metar_trigger": false,
      "taf_trigger": false,
      "metar": "METAR EPGD 261730Z 11006KT 3600 BR OVC003 M03/M04 Q1001",
      "taf": "TAF EPGD 261730Z 2618/2718 11004KT 2500 BR OVC003"
    },
    {
      "icao": "EPKK",
      "alert": "OK",
      "vis_m": 5000,
      "fzfg": false,
      "metar_trigger": false,
      "taf_trigger": false,
      "metar": "METAR EPKK 261730Z 31004KT 5000 BR NSC 01/M00 Q1001",
      "taf": "TAF EPKK 261730Z 2618/2718 25004KT 6000 NSC"
    },
    {
      "icao": "EPKT",
      "alert": "OK",
      "vis_m": 3900,
      "fzfg": false,
      "metar_trigger": false,
      "taf_trigger": false,
      "metar": "METAR EPKT 261730Z 27004KT 3900 MIFG BR NSC 00/M00 Q1001",
      "taf": "TAF EPKT 261730Z 2618/2718 25003KT 4000 BR NSC"
    },
    {
      "icao": "EPLB",
      "alert": "OK",
      "vis_m": 9999,
      "fzfg": false,
      "metar_trigger": false,
      "taf_trigger": false,
      "metar": "METAR EPLB 261730Z 12006KT 9999 FEW008 01/01 Q1002",
      "taf": "TAF EPLB 261730Z 2618/2718 VRB03KT 9999 BKN035"
    },
    {
      "icao": "EPMO",
      "alert": "OK",
      "vis_m": 5000,
      "fzfg": false,
      "metar_trigger": false,
      "taf_trigger": false,
      "metar": "METAR EPMO 261730Z 09002KT 5000 BR FEW011 SCT019 00/M00 Q1001",
      "taf": "TAF EPMO 261730Z 2618/2718 VRB02KT 4000 BR SCT012 BKN020"
    },
    {
      "icao": "EPPO",
      "alert": "OK",
      "vis_m": 800,
      "fzfg": false,
      "metar_trigger": false,
      "taf_trigger": false,
      "metar": "METAR EPPO 261730Z 12003KT 0800 R28/P2000N FG OVC001 01/00 Q1000",
      "taf": "TAF EPPO 261730Z 2618/2718 11004KT 0200 FG OVC001"
    },
    {
      "icao": "EPRA",
      "alert": "OK",
      "vis_m": 9999,
      "fzfg": false,
      "metar_trigger": false,
      "taf_trigger": false,
      "metar": "METAR EPRA 261730Z 16004KT 140V200 CAVOK 02/00 Q1001",
      "taf": "TAF EPRA 261730Z 2618/2703 17006KT 8000 BKN040"
    },
    {
      "icao": "EPRZ",
      "alert": "OK",
      "vis_m": 7000,
      "fzfg": false,
      "metar_trigger": false,
      "taf_trigger": false,
      "metar": "METAR EPRZ 261730Z 07005KT 7000 -RA BKN033 02/00 Q1001",
      "taf": "TAF EPRZ 261730Z 2618/2718 06004KT 9999 BKN040"
    },
    {
      "icao": "EPSC",
      "alert": "OK",
      "vis_m": 2500,
      "fzfg": false,
      "metar_trigger": false,
      "taf_trigger": false,
      "metar": "METAR EPSC 261730Z 11007KT 2500 BR OVC003 M01/M01 Q1000",
      "taf": "TAF EPSC 261730Z 2618/2718 12004KT 2000 BR OVC003"
    },
    {
      "icao": "EPSY",
      "alert": "OK",
      "vis_m": 3200,
      "fzfg": false,
      "metar_trigger": false,
      "taf_trigger": false,
      "metar": "METAR EPSY 261730Z VRB02KT 3200 BR SCT001 OVC002 M02/M02 Q1001",
      "taf": "TAF EPSY 261730Z 2618/2703 10004KT 3000 BR OVC002"
    },
    {
      "icao": "EPWA",
      "alert": "OK",
      "vis_m": 9999,
      "fzfg": false,
      "metar_trigger": false,
      "taf_trigger": false,
      "metar": "METAR EPWA 261730Z 12005KT 9999 FEW019 01/M00 Q1001 NOSIG",
      "taf": "TAF EPWA 261730Z 2618/2718 VRB02KT 8000 SCT012 BKN020"
    },
    {
      "icao": "EPWR",
      "alert": "OK",
      "vis_m": 9999,
      "fzfg": false,
      "metar_trigger": false,
      "taf_trigger": false,
      "metar": "METAR EPWR 261730Z 26002KT 9999 BKN040 03/M01 Q0999",
      "taf": "TAF EPWR 261730Z 2618/2718 26003KT 9999 BKN040"
    },
    {
      "icao": "ESGG",
      "alert": "OK",
      "vis_m": 9999,
      "fzfg": false,
      "metar_trigger": false,
      "taf_trigger": false,
      "metar": "METAR ESGG 261720Z 04009KT 9999 OVC021 M05/M08 Q1008",
      "taf": "TAF ESGG 261730Z 2618/2718 05010KT 9999 OVC020"
    },
    {
      "icao": "ESKN",
      "alert": "OK",
      "vis_m": 9999,
      "fzfg": false,
      "metar_trigger": false,
      "taf_trigger": false,
      "metar": "METAR ESKN 261720Z 01006KT 330V050 CAVOK M07/M09 Q1012",
      "taf": "TAF ESKN 261730Z 2618/2718 02006KT CAVOK"
    },
    {
      "icao": "ESMS",
      "alert": "OK",
      "vis_m": 3500,
      "fzfg": false,
      "metar_trigger": false,
      "taf_trigger": false,
      "metar": "METAR ESMS 261720Z 06012KT 3500 -SN SCT008 OVC012 M00/M01 Q1003",
      "taf": "TAF ESMS 261727Z 2618/2718 06012KT 1200 SN BKN008"
    },
    {
      "icao": "ESSA",
      "alert": "OK",
      "vis_m": 9999,
      "fzfg": false,
      "metar_trigger": false,
      "taf_trigger": false,
      "metar": "METAR ESSA 261720Z 33006KT 9999 SCT007 BKN012 M07/M10 Q1013 TEMPO BKN016",
      "taf": "TAF ESSA 261730Z 2618/2718 31005KT 9999 BKN016"
    },
    {
      "icao": "EYKA",
      "alert": "OK",
      "vis_m": 4600,
      "fzfg": false,
      "metar_trigger": false,
      "taf_trigger": false,
      "metar": "METAR EYKA 261720Z 09006KT 4600 -FZRA BR OVC007 M04/M05 Q1006",
      "taf": "TAF EYKA 261709Z 2618/2718 VRB04KT 3000 -FZRA -SN OVC005"
    },
    {
      "icao": "EYPA",
      "alert": "OK",
      "vis_m": 6000,
      "fzfg": false,
      "metar_trigger": false,
      "taf_trigger": false,
      "metar": "METAR EYPA 261720Z 07009KT 040V100 6000 -SN BKN022 OVC032 M06/M09 Q1006",
      "taf": "TAF EYPA 261708Z 2618/2718 07012KT 3000 SN BKN005 OVC010"
    },
    {
      "icao": "EYVI",
      "alert": "OK",
      "vis_m": 5000,
      "fzfg": false,
      "metar_trigger": false,
      "taf_trigger": false,
      "metar": "METAR EYVI 261720Z 13008KT 5000 -FZRA BR BKN005 M05/M06 Q1005 NOSIG",
      "taf": "TAF EYVI 261710Z 2618/2718 VRB04KT 3000 -FZRA SN OVC005"
    },
    {
      "icao": "GCFV",
      "alert": "OK",
      "vis_m": 9999,
      "fzfg": false,
      "metar_trigger": false,
      "taf_trigger": false,
      "metar": "METAR GCFV 261730Z 14004KT 9999 FEW035 18/10 Q1023",
      "taf": "TAF GCFV 261400Z 2615/2715 27005KT CAVOK TX22/2714Z TN12/2706Z"
    },
    {
      "icao": "GCLP",
      "alert": "OK",
      "vis_m": 9999,
      "fzfg": false,
      "metar_trigger": false,
      "taf_trigger": false,
      "metar": "METAR GCLP 261730Z 14003KT 070V190 9999 BKN035 18/11 Q1023 NOSIG",
      "taf": "TAF GCLP 261400Z 2615/2715 13005KT 9999 SCT035 TX22/2714Z TN12/2706Z"
    },
    {
      "icao": "GCTS",
      "alert": "OK",
      "vis_m": 9999,
      "fzfg": false,
      "metar_trigger": false,
      "taf_trigger": false,
      "metar": "METAR GCTS 261730Z 25012KT 9999 SCT035 19/10 Q1023 NOSIG",
      "taf": "TAF GCTS 261400Z 2615/2715 22010KT 9999 SCT035 TX22/2714Z TN14/2706Z"
    },
    {
      "icao": "GMAD",
      "alert": "OK",
      "vis_m": 9999,
      "fzfg": false,
      "metar_trigger": false,
      "taf_trigger": false,
      "metar": "METAR GMAD 261730Z 26006KT 220V280 9999 FEW020 17/13 Q1020 NOSIG",
      "taf": "TAF GMAD 261700Z 2618/2724 20008KT 8000 NSC"
    },
    {
      "icao": "GMMN",
      "alert": "OK",
      "vis_m": 9999,
      "fzfg": false,
      "metar_trigger": false,
      "taf_trigger": false,
      "metar": "METAR GMMN 261730Z 23006KT 9999 BKN026 16/13 Q1020 NOSIG",
      "taf": "TAF GMMN 261700Z 2618/2724 22008KT 9999 BKN026"
    },
    {
      "icao": "GMMX",
      "alert": "OK",
      "vis_m": 9999,
      "fzfg": false,
      "metar_trigger": false,
      "taf_trigger": false,
      "metar": "METAR GMMX 261730Z 36003KT 320V060 CAVOK 17/08 Q1021 NOSIG",
      "taf": "TAF GMMX 261700Z 2618/2724 24006KT 8000 NSC"
    },
    {
      "icao": "HEGN",
      "alert": "OK",
      "vis_m": 9999,
      "fzfg": false,
      "metar_trigger": false,
      "taf_trigger": false,
      "metar": "METAR HEGN 261700Z 10003KT CAVOK 21/12 Q1015 NOSIG",
      "taf": "TAF HEGN 261700Z 2618/2724 11010KT CAVOK"
    },
    {
      "icao": "HEMA",
      "alert": "OK",
      "vis_m": 6000,
      "fzfg": false,
      "metar_trigger": false,
      "taf_trigger": false,
      "metar": "METAR HEMA 261700Z 16003KT 6000 NSC 21/13 Q1015 NOSIG",
      "taf": "TAF HEMA 261700Z 2618/2724 10010KT 6000 NSC"
    },
    {
      "icao": "HESH",
      "alert": "OK",
      "vis_m": 9999,
      "fzfg": false,
      "metar_trigger": false,
      "taf_trigger": false,
      "metar": "METAR HESH 261700Z 17004KT CAVOK 21/11 Q1015 NOSIG",
      "taf": "TAF HESH 261700Z 2618/2724 16010KT CAVOK"
    },
    {
      "icao": "HESX",
      "alert": "OK",
      "vis_m": 9999,
      "fzfg": false,
      "metar_trigger": false,
      "taf_trigger": false,
      "metar": "METAR HESX 261700Z 22010KT CAVOK 18/03 Q1014 NOSIG",
      "taf": "TAF HESX 261700Z 2618/2724 22009KT CAVOK"
    },
    {
      "icao": "LATI",
      "alert": "OK",
      "vis_m": null,
      "fzfg": false,
      "metar_trigger": false,
      "taf_trigger": false,
      "metar": "",
      "taf": "TAF LATI 261700Z 2618/2718 VRB05KT 9999 SCT040 BKN080 TX14/2712Z TN06/2705Z"
    },
    {
      "icao": "LBPD",
      "alert": "OK",
      "vis_m": 6000,
      "fzfg": false,
      "metar_trigger": false,
      "taf_trigger": false,
      "metar": "METAR LBPD 261730Z AUTO 31005KT 6000 -SHRA SCT014/// BKN053/// OVC062/// 07/07 Q0998 NOSIG",
      "taf": "TAF LBPD 261700Z 2618/2718 11008KT 7000 SCT015 BKN040"
    },
    {
      "icao": "LBSF",
      "alert": "OK",
      "vis_m": 1700,
      "fzfg": false,
      "metar_trigger": false,
      "taf_trigger": false,
      "metar": "METAR LBSF 261730Z AUTO VRB02KT 1700 1300E -RA BR SCT021/// OVC048/// 06/06 Q0998 TEMPO 0600 RA FG",
      "taf": "TAF LBSF 261700Z 2618/2718 VRB04KT 6000 RA SCT012 OVC025"
    },
    {
      "icao": "LBWN",
      "alert": "OK",
      "vis_m": 9999,
      "fzfg": false,
      "metar_trigger": false,
      "taf_trigger": false,
      "metar": "METAR LBWN 261730Z AUTO 08006KT 030V110 9999 SCT013/// 10/09 Q1003 TEMPO 5000 RA",
      "taf": "TAF LBWN 261700Z 2618/2718 10010KT 9999 SCT015 BKN040"
    },
    {
      "icao": "LCLK",
      "alert": "OK",
      "vis_m": 9999,
      "fzfg": false,
      "metar_trigger": false,
      "taf_trigger": false,
      "metar": "METAR LCLK 261730Z 11011KT 9999 FEW020 SCT030 BKN036 18/14 Q1013 NOSIG",
      "taf": "TAF LCLK 261730Z 2618/2718 10013KT 9999 FEW020"
    },
    {
      "icao": "LCPH",
      "alert": "OK",
      "vis_m": 9999,
      "fzfg": false,
      "metar_trigger": false,
      "taf_trigger": false,
      "metar": "METAR LCPH 261730Z 10011KT 090V150 CAVOK 16/12 Q1012 NOSIG",
      "taf": "TAF LCPH 261730Z 2618/2718 11015KT 9999 FEW030"
    },
    {
      "icao": "LEAL",
      "alert": "OK",
      "vis_m": 9999,
      "fzfg": false,
      "metar_trigger": false,
      "taf_trigger": false,
      "metar": "METAR LEAL 261730Z 22004KT 180V240 9999 SCT060 16/13 Q1010 NOSIG",
      "taf": "TAF LEAL 261700Z 2618/2718 27007KT 9999 FEW040 TX20/2712Z TN11/2706Z"
    },
    {
      "icao": "LEBB",
      "alert": "OK",
      "vis_m": 9999,
      "fzfg": false,
      "metar_trigger": false,
      "taf_trigger": false,
      "metar": "METAR LEBB 261730Z 16007KT 100V220 9999 FEW025 SCT069 12/09 Q1001 NOSIG",
      "taf": "TAF LEBB 261700Z 2618/2718 20009KT 9999 FEW020 BKN035 TX16/2623Z TN11/2709Z"
    },
    {
      "icao": "LEBL",
      "alert": "OK",
      "vis_m": 9999,
      "fzfg": false,
      "metar_trigger": false,
      "taf_trigger": false,
      "metar": "METAR LEBL 261730Z 28004KT 250V340 9999 FEW050 13/05 Q1007 NOSIG",
      "taf": "TAF LEBL 261700Z 2618/2718 27010KT 9999 FEW055 TX16/2712Z TN09/2706Z"
    },
    {
      "icao": "LECH",
      "alert": "OK",
      "vis_m": 9999,
      "fzfg": false,
      "metar_trigger": false,
      "taf_trigger": false,
      "metar": "METAR LECH 261730Z AUTO 03005KT 9999 -RA FEW071 10/08 Q1008",
      "taf": ""
    },
    {
      "icao": "LEMD",
      "alert": "OK",
      "vis_m": 5000,
      "fzfg": false,
      "metar_trigger": false,
      "taf_trigger": false,
      "metar": "METAR LEMD 261730Z VRB02KT 5000 BR SCT002 BKN009 08/08 Q1008 TEMPO 3000",
      "taf": "TAF LEMD 261700Z 2618/2724 23010KT 9999 SCT020 TX11/2620Z TN09/2703Z"
    },
    {
      "icao": "LEMG",
      "alert": "OK",
      "vis_m": 9999,
      "fzfg": false,
      "metar_trigger": false,
      "taf_trigger": false,
      "metar": "METAR LEMG 261730Z 29003KT 250V320 9999 BKN050 17/12 Q1015 NOSIG",
      "taf": "TAF LEMG 261700Z 2618/2718 30009KT 9999 FEW040 TX19/2714Z TN10/2707Z"
    },
    {
      "icao": "LEVC",
      "alert": "OK",
      "vis_m": 9999,
      "fzfg": false,
      "metar_trigger": false,
      "taf_trigger": false,
      "metar": "METAR LEVC 261730Z 24011KT 9999 SCT055 17/09 Q1008 NOSIG",
      "taf": "TAF LEVC 261700Z 2618/2718 23009KT 9999 FEW040 TX20/2712Z TN11/2706Z"
    },
    {
      "icao": "LEXJ",
      "alert": "OK",
      "vis_m": 9999,
      "fzfg": false,
      "metar_trigger": false,
      "taf_trigger": false,
      "metar": "METAR LEXJ 261730Z 21013G27KT 170V260 CAVOK 15/07 Q0998",
      "taf": "TAF LEXJ 261400Z 2615/2715 23009KT 9999 SCT060 TX16/2621Z TN10/2709Z"
    },
    {
      "icao": "LEZG",
      "alert": "OK",
      "vis_m": 9999,
      "fzfg": false,
      "metar_trigger": false,
      "taf_trigger": false,
      "metar": "METAR LEZG 261730Z 10007KT 9999 -RA BKN060 09/09 Q1007 NOSIG",
      "taf": "TAF LEZG 261700Z 2618/2718 12008KT 9999 FEW040 TX15/2714Z TN08/2706Z"
    },
    {
      "icao": "LEZL",
      "alert": "OK",
      "vis_m": 9999,
      "fzfg": false,
      "metar_trigger": false,
      "taf_trigger": false,
      "metar": "METAR LEZL 261730Z 24013KT 210V270 9999 FEW020 17/15 Q1014 NOSIG",
      "taf": "TAF LEZL 261400Z 2615/2715 24010KT 9999 FEW015 SCT030 TX19/2615Z TN11/2707Z"
    },
    {
      "icao": "LFBD",
      "alert": "OK",
      "vis_m": 9999,
      "fzfg": false,
      "metar_trigger": false,
      "taf_trigger": false,
      "metar": "METAR LFBD 261730Z AUTO 14010KT 9999 BKN040 OVC140 10/08 Q1002 NOSIG",
      "taf": "TAF LFBD 261700Z 2618/2724 15010KT CAVOK TX11/2714Z TN07/2724Z"
    },
    {
      "icao": "LFLL",
      "alert": "OK",
      "vis_m": 9999,
      "fzfg": false,
      "metar_trigger": false,
      "taf_trigger": false,
      "metar": "METAR LFLL 261730Z 14004KT CAVOK 05/01 Q1006 NOSIG",
      "taf": "TAF LFLL 261700Z 2618/2724 16005KT CAVOK"
    },
    {
      "icao": "LFLS",
      "alert": "OK",
      "vis_m": 9999,
      "fzfg": false,
      "metar_trigger": false,
      "taf_trigger": false,
      "metar": "METAR LFLS 261730Z AUTO 12003KT CAVOK 02/M02 Q1006 NOSIG",
      "taf": "TAF LFLS 261400Z 2615/2715 36006KT 9999 SCT035"
    },
    {
      "icao": "LFMN",
      "alert": "OK",
      "vis_m": 9999,
      "fzfg": false,
      "metar_trigger": false,
      "taf_trigger": false,
      "metar": "METAR LFMN 261730Z 22013KT CAVOK 12/05 Q1004 BECMG 34010KT",
      "taf": "TAF LFMN 261400Z 2615/2721 21010KT CAVOK"
    },
    {
      "icao": "LFOB",
      "alert": "OK",
      "vis_m": 9999,
      "fzfg": false,
      "metar_trigger": false,
      "taf_trigger": false,
      "metar": "METAR LFOB 261730Z AUTO 14007KT 9999 SCT021 BKN027 OVC034 07/05 Q1001 BECMG OVC011",
      "taf": "TAF LFOB 261100Z 2612/2712 16010KT 2000 BR OVC002"
    },
    {
      "icao": "LFPO",
      "alert": "OK",
      "vis_m": 9999,
      "fzfg": false,
      "metar_trigger": false,
      "taf_trigger": false,
      "metar": "METAR LFPO 261730Z 20007KT 9999 BKN016 BKN033 07/04 Q1003 NOSIG",
      "taf": "TAF LFPO 261700Z 2618/2724 19010KT 9999 SCT016 BKN030"
    },
    {
      "icao": "LFSB",
      "alert": "OK",
      "vis_m": 9999,
      "fzfg": false,
      "metar_trigger": false,
      "taf_trigger": false,
      "metar": "METAR LFSB 261730Z AUTO 23006KT 9999 OVC052 06/01 Q1005 NOSIG",
      "taf": "TAF LFSB 261700Z 2618/2718 VRB03KT 9999 BKN050"
    },
    {
      "icao": "LGAV",
      "alert": "OK",
      "vis_m": 9999,
      "fzfg": false,
      "metar_trigger": false,
      "taf_trigger": false,
      "metar": "METAR LGAV 261720Z 26009KT 9999 FEW015TCU SCT025 BKN070 11/07 Q0999 NOSIG",
      "taf": "TAF LGAV 261700Z 2618/2718 23012KT 9999 SCT025"
    },
    {
      "icao": "LGTS",
      "alert": "OK",
      "vis_m": 9999,
      "fzfg": false,
      "metar_trigger": false,
      "taf_trigger": false,
      "metar": "METAR LGTS 261720Z VRB03KT 9999 -DZ SCT010 BKN025 10/10 Q0996 NOSIG",
      "taf": "TAF LGTS 261700Z 2618/2718 34010KT 9999 SCT010 BKN025"
    },
    {
      "icao": "LHBP",
      "alert": "OK",
      "vis_m": 6000,
      "fzfg": false,
      "metar_trigger": false,
      "taf_trigger": false,
      "metar": "SPECI LHBP 261747Z 31006KT 6000 SCT002 OVC006 04/04 Q1002 NOSIG",
      "taf": ""
    },
    {
      "icao": "LHDC",
      "alert": "OK",
      "vis_m": 3600,
      "fzfg": false,
      "metar_trigger": false,
      "taf_trigger": false,
      "metar": "METAR LHDC 261715Z AUTO VRB01KT 3600 -DZ BR OVC007 06/06 Q1001 NOSIG",
      "taf": "TAF LHDC 261715Z 2618/2703 VRB03KT 6000 -RA SCT010 OVC030"
    },
    {
      "icao": "LIBD",
      "alert": "OK",
      "vis_m": 9999,
      "fzfg": false,
      "metar_trigger": false,
      "taf_trigger": false,
      "metar": "METAR LIBD 261720Z AUTO 32005KT 290V360 9999 NCD 11/07 Q1000",
      "taf": "TAF LIBD 261700Z 2618/2718 28008KT 9999 SCT025"
    },
    {
      "icao": "LIBG",
      "alert": "OK",
      "vis_m": 9999,
      "fzfg": false,
      "metar_trigger": false,
      "taf_trigger": false,
      "metar": "METAR LIBG 261650Z 01006KT CAVOK 10/05 Q0999",
      "taf": "TAF LIBG 261700Z 2618/2703 32006KT 9999 FEW030"
    },
    {
      "icao": "LIBP",
      "alert": "OK",
      "vis_m": 9999,
      "fzfg": false,
      "metar_trigger": false,
      "taf_trigger": false,
      "metar": "METAR LIBP 261720Z AUTO 01008KT 340V040 9999 FEW017/// OVC041/// 09/05 Q1003",
      "taf": "TAF LIBP 261700Z 2618/2718 02010KT CAVOK"
    },
    {
      "icao": "LIBR",
      "alert": "OK",
      "vis_m": 9999,
      "fzfg": false,
      "metar_trigger": false,
      "taf_trigger": false,
      "metar": "METAR LIBR 261720Z 34007KT CAVOK 12/06 Q0999",
      "taf": "TAF LIBR 261700Z 2618/2718 33006KT 9999 FEW020"
    },
    {
      "icao": "LICA",
      "alert": "OK",
      "vis_m": 9999,
      "fzfg": false,
      "metar_trigger": false,
      "taf_trigger": false,
      "metar": "METAR LICA 261720Z AUTO 15006KT 9999 BKN074/// 11/09 Q0999",
      "taf": "TAF LICA 261700Z 2618/2718 VRB05KT 9999 SCT030"
    },
    {
      "icao": "LICC",
      "alert": "OK",
      "vis_m": 9999,
      "fzfg": false,
      "metar_trigger": false,
      "taf_trigger": false,
      "metar": "METAR LICC 261720Z 28008KT 9999 FEW020 BKN070 11/08 Q0999",
      "taf": "TAF LICC 261700Z 2618/2718 26008KT 9999 SCT030"
    },
    {
      "icao": "LICJ",
      "alert": "OK",
      "vis_m": 9999,
      "fzfg": false,
      "metar_trigger": false,
      "taf_trigger": false,
      "metar": "METAR LICJ 261720Z 32012KT 9999 SCT025 13/08 Q1001",
      "taf": "TAF LICJ 261700Z 2618/2718 29012KT 9999 SCT030"
    },
    {
      "icao": "LIMC",
      "alert": "OK",
      "vis_m": 9999,
      "fzfg": false,
      "metar_trigger": false,
      "taf_trigger": false,
      "metar": "METAR LIMC 261720Z VRB05KT CAVOK 07/03 Q1003 NOSIG",
      "taf": "TAF LIMC 261700Z 2618/2724 VRB04KT 3000 BR SCT025"
    },
    {
      "icao": "LIME",
      "alert": "OK",
      "vis_m": 9999,
      "fzfg": false,
      "metar_trigger": false,
      "taf_trigger": false,
      "metar": "METAR LIME 261720Z VRB02KT CAVOK 06/03 Q1003 NOSIG",
      "taf": "TAF LIME 261700Z 2618/2718 VRB05KT 7000 FEW020"
    },
    {
      "icao": "LIMF",
      "alert": "OK",
      "vis_m": 9999,
      "fzfg": false,
      "metar_trigger": false,
      "taf_trigger": false,
      "metar": "METAR LIMF 261720Z 10001KT CAVOK 06/02 Q1003",
      "taf": "TAF LIMF 261700Z 2618/2718 VRB04KT 6000 SCT020"
    },
    {
      "icao": "LIMJ",
      "alert": "OK",
      "vis_m": 9999,
      "fzfg": false,
      "metar_trigger": false,
      "taf_trigger": false,
      "metar": "METAR LIMJ 261720Z 04013KT CAVOK 09/02 Q1003",
      "taf": "TAF LIMJ 261700Z 2618/2718 03010KT 9999 SCT040"
    },
    {
      "icao": "LIPE",
      "alert": "OK",
      "vis_m": 9999,
      "fzfg": false,
      "metar_trigger": false,
      "taf_trigger": false,
      "metar": "METAR LIPE 261720Z 22005KT CAVOK 05/03 Q1004",
      "taf": "TAF LIPE 261700Z 2618/2718 VRB05KT 6000 SCT020"
    },
    {
      "icao": "LIPH",
      "alert": "OK",
      "vis_m": 9999,
      "fzfg": false,
      "metar_trigger": false,
      "taf_trigger": false,
      "metar": "METAR LIPH 261720Z 23004KT CAVOK 07/04 Q1002",
      "taf": "TAF LIPH 261700Z 2618/2718 25005KT 8000 FEW010"
    },
    {
      "icao": "LIPQ",
      "alert": "OK",
      "vis_m": 9999,
      "fzfg": false,
      "metar_trigger": false,
      "taf_trigger": false,
      "metar": "METAR LIPQ 261720Z AUTO 26002KT 9999 NCD 07/05 Q1002",
      "taf": "TAF LIPQ 261700Z 2618/2718 VRB04KT 9999 SCT020"
    },
    {
      "icao": "LIPR",
      "alert": "OK",
      "vis_m": 8000,
      "fzfg": false,
      "metar_trigger": false,
      "taf_trigger": false,
      "metar": "METAR LIPR 261720Z 29005KT 8000 BKN025 07/04 Q1004",
      "taf": "TAF LIPR 261700Z 2618/2718 23005KT 9999 SCT015"
    },
    {
      "icao": "LIPX",
      "alert": "OK",
      "vis_m": 9999,
      "fzfg": false,
      "metar_trigger": false,
      "taf_trigger": false,
      "metar": "METAR LIPX 261720Z 23005KT CAVOK 05/03 Q1003",
      "taf": "TAF LIPX 261700Z 2618/2718 VRB04KT 8000 SCT020"
    },
    {
      "icao": "LIPY",
      "alert": "OK",
      "vis_m": 9999,
      "fzfg": false,
      "metar_trigger": false,
      "taf_trigger": false,
      "metar": "METAR LIPY 261720Z AUTO 27006KT 9999 OVC022/// 07/05 Q1004",
      "taf": "TAF LIPY 261700Z 2618/2718 VRB05KT 9999 SCT015"
    },
    {
      "icao": "LIPZ",
      "alert": "OK",
      "vis_m": 9999,
      "fzfg": false,
      "metar_trigger": false,
      "taf_trigger": false,
      "metar": "METAR LIPZ 261720Z 24006KT CAVOK 06/04 Q1003 NOSIG",
      "taf": "TAF LIPZ 261700Z 2618/2724 25005KT 8000 FEW020"
    },
    {
      "icao": "LIRF",
      "alert": "OK",
      "vis_m": 9999,
      "fzfg": false,
      "metar_trigger": false,
      "taf_trigger": false,
      "metar": "METAR LIRF 261720Z 36003KT CAVOK 09/07 Q1001 NOSIG",
      "taf": "TAF LIRF 261700Z 2618/2724 36006KT 9999 FEW030"
    },
    {
      "icao": "LIRN",
      "alert": "OK",
      "vis_m": 9999,
      "fzfg": false,
      "metar_trigger": false,
      "taf_trigger": false,
      "metar": "METAR LIRN 261720Z 33004KT 300V040 9999 BKN070 10/08 Q1000 NOSIG",
      "taf": "TAF LIRN 261700Z 2618/2718 04005KT 9999 SCT040"
    },
    {
      "icao": "LIRP",
      "alert": "OK",
      "vis_m": 9999,
      "fzfg": false,
      "metar_trigger": false,
      "taf_trigger": false,
      "metar": "METAR LIRP 261715Z 33006KT 9999 FEW040 09/08 Q1003 NOSIG",
      "taf": "TAF LIRP 261700Z 2618/2718 13004KT 9999 FEW020 SCT040"
    },
    {
      "icao": "LIRZ",
      "alert": "OK",
      "vis_m": 9999,
      "fzfg": false,
      "metar_trigger": false,
      "taf_trigger": false,
      "metar": "METAR LIRZ 261720Z AUTO 01007KT 9999 NCD 07/03 Q1002",
      "taf": "TAF LIRZ 261700Z 2618/2718 VRB05KT 8000 FEW040"
    },
    {
      "icao": "LJLJ",
      "alert": "OK",
      "vis_m": 400,
      "fzfg": false,
      "metar_trigger": false,
      "taf_trigger": false,
      "metar": "METAR LJLJ 261730Z 31004KT 0400 R30/0600N FG VV001 02/02 Q1002 NOSIG",
      "taf": "TAF LJLJ 261700Z 2618/2718 30003KT 0400 FG VV001"
    },
    {
      "icao": "LKMT",
      "alert": "OK",
      "vis_m": 9999,
      "fzfg": false,
      "metar_trigger": false,
      "taf_trigger": false,
      "metar": "METAR LKMT 261730Z 23009KT CAVOK 00/M01 Q1002 NOSIG",
      "taf": "TAF LKMT 261700Z 2618/2718 23008KT CAVOK"
    },
    {
      "icao": "LKPR",
      "alert": "OK",
      "vis_m": 5000,
      "fzfg": false,
      "metar_trigger": false,
      "taf_trigger": false,
      "metar": "METAR LKPR 261730Z 24010KT 5000 -SN BR FEW003 BKN026 OVC046 00/M00 Q0999 BECMG NSW",
      "taf": "TAF LKPR 261700Z 2618/2724 23008KT 9999 OVC015"
    },
    {
      "icao": "LLBG",
      "alert": "OK",
      "vis_m": 9999,
      "fzfg": false,
      "metar_trigger": false,
      "taf_trigger": false,
      "metar": "METAR LLBG 261720Z 12005KT CAVOK 15/07 Q1014 NOSIG",
      "taf": "TAF LLBG 261703Z 2618/2718 11005KT CAVOK"
    },
    {
      "icao": "LMML",
      "alert": "OK",
      "vis_m": 9999,
      "fzfg": false,
      "metar_trigger": false,
      "taf_trigger": false,
      "metar": "METAR LMML 261745Z 29027G40KT 9999 FEW014 12/09 Q1002 NOSIG",
      "taf": "TAF LMML 261700Z 2618/2718 30020KT 9999 SCT015"
    },
    {
      "icao": "LOWW",
      "alert": "OK",
      "vis_m": 5000,
      "fzfg": false,
      "metar_trigger": false,
      "taf_trigger": false,
      "metar": "METAR LOWW 261720Z 18008KT 5000 BR FEW050 01/00 Q1003 TEMPO 4000 BR",
      "taf": "TAF LOWW 261715Z 2618/2724 22005KT 9999 FEW005 TX03/2714Z TNM01/2706Z"
    },
    {
      "icao": "LPFR",
      "alert": "OK",
      "vis_m": 9000,
      "fzfg": false,
      "metar_trigger": false,
      "taf_trigger": false,
      "metar": "METAR LPFR 261730Z 25013KT 9000 -DZRA SCT004 SCT010 BKN030 14/14 Q1014 REDZ",
      "taf": "TAF LPFR 261700Z 2618/2718 25015KT 9999 SCT012 BKN030"
    },
    {
      "icao": "LPMA",
      "alert": "OK",
      "vis_m": 9999,
      "fzfg": false,
      "metar_trigger": false,
      "taf_trigger": false,
      "metar": "METAR LPMA 261730Z 24015G28KT 210V290 9999 BKN016 18/12 Q1016",
      "taf": "TAF LPMA 261700Z 2618/2718 22018KT 9999 SCT015"
    },
    {
      "icao": "LPPR",
      "alert": "OK",
      "vis_m": 5000,
      "fzfg": false,
      "metar_trigger": false,
      "taf_trigger": false,
      "metar": "METAR LPPR 261730Z 18023G35KT 5000 -RADZ BR BKN006 BKN011 14/13 Q1003 RERA",
      "taf": "TAF LPPR 261700Z 2618/2718 20018G30KT 6000 -RA SCT006 BKN012"
    },
    {
      "icao": "LPPS",
      "alert": "OK",
      "vis_m": 9999,
      "fzfg": false,
      "metar_trigger": false,
      "taf_trigger": false,
      "metar": "METAR LPPS 261730Z 27009KT 240V300 9999 FEW015 19/11 Q1017",
      "taf": "TAF LPPS 261700Z 2618/2724 23010KT 9999 SCT015 SCT030"
    },
    {
      "icao": "LPPT",
      "alert": "OK",
      "vis_m": 9999,
      "fzfg": false,
      "metar_trigger": false,
      "taf_trigger": false,
      "metar": "METAR LPPT 261730Z 21018KT 9999 SCT010 15/13 Q1009",
      "taf": "TAF LPPT 261700Z 2618/2724 23017KT 9999 SCT012 BKN025"
    },
    {
      "icao": "LQBK",
      "alert": "OK",
      "vis_m": 9999,
      "fzfg": false,
      "metar_trigger": false,
      "taf_trigger": false,
      "metar": "METAR LQBK 261730Z 02004KT 9999 -RA BKN045 06/05 Q1003 NOSIG",
      "taf": ""
    },
    {
      "icao": "LQSA",
      "alert": "OK",
      "vis_m": 9999,
      "fzfg": false,
      "metar_trigger": false,
      "taf_trigger": false,
      "metar": "METAR LQSA 261730Z VRB02KT 9999 BKN040 04/04 Q1000 NOSIG",
      "taf": "TAF LQSA 261700Z 2618/2718 VRB02KT 9999 SCT045 TX08/2713Z TN01/2705Z"
    },
    {
      "icao": "LQTZ",
      "alert": "OK",
      "vis_m": 9999,
      "fzfg": false,
      "metar_trigger": false,
      "taf_trigger": false,
      "metar": "METAR LQTZ 261730Z VRB02KT 9999 SCT055 07/05 Q1001",
      "taf": "TAF LQTZ 261700Z 2618/2718 28006KT 9999 SCT015 BKN030 TX11/2713Z TN00/2706Z"
    },
    {
      "icao": "LRBC",
      "alert": "OK",
      "vis_m": 200,
      "fzfg": false,
      "metar_trigger": false,
      "taf_trigger": false,
      "metar": "METAR LRBC 261730Z 16006KT 0200 R16/0650N FG VV002 04/04 Q1005",
      "taf": "TAF LRBC 261700Z 2618/2703 17010KT 0150 FG VV002"
    },
    {
      "icao": "LRBS",
      "alert": "OK",
      "vis_m": 4000,
      "fzfg": false,
      "metar_trigger": false,
      "taf_trigger": false,
      "metar": "METAR LRBS 261730Z 06013KT 4000 BR BKN003 07/07 Q1002 TEMPO 0800 FG OVC002",
      "taf": "TAF LRBS 261700Z 2618/2718 07012KT 3000 BR BKN003"
    },
    {
      "icao": "LRBV",
      "alert": "OK",
      "vis_m": 9999,
      "fzfg": false,
      "metar_trigger": false,
      "taf_trigger": false,
      "metar": "METAR LRBV 261730Z 07006KT 050V110 9999 SCT042 09/04 Q1000",
      "taf": "TAF LRBV 261700Z 2618/2703 02008KT 9999 BKN045"
    },
    {
      "icao": "LRCL",
      "alert": "OK",
      "vis_m": 7000,
      "fzfg": false,
      "metar_trigger": false,
      "taf_trigger": false,
      "metar": "METAR LRCL 261730Z 00000KT 7000 -RA OVC047 03/02 Q1001",
      "taf": "TAF LRCL 261700Z 2618/2703 VRB04KT 9999 -RA BKN050"
    },
    {
      "icao": "LRCV",
      "alert": "OK",
      "vis_m": 600,
      "fzfg": false,
      "metar_trigger": false,
      "taf_trigger": false,
      "metar": "METAR LRCV 261730Z 07006KT 0600 R26/0800N -RA FG VV003 03/03 Q1000 RERA",
      "taf": "TAF LRCV 261700Z 2618/2703 VRB04KT 0800 -RADZ FG BKN002 OVC020"
    },
    {
      "icao": "LRIA",
      "alert": "OK",
      "vis_m": 9999,
      "fzfg": false,
      "metar_trigger": false,
      "taf_trigger": false,
      "metar": "METAR LRIA 261730Z 12019KT 9999 -RA OVC003 04/03 Q1006",
      "taf": "TAF LRIA 261700Z 2618/2703 12018KT 9999 -RA BKN003 OVC010"
    },
    {
      "icao": "LROP",
      "alert": "OK",
      "vis_m": 3500,
      "fzfg": false,
      "metar_trigger": false,
      "taf_trigger": false,
      "metar": "METAR LROP 261730Z 07016KT 3500 BR BKN004 07/07 Q1002 TEMPO 0800 FG OVC002",
      "taf": "TAF LROP 261700Z 2618/2718 07012KT 3000 BR BKN003"
    },
    {
      "icao": "LRSB",
      "alert": "OK",
      "vis_m": 9999,
      "fzfg": false,
      "metar_trigger": false,
      "taf_trigger": false,
      "metar": "METAR LRSB 261730Z 17014KT 9999 SCT040 SCT055 11/06 Q0999",
      "taf": "TAF LRSB 261700Z 2618/2718 14012KT 9999 SCT040"
    },
    {
      "icao": "LRSM",
      "alert": "OK",
      "vis_m": 1200,
      "fzfg": false,
      "metar_trigger": false,
      "taf_trigger": false,
      "metar": "METAR LRSM 261730Z AUTO 10001KT 1200 R19/1300D -SHRA BKN055/// 05/04 Q1001",
      "taf": ""
    },
    {
      "icao": "LRSV",
      "alert": "OK",
      "vis_m": 300,
      "fzfg": false,
      "metar_trigger": false,
      "taf_trigger": false,
      "metar": "METAR LRSV 261730Z 13008KT 0300 R34/0550N FG VV001 02/02 Q1004",
      "taf": "TAF LRSV 261700Z 2618/2703 14012KT 0350 -RADZ FG VV001"
    },
    {
      "icao": "LRTM",
      "alert": "OK",
      "vis_m": 4700,
      "fzfg": false,
      "metar_trigger": false,
      "taf_trigger": false,
      "metar": "METAR LRTM 261730Z AUTO 28003KT 4700 BR NCD 02/01 Q1000",
      "taf": "TAF LRTM 261400Z 2615/2624 VRB04KT 5000 -RA BR SCT015"
    },
    {
      "icao": "LRTR",
      "alert": "OK",
      "vis_m": 4500,
      "fzfg": false,
      "metar_trigger": false,
      "taf_trigger": false,
      "metar": "METAR LRTR 261730Z COR 32005KT 4500 -RA BR SCT004 BKN015 06/06 Q1001",
      "taf": "TAF LRTR 261700Z 2618/2718 31006KT 5000 -RA BR BKN005 OVC030"
    },
    {
      "icao": "LTAC",
      "alert": "OK",
      "vis_m": 9999,
      "fzfg": false,
      "metar_trigger": false,
      "taf_trigger": false,
      "metar": "METAR LTAC 261720Z 07007KT 040V110 9999 SCT040 BKN100 06/03 Q1009 NOSIG",
      "taf": "TAF LTAC 261640Z 2618/2718 17008KT 9999 SCT040 BKN100"
    },
    {
      "icao": "LTFM",
      "alert": "OK",
      "vis_m": 9999,
      "fzfg": false,
      "metar_trigger": false,
      "taf_trigger": false,
      "metar": "METAR LTFM 261720Z 04006KT 9999 SCT040 BKN080 11/08 Q1000 NOSIG",
      "taf": "TAF LTFM 261640Z 2618/2724 12007KT 9999 SCT040 BKN090"
    },
    {
      "icao": "LUKK",
      "alert": "OK",
      "vis_m": 6000,
      "fzfg": false,
      "metar_trigger": false,
      "taf_trigger": false,
      "metar": "METAR LUKK 261730Z 11009KT 6000 -RA OVC002 00/00 Q1009 NOSIG",
      "taf": "TAF LUKK 261720Z 2618/2718 09009KT 5000 RA BR OVC002"
    },
    {
      "icao": "LWOH",
      "alert": "OK",
      "vis_m": null,
      "fzfg": false,
      "metar_trigger": false,
      "taf_trigger": false,
      "metar": "",
      "taf": "TAF LWOH 261430Z 2615/2715 VRB02KT 9999 SCT020 BKN035"
    },
    {
      "icao": "LWSK",
      "alert": "OK",
      "vis_m": 2000,
      "fzfg": false,
      "metar_trigger": false,
      "taf_trigger": false,
      "metar": "METAR LWSK 261720Z 02004KT 2000 RA BR FEW003 BKN009 OVC032 09/08 Q0997 NOSIG",
      "taf": "TAF LWSK 261430Z 2615/2715 VRB02KT 5000 RA FEW004 BKN015 OVC035"
    },
    {
      "icao": "LYBE",
      "alert": "OK",
      "vis_m": 9999,
      "fzfg": false,
      "metar_trigger": false,
      "taf_trigger": false,
      "metar": "METAR LYBE 261730Z 31005KT 9999 SCT017 05/04 Q1000 NOSIG",
      "taf": "TAF LYBE 261700Z 2618/2718 30008KT 9999 SCT017 TX10/2712Z TN03/2706Z"
    },
    {
      "icao": "LYNI",
      "alert": "OK",
      "vis_m": 9999,
      "fzfg": false,
      "metar_trigger": false,
      "taf_trigger": false,
      "metar": "METAR LYNI 261730Z 34014KT 9999 -RA SCT017 BKN040 OVC080 06/04 Q0999 NOSIG",
      "taf": "TAF LYNI 261700Z 2618/2718 35015KT 9999 SCT020 BKN050 TX07/2713Z TN03/2706Z"
    },
    {
      "icao": "LYPG",
      "alert": "OK",
      "vis_m": 9999,
      "fzfg": false,
      "metar_trigger": false,
      "taf_trigger": false,
      "metar": "METAR LYPG 261730Z VRB02KT 9999 FEW016 08/06 Q0999 NOSIG",
      "taf": "TAF LYPG 261700Z 2618/2718 34005KT 9999 FEW020 TX14/2713Z TN04/2704Z"
    },
    {
      "icao": "LZIB",
      "alert": "OK",
      "vis_m": 4000,
      "fzfg": false,
      "metar_trigger": false,
      "taf_trigger": false,
      "metar": "METAR LZIB 261730Z 21007KT 4000 0450SE BR BCFG FEW001 00/00 Q1003 NOSIG",
      "taf": "TAF LZIB 261715Z 2618/2718 26006KT 9999 FEW012"
    },
    {
      "icao": "LZKZ",
      "alert": "OK",
      "vis_m": 6000,
      "fzfg": false,
      "metar_trigger": false,
      "taf_trigger": false,
      "metar": "METAR LZKZ 261730Z 30002KT 6000 0900S R01/0750D PRFG FEW008 SCT020 04/04 Q1001 NOSIG",
      "taf": ""
    },
    {
      "icao": "LZTT",
      "alert": "OK",
      "vis_m": 400,
      "fzfg": false,
      "metar_trigger": false,
      "taf_trigger": false,
      "metar": "METAR LZTT 261730Z VRB03KT 0400 R27/1300U FG OVC002 02/02 Q1000 NOSIG",
      "taf": "TAF LZTT 261715Z 2618/2718 24004KT 9999 FEW006 SCT035"
    },
    {
      "icao": "OEJN",
      "alert": "OK",
      "vis_m": 9999,
      "fzfg": false,
      "metar_trigger": false,
      "taf_trigger": false,
      "metar": "METAR OEJN 261700Z 26003KT CAVOK 27/12 Q1013 NOSIG",
      "taf": "TAF OEJN 261700Z 2618/2724 VRB03KT 7000 NSC"
    },
    {
      "icao": "OEMA",
      "alert": "OK",
      "vis_m": 9999,
      "fzfg": false,
      "metar_trigger": false,
      "taf_trigger": false,
      "metar": "METAR OEMA 261700Z 03004KT CAVOK 20/M03 Q1020 NOSIG",
      "taf": "TAF OEMA 261700Z 2618/2724 08015KT 7000 NSC"
    },
    {
      "icao": "OJAI",
      "alert": "OK",
      "vis_m": null,
      "fzfg": false,
      "metar_trigger": false,
      "taf_trigger": false,
      "metar": "",
      "taf": "TAF OJAI 261658Z 2618/2724 VRB02KT 5000 HZ NSC"
    },
    {
      "icao": "OMAA",
      "alert": "OK",
      "vis_m": 9999,
      "fzfg": false,
      "metar_trigger": false,
      "taf_trigger": false,
      "metar": "METAR OMAA 261730Z 29009KT 9999 FEW030 19/13 Q1019 NOSIG",
      "taf": "TAF OMAA 261700Z 2618/2800 31010KT 8000 FEW045"
    },
    {
      "icao": "OMDB",
      "alert": "OK",
      "vis_m": 9999,
      "fzfg": false,
      "metar_trigger": false,
      "taf_trigger": false,
      "metar": "METAR OMDB 261730Z 03005KT 350V110 9999 FEW030 20/14 Q1019 NOSIG",
      "taf": "TAF OMDB 261700Z 2618/2800 14004KT 8000 NSC"
    },
    {
      "icao": "UAAA",
      "alert": "OK",
      "vis_m": 2200,
      "fzfg": false,
      "metar_trigger": false,
      "taf_trigger": false,
      "metar": "METAR UAAA 261730Z 22002MPS 2200 BR FU SCT200 M04/M07 Q1020 NOSIG",
      "taf": "TAF UAAA 261701Z 2618/2718 22003MPS 1500 BR FU SCT020 BKN050 TX03/2708Z TNM07/2702Z"
    },
    {
      "icao": "UBBB",
      "alert": "OK",
      "vis_m": 9999,
      "fzfg": false,
      "metar_trigger": false,
      "taf_trigger": false,
      "metar": "METAR UBBB 261730Z 35018G28KT 9999 BKN011 OVC022 05/03 Q1024 NOSIG",
      "taf": "TAF UBBB 261700Z 2618/2718 32018G28KT 9999 SCT009 BKN025 TX05/2710Z TN02/2701Z"
    },
    {
      "icao": "UDSG",
      "alert": "OK",
      "vis_m": 2700,
      "fzfg": false,
      "metar_trigger": false,
      "taf_trigger": false,
      "metar": "METAR UDSG 261730Z 03003KT 2700 BR FEW049 M13/M13 Q1021 NOSIG",
      "taf": "TAF UDSG 261658Z 2618/2718 VRB06KT 3000 BR BKN030"
    },
    {
      "icao": "UDYZ",
      "alert": "OK",
      "vis_m": 2900,
      "fzfg": false,
      "metar_trigger": false,
      "taf_trigger": false,
      "metar": "METAR UDYZ 261730Z 21004KT 2900 BR BKN007 M05/M06 Q1025 NOSIG",
      "taf": "TAF UDYZ 261700Z 2618/2718 VRB06KT 2300 BR BKN006"
    },
    {
      "icao": "UGKO",
      "alert": "OK",
      "vis_m": 9999,
      "fzfg": false,
      "metar_trigger": false,
      "taf_trigger": false,
      "metar": "METAR UGKO 261730Z 07016KT CAVOK 10/03 Q1013 NOSIG",
      "taf": "TAF UGKO 261700Z 2618/2718 08027G37KT CAVOK TX13/2711Z TN07/2620Z"
    }
  ]
}