{
  "ts_utc": "2026-02-13T15:23:29Z",
  "threshold_m": 150,
  "source": "stations_override.txt (ICAO list) + aviationweather.gov (METAR/TAF raw)",
  "station_count": 159,
  "stations": [
    {
      "icao": "BIKF",
      "alert": "OK",
      "vis_m": 9999,
      "fzfg": false,
      "metar_trigger": false,
      "taf_trigger": false,
      "metar": "METAR BIKF 131500Z 01013KT 9999 FEW015 M02/M06 Q1008",
      "taf": "TAF BIKF 131330Z 1315/1415 36010KT 9999 FEW025 SCT040 TXM02/1412Z TNM10/1324Z"
    },
    {
      "icao": "BKPR",
      "alert": "OK",
      "vis_m": null,
      "fzfg": false,
      "metar_trigger": false,
      "taf_trigger": false,
      "metar": "",
      "taf": "TAF BKPR 131130Z 1312/1412 01008KT 9999 BKN040"
    },
    {
      "icao": "EBCI",
      "alert": "OK",
      "vis_m": 9999,
      "fzfg": false,
      "metar_trigger": false,
      "taf_trigger": false,
      "metar": "METAR EBCI 131450Z 07005KT 040V120 9999 SCT010 BKN018 07/06 Q0991 TEMPO 3500 SHRA BKN013",
      "taf": "TAF EBCI 131123Z 1312/1418 04007KT 7000 SCT004 BKN009"
    },
    {
      "icao": "EDDB",
      "alert": "OK",
      "vis_m": 9000,
      "fzfg": false,
      "metar_trigger": false,
      "taf_trigger": false,
      "metar": "METAR EDDB 131450Z AUTO 35003KT 9000 -SNRA BKN006 BKN022 BKN034 01/00 Q0993 NOSIG",
      "taf": "TAF EDDB 131100Z 1312/1412 01007KT 9999 BKN010"
    },
    {
      "icao": "EDDH",
      "alert": "OK",
      "vis_m": 5000,
      "fzfg": false,
      "metar_trigger": false,
      "taf_trigger": false,
      "metar": "METAR EDDH 131450Z AUTO 02007KT 320V060 5000 -SN BR FEW012 SCT034 BKN043 M01/M02 Q0996 RESN TEMPO 3000 BKN008",
      "taf": "TAF EDDH 131100Z 1312/1418 03007KT 9999 SCT010 BKN015"
    },
    {
      "icao": "EDDK",
      "alert": "OK",
      "vis_m": 9999,
      "fzfg": false,
      "metar_trigger": false,
      "taf_trigger": false,
      "metar": "METAR EDDK 131450Z AUTO 35005KT 320V020 9999 -SHRA FEW007 BKN028 BKN034 FEW///TCU 07/05 Q0992 RESHRA NOSIG",
      "taf": "TAF EDDK 131100Z 1312/1418 30005KT 9999 SCT015 OVC020"
    },
    {
      "icao": "EDDN",
      "alert": "OK",
      "vis_m": 9999,
      "fzfg": false,
      "metar_trigger": false,
      "taf_trigger": false,
      "metar": "METAR EDDN 131450Z AUTO 25006KT 9999 FEW029 BKN037 07/03 Q0993 NOSIG",
      "taf": "TAF EDDN 131100Z 1312/1412 25010KT 9999 BKN025"
    },
    {
      "icao": "EDDS",
      "alert": "OK",
      "vis_m": 9999,
      "fzfg": false,
      "metar_trigger": false,
      "taf_trigger": false,
      "metar": "METAR EDDS 131450Z AUTO VRB01KT 9999 BKN040 08/03 Q0992 NOSIG",
      "taf": "TAF EDDS 131100Z 1312/1412 22006KT 9999 BKN030"
    },
    {
      "icao": "EDFH",
      "alert": "OK",
      "vis_m": 9999,
      "fzfg": false,
      "metar_trigger": false,
      "taf_trigger": false,
      "metar": "METAR EDFH 131450Z VRB02KT 9999 FEW025 SCT032 06/04 Q0991",
      "taf": "TAF EDFH 131100Z 1312/1412 25007KT 9999 BKN005"
    },
    {
      "icao": "EDJA",
      "alert": "OK",
      "vis_m": 9999,
      "fzfg": false,
      "metar_trigger": false,
      "taf_trigger": false,
      "metar": "METAR EDJA 131450Z 21003KT 180V240 CAVOK 08/01 Q0992",
      "taf": "TAF EDJA 131400Z 1315/1324 26005KT 9999 FEW030"
    },
    {
      "icao": "EDLW",
      "alert": "OK",
      "vis_m": 9999,
      "fzfg": false,
      "metar_trigger": false,
      "taf_trigger": false,
      "metar": "METAR EDLW 131450Z 34005KT 280V030 9999 BKN012 OVC017 03/01 Q0993",
      "taf": "TAF EDLW 131100Z 1312/1412 30008KT 9999 SCT010 BKN015"
    },
    {
      "icao": "EDNY",
      "alert": "OK",
      "vis_m": 9999,
      "fzfg": false,
      "metar_trigger": false,
      "taf_trigger": false,
      "metar": "METAR EDNY 131450Z 05004KT 010V070 CAVOK 10/03 Q0992",
      "taf": "TAF EDNY 131400Z 1315/1324 VRB03KT CAVOK"
    },
    {
      "icao": "EDSB",
      "alert": "OK",
      "vis_m": 9999,
      "fzfg": false,
      "metar_trigger": false,
      "taf_trigger": false,
      "metar": "METAR EDSB 131450Z 21004KT 9999 FEW032 BKN040 BKN049 10/04 Q0992",
      "taf": "TAF EDSB 131100Z 1312/1412 21010KT 9999 BKN030"
    },
    {
      "icao": "EETN",
      "alert": "OK",
      "vis_m": 9999,
      "fzfg": false,
      "metar_trigger": false,
      "taf_trigger": false,
      "metar": "METAR EETN 131520Z 07008KT CAVOK M11/M14 Q1002 NOSIG",
      "taf": "TAF EETN 131130Z 1312/1412 06014KT CAVOK"
    },
    {
      "icao": "EFTU",
      "alert": "OK",
      "vis_m": 9999,
      "fzfg": false,
      "metar_trigger": false,
      "taf_trigger": false,
      "metar": "METAR EFTU 131520Z AUTO 05005KT CAVOK M12/M15 Q1004",
      "taf": "TAF EFTU 131435Z 1315/1415 07005KT CAVOK"
    },
    {
      "icao": "EGBB",
      "alert": "OK",
      "vis_m": 9000,
      "fzfg": false,
      "metar_trigger": false,
      "taf_trigger": false,
      "metar": "METAR EGBB 131450Z 04012KT 9000 -RA BKN009 OVC012 03/02 Q0994",
      "taf": "TAF EGBB 131057Z 1312/1412 07008KT 9999 BKN014"
    },
    {
      "icao": "EGGP",
      "alert": "OK",
      "vis_m": 9999,
      "fzfg": false,
      "metar_trigger": false,
      "taf_trigger": false,
      "metar": "METAR EGGP 131450Z 05012KT 9999 SCT023 BKN040 04/M00 Q0998",
      "taf": "TAF EGGP 131056Z 1312/1412 04012KT 9999 BKN025"
    },
    {
      "icao": "EGGW",
      "alert": "OK",
      "vis_m": 9999,
      "fzfg": false,
      "metar_trigger": false,
      "taf_trigger": false,
      "metar": "METAR EGGW 131450Z AUTO 04005KT 350V080 9999 OVC011 06/05 Q0992",
      "taf": ""
    },
    {
      "icao": "EGKK",
      "alert": "OK",
      "vis_m": 9999,
      "fzfg": false,
      "metar_trigger": false,
      "taf_trigger": false,
      "metar": "METAR EGKK 131450Z 06008KT 020V080 9999 SCT021 BKN045 10/06 Q0991",
      "taf": "TAF EGKK 131059Z 1312/1418 09006KT 9999 SCT030"
    },
    {
      "icao": "EGNM",
      "alert": "OK",
      "vis_m": 9999,
      "fzfg": false,
      "metar_trigger": false,
      "taf_trigger": false,
      "metar": "METAR EGNM 131450Z 03009KT 9999 -RA SCT008 BKN011 02/00 Q0998",
      "taf": "TAF EGNM 131055Z 1312/1412 06010KT 9999 BKN005"
    },
    {
      "icao": "EGPD",
      "alert": "OK",
      "vis_m": 9999,
      "fzfg": false,
      "metar_trigger": false,
      "taf_trigger": false,
      "metar": "METAR EGPD 131450Z COR 32011KT 9999 VCSH FEW018TCU 03/M00 Q1002 NOSIG",
      "taf": "TAF EGPD 131055Z 1312/1412 32005KT 9999 FEW015"
    },
    {
      "icao": "EGPF",
      "alert": "OK",
      "vis_m": 9999,
      "fzfg": false,
      "metar_trigger": false,
      "taf_trigger": false,
      "metar": "METAR EGPF 131450Z AUTO 01007KT 340V060 9999 FEW048 05/M04 Q1004",
      "taf": "TAF EGPF 131058Z 1312/1412 03010KT 9999 FEW045"
    },
    {
      "icao": "EHBK",
      "alert": "OK",
      "vis_m": 8000,
      "fzfg": false,
      "metar_trigger": false,
      "taf_trigger": false,
      "metar": "METAR EHBK 131455Z AUTO 04008KT 8000 FEW005 BKN006 OVC007 05/05 Q0992 TEMPO 7000 BKN004",
      "taf": ""
    },
    {
      "icao": "EHEH",
      "alert": "OK",
      "vis_m": 9999,
      "fzfg": false,
      "metar_trigger": false,
      "taf_trigger": false,
      "metar": "SPECI EHEH 131506Z AUTO 05008KT 350V090 9999 OVC015 04/01 Q0993 WHT BECMG BKN012",
      "taf": ""
    },
    {
      "icao": "EKBI",
      "alert": "OK",
      "vis_m": 9999,
      "fzfg": false,
      "metar_trigger": false,
      "taf_trigger": false,
      "metar": "METAR EKBI 131520Z AUTO 02007KT 350V050 9999 NCD M03/M08 Q0999",
      "taf": "TAF EKBI 131427Z 1315/1415 01010KT 9999 SCT030"
    },
    {
      "icao": "EKCH",
      "alert": "OK",
      "vis_m": 9999,
      "fzfg": false,
      "metar_trigger": false,
      "taf_trigger": false,
      "metar": "METAR EKCH 131520Z AUTO 02011KT 9999 -SN OVC055/// M02/M06 Q0998 NOSIG",
      "taf": "TAF EKCH 131427Z 1315/1415 02012KT 9999 FEW018 BKN045"
    },
    {
      "icao": "ENAL",
      "alert": "OK",
      "vis_m": 9999,
      "fzfg": false,
      "metar_trigger": false,
      "taf_trigger": false,
      "metar": "METAR ENAL 131450Z 18007KT 9999 SCT025CB 00/M06 Q1000",
      "taf": "TAF ENAL 131400Z 1315/1324 16008KT 9999 FEW025"
    },
    {
      "icao": "ENBR",
      "alert": "OK",
      "vis_m": 4000,
      "fzfg": false,
      "metar_trigger": false,
      "taf_trigger": false,
      "metar": "METAR ENBR 131450Z 13012KT 4000 -SHSN VV012 M01/M04 Q0999 TEMPO 1500 -SHSN VV006 RMK WIND 1200FT 14025KT",
      "taf": "TAF ENBR 131100Z 1312/1412 14010KT 9999 SCT025 BKN050"
    },
    {
      "icao": "ENGM",
      "alert": "OK",
      "vis_m": 9999,
      "fzfg": false,
      "metar_trigger": false,
      "taf_trigger": false,
      "metar": "METAR ENGM 131450Z 06003KT 030V100 9999 -SN FEW022 BKN032 M08/M12 Q1002 NOSIG",
      "taf": "TAF ENGM 131100Z 1312/1412 01003KT 9999 FEW020 BKN040"
    },
    {
      "icao": "ENHD",
      "alert": "OK",
      "vis_m": 1000,
      "fzfg": false,
      "metar_trigger": false,
      "taf_trigger": false,
      "metar": "METAR ENHD 131450Z 14010KT 1000 R13/1900N R31/P2000N SHSN SCT005 BKN012 M02/M04 Q1000",
      "taf": "TAF ENHD 131400Z 1315/1323 15014KT 9999 FEW008 SCT020CB BKN030"
    },
    {
      "icao": "ENTC",
      "alert": "OK",
      "vis_m": 9999,
      "fzfg": false,
      "metar_trigger": false,
      "taf_trigger": false,
      "metar": "METAR ENTC 131450Z 18010KT 9999 VCSH VV019 M05/M07 Q0996 TEMPO 1200 SHSN VV008 RMK WIND 2600FT 30015KT",
      "taf": ""
    },
    {
      "icao": "ENTO",
      "alert": "OK",
      "vis_m": 9999,
      "fzfg": false,
      "metar_trigger": false,
      "taf_trigger": false,
      "metar": "METAR ENTO 131450Z 01006KT 340V040 9999 -SN FEW022 SCT029 BKN033 M06/M10 Q1003 NOSIG",
      "taf": ""
    },
    {
      "icao": "ENVA",
      "alert": "OK",
      "vis_m": 9999,
      "fzfg": false,
      "metar_trigger": false,
      "taf_trigger": false,
      "metar": "METAR ENVA 131450Z 11006KT 9999 BKN049 M06/M14 Q1001 NOSIG RMK WIND 670FT 14008KT",
      "taf": "TAF ENVA 131100Z 1312/1412 10008KT CAVOK"
    },
    {
      "icao": "ENZV",
      "alert": "OK",
      "vis_m": 9999,
      "fzfg": false,
      "metar_trigger": false,
      "taf_trigger": false,
      "metar": "METAR ENZV 131450Z 18011KT 9999 FEW029 BKN039 M01/M10 Q1001 NOSIG",
      "taf": "TAF ENZV 131100Z 1312/1412 16010KT 9999 BKN030"
    },
    {
      "icao": "EPGD",
      "alert": "OK",
      "vis_m": 2700,
      "fzfg": false,
      "metar_trigger": false,
      "taf_trigger": false,
      "metar": "METAR EPGD 131500Z 35011KT 2700 -SN BR BKN004 M02/M02 Q0989",
      "taf": "TAF EPGD 131130Z 1312/1412 01012KT 4000 -SN BR OVC002"
    },
    {
      "icao": "EPKK",
      "alert": "OK",
      "vis_m": 9999,
      "fzfg": false,
      "metar_trigger": false,
      "taf_trigger": false,
      "metar": "METAR EPKK 131500Z 24009KT CAVOK 08/03 Q0991",
      "taf": "TAF EPKK 131430Z 1315/1415 24012KT 9999 SCT030"
    },
    {
      "icao": "EPKT",
      "alert": "OK",
      "vis_m": 9999,
      "fzfg": false,
      "metar_trigger": false,
      "taf_trigger": false,
      "metar": "METAR EPKT 131500Z 24012KT 9999 -SHRA FEW023CB BKN031 08/04 Q0990",
      "taf": "TAF EPKT 131130Z 1312/1412 24012KT 9999 BKN030"
    },
    {
      "icao": "EPLB",
      "alert": "OK",
      "vis_m": 9999,
      "fzfg": false,
      "metar_trigger": false,
      "taf_trigger": false,
      "metar": "METAR EPLB 131500Z 22007KT 9999 FEW035 BKN045 05/03 Q0989",
      "taf": "TAF EPLB 131130Z 1312/1412 25010KT 9999 BKN020"
    },
    {
      "icao": "EPMO",
      "alert": "OK",
      "vis_m": 9999,
      "fzfg": false,
      "metar_trigger": false,
      "taf_trigger": false,
      "metar": "METAR EPMO 131500Z 25014KT 9999 SCT008 BKN012 01/01 Q0987",
      "taf": "TAF EPMO 131130Z 1312/1412 24011KT 9999 BKN007"
    },
    {
      "icao": "EPPO",
      "alert": "OK",
      "vis_m": 9999,
      "fzfg": false,
      "metar_trigger": false,
      "taf_trigger": false,
      "metar": "METAR EPPO 131500Z 31009KT 9999 OVC007 01/M00 Q0991",
      "taf": "TAF EPPO 131130Z 1312/1412 26012KT 9999 OVC007"
    },
    {
      "icao": "EPRA",
      "alert": "OK",
      "vis_m": 9999,
      "fzfg": false,
      "metar_trigger": false,
      "taf_trigger": false,
      "metar": "METAR EPRA 131500Z 25010KT 9999 BKN030 08/03 Q0988",
      "taf": "TAF EPRA 131430Z 1315/1324 23010KT 9999 BKN025"
    },
    {
      "icao": "EPRZ",
      "alert": "OK",
      "vis_m": 9999,
      "fzfg": false,
      "metar_trigger": false,
      "taf_trigger": false,
      "metar": "METAR EPRZ 131500Z 24007KT 9999 SCT040 09/03 Q0990",
      "taf": "TAF EPRZ 131130Z 1312/1412 28014KT 9999 BKN030"
    },
    {
      "icao": "EPSC",
      "alert": "OK",
      "vis_m": 9999,
      "fzfg": false,
      "metar_trigger": false,
      "taf_trigger": false,
      "metar": "METAR EPSC 131500Z 34007KT 9999 OVC005 01/00 Q0993",
      "taf": "TAF EPSC 131130Z 1312/1412 35010KT 9999 BKN006"
    },
    {
      "icao": "EPSY",
      "alert": "OK",
      "vis_m": 2600,
      "fzfg": false,
      "metar_trigger": false,
      "taf_trigger": false,
      "metar": "METAR EPSY 131500Z 22008KT 2600 -SNRA BR OVC002 01/00 Q0985",
      "taf": "TAF EPSY 131430Z 1315/1324 24010KT 4000 -SNRA BR OVC004"
    },
    {
      "icao": "EPWA",
      "alert": "OK",
      "vis_m": 9999,
      "fzfg": false,
      "metar_trigger": false,
      "taf_trigger": false,
      "metar": "METAR EPWA 131500Z 26014KT 9999 BKN012 03/01 Q0988 NOSIG",
      "taf": ""
    },
    {
      "icao": "EPWR",
      "alert": "OK",
      "vis_m": 9999,
      "fzfg": false,
      "metar_trigger": false,
      "taf_trigger": false,
      "metar": "METAR EPWR 131500Z 31009KT 9999 FEW010 BKN013 06/04 Q0991",
      "taf": "TAF EPWR 131430Z 1315/1415 30012KT 9999 BKN030"
    },
    {
      "icao": "ESGG",
      "alert": "OK",
      "vis_m": 9999,
      "fzfg": false,
      "metar_trigger": false,
      "taf_trigger": false,
      "metar": "METAR ESGG 131450Z 02011KT 9999 -SN FEW024 OVC044 M07/M09 Q0999",
      "taf": "TAF ESGG 131430Z 1315/1415 03010KT 9999 -SN SCT020 BKN040"
    },
    {
      "icao": "ESKN",
      "alert": "OK",
      "vis_m": 9000,
      "fzfg": false,
      "metar_trigger": false,
      "taf_trigger": false,
      "metar": "METAR ESKN 131450Z 01010KT 340V050 9000 -SN FEW013 BKN036 M06/M09 Q1001",
      "taf": "TAF ESKN 131430Z 1315/1415 02010KT 9999 -SN BKN035"
    },
    {
      "icao": "ESMS",
      "alert": "OK",
      "vis_m": 9999,
      "fzfg": false,
      "metar_trigger": false,
      "taf_trigger": false,
      "metar": "METAR ESMS 131450Z 01008KT 9999 BKN021 M02/M06 Q0996",
      "taf": "TAF ESMS 131427Z 1315/1415 02010KT 9999 FEW018 BKN045"
    },
    {
      "icao": "ESSA",
      "alert": "OK",
      "vis_m": 9999,
      "fzfg": false,
      "metar_trigger": false,
      "taf_trigger": false,
      "metar": "METAR ESSA 131450Z 01010KT 9999 FEW016 BKN025 M08/M12 Q1003 TEMPO BKN011",
      "taf": "TAF ESSA 131430Z 1315/1415 03009KT 9999 FEW010 BKN018"
    },
    {
      "icao": "EYKA",
      "alert": "OK",
      "vis_m": 4000,
      "fzfg": false,
      "metar_trigger": false,
      "taf_trigger": false,
      "metar": "METAR EYKA 131520Z VRB05KT 4000 FZRA OVC002 M01/M01 Q0985",
      "taf": "TAF EYKA 131121Z 1312/1412 VRB03KT 3000 -RA BR OVC002"
    },
    {
      "icao": "EYPA",
      "alert": "OK",
      "vis_m": 9999,
      "fzfg": false,
      "metar_trigger": false,
      "taf_trigger": false,
      "metar": "METAR EYPA 131520Z 05011G21KT 9999 FEW017 M05/M08 Q0990",
      "taf": "TAF EYPA 131110Z 1312/1412 05013KT 9000 SCT010 BKN030"
    },
    {
      "icao": "EYVI",
      "alert": "OK",
      "vis_m": 700,
      "fzfg": false,
      "metar_trigger": false,
      "taf_trigger": false,
      "metar": "METAR EYVI 131520Z 18004KT 0700 R01/1500U FG VV002 02/02 Q0985 NOSIG",
      "taf": ""
    },
    {
      "icao": "GCFV",
      "alert": "OK",
      "vis_m": 9999,
      "fzfg": false,
      "metar_trigger": false,
      "taf_trigger": false,
      "metar": "METAR GCFV 131500Z 34019KT 9999 FEW030 BKN040 22/13 Q1023",
      "taf": "TAF GCFV 131400Z 1315/1415 36015KT 9999 BKN035 TX20/1414Z TN16/1406Z"
    },
    {
      "icao": "GCLP",
      "alert": "OK",
      "vis_m": 9999,
      "fzfg": false,
      "metar_trigger": false,
      "taf_trigger": false,
      "metar": "METAR GCLP 131500Z 36021KT 320V020 9999 BKN035 23/14 Q1023 NOSIG",
      "taf": "TAF GCLP 131400Z 1315/1415 36022KT 9999 SCT030 TX19/1414Z TN16/1406Z"
    },
    {
      "icao": "GCTS",
      "alert": "OK",
      "vis_m": 9999,
      "fzfg": false,
      "metar_trigger": false,
      "taf_trigger": false,
      "metar": "METAR GCTS 131500Z 22010KT 200V260 9999 SCT025 21/14 Q1024 NOSIG",
      "taf": "TAF GCTS 131400Z 1315/1415 06020KT 9999 BKN025 TX24/1414Z TN15/1406Z"
    },
    {
      "icao": "GMAD",
      "alert": "OK",
      "vis_m": 8000,
      "fzfg": false,
      "metar_trigger": false,
      "taf_trigger": false,
      "metar": "METAR GMAD 131500Z 26022KT 8000 SCT033 20/15 Q1019 NOSIG",
      "taf": "TAF GMAD 131100Z 1312/1418 28008KT 8000 BKN020"
    },
    {
      "icao": "GMMN",
      "alert": "OK",
      "vis_m": 9999,
      "fzfg": false,
      "metar_trigger": false,
      "taf_trigger": false,
      "metar": "METAR GMMN 131500Z 28020G31KT 9999 SCT020TCU BKN026 16/11 Q1018 NOSIG",
      "taf": "TAF GMMN 131100Z 1312/1418 24016KT 9999 SCT010 BKN020"
    },
    {
      "icao": "GMMX",
      "alert": "OK",
      "vis_m": 7000,
      "fzfg": false,
      "metar_trigger": false,
      "taf_trigger": false,
      "metar": "SPECI GMMX 131515Z 29014KT 250V330 7000 -DZ SCT010 BKN020 14/12 Q1020 NOSIG",
      "taf": "TAF GMMX 131100Z 1312/1418 24008KT 8000 BKN026"
    },
    {
      "icao": "HEGN",
      "alert": "OK",
      "vis_m": 9999,
      "fzfg": false,
      "metar_trigger": false,
      "taf_trigger": false,
      "metar": "METAR HEGN 131400Z 11010KT CAVOK 25/14 Q1010 NOSIG",
      "taf": "TAF HEGN 131100Z 1312/1418 26010G20KT 6000 FEW025"
    },
    {
      "icao": "HEMA",
      "alert": "OK",
      "vis_m": 9999,
      "fzfg": false,
      "metar_trigger": false,
      "taf_trigger": false,
      "metar": "METAR HEMA 131400Z 11012KT CAVOK 26/10 Q1011 NOSIG",
      "taf": "TAF HEMA 131100Z 1312/1418 25010G20KT 6000 FEW025"
    },
    {
      "icao": "HESH",
      "alert": "OK",
      "vis_m": 9999,
      "fzfg": false,
      "metar_trigger": false,
      "taf_trigger": false,
      "metar": "METAR HESH 131400Z 16010KT CAVOK 24/16 Q1011 NOSIG",
      "taf": "TAF HESH 131100Z 1312/1418 23010G20KT 6000 FEW025"
    },
    {
      "icao": "HESX",
      "alert": "OK",
      "vis_m": 2000,
      "fzfg": false,
      "metar_trigger": false,
      "taf_trigger": false,
      "metar": "METAR HESX 131400Z 27017KT 2000 SA NSC 25/05 Q1006 NOSIG",
      "taf": "TAF HESX 131100Z 1312/1418 25015G25KT 6000 NSC"
    },
    {
      "icao": "LATI",
      "alert": "OK",
      "vis_m": 9999,
      "fzfg": false,
      "metar_trigger": false,
      "taf_trigger": false,
      "metar": "METAR LATI 131520Z 33009KT 9999 FEW040 SCT086 14/11 Q0993 NOSIG",
      "taf": "TAF LATI 131100Z 1312/1412 33008KT 9999 SCT030 TX17/1313Z TN08/1405Z"
    },
    {
      "icao": "LBPD",
      "alert": "OK",
      "vis_m": 9999,
      "fzfg": false,
      "metar_trigger": false,
      "taf_trigger": false,
      "metar": "METAR LBPD 131500Z AUTO 00000KT 9999 -RA OVC042/// 08/08 Q0991 TEMPO 3000 RA",
      "taf": "TAF LBPD 131100Z 1312/1412 29008KT 5000 RA BKN012 OVC020"
    },
    {
      "icao": "LBSF",
      "alert": "OK",
      "vis_m": 9999,
      "fzfg": false,
      "metar_trigger": false,
      "taf_trigger": false,
      "metar": "METAR LBSF 131500Z 17003KT 090V200 9999 FEW041 SCT050 BKN063 08/04 Q0992 NOSIG",
      "taf": "TAF LBSF 131100Z 1312/1412 VRB04KT 7000 SCT012 BKN030"
    },
    {
      "icao": "LBWN",
      "alert": "OK",
      "vis_m": 4400,
      "fzfg": false,
      "metar_trigger": false,
      "taf_trigger": false,
      "metar": "METAR LBWN 131500Z VRB05KT 4400 -RA BR FEW009 BKN011 OVC023 08/08 Q0990 NOSIG",
      "taf": "TAF LBWN 131100Z 1312/1412 VRB04KT 3000 RA BR BKN005 OVC025"
    },
    {
      "icao": "LCLK",
      "alert": "OK",
      "vis_m": 9999,
      "fzfg": false,
      "metar_trigger": false,
      "taf_trigger": false,
      "metar": "METAR LCLK 131500Z 21021KT 9999 FEW012 SCT020 FEW025CB 16/13 Q1001 NOSIG RMK CB TO W",
      "taf": "TAF LCLK 131130Z 1312/1412 22022KT 9999 FEW020 SCT035"
    },
    {
      "icao": "LCPH",
      "alert": "OK",
      "vis_m": 9999,
      "fzfg": false,
      "metar_trigger": false,
      "taf_trigger": false,
      "metar": "METAR LCPH 131500Z 24005KT 170V260 9999 FEW015 FEW030CB SCT040 BKN065 15/12 Q1002 NOSIG",
      "taf": "TAF LCPH 131130Z 1312/1412 22022KT 9999 FEW020 SCT035"
    },
    {
      "icao": "LEAL",
      "alert": "OK",
      "vis_m": 9999,
      "fzfg": false,
      "metar_trigger": false,
      "taf_trigger": false,
      "metar": "METAR LEAL 131500Z 24019G34KT 200V270 9999 SCT066 18/05 Q0995 NOSIG",
      "taf": "TAF LEAL 131100Z 1312/1412 27015KT 9999 FEW030 TX20/1313Z TN10/1406Z"
    },
    {
      "icao": "LEBB",
      "alert": "OK",
      "vis_m": 9999,
      "fzfg": false,
      "metar_trigger": false,
      "taf_trigger": false,
      "metar": "METAR LEBB 131500Z 26013G24KT 220V300 9999 -RA BKN031 BKN043 12/08 Q0989 NOSIG",
      "taf": ""
    },
    {
      "icao": "LEBL",
      "alert": "OK",
      "vis_m": 6000,
      "fzfg": false,
      "metar_trigger": false,
      "taf_trigger": false,
      "metar": "METAR LEBL 131500Z 30009KT 260V330 6000 -SHRA FEW013 FEW015TCU SCT020 BKN055 11/10 Q0986 TEMPO 3000 SHRA",
      "taf": ""
    },
    {
      "icao": "LECH",
      "alert": "OK",
      "vis_m": 9999,
      "fzfg": false,
      "metar_trigger": false,
      "taf_trigger": false,
      "metar": "METAR LECH 131500Z AUTO 25011KT CAVOK 13/05 Q0987",
      "taf": ""
    },
    {
      "icao": "LEMD",
      "alert": "OK",
      "vis_m": 9999,
      "fzfg": false,
      "metar_trigger": false,
      "taf_trigger": false,
      "metar": "METAR LEMD 131500Z 25016KT 220V290 9999 SCT050 BKN060 12/04 Q0995 NOSIG",
      "taf": "TAF LEMD 131100Z 1312/1418 27015KT 9999 SCT035 TX12/1315Z TN04/1405Z"
    },
    {
      "icao": "LEMG",
      "alert": "OK",
      "vis_m": 9999,
      "fzfg": false,
      "metar_trigger": false,
      "taf_trigger": false,
      "metar": "METAR LEMG 131500Z 27011G23KT 210V300 9999 FEW035 SCT060 16/06 Q1006 NOSIG",
      "taf": "TAF LEMG 131100Z 1312/1412 30018KT 9999 SCT035 TX22/1314Z TN12/1406Z"
    },
    {
      "icao": "LEVC",
      "alert": "OK",
      "vis_m": 9999,
      "fzfg": false,
      "metar_trigger": false,
      "taf_trigger": false,
      "metar": "METAR LEVC 131500Z 27020G31KT 240V300 9999 FEW050 15/07 Q0990 NOSIG",
      "taf": ""
    },
    {
      "icao": "LEXJ",
      "alert": "OK",
      "vis_m": 1100,
      "fzfg": false,
      "metar_trigger": false,
      "taf_trigger": false,
      "metar": "METAR LEXJ 131500Z 30034G49KT 260V330 1100 R29/0900N R11/P2000 SHRA BR BKN015 OVC024TCU 10/08 Q0991",
      "taf": "TAF LEXJ 131400Z 1315/1415 29019KT 9999 SCT020 BKN035 TX12/1315Z TN09/1413Z"
    },
    {
      "icao": "LEZG",
      "alert": "OK",
      "vis_m": 3000,
      "fzfg": false,
      "metar_trigger": false,
      "taf_trigger": false,
      "metar": "SPECI LEZG 131507Z 01006KT 340V060 3000 RA SCT010 BKN040 09/09 Q0988 NOSIG",
      "taf": "TAF LEZG 131100Z 1312/1412 11010KT 9999 FEW020 TX13/1312Z TN06/1406Z"
    },
    {
      "icao": "LEZL",
      "alert": "OK",
      "vis_m": 7000,
      "fzfg": false,
      "metar_trigger": false,
      "taf_trigger": false,
      "metar": "METAR LEZL 131500Z 28016G28KT 250V320 7000 TSRA FEW030CB SCT040 12/09 Q1007 NOSIG",
      "taf": ""
    },
    {
      "icao": "LFBD",
      "alert": "OK",
      "vis_m": 9999,
      "fzfg": false,
      "metar_trigger": false,
      "taf_trigger": false,
      "metar": "METAR LFBD 131500Z AUTO 15005KT 9999 SCT009 BKN013 BKN019 11/09 Q0986 TEMPO 4000 -RA",
      "taf": "TAF LFBD 131100Z 1312/1418 16010KT CAVOK TX12/1314Z TN06/1418Z"
    },
    {
      "icao": "LFLL",
      "alert": "OK",
      "vis_m": 9999,
      "fzfg": false,
      "metar_trigger": false,
      "taf_trigger": false,
      "metar": "METAR LFLL 131500Z 17010KT CAVOK 11/02 Q0990 NOSIG",
      "taf": ""
    },
    {
      "icao": "LFLS",
      "alert": "OK",
      "vis_m": 9999,
      "fzfg": false,
      "metar_trigger": false,
      "taf_trigger": false,
      "metar": "METAR LFLS 131500Z AUTO 22007KT CAVOK 09/03 Q0990 NOSIG",
      "taf": "TAF LFLS 131400Z 1315/1415 24008KT CAVOK"
    },
    {
      "icao": "LFMN",
      "alert": "OK",
      "vis_m": 9999,
      "fzfg": false,
      "metar_trigger": false,
      "taf_trigger": false,
      "metar": "METAR LFMN 131500Z 26014KT 9999 -RA FEW053 BKN080 14/06 Q0993 TEMPO 4500 - SHRA SCT045TCU",
      "taf": "TAF LFMN 131400Z 1315/1421 23015KT CAVOK"
    },
    {
      "icao": "LFOB",
      "alert": "OK",
      "vis_m": 9999,
      "fzfg": false,
      "metar_trigger": false,
      "taf_trigger": false,
      "metar": "METAR LFOB 131500Z AUTO 06007KT 040V120 9999 FEW007/// BKN050/// BKN066/// //////TCU 09/08 Q0990 TEMPO 3000 RA BKN006 BKN012TCU",
      "taf": "TAF LFOB 131100Z 1312/1412 13007KT 9999 BKN020"
    },
    {
      "icao": "LFPO",
      "alert": "OK",
      "vis_m": 7000,
      "fzfg": false,
      "metar_trigger": false,
      "taf_trigger": false,
      "metar": "METAR LFPO 131500Z 08005KT 7000 -RA FEW008 OVC046 09/08 Q0989 NOSIG",
      "taf": "TAF LFPO 131100Z 1312/1418 15005KT 6000 BKN008"
    },
    {
      "icao": "LFSB",
      "alert": "OK",
      "vis_m": 9999,
      "fzfg": false,
      "metar_trigger": false,
      "taf_trigger": false,
      "metar": "METAR LFSB 131500Z AUTO 36005KT CAVOK 11/04 Q0991 NOSIG",
      "taf": "TAF LFSB 131100Z 1312/1412 09004KT 9999 FEW030 BKN100"
    },
    {
      "icao": "LGAV",
      "alert": "OK",
      "vis_m": null,
      "fzfg": false,
      "metar_trigger": false,
      "taf_trigger": false,
      "metar": "",
      "taf": "TAF LGAV 131100Z 1312/1412 28012KT 9999 SCT025 SCT070"
    },
    {
      "icao": "LGTS",
      "alert": "OK",
      "vis_m": 9999,
      "fzfg": false,
      "metar_trigger": false,
      "taf_trigger": false,
      "metar": "METAR LGTS 131450Z 27002KT 9999 FEW015 SCT030 14/10 Q0990 NOSIG",
      "taf": "TAF LGTS 131100Z 1312/1412 VRB03KT 9999 SCT025"
    },
    {
      "icao": "LHBP",
      "alert": "OK",
      "vis_m": 9999,
      "fzfg": false,
      "metar_trigger": false,
      "taf_trigger": false,
      "metar": "METAR LHBP 131500Z 32011KT 9999 FEW038 BKN052 12/04 Q0994 NOSIG",
      "taf": "TAF LHBP 131115Z 1312/1412 31011G21KT 9999 SCT035"
    },
    {
      "icao": "LHDC",
      "alert": "OK",
      "vis_m": 9999,
      "fzfg": false,
      "metar_trigger": false,
      "taf_trigger": false,
      "metar": "METAR LHDC 131445Z AUTO 27004KT 240V310 9999 FEW036 12/06 Q0992 NOSIG",
      "taf": "TAF LHDC 131415Z 1315/1324 25006KT 9999 SCT030"
    },
    {
      "icao": "LIBD",
      "alert": "OK",
      "vis_m": 9999,
      "fzfg": false,
      "metar_trigger": false,
      "taf_trigger": false,
      "metar": "METAR LIBD 131450Z 28008KT 250V310 9999 FEW010 BKN020 12/11 Q0995",
      "taf": "TAF LIBD 131100Z 1312/1412 29016KT 9999 SCT030"
    },
    {
      "icao": "LIBG",
      "alert": "OK",
      "vis_m": 9999,
      "fzfg": false,
      "metar_trigger": false,
      "taf_trigger": false,
      "metar": "METAR LIBG 131450Z 30008KT 260V320 9999 4000N SHRA SCT025 14/09 Q0995",
      "taf": "TAF LIBG 131400Z 1315/1324 30012KT 9999 SCT020"
    },
    {
      "icao": "LIBP",
      "alert": "OK",
      "vis_m": 9999,
      "fzfg": false,
      "metar_trigger": false,
      "taf_trigger": false,
      "metar": "METAR LIBP 131450Z AUTO 07008KT 9999 NCD 16/07 Q0995",
      "taf": "TAF LIBP 131100Z 1312/1412 VRB05KT 9999 SCT050"
    },
    {
      "icao": "LIBR",
      "alert": "OK",
      "vis_m": 7000,
      "fzfg": false,
      "metar_trigger": false,
      "taf_trigger": false,
      "metar": "METAR LIBR 131450Z 31020KT 7000 -RA FEW015 BKN025 13/11 Q0994",
      "taf": "TAF LIBR 131100Z 1312/1412 30020KT 9999 FEW020"
    },
    {
      "icao": "LICA",
      "alert": "OK",
      "vis_m": 9999,
      "fzfg": false,
      "metar_trigger": false,
      "taf_trigger": false,
      "metar": "METAR LICA 131450Z AUTO 25016KT 9999 SCT023/// BKN026/// 14/12 Q0999 RERA",
      "taf": ""
    },
    {
      "icao": "LICC",
      "alert": "OK",
      "vis_m": 9999,
      "fzfg": false,
      "metar_trigger": false,
      "taf_trigger": false,
      "metar": "METAR LICC 131450Z 29018KT CAVOK 19/13 Q0999",
      "taf": "TAF LICC 131100Z 1312/1412 28025G35KT 9999 FEW030"
    },
    {
      "icao": "LICJ",
      "alert": "OK",
      "vis_m": 9999,
      "fzfg": false,
      "metar_trigger": false,
      "taf_trigger": false,
      "metar": "METAR LICJ 131450Z 25011KT 9999 SCT060 15/10 Q1000",
      "taf": "TAF LICJ 131100Z 1312/1412 25025G35KT 9999 FEW030"
    },
    {
      "icao": "LIMC",
      "alert": "OK",
      "vis_m": 9999,
      "fzfg": false,
      "metar_trigger": false,
      "taf_trigger": false,
      "metar": "METAR LIMC 131450Z 13004KT CAVOK 16/M03 Q0992 NOSIG",
      "taf": "TAF LIMC 131100Z 1312/1418 VRB05KT CAVOK"
    },
    {
      "icao": "LIME",
      "alert": "OK",
      "vis_m": 9999,
      "fzfg": false,
      "metar_trigger": false,
      "taf_trigger": false,
      "metar": "METAR LIME 131450Z 12003KT 060V140 CAVOK 15/M01 Q0992 NOSIG",
      "taf": "TAF LIME 131100Z 1312/1412 VRB06KT CAVOK"
    },
    {
      "icao": "LIMF",
      "alert": "OK",
      "vis_m": 9999,
      "fzfg": false,
      "metar_trigger": false,
      "taf_trigger": false,
      "metar": "METAR LIMF 131450Z 06005KT 9999 BKN130 13/02 Q0992",
      "taf": "TAF LIMF 131100Z 1312/1412 07006KT CAVOK"
    },
    {
      "icao": "LIMJ",
      "alert": "OK",
      "vis_m": 9999,
      "fzfg": false,
      "metar_trigger": false,
      "taf_trigger": false,
      "metar": "METAR LIMJ 131450Z 14009KT 9999 SCT030 SCT040 14/07 Q0994",
      "taf": "TAF LIMJ 131100Z 1312/1412 13018KT 9999 SCT025"
    },
    {
      "icao": "LIPE",
      "alert": "OK",
      "vis_m": 9999,
      "fzfg": false,
      "metar_trigger": false,
      "taf_trigger": false,
      "metar": "METAR LIPE 131450Z 09006KT 050V120 CAVOK 16/07 Q0993",
      "taf": "TAF LIPE 131100Z 1312/1412 VRB05KT CAVOK"
    },
    {
      "icao": "LIPH",
      "alert": "OK",
      "vis_m": 5000,
      "fzfg": false,
      "metar_trigger": false,
      "taf_trigger": false,
      "metar": "METAR LIPH 131450Z 14004KT 100V190 5000 BR BKN003 09/09 Q0994",
      "taf": "TAF LIPH 131100Z 1312/1412 VRB05KT 6000 FEW020"
    },
    {
      "icao": "LIPQ",
      "alert": "OK",
      "vis_m": 9999,
      "fzfg": false,
      "metar_trigger": false,
      "taf_trigger": false,
      "metar": "METAR LIPQ 131450Z AUTO 16003KT 9999 NCD 12/10 Q0994",
      "taf": "TAF LIPQ 131100Z 1312/1412 VRB05KT 7000 BKN010"
    },
    {
      "icao": "LIPR",
      "alert": "OK",
      "vis_m": 9999,
      "fzfg": false,
      "metar_trigger": false,
      "taf_trigger": false,
      "metar": "METAR LIPR 131450Z 09005KT 050V120 CAVOK 12/07 Q0994",
      "taf": "TAF LIPR 131100Z 1312/1412 VRB05KT CAVOK"
    },
    {
      "icao": "LIPX",
      "alert": "OK",
      "vis_m": 8000,
      "fzfg": false,
      "metar_trigger": false,
      "taf_trigger": false,
      "metar": "METAR LIPX 131450Z 11006KT 8000 NSC 12/09 Q0994",
      "taf": "TAF LIPX 131100Z 1312/1412 VRB05KT 9999 FEW010"
    },
    {
      "icao": "LIPY",
      "alert": "OK",
      "vis_m": 9999,
      "fzfg": false,
      "metar_trigger": false,
      "taf_trigger": false,
      "metar": "METAR LIPY 131450Z AUTO 04006KT 9999 NCD 13/08 Q0994",
      "taf": "TAF LIPY 131100Z 1312/1412 VRB05KT 9999 FEW040"
    },
    {
      "icao": "LIPZ",
      "alert": "OK",
      "vis_m": 250,
      "fzfg": false,
      "metar_trigger": false,
      "taf_trigger": false,
      "metar": "METAR LIPZ 131450Z VRB02KT 0250 R04R/0900N FG VV002 08/08 Q0994 NOSIG",
      "taf": ""
    },
    {
      "icao": "LIRF",
      "alert": "OK",
      "vis_m": 9999,
      "fzfg": false,
      "metar_trigger": false,
      "taf_trigger": false,
      "metar": "METAR LIRF 131450Z 27005KT 240V300 CAVOK 15/09 Q0996 NOSIG",
      "taf": "TAF LIRF 131100Z 1312/1418 27010KT CAVOK"
    },
    {
      "icao": "LIRN",
      "alert": "OK",
      "vis_m": 9999,
      "fzfg": false,
      "metar_trigger": false,
      "taf_trigger": false,
      "metar": "METAR LIRN 131450Z AUTO 27008KT 9999 NCD 17/09 Q0996",
      "taf": "TAF LIRN 131100Z 1312/1412 VRB05KT CAVOK"
    },
    {
      "icao": "LIRP",
      "alert": "OK",
      "vis_m": 9999,
      "fzfg": false,
      "metar_trigger": false,
      "taf_trigger": false,
      "metar": "METAR LIRP 131445Z 30007KT 9999 SCT025 14/10 Q0995 NOSIG",
      "taf": "TAF LIRP 131100Z 1312/1412 30008KT 9999 SCT025"
    },
    {
      "icao": "LIRZ",
      "alert": "OK",
      "vis_m": 9999,
      "fzfg": false,
      "metar_trigger": false,
      "taf_trigger": false,
      "metar": "METAR LIRZ 131450Z AUTO 16004KT 9999 NCD 15/08 Q0996",
      "taf": ""
    },
    {
      "icao": "LJLJ",
      "alert": "OK",
      "vis_m": 9999,
      "fzfg": false,
      "metar_trigger": false,
      "taf_trigger": false,
      "metar": "METAR LJLJ 131500Z 05003KT 010V090 9999 VCSH SCT040TCU SCT250 13/05 Q0994 NOSIG",
      "taf": "TAF LJLJ 131100Z 1312/1412 VRB02KT 9999 SCT010"
    },
    {
      "icao": "LKMT",
      "alert": "OK",
      "vis_m": 9999,
      "fzfg": false,
      "metar_trigger": false,
      "taf_trigger": false,
      "metar": "METAR LKMT 131500Z 22016KT 9999 FEW037 OVC045 09/04 Q0992 NOSIG",
      "taf": "TAF LKMT 131100Z 1312/1412 23013KT 9999 SCT035 BKN040"
    },
    {
      "icao": "LKPR",
      "alert": "OK",
      "vis_m": 9999,
      "fzfg": false,
      "metar_trigger": false,
      "taf_trigger": false,
      "metar": "METAR LKPR 131500Z 23012KT 9999 FEW019 BKN049 07/04 Q0992 NOSIG",
      "taf": "TAF LKPR 131400Z 1315/1421 21016KT 9999 SCT023"
    },
    {
      "icao": "LLBG",
      "alert": "OK",
      "vis_m": 9000,
      "fzfg": false,
      "metar_trigger": false,
      "taf_trigger": false,
      "metar": "METAR LLBG 131520Z 35013KT 9000 SCT018 19/13 Q1007 NOSIG",
      "taf": ""
    },
    {
      "icao": "LMML",
      "alert": "OK",
      "vis_m": 9999,
      "fzfg": false,
      "metar_trigger": false,
      "taf_trigger": false,
      "metar": "METAR LMML 131515Z 26020G31KT CAVOK 16/09 Q1003 NOSIG",
      "taf": "TAF LMML 131100Z 1312/1412 28025G35KT 9999 FEW020"
    },
    {
      "icao": "LOWW",
      "alert": "OK",
      "vis_m": 9999,
      "fzfg": false,
      "metar_trigger": false,
      "taf_trigger": false,
      "metar": "METAR LOWW 131450Z 29019KT 9999 FEW050 12/M01 Q0994 NOSIG",
      "taf": "TAF LOWW 131415Z 1315/1421 27013KT 9999 FEW050 TX12/1315Z TN02/1404Z"
    },
    {
      "icao": "LPFR",
      "alert": "OK",
      "vis_m": 9999,
      "fzfg": false,
      "metar_trigger": false,
      "taf_trigger": false,
      "metar": "METAR LPFR 131500Z 31013KT 9999 FEW018 FEW020CB SCT030 12/10 Q1010",
      "taf": "TAF LPFR 131100Z 1312/1412 28020KT 9999 SCT020"
    },
    {
      "icao": "LPMA",
      "alert": "OK",
      "vis_m": 9999,
      "fzfg": false,
      "metar_trigger": false,
      "taf_trigger": false,
      "metar": "METAR LPMA 131500Z VRB09G20KT 9999 SCT016 20/08 Q1026",
      "taf": "TAF LPMA 131100Z 1312/1412 34012KT 9999 SCT015"
    },
    {
      "icao": "LPPR",
      "alert": "OK",
      "vis_m": 9999,
      "fzfg": false,
      "metar_trigger": false,
      "taf_trigger": false,
      "metar": "METAR LPPR 131500Z 30013KT 270V330 9999 VCSH FEW020TCU BKN027 12/09 Q1003",
      "taf": "TAF LPPR 131100Z 1312/1412 31015G25KT 9999 SCT020"
    },
    {
      "icao": "LPPS",
      "alert": "OK",
      "vis_m": 9999,
      "fzfg": false,
      "metar_trigger": false,
      "taf_trigger": false,
      "metar": "METAR LPPS 131500Z 33020KT 9999 FEW015 18/09 Q1025",
      "taf": "TAF LPPS 131100Z 1312/1418 32018KT 9999 SCT015"
    },
    {
      "icao": "LPPT",
      "alert": "OK",
      "vis_m": 9999,
      "fzfg": false,
      "metar_trigger": false,
      "taf_trigger": false,
      "metar": "METAR LPPT 131500Z 30018G34KT 280V340 9999 FEW025 FEW030TCU 14/09 Q1008",
      "taf": "TAF LPPT 131100Z 1312/1418 29018G30KT 9999 SCT025"
    },
    {
      "icao": "LQBK",
      "alert": "OK",
      "vis_m": 9999,
      "fzfg": false,
      "metar_trigger": false,
      "taf_trigger": false,
      "metar": "METAR LQBK 131500Z 16002KT 9999 SCT045 14/04 Q0995 NOSIG",
      "taf": "TAF LQBK 131100Z 1312/1412 18005KT 9999 FEW030 TX15/1313Z TN01/1405Z"
    },
    {
      "icao": "LQSA",
      "alert": "OK",
      "vis_m": 9999,
      "fzfg": false,
      "metar_trigger": false,
      "taf_trigger": false,
      "metar": "METAR LQSA 131500Z VRB02KT 9999 FEW030 BKN050 08/05 Q0996 NOSIG",
      "taf": "TAF LQSA 131100Z 1312/1412 33005KT 9999 SCT025 BKN035 TX12/1412Z TN01/1404Z"
    },
    {
      "icao": "LQTZ",
      "alert": "OK",
      "vis_m": 9999,
      "fzfg": false,
      "metar_trigger": false,
      "taf_trigger": false,
      "metar": "METAR LQTZ 131500Z 28003KT 250V320 9999 FEW030 SCT045 12/05 Q0996",
      "taf": "TAF LQTZ 131100Z 1312/1412 30005KT 9999 SCT030 BKN040 TX12/1412Z TN02/1405Z"
    },
    {
      "icao": "LRBC",
      "alert": "OK",
      "vis_m": 9999,
      "fzfg": false,
      "metar_trigger": false,
      "taf_trigger": false,
      "metar": "METAR LRBC 131500Z 16003KT CAVOK 07/06 Q0991",
      "taf": "TAF LRBC 131400Z 1315/1324 17006KT 5000 BR NSC"
    },
    {
      "icao": "LRBS",
      "alert": "OK",
      "vis_m": 9000,
      "fzfg": false,
      "metar_trigger": false,
      "taf_trigger": false,
      "metar": "METAR LRBS 131500Z AUTO 24004KT 9000 BKN008/// OVC009/// 07/06 Q0993 NOSIG",
      "taf": "TAF LRBS 131100Z 1312/1412 VRB04KT 7000 BKN005"
    },
    {
      "icao": "LRBV",
      "alert": "OK",
      "vis_m": 9999,
      "fzfg": false,
      "metar_trigger": false,
      "taf_trigger": false,
      "metar": "METAR LRBV 131500Z 29007KT CAVOK 10/02 Q0991",
      "taf": "TAF LRBV 131400Z 1315/1324 30008KT CAVOK"
    },
    {
      "icao": "LRCL",
      "alert": "OK",
      "vis_m": 9999,
      "fzfg": false,
      "metar_trigger": false,
      "taf_trigger": false,
      "metar": "METAR LRCL 131500Z 03003KT 9999 BKN060 11/04 Q0991",
      "taf": "TAF LRCL 131400Z 1315/1324 VRB04KT 9999 BKN050"
    },
    {
      "icao": "LRCV",
      "alert": "OK",
      "vis_m": 4200,
      "fzfg": false,
      "metar_trigger": false,
      "taf_trigger": false,
      "metar": "METAR LRCV 131500Z 25005KT 4200 BR OVC014 06/06 Q0993",
      "taf": "TAF LRCV 131400Z 1315/1324 28006KT 5000 BR BKN015"
    },
    {
      "icao": "LRIA",
      "alert": "OK",
      "vis_m": 5000,
      "fzfg": false,
      "metar_trigger": false,
      "taf_trigger": false,
      "metar": "METAR LRIA 131500Z 08004KT 5000 BR FEW001 BKN025 05/05 Q0992",
      "taf": ""
    },
    {
      "icao": "LROP",
      "alert": "OK",
      "vis_m": 9999,
      "fzfg": false,
      "metar_trigger": false,
      "taf_trigger": false,
      "metar": "METAR LROP 131500Z 24003KT 9999 FEW009 SCT010 OVC018 07/07 Q0992 NOSIG",
      "taf": "TAF LROP 131100Z 1312/1412 VRB04KT 7000 BKN005"
    },
    {
      "icao": "LRSB",
      "alert": "OK",
      "vis_m": 9999,
      "fzfg": false,
      "metar_trigger": false,
      "taf_trigger": false,
      "metar": "METAR LRSB 131500Z 34004KT 300V010 9999 FEW055 BKN070 12/03 Q0991",
      "taf": "TAF LRSB 131100Z 1312/1412 32008KT 9999 SCT055"
    },
    {
      "icao": "LRSM",
      "alert": "OK",
      "vis_m": 9999,
      "fzfg": false,
      "metar_trigger": false,
      "taf_trigger": false,
      "metar": "METAR LRSM 131500Z 23005KT 9999 BKN035 10/07 Q0992",
      "taf": "TAF LRSM 131400Z 1315/1324 25010KT 9999 BKN030"
    },
    {
      "icao": "LRSV",
      "alert": "OK",
      "vis_m": 150,
      "fzfg": false,
      "metar_trigger": false,
      "taf_trigger": false,
      "metar": "METAR LRSV 131500Z 05005KT 0150 R34/0375N FG VV001 03/03 Q0991",
      "taf": ""
    },
    {
      "icao": "LRTM",
      "alert": "OK",
      "vis_m": 9999,
      "fzfg": false,
      "metar_trigger": false,
      "taf_trigger": false,
      "metar": "METAR LRTM 131500Z 27003KT CAVOK 12/04 Q0992",
      "taf": "TAF LRTM 131400Z 1315/1324 VRB04KT CAVOK"
    },
    {
      "icao": "LRTR",
      "alert": "OK",
      "vis_m": 9999,
      "fzfg": false,
      "metar_trigger": false,
      "taf_trigger": false,
      "metar": "METAR LRTR 131500Z 32008KT 9999 FEW035 13/06 Q0994 NOSIG",
      "taf": "TAF LRTR 131100Z 1312/1412 30006KT 9999 SCT030"
    },
    {
      "icao": "LTAC",
      "alert": "OK",
      "vis_m": 9999,
      "fzfg": false,
      "metar_trigger": false,
      "taf_trigger": false,
      "metar": "METAR LTAC 131450Z 19006KT 9999 FEW015 BKN030 BKN080 08/06 Q0994 RESHRA NOSIG RMK RWY21C 19008KT RWY03L 19006KT RWY21R 18009KT RWY03R 16005KT RWY21L 18008KT",
      "taf": "TAF LTAC 131040Z 1312/1412 21015KT 9999 SCT040 BKN100"
    },
    {
      "icao": "LTFM",
      "alert": "OK",
      "vis_m": 9999,
      "fzfg": false,
      "metar_trigger": false,
      "taf_trigger": false,
      "metar": "METAR LTFM 131450Z 20009KT 9999 -SHRA SCT035 BKN080 12/10 Q0989 NOSIG RMK RWY17L 19010KT RWY34L 19008KT RWY16R 19010KT RWY36 20009KT RWY18 21011KT",
      "taf": "TAF LTFM 131040Z 1312/1418 14008KT 9999 SCT032 BKN080"
    },
    {
      "icao": "LUKK",
      "alert": "OK",
      "vis_m": 1100,
      "fzfg": false,
      "metar_trigger": false,
      "taf_trigger": false,
      "metar": "METAR LUKK 131500Z 03004KT 350V080 1100 0750SW R08/0900N BR PRFG OVC001 04/04 Q0993 TEMPO 0600 FG",
      "taf": ""
    },
    {
      "icao": "LWOH",
      "alert": "OK",
      "vis_m": 9999,
      "fzfg": false,
      "metar_trigger": false,
      "taf_trigger": false,
      "metar": "METAR LWOH 131520Z VRB01KT 9999 BKN040 10/07 Q0993",
      "taf": "TAF LWOH 131430Z 1315/1415 15005KT 9999 BKN040"
    },
    {
      "icao": "LWSK",
      "alert": "OK",
      "vis_m": 9999,
      "fzfg": false,
      "metar_trigger": false,
      "taf_trigger": false,
      "metar": "METAR LWSK 131520Z 32009KT 9999 SCT050 BKN075 13/06 Q0993 NOSIG",
      "taf": "TAF LWSK 131430Z 1315/1415 36012KT 9999 SCT045 BKN080"
    },
    {
      "icao": "LYBE",
      "alert": "OK",
      "vis_m": 9999,
      "fzfg": false,
      "metar_trigger": false,
      "taf_trigger": false,
      "metar": "METAR LYBE 131500Z 32006KT 9999 BKN046 13/05 Q0995 NOSIG",
      "taf": "TAF LYBE 131100Z 1312/1412 33008KT 9999 SCT045 TX14/1412Z TN03/1406Z"
    },
    {
      "icao": "LYNI",
      "alert": "OK",
      "vis_m": 9999,
      "fzfg": false,
      "metar_trigger": false,
      "taf_trigger": false,
      "metar": "METAR LYNI 131500Z 32012KT 9999 FEW030 BKN080 11/06 Q0993 NOSIG",
      "taf": "TAF LYNI 131100Z 1312/1412 35010KT 9999 BKN070 TX13/1412Z TN02/1406Z"
    },
    {
      "icao": "LYPG",
      "alert": "OK",
      "vis_m": 9999,
      "fzfg": false,
      "metar_trigger": false,
      "taf_trigger": false,
      "metar": "METAR LYPG 131500Z 00000KT 9999 FEW050 SCT090 14/09 Q0992 NOSIG",
      "taf": ""
    },
    {
      "icao": "LZIB",
      "alert": "OK",
      "vis_m": 9999,
      "fzfg": false,
      "metar_trigger": false,
      "taf_trigger": false,
      "metar": "METAR LZIB 131500Z 28012KT 9999 FEW045 12/01 Q0994 NOSIG",
      "taf": "TAF LZIB 131115Z 1312/1412 28015KT 9999 FEW030"
    },
    {
      "icao": "LZKZ",
      "alert": "OK",
      "vis_m": 9999,
      "fzfg": false,
      "metar_trigger": false,
      "taf_trigger": false,
      "metar": "METAR LZKZ 131500Z 14003KT 110V170 9999 -SHRA SCT020 SCT035 10/05 Q0991 NOSIG",
      "taf": "TAF LZKZ 131115Z 1312/1412 20005KT 9999 SCT010 SCT040"
    },
    {
      "icao": "LZTT",
      "alert": "OK",
      "vis_m": 9999,
      "fzfg": false,
      "metar_trigger": false,
      "taf_trigger": false,
      "metar": "METAR LZTT 131500Z 27015KT 9999 FEW030 BKN063 07/01 Q0991 NOSIG",
      "taf": "TAF LZTT 131115Z 1312/1412 28017KT 9999 FEW020 SCT045"
    },
    {
      "icao": "OEJN",
      "alert": "OK",
      "vis_m": 9999,
      "fzfg": false,
      "metar_trigger": false,
      "taf_trigger": false,
      "metar": "METAR OEJN 131500Z 30006KT CAVOK 27/18 Q1011 NOSIG",
      "taf": "TAF OEJN 131100Z 1312/1418 30010KT CAVOK"
    },
    {
      "icao": "OEMA",
      "alert": "OK",
      "vis_m": 9999,
      "fzfg": false,
      "metar_trigger": false,
      "taf_trigger": false,
      "metar": "METAR OEMA 131500Z 25011KT CAVOK 31/06 Q1014 NOSIG",
      "taf": "TAF OEMA 131100Z 1312/1418 25010KT CAVOK"
    },
    {
      "icao": "OJAI",
      "alert": "OK",
      "vis_m": 5000,
      "fzfg": false,
      "metar_trigger": false,
      "taf_trigger": false,
      "metar": "METAR OJAI 131500Z 21009KT 5000 HZ NSC 20/04 Q1008 NOSIG",
      "taf": "TAF OJAI 131050Z 1312/1418 26014KT 3000 HZ FEW035"
    },
    {
      "icao": "OMAA",
      "alert": "OK",
      "vis_m": 9999,
      "fzfg": false,
      "metar_trigger": false,
      "taf_trigger": false,
      "metar": "METAR OMAA 131500Z 33007KT CAVOK 26/14 Q1015 NOSIG",
      "taf": "TAF OMAA 131100Z 1312/1418 33010KT 8000 NSC"
    },
    {
      "icao": "OMDB",
      "alert": "OK",
      "vis_m": 9999,
      "fzfg": false,
      "metar_trigger": false,
      "taf_trigger": false,
      "metar": "METAR OMDB 131500Z 33005KT 310V010 CAVOK 25/15 Q1015 NOSIG",
      "taf": "TAF OMDB 131100Z 1312/1418 32010KT CAVOK"
    },
    {
      "icao": "UAAA",
      "alert": "OK",
      "vis_m": 9999,
      "fzfg": false,
      "metar_trigger": false,
      "taf_trigger": false,
      "metar": "METAR UAAA 131500Z 08001MPS 9999 FEW050 BKN100 M05/M07 Q1020 NOSIG",
      "taf": "TAF UAAA 131104Z 1312/1412 22003MPS 1200 BR FU BKN011CB OVC020 TX00/1409Z TNM07/1403Z"
    },
    {
      "icao": "UBBB",
      "alert": "OK",
      "vis_m": 9999,
      "fzfg": false,
      "metar_trigger": false,
      "taf_trigger": false,
      "metar": "METAR UBBB 131500Z 14014KT CAVOK 11/05 Q1005 NOSIG",
      "taf": "TAF UBBB 131053Z 1312/1412 18020G30KT 9999 SCT030 TX10/1312Z TN06/1401Z"
    },
    {
      "icao": "UDSG",
      "alert": "OK",
      "vis_m": 9999,
      "fzfg": false,
      "metar_trigger": false,
      "taf_trigger": false,
      "metar": "METAR UDSG 131500Z 23003KT 9999 BKN036 03/00 Q1013 NOSIG",
      "taf": "TAF UDSG 131100Z 1312/1412 VRB06KT 5000 BR BKN040"
    },
    {
      "icao": "UDYZ",
      "alert": "OK",
      "vis_m": 3300,
      "fzfg": false,
      "metar_trigger": false,
      "taf_trigger": false,
      "metar": "METAR UDYZ 131500Z VRB01KT 3300 BR FEW046 06/05 Q1012 NOSIG",
      "taf": "TAF UDYZ 131100Z 1312/1412 VRB06KT 5000 BR SCT040"
    },
    {
      "icao": "UGKO",
      "alert": "OK",
      "vis_m": 9999,
      "fzfg": false,
      "metar_trigger": false,
      "taf_trigger": false,
      "metar": "METAR UGKO 131500Z 08016KT CAVOK 18/04 Q1001 NOSIG",
      "taf": "TAF UGKO 131100Z 1312/1412 08020KT 9999 BKN080 TX18/1312Z TN13/1405Z"
    }
  ]
}