{
  "ts_utc": "2026-06-28T23:33:31Z",
  "threshold_m": 150,
  "source": "stations_override.txt (ICAO list) + aviationweather.gov (METAR/TAF raw)",
  "station_count": 159,
  "stations": [
    {
      "icao": "BIKF",
      "alert": "OK",
      "vis_m": 9999,
      "fzfg": false,
      "metar_trigger": false,
      "taf_trigger": false,
      "metar": "METAR BIKF 282300Z 28006KT 260V320 9999 FEW030 OVC058 10/09 Q0993",
      "taf": "TAF BIKF 282256Z 2900/3000 28008KT 9999 -RA FEW030 BKN040 TX11/2915Z TN08/2906Z"
    },
    {
      "icao": "BKPR",
      "alert": "OK",
      "vis_m": 9999,
      "fzfg": false,
      "metar_trigger": false,
      "taf_trigger": false,
      "metar": "METAR BKPR 282330Z 11003KT CAVOK 20/16 Q1021 NOSIG",
      "taf": "TAF BKPR 282330Z 2900/2924 07008KT CAVOK"
    },
    {
      "icao": "EBCI",
      "alert": "OK",
      "vis_m": 9999,
      "fzfg": false,
      "metar_trigger": false,
      "taf_trigger": false,
      "metar": "METAR EBCI 282320Z 31003KT 280V340 CAVOK 20/15 Q1023 NOSIG",
      "taf": "TAF EBCI 282310Z 2900/3006 31007KT CAVOK"
    },
    {
      "icao": "EDDB",
      "alert": "OK",
      "vis_m": 9999,
      "fzfg": false,
      "metar_trigger": false,
      "taf_trigger": false,
      "metar": "METAR EDDB 282320Z AUTO 02004KT CAVOK 24/18 Q1019 NOSIG",
      "taf": "TAF EDDB 282300Z 2900/2924 02007KT CAVOK"
    },
    {
      "icao": "EDDH",
      "alert": "OK",
      "vis_m": 9999,
      "fzfg": false,
      "metar_trigger": false,
      "taf_trigger": false,
      "metar": "METAR EDDH 282320Z AUTO 29006KT CAVOK 22/18 Q1020 NOSIG",
      "taf": "TAF EDDH 282300Z 2900/3006 29004KT CAVOK"
    },
    {
      "icao": "EDDK",
      "alert": "OK",
      "vis_m": 9999,
      "fzfg": false,
      "metar_trigger": false,
      "taf_trigger": false,
      "metar": "METAR EDDK 282320Z AUTO 36004KT 310V040 CAVOK 22/18 Q1022 NOSIG",
      "taf": "TAF EDDK 282300Z 2900/3006 30007KT CAVOK"
    },
    {
      "icao": "EDDN",
      "alert": "OK",
      "vis_m": 9999,
      "fzfg": false,
      "metar_trigger": false,
      "taf_trigger": false,
      "metar": "METAR EDDN 282320Z AUTO 08008KT 9999 SHRA FEW///TCU 21/18 Q1021",
      "taf": "TAF EDDN 282300Z 2900/2924 VRB03KT 9999 SCT045"
    },
    {
      "icao": "EDDS",
      "alert": "OK",
      "vis_m": 9999,
      "fzfg": false,
      "metar_trigger": false,
      "taf_trigger": false,
      "metar": "METAR EDDS 282320Z AUTO 11003KT 090V170 9999 -SHRA FEW045 FEW///CB 26/16 Q1019 RESHRA",
      "taf": "TAF EDDS 282300Z 2900/2924 28004KT CAVOK"
    },
    {
      "icao": "EDFH",
      "alert": "OK",
      "vis_m": 9999,
      "fzfg": false,
      "metar_trigger": false,
      "taf_trigger": false,
      "metar": "METAR EDFH 282320Z 36009KT 330V030 CAVOK 23/18 Q1023",
      "taf": "TAF EDFH 282300Z 2900/2924 35007KT 9999 SCT010"
    },
    {
      "icao": "EDJA",
      "alert": "OK",
      "vis_m": 9999,
      "fzfg": false,
      "metar_trigger": false,
      "taf_trigger": false,
      "metar": "METAR EDJA 282320Z AUTO 20004KT 130V220 9999 // NCD 18/15 Q1022",
      "taf": "TAF EDJA 281700Z 2818/2903 VRB03KT CAVOK"
    },
    {
      "icao": "EDLW",
      "alert": "OK",
      "vis_m": 9999,
      "fzfg": false,
      "metar_trigger": false,
      "taf_trigger": false,
      "metar": "METAR EDLW 282320Z AUTO 30004KT 240V050 9999 // SCT023/// 21/19 Q1021",
      "taf": "TAF EDLW 281700Z 2818/2918 28006KT CAVOK"
    },
    {
      "icao": "EDNY",
      "alert": "OK",
      "vis_m": 9999,
      "fzfg": false,
      "metar_trigger": false,
      "taf_trigger": false,
      "metar": "METAR EDNY 282320Z AUTO 06005KT 030V090 9999 // NCD 22/14 Q1020",
      "taf": ""
    },
    {
      "icao": "EDSB",
      "alert": "OK",
      "vis_m": 9999,
      "fzfg": false,
      "metar_trigger": false,
      "taf_trigger": false,
      "metar": "METAR EDSB 282320Z AUTO 16006KT 9999 // FEW100/// BKN210/// 27/18 Q1019",
      "taf": "TAF EDSB 282300Z 2900/2924 20005KT CAVOK"
    },
    {
      "icao": "EETN",
      "alert": "OK",
      "vis_m": 9999,
      "fzfg": false,
      "metar_trigger": false,
      "taf_trigger": false,
      "metar": "METAR EETN 282320Z 22003KT 9999 FEW010 18/18 Q1013",
      "taf": "TAF EETN 282330Z 2900/2924 VRB02KT 8000 SCT005"
    },
    {
      "icao": "EFTU",
      "alert": "OK",
      "vis_m": 9999,
      "fzfg": false,
      "metar_trigger": false,
      "taf_trigger": false,
      "metar": "METAR EFTU 282320Z AUTO 30004KT CAVOK 15/15 Q1013",
      "taf": "TAF EFTU 282022Z 2821/2921 23007KT CAVOK"
    },
    {
      "icao": "EGBB",
      "alert": "OK",
      "vis_m": 9999,
      "fzfg": false,
      "metar_trigger": false,
      "taf_trigger": false,
      "metar": "METAR EGBB 282320Z 25007KT 210V280 CAVOK 15/09 Q1023",
      "taf": "TAF EGBB 282255Z 2900/2924 25005KT CAVOK"
    },
    {
      "icao": "EGGP",
      "alert": "OK",
      "vis_m": 9999,
      "fzfg": false,
      "metar_trigger": false,
      "taf_trigger": false,
      "metar": "METAR EGGP 282320Z 23008KT 190V250 9999 FEW036 15/09 Q1021",
      "taf": "TAF EGGP 282257Z 2900/2924 21009KT 9999 FEW035"
    },
    {
      "icao": "EGGW",
      "alert": "OK",
      "vis_m": 9999,
      "fzfg": false,
      "metar_trigger": false,
      "taf_trigger": false,
      "metar": "METAR EGGW 282320Z AUTO 26009KT 9999 NCD 13/08 Q1023",
      "taf": "TAF EGGW 282252Z 2900/2924 24009KT 9999 FEW045"
    },
    {
      "icao": "EGKK",
      "alert": "OK",
      "vis_m": 9999,
      "fzfg": false,
      "metar_trigger": false,
      "taf_trigger": false,
      "metar": "METAR EGKK 282320Z 29008KT CAVOK 17/08 Q1024",
      "taf": "TAF EGKK 282254Z 2900/3006 30008KT 9999 SCT045"
    },
    {
      "icao": "EGNM",
      "alert": "OK",
      "vis_m": 9999,
      "fzfg": false,
      "metar_trigger": false,
      "taf_trigger": false,
      "metar": "METAR EGNM 282320Z 22006KT 9999 SCT035 14/08 Q1021",
      "taf": "TAF EGNM 282255Z 2900/2924 21008KT 9999 FEW035"
    },
    {
      "icao": "EGPD",
      "alert": "OK",
      "vis_m": 9999,
      "fzfg": false,
      "metar_trigger": false,
      "taf_trigger": false,
      "metar": "METAR EGPD 282320Z AUTO 19003KT 100V240 9999 NCD 12/08 Q1014",
      "taf": "TAF EGPD 282257Z 2900/2924 21009KT 9999 SCT045"
    },
    {
      "icao": "EGPF",
      "alert": "OK",
      "vis_m": 9999,
      "fzfg": false,
      "metar_trigger": false,
      "taf_trigger": false,
      "metar": "METAR EGPF 282320Z AUTO 24003KT 9999 NCD 12/09 Q1017",
      "taf": "TAF EGPF 282256Z 2900/2924 23008KT 9999 SCT035"
    },
    {
      "icao": "EHBK",
      "alert": "OK",
      "vis_m": 9999,
      "fzfg": false,
      "metar_trigger": false,
      "taf_trigger": false,
      "metar": "METAR EHBK 282325Z AUTO VRB02KT 9999 NSC 22/17 Q1022",
      "taf": "TAF EHBK 282310Z 2900/3006 30005KT CAVOK"
    },
    {
      "icao": "EHEH",
      "alert": "OK",
      "vis_m": 9999,
      "fzfg": false,
      "metar_trigger": false,
      "taf_trigger": false,
      "metar": "METAR EHEH 282325Z AUTO 26002KT 9999 OVC120 20/17 Q1021 BLU",
      "taf": "TAF EHEH 281707Z 2818/2924 33007KT CAVOK"
    },
    {
      "icao": "EKBI",
      "alert": "OK",
      "vis_m": 9999,
      "fzfg": false,
      "metar_trigger": false,
      "taf_trigger": false,
      "metar": "METAR EKBI 282320Z 23007KT 9999 BKN006 18/17 Q1019",
      "taf": "TAF EKBI 282327Z 2900/2924 23006KT CAVOK"
    },
    {
      "icao": "EKCH",
      "alert": "OK",
      "vis_m": 9999,
      "fzfg": false,
      "metar_trigger": false,
      "taf_trigger": false,
      "metar": "METAR EKCH 282320Z AUTO 22005KT 9999 NCD 21/20 Q1018 NOSIG",
      "taf": "TAF EKCH 282327Z 2900/2924 24008KT CAVOK"
    },
    {
      "icao": "ENAL",
      "alert": "OK",
      "vis_m": 9999,
      "fzfg": false,
      "metar_trigger": false,
      "taf_trigger": false,
      "metar": "METAR ENAL 282320Z AUTO 27010KT 9999 SCT005/// BKN016/// OVC037/// 14/13 Q1011 REDZ",
      "taf": ""
    },
    {
      "icao": "ENBR",
      "alert": "OK",
      "vis_m": 9999,
      "fzfg": false,
      "metar_trigger": false,
      "taf_trigger": false,
      "metar": "METAR ENBR 282320Z 17010KT 9999 BKN007 15/13 Q1014 RMK WIND 1200FT 19015KT",
      "taf": ""
    },
    {
      "icao": "ENGM",
      "alert": "OK",
      "vis_m": 9999,
      "fzfg": false,
      "metar_trigger": false,
      "taf_trigger": false,
      "metar": "METAR ENGM 282320Z 20006KT CAVOK 17/12 Q1013",
      "taf": "TAF ENGM 281700Z 2818/2918 20012KT CAVOK"
    },
    {
      "icao": "ENHD",
      "alert": "OK",
      "vis_m": 9999,
      "fzfg": false,
      "metar_trigger": false,
      "taf_trigger": false,
      "metar": "METAR ENHD 282320Z AUTO 19010KT 9999 NCD 16/14 Q1015",
      "taf": "TAF ENHD 281400Z 2815/2822 18012KT 9999 BKN045"
    },
    {
      "icao": "ENTC",
      "alert": "OK",
      "vis_m": 9999,
      "fzfg": false,
      "metar_trigger": false,
      "taf_trigger": false,
      "metar": "METAR ENTC 282250Z AUTO 02009KT 9999 NCD 09/06 Q1012 RMK WIND 2600FT 23004KT",
      "taf": "TAF ENTC 281700Z 2818/2918 02008KT 9999 FEW040"
    },
    {
      "icao": "ENTO",
      "alert": "OK",
      "vis_m": 2300,
      "fzfg": false,
      "metar_trigger": false,
      "taf_trigger": false,
      "metar": "METAR ENTO 282320Z AUTO 21008KT 2300 // NCD 18/18 Q1013",
      "taf": "TAF ENTO 281700Z 2818/2918 18008KT CAVOK"
    },
    {
      "icao": "ENVA",
      "alert": "OK",
      "vis_m": 9999,
      "fzfg": false,
      "metar_trigger": false,
      "taf_trigger": false,
      "metar": "METAR ENVA 282320Z 13005KT CAVOK 17/17 Q1009 RMK WIND 670FT 10006KT",
      "taf": "TAF ENVA 281700Z 2818/2918 25008KT CAVOK"
    },
    {
      "icao": "ENZV",
      "alert": "OK",
      "vis_m": 9999,
      "fzfg": false,
      "metar_trigger": false,
      "taf_trigger": false,
      "metar": "METAR ENZV 282250Z 18007KT CAVOK 15/14 Q1015",
      "taf": ""
    },
    {
      "icao": "EPGD",
      "alert": "OK",
      "vis_m": 9999,
      "fzfg": false,
      "metar_trigger": false,
      "taf_trigger": false,
      "metar": "METAR EPGD 282330Z 29007KT CAVOK 22/17 Q1017",
      "taf": "TAF EPGD 282330Z 2900/2924 30010KT CAVOK"
    },
    {
      "icao": "EPKK",
      "alert": "OK",
      "vis_m": 9999,
      "fzfg": false,
      "metar_trigger": false,
      "taf_trigger": false,
      "metar": "METAR EPKK 282330Z VRB02KT CAVOK 23/19 Q1019",
      "taf": "TAF EPKK 282330Z 2900/2924 VRB02KT CAVOK"
    },
    {
      "icao": "EPKT",
      "alert": "OK",
      "vis_m": 9999,
      "fzfg": false,
      "metar_trigger": false,
      "taf_trigger": false,
      "metar": "METAR EPKT 282330Z 09003KT CAVOK 24/18 Q1019",
      "taf": "TAF EPKT 282330Z 2900/2924 25006KT CAVOK"
    },
    {
      "icao": "EPLB",
      "alert": "OK",
      "vis_m": 9999,
      "fzfg": false,
      "metar_trigger": false,
      "taf_trigger": false,
      "metar": "METAR EPLB 282330Z 27007KT CAVOK 27/18 Q1017",
      "taf": "TAF EPLB 282330Z 2900/2924 26008KT CAVOK"
    },
    {
      "icao": "EPMO",
      "alert": "OK",
      "vis_m": 9999,
      "fzfg": false,
      "metar_trigger": false,
      "taf_trigger": false,
      "metar": "METAR EPMO 282330Z 22004KT CAVOK 28/19 Q1016",
      "taf": "TAF EPMO 282330Z 2900/2924 24005KT CAVOK"
    },
    {
      "icao": "EPPO",
      "alert": "OK",
      "vis_m": 9999,
      "fzfg": false,
      "metar_trigger": false,
      "taf_trigger": false,
      "metar": "METAR EPPO 282330Z 34006KT CAVOK 25/19 Q1017",
      "taf": "TAF EPPO 282330Z 2900/2924 35006KT CAVOK"
    },
    {
      "icao": "EPRA",
      "alert": "OK",
      "vis_m": 9999,
      "fzfg": false,
      "metar_trigger": false,
      "taf_trigger": false,
      "metar": "METAR EPRA 282330Z 26006KT CAVOK 29/15 Q1017",
      "taf": "TAF EPRA 282330Z 2900/2909 26006KT CAVOK"
    },
    {
      "icao": "EPRZ",
      "alert": "OK",
      "vis_m": 9999,
      "fzfg": false,
      "metar_trigger": false,
      "taf_trigger": false,
      "metar": "METAR EPRZ 282330Z 22003KT CAVOK 25/19 Q1018",
      "taf": "TAF EPRZ 282330Z 2900/2924 23006KT CAVOK"
    },
    {
      "icao": "EPSC",
      "alert": "OK",
      "vis_m": 9999,
      "fzfg": false,
      "metar_trigger": false,
      "taf_trigger": false,
      "metar": "METAR EPSC 282330Z 31001KT CAVOK 18/17 Q1019",
      "taf": "TAF EPSC 282330Z 2900/2924 34010KT CAVOK"
    },
    {
      "icao": "EPSY",
      "alert": "OK",
      "vis_m": 9999,
      "fzfg": false,
      "metar_trigger": false,
      "taf_trigger": false,
      "metar": "METAR EPSY 282330Z VRB05G20KT 9999 TS SCT040CB 26/17 Q1016",
      "taf": "TAF EPSY 282330Z 2900/2909 VRB02KT CAVOK"
    },
    {
      "icao": "EPWA",
      "alert": "OK",
      "vis_m": 9999,
      "fzfg": false,
      "metar_trigger": false,
      "taf_trigger": false,
      "metar": "METAR EPWA 282330Z VRB02KT CAVOK 27/19 Q1016 NOSIG",
      "taf": "TAF EPWA 282330Z 2900/2924 VRB03KT CAVOK"
    },
    {
      "icao": "EPWR",
      "alert": "OK",
      "vis_m": 9999,
      "fzfg": false,
      "metar_trigger": false,
      "taf_trigger": false,
      "metar": "METAR EPWR 282330Z 21003KT CAVOK 24/19 Q1016",
      "taf": "TAF EPWR 282330Z 2900/2924 VRB02KT CAVOK"
    },
    {
      "icao": "ESGG",
      "alert": "OK",
      "vis_m": 1500,
      "fzfg": false,
      "metar_trigger": false,
      "taf_trigger": false,
      "metar": "METAR ESGG 282320Z 23005KT 1500 R03/P2000N R21/P2000N BR BCFG FEW008 SCT029 19/19 Q1017",
      "taf": "TAF ESGG 282330Z 2900/2924 24005KT CAVOK"
    },
    {
      "icao": "ESKN",
      "alert": "OK",
      "vis_m": 9999,
      "fzfg": false,
      "metar_trigger": false,
      "taf_trigger": false,
      "metar": "METAR ESKN 282320Z 23007KT CAVOK 17/17 Q1014",
      "taf": "TAF ESKN 282330Z 2900/2924 25003KT CAVOK"
    },
    {
      "icao": "ESMS",
      "alert": "OK",
      "vis_m": 9999,
      "fzfg": false,
      "metar_trigger": false,
      "taf_trigger": false,
      "metar": "METAR ESMS 282320Z 26004KT CAVOK 21/21 Q1018",
      "taf": "TAF ESMS 282327Z 2900/2924 25006KT CAVOK"
    },
    {
      "icao": "ESSA",
      "alert": "OK",
      "vis_m": 8000,
      "fzfg": false,
      "metar_trigger": false,
      "taf_trigger": false,
      "metar": "METAR ESSA 282320Z 18001KT 8000 BCFG NSC 16/16 Q1014 NOSIG",
      "taf": "TAF ESSA 282330Z 2900/2924 VRB02KT CAVOK"
    },
    {
      "icao": "EYKA",
      "alert": "OK",
      "vis_m": 9999,
      "fzfg": false,
      "metar_trigger": false,
      "taf_trigger": false,
      "metar": "METAR EYKA 282320Z AUTO VRB01KT 9999 NCD 20/18 Q1015",
      "taf": "TAF EYKA 282301Z 2900/2924 VRB03KT 9000 NSC"
    },
    {
      "icao": "EYPA",
      "alert": "OK",
      "vis_m": 9999,
      "fzfg": false,
      "metar_trigger": false,
      "taf_trigger": false,
      "metar": "METAR EYPA 282320Z AUTO VRB01KT 9999 BKN092/// 20/19 Q1015",
      "taf": "TAF EYPA 282307Z 2900/2924 VRB03KT 9000 NSC"
    },
    {
      "icao": "EYVI",
      "alert": "OK",
      "vis_m": 9999,
      "fzfg": false,
      "metar_trigger": false,
      "taf_trigger": false,
      "metar": "METAR EYVI 282320Z 18003KT CAVOK 19/18 Q1016 NOSIG",
      "taf": "TAF EYVI 282302Z 2900/2924 VRB03KT 9000 NSC"
    },
    {
      "icao": "GCFV",
      "alert": "OK",
      "vis_m": 9999,
      "fzfg": false,
      "metar_trigger": false,
      "taf_trigger": false,
      "metar": "METAR GCFV 282300Z AUTO 02015KT CAVOK 22/18 Q1018",
      "taf": "TAF GCFV 282000Z 2821/2921 02015KT 9999 FEW020 TX27/2914Z TN22/2906Z"
    },
    {
      "icao": "GCLP",
      "alert": "OK",
      "vis_m": 9999,
      "fzfg": false,
      "metar_trigger": false,
      "taf_trigger": false,
      "metar": "METAR GCLP 282300Z 36022KT 9999 FEW025 22/18 Q1019 NOSIG",
      "taf": "TAF GCLP 282000Z 2821/2921 36023KT 9999 FEW025 TX30/2914Z TN22/2906Z"
    },
    {
      "icao": "GCTS",
      "alert": "OK",
      "vis_m": 9999,
      "fzfg": false,
      "metar_trigger": false,
      "taf_trigger": false,
      "metar": "METAR GCTS 282300Z COR 01006KT 320V070 9999 FEW025 23/17 Q1019 NOSIG",
      "taf": "TAF GCTS 282000Z 2821/2921 06017KT 9999 FEW025 TX32/2914Z TN22/2906Z"
    },
    {
      "icao": "GMAD",
      "alert": "OK",
      "vis_m": 8000,
      "fzfg": false,
      "metar_trigger": false,
      "taf_trigger": false,
      "metar": "METAR GMAD 282300Z 00000KT 8000 FEW013 SCT200 22/18 Q1016 NOSIG",
      "taf": "TAF GMAD 282300Z 2900/3006 18004KT 8000 FEW016 SCT100"
    },
    {
      "icao": "GMMN",
      "alert": "OK",
      "vis_m": 9999,
      "fzfg": false,
      "metar_trigger": false,
      "taf_trigger": false,
      "metar": "METAR GMMN 282300Z 01007KT 340V050 9999 BKN010 21/18 Q1022 NOSIG",
      "taf": "TAF GMMN 282300Z 2900/3006 36006KT 9999 BKN010"
    },
    {
      "icao": "GMMX",
      "alert": "OK",
      "vis_m": 9999,
      "fzfg": false,
      "metar_trigger": false,
      "taf_trigger": false,
      "metar": "METAR GMMX 282300Z 04003KT 010V070 CAVOK 28/17 Q1020 NOSIG",
      "taf": "TAF GMMX 281700Z 2818/2924 24006KT 8000 SCT033 SCT100"
    },
    {
      "icao": "HEGN",
      "alert": "OK",
      "vis_m": 9999,
      "fzfg": false,
      "metar_trigger": false,
      "taf_trigger": false,
      "metar": "METAR HEGN 282300Z 29008KT CAVOK 31/08 Q1007 NOSIG",
      "taf": "TAF HEGN 282300Z 2900/3006 29011KT CAVOK"
    },
    {
      "icao": "HEMA",
      "alert": "OK",
      "vis_m": 9999,
      "fzfg": false,
      "metar_trigger": false,
      "taf_trigger": false,
      "metar": "METAR HEMA 282300Z 25006KT CAVOK 28/11 Q1007 NOSIG",
      "taf": "TAF HEMA 282300Z 2900/3006 29006G18KT CAVOK"
    },
    {
      "icao": "HESH",
      "alert": "OK",
      "vis_m": 9999,
      "fzfg": false,
      "metar_trigger": false,
      "taf_trigger": false,
      "metar": "METAR HESH 282300Z 35008KT CAVOK 33/09 Q1006 NOSIG",
      "taf": "TAF HESH 282300Z 2900/3006 32010KT CAVOK"
    },
    {
      "icao": "HESX",
      "alert": "OK",
      "vis_m": 9999,
      "fzfg": false,
      "metar_trigger": false,
      "taf_trigger": false,
      "metar": "METAR HESX 282300Z 02007KT CAVOK 23/20 Q1011 NOSIG",
      "taf": "TAF HESX 282300Z 2900/3006 04008KT CAVOK"
    },
    {
      "icao": "LATI",
      "alert": "OK",
      "vis_m": 9999,
      "fzfg": false,
      "metar_trigger": false,
      "taf_trigger": false,
      "metar": "METAR LATI 282320Z 16004KT 110V180 CAVOK 25/17 Q1016 NOSIG",
      "taf": "TAF LATI 282300Z 2900/2924 VRB03KT CAVOK TX37/2912Z TN21/2904Z"
    },
    {
      "icao": "LBPD",
      "alert": "OK",
      "vis_m": 9999,
      "fzfg": false,
      "metar_trigger": false,
      "taf_trigger": false,
      "metar": "METAR LBPD 282330Z AUTO 23004KT 9999 NCD 20/12 Q1020",
      "taf": "TAF LBPD 282300Z 2900/2924 VRB04KT CAVOK"
    },
    {
      "icao": "LBSF",
      "alert": "OK",
      "vis_m": 9999,
      "fzfg": false,
      "metar_trigger": false,
      "taf_trigger": false,
      "metar": "METAR LBSF 282330Z AUTO 12004KT 9999 NCD 17/14 Q1022 NOSIG",
      "taf": "TAF LBSF 282300Z 2900/2924 VRB04KT CAVOK"
    },
    {
      "icao": "LBWN",
      "alert": "OK",
      "vis_m": 9999,
      "fzfg": false,
      "metar_trigger": false,
      "taf_trigger": false,
      "metar": "METAR LBWN 282330Z AUTO VRB02KT 9999 NCD 19/14 Q1018 NOSIG",
      "taf": "TAF LBWN 282300Z 2900/2924 VRB03KT CAVOK"
    },
    {
      "icao": "LCLK",
      "alert": "OK",
      "vis_m": 9999,
      "fzfg": false,
      "metar_trigger": false,
      "taf_trigger": false,
      "metar": "METAR LCLK 282330Z 22004KT CAVOK 25/13 Q1009 NOSIG",
      "taf": "TAF LCLK 282330Z 2900/3000 28008KT CAVOK"
    },
    {
      "icao": "LCPH",
      "alert": "OK",
      "vis_m": 9999,
      "fzfg": false,
      "metar_trigger": false,
      "taf_trigger": false,
      "metar": "METAR LCPH 282330Z 01006KT CAVOK 23/12 Q1009 NOSIG",
      "taf": "TAF LCPH 282330Z 2900/3000 01007KT CAVOK"
    },
    {
      "icao": "LEAL",
      "alert": "OK",
      "vis_m": 9999,
      "fzfg": false,
      "metar_trigger": false,
      "taf_trigger": false,
      "metar": "METAR LEAL 282300Z 26003KT 9999 BKN010 26/24 Q1019 NOSIG",
      "taf": "TAF LEAL 282300Z 2900/2924 VRB04KT 9999 FEW015 TX32/2912Z TN24/2906Z"
    },
    {
      "icao": "LEBB",
      "alert": "OK",
      "vis_m": 9999,
      "fzfg": false,
      "metar_trigger": false,
      "taf_trigger": false,
      "metar": "METAR LEBB 282300Z AUTO VRB01KT 9999 SCT018 BKN034 OVC040 21/21 Q1027",
      "taf": "TAF LEBB 282300Z 2900/2924 02007KT 9999 SCT020 BKN040 TX24/2915Z TN17/2924Z"
    },
    {
      "icao": "LEBL",
      "alert": "OK",
      "vis_m": 9999,
      "fzfg": false,
      "metar_trigger": false,
      "taf_trigger": false,
      "metar": "METAR LEBL 282300Z 32009KT 290V350 9999 FEW055TCU 30/18 Q1019 NOSIG",
      "taf": "TAF LEBL 282300Z 2900/2924 VRB04KT CAVOK TX31/2912Z TN25/2905Z"
    },
    {
      "icao": "LECH",
      "alert": "OK",
      "vis_m": 9999,
      "fzfg": false,
      "metar_trigger": false,
      "taf_trigger": false,
      "metar": "METAR LECH 282300Z AUTO 20001KT CAVOK 25/13 Q1022",
      "taf": "TAF LECH 282300Z 2900/2924 VRB04KT CAVOK TX34/2912Z TN19/2906Z"
    },
    {
      "icao": "LEMD",
      "alert": "OK",
      "vis_m": 9999,
      "fzfg": false,
      "metar_trigger": false,
      "taf_trigger": false,
      "metar": "METAR LEMD 282300Z VRB03KT CAVOK 21/14 Q1023 NOSIG",
      "taf": "TAF LEMD 282300Z 2900/3006 04006KT CAVOK TX34/2916Z TN17/2905Z"
    },
    {
      "icao": "LEMG",
      "alert": "OK",
      "vis_m": 9999,
      "fzfg": false,
      "metar_trigger": false,
      "taf_trigger": false,
      "metar": "METAR LEMG 282300Z 00000KT CAVOK 23/19 Q1018 NOSIG",
      "taf": "TAF LEMG 282300Z 2900/2924 29003KT CAVOK TX31/2912Z TN22/2905Z"
    },
    {
      "icao": "LEVC",
      "alert": "OK",
      "vis_m": 9999,
      "fzfg": false,
      "metar_trigger": false,
      "taf_trigger": false,
      "metar": "METAR LEVC 282300Z 32006KT CAVOK 25/16 Q1020 NOSIG",
      "taf": "TAF LEVC 282300Z 2900/2924 31006KT CAVOK TX33/2912Z TN23/2906Z"
    },
    {
      "icao": "LEXJ",
      "alert": "OK",
      "vis_m": 9999,
      "fzfg": false,
      "metar_trigger": false,
      "taf_trigger": false,
      "metar": "METAR LEXJ 282300Z AUTO 24004KT 9999 FEW008 SCT014 BKN026 19/18 Q1027",
      "taf": "TAF LEXJ 282000Z 2821/2921 04008KT 9999 BKN020 TX23/2914Z TN19/2905Z"
    },
    {
      "icao": "LEZG",
      "alert": "OK",
      "vis_m": 9999,
      "fzfg": false,
      "metar_trigger": false,
      "taf_trigger": false,
      "metar": "METAR LEZG 282300Z 28012KT CAVOK 22/18 Q1023 NOSIG",
      "taf": "TAF LEZG 282300Z 2900/2924 29012KT CAVOK TX34/2915Z TN20/2906Z"
    },
    {
      "icao": "LEZL",
      "alert": "OK",
      "vis_m": 9999,
      "fzfg": false,
      "metar_trigger": false,
      "taf_trigger": false,
      "metar": "METAR LEZL 282300Z 21007KT 170V270 CAVOK 25/17 Q1019 NOSIG",
      "taf": "TAF LEZL 282000Z 2821/2921 22012KT CAVOK TX40/2915Z TN22/2905Z"
    },
    {
      "icao": "LFBD",
      "alert": "OK",
      "vis_m": 9999,
      "fzfg": false,
      "metar_trigger": false,
      "taf_trigger": false,
      "metar": "METAR LFBD 282330Z AUTO 32005KT 290V350 9999 FEW017 OVC054 22/18 Q1025 NOSIG",
      "taf": "TAF LFBD 281700Z 2818/2924 34008KT 9999 SCT020 TX30/2914Z TN19/2905Z"
    },
    {
      "icao": "LFLL",
      "alert": "OK",
      "vis_m": 9999,
      "fzfg": false,
      "metar_trigger": false,
      "taf_trigger": false,
      "metar": "METAR LFLL 282330Z 05006KT 350V090 9999 FEW086CB BKN140 25/14 Q1021 NOSIG",
      "taf": "TAF LFLL 282300Z 2900/3006 36010KT CAVOK"
    },
    {
      "icao": "LFLS",
      "alert": "OK",
      "vis_m": 9999,
      "fzfg": false,
      "metar_trigger": false,
      "taf_trigger": false,
      "metar": "METAR LFLS 282330Z AUTO 08005KT 050V110 CAVOK 24/13 Q1022",
      "taf": "TAF LFLS 281400Z 2815/2915 25008KT CAVOK"
    },
    {
      "icao": "LFMN",
      "alert": "OK",
      "vis_m": 9999,
      "fzfg": false,
      "metar_trigger": false,
      "taf_trigger": false,
      "metar": "METAR LFMN 282330Z 08006KT 050V110 CAVOK 28/23 Q1018 NOSIG",
      "taf": "TAF LFMN 282000Z 2821/3003 08006KT CAVOK"
    },
    {
      "icao": "LFOB",
      "alert": "OK",
      "vis_m": 9999,
      "fzfg": false,
      "metar_trigger": false,
      "taf_trigger": false,
      "metar": "METAR LFOB 282330Z AUTO 30009KT 9999 OVC042 17/14 Q1025 NOSIG",
      "taf": "TAF LFOB 282300Z 2900/2924 30008KT CAVOK"
    },
    {
      "icao": "LFPO",
      "alert": "OK",
      "vis_m": 9999,
      "fzfg": false,
      "metar_trigger": false,
      "taf_trigger": false,
      "metar": "METAR LFPO 282330Z AUTO 35011KT CAVOK 22/15 Q1023 NOSIG",
      "taf": "TAF LFPO 282300Z 2900/3006 01008KT CAVOK"
    },
    {
      "icao": "LFSB",
      "alert": "OK",
      "vis_m": 9999,
      "fzfg": false,
      "metar_trigger": false,
      "taf_trigger": false,
      "metar": "METAR LFSB 282330Z AUTO 28003KT CAVOK 22/20 Q1019 TEMPO 28015G35KT 3000 TSRA SCT070CB",
      "taf": "TAF LFSB 282300Z 2900/2924 20005KT CAVOK"
    },
    {
      "icao": "LGAV",
      "alert": "OK",
      "vis_m": 9999,
      "fzfg": false,
      "metar_trigger": false,
      "taf_trigger": false,
      "metar": "METAR LGAV 282320Z 01015KT CAVOK 25/12 Q1015 NOSIG",
      "taf": "TAF LGAV 282300Z 2900/2924 02016KT 9999 FEW025"
    },
    {
      "icao": "LGTS",
      "alert": "OK",
      "vis_m": 9999,
      "fzfg": false,
      "metar_trigger": false,
      "taf_trigger": false,
      "metar": "METAR LGTS 282320Z VRB03KT CAVOK 24/15 Q1018 NOSIG",
      "taf": "TAF LGTS 282300Z 2900/2924 VRB03KT CAVOK"
    },
    {
      "icao": "LHBP",
      "alert": "OK",
      "vis_m": 9999,
      "fzfg": false,
      "metar_trigger": false,
      "taf_trigger": false,
      "metar": "METAR LHBP 282330Z VRB01KT CAVOK 25/18 Q1019 NOSIG",
      "taf": "TAF LHBP 282315Z 2900/2924 09005KT CAVOK"
    },
    {
      "icao": "LHDC",
      "alert": "OK",
      "vis_m": 9999,
      "fzfg": false,
      "metar_trigger": false,
      "taf_trigger": false,
      "metar": "METAR LHDC 282315Z AUTO 12003KT CAVOK 25/16 Q1019",
      "taf": "TAF LHDC 281715Z 2818/2903 VRB04KT CAVOK"
    },
    {
      "icao": "LIBD",
      "alert": "OK",
      "vis_m": 9999,
      "fzfg": false,
      "metar_trigger": false,
      "taf_trigger": false,
      "metar": "METAR LIBD 282320Z 23006KT CAVOK 23/16 Q1016",
      "taf": "TAF LIBD 282300Z 2900/2924 VRB05KT CAVOK"
    },
    {
      "icao": "LIBG",
      "alert": "OK",
      "vis_m": 9999,
      "fzfg": false,
      "metar_trigger": false,
      "taf_trigger": false,
      "metar": "METAR LIBG 282320Z AUTO VRB02KT 9999 NCD 23/15 Q1016",
      "taf": "TAF LIBG 282300Z 2900/2924 VRB05KT CAVOK"
    },
    {
      "icao": "LIBP",
      "alert": "OK",
      "vis_m": 9999,
      "fzfg": false,
      "metar_trigger": false,
      "taf_trigger": false,
      "metar": "METAR LIBP 282320Z AUTO 24005KT 9999 NCD 25/16 Q1016",
      "taf": "TAF LIBP 282300Z 2900/2924 VRB05KT CAVOK"
    },
    {
      "icao": "LIBR",
      "alert": "OK",
      "vis_m": 9999,
      "fzfg": false,
      "metar_trigger": false,
      "taf_trigger": false,
      "metar": "METAR LIBR 282320Z 32005KT CAVOK 26/25 Q1015",
      "taf": "TAF LIBR 282300Z 2900/2924 VRB05KT CAVOK"
    },
    {
      "icao": "LICA",
      "alert": "OK",
      "vis_m": 9999,
      "fzfg": false,
      "metar_trigger": false,
      "taf_trigger": false,
      "metar": "METAR LICA 282320Z AUTO VRB02KT 9999 SCT023/// 25/23 Q1017",
      "taf": "TAF LICA 282300Z 2900/2924 VRB05KT 9999 SCT015"
    },
    {
      "icao": "LICC",
      "alert": "OK",
      "vis_m": 9999,
      "fzfg": false,
      "metar_trigger": false,
      "taf_trigger": false,
      "metar": "METAR LICC 282250Z 07004KT CAVOK 27/18 Q1016",
      "taf": "TAF LICC 282300Z 2900/2924 VRB05KT CAVOK"
    },
    {
      "icao": "LICJ",
      "alert": "OK",
      "vis_m": 9999,
      "fzfg": false,
      "metar_trigger": false,
      "taf_trigger": false,
      "metar": "METAR LICJ 282320Z 10002KT CAVOK 27/25 Q1017",
      "taf": "TAF LICJ 282300Z 2900/2924 VRB05KT CAVOK"
    },
    {
      "icao": "LIMC",
      "alert": "OK",
      "vis_m": 9999,
      "fzfg": false,
      "metar_trigger": false,
      "taf_trigger": false,
      "metar": "METAR LIMC 282320Z 03004KT CAVOK 25/17 Q1020 NOSIG",
      "taf": "TAF LIMC 282300Z 2900/3006 01010KT CAVOK"
    },
    {
      "icao": "LIME",
      "alert": "OK",
      "vis_m": 9999,
      "fzfg": false,
      "metar_trigger": false,
      "taf_trigger": false,
      "metar": "METAR LIME 282320Z VRB02KT 9999 FEW060CB 27/16 Q1019 NOSIG",
      "taf": ""
    },
    {
      "icao": "LIMF",
      "alert": "OK",
      "vis_m": 9999,
      "fzfg": false,
      "metar_trigger": false,
      "taf_trigger": false,
      "metar": "METAR LIMF 282320Z 25008KT 9999 -RA SCT050 BKN060 24/19 Q1019 RERA",
      "taf": "TAF LIMF 282300Z 2900/2924 VRB05KT 9999 SCT030"
    },
    {
      "icao": "LIMJ",
      "alert": "OK",
      "vis_m": 9999,
      "fzfg": false,
      "metar_trigger": false,
      "taf_trigger": false,
      "metar": "METAR LIMJ 282320Z 05021KT 9999 FEW045 26/19 Q1017",
      "taf": "TAF LIMJ 282300Z 2900/2924 VRB05KT CAVOK"
    },
    {
      "icao": "LIPE",
      "alert": "OK",
      "vis_m": 9999,
      "fzfg": false,
      "metar_trigger": false,
      "taf_trigger": false,
      "metar": "METAR LIPE 282320Z 20008KT CAVOK 28/19 Q1017",
      "taf": "TAF LIPE 282300Z 2900/2924 VRB05KT CAVOK"
    },
    {
      "icao": "LIPH",
      "alert": "OK",
      "vis_m": 9999,
      "fzfg": false,
      "metar_trigger": false,
      "taf_trigger": false,
      "metar": "METAR LIPH 282320Z AUTO VRB01KT 9999 NCD 25/20 Q1016",
      "taf": "TAF LIPH 282300Z 2900/2924 VRB05KT 9999 SCT030"
    },
    {
      "icao": "LIPQ",
      "alert": "OK",
      "vis_m": 9999,
      "fzfg": false,
      "metar_trigger": false,
      "taf_trigger": false,
      "metar": "METAR LIPQ 282320Z AUTO VRB02KT 9999 NCD 25/21 Q1016",
      "taf": "TAF LIPQ 282300Z 2900/2924 VRB05KT CAVOK"
    },
    {
      "icao": "LIPR",
      "alert": "OK",
      "vis_m": 9999,
      "fzfg": false,
      "metar_trigger": false,
      "taf_trigger": false,
      "metar": "METAR LIPR 282320Z AUTO VRB02KT 9999 NCD 23/21 Q1017",
      "taf": "TAF LIPR 282300Z 2900/2924 VRB05KT CAVOK"
    },
    {
      "icao": "LIPX",
      "alert": "OK",
      "vis_m": 9999,
      "fzfg": false,
      "metar_trigger": false,
      "taf_trigger": false,
      "metar": "METAR LIPX 282320Z 05004KT CAVOK 28/20 Q1017",
      "taf": "TAF LIPX 282300Z 2900/2924 VRB05KT CAVOK"
    },
    {
      "icao": "LIPY",
      "alert": "OK",
      "vis_m": 9999,
      "fzfg": false,
      "metar_trigger": false,
      "taf_trigger": false,
      "metar": "METAR LIPY 282320Z AUTO 16003KT 9999 NCD 24/20 Q1016",
      "taf": "TAF LIPY 282300Z 2900/2924 VRB05KT CAVOK"
    },
    {
      "icao": "LIPZ",
      "alert": "OK",
      "vis_m": 9999,
      "fzfg": false,
      "metar_trigger": false,
      "taf_trigger": false,
      "metar": "METAR LIPZ 282320Z 31004KT CAVOK 27/22 Q1016 NOSIG",
      "taf": "TAF LIPZ 282300Z 2900/3006 VRB05KT CAVOK"
    },
    {
      "icao": "LIRF",
      "alert": "OK",
      "vis_m": 9999,
      "fzfg": false,
      "metar_trigger": false,
      "taf_trigger": false,
      "metar": "METAR LIRF 282320Z 30005KT CAVOK 26/25 Q1017 NOSIG",
      "taf": "TAF LIRF 282300Z 2900/3006 31006KT CAVOK"
    },
    {
      "icao": "LIRN",
      "alert": "OK",
      "vis_m": 9999,
      "fzfg": false,
      "metar_trigger": false,
      "taf_trigger": false,
      "metar": "METAR LIRN 282320Z AUTO VRB01KT 9999 NCD 28/20 Q1017",
      "taf": "TAF LIRN 282300Z 2900/2924 VRB05KT 9999 FEW080"
    },
    {
      "icao": "LIRP",
      "alert": "OK",
      "vis_m": 9999,
      "fzfg": false,
      "metar_trigger": false,
      "taf_trigger": false,
      "metar": "METAR LIRP 282315Z 28005KT CAVOK 26/24 Q1018 NOSIG",
      "taf": "TAF LIRP 282300Z 2900/2924 VRB03KT CAVOK"
    },
    {
      "icao": "LIRZ",
      "alert": "OK",
      "vis_m": 9999,
      "fzfg": false,
      "metar_trigger": false,
      "taf_trigger": false,
      "metar": "METAR LIRZ 282320Z AUTO VRB02KT 9999 NCD 25/18 Q1018",
      "taf": "TAF LIRZ 282300Z 2900/2924 VRB05KT 9999 FEW080"
    },
    {
      "icao": "LJLJ",
      "alert": "OK",
      "vis_m": 9999,
      "fzfg": false,
      "metar_trigger": false,
      "taf_trigger": false,
      "metar": "METAR LJLJ 282300Z 01003KT 9999 FEW070 SCT200 22/19 Q1020 NOSIG",
      "taf": "TAF LJLJ 282300Z 2900/3000 32005KT 9999 FEW060"
    },
    {
      "icao": "LKMT",
      "alert": "OK",
      "vis_m": 9999,
      "fzfg": false,
      "metar_trigger": false,
      "taf_trigger": false,
      "metar": "METAR LKMT 282330Z 22003KT CAVOK 24/17 Q1019 NOSIG",
      "taf": "TAF LKMT 282300Z 2900/2924 23003KT CAVOK"
    },
    {
      "icao": "LKPR",
      "alert": "OK",
      "vis_m": 9999,
      "fzfg": false,
      "metar_trigger": false,
      "taf_trigger": false,
      "metar": "METAR LKPR 282330Z 29004KT 9999 FEW050TCU 26/16 Q1019 BECMG CAVOK",
      "taf": "TAF LKPR 282300Z 2900/3006 33008KT CAVOK"
    },
    {
      "icao": "LLBG",
      "alert": "OK",
      "vis_m": 9999,
      "fzfg": false,
      "metar_trigger": false,
      "taf_trigger": false,
      "metar": "METAR LLBG 282320Z 15004KT 9999 FEW016 25/22 Q1010 TEMPO BKN015",
      "taf": "TAF LLBG 282322Z 2900/2924 VRB04KT 9999 SCT017 TX33/2911Z TN23/2903Z"
    },
    {
      "icao": "LMML",
      "alert": "OK",
      "vis_m": 9999,
      "fzfg": false,
      "metar_trigger": false,
      "taf_trigger": false,
      "metar": "METAR LMML 282315Z 31005KT 9999 FEW015 26/20 Q1016 NOSIG",
      "taf": "TAF LMML 282300Z 2900/2924 VRB06KT CAVOK"
    },
    {
      "icao": "LOWW",
      "alert": "OK",
      "vis_m": 9999,
      "fzfg": false,
      "metar_trigger": false,
      "taf_trigger": false,
      "metar": "METAR LOWW 282320Z 17007KT CAVOK 23/16 Q1018 NOSIG",
      "taf": "TAF LOWW 282315Z 2900/3006 18005KT CAVOK TX38/2913Z TN23/2903Z"
    },
    {
      "icao": "LPFR",
      "alert": "OK",
      "vis_m": 9999,
      "fzfg": false,
      "metar_trigger": false,
      "taf_trigger": false,
      "metar": "METAR LPFR 282300Z 34009KT CAVOK 26/15 Q1019",
      "taf": "TAF LPFR 282300Z 2900/2924 34010KT CAVOK"
    },
    {
      "icao": "LPMA",
      "alert": "OK",
      "vis_m": 9999,
      "fzfg": false,
      "metar_trigger": false,
      "taf_trigger": false,
      "metar": "METAR LPMA 282300Z 03016KT 350V050 9999 SCT015 22/18 Q1024",
      "taf": "TAF LPMA 282300Z 2900/2924 02015KT 9999 SCT015"
    },
    {
      "icao": "LPPR",
      "alert": "OK",
      "vis_m": 9999,
      "fzfg": false,
      "metar_trigger": false,
      "taf_trigger": false,
      "metar": "METAR LPPR 282300Z 03003KT 350V080 CAVOK 17/15 Q1023",
      "taf": "TAF LPPR 282300Z 2900/2924 VRB02KT CAVOK"
    },
    {
      "icao": "LPPS",
      "alert": "OK",
      "vis_m": 9999,
      "fzfg": false,
      "metar_trigger": false,
      "taf_trigger": false,
      "metar": "METAR LPPS 282300Z 04011KT 360V070 9999 SCT012 21/17 Q1025",
      "taf": "TAF LPPS 282300Z 2900/3006 03012KT 9999 SCT015"
    },
    {
      "icao": "LPPT",
      "alert": "OK",
      "vis_m": 9999,
      "fzfg": false,
      "metar_trigger": false,
      "taf_trigger": false,
      "metar": "METAR LPPT 282300Z 35019G29KT 9999 FEW018 19/15 Q1023",
      "taf": "TAF LPPT 282300Z 2900/3006 35015KT CAVOK"
    },
    {
      "icao": "LQBK",
      "alert": "OK",
      "vis_m": 9999,
      "fzfg": false,
      "metar_trigger": false,
      "taf_trigger": false,
      "metar": "METAR LQBK 282300Z 28002KT CAVOK 22/19 Q1017 NOSIG",
      "taf": "TAF LQBK 282300Z 2900/2924 06005KT CAVOK TX37/2913Z TN19/2903Z"
    },
    {
      "icao": "LQSA",
      "alert": "OK",
      "vis_m": 9999,
      "fzfg": false,
      "metar_trigger": false,
      "taf_trigger": false,
      "metar": "METAR LQSA 282300Z VRB01KT CAVOK 21/16 Q1020",
      "taf": "TAF LQSA 282300Z 2900/2924 VRB02KT CAVOK TX36/2913Z TN18/2903Z"
    },
    {
      "icao": "LQTZ",
      "alert": "OK",
      "vis_m": 9999,
      "fzfg": false,
      "metar_trigger": false,
      "taf_trigger": false,
      "metar": "METAR LQTZ 282300Z VRB02KT CAVOK 22/19 Q1018",
      "taf": "TAF LQTZ 282300Z 2900/2924 05007KT CAVOK TX38/2914Z TN18/2903Z"
    },
    {
      "icao": "LRBC",
      "alert": "OK",
      "vis_m": 9999,
      "fzfg": false,
      "metar_trigger": false,
      "taf_trigger": false,
      "metar": "METAR LRBC 282300Z 34001KT CAVOK 21/18 Q1019",
      "taf": "TAF LRBC 282300Z 2900/2909 VRB04KT CAVOK"
    },
    {
      "icao": "LRBS",
      "alert": "OK",
      "vis_m": 9999,
      "fzfg": false,
      "metar_trigger": false,
      "taf_trigger": false,
      "metar": "METAR LRBS 282300Z 28003KT CAVOK 24/19 Q1018 NOSIG",
      "taf": "TAF LRBS 282300Z 2900/2924 VRB04KT CAVOK"
    },
    {
      "icao": "LRBV",
      "alert": "OK",
      "vis_m": 9999,
      "fzfg": false,
      "metar_trigger": false,
      "taf_trigger": false,
      "metar": "METAR LRBV 282300Z AUTO 23008KT 9999 NCD 20/14 Q1023",
      "taf": "TAF LRBV 281700Z 2818/2903 VRB04KT CAVOK"
    },
    {
      "icao": "LRCL",
      "alert": "OK",
      "vis_m": 9999,
      "fzfg": false,
      "metar_trigger": false,
      "taf_trigger": false,
      "metar": "METAR LRCL 282300Z 25004KT CAVOK 23/18 Q1021",
      "taf": "TAF LRCL 282300Z 2900/2909 VRB04KT CAVOK"
    },
    {
      "icao": "LRCV",
      "alert": "OK",
      "vis_m": 9999,
      "fzfg": false,
      "metar_trigger": false,
      "taf_trigger": false,
      "metar": "METAR LRCV 282300Z 32005KT CAVOK 23/18 Q1020",
      "taf": "TAF LRCV 282300Z 2900/2909 VRB04KT CAVOK"
    },
    {
      "icao": "LRIA",
      "alert": "OK",
      "vis_m": 9999,
      "fzfg": false,
      "metar_trigger": false,
      "taf_trigger": false,
      "metar": "METAR LRIA 282300Z 00000KT CAVOK 23/18 Q1018",
      "taf": "TAF LRIA 282300Z 2900/2909 VRB04KT CAVOK"
    },
    {
      "icao": "LROP",
      "alert": "OK",
      "vis_m": 9999,
      "fzfg": false,
      "metar_trigger": false,
      "taf_trigger": false,
      "metar": "METAR LROP 282300Z 28005KT CAVOK 23/19 Q1018 NOSIG",
      "taf": "TAF LROP 282300Z 2900/2924 VRB04KT CAVOK"
    },
    {
      "icao": "LRSB",
      "alert": "OK",
      "vis_m": 9999,
      "fzfg": false,
      "metar_trigger": false,
      "taf_trigger": false,
      "metar": "METAR LRSB 282300Z 04003KT CAVOK 22/17 Q1022",
      "taf": "TAF LRSB 282300Z 2900/2924 VRB04KT CAVOK"
    },
    {
      "icao": "LRSM",
      "alert": "OK",
      "vis_m": 9999,
      "fzfg": false,
      "metar_trigger": false,
      "taf_trigger": false,
      "metar": "METAR LRSM 282300Z AUTO VRB01KT 9999 NCD 21/17 Q1019",
      "taf": ""
    },
    {
      "icao": "LRSV",
      "alert": "OK",
      "vis_m": 9999,
      "fzfg": false,
      "metar_trigger": false,
      "taf_trigger": false,
      "metar": "METAR LRSV 282300Z 31004KT 270V340 CAVOK 27/14 Q1020",
      "taf": "TAF LRSV 282300Z 2900/2909 VRB04KT CAVOK"
    },
    {
      "icao": "LRTM",
      "alert": "OK",
      "vis_m": 9999,
      "fzfg": false,
      "metar_trigger": false,
      "taf_trigger": false,
      "metar": "METAR LRTM 282300Z 09004KT CAVOK 20/18 Q1021",
      "taf": "TAF LRTM 282300Z 2900/2909 VRB04KT CAVOK"
    },
    {
      "icao": "LRTR",
      "alert": "OK",
      "vis_m": 9999,
      "fzfg": false,
      "metar_trigger": false,
      "taf_trigger": false,
      "metar": "METAR LRTR 282300Z 08005KT CAVOK 21/19 Q1019 NOSIG",
      "taf": "TAF LRTR 282300Z 2900/2924 VRB04KT CAVOK"
    },
    {
      "icao": "LTAC",
      "alert": "OK",
      "vis_m": 9999,
      "fzfg": false,
      "metar_trigger": false,
      "taf_trigger": false,
      "metar": "METAR LTAC 282320Z 05010KT CAVOK 16/08 Q1022 NOSIG RMK RWY21C 04009KT RWY03L 04008KT RWY21R 03009KT RWY03R 05005KT RWY21L 04007KT",
      "taf": "TAF LTAC 282240Z 2900/2924 04009KT CAVOK"
    },
    {
      "icao": "LTFM",
      "alert": "OK",
      "vis_m": 9999,
      "fzfg": false,
      "metar_trigger": false,
      "taf_trigger": false,
      "metar": "METAR LTFM 282320Z 05007KT CAVOK 22/19 Q1018 NOSIG RMK RWY17L 06004KT RWY34L 03006KT RWY16R 05005KT RWY36 04007KT RWY18 06004KT",
      "taf": "TAF LTFM 282240Z 2900/3006 05008KT CAVOK"
    },
    {
      "icao": "LUKK",
      "alert": "OK",
      "vis_m": 9999,
      "fzfg": false,
      "metar_trigger": false,
      "taf_trigger": false,
      "metar": "METAR LUKK 282300Z 27002KT CAVOK 24/20 Q1018 NOSIG",
      "taf": "TAF LUKK 282301Z 2900/2924 VRB04KT CAVOK"
    },
    {
      "icao": "LWOH",
      "alert": "OK",
      "vis_m": null,
      "fzfg": false,
      "metar_trigger": false,
      "taf_trigger": false,
      "metar": "",
      "taf": "TAF LWOH 282020Z 2821/2921 34005KT CAVOK"
    },
    {
      "icao": "LWSK",
      "alert": "OK",
      "vis_m": 9999,
      "fzfg": false,
      "metar_trigger": false,
      "taf_trigger": false,
      "metar": "METAR LWSK 282320Z VRB02KT CAVOK 22/15 Q1019 NOSIG",
      "taf": "TAF LWSK 282020Z 2821/2921 04010KT CAVOK"
    },
    {
      "icao": "LYBE",
      "alert": "OK",
      "vis_m": 9999,
      "fzfg": false,
      "metar_trigger": false,
      "taf_trigger": false,
      "metar": "METAR LYBE 282300Z 12004KT CAVOK 24/17 Q1019 NOSIG",
      "taf": "TAF LYBE 282300Z 2900/2924 10005KT CAVOK TX38/2913Z TN22/2903Z"
    },
    {
      "icao": "LYNI",
      "alert": "OK",
      "vis_m": 9999,
      "fzfg": false,
      "metar_trigger": false,
      "taf_trigger": false,
      "metar": "METAR LYNI 282300Z 01001KT CAVOK 24/14 Q1019 NOSIG",
      "taf": "TAF LYNI 282300Z 2900/2924 09004KT CAVOK TX37/2914Z TN20/2903Z"
    },
    {
      "icao": "LYPG",
      "alert": "OK",
      "vis_m": 9999,
      "fzfg": false,
      "metar_trigger": false,
      "taf_trigger": false,
      "metar": "METAR LYPG 282300Z VRB01KT CAVOK 28/16 Q1016 NOSIG",
      "taf": "TAF LYPG 282300Z 2900/2924 36006KT CAVOK TX38/2914Z TN25/2903Z"
    },
    {
      "icao": "LZIB",
      "alert": "OK",
      "vis_m": 9999,
      "fzfg": false,
      "metar_trigger": false,
      "taf_trigger": false,
      "metar": "METAR LZIB 282330Z 11003KT CAVOK 26/18 Q1018 NOSIG",
      "taf": "TAF LZIB 282315Z 2900/3000 VRB02KT CAVOK"
    },
    {
      "icao": "LZKZ",
      "alert": "OK",
      "vis_m": 9999,
      "fzfg": false,
      "metar_trigger": false,
      "taf_trigger": false,
      "metar": "METAR LZKZ 282330Z 36006KT CAVOK 24/16 Q1019 NOSIG",
      "taf": "TAF LZKZ 282315Z 2900/3000 35004KT CAVOK"
    },
    {
      "icao": "LZTT",
      "alert": "OK",
      "vis_m": 9999,
      "fzfg": false,
      "metar_trigger": false,
      "taf_trigger": false,
      "metar": "METAR LZTT 282330Z VRB03KT 9999 FEW066 20/16 Q1023",
      "taf": "TAF LZTT 282315Z 2900/3000 29004KT 9999 FEW066"
    },
    {
      "icao": "OEJN",
      "alert": "OK",
      "vis_m": 9999,
      "fzfg": false,
      "metar_trigger": false,
      "taf_trigger": false,
      "metar": "METAR OEJN 282300Z 36007KT CAVOK 32/11 Q1003 NOSIG",
      "taf": "TAF OEJN 282300Z 2900/3006 01010KT CAVOK"
    },
    {
      "icao": "OEMA",
      "alert": "OK",
      "vis_m": 9999,
      "fzfg": false,
      "metar_trigger": false,
      "taf_trigger": false,
      "metar": "METAR OEMA 282300Z 33003KT CAVOK 33/M06 Q1010 NOSIG",
      "taf": "TAF OEMA 282300Z 2900/3006 35005KT CAVOK"
    },
    {
      "icao": "OJAI",
      "alert": "OK",
      "vis_m": 5000,
      "fzfg": false,
      "metar_trigger": false,
      "taf_trigger": false,
      "metar": "METAR OJAI 282300Z 26003KT 5000 HZ NSC 19/12 Q1013 NOSIG",
      "taf": "TAF OJAI 282300Z 2900/3006 29008KT 5000 HZ NSC"
    },
    {
      "icao": "OMAA",
      "alert": "OK",
      "vis_m": 9999,
      "fzfg": false,
      "metar_trigger": false,
      "taf_trigger": false,
      "metar": "METAR OMAA 282330Z 33005KT 260V020 CAVOK 32/26 Q0999 NOSIG",
      "taf": "TAF OMAA 282300Z 2900/3006 VRB02KT 8000 NSC"
    },
    {
      "icao": "OMDB",
      "alert": "OK",
      "vis_m": 9999,
      "fzfg": false,
      "metar_trigger": false,
      "taf_trigger": false,
      "metar": "METAR OMDB 282300Z 33005KT 300V010 CAVOK 33/25 Q0999 NOSIG",
      "taf": "TAF OMDB 282300Z 2900/3006 VRB02KT 8000 NSC"
    },
    {
      "icao": "UAAA",
      "alert": "OK",
      "vis_m": 9999,
      "fzfg": false,
      "metar_trigger": false,
      "taf_trigger": false,
      "metar": "METAR UAAA 282300Z VRB01MPS 9999 FEW100 20/10 Q1008 NOSIG",
      "taf": "TAF UAAA 282301Z 2900/2924 34003MPS 9999 SCT050CB BKN100 TX36/2910Z TN19/2901Z"
    },
    {
      "icao": "UBBB",
      "alert": "OK",
      "vis_m": 9999,
      "fzfg": false,
      "metar_trigger": false,
      "taf_trigger": false,
      "metar": "METAR UBBB 282330Z 21008KT CAVOK 21/15 Q1012 NOSIG",
      "taf": "TAF UBBB 282258Z 2900/2924 23010KT CAVOK TX26/2910Z TN20/2901Z"
    },
    {
      "icao": "UDSG",
      "alert": "OK",
      "vis_m": 9999,
      "fzfg": false,
      "metar_trigger": false,
      "taf_trigger": false,
      "metar": "METAR UDSG 282300Z 08004KT 9999 NSC 05/03 Q1022 NOSIG",
      "taf": "TAF UDSG 282258Z 2900/2924 36008KT 9999 FEW050"
    },
    {
      "icao": "UDYZ",
      "alert": "OK",
      "vis_m": 9999,
      "fzfg": false,
      "metar_trigger": false,
      "taf_trigger": false,
      "metar": "METAR UDYZ 282300Z 11003KT 070V150 9999 NSC 16/08 Q1017 NOSIG",
      "taf": "TAF UDYZ 282300Z 2900/2924 16006KT 9999 FEW050"
    },
    {
      "icao": "UGKO",
      "alert": "OK",
      "vis_m": 8000,
      "fzfg": false,
      "metar_trigger": false,
      "taf_trigger": false,
      "metar": "METAR UGKO 282300Z VRB01KT 8000 -RA SCT027 BKN056 17/16 Q1018 NOSIG",
      "taf": "TAF UGKO 282300Z 2900/2924 25007KT CAVOK TX25/2911Z TN16/2902Z"
    }
  ]
}