{
  "ts_utc": "2026-02-23T10:10:37Z",
  "threshold_m": 150,
  "source": "stations_override.txt (ICAO list) + aviationweather.gov (METAR/TAF raw)",
  "station_count": 159,
  "stations": [
    {
      "icao": "BIKF",
      "alert": "OK",
      "vis_m": 6000,
      "fzfg": false,
      "metar_trigger": false,
      "taf_trigger": false,
      "metar": "METAR BIKF 231000Z 13021KT 6000 -RA BKN013 OVC019 05/04 Q0993",
      "taf": "TAF BIKF 230750Z 2309/2409 14022KT 9999 -SHRA SCT015 BKN025 TX07/2314Z TN01/2406Z"
    },
    {
      "icao": "BKPR",
      "alert": "OK",
      "vis_m": 9999,
      "fzfg": false,
      "metar_trigger": false,
      "taf_trigger": false,
      "metar": "METAR BKPR 231000Z 14003KT 9999 BKN090 04/01 Q1020 NOSIG",
      "taf": "TAF BKPR 222330Z 2300/2324 35006KT 9999 FEW040"
    },
    {
      "icao": "EBCI",
      "alert": "OK",
      "vis_m": 9999,
      "fzfg": false,
      "metar_trigger": false,
      "taf_trigger": false,
      "metar": "METAR EBCI 230950Z 23017KT 9999 SCT016 09/06 Q1018 NOSIG",
      "taf": "TAF EBCI 222310Z 2300/2406 24013KT 9999 SCT012 SCT025"
    },
    {
      "icao": "EDDB",
      "alert": "OK",
      "vis_m": 9999,
      "fzfg": false,
      "metar_trigger": false,
      "taf_trigger": false,
      "metar": "METAR EDDB 230950Z AUTO 25014KT 9999 SCT023 11/07 Q1010 BECMG 25015G25KT",
      "taf": "TAF EDDB 222300Z 2300/2324 26012KT 9999 SCT020 BKN030"
    },
    {
      "icao": "EDDH",
      "alert": "OK",
      "vis_m": 9999,
      "fzfg": false,
      "metar_trigger": false,
      "taf_trigger": false,
      "metar": "METAR EDDH 230950Z AUTO 26011KT 220V300 9999 SHRA BKN012 BKN018 BKN031 FEW///CB 08/07 Q1008 BECMG NSW BKN015",
      "taf": "TAF EDDH 222300Z 2300/2406 24010KT 9999 FEW010 BKN040"
    },
    {
      "icao": "EDDK",
      "alert": "OK",
      "vis_m": 9999,
      "fzfg": false,
      "metar_trigger": false,
      "taf_trigger": false,
      "metar": "METAR EDDK 230950Z AUTO 25014KT 9999 FEW032 11/05 Q1016 NOSIG",
      "taf": "TAF EDDK 222300Z 2300/2406 25008KT 9999 BKN025"
    },
    {
      "icao": "EDDN",
      "alert": "OK",
      "vis_m": 9999,
      "fzfg": false,
      "metar_trigger": false,
      "taf_trigger": false,
      "metar": "METAR EDDN 230950Z AUTO VRB02KT 9999 FEW004 BKN010 OVC016 08/07 Q1017 NOSIG",
      "taf": "TAF EDDN 222300Z 2300/2324 25012KT 9999 BKN015"
    },
    {
      "icao": "EDDS",
      "alert": "OK",
      "vis_m": 9999,
      "fzfg": false,
      "metar_trigger": false,
      "taf_trigger": false,
      "metar": "METAR EDDS 230950Z AUTO 23007KT 170V260 9999 BKN018 OVC029 OVC038 10/07 Q1018 NOSIG",
      "taf": "TAF EDDS 222300Z 2300/2324 23008KT 9999 SCT030"
    },
    {
      "icao": "EDFH",
      "alert": "OK",
      "vis_m": 9999,
      "fzfg": false,
      "metar_trigger": false,
      "taf_trigger": false,
      "metar": "METAR EDFH 230950Z 27017KT 9999 BKN010 BKN038 08/06 Q1017",
      "taf": "TAF EDFH 222300Z 2300/2324 26013KT 7000 OVC005"
    },
    {
      "icao": "EDJA",
      "alert": "OK",
      "vis_m": 9999,
      "fzfg": false,
      "metar_trigger": false,
      "taf_trigger": false,
      "metar": "METAR EDJA 230950Z 24014KT 9999 BKN014 08/06 Q1020",
      "taf": ""
    },
    {
      "icao": "EDLW",
      "alert": "OK",
      "vis_m": 9999,
      "fzfg": false,
      "metar_trigger": false,
      "taf_trigger": false,
      "metar": "METAR EDLW 230950Z 23016KT 9999 -RA FEW016 BKN020 BKN028 09/06 Q1013",
      "taf": "TAF EDLW 230500Z 2306/2406 24012KT 9999 BKN012"
    },
    {
      "icao": "EDNY",
      "alert": "OK",
      "vis_m": 9999,
      "fzfg": false,
      "metar_trigger": false,
      "taf_trigger": false,
      "metar": "METAR EDNY 230950Z 24009KT 9999 FEW012 BKN028 10/07 Q1022",
      "taf": "TAF EDNY 230800Z 2309/2318 23005KT 9999 BKN045"
    },
    {
      "icao": "EDSB",
      "alert": "OK",
      "vis_m": 9999,
      "fzfg": false,
      "metar_trigger": false,
      "taf_trigger": false,
      "metar": "METAR EDSB 230950Z 21012KT 180V240 9999 VCSH SCT026 OVC035 10/09 Q1021",
      "taf": "TAF EDSB 222300Z 2300/2324 21010KT 9999 BKN020"
    },
    {
      "icao": "EETN",
      "alert": "OK",
      "vis_m": 9999,
      "fzfg": false,
      "metar_trigger": false,
      "taf_trigger": false,
      "metar": "METAR EETN 230950Z 15005KT 9999 FEW005 M05/M06 Q1008 NOSIG",
      "taf": ""
    },
    {
      "icao": "EFTU",
      "alert": "OK",
      "vis_m": 9999,
      "fzfg": false,
      "metar_trigger": false,
      "taf_trigger": false,
      "metar": "METAR EFTU 230950Z AUTO 13004KT 9999 OVC012 M05/M06 Q1007",
      "taf": "TAF EFTU 222328Z 2300/2324 10002KT CAVOK"
    },
    {
      "icao": "EGBB",
      "alert": "OK",
      "vis_m": 9999,
      "fzfg": false,
      "metar_trigger": false,
      "taf_trigger": false,
      "metar": "METAR EGBB 230950Z 26011KT 220V290 9999 BKN031 10/05 Q1012",
      "taf": "TAF EGBB 230457Z 2306/2406 25010KT 9999 SCT030"
    },
    {
      "icao": "EGGP",
      "alert": "OK",
      "vis_m": 9999,
      "fzfg": false,
      "metar_trigger": false,
      "taf_trigger": false,
      "metar": "METAR EGGP 230950Z 23012KT 9999 SCT048 10/05 Q1011",
      "taf": "TAF EGGP 222258Z 2300/2324 24013KT 9999 FEW030"
    },
    {
      "icao": "EGGW",
      "alert": "OK",
      "vis_m": 9999,
      "fzfg": false,
      "metar_trigger": false,
      "taf_trigger": false,
      "metar": "METAR EGGW 230950Z AUTO 24015KT 9999 BKN018 BKN024 09/06 Q1014",
      "taf": "TAF EGGW 230457Z 2306/2406 23014KT 9999 SCT025"
    },
    {
      "icao": "EGKK",
      "alert": "OK",
      "vis_m": 9999,
      "fzfg": false,
      "metar_trigger": false,
      "taf_trigger": false,
      "metar": "METAR EGKK 230950Z 23010KT 9999 BKN017 10/08 Q1016",
      "taf": "TAF EGKK 230456Z 2306/2412 23010KT 9999 SCT025"
    },
    {
      "icao": "EGNM",
      "alert": "OK",
      "vis_m": 9999,
      "fzfg": false,
      "metar_trigger": false,
      "taf_trigger": false,
      "metar": "METAR EGNM 230950Z 26022G35KT 9999 -SHRA SCT022 09/04 Q1007",
      "taf": "TAF EGNM 222257Z 2300/2324 26014KT 9999 FEW030"
    },
    {
      "icao": "EGPD",
      "alert": "OK",
      "vis_m": 9999,
      "fzfg": false,
      "metar_trigger": false,
      "taf_trigger": false,
      "metar": "METAR EGPD 230950Z COR AUTO 22007KT 9999 NCD 07/03 Q0999 NOSIG",
      "taf": "TAF EGPD 230453Z 2306/2406 21006KT 9999 FEW035"
    },
    {
      "icao": "EGPF",
      "alert": "OK",
      "vis_m": 9999,
      "fzfg": false,
      "metar_trigger": false,
      "taf_trigger": false,
      "metar": "METAR EGPF 230950Z AUTO 24013KT 9999 BKN019 BKN028 09/06 Q1003",
      "taf": "TAF EGPF 230456Z 2306/2406 24009KT 9999 FEW020 SCT035"
    },
    {
      "icao": "EHBK",
      "alert": "OK",
      "vis_m": 9999,
      "fzfg": false,
      "metar_trigger": false,
      "taf_trigger": false,
      "metar": "METAR EHBK 230955Z AUTO 24016KT 210V290 9999 BKN017 BKN021 10/07 Q1016 NOSIG",
      "taf": "TAF EHBK 222303Z 2300/2406 24011KT 9999 BKN021"
    },
    {
      "icao": "EHEH",
      "alert": "OK",
      "vis_m": 9999,
      "fzfg": false,
      "metar_trigger": false,
      "taf_trigger": false,
      "metar": "SPECI EHEH 231002Z AUTO 24014KT 210V290 9999 FEW018 SCT023 BKN026 11/07 Q1014 BLU NOSIG RMK TREND REMOTE BY EHWX",
      "taf": "TAF EHEH 230553Z 2306/2412 24012G22KT 9999 SCT017 BKN020"
    },
    {
      "icao": "EKBI",
      "alert": "OK",
      "vis_m": 5000,
      "fzfg": false,
      "metar_trigger": false,
      "taf_trigger": false,
      "metar": "METAR EKBI 230950Z 24010KT 5000 -RA BKN004 05/05 Q1003",
      "taf": "TAF EKBI 222327Z 2300/2324 24008KT 7000 SCT003 BKN030"
    },
    {
      "icao": "EKCH",
      "alert": "OK",
      "vis_m": 3500,
      "fzfg": false,
      "metar_trigger": false,
      "taf_trigger": false,
      "metar": "METAR EKCH 230950Z 23012KT 3500 BR FEW002 OVC003 03/03 Q1003 BECMG 2000",
      "taf": "TAF EKCH 222327Z 2300/2324 26010KT 2500 BR BKN003"
    },
    {
      "icao": "ENAL",
      "alert": "OK",
      "vis_m": 9999,
      "fzfg": false,
      "metar_trigger": false,
      "taf_trigger": false,
      "metar": "METAR ENAL 230950Z 14009G20KT 9999 FEW010 BKN020 02/01 Q0996",
      "taf": ""
    },
    {
      "icao": "ENBR",
      "alert": "OK",
      "vis_m": 9999,
      "fzfg": false,
      "metar_trigger": false,
      "taf_trigger": false,
      "metar": "METAR ENBR 230950Z 16011KT 9999 -SHRA FEW003 BKN008 04/04 Q0997 TEMPO 4000 SHRA BKN004 SCT018CB RMK WIND 1200FT 18009KT",
      "taf": "TAF ENBR 222300Z 2300/2324 14012KT 9999 -SHRA SCT008 BKN020"
    },
    {
      "icao": "ENGM",
      "alert": "OK",
      "vis_m": 9999,
      "fzfg": false,
      "metar_trigger": false,
      "taf_trigger": false,
      "metar": "METAR ENGM 230950Z VRB01KT 9999 VCSH FEW015 BKN028 M02/M05 Q0999 TEMPO 4000 -SN",
      "taf": "TAF ENGM 222300Z 2300/2324 02003KT 8000 -SN SCT015 BKN020"
    },
    {
      "icao": "ENHD",
      "alert": "OK",
      "vis_m": 9999,
      "fzfg": false,
      "metar_trigger": false,
      "taf_trigger": false,
      "metar": "METAR ENHD 230950Z 13008KT 9999 -RA OVC005 04/03 Q0998",
      "taf": "TAF ENHD 230800Z 2309/2318 17008KT 9999 SCT004 BKN010"
    },
    {
      "icao": "ENTC",
      "alert": "OK",
      "vis_m": 9999,
      "fzfg": false,
      "metar_trigger": false,
      "taf_trigger": false,
      "metar": "METAR ENTC 230950Z 23007KT 9999 FEW014 M03/M06 Q1005 NOSIG RMK WIND 2600FT 17008KT",
      "taf": "TAF ENTC 222300Z 2300/2324 18008KT 9999 FEW010 SCT025"
    },
    {
      "icao": "ENTO",
      "alert": "OK",
      "vis_m": 2500,
      "fzfg": false,
      "metar_trigger": false,
      "taf_trigger": false,
      "metar": "METAR ENTO 230950Z 19003KT 150V220 2500 BR OVC002 M01/M01 Q1000 TEMPO 3000",
      "taf": "TAF ENTO 222300Z 2300/2324 03005KT 8000 -SN BKN012"
    },
    {
      "icao": "ENVA",
      "alert": "OK",
      "vis_m": 9999,
      "fzfg": false,
      "metar_trigger": false,
      "taf_trigger": false,
      "metar": "METAR ENVA 230950Z 10005KT CAVOK M04/M07 Q0998 NOSIG RMK WIND 670FT 10007KT",
      "taf": "TAF ENVA 222300Z 2300/2324 13010KT CAVOK"
    },
    {
      "icao": "ENZV",
      "alert": "OK",
      "vis_m": 9999,
      "fzfg": false,
      "metar_trigger": false,
      "taf_trigger": false,
      "metar": "METAR ENZV 230950Z 15009KT 9999 OVC010 04/02 Q0998 TEMPO 4000 SHRA BKN008",
      "taf": "TAF ENZV 222300Z 2300/2324 16012KT 9999 SCT015 BKN025"
    },
    {
      "icao": "EPGD",
      "alert": "OK",
      "vis_m": 9999,
      "fzfg": false,
      "metar_trigger": false,
      "taf_trigger": false,
      "metar": "METAR EPGD 231000Z 26011KT 230V290 9999 -DZRA OVC003 03/03 Q1005",
      "taf": "TAF EPGD 222330Z 2300/2324 VRB02KT 0800 -DZ FG OVC002"
    },
    {
      "icao": "EPKK",
      "alert": "OK",
      "vis_m": 9999,
      "fzfg": false,
      "metar_trigger": false,
      "taf_trigger": false,
      "metar": "METAR EPKK 231000Z 26012KT 9999 BKN017 09/05 Q1012",
      "taf": "TAF EPKK 222330Z 2300/2324 24005KT 7000 BKN015"
    },
    {
      "icao": "EPKT",
      "alert": "OK",
      "vis_m": 9999,
      "fzfg": false,
      "metar_trigger": false,
      "taf_trigger": false,
      "metar": "METAR EPKT 231000Z 26011KT 9999 FEW009 BKN010 07/06 Q1012",
      "taf": "TAF EPKT 222330Z 2300/2324 23012KT 4000 -RA BR BKN005"
    },
    {
      "icao": "EPLB",
      "alert": "OK",
      "vis_m": 4400,
      "fzfg": false,
      "metar_trigger": false,
      "taf_trigger": false,
      "metar": "METAR EPLB 231000Z 28012KT 4400 -RA BR SCT004 BKN006 OVC014 06/05 Q1007",
      "taf": ""
    },
    {
      "icao": "EPMO",
      "alert": "OK",
      "vis_m": 9999,
      "fzfg": false,
      "metar_trigger": false,
      "taf_trigger": false,
      "metar": "METAR EPMO 231000Z 27012KT 9999 BKN011 05/04 Q1008",
      "taf": ""
    },
    {
      "icao": "EPPO",
      "alert": "OK",
      "vis_m": 9999,
      "fzfg": false,
      "metar_trigger": false,
      "taf_trigger": false,
      "metar": "METAR EPPO 231000Z 24010KT 9999 OVC007 08/06 Q1009",
      "taf": ""
    },
    {
      "icao": "EPRA",
      "alert": "OK",
      "vis_m": 9999,
      "fzfg": false,
      "metar_trigger": false,
      "taf_trigger": false,
      "metar": "METAR EPRA 231000Z 29011G22KT 9999 BKN016 07/04 Q1009",
      "taf": "TAF EPRA 222330Z 2300/2309 22012KT 8000 -RA BKN006 OVC012"
    },
    {
      "icao": "EPRZ",
      "alert": "OK",
      "vis_m": 9999,
      "fzfg": false,
      "metar_trigger": false,
      "taf_trigger": false,
      "metar": "METAR EPRZ 231000Z 26016KT 9999 OVC018 08/06 Q1010",
      "taf": "TAF EPRZ 222330Z 2300/2324 20012KT 9999 OVC020"
    },
    {
      "icao": "EPSC",
      "alert": "OK",
      "vis_m": 9999,
      "fzfg": false,
      "metar_trigger": false,
      "taf_trigger": false,
      "metar": "METAR EPSC 231000Z 23007KT 200V270 9999 FEW009TCU OVC010 07/06 Q1007",
      "taf": ""
    },
    {
      "icao": "EPSY",
      "alert": "OK",
      "vis_m": 9999,
      "fzfg": false,
      "metar_trigger": false,
      "taf_trigger": false,
      "metar": "METAR EPSY 231000Z 28010KT 250V310 9999 BKN005 OVC008 04/03 Q1006",
      "taf": "TAF EPSY 222330Z 2300/2309 13005KT 5000 -RA BR OVC002"
    },
    {
      "icao": "EPWA",
      "alert": "OK",
      "vis_m": 9999,
      "fzfg": false,
      "metar_trigger": false,
      "taf_trigger": false,
      "metar": "METAR EPWA 231000Z 27014KT 9999 BKN011 06/04 Q1008 BECMG SCT011 BKN015",
      "taf": "TAF EPWA 222330Z 2300/2324 17005KT 6000 OVC005"
    },
    {
      "icao": "EPWR",
      "alert": "OK",
      "vis_m": 9999,
      "fzfg": false,
      "metar_trigger": false,
      "taf_trigger": false,
      "metar": "METAR EPWR 231000Z 26009KT 9999 -RA SCT020 BKN038 09/07 Q1011",
      "taf": "TAF EPWR 222330Z 2300/2324 27012KT 9999 BKN025"
    },
    {
      "icao": "ESGG",
      "alert": "OK",
      "vis_m": 100,
      "fzfg": false,
      "metar_trigger": false,
      "taf_trigger": false,
      "metar": "METAR ESGG 230950Z 20005KT 0100 R03/0300N R21/0275N FG VV002 01/01 Q1000",
      "taf": "TAF ESGG 230830Z 2309/2409 18006KT 0150 FG VV002"
    },
    {
      "icao": "ESKN",
      "alert": "OK",
      "vis_m": 6000,
      "fzfg": false,
      "metar_trigger": false,
      "taf_trigger": false,
      "metar": "METAR ESKN 230950Z 13008KT 6000 -DZ FEW006 OVC022 00/M01 Q1002",
      "taf": "TAF ESKN 230830Z 2309/2409 13008KT 9999 SCT005 BKN020"
    },
    {
      "icao": "ESMS",
      "alert": "OK",
      "vis_m": 3500,
      "fzfg": false,
      "metar_trigger": false,
      "taf_trigger": false,
      "metar": "METAR ESMS 230950Z 25003KT 3500 RA BKN020 03/03 Q1003",
      "taf": "TAF ESMS 230830Z 2309/2409 26008KT 0200 FG BKN001"
    },
    {
      "icao": "ESSA",
      "alert": "OK",
      "vis_m": 9999,
      "fzfg": false,
      "metar_trigger": false,
      "taf_trigger": false,
      "metar": "METAR ESSA 230950Z 14009KT 9999 BKN010 00/M02 Q1003 TEMPO SCT010",
      "taf": "TAF ESSA 222330Z 2300/2324 10006KT CAVOK"
    },
    {
      "icao": "EYKA",
      "alert": "OK",
      "vis_m": 3300,
      "fzfg": false,
      "metar_trigger": false,
      "taf_trigger": false,
      "metar": "METAR EYKA 230950Z 13006KT 3300 SNRA OVC013 01/M00 Q1004",
      "taf": "TAF EYKA 222316Z 2300/2324 VRB04KT 5000 BR SCT025"
    },
    {
      "icao": "EYPA",
      "alert": "OK",
      "vis_m": 2700,
      "fzfg": false,
      "metar_trigger": false,
      "taf_trigger": false,
      "metar": "METAR EYPA 230950Z 16008KT 2700 BR OVC004 01/M00 Q1001",
      "taf": "TAF EYPA 222315Z 2300/2324 11012KT 9000 OVC025"
    },
    {
      "icao": "EYVI",
      "alert": "OK",
      "vis_m": 9999,
      "fzfg": false,
      "metar_trigger": false,
      "taf_trigger": false,
      "metar": "METAR EYVI 230950Z 14010KT 9999 SCT014 01/M02 Q1004 BECMG BKN015",
      "taf": "TAF EYVI 230523Z 2306/2406 13010KT 9000 OVC030"
    },
    {
      "icao": "GCFV",
      "alert": "OK",
      "vis_m": 9999,
      "fzfg": false,
      "metar_trigger": false,
      "taf_trigger": false,
      "metar": "METAR GCFV 231000Z 03004KT CAVOK 22/11 Q1023",
      "taf": "TAF GCFV 230800Z 2309/2409 17005KT 7000 NSC TX24/2314Z TN17/2406Z"
    },
    {
      "icao": "GCLP",
      "alert": "OK",
      "vis_m": 9999,
      "fzfg": false,
      "metar_trigger": false,
      "taf_trigger": false,
      "metar": "METAR GCLP 231000Z 15005KT 110V210 CAVOK 23/11 Q1022 NOSIG",
      "taf": "TAF GCLP 230800Z 2309/2409 17010KT 7000 NSC TX25/2314Z TN18/2406Z"
    },
    {
      "icao": "GCTS",
      "alert": "OK",
      "vis_m": 9999,
      "fzfg": false,
      "metar_trigger": false,
      "taf_trigger": false,
      "metar": "METAR GCTS 231000Z 09013KT CAVOK 26/05 Q1022 NOSIG",
      "taf": "TAF GCTS 230800Z 2309/2409 10010KT 8000 NSC TX27/2314Z TN19/2406Z"
    },
    {
      "icao": "GMAD",
      "alert": "OK",
      "vis_m": 9999,
      "fzfg": false,
      "metar_trigger": false,
      "taf_trigger": false,
      "metar": "METAR GMAD 231000Z 06006KT CAVOK 22/07 Q1023 NOSIG",
      "taf": "TAF GMAD 230500Z 2306/2412 06007KT CAVOK"
    },
    {
      "icao": "GMMN",
      "alert": "OK",
      "vis_m": 9999,
      "fzfg": false,
      "metar_trigger": false,
      "taf_trigger": false,
      "metar": "METAR GMMN 231000Z 17003KT 7000 NSC 20/14 Q1024 BECMG CAVOK",
      "taf": "TAF GMMN 222300Z 2300/2406 18004KT 8000 NSC"
    },
    {
      "icao": "GMMX",
      "alert": "OK",
      "vis_m": 9999,
      "fzfg": false,
      "metar_trigger": false,
      "taf_trigger": false,
      "metar": "METAR GMMX 231000Z 07003KT 020V100 CAVOK 20/06 Q1025 NOSIG",
      "taf": "TAF GMMX 222300Z 2300/2406 06006KT 8000 NSC"
    },
    {
      "icao": "HEGN",
      "alert": "OK",
      "vis_m": 9999,
      "fzfg": false,
      "metar_trigger": false,
      "taf_trigger": false,
      "metar": "METAR HEGN 231000Z 31014KT CAVOK 23/00 Q1013 NOSIG",
      "taf": "TAF HEGN 230500Z 2306/2412 33012G22KT CAVOK"
    },
    {
      "icao": "HEMA",
      "alert": "OK",
      "vis_m": 9999,
      "fzfg": false,
      "metar_trigger": false,
      "taf_trigger": false,
      "metar": "METAR HEMA 231000Z 02012KT CAVOK 23/05 Q1013 NOSIG",
      "taf": "TAF HEMA 230500Z 2306/2412 35012G22KT CAVOK"
    },
    {
      "icao": "HESH",
      "alert": "OK",
      "vis_m": 9999,
      "fzfg": false,
      "metar_trigger": false,
      "taf_trigger": false,
      "metar": "METAR HESH 231000Z 02006KT CAVOK 23/06 Q1012 NOSIG",
      "taf": "TAF HESH 230500Z 2306/2412 01014KT CAVOK"
    },
    {
      "icao": "HESX",
      "alert": "OK",
      "vis_m": 9999,
      "fzfg": false,
      "metar_trigger": false,
      "taf_trigger": false,
      "metar": "METAR HESX 231000Z 27011KT 9999 SCT020 18/09 Q1015 NOSIG",
      "taf": ""
    },
    {
      "icao": "LATI",
      "alert": "OK",
      "vis_m": 9999,
      "fzfg": false,
      "metar_trigger": false,
      "taf_trigger": false,
      "metar": "METAR LATI 230950Z VRB02KT CAVOK 14/00 Q1022 NOSIG",
      "taf": "TAF LATI 222300Z 2300/2324 VRB05KT CAVOK TX18/2312Z TN02/2305Z"
    },
    {
      "icao": "LBPD",
      "alert": "OK",
      "vis_m": 9999,
      "fzfg": false,
      "metar_trigger": false,
      "taf_trigger": false,
      "metar": "METAR LBPD 231000Z AUTO 01003KT 310V100 9999 NCD 10/02 Q1019 NOSIG",
      "taf": "TAF LBPD 222300Z 2300/2324 28010KT 9999 SCT020"
    },
    {
      "icao": "LBSF",
      "alert": "OK",
      "vis_m": 9999,
      "fzfg": false,
      "metar_trigger": false,
      "taf_trigger": false,
      "metar": "METAR LBSF 231000Z VRB03KT 9999 BKN079 06/00 Q1020 NOSIG",
      "taf": "TAF LBSF 222300Z 2300/2324 VRB03KT 9999 SCT020 BKN030"
    },
    {
      "icao": "LBWN",
      "alert": "OK",
      "vis_m": 9999,
      "fzfg": false,
      "metar_trigger": false,
      "taf_trigger": false,
      "metar": "METAR LBWN 231000Z 22008KT 190V250 CAVOK 08/03 Q1018 NOSIG",
      "taf": "TAF LBWN 222300Z 2300/2324 25006KT 9999 SCT045"
    },
    {
      "icao": "LCLK",
      "alert": "OK",
      "vis_m": 9999,
      "fzfg": false,
      "metar_trigger": false,
      "taf_trigger": false,
      "metar": "METAR LCLK 231000Z 18009KT 150V220 9999 SCT025 FEW040CB 20/11 Q1012 NOSIG RMK DISTANT CB TO S",
      "taf": "TAF LCLK 222330Z 2300/2400 30006KT 9999 FEW025"
    },
    {
      "icao": "LCPH",
      "alert": "OK",
      "vis_m": 9999,
      "fzfg": false,
      "metar_trigger": false,
      "taf_trigger": false,
      "metar": "METAR LCPH 231000Z 26008KT 240V320 9999 FEW025 FEW030TCU SCT035 18/11 Q1012 NOSIG",
      "taf": "TAF LCPH 222330Z 2300/2400 01007KT 9999 FEW020"
    },
    {
      "icao": "LEAL",
      "alert": "OK",
      "vis_m": 9999,
      "fzfg": false,
      "metar_trigger": false,
      "taf_trigger": false,
      "metar": "METAR LEAL 231000Z VRB02KT CAVOK 18/06 Q1026 NOSIG",
      "taf": "TAF LEAL 222300Z 2300/2324 VRB04KT CAVOK TX20/2312Z TN08/2306Z"
    },
    {
      "icao": "LEBB",
      "alert": "OK",
      "vis_m": 9999,
      "fzfg": false,
      "metar_trigger": false,
      "taf_trigger": false,
      "metar": "METAR LEBB 231000Z 11005KT 080V150 9999 FEW005 12/09 Q1026 NOSIG",
      "taf": "TAF LEBB 222300Z 2300/2324 10005KT CAVOK TX22/2314Z TN04/2307Z"
    },
    {
      "icao": "LEBL",
      "alert": "OK",
      "vis_m": 9999,
      "fzfg": false,
      "metar_trigger": false,
      "taf_trigger": false,
      "metar": "METAR LEBL 231000Z 30004KT 230V350 9999 FEW025 15/08 Q1025 NOSIG",
      "taf": "TAF LEBL 222300Z 2300/2324 VRB04KT CAVOK TX18/2312Z TN07/2306Z"
    },
    {
      "icao": "LECH",
      "alert": "OK",
      "vis_m": 9999,
      "fzfg": false,
      "metar_trigger": false,
      "taf_trigger": false,
      "metar": "METAR LECH 231000Z AUTO VRB02KT CAVOK 15/01 Q1026",
      "taf": ""
    },
    {
      "icao": "LEMD",
      "alert": "OK",
      "vis_m": 9999,
      "fzfg": false,
      "metar_trigger": false,
      "taf_trigger": false,
      "metar": "METAR LEMD 231000Z 32001KT CAVOK 09/02 Q1028 NOSIG",
      "taf": "TAF LEMD 222300Z 2300/2406 VRB04KT CAVOK TX21/2316Z TN02/2307Z"
    },
    {
      "icao": "LEMG",
      "alert": "OK",
      "vis_m": 9999,
      "fzfg": false,
      "metar_trigger": false,
      "taf_trigger": false,
      "metar": "METAR LEMG 231000Z 30003KT 280V340 CAVOK 13/05 Q1026 NOSIG",
      "taf": "TAF LEMG 222300Z 2300/2324 29006KT CAVOK TX19/2314Z TN06/2307Z"
    },
    {
      "icao": "LEVC",
      "alert": "OK",
      "vis_m": 9999,
      "fzfg": false,
      "metar_trigger": false,
      "taf_trigger": false,
      "metar": "METAR LEVC 231000Z 31003KT 270V020 CAVOK 17/03 Q1026 NOSIG",
      "taf": "TAF LEVC 222300Z 2300/2324 VRB04KT CAVOK TX24/2312Z TN07/2306Z"
    },
    {
      "icao": "LEXJ",
      "alert": "OK",
      "vis_m": 7000,
      "fzfg": false,
      "metar_trigger": false,
      "taf_trigger": false,
      "metar": "METAR LEXJ 231000Z VRB01KT 7000 SCT030 11/09 Q1026",
      "taf": "TAF LEXJ 230800Z 2309/2409 20009KT 9999 FEW020 TX19/2314Z TN06/2309Z"
    },
    {
      "icao": "LEZG",
      "alert": "OK",
      "vis_m": 9999,
      "fzfg": false,
      "metar_trigger": false,
      "taf_trigger": false,
      "metar": "METAR LEZG 231000Z 34005KT 300V020 CAVOK 14/04 Q1027 NOSIG",
      "taf": "TAF LEZG 222300Z 2300/2324 30009KT CAVOK TX20/2314Z TN05/2306Z"
    },
    {
      "icao": "LEZL",
      "alert": "OK",
      "vis_m": 9999,
      "fzfg": false,
      "metar_trigger": false,
      "taf_trigger": false,
      "metar": "METAR LEZL 231000Z 05005KT CAVOK 14/10 Q1026 NOSIG",
      "taf": "TAF LEZL 230800Z 2309/2409 VRB03KT CAVOK TX23/2315Z TN08/2407Z"
    },
    {
      "icao": "LFBD",
      "alert": "OK",
      "vis_m": 9999,
      "fzfg": false,
      "metar_trigger": false,
      "taf_trigger": false,
      "metar": "METAR LFBD 231000Z AUTO 19007KT 9999 FEW011 12/10 Q1027 NOSIG",
      "taf": "TAF LFBD 222300Z 2300/2406 VRB03KT 3000 BR BKN005 TX16/2315Z TN07/2405Z"
    },
    {
      "icao": "LFLL",
      "alert": "OK",
      "vis_m": 9999,
      "fzfg": false,
      "metar_trigger": false,
      "taf_trigger": false,
      "metar": "METAR LFLL 231000Z VRB03KT 9999 SCT026 BKN093 13/08 Q1026 NOSIG",
      "taf": "TAF LFLL 222300Z 2300/2406 VRB02KT CAVOK"
    },
    {
      "icao": "LFLS",
      "alert": "OK",
      "vis_m": 9999,
      "fzfg": false,
      "metar_trigger": false,
      "taf_trigger": false,
      "metar": "METAR LFLS 231000Z AUTO 36007KT CAVOK 12/06 Q1025 NOSIG",
      "taf": "TAF LFLS 230800Z 2309/2409 VRB02KT CAVOK"
    },
    {
      "icao": "LFMN",
      "alert": "OK",
      "vis_m": 9999,
      "fzfg": false,
      "metar_trigger": false,
      "taf_trigger": false,
      "metar": "METAR LFMN 231000Z VRB02KT 9999 FEW026 SCT260 15/08 Q1020 BECMG 16005KT",
      "taf": "TAF LFMN 230800Z 2309/2415 33010KT 9999 FEW020 BKN250"
    },
    {
      "icao": "LFOB",
      "alert": "OK",
      "vis_m": 9999,
      "fzfg": false,
      "metar_trigger": false,
      "taf_trigger": false,
      "metar": "METAR LFOB 231000Z AUTO 25010KT 200V290 9999 BKN015 OVC021 11/08 Q1020 TEMPO BKN008 BKN012",
      "taf": "TAF LFOB 222300Z 2300/2324 23012KT 9999 BKN016 OVC025"
    },
    {
      "icao": "LFPO",
      "alert": "OK",
      "vis_m": 9999,
      "fzfg": false,
      "metar_trigger": false,
      "taf_trigger": false,
      "metar": "METAR LFPO 231000Z COR 25010KT 9999 SCT016 SCT130 13/09 Q1022 NOSIG",
      "taf": "TAF LFPO 230500Z 2306/2412 24008KT 9999 FEW012 SCT030"
    },
    {
      "icao": "LFSB",
      "alert": "OK",
      "vis_m": 9999,
      "fzfg": false,
      "metar_trigger": false,
      "taf_trigger": false,
      "metar": "METAR LFSB 231000Z AUTO 27012KT 230V310 9999 BKN019 12/08 Q1023 NOSIG",
      "taf": "TAF LFSB 222300Z 2300/2324 25010KT 9999 OVC050"
    },
    {
      "icao": "LGAV",
      "alert": "OK",
      "vis_m": 9999,
      "fzfg": false,
      "metar_trigger": false,
      "taf_trigger": false,
      "metar": "METAR LGAV 230950Z 02004KT 330V070 9999 FEW025 SCT040 13/03 Q1021 NOSIG",
      "taf": "TAF LGAV 222300Z 2300/2324 33010KT 9999 FEW018 SCT025"
    },
    {
      "icao": "LGTS",
      "alert": "OK",
      "vis_m": 9999,
      "fzfg": false,
      "metar_trigger": false,
      "taf_trigger": false,
      "metar": "METAR LGTS 230950Z 27008KT CAVOK 11/02 Q1022 NOSIG",
      "taf": "TAF LGTS 222300Z 2300/2324 33010KT 9999 FEW030"
    },
    {
      "icao": "LHBP",
      "alert": "OK",
      "vis_m": 9999,
      "fzfg": false,
      "metar_trigger": false,
      "taf_trigger": false,
      "metar": "METAR LHBP 231000Z 29009KT 9999 BKN028 BKN034 12/07 Q1015 NOSIG",
      "taf": "TAF LHBP 222315Z 2300/2324 19005KT 9999 BKN040"
    },
    {
      "icao": "LHDC",
      "alert": "OK",
      "vis_m": 6000,
      "fzfg": false,
      "metar_trigger": false,
      "taf_trigger": false,
      "metar": "METAR LHDC 230945Z AUTO 21009KT 6000 -DZ OVC007 07/07 Q1014 BECMG BKN011",
      "taf": "TAF LHDC 222315Z 2300/2309 19012KT 9999 SCT035 OVC050"
    },
    {
      "icao": "LIBD",
      "alert": "OK",
      "vis_m": 9999,
      "fzfg": false,
      "metar_trigger": false,
      "taf_trigger": false,
      "metar": "METAR LIBD 230950Z 24006KT CAVOK 18/02 Q1019",
      "taf": "TAF LIBD 230500Z 2306/2406 VRB06KT CAVOK"
    },
    {
      "icao": "LIBG",
      "alert": "OK",
      "vis_m": 9999,
      "fzfg": false,
      "metar_trigger": false,
      "taf_trigger": false,
      "metar": "METAR LIBG 230950Z 18005KT 150V240 CAVOK 15/07 Q1021",
      "taf": "TAF LIBG 230800Z 2309/2318 VRB05KT CAVOK"
    },
    {
      "icao": "LIBP",
      "alert": "OK",
      "vis_m": 9999,
      "fzfg": false,
      "metar_trigger": false,
      "taf_trigger": false,
      "metar": "METAR LIBP 230950Z AUTO 03007KT 9999 NCD 16/08 Q1020",
      "taf": "TAF LIBP 230500Z 2306/2406 VRB04KT CAVOK"
    },
    {
      "icao": "LIBR",
      "alert": "OK",
      "vis_m": 9999,
      "fzfg": false,
      "metar_trigger": false,
      "taf_trigger": false,
      "metar": "METAR LIBR 230950Z 21008KT CAVOK 16/03 Q1021",
      "taf": "TAF LIBR 230500Z 2306/2406 VRB05KT CAVOK"
    },
    {
      "icao": "LICA",
      "alert": "OK",
      "vis_m": 9999,
      "fzfg": false,
      "metar_trigger": false,
      "taf_trigger": false,
      "metar": "METAR LICA 230950Z AUTO 25010KT 9999 FEW019/// SCT035/// 16/11 Q1024",
      "taf": "TAF LICA 230500Z 2306/2406 27012KT 9999 FEW020"
    },
    {
      "icao": "LICC",
      "alert": "OK",
      "vis_m": 9999,
      "fzfg": false,
      "metar_trigger": false,
      "taf_trigger": false,
      "metar": "METAR LICC 230950Z 26010KT CAVOK 18/14 Q1023",
      "taf": "TAF LICC 230500Z 2306/2406 25008KT CAVOK"
    },
    {
      "icao": "LICJ",
      "alert": "OK",
      "vis_m": 9999,
      "fzfg": false,
      "metar_trigger": false,
      "taf_trigger": false,
      "metar": "METAR LICJ 230950Z 21017KT CAVOK 17/08 Q1023",
      "taf": "TAF LICJ 230500Z 2306/2406 21014KT 9999 FEW030"
    },
    {
      "icao": "LIMC",
      "alert": "OK",
      "vis_m": 9999,
      "fzfg": false,
      "metar_trigger": false,
      "taf_trigger": false,
      "metar": "METAR LIMC 230950Z VRB02KT CAVOK 11/07 Q1020 NOSIG",
      "taf": "TAF LIMC 230500Z 2306/2412 VRB05KT 4000 BCFG NSC"
    },
    {
      "icao": "LIME",
      "alert": "OK",
      "vis_m": 6000,
      "fzfg": false,
      "metar_trigger": false,
      "taf_trigger": false,
      "metar": "METAR LIME 230950Z 13003KT 090V170 6000 NSC 10/07 Q1020 NOSIG",
      "taf": "TAF LIME 230500Z 2306/2406 VRB05KT CAVOK"
    },
    {
      "icao": "LIMF",
      "alert": "OK",
      "vis_m": 6000,
      "fzfg": false,
      "metar_trigger": false,
      "taf_trigger": false,
      "metar": "METAR LIMF 230950Z VRB01KT 6000 NSC 11/04 Q1020",
      "taf": "TAF LIMF 230500Z 2306/2406 VRB05KT 9999 FEW025"
    },
    {
      "icao": "LIMJ",
      "alert": "OK",
      "vis_m": 9999,
      "fzfg": false,
      "metar_trigger": false,
      "taf_trigger": false,
      "metar": "METAR LIMJ 230950Z 18001KT 9999 FEW026 15/10 Q1021",
      "taf": "TAF LIMJ 230500Z 2306/2406 03005KT 8000 BKN015"
    },
    {
      "icao": "LIPE",
      "alert": "OK",
      "vis_m": 9999,
      "fzfg": false,
      "metar_trigger": false,
      "taf_trigger": false,
      "metar": "METAR LIPE 230950Z 04003KT 010V170 CAVOK 12/07 Q1021",
      "taf": ""
    },
    {
      "icao": "LIPH",
      "alert": "OK",
      "vis_m": 900,
      "fzfg": false,
      "metar_trigger": false,
      "taf_trigger": false,
      "metar": "METAR LIPH 230950Z VRB02KT 0900 R07/1500U FG OVC002 07/07 Q1021",
      "taf": "TAF LIPH 222300Z 2300/2324 VRB03KT 2000 BR FEW025"
    },
    {
      "icao": "LIPQ",
      "alert": "OK",
      "vis_m": 9999,
      "fzfg": false,
      "metar_trigger": false,
      "taf_trigger": false,
      "metar": "METAR LIPQ 230950Z AUTO VRB02KT 9999 NCD 12/05 Q1021",
      "taf": "TAF LIPQ 222300Z 2300/2324 VRB03KT 8000 FEW035"
    },
    {
      "icao": "LIPR",
      "alert": "OK",
      "vis_m": 9999,
      "fzfg": false,
      "metar_trigger": false,
      "taf_trigger": false,
      "metar": "METAR LIPR 230950Z VRB02KT CAVOK 12/09 Q1021",
      "taf": "TAF LIPR 222300Z 2300/2324 VRB05KT 8000 NSC"
    },
    {
      "icao": "LIPX",
      "alert": "OK",
      "vis_m": 5000,
      "fzfg": false,
      "metar_trigger": false,
      "taf_trigger": false,
      "metar": "METAR LIPX 230950Z 13003KT 060V190 5000 BR FEW005 09/06 Q1021",
      "taf": "TAF LIPX 230500Z 2306/2406 VRB05KT 7000 SCT030"
    },
    {
      "icao": "LIPY",
      "alert": "OK",
      "vis_m": 9999,
      "fzfg": false,
      "metar_trigger": false,
      "taf_trigger": false,
      "metar": "METAR LIPY 230950Z AUTO 35006KT 9999 FEW200/// 11/09 Q1021",
      "taf": "TAF LIPY 222300Z 2300/2324 VRB04KT 8000 NSC"
    },
    {
      "icao": "LIPZ",
      "alert": "OK",
      "vis_m": 1000,
      "fzfg": false,
      "metar_trigger": false,
      "taf_trigger": false,
      "metar": "METAR LIPZ 230950Z VRB02KT 1000 R04R/1500U BR SCT005 BKN015 08/08 Q1021 BECMG 2000 BR",
      "taf": "TAF LIPZ 222300Z 2300/2406 VRB03KT 7000 NSC"
    },
    {
      "icao": "LIRF",
      "alert": "OK",
      "vis_m": 9999,
      "fzfg": false,
      "metar_trigger": false,
      "taf_trigger": false,
      "metar": "METAR LIRF 230950Z 10005KT 9999 BKN030 13/09 Q1022 NOSIG",
      "taf": "TAF LIRF 230500Z 2306/2412 10008KT 9999 SCT020"
    },
    {
      "icao": "LIRN",
      "alert": "OK",
      "vis_m": 9999,
      "fzfg": false,
      "metar_trigger": false,
      "taf_trigger": false,
      "metar": "METAR LIRN 230950Z 20006KT 140V240 9999 SCT030 14/10 Q1023 NOSIG",
      "taf": "TAF LIRN 222300Z 2300/2324 VRB05KT CAVOK"
    },
    {
      "icao": "LIRP",
      "alert": "OK",
      "vis_m": 9999,
      "fzfg": false,
      "metar_trigger": false,
      "taf_trigger": false,
      "metar": "METAR LIRP 230945Z 12004KT 9999 SCT025 BKN040 12/12 Q1022 NOSIG",
      "taf": "TAF LIRP 222300Z 2300/2324 VRB03KT 0600 FG SCT007"
    },
    {
      "icao": "LIRZ",
      "alert": "OK",
      "vis_m": 9999,
      "fzfg": false,
      "metar_trigger": false,
      "taf_trigger": false,
      "metar": "METAR LIRZ 230950Z AUTO VRB01KT 9999 BKN030/// 12/06 Q1022",
      "taf": "TAF LIRZ 222300Z 2300/2324 VRB05KT 9999 FEW030"
    },
    {
      "icao": "LJLJ",
      "alert": "OK",
      "vis_m": 9999,
      "fzfg": false,
      "metar_trigger": false,
      "taf_trigger": false,
      "metar": "METAR LJLJ 231000Z VRB02KT 9999 FEW070 10/03 Q1019 NOSIG",
      "taf": "TAF LJLJ 230500Z 2306/2406 VRB02KT 9999 FEW005"
    },
    {
      "icao": "LKMT",
      "alert": "OK",
      "vis_m": 9999,
      "fzfg": false,
      "metar_trigger": false,
      "taf_trigger": false,
      "metar": "METAR LKMT 231000Z 23013KT 9999 FEW009 09/08 Q1013 NOSIG",
      "taf": "TAF LKMT 222300Z 2300/2324 22012KT 8000 -RA SCT022 BKN040"
    },
    {
      "icao": "LKPR",
      "alert": "OK",
      "vis_m": 9999,
      "fzfg": false,
      "metar_trigger": false,
      "taf_trigger": false,
      "metar": "METAR LKPR 231000Z 25019KT 9999 SCT036 10/04 Q1014 NOSIG",
      "taf": "TAF LKPR 222300Z 2300/2406 23018KT 9999 SCT018 BKN040"
    },
    {
      "icao": "LLBG",
      "alert": "OK",
      "vis_m": 9999,
      "fzfg": false,
      "metar_trigger": false,
      "taf_trigger": false,
      "metar": "METAR LLBG 230950Z 26015KT 9999 SCT025 BKN050 17/11 Q1013 TEMPO 8000 RA BKN030",
      "taf": "TAF LLBG 222304Z 2300/2324 VRB04KT 9999 SCT030"
    },
    {
      "icao": "LMML",
      "alert": "OK",
      "vis_m": 9999,
      "fzfg": false,
      "metar_trigger": false,
      "taf_trigger": false,
      "metar": "METAR LMML 230945Z 25010KT 9999 FEW020 17/12 Q1026 NOSIG",
      "taf": "TAF LMML 222300Z 2300/2324 30010KT 9999 FEW020"
    },
    {
      "icao": "LOWW",
      "alert": "OK",
      "vis_m": 9999,
      "fzfg": false,
      "metar_trigger": false,
      "taf_trigger": false,
      "metar": "METAR LOWW 230950Z 28018KT 9999 FEW028 13/07 Q1016 NOSIG",
      "taf": "TAF LOWW 222315Z 2300/2406 27010KT 9999 FEW040 BKN050 TX13/2313Z TN08/2405Z"
    },
    {
      "icao": "LPFR",
      "alert": "OK",
      "vis_m": 9999,
      "fzfg": false,
      "metar_trigger": false,
      "taf_trigger": false,
      "metar": "METAR LPFR 231000Z 10008KT CAVOK 16/08 Q1025",
      "taf": "TAF LPFR 222300Z 2300/2324 03005KT CAVOK"
    },
    {
      "icao": "LPMA",
      "alert": "OK",
      "vis_m": 9999,
      "fzfg": false,
      "metar_trigger": false,
      "taf_trigger": false,
      "metar": "METAR LPMA 231000Z 04006KT 9999 FEW015 17/13 Q1023",
      "taf": "TAF LPMA 222300Z 2300/2324 02007KT 9999 FEW015"
    },
    {
      "icao": "LPPR",
      "alert": "OK",
      "vis_m": 9999,
      "fzfg": false,
      "metar_trigger": false,
      "taf_trigger": false,
      "metar": "METAR LPPR 231000Z 12008KT 090V150 CAVOK 14/07 Q1024",
      "taf": "TAF LPPR 222300Z 2300/2324 VRB02KT CAVOK"
    },
    {
      "icao": "LPPS",
      "alert": "OK",
      "vis_m": 9999,
      "fzfg": false,
      "metar_trigger": false,
      "taf_trigger": false,
      "metar": "METAR LPPS 231000Z VRB03KT 9999 FEW014 17/13 Q1023",
      "taf": "TAF LPPS 222300Z 2300/2406 VRB05KT 9999 FEW012"
    },
    {
      "icao": "LPPT",
      "alert": "OK",
      "vis_m": 9999,
      "fzfg": false,
      "metar_trigger": false,
      "taf_trigger": false,
      "metar": "METAR LPPT 231000Z 06006KT CAVOK 13/10 Q1025",
      "taf": "TAF LPPT 222300Z 2300/2406 33005KT CAVOK"
    },
    {
      "icao": "LQBK",
      "alert": "OK",
      "vis_m": 9999,
      "fzfg": false,
      "metar_trigger": false,
      "taf_trigger": false,
      "metar": "METAR LQBK 231000Z VRB01KT CAVOK 12/04 Q1018 NOSIG",
      "taf": "TAF LQBK 230500Z 2306/2406 32005KT CAVOK TX15/2313Z TN02/2306Z"
    },
    {
      "icao": "LQSA",
      "alert": "OK",
      "vis_m": 9999,
      "fzfg": false,
      "metar_trigger": false,
      "taf_trigger": false,
      "metar": "METAR LQSA 231000Z VRB02KT CAVOK 07/03 Q1020 NOSIG",
      "taf": "TAF LQSA 230500Z 2306/2406 VRB02KT CAVOK TX16/2314Z TN00/2306Z"
    },
    {
      "icao": "LQTZ",
      "alert": "OK",
      "vis_m": 9999,
      "fzfg": false,
      "metar_trigger": false,
      "taf_trigger": false,
      "metar": "METAR LQTZ 231000Z VRB03KT CAVOK 10/04 Q1018",
      "taf": "TAF LQTZ 230500Z 2306/2406 30005KT CAVOK TX15/2313Z TN01/2306Z"
    },
    {
      "icao": "LRBC",
      "alert": "OK",
      "vis_m": 9999,
      "fzfg": false,
      "metar_trigger": false,
      "taf_trigger": false,
      "metar": "METAR LRBC 231000Z 13009KT 9999 FEW050 07/01 Q1012",
      "taf": "TAF LRBC 222300Z 2300/2309 20007KT CAVOK"
    },
    {
      "icao": "LRBS",
      "alert": "OK",
      "vis_m": 9999,
      "fzfg": false,
      "metar_trigger": false,
      "taf_trigger": false,
      "metar": "METAR LRBS 231000Z 26011KT CAVOK 01/M00 Q1017 NOSIG",
      "taf": ""
    },
    {
      "icao": "LRBV",
      "alert": "OK",
      "vis_m": 6000,
      "fzfg": false,
      "metar_trigger": false,
      "taf_trigger": false,
      "metar": "METAR LRBV 231000Z VRB03KT 6000 FEW010 BKN026 00/M02 Q1016",
      "taf": "TAF LRBV 230800Z 2309/2318 VRB04KT 9999 BKN025"
    },
    {
      "icao": "LRCL",
      "alert": "OK",
      "vis_m": 9999,
      "fzfg": false,
      "metar_trigger": false,
      "taf_trigger": false,
      "metar": "METAR LRCL 231000Z 09006KT 9999 -RA FEW007 OVC032 05/03 Q1014",
      "taf": "TAF LRCL 222300Z 2300/2309 VRB04KT 9999 OVC035"
    },
    {
      "icao": "LRCV",
      "alert": "OK",
      "vis_m": 4000,
      "fzfg": true,
      "metar_trigger": false,
      "taf_trigger": false,
      "metar": "METAR LRCV 231000Z 30005KT 4000 -RA BR BKN044 02/02 Q1018",
      "taf": "TAF LRCV 222300Z 2300/2309 VRB04KT 0250 FZFG VV001"
    },
    {
      "icao": "LRIA",
      "alert": "OK",
      "vis_m": 9999,
      "fzfg": false,
      "metar_trigger": false,
      "taf_trigger": false,
      "metar": "METAR LRIA 231000Z 10007KT 9999 BKN045 03/00 Q1012",
      "taf": "TAF LRIA 222300Z 2300/2309 VRB04KT CAVOK"
    },
    {
      "icao": "LROP",
      "alert": "OK",
      "vis_m": 9999,
      "fzfg": false,
      "metar_trigger": false,
      "taf_trigger": false,
      "metar": "METAR LROP 231000Z 23009KT CAVOK 02/M01 Q1017 NOSIG",
      "taf": ""
    },
    {
      "icao": "LRSB",
      "alert": "OK",
      "vis_m": 9999,
      "fzfg": false,
      "metar_trigger": false,
      "taf_trigger": false,
      "metar": "METAR LRSB 231000Z 12003KT 080V140 9999 -RA FEW027 BKN049 OVC058 05/04 Q1015",
      "taf": ""
    },
    {
      "icao": "LRSM",
      "alert": "OK",
      "vis_m": 9999,
      "fzfg": false,
      "metar_trigger": false,
      "taf_trigger": false,
      "metar": "METAR LRSM 231000Z 13004KT 9999 -RA BKN008 05/04 Q1014 RERA",
      "taf": "TAF LRSM 230800Z 2309/2318 12006KT 5000 -RA BR BKN010 BKN020"
    },
    {
      "icao": "LRSV",
      "alert": "OK",
      "vis_m": 9999,
      "fzfg": false,
      "metar_trigger": false,
      "taf_trigger": false,
      "metar": "METAR LRSV 231000Z 20008KT CAVOK 07/01 Q1010",
      "taf": "TAF LRSV 222300Z 2300/2309 21009KT CAVOK"
    },
    {
      "icao": "LRTM",
      "alert": "OK",
      "vis_m": 9999,
      "fzfg": false,
      "metar_trigger": false,
      "taf_trigger": false,
      "metar": "METAR LRTM 231000Z COR 07007KT 9999 FEW022 SCT038 BKN046 06/04 Q1015",
      "taf": "TAF LRTM 230800Z 2309/2318 VRB04KT 9999 BKN040"
    },
    {
      "icao": "LRTR",
      "alert": "OK",
      "vis_m": 9999,
      "fzfg": false,
      "metar_trigger": false,
      "taf_trigger": false,
      "metar": "METAR LRTR 231000Z 19008KT 9999 SCT034 SCT048 08/06 Q1017",
      "taf": "TAF LRTR 222300Z 2300/2324 14006KT 9999 BKN035"
    },
    {
      "icao": "LTAC",
      "alert": "OK",
      "vis_m": 9999,
      "fzfg": false,
      "metar_trigger": false,
      "taf_trigger": false,
      "metar": "METAR LTAC 230950Z VRB02KT 9999 BKN026 06/M01 Q1015 NOSIG RMK RWY21C 15004KT 080V200 RWY03L 20004KT 120V270 RWY21R 15004KT 100V250 RWY03R 20005KT 160V240 RWY21L 18003KT 120V220",
      "taf": "TAF LTAC 222240Z 2300/2324 VRB02KT 9999 SCT040 BKN100"
    },
    {
      "icao": "LTFM",
      "alert": "OK",
      "vis_m": 9999,
      "fzfg": false,
      "metar_trigger": false,
      "taf_trigger": false,
      "metar": "METAR LTFM 230950Z 21008KT 170V250 9999 SCT025 08/01 Q1020 NOSIG RMK RWY17L 24007KT RWY34L 21007KT 140V260 RWY16R 22008KT 180V250 RWY36 22008KT RWY18 24007KT 210V270",
      "taf": "TAF LTFM 222240Z 2300/2406 01012KT 9999 BKN014 BKN028"
    },
    {
      "icao": "LUKK",
      "alert": "OK",
      "vis_m": 9999,
      "fzfg": false,
      "metar_trigger": false,
      "taf_trigger": false,
      "metar": "METAR LUKK 231000Z 20004KT 170V240 CAVOK 05/M01 Q1013 NOSIG",
      "taf": "TAF LUKK 230524Z 2306/2406 20009KT 9999 BKN040"
    },
    {
      "icao": "LWOH",
      "alert": "OK",
      "vis_m": 9999,
      "fzfg": false,
      "metar_trigger": false,
      "taf_trigger": false,
      "metar": "METAR LWOH 230950Z 17004KT 120V210 9999 FEW050 06/01 Q1021",
      "taf": "TAF LWOH 222340Z 2300/2324 VRB03KT CAVOK"
    },
    {
      "icao": "LWSK",
      "alert": "OK",
      "vis_m": 9999,
      "fzfg": false,
      "metar_trigger": false,
      "taf_trigger": false,
      "metar": "METAR LWSK 230920Z VRB02KT CAVOK 06/02 Q1022 NOSIG",
      "taf": "TAF LWSK 222340Z 2300/2324 VRB02KT CAVOK"
    },
    {
      "icao": "LYBE",
      "alert": "OK",
      "vis_m": 9999,
      "fzfg": false,
      "metar_trigger": false,
      "taf_trigger": false,
      "metar": "METAR LYBE 231000Z 20005KT 150V230 CAVOK 12/03 Q1018 NOSIG",
      "taf": "TAF LYBE 222300Z 2300/2324 18005KT 8000 NSC TX14/2313Z TN03/2306Z"
    },
    {
      "icao": "LYNI",
      "alert": "OK",
      "vis_m": 9999,
      "fzfg": false,
      "metar_trigger": false,
      "taf_trigger": false,
      "metar": "METAR LYNI 231000Z 23003KT 160V280 CAVOK 07/03 Q1020 NOSIG",
      "taf": "TAF LYNI 222300Z 2300/2324 10004KT 3000 BR NSC TX13/2313Z TNM01/2305Z"
    },
    {
      "icao": "LYPG",
      "alert": "OK",
      "vis_m": 9999,
      "fzfg": false,
      "metar_trigger": false,
      "taf_trigger": false,
      "metar": "METAR LYPG 231000Z VRB02KT CAVOK 13/01 Q1021 NOSIG",
      "taf": "TAF LYPG 222300Z 2300/2324 36005KT CAVOK TX16/2313Z TN04/2305Z"
    },
    {
      "icao": "LZIB",
      "alert": "OK",
      "vis_m": 9999,
      "fzfg": false,
      "metar_trigger": false,
      "taf_trigger": false,
      "metar": "METAR LZIB 231000Z 27013KT 9999 -SHRA FEW023 BKN042 13/08 Q1015 NOSIG",
      "taf": ""
    },
    {
      "icao": "LZKZ",
      "alert": "OK",
      "vis_m": 4200,
      "fzfg": false,
      "metar_trigger": false,
      "taf_trigger": false,
      "metar": "METAR LZKZ 231000Z 03004KT 360V060 4200 BR OVC003 05/04 Q1013 NOSIG",
      "taf": ""
    },
    {
      "icao": "LZTT",
      "alert": "OK",
      "vis_m": 9999,
      "fzfg": false,
      "metar_trigger": false,
      "taf_trigger": false,
      "metar": "METAR LZTT 231000Z 28017KT 9999 SCT013 SCT053 07/04 Q1011 NOSIG",
      "taf": "TAF LZTT 230515Z 2306/2406 27008KT 9999 BKN020"
    },
    {
      "icao": "OEJN",
      "alert": "OK",
      "vis_m": 9999,
      "fzfg": false,
      "metar_trigger": false,
      "taf_trigger": false,
      "metar": "METAR OEJN 231000Z 30011KT 9999 FEW040 29/18 Q1009 NOSIG",
      "taf": "TAF OEJN 222300Z 2300/2406 VRB03KT CAVOK"
    },
    {
      "icao": "OEMA",
      "alert": "OK",
      "vis_m": 9999,
      "fzfg": false,
      "metar_trigger": false,
      "taf_trigger": false,
      "metar": "METAR OEMA 231000Z 19007KT CAVOK 29/07 Q1012 NOSIG",
      "taf": "TAF OEMA 222300Z 2300/2406 VRB03KT CAVOK"
    },
    {
      "icao": "OJAI",
      "alert": "OK",
      "vis_m": 5000,
      "fzfg": false,
      "metar_trigger": false,
      "taf_trigger": false,
      "metar": "METAR OJAI 231000Z 22008KT 5000 HZ FEW035 15/03 Q1014 NOSIG",
      "taf": "TAF OJAI 222300Z 2300/2406 29012KT 4000 BR SCT030"
    },
    {
      "icao": "OMAA",
      "alert": "OK",
      "vis_m": 9999,
      "fzfg": false,
      "metar_trigger": false,
      "taf_trigger": false,
      "metar": "METAR OMAA 231000Z 30012KT 270V330 CAVOK 29/07 Q1009 NOSIG",
      "taf": "TAF OMAA 222300Z 2300/2406 VRB02KT 0200 FG VV///"
    },
    {
      "icao": "OMDB",
      "alert": "OK",
      "vis_m": 9999,
      "fzfg": false,
      "metar_trigger": false,
      "taf_trigger": false,
      "metar": "METAR OMDB 231000Z 31010KT 270V350 CAVOK 30/09 Q1009 NOSIG",
      "taf": ""
    },
    {
      "icao": "UAAA",
      "alert": "OK",
      "vis_m": 9999,
      "fzfg": false,
      "metar_trigger": false,
      "taf_trigger": false,
      "metar": "METAR UAAA 231000Z 07003MPS 9999 OVC026 04/M00 Q1019 NOSIG",
      "taf": "TAF UAAA 222301Z 2300/2324 23003MPS 3100 BR FU SCT030CB BKN100 TX09/2309Z TNM00/2301Z"
    },
    {
      "icao": "UBBB",
      "alert": "OK",
      "vis_m": 9999,
      "fzfg": false,
      "metar_trigger": false,
      "taf_trigger": false,
      "metar": "METAR UBBB 231000Z 31014KT 9999 BKN013 OVC045 07/04 Q1015 NOSIG",
      "taf": "TAF UBBB 230459Z 2306/2406 32016KT 9999 SCT015 BKN030 TX08/2310Z TN05/2401Z"
    },
    {
      "icao": "UDSG",
      "alert": "OK",
      "vis_m": 9999,
      "fzfg": false,
      "metar_trigger": false,
      "taf_trigger": false,
      "metar": "METAR UDSG 231000Z 35004KT 310V040 9999 FEW049 07/M02 Q1013 NOSIG",
      "taf": "TAF UDSG 222300Z 2300/2324 VRB06KT 5000 BR SCT030"
    },
    {
      "icao": "UDYZ",
      "alert": "OK",
      "vis_m": 9999,
      "fzfg": false,
      "metar_trigger": false,
      "taf_trigger": false,
      "metar": "METAR UDYZ 231000Z VRB01KT 9999 SCT043CB 13/00 Q1011 NOSIG",
      "taf": "TAF UDYZ 222300Z 2300/2324 VRB06KT 6000 FEW040"
    },
    {
      "icao": "UGKO",
      "alert": "OK",
      "vis_m": 9999,
      "fzfg": false,
      "metar_trigger": false,
      "taf_trigger": false,
      "metar": "METAR UGKO 231000Z 26007KT 230V290 9999 SCT009 BKN010 OVC030 08/07 Q1018 NOSIG",
      "taf": "TAF UGKO 222300Z 2300/2324 26007KT 9999 OVC050 TX10/2311Z TN07/2303Z"
    }
  ]
}