{
  "ts_utc": "2026-01-18T02:33:50Z",
  "threshold_m": 150,
  "source": "stations_override.txt (ICAO list) + aviationweather.gov (METAR/TAF raw)",
  "station_count": 159,
  "stations": [
    {
      "icao": "BIKF",
      "alert": "OK",
      "vis_m": 9999,
      "fzfg": false,
      "metar_trigger": false,
      "taf_trigger": false,
      "metar": "METAR BIKF 180200Z 13037G49KT 9999 BKN022 BKN032 OVC130 07/04 Q0996",
      "taf": "TAF BIKF 180155Z 1803/1903 13038G54KT 5000 RADZ BKN012 TX07/1803Z TN02/1821Z"
    },
    {
      "icao": "BKPR",
      "alert": "OK",
      "vis_m": 9999,
      "fzfg": false,
      "metar_trigger": false,
      "taf_trigger": false,
      "metar": "METAR BKPR 180230Z 35013KT 9999 SCT012 BKN030 00/M02 Q1027 NOSIG",
      "taf": "TAF BKPR 172330Z 1800/1824 35008KT 9999 SCT012 BKN030"
    },
    {
      "icao": "EBCI",
      "alert": "OK",
      "vis_m": 9999,
      "fzfg": false,
      "metar_trigger": false,
      "taf_trigger": false,
      "metar": "METAR EBCI 180220Z 12003KT CAVOK 07/03 Q1019 NOSIG",
      "taf": "TAF EBCI 172310Z 1800/1906 10004KT CAVOK"
    },
    {
      "icao": "EDDB",
      "alert": "OK",
      "vis_m": 5000,
      "fzfg": false,
      "metar_trigger": false,
      "taf_trigger": false,
      "metar": "METAR EDDB 180220Z AUTO 09007KT 5000 BR SCT005 01/01 Q1027 TEMPO BKN005",
      "taf": "TAF EDDB 172300Z 1800/1824 10009KT 5000 BR BKN005"
    },
    {
      "icao": "EDDH",
      "alert": "OK",
      "vis_m": 9999,
      "fzfg": false,
      "metar_trigger": false,
      "taf_trigger": false,
      "metar": "METAR EDDH 180220Z AUTO 11008KT 070V130 9999 SCT012 OVC019 04/02 Q1025 TEMPO BKN011",
      "taf": "TAF EDDH 172300Z 1800/1906 11009KT 9999 OVC012"
    },
    {
      "icao": "EDDK",
      "alert": "OK",
      "vis_m": 9999,
      "fzfg": false,
      "metar_trigger": false,
      "taf_trigger": false,
      "metar": "METAR EDDK 180220Z AUTO 14005KT CAVOK 00/M01 Q1022 NOSIG",
      "taf": "TAF EDDK 172300Z 1800/1906 11007KT CAVOK"
    },
    {
      "icao": "EDDN",
      "alert": "OK",
      "vis_m": 9999,
      "fzfg": false,
      "metar_trigger": false,
      "taf_trigger": false,
      "metar": "METAR EDDN 180220Z AUTO 09004KT 9999 OVC008 01/M00 Q1022",
      "taf": "TAF EDDN 172300Z 1800/1824 10007KT 9999 OVC009"
    },
    {
      "icao": "EDDS",
      "alert": "OK",
      "vis_m": 9999,
      "fzfg": false,
      "metar_trigger": false,
      "taf_trigger": false,
      "metar": "METAR EDDS 180220Z AUTO 07004KT 9999 BKN007 M03/M04 Q1019",
      "taf": "TAF EDDS 172300Z 1800/1824 VRB03KT CAVOK"
    },
    {
      "icao": "EDFH",
      "alert": "OK",
      "vis_m": 400,
      "fzfg": true,
      "metar_trigger": false,
      "taf_trigger": false,
      "metar": "METAR EDFH 180220Z 13017KT 0400 R21/0400N FZFG VV/// M01/M02 Q1019",
      "taf": "TAF EDFH 172300Z 1800/1824 14013KT 6000 BKN005"
    },
    {
      "icao": "EDJA",
      "alert": "OK",
      "vis_m": 1400,
      "fzfg": true,
      "metar_trigger": false,
      "taf_trigger": false,
      "metar": "METAR EDJA 180220Z AUTO 05006KT 1400 R06/1800N // VV/// M02/M03 Q1019",
      "taf": "TAF EDJA 180200Z 1803/1812 06005KT 0700 FZFG VV000"
    },
    {
      "icao": "EDLW",
      "alert": "OK",
      "vis_m": 9999,
      "fzfg": false,
      "metar_trigger": false,
      "taf_trigger": false,
      "metar": "METAR EDLW 180220Z AUTO 15006KT 9999 // NCD 03/02 Q1020",
      "taf": "TAF EDLW 171700Z 1718/1818 09004KT CAVOK"
    },
    {
      "icao": "EDNY",
      "alert": "OK",
      "vis_m": 9999,
      "fzfg": false,
      "metar_trigger": false,
      "taf_trigger": false,
      "metar": "METAR EDNY 180220Z AUTO 02008KT 9999 // OVC008/// M01/M02 Q1019",
      "taf": "TAF EDNY 180200Z 1803/1812 03007KT 9999 OVC008"
    },
    {
      "icao": "EDSB",
      "alert": "OK",
      "vis_m": 9000,
      "fzfg": false,
      "metar_trigger": false,
      "taf_trigger": false,
      "metar": "METAR EDSB 180220Z AUTO 03008KT 9000 // BKN012/// 00/M01 Q1020",
      "taf": ""
    },
    {
      "icao": "EETN",
      "alert": "OK",
      "vis_m": 3200,
      "fzfg": false,
      "metar_trigger": false,
      "taf_trigger": false,
      "metar": "METAR EETN 180220Z 21005KT 3200 -FZDZ BR OVC003 M03/M03 Q1037",
      "taf": "TAF EETN 172330Z 1800/1824 19010KT 8000 BKN005 OVC010"
    },
    {
      "icao": "EFTU",
      "alert": "OK",
      "vis_m": 700,
      "fzfg": false,
      "metar_trigger": false,
      "taf_trigger": false,
      "metar": "METAR EFTU 180220Z AUTO 22004KT 0700 R26/0800N -DZ VV002 02/02 Q1034",
      "taf": "TAF EFTU 172335Z 1800/1824 22005KT 1500 -DZ BR OVC001"
    },
    {
      "icao": "EGBB",
      "alert": "OK",
      "vis_m": 150,
      "fzfg": false,
      "metar_trigger": false,
      "taf_trigger": false,
      "metar": "METAR EGBB 180220Z 11004KT 0150 R15/0800N FG OVC001 06/06 Q1019",
      "taf": "TAF EGBB 172300Z 1800/1824 13005KT 4000 BR BKN020"
    },
    {
      "icao": "EGGP",
      "alert": "OK",
      "vis_m": 4600,
      "fzfg": false,
      "metar_trigger": false,
      "taf_trigger": false,
      "metar": "METAR EGGP 180220Z AUTO 07005KT 4600 HZ FEW016/// 03/02 Q1019",
      "taf": "TAF EGGP 172257Z 1800/1824 07004KT 9999 SCT045"
    },
    {
      "icao": "EGGW",
      "alert": "OK",
      "vis_m": 450,
      "fzfg": false,
      "metar_trigger": false,
      "taf_trigger": false,
      "metar": "METAR EGGW 180220Z AUTO 05004KT 010V080 0450 R25/1300U FG BKN002 OVC010 06/06 Q1019",
      "taf": "TAF EGGW 172258Z 1800/1824 10006KT 2000 BR BKN002"
    },
    {
      "icao": "EGKK",
      "alert": "OK",
      "vis_m": 6000,
      "fzfg": false,
      "metar_trigger": false,
      "taf_trigger": false,
      "metar": "METAR EGKK 180220Z AUTO 03004KT 340V070 6000 OVC004/// 07/07 Q1018",
      "taf": "TAF EGKK 172300Z 1800/1906 08006KT 9999 BKN006"
    },
    {
      "icao": "EGNM",
      "alert": "OK",
      "vis_m": null,
      "fzfg": false,
      "metar_trigger": false,
      "taf_trigger": false,
      "metar": "",
      "taf": "TAF EGNM 172257Z 1800/1824 13003KT 0300 FG VV///"
    },
    {
      "icao": "EGPD",
      "alert": "OK",
      "vis_m": 4600,
      "fzfg": false,
      "metar_trigger": false,
      "taf_trigger": false,
      "metar": "METAR EGPD 180220Z AUTO 17005KT 4600 BR FEW009 SCT014 BKN044 04/04 Q1021 TEMPO 2000",
      "taf": "TAF EGPD 172258Z 1800/1824 16004KT 9999 SCT006 BKN015"
    },
    {
      "icao": "EGPF",
      "alert": "OK",
      "vis_m": 9999,
      "fzfg": false,
      "metar_trigger": false,
      "taf_trigger": false,
      "metar": "METAR EGPF 180220Z AUTO 08005KT 9999 BKN046 05/04 Q1020",
      "taf": "TAF EGPF 172253Z 1800/1824 04003KT 9999 SCT040"
    },
    {
      "icao": "EHBK",
      "alert": "OK",
      "vis_m": 9999,
      "fzfg": false,
      "metar_trigger": false,
      "taf_trigger": false,
      "metar": "METAR EHBK 180225Z AUTO 10008KT 9999 NSC 05/03 Q1019",
      "taf": "TAF EHBK 172319Z 1800/1906 12006KT CAVOK"
    },
    {
      "icao": "EHEH",
      "alert": "OK",
      "vis_m": 9999,
      "fzfg": false,
      "metar_trigger": false,
      "taf_trigger": false,
      "metar": "METAR EHEH 180225Z AUTO VRB01KT 9999 OVC340 03/02 Q1020 BLU",
      "taf": "TAF EHEH 172313Z 1800/1906 09004KT CAVOK"
    },
    {
      "icao": "EKBI",
      "alert": "OK",
      "vis_m": 2000,
      "fzfg": false,
      "metar_trigger": false,
      "taf_trigger": false,
      "metar": "METAR EKBI 180220Z AUTO 09007KT 2000 BR OVC002/// 02/02 Q1027",
      "taf": "TAF EKBI 180227Z 1803/1903 11010KT 4000 BR BKN003"
    },
    {
      "icao": "EKCH",
      "alert": "OK",
      "vis_m": 4000,
      "fzfg": false,
      "metar_trigger": false,
      "taf_trigger": false,
      "metar": "METAR EKCH 180220Z 13010KT 4000 BR OVC003 03/02 Q1030 TEMPO 5000",
      "taf": "TAF EKCH 180227Z 1803/1903 13010KT 5000 BKN003"
    },
    {
      "icao": "ENAL",
      "alert": "OK",
      "vis_m": 9999,
      "fzfg": false,
      "metar_trigger": false,
      "taf_trigger": false,
      "metar": "METAR ENAL 180220Z AUTO 15008KT 9999 NCD 03/M03 Q1027",
      "taf": "TAF ENAL 172300Z 1800/1809 14008KT CAVOK"
    },
    {
      "icao": "ENBR",
      "alert": "OK",
      "vis_m": 9999,
      "fzfg": false,
      "metar_trigger": false,
      "taf_trigger": false,
      "metar": "METAR ENBR 180220Z VRB02KT 9999 -RA FEW015 BKN030 02/02 Q1027 RMK WIND 1200FT 11011KT",
      "taf": "TAF ENBR 172300Z 1800/1824 VRB05KT 9999 -RA FEW012 BKN025"
    },
    {
      "icao": "ENGM",
      "alert": "OK",
      "vis_m": 2800,
      "fzfg": false,
      "metar_trigger": false,
      "taf_trigger": false,
      "metar": "METAR ENGM 180220Z 03004KT 2800 BR OVC002 00/M00 Q1032",
      "taf": "TAF ENGM 172300Z 1800/1824 04005KT 9999 BKN005"
    },
    {
      "icao": "ENHD",
      "alert": "OK",
      "vis_m": 9999,
      "fzfg": false,
      "metar_trigger": false,
      "taf_trigger": false,
      "metar": "METAR ENHD 180220Z AUTO 11004KT 9999 -RA OVC034/// 05/04 Q1026",
      "taf": ""
    },
    {
      "icao": "ENTC",
      "alert": "OK",
      "vis_m": 9999,
      "fzfg": false,
      "metar_trigger": false,
      "taf_trigger": false,
      "metar": "METAR ENTC 180220Z AUTO 21017KT 9999 -RA SCT015/// BKN018/// BKN026/// 03/01 Q1023 RMK WIND 2600FT 20018KT",
      "taf": ""
    },
    {
      "icao": "ENTO",
      "alert": "OK",
      "vis_m": 8000,
      "fzfg": false,
      "metar_trigger": false,
      "taf_trigger": false,
      "metar": "METAR ENTO 180220Z AUTO 01006KT 8000 BKN002/// OVC003/// 00/00 Q1031",
      "taf": ""
    },
    {
      "icao": "ENVA",
      "alert": "OK",
      "vis_m": 9999,
      "fzfg": false,
      "metar_trigger": false,
      "taf_trigger": false,
      "metar": "METAR ENVA 180220Z AUTO 11006KT 9999 NCD M02/M03 Q1029 RMK WIND 670FT 09008KT",
      "taf": "TAF ENVA 172300Z 1800/1824 12008KT 9999 FEW040"
    },
    {
      "icao": "ENZV",
      "alert": "OK",
      "vis_m": 9999,
      "fzfg": false,
      "metar_trigger": false,
      "taf_trigger": false,
      "metar": "METAR ENZV 180220Z 25002KT 9999 NSC 04/04 Q1026",
      "taf": "TAF ENZV 172300Z 1800/1824 VRB05KT 9999 FEW020 BKN040"
    },
    {
      "icao": "EPGD",
      "alert": "OK",
      "vis_m": 9000,
      "fzfg": false,
      "metar_trigger": false,
      "taf_trigger": false,
      "metar": "METAR EPGD 180230Z 14004KT 9000 NSC M10/M11 Q1034",
      "taf": "TAF EPGD 172330Z 1800/1824 16005KT CAVOK"
    },
    {
      "icao": "EPKK",
      "alert": "OK",
      "vis_m": 9999,
      "fzfg": false,
      "metar_trigger": false,
      "taf_trigger": false,
      "metar": "METAR EPKK 180230Z 06006KT CAVOK M09/M13 Q1032",
      "taf": "TAF EPKK 180230Z 1803/1903 06010KT CAVOK"
    },
    {
      "icao": "EPKT",
      "alert": "OK",
      "vis_m": 9000,
      "fzfg": false,
      "metar_trigger": false,
      "taf_trigger": false,
      "metar": "METAR EPKT 180230Z 08003KT 9000 NSC M07/M09 Q1031",
      "taf": "TAF EPKT 172330Z 1800/1824 10010KT CAVOK"
    },
    {
      "icao": "EPLB",
      "alert": "OK",
      "vis_m": 6000,
      "fzfg": false,
      "metar_trigger": false,
      "taf_trigger": false,
      "metar": "METAR EPLB 180230Z 10005KT 6000 NSC M18/M19 Q1037",
      "taf": "TAF EPLB 172330Z 1800/1824 10008KT CAVOK"
    },
    {
      "icao": "EPMO",
      "alert": "OK",
      "vis_m": 8000,
      "fzfg": false,
      "metar_trigger": false,
      "taf_trigger": false,
      "metar": "METAR EPMO 180230Z 08009KT 8000 NSC M13/M14 Q1036",
      "taf": "TAF EPMO 172330Z 1800/1824 10008KT CAVOK"
    },
    {
      "icao": "EPPO",
      "alert": "OK",
      "vis_m": 9999,
      "fzfg": false,
      "metar_trigger": false,
      "taf_trigger": false,
      "metar": "METAR EPPO 180230Z 08008KT CAVOK M03/M05 Q1031",
      "taf": "TAF EPPO 172330Z 1800/1824 12010KT 8000 NSC"
    },
    {
      "icao": "EPRA",
      "alert": "OK",
      "vis_m": 9999,
      "fzfg": false,
      "metar_trigger": false,
      "taf_trigger": false,
      "metar": "METAR EPRA 180230Z 11008KT CAVOK M13/M15 Q1035",
      "taf": "TAF EPRA 180230Z 1803/1812 11008KT CAVOK"
    },
    {
      "icao": "EPRZ",
      "alert": "OK",
      "vis_m": 9999,
      "fzfg": false,
      "metar_trigger": false,
      "taf_trigger": false,
      "metar": "METAR EPRZ 180230Z 09012KT CAVOK M13/M16 Q1035",
      "taf": "TAF EPRZ 172330Z 1800/1824 09012KT CAVOK"
    },
    {
      "icao": "EPSC",
      "alert": "OK",
      "vis_m": 3700,
      "fzfg": false,
      "metar_trigger": false,
      "taf_trigger": false,
      "metar": "METAR EPSC 180230Z 10006KT 3700 BR NSC M01/M02 Q1030",
      "taf": "TAF EPSC 172330Z 1800/1824 11010KT 2000 BR OVC002"
    },
    {
      "icao": "EPSY",
      "alert": "OK",
      "vis_m": 9999,
      "fzfg": false,
      "metar_trigger": false,
      "taf_trigger": false,
      "metar": "METAR EPSY 180230Z 11005KT 060V140 CAVOK M13/M14 Q1037",
      "taf": "TAF EPSY 180230Z 1803/1812 12006KT CAVOK"
    },
    {
      "icao": "EPWA",
      "alert": "OK",
      "vis_m": 9999,
      "fzfg": false,
      "metar_trigger": false,
      "taf_trigger": false,
      "metar": "METAR EPWA 180230Z 11009KT CAVOK M11/M14 Q1036 NOSIG",
      "taf": "TAF EPWA 180230Z 1803/1903 11008KT CAVOK"
    },
    {
      "icao": "EPWR",
      "alert": "OK",
      "vis_m": 150,
      "fzfg": true,
      "metar_trigger": false,
      "taf_trigger": false,
      "metar": "METAR EPWR 180230Z 11010KT 0150 R29/0700N FZFG OVC001 M01/M01 Q1030",
      "taf": "TAF EPWR 180230Z 1803/1903 12010KT 0800 FZFG NSC"
    },
    {
      "icao": "ESGG",
      "alert": "OK",
      "vis_m": 600,
      "fzfg": false,
      "metar_trigger": false,
      "taf_trigger": false,
      "metar": "METAR ESGG 180220Z 16003KT 130V200 0600 R03/1900D R21/1800N FG OVC002 00/00 Q1031",
      "taf": "TAF ESGG 180230Z 1803/1903 12004KT 0300 FG VV002"
    },
    {
      "icao": "ESKN",
      "alert": "OK",
      "vis_m": 250,
      "fzfg": false,
      "metar_trigger": false,
      "taf_trigger": false,
      "metar": "METAR ESKN 180220Z 12004KT 0250 R08/0800N R26/1000D FG VV002 02/02 Q1033",
      "taf": "TAF ESKN 180230Z 1803/1903 14004KT 0300 FG VV002"
    },
    {
      "icao": "ESMS",
      "alert": "OK",
      "vis_m": 450,
      "fzfg": false,
      "metar_trigger": false,
      "taf_trigger": false,
      "metar": "METAR ESMS 180220Z 12009KT 0450 R17/1800N R35/1700N FG OVC002 03/03 Q1030",
      "taf": "TAF ESMS 180227Z 1803/1903 13008KT 0400 FG VV002"
    },
    {
      "icao": "ESSA",
      "alert": "OK",
      "vis_m": 200,
      "fzfg": false,
      "metar_trigger": false,
      "taf_trigger": false,
      "metar": "METAR ESSA 180220Z 19003KT 0200 R01L/0800N R19R/0700N R01R/0900N R19L/1000N FG VV002 01/01 Q1034 TEMPO 0500",
      "taf": "TAF ESSA 180230Z 1803/1903 17003KT 0300 FG VV002"
    },
    {
      "icao": "EYKA",
      "alert": "OK",
      "vis_m": 9000,
      "fzfg": false,
      "metar_trigger": false,
      "taf_trigger": false,
      "metar": "METAR EYKA 180220Z 17004KT 130V230 9000 NSC M13/M16 Q1041",
      "taf": "TAF EYKA 172304Z 1800/1824 16008KT 8000 NSC"
    },
    {
      "icao": "EYPA",
      "alert": "OK",
      "vis_m": 9999,
      "fzfg": false,
      "metar_trigger": false,
      "taf_trigger": false,
      "metar": "METAR EYPA 180220Z 16011KT CAVOK M08/M12 Q1037",
      "taf": "TAF EYPA 172303Z 1800/1824 16011KT 7000 NSC"
    },
    {
      "icao": "EYVI",
      "alert": "OK",
      "vis_m": 8000,
      "fzfg": false,
      "metar_trigger": false,
      "taf_trigger": false,
      "metar": "METAR EYVI 180220Z 18007KT 8000 NSC M15/M18 Q1041 NOSIG",
      "taf": "TAF EYVI 172311Z 1800/1824 16009KT 6000 NSC"
    },
    {
      "icao": "GCFV",
      "alert": "OK",
      "vis_m": 9999,
      "fzfg": false,
      "metar_trigger": false,
      "taf_trigger": false,
      "metar": "METAR GCFV 180200Z AUTO 28007KT CAVOK 16/11 Q1016",
      "taf": "TAF GCFV 180200Z 1803/1903 29008KT 9999 SCT035 TX20/1814Z TN15/1806Z"
    },
    {
      "icao": "GCLP",
      "alert": "OK",
      "vis_m": 9999,
      "fzfg": false,
      "metar_trigger": false,
      "taf_trigger": false,
      "metar": "METAR GCLP 180200Z 36007KT 9999 FEW035 BKN055 16/12 Q1018 NOSIG",
      "taf": "TAF GCLP 180200Z 1803/1903 27007KT 9999 BKN040 TX21/1814Z TN15/1806Z"
    },
    {
      "icao": "GCTS",
      "alert": "OK",
      "vis_m": 9999,
      "fzfg": false,
      "metar_trigger": false,
      "taf_trigger": false,
      "metar": "METAR GCTS 180200Z 33007KT 300V030 9999 FEW030 17/10 Q1018 NOSIG",
      "taf": "TAF GCTS 180200Z 1803/1903 36005KT 9999 BKN050 TX22/1814Z TN14/1806Z"
    },
    {
      "icao": "GMAD",
      "alert": "OK",
      "vis_m": 9999,
      "fzfg": false,
      "metar_trigger": false,
      "taf_trigger": false,
      "metar": "METAR GMAD 180230Z 19006KT 9999 FEW030 BKN090 12/11 Q1012 NOSIG",
      "taf": "TAF GMAD 172300Z 1800/1906 22008KT 8000 SCT020 BKN080"
    },
    {
      "icao": "GMMN",
      "alert": "OK",
      "vis_m": 9999,
      "fzfg": false,
      "metar_trigger": false,
      "taf_trigger": false,
      "metar": "METAR GMMN 180230Z 21012KT 9999 SCT020 SCT040 08/06 Q1009 NOSIG",
      "taf": "TAF GMMN 172300Z 1800/1906 22007KT 9999 SCT020 SCT030"
    },
    {
      "icao": "GMMX",
      "alert": "OK",
      "vis_m": 9999,
      "fzfg": false,
      "metar_trigger": false,
      "taf_trigger": false,
      "metar": "METAR GMMX 180230Z 21006KT 9999 BKN023 09/06 Q1010 NOSIG",
      "taf": "TAF GMMX 172300Z 1800/1906 22007KT 8000 BKN026 SCT080"
    },
    {
      "icao": "HEGN",
      "alert": "OK",
      "vis_m": 9999,
      "fzfg": false,
      "metar_trigger": false,
      "taf_trigger": false,
      "metar": "METAR HEGN 180200Z 29006KT CAVOK 12/06 Q1015 NOSIG",
      "taf": "TAF HEGN 172300Z 1800/1906 28010KT CAVOK"
    },
    {
      "icao": "HEMA",
      "alert": "OK",
      "vis_m": 9999,
      "fzfg": false,
      "metar_trigger": false,
      "taf_trigger": false,
      "metar": "METAR HEMA 180200Z 26006KT CAVOK 13/10 Q1015 NOSIG",
      "taf": "TAF HEMA 172300Z 1800/1906 27010KT CAVOK"
    },
    {
      "icao": "HESH",
      "alert": "OK",
      "vis_m": 9999,
      "fzfg": false,
      "metar_trigger": false,
      "taf_trigger": false,
      "metar": "METAR HESH 180200Z 27005KT CAVOK 15/07 Q1014 NOSIG",
      "taf": "TAF HESH 172300Z 1800/1906 33010KT CAVOK"
    },
    {
      "icao": "HESX",
      "alert": "OK",
      "vis_m": 9999,
      "fzfg": false,
      "metar_trigger": false,
      "taf_trigger": false,
      "metar": "METAR HESX 180200Z 29002KT CAVOK 09/07 Q1016 NOSIG",
      "taf": "TAF HESX 172300Z 1800/1906 33009KT CAVOK"
    },
    {
      "icao": "LATI",
      "alert": "OK",
      "vis_m": 9999,
      "fzfg": false,
      "metar_trigger": false,
      "taf_trigger": false,
      "metar": "METAR LATI 180220Z VRB02KT CAVOK 01/M01 Q1024 NOSIG",
      "taf": "TAF LATI 172300Z 1800/1824 VRB05KT CAVOK TX18/1812Z TN01/1805Z"
    },
    {
      "icao": "LBPD",
      "alert": "OK",
      "vis_m": 9999,
      "fzfg": false,
      "metar_trigger": false,
      "taf_trigger": false,
      "metar": "METAR LBPD 180230Z AUTO 14005KT 9999 SCT017/// OVC025/// M03/M03 Q1032",
      "taf": "TAF LBPD 172300Z 1800/1824 VRB04KT 9999 SCT070"
    },
    {
      "icao": "LBSF",
      "alert": "OK",
      "vis_m": 9999,
      "fzfg": false,
      "metar_trigger": false,
      "taf_trigger": false,
      "metar": "METAR LBSF 180230Z AUTO 00000KT 9999 NCD M07/M09 Q1030 NOSIG",
      "taf": "TAF LBSF 172300Z 1800/1824 10010KT 9999 SCT070"
    },
    {
      "icao": "LBWN",
      "alert": "OK",
      "vis_m": 9000,
      "fzfg": false,
      "metar_trigger": false,
      "taf_trigger": false,
      "metar": "METAR LBWN 180230Z AUTO 34014KT 300V010 9000 -SN OVC044/// M09/M12 Q1033 NOSIG",
      "taf": "TAF LBWN 172300Z 1800/1824 35018KT 9999 BKN025 OVC040"
    },
    {
      "icao": "LCLK",
      "alert": "OK",
      "vis_m": 9999,
      "fzfg": false,
      "metar_trigger": false,
      "taf_trigger": false,
      "metar": "METAR LCLK 180230Z 01008KT 9999 FEW009 SCT030 BKN050 11/08 Q1015 NOSIG",
      "taf": "TAF LCLK 172330Z 1800/1900 02009KT 9999 SCT025 SCT050"
    },
    {
      "icao": "LCPH",
      "alert": "OK",
      "vis_m": 9999,
      "fzfg": false,
      "metar_trigger": false,
      "taf_trigger": false,
      "metar": "METAR LCPH 180230Z AUTO 08006KT 9999 FEW042 BKN060 11/09 Q1014 TEMPO 3000 TSRA SCT020CB",
      "taf": "TAF LCPH 172330Z 1800/1900 07008KT 9999 SCT025"
    },
    {
      "icao": "LEAL",
      "alert": "OK",
      "vis_m": 9999,
      "fzfg": false,
      "metar_trigger": false,
      "taf_trigger": false,
      "metar": "METAR LEAL 180200Z VRB01KT CAVOK 09/04 Q1009 NOSIG",
      "taf": "TAF LEAL 172300Z 1800/1824 31009KT 9999 FEW020 TX15/1812Z TN06/1806Z"
    },
    {
      "icao": "LEBB",
      "alert": "OK",
      "vis_m": 9999,
      "fzfg": false,
      "metar_trigger": false,
      "taf_trigger": false,
      "metar": "METAR LEBB 180200Z AUTO VRB02KT 9999 OVC011 08/08 Q1011",
      "taf": ""
    },
    {
      "icao": "LEBL",
      "alert": "OK",
      "vis_m": 9999,
      "fzfg": false,
      "metar_trigger": false,
      "taf_trigger": false,
      "metar": "METAR LEBL 180200Z 33003KT 9999 FEW019 10/10 Q1009 NOSIG",
      "taf": "TAF LEBL 172300Z 1800/1824 33005KT 9999 SCT020 TX13/1812Z TN10/1806Z"
    },
    {
      "icao": "LECH",
      "alert": "OK",
      "vis_m": 6000,
      "fzfg": false,
      "metar_trigger": false,
      "taf_trigger": false,
      "metar": "METAR LECH 180200Z AUTO 00000KT 6000 FEW040 05/05 Q1008",
      "taf": ""
    },
    {
      "icao": "LEMD",
      "alert": "OK",
      "vis_m": 9999,
      "fzfg": false,
      "metar_trigger": false,
      "taf_trigger": false,
      "metar": "METAR LEMD 180200Z 13003KT 100V160 9999 SCT007 OVC015 04/03 Q1009 NOSIG",
      "taf": "TAF LEMD 172300Z 1800/1906 VRB04KT 9999 SCT035 TX09/1814Z TNM00/1808Z"
    },
    {
      "icao": "LEMG",
      "alert": "OK",
      "vis_m": 9999,
      "fzfg": false,
      "metar_trigger": false,
      "taf_trigger": false,
      "metar": "METAR LEMG 180200Z 30006KT CAVOK 04/03 Q1009 NOSIG",
      "taf": "TAF LEMG 172300Z 1800/1824 29005KT 9999 FEW030 TX13/1814Z TN06/1806Z"
    },
    {
      "icao": "LEVC",
      "alert": "OK",
      "vis_m": 9999,
      "fzfg": false,
      "metar_trigger": false,
      "taf_trigger": false,
      "metar": "METAR LEVC 180200Z 27006KT CAVOK 06/02 Q1009 NOSIG",
      "taf": "TAF LEVC 172300Z 1800/1824 27007KT 9999 FEW020 TX14/1812Z TN04/1806Z"
    },
    {
      "icao": "LEXJ",
      "alert": "OK",
      "vis_m": 7000,
      "fzfg": false,
      "metar_trigger": false,
      "taf_trigger": false,
      "metar": "METAR LEXJ 180200Z AUTO 23007KT 200V260 7000 -RA OVC020 07/06 Q1011",
      "taf": "TAF LEXJ 180200Z 1803/1903 25009KT 9999 SCT015 BKN020 TX11/1814Z TN07/1803Z"
    },
    {
      "icao": "LEZG",
      "alert": "OK",
      "vis_m": 9000,
      "fzfg": false,
      "metar_trigger": false,
      "taf_trigger": false,
      "metar": "METAR LEZG 180200Z 27008KT 9000 -RA OVC008 07/07 Q1009 NOSIG",
      "taf": "TAF LEZG 172300Z 1800/1824 29007KT 6000 SCT005 TX10/1814Z TN05/1806Z"
    },
    {
      "icao": "LEZL",
      "alert": "OK",
      "vis_m": 9999,
      "fzfg": false,
      "metar_trigger": false,
      "taf_trigger": false,
      "metar": "METAR LEZL 180200Z AUTO 04004KT CAVOK 07/07 Q1009",
      "taf": "TAF LEZL 180200Z 1803/1903 05008KT 9999 SCT020 TX14/1815Z TN04/1807Z"
    },
    {
      "icao": "LFBD",
      "alert": "OK",
      "vis_m": 2200,
      "fzfg": false,
      "metar_trigger": false,
      "taf_trigger": false,
      "metar": "METAR LFBD 180230Z AUTO 14003KT 2200 1400 R23/P2300 R05/P2300 R29/2000N BR VV/// 09/09 Q1010 TEMPO 3000 -DZ OVC003 BECMG 04010KT",
      "taf": "TAF LFBD 172300Z 1800/1906 04010KT 8000 BKN015 TX11/1815Z TN07/1806Z"
    },
    {
      "icao": "LFLL",
      "alert": "OK",
      "vis_m": 550,
      "fzfg": false,
      "metar_trigger": false,
      "taf_trigger": false,
      "metar": "METAR LFLL 180230Z 15003KT 0550 R35L/0650U R17R/0600U R35R/0900U R17L/0500D FG NSC 04/03 Q1016 NOSIG",
      "taf": ""
    },
    {
      "icao": "LFLS",
      "alert": "OK",
      "vis_m": 9999,
      "fzfg": false,
      "metar_trigger": false,
      "taf_trigger": false,
      "metar": "METAR LFLS 180230Z AUTO 08009KT CAVOK 03/02 Q1015 NOSIG",
      "taf": "TAF LFLS 180200Z 1803/1903 09005KT CAVOK"
    },
    {
      "icao": "LFMN",
      "alert": "OK",
      "vis_m": 9999,
      "fzfg": false,
      "metar_trigger": false,
      "taf_trigger": false,
      "metar": "METAR LFMN 180230Z 07017KT 9999 BKN066 BKN100 16/06 Q1017 NOSIG",
      "taf": "TAF LFMN 172000Z 1721/1903 09025KT CAVOK"
    },
    {
      "icao": "LFOB",
      "alert": "OK",
      "vis_m": 9999,
      "fzfg": false,
      "metar_trigger": false,
      "taf_trigger": false,
      "metar": "METAR LFOB 180230Z AUTO 09004KT CAVOK 06/06 Q1017 TEMPO 0900 FG VV///",
      "taf": "TAF LFOB 172300Z 1800/1824 10005KT CAVOK"
    },
    {
      "icao": "LFPO",
      "alert": "OK",
      "vis_m": 9999,
      "fzfg": false,
      "metar_trigger": false,
      "taf_trigger": false,
      "metar": "METAR LFPO 180230Z 08004KT CAVOK 08/06 Q1017 NOSIG",
      "taf": "TAF LFPO 172300Z 1800/1906 09006KT CAVOK"
    },
    {
      "icao": "LFSB",
      "alert": "OK",
      "vis_m": 3500,
      "fzfg": false,
      "metar_trigger": false,
      "taf_trigger": false,
      "metar": "METAR LFSB 180230Z AUTO 35006KT 3500 BR OVC003 01/01 Q1019 TEMPO 0300 FG VV///",
      "taf": "TAF LFSB 172300Z 1800/1824 VRB03KT 5000 BR OVC010"
    },
    {
      "icao": "LGAV",
      "alert": "OK",
      "vis_m": 9999,
      "fzfg": false,
      "metar_trigger": false,
      "taf_trigger": false,
      "metar": "METAR LGAV 180220Z 01017KT 9999 FEW020 06/M00 Q1025 NOSIG",
      "taf": "TAF LGAV 172300Z 1800/1824 03015G25KT 9999 FEW018 SCT030"
    },
    {
      "icao": "LGTS",
      "alert": "OK",
      "vis_m": 9999,
      "fzfg": false,
      "metar_trigger": false,
      "taf_trigger": false,
      "metar": "METAR LGTS 180220Z VRB03KT 9999 FEW020 BKN035 04/00 Q1029 NOSIG",
      "taf": "TAF LGTS 172300Z 1800/1824 09007KT 9999 FEW015 BKN030"
    },
    {
      "icao": "LHBP",
      "alert": "OK",
      "vis_m": 9999,
      "fzfg": false,
      "metar_trigger": false,
      "taf_trigger": false,
      "metar": "METAR LHBP 180230Z 36004KT CAVOK M07/M08 Q1032 NOSIG",
      "taf": "TAF LHBP 172315Z 1800/1824 VRB03KT CAVOK"
    },
    {
      "icao": "LHDC",
      "alert": "OK",
      "vis_m": 9999,
      "fzfg": false,
      "metar_trigger": false,
      "taf_trigger": false,
      "metar": "METAR LHDC 180215Z AUTO 16003KT CAVOK M07/M09 Q1033",
      "taf": ""
    },
    {
      "icao": "LIBD",
      "alert": "OK",
      "vis_m": 400,
      "fzfg": false,
      "metar_trigger": false,
      "taf_trigger": false,
      "metar": "METAR LIBD 180220Z AUTO 24005KT 0400 0150SW R07/0650N FG VV003 05/05 Q1022",
      "taf": "TAF LIBD 172300Z 1800/1824 VRB05KT 7000 FEW015"
    },
    {
      "icao": "LIBG",
      "alert": "OK",
      "vis_m": null,
      "fzfg": false,
      "metar_trigger": false,
      "taf_trigger": false,
      "metar": "",
      "taf": "TAF LIBG 171700Z 1718/1803 VRB05KT 9999 FEW020"
    },
    {
      "icao": "LIBP",
      "alert": "OK",
      "vis_m": 1100,
      "fzfg": false,
      "metar_trigger": false,
      "taf_trigger": false,
      "metar": "METAR LIBP 180220Z AUTO 07002KT 1100 R22/1900U BR OVC002/// 07/07 Q1023",
      "taf": "TAF LIBP 172300Z 1800/1824 VRB05KT 2000 BR BKN010"
    },
    {
      "icao": "LIBR",
      "alert": "OK",
      "vis_m": 9999,
      "fzfg": false,
      "metar_trigger": false,
      "taf_trigger": false,
      "metar": "METAR LIBR 180220Z 25006KT CAVOK 06/06 Q1022",
      "taf": "TAF LIBR 172300Z 1800/1824 VRB05KT CAVOK"
    },
    {
      "icao": "LICA",
      "alert": "OK",
      "vis_m": 9999,
      "fzfg": false,
      "metar_trigger": false,
      "taf_trigger": false,
      "metar": "METAR LICA 180220Z AUTO 07009KT 9999 NCD 12/10 Q1019",
      "taf": "TAF LICA 172300Z 1800/1824 08018KT 9999 BKN040"
    },
    {
      "icao": "LICC",
      "alert": "OK",
      "vis_m": 9999,
      "fzfg": false,
      "metar_trigger": false,
      "taf_trigger": false,
      "metar": "METAR LICC 180220Z 05014KT 9999 SCT015 SCT060 15/13 Q1018",
      "taf": "TAF LICC 172300Z 1800/1824 08013KT 9999 SCT015 BKN040"
    },
    {
      "icao": "LICJ",
      "alert": "OK",
      "vis_m": 9999,
      "fzfg": false,
      "metar_trigger": false,
      "taf_trigger": false,
      "metar": "METAR LICJ 180220Z 17003KT CAVOK 11/08 Q1017",
      "taf": "TAF LICJ 172300Z 1800/1824 11008KT 9999 FEW040"
    },
    {
      "icao": "LIMC",
      "alert": "OK",
      "vis_m": 9999,
      "fzfg": false,
      "metar_trigger": false,
      "taf_trigger": false,
      "metar": "METAR LIMC 180220Z 35006KT 9999 SCT030 SCT080 08/07 Q1023 NOSIG",
      "taf": "TAF LIMC 172300Z 1800/1906 VRB04KT 7000 BKN040"
    },
    {
      "icao": "LIME",
      "alert": "OK",
      "vis_m": 9999,
      "fzfg": false,
      "metar_trigger": false,
      "taf_trigger": false,
      "metar": "METAR LIME 180220Z VRB02KT 9999 BKN070 06/06 Q1023 NOSIG",
      "taf": "TAF LIME 172300Z 1800/1824 VRB03KT 6000 SCT040"
    },
    {
      "icao": "LIMF",
      "alert": "OK",
      "vis_m": 8000,
      "fzfg": false,
      "metar_trigger": false,
      "taf_trigger": false,
      "metar": "METAR LIMF 180220Z 32007KT 8000 OVC030 08/05 Q1023",
      "taf": "TAF LIMF 172300Z 1800/1824 30007KT 4000 -RA BKN035"
    },
    {
      "icao": "LIMJ",
      "alert": "OK",
      "vis_m": 9999,
      "fzfg": false,
      "metar_trigger": false,
      "taf_trigger": false,
      "metar": "METAR LIMJ 180220Z 03015KT CAVOK 10/06 Q1021",
      "taf": "TAF LIMJ 172300Z 1800/1824 02014KT 9999 FEW040"
    },
    {
      "icao": "LIPE",
      "alert": "OK",
      "vis_m": 1100,
      "fzfg": false,
      "metar_trigger": false,
      "taf_trigger": false,
      "metar": "METAR LIPE 180220Z AUTO VRB01KT 1100 1000NW R12/P2000N R30/P2000N BR OVC005/// 08/08 Q1023",
      "taf": "TAF LIPE 172300Z 1800/1824 VRB04KT 1400 BR BKN004"
    },
    {
      "icao": "LIPH",
      "alert": "OK",
      "vis_m": 9999,
      "fzfg": false,
      "metar_trigger": false,
      "taf_trigger": false,
      "metar": "METAR LIPH 180220Z AUTO 07008KT 9999 OVC082/// 09/03 Q1024",
      "taf": "TAF LIPH 172300Z 1800/1824 04005KT 9999 SCT060"
    },
    {
      "icao": "LIPQ",
      "alert": "OK",
      "vis_m": 9999,
      "fzfg": false,
      "metar_trigger": false,
      "taf_trigger": false,
      "metar": "METAR LIPQ 180220Z AUTO VRB02KT 9999 OVC088/// 08/02 Q1025",
      "taf": "TAF LIPQ 172300Z 1800/1824 02005KT 9999 FEW070"
    },
    {
      "icao": "LIPR",
      "alert": "OK",
      "vis_m": 900,
      "fzfg": false,
      "metar_trigger": false,
      "taf_trigger": false,
      "metar": "METAR LIPR 180220Z AUTO 31004KT 0900 R30/P2000N FG BKN002/// 08/08 Q1023",
      "taf": "TAF LIPR 172300Z 1800/1824 VRB05KT 4000 BR BKN005"
    },
    {
      "icao": "LIPX",
      "alert": "OK",
      "vis_m": 7000,
      "fzfg": false,
      "metar_trigger": false,
      "taf_trigger": false,
      "metar": "METAR LIPX 180220Z VRB02KT 7000 NSC 06/04 Q1023",
      "taf": "TAF LIPX 172300Z 1800/1824 VRB04KT 6000 BKN040"
    },
    {
      "icao": "LIPY",
      "alert": "OK",
      "vis_m": 3700,
      "fzfg": false,
      "metar_trigger": false,
      "taf_trigger": false,
      "metar": "METAR LIPY 180220Z AUTO VRB02KT 3700 BR OVC003/// 09/09 Q1023",
      "taf": "TAF LIPY 172300Z 1800/1824 VRB05KT 3000 BR BKN005"
    },
    {
      "icao": "LIPZ",
      "alert": "OK",
      "vis_m": 9999,
      "fzfg": false,
      "metar_trigger": false,
      "taf_trigger": false,
      "metar": "METAR LIPZ 180220Z 05007KT CAVOK 07/04 Q1024 NOSIG",
      "taf": "TAF LIPZ 172300Z 1800/1906 04010KT 9999 SCT060"
    },
    {
      "icao": "LIRF",
      "alert": "OK",
      "vis_m": 9999,
      "fzfg": false,
      "metar_trigger": false,
      "taf_trigger": false,
      "metar": "METAR LIRF 180220Z 05007KT CAVOK 09/04 Q1019 NOSIG",
      "taf": "TAF LIRF 172300Z 1800/1906 05008KT 9999 FEW040"
    },
    {
      "icao": "LIRN",
      "alert": "OK",
      "vis_m": 9999,
      "fzfg": false,
      "metar_trigger": false,
      "taf_trigger": false,
      "metar": "METAR LIRN 180220Z AUTO 03006KT 9999 SCT053/// 10/06 Q1019",
      "taf": "TAF LIRN 172300Z 1800/1824 05008KT 9999 FEW040"
    },
    {
      "icao": "LIRP",
      "alert": "OK",
      "vis_m": 9999,
      "fzfg": false,
      "metar_trigger": false,
      "taf_trigger": false,
      "metar": "METAR LIRP 180215Z 12010KT 9999 SCT060 09/07 Q1020 NOSIG",
      "taf": "TAF LIRP 172300Z 1800/1824 14008KT 9999 SCT070"
    },
    {
      "icao": "LIRZ",
      "alert": "OK",
      "vis_m": 9999,
      "fzfg": false,
      "metar_trigger": false,
      "taf_trigger": false,
      "metar": "METAR LIRZ 180220Z AUTO 03005KT 350V090 9999 NCD 04/03 Q1021",
      "taf": "TAF LIRZ 172300Z 1800/1824 02008KT CAVOK"
    },
    {
      "icao": "LJLJ",
      "alert": "OK",
      "vis_m": 9000,
      "fzfg": false,
      "metar_trigger": false,
      "taf_trigger": false,
      "metar": "METAR LJLJ 180200Z 11002KT 9000 OVC013 01/M01 Q1029 NOSIG",
      "taf": "TAF LJLJ 172300Z 1800/1900 12003KT 6000 OVC016"
    },
    {
      "icao": "LKMT",
      "alert": "OK",
      "vis_m": 350,
      "fzfg": true,
      "metar_trigger": false,
      "taf_trigger": false,
      "metar": "METAR LKMT 180230Z 00000KT 0350 R22/0550N R04/0400N FZFG VV002 M05/M05 Q1031 NOSIG",
      "taf": "TAF LKMT 172300Z 1800/1824 VRB02KT 0200 FZFG VV002"
    },
    {
      "icao": "LKPR",
      "alert": "OK",
      "vis_m": 9999,
      "fzfg": false,
      "metar_trigger": false,
      "taf_trigger": false,
      "metar": "METAR LKPR 180230Z 10006KT CAVOK M01/M02 Q1026 NOSIG",
      "taf": "TAF LKPR 180200Z 1803/1909 12012KT CAVOK"
    },
    {
      "icao": "LLBG",
      "alert": "OK",
      "vis_m": 9999,
      "fzfg": false,
      "metar_trigger": false,
      "taf_trigger": false,
      "metar": "METAR LLBG 180220Z 18006KT 9999 FEW035 SCT045 12/09 Q1014 TEMPO 7000 RA FEW025TCU BKN030",
      "taf": "TAF LLBG 172321Z 1800/1824 15006KT 9999 SCT035"
    },
    {
      "icao": "LMML",
      "alert": "OK",
      "vis_m": 9999,
      "fzfg": false,
      "metar_trigger": false,
      "taf_trigger": false,
      "metar": "METAR LMML 180215Z 13005KT 9999 FEW017 12/11 Q1017 NOSIG",
      "taf": "TAF LMML 172300Z 1800/1824 10008KT 9999 FEW015"
    },
    {
      "icao": "LOWW",
      "alert": "OK",
      "vis_m": 9999,
      "fzfg": false,
      "metar_trigger": false,
      "taf_trigger": false,
      "metar": "METAR LOWW 180220Z 15010KT 9999 BKN024 00/M03 Q1030 NOSIG",
      "taf": "TAF LOWW 180215Z 1803/1909 12008KT 9999 FEW030 TXM00/1813Z TNM06/1906Z"
    },
    {
      "icao": "LPFR",
      "alert": "OK",
      "vis_m": 9999,
      "fzfg": false,
      "metar_trigger": false,
      "taf_trigger": false,
      "metar": "METAR LPFR 180200Z VRB02KT 9999 FEW012 SCT040 09/06 Q1008",
      "taf": "TAF LPFR 172300Z 1800/1824 VRB02KT 9999 SCT035"
    },
    {
      "icao": "LPMA",
      "alert": "OK",
      "vis_m": 9999,
      "fzfg": false,
      "metar_trigger": false,
      "taf_trigger": false,
      "metar": "METAR LPMA 180200Z 35022G35KT 300V030 9999 -SHRA BKN015 18/13 Q1013",
      "taf": ""
    },
    {
      "icao": "LPPR",
      "alert": "OK",
      "vis_m": 6000,
      "fzfg": false,
      "metar_trigger": false,
      "taf_trigger": false,
      "metar": "METAR LPPR 180200Z 01003KT 6000 FEW002 03/02 Q1011",
      "taf": "TAF LPPR 172300Z 1800/1824 05005KT CAVOK"
    },
    {
      "icao": "LPPS",
      "alert": "OK",
      "vis_m": 9999,
      "fzfg": false,
      "metar_trigger": false,
      "taf_trigger": false,
      "metar": "METAR LPPS 180200Z 34025G36KT 9999 SCT008 BKN012 16/15 Q1014",
      "taf": "TAF LPPS 172300Z 1800/1906 31018KT 9999 SCT012 BKN030"
    },
    {
      "icao": "LPPT",
      "alert": "OK",
      "vis_m": 9999,
      "fzfg": false,
      "metar_trigger": false,
      "taf_trigger": false,
      "metar": "METAR LPPT 180200Z 34004KT CAVOK 05/04 Q1009",
      "taf": "TAF LPPT 172300Z 1800/1906 VRB02KT 9999 SCT030"
    },
    {
      "icao": "LQBK",
      "alert": "OK",
      "vis_m": 9999,
      "fzfg": false,
      "metar_trigger": false,
      "taf_trigger": false,
      "metar": "METAR LQBK 180200Z 32004KT 9999 OVC023 M00/M02 Q1031 NOSIG",
      "taf": "TAF LQBK 172300Z 1800/1824 34006KT 9999 BKN018 TX00/1812Z TNM04/1824Z"
    },
    {
      "icao": "LQSA",
      "alert": "OK",
      "vis_m": 2000,
      "fzfg": true,
      "metar_trigger": false,
      "taf_trigger": false,
      "metar": "METAR LQSA 180200Z VRB01KT 2000 BR OVC002 M01/M01 Q1027",
      "taf": "TAF LQSA 172300Z 1800/1824 VRB02KT 0300 FZFG BKN003 TX02/1813Z TNM02/1800Z"
    },
    {
      "icao": "LQTZ",
      "alert": "OK",
      "vis_m": 9000,
      "fzfg": false,
      "metar_trigger": false,
      "taf_trigger": false,
      "metar": "METAR LQTZ 180200Z VRB01KT 9000 OVC023 M01/M01 Q1029",
      "taf": "TAF LQTZ 172300Z 1800/1824 10006KT 6000 BKN015 TX01/1813Z TNM05/1824Z"
    },
    {
      "icao": "LRBC",
      "alert": "OK",
      "vis_m": 7000,
      "fzfg": false,
      "metar_trigger": false,
      "taf_trigger": false,
      "metar": "METAR LRBC 180200Z 35011KT 7000 OVC013 M12/M15 Q1039",
      "taf": "TAF LRBC 180200Z 1803/1812 01008KT 9999 BKN015"
    },
    {
      "icao": "LRBS",
      "alert": "OK",
      "vis_m": 9999,
      "fzfg": false,
      "metar_trigger": false,
      "taf_trigger": false,
      "metar": "METAR LRBS 180200Z 05008KT 020V080 9999 OVC022 M09/M12 Q1038 NOSIG",
      "taf": "TAF LRBS 172300Z 1800/1824 07011KT 9999 SCT015 BKN025"
    },
    {
      "icao": "LRBV",
      "alert": "OK",
      "vis_m": 9999,
      "fzfg": false,
      "metar_trigger": false,
      "taf_trigger": false,
      "metar": "METAR LRBV 180200Z AUTO 22005KT 180V240 9999 NCD M11/M13 Q1032",
      "taf": "TAF LRBV 180200Z 1803/1812 VRB04KT CAVOK"
    },
    {
      "icao": "LRCL",
      "alert": "OK",
      "vis_m": 5000,
      "fzfg": false,
      "metar_trigger": false,
      "taf_trigger": false,
      "metar": "METAR LRCL 180200Z 06002KT 5000 BR NSC M14/M16 Q1033",
      "taf": "TAF LRCL 180200Z 1803/1812 VRB04KT 5000 BR NSC"
    },
    {
      "icao": "LRCV",
      "alert": "OK",
      "vis_m": 9999,
      "fzfg": false,
      "metar_trigger": false,
      "taf_trigger": false,
      "metar": "METAR LRCV 180200Z 12008KT 9999 BKN037 M09/M10 Q1036",
      "taf": "TAF LRCV 180200Z 1803/1812 11010KT 9999 BKN015"
    },
    {
      "icao": "LRIA",
      "alert": "OK",
      "vis_m": 9999,
      "fzfg": false,
      "metar_trigger": false,
      "taf_trigger": false,
      "metar": "METAR LRIA 180200Z AUTO 31006KT 9999 NCD M15/M18 Q1040",
      "taf": "TAF LRIA 180200Z 1803/1812 30005KT 9999 SCT015"
    },
    {
      "icao": "LROP",
      "alert": "OK",
      "vis_m": 6000,
      "fzfg": false,
      "metar_trigger": false,
      "taf_trigger": false,
      "metar": "METAR LROP 180200Z 07010KT 6000 -SN OVC022 M09/M14 Q1037 NOSIG",
      "taf": "TAF LROP 172300Z 1800/1824 07011KT 9999 SCT015 BKN025"
    },
    {
      "icao": "LRSB",
      "alert": "OK",
      "vis_m": 8000,
      "fzfg": false,
      "metar_trigger": false,
      "taf_trigger": false,
      "metar": "METAR LRSB 180200Z 22004KT 8000 NSC M11/M12 Q1031",
      "taf": "TAF LRSB 172300Z 1800/1824 VRB04KT CAVOK"
    },
    {
      "icao": "LRSM",
      "alert": "OK",
      "vis_m": 9999,
      "fzfg": false,
      "metar_trigger": false,
      "taf_trigger": false,
      "metar": "METAR LRSM 180200Z AUTO 09003KT 9999 NCD M11/M14 Q1033",
      "taf": "TAF LRSM 180200Z 1803/1812 VRB04KT CAVOK"
    },
    {
      "icao": "LRSV",
      "alert": "OK",
      "vis_m": 500,
      "fzfg": true,
      "metar_trigger": false,
      "taf_trigger": false,
      "metar": "METAR LRSV 180200Z 33003KT 0500 R34/1300D FZFG OVC002 M13/M14 Q1037",
      "taf": "TAF LRSV 180200Z 1803/1812 36005KT 0800 FZFG OVC002"
    },
    {
      "icao": "LRTM",
      "alert": "OK",
      "vis_m": 5000,
      "fzfg": false,
      "metar_trigger": false,
      "taf_trigger": false,
      "metar": "METAR LRTM 180200Z AUTO 06004KT 5000 BR NCD M15/M16 Q1033",
      "taf": "TAF LRTM 180200Z 1803/1812 VRB04KT 5000 BR NSC"
    },
    {
      "icao": "LRTR",
      "alert": "OK",
      "vis_m": 7000,
      "fzfg": false,
      "metar_trigger": false,
      "taf_trigger": false,
      "metar": "METAR LRTR 180200Z 08006KT 7000 NSC M06/M06 Q1032",
      "taf": "TAF LRTR 172300Z 1800/1824 VRB04KT CAVOK"
    },
    {
      "icao": "LTAC",
      "alert": "OK",
      "vis_m": 9999,
      "fzfg": false,
      "metar_trigger": false,
      "taf_trigger": false,
      "metar": "METAR LTAC 180220Z VRB02KT 9999 -SN FEW020 BKN035 BKN080 M04/M07 Q1019 NOSIG RMK RWY21C 00000KT RWY03L 00000KT RWY21R VRB02KT RWY03R VRB02KT RWY21L 05002KT",
      "taf": "TAF LTAC 172240Z 1800/1824 VRB02KT 9999 SCT040 SCT100"
    },
    {
      "icao": "LTFM",
      "alert": "OK",
      "vis_m": 9999,
      "fzfg": false,
      "metar_trigger": false,
      "taf_trigger": false,
      "metar": "METAR LTFM 180220Z 02019KT 9999 -SHSN SCT012 BKN028 01/M01 Q1028 RESHSNRA NOSIG RMK RWY17L 02019KT RWY34L 36020KT RWY16R 01018KT RWY36 02017G27KT RWY18 02018KT",
      "taf": "TAF LTFM 172240Z 1800/1906 03018KT 9999 -SHSNRA SCT016 BKN028"
    },
    {
      "icao": "LUKK",
      "alert": "OK",
      "vis_m": 9999,
      "fzfg": false,
      "metar_trigger": false,
      "taf_trigger": false,
      "metar": "METAR LUKK 180200Z 36007KT CAVOK M14/M16 Q1039 NOSIG",
      "taf": "TAF LUKK 172324Z 1800/1824 01009KT 9999 SCT020"
    },
    {
      "icao": "LWOH",
      "alert": "OK",
      "vis_m": null,
      "fzfg": false,
      "metar_trigger": false,
      "taf_trigger": false,
      "metar": "",
      "taf": "TAF LWOH 172320Z 1800/1824 VRB02KT 9999 BKN040"
    },
    {
      "icao": "LWSK",
      "alert": "OK",
      "vis_m": 9999,
      "fzfg": false,
      "metar_trigger": false,
      "taf_trigger": false,
      "metar": "METAR LWSK 180220Z VRB02KT 9999 SCT032 BKN055 02/01 Q1028 NOSIG",
      "taf": "TAF LWSK 172320Z 1800/1824 VRB02KT 5000 BR SCT015 OVC040"
    },
    {
      "icao": "LYBE",
      "alert": "OK",
      "vis_m": 9999,
      "fzfg": false,
      "metar_trigger": false,
      "taf_trigger": false,
      "metar": "METAR LYBE 180200Z 10011KT CAVOK M03/M07 Q1032 NOSIG",
      "taf": "TAF LYBE 172300Z 1800/1824 11012KT CAVOK TX01/1813Z TNM05/1806Z"
    },
    {
      "icao": "LYNI",
      "alert": "OK",
      "vis_m": 9999,
      "fzfg": false,
      "metar_trigger": false,
      "taf_trigger": false,
      "metar": "METAR LYNI 180200Z 33003KT CAVOK M05/M07 Q1031 NOSIG",
      "taf": "TAF LYNI 172300Z 1800/1824 04006KT 9999 SCT040 TX02/1813Z TNM06/1806Z"
    },
    {
      "icao": "LYPG",
      "alert": "OK",
      "vis_m": 9999,
      "fzfg": false,
      "metar_trigger": false,
      "taf_trigger": false,
      "metar": "METAR LYPG 180200Z 35003KT CAVOK 03/01 Q1025 NOSIG",
      "taf": "TAF LYPG 172300Z 1800/1824 36004KT CAVOK TX11/1813Z TN00/1805Z"
    },
    {
      "icao": "LZIB",
      "alert": "OK",
      "vis_m": 9999,
      "fzfg": false,
      "metar_trigger": false,
      "taf_trigger": false,
      "metar": "METAR LZIB 180230Z 12006KT 9999 SCT021 BKN032 M00/M02 Q1032 NOSIG",
      "taf": "TAF LZIB 172315Z 1800/1900 05005KT 4500 BR SCT006"
    },
    {
      "icao": "LZKZ",
      "alert": "OK",
      "vis_m": 9999,
      "fzfg": false,
      "metar_trigger": false,
      "taf_trigger": false,
      "metar": "METAR LZKZ 180230Z 05001KT CAVOK M07/M10 Q1032 NOSIG",
      "taf": "TAF LZKZ 172315Z 1800/1900 VRB02KT CAVOK"
    },
    {
      "icao": "LZTT",
      "alert": "OK",
      "vis_m": 9999,
      "fzfg": false,
      "metar_trigger": false,
      "taf_trigger": false,
      "metar": "METAR LZTT 180230Z 28006KT CAVOK M10/M11 Q1030",
      "taf": "TAF LZTT 172315Z 1800/1900 28005KT CAVOK"
    },
    {
      "icao": "OEJN",
      "alert": "OK",
      "vis_m": 9999,
      "fzfg": false,
      "metar_trigger": false,
      "taf_trigger": false,
      "metar": "METAR OEJN 180200Z 35002KT CAVOK 23/16 Q1012 NOSIG",
      "taf": "TAF OEJN 172300Z 1800/1906 VRB03KT 7000 FEW040"
    },
    {
      "icao": "OEMA",
      "alert": "OK",
      "vis_m": 9000,
      "fzfg": false,
      "metar_trigger": false,
      "taf_trigger": false,
      "metar": "METAR OEMA 180200Z VRB03KT 9000 FEW045 17/05 Q1015 NOSIG",
      "taf": "TAF OEMA 172300Z 1800/1906 VRB03KT 7000 FEW045"
    },
    {
      "icao": "OJAI",
      "alert": "OK",
      "vis_m": 3000,
      "fzfg": false,
      "metar_trigger": false,
      "taf_trigger": false,
      "metar": "METAR OJAI 180200Z 30002KT 3000 BR NSC 05/04 Q1016 NOSIG",
      "taf": "TAF OJAI 172300Z 1800/1906 25010KT 4000 BR FEW020 SCT025"
    },
    {
      "icao": "OMAA",
      "alert": "OK",
      "vis_m": 9999,
      "fzfg": false,
      "metar_trigger": false,
      "taf_trigger": false,
      "metar": "METAR OMAA 180200Z 16004KT 9999 SCT035 14/11 Q1016 NOSIG",
      "taf": "TAF OMAA 172300Z 1800/1906 21004KT 9999 FEW040"
    },
    {
      "icao": "OMDB",
      "alert": "OK",
      "vis_m": 9999,
      "fzfg": false,
      "metar_trigger": false,
      "taf_trigger": false,
      "metar": "METAR OMDB 180230Z 20006KT 160V220 9999 SCT035 15/11 Q1016 NOSIG",
      "taf": "TAF OMDB 172300Z 1800/1906 20006KT 8000 FEW030"
    },
    {
      "icao": "UAAA",
      "alert": "OK",
      "vis_m": 9999,
      "fzfg": false,
      "metar_trigger": false,
      "taf_trigger": false,
      "metar": "METAR UAAA 180200Z 02002MPS 9999 BKN050 OVC100 M18/M21 Q1031 NOSIG",
      "taf": "TAF UAAA 172300Z 1800/1824 33003MPS 6000 BKN015CB OVC050 TXM15/1808Z TNM22/1803Z"
    },
    {
      "icao": "UBBB",
      "alert": "OK",
      "vis_m": 8000,
      "fzfg": false,
      "metar_trigger": false,
      "taf_trigger": false,
      "metar": "METAR UBBB 180230Z 32010KT 8000 -RA BKN006 OVC021 04/03 Q1027 NOSIG",
      "taf": "TAF UBBB 172302Z 1800/1824 31014KT 8000 BKN007 OVC025 TX06/1810Z TN02/1801Z"
    },
    {
      "icao": "UDSG",
      "alert": "OK",
      "vis_m": 1500,
      "fzfg": false,
      "metar_trigger": false,
      "taf_trigger": false,
      "metar": "METAR UDSG 180200Z 00000KT 1500 R02/P2000D SN BR OVC026 M07/M07 Q1017 NOSIG",
      "taf": "TAF UDSG 172300Z 1800/1824 VRB06KT 2000 BR OVC020"
    },
    {
      "icao": "UDYZ",
      "alert": "OK",
      "vis_m": 5000,
      "fzfg": false,
      "metar_trigger": false,
      "taf_trigger": false,
      "metar": "METAR UDYZ 180200Z VRB01KT 5000 BR SCT046 M03/M05 Q1019 NOSIG",
      "taf": "TAF UDYZ 172300Z 1800/1824 14006KT 3500 BR BKN040"
    },
    {
      "icao": "UGKO",
      "alert": "OK",
      "vis_m": 9999,
      "fzfg": false,
      "metar_trigger": false,
      "taf_trigger": false,
      "metar": "METAR UGKO 180200Z 09004KT 9999 OVC010 00/00 Q1024 NOSIG",
      "taf": "TAF UGKO 172300Z 1800/1824 08007KT 9999 SCT020 BKN050 TX06/1811Z TN00/1803Z"
    }
  ]
}