{
  "ts_utc": "2026-01-15T04:31:20Z",
  "threshold_m": 150,
  "source": "stations_override.txt (ICAO list) + aviationweather.gov (METAR/TAF raw)",
  "station_count": 159,
  "stations": [
    {
      "icao": "BIKF",
      "alert": "OK",
      "vis_m": 9999,
      "fzfg": false,
      "metar_trigger": false,
      "taf_trigger": false,
      "metar": "METAR BIKF 150400Z 02012KT 9999 -SN BKN038 OVC063 01/M01 Q0986",
      "taf": "TAF BIKF 150108Z 1503/1603 07010KT 9999 -RA BKN017 OVC032 TX01/1503Z TNM01/1510Z"
    },
    {
      "icao": "BKPR",
      "alert": "OK",
      "vis_m": 9999,
      "fzfg": false,
      "metar_trigger": false,
      "taf_trigger": false,
      "metar": "METAR BKPR 150430Z 10002KT 9999 OVC060 01/00 Q1024 NOSIG",
      "taf": "TAF BKPR 142330Z 1500/1524 VRB03KT 9999 BKN050"
    },
    {
      "icao": "EBCI",
      "alert": "OK",
      "vis_m": 9999,
      "fzfg": false,
      "metar_trigger": false,
      "taf_trigger": false,
      "metar": "METAR EBCI 150420Z 20012KT 9999 BKN016 09/07 Q1010 TEMPO BKN012",
      "taf": "TAF EBCI 142326Z 1500/1606 20010KT 9999 FEW012 SCT020"
    },
    {
      "icao": "EDDB",
      "alert": "OK",
      "vis_m": 9999,
      "fzfg": false,
      "metar_trigger": false,
      "taf_trigger": false,
      "metar": "METAR EDDB 150420Z AUTO VRB02KT 9999 SCT016 OVC022 00/00 Q1016 TEMPO BKN014",
      "taf": "TAF EDDB 142300Z 1500/1524 14006KT 1000 BCFG FEW001"
    },
    {
      "icao": "EDDH",
      "alert": "OK",
      "vis_m": 9999,
      "fzfg": false,
      "metar_trigger": false,
      "taf_trigger": false,
      "metar": "METAR EDDH 150420Z AUTO 15008KT 9999 OVC006 02/01 Q1012 TEMPO 4000 BR",
      "taf": "TAF EDDH 142300Z 1500/1606 16008KT 9999 SCT025"
    },
    {
      "icao": "EDDK",
      "alert": "OK",
      "vis_m": 9999,
      "fzfg": false,
      "metar_trigger": false,
      "taf_trigger": false,
      "metar": "METAR EDDK 150420Z AUTO 14008KT CAVOK 08/07 Q1012 RESHRA NOSIG",
      "taf": "TAF EDDK 142300Z 1500/1606 14006KT CAVOK"
    },
    {
      "icao": "EDDN",
      "alert": "OK",
      "vis_m": 9999,
      "fzfg": false,
      "metar_trigger": false,
      "taf_trigger": false,
      "metar": "METAR EDDN 150420Z AUTO 12006KT 9999 -SHRA BKN033 BKN045 FEW///TCU 04/03 Q1016",
      "taf": "TAF EDDN 142300Z 1500/1524 13006KT 9999 OVC030"
    },
    {
      "icao": "EDDS",
      "alert": "OK",
      "vis_m": 9999,
      "fzfg": false,
      "metar_trigger": false,
      "taf_trigger": false,
      "metar": "METAR EDDS 150420Z AUTO 09003KT 070V130 9999 -RA SCT048 04/03 Q1015",
      "taf": "TAF EDDS 142300Z 1500/1524 VRB03KT CAVOK"
    },
    {
      "icao": "EDFH",
      "alert": "OK",
      "vis_m": 9999,
      "fzfg": false,
      "metar_trigger": false,
      "taf_trigger": false,
      "metar": "METAR EDFH 150420Z 22009KT 9999 FEW007 OVC009 08/07 Q1013",
      "taf": "TAF EDFH 142300Z 1500/1524 20009KT 9999 BKN020"
    },
    {
      "icao": "EDJA",
      "alert": "OK",
      "vis_m": 9999,
      "fzfg": false,
      "metar_trigger": false,
      "taf_trigger": false,
      "metar": "METAR EDJA 150420Z AUTO 22005KT 9999 // BKN120/// 03/M01 Q1017",
      "taf": "TAF EDJA 150200Z 1503/1512 21005KT CAVOK"
    },
    {
      "icao": "EDLW",
      "alert": "OK",
      "vis_m": 9999,
      "fzfg": false,
      "metar_trigger": false,
      "taf_trigger": false,
      "metar": "METAR EDLW 150420Z 16010KT 9999 FEW026 09/07 Q1011",
      "taf": "TAF EDLW 150420Z 1505/1524 17011KT CAVOK"
    },
    {
      "icao": "EDNY",
      "alert": "OK",
      "vis_m": 8000,
      "fzfg": false,
      "metar_trigger": false,
      "taf_trigger": false,
      "metar": "METAR EDNY 150420Z AUTO VRB01KT 8000 BKN130/// M01/M01 Q1018",
      "taf": ""
    },
    {
      "icao": "EDSB",
      "alert": "OK",
      "vis_m": 8000,
      "fzfg": false,
      "metar_trigger": false,
      "taf_trigger": false,
      "metar": "METAR EDSB 150420Z 21002KT 8000 RA BKN039 OVC046 07/06 Q1016",
      "taf": "TAF EDSB 142300Z 1500/1524 21004KT CAVOK"
    },
    {
      "icao": "EETN",
      "alert": "OK",
      "vis_m": 9999,
      "fzfg": false,
      "metar_trigger": false,
      "taf_trigger": false,
      "metar": "METAR EETN 150420Z 16010KT 9999 FEW014 M11/M13 Q1017 BECMG 2000 SN OVC010",
      "taf": "TAF EETN 142330Z 1500/1524 15012KT 9999 SCT025"
    },
    {
      "icao": "EFTU",
      "alert": "OK",
      "vis_m": 9999,
      "fzfg": false,
      "metar_trigger": false,
      "taf_trigger": false,
      "metar": "METAR EFTU 150420Z AUTO 13012KT 9999 -SN FEW010 OVC033 M07/M09 Q1012 REFZRA",
      "taf": "TAF EFTU 150237Z 1503/1603 13011KT 2500 -SN OVC015"
    },
    {
      "icao": "EGBB",
      "alert": "OK",
      "vis_m": 9999,
      "fzfg": false,
      "metar_trigger": false,
      "taf_trigger": false,
      "metar": "METAR EGBB 150420Z 19007KT 150V220 9999 BKN007 07/05 Q1001",
      "taf": "TAF EGBB 142255Z 1500/1524 18009KT 9999 SCT010"
    },
    {
      "icao": "EGGP",
      "alert": "OK",
      "vis_m": 9999,
      "fzfg": false,
      "metar_trigger": false,
      "taf_trigger": false,
      "metar": "METAR EGGP 150420Z AUTO 14007KT 9999 SCT036/// 04/02 Q0999",
      "taf": "TAF EGGP 142303Z 1500/1524 16007KT 9999 SCT025"
    },
    {
      "icao": "EGGW",
      "alert": "OK",
      "vis_m": 9999,
      "fzfg": false,
      "metar_trigger": false,
      "taf_trigger": false,
      "metar": "METAR EGGW 150420Z AUTO 21010KT 170V230 9999 -RA OVC005 07/06 Q1003",
      "taf": "TAF EGGW 142257Z 1500/1524 21010KT 9999 SCT008 BKN020"
    },
    {
      "icao": "EGKK",
      "alert": "OK",
      "vis_m": 6000,
      "fzfg": false,
      "metar_trigger": false,
      "taf_trigger": false,
      "metar": "METAR EGKK 150420Z 20007KT 160V230 6000 -RADZ BKN006 08/08 Q1005",
      "taf": "TAF EGKK 142258Z 1500/1606 21009KT 9999 SCT010"
    },
    {
      "icao": "EGNM",
      "alert": "OK",
      "vis_m": null,
      "fzfg": false,
      "metar_trigger": false,
      "taf_trigger": false,
      "metar": "",
      "taf": "TAF EGNM 142302Z 1500/1524 15005KT 9999 SCT025"
    },
    {
      "icao": "EGPD",
      "alert": "OK",
      "vis_m": 9999,
      "fzfg": false,
      "metar_trigger": false,
      "taf_trigger": false,
      "metar": "METAR EGPD 150420Z AUTO 19007KT 170V230 9999 -RA SCT011/// BKN023/// BKN042/// //////CB 04/03 Q0992 TEMPO 4000 RADZ BKN008",
      "taf": ""
    },
    {
      "icao": "EGPF",
      "alert": "OK",
      "vis_m": 9999,
      "fzfg": false,
      "metar_trigger": false,
      "taf_trigger": false,
      "metar": "METAR EGPF 150420Z AUTO 21009KT 9999 FEW019/// SCT029/// //////TCU 06/05 Q0993",
      "taf": "TAF EGPF 142255Z 1500/1524 19009KT 9999 SCT018 BKN028"
    },
    {
      "icao": "EHBK",
      "alert": "OK",
      "vis_m": 9999,
      "fzfg": false,
      "metar_trigger": false,
      "taf_trigger": false,
      "metar": "METAR EHBK 150425Z AUTO 20012KT 9999 FEW049 09/07 Q1010",
      "taf": "TAF EHBK 142317Z 1500/1606 18010KT CAVOK"
    },
    {
      "icao": "EHEH",
      "alert": "OK",
      "vis_m": 9999,
      "fzfg": false,
      "metar_trigger": false,
      "taf_trigger": false,
      "metar": "METAR EHEH 150425Z AUTO 18009KT 9999 BKN026 OVC029 09/07 Q1009 BLU",
      "taf": "TAF EHEH 142338Z 1500/1606 17007KT CAVOK"
    },
    {
      "icao": "EKBI",
      "alert": "OK",
      "vis_m": 8000,
      "fzfg": false,
      "metar_trigger": false,
      "taf_trigger": false,
      "metar": "METAR EKBI 150420Z AUTO 14006KT 8000 SCT004/// 00/00 Q1010",
      "taf": "TAF EKBI 150227Z 1503/1603 15005KT 9999 BKN003"
    },
    {
      "icao": "EKCH",
      "alert": "OK",
      "vis_m": 200,
      "fzfg": false,
      "metar_trigger": false,
      "taf_trigger": false,
      "metar": "METAR EKCH 150420Z 14003KT 0200 R22L/0700N R04L/1300U R12/0550N FG VV002 00/00 Q1014 BECMG 9999 NSC",
      "taf": "TAF EKCH 150227Z 1503/1603 23008KT 0200 FG VV002"
    },
    {
      "icao": "ENAL",
      "alert": "OK",
      "vis_m": 9999,
      "fzfg": false,
      "metar_trigger": false,
      "taf_trigger": false,
      "metar": "METAR ENAL 150420Z AUTO 20007KT 9999 BKN049/// 06/00 Q0999",
      "taf": "TAF ENAL 150200Z 1503/1512 15008KT 9999 SCT045"
    },
    {
      "icao": "ENBR",
      "alert": "OK",
      "vis_m": 9999,
      "fzfg": false,
      "metar_trigger": false,
      "taf_trigger": false,
      "metar": "METAR ENBR 150420Z 14011KT 9999 FEW015 BKN019 04/03 Q1001 RMK WIND 1200FT 14025KT",
      "taf": "TAF ENBR 142300Z 1500/1524 14012KT 9999 -SHRA FEW015TCU BKN030"
    },
    {
      "icao": "ENGM",
      "alert": "OK",
      "vis_m": 650,
      "fzfg": true,
      "metar_trigger": false,
      "taf_trigger": false,
      "metar": "METAR ENGM 150420Z VRB01KT 0650 R19R/0900D R01R/1000N R19L/0750N R01L/0650D FZFG VV002 M08/M09 Q1007",
      "taf": "TAF ENGM 142300Z 1500/1524 VRB03KT 0300 FZFG VV001"
    },
    {
      "icao": "ENHD",
      "alert": "OK",
      "vis_m": 9999,
      "fzfg": false,
      "metar_trigger": false,
      "taf_trigger": false,
      "metar": "METAR ENHD 150420Z AUTO 14013KT 9999 FEW009/// BKN045/// 05/04 Q1002",
      "taf": "TAF ENHD 150200Z 1503/1512 14012KT 9999 -SHRA FEW020TCU BKN040"
    },
    {
      "icao": "ENTC",
      "alert": "OK",
      "vis_m": 9999,
      "fzfg": false,
      "metar_trigger": false,
      "taf_trigger": false,
      "metar": "METAR ENTC 150420Z AUTO VRB01KT 9999 NCD M07/M10 Q1007 RMK WIND 2600FT 17016KT",
      "taf": ""
    },
    {
      "icao": "ENTO",
      "alert": "OK",
      "vis_m": 9999,
      "fzfg": false,
      "metar_trigger": false,
      "taf_trigger": false,
      "metar": "METAR ENTO 150420Z AUTO 34003KT 9999 NCD M05/M05 Q1007",
      "taf": "TAF ENTO 142300Z 1500/1524 25008KT CAVOK"
    },
    {
      "icao": "ENVA",
      "alert": "OK",
      "vis_m": 9999,
      "fzfg": false,
      "metar_trigger": false,
      "taf_trigger": false,
      "metar": "METAR ENVA 150350Z AUTO 10005KT 9999 NCD M02/M05 Q1003 RMK WIND 670FT 12009KT",
      "taf": "TAF ENVA 142300Z 1500/1524 10007KT CAVOK"
    },
    {
      "icao": "ENZV",
      "alert": "OK",
      "vis_m": 9999,
      "fzfg": false,
      "metar_trigger": false,
      "taf_trigger": false,
      "metar": "METAR ENZV 150420Z 16013KT 9999 -SHRA FEW037 SCT044 05/02 Q1003",
      "taf": "TAF ENZV 142300Z 1500/1524 16012KT 9999 BKN025"
    },
    {
      "icao": "EPGD",
      "alert": "OK",
      "vis_m": 9000,
      "fzfg": false,
      "metar_trigger": false,
      "taf_trigger": false,
      "metar": "METAR EPGD 150400Z 26007KT 9000 SCT003 BKN025 01/01 Q1016",
      "taf": "TAF EPGD 142330Z 1500/1524 25010KT 8000 NSC"
    },
    {
      "icao": "EPKK",
      "alert": "OK",
      "vis_m": 2000,
      "fzfg": false,
      "metar_trigger": false,
      "taf_trigger": false,
      "metar": "METAR EPKK 150400Z 00000KT 2000 MIFG BR BKN034 M01/M01 Q1019",
      "taf": "TAF EPKK 150230Z 1503/1603 VRB02KT 7000 BKN013"
    },
    {
      "icao": "EPKT",
      "alert": "OK",
      "vis_m": 3900,
      "fzfg": false,
      "metar_trigger": false,
      "taf_trigger": false,
      "metar": "METAR EPKT 150400Z 23005KT 3900 BR OVC006 01/M00 Q1018",
      "taf": "TAF EPKT 142330Z 1500/1524 22006KT 4000 BR BKN004"
    },
    {
      "icao": "EPLB",
      "alert": "OK",
      "vis_m": 3900,
      "fzfg": false,
      "metar_trigger": false,
      "taf_trigger": false,
      "metar": "METAR EPLB 150400Z 06002KT 3900 -SN BR OVC003 M04/M04 Q1016",
      "taf": "TAF EPLB 142330Z 1500/1524 VRB02KT 3000 -SN BR BKN005 BKN010"
    },
    {
      "icao": "EPMO",
      "alert": "OK",
      "vis_m": 900,
      "fzfg": true,
      "metar_trigger": false,
      "taf_trigger": false,
      "metar": "METAR EPMO 150400Z VRB01KT 0900 R08/1400U FZFG BKN001 M02/M02 Q1017",
      "taf": "TAF EPMO 142330Z 1500/1524 VRB03KT 0800 FZFG BKN003"
    },
    {
      "icao": "EPPO",
      "alert": "OK",
      "vis_m": 150,
      "fzfg": true,
      "metar_trigger": false,
      "taf_trigger": false,
      "metar": "METAR EPPO 150400Z 20005KT 0150 R28/0600N FZFG VV001 M01/M02 Q1018",
      "taf": ""
    },
    {
      "icao": "EPRA",
      "alert": "OK",
      "vis_m": 8000,
      "fzfg": false,
      "metar_trigger": false,
      "taf_trigger": false,
      "metar": "METAR EPRA 150400Z 31010KT 8000 -DZ OVC003 02/01 Q1017",
      "taf": "TAF EPRA 150230Z 1503/1512 30008KT 4000 BR OVC004"
    },
    {
      "icao": "EPRZ",
      "alert": "OK",
      "vis_m": 2500,
      "fzfg": false,
      "metar_trigger": false,
      "taf_trigger": false,
      "metar": "METAR EPRZ 150400Z 27010KT 2500 BR OVC002 02/01 Q1018",
      "taf": ""
    },
    {
      "icao": "EPSC",
      "alert": "OK",
      "vis_m": 4000,
      "fzfg": false,
      "metar_trigger": false,
      "taf_trigger": false,
      "metar": "METAR EPSC 150400Z 12005KT 4000 BR NSC M03/M03 Q1016",
      "taf": "TAF EPSC 142330Z 1500/1524 25005KT 4000 BR NSC"
    },
    {
      "icao": "EPSY",
      "alert": "OK",
      "vis_m": 4200,
      "fzfg": false,
      "metar_trigger": false,
      "taf_trigger": false,
      "metar": "METAR EPSY 150400Z 16003KT 4200 BR OVC002 M06/M07 Q1017",
      "taf": "TAF EPSY 150230Z 1503/1512 VRB02KT 5000 BR BKN006"
    },
    {
      "icao": "EPWA",
      "alert": "OK",
      "vis_m": 3200,
      "fzfg": false,
      "metar_trigger": false,
      "taf_trigger": false,
      "metar": "METAR EPWA 150400Z 30006KT 3200 BR OVC002 01/01 Q1017 TEMPO 1200 BR",
      "taf": "TAF EPWA 150230Z 1503/1603 29005KT 1500 BR OVC005"
    },
    {
      "icao": "EPWR",
      "alert": "OK",
      "vis_m": 400,
      "fzfg": true,
      "metar_trigger": false,
      "taf_trigger": false,
      "metar": "METAR EPWR 150400Z 14004KT 0400 R29/0550D FZFG SCT014 M00/M00 Q1018",
      "taf": ""
    },
    {
      "icao": "ESGG",
      "alert": "OK",
      "vis_m": 300,
      "fzfg": false,
      "metar_trigger": false,
      "taf_trigger": false,
      "metar": "METAR ESGG 150420Z 18006KT 0300 R03/1100U R21/P2000N BR FEW006 SCT180 01/00 Q1010",
      "taf": ""
    },
    {
      "icao": "ESKN",
      "alert": "OK",
      "vis_m": 9999,
      "fzfg": false,
      "metar_trigger": false,
      "taf_trigger": false,
      "metar": "METAR ESKN 150420Z 24007KT 9999 OVC017 01/01 Q1010",
      "taf": "TAF ESKN 150230Z 1503/1603 22006KT 9999 OVC020"
    },
    {
      "icao": "ESMS",
      "alert": "OK",
      "vis_m": 400,
      "fzfg": true,
      "metar_trigger": false,
      "taf_trigger": false,
      "metar": "METAR ESMS 150420Z 20004KT 0400 R17/1300N R35/1600N FG VV002 01/01 Q1013",
      "taf": "TAF ESMS 150227Z 1503/1603 23008KT 0400 FZFG VV002"
    },
    {
      "icao": "ESSA",
      "alert": "OK",
      "vis_m": 9999,
      "fzfg": false,
      "metar_trigger": false,
      "taf_trigger": false,
      "metar": "METAR ESSA 150420Z 27009KT 9999 BKN008 00/M01 Q1008 TEMPO BKN009",
      "taf": "TAF ESSA 150230Z 1503/1603 21009KT 9999 SCT012 BKN016"
    },
    {
      "icao": "EYKA",
      "alert": "OK",
      "vis_m": 3800,
      "fzfg": false,
      "metar_trigger": false,
      "taf_trigger": false,
      "metar": "METAR EYKA 150420Z 15009KT 120V230 3800 -SN BR FEW040 M11/M13 Q1019",
      "taf": ""
    },
    {
      "icao": "EYPA",
      "alert": "OK",
      "vis_m": 7000,
      "fzfg": false,
      "metar_trigger": false,
      "taf_trigger": false,
      "metar": "METAR EYPA 150420Z 15009KT 120V180 7000 -SHSN BKN007CB M07/M08 Q1016",
      "taf": ""
    },
    {
      "icao": "EYVI",
      "alert": "OK",
      "vis_m": 8000,
      "fzfg": false,
      "metar_trigger": false,
      "taf_trigger": false,
      "metar": "METAR EYVI 150420Z 16007KT 8000 NSC M16/M17 Q1020 NOSIG",
      "taf": "TAF EYVI 142300Z 1500/1524 15010KT 8000 SCT015"
    },
    {
      "icao": "GCFV",
      "alert": "OK",
      "vis_m": 9999,
      "fzfg": false,
      "metar_trigger": false,
      "taf_trigger": false,
      "metar": "METAR GCFV 150400Z AUTO 35011KT 9999 FEW032 SCT038 BKN044 16/09 Q1022",
      "taf": "TAF GCFV 150200Z 1503/1603 34008KT 9999 SCT030 TX20/1514Z TN14/1506Z"
    },
    {
      "icao": "GCLP",
      "alert": "OK",
      "vis_m": 9999,
      "fzfg": false,
      "metar_trigger": false,
      "taf_trigger": false,
      "metar": "METAR GCLP 150400Z 36010KT 9999 BKN030 16/11 Q1023 NOSIG",
      "taf": "TAF GCLP 150200Z 1503/1603 36015KT 9999 BKN030 TX20/1514Z TN15/1506Z"
    },
    {
      "icao": "GCTS",
      "alert": "OK",
      "vis_m": 9999,
      "fzfg": false,
      "metar_trigger": false,
      "taf_trigger": false,
      "metar": "METAR GCTS 150400Z 04010KT 9999 FEW040 17/09 Q1023 NOSIG",
      "taf": "TAF GCTS 150200Z 1503/1603 03007KT 9999 FEW040 TX22/1514Z TN14/1506Z"
    },
    {
      "icao": "GMAD",
      "alert": "OK",
      "vis_m": 9999,
      "fzfg": false,
      "metar_trigger": false,
      "taf_trigger": false,
      "metar": "METAR GMAD 150400Z 10005KT 9999 SCT026 09/09 Q1020 NOSIG",
      "taf": "TAF GMAD 142300Z 1500/1606 06006KT 8000 SCT020"
    },
    {
      "icao": "GMMN",
      "alert": "OK",
      "vis_m": 9999,
      "fzfg": false,
      "metar_trigger": false,
      "taf_trigger": false,
      "metar": "METAR GMMN 150400Z 16005KT 9999 SCT020 06/05 Q1022 NOSIG",
      "taf": "TAF GMMN 142300Z 1500/1606 20004KT 8000 SCT020 SCT080"
    },
    {
      "icao": "GMMX",
      "alert": "OK",
      "vis_m": 9999,
      "fzfg": false,
      "metar_trigger": false,
      "taf_trigger": false,
      "metar": "METAR GMMX 150400Z 10003KT 9999 SCT026 07/07 Q1021 NOSIG",
      "taf": "TAF GMMX 142300Z 1500/1606 12006KT 8000 SCT026 SCT080"
    },
    {
      "icao": "HEGN",
      "alert": "OK",
      "vis_m": 9999,
      "fzfg": false,
      "metar_trigger": false,
      "taf_trigger": false,
      "metar": "METAR HEGN 150400Z 29012KT CAVOK 13/06 Q1023 NOSIG",
      "taf": "TAF HEGN 142300Z 1500/1606 30010G20KT CAVOK"
    },
    {
      "icao": "HEMA",
      "alert": "OK",
      "vis_m": 9999,
      "fzfg": false,
      "metar_trigger": false,
      "taf_trigger": false,
      "metar": "METAR HEMA 150400Z 30017KT CAVOK 17/07 Q1020 NOSIG",
      "taf": "TAF HEMA 142300Z 1500/1606 32010G20KT CAVOK"
    },
    {
      "icao": "HESH",
      "alert": "OK",
      "vis_m": 9999,
      "fzfg": false,
      "metar_trigger": false,
      "taf_trigger": false,
      "metar": "METAR HESH 150400Z 35012KT CAVOK 15/03 Q1023 NOSIG",
      "taf": "TAF HESH 142300Z 1500/1606 33010KT CAVOK"
    },
    {
      "icao": "HESX",
      "alert": "OK",
      "vis_m": 9999,
      "fzfg": false,
      "metar_trigger": false,
      "taf_trigger": false,
      "metar": "METAR HESX 150400Z 21004KT CAVOK 07/04 Q1024 NOSIG",
      "taf": "TAF HESX 142300Z 1500/1606 01008KT CAVOK"
    },
    {
      "icao": "LATI",
      "alert": "OK",
      "vis_m": 7000,
      "fzfg": false,
      "metar_trigger": false,
      "taf_trigger": false,
      "metar": "METAR LATI 150420Z 15003KT 7000 NSC 02/00 Q1026 NOSIG",
      "taf": ""
    },
    {
      "icao": "LBPD",
      "alert": "OK",
      "vis_m": 9000,
      "fzfg": false,
      "metar_trigger": false,
      "taf_trigger": false,
      "metar": "METAR LBPD 150430Z AUTO 00000KT 9000 OVC076/// 01/01 Q1021 NOSIG",
      "taf": "TAF LBPD 142300Z 1500/1524 VRB04KT 5000 BR BKN015"
    },
    {
      "icao": "LBSF",
      "alert": "OK",
      "vis_m": 7000,
      "fzfg": false,
      "metar_trigger": false,
      "taf_trigger": false,
      "metar": "METAR LBSF 150430Z 00000KT 7000 SCT036 M01/M02 Q1022 TEMPO 5000 BR",
      "taf": "TAF LBSF 142300Z 1500/1524 VRB04KT 3000 BR BKN010"
    },
    {
      "icao": "LBWN",
      "alert": "OK",
      "vis_m": 7000,
      "fzfg": false,
      "metar_trigger": false,
      "taf_trigger": false,
      "metar": "METAR LBWN 150430Z AUTO 32004KT 7000 NSC 04/03 Q1019 TEMPO 4000 BR",
      "taf": "TAF LBWN 142300Z 1500/1524 VRB03KT 6000 BKN030"
    },
    {
      "icao": "LCLK",
      "alert": "OK",
      "vis_m": 9999,
      "fzfg": false,
      "metar_trigger": false,
      "taf_trigger": false,
      "metar": "METAR LCLK 150400Z 31007KT CAVOK 06/03 Q1024 NOSIG",
      "taf": "TAF LCLK 142330Z 1500/1600 32006KT 9999 FEW025"
    },
    {
      "icao": "LCPH",
      "alert": "OK",
      "vis_m": 9999,
      "fzfg": false,
      "metar_trigger": false,
      "taf_trigger": false,
      "metar": "METAR LCPH 150400Z 01009KT 010V080 9999 BKN043 09/03 Q1023 NOSIG",
      "taf": "TAF LCPH 142330Z 1500/1600 01007KT 9999 FEW020"
    },
    {
      "icao": "LEAL",
      "alert": "OK",
      "vis_m": 9999,
      "fzfg": false,
      "metar_trigger": false,
      "taf_trigger": false,
      "metar": "METAR LEAL 150400Z 27005KT CAVOK 09/06 Q1019 NOSIG",
      "taf": "TAF LEAL 142300Z 1500/1524 VRB04KT CAVOK TX17/1513Z TN07/1506Z"
    },
    {
      "icao": "LEBB",
      "alert": "OK",
      "vis_m": 9999,
      "fzfg": false,
      "metar_trigger": false,
      "taf_trigger": false,
      "metar": "METAR LEBB 150400Z 14003KT 070V210 CAVOK 09/04 Q1014 NOSIG",
      "taf": "TAF LEBB 142300Z 1500/1524 20009KT 9999 FEW025 TX13/1512Z TN06/1502Z"
    },
    {
      "icao": "LEBL",
      "alert": "OK",
      "vis_m": 1700,
      "fzfg": false,
      "metar_trigger": false,
      "taf_trigger": false,
      "metar": "SPECI LEBL 150417Z 33007KT 300V010 1700 0700E PRFG FEW001 08/07 Q1018 NOSIG",
      "taf": ""
    },
    {
      "icao": "LECH",
      "alert": "OK",
      "vis_m": 9000,
      "fzfg": false,
      "metar_trigger": false,
      "taf_trigger": false,
      "metar": "METAR LECH 150400Z AUTO 18004KT 9000 FEW060 05/03 Q1019",
      "taf": ""
    },
    {
      "icao": "LEMD",
      "alert": "OK",
      "vis_m": 800,
      "fzfg": false,
      "metar_trigger": false,
      "taf_trigger": false,
      "metar": "SPECI LEMD 150414Z 32002KT 0800 0300E R32R/0900U FG VV002 01/01 Q1019 NOSIG",
      "taf": ""
    },
    {
      "icao": "LEMG",
      "alert": "OK",
      "vis_m": 9999,
      "fzfg": false,
      "metar_trigger": false,
      "taf_trigger": false,
      "metar": "METAR LEMG 150400Z 29008KT CAVOK 08/06 Q1020 NOSIG",
      "taf": "TAF LEMG 142300Z 1500/1524 29006KT 9999 FEW030 TX18/1514Z TN07/1507Z"
    },
    {
      "icao": "LEVC",
      "alert": "OK",
      "vis_m": 9999,
      "fzfg": false,
      "metar_trigger": false,
      "taf_trigger": false,
      "metar": "METAR LEVC 150400Z 25003KT CAVOK 05/04 Q1019 NOSIG",
      "taf": "TAF LEVC 142300Z 1500/1524 VRB04KT CAVOK TX18/1512Z TN05/1506Z"
    },
    {
      "icao": "LEXJ",
      "alert": "OK",
      "vis_m": 8000,
      "fzfg": false,
      "metar_trigger": false,
      "taf_trigger": false,
      "metar": "METAR LEXJ 150400Z AUTO 12003KT 050V210 8000 NSC 09/06 Q1012",
      "taf": "TAF LEXJ 150200Z 1503/1603 21009KT 9999 FEW040 TX14/1511Z TN09/1503Z"
    },
    {
      "icao": "LEZG",
      "alert": "OK",
      "vis_m": 6000,
      "fzfg": false,
      "metar_trigger": false,
      "taf_trigger": false,
      "metar": "SPECI LEZG 150409Z VRB04KT 6000 FEW001 02/02 Q1019 NOSIG",
      "taf": ""
    },
    {
      "icao": "LEZL",
      "alert": "OK",
      "vis_m": 9999,
      "fzfg": false,
      "metar_trigger": false,
      "taf_trigger": false,
      "metar": "METAR LEZL 150400Z AUTO 13003KT 9999 3300W NCD 06/06 Q1021",
      "taf": "TAF LEZL 150200Z 1503/1603 VRB02KT 9999 FEW030 TX14/1515Z TN06/1507Z"
    },
    {
      "icao": "LFBD",
      "alert": "OK",
      "vis_m": 2400,
      "fzfg": false,
      "metar_trigger": false,
      "taf_trigger": false,
      "metar": "METAR LFBD 150400Z AUTO 16005KT 2400 0900 R23/1500D R05/1500U R29/P2300 BCFG FEW007 BKN036 BKN250 08/08 Q1016 TEMPO 0500 FG VV///",
      "taf": "TAF LFBD 142300Z 1500/1606 18005KT 6000 NSC TX13/1514Z TN05/1506Z"
    },
    {
      "icao": "LFLL",
      "alert": "OK",
      "vis_m": 9999,
      "fzfg": false,
      "metar_trigger": false,
      "taf_trigger": false,
      "metar": "METAR LFLL 150400Z 19009KT 9999 -RA BKN050 11/07 Q1018 NOSIG",
      "taf": "TAF LFLL 142300Z 1500/1606 19010KT CAVOK"
    },
    {
      "icao": "LFLS",
      "alert": "OK",
      "vis_m": 9999,
      "fzfg": false,
      "metar_trigger": false,
      "taf_trigger": false,
      "metar": "METAR LFLS 150400Z AUTO 07006KT 9999 OVC062 05/03 Q1019 TEMPO 0800 BCFG",
      "taf": "TAF LFLS 150200Z 1503/1603 09005KT CAVOK"
    },
    {
      "icao": "LFMN",
      "alert": "OK",
      "vis_m": 9999,
      "fzfg": false,
      "metar_trigger": false,
      "taf_trigger": false,
      "metar": "METAR LFMN 150400Z 33011KT CAVOK 09/04 Q1020 NOSIG",
      "taf": "TAF LFMN 150200Z 1503/1609 34010KT CAVOK"
    },
    {
      "icao": "LFOB",
      "alert": "OK",
      "vis_m": 8000,
      "fzfg": false,
      "metar_trigger": false,
      "taf_trigger": false,
      "metar": "METAR LFOB 150400Z AUTO 21012KT 8000 -DZ OVC006 10/09 Q1010 TEMPO 4000 -RADZ",
      "taf": ""
    },
    {
      "icao": "LFPO",
      "alert": "OK",
      "vis_m": 9999,
      "fzfg": false,
      "metar_trigger": false,
      "taf_trigger": false,
      "metar": "METAR LFPO 150400Z AUTO 22012KT 9999 -DZ BKN014 BKN019 BKN027 09/08 Q1012 TEMPO BKN009",
      "taf": "TAF LFPO 142300Z 1500/1606 19012KT 9999 BKN025"
    },
    {
      "icao": "LFSB",
      "alert": "OK",
      "vis_m": 9999,
      "fzfg": false,
      "metar_trigger": false,
      "taf_trigger": false,
      "metar": "METAR LFSB 150400Z AUTO 17005KT 9999 OVC038 05/03 Q1017 NOSIG",
      "taf": "TAF LFSB 142300Z 1500/1524 18004KT 9999 OVC045"
    },
    {
      "icao": "LGAV",
      "alert": "OK",
      "vis_m": 9999,
      "fzfg": false,
      "metar_trigger": false,
      "taf_trigger": false,
      "metar": "METAR LGAV 150420Z VRB02KT 9999 FEW035 05/03 Q1024 NOSIG",
      "taf": "TAF LGAV 142300Z 1500/1524 VRB05KT 9999 FEW016 SCT025"
    },
    {
      "icao": "LGTS",
      "alert": "OK",
      "vis_m": 9999,
      "fzfg": false,
      "metar_trigger": false,
      "taf_trigger": false,
      "metar": "METAR LGTS 150420Z 11004KT CAVOK 00/00 Q1025 NOSIG",
      "taf": "TAF LGTS 142300Z 1500/1524 VRB03KT 9999 FEW030"
    },
    {
      "icao": "LHBP",
      "alert": "OK",
      "vis_m": 3600,
      "fzfg": true,
      "metar_trigger": false,
      "taf_trigger": false,
      "metar": "METAR LHBP 150400Z VRB02KT 3600 BR SCT003 SCT068 BKN080 M04/M04 Q1021 TEMPO 0800 FZFG BKN002",
      "taf": ""
    },
    {
      "icao": "LHDC",
      "alert": "OK",
      "vis_m": 1100,
      "fzfg": false,
      "metar_trigger": false,
      "taf_trigger": false,
      "metar": "METAR LHDC 150345Z AUTO VRB01KT 1100 R04/1200U -FZRA BR SCT001 BKN022 M03/M03 Q1021",
      "taf": ""
    },
    {
      "icao": "LIBD",
      "alert": "OK",
      "vis_m": 9999,
      "fzfg": false,
      "metar_trigger": false,
      "taf_trigger": false,
      "metar": "METAR LIBD 150420Z 24005KT CAVOK 02/02 Q1023",
      "taf": "TAF LIBD 142300Z 1500/1524 VRB06KT 9999 FEW040"
    },
    {
      "icao": "LIBG",
      "alert": "OK",
      "vis_m": null,
      "fzfg": false,
      "metar_trigger": false,
      "taf_trigger": false,
      "metar": "",
      "taf": "TAF LIBG 141700Z 1418/1503 16007KT 9999 FEW030"
    },
    {
      "icao": "LIBP",
      "alert": "OK",
      "vis_m": 9999,
      "fzfg": false,
      "metar_trigger": false,
      "taf_trigger": false,
      "metar": "METAR LIBP 150420Z AUTO 21004KT 9999 NCD 01/01 Q1023",
      "taf": "TAF LIBP 142300Z 1500/1524 VRB05KT 7000 NSC"
    },
    {
      "icao": "LIBR",
      "alert": "OK",
      "vis_m": 7000,
      "fzfg": false,
      "metar_trigger": false,
      "taf_trigger": false,
      "metar": "METAR LIBR 150420Z 18002KT 7000 NSC 06/05 Q1024",
      "taf": "TAF LIBR 142300Z 1500/1524 VRB06KT 9999 FEW025"
    },
    {
      "icao": "LICA",
      "alert": "OK",
      "vis_m": 9999,
      "fzfg": false,
      "metar_trigger": false,
      "taf_trigger": false,
      "metar": "METAR LICA 150420Z AUTO 08007KT 9999 NCD 02/01 Q1024",
      "taf": "TAF LICA 142300Z 1500/1524 VRB05KT CAVOK"
    },
    {
      "icao": "LICC",
      "alert": "OK",
      "vis_m": 9999,
      "fzfg": false,
      "metar_trigger": false,
      "taf_trigger": false,
      "metar": "METAR LICC 150420Z 23007KT 9999 BKN030 08/04 Q1023",
      "taf": "TAF LICC 142300Z 1500/1524 25010KT 9999 FEW040"
    },
    {
      "icao": "LICJ",
      "alert": "OK",
      "vis_m": 9999,
      "fzfg": false,
      "metar_trigger": false,
      "taf_trigger": false,
      "metar": "METAR LICJ 150420Z 07007KT CAVOK 11/08 Q1021",
      "taf": "TAF LICJ 142300Z 1500/1524 VRB06KT CAVOK"
    },
    {
      "icao": "LIMC",
      "alert": "OK",
      "vis_m": 4000,
      "fzfg": false,
      "metar_trigger": false,
      "taf_trigger": false,
      "metar": "METAR LIMC 150420Z VRB02KT 4000 R35R/1300U R17L/P2000N R35L/1800D -RA BR BKN040 04/04 Q1022 NOSIG",
      "taf": "TAF LIMC 142300Z 1500/1606 VRB05KT 8000 BKN040"
    },
    {
      "icao": "LIME",
      "alert": "OK",
      "vis_m": 3000,
      "fzfg": false,
      "metar_trigger": false,
      "taf_trigger": false,
      "metar": "METAR LIME 150420Z 17002KT 3000 -RA BR SCT010 BKN035 05/05 Q1021 NOSIG",
      "taf": "TAF LIME 142300Z 1500/1524 VRB04KT 4000 BR FEW005 BKN040"
    },
    {
      "icao": "LIMF",
      "alert": "OK",
      "vis_m": 9999,
      "fzfg": false,
      "metar_trigger": false,
      "taf_trigger": false,
      "metar": "METAR LIMF 150420Z 29003KT CAVOK 04/00 Q1021",
      "taf": "TAF LIMF 142300Z 1500/1524 VRB03KT 8000 SCT050"
    },
    {
      "icao": "LIMJ",
      "alert": "OK",
      "vis_m": 9999,
      "fzfg": false,
      "metar_trigger": false,
      "taf_trigger": false,
      "metar": "METAR LIMJ 150420Z 06009KT 9999 SCT050 11/07 Q1020",
      "taf": "TAF LIMJ 142300Z 1500/1524 VRB06KT 9999 BKN020"
    },
    {
      "icao": "LIPE",
      "alert": "OK",
      "vis_m": 3000,
      "fzfg": false,
      "metar_trigger": false,
      "taf_trigger": false,
      "metar": "METAR LIPE 150420Z VRB02KT 3000 BR OVC055 04/04 Q1022",
      "taf": "TAF LIPE 142300Z 1500/1524 VRB04KT 4000 BR SCT020 BKN060"
    },
    {
      "icao": "LIPH",
      "alert": "OK",
      "vis_m": 5000,
      "fzfg": false,
      "metar_trigger": false,
      "taf_trigger": false,
      "metar": "METAR LIPH 150420Z AUTO 00000KT 5000 BR OVC210/// 01/00 Q1022",
      "taf": "TAF LIPH 142300Z 1500/1524 VRB04KT 3000 BR SCT040"
    },
    {
      "icao": "LIPQ",
      "alert": "OK",
      "vis_m": 2900,
      "fzfg": false,
      "metar_trigger": false,
      "taf_trigger": false,
      "metar": "METAR LIPQ 150420Z AUTO 35002KT 2900 BR OVC019/// 06/06 Q1022",
      "taf": "TAF LIPQ 142300Z 1500/1524 VRB04KT 2000 BR BKN030"
    },
    {
      "icao": "LIPR",
      "alert": "OK",
      "vis_m": 4400,
      "fzfg": false,
      "metar_trigger": false,
      "taf_trigger": false,
      "metar": "METAR LIPR 150420Z AUTO 17001KT 4400 BR OVC060/// 06/04 Q1022",
      "taf": "TAF LIPR 142300Z 1500/1524 VRB05KT 3000 BR BKN050"
    },
    {
      "icao": "LIPX",
      "alert": "OK",
      "vis_m": 6000,
      "fzfg": false,
      "metar_trigger": false,
      "taf_trigger": false,
      "metar": "METAR LIPX 150420Z 02004KT 6000 BKN060 03/03 Q1022",
      "taf": "TAF LIPX 142300Z 1500/1524 VRB04KT 3000 BR FEW010 BKN050"
    },
    {
      "icao": "LIPY",
      "alert": "OK",
      "vis_m": 6000,
      "fzfg": false,
      "metar_trigger": false,
      "taf_trigger": false,
      "metar": "METAR LIPY 150420Z AUTO 12001KT 6000 OVC057/// 08/06 Q1022",
      "taf": "TAF LIPY 142300Z 1500/1524 VRB05KT 3000 BR BKN060"
    },
    {
      "icao": "LIPZ",
      "alert": "OK",
      "vis_m": 9000,
      "fzfg": false,
      "metar_trigger": false,
      "taf_trigger": false,
      "metar": "METAR LIPZ 150420Z 32003KT 9000 BKN070 04/02 Q1022 NOSIG",
      "taf": "TAF LIPZ 142300Z 1500/1606 VRB04KT 4000 BR SCT040"
    },
    {
      "icao": "LIRF",
      "alert": "OK",
      "vis_m": 9999,
      "fzfg": false,
      "metar_trigger": false,
      "taf_trigger": false,
      "metar": "METAR LIRF 150420Z 09005KT 9999 SCT055 12/07 Q1022 NOSIG",
      "taf": "TAF LIRF 142300Z 1500/1606 09007KT 9999 SCT040"
    },
    {
      "icao": "LIRN",
      "alert": "OK",
      "vis_m": 9999,
      "fzfg": false,
      "metar_trigger": false,
      "taf_trigger": false,
      "metar": "METAR LIRN 150420Z 30002KT CAVOK 08/06 Q1023 NOSIG",
      "taf": "TAF LIRN 142300Z 1500/1524 VRB05KT 9999 SCT040"
    },
    {
      "icao": "LIRP",
      "alert": "OK",
      "vis_m": 9999,
      "fzfg": false,
      "metar_trigger": false,
      "taf_trigger": false,
      "metar": "METAR LIRP 150415Z VRB02KT 9999 -RA SCT025 SCT040 11/11 Q1020 NOSIG",
      "taf": "TAF LIRP 142300Z 1500/1524 12005KT 9999 SCT030 BKN060"
    },
    {
      "icao": "LIRZ",
      "alert": "OK",
      "vis_m": 9999,
      "fzfg": false,
      "metar_trigger": false,
      "taf_trigger": false,
      "metar": "METAR LIRZ 150420Z AUTO VRB01KT 9999 OVC050/// 09/07 Q1022",
      "taf": "TAF LIRZ 142300Z 1500/1524 VRB05KT 9999 BKN040"
    },
    {
      "icao": "LJLJ",
      "alert": "OK",
      "vis_m": 9999,
      "fzfg": false,
      "metar_trigger": false,
      "taf_trigger": false,
      "metar": "METAR LJLJ 150400Z VRB01KT 9999 MIFG FEW007 SCT050 M04/M04 Q1021 NOSIG",
      "taf": "TAF LJLJ 142300Z 1500/1600 30003KT 9999 FEW020"
    },
    {
      "icao": "LKMT",
      "alert": "OK",
      "vis_m": 6000,
      "fzfg": false,
      "metar_trigger": false,
      "taf_trigger": false,
      "metar": "METAR LKMT 150400Z 23009KT 6000 OVC015 M01/M02 Q1019 NOSIG",
      "taf": "TAF LKMT 142300Z 1500/1524 23014KT 8000 BKN025"
    },
    {
      "icao": "LKPR",
      "alert": "OK",
      "vis_m": 1400,
      "fzfg": false,
      "metar_trigger": false,
      "taf_trigger": false,
      "metar": "METAR LKPR 150400Z VRB01KT 1400 R24/P2000N R30/1500N -DZ BR BKN017 OVC023 02/02 Q1017 NOSIG",
      "taf": "TAF LKPR 150200Z 1503/1609 20008KT 9999 SCT012 BKN027"
    },
    {
      "icao": "LLBG",
      "alert": "OK",
      "vis_m": 9999,
      "fzfg": false,
      "metar_trigger": false,
      "taf_trigger": false,
      "metar": "METAR LLBG 150420Z VRB03KT 9999 FEW050 09/07 Q1024 NOSIG",
      "taf": "TAF LLBG 142317Z 1500/1524 VRB04KT 9999 SCT045"
    },
    {
      "icao": "LMML",
      "alert": "OK",
      "vis_m": 9999,
      "fzfg": false,
      "metar_trigger": false,
      "taf_trigger": false,
      "metar": "METAR LMML 150415Z 15007KT 9999 FEW022 14/11 Q1022 NOSIG",
      "taf": "TAF LMML 142300Z 1500/1524 16010KT 9999 SCT020"
    },
    {
      "icao": "LOWW",
      "alert": "OK",
      "vis_m": 500,
      "fzfg": true,
      "metar_trigger": false,
      "taf_trigger": false,
      "metar": "METAR LOWW 150420Z 16004KT 0500 R29/0600U FZFG VV001 M03/M03 Q1020 NOSIG",
      "taf": "TAF LOWW 150215Z 1503/1609 15004KT 0700 FZFG SCT001 OVC002 TXM00/1607Z TNM02/1503Z"
    },
    {
      "icao": "LPFR",
      "alert": "OK",
      "vis_m": 9999,
      "fzfg": false,
      "metar_trigger": false,
      "taf_trigger": false,
      "metar": "METAR LPFR 150400Z 35002KT CAVOK 08/07 Q1021",
      "taf": "TAF LPFR 142300Z 1500/1524 01005KT 9999 FEW012"
    },
    {
      "icao": "LPMA",
      "alert": "OK",
      "vis_m": 9999,
      "fzfg": false,
      "metar_trigger": false,
      "taf_trigger": false,
      "metar": "METAR LPMA 150400Z 33007KT 300V010 9999 BKN015 15/07 Q1025",
      "taf": "TAF LPMA 142300Z 1500/1524 32007KT 9999 SCT015"
    },
    {
      "icao": "LPPR",
      "alert": "OK",
      "vis_m": 9999,
      "fzfg": false,
      "metar_trigger": false,
      "taf_trigger": false,
      "metar": "METAR LPPR 150400Z 17010KT 9999 BKN032 11/08 Q1017",
      "taf": "TAF LPPR 142300Z 1500/1524 13007KT 9999 SCT018 BKN030"
    },
    {
      "icao": "LPPS",
      "alert": "OK",
      "vis_m": 9999,
      "fzfg": false,
      "metar_trigger": false,
      "taf_trigger": false,
      "metar": "METAR LPPS 150400Z 31005KT 9999 SCT015 BKN030 15/08 Q1025",
      "taf": "TAF LPPS 142300Z 1500/1606 34007KT 9999 SCT015"
    },
    {
      "icao": "LPPT",
      "alert": "OK",
      "vis_m": 9999,
      "fzfg": false,
      "metar_trigger": false,
      "taf_trigger": false,
      "metar": "METAR LPPT 150400Z 17005KT 9999 BKN042 10/09 Q1020",
      "taf": "TAF LPPT 142300Z 1500/1606 VRB02KT 9999 BKN035"
    },
    {
      "icao": "LQBK",
      "alert": "OK",
      "vis_m": 9999,
      "fzfg": false,
      "metar_trigger": false,
      "taf_trigger": false,
      "metar": "METAR LQBK 150400Z 16006KT CAVOK 04/02 Q1021 NOSIG",
      "taf": "TAF LQBK 142300Z 1500/1524 21007KT CAVOK TX10/1513Z TN02/1505Z"
    },
    {
      "icao": "LQSA",
      "alert": "OK",
      "vis_m": 5000,
      "fzfg": false,
      "metar_trigger": false,
      "taf_trigger": false,
      "metar": "METAR LQSA 150400Z VRB02KT 5000 BR NSC 01/01 Q1023",
      "taf": "TAF LQSA 142300Z 1500/1524 VRB02KT 8000 FEW045 TX06/1514Z TNM02/1506Z"
    },
    {
      "icao": "LQTZ",
      "alert": "OK",
      "vis_m": 9999,
      "fzfg": false,
      "metar_trigger": false,
      "taf_trigger": false,
      "metar": "METAR LQTZ 150400Z 32002KT 9999 FEW045 BKN068 01/01 Q1022",
      "taf": "TAF LQTZ 142300Z 1500/1524 VRB02KT 9999 SCT040 TX08/1513Z TN00/1505Z"
    },
    {
      "icao": "LRBC",
      "alert": "OK",
      "vis_m": 7000,
      "fzfg": false,
      "metar_trigger": false,
      "taf_trigger": false,
      "metar": "METAR LRBC 150400Z 02002KT 7000 SCT006 OVC050 M03/M04 Q1018",
      "taf": "TAF LRBC 150200Z 1503/1512 VRB04KT 5000 BR BKN010 BKN055"
    },
    {
      "icao": "LRBS",
      "alert": "OK",
      "vis_m": 6000,
      "fzfg": false,
      "metar_trigger": false,
      "taf_trigger": false,
      "metar": "METAR LRBS 150400Z 27009KT 6000 NSC M04/M05 Q1018 NOSIG",
      "taf": "TAF LRBS 142300Z 1500/1524 24010KT 5000 BR NSC"
    },
    {
      "icao": "LRBV",
      "alert": "OK",
      "vis_m": 4800,
      "fzfg": false,
      "metar_trigger": false,
      "taf_trigger": false,
      "metar": "METAR LRBV 150400Z AUTO 00000KT 4800 UP OVC009/// 02/01 Q1018",
      "taf": "TAF LRBV 150200Z 1503/1512 VRB04KT 5000 BR BKN015 OVC020"
    },
    {
      "icao": "LRCL",
      "alert": "OK",
      "vis_m": 800,
      "fzfg": true,
      "metar_trigger": false,
      "taf_trigger": false,
      "metar": "METAR LRCL 150400Z 00000KT 0800 R25/0900U -SN FZFG VV002 M02/M02 Q1020",
      "taf": "TAF LRCL 150200Z 1503/1512 VRB03KT 0500 FZFG OVC002"
    },
    {
      "icao": "LRCV",
      "alert": "OK",
      "vis_m": 300,
      "fzfg": true,
      "metar_trigger": false,
      "taf_trigger": false,
      "metar": "METAR LRCV 150400Z 30002KT 0300 R26/0225N FZFG VV001 M04/M04 Q1019",
      "taf": "TAF LRCV 150200Z 1503/1512 26006KT 0200 FZFG VV001"
    },
    {
      "icao": "LRIA",
      "alert": "OK",
      "vis_m": 2000,
      "fzfg": false,
      "metar_trigger": false,
      "taf_trigger": false,
      "metar": "METAR LRIA 150400Z 36005KT 2000 -SN SCT005 OVC020 M05/M05 Q1019",
      "taf": "TAF LRIA 150200Z 1503/1512 VRB04KT 3000 -SN SCT010 OVC025"
    },
    {
      "icao": "LROP",
      "alert": "OK",
      "vis_m": 6000,
      "fzfg": false,
      "metar_trigger": false,
      "taf_trigger": false,
      "metar": "METAR LROP 150400Z 26010KT 6000 NSC M04/M06 Q1018 NOSIG",
      "taf": "TAF LROP 142300Z 1500/1524 24010KT 5000 BR NSC"
    },
    {
      "icao": "LRSB",
      "alert": "OK",
      "vis_m": 9999,
      "fzfg": false,
      "metar_trigger": false,
      "taf_trigger": false,
      "metar": "METAR LRSB 150400Z 14004KT 9999 BKN045 BKN075 02/01 Q1018",
      "taf": "TAF LRSB 142300Z 1500/1524 VRB04KT 5000 BR SCT010 OVC035"
    },
    {
      "icao": "LRSM",
      "alert": "OK",
      "vis_m": 2000,
      "fzfg": false,
      "metar_trigger": false,
      "taf_trigger": false,
      "metar": "METAR LRSM 150400Z AUTO 27004KT 2000 -SN VV002 M01/M01 Q1021",
      "taf": "TAF LRSM 150200Z 1503/1512 VRB04KT 3000 -SN BR BKN005 OVC020"
    },
    {
      "icao": "LRSV",
      "alert": "OK",
      "vis_m": 6000,
      "fzfg": false,
      "metar_trigger": false,
      "taf_trigger": false,
      "metar": "METAR LRSV 150400Z 04003KT 6000 -SN BKN008 OVC024 M07/M08 Q1016",
      "taf": "TAF LRSV 150200Z 1503/1512 VRB04KT 5000 -SN BR SCT015 OVC040"
    },
    {
      "icao": "LRTM",
      "alert": "OK",
      "vis_m": 3100,
      "fzfg": false,
      "metar_trigger": false,
      "taf_trigger": false,
      "metar": "METAR LRTM 150400Z AUTO 25003KT 3100 -SN BKN003/// OVC006/// M02/M02 Q1020",
      "taf": "TAF LRTM 150200Z 1503/1512 VRB03KT 5000 BR BKN010 OVC025"
    },
    {
      "icao": "LRTR",
      "alert": "OK",
      "vis_m": 1500,
      "fzfg": true,
      "metar_trigger": false,
      "taf_trigger": false,
      "metar": "METAR LRTR 150400Z 12003KT 1500 BR NSC M01/M01 Q1021 TEMPO 0800 FZFG",
      "taf": "TAF LRTR 142300Z 1500/1524 VRB04KT 3000 BR SCT035"
    },
    {
      "icao": "LTAC",
      "alert": "OK",
      "vis_m": 6000,
      "fzfg": false,
      "metar_trigger": false,
      "taf_trigger": false,
      "metar": "METAR LTAC 150420Z 23008KT 6000 SCT008 SCT035 BKN090 M02/M03 Q1022 NOSIG RMK RWY21C 16005KT RWY03L 22007KT RWY21R 15005KT 110V180 RWY03R 22007KT RWY21L 17004KT",
      "taf": "TAF LTAC 142240Z 1500/1524 22008KT 9999 FEW010 SCT040 BKN100"
    },
    {
      "icao": "LTFM",
      "alert": "OK",
      "vis_m": 9999,
      "fzfg": false,
      "metar_trigger": false,
      "taf_trigger": false,
      "metar": "METAR LTFM 150420Z 22012KT 9999 BKN029 08/05 Q1022 NOSIG RMK RWY17L 21016KT RWY34L 22011KT RWY16R 22014KT RWY36 22010KT RWY18 22015KT",
      "taf": "TAF LTFM 142240Z 1500/1606 21014KT 9999 BKN040"
    },
    {
      "icao": "LUKK",
      "alert": "OK",
      "vis_m": 3900,
      "fzfg": false,
      "metar_trigger": false,
      "taf_trigger": false,
      "metar": "METAR LUKK 150400Z 03004KT 3900 -SN BR BKN024 OVC038 M06/M07 Q1019 TEMPO 1000 SN BR BKN010",
      "taf": "TAF LUKK 142311Z 1500/1524 08006KT 4000 SN BR BKN012"
    },
    {
      "icao": "LWOH",
      "alert": "OK",
      "vis_m": null,
      "fzfg": false,
      "metar_trigger": false,
      "taf_trigger": false,
      "metar": "",
      "taf": "TAF LWOH 150205Z 1503/1603 VRB02KT 9999 SCT040"
    },
    {
      "icao": "LWSK",
      "alert": "OK",
      "vis_m": 6000,
      "fzfg": false,
      "metar_trigger": false,
      "taf_trigger": false,
      "metar": "METAR LWSK 150420Z VRB01KT 6000 NSC M05/M06 Q1026 NOSIG",
      "taf": "TAF LWSK 150205Z 1503/1603 VRB02KT CAVOK"
    },
    {
      "icao": "LYBE",
      "alert": "OK",
      "vis_m": 9999,
      "fzfg": false,
      "metar_trigger": false,
      "taf_trigger": false,
      "metar": "METAR LYBE 150400Z 17003KT CAVOK 01/M00 Q1022 NOSIG",
      "taf": "TAF LYBE 142300Z 1500/1524 20004KT 8000 NSC TX08/1513Z TN01/1506Z"
    },
    {
      "icao": "LYNI",
      "alert": "OK",
      "vis_m": 4500,
      "fzfg": false,
      "metar_trigger": false,
      "taf_trigger": false,
      "metar": "METAR LYNI 150400Z 12003KT 090V150 4500 BR BKN050 04/03 Q1023 NOSIG",
      "taf": "TAF LYNI 142300Z 1500/1524 08004KT 4000 BR BKN050 TX07/1513Z TN01/1506Z"
    },
    {
      "icao": "LYPG",
      "alert": "OK",
      "vis_m": 4000,
      "fzfg": false,
      "metar_trigger": false,
      "taf_trigger": false,
      "metar": "METAR LYPG 150400Z 00000KT 4000 BR SCT030 SCT070 04/04 Q1026 NOSIG",
      "taf": "TAF LYPG 142300Z 1500/1524 VRB02KT 7000 SCT030 TX12/1513Z TN02/1505Z"
    },
    {
      "icao": "LZIB",
      "alert": "OK",
      "vis_m": 3500,
      "fzfg": false,
      "metar_trigger": false,
      "taf_trigger": false,
      "metar": "METAR LZIB 150400Z 03002KT 3500 BR FEW001 SCT006 OVC048 M03/M03 Q1021 NOSIG",
      "taf": "TAF LZIB 142315Z 1500/1600 06005KT 1800 BR OVC003"
    },
    {
      "icao": "LZKZ",
      "alert": "OK",
      "vis_m": 5000,
      "fzfg": false,
      "metar_trigger": false,
      "taf_trigger": false,
      "metar": "METAR LZKZ 150400Z 17002KT 5000 BR OVC033 M03/M04 Q1020 NOSIG",
      "taf": ""
    },
    {
      "icao": "LZTT",
      "alert": "OK",
      "vis_m": 9999,
      "fzfg": false,
      "metar_trigger": false,
      "taf_trigger": false,
      "metar": "METAR LZTT 150400Z VRB01KT 9999 FEW008 OVC020 M03/M04 Q1017",
      "taf": ""
    },
    {
      "icao": "OEJN",
      "alert": "OK",
      "vis_m": 9999,
      "fzfg": false,
      "metar_trigger": false,
      "taf_trigger": false,
      "metar": "METAR OEJN 150400Z 03006KT CAVOK 20/08 Q1016 NOSIG",
      "taf": "TAF OEJN 142300Z 1500/1606 02006KT 7000 FEW040"
    },
    {
      "icao": "OEMA",
      "alert": "OK",
      "vis_m": 9999,
      "fzfg": false,
      "metar_trigger": false,
      "taf_trigger": false,
      "metar": "METAR OEMA 150400Z 03006KT CAVOK 12/M04 Q1023 NOSIG",
      "taf": "TAF OEMA 142300Z 1500/1606 VRB03KT CAVOK"
    },
    {
      "icao": "OJAI",
      "alert": "OK",
      "vis_m": 4000,
      "fzfg": false,
      "metar_trigger": false,
      "taf_trigger": false,
      "metar": "METAR OJAI 150400Z 26003KT 4000 BR NSC 03/00 Q1021 NOSIG",
      "taf": "TAF OJAI 142300Z 1500/1606 27012KT 4000 BR FEW025TCU BKN030"
    },
    {
      "icao": "OMAA",
      "alert": "OK",
      "vis_m": 9999,
      "fzfg": false,
      "metar_trigger": false,
      "taf_trigger": false,
      "metar": "METAR OMAA 150400Z 14002KT CAVOK 17/06 Q1017 NOSIG",
      "taf": "TAF OMAA 142300Z 1500/1606 13006KT 8000 NSC"
    },
    {
      "icao": "OMDB",
      "alert": "OK",
      "vis_m": 9999,
      "fzfg": false,
      "metar_trigger": false,
      "taf_trigger": false,
      "metar": "METAR OMDB 150430Z 16003KT 080V210 CAVOK 20/06 Q1017 NOSIG",
      "taf": "TAF OMDB 142300Z 1500/1606 16005KT 8000 NSC"
    },
    {
      "icao": "UAAA",
      "alert": "OK",
      "vis_m": 1800,
      "fzfg": false,
      "metar_trigger": false,
      "taf_trigger": false,
      "metar": "METAR UAAA 150400Z VRB01MPS 1800 R23L/1800 BR OVC002 M08/M09 Q1022 NOSIG RMK QBB060",
      "taf": "TAF UAAA 142303Z 1500/1524 30003MPS 1100 BR FU BKN005 OVC020 TXM02/1509Z TNM09/1503Z"
    },
    {
      "icao": "UBBB",
      "alert": "OK",
      "vis_m": 9999,
      "fzfg": false,
      "metar_trigger": false,
      "taf_trigger": false,
      "metar": "METAR UBBB 150400Z 32010KT 9999 -RA OVC020 03/M00 Q1023 NOSIG",
      "taf": "TAF UBBB 142302Z 1500/1524 34014KT 9999 BKN030 TX06/1510Z TN03/1501Z"
    },
    {
      "icao": "UDSG",
      "alert": "OK",
      "vis_m": 9999,
      "fzfg": false,
      "metar_trigger": false,
      "taf_trigger": false,
      "metar": "METAR UDSG 150400Z 06005KT 9999 SCT049 M15/M18 Q1018 NOSIG",
      "taf": "TAF UDSG 142258Z 1500/1524 VRB06KT 9999 FEW040"
    },
    {
      "icao": "UDYZ",
      "alert": "OK",
      "vis_m": 9999,
      "fzfg": false,
      "metar_trigger": false,
      "taf_trigger": false,
      "metar": "METAR UDYZ 150400Z 36001KT 9999 SCT036 M03/M06 Q1020 NOSIG",
      "taf": "TAF UDYZ 142300Z 1500/1524 VRB04KT 9999 FEW040"
    },
    {
      "icao": "UGKO",
      "alert": "OK",
      "vis_m": 9999,
      "fzfg": false,
      "metar_trigger": false,
      "taf_trigger": false,
      "metar": "METAR UGKO 150400Z VRB02KT 9999 SCT006 BKN028 00/M01 Q1025 NOSIG",
      "taf": "TAF UGKO 142300Z 1500/1524 08007KT 9999 BKN050 TX07/1511Z TNM03/1501Z"
    }
  ]
}