{
  "ts_utc": "2026-01-16T09:54:36Z",
  "threshold_m": 150,
  "source": "stations_override.txt (ICAO list) + aviationweather.gov (METAR/TAF raw)",
  "station_count": 159,
  "stations": [
    {
      "icao": "BIKF",
      "alert": "OK",
      "vis_m": 9999,
      "fzfg": false,
      "metar_trigger": false,
      "taf_trigger": false,
      "metar": "METAR BIKF 160930Z 01014KT 9999 SCT025 01/M01 Q1001",
      "taf": "TAF BIKF 160741Z 1609/1709 02020KT 9999 SCT035 TX02/1609Z TNM03/1709Z"
    },
    {
      "icao": "BKPR",
      "alert": "OK",
      "vis_m": null,
      "fzfg": false,
      "metar_trigger": false,
      "taf_trigger": false,
      "metar": "",
      "taf": "TAF BKPR 160530Z 1606/1706 VRB03KT 5000 BR SCT030"
    },
    {
      "icao": "EBCI",
      "alert": "OK",
      "vis_m": 9999,
      "fzfg": false,
      "metar_trigger": false,
      "taf_trigger": false,
      "metar": "METAR EBCI 160920Z 19007KT 9999 FEW015 BKN025 09/06 Q1011 NOSIG",
      "taf": "TAF EBCI 160500Z 1606/1712 22008KT 9999 SCT018 SCT035"
    },
    {
      "icao": "EDDB",
      "alert": "OK",
      "vis_m": 9999,
      "fzfg": false,
      "metar_trigger": false,
      "taf_trigger": false,
      "metar": "METAR EDDB 160950Z AUTO 15009KT CAVOK 05/04 Q1018 NOSIG",
      "taf": "TAF EDDB 160500Z 1606/1706 15008KT 9000 NSC"
    },
    {
      "icao": "EDDH",
      "alert": "OK",
      "vis_m": 9999,
      "fzfg": false,
      "metar_trigger": false,
      "taf_trigger": false,
      "metar": "METAR EDDH 160950Z AUTO 17009KT CAVOK 09/05 Q1012 NOSIG",
      "taf": "TAF EDDH 160500Z 1606/1712 15010KT CAVOK"
    },
    {
      "icao": "EDDK",
      "alert": "OK",
      "vis_m": 9999,
      "fzfg": false,
      "metar_trigger": false,
      "taf_trigger": false,
      "metar": "METAR EDDK 160950Z AUTO 14006KT 120V180 9999 FEW036 SCT045 11/06 Q1014 NOSIG",
      "taf": "TAF EDDK 160500Z 1606/1712 17008KT 9999 SCT035"
    },
    {
      "icao": "EDDN",
      "alert": "OK",
      "vis_m": 9999,
      "fzfg": false,
      "metar_trigger": false,
      "taf_trigger": false,
      "metar": "METAR EDDN 160950Z AUTO 13007KT CAVOK 05/01 Q1018 NOSIG",
      "taf": "TAF EDDN 160500Z 1606/1706 11006KT CAVOK"
    },
    {
      "icao": "EDDS",
      "alert": "OK",
      "vis_m": 9999,
      "fzfg": false,
      "metar_trigger": false,
      "taf_trigger": false,
      "metar": "METAR EDDS 160950Z AUTO VRB02KT CAVOK 04/01 Q1016 NOSIG",
      "taf": "TAF EDDS 160500Z 1606/1706 VRB03KT CAVOK"
    },
    {
      "icao": "EDFH",
      "alert": "OK",
      "vis_m": 9999,
      "fzfg": false,
      "metar_trigger": false,
      "taf_trigger": false,
      "metar": "METAR EDFH 160920Z 18008KT 9999 FEW018 BKN041 09/05 Q1014",
      "taf": "TAF EDFH 160500Z 1606/1706 16012KT 9999 BKN025"
    },
    {
      "icao": "EDJA",
      "alert": "OK",
      "vis_m": 9999,
      "fzfg": false,
      "metar_trigger": false,
      "taf_trigger": false,
      "metar": "METAR EDJA 160920Z COR 00000KT CAVOK 03/00 Q1017",
      "taf": "TAF EDJA 160800Z 1609/1618 VRB03KT CAVOK"
    },
    {
      "icao": "EDLW",
      "alert": "OK",
      "vis_m": 9999,
      "fzfg": false,
      "metar_trigger": false,
      "taf_trigger": false,
      "metar": "METAR EDLW 160920Z COR 19008KT CAVOK 10/06 Q1012",
      "taf": "TAF EDLW 160500Z 1606/1706 19011KT 9999 BKN035"
    },
    {
      "icao": "EDNY",
      "alert": "OK",
      "vis_m": 9999,
      "fzfg": false,
      "metar_trigger": false,
      "taf_trigger": false,
      "metar": "METAR EDNY 160920Z 06003KT CAVOK 01/M00 Q1018",
      "taf": "TAF EDNY 160800Z 1609/1618 VRB03KT CAVOK"
    },
    {
      "icao": "EDSB",
      "alert": "OK",
      "vis_m": 9999,
      "fzfg": false,
      "metar_trigger": false,
      "taf_trigger": false,
      "metar": "METAR EDSB 160920Z VRB01KT CAVOK 04/03 Q1016",
      "taf": "TAF EDSB 160500Z 1606/1706 VRB03KT CAVOK"
    },
    {
      "icao": "EETN",
      "alert": "OK",
      "vis_m": 9999,
      "fzfg": false,
      "metar_trigger": false,
      "taf_trigger": false,
      "metar": "METAR EETN 160950Z 15009KT 9999 OVC027 M06/M08 Q1029 NOSIG",
      "taf": "TAF EETN 160530Z 1606/1706 17012KT 9999 OVC025"
    },
    {
      "icao": "EFTU",
      "alert": "OK",
      "vis_m": 9999,
      "fzfg": false,
      "metar_trigger": false,
      "taf_trigger": false,
      "metar": "METAR EFTU 160950Z AUTO 18012KT 150V210 9999 OVC011 01/M02 Q1025",
      "taf": "TAF EFTU 160832Z 1609/1709 18010KT 9999 BKN012"
    },
    {
      "icao": "EGBB",
      "alert": "OK",
      "vis_m": 5000,
      "fzfg": false,
      "metar_trigger": false,
      "taf_trigger": false,
      "metar": "METAR EGBB 160920Z 15004KT 5000 BR BKN003 04/03 Q1005",
      "taf": ""
    },
    {
      "icao": "EGGP",
      "alert": "OK",
      "vis_m": 9999,
      "fzfg": false,
      "metar_trigger": false,
      "taf_trigger": false,
      "metar": "METAR EGGP 160920Z 14006KT CAVOK 03/02 Q1003",
      "taf": "TAF EGGP 160500Z 1606/1706 15009KT 9999 FEW040"
    },
    {
      "icao": "EGGW",
      "alert": "OK",
      "vis_m": 3700,
      "fzfg": false,
      "metar_trigger": false,
      "taf_trigger": false,
      "metar": "METAR EGGW 160920Z 19005KT 160V230 3700 BR OVC002 05/05 Q1006",
      "taf": "TAF EGGW 160458Z 1606/1706 15007KT 0300 FG BKN001"
    },
    {
      "icao": "EGKK",
      "alert": "OK",
      "vis_m": 9999,
      "fzfg": false,
      "metar_trigger": false,
      "taf_trigger": false,
      "metar": "METAR EGKK 160920Z 17004KT 130V200 9999 VCSH SCT015 BKN024 08/07 Q1007",
      "taf": "TAF EGKK 160455Z 1606/1712 07003KT 9999 SCT030"
    },
    {
      "icao": "EGNM",
      "alert": "OK",
      "vis_m": 8000,
      "fzfg": false,
      "metar_trigger": false,
      "taf_trigger": false,
      "metar": "METAR EGNM 160920Z 16007KT 8000 SCT012 SCT019 03/03 Q1003",
      "taf": ""
    },
    {
      "icao": "EGPD",
      "alert": "OK",
      "vis_m": 9999,
      "fzfg": false,
      "metar_trigger": false,
      "taf_trigger": false,
      "metar": "METAR EGPD 160920Z COR AUTO 01003KT 340V050 9999 NCD M04/M05 Q1001 NOSIG",
      "taf": "TAF EGPD 160455Z 1606/1706 VRB03KT 9999 FEW040"
    },
    {
      "icao": "EGPF",
      "alert": "OK",
      "vis_m": 2900,
      "fzfg": false,
      "metar_trigger": false,
      "taf_trigger": false,
      "metar": "METAR EGPF 160920Z AUTO 08004KT 040V140 2900 -RA BKN036/// //////TCU 01/01 Q1001",
      "taf": ""
    },
    {
      "icao": "EHBK",
      "alert": "OK",
      "vis_m": 9999,
      "fzfg": false,
      "metar_trigger": false,
      "taf_trigger": false,
      "metar": "METAR EHBK 160925Z AUTO 18007KT 9999 FEW022/// OVC031/// 10/07 Q1012 NOSIG",
      "taf": "TAF EHBK 160507Z 1606/1712 20013KT 9999 OVC045"
    },
    {
      "icao": "EHEH",
      "alert": "OK",
      "vis_m": 9999,
      "fzfg": false,
      "metar_trigger": false,
      "taf_trigger": false,
      "metar": "METAR EHEH 160925Z AUTO 17005KT 9999 BKN039 BKN300 08/06 Q1012 BLU NOSIG RMK TREND REMOTE BY EHWX",
      "taf": "TAF EHEH 160538Z 1606/1712 23016KT 9999 BKN030"
    },
    {
      "icao": "EKBI",
      "alert": "OK",
      "vis_m": 9999,
      "fzfg": false,
      "metar_trigger": false,
      "taf_trigger": false,
      "metar": "METAR EKBI 160950Z AUTO 17010KT 9999 OVC007/// 07/06 Q1007",
      "taf": "TAF EKBI 160827Z 1609/1709 17012KT 8000 BKN015"
    },
    {
      "icao": "EKCH",
      "alert": "OK",
      "vis_m": 9999,
      "fzfg": false,
      "metar_trigger": false,
      "taf_trigger": false,
      "metar": "METAR EKCH 160950Z AUTO 16016KT 9999 BKN190/// 05/04 Q1014 BECMG 8000",
      "taf": "TAF EKCH 160827Z 1609/1709 15018KT 4000 BR OVC005"
    },
    {
      "icao": "ENAL",
      "alert": "OK",
      "vis_m": 9999,
      "fzfg": false,
      "metar_trigger": false,
      "taf_trigger": false,
      "metar": "METAR ENAL 160850Z 12009KT CAVOK 07/M02 Q1003",
      "taf": "TAF ENAL 160800Z 1609/1618 13007KT 9999 SCT060"
    },
    {
      "icao": "ENBR",
      "alert": "OK",
      "vis_m": 9999,
      "fzfg": false,
      "metar_trigger": false,
      "taf_trigger": false,
      "metar": "METAR ENBR 160920Z 02002KT 9999 -RA SCT023 BKN040 04/03 Q1001 NOSIG RMK WIND 1200FT 11014KT",
      "taf": "TAF ENBR 160500Z 1606/1706 08005KT 9999 -RA SCT020 BKN040"
    },
    {
      "icao": "ENGM",
      "alert": "OK",
      "vis_m": 7000,
      "fzfg": false,
      "metar_trigger": false,
      "taf_trigger": false,
      "metar": "METAR ENGM 160920Z 03003KT 360V090 7000 -SNRA BKN004 00/M00 Q1009 TEMPO 2000 -SNRA BR BKN005",
      "taf": "TAF ENGM 160500Z 1606/1706 VRB03KT 5000 -SNRA BR BKN010"
    },
    {
      "icao": "ENHD",
      "alert": "OK",
      "vis_m": 9999,
      "fzfg": false,
      "metar_trigger": false,
      "taf_trigger": false,
      "metar": "METAR ENHD 160850Z 08010KT 9999 -RA SCT017 BKN028 05/03 Q1000",
      "taf": "TAF ENHD 160800Z 1609/1618 09012KT 9999 -RA SCT015 BKN025"
    },
    {
      "icao": "ENTC",
      "alert": "OK",
      "vis_m": 9999,
      "fzfg": false,
      "metar_trigger": false,
      "taf_trigger": false,
      "metar": "METAR ENTC 160850Z 21015KT CAVOK M02/M07 Q1010 NOSIG RMK WIND 2600FT 19010KT",
      "taf": "TAF ENTC 160500Z 1606/1706 20008KT CAVOK"
    },
    {
      "icao": "ENTO",
      "alert": "OK",
      "vis_m": 250,
      "fzfg": false,
      "metar_trigger": false,
      "taf_trigger": false,
      "metar": "METAR ENTO 160850Z 15011KT 0250 R18/0900D R36/0750N RA FG VV001 03/03 Q1007 TEMPO 0500 -RA FG VV002",
      "taf": ""
    },
    {
      "icao": "ENVA",
      "alert": "OK",
      "vis_m": 9999,
      "fzfg": false,
      "metar_trigger": false,
      "taf_trigger": false,
      "metar": "METAR ENVA 160920Z 16005KT 120V210 CAVOK 05/M01 Q1007 NOSIG RMK WIND 670FT 16013KT",
      "taf": "TAF ENVA 160500Z 1606/1706 10007KT CAVOK"
    },
    {
      "icao": "ENZV",
      "alert": "OK",
      "vis_m": 9999,
      "fzfg": false,
      "metar_trigger": false,
      "taf_trigger": false,
      "metar": "METAR ENZV 160920Z 11008KT 9999 -RA BKN040 06/03 Q0999 TEMPO RA",
      "taf": "TAF ENZV 160500Z 1606/1706 12012KT 9999 -RA FEW020 BKN030"
    },
    {
      "icao": "EPGD",
      "alert": "OK",
      "vis_m": 600,
      "fzfg": true,
      "metar_trigger": false,
      "taf_trigger": false,
      "metar": "METAR EPGD 160930Z 15010KT 0600 R29/0550N FZFG OVC001 M03/M03 Q1023",
      "taf": ""
    },
    {
      "icao": "EPKK",
      "alert": "OK",
      "vis_m": 9999,
      "fzfg": false,
      "metar_trigger": false,
      "taf_trigger": false,
      "metar": "METAR EPKK 160930Z 07009KT CAVOK 01/M01 Q1023",
      "taf": "TAF EPKK 160830Z 1609/1709 06008KT 7000 BKN045"
    },
    {
      "icao": "EPKT",
      "alert": "OK",
      "vis_m": 9999,
      "fzfg": false,
      "metar_trigger": false,
      "taf_trigger": false,
      "metar": "METAR EPKT 160930Z 09005KT CAVOK 02/00 Q1022",
      "taf": "TAF EPKT 160530Z 1606/1706 12005KT 5000 BR SCT007 OVC040"
    },
    {
      "icao": "EPLB",
      "alert": "OK",
      "vis_m": 7000,
      "fzfg": false,
      "metar_trigger": false,
      "taf_trigger": false,
      "metar": "METAR EPLB 160930Z 11007KT 7000 SCT020 M07/M09 Q1028",
      "taf": "TAF EPLB 160530Z 1606/1706 11008KT 8000 OVC015"
    },
    {
      "icao": "EPMO",
      "alert": "OK",
      "vis_m": 3300,
      "fzfg": false,
      "metar_trigger": false,
      "taf_trigger": false,
      "metar": "METAR EPMO 160930Z 11008KT 3300 BR BKN011 M04/M04 Q1026",
      "taf": ""
    },
    {
      "icao": "EPPO",
      "alert": "OK",
      "vis_m": 6000,
      "fzfg": false,
      "metar_trigger": false,
      "taf_trigger": false,
      "metar": "METAR EPPO 160930Z 12010KT 6000 FEW006 02/01 Q1021",
      "taf": ""
    },
    {
      "icao": "EPRA",
      "alert": "OK",
      "vis_m": 7000,
      "fzfg": false,
      "metar_trigger": false,
      "taf_trigger": false,
      "metar": "METAR EPRA 160930Z 11010KT 7000 OVC007 M03/M05 Q1026",
      "taf": "TAF EPRA 160830Z 1609/1618 13010KT 6000 OVC008"
    },
    {
      "icao": "EPRZ",
      "alert": "OK",
      "vis_m": 2300,
      "fzfg": false,
      "metar_trigger": false,
      "taf_trigger": false,
      "metar": "METAR EPRZ 160930Z 09015KT 2300 BR OVC003 M03/M03 Q1026",
      "taf": ""
    },
    {
      "icao": "EPSC",
      "alert": "OK",
      "vis_m": 3100,
      "fzfg": false,
      "metar_trigger": false,
      "taf_trigger": false,
      "metar": "METAR EPSC 160930Z 13015KT 3100 BR OVC002 02/02 Q1018",
      "taf": "TAF EPSC 160530Z 1606/1706 13013KT 0800 FG BKN002"
    },
    {
      "icao": "EPSY",
      "alert": "OK",
      "vis_m": 6000,
      "fzfg": false,
      "metar_trigger": false,
      "taf_trigger": false,
      "metar": "METAR EPSY 160930Z 13006KT 090V160 6000 NSC M06/M08 Q1027",
      "taf": "TAF EPSY 160830Z 1609/1618 14008KT 7000 SCT025"
    },
    {
      "icao": "EPWA",
      "alert": "OK",
      "vis_m": 6000,
      "fzfg": false,
      "metar_trigger": false,
      "taf_trigger": false,
      "metar": "METAR EPWA 160930Z 12014KT 6000 FEW009 M04/M06 Q1026 TEMPO 4000 BR BKN009",
      "taf": "TAF EPWA 160830Z 1609/1709 12010KT 4000 BR SCT008 BKN022"
    },
    {
      "icao": "EPWR",
      "alert": "OK",
      "vis_m": 8000,
      "fzfg": false,
      "metar_trigger": false,
      "taf_trigger": false,
      "metar": "METAR EPWR 160930Z 12009KT 8000 NSC 02/01 Q1021",
      "taf": "TAF EPWR 160830Z 1609/1709 13006KT 4000 BR NSC"
    },
    {
      "icao": "ESGG",
      "alert": "OK",
      "vis_m": 8000,
      "fzfg": false,
      "metar_trigger": false,
      "taf_trigger": false,
      "metar": "METAR ESGG 160920Z 14012KT 8000 BKN004 04/03 Q1010",
      "taf": "TAF ESGG 160830Z 1609/1709 16010KT 6000 OVC002"
    },
    {
      "icao": "ESKN",
      "alert": "OK",
      "vis_m": 4800,
      "fzfg": false,
      "metar_trigger": false,
      "taf_trigger": false,
      "metar": "METAR ESKN 160920Z 15015KT 4800 BR OVC003 03/03 Q1018",
      "taf": "TAF ESKN 160830Z 1609/1709 17015G25KT 9999 OVC003"
    },
    {
      "icao": "ESMS",
      "alert": "OK",
      "vis_m": 500,
      "fzfg": false,
      "metar_trigger": false,
      "taf_trigger": false,
      "metar": "METAR ESMS 160920Z 14013KT 0500 R17/1200U R35/1000N FG OVC002 03/03 Q1014",
      "taf": "TAF ESMS 160827Z 1609/1709 14015KT 0500 FG OVC002"
    },
    {
      "icao": "ESSA",
      "alert": "OK",
      "vis_m": 9999,
      "fzfg": false,
      "metar_trigger": false,
      "taf_trigger": false,
      "metar": "METAR ESSA 160920Z 15013KT 9999 BKN009 02/00 Q1018 NOSIG",
      "taf": "TAF ESSA 160830Z 1609/1709 17015KT 9999 OVC007"
    },
    {
      "icao": "EYKA",
      "alert": "OK",
      "vis_m": 7000,
      "fzfg": false,
      "metar_trigger": false,
      "taf_trigger": false,
      "metar": "METAR EYKA 160950Z 14009KT 100V170 7000 -SN OVC006 M14/M15 Q1032",
      "taf": ""
    },
    {
      "icao": "EYPA",
      "alert": "OK",
      "vis_m": 8000,
      "fzfg": false,
      "metar_trigger": false,
      "taf_trigger": false,
      "metar": "METAR EYPA 160950Z 15012KT 8000 NSC M05/M08 Q1027",
      "taf": "TAF EYPA 160500Z 1606/1706 13012KT 6000 SCT010 BKN020"
    },
    {
      "icao": "EYVI",
      "alert": "OK",
      "vis_m": 9000,
      "fzfg": false,
      "metar_trigger": false,
      "taf_trigger": false,
      "metar": "METAR EYVI 160950Z 16007KT 9000 NSC M16/M19 Q1033 NOSIG",
      "taf": ""
    },
    {
      "icao": "GCFV",
      "alert": "OK",
      "vis_m": 9999,
      "fzfg": false,
      "metar_trigger": false,
      "taf_trigger": false,
      "metar": "METAR GCFV 160930Z 33006KT 9999 BKN035 17/10 Q1025",
      "taf": "TAF GCFV 160800Z 1609/1709 03007KT 9999 SCT035 TX22/1614Z TN14/1706Z"
    },
    {
      "icao": "GCLP",
      "alert": "OK",
      "vis_m": 9999,
      "fzfg": false,
      "metar_trigger": false,
      "taf_trigger": false,
      "metar": "METAR GCLP 160930Z 36010KT 9999 BKN035 18/10 Q1025 NOSIG",
      "taf": "TAF GCLP 160800Z 1609/1709 01019KT 9999 SCT035 TX22/1614Z TN15/1706Z"
    },
    {
      "icao": "GCTS",
      "alert": "OK",
      "vis_m": 9999,
      "fzfg": false,
      "metar_trigger": false,
      "taf_trigger": false,
      "metar": "METAR GCTS 160930Z 34003KT 310V020 9999 SCT035 17/09 Q1026 NOSIG",
      "taf": "TAF GCTS 160800Z 1609/1709 27010KT 9999 SCT035 TX22/1614Z TN14/1706Z"
    },
    {
      "icao": "GMAD",
      "alert": "OK",
      "vis_m": 9999,
      "fzfg": false,
      "metar_trigger": false,
      "taf_trigger": false,
      "metar": "METAR GMAD 160930Z 06003KT CAVOK 12/12 Q1023 NOSIG",
      "taf": "TAF GMAD 160500Z 1606/1712 09005KT CAVOK"
    },
    {
      "icao": "GMMN",
      "alert": "OK",
      "vis_m": 9999,
      "fzfg": false,
      "metar_trigger": false,
      "taf_trigger": false,
      "metar": "METAR GMMN 160930Z 20014KT 9999 SCT020 SCT100 11/09 Q1020 NOSIG",
      "taf": "TAF GMMN 160500Z 1606/1712 21008KT 9999 SCT016 SCT100"
    },
    {
      "icao": "GMMX",
      "alert": "OK",
      "vis_m": 8000,
      "fzfg": false,
      "metar_trigger": false,
      "taf_trigger": false,
      "metar": "METAR GMMX 160930Z 20005KT 150V250 8000 BKN023 12/08 Q1022 NOSIG",
      "taf": "TAF GMMX 160500Z 1606/1712 06006KT 8000 SCT026"
    },
    {
      "icao": "HEGN",
      "alert": "OK",
      "vis_m": 9999,
      "fzfg": false,
      "metar_trigger": false,
      "taf_trigger": false,
      "metar": "METAR HEGN 160900Z 32007KT CAVOK 19/07 Q1021 NOSIG",
      "taf": "TAF HEGN 160500Z 1606/1712 30015KT 9999 FEW025"
    },
    {
      "icao": "HEMA",
      "alert": "OK",
      "vis_m": 9999,
      "fzfg": false,
      "metar_trigger": false,
      "taf_trigger": false,
      "metar": "METAR HEMA 160900Z 34018KT 9999 SCT020 SCT025 21/12 Q1020 NOSIG",
      "taf": "TAF HEMA 160500Z 1606/1712 31015KT 9999 FEW025"
    },
    {
      "icao": "HESH",
      "alert": "OK",
      "vis_m": 9999,
      "fzfg": false,
      "metar_trigger": false,
      "taf_trigger": false,
      "metar": "METAR HESH 160900Z 02012KT CAVOK 20/06 Q1021 NOSIG",
      "taf": "TAF HESH 160500Z 1606/1712 35010KT CAVOK"
    },
    {
      "icao": "HESX",
      "alert": "OK",
      "vis_m": 9999,
      "fzfg": false,
      "metar_trigger": false,
      "taf_trigger": false,
      "metar": "METAR HESX 160900Z 07007KT CAVOK 16/09 Q1023 NOSIG",
      "taf": "TAF HESX 160630Z 1607/1712 36006KT 9999 SCT025"
    },
    {
      "icao": "LATI",
      "alert": "OK",
      "vis_m": 9999,
      "fzfg": false,
      "metar_trigger": false,
      "taf_trigger": false,
      "metar": "METAR LATI 160950Z 35003KT 9999 SCT055 BKN078 12/06 Q1023 NOSIG",
      "taf": "TAF LATI 160500Z 1606/1706 VRB05KT 9999 FEW040 BKN070 TX16/1612Z TN05/1705Z"
    },
    {
      "icao": "LBPD",
      "alert": "OK",
      "vis_m": 9999,
      "fzfg": false,
      "metar_trigger": false,
      "taf_trigger": false,
      "metar": "METAR LBPD 160930Z AUTO 10009KT 9999 BKN080/// 05/05 Q1024 NOSIG",
      "taf": "TAF LBPD 160500Z 1606/1706 VRB03KT 9999 BKN070"
    },
    {
      "icao": "LBSF",
      "alert": "OK",
      "vis_m": 9999,
      "fzfg": false,
      "metar_trigger": false,
      "taf_trigger": false,
      "metar": "METAR LBSF 160930Z VRB02KT 9999 SCT079 BKN088 05/02 Q1023 NOSIG",
      "taf": ""
    },
    {
      "icao": "LBWN",
      "alert": "OK",
      "vis_m": 5000,
      "fzfg": false,
      "metar_trigger": false,
      "taf_trigger": false,
      "metar": "METAR LBWN 160930Z VRB04KT 5000 -SN SCT014 BKN022 OVC040 M00/M02 Q1028 NOSIG",
      "taf": "TAF LBWN 160500Z 1606/1706 04010KT 5000 RASN SCT010 OVC020"
    },
    {
      "icao": "LCLK",
      "alert": "OK",
      "vis_m": 9999,
      "fzfg": false,
      "metar_trigger": false,
      "taf_trigger": false,
      "metar": "METAR LCLK 160930Z VRB03KT 9999 FEW030 18/08 Q1022 NOSIG",
      "taf": "TAF LCLK 160530Z 1606/1706 32006KT 9999 FEW025 SCT040"
    },
    {
      "icao": "LCPH",
      "alert": "OK",
      "vis_m": 9999,
      "fzfg": false,
      "metar_trigger": false,
      "taf_trigger": false,
      "metar": "METAR LCPH 160930Z 16005KT 9999 FEW025 17/08 Q1022 NOSIG",
      "taf": "TAF LCPH 160530Z 1606/1706 05008KT 9999 FEW025 SCT035"
    },
    {
      "icao": "LEAL",
      "alert": "OK",
      "vis_m": 9999,
      "fzfg": false,
      "metar_trigger": false,
      "taf_trigger": false,
      "metar": "METAR LEAL 160930Z VRB02KT CAVOK 15/11 Q1016 NOSIG",
      "taf": "TAF LEAL 160500Z 1606/1706 VRB04KT CAVOK TX16/1613Z TN07/1606Z"
    },
    {
      "icao": "LEBB",
      "alert": "OK",
      "vis_m": 9999,
      "fzfg": false,
      "metar_trigger": false,
      "taf_trigger": false,
      "metar": "METAR LEBB 160930Z 17006KT 120V230 CAVOK 12/05 Q1011 NOSIG",
      "taf": "TAF LEBB 160500Z 1606/1706 12006KT 9999 FEW045 TX15/1613Z TN07/1607Z"
    },
    {
      "icao": "LEBL",
      "alert": "OK",
      "vis_m": 9999,
      "fzfg": false,
      "metar_trigger": false,
      "taf_trigger": false,
      "metar": "METAR LEBL 160930Z 32010KT 9999 FEW015 SCT050 09/05 Q1015 NOSIG",
      "taf": ""
    },
    {
      "icao": "LECH",
      "alert": "OK",
      "vis_m": 9999,
      "fzfg": false,
      "metar_trigger": false,
      "taf_trigger": false,
      "metar": "METAR LECH 160930Z AUTO 06004KT 9999 FEW067 08/04 Q1015",
      "taf": ""
    },
    {
      "icao": "LEMD",
      "alert": "OK",
      "vis_m": 4000,
      "fzfg": false,
      "metar_trigger": false,
      "taf_trigger": false,
      "metar": "METAR LEMD 160930Z 17004KT 130V240 4000 BR OVC005 07/07 Q1012 NOSIG",
      "taf": "TAF LEMD 160500Z 1606/1712 VRB04KT 9999 SCT020 TX11/1615Z TN05/1607Z"
    },
    {
      "icao": "LEMG",
      "alert": "OK",
      "vis_m": 9000,
      "fzfg": false,
      "metar_trigger": false,
      "taf_trigger": false,
      "metar": "METAR LEMG 160930Z 23007KT 180V310 9000 -DZ FEW005 BKN018 13/11 Q1016 TEMPO 2500 DZ",
      "taf": "TAF LEMG 160500Z 1606/1706 VRB02KT 9999 SCT015 TX18/1614Z TN11/1607Z"
    },
    {
      "icao": "LEVC",
      "alert": "OK",
      "vis_m": 9999,
      "fzfg": false,
      "metar_trigger": false,
      "taf_trigger": false,
      "metar": "METAR LEVC 160930Z 29002KT 9999 FEW035 SCT068 11/08 Q1015 NOSIG",
      "taf": "TAF LEVC 160500Z 1606/1706 24005KT CAVOK TX16/1612Z TN07/1606Z"
    },
    {
      "icao": "LEXJ",
      "alert": "OK",
      "vis_m": 9999,
      "fzfg": false,
      "metar_trigger": false,
      "taf_trigger": false,
      "metar": "METAR LEXJ 160930Z VRB01KT 9999 FEW040 08/06 Q1010",
      "taf": "TAF LEXJ 160800Z 1609/1709 20009KT 9999 FEW045 TX15/1614Z TN06/1704Z"
    },
    {
      "icao": "LEZG",
      "alert": "OK",
      "vis_m": 6000,
      "fzfg": false,
      "metar_trigger": false,
      "taf_trigger": false,
      "metar": "METAR LEZG 160930Z 09006KT 6000 OVC060 08/07 Q1014 NOSIG",
      "taf": "TAF LEZG 160500Z 1606/1706 09005KT 9999 FEW020 TX12/1614Z TN05/1606Z"
    },
    {
      "icao": "LEZL",
      "alert": "OK",
      "vis_m": 9999,
      "fzfg": false,
      "metar_trigger": false,
      "taf_trigger": false,
      "metar": "METAR LEZL 160930Z 27005KT CAVOK 13/12 Q1016 NOSIG",
      "taf": ""
    },
    {
      "icao": "LFBD",
      "alert": "OK",
      "vis_m": 9999,
      "fzfg": false,
      "metar_trigger": false,
      "taf_trigger": false,
      "metar": "METAR LFBD 160930Z AUTO 14003KT 9999 BKN043 OVC050 09/08 Q1012 TEMPO BKN014",
      "taf": "TAF LFBD 160500Z 1606/1712 21010KT 9999 BKN040 TX11/1615Z TN05/1704Z"
    },
    {
      "icao": "LFLL",
      "alert": "OK",
      "vis_m": 9999,
      "fzfg": false,
      "metar_trigger": false,
      "taf_trigger": false,
      "metar": "METAR LFLL 160930Z 13008KT CAVOK 09/05 Q1015 NOSIG",
      "taf": "TAF LFLL 160500Z 1606/1712 18007KT CAVOK"
    },
    {
      "icao": "LFLS",
      "alert": "OK",
      "vis_m": 9999,
      "fzfg": false,
      "metar_trigger": false,
      "taf_trigger": false,
      "metar": "METAR LFLS 160930Z AUTO 09003KT CAVOK 10/05 Q1015 NOSIG",
      "taf": "TAF LFLS 160800Z 1609/1709 VRB03KT CAVOK"
    },
    {
      "icao": "LFMN",
      "alert": "OK",
      "vis_m": 9999,
      "fzfg": false,
      "metar_trigger": false,
      "taf_trigger": false,
      "metar": "METAR LFMN 160930Z 33009KT 9999 FEW030 OVC110 10/03 Q1019 NOSIG",
      "taf": "TAF LFMN 160800Z 1609/1715 33010KT 9999 FEW025 BKN100"
    },
    {
      "icao": "LFOB",
      "alert": "OK",
      "vis_m": 9999,
      "fzfg": false,
      "metar_trigger": false,
      "taf_trigger": false,
      "metar": "METAR LFOB 160930Z AUTO 18008KT 150V210 9999 FEW009 SCT024 08/07 Q1011 BECMG BKN008 OVC012",
      "taf": "TAF LFOB 160500Z 1606/1706 VRB03KT 9999 SCT012 BKN040"
    },
    {
      "icao": "LFPO",
      "alert": "OK",
      "vis_m": 9999,
      "fzfg": false,
      "metar_trigger": false,
      "taf_trigger": false,
      "metar": "METAR LFPO 160930Z AUTO 20008KT 9999 BKN020 OVC025 09/07 Q1012",
      "taf": "TAF LFPO 160500Z 1606/1712 21010KT 9999 SCT012 BKN020"
    },
    {
      "icao": "LFSB",
      "alert": "OK",
      "vis_m": 9999,
      "fzfg": false,
      "metar_trigger": false,
      "taf_trigger": false,
      "metar": "METAR LFSB 160930Z AUTO 16007KT CAVOK 06/03 Q1016 NOSIG",
      "taf": "TAF LFSB 160500Z 1606/1706 18005KT CAVOK"
    },
    {
      "icao": "LGAV",
      "alert": "OK",
      "vis_m": 9999,
      "fzfg": false,
      "metar_trigger": false,
      "taf_trigger": false,
      "metar": "METAR LGAV 160920Z VRB02KT 9999 FEW025 15/08 Q1023",
      "taf": "TAF LGAV 160500Z 1606/1706 VRB03KT 9999 FEW030"
    },
    {
      "icao": "LGTS",
      "alert": "OK",
      "vis_m": 9999,
      "fzfg": false,
      "metar_trigger": false,
      "taf_trigger": false,
      "metar": "METAR LGTS 160920Z VRB02KT CAVOK 09/04 Q1024 NOSIG",
      "taf": "TAF LGTS 160500Z 1606/1706 VRB03KT 9999 FEW030"
    },
    {
      "icao": "LHBP",
      "alert": "OK",
      "vis_m": 1500,
      "fzfg": false,
      "metar_trigger": false,
      "taf_trigger": false,
      "metar": "METAR LHBP 160930Z 07003KT 020V110 1500 BR OVC002 01/01 Q1024 BECMG 2500 BR",
      "taf": "TAF LHBP 160515Z 1606/1706 08005KT 3000 BR OVC004"
    },
    {
      "icao": "LHDC",
      "alert": "OK",
      "vis_m": 3700,
      "fzfg": false,
      "metar_trigger": false,
      "taf_trigger": false,
      "metar": "METAR LHDC 160915Z AUTO 06005KT 3700 BR OVC015 02/01 Q1024 TEMPO 5000 BR",
      "taf": "TAF LHDC 160815Z 1609/1618 06006KT 6000 SCT012 OVC020"
    },
    {
      "icao": "LIBD",
      "alert": "OK",
      "vis_m": 9999,
      "fzfg": false,
      "metar_trigger": false,
      "taf_trigger": false,
      "metar": "METAR LIBD 160920Z VRB02KT CAVOK 11/08 Q1021",
      "taf": "TAF LIBD 160500Z 1606/1706 VRB05KT 9999 FEW030"
    },
    {
      "icao": "LIBG",
      "alert": "OK",
      "vis_m": 6000,
      "fzfg": false,
      "metar_trigger": false,
      "taf_trigger": false,
      "metar": "METAR LIBG 160850Z VRB02KT 6000 FEW010 11/11 Q1021",
      "taf": "TAF LIBG 160800Z 1609/1618 VRB05KT 8000 FEW025"
    },
    {
      "icao": "LIBP",
      "alert": "OK",
      "vis_m": 9999,
      "fzfg": false,
      "metar_trigger": false,
      "taf_trigger": false,
      "metar": "METAR LIBP 160920Z AUTO 23004KT 9999 NCD 09/04 Q1022",
      "taf": "TAF LIBP 160500Z 1606/1706 VRB05KT CAVOK"
    },
    {
      "icao": "LIBR",
      "alert": "OK",
      "vis_m": 9999,
      "fzfg": false,
      "metar_trigger": false,
      "taf_trigger": false,
      "metar": "METAR LIBR 160920Z VRB02KT CAVOK 12/10 Q1021",
      "taf": "TAF LIBR 160500Z 1606/1706 VRB05KT 9999 FEW025"
    },
    {
      "icao": "LICA",
      "alert": "OK",
      "vis_m": 9999,
      "fzfg": false,
      "metar_trigger": false,
      "taf_trigger": false,
      "metar": "METAR LICA 160920Z AUTO 08016KT 9999 NCD 15/11 Q1020",
      "taf": "TAF LICA 160500Z 1606/1706 08012KT CAVOK"
    },
    {
      "icao": "LICC",
      "alert": "OK",
      "vis_m": 9999,
      "fzfg": false,
      "metar_trigger": false,
      "taf_trigger": false,
      "metar": "METAR LICC 160920Z 23003KT 9999 BKN020 11/09 Q1020",
      "taf": "TAF LICC 160500Z 1606/1706 VRB05KT 9999 SCT020"
    },
    {
      "icao": "LICJ",
      "alert": "OK",
      "vis_m": 9999,
      "fzfg": false,
      "metar_trigger": false,
      "taf_trigger": false,
      "metar": "METAR LICJ 160920Z 20005KT CAVOK 14/11 Q1018",
      "taf": "TAF LICJ 160500Z 1606/1706 VRB06KT CAVOK"
    },
    {
      "icao": "LIMC",
      "alert": "OK",
      "vis_m": 500,
      "fzfg": false,
      "metar_trigger": false,
      "taf_trigger": false,
      "metar": "METAR LIMC 160850Z 36003KT 330V030 0500 R35R/1800U R17L/1400D R35L/1300U FG OVC002 06/06 Q1022 NOSIG",
      "taf": "TAF LIMC 160500Z 1606/1712 VRB05KT 2000 -RA BR BKN003 BKN040"
    },
    {
      "icao": "LIME",
      "alert": "OK",
      "vis_m": 5000,
      "fzfg": false,
      "metar_trigger": false,
      "taf_trigger": false,
      "metar": "METAR LIME 160920Z 22005KT 5000 BR SCT030 07/06 Q1021 NOSIG",
      "taf": "TAF LIME 160500Z 1606/1706 VRB03KT 2000 BR BKN020"
    },
    {
      "icao": "LIMF",
      "alert": "OK",
      "vis_m": 6000,
      "fzfg": false,
      "metar_trigger": false,
      "taf_trigger": false,
      "metar": "METAR LIMF 160920Z VRB02KT 6000 BKN060 06/02 Q1022",
      "taf": "TAF LIMF 160500Z 1606/1706 VRB03KT 6000 SCT020 BKN060"
    },
    {
      "icao": "LIMJ",
      "alert": "OK",
      "vis_m": 9999,
      "fzfg": false,
      "metar_trigger": false,
      "taf_trigger": false,
      "metar": "METAR LIMJ 160920Z 04013KT 9999 SCT018 BKN030 10/06 Q1020",
      "taf": "TAF LIMJ 160500Z 1606/1706 04012KT 9999 SCT020 BKN030"
    },
    {
      "icao": "LIPE",
      "alert": "OK",
      "vis_m": 1500,
      "fzfg": false,
      "metar_trigger": false,
      "taf_trigger": false,
      "metar": "METAR LIPE 160920Z 25002KT 1500 BR BKN005 07/06 Q1022",
      "taf": "TAF LIPE 160500Z 1606/1706 VRB04KT 2000 BR BKN020"
    },
    {
      "icao": "LIPH",
      "alert": "OK",
      "vis_m": 9999,
      "fzfg": false,
      "metar_trigger": false,
      "taf_trigger": false,
      "metar": "METAR LIPH 160920Z 36003KT CAVOK 06/03 Q1022",
      "taf": "TAF LIPH 160500Z 1606/1706 VRB04KT 7000 SCT040"
    },
    {
      "icao": "LIPQ",
      "alert": "OK",
      "vis_m": 3000,
      "fzfg": false,
      "metar_trigger": false,
      "taf_trigger": false,
      "metar": "METAR LIPQ 160920Z AUTO VRB02KT 3000 BR FEW012/// SCT014/// OVC031/// 09/08 Q1022",
      "taf": "TAF LIPQ 160500Z 1606/1706 VRB04KT 3000 BR BKN020"
    },
    {
      "icao": "LIPR",
      "alert": "OK",
      "vis_m": 1500,
      "fzfg": false,
      "metar_trigger": false,
      "taf_trigger": false,
      "metar": "METAR LIPR 160920Z 31004KT 1500 BR BKN003 06/06 Q1023",
      "taf": "TAF LIPR 160500Z 1606/1706 VRB04KT 2000 BR BKN020"
    },
    {
      "icao": "LIPX",
      "alert": "OK",
      "vis_m": 8000,
      "fzfg": false,
      "metar_trigger": false,
      "taf_trigger": false,
      "metar": "METAR LIPX 160920Z VRB01KT 8000 FEW090 07/05 Q1022",
      "taf": "TAF LIPX 160500Z 1606/1706 VRB04KT 4000 BR SCT020 BKN060"
    },
    {
      "icao": "LIPY",
      "alert": "OK",
      "vis_m": 150,
      "fzfg": false,
      "metar_trigger": false,
      "taf_trigger": false,
      "metar": "METAR LIPY 160920Z AUTO VRB02KT 0150 R22/0350N FG VV002 07/07 Q1023",
      "taf": "TAF LIPY 160500Z 1606/1706 VRB05KT 6000 SCT060"
    },
    {
      "icao": "LIPZ",
      "alert": "OK",
      "vis_m": 6000,
      "fzfg": false,
      "metar_trigger": false,
      "taf_trigger": false,
      "metar": "METAR LIPZ 160920Z VRB01KT 6000 SCT018 BKN050 07/04 Q1022 NOSIG",
      "taf": "TAF LIPZ 160500Z 1606/1712 VRB04KT 6000 SCT030"
    },
    {
      "icao": "LIRF",
      "alert": "OK",
      "vis_m": 9999,
      "fzfg": false,
      "metar_trigger": false,
      "taf_trigger": false,
      "metar": "METAR LIRF 160920Z 07006KT CAVOK 10/07 Q1021 NOSIG",
      "taf": "TAF LIRF 160500Z 1606/1712 06007KT CAVOK"
    },
    {
      "icao": "LIRN",
      "alert": "OK",
      "vis_m": 9999,
      "fzfg": false,
      "metar_trigger": false,
      "taf_trigger": false,
      "metar": "METAR LIRN 160920Z 36005KT 320V050 CAVOK 11/06 Q1020 NOSIG",
      "taf": "TAF LIRN 160500Z 1606/1706 VRB05KT CAVOK"
    },
    {
      "icao": "LIRP",
      "alert": "OK",
      "vis_m": 9999,
      "fzfg": false,
      "metar_trigger": false,
      "taf_trigger": false,
      "metar": "METAR LIRP 160915Z 12010KT 9999 BKN060 13/11 Q1020 NOSIG",
      "taf": "TAF LIRP 160500Z 1606/1706 15003KT 9999 SCT020 BKN070"
    },
    {
      "icao": "LIRZ",
      "alert": "OK",
      "vis_m": 9999,
      "fzfg": false,
      "metar_trigger": false,
      "taf_trigger": false,
      "metar": "METAR LIRZ 160920Z AUTO 27003KT 220V350 9999 NCD 08/07 Q1021",
      "taf": "TAF LIRZ 160500Z 1606/1706 VRB04KT 4000 BR FEW040"
    },
    {
      "icao": "LJLJ",
      "alert": "OK",
      "vis_m": 9999,
      "fzfg": false,
      "metar_trigger": false,
      "taf_trigger": false,
      "metar": "METAR LJLJ 160930Z 28003KT 260V330 9999 FEW040 BKN050 02/01 Q1021 NOSIG",
      "taf": "TAF LJLJ 160500Z 1606/1706 30004KT 9999 FEW003 SCT033 BKN050"
    },
    {
      "icao": "LKMT",
      "alert": "OK",
      "vis_m": 2000,
      "fzfg": false,
      "metar_trigger": false,
      "taf_trigger": false,
      "metar": "METAR LKMT 160930Z 24002KT 2000 BR FEW004 OVC008 02/02 Q1023 NOSIG",
      "taf": "TAF LKMT 160500Z 1606/1706 22008KT 5000 BR SCT008 BKN030"
    },
    {
      "icao": "LKPR",
      "alert": "OK",
      "vis_m": 3000,
      "fzfg": false,
      "metar_trigger": false,
      "taf_trigger": false,
      "metar": "METAR LKPR 160930Z 10006KT 050V130 3000 BR SCT002 BKN003 OVC005 M01/M01 Q1021 NOSIG",
      "taf": "TAF LKPR 160800Z 1609/1715 12005KT 1200 BR OVC002"
    },
    {
      "icao": "LLBG",
      "alert": "OK",
      "vis_m": 9999,
      "fzfg": false,
      "metar_trigger": false,
      "taf_trigger": false,
      "metar": "METAR LLBG 160950Z 35005KT 280V040 9999 FEW043 18/07 Q1022 NOSIG",
      "taf": "TAF LLBG 160503Z 1606/1706 VRB03KT 9999 FEW045"
    },
    {
      "icao": "LMML",
      "alert": "OK",
      "vis_m": 9999,
      "fzfg": false,
      "metar_trigger": false,
      "taf_trigger": false,
      "metar": "METAR LMML 160945Z 12011KT CAVOK 16/14 Q1018 NOSIG",
      "taf": "TAF LMML 160500Z 1606/1706 13012KT 9999 FEW020"
    },
    {
      "icao": "LOWW",
      "alert": "OK",
      "vis_m": 550,
      "fzfg": true,
      "metar_trigger": false,
      "taf_trigger": false,
      "metar": "METAR LOWW 160920Z 15005KT 0550 R16/0650N R29/0800U FZFG VV002 M01/M01 Q1023 TEMPO 0800 FZFG VV003",
      "taf": "TAF LOWW 160815Z 1609/1715 14008KT 0400 -FZDZ FZFG VV001 TX01/1704Z TNM01/1609Z"
    },
    {
      "icao": "LPFR",
      "alert": "OK",
      "vis_m": 9000,
      "fzfg": false,
      "metar_trigger": false,
      "taf_trigger": false,
      "metar": "METAR LPFR 160930Z 31004KT 270V340 9000 -RA FEW020 SCT045 11/10 Q1017",
      "taf": "TAF LPFR 160500Z 1606/1706 30010KT 9999 FEW015"
    },
    {
      "icao": "LPMA",
      "alert": "OK",
      "vis_m": 9999,
      "fzfg": false,
      "metar_trigger": false,
      "taf_trigger": false,
      "metar": "METAR LPMA 160930Z VRB06KT 9999 SCT015 16/10 Q1026",
      "taf": "TAF LPMA 160500Z 1606/1706 36015KT 9999 SCT015 SCT030"
    },
    {
      "icao": "LPPR",
      "alert": "OK",
      "vis_m": 9999,
      "fzfg": false,
      "metar_trigger": false,
      "taf_trigger": false,
      "metar": "METAR LPPR 160930Z 11005KT 9999 FEW012 FEW018CB SCT040 10/08 Q1012",
      "taf": "TAF LPPR 160500Z 1606/1706 20010KT 9999 SCT012 SCT025"
    },
    {
      "icao": "LPPS",
      "alert": "OK",
      "vis_m": 9999,
      "fzfg": false,
      "metar_trigger": false,
      "taf_trigger": false,
      "metar": "METAR LPPS 160930Z 31013KT 9999 FEW013 SCT030 15/11 Q1025",
      "taf": "TAF LPPS 160500Z 1606/1712 34017KT 9999 SCT015 SCT030"
    },
    {
      "icao": "LPPT",
      "alert": "OK",
      "vis_m": 9999,
      "fzfg": false,
      "metar_trigger": false,
      "taf_trigger": false,
      "metar": "METAR LPPT 160930Z 25009KT 9999 -SHRA FEW018 FEW025TCU 11/09 Q1015",
      "taf": "TAF LPPT 160500Z 1606/1712 24007KT 9999 FEW015 SCT035"
    },
    {
      "icao": "LQBK",
      "alert": "OK",
      "vis_m": 7000,
      "fzfg": false,
      "metar_trigger": false,
      "taf_trigger": false,
      "metar": "METAR LQBK 160930Z VRB01KT 7000 NSC 06/03 Q1022 NOSIG",
      "taf": "TAF LQBK 160500Z 1606/1706 15005KT 9999 SCT047 TX11/1613Z TN00/1705Z"
    },
    {
      "icao": "LQSA",
      "alert": "CRITICAL",
      "vis_m": 50,
      "fzfg": true,
      "metar_trigger": true,
      "taf_trigger": false,
      "metar": "METAR LQSA 160930Z 27001KT 0050 R11/0200N FZFG OVC001 M00/M00 Q1023 BECMG 0400",
      "taf": ""
    },
    {
      "icao": "LQTZ",
      "alert": "OK",
      "vis_m": 4300,
      "fzfg": false,
      "metar_trigger": false,
      "taf_trigger": false,
      "metar": "METAR LQTZ 160930Z VRB02KT 4300 BR FEW005 SCT063 05/03 Q1023",
      "taf": "TAF LQTZ 160500Z 1606/1706 VRB02KT 6000 SCT050 TX10/1613Z TNM02/1705Z"
    },
    {
      "icao": "LRBC",
      "alert": "OK",
      "vis_m": 8000,
      "fzfg": false,
      "metar_trigger": false,
      "taf_trigger": false,
      "metar": "METAR LRBC 160930Z 34005KT 290V010 8000 NSC M05/M10 Q1032",
      "taf": "TAF LRBC 160800Z 1609/1618 34007KT 9999 SCT045"
    },
    {
      "icao": "LRBS",
      "alert": "OK",
      "vis_m": 9999,
      "fzfg": false,
      "metar_trigger": false,
      "taf_trigger": false,
      "metar": "METAR LRBS 160930Z 06013KT 9999 SCT048 M04/M09 Q1031 NOSIG",
      "taf": "TAF LRBS 160500Z 1606/1706 06015KT 3000 -SN BR BKN010 OVC035"
    },
    {
      "icao": "LRBV",
      "alert": "OK",
      "vis_m": 9999,
      "fzfg": false,
      "metar_trigger": false,
      "taf_trigger": false,
      "metar": "METAR LRBV 160930Z 10007KT 9999 FEW026 SCT035 BKN042 M00/M03 Q1026",
      "taf": "TAF LRBV 160800Z 1609/1618 08010KT 5000 BR SCT020 OVC025"
    },
    {
      "icao": "LRCL",
      "alert": "OK",
      "vis_m": 3000,
      "fzfg": false,
      "metar_trigger": false,
      "taf_trigger": false,
      "metar": "METAR LRCL 160930Z 06006KT 3000 -SN BR BKN005 OVC012 00/M00 Q1026",
      "taf": "TAF LRCL 160800Z 1609/1618 VRB04KT 5000 BR OVC005"
    },
    {
      "icao": "LRCV",
      "alert": "OK",
      "vis_m": 1800,
      "fzfg": false,
      "metar_trigger": false,
      "taf_trigger": false,
      "metar": "METAR LRCV 160930Z 08017KT 1800 -SN DRSN BR SCT010 BKN013 OVC017 M02/M03 Q1029 RESN",
      "taf": "TAF LRCV 160800Z 1609/1618 09014KT 5000 BR BKN010 OVC035"
    },
    {
      "icao": "LRIA",
      "alert": "OK",
      "vis_m": 9999,
      "fzfg": false,
      "metar_trigger": false,
      "taf_trigger": false,
      "metar": "METAR LRIA 160930Z 29005KT 260V320 CAVOK M11/M14 Q1034",
      "taf": "TAF LRIA 160800Z 1609/1618 29005KT CAVOK"
    },
    {
      "icao": "LROP",
      "alert": "OK",
      "vis_m": 9999,
      "fzfg": false,
      "metar_trigger": false,
      "taf_trigger": false,
      "metar": "METAR LROP 160930Z 08010KT 9999 OVC026 M03/M10 Q1031 NOSIG",
      "taf": "TAF LROP 160500Z 1606/1706 07015KT 3000 -SN BR BKN010 OVC035"
    },
    {
      "icao": "LRSB",
      "alert": "OK",
      "vis_m": 2000,
      "fzfg": false,
      "metar_trigger": false,
      "taf_trigger": false,
      "metar": "METAR LRSB 160930Z 12003KT 2000 -RA BR SCT003 BKN005 OVC009 02/02 Q1025 BECMG 3000",
      "taf": "TAF LRSB 160500Z 1606/1706 VRB04KT 1500 -DZ BR OVC002"
    },
    {
      "icao": "LRSM",
      "alert": "OK",
      "vis_m": 9999,
      "fzfg": false,
      "metar_trigger": false,
      "taf_trigger": false,
      "metar": "METAR LRSM 160930Z 11005KT 9999 FEW036 03/M01 Q1025",
      "taf": "TAF LRSM 160800Z 1609/1618 09006KT 9999 BKN040"
    },
    {
      "icao": "LRSV",
      "alert": "OK",
      "vis_m": 5000,
      "fzfg": false,
      "metar_trigger": false,
      "taf_trigger": false,
      "metar": "METAR LRSV 160930Z VRB01KT 5000 BR NSC M11/M13 Q1030",
      "taf": "TAF LRSV 160800Z 1609/1618 08005KT 4000 BR NSC"
    },
    {
      "icao": "LRTM",
      "alert": "OK",
      "vis_m": 8000,
      "fzfg": false,
      "metar_trigger": false,
      "taf_trigger": false,
      "metar": "METAR LRTM 160930Z 07005KT 8000 SCT012 BKN022 M00/M02 Q1026",
      "taf": "TAF LRTM 160800Z 1609/1618 VRB04KT 5000 BR OVC005"
    },
    {
      "icao": "LRTR",
      "alert": "OK",
      "vis_m": 3000,
      "fzfg": false,
      "metar_trigger": false,
      "taf_trigger": false,
      "metar": "METAR LRTR 160930Z 10006KT 3000 BR SCT037 03/03 Q1024",
      "taf": "TAF LRTR 160500Z 1606/1706 11008KT 5000 -RA BR BKN040"
    },
    {
      "icao": "LTAC",
      "alert": "OK",
      "vis_m": 6000,
      "fzfg": false,
      "metar_trigger": false,
      "taf_trigger": false,
      "metar": "METAR LTAC 160920Z 24009KT 6000 -RA SCT010 BKN025 BKN080 03/01 Q1020 NOSIG RMK RWY21C 22009KT RWY03L 23008KT RWY21R 22008KT RWY03R 23009KT RWY21L 22010KT",
      "taf": ""
    },
    {
      "icao": "LTFM",
      "alert": "OK",
      "vis_m": 9999,
      "fzfg": false,
      "metar_trigger": false,
      "taf_trigger": false,
      "metar": "METAR LTFM 160920Z 06010KT 9999 SCT008 BKN022 08/07 Q1024 NOSIG RMK RWY17L 06009KT RWY34L 05008KT RWY16R 05009KT RWY36 06008KT 020V080 RWY18 07009KT",
      "taf": "TAF LTFM 160440Z 1606/1712 VRB02KT 9999 FEW008 SCT025 BKN070"
    },
    {
      "icao": "LUKK",
      "alert": "OK",
      "vis_m": 9999,
      "fzfg": false,
      "metar_trigger": false,
      "taf_trigger": false,
      "metar": "METAR LUKK 160930Z 35004KT 290V030 CAVOK M09/M13 Q1032 NOSIG",
      "taf": "TAF LUKK 160518Z 1606/1706 01012KT 9999 BKN015"
    },
    {
      "icao": "LWOH",
      "alert": "OK",
      "vis_m": 9999,
      "fzfg": false,
      "metar_trigger": false,
      "taf_trigger": false,
      "metar": "METAR LWOH 160950Z VRB01KT 9999 BKN050 07/04 Q1023",
      "taf": "TAF LWOH 160835Z 1609/1709 VRB02KT 9999 SCT050"
    },
    {
      "icao": "LWSK",
      "alert": "OK",
      "vis_m": 6000,
      "fzfg": false,
      "metar_trigger": false,
      "taf_trigger": false,
      "metar": "METAR LWSK 160950Z VRB02KT 6000 FEW050 SCT088 07/02 Q1024 NOSIG",
      "taf": "TAF LWSK 160835Z 1609/1709 VRB02KT 9999 SCT050"
    },
    {
      "icao": "LYBE",
      "alert": "OK",
      "vis_m": 4500,
      "fzfg": false,
      "metar_trigger": false,
      "taf_trigger": false,
      "metar": "METAR LYBE 160930Z 34003KT 4500 BR NSC 04/02 Q1023 NOSIG",
      "taf": "TAF LYBE 160500Z 1606/1706 06004KT 9999 SCT045 TX06/1613Z TNM00/1706Z"
    },
    {
      "icao": "LYNI",
      "alert": "OK",
      "vis_m": 9999,
      "fzfg": false,
      "metar_trigger": false,
      "taf_trigger": false,
      "metar": "METAR LYNI 160930Z VRB02KT 9999 FEW080 09/04 Q1024 NOSIG",
      "taf": "TAF LYNI 160500Z 1606/1706 20004KT 9999 SCT050 BKN080 TX07/1612Z TNM01/1706Z"
    },
    {
      "icao": "LYPG",
      "alert": "OK",
      "vis_m": 9999,
      "fzfg": false,
      "metar_trigger": false,
      "taf_trigger": false,
      "metar": "METAR LYPG 160930Z VRB02KT 9999 FEW034 11/08 Q1024 NOSIG",
      "taf": ""
    },
    {
      "icao": "LZIB",
      "alert": "OK",
      "vis_m": 2000,
      "fzfg": false,
      "metar_trigger": false,
      "taf_trigger": false,
      "metar": "METAR LZIB 160930Z 06006KT 2000 BR BKN004 OVC008 00/M00 Q1024 BECMG 1400 BR BKN004 OVC007",
      "taf": ""
    },
    {
      "icao": "LZKZ",
      "alert": "OK",
      "vis_m": 9999,
      "fzfg": false,
      "metar_trigger": false,
      "taf_trigger": false,
      "metar": "METAR LZKZ 160930Z 36005KT 9999 BKN015 02/M00 Q1025 NOSIG",
      "taf": "TAF LZKZ 160515Z 1606/1706 VRB02KT 8000 BKN017"
    },
    {
      "icao": "LZTT",
      "alert": "OK",
      "vis_m": 1000,
      "fzfg": false,
      "metar_trigger": false,
      "taf_trigger": false,
      "metar": "METAR LZTT 160930Z VRB02KT 1000 R27/1900D BR OVC002 00/M00 Q1022 NOSIG",
      "taf": "TAF LZTT 160515Z 1606/1706 VRB02KT 4000 OVC006"
    },
    {
      "icao": "OEJN",
      "alert": "OK",
      "vis_m": 9999,
      "fzfg": false,
      "metar_trigger": false,
      "taf_trigger": false,
      "metar": "METAR OEJN 160900Z 10004KT CAVOK 30/03 Q1014 NOSIG",
      "taf": "TAF OEJN 160500Z 1606/1712 08014KT 6000 NSC"
    },
    {
      "icao": "OEMA",
      "alert": "OK",
      "vis_m": 9999,
      "fzfg": false,
      "metar_trigger": false,
      "taf_trigger": false,
      "metar": "METAR OEMA 160900Z 10010KT CAVOK 17/00 Q1024 NOSIG",
      "taf": "TAF OEMA 160500Z 1606/1712 09015KT 6000 NSC"
    },
    {
      "icao": "OJAI",
      "alert": "OK",
      "vis_m": 3000,
      "fzfg": false,
      "metar_trigger": false,
      "taf_trigger": false,
      "metar": "METAR OJAI 160900Z 17004KT 3000 HZ FEW030 08/05 Q1024 NOSIG",
      "taf": "TAF OJAI 160435Z 1606/1712 VRB02KT 0300 FG NSC"
    },
    {
      "icao": "OMAA",
      "alert": "OK",
      "vis_m": 9999,
      "fzfg": false,
      "metar_trigger": false,
      "taf_trigger": false,
      "metar": "METAR OMAA 160900Z 30015KT 9999 FEW040 22/11 Q1018 NOSIG",
      "taf": "TAF OMAA 160500Z 1606/1712 32013KT 8000 FEW030"
    },
    {
      "icao": "OMDB",
      "alert": "OK",
      "vis_m": 9999,
      "fzfg": false,
      "metar_trigger": false,
      "taf_trigger": false,
      "metar": "METAR OMDB 160930Z 29015KT 9999 BKN040 22/11 Q1017 TEMPO 29020G30KT",
      "taf": "TAF OMDB 160500Z 1606/1712 29014KT 8000 FEW030"
    },
    {
      "icao": "UAAA",
      "alert": "OK",
      "vis_m": 1100,
      "fzfg": false,
      "metar_trigger": false,
      "taf_trigger": false,
      "metar": "METAR UAAA 160930Z 28004MPS 1100 R23L/1400 SN BR OVC015 M12/M14 Q1018 NOSIG",
      "taf": "TAF UAAA 160504Z 1606/1706 33003G08MPS 3100 -SHSN BR BKN011CB OVC030 TXM07/1608Z TNM18/1703Z"
    },
    {
      "icao": "UBBB",
      "alert": "OK",
      "vis_m": 9999,
      "fzfg": false,
      "metar_trigger": false,
      "taf_trigger": false,
      "metar": "METAR UBBB 160930Z 20012KT CAVOK 08/00 Q1021 NOSIG",
      "taf": "TAF UBBB 160502Z 1606/1706 19012KT 9999 FEW025 TX07/1610Z TN01/1702Z"
    },
    {
      "icao": "UDSG",
      "alert": "OK",
      "vis_m": 9999,
      "fzfg": false,
      "metar_trigger": false,
      "taf_trigger": false,
      "metar": "METAR UDSG 160930Z 16002KT 9999 SCT049 M11/M15 Q1020 NOSIG",
      "taf": "TAF UDSG 160500Z 1606/1706 VRB06KT 9999 SCT040"
    },
    {
      "icao": "UDYZ",
      "alert": "OK",
      "vis_m": 9999,
      "fzfg": false,
      "metar_trigger": false,
      "taf_trigger": false,
      "metar": "METAR UDYZ 160930Z VRB02KT 9999 NSC M01/M12 Q1023 NOSIG",
      "taf": "TAF UDYZ 160500Z 1606/1706 VRB06KT 9999 FEW040"
    },
    {
      "icao": "UGKO",
      "alert": "OK",
      "vis_m": 9999,
      "fzfg": false,
      "metar_trigger": false,
      "taf_trigger": false,
      "metar": "METAR UGKO 160930Z 08010KT 9999 SCT016 OVC035 01/00 Q1022 NOSIG",
      "taf": "TAF UGKO 160500Z 1606/1706 10007KT 8000 BKN020 OVC040 TX03/1612Z TN00/1606Z"
    }
  ]
}