{
  "ts_utc": "2025-12-21T08:52:26Z",
  "threshold_m": 150,
  "source": "stations_override.txt (ICAO list) + aviationweather.gov (METAR/TAF raw)",
  "station_count": 114,
  "stations": [
    {
      "icao": "BIKF",
      "alert": "OK",
      "vis_m": 9999,
      "fzfg": false,
      "metar_trigger": false,
      "taf_trigger": false,
      "metar": "METAR BIKF 210830Z 10014KT 9999 FEW016 BKN035 08/06 Q1009",
      "taf": "TAF BIKF 210748Z 2109/2209 11018G28KT 9999 BKN025 TX08/2109Z TN06/2205Z"
    },
    {
      "icao": "BKPR",
      "alert": "OK",
      "vis_m": null,
      "fzfg": true,
      "metar_trigger": false,
      "taf_trigger": false,
      "metar": "",
      "taf": "TAF BKPR 210530Z 2106/2206 VRB03KT 0150 FZFG BKN002"
    },
    {
      "icao": "EBBR",
      "alert": "OK",
      "vis_m": 9999,
      "fzfg": false,
      "metar_trigger": false,
      "taf_trigger": false,
      "metar": "METAR EBBR 210820Z 11005KT CAVOK 09/08 Q1011 NOSIG",
      "taf": "TAF EBBR 210516Z 2106/2212 10005KT CAVOK"
    },
    {
      "icao": "EBCI",
      "alert": "OK",
      "vis_m": 9999,
      "fzfg": false,
      "metar_trigger": false,
      "taf_trigger": false,
      "metar": "METAR EBCI 210820Z 09003KT 050V130 9999 SCT013 09/08 Q1010 TEMPO BKN013",
      "taf": "TAF EBCI 210516Z 2106/2212 12005KT 9999 SCT040"
    },
    {
      "icao": "EDDB",
      "alert": "OK",
      "vis_m": 5000,
      "fzfg": false,
      "metar_trigger": false,
      "taf_trigger": false,
      "metar": "METAR EDDB 210820Z AUTO 10007KT 5000 VCSH BR OVC003 FEW///TCU 06/06 Q1019 NOSIG",
      "taf": "TAF EDDB 210500Z 2106/2206 09008KT 4000 BR OVC002"
    },
    {
      "icao": "EDDH",
      "alert": "OK",
      "vis_m": 9999,
      "fzfg": false,
      "metar_trigger": false,
      "taf_trigger": false,
      "metar": "METAR EDDH 210820Z AUTO 10009KT 9999 OVC003 06/05 Q1017 NOSIG",
      "taf": "TAF EDDH 210500Z 2106/2212 09010KT 9999 FEW007 BKN025"
    },
    {
      "icao": "EDDK",
      "alert": "OK",
      "vis_m": 9999,
      "fzfg": false,
      "metar_trigger": false,
      "taf_trigger": false,
      "metar": "METAR EDDK 210820Z AUTO 10004KT 060V140 CAVOK 09/05 Q1013 NOSIG",
      "taf": "TAF EDDK 210500Z 2106/2212 11007KT CAVOK"
    },
    {
      "icao": "EDDN",
      "alert": "OK",
      "vis_m": 9999,
      "fzfg": false,
      "metar_trigger": false,
      "taf_trigger": false,
      "metar": "METAR EDDN 210820Z AUTO 11003KT CAVOK M00/M01 Q1015 TEMPO BKN004",
      "taf": "TAF EDDN 210500Z 2106/2206 10006KT 6000 FEW005"
    },
    {
      "icao": "EDFH",
      "alert": "OK",
      "vis_m": 9999,
      "fzfg": false,
      "metar_trigger": false,
      "taf_trigger": false,
      "metar": "METAR EDFH 210820Z 14010KT 9999 BCFG NSC 04/04 Q1012",
      "taf": "TAF EDFH 210500Z 2106/2206 14012KT 0800 FG BKN001"
    },
    {
      "icao": "EDJA",
      "alert": "OK",
      "vis_m": 600,
      "fzfg": true,
      "metar_trigger": false,
      "taf_trigger": false,
      "metar": "METAR EDJA 210820Z 07006KT 0600 R24/0800N FZFG VV/// M02/M03 Q1012",
      "taf": "TAF EDJA 210800Z 2109/2118 06006KT 0800 FZFG VV001"
    },
    {
      "icao": "EDLW",
      "alert": "OK",
      "vis_m": 9999,
      "fzfg": false,
      "metar_trigger": false,
      "taf_trigger": false,
      "metar": "METAR EDLW 210820Z 10005KT CAVOK 08/05 Q1013",
      "taf": "TAF EDLW 210500Z 2106/2206 08007KT CAVOK"
    },
    {
      "icao": "EDSB",
      "alert": "OK",
      "vis_m": 8000,
      "fzfg": false,
      "metar_trigger": false,
      "taf_trigger": false,
      "metar": "METAR EDSB 210820Z 05005KT 8000 BCFG FEW002 03/03 Q1012",
      "taf": ""
    },
    {
      "icao": "EETN",
      "alert": "OK",
      "vis_m": 9999,
      "fzfg": false,
      "metar_trigger": false,
      "taf_trigger": false,
      "metar": "METAR EETN 210850Z 31013KT 280V340 9999 OVC014 05/02 Q1009 NOSIG",
      "taf": "TAF EETN 210530Z 2106/2206 32014KT 9999 BKN015 BKN025"
    },
    {
      "icao": "EFHK",
      "alert": "OK",
      "vis_m": 9999,
      "fzfg": false,
      "metar_trigger": false,
      "taf_trigger": false,
      "metar": "METAR EFHK 210850Z 31018KT 9999 BKN015 BKN020 03/00 Q1008 NOSIG",
      "taf": "TAF EFHK 210524Z 2106/2206 31014KT 9999 FEW013 BKN021"
    },
    {
      "icao": "EFTU",
      "alert": "OK",
      "vis_m": 9999,
      "fzfg": false,
      "metar_trigger": false,
      "taf_trigger": false,
      "metar": "METAR EFTU 210850Z AUTO 32008KT 290V010 9999 FEW016 SCT050 04/01 Q1012",
      "taf": "TAF EFTU 210524Z 2106/2206 34010KT 9999 BKN017"
    },
    {
      "icao": "EGGW",
      "alert": "OK",
      "vis_m": 700,
      "fzfg": false,
      "metar_trigger": false,
      "taf_trigger": false,
      "metar": "METAR EGGW 210820Z 10005KT 0700 R07/1500N FG OVC001 08/08 Q1008",
      "taf": "TAF EGGW 210456Z 2106/2206 12007KT 3000 BR BKN002"
    },
    {
      "icao": "EGKK",
      "alert": "OK",
      "vis_m": 9000,
      "fzfg": false,
      "metar_trigger": false,
      "taf_trigger": false,
      "metar": "METAR EGKK 210820Z 08005KT 9000 VCFG BKN007 08/08 Q1007",
      "taf": "TAF EGKK 210454Z 2106/2212 10005KT 9999 SCT010"
    },
    {
      "icao": "EHEH",
      "alert": "OK",
      "vis_m": 9000,
      "fzfg": false,
      "metar_trigger": false,
      "taf_trigger": false,
      "metar": "METAR EHEH 210825Z AUTO 13005KT 110V230 9000 BR OVC021 09/08 Q1012 WHT NOSIG RMK TREND REMOTE BY EHWX",
      "taf": "TAF EHEH 210537Z 2106/2212 10005KT 4800 BR FEW020"
    },
    {
      "icao": "EKBI",
      "alert": "OK",
      "vis_m": 9999,
      "fzfg": false,
      "metar_trigger": false,
      "taf_trigger": false,
      "metar": "METAR EKBI 210820Z AUTO 11013KT 9999 OVC005/// 05/04 Q1020",
      "taf": "TAF EKBI 210827Z 2109/2209 10010KT 9999 BKN007"
    },
    {
      "icao": "EKCH",
      "alert": "OK",
      "vis_m": 9999,
      "fzfg": false,
      "metar_trigger": false,
      "taf_trigger": false,
      "metar": "METAR EKCH 210820Z AUTO 07006KT 9999 OVC016/// 05/04 Q1022 TEMPO BKN012",
      "taf": "TAF EKCH 210827Z 2109/2209 08006KT 9999 BKN018"
    },
    {
      "icao": "ENTO",
      "alert": "OK",
      "vis_m": 9999,
      "fzfg": false,
      "metar_trigger": false,
      "taf_trigger": false,
      "metar": "METAR ENTO 210820Z 36008KT CAVOK M01/M02 Q1022 NOSIG",
      "taf": "TAF ENTO 210500Z 2106/2206 02008KT CAVOK"
    },
    {
      "icao": "EPGD",
      "alert": "OK",
      "vis_m": 9999,
      "fzfg": false,
      "metar_trigger": false,
      "taf_trigger": false,
      "metar": "METAR EPGD 210830Z 27004KT 9999 BKN019 05/02 Q1021",
      "taf": "TAF EPGD 210530Z 2106/2206 26005KT 9999 OVC020"
    },
    {
      "icao": "EPKK",
      "alert": "OK",
      "vis_m": 1000,
      "fzfg": false,
      "metar_trigger": false,
      "taf_trigger": false,
      "metar": "METAR EPKK 210830Z 07004KT 050V110 1000 R25/1300D BR BKN003 04/03 Q1020",
      "taf": "TAF EPKK 210830Z 2109/2209 07003KT 1200 BR OVC003"
    },
    {
      "icao": "EPKT",
      "alert": "OK",
      "vis_m": 500,
      "fzfg": false,
      "metar_trigger": false,
      "taf_trigger": false,
      "metar": "METAR EPKT 210830Z 09003KT 0500 R26/0750N FG OVC001 05/05 Q1019",
      "taf": "TAF EPKT 210530Z 2106/2206 09002KT 0800 FG OVC003"
    },
    {
      "icao": "EPWA",
      "alert": "OK",
      "vis_m": 9999,
      "fzfg": false,
      "metar_trigger": false,
      "taf_trigger": false,
      "metar": "METAR EPWA 210830Z 12003KT 080V140 9999 BKN012 03/01 Q1022 NOSIG",
      "taf": "TAF EPWA 210830Z 2109/2209 VRB04KT 9999 BKN013"
    },
    {
      "icao": "EPWR",
      "alert": "OK",
      "vis_m": 4000,
      "fzfg": false,
      "metar_trigger": false,
      "taf_trigger": false,
      "metar": "METAR EPWR 210830Z 09005KT 4000 BR BKN005 05/04 Q1020",
      "taf": "TAF EPWR 210830Z 2109/2209 09006KT 5000 BR SCT005 BKN045"
    },
    {
      "icao": "ESGG",
      "alert": "OK",
      "vis_m": 4000,
      "fzfg": false,
      "metar_trigger": false,
      "taf_trigger": false,
      "metar": "METAR ESGG 210820Z 07002KT 4000 SCT002 BKN005 04/04 Q1021",
      "taf": "TAF ESGG 210830Z 2109/2209 23003KT 8000 BKN006"
    },
    {
      "icao": "ESKN",
      "alert": "OK",
      "vis_m": 9999,
      "fzfg": false,
      "metar_trigger": false,
      "taf_trigger": false,
      "metar": "METAR ESKN 210820Z 28006KT CAVOK M00/M01 Q1019",
      "taf": "TAF ESKN 210830Z 2109/2209 28008KT CAVOK"
    },
    {
      "icao": "ESMX",
      "alert": "OK",
      "vis_m": 9999,
      "fzfg": false,
      "metar_trigger": false,
      "taf_trigger": false,
      "metar": "METAR ESMX 210820Z AUTO 29003KT 9999 OVC006/// 03/03 Q1021",
      "taf": ""
    },
    {
      "icao": "EVRA",
      "alert": "OK",
      "vis_m": 9999,
      "fzfg": false,
      "metar_trigger": false,
      "taf_trigger": false,
      "metar": "METAR EVRA 210850Z 28005KT 240V320 9999 SCT019 OVC022 06/04 Q1014 NOSIG",
      "taf": "TAF EVRA 210801Z 2109/2209 28010KT 9999 BKN015"
    },
    {
      "icao": "EYKA",
      "alert": "OK",
      "vis_m": 9999,
      "fzfg": false,
      "metar_trigger": false,
      "taf_trigger": false,
      "metar": "METAR EYKA 210850Z 27007KT 9999 OVC018 05/03 Q1017",
      "taf": "TAF EYKA 210512Z 2106/2206 26011KT 7000 SCT010 OVC015"
    },
    {
      "icao": "EYVI",
      "alert": "OK",
      "vis_m": 9999,
      "fzfg": false,
      "metar_trigger": false,
      "taf_trigger": false,
      "metar": "METAR EYVI 210850Z 26007KT 9999 OVC017 04/03 Q1017 NOSIG",
      "taf": "TAF EYVI 210500Z 2106/2206 25009KT 9000 SCT010 OVC015"
    },
    {
      "icao": "GCLP",
      "alert": "OK",
      "vis_m": 9999,
      "fzfg": false,
      "metar_trigger": false,
      "taf_trigger": false,
      "metar": "METAR GCLP 210830Z 33009KT 9999 FEW038 BKN043 17/10 Q1021 NOSIG",
      "taf": "TAF GCLP 210800Z 2109/2209 01015KT 9999 FEW035 TX21/2114Z TN15/2206Z"
    },
    {
      "icao": "GCTS",
      "alert": "OK",
      "vis_m": 9999,
      "fzfg": false,
      "metar_trigger": false,
      "taf_trigger": false,
      "metar": "METAR GCTS 210830Z 13007KT 9999 BKN045 17/11 Q1021 NOSIG",
      "taf": "TAF GCTS 210800Z 2109/2209 VRB04KT 9999 SCT035 TX22/2114Z TN16/2206Z"
    },
    {
      "icao": "HECA",
      "alert": "OK",
      "vis_m": 9999,
      "fzfg": false,
      "metar_trigger": false,
      "taf_trigger": false,
      "metar": "METAR HECA 210830Z 19012KT CAVOK 21/00 Q1014 NOSIG",
      "taf": "TAF HECA 210500Z 2106/2212 17009KT 9999 FEW025"
    },
    {
      "icao": "HEGN",
      "alert": "OK",
      "vis_m": 9999,
      "fzfg": false,
      "metar_trigger": false,
      "taf_trigger": false,
      "metar": "METAR HEGN 210800Z 16005KT CAVOK 22/11 Q1015 NOSIG",
      "taf": "TAF HEGN 210500Z 2106/2212 27006KT 9999 FEW025"
    },
    {
      "icao": "HESH",
      "alert": "OK",
      "vis_m": 9999,
      "fzfg": false,
      "metar_trigger": false,
      "taf_trigger": false,
      "metar": "METAR HESH 210800Z 35002KT CAVOK 22/12 Q1016 NOSIG",
      "taf": "TAF HESH 210500Z 2106/2212 33006KT CAVOK"
    },
    {
      "icao": "HESX",
      "alert": "OK",
      "vis_m": 9999,
      "fzfg": false,
      "metar_trigger": false,
      "taf_trigger": false,
      "metar": "METAR HESX 210800Z 17008KT CAVOK 17/04 Q1014 NOSIG",
      "taf": "TAF HESX 210500Z 2106/2212 18009KT CAVOK"
    },
    {
      "icao": "LATI",
      "alert": "OK",
      "vis_m": 9999,
      "fzfg": false,
      "metar_trigger": false,
      "taf_trigger": false,
      "metar": "METAR LATI 210850Z VRB02KT CAVOK 11/04 Q1016 NOSIG",
      "taf": "TAF LATI 210500Z 2106/2206 VRB05KT CAVOK TX17/2112Z TN00/2205Z"
    },
    {
      "icao": "LBSF",
      "alert": "OK",
      "vis_m": 450,
      "fzfg": false,
      "metar_trigger": false,
      "taf_trigger": false,
      "metar": "METAR LBSF 210830Z 01003KT 0450 R27/0400N FG VV002 02/02 Q1019 TEMPO 0800 BCFG BKN003",
      "taf": "TAF LBSF 210500Z 2106/2206 VRB04KT 2000 BR OVC020"
    },
    {
      "icao": "LBWN",
      "alert": "OK",
      "vis_m": 8000,
      "fzfg": false,
      "metar_trigger": false,
      "taf_trigger": false,
      "metar": "METAR LBWN 210830Z AUTO 27004KT 8000 -SHRA FEW011/// OVC019/// 07/07 Q1019 TEMPO 3000 -RA BR",
      "taf": "TAF LBWN 210500Z 2106/2206 02010KT 7000 BKN015 OVC035"
    },
    {
      "icao": "LCLK",
      "alert": "OK",
      "vis_m": 9999,
      "fzfg": false,
      "metar_trigger": false,
      "taf_trigger": false,
      "metar": "METAR LCLK 210830Z 06011KT 9999 FEW030 BKN060 21/15 Q1014 NOSIG",
      "taf": "TAF LCLK 210530Z 2106/2206 05012KT 9999 SCT030"
    },
    {
      "icao": "LDDU",
      "alert": "OK",
      "vis_m": 9999,
      "fzfg": false,
      "metar_trigger": false,
      "taf_trigger": false,
      "metar": "METAR LDDU 210830Z 07004KT CAVOK 13/05 Q1016 NOSIG",
      "taf": "TAF LDDU 210525Z 2106/2206 05004KT CAVOK TX15/2112Z TN10/2106Z"
    },
    {
      "icao": "LDSP",
      "alert": "OK",
      "vis_m": 9999,
      "fzfg": false,
      "metar_trigger": false,
      "taf_trigger": false,
      "metar": "METAR LDSP 210830Z 03003KT CAVOK 10/04 Q1016 NOSIG",
      "taf": "TAF LDSP 210525Z 2106/2206 VRB02KT CAVOK TX16/2113Z TN06/2106Z"
    },
    {
      "icao": "LDZA",
      "alert": "OK",
      "vis_m": 2000,
      "fzfg": false,
      "metar_trigger": false,
      "taf_trigger": false,
      "metar": "METAR LDZA 210830Z 06003KT 020V100 2000 -DZ BR OVC002 03/02 Q1021 NOSIG",
      "taf": "TAF LDZA 210525Z 2106/2206 VRB02KT 2000 -DZ BR OVC003 TX05/2113Z TN03/2106Z"
    },
    {
      "icao": "LEAL",
      "alert": "OK",
      "vis_m": 9999,
      "fzfg": false,
      "metar_trigger": false,
      "taf_trigger": false,
      "metar": "METAR LEAL 210830Z 24004KT CAVOK 10/07 Q1009 NOSIG",
      "taf": "TAF LEAL 210500Z 2106/2206 24005KT 9999 FEW014 TX15/2112Z TN08/2106Z"
    },
    {
      "icao": "LEBL",
      "alert": "OK",
      "vis_m": 9999,
      "fzfg": false,
      "metar_trigger": false,
      "taf_trigger": false,
      "metar": "METAR LEBL 210830Z 32006KT 280V350 9999 FEW015 10/09 Q1006 NOSIG",
      "taf": "TAF LEBL 210500Z 2106/2206 33008KT 9999 SCT010 BKN050 TX16/2112Z TN09/2106Z"
    },
    {
      "icao": "LECH",
      "alert": "OK",
      "vis_m": 7000,
      "fzfg": false,
      "metar_trigger": false,
      "taf_trigger": false,
      "metar": "METAR LECH 210830Z AUTO VRB01KT 7000 NSC 05/05 Q1006",
      "taf": ""
    },
    {
      "icao": "LEMD",
      "alert": "OK",
      "vis_m": 9999,
      "fzfg": false,
      "metar_trigger": false,
      "taf_trigger": false,
      "metar": "METAR LEMD 210830Z 24007KT 190V280 9999 SCT018 BKN030 06/04 Q1004 NOSIG",
      "taf": ""
    },
    {
      "icao": "LEMG",
      "alert": "OK",
      "vis_m": 9999,
      "fzfg": false,
      "metar_trigger": false,
      "taf_trigger": false,
      "metar": "METAR LEMG 210830Z 28005KT 9999 -RA FEW010 BKN066 10/09 Q1010 NOSIG",
      "taf": "TAF LEMG 210500Z 2106/2206 30007KT 9999 FEW020 SCT035 TX14/2114Z TN07/2106Z"
    },
    {
      "icao": "LERS",
      "alert": "OK",
      "vis_m": 9999,
      "fzfg": false,
      "metar_trigger": false,
      "taf_trigger": false,
      "metar": "METAR LERS 210830Z 02005KT 9999 SCT020 11/08 Q1006",
      "taf": "TAF LERS 210800Z 2109/2209 VRB04KT 9999 FEW015 TX16/2112Z TN06/2206Z"
    },
    {
      "icao": "LEVC",
      "alert": "OK",
      "vis_m": 9999,
      "fzfg": false,
      "metar_trigger": false,
      "taf_trigger": false,
      "metar": "METAR LEVC 210830Z 23007KT CAVOK 10/05 Q1008 NOSIG",
      "taf": "TAF LEVC 210500Z 2106/2206 21005KT 9999 FEW040 TX16/2112Z TN06/2107Z"
    },
    {
      "icao": "LFLL",
      "alert": "OK",
      "vis_m": 9999,
      "fzfg": false,
      "metar_trigger": false,
      "taf_trigger": false,
      "metar": "METAR LFLL 210830Z 13007KT CAVOK 07/05 Q1008 NOSIG",
      "taf": "TAF LFLL 210500Z 2106/2212 14006KT CAVOK"
    },
    {
      "icao": "LFMN",
      "alert": "OK",
      "vis_m": 9999,
      "fzfg": false,
      "metar_trigger": false,
      "taf_trigger": false,
      "metar": "METAR LFMN 210830Z 08015KT 9999 BKN036 15/11 Q1012 NOSIG",
      "taf": "TAF LFMN 210800Z 2109/2215 08020KT 9999 BKN035"
    },
    {
      "icao": "LFOB",
      "alert": "OK",
      "vis_m": 1100,
      "fzfg": false,
      "metar_trigger": false,
      "taf_trigger": false,
      "metar": "METAR LFOB 210830Z AUTO 09006KT 1100 0750 R30/1400D R12/1500D BCFG VV/// 09/09 Q1008 TEMPO 0600 FG",
      "taf": "TAF LFOB 210500Z 2106/2206 13005KT 3000 BR OVC003"
    },
    {
      "icao": "LFPO",
      "alert": "OK",
      "vis_m": 9999,
      "fzfg": false,
      "metar_trigger": false,
      "taf_trigger": false,
      "metar": "METAR LFPO 210830Z AUTO 08004KT 9999 FEW003 BKN120 BKN140 09/09 Q1007 TEMPO 4500 -RA",
      "taf": "TAF LFPO 210500Z 2106/2212 12005KT 8000 NSC"
    },
    {
      "icao": "LFSB",
      "alert": "OK",
      "vis_m": 7000,
      "fzfg": false,
      "metar_trigger": false,
      "taf_trigger": false,
      "metar": "METAR LFSB 210830Z AUTO 24002KT 7000 NSC 01/01 Q1011 NOSIG",
      "taf": ""
    },
    {
      "icao": "LGAV",
      "alert": "OK",
      "vis_m": 9999,
      "fzfg": false,
      "metar_trigger": false,
      "taf_trigger": false,
      "metar": "METAR LGAV 210820Z 03006KT 9999 SCT025 14/08 Q1016 NOSIG",
      "taf": "TAF LGAV 210500Z 2106/2206 02012KT 9999 SCT025"
    },
    {
      "icao": "LGIR",
      "alert": "OK",
      "vis_m": 9999,
      "fzfg": false,
      "metar_trigger": false,
      "taf_trigger": false,
      "metar": "METAR LGIR 210820Z 18006KT 9999 BKN020 15/10 Q1014 NOSIG",
      "taf": "TAF LGIR 210500Z 2106/2206 18008KT 9999 SCT020 BKN080"
    },
    {
      "icao": "LGKR",
      "alert": "OK",
      "vis_m": 9999,
      "fzfg": false,
      "metar_trigger": false,
      "taf_trigger": false,
      "metar": "METAR LGKR 210820Z 00000KT 9999 FEW012 11/09 Q1015 NOSIG",
      "taf": "TAF LGKR 210500Z 2106/2206 VRB05KT 9999 SCT015"
    },
    {
      "icao": "LGRP",
      "alert": "OK",
      "vis_m": 9999,
      "fzfg": false,
      "metar_trigger": false,
      "taf_trigger": false,
      "metar": "METAR LGRP 210820Z 32007KT 9999 DZ FEW012 FEW018TCU BKN020 15/13 Q1014 RETS NOSIG",
      "taf": "TAF LGRP 210500Z 2106/2206 14010KT 9999 FEW018 SCT020"
    },
    {
      "icao": "LGTS",
      "alert": "OK",
      "vis_m": 1000,
      "fzfg": false,
      "metar_trigger": false,
      "taf_trigger": false,
      "metar": "METAR LGTS 210820Z VRB02KT 1000 BR SCT003 07/07 Q1019 NOSIG",
      "taf": ""
    },
    {
      "icao": "LGZA",
      "alert": "OK",
      "vis_m": 9999,
      "fzfg": false,
      "metar_trigger": false,
      "taf_trigger": false,
      "metar": "METAR LGZA 210750Z 00000KT 9999 FEW025 BKN080 14/10 Q1015",
      "taf": "TAF LGZA 210800Z 2109/2118 03008KT 9999 SCT020 SCT080"
    },
    {
      "icao": "LHBP",
      "alert": "OK",
      "vis_m": 4800,
      "fzfg": false,
      "metar_trigger": false,
      "taf_trigger": false,
      "metar": "METAR LHBP 210830Z VRB02KT 4800 BR OVC005 05/04 Q1021 TEMPO OVC004",
      "taf": "TAF LHBP 210515Z 2106/2206 VRB03KT 8000 OVC010"
    },
    {
      "icao": "LHDC",
      "alert": "OK",
      "vis_m": 3100,
      "fzfg": false,
      "metar_trigger": false,
      "taf_trigger": false,
      "metar": "METAR LHDC 210815Z AUTO VRB02KT 3100 BR OVC008 05/05 Q1021 NOSIG",
      "taf": "TAF LHDC 210815Z 2109/2118 VRB03KT 2000 BR OVC006"
    },
    {
      "icao": "LIBD",
      "alert": "OK",
      "vis_m": 9999,
      "fzfg": false,
      "metar_trigger": false,
      "taf_trigger": false,
      "metar": "METAR LIBD 210820Z VRB02KT CAVOK 09/08 Q1016",
      "taf": "TAF LIBD 210500Z 2106/2206 VRB04KT 9999 SCT040"
    },
    {
      "icao": "LICC",
      "alert": "OK",
      "vis_m": 5000,
      "fzfg": false,
      "metar_trigger": false,
      "taf_trigger": false,
      "metar": "METAR LICC 210820Z 08013KT 5000 RA SCT020 BKN040 16/15 Q1012",
      "taf": "TAF LICC 210500Z 2106/2206 05008KT 9999 SCT020"
    },
    {
      "icao": "LICJ",
      "alert": "OK",
      "vis_m": 9999,
      "fzfg": false,
      "metar_trigger": false,
      "taf_trigger": false,
      "metar": "METAR LICJ 210820Z 17003KT CAVOK 15/12 Q1011",
      "taf": "TAF LICJ 210500Z 2106/2206 VRB06KT 9999 SCT040"
    },
    {
      "icao": "LIEO",
      "alert": "OK",
      "vis_m": 9999,
      "fzfg": false,
      "metar_trigger": false,
      "taf_trigger": false,
      "metar": "METAR LIEO 210820Z VRB01KT 9999 BKN020 13/13 Q1011",
      "taf": "TAF LIEO 210500Z 2106/2206 VRB05KT 9999 BKN020"
    },
    {
      "icao": "LIMC",
      "alert": "OK",
      "vis_m": 9999,
      "fzfg": false,
      "metar_trigger": false,
      "taf_trigger": false,
      "metar": "METAR LIMC 210820Z 10003KT 050V140 9999 FEW025 BKN055 08/07 Q1016 NOSIG",
      "taf": "TAF LIMC 210500Z 2106/2212 VRB03KT 9999 BKN070"
    },
    {
      "icao": "LIME",
      "alert": "OK",
      "vis_m": 9999,
      "fzfg": false,
      "metar_trigger": false,
      "taf_trigger": false,
      "metar": "METAR LIME 210820Z 01003KT 9999 FEW120 05/05 Q1016 NOSIG",
      "taf": "TAF LIME 210500Z 2106/2206 VRB03KT 9000 SCT080"
    },
    {
      "icao": "LIPH",
      "alert": "OK",
      "vis_m": 9999,
      "fzfg": false,
      "metar_trigger": false,
      "taf_trigger": false,
      "metar": "METAR LIPH 210820Z 26001KT CAVOK 04/04 Q1017",
      "taf": "TAF LIPH 210500Z 2106/2206 VRB04KT 8000 FEW030"
    },
    {
      "icao": "LIPQ",
      "alert": "OK",
      "vis_m": 9999,
      "fzfg": false,
      "metar_trigger": false,
      "taf_trigger": false,
      "metar": "METAR LIPQ 210820Z AUTO VRB01KT 9999 NCD 05/05 Q1017",
      "taf": "TAF LIPQ 210500Z 2106/2206 VRB04KT CAVOK"
    },
    {
      "icao": "LIPX",
      "alert": "OK",
      "vis_m": 8000,
      "fzfg": false,
      "metar_trigger": false,
      "taf_trigger": false,
      "metar": "METAR LIPX 210820Z 34003KT 8000 FEW015 04/04 Q1017",
      "taf": "TAF LIPX 210500Z 2106/2206 VRB03KT 0200 FG OVC002"
    },
    {
      "icao": "LIPY",
      "alert": "OK",
      "vis_m": 5000,
      "fzfg": false,
      "metar_trigger": false,
      "taf_trigger": false,
      "metar": "METAR LIPY 210820Z AUTO 21002KT 5000 BR ///////// 11/10 Q1016",
      "taf": "TAF LIPY 210500Z 2106/2206 VRB05KT 8000 OVC020"
    },
    {
      "icao": "LIPZ",
      "alert": "OK",
      "vis_m": 9999,
      "fzfg": false,
      "metar_trigger": false,
      "taf_trigger": false,
      "metar": "METAR LIPZ 210820Z 32003KT 310V020 CAVOK 05/03 Q1017 NOSIG",
      "taf": "TAF LIPZ 210500Z 2106/2212 VRB04KT 8000 FEW020"
    },
    {
      "icao": "LIRA",
      "alert": "OK",
      "vis_m": 9999,
      "fzfg": false,
      "metar_trigger": false,
      "taf_trigger": false,
      "metar": "METAR LIRA 210820Z 02003KT CAVOK 08/06 Q1014",
      "taf": "TAF LIRA 210500Z 2106/2206 VRB05KT CAVOK"
    },
    {
      "icao": "LIRN",
      "alert": "OK",
      "vis_m": 9999,
      "fzfg": false,
      "metar_trigger": false,
      "taf_trigger": false,
      "metar": "METAR LIRN 210820Z 36005KT 270V040 CAVOK 12/08 Q1014 NOSIG",
      "taf": "TAF LIRN 210500Z 2106/2206 05006KT CAVOK"
    },
    {
      "icao": "LLBG",
      "alert": "OK",
      "vis_m": 9999,
      "fzfg": false,
      "metar_trigger": false,
      "taf_trigger": false,
      "metar": "METAR LLBG 210850Z VRB02KT CAVOK 20/07 Q1014 NOSIG",
      "taf": "TAF LLBG 210507Z 2106/2206 VRB04KT CAVOK"
    },
    {
      "icao": "LMML",
      "alert": "OK",
      "vis_m": 9999,
      "fzfg": false,
      "metar_trigger": false,
      "taf_trigger": false,
      "metar": "METAR LMML 210845Z 16007KT 9999 VCSH FEW019 SCT025 17/13 Q1011 NOSIG",
      "taf": "TAF LMML 210500Z 2106/2206 13007KT 9999 SCT014"
    },
    {
      "icao": "LOWW",
      "alert": "OK",
      "vis_m": 1200,
      "fzfg": false,
      "metar_trigger": false,
      "taf_trigger": false,
      "metar": "METAR LOWW 210820Z 15008KT 1200 R16/1200N R29/1200D BR BCFG VV002 01/00 Q1020 TEMPO 1500 -DZ BR",
      "taf": "TAF LOWW 210815Z 2109/2215 14007KT 3000 BR SCT001 OVC002 TX04/2214Z TN01/2109Z"
    },
    {
      "icao": "LPFR",
      "alert": "OK",
      "vis_m": 9999,
      "fzfg": false,
      "metar_trigger": false,
      "taf_trigger": false,
      "metar": "METAR LPFR 210830Z 28004KT 9999 FEW015 SCT040 11/10 Q1011",
      "taf": ""
    },
    {
      "icao": "LPPR",
      "alert": "OK",
      "vis_m": 9000,
      "fzfg": false,
      "metar_trigger": false,
      "taf_trigger": false,
      "metar": "METAR LPPR 210830Z 36008KT 330V050 9000 -SHRA SCT012 FEW020CB BKN025 06/05 Q1007 RERA",
      "taf": "TAF LPPR 210500Z 2106/2206 VRB02KT 9999 SCT018 SCT035"
    },
    {
      "icao": "LPPT",
      "alert": "OK",
      "vis_m": 9999,
      "fzfg": false,
      "metar_trigger": false,
      "taf_trigger": false,
      "metar": "METAR LPPT 210830Z VRB02KT 9999 FEW025 09/06 Q1010",
      "taf": "TAF LPPT 210500Z 2106/2212 29007KT 9999 SCT025"
    },
    {
      "icao": "LQSA",
      "alert": "OK",
      "vis_m": 9999,
      "fzfg": false,
      "metar_trigger": false,
      "taf_trigger": false,
      "metar": "METAR LQSA 210830Z 00000KT 9999 FEW003 SCT009 OVC020 02/01 Q1019 NOSIG",
      "taf": ""
    },
    {
      "icao": "LQTZ",
      "alert": "OK",
      "vis_m": 4000,
      "fzfg": false,
      "metar_trigger": false,
      "taf_trigger": false,
      "metar": "METAR LQTZ 210830Z 13002KT 4000 BR BKN004 OVC017 04/04 Q1020",
      "taf": ""
    },
    {
      "icao": "LRCL",
      "alert": "OK",
      "vis_m": 8000,
      "fzfg": false,
      "metar_trigger": false,
      "taf_trigger": false,
      "metar": "METAR LRCL 210830Z 08003KT 8000 OVC003 03/02 Q1020",
      "taf": "TAF LRCL 210800Z 2109/2118 VRB04KT 5000 BR BKN005"
    },
    {
      "icao": "LRCV",
      "alert": "OK",
      "vis_m": 3000,
      "fzfg": false,
      "metar_trigger": false,
      "taf_trigger": false,
      "metar": "METAR LRCV 210830Z 00000KT 3000 BR OVC002 04/04 Q1021",
      "taf": "TAF LRCV 210800Z 2109/2118 VRB04KT 1500 BR BKN002"
    },
    {
      "icao": "LRIA",
      "alert": "OK",
      "vis_m": 400,
      "fzfg": false,
      "metar_trigger": false,
      "taf_trigger": false,
      "metar": "METAR LRIA 210830Z VRB02KT 0400 R14/0900U FG VV002 01/01 Q1020",
      "taf": "TAF LRIA 210800Z 2109/2118 11006KT 0300 FG VV001"
    },
    {
      "icao": "LROP",
      "alert": "OK",
      "vis_m": 400,
      "fzfg": false,
      "metar_trigger": false,
      "taf_trigger": false,
      "metar": "METAR LROP 210830Z 25004KT 230V290 0400 R08R/0600N R08L/0600N FG OVC001 03/03 Q1021 BECMG 0800 FG OVC002",
      "taf": "TAF LROP 210500Z 2106/2206 VRB04KT 0800 FG OVC002"
    },
    {
      "icao": "LRSB",
      "alert": "OK",
      "vis_m": 200,
      "fzfg": true,
      "metar_trigger": false,
      "taf_trigger": false,
      "metar": "METAR LRSB 210830Z 10003KT 0200 R27/0375N FZFG FEW001 BKN003 M01/M01 Q1020",
      "taf": "TAF LRSB 210500Z 2106/2206 VRB04KT 0200 FZFG VV001"
    },
    {
      "icao": "LRTR",
      "alert": "OK",
      "vis_m": 3400,
      "fzfg": false,
      "metar_trigger": false,
      "taf_trigger": false,
      "metar": "METAR LRTR 210830Z 02004KT 3400 BR SCT002 BKN003 OVC012 05/05 Q1021",
      "taf": "TAF LRTR 210500Z 2106/2206 02006KT 1500 BR OVC003"
    },
    {
      "icao": "LTAF",
      "alert": "OK",
      "vis_m": 9999,
      "fzfg": false,
      "metar_trigger": false,
      "taf_trigger": false,
      "metar": "METAR LTAF 210820Z 23003KT 190V270 CAVOK 15/04 Q1017 NOSIG RMK RWY23 26006KT 7AC100",
      "taf": "TAF LTAF 210440Z 2106/2206 02008KT CAVOK"
    },
    {
      "icao": "LTAI",
      "alert": "OK",
      "vis_m": 6000,
      "fzfg": false,
      "metar_trigger": false,
      "taf_trigger": false,
      "metar": "METAR LTAI 210820Z 36007KT 330V060 6000 -SHRA FEW020CB BKN030 13/12 Q1017 NOSIG RMK RWY18C 35008KT RWY36R 35007KT RWY18L 03004KT 330V070",
      "taf": "TAF LTAI 210440Z 2106/2206 34009KT 9999 -SHRA FEW020CB BKN025"
    },
    {
      "icao": "LTFM",
      "alert": "OK",
      "vis_m": 9999,
      "fzfg": false,
      "metar_trigger": false,
      "taf_trigger": false,
      "metar": "METAR LTFM 210820Z 04004KT 010V080 9999 FEW016 SCT028 BKN100 12/09 Q1017 NOSIG RMK RWY17L 04004KT RWY34L 03004KT RWY16R 04004KT RWY36 02004KT RWY18 05004KT",
      "taf": ""
    },
    {
      "icao": "LUBL",
      "alert": "OK",
      "vis_m": null,
      "fzfg": false,
      "metar_trigger": false,
      "taf_trigger": false,
      "metar": "",
      "taf": ""
    },
    {
      "icao": "LUKK",
      "alert": "OK",
      "vis_m": 600,
      "fzfg": true,
      "metar_trigger": false,
      "taf_trigger": false,
      "metar": "METAR LUKK 210830Z VRB02KT 0600 0500SW R08/0650N FG VV002 00/00 Q1020 TEMPO 0800 FG",
      "taf": "TAF LUKK 210524Z 2106/2206 VRB04KT 0300 FZFG VV001"
    },
    {
      "icao": "LWSK",
      "alert": "OK",
      "vis_m": 250,
      "fzfg": true,
      "metar_trigger": false,
      "taf_trigger": false,
      "metar": "METAR LWSK 210850Z VRB01KT 0250 R34/0400D FZFG VV001 M00/M01 Q1021 NOSIG",
      "taf": "TAF LWSK 210825Z 2109/2209 VRB02KT 0200 FG VV001"
    },
    {
      "icao": "LYBE",
      "alert": "OK",
      "vis_m": 5000,
      "fzfg": false,
      "metar_trigger": false,
      "taf_trigger": false,
      "metar": "METAR LYBE 210830Z 08004KT 5000 BR OVC007 05/03 Q1021 NOSIG",
      "taf": "TAF LYBE 210500Z 2106/2206 07004KT 5000 BR BKN010 TX05/2113Z TN02/2206Z"
    },
    {
      "icao": "LZIB",
      "alert": "OK",
      "vis_m": 1500,
      "fzfg": false,
      "metar_trigger": false,
      "taf_trigger": false,
      "metar": "METAR LZIB 210830Z 15004KT 130V190 1500 -DZ BR OVC002 03/03 Q1020 NOSIG",
      "taf": ""
    },
    {
      "icao": "LZKZ",
      "alert": "OK",
      "vis_m": 9999,
      "fzfg": false,
      "metar_trigger": false,
      "taf_trigger": false,
      "metar": "METAR LZKZ 210830Z 02004KT 9999 OVC006 04/03 Q1020 TEMPO OVC004",
      "taf": "TAF LZKZ 210515Z 2106/2206 VRB02KT 9999 OVC007"
    },
    {
      "icao": "LZTT",
      "alert": "OK",
      "vis_m": 9999,
      "fzfg": false,
      "metar_trigger": false,
      "taf_trigger": false,
      "metar": "METAR LZTT 210830Z 00000KT 9999 FEW046 M01/M01 Q1018 NOSIG",
      "taf": "TAF LZTT 210515Z 2106/2206 VRB02KT 9999 FEW033"
    },
    {
      "icao": "OEJN",
      "alert": "OK",
      "vis_m": 9999,
      "fzfg": false,
      "metar_trigger": false,
      "taf_trigger": false,
      "metar": "METAR OEJN 210800Z 11004KT CAVOK 29/07 Q1013 NOSIG",
      "taf": "TAF OEJN 210500Z 2106/2212 06008KT CAVOK"
    },
    {
      "icao": "OEMA",
      "alert": "OK",
      "vis_m": 9999,
      "fzfg": false,
      "metar_trigger": false,
      "taf_trigger": false,
      "metar": "METAR OEMA 210800Z 14005KT CAVOK 16/M07 Q1022 NOSIG",
      "taf": "TAF OEMA 210500Z 2106/2212 09012KT CAVOK"
    },
    {
      "icao": "OERK",
      "alert": "OK",
      "vis_m": 9999,
      "fzfg": false,
      "metar_trigger": false,
      "taf_trigger": false,
      "metar": "METAR OERK 210800Z 05003KT CAVOK 14/M01 Q1023 NOSIG",
      "taf": "TAF OERK 210500Z 2106/2212 30008KT CAVOK"
    },
    {
      "icao": "OJAI",
      "alert": "OK",
      "vis_m": 5000,
      "fzfg": false,
      "metar_trigger": false,
      "taf_trigger": false,
      "metar": "METAR OJAI 210800Z 13011KT 5000 HZ FEW030 FEW080 13/04 Q1019 NOSIG",
      "taf": "TAF OJAI 210500Z 2106/2212 13014KT 4000 BR NSC"
    },
    {
      "icao": "OKBK",
      "alert": "OK",
      "vis_m": null,
      "fzfg": false,
      "metar_trigger": false,
      "taf_trigger": false,
      "metar": "",
      "taf": ""
    },
    {
      "icao": "OMAA",
      "alert": "OK",
      "vis_m": 9999,
      "fzfg": false,
      "metar_trigger": false,
      "taf_trigger": false,
      "metar": "METAR OMAA 210800Z 17006KT 120V220 9999 FEW030 20/10 Q1020 NOSIG",
      "taf": "TAF OMAA 210500Z 2106/2212 18005KT 8000 FEW040"
    },
    {
      "icao": "UAAA",
      "alert": "OK",
      "vis_m": 2800,
      "fzfg": false,
      "metar_trigger": false,
      "taf_trigger": false,
      "metar": "METAR UAAA 210830Z VRB01MPS 2800 -SHSN BR SCT011 BKN033CB OVC100 M01/M02 Q1023 NOSIG",
      "taf": "TAF UAAA 210503Z 2106/2206 06003MPS 3100 BR SCT011 BKN020CB OVC050 TX00/2107Z TNM06/2201Z"
    },
    {
      "icao": "UCFM",
      "alert": "OK",
      "vis_m": 1300,
      "fzfg": true,
      "metar_trigger": false,
      "taf_trigger": false,
      "metar": "METAR UCFM 210830Z 27002MPS 1300 0750E R07/P1500N -SN BCFG BKN003 OVC026 00/M00 Q1024 NOSIG",
      "taf": "TAF UCFM 210458Z 2106/2206 32003MPS 0600 FZFG BKN003 OVC030CB"
    },
    {
      "icao": "UDYZ",
      "alert": "OK",
      "vis_m": 3400,
      "fzfg": false,
      "metar_trigger": false,
      "taf_trigger": false,
      "metar": "METAR UDYZ 210830Z VRB01KT 3400 BR NSC 01/M03 Q1026 NOSIG",
      "taf": "TAF UDYZ 210500Z 2106/2206 VRB04KT 6000 FEW040"
    },
    {
      "icao": "UGTB",
      "alert": "OK",
      "vis_m": 5000,
      "fzfg": false,
      "metar_trigger": false,
      "taf_trigger": false,
      "metar": "METAR UGTB 210830Z VRB02KT 5000 BR OVC012 02/M00 Q1026 NOSIG",
      "taf": ""
    },
    {
      "icao": "UKKK",
      "alert": "OK",
      "vis_m": null,
      "fzfg": false,
      "metar_trigger": false,
      "taf_trigger": false,
      "metar": "",
      "taf": ""
    },
    {
      "icao": "UTTT",
      "alert": "OK",
      "vis_m": null,
      "fzfg": false,
      "metar_trigger": false,
      "taf_trigger": false,
      "metar": "",
      "taf": ""
    }
  ]
}