{
  "ts_utc": "2026-01-22T10:49:56Z",
  "threshold_m": 150,
  "source": "stations_override.txt (ICAO list) + aviationweather.gov (METAR/TAF raw)",
  "station_count": 159,
  "stations": [
    {
      "icao": "BIKF",
      "alert": "OK",
      "vis_m": 9999,
      "fzfg": false,
      "metar_trigger": false,
      "taf_trigger": false,
      "metar": "METAR BIKF 221030Z 07022KT 9999 FEW038 BKN090 OVC130 06/02 Q0986",
      "taf": "TAF BIKF 221030Z 2212/2312 07018G28KT 9999 SCT020 BKN030 TX08/2216Z TN04/2312Z"
    },
    {
      "icao": "BKPR",
      "alert": "OK",
      "vis_m": 9999,
      "fzfg": false,
      "metar_trigger": false,
      "taf_trigger": false,
      "metar": "METAR BKPR 221030Z 15003KT 110V190 9999 FEW065 04/00 Q1002 NOSIG",
      "taf": "TAF BKPR 220530Z 2206/2306 VRB03KT 9999 BKN025"
    },
    {
      "icao": "EBCI",
      "alert": "OK",
      "vis_m": 9999,
      "fzfg": false,
      "metar_trigger": false,
      "taf_trigger": false,
      "metar": "METAR EBCI 221020Z 16008KT 130V200 CAVOK 07/01 Q0994 NOSIG",
      "taf": "TAF EBCI 220504Z 2206/2312 15008KT CAVOK"
    },
    {
      "icao": "EDDB",
      "alert": "OK",
      "vis_m": 9999,
      "fzfg": false,
      "metar_trigger": false,
      "taf_trigger": false,
      "metar": "METAR EDDB 221020Z AUTO 09007KT CAVOK M02/M06 Q1003 NOSIG",
      "taf": "TAF EDDB 220500Z 2206/2306 08007KT CAVOK"
    },
    {
      "icao": "EDDH",
      "alert": "OK",
      "vis_m": 9999,
      "fzfg": false,
      "metar_trigger": false,
      "taf_trigger": false,
      "metar": "METAR EDDH 221020Z AUTO 09012KT 050V140 CAVOK M01/M05 Q1004 NOSIG",
      "taf": "TAF EDDH 220500Z 2206/2312 09010KT CAVOK"
    },
    {
      "icao": "EDDK",
      "alert": "OK",
      "vis_m": 9999,
      "fzfg": false,
      "metar_trigger": false,
      "taf_trigger": false,
      "metar": "METAR EDDK 221020Z AUTO 13012KT CAVOK 03/M05 Q0997 NOSIG",
      "taf": "TAF EDDK 220500Z 2206/2312 12008KT CAVOK"
    },
    {
      "icao": "EDDN",
      "alert": "OK",
      "vis_m": 9999,
      "fzfg": false,
      "metar_trigger": false,
      "taf_trigger": false,
      "metar": "METAR EDDN 221020Z AUTO 12007KT 9999 OVC009 M07/M09 Q1000 NOSIG",
      "taf": ""
    },
    {
      "icao": "EDDS",
      "alert": "OK",
      "vis_m": 9000,
      "fzfg": false,
      "metar_trigger": false,
      "taf_trigger": false,
      "metar": "METAR EDDS 221020Z AUTO 11003KT 090V150 9000 NSC M01/M04 Q0997 NOSIG",
      "taf": "TAF EDDS 220500Z 2206/2306 VRB02KT CAVOK"
    },
    {
      "icao": "EDFH",
      "alert": "OK",
      "vis_m": 9999,
      "fzfg": false,
      "metar_trigger": false,
      "taf_trigger": false,
      "metar": "METAR EDFH 221020Z 14016KT CAVOK M02/M04 Q0996",
      "taf": "TAF EDFH 220500Z 2206/2306 14013KT CAVOK"
    },
    {
      "icao": "EDJA",
      "alert": "OK",
      "vis_m": 600,
      "fzfg": true,
      "metar_trigger": false,
      "taf_trigger": false,
      "metar": "METAR EDJA 221020Z VRB02KT 0600 R06/1600U FZFG SCT001 OVC004 M04/M04 Q0997",
      "taf": ""
    },
    {
      "icao": "EDLW",
      "alert": "OK",
      "vis_m": 9999,
      "fzfg": false,
      "metar_trigger": false,
      "taf_trigger": false,
      "metar": "METAR EDLW 221020Z VRB01KT CAVOK 01/M04 Q0997",
      "taf": "TAF EDLW 220500Z 2206/2306 VRB03KT CAVOK"
    },
    {
      "icao": "EDNY",
      "alert": "OK",
      "vis_m": 3600,
      "fzfg": false,
      "metar_trigger": false,
      "taf_trigger": false,
      "metar": "METAR EDNY 221020Z 09003KT 3600 BR OVC003 M02/M02 Q0999",
      "taf": ""
    },
    {
      "icao": "EDSB",
      "alert": "OK",
      "vis_m": 1400,
      "fzfg": false,
      "metar_trigger": false,
      "taf_trigger": false,
      "metar": "METAR EDSB 221020Z VRB01KT 1400 R21/1900U BR BKN002 OVC004 M02/M02 Q1000",
      "taf": "TAF EDSB 220500Z 2206/2306 VRB03KT 3000 BR OVC005"
    },
    {
      "icao": "EETN",
      "alert": "OK",
      "vis_m": 9999,
      "fzfg": false,
      "metar_trigger": false,
      "taf_trigger": false,
      "metar": "METAR EETN 221020Z 08011KT 9999 -SN OVC013 M07/M09 Q1024 NOSIG",
      "taf": "TAF EETN 220530Z 2206/2306 09014KT 9999 OVC015"
    },
    {
      "icao": "EFTU",
      "alert": "OK",
      "vis_m": 9999,
      "fzfg": false,
      "metar_trigger": false,
      "taf_trigger": false,
      "metar": "METAR EFTU 221020Z AUTO 10009KT 9999 OVC011 M06/M08 Q1025",
      "taf": "TAF EFTU 220823Z 2209/2309 09011KT 9999 OVC014"
    },
    {
      "icao": "EGBB",
      "alert": "OK",
      "vis_m": 8000,
      "fzfg": false,
      "metar_trigger": false,
      "taf_trigger": false,
      "metar": "METAR EGBB 221020Z 12009KT 8000 -RA BKN006 08/07 Q0987",
      "taf": "TAF EGBB 220454Z 2206/2306 12012KT 9999 SCT006 BKN010"
    },
    {
      "icao": "EGGP",
      "alert": "OK",
      "vis_m": 6000,
      "fzfg": false,
      "metar_trigger": false,
      "taf_trigger": false,
      "metar": "METAR EGGP 221020Z 11011KT 6000 -RADZ OVC009 08/06 Q0987",
      "taf": ""
    },
    {
      "icao": "EGGW",
      "alert": "OK",
      "vis_m": 6000,
      "fzfg": false,
      "metar_trigger": false,
      "taf_trigger": false,
      "metar": "METAR EGGW 221020Z AUTO 12011KT 6000 -RA OVC002 07/06 Q0988",
      "taf": "TAF EGGW 220456Z 2206/2306 13012KT 9999 BKN007"
    },
    {
      "icao": "EGKK",
      "alert": "OK",
      "vis_m": 9999,
      "fzfg": false,
      "metar_trigger": false,
      "taf_trigger": false,
      "metar": "METAR EGKK 221020Z 13008KT 9999 BKN008 09/08 Q0988",
      "taf": "TAF EGKK 220457Z 2206/2312 13008KT 9999 FEW010 SCT030"
    },
    {
      "icao": "EGNM",
      "alert": "OK",
      "vis_m": 1100,
      "fzfg": false,
      "metar_trigger": false,
      "taf_trigger": false,
      "metar": "METAR EGNM 221020Z 09012KT 1100 R14/P1500N -RA FG OVC001 05/05 Q0989",
      "taf": "TAF EGNM 220455Z 2206/2306 12012KT 6000 BKN008"
    },
    {
      "icao": "EGPD",
      "alert": "OK",
      "vis_m": 6000,
      "fzfg": false,
      "metar_trigger": false,
      "taf_trigger": false,
      "metar": "METAR EGPD 221020Z 12022G36KT 6000 OVC011 06/03 Q0996 TEMPO BKN015",
      "taf": "TAF EGPD 220454Z 2206/2306 13020G35KT 9999 BKN012"
    },
    {
      "icao": "EGPF",
      "alert": "OK",
      "vis_m": 9999,
      "fzfg": false,
      "metar_trigger": false,
      "taf_trigger": false,
      "metar": "METAR EGPF 221020Z AUTO 08012KT 9999 -RA SCT017/// BKN025/// OVC036/// //////TCU 08/06 Q0989",
      "taf": "TAF EGPF 220456Z 2206/2306 08011KT 9999 FEW012 BKN025"
    },
    {
      "icao": "EHBK",
      "alert": "OK",
      "vis_m": 9999,
      "fzfg": false,
      "metar_trigger": false,
      "taf_trigger": false,
      "metar": "METAR EHBK 221025Z AUTO 07006KT 040V110 9999 NSC 04/M01 Q0995 NOSIG",
      "taf": "TAF EHBK 220504Z 2206/2312 09007KT CAVOK"
    },
    {
      "icao": "EHEH",
      "alert": "OK",
      "vis_m": 9999,
      "fzfg": false,
      "metar_trigger": false,
      "taf_trigger": false,
      "metar": "METAR EHEH 221025Z AUTO 10007KT 070V140 9999 OVC220 03/M03 Q0995 BLU NOSIG RMK TREND REMOTE BY EHWX",
      "taf": "TAF EHEH 220547Z 2206/2312 09006KT CAVOK"
    },
    {
      "icao": "EKBI",
      "alert": "OK",
      "vis_m": 9999,
      "fzfg": false,
      "metar_trigger": false,
      "taf_trigger": false,
      "metar": "METAR EKBI 221020Z AUTO 08013KT 9999 -SN OVC020/// M01/M05 Q1008",
      "taf": ""
    },
    {
      "icao": "EKCH",
      "alert": "OK",
      "vis_m": 4000,
      "fzfg": false,
      "metar_trigger": false,
      "taf_trigger": false,
      "metar": "METAR EKCH 221020Z 06013KT 4000 -SN FEW011 SCT013 BKN015 M01/M03 Q1009 TEMPO 6000 BKN014",
      "taf": ""
    },
    {
      "icao": "ENAL",
      "alert": "OK",
      "vis_m": 9999,
      "fzfg": false,
      "metar_trigger": false,
      "taf_trigger": false,
      "metar": "METAR ENAL 221020Z 13013KT CAVOK 05/M08 Q1012",
      "taf": "TAF ENAL 220800Z 2209/2218 12008KT CAVOK"
    },
    {
      "icao": "ENBR",
      "alert": "OK",
      "vis_m": 9999,
      "fzfg": false,
      "metar_trigger": false,
      "taf_trigger": false,
      "metar": "METAR ENBR 221020Z 34003KT 290V360 CAVOK 01/M07 Q1010 NOSIG RMK WIND 1200FT 30002KT",
      "taf": "TAF ENBR 220500Z 2206/2306 07005KT CAVOK"
    },
    {
      "icao": "ENGM",
      "alert": "OK",
      "vis_m": 9999,
      "fzfg": false,
      "metar_trigger": false,
      "taf_trigger": false,
      "metar": "METAR ENGM 221020Z 08008KT 9999 OVC024 M02/M07 Q1020 NOSIG",
      "taf": "TAF ENGM 220500Z 2206/2306 02008KT 9999 OVC020"
    },
    {
      "icao": "ENHD",
      "alert": "OK",
      "vis_m": 9999,
      "fzfg": false,
      "metar_trigger": false,
      "taf_trigger": false,
      "metar": "METAR ENHD 221020Z 10013KT CAVOK 03/M08 Q1010",
      "taf": "TAF ENHD 220800Z 2209/2218 10012KT CAVOK"
    },
    {
      "icao": "ENTC",
      "alert": "OK",
      "vis_m": 9999,
      "fzfg": false,
      "metar_trigger": false,
      "taf_trigger": false,
      "metar": "METAR ENTC 221020Z 03002KT 9999 FEW005 M09/M10 Q1024 NOSIG RMK WIND 2600FT 09008KT",
      "taf": "TAF ENTC 220500Z 2206/2306 VRB02KT 9999 FEW001"
    },
    {
      "icao": "ENTO",
      "alert": "OK",
      "vis_m": 9999,
      "fzfg": false,
      "metar_trigger": false,
      "taf_trigger": false,
      "metar": "METAR ENTO 221020Z 04014KT 9999 OVC024 M01/M05 Q1018 NOSIG",
      "taf": "TAF ENTO 220500Z 2206/2306 04012KT 9999 OVC020"
    },
    {
      "icao": "ENVA",
      "alert": "OK",
      "vis_m": 9999,
      "fzfg": false,
      "metar_trigger": false,
      "taf_trigger": false,
      "metar": "METAR ENVA 221020Z 10010KT CAVOK M01/M08 Q1020 NOSIG RMK WIND 670FT 14013KT",
      "taf": "TAF ENVA 220500Z 2206/2306 11010KT CAVOK"
    },
    {
      "icao": "ENZV",
      "alert": "OK",
      "vis_m": 9999,
      "fzfg": false,
      "metar_trigger": false,
      "taf_trigger": false,
      "metar": "METAR ENZV 221020Z COR 08010KT CAVOK 02/M08 Q1010 NOSIG",
      "taf": "TAF ENZV 220500Z 2206/2306 10009KT CAVOK"
    },
    {
      "icao": "EPGD",
      "alert": "OK",
      "vis_m": 4000,
      "fzfg": false,
      "metar_trigger": false,
      "taf_trigger": false,
      "metar": "METAR EPGD 221030Z 11006KT 4000 BR NSC M10/M11 Q1007",
      "taf": ""
    },
    {
      "icao": "EPKK",
      "alert": "OK",
      "vis_m": 5000,
      "fzfg": false,
      "metar_trigger": false,
      "taf_trigger": false,
      "metar": "METAR EPKK 221030Z 06004KT 5000 HZ NSC M06/M10 Q1003",
      "taf": "TAF EPKK 220830Z 2209/2309 05005KT 4000 BR NSC"
    },
    {
      "icao": "EPKT",
      "alert": "OK",
      "vis_m": 6000,
      "fzfg": false,
      "metar_trigger": false,
      "taf_trigger": false,
      "metar": "METAR EPKT 221030Z 10003KT 080V140 6000 NSC M03/M09 Q1002",
      "taf": "TAF EPKT 220530Z 2206/2306 05004KT 7000 NSC"
    },
    {
      "icao": "EPLB",
      "alert": "OK",
      "vis_m": 3000,
      "fzfg": false,
      "metar_trigger": false,
      "taf_trigger": false,
      "metar": "METAR EPLB 221030Z 07007KT 3000 BR NSC M15/M16 Q1007",
      "taf": ""
    },
    {
      "icao": "EPMO",
      "alert": "OK",
      "vis_m": 5000,
      "fzfg": false,
      "metar_trigger": false,
      "taf_trigger": false,
      "metar": "METAR EPMO 221030Z 07013KT 5000 BR NSC M09/M11 Q1007",
      "taf": ""
    },
    {
      "icao": "EPPO",
      "alert": "OK",
      "vis_m": 9999,
      "fzfg": false,
      "metar_trigger": false,
      "taf_trigger": false,
      "metar": "METAR EPPO 221030Z 11003KT 050V110 CAVOK 01/M07 Q1004",
      "taf": "TAF EPPO 220530Z 2206/2306 09010KT CAVOK"
    },
    {
      "icao": "EPRA",
      "alert": "OK",
      "vis_m": 5000,
      "fzfg": false,
      "metar_trigger": false,
      "taf_trigger": false,
      "metar": "METAR EPRA 221030Z 05005KT 5000 BR NSC M11/M15 Q1005",
      "taf": "TAF EPRA 220830Z 2209/2218 09006KT 7000 NSC"
    },
    {
      "icao": "EPRZ",
      "alert": "OK",
      "vis_m": 3300,
      "fzfg": false,
      "metar_trigger": false,
      "taf_trigger": false,
      "metar": "METAR EPRZ 221030Z 09007KT 3300 BR NSC M11/M14 Q1005",
      "taf": "TAF EPRZ 220530Z 2206/2306 08003KT 4000 BR NSC"
    },
    {
      "icao": "EPSC",
      "alert": "OK",
      "vis_m": 5000,
      "fzfg": false,
      "metar_trigger": false,
      "taf_trigger": false,
      "metar": "METAR EPSC 221030Z 08005KT 040V110 5000 BR NSC M04/M07 Q1005",
      "taf": ""
    },
    {
      "icao": "EPSY",
      "alert": "OK",
      "vis_m": 5000,
      "fzfg": false,
      "metar_trigger": false,
      "taf_trigger": false,
      "metar": "METAR EPSY 221030Z 08005KT 030V130 5000 BR NSC M10/M11 Q1009",
      "taf": "TAF EPSY 220830Z 2209/2218 07006KT 7000 NSC"
    },
    {
      "icao": "EPWA",
      "alert": "OK",
      "vis_m": 9000,
      "fzfg": false,
      "metar_trigger": false,
      "taf_trigger": false,
      "metar": "METAR EPWA 221030Z 09007KT 9000 NSC M06/M11 Q1006 NOSIG",
      "taf": "TAF EPWA 220830Z 2209/2309 09010KT 6000 NSC"
    },
    {
      "icao": "EPWR",
      "alert": "OK",
      "vis_m": 9999,
      "fzfg": false,
      "metar_trigger": false,
      "taf_trigger": false,
      "metar": "METAR EPWR 221030Z 11005KT CAVOK 00/M08 Q1003",
      "taf": "TAF EPWR 220830Z 2209/2309 12007KT CAVOK"
    },
    {
      "icao": "ESGG",
      "alert": "OK",
      "vis_m": 9999,
      "fzfg": false,
      "metar_trigger": false,
      "taf_trigger": false,
      "metar": "METAR ESGG 221020Z 08014G25KT 050V120 9999 BKN028 00/M05 Q1012",
      "taf": "TAF ESGG 220830Z 2209/2309 06013G25KT 9999 BKN025"
    },
    {
      "icao": "ESKN",
      "alert": "OK",
      "vis_m": 9999,
      "fzfg": false,
      "metar_trigger": false,
      "taf_trigger": false,
      "metar": "METAR ESKN 221020Z 07016KT 9999 SCT017 BKN022 M02/M05 Q1019",
      "taf": "TAF ESKN 220830Z 2209/2309 07012KT 9000 -SN SCT012 OVC020"
    },
    {
      "icao": "ESMS",
      "alert": "OK",
      "vis_m": 6000,
      "fzfg": false,
      "metar_trigger": false,
      "taf_trigger": false,
      "metar": "METAR ESMS 221020Z 07015KT 6000 OVC016 M01/M04 Q1008",
      "taf": "TAF ESMS 220827Z 2209/2309 07015KT 9000 BKN020"
    },
    {
      "icao": "ESSA",
      "alert": "OK",
      "vis_m": 9999,
      "fzfg": false,
      "metar_trigger": false,
      "taf_trigger": false,
      "metar": "METAR ESSA 221020Z 08013KT 9999 SCT013 BKN017 M03/M05 Q1021 NOSIG",
      "taf": "TAF ESSA 220830Z 2209/2309 08012KT 9000 -SN SCT008 OVC015"
    },
    {
      "icao": "EYKA",
      "alert": "OK",
      "vis_m": 9999,
      "fzfg": false,
      "metar_trigger": false,
      "taf_trigger": false,
      "metar": "METAR EYKA 221020Z VRB14KT 9999 -SN OVC011 M09/M12 Q1015",
      "taf": ""
    },
    {
      "icao": "EYPA",
      "alert": "OK",
      "vis_m": 9999,
      "fzfg": false,
      "metar_trigger": false,
      "taf_trigger": false,
      "metar": "METAR EYPA 221020Z 09013KT 9999 BKN012 M06/M10 Q1014",
      "taf": "TAF EYPA 220506Z 2206/2306 09010KT 8000 BKN010"
    },
    {
      "icao": "EYVI",
      "alert": "OK",
      "vis_m": 9999,
      "fzfg": false,
      "metar_trigger": false,
      "taf_trigger": false,
      "metar": "METAR EYVI 221020Z 09008KT 9999 -SN OVC009 M11/M12 Q1014 NOSIG",
      "taf": "TAF EYVI 220500Z 2206/2306 08012KT 5000 BR BKN005"
    },
    {
      "icao": "GCFV",
      "alert": "OK",
      "vis_m": 9999,
      "fzfg": false,
      "metar_trigger": false,
      "taf_trigger": false,
      "metar": "METAR GCFV 221030Z VRB02KT 9999 SCT025 BKN032 19/15 Q1021",
      "taf": ""
    },
    {
      "icao": "GCLP",
      "alert": "OK",
      "vis_m": 9999,
      "fzfg": false,
      "metar_trigger": false,
      "taf_trigger": false,
      "metar": "METAR GCLP 221030Z 29004KT 230V350 9999 FEW025 20/14 Q1021 NOSIG",
      "taf": "TAF GCLP 220800Z 2209/2309 36007KT 9999 FEW025 SCT040 TX21/2214Z TN15/2306Z"
    },
    {
      "icao": "GCTS",
      "alert": "OK",
      "vis_m": 9999,
      "fzfg": false,
      "metar_trigger": false,
      "taf_trigger": false,
      "metar": "METAR GCTS 221030Z 08006KT 9999 BKN025 18/13 Q1022 NOSIG",
      "taf": "TAF GCTS 220800Z 2209/2309 VRB06KT 9999 SCT030 TX22/2214Z TN14/2306Z"
    },
    {
      "icao": "GMAD",
      "alert": "OK",
      "vis_m": 6000,
      "fzfg": false,
      "metar_trigger": false,
      "taf_trigger": false,
      "metar": "METAR GMAD 221030Z 22006KT 6000 SCT004 BKN016 15/15 Q1017 NOSIG",
      "taf": "TAF GMAD 220500Z 2206/2312 24006KT 6000 SCT008 SCT026"
    },
    {
      "icao": "GMMN",
      "alert": "OK",
      "vis_m": 9999,
      "fzfg": false,
      "metar_trigger": false,
      "taf_trigger": false,
      "metar": "METAR GMMN 221030Z 22009KT 9999 SCT016 BKN130 15/14 Q1016 NOSIG",
      "taf": "TAF GMMN 220500Z 2206/2312 26008KT 8000 BKN004"
    },
    {
      "icao": "GMMX",
      "alert": "OK",
      "vis_m": 8000,
      "fzfg": false,
      "metar_trigger": false,
      "taf_trigger": false,
      "metar": "METAR GMMX 221030Z 27003KT 210V310 8000 SCT006 BKN020 14/13 Q1018 NOSIG",
      "taf": "TAF GMMX 220500Z 2206/2312 24006KT 8000 BKN026 SCT080"
    },
    {
      "icao": "HEGN",
      "alert": "OK",
      "vis_m": 9999,
      "fzfg": false,
      "metar_trigger": false,
      "taf_trigger": false,
      "metar": "METAR HEGN 221000Z 13010KT CAVOK 25/13 Q1013 NOSIG",
      "taf": ""
    },
    {
      "icao": "HEMA",
      "alert": "OK",
      "vis_m": 9999,
      "fzfg": false,
      "metar_trigger": false,
      "taf_trigger": false,
      "metar": "METAR HEMA 221000Z 02008KT CAVOK 26/16 Q1014 NOSIG",
      "taf": ""
    },
    {
      "icao": "HESH",
      "alert": "OK",
      "vis_m": 9999,
      "fzfg": false,
      "metar_trigger": false,
      "taf_trigger": false,
      "metar": "METAR HESH 221000Z 01006KT CAVOK 25/11 Q1014 NOSIG",
      "taf": ""
    },
    {
      "icao": "HESX",
      "alert": "OK",
      "vis_m": 9999,
      "fzfg": false,
      "metar_trigger": false,
      "taf_trigger": false,
      "metar": "METAR HESX 221000Z 17003KT CAVOK 18/03 Q1012 NOSIG",
      "taf": ""
    },
    {
      "icao": "LATI",
      "alert": "OK",
      "vis_m": 9999,
      "fzfg": false,
      "metar_trigger": false,
      "taf_trigger": false,
      "metar": "METAR LATI 221020Z VRB01KT 9999 SCT057 BKN090 11/05 Q1001 NOSIG",
      "taf": "TAF LATI 220500Z 2206/2306 VRB05KT 9999 BKN060 TX13/2212Z TN07/2305Z"
    },
    {
      "icao": "LBPD",
      "alert": "OK",
      "vis_m": 6000,
      "fzfg": false,
      "metar_trigger": false,
      "taf_trigger": false,
      "metar": "METAR LBPD 221030Z AUTO VRB02KT 6000 -SHRA OVC014/// 01/M00 Q1006 NOSIG",
      "taf": "TAF LBPD 220500Z 2206/2306 VRB03KT 6000 BKN015 OVC025"
    },
    {
      "icao": "LBSF",
      "alert": "OK",
      "vis_m": 9999,
      "fzfg": false,
      "metar_trigger": false,
      "taf_trigger": false,
      "metar": "METAR LBSF 221030Z 09006KT 9999 FEW019 BKN023 OVC036 02/M01 Q1004 NOSIG",
      "taf": "TAF LBSF 220500Z 2206/2306 12010KT 8000 SCT020 BKN030 OVC040"
    },
    {
      "icao": "LBWN",
      "alert": "OK",
      "vis_m": 7000,
      "fzfg": false,
      "metar_trigger": false,
      "taf_trigger": false,
      "metar": "METAR LBWN 221030Z 12007KT 7000 -RA SCT013 BKN020 OVC033 06/06 Q1006 TEMPO 4000 RA",
      "taf": "TAF LBWN 220500Z 2206/2306 11010KT 9999 BKN020 OVC040"
    },
    {
      "icao": "LCLK",
      "alert": "OK",
      "vis_m": 9999,
      "fzfg": false,
      "metar_trigger": false,
      "taf_trigger": false,
      "metar": "METAR LCLK 221030Z 05023KT 9999 -RA SCT018 13/10 Q1016 NOSIG",
      "taf": "TAF LCLK 220530Z 2206/2306 05020KT 9999 BKN070"
    },
    {
      "icao": "LCPH",
      "alert": "OK",
      "vis_m": 9999,
      "fzfg": false,
      "metar_trigger": false,
      "taf_trigger": false,
      "metar": "METAR LCPH 221030Z 11017KT 090V160 9999 SCT080 17/06 Q1013 NOSIG",
      "taf": "TAF LCPH 220530Z 2206/2306 13020G30KT 9999 BKN070"
    },
    {
      "icao": "LEAL",
      "alert": "OK",
      "vis_m": 9999,
      "fzfg": false,
      "metar_trigger": false,
      "taf_trigger": false,
      "metar": "METAR LEAL 221030Z 29026G37KT CAVOK 15/03 Q1002 NOSIG",
      "taf": "TAF LEAL 220500Z 2206/2306 VRB04KT 9999 BKN040 TX18/2213Z TN09/2306Z"
    },
    {
      "icao": "LEBB",
      "alert": "OK",
      "vis_m": 9999,
      "fzfg": false,
      "metar_trigger": false,
      "taf_trigger": false,
      "metar": "METAR LEBB 221030Z 21007KT 160V270 9999 FEW040 SCT059 12/05 Q1002 NOSIG",
      "taf": ""
    },
    {
      "icao": "LEBL",
      "alert": "OK",
      "vis_m": 9999,
      "fzfg": false,
      "metar_trigger": false,
      "taf_trigger": false,
      "metar": "METAR LEBL 221030Z 32007KT 290V360 9999 FEW020 11/08 Q0997 NOSIG",
      "taf": ""
    },
    {
      "icao": "LECH",
      "alert": "OK",
      "vis_m": 9000,
      "fzfg": false,
      "metar_trigger": false,
      "taf_trigger": false,
      "metar": "METAR LECH 221030Z AUTO 30011KT 240V350 9000 NSC 13/01 Q0999",
      "taf": ""
    },
    {
      "icao": "LEMD",
      "alert": "OK",
      "vis_m": 9999,
      "fzfg": false,
      "metar_trigger": false,
      "taf_trigger": false,
      "metar": "METAR LEMD 221030Z 24011KT 200V270 CAVOK 09/02 Q1004 NOSIG",
      "taf": ""
    },
    {
      "icao": "LEMG",
      "alert": "OK",
      "vis_m": 9999,
      "fzfg": false,
      "metar_trigger": false,
      "taf_trigger": false,
      "metar": "METAR LEMG 221030Z 29008KT 260V320 9999 FEW040 15/05 Q1011 NOSIG",
      "taf": "TAF LEMG 220500Z 2206/2306 30010KT 9999 FEW050 TX17/2214Z TN11/2207Z"
    },
    {
      "icao": "LEVC",
      "alert": "OK",
      "vis_m": 9999,
      "fzfg": false,
      "metar_trigger": false,
      "taf_trigger": false,
      "metar": "METAR LEVC 221030Z 26014KT 230V290 9999 FEW040 15/03 Q1001 NOSIG",
      "taf": "TAF LEVC 220500Z 2206/2306 27010KT 9999 BKN040 TX18/2213Z TN07/2305Z"
    },
    {
      "icao": "LEXJ",
      "alert": "OK",
      "vis_m": 9999,
      "fzfg": false,
      "metar_trigger": false,
      "taf_trigger": false,
      "metar": "METAR LEXJ 221030Z 24007KT 210V280 CAVOK 12/04 Q1001",
      "taf": ""
    },
    {
      "icao": "LEZG",
      "alert": "OK",
      "vis_m": 9999,
      "fzfg": false,
      "metar_trigger": false,
      "taf_trigger": false,
      "metar": "METAR LEZG 221030Z 30011KT 280V340 CAVOK 09/05 Q1002 NOSIG",
      "taf": "TAF LEZG 220500Z 2206/2306 28008KT 9999 FEW040 TX13/2215Z TN05/2306Z"
    },
    {
      "icao": "LEZL",
      "alert": "OK",
      "vis_m": 9999,
      "fzfg": false,
      "metar_trigger": false,
      "taf_trigger": false,
      "metar": "METAR LEZL 221030Z 27008KT 9999 SCT049 14/10 Q1012 NOSIG",
      "taf": "TAF LEZL 220800Z 2209/2309 23009KT 9999 FEW030 TX15/2215Z TN08/2307Z"
    },
    {
      "icao": "LFBD",
      "alert": "OK",
      "vis_m": 9999,
      "fzfg": false,
      "metar_trigger": false,
      "taf_trigger": false,
      "metar": "METAR LFBD 221030Z AUTO 26013KT 9999 FEW025/// ///TCU 12/08 Q0997 TEMPO 25015G25KT 3000 SHRA",
      "taf": ""
    },
    {
      "icao": "LFLL",
      "alert": "OK",
      "vis_m": 9999,
      "fzfg": false,
      "metar_trigger": false,
      "taf_trigger": false,
      "metar": "METAR LFLL 221030Z 14010KT 9999 FEW050 BKN063 BKN260 07/05 Q0998 NOSIG",
      "taf": "TAF LFLL 220500Z 2206/2312 17008KT CAVOK"
    },
    {
      "icao": "LFLS",
      "alert": "OK",
      "vis_m": 9999,
      "fzfg": false,
      "metar_trigger": false,
      "taf_trigger": false,
      "metar": "METAR LFLS 221030Z AUTO 11006KT 9999 -RA BKN052 OVC064 06/05 Q0998 TEMPO 2000 RA BKN014",
      "taf": ""
    },
    {
      "icao": "LFMN",
      "alert": "OK",
      "vis_m": 9999,
      "fzfg": false,
      "metar_trigger": false,
      "taf_trigger": false,
      "metar": "METAR LFMN 221030Z 08011KT 9999 BKN060 BKN080 11/01 Q0999 NOSIG",
      "taf": "TAF LFMN 220800Z 2209/2315 33010KT 9999 BKN060"
    },
    {
      "icao": "LFOB",
      "alert": "OK",
      "vis_m": 9999,
      "fzfg": false,
      "metar_trigger": false,
      "taf_trigger": false,
      "metar": "METAR LFOB 221030Z AUTO 17013KT 9999 OVC018 09/07 Q0991 TEMPO 4000 -SHRA BKN009 BKN014TCU",
      "taf": "TAF LFOB 220500Z 2206/2306 15012KT 9999 BKN015"
    },
    {
      "icao": "LFPO",
      "alert": "OK",
      "vis_m": 9999,
      "fzfg": false,
      "metar_trigger": false,
      "taf_trigger": false,
      "metar": "METAR LFPO 221030Z 18010KT 150V210 9999 OVC016 10/06 Q0992 NOSIG",
      "taf": "TAF LFPO 220500Z 2206/2312 15008KT 9999 SCT026 BKN040"
    },
    {
      "icao": "LFSB",
      "alert": "OK",
      "vis_m": 9999,
      "fzfg": false,
      "metar_trigger": false,
      "taf_trigger": false,
      "metar": "METAR LFSB 221030Z AUTO 14005KT 110V190 CAVOK 00/M01 Q0998 NOSIG",
      "taf": ""
    },
    {
      "icao": "LGAV",
      "alert": "OK",
      "vis_m": 9999,
      "fzfg": false,
      "metar_trigger": false,
      "taf_trigger": false,
      "metar": "METAR LGAV 221020Z VRB02KT 9999 SCT010 SCT020 12/09 Q1003 NOSIG",
      "taf": "TAF LGAV 220500Z 2206/2306 04008KT 9999 FEW012 BKN025 BKN070"
    },
    {
      "icao": "LGTS",
      "alert": "OK",
      "vis_m": 8000,
      "fzfg": false,
      "metar_trigger": false,
      "taf_trigger": false,
      "metar": "METAR LGTS 221020Z VRB03KT 8000 SCT008 BKN020 OVC035 08/07 Q1004 NOSIG",
      "taf": ""
    },
    {
      "icao": "LHBP",
      "alert": "OK",
      "vis_m": 6000,
      "fzfg": false,
      "metar_trigger": false,
      "taf_trigger": false,
      "metar": "METAR LHBP 221030Z 12006KT 6000 OVC027 M01/M03 Q1005 NOSIG",
      "taf": "TAF LHBP 220515Z 2206/2306 09005KT CAVOK"
    },
    {
      "icao": "LHDC",
      "alert": "OK",
      "vis_m": 9999,
      "fzfg": false,
      "metar_trigger": false,
      "taf_trigger": false,
      "metar": "METAR LHDC 221015Z AUTO 04009KT 9999 OVC048 02/M03 Q1005 NOSIG",
      "taf": "TAF LHDC 220815Z 2209/2218 02006KT 9999 -SN OVC045"
    },
    {
      "icao": "LIBD",
      "alert": "OK",
      "vis_m": 9999,
      "fzfg": false,
      "metar_trigger": false,
      "taf_trigger": false,
      "metar": "METAR LIBD 221020Z 27006KT 9999 SCT010 BKN030 11/08 Q1000",
      "taf": "TAF LIBD 220500Z 2206/2306 25006KT 7000 SCT005 BKN014"
    },
    {
      "icao": "LIBG",
      "alert": "OK",
      "vis_m": 9999,
      "fzfg": false,
      "metar_trigger": false,
      "taf_trigger": false,
      "metar": "METAR LIBG 220950Z 25003KT 210V310 9999 SCT020 SCT030 12/12 Q0999",
      "taf": "TAF LIBG 220800Z 2209/2218 VRB05KT 9999 SCT020"
    },
    {
      "icao": "LIBP",
      "alert": "OK",
      "vis_m": 9999,
      "fzfg": false,
      "metar_trigger": false,
      "taf_trigger": false,
      "metar": "METAR LIBP 221020Z AUTO 06003KT 9999 OVC020/// 09/07 Q1000",
      "taf": "TAF LIBP 220500Z 2206/2306 VRB05KT 9999 BKN040"
    },
    {
      "icao": "LIBR",
      "alert": "OK",
      "vis_m": 9999,
      "fzfg": false,
      "metar_trigger": false,
      "taf_trigger": false,
      "metar": "METAR LIBR 221020Z 31008KT 9999 BKN010 12/10 Q0999",
      "taf": "TAF LIBR 220500Z 2206/2306 VRB05KT 9999 SCT040"
    },
    {
      "icao": "LICA",
      "alert": "OK",
      "vis_m": 9999,
      "fzfg": false,
      "metar_trigger": false,
      "taf_trigger": false,
      "metar": "METAR LICA 221020Z AUTO 23004KT 190V270 9999 NCD 15/09 Q1000",
      "taf": "TAF LICA 220500Z 2206/2306 08012KT 9999 SCT040"
    },
    {
      "icao": "LICC",
      "alert": "OK",
      "vis_m": 9999,
      "fzfg": false,
      "metar_trigger": false,
      "taf_trigger": false,
      "metar": "METAR LICC 221020Z 27010KT 9999 SCT100 14/13 Q1000",
      "taf": "TAF LICC 220500Z 2206/2306 26012KT 7000 FEW050"
    },
    {
      "icao": "LICJ",
      "alert": "OK",
      "vis_m": 9999,
      "fzfg": false,
      "metar_trigger": false,
      "taf_trigger": false,
      "metar": "METAR LICJ 221020Z 24005KT 9999 FEW025 14/08 Q1001",
      "taf": "TAF LICJ 220500Z 2206/2306 34015KT 9999 SCT025"
    },
    {
      "icao": "LIMC",
      "alert": "OK",
      "vis_m": 100,
      "fzfg": false,
      "metar_trigger": false,
      "taf_trigger": false,
      "metar": "METAR LIMC 221020Z VRB02KT 0100 R35R/0275N R17L/0375N R35L/0250N FG VV001 01/01 Q1001 NOSIG",
      "taf": ""
    },
    {
      "icao": "LIME",
      "alert": "OK",
      "vis_m": 9999,
      "fzfg": false,
      "metar_trigger": false,
      "taf_trigger": false,
      "metar": "METAR LIME 221020Z VRB01KT CAVOK 05/M02 Q1001 NOSIG",
      "taf": "TAF LIME 220500Z 2206/2306 VRB04KT CAVOK"
    },
    {
      "icao": "LIMF",
      "alert": "OK",
      "vis_m": 200,
      "fzfg": true,
      "metar_trigger": false,
      "taf_trigger": false,
      "metar": "METAR LIMF 221020Z VRB02KT 0200 R36/0275N FZFG BKN002 M00/M01 Q1001",
      "taf": "TAF LIMF 220500Z 2206/2306 VRB04KT 4000 BR NSC"
    },
    {
      "icao": "LIMJ",
      "alert": "OK",
      "vis_m": 9999,
      "fzfg": false,
      "metar_trigger": false,
      "taf_trigger": false,
      "metar": "METAR LIMJ 221020Z 04012KT CAVOK 08/M00 Q1000",
      "taf": "TAF LIMJ 220500Z 2206/2306 04013KT 9999 FEW040"
    },
    {
      "icao": "LIPE",
      "alert": "OK",
      "vis_m": 7000,
      "fzfg": false,
      "metar_trigger": false,
      "taf_trigger": false,
      "metar": "METAR LIPE 221020Z 28003KT 230V310 7000 BKN035 05/02 Q1002",
      "taf": "TAF LIPE 220500Z 2206/2306 VRB05KT 9999 SCT040 BKN060"
    },
    {
      "icao": "LIPH",
      "alert": "OK",
      "vis_m": 9999,
      "fzfg": false,
      "metar_trigger": false,
      "taf_trigger": false,
      "metar": "METAR LIPH 221020Z 26003KT 230V300 9999 BKN060 05/M05 Q1001",
      "taf": "TAF LIPH 220500Z 2206/2306 VRB05KT CAVOK"
    },
    {
      "icao": "LIPQ",
      "alert": "OK",
      "vis_m": 9999,
      "fzfg": false,
      "metar_trigger": false,
      "taf_trigger": false,
      "metar": "METAR LIPQ 221020Z AUTO VRB01KT 9999 OVC052/// 07/M03 Q1001",
      "taf": "TAF LIPQ 220500Z 2206/2306 VRB05KT CAVOK"
    },
    {
      "icao": "LIPR",
      "alert": "OK",
      "vis_m": 8000,
      "fzfg": false,
      "metar_trigger": false,
      "taf_trigger": false,
      "metar": "METAR LIPR 221020Z 28005KT 8000 BKN015 05/02 Q1002",
      "taf": "TAF LIPR 220500Z 2206/2306 VRB05KT 9999 BKN020"
    },
    {
      "icao": "LIPX",
      "alert": "OK",
      "vis_m": 9999,
      "fzfg": false,
      "metar_trigger": false,
      "taf_trigger": false,
      "metar": "METAR LIPX 221020Z VRB01KT 9999 SCT055 04/M04 Q1001",
      "taf": "TAF LIPX 220500Z 2206/2306 VRB04KT 9999 SCT050"
    },
    {
      "icao": "LIPY",
      "alert": "OK",
      "vis_m": 9999,
      "fzfg": false,
      "metar_trigger": false,
      "taf_trigger": false,
      "metar": "METAR LIPY 221020Z AUTO 28006KT 9999 OVC015/// 06/02 Q1001",
      "taf": "TAF LIPY 220500Z 2206/2306 25008KT 9999 BKN014 OVC015"
    },
    {
      "icao": "LIPZ",
      "alert": "OK",
      "vis_m": 9999,
      "fzfg": false,
      "metar_trigger": false,
      "taf_trigger": false,
      "metar": "METAR LIPZ 221020Z 30004KT 270V350 9999 BKN050 05/M06 Q1001",
      "taf": "TAF LIPZ 220500Z 2206/2312 VRB05KT CAVOK"
    },
    {
      "icao": "LIRF",
      "alert": "OK",
      "vis_m": 9999,
      "fzfg": false,
      "metar_trigger": false,
      "taf_trigger": false,
      "metar": "METAR LIRF 221020Z VRB01KT CAVOK 11/03 Q1000 NOSIG",
      "taf": "TAF LIRF 220500Z 2206/2312 34007KT 9999 SCT050"
    },
    {
      "icao": "LIRN",
      "alert": "OK",
      "vis_m": 9999,
      "fzfg": false,
      "metar_trigger": false,
      "taf_trigger": false,
      "metar": "METAR LIRN 221020Z 04003KT 360V070 CAVOK 12/06 Q0999 NOSIG",
      "taf": "TAF LIRN 220500Z 2206/2306 VRB05KT 9999 SCT050"
    },
    {
      "icao": "LIRP",
      "alert": "OK",
      "vis_m": 9999,
      "fzfg": false,
      "metar_trigger": false,
      "taf_trigger": false,
      "metar": "METAR LIRP 221015Z 11006KT CAVOK 07/03 Q1000 NOSIG",
      "taf": "TAF LIRP 220500Z 2206/2306 11004KT 9999 FEW020 SCT040"
    },
    {
      "icao": "LIRZ",
      "alert": "OK",
      "vis_m": 9999,
      "fzfg": false,
      "metar_trigger": false,
      "taf_trigger": false,
      "metar": "METAR LIRZ 221020Z AUTO VRB01KT 9999 OVC051/// 08/04 Q1000",
      "taf": "TAF LIRZ 220500Z 2206/2306 VRB05KT 9999 BKN045"
    },
    {
      "icao": "LJLJ",
      "alert": "OK",
      "vis_m": 9999,
      "fzfg": false,
      "metar_trigger": false,
      "taf_trigger": false,
      "metar": "METAR LJLJ 221030Z VRB02KT 9999 FEW010 BKN060 M02/M08 Q1001 NOSIG",
      "taf": "TAF LJLJ 220500Z 2206/2306 12003KT 6000 BKN010 OVC065"
    },
    {
      "icao": "LKMT",
      "alert": "OK",
      "vis_m": 9999,
      "fzfg": false,
      "metar_trigger": false,
      "taf_trigger": false,
      "metar": "METAR LKMT 221030Z VRB01KT CAVOK M02/M08 Q1002 NOSIG",
      "taf": "TAF LKMT 220500Z 2206/2306 VRB02KT CAVOK"
    },
    {
      "icao": "LKPR",
      "alert": "OK",
      "vis_m": 9999,
      "fzfg": false,
      "metar_trigger": false,
      "taf_trigger": false,
      "metar": "METAR LKPR 221030Z 12005KT 080V150 9999 FEW012 BKN015 M06/M08 Q1001 NOSIG",
      "taf": "TAF LKPR 220800Z 2209/2315 13006KT 5000 BR BKN015"
    },
    {
      "icao": "LLBG",
      "alert": "OK",
      "vis_m": 9999,
      "fzfg": false,
      "metar_trigger": false,
      "taf_trigger": false,
      "metar": "METAR LLBG 221020Z VRB05KT CAVOK 21/03 Q1013 NOSIG RMK BKN075",
      "taf": "TAF LLBG 220504Z 2206/2306 10010KT CAVOK"
    },
    {
      "icao": "LMML",
      "alert": "OK",
      "vis_m": 9999,
      "fzfg": false,
      "metar_trigger": false,
      "taf_trigger": false,
      "metar": "METAR LMML 221045Z 28012KT 9999 FEW024 15/11 Q1002 NOSIG",
      "taf": "TAF LMML 220500Z 2206/2306 30012KT 9999 FEW017"
    },
    {
      "icao": "LOWW",
      "alert": "OK",
      "vis_m": 4700,
      "fzfg": false,
      "metar_trigger": false,
      "taf_trigger": false,
      "metar": "METAR LOWW 221020Z 13009KT 4700 1900SW BR FEW005 BKN006 M05/M07 Q1003 NOSIG",
      "taf": ""
    },
    {
      "icao": "LPFR",
      "alert": "OK",
      "vis_m": 9999,
      "fzfg": false,
      "metar_trigger": false,
      "taf_trigger": false,
      "metar": "METAR LPFR 221030Z VRB02KT 9999 FEW020 BKN045 14/10 Q1012",
      "taf": "TAF LPFR 220500Z 2206/2306 29010KT 9999 SCT035"
    },
    {
      "icao": "LPMA",
      "alert": "OK",
      "vis_m": 9999,
      "fzfg": false,
      "metar_trigger": false,
      "taf_trigger": false,
      "metar": "METAR LPMA 221030Z 10003KT 040V130 9999 SCT013 20/15 Q1019",
      "taf": "TAF LPMA 220500Z 2206/2306 VRB05KT 9999 SCT015"
    },
    {
      "icao": "LPPR",
      "alert": "OK",
      "vis_m": 8000,
      "fzfg": false,
      "metar_trigger": false,
      "taf_trigger": false,
      "metar": "METAR LPPR 221030Z 21005KT 170V240 8000 -RA FEW025 SCT040 12/08 Q1006",
      "taf": "TAF LPPR 220500Z 2206/2306 32010KT 9999 BKN035"
    },
    {
      "icao": "LPPS",
      "alert": "OK",
      "vis_m": 5000,
      "fzfg": false,
      "metar_trigger": false,
      "taf_trigger": false,
      "metar": "METAR LPPS 221030Z 30013KT 5000 -DZ BR SCT004 BKN010 17/16 Q1019",
      "taf": "TAF LPPS 220500Z 2206/2312 30015KT 9999 SCT015"
    },
    {
      "icao": "LPPT",
      "alert": "OK",
      "vis_m": 9999,
      "fzfg": false,
      "metar_trigger": false,
      "taf_trigger": false,
      "metar": "METAR LPPT 221030Z 23008KT 9999 -RA SCT025 SCT040 13/10 Q1009",
      "taf": "TAF LPPT 220500Z 2206/2312 25008KT 9999 SCT020"
    },
    {
      "icao": "LQBK",
      "alert": "OK",
      "vis_m": 3500,
      "fzfg": false,
      "metar_trigger": false,
      "taf_trigger": false,
      "metar": "METAR LQBK 221030Z VRB01KT 3500 BR OVC006 M03/M05 Q1004 NOSIG",
      "taf": "TAF LQBK 220500Z 2206/2306 VRB02KT 7000 SCT012 BKN035 TX01/2213Z TNM04/2206Z"
    },
    {
      "icao": "LQSA",
      "alert": "OK",
      "vis_m": 4000,
      "fzfg": false,
      "metar_trigger": false,
      "taf_trigger": false,
      "metar": "METAR LQSA 221030Z VRB01KT 4000 BR FEW010 01/M05 Q1001 NOSIG",
      "taf": "TAF LQSA 220500Z 2206/2306 VRB02KT 4000 BR FEW010 BKN045 TX01/2214Z TNM04/2206Z"
    },
    {
      "icao": "LQTZ",
      "alert": "OK",
      "vis_m": 4500,
      "fzfg": false,
      "metar_trigger": false,
      "taf_trigger": false,
      "metar": "METAR LQTZ 221030Z 00000KT 4500 BR SCT005 M01/M04 Q1003",
      "taf": "TAF LQTZ 220500Z 2206/2306 VRB02KT 6000 SCT012 BKN045 TX01/2213Z TNM06/2206Z"
    },
    {
      "icao": "LRBC",
      "alert": "OK",
      "vis_m": 9999,
      "fzfg": false,
      "metar_trigger": false,
      "taf_trigger": false,
      "metar": "METAR LRBC 221030Z 16011KT 9999 OVC016 03/M00 Q1006",
      "taf": "TAF LRBC 220800Z 2209/2218 15012KT 9999 BKN015"
    },
    {
      "icao": "LRBS",
      "alert": "OK",
      "vis_m": 3000,
      "fzfg": false,
      "metar_trigger": false,
      "taf_trigger": false,
      "metar": "METAR LRBS 221030Z 05006KT 020V080 3000 -DZ BR OVC003 01/01 Q1006 NOSIG",
      "taf": ""
    },
    {
      "icao": "LRBV",
      "alert": "OK",
      "vis_m": 9999,
      "fzfg": false,
      "metar_trigger": false,
      "taf_trigger": false,
      "metar": "METAR LRBV 221030Z VRB02KT 9999 SCT039 01/M02 Q1003",
      "taf": "TAF LRBV 220800Z 2209/2218 VRB04KT 9999 SCT040"
    },
    {
      "icao": "LRCL",
      "alert": "OK",
      "vis_m": 6000,
      "fzfg": false,
      "metar_trigger": false,
      "taf_trigger": false,
      "metar": "METAR LRCL 221030Z 00000KT 6000 OVC059 M02/M07 Q1004",
      "taf": "TAF LRCL 220800Z 2209/2218 VRB04KT 5000 BR BKN065"
    },
    {
      "icao": "LRCV",
      "alert": "OK",
      "vis_m": 4000,
      "fzfg": false,
      "metar_trigger": false,
      "taf_trigger": false,
      "metar": "METAR LRCV 221030Z 00000KT 4000 BR BKN003 OVC010 01/01 Q1006",
      "taf": "TAF LRCV 220800Z 2209/2218 VRB04KT 1500 SN BR OVC002"
    },
    {
      "icao": "LRIA",
      "alert": "OK",
      "vis_m": 9999,
      "fzfg": false,
      "metar_trigger": false,
      "taf_trigger": false,
      "metar": "METAR LRIA 221030Z 11010KT 9999 SCT023 03/M00 Q1007",
      "taf": "TAF LRIA 220800Z 2209/2218 12012KT CAVOK"
    },
    {
      "icao": "LROP",
      "alert": "OK",
      "vis_m": 2500,
      "fzfg": false,
      "metar_trigger": false,
      "taf_trigger": false,
      "metar": "METAR LROP 221030Z 06007KT 2500 RADZ BR OVC003 01/01 Q1006 NOSIG",
      "taf": ""
    },
    {
      "icao": "LRSB",
      "alert": "OK",
      "vis_m": 9999,
      "fzfg": false,
      "metar_trigger": false,
      "taf_trigger": false,
      "metar": "METAR LRSB 221030Z VRB01KT 9999 BKN048 M00/M06 Q1003",
      "taf": "TAF LRSB 220500Z 2206/2306 VRB04KT 9999 SCT075"
    },
    {
      "icao": "LRSM",
      "alert": "OK",
      "vis_m": 9999,
      "fzfg": false,
      "metar_trigger": false,
      "taf_trigger": false,
      "metar": "METAR LRSM 221030Z 06003KT CAVOK M01/M06 Q1005",
      "taf": "TAF LRSM 220800Z 2209/2218 VRB04KT CAVOK"
    },
    {
      "icao": "LRSV",
      "alert": "OK",
      "vis_m": 9999,
      "fzfg": false,
      "metar_trigger": false,
      "taf_trigger": false,
      "metar": "METAR LRSV 221030Z 15008KT 9999 BKN008 00/00 Q1004",
      "taf": "TAF LRSV 220800Z 2209/2218 15008KT 9999 BKN010"
    },
    {
      "icao": "LRTM",
      "alert": "OK",
      "vis_m": 3500,
      "fzfg": false,
      "metar_trigger": false,
      "taf_trigger": false,
      "metar": "METAR LRTM 221030Z 23004KT 3500 BR NSC M04/M08 Q1004",
      "taf": "TAF LRTM 220800Z 2209/2218 VRB04KT 3000 BR NSC"
    },
    {
      "icao": "LRTR",
      "alert": "OK",
      "vis_m": 8000,
      "fzfg": false,
      "metar_trigger": false,
      "taf_trigger": false,
      "metar": "METAR LRTR 221030Z VRB01KT 8000 BKN045 02/M03 Q1004",
      "taf": "TAF LRTR 220500Z 2206/2306 VRB04KT 9999 BKN045"
    },
    {
      "icao": "LTAC",
      "alert": "OK",
      "vis_m": 1500,
      "fzfg": false,
      "metar_trigger": false,
      "taf_trigger": false,
      "metar": "SPECI LTAC 221027Z 04008KT 1500 R03C/P1500N R21C/P1500N R03L/P1500N R03R/P1500N -SN BR SCT010 BKN021 BKN080 M02/M03 Q1012 BECMG 4000",
      "taf": ""
    },
    {
      "icao": "LTFM",
      "alert": "OK",
      "vis_m": 9999,
      "fzfg": false,
      "metar_trigger": false,
      "taf_trigger": false,
      "metar": "METAR LTFM 221020Z 18012KT 9999 SCT040 BKN100 10/05 Q1005 NOSIG RMK RWY17L 18017KT RWY34L 17015KT RWY16R 19015KT RWY36 17016KT RWY18 19017KT",
      "taf": "TAF LTFM 220440Z 2206/2312 11006KT 9999 BKN040 BKN090"
    },
    {
      "icao": "LUKK",
      "alert": "OK",
      "vis_m": 9999,
      "fzfg": false,
      "metar_trigger": false,
      "taf_trigger": false,
      "metar": "METAR LUKK 221030Z 10008KT 9999 OVC011 01/00 Q1009 NOSIG",
      "taf": "TAF LUKK 220521Z 2206/2306 13009KT 9999 BKN015"
    },
    {
      "icao": "LWOH",
      "alert": "OK",
      "vis_m": null,
      "fzfg": false,
      "metar_trigger": false,
      "taf_trigger": false,
      "metar": "",
      "taf": "TAF LWOH 220805Z 2209/2309 VRB02KT 9999 BKN040"
    },
    {
      "icao": "LWSK",
      "alert": "OK",
      "vis_m": null,
      "fzfg": false,
      "metar_trigger": false,
      "taf_trigger": false,
      "metar": "",
      "taf": "TAF LWSK 220805Z 2209/2309 VRB02KT 1500 BR FEW010 BKN010 OVC015"
    },
    {
      "icao": "LYBE",
      "alert": "OK",
      "vis_m": 1500,
      "fzfg": false,
      "metar_trigger": false,
      "taf_trigger": false,
      "metar": "METAR LYBE 221030Z 32004KT 1500 BR BKN003 M04/M04 Q1004 NOSIG",
      "taf": ""
    },
    {
      "icao": "LYNI",
      "alert": "OK",
      "vis_m": 9999,
      "fzfg": false,
      "metar_trigger": false,
      "taf_trigger": false,
      "metar": "METAR LYNI 221030Z VRB02KT 9999 BKN033 BKN085 04/M01 Q1003 NOSIG",
      "taf": "TAF LYNI 220500Z 2206/2306 10015KT 9999 BKN040 BKN080 TX05/2213Z TNM02/2305Z"
    },
    {
      "icao": "LYPG",
      "alert": "OK",
      "vis_m": 9999,
      "fzfg": false,
      "metar_trigger": false,
      "taf_trigger": false,
      "metar": "METAR LYPG 221030Z VRB01KT 9999 FEW010 BKN050 BKN070 08/05 Q1002 NOSIG",
      "taf": "TAF LYPG 220500Z 2206/2306 12005KT 8000 FEW010 BKN050 OVC073 TX11/2213Z TN04/2305Z"
    },
    {
      "icao": "LZIB",
      "alert": "OK",
      "vis_m": 4500,
      "fzfg": false,
      "metar_trigger": false,
      "taf_trigger": false,
      "metar": "METAR LZIB 221030Z 07005KT 040V100 4500 BR BKN008 M05/M06 Q1004 BECMG FEW008",
      "taf": ""
    },
    {
      "icao": "LZKZ",
      "alert": "OK",
      "vis_m": 8000,
      "fzfg": false,
      "metar_trigger": false,
      "taf_trigger": false,
      "metar": "METAR LZKZ 221030Z 15005KT 120V180 8000 BKN040 M03/M05 Q1005 NOSIG",
      "taf": "TAF LZKZ 220515Z 2206/2306 VRB02KT 9999 SCT030"
    },
    {
      "icao": "LZTT",
      "alert": "OK",
      "vis_m": 9999,
      "fzfg": false,
      "metar_trigger": false,
      "taf_trigger": false,
      "metar": "METAR LZTT 221030Z 13002KT 9999 FEW043 BKN050 M02/M08 Q1002 NOSIG",
      "taf": "TAF LZTT 220515Z 2206/2306 VRB02KT 9999 SCT020 BKN050"
    },
    {
      "icao": "OEJN",
      "alert": "OK",
      "vis_m": 9999,
      "fzfg": false,
      "metar_trigger": false,
      "taf_trigger": false,
      "metar": "METAR OEJN 221000Z 15006KT CAVOK 33/11 Q1012 NOSIG",
      "taf": "TAF OEJN 220500Z 2206/2312 17015KT 7000 NSC"
    },
    {
      "icao": "OEMA",
      "alert": "OK",
      "vis_m": 9999,
      "fzfg": false,
      "metar_trigger": false,
      "taf_trigger": false,
      "metar": "METAR OEMA 221000Z 08013KT CAVOK 19/M05 Q1022 NOSIG",
      "taf": "TAF OEMA 220500Z 2206/2312 10018KT 7000 NSC"
    },
    {
      "icao": "OJAI",
      "alert": "OK",
      "vis_m": 4000,
      "fzfg": false,
      "metar_trigger": false,
      "taf_trigger": false,
      "metar": "METAR OJAI 221000Z 07012KT 4000 HZ NSC 09/M04 Q1021 NOSIG",
      "taf": "TAF OJAI 220500Z 2206/2312 11014KT 5000 HZ FEW035"
    },
    {
      "icao": "OMAA",
      "alert": "OK",
      "vis_m": 9999,
      "fzfg": false,
      "metar_trigger": false,
      "taf_trigger": false,
      "metar": "METAR OMAA 221030Z 36015KT CAVOK 20/M00 Q1020 NOSIG",
      "taf": "TAF OMAA 220500Z 2206/2312 30015KT 8000 FEW040"
    },
    {
      "icao": "OMDB",
      "alert": "OK",
      "vis_m": 9999,
      "fzfg": false,
      "metar_trigger": false,
      "taf_trigger": false,
      "metar": "METAR OMDB 221030Z 34012KT 310V010 CAVOK 20/M03 Q1020 NOSIG",
      "taf": "TAF OMDB 220500Z 2206/2312 35014KT 8000 NSC"
    },
    {
      "icao": "UAAA",
      "alert": "OK",
      "vis_m": 4600,
      "fzfg": false,
      "metar_trigger": false,
      "taf_trigger": false,
      "metar": "METAR UAAA 221030Z 13001MPS 4600 BR SCT100 BKN200 M07/M10 Q1011 NOSIG",
      "taf": "TAF UAAA 220501Z 2206/2306 32003MPS 3100 BR FU SCT011 BKN050 TXM04/2208Z TNM10/2302Z"
    },
    {
      "icao": "UBBB",
      "alert": "OK",
      "vis_m": 9999,
      "fzfg": false,
      "metar_trigger": false,
      "taf_trigger": false,
      "metar": "METAR UBBB 221030Z 21020G30KT CAVOK 08/M02 Q1020 NOSIG",
      "taf": "TAF UBBB 220504Z 2206/2306 20010KT CAVOK TX07/2211Z TNM02/2300Z"
    },
    {
      "icao": "UDSG",
      "alert": "OK",
      "vis_m": 9999,
      "fzfg": false,
      "metar_trigger": false,
      "taf_trigger": false,
      "metar": "METAR UDSG 221030Z 24002KT 9999 NSC M12/M17 Q1022 NOSIG",
      "taf": "TAF UDSG 220458Z 2206/2306 VRB06KT 9999 FEW050"
    },
    {
      "icao": "UDYZ",
      "alert": "OK",
      "vis_m": 9999,
      "fzfg": false,
      "metar_trigger": false,
      "taf_trigger": false,
      "metar": "METAR UDYZ 221030Z 17003KT 9999 NSC M03/M09 Q1025 NOSIG",
      "taf": "TAF UDYZ 220500Z 2206/2306 20006KT 6000 FEW040"
    },
    {
      "icao": "UGKO",
      "alert": "OK",
      "vis_m": 9999,
      "fzfg": false,
      "metar_trigger": false,
      "taf_trigger": false,
      "metar": "METAR UGKO 221030Z 09024KT CAVOK 08/M05 Q1014 NOSIG",
      "taf": "TAF UGKO 220500Z 2206/2306 08017KT CAVOK TX08/2211Z TN03/2206Z"
    }
  ]
}