{
  "ts_utc": "2026-01-25T14:18:17Z",
  "threshold_m": 150,
  "source": "stations_override.txt (ICAO list) + aviationweather.gov (METAR/TAF raw)",
  "station_count": 159,
  "stations": [
    {
      "icao": "BIKF",
      "alert": "OK",
      "vis_m": 9999,
      "fzfg": false,
      "metar_trigger": false,
      "taf_trigger": false,
      "metar": "METAR BIKF 251400Z 08013KT 9999 FEW035 BKN110 04/M00 Q1006",
      "taf": "TAF BIKF 251354Z 2515/2615 08015KT 9999 FEW025 TX05/2615Z TN02/2602Z"
    },
    {
      "icao": "BKPR",
      "alert": "OK",
      "vis_m": 9999,
      "fzfg": false,
      "metar_trigger": false,
      "taf_trigger": false,
      "metar": "METAR BKPR 251400Z 17009KT CAVOK 11/06 Q1007 NOSIG",
      "taf": "TAF BKPR 251130Z 2512/2612 17010KT 9999 FEW040 SCT070"
    },
    {
      "icao": "EBCI",
      "alert": "OK",
      "vis_m": 9999,
      "fzfg": false,
      "metar_trigger": false,
      "taf_trigger": false,
      "metar": "METAR EBCI 251350Z 15005KT 120V180 9999 BKN032 07/02 Q0995 NOSIG",
      "taf": "TAF EBCI 251110Z 2512/2618 12005KT 7000 BKN006"
    },
    {
      "icao": "EDDB",
      "alert": "OK",
      "vis_m": 4500,
      "fzfg": false,
      "metar_trigger": false,
      "taf_trigger": false,
      "metar": "METAR EDDB 251350Z AUTO 08010KT 4500 BR OVC009 M02/M04 Q1003 NOSIG",
      "taf": ""
    },
    {
      "icao": "EDDH",
      "alert": "OK",
      "vis_m": 8000,
      "fzfg": false,
      "metar_trigger": false,
      "taf_trigger": false,
      "metar": "METAR EDDH 251350Z AUTO 08010KT 8000 BKN010 BKN023 M01/M03 Q1003 TEMPO OVC008",
      "taf": "TAF EDDH 251100Z 2512/2618 09009KT 7000 OVC009"
    },
    {
      "icao": "EDDK",
      "alert": "OK",
      "vis_m": 9999,
      "fzfg": false,
      "metar_trigger": false,
      "taf_trigger": false,
      "metar": "METAR EDDK 251350Z AUTO 12008KT CAVOK 01/M04 Q0997 NOSIG",
      "taf": "TAF EDDK 251100Z 2512/2618 11006KT CAVOK"
    },
    {
      "icao": "EDDN",
      "alert": "OK",
      "vis_m": 9999,
      "fzfg": false,
      "metar_trigger": false,
      "taf_trigger": false,
      "metar": "METAR EDDN 251350Z AUTO 07004KT 040V120 9999 OVC011 00/M03 Q0996 NOSIG",
      "taf": "TAF EDDN 251100Z 2512/2612 15006KT 9999 OVC010"
    },
    {
      "icao": "EDDS",
      "alert": "OK",
      "vis_m": 6000,
      "fzfg": false,
      "metar_trigger": false,
      "taf_trigger": false,
      "metar": "METAR EDDS 251350Z AUTO VRB02KT 6000 OVC009 01/M02 Q0995 NOSIG",
      "taf": "TAF EDDS 251100Z 2512/2612 VRB03KT 6000 OVC010"
    },
    {
      "icao": "EDFH",
      "alert": "OK",
      "vis_m": 4600,
      "fzfg": false,
      "metar_trigger": false,
      "taf_trigger": false,
      "metar": "METAR EDFH 251350Z 13007KT 4600 BR NSC M03/M04 Q0995",
      "taf": "TAF EDFH 251100Z 2512/2612 15014KT 3000 BR OVC003"
    },
    {
      "icao": "EDJA",
      "alert": "OK",
      "vis_m": 1800,
      "fzfg": false,
      "metar_trigger": false,
      "taf_trigger": false,
      "metar": "METAR EDJA 251350Z VRB02KT 1800 -SN BR SCT002 OVC005 M00/M01 Q0995",
      "taf": ""
    },
    {
      "icao": "EDLW",
      "alert": "OK",
      "vis_m": 8000,
      "fzfg": false,
      "metar_trigger": false,
      "taf_trigger": false,
      "metar": "METAR EDLW 251350Z 02005KT 350V050 8000 NSC M00/M03 Q0997",
      "taf": "TAF EDLW 251100Z 2512/2612 08005KT 7000 FEW045"
    },
    {
      "icao": "EDNY",
      "alert": "OK",
      "vis_m": 8000,
      "fzfg": false,
      "metar_trigger": false,
      "taf_trigger": false,
      "metar": "METAR EDNY 251350Z 28004KT 220V320 8000 FEW012 SCT019 03/01 Q0996",
      "taf": "TAF EDNY 251100Z 2512/2521 VRB03KT 4500 BR BKN008 OVC014"
    },
    {
      "icao": "EDSB",
      "alert": "OK",
      "vis_m": 3500,
      "fzfg": false,
      "metar_trigger": false,
      "taf_trigger": false,
      "metar": "METAR EDSB 251350Z 04005KT 3500 BR OVC007 M00/M01 Q0998",
      "taf": "TAF EDSB 251100Z 2512/2612 03004KT 6000 OVC010"
    },
    {
      "icao": "EETN",
      "alert": "OK",
      "vis_m": 9999,
      "fzfg": false,
      "metar_trigger": false,
      "taf_trigger": false,
      "metar": "METAR EETN 251350Z 14004KT 9999 BKN044 M12/M14 Q1019 NOSIG",
      "taf": "TAF EETN 251130Z 2512/2612 17008KT 9999 FEW030"
    },
    {
      "icao": "EFTU",
      "alert": "OK",
      "vis_m": 9999,
      "fzfg": false,
      "metar_trigger": false,
      "taf_trigger": false,
      "metar": "METAR EFTU 251350Z AUTO 10004KT 9999 -SN OVC015 M08/M11 Q1018",
      "taf": "TAF EFTU 251137Z 2512/2612 16005KT 9999 -SN OVC015"
    },
    {
      "icao": "EGBB",
      "alert": "OK",
      "vis_m": 9999,
      "fzfg": false,
      "metar_trigger": false,
      "taf_trigger": false,
      "metar": "METAR EGBB 251350Z 09007KT 9999 VCSH BKN010 07/05 Q0993",
      "taf": "TAF EGBB 251056Z 2512/2612 11010KT 9999 SCT009"
    },
    {
      "icao": "EGGP",
      "alert": "OK",
      "vis_m": 9999,
      "fzfg": false,
      "metar_trigger": false,
      "taf_trigger": false,
      "metar": "METAR EGGP 251350Z 11010KT 9999 BKN016 07/04 Q0994",
      "taf": "TAF EGGP 251058Z 2512/2612 09010KT 9999 SCT015"
    },
    {
      "icao": "EGGW",
      "alert": "OK",
      "vis_m": 8000,
      "fzfg": false,
      "metar_trigger": false,
      "taf_trigger": false,
      "metar": "METAR EGGW 251350Z AUTO 10008KT 070V130 8000 BKN005 05/05 Q0993",
      "taf": ""
    },
    {
      "icao": "EGKK",
      "alert": "OK",
      "vis_m": 9999,
      "fzfg": false,
      "metar_trigger": false,
      "taf_trigger": false,
      "metar": "METAR EGKK 251350Z 09010KT 9999 SCT009 BKN020 07/06 Q0992",
      "taf": "TAF EGKK 251056Z 2512/2618 09005KT 9999 SCT010 BKN030"
    },
    {
      "icao": "EGNM",
      "alert": "OK",
      "vis_m": 1400,
      "fzfg": false,
      "metar_trigger": false,
      "taf_trigger": false,
      "metar": "METAR EGNM 251350Z 09012KT 1400 R14/P1500N BR OVC002 04/04 Q0996",
      "taf": ""
    },
    {
      "icao": "EGPD",
      "alert": "OK",
      "vis_m": 5000,
      "fzfg": false,
      "metar_trigger": false,
      "taf_trigger": false,
      "metar": "METAR EGPD 251350Z AUTO 12012KT 090V160 5000 -RA BKN016 BKN027 05/02 Q1003 TEMPO 4000 RA BKN012",
      "taf": "TAF EGPD 251056Z 2512/2612 11012KT 9999 SCT014 BKN025"
    },
    {
      "icao": "EGPF",
      "alert": "OK",
      "vis_m": 9999,
      "fzfg": false,
      "metar_trigger": false,
      "taf_trigger": false,
      "metar": "METAR EGPF 251350Z AUTO 07014KT 9999 OVC025 07/04 Q0998",
      "taf": "TAF EGPF 251100Z 2512/2612 08014KT 9999 BKN025"
    },
    {
      "icao": "EHBK",
      "alert": "OK",
      "vis_m": 7000,
      "fzfg": false,
      "metar_trigger": false,
      "taf_trigger": false,
      "metar": "METAR EHBK 251355Z AUTO 05005KT 7000 NSC 02/M00 Q0996 NOSIG",
      "taf": "TAF EHBK 251115Z 2512/2618 08004KT 9000 NSC"
    },
    {
      "icao": "EHEH",
      "alert": "OK",
      "vis_m": null,
      "fzfg": false,
      "metar_trigger": false,
      "taf_trigger": false,
      "metar": "",
      "taf": "TAF EHEH 251120Z 2512/2618 11006KT 7000 NSC"
    },
    {
      "icao": "EKBI",
      "alert": "OK",
      "vis_m": 5000,
      "fzfg": false,
      "metar_trigger": false,
      "taf_trigger": false,
      "metar": "METAR EKBI 251350Z AUTO 09008KT 5000 -SN OVC009/// 00/M01 Q1006",
      "taf": "TAF EKBI 251127Z 2512/2612 08012KT 7000 BKN010"
    },
    {
      "icao": "EKCH",
      "alert": "OK",
      "vis_m": 9999,
      "fzfg": false,
      "metar_trigger": false,
      "taf_trigger": false,
      "metar": "METAR EKCH 251350Z 11013KT 9999 OVC015 01/M02 Q1009 TEMPO OVC010",
      "taf": "TAF EKCH 251127Z 2512/2612 10012KT 9999 OVC012"
    },
    {
      "icao": "ENAL",
      "alert": "OK",
      "vis_m": 9999,
      "fzfg": false,
      "metar_trigger": false,
      "taf_trigger": false,
      "metar": "METAR ENAL 251350Z 13004KT 080V160 9999 BKN048 00/M07 Q1013",
      "taf": "TAF ENAL 251100Z 2512/2521 14012KT 9999 SCT030 BKN050"
    },
    {
      "icao": "ENBR",
      "alert": "OK",
      "vis_m": 9999,
      "fzfg": false,
      "metar_trigger": false,
      "taf_trigger": false,
      "metar": "METAR ENBR 251350Z 08003KT 050V110 9999 BKN053 M01/M10 Q1012 NOSIG RMK WIND 1200FT VRB02KT",
      "taf": "TAF ENBR 251100Z 2512/2612 04005KT 9999 BKN040"
    },
    {
      "icao": "ENGM",
      "alert": "OK",
      "vis_m": 9999,
      "fzfg": false,
      "metar_trigger": false,
      "taf_trigger": false,
      "metar": "METAR ENGM 251350Z 02006KT 9999 OVC043 M07/M09 Q1014 NOSIG",
      "taf": "TAF ENGM 251100Z 2512/2612 36005KT 9999 FEW015 BKN040"
    },
    {
      "icao": "ENHD",
      "alert": "OK",
      "vis_m": 9999,
      "fzfg": false,
      "metar_trigger": false,
      "taf_trigger": false,
      "metar": "METAR ENHD 251350Z /////KT CAVOK M01/M13 Q1012 RMK WIND RWY 31 10008KT",
      "taf": "TAF ENHD 251100Z 2512/2521 11009KT CAVOK"
    },
    {
      "icao": "ENTC",
      "alert": "OK",
      "vis_m": 9999,
      "fzfg": false,
      "metar_trigger": false,
      "taf_trigger": false,
      "metar": "METAR ENTC 251350Z 07003KT 030V110 9999 -SHSN FEW009 BKN039 M03/M05 Q1011 TEMPO 2000 -SHSN BKN008 RMK WIND 2600FT 36021KT",
      "taf": "TAF ENTC 251100Z 2512/2612 04005KT 9999 SCT015 BKN030"
    },
    {
      "icao": "ENTO",
      "alert": "OK",
      "vis_m": 9999,
      "fzfg": false,
      "metar_trigger": false,
      "taf_trigger": false,
      "metar": "METAR ENTO 251350Z 03005KT 360V060 9999 -SN BKN021 M04/M07 Q1014 NOSIG",
      "taf": "TAF ENTO 251100Z 2512/2612 02008KT 9999 -SN FEW012 BKN040"
    },
    {
      "icao": "ENVA",
      "alert": "OK",
      "vis_m": 9999,
      "fzfg": false,
      "metar_trigger": false,
      "taf_trigger": false,
      "metar": "METAR ENVA 251350Z 10004KT CAVOK M09/M14 Q1015 NOSIG RMK WIND 670FT 09004KT",
      "taf": "TAF ENVA 251100Z 2512/2612 10005KT 9999 BKN050"
    },
    {
      "icao": "ENZV",
      "alert": "OK",
      "vis_m": 9999,
      "fzfg": false,
      "metar_trigger": false,
      "taf_trigger": false,
      "metar": "METAR ENZV 251350Z 09005KT CAVOK M01/M12 Q1012 NOSIG",
      "taf": "TAF ENZV 251100Z 2512/2612 08008KT 9999 FEW050"
    },
    {
      "icao": "EPGD",
      "alert": "OK",
      "vis_m": 9999,
      "fzfg": false,
      "metar_trigger": false,
      "taf_trigger": false,
      "metar": "METAR EPGD 251400Z 12010KT 9999 SCT010 OVC014 M06/M08 Q1010",
      "taf": "TAF EPGD 251130Z 2512/2612 10010KT 9999 OVC040"
    },
    {
      "icao": "EPKK",
      "alert": "OK",
      "vis_m": 1100,
      "fzfg": false,
      "metar_trigger": false,
      "taf_trigger": false,
      "metar": "METAR EPKK 251400Z 08010KT 1100 R25/1300N BR OVC002 00/M00 Q1005",
      "taf": ""
    },
    {
      "icao": "EPKT",
      "alert": "OK",
      "vis_m": 9999,
      "fzfg": false,
      "metar_trigger": false,
      "taf_trigger": false,
      "metar": "METAR EPKT 251400Z 10009KT CAVOK 03/01 Q1004",
      "taf": "TAF EPKT 251130Z 2512/2612 09009KT CAVOK"
    },
    {
      "icao": "EPLB",
      "alert": "OK",
      "vis_m": 8000,
      "fzfg": false,
      "metar_trigger": false,
      "taf_trigger": false,
      "metar": "METAR EPLB 251400Z 11014KT 8000 BKN010 BKN042 M05/M06 Q1010",
      "taf": "TAF EPLB 251130Z 2512/2612 10012KT 6000 BKN008"
    },
    {
      "icao": "EPMO",
      "alert": "OK",
      "vis_m": 5000,
      "fzfg": false,
      "metar_trigger": false,
      "taf_trigger": false,
      "metar": "METAR EPMO 251400Z 08012KT 5000 BR OVC010 M05/M07 Q1009 REFZRA REFZDZ",
      "taf": "TAF EPMO 251130Z 2512/2612 10010KT 6000 BKN011"
    },
    {
      "icao": "EPPO",
      "alert": "OK",
      "vis_m": 5000,
      "fzfg": false,
      "metar_trigger": false,
      "taf_trigger": false,
      "metar": "METAR EPPO 251400Z 08010KT 5000 -FZDZ BR OVC006 M03/M04 Q1005",
      "taf": "TAF EPPO 251130Z 2512/2612 08010KT 4000 BR OVC007"
    },
    {
      "icao": "EPRA",
      "alert": "OK",
      "vis_m": 9000,
      "fzfg": false,
      "metar_trigger": false,
      "taf_trigger": false,
      "metar": "METAR EPRA 251400Z 10010KT 9000 BKN007 M03/M05 Q1008",
      "taf": "TAF EPRA 251130Z 2512/2521 10010KT 8000 BKN007"
    },
    {
      "icao": "EPRZ",
      "alert": "OK",
      "vis_m": 7000,
      "fzfg": false,
      "metar_trigger": false,
      "taf_trigger": false,
      "metar": "METAR EPRZ 251400Z 09013KT 7000 SCT026 M00/M02 Q1008",
      "taf": ""
    },
    {
      "icao": "EPSC",
      "alert": "OK",
      "vis_m": 9999,
      "fzfg": false,
      "metar_trigger": false,
      "taf_trigger": false,
      "metar": "METAR EPSC 251400Z 07007KT 030V090 9999 FEW020 OVC035 M02/M05 Q1006",
      "taf": "TAF EPSC 251130Z 2512/2612 09009KT 9999 OVC014"
    },
    {
      "icao": "EPSY",
      "alert": "OK",
      "vis_m": 8000,
      "fzfg": false,
      "metar_trigger": false,
      "taf_trigger": false,
      "metar": "METAR EPSY 251400Z 10007KT 060V140 8000 -SN SCT011 BKN017 BKN032 M07/M09 Q1011",
      "taf": "TAF EPSY 251130Z 2512/2521 11008KT 9999 BKN012"
    },
    {
      "icao": "EPWA",
      "alert": "OK",
      "vis_m": 7000,
      "fzfg": false,
      "metar_trigger": false,
      "taf_trigger": false,
      "metar": "METAR EPWA 251400Z 10013KT 7000 BKN011 M04/M06 Q1009 NOSIG",
      "taf": "TAF EPWA 251130Z 2512/2612 10012KT 8000 BKN011"
    },
    {
      "icao": "EPWR",
      "alert": "OK",
      "vis_m": 7000,
      "fzfg": false,
      "metar_trigger": false,
      "taf_trigger": false,
      "metar": "METAR EPWR 251400Z 08005KT 7000 OVC009 01/M01 Q1003",
      "taf": "TAF EPWR 251130Z 2512/2612 08007KT 4000 BR OVC007"
    },
    {
      "icao": "ESGG",
      "alert": "OK",
      "vis_m": 9999,
      "fzfg": false,
      "metar_trigger": false,
      "taf_trigger": false,
      "metar": "METAR ESGG 251350Z 08007KT 9999 OVC038 M03/M07 Q1011",
      "taf": "TAF ESGG 251130Z 2512/2612 07008KT 9999 -SG -SN OVC030"
    },
    {
      "icao": "ESKN",
      "alert": "OK",
      "vis_m": 5000,
      "fzfg": false,
      "metar_trigger": false,
      "taf_trigger": false,
      "metar": "METAR ESKN 251350Z 02005KT 340V060 5000 -SN FEW007 BKN021 M04/M05 Q1014",
      "taf": "TAF ESKN 251130Z 2512/2612 03010KT 9999 -SN SCT015 BKN030"
    },
    {
      "icao": "ESMS",
      "alert": "OK",
      "vis_m": 9000,
      "fzfg": false,
      "metar_trigger": false,
      "taf_trigger": false,
      "metar": "METAR ESMS 251350Z 10013KT 9000 BKN015 01/M01 Q1008",
      "taf": "TAF ESMS 251127Z 2512/2612 10013KT 9000 OVC008"
    },
    {
      "icao": "ESSA",
      "alert": "OK",
      "vis_m": 9999,
      "fzfg": false,
      "metar_trigger": false,
      "taf_trigger": false,
      "metar": "METAR ESSA 251350Z 06008KT 9999 BKN036 M05/M06 Q1015 NOSIG",
      "taf": "TAF ESSA 251130Z 2512/2612 06007KT 9999 -SN BKN035"
    },
    {
      "icao": "EYKA",
      "alert": "OK",
      "vis_m": 9999,
      "fzfg": false,
      "metar_trigger": false,
      "taf_trigger": false,
      "metar": "METAR EYKA 251350Z 10011KT CAVOK M07/M12 Q1017",
      "taf": "TAF EYKA 251104Z 2512/2612 12010KT 9000 NSC"
    },
    {
      "icao": "EYPA",
      "alert": "OK",
      "vis_m": 9999,
      "fzfg": false,
      "metar_trigger": false,
      "taf_trigger": false,
      "metar": "METAR EYPA 251350Z 11006KT 080V140 CAVOK M06/M09 Q1014",
      "taf": "TAF EYPA 251100Z 2512/2612 12009KT 9000 BKN030"
    },
    {
      "icao": "EYVI",
      "alert": "OK",
      "vis_m": 9999,
      "fzfg": false,
      "metar_trigger": false,
      "taf_trigger": false,
      "metar": "METAR EYVI 251350Z 12009KT CAVOK M09/M13 Q1017 NOSIG",
      "taf": "TAF EYVI 251101Z 2512/2612 13012KT 9000 NSC"
    },
    {
      "icao": "GCFV",
      "alert": "OK",
      "vis_m": 9999,
      "fzfg": false,
      "metar_trigger": false,
      "taf_trigger": false,
      "metar": "METAR GCFV 251400Z 05010KT 9999 SCT040 19/11 Q1027",
      "taf": "TAF GCFV 250800Z 2509/2609 05010KT 9999 FEW035 TX20/2514Z TN14/2606Z"
    },
    {
      "icao": "GCLP",
      "alert": "OK",
      "vis_m": 9999,
      "fzfg": false,
      "metar_trigger": false,
      "taf_trigger": false,
      "metar": "METAR GCLP 251400Z 05011KT 010V080 9999 FEW038 20/10 Q1027 NOSIG",
      "taf": "TAF GCLP 250800Z 2509/2609 04012KT 9999 FEW035 TX20/2514Z TN13/2606Z"
    },
    {
      "icao": "GCTS",
      "alert": "OK",
      "vis_m": 9999,
      "fzfg": false,
      "metar_trigger": false,
      "taf_trigger": false,
      "metar": "METAR GCTS 251400Z 17007KT 140V210 9999 FEW030 19/10 Q1027 NOSIG",
      "taf": "TAF GCTS 250800Z 2509/2609 09010KT 9999 FEW040 TX22/2514Z TN15/2606Z"
    },
    {
      "icao": "GMAD",
      "alert": "OK",
      "vis_m": 9999,
      "fzfg": false,
      "metar_trigger": false,
      "taf_trigger": false,
      "metar": "METAR GMAD 251400Z 27004KT 9999 FEW033 SCT200 16/08 Q1025 NOSIG",
      "taf": "TAF GMAD 251100Z 2512/2618 28010KT 8000 SCT016"
    },
    {
      "icao": "GMMN",
      "alert": "OK",
      "vis_m": 9999,
      "fzfg": false,
      "metar_trigger": false,
      "taf_trigger": false,
      "metar": "METAR GMMN 251400Z 25014KT 9999 BKN030 15/11 Q1025 NOSIG",
      "taf": "TAF GMMN 251100Z 2512/2618 22014KT 9999 FEW023 SCT080"
    },
    {
      "icao": "GMMX",
      "alert": "OK",
      "vis_m": 9999,
      "fzfg": false,
      "metar_trigger": false,
      "taf_trigger": false,
      "metar": "METAR GMMX 251400Z 27004KT 240V340 CAVOK 16/07 Q1025 NOSIG",
      "taf": "TAF GMMX 251100Z 2512/2618 12006KT 8000 NSC"
    },
    {
      "icao": "HEGN",
      "alert": "OK",
      "vis_m": 9999,
      "fzfg": false,
      "metar_trigger": false,
      "taf_trigger": false,
      "metar": "METAR HEGN 251300Z 05007KT CAVOK 23/03 Q1018 NOSIG",
      "taf": "TAF HEGN 251100Z 2512/2618 01012KT CAVOK"
    },
    {
      "icao": "HEMA",
      "alert": "OK",
      "vis_m": 9999,
      "fzfg": false,
      "metar_trigger": false,
      "taf_trigger": false,
      "metar": "METAR HEMA 251300Z 36005KT CAVOK 23/07 Q1017 NOSIG",
      "taf": "TAF HEMA 251100Z 2512/2618 02014KT CAVOK"
    },
    {
      "icao": "HESH",
      "alert": "OK",
      "vis_m": 9999,
      "fzfg": false,
      "metar_trigger": false,
      "taf_trigger": false,
      "metar": "METAR HESH 251300Z 08005KT CAVOK 24/02 Q1018 NOSIG",
      "taf": "TAF HESH 251100Z 2512/2618 03012KT CAVOK"
    },
    {
      "icao": "HESX",
      "alert": "OK",
      "vis_m": 9999,
      "fzfg": false,
      "metar_trigger": false,
      "taf_trigger": false,
      "metar": "METAR HESX 251300Z 05004KT CAVOK 20/04 Q1019 NOSIG",
      "taf": "TAF HESX 251100Z 2512/2618 17009KT 6000 FEW025"
    },
    {
      "icao": "LATI",
      "alert": "OK",
      "vis_m": null,
      "fzfg": false,
      "metar_trigger": false,
      "taf_trigger": false,
      "metar": "",
      "taf": "TAF LATI 251100Z 2512/2612 VRB05KT 9999 FEW040 BKN080 TX18/2512Z TN10/2605Z"
    },
    {
      "icao": "LBPD",
      "alert": "OK",
      "vis_m": 9999,
      "fzfg": false,
      "metar_trigger": false,
      "taf_trigger": false,
      "metar": "METAR LBPD 251400Z AUTO 09004KT 9999 OVC008/// 04/04 Q1014 NOSIG",
      "taf": "TAF LBPD 251100Z 2512/2612 VRB04KT 9999 OVC010"
    },
    {
      "icao": "LBSF",
      "alert": "OK",
      "vis_m": 9999,
      "fzfg": false,
      "metar_trigger": false,
      "taf_trigger": false,
      "metar": "METAR LBSF 251400Z VRB02KT 9999 BKN066 05/02 Q1011 NOSIG",
      "taf": "TAF LBSF 251100Z 2512/2612 09010KT 9999 SCT020 BKN040"
    },
    {
      "icao": "LBWN",
      "alert": "OK",
      "vis_m": 9999,
      "fzfg": false,
      "metar_trigger": false,
      "taf_trigger": false,
      "metar": "METAR LBWN 251400Z AUTO 11009KT 9999 FEW032/// 10/07 Q1013 NOSIG",
      "taf": "TAF LBWN 251100Z 2512/2612 13008KT 9999 SCT015 BKN045"
    },
    {
      "icao": "LCLK",
      "alert": "OK",
      "vis_m": 9999,
      "fzfg": false,
      "metar_trigger": false,
      "taf_trigger": false,
      "metar": "METAR LCLK 251400Z 07007KT 9999 FEW023 18/14 Q1021 NOSIG",
      "taf": "TAF LCLK 251130Z 2512/2612 09010KT 9999 FEW030"
    },
    {
      "icao": "LCPH",
      "alert": "OK",
      "vis_m": 9999,
      "fzfg": false,
      "metar_trigger": false,
      "taf_trigger": false,
      "metar": "METAR LCPH 251400Z 15009KT 9999 FEW022 18/12 Q1021 NOSIG",
      "taf": "TAF LCPH 251130Z 2512/2612 12012KT 9999 FEW030"
    },
    {
      "icao": "LEAL",
      "alert": "OK",
      "vis_m": 9999,
      "fzfg": false,
      "metar_trigger": false,
      "taf_trigger": false,
      "metar": "METAR LEAL 251400Z 22013KT 180V260 9999 FEW025 SCT040 19/04 Q1007 NOSIG",
      "taf": "TAF LEAL 251100Z 2512/2612 23008KT CAVOK TX17/2513Z TN11/2606Z"
    },
    {
      "icao": "LEBB",
      "alert": "OK",
      "vis_m": 2000,
      "fzfg": false,
      "metar_trigger": false,
      "taf_trigger": false,
      "metar": "SPECI LEBB 251411Z 30022G36KT 260V330 2000 TSRA SCT031CB BKN043 BKN057 08/06 Q1002 NOSIG",
      "taf": ""
    },
    {
      "icao": "LEBL",
      "alert": "OK",
      "vis_m": 9999,
      "fzfg": false,
      "metar_trigger": false,
      "taf_trigger": false,
      "metar": "METAR LEBL 251400Z 24013KT 9999 SCT050 15/05 Q1000 NOSIG",
      "taf": ""
    },
    {
      "icao": "LECH",
      "alert": "OK",
      "vis_m": 9999,
      "fzfg": false,
      "metar_trigger": false,
      "taf_trigger": false,
      "metar": "METAR LECH 251400Z AUTO 24010KT 210V280 CAVOK 14/01 Q1003",
      "taf": ""
    },
    {
      "icao": "LEMD",
      "alert": "OK",
      "vis_m": 9999,
      "fzfg": false,
      "metar_trigger": false,
      "taf_trigger": false,
      "metar": "METAR LEMD 251400Z 24017KT 200V260 9999 FEW030 10/05 Q1006 NOSIG",
      "taf": "TAF LEMD 251100Z 2512/2618 23012KT 9999 SCT030 TX10/2516Z TN03/2606Z"
    },
    {
      "icao": "LEMG",
      "alert": "OK",
      "vis_m": 9999,
      "fzfg": false,
      "metar_trigger": false,
      "taf_trigger": false,
      "metar": "METAR LEMG 251400Z 07005KT 010V110 9999 FEW027 SCT041 15/09 Q1016 NOSIG",
      "taf": "TAF LEMG 251100Z 2512/2612 27005KT 9999 BKN045 TX16/2514Z TN12/2607Z"
    },
    {
      "icao": "LEVC",
      "alert": "OK",
      "vis_m": 9999,
      "fzfg": false,
      "metar_trigger": false,
      "taf_trigger": false,
      "metar": "METAR LEVC 251400Z 26015KT 230V320 9999 BKN054 16/04 Q1005 NOSIG",
      "taf": "TAF LEVC 251100Z 2512/2612 27018KT 9999 FEW050 TX17/2513Z TN11/2606Z"
    },
    {
      "icao": "LEXJ",
      "alert": "OK",
      "vis_m": 5000,
      "fzfg": false,
      "metar_trigger": false,
      "taf_trigger": false,
      "metar": "METAR LEXJ 251400Z 30039G60KT 270V330 5000 RA BR FEW012 BKN030 07/05 Q1002",
      "taf": ""
    },
    {
      "icao": "LEZG",
      "alert": "OK",
      "vis_m": 9999,
      "fzfg": false,
      "metar_trigger": false,
      "taf_trigger": false,
      "metar": "METAR LEZG 251400Z COR 24023G33KT 9999 FEW040TCU 13/04 Q1000 NOSIG",
      "taf": "TAF LEZG 251100Z 2512/2612 26018KT 9999 FEW040 TX14/2513Z TN06/2607Z"
    },
    {
      "icao": "LEZL",
      "alert": "OK",
      "vis_m": 9999,
      "fzfg": false,
      "metar_trigger": false,
      "taf_trigger": false,
      "metar": "METAR LEZL 251400Z 25013KT 210V280 9999 FEW023 17/12 Q1015 NOSIG",
      "taf": "TAF LEZL 250800Z 2509/2609 24010KT CAVOK TX18/2515Z TN13/2607Z"
    },
    {
      "icao": "LFBD",
      "alert": "OK",
      "vis_m": 9999,
      "fzfg": false,
      "metar_trigger": false,
      "taf_trigger": false,
      "metar": "METAR LFBD 251400Z AUTO 23013KT 200V260 9999 -RA FEW025/// SCT035/// BKN042/// ///CB 10/05 Q0996 TEMPO 28020G30KT 1500 -TSRA",
      "taf": ""
    },
    {
      "icao": "LFLL",
      "alert": "OK",
      "vis_m": 9999,
      "fzfg": false,
      "metar_trigger": false,
      "taf_trigger": false,
      "metar": "METAR LFLL 251400Z 20010KT 9999 -RA FEW016 BKN046 BKN080 08/04 Q0996 NOSIG",
      "taf": "TAF LFLL 251100Z 2512/2618 18010KT CAVOK"
    },
    {
      "icao": "LFLS",
      "alert": "OK",
      "vis_m": 9999,
      "fzfg": false,
      "metar_trigger": false,
      "taf_trigger": false,
      "metar": "METAR LFLS 251400Z AUTO 26005KT 9999 FEW022 SCT072 BKN086 07/05 Q0996 TEMPO RA",
      "taf": ""
    },
    {
      "icao": "LFMN",
      "alert": "OK",
      "vis_m": 9999,
      "fzfg": false,
      "metar_trigger": false,
      "taf_trigger": false,
      "metar": "METAR LFMN 251400Z 19009KT 9999 FEW036 BKN180 12/06 Q0997 NOSIG",
      "taf": "TAF LFMN 250800Z 2509/2615 VRB05KT 9999 SCT050 BKN120"
    },
    {
      "icao": "LFOB",
      "alert": "OK",
      "vis_m": 9999,
      "fzfg": false,
      "metar_trigger": false,
      "taf_trigger": false,
      "metar": "METAR LFOB 251400Z AUTO 09011KT 9999 BKN009 OVC029 06/05 Q0992 TEMPO 4000 -RA",
      "taf": "TAF LFOB 251100Z 2512/2612 13007KT 6000 OVC012"
    },
    {
      "icao": "LFPO",
      "alert": "OK",
      "vis_m": 9000,
      "fzfg": false,
      "metar_trigger": false,
      "taf_trigger": false,
      "metar": "METAR LFPO 251400Z 14007KT 110V170 9000 -RA SCT010 BKN023 07/05 Q0992 TEMPO BKN012",
      "taf": "TAF LFPO 251100Z 2512/2618 16008KT 9999 BKN016"
    },
    {
      "icao": "LFSB",
      "alert": "OK",
      "vis_m": 9999,
      "fzfg": false,
      "metar_trigger": false,
      "taf_trigger": false,
      "metar": "METAR LFSB 251400Z AUTO VRB03KT CAVOK 07/02 Q0996 NOSIG",
      "taf": "TAF LFSB 251130Z 2512/2612 VRB03KT 9000 SCT010 BKN045"
    },
    {
      "icao": "LGAV",
      "alert": "OK",
      "vis_m": 9999,
      "fzfg": false,
      "metar_trigger": false,
      "taf_trigger": false,
      "metar": "METAR LGAV 251350Z 18010KT 9999 FEW020 SCT035 17/10 Q1014 NOSIG",
      "taf": "TAF LGAV 251100Z 2512/2612 18015G25KT 9999 FEW015 SCT035"
    },
    {
      "icao": "LGTS",
      "alert": "OK",
      "vis_m": 9999,
      "fzfg": false,
      "metar_trigger": false,
      "taf_trigger": false,
      "metar": "METAR LGTS 251350Z VRB02KT 9999 FEW015 SCT025 12/08 Q1013 NOSIG",
      "taf": "TAF LGTS 251100Z 2512/2612 14005KT 9999 FEW008 BKN025"
    },
    {
      "icao": "LHBP",
      "alert": "OK",
      "vis_m": 9999,
      "fzfg": false,
      "metar_trigger": false,
      "taf_trigger": false,
      "metar": "METAR LHBP 251400Z 07007KT CAVOK 05/02 Q1003 NOSIG",
      "taf": "TAF LHBP 251115Z 2512/2612 07010KT 7000 -RA SCT020 BKN060"
    },
    {
      "icao": "LHDC",
      "alert": "OK",
      "vis_m": 9999,
      "fzfg": false,
      "metar_trigger": false,
      "taf_trigger": false,
      "metar": "METAR LHDC 251345Z AUTO 07008KT 9999 -SHRA NSC 09/03 Q1006 NOSIG",
      "taf": "TAF LHDC 251115Z 2512/2521 08008KT CAVOK"
    },
    {
      "icao": "LIBD",
      "alert": "OK",
      "vis_m": 9999,
      "fzfg": false,
      "metar_trigger": false,
      "taf_trigger": false,
      "metar": "METAR LIBD 251350Z 26007KT 9999 -RA BKN035 12/10 Q1000",
      "taf": "TAF LIBD 251100Z 2512/2612 18016G28KT 9999 DZ SCT030"
    },
    {
      "icao": "LIBG",
      "alert": "OK",
      "vis_m": 4000,
      "fzfg": false,
      "metar_trigger": false,
      "taf_trigger": false,
      "metar": "METAR LIBG 251350Z 16015KT 4000 -RA BR BKN010 16/14 Q1001",
      "taf": "TAF LIBG 251100Z 2512/2521 16015G28KT 7000 DZ BKN015"
    },
    {
      "icao": "LIBP",
      "alert": "OK",
      "vis_m": 9999,
      "fzfg": false,
      "metar_trigger": false,
      "taf_trigger": false,
      "metar": "METAR LIBP 251350Z AUTO 08005KT 030V170 9999 NCD 13/08 Q0999",
      "taf": "TAF LIBP 251100Z 2512/2612 VRB05KT 8000 SCT030"
    },
    {
      "icao": "LIBR",
      "alert": "OK",
      "vis_m": 6000,
      "fzfg": false,
      "metar_trigger": false,
      "taf_trigger": false,
      "metar": "METAR LIBR 251350Z 17019KT 6000 BKN030 17/13 Q1001",
      "taf": "TAF LIBR 251100Z 2512/2612 17021G31KT 8000 SCT016"
    },
    {
      "icao": "LICA",
      "alert": "OK",
      "vis_m": 5000,
      "fzfg": false,
      "metar_trigger": false,
      "taf_trigger": false,
      "metar": "METAR LICA 251350Z AUTO 24009KT 5000 RA OVC030/// 12/11 Q1003",
      "taf": "TAF LICA 251100Z 2512/2612 27016KT 9999 SCT020"
    },
    {
      "icao": "LICC",
      "alert": "OK",
      "vis_m": 9999,
      "fzfg": false,
      "metar_trigger": false,
      "taf_trigger": false,
      "metar": "METAR LICC 251350Z 24012KT 9999 FEW030 BKN100 14/12 Q1002",
      "taf": "TAF LICC 251100Z 2512/2612 25013KT 6000 SCT030"
    },
    {
      "icao": "LICJ",
      "alert": "OK",
      "vis_m": 9999,
      "fzfg": false,
      "metar_trigger": false,
      "taf_trigger": false,
      "metar": "METAR LICJ 251350Z 24014KT 9999 FEW035 SCT060 14/08 Q1004",
      "taf": "TAF LICJ 251100Z 2512/2612 28014KT 9999 SCT030"
    },
    {
      "icao": "LIMC",
      "alert": "OK",
      "vis_m": 800,
      "fzfg": false,
      "metar_trigger": false,
      "taf_trigger": false,
      "metar": "METAR LIMC 251350Z 21005KT 0800 R35R/P2000N R17L/P2000N R35L/P2000N -DZ FG OVC002 05/05 Q0997 NOSIG",
      "taf": ""
    },
    {
      "icao": "LIME",
      "alert": "OK",
      "vis_m": 5000,
      "fzfg": false,
      "metar_trigger": false,
      "taf_trigger": false,
      "metar": "METAR LIME 251350Z 23004KT 190V250 5000 BR BKN005 06/06 Q0997 NOSIG",
      "taf": "TAF LIME 251100Z 2512/2612 VRB05KT 2000 BR BKN005"
    },
    {
      "icao": "LIMF",
      "alert": "OK",
      "vis_m": 9999,
      "fzfg": false,
      "metar_trigger": false,
      "taf_trigger": false,
      "metar": "METAR LIMF 251350Z 15004KT 9999 BKN025 07/03 Q0996",
      "taf": "TAF LIMF 251100Z 2512/2612 VRB04KT 7000 FEW010 BKN030"
    },
    {
      "icao": "LIMJ",
      "alert": "OK",
      "vis_m": 9999,
      "fzfg": false,
      "metar_trigger": false,
      "taf_trigger": false,
      "metar": "METAR LIMJ 251350Z 06008KT 9999 FEW025 BKN060 09/03 Q0997",
      "taf": "TAF LIMJ 251100Z 2512/2612 04010KT 9999 SCT020"
    },
    {
      "icao": "LIPE",
      "alert": "OK",
      "vis_m": 6000,
      "fzfg": false,
      "metar_trigger": false,
      "taf_trigger": false,
      "metar": "METAR LIPE 251350Z 28006KT 260V340 6000 OVC007 06/05 Q0997",
      "taf": "TAF LIPE 251100Z 2512/2612 VRB05KT 7000 BKN008"
    },
    {
      "icao": "LIPH",
      "alert": "OK",
      "vis_m": 9999,
      "fzfg": false,
      "metar_trigger": false,
      "taf_trigger": false,
      "metar": "METAR LIPH 251350Z 24007KT 9999 BKN040 09/08 Q0996",
      "taf": "TAF LIPH 251100Z 2512/2612 VRB05KT 8000 BKN020"
    },
    {
      "icao": "LIPQ",
      "alert": "OK",
      "vis_m": 9999,
      "fzfg": false,
      "metar_trigger": false,
      "taf_trigger": false,
      "metar": "METAR LIPQ 251350Z AUTO 16005KT 9999 -RA OVC007/// 10/09 Q0995",
      "taf": "TAF LIPQ 251100Z 2512/2612 VRB06KT 4500 -RA BKN020"
    },
    {
      "icao": "LIPR",
      "alert": "OK",
      "vis_m": 9999,
      "fzfg": false,
      "metar_trigger": false,
      "taf_trigger": false,
      "metar": "METAR LIPR 251350Z 09005KT 040V130 9999 SCT020 12/06 Q0997",
      "taf": "TAF LIPR 251100Z 2512/2612 VRB06KT 9000 SCT030"
    },
    {
      "icao": "LIPX",
      "alert": "OK",
      "vis_m": 6000,
      "fzfg": false,
      "metar_trigger": false,
      "taf_trigger": false,
      "metar": "METAR LIPX 251350Z 27006KT 6000 FEW007 SCT020 08/06 Q0997",
      "taf": "TAF LIPX 251100Z 2512/2612 28010KT 6000 BKN005"
    },
    {
      "icao": "LIPY",
      "alert": "OK",
      "vis_m": 9999,
      "fzfg": false,
      "metar_trigger": false,
      "taf_trigger": false,
      "metar": "METAR LIPY 251350Z AUTO 01004KT 310V080 9999 BKN210/// 12/06 Q0998",
      "taf": "TAF LIPY 251100Z 2512/2612 VRB06KT 8000 SCT050"
    },
    {
      "icao": "LIPZ",
      "alert": "OK",
      "vis_m": 9999,
      "fzfg": false,
      "metar_trigger": false,
      "taf_trigger": false,
      "metar": "METAR LIPZ 251350Z 26010KT 9999 FEW025 09/07 Q0996 NOSIG",
      "taf": "TAF LIPZ 251100Z 2512/2618 25010KT 7000 BKN005"
    },
    {
      "icao": "LIRF",
      "alert": "OK",
      "vis_m": 8000,
      "fzfg": false,
      "metar_trigger": false,
      "taf_trigger": false,
      "metar": "METAR LIRF 251350Z 13017KT 8000 -SHRA SCT015TCU BKN035 12/07 Q0998 TEMPO 4000 SHRA",
      "taf": ""
    },
    {
      "icao": "LIRN",
      "alert": "OK",
      "vis_m": 9999,
      "fzfg": false,
      "metar_trigger": false,
      "taf_trigger": false,
      "metar": "METAR LIRN 251350Z VRB02KT 9999 FEW025 12/07 Q1002 NOSIG",
      "taf": "TAF LIRN 251100Z 2512/2612 19012KT 9999 SCT030"
    },
    {
      "icao": "LIRP",
      "alert": "OK",
      "vis_m": 5000,
      "fzfg": false,
      "metar_trigger": false,
      "taf_trigger": false,
      "metar": "METAR LIRP 251345Z 16009KT 5000 -TSRA BR FEW023CB FEW025TCU SCT030 11/09 Q0997 NOSIG",
      "taf": "TAF LIRP 251100Z 2512/2612 10010KT 9999 SCT030"
    },
    {
      "icao": "LIRZ",
      "alert": "OK",
      "vis_m": 9999,
      "fzfg": false,
      "metar_trigger": false,
      "taf_trigger": false,
      "metar": "METAR LIRZ 251350Z AUTO 20009KT 9999 FEW027/// 11/05 Q0998",
      "taf": "TAF LIRZ 251100Z 2512/2612 17012KT 9999 BKN030"
    },
    {
      "icao": "LJLJ",
      "alert": "OK",
      "vis_m": 7000,
      "fzfg": false,
      "metar_trigger": false,
      "taf_trigger": false,
      "metar": "METAR LJLJ 251400Z 26005KT 230V300 7000 -RA BKN006 OVC020 04/03 Q0996 NOSIG",
      "taf": "TAF LJLJ 251100Z 2512/2612 30003KT 2500 RA BR BKN003 OVC010"
    },
    {
      "icao": "LKMT",
      "alert": "OK",
      "vis_m": 2500,
      "fzfg": false,
      "metar_trigger": false,
      "taf_trigger": false,
      "metar": "METAR LKMT 251400Z VRB01KT 2500 BR NSC 01/00 Q1002 NOSIG",
      "taf": "TAF LKMT 251100Z 2512/2612 02006KT 3500 BR SCT006 BKN022"
    },
    {
      "icao": "LKPR",
      "alert": "OK",
      "vis_m": 350,
      "fzfg": true,
      "metar_trigger": false,
      "taf_trigger": false,
      "metar": "METAR LKPR 251400Z 05005KT 0350 R24/0400N R30/0450N FG VV002 00/00 Q0998 NOSIG",
      "taf": "TAF LKPR 251100Z 2512/2618 06006KT 0300 FZFG VV002"
    },
    {
      "icao": "LLBG",
      "alert": "OK",
      "vis_m": 9999,
      "fzfg": false,
      "metar_trigger": false,
      "taf_trigger": false,
      "metar": "METAR LLBG 251350Z 33009KT CAVOK 20/07 Q1020 NOSIG",
      "taf": "TAF LLBG 251103Z 2512/2612 32010KT CAVOK"
    },
    {
      "icao": "LMML",
      "alert": "OK",
      "vis_m": 9999,
      "fzfg": false,
      "metar_trigger": false,
      "taf_trigger": false,
      "metar": "METAR LMML 251415Z 30015KT 9999 FEW020 SCT035 12/10 Q1005 NOSIG",
      "taf": "TAF LMML 251100Z 2512/2612 30017KT 9999 FEW015"
    },
    {
      "icao": "LOWW",
      "alert": "OK",
      "vis_m": 4100,
      "fzfg": false,
      "metar_trigger": false,
      "taf_trigger": false,
      "metar": "METAR LOWW 251350Z 10007KT 060V120 4100 -DZ BR FEW004 BKN005 03/02 Q1000 TEMPO RA",
      "taf": "TAF LOWW 251415Z 2515/2621 14012KT 2000 BR FEW002 BKN005 TX04/2614Z TN00/2607Z"
    },
    {
      "icao": "LPFR",
      "alert": "OK",
      "vis_m": 9999,
      "fzfg": false,
      "metar_trigger": false,
      "taf_trigger": false,
      "metar": "METAR LPFR 251400Z 25017KT 9999 FEW010 BKN020 16/14 Q1017",
      "taf": "TAF LPFR 251100Z 2512/2612 26015KT 9999 SCT012 BKN030"
    },
    {
      "icao": "LPMA",
      "alert": "OK",
      "vis_m": 9999,
      "fzfg": false,
      "metar_trigger": false,
      "taf_trigger": false,
      "metar": "METAR LPMA 251400Z 06005KT 020V150 9999 FEW015 20/09 Q1026",
      "taf": "TAF LPMA 251100Z 2512/2612 VRB05KT 9999 SCT015"
    },
    {
      "icao": "LPPR",
      "alert": "OK",
      "vis_m": 9999,
      "fzfg": false,
      "metar_trigger": false,
      "taf_trigger": false,
      "metar": "METAR LPPR 251400Z 28008KT 240V320 9999 FEW020 SCT028 14/10 Q1012",
      "taf": "TAF LPPR 251100Z 2512/2612 28010KT 9999 SCT020"
    },
    {
      "icao": "LPPS",
      "alert": "OK",
      "vis_m": 9999,
      "fzfg": false,
      "metar_trigger": false,
      "taf_trigger": false,
      "metar": "METAR LPPS 251400Z 28016KT 9999 FEW015 SCT030 18/11 Q1026",
      "taf": "TAF LPPS 251100Z 2512/2618 27012KT 9999 SCT015"
    },
    {
      "icao": "LPPT",
      "alert": "OK",
      "vis_m": 9999,
      "fzfg": false,
      "metar_trigger": false,
      "taf_trigger": false,
      "metar": "METAR LPPT 251400Z 24014KT 220V280 9999 FEW014 BKN018 15/12 Q1015",
      "taf": "TAF LPPT 251100Z 2512/2618 26012KT 9999 SCT012 SCT030"
    },
    {
      "icao": "LQBK",
      "alert": "OK",
      "vis_m": 7000,
      "fzfg": false,
      "metar_trigger": false,
      "taf_trigger": false,
      "metar": "METAR LQBK 251400Z VRB02KT 7000 -RA BKN047 08/07 Q0997 BECMG 23010KT RA",
      "taf": ""
    },
    {
      "icao": "LQSA",
      "alert": "OK",
      "vis_m": 9999,
      "fzfg": false,
      "metar_trigger": false,
      "taf_trigger": false,
      "metar": "METAR LQSA 251400Z 15017KT 9999 -RA FEW040 BKN050 10/05 Q0999 NOSIG",
      "taf": "TAF LQSA 251100Z 2512/2612 11006KT 9999 BKN050 TX12/2513Z TN03/2606Z"
    },
    {
      "icao": "LQTZ",
      "alert": "OK",
      "vis_m": 9999,
      "fzfg": false,
      "metar_trigger": false,
      "taf_trigger": false,
      "metar": "METAR LQTZ 251400Z 15008KT 100V220 CAVOK 17/02 Q0998",
      "taf": "TAF LQTZ 251100Z 2512/2612 16006KT 9999 SCT050 TX14/2514Z TN03/2605Z"
    },
    {
      "icao": "LRBC",
      "alert": "OK",
      "vis_m": 2000,
      "fzfg": false,
      "metar_trigger": false,
      "taf_trigger": false,
      "metar": "METAR LRBC 251400Z 19005KT 2000 BR OVC002 00/M00 Q1014",
      "taf": "TAF LRBC 251100Z 2512/2521 17008KT 3000 BR OVC003"
    },
    {
      "icao": "LRBS",
      "alert": "OK",
      "vis_m": 3000,
      "fzfg": false,
      "metar_trigger": false,
      "taf_trigger": false,
      "metar": "METAR LRBS 251400Z VRB01KT 3000 BR OVC003 01/00 Q1014 NOSIG",
      "taf": "TAF LRBS 251100Z 2512/2612 VRB04KT 4000 BR OVC002"
    },
    {
      "icao": "LRBV",
      "alert": "OK",
      "vis_m": 9999,
      "fzfg": false,
      "metar_trigger": false,
      "taf_trigger": false,
      "metar": "METAR LRBV 251400Z 10007KT CAVOK 06/02 Q1009",
      "taf": "TAF LRBV 251100Z 2512/2521 VRB04KT CAVOK"
    },
    {
      "icao": "LRCL",
      "alert": "OK",
      "vis_m": 9999,
      "fzfg": false,
      "metar_trigger": false,
      "taf_trigger": false,
      "metar": "METAR LRCL 251400Z 08005KT 050V110 9999 FEW070 04/00 Q1009",
      "taf": "TAF LRCL 251100Z 2512/2521 08006KT CAVOK"
    },
    {
      "icao": "LRCV",
      "alert": "OK",
      "vis_m": 2000,
      "fzfg": true,
      "metar_trigger": false,
      "taf_trigger": false,
      "metar": "METAR LRCV 251400Z 04003KT 310V080 2000 BR OVC002 00/00 Q1013",
      "taf": "TAF LRCV 251100Z 2512/2521 VRB04KT 0600 FZFG OVC002"
    },
    {
      "icao": "LRIA",
      "alert": "OK",
      "vis_m": 400,
      "fzfg": false,
      "metar_trigger": false,
      "taf_trigger": false,
      "metar": "METAR LRIA 251400Z 11012KT 0400 R14/0900D FG OVC001 01/00 Q1014",
      "taf": "TAF LRIA 251100Z 2512/2521 11010KT 0600 FG OVC001"
    },
    {
      "icao": "LROP",
      "alert": "OK",
      "vis_m": 3000,
      "fzfg": false,
      "metar_trigger": false,
      "taf_trigger": false,
      "metar": "METAR LROP 251400Z VRB01KT 3000 BR OVC003 00/00 Q1014 NOSIG",
      "taf": "TAF LROP 251100Z 2512/2612 VRB04KT 4000 BR OVC002"
    },
    {
      "icao": "LRSB",
      "alert": "OK",
      "vis_m": 9999,
      "fzfg": false,
      "metar_trigger": false,
      "taf_trigger": false,
      "metar": "METAR LRSB 251400Z 22007KT 180V250 CAVOK 06/02 Q1008",
      "taf": "TAF LRSB 251100Z 2512/2612 VRB04KT 9999 SCT070"
    },
    {
      "icao": "LRSM",
      "alert": "OK",
      "vis_m": 9999,
      "fzfg": false,
      "metar_trigger": false,
      "taf_trigger": false,
      "metar": "METAR LRSM 251400Z 10004KT CAVOK 07/01 Q1007",
      "taf": "TAF LRSM 251100Z 2512/2521 12006KT 9999 BKN045"
    },
    {
      "icao": "LRSV",
      "alert": "OK",
      "vis_m": 150,
      "fzfg": true,
      "metar_trigger": false,
      "taf_trigger": false,
      "metar": "METAR LRSV 251400Z 16008KT 0150 R34/0325N FZFG VV001 M01/M01 Q1012",
      "taf": "TAF LRSV 251100Z 2512/2521 14008KT 0300 FZFG VV001"
    },
    {
      "icao": "LRTM",
      "alert": "OK",
      "vis_m": 4500,
      "fzfg": false,
      "metar_trigger": false,
      "taf_trigger": false,
      "metar": "METAR LRTM 251400Z 25005KT 4500 BR NSC 02/00 Q1009",
      "taf": "TAF LRTM 251100Z 2512/2521 VRB04KT 7000 NSC"
    },
    {
      "icao": "LRTR",
      "alert": "OK",
      "vis_m": 9999,
      "fzfg": false,
      "metar_trigger": false,
      "taf_trigger": false,
      "metar": "METAR LRTR 251400Z 10017KT CAVOK 09/04 Q1004",
      "taf": "TAF LRTR 251100Z 2512/2612 11014KT 9999 BKN045"
    },
    {
      "icao": "LTAC",
      "alert": "OK",
      "vis_m": 9999,
      "fzfg": false,
      "metar_trigger": false,
      "taf_trigger": false,
      "metar": "METAR LTAC 251350Z 30005KT 9999 FEW040 10/05 Q1020 NOSIG",
      "taf": "TAF LTAC 251040Z 2512/2612 VRB02KT 9999 SCT040"
    },
    {
      "icao": "LTFM",
      "alert": "OK",
      "vis_m": 9999,
      "fzfg": false,
      "metar_trigger": false,
      "taf_trigger": false,
      "metar": "METAR LTFM 251350Z 21013KT 9999 FEW040 BKN100 14/10 Q1016 NOSIG",
      "taf": "TAF LTFM 251040Z 2512/2618 19012KT 9999 FEW040 BKN100"
    },
    {
      "icao": "LUKK",
      "alert": "OK",
      "vis_m": 2000,
      "fzfg": true,
      "metar_trigger": false,
      "taf_trigger": false,
      "metar": "METAR LUKK 251400Z 09010KT 2000 FZDZ BR OVC001 M01/M01 Q1016 TEMPO 0800 -FZDZ FZFG",
      "taf": "TAF LUKK 251102Z 2512/2612 11008KT 1500 FZDZ BR OVC002"
    },
    {
      "icao": "LWOH",
      "alert": "OK",
      "vis_m": 9999,
      "fzfg": false,
      "metar_trigger": false,
      "taf_trigger": false,
      "metar": "METAR LWOH 251350Z VRB01KT 9999 FEW035 SCT090 10/06 Q1009",
      "taf": "TAF LWOH 251140Z 2512/2612 16010KT 9999 SCT040 BKN090"
    },
    {
      "icao": "LWSK",
      "alert": "OK",
      "vis_m": null,
      "fzfg": false,
      "metar_trigger": false,
      "taf_trigger": false,
      "metar": "",
      "taf": "TAF LWSK 251140Z 2512/2612 VRB02KT 7000 OVC015"
    },
    {
      "icao": "LYBE",
      "alert": "OK",
      "vis_m": 9999,
      "fzfg": false,
      "metar_trigger": false,
      "taf_trigger": false,
      "metar": "METAR LYBE 251400Z 12023KT CAVOK 12/05 Q1001 NOSIG",
      "taf": "TAF LYBE 251100Z 2512/2612 13014KT CAVOK TX13/2513Z TN05/2606Z"
    },
    {
      "icao": "LYNI",
      "alert": "OK",
      "vis_m": 9999,
      "fzfg": false,
      "metar_trigger": false,
      "taf_trigger": false,
      "metar": "METAR LYNI 251400Z 09017KT CAVOK 12/05 Q1007 NOSIG",
      "taf": "TAF LYNI 251100Z 2512/2612 10008KT 9999 SCT040 SCT090 TX12/2513Z TN06/2606Z"
    },
    {
      "icao": "LYPG",
      "alert": "OK",
      "vis_m": 7000,
      "fzfg": false,
      "metar_trigger": false,
      "taf_trigger": false,
      "metar": "METAR LYPG 251400Z 19003KT 160V220 7000 FEW034 BKN050 OVC080 11/10 Q1004 NOSIG",
      "taf": "TAF LYPG 251100Z 2512/2612 16012KT 9999 FEW015 SCT040 OVC080 TX14/2513Z TN08/2605Z"
    },
    {
      "icao": "LZIB",
      "alert": "OK",
      "vis_m": 4000,
      "fzfg": false,
      "metar_trigger": false,
      "taf_trigger": false,
      "metar": "METAR LZIB 251400Z 06012KT 4000 -RA BR FEW006 BKN007 BKN016 04/03 Q1001 NOSIG",
      "taf": "TAF LZIB 251115Z 2512/2612 06010KT 6000 FEW008 OVC017"
    },
    {
      "icao": "LZKZ",
      "alert": "OK",
      "vis_m": 9999,
      "fzfg": false,
      "metar_trigger": false,
      "taf_trigger": false,
      "metar": "METAR LZKZ 251400Z 36008KT 9999 SCT035 06/04 Q1007 NOSIG",
      "taf": "TAF LZKZ 251115Z 2512/2612 34005KT 9999 BKN028"
    },
    {
      "icao": "LZTT",
      "alert": "OK",
      "vis_m": 9999,
      "fzfg": false,
      "metar_trigger": false,
      "taf_trigger": false,
      "metar": "METAR LZTT 251400Z 05005KT 360V120 9999 FEW006 BKN030 03/01 Q1005 NOSIG",
      "taf": "TAF LZTT 251115Z 2512/2612 18004KT 9999 FEW005 BKN040"
    },
    {
      "icao": "OEJN",
      "alert": "OK",
      "vis_m": 9999,
      "fzfg": false,
      "metar_trigger": false,
      "taf_trigger": false,
      "metar": "METAR OEJN 251400Z 28010KT CAVOK 27/12 Q1013 NOSIG",
      "taf": "TAF OEJN 251100Z 2512/2618 30012KT 7000 FEW040"
    },
    {
      "icao": "OEMA",
      "alert": "OK",
      "vis_m": 9999,
      "fzfg": false,
      "metar_trigger": false,
      "taf_trigger": false,
      "metar": "METAR OEMA 251400Z 07008KT CAVOK 23/M07 Q1020 NOSIG",
      "taf": "TAF OEMA 251100Z 2512/2618 08012KT 7000 NSC"
    },
    {
      "icao": "OJAI",
      "alert": "OK",
      "vis_m": 5000,
      "fzfg": false,
      "metar_trigger": false,
      "taf_trigger": false,
      "metar": "METAR OJAI 251300Z 11006KT 5000 HZ NSC 15/02 Q1022 NOSIG",
      "taf": "TAF OJAI 251100Z 2512/2618 13008KT 5000 HZ NSC"
    },
    {
      "icao": "OMAA",
      "alert": "OK",
      "vis_m": 9999,
      "fzfg": false,
      "metar_trigger": false,
      "taf_trigger": false,
      "metar": "METAR OMAA 251400Z 18008KT 9999 FEW040 24/09 Q1013 NOSIG",
      "taf": "TAF OMAA 251100Z 2512/2618 18012KT 8000 FEW035"
    },
    {
      "icao": "OMDB",
      "alert": "OK",
      "vis_m": 9999,
      "fzfg": false,
      "metar_trigger": false,
      "taf_trigger": false,
      "metar": "METAR OMDB 251400Z 36006KT 340V050 9999 -RA FEW045 21/17 Q1014 WS ALL RWY NOSIG",
      "taf": "TAF OMDB 251100Z 2512/2618 18012KT 8000 NSC"
    },
    {
      "icao": "UAAA",
      "alert": "OK",
      "vis_m": 1800,
      "fzfg": false,
      "metar_trigger": false,
      "taf_trigger": false,
      "metar": "METAR UAAA 251400Z VRB01MPS 1800 R05R/P2000U BR FU SCT050 BKN100 M04/M07 Q1023 NOSIG",
      "taf": "TAF UAAA 251103Z 2512/2612 17003MPS 3100 BR FU BKN050 OVC100 TXM01/2608Z TNM07/2602Z"
    },
    {
      "icao": "UBBB",
      "alert": "OK",
      "vis_m": 9999,
      "fzfg": false,
      "metar_trigger": false,
      "taf_trigger": false,
      "metar": "METAR UBBB 251330Z 01006KT 9999 BKN028 07/03 Q1019 NOSIG",
      "taf": "TAF UBBB 251048Z 2512/2612 34008KT 9999 SCT012 BKN030 TX07/2512Z TN02/2601Z"
    },
    {
      "icao": "UDSG",
      "alert": "OK",
      "vis_m": 2700,
      "fzfg": false,
      "metar_trigger": false,
      "taf_trigger": false,
      "metar": "METAR UDSG 251400Z 12001KT 2700 BR SCT033 M08/M08 Q1022 NOSIG",
      "taf": "TAF UDSG 251100Z 2512/2612 VRB06KT 1000 BR OVC010"
    },
    {
      "icao": "UDYZ",
      "alert": "OK",
      "vis_m": 2300,
      "fzfg": false,
      "metar_trigger": false,
      "taf_trigger": false,
      "metar": "METAR UDYZ 251400Z 35001KT 2300 BR BKN008 M03/M05 Q1024 NOSIG",
      "taf": "TAF UDYZ 251100Z 2512/2612 VRB04KT 2000 BR BKN020"
    },
    {
      "icao": "UGKO",
      "alert": "OK",
      "vis_m": 9999,
      "fzfg": false,
      "metar_trigger": false,
      "taf_trigger": false,
      "metar": "METAR UGKO 251400Z 08004KT 9999 BKN051 08/06 Q1021 NOSIG",
      "taf": ""
    }
  ]
}