{
  "ts_utc": "2026-04-21T16:52:32Z",
  "threshold_m": 150,
  "source": "stations_override.txt (ICAO list) + aviationweather.gov (METAR/TAF raw)",
  "station_count": 159,
  "stations": [
    {
      "icao": "BIKF",
      "alert": "OK",
      "vis_m": 9999,
      "fzfg": false,
      "metar_trigger": false,
      "taf_trigger": false,
      "metar": "METAR BIKF 211630Z 32006KT 280V360 9999 BKN004 BKN006 06/05 Q1040",
      "taf": "TAF BIKF 211648Z 2118/2218 31005KT 9999 BKN008 TX07/2215Z TN04/2206Z"
    },
    {
      "icao": "BKPR",
      "alert": "OK",
      "vis_m": 9999,
      "fzfg": false,
      "metar_trigger": false,
      "taf_trigger": false,
      "metar": "METAR BKPR 211630Z 30003KT 9999 BKN055 08/05 Q1015 NOSIG",
      "taf": "TAF BKPR 211130Z 2112/2212 01009KT 9999 SCT020 BKN040"
    },
    {
      "icao": "EBCI",
      "alert": "OK",
      "vis_m": 9999,
      "fzfg": false,
      "metar_trigger": false,
      "taf_trigger": false,
      "metar": "METAR EBCI 211620Z 06012KT 9999 FEW045 14/02 Q1021 NOSIG",
      "taf": "TAF EBCI 211100Z 2112/2218 05010KT 9999 SCT035"
    },
    {
      "icao": "EDDB",
      "alert": "OK",
      "vis_m": 9999,
      "fzfg": false,
      "metar_trigger": false,
      "taf_trigger": false,
      "metar": "METAR EDDB 211620Z AUTO 02007KT 340V050 CAVOK 14/M01 Q1023 NOSIG",
      "taf": "TAF EDDB 211100Z 2112/2212 03010KT 9999 FEW045"
    },
    {
      "icao": "EDDH",
      "alert": "OK",
      "vis_m": 9999,
      "fzfg": false,
      "metar_trigger": false,
      "taf_trigger": false,
      "metar": "METAR EDDH 211620Z AUTO 06010KT CAVOK 12/M01 Q1026 NOSIG",
      "taf": "TAF EDDH 211100Z 2112/2218 04010KT CAVOK"
    },
    {
      "icao": "EDDK",
      "alert": "OK",
      "vis_m": 9999,
      "fzfg": false,
      "metar_trigger": false,
      "taf_trigger": false,
      "metar": "METAR EDDK 211620Z AUTO 04009KT CAVOK 15/03 Q1022 NOSIG",
      "taf": "TAF EDDK 211100Z 2112/2218 03009KT 9999 SCT040"
    },
    {
      "icao": "EDDN",
      "alert": "OK",
      "vis_m": 9999,
      "fzfg": false,
      "metar_trigger": false,
      "taf_trigger": false,
      "metar": "METAR EDDN 211620Z AUTO 03010KT 360V060 9999 FEW049 11/01 Q1020 NOSIG",
      "taf": "TAF EDDN 211100Z 2112/2212 04008KT 9999 BKN030"
    },
    {
      "icao": "EDDS",
      "alert": "OK",
      "vis_m": 9999,
      "fzfg": false,
      "metar_trigger": false,
      "taf_trigger": false,
      "metar": "METAR EDDS 211620Z AUTO 08006KT 9999 VCSH FEW///TCU 10/03 Q1019 NOSIG",
      "taf": "TAF EDDS 211100Z 2112/2212 04007KT 9999 BKN040"
    },
    {
      "icao": "EDFH",
      "alert": "OK",
      "vis_m": 9999,
      "fzfg": false,
      "metar_trigger": false,
      "taf_trigger": false,
      "metar": "METAR EDFH 211620Z 06007KT 020V110 CAVOK 10/M00 Q1020",
      "taf": "TAF EDFH 211100Z 2112/2212 07009KT 9999 SCT040"
    },
    {
      "icao": "EDJA",
      "alert": "OK",
      "vis_m": 9999,
      "fzfg": false,
      "metar_trigger": false,
      "taf_trigger": false,
      "metar": "METAR EDJA 211620Z 06012KT 9999 SCT038 SCT046 09/00 Q1018",
      "taf": "TAF EDJA 211400Z 2115/2124 05012KT 9999 SCT040"
    },
    {
      "icao": "EDLW",
      "alert": "OK",
      "vis_m": 9999,
      "fzfg": false,
      "metar_trigger": false,
      "taf_trigger": false,
      "metar": "METAR EDLW 211620Z 07011KT CAVOK 13/01 Q1023",
      "taf": "TAF EDLW 211100Z 2112/2212 05010KT 9999 SCT040"
    },
    {
      "icao": "EDNY",
      "alert": "OK",
      "vis_m": 9999,
      "fzfg": false,
      "metar_trigger": false,
      "taf_trigger": false,
      "metar": "METAR EDNY 211620Z 03012KT 360V060 9999 FEW056 12/00 Q1017",
      "taf": "TAF EDNY 211400Z 2115/2124 03010KT 9999 FEW060"
    },
    {
      "icao": "EDSB",
      "alert": "OK",
      "vis_m": 9999,
      "fzfg": false,
      "metar_trigger": false,
      "taf_trigger": false,
      "metar": "METAR EDSB 211620Z 05014KT 9999 FEW041 12/03 Q1019",
      "taf": "TAF EDSB 211100Z 2112/2212 04013KT CAVOK"
    },
    {
      "icao": "EETN",
      "alert": "OK",
      "vis_m": 9999,
      "fzfg": false,
      "metar_trigger": false,
      "taf_trigger": false,
      "metar": "METAR EETN 211650Z 28009KT CAVOK 12/M02 Q1017 NOSIG",
      "taf": "TAF EETN 211130Z 2112/2212 32010KT CAVOK"
    },
    {
      "icao": "EFTU",
      "alert": "OK",
      "vis_m": 9999,
      "fzfg": false,
      "metar_trigger": false,
      "taf_trigger": false,
      "metar": "METAR EFTU 211620Z AUTO 33009KT 300V010 CAVOK 13/M03 Q1019",
      "taf": "TAF EFTU 211423Z 2115/2215 36009KT CAVOK"
    },
    {
      "icao": "EGBB",
      "alert": "OK",
      "vis_m": 9999,
      "fzfg": false,
      "metar_trigger": false,
      "taf_trigger": false,
      "metar": "METAR EGBB 211620Z 06016KT 9999 FEW045 13/02 Q1026",
      "taf": "TAF EGBB 211059Z 2112/2212 05012KT 9999 SCT035"
    },
    {
      "icao": "EGGP",
      "alert": "OK",
      "vis_m": 9999,
      "fzfg": false,
      "metar_trigger": false,
      "taf_trigger": false,
      "metar": "METAR EGGP 211620Z 09017KT CAVOK 13/M01 Q1027",
      "taf": "TAF EGGP 211101Z 2112/2212 07014KT 9999 FEW040"
    },
    {
      "icao": "EGGW",
      "alert": "OK",
      "vis_m": 9999,
      "fzfg": false,
      "metar_trigger": false,
      "taf_trigger": false,
      "metar": "METAR EGGW 211620Z AUTO 07015KT 050V110 9999 NCD 12/00 Q1025",
      "taf": "TAF EGGW 211056Z 2112/2212 06014KT 9999 SCT035"
    },
    {
      "icao": "EGKK",
      "alert": "OK",
      "vis_m": 9999,
      "fzfg": false,
      "metar_trigger": false,
      "taf_trigger": false,
      "metar": "METAR EGKK 211620Z 07016KT CAVOK 13/04 Q1023",
      "taf": "TAF EGKK 211105Z 2112/2218 05012KT 9999 SCT035"
    },
    {
      "icao": "EGNM",
      "alert": "OK",
      "vis_m": 9999,
      "fzfg": false,
      "metar_trigger": false,
      "taf_trigger": false,
      "metar": "METAR EGNM 211620Z 07010G24KT 030V100 9999 FEW047 11/M00 Q1029",
      "taf": "TAF EGNM 211103Z 2112/2212 07010KT 9999 FEW030"
    },
    {
      "icao": "EGPD",
      "alert": "OK",
      "vis_m": 9999,
      "fzfg": false,
      "metar_trigger": false,
      "taf_trigger": false,
      "metar": "METAR EGPD 211620Z COR AUTO 07009KT 9999 OVC020 09/04 Q1035 NOSIG",
      "taf": "TAF EGPD 211055Z 2112/2212 07010KT 9999 SCT020"
    },
    {
      "icao": "EGPF",
      "alert": "OK",
      "vis_m": 9999,
      "fzfg": false,
      "metar_trigger": false,
      "taf_trigger": false,
      "metar": "METAR EGPF 211620Z AUTO 08015KT 040V110 9999 NCD 12/03 Q1032",
      "taf": ""
    },
    {
      "icao": "EHBK",
      "alert": "OK",
      "vis_m": 9999,
      "fzfg": false,
      "metar_trigger": false,
      "taf_trigger": false,
      "metar": "METAR EHBK 211625Z AUTO 05010KT 020V080 9999 NSC 13/02 Q1022 NOSIG",
      "taf": "TAF EHBK 211037Z 2112/2218 05009KT CAVOK"
    },
    {
      "icao": "EHEH",
      "alert": "OK",
      "vis_m": 9999,
      "fzfg": false,
      "metar_trigger": false,
      "taf_trigger": false,
      "metar": "METAR EHEH 211625Z AUTO 05012KT 9999 NCD 13/01 Q1023 BLU NOSIG",
      "taf": "TAF EHEH 211134Z 2112/2218 05011KT CAVOK"
    },
    {
      "icao": "EKBI",
      "alert": "OK",
      "vis_m": 9999,
      "fzfg": false,
      "metar_trigger": false,
      "taf_trigger": false,
      "metar": "METAR EKBI 211620Z AUTO 10006KT 050V150 9999 NCD 14/M02 Q1027",
      "taf": "TAF EKBI 211427Z 2115/2215 09010KT CAVOK"
    },
    {
      "icao": "EKCH",
      "alert": "OK",
      "vis_m": 9999,
      "fzfg": false,
      "metar_trigger": false,
      "taf_trigger": false,
      "metar": "METAR EKCH 211620Z AUTO 18005KT 150V210 9999 NCD 11/M02 Q1027 NOSIG",
      "taf": "TAF EKCH 211427Z 2115/2215 35010KT CAVOK"
    },
    {
      "icao": "ENAL",
      "alert": "OK",
      "vis_m": 9999,
      "fzfg": false,
      "metar_trigger": false,
      "taf_trigger": false,
      "metar": "METAR ENAL 211620Z 01006KT 350V060 9999 BKN025 08/05 Q1034",
      "taf": "TAF ENAL 211400Z 2115/2124 05008KT 9999 BKN025"
    },
    {
      "icao": "ENBR",
      "alert": "OK",
      "vis_m": 9999,
      "fzfg": false,
      "metar_trigger": false,
      "taf_trigger": false,
      "metar": "METAR ENBR 211620Z 32011KT CAVOK 10/03 Q1031 NOSIG RMK WIND 1200FT 33010KT",
      "taf": "TAF ENBR 211100Z 2112/2212 31008KT CAVOK"
    },
    {
      "icao": "ENGM",
      "alert": "OK",
      "vis_m": 9999,
      "fzfg": false,
      "metar_trigger": false,
      "taf_trigger": false,
      "metar": "METAR ENGM 211620Z 36009KT 320V030 CAVOK 16/M01 Q1027 NOSIG",
      "taf": "TAF ENGM 211100Z 2112/2212 36008KT CAVOK"
    },
    {
      "icao": "ENHD",
      "alert": "OK",
      "vis_m": 9999,
      "fzfg": false,
      "metar_trigger": false,
      "taf_trigger": false,
      "metar": "METAR ENHD 211620Z 35013KT CAVOK 09/05 Q1031",
      "taf": "TAF ENHD 211400Z 2115/2122 33012KT CAVOK"
    },
    {
      "icao": "ENTC",
      "alert": "OK",
      "vis_m": 9999,
      "fzfg": false,
      "metar_trigger": false,
      "taf_trigger": false,
      "metar": "METAR ENTC 211620Z 25023KT 9999 BKN034 08/02 Q1014 TEMPO 26020G30KT RMK WIND 2600FT 25037G57KT",
      "taf": "TAF ENTC 211100Z 2112/2212 22018KT 9999 FEW010 BKN020"
    },
    {
      "icao": "ENTO",
      "alert": "OK",
      "vis_m": 9999,
      "fzfg": false,
      "metar_trigger": false,
      "taf_trigger": false,
      "metar": "METAR ENTO 211620Z 36005KT 310V020 CAVOK 17/M00 Q1027 NOSIG",
      "taf": "TAF ENTO 211100Z 2112/2212 36008KT CAVOK"
    },
    {
      "icao": "ENVA",
      "alert": "OK",
      "vis_m": 9999,
      "fzfg": false,
      "metar_trigger": false,
      "taf_trigger": false,
      "metar": "METAR ENVA 211620Z 27009KT 9999 BKN032 08/03 Q1032 NOSIG RMK WIND 670FT 29012KT",
      "taf": "TAF ENVA 211100Z 2112/2212 26005KT 9999 FEW008 BKN018"
    },
    {
      "icao": "ENZV",
      "alert": "OK",
      "vis_m": 9999,
      "fzfg": false,
      "metar_trigger": false,
      "taf_trigger": false,
      "metar": "METAR ENZV 211620Z 32012KT CAVOK 10/04 Q1031 NOSIG",
      "taf": "TAF ENZV 211100Z 2112/2212 31008KT CAVOK"
    },
    {
      "icao": "EPGD",
      "alert": "OK",
      "vis_m": 9999,
      "fzfg": false,
      "metar_trigger": false,
      "taf_trigger": false,
      "metar": "METAR EPGD 211630Z 36011KT CAVOK 09/M04 Q1022",
      "taf": "TAF EPGD 211130Z 2112/2212 01010KT CAVOK"
    },
    {
      "icao": "EPKK",
      "alert": "OK",
      "vis_m": 9999,
      "fzfg": false,
      "metar_trigger": false,
      "taf_trigger": false,
      "metar": "METAR EPKK 211630Z 01005KT 9999 SCT065 11/M03 Q1018",
      "taf": "TAF EPKK 211430Z 2115/2215 03010KT 9999 SCT060"
    },
    {
      "icao": "EPKT",
      "alert": "OK",
      "vis_m": 9999,
      "fzfg": false,
      "metar_trigger": false,
      "taf_trigger": false,
      "metar": "METAR EPKT 211630Z 01007KT CAVOK 10/M06 Q1018",
      "taf": "TAF EPKT 211130Z 2112/2212 05008KT CAVOK"
    },
    {
      "icao": "EPLB",
      "alert": "OK",
      "vis_m": 9999,
      "fzfg": false,
      "metar_trigger": false,
      "taf_trigger": false,
      "metar": "METAR EPLB 211630Z 34006KT 290V020 CAVOK 12/M05 Q1016",
      "taf": "TAF EPLB 211130Z 2112/2212 02012KT CAVOK"
    },
    {
      "icao": "EPMO",
      "alert": "OK",
      "vis_m": 9999,
      "fzfg": false,
      "metar_trigger": false,
      "taf_trigger": false,
      "metar": "METAR EPMO 211630Z 01010KT 340V040 CAVOK 12/M07 Q1018",
      "taf": "TAF EPMO 211130Z 2112/2212 01014KT CAVOK"
    },
    {
      "icao": "EPPO",
      "alert": "OK",
      "vis_m": 9999,
      "fzfg": false,
      "metar_trigger": false,
      "taf_trigger": false,
      "metar": "METAR EPPO 211630Z 01008KT CAVOK 14/M07 Q1021",
      "taf": "TAF EPPO 211130Z 2112/2212 04010KT CAVOK"
    },
    {
      "icao": "EPRA",
      "alert": "OK",
      "vis_m": 9999,
      "fzfg": false,
      "metar_trigger": false,
      "taf_trigger": false,
      "metar": "METAR EPRA 211630Z 36009KT 330V030 CAVOK 12/M09 Q1017",
      "taf": "TAF EPRA 211430Z 2115/2124 02008KT CAVOK"
    },
    {
      "icao": "EPRZ",
      "alert": "OK",
      "vis_m": 9999,
      "fzfg": false,
      "metar_trigger": false,
      "taf_trigger": false,
      "metar": "METAR EPRZ 211630Z 33006KT CAVOK 11/M04 Q1016",
      "taf": ""
    },
    {
      "icao": "EPSC",
      "alert": "OK",
      "vis_m": 9999,
      "fzfg": false,
      "metar_trigger": false,
      "taf_trigger": false,
      "metar": "METAR EPSC 211630Z 02010KT 360V070 CAVOK 11/M04 Q1024",
      "taf": "TAF EPSC 211130Z 2112/2212 01010KT CAVOK"
    },
    {
      "icao": "EPSY",
      "alert": "OK",
      "vis_m": 9999,
      "fzfg": false,
      "metar_trigger": false,
      "taf_trigger": false,
      "metar": "METAR EPSY 211630Z 01013KT CAVOK 12/M07 Q1019",
      "taf": "TAF EPSY 211430Z 2115/2124 36010KT CAVOK"
    },
    {
      "icao": "EPWA",
      "alert": "OK",
      "vis_m": 9999,
      "fzfg": false,
      "metar_trigger": false,
      "taf_trigger": false,
      "metar": "METAR EPWA 211630Z 36010KT 320V020 CAVOK 13/M07 Q1017 NOSIG",
      "taf": "TAF EPWA 211430Z 2115/2215 01014KT CAVOK"
    },
    {
      "icao": "EPWR",
      "alert": "OK",
      "vis_m": 9999,
      "fzfg": false,
      "metar_trigger": false,
      "taf_trigger": false,
      "metar": "METAR EPWR 211630Z 01010KT CAVOK 12/M04 Q1020",
      "taf": "TAF EPWR 211430Z 2115/2215 03009KT CAVOK"
    },
    {
      "icao": "ESGG",
      "alert": "OK",
      "vis_m": 9999,
      "fzfg": false,
      "metar_trigger": false,
      "taf_trigger": false,
      "metar": "METAR ESGG 211620Z 35009KT CAVOK 15/M04 Q1026",
      "taf": "TAF ESGG 211430Z 2115/2215 03010KT CAVOK"
    },
    {
      "icao": "ESKN",
      "alert": "OK",
      "vis_m": 9999,
      "fzfg": false,
      "metar_trigger": false,
      "taf_trigger": false,
      "metar": "METAR ESKN 211620Z 34008KT 300V020 CAVOK 17/M03 Q1023",
      "taf": "TAF ESKN 211430Z 2115/2215 35007KT CAVOK"
    },
    {
      "icao": "ESMS",
      "alert": "OK",
      "vis_m": 9999,
      "fzfg": false,
      "metar_trigger": false,
      "taf_trigger": false,
      "metar": "METAR ESMS 211620Z 22011KT CAVOK 12/M03 Q1026",
      "taf": "TAF ESMS 211427Z 2115/2215 21010KT CAVOK"
    },
    {
      "icao": "ESSA",
      "alert": "OK",
      "vis_m": 9999,
      "fzfg": false,
      "metar_trigger": false,
      "taf_trigger": false,
      "metar": "METAR ESSA 211620Z 03011KT CAVOK 14/M02 Q1022 NOSIG",
      "taf": "TAF ESSA 211430Z 2115/2215 35013KT CAVOK"
    },
    {
      "icao": "EYKA",
      "alert": "OK",
      "vis_m": 9999,
      "fzfg": false,
      "metar_trigger": false,
      "taf_trigger": false,
      "metar": "METAR EYKA 211650Z 35006KT CAVOK 12/M05 Q1017",
      "taf": "TAF EYKA 211100Z 2112/2212 36010KT 9000 NSC"
    },
    {
      "icao": "EYPA",
      "alert": "OK",
      "vis_m": 9999,
      "fzfg": false,
      "metar_trigger": false,
      "taf_trigger": false,
      "metar": "METAR EYPA 211650Z 35005KT 300V030 CAVOK 06/02 Q1020",
      "taf": "TAF EYPA 211100Z 2112/2212 35009KT 9000 NSC"
    },
    {
      "icao": "EYVI",
      "alert": "OK",
      "vis_m": 9999,
      "fzfg": false,
      "metar_trigger": false,
      "taf_trigger": false,
      "metar": "METAR EYVI 211650Z 36011KT CAVOK 11/M08 Q1016 NOSIG",
      "taf": "TAF EYVI 211100Z 2112/2212 01012KT 9000 NSC"
    },
    {
      "icao": "GCFV",
      "alert": "OK",
      "vis_m": 9999,
      "fzfg": false,
      "metar_trigger": false,
      "taf_trigger": false,
      "metar": "METAR GCFV 211630Z 27015KT 230V320 9999 SCT035 23/12 Q1011",
      "taf": "TAF GCFV 211400Z 2115/2215 33007KT 9999 SCT035 TX23/2214Z TN17/2206Z"
    },
    {
      "icao": "GCLP",
      "alert": "OK",
      "vis_m": 9999,
      "fzfg": false,
      "metar_trigger": false,
      "taf_trigger": false,
      "metar": "METAR GCLP 211630Z 36011KT 9999 BKN035 20/14 Q1011 NOSIG",
      "taf": "TAF GCLP 211400Z 2115/2215 03017KT 9999 BKN040 TX23/2214Z TN17/2206Z"
    },
    {
      "icao": "GCTS",
      "alert": "OK",
      "vis_m": 9999,
      "fzfg": false,
      "metar_trigger": false,
      "taf_trigger": false,
      "metar": "METAR GCTS 211630Z 10010KT 060V120 9999 SCT040 22/15 Q1011 NOSIG",
      "taf": "TAF GCTS 211400Z 2115/2215 08012KT 9999 SCT040 TX23/2214Z TN17/2206Z"
    },
    {
      "icao": "GMAD",
      "alert": "OK",
      "vis_m": 8000,
      "fzfg": false,
      "metar_trigger": false,
      "taf_trigger": false,
      "metar": "METAR GMAD 211630Z 26013KT 8000 SCT020 22/13 Q1009 NOSIG",
      "taf": "TAF GMAD 211100Z 2112/2218 26006KT 8000 BKN020"
    },
    {
      "icao": "GMMN",
      "alert": "OK",
      "vis_m": 9999,
      "fzfg": false,
      "metar_trigger": false,
      "taf_trigger": false,
      "metar": "METAR GMMN 211630Z 32010KT 280V350 9999 SCT020 23/16 Q1009 NOSIG",
      "taf": "TAF GMMN 211100Z 2112/2218 26012KT 9999 BKN020"
    },
    {
      "icao": "GMMX",
      "alert": "OK",
      "vis_m": 9999,
      "fzfg": false,
      "metar_trigger": false,
      "taf_trigger": false,
      "metar": "METAR GMMX 211630Z 27008KT 240V320 9999 SCT040 SCT120 25/14 Q1009 NOSIG",
      "taf": "TAF GMMX 211100Z 2112/2218 12008KT 8000 SCT030"
    },
    {
      "icao": "HEGN",
      "alert": "OK",
      "vis_m": 9999,
      "fzfg": false,
      "metar_trigger": false,
      "taf_trigger": false,
      "metar": "METAR HEGN 211600Z 34019KT CAVOK 25/06 Q1010 NOSIG",
      "taf": ""
    },
    {
      "icao": "HEMA",
      "alert": "OK",
      "vis_m": 9999,
      "fzfg": false,
      "metar_trigger": false,
      "taf_trigger": false,
      "metar": "METAR HEMA 211600Z 36012KT CAVOK 24/12 Q1010 NOSIG",
      "taf": ""
    },
    {
      "icao": "HESH",
      "alert": "OK",
      "vis_m": 9999,
      "fzfg": false,
      "metar_trigger": false,
      "taf_trigger": false,
      "metar": "METAR HESH 211600Z 36010KT CAVOK 27/05 Q1009 NOSIG",
      "taf": ""
    },
    {
      "icao": "HESX",
      "alert": "OK",
      "vis_m": 9999,
      "fzfg": false,
      "metar_trigger": false,
      "taf_trigger": false,
      "metar": "METAR HESX 211600Z 35009KT CAVOK 22/05 Q1013 NOSIG",
      "taf": ""
    },
    {
      "icao": "LATI",
      "alert": "OK",
      "vis_m": 9999,
      "fzfg": false,
      "metar_trigger": false,
      "taf_trigger": false,
      "metar": "METAR LATI 211650Z 03003KT 010V080 9999 FEW016 SCT040 BKN072 18/12 Q1011 NOSIG",
      "taf": "TAF LATI 211100Z 2112/2212 24012KT 9999 FEW030TCU BKN070 TX21/2112Z TN13/2204Z"
    },
    {
      "icao": "LBPD",
      "alert": "OK",
      "vis_m": 9999,
      "fzfg": false,
      "metar_trigger": false,
      "taf_trigger": false,
      "metar": "METAR LBPD 211630Z AUTO 00000KT 9999 FEW009/// SCT013/// OVC024/// 11/11 Q1013 TEMPO 5000 RA",
      "taf": "TAF LBPD 211100Z 2112/2212 30010KT 9999 RA BKN015 OVC040"
    },
    {
      "icao": "LBSF",
      "alert": "OK",
      "vis_m": 9999,
      "fzfg": false,
      "metar_trigger": false,
      "taf_trigger": false,
      "metar": "METAR LBSF 211630Z AUTO VRB02KT 9999 OVC063/// 09/06 Q1014 NOSIG",
      "taf": "TAF LBSF 211100Z 2112/2212 32010KT 9999 RA BKN015 BKN040"
    },
    {
      "icao": "LBWN",
      "alert": "OK",
      "vis_m": 9999,
      "fzfg": false,
      "metar_trigger": false,
      "taf_trigger": false,
      "metar": "METAR LBWN 211630Z AUTO 14005KT 9999 -RA SCT013/// OVC016/// 09/09 Q1014 RERA NOSIG",
      "taf": "TAF LBWN 211100Z 2112/2212 11012KT 7000 -RA SCT015 BKN040"
    },
    {
      "icao": "LCLK",
      "alert": "OK",
      "vis_m": 9999,
      "fzfg": false,
      "metar_trigger": false,
      "taf_trigger": false,
      "metar": "METAR LCLK 211630Z 22013KT 9999 FEW045 18/14 Q1013 NOSIG",
      "taf": "TAF LCLK 211130Z 2112/2212 22015KT 9999 FEW025"
    },
    {
      "icao": "LCPH",
      "alert": "OK",
      "vis_m": 9999,
      "fzfg": false,
      "metar_trigger": false,
      "taf_trigger": false,
      "metar": "METAR LCPH 211630Z 31007KT 9999 FEW030 18/14 Q1014 NOSIG",
      "taf": "TAF LCPH 211130Z 2112/2212 26010KT 9999 FEW025"
    },
    {
      "icao": "LEAL",
      "alert": "OK",
      "vis_m": 9999,
      "fzfg": false,
      "metar_trigger": false,
      "taf_trigger": false,
      "metar": "METAR LEAL 211630Z 08006KT 040V110 CAVOK 22/11 Q1009 NOSIG",
      "taf": "TAF LEAL 211100Z 2112/2212 09009KT CAVOK TX24/2112Z TN13/2206Z"
    },
    {
      "icao": "LEBB",
      "alert": "OK",
      "vis_m": 9999,
      "fzfg": false,
      "metar_trigger": false,
      "taf_trigger": false,
      "metar": "METAR LEBB 211630Z 08009G20KT 040V120 9999 FEW070TCU 29/18 Q1004 NOSIG",
      "taf": "TAF LEBB 211100Z 2112/2212 10009KT 9999 FEW040 TX29/2113Z TN14/2206Z"
    },
    {
      "icao": "LEBL",
      "alert": "OK",
      "vis_m": 9999,
      "fzfg": false,
      "metar_trigger": false,
      "taf_trigger": false,
      "metar": "METAR LEBL 211630Z 20008KT 160V230 9999 FEW040 20/16 Q1010 NOSIG",
      "taf": "TAF LEBL 211100Z 2112/2212 VRB04KT 9999 FEW030 TX21/2112Z TN13/2206Z"
    },
    {
      "icao": "LECH",
      "alert": "OK",
      "vis_m": 9999,
      "fzfg": false,
      "metar_trigger": false,
      "taf_trigger": false,
      "metar": "METAR LECH 211630Z AUTO 13007KT 100V170 CAVOK 22/11 Q1010",
      "taf": "TAF LECH 211100Z 2112/2212 12007KT CAVOK TX26/2113Z TN12/2206Z"
    },
    {
      "icao": "LEMD",
      "alert": "OK",
      "vis_m": 9999,
      "fzfg": false,
      "metar_trigger": false,
      "taf_trigger": false,
      "metar": "METAR LEMD 211630Z COR 23031KT 9999 VCTS SCT070CB 22/07 Q1009 NOSIG",
      "taf": ""
    },
    {
      "icao": "LEMG",
      "alert": "OK",
      "vis_m": 9999,
      "fzfg": false,
      "metar_trigger": false,
      "taf_trigger": false,
      "metar": "METAR LEMG 211630Z 15003KT 050V200 CAVOK 20/13 Q1009 NOSIG",
      "taf": "TAF LEMG 211100Z 2112/2212 13007KT CAVOK TX24/2114Z TN12/2206Z"
    },
    {
      "icao": "LEVC",
      "alert": "OK",
      "vis_m": 9999,
      "fzfg": false,
      "metar_trigger": false,
      "taf_trigger": false,
      "metar": "METAR LEVC 211630Z 12007KT 080V150 CAVOK 22/08 Q1009 NOSIG",
      "taf": "TAF LEVC 211100Z 2112/2212 09009KT CAVOK TX26/2112Z TN12/2206Z"
    },
    {
      "icao": "LEXJ",
      "alert": "OK",
      "vis_m": 9999,
      "fzfg": false,
      "metar_trigger": false,
      "taf_trigger": false,
      "metar": "METAR LEXJ 211630Z 10004KT 050V150 CAVOK 20/16 Q1004",
      "taf": "TAF LEXJ 211400Z 2115/2215 08009KT 9000 SCT040 TX26/2213Z TN15/2206Z"
    },
    {
      "icao": "LEZG",
      "alert": "OK",
      "vis_m": 9999,
      "fzfg": false,
      "metar_trigger": false,
      "taf_trigger": false,
      "metar": "METAR LEZG 211630Z 12010KT 9999 VCTS FEW020CB 28/10 Q1006 TEMPO 4000 TSRA",
      "taf": "TAF LEZG 211100Z 2112/2212 10009KT CAVOK TX31/2115Z TN15/2206Z"
    },
    {
      "icao": "LEZL",
      "alert": "OK",
      "vis_m": 9999,
      "fzfg": false,
      "metar_trigger": false,
      "taf_trigger": false,
      "metar": "METAR LEZL 211630Z 17011KT 140V200 CAVOK 28/10 Q1006 NOSIG",
      "taf": "TAF LEZL 211400Z 2115/2215 21015KT CAVOK TX32/2115Z TN16/2206Z"
    },
    {
      "icao": "LFBD",
      "alert": "OK",
      "vis_m": 9999,
      "fzfg": false,
      "metar_trigger": false,
      "taf_trigger": false,
      "metar": "METAR LFBD 211630Z AUTO 06011KT 030V090 CAVOK 25/08 Q1007 NOSIG",
      "taf": "TAF LFBD 211100Z 2112/2218 06010KT CAVOK TX28/2115Z TN14/2206Z"
    },
    {
      "icao": "LFLL",
      "alert": "OK",
      "vis_m": 9999,
      "fzfg": false,
      "metar_trigger": false,
      "taf_trigger": false,
      "metar": "METAR LFLL 211630Z 35013KT CAVOK 19/02 Q1012 NOSIG",
      "taf": "TAF LFLL 211100Z 2112/2218 35007KT CAVOK"
    },
    {
      "icao": "LFLS",
      "alert": "OK",
      "vis_m": 9999,
      "fzfg": false,
      "metar_trigger": false,
      "taf_trigger": false,
      "metar": "METAR LFLS 211630Z AUTO 33010KT CAVOK 18/05 Q1012 NOSIG",
      "taf": "TAF LFLS 211400Z 2115/2215 36007KT CAVOK"
    },
    {
      "icao": "LFMN",
      "alert": "OK",
      "vis_m": 9999,
      "fzfg": false,
      "metar_trigger": false,
      "taf_trigger": false,
      "metar": "METAR LFMN 211630Z 16004KT 9999 FEW016 SCT260 19/15 Q1010 NOSIG",
      "taf": "TAF LFMN 211400Z 2115/2221 13005KT 9999 FEW020 SCT050"
    },
    {
      "icao": "LFOB",
      "alert": "OK",
      "vis_m": 9999,
      "fzfg": false,
      "metar_trigger": false,
      "taf_trigger": false,
      "metar": "METAR LFOB 211630Z AUTO 06012KT 9999 FEW047 SCT072 15/05 Q1020 NOSIG",
      "taf": "TAF LFOB 211100Z 2112/2212 04008KT CAVOK"
    },
    {
      "icao": "LFPO",
      "alert": "OK",
      "vis_m": 9999,
      "fzfg": false,
      "metar_trigger": false,
      "taf_trigger": false,
      "metar": "METAR LFPO 211630Z 06015KT CAVOK 14/03 Q1018 NOSIG",
      "taf": "TAF LFPO 211100Z 2112/2218 05015KT 9999 FEW046"
    },
    {
      "icao": "LFSB",
      "alert": "OK",
      "vis_m": 9999,
      "fzfg": false,
      "metar_trigger": false,
      "taf_trigger": false,
      "metar": "METAR LFSB 211630Z AUTO 36013KT 330V030 CAVOK 15/02 Q1016 NOSIG",
      "taf": "TAF LFSB 211100Z 2112/2212 36010KT 9999 SCT045"
    },
    {
      "icao": "LGAV",
      "alert": "OK",
      "vis_m": 9999,
      "fzfg": false,
      "metar_trigger": false,
      "taf_trigger": false,
      "metar": "METAR LGAV 211620Z 24007KT 9999 FEW025 20/07 Q1011 NOSIG",
      "taf": "TAF LGAV 211100Z 2112/2212 20013KT 9999 FEW025"
    },
    {
      "icao": "LGTS",
      "alert": "OK",
      "vis_m": 9999,
      "fzfg": false,
      "metar_trigger": false,
      "taf_trigger": false,
      "metar": "METAR LGTS 211620Z 28007KT 9999 FEW018TCU SCT025 17/15 Q1011 NOSIG",
      "taf": "TAF LGTS 211100Z 2112/2212 17010KT 9999 SCT030"
    },
    {
      "icao": "LHBP",
      "alert": "OK",
      "vis_m": 9999,
      "fzfg": false,
      "metar_trigger": false,
      "taf_trigger": false,
      "metar": "METAR LHBP 211630Z 12003KT CAVOK 10/05 Q1016 NOSIG",
      "taf": "TAF LHBP 211115Z 2112/2212 36007KT CAVOK"
    },
    {
      "icao": "LHDC",
      "alert": "OK",
      "vis_m": 9999,
      "fzfg": false,
      "metar_trigger": false,
      "taf_trigger": false,
      "metar": "METAR LHDC 211615Z AUTO 01009KT 340V050 CAVOK 12/M00 Q1015 NOSIG",
      "taf": "TAF LHDC 211415Z 2115/2124 03010KT 9999 SCT030 BKN050"
    },
    {
      "icao": "LIBD",
      "alert": "OK",
      "vis_m": 9999,
      "fzfg": false,
      "metar_trigger": false,
      "taf_trigger": false,
      "metar": "METAR LIBD 211620Z 08008KT 060V120 9999 VCSH FEW015 SCT040 18/14 Q1010",
      "taf": "TAF LIBD 211100Z 2112/2212 05015KT 9999 SCT040"
    },
    {
      "icao": "LIBG",
      "alert": "OK",
      "vis_m": 9999,
      "fzfg": false,
      "metar_trigger": false,
      "taf_trigger": false,
      "metar": "METAR LIBG 211550Z 16006KT 9999 FEW040 20/14 Q1010",
      "taf": "TAF LIBG 211400Z 2116/2124 VRB05KT 9999 SCT030"
    },
    {
      "icao": "LIBP",
      "alert": "OK",
      "vis_m": 9999,
      "fzfg": false,
      "metar_trigger": false,
      "taf_trigger": false,
      "metar": "METAR LIBP 211620Z AUTO 36006KT 310V030 9999 -RA OVC024/// 14/12 Q1014",
      "taf": "TAF LIBP 211100Z 2112/2212 04012KT 9999 SCT030"
    },
    {
      "icao": "LIBR",
      "alert": "OK",
      "vis_m": 9999,
      "fzfg": false,
      "metar_trigger": false,
      "taf_trigger": false,
      "metar": "METAR LIBR 211620Z 11003KT 080V150 CAVOK 19/16 Q1010",
      "taf": "TAF LIBR 211100Z 2112/2212 VRB06KT 9999 SCT040"
    },
    {
      "icao": "LICA",
      "alert": "OK",
      "vis_m": 9999,
      "fzfg": false,
      "metar_trigger": false,
      "taf_trigger": false,
      "metar": "METAR LICA 211620Z AUTO 21009KT 9999 NCD 20/13 Q1010",
      "taf": "TAF LICA 211100Z 2112/2212 26012KT CAVOK"
    },
    {
      "icao": "LICC",
      "alert": "OK",
      "vis_m": 9999,
      "fzfg": false,
      "metar_trigger": false,
      "taf_trigger": false,
      "metar": "METAR LICC 211620Z 07010KT CAVOK 20/14 Q1010",
      "taf": "TAF LICC 211100Z 2112/2212 24012KT CAVOK"
    },
    {
      "icao": "LICJ",
      "alert": "OK",
      "vis_m": 9999,
      "fzfg": false,
      "metar_trigger": false,
      "taf_trigger": false,
      "metar": "METAR LICJ 211620Z 03011KT CAVOK 19/16 Q1011",
      "taf": "TAF LICJ 211100Z 2112/2212 03010KT CAVOK"
    },
    {
      "icao": "LIMC",
      "alert": "OK",
      "vis_m": 9999,
      "fzfg": false,
      "metar_trigger": false,
      "taf_trigger": false,
      "metar": "METAR LIMC 211620Z 15008KT 9999 FEW040 18/09 Q1011 NOSIG",
      "taf": "TAF LIMC 211100Z 2112/2218 VRB05KT 9999 SCT015"
    },
    {
      "icao": "LIME",
      "alert": "OK",
      "vis_m": 8000,
      "fzfg": false,
      "metar_trigger": false,
      "taf_trigger": false,
      "metar": "METAR LIME 211620Z 04006KT 310V100 8000 TSRA SCT030 FEW033CB 13/11 Q1012 BECMG NSW",
      "taf": ""
    },
    {
      "icao": "LIMF",
      "alert": "OK",
      "vis_m": 9999,
      "fzfg": false,
      "metar_trigger": false,
      "taf_trigger": false,
      "metar": "METAR LIMF 211620Z 07006KT 9999 BKN030 18/11 Q1010",
      "taf": "TAF LIMF 211100Z 2112/2212 VRB05KT CAVOK"
    },
    {
      "icao": "LIMJ",
      "alert": "OK",
      "vis_m": 9999,
      "fzfg": false,
      "metar_trigger": false,
      "taf_trigger": false,
      "metar": "METAR LIMJ 211620Z VRB02KT 9999 FEW030 19/14 Q1010",
      "taf": "TAF LIMJ 211100Z 2112/2212 VRB06KT 9999 BKN030"
    },
    {
      "icao": "LIPE",
      "alert": "OK",
      "vis_m": 9999,
      "fzfg": false,
      "metar_trigger": false,
      "taf_trigger": false,
      "metar": "METAR LIPE 211620Z 10009KT 060V120 CAVOK 17/11 Q1012",
      "taf": "TAF LIPE 211100Z 2112/2212 08010KT 9999 BKN020"
    },
    {
      "icao": "LIPH",
      "alert": "OK",
      "vis_m": 9999,
      "fzfg": false,
      "metar_trigger": false,
      "taf_trigger": false,
      "metar": "METAR LIPH 211620Z 11005KT 080V150 9999 SCT070 18/04 Q1013",
      "taf": "TAF LIPH 211100Z 2112/2212 12010KT 9999 SCT030"
    },
    {
      "icao": "LIPQ",
      "alert": "OK",
      "vis_m": 9999,
      "fzfg": false,
      "metar_trigger": false,
      "taf_trigger": false,
      "metar": "METAR LIPQ 211620Z AUTO 08006KT 9999 BKN083/// 14/06 Q1013",
      "taf": "TAF LIPQ 211100Z 2112/2212 07012KT 9999 SCT050"
    },
    {
      "icao": "LIPR",
      "alert": "OK",
      "vis_m": 9999,
      "fzfg": false,
      "metar_trigger": false,
      "taf_trigger": false,
      "metar": "METAR LIPR 211620Z 10005KT 070V130 9999 FEW050 15/11 Q1013",
      "taf": "TAF LIPR 211100Z 2112/2212 08012KT 9999 BKN030"
    },
    {
      "icao": "LIPX",
      "alert": "OK",
      "vis_m": 9999,
      "fzfg": false,
      "metar_trigger": false,
      "taf_trigger": false,
      "metar": "METAR LIPX 211620Z 11008KT 9999 SCT040 BKN065 17/09 Q1012",
      "taf": "TAF LIPX 211100Z 2112/2212 10010KT 9999 FEW040"
    },
    {
      "icao": "LIPY",
      "alert": "OK",
      "vis_m": 9999,
      "fzfg": false,
      "metar_trigger": false,
      "taf_trigger": false,
      "metar": "METAR LIPY 211620Z AUTO VRB01KT 9999 BKN094/// 15/13 Q1013",
      "taf": "TAF LIPY 211100Z 2112/2212 VRB05KT 9999 BKN040"
    },
    {
      "icao": "LIPZ",
      "alert": "OK",
      "vis_m": 9999,
      "fzfg": false,
      "metar_trigger": false,
      "taf_trigger": false,
      "metar": "METAR LIPZ 211620Z 19004KT 140V210 9999 FEW070 18/02 Q1013 NOSIG",
      "taf": "TAF LIPZ 211100Z 2112/2218 14010KT 9999 SCT030"
    },
    {
      "icao": "LIRF",
      "alert": "OK",
      "vis_m": 9999,
      "fzfg": false,
      "metar_trigger": false,
      "taf_trigger": false,
      "metar": "METAR LIRF 211620Z 23007KT 190V250 9999 SCT020 19/15 Q1010 NOSIG",
      "taf": "TAF LIRF 211100Z 2112/2218 20011KT 9999 FEW020"
    },
    {
      "icao": "LIRN",
      "alert": "OK",
      "vis_m": 9999,
      "fzfg": false,
      "metar_trigger": false,
      "taf_trigger": false,
      "metar": "METAR LIRN 211620Z 20008KT 170V270 CAVOK 20/06 Q1011 NOSIG",
      "taf": "TAF LIRN 211100Z 2112/2212 20010KT 9999 FEW040"
    },
    {
      "icao": "LIRP",
      "alert": "OK",
      "vis_m": 9999,
      "fzfg": false,
      "metar_trigger": false,
      "taf_trigger": false,
      "metar": "METAR LIRP 211615Z VRB02KT 9999 FEW040 21/10 Q1010 NOSIG",
      "taf": "TAF LIRP 211100Z 2112/2212 VRB04KT 9999 SCT030"
    },
    {
      "icao": "LIRZ",
      "alert": "OK",
      "vis_m": 9999,
      "fzfg": false,
      "metar_trigger": false,
      "taf_trigger": false,
      "metar": "METAR LIRZ 211620Z AUTO 06008KT 9999 BKN057/// 17/08 Q1011",
      "taf": "TAF LIRZ 211100Z 2112/2212 VRB05KT 9999 BKN030"
    },
    {
      "icao": "LJLJ",
      "alert": "OK",
      "vis_m": 9999,
      "fzfg": false,
      "metar_trigger": false,
      "taf_trigger": false,
      "metar": "METAR LJLJ 211630Z 12013KT 9999 FEW040TCU BKN065 BKN100 10/05 Q1015 NOSIG",
      "taf": "TAF LJLJ 211100Z 2112/2212 19003KT 9999 FEW025 BKN035"
    },
    {
      "icao": "LKMT",
      "alert": "OK",
      "vis_m": 9999,
      "fzfg": false,
      "metar_trigger": false,
      "taf_trigger": false,
      "metar": "METAR LKMT 211630Z 02010KT CAVOK 10/M01 Q1018 NOSIG",
      "taf": "TAF LKMT 211100Z 2112/2212 03012KT 9999 SCT045"
    },
    {
      "icao": "LKPR",
      "alert": "OK",
      "vis_m": 9999,
      "fzfg": false,
      "metar_trigger": false,
      "taf_trigger": false,
      "metar": "METAR LKPR 211630Z 02005KT 340V050 CAVOK 10/M02 Q1021 NOSIG",
      "taf": "TAF LKPR 211400Z 2115/2221 05010KT 9999 SCT035"
    },
    {
      "icao": "LLBG",
      "alert": "OK",
      "vis_m": 9999,
      "fzfg": false,
      "metar_trigger": false,
      "taf_trigger": false,
      "metar": "METAR LLBG 211620Z 34007KT 9999 FEW040 19/09 Q1014 NOSIG",
      "taf": "TAF LLBG 211103Z 2112/2212 29012KT 9999 FEW040 TX22/2112Z TN12/2203Z"
    },
    {
      "icao": "LMML",
      "alert": "OK",
      "vis_m": 9999,
      "fzfg": false,
      "metar_trigger": false,
      "taf_trigger": false,
      "metar": "METAR LMML 211645Z 19006KT 160V240 CAVOK 20/16 Q1010 NOSIG",
      "taf": "TAF LMML 211100Z 2112/2212 18007KT CAVOK"
    },
    {
      "icao": "LOWW",
      "alert": "OK",
      "vis_m": 9999,
      "fzfg": false,
      "metar_trigger": false,
      "taf_trigger": false,
      "metar": "METAR LOWW 211620Z 35009KT 9999 FEW050 11/01 Q1018 NOSIG",
      "taf": "TAF LOWW 211415Z 2115/2221 34010KT CAVOK TX15/2213Z TN03/2204Z"
    },
    {
      "icao": "LPFR",
      "alert": "OK",
      "vis_m": 9999,
      "fzfg": false,
      "metar_trigger": false,
      "taf_trigger": false,
      "metar": "METAR LPFR 211630Z 24013KT 9999 FEW010 19/16 Q1007",
      "taf": "TAF LPFR 211100Z 2112/2212 12013KT CAVOK"
    },
    {
      "icao": "LPMA",
      "alert": "OK",
      "vis_m": 9999,
      "fzfg": false,
      "metar_trigger": false,
      "taf_trigger": false,
      "metar": "METAR LPMA 211630Z 34011KT 300V010 9999 SCT015 SCT028 17/08 Q1011",
      "taf": "TAF LPMA 211100Z 2112/2212 35015KT 9999 SCT015 SCT030"
    },
    {
      "icao": "LPPR",
      "alert": "OK",
      "vis_m": 9999,
      "fzfg": false,
      "metar_trigger": false,
      "taf_trigger": false,
      "metar": "METAR LPPR 211630Z 20012KT 9999 FEW020 SCT040 18/14 Q1005",
      "taf": "TAF LPPR 211100Z 2112/2212 20015KT 9999 FEW020"
    },
    {
      "icao": "LPPS",
      "alert": "OK",
      "vis_m": 9999,
      "fzfg": false,
      "metar_trigger": false,
      "taf_trigger": false,
      "metar": "METAR LPPS 211630Z 31013KT 9999 FEW015 17/07 Q1012",
      "taf": "TAF LPPS 211100Z 2112/2218 33017KT 9999 SCT015 SCT030"
    },
    {
      "icao": "LPPT",
      "alert": "OK",
      "vis_m": 9999,
      "fzfg": false,
      "metar_trigger": false,
      "taf_trigger": false,
      "metar": "METAR LPPT 211630Z 22012KT 190V260 9999 SCT015 18/15 Q1005",
      "taf": "TAF LPPT 211100Z 2112/2218 22013KT 9999 SCT025"
    },
    {
      "icao": "LQBK",
      "alert": "OK",
      "vis_m": 9999,
      "fzfg": false,
      "metar_trigger": false,
      "taf_trigger": false,
      "metar": "METAR LQBK 211630Z VRB02KT 9999 -RA NSC 10/07 Q1015 BECMG NSW",
      "taf": "TAF LQBK 211100Z 2112/2212 33005KT 9999 SCT020 BKN045 TX16/2114Z TN05/2204Z"
    },
    {
      "icao": "LQSA",
      "alert": "OK",
      "vis_m": 9999,
      "fzfg": false,
      "metar_trigger": false,
      "taf_trigger": false,
      "metar": "METAR LQSA 211630Z 34007KT 310V020 9999 FEW040 SCT050 BKN065 11/06 Q1013 NOSIG",
      "taf": "TAF LQSA 211100Z 2112/2212 30006KT 9999 FEW025 BKN040 TX14/2114Z TN04/2205Z"
    },
    {
      "icao": "LQTZ",
      "alert": "OK",
      "vis_m": 9999,
      "fzfg": false,
      "metar_trigger": false,
      "taf_trigger": false,
      "metar": "METAR LQTZ 211630Z 01004KT 310V050 9999 BKN050 12/06 Q1015",
      "taf": "TAF LQTZ 211100Z 2112/2212 03005KT 9999 FEW025 BKN040 TX15/2113Z TN04/2202Z"
    },
    {
      "icao": "LRBC",
      "alert": "OK",
      "vis_m": 9999,
      "fzfg": false,
      "metar_trigger": false,
      "taf_trigger": false,
      "metar": "METAR LRBC 211630Z 31006KT 9999 OVC055 08/02 Q1015",
      "taf": "TAF LRBC 211400Z 2115/2124 31007KT 9999 BKN035"
    },
    {
      "icao": "LRBS",
      "alert": "OK",
      "vis_m": 9999,
      "fzfg": false,
      "metar_trigger": false,
      "taf_trigger": false,
      "metar": "METAR LRBS 211630Z 04009KT 010V070 9999 FEW034 SCT039 OVC043 08/04 Q1015 NOSIG",
      "taf": "TAF LRBS 211100Z 2112/2212 08012KT 9999 BKN025"
    },
    {
      "icao": "LRBV",
      "alert": "OK",
      "vis_m": 9999,
      "fzfg": false,
      "metar_trigger": false,
      "taf_trigger": false,
      "metar": "METAR LRBV 211630Z 07007KT 9999 BKN010 BKN015 05/03 Q1014",
      "taf": "TAF LRBV 211400Z 2115/2124 07007KT 9999 SCT015 OVC030"
    },
    {
      "icao": "LRCL",
      "alert": "OK",
      "vis_m": 9999,
      "fzfg": false,
      "metar_trigger": false,
      "taf_trigger": false,
      "metar": "METAR LRCL 211630Z 32008KT 9999 FEW030 SCT045 BKN062 10/03 Q1013",
      "taf": "TAF LRCL 211400Z 2115/2124 31010KT 9999 BKN040"
    },
    {
      "icao": "LRCV",
      "alert": "OK",
      "vis_m": 9999,
      "fzfg": false,
      "metar_trigger": false,
      "taf_trigger": false,
      "metar": "METAR LRCV 211630Z 09019KT 9999 -SHRA FEW015 SCT022 SCT035CB 10/06 Q1013",
      "taf": "TAF LRCV 211400Z 2115/2124 09010KT 9999 SCT040CB"
    },
    {
      "icao": "LRIA",
      "alert": "OK",
      "vis_m": 9999,
      "fzfg": false,
      "metar_trigger": false,
      "taf_trigger": false,
      "metar": "METAR LRIA 211630Z 29004KT 260V320 CAVOK 10/00 Q1015",
      "taf": "TAF LRIA 211400Z 2115/2124 35010KT CAVOK"
    },
    {
      "icao": "LROP",
      "alert": "OK",
      "vis_m": 9999,
      "fzfg": false,
      "metar_trigger": false,
      "taf_trigger": false,
      "metar": "METAR LROP 211630Z 04006KT 360V080 9999 OVC039 08/02 Q1015 NOSIG",
      "taf": "TAF LROP 211100Z 2112/2212 08012KT 9999 BKN025"
    },
    {
      "icao": "LRSB",
      "alert": "OK",
      "vis_m": 9999,
      "fzfg": false,
      "metar_trigger": false,
      "taf_trigger": false,
      "metar": "METAR LRSB 211630Z 01011KT 9999 VCSH FEW042CB SCT055 09/05 Q1013",
      "taf": "TAF LRSB 211100Z 2112/2212 36014KT 9999 SCT040CB"
    },
    {
      "icao": "LRSM",
      "alert": "OK",
      "vis_m": 9999,
      "fzfg": false,
      "metar_trigger": false,
      "taf_trigger": false,
      "metar": "METAR LRSM 211630Z 03008KT CAVOK 10/03 Q1015",
      "taf": "TAF LRSM 211400Z 2115/2124 03009KT 9999 BKN030"
    },
    {
      "icao": "LRSV",
      "alert": "OK",
      "vis_m": 9999,
      "fzfg": false,
      "metar_trigger": false,
      "taf_trigger": false,
      "metar": "METAR LRSV 211630Z 25004KT CAVOK 07/00 Q1014",
      "taf": "TAF LRSV 211400Z 2115/2124 35008KT 9999 BKN040"
    },
    {
      "icao": "LRTM",
      "alert": "OK",
      "vis_m": 6000,
      "fzfg": false,
      "metar_trigger": false,
      "taf_trigger": false,
      "metar": "METAR LRTM 211630Z 25010KT 6000 SHRA SCT022 BKN035CB 06/04 Q1014",
      "taf": "TAF LRTM 211400Z 2115/2124 VRB04KT 9999 BKN020 SCT040CB"
    },
    {
      "icao": "LRTR",
      "alert": "OK",
      "vis_m": 9999,
      "fzfg": false,
      "metar_trigger": false,
      "taf_trigger": false,
      "metar": "METAR LRTR 211630Z 01008KT CAVOK 12/05 Q1014",
      "taf": "TAF LRTR 211100Z 2112/2212 VRB04KT CAVOK"
    },
    {
      "icao": "LTAC",
      "alert": "OK",
      "vis_m": 9999,
      "fzfg": false,
      "metar_trigger": false,
      "taf_trigger": false,
      "metar": "METAR LTAC 211620Z 24008KT 9999 SCT040 BKN080 14/04 Q1012 NOSIG RMK RWY21C 23008KT RWY03L 23006KT RWY21R 23008KT RWY03R 23005KT RWY21L 23008KT",
      "taf": "TAF LTAC 211040Z 2112/2212 27012KT 9999 SCT040 BKN100"
    },
    {
      "icao": "LTFM",
      "alert": "OK",
      "vis_m": 9999,
      "fzfg": false,
      "metar_trigger": false,
      "taf_trigger": false,
      "metar": "METAR LTFM 211620Z 03016KT 9999 -SHRA SCT008 SCT018TCU BKN022 11/09 Q1013 NOSIG RMK RWY17L 03013KT RWY34L 03013KT RWY16R 03013KT RWY36 03016KT RWY18 04013KT",
      "taf": ""
    },
    {
      "icao": "LUKK",
      "alert": "OK",
      "vis_m": 9999,
      "fzfg": false,
      "metar_trigger": false,
      "taf_trigger": false,
      "metar": "METAR LUKK 211630Z 35005KT 320V020 CAVOK 10/M02 Q1014 NOSIG",
      "taf": "TAF LUKK 211105Z 2112/2212 01012KT CAVOK"
    },
    {
      "icao": "LWOH",
      "alert": "OK",
      "vis_m": 9999,
      "fzfg": false,
      "metar_trigger": false,
      "taf_trigger": false,
      "metar": "METAR LWOH 211650Z 16006KT 130V210 9999 FEW010 BKN035 12/09 Q1012",
      "taf": "TAF LWOH 211550Z 2115/2215 14008KT 9999 SCT030 BKN050"
    },
    {
      "icao": "LWSK",
      "alert": "OK",
      "vis_m": 9999,
      "fzfg": false,
      "metar_trigger": false,
      "taf_trigger": false,
      "metar": "METAR LWSK 211650Z VRB02KT 9999 -RA BKN025 OVC040 10/08 Q1014 NOSIG",
      "taf": "TAF LWSK 211155Z 2112/2212 36010KT 9999 SCT025 BKN045"
    },
    {
      "icao": "LYBE",
      "alert": "OK",
      "vis_m": 9999,
      "fzfg": false,
      "metar_trigger": false,
      "taf_trigger": false,
      "metar": "METAR LYBE 211630Z 23006KT 200V280 9999 -RA SCT043 11/07 Q1015 TEMPO 5000 SHRA SCT030TCU SCT040",
      "taf": "TAF LYBE 211100Z 2112/2212 30010KT 9999 BKN033 TX16/2113Z TN04/2204Z"
    },
    {
      "icao": "LYNI",
      "alert": "OK",
      "vis_m": 9999,
      "fzfg": false,
      "metar_trigger": false,
      "taf_trigger": false,
      "metar": "METAR LYNI 211630Z 20003KT 160V240 9999 FEW040 12/08 Q1014 NOSIG",
      "taf": "TAF LYNI 211100Z 2112/2212 30006KT 9999 SCT030 BKN080 TX15/2212Z TN07/2204Z"
    },
    {
      "icao": "LYPG",
      "alert": "OK",
      "vis_m": 9999,
      "fzfg": false,
      "metar_trigger": false,
      "taf_trigger": false,
      "metar": "METAR LYPG 211630Z 00000KT 9999 -RA FEW010 BKN040 OVC080 13/12 Q1012 NOSIG",
      "taf": "TAF LYPG 211100Z 2112/2212 16005KT 9999 FEW030 SCT040 BKN080 TX19/2212Z TN11/2204Z"
    },
    {
      "icao": "LZIB",
      "alert": "OK",
      "vis_m": 9999,
      "fzfg": false,
      "metar_trigger": false,
      "taf_trigger": false,
      "metar": "METAR LZIB 211630Z 36009KT CAVOK 12/M03 Q1017 NOSIG",
      "taf": ""
    },
    {
      "icao": "LZKZ",
      "alert": "OK",
      "vis_m": 9999,
      "fzfg": false,
      "metar_trigger": false,
      "taf_trigger": false,
      "metar": "METAR LZKZ 211630Z 36016KT CAVOK 11/M05 Q1016 NOSIG",
      "taf": "TAF LZKZ 211115Z 2112/2212 02015KT 9999 FEW045"
    },
    {
      "icao": "LZTT",
      "alert": "OK",
      "vis_m": 9999,
      "fzfg": false,
      "metar_trigger": false,
      "taf_trigger": false,
      "metar": "METAR LZTT 211630Z 03009KT 9999 FEW053 BKN066 06/M06 Q1016 NOSIG",
      "taf": "TAF LZTT 211115Z 2112/2212 03010KT 9999 FEW040 SCT060"
    },
    {
      "icao": "OEJN",
      "alert": "OK",
      "vis_m": 9999,
      "fzfg": false,
      "metar_trigger": false,
      "taf_trigger": false,
      "metar": "METAR OEJN 211600Z 33018KT CAVOK 29/09 Q1006 NOSIG",
      "taf": "TAF OEJN 211100Z 2112/2218 34013KT 7000 NSC"
    },
    {
      "icao": "OEMA",
      "alert": "OK",
      "vis_m": 9999,
      "fzfg": false,
      "metar_trigger": false,
      "taf_trigger": false,
      "metar": "METAR OEMA 211600Z 31004KT CAVOK 32/M08 Q1009 NOSIG",
      "taf": "TAF OEMA 211100Z 2112/2218 31012KT CAVOK"
    },
    {
      "icao": "OJAI",
      "alert": "OK",
      "vis_m": 5000,
      "fzfg": false,
      "metar_trigger": false,
      "taf_trigger": false,
      "metar": "METAR OJAI 211600Z 27008KT 5000 HZ NSC 16/07 Q1015 NOSIG",
      "taf": "TAF OJAI 211100Z 2112/2218 30010KT 5000 HZ NSC"
    },
    {
      "icao": "OMAA",
      "alert": "OK",
      "vis_m": null,
      "fzfg": false,
      "metar_trigger": false,
      "taf_trigger": false,
      "metar": "",
      "taf": ""
    },
    {
      "icao": "OMDB",
      "alert": "OK",
      "vis_m": null,
      "fzfg": false,
      "metar_trigger": false,
      "taf_trigger": false,
      "metar": "",
      "taf": ""
    },
    {
      "icao": "UAAA",
      "alert": "OK",
      "vis_m": 9999,
      "fzfg": false,
      "metar_trigger": false,
      "taf_trigger": false,
      "metar": "METAR UAAA 211630Z VRB01MPS 9999 FEW050CB SCT100 15/04 Q1012 NOSIG",
      "taf": "TAF UAAA 211102Z 2112/2212 17003MPS 9999 SCT050CB BKN100 TX24/2209Z TN08/2201Z"
    },
    {
      "icao": "UBBB",
      "alert": "OK",
      "vis_m": 9999,
      "fzfg": false,
      "metar_trigger": false,
      "taf_trigger": false,
      "metar": "METAR UBBB 211630Z 34004KT CAVOK 08/07 Q1012 NOSIG",
      "taf": "TAF UBBB 211052Z 2112/2212 33005KT 9999 FEW040CB BKN040 TX10/2112Z TN07/2200Z"
    },
    {
      "icao": "UDSG",
      "alert": "OK",
      "vis_m": 9999,
      "fzfg": false,
      "metar_trigger": false,
      "taf_trigger": false,
      "metar": "METAR UDSG 211630Z 00000KT 9999 BKN040CB 05/04 Q1013 NOSIG",
      "taf": "TAF UDSG 211058Z 2112/2212 24006KT 9999 BKN040"
    },
    {
      "icao": "UDYZ",
      "alert": "OK",
      "vis_m": 9999,
      "fzfg": false,
      "metar_trigger": false,
      "taf_trigger": false,
      "metar": "METAR UDYZ 211630Z VRB02KT 9999 -SHRA BKN043CB 12/08 Q1011 NOSIG",
      "taf": "TAF UDYZ 211100Z 2112/2212 04006KT 9999 BKN040"
    },
    {
      "icao": "UGKO",
      "alert": "OK",
      "vis_m": 9999,
      "fzfg": false,
      "metar_trigger": false,
      "taf_trigger": false,
      "metar": "METAR UGKO 211630Z 10003KT CAVOK 14/09 Q1012 NOSIG",
      "taf": "TAF UGKO 211100Z 2112/2212 25007KT CAVOK TX22/2211Z TN07/2203Z"
    }
  ]
}