{
  "ts_utc": "2026-01-25T21:55:39Z",
  "threshold_m": 150,
  "source": "stations_override.txt (ICAO list) + aviationweather.gov (METAR/TAF raw)",
  "station_count": 159,
  "stations": [
    {
      "icao": "BIKF",
      "alert": "OK",
      "vis_m": 9999,
      "fzfg": false,
      "metar_trigger": false,
      "taf_trigger": false,
      "metar": "METAR BIKF 252130Z 09020KT 9999 FEW046 SCT240 03/M01 Q1005",
      "taf": "TAF BIKF 251919Z 2521/2621 08015KT 9999 FEW025 TX05/2615Z TN02/2602Z"
    },
    {
      "icao": "BKPR",
      "alert": "OK",
      "vis_m": null,
      "fzfg": false,
      "metar_trigger": false,
      "taf_trigger": false,
      "metar": "",
      "taf": "TAF BKPR 251730Z 2518/2618 17008KT 9999 FEW012 SCT030 BKN070"
    },
    {
      "icao": "EBCI",
      "alert": "OK",
      "vis_m": 7000,
      "fzfg": false,
      "metar_trigger": false,
      "taf_trigger": false,
      "metar": "METAR EBCI 252120Z VRB01KT 7000 BKN035 03/00 Q0996 NOSIG",
      "taf": "TAF EBCI 251710Z 2518/2624 10004KT 8000 BKN018"
    },
    {
      "icao": "EDDB",
      "alert": "OK",
      "vis_m": 4500,
      "fzfg": false,
      "metar_trigger": false,
      "taf_trigger": false,
      "metar": "METAR EDDB 252150Z AUTO 06011KT 4500 BR OVC005 M03/M04 Q0998 REFZRA TEMPO 2000 FZRA BKN003",
      "taf": "TAF EDDB 251700Z 2518/2618 06010KT 3000 BR BKN006"
    },
    {
      "icao": "EDDH",
      "alert": "OK",
      "vis_m": 4600,
      "fzfg": false,
      "metar_trigger": false,
      "taf_trigger": false,
      "metar": "METAR EDDH 252150Z AUTO 06007KT 4600 BR OVC007 M01/M02 Q1001 NOSIG",
      "taf": "TAF EDDH 251700Z 2518/2624 09009KT 6000 OVC012"
    },
    {
      "icao": "EDDK",
      "alert": "OK",
      "vis_m": 9000,
      "fzfg": false,
      "metar_trigger": false,
      "taf_trigger": false,
      "metar": "METAR EDDK 252150Z AUTO 10003KT 060V150 9000 NSC M00/M03 Q0997 NOSIG",
      "taf": "TAF EDDK 251700Z 2518/2624 VRB03KT CAVOK"
    },
    {
      "icao": "EDDN",
      "alert": "OK",
      "vis_m": 1200,
      "fzfg": false,
      "metar_trigger": false,
      "taf_trigger": false,
      "metar": "METAR EDDN 252150Z AUTO 28004KT 1200 1100 R28/1300D SN BR BKN003 M01/M02 Q0994 TEMPO 0600 +SN",
      "taf": "TAF EDDN 251700Z 2518/2618 26004KT 6000 OVC010"
    },
    {
      "icao": "EDDS",
      "alert": "OK",
      "vis_m": 1800,
      "fzfg": false,
      "metar_trigger": false,
      "taf_trigger": false,
      "metar": "METAR EDDS 252150Z AUTO VRB01KT 1800 SN BR SCT005 BKN010 M01/M02 Q0994",
      "taf": "TAF EDDS 251700Z 2518/2618 VRB03KT 6000 OVC010"
    },
    {
      "icao": "EDFH",
      "alert": "OK",
      "vis_m": 4500,
      "fzfg": false,
      "metar_trigger": false,
      "taf_trigger": false,
      "metar": "METAR EDFH 252120Z 26008KT 4500 BR NSC M03/M04 Q0994",
      "taf": "TAF EDFH 251700Z 2518/2618 14013KT 3000 BR OVC003"
    },
    {
      "icao": "EDJA",
      "alert": "OK",
      "vis_m": 4000,
      "fzfg": false,
      "metar_trigger": false,
      "taf_trigger": false,
      "metar": "METAR EDJA 252120Z 23009KT 4000 -SN SCT004 OVC012 00/M00 Q0994",
      "taf": "TAF EDJA 251700Z 2518/2603 26003KT 0800 +SN OVC002"
    },
    {
      "icao": "EDLW",
      "alert": "OK",
      "vis_m": 6000,
      "fzfg": false,
      "metar_trigger": false,
      "taf_trigger": false,
      "metar": "METAR EDLW 252120Z 02003KT 6000 NSC M00/M02 Q0996",
      "taf": "TAF EDLW 251700Z 2518/2618 05004KT 7000 FEW015"
    },
    {
      "icao": "EDNY",
      "alert": "OK",
      "vis_m": 3300,
      "fzfg": false,
      "metar_trigger": false,
      "taf_trigger": false,
      "metar": "METAR EDNY 252120Z AUTO VRB02KT 3300 // FEW013/// OVC023/// 01/01 Q0996",
      "taf": "TAF EDNY 251700Z 2518/2603 25002KT 9999 OVC030"
    },
    {
      "icao": "EDSB",
      "alert": "OK",
      "vis_m": 5000,
      "fzfg": false,
      "metar_trigger": false,
      "taf_trigger": false,
      "metar": "METAR EDSB 252120Z 01001KT 5000 BR OVC008 M00/M02 Q0997",
      "taf": "TAF EDSB 251700Z 2518/2618 03004KT 6000 OVC010"
    },
    {
      "icao": "EETN",
      "alert": "OK",
      "vis_m": 4300,
      "fzfg": false,
      "metar_trigger": false,
      "taf_trigger": false,
      "metar": "METAR EETN 252150Z 15005KT 4300 SN OVC030 M10/M12 Q1015 TEMPO 2000",
      "taf": "TAF EETN 251730Z 2518/2618 17008KT 9999 BKN040"
    },
    {
      "icao": "EFTU",
      "alert": "OK",
      "vis_m": 9999,
      "fzfg": false,
      "metar_trigger": false,
      "taf_trigger": false,
      "metar": "METAR EFTU 252150Z AUTO 09003KT 9999 FEW045 M11/M12 Q1014",
      "taf": "TAF EFTU 252024Z 2521/2621 09002KT 9999 FEW045"
    },
    {
      "icao": "EGBB",
      "alert": "OK",
      "vis_m": 5000,
      "fzfg": false,
      "metar_trigger": false,
      "taf_trigger": false,
      "metar": "METAR EGBB 252120Z 09007G19KT 010V180 5000 BR BKN007 05/04 Q0999",
      "taf": ""
    },
    {
      "icao": "EGGP",
      "alert": "OK",
      "vis_m": 8000,
      "fzfg": false,
      "metar_trigger": false,
      "taf_trigger": false,
      "metar": "METAR EGGP 252120Z 08010KT 8000 OVC014 04/02 Q1000",
      "taf": ""
    },
    {
      "icao": "EGGW",
      "alert": "OK",
      "vis_m": 2600,
      "fzfg": false,
      "metar_trigger": false,
      "taf_trigger": false,
      "metar": "METAR EGGW 252120Z AUTO 05007KT 2600 BR OVC003 04/04 Q0998",
      "taf": "TAF EGGW 251657Z 2518/2618 07008KT 6000 BKN005"
    },
    {
      "icao": "EGKK",
      "alert": "OK",
      "vis_m": 7000,
      "fzfg": false,
      "metar_trigger": false,
      "taf_trigger": false,
      "metar": "METAR EGKK 252120Z 05005KT 7000 OVC009 06/05 Q0997",
      "taf": ""
    },
    {
      "icao": "EGNM",
      "alert": "OK",
      "vis_m": 3500,
      "fzfg": false,
      "metar_trigger": false,
      "taf_trigger": false,
      "metar": "METAR EGNM 252120Z 08007KT 3500 -RA BR OVC006 02/01 Q1000",
      "taf": ""
    },
    {
      "icao": "EGPD",
      "alert": "OK",
      "vis_m": 9999,
      "fzfg": false,
      "metar_trigger": false,
      "taf_trigger": false,
      "metar": "METAR EGPD 252120Z AUTO 11012KT 9999 BKN017 OVC042 04/01 Q1006 TEMPO RA BKN014",
      "taf": "TAF EGPD 251656Z 2518/2618 11009KT 9999 SCT014 BKN025"
    },
    {
      "icao": "EGPF",
      "alert": "OK",
      "vis_m": 9999,
      "fzfg": false,
      "metar_trigger": false,
      "taf_trigger": false,
      "metar": "METAR EGPF 252120Z AUTO 08012KT 9999 SCT017 BKN026 BKN037 05/03 Q1002",
      "taf": "TAF EGPF 251701Z 2518/2618 08015KT 9999 SCT025"
    },
    {
      "icao": "EHBK",
      "alert": "OK",
      "vis_m": 5000,
      "fzfg": false,
      "metar_trigger": false,
      "taf_trigger": false,
      "metar": "METAR EHBK 252125Z AUTO 06003KT 5000 BR NSC M03/M03 Q0996 NOSIG",
      "taf": "TAF EHBK 251724Z 2518/2624 07008KT 6000 NSC"
    },
    {
      "icao": "EHEH",
      "alert": "OK",
      "vis_m": null,
      "fzfg": false,
      "metar_trigger": false,
      "taf_trigger": false,
      "metar": "",
      "taf": "TAF EHEH 251711Z 2518/2624 09006KT 6000 NSC"
    },
    {
      "icao": "EKBI",
      "alert": "OK",
      "vis_m": 9999,
      "fzfg": false,
      "metar_trigger": false,
      "taf_trigger": false,
      "metar": "METAR EKBI 252150Z AUTO 07014G25KT 9999 OVC013/// 00/M02 Q1006",
      "taf": "TAF EKBI 252027Z 2521/2621 08012KT 7000 BKN010"
    },
    {
      "icao": "EKCH",
      "alert": "OK",
      "vis_m": 9999,
      "fzfg": false,
      "metar_trigger": false,
      "taf_trigger": false,
      "metar": "METAR EKCH 252150Z AUTO 05013KT 9999 FEW023/// M00/M03 Q1007 NOSIG",
      "taf": "TAF EKCH 252027Z 2521/2621 07015KT 9999 OVC020"
    },
    {
      "icao": "ENAL",
      "alert": "OK",
      "vis_m": 9999,
      "fzfg": false,
      "metar_trigger": false,
      "taf_trigger": false,
      "metar": "METAR ENAL 252120Z 07014KT 9999 FEW027 M01/M06 Q1012",
      "taf": "TAF ENAL 252000Z 2521/2606 06015KT 9999 SCT030"
    },
    {
      "icao": "ENBR",
      "alert": "OK",
      "vis_m": 9999,
      "fzfg": false,
      "metar_trigger": false,
      "taf_trigger": false,
      "metar": "METAR ENBR 252120Z 11002KT 9999 SCT038 BKN045 M02/M10 Q1012 RMK WIND 1200FT 13004KT",
      "taf": "TAF ENBR 251700Z 2518/2618 07004KT 9999 BKN045"
    },
    {
      "icao": "ENGM",
      "alert": "OK",
      "vis_m": 9999,
      "fzfg": false,
      "metar_trigger": false,
      "taf_trigger": false,
      "metar": "METAR ENGM 252120Z 36002KT 9999 -SN BKN035 M08/M09 Q1013 NOSIG",
      "taf": "TAF ENGM 251700Z 2518/2618 02005KT 9999 BKN040"
    },
    {
      "icao": "ENHD",
      "alert": "OK",
      "vis_m": 9999,
      "fzfg": false,
      "metar_trigger": false,
      "taf_trigger": false,
      "metar": "METAR ENHD 252120Z /////KT CAVOK M03/M12 Q1012 RMK WIND RWY 31 07005KT",
      "taf": "TAF ENHD 251400Z 2515/2523 11009KT CAVOK"
    },
    {
      "icao": "ENTC",
      "alert": "OK",
      "vis_m": 9999,
      "fzfg": false,
      "metar_trigger": false,
      "taf_trigger": false,
      "metar": "METAR ENTC 252120Z 08008KT 060V120 9999 -SHSN FEW010 SCT030 BKN038 M03/M06 Q1013 TEMPO 1000 BKN008TCU RMK WIND 2600FT 36014KT",
      "taf": "TAF ENTC 251700Z 2518/2618 03008KT 9999 SCT015 BKN030"
    },
    {
      "icao": "ENTO",
      "alert": "OK",
      "vis_m": 9999,
      "fzfg": false,
      "metar_trigger": false,
      "taf_trigger": false,
      "metar": "METAR ENTO 252120Z AUTO 36005KT 9999 OVC043/// M05/M07 Q1014",
      "taf": "TAF ENTO 251700Z 2518/2618 02008KT 9999 -SN SCT020 BKN040"
    },
    {
      "icao": "ENVA",
      "alert": "OK",
      "vis_m": 9999,
      "fzfg": false,
      "metar_trigger": false,
      "taf_trigger": false,
      "metar": "METAR ENVA 252120Z 10008KT CAVOK M12/M15 Q1015 RMK WIND 670FT 15007KT",
      "taf": "TAF ENVA 251700Z 2518/2618 10006KT 9999 FEW035"
    },
    {
      "icao": "ENZV",
      "alert": "OK",
      "vis_m": 9999,
      "fzfg": false,
      "metar_trigger": false,
      "taf_trigger": false,
      "metar": "METAR ENZV 252120Z 05003KT CAVOK M02/M09 Q1011",
      "taf": "TAF ENZV 251700Z 2518/2618 07007KT CAVOK"
    },
    {
      "icao": "EPGD",
      "alert": "OK",
      "vis_m": 9000,
      "fzfg": false,
      "metar_trigger": false,
      "taf_trigger": false,
      "metar": "METAR EPGD 252130Z 10009KT 9000 BKN009 OVC027 M06/M08 Q1007",
      "taf": "TAF EPGD 251730Z 2518/2618 10010KT 9999 OVC013"
    },
    {
      "icao": "EPKK",
      "alert": "OK",
      "vis_m": 9999,
      "fzfg": false,
      "metar_trigger": false,
      "taf_trigger": false,
      "metar": "METAR EPKK 252130Z 05010KT CAVOK 02/00 Q1000",
      "taf": "TAF EPKK 252030Z 2521/2621 06010KT 7000 NSC"
    },
    {
      "icao": "EPKT",
      "alert": "OK",
      "vis_m": 7000,
      "fzfg": false,
      "metar_trigger": false,
      "taf_trigger": false,
      "metar": "METAR EPKT 252130Z 09011KT 7000 NSC 02/01 Q0999",
      "taf": "TAF EPKT 251730Z 2518/2618 09009KT 5000 BR BKN040"
    },
    {
      "icao": "EPLB",
      "alert": "OK",
      "vis_m": 4800,
      "fzfg": false,
      "metar_trigger": false,
      "taf_trigger": false,
      "metar": "METAR EPLB 252130Z 11012KT 4800 BR OVC005 M04/M04 Q1008",
      "taf": "TAF EPLB 251730Z 2518/2618 10012KT 8000 BKN010 BKN030"
    },
    {
      "icao": "EPMO",
      "alert": "OK",
      "vis_m": 6000,
      "fzfg": false,
      "metar_trigger": false,
      "taf_trigger": false,
      "metar": "METAR EPMO 252130Z 09010KT 6000 OVC013 M04/M06 Q1007",
      "taf": "TAF EPMO 251730Z 2518/2618 09010KT 5000 BR BKN010 BKN020"
    },
    {
      "icao": "EPPO",
      "alert": "OK",
      "vis_m": 4100,
      "fzfg": false,
      "metar_trigger": false,
      "taf_trigger": false,
      "metar": "METAR EPPO 252130Z 08011KT 4100 BR BKN007 M02/M04 Q1001",
      "taf": "TAF EPPO 251730Z 2518/2618 08010KT 4000 BR OVC007"
    },
    {
      "icao": "EPRA",
      "alert": "OK",
      "vis_m": 8000,
      "fzfg": false,
      "metar_trigger": false,
      "taf_trigger": false,
      "metar": "METAR EPRA 252130Z 10011KT 8000 OVC006 M03/M05 Q1005",
      "taf": "TAF EPRA 252030Z 2521/2606 11010KT 8000 OVC006"
    },
    {
      "icao": "EPRZ",
      "alert": "OK",
      "vis_m": 8000,
      "fzfg": false,
      "metar_trigger": false,
      "taf_trigger": false,
      "metar": "METAR EPRZ 252130Z 09016KT 8000 OVC005 M00/M01 Q1004 REFZRA",
      "taf": "TAF EPRZ 251730Z 2518/2618 09015KT 6000 BKN007"
    },
    {
      "icao": "EPSC",
      "alert": "OK",
      "vis_m": 4300,
      "fzfg": false,
      "metar_trigger": false,
      "taf_trigger": false,
      "metar": "METAR EPSC 252130Z 06007KT 020V080 4300 BR BKN006 OVC009 M03/M04 Q1003",
      "taf": ""
    },
    {
      "icao": "EPSY",
      "alert": "OK",
      "vis_m": 6000,
      "fzfg": false,
      "metar_trigger": false,
      "taf_trigger": false,
      "metar": "METAR EPSY 252130Z 13005KT 080V180 6000 OVC006 M06/M07 Q1008",
      "taf": "TAF EPSY 252030Z 2521/2606 12006KT 7000 BKN007"
    },
    {
      "icao": "EPWA",
      "alert": "OK",
      "vis_m": 9999,
      "fzfg": false,
      "metar_trigger": false,
      "taf_trigger": false,
      "metar": "METAR EPWA 252130Z 09008KT 060V120 9999 BKN013 M04/M06 Q1007 TEMPO BKN009",
      "taf": "TAF EPWA 252030Z 2521/2621 10012KT 8000 BKN012 OVC025"
    },
    {
      "icao": "EPWR",
      "alert": "OK",
      "vis_m": 5000,
      "fzfg": false,
      "metar_trigger": false,
      "taf_trigger": false,
      "metar": "METAR EPWR 252130Z 08007KT 5000 -RA BR SCT006 BKN043 02/01 Q0998",
      "taf": "TAF EPWR 252030Z 2521/2621 09007KT 6000 BKN018 OVC040"
    },
    {
      "icao": "ESGG",
      "alert": "OK",
      "vis_m": 9999,
      "fzfg": false,
      "metar_trigger": false,
      "taf_trigger": false,
      "metar": "METAR ESGG 252120Z 05008KT 9999 BKN017 OVC023 M04/M07 Q1010",
      "taf": "TAF ESGG 252030Z 2521/2621 07007KT 9999 OVC020"
    },
    {
      "icao": "ESKN",
      "alert": "OK",
      "vis_m": 9999,
      "fzfg": false,
      "metar_trigger": false,
      "taf_trigger": false,
      "metar": "METAR ESKN 252120Z 02004KT 350V050 9999 -SN SCT007 BKN028 M04/M05 Q1012",
      "taf": "TAF ESKN 252030Z 2521/2621 02005KT 9999 -SN BKN030"
    },
    {
      "icao": "ESMS",
      "alert": "OK",
      "vis_m": 9999,
      "fzfg": false,
      "metar_trigger": false,
      "taf_trigger": false,
      "metar": "METAR ESMS 252120Z 07013KT 9999 BKN021 00/M04 Q1006",
      "taf": "TAF ESMS 252027Z 2521/2621 08015KT 9000 OVC018"
    },
    {
      "icao": "ESSA",
      "alert": "OK",
      "vis_m": 9999,
      "fzfg": false,
      "metar_trigger": false,
      "taf_trigger": false,
      "metar": "METAR ESSA 252120Z 01006KT 9999 OVC006 M05/M06 Q1012 BECMG OVC030",
      "taf": "TAF ESSA 252030Z 2521/2621 01007KT 9999 -SN BKN030"
    },
    {
      "icao": "EYKA",
      "alert": "OK",
      "vis_m": 9999,
      "fzfg": false,
      "metar_trigger": false,
      "taf_trigger": false,
      "metar": "METAR EYKA 252150Z 12008KT 9999 -SN OVC034 M08/M11 Q1013",
      "taf": "TAF EYKA 251700Z 2518/2618 12009KT 8000 SCT025"
    },
    {
      "icao": "EYPA",
      "alert": "OK",
      "vis_m": 9999,
      "fzfg": false,
      "metar_trigger": false,
      "taf_trigger": false,
      "metar": "METAR EYPA 252150Z 12006KT 9999 OVC019 M06/M09 Q1011",
      "taf": "TAF EYPA 251700Z 2518/2618 11007KT 8000 BKN015"
    },
    {
      "icao": "EYVI",
      "alert": "OK",
      "vis_m": 9999,
      "fzfg": false,
      "metar_trigger": false,
      "taf_trigger": false,
      "metar": "METAR EYVI 252150Z 14012KT CAVOK M10/M13 Q1013 NOSIG",
      "taf": "TAF EYVI 251707Z 2518/2618 13009KT 8000 SCT015"
    },
    {
      "icao": "GCFV",
      "alert": "OK",
      "vis_m": 9999,
      "fzfg": false,
      "metar_trigger": false,
      "taf_trigger": false,
      "metar": "METAR GCFV 252130Z 31007KT 280V020 9999 FEW035 16/10 Q1027",
      "taf": "TAF GCFV 252000Z 2521/2621 33005KT 9999 FEW035 TX20/2614Z TN14/2606Z"
    },
    {
      "icao": "GCLP",
      "alert": "OK",
      "vis_m": 9999,
      "fzfg": false,
      "metar_trigger": false,
      "taf_trigger": false,
      "metar": "METAR GCLP 252130Z 34007KT 9999 SCT030 16/10 Q1027 NOSIG",
      "taf": "TAF GCLP 252000Z 2521/2621 32006KT 9999 FEW030 TX20/2614Z TN13/2606Z"
    },
    {
      "icao": "GCTS",
      "alert": "OK",
      "vis_m": 9999,
      "fzfg": false,
      "metar_trigger": false,
      "taf_trigger": false,
      "metar": "METAR GCTS 252130Z 07005KT 9999 BKN035 17/10 Q1027 NOSIG",
      "taf": "TAF GCTS 252000Z 2521/2621 03007KT 9999 SCT035 TX22/2614Z TN14/2606Z"
    },
    {
      "icao": "GMAD",
      "alert": "OK",
      "vis_m": 9999,
      "fzfg": false,
      "metar_trigger": false,
      "taf_trigger": false,
      "metar": "METAR GMAD 252130Z 14004KT CAVOK 12/12 Q1025 NOSIG",
      "taf": "TAF GMAD 251700Z 2518/2624 20007KT 9999 FEW033"
    },
    {
      "icao": "GMMN",
      "alert": "OK",
      "vis_m": 9999,
      "fzfg": false,
      "metar_trigger": false,
      "taf_trigger": false,
      "metar": "METAR GMMN 252130Z 21009KT 9999 SCT020 SCT090 11/10 Q1025 NOSIG",
      "taf": "TAF GMMN 251700Z 2518/2624 22010KT 9999 BKN030"
    },
    {
      "icao": "GMMX",
      "alert": "OK",
      "vis_m": 9999,
      "fzfg": false,
      "metar_trigger": false,
      "taf_trigger": false,
      "metar": "METAR GMMX 252130Z 20003KT 160V230 CAVOK 11/07 Q1026 NOSIG",
      "taf": "TAF GMMX 251100Z 2512/2618 12006KT 8000 NSC"
    },
    {
      "icao": "HEGN",
      "alert": "OK",
      "vis_m": 9999,
      "fzfg": false,
      "metar_trigger": false,
      "taf_trigger": false,
      "metar": "METAR HEGN 252100Z 00000KT CAVOK 14/02 Q1019 NOSIG",
      "taf": "TAF HEGN 251700Z 2518/2624 28010KT CAVOK"
    },
    {
      "icao": "HEMA",
      "alert": "OK",
      "vis_m": 9999,
      "fzfg": false,
      "metar_trigger": false,
      "taf_trigger": false,
      "metar": "METAR HEMA 252100Z 28010KT CAVOK 16/07 Q1017 NOSIG",
      "taf": "TAF HEMA 251700Z 2518/2624 29010KT CAVOK"
    },
    {
      "icao": "HESH",
      "alert": "OK",
      "vis_m": 9999,
      "fzfg": false,
      "metar_trigger": false,
      "taf_trigger": false,
      "metar": "METAR HESH 252100Z 34005KT CAVOK 17/03 Q1018 NOSIG",
      "taf": "TAF HESH 251700Z 2518/2624 35008KT CAVOK"
    },
    {
      "icao": "HESX",
      "alert": "OK",
      "vis_m": 9999,
      "fzfg": false,
      "metar_trigger": false,
      "taf_trigger": false,
      "metar": "METAR HESX 252100Z 09008KT CAVOK 14/07 Q1018 NOSIG",
      "taf": "TAF HESX 251700Z 2518/2624 17006KT 8000 NSC"
    },
    {
      "icao": "LATI",
      "alert": "OK",
      "vis_m": 9999,
      "fzfg": false,
      "metar_trigger": false,
      "taf_trigger": false,
      "metar": "METAR LATI 252150Z 16009KT 9999 BKN084 15/03 Q1002 TEMPO 17010G25KT",
      "taf": ""
    },
    {
      "icao": "LBPD",
      "alert": "OK",
      "vis_m": 2000,
      "fzfg": false,
      "metar_trigger": false,
      "taf_trigger": false,
      "metar": "METAR LBPD 252130Z AUTO 00000KT 2000 BR BKN002/// OVC006/// 03/03 Q1012",
      "taf": "TAF LBPD 251700Z 2518/2618 VRB04KT 8000 OVC010"
    },
    {
      "icao": "LBSF",
      "alert": "OK",
      "vis_m": 9999,
      "fzfg": false,
      "metar_trigger": false,
      "taf_trigger": false,
      "metar": "METAR LBSF 252130Z AUTO 05005KT 010V080 9999 NSC 03/01 Q1009 NOSIG",
      "taf": "TAF LBSF 251700Z 2518/2618 09010KT 9999 SCT015 BKN070"
    },
    {
      "icao": "LBWN",
      "alert": "OK",
      "vis_m": 4500,
      "fzfg": false,
      "metar_trigger": false,
      "taf_trigger": false,
      "metar": "METAR LBWN 252130Z AUTO 12008KT 4500 BR FEW003/// OVC020/// 07/07 Q1012 TEMPO 3000 BR SCT003 BKN015",
      "taf": "TAF LBWN 251700Z 2518/2618 13008KT 9999 SCT015 BKN045"
    },
    {
      "icao": "LCLK",
      "alert": "OK",
      "vis_m": 9999,
      "fzfg": false,
      "metar_trigger": false,
      "taf_trigger": false,
      "metar": "METAR LCLK 252130Z 35006KT 9999 FEW016 SCT020 12/11 Q1020 NOSIG",
      "taf": "TAF LCLK 251730Z 2518/2618 35007KT 9999 FEW030"
    },
    {
      "icao": "LCPH",
      "alert": "OK",
      "vis_m": 9999,
      "fzfg": false,
      "metar_trigger": false,
      "taf_trigger": false,
      "metar": "METAR LCPH 252130Z 07006KT CAVOK 11/09 Q1019 NOSIG",
      "taf": "TAF LCPH 251730Z 2518/2618 06009KT 9999 FEW030"
    },
    {
      "icao": "LEAL",
      "alert": "OK",
      "vis_m": 9999,
      "fzfg": false,
      "metar_trigger": false,
      "taf_trigger": false,
      "metar": "METAR LEAL 252130Z 28014KT CAVOK 17/02 Q1008 NOSIG",
      "taf": "TAF LEAL 251700Z 2518/2618 29018KT CAVOK TX20/2613Z TN11/2606Z"
    },
    {
      "icao": "LEBB",
      "alert": "OK",
      "vis_m": 9000,
      "fzfg": false,
      "metar_trigger": false,
      "taf_trigger": false,
      "metar": "METAR LEBB 252130Z 26014G27KT 210V300 9000 FEW028 BKN034 BKN045 10/06 Q1006 RERA WS ALL RWY NOSIG",
      "taf": "TAF LEBB 251700Z 2518/2618 28012KT 9999 FEW020 BKN035 TX14/2618Z TN07/2605Z"
    },
    {
      "icao": "LEBL",
      "alert": "OK",
      "vis_m": 9999,
      "fzfg": false,
      "metar_trigger": false,
      "taf_trigger": false,
      "metar": "METAR LEBL 252130Z 31007KT 250V360 9999 SCT050 10/04 Q1000 NOSIG",
      "taf": "TAF LEBL 251700Z 2518/2618 26012KT 9999 SCT050 TX16/2612Z TN09/2606Z"
    },
    {
      "icao": "LECH",
      "alert": "OK",
      "vis_m": 9000,
      "fzfg": false,
      "metar_trigger": false,
      "taf_trigger": false,
      "metar": "METAR LECH 252130Z AUTO 30026G43KT 260V340 9000 NCD 11/M01 Q1004",
      "taf": ""
    },
    {
      "icao": "LEMD",
      "alert": "OK",
      "vis_m": 9999,
      "fzfg": false,
      "metar_trigger": false,
      "taf_trigger": false,
      "metar": "METAR LEMD 252130Z 28008KT 9999 FEW050 08/M00 Q1010 NOSIG",
      "taf": ""
    },
    {
      "icao": "LEMG",
      "alert": "OK",
      "vis_m": 9999,
      "fzfg": false,
      "metar_trigger": false,
      "taf_trigger": false,
      "metar": "METAR LEMG 252130Z 08002KT 9999 BKN046 13/09 Q1017 NOSIG",
      "taf": "TAF LEMG 251700Z 2518/2618 27004KT 9999 BKN045 TX20/2614Z TN12/2607Z"
    },
    {
      "icao": "LEVC",
      "alert": "OK",
      "vis_m": 9999,
      "fzfg": false,
      "metar_trigger": false,
      "taf_trigger": false,
      "metar": "METAR LEVC 252130Z 29021KT CAVOK 15/00 Q1006 NOSIG",
      "taf": ""
    },
    {
      "icao": "LEXJ",
      "alert": "OK",
      "vis_m": 9000,
      "fzfg": false,
      "metar_trigger": false,
      "taf_trigger": false,
      "metar": "METAR LEXJ 252130Z 28020G33KT 9000 FEW020 BKN035 10/06 Q1007",
      "taf": "TAF LEXJ 252000Z 2521/2621 28014KT 9999 SCT020 BKN040 TX16/2621Z TN08/2604Z"
    },
    {
      "icao": "LEZG",
      "alert": "OK",
      "vis_m": 9999,
      "fzfg": false,
      "metar_trigger": false,
      "taf_trigger": false,
      "metar": "METAR LEZG 252130Z 26007KT 9999 FEW080 05/03 Q1005 NOSIG",
      "taf": ""
    },
    {
      "icao": "LEZL",
      "alert": "OK",
      "vis_m": 9999,
      "fzfg": false,
      "metar_trigger": false,
      "taf_trigger": false,
      "metar": "METAR LEZL 252130Z 23009KT 200V260 9999 BKN005 14/14 Q1016 NOSIG",
      "taf": "TAF LEZL 252000Z 2521/2621 24008KT 9999 FEW040 TX19/2615Z TN13/2607Z"
    },
    {
      "icao": "LFBD",
      "alert": "OK",
      "vis_m": 9999,
      "fzfg": false,
      "metar_trigger": false,
      "taf_trigger": false,
      "metar": "METAR LFBD 252130Z AUTO 28005KT 9999 -RA SCT032/// BKN040/// BKN049/// ///TCU 07/06 Q0998 TEMPO 26015G25KT 4500 -SHRA BKN025TCU SCT030CB",
      "taf": "TAF LFBD 251700Z 2518/2624 21010KT 9999 BKN035 TX12/2614Z TN05/2606Z"
    },
    {
      "icao": "LFLL",
      "alert": "OK",
      "vis_m": 9999,
      "fzfg": false,
      "metar_trigger": false,
      "taf_trigger": false,
      "metar": "METAR LFLL 252130Z 20009KT 9999 FEW048 SCT260 05/03 Q0997 NOSIG",
      "taf": "TAF LFLL 251700Z 2518/2624 18010KT 9999 BKN040"
    },
    {
      "icao": "LFLS",
      "alert": "OK",
      "vis_m": 9999,
      "fzfg": false,
      "metar_trigger": false,
      "taf_trigger": false,
      "metar": "METAR LFLS 252130Z AUTO VRB03KT CAVOK 05/03 Q0997",
      "taf": "TAF LFLS 251400Z 2515/2615 24008KT 9999 SCT050 BKN080"
    },
    {
      "icao": "LFMN",
      "alert": "OK",
      "vis_m": 9999,
      "fzfg": false,
      "metar_trigger": false,
      "taf_trigger": false,
      "metar": "METAR LFMN 252130Z 32007KT CAVOK 08/04 Q0995 NOSIG",
      "taf": "TAF LFMN 252000Z 2521/2703 33008KT 9999 FEW040"
    },
    {
      "icao": "LFOB",
      "alert": "OK",
      "vis_m": 9000,
      "fzfg": false,
      "metar_trigger": false,
      "taf_trigger": false,
      "metar": "METAR LFOB 252130Z AUTO 06003KT 9000 OVC006 05/05 Q0995 BECMG 4000 BR",
      "taf": ""
    },
    {
      "icao": "LFPO",
      "alert": "OK",
      "vis_m": 8000,
      "fzfg": false,
      "metar_trigger": false,
      "taf_trigger": false,
      "metar": "METAR LFPO 252130Z AUTO 26005KT 8000 2900 SCT007 SCT017 BKN033 06/06 Q0995 TEMPO 4000 BR BKN008",
      "taf": ""
    },
    {
      "icao": "LFSB",
      "alert": "OK",
      "vis_m": 1400,
      "fzfg": false,
      "metar_trigger": false,
      "taf_trigger": false,
      "metar": "METAR LFSB 252130Z AUTO 30003KT 270V330 1400 R15/1500U R33/1800D BR VV/// 02/02 Q0996 TEMPO 0600 FG",
      "taf": "TAF LFSB 251708Z 2518/2618 34005KT 6000 SCT004"
    },
    {
      "icao": "LGAV",
      "alert": "OK",
      "vis_m": 9999,
      "fzfg": false,
      "metar_trigger": false,
      "taf_trigger": false,
      "metar": "METAR LGAV 252120Z VRB02KT 9999 SCT025 10/09 Q1012 NOSIG",
      "taf": "TAF LGAV 251700Z 2518/2618 17015KT 9999 FEW018 SCT040"
    },
    {
      "icao": "LGTS",
      "alert": "OK",
      "vis_m": 9999,
      "fzfg": false,
      "metar_trigger": false,
      "taf_trigger": false,
      "metar": "METAR LGTS 252120Z 10005KT 9999 FEW012 BKN025 10/09 Q1010 NOSIG",
      "taf": "TAF LGTS 251700Z 2518/2618 14005KT 9999 FEW008 BKN025"
    },
    {
      "icao": "LHBP",
      "alert": "OK",
      "vis_m": 9999,
      "fzfg": false,
      "metar_trigger": false,
      "taf_trigger": false,
      "metar": "METAR LHBP 252130Z 09009KT 9999 BKN049 05/03 Q1000 NOSIG",
      "taf": "TAF LHBP 251715Z 2518/2618 07010KT 9999 -RA FEW020 BKN060"
    },
    {
      "icao": "LHDC",
      "alert": "OK",
      "vis_m": 9999,
      "fzfg": false,
      "metar_trigger": false,
      "taf_trigger": false,
      "metar": "METAR LHDC 252115Z AUTO 08004KT 020V110 CAVOK 05/02 Q1003 NOSIG",
      "taf": "TAF LHDC 251715Z 2518/2603 06008KT 8000 SCT045 BKN080"
    },
    {
      "icao": "LIBD",
      "alert": "OK",
      "vis_m": 9999,
      "fzfg": false,
      "metar_trigger": false,
      "taf_trigger": false,
      "metar": "METAR LIBD 252120Z 21005KT CAVOK 09/06 Q1000",
      "taf": "TAF LIBD 251700Z 2518/2618 19008KT 9999 SCT030"
    },
    {
      "icao": "LIBG",
      "alert": "OK",
      "vis_m": null,
      "fzfg": false,
      "metar_trigger": false,
      "taf_trigger": false,
      "metar": "",
      "taf": "TAF LIBG 251700Z 2518/2603 29007KT 7000 BKN020"
    },
    {
      "icao": "LIBP",
      "alert": "OK",
      "vis_m": 9999,
      "fzfg": false,
      "metar_trigger": false,
      "taf_trigger": false,
      "metar": "METAR LIBP 252120Z AUTO 21004KT 9999 FEW077/// SCT140/// BKN190/// 08/07 Q0998",
      "taf": "TAF LIBP 251700Z 2518/2618 23014KT 9999 FEW040"
    },
    {
      "icao": "LIBR",
      "alert": "OK",
      "vis_m": 9999,
      "fzfg": false,
      "metar_trigger": false,
      "taf_trigger": false,
      "metar": "METAR LIBR 252120Z 17004KT 130V190 9999 FEW010 SCT045 11/10 Q1001",
      "taf": "TAF LIBR 251700Z 2518/2618 27008KT 8000 SCT020"
    },
    {
      "icao": "LICA",
      "alert": "OK",
      "vis_m": 9999,
      "fzfg": false,
      "metar_trigger": false,
      "taf_trigger": false,
      "metar": "METAR LICA 252120Z AUTO 23004KT 9999 FEW051/// BKN140/// 10/08 Q1003",
      "taf": "TAF LICA 251700Z 2518/2618 26013KT 9999 SCT015 BKN030"
    },
    {
      "icao": "LICC",
      "alert": "OK",
      "vis_m": 9999,
      "fzfg": false,
      "metar_trigger": false,
      "taf_trigger": false,
      "metar": "METAR LICC 252120Z 26007KT CAVOK 08/06 Q1004",
      "taf": "TAF LICC 251700Z 2518/2618 26015KT 9999 SCT030"
    },
    {
      "icao": "LICJ",
      "alert": "OK",
      "vis_m": 9999,
      "fzfg": false,
      "metar_trigger": false,
      "taf_trigger": false,
      "metar": "METAR LICJ 252120Z 19013KT 9999 SCT030 SCT050 12/08 Q1004",
      "taf": "TAF LICJ 251700Z 2518/2618 26018KT 9999 BKN025"
    },
    {
      "icao": "LIMC",
      "alert": "OK",
      "vis_m": 9999,
      "fzfg": false,
      "metar_trigger": false,
      "taf_trigger": false,
      "metar": "METAR LIMC 252120Z VRB02KT 9999 SCT010 BKN027 04/04 Q0997 NOSIG",
      "taf": "TAF LIMC 251700Z 2518/2624 VRB05KT 3000 BR BKN006"
    },
    {
      "icao": "LIME",
      "alert": "OK",
      "vis_m": 6000,
      "fzfg": false,
      "metar_trigger": false,
      "taf_trigger": false,
      "metar": "METAR LIME 252120Z 02004KT 6000 SCT040 03/03 Q0997 NOSIG",
      "taf": "TAF LIME 251700Z 2518/2618 VRB05KT 6000 BKN010"
    },
    {
      "icao": "LIMF",
      "alert": "OK",
      "vis_m": 400,
      "fzfg": false,
      "metar_trigger": false,
      "taf_trigger": false,
      "metar": "METAR LIMF 252120Z 36004KT 0400 R36/0400N FG NSC 04/03 Q0997",
      "taf": "TAF LIMF 251700Z 2518/2618 VRB04KT 7000 FEW010 BKN030"
    },
    {
      "icao": "LIMJ",
      "alert": "OK",
      "vis_m": 9999,
      "fzfg": false,
      "metar_trigger": false,
      "taf_trigger": false,
      "metar": "METAR LIMJ 252120Z AUTO 06006KT 030V100 9999 BKN033/// OVC042/// 08/06 Q0996",
      "taf": "TAF LIMJ 251700Z 2518/2618 15008KT 9999 SCT020"
    },
    {
      "icao": "LIPE",
      "alert": "OK",
      "vis_m": 6000,
      "fzfg": false,
      "metar_trigger": false,
      "taf_trigger": false,
      "metar": "METAR LIPE 252120Z VRB01KT 6000 MIFG SCT015 02/02 Q0998",
      "taf": "TAF LIPE 251700Z 2518/2618 VRB05KT 7000 BKN006"
    },
    {
      "icao": "LIPH",
      "alert": "OK",
      "vis_m": 7000,
      "fzfg": false,
      "metar_trigger": false,
      "taf_trigger": false,
      "metar": "METAR LIPH 252120Z 12002KT 7000 BKN007 06/06 Q0998",
      "taf": "TAF LIPH 251700Z 2518/2618 VRB05KT 8000 BKN030"
    },
    {
      "icao": "LIPQ",
      "alert": "OK",
      "vis_m": 5000,
      "fzfg": false,
      "metar_trigger": false,
      "taf_trigger": false,
      "metar": "METAR LIPQ 252120Z AUTO 31003KT 5000 BR OVC017/// 06/06 Q0998",
      "taf": "TAF LIPQ 251700Z 2518/2618 VRB06KT 8000 BKN015"
    },
    {
      "icao": "LIPR",
      "alert": "OK",
      "vis_m": 7000,
      "fzfg": false,
      "metar_trigger": false,
      "taf_trigger": false,
      "metar": "METAR LIPR 252120Z VRB02KT 7000 SCT050 07/06 Q0998",
      "taf": "TAF LIPR 251700Z 2518/2618 VRB06KT 9000 SCT020"
    },
    {
      "icao": "LIPX",
      "alert": "OK",
      "vis_m": 6000,
      "fzfg": false,
      "metar_trigger": false,
      "taf_trigger": false,
      "metar": "METAR LIPX 252120Z 21004KT 180V250 6000 -RA OVC010 06/05 Q0998",
      "taf": "TAF LIPX 251700Z 2518/2618 VRB05KT 6000 BKN005"
    },
    {
      "icao": "LIPY",
      "alert": "OK",
      "vis_m": 9999,
      "fzfg": false,
      "metar_trigger": false,
      "taf_trigger": false,
      "metar": "METAR LIPY 252120Z AUTO 19003KT 150V210 9999 FEW028/// SCT043/// BKN100/// 09/07 Q0998",
      "taf": "TAF LIPY 251700Z 2518/2618 VRB06KT 8000 SCT050"
    },
    {
      "icao": "LIPZ",
      "alert": "OK",
      "vis_m": 7000,
      "fzfg": false,
      "metar_trigger": false,
      "taf_trigger": false,
      "metar": "METAR LIPZ 252120Z 01003KT 320V040 7000 BKN006 06/05 Q0998 NOSIG",
      "taf": "TAF LIPZ 251700Z 2518/2624 VRB05KT 7000 SCT010"
    },
    {
      "icao": "LIRF",
      "alert": "OK",
      "vis_m": 9999,
      "fzfg": false,
      "metar_trigger": false,
      "taf_trigger": false,
      "metar": "METAR LIRF 252120Z VRB01KT 9999 FEW025 09/07 Q0998 NOSIG",
      "taf": "TAF LIRF 251700Z 2518/2624 21014KT 9999 SCT030"
    },
    {
      "icao": "LIRN",
      "alert": "OK",
      "vis_m": 8000,
      "fzfg": false,
      "metar_trigger": false,
      "taf_trigger": false,
      "metar": "METAR LIRN 252120Z 05003KT 030V090 8000 -RA SCT035 09/07 Q1001 RERA NOSIG",
      "taf": "TAF LIRN 251700Z 2518/2618 19012KT 9999 BKN020"
    },
    {
      "icao": "LIRP",
      "alert": "OK",
      "vis_m": 9999,
      "fzfg": false,
      "metar_trigger": false,
      "taf_trigger": false,
      "metar": "METAR LIRP 252115Z 12004KT 9999 FEW040 SCT070 06/06 Q0998 NOSIG",
      "taf": "TAF LIRP 251700Z 2518/2618 10005KT 9999 SCT030"
    },
    {
      "icao": "LIRZ",
      "alert": "OK",
      "vis_m": 9999,
      "fzfg": false,
      "metar_trigger": false,
      "taf_trigger": false,
      "metar": "METAR LIRZ 252120Z AUTO 14004KT 9999 BKN031/// BKN058/// 06/05 Q0998",
      "taf": "TAF LIRZ 251700Z 2518/2618 19012KT 9999 BKN030"
    },
    {
      "icao": "LJLJ",
      "alert": "OK",
      "vis_m": 400,
      "fzfg": false,
      "metar_trigger": false,
      "taf_trigger": false,
      "metar": "METAR LJLJ 252130Z 01002KT 0400 R30/0400N FG VV001 01/01 Q0997 NOSIG",
      "taf": "TAF LJLJ 251700Z 2518/2618 30003KT 6000 SCT007 BKN015"
    },
    {
      "icao": "LKMT",
      "alert": "OK",
      "vis_m": 4000,
      "fzfg": false,
      "metar_trigger": false,
      "taf_trigger": false,
      "metar": "METAR LKMT 252130Z VRB02KT 4000 BR BKN038 01/00 Q0998 NOSIG",
      "taf": "TAF LKMT 251700Z 2518/2618 02006KT 3500 BR SCT006 BKN027"
    },
    {
      "icao": "LKPR",
      "alert": "OK",
      "vis_m": 1400,
      "fzfg": false,
      "metar_trigger": false,
      "taf_trigger": false,
      "metar": "METAR LKPR 252100Z 09009KT 1400 R06/P2000N R30/1700U -RA BR VV002 02/02 Q0993 TEMPO 3000 BR BKN005",
      "taf": "TAF LKPR 252000Z 2521/2703 08008KT 4000 -RA BR OVC008"
    },
    {
      "icao": "LLBG",
      "alert": "OK",
      "vis_m": 9999,
      "fzfg": false,
      "metar_trigger": false,
      "taf_trigger": false,
      "metar": "METAR LLBG 252150Z VRB01KT CAVOK 12/06 Q1019 NOSIG",
      "taf": "TAF LLBG 251705Z 2518/2618 VRB03KT CAVOK"
    },
    {
      "icao": "LMML",
      "alert": "OK",
      "vis_m": 9999,
      "fzfg": false,
      "metar_trigger": false,
      "taf_trigger": false,
      "metar": "METAR LMML 252145Z 28018G30KT 9999 FEW028CB 12/07 Q1007 TEMPO 7000 TSRA",
      "taf": ""
    },
    {
      "icao": "LOWW",
      "alert": "OK",
      "vis_m": 4800,
      "fzfg": false,
      "metar_trigger": false,
      "taf_trigger": false,
      "metar": "METAR LOWW 252120Z 17007KT 130V210 4800 -RADZ FEW003 BKN004 04/03 Q0996 TEMPO 5000 BR BKN005",
      "taf": "TAF LOWW 252015Z 2521/2703 14009KT 4000 BR FEW003 BKN004 TX04/2614Z TN00/2607Z"
    },
    {
      "icao": "LPFR",
      "alert": "OK",
      "vis_m": 7000,
      "fzfg": false,
      "metar_trigger": false,
      "taf_trigger": false,
      "metar": "METAR LPFR 252130Z 25017KT 7000 -DZ SCT004 SCT006 BKN012 15/15 Q1016",
      "taf": "TAF LPFR 251700Z 2518/2618 24012KT 9999 SCT008 BKN015"
    },
    {
      "icao": "LPMA",
      "alert": "OK",
      "vis_m": 9999,
      "fzfg": false,
      "metar_trigger": false,
      "taf_trigger": false,
      "metar": "METAR LPMA 252130Z VRB02KT 9999 FEW016 15/10 Q1025",
      "taf": "TAF LPMA 251700Z 2518/2618 VRB05KT 9999 SCT015"
    },
    {
      "icao": "LPPR",
      "alert": "OK",
      "vis_m": 5000,
      "fzfg": false,
      "metar_trigger": false,
      "taf_trigger": false,
      "metar": "METAR LPPR 252130Z VRB02KT 5000 BR SCT023 BKN030 10/09 Q1013",
      "taf": "TAF LPPR 251700Z 2518/2618 26008KT 9999 FEW020 BKN030"
    },
    {
      "icao": "LPPS",
      "alert": "OK",
      "vis_m": 9999,
      "fzfg": false,
      "metar_trigger": false,
      "taf_trigger": false,
      "metar": "METAR LPPS 252130Z 27010KT 9999 FEW015 SCT015 17/12 Q1025",
      "taf": "TAF LPPS 251700Z 2518/2624 27013KT 9999 FEW015 SCT030"
    },
    {
      "icao": "LPPT",
      "alert": "OK",
      "vis_m": 9999,
      "fzfg": false,
      "metar_trigger": false,
      "taf_trigger": false,
      "metar": "METAR LPPT 252130Z 22003KT 9999 FEW008 SCT012 11/11 Q1014",
      "taf": "TAF LPPT 251700Z 2518/2624 25008KT 9999 SCT008 BKN015"
    },
    {
      "icao": "LQBK",
      "alert": "OK",
      "vis_m": 8000,
      "fzfg": false,
      "metar_trigger": false,
      "taf_trigger": false,
      "metar": "METAR LQBK 252130Z VRB03KT 8000 3500N FEW002 06/05 Q0998 NOSIG",
      "taf": ""
    },
    {
      "icao": "LQSA",
      "alert": "OK",
      "vis_m": 9999,
      "fzfg": false,
      "metar_trigger": false,
      "taf_trigger": false,
      "metar": "METAR LQSA 252130Z 13009KT 9999 FEW030 BKN045 05/03 Q1000 NOSIG",
      "taf": ""
    },
    {
      "icao": "LQTZ",
      "alert": "OK",
      "vis_m": 9999,
      "fzfg": false,
      "metar_trigger": false,
      "taf_trigger": false,
      "metar": "METAR LQTZ 252130Z 10006KT 020V170 9999 -RA BKN045 OVC055 08/06 Q0999",
      "taf": "TAF LQTZ 251700Z 2518/2618 12005KT 9999 BKN050 TX10/2518Z TN03/2605Z"
    },
    {
      "icao": "LRBC",
      "alert": "OK",
      "vis_m": 9000,
      "fzfg": false,
      "metar_trigger": false,
      "taf_trigger": false,
      "metar": "METAR LRBC 252130Z 16005KT 9000 OVC003 M01/M01 Q1013",
      "taf": "TAF LRBC 252000Z 2521/2606 18007KT 1500 BR OVC002"
    },
    {
      "icao": "LRBS",
      "alert": "OK",
      "vis_m": 300,
      "fzfg": false,
      "metar_trigger": false,
      "taf_trigger": false,
      "metar": "METAR LRBS 252130Z 03005KT 360V060 0300 R07/0900N FG VV001 00/00 Q1012 NOSIG",
      "taf": "TAF LRBS 251700Z 2518/2618 06010KT 0200 FG VV001"
    },
    {
      "icao": "LRBV",
      "alert": "OK",
      "vis_m": 9999,
      "fzfg": false,
      "metar_trigger": false,
      "taf_trigger": false,
      "metar": "METAR LRBV 252130Z AUTO 19005KT 130V250 9999 OVC100/// 07/02 Q1008",
      "taf": "TAF LRBV 252000Z 2521/2606 VRB04KT CAVOK"
    },
    {
      "icao": "LRCL",
      "alert": "OK",
      "vis_m": 9999,
      "fzfg": false,
      "metar_trigger": false,
      "taf_trigger": false,
      "metar": "METAR LRCL 252130Z 07008KT CAVOK 05/01 Q1006",
      "taf": "TAF LRCL 252000Z 2521/2606 07010KT CAVOK"
    },
    {
      "icao": "LRCV",
      "alert": "OK",
      "vis_m": 350,
      "fzfg": true,
      "metar_trigger": false,
      "taf_trigger": false,
      "metar": "METAR LRCV 252130Z 15008KT 0350 R26/0500N FZFG VV002 M00/M00 Q1010",
      "taf": "TAF LRCV 252000Z 2521/2606 12007KT 0600 FG VV002"
    },
    {
      "icao": "LRIA",
      "alert": "OK",
      "vis_m": 300,
      "fzfg": false,
      "metar_trigger": false,
      "taf_trigger": false,
      "metar": "METAR LRIA 252130Z 11008KT 0300 R14/0600N -DZ FG VV001 01/00 Q1013",
      "taf": "TAF LRIA 252000Z 2521/2606 11010KT 0200 FG OVC001"
    },
    {
      "icao": "LROP",
      "alert": "OK",
      "vis_m": 300,
      "fzfg": false,
      "metar_trigger": false,
      "taf_trigger": false,
      "metar": "METAR LROP 252130Z 05009KT 0300 R08R/0750N R08L/0750N FG VV002 00/00 Q1012 NOSIG",
      "taf": "TAF LROP 251700Z 2518/2618 07010KT 0200 FG VV001"
    },
    {
      "icao": "LRSB",
      "alert": "OK",
      "vis_m": 9999,
      "fzfg": false,
      "metar_trigger": false,
      "taf_trigger": false,
      "metar": "METAR LRSB 252130Z 07008KT 040V120 CAVOK 10/02 Q1005",
      "taf": "TAF LRSB 251700Z 2518/2618 13012KT 9999 SCT070"
    },
    {
      "icao": "LRSM",
      "alert": "OK",
      "vis_m": 9999,
      "fzfg": false,
      "metar_trigger": false,
      "taf_trigger": false,
      "metar": "METAR LRSM 252130Z AUTO 13008KT 9999 SCT100/// BKN130/// 08/01 Q1003",
      "taf": "TAF LRSM 251400Z 2515/2524 12006KT 9999 BKN045"
    },
    {
      "icao": "LRSV",
      "alert": "OK",
      "vis_m": 300,
      "fzfg": true,
      "metar_trigger": false,
      "taf_trigger": false,
      "metar": "METAR LRSV 252130Z 15012KT 0300 R34/0650N FZFG VV002 M01/M01 Q1010",
      "taf": "TAF LRSV 252000Z 2521/2606 14012KT 0150 FZFG VV001"
    },
    {
      "icao": "LRTM",
      "alert": "OK",
      "vis_m": 6000,
      "fzfg": false,
      "metar_trigger": false,
      "taf_trigger": false,
      "metar": "METAR LRTM 252130Z AUTO 08008KT 6000 NCD 01/M01 Q1006",
      "taf": "TAF LRTM 251400Z 2515/2524 VRB04KT 5000 BR NSC"
    },
    {
      "icao": "LRTR",
      "alert": "OK",
      "vis_m": 9999,
      "fzfg": false,
      "metar_trigger": false,
      "taf_trigger": false,
      "metar": "METAR LRTR 252130Z 11010KT CAVOK 07/03 Q1001",
      "taf": "TAF LRTR 251700Z 2518/2618 10010KT 9999 BKN045"
    },
    {
      "icao": "LTAC",
      "alert": "OK",
      "vis_m": 6000,
      "fzfg": false,
      "metar_trigger": false,
      "taf_trigger": false,
      "metar": "METAR LTAC 252120Z VRB02KT 6000 NSC 04/03 Q1019 BECMG 4000 BR",
      "taf": "TAF LTAC 251640Z 2518/2618 VRB02KT 9999 SCT040"
    },
    {
      "icao": "LTFM",
      "alert": "OK",
      "vis_m": 9999,
      "fzfg": false,
      "metar_trigger": false,
      "taf_trigger": false,
      "metar": "METAR LTFM 252120Z 17006KT CAVOK 11/08 Q1014 NOSIG",
      "taf": "TAF LTFM 251640Z 2518/2624 18010KT CAVOK"
    },
    {
      "icao": "LUKK",
      "alert": "OK",
      "vis_m": 650,
      "fzfg": true,
      "metar_trigger": false,
      "taf_trigger": false,
      "metar": "METAR LUKK 252130Z 10008KT 0650 0550SW R08/0650N -FZDZ FZFG VV001 M00/M00 Q1015 TEMPO 0400 -FZDZ FZFG",
      "taf": "TAF LUKK 251706Z 2518/2618 11009KT 1500 FZDZ BR OVC002"
    },
    {
      "icao": "LWOH",
      "alert": "OK",
      "vis_m": null,
      "fzfg": false,
      "metar_trigger": false,
      "taf_trigger": false,
      "metar": "",
      "taf": "TAF LWOH 252010Z 2521/2621 16010KT 9999 FEW040 SCT090"
    },
    {
      "icao": "LWSK",
      "alert": "OK",
      "vis_m": 9999,
      "fzfg": false,
      "metar_trigger": false,
      "taf_trigger": false,
      "metar": "METAR LWSK 252150Z 13017KT 9999 SCT030 10/08 Q1007 NOSIG",
      "taf": "TAF LWSK 252010Z 2521/2621 15012KT 9999 SCT020"
    },
    {
      "icao": "LYBE",
      "alert": "OK",
      "vis_m": 9999,
      "fzfg": false,
      "metar_trigger": false,
      "taf_trigger": false,
      "metar": "METAR LYBE 252130Z 14020KT CAVOK 09/03 Q1001 NOSIG",
      "taf": "TAF LYBE 251700Z 2518/2618 12014KT CAVOK TX10/2613Z TN05/2606Z"
    },
    {
      "icao": "LYNI",
      "alert": "OK",
      "vis_m": 9999,
      "fzfg": false,
      "metar_trigger": false,
      "taf_trigger": false,
      "metar": "METAR LYNI 252130Z 13006KT 080V180 CAVOK 10/04 Q1004 NOSIG",
      "taf": "TAF LYNI 251700Z 2518/2618 10008KT 9999 SCT040 SCT090 TX10/2613Z TN06/2606Z"
    },
    {
      "icao": "LYPG",
      "alert": "OK",
      "vis_m": 7000,
      "fzfg": false,
      "metar_trigger": false,
      "taf_trigger": false,
      "metar": "METAR LYPG 252130Z VRB02KT 7000 SHRA SCT025TCU BKN030 10/09 Q1003 TEMPO 15015KT 5000 TSRA FEW017 SCT025CB BKN033",
      "taf": ""
    },
    {
      "icao": "LZIB",
      "alert": "OK",
      "vis_m": 5000,
      "fzfg": false,
      "metar_trigger": false,
      "taf_trigger": false,
      "metar": "METAR LZIB 252130Z 10012KT 5000 -RA BR FEW006 SCT015 BKN020 05/04 Q0997 TEMPO BKN004",
      "taf": ""
    },
    {
      "icao": "LZKZ",
      "alert": "OK",
      "vis_m": 9999,
      "fzfg": false,
      "metar_trigger": false,
      "taf_trigger": false,
      "metar": "METAR LZKZ 252130Z 35008KT CAVOK 05/02 Q1003 NOSIG",
      "taf": ""
    },
    {
      "icao": "LZTT",
      "alert": "OK",
      "vis_m": 9000,
      "fzfg": false,
      "metar_trigger": false,
      "taf_trigger": false,
      "metar": "METAR LZTT 252130Z VRB03KT 9000 FEW004 BKN036 01/01 Q1002",
      "taf": "TAF LZTT 251715Z 2518/2618 18004KT 9999 FEW005 OVC020"
    },
    {
      "icao": "OEJN",
      "alert": "OK",
      "vis_m": 9999,
      "fzfg": false,
      "metar_trigger": false,
      "taf_trigger": false,
      "metar": "METAR OEJN 252100Z 36003KT CAVOK 23/13 Q1014 NOSIG",
      "taf": "TAF OEJN 251700Z 2518/2624 VRB03KT CAVOK"
    },
    {
      "icao": "OEMA",
      "alert": "OK",
      "vis_m": 9999,
      "fzfg": false,
      "metar_trigger": false,
      "taf_trigger": false,
      "metar": "METAR OEMA 252100Z 07012KT CAVOK 17/M06 Q1022 NOSIG",
      "taf": "TAF OEMA 251700Z 2518/2624 07008KT 9999 FEW045"
    },
    {
      "icao": "OJAI",
      "alert": "OK",
      "vis_m": null,
      "fzfg": false,
      "metar_trigger": false,
      "taf_trigger": false,
      "metar": "",
      "taf": "TAF OJAI 251700Z 2518/2624 13010KT 5000 HZ NSC"
    },
    {
      "icao": "OMAA",
      "alert": "OK",
      "vis_m": 9999,
      "fzfg": false,
      "metar_trigger": false,
      "taf_trigger": false,
      "metar": "METAR OMAA 252130Z 28017KT 9999 SCT025 19/14 Q1014 NOSIG",
      "taf": "TAF OMAA 251700Z 2518/2700 20008KT 8000 FEW035"
    },
    {
      "icao": "OMDB",
      "alert": "OK",
      "vis_m": 9999,
      "fzfg": false,
      "metar_trigger": false,
      "taf_trigger": false,
      "metar": "METAR OMDB 252130Z 26011KT CAVOK 21/15 Q1013 NOSIG",
      "taf": "TAF OMDB 251700Z 2518/2700 VRB02KT 8000 FEW030"
    },
    {
      "icao": "UAAA",
      "alert": "OK",
      "vis_m": 1000,
      "fzfg": false,
      "metar_trigger": false,
      "taf_trigger": false,
      "metar": "METAR UAAA 252130Z 15002MPS 1000 R23L/P2000U BR FU SCT100 BKN200 M07/M09 Q1023 NOSIG",
      "taf": "TAF UAAA 251701Z 2518/2618 17003MPS 1500 BR FU SCT030 BKN100 TX01/2608Z TNM07/2602Z"
    },
    {
      "icao": "UBBB",
      "alert": "OK",
      "vis_m": 9999,
      "fzfg": false,
      "metar_trigger": false,
      "taf_trigger": false,
      "metar": "METAR UBBB 252130Z 29006KT CAVOK 04/03 Q1022 NOSIG",
      "taf": "TAF UBBB 251704Z 2518/2618 31008KT 9999 SCT012 BKN030 TX08/2610Z TN02/2601Z"
    },
    {
      "icao": "UDSG",
      "alert": "OK",
      "vis_m": 2700,
      "fzfg": true,
      "metar_trigger": false,
      "taf_trigger": false,
      "metar": "METAR UDSG 252130Z 06004KT 2700 BR SCT026 M15/M16 Q1023 NOSIG",
      "taf": "TAF UDSG 251700Z 2518/2618 VRB06KT 0800 FZFG OVC005"
    },
    {
      "icao": "UDYZ",
      "alert": "OK",
      "vis_m": 2000,
      "fzfg": false,
      "metar_trigger": false,
      "taf_trigger": false,
      "metar": "METAR UDYZ 252130Z 13003KT 2000 R08/P2000N BR BKN005 M04/M05 Q1026 NOSIG",
      "taf": "TAF UDYZ 251700Z 2518/2618 VRB04KT 2000 BR BKN010"
    },
    {
      "icao": "UGKO",
      "alert": "OK",
      "vis_m": 4800,
      "fzfg": false,
      "metar_trigger": false,
      "taf_trigger": false,
      "metar": "METAR UGKO 252130Z 10008KT 4800 SHRA SCT022CB OVC052 06/05 Q1021 NOSIG",
      "taf": "TAF UGKO 251700Z 2518/2618 08007KT 9999 BKN050 TX15/2611Z TN03/2604Z"
    }
  ]
}