{
  "ts_utc": "2026-01-24T15:20:14Z",
  "threshold_m": 150,
  "source": "stations_override.txt (ICAO list) + aviationweather.gov (METAR/TAF raw)",
  "station_count": 159,
  "stations": [
    {
      "icao": "BIKF",
      "alert": "OK",
      "vis_m": 9999,
      "fzfg": false,
      "metar_trigger": false,
      "taf_trigger": false,
      "metar": "METAR BIKF 241500Z 09015KT CAVOK 04/M01 Q1002",
      "taf": "TAF BIKF 241347Z 2415/2515 07015KT 9999 FEW025 TX04/2515Z TN02/2506Z"
    },
    {
      "icao": "BKPR",
      "alert": "OK",
      "vis_m": 9999,
      "fzfg": false,
      "metar_trigger": false,
      "taf_trigger": false,
      "metar": "METAR BKPR 241500Z 18012KT 9999 FEW058 06/03 Q1010 NOSIG",
      "taf": "TAF BKPR 241130Z 2412/2512 18012KT 9999 SCT040"
    },
    {
      "icao": "EBCI",
      "alert": "OK",
      "vis_m": 9999,
      "fzfg": false,
      "metar_trigger": false,
      "taf_trigger": false,
      "metar": "METAR EBCI 241450Z 11006KT CAVOK 07/02 Q0999 NOSIG",
      "taf": "TAF EBCI 241110Z 2412/2518 12006KT 9999 FEW020"
    },
    {
      "icao": "EDDB",
      "alert": "OK",
      "vis_m": 6000,
      "fzfg": false,
      "metar_trigger": false,
      "taf_trigger": false,
      "metar": "METAR EDDB 241450Z AUTO 08007KT 6000 OVC012 M01/M04 Q1008 NOSIG",
      "taf": "TAF EDDB 241100Z 2412/2512 08009KT 4000 BR OVC009"
    },
    {
      "icao": "EDDH",
      "alert": "OK",
      "vis_m": 9000,
      "fzfg": false,
      "metar_trigger": false,
      "taf_trigger": false,
      "metar": "METAR EDDH 241450Z AUTO 10009KT 9000 OVC015 M02/M05 Q1007 TEMPO BKN014",
      "taf": "TAF EDDH 241100Z 2412/2518 10011KT 9000 BKN013 OVC035"
    },
    {
      "icao": "EDDK",
      "alert": "OK",
      "vis_m": 9999,
      "fzfg": false,
      "metar_trigger": false,
      "taf_trigger": false,
      "metar": "METAR EDDK 241450Z AUTO 15007KT CAVOK 04/M02 Q1002 NOSIG",
      "taf": "TAF EDDK 241100Z 2412/2518 12006KT 9999 BKN040"
    },
    {
      "icao": "EDDN",
      "alert": "OK",
      "vis_m": 9999,
      "fzfg": false,
      "metar_trigger": false,
      "taf_trigger": false,
      "metar": "METAR EDDN 241450Z AUTO 10007KT 9999 BKN017 M02/M07 Q1003 NOSIG",
      "taf": "TAF EDDN 241100Z 2412/2512 12009KT 9000 SCT015"
    },
    {
      "icao": "EDDS",
      "alert": "OK",
      "vis_m": 9999,
      "fzfg": false,
      "metar_trigger": false,
      "taf_trigger": false,
      "metar": "METAR EDDS 241450Z AUTO 02005KT 340V050 CAVOK 03/M01 Q0999 NOSIG",
      "taf": "TAF EDDS 241100Z 2412/2512 VRB03KT 8000 FEW013"
    },
    {
      "icao": "EDFH",
      "alert": "OK",
      "vis_m": 9999,
      "fzfg": false,
      "metar_trigger": false,
      "taf_trigger": false,
      "metar": "METAR EDFH 241450Z 11004KT CAVOK 01/M03 Q1000",
      "taf": "TAF EDFH 241100Z 2412/2512 14011KT 9000 SCT035"
    },
    {
      "icao": "EDJA",
      "alert": "OK",
      "vis_m": 9999,
      "fzfg": false,
      "metar_trigger": false,
      "taf_trigger": false,
      "metar": "METAR EDJA 241450Z COR 05010KT CAVOK 02/M00 Q0999",
      "taf": "TAF EDJA 241400Z 2415/2424 04006KT 8000 BKN010"
    },
    {
      "icao": "EDLW",
      "alert": "OK",
      "vis_m": 6000,
      "fzfg": false,
      "metar_trigger": false,
      "taf_trigger": false,
      "metar": "METAR EDLW 241450Z 02006KT 6000 FEW048 02/M01 Q1002",
      "taf": "TAF EDLW 241100Z 2412/2512 08005KT 9999 BKN030"
    },
    {
      "icao": "EDNY",
      "alert": "OK",
      "vis_m": 9999,
      "fzfg": false,
      "metar_trigger": false,
      "taf_trigger": false,
      "metar": "METAR EDNY 241450Z 02007KT 9999 FEW013 04/01 Q0999",
      "taf": "TAF EDNY 241400Z 2415/2424 03005KT 8000 BKN012"
    },
    {
      "icao": "EDSB",
      "alert": "OK",
      "vis_m": 9000,
      "fzfg": false,
      "metar_trigger": false,
      "taf_trigger": false,
      "metar": "METAR EDSB 241450Z 01009KT 9000 NSC 03/M04 Q1001",
      "taf": "TAF EDSB 241100Z 2412/2512 03006KT 6000 SCT035"
    },
    {
      "icao": "EETN",
      "alert": "OK",
      "vis_m": 9999,
      "fzfg": false,
      "metar_trigger": false,
      "taf_trigger": false,
      "metar": "METAR EETN 241450Z 07002KT CAVOK M13/M15 Q1025 TEMPO BKN015",
      "taf": "TAF EETN 241130Z 2412/2512 15007KT 9999 OVC013"
    },
    {
      "icao": "EFTU",
      "alert": "OK",
      "vis_m": 9999,
      "fzfg": false,
      "metar_trigger": false,
      "taf_trigger": false,
      "metar": "METAR EFTU 241450Z AUTO 10005KT 9999 OVC028 M11/M12 Q1025",
      "taf": "TAF EFTU 241431Z 2415/2515 10005KT 9999 OVC030"
    },
    {
      "icao": "EGBB",
      "alert": "OK",
      "vis_m": 9999,
      "fzfg": false,
      "metar_trigger": false,
      "taf_trigger": false,
      "metar": "METAR EGBB 241450Z 12015KT 9999 FEW028 08/03 Q0991",
      "taf": "TAF EGBB 241101Z 2412/2512 11012KT 9999 SCT020"
    },
    {
      "icao": "EGGP",
      "alert": "OK",
      "vis_m": 9999,
      "fzfg": false,
      "metar_trigger": false,
      "taf_trigger": false,
      "metar": "METAR EGGP 241450Z 11015KT 9999 SCT031 BKN040 08/03 Q0990",
      "taf": "TAF EGGP 241102Z 2412/2512 11020G32KT 9999 BKN020"
    },
    {
      "icao": "EGGW",
      "alert": "OK",
      "vis_m": 9999,
      "fzfg": false,
      "metar_trigger": false,
      "taf_trigger": false,
      "metar": "METAR EGGW 241450Z AUTO 13011KT 9999 NCD 08/03 Q0993",
      "taf": "TAF EGGW 241055Z 2412/2512 13012KT 9999 FEW025"
    },
    {
      "icao": "EGKK",
      "alert": "OK",
      "vis_m": 9999,
      "fzfg": false,
      "metar_trigger": false,
      "taf_trigger": false,
      "metar": "METAR EGKK 241450Z 13012KT 9999 FEW026 09/05 Q0993",
      "taf": "TAF EGKK 241055Z 2412/2518 14012KT 9999 FEW020"
    },
    {
      "icao": "EGNM",
      "alert": "OK",
      "vis_m": 9999,
      "fzfg": false,
      "metar_trigger": false,
      "taf_trigger": false,
      "metar": "METAR EGNM 241450Z 09012KT 9999 FEW013 BKN016 06/04 Q0993",
      "taf": "TAF EGNM 241100Z 2412/2512 10012KT 9999 BKN006"
    },
    {
      "icao": "EGPD",
      "alert": "OK",
      "vis_m": 6000,
      "fzfg": false,
      "metar_trigger": false,
      "taf_trigger": false,
      "metar": "METAR EGPD 241450Z 12015G25KT 6000 -RA BKN010 05/03 Q1001 TEMPO 4000 RA BKN008",
      "taf": "TAF EGPD 241057Z 2412/2512 11014KT 9999 BKN015"
    },
    {
      "icao": "EGPF",
      "alert": "OK",
      "vis_m": 9999,
      "fzfg": false,
      "metar_trigger": false,
      "taf_trigger": false,
      "metar": "METAR EGPF 241450Z AUTO 06014KT 9999 BKN028 BKN033 07/04 Q0995",
      "taf": "TAF EGPF 241103Z 2412/2512 09012KT 9999 SCT020 BKN040"
    },
    {
      "icao": "EHBK",
      "alert": "OK",
      "vis_m": 9999,
      "fzfg": false,
      "metar_trigger": false,
      "taf_trigger": false,
      "metar": "METAR EHBK 241455Z AUTO VRB01KT 9999 NSC 09/04 Q1000 NOSIG",
      "taf": "TAF EHBK 241110Z 2412/2518 12005KT CAVOK"
    },
    {
      "icao": "EHEH",
      "alert": "OK",
      "vis_m": 9999,
      "fzfg": false,
      "metar_trigger": false,
      "taf_trigger": false,
      "metar": "METAR EHEH 241455Z AUTO 11003KT 070V200 9999 OVC190 08/02 Q1001 BLU NOSIG RMK TREND REMOTE BY EHWX",
      "taf": "TAF EHEH 241126Z 2412/2518 13005KT CAVOK"
    },
    {
      "icao": "EKBI",
      "alert": "OK",
      "vis_m": 9000,
      "fzfg": false,
      "metar_trigger": false,
      "taf_trigger": false,
      "metar": "METAR EKBI 241450Z AUTO 10014KT 9000 OVC010/// 00/M02 Q1009",
      "taf": "TAF EKBI 241427Z 2415/2515 10010KT 9999 OVC017"
    },
    {
      "icao": "EKCH",
      "alert": "OK",
      "vis_m": 9999,
      "fzfg": false,
      "metar_trigger": false,
      "taf_trigger": false,
      "metar": "METAR EKCH 241450Z AUTO 09015KT 9999 OVC017/// 01/M03 Q1012 NOSIG",
      "taf": "TAF EKCH 241427Z 2415/2515 09012KT 9999 BKN025"
    },
    {
      "icao": "ENAL",
      "alert": "OK",
      "vis_m": 9999,
      "fzfg": false,
      "metar_trigger": false,
      "taf_trigger": false,
      "metar": "METAR ENAL 241450Z 14012KT 9999 SCT050 M00/M10 Q1014",
      "taf": "TAF ENAL 241400Z 2415/2424 14009KT 9999 FEW040"
    },
    {
      "icao": "ENBR",
      "alert": "OK",
      "vis_m": 9999,
      "fzfg": false,
      "metar_trigger": false,
      "taf_trigger": false,
      "metar": "METAR ENBR 241450Z 11001KT 9999 SCT046 M00/M11 Q1014 NOSIG RMK WIND 1200FT 12005KT",
      "taf": "TAF ENBR 241100Z 2412/2512 08003KT 9999 FEW040"
    },
    {
      "icao": "ENGM",
      "alert": "OK",
      "vis_m": 9999,
      "fzfg": false,
      "metar_trigger": false,
      "taf_trigger": false,
      "metar": "METAR ENGM 241450Z 01004KT 9999 -SN FEW011 BKN014 M06/M08 Q1018 NOSIG",
      "taf": ""
    },
    {
      "icao": "ENHD",
      "alert": "OK",
      "vis_m": 9999,
      "fzfg": false,
      "metar_trigger": false,
      "taf_trigger": false,
      "metar": "METAR ENHD 241450Z /////KT CAVOK M00/M11 Q1014 RMK WIND RWY 31 09010KT",
      "taf": "TAF ENHD 241400Z 2415/2423 10008KT CAVOK"
    },
    {
      "icao": "ENTC",
      "alert": "OK",
      "vis_m": 8000,
      "fzfg": false,
      "metar_trigger": false,
      "taf_trigger": false,
      "metar": "METAR ENTC 241450Z 22011KT 8000 -SHSN VV018 M04/M06 Q1017 TEMPO 4000 -SN BKN012 RMK WIND 2600FT 30019KT",
      "taf": ""
    },
    {
      "icao": "ENTO",
      "alert": "OK",
      "vis_m": 9999,
      "fzfg": false,
      "metar_trigger": false,
      "taf_trigger": false,
      "metar": "METAR ENTO 241450Z 01008KT 9999 -SN BKN013 M04/M05 Q1017 NOSIG",
      "taf": "TAF ENTO 241100Z 2412/2512 04010KT 9999 -SN OVC020"
    },
    {
      "icao": "ENVA",
      "alert": "OK",
      "vis_m": 9999,
      "fzfg": false,
      "metar_trigger": false,
      "taf_trigger": false,
      "metar": "METAR ENVA 241450Z 11007KT 9999 BKN051 M04/M12 Q1017 RMK WIND 670FT 13010KT",
      "taf": "TAF ENVA 241100Z 2412/2512 09008KT CAVOK"
    },
    {
      "icao": "ENZV",
      "alert": "OK",
      "vis_m": 9999,
      "fzfg": false,
      "metar_trigger": false,
      "taf_trigger": false,
      "metar": "METAR ENZV 241450Z 08011KT CAVOK M00/M11 Q1014 NOSIG",
      "taf": "TAF ENZV 241100Z 2412/2512 10012KT CAVOK"
    },
    {
      "icao": "EPGD",
      "alert": "OK",
      "vis_m": 9999,
      "fzfg": false,
      "metar_trigger": false,
      "taf_trigger": false,
      "metar": "METAR EPGD 241500Z 09008KT 9999 FEW010 BKN045 M06/M08 Q1013",
      "taf": "TAF EPGD 241130Z 2412/2512 09010KT 9999 BKN035"
    },
    {
      "icao": "EPKK",
      "alert": "OK",
      "vis_m": 2700,
      "fzfg": false,
      "metar_trigger": false,
      "taf_trigger": false,
      "metar": "METAR EPKK 241500Z 06007KT 2700 BR OVC005 M02/M03 Q1007",
      "taf": ""
    },
    {
      "icao": "EPKT",
      "alert": "OK",
      "vis_m": 5000,
      "fzfg": false,
      "metar_trigger": false,
      "taf_trigger": false,
      "metar": "METAR EPKT 241500Z 06006KT 5000 BR OVC007 M01/M03 Q1007",
      "taf": "TAF EPKT 241130Z 2412/2512 09006KT 6000 BKN006"
    },
    {
      "icao": "EPLB",
      "alert": "OK",
      "vis_m": 4500,
      "fzfg": false,
      "metar_trigger": false,
      "taf_trigger": false,
      "metar": "METAR EPLB 241500Z 07009KT 4500 -SN BR FEW010 OVC023 M05/M05 Q1011",
      "taf": ""
    },
    {
      "icao": "EPMO",
      "alert": "OK",
      "vis_m": 8000,
      "fzfg": false,
      "metar_trigger": false,
      "taf_trigger": false,
      "metar": "METAR EPMO 241500Z 07011KT 8000 BKN015 M05/M08 Q1012",
      "taf": "TAF EPMO 241130Z 2412/2512 08013KT 9000 BKN016 BKN047"
    },
    {
      "icao": "EPPO",
      "alert": "OK",
      "vis_m": 7000,
      "fzfg": false,
      "metar_trigger": false,
      "taf_trigger": false,
      "metar": "METAR EPPO 241500Z 08008KT 7000 OVC012 M05/M08 Q1010",
      "taf": "TAF EPPO 241130Z 2412/2512 08009KT 9000 OVC012"
    },
    {
      "icao": "EPRA",
      "alert": "OK",
      "vis_m": 9000,
      "fzfg": false,
      "metar_trigger": false,
      "taf_trigger": false,
      "metar": "METAR EPRA 241500Z 07010KT 9000 -SN OVC014 M05/M08 Q1010",
      "taf": "TAF EPRA 241430Z 2415/2424 08010KT 8000 OVC016"
    },
    {
      "icao": "EPRZ",
      "alert": "OK",
      "vis_m": 6000,
      "fzfg": false,
      "metar_trigger": false,
      "taf_trigger": false,
      "metar": "METAR EPRZ 241500Z 08010KT 6000 OVC005 M01/M01 Q1008",
      "taf": "TAF EPRZ 241130Z 2412/2512 09008KT 6000 OVC006"
    },
    {
      "icao": "EPSC",
      "alert": "OK",
      "vis_m": 9999,
      "fzfg": false,
      "metar_trigger": false,
      "taf_trigger": false,
      "metar": "METAR EPSC 241500Z 08007KT 9999 OVC012 M03/M06 Q1010",
      "taf": "TAF EPSC 241130Z 2412/2512 08010KT 8000 OVC011"
    },
    {
      "icao": "EPSY",
      "alert": "OK",
      "vis_m": 9999,
      "fzfg": false,
      "metar_trigger": false,
      "taf_trigger": false,
      "metar": "METAR EPSY 241500Z 08007KT 040V120 9999 FEW014 BKN039 M07/M10 Q1014",
      "taf": "TAF EPSY 241430Z 2415/2424 09008KT 8000 OVC040"
    },
    {
      "icao": "EPWA",
      "alert": "OK",
      "vis_m": 8000,
      "fzfg": false,
      "metar_trigger": false,
      "taf_trigger": false,
      "metar": "METAR EPWA 241500Z 07011KT 8000 BKN016 M05/M08 Q1012 NOSIG",
      "taf": "TAF EPWA 241430Z 2415/2515 08010KT 9999 BKN015"
    },
    {
      "icao": "EPWR",
      "alert": "OK",
      "vis_m": 4500,
      "fzfg": false,
      "metar_trigger": false,
      "taf_trigger": false,
      "metar": "METAR EPWR 241500Z 09006KT 4500 -SG BR OVC010 M02/M03 Q1008",
      "taf": ""
    },
    {
      "icao": "ESGG",
      "alert": "OK",
      "vis_m": 9999,
      "fzfg": false,
      "metar_trigger": false,
      "taf_trigger": false,
      "metar": "METAR ESGG 241450Z 10010KT 9999 -SN FEW017 BKN049 M02/M05 Q1014",
      "taf": "TAF ESGG 241430Z 2415/2515 08008KT 9999 -SN SCT015 OVC030"
    },
    {
      "icao": "ESKN",
      "alert": "OK",
      "vis_m": 9999,
      "fzfg": false,
      "metar_trigger": false,
      "taf_trigger": false,
      "metar": "METAR ESKN 241450Z 10009KT 9999 BKN027 M02/M07 Q1020",
      "taf": "TAF ESKN 241430Z 2415/2515 10008KT 9999 BKN025"
    },
    {
      "icao": "ESMS",
      "alert": "OK",
      "vis_m": 9999,
      "fzfg": false,
      "metar_trigger": false,
      "taf_trigger": false,
      "metar": "METAR ESMS 241450Z 09014KT 9999 OVC013 M00/M03 Q1012",
      "taf": "TAF ESMS 241427Z 2415/2515 09012KT 9999 BKN012"
    },
    {
      "icao": "ESSA",
      "alert": "OK",
      "vis_m": 5000,
      "fzfg": false,
      "metar_trigger": false,
      "taf_trigger": false,
      "metar": "METAR ESSA 241450Z 08007KT 5000 -SN BKN028 OVC042 M04/M05 Q1021 TEMPO 3000",
      "taf": "TAF ESSA 241430Z 2415/2515 10007KT 9000 -SN FEW012 BKN030"
    },
    {
      "icao": "EYKA",
      "alert": "OK",
      "vis_m": 9999,
      "fzfg": false,
      "metar_trigger": false,
      "taf_trigger": false,
      "metar": "METAR EYKA 241450Z 08011KT 9999 OVC035 M09/M13 Q1019",
      "taf": ""
    },
    {
      "icao": "EYPA",
      "alert": "OK",
      "vis_m": 9999,
      "fzfg": false,
      "metar_trigger": false,
      "taf_trigger": false,
      "metar": "METAR EYPA 241450Z 09007KT CAVOK M09/M14 Q1019",
      "taf": ""
    },
    {
      "icao": "EYVI",
      "alert": "OK",
      "vis_m": 9999,
      "fzfg": false,
      "metar_trigger": false,
      "taf_trigger": false,
      "metar": "METAR EYVI 241450Z 08009KT CAVOK M10/M14 Q1018 NOSIG",
      "taf": "TAF EYVI 241102Z 2412/2512 09009KT 9000 BKN020"
    },
    {
      "icao": "GCFV",
      "alert": "OK",
      "vis_m": 9999,
      "fzfg": false,
      "metar_trigger": false,
      "taf_trigger": false,
      "metar": "METAR GCFV 241500Z 01018KT 9999 FEW040 20/08 Q1025",
      "taf": "TAF GCFV 241400Z 2415/2515 02014KT 9999 FEW035 TX20/2514Z TN14/2506Z"
    },
    {
      "icao": "GCLP",
      "alert": "OK",
      "vis_m": 9999,
      "fzfg": false,
      "metar_trigger": false,
      "taf_trigger": false,
      "metar": "METAR GCLP 241500Z 03021KT 9999 SCT040 20/10 Q1026 NOSIG",
      "taf": "TAF GCLP 241400Z 2415/2515 02017KT 9999 FEW035 TX20/2514Z TN13/2506Z"
    },
    {
      "icao": "GCTS",
      "alert": "OK",
      "vis_m": 9999,
      "fzfg": false,
      "metar_trigger": false,
      "taf_trigger": false,
      "metar": "METAR GCTS 241500Z 10015KT 080V140 9999 FEW040 21/08 Q1026 NOSIG",
      "taf": "TAF GCTS 241400Z 2415/2515 07015KT 9999 FEW035 TX22/2514Z TN14/2506Z"
    },
    {
      "icao": "GMAD",
      "alert": "OK",
      "vis_m": 9999,
      "fzfg": false,
      "metar_trigger": false,
      "taf_trigger": false,
      "metar": "METAR GMAD 241500Z 30010KT 9999 FEW016 17/07 Q1021 NOSIG",
      "taf": "TAF GMAD 241100Z 2412/2518 28015KT 8000 SCT016"
    },
    {
      "icao": "GMMN",
      "alert": "OK",
      "vis_m": 4000,
      "fzfg": false,
      "metar_trigger": false,
      "taf_trigger": false,
      "metar": "SPECI GMMN 241509Z 30017KT 4000 RA BKN020TCU FEW040CB 13/09 Q1019 RERA BECMG 8000 -RA",
      "taf": "TAF GMMN 241100Z 2412/2518 30018KT 9999 BKN020TCU"
    },
    {
      "icao": "GMMX",
      "alert": "OK",
      "vis_m": 6000,
      "fzfg": false,
      "metar_trigger": false,
      "taf_trigger": false,
      "metar": "METAR GMMX 241500Z 30010KT 260V330 6000 -RA SCT010 BKN020 10/08 Q1022 TEMPO 3000 RA",
      "taf": "TAF GMMX 241100Z 2412/2518 24010KT 8000 SCT023"
    },
    {
      "icao": "HEGN",
      "alert": "OK",
      "vis_m": 4000,
      "fzfg": false,
      "metar_trigger": false,
      "taf_trigger": false,
      "metar": "METAR HEGN 241400Z 5014KT 4000 SA NSC 23/03 Q1017 NOSIG",
      "taf": "TAF HEGN 241100Z 2412/2518 33012G25KT 6000 NSC"
    },
    {
      "icao": "HEMA",
      "alert": "OK",
      "vis_m": 9999,
      "fzfg": false,
      "metar_trigger": false,
      "taf_trigger": false,
      "metar": "METAR HEMA 241400Z 01020KT CAVOK 22/06 Q1015 NOSIG",
      "taf": "TAF HEMA 241110Z 2412/2518 35012G22KT 6000 NSC"
    },
    {
      "icao": "HESH",
      "alert": "OK",
      "vis_m": 9999,
      "fzfg": false,
      "metar_trigger": false,
      "taf_trigger": false,
      "metar": "METAR HESH 241400Z 01008KT CAVOK 24/05 Q1015 NOSIG",
      "taf": "TAF HESH 241100Z 2412/2518 01015KT 6000 NSC"
    },
    {
      "icao": "HESX",
      "alert": "OK",
      "vis_m": 9999,
      "fzfg": false,
      "metar_trigger": false,
      "taf_trigger": false,
      "metar": "METAR HESX 241400Z 29012KT CAVOK 19/M01 Q1016 NOSIG",
      "taf": "TAF HESX 241110Z 2412/2518 25015KT CAVOK"
    },
    {
      "icao": "LATI",
      "alert": "OK",
      "vis_m": null,
      "fzfg": false,
      "metar_trigger": false,
      "taf_trigger": false,
      "metar": "",
      "taf": "TAF LATI 241100Z 2412/2512 16012KT 9999 SCT040 BKN080 TX15/2412Z TN07/2505Z"
    },
    {
      "icao": "LBPD",
      "alert": "OK",
      "vis_m": 6000,
      "fzfg": false,
      "metar_trigger": false,
      "taf_trigger": false,
      "metar": "METAR LBPD 241500Z AUTO 31004KT 6000 SCT004/// OVC006/// 02/02 Q1014 NOSIG",
      "taf": "TAF LBPD 241100Z 2412/2512 VRB03KT 3000 BR BKN005"
    },
    {
      "icao": "LBSF",
      "alert": "OK",
      "vis_m": 1400,
      "fzfg": false,
      "metar_trigger": false,
      "taf_trigger": false,
      "metar": "METAR LBSF 241500Z 09004KT 1400 R27/P2000N BR SCT001 OVC003 01/00 Q1012 TEMPO 1200 BR",
      "taf": ""
    },
    {
      "icao": "LBWN",
      "alert": "OK",
      "vis_m": 4400,
      "fzfg": false,
      "metar_trigger": false,
      "taf_trigger": false,
      "metar": "METAR LBWN 241500Z AUTO 13009KT 4400 BR OVC005/// 04/04 Q1014 NOSIG",
      "taf": "TAF LBWN 241100Z 2412/2512 12008KT 7000 BKN007 OVC010"
    },
    {
      "icao": "LCLK",
      "alert": "OK",
      "vis_m": 9999,
      "fzfg": false,
      "metar_trigger": false,
      "taf_trigger": false,
      "metar": "METAR LCLK 241500Z 36009KT 9999 FEW011 13/11 Q1018 NOSIG",
      "taf": ""
    },
    {
      "icao": "LCPH",
      "alert": "OK",
      "vis_m": 9999,
      "fzfg": false,
      "metar_trigger": false,
      "taf_trigger": false,
      "metar": "METAR LCPH 241500Z 15008KT 9999 SCT022 17/13 Q1017 NOSIG",
      "taf": "TAF LCPH 241130Z 2412/2512 29010KT 9999 FEW020 SCT050"
    },
    {
      "icao": "LEAL",
      "alert": "OK",
      "vis_m": 9999,
      "fzfg": false,
      "metar_trigger": false,
      "taf_trigger": false,
      "metar": "METAR LEAL 241500Z 29015KT 260V320 9999 FEW025 14/M01 Q1004 NOSIG",
      "taf": "TAF LEAL 241100Z 2412/2512 28018KT CAVOK TX14/2413Z TN09/2506Z"
    },
    {
      "icao": "LEBB",
      "alert": "OK",
      "vis_m": 9999,
      "fzfg": false,
      "metar_trigger": false,
      "taf_trigger": false,
      "metar": "METAR LEBB 241500Z 28013KT 240V310 9999 SCT049 BKN070 13/03 Q1001 NOSIG",
      "taf": ""
    },
    {
      "icao": "LEBL",
      "alert": "OK",
      "vis_m": 3500,
      "fzfg": false,
      "metar_trigger": false,
      "taf_trigger": false,
      "metar": "METAR LEBL 241500Z 28005KT 260V330 3500 RA FEW021 FEW023TCU SCT028 OVC034 05/04 Q0995 NOSIG",
      "taf": "TAF LEBL 241100Z 2412/2512 30012KT 9999 BKN030 OVC040 TX11/2412Z TN07/2506Z"
    },
    {
      "icao": "LECH",
      "alert": "OK",
      "vis_m": 9999,
      "fzfg": false,
      "metar_trigger": false,
      "taf_trigger": false,
      "metar": "METAR LECH 241500Z AUTO 27008KT 230V320 CAVOK 09/M05 Q0999",
      "taf": ""
    },
    {
      "icao": "LEMD",
      "alert": "OK",
      "vis_m": 9999,
      "fzfg": false,
      "metar_trigger": false,
      "taf_trigger": false,
      "metar": "METAR LEMD 241500Z 25014KT 210V280 9999 FEW030 07/M01 Q1004 NOSIG",
      "taf": "TAF LEMD 241100Z 2412/2518 23010KT 9999 FEW030 TX07/2414Z TN02/2504Z"
    },
    {
      "icao": "LEMG",
      "alert": "OK",
      "vis_m": 9999,
      "fzfg": false,
      "metar_trigger": false,
      "taf_trigger": false,
      "metar": "METAR LEMG 241500Z 32013KT 9999 SCT050 13/03 Q1011 NOSIG",
      "taf": "TAF LEMG 241100Z 2412/2512 31012KT 9999 SCT050 TX14/2414Z TN10/2507Z"
    },
    {
      "icao": "LEVC",
      "alert": "OK",
      "vis_m": 9999,
      "fzfg": false,
      "metar_trigger": false,
      "taf_trigger": false,
      "metar": "METAR LEVC 241500Z 28025G38KT 9999 FEW056 12/M01 Q1002 NOSIG",
      "taf": ""
    },
    {
      "icao": "LEXJ",
      "alert": "OK",
      "vis_m": 9999,
      "fzfg": false,
      "metar_trigger": false,
      "taf_trigger": false,
      "metar": "METAR LEXJ 241500Z 29022KT 9999 FEW030TCU BKN052 11/05 Q1002",
      "taf": "TAF LEXJ 241400Z 2415/2515 24012KT 9999 SCT040 TX13/2514Z TN07/2422Z"
    },
    {
      "icao": "LEZG",
      "alert": "OK",
      "vis_m": 9999,
      "fzfg": false,
      "metar_trigger": false,
      "taf_trigger": false,
      "metar": "METAR LEZG 241500Z 31014KT 9999 FEW050 09/01 Q1000 NOSIG",
      "taf": "TAF LEZG 241100Z 2412/2512 28010KT 9999 FEW055 TX10/2415Z TN06/2506Z"
    },
    {
      "icao": "LEZL",
      "alert": "OK",
      "vis_m": 9999,
      "fzfg": false,
      "metar_trigger": false,
      "taf_trigger": false,
      "metar": "METAR LEZL 241500Z 27008KT 230V300 9999 BKN040 13/06 Q1012 NOSIG",
      "taf": "TAF LEZL 241400Z 2415/2515 28005KT CAVOK TX15/2415Z TN09/2507Z"
    },
    {
      "icao": "LFBD",
      "alert": "OK",
      "vis_m": 9999,
      "fzfg": false,
      "metar_trigger": false,
      "taf_trigger": false,
      "metar": "METAR LFBD 241500Z AUTO 20011KT 9999 -RA FEW016/// BKN034/// BKN040/// ///TCU 08/07 Q0998 TEMPO 24015G25KT 4000 SHRA BKN020TCU SCT025CB",
      "taf": "TAF LFBD 241100Z 2412/2518 23008KT CAVOK TX10/2412Z TN05/2505Z"
    },
    {
      "icao": "LFLL",
      "alert": "OK",
      "vis_m": 500,
      "fzfg": false,
      "metar_trigger": false,
      "taf_trigger": false,
      "metar": "METAR LFLL 241500Z 01003KT 340V050 0500 R35L/0900D R17R/0800U R35R/0900U R17L/0500N FG VV/// 02/02 Q0999 NOSIG",
      "taf": ""
    },
    {
      "icao": "LFLS",
      "alert": "OK",
      "vis_m": 9999,
      "fzfg": false,
      "metar_trigger": false,
      "taf_trigger": false,
      "metar": "METAR LFLS 241500Z AUTO 06007KT CAVOK 05/02 Q0998 NOSIG",
      "taf": "TAF LFLS 241400Z 2415/2515 08005KT CAVOK"
    },
    {
      "icao": "LFMN",
      "alert": "OK",
      "vis_m": 9999,
      "fzfg": false,
      "metar_trigger": false,
      "taf_trigger": false,
      "metar": "METAR LFMN 241500Z 01004KT 330V030 9999 SCT046 OVC100 10/07 Q0998 BECMG 09012KT",
      "taf": "TAF LFMN 241400Z 2415/2521 08010KT 9999 SCT040"
    },
    {
      "icao": "LFOB",
      "alert": "OK",
      "vis_m": 9999,
      "fzfg": false,
      "metar_trigger": false,
      "taf_trigger": false,
      "metar": "METAR LFOB 241500Z AUTO 14012KT CAVOK 09/04 Q0997 NOSIG",
      "taf": "TAF LFOB 241100Z 2412/2512 12010KT CAVOK"
    },
    {
      "icao": "LFPO",
      "alert": "OK",
      "vis_m": 9999,
      "fzfg": false,
      "metar_trigger": false,
      "taf_trigger": false,
      "metar": "METAR LFPO 241500Z 14007KT CAVOK 10/03 Q0997 NOSIG",
      "taf": "TAF LFPO 241100Z 2412/2518 16006KT CAVOK"
    },
    {
      "icao": "LFSB",
      "alert": "OK",
      "vis_m": 9999,
      "fzfg": false,
      "metar_trigger": false,
      "taf_trigger": false,
      "metar": "METAR LFSB 241500Z AUTO VRB02KT 9999 BKN020 05/01 Q1000 BECMG OVC002",
      "taf": ""
    },
    {
      "icao": "LGAV",
      "alert": "OK",
      "vis_m": 9999,
      "fzfg": false,
      "metar_trigger": false,
      "taf_trigger": false,
      "metar": "METAR LGAV 241450Z 13006KT 9999 SCT020 15/11 Q1014 NOSIG",
      "taf": "TAF LGAV 241100Z 2412/2512 VRB05KT 9999 SCT020 BKN060"
    },
    {
      "icao": "LGTS",
      "alert": "OK",
      "vis_m": 9999,
      "fzfg": false,
      "metar_trigger": false,
      "taf_trigger": false,
      "metar": "METAR LGTS 241450Z VRB03KT 9999 FEW010 BKN030 11/06 Q1014 NOSIG",
      "taf": "TAF LGTS 241100Z 2412/2512 VRB03KT 9999 BKN030"
    },
    {
      "icao": "LHBP",
      "alert": "OK",
      "vis_m": 6000,
      "fzfg": false,
      "metar_trigger": false,
      "taf_trigger": false,
      "metar": "METAR LHBP 241500Z 08003KT 040V140 6000 NSC 03/01 Q1007 NOSIG",
      "taf": "TAF LHBP 241115Z 2412/2512 07006KT 6000 SCT008 BKN050"
    },
    {
      "icao": "LHDC",
      "alert": "OK",
      "vis_m": 9999,
      "fzfg": false,
      "metar_trigger": false,
      "taf_trigger": false,
      "metar": "METAR LHDC 241445Z AUTO 00000KT CAVOK 06/03 Q1008 NOSIG",
      "taf": "TAF LHDC 241415Z 2415/2424 20006KT CAVOK"
    },
    {
      "icao": "LIBD",
      "alert": "OK",
      "vis_m": 9999,
      "fzfg": false,
      "metar_trigger": false,
      "taf_trigger": false,
      "metar": "METAR LIBD 241450Z 19007KT CAVOK 16/08 Q1005",
      "taf": "TAF LIBD 241100Z 2412/2512 16010KT 9999 SCT030"
    },
    {
      "icao": "LIBG",
      "alert": "OK",
      "vis_m": 9999,
      "fzfg": false,
      "metar_trigger": false,
      "taf_trigger": false,
      "metar": "METAR LIBG 241450Z 17007KT CAVOK 15/12 Q1007",
      "taf": "TAF LIBG 241400Z 2415/2424 17008KT 9999 FEW030"
    },
    {
      "icao": "LIBP",
      "alert": "OK",
      "vis_m": 9999,
      "fzfg": false,
      "metar_trigger": false,
      "taf_trigger": false,
      "metar": "METAR LIBP 241450Z AUTO 06005KT 9999 NCD 12/09 Q1002",
      "taf": "TAF LIBP 241100Z 2412/2512 VRB05KT 9999 SCT040"
    },
    {
      "icao": "LIBR",
      "alert": "OK",
      "vis_m": 9999,
      "fzfg": false,
      "metar_trigger": false,
      "taf_trigger": false,
      "metar": "METAR LIBR 241450Z 20010KT 9999 FEW020 15/11 Q1008",
      "taf": "TAF LIBR 241100Z 2412/2512 17013KT 9999 SCT020"
    },
    {
      "icao": "LICA",
      "alert": "OK",
      "vis_m": 9999,
      "fzfg": false,
      "metar_trigger": false,
      "taf_trigger": false,
      "metar": "METAR LICA 241450Z AUTO 10008KT 9999 NCD 17/09 Q1007",
      "taf": "TAF LICA 241100Z 2412/2512 07010KT 9999 SCT020"
    },
    {
      "icao": "LICC",
      "alert": "OK",
      "vis_m": 8000,
      "fzfg": false,
      "metar_trigger": false,
      "taf_trigger": false,
      "metar": "METAR LICC 241450Z 25003KT 8000 BKN040 17/15 Q1007",
      "taf": "TAF LICC 241100Z 2412/2512 VRB06KT 9999 SCT030"
    },
    {
      "icao": "LICJ",
      "alert": "OK",
      "vis_m": 9999,
      "fzfg": false,
      "metar_trigger": false,
      "taf_trigger": false,
      "metar": "METAR LICJ 241450Z 08005KT 050V110 9999 FEW040 17/11 Q1004",
      "taf": "TAF LICJ 241100Z 2412/2512 22012KT 9999 SCT030"
    },
    {
      "icao": "LIMC",
      "alert": "OK",
      "vis_m": 4000,
      "fzfg": false,
      "metar_trigger": false,
      "taf_trigger": false,
      "metar": "METAR LIMC 241450Z 24004KT 4000 BR OVC005 05/05 Q1003 NOSIG",
      "taf": ""
    },
    {
      "icao": "LIME",
      "alert": "OK",
      "vis_m": 4000,
      "fzfg": false,
      "metar_trigger": false,
      "taf_trigger": false,
      "metar": "METAR LIME 241450Z 21004KT 170V230 4000 BR SCT004 BKN006 06/05 Q1003 NOSIG",
      "taf": ""
    },
    {
      "icao": "LIMF",
      "alert": "OK",
      "vis_m": 7000,
      "fzfg": false,
      "metar_trigger": false,
      "taf_trigger": false,
      "metar": "METAR LIMF 241450Z VRB02KT 7000 SCT035 BKN055 06/02 Q1002",
      "taf": ""
    },
    {
      "icao": "LIMJ",
      "alert": "OK",
      "vis_m": 9999,
      "fzfg": false,
      "metar_trigger": false,
      "taf_trigger": false,
      "metar": "METAR LIMJ 241450Z 03016KT 9999 SCT033 07/02 Q1000",
      "taf": ""
    },
    {
      "icao": "LIPE",
      "alert": "OK",
      "vis_m": 7000,
      "fzfg": false,
      "metar_trigger": false,
      "taf_trigger": false,
      "metar": "METAR LIPE 241450Z 29004KT 7000 BKN007 BKN040 06/04 Q1003",
      "taf": "TAF LIPE 241100Z 2412/2512 VRB05KT 3000 -RA BR BKN006"
    },
    {
      "icao": "LIPH",
      "alert": "OK",
      "vis_m": 9999,
      "fzfg": false,
      "metar_trigger": false,
      "taf_trigger": false,
      "metar": "METAR LIPH 241450Z 07009KT 9999 BKN008 09/08 Q1003",
      "taf": "TAF LIPH 241100Z 2412/2512 VRB05KT 7000 BKN040"
    },
    {
      "icao": "LIPQ",
      "alert": "OK",
      "vis_m": 9999,
      "fzfg": false,
      "metar_trigger": false,
      "taf_trigger": false,
      "metar": "METAR LIPQ 241450Z AUTO 02003KT 340V060 9999 -RA OVC037/// 10/09 Q1003",
      "taf": "TAF LIPQ 241100Z 2412/2512 10006KT 9999 BKN015"
    },
    {
      "icao": "LIPR",
      "alert": "OK",
      "vis_m": 9999,
      "fzfg": false,
      "metar_trigger": false,
      "taf_trigger": false,
      "metar": "METAR LIPR 241450Z 33005KT 310V010 9999 BKN010 07/05 Q1003",
      "taf": "TAF LIPR 241100Z 2412/2512 30010KT 6000 BKN010"
    },
    {
      "icao": "LIPX",
      "alert": "OK",
      "vis_m": 8000,
      "fzfg": false,
      "metar_trigger": false,
      "taf_trigger": false,
      "metar": "METAR LIPX 241450Z 27004KT 240V320 8000 -RA FEW008 SCT015 BKN040 08/06 Q1003",
      "taf": ""
    },
    {
      "icao": "LIPY",
      "alert": "OK",
      "vis_m": 9999,
      "fzfg": false,
      "metar_trigger": false,
      "taf_trigger": false,
      "metar": "METAR LIPY 241450Z AUTO 34006KT 9999 OVC005/// 08/08 Q1003",
      "taf": ""
    },
    {
      "icao": "LIPZ",
      "alert": "OK",
      "vis_m": 5000,
      "fzfg": false,
      "metar_trigger": false,
      "taf_trigger": false,
      "metar": "METAR LIPZ 241450Z 05005KT 5000 BR BKN004 09/09 Q1003 NOSIG",
      "taf": ""
    },
    {
      "icao": "LIRF",
      "alert": "OK",
      "vis_m": 9999,
      "fzfg": false,
      "metar_trigger": false,
      "taf_trigger": false,
      "metar": "METAR LIRF 241450Z 15012KT 9999 BKN020 16/13 Q1002 NOSIG",
      "taf": "TAF LIRF 241100Z 2412/2518 18012KT 9999 SCT030"
    },
    {
      "icao": "LIRN",
      "alert": "OK",
      "vis_m": 9999,
      "fzfg": false,
      "metar_trigger": false,
      "taf_trigger": false,
      "metar": "METAR LIRN 241450Z 19008KT 140V220 9999 FEW015 BKN030 15/12 Q1005 NOSIG",
      "taf": "TAF LIRN 241100Z 2412/2512 19013KT 9999 SCT030"
    },
    {
      "icao": "LIRP",
      "alert": "OK",
      "vis_m": 9999,
      "fzfg": false,
      "metar_trigger": false,
      "taf_trigger": false,
      "metar": "METAR LIRP 241445Z 10008KT 9999 FEW015 SCT030 12/11 Q1000 NOSIG",
      "taf": "TAF LIRP 241100Z 2412/2512 11008KT 9999 FEW020 SCT050"
    },
    {
      "icao": "LIRZ",
      "alert": "OK",
      "vis_m": 9999,
      "fzfg": false,
      "metar_trigger": false,
      "taf_trigger": false,
      "metar": "METAR LIRZ 241450Z AUTO 17006KT 9999 NCD 14/08 Q1002",
      "taf": "TAF LIRZ 241100Z 2412/2512 VRB05KT 9999 BKN030"
    },
    {
      "icao": "LJLJ",
      "alert": "OK",
      "vis_m": 1200,
      "fzfg": false,
      "metar_trigger": false,
      "taf_trigger": false,
      "metar": "METAR LJLJ 241500Z 11002KT 1200 R30/1300D -RA BR FEW001 SCT010 OVC033 03/02 Q1004 NOSIG",
      "taf": ""
    },
    {
      "icao": "LKMT",
      "alert": "OK",
      "vis_m": 800,
      "fzfg": true,
      "metar_trigger": false,
      "taf_trigger": false,
      "metar": "METAR LKMT 241500Z 03005KT 0800 R22/1500N R04/1500U -FZDZ FZFG OVC003 M01/M01 Q1006 NOSIG",
      "taf": ""
    },
    {
      "icao": "LKPR",
      "alert": "OK",
      "vis_m": 4000,
      "fzfg": false,
      "metar_trigger": false,
      "taf_trigger": false,
      "metar": "METAR LKPR 241500Z 36003KT 4000 BR OVC013 M03/M04 Q1004 NOSIG",
      "taf": "TAF LKPR 241400Z 2415/2521 VRB02KT 6000 SCT006 OVC013"
    },
    {
      "icao": "LLBG",
      "alert": "OK",
      "vis_m": 9000,
      "fzfg": false,
      "metar_trigger": false,
      "taf_trigger": false,
      "metar": "METAR LLBG 241450Z 23005KT 9000 NSC 18/09 Q1018 NOSIG",
      "taf": "TAF LLBG 241108Z 2412/2512 26012KT 8000 FEW045"
    },
    {
      "icao": "LMML",
      "alert": "OK",
      "vis_m": 9999,
      "fzfg": false,
      "metar_trigger": false,
      "taf_trigger": false,
      "metar": "METAR LMML 241515Z 16010KT CAVOK 17/13 Q1008 NOSIG",
      "taf": "TAF LMML 241100Z 2412/2512 19012KT 9999 FEW018"
    },
    {
      "icao": "LOWW",
      "alert": "OK",
      "vis_m": 4600,
      "fzfg": false,
      "metar_trigger": false,
      "taf_trigger": false,
      "metar": "METAR LOWW 241450Z VRB01KT 4600 BR FEW006 BKN007 M01/M02 Q1006 TEMPO 2500 BR BKN004",
      "taf": "TAF LOWW 241417Z 2415/2521 VRB04KT 4000 BR FEW003 OVC005 TX02/2513Z TNM01/2417Z"
    },
    {
      "icao": "LPFR",
      "alert": "OK",
      "vis_m": 9999,
      "fzfg": false,
      "metar_trigger": false,
      "taf_trigger": false,
      "metar": "METAR LPFR 241500Z 30016KT 9999 FEW035 14/07 Q1014",
      "taf": "TAF LPFR 241100Z 2412/2512 01008KT 9999 SCT020"
    },
    {
      "icao": "LPMA",
      "alert": "OK",
      "vis_m": 9999,
      "fzfg": false,
      "metar_trigger": false,
      "taf_trigger": false,
      "metar": "METAR LPMA 241500Z VRB05KT 9999 SCT015 18/09 Q1026",
      "taf": "TAF LPMA 241100Z 2412/2512 36010KT 9999 SCT015"
    },
    {
      "icao": "LPPR",
      "alert": "OK",
      "vis_m": 9999,
      "fzfg": false,
      "metar_trigger": false,
      "taf_trigger": false,
      "metar": "METAR LPPR 241500Z 32011KT 280V350 9999 FEW015 FEW018CB BKN030 12/06 Q1010",
      "taf": "TAF LPPR 241100Z 2412/2512 17010KT 9999 SCT025 SCT045"
    },
    {
      "icao": "LPPS",
      "alert": "OK",
      "vis_m": 9999,
      "fzfg": false,
      "metar_trigger": false,
      "taf_trigger": false,
      "metar": "METAR LPPS 241500Z 31011KT 9999 SCT015 17/10 Q1026",
      "taf": "TAF LPPS 241100Z 2412/2518 33013KT 9999 SCT015"
    },
    {
      "icao": "LPPT",
      "alert": "OK",
      "vis_m": 9999,
      "fzfg": false,
      "metar_trigger": false,
      "taf_trigger": false,
      "metar": "METAR LPPT 241500Z 32011KT 280V350 9999 VCSH FEW014 FEW020TCU SCT028 11/08 Q1013",
      "taf": "TAF LPPT 241100Z 2412/2518 30012KT 9999 SCT020"
    },
    {
      "icao": "LQBK",
      "alert": "OK",
      "vis_m": 3000,
      "fzfg": false,
      "metar_trigger": false,
      "taf_trigger": false,
      "metar": "METAR LQBK 241500Z VRB02KT 3000 -RA BR NSC 07/05 Q1004 NOSIG",
      "taf": "TAF LQBK 241100Z 2412/2512 VRB02KT 6000 SCT040 TX07/2413Z TN02/2506Z"
    },
    {
      "icao": "LQSA",
      "alert": "OK",
      "vis_m": 9999,
      "fzfg": false,
      "metar_trigger": false,
      "taf_trigger": false,
      "metar": "METAR LQSA 241500Z 13013KT 9999 BKN055 07/03 Q1005 NOSIG",
      "taf": ""
    },
    {
      "icao": "LQTZ",
      "alert": "OK",
      "vis_m": 9999,
      "fzfg": false,
      "metar_trigger": false,
      "taf_trigger": false,
      "metar": "METAR LQTZ 241500Z 24003KT 160V290 9999 SCT073 06/03 Q1005",
      "taf": "TAF LQTZ 241100Z 2412/2512 15006KT 6000 NSC TX13/2512Z TN03/2502Z"
    },
    {
      "icao": "LRBC",
      "alert": "OK",
      "vis_m": 3000,
      "fzfg": false,
      "metar_trigger": false,
      "taf_trigger": false,
      "metar": "METAR LRBC 241500Z 15009KT 3000 BR OVC003 M02/M03 Q1013",
      "taf": "TAF LRBC 241400Z 2415/2424 16010KT 1500 BR OVC002"
    },
    {
      "icao": "LRBS",
      "alert": "OK",
      "vis_m": 300,
      "fzfg": true,
      "metar_trigger": false,
      "taf_trigger": false,
      "metar": "METAR LRBS 241500Z 07005KT 030V100 0300 R07/0900N FZFG VV001 M00/M00 Q1014 NOSIG",
      "taf": ""
    },
    {
      "icao": "LRBV",
      "alert": "OK",
      "vis_m": 9999,
      "fzfg": false,
      "metar_trigger": false,
      "taf_trigger": false,
      "metar": "METAR LRBV 241500Z VRB02KT CAVOK 04/M01 Q1009",
      "taf": "TAF LRBV 241400Z 2415/2424 VRB04KT CAVOK"
    },
    {
      "icao": "LRCL",
      "alert": "OK",
      "vis_m": 7000,
      "fzfg": false,
      "metar_trigger": false,
      "taf_trigger": false,
      "metar": "METAR LRCL 241500Z 08004KT 7000 NSC 03/00 Q1009",
      "taf": "TAF LRCL 241400Z 2415/2424 07006KT 8000 SCT050"
    },
    {
      "icao": "LRCV",
      "alert": "OK",
      "vis_m": 600,
      "fzfg": false,
      "metar_trigger": false,
      "taf_trigger": false,
      "metar": "METAR LRCV 241500Z 13003KT 0600 R26/1400D FG OVC001 00/00 Q1013",
      "taf": "TAF LRCV 241400Z 2415/2424 VRB04KT 0300 FG VV001"
    },
    {
      "icao": "LRIA",
      "alert": "OK",
      "vis_m": 9999,
      "fzfg": false,
      "metar_trigger": false,
      "taf_trigger": false,
      "metar": "METAR LRIA 241500Z 12012KT 9999 OVC012 M02/M05 Q1014",
      "taf": "TAF LRIA 241400Z 2415/2424 11012KT 9999 OVC010"
    },
    {
      "icao": "LROP",
      "alert": "OK",
      "vis_m": 300,
      "fzfg": true,
      "metar_trigger": false,
      "taf_trigger": false,
      "metar": "METAR LROP 241500Z 09004KT 0300 R08R/0700N R08L/1100U FZFG OVC001 M00/M00 Q1014 NOSIG",
      "taf": ""
    },
    {
      "icao": "LRSB",
      "alert": "OK",
      "vis_m": 9999,
      "fzfg": false,
      "metar_trigger": false,
      "taf_trigger": false,
      "metar": "METAR LRSB 241500Z 23007KT CAVOK 03/00 Q1008 NOSIG",
      "taf": "TAF LRSB 241100Z 2412/2512 VRB04KT CAVOK"
    },
    {
      "icao": "LRSM",
      "alert": "OK",
      "vis_m": 9999,
      "fzfg": false,
      "metar_trigger": false,
      "taf_trigger": false,
      "metar": "METAR LRSM 241500Z AUTO 10004KT 9999 SCT110/// BKN140/// 03/01 Q1009",
      "taf": ""
    },
    {
      "icao": "LRSV",
      "alert": "OK",
      "vis_m": 300,
      "fzfg": true,
      "metar_trigger": false,
      "taf_trigger": false,
      "metar": "METAR LRSV 241500Z 14010KT 0300 R34/0800N FZFG VV002 M02/M03 Q1011",
      "taf": "TAF LRSV 241400Z 2415/2424 14010KT 0300 FZFG OVC001"
    },
    {
      "icao": "LRTM",
      "alert": "OK",
      "vis_m": 8000,
      "fzfg": false,
      "metar_trigger": false,
      "taf_trigger": false,
      "metar": "METAR LRTM 241500Z 00000KT 8000 NSC 03/01 Q1009",
      "taf": "TAF LRTM 241400Z 2415/2424 VRB04KT CAVOK"
    },
    {
      "icao": "LRTR",
      "alert": "OK",
      "vis_m": 9999,
      "fzfg": false,
      "metar_trigger": false,
      "taf_trigger": false,
      "metar": "METAR LRTR 241500Z 17006KT CAVOK 07/01 Q1007",
      "taf": "TAF LRTR 241100Z 2412/2512 12008KT CAVOK"
    },
    {
      "icao": "LTAC",
      "alert": "OK",
      "vis_m": 9999,
      "fzfg": false,
      "metar_trigger": false,
      "taf_trigger": false,
      "metar": "METAR LTAC 241450Z 04002KT 9999 SCT030 BKN080 06/04 Q1015 NOSIG RMK RWY21C 05003KT RWY03L 04003KT RWY21R 03002KT RWY03R 03002KT RWY21L 03003KT",
      "taf": "TAF LTAC 241040Z 2412/2512 VRB02KT 9999 SCT040 BKN100"
    },
    {
      "icao": "LTFM",
      "alert": "OK",
      "vis_m": 8000,
      "fzfg": false,
      "metar_trigger": false,
      "taf_trigger": false,
      "metar": "METAR LTFM 241450Z COR 10007KT 8000 BKN005 BKN020 08/06 Q1015 NOSIG RMK RWY17L 09006KT RWY34L 08007KT RWY16R 09008KT RWY36 09006KT 030V100 RWY18 10007KT",
      "taf": "TAF LTFM 241040Z 2412/2518 06008KT 9999 BKN006 BKN020"
    },
    {
      "icao": "LUKK",
      "alert": "OK",
      "vis_m": 5000,
      "fzfg": false,
      "metar_trigger": false,
      "taf_trigger": false,
      "metar": "METAR LUKK 241500Z 10006KT 5000 -SN BR BKN011 OVC022 M04/M05 Q1016 NOSIG",
      "taf": "TAF LUKK 241128Z 2412/2512 10008KT 7000 SCT008 BKN018"
    },
    {
      "icao": "LWOH",
      "alert": "OK",
      "vis_m": null,
      "fzfg": false,
      "metar_trigger": false,
      "taf_trigger": false,
      "metar": "",
      "taf": "TAF LWOH 241450Z 2415/2515 VRB02KT 9999 FEW020 OVC040"
    },
    {
      "icao": "LWSK",
      "alert": "OK",
      "vis_m": null,
      "fzfg": false,
      "metar_trigger": false,
      "taf_trigger": false,
      "metar": "",
      "taf": "TAF LWSK 241450Z 2415/2515 VRB02KT 5000 BR BKN020 OVC040"
    },
    {
      "icao": "LYBE",
      "alert": "OK",
      "vis_m": 9999,
      "fzfg": false,
      "metar_trigger": false,
      "taf_trigger": false,
      "metar": "METAR LYBE 241500Z 12010KT CAVOK 08/02 Q1006 NOSIG",
      "taf": "TAF LYBE 241100Z 2412/2512 12008KT CAVOK TX12/2512Z TN04/2506Z"
    },
    {
      "icao": "LYNI",
      "alert": "OK",
      "vis_m": 9999,
      "fzfg": false,
      "metar_trigger": false,
      "taf_trigger": false,
      "metar": "METAR LYNI 241500Z 15004KT 110V190 9999 SCT090 08/04 Q1010 NOSIG",
      "taf": "TAF LYNI 241100Z 2412/2512 15006KT 9999 SCT045 TX12/2512Z TN03/2505Z"
    },
    {
      "icao": "LYPG",
      "alert": "OK",
      "vis_m": 3000,
      "fzfg": false,
      "metar_trigger": false,
      "taf_trigger": false,
      "metar": "METAR LYPG 241500Z VRB01KT 3000 RA BR FEW005 SCT030 BKN043 09/09 Q1010 TEMPO 3000",
      "taf": "TAF LYPG 241100Z 2412/2512 17005KT 8000 FEW010 BKN040 OVC070 TX11/2412Z TN07/2505Z"
    },
    {
      "icao": "LZIB",
      "alert": "OK",
      "vis_m": 2600,
      "fzfg": false,
      "metar_trigger": false,
      "taf_trigger": false,
      "metar": "METAR LZIB 241500Z 17002KT 2600 BR SCT005 OVC006 01/M00 Q1006 TEMPO 3200 BR",
      "taf": "TAF LZIB 241115Z 2412/2512 08005KT 3500 BR BKN006 BKN014"
    },
    {
      "icao": "LZKZ",
      "alert": "OK",
      "vis_m": 500,
      "fzfg": false,
      "metar_trigger": false,
      "taf_trigger": false,
      "metar": "METAR LZKZ 241500Z VRB02KT 0500 R01/0700U FG SCT002 OVC012 02/02 Q1008 NOSIG",
      "taf": ""
    },
    {
      "icao": "LZTT",
      "alert": "OK",
      "vis_m": 6000,
      "fzfg": false,
      "metar_trigger": false,
      "taf_trigger": false,
      "metar": "METAR LZTT 241500Z 16003KT 120V180 6000 -DZ BKN004 01/00 Q1005 TEMPO 4000 BR",
      "taf": "TAF LZTT 241115Z 2412/2512 VRB02KT 6000 BKN006 BKN025"
    },
    {
      "icao": "OEJN",
      "alert": "OK",
      "vis_m": 8000,
      "fzfg": false,
      "metar_trigger": false,
      "taf_trigger": false,
      "metar": "METAR OEJN 241500Z 27007KT 8000 SCT040 27/21 Q1013 NOSIG",
      "taf": "TAF OEJN 241100Z 2412/2518 25012KT 7000 FEW040"
    },
    {
      "icao": "OEMA",
      "alert": "OK",
      "vis_m": 9999,
      "fzfg": false,
      "metar_trigger": false,
      "taf_trigger": false,
      "metar": "METAR OEMA 241500Z 28012KT 9999 FEW040 23/14 Q1016 NOSIG",
      "taf": "TAF OEMA 241100Z 2412/2518 24015KT 7000 SCT045"
    },
    {
      "icao": "OJAI",
      "alert": "OK",
      "vis_m": 4000,
      "fzfg": false,
      "metar_trigger": false,
      "taf_trigger": false,
      "metar": "METAR OJAI 241500Z 34005KT 4000 HZ NSC 08/05 Q1020 NOSIG",
      "taf": ""
    },
    {
      "icao": "OMAA",
      "alert": "OK",
      "vis_m": 9999,
      "fzfg": false,
      "metar_trigger": false,
      "taf_trigger": false,
      "metar": "METAR OMAA 241500Z 01008KT CAVOK 20/09 Q1018 NOSIG",
      "taf": "TAF OMAA 241100Z 2412/2518 26005KT 8000 NSC"
    },
    {
      "icao": "OMDB",
      "alert": "OK",
      "vis_m": 9999,
      "fzfg": false,
      "metar_trigger": false,
      "taf_trigger": false,
      "metar": "METAR OMDB 241500Z 01006KT 340V080 CAVOK 21/09 Q1018 NOSIG",
      "taf": "TAF OMDB 241100Z 2412/2518 30010KT 8000 NSC"
    },
    {
      "icao": "UAAA",
      "alert": "OK",
      "vis_m": 4200,
      "fzfg": false,
      "metar_trigger": false,
      "taf_trigger": false,
      "metar": "METAR UAAA 241500Z 23004MPS 4200 BR FU SCT100 BKN200 M07/M10 Q1017 NOSIG",
      "taf": "TAF UAAA 241102Z 2412/2512 06003MPS 3100 BR FU SCT050 BKN100 TXM01/2508Z TNM12/2502Z"
    },
    {
      "icao": "UBBB",
      "alert": "OK",
      "vis_m": 9999,
      "fzfg": false,
      "metar_trigger": false,
      "taf_trigger": false,
      "metar": "METAR UBBB 241500Z 14004KT 9999 BKN025 05/03 Q1017 NOSIG",
      "taf": "TAF UBBB 241055Z 2412/2512 36005KT 9999 SCT012 BKN025 TX07/2412Z TN02/2502Z"
    },
    {
      "icao": "UDSG",
      "alert": "OK",
      "vis_m": 3100,
      "fzfg": false,
      "metar_trigger": false,
      "taf_trigger": false,
      "metar": "METAR UDSG 241500Z 11002KT 3100 -SN BR OVC033 M06/M07 Q1018 NOSIG",
      "taf": "TAF UDSG 241100Z 2412/2512 VRB06KT 2000 BR BKN020"
    },
    {
      "icao": "UDYZ",
      "alert": "OK",
      "vis_m": 3200,
      "fzfg": false,
      "metar_trigger": false,
      "taf_trigger": false,
      "metar": "METAR UDYZ 241500Z 22002KT 3200 BR BKN017 M02/M05 Q1021 NOSIG",
      "taf": "TAF UDYZ 241100Z 2412/2512 VRB06KT 2300 BR BKN020"
    },
    {
      "icao": "UGKO",
      "alert": "OK",
      "vis_m": 9999,
      "fzfg": false,
      "metar_trigger": false,
      "taf_trigger": false,
      "metar": "METAR UGKO 241500Z 08004KT 9999 -RA OVC038 07/05 Q1016 NOSIG",
      "taf": "TAF UGKO 241100Z 2412/2512 09007KT 9999 BKN080 TX11/2412Z TN05/2504Z"
    }
  ]
}