{
  "ts_utc": "2025-12-22T07:33:28Z",
  "threshold_m": 150,
  "source": "stations_override.txt (ICAO list) + aviationweather.gov (METAR/TAF raw)",
  "station_count": 114,
  "stations": [
    {
      "icao": "BIKF",
      "alert": "OK",
      "vis_m": 9999,
      "fzfg": false,
      "metar_trigger": false,
      "taf_trigger": false,
      "metar": "METAR BIKF 220700Z 13023G33KT 9999 FEW014 07/05 Q1000",
      "taf": "TAF BIKF 220454Z 2206/2306 13025G38KT 9999 -SHRA BKN022 TX07/2206Z TN02/2306Z"
    },
    {
      "icao": "BKPR",
      "alert": "OK",
      "vis_m": 3500,
      "fzfg": false,
      "metar_trigger": false,
      "taf_trigger": false,
      "metar": "METAR BKPR 220730Z 32004KT 3500 BR SCT008 BKN020 02/02 Q1019 NOSIG",
      "taf": "TAF BKPR 220530Z 2206/2306 VRB03KT 3000 BR BKN006"
    },
    {
      "icao": "EBBR",
      "alert": "OK",
      "vis_m": 9999,
      "fzfg": false,
      "metar_trigger": false,
      "taf_trigger": false,
      "metar": "METAR EBBR 220720Z 12006KT CAVOK 04/01 Q1008 NOSIG",
      "taf": "TAF EBBR 220502Z 2206/2312 05005KT CAVOK"
    },
    {
      "icao": "EBCI",
      "alert": "OK",
      "vis_m": 9999,
      "fzfg": false,
      "metar_trigger": false,
      "taf_trigger": false,
      "metar": "METAR EBCI 220720Z 13003KT 090V170 CAVOK 05/01 Q1008 NOSIG",
      "taf": "TAF EBCI 220502Z 2206/2312 05005KT CAVOK"
    },
    {
      "icao": "EDDB",
      "alert": "OK",
      "vis_m": 5000,
      "fzfg": false,
      "metar_trigger": false,
      "taf_trigger": false,
      "metar": "METAR EDDB 220720Z AUTO 10009KT 5000 BR OVC003 03/03 Q1018 BECMG 6000",
      "taf": "TAF EDDB 220500Z 2206/2306 07010KT 2500 BR BKN003"
    },
    {
      "icao": "EDDH",
      "alert": "OK",
      "vis_m": 6000,
      "fzfg": false,
      "metar_trigger": false,
      "taf_trigger": false,
      "metar": "METAR EDDH 220720Z AUTO 09008KT 6000 OVC002 04/04 Q1017 TEMPO 3500",
      "taf": "TAF EDDH 220500Z 2206/2312 09011KT 6000 OVC003"
    },
    {
      "icao": "EDDK",
      "alert": "OK",
      "vis_m": 9999,
      "fzfg": false,
      "metar_trigger": false,
      "taf_trigger": false,
      "metar": "METAR EDDK 220720Z AUTO 11005KT 080V140 CAVOK 04/01 Q1010 NOSIG",
      "taf": "TAF EDDK 220500Z 2206/2312 11006KT CAVOK"
    },
    {
      "icao": "EDDN",
      "alert": "OK",
      "vis_m": 9999,
      "fzfg": false,
      "metar_trigger": false,
      "taf_trigger": false,
      "metar": "METAR EDDN 220720Z AUTO 12006KT 9999 OVC011 02/00 Q1011 NOSIG",
      "taf": "TAF EDDN 220500Z 2206/2306 09006KT 9999 OVC010"
    },
    {
      "icao": "EDFH",
      "alert": "OK",
      "vis_m": 9999,
      "fzfg": false,
      "metar_trigger": false,
      "taf_trigger": false,
      "metar": "METAR EDFH 220720Z 12012KT CAVOK M00/M01 Q1009",
      "taf": "TAF EDFH 220500Z 2206/2306 13011KT CAVOK"
    },
    {
      "icao": "EDJA",
      "alert": "OK",
      "vis_m": 3600,
      "fzfg": false,
      "metar_trigger": false,
      "taf_trigger": false,
      "metar": "METAR EDJA 220720Z 06006KT 3600 BR OVC002 M03/M03 Q1009",
      "taf": "TAF EDJA 220500Z 2206/2215 07005KT 2000 BR OVC002"
    },
    {
      "icao": "EDLW",
      "alert": "OK",
      "vis_m": 9999,
      "fzfg": false,
      "metar_trigger": false,
      "taf_trigger": false,
      "metar": "METAR EDLW 220720Z 05009KT CAVOK 03/02 Q1010",
      "taf": "TAF EDLW 220500Z 2206/2306 08007KT CAVOK"
    },
    {
      "icao": "EDSB",
      "alert": "OK",
      "vis_m": 7000,
      "fzfg": false,
      "metar_trigger": false,
      "taf_trigger": false,
      "metar": "METAR EDSB 220720Z 02005KT 7000 OVC008 01/00 Q1010",
      "taf": "TAF EDSB 220500Z 2206/2306 03004KT 2000 BR BKN002"
    },
    {
      "icao": "EETN",
      "alert": "OK",
      "vis_m": 9999,
      "fzfg": false,
      "metar_trigger": false,
      "taf_trigger": false,
      "metar": "METAR EETN 220720Z 35003KT 9999 SCT011 FEW015CB OVC027 02/00 Q1020 NOSIG",
      "taf": "TAF EETN 220530Z 2206/2306 35008KT 9999 SCT013 BKN020"
    },
    {
      "icao": "EFHK",
      "alert": "OK",
      "vis_m": 9999,
      "fzfg": false,
      "metar_trigger": false,
      "taf_trigger": false,
      "metar": "METAR EFHK 220720Z 29005KT 9999 BKN028 BKN044 M00/M01 Q1020 NOSIG",
      "taf": "TAF EFHK 220534Z 2206/2306 33006KT 9999 FEW012 BKN025"
    },
    {
      "icao": "EFTU",
      "alert": "OK",
      "vis_m": 4500,
      "fzfg": false,
      "metar_trigger": false,
      "taf_trigger": false,
      "metar": "METAR EFTU 220720Z AUTO 03005KT 350V070 4500 BR OVC001 M01/M01 Q1022",
      "taf": ""
    },
    {
      "icao": "EGGW",
      "alert": "OK",
      "vis_m": 2800,
      "fzfg": false,
      "metar_trigger": false,
      "taf_trigger": false,
      "metar": "METAR EGGW 220720Z AUTO 12007KT 2800 BR BKN003 08/08 Q1006",
      "taf": "TAF EGGW 220454Z 2206/2306 10008KT 7000 FEW007 SCT020"
    },
    {
      "icao": "EGKK",
      "alert": "OK",
      "vis_m": 9999,
      "fzfg": false,
      "metar_trigger": false,
      "taf_trigger": false,
      "metar": "METAR EGKK 220720Z 07006KT 9999 BKN024 09/09 Q1005",
      "taf": "TAF EGKK 220456Z 2206/2312 10008KT 9999 SCT025"
    },
    {
      "icao": "EHEH",
      "alert": "OK",
      "vis_m": 9999,
      "fzfg": false,
      "metar_trigger": false,
      "taf_trigger": false,
      "metar": "METAR EHEH 220725Z AUTO 07007KT 020V130 9999 SCT160 OVC240 05/02 Q1009 BLU NOSIG RMK TREND REMOTE BY EHWX",
      "taf": "TAF EHEH 220526Z 2206/2312 09006KT CAVOK"
    },
    {
      "icao": "EKBI",
      "alert": "OK",
      "vis_m": 9999,
      "fzfg": false,
      "metar_trigger": false,
      "taf_trigger": false,
      "metar": "METAR EKBI 220720Z AUTO 10011KT 9999 BKN012/// 04/02 Q1020",
      "taf": "TAF EKBI 220527Z 2206/2306 10014KT 9999 BKN010"
    },
    {
      "icao": "EKCH",
      "alert": "OK",
      "vis_m": 9999,
      "fzfg": false,
      "metar_trigger": false,
      "taf_trigger": false,
      "metar": "METAR EKCH 220720Z 08011KT 9999 FEW013 BKN015 05/02 Q1023 TEMPO BKN013",
      "taf": "TAF EKCH 220527Z 2206/2306 09012KT 9999 BKN017"
    },
    {
      "icao": "ENTO",
      "alert": "OK",
      "vis_m": 9999,
      "fzfg": false,
      "metar_trigger": false,
      "taf_trigger": false,
      "metar": "METAR ENTO 220720Z 36007KT CAVOK M03/M04 Q1025 NOSIG",
      "taf": "TAF ENTO 220500Z 2206/2306 01008KT CAVOK"
    },
    {
      "icao": "EPGD",
      "alert": "OK",
      "vis_m": 9999,
      "fzfg": false,
      "metar_trigger": false,
      "taf_trigger": false,
      "metar": "METAR EPGD 220730Z VRB01KT 9999 BKN021 04/02 Q1023",
      "taf": "TAF EPGD 220530Z 2206/2306 VRB03KT 9999 BKN018"
    },
    {
      "icao": "EPKK",
      "alert": "OK",
      "vis_m": 2500,
      "fzfg": false,
      "metar_trigger": false,
      "taf_trigger": false,
      "metar": "METAR EPKK 220730Z 07010KT 2500 BR OVC003 02/02 Q1020",
      "taf": "TAF EPKK 220530Z 2206/2306 06009KT 3000 BR OVC002"
    },
    {
      "icao": "EPKT",
      "alert": "OK",
      "vis_m": 9000,
      "fzfg": false,
      "metar_trigger": false,
      "taf_trigger": false,
      "metar": "METAR EPKT 220730Z 09008KT 9000 OVC003 03/02 Q1019",
      "taf": "TAF EPKT 220530Z 2206/2306 07005KT 9999 OVC003"
    },
    {
      "icao": "EPWA",
      "alert": "OK",
      "vis_m": 9999,
      "fzfg": false,
      "metar_trigger": false,
      "taf_trigger": false,
      "metar": "METAR EPWA 220730Z 14002KT 9999 BKN024 02/M00 Q1023 NOSIG",
      "taf": "TAF EPWA 220530Z 2206/2306 VRB03KT 9999 BKN025"
    },
    {
      "icao": "EPWR",
      "alert": "OK",
      "vis_m": 3000,
      "fzfg": false,
      "metar_trigger": false,
      "taf_trigger": false,
      "metar": "METAR EPWR 220730Z 09009KT 3000 BR OVC003 04/04 Q1019",
      "taf": "TAF EPWR 220530Z 2206/2306 09009KT 1500 BR OVC003"
    },
    {
      "icao": "ESGG",
      "alert": "OK",
      "vis_m": 9999,
      "fzfg": false,
      "metar_trigger": false,
      "taf_trigger": false,
      "metar": "METAR ESGG 220720Z 10004KT CAVOK M01/M01 Q1023",
      "taf": "TAF ESGG 220530Z 2206/2306 09006KT CAVOK"
    },
    {
      "icao": "ESKN",
      "alert": "OK",
      "vis_m": 9999,
      "fzfg": false,
      "metar_trigger": false,
      "taf_trigger": false,
      "metar": "METAR ESKN 220720Z 29004KT CAVOK M05/M05 Q1024",
      "taf": "TAF ESKN 220530Z 2206/2306 31005KT CAVOK"
    },
    {
      "icao": "ESMX",
      "alert": "OK",
      "vis_m": 9999,
      "fzfg": false,
      "metar_trigger": false,
      "taf_trigger": false,
      "metar": "METAR ESMX 220720Z 36002KT 9999 BCFG NSC M04/M04 Q1024",
      "taf": "TAF ESMX 220530Z 2206/2215 01003KT CAVOK"
    },
    {
      "icao": "EVRA",
      "alert": "OK",
      "vis_m": 9999,
      "fzfg": false,
      "metar_trigger": false,
      "taf_trigger": false,
      "metar": "METAR EVRA 220720Z 32006KT 270V350 9999 BKN020 OVC023 05/02 Q1021 NOSIG",
      "taf": "TAF EVRA 220508Z 2206/2306 34010KT 9999 BKN020"
    },
    {
      "icao": "EYKA",
      "alert": "OK",
      "vis_m": 9999,
      "fzfg": false,
      "metar_trigger": false,
      "taf_trigger": false,
      "metar": "METAR EYKA 220720Z 29003KT 250V350 9999 BKN016 03/02 Q1022",
      "taf": "TAF EYKA 220500Z 2206/2306 VRB04KT 9000 OVC015"
    },
    {
      "icao": "EYVI",
      "alert": "OK",
      "vis_m": 9999,
      "fzfg": false,
      "metar_trigger": false,
      "taf_trigger": false,
      "metar": "METAR EYVI 220720Z 33007KT 9999 OVC009 02/01 Q1021 NOSIG",
      "taf": "TAF EYVI 220514Z 2206/2306 31007KT 9000 OVC010"
    },
    {
      "icao": "GCLP",
      "alert": "OK",
      "vis_m": 9999,
      "fzfg": false,
      "metar_trigger": false,
      "taf_trigger": false,
      "metar": "METAR GCLP 220700Z 36011KT 9999 -RA SCT020 BKN035 16/14 Q1019 NOSIG",
      "taf": "TAF GCLP 220200Z 2203/2303 01014KT 9999 SCT030 BKN035 TX20/2214Z TN15/2206Z"
    },
    {
      "icao": "GCTS",
      "alert": "OK",
      "vis_m": 9999,
      "fzfg": false,
      "metar_trigger": false,
      "taf_trigger": false,
      "metar": "METAR GCTS 220700Z 01008KT 9999 FEW030 15/07 Q1020 NOSIG",
      "taf": "TAF GCTS 220200Z 2203/2303 VRB05KT 9999 SCT035 TX24/2214Z TN16/2206Z"
    },
    {
      "icao": "HECA",
      "alert": "OK",
      "vis_m": 6000,
      "fzfg": false,
      "metar_trigger": false,
      "taf_trigger": false,
      "metar": "METAR HECA 220730Z 18012KT 6000 NSC 17/01 Q1015 NOSIG",
      "taf": "TAF HECA 220500Z 2206/2312 15009KT 6000 NSC"
    },
    {
      "icao": "HEGN",
      "alert": "OK",
      "vis_m": 9999,
      "fzfg": false,
      "metar_trigger": false,
      "taf_trigger": false,
      "metar": "METAR HEGN 220700Z 30005KT CAVOK 21/06 Q1016 NOSIG",
      "taf": "TAF HEGN 220500Z 2206/2312 27008KT CAVOK"
    },
    {
      "icao": "HESH",
      "alert": "OK",
      "vis_m": 9999,
      "fzfg": false,
      "metar_trigger": false,
      "taf_trigger": false,
      "metar": "METAR HESH 220700Z 34005KT CAVOK 22/13 Q1015 NOSIG",
      "taf": "TAF HESH 220500Z 2206/2312 30008KT CAVOK"
    },
    {
      "icao": "HESX",
      "alert": "OK",
      "vis_m": 9999,
      "fzfg": false,
      "metar_trigger": false,
      "taf_trigger": false,
      "metar": "METAR HESX 220700Z 18006KT CAVOK 14/02 Q1014 NOSIG",
      "taf": "TAF HESX 220500Z 2206/2312 20008KT CAVOK"
    },
    {
      "icao": "LATI",
      "alert": "OK",
      "vis_m": 9999,
      "fzfg": false,
      "metar_trigger": false,
      "taf_trigger": false,
      "metar": "METAR LATI 220720Z VRB02KT CAVOK 03/01 Q1015 NOSIG",
      "taf": "TAF LATI 220500Z 2206/2306 VRB05KT CAVOK TX17/2212Z TN01/2305Z"
    },
    {
      "icao": "LBSF",
      "alert": "OK",
      "vis_m": 5000,
      "fzfg": false,
      "metar_trigger": false,
      "taf_trigger": false,
      "metar": "METAR LBSF 220730Z VRB01KT 5000 BR FEW007 BKN029 00/M00 Q1020 NOSIG",
      "taf": "TAF LBSF 220500Z 2206/2306 VRB04KT 5000 BR SCT007 BKN020"
    },
    {
      "icao": "LBWN",
      "alert": "OK",
      "vis_m": 9999,
      "fzfg": false,
      "metar_trigger": false,
      "taf_trigger": false,
      "metar": "METAR LBWN 220730Z 35009KT 9999 OVC015 06/05 Q1021 NOSIG",
      "taf": "TAF LBWN 220500Z 2206/2306 35010KT 9999 BKN012 OVC020"
    },
    {
      "icao": "LCLK",
      "alert": "OK",
      "vis_m": 9999,
      "fzfg": false,
      "metar_trigger": false,
      "taf_trigger": false,
      "metar": "METAR LCLK 220730Z 06016KT 9999 FEW020 FEW025TCU SCT055 20/15 Q1015 NOSIG",
      "taf": "TAF LCLK 220530Z 2206/2306 03012KT 9999 FEW020 SCT030"
    },
    {
      "icao": "LDDU",
      "alert": "OK",
      "vis_m": 9999,
      "fzfg": false,
      "metar_trigger": false,
      "taf_trigger": false,
      "metar": "METAR LDDU 220730Z 07006KT CAVOK 10/02 Q1015 NOSIG",
      "taf": "TAF LDDU 220525Z 2206/2306 08007KT CAVOK TX15/2212Z TN08/2206Z"
    },
    {
      "icao": "LDSP",
      "alert": "OK",
      "vis_m": 9999,
      "fzfg": false,
      "metar_trigger": false,
      "taf_trigger": false,
      "metar": "METAR LDSP 220730Z 02003KT 340V070 CAVOK 07/03 Q1015 NOSIG",
      "taf": "TAF LDSP 220525Z 2206/2306 31004KT CAVOK TX15/2212Z TN07/2206Z"
    },
    {
      "icao": "LDZA",
      "alert": "OK",
      "vis_m": 3000,
      "fzfg": false,
      "metar_trigger": false,
      "taf_trigger": false,
      "metar": "METAR LDZA 220730Z 00000KT 3000 BR FEW003 OVC015 03/03 Q1019 TEMPO BKN004",
      "taf": "TAF LDZA 220525Z 2206/2306 VRB02KT 7000 OVC015 TX06/2213Z TN01/2305Z"
    },
    {
      "icao": "LEAL",
      "alert": "OK",
      "vis_m": 9999,
      "fzfg": false,
      "metar_trigger": false,
      "taf_trigger": false,
      "metar": "METAR LEAL 220700Z 26008KT CAVOK 08/02 Q1007 NOSIG",
      "taf": "TAF LEAL 220500Z 2206/2306 28008KT 9999 FEW040 TX13/2213Z TN08/2207Z"
    },
    {
      "icao": "LEBL",
      "alert": "OK",
      "vis_m": 9999,
      "fzfg": false,
      "metar_trigger": false,
      "taf_trigger": false,
      "metar": "METAR LEBL 220700Z 31010KT 270V330 9999 -DZ BKN047 08/04 Q1003 NOSIG",
      "taf": "TAF LEBL 220500Z 2206/2306 32012KT 9999 SCT040 TX12/2213Z TN06/2306Z"
    },
    {
      "icao": "LECH",
      "alert": "OK",
      "vis_m": 9999,
      "fzfg": false,
      "metar_trigger": false,
      "taf_trigger": false,
      "metar": "METAR LECH 220700Z 29005KT 250V350 CAVOK 07/M04 Q1004",
      "taf": ""
    },
    {
      "icao": "LEMD",
      "alert": "OK",
      "vis_m": 8000,
      "fzfg": false,
      "metar_trigger": false,
      "taf_trigger": false,
      "metar": "METAR LEMD 220700Z 17005KT 110V230 8000 FEW002 SCT005 BKN040 00/00 Q1007 TEMPO BKN005",
      "taf": "TAF LEMD 220500Z 2206/2312 VRB04KT 9999 SCT020 TX07/2215Z TNM01/2306Z"
    },
    {
      "icao": "LEMG",
      "alert": "OK",
      "vis_m": 9999,
      "fzfg": false,
      "metar_trigger": false,
      "taf_trigger": false,
      "metar": "METAR LEMG 220700Z 30007KT 270V330 9999 FEW030 06/02 Q1012 NOSIG",
      "taf": "TAF LEMG 220500Z 2206/2306 30005KT 9999 FEW040 TX14/2214Z TN07/2206Z"
    },
    {
      "icao": "LERS",
      "alert": "OK",
      "vis_m": 9999,
      "fzfg": false,
      "metar_trigger": false,
      "taf_trigger": false,
      "metar": "METAR LERS 220700Z VRB01KT 9999 FEW020 08/02 Q1004",
      "taf": "TAF LERS 220200Z 2203/2303 VRB04KT 9999 FEW020 TX12/2213Z TN06/2206Z"
    },
    {
      "icao": "LEVC",
      "alert": "OK",
      "vis_m": 9999,
      "fzfg": false,
      "metar_trigger": false,
      "taf_trigger": false,
      "metar": "METAR LEVC 220700Z 27007KT CAVOK 06/M01 Q1006 NOSIG",
      "taf": "TAF LEVC 220500Z 2206/2306 27010KT 9999 FEW040 TX12/2213Z TN05/2207Z"
    },
    {
      "icao": "LFLL",
      "alert": "OK",
      "vis_m": 4000,
      "fzfg": false,
      "metar_trigger": false,
      "taf_trigger": false,
      "metar": "METAR LFLL 220730Z VRB02KT 4000 -RA BR FEW002 BKN060 07/07 Q1006 TEMPO 4500 -RA BKN012",
      "taf": "TAF LFLL 220500Z 2206/2312 15005KT CAVOK"
    },
    {
      "icao": "LFMN",
      "alert": "OK",
      "vis_m": 9999,
      "fzfg": false,
      "metar_trigger": false,
      "taf_trigger": false,
      "metar": "METAR LFMN 220730Z 06018G29KT 030V090 9999 -RA BKN043 15/08 Q1009 NOSIG",
      "taf": "TAF LFMN 220200Z 2203/2309 08015KT 9999 BKN040"
    },
    {
      "icao": "LFOB",
      "alert": "OK",
      "vis_m": 9999,
      "fzfg": false,
      "metar_trigger": false,
      "taf_trigger": false,
      "metar": "METAR LFOB 220730Z AUTO 09006KT 9999 BKN012 BKN021 OVC180 08/07 Q1007 BECMG FEW020 BKN120",
      "taf": ""
    },
    {
      "icao": "LFPO",
      "alert": "OK",
      "vis_m": 9999,
      "fzfg": false,
      "metar_trigger": false,
      "taf_trigger": false,
      "metar": "METAR LFPO 220730Z 23003KT 200V260 9999 FEW013 BKN200 08/08 Q1006 NOSIG",
      "taf": "TAF LFPO 220500Z 2206/2312 10003KT CAVOK"
    },
    {
      "icao": "LFSB",
      "alert": "OK",
      "vis_m": 9999,
      "fzfg": false,
      "metar_trigger": false,
      "taf_trigger": false,
      "metar": "METAR LFSB 220730Z AUTO 15004KT 9999 SCT007 BKN130 OVC240 01/00 Q1009 TEMPO 4000 BR BECMG BKN003",
      "taf": "TAF LFSB 220500Z 2206/2306 07004KT CAVOK"
    },
    {
      "icao": "LGAV",
      "alert": "OK",
      "vis_m": 9999,
      "fzfg": false,
      "metar_trigger": false,
      "taf_trigger": false,
      "metar": "METAR LGAV 220720Z 03010KT 9999 FEW025 SCT040 BKN070 14/09 Q1016 NOSIG",
      "taf": "TAF LGAV 220500Z 2206/2306 03015KT 9999 SCT035"
    },
    {
      "icao": "LGIR",
      "alert": "OK",
      "vis_m": 9999,
      "fzfg": false,
      "metar_trigger": false,
      "taf_trigger": false,
      "metar": "METAR LGIR 220720Z 19006KT 9999 FEW020 14/11 Q1014 NOSIG",
      "taf": "TAF LGIR 220500Z 2206/2306 18010KT 9999 SCT020 SCT080"
    },
    {
      "icao": "LGKR",
      "alert": "OK",
      "vis_m": 9999,
      "fzfg": false,
      "metar_trigger": false,
      "taf_trigger": false,
      "metar": "METAR LGKR 220720Z 00000KT 9999 FEW020 SCT040 10/09 Q1013 NOSIG",
      "taf": "TAF LGKR 220500Z 2206/2306 VRB03KT 9999 FEW010 SCT020"
    },
    {
      "icao": "LGRP",
      "alert": "OK",
      "vis_m": 4000,
      "fzfg": false,
      "metar_trigger": false,
      "taf_trigger": false,
      "metar": "METAR LGRP 220720Z 27003KT 4000 1500E TSRA FEW016CB FEW018TCU BKN020 14/12 Q1013 NOSIG",
      "taf": ""
    },
    {
      "icao": "LGTS",
      "alert": "OK",
      "vis_m": 9000,
      "fzfg": false,
      "metar_trigger": false,
      "taf_trigger": false,
      "metar": "METAR LGTS 220720Z 12004KT 9000 FEW008 08/08 Q1019 NOSIG",
      "taf": "TAF LGTS 220500Z 2206/2306 VRB03KT 9999 FEW025"
    },
    {
      "icao": "LGZA",
      "alert": "OK",
      "vis_m": 9999,
      "fzfg": false,
      "metar_trigger": false,
      "taf_trigger": false,
      "metar": "METAR LGZA 220650Z 00000KT 9999 SCT020 BKN080 12/10 Q1013",
      "taf": "TAF LGZA 220500Z 2206/2215 08010KT 9999 FEW020 BKN080"
    },
    {
      "icao": "LHBP",
      "alert": "OK",
      "vis_m": 3500,
      "fzfg": false,
      "metar_trigger": false,
      "taf_trigger": false,
      "metar": "METAR LHBP 220730Z 10005KT 070V130 3500 -DZ BR OVC003 03/03 Q1021 TEMPO 2500",
      "taf": "TAF LHBP 220515Z 2206/2306 12005KT 6000 OVC010"
    },
    {
      "icao": "LHDC",
      "alert": "OK",
      "vis_m": 2500,
      "fzfg": false,
      "metar_trigger": false,
      "taf_trigger": false,
      "metar": "METAR LHDC 220715Z AUTO 00000KT 2500 BR OVC019 05/05 Q1021 NOSIG",
      "taf": "TAF LHDC 220515Z 2206/2215 VRB03KT 6000 OVC017"
    },
    {
      "icao": "LIBD",
      "alert": "OK",
      "vis_m": 7000,
      "fzfg": false,
      "metar_trigger": false,
      "taf_trigger": false,
      "metar": "METAR LIBD 220720Z 22004KT 7000 FEW045 07/07 Q1014",
      "taf": "TAF LIBD 220500Z 2206/2306 VRB05KT 9999 FEW030"
    },
    {
      "icao": "LICC",
      "alert": "OK",
      "vis_m": 9999,
      "fzfg": false,
      "metar_trigger": false,
      "taf_trigger": false,
      "metar": "METAR LICC 220720Z 25006KT 9999 SCT020 SCT070 13/12 Q1011",
      "taf": "TAF LICC 220500Z 2206/2306 VRB06KT 8000 RA BKN012"
    },
    {
      "icao": "LICJ",
      "alert": "OK",
      "vis_m": 9999,
      "fzfg": false,
      "metar_trigger": false,
      "taf_trigger": false,
      "metar": "METAR LICJ 220720Z VRB01KT 9999 FEW050 13/10 Q1010",
      "taf": "TAF LICJ 220500Z 2206/2306 VRB05KT 9999 FEW040"
    },
    {
      "icao": "LIEO",
      "alert": "OK",
      "vis_m": 7000,
      "fzfg": false,
      "metar_trigger": false,
      "taf_trigger": false,
      "metar": "METAR LIEO 220720Z VRB02KT 7000 2000S R05/1400U R23/P2000N BCFG SCT010 09/09 Q1007",
      "taf": "TAF LIEO 220500Z 2206/2306 VRB05KT 9999 SCT020"
    },
    {
      "icao": "LIMC",
      "alert": "OK",
      "vis_m": 9999,
      "fzfg": false,
      "metar_trigger": false,
      "taf_trigger": false,
      "metar": "METAR LIMC 220720Z 03004KT 9999 BKN045 08/06 Q1015 NOSIG",
      "taf": "TAF LIMC 220500Z 2206/2312 VRB03KT 9999 BKN035"
    },
    {
      "icao": "LIME",
      "alert": "OK",
      "vis_m": 9999,
      "fzfg": false,
      "metar_trigger": false,
      "taf_trigger": false,
      "metar": "METAR LIME 220720Z 36004KT 9999 SCT090 06/04 Q1015 NOSIG",
      "taf": "TAF LIME 220500Z 2206/2306 VRB03KT 8000 BKN035"
    },
    {
      "icao": "LIPH",
      "alert": "OK",
      "vis_m": 9999,
      "fzfg": false,
      "metar_trigger": false,
      "taf_trigger": false,
      "metar": "METAR LIPH 220720Z 35003KT 330V030 CAVOK 03/02 Q1015",
      "taf": "TAF LIPH 220500Z 2206/2306 VRB04KT 9999 FEW030"
    },
    {
      "icao": "LIPQ",
      "alert": "OK",
      "vis_m": 9999,
      "fzfg": false,
      "metar_trigger": false,
      "taf_trigger": false,
      "metar": "METAR LIPQ 220720Z AUTO 07001KT 9999 NCD 03/01 Q1016",
      "taf": "TAF LIPQ 220500Z 2206/2306 07007KT CAVOK"
    },
    {
      "icao": "LIPX",
      "alert": "OK",
      "vis_m": 9999,
      "fzfg": false,
      "metar_trigger": false,
      "taf_trigger": false,
      "metar": "METAR LIPX 220720Z 35003KT 300V030 9999 SCT065 02/01 Q1015",
      "taf": "TAF LIPX 220500Z 2206/2306 VRB03KT 9999 BKN040"
    },
    {
      "icao": "LIPY",
      "alert": "OK",
      "vis_m": 5000,
      "fzfg": false,
      "metar_trigger": false,
      "taf_trigger": false,
      "metar": "METAR LIPY 220720Z AUTO 18003KT 5000 BR OVC072/// 10/10 Q1014",
      "taf": "TAF LIPY 220500Z 2206/2306 VRB05KT 3000 BR BKN010"
    },
    {
      "icao": "LIPZ",
      "alert": "OK",
      "vis_m": 9999,
      "fzfg": false,
      "metar_trigger": false,
      "taf_trigger": false,
      "metar": "METAR LIPZ 220720Z 04005KT 9999 FEW070 03/01 Q1016 NOSIG",
      "taf": "TAF LIPZ 220500Z 2206/2312 03005KT 9999 FEW030"
    },
    {
      "icao": "LIRA",
      "alert": "OK",
      "vis_m": 9999,
      "fzfg": false,
      "metar_trigger": false,
      "taf_trigger": false,
      "metar": "METAR LIRA 220720Z 01003KT 330V080 9999 SCT060 12/06 Q1011",
      "taf": "TAF LIRA 220500Z 2206/2306 05005KT 9999 SCT060"
    },
    {
      "icao": "LIRN",
      "alert": "OK",
      "vis_m": 9999,
      "fzfg": false,
      "metar_trigger": false,
      "taf_trigger": false,
      "metar": "METAR LIRN 220720Z 32004KT 290V010 CAVOK 13/08 Q1012 NOSIG",
      "taf": "TAF LIRN 220500Z 2206/2306 05005KT 9999 SCT050"
    },
    {
      "icao": "LLBG",
      "alert": "OK",
      "vis_m": 9999,
      "fzfg": false,
      "metar_trigger": false,
      "taf_trigger": false,
      "metar": "METAR LLBG 220720Z VRB02KT CAVOK 18/06 Q1015 NOSIG",
      "taf": "TAF LLBG 220501Z 2206/2306 VRB04KT CAVOK"
    },
    {
      "icao": "LMML",
      "alert": "OK",
      "vis_m": 9999,
      "fzfg": false,
      "metar_trigger": false,
      "taf_trigger": false,
      "metar": "METAR LMML 220715Z 30003KT 9999 FEW018 12/11 Q1010 NOSIG",
      "taf": "TAF LMML 220500Z 2206/2306 VRB05KT 9999 SCT022"
    },
    {
      "icao": "LOWW",
      "alert": "OK",
      "vis_m": 9999,
      "fzfg": false,
      "metar_trigger": false,
      "taf_trigger": false,
      "metar": "METAR LOWW 220720Z 14013KT 9999 FEW003 BKN006 03/02 Q1018 TEMPO BKN011",
      "taf": ""
    },
    {
      "icao": "LPFR",
      "alert": "OK",
      "vis_m": 9999,
      "fzfg": false,
      "metar_trigger": false,
      "taf_trigger": false,
      "metar": "METAR LPFR 220700Z 34003KT 9999 FEW015 05/04 Q1013",
      "taf": "TAF LPFR 220500Z 2206/2306 VRB02KT 9999 FEW015"
    },
    {
      "icao": "LPPR",
      "alert": "OK",
      "vis_m": 9999,
      "fzfg": false,
      "metar_trigger": false,
      "taf_trigger": false,
      "metar": "METAR LPPR 220700Z 13005KT 9999 SCT035 BKN044 06/06 Q1009",
      "taf": "TAF LPPR 220500Z 2206/2306 VRB02KT 9999 FEW015 SCT030"
    },
    {
      "icao": "LPPT",
      "alert": "OK",
      "vis_m": 9999,
      "fzfg": false,
      "metar_trigger": false,
      "taf_trigger": false,
      "metar": "METAR LPPT 220700Z 22006KT 9999 FEW025 07/06 Q1012",
      "taf": "TAF LPPT 220500Z 2206/2312 VRB05KT 9999 SCT030"
    },
    {
      "icao": "LQSA",
      "alert": "OK",
      "vis_m": 9999,
      "fzfg": false,
      "metar_trigger": false,
      "taf_trigger": false,
      "metar": "METAR LQSA 220700Z 14005KT 100V160 9999 BKN012 00/M01 Q1018 NOSIG",
      "taf": "TAF LQSA 220500Z 2206/2306 VRB02KT 9999 BKN012 TX06/2213Z TNM04/2305Z"
    },
    {
      "icao": "LQTZ",
      "alert": "OK",
      "vis_m": 6000,
      "fzfg": false,
      "metar_trigger": false,
      "taf_trigger": false,
      "metar": "METAR LQTZ 220700Z 00000KT 6000 OVC017 04/04 Q1019",
      "taf": "TAF LQTZ 220500Z 2206/2306 VRB02KT 6000 BKN015 TX05/2213Z TNM01/2305Z"
    },
    {
      "icao": "LRCL",
      "alert": "OK",
      "vis_m": 7000,
      "fzfg": false,
      "metar_trigger": false,
      "taf_trigger": false,
      "metar": "METAR LRCL 220700Z 13005KT 7000 OVC005 02/02 Q1021",
      "taf": "TAF LRCL 220500Z 2206/2215 VRB04KT 9999 OVC010"
    },
    {
      "icao": "LRCV",
      "alert": "OK",
      "vis_m": 2000,
      "fzfg": false,
      "metar_trigger": false,
      "taf_trigger": false,
      "metar": "METAR LRCV 220700Z 00000KT 2000 BR OVC004 04/03 Q1022",
      "taf": "TAF LRCV 220500Z 2206/2215 VRB04KT 3000 BR OVC005"
    },
    {
      "icao": "LRIA",
      "alert": "OK",
      "vis_m": 3500,
      "fzfg": false,
      "metar_trigger": false,
      "taf_trigger": false,
      "metar": "METAR LRIA 220700Z 33003KT 290V350 3500 BR BKN003 OVC006 03/03 Q1022",
      "taf": "TAF LRIA 220500Z 2206/2215 VRB04KT 5000 BR OVC005"
    },
    {
      "icao": "LROP",
      "alert": "OK",
      "vis_m": 2500,
      "fzfg": false,
      "metar_trigger": false,
      "taf_trigger": false,
      "metar": "METAR LROP 220700Z 07005KT 2500 BR SCT002 OVC003 03/03 Q1023 NOSIG",
      "taf": "TAF LROP 220500Z 2206/2306 07008KT 3000 -DZ BR BKN002 OVC010"
    },
    {
      "icao": "LRSB",
      "alert": "OK",
      "vis_m": 700,
      "fzfg": true,
      "metar_trigger": false,
      "taf_trigger": false,
      "metar": "METAR LRSB 220700Z VRB01KT 0700 R27/P2000 FZFG OVC002 M02/M02 Q1020",
      "taf": "TAF LRSB 220500Z 2206/2306 VRB04KT 0800 FZFG OVC002"
    },
    {
      "icao": "LRTR",
      "alert": "OK",
      "vis_m": 3500,
      "fzfg": false,
      "metar_trigger": false,
      "taf_trigger": false,
      "metar": "METAR LRTR 220700Z 08002KT 3500 -DZ BR BKN003 OVC007 03/03 Q1021",
      "taf": "TAF LRTR 220500Z 2206/2306 VRB04KT 3000 BR OVC002"
    },
    {
      "icao": "LTAF",
      "alert": "OK",
      "vis_m": 9999,
      "fzfg": false,
      "metar_trigger": false,
      "taf_trigger": false,
      "metar": "METAR LTAF 220650Z 02006KT CAVOK 14/M00 Q1018 NOSIG RMK RWY23 04007KT 5AC100",
      "taf": "TAF LTAF 220440Z 2206/2306 05009KT CAVOK"
    },
    {
      "icao": "LTAI",
      "alert": "OK",
      "vis_m": 9999,
      "fzfg": false,
      "metar_trigger": false,
      "taf_trigger": false,
      "metar": "METAR LTAI 220650Z 35006KT 9999 BKN030 BKN080 13/09 Q1015 NOSIG RMK RWY18C 35003KT RWY36R 35005KT RWY18L VRB02KT",
      "taf": "TAF LTAI 220440Z 2206/2306 34009KT 9999 SCT030 BKN100"
    },
    {
      "icao": "LTFM",
      "alert": "OK",
      "vis_m": 9999,
      "fzfg": false,
      "metar_trigger": false,
      "taf_trigger": false,
      "metar": "METAR LTFM 220650Z 05017KT 9999 BKN012 BKN022 12/08 Q1018 NOSIG RMK RWY17L 05015KT RWY34L 04016KT RWY16R 05013KT RWY36 05016KT RWY18 06014KT",
      "taf": "TAF LTFM 220440Z 2206/2312 03017G27KT 9999 -SHRA BKN012 BKN022"
    },
    {
      "icao": "LUBL",
      "alert": "OK",
      "vis_m": null,
      "fzfg": false,
      "metar_trigger": false,
      "taf_trigger": false,
      "metar": "",
      "taf": ""
    },
    {
      "icao": "LUKK",
      "alert": "OK",
      "vis_m": 8000,
      "fzfg": false,
      "metar_trigger": false,
      "taf_trigger": false,
      "metar": "METAR LUKK 220700Z VRB02KT 8000 -DZ OVC005 02/02 Q1022 NOSIG",
      "taf": "TAF LUKK 220518Z 2206/2306 35005KT 5000 BR OVC005"
    },
    {
      "icao": "LWSK",
      "alert": "OK",
      "vis_m": 5000,
      "fzfg": false,
      "metar_trigger": false,
      "taf_trigger": false,
      "metar": "METAR LWSK 220720Z VRB01KT 5000 BR BKN004 OVC007 01/01 Q1021 NOSIG",
      "taf": "TAF LWSK 220510Z 2206/2306 VRB02KT 7000 OVC005"
    },
    {
      "icao": "LYBE",
      "alert": "OK",
      "vis_m": 5000,
      "fzfg": false,
      "metar_trigger": false,
      "taf_trigger": false,
      "metar": "METAR LYBE 220700Z 08006KT 5000 BR SCT007 OVC015 04/03 Q1020 TEMPO BKN007 OVC015",
      "taf": "TAF LYBE 220500Z 2206/2306 11008KT 9999 BKN010 OVC020 TX08/2213Z TN01/2306Z"
    },
    {
      "icao": "LZIB",
      "alert": "OK",
      "vis_m": 9999,
      "fzfg": false,
      "metar_trigger": false,
      "taf_trigger": false,
      "metar": "METAR LZIB 220730Z 10011KT 9999 -DZ SCT006 BKN008 OVC014 03/02 Q1019 NOSIG",
      "taf": "TAF LZIB 220515Z 2206/2306 12009KT 6000 SCT003 OVC011"
    },
    {
      "icao": "LZKZ",
      "alert": "OK",
      "vis_m": 8000,
      "fzfg": false,
      "metar_trigger": false,
      "taf_trigger": false,
      "metar": "METAR LZKZ 220730Z 05002KT 8000 BKN007 OVC016 05/03 Q1020 NOSIG",
      "taf": ""
    },
    {
      "icao": "LZTT",
      "alert": "OK",
      "vis_m": 350,
      "fzfg": false,
      "metar_trigger": false,
      "taf_trigger": false,
      "metar": "METAR LZTT 220730Z 00000KT 0350 R27/0700N FG OVC002 00/M00 Q1019 TEMPO 2000 BR BKN005",
      "taf": "TAF LZTT 220515Z 2206/2306 VRB02KT 4000 FEW003 BKN011"
    },
    {
      "icao": "OEJN",
      "alert": "OK",
      "vis_m": 9999,
      "fzfg": false,
      "metar_trigger": false,
      "taf_trigger": false,
      "metar": "METAR OEJN 220700Z VRB03KT 9999 FEW040 29/10 Q1013 NOSIG",
      "taf": "TAF OEJN 220500Z 2206/2312 VRB03KT 9999 FEW040"
    },
    {
      "icao": "OEMA",
      "alert": "OK",
      "vis_m": 9999,
      "fzfg": false,
      "metar_trigger": false,
      "taf_trigger": false,
      "metar": "METAR OEMA 220700Z 08008KT CAVOK 18/M02 Q1020 NOSIG",
      "taf": "TAF OEMA 220500Z 2206/2312 12010KT CAVOK"
    },
    {
      "icao": "OERK",
      "alert": "OK",
      "vis_m": 9999,
      "fzfg": false,
      "metar_trigger": false,
      "taf_trigger": false,
      "metar": "METAR OERK 220700Z 14006KT CAVOK 14/07 Q1024 NOSIG",
      "taf": "TAF OERK 220500Z 2206/2312 16010KT CAVOK"
    },
    {
      "icao": "OJAI",
      "alert": "OK",
      "vis_m": 5000,
      "fzfg": false,
      "metar_trigger": false,
      "taf_trigger": false,
      "metar": "METAR OJAI 220700Z 00000KT 5000 HZ NSC 09/02 Q1018 NOSIG",
      "taf": "TAF OJAI 220500Z 2206/2312 12010KT 5000 HZ NSC"
    },
    {
      "icao": "OKBK",
      "alert": "OK",
      "vis_m": null,
      "fzfg": false,
      "metar_trigger": false,
      "taf_trigger": false,
      "metar": "",
      "taf": ""
    },
    {
      "icao": "OMAA",
      "alert": "OK",
      "vis_m": 9999,
      "fzfg": false,
      "metar_trigger": false,
      "taf_trigger": false,
      "metar": "METAR OMAA 220700Z 04009KT CAVOK 22/07 Q1021 NOSIG",
      "taf": "TAF OMAA 220500Z 2206/2312 07007KT 8000 NSC"
    },
    {
      "icao": "UAAA",
      "alert": "OK",
      "vis_m": 4500,
      "fzfg": false,
      "metar_trigger": false,
      "taf_trigger": false,
      "metar": "METAR UAAA 220700Z 34002MPS 4500 BR SCT200 M02/M03 Q1029 NOSIG",
      "taf": "TAF UAAA 220503Z 2206/2306 04003G08MPS 3100 BR FU SCT030 BKN100 TXM00/2207Z TNM06/2301Z"
    },
    {
      "icao": "UCFM",
      "alert": "CRITICAL",
      "vis_m": 100,
      "fzfg": true,
      "metar_trigger": true,
      "taf_trigger": false,
      "metar": "METAR UCFM 220700Z VRB01MPS 0100 R07/0150N FZFG BKN001 M03/M03 Q1028 NOSIG",
      "taf": ""
    },
    {
      "icao": "UDYZ",
      "alert": "OK",
      "vis_m": 2100,
      "fzfg": false,
      "metar_trigger": false,
      "taf_trigger": false,
      "metar": "METAR UDYZ 220700Z 00000KT 2100 R08/1900N BR NSC 01/M03 Q1024 NOSIG",
      "taf": "TAF UDYZ 220500Z 2206/2306 VRB04KT 6000 SCT040"
    },
    {
      "icao": "UGTB",
      "alert": "OK",
      "vis_m": 9999,
      "fzfg": false,
      "metar_trigger": false,
      "taf_trigger": false,
      "metar": "METAR UGTB 220700Z 27010KT 240V310 CAVOK 04/M02 Q1019 NOSIG",
      "taf": "TAF UGTB 220500Z 2206/2306 31015KT CAVOK TX10/2212Z TN02/2303Z"
    },
    {
      "icao": "UKKK",
      "alert": "OK",
      "vis_m": null,
      "fzfg": false,
      "metar_trigger": false,
      "taf_trigger": false,
      "metar": "",
      "taf": ""
    },
    {
      "icao": "UTTT",
      "alert": "OK",
      "vis_m": null,
      "fzfg": false,
      "metar_trigger": false,
      "taf_trigger": false,
      "metar": "",
      "taf": ""
    }
  ]
}