{
  "ts_utc": "2026-01-15T03:48:24Z",
  "threshold_m": 150,
  "source": "stations_override.txt (ICAO list) + aviationweather.gov (METAR/TAF raw)",
  "station_count": 159,
  "stations": [
    {
      "icao": "BIKF",
      "alert": "OK",
      "vis_m": 9999,
      "fzfg": false,
      "metar_trigger": false,
      "taf_trigger": false,
      "metar": "METAR BIKF 150330Z 02010KT 9999 -SN FEW020 OVC047 01/M01 Q0986",
      "taf": "TAF BIKF 150108Z 1503/1603 07010KT 9999 -RA BKN017 OVC032 TX01/1503Z TNM01/1510Z"
    },
    {
      "icao": "BKPR",
      "alert": "OK",
      "vis_m": 9999,
      "fzfg": false,
      "metar_trigger": false,
      "taf_trigger": false,
      "metar": "METAR BKPR 150330Z VRB02KT 9999 BKN060 01/00 Q1024 NOSIG",
      "taf": "TAF BKPR 142330Z 1500/1524 VRB03KT 9999 BKN050"
    },
    {
      "icao": "EBCI",
      "alert": "OK",
      "vis_m": 9999,
      "fzfg": false,
      "metar_trigger": false,
      "taf_trigger": false,
      "metar": "METAR EBCI 150320Z 20012KT 9999 BKN023 09/07 Q1010 TEMPO BKN012",
      "taf": "TAF EBCI 142326Z 1500/1606 20010KT 9999 FEW012 SCT020"
    },
    {
      "icao": "EDDB",
      "alert": "OK",
      "vis_m": 9999,
      "fzfg": false,
      "metar_trigger": false,
      "taf_trigger": false,
      "metar": "METAR EDDB 150320Z AUTO 12005KT 9999 OVC020 00/00 Q1016",
      "taf": "TAF EDDB 142300Z 1500/1524 14006KT 1000 BCFG FEW001"
    },
    {
      "icao": "EDDH",
      "alert": "OK",
      "vis_m": 9999,
      "fzfg": false,
      "metar_trigger": false,
      "taf_trigger": false,
      "metar": "METAR EDDH 150320Z AUTO 15009KT 9999 BKN008 BKN026 02/01 Q1012 TEMPO 4000 BR",
      "taf": "TAF EDDH 142300Z 1500/1606 16008KT 9999 SCT025"
    },
    {
      "icao": "EDDK",
      "alert": "OK",
      "vis_m": 9999,
      "fzfg": false,
      "metar_trigger": false,
      "taf_trigger": false,
      "metar": "METAR EDDK 150320Z AUTO 14009KT 9999 SHRA BKN023 OVC037 FEW///TCU 08/07 Q1012 NOSIG",
      "taf": "TAF EDDK 142300Z 1500/1606 14006KT CAVOK"
    },
    {
      "icao": "EDDN",
      "alert": "OK",
      "vis_m": 9999,
      "fzfg": false,
      "metar_trigger": false,
      "taf_trigger": false,
      "metar": "METAR EDDN 150320Z AUTO 16004KT 9999 -DZ SCT033 OVC046 04/03 Q1016",
      "taf": "TAF EDDN 142300Z 1500/1524 13006KT 9999 OVC030"
    },
    {
      "icao": "EDDS",
      "alert": "OK",
      "vis_m": 9999,
      "fzfg": false,
      "metar_trigger": false,
      "taf_trigger": false,
      "metar": "METAR EDDS 150320Z AUTO 07003KT 9999 SCT047 04/03 Q1015",
      "taf": "TAF EDDS 142300Z 1500/1524 VRB03KT CAVOK"
    },
    {
      "icao": "EDFH",
      "alert": "OK",
      "vis_m": 9999,
      "fzfg": false,
      "metar_trigger": false,
      "taf_trigger": false,
      "metar": "METAR EDFH 150320Z 22009KT 200V260 9999 -RA BKN007 OVC010 08/07 Q1013",
      "taf": "TAF EDFH 142300Z 1500/1524 20009KT 9999 BKN020"
    },
    {
      "icao": "EDJA",
      "alert": "OK",
      "vis_m": 9999,
      "fzfg": false,
      "metar_trigger": false,
      "taf_trigger": false,
      "metar": "METAR EDJA 150320Z AUTO 20007KT 9999 // BKN130/// BKN150/// 03/M01 Q1017",
      "taf": "TAF EDJA 150200Z 1503/1512 21005KT CAVOK"
    },
    {
      "icao": "EDLW",
      "alert": "OK",
      "vis_m": 9999,
      "fzfg": false,
      "metar_trigger": false,
      "taf_trigger": false,
      "metar": "METAR EDLW 150320Z AUTO 15008KT 9999 // BKN056/// OVC066/// 09/07 Q1011",
      "taf": ""
    },
    {
      "icao": "EDNY",
      "alert": "OK",
      "vis_m": 7000,
      "fzfg": false,
      "metar_trigger": false,
      "taf_trigger": false,
      "metar": "METAR EDNY 150320Z AUTO 07002KT 7000 OVC140/// M01/M01 Q1018",
      "taf": "TAF EDNY 150200Z 1503/1512 VRB02KT 5000 BR FEW001"
    },
    {
      "icao": "EDSB",
      "alert": "OK",
      "vis_m": 9999,
      "fzfg": false,
      "metar_trigger": false,
      "taf_trigger": false,
      "metar": "METAR EDSB 150320Z AUTO 22003KT 9999 OVC050/// 07/06 Q1016",
      "taf": "TAF EDSB 142300Z 1500/1524 21004KT CAVOK"
    },
    {
      "icao": "EETN",
      "alert": "OK",
      "vis_m": 9999,
      "fzfg": false,
      "metar_trigger": false,
      "taf_trigger": false,
      "metar": "METAR EETN 150320Z 15011KT CAVOK M11/M13 Q1016",
      "taf": "TAF EETN 142330Z 1500/1524 15012KT 9999 SCT025"
    },
    {
      "icao": "EFTU",
      "alert": "OK",
      "vis_m": 5000,
      "fzfg": false,
      "metar_trigger": false,
      "taf_trigger": false,
      "metar": "METAR EFTU 150320Z AUTO 13012KT 5000 -SN FEW011 BKN031 M07/M09 Q1012",
      "taf": "TAF EFTU 150237Z 1503/1603 13011KT 2500 -SN OVC015"
    },
    {
      "icao": "EGBB",
      "alert": "OK",
      "vis_m": 9999,
      "fzfg": false,
      "metar_trigger": false,
      "taf_trigger": false,
      "metar": "METAR EGBB 150320Z 21007KT 160V240 9999 OVC008 07/05 Q1002",
      "taf": "TAF EGBB 142255Z 1500/1524 18009KT 9999 SCT010"
    },
    {
      "icao": "EGGP",
      "alert": "OK",
      "vis_m": 9999,
      "fzfg": false,
      "metar_trigger": false,
      "taf_trigger": false,
      "metar": "METAR EGGP 150320Z AUTO 09004KT 050V150 9999 FEW031/// 04/02 Q1000",
      "taf": "TAF EGGP 142303Z 1500/1524 16007KT 9999 SCT025"
    },
    {
      "icao": "EGGW",
      "alert": "OK",
      "vis_m": 9999,
      "fzfg": false,
      "metar_trigger": false,
      "taf_trigger": false,
      "metar": "METAR EGGW 150320Z AUTO 22010KT 9999 OVC009 07/06 Q1004",
      "taf": "TAF EGGW 142257Z 1500/1524 21010KT 9999 SCT008 BKN020"
    },
    {
      "icao": "EGKK",
      "alert": "OK",
      "vis_m": 9999,
      "fzfg": false,
      "metar_trigger": false,
      "taf_trigger": false,
      "metar": "METAR EGKK 150320Z 20007KT 9999 SCT010 SCT021 08/07 Q1006",
      "taf": "TAF EGKK 142258Z 1500/1606 21009KT 9999 SCT010"
    },
    {
      "icao": "EGNM",
      "alert": "OK",
      "vis_m": null,
      "fzfg": false,
      "metar_trigger": false,
      "taf_trigger": false,
      "metar": "",
      "taf": "TAF EGNM 142302Z 1500/1524 15005KT 9999 SCT025"
    },
    {
      "icao": "EGPD",
      "alert": "OK",
      "vis_m": 9999,
      "fzfg": false,
      "metar_trigger": false,
      "taf_trigger": false,
      "metar": "METAR EGPD 150320Z AUTO 18008KT 9999 -RA SCT013/// BKN046/// //////TCU 04/02 Q0993 TEMPO 4000 RADZ BKN012",
      "taf": "TAF EGPD 142257Z 1500/1524 18015KT 9999 BKN020"
    },
    {
      "icao": "EGPF",
      "alert": "OK",
      "vis_m": 9999,
      "fzfg": false,
      "metar_trigger": false,
      "taf_trigger": false,
      "metar": "METAR EGPF 150320Z AUTO 22009KT 9999 FEW018/// //////CB 06/05 Q0993",
      "taf": "TAF EGPF 142255Z 1500/1524 19009KT 9999 SCT018 BKN028"
    },
    {
      "icao": "EHBK",
      "alert": "OK",
      "vis_m": 9999,
      "fzfg": false,
      "metar_trigger": false,
      "taf_trigger": false,
      "metar": "METAR EHBK 150325Z AUTO 20014KT 9999 NSC 09/07 Q1011",
      "taf": "TAF EHBK 142317Z 1500/1606 18010KT CAVOK"
    },
    {
      "icao": "EHEH",
      "alert": "OK",
      "vis_m": 9999,
      "fzfg": false,
      "metar_trigger": false,
      "taf_trigger": false,
      "metar": "METAR EHEH 150325Z AUTO 19009KT 9999 FEW071 OVC077 09/07 Q1010 BLU",
      "taf": "TAF EHEH 142338Z 1500/1606 17007KT CAVOK"
    },
    {
      "icao": "EKBI",
      "alert": "OK",
      "vis_m": 8000,
      "fzfg": false,
      "metar_trigger": false,
      "taf_trigger": false,
      "metar": "METAR EKBI 150320Z AUTO 15006KT 8000 BKN003/// 01/01 Q1011",
      "taf": "TAF EKBI 150227Z 1503/1603 15005KT 9999 BKN003"
    },
    {
      "icao": "EKCH",
      "alert": "OK",
      "vis_m": 300,
      "fzfg": false,
      "metar_trigger": false,
      "taf_trigger": false,
      "metar": "METAR EKCH 150320Z 20002KT 0300 R22L/0900N R04L/1000N R12/0750D FG VV002 00/00 Q1014 BECMG 9999 NSC",
      "taf": "TAF EKCH 150227Z 1503/1603 23008KT 0200 FG VV002"
    },
    {
      "icao": "ENAL",
      "alert": "OK",
      "vis_m": 9999,
      "fzfg": false,
      "metar_trigger": false,
      "taf_trigger": false,
      "metar": "METAR ENAL 150320Z AUTO 18006KT 9999 SCT043/// BKN055/// 06/M01 Q0999",
      "taf": "TAF ENAL 150200Z 1503/1512 15008KT 9999 SCT045"
    },
    {
      "icao": "ENBR",
      "alert": "OK",
      "vis_m": 9999,
      "fzfg": false,
      "metar_trigger": false,
      "taf_trigger": false,
      "metar": "METAR ENBR 150320Z 13013KT 9999 -SHRA FEW006 SCT013 BKN017 04/03 Q1001 RMK WIND 1200FT 14021KT",
      "taf": "TAF ENBR 142300Z 1500/1524 14012KT 9999 -SHRA FEW015TCU BKN030"
    },
    {
      "icao": "ENGM",
      "alert": "OK",
      "vis_m": 700,
      "fzfg": true,
      "metar_trigger": false,
      "taf_trigger": false,
      "metar": "METAR ENGM 150320Z 34003KT 300V360 0700 0500SE R19R/1100U R01R/0900U R19L/0800N R01L/0800N FZFG VV002 M08/M09 Q1007",
      "taf": "TAF ENGM 142300Z 1500/1524 VRB03KT 0300 FZFG VV001"
    },
    {
      "icao": "ENHD",
      "alert": "OK",
      "vis_m": 9999,
      "fzfg": false,
      "metar_trigger": false,
      "taf_trigger": false,
      "metar": "METAR ENHD 150320Z AUTO 14014KT 9999 FEW008/// SCT017/// BKN044/// 05/04 Q1002 RERA REDZ REDZRA",
      "taf": "TAF ENHD 150200Z 1503/1512 14012KT 9999 -SHRA FEW020TCU BKN040"
    },
    {
      "icao": "ENTC",
      "alert": "OK",
      "vis_m": 9999,
      "fzfg": false,
      "metar_trigger": false,
      "taf_trigger": false,
      "metar": "METAR ENTC 150320Z AUTO 25005KT 9999 NCD M06/M11 Q1007 RMK WIND 2600FT 17014KT",
      "taf": ""
    },
    {
      "icao": "ENTO",
      "alert": "OK",
      "vis_m": 9999,
      "fzfg": false,
      "metar_trigger": false,
      "taf_trigger": false,
      "metar": "METAR ENTO 150320Z AUTO VRB02KT 9999 NCD M06/M06 Q1007",
      "taf": "TAF ENTO 142300Z 1500/1524 25008KT CAVOK"
    },
    {
      "icao": "ENVA",
      "alert": "OK",
      "vis_m": 9999,
      "fzfg": false,
      "metar_trigger": false,
      "taf_trigger": false,
      "metar": "METAR ENVA 150320Z AUTO 10006KT 9999 NCD M03/M07 Q1003 RMK WIND 670FT 12010KT",
      "taf": "TAF ENVA 142300Z 1500/1524 10007KT CAVOK"
    },
    {
      "icao": "ENZV",
      "alert": "OK",
      "vis_m": 9999,
      "fzfg": false,
      "metar_trigger": false,
      "taf_trigger": false,
      "metar": "METAR ENZV 150250Z AUTO 16010KT 9999 SCT046/// 05/03 Q1003",
      "taf": "TAF ENZV 142300Z 1500/1524 16012KT 9999 BKN025"
    },
    {
      "icao": "EPGD",
      "alert": "OK",
      "vis_m": 9999,
      "fzfg": false,
      "metar_trigger": false,
      "taf_trigger": false,
      "metar": "METAR EPGD 150330Z 26008KT 9999 BKN003 BKN029 01/01 Q1016",
      "taf": "TAF EPGD 142330Z 1500/1524 25010KT 8000 NSC"
    },
    {
      "icao": "EPKK",
      "alert": "OK",
      "vis_m": 5000,
      "fzfg": false,
      "metar_trigger": false,
      "taf_trigger": false,
      "metar": "METAR EPKK 150330Z VRB02KT 5000 BR FEW015 BKN036 01/M00 Q1019",
      "taf": "TAF EPKK 150230Z 1503/1603 VRB02KT 7000 BKN013"
    },
    {
      "icao": "EPKT",
      "alert": "OK",
      "vis_m": 3900,
      "fzfg": false,
      "metar_trigger": false,
      "taf_trigger": false,
      "metar": "METAR EPKT 150330Z 22006KT 3900 BR BKN006 01/00 Q1018",
      "taf": "TAF EPKT 142330Z 1500/1524 22006KT 4000 BR BKN004"
    },
    {
      "icao": "EPLB",
      "alert": "OK",
      "vis_m": 3300,
      "fzfg": false,
      "metar_trigger": false,
      "taf_trigger": false,
      "metar": "METAR EPLB 150330Z 06003KT 3300 -SN BR OVC003 M04/M04 Q1016",
      "taf": "TAF EPLB 142330Z 1500/1524 VRB02KT 3000 -SN BR BKN005 BKN010"
    },
    {
      "icao": "EPMO",
      "alert": "OK",
      "vis_m": 800,
      "fzfg": true,
      "metar_trigger": false,
      "taf_trigger": false,
      "metar": "METAR EPMO 150330Z 07002KT 0800 R08/1200N FZFG BKN001 M02/M02 Q1017",
      "taf": "TAF EPMO 142330Z 1500/1524 VRB03KT 0800 FZFG BKN003"
    },
    {
      "icao": "EPPO",
      "alert": "OK",
      "vis_m": 150,
      "fzfg": true,
      "metar_trigger": false,
      "taf_trigger": false,
      "metar": "METAR EPPO 150330Z 19002KT 0150 R28/0550N FZFG VV001 M01/M02 Q1018",
      "taf": ""
    },
    {
      "icao": "EPRA",
      "alert": "OK",
      "vis_m": 6000,
      "fzfg": false,
      "metar_trigger": false,
      "taf_trigger": false,
      "metar": "METAR EPRA 150330Z 31010KT 6000 -DZ OVC003 02/01 Q1017",
      "taf": "TAF EPRA 150230Z 1503/1512 30008KT 4000 BR OVC004"
    },
    {
      "icao": "EPRZ",
      "alert": "OK",
      "vis_m": 2000,
      "fzfg": false,
      "metar_trigger": false,
      "taf_trigger": false,
      "metar": "METAR EPRZ 150330Z 26011KT 2000 BR OVC002 01/01 Q1018",
      "taf": ""
    },
    {
      "icao": "EPSC",
      "alert": "OK",
      "vis_m": 2000,
      "fzfg": false,
      "metar_trigger": false,
      "taf_trigger": false,
      "metar": "METAR EPSC 150330Z 11004KT 2000 BR NSC M02/M02 Q1016",
      "taf": "TAF EPSC 142330Z 1500/1524 25005KT 4000 BR NSC"
    },
    {
      "icao": "EPSY",
      "alert": "OK",
      "vis_m": 4400,
      "fzfg": false,
      "metar_trigger": false,
      "taf_trigger": false,
      "metar": "METAR EPSY 150330Z 16003KT 4400 BR OVC002 M06/M07 Q1017",
      "taf": "TAF EPSY 150230Z 1503/1512 VRB02KT 5000 BR BKN006"
    },
    {
      "icao": "EPWA",
      "alert": "OK",
      "vis_m": 3400,
      "fzfg": false,
      "metar_trigger": false,
      "taf_trigger": false,
      "metar": "METAR EPWA 150330Z 31007KT 3400 BR OVC002 01/01 Q1017 TEMPO 1200 BR",
      "taf": "TAF EPWA 150230Z 1503/1603 29005KT 1500 BR OVC005"
    },
    {
      "icao": "EPWR",
      "alert": "OK",
      "vis_m": 1300,
      "fzfg": false,
      "metar_trigger": false,
      "taf_trigger": false,
      "metar": "METAR EPWR 150330Z 12003KT 1300 R29/P2000N MIFG BR BKN014 01/01 Q1018",
      "taf": ""
    },
    {
      "icao": "ESGG",
      "alert": "OK",
      "vis_m": 2700,
      "fzfg": false,
      "metar_trigger": false,
      "taf_trigger": false,
      "metar": "METAR ESGG 150320Z 20006KT 2700 OVC003 01/01 Q1010",
      "taf": "TAF ESGG 150230Z 1503/1603 22008KT 6000 BKN005"
    },
    {
      "icao": "ESKN",
      "alert": "OK",
      "vis_m": 9999,
      "fzfg": false,
      "metar_trigger": false,
      "taf_trigger": false,
      "metar": "METAR ESKN 150320Z 24007KT 9999 OVC019 02/01 Q1009",
      "taf": "TAF ESKN 150230Z 1503/1603 22006KT 9999 OVC020"
    },
    {
      "icao": "ESMS",
      "alert": "OK",
      "vis_m": 4000,
      "fzfg": true,
      "metar_trigger": false,
      "taf_trigger": false,
      "metar": "METAR ESMS 150320Z 18005KT 4000 SCT002 BKN025 M01/M01 Q1014",
      "taf": "TAF ESMS 150227Z 1503/1603 23008KT 0400 FZFG VV002"
    },
    {
      "icao": "ESSA",
      "alert": "OK",
      "vis_m": 9999,
      "fzfg": false,
      "metar_trigger": false,
      "taf_trigger": false,
      "metar": "METAR ESSA 150320Z 25010KT 9999 BKN011 00/M01 Q1008 TEMPO BKN015",
      "taf": "TAF ESSA 150230Z 1503/1603 21009KT 9999 SCT012 BKN016"
    },
    {
      "icao": "EYKA",
      "alert": "OK",
      "vis_m": 9000,
      "fzfg": false,
      "metar_trigger": false,
      "taf_trigger": false,
      "metar": "METAR EYKA 150320Z 16010KT 130V220 9000 FEW026 M11/M13 Q1019",
      "taf": ""
    },
    {
      "icao": "EYPA",
      "alert": "OK",
      "vis_m": 8000,
      "fzfg": false,
      "metar_trigger": false,
      "taf_trigger": false,
      "metar": "METAR EYPA 150320Z 16008KT 8000 OVC007 M07/M08 Q1016",
      "taf": ""
    },
    {
      "icao": "EYVI",
      "alert": "OK",
      "vis_m": 9000,
      "fzfg": false,
      "metar_trigger": false,
      "taf_trigger": false,
      "metar": "METAR EYVI 150320Z 15008KT 9000 NSC M15/M16 Q1020 NOSIG",
      "taf": "TAF EYVI 142300Z 1500/1524 15010KT 8000 SCT015"
    },
    {
      "icao": "GCFV",
      "alert": "OK",
      "vis_m": 9999,
      "fzfg": false,
      "metar_trigger": false,
      "taf_trigger": false,
      "metar": "METAR GCFV 150330Z AUTO 34009KT CAVOK 15/10 Q1023",
      "taf": "TAF GCFV 150200Z 1503/1603 34008KT 9999 SCT030 TX20/1514Z TN14/1506Z"
    },
    {
      "icao": "GCLP",
      "alert": "OK",
      "vis_m": 9999,
      "fzfg": false,
      "metar_trigger": false,
      "taf_trigger": false,
      "metar": "METAR GCLP 150330Z 36010KT 9999 BKN030 17/11 Q1023 NOSIG",
      "taf": "TAF GCLP 150200Z 1503/1603 36015KT 9999 BKN030 TX20/1514Z TN15/1506Z"
    },
    {
      "icao": "GCTS",
      "alert": "OK",
      "vis_m": 9999,
      "fzfg": false,
      "metar_trigger": false,
      "taf_trigger": false,
      "metar": "METAR GCTS 150330Z 05010KT 9999 FEW040 16/09 Q1023 NOSIG",
      "taf": "TAF GCTS 150200Z 1503/1603 03007KT 9999 FEW040 TX22/1514Z TN14/1506Z"
    },
    {
      "icao": "GMAD",
      "alert": "OK",
      "vis_m": 9999,
      "fzfg": false,
      "metar_trigger": false,
      "taf_trigger": false,
      "metar": "METAR GMAD 150330Z 08005KT 9999 SCT026 10/10 Q1020 NOSIG",
      "taf": "TAF GMAD 142300Z 1500/1606 06006KT 8000 SCT020"
    },
    {
      "icao": "GMMN",
      "alert": "OK",
      "vis_m": 9999,
      "fzfg": false,
      "metar_trigger": false,
      "taf_trigger": false,
      "metar": "METAR GMMN 150330Z 22005KT 9999 SCT020 06/06 Q1022 NOSIG",
      "taf": "TAF GMMN 142300Z 1500/1606 20004KT 8000 SCT020 SCT080"
    },
    {
      "icao": "GMMX",
      "alert": "OK",
      "vis_m": 9999,
      "fzfg": false,
      "metar_trigger": false,
      "taf_trigger": false,
      "metar": "METAR GMMX 150330Z VRB02KT 9999 SCT026 08/07 Q1021 NOSIG",
      "taf": "TAF GMMX 142300Z 1500/1606 12006KT 8000 SCT026 SCT080"
    },
    {
      "icao": "HEGN",
      "alert": "OK",
      "vis_m": 9999,
      "fzfg": false,
      "metar_trigger": false,
      "taf_trigger": false,
      "metar": "METAR HEGN 150300Z 29015KT CAVOK 13/05 Q1023 NOSIG",
      "taf": "TAF HEGN 142300Z 1500/1606 30010G20KT CAVOK"
    },
    {
      "icao": "HEMA",
      "alert": "OK",
      "vis_m": 9999,
      "fzfg": false,
      "metar_trigger": false,
      "taf_trigger": false,
      "metar": "METAR HEMA 150300Z 31018KT CAVOK 16/07 Q1020 NOSIG",
      "taf": "TAF HEMA 142300Z 1500/1606 32010G20KT CAVOK"
    },
    {
      "icao": "HESH",
      "alert": "OK",
      "vis_m": 9999,
      "fzfg": false,
      "metar_trigger": false,
      "taf_trigger": false,
      "metar": "METAR HESH 150300Z 36016KT CAVOK 15/03 Q1023 NOSIG",
      "taf": "TAF HESH 142300Z 1500/1606 33010KT CAVOK"
    },
    {
      "icao": "HESX",
      "alert": "OK",
      "vis_m": 9999,
      "fzfg": false,
      "metar_trigger": false,
      "taf_trigger": false,
      "metar": "METAR HESX 150300Z 21004KT CAVOK 07/05 Q1024 NOSIG",
      "taf": "TAF HESX 142300Z 1500/1606 01008KT CAVOK"
    },
    {
      "icao": "LATI",
      "alert": "OK",
      "vis_m": null,
      "fzfg": false,
      "metar_trigger": false,
      "taf_trigger": false,
      "metar": "",
      "taf": ""
    },
    {
      "icao": "LBPD",
      "alert": "OK",
      "vis_m": 6000,
      "fzfg": false,
      "metar_trigger": false,
      "taf_trigger": false,
      "metar": "METAR LBPD 150330Z AUTO VRB01KT 6000 OVC077/// 00/00 Q1021",
      "taf": "TAF LBPD 142300Z 1500/1524 VRB04KT 5000 BR BKN015"
    },
    {
      "icao": "LBSF",
      "alert": "OK",
      "vis_m": 9000,
      "fzfg": false,
      "metar_trigger": false,
      "taf_trigger": false,
      "metar": "METAR LBSF 150330Z AUTO VRB01KT 9000 FEW040/// SCT075/// M00/M01 Q1022 TEMPO 5000 BR",
      "taf": "TAF LBSF 142300Z 1500/1524 VRB04KT 3000 BR BKN010"
    },
    {
      "icao": "LBWN",
      "alert": "OK",
      "vis_m": 9999,
      "fzfg": false,
      "metar_trigger": false,
      "taf_trigger": false,
      "metar": "METAR LBWN 150330Z AUTO 29003KT 250V310 9999 FEW050/// 04/03 Q1019 NOSIG",
      "taf": "TAF LBWN 142300Z 1500/1524 VRB03KT 6000 BKN030"
    },
    {
      "icao": "LCLK",
      "alert": "OK",
      "vis_m": 9999,
      "fzfg": false,
      "metar_trigger": false,
      "taf_trigger": false,
      "metar": "METAR LCLK 150330Z 28004KT CAVOK 05/03 Q1023 NOSIG",
      "taf": "TAF LCLK 142330Z 1500/1600 32006KT 9999 FEW025"
    },
    {
      "icao": "LCPH",
      "alert": "OK",
      "vis_m": 9999,
      "fzfg": false,
      "metar_trigger": false,
      "taf_trigger": false,
      "metar": "METAR LCPH 150330Z AUTO 02009KT 010V080 9999 BKN042 BKN049 08/03 Q1023 NOSIG",
      "taf": "TAF LCPH 142330Z 1500/1600 01007KT 9999 FEW020"
    },
    {
      "icao": "LEAL",
      "alert": "OK",
      "vis_m": 9999,
      "fzfg": false,
      "metar_trigger": false,
      "taf_trigger": false,
      "metar": "METAR LEAL 150330Z 27006KT CAVOK 09/06 Q1019 NOSIG",
      "taf": "TAF LEAL 142300Z 1500/1524 VRB04KT CAVOK TX17/1513Z TN07/1506Z"
    },
    {
      "icao": "LEBB",
      "alert": "OK",
      "vis_m": 9999,
      "fzfg": false,
      "metar_trigger": false,
      "taf_trigger": false,
      "metar": "METAR LEBB 150330Z AUTO 06006KT 040V120 CAVOK 09/05 Q1015",
      "taf": "TAF LEBB 142300Z 1500/1524 20009KT 9999 FEW025 TX13/1512Z TN06/1502Z"
    },
    {
      "icao": "LEBL",
      "alert": "OK",
      "vis_m": 9999,
      "fzfg": false,
      "metar_trigger": false,
      "taf_trigger": false,
      "metar": "METAR LEBL 150330Z 33011KT 9999 FEW015 08/07 Q1018 NOSIG",
      "taf": "TAF LEBL 142300Z 1500/1524 34006KT 9999 FEW015 TX15/1512Z TN05/1506Z"
    },
    {
      "icao": "LECH",
      "alert": "OK",
      "vis_m": 9999,
      "fzfg": false,
      "metar_trigger": false,
      "taf_trigger": false,
      "metar": "METAR LECH 150330Z AUTO 18002KT CAVOK 05/03 Q1019",
      "taf": ""
    },
    {
      "icao": "LEMD",
      "alert": "OK",
      "vis_m": 600,
      "fzfg": false,
      "metar_trigger": false,
      "taf_trigger": false,
      "metar": "METAR LEMD 150330Z 01002KT 0600 0150E R32R/0400N FG VV002 00/00 Q1020 BECMG 0350 VV001",
      "taf": ""
    },
    {
      "icao": "LEMG",
      "alert": "OK",
      "vis_m": 9999,
      "fzfg": false,
      "metar_trigger": false,
      "taf_trigger": false,
      "metar": "METAR LEMG 150330Z 27004KT CAVOK 08/07 Q1020 NOSIG",
      "taf": "TAF LEMG 142300Z 1500/1524 29006KT 9999 FEW030 TX18/1514Z TN07/1507Z"
    },
    {
      "icao": "LEVC",
      "alert": "OK",
      "vis_m": 9999,
      "fzfg": false,
      "metar_trigger": false,
      "taf_trigger": false,
      "metar": "METAR LEVC 150330Z 28005KT CAVOK 05/04 Q1019 NOSIG",
      "taf": "TAF LEVC 142300Z 1500/1524 VRB04KT CAVOK TX18/1512Z TN05/1506Z"
    },
    {
      "icao": "LEXJ",
      "alert": "OK",
      "vis_m": 6000,
      "fzfg": false,
      "metar_trigger": false,
      "taf_trigger": false,
      "metar": "METAR LEXJ 150330Z AUTO 27002KT 6000 NSC 06/06 Q1014",
      "taf": "TAF LEXJ 150200Z 1503/1603 21009KT 9999 FEW040 TX14/1511Z TN09/1503Z"
    },
    {
      "icao": "LEZG",
      "alert": "OK",
      "vis_m": 1200,
      "fzfg": false,
      "metar_trigger": false,
      "taf_trigger": false,
      "metar": "METAR LEZG 150330Z 11003KT 080V150 1200 0200SW R30R/1800N R12R/1800D R30L/0650U R12L/0800N BCFG SCT001 02/02 Q1019 NOSIG",
      "taf": ""
    },
    {
      "icao": "LEZL",
      "alert": "OK",
      "vis_m": 7000,
      "fzfg": false,
      "metar_trigger": false,
      "taf_trigger": false,
      "metar": "METAR LEZL 150330Z AUTO 15001KT 7000 0450W R27/P2000 R09/0700U BCFG VV002 06/06 Q1021",
      "taf": "TAF LEZL 150200Z 1503/1603 VRB02KT 9999 FEW030 TX14/1515Z TN06/1507Z"
    },
    {
      "icao": "LFBD",
      "alert": "OK",
      "vis_m": 8000,
      "fzfg": false,
      "metar_trigger": false,
      "taf_trigger": false,
      "metar": "METAR LFBD 150330Z AUTO 17006KT 8000 1000 R23/1700U R05/1300D R29/P2300 SCT040 08/08 Q1016 TEMPO 0500 FG VV///",
      "taf": "TAF LFBD 142300Z 1500/1606 18005KT 6000 NSC TX13/1514Z TN05/1506Z"
    },
    {
      "icao": "LFLL",
      "alert": "OK",
      "vis_m": 9999,
      "fzfg": false,
      "metar_trigger": false,
      "taf_trigger": false,
      "metar": "METAR LFLL 150330Z 20011KT 9999 BKN050 11/06 Q1018 NOSIG",
      "taf": "TAF LFLL 142300Z 1500/1606 19010KT CAVOK"
    },
    {
      "icao": "LFLS",
      "alert": "OK",
      "vis_m": 9999,
      "fzfg": false,
      "metar_trigger": false,
      "taf_trigger": false,
      "metar": "METAR LFLS 150330Z AUTO 09005KT 9999 OVC062 05/03 Q1019 TEMPO 0800 BCFG",
      "taf": "TAF LFLS 150200Z 1503/1603 09005KT CAVOK"
    },
    {
      "icao": "LFMN",
      "alert": "OK",
      "vis_m": 9999,
      "fzfg": false,
      "metar_trigger": false,
      "taf_trigger": false,
      "metar": "METAR LFMN 150330Z 33008KT CAVOK 09/05 Q1020 NOSIG",
      "taf": "TAF LFMN 150200Z 1503/1609 34010KT CAVOK"
    },
    {
      "icao": "LFOB",
      "alert": "OK",
      "vis_m": 9999,
      "fzfg": false,
      "metar_trigger": false,
      "taf_trigger": false,
      "metar": "METAR LFOB 150330Z AUTO 20010KT 9999 BKN008 OVC013 10/09 Q1010 TEMPO 4000 -RADZ",
      "taf": ""
    },
    {
      "icao": "LFPO",
      "alert": "OK",
      "vis_m": 9999,
      "fzfg": false,
      "metar_trigger": false,
      "taf_trigger": false,
      "metar": "METAR LFPO 150330Z AUTO 21010KT 9999 BKN015 BKN022 OVC028 10/08 Q1012 TEMPO BKN009",
      "taf": "TAF LFPO 142300Z 1500/1606 19012KT 9999 BKN025"
    },
    {
      "icao": "LFSB",
      "alert": "OK",
      "vis_m": 9999,
      "fzfg": false,
      "metar_trigger": false,
      "taf_trigger": false,
      "metar": "METAR LFSB 150330Z AUTO 17004KT 9999 OVC039 05/03 Q1017 NOSIG",
      "taf": "TAF LFSB 142300Z 1500/1524 18004KT 9999 OVC045"
    },
    {
      "icao": "LGAV",
      "alert": "OK",
      "vis_m": 9999,
      "fzfg": false,
      "metar_trigger": false,
      "taf_trigger": false,
      "metar": "METAR LGAV 150320Z 00000KT 9999 FEW035 05/03 Q1024 NOSIG",
      "taf": "TAF LGAV 142300Z 1500/1524 VRB05KT 9999 FEW016 SCT025"
    },
    {
      "icao": "LGTS",
      "alert": "OK",
      "vis_m": 9999,
      "fzfg": false,
      "metar_trigger": false,
      "taf_trigger": false,
      "metar": "METAR LGTS 150320Z 10004KT CAVOK 00/00 Q1024 NOSIG",
      "taf": "TAF LGTS 142300Z 1500/1524 VRB03KT 9999 FEW030"
    },
    {
      "icao": "LHBP",
      "alert": "OK",
      "vis_m": 3500,
      "fzfg": true,
      "metar_trigger": false,
      "taf_trigger": false,
      "metar": "METAR LHBP 150330Z 15003KT 3500 BR SCT003 BKN070 M04/M04 Q1020 TEMPO 0800 FZFG BKN001",
      "taf": ""
    },
    {
      "icao": "LHDC",
      "alert": "OK",
      "vis_m": 400,
      "fzfg": true,
      "metar_trigger": false,
      "taf_trigger": false,
      "metar": "METAR LHDC 150315Z AUTO 00000KT 0400 R04/0450N FZFG VV002 M03/M03 Q1021",
      "taf": ""
    },
    {
      "icao": "LIBD",
      "alert": "OK",
      "vis_m": 9999,
      "fzfg": false,
      "metar_trigger": false,
      "taf_trigger": false,
      "metar": "METAR LIBD 150320Z 21004KT CAVOK 03/03 Q1023",
      "taf": "TAF LIBD 142300Z 1500/1524 VRB06KT 9999 FEW040"
    },
    {
      "icao": "LIBG",
      "alert": "OK",
      "vis_m": null,
      "fzfg": false,
      "metar_trigger": false,
      "taf_trigger": false,
      "metar": "",
      "taf": "TAF LIBG 141700Z 1418/1503 16007KT 9999 FEW030"
    },
    {
      "icao": "LIBP",
      "alert": "OK",
      "vis_m": 9999,
      "fzfg": false,
      "metar_trigger": false,
      "taf_trigger": false,
      "metar": "METAR LIBP 150320Z AUTO 20005KT 9999 NCD 01/01 Q1023",
      "taf": "TAF LIBP 142300Z 1500/1524 VRB05KT 7000 NSC"
    },
    {
      "icao": "LIBR",
      "alert": "OK",
      "vis_m": 7000,
      "fzfg": false,
      "metar_trigger": false,
      "taf_trigger": false,
      "metar": "METAR LIBR 150320Z 19002KT 7000 NSC 06/05 Q1023",
      "taf": "TAF LIBR 142300Z 1500/1524 VRB06KT 9999 FEW025"
    },
    {
      "icao": "LICA",
      "alert": "OK",
      "vis_m": 9999,
      "fzfg": false,
      "metar_trigger": false,
      "taf_trigger": false,
      "metar": "METAR LICA 150320Z AUTO 07005KT 9999 NCD 02/02 Q1024",
      "taf": "TAF LICA 142300Z 1500/1524 VRB05KT CAVOK"
    },
    {
      "icao": "LICC",
      "alert": "OK",
      "vis_m": 9999,
      "fzfg": false,
      "metar_trigger": false,
      "taf_trigger": false,
      "metar": "METAR LICC 150320Z 23007KT CAVOK 06/03 Q1024",
      "taf": "TAF LICC 142300Z 1500/1524 25010KT 9999 FEW040"
    },
    {
      "icao": "LICJ",
      "alert": "OK",
      "vis_m": 9999,
      "fzfg": false,
      "metar_trigger": false,
      "taf_trigger": false,
      "metar": "METAR LICJ 150320Z 09007KT CAVOK 09/07 Q1022",
      "taf": "TAF LICJ 142300Z 1500/1524 VRB06KT CAVOK"
    },
    {
      "icao": "LIMC",
      "alert": "OK",
      "vis_m": 6000,
      "fzfg": false,
      "metar_trigger": false,
      "taf_trigger": false,
      "metar": "METAR LIMC 150320Z VRB02KT 6000 -RA BKN045 04/04 Q1022 NOSIG",
      "taf": "TAF LIMC 142300Z 1500/1606 VRB05KT 8000 BKN040"
    },
    {
      "icao": "LIME",
      "alert": "OK",
      "vis_m": 1500,
      "fzfg": false,
      "metar_trigger": false,
      "taf_trigger": false,
      "metar": "METAR LIME 150320Z VRB02KT 1500 -RA BR BKN010 05/05 Q1022 NOSIG",
      "taf": "TAF LIME 142300Z 1500/1524 VRB04KT 4000 BR FEW005 BKN040"
    },
    {
      "icao": "LIMF",
      "alert": "OK",
      "vis_m": 9999,
      "fzfg": false,
      "metar_trigger": false,
      "taf_trigger": false,
      "metar": "METAR LIMF 150320Z VRB01KT CAVOK 04/00 Q1021",
      "taf": "TAF LIMF 142300Z 1500/1524 VRB03KT 8000 SCT050"
    },
    {
      "icao": "LIMJ",
      "alert": "OK",
      "vis_m": 9999,
      "fzfg": false,
      "metar_trigger": false,
      "taf_trigger": false,
      "metar": "METAR LIMJ 150320Z 06010KT 9999 SCT040 11/07 Q1020",
      "taf": "TAF LIMJ 142300Z 1500/1524 VRB06KT 9999 BKN020"
    },
    {
      "icao": "LIPE",
      "alert": "OK",
      "vis_m": 3000,
      "fzfg": false,
      "metar_trigger": false,
      "taf_trigger": false,
      "metar": "METAR LIPE 150320Z 12002KT 3000 BR OVC060 04/04 Q1022",
      "taf": "TAF LIPE 142300Z 1500/1524 VRB04KT 4000 BR SCT020 BKN060"
    },
    {
      "icao": "LIPH",
      "alert": "OK",
      "vis_m": 7000,
      "fzfg": false,
      "metar_trigger": false,
      "taf_trigger": false,
      "metar": "METAR LIPH 150320Z AUTO 02002KT 7000 FEW017/// SCT071/// 02/01 Q1022",
      "taf": "TAF LIPH 142300Z 1500/1524 VRB04KT 3000 BR SCT040"
    },
    {
      "icao": "LIPQ",
      "alert": "OK",
      "vis_m": 3300,
      "fzfg": false,
      "metar_trigger": false,
      "taf_trigger": false,
      "metar": "METAR LIPQ 150320Z AUTO VRB01KT 3300 BR OVC018/// 06/05 Q1022",
      "taf": "TAF LIPQ 142300Z 1500/1524 VRB04KT 2000 BR BKN030"
    },
    {
      "icao": "LIPR",
      "alert": "OK",
      "vis_m": 5000,
      "fzfg": false,
      "metar_trigger": false,
      "taf_trigger": false,
      "metar": "METAR LIPR 150320Z AUTO 25003KT 5000 BR OVC060/// 06/04 Q1023",
      "taf": "TAF LIPR 142300Z 1500/1524 VRB05KT 3000 BR BKN050"
    },
    {
      "icao": "LIPX",
      "alert": "OK",
      "vis_m": 6000,
      "fzfg": false,
      "metar_trigger": false,
      "taf_trigger": false,
      "metar": "METAR LIPX 150320Z VRB01KT 6000 BKN080 04/03 Q1022",
      "taf": "TAF LIPX 142300Z 1500/1524 VRB04KT 3000 BR FEW010 BKN050"
    },
    {
      "icao": "LIPY",
      "alert": "OK",
      "vis_m": 3200,
      "fzfg": false,
      "metar_trigger": false,
      "taf_trigger": false,
      "metar": "METAR LIPY 150320Z AUTO VRB02KT 3200 BR OVC059/// 08/07 Q1022",
      "taf": "TAF LIPY 142300Z 1500/1524 VRB05KT 3000 BR BKN060"
    },
    {
      "icao": "LIPZ",
      "alert": "OK",
      "vis_m": 9000,
      "fzfg": false,
      "metar_trigger": false,
      "taf_trigger": false,
      "metar": "METAR LIPZ 150320Z 32002KT 9000 BKN070 04/02 Q1023 NOSIG",
      "taf": "TAF LIPZ 142300Z 1500/1606 VRB04KT 4000 BR SCT040"
    },
    {
      "icao": "LIRF",
      "alert": "OK",
      "vis_m": 9999,
      "fzfg": false,
      "metar_trigger": false,
      "taf_trigger": false,
      "metar": "METAR LIRF 150320Z 07005KT 9999 FEW035 SCT050 12/08 Q1022 NOSIG",
      "taf": "TAF LIRF 142300Z 1500/1606 09007KT 9999 SCT040"
    },
    {
      "icao": "LIRN",
      "alert": "OK",
      "vis_m": 9999,
      "fzfg": false,
      "metar_trigger": false,
      "taf_trigger": false,
      "metar": "METAR LIRN 150250Z VRB01KT CAVOK 09/06 Q1023 NOSIG",
      "taf": "TAF LIRN 142300Z 1500/1524 VRB05KT 9999 SCT040"
    },
    {
      "icao": "LIRP",
      "alert": "OK",
      "vis_m": 9999,
      "fzfg": false,
      "metar_trigger": false,
      "taf_trigger": false,
      "metar": "METAR LIRP 150315Z 10007KT 9999 SCT030 SCT040 BKN060 11/10 Q1021 NOSIG",
      "taf": "TAF LIRP 142300Z 1500/1524 12005KT 9999 SCT030 BKN060"
    },
    {
      "icao": "LIRZ",
      "alert": "OK",
      "vis_m": 9999,
      "fzfg": false,
      "metar_trigger": false,
      "taf_trigger": false,
      "metar": "METAR LIRZ 150320Z AUTO VRB02KT 9999 OVC050/// 08/07 Q1022",
      "taf": "TAF LIRZ 142300Z 1500/1524 VRB05KT 9999 BKN040"
    },
    {
      "icao": "LJLJ",
      "alert": "OK",
      "vis_m": 9999,
      "fzfg": false,
      "metar_trigger": false,
      "taf_trigger": false,
      "metar": "METAR LJLJ 150330Z VRB01KT 9999 MIFG FEW027 M03/M04 Q1021 NOSIG",
      "taf": "TAF LJLJ 142300Z 1500/1600 30003KT 9999 FEW020"
    },
    {
      "icao": "LKMT",
      "alert": "OK",
      "vis_m": 6000,
      "fzfg": false,
      "metar_trigger": false,
      "taf_trigger": false,
      "metar": "METAR LKMT 150330Z 23009KT 6000 FEW017 OVC021 M01/M02 Q1019 NOSIG",
      "taf": "TAF LKMT 142300Z 1500/1524 23014KT 8000 BKN025"
    },
    {
      "icao": "LKPR",
      "alert": "OK",
      "vis_m": 2500,
      "fzfg": false,
      "metar_trigger": false,
      "taf_trigger": false,
      "metar": "METAR LKPR 150330Z 10004KT 2500 BR BKN015 OVC020 02/02 Q1017 TEMPO 1400 BR",
      "taf": "TAF LKPR 150200Z 1503/1609 20008KT 9999 SCT012 BKN027"
    },
    {
      "icao": "LLBG",
      "alert": "OK",
      "vis_m": 9999,
      "fzfg": false,
      "metar_trigger": false,
      "taf_trigger": false,
      "metar": "METAR LLBG 150320Z VRB03KT 9999 FEW045 09/07 Q1023 NOSIG",
      "taf": "TAF LLBG 142317Z 1500/1524 VRB04KT 9999 SCT045"
    },
    {
      "icao": "LMML",
      "alert": "OK",
      "vis_m": 9999,
      "fzfg": false,
      "metar_trigger": false,
      "taf_trigger": false,
      "metar": "METAR LMML 150345Z 14007KT 9999 FEW023 15/11 Q1022 NOSIG",
      "taf": "TAF LMML 142300Z 1500/1524 16010KT 9999 SCT020"
    },
    {
      "icao": "LOWW",
      "alert": "OK",
      "vis_m": 450,
      "fzfg": true,
      "metar_trigger": false,
      "taf_trigger": false,
      "metar": "METAR LOWW 150320Z VRB02KT 0450 R29/0550N FZFG VV001 M02/M03 Q1020 TEMPO 0300 FZFG",
      "taf": "TAF LOWW 150215Z 1503/1609 15004KT 0700 FZFG SCT001 OVC002 TXM00/1607Z TNM02/1503Z"
    },
    {
      "icao": "LPFR",
      "alert": "OK",
      "vis_m": 9999,
      "fzfg": false,
      "metar_trigger": false,
      "taf_trigger": false,
      "metar": "METAR LPFR 150330Z 30003KT CAVOK 09/08 Q1021",
      "taf": "TAF LPFR 142300Z 1500/1524 01005KT 9999 FEW012"
    },
    {
      "icao": "LPMA",
      "alert": "OK",
      "vis_m": 9999,
      "fzfg": false,
      "metar_trigger": false,
      "taf_trigger": false,
      "metar": "METAR LPMA 150330Z 33008KT 290V010 9999 BKN015 15/07 Q1025",
      "taf": "TAF LPMA 142300Z 1500/1524 32007KT 9999 SCT015"
    },
    {
      "icao": "LPPR",
      "alert": "OK",
      "vis_m": 9999,
      "fzfg": false,
      "metar_trigger": false,
      "taf_trigger": false,
      "metar": "METAR LPPR 150330Z 17011KT 9999 BKN032 11/08 Q1018",
      "taf": "TAF LPPR 142300Z 1500/1524 13007KT 9999 SCT018 BKN030"
    },
    {
      "icao": "LPPS",
      "alert": "OK",
      "vis_m": 9999,
      "fzfg": false,
      "metar_trigger": false,
      "taf_trigger": false,
      "metar": "METAR LPPS 150330Z 33006KT 280V010 9999 SCT015 BKN030 15/08 Q1025",
      "taf": "TAF LPPS 142300Z 1500/1606 34007KT 9999 SCT015"
    },
    {
      "icao": "LPPT",
      "alert": "OK",
      "vis_m": 9999,
      "fzfg": false,
      "metar_trigger": false,
      "taf_trigger": false,
      "metar": "METAR LPPT 150330Z 22004KT 9999 BKN040 10/09 Q1021",
      "taf": "TAF LPPT 142300Z 1500/1606 VRB02KT 9999 BKN035"
    },
    {
      "icao": "LQBK",
      "alert": "OK",
      "vis_m": 9999,
      "fzfg": false,
      "metar_trigger": false,
      "taf_trigger": false,
      "metar": "METAR LQBK 150330Z 15006KT CAVOK 03/03 Q1021 NOSIG",
      "taf": "TAF LQBK 142300Z 1500/1524 21007KT CAVOK TX10/1513Z TN02/1505Z"
    },
    {
      "icao": "LQSA",
      "alert": "OK",
      "vis_m": 5000,
      "fzfg": false,
      "metar_trigger": false,
      "taf_trigger": false,
      "metar": "METAR LQSA 150330Z VRB02KT 5000 BR NSC 01/01 Q1023",
      "taf": "TAF LQSA 142300Z 1500/1524 VRB02KT 8000 FEW045 TX06/1514Z TNM02/1506Z"
    },
    {
      "icao": "LQTZ",
      "alert": "OK",
      "vis_m": 9999,
      "fzfg": false,
      "metar_trigger": false,
      "taf_trigger": false,
      "metar": "METAR LQTZ 150330Z 32002KT 9999 BKN068 01/01 Q1022",
      "taf": "TAF LQTZ 142300Z 1500/1524 VRB02KT 9999 SCT040 TX08/1513Z TN00/1505Z"
    },
    {
      "icao": "LRBC",
      "alert": "OK",
      "vis_m": 7000,
      "fzfg": false,
      "metar_trigger": false,
      "taf_trigger": false,
      "metar": "METAR LRBC 150330Z 03003KT 360V060 7000 OVC005 M03/M04 Q1018",
      "taf": "TAF LRBC 150200Z 1503/1512 VRB04KT 5000 BR BKN010 BKN055"
    },
    {
      "icao": "LRBS",
      "alert": "OK",
      "vis_m": 6000,
      "fzfg": false,
      "metar_trigger": false,
      "taf_trigger": false,
      "metar": "METAR LRBS 150330Z 26011KT 6000 NSC M04/M05 Q1018 NOSIG",
      "taf": "TAF LRBS 142300Z 1500/1524 24010KT 5000 BR NSC"
    },
    {
      "icao": "LRBV",
      "alert": "OK",
      "vis_m": 5000,
      "fzfg": false,
      "metar_trigger": false,
      "taf_trigger": false,
      "metar": "METAR LRBV 150330Z AUTO VRB02KT 5000 UP OVC009/// 02/01 Q1018",
      "taf": "TAF LRBV 150200Z 1503/1512 VRB04KT 5000 BR BKN015 OVC020"
    },
    {
      "icao": "LRCL",
      "alert": "OK",
      "vis_m": 800,
      "fzfg": true,
      "metar_trigger": false,
      "taf_trigger": false,
      "metar": "METAR LRCL 150330Z 00000KT 0800 R25/0800N -SN BR VV002 M02/M03 Q1020",
      "taf": "TAF LRCL 150200Z 1503/1512 VRB03KT 0500 FZFG OVC002"
    },
    {
      "icao": "LRCV",
      "alert": "OK",
      "vis_m": 250,
      "fzfg": true,
      "metar_trigger": false,
      "taf_trigger": false,
      "metar": "METAR LRCV 150330Z 27002KT 0250 R26/0275N FZFG VV001 M03/M03 Q1019",
      "taf": "TAF LRCV 150200Z 1503/1512 26006KT 0200 FZFG VV001"
    },
    {
      "icao": "LRIA",
      "alert": "OK",
      "vis_m": 4000,
      "fzfg": false,
      "metar_trigger": false,
      "taf_trigger": false,
      "metar": "METAR LRIA 150330Z 01005KT 4000 -SN BKN004 BKN019 M05/M05 Q1019",
      "taf": "TAF LRIA 150200Z 1503/1512 VRB04KT 3000 -SN SCT010 OVC025"
    },
    {
      "icao": "LROP",
      "alert": "OK",
      "vis_m": 6000,
      "fzfg": false,
      "metar_trigger": false,
      "taf_trigger": false,
      "metar": "METAR LROP 150330Z 27007KT 6000 NSC M04/M06 Q1018 NOSIG",
      "taf": "TAF LROP 142300Z 1500/1524 24010KT 5000 BR NSC"
    },
    {
      "icao": "LRSB",
      "alert": "OK",
      "vis_m": 6000,
      "fzfg": false,
      "metar_trigger": false,
      "taf_trigger": false,
      "metar": "METAR LRSB 150330Z 10005KT 060V130 6000 OVC040 01/01 Q1018",
      "taf": "TAF LRSB 142300Z 1500/1524 VRB04KT 5000 BR SCT010 OVC035"
    },
    {
      "icao": "LRSM",
      "alert": "OK",
      "vis_m": 1300,
      "fzfg": false,
      "metar_trigger": false,
      "taf_trigger": false,
      "metar": "METAR LRSM 150330Z AUTO 26005KT 1300 R19/1500D BR VV002 M01/M01 Q1021",
      "taf": "TAF LRSM 150200Z 1503/1512 VRB04KT 3000 -SN BR BKN005 OVC020"
    },
    {
      "icao": "LRSV",
      "alert": "OK",
      "vis_m": 6000,
      "fzfg": false,
      "metar_trigger": false,
      "taf_trigger": false,
      "metar": "METAR LRSV 150330Z 03004KT 6000 -SN BKN008 OVC028 M07/M08 Q1016",
      "taf": "TAF LRSV 150200Z 1503/1512 VRB04KT 5000 -SN BR SCT015 OVC040"
    },
    {
      "icao": "LRTM",
      "alert": "OK",
      "vis_m": 3900,
      "fzfg": false,
      "metar_trigger": false,
      "taf_trigger": false,
      "metar": "METAR LRTM 150330Z AUTO 26003KT 3900 -FZRA FEW003/// BKN006/// BKN014/// M01/M02 Q1020",
      "taf": "TAF LRTM 150200Z 1503/1512 VRB03KT 5000 BR BKN010 OVC025"
    },
    {
      "icao": "LRTR",
      "alert": "OK",
      "vis_m": 1500,
      "fzfg": true,
      "metar_trigger": false,
      "taf_trigger": false,
      "metar": "METAR LRTR 150330Z 08003KT 1500 BR NSC M00/M00 Q1021 TEMPO 0800 FZFG",
      "taf": "TAF LRTR 142300Z 1500/1524 VRB04KT 3000 BR SCT035"
    },
    {
      "icao": "LTAC",
      "alert": "OK",
      "vis_m": 9999,
      "fzfg": false,
      "metar_trigger": false,
      "taf_trigger": false,
      "metar": "METAR LTAC 150320Z 21009KT 9999 SCT008 BKN029 M02/M03 Q1022 NOSIG RMK RWY21C 20007KT RWY03L 21010KT RWY21R 20008KT RWY03R 20007KT 160V220 RWY21L 19009KT",
      "taf": "TAF LTAC 142240Z 1500/1524 22008KT 9999 FEW010 SCT040 BKN100"
    },
    {
      "icao": "LTFM",
      "alert": "OK",
      "vis_m": 9999,
      "fzfg": false,
      "metar_trigger": false,
      "taf_trigger": false,
      "metar": "METAR LTFM 150320Z 21012KT 9999 BKN040 08/05 Q1022 NOSIG RMK RWY17L 20014KT RWY34L 20010KT RWY16R 21010KT RWY36 21013KT RWY18 21016KT",
      "taf": "TAF LTFM 142240Z 1500/1606 21014KT 9999 BKN040"
    },
    {
      "icao": "LUKK",
      "alert": "OK",
      "vis_m": 7000,
      "fzfg": false,
      "metar_trigger": false,
      "taf_trigger": false,
      "metar": "METAR LUKK 150330Z 06004KT 7000 -SN FEW014 OVC024 M07/M08 Q1019 TEMPO 1000 SN BR BKN010",
      "taf": "TAF LUKK 142311Z 1500/1524 08006KT 4000 SN BR BKN012"
    },
    {
      "icao": "LWOH",
      "alert": "OK",
      "vis_m": null,
      "fzfg": false,
      "metar_trigger": false,
      "taf_trigger": false,
      "metar": "",
      "taf": "TAF LWOH 150205Z 1503/1603 VRB02KT 9999 SCT040"
    },
    {
      "icao": "LWSK",
      "alert": "OK",
      "vis_m": null,
      "fzfg": false,
      "metar_trigger": false,
      "taf_trigger": false,
      "metar": "",
      "taf": "TAF LWSK 150205Z 1503/1603 VRB02KT CAVOK"
    },
    {
      "icao": "LYBE",
      "alert": "OK",
      "vis_m": 9999,
      "fzfg": false,
      "metar_trigger": false,
      "taf_trigger": false,
      "metar": "METAR LYBE 150330Z 19004KT CAVOK 02/01 Q1022 NOSIG",
      "taf": "TAF LYBE 142300Z 1500/1524 20004KT 8000 NSC TX08/1513Z TN01/1506Z"
    },
    {
      "icao": "LYNI",
      "alert": "OK",
      "vis_m": 4500,
      "fzfg": false,
      "metar_trigger": false,
      "taf_trigger": false,
      "metar": "METAR LYNI 150330Z 09003KT 4500 BR BKN050 04/03 Q1023 NOSIG",
      "taf": "TAF LYNI 142300Z 1500/1524 08004KT 4000 BR BKN050 TX07/1513Z TN01/1506Z"
    },
    {
      "icao": "LYPG",
      "alert": "OK",
      "vis_m": 4000,
      "fzfg": false,
      "metar_trigger": false,
      "taf_trigger": false,
      "metar": "METAR LYPG 150330Z 00000KT 4000 BR SCT030 SCT070 04/04 Q1026 NOSIG",
      "taf": "TAF LYPG 142300Z 1500/1524 VRB02KT 7000 SCT030 TX12/1513Z TN02/1505Z"
    },
    {
      "icao": "LZIB",
      "alert": "OK",
      "vis_m": 2200,
      "fzfg": false,
      "metar_trigger": false,
      "taf_trigger": false,
      "metar": "METAR LZIB 150330Z 03003KT 2200 BR BKN002 OVC048 M03/M03 Q1021 NOSIG",
      "taf": "TAF LZIB 142315Z 1500/1600 06005KT 1800 BR OVC003"
    },
    {
      "icao": "LZKZ",
      "alert": "OK",
      "vis_m": 4000,
      "fzfg": false,
      "metar_trigger": false,
      "taf_trigger": false,
      "metar": "METAR LZKZ 150330Z VRB01KT 4000 BR OVC035 M03/M04 Q1020 NOSIG",
      "taf": ""
    },
    {
      "icao": "LZTT",
      "alert": "OK",
      "vis_m": 9999,
      "fzfg": false,
      "metar_trigger": false,
      "taf_trigger": false,
      "metar": "METAR LZTT 150330Z VRB02KT 9999 FEW008 OVC020 M03/M04 Q1017",
      "taf": ""
    },
    {
      "icao": "OEJN",
      "alert": "OK",
      "vis_m": 9999,
      "fzfg": false,
      "metar_trigger": false,
      "taf_trigger": false,
      "metar": "METAR OEJN 150300Z 03006KT CAVOK 20/08 Q1016 NOSIG",
      "taf": "TAF OEJN 142300Z 1500/1606 02006KT 7000 FEW040"
    },
    {
      "icao": "OEMA",
      "alert": "OK",
      "vis_m": 9999,
      "fzfg": false,
      "metar_trigger": false,
      "taf_trigger": false,
      "metar": "METAR OEMA 150300Z VRB03KT CAVOK 13/M04 Q1022 NOSIG",
      "taf": "TAF OEMA 142300Z 1500/1606 VRB03KT CAVOK"
    },
    {
      "icao": "OJAI",
      "alert": "OK",
      "vis_m": 4000,
      "fzfg": false,
      "metar_trigger": false,
      "taf_trigger": false,
      "metar": "METAR OJAI 150300Z 26005KT 4000 BR NSC 04/02 Q1024 NOSIG",
      "taf": "TAF OJAI 142300Z 1500/1606 27012KT 4000 BR FEW025TCU BKN030"
    },
    {
      "icao": "OMAA",
      "alert": "OK",
      "vis_m": 9999,
      "fzfg": false,
      "metar_trigger": false,
      "taf_trigger": false,
      "metar": "METAR OMAA 150300Z 13003KT CAVOK 16/06 Q1016 NOSIG",
      "taf": "TAF OMAA 142300Z 1500/1606 13006KT 8000 NSC"
    },
    {
      "icao": "OMDB",
      "alert": "OK",
      "vis_m": 9999,
      "fzfg": false,
      "metar_trigger": false,
      "taf_trigger": false,
      "metar": "METAR OMDB 150330Z 13003KT CAVOK 18/06 Q1017 NOSIG",
      "taf": "TAF OMDB 142300Z 1500/1606 16005KT 8000 NSC"
    },
    {
      "icao": "UAAA",
      "alert": "OK",
      "vis_m": 1500,
      "fzfg": false,
      "metar_trigger": false,
      "taf_trigger": false,
      "metar": "SPECI UAAA 150340Z VRB01MPS 1500 R23L/1500U BR OVC002 M08/M09 Q1022 NOSIG RMK QBB070",
      "taf": "TAF UAAA 142303Z 1500/1524 30003MPS 1100 BR FU BKN005 OVC020 TXM02/1509Z TNM09/1503Z"
    },
    {
      "icao": "UBBB",
      "alert": "OK",
      "vis_m": 9999,
      "fzfg": false,
      "metar_trigger": false,
      "taf_trigger": false,
      "metar": "METAR UBBB 150330Z 32010KT 9999 OVC021 03/M01 Q1023 NOSIG",
      "taf": "TAF UBBB 142302Z 1500/1524 34014KT 9999 BKN030 TX06/1510Z TN03/1501Z"
    },
    {
      "icao": "UDSG",
      "alert": "OK",
      "vis_m": 9999,
      "fzfg": false,
      "metar_trigger": false,
      "taf_trigger": false,
      "metar": "METAR UDSG 150330Z 26001KT 9999 SCT049 M13/M16 Q1018 NOSIG",
      "taf": "TAF UDSG 142258Z 1500/1524 VRB06KT 9999 FEW040"
    },
    {
      "icao": "UDYZ",
      "alert": "OK",
      "vis_m": 9999,
      "fzfg": false,
      "metar_trigger": false,
      "taf_trigger": false,
      "metar": "METAR UDYZ 150330Z VRB01KT 9999 SCT036 M02/M07 Q1019 NOSIG",
      "taf": "TAF UDYZ 142300Z 1500/1524 VRB04KT 9999 FEW040"
    },
    {
      "icao": "UGKO",
      "alert": "OK",
      "vis_m": 9000,
      "fzfg": false,
      "metar_trigger": false,
      "taf_trigger": false,
      "metar": "METAR UGKO 150330Z 11002KT 9000 SCT006 BKN017 00/M01 Q1025 NOSIG",
      "taf": "TAF UGKO 142300Z 1500/1524 08007KT 9999 BKN050 TX07/1511Z TNM03/1501Z"
    }
  ]
}