{
  "ts_utc": "2026-01-16T16:48:16Z",
  "threshold_m": 150,
  "source": "stations_override.txt (ICAO list) + aviationweather.gov (METAR/TAF raw)",
  "station_count": 159,
  "stations": [
    {
      "icao": "BIKF",
      "alert": "OK",
      "vis_m": 9999,
      "fzfg": false,
      "metar_trigger": false,
      "taf_trigger": false,
      "metar": "METAR BIKF 161630Z 02013KT 9999 FEW018 02/M00 Q1005",
      "taf": "TAF BIKF 161634Z 1618/1718 02015KT 9999 FEW030 TX05/1718Z TNM02/1706Z"
    },
    {
      "icao": "BKPR",
      "alert": "OK",
      "vis_m": 9999,
      "fzfg": false,
      "metar_trigger": false,
      "taf_trigger": false,
      "metar": "METAR BKPR 161630Z 17001KT 9999 FEW050 05/04 Q1023 NOSIG",
      "taf": "TAF BKPR 161130Z 1612/1712 VRB05KT 8000 BKN060"
    },
    {
      "icao": "EBCI",
      "alert": "OK",
      "vis_m": 9999,
      "fzfg": false,
      "metar_trigger": false,
      "taf_trigger": false,
      "metar": "METAR EBCI 161620Z 16004KT 140V200 9999 FEW030 09/05 Q1013 NOSIG",
      "taf": "TAF EBCI 161109Z 1612/1718 19007KT 9999 FEW020 SCT030"
    },
    {
      "icao": "EDDB",
      "alert": "OK",
      "vis_m": 9999,
      "fzfg": false,
      "metar_trigger": false,
      "taf_trigger": false,
      "metar": "METAR EDDB 161620Z AUTO 13006KT CAVOK 05/03 Q1019 NOSIG",
      "taf": "TAF EDDB 161100Z 1612/1712 12007KT CAVOK"
    },
    {
      "icao": "EDDH",
      "alert": "OK",
      "vis_m": 9999,
      "fzfg": false,
      "metar_trigger": false,
      "taf_trigger": false,
      "metar": "METAR EDDH 161620Z AUTO 05003KT 9999 FEW034 07/06 Q1016 NOSIG",
      "taf": "TAF EDDH 161100Z 1612/1718 19009KT 9999 BKN030"
    },
    {
      "icao": "EDDK",
      "alert": "OK",
      "vis_m": 9999,
      "fzfg": false,
      "metar_trigger": false,
      "taf_trigger": false,
      "metar": "METAR EDDK 161620Z AUTO 15006KT 9999 BKN036 OVC048 10/07 Q1015 NOSIG",
      "taf": "TAF EDDK 161100Z 1612/1718 13007KT 9999 BKN040"
    },
    {
      "icao": "EDDN",
      "alert": "OK",
      "vis_m": 9999,
      "fzfg": false,
      "metar_trigger": false,
      "taf_trigger": false,
      "metar": "METAR EDDN 161620Z AUTO 10006KT CAVOK 04/01 Q1018 NOSIG",
      "taf": "TAF EDDN 161100Z 1612/1712 12006KT CAVOK"
    },
    {
      "icao": "EDDS",
      "alert": "OK",
      "vis_m": 9999,
      "fzfg": false,
      "metar_trigger": false,
      "taf_trigger": false,
      "metar": "METAR EDDS 161620Z AUTO 08005KT CAVOK 07/03 Q1016 NOSIG",
      "taf": "TAF EDDS 161100Z 1612/1712 VRB03KT CAVOK"
    },
    {
      "icao": "EDFH",
      "alert": "OK",
      "vis_m": 9999,
      "fzfg": false,
      "metar_trigger": false,
      "taf_trigger": false,
      "metar": "METAR EDFH 161620Z 17008KT 9999 FEW025 07/04 Q1015",
      "taf": "TAF EDFH 161100Z 1612/1712 16011KT 9999 SCT030"
    },
    {
      "icao": "EDJA",
      "alert": "OK",
      "vis_m": 9999,
      "fzfg": false,
      "metar_trigger": false,
      "taf_trigger": false,
      "metar": "METAR EDJA 161620Z 06007KT CAVOK 06/01 Q1016",
      "taf": "TAF EDJA 161400Z 1615/1624 05005KT CAVOK"
    },
    {
      "icao": "EDLW",
      "alert": "OK",
      "vis_m": 9999,
      "fzfg": false,
      "metar_trigger": false,
      "taf_trigger": false,
      "metar": "METAR EDLW 161620Z 20007KT 180V240 9999 FEW026 SCT032 BKN040 10/07 Q1014",
      "taf": "TAF EDLW 161100Z 1612/1712 19008KT 9999 SCT040"
    },
    {
      "icao": "EDNY",
      "alert": "OK",
      "vis_m": 9999,
      "fzfg": false,
      "metar_trigger": false,
      "taf_trigger": false,
      "metar": "METAR EDNY 161620Z 20001KT 9999 0800SW R24/P2000N BCFG SCT002 01/01 Q1016",
      "taf": ""
    },
    {
      "icao": "EDSB",
      "alert": "OK",
      "vis_m": 9999,
      "fzfg": false,
      "metar_trigger": false,
      "taf_trigger": false,
      "metar": "METAR EDSB 161620Z 06003KT 030V100 CAVOK 11/06 Q1015",
      "taf": "TAF EDSB 161100Z 1612/1712 VRB03KT CAVOK"
    },
    {
      "icao": "EETN",
      "alert": "OK",
      "vis_m": 9999,
      "fzfg": false,
      "metar_trigger": false,
      "taf_trigger": false,
      "metar": "METAR EETN 161620Z 14008KT 9999 OVC012 M06/M08 Q1030 TEMPO OVC010",
      "taf": "TAF EETN 161130Z 1612/1712 17012KT 9999 OVC025"
    },
    {
      "icao": "EFTU",
      "alert": "OK",
      "vis_m": 9999,
      "fzfg": false,
      "metar_trigger": false,
      "taf_trigger": false,
      "metar": "METAR EFTU 161620Z AUTO 16014KT 9999 OVC007 M01/M03 Q1025",
      "taf": "TAF EFTU 161429Z 1615/1715 17009KT 9999 OVC013"
    },
    {
      "icao": "EGBB",
      "alert": "OK",
      "vis_m": 9999,
      "fzfg": false,
      "metar_trigger": false,
      "taf_trigger": false,
      "metar": "METAR EGBB 161620Z 15007KT CAVOK 06/04 Q1006",
      "taf": "TAF EGBB 161057Z 1612/1712 14008KT 4000 BR BKN003"
    },
    {
      "icao": "EGGP",
      "alert": "OK",
      "vis_m": 9999,
      "fzfg": false,
      "metar_trigger": false,
      "taf_trigger": false,
      "metar": "METAR EGGP 161620Z 13007KT 9999 FEW030 06/04 Q1005",
      "taf": "TAF EGGP 161055Z 1612/1712 15009KT 9999 FEW025"
    },
    {
      "icao": "EGGW",
      "alert": "OK",
      "vis_m": 9999,
      "fzfg": false,
      "metar_trigger": false,
      "taf_trigger": false,
      "metar": "METAR EGGW 161620Z AUTO 16007KT 130V190 9999 SCT021 07/05 Q1008",
      "taf": "TAF EGGW 161056Z 1612/1712 20010KT 9999 SCT015"
    },
    {
      "icao": "EGKK",
      "alert": "OK",
      "vis_m": 9999,
      "fzfg": false,
      "metar_trigger": false,
      "taf_trigger": false,
      "metar": "METAR EGKK 161620Z 15007KT 120V180 9999 BKN014 BKN020 09/07 Q1009",
      "taf": "TAF EGKK 161059Z 1612/1718 16008KT 9999 SCT045"
    },
    {
      "icao": "EGNM",
      "alert": "OK",
      "vis_m": 9999,
      "fzfg": false,
      "metar_trigger": false,
      "taf_trigger": false,
      "metar": "METAR EGNM 161620Z 14008KT 9999 FEW013 04/02 Q1006",
      "taf": "TAF EGNM 161124Z 1612/1712 15005KT 9999 SCT015"
    },
    {
      "icao": "EGPD",
      "alert": "OK",
      "vis_m": 9999,
      "fzfg": false,
      "metar_trigger": false,
      "taf_trigger": false,
      "metar": "METAR EGPD 161620Z COR AUTO VRB01KT 9999 FEW014 01/M00 Q1005 NOSIG",
      "taf": "TAF EGPD 161100Z 1612/1712 VRB03KT 9999 FEW040"
    },
    {
      "icao": "EGPF",
      "alert": "OK",
      "vis_m": 9999,
      "fzfg": false,
      "metar_trigger": false,
      "taf_trigger": false,
      "metar": "METAR EGPF 161620Z AUTO 07007KT 9999 SCT032/// BKN043/// //////TCU 04/03 Q1004",
      "taf": "TAF EGPF 161101Z 1612/1712 07009KT 9999 SCT025"
    },
    {
      "icao": "EHBK",
      "alert": "OK",
      "vis_m": 9999,
      "fzfg": false,
      "metar_trigger": false,
      "taf_trigger": false,
      "metar": "METAR EHBK 161625Z AUTO 17005KT 9999 SCT035/// BKN046/// 09/07 Q1014 NOSIG",
      "taf": "TAF EHBK 161109Z 1612/1718 18008KT 9999 BKN020"
    },
    {
      "icao": "EHEH",
      "alert": "OK",
      "vis_m": 9999,
      "fzfg": false,
      "metar_trigger": false,
      "taf_trigger": false,
      "metar": "METAR EHEH 161625Z AUTO 14003KT 110V230 9999 FEW050 OVC140 09/07 Q1013 BLU NOSIG",
      "taf": "TAF EHEH 161112Z 1612/1718 19003KT CAVOK"
    },
    {
      "icao": "EKBI",
      "alert": "OK",
      "vis_m": 9999,
      "fzfg": false,
      "metar_trigger": false,
      "taf_trigger": false,
      "metar": "METAR EKBI 161620Z AUTO 21006KT 9999 OVC020/// 06/04 Q1015",
      "taf": "TAF EKBI 161427Z 1615/1715 20008KT 8000 BKN015"
    },
    {
      "icao": "EKCH",
      "alert": "OK",
      "vis_m": 9999,
      "fzfg": false,
      "metar_trigger": false,
      "taf_trigger": false,
      "metar": "METAR EKCH 161620Z AUTO 17009KT 9999 BKN025/// BKN054/// 04/03 Q1017 NOSIG",
      "taf": "TAF EKCH 161427Z 1615/1715 16015KT 9999 SCT020"
    },
    {
      "icao": "ENAL",
      "alert": "OK",
      "vis_m": 9999,
      "fzfg": false,
      "metar_trigger": false,
      "taf_trigger": false,
      "metar": "METAR ENAL 161620Z 18006KT 9999 BKN053 06/01 Q1004",
      "taf": "TAF ENAL 161400Z 1615/1624 14009KT 9999 SCT050"
    },
    {
      "icao": "ENBR",
      "alert": "OK",
      "vis_m": 9999,
      "fzfg": false,
      "metar_trigger": false,
      "taf_trigger": false,
      "metar": "METAR ENBR 161620Z VRB01KT 9999 -RA FEW007 BKN013 03/03 Q1004 TEMPO 4000 RA BKN008 RMK WIND 1200FT 31008KT",
      "taf": ""
    },
    {
      "icao": "ENGM",
      "alert": "OK",
      "vis_m": 5000,
      "fzfg": false,
      "metar_trigger": false,
      "taf_trigger": false,
      "metar": "METAR ENGM 161620Z VRB02KT 5000 -RA SCT002 BKN004 00/M00 Q1008 TEMPO 4000 BR",
      "taf": ""
    },
    {
      "icao": "ENHD",
      "alert": "OK",
      "vis_m": 9999,
      "fzfg": false,
      "metar_trigger": false,
      "taf_trigger": false,
      "metar": "METAR ENHD 161620Z 32008KT 9999 -SHRA FEW007 BKN017 05/04 Q1005",
      "taf": "TAF ENHD 161400Z 1615/1623 34012KT 8000 -RA SCT010 BKN018"
    },
    {
      "icao": "ENTC",
      "alert": "OK",
      "vis_m": 9999,
      "fzfg": false,
      "metar_trigger": false,
      "taf_trigger": false,
      "metar": "METAR ENTC 161620Z 25007KT CAVOK M02/M06 Q1013 NOSIG RMK WIND 2600FT 22006KT",
      "taf": "TAF ENTC 161100Z 1612/1712 22012KT CAVOK"
    },
    {
      "icao": "ENTO",
      "alert": "OK",
      "vis_m": 1500,
      "fzfg": false,
      "metar_trigger": false,
      "taf_trigger": false,
      "metar": "METAR ENTO 161620Z 19016KT 1500 DZ BKN002 OVC003 05/05 Q1008 REDZRA TEMPO 1200 -DZ BR",
      "taf": ""
    },
    {
      "icao": "ENVA",
      "alert": "OK",
      "vis_m": 9999,
      "fzfg": false,
      "metar_trigger": false,
      "taf_trigger": false,
      "metar": "METAR ENVA 161620Z 13010KT 9999 -RA FEW010 SCT055 06/M01 Q1006 NOSIG RMK WIND 670FT 16014KT",
      "taf": "TAF ENVA 161100Z 1612/1712 12008KT CAVOK"
    },
    {
      "icao": "ENZV",
      "alert": "OK",
      "vis_m": 9999,
      "fzfg": false,
      "metar_trigger": false,
      "taf_trigger": false,
      "metar": "METAR ENZV 161620Z 26013KT 9999 BKN006 BKN010 OVC014 06/05 Q1005 BECMG SCT010 BKN018",
      "taf": ""
    },
    {
      "icao": "EPGD",
      "alert": "OK",
      "vis_m": 1000,
      "fzfg": false,
      "metar_trigger": false,
      "taf_trigger": false,
      "metar": "METAR EPGD 161630Z 16011KT 1000 R29/1900N BR OVC001 M02/M02 Q1023",
      "taf": ""
    },
    {
      "icao": "EPKK",
      "alert": "OK",
      "vis_m": 4000,
      "fzfg": false,
      "metar_trigger": false,
      "taf_trigger": false,
      "metar": "METAR EPKK 161630Z 06007KT 4000 BR BKN005 OVC012 00/M01 Q1025",
      "taf": "TAF EPKK 161430Z 1615/1715 06007KT CAVOK"
    },
    {
      "icao": "EPKT",
      "alert": "OK",
      "vis_m": 3700,
      "fzfg": false,
      "metar_trigger": false,
      "taf_trigger": false,
      "metar": "METAR EPKT 161630Z 12007KT 3700 BR OVC008 01/00 Q1024",
      "taf": ""
    },
    {
      "icao": "EPLB",
      "alert": "OK",
      "vis_m": 9999,
      "fzfg": false,
      "metar_trigger": false,
      "taf_trigger": false,
      "metar": "METAR EPLB 161630Z 10009KT CAVOK M10/M13 Q1030",
      "taf": "TAF EPLB 161130Z 1612/1712 11008KT 7000 NSC"
    },
    {
      "icao": "EPMO",
      "alert": "OK",
      "vis_m": 5000,
      "fzfg": false,
      "metar_trigger": false,
      "taf_trigger": false,
      "metar": "METAR EPMO 161630Z 10007KT 070V130 5000 BR BKN010 M04/M05 Q1028",
      "taf": "TAF EPMO 161130Z 1612/1712 11010KT 3000 BR BKN010"
    },
    {
      "icao": "EPPO",
      "alert": "OK",
      "vis_m": 2600,
      "fzfg": false,
      "metar_trigger": false,
      "taf_trigger": false,
      "metar": "METAR EPPO 161630Z 14011KT 2600 BR OVC003 02/02 Q1023",
      "taf": ""
    },
    {
      "icao": "EPRA",
      "alert": "OK",
      "vis_m": 8000,
      "fzfg": false,
      "metar_trigger": false,
      "taf_trigger": false,
      "metar": "METAR EPRA 161630Z 12009KT 8000 NSC M05/M06 Q1027",
      "taf": "TAF EPRA 161430Z 1615/1624 12010KT 8000 OVC010"
    },
    {
      "icao": "EPRZ",
      "alert": "OK",
      "vis_m": 7000,
      "fzfg": false,
      "metar_trigger": false,
      "taf_trigger": false,
      "metar": "METAR EPRZ 161630Z 10011KT 7000 BKN011 M03/M06 Q1027",
      "taf": "TAF EPRZ 161130Z 1612/1712 08013KT 3000 BR OVC003"
    },
    {
      "icao": "EPSC",
      "alert": "OK",
      "vis_m": 3100,
      "fzfg": false,
      "metar_trigger": false,
      "taf_trigger": false,
      "metar": "METAR EPSC 161630Z 14008KT 3100 BR OVC004 02/02 Q1020",
      "taf": ""
    },
    {
      "icao": "EPSY",
      "alert": "OK",
      "vis_m": 5000,
      "fzfg": false,
      "metar_trigger": false,
      "taf_trigger": false,
      "metar": "METAR EPSY 161630Z 14007KT 100V170 5000 BR BKN006 M08/M09 Q1029",
      "taf": "TAF EPSY 161430Z 1615/1624 13008KT 7000 NSC"
    },
    {
      "icao": "EPWA",
      "alert": "OK",
      "vis_m": 8000,
      "fzfg": false,
      "metar_trigger": false,
      "taf_trigger": false,
      "metar": "METAR EPWA 161630Z 11011KT 090V150 8000 BKN009 M04/M06 Q1028 TEMPO 4000 BR",
      "taf": "TAF EPWA 161430Z 1615/1715 12010KT 6000 BKN012"
    },
    {
      "icao": "EPWR",
      "alert": "OK",
      "vis_m": 9999,
      "fzfg": false,
      "metar_trigger": false,
      "taf_trigger": false,
      "metar": "METAR EPWR 161630Z 11008KT CAVOK 02/01 Q1022",
      "taf": "TAF EPWR 161430Z 1615/1715 13006KT CAVOK"
    },
    {
      "icao": "ESGG",
      "alert": "OK",
      "vis_m": 7000,
      "fzfg": false,
      "metar_trigger": false,
      "taf_trigger": false,
      "metar": "METAR ESGG 161620Z 18014KT 7000 OVC005 04/04 Q1013",
      "taf": "TAF ESGG 161430Z 1615/1715 16012KT 9000 BKN002"
    },
    {
      "icao": "ESKN",
      "alert": "OK",
      "vis_m": 650,
      "fzfg": false,
      "metar_trigger": false,
      "taf_trigger": false,
      "metar": "METAR ESKN 161620Z 16017KT 0650 R08/P2000N R26/1800N FG OVC002 03/03 Q1017",
      "taf": ""
    },
    {
      "icao": "ESMS",
      "alert": "OK",
      "vis_m": 5000,
      "fzfg": false,
      "metar_trigger": false,
      "taf_trigger": false,
      "metar": "METAR ESMS 161620Z 16007KT 5000 BR FEW028 04/04 Q1017",
      "taf": "TAF ESMS 161427Z 1615/1715 15010KT 9000 BKN015"
    },
    {
      "icao": "ESSA",
      "alert": "OK",
      "vis_m": 8000,
      "fzfg": false,
      "metar_trigger": false,
      "taf_trigger": false,
      "metar": "METAR ESSA 161620Z 16014KT 8000 OVC008 02/01 Q1018 TEMPO OVC010",
      "taf": ""
    },
    {
      "icao": "EYKA",
      "alert": "OK",
      "vis_m": 9999,
      "fzfg": false,
      "metar_trigger": false,
      "taf_trigger": false,
      "metar": "METAR EYKA 161620Z 14005KT 110V270 CAVOK M13/M16 Q1033",
      "taf": "TAF EYKA 161100Z 1612/1712 VRB04KT 7000 NSC"
    },
    {
      "icao": "EYPA",
      "alert": "OK",
      "vis_m": 9000,
      "fzfg": false,
      "metar_trigger": false,
      "taf_trigger": false,
      "metar": "METAR EYPA 161620Z 14015KT 9000 OVC007 M05/M07 Q1027",
      "taf": "TAF EYPA 161100Z 1612/1712 14012KT 6000 SCT010 BKN015"
    },
    {
      "icao": "EYVI",
      "alert": "OK",
      "vis_m": 9999,
      "fzfg": false,
      "metar_trigger": false,
      "taf_trigger": false,
      "metar": "METAR EYVI 161620Z 15008KT CAVOK M13/M16 Q1034 NOSIG",
      "taf": "TAF EYVI 161101Z 1612/1712 16010KT 7000 NSC"
    },
    {
      "icao": "GCFV",
      "alert": "OK",
      "vis_m": 9999,
      "fzfg": false,
      "metar_trigger": false,
      "taf_trigger": false,
      "metar": "METAR GCFV 161630Z 32011KT 9999 SCT025 BKN035 21/12 Q1022",
      "taf": "TAF GCFV 161400Z 1615/1715 36012KT 9999 BKN030 TX20/1714Z TN15/1706Z"
    },
    {
      "icao": "GCLP",
      "alert": "OK",
      "vis_m": 9999,
      "fzfg": false,
      "metar_trigger": false,
      "taf_trigger": false,
      "metar": "METAR GCLP 161630Z 01019KT 9999 FEW030 20/13 Q1023 NOSIG",
      "taf": "TAF GCLP 161400Z 1615/1715 01018KT 9999 BKN025 TX21/1714Z TN15/1706Z"
    },
    {
      "icao": "GCTS",
      "alert": "OK",
      "vis_m": 9999,
      "fzfg": false,
      "metar_trigger": false,
      "taf_trigger": false,
      "metar": "METAR GCTS 161630Z 18005KT 150V230 9999 FEW030 19/12 Q1023 NOSIG",
      "taf": "TAF GCTS 161400Z 1615/1715 VRB05KT 9999 SCT035 TX22/1714Z TN14/1706Z"
    },
    {
      "icao": "GMAD",
      "alert": "OK",
      "vis_m": 9999,
      "fzfg": false,
      "metar_trigger": false,
      "taf_trigger": false,
      "metar": "METAR GMAD 161630Z 26013KT 9999 BKN023 17/12 Q1020 NOSIG",
      "taf": "TAF GMAD 161100Z 1612/1718 09003KT CAVOK"
    },
    {
      "icao": "GMMN",
      "alert": "OK",
      "vis_m": 9999,
      "fzfg": false,
      "metar_trigger": false,
      "taf_trigger": false,
      "metar": "METAR GMMN 161630Z 24009KT 9999 SCT010 BKN020 14/12 Q1018 NOSIG",
      "taf": "TAF GMMN 161100Z 1612/1718 210015KT 8000 SCT010 BKN020"
    },
    {
      "icao": "GMMX",
      "alert": "OK",
      "vis_m": 3000,
      "fzfg": false,
      "metar_trigger": false,
      "taf_trigger": false,
      "metar": "SPECI GMMX 161638Z 28014KT 3000 RA SCT016 BKN023 13/11 Q1019 TEMPO 1500 SHRA",
      "taf": "TAF GMMX 161100Z 1612/1712 06006KT 8000 SCT026"
    },
    {
      "icao": "HEGN",
      "alert": "OK",
      "vis_m": 9999,
      "fzfg": false,
      "metar_trigger": false,
      "taf_trigger": false,
      "metar": "METAR HEGN 161600Z 34005KT CAVOK 19/09 Q1018 NOSIG",
      "taf": "TAF HEGN 161100Z 1612/1718 01012KT CAVOK"
    },
    {
      "icao": "HEMA",
      "alert": "OK",
      "vis_m": 9999,
      "fzfg": false,
      "metar_trigger": false,
      "taf_trigger": false,
      "metar": "METAR HEMA 161600Z 35010KT CAVOK 20/10 Q1017 NOSIG",
      "taf": "TAF HEMA 161100Z 1612/1718 36015KT 9999 FEW025"
    },
    {
      "icao": "HESH",
      "alert": "OK",
      "vis_m": 9999,
      "fzfg": false,
      "metar_trigger": false,
      "taf_trigger": false,
      "metar": "METAR HESH 161600Z 34006KT CAVOK 19/07 Q1018 NOSIG",
      "taf": "TAF HESH 161100Z 1612/1718 03010KT CAVOK"
    },
    {
      "icao": "HESX",
      "alert": "OK",
      "vis_m": 9999,
      "fzfg": false,
      "metar_trigger": false,
      "taf_trigger": false,
      "metar": "METAR HESX 161600Z 01010KT 9999 SCT030 SCT100 15/07 Q1021 NOSIG",
      "taf": "TAF HESX 161150Z 1612/1718 01006KT 9999 SCT025 SCT070"
    },
    {
      "icao": "LATI",
      "alert": "OK",
      "vis_m": null,
      "fzfg": false,
      "metar_trigger": false,
      "taf_trigger": false,
      "metar": "",
      "taf": "TAF LATI 161100Z 1612/1712 VRB05KT 9999 FEW050 BKN080 TX16/1612Z TN05/1705Z"
    },
    {
      "icao": "LBPD",
      "alert": "OK",
      "vis_m": 9999,
      "fzfg": false,
      "metar_trigger": false,
      "taf_trigger": false,
      "metar": "METAR LBPD 161630Z AUTO 11013KT 9999 -RA FEW005/// OVC008/// 02/02 Q1027 NOSIG",
      "taf": "TAF LBPD 161100Z 1612/1712 10010KT 9999 BKN070"
    },
    {
      "icao": "LBSF",
      "alert": "OK",
      "vis_m": 9999,
      "fzfg": false,
      "metar_trigger": false,
      "taf_trigger": false,
      "metar": "METAR LBSF 161630Z AUTO 09005KT 060V130 9999 -SHRA SCT042/// BKN054/// OVC073/// 03/M00 Q1024 TEMPO 5000 RA",
      "taf": "TAF LBSF 161100Z 1612/1712 10010KT 9999 BKN060"
    },
    {
      "icao": "LBWN",
      "alert": "OK",
      "vis_m": 9999,
      "fzfg": false,
      "metar_trigger": false,
      "taf_trigger": false,
      "metar": "METAR LBWN 161630Z AUTO 01004KT 290V050 9999 NCD M04/M09 Q1031 NOSIG",
      "taf": "TAF LBWN 161100Z 1612/1712 02010KT 9999 SCT020 OVC040"
    },
    {
      "icao": "LCLK",
      "alert": "OK",
      "vis_m": 9999,
      "fzfg": false,
      "metar_trigger": false,
      "taf_trigger": false,
      "metar": "METAR LCLK 161630Z 26002KT 9999 FEW030 13/10 Q1020 NOSIG",
      "taf": "TAF LCLK 161130Z 1612/1712 18010KT 9999 FEW025"
    },
    {
      "icao": "LCPH",
      "alert": "OK",
      "vis_m": 9999,
      "fzfg": false,
      "metar_trigger": false,
      "taf_trigger": false,
      "metar": "METAR LCPH 161630Z 26004KT 250V320 9999 FEW025 BKN060 16/10 Q1020 NOSIG",
      "taf": "TAF LCPH 161130Z 1612/1712 21010KT 9999 FEW025"
    },
    {
      "icao": "LEAL",
      "alert": "OK",
      "vis_m": 9999,
      "fzfg": false,
      "metar_trigger": false,
      "taf_trigger": false,
      "metar": "METAR LEAL 161630Z 14004KT 100V190 9999 SCT065 16/10 Q1012 NOSIG",
      "taf": "TAF LEAL 161100Z 1612/1712 VRB04KT 9999 FEW020 TX16/1613Z TN07/1706Z"
    },
    {
      "icao": "LEBB",
      "alert": "OK",
      "vis_m": 9999,
      "fzfg": false,
      "metar_trigger": false,
      "taf_trigger": false,
      "metar": "METAR LEBB 161630Z VRB05KT CAVOK 13/03 Q1009 NOSIG",
      "taf": "TAF LEBB 161100Z 1612/1712 12006KT 9999 FEW045 TX14/1613Z TN06/1707Z"
    },
    {
      "icao": "LEBL",
      "alert": "OK",
      "vis_m": 9000,
      "fzfg": false,
      "metar_trigger": false,
      "taf_trigger": false,
      "metar": "METAR LEBL 161630Z 07005KT 040V100 9000 SCT018 BKN062 13/11 Q1013 NOSIG",
      "taf": "TAF LEBL 161100Z 1612/1712 VRB04KT 9999 FEW015 SCT050 TX12/1612Z TN09/1706Z"
    },
    {
      "icao": "LECH",
      "alert": "OK",
      "vis_m": 9999,
      "fzfg": false,
      "metar_trigger": false,
      "taf_trigger": false,
      "metar": "METAR LECH 161630Z AUTO 17004KT 9999 OVC032 11/07 Q1012",
      "taf": ""
    },
    {
      "icao": "LEMD",
      "alert": "OK",
      "vis_m": 9999,
      "fzfg": false,
      "metar_trigger": false,
      "taf_trigger": false,
      "metar": "METAR LEMD 161630Z 23007KT 190V250 9999 FEW035 SCT059 10/04 Q1010 NOSIG",
      "taf": ""
    },
    {
      "icao": "LEMG",
      "alert": "OK",
      "vis_m": 9999,
      "fzfg": false,
      "metar_trigger": false,
      "taf_trigger": false,
      "metar": "METAR LEMG 161630Z 18004KT 150V210 9999 FEW027 15/10 Q1013 NOSIG",
      "taf": "TAF LEMG 161100Z 1612/1712 31006KT 9999 FEW030 SCT050 TX17/1614Z TN07/1707Z"
    },
    {
      "icao": "LEVC",
      "alert": "OK",
      "vis_m": 9999,
      "fzfg": false,
      "metar_trigger": false,
      "taf_trigger": false,
      "metar": "METAR LEVC 161630Z 02004KT 340V070 9999 SCT015 SCT045 14/09 Q1012 NOSIG",
      "taf": "TAF LEVC 161100Z 1612/1712 VRB04KT 9999 FEW030 TX15/1612Z TN04/1706Z"
    },
    {
      "icao": "LEXJ",
      "alert": "OK",
      "vis_m": 9999,
      "fzfg": false,
      "metar_trigger": false,
      "taf_trigger": false,
      "metar": "METAR LEXJ 161630Z 27008KT 240V300 9999 SCT070 12/06 Q1009",
      "taf": ""
    },
    {
      "icao": "LEZG",
      "alert": "OK",
      "vis_m": 4000,
      "fzfg": false,
      "metar_trigger": false,
      "taf_trigger": false,
      "metar": "METAR LEZG 161630Z 14005KT 110V190 4000 RA BR SCT012 SCT020 OVC050 10/09 Q1011 NOSIG",
      "taf": ""
    },
    {
      "icao": "LEZL",
      "alert": "OK",
      "vis_m": 7000,
      "fzfg": false,
      "metar_trigger": false,
      "taf_trigger": false,
      "metar": "SPECI LEZL 161642Z 30016KT 7000 -RA FEW012 SCT022 BKN042 12/11 Q1013 RERA TEMPO 4000 SHRA FEW025TCU",
      "taf": "TAF LEZL 161400Z 1615/1715 22010KT 9999 SCT040 TX14/1715Z TN04/1707Z"
    },
    {
      "icao": "LFBD",
      "alert": "OK",
      "vis_m": 9999,
      "fzfg": false,
      "metar_trigger": false,
      "taf_trigger": false,
      "metar": "METAR LFBD 161630Z AUTO 11004KT CAVOK 10/09 Q1010 NOSIG",
      "taf": ""
    },
    {
      "icao": "LFLL",
      "alert": "OK",
      "vis_m": 9999,
      "fzfg": false,
      "metar_trigger": false,
      "taf_trigger": false,
      "metar": "METAR LFLL 161630Z 12003KT CAVOK 11/03 Q1013 NOSIG",
      "taf": "TAF LFLL 161100Z 1612/1718 14006KT CAVOK"
    },
    {
      "icao": "LFLS",
      "alert": "OK",
      "vis_m": 9999,
      "fzfg": false,
      "metar_trigger": false,
      "taf_trigger": false,
      "metar": "METAR LFLS 161630Z AUTO 09006KT 050V130 CAVOK 10/03 Q1014 NOSIG",
      "taf": "TAF LFLS 161400Z 1615/1715 16008KT CAVOK"
    },
    {
      "icao": "LFMN",
      "alert": "OK",
      "vis_m": 9999,
      "fzfg": false,
      "metar_trigger": false,
      "taf_trigger": false,
      "metar": "METAR LFMN 161630Z VRB03KT 9999 FEW040 OVC130 12/04 Q1017 BECMG 09012KT",
      "taf": ""
    },
    {
      "icao": "LFOB",
      "alert": "OK",
      "vis_m": 9999,
      "fzfg": false,
      "metar_trigger": false,
      "taf_trigger": false,
      "metar": "METAR LFOB 161630Z AUTO 12006KT 9999 FEW029 BKN160 BKN230 07/05 Q1012 NOSIG",
      "taf": ""
    },
    {
      "icao": "LFPO",
      "alert": "OK",
      "vis_m": 9999,
      "fzfg": false,
      "metar_trigger": false,
      "taf_trigger": false,
      "metar": "METAR LFPO 161630Z AUTO 12003KT 9999 SCT021 BKN030 BKN056 10/06 Q1012",
      "taf": "TAF LFPO 160500Z 1606/1712 21010KT 9999 SCT012 BKN020"
    },
    {
      "icao": "LFSB",
      "alert": "OK",
      "vis_m": 9999,
      "fzfg": false,
      "metar_trigger": false,
      "taf_trigger": false,
      "metar": "METAR LFSB 161630Z AUTO 14007KT CAVOK 08/02 Q1015 NOSIG",
      "taf": "TAF LFSB 161100Z 1612/1712 15008KT CAVOK"
    },
    {
      "icao": "LGAV",
      "alert": "OK",
      "vis_m": 9999,
      "fzfg": false,
      "metar_trigger": false,
      "taf_trigger": false,
      "metar": "METAR LGAV 161620Z VRB02KT 9999 FEW025 BKN040 13/08 Q1022 NOSIG",
      "taf": "TAF LGAV 161100Z 1612/1712 VRB03KT 9999 FEW030"
    },
    {
      "icao": "LGTS",
      "alert": "OK",
      "vis_m": 9999,
      "fzfg": false,
      "metar_trigger": false,
      "taf_trigger": false,
      "metar": "METAR LGTS 161620Z VRB03KT 9999 FEW020 11/06 Q1022 NOSIG",
      "taf": "TAF LGTS 161100Z 1612/1712 VRB03KT 9999 FEW030"
    },
    {
      "icao": "LHBP",
      "alert": "OK",
      "vis_m": 2800,
      "fzfg": false,
      "metar_trigger": false,
      "taf_trigger": false,
      "metar": "METAR LHBP 161630Z VRB02KT 2800 BR OVC002 02/01 Q1025 NOSIG",
      "taf": "TAF LHBP 161115Z 1612/1712 08005KT 3000 BR SCT004 OVC010"
    },
    {
      "icao": "LHDC",
      "alert": "OK",
      "vis_m": 9999,
      "fzfg": false,
      "metar_trigger": false,
      "taf_trigger": false,
      "metar": "METAR LHDC 161615Z AUTO 07006KT 020V080 9999 OVC025 03/01 Q1026 NOSIG",
      "taf": "TAF LHDC 161415Z 1615/1624 07005KT 8000 OVC035"
    },
    {
      "icao": "LIBD",
      "alert": "OK",
      "vis_m": 9999,
      "fzfg": false,
      "metar_trigger": false,
      "taf_trigger": false,
      "metar": "METAR LIBD 161620Z 29004KT CAVOK 10/09 Q1020",
      "taf": "TAF LIBD 161100Z 1612/1712 VRB05KT 9999 FEW030"
    },
    {
      "icao": "LIBG",
      "alert": "OK",
      "vis_m": 9999,
      "fzfg": false,
      "metar_trigger": false,
      "taf_trigger": false,
      "metar": "METAR LIBG 161550Z VRB01KT 9999 FEW030 14/14 Q1020",
      "taf": "TAF LIBG 161400Z 1615/1624 VRB05KT 8000 FEW025"
    },
    {
      "icao": "LIBP",
      "alert": "OK",
      "vis_m": 7000,
      "fzfg": false,
      "metar_trigger": false,
      "taf_trigger": false,
      "metar": "METAR LIBP 161620Z AUTO 08005KT 7000 NCD 08/07 Q1021",
      "taf": "TAF LIBP 161100Z 1612/1712 VRB05KT CAVOK"
    },
    {
      "icao": "LIBR",
      "alert": "OK",
      "vis_m": 9999,
      "fzfg": false,
      "metar_trigger": false,
      "taf_trigger": false,
      "metar": "METAR LIBR 161620Z 35003KT 9999 FEW015 SCT030 13/10 Q1020",
      "taf": "TAF LIBR 161100Z 1612/1712 VRB05KT 9999 FEW025"
    },
    {
      "icao": "LICA",
      "alert": "OK",
      "vis_m": 9999,
      "fzfg": false,
      "metar_trigger": false,
      "taf_trigger": false,
      "metar": "METAR LICA 161620Z AUTO 06012KT 9999 BKN140/// BKN160/// 14/11 Q1018",
      "taf": "TAF LICA 161100Z 1612/1712 08012KT CAVOK"
    },
    {
      "icao": "LICC",
      "alert": "OK",
      "vis_m": 8000,
      "fzfg": false,
      "metar_trigger": false,
      "taf_trigger": false,
      "metar": "METAR LICC 161620Z 04006KT 010V070 8000 SCT030 BKN120 15/13 Q1017",
      "taf": "TAF LICC 161100Z 1612/1712 VRB05KT 9999 SCT020"
    },
    {
      "icao": "LICJ",
      "alert": "OK",
      "vis_m": 9999,
      "fzfg": false,
      "metar_trigger": false,
      "taf_trigger": false,
      "metar": "METAR LICJ 161620Z VRB02KT 9999 SCT045 15/10 Q1016",
      "taf": "TAF LICJ 161100Z 1612/1712 VRB06KT CAVOK"
    },
    {
      "icao": "LIMC",
      "alert": "OK",
      "vis_m": 3000,
      "fzfg": false,
      "metar_trigger": false,
      "taf_trigger": false,
      "metar": "METAR LIMC 161620Z VRB02KT 3000 -DZ BR BKN005 BKN060 07/06 Q1020 NOSIG",
      "taf": "TAF LIMC 161100Z 1612/1718 VRB05KT 2000 -RA BR BKN003"
    },
    {
      "icao": "LIME",
      "alert": "OK",
      "vis_m": 1000,
      "fzfg": false,
      "metar_trigger": false,
      "taf_trigger": false,
      "metar": "METAR LIME 161620Z VRB02KT 1000 R28/P2000N BR SCT010 SCT065 08/07 Q1021 NOSIG",
      "taf": ""
    },
    {
      "icao": "LIMF",
      "alert": "OK",
      "vis_m": 5000,
      "fzfg": false,
      "metar_trigger": false,
      "taf_trigger": false,
      "metar": "METAR LIMF 161620Z 24002KT 5000 BR SCT065 OVC080 08/03 Q1020",
      "taf": "TAF LIMF 161100Z 1612/1712 VRB03KT 6000 SCT020 BKN060"
    },
    {
      "icao": "LIMJ",
      "alert": "OK",
      "vis_m": 9999,
      "fzfg": false,
      "metar_trigger": false,
      "taf_trigger": false,
      "metar": "METAR LIMJ 161620Z 04012KT 9999 BKN025 BKN035 10/08 Q1019",
      "taf": "TAF LIMJ 161100Z 1612/1712 04014KT 9999 BKN030"
    },
    {
      "icao": "LIPE",
      "alert": "OK",
      "vis_m": 1800,
      "fzfg": false,
      "metar_trigger": false,
      "taf_trigger": false,
      "metar": "METAR LIPE 161620Z 05001KT 1800 BR OVC012 08/06 Q1021",
      "taf": "TAF LIPE 161100Z 1612/1712 VRB04KT 2000 BR BKN020"
    },
    {
      "icao": "LIPH",
      "alert": "OK",
      "vis_m": 5000,
      "fzfg": false,
      "metar_trigger": false,
      "taf_trigger": false,
      "metar": "METAR LIPH 161620Z 06002KT 5000 BR SCT080 07/05 Q1022",
      "taf": "TAF LIPH 161100Z 1612/1712 VRB04KT 7000 SCT040"
    },
    {
      "icao": "LIPQ",
      "alert": "OK",
      "vis_m": 3300,
      "fzfg": false,
      "metar_trigger": false,
      "taf_trigger": false,
      "metar": "METAR LIPQ 161620Z AUTO 17001KT 3300 BR OVC011/// 09/08 Q1022",
      "taf": "TAF LIPQ 161100Z 1612/1712 VRB04KT 8000 BKN020"
    },
    {
      "icao": "LIPR",
      "alert": "OK",
      "vis_m": 4100,
      "fzfg": false,
      "metar_trigger": false,
      "taf_trigger": false,
      "metar": "METAR LIPR 161620Z AUTO VRB01KT 4100 BR OVC009/// 07/06 Q1022",
      "taf": "TAF LIPR 161100Z 1612/1712 VRB04KT 2000 BR BKN020"
    },
    {
      "icao": "LIPX",
      "alert": "OK",
      "vis_m": 1500,
      "fzfg": false,
      "metar_trigger": false,
      "taf_trigger": false,
      "metar": "METAR LIPX 161620Z 12002KT 1500 BR BKN006 BKN060 08/07 Q1021",
      "taf": "TAF LIPX 161100Z 1612/1712 VRB04KT 3000 BR SCT040"
    },
    {
      "icao": "LIPY",
      "alert": "OK",
      "vis_m": 2900,
      "fzfg": false,
      "metar_trigger": false,
      "taf_trigger": false,
      "metar": "METAR LIPY 161620Z AUTO 36004KT 2900 BR OVC005/// 08/08 Q1022",
      "taf": "TAF LIPY 161100Z 1612/1712 VRB05KT 0200 FG OVC002"
    },
    {
      "icao": "LIPZ",
      "alert": "OK",
      "vis_m": 6000,
      "fzfg": false,
      "metar_trigger": false,
      "taf_trigger": false,
      "metar": "METAR LIPZ 161620Z 15004KT 6000 BKN014 07/05 Q1022 NOSIG",
      "taf": "TAF LIPZ 161100Z 1612/1718 VRB04KT 6000 SCT030"
    },
    {
      "icao": "LIRF",
      "alert": "OK",
      "vis_m": 9999,
      "fzfg": false,
      "metar_trigger": false,
      "taf_trigger": false,
      "metar": "METAR LIRF 161620Z VRB01KT CAVOK 12/07 Q1018 NOSIG",
      "taf": "TAF LIRF 161100Z 1612/1718 06007KT CAVOK"
    },
    {
      "icao": "LIRN",
      "alert": "OK",
      "vis_m": 9999,
      "fzfg": false,
      "metar_trigger": false,
      "taf_trigger": false,
      "metar": "METAR LIRN 161620Z VRB02KT CAVOK 14/07 Q1018 NOSIG",
      "taf": "TAF LIRN 161100Z 1612/1712 VRB05KT CAVOK"
    },
    {
      "icao": "LIRP",
      "alert": "OK",
      "vis_m": 9999,
      "fzfg": false,
      "metar_trigger": false,
      "taf_trigger": false,
      "metar": "METAR LIRP 161615Z 30001KT CAVOK 13/10 Q1018 NOSIG",
      "taf": "TAF LIRP 161100Z 1612/1712 12010KT 9999 BKN030"
    },
    {
      "icao": "LIRZ",
      "alert": "OK",
      "vis_m": 9999,
      "fzfg": false,
      "metar_trigger": false,
      "taf_trigger": false,
      "metar": "METAR LIRZ 161620Z AUTO VRB01KT 9999 NCD 09/07 Q1018",
      "taf": "TAF LIRZ 161100Z 1612/1712 VRB04KT CAVOK"
    },
    {
      "icao": "LJLJ",
      "alert": "OK",
      "vis_m": 9999,
      "fzfg": false,
      "metar_trigger": false,
      "taf_trigger": false,
      "metar": "METAR LJLJ 161630Z 28003KT 9999 FEW020 BKN040 02/02 Q1021 NOSIG",
      "taf": "TAF LJLJ 161100Z 1612/1712 30004KT 9999 FEW040 BKN050"
    },
    {
      "icao": "LKMT",
      "alert": "OK",
      "vis_m": 5000,
      "fzfg": false,
      "metar_trigger": false,
      "taf_trigger": false,
      "metar": "METAR LKMT 161630Z VRB02KT 5000 BR NSC 01/01 Q1024 NOSIG",
      "taf": ""
    },
    {
      "icao": "LKPR",
      "alert": "OK",
      "vis_m": 7000,
      "fzfg": false,
      "metar_trigger": false,
      "taf_trigger": false,
      "metar": "METAR LKPR 161630Z 05003KT 010V090 7000 FEW005 OVC008 01/00 Q1022 NOSIG",
      "taf": "TAF LKPR 161400Z 1615/1721 11005KT 4000 BR BKN004"
    },
    {
      "icao": "LLBG",
      "alert": "OK",
      "vis_m": 9999,
      "fzfg": false,
      "metar_trigger": false,
      "taf_trigger": false,
      "metar": "METAR LLBG 161620Z 32004KT 9999 SCT050 16/09 Q1021 NOSIG",
      "taf": "TAF LLBG 161107Z 1612/1712 32008KT 9999 FEW045"
    },
    {
      "icao": "LMML",
      "alert": "OK",
      "vis_m": 9999,
      "fzfg": false,
      "metar_trigger": false,
      "taf_trigger": false,
      "metar": "METAR LMML 161645Z 08008KT CAVOK 15/13 Q1015 NOSIG",
      "taf": ""
    },
    {
      "icao": "LOWW",
      "alert": "OK",
      "vis_m": 2000,
      "fzfg": false,
      "metar_trigger": false,
      "taf_trigger": false,
      "metar": "METAR LOWW 161620Z 16006KT 2000 -FZDZ BR FEW001 SCT002 OVC003 M01/M01 Q1024 BECMG 1000 -FZDZ BR FEW001 OVC002",
      "taf": "TAF LOWW 161416Z 1615/1721 14008KT 3000 BR OVC004 TX02/1702Z TNM00/1615Z"
    },
    {
      "icao": "LPFR",
      "alert": "OK",
      "vis_m": 8000,
      "fzfg": false,
      "metar_trigger": false,
      "taf_trigger": false,
      "metar": "METAR LPFR 161630Z 31008KT 8000 -SHRA FEW012 FEW020CB SCT030 11/09 Q1014",
      "taf": "TAF LPFR 161100Z 1612/1712 28010KT 9999 SCT035"
    },
    {
      "icao": "LPMA",
      "alert": "OK",
      "vis_m": 9999,
      "fzfg": false,
      "metar_trigger": false,
      "taf_trigger": false,
      "metar": "METAR LPMA 161630Z 34011G21KT 280V020 9999 SCT015 18/09 Q1025",
      "taf": "TAF LPMA 161100Z 1612/1712 34015KT 9999 SCT015"
    },
    {
      "icao": "LPPR",
      "alert": "OK",
      "vis_m": 9999,
      "fzfg": false,
      "metar_trigger": false,
      "taf_trigger": false,
      "metar": "METAR LPPR 161630Z 13004KT 9999 FEW006 SCT040 10/07 Q1012",
      "taf": ""
    },
    {
      "icao": "LPPS",
      "alert": "OK",
      "vis_m": 9999,
      "fzfg": false,
      "metar_trigger": false,
      "taf_trigger": false,
      "metar": "METAR LPPS 161630Z 34017KT 9999 SCT015 16/11 Q1025",
      "taf": "TAF LPPS 161100Z 1612/1718 33015KT 9999 SCT014 SCT030"
    },
    {
      "icao": "LPPT",
      "alert": "OK",
      "vis_m": 9999,
      "fzfg": false,
      "metar_trigger": false,
      "taf_trigger": false,
      "metar": "METAR LPPT 161630Z 31004KT 280V350 9999 FEW015 FEW025CB SCT040 10/08 Q1013 RESHRA",
      "taf": "TAF LPPT 161100Z 1612/1718 30010KT 9999 FEW018 SCT035"
    },
    {
      "icao": "LQBK",
      "alert": "OK",
      "vis_m": 9999,
      "fzfg": false,
      "metar_trigger": false,
      "taf_trigger": false,
      "metar": "METAR LQBK 161630Z VRB01KT CAVOK 06/04 Q1022 NOSIG",
      "taf": "TAF LQBK 161100Z 1612/1712 04005KT CAVOK TX10/1614Z TNM00/1706Z"
    },
    {
      "icao": "LQSA",
      "alert": "OK",
      "vis_m": 8000,
      "fzfg": false,
      "metar_trigger": false,
      "taf_trigger": false,
      "metar": "METAR LQSA 161630Z 12003KT 8000 NSC 03/02 Q1022 NOSIG",
      "taf": "TAF LQSA 161100Z 1612/1712 VRB02KT 6000 FEW008 TX06/1614Z TNM01/1705Z"
    },
    {
      "icao": "LQTZ",
      "alert": "OK",
      "vis_m": 9999,
      "fzfg": false,
      "metar_trigger": false,
      "taf_trigger": false,
      "metar": "METAR LQTZ 161630Z VRB01KT CAVOK 06/04 Q1022",
      "taf": "TAF LQTZ 161100Z 1612/1712 12005KT 6000 SCT065 TX08/1613Z TNM02/1705Z"
    },
    {
      "icao": "LRBC",
      "alert": "OK",
      "vis_m": 9999,
      "fzfg": false,
      "metar_trigger": false,
      "taf_trigger": false,
      "metar": "METAR LRBC 161630Z 36004KT CAVOK M07/M12 Q1034",
      "taf": "TAF LRBC 161400Z 1615/1624 36006KT CAVOK"
    },
    {
      "icao": "LRBS",
      "alert": "OK",
      "vis_m": 9999,
      "fzfg": false,
      "metar_trigger": false,
      "taf_trigger": false,
      "metar": "METAR LRBS 161630Z 09004KT CAVOK M03/M06 Q1033 NOSIG",
      "taf": "TAF LRBS 161100Z 1612/1712 07015KT CAVOK"
    },
    {
      "icao": "LRBV",
      "alert": "OK",
      "vis_m": 9999,
      "fzfg": false,
      "metar_trigger": false,
      "taf_trigger": false,
      "metar": "METAR LRBV 161630Z 09009KT 060V120 9999 BKN020 BKN048 M03/M09 Q1028",
      "taf": "TAF LRBV 161400Z 1615/1624 10010KT 9999 BKN035"
    },
    {
      "icao": "LRCL",
      "alert": "OK",
      "vis_m": 8000,
      "fzfg": false,
      "metar_trigger": false,
      "taf_trigger": false,
      "metar": "METAR LRCL 161630Z 06005KT 8000 OVC033 02/00 Q1028",
      "taf": "TAF LRCL 161400Z 1615/1624 11008KT 9999 BKN035"
    },
    {
      "icao": "LRCV",
      "alert": "OK",
      "vis_m": 9999,
      "fzfg": false,
      "metar_trigger": false,
      "taf_trigger": false,
      "metar": "METAR LRCV 161630Z 08008KT 9999 -SN SCT033 BKN047 M03/M07 Q1032",
      "taf": "TAF LRCV 161400Z 1615/1624 07015KT 5000 -SN BR BKN015 OVC030"
    },
    {
      "icao": "LRIA",
      "alert": "OK",
      "vis_m": 9999,
      "fzfg": false,
      "metar_trigger": false,
      "taf_trigger": false,
      "metar": "METAR LRIA 161630Z 28003KT CAVOK M11/M14 Q1035",
      "taf": "TAF LRIA 161400Z 1615/1624 32006KT CAVOK"
    },
    {
      "icao": "LROP",
      "alert": "OK",
      "vis_m": 9999,
      "fzfg": false,
      "metar_trigger": false,
      "taf_trigger": false,
      "metar": "METAR LROP 161630Z 12005KT CAVOK M02/M08 Q1032 NOSIG",
      "taf": "TAF LROP 161100Z 1612/1712 07015KT CAVOK"
    },
    {
      "icao": "LRSB",
      "alert": "OK",
      "vis_m": 9999,
      "fzfg": false,
      "metar_trigger": false,
      "taf_trigger": false,
      "metar": "METAR LRSB 161630Z 09010KT 9999 OVC031 01/M03 Q1026 NOSIG",
      "taf": "TAF LRSB 161100Z 1612/1712 10010KT 9999 -RA BKN010 OVC025"
    },
    {
      "icao": "LRSM",
      "alert": "OK",
      "vis_m": 9999,
      "fzfg": false,
      "metar_trigger": false,
      "taf_trigger": false,
      "metar": "METAR LRSM 161630Z 09006KT CAVOK 01/M03 Q1027",
      "taf": "TAF LRSM 161400Z 1615/1624 10006KT CAVOK"
    },
    {
      "icao": "LRSV",
      "alert": "OK",
      "vis_m": 8000,
      "fzfg": false,
      "metar_trigger": false,
      "taf_trigger": false,
      "metar": "METAR LRSV 161630Z 08006KT 8000 NSC M11/M12 Q1032",
      "taf": "TAF LRSV 161400Z 1615/1624 VRB04KT 8000 NSC"
    },
    {
      "icao": "LRTM",
      "alert": "OK",
      "vis_m": 6000,
      "fzfg": false,
      "metar_trigger": false,
      "taf_trigger": false,
      "metar": "METAR LRTM 161630Z 08002KT 6000 FEW023 SCT032 M03/M06 Q1028",
      "taf": "TAF LRTM 161400Z 1615/1624 VRB04KT 9999 SCT045"
    },
    {
      "icao": "LRTR",
      "alert": "OK",
      "vis_m": 9999,
      "fzfg": false,
      "metar_trigger": false,
      "taf_trigger": false,
      "metar": "METAR LRTR 161630Z 10012KT 9999 FEW014 SCT030 02/02 Q1026",
      "taf": "TAF LRTR 161100Z 1612/1712 11008KT 5000 BR BKN040"
    },
    {
      "icao": "LTAC",
      "alert": "OK",
      "vis_m": 9999,
      "fzfg": false,
      "metar_trigger": false,
      "taf_trigger": false,
      "metar": "METAR LTAC 161620Z 26010KT 9999 SCT015 BKN025 BKN080 04/01 Q1018 NOSIG RMK RWY21C 24009KT RWY03L 25008KT RWY21R 23009KT RWY03R 24007KT RWY21L 24009KT",
      "taf": "TAF LTAC 161040Z 1612/1712 24008KT 8000 -RA SCT010 BKN025 BKN080"
    },
    {
      "icao": "LTFM",
      "alert": "OK",
      "vis_m": 9999,
      "fzfg": false,
      "metar_trigger": false,
      "taf_trigger": false,
      "metar": "METAR LTFM 161620Z 05020KT 9999 -SHRA SCT007 BKN022 03/01 Q1027 NOSIG RMK RWY17L 04018KT RWY34L 04019KT RWY16R 04018KT RWY36 05017KT RWY18 05017KT",
      "taf": "TAF LTFM 161040Z 1612/1718 04017KT 9999 -SHRA SCT007 BKN022"
    },
    {
      "icao": "LUKK",
      "alert": "OK",
      "vis_m": 9999,
      "fzfg": false,
      "metar_trigger": false,
      "taf_trigger": false,
      "metar": "METAR LUKK 161630Z 36013KT CAVOK M08/M13 Q1033 NOSIG",
      "taf": "TAF LUKK 161121Z 1612/1712 36008KT CAVOK"
    },
    {
      "icao": "LWOH",
      "alert": "OK",
      "vis_m": null,
      "fzfg": false,
      "metar_trigger": false,
      "taf_trigger": false,
      "metar": "",
      "taf": "TAF LWOH 161420Z 1615/1715 VRB02KT 9999 SCT030 BKN050"
    },
    {
      "icao": "LWSK",
      "alert": "OK",
      "vis_m": 9999,
      "fzfg": false,
      "metar_trigger": false,
      "taf_trigger": false,
      "metar": "METAR LWSK 161620Z 11002KT 9999 FEW050 BKN090 06/03 Q1023 NOSIG",
      "taf": "TAF LWSK 161420Z 1615/1715 VRB02KT 9999 SCT040 BKN080"
    },
    {
      "icao": "LYBE",
      "alert": "OK",
      "vis_m": 9999,
      "fzfg": false,
      "metar_trigger": false,
      "taf_trigger": false,
      "metar": "METAR LYBE 161630Z 12015KT CAVOK 03/M00 Q1024 NOSIG",
      "taf": "TAF LYBE 161100Z 1612/1712 06004KT CAVOK TX06/1612Z TNM00/1706Z"
    },
    {
      "icao": "LYNI",
      "alert": "OK",
      "vis_m": 9999,
      "fzfg": false,
      "metar_trigger": false,
      "taf_trigger": false,
      "metar": "METAR LYNI 161630Z 08004KT 9999 FEW017 SCT067 02/M01 Q1026 NOSIG",
      "taf": "TAF LYNI 161100Z 1612/1712 05012KT 9999 FEW015 SCT040 TX09/1612Z TNM01/1706Z"
    },
    {
      "icao": "LYPG",
      "alert": "OK",
      "vis_m": 9999,
      "fzfg": false,
      "metar_trigger": false,
      "taf_trigger": false,
      "metar": "METAR LYPG 161630Z 07002KT 9999 FEW080 09/06 Q1022 NOSIG",
      "taf": "TAF LYPG 161100Z 1612/1712 16005KT 9999 FEW030 SCT080 TX15/1613Z TN02/1705Z"
    },
    {
      "icao": "LZIB",
      "alert": "OK",
      "vis_m": 1400,
      "fzfg": false,
      "metar_trigger": false,
      "taf_trigger": false,
      "metar": "METAR LZIB 161630Z 03005KT 1400 R31/1900N R22/1900N -DZ BR FEW001 OVC002 01/01 Q1024 NOSIG",
      "taf": "TAF LZIB 161115Z 1612/1712 05005KT 2500 BR BKN014"
    },
    {
      "icao": "LZKZ",
      "alert": "OK",
      "vis_m": 9999,
      "fzfg": false,
      "metar_trigger": false,
      "taf_trigger": false,
      "metar": "METAR LZKZ 161630Z 02006KT 9999 OVC031 02/00 Q1026 NOSIG",
      "taf": "TAF LZKZ 161115Z 1612/1712 01005KT 9999 BKN015 OVC020"
    },
    {
      "icao": "LZTT",
      "alert": "OK",
      "vis_m": 3000,
      "fzfg": false,
      "metar_trigger": false,
      "taf_trigger": false,
      "metar": "METAR LZTT 161630Z VRB02KT 3000 BR OVC004 01/M00 Q1024 TEMPO 2000 BR BKN004",
      "taf": "TAF LZTT 161115Z 1612/1712 VRB02KT 2500 BR OVC006"
    },
    {
      "icao": "OEJN",
      "alert": "OK",
      "vis_m": 9999,
      "fzfg": false,
      "metar_trigger": false,
      "taf_trigger": false,
      "metar": "METAR OEJN 161600Z 33009KT 9999 FEW040 27/08 Q1013 NOSIG",
      "taf": "TAF OEJN 161100Z 1612/1718 30010KT 7000 FEW040"
    },
    {
      "icao": "OEMA",
      "alert": "OK",
      "vis_m": 8000,
      "fzfg": false,
      "metar_trigger": false,
      "taf_trigger": false,
      "metar": "METAR OEMA 161600Z 11005KT 8000 NSC 21/03 Q1019 NOSIG",
      "taf": "TAF OEMA 161100Z 1612/1718 10012KT 7000 NSC"
    },
    {
      "icao": "OJAI",
      "alert": "OK",
      "vis_m": 4500,
      "fzfg": false,
      "metar_trigger": false,
      "taf_trigger": false,
      "metar": "METAR OJAI 161600Z 07005KT 4500 HZ NSC 08/04 Q1021 NOSIG",
      "taf": "TAF OJAI 161041Z 1612/1718 17008KT 5000 HZ FEW035"
    },
    {
      "icao": "OMAA",
      "alert": "OK",
      "vis_m": 9999,
      "fzfg": false,
      "metar_trigger": false,
      "taf_trigger": false,
      "metar": "METAR OMAA 161600Z 29008KT 9999 FEW040 20/11 Q1018 NOSIG",
      "taf": "TAF OMAA 161100Z 1612/1718 32014KT 8000 FEW030"
    },
    {
      "icao": "OMDB",
      "alert": "OK",
      "vis_m": 9999,
      "fzfg": false,
      "metar_trigger": false,
      "taf_trigger": false,
      "metar": "METAR OMDB 161630Z 27014KT 9999 SCT040 20/10 Q1018 NOSIG",
      "taf": "TAF OMDB 161100Z 1612/1718 29014KT 8000 FEW030"
    },
    {
      "icao": "UAAA",
      "alert": "OK",
      "vis_m": 1300,
      "fzfg": false,
      "metar_trigger": false,
      "taf_trigger": false,
      "metar": "METAR UAAA 161630Z 27005MPS 1300 R23L/P2000 -SN BR OVC016 M14/M16 Q1022 NOSIG",
      "taf": "TAF UAAA 161102Z 1612/1712 28003G08MPS 3100 -SHSN BR BKN011CB OVC030 TXM16/1708Z TNM18/1703Z"
    },
    {
      "icao": "UBBB",
      "alert": "OK",
      "vis_m": 9999,
      "fzfg": false,
      "metar_trigger": false,
      "taf_trigger": false,
      "metar": "METAR UBBB 161630Z 26008KT CAVOK 03/M00 Q1022 NOSIG",
      "taf": "TAF UBBB 161056Z 1612/1712 19014KT 9999 FEW025 TX08/1612Z TN01/1702Z"
    },
    {
      "icao": "UDSG",
      "alert": "OK",
      "vis_m": 9999,
      "fzfg": false,
      "metar_trigger": false,
      "taf_trigger": false,
      "metar": "METAR UDSG 161630Z 06005KT 9999 SCT049 M15/M18 Q1020 NOSIG",
      "taf": "TAF UDSG 161100Z 1612/1712 VRB06KT 9999 BKN050"
    },
    {
      "icao": "UDYZ",
      "alert": "OK",
      "vis_m": 9999,
      "fzfg": false,
      "metar_trigger": false,
      "taf_trigger": false,
      "metar": "METAR UDYZ 161630Z 31002KT 9999 NSC M03/M08 Q1023 NOSIG",
      "taf": "TAF UDYZ 161100Z 1612/1712 VRB04KT 9999 FEW040"
    },
    {
      "icao": "UGKO",
      "alert": "OK",
      "vis_m": 9000,
      "fzfg": false,
      "metar_trigger": false,
      "taf_trigger": false,
      "metar": "METAR UGKO 161630Z 12006KT 9000 BKN073 01/00 Q1021 NOSIG",
      "taf": "TAF UGKO 161100Z 1612/1712 09007KT 9000 SCT012 OVC040 TX02/1612Z TN00/1706Z"
    }
  ]
}