{
  "ts_utc": "2026-01-18T19:16:57Z",
  "threshold_m": 150,
  "source": "stations_override.txt (ICAO list) + aviationweather.gov (METAR/TAF raw)",
  "station_count": 159,
  "stations": [
    {
      "icao": "BIKF",
      "alert": "OK",
      "vis_m": 9000,
      "fzfg": false,
      "metar_trigger": false,
      "taf_trigger": false,
      "metar": "METAR BIKF 181900Z 12029G39KT 9000 RA BKN016 OVC032 07/05 Q0989",
      "taf": "TAF BIKF 181637Z 1818/1918 13026G36KT 8000 RA BKN012 OVC022 TX06/1818Z TN01/1909Z"
    },
    {
      "icao": "BKPR",
      "alert": "OK",
      "vis_m": 9999,
      "fzfg": false,
      "metar_trigger": false,
      "taf_trigger": false,
      "metar": "METAR BKPR 181900Z 35015KT CAVOK M04/M06 Q1029 NOSIG",
      "taf": "TAF BKPR 181730Z 1818/1918 02012KT CAVOK"
    },
    {
      "icao": "EBCI",
      "alert": "OK",
      "vis_m": 9999,
      "fzfg": false,
      "metar_trigger": false,
      "taf_trigger": false,
      "metar": "METAR EBCI 181850Z 19003KT CAVOK 06/04 Q1017 NOSIG",
      "taf": "TAF EBCI 181702Z 1818/1924 17004KT CAVOK"
    },
    {
      "icao": "EDDB",
      "alert": "OK",
      "vis_m": 9999,
      "fzfg": false,
      "metar_trigger": false,
      "taf_trigger": false,
      "metar": "METAR EDDB 181850Z AUTO 10006KT CAVOK M01/M03 Q1027 NOSIG",
      "taf": "TAF EDDB 181700Z 1818/1918 11009KT CAVOK"
    },
    {
      "icao": "EDDH",
      "alert": "OK",
      "vis_m": 9999,
      "fzfg": false,
      "metar_trigger": false,
      "taf_trigger": false,
      "metar": "METAR EDDH 181850Z AUTO 12009KT CAVOK 02/M01 Q1023 NOSIG",
      "taf": "TAF EDDH 181700Z 1818/1924 12009KT CAVOK"
    },
    {
      "icao": "EDDK",
      "alert": "OK",
      "vis_m": 9999,
      "fzfg": false,
      "metar_trigger": false,
      "taf_trigger": false,
      "metar": "METAR EDDK 181850Z AUTO 13007KT 070V160 9999 OVC012 03/01 Q1020 NOSIG",
      "taf": "TAF EDDK 181700Z 1818/1924 12007KT 9999 OVC009"
    },
    {
      "icao": "EDDN",
      "alert": "OK",
      "vis_m": 9999,
      "fzfg": false,
      "metar_trigger": false,
      "taf_trigger": false,
      "metar": "METAR EDDN 181850Z AUTO 10007KT CAVOK 00/M03 Q1020 NOSIG",
      "taf": "TAF EDDN 181700Z 1818/1918 10007KT CAVOK"
    },
    {
      "icao": "EDDS",
      "alert": "OK",
      "vis_m": 9999,
      "fzfg": false,
      "metar_trigger": false,
      "taf_trigger": false,
      "metar": "METAR EDDS 181850Z AUTO 10003KT 080V140 9999 OVC010 00/M01 Q1018 BECMG SCT010",
      "taf": "TAF EDDS 181700Z 1818/1918 09005KT 9999 OVC012"
    },
    {
      "icao": "EDFH",
      "alert": "OK",
      "vis_m": 4000,
      "fzfg": true,
      "metar_trigger": false,
      "taf_trigger": false,
      "metar": "METAR EDFH 181850Z 13014KT 100V180 4000 BR OVC002 00/M00 Q1018",
      "taf": "TAF EDFH 181700Z 1818/1918 14010KT 0300 FZFG VV000"
    },
    {
      "icao": "EDJA",
      "alert": "OK",
      "vis_m": 650,
      "fzfg": true,
      "metar_trigger": false,
      "taf_trigger": false,
      "metar": "METAR EDJA 181850Z 07004KT 040V100 0650 R06/0800D FZFG VV/// M02/M03 Q1018",
      "taf": "TAF EDJA 181700Z 1818/1903 VRB03KT 1500 BR OVC001"
    },
    {
      "icao": "EDLW",
      "alert": "OK",
      "vis_m": 9999,
      "fzfg": false,
      "metar_trigger": false,
      "taf_trigger": false,
      "metar": "METAR EDLW 181850Z VRB01KT CAVOK 01/M00 Q1019",
      "taf": "TAF EDLW 181700Z 1818/1918 11004KT CAVOK"
    },
    {
      "icao": "EDNY",
      "alert": "OK",
      "vis_m": 9999,
      "fzfg": false,
      "metar_trigger": false,
      "taf_trigger": false,
      "metar": "METAR EDNY 181850Z 36005KT 9999 OVC007 M01/M02 Q1019",
      "taf": "TAF EDNY 181700Z 1818/1903 03004KT 9999 BKN007"
    },
    {
      "icao": "EDSB",
      "alert": "OK",
      "vis_m": 9000,
      "fzfg": false,
      "metar_trigger": false,
      "taf_trigger": false,
      "metar": "METAR EDSB 181850Z 20004KT 9000 OVC013 00/M01 Q1020",
      "taf": "TAF EDSB 181700Z 1818/1918 VRB03KT 9999 SCT015"
    },
    {
      "icao": "EETN",
      "alert": "OK",
      "vis_m": 500,
      "fzfg": true,
      "metar_trigger": false,
      "taf_trigger": false,
      "metar": "METAR EETN 181850Z 17003KT 0500 R26/1300D FZFG VV002 M04/M04 Q1036 NOSIG",
      "taf": "TAF EETN 181730Z 1818/1918 19005KT 0500 FZFG OVC002"
    },
    {
      "icao": "EFTU",
      "alert": "OK",
      "vis_m": 3500,
      "fzfg": false,
      "metar_trigger": false,
      "taf_trigger": false,
      "metar": "METAR EFTU 181850Z AUTO 17006KT 3500 -SHRA OVC002 01/01 Q1034",
      "taf": "TAF EFTU 181736Z 1818/1918 18005KT 4000 BR OVC004"
    },
    {
      "icao": "EGBB",
      "alert": "OK",
      "vis_m": 500,
      "fzfg": false,
      "metar_trigger": false,
      "taf_trigger": false,
      "metar": "METAR EGBB 181850Z 14002KT 0500 R15/P1500N RADZ FG BKN002 07/06 Q1015",
      "taf": "TAF EGBB 181703Z 1818/1918 15005KT 3000 RADZ BR BKN003"
    },
    {
      "icao": "EGGP",
      "alert": "OK",
      "vis_m": 9999,
      "fzfg": false,
      "metar_trigger": false,
      "taf_trigger": false,
      "metar": "METAR EGGP 181850Z 16004KT 130V190 9999 FEW005 BKN009 05/04 Q1015",
      "taf": ""
    },
    {
      "icao": "EGGW",
      "alert": "OK",
      "vis_m": 8000,
      "fzfg": false,
      "metar_trigger": false,
      "taf_trigger": false,
      "metar": "METAR EGGW 181850Z AUTO 11003KT 8000 NCD 08/07 Q1015",
      "taf": "TAF EGGW 181706Z 1818/1918 13006KT 9999 SCT045"
    },
    {
      "icao": "EGKK",
      "alert": "OK",
      "vis_m": 9999,
      "fzfg": false,
      "metar_trigger": false,
      "taf_trigger": false,
      "metar": "METAR EGKK 181850Z 07003KT CAVOK 08/08 Q1015",
      "taf": "TAF EGKK 181658Z 1818/1924 14006KT 9999 FEW045"
    },
    {
      "icao": "EGNM",
      "alert": "OK",
      "vis_m": 900,
      "fzfg": false,
      "metar_trigger": false,
      "taf_trigger": false,
      "metar": "METAR EGNM 181850Z 16006KT 0900 R32/1200D -RA FG SCT001 OVC002 05/05 Q1014",
      "taf": "TAF EGNM 181702Z 1818/1918 06003KT 0300 FG VV///"
    },
    {
      "icao": "EGPD",
      "alert": "OK",
      "vis_m": 9999,
      "fzfg": false,
      "metar_trigger": false,
      "taf_trigger": false,
      "metar": "METAR EGPD 181850Z AUTO 15010KT 9999 -RA BKN006/// OVC048/// //////TCU 07/06 Q1015 TEMPO 4000 RADZ BKN004",
      "taf": "TAF EGPD 181657Z 1818/1918 14008KT 9999 BKN010"
    },
    {
      "icao": "EGPF",
      "alert": "OK",
      "vis_m": 8000,
      "fzfg": false,
      "metar_trigger": false,
      "taf_trigger": false,
      "metar": "METAR EGPF 181850Z AUTO VRB02KT 8000 -RA OVC016/// //////TCU 06/05 Q1013",
      "taf": "TAF EGPF 181701Z 1818/1918 06003KT 9999 FEW020 SCT040"
    },
    {
      "icao": "EHBK",
      "alert": "OK",
      "vis_m": 9999,
      "fzfg": false,
      "metar_trigger": false,
      "taf_trigger": false,
      "metar": "METAR EHBK 181855Z AUTO 08009KT 9999 NCD 01/00 Q1018 NOSIG",
      "taf": "TAF EHBK 181720Z 1818/1924 08006KT CAVOK"
    },
    {
      "icao": "EHEH",
      "alert": "OK",
      "vis_m": 9999,
      "fzfg": false,
      "metar_trigger": false,
      "taf_trigger": false,
      "metar": "METAR EHEH 181855Z AUTO 11007KT 070V180 9999 NCD 02/00 Q1019 BLU NOSIG RMK TREND REMOTE BY EHWX",
      "taf": "TAF EHEH 181739Z 1818/1924 10005KT CAVOK"
    },
    {
      "icao": "EKBI",
      "alert": "OK",
      "vis_m": 6000,
      "fzfg": false,
      "metar_trigger": false,
      "taf_trigger": false,
      "metar": "METAR EKBI 181850Z AUTO 11008KT 090V150 6000 OVC006/// 01/01 Q1024",
      "taf": "TAF EKBI 181727Z 1818/1918 12010KT 4000 BR BKN005"
    },
    {
      "icao": "EKCH",
      "alert": "OK",
      "vis_m": 9000,
      "fzfg": false,
      "metar_trigger": false,
      "taf_trigger": false,
      "metar": "METAR EKCH 181850Z AUTO 11015KT 9000 FEW006/// 03/02 Q1028 NOSIG",
      "taf": "TAF EKCH 181727Z 1818/1918 13012KT 9999 BKN008"
    },
    {
      "icao": "ENAL",
      "alert": "OK",
      "vis_m": 9999,
      "fzfg": false,
      "metar_trigger": false,
      "taf_trigger": false,
      "metar": "METAR ENAL 181850Z 06003KT 020V100 9999 BKN049 04/02 Q1023",
      "taf": "TAF ENAL 181700Z 1818/1903 08005KT 9999 -RA FEW030 BKN050"
    },
    {
      "icao": "ENBR",
      "alert": "OK",
      "vis_m": 5000,
      "fzfg": false,
      "metar_trigger": false,
      "taf_trigger": false,
      "metar": "METAR ENBR 181850Z 20003KT 170V240 5000 -DZ BR SCT003 BKN004 04/04 Q1023 TEMPO 2000 -RADZ BR RMK WIND 1200FT 24009KT",
      "taf": "TAF ENBR 181700Z 1818/1918 13005KT 0800 -DZ FG VV002"
    },
    {
      "icao": "ENGM",
      "alert": "OK",
      "vis_m": 2800,
      "fzfg": false,
      "metar_trigger": false,
      "taf_trigger": false,
      "metar": "METAR ENGM 181850Z 08003KT 030V100 2800 BR BKN002 00/M00 Q1029 TEMPO 1200 BR",
      "taf": "TAF ENGM 181700Z 1818/1918 05005KT 5000 BKN005"
    },
    {
      "icao": "ENHD",
      "alert": "OK",
      "vis_m": 9999,
      "fzfg": false,
      "metar_trigger": false,
      "taf_trigger": false,
      "metar": "METAR ENHD 181850Z 15007KT 9999 BKN046 04/02 Q1023",
      "taf": "TAF ENHD 181400Z 1815/1823 15005KT 9999 BKN008"
    },
    {
      "icao": "ENTC",
      "alert": "OK",
      "vis_m": 9999,
      "fzfg": false,
      "metar_trigger": false,
      "taf_trigger": false,
      "metar": "METAR ENTC 181850Z 24009KT 9999 -RA FEW005 BKN009 03/02 Q1029 TEMPO SCT009 BKN016 RMK WIND 2600FT 25016KT",
      "taf": "TAF ENTC 181700Z 1818/1918 21009KT 9999 -SHRA FEW008 BKN018"
    },
    {
      "icao": "ENTO",
      "alert": "OK",
      "vis_m": 9999,
      "fzfg": false,
      "metar_trigger": false,
      "taf_trigger": false,
      "metar": "METAR ENTO 181850Z 05004KT 020V090 9999 FEW002 BKN004 00/00 Q1029 NOSIG",
      "taf": ""
    },
    {
      "icao": "ENVA",
      "alert": "OK",
      "vis_m": 9999,
      "fzfg": false,
      "metar_trigger": false,
      "taf_trigger": false,
      "metar": "METAR ENVA 181850Z VRB01KT CAVOK M04/M04 Q1026 RMK WIND 670FT 09009KT",
      "taf": "TAF ENVA 181700Z 1818/1918 08008KT CAVOK"
    },
    {
      "icao": "ENZV",
      "alert": "OK",
      "vis_m": 9999,
      "fzfg": false,
      "metar_trigger": false,
      "taf_trigger": false,
      "metar": "METAR ENZV 181850Z VRB01KT 9999 SCT037 03/00 Q1023 NOSIG",
      "taf": "TAF ENZV 181700Z 1818/1918 16008KT 9999 BKN035"
    },
    {
      "icao": "EPGD",
      "alert": "OK",
      "vis_m": 9999,
      "fzfg": false,
      "metar_trigger": false,
      "taf_trigger": false,
      "metar": "METAR EPGD 181900Z 18008KT CAVOK M10/M11 Q1033",
      "taf": "TAF EPGD 181730Z 1818/1918 17007KT 8000 NSC"
    },
    {
      "icao": "EPKK",
      "alert": "OK",
      "vis_m": 7000,
      "fzfg": false,
      "metar_trigger": false,
      "taf_trigger": false,
      "metar": "METAR EPKK 181900Z 08002KT 7000 NSC M10/M13 Q1033",
      "taf": "TAF EPKK 181730Z 1818/1918 06005KT 7000 NSC"
    },
    {
      "icao": "EPKT",
      "alert": "OK",
      "vis_m": 9000,
      "fzfg": false,
      "metar_trigger": false,
      "taf_trigger": false,
      "metar": "METAR EPKT 181900Z 10005KT 9000 NSC M09/M12 Q1032",
      "taf": "TAF EPKT 181730Z 1818/1918 11006KT CAVOK"
    },
    {
      "icao": "EPLB",
      "alert": "OK",
      "vis_m": 8000,
      "fzfg": false,
      "metar_trigger": false,
      "taf_trigger": false,
      "metar": "METAR EPLB 181900Z 13003KT 8000 NSC M14/M15 Q1038",
      "taf": "TAF EPLB 181730Z 1818/1918 11008KT 8000 NSC"
    },
    {
      "icao": "EPMO",
      "alert": "OK",
      "vis_m": 5000,
      "fzfg": false,
      "metar_trigger": false,
      "taf_trigger": false,
      "metar": "METAR EPMO 181900Z 09007KT 5000 BR NSC M12/M13 Q1036",
      "taf": "TAF EPMO 181730Z 1818/1918 09008KT 7000 NSC"
    },
    {
      "icao": "EPPO",
      "alert": "OK",
      "vis_m": 9999,
      "fzfg": false,
      "metar_trigger": false,
      "taf_trigger": false,
      "metar": "METAR EPPO 181900Z 10009KT CAVOK M04/M08 Q1031",
      "taf": "TAF EPPO 181730Z 1818/1918 10010KT 8000 NSC"
    },
    {
      "icao": "EPRA",
      "alert": "OK",
      "vis_m": 9999,
      "fzfg": false,
      "metar_trigger": false,
      "taf_trigger": false,
      "metar": "METAR EPRA 181900Z 12012KT CAVOK M09/M12 Q1035",
      "taf": "TAF EPRA 181730Z 1818/1903 12010KT CAVOK"
    },
    {
      "icao": "EPRZ",
      "alert": "OK",
      "vis_m": 9999,
      "fzfg": false,
      "metar_trigger": false,
      "taf_trigger": false,
      "metar": "METAR EPRZ 181900Z 09010KT CAVOK M09/M12 Q1035",
      "taf": "TAF EPRZ 181730Z 1818/1918 08011KT CAVOK"
    },
    {
      "icao": "EPSC",
      "alert": "OK",
      "vis_m": 9999,
      "fzfg": false,
      "metar_trigger": false,
      "taf_trigger": false,
      "metar": "METAR EPSC 181900Z 12011KT CAVOK M01/M03 Q1029",
      "taf": "TAF EPSC 181730Z 1818/1918 12007KT 8000 NSC"
    },
    {
      "icao": "EPSY",
      "alert": "OK",
      "vis_m": 9999,
      "fzfg": false,
      "metar_trigger": false,
      "taf_trigger": false,
      "metar": "METAR EPSY 181900Z 14004KT 090V180 CAVOK M12/M14 Q1037",
      "taf": "TAF EPSY 181730Z 1818/1903 13006KT CAVOK"
    },
    {
      "icao": "EPWA",
      "alert": "OK",
      "vis_m": 9999,
      "fzfg": false,
      "metar_trigger": false,
      "taf_trigger": false,
      "metar": "METAR EPWA 181900Z 11009KT CAVOK M09/M12 Q1036 NOSIG",
      "taf": "TAF EPWA 181730Z 1818/1918 11009KT CAVOK"
    },
    {
      "icao": "EPWR",
      "alert": "OK",
      "vis_m": 4000,
      "fzfg": false,
      "metar_trigger": false,
      "taf_trigger": false,
      "metar": "METAR EPWR 181900Z 12008KT 4000 BR NSC M02/M03 Q1030",
      "taf": "TAF EPWR 181730Z 1818/1918 11008KT 5000 BR NSC"
    },
    {
      "icao": "ESGG",
      "alert": "OK",
      "vis_m": 2900,
      "fzfg": false,
      "metar_trigger": false,
      "taf_trigger": false,
      "metar": "METAR ESGG 181850Z 11010KT 2900 BR OVC003 00/00 Q1027",
      "taf": ""
    },
    {
      "icao": "ESKN",
      "alert": "OK",
      "vis_m": 9999,
      "fzfg": false,
      "metar_trigger": false,
      "taf_trigger": false,
      "metar": "METAR ESKN 181850Z 15006KT 9999 BKN010 02/01 Q1032",
      "taf": "TAF ESKN 181730Z 1818/1918 16008KT 7000 OVC003"
    },
    {
      "icao": "ESMS",
      "alert": "OK",
      "vis_m": 5000,
      "fzfg": false,
      "metar_trigger": false,
      "taf_trigger": false,
      "metar": "METAR ESMS 181850Z 12012KT 5000 BR FEW005 02/01 Q1028",
      "taf": "TAF ESMS 181727Z 1818/1918 13010KT 1200 BR BKN004"
    },
    {
      "icao": "ESSA",
      "alert": "OK",
      "vis_m": 300,
      "fzfg": false,
      "metar_trigger": false,
      "taf_trigger": false,
      "metar": "METAR ESSA 181850Z 18009KT 0300 R01L/P2000N R19R/P2000N R01R/P2000N R19L/P2000N FG VV002 01/01 Q1032 TEMPO 0500",
      "taf": "TAF ESSA 181730Z 1818/1918 17007KT 4000 BR OVC002"
    },
    {
      "icao": "EYKA",
      "alert": "OK",
      "vis_m": 9000,
      "fzfg": false,
      "metar_trigger": false,
      "taf_trigger": false,
      "metar": "METAR EYKA 181850Z 13003KT 9000 NSC M14/M16 Q1040",
      "taf": "TAF EYKA 181700Z 1818/1918 VRB05KT 9000 NSC"
    },
    {
      "icao": "EYPA",
      "alert": "OK",
      "vis_m": 9999,
      "fzfg": false,
      "metar_trigger": false,
      "taf_trigger": false,
      "metar": "METAR EYPA 181850Z 15009KT CAVOK M09/M12 Q1037",
      "taf": "TAF EYPA 181700Z 1818/1918 14010KT CAVOK"
    },
    {
      "icao": "EYVI",
      "alert": "OK",
      "vis_m": 8000,
      "fzfg": false,
      "metar_trigger": false,
      "taf_trigger": false,
      "metar": "METAR EYVI 181850Z 16007KT 8000 NSC M15/M16 Q1040 NOSIG",
      "taf": "TAF EYVI 181700Z 1818/1918 17010KT 5000 BR NSC"
    },
    {
      "icao": "GCFV",
      "alert": "OK",
      "vis_m": 9999,
      "fzfg": false,
      "metar_trigger": false,
      "taf_trigger": false,
      "metar": "METAR GCFV 181900Z 34019KT 9999 SCT035 17/08 Q1017",
      "taf": "TAF GCFV 181400Z 1815/1915 36018KT 9999 FEW025 SCT035 TX20/1914Z TN15/1906Z"
    },
    {
      "icao": "GCLP",
      "alert": "OK",
      "vis_m": 9999,
      "fzfg": false,
      "metar_trigger": false,
      "taf_trigger": false,
      "metar": "METAR GCLP 181900Z 01020G30KT 9999 FEW025 SCT035 17/11 Q1017 NOSIG",
      "taf": "TAF GCLP 181400Z 1815/1915 36025KT 9999 FEW025 SCT035 TX20/1914Z TN16/1906Z"
    },
    {
      "icao": "GCTS",
      "alert": "OK",
      "vis_m": 9999,
      "fzfg": false,
      "metar_trigger": false,
      "taf_trigger": false,
      "metar": "METAR GCTS 181900Z 07018KT 9999 BKN034 19/11 Q1017 NOSIG",
      "taf": "TAF GCTS 181400Z 1815/1915 06014KT 9999 SCT035 TX23/1914Z TN14/1906Z"
    },
    {
      "icao": "GMAD",
      "alert": "OK",
      "vis_m": 9999,
      "fzfg": false,
      "metar_trigger": false,
      "taf_trigger": false,
      "metar": "METAR GMAD 181900Z 31012KT 9999 SCT026 13/06 Q1010 NOSIG",
      "taf": "TAF GMAD 181700Z 1818/1924 24008KT 8000 SCT020"
    },
    {
      "icao": "GMMN",
      "alert": "OK",
      "vis_m": 9999,
      "fzfg": false,
      "metar_trigger": false,
      "taf_trigger": false,
      "metar": "METAR GMMN 181900Z 02008KT 9999 OVC012 09/07 Q1011 TEMPO 3000 RA",
      "taf": "TAF GMMN 181700Z 1818/1924 34004KT 9999 BKN013 SCT023TCU"
    },
    {
      "icao": "GMMX",
      "alert": "OK",
      "vis_m": 9999,
      "fzfg": false,
      "metar_trigger": false,
      "taf_trigger": false,
      "metar": "METAR GMMX 181900Z 21007G18KT 190V290 9999 BKN023 SCT080 09/06 Q1012 NOSIG",
      "taf": "TAF GMMX 181700Z 1818/1924 06006KT 8000 BKN023 SCT080"
    },
    {
      "icao": "HEGN",
      "alert": "OK",
      "vis_m": 9999,
      "fzfg": false,
      "metar_trigger": false,
      "taf_trigger": false,
      "metar": "METAR HEGN 181900Z 29008KT CAVOK 16/04 Q1017 NOSIG",
      "taf": "TAF HEGN 181700Z 1818/1924 30015KT CAVOK"
    },
    {
      "icao": "HEMA",
      "alert": "OK",
      "vis_m": 9999,
      "fzfg": false,
      "metar_trigger": false,
      "taf_trigger": false,
      "metar": "METAR HEMA 181800Z 31008KT CAVOK 17/09 Q1016 NOSIG",
      "taf": "TAF HEMA 181700Z 1818/1924 32010KT CAVOK"
    },
    {
      "icao": "HESH",
      "alert": "OK",
      "vis_m": 9999,
      "fzfg": false,
      "metar_trigger": false,
      "taf_trigger": false,
      "metar": "METAR HESH 181900Z 34008KT CAVOK 19/08 Q1016 NOSIG",
      "taf": "TAF HESH 181700Z 1818/1924 35010KT CAVOK"
    },
    {
      "icao": "HESX",
      "alert": "OK",
      "vis_m": 9999,
      "fzfg": false,
      "metar_trigger": false,
      "taf_trigger": false,
      "metar": "METAR HESX 181900Z 01005KT CAVOK 13/08 Q1017 NOSIG",
      "taf": "TAF HESX 181700Z 1818/1924 35006KT 9999 SCT025"
    },
    {
      "icao": "LATI",
      "alert": "OK",
      "vis_m": null,
      "fzfg": false,
      "metar_trigger": false,
      "taf_trigger": false,
      "metar": "",
      "taf": "TAF LATI 181700Z 1818/1918 VRB05KT CAVOK TX14/1912Z TNM02/1904Z"
    },
    {
      "icao": "LBPD",
      "alert": "OK",
      "vis_m": 9999,
      "fzfg": false,
      "metar_trigger": false,
      "taf_trigger": false,
      "metar": "METAR LBPD 181900Z AUTO 10005KT 9999 OVC043/// M03/M06 Q1034 NOSIG",
      "taf": "TAF LBPD 181700Z 1818/1918 11010KT CAVOK"
    },
    {
      "icao": "LBSF",
      "alert": "OK",
      "vis_m": 9999,
      "fzfg": false,
      "metar_trigger": false,
      "taf_trigger": false,
      "metar": "METAR LBSF 181900Z AUTO VRB01KT 9999 NCD M08/M11 Q1032 NOSIG",
      "taf": "TAF LBSF 181700Z 1818/1918 06010KT 9999 SCT015"
    },
    {
      "icao": "LBWN",
      "alert": "OK",
      "vis_m": 9999,
      "fzfg": false,
      "metar_trigger": false,
      "taf_trigger": false,
      "metar": "METAR LBWN 181900Z AUTO 33010KT 300V020 9999 FEW014/// BKN016/// M07/M10 Q1035 NOSIG",
      "taf": "TAF LBWN 181700Z 1818/1918 32012KT 9999 SCT020 BKN030"
    },
    {
      "icao": "LCLK",
      "alert": "OK",
      "vis_m": 9999,
      "fzfg": false,
      "metar_trigger": false,
      "taf_trigger": false,
      "metar": "METAR LCLK 181900Z 35012KT 9999 FEW050 09/01 Q1018 NOSIG",
      "taf": "TAF LCLK 181730Z 1818/1918 03014KT 9999 FEW025"
    },
    {
      "icao": "LCPH",
      "alert": "OK",
      "vis_m": 9999,
      "fzfg": false,
      "metar_trigger": false,
      "taf_trigger": false,
      "metar": "METAR LCPH 181900Z 07011KT 9999 FEW025 08/03 Q1017 NOSIG",
      "taf": "TAF LCPH 181730Z 1818/1918 06009KT 9999 SCT025"
    },
    {
      "icao": "LEAL",
      "alert": "OK",
      "vis_m": 9999,
      "fzfg": false,
      "metar_trigger": false,
      "taf_trigger": false,
      "metar": "METAR LEAL 181900Z 31007KT 9999 FEW050 11/06 Q1012 NOSIG",
      "taf": "TAF LEAL 181700Z 1818/1918 29004KT 9999 FEW030 TX14/1913Z TN08/1904Z"
    },
    {
      "icao": "LEBB",
      "alert": "OK",
      "vis_m": 9999,
      "fzfg": false,
      "metar_trigger": false,
      "taf_trigger": false,
      "metar": "METAR LEBB 181900Z VRB02KT 9999 -RA SCT020 BKN033 10/09 Q1016 NOSIG",
      "taf": "TAF LEBB 181700Z 1818/1918 24005KT 9999 BKN020 TX13/1914Z TN06/1907Z"
    },
    {
      "icao": "LEBL",
      "alert": "OK",
      "vis_m": 9999,
      "fzfg": false,
      "metar_trigger": false,
      "taf_trigger": false,
      "metar": "METAR LEBL 181900Z 08008KT 9999 FEW010 SCT016 BKN060 12/12 Q1013 NOSIG",
      "taf": "TAF LEBL 181700Z 1818/1918 05008KT 9999 FEW010 TX14/1912Z TN10/1906Z"
    },
    {
      "icao": "LECH",
      "alert": "OK",
      "vis_m": 9999,
      "fzfg": false,
      "metar_trigger": false,
      "taf_trigger": false,
      "metar": "METAR LECH 181900Z AUTO VRB01KT CAVOK 07/06 Q1013",
      "taf": ""
    },
    {
      "icao": "LEMD",
      "alert": "OK",
      "vis_m": 9999,
      "fzfg": false,
      "metar_trigger": false,
      "taf_trigger": false,
      "metar": "METAR LEMD 181900Z 34006KT CAVOK 06/02 Q1013 NOSIG",
      "taf": "TAF LEMD 181700Z 1818/1924 02007KT 9999 FEW040 TX10/1914Z TNM01/1906Z"
    },
    {
      "icao": "LEMG",
      "alert": "OK",
      "vis_m": 9999,
      "fzfg": false,
      "metar_trigger": false,
      "taf_trigger": false,
      "metar": "METAR LEMG 181900Z 31003KT 9999 FEW030 08/06 Q1012 NOSIG",
      "taf": "TAF LEMG 181700Z 1818/1918 VRB03KT 9999 FEW030 TX13/1914Z TN04/1906Z"
    },
    {
      "icao": "LEVC",
      "alert": "OK",
      "vis_m": 9999,
      "fzfg": false,
      "metar_trigger": false,
      "taf_trigger": false,
      "metar": "METAR LEVC 181900Z 33003KT 290V010 9999 FEW018 SCT046 09/07 Q1013 NOSIG",
      "taf": "TAF LEVC 181700Z 1818/1918 06006KT 9999 FEW020 TX16/1913Z TN05/1906Z"
    },
    {
      "icao": "LEXJ",
      "alert": "OK",
      "vis_m": 9999,
      "fzfg": false,
      "metar_trigger": false,
      "taf_trigger": false,
      "metar": "METAR LEXJ 181900Z 22007KT 9999 FEW010 BKN025 09/08 Q1017",
      "taf": "TAF LEXJ 181400Z 1815/1915 25009KT 9999 BKN020 TX12/1913Z TN07/1907Z"
    },
    {
      "icao": "LEZG",
      "alert": "OK",
      "vis_m": 9999,
      "fzfg": false,
      "metar_trigger": false,
      "taf_trigger": false,
      "metar": "METAR LEZG 181900Z 25006KT 9999 -RA SCT030 BKN065 09/08 Q1014 NOSIG",
      "taf": "TAF LEZG 181700Z 1818/1918 29008KT 9999 SCT008 TX11/1915Z TN07/1906Z"
    },
    {
      "icao": "LEZL",
      "alert": "OK",
      "vis_m": 9999,
      "fzfg": false,
      "metar_trigger": false,
      "taf_trigger": false,
      "metar": "METAR LEZL 181900Z 01005KT CAVOK 10/04 Q1013 NOSIG",
      "taf": "TAF LEZL 181400Z 1815/1915 05010KT CAVOK TX14/1815Z TN03/1907Z"
    },
    {
      "icao": "LFBD",
      "alert": "OK",
      "vis_m": 9999,
      "fzfg": false,
      "metar_trigger": false,
      "taf_trigger": false,
      "metar": "METAR LFBD 181900Z AUTO 19004KT CAVOK 10/09 Q1015 TEMPO 3000 RADZ OVC003",
      "taf": "TAF LFBD 181700Z 1818/1924 14005KT 9999 BKN020 TX11/1915Z TN08/1903Z"
    },
    {
      "icao": "LFLL",
      "alert": "OK",
      "vis_m": 450,
      "fzfg": false,
      "metar_trigger": false,
      "taf_trigger": false,
      "metar": "METAR LFLL 181900Z VRB02KT 0450 R35L/0600N R17R/0600N R35R/0700D R17L/0550N FG VV/// 05/05 Q1017 NOSIG",
      "taf": "TAF LFLL 181700Z 1818/1924 VRB02KT 0500 FG VV///"
    },
    {
      "icao": "LFLS",
      "alert": "OK",
      "vis_m": 7000,
      "fzfg": false,
      "metar_trigger": false,
      "taf_trigger": false,
      "metar": "METAR LFLS 181900Z AUTO 07003KT 020V090 7000 NSC 04/03 Q1017 NOSIG",
      "taf": "TAF LFLS 181400Z 1815/1915 08005KT CAVOK"
    },
    {
      "icao": "LFMN",
      "alert": "OK",
      "vis_m": 9999,
      "fzfg": false,
      "metar_trigger": false,
      "taf_trigger": false,
      "metar": "METAR LFMN 181900Z 08018KT 9999 -RA FEW063 OVC083 15/07 Q1018 NOSIG",
      "taf": "TAF LFMN 181400Z 1815/1921 09025KT 9999 OVC060"
    },
    {
      "icao": "LFOB",
      "alert": "OK",
      "vis_m": 9999,
      "fzfg": false,
      "metar_trigger": false,
      "taf_trigger": false,
      "metar": "METAR LFOB 181900Z AUTO 11005KT CAVOK 05/04 Q1017 NOSIG",
      "taf": "TAF LFOB 181700Z 1818/1918 13005KT CAVOK"
    },
    {
      "icao": "LFPO",
      "alert": "OK",
      "vis_m": 9000,
      "fzfg": false,
      "metar_trigger": false,
      "taf_trigger": false,
      "metar": "METAR LFPO 181908Z COR 11003KT 9000 NSC 05/03 Q1017 NOSIG",
      "taf": "TAF LFPO 181700Z 1818/1924 VRB03KT CAVOK"
    },
    {
      "icao": "LFSB",
      "alert": "OK",
      "vis_m": 9999,
      "fzfg": false,
      "metar_trigger": false,
      "taf_trigger": false,
      "metar": "METAR LFSB 181900Z AUTO 09006KT 9999 OVC011 02/M01 Q1019 BECMG 3000 BR BKN003",
      "taf": "TAF LFSB 181700Z 1818/1918 VRB03KT 9000 OVC011"
    },
    {
      "icao": "LGAV",
      "alert": "OK",
      "vis_m": 9999,
      "fzfg": false,
      "metar_trigger": false,
      "taf_trigger": false,
      "metar": "METAR LGAV 181850Z 03014KT 9999 BKN040 06/M01 Q1027 NOSIG",
      "taf": "TAF LGAV 181700Z 1818/1918 03016KT 9999 FEW020 SCT030"
    },
    {
      "icao": "LGTS",
      "alert": "OK",
      "vis_m": 9999,
      "fzfg": false,
      "metar_trigger": false,
      "taf_trigger": false,
      "metar": "METAR LGTS 181850Z 13005KT 9999 FEW025 BKN040 05/M03 Q1031 NOSIG",
      "taf": "TAF LGTS 181700Z 1818/1918 09007KT 9999 FEW015 BKN035"
    },
    {
      "icao": "LHBP",
      "alert": "OK",
      "vis_m": 1500,
      "fzfg": false,
      "metar_trigger": false,
      "taf_trigger": false,
      "metar": "METAR LHBP 181900Z 11005KT 1500 BR BKN002 OVC005 M06/M07 Q1035 TEMPO 3000 -SG BR",
      "taf": ""
    },
    {
      "icao": "LHDC",
      "alert": "OK",
      "vis_m": 8000,
      "fzfg": true,
      "metar_trigger": false,
      "taf_trigger": false,
      "metar": "METAR LHDC 181845Z AUTO VRB02KT 8000 OVC004 M03/M03 Q1036 BECMG 2500 BR TEMPO 0650 -SG -FZDZ FZFG VV002",
      "taf": "TAF LHDC 181715Z 1818/1903 VRB03KT 7000 OVC005"
    },
    {
      "icao": "LIBD",
      "alert": "OK",
      "vis_m": 9999,
      "fzfg": false,
      "metar_trigger": false,
      "taf_trigger": false,
      "metar": "METAR LIBD 181850Z AUTO VRB01KT 9999 FEW023/// BKN032/// BKN062/// 09/08 Q1022",
      "taf": "TAF LIBD 181700Z 1818/1918 16007KT 7000 SCT020"
    },
    {
      "icao": "LIBG",
      "alert": "OK",
      "vis_m": 9999,
      "fzfg": false,
      "metar_trigger": false,
      "taf_trigger": false,
      "metar": "METAR LIBG 181850Z 09005KT 9999 SCT040 11/11 Q1023",
      "taf": "TAF LIBG 181700Z 1818/1903 VRB06KT 9999 SCT010 BKN020"
    },
    {
      "icao": "LIBP",
      "alert": "OK",
      "vis_m": 5000,
      "fzfg": false,
      "metar_trigger": false,
      "taf_trigger": false,
      "metar": "METAR LIBP 181850Z AUTO 04003KT 5000 BR FEW027/// BKN045/// 10/10 Q1023",
      "taf": "TAF LIBP 181700Z 1818/1918 VRB06KT 9999 SCT010 BKN040"
    },
    {
      "icao": "LIBR",
      "alert": "OK",
      "vis_m": 9999,
      "fzfg": false,
      "metar_trigger": false,
      "taf_trigger": false,
      "metar": "METAR LIBR 181850Z 20002KT 9999 SCT020 10/06 Q1023",
      "taf": "TAF LIBR 181700Z 1818/1918 17006KT 9999 SCT030"
    },
    {
      "icao": "LICA",
      "alert": "OK",
      "vis_m": 9999,
      "fzfg": false,
      "metar_trigger": false,
      "taf_trigger": false,
      "metar": "METAR LICA 181850Z AUTO 08015KT 9999 BKN089/// 12/09 Q1019",
      "taf": "TAF LICA 181700Z 1818/1918 08018G28KT 9999 BKN020"
    },
    {
      "icao": "LICC",
      "alert": "OK",
      "vis_m": 7000,
      "fzfg": false,
      "metar_trigger": false,
      "taf_trigger": false,
      "metar": "METAR LICC 181850Z 13005KT 080V160 7000 RA FEW010 SCT025 BKN050 14/12 Q1017",
      "taf": "TAF LICC 181700Z 1818/1918 08015KT 9999 SCT015 BKN040"
    },
    {
      "icao": "LICJ",
      "alert": "OK",
      "vis_m": 9999,
      "fzfg": false,
      "metar_trigger": false,
      "taf_trigger": false,
      "metar": "METAR LICJ 181850Z 12005KT 080V170 9999 FEW060 16/08 Q1015",
      "taf": "TAF LICJ 181700Z 1818/1918 06012KT 9999 SCT040"
    },
    {
      "icao": "LIMC",
      "alert": "OK",
      "vis_m": 9999,
      "fzfg": false,
      "metar_trigger": false,
      "taf_trigger": false,
      "metar": "METAR LIMC 181850Z 08004KT 060V120 9999 BKN081 08/03 Q1025 NOSIG",
      "taf": "TAF LIMC 181700Z 1818/1924 VRB05KT 8000 BKN050"
    },
    {
      "icao": "LIME",
      "alert": "OK",
      "vis_m": 9999,
      "fzfg": false,
      "metar_trigger": false,
      "taf_trigger": false,
      "metar": "METAR LIME 181850Z AUTO VRB02KT 9999 FEW091/// SCT100/// 07/02 Q1025",
      "taf": "TAF LIME 181700Z 1818/1918 VRB04KT 8000 FEW025 BKN050"
    },
    {
      "icao": "LIMF",
      "alert": "OK",
      "vis_m": 9999,
      "fzfg": false,
      "metar_trigger": false,
      "taf_trigger": false,
      "metar": "METAR LIMF 181850Z 02005KT 9999 OVC060 08/04 Q1024",
      "taf": "TAF LIMF 181700Z 1818/1918 34007KT 4000 -RA OVC030"
    },
    {
      "icao": "LIMJ",
      "alert": "OK",
      "vis_m": 9999,
      "fzfg": false,
      "metar_trigger": false,
      "taf_trigger": false,
      "metar": "METAR LIMJ 181850Z 03015KT CAVOK 11/06 Q1021",
      "taf": "TAF LIMJ 181700Z 1818/1918 03012KT 9999 FEW040"
    },
    {
      "icao": "LIPE",
      "alert": "OK",
      "vis_m": 4000,
      "fzfg": false,
      "metar_trigger": false,
      "taf_trigger": false,
      "metar": "METAR LIPE 181850Z 01005KT 4000 DZ BR SCT018 BKN028 07/07 Q1025",
      "taf": "TAF LIPE 181700Z 1818/1918 VRB05KT 7000 BKN035"
    },
    {
      "icao": "LIPH",
      "alert": "OK",
      "vis_m": 9999,
      "fzfg": false,
      "metar_trigger": false,
      "taf_trigger": false,
      "metar": "METAR LIPH 181850Z 04004KT 9999 BKN050 08/M01 Q1026",
      "taf": "TAF LIPH 181700Z 1818/1918 04007KT 9999 SCT060"
    },
    {
      "icao": "LIPQ",
      "alert": "OK",
      "vis_m": 9999,
      "fzfg": false,
      "metar_trigger": false,
      "taf_trigger": false,
      "metar": "METAR LIPQ 181850Z AUTO 04004KT 020V080 9999 BKN100/// BKN120/// 06/M03 Q1026",
      "taf": "TAF LIPQ 181700Z 1818/1918 08009KT 9999 SCT060"
    },
    {
      "icao": "LIPR",
      "alert": "OK",
      "vis_m": 9999,
      "fzfg": false,
      "metar_trigger": false,
      "taf_trigger": false,
      "metar": "METAR LIPR 181850Z 12004KT 060V180 9999 SCT025 BKN050 10/08 Q1023 RERA",
      "taf": "TAF LIPR 181700Z 1818/1918 09012KT 7000 SCT025"
    },
    {
      "icao": "LIPX",
      "alert": "OK",
      "vis_m": 9999,
      "fzfg": false,
      "metar_trigger": false,
      "taf_trigger": false,
      "metar": "METAR LIPX 181850Z 10007KT 060V130 9999 OVC075 09/00 Q1025",
      "taf": "TAF LIPX 181700Z 1818/1918 09007KT 9999 BKN050"
    },
    {
      "icao": "LIPY",
      "alert": "OK",
      "vis_m": 100,
      "fzfg": false,
      "metar_trigger": false,
      "taf_trigger": false,
      "metar": "METAR LIPY 181850Z AUTO VRB02KT 0100 R22/0450N FG SCT003/// BKN022/// 08/08 Q1023",
      "taf": ""
    },
    {
      "icao": "LIPZ",
      "alert": "OK",
      "vis_m": 9999,
      "fzfg": false,
      "metar_trigger": false,
      "taf_trigger": false,
      "metar": "METAR LIPZ 181850Z 06010KT 9999 BKN045 07/01 Q1025 NOSIG",
      "taf": "TAF LIPZ 181700Z 1818/1924 05010KT 9999 SCT050"
    },
    {
      "icao": "LIRF",
      "alert": "OK",
      "vis_m": 9999,
      "fzfg": false,
      "metar_trigger": false,
      "taf_trigger": false,
      "metar": "METAR LIRF 181850Z 06008KT 9999 FEW055 13/06 Q1018 NOSIG",
      "taf": "TAF LIRF 181700Z 1818/1924 06009KT 9999 SCT040"
    },
    {
      "icao": "LIRN",
      "alert": "OK",
      "vis_m": 9999,
      "fzfg": false,
      "metar_trigger": false,
      "taf_trigger": false,
      "metar": "METAR LIRN 181850Z 05007KT 9999 -RA BKN060 12/08 Q1019 NOSIG",
      "taf": "TAF LIRN 181700Z 1818/1918 05010KT 9999 SCT040"
    },
    {
      "icao": "LIRP",
      "alert": "OK",
      "vis_m": 9999,
      "fzfg": false,
      "metar_trigger": false,
      "taf_trigger": false,
      "metar": "METAR LIRP 181845Z 07010KT CAVOK 11/05 Q1020 NOSIG",
      "taf": "TAF LIRP 181700Z 1818/1918 11010KT 9999 BKN080"
    },
    {
      "icao": "LIRZ",
      "alert": "OK",
      "vis_m": 9999,
      "fzfg": false,
      "metar_trigger": false,
      "taf_trigger": false,
      "metar": "METAR LIRZ 181850Z AUTO 05007KT 020V080 9999 NCD 10/04 Q1020",
      "taf": "TAF LIRZ 181700Z 1818/1918 03012KT CAVOK"
    },
    {
      "icao": "LJLJ",
      "alert": "OK",
      "vis_m": 9999,
      "fzfg": false,
      "metar_trigger": false,
      "taf_trigger": false,
      "metar": "METAR LJLJ 181900Z VRB01KT 9999 SCT025 M03/M03 Q1030 NOSIG",
      "taf": "TAF LJLJ 181700Z 1818/1918 20003KT 9999 FEW025"
    },
    {
      "icao": "LKMT",
      "alert": "OK",
      "vis_m": 300,
      "fzfg": true,
      "metar_trigger": false,
      "taf_trigger": false,
      "metar": "METAR LKMT 181900Z 08002KT 0300 R22/0300N R04/0375N FZFG VV001 M08/M09 Q1032 NOSIG",
      "taf": "TAF LKMT 181700Z 1818/1918 VRB02KT 0300 FZFG VV002"
    },
    {
      "icao": "LKPR",
      "alert": "OK",
      "vis_m": 9999,
      "fzfg": false,
      "metar_trigger": false,
      "taf_trigger": false,
      "metar": "METAR LKPR 181900Z 10008KT CAVOK M03/M05 Q1026 NOSIG",
      "taf": "TAF LKPR 181700Z 1818/1924 12010KT CAVOK"
    },
    {
      "icao": "LLBG",
      "alert": "OK",
      "vis_m": 9999,
      "fzfg": false,
      "metar_trigger": false,
      "taf_trigger": false,
      "metar": "METAR LLBG 181850Z 18005KT 9999 FEW026 SCT045 13/11 Q1016 TEMPO 7000 RA FEW020TCU",
      "taf": "TAF LLBG 181706Z 1818/1918 VRB04KT 9999 SCT040"
    },
    {
      "icao": "LMML",
      "alert": "OK",
      "vis_m": 9999,
      "fzfg": false,
      "metar_trigger": false,
      "taf_trigger": false,
      "metar": "METAR LMML 181915Z 11023KT 9999 BKN012 FEW015TCU 16/14 Q1014 NOSIG",
      "taf": "TAF LMML 181700Z 1818/1918 12015KT 9999 SCT015"
    },
    {
      "icao": "LOWW",
      "alert": "OK",
      "vis_m": 9999,
      "fzfg": false,
      "metar_trigger": false,
      "taf_trigger": false,
      "metar": "METAR LOWW 181850Z 15010KT CAVOK M02/M04 Q1032 NOSIG",
      "taf": "TAF LOWW 181715Z 1818/1924 14013KT 9999 FEW020 SCT030 TXM02/1818Z TNM06/1924Z"
    },
    {
      "icao": "LPFR",
      "alert": "OK",
      "vis_m": 9999,
      "fzfg": false,
      "metar_trigger": false,
      "taf_trigger": false,
      "metar": "METAR LPFR 181900Z 34006KT CAVOK 10/04 Q1014",
      "taf": "TAF LPFR 181700Z 1818/1918 35008KT CAVOK"
    },
    {
      "icao": "LPMA",
      "alert": "OK",
      "vis_m": 9999,
      "fzfg": false,
      "metar_trigger": false,
      "taf_trigger": false,
      "metar": "METAR LPMA 181900Z 02013G35KT 290V080 9999 SCT015 16/08 Q1021",
      "taf": "TAF LPMA 181700Z 1818/1918 01010KT 9999 SCT015"
    },
    {
      "icao": "LPPR",
      "alert": "OK",
      "vis_m": 9999,
      "fzfg": false,
      "metar_trigger": false,
      "taf_trigger": false,
      "metar": "METAR LPPR 181900Z 33003KT 280V060 CAVOK 09/07 Q1017",
      "taf": "TAF LPPR 181700Z 1818/1918 33007KT CAVOK"
    },
    {
      "icao": "LPPS",
      "alert": "OK",
      "vis_m": 9999,
      "fzfg": false,
      "metar_trigger": false,
      "taf_trigger": false,
      "metar": "METAR LPPS 181900Z 01013KT 9999 SCT015 15/09 Q1022",
      "taf": "TAF LPPS 181700Z 1818/1924 01015KT 9999 SCT015"
    },
    {
      "icao": "LPPT",
      "alert": "OK",
      "vis_m": 9999,
      "fzfg": false,
      "metar_trigger": false,
      "taf_trigger": false,
      "metar": "METAR LPPT 181900Z 32006KT 9999 FEW020 09/05 Q1016",
      "taf": "TAF LPPT 181700Z 1818/1924 36010KT 9999 FEW035"
    },
    {
      "icao": "LQBK",
      "alert": "OK",
      "vis_m": 9999,
      "fzfg": false,
      "metar_trigger": false,
      "taf_trigger": false,
      "metar": "METAR LQBK 181900Z 03003KT 9999 BKN017 OVC030 M00/M03 Q1033 NOSIG",
      "taf": "TAF LQBK 181700Z 1818/1918 34006KT 9999 BKN025 TX00/1914Z TNM07/1906Z"
    },
    {
      "icao": "LQSA",
      "alert": "OK",
      "vis_m": 3000,
      "fzfg": false,
      "metar_trigger": false,
      "taf_trigger": false,
      "metar": "METAR LQSA 181900Z 10002KT 3000 BR FEW030 M03/M03 Q1028 BECMG 1500",
      "taf": "TAF LQSA 181700Z 1818/1918 VRB02KT 4000 BR FEW030 TX00/1913Z TNM07/1906Z"
    },
    {
      "icao": "LQTZ",
      "alert": "OK",
      "vis_m": 9999,
      "fzfg": false,
      "metar_trigger": false,
      "taf_trigger": false,
      "metar": "METAR LQTZ 181900Z 09004KT 9999 FEW030 M01/M03 Q1031",
      "taf": "TAF LQTZ 181700Z 1818/1918 10006KT 9999 BKN025 TX03/1913Z TNM03/1906Z"
    },
    {
      "icao": "LRBC",
      "alert": "OK",
      "vis_m": 9999,
      "fzfg": false,
      "metar_trigger": false,
      "taf_trigger": false,
      "metar": "METAR LRBC 181900Z 34011KT 9999 BKN030 M09/M13 Q1039",
      "taf": "TAF LRBC 181700Z 1818/1903 35010KT 9999 BKN030"
    },
    {
      "icao": "LRBS",
      "alert": "OK",
      "vis_m": 6000,
      "fzfg": false,
      "metar_trigger": false,
      "taf_trigger": false,
      "metar": "METAR LRBS 181900Z VRB01KT 6000 BKN025 BKN039 M06/M09 Q1038 NOSIG",
      "taf": "TAF LRBS 181700Z 1818/1918 VRB04KT 7000 BKN025"
    },
    {
      "icao": "LRBV",
      "alert": "OK",
      "vis_m": 9999,
      "fzfg": false,
      "metar_trigger": false,
      "taf_trigger": false,
      "metar": "METAR LRBV 181900Z 21006KT CAVOK M11/M13 Q1034",
      "taf": "TAF LRBV 181700Z 1818/1903 VRB04KT 9999 SCT035"
    },
    {
      "icao": "LRCL",
      "alert": "OK",
      "vis_m": 9999,
      "fzfg": false,
      "metar_trigger": false,
      "taf_trigger": false,
      "metar": "METAR LRCL 181900Z 06008KT CAVOK M07/M11 Q1035",
      "taf": "TAF LRCL 181700Z 1818/1903 07006KT CAVOK"
    },
    {
      "icao": "LRCV",
      "alert": "OK",
      "vis_m": 7000,
      "fzfg": false,
      "metar_trigger": false,
      "taf_trigger": false,
      "metar": "METAR LRCV 181900Z 23003KT 7000 NSC M10/M11 Q1038",
      "taf": "TAF LRCV 181700Z 1818/1903 VRB03KT 7000 NSC"
    },
    {
      "icao": "LRIA",
      "alert": "OK",
      "vis_m": 9999,
      "fzfg": false,
      "metar_trigger": false,
      "taf_trigger": false,
      "metar": "METAR LRIA 181900Z 24004KT 210V340 9999 BKN013 OVC022 M11/M14 Q1040",
      "taf": "TAF LRIA 181700Z 1818/1903 32006KT 9999 BKN010 BKN030"
    },
    {
      "icao": "LROP",
      "alert": "OK",
      "vis_m": 6000,
      "fzfg": false,
      "metar_trigger": false,
      "taf_trigger": false,
      "metar": "METAR LROP 181900Z 27005KT 6000 OVC039 M07/M10 Q1038 NOSIG",
      "taf": "TAF LROP 181700Z 1818/1918 VRB04KT 7000 BKN025"
    },
    {
      "icao": "LRSB",
      "alert": "OK",
      "vis_m": 9999,
      "fzfg": false,
      "metar_trigger": false,
      "taf_trigger": false,
      "metar": "METAR LRSB 181900Z 27003KT CAVOK M10/M11 Q1034",
      "taf": "TAF LRSB 181700Z 1818/1918 VRB04KT CAVOK"
    },
    {
      "icao": "LRSM",
      "alert": "OK",
      "vis_m": 6000,
      "fzfg": false,
      "metar_trigger": false,
      "taf_trigger": false,
      "metar": "METAR LRSM 181900Z AUTO 22003KT 6000 NCD M09/M10 Q1036",
      "taf": "TAF LRSM 181400Z 1815/1824 11005KT CAVOK"
    },
    {
      "icao": "LRSV",
      "alert": "OK",
      "vis_m": 9999,
      "fzfg": false,
      "metar_trigger": false,
      "taf_trigger": false,
      "metar": "METAR LRSV 181900Z COR 27003KT CAVOK M13/M14 Q1037",
      "taf": "TAF LRSV 181700Z 1818/1903 VRB04KT CAVOK"
    },
    {
      "icao": "LRTM",
      "alert": "OK",
      "vis_m": 7000,
      "fzfg": false,
      "metar_trigger": false,
      "taf_trigger": false,
      "metar": "METAR LRTM 181900Z 00000KT 7000 NSC M14/M15 Q1036",
      "taf": "TAF LRTM 181700Z 1818/1903 VRB04KT 7000 NSC"
    },
    {
      "icao": "LRTR",
      "alert": "OK",
      "vis_m": 4500,
      "fzfg": false,
      "metar_trigger": false,
      "taf_trigger": false,
      "metar": "METAR LRTR 181900Z 03005KT 4500 BR NSC M06/M06 Q1035 BECMG 3000 BR",
      "taf": "TAF LRTR 181700Z 1818/1918 VRB04KT 7000 NSC"
    },
    {
      "icao": "LTAC",
      "alert": "OK",
      "vis_m": 9999,
      "fzfg": false,
      "metar_trigger": false,
      "taf_trigger": false,
      "metar": "METAR LTAC 181850Z 30008KT 270V330 9999 SCT036 SCT100 M04/M10 Q1021 NOSIG RMK RWY21C 29008KT RWY03L 30008KT RWY21R 28007KT RWY03R 27007KT 230V300 RWY21L 29008KT",
      "taf": "TAF LTAC 181640Z 1818/1918 VRB02KT 9999 SCT040 SCT100"
    },
    {
      "icao": "LTFM",
      "alert": "OK",
      "vis_m": 8000,
      "fzfg": false,
      "metar_trigger": false,
      "taf_trigger": false,
      "metar": "METAR LTFM 181850Z 35023KT 8000 -SHSN BKN012 BKN025 01/M02 Q1031 NOSIG RMK RWY17L 35022KT RWY34L 35022KT RWY16R 35021KT RWY36 36022KT RWY18 01022KT",
      "taf": "TAF LTFM 181640Z 1818/1924 35023G33KT 8000 -SHSN BKN012 BKN025"
    },
    {
      "icao": "LUKK",
      "alert": "OK",
      "vis_m": 9999,
      "fzfg": false,
      "metar_trigger": false,
      "taf_trigger": false,
      "metar": "METAR LUKK 181900Z 02012KT 9999 FEW010 OVC021 M08/M10 Q1039 NOSIG",
      "taf": "TAF LUKK 181712Z 1818/1918 34008KT 9999 BKN015"
    },
    {
      "icao": "LWOH",
      "alert": "OK",
      "vis_m": null,
      "fzfg": false,
      "metar_trigger": false,
      "taf_trigger": false,
      "metar": "",
      "taf": "TAF LWOH 181730Z 1818/1918 35005KT 9999 SCT040"
    },
    {
      "icao": "LWSK",
      "alert": "OK",
      "vis_m": 9999,
      "fzfg": false,
      "metar_trigger": false,
      "taf_trigger": false,
      "metar": "METAR LWSK 181850Z COR 22003KT CAVOK M00/M05 Q1030 NOSIG",
      "taf": "TAF LWSK 181730Z 1818/1918 05005KT 9999 SCT040"
    },
    {
      "icao": "LYBE",
      "alert": "OK",
      "vis_m": 9999,
      "fzfg": false,
      "metar_trigger": false,
      "taf_trigger": false,
      "metar": "METAR LYBE 181900Z 11011KT CAVOK M04/M08 Q1034 NOSIG",
      "taf": "TAF LYBE 181700Z 1818/1918 10012KT CAVOK TX01/1913Z TNM06/1906Z"
    },
    {
      "icao": "LYNI",
      "alert": "OK",
      "vis_m": 9999,
      "fzfg": false,
      "metar_trigger": false,
      "taf_trigger": false,
      "metar": "METAR LYNI 181900Z VRB02KT CAVOK M04/M09 Q1033 NOSIG",
      "taf": "TAF LYNI 181700Z 1818/1918 05007KT CAVOK TX01/1913Z TNM08/1906Z"
    },
    {
      "icao": "LYPG",
      "alert": "OK",
      "vis_m": 9999,
      "fzfg": false,
      "metar_trigger": false,
      "taf_trigger": false,
      "metar": "METAR LYPG 181900Z VRB01KT CAVOK 04/M02 Q1026 NOSIG",
      "taf": "TAF LYPG 181700Z 1818/1918 35005KT CAVOK TX08/1912Z TNM02/1906Z"
    },
    {
      "icao": "LZIB",
      "alert": "OK",
      "vis_m": 9999,
      "fzfg": false,
      "metar_trigger": false,
      "taf_trigger": false,
      "metar": "METAR LZIB 181900Z 11008KT CAVOK M03/M05 Q1033 NOSIG",
      "taf": "TAF LZIB 181715Z 1818/1918 09005KT 9999 FEW020"
    },
    {
      "icao": "LZKZ",
      "alert": "OK",
      "vis_m": 9999,
      "fzfg": false,
      "metar_trigger": false,
      "taf_trigger": false,
      "metar": "METAR LZKZ 181900Z 36003KT CAVOK M07/M10 Q1035 NOSIG",
      "taf": "TAF LZKZ 181715Z 1818/1918 VRB02KT CAVOK"
    },
    {
      "icao": "LZTT",
      "alert": "OK",
      "vis_m": 9999,
      "fzfg": false,
      "metar_trigger": false,
      "taf_trigger": false,
      "metar": "METAR LZTT 181900Z 28006KT CAVOK M10/M12 Q1031 NOSIG",
      "taf": "TAF LZTT 181715Z 1818/1918 VRB02KT CAVOK"
    },
    {
      "icao": "OEJN",
      "alert": "OK",
      "vis_m": 9999,
      "fzfg": false,
      "metar_trigger": false,
      "taf_trigger": false,
      "metar": "METAR OEJN 181900Z 35011KT CAVOK 24/15 Q1013 NOSIG",
      "taf": "TAF OEJN 181700Z 1818/1924 03007KT 7000 FEW040"
    },
    {
      "icao": "OEMA",
      "alert": "OK",
      "vis_m": 9999,
      "fzfg": false,
      "metar_trigger": false,
      "taf_trigger": false,
      "metar": "METAR OEMA 181900Z 24009KT CAVOK 21/06 Q1016 NOSIG",
      "taf": "TAF OEMA 181700Z 1818/1924 30008KT CAVOK"
    },
    {
      "icao": "OJAI",
      "alert": "OK",
      "vis_m": 4000,
      "fzfg": false,
      "metar_trigger": false,
      "taf_trigger": false,
      "metar": "METAR OJAI 181900Z 22005KT 4000 BR FEW025 FEW030 09/07 Q1017 NOSIG",
      "taf": ""
    },
    {
      "icao": "OMAA",
      "alert": "OK",
      "vis_m": 9999,
      "fzfg": false,
      "metar_trigger": false,
      "taf_trigger": false,
      "metar": "METAR OMAA 181900Z 23004KT CAVOK 18/13 Q1016 NOSIG",
      "taf": "TAF OMAA 181700Z 1818/2000 25005KT 8000 NSC"
    },
    {
      "icao": "OMDB",
      "alert": "OK",
      "vis_m": 9999,
      "fzfg": false,
      "metar_trigger": false,
      "taf_trigger": false,
      "metar": "METAR OMDB 181900Z 19005KT 9999 FEW040 20/13 Q1015 NOSIG",
      "taf": "TAF OMDB 181700Z 1818/2000 27010KT 8000 FEW040"
    },
    {
      "icao": "UAAA",
      "alert": "OK",
      "vis_m": 1100,
      "fzfg": false,
      "metar_trigger": false,
      "taf_trigger": false,
      "metar": "METAR UAAA 181900Z 15001MPS 1100 R05R/P2000N BR FU SCT200 M17/M19 Q1028 NOSIG",
      "taf": "TAF UAAA 181702Z 1818/1918 30003MPS 1100 BR FU BKN011 OVC030 TXM09/1908Z TNM19/1903Z"
    },
    {
      "icao": "UBBB",
      "alert": "OK",
      "vis_m": 9999,
      "fzfg": false,
      "metar_trigger": false,
      "taf_trigger": false,
      "metar": "METAR UBBB 181900Z 05010KT 9999 BKN023 04/01 Q1029 NOSIG",
      "taf": "TAF UBBB 181652Z 1818/1918 03008KT 9999 SCT025 TX04/1910Z TN02/1901Z"
    },
    {
      "icao": "UDSG",
      "alert": "OK",
      "vis_m": 9000,
      "fzfg": false,
      "metar_trigger": false,
      "taf_trigger": false,
      "metar": "METAR UDSG 181900Z 09016KT 9000 DRSN BKN033 M04/M08 Q1016 NOSIG",
      "taf": "TAF UDSG 181658Z 1818/1918 VRB06KT 5000 BR BKN030"
    },
    {
      "icao": "UDYZ",
      "alert": "OK",
      "vis_m": 800,
      "fzfg": true,
      "metar_trigger": false,
      "taf_trigger": false,
      "metar": "METAR UDYZ 181900Z VRB01KT 0800 0750W R08/1700D FZFG BKN026 M01/M01 Q1018 NOSIG",
      "taf": "TAF UDYZ 181700Z 1818/1918 VRB04KT 1500 BR BKN020"
    },
    {
      "icao": "UGKO",
      "alert": "OK",
      "vis_m": 9999,
      "fzfg": false,
      "metar_trigger": false,
      "taf_trigger": false,
      "metar": "METAR UGKO 181900Z 10003KT 9999 BKN028 M01/M01 Q1022 NOSIG",
      "taf": "TAF UGKO 181700Z 1818/1918 26007KT 9999 SCT023 BKN050 TX04/1911Z TNM01/1823Z"
    }
  ]
}