{
  "ts_utc": "2026-03-03T16:09:31Z",
  "threshold_m": 150,
  "source": "stations_override.txt (ICAO list) + aviationweather.gov (METAR/TAF raw)",
  "station_count": 159,
  "stations": [
    {
      "icao": "BIKF",
      "alert": "OK",
      "vis_m": 2500,
      "fzfg": false,
      "metar_trigger": false,
      "taf_trigger": false,
      "metar": "METAR BIKF 031600Z 12028KT 2500 -RA BKN010 OVC025 04/04 Q0991",
      "taf": "TAF BIKF 031339Z 0315/0415 13028G45KT 6000 RADZ BKN015 TX07/0318Z TN00/0408Z"
    },
    {
      "icao": "BKPR",
      "alert": "OK",
      "vis_m": 9999,
      "fzfg": false,
      "metar_trigger": false,
      "taf_trigger": false,
      "metar": "METAR BKPR 031600Z 36007KT CAVOK 13/05 Q1026 NOSIG",
      "taf": ""
    },
    {
      "icao": "EBCI",
      "alert": "OK",
      "vis_m": 9999,
      "fzfg": false,
      "metar_trigger": false,
      "taf_trigger": false,
      "metar": "METAR EBCI 031550Z VRB01KT 9999 FEW045 17/06 Q1025 NOSIG",
      "taf": "TAF EBCI 031100Z 0312/0418 03003KT CAVOK"
    },
    {
      "icao": "EDDB",
      "alert": "OK",
      "vis_m": 9999,
      "fzfg": false,
      "metar_trigger": false,
      "taf_trigger": false,
      "metar": "METAR EDDB 031550Z AUTO 23007KT CAVOK 16/04 Q1025 NOSIG",
      "taf": "TAF EDDB 031100Z 0312/0412 20005KT CAVOK"
    },
    {
      "icao": "EDDH",
      "alert": "OK",
      "vis_m": 9999,
      "fzfg": false,
      "metar_trigger": false,
      "taf_trigger": false,
      "metar": "METAR EDDH 031550Z AUTO 30006KT 260V320 CAVOK 13/07 Q1026 NOSIG",
      "taf": "TAF EDDH 031100Z 0312/0418 26006KT CAVOK"
    },
    {
      "icao": "EDDK",
      "alert": "OK",
      "vis_m": 9999,
      "fzfg": false,
      "metar_trigger": false,
      "taf_trigger": false,
      "metar": "METAR EDDK 031550Z AUTO 34004KT 310V020 CAVOK 18/05 Q1025 NOSIG",
      "taf": "TAF EDDK 031100Z 0312/0418 VRB03KT CAVOK"
    },
    {
      "icao": "EDDN",
      "alert": "OK",
      "vis_m": 9999,
      "fzfg": false,
      "metar_trigger": false,
      "taf_trigger": false,
      "metar": "METAR EDDN 031550Z AUTO 30004KT 9999 FEW045 13/05 Q1025 NOSIG",
      "taf": "TAF EDDN 031100Z 0312/0412 VRB02KT CAVOK"
    },
    {
      "icao": "EDDS",
      "alert": "OK",
      "vis_m": 9999,
      "fzfg": false,
      "metar_trigger": false,
      "taf_trigger": false,
      "metar": "METAR EDDS 031550Z AUTO 35006KT 320V020 CAVOK 13/03 Q1025 NOSIG",
      "taf": "TAF EDDS 031100Z 0312/0412 VRB03KT CAVOK"
    },
    {
      "icao": "EDFH",
      "alert": "OK",
      "vis_m": 9999,
      "fzfg": false,
      "metar_trigger": false,
      "taf_trigger": false,
      "metar": "METAR EDFH 031550Z 31003KT 280V340 CAVOK 15/03 Q1026",
      "taf": "TAF EDFH 031100Z 0312/0412 17006KT CAVOK"
    },
    {
      "icao": "EDJA",
      "alert": "OK",
      "vis_m": 9999,
      "fzfg": false,
      "metar_trigger": false,
      "taf_trigger": false,
      "metar": "METAR EDJA 031550Z 35006KT 280V030 CAVOK 10/04 Q1025",
      "taf": "TAF EDJA 031400Z 0315/0324 03007KT CAVOK"
    },
    {
      "icao": "EDLW",
      "alert": "OK",
      "vis_m": 9999,
      "fzfg": false,
      "metar_trigger": false,
      "taf_trigger": false,
      "metar": "METAR EDLW 031550Z 30004KT 270V360 CAVOK 17/06 Q1025",
      "taf": "TAF EDLW 031100Z 0312/0412 VRB03KT CAVOK"
    },
    {
      "icao": "EDNY",
      "alert": "OK",
      "vis_m": 9999,
      "fzfg": false,
      "metar_trigger": false,
      "taf_trigger": false,
      "metar": "METAR EDNY 031550Z 25005KT CAVOK 10/05 Q1025",
      "taf": "TAF EDNY 031400Z 0315/0324 25005KT 9000 FEW003"
    },
    {
      "icao": "EDSB",
      "alert": "OK",
      "vis_m": 9999,
      "fzfg": false,
      "metar_trigger": false,
      "taf_trigger": false,
      "metar": "METAR EDSB 031550Z 01005KT CAVOK 15/05 Q1025",
      "taf": "TAF EDSB 031100Z 0312/0412 02003KT CAVOK"
    },
    {
      "icao": "EETN",
      "alert": "OK",
      "vis_m": 9999,
      "fzfg": false,
      "metar_trigger": false,
      "taf_trigger": false,
      "metar": "METAR EETN 031550Z 19014KT 9999 OVC006 02/01 Q1014 TEMPO OVC004",
      "taf": "TAF EETN 031130Z 0312/0412 19014KT 9999 SCT009 BKN035"
    },
    {
      "icao": "EFTU",
      "alert": "OK",
      "vis_m": 9999,
      "fzfg": false,
      "metar_trigger": false,
      "taf_trigger": false,
      "metar": "METAR EFTU 031550Z AUTO 23011KT 9999 FEW008 BKN030 03/02 Q1009",
      "taf": ""
    },
    {
      "icao": "EGBB",
      "alert": "OK",
      "vis_m": 9999,
      "fzfg": false,
      "metar_trigger": false,
      "taf_trigger": false,
      "metar": "METAR EGBB 031550Z 09006KT 9999 FEW020 BKN040 11/05 Q1027",
      "taf": "TAF EGBB 031102Z 0312/0412 06007KT 9999 SCT040"
    },
    {
      "icao": "EGGP",
      "alert": "OK",
      "vis_m": 9999,
      "fzfg": false,
      "metar_trigger": false,
      "taf_trigger": false,
      "metar": "METAR EGGP 031550Z 14007KT 9999 FEW035 11/04 Q1027",
      "taf": "TAF EGGP 031057Z 0312/0412 09006KT 9999 FEW030"
    },
    {
      "icao": "EGGW",
      "alert": "OK",
      "vis_m": 9999,
      "fzfg": false,
      "metar_trigger": false,
      "taf_trigger": false,
      "metar": "METAR EGGW 031550Z AUTO 06007KT 9999 BKN033 OVC040 12/06 Q1027",
      "taf": "TAF EGGW 031059Z 0312/0412 05007KT 9999 SCT030"
    },
    {
      "icao": "EGKK",
      "alert": "OK",
      "vis_m": 9999,
      "fzfg": false,
      "metar_trigger": false,
      "taf_trigger": false,
      "metar": "METAR EGKK 031550Z 07010KT CAVOK 13/08 Q1026",
      "taf": "TAF EGKK 031100Z 0312/0418 05007KT 9999 FEW030"
    },
    {
      "icao": "EGNM",
      "alert": "OK",
      "vis_m": 9999,
      "fzfg": false,
      "metar_trigger": false,
      "taf_trigger": false,
      "metar": "METAR EGNM 031550Z 10005KT 070V140 CAVOK 09/M01 Q1028",
      "taf": "TAF EGNM 031056Z 0312/0412 08006KT 9999 FEW035"
    },
    {
      "icao": "EGPD",
      "alert": "OK",
      "vis_m": 9999,
      "fzfg": false,
      "metar_trigger": false,
      "taf_trigger": false,
      "metar": "METAR EGPD 031550Z COR AUTO 33004KT 9999 NCD 11/M00 Q1027 NOSIG",
      "taf": "TAF EGPD 031101Z 0312/0412 26005KT 9999 FEW040"
    },
    {
      "icao": "EGPF",
      "alert": "OK",
      "vis_m": 9999,
      "fzfg": false,
      "metar_trigger": false,
      "taf_trigger": false,
      "metar": "METAR EGPF 031550Z AUTO 22009KT 9999 BKN034 11/03 Q1028",
      "taf": "TAF EGPF 031054Z 0312/0412 VRB04KT 9999 FEW030"
    },
    {
      "icao": "EHBK",
      "alert": "OK",
      "vis_m": 9999,
      "fzfg": false,
      "metar_trigger": false,
      "taf_trigger": false,
      "metar": "METAR EHBK 031555Z AUTO VRB02KT 9999 NCD 18/07 Q1025 NOSIG",
      "taf": "TAF EHBK 031112Z 0312/0418 VRB02KT CAVOK"
    },
    {
      "icao": "EHEH",
      "alert": "OK",
      "vis_m": 9999,
      "fzfg": false,
      "metar_trigger": false,
      "taf_trigger": false,
      "metar": "METAR EHEH 031555Z AUTO 29003KT 270V020 9999 NCD 18/06 Q1025 BLU NOSIG",
      "taf": "TAF EHEH 031111Z 0312/0418 VRB02KT CAVOK"
    },
    {
      "icao": "EKBI",
      "alert": "OK",
      "vis_m": 9999,
      "fzfg": false,
      "metar_trigger": false,
      "taf_trigger": false,
      "metar": "METAR EKBI 031550Z AUTO 31012KT 9999 NCD 07/00 Q1027",
      "taf": "TAF EKBI 031427Z 0315/0415 30008KT 9999 SCT015"
    },
    {
      "icao": "EKCH",
      "alert": "OK",
      "vis_m": 9999,
      "fzfg": false,
      "metar_trigger": false,
      "taf_trigger": false,
      "metar": "METAR EKCH 031550Z AUTO 32011KT 9999 BKN024/// 09/04 Q1024 NOSIG",
      "taf": "TAF EKCH 031427Z 0315/0415 30010KT 9999 FEW030"
    },
    {
      "icao": "ENAL",
      "alert": "OK",
      "vis_m": 9999,
      "fzfg": false,
      "metar_trigger": false,
      "taf_trigger": false,
      "metar": "METAR ENAL 031550Z 26018KT 9999 -RA SCT012 BKN028 04/02 Q1013",
      "taf": "TAF ENAL 031400Z 0315/0324 26022KT 9999 -SHRA FEW015TCU BKN025"
    },
    {
      "icao": "ENBR",
      "alert": "OK",
      "vis_m": 9999,
      "fzfg": false,
      "metar_trigger": false,
      "taf_trigger": false,
      "metar": "METAR ENBR 031550Z 26008KT 190V350 9999 VCSH FEW029 05/M00 Q1021 TEMPO SHRA BKN020CB RMK WIND 1200FT 29022KT",
      "taf": "TAF ENBR 031100Z 0312/0412 25012KT 9999 -SHRA FEW020TCU BKN030"
    },
    {
      "icao": "ENGM",
      "alert": "OK",
      "vis_m": 9999,
      "fzfg": false,
      "metar_trigger": false,
      "taf_trigger": false,
      "metar": "METAR ENGM 031550Z 25012KT 220V290 CAVOK 07/M06 Q1014 NOSIG",
      "taf": "TAF ENGM 031100Z 0312/0412 23008KT 9999 FEW020"
    },
    {
      "icao": "ENHD",
      "alert": "OK",
      "vis_m": 9000,
      "fzfg": false,
      "metar_trigger": false,
      "taf_trigger": false,
      "metar": "METAR ENHD 031550Z 26013KT 9000 FEW016 SCT040 07/03 Q1023",
      "taf": "TAF ENHD 031400Z 0315/0323 27015KT 9999 FEW010 SCT030"
    },
    {
      "icao": "ENTC",
      "alert": "OK",
      "vis_m": 9999,
      "fzfg": false,
      "metar_trigger": false,
      "taf_trigger": false,
      "metar": "METAR ENTC 031550Z 21018KT 9999 SCT029 BKN043 00/M02 Q0993 NOSIG RMK WIND 2600FT 18013KT",
      "taf": ""
    },
    {
      "icao": "ENTO",
      "alert": "OK",
      "vis_m": 9999,
      "fzfg": false,
      "metar_trigger": false,
      "taf_trigger": false,
      "metar": "METAR ENTO 031550Z 25005KT 190V290 CAVOK 08/M04 Q1017 NOSIG",
      "taf": "TAF ENTO 031100Z 0312/0412 22008KT 9999 FEW020"
    },
    {
      "icao": "ENVA",
      "alert": "OK",
      "vis_m": 9999,
      "fzfg": false,
      "metar_trigger": false,
      "taf_trigger": false,
      "metar": "METAR ENVA 031550Z 24019KT 9999 VCSH FEW018TCU SCT024 BKN035 04/01 Q1007 TEMPO 4000 SHRAGS BKN014CB RMK WIND 670FT 25020G31KT",
      "taf": "TAF ENVA 031100Z 0312/0412 25015KT 9999 FEW020 SCT040"
    },
    {
      "icao": "ENZV",
      "alert": "OK",
      "vis_m": 9999,
      "fzfg": false,
      "metar_trigger": false,
      "taf_trigger": false,
      "metar": "METAR ENZV 031550Z 27012KT CAVOK 07/03 Q1024 NOSIG",
      "taf": "TAF ENZV 031100Z 0312/0412 27015KT 9999 FEW020 BKN040"
    },
    {
      "icao": "EPGD",
      "alert": "OK",
      "vis_m": 9999,
      "fzfg": false,
      "metar_trigger": false,
      "taf_trigger": false,
      "metar": "METAR EPGD 031600Z 24005KT CAVOK 13/M01 Q1023",
      "taf": "TAF EPGD 031130Z 0312/0412 23005KT CAVOK"
    },
    {
      "icao": "EPKK",
      "alert": "OK",
      "vis_m": 9999,
      "fzfg": false,
      "metar_trigger": false,
      "taf_trigger": false,
      "metar": "METAR EPKK 031600Z 10005KT CAVOK 12/M02 Q1026",
      "taf": "TAF EPKK 031430Z 0315/0415 VRB02KT CAVOK"
    },
    {
      "icao": "EPKT",
      "alert": "OK",
      "vis_m": 9999,
      "fzfg": false,
      "metar_trigger": false,
      "taf_trigger": false,
      "metar": "METAR EPKT 031600Z 21003KT CAVOK 13/M03 Q1026",
      "taf": "TAF EPKT 031130Z 0312/0412 VRB02KT CAVOK"
    },
    {
      "icao": "EPLB",
      "alert": "OK",
      "vis_m": 9999,
      "fzfg": false,
      "metar_trigger": false,
      "taf_trigger": false,
      "metar": "METAR EPLB 031600Z 04002KT 9999 BKN041 09/05 Q1027",
      "taf": "TAF EPLB 031130Z 0312/0412 29005KT 9999 SCT040"
    },
    {
      "icao": "EPMO",
      "alert": "OK",
      "vis_m": 9999,
      "fzfg": false,
      "metar_trigger": false,
      "taf_trigger": false,
      "metar": "METAR EPMO 031600Z 22006KT CAVOK 12/02 Q1026",
      "taf": "TAF EPMO 031130Z 0312/0412 25005KT CAVOK"
    },
    {
      "icao": "EPPO",
      "alert": "OK",
      "vis_m": 9999,
      "fzfg": false,
      "metar_trigger": false,
      "taf_trigger": false,
      "metar": "METAR EPPO 031600Z 20005KT CAVOK 14/01 Q1025",
      "taf": "TAF EPPO 031130Z 0312/0412 21010KT CAVOK"
    },
    {
      "icao": "EPRA",
      "alert": "OK",
      "vis_m": 9999,
      "fzfg": false,
      "metar_trigger": false,
      "taf_trigger": false,
      "metar": "METAR EPRA 031600Z 34003KT CAVOK 12/00 Q1026",
      "taf": "TAF EPRA 031430Z 0315/0324 29006KT CAVOK"
    },
    {
      "icao": "EPRZ",
      "alert": "OK",
      "vis_m": 9999,
      "fzfg": false,
      "metar_trigger": false,
      "taf_trigger": false,
      "metar": "METAR EPRZ 031600Z 29003KT CAVOK 12/00 Q1027",
      "taf": "TAF EPRZ 031130Z 0312/0412 20005KT CAVOK"
    },
    {
      "icao": "EPSC",
      "alert": "OK",
      "vis_m": 9999,
      "fzfg": false,
      "metar_trigger": false,
      "taf_trigger": false,
      "metar": "METAR EPSC 031600Z 22004KT 180V260 CAVOK 14/03 Q1024",
      "taf": "TAF EPSC 031130Z 0312/0412 22008KT CAVOK"
    },
    {
      "icao": "EPSY",
      "alert": "OK",
      "vis_m": 9999,
      "fzfg": false,
      "metar_trigger": false,
      "taf_trigger": false,
      "metar": "METAR EPSY 031600Z 18005KT CAVOK 09/05 Q1025",
      "taf": "TAF EPSY 031430Z 0315/0324 21006KT CAVOK"
    },
    {
      "icao": "EPWA",
      "alert": "OK",
      "vis_m": 9999,
      "fzfg": false,
      "metar_trigger": false,
      "taf_trigger": false,
      "metar": "METAR EPWA 031600Z 27006KT CAVOK 12/01 Q1026 NOSIG",
      "taf": "TAF EPWA 031430Z 0315/0415 26005KT CAVOK"
    },
    {
      "icao": "EPWR",
      "alert": "OK",
      "vis_m": 9999,
      "fzfg": false,
      "metar_trigger": false,
      "taf_trigger": false,
      "metar": "METAR EPWR 031600Z 14005KT CAVOK 13/M00 Q1026",
      "taf": "TAF EPWR 031430Z 0315/0415 VRB02KT CAVOK"
    },
    {
      "icao": "ESGG",
      "alert": "OK",
      "vis_m": 9999,
      "fzfg": false,
      "metar_trigger": false,
      "taf_trigger": false,
      "metar": "METAR ESGG 031550Z 25011KT 230V290 CAVOK 05/01 Q1020",
      "taf": "TAF ESGG 031430Z 0315/0415 27013KT CAVOK"
    },
    {
      "icao": "ESKN",
      "alert": "OK",
      "vis_m": 9999,
      "fzfg": false,
      "metar_trigger": false,
      "taf_trigger": false,
      "metar": "METAR ESKN 031550Z 26017KT 9999 FEW030 08/03 Q1014",
      "taf": "TAF ESKN 031430Z 0315/0415 26025G35KT 9999 SCT030"
    },
    {
      "icao": "ESMS",
      "alert": "OK",
      "vis_m": 9999,
      "fzfg": false,
      "metar_trigger": false,
      "taf_trigger": false,
      "metar": "METAR ESMS 031550Z 32015KT 9999 FEW041 08/05 Q1023",
      "taf": "TAF ESMS 031427Z 0315/0415 30010KT 9999 FEW030"
    },
    {
      "icao": "ESSA",
      "alert": "OK",
      "vis_m": 9999,
      "fzfg": false,
      "metar_trigger": false,
      "taf_trigger": false,
      "metar": "METAR ESSA 031550Z 26017KT 9999 SCT029 06/02 Q1012 NOSIG",
      "taf": "TAF ESSA 031430Z 0315/0415 26020G30KT 9999 FEW025 BKN030"
    },
    {
      "icao": "EYKA",
      "alert": "OK",
      "vis_m": 9999,
      "fzfg": false,
      "metar_trigger": false,
      "taf_trigger": false,
      "metar": "METAR EYKA 031550Z 18003KT 150V220 9999 BKN015 OVC031 03/M03 Q1024",
      "taf": "TAF EYKA 031105Z 0312/0412 VRB04KT 9000 BKN020"
    },
    {
      "icao": "EYPA",
      "alert": "OK",
      "vis_m": 7000,
      "fzfg": false,
      "metar_trigger": false,
      "taf_trigger": false,
      "metar": "METAR EYPA 031550Z 19009KT 7000 NSC 04/03 Q1022",
      "taf": ""
    },
    {
      "icao": "EYVI",
      "alert": "OK",
      "vis_m": 9999,
      "fzfg": false,
      "metar_trigger": false,
      "taf_trigger": false,
      "metar": "METAR EYVI 031550Z 24005KT CAVOK 03/M04 Q1024 NOSIG",
      "taf": "TAF EYVI 031100Z 0312/0412 VRB04KT 9000 SCT015"
    },
    {
      "icao": "GCFV",
      "alert": "OK",
      "vis_m": 9999,
      "fzfg": false,
      "metar_trigger": false,
      "taf_trigger": false,
      "metar": "METAR GCFV 031600Z 29015KT 240V320 9999 SCT040 18/05 Q1014",
      "taf": "TAF GCFV 031400Z 0315/0415 30015KT 9999 SCT035 TX20/0414Z TN14/0406Z"
    },
    {
      "icao": "GCLP",
      "alert": "OK",
      "vis_m": 9999,
      "fzfg": false,
      "metar_trigger": false,
      "taf_trigger": false,
      "metar": "METAR GCLP 031600Z 01017KT 9999 FEW035 BKN050 BKN060 16/11 Q1016 NOSIG",
      "taf": "TAF GCLP 031400Z 0315/0415 33015KT 9999 FEW035 SCT050 TX21/0414Z TN14/0406Z"
    },
    {
      "icao": "GCTS",
      "alert": "OK",
      "vis_m": 9999,
      "fzfg": false,
      "metar_trigger": false,
      "taf_trigger": false,
      "metar": "METAR GCTS 031600Z 10012KT 070V140 9999 BKN055 19/09 Q1016 WS R07 NOSIG",
      "taf": "TAF GCTS 031400Z 0315/0415 13012KT 9999 BKN050 TX22/0414Z TN13/0406Z"
    },
    {
      "icao": "GMAD",
      "alert": "OK",
      "vis_m": 6000,
      "fzfg": false,
      "metar_trigger": false,
      "taf_trigger": false,
      "metar": "METAR GMAD 031600Z 00000KT 6000 -RA SCT020TCU BKN026 FEW030CB 12/10 Q1010 TEMPO 3000 RA",
      "taf": "TAF GMAD 031100Z 0312/0418 24010KT 6000 SCT016 BKN080"
    },
    {
      "icao": "GMMN",
      "alert": "OK",
      "vis_m": 9999,
      "fzfg": false,
      "metar_trigger": false,
      "taf_trigger": false,
      "metar": "METAR GMMN 031600Z 16014KT 9999 BKN030 11/08 Q1009 NOSIG",
      "taf": "TAF GMMN 031100Z 0312/0418 18014KT 9999 SCT016 BKN030"
    },
    {
      "icao": "GMMX",
      "alert": "OK",
      "vis_m": 8000,
      "fzfg": false,
      "metar_trigger": false,
      "taf_trigger": false,
      "metar": "METAR GMMX 031600Z 28010KT 250V310 8000 BKN023 FEW030TCU 13/05 Q1008 TEMPO 3000 SHRA",
      "taf": "TAF GMMX 031100Z 0312/0418 06006KT 8000 SCT013 BKN023"
    },
    {
      "icao": "HEGN",
      "alert": "OK",
      "vis_m": 9999,
      "fzfg": false,
      "metar_trigger": false,
      "taf_trigger": false,
      "metar": "METAR HEGN 031600Z 36010KT CAVOK 20/06 Q1019 NOSIG",
      "taf": "TAF HEGN 031100Z 0312/0418 34008G20KT CAVOK"
    },
    {
      "icao": "HEMA",
      "alert": "OK",
      "vis_m": 6000,
      "fzfg": false,
      "metar_trigger": false,
      "taf_trigger": false,
      "metar": "METAR HEMA 031600Z 34016KT 6000 NSC 21/09 Q1017 NOSIG",
      "taf": "TAF HEMA 031100Z 0312/0418 35008G20KT CAVOK"
    },
    {
      "icao": "HESH",
      "alert": "OK",
      "vis_m": 9999,
      "fzfg": false,
      "metar_trigger": false,
      "taf_trigger": false,
      "metar": "METAR HESH 031600Z 01010KT CAVOK 22/07 Q1018 NOSIG",
      "taf": "TAF HESH 031100Z 0312/0418 01006G18KT CAVOK"
    },
    {
      "icao": "HESX",
      "alert": "OK",
      "vis_m": 9999,
      "fzfg": false,
      "metar_trigger": false,
      "taf_trigger": false,
      "metar": "METAR HESX 031600Z 02009KT CAVOK 16/06 Q1023 NOSIG",
      "taf": "TAF HESX 031100Z 0312/0418 35012KT 9999 SCT020"
    },
    {
      "icao": "LATI",
      "alert": "OK",
      "vis_m": 9999,
      "fzfg": false,
      "metar_trigger": false,
      "taf_trigger": false,
      "metar": "METAR LATI 031550Z 33008KT CAVOK 14/09 Q1026 NOSIG",
      "taf": "TAF LATI 031100Z 0312/0412 32010KT CAVOK TX19/0412Z TN05/0405Z"
    },
    {
      "icao": "LBPD",
      "alert": "OK",
      "vis_m": 9999,
      "fzfg": false,
      "metar_trigger": false,
      "taf_trigger": false,
      "metar": "METAR LBPD 031600Z AUTO 09007KT 9999 FEW100/// 12/02 Q1025 NOSIG",
      "taf": "TAF LBPD 031100Z 0312/0412 VRB03KT CAVOK"
    },
    {
      "icao": "LBSF",
      "alert": "OK",
      "vis_m": 9999,
      "fzfg": false,
      "metar_trigger": false,
      "taf_trigger": false,
      "metar": "METAR LBSF 031600Z AUTO 31004KT 9999 SCT078/// 12/01 Q1025 NOSIG",
      "taf": "TAF LBSF 031100Z 0312/0412 VRB03KT 9999 SCT060"
    },
    {
      "icao": "LBWN",
      "alert": "OK",
      "vis_m": 9999,
      "fzfg": false,
      "metar_trigger": false,
      "taf_trigger": false,
      "metar": "METAR LBWN 031600Z 32004KT CAVOK 10/04 Q1026 NOSIG",
      "taf": "TAF LBWN 031100Z 0312/0412 33010KT CAVOK"
    },
    {
      "icao": "LCLK",
      "alert": "OK",
      "vis_m": 9999,
      "fzfg": false,
      "metar_trigger": false,
      "taf_trigger": false,
      "metar": "METAR LCLK 031600Z 24007KT 9999 FEW040 16/08 Q1022 NOSIG",
      "taf": "TAF LCLK 031130Z 0312/0412 12008KT 9999 FEW030"
    },
    {
      "icao": "LCPH",
      "alert": "OK",
      "vis_m": 9999,
      "fzfg": false,
      "metar_trigger": false,
      "taf_trigger": false,
      "metar": "METAR LCPH 031600Z 32008KT 9999 FEW030 15/06 Q1023 NOSIG",
      "taf": "TAF LCPH 031130Z 0312/0412 26010KT 9999 FEW020"
    },
    {
      "icao": "LEAL",
      "alert": "OK",
      "vis_m": 9999,
      "fzfg": false,
      "metar_trigger": false,
      "taf_trigger": false,
      "metar": "METAR LEAL 031600Z 04014KT 010V070 CAVOK 21/09 Q1012 NOSIG",
      "taf": "TAF LEAL 031100Z 0312/0412 05015KT 9999 FEW020 TX21/0312Z TN12/0407Z"
    },
    {
      "icao": "LEBB",
      "alert": "OK",
      "vis_m": 9999,
      "fzfg": false,
      "metar_trigger": false,
      "taf_trigger": false,
      "metar": "METAR LEBB 031600Z 14007KT 110V170 CAVOK 20/07 Q1019 NOSIG",
      "taf": "TAF LEBB 031100Z 0312/0412 11009KT CAVOK TX22/0315Z TN08/0407Z"
    },
    {
      "icao": "LEBL",
      "alert": "OK",
      "vis_m": 9999,
      "fzfg": false,
      "metar_trigger": false,
      "taf_trigger": false,
      "metar": "METAR LEBL 031600Z 06017KT 9999 SCT022 SCT055 16/11 Q1020 NOSIG",
      "taf": "TAF LEBL 031100Z 0312/0412 05015KT 9999 FEW015 TX17/0312Z TN13/0406Z"
    },
    {
      "icao": "LECH",
      "alert": "OK",
      "vis_m": 9999,
      "fzfg": false,
      "metar_trigger": false,
      "taf_trigger": false,
      "metar": "METAR LECH 031600Z AUTO 05016KT 9999 SCT019 BKN041 13/09 Q1019",
      "taf": ""
    },
    {
      "icao": "LEMD",
      "alert": "OK",
      "vis_m": 9999,
      "fzfg": false,
      "metar_trigger": false,
      "taf_trigger": false,
      "metar": "METAR LEMD 031600Z 04005KT 330V100 9999 FEW066 16/05 Q1015 NOSIG",
      "taf": "TAF LEMD 031100Z 0312/0418 02006KT 9999 SCT060 TX18/0315Z TN07/0407Z"
    },
    {
      "icao": "LEMG",
      "alert": "OK",
      "vis_m": 6000,
      "fzfg": false,
      "metar_trigger": false,
      "taf_trigger": false,
      "metar": "METAR LEMG 031600Z 13003KT 070V170 6000 FEW035 18/08 Q1009 NOSIG",
      "taf": "TAF LEMG 031100Z 0312/0412 18005KT 7000 FEW020 TX19/0314Z TN12/0407Z"
    },
    {
      "icao": "LEVC",
      "alert": "OK",
      "vis_m": 9999,
      "fzfg": false,
      "metar_trigger": false,
      "taf_trigger": false,
      "metar": "METAR LEVC 031600Z 04015KT 010V080 9999 SCT014 BKN020 15/11 Q1017 NOSIG",
      "taf": "TAF LEVC 031100Z 0312/0412 05010KT 9999 BKN020 TX16/0312Z TN13/0407Z"
    },
    {
      "icao": "LEXJ",
      "alert": "OK",
      "vis_m": 9000,
      "fzfg": false,
      "metar_trigger": false,
      "taf_trigger": false,
      "metar": "METAR LEXJ 031600Z 10008KT 070V150 9000 NSC 18/07 Q1017",
      "taf": "TAF LEXJ 031400Z 0315/0415 17007KT CAVOK TX19/0412Z TN09/0407Z"
    },
    {
      "icao": "LEZG",
      "alert": "OK",
      "vis_m": 9999,
      "fzfg": false,
      "metar_trigger": false,
      "taf_trigger": false,
      "metar": "METAR LEZG 031600Z 05004KT 010V080 CAVOK 15/09 Q1020 NOSIG",
      "taf": "TAF LEZG 031100Z 0312/0412 VRB03KT 9999 FEW030 TX19/0315Z TN07/0406Z"
    },
    {
      "icao": "LEZL",
      "alert": "OK",
      "vis_m": 9999,
      "fzfg": false,
      "metar_trigger": false,
      "taf_trigger": false,
      "metar": "METAR LEZL 031600Z 07008KT 040V110 CAVOK 22/10 Q1008 NOSIG",
      "taf": "TAF LEZL 031400Z 0315/0415 07010KT CAVOK TX23/0315Z TN11/0407Z"
    },
    {
      "icao": "LFBD",
      "alert": "OK",
      "vis_m": 9999,
      "fzfg": false,
      "metar_trigger": false,
      "taf_trigger": false,
      "metar": "METAR LFBD 031600Z AUTO 13011KT 100V160 CAVOK 17/10 Q1021 NOSIG",
      "taf": "TAF LFBD 031100Z 0312/0418 12010KT CAVOK TX19/0414Z TN07/0406Z"
    },
    {
      "icao": "LFLL",
      "alert": "OK",
      "vis_m": 9999,
      "fzfg": false,
      "metar_trigger": false,
      "taf_trigger": false,
      "metar": "METAR LFLL 031600Z VRB03KT 9999 FEW050 SCT260 16/05 Q1024 NOSIG",
      "taf": "TAF LFLL 031100Z 0312/0418 16007KT CAVOK"
    },
    {
      "icao": "LFLS",
      "alert": "OK",
      "vis_m": 9999,
      "fzfg": false,
      "metar_trigger": false,
      "taf_trigger": false,
      "metar": "METAR LFLS 031600Z AUTO 23007KT CAVOK 13/04 Q1024 NOSIG",
      "taf": "TAF LFLS 031400Z 0315/0415 VRB03KT CAVOK"
    },
    {
      "icao": "LFMN",
      "alert": "OK",
      "vis_m": 9999,
      "fzfg": false,
      "metar_trigger": false,
      "taf_trigger": false,
      "metar": "METAR LFMN 031600Z 08019KT 9999 FEW033 BKN260 16/10 Q1024 NOSIG",
      "taf": "TAF LFMN 031400Z 0315/0421 09018KT CAVOK"
    },
    {
      "icao": "LFOB",
      "alert": "OK",
      "vis_m": 9999,
      "fzfg": false,
      "metar_trigger": false,
      "taf_trigger": false,
      "metar": "METAR LFOB 031600Z AUTO 06007KT CAVOK 17/08 Q1024 NOSIG",
      "taf": "TAF LFOB 031100Z 0312/0412 VRB03KT CAVOK"
    },
    {
      "icao": "LFPO",
      "alert": "OK",
      "vis_m": 9999,
      "fzfg": false,
      "metar_trigger": false,
      "taf_trigger": false,
      "metar": "METAR LFPO 031600Z 09008KT CAVOK 17/06 Q1024 NOSIG",
      "taf": "TAF LFPO 031100Z 0312/0418 09004KT CAVOK"
    },
    {
      "icao": "LFSB",
      "alert": "OK",
      "vis_m": 9999,
      "fzfg": false,
      "metar_trigger": false,
      "taf_trigger": false,
      "metar": "METAR LFSB 031600Z AUTO 36007KT 9999 FEW013 16/05 Q1025 NOSIG",
      "taf": "TAF LFSB 031100Z 0312/0412 32004KT CAVOK"
    },
    {
      "icao": "LGAV",
      "alert": "OK",
      "vis_m": 9999,
      "fzfg": false,
      "metar_trigger": false,
      "taf_trigger": false,
      "metar": "METAR LGAV 031550Z 08004KT 9999 FEW025 14/06 Q1025 NOSIG",
      "taf": "TAF LGAV 031100Z 0312/0412 VRB05KT 9999 FEW020"
    },
    {
      "icao": "LGTS",
      "alert": "OK",
      "vis_m": 9999,
      "fzfg": false,
      "metar_trigger": false,
      "taf_trigger": false,
      "metar": "METAR LGTS 031550Z COR 18009KT 9999 FEW025 15/10 Q1024 NOSIG",
      "taf": "TAF LGTS 031100Z 0312/0412 VRB03KT 9999 FEW025"
    },
    {
      "icao": "LHBP",
      "alert": "OK",
      "vis_m": 9999,
      "fzfg": false,
      "metar_trigger": false,
      "taf_trigger": false,
      "metar": "METAR LHBP 031600Z 24006KT CAVOK 11/01 Q1027 NOSIG",
      "taf": "TAF LHBP 031115Z 0312/0412 20004KT CAVOK"
    },
    {
      "icao": "LHDC",
      "alert": "OK",
      "vis_m": 9999,
      "fzfg": false,
      "metar_trigger": false,
      "taf_trigger": false,
      "metar": "METAR LHDC 031545Z AUTO 31005KT 290V350 CAVOK 13/M01 Q1027 NOSIG",
      "taf": "TAF LHDC 031415Z 0315/0324 VRB03KT CAVOK"
    },
    {
      "icao": "LIBD",
      "alert": "OK",
      "vis_m": 9999,
      "fzfg": false,
      "metar_trigger": false,
      "taf_trigger": false,
      "metar": "METAR LIBD 031550Z 06004KT 9999 FEW010 14/11 Q1027",
      "taf": "TAF LIBD 031100Z 0312/0412 01010KT 7000 SCT030"
    },
    {
      "icao": "LIBG",
      "alert": "OK",
      "vis_m": 9999,
      "fzfg": false,
      "metar_trigger": false,
      "taf_trigger": false,
      "metar": "METAR LIBG 031550Z 06007KT CAVOK 16/10 Q1026",
      "taf": "TAF LIBG 031400Z 0315/0324 VRB06KT 9999 FEW020"
    },
    {
      "icao": "LIBP",
      "alert": "OK",
      "vis_m": 9999,
      "fzfg": false,
      "metar_trigger": false,
      "taf_trigger": false,
      "metar": "METAR LIBP 031550Z AUTO 08007KT 9999 FEW013/// 14/11 Q1027",
      "taf": "TAF LIBP 031100Z 0312/0412 VRB05KT 7000 FEW020"
    },
    {
      "icao": "LIBR",
      "alert": "OK",
      "vis_m": 7000,
      "fzfg": false,
      "metar_trigger": false,
      "taf_trigger": false,
      "metar": "METAR LIBR 031550Z 35004KT 7000 SCT015 14/12 Q1026",
      "taf": "TAF LIBR 031100Z 0312/0412 33010KT 7000 SCT020"
    },
    {
      "icao": "LICA",
      "alert": "OK",
      "vis_m": 9999,
      "fzfg": false,
      "metar_trigger": false,
      "taf_trigger": false,
      "metar": "METAR LICA 031550Z AUTO 10013KT 9999 NCD 15/11 Q1026",
      "taf": "TAF LICA 031100Z 0312/0412 07010KT CAVOK"
    },
    {
      "icao": "LICC",
      "alert": "OK",
      "vis_m": 9999,
      "fzfg": false,
      "metar_trigger": false,
      "taf_trigger": false,
      "metar": "METAR LICC 031550Z 11007KT 9999 FEW040 BKN120 15/13 Q1025",
      "taf": "TAF LICC 031100Z 0312/0412 08010KT CAVOK"
    },
    {
      "icao": "LICJ",
      "alert": "OK",
      "vis_m": 9999,
      "fzfg": false,
      "metar_trigger": false,
      "taf_trigger": false,
      "metar": "METAR LICJ 031550Z 07008KT CAVOK 16/11 Q1023",
      "taf": "TAF LICJ 031100Z 0312/0412 08013KT 9999 FEW020"
    },
    {
      "icao": "LIMC",
      "alert": "OK",
      "vis_m": 9999,
      "fzfg": false,
      "metar_trigger": false,
      "taf_trigger": false,
      "metar": "METAR LIMC 031550Z 21006KT 9999 SCT050 15/07 Q1026 NOSIG",
      "taf": "TAF LIMC 031100Z 0312/0418 VRB05KT 9999 FEW030"
    },
    {
      "icao": "LIME",
      "alert": "OK",
      "vis_m": 8000,
      "fzfg": false,
      "metar_trigger": false,
      "taf_trigger": false,
      "metar": "METAR LIME 031550Z 21005KT 180V240 8000 FEW035 14/08 Q1026 NOSIG",
      "taf": "TAF LIME 031100Z 0312/0412 VRB05KT 9999 SCT030"
    },
    {
      "icao": "LIMF",
      "alert": "OK",
      "vis_m": 6000,
      "fzfg": false,
      "metar_trigger": false,
      "taf_trigger": false,
      "metar": "METAR LIMF 031550Z VRB02KT 6000 SCT040 14/06 Q1026",
      "taf": "TAF LIMF 031100Z 0312/0412 VRB04KT 3000 BR SCT030"
    },
    {
      "icao": "LIMJ",
      "alert": "OK",
      "vis_m": 9999,
      "fzfg": false,
      "metar_trigger": false,
      "taf_trigger": false,
      "metar": "METAR LIMJ 031550Z 04010KT 360V060 CAVOK 16/07 Q1025",
      "taf": "TAF LIMJ 031100Z 0312/0412 VRB05KT 9999 FEW050"
    },
    {
      "icao": "LIPE",
      "alert": "OK",
      "vis_m": 8000,
      "fzfg": false,
      "metar_trigger": false,
      "taf_trigger": false,
      "metar": "METAR LIPE 031550Z 07004KT 8000 SCT020 13/08 Q1027",
      "taf": "TAF LIPE 031100Z 0312/0412 VRB04KT 6000 SCT015"
    },
    {
      "icao": "LIPH",
      "alert": "OK",
      "vis_m": 9999,
      "fzfg": false,
      "metar_trigger": false,
      "taf_trigger": false,
      "metar": "METAR LIPH 031550Z 15005KT 100V180 9999 FEW010 14/09 Q1027",
      "taf": "TAF LIPH 031100Z 0312/0412 VRB04KT 5000 BR SCT030"
    },
    {
      "icao": "LIPQ",
      "alert": "OK",
      "vis_m": 9999,
      "fzfg": false,
      "metar_trigger": false,
      "taf_trigger": false,
      "metar": "METAR LIPQ 031550Z AUTO 30003KT 270V340 9999 NCD 15/08 Q1027",
      "taf": "TAF LIPQ 031100Z 0312/0412 VRB05KT 6000 SCT030"
    },
    {
      "icao": "LIPR",
      "alert": "OK",
      "vis_m": 5000,
      "fzfg": false,
      "metar_trigger": false,
      "taf_trigger": false,
      "metar": "METAR LIPR 031550Z 04004KT 360V080 5000 BR BKN008 11/09 Q1027",
      "taf": "TAF LIPR 031100Z 0312/0412 VRB05KT 6000 SCT010"
    },
    {
      "icao": "LIPX",
      "alert": "OK",
      "vis_m": 6000,
      "fzfg": false,
      "metar_trigger": false,
      "taf_trigger": false,
      "metar": "METAR LIPX 031550Z 16004KT 130V190 6000 SCT025 15/09 Q1026",
      "taf": "TAF LIPX 031100Z 0312/0412 VRB05KT 4000 BR BKN010"
    },
    {
      "icao": "LIPY",
      "alert": "OK",
      "vis_m": 9000,
      "fzfg": false,
      "metar_trigger": false,
      "taf_trigger": false,
      "metar": "METAR LIPY 031550Z AUTO 04004KT 9000 BKN006/// 11/10 Q1027",
      "taf": "TAF LIPY 031100Z 0312/0412 VRB05KT 3000 BR BKN008"
    },
    {
      "icao": "LIPZ",
      "alert": "OK",
      "vis_m": 9999,
      "fzfg": false,
      "metar_trigger": false,
      "taf_trigger": false,
      "metar": "METAR LIPZ 031550Z 19004KT CAVOK 13/09 Q1027 NOSIG",
      "taf": ""
    },
    {
      "icao": "LIRF",
      "alert": "OK",
      "vis_m": 9999,
      "fzfg": false,
      "metar_trigger": false,
      "taf_trigger": false,
      "metar": "METAR LIRF 031550Z 25006KT CAVOK 15/12 Q1025 NOSIG",
      "taf": "TAF LIRF 031100Z 0312/0418 23010KT 9999 FEW030"
    },
    {
      "icao": "LIRN",
      "alert": "OK",
      "vis_m": 8000,
      "fzfg": false,
      "metar_trigger": false,
      "taf_trigger": false,
      "metar": "METAR LIRN 031550Z 19007KT 8000 NSC 15/10 Q1025 NOSIG",
      "taf": "TAF LIRN 031100Z 0312/0412 VRB04KT 8000 NSC"
    },
    {
      "icao": "LIRP",
      "alert": "OK",
      "vis_m": 9999,
      "fzfg": false,
      "metar_trigger": false,
      "taf_trigger": false,
      "metar": "METAR LIRP 031545Z 15003KT 9999 FEW030 16/11 Q1025 NOSIG",
      "taf": "TAF LIRP 031100Z 0312/0412 VRB03KT 9999 SCT025 BKN070"
    },
    {
      "icao": "LIRZ",
      "alert": "OK",
      "vis_m": 9999,
      "fzfg": false,
      "metar_trigger": false,
      "taf_trigger": false,
      "metar": "METAR LIRZ 031550Z 33006KT CAVOK 17/09 Q1025",
      "taf": "TAF LIRZ 031100Z 0312/0412 VRB05KT 8000 BKN040"
    },
    {
      "icao": "LJLJ",
      "alert": "OK",
      "vis_m": 9999,
      "fzfg": false,
      "metar_trigger": false,
      "taf_trigger": false,
      "metar": "METAR LJLJ 031600Z 23008KT 9999 FEW033 SCT090 13/04 Q1026 NOSIG",
      "taf": "TAF LJLJ 031100Z 0312/0412 12005KT 9999 FEW040"
    },
    {
      "icao": "LKMT",
      "alert": "OK",
      "vis_m": 9999,
      "fzfg": false,
      "metar_trigger": false,
      "taf_trigger": false,
      "metar": "METAR LKMT 031600Z 24006KT CAVOK 11/04 Q1026 NOSIG",
      "taf": "TAF LKMT 031100Z 0312/0412 23003KT CAVOK"
    },
    {
      "icao": "LKPR",
      "alert": "OK",
      "vis_m": 9999,
      "fzfg": false,
      "metar_trigger": false,
      "taf_trigger": false,
      "metar": "METAR LKPR 031600Z 35003KT 280V040 CAVOK 08/04 Q1026 NOSIG",
      "taf": "TAF LKPR 031400Z 0315/0421 VRB02KT CAVOK"
    },
    {
      "icao": "LLBG",
      "alert": "OK",
      "vis_m": 9999,
      "fzfg": false,
      "metar_trigger": false,
      "taf_trigger": false,
      "metar": "METAR LLBG 031550Z 32006KT CAVOK 17/04 Q1022 NOSIG",
      "taf": "TAF LLBG 031104Z 0312/0412 32010KT CAVOK TX19/0312Z TN07/0404Z"
    },
    {
      "icao": "LMML",
      "alert": "OK",
      "vis_m": 16093,
      "fzfg": false,
      "metar_trigger": false,
      "taf_trigger": false,
      "metar": "METAR LMML AUTO 02007KT 10SM OVC006 10/08 A3044 RMK AO2 SLP313 T01000083 $",
      "taf": "TAF LMML 031100Z 0312/0412 13012KT 9999 FEW018"
    },
    {
      "icao": "LOWW",
      "alert": "OK",
      "vis_m": 9999,
      "fzfg": false,
      "metar_trigger": false,
      "taf_trigger": false,
      "metar": "METAR LOWW 031550Z 12007KT 080V140 CAVOK 13/06 Q1026 BECMG FM1730 10004KT",
      "taf": "TAF LOWW 031415Z 0315/0421 14008KT CAVOK TX13/0414Z TN02/0405Z"
    },
    {
      "icao": "LPFR",
      "alert": "OK",
      "vis_m": 9999,
      "fzfg": false,
      "metar_trigger": false,
      "taf_trigger": false,
      "metar": "METAR LPFR 031600Z 07009G20KT 9999 FEW018 19/09 Q1009",
      "taf": "TAF LPFR 031100Z 0312/0412 09013KT 9999 SCT020"
    },
    {
      "icao": "LPMA",
      "alert": "OK",
      "vis_m": 9999,
      "fzfg": false,
      "metar_trigger": false,
      "taf_trigger": false,
      "metar": "METAR LPMA 031600Z 36020G33KT 320V030 9999 -SHRA SCT015 FEW018CB 14/07 Q1014",
      "taf": "TAF LPMA 031100Z 0312/0412 35018G30KT 9999 SCT015"
    },
    {
      "icao": "LPPR",
      "alert": "OK",
      "vis_m": 9999,
      "fzfg": false,
      "metar_trigger": false,
      "taf_trigger": false,
      "metar": "METAR LPPR 031600Z 06006KT 030V090 9999 FEW030 21/09 Q1014",
      "taf": "TAF LPPR 031100Z 0312/0412 08010KT CAVOK"
    },
    {
      "icao": "LPPS",
      "alert": "OK",
      "vis_m": 9999,
      "fzfg": false,
      "metar_trigger": false,
      "taf_trigger": false,
      "metar": "METAR LPPS 031600Z 34027KT 9999 SCT014 FEW016TCU 13/10 Q1014",
      "taf": "TAF LPPS 031100Z 0312/0418 34020KT 9999 SCT015"
    },
    {
      "icao": "LPPT",
      "alert": "OK",
      "vis_m": 9999,
      "fzfg": false,
      "metar_trigger": false,
      "taf_trigger": false,
      "metar": "METAR LPPT 031600Z 04013KT 010V070 CAVOK 20/10 Q1011",
      "taf": "TAF LPPT 031100Z 0312/0418 05013KT CAVOK"
    },
    {
      "icao": "LQBK",
      "alert": "OK",
      "vis_m": 9999,
      "fzfg": false,
      "metar_trigger": false,
      "taf_trigger": false,
      "metar": "METAR LQBK 031600Z 02005KT CAVOK 16/02 Q1026 NOSIG",
      "taf": "TAF LQBK 031100Z 0312/0412 05005KT 9999 FEW035 TX18/0314Z TN03/0406Z"
    },
    {
      "icao": "LQSA",
      "alert": "OK",
      "vis_m": 9999,
      "fzfg": false,
      "metar_trigger": false,
      "taf_trigger": false,
      "metar": "METAR LQSA 031600Z VRB03KT CAVOK 13/02 Q1025 NOSIG",
      "taf": "TAF LQSA 031100Z 0312/0412 VRB02KT 9999 SCT050 TX16/0314Z TN01/0405Z"
    },
    {
      "icao": "LQTZ",
      "alert": "OK",
      "vis_m": 9999,
      "fzfg": false,
      "metar_trigger": false,
      "taf_trigger": false,
      "metar": "METAR LQTZ 031600Z 06005KT 030V090 9999 FEW052 14/05 Q1026",
      "taf": "TAF LQTZ 031100Z 0312/0412 06005KT 9999 SCT050 TX15/0314Z TN01/0405Z"
    },
    {
      "icao": "LRBC",
      "alert": "OK",
      "vis_m": 9999,
      "fzfg": false,
      "metar_trigger": false,
      "taf_trigger": false,
      "metar": "METAR LRBC 031600Z 35009KT 9999 BKN087 12/04 Q1026",
      "taf": "TAF LRBC 031400Z 0315/0324 36010KT CAVOK"
    },
    {
      "icao": "LRBS",
      "alert": "OK",
      "vis_m": 9999,
      "fzfg": false,
      "metar_trigger": false,
      "taf_trigger": false,
      "metar": "METAR LRBS 031600Z 25004KT 220V280 CAVOK 08/03 Q1027 NOSIG",
      "taf": "TAF LRBS 031100Z 0312/0412 25004KT CAVOK"
    },
    {
      "icao": "LRBV",
      "alert": "OK",
      "vis_m": 9999,
      "fzfg": false,
      "metar_trigger": false,
      "taf_trigger": false,
      "metar": "METAR LRBV 031600Z 30005KT CAVOK 09/01 Q1025",
      "taf": "TAF LRBV 031400Z 0315/0324 30010KT CAVOK"
    },
    {
      "icao": "LRCL",
      "alert": "OK",
      "vis_m": 9999,
      "fzfg": false,
      "metar_trigger": false,
      "taf_trigger": false,
      "metar": "METAR LRCL 031600Z 34003KT 310V010 CAVOK 11/M00 Q1026",
      "taf": "TAF LRCL 031400Z 0315/0324 VRB04KT CAVOK"
    },
    {
      "icao": "LRCV",
      "alert": "OK",
      "vis_m": 7000,
      "fzfg": false,
      "metar_trigger": false,
      "taf_trigger": false,
      "metar": "METAR LRCV 031600Z 15005KT 7000 NSC 07/05 Q1026",
      "taf": "TAF LRCV 031400Z 0315/0324 VRB04KT CAVOK"
    },
    {
      "icao": "LRIA",
      "alert": "OK",
      "vis_m": 9999,
      "fzfg": false,
      "metar_trigger": false,
      "taf_trigger": false,
      "metar": "METAR LRIA 031600Z 33013KT 9999 FEW033 07/02 Q1026",
      "taf": "TAF LRIA 031400Z 0315/0324 32016KT CAVOK"
    },
    {
      "icao": "LROP",
      "alert": "OK",
      "vis_m": 9999,
      "fzfg": false,
      "metar_trigger": false,
      "taf_trigger": false,
      "metar": "METAR LROP 031600Z 23006KT CAVOK 07/02 Q1027 NOSIG",
      "taf": "TAF LROP 031100Z 0312/0412 25004KT CAVOK"
    },
    {
      "icao": "LRSB",
      "alert": "OK",
      "vis_m": 9999,
      "fzfg": false,
      "metar_trigger": false,
      "taf_trigger": false,
      "metar": "METAR LRSB 031600Z 03006KT CAVOK 11/02 Q1025",
      "taf": "TAF LRSB 031100Z 0312/0412 VRB04KT CAVOK"
    },
    {
      "icao": "LRSM",
      "alert": "OK",
      "vis_m": 9999,
      "fzfg": false,
      "metar_trigger": false,
      "taf_trigger": false,
      "metar": "METAR LRSM 031600Z 30003KT CAVOK 13/03 Q1027",
      "taf": "TAF LRSM 031400Z 0315/0324 VRB04KT CAVOK"
    },
    {
      "icao": "LRSV",
      "alert": "OK",
      "vis_m": 9999,
      "fzfg": false,
      "metar_trigger": false,
      "taf_trigger": false,
      "metar": "METAR LRSV 031600Z 32009KT 9999 FEW045 06/01 Q1026",
      "taf": "TAF LRSV 031400Z 0315/0324 31014KT CAVOK"
    },
    {
      "icao": "LRTM",
      "alert": "OK",
      "vis_m": 9999,
      "fzfg": false,
      "metar_trigger": false,
      "taf_trigger": false,
      "metar": "METAR LRTM 031600Z 33004KT CAVOK 12/M01 Q1025",
      "taf": "TAF LRTM 031400Z 0315/0324 VRB04KT CAVOK"
    },
    {
      "icao": "LRTR",
      "alert": "OK",
      "vis_m": 9999,
      "fzfg": false,
      "metar_trigger": false,
      "taf_trigger": false,
      "metar": "METAR LRTR 031600Z 33005KT CAVOK 12/06 Q1027",
      "taf": "TAF LRTR 031100Z 0312/0412 VRB04KT CAVOK"
    },
    {
      "icao": "LTAC",
      "alert": "OK",
      "vis_m": 9999,
      "fzfg": false,
      "metar_trigger": false,
      "taf_trigger": false,
      "metar": "METAR LTAC 031550Z 25004KT 9999 FEW040 SCT120 BKN180 09/M02 Q1020 NOSIG RMK RWY21C 24006KT RWY03L 24004KT RWY21R 24005KT 210V270 RWY03R 23004KT 210V270 RWY21L 25007KT",
      "taf": "TAF LTAC 031040Z 0312/0412 VRB02KT 9999 FEW040 BKN180"
    },
    {
      "icao": "LTFM",
      "alert": "OK",
      "vis_m": 6000,
      "fzfg": false,
      "metar_trigger": false,
      "taf_trigger": false,
      "metar": "METAR LTFM 031550Z 03009KT 6000 BKN006 06/04 Q1027 NOSIG RMK RWY17L 01007KT RWY34L 01008KT RWY16R 36007KT RWY36 02009KT RWY18 03007KT",
      "taf": "TAF LTFM 031040Z 0312/0418 35012KT 9999 BKN007"
    },
    {
      "icao": "LUKK",
      "alert": "OK",
      "vis_m": 9999,
      "fzfg": false,
      "metar_trigger": false,
      "taf_trigger": false,
      "metar": "METAR LUKK 031600Z 36008KT 340V050 9999 FEW030 07/02 Q1025 NOSIG",
      "taf": "TAF LUKK 031115Z 0312/0412 33014KT 9999 SCT020"
    },
    {
      "icao": "LWOH",
      "alert": "OK",
      "vis_m": 9999,
      "fzfg": false,
      "metar_trigger": false,
      "taf_trigger": false,
      "metar": "METAR LWOH 031550Z VRB02KT CAVOK 10/06 Q1025",
      "taf": "TAF LWOH 031430Z 0315/0415 15010KT CAVOK"
    },
    {
      "icao": "LWSK",
      "alert": "OK",
      "vis_m": 9999,
      "fzfg": false,
      "metar_trigger": false,
      "taf_trigger": false,
      "metar": "METAR LWSK 031550Z 01009KT CAVOK 16/02 Q1025 NOSIG",
      "taf": "TAF LWSK 031430Z 0315/0415 VRB02KT CAVOK"
    },
    {
      "icao": "LYBE",
      "alert": "OK",
      "vis_m": 9999,
      "fzfg": false,
      "metar_trigger": false,
      "taf_trigger": false,
      "metar": "METAR LYBE 031600Z 03003KT CAVOK 13/05 Q1027 NOSIG",
      "taf": "TAF LYBE 031100Z 0312/0412 VRB02KT 8000 NSC TX17/0412Z TN02/0405Z"
    },
    {
      "icao": "LYNI",
      "alert": "OK",
      "vis_m": 9999,
      "fzfg": false,
      "metar_trigger": false,
      "taf_trigger": false,
      "metar": "METAR LYNI 031600Z 31008KT 9999 FEW060 SCT083 14/03 Q1026 NOSIG",
      "taf": "TAF LYNI 031100Z 0312/0412 32011KT 9999 SCT080 TX17/0412Z TN02/0405Z"
    },
    {
      "icao": "LYPG",
      "alert": "OK",
      "vis_m": 9999,
      "fzfg": false,
      "metar_trigger": false,
      "taf_trigger": false,
      "metar": "METAR LYPG 031600Z 15002KT 9999 SCT080 16/07 Q1025 NOSIG",
      "taf": "TAF LYPG 031100Z 0312/0412 17005KT 9999 FEW040 TX18/0313Z TN06/0405Z"
    },
    {
      "icao": "LZIB",
      "alert": "OK",
      "vis_m": 9999,
      "fzfg": false,
      "metar_trigger": false,
      "taf_trigger": false,
      "metar": "METAR LZIB 031600Z 01002KT CAVOK 12/05 Q1027 NOSIG",
      "taf": "TAF LZIB 031115Z 0312/0412 11007KT CAVOK"
    },
    {
      "icao": "LZKZ",
      "alert": "OK",
      "vis_m": 9999,
      "fzfg": false,
      "metar_trigger": false,
      "taf_trigger": false,
      "metar": "METAR LZKZ 031600Z 17001KT CAVOK 13/M00 Q1026 NOSIG",
      "taf": "TAF LZKZ 031115Z 0312/0412 VRB02KT CAVOK"
    },
    {
      "icao": "LZTT",
      "alert": "OK",
      "vis_m": 9999,
      "fzfg": false,
      "metar_trigger": false,
      "taf_trigger": false,
      "metar": "METAR LZTT 031600Z 08004KT CAVOK 10/M03 Q1026 NOSIG",
      "taf": "TAF LZTT 031115Z 0312/0412 VRB02KT CAVOK"
    },
    {
      "icao": "OEJN",
      "alert": "OK",
      "vis_m": 9999,
      "fzfg": false,
      "metar_trigger": false,
      "taf_trigger": false,
      "metar": "METAR OEJN 031600Z 33016KT 9999 FEW040 23/08 Q1015 NOSIG",
      "taf": "TAF OEJN 031100Z 0312/0418 34014KT 9999 SCT040"
    },
    {
      "icao": "OEMA",
      "alert": "OK",
      "vis_m": 9999,
      "fzfg": false,
      "metar_trigger": false,
      "taf_trigger": false,
      "metar": "METAR OEMA 031600Z 31005KT 9999 FEW035 22/M09 Q1016 NOSIG",
      "taf": "TAF OEMA 031100Z 0312/0418 30012KT 9999 SCT040"
    },
    {
      "icao": "OJAI",
      "alert": "OK",
      "vis_m": 5000,
      "fzfg": false,
      "metar_trigger": false,
      "taf_trigger": false,
      "metar": "METAR OJAI 031500Z 29009KT 5000 HZ NSC 15/M03 Q1022 NOSIG",
      "taf": "TAF OJAI 031037Z 0312/0418 29012KT 5000 HZ NSC"
    },
    {
      "icao": "OMAA",
      "alert": "OK",
      "vis_m": 9999,
      "fzfg": false,
      "metar_trigger": false,
      "taf_trigger": false,
      "metar": "METAR OMAA 031600Z 02006KT CAVOK 28/11 Q1010 NOSIG",
      "taf": "TAF OMAA 031100Z 0312/0418 33011KT 8000 NSC"
    },
    {
      "icao": "OMDB",
      "alert": "OK",
      "vis_m": 9999,
      "fzfg": false,
      "metar_trigger": false,
      "taf_trigger": false,
      "metar": "METAR OMDB 031600Z 07004KT CAVOK 30/10 Q1011 NOSIG",
      "taf": "TAF OMDB 031100Z 0312/0418 30012KT 8000 NSC"
    },
    {
      "icao": "UAAA",
      "alert": "OK",
      "vis_m": 800,
      "fzfg": false,
      "metar_trigger": false,
      "taf_trigger": false,
      "metar": "METAR UAAA 031600Z 05003MPS 360V080 0800 R23L/P2000N FG VV002 01/00 Q1024 NOSIG RMK QBB060",
      "taf": "TAF UAAA 031103Z 0312/0412 12003MPS 1200 BR FU FEW004 BKN011CB OVC050 TX04/0312Z TNM03/0324Z"
    },
    {
      "icao": "UBBB",
      "alert": "OK",
      "vis_m": 9999,
      "fzfg": false,
      "metar_trigger": false,
      "taf_trigger": false,
      "metar": "METAR UBBB 031600Z 16008KT CAVOK 08/04 Q1020 NOSIG",
      "taf": "TAF UBBB 031056Z 0312/0412 19012KT 9999 SCT035 TX11/0312Z TN04/0401Z"
    },
    {
      "icao": "UDSG",
      "alert": "OK",
      "vis_m": 9999,
      "fzfg": false,
      "metar_trigger": false,
      "taf_trigger": false,
      "metar": "METAR UDSG 031600Z 10002KT 9999 FEW049 M07/M09 Q1021 NOSIG",
      "taf": "TAF UDSG 031058Z 0312/0412 VRB06KT 9999 SCT040"
    },
    {
      "icao": "UDYZ",
      "alert": "OK",
      "vis_m": 9999,
      "fzfg": false,
      "metar_trigger": false,
      "taf_trigger": false,
      "metar": "METAR UDYZ 031600Z VRB01KT 9999 NSC 05/M03 Q1020 NOSIG",
      "taf": "TAF UDYZ 031100Z 0312/0412 VRB04KT 9999 FEW040"
    },
    {
      "icao": "UGKO",
      "alert": "OK",
      "vis_m": 9999,
      "fzfg": false,
      "metar_trigger": false,
      "taf_trigger": false,
      "metar": "METAR UGKO 031600Z VRB02KT CAVOK 09/04 Q1019 NOSIG",
      "taf": "TAF UGKO 031100Z 0312/0412 25006KT CAVOK TX12/0312Z TN04/0403Z"
    }
  ]
}