{
  "ts_utc": "2026-03-17T23:40:40Z",
  "threshold_m": 150,
  "source": "stations_override.txt (ICAO list) + aviationweather.gov (METAR/TAF raw)",
  "station_count": 159,
  "stations": [
    {
      "icao": "BIKF",
      "alert": "OK",
      "vis_m": 9999,
      "fzfg": false,
      "metar_trigger": false,
      "taf_trigger": false,
      "metar": "METAR BIKF 172330Z 36018KT 9999 SCT020 M01/M05 Q0994",
      "taf": "TAF BIKF 172233Z 1800/1900 36020KT 9999 FEW018 SCT025 TX04/1823Z TNM01/1800Z"
    },
    {
      "icao": "BKPR",
      "alert": "OK",
      "vis_m": 9999,
      "fzfg": false,
      "metar_trigger": false,
      "taf_trigger": false,
      "metar": "METAR BKPR 172330Z 07010KT 9999 -RA BKN040 07/05 Q1012 NOSIG",
      "taf": "TAF BKPR 172330Z 1800/1824 06008KT 9999 SCT020 BKN040"
    },
    {
      "icao": "EBCI",
      "alert": "OK",
      "vis_m": 9999,
      "fzfg": false,
      "metar_trigger": false,
      "taf_trigger": false,
      "metar": "METAR EBCI 172320Z 15006KT CAVOK 09/05 Q1020 NOSIG",
      "taf": "TAF EBCI 172310Z 1800/1906 11007KT CAVOK"
    },
    {
      "icao": "EDDB",
      "alert": "OK",
      "vis_m": 9999,
      "fzfg": false,
      "metar_trigger": false,
      "taf_trigger": false,
      "metar": "METAR EDDB 172320Z AUTO 11003KT CAVOK 01/M01 Q1028 NOSIG",
      "taf": "TAF EDDB 172300Z 1800/1824 09004KT CAVOK"
    },
    {
      "icao": "EDDH",
      "alert": "OK",
      "vis_m": 9999,
      "fzfg": false,
      "metar_trigger": false,
      "taf_trigger": false,
      "metar": "METAR EDDH 172320Z AUTO 13006KT CAVOK 05/01 Q1025 NOSIG",
      "taf": "TAF EDDH 172300Z 1800/1906 15006KT CAVOK"
    },
    {
      "icao": "EDDK",
      "alert": "OK",
      "vis_m": 9999,
      "fzfg": false,
      "metar_trigger": false,
      "taf_trigger": false,
      "metar": "METAR EDDK 172320Z AUTO 09005KT 070V130 CAVOK 08/05 Q1022 NOSIG",
      "taf": "TAF EDDK 172300Z 1800/1906 11006KT CAVOK"
    },
    {
      "icao": "EDDN",
      "alert": "OK",
      "vis_m": 9999,
      "fzfg": false,
      "metar_trigger": false,
      "taf_trigger": false,
      "metar": "METAR EDDN 172320Z AUTO 08005KT CAVOK 01/M01 Q1024",
      "taf": "TAF EDDN 172300Z 1800/1824 08004KT CAVOK"
    },
    {
      "icao": "EDDS",
      "alert": "OK",
      "vis_m": 9999,
      "fzfg": false,
      "metar_trigger": false,
      "taf_trigger": false,
      "metar": "METAR EDDS 172320Z AUTO 07006KT CAVOK 04/01 Q1021",
      "taf": "TAF EDDS 172300Z 1800/1824 07006KT CAVOK"
    },
    {
      "icao": "EDFH",
      "alert": "OK",
      "vis_m": 9999,
      "fzfg": false,
      "metar_trigger": false,
      "taf_trigger": false,
      "metar": "METAR EDFH 172320Z 11007KT CAVOK 05/04 Q1021",
      "taf": "TAF EDFH 172300Z 1800/1824 11010KT CAVOK"
    },
    {
      "icao": "EDJA",
      "alert": "OK",
      "vis_m": 9999,
      "fzfg": false,
      "metar_trigger": false,
      "taf_trigger": false,
      "metar": "METAR EDJA 172320Z AUTO 06007KT 9999 // FEW140/// 01/M01 Q1021",
      "taf": "TAF EDJA 171700Z 1718/1803 07007KT 9999 SCT040"
    },
    {
      "icao": "EDLW",
      "alert": "OK",
      "vis_m": 9999,
      "fzfg": false,
      "metar_trigger": false,
      "taf_trigger": false,
      "metar": "METAR EDLW 172320Z AUTO 13006KT 9999 // FEW052/// OVC065/// 10/05 Q1022",
      "taf": "TAF EDLW 171700Z 1718/1818 14005KT 9999 SCT045"
    },
    {
      "icao": "EDNY",
      "alert": "OK",
      "vis_m": 9999,
      "fzfg": false,
      "metar_trigger": false,
      "taf_trigger": false,
      "metar": "METAR EDNY 172320Z AUTO 03008KT 340V060 9999 // NCD 05/M01 Q1020",
      "taf": "TAF EDNY 171700Z 1718/1803 04008KT CAVOK"
    },
    {
      "icao": "EDSB",
      "alert": "OK",
      "vis_m": 9999,
      "fzfg": false,
      "metar_trigger": false,
      "taf_trigger": false,
      "metar": "METAR EDSB 172320Z AUTO 04008KT 9999 // NCD 07/04 Q1021",
      "taf": "TAF EDSB 172300Z 1800/1824 03010KT CAVOK"
    },
    {
      "icao": "EETN",
      "alert": "OK",
      "vis_m": 350,
      "fzfg": false,
      "metar_trigger": false,
      "taf_trigger": false,
      "metar": "METAR EETN 172320Z 27005KT 0350 R26/1100U FG VV002 00/00 Q1029",
      "taf": "TAF EETN 172330Z 1800/1824 25007KT 0500 FG VV002"
    },
    {
      "icao": "EFTU",
      "alert": "OK",
      "vis_m": 1600,
      "fzfg": false,
      "metar_trigger": false,
      "taf_trigger": false,
      "metar": "METAR EFTU 172320Z AUTO 21009KT 180V240 1600 1300 R26/1900U BCFG OVC001 01/01 Q1026",
      "taf": "TAF EFTU 172036Z 1721/1821 22009KT 5000 OVC002"
    },
    {
      "icao": "EGBB",
      "alert": "OK",
      "vis_m": 9999,
      "fzfg": false,
      "metar_trigger": false,
      "taf_trigger": false,
      "metar": "METAR EGBB 172320Z 16004KT CAVOK 06/05 Q1014",
      "taf": "TAF EGBB 172258Z 1800/1824 15004KT CAVOK"
    },
    {
      "icao": "EGGP",
      "alert": "OK",
      "vis_m": 9999,
      "fzfg": false,
      "metar_trigger": false,
      "taf_trigger": false,
      "metar": "METAR EGGP 172320Z 15007KT 9999 SCT036 09/05 Q1013",
      "taf": "TAF EGGP 172254Z 1800/1824 16008KT 9999 SCT035"
    },
    {
      "icao": "EGGW",
      "alert": "OK",
      "vis_m": 9999,
      "fzfg": false,
      "metar_trigger": false,
      "taf_trigger": false,
      "metar": "METAR EGGW 172320Z AUTO 16005KT 9999 NCD 08/06 Q1015",
      "taf": "TAF EGGW 172301Z 1800/1824 16006KT CAVOK"
    },
    {
      "icao": "EGKK",
      "alert": "OK",
      "vis_m": 9999,
      "fzfg": false,
      "metar_trigger": false,
      "taf_trigger": false,
      "metar": "METAR EGKK 172320Z 11003KT CAVOK 06/04 Q1016",
      "taf": "TAF EGKK 172255Z 1800/1906 12006KT CAVOK"
    },
    {
      "icao": "EGNM",
      "alert": "OK",
      "vis_m": null,
      "fzfg": false,
      "metar_trigger": false,
      "taf_trigger": false,
      "metar": "",
      "taf": "TAF EGNM 171655Z 1718/1818 21010KT 9999 FEW030"
    },
    {
      "icao": "EGPD",
      "alert": "OK",
      "vis_m": 9999,
      "fzfg": false,
      "metar_trigger": false,
      "taf_trigger": false,
      "metar": "METAR EGPD 172320Z COR AUTO 22006KT 180V260 9999 OVC023 10/06 Q1007 NOSIG",
      "taf": "TAF EGPD 172256Z 1800/1824 VRB03KT 9999 SCT025"
    },
    {
      "icao": "EGPF",
      "alert": "OK",
      "vis_m": 7000,
      "fzfg": false,
      "metar_trigger": false,
      "taf_trigger": false,
      "metar": "METAR EGPF 172320Z AUTO 22017KT 7000 BKN010 OVC033 10/08 Q1009",
      "taf": "TAF EGPF 172300Z 1800/1824 21011KT 9999 FEW020 BKN025"
    },
    {
      "icao": "EHBK",
      "alert": "OK",
      "vis_m": 9999,
      "fzfg": false,
      "metar_trigger": false,
      "taf_trigger": false,
      "metar": "METAR EHBK 172325Z AUTO 09006KT 9999 NSC 07/05 Q1020",
      "taf": "TAF EHBK 172306Z 1800/1906 10007KT CAVOK"
    },
    {
      "icao": "EHEH",
      "alert": "OK",
      "vis_m": 9999,
      "fzfg": false,
      "metar_trigger": false,
      "taf_trigger": false,
      "metar": "METAR EHEH 172325Z AUTO 12006KT 9999 OVC270 09/06 Q1020 BLU",
      "taf": "TAF EHEH 171705Z 1718/1824 14007KT CAVOK"
    },
    {
      "icao": "EKBI",
      "alert": "OK",
      "vis_m": 9999,
      "fzfg": false,
      "metar_trigger": false,
      "taf_trigger": false,
      "metar": "METAR EKBI 172320Z AUTO 15007KT 9999 BKN020/// OVC048/// 08/04 Q1023",
      "taf": "TAF EKBI 172327Z 1800/1824 15007KT 9999 BKN020"
    },
    {
      "icao": "EKCH",
      "alert": "OK",
      "vis_m": 9999,
      "fzfg": false,
      "metar_trigger": false,
      "taf_trigger": false,
      "metar": "METAR EKCH 172320Z AUTO 14012KT 9999 NCD 02/01 Q1027 NOSIG",
      "taf": "TAF EKCH 172327Z 1800/1824 14010KT 9999 FEW020"
    },
    {
      "icao": "ENAL",
      "alert": "OK",
      "vis_m": 9999,
      "fzfg": false,
      "metar_trigger": false,
      "taf_trigger": false,
      "metar": "METAR ENAL 172320Z AUTO 21018KT 9999 -DZRA SCT032/// SCT038/// BKN049/// 11/06 Q1003",
      "taf": "TAF ENAL 172300Z 1800/1809 21018KT 9999 -RA FEW010 BKN030"
    },
    {
      "icao": "ENBR",
      "alert": "OK",
      "vis_m": 9999,
      "fzfg": false,
      "metar_trigger": false,
      "taf_trigger": false,
      "metar": "METAR ENBR 172320Z 16027KT 9999 OVC010 07/05 Q1012 RMK WIND 1200FT 16032G45KT",
      "taf": "TAF ENBR 172300Z 1800/1824 16022KT 9999 SCT006 BKN010"
    },
    {
      "icao": "ENGM",
      "alert": "OK",
      "vis_m": 5000,
      "fzfg": false,
      "metar_trigger": false,
      "taf_trigger": false,
      "metar": "METAR ENGM 172320Z 20015KT 5000 -DZ BR OVC002 04/04 Q1018",
      "taf": "TAF ENGM 172300Z 1800/1824 19010KT 5000 -DZ OVC002"
    },
    {
      "icao": "ENHD",
      "alert": "OK",
      "vis_m": 9999,
      "fzfg": false,
      "metar_trigger": false,
      "taf_trigger": false,
      "metar": "METAR ENHD 172320Z AUTO 16021G37KT 9999 BKN006/// OVC007/// 07/06 Q1014",
      "taf": "TAF ENHD 171400Z 1715/1723 15020G32KT 8000 BKN004"
    },
    {
      "icao": "ENTC",
      "alert": "OK",
      "vis_m": 9999,
      "fzfg": false,
      "metar_trigger": false,
      "taf_trigger": false,
      "metar": "METAR ENTC 172320Z 18015KT 9999 BKN044 05/M00 Q0998 RMK WIND 2600FT 17038KT",
      "taf": "TAF ENTC 172300Z 1800/1824 20015KT 9999 -RA SCT020 BKN030"
    },
    {
      "icao": "ENTO",
      "alert": "OK",
      "vis_m": 1400,
      "fzfg": false,
      "metar_trigger": false,
      "taf_trigger": false,
      "metar": "METAR ENTO 172320Z AUTO 20015KT 1400 R18/P2000N R36/P2000N +RA OVC002/// 05/05 Q1020 REDZRA REDZ",
      "taf": "TAF ENTO 172300Z 1800/1824 20012KT 3000 -DZ OVC003"
    },
    {
      "icao": "ENVA",
      "alert": "OK",
      "vis_m": 9999,
      "fzfg": false,
      "metar_trigger": false,
      "taf_trigger": false,
      "metar": "METAR ENVA 172320Z 16023G34KT CAVOK 10/02 Q1005 RMK WIND 670FT 18032G46KT",
      "taf": "TAF ENVA 172300Z 1800/1824 17022KT 9999 BKN040"
    },
    {
      "icao": "ENZV",
      "alert": "OK",
      "vis_m": 9999,
      "fzfg": false,
      "metar_trigger": false,
      "taf_trigger": false,
      "metar": "METAR ENZV 172320Z 17021KT 9999 BKN011 OVC014 08/06 Q1015",
      "taf": "TAF ENZV 172300Z 1800/1824 16020KT 7000 SCT006 BKN014"
    },
    {
      "icao": "EPGD",
      "alert": "OK",
      "vis_m": 1500,
      "fzfg": false,
      "metar_trigger": false,
      "taf_trigger": false,
      "metar": "METAR EPGD 172330Z VRB01KT 1500 0200W BCFG BR NSC M01/M01 Q1030",
      "taf": "TAF EPGD 172330Z 1800/1824 VRB02KT 1500 BR NSC"
    },
    {
      "icao": "EPKK",
      "alert": "OK",
      "vis_m": 9999,
      "fzfg": false,
      "metar_trigger": false,
      "taf_trigger": false,
      "metar": "METAR EPKK 172330Z 06003KT 9999 BKN050 05/02 Q1025",
      "taf": "TAF EPKK 172330Z 1800/1824 08005KT 9999 BKN037"
    },
    {
      "icao": "EPKT",
      "alert": "OK",
      "vis_m": 9999,
      "fzfg": false,
      "metar_trigger": false,
      "taf_trigger": false,
      "metar": "METAR EPKT 172330Z 04006KT CAVOK 04/01 Q1026",
      "taf": "TAF EPKT 172330Z 1800/1824 04005KT 9999 BKN045"
    },
    {
      "icao": "EPLB",
      "alert": "OK",
      "vis_m": 9999,
      "fzfg": false,
      "metar_trigger": false,
      "taf_trigger": false,
      "metar": "METAR EPLB 172330Z 05006KT CAVOK 04/02 Q1026",
      "taf": "TAF EPLB 172330Z 1800/1824 05006KT CAVOK"
    },
    {
      "icao": "EPMO",
      "alert": "OK",
      "vis_m": 9999,
      "fzfg": false,
      "metar_trigger": false,
      "taf_trigger": false,
      "metar": "METAR EPMO 172330Z 36006KT 9999 SCT036 03/01 Q1029",
      "taf": "TAF EPMO 172330Z 1800/1824 05008KT CAVOK"
    },
    {
      "icao": "EPPO",
      "alert": "OK",
      "vis_m": 7000,
      "fzfg": false,
      "metar_trigger": false,
      "taf_trigger": false,
      "metar": "METAR EPPO 172330Z 03002KT 7000 NSC M01/M02 Q1029",
      "taf": "TAF EPPO 172330Z 1800/1824 VRB02KT 5000 BR NSC"
    },
    {
      "icao": "EPRA",
      "alert": "OK",
      "vis_m": 9999,
      "fzfg": false,
      "metar_trigger": false,
      "taf_trigger": false,
      "metar": "METAR EPRA 172330Z 35004KT CAVOK 04/00 Q1027",
      "taf": "TAF EPRA 172330Z 1800/1809 35006KT CAVOK"
    },
    {
      "icao": "EPRZ",
      "alert": "OK",
      "vis_m": 4500,
      "fzfg": false,
      "metar_trigger": false,
      "taf_trigger": false,
      "metar": "METAR EPRZ 172330Z VRB02KT 4500 BR NSC 02/01 Q1025",
      "taf": "TAF EPRZ 172330Z 1800/1824 VRB02KT 6000 NSC"
    },
    {
      "icao": "EPSC",
      "alert": "OK",
      "vis_m": 9999,
      "fzfg": false,
      "metar_trigger": false,
      "taf_trigger": false,
      "metar": "METAR EPSC 172330Z 09003KT CAVOK M01/M03 Q1029",
      "taf": "TAF EPSC 172330Z 1800/1824 12005KT CAVOK"
    },
    {
      "icao": "EPSY",
      "alert": "OK",
      "vis_m": 9999,
      "fzfg": false,
      "metar_trigger": false,
      "taf_trigger": false,
      "metar": "METAR EPSY 172330Z 01004KT CAVOK 00/M01 Q1029",
      "taf": "TAF EPSY 172330Z 1800/1809 02005KT CAVOK"
    },
    {
      "icao": "EPWA",
      "alert": "OK",
      "vis_m": 9999,
      "fzfg": false,
      "metar_trigger": false,
      "taf_trigger": false,
      "metar": "METAR EPWA 172330Z 03007KT CAVOK 06/01 Q1028 NOSIG",
      "taf": "TAF EPWA 172330Z 1800/1824 05008KT CAVOK"
    },
    {
      "icao": "EPWR",
      "alert": "OK",
      "vis_m": 9999,
      "fzfg": false,
      "metar_trigger": false,
      "taf_trigger": false,
      "metar": "METAR EPWR 172330Z 36004KT 9999 BKN043 04/01 Q1028",
      "taf": "TAF EPWR 172330Z 1800/1824 01005KT 9999 BKN045"
    },
    {
      "icao": "ESGG",
      "alert": "OK",
      "vis_m": 9999,
      "fzfg": false,
      "metar_trigger": false,
      "taf_trigger": false,
      "metar": "METAR ESGG 172320Z 17011KT CAVOK 03/01 Q1024",
      "taf": "TAF ESGG 172330Z 1800/1824 17012KT CAVOK"
    },
    {
      "icao": "ESKN",
      "alert": "OK",
      "vis_m": 4600,
      "fzfg": false,
      "metar_trigger": false,
      "taf_trigger": false,
      "metar": "METAR ESKN 172320Z 16005KT 4600 BR SCT002 01/01 Q1026",
      "taf": "TAF ESKN 172330Z 1800/1824 17006KT 7000 SCT002"
    },
    {
      "icao": "ESMS",
      "alert": "OK",
      "vis_m": 600,
      "fzfg": true,
      "metar_trigger": false,
      "taf_trigger": false,
      "metar": "METAR ESMS 172320Z 14007KT 0600 R17/P2000N R35/1700D FZFG OVC002 M00/M00 Q1027",
      "taf": "TAF ESMS 172327Z 1800/1824 14007KT 0300 FZFG BKN001"
    },
    {
      "icao": "ESSA",
      "alert": "OK",
      "vis_m": 9999,
      "fzfg": false,
      "metar_trigger": false,
      "taf_trigger": false,
      "metar": "METAR ESSA 172320Z 18008KT 9999 BKN004 01/00 Q1025 NOSIG",
      "taf": "TAF ESSA 172330Z 1800/1824 19010KT 9999 FEW005"
    },
    {
      "icao": "EYKA",
      "alert": "OK",
      "vis_m": 5000,
      "fzfg": false,
      "metar_trigger": false,
      "taf_trigger": false,
      "metar": "METAR EYKA 172320Z 34003KT 5000 BR NSC 02/02 Q1029",
      "taf": "TAF EYKA 172300Z 1800/1824 VRB02KT 5000 BR NSC"
    },
    {
      "icao": "EYPA",
      "alert": "OK",
      "vis_m": 400,
      "fzfg": false,
      "metar_trigger": false,
      "taf_trigger": false,
      "metar": "METAR EYPA 172320Z VRB02KT 0400 R19/0550N FG VV001 01/01 Q1030",
      "taf": "TAF EYPA 172300Z 1800/1824 VRB02KT 0450 FG VV002"
    },
    {
      "icao": "EYVI",
      "alert": "OK",
      "vis_m": 6000,
      "fzfg": false,
      "metar_trigger": false,
      "taf_trigger": false,
      "metar": "METAR EYVI 172320Z VRB01KT 6000 NSC 02/01 Q1028 NOSIG",
      "taf": "TAF EYVI 172300Z 1800/1824 VRB03KT 5000 BR NSC"
    },
    {
      "icao": "GCFV",
      "alert": "OK",
      "vis_m": 9999,
      "fzfg": false,
      "metar_trigger": false,
      "taf_trigger": false,
      "metar": "METAR GCFV 172330Z AUTO 23006KT CAVOK 18/14 Q1011",
      "taf": "TAF GCFV 172000Z 1721/1821 22007KT 9999 SCT030 TX22/1814Z TN15/1806Z"
    },
    {
      "icao": "GCLP",
      "alert": "OK",
      "vis_m": 9999,
      "fzfg": false,
      "metar_trigger": false,
      "taf_trigger": false,
      "metar": "METAR GCLP 172330Z 20012KT 9999 FEW035 18/15 Q1009 NOSIG",
      "taf": "TAF GCLP 172000Z 1721/1821 21016KT 9999 SCT035 TX22/1814Z TN14/1806Z"
    },
    {
      "icao": "GCTS",
      "alert": "OK",
      "vis_m": 9999,
      "fzfg": false,
      "metar_trigger": false,
      "taf_trigger": false,
      "metar": "METAR GCTS 172330Z 27011KT 9999 FEW020 18/14 Q1010 NOSIG",
      "taf": "TAF GCTS 172000Z 1721/1821 26014KT 9999 SCT025 TX23/1814Z TN14/1806Z"
    },
    {
      "icao": "GMAD",
      "alert": "OK",
      "vis_m": 3000,
      "fzfg": false,
      "metar_trigger": false,
      "taf_trigger": false,
      "metar": "METAR GMAD 172330Z 00000KT 3000 BR FEW006 14/12 Q1012 TEMPO 0800 FG",
      "taf": "TAF GMAD 172300Z 1800/1906 07004KT 6000 FEW006 SCT020"
    },
    {
      "icao": "GMMN",
      "alert": "OK",
      "vis_m": 5000,
      "fzfg": false,
      "metar_trigger": false,
      "taf_trigger": false,
      "metar": "METAR GMMN 172330Z 13004KT 100V170 5000 -DZ FEW003 BKN007 14/13 Q1011 NOSIG",
      "taf": "TAF GMMN 171700Z 1718/1824 02012KT 6000 SCT016 BKN100"
    },
    {
      "icao": "GMMX",
      "alert": "OK",
      "vis_m": 7000,
      "fzfg": false,
      "metar_trigger": false,
      "taf_trigger": false,
      "metar": "METAR GMMX 172330Z VRB02KT 7000 BKN020 14/12 Q1010 RERA TEMPO 1500 SHRA",
      "taf": "TAF GMMX 172300Z 1800/1906 06006KT 8000 BKN020"
    },
    {
      "icao": "HEGN",
      "alert": "OK",
      "vis_m": 9999,
      "fzfg": false,
      "metar_trigger": false,
      "taf_trigger": false,
      "metar": "METAR HEGN 172300Z 22003KT 9999 FEW025 17/M03 Q1007 NOSIG",
      "taf": "TAF HEGN 172300Z 1800/1906 12015KT 9999 SCT025"
    },
    {
      "icao": "HEMA",
      "alert": "OK",
      "vis_m": 9999,
      "fzfg": false,
      "metar_trigger": false,
      "taf_trigger": false,
      "metar": "METAR HEMA 172300Z 18006KT CAVOK 19/14 Q1009 NOSIG",
      "taf": "TAF HEMA 172300Z 1800/1906 13015KT 9999 SCT025"
    },
    {
      "icao": "HESH",
      "alert": "OK",
      "vis_m": 9999,
      "fzfg": false,
      "metar_trigger": false,
      "taf_trigger": false,
      "metar": "METAR HESH 172300Z 00000KT CAVOK 18/10 Q1009 NOSIG",
      "taf": "TAF HESH 172300Z 1800/1906 28014KT 9999 SCT025"
    },
    {
      "icao": "HESX",
      "alert": "OK",
      "vis_m": 9999,
      "fzfg": false,
      "metar_trigger": false,
      "taf_trigger": false,
      "metar": "METAR HESX 172300Z 08011KT CAVOK 14/08 Q1007 NOSIG",
      "taf": "TAF HESX 172300Z 1800/1906 07012KT CAVOK"
    },
    {
      "icao": "LATI",
      "alert": "OK",
      "vis_m": 5000,
      "fzfg": false,
      "metar_trigger": false,
      "taf_trigger": false,
      "metar": "METAR LATI 172320Z VRB01KT 5000 BR SCT005 BKN055 OVC092 10/08 Q1010 NOSIG",
      "taf": "TAF LATI 172300Z 1800/1824 VRB03KT 6000 FEW010 BKN060 TX15/1812Z TN11/1805Z"
    },
    {
      "icao": "LBPD",
      "alert": "OK",
      "vis_m": 9999,
      "fzfg": false,
      "metar_trigger": false,
      "taf_trigger": false,
      "metar": "METAR LBPD 172330Z AUTO 13005KT 9999 BKN052/// OVC200/// 03/01 Q1018",
      "taf": "TAF LBPD 172300Z 1800/1824 09010KT 9999 SCT070"
    },
    {
      "icao": "LBSF",
      "alert": "OK",
      "vis_m": 9999,
      "fzfg": false,
      "metar_trigger": false,
      "taf_trigger": false,
      "metar": "METAR LBSF 172330Z AUTO 12016KT 9999 SCT038/// 05/M03 Q1016 NOSIG",
      "taf": "TAF LBSF 172300Z 1800/1824 12012KT 9999 SCT030 BKN050"
    },
    {
      "icao": "LBWN",
      "alert": "OK",
      "vis_m": 9999,
      "fzfg": false,
      "metar_trigger": false,
      "taf_trigger": false,
      "metar": "METAR LBWN 172330Z AUTO 05010KT 9999 NCD 06/03 Q1019 NOSIG",
      "taf": "TAF LBWN 172300Z 1800/1824 03010KT 9999 SCT045"
    },
    {
      "icao": "LCLK",
      "alert": "OK",
      "vis_m": 9999,
      "fzfg": false,
      "metar_trigger": false,
      "taf_trigger": false,
      "metar": "METAR LCLK 172330Z 33007KT CAVOK 13/11 Q1011 NOSIG",
      "taf": "TAF LCLK 172330Z 1800/1900 34008KT CAVOK"
    },
    {
      "icao": "LCPH",
      "alert": "OK",
      "vis_m": 9999,
      "fzfg": false,
      "metar_trigger": false,
      "taf_trigger": false,
      "metar": "METAR LCPH 172330Z 33002KT CAVOK 12/08 Q1010 NOSIG",
      "taf": "TAF LCPH 172330Z 1800/1900 04007KT CAVOK"
    },
    {
      "icao": "LEAL",
      "alert": "OK",
      "vis_m": 9999,
      "fzfg": false,
      "metar_trigger": false,
      "taf_trigger": false,
      "metar": "METAR LEAL 172330Z 31002KT CAVOK 09/04 Q1013 NOSIG",
      "taf": "TAF LEAL 172300Z 1800/1824 VRB04KT CAVOK TX19/1812Z TN09/1806Z"
    },
    {
      "icao": "LEBB",
      "alert": "OK",
      "vis_m": 9999,
      "fzfg": false,
      "metar_trigger": false,
      "taf_trigger": false,
      "metar": "METAR LEBB 172330Z AUTO 10005KT 050V170 CAVOK 18/06 Q1007",
      "taf": "TAF LEBB 172300Z 1800/1824 11009KT CAVOK TX26/1814Z TN09/1806Z"
    },
    {
      "icao": "LEBL",
      "alert": "OK",
      "vis_m": 4000,
      "fzfg": false,
      "metar_trigger": false,
      "taf_trigger": false,
      "metar": "METAR LEBL 172330Z 32005KT 4000 BR SCT007 11/10 Q1013 NOSIG",
      "taf": "TAF LEBL 172300Z 1800/1824 35004KT CAVOK TX16/1813Z TN08/1806Z"
    },
    {
      "icao": "LECH",
      "alert": "OK",
      "vis_m": 9000,
      "fzfg": false,
      "metar_trigger": false,
      "taf_trigger": false,
      "metar": "METAR LECH 172330Z AUTO 04007KT 9000 NCD 08/05 Q1013",
      "taf": "TAF LECH 172300Z 1800/1824 VRB04KT CAVOK TX19/1812Z TN06/1806Z"
    },
    {
      "icao": "LEMD",
      "alert": "OK",
      "vis_m": 9999,
      "fzfg": false,
      "metar_trigger": false,
      "taf_trigger": false,
      "metar": "METAR LEMD 172330Z 33005KT CAVOK 08/02 Q1010 NOSIG",
      "taf": "TAF LEMD 172300Z 1800/1906 VRB04KT CAVOK TX20/1815Z TN04/1906Z"
    },
    {
      "icao": "LEMG",
      "alert": "OK",
      "vis_m": 9999,
      "fzfg": false,
      "metar_trigger": false,
      "taf_trigger": false,
      "metar": "METAR LEMG 172330Z 30007KT 250V330 CAVOK 11/04 Q1010 NOSIG",
      "taf": "TAF LEMG 172300Z 1800/1824 29006KT CAVOK TX19/1814Z TN08/1807Z"
    },
    {
      "icao": "LEVC",
      "alert": "OK",
      "vis_m": 9999,
      "fzfg": false,
      "metar_trigger": false,
      "taf_trigger": false,
      "metar": "METAR LEVC 172330Z 29004KT CAVOK 08/06 Q1012 NOSIG",
      "taf": "TAF LEVC 172300Z 1800/1824 VRB04KT CAVOK TX18/1812Z TN06/1805Z"
    },
    {
      "icao": "LEXJ",
      "alert": "OK",
      "vis_m": 9999,
      "fzfg": false,
      "metar_trigger": false,
      "taf_trigger": false,
      "metar": "METAR LEXJ 172330Z AUTO 13003KT CAVOK 09/07 Q1006",
      "taf": "TAF LEXJ 172000Z 1721/1821 20008KT CAVOK TX20/1812Z TN07/1806Z"
    },
    {
      "icao": "LEZG",
      "alert": "OK",
      "vis_m": 9999,
      "fzfg": false,
      "metar_trigger": false,
      "taf_trigger": false,
      "metar": "METAR LEZG 172330Z 09004KT CAVOK 11/07 Q1011 NOSIG",
      "taf": "TAF LEZG 172300Z 1800/1824 10009KT CAVOK TX21/1814Z TN07/1806Z"
    },
    {
      "icao": "LEZL",
      "alert": "OK",
      "vis_m": 9999,
      "fzfg": false,
      "metar_trigger": false,
      "taf_trigger": false,
      "metar": "METAR LEZL 172330Z 29009KT 260V320 CAVOK 16/09 Q1009 NOSIG",
      "taf": "TAF LEZL 172000Z 1721/1821 29010KT CAVOK TX25/1815Z TN10/1807Z"
    },
    {
      "icao": "LFBD",
      "alert": "OK",
      "vis_m": 9999,
      "fzfg": false,
      "metar_trigger": false,
      "taf_trigger": false,
      "metar": "METAR LFBD 172330Z AUTO 10006KT CAVOK 12/08 Q1010 NOSIG",
      "taf": "TAF LFBD 172300Z 1800/1906 10005KT CAVOK TX21/1815Z TN07/1806Z"
    },
    {
      "icao": "LFLL",
      "alert": "OK",
      "vis_m": 9999,
      "fzfg": false,
      "metar_trigger": false,
      "taf_trigger": false,
      "metar": "METAR LFLL 172330Z 16004KT CAVOK 08/04 Q1015 NOSIG",
      "taf": "TAF LFLL 172300Z 1800/1906 VRB03KT CAVOK"
    },
    {
      "icao": "LFLS",
      "alert": "OK",
      "vis_m": 9999,
      "fzfg": false,
      "metar_trigger": false,
      "taf_trigger": false,
      "metar": "METAR LFLS 172330Z AUTO 08006KT CAVOK 03/02 Q1015",
      "taf": "TAF LFLS 171400Z 1715/1815 02005KT CAVOK"
    },
    {
      "icao": "LFMN",
      "alert": "OK",
      "vis_m": 9999,
      "fzfg": false,
      "metar_trigger": false,
      "taf_trigger": false,
      "metar": "METAR LFMN 172330Z 33010KT CAVOK 11/04 Q1014 NOSIG",
      "taf": "TAF LFMN 172000Z 1721/1903 35005KT CAVOK"
    },
    {
      "icao": "LFOB",
      "alert": "OK",
      "vis_m": 9999,
      "fzfg": false,
      "metar_trigger": false,
      "taf_trigger": false,
      "metar": "METAR LFOB 172330Z AUTO 09003KT CAVOK 06/05 Q1018 NOSIG",
      "taf": "TAF LFOB 172300Z 1800/1824 08008KT CAVOK"
    },
    {
      "icao": "LFPO",
      "alert": "OK",
      "vis_m": 9999,
      "fzfg": false,
      "metar_trigger": false,
      "taf_trigger": false,
      "metar": "METAR LFPO 172330Z 09003KT CAVOK 10/06 Q1017 NOSIG",
      "taf": "TAF LFPO 172300Z 1800/1906 10005KT CAVOK"
    },
    {
      "icao": "LFSB",
      "alert": "OK",
      "vis_m": 9999,
      "fzfg": false,
      "metar_trigger": false,
      "taf_trigger": false,
      "metar": "METAR LFSB 172330Z AUTO 33004KT 320V020 CAVOK 04/01 Q1019 NOSIG",
      "taf": "TAF LFSB 172300Z 1800/1824 12007KT CAVOK"
    },
    {
      "icao": "LGAV",
      "alert": "OK",
      "vis_m": 9999,
      "fzfg": false,
      "metar_trigger": false,
      "taf_trigger": false,
      "metar": "METAR LGAV 172320Z 36009KT 9999 FEW020 BKN070 11/04 Q1011 NOSIG",
      "taf": "TAF LGAV 172300Z 1800/1824 02012KT 9999 SCT020 BKN070"
    },
    {
      "icao": "LGTS",
      "alert": "OK",
      "vis_m": 9999,
      "fzfg": false,
      "metar_trigger": false,
      "taf_trigger": false,
      "metar": "METAR LGTS 172320Z 10004KT 9999 SCT025 10/04 Q1015 NOSIG",
      "taf": "TAF LGTS 172300Z 1800/1824 14013KT 9999 SCT025"
    },
    {
      "icao": "LHBP",
      "alert": "OK",
      "vis_m": 9999,
      "fzfg": false,
      "metar_trigger": false,
      "taf_trigger": false,
      "metar": "METAR LHBP 172330Z 34006KT CAVOK 06/02 Q1019 NOSIG",
      "taf": "TAF LHBP 172315Z 1800/1824 35007KT CAVOK"
    },
    {
      "icao": "LHDC",
      "alert": "OK",
      "vis_m": 9999,
      "fzfg": false,
      "metar_trigger": false,
      "taf_trigger": false,
      "metar": "METAR LHDC 172315Z AUTO 04010KT CAVOK 06/02 Q1019",
      "taf": "TAF LHDC 171415Z 1715/1724 12006KT CAVOK"
    },
    {
      "icao": "LIBD",
      "alert": "OK",
      "vis_m": 9999,
      "fzfg": false,
      "metar_trigger": false,
      "taf_trigger": false,
      "metar": "METAR LIBD 172320Z 25007KT 9999 FEW030 08/06 Q1010",
      "taf": "TAF LIBD 172300Z 1800/1824 28010KT 9999 SCT030"
    },
    {
      "icao": "LIBG",
      "alert": "OK",
      "vis_m": null,
      "fzfg": false,
      "metar_trigger": false,
      "taf_trigger": false,
      "metar": "",
      "taf": "TAF LIBG 171700Z 1718/1803 VRB06KT 9999 SCT025"
    },
    {
      "icao": "LIBP",
      "alert": "OK",
      "vis_m": 9999,
      "fzfg": false,
      "metar_trigger": false,
      "taf_trigger": false,
      "metar": "METAR LIBP 172320Z AUTO 30006KT 230V330 9999 BKN038/// BKN098/// 07/04 Q1013 RERA",
      "taf": "TAF LIBP 172300Z 1800/1824 28010KT 9999 BKN020"
    },
    {
      "icao": "LIBR",
      "alert": "OK",
      "vis_m": 9000,
      "fzfg": false,
      "metar_trigger": false,
      "taf_trigger": false,
      "metar": "METAR LIBR 172320Z 32005KT 260V360 9000 -RA BKN040 10/08 Q1010",
      "taf": "TAF LIBR 172300Z 1800/1824 30010KT 9999 BKN030"
    },
    {
      "icao": "LICA",
      "alert": "OK",
      "vis_m": 9999,
      "fzfg": false,
      "metar_trigger": false,
      "taf_trigger": false,
      "metar": "METAR LICA 172320Z AUTO 03007KT 9999 -RA BKN037/// OVC051/// 12/11 Q1009",
      "taf": "TAF LICA 172300Z 1800/1824 08010KT 9999 BKN040"
    },
    {
      "icao": "LICC",
      "alert": "OK",
      "vis_m": 9999,
      "fzfg": false,
      "metar_trigger": false,
      "taf_trigger": false,
      "metar": "METAR LICC 172320Z 01003KT 9999 -DZ FEW030 BKN070 13/11 Q1009",
      "taf": "TAF LICC 172300Z 1800/1824 VRB05KT 9999 BKN030"
    },
    {
      "icao": "LICJ",
      "alert": "OK",
      "vis_m": 9999,
      "fzfg": false,
      "metar_trigger": false,
      "taf_trigger": false,
      "metar": "METAR LICJ 172320Z 33013KT 9999 SCT020 15/12 Q1010",
      "taf": "TAF LICJ 172300Z 1800/1824 03016KT 9999 SCT020"
    },
    {
      "icao": "LIMC",
      "alert": "OK",
      "vis_m": 9999,
      "fzfg": false,
      "metar_trigger": false,
      "taf_trigger": false,
      "metar": "METAR LIMC 172320Z 09008KT 070V130 9999 SCT050 11/01 Q1017 NOSIG",
      "taf": "TAF LIMC 172300Z 1800/1906 10010KT 9999 SCT050"
    },
    {
      "icao": "LIME",
      "alert": "OK",
      "vis_m": 9999,
      "fzfg": false,
      "metar_trigger": false,
      "taf_trigger": false,
      "metar": "METAR LIME 172320Z AUTO 15003KT 120V180 9999 BKN057/// 10/01 Q1017",
      "taf": "TAF LIME 172300Z 1800/1824 VRB06KT 9999 SCT050"
    },
    {
      "icao": "LIMF",
      "alert": "OK",
      "vis_m": 9999,
      "fzfg": false,
      "metar_trigger": false,
      "taf_trigger": false,
      "metar": "METAR LIMF 172320Z 01005KT 9999 OVC045 11/05 Q1016",
      "taf": "TAF LIMF 172300Z 1800/1824 VRB05KT 9999 SCT030"
    },
    {
      "icao": "LIMJ",
      "alert": "OK",
      "vis_m": 9999,
      "fzfg": false,
      "metar_trigger": false,
      "taf_trigger": false,
      "metar": "METAR LIMJ 172320Z VRB01KT CAVOK 13/06 Q1014",
      "taf": "TAF LIMJ 172300Z 1800/1824 VRB05KT 9999 SCT020"
    },
    {
      "icao": "LIPE",
      "alert": "OK",
      "vis_m": 9999,
      "fzfg": false,
      "metar_trigger": false,
      "taf_trigger": false,
      "metar": "METAR LIPE 172320Z AUTO 21005KT 9999 -RA BKN048/// BKN110/// 09/03 Q1017",
      "taf": "TAF LIPE 172300Z 1800/1824 VRB05KT CAVOK"
    },
    {
      "icao": "LIPH",
      "alert": "OK",
      "vis_m": 9999,
      "fzfg": false,
      "metar_trigger": false,
      "taf_trigger": false,
      "metar": "METAR LIPH 172320Z AUTO 33004KT 9999 SCT100/// 09/02 Q1018",
      "taf": "TAF LIPH 172300Z 1800/1824 36005KT CAVOK"
    },
    {
      "icao": "LIPQ",
      "alert": "OK",
      "vis_m": 9999,
      "fzfg": false,
      "metar_trigger": false,
      "taf_trigger": false,
      "metar": "METAR LIPQ 172320Z AUTO 04006KT 010V070 9999 NCD 09/M06 Q1018",
      "taf": "TAF LIPQ 172300Z 1800/1824 36005KT 9999 FEW090"
    },
    {
      "icao": "LIPR",
      "alert": "OK",
      "vis_m": 9999,
      "fzfg": false,
      "metar_trigger": false,
      "taf_trigger": false,
      "metar": "METAR LIPR 172320Z AUTO 04011KT 9999 BKN120/// 11/M01 Q1016",
      "taf": "TAF LIPR 172300Z 1800/1824 02006KT 9999 FEW050"
    },
    {
      "icao": "LIPX",
      "alert": "OK",
      "vis_m": 9999,
      "fzfg": false,
      "metar_trigger": false,
      "taf_trigger": false,
      "metar": "METAR LIPX 172320Z 09006KT 9999 BKN075 10/01 Q1018",
      "taf": "TAF LIPX 172300Z 1800/1824 VRB05KT 9999 SCT030"
    },
    {
      "icao": "LIPY",
      "alert": "OK",
      "vis_m": 9999,
      "fzfg": false,
      "metar_trigger": false,
      "taf_trigger": false,
      "metar": "METAR LIPY 172320Z AUTO 02019KT 9999 BKN046/// 11/03 Q1014",
      "taf": "TAF LIPY 172300Z 1800/1824 03014KT 9999 SCT030"
    },
    {
      "icao": "LIPZ",
      "alert": "OK",
      "vis_m": 9999,
      "fzfg": false,
      "metar_trigger": false,
      "taf_trigger": false,
      "metar": "METAR LIPZ 172320Z 03006KT CAVOK 08/M01 Q1018 NOSIG",
      "taf": "TAF LIPZ 172300Z 1800/1906 01006KT CAVOK"
    },
    {
      "icao": "LIRF",
      "alert": "OK",
      "vis_m": 9999,
      "fzfg": false,
      "metar_trigger": false,
      "taf_trigger": false,
      "metar": "METAR LIRF 172320Z 01014KT CAVOK 10/M02 Q1012 NOSIG",
      "taf": "TAF LIRF 172300Z 1800/1906 01015KT CAVOK"
    },
    {
      "icao": "LIRN",
      "alert": "OK",
      "vis_m": 9999,
      "fzfg": false,
      "metar_trigger": false,
      "taf_trigger": false,
      "metar": "METAR LIRN 172320Z 02005KT CAVOK 08/01 Q1011 NOSIG",
      "taf": "TAF LIRN 172300Z 1800/1824 03008KT 9999 BKN040"
    },
    {
      "icao": "LIRP",
      "alert": "OK",
      "vis_m": 9999,
      "fzfg": false,
      "metar_trigger": false,
      "taf_trigger": false,
      "metar": "METAR LIRP 172315Z 09011KT 9999 SCT080 13/M03 Q1014 NOSIG",
      "taf": "TAF LIRP 172300Z 1800/1824 09012KT 9999 SCT070"
    },
    {
      "icao": "LIRZ",
      "alert": "OK",
      "vis_m": 9999,
      "fzfg": false,
      "metar_trigger": false,
      "taf_trigger": false,
      "metar": "METAR LIRZ 172320Z AUTO 36008KT 9999 NCD 05/00 Q1014",
      "taf": "TAF LIRZ 172300Z 1800/1824 03014KT CAVOK"
    },
    {
      "icao": "LJLJ",
      "alert": "OK",
      "vis_m": 9999,
      "fzfg": false,
      "metar_trigger": false,
      "taf_trigger": false,
      "metar": "METAR LJLJ 172330Z VRB02KT 9999 FEW065 BKN098 BKN250 01/M02 Q1018 NOSIG",
      "taf": "TAF LJLJ 172300Z 1800/1900 30004KT 9999 FEW050 BKN090"
    },
    {
      "icao": "LKMT",
      "alert": "OK",
      "vis_m": 9000,
      "fzfg": false,
      "metar_trigger": false,
      "taf_trigger": false,
      "metar": "METAR LKMT 172330Z 01007KT 9000 BKN029 05/03 Q1025 NOSIG",
      "taf": "TAF LKMT 172300Z 1800/1824 04008KT 7000 SCT018 BKN025"
    },
    {
      "icao": "LKPR",
      "alert": "OK",
      "vis_m": 9999,
      "fzfg": false,
      "metar_trigger": false,
      "taf_trigger": false,
      "metar": "METAR LKPR 172330Z 09006KT CAVOK 01/M02 Q1026 NOSIG",
      "taf": "TAF LKPR 172300Z 1800/1906 07005KT CAVOK"
    },
    {
      "icao": "LLBG",
      "alert": "OK",
      "vis_m": 9999,
      "fzfg": false,
      "metar_trigger": false,
      "taf_trigger": false,
      "metar": "METAR LLBG 172320Z 10004KT 070V130 CAVOK 12/08 Q1008 NOSIG",
      "taf": "TAF LLBG 172315Z 1800/1824 VRB03KT CAVOK TX29/1812Z TN09/1803Z"
    },
    {
      "icao": "LMML",
      "alert": "OK",
      "vis_m": 9999,
      "fzfg": false,
      "metar_trigger": false,
      "taf_trigger": false,
      "metar": "METAR LMML 172315Z 01012KT 340V050 9999 FEW009 BKN020 15/12 Q1008 NOSIG",
      "taf": "TAF LMML 172300Z 1800/1824 02017KT 9999 SCT015"
    },
    {
      "icao": "LOWW",
      "alert": "OK",
      "vis_m": 9999,
      "fzfg": false,
      "metar_trigger": false,
      "taf_trigger": false,
      "metar": "METAR LOWW 172320Z 34007KT 9999 FEW050 05/02 Q1023 NOSIG",
      "taf": "TAF LOWW 172315Z 1800/1906 34012KT 9999 BKN040 TX16/1814Z TN02/1904Z"
    },
    {
      "icao": "LPFR",
      "alert": "OK",
      "vis_m": 9999,
      "fzfg": false,
      "metar_trigger": false,
      "taf_trigger": false,
      "metar": "METAR LPFR 172330Z 05009KT 9999 -RA FEW012 FEW020CB SCT045 15/14 Q1008",
      "taf": "TAF LPFR 172300Z 1800/1824 13010KT 9999 SCT015 SCT035"
    },
    {
      "icao": "LPMA",
      "alert": "OK",
      "vis_m": 9999,
      "fzfg": false,
      "metar_trigger": false,
      "taf_trigger": false,
      "metar": "METAR LPMA 172330Z 26010KT 9999 SCT013 FEW018TCU 15/11 Q1004",
      "taf": "TAF LPMA 172300Z 1800/1824 23015KT 9999 SCT015 BKN030"
    },
    {
      "icao": "LPPR",
      "alert": "OK",
      "vis_m": 9999,
      "fzfg": false,
      "metar_trigger": false,
      "taf_trigger": false,
      "metar": "METAR LPPR 172330Z 16007KT 9999 FEW020 SCT048 15/12 Q1007",
      "taf": "TAF LPPR 172300Z 1800/1824 14008KT 9999 SCT018 SCT040"
    },
    {
      "icao": "LPPS",
      "alert": "OK",
      "vis_m": 9999,
      "fzfg": false,
      "metar_trigger": false,
      "taf_trigger": false,
      "metar": "METAR LPPS 172330Z 26009KT 9999 FEW014 15/12 Q1004",
      "taf": "TAF LPPS 172300Z 1800/1906 27010KT 9999 SCT012 BKN030"
    },
    {
      "icao": "LPPT",
      "alert": "OK",
      "vis_m": 9999,
      "fzfg": false,
      "metar_trigger": false,
      "taf_trigger": false,
      "metar": "METAR LPPT 172330Z 15009KT 120V190 9999 -RA FEW004 SCT010 14/13 Q1007",
      "taf": "TAF LPPT 172300Z 1800/1906 14012KT 9999 SCT015 BKN035"
    },
    {
      "icao": "LQBK",
      "alert": "OK",
      "vis_m": 7000,
      "fzfg": false,
      "metar_trigger": false,
      "taf_trigger": false,
      "metar": "METAR LQBK 172330Z 32007KT 7000 RA SCT010 BKN015 OVC025 05/03 Q1016 NOSIG",
      "taf": "TAF LQBK 172300Z 1800/1824 34005KT 9999 SCT013 BKN030 TX12/1814Z TN04/1805Z"
    },
    {
      "icao": "LQSA",
      "alert": "OK",
      "vis_m": 3500,
      "fzfg": false,
      "metar_trigger": false,
      "taf_trigger": false,
      "metar": "METAR LQSA 172330Z VRB02KT 3500 -SN BKN008 OVC020 01/01 Q1013",
      "taf": ""
    },
    {
      "icao": "LQTZ",
      "alert": "OK",
      "vis_m": 4000,
      "fzfg": false,
      "metar_trigger": false,
      "taf_trigger": false,
      "metar": "METAR LQTZ 172330Z VRB03KT 4000 -RA BR FEW004 SCT008 BKN015 03/03 Q1015",
      "taf": "TAF LQTZ 172300Z 1800/1824 03006KT 9999 SCT015 BKN030 TX11/1813Z TN02/1805Z"
    },
    {
      "icao": "LRBC",
      "alert": "OK",
      "vis_m": 9999,
      "fzfg": false,
      "metar_trigger": false,
      "taf_trigger": false,
      "metar": "METAR LRBC 172330Z 03003KT CAVOK 03/M02 Q1022",
      "taf": "TAF LRBC 172300Z 1800/1809 VRB04KT CAVOK"
    },
    {
      "icao": "LRBS",
      "alert": "OK",
      "vis_m": 9999,
      "fzfg": false,
      "metar_trigger": false,
      "taf_trigger": false,
      "metar": "METAR LRBS 172330Z 04003KT CAVOK 02/M01 Q1021 NOSIG",
      "taf": "TAF LRBS 172300Z 1800/1824 09008KT CAVOK"
    },
    {
      "icao": "LRBV",
      "alert": "OK",
      "vis_m": 9999,
      "fzfg": false,
      "metar_trigger": false,
      "taf_trigger": false,
      "metar": "METAR LRBV 172330Z AUTO 16002KT 9999 NCD M03/M05 Q1020",
      "taf": "TAF LRBV 172000Z 1721/1806 10008KT CAVOK"
    },
    {
      "icao": "LRCL",
      "alert": "OK",
      "vis_m": 9999,
      "fzfg": false,
      "metar_trigger": false,
      "taf_trigger": false,
      "metar": "METAR LRCL 172330Z 02003KT CAVOK 04/M02 Q1020",
      "taf": "TAF LRCL 172300Z 1800/1809 VRB04KT CAVOK"
    },
    {
      "icao": "LRCV",
      "alert": "OK",
      "vis_m": 9999,
      "fzfg": false,
      "metar_trigger": false,
      "taf_trigger": false,
      "metar": "METAR LRCV 172330Z 07010KT CAVOK 05/01 Q1019",
      "taf": "TAF LRCV 172300Z 1800/1809 07010KT CAVOK"
    },
    {
      "icao": "LRIA",
      "alert": "OK",
      "vis_m": 9999,
      "fzfg": false,
      "metar_trigger": false,
      "taf_trigger": false,
      "metar": "METAR LRIA 172330Z 08004KT CAVOK 06/M04 Q1023",
      "taf": "TAF LRIA 172300Z 1800/1809 VRB04KT CAVOK"
    },
    {
      "icao": "LROP",
      "alert": "OK",
      "vis_m": 9999,
      "fzfg": false,
      "metar_trigger": false,
      "taf_trigger": false,
      "metar": "METAR LROP 172330Z 04005KT CAVOK 04/M03 Q1021 NOSIG",
      "taf": "TAF LROP 172300Z 1800/1824 09008KT CAVOK"
    },
    {
      "icao": "LRSB",
      "alert": "OK",
      "vis_m": 9999,
      "fzfg": false,
      "metar_trigger": false,
      "taf_trigger": false,
      "metar": "METAR LRSB 172330Z 11009KT CAVOK 07/M01 Q1019",
      "taf": "TAF LRSB 172300Z 1800/1824 14006KT 9999 BKN050"
    },
    {
      "icao": "LRSM",
      "alert": "OK",
      "vis_m": 9999,
      "fzfg": false,
      "metar_trigger": false,
      "taf_trigger": false,
      "metar": "METAR LRSM 172330Z AUTO 09006KT 9999 NCD 06/M02 Q1020",
      "taf": "TAF LRSM 171400Z 1715/1724 04008KT CAVOK"
    },
    {
      "icao": "LRSV",
      "alert": "OK",
      "vis_m": 9999,
      "fzfg": false,
      "metar_trigger": false,
      "taf_trigger": false,
      "metar": "METAR LRSV 172330Z 27002KT CAVOK 03/M03 Q1022",
      "taf": "TAF LRSV 172300Z 1800/1809 09007KT CAVOK"
    },
    {
      "icao": "LRTM",
      "alert": "OK",
      "vis_m": 9999,
      "fzfg": false,
      "metar_trigger": false,
      "taf_trigger": false,
      "metar": "METAR LRTM 172330Z AUTO 08005KT 9999 NCD 03/M03 Q1020",
      "taf": "TAF LRTM 171400Z 1715/1724 VRB04KT CAVOK"
    },
    {
      "icao": "LRTR",
      "alert": "OK",
      "vis_m": 9999,
      "fzfg": false,
      "metar_trigger": false,
      "taf_trigger": false,
      "metar": "METAR LRTR 172330Z 04005KT CAVOK 03/02 Q1017",
      "taf": "TAF LRTR 172300Z 1800/1824 02006KT CAVOK"
    },
    {
      "icao": "LTAC",
      "alert": "OK",
      "vis_m": 9999,
      "fzfg": false,
      "metar_trigger": false,
      "taf_trigger": false,
      "metar": "METAR LTAC 172320Z VRB02KT 9999 FEW040 BKN100 04/00 Q1013 NOSIG RMK RWY21C 04006KT RWY03L 01003KT 330V030 RWY21R 03005KT RWY03R 00000KT RWY21L VRB02KT",
      "taf": "TAF LTAC 172240Z 1800/1824 VRB02KT 9999 SCT040 SCT100"
    },
    {
      "icao": "LTFM",
      "alert": "OK",
      "vis_m": 9999,
      "fzfg": false,
      "metar_trigger": false,
      "taf_trigger": false,
      "metar": "METAR LTFM 172320Z 05013KT 9999 FEW013 SCT022 07/05 Q1016 NOSIG RMK RWY17L 05012KT RWY34L 04010KT RWY16R 05011KT RWY36 05013KT RWY18 06012KT",
      "taf": "TAF LTFM 172240Z 1800/1906 05012KT 9999 FEW012 SCT022"
    },
    {
      "icao": "LUKK",
      "alert": "OK",
      "vis_m": 9999,
      "fzfg": false,
      "metar_trigger": false,
      "taf_trigger": false,
      "metar": "METAR LUKK 172330Z VRB03KT CAVOK 02/M04 Q1023 NOSIG",
      "taf": "TAF LUKK 172317Z 1800/1824 VRB05KT CAVOK"
    },
    {
      "icao": "LWOH",
      "alert": "OK",
      "vis_m": null,
      "fzfg": false,
      "metar_trigger": false,
      "taf_trigger": false,
      "metar": "",
      "taf": "TAF LWOH 172030Z 1721/1821 18010KT 9999 SCT040 BKN090"
    },
    {
      "icao": "LWSK",
      "alert": "OK",
      "vis_m": 9999,
      "fzfg": false,
      "metar_trigger": false,
      "taf_trigger": false,
      "metar": "METAR LWSK 172320Z VRB01KT 9999 BKN058 10/05 Q1013 NOSIG",
      "taf": "TAF LWSK 172030Z 1721/1821 14010KT 9999 SCT040 BKN080"
    },
    {
      "icao": "LYBE",
      "alert": "OK",
      "vis_m": 9999,
      "fzfg": false,
      "metar_trigger": false,
      "taf_trigger": false,
      "metar": "METAR LYBE 172330Z 07007KT CAVOK 10/M00 Q1015 NOSIG",
      "taf": "TAF LYBE 172300Z 1800/1824 06008KT CAVOK TX14/1813Z TN07/1802Z"
    },
    {
      "icao": "LYNI",
      "alert": "OK",
      "vis_m": 9999,
      "fzfg": false,
      "metar_trigger": false,
      "taf_trigger": false,
      "metar": "METAR LYNI 172330Z 09015KT 9999 BKN090 11/M02 Q1014 NOSIG",
      "taf": "TAF LYNI 172300Z 1800/1824 06015KT 9999 BKN080 TX14/1814Z TN08/1805Z"
    },
    {
      "icao": "LYPG",
      "alert": "OK",
      "vis_m": 9999,
      "fzfg": false,
      "metar_trigger": false,
      "taf_trigger": false,
      "metar": "METAR LYPG 172330Z 31005KT 9999 -RA SCT040 OVC076 07/06 Q1011 NOSIG",
      "taf": "TAF LYPG 172300Z 1800/1824 32008KT 9999 SCT040 OVC070 TX15/1813Z TN07/1800Z"
    },
    {
      "icao": "LZIB",
      "alert": "OK",
      "vis_m": 9999,
      "fzfg": false,
      "metar_trigger": false,
      "taf_trigger": false,
      "metar": "METAR LZIB 172330Z 36006KT CAVOK 06/02 Q1021 NOSIG",
      "taf": "TAF LZIB 172315Z 1800/1900 03009KT CAVOK"
    },
    {
      "icao": "LZKZ",
      "alert": "OK",
      "vis_m": 9999,
      "fzfg": false,
      "metar_trigger": false,
      "taf_trigger": false,
      "metar": "METAR LZKZ 172330Z 01015KT CAVOK 08/03 Q1022 NOSIG",
      "taf": "TAF LZKZ 172315Z 1800/1900 01015KT CAVOK"
    },
    {
      "icao": "LZTT",
      "alert": "OK",
      "vis_m": 9999,
      "fzfg": false,
      "metar_trigger": false,
      "taf_trigger": false,
      "metar": "METAR LZTT 172330Z 05010KT 9999 BKN020 04/01 Q1023",
      "taf": "TAF LZTT 172315Z 1800/1900 07012KT 9999 SCT025"
    },
    {
      "icao": "OEJN",
      "alert": "OK",
      "vis_m": 9999,
      "fzfg": false,
      "metar_trigger": false,
      "taf_trigger": false,
      "metar": "METAR OEJN 172300Z 36004KT 9999 FEW040 26/17 Q1007 NOSIG",
      "taf": "TAF OEJN 172300Z 1800/1906 08006KT 7000 SCT040"
    },
    {
      "icao": "OEMA",
      "alert": "OK",
      "vis_m": 9999,
      "fzfg": false,
      "metar_trigger": false,
      "taf_trigger": false,
      "metar": "METAR OEMA 172300Z 04004KT CAVOK 25/07 Q1012 NOSIG",
      "taf": "TAF OEMA 172300Z 1800/1906 VRB03KT 9999 SCT045"
    },
    {
      "icao": "OJAI",
      "alert": "OK",
      "vis_m": 5000,
      "fzfg": false,
      "metar_trigger": false,
      "taf_trigger": false,
      "metar": "METAR OJAI 172300Z 06009KT 5000 HZ NSC 12/00 Q1013 NOSIG",
      "taf": "TAF OJAI 172235Z 1800/1906 13010KT 5000 HZ NSC"
    },
    {
      "icao": "OMAA",
      "alert": "OK",
      "vis_m": null,
      "fzfg": false,
      "metar_trigger": false,
      "taf_trigger": false,
      "metar": "",
      "taf": ""
    },
    {
      "icao": "OMDB",
      "alert": "OK",
      "vis_m": null,
      "fzfg": false,
      "metar_trigger": false,
      "taf_trigger": false,
      "metar": "",
      "taf": ""
    },
    {
      "icao": "UAAA",
      "alert": "OK",
      "vis_m": 9999,
      "fzfg": false,
      "metar_trigger": false,
      "taf_trigger": false,
      "metar": "METAR UAAA 172330Z 13002MPS 9999 BKN100 M01/M03 Q1016 NOSIG",
      "taf": "TAF UAAA 172301Z 1800/1824 35002G07MPS 9999 SCT100 TX11/1809Z TNM01/1801Z"
    },
    {
      "icao": "UBBB",
      "alert": "OK",
      "vis_m": 9999,
      "fzfg": false,
      "metar_trigger": false,
      "taf_trigger": false,
      "metar": "METAR UBBB 172330Z 28006KT 9999 BKN049 08/06 Q1018 NOSIG",
      "taf": "TAF UBBB 172307Z 1800/1824 29008KT 9999 BKN030 TX14/1810Z TN06/1801Z"
    },
    {
      "icao": "UDSG",
      "alert": "OK",
      "vis_m": 9999,
      "fzfg": false,
      "metar_trigger": false,
      "taf_trigger": false,
      "metar": "METAR UDSG 172330Z 01002KT 9999 FEW049 00/M00 Q1017 NOSIG",
      "taf": "TAF UDSG 172300Z 1800/1824 VRB06KT 9999 FEW050"
    },
    {
      "icao": "UDYZ",
      "alert": "OK",
      "vis_m": 9999,
      "fzfg": false,
      "metar_trigger": false,
      "taf_trigger": false,
      "metar": "METAR UDYZ 172330Z 14002KT 9999 SCT046 06/02 Q1016 NOSIG",
      "taf": "TAF UDYZ 172300Z 1800/1824 VRB06KT 9999 SCT040"
    },
    {
      "icao": "UGKO",
      "alert": "OK",
      "vis_m": 150,
      "fzfg": false,
      "metar_trigger": false,
      "taf_trigger": false,
      "metar": "METAR UGKO 172330Z 11001KT 0150 R07/0275N FG VV002 02/02 Q1019 NOSIG",
      "taf": "TAF UGKO 172300Z 1800/1824 VRB02KT CAVOK TX19/1812Z TN03/1802Z"
    }
  ]
}