{
  "ts_utc": "2026-02-17T23:14:21Z",
  "threshold_m": 150,
  "source": "stations_override.txt (ICAO list) + aviationweather.gov (METAR/TAF raw)",
  "station_count": 159,
  "stations": [
    {
      "icao": "BIKF",
      "alert": "OK",
      "vis_m": 9999,
      "fzfg": false,
      "metar_trigger": false,
      "taf_trigger": false,
      "metar": "METAR BIKF 172300Z 03018KT 9999 FEW032 BKN054 OVC083 M02/M09 Q1008",
      "taf": "TAF BIKF 172233Z 1800/1900 06017KT 9999 SCT025 BKN030 TXM01/1815Z TNM04/1822Z"
    },
    {
      "icao": "BKPR",
      "alert": "OK",
      "vis_m": 9999,
      "fzfg": false,
      "metar_trigger": false,
      "taf_trigger": false,
      "metar": "METAR BKPR 172300Z 32018KT 9999 FEW025 BKN040 03/M01 Q1004 NOSIG",
      "taf": ""
    },
    {
      "icao": "EBCI",
      "alert": "OK",
      "vis_m": 9999,
      "fzfg": false,
      "metar_trigger": false,
      "taf_trigger": false,
      "metar": "METAR EBCI 172250Z 23007KT CAVOK 01/M02 Q1016 NOSIG",
      "taf": "TAF EBCI 171704Z 1718/1824 29013KT 9999 FEW018 SCT025"
    },
    {
      "icao": "EDDB",
      "alert": "OK",
      "vis_m": 4100,
      "fzfg": false,
      "metar_trigger": false,
      "taf_trigger": false,
      "metar": "METAR EDDB 172250Z AUTO 10003KT 070V140 4100 BR OVC003 M02/M02 Q1008 NOSIG",
      "taf": "TAF EDDB 171700Z 1718/1818 06005KT 4000 -SN BKN005"
    },
    {
      "icao": "EDDH",
      "alert": "OK",
      "vis_m": 4200,
      "fzfg": false,
      "metar_trigger": false,
      "taf_trigger": false,
      "metar": "METAR EDDH 172250Z AUTO 03003KT 010V070 4200 BR OVC004 M01/M02 Q1009 BECMG 5000 OVC005",
      "taf": ""
    },
    {
      "icao": "EDDK",
      "alert": "OK",
      "vis_m": 9999,
      "fzfg": false,
      "metar_trigger": false,
      "taf_trigger": false,
      "metar": "METAR EDDK 172250Z AUTO 27013KT 9999 FEW018 BKN034 OVC041 03/00 Q1014 NOSIG",
      "taf": "TAF EDDK 171700Z 1718/1824 28013KT 9999 SCT010 BKN020"
    },
    {
      "icao": "EDDN",
      "alert": "OK",
      "vis_m": 9999,
      "fzfg": false,
      "metar_trigger": false,
      "taf_trigger": false,
      "metar": "METAR EDDN 172250Z AUTO 28011KT 9999 SCT024 02/M02 Q1012",
      "taf": "TAF EDDN 171700Z 1718/1818 28008KT 9999 SCT012 BKN040"
    },
    {
      "icao": "EDDS",
      "alert": "OK",
      "vis_m": 9999,
      "fzfg": false,
      "metar_trigger": false,
      "taf_trigger": false,
      "metar": "METAR EDDS 172250Z AUTO 24008KT 190V260 9999 SCT047 02/M02 Q1015",
      "taf": "TAF EDDS 171700Z 1718/1818 24009KT 9999 SCT020"
    },
    {
      "icao": "EDFH",
      "alert": "OK",
      "vis_m": 9999,
      "fzfg": false,
      "metar_trigger": false,
      "taf_trigger": false,
      "metar": "METAR EDFH 172250Z 27011KT 9999 BKN010 00/M01 Q1013",
      "taf": "TAF EDFH 171700Z 1718/1818 28011KT 9999 BKN015"
    },
    {
      "icao": "EDJA",
      "alert": "OK",
      "vis_m": 9999,
      "fzfg": false,
      "metar_trigger": false,
      "taf_trigger": false,
      "metar": "METAR EDJA 172250Z AUTO 21008KT 9999 // FEW019/// BKN039/// BKN049/// 00/M01 Q1015",
      "taf": "TAF EDJA 171700Z 1718/1803 26011KT 9999 FEW025 SCT040"
    },
    {
      "icao": "EDLW",
      "alert": "OK",
      "vis_m": 9999,
      "fzfg": false,
      "metar_trigger": false,
      "taf_trigger": false,
      "metar": "METAR EDLW 172250Z AUTO 25011KT 9999 // BKN018/// BKN022/// OVC025/// 03/M00 Q1011",
      "taf": "TAF EDLW 171700Z 1718/1818 26010KT 9999 SCT010 BKN020"
    },
    {
      "icao": "EDNY",
      "alert": "OK",
      "vis_m": 9999,
      "fzfg": false,
      "metar_trigger": false,
      "taf_trigger": false,
      "metar": "METAR EDNY 172250Z AUTO VRB01KT 9999 // OVC034/// 02/M01 Q1017",
      "taf": "TAF EDNY 171700Z 1718/1803 25004KT 9999 FEW025 SCT040"
    },
    {
      "icao": "EDSB",
      "alert": "OK",
      "vis_m": 9999,
      "fzfg": false,
      "metar_trigger": false,
      "taf_trigger": false,
      "metar": "METAR EDSB 172250Z AUTO 21006KT 9999 // NCD 01/M01 Q1017",
      "taf": "TAF EDSB 171700Z 1718/1818 22007KT 9999 SCT020"
    },
    {
      "icao": "EETN",
      "alert": "OK",
      "vis_m": 9999,
      "fzfg": false,
      "metar_trigger": false,
      "taf_trigger": false,
      "metar": "METAR EETN 172250Z 13004KT CAVOK M13/M14 Q1017",
      "taf": "TAF EETN 171730Z 1718/1818 14006KT CAVOK"
    },
    {
      "icao": "EFTU",
      "alert": "OK",
      "vis_m": 9999,
      "fzfg": false,
      "metar_trigger": false,
      "taf_trigger": false,
      "metar": "METAR EFTU 172250Z AUTO 06001KT CAVOK M17/M18 Q1016",
      "taf": "TAF EFTU 172027Z 1721/1821 15004KT CAVOK"
    },
    {
      "icao": "EGBB",
      "alert": "OK",
      "vis_m": 9999,
      "fzfg": false,
      "metar_trigger": false,
      "taf_trigger": false,
      "metar": "METAR EGBB 172250Z 11007KT CAVOK 01/M03 Q1014",
      "taf": "TAF EGBB 172257Z 1800/1824 10006KT 9999 FEW030"
    },
    {
      "icao": "EGGP",
      "alert": "OK",
      "vis_m": 9999,
      "fzfg": false,
      "metar_trigger": false,
      "taf_trigger": false,
      "metar": "METAR EGGP 172250Z 11009KT CAVOK 01/M04 Q1013",
      "taf": "TAF EGGP 172303Z 1800/1824 11010KT 9999 FEW040"
    },
    {
      "icao": "EGGW",
      "alert": "OK",
      "vis_m": 9999,
      "fzfg": false,
      "metar_trigger": false,
      "taf_trigger": false,
      "metar": "METAR EGGW 172250Z AUTO 13004KT 9999 NCD 00/M03 Q1014",
      "taf": "TAF EGGW 172301Z 1800/1824 09008KT CAVOK"
    },
    {
      "icao": "EGKK",
      "alert": "OK",
      "vis_m": 9999,
      "fzfg": false,
      "metar_trigger": false,
      "taf_trigger": false,
      "metar": "METAR EGKK 172250Z 08006KT CAVOK 02/M02 Q1014",
      "taf": "TAF EGKK 172256Z 1800/1906 09008KT 9999 FEW035"
    },
    {
      "icao": "EGNM",
      "alert": "OK",
      "vis_m": 9999,
      "fzfg": false,
      "metar_trigger": false,
      "taf_trigger": false,
      "metar": "METAR EGNM 172150Z 06003KT CAVOK M01/M04 Q1014",
      "taf": "TAF EGNM 172303Z 1800/1824 01006KT 9999 FEW045"
    },
    {
      "icao": "EGPD",
      "alert": "OK",
      "vis_m": 9999,
      "fzfg": false,
      "metar_trigger": false,
      "taf_trigger": false,
      "metar": "METAR EGPD 172250Z COR AUTO 36002KT 9999 FEW039 M04/M05 Q1015 NOSIG",
      "taf": "TAF EGPD 172254Z 1800/1824 29005KT 9999 FEW040"
    },
    {
      "icao": "EGPF",
      "alert": "OK",
      "vis_m": 9999,
      "fzfg": false,
      "metar_trigger": false,
      "taf_trigger": false,
      "metar": "METAR EGPF 172250Z AUTO 07004KT 9999 NCD M03/M05 Q1015",
      "taf": "TAF EGPF 172256Z 1800/1824 10006KT CAVOK"
    },
    {
      "icao": "EHBK",
      "alert": "OK",
      "vis_m": 9999,
      "fzfg": false,
      "metar_trigger": false,
      "taf_trigger": false,
      "metar": "METAR EHBK 172255Z AUTO 24007KT 200V270 9999 FEW024/// SCT027/// OVC036/// 02/01 Q1015",
      "taf": "TAF EHBK 171710Z 1718/1824 27010KT 9999 BKN025"
    },
    {
      "icao": "EHEH",
      "alert": "OK",
      "vis_m": 9999,
      "fzfg": false,
      "metar_trigger": false,
      "taf_trigger": false,
      "metar": "METAR EHEH 172255Z AUTO 27006KT 240V320 9999 OVC033 03/01 Q1015 BLU",
      "taf": "TAF EHEH 171736Z 1718/1824 28010KT 9999 SCT030"
    },
    {
      "icao": "EKBI",
      "alert": "OK",
      "vis_m": 9999,
      "fzfg": false,
      "metar_trigger": false,
      "taf_trigger": false,
      "metar": "METAR EKBI 172250Z AUTO 35005KT 9999 -SN OVC074/// M04/M05 Q1012",
      "taf": "TAF EKBI 172027Z 1721/1821 01005KT 9999 BKN025"
    },
    {
      "icao": "EKCH",
      "alert": "OK",
      "vis_m": 9999,
      "fzfg": false,
      "metar_trigger": false,
      "taf_trigger": false,
      "metar": "METAR EKCH 172250Z AUTO 04008KT 9999 BKN033/// M03/M08 Q1011 NOSIG",
      "taf": "TAF EKCH 172027Z 1721/1821 06010KT 9999 SCT020"
    },
    {
      "icao": "ENAL",
      "alert": "OK",
      "vis_m": 1300,
      "fzfg": false,
      "metar_trigger": false,
      "taf_trigger": false,
      "metar": "METAR ENAL 172250Z AUTO 21011KT 1300 R24/P2000N -SN BKN003/// BKN006/// OVC017/// M01/M02 Q1008",
      "taf": "TAF ENAL 172000Z 1721/1806 26005KT 9999 -SHSN FEW015 SCT035"
    },
    {
      "icao": "ENBR",
      "alert": "OK",
      "vis_m": 9999,
      "fzfg": false,
      "metar_trigger": false,
      "taf_trigger": false,
      "metar": "METAR ENBR 172250Z 10005KT 9999 FEW023 SCT045 M03/M04 Q1011 RMK WIND 1200FT 13009KT",
      "taf": "TAF ENBR 171700Z 1718/1818 VRB05KT 9999 -SHSN FEW010 BKN020"
    },
    {
      "icao": "ENGM",
      "alert": "OK",
      "vis_m": 9999,
      "fzfg": false,
      "metar_trigger": false,
      "taf_trigger": false,
      "metar": "METAR ENGM 172250Z 00000KT 9999 -SN FEW019 SCT032 M10/M11 Q1010",
      "taf": "TAF ENGM 171700Z 1718/1818 20003KT 9999 SCT025"
    },
    {
      "icao": "ENHD",
      "alert": "OK",
      "vis_m": 9999,
      "fzfg": false,
      "metar_trigger": false,
      "taf_trigger": false,
      "metar": "METAR ENHD 172250Z AUTO 15008KT 9999 FEW043/// M04/M05 Q1012",
      "taf": "TAF ENHD 171400Z 1715/1723 15012KT 9999 SCT020 BKN040"
    },
    {
      "icao": "ENTC",
      "alert": "OK",
      "vis_m": 9999,
      "fzfg": false,
      "metar_trigger": false,
      "taf_trigger": false,
      "metar": "METAR ENTC 172250Z AUTO 23011KT 9999 OVC036/// M04/M09 Q1003 RMK WIND 2600FT 14007KT",
      "taf": ""
    },
    {
      "icao": "ENTO",
      "alert": "OK",
      "vis_m": 9999,
      "fzfg": false,
      "metar_trigger": false,
      "taf_trigger": false,
      "metar": "METAR ENTO 172250Z AUTO 00000KT 9999 // NCD M08/M10 Q1011",
      "taf": "TAF ENTO 171700Z 1718/1818 33005KT CAVOK"
    },
    {
      "icao": "ENVA",
      "alert": "OK",
      "vis_m": 9999,
      "fzfg": false,
      "metar_trigger": false,
      "taf_trigger": false,
      "metar": "METAR ENVA 172250Z 20007KT 9999 SCT037 M01/M05 Q1007 RMK WIND 670FT 21012KT",
      "taf": "TAF ENVA 171700Z 1718/1818 12008KT 9999 FEW010 BKN020"
    },
    {
      "icao": "ENZV",
      "alert": "OK",
      "vis_m": 9999,
      "fzfg": false,
      "metar_trigger": false,
      "taf_trigger": false,
      "metar": "METAR ENZV 172250Z 13004KT CAVOK M04/M05 Q1012",
      "taf": ""
    },
    {
      "icao": "EPGD",
      "alert": "OK",
      "vis_m": 4700,
      "fzfg": false,
      "metar_trigger": false,
      "taf_trigger": false,
      "metar": "METAR EPGD 172300Z 24002KT 4700 -SN BR BKN032 M09/M10 Q1007",
      "taf": ""
    },
    {
      "icao": "EPKK",
      "alert": "OK",
      "vis_m": 3500,
      "fzfg": false,
      "metar_trigger": false,
      "taf_trigger": false,
      "metar": "METAR EPKK 172300Z 22003KT 3500 BR FEW010 BKN018 00/M01 Q1008",
      "taf": "TAF EPKK 172030Z 1721/1821 22004KT 1500 BR BKN015"
    },
    {
      "icao": "EPKT",
      "alert": "OK",
      "vis_m": 9000,
      "fzfg": false,
      "metar_trigger": false,
      "taf_trigger": false,
      "metar": "METAR EPKT 172300Z 18002KT 9000 FEW015 OVC021 M00/M02 Q1007",
      "taf": ""
    },
    {
      "icao": "EPLB",
      "alert": "OK",
      "vis_m": 9999,
      "fzfg": false,
      "metar_trigger": false,
      "taf_trigger": false,
      "metar": "METAR EPLB 172300Z 12007KT 9999 -SN SCT032 M05/M08 Q1009",
      "taf": "TAF EPLB 171730Z 1718/1818 11010KT 9999 BKN030"
    },
    {
      "icao": "EPMO",
      "alert": "OK",
      "vis_m": 6000,
      "fzfg": false,
      "metar_trigger": false,
      "taf_trigger": false,
      "metar": "METAR EPMO 172300Z 16003KT 120V200 6000 BKN010 M04/M05 Q1008",
      "taf": "TAF EPMO 171730Z 1718/1818 11010KT 8000 -SN BKN016"
    },
    {
      "icao": "EPPO",
      "alert": "OK",
      "vis_m": 6000,
      "fzfg": false,
      "metar_trigger": false,
      "taf_trigger": false,
      "metar": "METAR EPPO 172300Z 15003KT 6000 -SN BKN035 M03/M06 Q1007",
      "taf": "TAF EPPO 171730Z 1718/1818 VRB02KT 9999 BKN019"
    },
    {
      "icao": "EPRA",
      "alert": "OK",
      "vis_m": 9999,
      "fzfg": false,
      "metar_trigger": false,
      "taf_trigger": false,
      "metar": "METAR EPRA 172300Z 16006KT 9999 -SN OVC011 M02/M04 Q1008",
      "taf": "TAF EPRA 172030Z 1721/1806 15006KT 8000 BKN025"
    },
    {
      "icao": "EPRZ",
      "alert": "OK",
      "vis_m": 5000,
      "fzfg": false,
      "metar_trigger": false,
      "taf_trigger": false,
      "metar": "METAR EPRZ 172300Z 09006KT 5000 BR OVC026 M04/M06 Q1008",
      "taf": "TAF EPRZ 171730Z 1718/1818 06007KT CAVOK"
    },
    {
      "icao": "EPSC",
      "alert": "OK",
      "vis_m": 7000,
      "fzfg": false,
      "metar_trigger": false,
      "taf_trigger": false,
      "metar": "METAR EPSC 172300Z VRB01KT 7000 NSC M06/M08 Q1008",
      "taf": "TAF EPSC 171730Z 1718/1818 12002KT CAVOK"
    },
    {
      "icao": "EPSY",
      "alert": "OK",
      "vis_m": 6000,
      "fzfg": false,
      "metar_trigger": false,
      "taf_trigger": false,
      "metar": "METAR EPSY 172300Z VRB03KT 6000 -SN OVC006 M06/M07 Q1008",
      "taf": "TAF EPSY 172030Z 1721/1806 13005KT 5000 -SN BR BKN008 OVC015"
    },
    {
      "icao": "EPWA",
      "alert": "OK",
      "vis_m": 5000,
      "fzfg": false,
      "metar_trigger": false,
      "taf_trigger": false,
      "metar": "METAR EPWA 172300Z 16005KT 5000 -FZDZ BR OVC007 M04/M04 Q1008 NOSIG",
      "taf": ""
    },
    {
      "icao": "EPWR",
      "alert": "OK",
      "vis_m": 2400,
      "fzfg": false,
      "metar_trigger": false,
      "taf_trigger": false,
      "metar": "METAR EPWR 172300Z 13007KT 2400 -SN BR FEW008 BKN012 00/M01 Q1007",
      "taf": "TAF EPWR 172030Z 1721/1821 15004KT 6000 BKN012"
    },
    {
      "icao": "ESGG",
      "alert": "OK",
      "vis_m": 9999,
      "fzfg": false,
      "metar_trigger": false,
      "taf_trigger": false,
      "metar": "METAR ESGG 172250Z 13005KT CAVOK M09/M13 Q1010",
      "taf": "TAF ESGG 172030Z 1721/1821 05004KT CAVOK"
    },
    {
      "icao": "ESKN",
      "alert": "OK",
      "vis_m": 9999,
      "fzfg": false,
      "metar_trigger": false,
      "taf_trigger": false,
      "metar": "METAR ESKN 172250Z 02006KT 9999 OVC031 M07/M11 Q1012",
      "taf": "TAF ESKN 172030Z 1721/1821 09004KT CAVOK"
    },
    {
      "icao": "ESMS",
      "alert": "OK",
      "vis_m": 9999,
      "fzfg": false,
      "metar_trigger": false,
      "taf_trigger": false,
      "metar": "METAR ESMS 172250Z 34006KT 9999 BKN033 M07/M10 Q1009",
      "taf": "TAF ESMS 172027Z 1721/1821 34005KT 9999 SCT020"
    },
    {
      "icao": "ESSA",
      "alert": "OK",
      "vis_m": 9999,
      "fzfg": false,
      "metar_trigger": false,
      "taf_trigger": false,
      "metar": "METAR ESSA 172250Z 11005KT CAVOK M09/M13 Q1013 NOSIG",
      "taf": "TAF ESSA 172030Z 1721/1821 12004KT CAVOK"
    },
    {
      "icao": "EYKA",
      "alert": "OK",
      "vis_m": 9999,
      "fzfg": false,
      "metar_trigger": false,
      "taf_trigger": false,
      "metar": "METAR EYKA 172250Z 11009KT 080V150 CAVOK M08/M15 Q1012",
      "taf": "TAF EYKA 172301Z 1800/1824 VRB05KT 8000 NSC"
    },
    {
      "icao": "EYPA",
      "alert": "OK",
      "vis_m": 6000,
      "fzfg": false,
      "metar_trigger": false,
      "taf_trigger": false,
      "metar": "METAR EYPA 172250Z 11009KT 6000 -SN FEW043 M09/M14 Q1011",
      "taf": "TAF EYPA 172301Z 1800/1824 VRB05KT 5000 SN SCT010 BKN020"
    },
    {
      "icao": "EYVI",
      "alert": "OK",
      "vis_m": 9999,
      "fzfg": false,
      "metar_trigger": false,
      "taf_trigger": false,
      "metar": "METAR EYVI 172250Z 12008KT CAVOK M10/M16 Q1013 NOSIG",
      "taf": "TAF EYVI 172301Z 1800/1824 VRB05KT 8000 NSC"
    },
    {
      "icao": "GCFV",
      "alert": "OK",
      "vis_m": 9999,
      "fzfg": false,
      "metar_trigger": false,
      "taf_trigger": false,
      "metar": "METAR GCFV 172300Z 33005KT 9999 FEW020 16/13 Q1024",
      "taf": "TAF GCFV 172000Z 1721/1821 35007KT 9999 FEW020 TX20/1814Z TN14/1806Z"
    },
    {
      "icao": "GCLP",
      "alert": "OK",
      "vis_m": 9999,
      "fzfg": false,
      "metar_trigger": false,
      "taf_trigger": false,
      "metar": "METAR GCLP 172300Z 01014KT 9999 FEW020 17/14 Q1023 NOSIG",
      "taf": "TAF GCLP 172000Z 1721/1821 36013KT 9999 FEW020 TX20/1814Z TN14/1806Z"
    },
    {
      "icao": "GCTS",
      "alert": "OK",
      "vis_m": 9999,
      "fzfg": false,
      "metar_trigger": false,
      "taf_trigger": false,
      "metar": "METAR GCTS 172300Z 06010KT CAVOK 17/13 Q1023 NOSIG",
      "taf": "TAF GCTS 172000Z 1721/1821 04007KT CAVOK TX23/1814Z TN14/1806Z"
    },
    {
      "icao": "GMAD",
      "alert": "OK",
      "vis_m": 9999,
      "fzfg": false,
      "metar_trigger": false,
      "taf_trigger": false,
      "metar": "METAR GMAD 172300Z 02005KT CAVOK 09/07 Q1023 NOSIG",
      "taf": "TAF GMAD 171700Z 1718/1824 26008KT CAVOK"
    },
    {
      "icao": "GMMN",
      "alert": "OK",
      "vis_m": 2000,
      "fzfg": false,
      "metar_trigger": false,
      "taf_trigger": false,
      "metar": "METAR GMMN 172300Z 04006KT 2000 BR BKN003 13/12 Q1023 NOSIG",
      "taf": "TAF GMMN 171700Z 1718/1824 01007KT CAVOK"
    },
    {
      "icao": "GMMX",
      "alert": "OK",
      "vis_m": 9999,
      "fzfg": false,
      "metar_trigger": false,
      "taf_trigger": false,
      "metar": "METAR GMMX 172300Z 25005KT CAVOK 14/10 Q1023 NOSIG",
      "taf": "TAF GMMX 171700Z 1718/1824 12006KT 8000 NSC"
    },
    {
      "icao": "HEGN",
      "alert": "OK",
      "vis_m": 9999,
      "fzfg": false,
      "metar_trigger": false,
      "taf_trigger": false,
      "metar": "METAR HEGN 172300Z 30010KT CAVOK 17/05 Q1014 NOSIG",
      "taf": "TAF HEGN 172300Z 1800/1906 30015KT CAVOK"
    },
    {
      "icao": "HEMA",
      "alert": "OK",
      "vis_m": 9999,
      "fzfg": false,
      "metar_trigger": false,
      "taf_trigger": false,
      "metar": "METAR HEMA 172300Z 29007KT CAVOK 20/15 Q1013 NOSIG",
      "taf": "TAF HEMA 172300Z 1800/1906 29015KT CAVOK"
    },
    {
      "icao": "HESH",
      "alert": "OK",
      "vis_m": 9999,
      "fzfg": false,
      "metar_trigger": false,
      "taf_trigger": false,
      "metar": "METAR HESH 172300Z 34010KT CAVOK 21/14 Q1013 NOSIG",
      "taf": "TAF HESH 172300Z 1800/1906 35014KT CAVOK"
    },
    {
      "icao": "HESX",
      "alert": "OK",
      "vis_m": 9999,
      "fzfg": false,
      "metar_trigger": false,
      "taf_trigger": false,
      "metar": "METAR HESX 172300Z 20006KT CAVOK 13/01 Q1015 NOSIG",
      "taf": "TAF HESX 172300Z 1800/1906 23008KT CAVOK"
    },
    {
      "icao": "LATI",
      "alert": "OK",
      "vis_m": 9999,
      "fzfg": false,
      "metar_trigger": false,
      "taf_trigger": false,
      "metar": "METAR LATI 172250Z 32009KT CAVOK 06/00 Q1005 NOSIG",
      "taf": "TAF LATI 172300Z 1800/1824 VRB05KT CAVOK TX14/1812Z TN02/1805Z"
    },
    {
      "icao": "LBPD",
      "alert": "OK",
      "vis_m": 9999,
      "fzfg": false,
      "metar_trigger": false,
      "taf_trigger": false,
      "metar": "METAR LBPD 172300Z AUTO 28025KT 9999 -RA OVC018/// 03/02 Q0996",
      "taf": "TAF LBPD 171700Z 1718/1818 28016KT 5000 RA BKN008 OVC013"
    },
    {
      "icao": "LBSF",
      "alert": "OK",
      "vis_m": 5000,
      "fzfg": false,
      "metar_trigger": false,
      "taf_trigger": false,
      "metar": "METAR LBSF 172300Z AUTO 31009KT 5000 -SN SCT004/// BKN011/// OVC039/// M00/M01 Q1000 NOSIG",
      "taf": "TAF LBSF 171700Z 1718/1818 30014KT 3000 SN SCT005 BKN008 OVC015"
    },
    {
      "icao": "LBWN",
      "alert": "OK",
      "vis_m": 9999,
      "fzfg": false,
      "metar_trigger": false,
      "taf_trigger": false,
      "metar": "METAR LBWN 172300Z AUTO 06009KT 9999 -RA OVC013/// 08/08 Q0992 NOSIG",
      "taf": "TAF LBWN 171700Z 1718/1818 04016G26KT 7000 RA SCT005 BKN015 OVC025"
    },
    {
      "icao": "LCLK",
      "alert": "OK",
      "vis_m": 9999,
      "fzfg": false,
      "metar_trigger": false,
      "taf_trigger": false,
      "metar": "METAR LCLK 172300Z 21016KT 9999 FEW025 SCT035 17/14 Q1009 NOSIG",
      "taf": "TAF LCLK 171730Z 1718/1818 22017KT 9999 FEW025 FEW030TCU"
    },
    {
      "icao": "LCPH",
      "alert": "OK",
      "vis_m": 8000,
      "fzfg": false,
      "metar_trigger": false,
      "taf_trigger": false,
      "metar": "METAR LCPH 172300Z 22013KT 170V240 8000 SCT020 FEW025TCU BKN035 17/13 Q1009 BECMG 5000 DU",
      "taf": "TAF LCPH 171730Z 1718/1818 22014KT 9999 FEW020 FEW030TCU"
    },
    {
      "icao": "LEAL",
      "alert": "OK",
      "vis_m": 9999,
      "fzfg": false,
      "metar_trigger": false,
      "taf_trigger": false,
      "metar": "METAR LEAL 172300Z 28011KT CAVOK 17/09 Q1020 NOSIG",
      "taf": "TAF LEAL 171700Z 1718/1818 29015KT CAVOK TX21/1813Z TN12/1806Z"
    },
    {
      "icao": "LEBB",
      "alert": "OK",
      "vis_m": 9999,
      "fzfg": false,
      "metar_trigger": false,
      "taf_trigger": false,
      "metar": "METAR LEBB 172300Z AUTO 11003KT CAVOK 10/09 Q1018",
      "taf": "TAF LEBB 171700Z 1718/1818 14005KT 9999 SCT040 TX16/1814Z TN08/1804Z"
    },
    {
      "icao": "LEBL",
      "alert": "OK",
      "vis_m": 7000,
      "fzfg": false,
      "metar_trigger": false,
      "taf_trigger": false,
      "metar": "METAR LEBL 172300Z 06006KT 7000 BKN011 BKN020 12/11 Q1019 BECMG 3000 BR BKN010",
      "taf": ""
    },
    {
      "icao": "LECH",
      "alert": "OK",
      "vis_m": 9999,
      "fzfg": false,
      "metar_trigger": false,
      "taf_trigger": false,
      "metar": "METAR LECH 172300Z AUTO VRB02KT CAVOK 12/07 Q1019",
      "taf": ""
    },
    {
      "icao": "LEMD",
      "alert": "OK",
      "vis_m": 9999,
      "fzfg": false,
      "metar_trigger": false,
      "taf_trigger": false,
      "metar": "METAR LEMD 172300Z 16003KT 130V190 CAVOK 07/07 Q1021 NOSIG",
      "taf": "TAF LEMD 171700Z 1718/1824 VRB04KT 9999 SCT025 TX12/1815Z TN07/1805Z"
    },
    {
      "icao": "LEMG",
      "alert": "OK",
      "vis_m": 9999,
      "fzfg": false,
      "metar_trigger": false,
      "taf_trigger": false,
      "metar": "METAR LEMG 172300Z 28011KT 240V300 CAVOK 16/09 Q1021 NOSIG",
      "taf": "TAF LEMG 171700Z 1718/1818 VRB02KT CAVOK TX23/1814Z TN11/1807Z"
    },
    {
      "icao": "LEVC",
      "alert": "OK",
      "vis_m": 9999,
      "fzfg": false,
      "metar_trigger": false,
      "taf_trigger": false,
      "metar": "METAR LEVC 172300Z 23006KT CAVOK 16/09 Q1019 NOSIG",
      "taf": "TAF LEVC 171700Z 1718/1818 27012KT 9999 FEW050 TX22/1814Z TN12/1806Z"
    },
    {
      "icao": "LEXJ",
      "alert": "OK",
      "vis_m": 9999,
      "fzfg": false,
      "metar_trigger": false,
      "taf_trigger": false,
      "metar": "METAR LEXJ 172300Z AUTO 00000KT CAVOK 09/08 Q1018",
      "taf": "TAF LEXJ 172000Z 1721/1821 22009KT 9999 BKN030 TX17/1813Z TN10/1804Z"
    },
    {
      "icao": "LEZG",
      "alert": "OK",
      "vis_m": 9999,
      "fzfg": false,
      "metar_trigger": false,
      "taf_trigger": false,
      "metar": "METAR LEZG 172300Z VRB01KT 9999 FEW060 09/09 Q1019 NOSIG",
      "taf": "TAF LEZG 171700Z 1718/1818 VRB04KT 9999 FEW025 TX18/1814Z TN07/1806Z"
    },
    {
      "icao": "LEZL",
      "alert": "OK",
      "vis_m": 9999,
      "fzfg": false,
      "metar_trigger": false,
      "taf_trigger": false,
      "metar": "METAR LEZL 172300Z 00000KT CAVOK 12/11 Q1023 NOSIG",
      "taf": "TAF LEZL 172000Z 1721/1821 VRB02KT CAVOK TX21/1815Z TN12/1807Z"
    },
    {
      "icao": "LFBD",
      "alert": "OK",
      "vis_m": 9999,
      "fzfg": false,
      "metar_trigger": false,
      "taf_trigger": false,
      "metar": "METAR LFBD 172300Z AUTO 21008KT 9999 SCT006 BKN015 BKN030 11/10 Q1017 TEMPO 2000 RADZ OVC005",
      "taf": ""
    },
    {
      "icao": "LFLL",
      "alert": "OK",
      "vis_m": 9999,
      "fzfg": false,
      "metar_trigger": false,
      "taf_trigger": false,
      "metar": "METAR LFLL 172300Z 14006KT 9999 -RA BKN040 07/06 Q1018 NOSIG",
      "taf": "TAF LFLL 171700Z 1718/1824 VRB03KT 9999 BKN040"
    },
    {
      "icao": "LFLS",
      "alert": "OK",
      "vis_m": 9999,
      "fzfg": false,
      "metar_trigger": false,
      "taf_trigger": false,
      "metar": "METAR LFLS 172300Z AUTO 07004KT 9999 FEW038 BKN050 BKN060 04/03 Q1018",
      "taf": "TAF LFLS 171400Z 1715/1815 VRB03KT 9999 BKN030"
    },
    {
      "icao": "LFMN",
      "alert": "OK",
      "vis_m": 9999,
      "fzfg": false,
      "metar_trigger": false,
      "taf_trigger": false,
      "metar": "METAR LFMN 172300Z 33011KT CAVOK 13/M04 Q1011 NOSIG",
      "taf": "TAF LFMN 172000Z 1721/1903 33012KT CAVOK"
    },
    {
      "icao": "LFOB",
      "alert": "OK",
      "vis_m": 9999,
      "fzfg": false,
      "metar_trigger": false,
      "taf_trigger": false,
      "metar": "METAR LFOB 172300Z AUTO 12003KT CAVOK 02/01 Q1015 NOSIG",
      "taf": "TAF LFOB 171700Z 1718/1818 30008KT CAVOK"
    },
    {
      "icao": "LFPO",
      "alert": "OK",
      "vis_m": 9999,
      "fzfg": false,
      "metar_trigger": false,
      "taf_trigger": false,
      "metar": "METAR LFPO 172300Z 13005KT 9999 BKN040 04/M01 Q1015 NOSIG",
      "taf": "TAF LFPO 171700Z 1718/1824 VRB03KT 9999 FEW040"
    },
    {
      "icao": "LFSB",
      "alert": "OK",
      "vis_m": 9999,
      "fzfg": false,
      "metar_trigger": false,
      "taf_trigger": false,
      "metar": "METAR LFSB 172300Z AUTO 22003KT 9999 BKN052 02/M01 Q1018 NOSIG",
      "taf": ""
    },
    {
      "icao": "LGAV",
      "alert": "OK",
      "vis_m": 9999,
      "fzfg": false,
      "metar_trigger": false,
      "taf_trigger": false,
      "metar": "METAR LGAV 172250Z 27019KT 9999 FEW025 SCT070 11/02 Q0996 NOSIG",
      "taf": "TAF LGAV 172300Z 1800/1824 30015KT 9999 SCT020 SCT070"
    },
    {
      "icao": "LGTS",
      "alert": "OK",
      "vis_m": null,
      "fzfg": false,
      "metar_trigger": false,
      "taf_trigger": false,
      "metar": "",
      "taf": "TAF LGTS 172300Z 1800/1824 34025G35KT 9999 FEW012 BKN030"
    },
    {
      "icao": "LHBP",
      "alert": "OK",
      "vis_m": 9999,
      "fzfg": false,
      "metar_trigger": false,
      "taf_trigger": false,
      "metar": "METAR LHBP 172300Z 31006KT CAVOK 00/M02 Q1008 NOSIG",
      "taf": "TAF LHBP 171715Z 1718/1818 31008KT CAVOK"
    },
    {
      "icao": "LHDC",
      "alert": "OK",
      "vis_m": 9999,
      "fzfg": false,
      "metar_trigger": false,
      "taf_trigger": false,
      "metar": "METAR LHDC 172245Z AUTO 30005KT CAVOK M01/M02 Q1006",
      "taf": "TAF LHDC 171415Z 1715/1724 36008KT 9999 FEW025"
    },
    {
      "icao": "LIBD",
      "alert": "OK",
      "vis_m": 9999,
      "fzfg": false,
      "metar_trigger": false,
      "taf_trigger": false,
      "metar": "METAR LIBD 172250Z 30011KT 270V330 9999 RA BKN035 09/04 Q1010",
      "taf": "TAF LIBD 171700Z 1718/1818 32015KT 9999 SCT030"
    },
    {
      "icao": "LIBG",
      "alert": "OK",
      "vis_m": null,
      "fzfg": false,
      "metar_trigger": false,
      "taf_trigger": false,
      "metar": "",
      "taf": "TAF LIBG 171700Z 1718/1803 32016KT 9999 SCT030"
    },
    {
      "icao": "LIBP",
      "alert": "OK",
      "vis_m": 9999,
      "fzfg": false,
      "metar_trigger": false,
      "taf_trigger": false,
      "metar": "METAR LIBP 172250Z AUTO 25004KT 9999 NCD 03/00 Q1012",
      "taf": "TAF LIBP 171700Z 1718/1818 24006KT CAVOK"
    },
    {
      "icao": "LIBR",
      "alert": "OK",
      "vis_m": 9999,
      "fzfg": false,
      "metar_trigger": false,
      "taf_trigger": false,
      "metar": "METAR LIBR 172250Z 34019G29KT CAVOK 12/01 Q1008",
      "taf": "TAF LIBR 171700Z 1718/1818 32018G28KT 9999 SCT030"
    },
    {
      "icao": "LICA",
      "alert": "OK",
      "vis_m": 9999,
      "fzfg": false,
      "metar_trigger": false,
      "taf_trigger": false,
      "metar": "METAR LICA 172250Z AUTO 26005KT 9999 NCD 11/05 Q1011",
      "taf": "TAF LICA 171700Z 1718/1818 29020G30KT 9999 SCT020"
    },
    {
      "icao": "LICC",
      "alert": "OK",
      "vis_m": 9999,
      "fzfg": false,
      "metar_trigger": false,
      "taf_trigger": false,
      "metar": "METAR LICC 172250Z 25013KT CAVOK 11/06 Q1014",
      "taf": "TAF LICC 171700Z 1718/1818 28013KT 9999 FEW040"
    },
    {
      "icao": "LICJ",
      "alert": "OK",
      "vis_m": 9999,
      "fzfg": false,
      "metar_trigger": false,
      "taf_trigger": false,
      "metar": "METAR LICJ 172250Z 30016KT 9999 FEW025 14/08 Q1016",
      "taf": "TAF LICJ 171700Z 1718/1818 31016G26KT 9999 SCT025"
    },
    {
      "icao": "LIMC",
      "alert": "OK",
      "vis_m": 9999,
      "fzfg": false,
      "metar_trigger": false,
      "taf_trigger": false,
      "metar": "METAR LIMC 172250Z 01006KT CAVOK 03/M03 Q1011 NOSIG",
      "taf": "TAF LIMC 171700Z 1718/1824 01006KT CAVOK"
    },
    {
      "icao": "LIME",
      "alert": "OK",
      "vis_m": 9999,
      "fzfg": false,
      "metar_trigger": false,
      "taf_trigger": false,
      "metar": "METAR LIME 172250Z AUTO 36009KT 9999 NCD 08/M06 Q1010",
      "taf": "TAF LIME 171700Z 1718/1818 33008KT CAVOK"
    },
    {
      "icao": "LIMF",
      "alert": "OK",
      "vis_m": 9999,
      "fzfg": false,
      "metar_trigger": false,
      "taf_trigger": false,
      "metar": "METAR LIMF 172250Z 25003KT 210V310 CAVOK 05/M07 Q1011",
      "taf": "TAF LIMF 171700Z 1718/1818 30007KT CAVOK"
    },
    {
      "icao": "LIMJ",
      "alert": "OK",
      "vis_m": 9999,
      "fzfg": false,
      "metar_trigger": false,
      "taf_trigger": false,
      "metar": "METAR LIMJ 172250Z 04009KT CAVOK 12/M07 Q1011",
      "taf": "TAF LIMJ 171700Z 1718/1818 02008KT CAVOK"
    },
    {
      "icao": "LIPE",
      "alert": "OK",
      "vis_m": 9999,
      "fzfg": false,
      "metar_trigger": false,
      "taf_trigger": false,
      "metar": "METAR LIPE 172250Z 22005KT CAVOK 06/M02 Q1010",
      "taf": "TAF LIPE 171700Z 1718/1818 30010KT CAVOK"
    },
    {
      "icao": "LIPH",
      "alert": "OK",
      "vis_m": 9999,
      "fzfg": false,
      "metar_trigger": false,
      "taf_trigger": false,
      "metar": "METAR LIPH 172250Z AUTO 03003KT 340V080 9999 NCD 05/M05 Q1010",
      "taf": "TAF LIPH 171700Z 1718/1818 VRB06KT CAVOK"
    },
    {
      "icao": "LIPQ",
      "alert": "OK",
      "vis_m": 9999,
      "fzfg": false,
      "metar_trigger": false,
      "taf_trigger": false,
      "metar": "METAR LIPQ 172250Z AUTO 04004KT 9999 NCD 02/01 Q1010",
      "taf": "TAF LIPQ 171700Z 1718/1818 VRB05KT CAVOK"
    },
    {
      "icao": "LIPR",
      "alert": "OK",
      "vis_m": 9999,
      "fzfg": false,
      "metar_trigger": false,
      "taf_trigger": false,
      "metar": "METAR LIPR 172250Z AUTO 25004KT 9999 NCD 05/M03 Q1010",
      "taf": "TAF LIPR 171700Z 1718/1818 31010KT CAVOK"
    },
    {
      "icao": "LIPX",
      "alert": "OK",
      "vis_m": 9999,
      "fzfg": false,
      "metar_trigger": false,
      "taf_trigger": false,
      "metar": "METAR LIPX 172250Z 30007KT CAVOK 06/M04 Q1010",
      "taf": "TAF LIPX 171700Z 1718/1818 28012KT CAVOK"
    },
    {
      "icao": "LIPY",
      "alert": "OK",
      "vis_m": 9999,
      "fzfg": false,
      "metar_trigger": false,
      "taf_trigger": false,
      "metar": "METAR LIPY 172250Z AUTO 18004KT 9999 NCD 06/M00 Q1011",
      "taf": "TAF LIPY 171700Z 1718/1818 VRB05KT CAVOK"
    },
    {
      "icao": "LIPZ",
      "alert": "OK",
      "vis_m": 9999,
      "fzfg": false,
      "metar_trigger": false,
      "taf_trigger": false,
      "metar": "METAR LIPZ 172250Z 32005KT CAVOK 06/M02 Q1010 NOSIG",
      "taf": "TAF LIPZ 171700Z 1718/1824 VRB06KT CAVOK"
    },
    {
      "icao": "LIRF",
      "alert": "OK",
      "vis_m": 9999,
      "fzfg": false,
      "metar_trigger": false,
      "taf_trigger": false,
      "metar": "METAR LIRF 172250Z 02005KT CAVOK 09/05 Q1013 NOSIG",
      "taf": "TAF LIRF 171700Z 1718/1824 30018G28KT 9999 FEW040"
    },
    {
      "icao": "LIRN",
      "alert": "OK",
      "vis_m": 9999,
      "fzfg": false,
      "metar_trigger": false,
      "taf_trigger": false,
      "metar": "METAR LIRN 172250Z 04003KT CAVOK 06/01 Q1012 NOSIG",
      "taf": "TAF LIRN 171700Z 1718/1818 VRB05KT 9999 FEW040"
    },
    {
      "icao": "LIRP",
      "alert": "OK",
      "vis_m": 9999,
      "fzfg": false,
      "metar_trigger": false,
      "taf_trigger": false,
      "metar": "METAR LIRP 172245Z 20007KT CAVOK 08/08 Q1011 NOSIG",
      "taf": "TAF LIRP 171700Z 1718/1818 29013KT CAVOK"
    },
    {
      "icao": "LIRZ",
      "alert": "OK",
      "vis_m": 9999,
      "fzfg": false,
      "metar_trigger": false,
      "taf_trigger": false,
      "metar": "METAR LIRZ 172250Z AUTO 03004KT 9999 NCD 01/M01 Q1012",
      "taf": "TAF LIRZ 171700Z 1718/1818 VRB05KT CAVOK"
    },
    {
      "icao": "LJLJ",
      "alert": "OK",
      "vis_m": 9999,
      "fzfg": false,
      "metar_trigger": false,
      "taf_trigger": false,
      "metar": "METAR LJLJ 172300Z 26004KT 240V300 CAVOK M02/M03 Q1011 NOSIG",
      "taf": "TAF LJLJ 172300Z 1800/1900 30003KT CAVOK"
    },
    {
      "icao": "LKMT",
      "alert": "OK",
      "vis_m": 6000,
      "fzfg": false,
      "metar_trigger": false,
      "taf_trigger": false,
      "metar": "METAR LKMT 172300Z 24005KT 6000 FEW026 M01/M02 Q1008 NOSIG",
      "taf": "TAF LKMT 171700Z 1718/1818 22008KT 5000 BR SCT016 BKN030"
    },
    {
      "icao": "LKPR",
      "alert": "OK",
      "vis_m": 9999,
      "fzfg": false,
      "metar_trigger": false,
      "taf_trigger": false,
      "metar": "METAR LKPR 172300Z 24008KT 9999 BKN046 01/00 Q1008 NOSIG",
      "taf": "TAF LKPR 172000Z 1721/1903 26010KT 9999 BKN025"
    },
    {
      "icao": "LLBG",
      "alert": "OK",
      "vis_m": 9999,
      "fzfg": false,
      "metar_trigger": false,
      "taf_trigger": false,
      "metar": "METAR LLBG 172250Z VRB02KT CAVOK 14/07 Q1014 NOSIG",
      "taf": "TAF LLBG 172305Z 1800/1824 16010KT CAVOK"
    },
    {
      "icao": "LMML",
      "alert": "OK",
      "vis_m": 9999,
      "fzfg": false,
      "metar_trigger": false,
      "taf_trigger": false,
      "metar": "METAR LMML 172245Z 30015KT 9999 FEW031 13/07 Q1016 NOSIG",
      "taf": "TAF LMML 172300Z 1800/1824 30016KT 9999 FEW025"
    },
    {
      "icao": "LOWW",
      "alert": "OK",
      "vis_m": 9999,
      "fzfg": false,
      "metar_trigger": false,
      "taf_trigger": false,
      "metar": "METAR LOWW 172250Z 30016KT 9999 FEW044 04/00 Q1010 NOSIG",
      "taf": "TAF LOWW 172015Z 1721/1903 29010KT 9999 SCT040 TX06/1812Z TNM02/1902Z"
    },
    {
      "icao": "LPFR",
      "alert": "OK",
      "vis_m": 9999,
      "fzfg": false,
      "metar_trigger": false,
      "taf_trigger": false,
      "metar": "METAR LPFR 172300Z 32005KT 9999 FEW012 BKN020 13/12 Q1024",
      "taf": "TAF LPFR 171700Z 1718/1818 22007KT 9999 BKN015"
    },
    {
      "icao": "LPMA",
      "alert": "OK",
      "vis_m": 9999,
      "fzfg": false,
      "metar_trigger": false,
      "taf_trigger": false,
      "metar": "METAR LPMA 172300Z 29004KT 9999 SCT014 14/11 Q1026",
      "taf": ""
    },
    {
      "icao": "LPPR",
      "alert": "OK",
      "vis_m": 9999,
      "fzfg": false,
      "metar_trigger": false,
      "taf_trigger": false,
      "metar": "METAR LPPR 172300Z 20006KT 9999 SCT003 BKN012 BKN020 11/11 Q1022",
      "taf": "TAF LPPR 171700Z 1718/1818 21008KT 9999 SCT008 BKN020"
    },
    {
      "icao": "LPPS",
      "alert": "OK",
      "vis_m": 9999,
      "fzfg": false,
      "metar_trigger": false,
      "taf_trigger": false,
      "metar": "METAR LPPS 172300Z 00000KT 9999 FEW015 SCT030 14/11 Q1026",
      "taf": "TAF LPPS 171700Z 1718/1824 VRB05KT 9999 SCT015"
    },
    {
      "icao": "LPPT",
      "alert": "OK",
      "vis_m": 9999,
      "fzfg": false,
      "metar_trigger": false,
      "taf_trigger": false,
      "metar": "METAR LPPT 172300Z 24005KT 190V300 9999 BKN021 12/09 Q1024",
      "taf": "TAF LPPT 171700Z 1718/1824 24007KT 9999 BKN020"
    },
    {
      "icao": "LQBK",
      "alert": "OK",
      "vis_m": 9999,
      "fzfg": false,
      "metar_trigger": false,
      "taf_trigger": false,
      "metar": "METAR LQBK 172300Z VRB04KT CAVOK M00/M01 Q1011 NOSIG",
      "taf": "TAF LQBK 172300Z 1800/1824 19005KT CAVOK TX09/1813Z TNM02/1805Z"
    },
    {
      "icao": "LQSA",
      "alert": "OK",
      "vis_m": 9999,
      "fzfg": false,
      "metar_trigger": false,
      "taf_trigger": false,
      "metar": "METAR LQSA 172300Z 36003KT 9999 SCT035 BKN050 01/01 Q1009",
      "taf": "TAF LQSA 172300Z 1800/1824 35006KT 9999 BKN030 TX06/1813Z TNM02/1805Z"
    },
    {
      "icao": "LQTZ",
      "alert": "OK",
      "vis_m": 9999,
      "fzfg": false,
      "metar_trigger": false,
      "taf_trigger": false,
      "metar": "METAR LQTZ 172300Z 30004KT 9999 BKN030 02/02 Q1010",
      "taf": "TAF LQTZ 172300Z 1800/1824 28005KT 9999 SCT035 TX09/1814Z TNM02/1805Z"
    },
    {
      "icao": "LRBC",
      "alert": "OK",
      "vis_m": 4800,
      "fzfg": false,
      "metar_trigger": false,
      "taf_trigger": false,
      "metar": "METAR LRBC 172300Z 35012KT 4800 -SN BR BKN006 OVC031 M03/M04 Q1006",
      "taf": "TAF LRBC 172000Z 1721/1806 35010KT 2000 SN BKN005 OVC015"
    },
    {
      "icao": "LRBS",
      "alert": "OK",
      "vis_m": 300,
      "fzfg": false,
      "metar_trigger": false,
      "taf_trigger": false,
      "metar": "METAR LRBS 172300Z 02011KT 340V060 0300 R07/1000N +SN BLSN BKN002 OVC005 M01/M01 Q1001 NOSIG",
      "taf": "TAF LRBS 171700Z 1718/1818 08015G25KT 5000 -PL BR OVC005"
    },
    {
      "icao": "LRBV",
      "alert": "OK",
      "vis_m": 1700,
      "fzfg": false,
      "metar_trigger": false,
      "taf_trigger": false,
      "metar": "METAR LRBV 172300Z AUTO 12004KT 080V140 1700 SG VV009 M02/M03 Q1002",
      "taf": "TAF LRBV 172000Z 1721/1806 VRB04KT 3000 SN OVC010"
    },
    {
      "icao": "LRCL",
      "alert": "OK",
      "vis_m": 3000,
      "fzfg": false,
      "metar_trigger": false,
      "taf_trigger": false,
      "metar": "METAR LRCL 172300Z 25003KT 3000 -SN BR SCT009 OVC016 00/M00 Q1004",
      "taf": "TAF LRCL 172000Z 1721/1806 VRB04KT 5000 -RASN BKN010 OVC025"
    },
    {
      "icao": "LRCV",
      "alert": "OK",
      "vis_m": 8000,
      "fzfg": false,
      "metar_trigger": false,
      "taf_trigger": false,
      "metar": "METAR LRCV 172300Z 25009KT 8000 -RA FEW002 OVC022 01/01 Q1001",
      "taf": "TAF LRCV 172000Z 1721/1806 30006KT 1500 -SN BR BKN010 OVC020"
    },
    {
      "icao": "LRIA",
      "alert": "OK",
      "vis_m": 3800,
      "fzfg": false,
      "metar_trigger": false,
      "taf_trigger": false,
      "metar": "METAR LRIA 172300Z 34010KT 3800 -SN SCT008 OVC027 M04/M05 Q1007",
      "taf": "TAF LRIA 172000Z 1721/1806 02010KT 7000 -SN OVC030"
    },
    {
      "icao": "LROP",
      "alert": "OK",
      "vis_m": 600,
      "fzfg": false,
      "metar_trigger": false,
      "taf_trigger": false,
      "metar": "METAR LROP 172300Z 03014KT 0600 R08R/0750N +SN BLSN BKN002 OVC003 M00/M00 Q1001 NOSIG",
      "taf": "TAF LROP 171700Z 1718/1818 08025KT 5000 -PL BR OVC005"
    },
    {
      "icao": "LRSB",
      "alert": "OK",
      "vis_m": 2500,
      "fzfg": false,
      "metar_trigger": false,
      "taf_trigger": false,
      "metar": "METAR LRSB 172300Z 31005KT 2500 -SN BR BKN002 OVC010 00/00 Q1003",
      "taf": "TAF LRSB 171700Z 1718/1818 VRB04KT 1500 SN OVC005"
    },
    {
      "icao": "LRSM",
      "alert": "OK",
      "vis_m": 9000,
      "fzfg": false,
      "metar_trigger": false,
      "taf_trigger": false,
      "metar": "METAR LRSM 172300Z AUTO 23004KT 9000 BKN150/// M01/M02 Q1005",
      "taf": "TAF LRSM 171400Z 1715/1724 01005KT 9999 SCT045"
    },
    {
      "icao": "LRSV",
      "alert": "OK",
      "vis_m": 4000,
      "fzfg": false,
      "metar_trigger": false,
      "taf_trigger": false,
      "metar": "METAR LRSV 172300Z COR 36008KT 4000 -SN BR SCT004 BKN030 M06/M07 Q1006",
      "taf": "TAF LRSV 172000Z 1721/1806 03008KT 3000 -SN BKN002 OVC010"
    },
    {
      "icao": "LRTM",
      "alert": "OK",
      "vis_m": 2800,
      "fzfg": false,
      "metar_trigger": false,
      "taf_trigger": false,
      "metar": "METAR LRTM 172300Z AUTO 24003KT 2800 -SN BR SCT004/// BKN006/// OVC011/// 00/M00 Q1004",
      "taf": "TAF LRTM 171400Z 1715/1724 VRB04KT 9999 BKN015 BKN040"
    },
    {
      "icao": "LRTR",
      "alert": "OK",
      "vis_m": 9000,
      "fzfg": false,
      "metar_trigger": false,
      "taf_trigger": false,
      "metar": "METAR LRTR 172300Z 32009KT 9000 OVC025 03/02 Q1006",
      "taf": "TAF LRTR 171700Z 1718/1818 33012KT 9999 SCT015 OVC020"
    },
    {
      "icao": "LTAC",
      "alert": "OK",
      "vis_m": 9999,
      "fzfg": false,
      "metar_trigger": false,
      "taf_trigger": false,
      "metar": "METAR LTAC 172250Z 19013KT 9999 SCT040 BKN100 09/03 Q0999 NOSIG RMK RWY21C 17016KT RWY03L 19011KT RWY21R 17016G26KT RWY03R 16018KT RWY21L 16018KT",
      "taf": "TAF LTAC 172240Z 1800/1824 20012KT 9999 -SHRA SCT010 BKN030 BKN080"
    },
    {
      "icao": "LTFM",
      "alert": "OK",
      "vis_m": 9999,
      "fzfg": false,
      "metar_trigger": false,
      "taf_trigger": false,
      "metar": "METAR LTFM 172250Z 14006KT 9999 -SHRA BKN035 BKN080 12/09 Q0990 NOSIG RMK RWY17L 12005KT 080V250 RWY34L 14004KT RWY16R 12005KT RWY36 15008KT 120V190 RWY18 13005KT",
      "taf": "TAF LTFM 172240Z 1800/1906 18015G25KT 9999 -SHRA BKN035 BKN080"
    },
    {
      "icao": "LUKK",
      "alert": "OK",
      "vis_m": 9999,
      "fzfg": false,
      "metar_trigger": false,
      "taf_trigger": false,
      "metar": "METAR LUKK 172300Z 03012KT 350V050 9999 BKN012 BKN023 OVC042 M04/M06 Q1005 NOSIG",
      "taf": "TAF LUKK 171728Z 1718/1818 04012KT 9999 OVC010"
    },
    {
      "icao": "LWOH",
      "alert": "OK",
      "vis_m": null,
      "fzfg": false,
      "metar_trigger": false,
      "taf_trigger": false,
      "metar": "",
      "taf": "TAF LWOH 172045Z 1721/1821 32015KT 9999 FEW020 BKN040"
    },
    {
      "icao": "LWSK",
      "alert": "OK",
      "vis_m": 9999,
      "fzfg": false,
      "metar_trigger": false,
      "taf_trigger": false,
      "metar": "METAR LWSK 172250Z 29005KT 250V340 9999 BKN042 05/M01 Q1003 NOSIG",
      "taf": "TAF LWSK 172045Z 1721/1821 35010KT 9999 FEW020 SCT040"
    },
    {
      "icao": "LYBE",
      "alert": "OK",
      "vis_m": 9999,
      "fzfg": false,
      "metar_trigger": false,
      "taf_trigger": false,
      "metar": "METAR LYBE 172300Z 33009KT 9999 BKN020 03/M00 Q1009 NOSIG",
      "taf": "TAF LYBE 171700Z 1718/1818 30010KT 9999 BKN013 BKN030 TX09/1813Z TNM00/1805Z"
    },
    {
      "icao": "LYNI",
      "alert": "OK",
      "vis_m": 7000,
      "fzfg": false,
      "metar_trigger": false,
      "taf_trigger": false,
      "metar": "METAR LYNI 172300Z 32016KT 7000 BKN010 OVC080 02/02 Q1005 NOSIG",
      "taf": "TAF LYNI 171700Z 1718/1818 32015KT 8000 SN BKN006 BKN023 TX07/1813Z TN00/1806Z"
    },
    {
      "icao": "LYPG",
      "alert": "OK",
      "vis_m": 9999,
      "fzfg": false,
      "metar_trigger": false,
      "taf_trigger": false,
      "metar": "METAR LYPG 172300Z 35007KT 290V020 9999 FEW070 07/M02 Q1007 NOSIG",
      "taf": "TAF LYPG 171700Z 1718/1818 36015G25KT CAVOK TX13/1812Z TN07/1805Z"
    },
    {
      "icao": "LZIB",
      "alert": "OK",
      "vis_m": 9999,
      "fzfg": false,
      "metar_trigger": false,
      "taf_trigger": false,
      "metar": "METAR LZIB 172300Z 29011KT 9999 FEW042 03/00 Q1010 NOSIG",
      "taf": ""
    },
    {
      "icao": "LZKZ",
      "alert": "OK",
      "vis_m": 9999,
      "fzfg": false,
      "metar_trigger": false,
      "taf_trigger": false,
      "metar": "METAR LZKZ 172300Z 03007KT CAVOK 01/M01 Q1006 NOSIG",
      "taf": ""
    },
    {
      "icao": "LZTT",
      "alert": "OK",
      "vis_m": 9999,
      "fzfg": false,
      "metar_trigger": false,
      "taf_trigger": false,
      "metar": "METAR LZTT 172300Z VRB02KT 9999 BKN020 M01/M03 Q1005",
      "taf": ""
    },
    {
      "icao": "OEJN",
      "alert": "OK",
      "vis_m": 9999,
      "fzfg": false,
      "metar_trigger": false,
      "taf_trigger": false,
      "metar": "METAR OEJN 172300Z 34005KT CAVOK 24/16 Q1009 NOSIG",
      "taf": "TAF OEJN 172300Z 1800/1906 36005KT CAVOK"
    },
    {
      "icao": "OEMA",
      "alert": "OK",
      "vis_m": 9999,
      "fzfg": false,
      "metar_trigger": false,
      "taf_trigger": false,
      "metar": "METAR OEMA 172300Z 36003KT CAVOK 22/00 Q1015 NOSIG",
      "taf": "TAF OEMA 172300Z 1800/1906 VRB03KT CAVOK"
    },
    {
      "icao": "OJAI",
      "alert": "OK",
      "vis_m": 4000,
      "fzfg": false,
      "metar_trigger": false,
      "taf_trigger": false,
      "metar": "METAR OJAI 172200Z 30006KT 4000 HZ NSC 09/07 Q1016 NOSIG",
      "taf": "TAF OJAI 172226Z 1800/1906 26010KT 4000 HZ NSC"
    },
    {
      "icao": "OMAA",
      "alert": "OK",
      "vis_m": 9999,
      "fzfg": false,
      "metar_trigger": false,
      "taf_trigger": false,
      "metar": "METAR OMAA 172300Z 05004KT CAVOK 20/12 Q1014 NOSIG",
      "taf": "TAF OMAA 172300Z 1800/1906 14005KT 8000 NSC"
    },
    {
      "icao": "OMDB",
      "alert": "OK",
      "vis_m": 9999,
      "fzfg": false,
      "metar_trigger": false,
      "taf_trigger": false,
      "metar": "METAR OMDB 172300Z 15003KT 110V170 CAVOK 23/06 Q1014 NOSIG",
      "taf": "TAF OMDB 172300Z 1800/1906 12005KT 8000 NSC"
    },
    {
      "icao": "UAAA",
      "alert": "OK",
      "vis_m": 100,
      "fzfg": false,
      "metar_trigger": false,
      "taf_trigger": false,
      "metar": "METAR UAAA 172300Z 21002MPS 170V240 0100 R23L/0450N FG VV001 02/02 Q1022 NOSIG RMK QBB050",
      "taf": "TAF UAAA 171705Z 1718/1818 VRB01MPS 0800 FG SCT011 BKN030 TX15/1809Z TNM01/1803Z"
    },
    {
      "icao": "UBBB",
      "alert": "OK",
      "vis_m": 3000,
      "fzfg": false,
      "metar_trigger": false,
      "taf_trigger": false,
      "metar": "METAR UBBB 172300Z 31010KT 3000 BR BKN002 06/06 Q1006 NOSIG",
      "taf": "TAF UBBB 172300Z 1800/1824 33008KT 3000 BR BKN003 TX10/1810Z TN05/1802Z"
    },
    {
      "icao": "UDSG",
      "alert": "OK",
      "vis_m": 9999,
      "fzfg": false,
      "metar_trigger": false,
      "taf_trigger": false,
      "metar": "METAR UDSG 172300Z 35004KT 9999 BKN043 04/M01 Q1014 NOSIG",
      "taf": "TAF UDSG 172258Z 1800/1824 VRB06KT 9999 BKN040"
    },
    {
      "icao": "UDYZ",
      "alert": "OK",
      "vis_m": 9000,
      "fzfg": false,
      "metar_trigger": false,
      "taf_trigger": false,
      "metar": "METAR UDYZ 172300Z 00000KT 9000 SCT046 08/03 Q1013 NOSIG",
      "taf": "TAF UDYZ 171700Z 1718/1818 04006KT 6000 SCT040"
    },
    {
      "icao": "UGKO",
      "alert": "OK",
      "vis_m": 9999,
      "fzfg": false,
      "metar_trigger": false,
      "taf_trigger": false,
      "metar": "METAR UGKO 172300Z AUTO 08009KT CAVOK 13/04 Q1006 NOSIG",
      "taf": "TAF UGKO 172300Z 1800/1824 08010KT CAVOK TX23/1812Z TN11/1802Z"
    }
  ]
}