{
  "ts_utc": "2026-04-19T13:41:53Z",
  "threshold_m": 150,
  "source": "stations_override.txt (ICAO list) + aviationweather.gov (METAR/TAF raw)",
  "station_count": 159,
  "stations": [
    {
      "icao": "BIKF",
      "alert": "OK",
      "vis_m": 9999,
      "fzfg": false,
      "metar_trigger": false,
      "taf_trigger": false,
      "metar": "METAR BIKF 191330Z 12028G38KT 9999 BKN020 BKN042 08/04 Q1020",
      "taf": "TAF BIKF 191053Z 1912/2012 13020KT 9999 SCT015 BKN030 TX09/1918Z TN06/2006Z"
    },
    {
      "icao": "BKPR",
      "alert": "OK",
      "vis_m": 9999,
      "fzfg": false,
      "metar_trigger": false,
      "taf_trigger": false,
      "metar": "METAR BKPR 191330Z 28006KT 220V030 CAVOK 21/M03 Q1015 NOSIG",
      "taf": "TAF BKPR 191130Z 1912/2012 VRB05KT CAVOK"
    },
    {
      "icao": "EBCI",
      "alert": "OK",
      "vis_m": 9999,
      "fzfg": false,
      "metar_trigger": false,
      "taf_trigger": false,
      "metar": "METAR EBCI 191320Z 35007KT 310V040 9999 SCT040 14/03 Q1022 NOSIG",
      "taf": "TAF EBCI 191103Z 1912/2018 33009KT 9999 SCT025"
    },
    {
      "icao": "EDDB",
      "alert": "OK",
      "vis_m": 9999,
      "fzfg": false,
      "metar_trigger": false,
      "taf_trigger": false,
      "metar": "METAR EDDB 191320Z AUTO 34016KT 9999 SHRA BKN018 BKN034 FEW///CB 12/10 Q1012 TEMPO 32015G30KT 4500 +SHRA BKN010",
      "taf": "TAF EDDB 191100Z 1912/2012 31010KT 9999 BKN025"
    },
    {
      "icao": "EDDH",
      "alert": "OK",
      "vis_m": 9999,
      "fzfg": false,
      "metar_trigger": false,
      "taf_trigger": false,
      "metar": "METAR EDDH 191320Z AUTO 31007KT 9999 SCT031 BKN040 12/06 Q1018 TEMPO 32015KT SHRA BKN020CB",
      "taf": "TAF EDDH 191100Z 1912/2018 33009KT 9999 SCT020"
    },
    {
      "icao": "EDDK",
      "alert": "OK",
      "vis_m": 9999,
      "fzfg": false,
      "metar_trigger": false,
      "taf_trigger": false,
      "metar": "METAR EDDK 191320Z AUTO 34008KT 300V360 9999 -SHRA SCT045 FEW///CB 11/07 Q1021 RESHRA TEMPO SHRA",
      "taf": "TAF EDDK 191100Z 1912/2018 33011KT 9999 SCT040"
    },
    {
      "icao": "EDDN",
      "alert": "OK",
      "vis_m": 9999,
      "fzfg": false,
      "metar_trigger": false,
      "taf_trigger": false,
      "metar": "METAR EDDN 191320Z AUTO 28008KT 250V330 9999 VCSH FEW027 FEW///TCU 13/07 Q1017 NOSIG",
      "taf": "TAF EDDN 191100Z 1912/2012 30010KT 9999 BKN015"
    },
    {
      "icao": "EDDS",
      "alert": "OK",
      "vis_m": 9999,
      "fzfg": false,
      "metar_trigger": false,
      "taf_trigger": false,
      "metar": "METAR EDDS 191320Z AUTO 32014KT 9999 SCT028 SCT035 13/05 Q1018 NOSIG",
      "taf": "TAF EDDS 191100Z 1912/2012 31012KT 9999 SCT030"
    },
    {
      "icao": "EDFH",
      "alert": "OK",
      "vis_m": 9999,
      "fzfg": false,
      "metar_trigger": false,
      "taf_trigger": false,
      "metar": "METAR EDFH 191320Z 32007KT 9999 FEW043 12/03 Q1020",
      "taf": "TAF EDFH 191100Z 1912/2012 33009KT 9999 SCT020"
    },
    {
      "icao": "EDJA",
      "alert": "OK",
      "vis_m": 9999,
      "fzfg": false,
      "metar_trigger": false,
      "taf_trigger": false,
      "metar": "METAR EDJA 191320Z 33007KT 9999 FEW024 BKN028 OVC046 13/08 Q1018",
      "taf": "TAF EDJA 191100Z 1912/1921 24012KT 9999 SCT050"
    },
    {
      "icao": "EDLW",
      "alert": "OK",
      "vis_m": 9999,
      "fzfg": false,
      "metar_trigger": false,
      "taf_trigger": false,
      "metar": "METAR EDLW 191320Z 31011KT 260V360 9999 FEW025 BKN030 12/06 Q1020",
      "taf": "TAF EDLW 191100Z 1912/2012 32007KT 9999 SCT040"
    },
    {
      "icao": "EDNY",
      "alert": "OK",
      "vis_m": 9999,
      "fzfg": false,
      "metar_trigger": false,
      "taf_trigger": false,
      "metar": "METAR EDNY 191320Z 30008KT 9999 SCT048 18/07 Q1017",
      "taf": "TAF EDNY 191100Z 1912/1921 23005KT CAVOK"
    },
    {
      "icao": "EDSB",
      "alert": "OK",
      "vis_m": 9999,
      "fzfg": false,
      "metar_trigger": false,
      "taf_trigger": false,
      "metar": "METAR EDSB 191320Z 35006KT 310V030 CAVOK 16/03 Q1020",
      "taf": "TAF EDSB 191100Z 1912/2012 33004KT 9999 SCT040"
    },
    {
      "icao": "EETN",
      "alert": "OK",
      "vis_m": 9999,
      "fzfg": false,
      "metar_trigger": false,
      "taf_trigger": false,
      "metar": "METAR EETN 191320Z 06014KT CAVOK 06/M03 Q1025 NOSIG",
      "taf": "TAF EETN 191130Z 1912/2012 06015KT 9999 FEW030"
    },
    {
      "icao": "EFTU",
      "alert": "OK",
      "vis_m": 9999,
      "fzfg": false,
      "metar_trigger": false,
      "taf_trigger": false,
      "metar": "METAR EFTU 191320Z AUTO 08006KT 020V120 CAVOK 11/M07 Q1026",
      "taf": "TAF EFTU 191128Z 1912/2012 08010KT CAVOK"
    },
    {
      "icao": "EGBB",
      "alert": "OK",
      "vis_m": 9999,
      "fzfg": false,
      "metar_trigger": false,
      "taf_trigger": false,
      "metar": "METAR EGBB 191320Z 35010KT 9999 SCT044 12/01 Q1026",
      "taf": "TAF EGBB 191058Z 1912/2012 34008KT 9999 FEW035"
    },
    {
      "icao": "EGGP",
      "alert": "OK",
      "vis_m": 9999,
      "fzfg": false,
      "metar_trigger": false,
      "taf_trigger": false,
      "metar": "METAR EGGP 191320Z 27013KT 9999 SCT037 11/03 Q1027",
      "taf": ""
    },
    {
      "icao": "EGGW",
      "alert": "OK",
      "vis_m": 9999,
      "fzfg": false,
      "metar_trigger": false,
      "taf_trigger": false,
      "metar": "METAR EGGW 191320Z AUTO 03008KT 350V100 9999 NCD 13/00 Q1025",
      "taf": "TAF EGGW 191100Z 1912/2012 35010KT 9999 FEW040"
    },
    {
      "icao": "EGKK",
      "alert": "OK",
      "vis_m": 9999,
      "fzfg": false,
      "metar_trigger": false,
      "taf_trigger": false,
      "metar": "METAR EGKK 191320Z 01007G18KT 310V050 CAVOK 15/M01 Q1025",
      "taf": "TAF EGKK 191053Z 1912/2018 34010KT CAVOK"
    },
    {
      "icao": "EGNM",
      "alert": "OK",
      "vis_m": 9999,
      "fzfg": false,
      "metar_trigger": false,
      "taf_trigger": false,
      "metar": "METAR EGNM 191320Z 36007KT 320V040 9999 FEW040 11/M00 Q1025",
      "taf": "TAF EGNM 191054Z 1912/2012 32005KT 9999 SCT035"
    },
    {
      "icao": "EGPD",
      "alert": "OK",
      "vis_m": 9999,
      "fzfg": false,
      "metar_trigger": false,
      "taf_trigger": false,
      "metar": "METAR EGPD 191320Z COR AUTO 33014KT 9999 NCD 12/02 Q1024 NOSIG",
      "taf": "TAF EGPD 191057Z 1912/2012 30009KT 9999 FEW030"
    },
    {
      "icao": "EGPF",
      "alert": "OK",
      "vis_m": 9999,
      "fzfg": false,
      "metar_trigger": false,
      "taf_trigger": false,
      "metar": "METAR EGPF 191320Z AUTO 30010KT 9999 NCD 12/04 Q1026",
      "taf": "TAF EGPF 191057Z 1912/2012 29010KT 9999 FEW040"
    },
    {
      "icao": "EHBK",
      "alert": "OK",
      "vis_m": 9999,
      "fzfg": false,
      "metar_trigger": false,
      "taf_trigger": false,
      "metar": "METAR EHBK 191325Z AUTO 32007KT 250V010 9999 NSC 14/04 Q1021 TEMPO 7000 SHRA FEW025CB",
      "taf": "TAF EHBK 191116Z 1912/2018 34007KT CAVOK"
    },
    {
      "icao": "EHEH",
      "alert": "OK",
      "vis_m": 9999,
      "fzfg": false,
      "metar_trigger": false,
      "taf_trigger": false,
      "metar": "METAR EHEH 191325Z AUTO 35008KT 280V030 9999 NCD 15/05 Q1022 BLU TEMPO 34010G22KT 4500 SHRA SCT025CB",
      "taf": "TAF EHEH 191117Z 1912/2018 33007KT 9999 SCT035"
    },
    {
      "icao": "EKBI",
      "alert": "OK",
      "vis_m": 9999,
      "fzfg": false,
      "metar_trigger": false,
      "taf_trigger": false,
      "metar": "METAR EKBI 191320Z AUTO 30008KT 9999 OVC021/// 10/06 Q1019",
      "taf": "TAF EKBI 191127Z 1912/2012 33008KT 9999 BKN025"
    },
    {
      "icao": "EKCH",
      "alert": "OK",
      "vis_m": 5000,
      "fzfg": false,
      "metar_trigger": false,
      "taf_trigger": false,
      "metar": "METAR EKCH 191320Z 36008KT 5000 -DZRA FEW005 BKN030 08/07 Q1018 TEMPO FEW030CB",
      "taf": ""
    },
    {
      "icao": "ENAL",
      "alert": "OK",
      "vis_m": 9999,
      "fzfg": false,
      "metar_trigger": false,
      "taf_trigger": false,
      "metar": "METAR ENAL 191320Z 30005KT 260V330 9999 SCT003 BKN005 08/07 Q1019",
      "taf": "TAF ENAL 191100Z 1912/1921 36008KT 9999 FEW010"
    },
    {
      "icao": "ENBR",
      "alert": "OK",
      "vis_m": 9999,
      "fzfg": false,
      "metar_trigger": false,
      "taf_trigger": false,
      "metar": "METAR ENBR 191320Z 18007KT 9999 FEW010 SCT015CB BKN027 08/07 Q1018 NOSIG RMK WIND 1200FT 14006KT",
      "taf": "TAF ENBR 191100Z 1912/2012 20005KT 9999 SCT010 BKN020"
    },
    {
      "icao": "ENGM",
      "alert": "OK",
      "vis_m": 9999,
      "fzfg": false,
      "metar_trigger": false,
      "taf_trigger": false,
      "metar": "METAR ENGM 191320Z 09005KT 040V120 9999 -RA BKN017 06/04 Q1022 TEMPO 4000 DZRA BR BKN0014",
      "taf": "TAF ENGM 191100Z 1912/2012 09010KT 8000 -RA BKN012"
    },
    {
      "icao": "ENHD",
      "alert": "OK",
      "vis_m": 9999,
      "fzfg": false,
      "metar_trigger": false,
      "taf_trigger": false,
      "metar": "METAR ENHD 191320Z 27003KT 9999 FEW003 SCT005 BKN007 08/07 Q1019",
      "taf": "TAF ENHD 191100Z 1912/1921 26005KT 6000 -RADZ SCT003 BKN015"
    },
    {
      "icao": "ENTC",
      "alert": "OK",
      "vis_m": 9999,
      "fzfg": false,
      "metar_trigger": false,
      "taf_trigger": false,
      "metar": "METAR ENTC 191320Z VRB02KT CAVOK 12/M00 Q1026 NOSIG RMK WIND 2600FT 01004KT",
      "taf": "TAF ENTC 191100Z 1912/2012 28006KT CAVOK"
    },
    {
      "icao": "ENTO",
      "alert": "OK",
      "vis_m": 7000,
      "fzfg": false,
      "metar_trigger": false,
      "taf_trigger": false,
      "metar": "METAR ENTO 191320Z 08006KT 050V110 7000 RADZ BKN004 BKN007 07/07 Q1020 TEMPO 4000 -RADZ BR SCT004 BKN007",
      "taf": "TAF ENTO 191100Z 1912/2012 09007KT 6000 RADZ BR BKN002"
    },
    {
      "icao": "ENVA",
      "alert": "OK",
      "vis_m": 9999,
      "fzfg": false,
      "metar_trigger": false,
      "taf_trigger": false,
      "metar": "METAR ENVA 191320Z 16010KT 130V190 CAVOK 15/M01 Q1022 TEMPO 16015G25KT RMK WIND 670FT 16021G31KT",
      "taf": "TAF ENVA 191100Z 1912/2012 12008KT CAVOK"
    },
    {
      "icao": "ENZV",
      "alert": "OK",
      "vis_m": 8000,
      "fzfg": false,
      "metar_trigger": false,
      "taf_trigger": false,
      "metar": "METAR ENZV 191320Z 30007KT 8000 FEW008 SCT013 OVC035 09/06 Q1019 NOSIG",
      "taf": "TAF ENZV 191100Z 1912/2012 29005KT 9999 SCT006 BKN015"
    },
    {
      "icao": "EPGD",
      "alert": "OK",
      "vis_m": 9999,
      "fzfg": false,
      "metar_trigger": false,
      "taf_trigger": false,
      "metar": "METAR EPGD 191330Z 07006KT CAVOK 11/00 Q1016",
      "taf": "TAF EPGD 191130Z 1912/2012 06008KT CAVOK"
    },
    {
      "icao": "EPKK",
      "alert": "OK",
      "vis_m": 9999,
      "fzfg": false,
      "metar_trigger": false,
      "taf_trigger": false,
      "metar": "METAR EPKK 191330Z 26006KT 9999 FEW064 19/02 Q1012",
      "taf": "TAF EPKK 191130Z 1912/2012 VRB05KT 9999 SCT060"
    },
    {
      "icao": "EPKT",
      "alert": "OK",
      "vis_m": 9999,
      "fzfg": false,
      "metar_trigger": false,
      "taf_trigger": false,
      "metar": "METAR EPKT 191330Z 03003KT 340V080 CAVOK 17/03 Q1013",
      "taf": "TAF EPKT 191130Z 1912/2012 VRB05KT CAVOK"
    },
    {
      "icao": "EPLB",
      "alert": "OK",
      "vis_m": 9999,
      "fzfg": false,
      "metar_trigger": false,
      "taf_trigger": false,
      "metar": "METAR EPLB 191330Z 15003KT 110V190 CAVOK 18/00 Q1014",
      "taf": "TAF EPLB 191130Z 1912/2012 03006KT CAVOK"
    },
    {
      "icao": "EPMO",
      "alert": "OK",
      "vis_m": 9999,
      "fzfg": false,
      "metar_trigger": false,
      "taf_trigger": false,
      "metar": "METAR EPMO 191330Z 06004KT 360V170 CAVOK 18/01 Q1013",
      "taf": "TAF EPMO 191130Z 1912/2012 06007KT CAVOK"
    },
    {
      "icao": "EPPO",
      "alert": "OK",
      "vis_m": 9999,
      "fzfg": false,
      "metar_trigger": false,
      "taf_trigger": false,
      "metar": "METAR EPPO 191330Z 09004KT CAVOK 18/04 Q1013",
      "taf": "TAF EPPO 191130Z 1912/2012 12007KT CAVOK"
    },
    {
      "icao": "EPRA",
      "alert": "OK",
      "vis_m": 9999,
      "fzfg": false,
      "metar_trigger": false,
      "taf_trigger": false,
      "metar": "METAR EPRA 191330Z 08003KT 020V140 CAVOK 18/M00 Q1013",
      "taf": "TAF EPRA 191130Z 1912/1921 11008KT CAVOK"
    },
    {
      "icao": "EPRZ",
      "alert": "OK",
      "vis_m": 9999,
      "fzfg": false,
      "metar_trigger": false,
      "taf_trigger": false,
      "metar": "METAR EPRZ 191330Z 03006KT 350V060 CAVOK 19/03 Q1013",
      "taf": "TAF EPRZ 191130Z 1912/2012 VRB06KT CAVOK"
    },
    {
      "icao": "EPSC",
      "alert": "OK",
      "vis_m": 9999,
      "fzfg": false,
      "metar_trigger": false,
      "taf_trigger": false,
      "metar": "METAR EPSC 191330Z 02006KT 330V060 9999 FEW040 17/07 Q1013",
      "taf": "TAF EPSC 191130Z 1912/2012 03008KT CAVOK"
    },
    {
      "icao": "EPSY",
      "alert": "OK",
      "vis_m": 9999,
      "fzfg": false,
      "metar_trigger": false,
      "taf_trigger": false,
      "metar": "METAR EPSY 191330Z 35004KT 9999 -SHRA BKN040TCU 10/08 Q1016",
      "taf": "TAF EPSY 191130Z 1912/1921 36005KT CAVOK"
    },
    {
      "icao": "EPWA",
      "alert": "OK",
      "vis_m": 9999,
      "fzfg": false,
      "metar_trigger": false,
      "taf_trigger": false,
      "metar": "METAR EPWA 191330Z 06003KT 360V130 CAVOK 18/M02 Q1013 NOSIG",
      "taf": "TAF EPWA 191130Z 1912/2012 06008KT CAVOK"
    },
    {
      "icao": "EPWR",
      "alert": "OK",
      "vis_m": 9999,
      "fzfg": false,
      "metar_trigger": false,
      "taf_trigger": false,
      "metar": "METAR EPWR 191330Z 16006KT 9999 -RA FEW044 16/06 Q1013",
      "taf": "TAF EPWR 191130Z 1912/2012 15008KT CAVOK"
    },
    {
      "icao": "ESGG",
      "alert": "OK",
      "vis_m": 9999,
      "fzfg": false,
      "metar_trigger": false,
      "taf_trigger": false,
      "metar": "METAR ESGG 191320Z 11008KT 9999 FEW005 SCT007 BKN028 07/06 Q1019",
      "taf": ""
    },
    {
      "icao": "ESKN",
      "alert": "OK",
      "vis_m": 9999,
      "fzfg": false,
      "metar_trigger": false,
      "taf_trigger": false,
      "metar": "METAR ESKN 191320Z 11017KT CAVOK 09/M01 Q1025",
      "taf": "TAF ESKN 191130Z 1912/2012 10016KT CAVOK"
    },
    {
      "icao": "ESMS",
      "alert": "OK",
      "vis_m": 9999,
      "fzfg": false,
      "metar_trigger": false,
      "taf_trigger": false,
      "metar": "METAR ESMS 191320Z 07014KT CAVOK 09/02 Q1017",
      "taf": ""
    },
    {
      "icao": "ESSA",
      "alert": "OK",
      "vis_m": 9999,
      "fzfg": false,
      "metar_trigger": false,
      "taf_trigger": false,
      "metar": "METAR ESSA 191320Z 12012KT CAVOK 09/M04 Q1026 NOSIG",
      "taf": "TAF ESSA 191130Z 1912/2012 11012KT CAVOK"
    },
    {
      "icao": "EYKA",
      "alert": "OK",
      "vis_m": 9999,
      "fzfg": false,
      "metar_trigger": false,
      "taf_trigger": false,
      "metar": "METAR EYKA 191320Z 04011KT 360V060 CAVOK 13/M04 Q1017",
      "taf": "TAF EYKA 191100Z 1912/2012 06010KT 8000 SCT045"
    },
    {
      "icao": "EYPA",
      "alert": "OK",
      "vis_m": 9999,
      "fzfg": false,
      "metar_trigger": false,
      "taf_trigger": false,
      "metar": "METAR EYPA 191320Z 05010KT 010V090 CAVOK 14/M02 Q1018",
      "taf": "TAF EYPA 191100Z 1912/2012 08010KT 8000 SCT045"
    },
    {
      "icao": "EYVI",
      "alert": "OK",
      "vis_m": 9999,
      "fzfg": false,
      "metar_trigger": false,
      "taf_trigger": false,
      "metar": "METAR EYVI 191320Z 04010KT CAVOK 11/M03 Q1016 NOSIG",
      "taf": "TAF EYVI 191100Z 1912/2012 05011KT 9000 NSC"
    },
    {
      "icao": "GCFV",
      "alert": "OK",
      "vis_m": 9999,
      "fzfg": false,
      "metar_trigger": false,
      "taf_trigger": false,
      "metar": "METAR GCFV 191330Z 02007KT 350V060 CAVOK 24/16 Q1011",
      "taf": "TAF GCFV 190800Z 1909/2009 01010KT 8000 NSC TX29/1914Z TN19/2006Z"
    },
    {
      "icao": "GCLP",
      "alert": "OK",
      "vis_m": 9999,
      "fzfg": false,
      "metar_trigger": false,
      "taf_trigger": false,
      "metar": "METAR GCLP 191330Z 16009KT 120V190 CAVOK 24/16 Q1010 NOSIG",
      "taf": "TAF GCLP 190800Z 1909/2009 18010KT 8000 NSC TX28/1914Z TN17/2006Z"
    },
    {
      "icao": "GCTS",
      "alert": "OK",
      "vis_m": 9999,
      "fzfg": false,
      "metar_trigger": false,
      "taf_trigger": false,
      "metar": "METAR GCTS 191330Z 15007KT 110V210 CAVOK 27/10 Q1010 BECMG 25015KT",
      "taf": ""
    },
    {
      "icao": "GMAD",
      "alert": "OK",
      "vis_m": 8000,
      "fzfg": false,
      "metar_trigger": false,
      "taf_trigger": false,
      "metar": "METAR GMAD 191330Z 25011KT 8000 NSC 34/00 Q1011 NOSIG",
      "taf": "TAF GMAD 191100Z 1912/2018 07004KT 8000 NSC"
    },
    {
      "icao": "GMMN",
      "alert": "OK",
      "vis_m": 9999,
      "fzfg": false,
      "metar_trigger": false,
      "taf_trigger": false,
      "metar": "METAR GMMN 191330Z 36008KT 290V040 CAVOK 32/18 Q1013 NOSIG",
      "taf": "TAF GMMN 191100Z 1912/2018 36010KT CAVOK"
    },
    {
      "icao": "GMMX",
      "alert": "OK",
      "vis_m": 9999,
      "fzfg": false,
      "metar_trigger": false,
      "taf_trigger": false,
      "metar": "METAR GMMX 191330Z 04005KT 360V070 CAVOK 31/10 Q1014 NOSIG",
      "taf": "TAF GMMX 191100Z 1912/2018 34006KT 8000 SCT090 BKN200"
    },
    {
      "icao": "HEGN",
      "alert": "OK",
      "vis_m": null,
      "fzfg": false,
      "metar_trigger": false,
      "taf_trigger": false,
      "metar": "",
      "taf": "TAF HEGN 191100Z 1912/2018 35015KT CAVOK"
    },
    {
      "icao": "HEMA",
      "alert": "OK",
      "vis_m": null,
      "fzfg": false,
      "metar_trigger": false,
      "taf_trigger": false,
      "metar": "",
      "taf": "TAF HEMA 191100Z 1912/2018 01014KT 9999 SCT025"
    },
    {
      "icao": "HESH",
      "alert": "OK",
      "vis_m": null,
      "fzfg": false,
      "metar_trigger": false,
      "taf_trigger": false,
      "metar": "",
      "taf": "TAF HESH 191100Z 1912/2018 02014KT CAVOK"
    },
    {
      "icao": "HESX",
      "alert": "OK",
      "vis_m": null,
      "fzfg": false,
      "metar_trigger": false,
      "taf_trigger": false,
      "metar": "",
      "taf": "TAF HESX 191100Z 1912/2018 31012KT CAVOK"
    },
    {
      "icao": "LATI",
      "alert": "OK",
      "vis_m": 9999,
      "fzfg": false,
      "metar_trigger": false,
      "taf_trigger": false,
      "metar": "METAR LATI 191320Z 24012KT 9999 SCT050 22/07 Q1016 NOSIG",
      "taf": "TAF LATI 191100Z 1912/2012 24012KT 9999 SCT040 TX26/1912Z TN08/2004Z"
    },
    {
      "icao": "LBPD",
      "alert": "OK",
      "vis_m": 9999,
      "fzfg": false,
      "metar_trigger": false,
      "taf_trigger": false,
      "metar": "METAR LBPD 191330Z AUTO 10005KT 070V170 9999 NCD 22/06 Q1014 NOSIG",
      "taf": "TAF LBPD 191100Z 1912/2012 VRB03KT 9999 SCT060"
    },
    {
      "icao": "LBSF",
      "alert": "OK",
      "vis_m": 9999,
      "fzfg": false,
      "metar_trigger": false,
      "taf_trigger": false,
      "metar": "METAR LBSF 191330Z 28005KT 240V330 9999 FEW060 20/01 Q1014 NOSIG",
      "taf": "TAF LBSF 191100Z 1912/2012 36010KT 9999 SCT050"
    },
    {
      "icao": "LBWN",
      "alert": "OK",
      "vis_m": 9999,
      "fzfg": false,
      "metar_trigger": false,
      "taf_trigger": false,
      "metar": "METAR LBWN 191330Z 11011KT 9999 FEW033 BKN049 15/09 Q1015 NOSIG",
      "taf": "TAF LBWN 191100Z 1912/2012 34010KT 9999 SCT030"
    },
    {
      "icao": "LCLK",
      "alert": "OK",
      "vis_m": 9999,
      "fzfg": false,
      "metar_trigger": false,
      "taf_trigger": false,
      "metar": "METAR LCLK 191330Z 22022G32KT 9999 FEW025TCU SCT060 22/17 Q1006 NOSIG",
      "taf": "TAF LCLK 191130Z 1912/2012 21020KT 9999 FEW025"
    },
    {
      "icao": "LCPH",
      "alert": "OK",
      "vis_m": 9999,
      "fzfg": false,
      "metar_trigger": false,
      "taf_trigger": false,
      "metar": "METAR LCPH 191330Z AUTO 26009KT 9999 BKN013 BKN018 OVC070 20/16 Q1007 NOSIG",
      "taf": ""
    },
    {
      "icao": "LEAL",
      "alert": "OK",
      "vis_m": 9999,
      "fzfg": false,
      "metar_trigger": false,
      "taf_trigger": false,
      "metar": "METAR LEAL 191330Z 20007KT 130V260 CAVOK 26/07 Q1018 NOSIG",
      "taf": "TAF LEAL 191100Z 1912/2012 VRB04KT CAVOK TX25/1912Z TN12/2005Z"
    },
    {
      "icao": "LEBB",
      "alert": "OK",
      "vis_m": 9999,
      "fzfg": false,
      "metar_trigger": false,
      "taf_trigger": false,
      "metar": "METAR LEBB 191330Z VRB02KT CAVOK 23/16 Q1016 NOSIG",
      "taf": "TAF LEBB 191100Z 1912/2012 06009KT 9999 FEW020 TX24/2010Z TN12/2003Z"
    },
    {
      "icao": "LEBL",
      "alert": "OK",
      "vis_m": 9999,
      "fzfg": false,
      "metar_trigger": false,
      "taf_trigger": false,
      "metar": "METAR LEBL 191330Z 20011KT 9999 FEW030 19/15 Q1017 NOSIG",
      "taf": "TAF LEBL 191100Z 1912/2012 22012KT 9999 FEW040 TX21/1912Z TN14/2006Z"
    },
    {
      "icao": "LECH",
      "alert": "OK",
      "vis_m": 9000,
      "fzfg": false,
      "metar_trigger": false,
      "taf_trigger": false,
      "metar": "METAR LECH 191330Z AUTO 12006KT 9000 NSC 23/12 Q1017",
      "taf": "TAF LECH 191100Z 1912/2012 VRB04KT CAVOK TX24/1913Z TN14/2005Z"
    },
    {
      "icao": "LEMD",
      "alert": "OK",
      "vis_m": 9999,
      "fzfg": false,
      "metar_trigger": false,
      "taf_trigger": false,
      "metar": "METAR LEMD 191330Z 19008G18KT 130V260 9999 FEW080 27/06 Q1016 NOSIG",
      "taf": "TAF LEMD 191100Z 1912/2018 VRB04KT CAVOK TX28/1916Z TN11/2006Z"
    },
    {
      "icao": "LEMG",
      "alert": "OK",
      "vis_m": 9999,
      "fzfg": false,
      "metar_trigger": false,
      "taf_trigger": false,
      "metar": "METAR LEMG 191330Z 13007KT 080V160 CAVOK 21/06 Q1017 NOSIG",
      "taf": "TAF LEMG 191100Z 1912/2012 12010KT CAVOK TX23/1914Z TN11/2006Z"
    },
    {
      "icao": "LEVC",
      "alert": "OK",
      "vis_m": 9999,
      "fzfg": false,
      "metar_trigger": false,
      "taf_trigger": false,
      "metar": "METAR LEVC 191330Z 08008KT 040V150 9999 FEW065 25/13 Q1016 NOSIG",
      "taf": "TAF LEVC 191100Z 1912/2012 12009KT CAVOK TX24/1912Z TN12/2005Z"
    },
    {
      "icao": "LEXJ",
      "alert": "OK",
      "vis_m": 9999,
      "fzfg": false,
      "metar_trigger": false,
      "taf_trigger": false,
      "metar": "METAR LEXJ 191330Z 05009KT 350V110 9999 FEW030 17/13 Q1016",
      "taf": "TAF LEXJ 190800Z 1909/2009 06009KT 9999 FEW040 TX21/1913Z TN12/2005Z"
    },
    {
      "icao": "LEZG",
      "alert": "OK",
      "vis_m": 9999,
      "fzfg": false,
      "metar_trigger": false,
      "taf_trigger": false,
      "metar": "METAR LEZG 191330Z 06004KT 010V170 CAVOK 26/13 Q1015 NOSIG",
      "taf": "TAF LEZG 191100Z 1912/2012 29009KT CAVOK TX28/1915Z TN14/2005Z"
    },
    {
      "icao": "LEZL",
      "alert": "OK",
      "vis_m": 9999,
      "fzfg": false,
      "metar_trigger": false,
      "taf_trigger": false,
      "metar": "METAR LEZL 191330Z 18004KT CAVOK 30/06 Q1015 NOSIG",
      "taf": "TAF LEZL 190800Z 1909/2009 VRB03KT CAVOK TX32/1915Z TN12/2006Z"
    },
    {
      "icao": "LFBD",
      "alert": "OK",
      "vis_m": 9999,
      "fzfg": false,
      "metar_trigger": false,
      "taf_trigger": false,
      "metar": "METAR LFBD 191330Z AUTO 05008KT 020V080 CAVOK 23/10 Q1018 NOSIG",
      "taf": "TAF LFBD 191100Z 1912/2018 06010KT CAVOK TX25/1915Z TN12/2006Z"
    },
    {
      "icao": "LFLL",
      "alert": "OK",
      "vis_m": 9999,
      "fzfg": false,
      "metar_trigger": false,
      "taf_trigger": false,
      "metar": "METAR LFLL 191330Z 34010KT 9999 BKN032 18/10 Q1019 NOSIG",
      "taf": "TAF LFLL 191100Z 1912/2018 36010KT 9999 BKN025"
    },
    {
      "icao": "LFLS",
      "alert": "OK",
      "vis_m": 9999,
      "fzfg": false,
      "metar_trigger": false,
      "taf_trigger": false,
      "metar": "METAR LFLS 191330Z AUTO 34011KT 9999 FEW028 18/12 Q1019 TEMPO FEW060TCU",
      "taf": "TAF LFLS 190800Z 1909/2009 34008KT 9999 SCT030"
    },
    {
      "icao": "LFMN",
      "alert": "OK",
      "vis_m": 9999,
      "fzfg": false,
      "metar_trigger": false,
      "taf_trigger": false,
      "metar": "METAR LFMN 191330Z 10011KT 9999 FEW011 BKN230 19/15 Q1015 NOSIG",
      "taf": "TAF LFMN 190800Z 1909/2015 09008KT 9999 FEW014"
    },
    {
      "icao": "LFOB",
      "alert": "OK",
      "vis_m": 9999,
      "fzfg": false,
      "metar_trigger": false,
      "taf_trigger": false,
      "metar": "METAR LFOB 191330Z AUTO VRB02KT 9999 FEW049 17/06 Q1023 TEMPO SCT030TCU",
      "taf": "TAF LFOB 191100Z 1912/2012 03005KT 9999 SCT035"
    },
    {
      "icao": "LFPO",
      "alert": "OK",
      "vis_m": 9999,
      "fzfg": false,
      "metar_trigger": false,
      "taf_trigger": false,
      "metar": "METAR LFPO 191330Z 02010KT 330V080 CAVOK 16/05 Q1023 NOSIG",
      "taf": "TAF LFPO 191100Z 1912/2018 02008KT CAVOK"
    },
    {
      "icao": "LFSB",
      "alert": "OK",
      "vis_m": 9999,
      "fzfg": false,
      "metar_trigger": false,
      "taf_trigger": false,
      "metar": "METAR LFSB 191330Z AUTO 35006KT 280V040 9999 FEW040 18/10 Q1019 TEMPO FEW025TCU",
      "taf": "TAF LFSB 191100Z 1912/2012 35006KT 9999 BKN030 BKN060"
    },
    {
      "icao": "LGAV",
      "alert": "OK",
      "vis_m": 9999,
      "fzfg": false,
      "metar_trigger": false,
      "taf_trigger": false,
      "metar": "METAR LGAV 191320Z 06006KT 020V090 9999 SCT025 20/07 Q1016 NOSIG",
      "taf": "TAF LGAV 191100Z 1912/2012 04010KT 9999 SCT025"
    },
    {
      "icao": "LGTS",
      "alert": "OK",
      "vis_m": 9999,
      "fzfg": false,
      "metar_trigger": false,
      "taf_trigger": false,
      "metar": "METAR LGTS 191320Z 27007KT 9999 FEW025 21/12 Q1015 NOSIG",
      "taf": "TAF LGTS 191100Z 1912/2012 13013KT 9999 SCT025"
    },
    {
      "icao": "LHBP",
      "alert": "OK",
      "vis_m": 9999,
      "fzfg": false,
      "metar_trigger": false,
      "taf_trigger": false,
      "metar": "METAR LHBP 191330Z 24005KT 180V280 CAVOK 23/01 Q1013 NOSIG",
      "taf": "TAF LHBP 191115Z 1912/2012 29008KT CAVOK"
    },
    {
      "icao": "LHDC",
      "alert": "OK",
      "vis_m": 9999,
      "fzfg": false,
      "metar_trigger": false,
      "taf_trigger": false,
      "metar": "METAR LHDC 191315Z AUTO VRB07KT CAVOK 21/03 Q1014 NOSIG",
      "taf": "TAF LHDC 191115Z 1912/1921 22008KT CAVOK"
    },
    {
      "icao": "LIBD",
      "alert": "OK",
      "vis_m": 9999,
      "fzfg": false,
      "metar_trigger": false,
      "taf_trigger": false,
      "metar": "METAR LIBD 191320Z 07006KT 020V100 CAVOK 20/11 Q1016",
      "taf": "TAF LIBD 191100Z 1912/2012 VRB06KT CAVOK"
    },
    {
      "icao": "LIBG",
      "alert": "OK",
      "vis_m": 9999,
      "fzfg": false,
      "metar_trigger": false,
      "taf_trigger": false,
      "metar": "METAR LIBG 191250Z 18005KT 150V210 CAVOK 22/11 Q1016",
      "taf": "TAF LIBG 191100Z 1912/1921 VRB05KT 9999 FEW050"
    },
    {
      "icao": "LIBP",
      "alert": "OK",
      "vis_m": 9999,
      "fzfg": false,
      "metar_trigger": false,
      "taf_trigger": false,
      "metar": "METAR LIBP 191320Z AUTO 07007KT 9999 NCD 22/08 Q1015",
      "taf": "TAF LIBP 191100Z 1912/2012 08010KT CAVOK"
    },
    {
      "icao": "LIBR",
      "alert": "OK",
      "vis_m": 9999,
      "fzfg": false,
      "metar_trigger": false,
      "taf_trigger": false,
      "metar": "METAR LIBR 191320Z 33010KT CAVOK 18/14 Q1016",
      "taf": "TAF LIBR 191100Z 1912/2012 34010KT 8000 NSC"
    },
    {
      "icao": "LICA",
      "alert": "OK",
      "vis_m": 9999,
      "fzfg": false,
      "metar_trigger": false,
      "taf_trigger": false,
      "metar": "METAR LICA 191320Z AUTO 24009KT 210V270 9999 NCD 20/14 Q1017",
      "taf": "TAF LICA 191100Z 1912/2012 25010KT CAVOK"
    },
    {
      "icao": "LICC",
      "alert": "OK",
      "vis_m": 9999,
      "fzfg": false,
      "metar_trigger": false,
      "taf_trigger": false,
      "metar": "METAR LICC 191320Z 06012KT 9999 FEW080 21/17 Q1016",
      "taf": "TAF LICC 191100Z 1912/2012 VRB05KT CAVOK"
    },
    {
      "icao": "LICJ",
      "alert": "OK",
      "vis_m": 9999,
      "fzfg": false,
      "metar_trigger": false,
      "taf_trigger": false,
      "metar": "METAR LICJ 191320Z AUTO 02009KT 9999 NCD 19/15 Q1017",
      "taf": "TAF LICJ 191100Z 1912/2012 02010KT CAVOK"
    },
    {
      "icao": "LIMC",
      "alert": "OK",
      "vis_m": 9999,
      "fzfg": false,
      "metar_trigger": false,
      "taf_trigger": false,
      "metar": "METAR LIMC 191320Z 07004KT 350V120 9999 FEW050 23/11 Q1014 NOSIG",
      "taf": "TAF LIMC 191100Z 1912/2018 19006KT 9999 SCT040"
    },
    {
      "icao": "LIME",
      "alert": "OK",
      "vis_m": 9999,
      "fzfg": false,
      "metar_trigger": false,
      "taf_trigger": false,
      "metar": "METAR LIME 191320Z 09010KT 060V120 9999 SCT030CB BKN050 15/11 Q1015 RETS NOSIG",
      "taf": "TAF LIME 191100Z 1912/2012 VRB05KT 9999 SCT040"
    },
    {
      "icao": "LIMF",
      "alert": "OK",
      "vis_m": 9999,
      "fzfg": false,
      "metar_trigger": false,
      "taf_trigger": false,
      "metar": "METAR LIMF 191320Z 03003KT 350V080 9999 FEW030 22/12 Q1014",
      "taf": "TAF LIMF 191100Z 1912/2012 VRB05KT 9999 SCT040"
    },
    {
      "icao": "LIMJ",
      "alert": "OK",
      "vis_m": 9999,
      "fzfg": false,
      "metar_trigger": false,
      "taf_trigger": false,
      "metar": "METAR LIMJ 191320Z 14005KT 9999 FEW012 19/17 Q1015",
      "taf": "TAF LIMJ 191100Z 1912/2012 17010KT 9999 FEW015"
    },
    {
      "icao": "LIPE",
      "alert": "OK",
      "vis_m": 9999,
      "fzfg": false,
      "metar_trigger": false,
      "taf_trigger": false,
      "metar": "METAR LIPE 191320Z VRB03KT CAVOK 23/11 Q1014",
      "taf": "TAF LIPE 191100Z 1912/2012 VRB05KT 9999 FEW035"
    },
    {
      "icao": "LIPH",
      "alert": "OK",
      "vis_m": 9999,
      "fzfg": false,
      "metar_trigger": false,
      "taf_trigger": false,
      "metar": "METAR LIPH 191320Z 09004KT 9999 FEW070 21/11 Q1014",
      "taf": "TAF LIPH 191100Z 1912/2012 21010KT 9999 SCT045"
    },
    {
      "icao": "LIPQ",
      "alert": "OK",
      "vis_m": 9999,
      "fzfg": false,
      "metar_trigger": false,
      "taf_trigger": false,
      "metar": "METAR LIPQ 191320Z AUTO 03005KT 9999 -RA BKN066/// 17/11 Q1016",
      "taf": "TAF LIPQ 191100Z 1912/2012 20010KT 8000 SCT060"
    },
    {
      "icao": "LIPR",
      "alert": "OK",
      "vis_m": 9999,
      "fzfg": false,
      "metar_trigger": false,
      "taf_trigger": false,
      "metar": "METAR LIPR 191320Z 09011KT 9999 FEW040 20/13 Q1014",
      "taf": "TAF LIPR 191100Z 1912/2012 09012KT 9999 FEW045"
    },
    {
      "icao": "LIPX",
      "alert": "OK",
      "vis_m": 9999,
      "fzfg": false,
      "metar_trigger": false,
      "taf_trigger": false,
      "metar": "METAR LIPX 191320Z 28009KT 9999 SCT060 22/12 Q1015",
      "taf": "TAF LIPX 191100Z 1912/2012 VRB05KT 9999 SCT040"
    },
    {
      "icao": "LIPY",
      "alert": "OK",
      "vis_m": 9999,
      "fzfg": false,
      "metar_trigger": false,
      "taf_trigger": false,
      "metar": "METAR LIPY 191320Z AUTO 08011KT 9999 NCD 23/07 Q1014",
      "taf": "TAF LIPY 191100Z 1912/2012 07010KT 9999 FEW050"
    },
    {
      "icao": "LIPZ",
      "alert": "OK",
      "vis_m": 9999,
      "fzfg": false,
      "metar_trigger": false,
      "taf_trigger": false,
      "metar": "METAR LIPZ 191320Z 09006KT CAVOK 20/13 Q1014 NOSIG",
      "taf": "TAF LIPZ 191100Z 1912/2018 VRB06KT 9999 SCT045"
    },
    {
      "icao": "LIRF",
      "alert": "OK",
      "vis_m": 9999,
      "fzfg": false,
      "metar_trigger": false,
      "taf_trigger": false,
      "metar": "METAR LIRF 191320Z 20009KT CAVOK 22/12 Q1016 NOSIG",
      "taf": "TAF LIRF 191100Z 1912/2018 22010KT CAVOK"
    },
    {
      "icao": "LIRN",
      "alert": "OK",
      "vis_m": 9999,
      "fzfg": false,
      "metar_trigger": false,
      "taf_trigger": false,
      "metar": "METAR LIRN 191320Z 19010KT 160V220 CAVOK 20/09 Q1017 NOSIG",
      "taf": "TAF LIRN 191100Z 1912/2012 21010KT CAVOK"
    },
    {
      "icao": "LIRP",
      "alert": "OK",
      "vis_m": 9999,
      "fzfg": false,
      "metar_trigger": false,
      "taf_trigger": false,
      "metar": "METAR LIRP 191315Z 26010KT 9999 FEW030 22/10 Q1016 NOSIG",
      "taf": "TAF LIRP 191100Z 1912/2012 25010KT 9999 SCT070"
    },
    {
      "icao": "LIRZ",
      "alert": "OK",
      "vis_m": 9999,
      "fzfg": false,
      "metar_trigger": false,
      "taf_trigger": false,
      "metar": "METAR LIRZ 191320Z AUTO 24006KT 210V290 9999 NCD 25/06 Q1015",
      "taf": "TAF LIRZ 191100Z 1912/2012 25010KT CAVOK"
    },
    {
      "icao": "LJLJ",
      "alert": "OK",
      "vis_m": 9999,
      "fzfg": false,
      "metar_trigger": false,
      "taf_trigger": false,
      "metar": "METAR LJLJ 191330Z 24014KT 210V270 9999 VCTS FEW043 FEW055CB BKN250 19/07 Q1014 NOSIG",
      "taf": "TAF LJLJ 191100Z 1912/2012 VRB02KT 9999 FEW070"
    },
    {
      "icao": "LKMT",
      "alert": "OK",
      "vis_m": 9999,
      "fzfg": false,
      "metar_trigger": false,
      "taf_trigger": false,
      "metar": "METAR LKMT 191330Z 24008KT CAVOK 18/06 Q1012 TEMPO 4500 SHRA SCT040TCU",
      "taf": "TAF LKMT 191100Z 1912/2012 23008KT CAVOK"
    },
    {
      "icao": "LKPR",
      "alert": "OK",
      "vis_m": 9999,
      "fzfg": false,
      "metar_trigger": false,
      "taf_trigger": false,
      "metar": "METAR LKPR 191330Z 23016KT 200V260 9999 BKN028 15/10 Q1012 NOSIG",
      "taf": "TAF LKPR 191100Z 1912/2018 24008KT 9999 BKN045"
    },
    {
      "icao": "LLBG",
      "alert": "OK",
      "vis_m": 9999,
      "fzfg": false,
      "metar_trigger": false,
      "taf_trigger": false,
      "metar": "METAR LLBG 191320Z 26013KT 9999 FEW033 22/12 Q1010 NOSIG",
      "taf": "TAF LLBG 191100Z 1912/2012 27014KT 9999 SCT030 TX23/1912Z TN15/2004Z"
    },
    {
      "icao": "LMML",
      "alert": "OK",
      "vis_m": 9999,
      "fzfg": false,
      "metar_trigger": false,
      "taf_trigger": false,
      "metar": "METAR LMML 191315Z 19006KT 150V210 9999 BKN009 19/15 Q1017 NOSIG",
      "taf": "TAF LMML 191117Z 1912/2012 VRB06KT 9999 FEW012"
    },
    {
      "icao": "LOWW",
      "alert": "OK",
      "vis_m": 2300,
      "fzfg": false,
      "metar_trigger": false,
      "taf_trigger": false,
      "metar": "METAR LOWW 191320Z 30030G40KT 2300 +TSRAGR BKN050 SCT050CB 16/12 Q1014 WS ALL RWY BECMG 6000 NSW",
      "taf": "TAF LOWW 191115Z 1912/2018 16008KT 9999 SCT050 TX22/1912Z TN08/2004Z"
    },
    {
      "icao": "LPFR",
      "alert": "OK",
      "vis_m": 9999,
      "fzfg": false,
      "metar_trigger": false,
      "taf_trigger": false,
      "metar": "METAR LPFR 191330Z 11012KT CAVOK 22/12 Q1015",
      "taf": "TAF LPFR 191100Z 1912/2012 10012KT CAVOK"
    },
    {
      "icao": "LPMA",
      "alert": "OK",
      "vis_m": 9999,
      "fzfg": false,
      "metar_trigger": false,
      "taf_trigger": false,
      "metar": "METAR LPMA 191330Z 03009KT 9999 SCT016 BKN070 20/13 Q1011",
      "taf": "TAF LPMA 191100Z 1912/2012 36008KT 9999 SCT013"
    },
    {
      "icao": "LPPR",
      "alert": "OK",
      "vis_m": 9999,
      "fzfg": false,
      "metar_trigger": false,
      "taf_trigger": false,
      "metar": "METAR LPPR 191330Z 23005KT 180V310 9999 2000W BCFG SCT007 17/14 Q1016",
      "taf": "TAF LPPR 191100Z 1912/2012 23005KT 9999 SCT012"
    },
    {
      "icao": "LPPS",
      "alert": "OK",
      "vis_m": 9999,
      "fzfg": false,
      "metar_trigger": false,
      "taf_trigger": false,
      "metar": "METAR LPPS 191330Z 07021KT 9999 SCT015 19/13 Q1011",
      "taf": ""
    },
    {
      "icao": "LPPT",
      "alert": "OK",
      "vis_m": 9999,
      "fzfg": false,
      "metar_trigger": false,
      "taf_trigger": false,
      "metar": "METAR LPPT 191330Z 11006KT 060V170 9999 FEW030 24/11 Q1015",
      "taf": "TAF LPPT 191100Z 1912/2018 22005KT CAVOK"
    },
    {
      "icao": "LQBK",
      "alert": "OK",
      "vis_m": 9999,
      "fzfg": false,
      "metar_trigger": false,
      "taf_trigger": false,
      "metar": "METAR LQBK 191330Z VRB03KT CAVOK 22/01 Q1014 NOSIG",
      "taf": "TAF LQBK 191100Z 1912/2012 03005KT CAVOK TX24/1913Z TN07/2004Z"
    },
    {
      "icao": "LQSA",
      "alert": "OK",
      "vis_m": 9999,
      "fzfg": false,
      "metar_trigger": false,
      "taf_trigger": false,
      "metar": "METAR LQSA 191330Z VRB02KT CAVOK 21/M03 Q1014 NOSIG",
      "taf": "TAF LQSA 191100Z 1912/2012 VRB02KT 9999 SCT060 TX24/1914Z TN08/2005Z"
    },
    {
      "icao": "LQTZ",
      "alert": "OK",
      "vis_m": 9999,
      "fzfg": false,
      "metar_trigger": false,
      "taf_trigger": false,
      "metar": "METAR LQTZ 191330Z VRB03KT 9999 FEW050 22/01 Q1014",
      "taf": "TAF LQTZ 191100Z 1912/2012 27005KT CAVOK TX22/1913Z TN08/2004Z"
    },
    {
      "icao": "LRBC",
      "alert": "OK",
      "vis_m": 9999,
      "fzfg": false,
      "metar_trigger": false,
      "taf_trigger": false,
      "metar": "METAR LRBC 191330Z 03004KT 340V090 9999 FEW063 19/04 Q1013",
      "taf": "TAF LRBC 191100Z 1912/1921 01007KT 9999 SCT050"
    },
    {
      "icao": "LRBS",
      "alert": "OK",
      "vis_m": 9999,
      "fzfg": false,
      "metar_trigger": false,
      "taf_trigger": false,
      "metar": "METAR LRBS 191330Z 16007KT CAVOK 19/06 Q1014 NOSIG",
      "taf": "TAF LRBS 191100Z 1912/2012 VRB04KT CAVOK"
    },
    {
      "icao": "LRBV",
      "alert": "OK",
      "vis_m": 9999,
      "fzfg": false,
      "metar_trigger": false,
      "taf_trigger": false,
      "metar": "METAR LRBV 191330Z VRB08KT 9999 FEW060 17/04 Q1014",
      "taf": "TAF LRBV 191100Z 1912/1921 VRB04KT 9999 SCT040"
    },
    {
      "icao": "LRCL",
      "alert": "OK",
      "vis_m": 9999,
      "fzfg": false,
      "metar_trigger": false,
      "taf_trigger": false,
      "metar": "METAR LRCL 191330Z 35008KT 310V020 CAVOK 19/M00 Q1014",
      "taf": "TAF LRCL 191100Z 1912/1921 30006KT CAVOK"
    },
    {
      "icao": "LRCV",
      "alert": "OK",
      "vis_m": 9999,
      "fzfg": false,
      "metar_trigger": false,
      "taf_trigger": false,
      "metar": "METAR LRCV 191330Z 25003KT 190V310 CAVOK 19/06 Q1014",
      "taf": "TAF LRCV 191100Z 1912/1921 17005KT CAVOK"
    },
    {
      "icao": "LRIA",
      "alert": "OK",
      "vis_m": 9999,
      "fzfg": false,
      "metar_trigger": false,
      "taf_trigger": false,
      "metar": "METAR LRIA 191330Z 32010KT 250V010 CAVOK 19/03 Q1014",
      "taf": "TAF LRIA 191100Z 1912/1921 32010KT 9999 SCT045"
    },
    {
      "icao": "LROP",
      "alert": "OK",
      "vis_m": 9999,
      "fzfg": false,
      "metar_trigger": false,
      "taf_trigger": false,
      "metar": "METAR LROP 191330Z 21006KT 170V240 CAVOK 21/01 Q1014 NOSIG",
      "taf": "TAF LROP 191100Z 1912/2012 VRB04KT CAVOK"
    },
    {
      "icao": "LRSB",
      "alert": "OK",
      "vis_m": 9999,
      "fzfg": false,
      "metar_trigger": false,
      "taf_trigger": false,
      "metar": "METAR LRSB 191330Z 04008KT 9999 FEW053 19/01 Q1013 NOSIG",
      "taf": "TAF LRSB 191100Z 1912/2012 35010KT CAVOK"
    },
    {
      "icao": "LRSM",
      "alert": "OK",
      "vis_m": 9999,
      "fzfg": false,
      "metar_trigger": false,
      "taf_trigger": false,
      "metar": "METAR LRSM 191330Z AUTO 24007KT 190V260 9999 FEW065/// 21/04 Q1014",
      "taf": ""
    },
    {
      "icao": "LRSV",
      "alert": "OK",
      "vis_m": 9999,
      "fzfg": false,
      "metar_trigger": false,
      "taf_trigger": false,
      "metar": "METAR LRSV 191330Z 34008KT 290V010 CAVOK 16/02 Q1013",
      "taf": "TAF LRSV 191100Z 1912/1921 31008KT 9999 BKN045"
    },
    {
      "icao": "LRTM",
      "alert": "OK",
      "vis_m": 9999,
      "fzfg": false,
      "metar_trigger": false,
      "taf_trigger": false,
      "metar": "METAR LRTM 191330Z VRB04KT CAVOK 19/05 Q1014",
      "taf": "TAF LRTM 191100Z 1912/1921 24005KT CAVOK"
    },
    {
      "icao": "LRTR",
      "alert": "OK",
      "vis_m": 9999,
      "fzfg": false,
      "metar_trigger": false,
      "taf_trigger": false,
      "metar": "METAR LRTR 191330Z 31004KT 260V360 CAVOK 21/03 Q1014 NOSIG",
      "taf": "TAF LRTR 191100Z 1912/2012 VRB04KT CAVOK"
    },
    {
      "icao": "LTAC",
      "alert": "OK",
      "vis_m": 9999,
      "fzfg": false,
      "metar_trigger": false,
      "taf_trigger": false,
      "metar": "METAR LTAC 191320Z VRB02KT 9999 SCT035 BKN100 10/M01 Q1012 NOSIG RMK RWY21C 15003KT 070V190 RWY03L VRB02KT RWY21R VRB02KT RWY03R VRB01KT RWY21L VRB02KT",
      "taf": "TAF LTAC 191040Z 1912/2012 VRB02KT 9999 SCT040 BKN100"
    },
    {
      "icao": "LTFM",
      "alert": "OK",
      "vis_m": 9999,
      "fzfg": false,
      "metar_trigger": false,
      "taf_trigger": false,
      "metar": "METAR LTFM 191320Z 01009KT 9999 FEW035 14/07 Q1016 NOSIG RMK RWY17L 02007KT RWY34L 01008KT 330V030 RWY16R 03007KT RWY36 03010KT RWY18 04007KT 360V060",
      "taf": "TAF LTFM 191040Z 1912/2018 35013KT 9999 FEW040"
    },
    {
      "icao": "LUKK",
      "alert": "OK",
      "vis_m": 9999,
      "fzfg": false,
      "metar_trigger": false,
      "taf_trigger": false,
      "metar": "METAR LUKK 191330Z 35008KT CAVOK 16/03 Q1013 NOSIG",
      "taf": "TAF LUKK 191100Z 1912/2012 34012KT 9999 SCT045"
    },
    {
      "icao": "LWOH",
      "alert": "OK",
      "vis_m": 9999,
      "fzfg": false,
      "metar_trigger": false,
      "taf_trigger": false,
      "metar": "METAR LWOH 191320Z 14008KT 9999 SCT040 19/06 Q1015",
      "taf": "TAF LWOH 191140Z 1912/2012 16007KT CAVOK"
    },
    {
      "icao": "LWSK",
      "alert": "OK",
      "vis_m": 9999,
      "fzfg": false,
      "metar_trigger": false,
      "taf_trigger": false,
      "metar": "METAR LWSK 191320Z VRB02KT CAVOK 23/03 Q1014 NOSIG",
      "taf": "TAF LWSK 191140Z 1912/2012 VRB03KT CAVOK"
    },
    {
      "icao": "LYBE",
      "alert": "OK",
      "vis_m": 9999,
      "fzfg": false,
      "metar_trigger": false,
      "taf_trigger": false,
      "metar": "METAR LYBE 191330Z VRB03KT CAVOK 21/04 Q1015 NOSIG",
      "taf": "TAF LYBE 191100Z 1912/2012 18005KT CAVOK TX22/1913Z TN08/2002Z"
    },
    {
      "icao": "LYNI",
      "alert": "OK",
      "vis_m": 9999,
      "fzfg": false,
      "metar_trigger": false,
      "taf_trigger": false,
      "metar": "METAR LYNI 191330Z 31004KT 270V020 CAVOK 21/03 Q1014 NOSIG",
      "taf": "TAF LYNI 191100Z 1912/2012 03007KT CAVOK TX22/1913Z TN07/2004Z"
    },
    {
      "icao": "LYPG",
      "alert": "OK",
      "vis_m": 9999,
      "fzfg": false,
      "metar_trigger": false,
      "taf_trigger": false,
      "metar": "METAR LYPG 191330Z 19008KT 140V220 CAVOK 24/01 Q1015 NOSIG",
      "taf": "TAF LYPG 191100Z 1912/2012 16005KT CAVOK TX25/1913Z TN12/2002Z"
    },
    {
      "icao": "LZIB",
      "alert": "OK",
      "vis_m": 9999,
      "fzfg": false,
      "metar_trigger": false,
      "taf_trigger": false,
      "metar": "METAR LZIB 191330Z VRB02KT CAVOK 22/04 Q1012 TEMPO 27020G30KT 4500 TSRA FEW045CB",
      "taf": ""
    },
    {
      "icao": "LZKZ",
      "alert": "OK",
      "vis_m": 9999,
      "fzfg": false,
      "metar_trigger": false,
      "taf_trigger": false,
      "metar": "METAR LZKZ 191330Z 16007KT 110V230 CAVOK 20/05 Q1013 NOSIG",
      "taf": "TAF LZKZ 191115Z 1912/2012 19008KT CAVOK"
    },
    {
      "icao": "LZTT",
      "alert": "OK",
      "vis_m": 9999,
      "fzfg": false,
      "metar_trigger": false,
      "taf_trigger": false,
      "metar": "METAR LZTT 191330Z 10006KT 050V180 9999 SCT066 17/01 Q1013 NOSIG",
      "taf": "TAF LZTT 191115Z 1912/2012 27006KT 9999 SCT060"
    },
    {
      "icao": "OEJN",
      "alert": "OK",
      "vis_m": 6000,
      "fzfg": false,
      "metar_trigger": false,
      "taf_trigger": false,
      "metar": "SPECI OEJN 191334Z 20013KT 6000 NSC 37/14 Q1004 NOSIG",
      "taf": "TAF OEJN 191100Z 1912/2018 20015KT 6000 FEW040"
    },
    {
      "icao": "OEMA",
      "alert": "OK",
      "vis_m": 9999,
      "fzfg": false,
      "metar_trigger": false,
      "taf_trigger": false,
      "metar": "METAR OEMA 191300Z 25010KT 9999 FEW040 36/09 Q1009 NOSIG",
      "taf": "TAF OEMA 191100Z 1912/2018 23015KT 7000 SCT045"
    },
    {
      "icao": "OJAI",
      "alert": "OK",
      "vis_m": null,
      "fzfg": false,
      "metar_trigger": false,
      "taf_trigger": false,
      "metar": "",
      "taf": "TAF OJAI 191100Z 1912/2018 25012KT 4000 DU SCT030"
    },
    {
      "icao": "OMAA",
      "alert": "OK",
      "vis_m": null,
      "fzfg": false,
      "metar_trigger": false,
      "taf_trigger": false,
      "metar": "",
      "taf": ""
    },
    {
      "icao": "OMDB",
      "alert": "OK",
      "vis_m": null,
      "fzfg": false,
      "metar_trigger": false,
      "taf_trigger": false,
      "metar": "",
      "taf": ""
    },
    {
      "icao": "UAAA",
      "alert": "OK",
      "vis_m": 9999,
      "fzfg": false,
      "metar_trigger": false,
      "taf_trigger": false,
      "metar": "METAR UAAA 191330Z 31002MPS 250V010 9999 SCT050CB BKN100 10/07 Q1018 NOSIG",
      "taf": "TAF UAAA 191105Z 1912/2012 22002G07MPS 9999 BKN040CB OVC100 TX16/2009Z TN04/2001Z"
    },
    {
      "icao": "UBBB",
      "alert": "OK",
      "vis_m": 9999,
      "fzfg": false,
      "metar_trigger": false,
      "taf_trigger": false,
      "metar": "METAR UBBB 191330Z 35010KT CAVOK 17/10 Q1003 NOSIG",
      "taf": "TAF UBBB 191052Z 1912/2012 32014G24KT 9999 SCT025 TX19/12Z TN10/2001Z"
    },
    {
      "icao": "UDSG",
      "alert": "OK",
      "vis_m": 9999,
      "fzfg": false,
      "metar_trigger": false,
      "taf_trigger": false,
      "metar": "METAR UDSG 191330Z 35008KT 9999 BKN040CB 10/05 Q1009 NOSIG",
      "taf": "TAF UDSG 191100Z 1912/2012 27006KT 9999 BKN040"
    },
    {
      "icao": "UDYZ",
      "alert": "OK",
      "vis_m": 9999,
      "fzfg": false,
      "metar_trigger": false,
      "taf_trigger": false,
      "metar": "METAR UDYZ 191330Z 23002KT 9999 FEW033 18/08 Q1006 NOSIG",
      "taf": "TAF UDYZ 191100Z 1912/2012 24006KT 6000 SCT040"
    },
    {
      "icao": "UGKO",
      "alert": "OK",
      "vis_m": 9999,
      "fzfg": false,
      "metar_trigger": false,
      "taf_trigger": false,
      "metar": "METAR UGKO 191330Z 30006KT 9999 SCT007 BKN024 OVC027 11/09 Q1012 NOSIG",
      "taf": "TAF UGKO 191100Z 1912/2012 26007KT 9999 SCT020 BKN050 TX12/2010Z TN09/2003Z"
    }
  ]
}