{
  "ts_utc": "2026-06-27T05:36:07Z",
  "threshold_m": 150,
  "source": "stations_override.txt (ICAO list) + aviationweather.gov (METAR/TAF raw)",
  "station_count": 159,
  "stations": [
    {
      "icao": "BIKF",
      "alert": "OK",
      "vis_m": 9999,
      "fzfg": false,
      "metar_trigger": false,
      "taf_trigger": false,
      "metar": "METAR BIKF 270530Z 10018KT 9999 -DZRA OVC016 09/07 Q1002",
      "taf": "TAF BIKF 270454Z 2706/2806 10015G25KT 9999 BKN018 OVC030 TX12/2716Z TN08/2706Z"
    },
    {
      "icao": "BKPR",
      "alert": "OK",
      "vis_m": 9999,
      "fzfg": false,
      "metar_trigger": false,
      "taf_trigger": false,
      "metar": "METAR BKPR 270530Z 08003KT 030V110 CAVOK 19/15 Q1023 NOSIG",
      "taf": "TAF BKPR 270530Z 2706/2806 04006KT 9999 FEW060"
    },
    {
      "icao": "EBCI",
      "alert": "OK",
      "vis_m": 9999,
      "fzfg": false,
      "metar_trigger": false,
      "taf_trigger": false,
      "metar": "METAR EBCI 270520Z 10003KT 060V140 CAVOK 25/16 Q1017 NOSIG",
      "taf": "TAF EBCI 270510Z 2706/2812 34006KT CAVOK"
    },
    {
      "icao": "EDDB",
      "alert": "OK",
      "vis_m": 9999,
      "fzfg": false,
      "metar_trigger": false,
      "taf_trigger": false,
      "metar": "METAR EDDB 270520Z AUTO 10004KT CAVOK 25/15 Q1018 NOSIG",
      "taf": "TAF EDDB 270500Z 2706/2806 14005KT CAVOK"
    },
    {
      "icao": "EDDH",
      "alert": "OK",
      "vis_m": 9999,
      "fzfg": false,
      "metar_trigger": false,
      "taf_trigger": false,
      "metar": "METAR EDDH 270520Z AUTO 14006KT CAVOK 26/15 Q1016 NOSIG",
      "taf": "TAF EDDH 270500Z 2706/2812 14005KT CAVOK"
    },
    {
      "icao": "EDDK",
      "alert": "OK",
      "vis_m": 9999,
      "fzfg": false,
      "metar_trigger": false,
      "taf_trigger": false,
      "metar": "METAR EDDK 270520Z AUTO VRB01KT CAVOK 26/22 Q1017 NOSIG",
      "taf": "TAF EDDK 270500Z 2706/2812 VRB03KT CAVOK"
    },
    {
      "icao": "EDDN",
      "alert": "OK",
      "vis_m": 9999,
      "fzfg": false,
      "metar_trigger": false,
      "taf_trigger": false,
      "metar": "METAR EDDN 270520Z AUTO 10005KT CAVOK 24/16 Q1020 NOSIG",
      "taf": "TAF EDDN 270500Z 2706/2806 11005KT CAVOK"
    },
    {
      "icao": "EDDS",
      "alert": "OK",
      "vis_m": 9999,
      "fzfg": false,
      "metar_trigger": false,
      "taf_trigger": false,
      "metar": "METAR EDDS 270520Z AUTO 08002KT CAVOK 23/16 Q1020 NOSIG",
      "taf": "TAF EDDS 270500Z 2706/2806 VRB02KT CAVOK"
    },
    {
      "icao": "EDFH",
      "alert": "OK",
      "vis_m": 9999,
      "fzfg": false,
      "metar_trigger": false,
      "taf_trigger": false,
      "metar": "METAR EDFH 270520Z 15005KT CAVOK 27/16 Q1019",
      "taf": "TAF EDFH 270500Z 2706/2806 14006KT CAVOK"
    },
    {
      "icao": "EDJA",
      "alert": "OK",
      "vis_m": 9999,
      "fzfg": false,
      "metar_trigger": false,
      "taf_trigger": false,
      "metar": "METAR EDJA 270520Z VRB02KT CAVOK 18/14 Q1022",
      "taf": "TAF EDJA 270500Z 2706/2715 VRB03KT CAVOK"
    },
    {
      "icao": "EDLW",
      "alert": "OK",
      "vis_m": 9999,
      "fzfg": false,
      "metar_trigger": false,
      "taf_trigger": false,
      "metar": "METAR EDLW 270520Z 22007KT CAVOK 26/21 Q1016",
      "taf": "TAF EDLW 270500Z 2706/2806 VRB03KT CAVOK"
    },
    {
      "icao": "EDNY",
      "alert": "OK",
      "vis_m": 9999,
      "fzfg": false,
      "metar_trigger": false,
      "taf_trigger": false,
      "metar": "METAR EDNY 270520Z 04005KT 360V080 CAVOK 20/14 Q1020",
      "taf": "TAF EDNY 270500Z 2706/2715 VRB03KT CAVOK"
    },
    {
      "icao": "EDSB",
      "alert": "OK",
      "vis_m": 9999,
      "fzfg": false,
      "metar_trigger": false,
      "taf_trigger": false,
      "metar": "METAR EDSB 270520Z VRB01KT CAVOK 25/21 Q1017",
      "taf": "TAF EDSB 270500Z 2706/2806 VRB03KT CAVOK"
    },
    {
      "icao": "EETN",
      "alert": "OK",
      "vis_m": 9999,
      "fzfg": false,
      "metar_trigger": false,
      "taf_trigger": false,
      "metar": "METAR EETN 270520Z 29010KT 9999 FEW013 19/16 Q1015 TEMPO BKN009",
      "taf": "TAF EETN 270530Z 2706/2806 30010KT 9999 FEW040"
    },
    {
      "icao": "EFTU",
      "alert": "OK",
      "vis_m": 9999,
      "fzfg": false,
      "metar_trigger": false,
      "taf_trigger": false,
      "metar": "METAR EFTU 270520Z AUTO 36004KT 310V040 CAVOK 18/13 Q1016",
      "taf": "TAF EFTU 270234Z 2703/2803 32004KT CAVOK"
    },
    {
      "icao": "EGBB",
      "alert": "OK",
      "vis_m": 9999,
      "fzfg": false,
      "metar_trigger": false,
      "taf_trigger": false,
      "metar": "METAR EGBB 270520Z 15005KT CAVOK 18/15 Q1017",
      "taf": "TAF EGBB 270500Z 2706/2806 20009KT 9999 FEW040"
    },
    {
      "icao": "EGGP",
      "alert": "OK",
      "vis_m": 9999,
      "fzfg": false,
      "metar_trigger": false,
      "taf_trigger": false,
      "metar": "METAR EGGP 270520Z 15006KT 080V190 9999 SCT040 18/15 Q1015",
      "taf": "TAF EGGP 270503Z 2706/2806 15008KT 9999 FEW030"
    },
    {
      "icao": "EGGW",
      "alert": "OK",
      "vis_m": 9999,
      "fzfg": false,
      "metar_trigger": false,
      "taf_trigger": false,
      "metar": "METAR EGGW 270520Z AUTO 23004KT 9999 NCD 19/17 Q1017",
      "taf": "TAF EGGW 270506Z 2706/2806 26005KT CAVOK"
    },
    {
      "icao": "EGKK",
      "alert": "OK",
      "vis_m": 9999,
      "fzfg": false,
      "metar_trigger": false,
      "taf_trigger": false,
      "metar": "METAR EGKK 270520Z VRB01KT CAVOK 19/18 Q1017",
      "taf": "TAF EGKK 270454Z 2706/2812 VRB04KT 9999 FEW040"
    },
    {
      "icao": "EGNM",
      "alert": "OK",
      "vis_m": 9999,
      "fzfg": false,
      "metar_trigger": false,
      "taf_trigger": false,
      "metar": "METAR EGNM 270520Z 21008KT 9999 FEW020 17/14 Q1015",
      "taf": "TAF EGNM 270504Z 2706/2806 VRB03KT 9999 FEW035"
    },
    {
      "icao": "EGPD",
      "alert": "OK",
      "vis_m": 9999,
      "fzfg": false,
      "metar_trigger": false,
      "taf_trigger": false,
      "metar": "METAR EGPD 270520Z AUTO 16009KT 9999 FEW012 BKN017 BKN022 15/14 Q1010",
      "taf": "TAF EGPD 270455Z 2706/2806 19009KT 9999 BKN020"
    },
    {
      "icao": "EGPF",
      "alert": "OK",
      "vis_m": 9999,
      "fzfg": false,
      "metar_trigger": false,
      "taf_trigger": false,
      "metar": "METAR EGPF 270520Z AUTO 17009KT 9999 OVC028 18/15 Q1011",
      "taf": "TAF EGPF 270500Z 2706/2806 16010KT 9999 BKN020"
    },
    {
      "icao": "EHBK",
      "alert": "OK",
      "vis_m": 9999,
      "fzfg": false,
      "metar_trigger": false,
      "taf_trigger": false,
      "metar": "METAR EHBK 270525Z AUTO VRB02KT 9999 NCD 26/19 Q1017 NOSIG",
      "taf": "TAF EHBK 270511Z 2706/2812 VRB02KT CAVOK"
    },
    {
      "icao": "EHEH",
      "alert": "OK",
      "vis_m": 9999,
      "fzfg": false,
      "metar_trigger": false,
      "taf_trigger": false,
      "metar": "METAR EHEH 270525Z AUTO 27003KT 220V310 9999 OVC310 23/19 Q1016 BLU NOSIG RMK TREND REMOTE BY EHWX",
      "taf": "TAF EHEH 261749Z 2618/2724 27004KT CAVOK"
    },
    {
      "icao": "EKBI",
      "alert": "OK",
      "vis_m": 9999,
      "fzfg": false,
      "metar_trigger": false,
      "taf_trigger": false,
      "metar": "METAR EKBI 270520Z AUTO 13004KT 100V160 9999 NCD 23/18 Q1016",
      "taf": "TAF EKBI 270527Z 2706/2806 13005KT CAVOK"
    },
    {
      "icao": "EKCH",
      "alert": "OK",
      "vis_m": 9999,
      "fzfg": false,
      "metar_trigger": false,
      "taf_trigger": false,
      "metar": "METAR EKCH 270520Z AUTO 15007KT 9999 NCD 23/16 Q1017 NOSIG",
      "taf": "TAF EKCH 270527Z 2706/2806 15006KT CAVOK"
    },
    {
      "icao": "ENAL",
      "alert": "OK",
      "vis_m": 9999,
      "fzfg": false,
      "metar_trigger": false,
      "taf_trigger": false,
      "metar": "METAR ENAL 270520Z 07015KT 9999 FEW010 SCT040 11/10 Q1016",
      "taf": "TAF ENAL 270500Z 2706/2715 06013KT 9999 FEW010 SCT040"
    },
    {
      "icao": "ENBR",
      "alert": "OK",
      "vis_m": 9999,
      "fzfg": false,
      "metar_trigger": false,
      "taf_trigger": false,
      "metar": "METAR ENBR 270520Z 00000KT 9999 FEW030 16/14 Q1014 NOSIG RMK WIND 1200FT 14008KT",
      "taf": "TAF ENBR 270500Z 2706/2806 VRB03KT 9999 BKN030"
    },
    {
      "icao": "ENGM",
      "alert": "OK",
      "vis_m": 9999,
      "fzfg": false,
      "metar_trigger": false,
      "taf_trigger": false,
      "metar": "METAR ENGM 270520Z VRB02KT CAVOK 16/14 Q1016 NOSIG",
      "taf": "TAF ENGM 270500Z 2706/2806 18008KT CAVOK"
    },
    {
      "icao": "ENHD",
      "alert": "OK",
      "vis_m": 9999,
      "fzfg": false,
      "metar_trigger": false,
      "taf_trigger": false,
      "metar": "METAR ENHD 270520Z 08006KT CAVOK 17/14 Q1013",
      "taf": "TAF ENHD 270500Z 2706/2715 10008KT 9999 FEW035"
    },
    {
      "icao": "ENTC",
      "alert": "OK",
      "vis_m": 9999,
      "fzfg": false,
      "metar_trigger": false,
      "taf_trigger": false,
      "metar": "METAR ENTC 270520Z 23012KT 9999 FEW017 BKN038 10/05 Q1010 RMK WIND 2600FT 25021KT",
      "taf": "TAF ENTC 270500Z 2706/2806 26012KT 9999 -SHRA SCT015 BKN030"
    },
    {
      "icao": "ENTO",
      "alert": "OK",
      "vis_m": 3400,
      "fzfg": false,
      "metar_trigger": false,
      "taf_trigger": false,
      "metar": "METAR ENTO 270520Z AUTO 03005KT 3400 // NCD 18/17 Q1015",
      "taf": "TAF ENTO 262300Z 2700/2724 20005KT 9999 FEW050"
    },
    {
      "icao": "ENVA",
      "alert": "OK",
      "vis_m": 9999,
      "fzfg": false,
      "metar_trigger": false,
      "taf_trigger": false,
      "metar": "METAR ENVA 270520Z 00000KT 9999 FEW016 BKN023 13/10 Q1018 NOSIG RMK WIND 670FT VRB02KT",
      "taf": "TAF ENVA 270500Z 2706/2806 VRB03KT 9999 BKN025"
    },
    {
      "icao": "ENZV",
      "alert": "OK",
      "vis_m": 9999,
      "fzfg": false,
      "metar_trigger": false,
      "taf_trigger": false,
      "metar": "METAR ENZV 270520Z 08004KT CAVOK 17/15 Q1013 NOSIG",
      "taf": "TAF ENZV 270500Z 2706/2806 VRB03KT CAVOK"
    },
    {
      "icao": "EPGD",
      "alert": "OK",
      "vis_m": 9999,
      "fzfg": false,
      "metar_trigger": false,
      "taf_trigger": false,
      "metar": "METAR EPGD 270530Z 22005KT 180V240 CAVOK 24/16 Q1021",
      "taf": "TAF EPGD 270530Z 2706/2806 25010KT CAVOK"
    },
    {
      "icao": "EPKK",
      "alert": "OK",
      "vis_m": 9999,
      "fzfg": false,
      "metar_trigger": false,
      "taf_trigger": false,
      "metar": "METAR EPKK 270530Z 09003KT 060V120 CAVOK 22/15 Q1022",
      "taf": "TAF EPKK 270530Z 2706/2806 07004KT CAVOK"
    },
    {
      "icao": "EPKT",
      "alert": "OK",
      "vis_m": 9999,
      "fzfg": false,
      "metar_trigger": false,
      "taf_trigger": false,
      "metar": "METAR EPKT 270530Z 08003KT 030V120 CAVOK 24/15 Q1022",
      "taf": "TAF EPKT 270530Z 2706/2806 16004KT CAVOK"
    },
    {
      "icao": "EPLB",
      "alert": "OK",
      "vis_m": 9999,
      "fzfg": false,
      "metar_trigger": false,
      "taf_trigger": false,
      "metar": "METAR EPLB 270530Z 11003KT CAVOK 23/15 Q1022",
      "taf": "TAF EPLB 270530Z 2706/2806 VRB07KT CAVOK"
    },
    {
      "icao": "EPMO",
      "alert": "OK",
      "vis_m": 9999,
      "fzfg": false,
      "metar_trigger": false,
      "taf_trigger": false,
      "metar": "METAR EPMO 270530Z 16005KT 130V190 CAVOK 24/16 Q1022",
      "taf": "TAF EPMO 270530Z 2706/2806 16010KT CAVOK"
    },
    {
      "icao": "EPPO",
      "alert": "OK",
      "vis_m": 9999,
      "fzfg": false,
      "metar_trigger": false,
      "taf_trigger": false,
      "metar": "METAR EPPO 270530Z 14006KT CAVOK 25/16 Q1021",
      "taf": "TAF EPPO 270530Z 2706/2806 13006KT CAVOK"
    },
    {
      "icao": "EPRA",
      "alert": "OK",
      "vis_m": 9999,
      "fzfg": false,
      "metar_trigger": false,
      "taf_trigger": false,
      "metar": "METAR EPRA 270530Z 14006KT CAVOK 24/14 Q1022",
      "taf": "TAF EPRA 270530Z 2706/2715 14006KT CAVOK"
    },
    {
      "icao": "EPRZ",
      "alert": "OK",
      "vis_m": 9999,
      "fzfg": false,
      "metar_trigger": false,
      "taf_trigger": false,
      "metar": "METAR EPRZ 270530Z VRB01KT CAVOK 24/17 Q1022",
      "taf": "TAF EPRZ 270530Z 2706/2806 10004KT CAVOK"
    },
    {
      "icao": "EPSC",
      "alert": "OK",
      "vis_m": 9999,
      "fzfg": false,
      "metar_trigger": false,
      "taf_trigger": false,
      "metar": "METAR EPSC 270530Z 13009KT CAVOK 24/16 Q1019",
      "taf": "TAF EPSC 270530Z 2706/2806 16007KT CAVOK"
    },
    {
      "icao": "EPSY",
      "alert": "OK",
      "vis_m": 9999,
      "fzfg": false,
      "metar_trigger": false,
      "taf_trigger": false,
      "metar": "METAR EPSY 270530Z 19005KT CAVOK 22/16 Q1022",
      "taf": "TAF EPSY 270530Z 2706/2715 VRB02KT CAVOK"
    },
    {
      "icao": "EPWA",
      "alert": "OK",
      "vis_m": 9999,
      "fzfg": false,
      "metar_trigger": false,
      "taf_trigger": false,
      "metar": "METAR EPWA 270530Z 15005KT CAVOK 24/16 Q1022 NOSIG",
      "taf": "TAF EPWA 270530Z 2706/2806 16010KT CAVOK"
    },
    {
      "icao": "EPWR",
      "alert": "OK",
      "vis_m": 9999,
      "fzfg": false,
      "metar_trigger": false,
      "taf_trigger": false,
      "metar": "METAR EPWR 270530Z 13006KT CAVOK 23/17 Q1020",
      "taf": "TAF EPWR 270530Z 2706/2806 15005KT CAVOK"
    },
    {
      "icao": "ESGG",
      "alert": "OK",
      "vis_m": 9999,
      "fzfg": false,
      "metar_trigger": false,
      "taf_trigger": false,
      "metar": "METAR ESGG 270520Z 19006KT CAVOK 21/16 Q1016",
      "taf": "TAF ESGG 270530Z 2706/2806 18008KT CAVOK"
    },
    {
      "icao": "ESKN",
      "alert": "OK",
      "vis_m": 9999,
      "fzfg": false,
      "metar_trigger": false,
      "taf_trigger": false,
      "metar": "METAR ESKN 270520Z VRB03KT CAVOK 21/13 Q1016",
      "taf": "TAF ESKN 270530Z 2706/2806 VRB03KT CAVOK"
    },
    {
      "icao": "ESMS",
      "alert": "OK",
      "vis_m": 9999,
      "fzfg": false,
      "metar_trigger": false,
      "taf_trigger": false,
      "metar": "METAR ESMS 270520Z 14005KT CAVOK 22/18 Q1017",
      "taf": "TAF ESMS 270527Z 2706/2806 14006KT CAVOK"
    },
    {
      "icao": "ESSA",
      "alert": "OK",
      "vis_m": 9999,
      "fzfg": false,
      "metar_trigger": false,
      "taf_trigger": false,
      "metar": "METAR ESSA 270520Z 19004KT CAVOK 18/15 Q1016 NOSIG",
      "taf": "TAF ESSA 270530Z 2706/2806 VRB03KT CAVOK"
    },
    {
      "icao": "EYKA",
      "alert": "OK",
      "vis_m": 9999,
      "fzfg": false,
      "metar_trigger": false,
      "taf_trigger": false,
      "metar": "METAR EYKA 270520Z 22004KT 170V250 CAVOK 20/14 Q1021",
      "taf": "TAF EYKA 270500Z 2706/2806 VRB03KT CAVOK"
    },
    {
      "icao": "EYPA",
      "alert": "OK",
      "vis_m": 9999,
      "fzfg": false,
      "metar_trigger": false,
      "taf_trigger": false,
      "metar": "METAR EYPA 270520Z 21006KT 180V240 CAVOK 22/18 Q1020",
      "taf": "TAF EYPA 270500Z 2706/2806 22010KT 9000 NSC"
    },
    {
      "icao": "EYVI",
      "alert": "OK",
      "vis_m": 9999,
      "fzfg": false,
      "metar_trigger": false,
      "taf_trigger": false,
      "metar": "METAR EYVI 270520Z 17005KT CAVOK 19/13 Q1022 NOSIG",
      "taf": "TAF EYVI 270500Z 2706/2806 VRB03KT 9000 NSC"
    },
    {
      "icao": "GCFV",
      "alert": "OK",
      "vis_m": 9999,
      "fzfg": false,
      "metar_trigger": false,
      "taf_trigger": false,
      "metar": "METAR GCFV 270530Z 36007KT 9999 FEW020 21/17 Q1019",
      "taf": "TAF GCFV 270200Z 2703/2803 04012KT 9999 FEW020 TX26/2714Z TN20/2706Z"
    },
    {
      "icao": "GCLP",
      "alert": "OK",
      "vis_m": 9999,
      "fzfg": false,
      "metar_trigger": false,
      "taf_trigger": false,
      "metar": "METAR GCLP 270530Z 36013KT 9999 FEW020 22/17 Q1019 NOSIG",
      "taf": "TAF GCLP 270200Z 2703/2803 36013KT 9999 SCT020 TX28/2714Z TN20/2706Z"
    },
    {
      "icao": "GCTS",
      "alert": "OK",
      "vis_m": 9999,
      "fzfg": false,
      "metar_trigger": false,
      "taf_trigger": false,
      "metar": "METAR GCTS 270530Z 06005KT 9999 FEW035 21/16 Q1019 NOSIG",
      "taf": "TAF GCTS 270200Z 2703/2803 06006KT 9999 SCT030 TX27/2714Z TN20/2706Z"
    },
    {
      "icao": "GMAD",
      "alert": "OK",
      "vis_m": 8000,
      "fzfg": false,
      "metar_trigger": false,
      "taf_trigger": false,
      "metar": "METAR GMAD 270530Z 00000KT 8000 SCT010 18/16 Q1017 NOSIG",
      "taf": "TAF GMAD 270500Z 2706/2812 22004KT 6000 BKN010"
    },
    {
      "icao": "GMMN",
      "alert": "OK",
      "vis_m": 9999,
      "fzfg": false,
      "metar_trigger": false,
      "taf_trigger": false,
      "metar": "METAR GMMN 270530Z 06006KT 9999 BKN016 21/17 Q1019 NOSIG",
      "taf": "TAF GMMN 270500Z 2706/2812 08006KT 9999 BKN016"
    },
    {
      "icao": "GMMX",
      "alert": "OK",
      "vis_m": 9999,
      "fzfg": false,
      "metar_trigger": false,
      "taf_trigger": false,
      "metar": "METAR GMMX 270530Z 26003KT 220V290 CAVOK 19/15 Q1018 NOSIG",
      "taf": "TAF GMMX 270500Z 2706/2812 28006KT 8000 NSC"
    },
    {
      "icao": "HEGN",
      "alert": "OK",
      "vis_m": 9999,
      "fzfg": false,
      "metar_trigger": false,
      "taf_trigger": false,
      "metar": "METAR HEGN 270500Z 33015KT CAVOK 30/18 Q1009 NOSIG",
      "taf": "TAF HEGN 270500Z 2706/2812 32010G22KT CAVOK"
    },
    {
      "icao": "HEMA",
      "alert": "OK",
      "vis_m": 9999,
      "fzfg": false,
      "metar_trigger": false,
      "taf_trigger": false,
      "metar": "METAR HEMA 270500Z 33014KT CAVOK 30/11 Q1008 NOSIG",
      "taf": "TAF HEMA 270500Z 2706/2812 33012G24KT CAVOK"
    },
    {
      "icao": "HESH",
      "alert": "OK",
      "vis_m": 9999,
      "fzfg": false,
      "metar_trigger": false,
      "taf_trigger": false,
      "metar": "METAR HESH 270500Z 35012KT CAVOK 29/15 Q1007 NOSIG",
      "taf": "TAF HESH 270500Z 2706/2812 34014KT CAVOK"
    },
    {
      "icao": "HESX",
      "alert": "OK",
      "vis_m": 9999,
      "fzfg": false,
      "metar_trigger": false,
      "taf_trigger": false,
      "metar": "METAR HESX 270500Z 04006KT CAVOK 23/15 Q1011 NOSIG",
      "taf": "TAF HESX 270500Z 2706/2812 05005KT CAVOK"
    },
    {
      "icao": "LATI",
      "alert": "OK",
      "vis_m": 9999,
      "fzfg": false,
      "metar_trigger": false,
      "taf_trigger": false,
      "metar": "METAR LATI 270520Z VRB03KT CAVOK 25/18 Q1017 NOSIG",
      "taf": "TAF LATI 270500Z 2706/2806 VRB05KT CAVOK TX37/2712Z TN22/2804Z"
    },
    {
      "icao": "LBPD",
      "alert": "OK",
      "vis_m": 9999,
      "fzfg": false,
      "metar_trigger": false,
      "taf_trigger": false,
      "metar": "METAR LBPD 270530Z AUTO 31003KT 290V350 9999 BKN098/// 23/19 Q1020 NOSIG",
      "taf": "TAF LBPD 270500Z 2706/2806 31008KT 9999 SCT070"
    },
    {
      "icao": "LBSF",
      "alert": "OK",
      "vis_m": 9000,
      "fzfg": false,
      "metar_trigger": false,
      "taf_trigger": false,
      "metar": "METAR LBSF 270530Z VRB02KT 9000 NSC 21/16 Q1023 TEMPO 5000 BR",
      "taf": "TAF LBSF 270500Z 2706/2806 VRB03KT 9999 SCT060"
    },
    {
      "icao": "LBWN",
      "alert": "OK",
      "vis_m": 9999,
      "fzfg": false,
      "metar_trigger": false,
      "taf_trigger": false,
      "metar": "METAR LBWN 270530Z 02013KT 350V050 CAVOK 25/18 Q1018 NOSIG",
      "taf": "TAF LBWN 270500Z 2706/2806 VRB04KT CAVOK"
    },
    {
      "icao": "LCLK",
      "alert": "OK",
      "vis_m": 5000,
      "fzfg": false,
      "metar_trigger": false,
      "taf_trigger": false,
      "metar": "METAR LCLK 270500Z 09004KT 5000 VCFG FEW003 27/25 Q1008 BECMG 7000",
      "taf": "TAF LCLK 270530Z 2706/2806 15007KT 9999 FEW020"
    },
    {
      "icao": "LCPH",
      "alert": "OK",
      "vis_m": 9999,
      "fzfg": false,
      "metar_trigger": false,
      "taf_trigger": false,
      "metar": "METAR LCPH 270500Z VRB02KT 9999 FEW009 25/21 Q1008 NOSIG",
      "taf": "TAF LCPH 270530Z 2706/2806 35007KT 9999 FEW020"
    },
    {
      "icao": "LEAL",
      "alert": "OK",
      "vis_m": 9999,
      "fzfg": false,
      "metar_trigger": false,
      "taf_trigger": false,
      "metar": "METAR LEAL 270530Z 26002KT 9999 BKN018 25/21 Q1018 NOSIG",
      "taf": "TAF LEAL 270500Z 2706/2806 VRB04KT 9999 FEW020 TX31/2712Z TN21/2706Z"
    },
    {
      "icao": "LEBB",
      "alert": "OK",
      "vis_m": 9000,
      "fzfg": false,
      "metar_trigger": false,
      "taf_trigger": false,
      "metar": "METAR LEBB 270530Z VRB02KT 9000 SCT008 BKN027 23/22 Q1017 NOSIG",
      "taf": "TAF LEBB 270500Z 2706/2806 30009KT 9999 FEW020 TX28/2713Z TN21/2803Z"
    },
    {
      "icao": "LEBL",
      "alert": "OK",
      "vis_m": 9000,
      "fzfg": false,
      "metar_trigger": false,
      "taf_trigger": false,
      "metar": "METAR LEBL 270530Z 33009G21KT 280V090 9000 NSC 24/17 Q1018 NOSIG",
      "taf": "TAF LEBL 270500Z 2706/2806 VRB03KT CAVOK TX32/2712Z TN23/2805Z"
    },
    {
      "icao": "LECH",
      "alert": "OK",
      "vis_m": 9000,
      "fzfg": false,
      "metar_trigger": false,
      "taf_trigger": false,
      "metar": "METAR LECH 270530Z AUTO 00000KT 9000 FEW010 SCT020 20/17 Q1020",
      "taf": "TAF LECH 270500Z 2706/2806 VRB04KT 9999 SCT015 TX33/2712Z TN18/2706Z"
    },
    {
      "icao": "LEMD",
      "alert": "OK",
      "vis_m": 9999,
      "fzfg": false,
      "metar_trigger": false,
      "taf_trigger": false,
      "metar": "METAR LEMD 270530Z 36003KT CAVOK 20/08 Q1019 NOSIG",
      "taf": "TAF LEMD 270500Z 2706/2812 VRB04KT CAVOK TX35/2716Z TN19/2706Z"
    },
    {
      "icao": "LEMG",
      "alert": "OK",
      "vis_m": 9999,
      "fzfg": false,
      "metar_trigger": false,
      "taf_trigger": false,
      "metar": "METAR LEMG 270530Z 31002KT CAVOK 20/14 Q1017 NOSIG",
      "taf": "TAF LEMG 270500Z 2706/2806 VRB03KT CAVOK TX33/2713Z TN23/2805Z"
    },
    {
      "icao": "LEVC",
      "alert": "OK",
      "vis_m": 9999,
      "fzfg": false,
      "metar_trigger": false,
      "taf_trigger": false,
      "metar": "METAR LEVC 270530Z 34004KT 9999 FEW017 SCT025 24/21 Q1018 NOSIG",
      "taf": "TAF LEVC 270500Z 2706/2806 VRB04KT 9999 FEW020 TX32/2712Z TN21/2706Z"
    },
    {
      "icao": "LEXJ",
      "alert": "OK",
      "vis_m": 9000,
      "fzfg": false,
      "metar_trigger": false,
      "taf_trigger": false,
      "metar": "METAR LEXJ 270530Z VRB02KT 9000 SCT008 BKN018 22/21 Q1017",
      "taf": "TAF LEXJ 270200Z 2703/2803 VRB03KT 9999 FEW015 TX27/2713Z TN19/2705Z"
    },
    {
      "icao": "LEZG",
      "alert": "OK",
      "vis_m": 9999,
      "fzfg": false,
      "metar_trigger": false,
      "taf_trigger": false,
      "metar": "METAR LEZG 270530Z 12006KT 080V150 CAVOK 24/18 Q1018 NOSIG",
      "taf": "TAF LEZG 270500Z 2706/2806 11010KT CAVOK TX38/2715Z TN22/2706Z"
    },
    {
      "icao": "LEZL",
      "alert": "OK",
      "vis_m": 9999,
      "fzfg": false,
      "metar_trigger": false,
      "taf_trigger": false,
      "metar": "METAR LEZL 270530Z VRB02KT CAVOK 21/18 Q1018 NOSIG",
      "taf": "TAF LEZL 270200Z 2703/2803 VRB03KT CAVOK TX36/2715Z TN20/2705Z"
    },
    {
      "icao": "LFBD",
      "alert": "OK",
      "vis_m": 9999,
      "fzfg": false,
      "metar_trigger": false,
      "taf_trigger": false,
      "metar": "METAR LFBD 270530Z AUTO VRB02KT CAVOK 24/20 Q1016 NOSIG",
      "taf": "TAF LFBD 262300Z 2700/2806 35005KT CAVOK TX37/2715Z TN21/2805Z"
    },
    {
      "icao": "LFLL",
      "alert": "OK",
      "vis_m": 9999,
      "fzfg": false,
      "metar_trigger": false,
      "taf_trigger": false,
      "metar": "METAR LFLL 270530Z 14004KT 110V170 CAVOK 27/14 Q1019 NOSIG",
      "taf": "TAF LFLL 270500Z 2706/2812 17012KT CAVOK"
    },
    {
      "icao": "LFLS",
      "alert": "OK",
      "vis_m": 9999,
      "fzfg": false,
      "metar_trigger": false,
      "taf_trigger": false,
      "metar": "METAR LFLS 270530Z AUTO 08005KT CAVOK 23/17 Q1021 BECMG 21010KT",
      "taf": "TAF LFLS 270200Z 2703/2803 VRB03KT CAVOK"
    },
    {
      "icao": "LFMN",
      "alert": "OK",
      "vis_m": 9999,
      "fzfg": false,
      "metar_trigger": false,
      "taf_trigger": false,
      "metar": "METAR LFMN 270530Z 34011KT CAVOK 27/16 Q1019 NOSIG",
      "taf": ""
    },
    {
      "icao": "LFOB",
      "alert": "OK",
      "vis_m": 9999,
      "fzfg": false,
      "metar_trigger": false,
      "taf_trigger": false,
      "metar": "METAR LFOB 270530Z AUTO VRB02KT CAVOK 21/14 Q1017 NOSIG",
      "taf": "TAF LFOB 262300Z 2700/2724 35010KT CAVOK"
    },
    {
      "icao": "LFPO",
      "alert": "OK",
      "vis_m": 9999,
      "fzfg": false,
      "metar_trigger": false,
      "taf_trigger": false,
      "metar": "METAR LFPO 270530Z 35006KT 320V020 CAVOK 24/13 Q1016 NOSIG",
      "taf": "TAF LFPO 262300Z 2700/2806 02010KT CAVOK"
    },
    {
      "icao": "LFSB",
      "alert": "OK",
      "vis_m": 9999,
      "fzfg": false,
      "metar_trigger": false,
      "taf_trigger": false,
      "metar": "METAR LFSB 270530Z AUTO 20005KT CAVOK 26/16 Q1019 NOSIG",
      "taf": "TAF LFSB 270500Z 2706/2806 VRB03KT CAVOK"
    },
    {
      "icao": "LGAV",
      "alert": "OK",
      "vis_m": 9999,
      "fzfg": false,
      "metar_trigger": false,
      "taf_trigger": false,
      "metar": "METAR LGAV 270520Z 02016G26KT CAVOK 28/12 Q1014 NOSIG",
      "taf": "TAF LGAV 270500Z 2706/2806 03018G28KT 9999 FEW025"
    },
    {
      "icao": "LGTS",
      "alert": "OK",
      "vis_m": 9999,
      "fzfg": false,
      "metar_trigger": false,
      "taf_trigger": false,
      "metar": "METAR LGTS 270520Z 10002KT 9999 FEW025 26/19 Q1018 NOSIG",
      "taf": "TAF LGTS 270500Z 2706/2806 VRB03KT 9999 FEW030"
    },
    {
      "icao": "LHBP",
      "alert": "OK",
      "vis_m": 9999,
      "fzfg": false,
      "metar_trigger": false,
      "taf_trigger": false,
      "metar": "METAR LHBP 270530Z VRB01KT CAVOK 27/15 Q1021 NOSIG",
      "taf": "TAF LHBP 270515Z 2706/2806 VRB04KT CAVOK"
    },
    {
      "icao": "LHDC",
      "alert": "OK",
      "vis_m": 9999,
      "fzfg": false,
      "metar_trigger": false,
      "taf_trigger": false,
      "metar": "METAR LHDC 270515Z AUTO 07005KT 030V100 CAVOK 26/16 Q1021 NOSIG",
      "taf": "TAF LHDC 270515Z 2706/2715 05008KT CAVOK"
    },
    {
      "icao": "LIBD",
      "alert": "OK",
      "vis_m": 9999,
      "fzfg": false,
      "metar_trigger": false,
      "taf_trigger": false,
      "metar": "METAR LIBD 270520Z 31003KT 270V350 CAVOK 26/17 Q1018",
      "taf": "TAF LIBD 270500Z 2706/2806 27006KT CAVOK"
    },
    {
      "icao": "LIBG",
      "alert": "OK",
      "vis_m": 9999,
      "fzfg": false,
      "metar_trigger": false,
      "taf_trigger": false,
      "metar": "METAR LIBG 270520Z AUTO 05004KT 330V130 9999 NCD 29/17 Q1017",
      "taf": "TAF LIBG 270500Z 2706/2806 VRB05KT CAVOK"
    },
    {
      "icao": "LIBP",
      "alert": "OK",
      "vis_m": 9999,
      "fzfg": false,
      "metar_trigger": false,
      "taf_trigger": false,
      "metar": "METAR LIBP 270520Z AUTO 23004KT 200V260 9999 NCD 24/17 Q1019",
      "taf": "TAF LIBP 270500Z 2706/2806 VRB05KT CAVOK"
    },
    {
      "icao": "LIBR",
      "alert": "OK",
      "vis_m": 9999,
      "fzfg": false,
      "metar_trigger": false,
      "taf_trigger": false,
      "metar": "METAR LIBR 270520Z 33011KT CAVOK 27/24 Q1017",
      "taf": "TAF LIBR 270500Z 2706/2806 33013KT CAVOK"
    },
    {
      "icao": "LICA",
      "alert": "OK",
      "vis_m": 9999,
      "fzfg": false,
      "metar_trigger": false,
      "taf_trigger": false,
      "metar": "METAR LICA 270520Z AUTO VRB01KT 9999 FEW016/// 26/23 Q1018",
      "taf": "TAF LICA 270500Z 2706/2806 VRB05KT 9999 SCT030"
    },
    {
      "icao": "LICC",
      "alert": "OK",
      "vis_m": 9999,
      "fzfg": false,
      "metar_trigger": false,
      "taf_trigger": false,
      "metar": "METAR LICC 270520Z 24006KT CAVOK 23/17 Q1017",
      "taf": "TAF LICC 270500Z 2706/2806 25008KT CAVOK"
    },
    {
      "icao": "LICJ",
      "alert": "OK",
      "vis_m": 9999,
      "fzfg": false,
      "metar_trigger": false,
      "taf_trigger": false,
      "metar": "METAR LICJ 270520Z AUTO VRB01KT 9999 NCD 26/21 Q1018",
      "taf": "TAF LICJ 270500Z 2706/2806 VRB05KT CAVOK"
    },
    {
      "icao": "LIMC",
      "alert": "OK",
      "vis_m": 9999,
      "fzfg": false,
      "metar_trigger": false,
      "taf_trigger": false,
      "metar": "METAR LIMC 270520Z 03005KT CAVOK 26/22 Q1020 NOSIG",
      "taf": "TAF LIMC 270500Z 2706/2812 VRB05KT 9999 FEW050"
    },
    {
      "icao": "LIME",
      "alert": "OK",
      "vis_m": 9999,
      "fzfg": false,
      "metar_trigger": false,
      "taf_trigger": false,
      "metar": "METAR LIME 270520Z 01003KT CAVOK 26/20 Q1020 NOSIG",
      "taf": "TAF LIME 270500Z 2706/2806 VRB05KT 9999 FEW060"
    },
    {
      "icao": "LIMF",
      "alert": "OK",
      "vis_m": 9999,
      "fzfg": false,
      "metar_trigger": false,
      "taf_trigger": false,
      "metar": "METAR LIMF 270520Z 35003KT CAVOK 27/21 Q1021",
      "taf": "TAF LIMF 270500Z 2706/2806 VRB05KT CAVOK"
    },
    {
      "icao": "LIMJ",
      "alert": "OK",
      "vis_m": 9999,
      "fzfg": false,
      "metar_trigger": false,
      "taf_trigger": false,
      "metar": "METAR LIMJ 270520Z 02003KT 330V100 CAVOK 29/19 Q1018",
      "taf": "TAF LIMJ 270500Z 2706/2806 VRB05KT CAVOK"
    },
    {
      "icao": "LIPE",
      "alert": "OK",
      "vis_m": 9999,
      "fzfg": false,
      "metar_trigger": false,
      "taf_trigger": false,
      "metar": "METAR LIPE 270520Z 19007KT 150V220 CAVOK 25/16 Q1019",
      "taf": "TAF LIPE 270500Z 2706/2806 VRB05KT CAVOK"
    },
    {
      "icao": "LIPH",
      "alert": "OK",
      "vis_m": 9999,
      "fzfg": false,
      "metar_trigger": false,
      "taf_trigger": false,
      "metar": "METAR LIPH 270520Z 03002KT CAVOK 28/19 Q1019",
      "taf": "TAF LIPH 270500Z 2706/2806 VRB05KT 9999 FEW040"
    },
    {
      "icao": "LIPQ",
      "alert": "OK",
      "vis_m": 9999,
      "fzfg": false,
      "metar_trigger": false,
      "taf_trigger": false,
      "metar": "METAR LIPQ 270520Z AUTO 01003KT 9999 NCD 25/19 Q1019",
      "taf": "TAF LIPQ 270500Z 2706/2806 03006KT CAVOK"
    },
    {
      "icao": "LIPR",
      "alert": "OK",
      "vis_m": 9999,
      "fzfg": false,
      "metar_trigger": false,
      "taf_trigger": false,
      "metar": "METAR LIPR 270520Z VRB01KT CAVOK 25/15 Q1019",
      "taf": "TAF LIPR 270500Z 2706/2806 VRB05KT CAVOK"
    },
    {
      "icao": "LIPX",
      "alert": "OK",
      "vis_m": 9999,
      "fzfg": false,
      "metar_trigger": false,
      "taf_trigger": false,
      "metar": "METAR LIPX 270520Z VRB02KT CAVOK 28/19 Q1019",
      "taf": "TAF LIPX 270500Z 2706/2806 VRB05KT CAVOK"
    },
    {
      "icao": "LIPY",
      "alert": "OK",
      "vis_m": 9999,
      "fzfg": false,
      "metar_trigger": false,
      "taf_trigger": false,
      "metar": "METAR LIPY 270520Z AUTO 19004KT 9999 NCD 25/14 Q1019",
      "taf": "TAF LIPY 270500Z 2706/2806 VRB05KT CAVOK"
    },
    {
      "icao": "LIPZ",
      "alert": "OK",
      "vis_m": 9999,
      "fzfg": false,
      "metar_trigger": false,
      "taf_trigger": false,
      "metar": "METAR LIPZ 270520Z 05006KT CAVOK 27/19 Q1019 NOSIG",
      "taf": "TAF LIPZ 270500Z 2706/2812 03008KT CAVOK"
    },
    {
      "icao": "LIRF",
      "alert": "OK",
      "vis_m": 9999,
      "fzfg": false,
      "metar_trigger": false,
      "taf_trigger": false,
      "metar": "METAR LIRF 270520Z 05002KT CAVOK 25/23 Q1018 NOSIG",
      "taf": "TAF LIRF 270500Z 2706/2812 VRB05KT CAVOK"
    },
    {
      "icao": "LIRN",
      "alert": "OK",
      "vis_m": 9999,
      "fzfg": false,
      "metar_trigger": false,
      "taf_trigger": false,
      "metar": "METAR LIRN 270520Z VRB02KT CAVOK 27/18 Q1018 NOSIG",
      "taf": "TAF LIRN 270500Z 2706/2806 VRB05KT CAVOK"
    },
    {
      "icao": "LIRP",
      "alert": "OK",
      "vis_m": 9999,
      "fzfg": false,
      "metar_trigger": false,
      "taf_trigger": false,
      "metar": "METAR LIRP 270515Z VRB02KT CAVOK 23/18 Q1019 NOSIG",
      "taf": "TAF LIRP 270500Z 2706/2806 VRB03KT CAVOK"
    },
    {
      "icao": "LIRZ",
      "alert": "OK",
      "vis_m": 9999,
      "fzfg": false,
      "metar_trigger": false,
      "taf_trigger": false,
      "metar": "METAR LIRZ 270520Z AUTO 36005KT 9999 NCD 21/13 Q1020",
      "taf": "TAF LIRZ 270500Z 2706/2806 VRB05KT CAVOK"
    },
    {
      "icao": "LJLJ",
      "alert": "OK",
      "vis_m": 9999,
      "fzfg": false,
      "metar_trigger": false,
      "taf_trigger": false,
      "metar": "METAR LJLJ 270530Z 34004KT CAVOK 21/16 Q1023 NOSIG",
      "taf": "TAF LJLJ 270500Z 2706/2806 35004KT CAVOK"
    },
    {
      "icao": "LKMT",
      "alert": "OK",
      "vis_m": 9999,
      "fzfg": false,
      "metar_trigger": false,
      "taf_trigger": false,
      "metar": "METAR LKMT 270530Z VRB02KT CAVOK 21/17 Q1021 NOSIG",
      "taf": "TAF LKMT 270500Z 2706/2806 VRB02KT CAVOK"
    },
    {
      "icao": "LKPR",
      "alert": "OK",
      "vis_m": 9999,
      "fzfg": false,
      "metar_trigger": false,
      "taf_trigger": false,
      "metar": "METAR LKPR 270530Z VRB02KT CAVOK 25/18 Q1021 NOSIG",
      "taf": "TAF LKPR 270500Z 2706/2812 VRB02KT CAVOK"
    },
    {
      "icao": "LLBG",
      "alert": "OK",
      "vis_m": 9999,
      "fzfg": false,
      "metar_trigger": false,
      "taf_trigger": false,
      "metar": "METAR LLBG 270520Z 18008KT 9999 BKN028 26/19 Q1010 NOSIG",
      "taf": "TAF LLBG 270501Z 2706/2806 19008KT 9999 SCT028 TX30/2711Z TN22/2803Z"
    },
    {
      "icao": "LMML",
      "alert": "OK",
      "vis_m": 9999,
      "fzfg": false,
      "metar_trigger": false,
      "taf_trigger": false,
      "metar": "METAR LMML 270515Z 31003KT CAVOK 26/23 Q1017 NOSIG",
      "taf": "TAF LMML 270500Z 2706/2806 35006KT 9999 FEW020"
    },
    {
      "icao": "LOWW",
      "alert": "OK",
      "vis_m": 9999,
      "fzfg": false,
      "metar_trigger": false,
      "taf_trigger": false,
      "metar": "METAR LOWW 270520Z VRB02KT CAVOK 26/15 Q1021 NOSIG",
      "taf": "TAF LOWW 270515Z 2706/2812 20004KT CAVOK TX38/2714Z TN22/2803Z"
    },
    {
      "icao": "LPFR",
      "alert": "OK",
      "vis_m": 9999,
      "fzfg": false,
      "metar_trigger": false,
      "taf_trigger": false,
      "metar": "METAR LPFR 270530Z 32004KT CAVOK 19/15 Q1018",
      "taf": "TAF LPFR 270500Z 2706/2806 29005KT CAVOK"
    },
    {
      "icao": "LPMA",
      "alert": "OK",
      "vis_m": 9999,
      "fzfg": false,
      "metar_trigger": false,
      "taf_trigger": false,
      "metar": "METAR LPMA 270530Z 35010KT 9999 FEW015 20/16 Q1020",
      "taf": "TAF LPMA 270500Z 2706/2806 35010KT 9999 SCT015"
    },
    {
      "icao": "LPPR",
      "alert": "OK",
      "vis_m": 9999,
      "fzfg": false,
      "metar_trigger": false,
      "taf_trigger": false,
      "metar": "METAR LPPR 270530Z 14004KT 090V190 9999 FEW002 SCT006 18/17 Q1019",
      "taf": "TAF LPPR 270500Z 2706/2806 VRB02KT 9999 SCT006"
    },
    {
      "icao": "LPPS",
      "alert": "OK",
      "vis_m": 9999,
      "fzfg": false,
      "metar_trigger": false,
      "taf_trigger": false,
      "metar": "METAR LPPS 270530Z 01007KT 9999 SCT012 SCT030 21/18 Q1020",
      "taf": "TAF LPPS 270500Z 2706/2812 36010KT 9999 SCT013"
    },
    {
      "icao": "LPPT",
      "alert": "OK",
      "vis_m": 9999,
      "fzfg": false,
      "metar_trigger": false,
      "taf_trigger": false,
      "metar": "METAR LPPT 270530Z 27002KT 9999 FEW008 18/17 Q1019",
      "taf": "TAF LPPT 270500Z 2706/2812 VRB02KT 9999 FEW012"
    },
    {
      "icao": "LQBK",
      "alert": "OK",
      "vis_m": 9999,
      "fzfg": false,
      "metar_trigger": false,
      "taf_trigger": false,
      "metar": "METAR LQBK 270530Z 00000KT CAVOK 23/16 Q1021 NOSIG",
      "taf": "TAF LQBK 270500Z 2706/2806 15005KT CAVOK TX34/2713Z TN18/2803Z"
    },
    {
      "icao": "LQSA",
      "alert": "OK",
      "vis_m": 9999,
      "fzfg": false,
      "metar_trigger": false,
      "taf_trigger": false,
      "metar": "METAR LQSA 270530Z VRB02KT CAVOK 19/14 Q1024 NOSIG",
      "taf": "TAF LQSA 270500Z 2706/2806 VRB02KT CAVOK TX34/2713Z TN18/2706Z"
    },
    {
      "icao": "LQTZ",
      "alert": "OK",
      "vis_m": 9999,
      "fzfg": false,
      "metar_trigger": false,
      "taf_trigger": false,
      "metar": "METAR LQTZ 270530Z VRB02KT CAVOK 20/17 Q1022",
      "taf": "TAF LQTZ 270500Z 2706/2806 VRB02KT CAVOK TX34/2714Z TN15/2803Z"
    },
    {
      "icao": "LRBC",
      "alert": "OK",
      "vis_m": 9999,
      "fzfg": false,
      "metar_trigger": false,
      "taf_trigger": false,
      "metar": "METAR LRBC 270530Z VRB02KT CAVOK 24/18 Q1023",
      "taf": "TAF LRBC 270500Z 2706/2715 36005KT CAVOK"
    },
    {
      "icao": "LRBS",
      "alert": "OK",
      "vis_m": 9999,
      "fzfg": false,
      "metar_trigger": false,
      "taf_trigger": false,
      "metar": "METAR LRBS 270530Z 06013KT 020V080 CAVOK 25/18 Q1021 NOSIG",
      "taf": "TAF LRBS 270500Z 2706/2806 06012KT CAVOK"
    },
    {
      "icao": "LRBV",
      "alert": "OK",
      "vis_m": 9999,
      "fzfg": false,
      "metar_trigger": false,
      "taf_trigger": false,
      "metar": "METAR LRBV 270530Z 11004KT 030V160 9999 FEW071 23/15 Q1024",
      "taf": "TAF LRBV 270500Z 2706/2715 VRB04KT CAVOK"
    },
    {
      "icao": "LRCL",
      "alert": "OK",
      "vis_m": 9999,
      "fzfg": false,
      "metar_trigger": false,
      "taf_trigger": false,
      "metar": "METAR LRCL 270530Z 00000KT CAVOK 24/15 Q1022",
      "taf": "TAF LRCL 270500Z 2706/2715 VRB04KT CAVOK"
    },
    {
      "icao": "LRCV",
      "alert": "OK",
      "vis_m": 9999,
      "fzfg": false,
      "metar_trigger": false,
      "taf_trigger": false,
      "metar": "METAR LRCV 270530Z 10009KT CAVOK 25/19 Q1020",
      "taf": "TAF LRCV 270500Z 2706/2715 10010KT CAVOK"
    },
    {
      "icao": "LRIA",
      "alert": "OK",
      "vis_m": 9999,
      "fzfg": false,
      "metar_trigger": false,
      "taf_trigger": false,
      "metar": "METAR LRIA 270530Z VRB01KT CAVOK 23/17 Q1022",
      "taf": "TAF LRIA 270500Z 2706/2715 VRB04KT CAVOK"
    },
    {
      "icao": "LROP",
      "alert": "OK",
      "vis_m": 9999,
      "fzfg": false,
      "metar_trigger": false,
      "taf_trigger": false,
      "metar": "METAR LROP 270530Z 06017KT CAVOK 25/17 Q1021 NOSIG",
      "taf": "TAF LROP 270500Z 2706/2806 06012KT CAVOK"
    },
    {
      "icao": "LRSB",
      "alert": "OK",
      "vis_m": 9999,
      "fzfg": false,
      "metar_trigger": false,
      "taf_trigger": false,
      "metar": "METAR LRSB 270530Z 10003KT 070V150 CAVOK 23/16 Q1023 NOSIG",
      "taf": "TAF LRSB 270500Z 2706/2806 VRB04KT CAVOK"
    },
    {
      "icao": "LRSM",
      "alert": "OK",
      "vis_m": 9999,
      "fzfg": false,
      "metar_trigger": false,
      "taf_trigger": false,
      "metar": "METAR LRSM 270530Z AUTO 08004KT 9999 NCD 26/18 Q1021",
      "taf": ""
    },
    {
      "icao": "LRSV",
      "alert": "OK",
      "vis_m": 9999,
      "fzfg": false,
      "metar_trigger": false,
      "taf_trigger": false,
      "metar": "METAR LRSV 270530Z 22005KT 190V250 CAVOK 23/15 Q1023",
      "taf": "TAF LRSV 270500Z 2706/2715 VRB04KT CAVOK"
    },
    {
      "icao": "LRTM",
      "alert": "OK",
      "vis_m": 9999,
      "fzfg": false,
      "metar_trigger": false,
      "taf_trigger": false,
      "metar": "METAR LRTM 270530Z 09004KT 050V130 CAVOK 22/19 Q1022",
      "taf": "TAF LRTM 270500Z 2706/2715 VRB04KT CAVOK"
    },
    {
      "icao": "LRTR",
      "alert": "OK",
      "vis_m": 9999,
      "fzfg": false,
      "metar_trigger": false,
      "taf_trigger": false,
      "metar": "METAR LRTR 270530Z 11005KT CAVOK 25/19 Q1020 NOSIG",
      "taf": "TAF LRTR 270500Z 2706/2806 09008KT CAVOK"
    },
    {
      "icao": "LTAC",
      "alert": "OK",
      "vis_m": 9999,
      "fzfg": false,
      "metar_trigger": false,
      "taf_trigger": false,
      "metar": "METAR LTAC 270520Z 05006KT 360V070 CAVOK 20/08 Q1020 NOSIG RMK RWY21C 03005KT RWY03L 04006KT 360V060 RWY21R 03005KT 300V080 RWY03R 03005KT 320V080 RWY21L 02006KT 330V070",
      "taf": "TAF LTAC 270440Z 2706/2806 03012KT CAVOK"
    },
    {
      "icao": "LTFM",
      "alert": "OK",
      "vis_m": 9999,
      "fzfg": false,
      "metar_trigger": false,
      "taf_trigger": false,
      "metar": "METAR LTFM 270520Z 06012KT CAVOK 25/18 Q1018 NOSIG RMK RWY17L 06010KT RWY34L 03010KT RWY16R 06011KT 300V080 RWY36 05011KT RWY18 06010KT",
      "taf": "TAF LTFM 270440Z 2706/2812 04016KT CAVOK"
    },
    {
      "icao": "LUKK",
      "alert": "OK",
      "vis_m": 9999,
      "fzfg": false,
      "metar_trigger": false,
      "taf_trigger": false,
      "metar": "METAR LUKK 270530Z 02003KT 320V070 CAVOK 22/15 Q1022 NOSIG",
      "taf": "TAF LUKK 270505Z 2706/2806 VRB06KT CAVOK"
    },
    {
      "icao": "LWOH",
      "alert": "OK",
      "vis_m": 9999,
      "fzfg": false,
      "metar_trigger": false,
      "taf_trigger": false,
      "metar": "METAR LWOH 270520Z 34005KT 310V010 CAVOK 23/16 Q1023",
      "taf": "TAF LWOH 270510Z 2706/2806 34006KT CAVOK"
    },
    {
      "icao": "LWSK",
      "alert": "OK",
      "vis_m": 9999,
      "fzfg": false,
      "metar_trigger": false,
      "taf_trigger": false,
      "metar": "METAR LWSK 270520Z 28003KT 220V020 CAVOK 24/16 Q1021 NOSIG",
      "taf": "TAF LWSK 270510Z 2706/2806 VRB02KT CAVOK"
    },
    {
      "icao": "LYBE",
      "alert": "OK",
      "vis_m": 9999,
      "fzfg": false,
      "metar_trigger": false,
      "taf_trigger": false,
      "metar": "METAR LYBE 270530Z 24004KT 160V270 CAVOK 24/17 Q1020 NOSIG",
      "taf": "TAF LYBE 270500Z 2706/2806 29006KT CAVOK TX37/2713Z TN22/2803Z"
    },
    {
      "icao": "LYNI",
      "alert": "OK",
      "vis_m": 9999,
      "fzfg": false,
      "metar_trigger": false,
      "taf_trigger": false,
      "metar": "METAR LYNI 270530Z 00000KT CAVOK 22/16 Q1021 NOSIG",
      "taf": "TAF LYNI 270500Z 2706/2806 30004KT CAVOK TX36/2713Z TN19/2803Z"
    },
    {
      "icao": "LYPG",
      "alert": "OK",
      "vis_m": 9999,
      "fzfg": false,
      "metar_trigger": false,
      "taf_trigger": false,
      "metar": "METAR LYPG 270530Z 32007KT CAVOK 29/14 Q1018 NOSIG",
      "taf": "TAF LYPG 270500Z 2706/2806 18007KT CAVOK TX38/2714Z TN26/2803Z"
    },
    {
      "icao": "LZIB",
      "alert": "OK",
      "vis_m": 9999,
      "fzfg": false,
      "metar_trigger": false,
      "taf_trigger": false,
      "metar": "METAR LZIB 270530Z 03007KT CAVOK 27/17 Q1020 NOSIG",
      "taf": "TAF LZIB 270515Z 2706/2806 VRB02KT CAVOK"
    },
    {
      "icao": "LZKZ",
      "alert": "OK",
      "vis_m": 9999,
      "fzfg": false,
      "metar_trigger": false,
      "taf_trigger": false,
      "metar": "METAR LZKZ 270530Z VRB02KT CAVOK 24/17 Q1022 NOSIG",
      "taf": "TAF LZKZ 270515Z 2706/2806 VRB02KT CAVOK"
    },
    {
      "icao": "LZTT",
      "alert": "OK",
      "vis_m": 9999,
      "fzfg": false,
      "metar_trigger": false,
      "taf_trigger": false,
      "metar": "METAR LZTT 270530Z 05005KT CAVOK 20/17 Q1024 NOSIG",
      "taf": "TAF LZTT 270515Z 2706/2806 VRB02KT CAVOK"
    },
    {
      "icao": "OEJN",
      "alert": "OK",
      "vis_m": 9999,
      "fzfg": false,
      "metar_trigger": false,
      "taf_trigger": false,
      "metar": "METAR OEJN 270500Z 34005KT 9999 FEW040 31/23 Q1006 NOSIG",
      "taf": "TAF OEJN 270500Z 2706/2812 32014KT 9999 SCT040"
    },
    {
      "icao": "OEMA",
      "alert": "OK",
      "vis_m": 9999,
      "fzfg": false,
      "metar_trigger": false,
      "taf_trigger": false,
      "metar": "METAR OEMA 270500Z 02004KT CAVOK 33/02 Q1012 NOSIG",
      "taf": "TAF OEMA 270500Z 2706/2812 28010KT CAVOK"
    },
    {
      "icao": "OJAI",
      "alert": "OK",
      "vis_m": 5000,
      "fzfg": false,
      "metar_trigger": false,
      "taf_trigger": false,
      "metar": "METAR OJAI 270500Z 26007KT 5000 HZ NSC 22/15 Q1014 NOSIG",
      "taf": "TAF OJAI 270434Z 2706/2812 27006KT 5000 HZ NSC"
    },
    {
      "icao": "OMAA",
      "alert": "OK",
      "vis_m": 9999,
      "fzfg": false,
      "metar_trigger": false,
      "taf_trigger": false,
      "metar": "METAR OMAA 270530Z VRB03KT CAVOK 33/23 Q1002 BECMG 33012KT",
      "taf": "TAF OMAA 270500Z 2706/2812 VRB02KT 8000 NSC"
    },
    {
      "icao": "OMDB",
      "alert": "OK",
      "vis_m": 9999,
      "fzfg": false,
      "metar_trigger": false,
      "taf_trigger": false,
      "metar": "METAR OMDB 270530Z VRB03KT CAVOK 35/22 Q1002 NOSIG",
      "taf": "TAF OMDB 270500Z 2706/2812 21006KT 8000 NSC"
    },
    {
      "icao": "UAAA",
      "alert": "OK",
      "vis_m": 9999,
      "fzfg": false,
      "metar_trigger": false,
      "taf_trigger": false,
      "metar": "METAR UAAA 270500Z 01003MPS 310V090 9999 FEW050 SCT100 32/12 Q1007 NOSIG",
      "taf": "TAF UAAA 270511Z 2706/2806 01003G08MPS 9999 FEW050 SCT100 TX36/2709Z TN20/2801Z"
    },
    {
      "icao": "UBBB",
      "alert": "OK",
      "vis_m": 9999,
      "fzfg": false,
      "metar_trigger": false,
      "taf_trigger": false,
      "metar": "METAR UBBB 270530Z 32012KT 9999 SCT050CB 20/17 Q1012 NOSIG",
      "taf": "TAF UBBB 270504Z 2706/2806 32010KT 9999 SCT020 SCT050CB TX26/2712Z TN20/2801Z"
    },
    {
      "icao": "UDSG",
      "alert": "OK",
      "vis_m": 9999,
      "fzfg": false,
      "metar_trigger": false,
      "taf_trigger": false,
      "metar": "METAR UDSG 270500Z 26003KT 9999 SCT049CB 13/09 Q1018 NOSIG",
      "taf": "TAF UDSG 270458Z 2706/2806 VRB06KT 9999 SCT050"
    },
    {
      "icao": "UDYZ",
      "alert": "OK",
      "vis_m": 9999,
      "fzfg": false,
      "metar_trigger": false,
      "taf_trigger": false,
      "metar": "METAR UDYZ 270500Z VRB02KT 9999 FEW043CB 20/09 Q1013 NOSIG",
      "taf": "TAF UDYZ 270500Z 2706/2806 20006KT 9999 SCT040"
    },
    {
      "icao": "UGKO",
      "alert": "OK",
      "vis_m": 9999,
      "fzfg": false,
      "metar_trigger": false,
      "taf_trigger": false,
      "metar": "METAR UGKO 270530Z 03006KT 9999 -SHRA SCT021CB OVC051 18/17 Q1013 NOSIG",
      "taf": "TAF UGKO 270500Z 2706/2806 26007KT 9999 SCT020 BKN050 TX23/2711Z TN16/2802Z"
    }
  ]
}