{
  "ts_utc": "2026-03-27T18:30:40Z",
  "threshold_m": 150,
  "source": "stations_override.txt (ICAO list) + aviationweather.gov (METAR/TAF raw)",
  "station_count": 159,
  "stations": [
    {
      "icao": "BIKF",
      "alert": "OK",
      "vis_m": 9999,
      "fzfg": false,
      "metar_trigger": false,
      "taf_trigger": false,
      "metar": "METAR BIKF 271800Z 35029KT 9999 BKN022 M01/M06 Q0999",
      "taf": "TAF BIKF 271647Z 2718/2818 34032G44KT 9999 -SHRASN SCT014 BKN020 TX01/2818Z TNM08/2808Z"
    },
    {
      "icao": "BKPR",
      "alert": "OK",
      "vis_m": 9999,
      "fzfg": false,
      "metar_trigger": false,
      "taf_trigger": false,
      "metar": "METAR BKPR 271830Z 36011KT 9999 FEW020 BKN040 06/04 Q1001 NOSIG",
      "taf": "TAF BKPR 271730Z 2718/2818 01008KT 9999 SCT012 BKN030"
    },
    {
      "icao": "EBCI",
      "alert": "OK",
      "vis_m": 9999,
      "fzfg": false,
      "metar_trigger": false,
      "taf_trigger": false,
      "metar": "METAR EBCI 271820Z 20010KT 9999 BKN032 07/M01 Q1021 NOSIG",
      "taf": "TAF EBCI 271710Z 2718/2824 20011KT 9999 BKN018"
    },
    {
      "icao": "EDDB",
      "alert": "OK",
      "vis_m": 9999,
      "fzfg": false,
      "metar_trigger": false,
      "taf_trigger": false,
      "metar": "METAR EDDB 271820Z AUTO 29004KT CAVOK 07/M03 Q1021 NOSIG",
      "taf": "TAF EDDB 271700Z 2718/2818 28006KT 9999 FEW040"
    },
    {
      "icao": "EDDH",
      "alert": "OK",
      "vis_m": 9999,
      "fzfg": false,
      "metar_trigger": false,
      "taf_trigger": false,
      "metar": "METAR EDDH 271820Z AUTO 21006KT CAVOK 05/M02 Q1019 NOSIG",
      "taf": "TAF EDDH 271700Z 2718/2824 19008KT CAVOK"
    },
    {
      "icao": "EDDK",
      "alert": "OK",
      "vis_m": 9999,
      "fzfg": false,
      "metar_trigger": false,
      "taf_trigger": false,
      "metar": "METAR EDDK 271820Z AUTO 20004KT 170V240 CAVOK 07/M01 Q1021 NOSIG",
      "taf": "TAF EDDK 271700Z 2718/2824 16005KT 9999 SCT040"
    },
    {
      "icao": "EDDN",
      "alert": "OK",
      "vis_m": 9999,
      "fzfg": false,
      "metar_trigger": false,
      "taf_trigger": false,
      "metar": "METAR EDDN 271820Z AUTO 28004KT CAVOK 04/M05 Q1022 NOSIG",
      "taf": "TAF EDDN 271700Z 2718/2818 28005KT CAVOK"
    },
    {
      "icao": "EDDS",
      "alert": "OK",
      "vis_m": 9999,
      "fzfg": false,
      "metar_trigger": false,
      "taf_trigger": false,
      "metar": "METAR EDDS 271820Z AUTO VRB02KT CAVOK 03/M07 Q1022 NOSIG",
      "taf": "TAF EDDS 271700Z 2718/2818 VRB02KT CAVOK"
    },
    {
      "icao": "EDFH",
      "alert": "OK",
      "vis_m": 9999,
      "fzfg": false,
      "metar_trigger": false,
      "taf_trigger": false,
      "metar": "METAR EDFH 271820Z 25003KT CAVOK 02/M05 Q1021",
      "taf": "TAF EDFH 271700Z 2718/2818 21004KT CAVOK"
    },
    {
      "icao": "EDJA",
      "alert": "OK",
      "vis_m": 9999,
      "fzfg": false,
      "metar_trigger": false,
      "taf_trigger": false,
      "metar": "METAR EDJA 271820Z 04002KT 9999 FEW057 01/M02 Q1021",
      "taf": "TAF EDJA 271700Z 2718/2803 03006KT 9999 BKN060"
    },
    {
      "icao": "EDLW",
      "alert": "OK",
      "vis_m": 9999,
      "fzfg": false,
      "metar_trigger": false,
      "taf_trigger": false,
      "metar": "METAR EDLW 271820Z 21006KT CAVOK 06/M02 Q1020",
      "taf": "TAF EDLW 271700Z 2718/2818 19008KT 9999 SCT040"
    },
    {
      "icao": "EDNY",
      "alert": "OK",
      "vis_m": 9999,
      "fzfg": false,
      "metar_trigger": false,
      "taf_trigger": false,
      "metar": "METAR EDNY 271820Z VRB02KT CAVOK 03/M05 Q1022",
      "taf": "TAF EDNY 271700Z 2718/2803 02006KT 9999 SCT045"
    },
    {
      "icao": "EDSB",
      "alert": "OK",
      "vis_m": 9999,
      "fzfg": false,
      "metar_trigger": false,
      "taf_trigger": false,
      "metar": "METAR EDSB 271820Z 00000KT CAVOK 05/M07 Q1023",
      "taf": "TAF EDSB 271700Z 2718/2818 VRB02KT CAVOK"
    },
    {
      "icao": "EETN",
      "alert": "OK",
      "vis_m": 9999,
      "fzfg": false,
      "metar_trigger": false,
      "taf_trigger": false,
      "metar": "METAR EETN 271820Z 24006KT CAVOK 05/M02 Q1015 NOSIG",
      "taf": "TAF EETN 271730Z 2718/2818 20005KT CAVOK"
    },
    {
      "icao": "EFTU",
      "alert": "OK",
      "vis_m": 9999,
      "fzfg": false,
      "metar_trigger": false,
      "taf_trigger": false,
      "metar": "METAR EFTU 271820Z AUTO 18005KT CAVOK 03/M01 Q1013",
      "taf": "TAF EFTU 271724Z 2718/2818 21006KT CAVOK"
    },
    {
      "icao": "EGBB",
      "alert": "OK",
      "vis_m": 9999,
      "fzfg": false,
      "metar_trigger": false,
      "taf_trigger": false,
      "metar": "METAR EGBB 271820Z 30006KT 9999 SCT040 09/04 Q1018",
      "taf": "TAF EGBB 271655Z 2718/2818 28009KT 9999 SCT030"
    },
    {
      "icao": "EGGP",
      "alert": "OK",
      "vis_m": 9999,
      "fzfg": false,
      "metar_trigger": false,
      "taf_trigger": false,
      "metar": "METAR EGGP 271820Z 29015KT 9999 -RA FEW036 SCT042 08/03 Q1018",
      "taf": "TAF EGGP 271715Z 2718/2818 29012KT 9999 SCT030"
    },
    {
      "icao": "EGGW",
      "alert": "OK",
      "vis_m": 9999,
      "fzfg": false,
      "metar_trigger": false,
      "taf_trigger": false,
      "metar": "METAR EGGW 271820Z AUTO 32011KT 9999 SCT011 OVC017 09/08 Q1017",
      "taf": "TAF EGGW 271658Z 2718/2818 30009KT 9999 FEW030"
    },
    {
      "icao": "EGKK",
      "alert": "OK",
      "vis_m": 9999,
      "fzfg": false,
      "metar_trigger": false,
      "taf_trigger": false,
      "metar": "METAR EGKK 271820Z 23007KT 9999 -RA BKN007 BKN019 11/10 Q1017",
      "taf": "TAF EGKK 271657Z 2718/2824 22012KT 9999 BKN010"
    },
    {
      "icao": "EGNM",
      "alert": "OK",
      "vis_m": 9999,
      "fzfg": false,
      "metar_trigger": false,
      "taf_trigger": false,
      "metar": "METAR EGNM 271820Z 26013KT 9999 VCSH SCT042 07/02 Q1015",
      "taf": "TAF EGNM 271656Z 2718/2818 28012KT 9999 SCT025"
    },
    {
      "icao": "EGPD",
      "alert": "OK",
      "vis_m": 9999,
      "fzfg": false,
      "metar_trigger": false,
      "taf_trigger": false,
      "metar": "METAR EGPD 271820Z COR AUTO 25010G25KT 210V280 9999 NCD 07/M02 Q1009 NOSIG",
      "taf": "TAF EGPD 271700Z 2718/2818 24012KT 9999 FEW025"
    },
    {
      "icao": "EGPF",
      "alert": "OK",
      "vis_m": 9999,
      "fzfg": false,
      "metar_trigger": false,
      "taf_trigger": false,
      "metar": "METAR EGPF 271820Z AUTO 24007KT 9999 FEW036/// //////CB 04/02 Q1014 RERA",
      "taf": "TAF EGPF 271701Z 2718/2818 25015KT 9999 FEW025"
    },
    {
      "icao": "EHBK",
      "alert": "OK",
      "vis_m": 9999,
      "fzfg": false,
      "metar_trigger": false,
      "taf_trigger": false,
      "metar": "METAR EHBK 271825Z AUTO 20009KT 9999 BKN045/// 08/M01 Q1021 NOSIG",
      "taf": "TAF EHBK 271710Z 2718/2824 22010KT 9999 FEW035 BKN048"
    },
    {
      "icao": "EHEH",
      "alert": "OK",
      "vis_m": 9999,
      "fzfg": false,
      "metar_trigger": false,
      "taf_trigger": false,
      "metar": "METAR EHEH 271755Z AUTO 20010KT 9999 OVC037 09/M01 Q1020 BLU NOSIG RMK TREND REMOTE BY EHWX",
      "taf": "TAF EHEH 271759Z 2718/2824 20011KT 9999 OVC040"
    },
    {
      "icao": "EKBI",
      "alert": "OK",
      "vis_m": 9999,
      "fzfg": false,
      "metar_trigger": false,
      "taf_trigger": false,
      "metar": "METAR EKBI 271820Z AUTO 19010KT 150V230 9999 OVC026/// 06/02 Q1015",
      "taf": "TAF EKBI 271727Z 2718/2818 20012KT 9999 SCT035"
    },
    {
      "icao": "EKCH",
      "alert": "OK",
      "vis_m": 9999,
      "fzfg": false,
      "metar_trigger": false,
      "taf_trigger": false,
      "metar": "METAR EKCH 271820Z AUTO 22009KT 9999 BKN048/// 05/M01 Q1018 NOSIG",
      "taf": "TAF EKCH 271727Z 2718/2818 26010KT 9999 BKN040"
    },
    {
      "icao": "ENAL",
      "alert": "OK",
      "vis_m": 9999,
      "fzfg": false,
      "metar_trigger": false,
      "taf_trigger": false,
      "metar": "METAR ENAL 271820Z 20013KT 9999 FEW015 SCT032 BKN040 06/02 Q1000",
      "taf": "TAF ENAL 271700Z 2718/2803 20012KT 9999 SCT040"
    },
    {
      "icao": "ENBR",
      "alert": "OK",
      "vis_m": 9999,
      "fzfg": false,
      "metar_trigger": false,
      "taf_trigger": false,
      "metar": "METAR ENBR 271820Z 16011KT 9999 VCSH BKN006 BKN010CB 04/03 Q1005 TEMPO 4000 SHRA SCT006 BKN025CB RMK WIND 1200FT 22013KT",
      "taf": "TAF ENBR 271700Z 2718/2818 16010KT 9999 SCT007 BKN018"
    },
    {
      "icao": "ENGM",
      "alert": "OK",
      "vis_m": 9999,
      "fzfg": false,
      "metar_trigger": false,
      "taf_trigger": false,
      "metar": "METAR ENGM 271820Z 20013KT 9999 -RA BKN010 03/01 Q1008 TEMPO BKN008",
      "taf": "TAF ENGM 271700Z 2718/2818 20015KT 9999 -RA BKN015"
    },
    {
      "icao": "ENHD",
      "alert": "OK",
      "vis_m": 9999,
      "fzfg": false,
      "metar_trigger": false,
      "taf_trigger": false,
      "metar": "METAR ENHD 271820Z 19008KT 9999 BKN005 BKN006 06/05 Q1007",
      "taf": ""
    },
    {
      "icao": "ENTC",
      "alert": "OK",
      "vis_m": 9999,
      "fzfg": false,
      "metar_trigger": false,
      "taf_trigger": false,
      "metar": "METAR ENTC 271820Z 04004KT CAVOK M02/M07 Q1005 NOSIG RMK WIND 2600FT 15008KT",
      "taf": "TAF ENTC 271700Z 2718/2818 03005KT CAVOK"
    },
    {
      "icao": "ENTO",
      "alert": "OK",
      "vis_m": 9000,
      "fzfg": false,
      "metar_trigger": false,
      "taf_trigger": false,
      "metar": "METAR ENTO 271820Z 20017KT 9000 RA SCT007 BKN008 OVC011 04/04 Q1010 TEMPO 21018G28KT BKN010",
      "taf": ""
    },
    {
      "icao": "ENVA",
      "alert": "OK",
      "vis_m": 9999,
      "fzfg": false,
      "metar_trigger": false,
      "taf_trigger": false,
      "metar": "METAR ENVA 271820Z 07005KT CAVOK 06/M02 Q1001 NOSIG RMK WIND 670FT 14011KT",
      "taf": "TAF ENVA 271700Z 2718/2818 12008KT 9999 SCT050"
    },
    {
      "icao": "ENZV",
      "alert": "OK",
      "vis_m": 9999,
      "fzfg": false,
      "metar_trigger": false,
      "taf_trigger": false,
      "metar": "METAR ENZV 271820Z 18004KT 9999 BKN015 05/04 Q1008 TEMPO 4000 SHRA BR BKN012 SCT025CB",
      "taf": "TAF ENZV 271700Z 2718/2818 20005KT 9999 -SHRA FEW020 BKN035"
    },
    {
      "icao": "EPGD",
      "alert": "OK",
      "vis_m": 6000,
      "fzfg": false,
      "metar_trigger": false,
      "taf_trigger": false,
      "metar": "METAR EPGD 271800Z 09004KT 050V120 6000 BKN002 01/01 Q1020",
      "taf": ""
    },
    {
      "icao": "EPKK",
      "alert": "OK",
      "vis_m": 9999,
      "fzfg": false,
      "metar_trigger": false,
      "taf_trigger": false,
      "metar": "METAR EPKK 271800Z 25007KT 9999 -RA FEW018 BKN028 03/01 Q1016",
      "taf": "TAF EPKK 271730Z 2718/2818 26005KT 9999 -RA OVC020"
    },
    {
      "icao": "EPKT",
      "alert": "OK",
      "vis_m": 9999,
      "fzfg": false,
      "metar_trigger": false,
      "taf_trigger": false,
      "metar": "METAR EPKT 271800Z 36014KT 9999 OVC038 04/M03 Q1016",
      "taf": "TAF EPKT 271730Z 2718/2818 01010KT 9999 OVC044"
    },
    {
      "icao": "EPLB",
      "alert": "OK",
      "vis_m": 9999,
      "fzfg": false,
      "metar_trigger": false,
      "taf_trigger": false,
      "metar": "METAR EPLB 271800Z 01008KT CAVOK 08/03 Q1014",
      "taf": "TAF EPLB 271730Z 2718/2818 01008KT CAVOK"
    },
    {
      "icao": "EPMO",
      "alert": "OK",
      "vis_m": 9999,
      "fzfg": false,
      "metar_trigger": false,
      "taf_trigger": false,
      "metar": "METAR EPMO 271800Z 36006KT 9999 FEW044 08/M01 Q1017",
      "taf": "TAF EPMO 271730Z 2718/2818 36005KT CAVOK"
    },
    {
      "icao": "EPPO",
      "alert": "OK",
      "vis_m": 9999,
      "fzfg": false,
      "metar_trigger": false,
      "taf_trigger": false,
      "metar": "METAR EPPO 271800Z 33007KT CAVOK 06/M04 Q1020",
      "taf": "TAF EPPO 271730Z 2718/2818 32005KT CAVOK"
    },
    {
      "icao": "EPRA",
      "alert": "OK",
      "vis_m": 9999,
      "fzfg": false,
      "metar_trigger": false,
      "taf_trigger": false,
      "metar": "METAR EPRA 271800Z 34009KT CAVOK 08/M01 Q1015",
      "taf": "TAF EPRA 271730Z 2718/2803 35008KT CAVOK"
    },
    {
      "icao": "EPRZ",
      "alert": "OK",
      "vis_m": 9999,
      "fzfg": false,
      "metar_trigger": false,
      "taf_trigger": false,
      "metar": "METAR EPRZ 271800Z 32004KT 9999 -SHRA FEW050CB 07/03 Q1012",
      "taf": "TAF EPRZ 271730Z 2718/2818 34008KT 9999 OVC025"
    },
    {
      "icao": "EPSC",
      "alert": "OK",
      "vis_m": 9999,
      "fzfg": false,
      "metar_trigger": false,
      "taf_trigger": false,
      "metar": "METAR EPSC 271800Z 11002KT 9999 BKN044 05/M01 Q1020",
      "taf": "TAF EPSC 271730Z 2718/2818 VRB03KT CAVOK"
    },
    {
      "icao": "EPSY",
      "alert": "OK",
      "vis_m": 9999,
      "fzfg": false,
      "metar_trigger": false,
      "taf_trigger": false,
      "metar": "METAR EPSY 271800Z 35008KT CAVOK 07/M01 Q1018",
      "taf": "TAF EPSY 271730Z 2718/2803 35006KT CAVOK"
    },
    {
      "icao": "EPWA",
      "alert": "OK",
      "vis_m": 9999,
      "fzfg": false,
      "metar_trigger": false,
      "taf_trigger": false,
      "metar": "METAR EPWA 271800Z 01008KT CAVOK 09/M02 Q1017 NOSIG",
      "taf": "TAF EPWA 271730Z 2718/2818 36007KT CAVOK"
    },
    {
      "icao": "EPWR",
      "alert": "OK",
      "vis_m": 9999,
      "fzfg": false,
      "metar_trigger": false,
      "taf_trigger": false,
      "metar": "METAR EPWR 271800Z 33008KT CAVOK 07/M06 Q1019",
      "taf": "TAF EPWR 271730Z 2718/2818 32007KT CAVOK"
    },
    {
      "icao": "ESGG",
      "alert": "OK",
      "vis_m": 9999,
      "fzfg": false,
      "metar_trigger": false,
      "taf_trigger": false,
      "metar": "METAR ESGG 271820Z 18009KT 9999 FEW190 03/M00 Q1014",
      "taf": "TAF ESGG 271730Z 2718/2818 19010KT 9999 FEW025"
    },
    {
      "icao": "ESKN",
      "alert": "OK",
      "vis_m": 9999,
      "fzfg": false,
      "metar_trigger": false,
      "taf_trigger": false,
      "metar": "METAR ESKN 271820Z 13001KT CAVOK 05/01 Q1013",
      "taf": "TAF ESKN 271730Z 2718/2818 17006KT CAVOK"
    },
    {
      "icao": "ESMS",
      "alert": "OK",
      "vis_m": 9999,
      "fzfg": false,
      "metar_trigger": false,
      "taf_trigger": false,
      "metar": "METAR ESMS 271820Z 24007KT CAVOK 04/M01 Q1018",
      "taf": "TAF ESMS 271727Z 2718/2818 22010KT 9999 SCT035"
    },
    {
      "icao": "ESSA",
      "alert": "OK",
      "vis_m": 9999,
      "fzfg": false,
      "metar_trigger": false,
      "taf_trigger": false,
      "metar": "METAR ESSA 271820Z 19010KT CAVOK 06/M02 Q1012 NOSIG",
      "taf": "TAF ESSA 271730Z 2718/2818 21007KT CAVOK"
    },
    {
      "icao": "EYKA",
      "alert": "OK",
      "vis_m": 9999,
      "fzfg": false,
      "metar_trigger": false,
      "taf_trigger": false,
      "metar": "METAR EYKA 271820Z 31002KT CAVOK 05/M01 Q1018",
      "taf": "TAF EYKA 271700Z 2718/2818 VRB04KT 9000 NSC"
    },
    {
      "icao": "EYPA",
      "alert": "OK",
      "vis_m": 1300,
      "fzfg": false,
      "metar_trigger": false,
      "taf_trigger": false,
      "metar": "METAR EYPA 271820Z VRB01KT 1300 0750S R19/1700N BR PRFG OVC002 01/01 Q1020",
      "taf": ""
    },
    {
      "icao": "EYVI",
      "alert": "OK",
      "vis_m": 9999,
      "fzfg": false,
      "metar_trigger": false,
      "taf_trigger": false,
      "metar": "METAR EYVI 271820Z 35006KT CAVOK 08/M02 Q1017 NOSIG",
      "taf": "TAF EYVI 271700Z 2718/2818 01007KT 9000 NSC"
    },
    {
      "icao": "GCFV",
      "alert": "OK",
      "vis_m": 9999,
      "fzfg": false,
      "metar_trigger": false,
      "taf_trigger": false,
      "metar": "METAR GCFV 271800Z 34015KT 9999 FEW035 20/11 Q1014",
      "taf": "TAF GCFV 271400Z 2715/2815 33014KT 9999 SCT035 TX22/2814Z TN16/2806Z"
    },
    {
      "icao": "GCLP",
      "alert": "OK",
      "vis_m": 9999,
      "fzfg": false,
      "metar_trigger": false,
      "taf_trigger": false,
      "metar": "METAR GCLP 271800Z 01018KT 9999 FEW030 20/13 Q1015 NOSIG",
      "taf": "TAF GCLP 271400Z 2715/2815 01020KT 9999 SCT035 TX22/2814Z TN16/2806Z"
    },
    {
      "icao": "GCTS",
      "alert": "OK",
      "vis_m": 9999,
      "fzfg": false,
      "metar_trigger": false,
      "taf_trigger": false,
      "metar": "METAR GCTS 271800Z 11009KT 9999 SCT040 20/13 Q1016 NOSIG",
      "taf": "TAF GCTS 271400Z 2715/2815 19007KT 9999 BKN040 TX23/2814Z TN16/2806Z"
    },
    {
      "icao": "GMAD",
      "alert": "OK",
      "vis_m": 6000,
      "fzfg": false,
      "metar_trigger": false,
      "taf_trigger": false,
      "metar": "METAR GMAD 271800Z 25011KT 6000 OVC023 18/13 Q1010 NOSIG",
      "taf": "TAF GMAD 271700Z 2718/2824 26010KT 6000 OVC020"
    },
    {
      "icao": "GMMN",
      "alert": "OK",
      "vis_m": 9999,
      "fzfg": false,
      "metar_trigger": false,
      "taf_trigger": false,
      "metar": "METAR GMMN 271800Z 35009KT 9999 FEW020 17/14 Q1011 NOSIG",
      "taf": "TAF GMMN 271700Z 2718/2824 34012KT 9999 FEW020"
    },
    {
      "icao": "GMMX",
      "alert": "OK",
      "vis_m": 8000,
      "fzfg": false,
      "metar_trigger": false,
      "taf_trigger": false,
      "metar": "METAR GMMX 271800Z 36007KT 320V050 8000 BKN026 21/14 Q1010 NOSIG",
      "taf": "TAF GMMX 271700Z 2718/2824 24006KT 8000 BKN020"
    },
    {
      "icao": "HEGN",
      "alert": "OK",
      "vis_m": 9999,
      "fzfg": false,
      "metar_trigger": false,
      "taf_trigger": false,
      "metar": "METAR HEGN 271800Z 00000KT CAVOK 21/10 Q1016 NOSIG",
      "taf": "TAF HEGN 271700Z 2718/2824 17010KT 9999 SCT025"
    },
    {
      "icao": "HEMA",
      "alert": "OK",
      "vis_m": 9999,
      "fzfg": false,
      "metar_trigger": false,
      "taf_trigger": false,
      "metar": "METAR HEMA 271800Z 14006KT CAVOK 20/10 Q1016 NOSIG",
      "taf": "TAF HEMA 271700Z 2718/2824 19010KT CAVOK"
    },
    {
      "icao": "HESH",
      "alert": "OK",
      "vis_m": 9999,
      "fzfg": false,
      "metar_trigger": false,
      "taf_trigger": false,
      "metar": "METAR HESH 271800Z 17005KT CAVOK 22/12 Q1015 NOSIG",
      "taf": "TAF HESH 271700Z 2718/2824 30008KT 9999 SCT025"
    },
    {
      "icao": "HESX",
      "alert": "OK",
      "vis_m": 9999,
      "fzfg": false,
      "metar_trigger": false,
      "taf_trigger": false,
      "metar": "METAR HESX 271800Z 31002KT CAVOK 18/04 Q1014 NOSIG",
      "taf": "TAF HESX 271700Z 2718/2824 18010KT 9999 SCT025"
    },
    {
      "icao": "LATI",
      "alert": "OK",
      "vis_m": 9999,
      "fzfg": false,
      "metar_trigger": false,
      "taf_trigger": false,
      "metar": "METAR LATI 271820Z 00000KT 9999 SCT045 BKN064 09/06 Q1002 NOSIG",
      "taf": "TAF LATI 271700Z 2718/2818 VRB04KT 9999 FEW025 BKN060 TX15/2812Z TN05/2804Z"
    },
    {
      "icao": "LBPD",
      "alert": "OK",
      "vis_m": 9999,
      "fzfg": false,
      "metar_trigger": false,
      "taf_trigger": false,
      "metar": "METAR LBPD 271800Z AUTO 33012KT 9999 -RA FEW033/// OVC038/// 09/06 Q1000 NOSIG",
      "taf": "TAF LBPD 271700Z 2718/2818 30014KT 9999 SCT030 BKN050"
    },
    {
      "icao": "LBSF",
      "alert": "OK",
      "vis_m": 9999,
      "fzfg": false,
      "metar_trigger": false,
      "taf_trigger": false,
      "metar": "METAR LBSF 271800Z AUTO 35003KT 310V010 9999 SCT014/// BKN020/// 04/02 Q1002 NOSIG",
      "taf": "TAF LBSF 271700Z 2718/2818 VRB04KT 9999 SCT015 BKN025 OVC040"
    },
    {
      "icao": "LBWN",
      "alert": "OK",
      "vis_m": 9000,
      "fzfg": false,
      "metar_trigger": false,
      "taf_trigger": false,
      "metar": "METAR LBWN 271800Z AUTO 09010KT 9000 -SHRA FEW008/// BKN033/// OVC042/// 09/09 Q1005 TEMPO 5000 RA",
      "taf": "TAF LBWN 271700Z 2718/2818 10012KT 6000 RA SCT010 OVC025"
    },
    {
      "icao": "LCLK",
      "alert": "OK",
      "vis_m": 9999,
      "fzfg": false,
      "metar_trigger": false,
      "taf_trigger": false,
      "metar": "METAR LCLK 271800Z 25007KT 9999 FEW035 15/11 Q1012 NOSIG",
      "taf": "TAF LCLK 271730Z 2718/2818 26008KT 9999 FEW020 SCT035"
    },
    {
      "icao": "LCPH",
      "alert": "OK",
      "vis_m": 9999,
      "fzfg": false,
      "metar_trigger": false,
      "taf_trigger": false,
      "metar": "METAR LCPH 271800Z 26008KT 250V320 9999 SCT025 16/12 Q1012 NOSIG",
      "taf": "TAF LCPH 271730Z 2718/2818 33009KT 9999 FEW020 SCT040"
    },
    {
      "icao": "LEAL",
      "alert": "OK",
      "vis_m": 9999,
      "fzfg": false,
      "metar_trigger": false,
      "taf_trigger": false,
      "metar": "METAR LEAL 271800Z 09004KT 9999 SCT021 14/09 Q1016 NOSIG",
      "taf": "TAF LEAL 271700Z 2718/2818 11009KT 9999 FEW025 TX17/2812Z TN07/2806Z"
    },
    {
      "icao": "LEBB",
      "alert": "OK",
      "vis_m": 9999,
      "fzfg": false,
      "metar_trigger": false,
      "taf_trigger": false,
      "metar": "METAR LEBB 271800Z 34005KT 300V020 9999 FEW031 11/05 Q1025 NOSIG",
      "taf": "TAF LEBB 271700Z 2718/2818 35007KT 9999 SCT030 TX11/2812Z TN05/2801Z"
    },
    {
      "icao": "LEBL",
      "alert": "OK",
      "vis_m": 9999,
      "fzfg": false,
      "metar_trigger": false,
      "taf_trigger": false,
      "metar": "METAR LEBL 271800Z 17005KT 140V210 9999 FEW028 13/06 Q1016 NOSIG",
      "taf": "TAF LEBL 271700Z 2718/2818 16008KT 9999 FEW020 TX17/2812Z TN08/2806Z"
    },
    {
      "icao": "LECH",
      "alert": "OK",
      "vis_m": 9999,
      "fzfg": false,
      "metar_trigger": false,
      "taf_trigger": false,
      "metar": "METAR LECH 271800Z AUTO 20004KT CAVOK 14/03 Q1015",
      "taf": "TAF LECH 271700Z 2718/2818 33009KT 9999 FEW030 TX19/2813Z TN03/2806Z"
    },
    {
      "icao": "LEMD",
      "alert": "OK",
      "vis_m": 9999,
      "fzfg": false,
      "metar_trigger": false,
      "taf_trigger": false,
      "metar": "METAR LEMD 271800Z 05009G20KT 350V120 CAVOK 15/M02 Q1016 NOSIG",
      "taf": "TAF LEMD 271700Z 2718/2824 03008KT CAVOK TX19/2816Z TN01/2807Z"
    },
    {
      "icao": "LEMG",
      "alert": "OK",
      "vis_m": 9999,
      "fzfg": false,
      "metar_trigger": false,
      "taf_trigger": false,
      "metar": "METAR LEMG 271800Z 13008KT 9999 SCT022 15/10 Q1015 NOSIG",
      "taf": "TAF LEMG 271700Z 2718/2818 12010KT 9999 FEW025 BKN045 TX17/2813Z TN13/2806Z"
    },
    {
      "icao": "LEVC",
      "alert": "OK",
      "vis_m": 9999,
      "fzfg": false,
      "metar_trigger": false,
      "taf_trigger": false,
      "metar": "METAR LEVC 271800Z 12007KT CAVOK 14/07 Q1015 NOSIG",
      "taf": "TAF LEVC 271700Z 2718/2818 12009KT 9999 FEW025 TX20/2813Z TN06/2806Z"
    },
    {
      "icao": "LEXJ",
      "alert": "OK",
      "vis_m": 9999,
      "fzfg": false,
      "metar_trigger": false,
      "taf_trigger": false,
      "metar": "METAR LEXJ 271800Z 07003KT 020V120 9999 SCT052 11/05 Q1025",
      "taf": "TAF LEXJ 271400Z 2715/2815 04006KT 9999 BKN030 TX12/2812Z TN09/2805Z"
    },
    {
      "icao": "LEZG",
      "alert": "OK",
      "vis_m": 9999,
      "fzfg": false,
      "metar_trigger": false,
      "taf_trigger": false,
      "metar": "METAR LEZG 271800Z 30025G35KT 270V330 CAVOK 13/00 Q1017 NOSIG",
      "taf": "TAF LEZG 271700Z 2718/2818 30020KT 9999 FEW045 TX18/2814Z TN06/2806Z"
    },
    {
      "icao": "LEZL",
      "alert": "OK",
      "vis_m": 9999,
      "fzfg": false,
      "metar_trigger": false,
      "taf_trigger": false,
      "metar": "METAR LEZL 271800Z 13004KT CAVOK 21/07 Q1013 NOSIG",
      "taf": "TAF LEZL 271400Z 2715/2815 05010KT CAVOK TX28/2715Z TN09/2807Z"
    },
    {
      "icao": "LFBD",
      "alert": "OK",
      "vis_m": 9999,
      "fzfg": false,
      "metar_trigger": false,
      "taf_trigger": false,
      "metar": "METAR LFBD 271800Z AUTO 36009KT CAVOK 12/M03 Q1024 NOSIG",
      "taf": "TAF LFBD 271700Z 2718/2824 33006KT CAVOK TX12/2815Z TN03/2803Z"
    },
    {
      "icao": "LFLL",
      "alert": "OK",
      "vis_m": 9999,
      "fzfg": false,
      "metar_trigger": false,
      "taf_trigger": false,
      "metar": "METAR LFLL 271800Z 36013KT CAVOK 06/M05 Q1021 NOSIG",
      "taf": "TAF LFLL 271700Z 2718/2824 36020KT CAVOK"
    },
    {
      "icao": "LFLS",
      "alert": "OK",
      "vis_m": 9999,
      "fzfg": false,
      "metar_trigger": false,
      "taf_trigger": false,
      "metar": "METAR LFLS 271800Z AUTO 35011KT 9999 BKN056 06/M05 Q1019 TEMPO 35015G25KT",
      "taf": "TAF LFLS 271400Z 2715/2815 34010KT 9999 BKN055"
    },
    {
      "icao": "LFMN",
      "alert": "OK",
      "vis_m": 9999,
      "fzfg": false,
      "metar_trigger": false,
      "taf_trigger": false,
      "metar": "METAR LFMN 271800Z 22010KT CAVOK 14/04 Q1010 NOSIG",
      "taf": "TAF LFMN 271400Z 2715/2821 21015KT CAVOK"
    },
    {
      "icao": "LFOB",
      "alert": "OK",
      "vis_m": 9999,
      "fzfg": false,
      "metar_trigger": false,
      "taf_trigger": false,
      "metar": "METAR LFOB 271800Z AUTO 22006KT 9999 OVC034 10/04 Q1021 TEMPO 4500 -RA BECMG BKN012 OVC020",
      "taf": "TAF LFOB 271700Z 2718/2818 22007KT 9999 OVC030"
    },
    {
      "icao": "LFPO",
      "alert": "OK",
      "vis_m": 9999,
      "fzfg": false,
      "metar_trigger": false,
      "taf_trigger": false,
      "metar": "METAR LFPO 271800Z COR 19006KT 9999 SCT046 BKN086 09/02 Q1022 NOSIG",
      "taf": "TAF LFPO 271700Z 2718/2824 20006KT CAVOK"
    },
    {
      "icao": "LFSB",
      "alert": "OK",
      "vis_m": 9999,
      "fzfg": false,
      "metar_trigger": false,
      "taf_trigger": false,
      "metar": "METAR LFSB 271800Z AUTO 32005KT CAVOK 04/M03 Q1022 NOSIG",
      "taf": "TAF LFSB 271700Z 2718/2818 35005KT CAVOK"
    },
    {
      "icao": "LGAV",
      "alert": "OK",
      "vis_m": 9999,
      "fzfg": false,
      "metar_trigger": false,
      "taf_trigger": false,
      "metar": "METAR LGAV 271820Z 23004KT 9999 SCT025 10/06 Q1004 NOSIG",
      "taf": "TAF LGAV 271700Z 2718/2818 24013KT 9999 FEW025 SCT030"
    },
    {
      "icao": "LGTS",
      "alert": "OK",
      "vis_m": 9999,
      "fzfg": false,
      "metar_trigger": false,
      "taf_trigger": false,
      "metar": "METAR LGTS 271820Z 08006KT 9999 FEW018TCU SCT025 11/05 Q0999 NOSIG",
      "taf": "TAF LGTS 271700Z 2718/2818 18013KT 9999 SCT025"
    },
    {
      "icao": "LHBP",
      "alert": "OK",
      "vis_m": 9999,
      "fzfg": false,
      "metar_trigger": false,
      "taf_trigger": false,
      "metar": "METAR LHBP 271800Z 35009G20KT CAVOK 09/02 Q1007 NOSIG",
      "taf": "TAF LHBP 271715Z 2718/2818 34011KT CAVOK"
    },
    {
      "icao": "LHDC",
      "alert": "OK",
      "vis_m": 9999,
      "fzfg": false,
      "metar_trigger": false,
      "taf_trigger": false,
      "metar": "METAR LHDC 271745Z AUTO 02020KT 350V050 CAVOK 09/04 Q1005 NOSIG",
      "taf": "TAF LHDC 271415Z 2715/2724 02022G32KT CAVOK"
    },
    {
      "icao": "LIBD",
      "alert": "OK",
      "vis_m": 6000,
      "fzfg": false,
      "metar_trigger": false,
      "taf_trigger": false,
      "metar": "METAR LIBD 271820Z 26006KT 230V310 6000 TSRA FEW008CB BKN015 08/06 Q1002",
      "taf": "TAF LIBD 271700Z 2718/2818 28012KT 9999 FEW010 BKN020"
    },
    {
      "icao": "LIBG",
      "alert": "OK",
      "vis_m": 9999,
      "fzfg": false,
      "metar_trigger": false,
      "taf_trigger": false,
      "metar": "METAR LIBG 271750Z 28005KT 240V310 9999 BKN030 10/05 Q1001",
      "taf": "TAF LIBG 271700Z 2718/2803 30006KT 9999 SCT030"
    },
    {
      "icao": "LIBP",
      "alert": "OK",
      "vis_m": 5000,
      "fzfg": false,
      "metar_trigger": false,
      "taf_trigger": false,
      "metar": "METAR LIBP 271820Z AUTO 31007KT 280V340 5000 RA OVC020/// 06/05 Q1008",
      "taf": "TAF LIBP 271700Z 2718/2818 33012KT 9999 BKN015 BKN050"
    },
    {
      "icao": "LIBR",
      "alert": "OK",
      "vis_m": 9999,
      "fzfg": false,
      "metar_trigger": false,
      "taf_trigger": false,
      "metar": "METAR LIBR 271820Z 22006KT 9999 -DZ FEW025 SCT040 09/06 Q1001",
      "taf": "TAF LIBR 271700Z 2718/2818 VRB05KT 9999 BKN040"
    },
    {
      "icao": "LICA",
      "alert": "OK",
      "vis_m": 9999,
      "fzfg": false,
      "metar_trigger": false,
      "taf_trigger": false,
      "metar": "METAR LICA 271820Z AUTO 28003KT 250V310 9999 FEW100/// 08/05 Q1004",
      "taf": "TAF LICA 271700Z 2718/2818 28010KT 9999 BKN030"
    },
    {
      "icao": "LICC",
      "alert": "OK",
      "vis_m": 9999,
      "fzfg": false,
      "metar_trigger": false,
      "taf_trigger": false,
      "metar": "METAR LICC 271820Z 27012KT 9999 FEW060 11/06 Q1004",
      "taf": "TAF LICC 271700Z 2718/2818 28015KT CAVOK"
    },
    {
      "icao": "LICJ",
      "alert": "OK",
      "vis_m": 9999,
      "fzfg": false,
      "metar_trigger": false,
      "taf_trigger": false,
      "metar": "METAR LICJ 271820Z 29012KT 9999 -RA BKN060 11/05 Q1006 RERA",
      "taf": "TAF LICJ 271700Z 2718/2818 30016KT 9999 SCT030"
    },
    {
      "icao": "LIMC",
      "alert": "OK",
      "vis_m": 9999,
      "fzfg": false,
      "metar_trigger": false,
      "taf_trigger": false,
      "metar": "METAR LIMC 271820Z VRB02KT CAVOK 12/M08 Q1010 NOSIG",
      "taf": "TAF LIMC 271700Z 2718/2824 35013KT CAVOK"
    },
    {
      "icao": "LIME",
      "alert": "OK",
      "vis_m": 9999,
      "fzfg": false,
      "metar_trigger": false,
      "taf_trigger": false,
      "metar": "METAR LIME 271820Z 28007KT CAVOK 10/M05 Q1009 NOSIG",
      "taf": "TAF LIME 271700Z 2718/2818 01006KT CAVOK"
    },
    {
      "icao": "LIMF",
      "alert": "OK",
      "vis_m": 9999,
      "fzfg": false,
      "metar_trigger": false,
      "taf_trigger": false,
      "metar": "METAR LIMF 271820Z 21010KT CAVOK 11/M08 Q1010",
      "taf": "TAF LIMF 271700Z 2718/2818 VRB05KT CAVOK"
    },
    {
      "icao": "LIMJ",
      "alert": "OK",
      "vis_m": 9999,
      "fzfg": false,
      "metar_trigger": false,
      "taf_trigger": false,
      "metar": "METAR LIMJ 271820Z 36010KT CAVOK 15/M11 Q1010",
      "taf": "TAF LIMJ 271700Z 2718/2818 36013KT CAVOK"
    },
    {
      "icao": "LIPE",
      "alert": "OK",
      "vis_m": 9999,
      "fzfg": false,
      "metar_trigger": false,
      "taf_trigger": false,
      "metar": "METAR LIPE 271820Z 25005KT CAVOK 10/M01 Q1009",
      "taf": "TAF LIPE 271700Z 2718/2818 VRB05KT CAVOK"
    },
    {
      "icao": "LIPH",
      "alert": "OK",
      "vis_m": 9999,
      "fzfg": false,
      "metar_trigger": false,
      "taf_trigger": false,
      "metar": "METAR LIPH 271820Z VRB01KT CAVOK 10/01 Q1009",
      "taf": "TAF LIPH 271700Z 2718/2818 VRB05KT CAVOK"
    },
    {
      "icao": "LIPQ",
      "alert": "OK",
      "vis_m": 9999,
      "fzfg": false,
      "metar_trigger": false,
      "taf_trigger": false,
      "metar": "METAR LIPQ 271820Z AUTO VRB02KT 9999 NCD 12/M01 Q1009",
      "taf": "TAF LIPQ 271700Z 2718/2818 VRB05KT CAVOK"
    },
    {
      "icao": "LIPR",
      "alert": "OK",
      "vis_m": 9999,
      "fzfg": false,
      "metar_trigger": false,
      "taf_trigger": false,
      "metar": "METAR LIPR 271820Z 20004KT CAVOK 08/05 Q1009",
      "taf": "TAF LIPR 271700Z 2718/2818 VRB05KT 9999 SCT070"
    },
    {
      "icao": "LIPX",
      "alert": "OK",
      "vis_m": 9999,
      "fzfg": false,
      "metar_trigger": false,
      "taf_trigger": false,
      "metar": "METAR LIPX 271820Z 28007KT CAVOK 12/M04 Q1009",
      "taf": "TAF LIPX 271700Z 2718/2818 32012KT 9999 SCT050"
    },
    {
      "icao": "LIPY",
      "alert": "OK",
      "vis_m": 9999,
      "fzfg": false,
      "metar_trigger": false,
      "taf_trigger": false,
      "metar": "METAR LIPY 271820Z AUTO 03014KT 9999 OVC047/// 11/03 Q1009",
      "taf": "TAF LIPY 271700Z 2718/2818 01015KT 9999 OVC050"
    },
    {
      "icao": "LIPZ",
      "alert": "OK",
      "vis_m": 9999,
      "fzfg": false,
      "metar_trigger": false,
      "taf_trigger": false,
      "metar": "METAR LIPZ 271820Z 03005KT CAVOK 12/M03 Q1009 NOSIG",
      "taf": "TAF LIPZ 271700Z 2718/2824 VRB05KT CAVOK"
    },
    {
      "icao": "LIRF",
      "alert": "OK",
      "vis_m": 9999,
      "fzfg": false,
      "metar_trigger": false,
      "taf_trigger": false,
      "metar": "METAR LIRF 271820Z 36016KT CAVOK 09/02 Q1006 NOSIG",
      "taf": "TAF LIRF 271700Z 2718/2824 01020G32KT CAVOK"
    },
    {
      "icao": "LIRN",
      "alert": "OK",
      "vis_m": 9999,
      "fzfg": false,
      "metar_trigger": false,
      "taf_trigger": false,
      "metar": "METAR LIRN 271820Z 06006KT 9999 FEW070 10/01 Q1004 NOSIG",
      "taf": "TAF LIRN 271700Z 2718/2818 04008KT 9999 SCT050"
    },
    {
      "icao": "LIRP",
      "alert": "OK",
      "vis_m": 9999,
      "fzfg": false,
      "metar_trigger": false,
      "taf_trigger": false,
      "metar": "METAR LIRP 271815Z 24003KT 9999 SCT080 11/02 Q1009 NOSIG",
      "taf": "TAF LIRP 271700Z 2718/2818 30005KT 9999 SCT080"
    },
    {
      "icao": "LIRZ",
      "alert": "OK",
      "vis_m": 9999,
      "fzfg": false,
      "metar_trigger": false,
      "taf_trigger": false,
      "metar": "METAR LIRZ 271820Z AUTO VRB02KT 9999 BKN078/// 06/02 Q1009",
      "taf": "TAF LIRZ 271700Z 2718/2818 35011KT 9999 SCT030"
    },
    {
      "icao": "LJLJ",
      "alert": "OK",
      "vis_m": 9999,
      "fzfg": false,
      "metar_trigger": false,
      "taf_trigger": false,
      "metar": "METAR LJLJ 271800Z 33015KT 9999 FEW060 BKN095 08/M08 Q1009 WS ALL RWY NOSIG",
      "taf": "TAF LJLJ 271700Z 2718/2818 33015G30KT 9999 FEW060 SCT090"
    },
    {
      "icao": "LKMT",
      "alert": "OK",
      "vis_m": 9000,
      "fzfg": false,
      "metar_trigger": false,
      "taf_trigger": false,
      "metar": "METAR LKMT 271800Z 06010KT 9000 -RA OVC010 02/01 Q1018 NOSIG",
      "taf": "TAF LKMT 271700Z 2718/2818 03008KT 9999 BKN030"
    },
    {
      "icao": "LKPR",
      "alert": "OK",
      "vis_m": 9999,
      "fzfg": false,
      "metar_trigger": false,
      "taf_trigger": false,
      "metar": "METAR LKPR 271800Z 31007KT 260V330 9999 FEW043 02/M05 Q1020 NOSIG",
      "taf": "TAF LKPR 271700Z 2718/2824 31008KT CAVOK"
    },
    {
      "icao": "LLBG",
      "alert": "OK",
      "vis_m": 9999,
      "fzfg": false,
      "metar_trigger": false,
      "taf_trigger": false,
      "metar": "METAR LLBG 271820Z 16006KT 9999 FEW025 16/12 Q1016 NOSIG",
      "taf": "TAF LLBG 271705Z 2718/2818 24007KT 9999 SCT025 TX24/2812Z TN09/2803Z"
    },
    {
      "icao": "LMML",
      "alert": "OK",
      "vis_m": 9999,
      "fzfg": false,
      "metar_trigger": false,
      "taf_trigger": false,
      "metar": "METAR LMML 271815Z 28014KT 9999 FEW025 11/05 Q1006 NOSIG",
      "taf": "TAF LMML 271700Z 2718/2818 29020KT 9999 SCT020"
    },
    {
      "icao": "LOWW",
      "alert": "OK",
      "vis_m": 9999,
      "fzfg": false,
      "metar_trigger": false,
      "taf_trigger": false,
      "metar": "METAR LOWW 271820Z 01016KT 9999 -RA FEW020 BKN025 04/00 Q1017 TEMPO 36020G30KT",
      "taf": "TAF LOWW 271715Z 2718/2824 33018KT 9999 FEW015 BKN025 TX09/2815Z TN03/2806Z"
    },
    {
      "icao": "LPFR",
      "alert": "OK",
      "vis_m": 9999,
      "fzfg": false,
      "metar_trigger": false,
      "taf_trigger": false,
      "metar": "METAR LPFR 271800Z 26008KT CAVOK 17/10 Q1014",
      "taf": "TAF LPFR 271700Z 2718/2818 26007KT CAVOK"
    },
    {
      "icao": "LPMA",
      "alert": "OK",
      "vis_m": 9999,
      "fzfg": false,
      "metar_trigger": false,
      "taf_trigger": false,
      "metar": "METAR LPMA 271800Z 36018KT 330V050 9999 FEW016 18/10 Q1017",
      "taf": "TAF LPMA 271700Z 2718/2818 01015KT 9999 SCT015"
    },
    {
      "icao": "LPPR",
      "alert": "OK",
      "vis_m": 9999,
      "fzfg": false,
      "metar_trigger": false,
      "taf_trigger": false,
      "metar": "METAR LPPR 271800Z 35009KT CAVOK 17/10 Q1018",
      "taf": "TAF LPPR 271700Z 2718/2818 33010KT CAVOK"
    },
    {
      "icao": "LPPS",
      "alert": "OK",
      "vis_m": 9999,
      "fzfg": false,
      "metar_trigger": false,
      "taf_trigger": false,
      "metar": "METAR LPPS 271800Z 01010KT 340V040 9999 SCT014 BKN030 16/12 Q1019",
      "taf": "TAF LPPS 271700Z 2718/2824 01015KT 9999 SCT015 SCT030"
    },
    {
      "icao": "LPPT",
      "alert": "OK",
      "vis_m": 9999,
      "fzfg": false,
      "metar_trigger": false,
      "taf_trigger": false,
      "metar": "METAR LPPT 271800Z 33014KT CAVOK 18/09 Q1016",
      "taf": "TAF LPPT 271700Z 2718/2824 33012KT CAVOK"
    },
    {
      "icao": "LQBK",
      "alert": "OK",
      "vis_m": 5000,
      "fzfg": false,
      "metar_trigger": false,
      "taf_trigger": false,
      "metar": "METAR LQBK 271800Z 30012KT 5000 RA FEW009 BKN017 OVC030 04/02 Q1008 NOSIG",
      "taf": "TAF LQBK 271700Z 2718/2818 30011KT 7000 RA SCT010 BKN015 OVC030 TX06/2813Z TN02/2806Z"
    },
    {
      "icao": "LQSA",
      "alert": "OK",
      "vis_m": 9999,
      "fzfg": false,
      "metar_trigger": false,
      "taf_trigger": false,
      "metar": "METAR LQSA 271800Z 32005KT 9999 -SN SCT015 OVC035 02/01 Q1005 NOSIG",
      "taf": "TAF LQSA 271700Z 2718/2818 31007KT 9999 SCT012 BKN030 TX04/2813Z TN00/2806Z"
    },
    {
      "icao": "LQTZ",
      "alert": "OK",
      "vis_m": 1500,
      "fzfg": false,
      "metar_trigger": false,
      "taf_trigger": false,
      "metar": "METAR LQTZ 271800Z 28006KT 1500 R09/1400N -SN BR OVC002 00/00 Q1006",
      "taf": "TAF LQTZ 271700Z 2718/2818 27007KT 3000 RA SCT005 BKN010 OVC020 TX02/2814Z TNM01/2805Z"
    },
    {
      "icao": "LRBC",
      "alert": "OK",
      "vis_m": 9999,
      "fzfg": false,
      "metar_trigger": false,
      "taf_trigger": false,
      "metar": "METAR LRBC 271800Z 34006KT 9999 OVC036 08/04 Q1010",
      "taf": "TAF LRBC 271700Z 2718/2803 33007KT 9999 OVC035"
    },
    {
      "icao": "LRBS",
      "alert": "OK",
      "vis_m": 9999,
      "fzfg": false,
      "metar_trigger": false,
      "taf_trigger": false,
      "metar": "METAR LRBS 271800Z 07019KT 9999 -RA BKN023 BKN030 10/06 Q1005 NOSIG",
      "taf": "TAF LRBS 271700Z 2718/2818 08020KT 9999 BKN025"
    },
    {
      "icao": "LRBV",
      "alert": "OK",
      "vis_m": 9999,
      "fzfg": false,
      "metar_trigger": false,
      "taf_trigger": false,
      "metar": "METAR LRBV 271800Z 08019KT 9999 SCT079 07/01 Q1005",
      "taf": "TAF LRBV 271700Z 2718/2803 10012KT 9999 BKN075"
    },
    {
      "icao": "LRCL",
      "alert": "OK",
      "vis_m": 9999,
      "fzfg": false,
      "metar_trigger": false,
      "taf_trigger": false,
      "metar": "METAR LRCL 271800Z 09006KT 060V140 CAVOK 11/01 Q1004",
      "taf": "TAF LRCL 271700Z 2718/2803 08005KT 9999 BKN065"
    },
    {
      "icao": "LRCV",
      "alert": "OK",
      "vis_m": 9999,
      "fzfg": false,
      "metar_trigger": false,
      "taf_trigger": false,
      "metar": "METAR LRCV 271800Z 04008KT 9999 -RA FEW015 SCT045 08/08 Q1002",
      "taf": "TAF LRCV 271700Z 2718/2803 VRB04KT 5000 -RA BR BKN010 OVC020"
    },
    {
      "icao": "LRIA",
      "alert": "OK",
      "vis_m": 9999,
      "fzfg": false,
      "metar_trigger": false,
      "taf_trigger": false,
      "metar": "METAR LRIA 271800Z 33006KT CAVOK 07/03 Q1010",
      "taf": "TAF LRIA 271700Z 2718/2803 VRB04KT CAVOK"
    },
    {
      "icao": "LROP",
      "alert": "OK",
      "vis_m": 9999,
      "fzfg": false,
      "metar_trigger": false,
      "taf_trigger": false,
      "metar": "METAR LROP 271800Z 08019KT 9999 BKN031 10/04 Q1005 NOSIG",
      "taf": "TAF LROP 271700Z 2718/2818 08020KT 9999 BKN025"
    },
    {
      "icao": "LRSB",
      "alert": "OK",
      "vis_m": 9999,
      "fzfg": false,
      "metar_trigger": false,
      "taf_trigger": false,
      "metar": "METAR LRSB 271800Z 10016KT 9999 SCT065 10/01 Q1003",
      "taf": "TAF LRSB 271700Z 2718/2818 VRB04KT 9999 BKN075"
    },
    {
      "icao": "LRSM",
      "alert": "OK",
      "vis_m": 9999,
      "fzfg": false,
      "metar_trigger": false,
      "taf_trigger": false,
      "metar": "METAR LRSM 271800Z AUTO 05009KT 9999 FEW110/// BKN190/// 12/01 Q1004",
      "taf": "TAF LRSM 271400Z 2715/2724 08014KT CAVOK"
    },
    {
      "icao": "LRSV",
      "alert": "OK",
      "vis_m": 9999,
      "fzfg": false,
      "metar_trigger": false,
      "taf_trigger": false,
      "metar": "METAR LRSV 271800Z 32003KT 9999 BKN034 06/02 Q1010",
      "taf": "TAF LRSV 271700Z 2718/2803 VRB04KT 9999 BKN030"
    },
    {
      "icao": "LRTM",
      "alert": "OK",
      "vis_m": 9999,
      "fzfg": false,
      "metar_trigger": false,
      "taf_trigger": false,
      "metar": "METAR LRTM 271800Z AUTO 07010KT 9999 NCD 10/01 Q1004",
      "taf": "TAF LRTM 271700Z 2718/2803 09013KT CAVOK"
    },
    {
      "icao": "LRTR",
      "alert": "OK",
      "vis_m": 7000,
      "fzfg": false,
      "metar_trigger": false,
      "taf_trigger": false,
      "metar": "METAR LRTR 271800Z 27005KT 250V310 7000 RA SCT045 09/08 Q1003 TEMPO 5000 RA",
      "taf": "TAF LRTR 271700Z 2718/2818 VRB04KT 9999 BKN045"
    },
    {
      "icao": "LTAC",
      "alert": "OK",
      "vis_m": 9999,
      "fzfg": false,
      "metar_trigger": false,
      "taf_trigger": false,
      "metar": "METAR LTAC 271820Z VRB02KT CAVOK 08/03 Q1008 NOSIG RMK RWY21C VRB02KT RWY03L VRB01KT RWY21R VRB02KT RWY03R VRB01KT RWY21L 10006KT",
      "taf": "TAF LTAC 271640Z 2718/2818 VRB02KT CAVOK"
    },
    {
      "icao": "LTFM",
      "alert": "OK",
      "vis_m": 9999,
      "fzfg": false,
      "metar_trigger": false,
      "taf_trigger": false,
      "metar": "METAR LTFM 271820Z 15006KT 100V180 9999 SCT035 BKN090 14/05 Q1005 NOSIG RMK RWY17L 11011KT RWY34L 13007KT 090V170 RWY16R 12012KT RWY36 11010G20KT 100V230 RWY18 12011KT",
      "taf": "TAF LTFM 271640Z 2718/2824 13010KT 9999 -SHRA BKN035 BKN080"
    },
    {
      "icao": "LUKK",
      "alert": "OK",
      "vis_m": 9999,
      "fzfg": false,
      "metar_trigger": false,
      "taf_trigger": false,
      "metar": "METAR LUKK 271800Z 18006KT CAVOK 10/03 Q1009 NOSIG",
      "taf": "TAF LUKK 271713Z 2718/2818 VRB05KT 9999 SCT045"
    },
    {
      "icao": "LWOH",
      "alert": "OK",
      "vis_m": 9999,
      "fzfg": false,
      "metar_trigger": false,
      "taf_trigger": false,
      "metar": "METAR LWOH 271820Z VRB02KT 9999 FEW050 04/02 Q1000",
      "taf": "TAF LWOH 271730Z 2718/2818 VRB02KT 9999 SCT040 SCT080"
    },
    {
      "icao": "LWSK",
      "alert": "OK",
      "vis_m": 9999,
      "fzfg": false,
      "metar_trigger": false,
      "taf_trigger": false,
      "metar": "METAR LWSK 271820Z VRB01KT CAVOK 05/04 Q1001 NOSIG",
      "taf": "TAF LWSK 271730Z 2718/2818 34006KT 9999 FEW040 SCT080"
    },
    {
      "icao": "LYBE",
      "alert": "OK",
      "vis_m": 8000,
      "fzfg": false,
      "metar_trigger": false,
      "taf_trigger": false,
      "metar": "METAR LYBE 271800Z 26006KT 220V280 8000 -RA BKN003 BKN023 06/05 Q1003 NOSIG",
      "taf": "TAF LYBE 271700Z 2718/2818 27007KT 5000 -RA BR BKN005 BKN027 TX09/2812Z TN05/2805Z"
    },
    {
      "icao": "LYNI",
      "alert": "OK",
      "vis_m": 9999,
      "fzfg": false,
      "metar_trigger": false,
      "taf_trigger": false,
      "metar": "METAR LYNI 271800Z 34006KT 9999 BKN027 08/05 Q1002 NOSIG",
      "taf": "TAF LYNI 271700Z 2718/2818 32010KT 9999 FEW013 BKN040 TX09/2718Z TN05/2806Z"
    },
    {
      "icao": "LYPG",
      "alert": "OK",
      "vis_m": 9999,
      "fzfg": false,
      "metar_trigger": false,
      "taf_trigger": false,
      "metar": "METAR LYPG 271800Z 00000KT 9999 SCT080 09/05 Q1001 NOSIG",
      "taf": "TAF LYPG 271700Z 2718/2818 36005KT 9999 FEW040 SCT090 TX14/2812Z TN05/2805Z"
    },
    {
      "icao": "LZIB",
      "alert": "OK",
      "vis_m": 9999,
      "fzfg": false,
      "metar_trigger": false,
      "taf_trigger": false,
      "metar": "METAR LZIB 271800Z 34014KT 9999 -RA FEW010 BKN048 04/02 Q1015 NOSIG",
      "taf": "TAF LZIB 271715Z 2718/2818 35013KT 9999 FEW016 SCT035"
    },
    {
      "icao": "LZKZ",
      "alert": "OK",
      "vis_m": 9999,
      "fzfg": false,
      "metar_trigger": false,
      "taf_trigger": false,
      "metar": "METAR LZKZ 271800Z 36025KT 9999 FEW028 06/01 Q1009 NOSIG",
      "taf": "TAF LZKZ 271715Z 2718/2818 01020KT 9999 FEW020 BKN025"
    },
    {
      "icao": "LZTT",
      "alert": "OK",
      "vis_m": 9999,
      "fzfg": false,
      "metar_trigger": false,
      "taf_trigger": false,
      "metar": "METAR LZTT 271800Z 28008KT 240V310 9999 -RA BKN033 OVC050 02/M01 Q1010 NOSIG",
      "taf": "TAF LZTT 271715Z 2718/2818 06010KT 9999 FEW020 SCT040"
    },
    {
      "icao": "OEJN",
      "alert": "OK",
      "vis_m": 9999,
      "fzfg": false,
      "metar_trigger": false,
      "taf_trigger": false,
      "metar": "METAR OEJN 271800Z 35009KT CAVOK 23/09 Q1014 NOSIG",
      "taf": "TAF OEJN 271700Z 2718/2824 32010KT CAVOK"
    },
    {
      "icao": "OEMA",
      "alert": "OK",
      "vis_m": 9999,
      "fzfg": false,
      "metar_trigger": false,
      "taf_trigger": false,
      "metar": "METAR OEMA 271800Z 02004KT CAVOK 22/03 Q1017 NOSIG",
      "taf": "TAF OEMA 271700Z 2718/2824 30010KT CAVOK"
    },
    {
      "icao": "OJAI",
      "alert": "OK",
      "vis_m": 3500,
      "fzfg": false,
      "metar_trigger": false,
      "taf_trigger": false,
      "metar": "METAR OJAI 271800Z 28007KT 3500 HZ NSC 09/07 Q1016 NOSIG",
      "taf": "TAF OJAI 271703Z 2718/2824 27010KT 3000 BR FEW030"
    },
    {
      "icao": "OMAA",
      "alert": "OK",
      "vis_m": null,
      "fzfg": false,
      "metar_trigger": false,
      "taf_trigger": false,
      "metar": "",
      "taf": ""
    },
    {
      "icao": "OMDB",
      "alert": "OK",
      "vis_m": null,
      "fzfg": false,
      "metar_trigger": false,
      "taf_trigger": false,
      "metar": "",
      "taf": ""
    },
    {
      "icao": "UAAA",
      "alert": "OK",
      "vis_m": 9999,
      "fzfg": false,
      "metar_trigger": false,
      "taf_trigger": false,
      "metar": "METAR UAAA 271800Z 23002MPS 9999 NSC 10/00 Q1014 NOSIG",
      "taf": "TAF UAAA 271704Z 2718/2818 22003MPS 9999 FEW100 TX19/2810Z TN05/2801Z"
    },
    {
      "icao": "UBBB",
      "alert": "OK",
      "vis_m": 9999,
      "fzfg": false,
      "metar_trigger": false,
      "taf_trigger": false,
      "metar": "METAR UBBB 271800Z 27013KT 9999 -SHRA BKN042CB 13/12 Q1001 NOSIG",
      "taf": "TAF UBBB 271704Z 2718/2818 28016KT 6000 -SHRA BKN007 SCT035CB OVC035 TX14/2810Z TN11/2802Z"
    },
    {
      "icao": "UDSG",
      "alert": "OK",
      "vis_m": 9999,
      "fzfg": false,
      "metar_trigger": false,
      "taf_trigger": false,
      "metar": "METAR UDSG 271800Z 31005KT 9999 -SHRA SCT030CB OVC043 04/03 Q1006 NOSIG",
      "taf": "TAF UDSG 271658Z 2718/2818 24006KT 9999 BKN040"
    },
    {
      "icao": "UDYZ",
      "alert": "OK",
      "vis_m": 9999,
      "fzfg": false,
      "metar_trigger": false,
      "taf_trigger": false,
      "metar": "METAR UDYZ 271800Z 04003KT 9999 -SHRA OVC040CB 09/07 Q1005 NOSIG",
      "taf": "TAF UDYZ 271700Z 2718/2818 04006KT 9999 BKN040"
    },
    {
      "icao": "UGKO",
      "alert": "OK",
      "vis_m": 9999,
      "fzfg": false,
      "metar_trigger": false,
      "taf_trigger": false,
      "metar": "METAR UGKO 271800Z 27006KT 9999 SCT035 OVC051 10/08 Q1009 NOSIG",
      "taf": "TAF UGKO 271700Z 2718/2818 26006KT 9000 SCT033 OVC050 TX19/2811Z TN07/2803Z"
    }
  ]
}