{
  "ts_utc": "2026-07-03T16:54:32Z",
  "threshold_m": 150,
  "source": "stations_override.txt (ICAO list) + aviationweather.gov (METAR/TAF raw)",
  "station_count": 159,
  "stations": [
    {
      "icao": "BIKF",
      "alert": "OK",
      "vis_m": 9999,
      "fzfg": false,
      "metar_trigger": false,
      "taf_trigger": false,
      "metar": "METAR BIKF 031630Z 29006KT 240V330 9999 SCT029 BKN180 11/04 Q1005",
      "taf": "TAF BIKF 031626Z 0318/0418 33012KT 9999 SCT030 TX12/0415Z TN05/0404Z"
    },
    {
      "icao": "BKPR",
      "alert": "OK",
      "vis_m": 9999,
      "fzfg": false,
      "metar_trigger": false,
      "taf_trigger": false,
      "metar": "METAR BKPR 031630Z 35013KT 9999 FEW035 BKN050 23/16 Q1017 NOSIG",
      "taf": "TAF BKPR 031130Z 0312/0412 33010KT 9999 BKN070"
    },
    {
      "icao": "EBCI",
      "alert": "OK",
      "vis_m": 9999,
      "fzfg": false,
      "metar_trigger": false,
      "taf_trigger": false,
      "metar": "METAR EBCI 031620Z 32006KT 260V010 CAVOK 23/08 Q1027 NOSIG",
      "taf": "TAF EBCI 031101Z 0312/0418 32008KT 9999 FEW045"
    },
    {
      "icao": "EDDB",
      "alert": "OK",
      "vis_m": 9999,
      "fzfg": false,
      "metar_trigger": false,
      "taf_trigger": false,
      "metar": "METAR EDDB 031650Z AUTO 30015KT 9999 SCT048 21/10 Q1021 TEMPO 29015G25KT",
      "taf": "TAF EDDB 031100Z 0312/0412 28015KT 9999 SCT045"
    },
    {
      "icao": "EDDH",
      "alert": "OK",
      "vis_m": 9999,
      "fzfg": false,
      "metar_trigger": false,
      "taf_trigger": false,
      "metar": "METAR EDDH 031650Z AUTO 29015KT 9999 OVC038 17/09 Q1023 TEMPO 30015G25KT",
      "taf": "TAF EDDH 031100Z 0312/0418 29015G30KT 9999 SCT030"
    },
    {
      "icao": "EDDK",
      "alert": "OK",
      "vis_m": 9999,
      "fzfg": false,
      "metar_trigger": false,
      "taf_trigger": false,
      "metar": "METAR EDDK 031650Z AUTO 30011KT 270V330 CAVOK 23/09 Q1025 NOSIG",
      "taf": "TAF EDDK 031100Z 0312/0418 32010KT CAVOK"
    },
    {
      "icao": "EDDN",
      "alert": "OK",
      "vis_m": 9999,
      "fzfg": false,
      "metar_trigger": false,
      "taf_trigger": false,
      "metar": "METAR EDDN 031650Z AUTO 32009KT 280V350 CAVOK 24/08 Q1024 NOSIG",
      "taf": "TAF EDDN 031100Z 0312/0412 30009KT CAVOK"
    },
    {
      "icao": "EDDS",
      "alert": "OK",
      "vis_m": 9999,
      "fzfg": false,
      "metar_trigger": false,
      "taf_trigger": false,
      "metar": "METAR EDDS 031650Z AUTO 35007KT 290V060 CAVOK 26/00 Q1025 NOSIG",
      "taf": "TAF EDDS 031100Z 0312/0412 33007KT CAVOK"
    },
    {
      "icao": "EDFH",
      "alert": "OK",
      "vis_m": 9999,
      "fzfg": false,
      "metar_trigger": false,
      "taf_trigger": false,
      "metar": "METAR EDFH 031620Z 32009KT 270V010 CAVOK 24/06 Q1026",
      "taf": "TAF EDFH 031100Z 0312/0412 32005KT CAVOK"
    },
    {
      "icao": "EDJA",
      "alert": "OK",
      "vis_m": 9999,
      "fzfg": false,
      "metar_trigger": false,
      "taf_trigger": false,
      "metar": "METAR EDJA 031620Z 34006KT 310V010 CAVOK 24/06 Q1025",
      "taf": "TAF EDJA 031400Z 0315/0324 35005KT 9999 FEW050"
    },
    {
      "icao": "EDLW",
      "alert": "OK",
      "vis_m": 9999,
      "fzfg": false,
      "metar_trigger": false,
      "taf_trigger": false,
      "metar": "METAR EDLW 031620Z 29006KT 210V010 CAVOK 23/09 Q1025",
      "taf": "TAF EDLW 031100Z 0312/0412 28010KT 9999 FEW045"
    },
    {
      "icao": "EDNY",
      "alert": "OK",
      "vis_m": 9999,
      "fzfg": false,
      "metar_trigger": false,
      "taf_trigger": false,
      "metar": "METAR EDNY 031620Z VRB04KT 9999 FEW058 26/10 Q1024",
      "taf": "TAF EDNY 031400Z 0315/0324 28005KT 9999 FEW040"
    },
    {
      "icao": "EDSB",
      "alert": "OK",
      "vis_m": 9999,
      "fzfg": false,
      "metar_trigger": false,
      "taf_trigger": false,
      "metar": "METAR EDSB 031620Z 03004KT 340V080 CAVOK 27/06 Q1025",
      "taf": "TAF EDSB 031100Z 0312/0412 36006KT CAVOK"
    },
    {
      "icao": "EETN",
      "alert": "OK",
      "vis_m": 9999,
      "fzfg": false,
      "metar_trigger": false,
      "taf_trigger": false,
      "metar": "METAR EETN 031650Z VRB02KT 9999 SCT027CB BKN046 17/14 Q1003 TEMPO 4000 TSRA",
      "taf": "TAF EETN 031139Z 0312/0412 15010KT 9999 SCT015 BKN025"
    },
    {
      "icao": "EFTU",
      "alert": "OK",
      "vis_m": 9999,
      "fzfg": false,
      "metar_trigger": false,
      "taf_trigger": false,
      "metar": "METAR EFTU 031650Z AUTO 24008KT 9999 BKN032 //////CB 20/13 Q1001",
      "taf": "TAF EFTU 031434Z 0315/0415 21006KT 9999 BKN030 FEW040CB"
    },
    {
      "icao": "EGBB",
      "alert": "OK",
      "vis_m": 9999,
      "fzfg": false,
      "metar_trigger": false,
      "taf_trigger": false,
      "metar": "METAR EGBB 031620Z 25008KT 200V290 CAVOK 25/08 Q1026",
      "taf": "TAF EGBB 031053Z 0312/0412 24008KT 9999 FEW035"
    },
    {
      "icao": "EGGP",
      "alert": "OK",
      "vis_m": 9999,
      "fzfg": false,
      "metar_trigger": false,
      "taf_trigger": false,
      "metar": "METAR EGGP 031620Z 25013KT 9999 FEW035 22/10 Q1026",
      "taf": "TAF EGGP 031056Z 0312/0412 27008KT 9999 SCT045"
    },
    {
      "icao": "EGGW",
      "alert": "OK",
      "vis_m": 9999,
      "fzfg": false,
      "metar_trigger": false,
      "taf_trigger": false,
      "metar": "METAR EGGW 031620Z AUTO 28013KT 9999 NCD 25/06 Q1027",
      "taf": "TAF EGGW 031053Z 0312/0412 29008KT 9999 FEW040"
    },
    {
      "icao": "EGKK",
      "alert": "OK",
      "vis_m": 9999,
      "fzfg": false,
      "metar_trigger": false,
      "taf_trigger": false,
      "metar": "METAR EGKK 031620Z 21008KT 180V240 CAVOK 25/12 Q1027",
      "taf": "TAF EGKK 031056Z 0312/0418 30006KT 9999 FEW030"
    },
    {
      "icao": "EGNM",
      "alert": "OK",
      "vis_m": 9999,
      "fzfg": false,
      "metar_trigger": false,
      "taf_trigger": false,
      "metar": "METAR EGNM 031620Z 26012KT 9999 FEW033 18/11 Q1026",
      "taf": "TAF EGNM 031055Z 0312/0412 26012KT 9999 SCT025"
    },
    {
      "icao": "EGPD",
      "alert": "OK",
      "vis_m": 9999,
      "fzfg": false,
      "metar_trigger": false,
      "taf_trigger": false,
      "metar": "METAR EGPD 031620Z AUTO 31012KT 9999 NCD 22/10 Q1020",
      "taf": ""
    },
    {
      "icao": "EGPF",
      "alert": "OK",
      "vis_m": 9999,
      "fzfg": false,
      "metar_trigger": false,
      "taf_trigger": false,
      "metar": "METAR EGPF 031620Z AUTO 22011KT 9999 SCT022 16/11 Q1023",
      "taf": "TAF EGPF 031056Z 0312/0412 23010KT 9999 -RA BKN020"
    },
    {
      "icao": "EHBK",
      "alert": "OK",
      "vis_m": 9999,
      "fzfg": false,
      "metar_trigger": false,
      "taf_trigger": false,
      "metar": "METAR EHBK 031625Z AUTO 29006KT 220V350 9999 NSC 23/10 Q1026 NOSIG",
      "taf": "TAF EHBK 031108Z 0312/0418 30010KT CAVOK"
    },
    {
      "icao": "EHEH",
      "alert": "OK",
      "vis_m": 9999,
      "fzfg": false,
      "metar_trigger": false,
      "taf_trigger": false,
      "metar": "METAR EHEH 031625Z AUTO 32007KT 240V360 9999 OVC350 22/09 Q1026 BLU NOSIG RMK TREND REMOTE BY EHWX",
      "taf": "TAF EHEH 031139Z 0312/0418 29008KT 9999 BKN045"
    },
    {
      "icao": "EKBI",
      "alert": "OK",
      "vis_m": 9999,
      "fzfg": false,
      "metar_trigger": false,
      "taf_trigger": false,
      "metar": "METAR EKBI 031650Z AUTO 28020KT 9999 BKN030/// 15/08 Q1020",
      "taf": "TAF EKBI 031427Z 0315/0415 28022KT 9999 BKN025"
    },
    {
      "icao": "EKCH",
      "alert": "OK",
      "vis_m": 9999,
      "fzfg": false,
      "metar_trigger": false,
      "taf_trigger": false,
      "metar": "METAR EKCH 031650Z AUTO 28018KT 9999 OVC030/// 17/10 Q1015 TEMPO 28022G30KT",
      "taf": "TAF EKCH 031427Z 0315/0415 28020KT 9999 BKN025"
    },
    {
      "icao": "ENAL",
      "alert": "OK",
      "vis_m": 9999,
      "fzfg": false,
      "metar_trigger": false,
      "taf_trigger": false,
      "metar": "METAR ENAL 031620Z 24013KT 9999 BKN051 14/09 Q1016",
      "taf": "TAF ENAL 031400Z 0315/0324 28008KT 9999 SCT009 BKN020"
    },
    {
      "icao": "ENBR",
      "alert": "OK",
      "vis_m": 9999,
      "fzfg": false,
      "metar_trigger": false,
      "taf_trigger": false,
      "metar": "METAR ENBR 031620Z 26003KT 9999 VCSH FEW018 SCT023 BKN031 13/09 Q1019 NOSIG RMK WIND 1200FT 28012KT",
      "taf": "TAF ENBR 031100Z 0312/0412 34015KT 9999 FEW010 BKN025"
    },
    {
      "icao": "ENGM",
      "alert": "OK",
      "vis_m": 9999,
      "fzfg": false,
      "metar_trigger": false,
      "taf_trigger": false,
      "metar": "METAR ENGM 031620Z 32007KT 280V360 9999 VCTS FEW035CB FEW038 19/10 Q1010 TEMPO TSRA FEW030CB",
      "taf": ""
    },
    {
      "icao": "ENHD",
      "alert": "OK",
      "vis_m": 9999,
      "fzfg": false,
      "metar_trigger": false,
      "taf_trigger": false,
      "metar": "METAR ENHD 031620Z 29013KT 9999 BKN034 14/09 Q1020",
      "taf": "TAF ENHD 031400Z 0315/0322 32015KT 9999 SCT022 BKN035"
    },
    {
      "icao": "ENTC",
      "alert": "OK",
      "vis_m": 9999,
      "fzfg": false,
      "metar_trigger": false,
      "taf_trigger": false,
      "metar": "METAR ENTC 031620Z 02011KT 9999 FEW056 14/08 Q1008 NOSIG RMK WIND 2600FT 17008KT",
      "taf": "TAF ENTC 031100Z 0312/0412 02010KT 9999 FEW060"
    },
    {
      "icao": "ENTO",
      "alert": "OK",
      "vis_m": 9999,
      "fzfg": false,
      "metar_trigger": false,
      "taf_trigger": false,
      "metar": "METAR ENTO 031620Z 36013G26KT 330V030 9999 -SHRA FEW013 SCT040CB 18/12 Q1011 RERA NOSIG",
      "taf": "TAF ENTO 031100Z 0312/0412 32012KT 9999 FEW040"
    },
    {
      "icao": "ENVA",
      "alert": "OK",
      "vis_m": 9999,
      "fzfg": false,
      "metar_trigger": false,
      "taf_trigger": false,
      "metar": "METAR ENVA 031620Z 29013KT 9999 SCT028 BKN047 14/10 Q1014 NOSIG RMK WIND 670FT 30016KT",
      "taf": "TAF ENVA 031100Z 0312/0412 26020KT 9999 -RA SCT015 BKN018"
    },
    {
      "icao": "ENZV",
      "alert": "OK",
      "vis_m": 9999,
      "fzfg": false,
      "metar_trigger": false,
      "taf_trigger": false,
      "metar": "METAR ENZV 031620Z 31014KT 9999 FEW018 SCT040 15/10 Q1020 NOSIG",
      "taf": "TAF ENZV 031100Z 0312/0412 30020KT 9999 BKN030"
    },
    {
      "icao": "EPGD",
      "alert": "OK",
      "vis_m": 9999,
      "fzfg": false,
      "metar_trigger": false,
      "taf_trigger": false,
      "metar": "METAR EPGD 031630Z 26019G32KT 9999 -SHRA FEW005 BKN010 FEW013TCU 14/12 Q1014",
      "taf": "TAF EPGD 031130Z 0312/0412 25015KT 9999 SCT015"
    },
    {
      "icao": "EPKK",
      "alert": "OK",
      "vis_m": 9999,
      "fzfg": false,
      "metar_trigger": false,
      "taf_trigger": false,
      "metar": "METAR EPKK 031630Z 29015KT 9999 FEW068 22/05 Q1019",
      "taf": "TAF EPKK 031430Z 0315/0415 30014KT 9999 BKN045"
    },
    {
      "icao": "EPKT",
      "alert": "OK",
      "vis_m": 9999,
      "fzfg": false,
      "metar_trigger": false,
      "taf_trigger": false,
      "metar": "METAR EPKT 031630Z 28012KT CAVOK 19/07 Q1019",
      "taf": "TAF EPKT 031130Z 0312/0412 30015G25KT CAVOK"
    },
    {
      "icao": "EPLB",
      "alert": "OK",
      "vis_m": 9999,
      "fzfg": false,
      "metar_trigger": false,
      "taf_trigger": false,
      "metar": "METAR EPLB 031630Z 30013KT CAVOK 22/07 Q1015",
      "taf": "TAF EPLB 031130Z 0312/0412 29011KT 9999 FEW020 BKN040"
    },
    {
      "icao": "EPMO",
      "alert": "OK",
      "vis_m": 9999,
      "fzfg": false,
      "metar_trigger": false,
      "taf_trigger": false,
      "metar": "METAR EPMO 031630Z 28013KT 260V320 CAVOK 20/08 Q1016",
      "taf": "TAF EPMO 031130Z 0312/0412 28015KT 9999 SCT040"
    },
    {
      "icao": "EPPO",
      "alert": "OK",
      "vis_m": 9999,
      "fzfg": false,
      "metar_trigger": false,
      "taf_trigger": false,
      "metar": "METAR EPPO 031630Z 29019KT CAVOK 22/06 Q1018",
      "taf": "TAF EPPO 031130Z 0312/0412 28018KT CAVOK"
    },
    {
      "icao": "EPRA",
      "alert": "OK",
      "vis_m": 9999,
      "fzfg": false,
      "metar_trigger": false,
      "taf_trigger": false,
      "metar": "METAR EPRA 031630Z 32014KT 270V350 CAVOK 21/05 Q1017",
      "taf": "TAF EPRA 031430Z 0315/0324 29012KT CAVOK"
    },
    {
      "icao": "EPRZ",
      "alert": "OK",
      "vis_m": 9999,
      "fzfg": false,
      "metar_trigger": false,
      "taf_trigger": false,
      "metar": "METAR EPRZ 031630Z 29018KT CAVOK 23/06 Q1016",
      "taf": "TAF EPRZ 031130Z 0312/0412 28012KT 9999 BKN035"
    },
    {
      "icao": "EPSC",
      "alert": "OK",
      "vis_m": 9999,
      "fzfg": false,
      "metar_trigger": false,
      "taf_trigger": false,
      "metar": "METAR EPSC 031630Z 29014G26KT CAVOK 19/08 Q1018",
      "taf": "TAF EPSC 031130Z 0312/0412 27013KT CAVOK"
    },
    {
      "icao": "EPSY",
      "alert": "OK",
      "vis_m": 9999,
      "fzfg": false,
      "metar_trigger": false,
      "taf_trigger": false,
      "metar": "METAR EPSY 031630Z 28009KT 240V330 9999 SCT035 18/10 Q1015",
      "taf": ""
    },
    {
      "icao": "EPWA",
      "alert": "OK",
      "vis_m": 9999,
      "fzfg": false,
      "metar_trigger": false,
      "taf_trigger": false,
      "metar": "METAR EPWA 031630Z 30015KT CAVOK 21/06 Q1016 NOSIG",
      "taf": "TAF EPWA 031430Z 0315/0415 28015KT CAVOK"
    },
    {
      "icao": "EPWR",
      "alert": "OK",
      "vis_m": 9999,
      "fzfg": false,
      "metar_trigger": false,
      "taf_trigger": false,
      "metar": "METAR EPWR 031630Z 29020KT CAVOK 22/08 Q1020",
      "taf": "TAF EPWR 031430Z 0315/0415 29017KT CAVOK"
    },
    {
      "icao": "ESGG",
      "alert": "OK",
      "vis_m": 9999,
      "fzfg": false,
      "metar_trigger": false,
      "taf_trigger": false,
      "metar": "METAR ESGG 031620Z 28013KT 260V320 9999 FEW047 OVC084 19/13 Q1010",
      "taf": "TAF ESGG 031430Z 0315/0415 29012G22KT CAVOK"
    },
    {
      "icao": "ESKN",
      "alert": "OK",
      "vis_m": 9999,
      "fzfg": false,
      "metar_trigger": false,
      "taf_trigger": false,
      "metar": "METAR ESKN 031620Z 32014KT 290V350 9999 SCT015CB BKN022 16/15 Q1004",
      "taf": "TAF ESKN 031430Z 0315/0415 31010KT 9999 SCT015 BKN040"
    },
    {
      "icao": "ESMS",
      "alert": "OK",
      "vis_m": 9999,
      "fzfg": false,
      "metar_trigger": false,
      "taf_trigger": false,
      "metar": "METAR ESMS 031620Z 27021KT 9999 BKN027 16/11 Q1014",
      "taf": "TAF ESMS 031427Z 0315/0415 28020KT 9999 BKN025"
    },
    {
      "icao": "ESSA",
      "alert": "OK",
      "vis_m": 9999,
      "fzfg": false,
      "metar_trigger": false,
      "taf_trigger": false,
      "metar": "METAR ESSA 031620Z 35012KT 9999 SCT020TCU BKN042 15/12 Q1003 TEMPO SCT050CB",
      "taf": "TAF ESSA 031430Z 0315/0415 35012KT 9999 BKN020"
    },
    {
      "icao": "EYKA",
      "alert": "OK",
      "vis_m": 7000,
      "fzfg": false,
      "metar_trigger": false,
      "taf_trigger": false,
      "metar": "METAR EYKA 031650Z 28016G29KT 7000 -SHRA FEW036 SCT044CB 18/12 Q1011",
      "taf": "TAF EYKA 031100Z 0312/0412 27010KT 9000 SCT045"
    },
    {
      "icao": "EYPA",
      "alert": "OK",
      "vis_m": 5000,
      "fzfg": false,
      "metar_trigger": false,
      "taf_trigger": false,
      "metar": "METAR EYPA 031650Z 26011G21KT 190V310 5000 -SHRA BKN011CB OVC019 16/15 Q1006",
      "taf": "TAF EYPA 031100Z 0312/0412 27015G25KT 9000 BKN025"
    },
    {
      "icao": "EYVI",
      "alert": "OK",
      "vis_m": 9999,
      "fzfg": false,
      "metar_trigger": false,
      "taf_trigger": false,
      "metar": "METAR EYVI 031650Z 25011KT 9999 FEW041CB 19/10 Q1011 NOSIG",
      "taf": "TAF EYVI 031100Z 0312/0412 26012KT 9000 SCT040"
    },
    {
      "icao": "GCFV",
      "alert": "OK",
      "vis_m": 9999,
      "fzfg": false,
      "metar_trigger": false,
      "taf_trigger": false,
      "metar": "METAR GCFV 031630Z 14006KT 110V200 9999 FEW020 25/20 Q1014",
      "taf": "TAF GCFV 031400Z 0315/0415 12006KT 9999 FEW020 TX27/0414Z TN21/0406Z"
    },
    {
      "icao": "GCLP",
      "alert": "OK",
      "vis_m": 9999,
      "fzfg": false,
      "metar_trigger": false,
      "taf_trigger": false,
      "metar": "METAR GCLP 031630Z 06009KT 020V080 9999 FEW020 25/19 Q1015 NOSIG",
      "taf": "TAF GCLP 031400Z 0315/0415 07010KT 9999 FEW020 TX27/0414Z TN21/0406Z"
    },
    {
      "icao": "GCTS",
      "alert": "OK",
      "vis_m": 9999,
      "fzfg": false,
      "metar_trigger": false,
      "taf_trigger": false,
      "metar": "METAR GCTS 031630Z 15007KT 080V190 9999 FEW030 25/18 Q1015 NOSIG",
      "taf": "TAF GCTS 031400Z 0315/0415 18006KT 9999 SCT030 TX27/0414Z TN22/0406Z"
    },
    {
      "icao": "GMAD",
      "alert": "OK",
      "vis_m": 6000,
      "fzfg": false,
      "metar_trigger": false,
      "taf_trigger": false,
      "metar": "METAR GMAD 031630Z 27009KT 240V300 6000 SCT026TCU SCT200 29/20 Q1013 NOSIG",
      "taf": "TAF GMAD 031100Z 0312/0418 26014KT 8000 SCT016 BKN100"
    },
    {
      "icao": "GMMN",
      "alert": "OK",
      "vis_m": 9999,
      "fzfg": false,
      "metar_trigger": false,
      "taf_trigger": false,
      "metar": "METAR GMMN 031630Z 34008KT 310V020 CAVOK 41/14 Q1014 NOSIG",
      "taf": "TAF GMMN 031100Z 0312/0418 33005KT CAVOK"
    },
    {
      "icao": "GMMX",
      "alert": "OK",
      "vis_m": 5000,
      "fzfg": false,
      "metar_trigger": false,
      "taf_trigger": false,
      "metar": "METAR GMMX 031630Z 14013KT 100V160 5000 FEW006 BKN033 FEW040CB 39/13 Q1015 NOSIG",
      "taf": ""
    },
    {
      "icao": "HEGN",
      "alert": "OK",
      "vis_m": 9999,
      "fzfg": false,
      "metar_trigger": false,
      "taf_trigger": false,
      "metar": "METAR HEGN 031600Z 34014KT CAVOK 34/14 Q1005 NOSIG",
      "taf": ""
    },
    {
      "icao": "HEMA",
      "alert": "OK",
      "vis_m": 9999,
      "fzfg": false,
      "metar_trigger": false,
      "taf_trigger": false,
      "metar": "METAR HEMA 031600Z 34010KT CAVOK 33/10 Q1005 NOSIG",
      "taf": ""
    },
    {
      "icao": "HESH",
      "alert": "OK",
      "vis_m": 9999,
      "fzfg": false,
      "metar_trigger": false,
      "taf_trigger": false,
      "metar": "METAR HESH 031600Z 34012KT CAVOK 37/12 Q1005 NOSIG",
      "taf": ""
    },
    {
      "icao": "HESX",
      "alert": "OK",
      "vis_m": 9999,
      "fzfg": false,
      "metar_trigger": false,
      "taf_trigger": false,
      "metar": "METAR HESX 031600Z 36012KT CAVOK 33/16 Q1009 NOSIG",
      "taf": ""
    },
    {
      "icao": "LATI",
      "alert": "OK",
      "vis_m": 9999,
      "fzfg": false,
      "metar_trigger": false,
      "taf_trigger": false,
      "metar": "METAR LATI 031650Z 31012KT CAVOK 31/19 Q1010 NOSIG",
      "taf": "TAF LATI 031100Z 0312/0412 31012KT 9999 FEW040CB SCT080 TX35/0412Z TN20/0404Z"
    },
    {
      "icao": "LBPD",
      "alert": "OK",
      "vis_m": 9999,
      "fzfg": false,
      "metar_trigger": false,
      "taf_trigger": false,
      "metar": "METAR LBPD 031630Z AUTO 35004KT 9999 SCT120/// BKN140/// 30/18 Q1010 NOSIG",
      "taf": "TAF LBPD 031100Z 0312/0412 29014KT 9999 SCT050"
    },
    {
      "icao": "LBSF",
      "alert": "OK",
      "vis_m": 9999,
      "fzfg": false,
      "metar_trigger": false,
      "taf_trigger": false,
      "metar": "METAR LBSF 031630Z AUTO 31012KT 280V340 9999 SCT040/// 23/17 Q1015 NOSIG",
      "taf": "TAF LBSF 031100Z 0312/0412 30010KT 9999 SCT050"
    },
    {
      "icao": "LBWN",
      "alert": "OK",
      "vis_m": 9999,
      "fzfg": false,
      "metar_trigger": false,
      "taf_trigger": false,
      "metar": "METAR LBWN 031630Z AUTO 34005KT 9999 NCD 28/19 Q1009 NOSIG",
      "taf": "TAF LBWN 031100Z 0312/0412 28012KT 9999 SCT030 SCT045"
    },
    {
      "icao": "LCLK",
      "alert": "OK",
      "vis_m": 9999,
      "fzfg": false,
      "metar_trigger": false,
      "taf_trigger": false,
      "metar": "METAR LCLK 031630Z 22015KT CAVOK 28/24 Q1005 NOSIG",
      "taf": "TAF LCLK 031130Z 0312/0412 22018KT 9999 FEW025"
    },
    {
      "icao": "LCPH",
      "alert": "OK",
      "vis_m": 9999,
      "fzfg": false,
      "metar_trigger": false,
      "taf_trigger": false,
      "metar": "METAR LCPH 031630Z 31008KT 260V320 9999 SCT016 27/23 Q1006 NOSIG",
      "taf": "TAF LCPH 031130Z 0312/0412 28014KT 9999 SCT018"
    },
    {
      "icao": "LEAL",
      "alert": "OK",
      "vis_m": 9999,
      "fzfg": false,
      "metar_trigger": false,
      "taf_trigger": false,
      "metar": "METAR LEAL 031630Z 18009KT 130V240 CAVOK 32/13 Q1022 NOSIG",
      "taf": "TAF LEAL 031100Z 0312/0412 15009KT CAVOK TX33/0312Z TN21/0406Z"
    },
    {
      "icao": "LEBB",
      "alert": "OK",
      "vis_m": 9999,
      "fzfg": false,
      "metar_trigger": false,
      "taf_trigger": false,
      "metar": "METAR LEBB 031630Z 35008KT 9999 SCT021 BKN035 24/19 Q1028 NOSIG",
      "taf": "TAF LEBB 031100Z 0312/0412 35007KT 9999 BKN025 TX29/0412Z TN18/0401Z"
    },
    {
      "icao": "LEBL",
      "alert": "OK",
      "vis_m": 9999,
      "fzfg": false,
      "metar_trigger": false,
      "taf_trigger": false,
      "metar": "METAR LEBL 031630Z 20010KT CAVOK 28/20 Q1021 NOSIG",
      "taf": ""
    },
    {
      "icao": "LECH",
      "alert": "OK",
      "vis_m": 9999,
      "fzfg": false,
      "metar_trigger": false,
      "taf_trigger": false,
      "metar": "METAR LECH 031630Z AUTO 18009KT 150V210 CAVOK 29/13 Q1022",
      "taf": "TAF LECH 031100Z 0312/0412 18008KT CAVOK TX34/0312Z TN19/0406Z"
    },
    {
      "icao": "LEMD",
      "alert": "OK",
      "vis_m": 9999,
      "fzfg": false,
      "metar_trigger": false,
      "taf_trigger": false,
      "metar": "METAR LEMD 031630Z 19004KT CAVOK 36/04 Q1022 NOSIG",
      "taf": "TAF LEMD 031100Z 0312/0418 VRB04KT CAVOK TX37/0316Z TN20/0405Z"
    },
    {
      "icao": "LEMG",
      "alert": "OK",
      "vis_m": 9999,
      "fzfg": false,
      "metar_trigger": false,
      "taf_trigger": false,
      "metar": "METAR LEMG 031630Z 12008KT 070V170 CAVOK 28/16 Q1022 NOSIG",
      "taf": "TAF LEMG 031100Z 0312/0412 12011KT 9999 FEW035 TX28/0314Z TN21/0405Z"
    },
    {
      "icao": "LEVC",
      "alert": "OK",
      "vis_m": 9999,
      "fzfg": false,
      "metar_trigger": false,
      "taf_trigger": false,
      "metar": "METAR LEVC 031630Z 12010KT 090V150 CAVOK 31/15 Q1020 NOSIG",
      "taf": "TAF LEVC 031100Z 0312/0412 13009KT CAVOK TX35/0312Z TN22/0406Z"
    },
    {
      "icao": "LEXJ",
      "alert": "OK",
      "vis_m": 9999,
      "fzfg": false,
      "metar_trigger": false,
      "taf_trigger": false,
      "metar": "METAR LEXJ 031630Z 04005KT 9999 FEW021 SCT034 23/19 Q1028",
      "taf": "TAF LEXJ 031400Z 0315/0415 05009KT 9999 FEW020 BKN030 TX28/0412Z TN18/0405Z"
    },
    {
      "icao": "LEZG",
      "alert": "OK",
      "vis_m": 9999,
      "fzfg": false,
      "metar_trigger": false,
      "taf_trigger": false,
      "metar": "METAR LEZG 031630Z 30023KT CAVOK 32/14 Q1021 NOSIG",
      "taf": "TAF LEZG 031100Z 0312/0412 30015KT CAVOK TX35/0314Z TN19/0406Z"
    },
    {
      "icao": "LEZL",
      "alert": "OK",
      "vis_m": 9999,
      "fzfg": false,
      "metar_trigger": false,
      "taf_trigger": false,
      "metar": "METAR LEZL 031630Z 14005KT 070V210 CAVOK 40/17 Q1016 WS R27 NOSIG",
      "taf": "TAF LEZL 031400Z 0315/0415 10009KT CAVOK TX41/0315Z TN25/0405Z"
    },
    {
      "icao": "LFBD",
      "alert": "OK",
      "vis_m": 9999,
      "fzfg": false,
      "metar_trigger": false,
      "taf_trigger": false,
      "metar": "METAR LFBD 031630Z AUTO 32012KT 9999 FEW041 BKN047 BKN058 28/18 Q1026 NOSIG",
      "taf": "TAF LFBD 031100Z 0312/0418 33005KT 9999 BKN020 TX35/0415Z TN17/0405Z"
    },
    {
      "icao": "LFLL",
      "alert": "OK",
      "vis_m": 9999,
      "fzfg": false,
      "metar_trigger": false,
      "taf_trigger": false,
      "metar": "METAR LFLL 031630Z 36017KT CAVOK 29/10 Q1023 NOSIG",
      "taf": "TAF LFLL 031100Z 0312/0418 35012KT CAVOK"
    },
    {
      "icao": "LFLS",
      "alert": "OK",
      "vis_m": 9999,
      "fzfg": false,
      "metar_trigger": false,
      "taf_trigger": false,
      "metar": "METAR LFLS 031630Z AUTO 33018KT CAVOK 29/10 Q1023 TEMPO 35018G28KT",
      "taf": "TAF LFLS 031400Z 0315/0415 35015KT CAVOK"
    },
    {
      "icao": "LFMN",
      "alert": "OK",
      "vis_m": 9999,
      "fzfg": false,
      "metar_trigger": false,
      "taf_trigger": false,
      "metar": "METAR LFMN 031630Z 19006KT CAVOK 29/21 Q1017 NOSIG",
      "taf": "TAF LFMN 031400Z 0315/0421 19006KT CAVOK"
    },
    {
      "icao": "LFOB",
      "alert": "OK",
      "vis_m": 9999,
      "fzfg": false,
      "metar_trigger": false,
      "taf_trigger": false,
      "metar": "METAR LFOB 031630Z AUTO 30009KT 280V340 CAVOK 26/10 Q1027 NOSIG",
      "taf": "TAF LFOB 031100Z 0312/0412 33008KT CAVOK"
    },
    {
      "icao": "LFPO",
      "alert": "OK",
      "vis_m": 9999,
      "fzfg": false,
      "metar_trigger": false,
      "taf_trigger": false,
      "metar": "METAR LFPO 031630Z 32008KT 280V350 CAVOK 29/07 Q1026 NOSIG",
      "taf": "TAF LFPO 031100Z 0312/0418 34005KT CAVOK"
    },
    {
      "icao": "LFSB",
      "alert": "OK",
      "vis_m": 9999,
      "fzfg": false,
      "metar_trigger": false,
      "taf_trigger": false,
      "metar": "METAR LFSB 031630Z AUTO 01009KT 340V040 CAVOK 28/09 Q1024 NOSIG",
      "taf": "TAF LFSB 031100Z 0312/0412 36008KT CAVOK"
    },
    {
      "icao": "LGAV",
      "alert": "OK",
      "vis_m": 9999,
      "fzfg": false,
      "metar_trigger": false,
      "taf_trigger": false,
      "metar": "METAR LGAV 031620Z VRB03KT 9999 FEW025 31/15 Q1010 NOSIG",
      "taf": "TAF LGAV 031100Z 0312/0412 02010KT 9999 FEW025"
    },
    {
      "icao": "LGTS",
      "alert": "OK",
      "vis_m": 9999,
      "fzfg": false,
      "metar_trigger": false,
      "taf_trigger": false,
      "metar": "METAR LGTS 031620Z 35009KT 9999 FEW025 33/17 Q1009 NOSIG",
      "taf": "TAF LGTS 031100Z 0312/0412 33013KT 9999 FEW030"
    },
    {
      "icao": "LHBP",
      "alert": "OK",
      "vis_m": 9999,
      "fzfg": false,
      "metar_trigger": false,
      "taf_trigger": false,
      "metar": "METAR LHBP 031630Z 31019KT CAVOK 28/05 Q1017 NOSIG",
      "taf": "TAF LHBP 031115Z 0312/0412 31016G28KT CAVOK"
    },
    {
      "icao": "LHDC",
      "alert": "OK",
      "vis_m": 9999,
      "fzfg": false,
      "metar_trigger": false,
      "taf_trigger": false,
      "metar": "METAR LHDC 031615Z AUTO 03015KT 360V060 CAVOK 26/14 Q1014 NOSIG",
      "taf": "TAF LHDC 031415Z 0315/0324 35012G22KT CAVOK"
    },
    {
      "icao": "LIBD",
      "alert": "OK",
      "vis_m": 9999,
      "fzfg": false,
      "metar_trigger": false,
      "taf_trigger": false,
      "metar": "METAR LIBD 031620Z 34010KT 310V030 CAVOK 28/20 Q1014",
      "taf": "TAF LIBD 031100Z 0312/0412 34012KT 9999 FEW040"
    },
    {
      "icao": "LIBG",
      "alert": "OK",
      "vis_m": 9999,
      "fzfg": false,
      "metar_trigger": false,
      "taf_trigger": false,
      "metar": "METAR LIBG 031620Z AUTO 01014KT 9999 NCD 31/16 Q1012",
      "taf": "TAF LIBG 031100Z 0312/0412 36013KT 9999 SCT050"
    },
    {
      "icao": "LIBP",
      "alert": "OK",
      "vis_m": 9999,
      "fzfg": false,
      "metar_trigger": false,
      "taf_trigger": false,
      "metar": "METAR LIBP 031620Z AUTO 36008KT 330V030 9999 NCD 29/17 Q1016",
      "taf": "TAF LIBP 031100Z 0312/0412 03010KT 9999 FEW080"
    },
    {
      "icao": "LIBR",
      "alert": "OK",
      "vis_m": 9999,
      "fzfg": false,
      "metar_trigger": false,
      "taf_trigger": false,
      "metar": "METAR LIBR 031620Z 34012KT CAVOK 29/20 Q1012",
      "taf": "TAF LIBR 031100Z 0312/0412 35015KT CAVOK"
    },
    {
      "icao": "LICA",
      "alert": "OK",
      "vis_m": 9999,
      "fzfg": false,
      "metar_trigger": false,
      "taf_trigger": false,
      "metar": "METAR LICA 031620Z AUTO 24010KT 9999 NCD 27/22 Q1013",
      "taf": "TAF LICA 031100Z 0312/0412 26010KT 9999 FEW030"
    },
    {
      "icao": "LICC",
      "alert": "OK",
      "vis_m": 8000,
      "fzfg": false,
      "metar_trigger": false,
      "taf_trigger": false,
      "metar": "METAR LICC 031620Z 08009KT 8000 SCT030 SCT060 25/18 Q1013",
      "taf": "TAF LICC 031100Z 0312/0412 07012KT 9999 FEW040"
    },
    {
      "icao": "LICJ",
      "alert": "OK",
      "vis_m": 9999,
      "fzfg": false,
      "metar_trigger": false,
      "taf_trigger": false,
      "metar": "METAR LICJ 031620Z 35007KT 9999 SCT030 28/22 Q1014",
      "taf": ""
    },
    {
      "icao": "LIMC",
      "alert": "OK",
      "vis_m": 9999,
      "fzfg": false,
      "metar_trigger": false,
      "taf_trigger": false,
      "metar": "METAR LIMC 031620Z 26006KT 150V290 CAVOK 32/10 Q1018 NOSIG",
      "taf": "TAF LIMC 031100Z 0312/0418 VRB05KT CAVOK"
    },
    {
      "icao": "LIME",
      "alert": "OK",
      "vis_m": 9999,
      "fzfg": false,
      "metar_trigger": false,
      "taf_trigger": false,
      "metar": "METAR LIME 031620Z 18006KT 150V220 CAVOK 31/14 Q1018 NOSIG",
      "taf": "TAF LIME 031100Z 0312/0412 VRB05KT CAVOK"
    },
    {
      "icao": "LIMF",
      "alert": "OK",
      "vis_m": 9999,
      "fzfg": false,
      "metar_trigger": false,
      "taf_trigger": false,
      "metar": "METAR LIMF 031620Z VRB02KT CAVOK 33/09 Q1018",
      "taf": "TAF LIMF 031100Z 0312/0412 VRB05KT CAVOK"
    },
    {
      "icao": "LIMJ",
      "alert": "OK",
      "vis_m": 9999,
      "fzfg": false,
      "metar_trigger": false,
      "taf_trigger": false,
      "metar": "METAR LIMJ 031620Z 27003KT 230V290 9999 SCT060 29/21 Q1016",
      "taf": "TAF LIMJ 031100Z 0312/0412 19010KT 9999 FEW050"
    },
    {
      "icao": "LIPE",
      "alert": "OK",
      "vis_m": 9999,
      "fzfg": false,
      "metar_trigger": false,
      "taf_trigger": false,
      "metar": "METAR LIPE 031620Z 09006KT 030V120 CAVOK 32/13 Q1017",
      "taf": "TAF LIPE 031100Z 0312/0412 VRB06KT CAVOK"
    },
    {
      "icao": "LIPH",
      "alert": "OK",
      "vis_m": 9999,
      "fzfg": false,
      "metar_trigger": false,
      "taf_trigger": false,
      "metar": "METAR LIPH 031620Z 23005KT 200V260 CAVOK 32/14 Q1017",
      "taf": "TAF LIPH 031100Z 0312/0412 VRB06KT CAVOK"
    },
    {
      "icao": "LIPQ",
      "alert": "OK",
      "vis_m": 9999,
      "fzfg": false,
      "metar_trigger": false,
      "taf_trigger": false,
      "metar": "METAR LIPQ 031620Z AUTO VRB04KT 9999 NCD 32/14 Q1016",
      "taf": "TAF LIPQ 031100Z 0312/0412 VRB06KT CAVOK"
    },
    {
      "icao": "LIPR",
      "alert": "OK",
      "vis_m": 9999,
      "fzfg": false,
      "metar_trigger": false,
      "taf_trigger": false,
      "metar": "METAR LIPR 031620Z 01005KT CAVOK 30/16 Q1017",
      "taf": "TAF LIPR 031100Z 0312/0412 02010KT CAVOK"
    },
    {
      "icao": "LIPX",
      "alert": "OK",
      "vis_m": 9999,
      "fzfg": false,
      "metar_trigger": false,
      "taf_trigger": false,
      "metar": "METAR LIPX 031620Z 18005KT 120V220 CAVOK 32/16 Q1017",
      "taf": "TAF LIPX 031100Z 0312/0412 VRB05KT 9999 SCT050"
    },
    {
      "icao": "LIPY",
      "alert": "OK",
      "vis_m": 9999,
      "fzfg": false,
      "metar_trigger": false,
      "taf_trigger": false,
      "metar": "METAR LIPY 031620Z AUTO 36009KT 9999 NCD 29/17 Q1017",
      "taf": "TAF LIPY 031100Z 0312/0412 02010KT CAVOK"
    },
    {
      "icao": "LIPZ",
      "alert": "OK",
      "vis_m": 9999,
      "fzfg": false,
      "metar_trigger": false,
      "taf_trigger": false,
      "metar": "METAR LIPZ 031620Z 19004KT 150V210 CAVOK 31/15 Q1017 NOSIG",
      "taf": "TAF LIPZ 031100Z 0312/0418 05010KT CAVOK"
    },
    {
      "icao": "LIRF",
      "alert": "OK",
      "vis_m": 9999,
      "fzfg": false,
      "metar_trigger": false,
      "taf_trigger": false,
      "metar": "METAR LIRF 031620Z 29016KT CAVOK 29/20 Q1014 NOSIG",
      "taf": "TAF LIRF 031100Z 0312/0418 26014KT 9999 FEW030"
    },
    {
      "icao": "LIRN",
      "alert": "OK",
      "vis_m": 9999,
      "fzfg": false,
      "metar_trigger": false,
      "taf_trigger": false,
      "metar": "METAR LIRN 031620Z 06010KT 9999 SCT050 31/15 Q1014 NOSIG",
      "taf": "TAF LIRN 031100Z 0312/0412 28010KT 9999 FEW030"
    },
    {
      "icao": "LIRP",
      "alert": "OK",
      "vis_m": 9999,
      "fzfg": false,
      "metar_trigger": false,
      "taf_trigger": false,
      "metar": "METAR LIRP 031615Z 32012G22KT 9999 FEW035 31/15 Q1016 NOSIG",
      "taf": "TAF LIRP 031100Z 0312/0412 07008KT CAVOK"
    },
    {
      "icao": "LIRZ",
      "alert": "OK",
      "vis_m": 9999,
      "fzfg": false,
      "metar_trigger": false,
      "taf_trigger": false,
      "metar": "METAR LIRZ 031620Z AUTO 03016KT 9999 NCD 30/09 Q1017",
      "taf": "TAF LIRZ 031100Z 0312/0412 02013KT CAVOK"
    },
    {
      "icao": "LJLJ",
      "alert": "OK",
      "vis_m": 9999,
      "fzfg": false,
      "metar_trigger": false,
      "taf_trigger": false,
      "metar": "METAR LJLJ 031630Z 07007KT 050V130 9999 FEW068 SCT250 27/11 Q1019 NOSIG",
      "taf": "TAF LJLJ 031100Z 0312/0412 09006KT 9999 FEW070 BKN085"
    },
    {
      "icao": "LKMT",
      "alert": "OK",
      "vis_m": 9999,
      "fzfg": false,
      "metar_trigger": false,
      "taf_trigger": false,
      "metar": "METAR LKMT 031630Z 35008KT 310V020 CAVOK 21/08 Q1020 NOSIG",
      "taf": "TAF LKMT 031100Z 0312/0412 35008KT CAVOK"
    },
    {
      "icao": "LKPR",
      "alert": "OK",
      "vis_m": 9999,
      "fzfg": false,
      "metar_trigger": false,
      "taf_trigger": false,
      "metar": "METAR LKPR 031630Z 32017KT 290V360 CAVOK 21/06 Q1023 NOSIG",
      "taf": "TAF LKPR 031400Z 0315/0421 32015KT CAVOK"
    },
    {
      "icao": "LLBG",
      "alert": "OK",
      "vis_m": 9999,
      "fzfg": false,
      "metar_trigger": false,
      "taf_trigger": false,
      "metar": "METAR LLBG 031650Z 28007KT 9999 SCT023 27/22 Q1009 NOSIG",
      "taf": "TAF LLBG 031103Z 0312/0412 28012KT 9999 FEW035 TX31/0312Z TN24/0403Z"
    },
    {
      "icao": "LMML",
      "alert": "OK",
      "vis_m": 9999,
      "fzfg": false,
      "metar_trigger": false,
      "taf_trigger": false,
      "metar": "METAR LMML 031645Z 29015KT 9999 FEW025 27/19 Q1014 NOSIG",
      "taf": "TAF LMML 031100Z 0312/0412 30013KT 9999 FEW020"
    },
    {
      "icao": "LOWW",
      "alert": "OK",
      "vis_m": 9999,
      "fzfg": false,
      "metar_trigger": false,
      "taf_trigger": false,
      "metar": "METAR LOWW 031620Z 34016KT CAVOK 27/06 Q1020 NOSIG",
      "taf": "TAF LOWW 031415Z 0315/0421 33015KT CAVOK TX27/0315Z TN15/0403Z"
    },
    {
      "icao": "LPFR",
      "alert": "OK",
      "vis_m": 9999,
      "fzfg": false,
      "metar_trigger": false,
      "taf_trigger": false,
      "metar": "METAR LPFR 031630Z 11009KT CAVOK 30/19 Q1017",
      "taf": "TAF LPFR 031100Z 0312/0412 09015KT CAVOK"
    },
    {
      "icao": "LPMA",
      "alert": "OK",
      "vis_m": 9999,
      "fzfg": false,
      "metar_trigger": false,
      "taf_trigger": false,
      "metar": "METAR LPMA 031630Z 15005KT 090V190 9999 FEW010 24/20 Q1016",
      "taf": "TAF LPMA 031100Z 0312/0412 19008KT 9999 FEW015"
    },
    {
      "icao": "LPPR",
      "alert": "OK",
      "vis_m": 9999,
      "fzfg": false,
      "metar_trigger": false,
      "taf_trigger": false,
      "metar": "METAR LPPR 031630Z 32009KT CAVOK 35/14 Q1018",
      "taf": "TAF LPPR 031100Z 0312/0412 08010KT CAVOK"
    },
    {
      "icao": "LPPS",
      "alert": "OK",
      "vis_m": 9999,
      "fzfg": false,
      "metar_trigger": false,
      "taf_trigger": false,
      "metar": "METAR LPPS 031630Z 34013KT 9999 FEW008 25/20 Q1016",
      "taf": "TAF LPPS 031100Z 0312/0418 01017KT 9999 SCT008 SCT015"
    },
    {
      "icao": "LPPT",
      "alert": "OK",
      "vis_m": 9999,
      "fzfg": false,
      "metar_trigger": false,
      "taf_trigger": false,
      "metar": "METAR LPPT 031630Z 28009KT 240V320 CAVOK 36/14 Q1018 BECMG 32010KT",
      "taf": "TAF LPPT 031100Z 0312/0418 08005KT CAVOK"
    },
    {
      "icao": "LQBK",
      "alert": "OK",
      "vis_m": 9999,
      "fzfg": false,
      "metar_trigger": false,
      "taf_trigger": false,
      "metar": "METAR LQBK 031630Z 34012KT CAVOK 28/11 Q1018 NOSIG",
      "taf": "TAF LQBK 031100Z 0312/0412 22005KT CAVOK TX29/0313Z TN14/0403Z"
    },
    {
      "icao": "LQSA",
      "alert": "OK",
      "vis_m": 9999,
      "fzfg": false,
      "metar_trigger": false,
      "taf_trigger": false,
      "metar": "METAR LQSA 031630Z 33006KT 300V040 CAVOK 26/13 Q1018 NOSIG",
      "taf": "TAF LQSA 031100Z 0312/0412 33005KT 9999 SCT055 TX26/0313Z TN03/0403Z"
    },
    {
      "icao": "LQTZ",
      "alert": "OK",
      "vis_m": 9999,
      "fzfg": false,
      "metar_trigger": false,
      "taf_trigger": false,
      "metar": "METAR LQTZ 031630Z 34008KT 9999 FEW065 28/13 Q1017",
      "taf": "TAF LQTZ 031100Z 0312/0412 27005KT 9999 SCT040 TX27/0314Z TN13/0403Z"
    },
    {
      "icao": "LRBC",
      "alert": "OK",
      "vis_m": 9999,
      "fzfg": false,
      "metar_trigger": false,
      "taf_trigger": false,
      "metar": "METAR LRBC 031630Z 33019KT 9999 BKN032 23/15 Q1013",
      "taf": "TAF LRBC 031400Z 0315/0324 34014KT 9999 SCT040"
    },
    {
      "icao": "LRBS",
      "alert": "OK",
      "vis_m": 9999,
      "fzfg": false,
      "metar_trigger": false,
      "taf_trigger": false,
      "metar": "METAR LRBS 031630Z 07008KT 9999 FEW050CB 24/17 Q1010 NOSIG",
      "taf": "TAF LRBS 031100Z 0312/0412 28008KT 9999 BKN045"
    },
    {
      "icao": "LRBV",
      "alert": "OK",
      "vis_m": 9999,
      "fzfg": false,
      "metar_trigger": false,
      "taf_trigger": false,
      "metar": "METAR LRBV 031630Z 29006KT 9999 -SHRA FEW028 FEW040CB BKN070 20/18 Q1015",
      "taf": "TAF LRBV 031400Z 0315/0324 30009KT 9999 SCT045"
    },
    {
      "icao": "LRCL",
      "alert": "OK",
      "vis_m": 9999,
      "fzfg": false,
      "metar_trigger": false,
      "taf_trigger": false,
      "metar": "METAR LRCL 031630Z 32008KT 290V360 9999 FEW066 27/12 Q1014",
      "taf": "TAF LRCL 031400Z 0315/0324 31011KT 9999 SCT045"
    },
    {
      "icao": "LRCV",
      "alert": "OK",
      "vis_m": 9999,
      "fzfg": false,
      "metar_trigger": false,
      "taf_trigger": false,
      "metar": "METAR LRCV 031630Z 25005KT 9999 VCSH SCT035 SCT045CB 24/20 Q1012",
      "taf": "TAF LRCV 031400Z 0315/0324 26009KT 9999 SCT045CB"
    },
    {
      "icao": "LRIA",
      "alert": "OK",
      "vis_m": 9999,
      "fzfg": false,
      "metar_trigger": false,
      "taf_trigger": false,
      "metar": "METAR LRIA 031630Z 31017KT CAVOK 24/14 Q1012",
      "taf": "TAF LRIA 031400Z 0315/0324 31015KT 9999 SCT035"
    },
    {
      "icao": "LROP",
      "alert": "OK",
      "vis_m": 9999,
      "fzfg": false,
      "metar_trigger": false,
      "taf_trigger": false,
      "metar": "METAR LROP 031630Z COR 11008KT 080V140 9999 SCT050CB 24/17 Q1010 NOSIG",
      "taf": "TAF LROP 031100Z 0312/0412 28008KT 9999 SCT045"
    },
    {
      "icao": "LRSB",
      "alert": "OK",
      "vis_m": 9999,
      "fzfg": false,
      "metar_trigger": false,
      "taf_trigger": false,
      "metar": "METAR LRSB 031630Z 26006KT 9999 -SHRA FEW016 SCT035CB BKN050 18/17 Q1016",
      "taf": "TAF LRSB 031100Z 0312/0412 32008KT 9999 FEW040CB"
    },
    {
      "icao": "LRSM",
      "alert": "OK",
      "vis_m": 9999,
      "fzfg": false,
      "metar_trigger": false,
      "taf_trigger": false,
      "metar": "METAR LRSM 031630Z AUTO 35012KT 9999 FEW100/// BKN120/// 26/14 Q1014",
      "taf": "TAF LRSM 031400Z 0315/0324 34015KT CAVOK"
    },
    {
      "icao": "LRSV",
      "alert": "OK",
      "vis_m": 9999,
      "fzfg": false,
      "metar_trigger": false,
      "taf_trigger": false,
      "metar": "METAR LRSV 031630Z 28008KT 9999 -SHRA BKN050CB 17/15 Q1015",
      "taf": ""
    },
    {
      "icao": "LRTM",
      "alert": "OK",
      "vis_m": 9999,
      "fzfg": false,
      "metar_trigger": false,
      "taf_trigger": false,
      "metar": "METAR LRTM 031630Z 10005KT 9999 SCT040 FEW049CB 22/19 Q1014",
      "taf": "TAF LRTM 031400Z 0315/0324 31008KT 9999 SCT040CB"
    },
    {
      "icao": "LRTR",
      "alert": "OK",
      "vis_m": 9999,
      "fzfg": false,
      "metar_trigger": false,
      "taf_trigger": false,
      "metar": "METAR LRTR 031630Z 01011KT CAVOK 29/10 Q1014",
      "taf": "TAF LRTR 031100Z 0312/0412 33012KT CAVOK"
    },
    {
      "icao": "LTAC",
      "alert": "OK",
      "vis_m": 9999,
      "fzfg": false,
      "metar_trigger": false,
      "taf_trigger": false,
      "metar": "METAR LTAC 031620Z 04012KT 9999 FEW040 SCT100 28/11 Q1010 NOSIG",
      "taf": "TAF LTAC 031040Z 0312/0412 32012KT 9999 SCT040"
    },
    {
      "icao": "LTFM",
      "alert": "OK",
      "vis_m": 9999,
      "fzfg": false,
      "metar_trigger": false,
      "taf_trigger": false,
      "metar": "METAR LTFM 031620Z 01007KT 320V040 CAVOK 28/17 Q1009 NOSIG",
      "taf": "TAF LTFM 031040Z 0312/0418 02012KT 9999 FEW033"
    },
    {
      "icao": "LUKK",
      "alert": "OK",
      "vis_m": 9999,
      "fzfg": false,
      "metar_trigger": false,
      "taf_trigger": false,
      "metar": "METAR LUKK 031630Z 34012KT 310V010 9999 SCT034CB 27/19 Q1009 TEMPO 34020G30KT SCT035CB",
      "taf": "TAF LUKK 031101Z 0312/0412 33012KT 9999 SCT030"
    },
    {
      "icao": "LWOH",
      "alert": "OK",
      "vis_m": 9999,
      "fzfg": false,
      "metar_trigger": false,
      "taf_trigger": false,
      "metar": "METAR LWOH 031650Z 33006KT 300V360 9999 FEW035 SCT090 24/17 Q1016",
      "taf": "TAF LWOH 031440Z 0315/0415 34008KT 9999 SCT040"
    },
    {
      "icao": "LWSK",
      "alert": "OK",
      "vis_m": 9999,
      "fzfg": false,
      "metar_trigger": false,
      "taf_trigger": false,
      "metar": "METAR LWSK 031650Z 35013KT 9999 SCT060 26/16 Q1015 NOSIG",
      "taf": "TAF LWSK 031440Z 0315/0415 33015KT 9999 SCT050"
    },
    {
      "icao": "LYBE",
      "alert": "OK",
      "vis_m": 9999,
      "fzfg": false,
      "metar_trigger": false,
      "taf_trigger": false,
      "metar": "METAR LYBE 031630Z 33008KT CAVOK 29/11 Q1015 NOSIG",
      "taf": "TAF LYBE 031100Z 0312/0412 31012KT CAVOK TX28/0314Z TN16/0403Z"
    },
    {
      "icao": "LYNI",
      "alert": "OK",
      "vis_m": 9999,
      "fzfg": false,
      "metar_trigger": false,
      "taf_trigger": false,
      "metar": "METAR LYNI 031630Z 30005KT 230V340 9999 FEW033 BKN090 25/18 Q1015 NOSIG",
      "taf": "TAF LYNI 031100Z 0312/0412 30008KT 9999 SCT030 BKN050 TX26/0314Z TN18/0403Z"
    },
    {
      "icao": "LYPG",
      "alert": "OK",
      "vis_m": 9999,
      "fzfg": false,
      "metar_trigger": false,
      "taf_trigger": false,
      "metar": "METAR LYPG 031630Z 01016G26KT 9999 FEW040 31/14 Q1012 NOSIG",
      "taf": "TAF LYPG 031100Z 0312/0412 36015KT 9999 FEW060 TX34/0313Z TN21/0403Z"
    },
    {
      "icao": "LZIB",
      "alert": "OK",
      "vis_m": 9999,
      "fzfg": false,
      "metar_trigger": false,
      "taf_trigger": false,
      "metar": "METAR LZIB 031630Z 34017KT 310V010 CAVOK 26/07 Q1019 NOSIG",
      "taf": "TAF LZIB 031115Z 0312/0412 32015KT CAVOK"
    },
    {
      "icao": "LZKZ",
      "alert": "OK",
      "vis_m": 9999,
      "fzfg": false,
      "metar_trigger": false,
      "taf_trigger": false,
      "metar": "METAR LZKZ 031630Z 01019KT CAVOK 25/08 Q1016 NOSIG",
      "taf": "TAF LZKZ 031115Z 0312/0412 02014KT CAVOK"
    },
    {
      "icao": "LZTT",
      "alert": "OK",
      "vis_m": 9999,
      "fzfg": false,
      "metar_trigger": false,
      "taf_trigger": false,
      "metar": "METAR LZTT 031630Z 26015KT 9999 FEW063 20/02 Q1018 NOSIG",
      "taf": "TAF LZTT 031115Z 0312/0412 28007KT 9999 FEW035 SCT060"
    },
    {
      "icao": "OEJN",
      "alert": "OK",
      "vis_m": 9999,
      "fzfg": false,
      "metar_trigger": false,
      "taf_trigger": false,
      "metar": "METAR OEJN 031600Z 34013KT CAVOK 36/18 Q1003 NOSIG",
      "taf": "TAF OEJN 031100Z 0312/0418 32012KT CAVOK"
    },
    {
      "icao": "OEMA",
      "alert": "OK",
      "vis_m": 9999,
      "fzfg": false,
      "metar_trigger": false,
      "taf_trigger": false,
      "metar": "METAR OEMA 031600Z 29010KT CAVOK 44/M05 Q1007 NOSIG",
      "taf": "TAF OEMA 031100Z 0312/0418 31010KT CAVOK"
    },
    {
      "icao": "OJAI",
      "alert": "OK",
      "vis_m": 4000,
      "fzfg": false,
      "metar_trigger": false,
      "taf_trigger": false,
      "metar": "METAR OJAI 031600Z 30014KT 4000 DU NSC 28/14 Q1012 NOSIG",
      "taf": "TAF OJAI 031047Z 0312/0418 30018KT 4000 BLDU NSC"
    },
    {
      "icao": "OMAA",
      "alert": "OK",
      "vis_m": 8000,
      "fzfg": false,
      "metar_trigger": false,
      "taf_trigger": false,
      "metar": "METAR OMAA 031630Z 33002KT 8000 NSC 34/28 Q0999 NOSIG",
      "taf": "TAF OMAA 031100Z 0312/0418 32013KT 8000 NSC"
    },
    {
      "icao": "OMDB",
      "alert": "OK",
      "vis_m": 9999,
      "fzfg": false,
      "metar_trigger": false,
      "taf_trigger": false,
      "metar": "METAR OMDB 031630Z 32010KT CAVOK 36/27 Q0998 NOSIG",
      "taf": ""
    },
    {
      "icao": "UAAA",
      "alert": "OK",
      "vis_m": 3400,
      "fzfg": false,
      "metar_trigger": false,
      "taf_trigger": false,
      "metar": "SPECI UAAA 031648Z VRB01MPS 3400 BR FEW100 BKN200 15/15 Q1012 NOSIG",
      "taf": "TAF UAAA 031102Z 0312/0412 21002G07MPS 6000 BKN040CB OVC100 TX18/0410Z TN12/0401Z"
    },
    {
      "icao": "UBBB",
      "alert": "OK",
      "vis_m": 9999,
      "fzfg": false,
      "metar_trigger": false,
      "taf_trigger": false,
      "metar": "METAR UBBB 031630Z 17010KT CAVOK 25/20 Q1007 NOSIG",
      "taf": "TAF UBBB 031056Z 0312/0412 16012KT CAVOK TX30/0312Z TN22/0401Z"
    },
    {
      "icao": "UDSG",
      "alert": "OK",
      "vis_m": 2800,
      "fzfg": false,
      "metar_trigger": false,
      "taf_trigger": false,
      "metar": "METAR UDSG 031630Z 31030G44KT 2800 -TSRA BR SQ BKN023CB OVC033 13/13 Q1016 NOSIG",
      "taf": "TAF UDSG 031100Z 0312/0412 05006KT 9999 SCT050"
    },
    {
      "icao": "UDYZ",
      "alert": "OK",
      "vis_m": 9999,
      "fzfg": false,
      "metar_trigger": false,
      "taf_trigger": false,
      "metar": "METAR UDYZ 031630Z 03018KT 9999 SCT043CB 29/14 Q1005 NOSIG",
      "taf": "TAF UDYZ 031100Z 0312/0412 21006KT 9999 FEW040"
    },
    {
      "icao": "UGKO",
      "alert": "OK",
      "vis_m": 9999,
      "fzfg": false,
      "metar_trigger": false,
      "taf_trigger": false,
      "metar": "METAR UGKO 031630Z 28007KT 9999 SCT032 BKN049 26/20 Q1007 NOSIG",
      "taf": "TAF UGKO 031100Z 0312/0412 26007KT 9999 SCT030 BKN050 TX28/0312Z TN20/0402Z"
    }
  ]
}