{
  "ts_utc": "2026-03-10T19:48:25Z",
  "threshold_m": 150,
  "source": "stations_override.txt (ICAO list) + aviationweather.gov (METAR/TAF raw)",
  "station_count": 159,
  "stations": [
    {
      "icao": "BIKF",
      "alert": "OK",
      "vis_m": 9999,
      "fzfg": false,
      "metar_trigger": false,
      "taf_trigger": false,
      "metar": "METAR BIKF 101930Z 22011KT 9999 VCSH FEW016TCU SCT032 02/M00 Q0972",
      "taf": "TAF BIKF 101659Z 1018/1118 22014KT 9999 -SHRA SCT015 BKN025 TX03/1018Z TNM01/1107Z"
    },
    {
      "icao": "BKPR",
      "alert": "OK",
      "vis_m": 9999,
      "fzfg": false,
      "metar_trigger": false,
      "taf_trigger": false,
      "metar": "METAR BKPR 101930Z VRB01KT CAVOK 07/M02 Q1025 NOSIG",
      "taf": "TAF BKPR 101730Z 1018/1118 VRB05KT CAVOK"
    },
    {
      "icao": "EBCI",
      "alert": "OK",
      "vis_m": 9999,
      "fzfg": false,
      "metar_trigger": false,
      "taf_trigger": false,
      "metar": "METAR EBCI 101920Z 18007KT CAVOK 10/07 Q1016 NOSIG",
      "taf": "TAF EBCI 101720Z 1018/1124 21006KT 9999 SCT018 BKN025"
    },
    {
      "icao": "EDDB",
      "alert": "OK",
      "vis_m": 9999,
      "fzfg": false,
      "metar_trigger": false,
      "taf_trigger": false,
      "metar": "METAR EDDB 101920Z AUTO 18004KT CAVOK 09/04 Q1016 NOSIG",
      "taf": "TAF EDDB 101700Z 1018/1118 19004KT CAVOK"
    },
    {
      "icao": "EDDH",
      "alert": "OK",
      "vis_m": 9999,
      "fzfg": false,
      "metar_trigger": false,
      "taf_trigger": false,
      "metar": "METAR EDDH 101920Z AUTO 12006KT 080V150 CAVOK 12/08 Q1014 NOSIG",
      "taf": "TAF EDDH 101700Z 1018/1124 22006KT 9999 SCT040"
    },
    {
      "icao": "EDDK",
      "alert": "OK",
      "vis_m": 9999,
      "fzfg": false,
      "metar_trigger": false,
      "taf_trigger": false,
      "metar": "METAR EDDK 101920Z AUTO 19004KT CAVOK 10/06 Q1017 NOSIG",
      "taf": "TAF EDDK 101700Z 1018/1124 22005KT 9999 FEW025"
    },
    {
      "icao": "EDDN",
      "alert": "OK",
      "vis_m": 9999,
      "fzfg": false,
      "metar_trigger": false,
      "taf_trigger": false,
      "metar": "METAR EDDN 101920Z AUTO 10007KT CAVOK 10/05 Q1018 NOSIG",
      "taf": "TAF EDDN 101700Z 1018/1118 13005KT CAVOK"
    },
    {
      "icao": "EDDS",
      "alert": "OK",
      "vis_m": 9999,
      "fzfg": false,
      "metar_trigger": false,
      "taf_trigger": false,
      "metar": "METAR EDDS 101920Z AUTO 15003KT 100V180 9999 VCSH FEW///CB 10/07 Q1018 RESHRA",
      "taf": "TAF EDDS 101700Z 1018/1118 20004KT 9999 SCT040"
    },
    {
      "icao": "EDFH",
      "alert": "OK",
      "vis_m": 9999,
      "fzfg": false,
      "metar_trigger": false,
      "taf_trigger": false,
      "metar": "METAR EDFH 101920Z 22008KT CAVOK 09/05 Q1018",
      "taf": "TAF EDFH 101700Z 1018/1118 24008KT 9999 SCT035"
    },
    {
      "icao": "EDJA",
      "alert": "OK",
      "vis_m": 9999,
      "fzfg": false,
      "metar_trigger": false,
      "taf_trigger": false,
      "metar": "METAR EDJA 101920Z 19005KT 140V210 CAVOK 07/03 Q1019",
      "taf": "TAF EDJA 101700Z 1018/1103 VRB03KT CAVOK"
    },
    {
      "icao": "EDLW",
      "alert": "OK",
      "vis_m": 9999,
      "fzfg": false,
      "metar_trigger": false,
      "taf_trigger": false,
      "metar": "METAR EDLW 101920Z 18007KT 9999 SCT039 OVC046 11/08 Q1016",
      "taf": "TAF EDLW 101700Z 1018/1118 21008KT CAVOK"
    },
    {
      "icao": "EDNY",
      "alert": "OK",
      "vis_m": 9999,
      "fzfg": false,
      "metar_trigger": false,
      "taf_trigger": false,
      "metar": "METAR EDNY 101920Z VRB02KT CAVOK 11/04 Q1019",
      "taf": "TAF EDNY 101700Z 1018/1103 VRB03KT 9999 FEW050"
    },
    {
      "icao": "EDSB",
      "alert": "OK",
      "vis_m": 8000,
      "fzfg": false,
      "metar_trigger": false,
      "taf_trigger": false,
      "metar": "METAR EDSB 101920Z 20005KT 8000 RA BKN042 12/08 Q1020",
      "taf": "TAF EDSB 101700Z 1018/1118 22005KT CAVOK"
    },
    {
      "icao": "EETN",
      "alert": "OK",
      "vis_m": 9999,
      "fzfg": false,
      "metar_trigger": false,
      "taf_trigger": false,
      "metar": "METAR EETN 101920Z 20007KT CAVOK 06/01 Q1013 NOSIG",
      "taf": "TAF EETN 101730Z 1018/1118 20010KT CAVOK"
    },
    {
      "icao": "EFTU",
      "alert": "OK",
      "vis_m": 8000,
      "fzfg": false,
      "metar_trigger": false,
      "taf_trigger": false,
      "metar": "METAR EFTU 101920Z AUTO 20007KT 8000 NCD 02/00 Q1009",
      "taf": "TAF EFTU 101733Z 1018/1118 19007KT CAVOK"
    },
    {
      "icao": "EGBB",
      "alert": "OK",
      "vis_m": 9999,
      "fzfg": false,
      "metar_trigger": false,
      "taf_trigger": false,
      "metar": "METAR EGBB 101920Z 18011KT 9999 BKN021 OVC033 10/06 Q1007",
      "taf": "TAF EGBB 101655Z 1018/1118 20012KT 9999 SCT035"
    },
    {
      "icao": "EGGP",
      "alert": "OK",
      "vis_m": 9999,
      "fzfg": false,
      "metar_trigger": false,
      "taf_trigger": false,
      "metar": "METAR EGGP 101920Z 17013KT 9999 FEW016 BKN022 09/06 Q1003",
      "taf": "TAF EGGP 101659Z 1018/1118 17012KT 9999 SCT025"
    },
    {
      "icao": "EGGW",
      "alert": "OK",
      "vis_m": 9999,
      "fzfg": false,
      "metar_trigger": false,
      "taf_trigger": false,
      "metar": "METAR EGGW 101920Z AUTO 20009KT 9999 BKN020 BKN028 08/06 Q1010",
      "taf": "TAF EGGW 101657Z 1018/1118 22015KT 9999 SCT040"
    },
    {
      "icao": "EGKK",
      "alert": "OK",
      "vis_m": 9999,
      "fzfg": false,
      "metar_trigger": false,
      "taf_trigger": false,
      "metar": "METAR EGKK 101920Z 19007KT 160V230 9999 FEW036 09/07 Q1012",
      "taf": "TAF EGKK 101657Z 1018/1124 22012KT 9999 SCT030"
    },
    {
      "icao": "EGNM",
      "alert": "OK",
      "vis_m": 9999,
      "fzfg": false,
      "metar_trigger": false,
      "taf_trigger": false,
      "metar": "METAR EGNM 101920Z 18012G22KT 9999 FEW021 SCT025 09/05 Q1003",
      "taf": "TAF EGNM 101657Z 1018/1118 19012KT 9999 SCT020"
    },
    {
      "icao": "EGPD",
      "alert": "OK",
      "vis_m": 5000,
      "fzfg": false,
      "metar_trigger": false,
      "taf_trigger": false,
      "metar": "METAR EGPD 101920Z AUTO 18026G37KT 5000 -DZ BKN013 OVC033 08/06 Q0993 TEMPO 8000",
      "taf": ""
    },
    {
      "icao": "EGPF",
      "alert": "OK",
      "vis_m": 6000,
      "fzfg": false,
      "metar_trigger": false,
      "taf_trigger": false,
      "metar": "METAR EGPF 101920Z AUTO 18016G26KT 6000 -RA SCT014/// BKN041/// BKN049/// //////TCU 10/09 Q0993 RERA",
      "taf": "TAF EGPF 101657Z 1018/1118 19012KT 9999 SCT012 BKN020"
    },
    {
      "icao": "EHBK",
      "alert": "OK",
      "vis_m": 9999,
      "fzfg": false,
      "metar_trigger": false,
      "taf_trigger": false,
      "metar": "METAR EHBK 101925Z AUTO 19004KT 9999 NSC 11/07 Q1016 NOSIG",
      "taf": "TAF EHBK 101713Z 1018/1124 20006KT 9999 SCT040"
    },
    {
      "icao": "EHEH",
      "alert": "OK",
      "vis_m": 9999,
      "fzfg": false,
      "metar_trigger": false,
      "taf_trigger": false,
      "metar": "METAR EHEH 101925Z AUTO 17007KT 9999 FEW015CB BKN058 BKN064 OVC081 10/08 Q1015 BLU TEMPO 4000 SHRA SCT012 SCT020CB",
      "taf": "TAF EHEH 101737Z 1018/1124 23005KT 9999 FEW020"
    },
    {
      "icao": "EKBI",
      "alert": "OK",
      "vis_m": 900,
      "fzfg": false,
      "metar_trigger": false,
      "taf_trigger": false,
      "metar": "METAR EKBI 101920Z AUTO 17004KT 0900 R09/P1500N R27/P1500N FG OVC002/// 07/07 Q1012",
      "taf": "TAF EKBI 101727Z 1018/1118 19006KT 1500 BR BKN002"
    },
    {
      "icao": "EKCH",
      "alert": "OK",
      "vis_m": 3200,
      "fzfg": false,
      "metar_trigger": false,
      "taf_trigger": false,
      "metar": "METAR EKCH 101920Z AUTO 04001KT 3200 BR NCD 03/02 Q1014 BECMG 2000",
      "taf": ""
    },
    {
      "icao": "ENAL",
      "alert": "OK",
      "vis_m": 9999,
      "fzfg": false,
      "metar_trigger": false,
      "taf_trigger": false,
      "metar": "METAR ENAL 101920Z 20011KT 9999 FEW044 09/01 Q1000",
      "taf": "TAF ENAL 101700Z 1018/1103 18008KT 9999 SCT045"
    },
    {
      "icao": "ENBR",
      "alert": "OK",
      "vis_m": 4500,
      "fzfg": false,
      "metar_trigger": false,
      "taf_trigger": false,
      "metar": "METAR ENBR 101920Z 16019KT 4500 DZ BR OVC003 05/04 Q1004 TEMPO 8000 NSW BKN006 RMK WIND 1200FT 17023KT",
      "taf": "TAF ENBR 101700Z 1018/1118 15015KT 3000 BR OVC003"
    },
    {
      "icao": "ENGM",
      "alert": "OK",
      "vis_m": 900,
      "fzfg": true,
      "metar_trigger": false,
      "taf_trigger": false,
      "metar": "METAR ENGM 101920Z 20006KT 0900 0600SE R19R/1200D R01R/0700N R19L/0750N R01L/1100N FG VV002 00/M00 Q1008 TEMPO 0700 FZFG",
      "taf": ""
    },
    {
      "icao": "ENHD",
      "alert": "OK",
      "vis_m": 1900,
      "fzfg": false,
      "metar_trigger": false,
      "taf_trigger": false,
      "metar": "METAR ENHD 101920Z 16012KT 1900 BR -DZ VV003 05/05 Q1005",
      "taf": "TAF ENHD 101400Z 1015/1023 16015KT 7000 BKN005"
    },
    {
      "icao": "ENTC",
      "alert": "OK",
      "vis_m": 9999,
      "fzfg": false,
      "metar_trigger": false,
      "taf_trigger": false,
      "metar": "METAR ENTC 101920Z VRB02KT CAVOK 00/M03 Q0997 NOSIG RMK WIND 2600FT 18011KT",
      "taf": "TAF ENTC 101700Z 1018/1118 20005KT 9999 FEW025 BKN040"
    },
    {
      "icao": "ENTO",
      "alert": "OK",
      "vis_m": 900,
      "fzfg": false,
      "metar_trigger": false,
      "taf_trigger": false,
      "metar": "METAR ENTO 101920Z 21010KT 0900 R18/P2000N R36/P2000N FG VV002 02/02 Q1009 TEMPO 0500",
      "taf": "TAF ENTO 101700Z 1018/1118 19008KT 0100 FG VV000"
    },
    {
      "icao": "ENVA",
      "alert": "OK",
      "vis_m": 9999,
      "fzfg": false,
      "metar_trigger": false,
      "taf_trigger": false,
      "metar": "METAR ENVA 101920Z 04002KT CAVOK 03/02 Q1001 NOSIG RMK WIND 670FT 07003KT",
      "taf": "TAF ENVA 101700Z 1018/1118 10005KT CAVOK"
    },
    {
      "icao": "ENZV",
      "alert": "OK",
      "vis_m": 1600,
      "fzfg": false,
      "metar_trigger": false,
      "taf_trigger": false,
      "metar": "METAR ENZV 101920Z 17016KT 1600 DZ BR VV004 06/05 Q1006 TEMPO 3000 BR",
      "taf": "TAF ENZV 101700Z 1018/1118 17015KT 3000 BR OVC002"
    },
    {
      "icao": "EPGD",
      "alert": "OK",
      "vis_m": 9999,
      "fzfg": false,
      "metar_trigger": false,
      "taf_trigger": false,
      "metar": "METAR EPGD 101930Z 22004KT CAVOK 09/03 Q1016",
      "taf": "TAF EPGD 101730Z 1018/1118 20005KT CAVOK"
    },
    {
      "icao": "EPKK",
      "alert": "OK",
      "vis_m": 9999,
      "fzfg": false,
      "metar_trigger": false,
      "taf_trigger": false,
      "metar": "METAR EPKK 101930Z 24003KT CAVOK 09/M00 Q1021",
      "taf": "TAF EPKK 101730Z 1018/1118 21010KT CAVOK"
    },
    {
      "icao": "EPKT",
      "alert": "OK",
      "vis_m": 9999,
      "fzfg": false,
      "metar_trigger": false,
      "taf_trigger": false,
      "metar": "METAR EPKT 101930Z 23008KT CAVOK 10/02 Q1020",
      "taf": "TAF EPKT 101730Z 1018/1118 21007KT CAVOK"
    },
    {
      "icao": "EPLB",
      "alert": "OK",
      "vis_m": 9999,
      "fzfg": false,
      "metar_trigger": false,
      "taf_trigger": false,
      "metar": "METAR EPLB 101930Z 16003KT CAVOK 08/00 Q1021",
      "taf": "TAF EPLB 101730Z 1018/1118 17005KT CAVOK"
    },
    {
      "icao": "EPMO",
      "alert": "OK",
      "vis_m": 9999,
      "fzfg": false,
      "metar_trigger": false,
      "taf_trigger": false,
      "metar": "METAR EPMO 101930Z 17005KT CAVOK 11/01 Q1018",
      "taf": "TAF EPMO 101730Z 1018/1118 16004KT CAVOK"
    },
    {
      "icao": "EPPO",
      "alert": "OK",
      "vis_m": 9999,
      "fzfg": false,
      "metar_trigger": false,
      "taf_trigger": false,
      "metar": "METAR EPPO 101930Z 19003KT CAVOK 06/03 Q1017",
      "taf": "TAF EPPO 101730Z 1018/1118 16002KT CAVOK"
    },
    {
      "icao": "EPRA",
      "alert": "OK",
      "vis_m": 9999,
      "fzfg": false,
      "metar_trigger": false,
      "taf_trigger": false,
      "metar": "METAR EPRA 101930Z 17007KT CAVOK 10/01 Q1020",
      "taf": "TAF EPRA 101730Z 1018/1103 16006KT CAVOK"
    },
    {
      "icao": "EPRZ",
      "alert": "OK",
      "vis_m": 9999,
      "fzfg": false,
      "metar_trigger": false,
      "taf_trigger": false,
      "metar": "METAR EPRZ 101930Z 19006KT 140V200 CAVOK 09/M02 Q1022",
      "taf": "TAF EPRZ 101730Z 1018/1118 19008KT CAVOK"
    },
    {
      "icao": "EPSC",
      "alert": "OK",
      "vis_m": 8000,
      "fzfg": false,
      "metar_trigger": false,
      "taf_trigger": false,
      "metar": "METAR EPSC 101930Z 08002KT 8000 NSC 05/03 Q1016",
      "taf": "TAF EPSC 101730Z 1018/1118 VRB02KT CAVOK"
    },
    {
      "icao": "EPSY",
      "alert": "OK",
      "vis_m": 9999,
      "fzfg": false,
      "metar_trigger": false,
      "taf_trigger": false,
      "metar": "METAR EPSY 101930Z 22003KT CAVOK 07/01 Q1018",
      "taf": "TAF EPSY 101730Z 1018/1103 17005KT CAVOK"
    },
    {
      "icao": "EPWA",
      "alert": "OK",
      "vis_m": 9999,
      "fzfg": false,
      "metar_trigger": false,
      "taf_trigger": false,
      "metar": "METAR EPWA 101930Z 17005KT CAVOK 10/00 Q1019 NOSIG",
      "taf": "TAF EPWA 101730Z 1018/1118 17005KT CAVOK"
    },
    {
      "icao": "EPWR",
      "alert": "OK",
      "vis_m": 9999,
      "fzfg": false,
      "metar_trigger": false,
      "taf_trigger": false,
      "metar": "METAR EPWR 101930Z 20005KT CAVOK 10/03 Q1018",
      "taf": "TAF EPWR 101730Z 1018/1118 22010KT CAVOK"
    },
    {
      "icao": "ESGG",
      "alert": "OK",
      "vis_m": 100,
      "fzfg": false,
      "metar_trigger": false,
      "taf_trigger": false,
      "metar": "METAR ESGG 101920Z 19007KT 0100 R03/0500N R21/0550N FG VV002 00/00 Q1011",
      "taf": ""
    },
    {
      "icao": "ESKN",
      "alert": "OK",
      "vis_m": 9000,
      "fzfg": false,
      "metar_trigger": false,
      "taf_trigger": false,
      "metar": "METAR ESKN 101920Z 13002KT 9000 NSC 02/00 Q1010",
      "taf": "TAF ESKN 101730Z 1018/1118 VRB03KT CAVOK"
    },
    {
      "icao": "ESMS",
      "alert": "OK",
      "vis_m": 4300,
      "fzfg": false,
      "metar_trigger": false,
      "taf_trigger": false,
      "metar": "METAR ESMS 101920Z 20004KT 4300 BR NSC 04/04 Q1013",
      "taf": "TAF ESMS 101727Z 1018/1118 21006KT 5000 NSC"
    },
    {
      "icao": "ESSA",
      "alert": "OK",
      "vis_m": 9999,
      "fzfg": false,
      "metar_trigger": false,
      "taf_trigger": false,
      "metar": "METAR ESSA 101920Z 19006KT CAVOK 04/M00 Q1009 NOSIG",
      "taf": "TAF ESSA 101730Z 1018/1118 22009KT CAVOK"
    },
    {
      "icao": "EYKA",
      "alert": "OK",
      "vis_m": 9999,
      "fzfg": false,
      "metar_trigger": false,
      "taf_trigger": false,
      "metar": "METAR EYKA 101920Z 15004KT 120V180 CAVOK 04/M00 Q1018",
      "taf": "TAF EYKA 101700Z 1018/1118 VRB04KT 9000 NSC"
    },
    {
      "icao": "EYPA",
      "alert": "OK",
      "vis_m": 9999,
      "fzfg": false,
      "metar_trigger": false,
      "taf_trigger": false,
      "metar": "METAR EYPA 101920Z 15004KT CAVOK 03/00 Q1016",
      "taf": "TAF EYPA 101700Z 1018/1118 VRB05KT 8000 NSC"
    },
    {
      "icao": "EYVI",
      "alert": "OK",
      "vis_m": 9999,
      "fzfg": false,
      "metar_trigger": false,
      "taf_trigger": false,
      "metar": "METAR EYVI 101920Z 16006KT 9999 MIFG NSC 05/M00 Q1020 NOSIG",
      "taf": "TAF EYVI 101700Z 1018/1118 18008KT 9000 NSC"
    },
    {
      "icao": "GCFV",
      "alert": "OK",
      "vis_m": 9999,
      "fzfg": false,
      "metar_trigger": false,
      "taf_trigger": false,
      "metar": "METAR GCFV 101930Z 01023KT 9999 FEW035 16/08 Q1021",
      "taf": "TAF GCFV 101400Z 1015/1115 02020KT 9999 BKN035 TX21/1114Z TN16/1106Z"
    },
    {
      "icao": "GCLP",
      "alert": "OK",
      "vis_m": 9999,
      "fzfg": false,
      "metar_trigger": false,
      "taf_trigger": false,
      "metar": "METAR GCLP 101930Z 01024KT 9999 FEW033 BKN048 17/10 Q1022 NOSIG",
      "taf": "TAF GCLP 101400Z 1015/1115 01024KT 9999 BKN040 TX20/1114Z TN15/1106Z"
    },
    {
      "icao": "GCTS",
      "alert": "OK",
      "vis_m": 9999,
      "fzfg": false,
      "metar_trigger": false,
      "taf_trigger": false,
      "metar": "METAR GCTS 101930Z 07021KT 9999 SCT045 17/07 Q1022 NOSIG",
      "taf": "TAF GCTS 101400Z 1015/1115 08028KT 9999 FEW040 TX23/1114Z TN14/1106Z"
    },
    {
      "icao": "GMAD",
      "alert": "OK",
      "vis_m": 8000,
      "fzfg": false,
      "metar_trigger": false,
      "taf_trigger": false,
      "metar": "METAR GMAD 101930Z 16012KT 8000 SCT026 16/11 Q1013 NOSIG",
      "taf": "TAF GMAD 101700Z 1018/1124 12005KT 8000 SCT020"
    },
    {
      "icao": "GMMN",
      "alert": "OK",
      "vis_m": 6000,
      "fzfg": false,
      "metar_trigger": false,
      "taf_trigger": false,
      "metar": "METAR GMMN 101930Z 34006KT 6000 -RA BKN020 10/08 Q1021 NOSIG",
      "taf": "TAF GMMN 101700Z 1018/1124 32012KT 9999 BKN020"
    },
    {
      "icao": "GMMX",
      "alert": "OK",
      "vis_m": 9999,
      "fzfg": false,
      "metar_trigger": false,
      "taf_trigger": false,
      "metar": "METAR GMMX 101930Z 04006KT 010V070 9999 SCT030 13/06 Q1020 NOSIG",
      "taf": "TAF GMMX 101700Z 1018/1124 04006KT 8000 SCT023"
    },
    {
      "icao": "HEGN",
      "alert": "OK",
      "vis_m": 9999,
      "fzfg": false,
      "metar_trigger": false,
      "taf_trigger": false,
      "metar": "METAR HEGN 101900Z 35010KT CAVOK 19/05 Q1017 NOSIG",
      "taf": "TAF HEGN 101700Z 1018/1124 31010G20KT CAVOK"
    },
    {
      "icao": "HEMA",
      "alert": "OK",
      "vis_m": 9999,
      "fzfg": false,
      "metar_trigger": false,
      "taf_trigger": false,
      "metar": "METAR HEMA 101900Z 31010KT CAVOK 19/09 Q1016 NOSIG",
      "taf": "TAF HEMA 101700Z 1018/1124 33010G20KT CAVOK"
    },
    {
      "icao": "HESH",
      "alert": "OK",
      "vis_m": 9999,
      "fzfg": false,
      "metar_trigger": false,
      "taf_trigger": false,
      "metar": "METAR HESH 101900Z 32005KT CAVOK 21/06 Q1016 NOSIG",
      "taf": "TAF HESH 101700Z 1018/1124 36010KT CAVOK"
    },
    {
      "icao": "HESX",
      "alert": "OK",
      "vis_m": 9999,
      "fzfg": false,
      "metar_trigger": false,
      "taf_trigger": false,
      "metar": "METAR HESX 101900Z 05009KT CAVOK 14/05 Q1018 NOSIG",
      "taf": "TAF HESX 101700Z 1018/1124 06012KT 9999 SCT030"
    },
    {
      "icao": "LATI",
      "alert": "OK",
      "vis_m": null,
      "fzfg": false,
      "metar_trigger": false,
      "taf_trigger": false,
      "metar": "",
      "taf": "TAF LATI 101700Z 1018/1118 VRB04KT CAVOK TX20/1112Z TN02/1104Z"
    },
    {
      "icao": "LBPD",
      "alert": "OK",
      "vis_m": 9999,
      "fzfg": false,
      "metar_trigger": false,
      "taf_trigger": false,
      "metar": "METAR LBPD 101930Z AUTO 14006KT 9999 NCD 07/M00 Q1028 NOSIG",
      "taf": "TAF LBPD 101700Z 1018/1118 12010KT CAVOK"
    },
    {
      "icao": "LBSF",
      "alert": "OK",
      "vis_m": 9999,
      "fzfg": false,
      "metar_trigger": false,
      "taf_trigger": false,
      "metar": "METAR LBSF 101930Z AUTO 08007KT 9999 NCD 04/M03 Q1027 NOSIG",
      "taf": "TAF LBSF 101700Z 1018/1118 12010KT CAVOK"
    },
    {
      "icao": "LBWN",
      "alert": "OK",
      "vis_m": 9999,
      "fzfg": false,
      "metar_trigger": false,
      "taf_trigger": false,
      "metar": "METAR LBWN 101930Z AUTO 08006KT 9999 NCD 04/M01 Q1030 NOSIG",
      "taf": "TAF LBWN 101700Z 1018/1118 05010KT CAVOK"
    },
    {
      "icao": "LCLK",
      "alert": "OK",
      "vis_m": 9999,
      "fzfg": false,
      "metar_trigger": false,
      "taf_trigger": false,
      "metar": "METAR LCLK 101930Z 34007KT CAVOK 10/04 Q1023 NOSIG",
      "taf": "TAF LCLK 101730Z 1018/1118 35009KT 9999 FEW030"
    },
    {
      "icao": "LCPH",
      "alert": "OK",
      "vis_m": 9999,
      "fzfg": false,
      "metar_trigger": false,
      "taf_trigger": false,
      "metar": "METAR LCPH 101930Z 09004KT CAVOK 12/04 Q1023 NOSIG",
      "taf": "TAF LCPH 101730Z 1018/1118 04008KT 9999 FEW030"
    },
    {
      "icao": "LEAL",
      "alert": "OK",
      "vis_m": 9999,
      "fzfg": false,
      "metar_trigger": false,
      "taf_trigger": false,
      "metar": "METAR LEAL 101930Z 03006KT 360V070 9999 -DZ FEW039 BKN046 12/12 Q1020 RERA NOSIG",
      "taf": ""
    },
    {
      "icao": "LEBB",
      "alert": "OK",
      "vis_m": 9999,
      "fzfg": false,
      "metar_trigger": false,
      "taf_trigger": false,
      "metar": "METAR LEBB 101930Z 27002KT 9999 FEW023 10/09 Q1022 NOSIG",
      "taf": "TAF LEBB 101700Z 1018/1118 12005KT 9999 SCT025 TX12/1114Z TN07/1106Z"
    },
    {
      "icao": "LEBL",
      "alert": "OK",
      "vis_m": 9999,
      "fzfg": false,
      "metar_trigger": false,
      "taf_trigger": false,
      "metar": "METAR LEBL 101930Z 06005KT 360V100 9999 FEW010 SCT017 13/10 Q1022 NOSIG",
      "taf": "TAF LEBL 101700Z 1018/1118 09007KT 9999 FEW015 TX16/1113Z TN08/1106Z"
    },
    {
      "icao": "LECH",
      "alert": "OK",
      "vis_m": 9000,
      "fzfg": false,
      "metar_trigger": false,
      "taf_trigger": false,
      "metar": "METAR LECH 101930Z AUTO 04004KT 9000 NCD 10/09 Q1022",
      "taf": ""
    },
    {
      "icao": "LEMD",
      "alert": "OK",
      "vis_m": 9999,
      "fzfg": false,
      "metar_trigger": false,
      "taf_trigger": false,
      "metar": "METAR LEMD 101930Z 21002KT 9999 SCT049 BKN070 09/09 Q1021 RERA NOSIG",
      "taf": "TAF LEMD 101700Z 1018/1124 VRB04KT 9999 SCT025 TX16/1115Z TN02/1106Z"
    },
    {
      "icao": "LEMG",
      "alert": "OK",
      "vis_m": 9999,
      "fzfg": false,
      "metar_trigger": false,
      "taf_trigger": false,
      "metar": "METAR LEMG 101930Z 30007KT 9999 FEW040 08/06 Q1020 NOSIG",
      "taf": "TAF LEMG 101700Z 1018/1118 29010KT 9999 FEW030 TX17/1115Z TN08/1107Z"
    },
    {
      "icao": "LEVC",
      "alert": "OK",
      "vis_m": 9999,
      "fzfg": false,
      "metar_trigger": false,
      "taf_trigger": false,
      "metar": "METAR LEVC 101930Z 05007KT 9999 SCT008 SCT033 13/12 Q1021 NOSIG",
      "taf": ""
    },
    {
      "icao": "LEXJ",
      "alert": "OK",
      "vis_m": 9999,
      "fzfg": false,
      "metar_trigger": false,
      "taf_trigger": false,
      "metar": "METAR LEXJ 101930Z 00000KT 9999 FEW015 OVC033 11/07 Q1022",
      "taf": "TAF LEXJ 101400Z 1015/1115 22007KT 9999 SCT030 TX13/1114Z TN09/1103Z"
    },
    {
      "icao": "LEZG",
      "alert": "OK",
      "vis_m": 9999,
      "fzfg": false,
      "metar_trigger": false,
      "taf_trigger": false,
      "metar": "METAR LEZG 101930Z 23004KT CAVOK 11/09 Q1021 NOSIG",
      "taf": "TAF LEZG 101700Z 1018/1118 20005KT 9999 FEW030 TX17/1114Z TN06/1106Z"
    },
    {
      "icao": "LEZL",
      "alert": "OK",
      "vis_m": 9999,
      "fzfg": false,
      "metar_trigger": false,
      "taf_trigger": false,
      "metar": "METAR LEZL 101930Z 08003KT CAVOK 12/08 Q1021 NOSIG",
      "taf": "TAF LEZL 101400Z 1015/1115 04008KT 9999 FEW030 TX16/1015Z TN06/1107Z"
    },
    {
      "icao": "LFBD",
      "alert": "OK",
      "vis_m": 9999,
      "fzfg": false,
      "metar_trigger": false,
      "taf_trigger": false,
      "metar": "METAR LFBD 101930Z AUTO 26005KT CAVOK 11/09 Q1021 NOSIG",
      "taf": "TAF LFBD 101700Z 1018/1124 26005KT 9999 SCT030 TX15/1115Z TN06/1124Z"
    },
    {
      "icao": "LFLL",
      "alert": "OK",
      "vis_m": 9999,
      "fzfg": false,
      "metar_trigger": false,
      "taf_trigger": false,
      "metar": "METAR LFLL 101930Z 14006KT CAVOK 11/09 Q1021 NOSIG",
      "taf": "TAF LFLL 101700Z 1018/1124 19010KT 9999 FEW030TCU BKN060"
    },
    {
      "icao": "LFLS",
      "alert": "OK",
      "vis_m": 9999,
      "fzfg": false,
      "metar_trigger": false,
      "taf_trigger": false,
      "metar": "METAR LFLS 101930Z AUTO 22003KT 170V250 CAVOK 10/07 Q1022 NOSIG",
      "taf": "TAF LFLS 101400Z 1015/1115 22005KT 9999 BKN030"
    },
    {
      "icao": "LFMN",
      "alert": "OK",
      "vis_m": 9999,
      "fzfg": false,
      "metar_trigger": false,
      "taf_trigger": false,
      "metar": "METAR LFMN 101930Z 10008KT 9999 SCT018 BKN024 13/10 Q1024 NOSIG",
      "taf": "TAF LFMN 101400Z 1015/1121 10012KT 9999 BKN070"
    },
    {
      "icao": "LFOB",
      "alert": "OK",
      "vis_m": 9999,
      "fzfg": false,
      "metar_trigger": false,
      "taf_trigger": false,
      "metar": "METAR LFOB 101930Z AUTO 20003KT CAVOK 11/07 Q1017 NOSIG",
      "taf": "TAF LFOB 101700Z 1018/1118 22010KT 9999 SCT030"
    },
    {
      "icao": "LFPO",
      "alert": "OK",
      "vis_m": 9999,
      "fzfg": false,
      "metar_trigger": false,
      "taf_trigger": false,
      "metar": "METAR LFPO 101930Z 19004KT CAVOK 13/08 Q1018 NOSIG",
      "taf": "TAF LFPO 101700Z 1018/1124 21008KT CAVOK"
    },
    {
      "icao": "LFSB",
      "alert": "OK",
      "vis_m": 9999,
      "fzfg": false,
      "metar_trigger": false,
      "taf_trigger": false,
      "metar": "METAR LFSB 101930Z AUTO VRB03KT 9999 FEW054 SCT074 OVC094 10/08 Q1021 TEMPO FEW040TCU BKN045",
      "taf": "TAF LFSB 101700Z 1018/1118 VRB03KT 9999 FEW035 BKN050"
    },
    {
      "icao": "LGAV",
      "alert": "OK",
      "vis_m": 9999,
      "fzfg": false,
      "metar_trigger": false,
      "taf_trigger": false,
      "metar": "METAR LGAV 101920Z VRB02KT 9999 FEW018 09/05 Q1026 NOSIG",
      "taf": "TAF LGAV 101700Z 1018/1118 04014KT 9999 FEW025"
    },
    {
      "icao": "LGTS",
      "alert": "OK",
      "vis_m": 9999,
      "fzfg": false,
      "metar_trigger": false,
      "taf_trigger": false,
      "metar": "METAR LGTS 101920Z 10006KT CAVOK 06/02 Q1027 NOSIG",
      "taf": "TAF LGTS 101700Z 1018/1118 VRB03KT CAVOK"
    },
    {
      "icao": "LHBP",
      "alert": "OK",
      "vis_m": 9999,
      "fzfg": false,
      "metar_trigger": false,
      "taf_trigger": false,
      "metar": "METAR LHBP 101930Z 11006KT CAVOK 06/02 Q1023 NOSIG",
      "taf": "TAF LHBP 101715Z 1018/1118 10005KT CAVOK"
    },
    {
      "icao": "LHDC",
      "alert": "OK",
      "vis_m": 9999,
      "fzfg": false,
      "metar_trigger": false,
      "taf_trigger": false,
      "metar": "METAR LHDC 101915Z AUTO 13004KT 100V230 CAVOK 08/M01 Q1024",
      "taf": "TAF LHDC 101415Z 1015/1024 20011KT CAVOK"
    },
    {
      "icao": "LIBD",
      "alert": "OK",
      "vis_m": 9000,
      "fzfg": false,
      "metar_trigger": false,
      "taf_trigger": false,
      "metar": "METAR LIBD 101920Z VRB02KT 9000 NSC 10/10 Q1024",
      "taf": "TAF LIBD 101700Z 1018/1118 20005KT 8000 FEW020"
    },
    {
      "icao": "LIBG",
      "alert": "OK",
      "vis_m": 9999,
      "fzfg": false,
      "metar_trigger": false,
      "taf_trigger": false,
      "metar": "METAR LIBG 101850Z VRB02KT CAVOK 11/10 Q1024",
      "taf": "TAF LIBG 101700Z 1018/1103 VRB05KT 9999 FEW030"
    },
    {
      "icao": "LIBP",
      "alert": "OK",
      "vis_m": 9999,
      "fzfg": false,
      "metar_trigger": false,
      "taf_trigger": false,
      "metar": "METAR LIBP 101920Z AUTO 32003KT 9999 NCD 11/08 Q1024",
      "taf": "TAF LIBP 101700Z 1018/1118 VRB05KT 9999 FEW040"
    },
    {
      "icao": "LIBR",
      "alert": "OK",
      "vis_m": 9999,
      "fzfg": false,
      "metar_trigger": false,
      "taf_trigger": false,
      "metar": "METAR LIBR 101920Z 17003KT CAVOK 12/10 Q1024",
      "taf": "TAF LIBR 101700Z 1018/1118 20005KT 9999 FEW020"
    },
    {
      "icao": "LICA",
      "alert": "OK",
      "vis_m": 9999,
      "fzfg": false,
      "metar_trigger": false,
      "taf_trigger": false,
      "metar": "METAR LICA 101920Z AUTO 06006KT 9999 FEW095/// 13/11 Q1024",
      "taf": "TAF LICA 101700Z 1018/1118 07010KT 9999 FEW040"
    },
    {
      "icao": "LICC",
      "alert": "OK",
      "vis_m": 9999,
      "fzfg": false,
      "metar_trigger": false,
      "taf_trigger": false,
      "metar": "METAR LICC 101920Z 11003KT 9999 SCT025 14/12 Q1024",
      "taf": "TAF LICC 101700Z 1018/1118 04010KT 9999 SCT040"
    },
    {
      "icao": "LICJ",
      "alert": "OK",
      "vis_m": 9999,
      "fzfg": false,
      "metar_trigger": false,
      "taf_trigger": false,
      "metar": "METAR LICJ 101920Z 17005KT CAVOK 15/10 Q1023",
      "taf": "TAF LICJ 101700Z 1018/1118 06010KT 9999 FEW030"
    },
    {
      "icao": "LIMC",
      "alert": "OK",
      "vis_m": 1500,
      "fzfg": false,
      "metar_trigger": false,
      "taf_trigger": false,
      "metar": "METAR LIMC 101920Z 26003KT 240V300 1500 BR BKN005 10/09 Q1024 NOSIG",
      "taf": "TAF LIMC 101700Z 1018/1124 VRB05KT 3000 BR BKN010"
    },
    {
      "icao": "LIME",
      "alert": "OK",
      "vis_m": 4000,
      "fzfg": false,
      "metar_trigger": false,
      "taf_trigger": false,
      "metar": "METAR LIME 101920Z 23003KT 4000 BR BKN045 10/10 Q1024 NOSIG",
      "taf": "TAF LIME 101700Z 1018/1118 VRB05KT 7000 BKN050"
    },
    {
      "icao": "LIMF",
      "alert": "OK",
      "vis_m": 3500,
      "fzfg": false,
      "metar_trigger": false,
      "taf_trigger": false,
      "metar": "METAR LIMF 101920Z 23003KT 190V260 3500 BR SCT030 BKN045 09/07 Q1024",
      "taf": "TAF LIMF 101700Z 1018/1118 VRB04KT 7000 FEW010 BKN030"
    },
    {
      "icao": "LIMJ",
      "alert": "OK",
      "vis_m": 9999,
      "fzfg": false,
      "metar_trigger": false,
      "taf_trigger": false,
      "metar": "METAR LIMJ 101920Z 03006KT 9999 BKN055 12/09 Q1023",
      "taf": "TAF LIMJ 101700Z 1018/1118 VRB06KT 9999 SCT070"
    },
    {
      "icao": "LIPE",
      "alert": "OK",
      "vis_m": 9999,
      "fzfg": false,
      "metar_trigger": false,
      "taf_trigger": false,
      "metar": "METAR LIPE 101920Z 25005KT 9999 SCT040 13/09 Q1023",
      "taf": "TAF LIPE 101700Z 1018/1118 VRB05KT 7000 FEW030"
    },
    {
      "icao": "LIPH",
      "alert": "OK",
      "vis_m": 9999,
      "fzfg": false,
      "metar_trigger": false,
      "taf_trigger": false,
      "metar": "METAR LIPH 101920Z 14002KT 9999 SCT040 11/10 Q1024",
      "taf": "TAF LIPH 101700Z 1018/1118 VRB04KT 7000 FEW030"
    },
    {
      "icao": "LIPQ",
      "alert": "OK",
      "vis_m": 7000,
      "fzfg": false,
      "metar_trigger": false,
      "taf_trigger": false,
      "metar": "METAR LIPQ 101920Z AUTO VRB02KT 7000 NCD 09/08 Q1024",
      "taf": "TAF LIPQ 101700Z 1018/1118 VRB04KT 9999 SCT040"
    },
    {
      "icao": "LIPR",
      "alert": "OK",
      "vis_m": 4000,
      "fzfg": false,
      "metar_trigger": false,
      "taf_trigger": false,
      "metar": "METAR LIPR 101920Z VRB01KT 4000 BR SCT050 10/09 Q1023",
      "taf": "TAF LIPR 101700Z 1018/1118 VRB05KT 6000 NSC"
    },
    {
      "icao": "LIPX",
      "alert": "OK",
      "vis_m": 7000,
      "fzfg": false,
      "metar_trigger": false,
      "taf_trigger": false,
      "metar": "METAR LIPX 101920Z 27003KT 7000 BKN070 12/10 Q1023",
      "taf": "TAF LIPX 101700Z 1018/1118 VRB05KT 7000 SCT090"
    },
    {
      "icao": "LIPY",
      "alert": "OK",
      "vis_m": 9999,
      "fzfg": false,
      "metar_trigger": false,
      "taf_trigger": false,
      "metar": "METAR LIPY 101920Z AUTO 15003KT 120V180 9999 SCT052/// BKN067/// 13/08 Q1024",
      "taf": "TAF LIPY 101700Z 1018/1118 VRB05KT 9999 SCT030"
    },
    {
      "icao": "LIPZ",
      "alert": "OK",
      "vis_m": 9999,
      "fzfg": false,
      "metar_trigger": false,
      "taf_trigger": false,
      "metar": "METAR LIPZ 101920Z 16004KT CAVOK 12/10 Q1024 NOSIG",
      "taf": "TAF LIPZ 101700Z 1018/1124 VRB05KT 8000 SCT020"
    },
    {
      "icao": "LIRF",
      "alert": "OK",
      "vis_m": 9999,
      "fzfg": false,
      "metar_trigger": false,
      "taf_trigger": false,
      "metar": "METAR LIRF 101920Z 29004KT 9999 SCT015 13/12 Q1024 NOSIG",
      "taf": "TAF LIRF 101700Z 1018/1124 VRB05KT 9999 FEW030"
    },
    {
      "icao": "LIRN",
      "alert": "OK",
      "vis_m": 9999,
      "fzfg": false,
      "metar_trigger": false,
      "taf_trigger": false,
      "metar": "METAR LIRN 101920Z 01005KT 9999 FEW060 14/08 Q1024 NOSIG",
      "taf": "TAF LIRN 101700Z 1018/1118 VRB05KT 9999 FEW050"
    },
    {
      "icao": "LIRP",
      "alert": "OK",
      "vis_m": 9999,
      "fzfg": false,
      "metar_trigger": false,
      "taf_trigger": false,
      "metar": "METAR LIRP 101915Z COR 04006KT 9999 FEW020 FEW025CB BKN060 13/13 Q1023 RETS NOSIG",
      "taf": "TAF LIRP 101700Z 1018/1118 29005KT 9999 SCT020 SCT040"
    },
    {
      "icao": "LIRZ",
      "alert": "OK",
      "vis_m": 9999,
      "fzfg": false,
      "metar_trigger": false,
      "taf_trigger": false,
      "metar": "METAR LIRZ 101920Z AUTO 02004KT 9999 NCD 10/07 Q1023",
      "taf": "TAF LIRZ 101700Z 1018/1118 VRB05KT 9999 SCT040"
    },
    {
      "icao": "LJLJ",
      "alert": "OK",
      "vis_m": 9999,
      "fzfg": false,
      "metar_trigger": false,
      "taf_trigger": false,
      "metar": "METAR LJLJ 101930Z 00000KT 9999 FEW038 06/03 Q1023 NOSIG",
      "taf": "TAF LJLJ 101700Z 1018/1118 VRB02KT 9999 SCT040"
    },
    {
      "icao": "LKMT",
      "alert": "OK",
      "vis_m": 9999,
      "fzfg": false,
      "metar_trigger": false,
      "taf_trigger": false,
      "metar": "METAR LKMT 101930Z 20006KT CAVOK 11/03 Q1020 NOSIG",
      "taf": "TAF LKMT 101700Z 1018/1118 21010KT CAVOK"
    },
    {
      "icao": "LKPR",
      "alert": "OK",
      "vis_m": 9999,
      "fzfg": false,
      "metar_trigger": false,
      "taf_trigger": false,
      "metar": "METAR LKPR 101930Z 18006KT 140V200 CAVOK 09/02 Q1018 NOSIG",
      "taf": "TAF LKPR 101700Z 1018/1124 21008KT CAVOK"
    },
    {
      "icao": "LLBG",
      "alert": "OK",
      "vis_m": 9999,
      "fzfg": false,
      "metar_trigger": false,
      "taf_trigger": false,
      "metar": "METAR LLBG 101920Z VRB03KT CAVOK 14/05 Q1019 NOSIG",
      "taf": "TAF LLBG 101704Z 1018/1118 02010KT CAVOK TX25/1112Z TN09/1104Z"
    },
    {
      "icao": "LMML",
      "alert": "OK",
      "vis_m": 9999,
      "fzfg": false,
      "metar_trigger": false,
      "taf_trigger": false,
      "metar": "METAR LMML 101945Z 06012KT 9999 SCT012 15/12 Q1022 NOSIG",
      "taf": "TAF LMML 101700Z 1018/1118 09014KT 9999 FEW017"
    },
    {
      "icao": "LOWW",
      "alert": "OK",
      "vis_m": 9999,
      "fzfg": false,
      "metar_trigger": false,
      "taf_trigger": false,
      "metar": "METAR LOWW 101920Z 15009KT CAVOK 11/04 Q1020 NOSIG",
      "taf": "TAF LOWW 101715Z 1018/1124 15010KT CAVOK TX16/1115Z TN03/1105Z"
    },
    {
      "icao": "LPFR",
      "alert": "OK",
      "vis_m": 9999,
      "fzfg": false,
      "metar_trigger": false,
      "taf_trigger": false,
      "metar": "METAR LPFR 101930Z 35004KT 9999 FEW020 13/05 Q1021",
      "taf": "TAF LPFR 101700Z 1018/1118 34012KT 9999 FEW020 BKN040"
    },
    {
      "icao": "LPMA",
      "alert": "OK",
      "vis_m": 9999,
      "fzfg": false,
      "metar_trigger": false,
      "taf_trigger": false,
      "metar": "METAR LPMA 101930Z 01013KT 330V030 9999 BKN015 15/09 Q1027",
      "taf": "TAF LPMA 101700Z 1018/1118 02013KT 9999 SCT015 SCT030"
    },
    {
      "icao": "LPPR",
      "alert": "OK",
      "vis_m": 9999,
      "fzfg": false,
      "metar_trigger": false,
      "taf_trigger": false,
      "metar": "METAR LPPR 101930Z 33005KT 300V360 9999 FEW012 11/09 Q1023",
      "taf": "TAF LPPR 101700Z 1018/1118 34010KT 9999 SCT025"
    },
    {
      "icao": "LPPS",
      "alert": "OK",
      "vis_m": 9999,
      "fzfg": false,
      "metar_trigger": false,
      "taf_trigger": false,
      "metar": "METAR LPPS 101930Z 01014KT 9999 SCT015 SCT030 15/08 Q1027",
      "taf": "TAF LPPS 101700Z 1018/1124 02015KT 9999 FEW015 SCT030"
    },
    {
      "icao": "LPPT",
      "alert": "OK",
      "vis_m": 9999,
      "fzfg": false,
      "metar_trigger": false,
      "taf_trigger": false,
      "metar": "METAR LPPT 101930Z 32011KT 290V350 9999 FEW018 11/08 Q1022",
      "taf": "TAF LPPT 101700Z 1018/1124 34015KT 9999 SCT025"
    },
    {
      "icao": "LQBK",
      "alert": "OK",
      "vis_m": 9999,
      "fzfg": false,
      "metar_trigger": false,
      "taf_trigger": false,
      "metar": "METAR LQBK 101930Z 14002KT CAVOK 09/03 Q1023 NOSIG",
      "taf": "TAF LQBK 101700Z 1018/1118 15005KT CAVOK TX19/1114Z TN02/1106Z"
    },
    {
      "icao": "LQSA",
      "alert": "OK",
      "vis_m": 9999,
      "fzfg": false,
      "metar_trigger": false,
      "taf_trigger": false,
      "metar": "METAR LQSA 101930Z VRB01KT CAVOK 06/02 Q1023 NOSIG",
      "taf": ""
    },
    {
      "icao": "LQTZ",
      "alert": "OK",
      "vis_m": 9999,
      "fzfg": false,
      "metar_trigger": false,
      "taf_trigger": false,
      "metar": "METAR LQTZ 101930Z VRB02KT CAVOK 08/05 Q1023",
      "taf": "TAF LQTZ 101700Z 1018/1118 11005KT CAVOK TX18/1114Z TNM02/1106Z"
    },
    {
      "icao": "LRBC",
      "alert": "OK",
      "vis_m": 9999,
      "fzfg": false,
      "metar_trigger": false,
      "taf_trigger": false,
      "metar": "METAR LRBC 101930Z 15016KT CAVOK 08/M00 Q1028",
      "taf": "TAF LRBC 101700Z 1018/1103 16012KT CAVOK"
    },
    {
      "icao": "LRBS",
      "alert": "OK",
      "vis_m": 9999,
      "fzfg": false,
      "metar_trigger": false,
      "taf_trigger": false,
      "metar": "METAR LRBS 101930Z 07005KT CAVOK 06/M00 Q1029 NOSIG",
      "taf": "TAF LRBS 101700Z 1018/1118 08008KT CAVOK"
    },
    {
      "icao": "LRBV",
      "alert": "OK",
      "vis_m": 9999,
      "fzfg": false,
      "metar_trigger": false,
      "taf_trigger": false,
      "metar": "METAR LRBV 101930Z 17004KT 130V220 CAVOK 06/M09 Q1027",
      "taf": "TAF LRBV 101700Z 1018/1103 18010KT CAVOK"
    },
    {
      "icao": "LRCL",
      "alert": "OK",
      "vis_m": 9999,
      "fzfg": false,
      "metar_trigger": false,
      "taf_trigger": false,
      "metar": "METAR LRCL 101930Z 32004KT 270V050 CAVOK 09/M06 Q1025",
      "taf": "TAF LRCL 101700Z 1018/1103 17010KT CAVOK"
    },
    {
      "icao": "LRCV",
      "alert": "OK",
      "vis_m": 9999,
      "fzfg": false,
      "metar_trigger": false,
      "taf_trigger": false,
      "metar": "METAR LRCV 101930Z 05010KT CAVOK 06/03 Q1028",
      "taf": "TAF LRCV 101700Z 1018/1103 07010KT CAVOK"
    },
    {
      "icao": "LRIA",
      "alert": "OK",
      "vis_m": 9999,
      "fzfg": false,
      "metar_trigger": false,
      "taf_trigger": false,
      "metar": "METAR LRIA 101930Z 17007KT CAVOK 10/M06 Q1028",
      "taf": "TAF LRIA 101700Z 1018/1103 17010KT CAVOK"
    },
    {
      "icao": "LROP",
      "alert": "OK",
      "vis_m": 9999,
      "fzfg": false,
      "metar_trigger": false,
      "taf_trigger": false,
      "metar": "METAR LROP 101930Z 08008KT CAVOK 06/M01 Q1029 NOSIG",
      "taf": "TAF LROP 101700Z 1018/1118 08008KT CAVOK"
    },
    {
      "icao": "LRSB",
      "alert": "OK",
      "vis_m": 9999,
      "fzfg": false,
      "metar_trigger": false,
      "taf_trigger": false,
      "metar": "METAR LRSB 101930Z 17004KT 130V280 CAVOK 08/M06 Q1026",
      "taf": "TAF LRSB 101700Z 1018/1118 15010KT CAVOK"
    },
    {
      "icao": "LRSM",
      "alert": "OK",
      "vis_m": 9999,
      "fzfg": false,
      "metar_trigger": false,
      "taf_trigger": false,
      "metar": "METAR LRSM 101930Z AUTO 15001KT 9999 NCD 06/M01 Q1025",
      "taf": "TAF LRSM 101400Z 1015/1024 VRB04KT CAVOK"
    },
    {
      "icao": "LRSV",
      "alert": "OK",
      "vis_m": 9999,
      "fzfg": false,
      "metar_trigger": false,
      "taf_trigger": false,
      "metar": "METAR LRSV 101930Z 20009KT CAVOK 07/M03 Q1025",
      "taf": "TAF LRSV 101700Z 1018/1103 16010KT CAVOK"
    },
    {
      "icao": "LRTM",
      "alert": "OK",
      "vis_m": 9999,
      "fzfg": false,
      "metar_trigger": false,
      "taf_trigger": false,
      "metar": "METAR LRTM 101930Z AUTO 09005KT 9999 NCD 05/M05 Q1026",
      "taf": "TAF LRTM 101400Z 1015/1024 VRB04KT CAVOK"
    },
    {
      "icao": "LRTR",
      "alert": "OK",
      "vis_m": 9999,
      "fzfg": false,
      "metar_trigger": false,
      "taf_trigger": false,
      "metar": "METAR LRTR 101930Z 12006KT CAVOK 08/M03 Q1025",
      "taf": "TAF LRTR 101700Z 1018/1118 11005KT CAVOK"
    },
    {
      "icao": "LTAC",
      "alert": "OK",
      "vis_m": 9999,
      "fzfg": false,
      "metar_trigger": false,
      "taf_trigger": false,
      "metar": "METAR LTAC 101920Z 05008KT CAVOK 03/M10 Q1027 NOSIG RMK RWY21C 04006KT 020V080 RWY03L 06006KT RWY21R 03006KT RWY03R 04006KT RWY21L 03006KT",
      "taf": "TAF LTAC 101640Z 1018/1118 VRB02KT CAVOK"
    },
    {
      "icao": "LTFM",
      "alert": "OK",
      "vis_m": 9999,
      "fzfg": false,
      "metar_trigger": false,
      "taf_trigger": false,
      "metar": "METAR LTFM 101920Z 36011KT CAVOK 06/04 Q1027 NOSIG RMK RWY17L 36008KT RWY34L 35010KT RWY16R 36007KT RWY36 36009KT RWY18 01008KT",
      "taf": "TAF LTFM 101640Z 1018/1124 04012KT CAVOK"
    },
    {
      "icao": "LUKK",
      "alert": "OK",
      "vis_m": 9999,
      "fzfg": false,
      "metar_trigger": false,
      "taf_trigger": false,
      "metar": "METAR LUKK 101930Z 18006KT 150V210 CAVOK 05/M02 Q1030 NOSIG",
      "taf": "TAF LUKK 101706Z 1018/1118 16006KT CAVOK"
    },
    {
      "icao": "LWOH",
      "alert": "OK",
      "vis_m": null,
      "fzfg": false,
      "metar_trigger": false,
      "taf_trigger": false,
      "metar": "",
      "taf": "TAF LWOH 101710Z 1018/1118 VRB02KT CAVOK"
    },
    {
      "icao": "LWSK",
      "alert": "OK",
      "vis_m": 9999,
      "fzfg": false,
      "metar_trigger": false,
      "taf_trigger": false,
      "metar": "METAR LWSK 101920Z 05003KT 010V080 CAVOK 06/M02 Q1025 NOSIG",
      "taf": "TAF LWSK 101710Z 1018/1118 VRB02KT CAVOK"
    },
    {
      "icao": "LYBE",
      "alert": "OK",
      "vis_m": 9999,
      "fzfg": false,
      "metar_trigger": false,
      "taf_trigger": false,
      "metar": "METAR LYBE 101930Z 11010KT CAVOK 10/M03 Q1024 NOSIG",
      "taf": "TAF LYBE 101700Z 1018/1118 13014KT CAVOK TX20/1113Z TN06/1105Z"
    },
    {
      "icao": "LYNI",
      "alert": "OK",
      "vis_m": 9999,
      "fzfg": false,
      "metar_trigger": false,
      "taf_trigger": false,
      "metar": "METAR LYNI 101930Z 08010KT CAVOK 12/M03 Q1025 NOSIG",
      "taf": "TAF LYNI 101700Z 1018/1118 09009KT CAVOK TX20/1114Z TN04/1105Z"
    },
    {
      "icao": "LYPG",
      "alert": "OK",
      "vis_m": 9999,
      "fzfg": false,
      "metar_trigger": false,
      "taf_trigger": false,
      "metar": "METAR LYPG 101930Z VRB01KT CAVOK 12/03 Q1024 NOSIG",
      "taf": "TAF LYPG 101700Z 1018/1118 35004KT CAVOK TX19/1114Z TN05/1105Z"
    },
    {
      "icao": "LZIB",
      "alert": "OK",
      "vis_m": 9999,
      "fzfg": false,
      "metar_trigger": false,
      "taf_trigger": false,
      "metar": "METAR LZIB 101930Z VRB02KT CAVOK 09/03 Q1021 NOSIG",
      "taf": "TAF LZIB 101715Z 1018/1118 15008KT CAVOK"
    },
    {
      "icao": "LZKZ",
      "alert": "OK",
      "vis_m": 9999,
      "fzfg": false,
      "metar_trigger": false,
      "taf_trigger": false,
      "metar": "METAR LZKZ 101930Z 18003KT CAVOK 06/M00 Q1024 NOSIG",
      "taf": "TAF LZKZ 101715Z 1018/1118 22007KT CAVOK"
    },
    {
      "icao": "LZTT",
      "alert": "OK",
      "vis_m": 9999,
      "fzfg": false,
      "metar_trigger": false,
      "taf_trigger": false,
      "metar": "METAR LZTT 101930Z 25006KT 9999 FEW053 04/M02 Q1023",
      "taf": "TAF LZTT 101715Z 1018/1118 22005KT CAVOK"
    },
    {
      "icao": "OEJN",
      "alert": "OK",
      "vis_m": 9999,
      "fzfg": false,
      "metar_trigger": false,
      "taf_trigger": false,
      "metar": "METAR OEJN 101900Z 34009KT CAVOK 24/12 Q1013 NOSIG",
      "taf": "TAF OEJN 101700Z 1018/1124 02006KT 7000 FEW040"
    },
    {
      "icao": "OEMA",
      "alert": "OK",
      "vis_m": 9999,
      "fzfg": false,
      "metar_trigger": false,
      "taf_trigger": false,
      "metar": "METAR OEMA 101900Z 32004KT CAVOK 23/M07 Q1016 NOSIG",
      "taf": "TAF OEMA 101700Z 1018/1124 30005KT CAVOK"
    },
    {
      "icao": "OJAI",
      "alert": "OK",
      "vis_m": 5000,
      "fzfg": false,
      "metar_trigger": false,
      "taf_trigger": false,
      "metar": "METAR OJAI 101900Z 03009KT 5000 HZ NSC 11/M10 Q1020 NOSIG",
      "taf": "TAF OJAI 101637Z 1018/1124 12010KT 5000 HZ NSC"
    },
    {
      "icao": "OMAA",
      "alert": "OK",
      "vis_m": null,
      "fzfg": false,
      "metar_trigger": false,
      "taf_trigger": false,
      "metar": "",
      "taf": ""
    },
    {
      "icao": "OMDB",
      "alert": "OK",
      "vis_m": null,
      "fzfg": false,
      "metar_trigger": false,
      "taf_trigger": false,
      "metar": "",
      "taf": ""
    },
    {
      "icao": "UAAA",
      "alert": "OK",
      "vis_m": 700,
      "fzfg": true,
      "metar_trigger": false,
      "taf_trigger": false,
      "metar": "METAR UAAA 101930Z 29002MPS 250V330 0700 R23L/1800N SHSN FZFG SCT004 BKN018CB OVC100 M03/M04 Q1035 NOSIG RMK QBB130",
      "taf": ""
    },
    {
      "icao": "UBBB",
      "alert": "OK",
      "vis_m": 9999,
      "fzfg": false,
      "metar_trigger": false,
      "taf_trigger": false,
      "metar": "METAR UBBB 101930Z 15010KT 9999 BKN033 07/03 Q1039 NOSIG",
      "taf": "TAF UBBB 101702Z 1018/1118 14012KT 9999 BKN030 TX10/1110Z TN04/1100Z"
    },
    {
      "icao": "UDSG",
      "alert": "OK",
      "vis_m": 9999,
      "fzfg": false,
      "metar_trigger": false,
      "taf_trigger": false,
      "metar": "METAR UDSG 101930Z 29001KT 9999 NSC M09/M11 Q1032 NOSIG",
      "taf": "TAF UDSG 101700Z 1018/1118 VRB06KT 9999 FEW050"
    },
    {
      "icao": "UDYZ",
      "alert": "OK",
      "vis_m": 9999,
      "fzfg": false,
      "metar_trigger": false,
      "taf_trigger": false,
      "metar": "METAR UDYZ 101930Z 09004KT 9999 NSC M01/M06 Q1032 NOSIG",
      "taf": "TAF UDYZ 101700Z 1018/1118 04006KT 9999 NSC"
    },
    {
      "icao": "UGKO",
      "alert": "OK",
      "vis_m": 9999,
      "fzfg": false,
      "metar_trigger": false,
      "taf_trigger": false,
      "metar": "METAR UGKO 101930Z 08021G31KT CAVOK 09/M02 Q1031 NOSIG",
      "taf": "TAF UGKO 101700Z 1018/1118 08017KT CAVOK TX15/1111Z TN06/1104Z"
    }
  ]
}