{
  "ts_utc": "2026-01-02T06:53:16Z",
  "threshold_m": 150,
  "source": "stations_override.txt (ICAO list) + aviationweather.gov (METAR/TAF raw)",
  "station_count": 159,
  "stations": [
    {
      "icao": "BIKF",
      "alert": "OK",
      "vis_m": 9999,
      "fzfg": false,
      "metar_trigger": false,
      "taf_trigger": false,
      "metar": "METAR BIKF 020630Z 06006KT CAVOK M01/M02 Q1024",
      "taf": "TAF BIKF 020448Z 0206/0306 13006KT 9999 FEW040 TX00/0214Z TNM06/0306Z"
    },
    {
      "icao": "BKPR",
      "alert": "OK",
      "vis_m": null,
      "fzfg": false,
      "metar_trigger": false,
      "taf_trigger": false,
      "metar": "",
      "taf": "TAF BKPR 020530Z 0206/0306 18008KT 9999 BKN040"
    },
    {
      "icao": "EBCI",
      "alert": "OK",
      "vis_m": 9999,
      "fzfg": false,
      "metar_trigger": false,
      "taf_trigger": false,
      "metar": "METAR EBCI 020620Z 24014KT 9999 FEW035 01/M01 Q1002 TEMPO 2000 SHSN BKN004",
      "taf": "TAF EBCI 020513Z 0206/0312 27012KT 9999 SCT015TCU SCT040"
    },
    {
      "icao": "EDDB",
      "alert": "OK",
      "vis_m": 9999,
      "fzfg": false,
      "metar_trigger": false,
      "taf_trigger": false,
      "metar": "METAR EDDB 020620Z AUTO 24020KT 9999 BKN028 BKN033 02/M02 Q0987 TEMPO 25020G35KT",
      "taf": "TAF EDDB 020500Z 0206/0306 24020G30KT 9999 SCT020 OVC030"
    },
    {
      "icao": "EDDH",
      "alert": "OK",
      "vis_m": 6000,
      "fzfg": false,
      "metar_trigger": false,
      "taf_trigger": false,
      "metar": "METAR EDDH 020620Z AUTO 26008KT 230V300 6000 -SN BKN005 01/01 Q0985 RESHSN TEMPO 26015G25KT 2000 SHSN BKN010CB",
      "taf": "TAF EDDH 020500Z 0206/0312 26015G30KT 9999 SCT015 SCT025"
    },
    {
      "icao": "EDDK",
      "alert": "OK",
      "vis_m": 9999,
      "fzfg": false,
      "metar_trigger": false,
      "taf_trigger": false,
      "metar": "METAR EDDK 020620Z AUTO 26011KT 9999 FEW030 SCT042 01/M01 Q0999 TEMPO 4500 SHSN BKN008CB",
      "taf": "TAF EDDK 020500Z 0206/0312 26015G25KT 9999 BKN025"
    },
    {
      "icao": "EDDN",
      "alert": "OK",
      "vis_m": 3600,
      "fzfg": false,
      "metar_trigger": false,
      "taf_trigger": false,
      "metar": "METAR EDDN 020620Z AUTO 22009KT 200V260 3600 SN BR BKN007 BKN011 00/M01 Q0999 TEMPO 2500",
      "taf": ""
    },
    {
      "icao": "EDDS",
      "alert": "OK",
      "vis_m": 9999,
      "fzfg": false,
      "metar_trigger": false,
      "taf_trigger": false,
      "metar": "METAR EDDS 020620Z AUTO 23008KT 160V270 9999 -SN SCT020 OVC024 01/M03 Q1001 NOSIG",
      "taf": "TAF EDDS 020500Z 0206/0306 23010KT 9999 BKN025"
    },
    {
      "icao": "EDFH",
      "alert": "OK",
      "vis_m": 9999,
      "fzfg": false,
      "metar_trigger": false,
      "taf_trigger": false,
      "metar": "METAR EDFH 020620Z 27017KT 9999 FEW008 BKN010 M00/M02 Q0999",
      "taf": "TAF EDFH 020500Z 0206/0306 26015G25KT 9999 BKN010"
    },
    {
      "icao": "EDJA",
      "alert": "OK",
      "vis_m": 9999,
      "fzfg": false,
      "metar_trigger": false,
      "taf_trigger": false,
      "metar": "METAR EDJA 020620Z 24021G33KT 9999 BKN053 M00/M06 Q1002",
      "taf": "TAF EDJA 020500Z 0206/0215 24020G30KT 9999 BKN050"
    },
    {
      "icao": "EDLW",
      "alert": "OK",
      "vis_m": 3900,
      "fzfg": false,
      "metar_trigger": false,
      "taf_trigger": false,
      "metar": "METAR EDLW 020620Z 24013KT 3900 -SN SCT008 BKN010 OVC016 01/M00 Q0996",
      "taf": "TAF EDLW 020500Z 0206/0306 24015G25KT 9999 BKN015"
    },
    {
      "icao": "EDNY",
      "alert": "OK",
      "vis_m": 9999,
      "fzfg": false,
      "metar_trigger": false,
      "taf_trigger": false,
      "metar": "METAR EDNY 020620Z AUTO 23013KT 9999 // OVC140/// 02/M06 Q1005",
      "taf": ""
    },
    {
      "icao": "EDSB",
      "alert": "OK",
      "vis_m": 6000,
      "fzfg": false,
      "metar_trigger": false,
      "taf_trigger": false,
      "metar": "METAR EDSB 020620Z 21013KT 6000 -SHSN FEW009 SCT012 OVC021 M00/M01 Q1004",
      "taf": "TAF EDSB 020500Z 0206/0306 20012KT 9999 BKN015"
    },
    {
      "icao": "EETN",
      "alert": "OK",
      "vis_m": 5000,
      "fzfg": false,
      "metar_trigger": false,
      "taf_trigger": false,
      "metar": "METAR EETN 020650Z 12013KT 5000 SN DRSN OVC029 M07/M09 Q0982 TEMPO 2000 BKN010",
      "taf": "TAF EETN 020530Z 0206/0306 12016KT 9999 BKN012 OVC030"
    },
    {
      "icao": "EFTU",
      "alert": "OK",
      "vis_m": 4700,
      "fzfg": false,
      "metar_trigger": false,
      "taf_trigger": false,
      "metar": "METAR EFTU 020650Z AUTO 08014KT 4700 -SN BKN021 OVC033 M07/M09 Q0982",
      "taf": "TAF EFTU 020527Z 0206/0306 08011KT 9999 -SN BKN012"
    },
    {
      "icao": "EGBB",
      "alert": "OK",
      "vis_m": 9999,
      "fzfg": false,
      "metar_trigger": false,
      "taf_trigger": false,
      "metar": "METAR EGBB 020620Z 31012KT CAVOK 01/M01 Q1005",
      "taf": "TAF EGBB 020457Z 0206/0306 31010KT 9999 FEW030"
    },
    {
      "icao": "EGGP",
      "alert": "OK",
      "vis_m": 9999,
      "fzfg": false,
      "metar_trigger": false,
      "taf_trigger": false,
      "metar": "METAR EGGP 020620Z 35005KT 9999 FEW040 01/M05 Q1006",
      "taf": "TAF EGGP 020455Z 0206/0306 32009KT 9999 FEW035"
    },
    {
      "icao": "EGGW",
      "alert": "OK",
      "vis_m": 9999,
      "fzfg": false,
      "metar_trigger": false,
      "taf_trigger": false,
      "metar": "METAR EGGW 020620Z AUTO 28011KT 9999 NCD M00/M01 Q1003",
      "taf": "TAF EGGW 020458Z 0206/0306 29012KT 9999 SCT015"
    },
    {
      "icao": "EGKK",
      "alert": "OK",
      "vis_m": 9999,
      "fzfg": false,
      "metar_trigger": false,
      "taf_trigger": false,
      "metar": "METAR EGKK 020620Z 28004KT 9999 FEW012 BKN037 01/01 Q1005",
      "taf": "TAF EGKK 020456Z 0206/0312 29009KT 9999 SCT025"
    },
    {
      "icao": "EGNM",
      "alert": "OK",
      "vis_m": 9999,
      "fzfg": false,
      "metar_trigger": false,
      "taf_trigger": false,
      "metar": "METAR EGNM 020620Z 29009KT CAVOK M01/M06 Q1003",
      "taf": "TAF EGNM 020524Z 0206/0306 29010KT 9999 FEW030"
    },
    {
      "icao": "EGPD",
      "alert": "OK",
      "vis_m": 1900,
      "fzfg": false,
      "metar_trigger": false,
      "taf_trigger": false,
      "metar": "METAR EGPD 020620Z AUTO 29017G28KT 1900 -SN SCT008 BKN014 BKN019 M00/M01 Q0999 RESN TEMPO BKN008",
      "taf": "TAF EGPD 020453Z 0206/0306 31012KT 9999 SCT012"
    },
    {
      "icao": "EGPF",
      "alert": "OK",
      "vis_m": 9999,
      "fzfg": false,
      "metar_trigger": false,
      "taf_trigger": false,
      "metar": "METAR EGPF 020620Z AUTO 27010KT 9999 NCD M00/M03 Q1006",
      "taf": "TAF EGPF 020455Z 0206/0306 29009KT 9999 FEW035"
    },
    {
      "icao": "EHBK",
      "alert": "OK",
      "vis_m": 9999,
      "fzfg": false,
      "metar_trigger": false,
      "taf_trigger": false,
      "metar": "METAR EHBK 020625Z AUTO 23011KT 210V270 9999 NCD 01/M01 Q1000 NOSIG",
      "taf": "TAF EHBK 020520Z 0206/0312 25013KT 9999 SCT022"
    },
    {
      "icao": "EHEH",
      "alert": "OK",
      "vis_m": 9999,
      "fzfg": false,
      "metar_trigger": false,
      "taf_trigger": false,
      "metar": "METAR EHEH 020625Z AUTO 27012KT 190V320 9999 -SN FEW000 SCT013 FEW015CB BKN019 01/M01 Q0999 RESN BLU NOSIG RMK TREND REMOTE BY EHWX",
      "taf": "TAF EHEH 020527Z 0206/0312 25010G20KT 9999 SCT035 BKN040"
    },
    {
      "icao": "EKBI",
      "alert": "OK",
      "vis_m": 9999,
      "fzfg": false,
      "metar_trigger": false,
      "taf_trigger": false,
      "metar": "METAR EKBI 020620Z 26006KT 9999 FEW007 SCT019 M01/M02 Q0981",
      "taf": "TAF EKBI 020527Z 0206/0306 26006KT 9999 SCT035"
    },
    {
      "icao": "EKCH",
      "alert": "OK",
      "vis_m": 9999,
      "fzfg": false,
      "metar_trigger": false,
      "taf_trigger": false,
      "metar": "METAR EKCH 020620Z 30013KT 9999 BKN037 02/M04 Q0977 TEMPO 30015G25KT",
      "taf": "TAF EKCH 020543Z 0206/0306 29012KT 9999 BKN030"
    },
    {
      "icao": "ENAL",
      "alert": "OK",
      "vis_m": 9999,
      "fzfg": false,
      "metar_trigger": false,
      "taf_trigger": false,
      "metar": "METAR ENAL 020620Z 08011KT 9999 -SN FEW008 SCT035 BKN061 M02/M05 Q0994",
      "taf": "TAF ENAL 020500Z 0206/0215 07012KT 9999 FEW010 SCT030"
    },
    {
      "icao": "ENBR",
      "alert": "OK",
      "vis_m": 9999,
      "fzfg": false,
      "metar_trigger": false,
      "taf_trigger": false,
      "metar": "METAR ENBR 020620Z 34014KT CAVOK M01/M10 Q0989 NOSIG RMK WIND 1200FT 36023G34KT",
      "taf": "TAF ENBR 020500Z 0206/0306 35015KT CAVOK"
    },
    {
      "icao": "ENGM",
      "alert": "OK",
      "vis_m": 1200,
      "fzfg": false,
      "metar_trigger": false,
      "taf_trigger": false,
      "metar": "METAR ENGM 020620Z 01023G33KT 1200 R19R/1900U R01R/1000D R19L/1700U R01L/1300D -SN BLSN OVC016 M07/M08 Q0983 NOSIG",
      "taf": "TAF ENGM 020500Z 0206/0306 36018KT 4000 -SN BKN020"
    },
    {
      "icao": "ENHD",
      "alert": "OK",
      "vis_m": 9999,
      "fzfg": false,
      "metar_trigger": false,
      "taf_trigger": false,
      "metar": "METAR ENHD 020620Z 01024KT CAVOK 01/M08 Q0986",
      "taf": "TAF ENHD 020500Z 0206/0215 36025KT CAVOK"
    },
    {
      "icao": "ENTC",
      "alert": "OK",
      "vis_m": 1300,
      "fzfg": false,
      "metar_trigger": false,
      "taf_trigger": false,
      "metar": "METAR ENTC 020620Z 20017KT 1300 R36/1700D R18/1600U -SHSN VV010 M09/M10 Q0998 TEMPO 34015KT 6000 -SHSN VV014 RMK WIND 2600FT 32013KT",
      "taf": ""
    },
    {
      "icao": "ENTO",
      "alert": "OK",
      "vis_m": 900,
      "fzfg": false,
      "metar_trigger": false,
      "taf_trigger": false,
      "metar": "METAR ENTO 020620Z 01021G36KT 0900 R18/P2000N R36/P2000N +RASN VV015 M04/M06 Q0981 NOSIG",
      "taf": "TAF ENTO 020500Z 0206/0306 35018KT 2500 -SN BKN015"
    },
    {
      "icao": "ENVA",
      "alert": "OK",
      "vis_m": 3000,
      "fzfg": false,
      "metar_trigger": false,
      "taf_trigger": false,
      "metar": "METAR ENVA 020620Z 07006KT 3000 -SHSN VV015 M07/M09 Q0993 TEMPO 9999 RMK WIND 670FT 08006KT",
      "taf": "TAF ENVA 020500Z 0206/0306 07008KT 8000 -SN FEW010 BKN025"
    },
    {
      "icao": "ENZV",
      "alert": "OK",
      "vis_m": 9999,
      "fzfg": false,
      "metar_trigger": false,
      "taf_trigger": false,
      "metar": "METAR ENZV 020620Z 36021KT CAVOK 01/M07 Q0985 NOSIG",
      "taf": ""
    },
    {
      "icao": "EPGD",
      "alert": "OK",
      "vis_m": 9999,
      "fzfg": false,
      "metar_trigger": false,
      "taf_trigger": false,
      "metar": "METAR EPGD 020630Z 21014KT 9999 SCT016 BKN025 01/M02 Q0981",
      "taf": "TAF EPGD 020530Z 0206/0306 23015KT 9999 SCT012 BKN020"
    },
    {
      "icao": "EPKK",
      "alert": "OK",
      "vis_m": 9999,
      "fzfg": false,
      "metar_trigger": false,
      "taf_trigger": false,
      "metar": "METAR EPKK 020630Z 19004KT 9999 -SN BKN023 00/M03 Q0996",
      "taf": "TAF EPKK 020530Z 0206/0306 23012KT 9999 BKN025"
    },
    {
      "icao": "EPKT",
      "alert": "OK",
      "vis_m": 9999,
      "fzfg": false,
      "metar_trigger": false,
      "taf_trigger": false,
      "metar": "METAR EPKT 020630Z 22019KT 9999 -SHSN FEW019 SCT022CB 00/M04 Q0994",
      "taf": "TAF EPKT 020530Z 0206/0306 23012KT 9999 BKN030"
    },
    {
      "icao": "EPLB",
      "alert": "OK",
      "vis_m": 1900,
      "fzfg": false,
      "metar_trigger": false,
      "taf_trigger": false,
      "metar": "METAR EPLB 020630Z 21012KT 1900 -SN BR FEW007 SCT009 OVC015 M01/M01 Q0994",
      "taf": "TAF EPLB 020530Z 0206/0306 21014KT 9999 BKN020"
    },
    {
      "icao": "EPMO",
      "alert": "OK",
      "vis_m": 9999,
      "fzfg": false,
      "metar_trigger": false,
      "taf_trigger": false,
      "metar": "METAR EPMO 020630Z 21013KT 9999 BKN010 01/M00 Q0989",
      "taf": "TAF EPMO 020530Z 0206/0306 22015KT 9999 BKN020"
    },
    {
      "icao": "EPPO",
      "alert": "OK",
      "vis_m": 9999,
      "fzfg": false,
      "metar_trigger": false,
      "taf_trigger": false,
      "metar": "METAR EPPO 020630Z 23013G24KT 9999 FEW024 BKN045 02/M02 Q0987",
      "taf": "TAF EPPO 020530Z 0206/0306 23014KT 9999 BKN020"
    },
    {
      "icao": "EPRA",
      "alert": "OK",
      "vis_m": 6000,
      "fzfg": false,
      "metar_trigger": false,
      "taf_trigger": false,
      "metar": "METAR EPRA 020630Z 24014KT 6000 -SN BKN018 M00/M02 Q0992",
      "taf": "TAF EPRA 020530Z 0206/0215 24015KT 8000 -SN BKN012 OVC025"
    },
    {
      "icao": "EPRZ",
      "alert": "OK",
      "vis_m": 9999,
      "fzfg": false,
      "metar_trigger": false,
      "taf_trigger": false,
      "metar": "METAR EPRZ 020630Z 19010KT 9999 BKN033 00/M04 Q0996",
      "taf": "TAF EPRZ 020530Z 0206/0306 20013KT 9999 BKN040"
    },
    {
      "icao": "EPSC",
      "alert": "OK",
      "vis_m": 9999,
      "fzfg": false,
      "metar_trigger": false,
      "taf_trigger": false,
      "metar": "METAR EPSC 020630Z 21016KT 180V240 9999 FEW013 OVC021 02/M01 Q0982",
      "taf": "TAF EPSC 020530Z 0206/0306 21015KT 9999 BKN020"
    },
    {
      "icao": "EPSY",
      "alert": "OK",
      "vis_m": 9999,
      "fzfg": false,
      "metar_trigger": false,
      "taf_trigger": false,
      "metar": "METAR EPSY 020630Z 21011KT 9999 SCT010 BKN017 01/M00 Q0986",
      "taf": "TAF EPSY 020530Z 0206/0215 23012KT 2000 RASN BR OVC003"
    },
    {
      "icao": "EPWA",
      "alert": "OK",
      "vis_m": 9999,
      "fzfg": false,
      "metar_trigger": false,
      "taf_trigger": false,
      "metar": "METAR EPWA 020630Z 21012KT 9999 -SN BKN012 BKN020 01/M01 Q0990 TEMPO 4000 SN BKN009",
      "taf": "TAF EPWA 020530Z 0206/0306 22014KT 9999 BKN020"
    },
    {
      "icao": "EPWR",
      "alert": "OK",
      "vis_m": 9999,
      "fzfg": false,
      "metar_trigger": false,
      "taf_trigger": false,
      "metar": "METAR EPWR 020630Z 23010KT 9999 BKN040 02/M03 Q0992",
      "taf": "TAF EPWR 020530Z 0206/0306 23012KT 9999 BKN040"
    },
    {
      "icao": "ESGG",
      "alert": "OK",
      "vis_m": 6000,
      "fzfg": false,
      "metar_trigger": false,
      "taf_trigger": false,
      "metar": "METAR ESGG 020620Z 36007KT 6000 OVC003 M03/M04 Q0974",
      "taf": "TAF ESGG 020530Z 0206/0306 35008KT 9000 BKN004"
    },
    {
      "icao": "ESKN",
      "alert": "OK",
      "vis_m": 9999,
      "fzfg": false,
      "metar_trigger": false,
      "taf_trigger": false,
      "metar": "METAR ESKN 020620Z 34007KT 9999 BKN004 M01/M01 Q0975",
      "taf": "TAF ESKN 020530Z 0206/0306 36004KT 7000 -SN BKN004"
    },
    {
      "icao": "ESMS",
      "alert": "OK",
      "vis_m": 9999,
      "fzfg": false,
      "metar_trigger": false,
      "taf_trigger": false,
      "metar": "METAR ESMS 020620Z 31019KT 9999 SCT022 BKN026 01/M02 Q0975",
      "taf": ""
    },
    {
      "icao": "ESSA",
      "alert": "OK",
      "vis_m": 2100,
      "fzfg": false,
      "metar_trigger": false,
      "taf_trigger": false,
      "metar": "METAR ESSA 020620Z 03010KT 2100 -SN OVC005 M00/M00 Q0976 TEMPO 03015G25KT 2000 -SN",
      "taf": "TAF ESSA 020530Z 0206/0306 02010G20KT 7000 -SN BKN006"
    },
    {
      "icao": "EYKA",
      "alert": "OK",
      "vis_m": 1900,
      "fzfg": false,
      "metar_trigger": false,
      "taf_trigger": false,
      "metar": "METAR EYKA 020650Z 20009KT 160V250 1900 SHSNRA BKN005CB OVC011 01/00 Q0984",
      "taf": "TAF EYKA 020500Z 0206/0306 20010KT 5000 BR OVC010"
    },
    {
      "icao": "EYPA",
      "alert": "OK",
      "vis_m": 9999,
      "fzfg": false,
      "metar_trigger": false,
      "taf_trigger": false,
      "metar": "METAR EYPA 020650Z 25008KT 190V300 9999 -SHRASN FEW009 BKN016CB OVC024 03/02 Q0979",
      "taf": "TAF EYPA 020500Z 0206/0306 23009KT 8000 SCT015 BKN030"
    },
    {
      "icao": "EYVI",
      "alert": "OK",
      "vis_m": 9999,
      "fzfg": false,
      "metar_trigger": false,
      "taf_trigger": false,
      "metar": "METAR EYVI 020650Z 21013KT 9999 OVC005 00/M01 Q0985 NOSIG",
      "taf": ""
    },
    {
      "icao": "GCFV",
      "alert": "OK",
      "vis_m": 9999,
      "fzfg": false,
      "metar_trigger": false,
      "taf_trigger": false,
      "metar": "METAR GCFV 020630Z 23012KT 9999 SCT025 19/15 Q1007",
      "taf": "TAF GCFV 020200Z 0203/0303 21012KT 9999 SCT025 TX23/0214Z TN17/0206Z"
    },
    {
      "icao": "GCLP",
      "alert": "OK",
      "vis_m": 9999,
      "fzfg": false,
      "metar_trigger": false,
      "taf_trigger": false,
      "metar": "METAR GCLP 020630Z 23011KT 9999 FEW040 19/14 Q1007 NOSIG",
      "taf": "TAF GCLP 020200Z 0203/0303 23013KT 9999 SCT030 BKN040 TX23/0214Z TN17/0206Z"
    },
    {
      "icao": "GCTS",
      "alert": "OK",
      "vis_m": 9000,
      "fzfg": false,
      "metar_trigger": false,
      "taf_trigger": false,
      "metar": "METAR GCTS 020630Z 27013KT 9000 -RA SCT020 18/15 Q1007 NOSIG",
      "taf": "TAF GCTS 020200Z 0203/0303 27012KT 9999 FEW030 TX25/0214Z TN18/0206Z"
    },
    {
      "icao": "GMAD",
      "alert": "OK",
      "vis_m": 9999,
      "fzfg": false,
      "metar_trigger": false,
      "taf_trigger": false,
      "metar": "METAR GMAD 020630Z 05006KT CAVOK 14/08 Q1009 NOSIG",
      "taf": "TAF GMAD 020500Z 0206/0312 07006KT 8000 SCT020 BKN080"
    },
    {
      "icao": "GMMN",
      "alert": "OK",
      "vis_m": 9999,
      "fzfg": false,
      "metar_trigger": false,
      "taf_trigger": false,
      "metar": "METAR GMMN 020630Z 18009KT 9999 FEW020 BKN200 13/09 Q1008 NOSIG",
      "taf": "TAF GMMN 020500Z 0206/0312 16005KT CAVOK"
    },
    {
      "icao": "GMMX",
      "alert": "OK",
      "vis_m": 9999,
      "fzfg": false,
      "metar_trigger": false,
      "taf_trigger": false,
      "metar": "METAR GMMX 020630Z 20024G39KT CAVOK 20/03 Q1007 NOSIG",
      "taf": "TAF GMMX 020500Z 0206/0312 24010KT 8000 NSC TEMP 0206/0223 34018G40KT"
    },
    {
      "icao": "HEGN",
      "alert": "OK",
      "vis_m": 9999,
      "fzfg": false,
      "metar_trigger": false,
      "taf_trigger": false,
      "metar": "METAR HEGN 020600Z 30012KT CAVOK 19/03 Q1020 NOSIG",
      "taf": "TAF HEGN 020500Z 0206/0312 31008KT CAVOK"
    },
    {
      "icao": "HEMA",
      "alert": "OK",
      "vis_m": 9999,
      "fzfg": false,
      "metar_trigger": false,
      "taf_trigger": false,
      "metar": "METAR HEMA 020600Z 31012KT CAVOK 20/12 Q1019 NOSIG",
      "taf": "TAF HEMA 020500Z 0206/0312 31008KT CAVOK"
    },
    {
      "icao": "HESH",
      "alert": "OK",
      "vis_m": 9999,
      "fzfg": false,
      "metar_trigger": false,
      "taf_trigger": false,
      "metar": "METAR HESH 020600Z 34009KT CAVOK 20/06 Q1019 NOSIG",
      "taf": "TAF HESH 020500Z 0206/0312 32008KT CAVOK"
    },
    {
      "icao": "HESX",
      "alert": "OK",
      "vis_m": 9999,
      "fzfg": false,
      "metar_trigger": false,
      "taf_trigger": false,
      "metar": "METAR HESX 020600Z 05004KT 9999 BR NSC 10/08 Q1021 NOSIG",
      "taf": "TAF HESX 020500Z 0206/0312 27008KT 6000 FEW025"
    },
    {
      "icao": "LATI",
      "alert": "OK",
      "vis_m": 9999,
      "fzfg": false,
      "metar_trigger": false,
      "taf_trigger": false,
      "metar": "METAR LATI 020650Z 17008KT 9999 BKN046 BKN094 OVC120 05/M06 Q1017 NOSIG",
      "taf": "TAF LATI 020500Z 0206/0306 VRB05KT 9999 SCT030 BKN050 TX12/0212Z TN03/0305Z"
    },
    {
      "icao": "LBPD",
      "alert": "OK",
      "vis_m": 9999,
      "fzfg": false,
      "metar_trigger": false,
      "taf_trigger": false,
      "metar": "METAR LBPD 020630Z AUTO 27004KT 9999 NCD M08/M10 Q1018 NOSIG",
      "taf": "TAF LBPD 020500Z 0206/0306 VRB03KT 9999 SCT070"
    },
    {
      "icao": "LBSF",
      "alert": "OK",
      "vis_m": 9999,
      "fzfg": false,
      "metar_trigger": false,
      "taf_trigger": false,
      "metar": "METAR LBSF 020630Z 20004KT 120V240 9999 FEW046 SCT088 M09/M11 Q1017 NOSIG",
      "taf": "TAF LBSF 020500Z 0206/0306 VRB03KT 9999 SCT040"
    },
    {
      "icao": "LBWN",
      "alert": "OK",
      "vis_m": 9999,
      "fzfg": false,
      "metar_trigger": false,
      "taf_trigger": false,
      "metar": "METAR LBWN 020630Z 35005KT CAVOK M01/M09 Q1016 NOSIG",
      "taf": "TAF LBWN 020500Z 0206/0306 VRB03KT CAVOK"
    },
    {
      "icao": "LCLK",
      "alert": "OK",
      "vis_m": 9999,
      "fzfg": false,
      "metar_trigger": false,
      "taf_trigger": false,
      "metar": "METAR LCLK 020630Z 32007KT 300V360 9999 FEW040 SCT060 10/04 Q1021 NOSIG",
      "taf": "TAF LCLK 020530Z 0206/0306 34009KT 9999 FEW030"
    },
    {
      "icao": "LCPH",
      "alert": "OK",
      "vis_m": 9999,
      "fzfg": false,
      "metar_trigger": false,
      "taf_trigger": false,
      "metar": "METAR LCPH 020630Z AUTO 07006KT 010V080 9999 NCD 10/02 Q1021 NOSIG",
      "taf": "TAF LCPH 020530Z 0206/0306 06008KT 9999 FEW030"
    },
    {
      "icao": "LEAL",
      "alert": "OK",
      "vis_m": 9999,
      "fzfg": false,
      "metar_trigger": false,
      "taf_trigger": false,
      "metar": "METAR LEAL 020630Z 27003KT CAVOK 08/08 Q1013 NOSIG",
      "taf": "TAF LEAL 020500Z 0206/0306 26004KT 9999 FEW030 TX16/0214Z TN08/0206Z"
    },
    {
      "icao": "LEBB",
      "alert": "OK",
      "vis_m": 9999,
      "fzfg": false,
      "metar_trigger": false,
      "taf_trigger": false,
      "metar": "METAR LEBB 020630Z VRB01KT CAVOK 07/04 Q1011 NOSIG",
      "taf": "TAF LEBB 020500Z 0206/0306 12006KT 9999 SCT070 TX12/0214Z TN07/0206Z"
    },
    {
      "icao": "LEBL",
      "alert": "OK",
      "vis_m": 9999,
      "fzfg": false,
      "metar_trigger": false,
      "taf_trigger": false,
      "metar": "METAR LEBL 020630Z 34013G24KT 9999 FEW015 04/01 Q1011 NOSIG",
      "taf": "TAF LEBL 020500Z 0206/0306 32009KT 9999 FEW015 TX15/0212Z TN05/0206Z"
    },
    {
      "icao": "LECH",
      "alert": "OK",
      "vis_m": 9999,
      "fzfg": false,
      "metar_trigger": false,
      "taf_trigger": false,
      "metar": "METAR LECH 020630Z AUTO 22001KT CAVOK 04/03 Q1011",
      "taf": ""
    },
    {
      "icao": "LEMD",
      "alert": "OK",
      "vis_m": 9999,
      "fzfg": false,
      "metar_trigger": false,
      "taf_trigger": false,
      "metar": "METAR LEMD 020630Z 01001KT 9999 SCT007 BKN010 OVC013 05/04 Q1012 NOSIG",
      "taf": "TAF LEMD 020500Z 0206/0312 VRB03KT 9999 FEW020 TX11/0215Z TN04/0208Z"
    },
    {
      "icao": "LEMG",
      "alert": "OK",
      "vis_m": 4000,
      "fzfg": false,
      "metar_trigger": false,
      "taf_trigger": false,
      "metar": "METAR LEMG 020630Z 28006KT 4000 BR FEW020 10/10 Q1013 NOSIG",
      "taf": "TAF LEMG 020500Z 0206/0306 29006KT 9999 FEW020 TX16/0214Z TN09/0207Z"
    },
    {
      "icao": "LEVC",
      "alert": "OK",
      "vis_m": 9999,
      "fzfg": false,
      "metar_trigger": false,
      "taf_trigger": false,
      "metar": "METAR LEVC 020630Z 25005KT CAVOK 09/07 Q1012 NOSIG",
      "taf": "TAF LEVC 020500Z 0206/0306 26007KT 9999 FEW035 TX17/0214Z TN07/0206Z"
    },
    {
      "icao": "LEXJ",
      "alert": "OK",
      "vis_m": 6000,
      "fzfg": false,
      "metar_trigger": false,
      "taf_trigger": false,
      "metar": "METAR LEXJ 020630Z 00000KT 6000 BKN086 06/04 Q1010",
      "taf": "TAF LEXJ 020200Z 0203/0303 10007KT 9999 FEW015 SCT070 TX12/0213Z TN05/0204Z"
    },
    {
      "icao": "LEZG",
      "alert": "OK",
      "vis_m": 7000,
      "fzfg": false,
      "metar_trigger": false,
      "taf_trigger": false,
      "metar": "METAR LEZG 020630Z VRB02KT 7000 OVC004 03/03 Q1013 NOSIG",
      "taf": ""
    },
    {
      "icao": "LEZL",
      "alert": "OK",
      "vis_m": 9999,
      "fzfg": false,
      "metar_trigger": false,
      "taf_trigger": false,
      "metar": "METAR LEZL 020630Z 06009KT CAVOK 11/09 Q1008 NOSIG",
      "taf": "TAF LEZL 020200Z 0203/0303 05007KT 9999 FEW040 TX18/0215Z TN09/0207Z"
    },
    {
      "icao": "LFBD",
      "alert": "OK",
      "vis_m": 6000,
      "fzfg": true,
      "metar_trigger": false,
      "taf_trigger": false,
      "metar": "METAR LFBD 020630Z AUTO 11006KT 080V140 6000 OVC004 M02/M02 Q1013 TEMPO 0300 FZFG VV///",
      "taf": ""
    },
    {
      "icao": "LFLL",
      "alert": "OK",
      "vis_m": 6000,
      "fzfg": false,
      "metar_trigger": false,
      "taf_trigger": false,
      "metar": "METAR LFLL 020630Z 20003KT 6000 NSC M05/M06 Q1011 NOSIG",
      "taf": "TAF LFLL 020500Z 0206/0312 VRB03KT 6000 NSC"
    },
    {
      "icao": "LFLS",
      "alert": "OK",
      "vis_m": 8000,
      "fzfg": false,
      "metar_trigger": false,
      "taf_trigger": false,
      "metar": "METAR LFLS 020630Z AUTO 10002KT 8000 BKN028 M04/M05 Q1011 TEMPO 4000 BR",
      "taf": ""
    },
    {
      "icao": "LFMN",
      "alert": "OK",
      "vis_m": 9999,
      "fzfg": false,
      "metar_trigger": false,
      "taf_trigger": false,
      "metar": "METAR LFMN 020630Z 33010KT CAVOK 04/M03 Q1006 NOSIG",
      "taf": "TAF LFMN 020200Z 0203/0309 32015KT CAVOK"
    },
    {
      "icao": "LFOB",
      "alert": "OK",
      "vis_m": 9999,
      "fzfg": false,
      "metar_trigger": false,
      "taf_trigger": false,
      "metar": "METAR LFOB 020630Z AUTO 26007KT CAVOK 02/01 Q1006 NOSIG",
      "taf": "TAF LFOB 020500Z 0206/0306 24010KT 9999 BKN025"
    },
    {
      "icao": "LFPO",
      "alert": "OK",
      "vis_m": 9999,
      "fzfg": false,
      "metar_trigger": false,
      "taf_trigger": false,
      "metar": "METAR LFPO 020630Z AUTO 24008KT 9999 BKN008 BKN029 01/00 Q1008 NOSIG",
      "taf": "TAF LFPO 020500Z 0206/0312 24010KT CAVOK"
    },
    {
      "icao": "LFSB",
      "alert": "OK",
      "vis_m": 9999,
      "fzfg": false,
      "metar_trigger": false,
      "taf_trigger": false,
      "metar": "METAR LFSB 020630Z AUTO VRB02KT 9999 BKN041 OVC052 M01/M05 Q1007 TEMPO 27012G22KT 3000 -SN BKN012",
      "taf": "TAF LFSB 020500Z 0206/0306 27010KT 9999 SCT028 BKN045"
    },
    {
      "icao": "LGAV",
      "alert": "OK",
      "vis_m": 9999,
      "fzfg": false,
      "metar_trigger": false,
      "taf_trigger": false,
      "metar": "METAR LGAV 020620Z VRB01KT CAVOK 01/M04 Q1022 NOSIG",
      "taf": "TAF LGAV 020500Z 0206/0306 24010KT 9999 FEW025"
    },
    {
      "icao": "LGTS",
      "alert": "OK",
      "vis_m": 9999,
      "fzfg": false,
      "metar_trigger": false,
      "taf_trigger": false,
      "metar": "METAR LGTS 020620Z VRB03KT CAVOK M04/M05 Q1021 NOSIG",
      "taf": "TAF LGTS 020500Z 0206/0306 VRB03KT 9999 FEW030"
    },
    {
      "icao": "LHBP",
      "alert": "OK",
      "vis_m": 9999,
      "fzfg": false,
      "metar_trigger": false,
      "taf_trigger": false,
      "metar": "METAR LHBP 020630Z VRB02KT CAVOK M02/M03 Q1003 NOSIG",
      "taf": ""
    },
    {
      "icao": "LHDC",
      "alert": "OK",
      "vis_m": 9999,
      "fzfg": false,
      "metar_trigger": false,
      "taf_trigger": false,
      "metar": "METAR LHDC 020615Z AUTO 20008KT 9999 SCT027 BKN067 01/M02 Q1004 NOSIG",
      "taf": "TAF LHDC 020515Z 0206/0215 20010KT CAVOK"
    },
    {
      "icao": "LIBD",
      "alert": "OK",
      "vis_m": 9999,
      "fzfg": false,
      "metar_trigger": false,
      "taf_trigger": false,
      "metar": "METAR LIBD 020620Z 15005KT CAVOK 09/06 Q1013",
      "taf": "TAF LIBD 020500Z 0206/0306 20015KT CAVOK"
    },
    {
      "icao": "LIBG",
      "alert": "OK",
      "vis_m": null,
      "fzfg": false,
      "metar_trigger": false,
      "taf_trigger": false,
      "metar": "",
      "taf": ""
    },
    {
      "icao": "LIBP",
      "alert": "OK",
      "vis_m": 9999,
      "fzfg": false,
      "metar_trigger": false,
      "taf_trigger": false,
      "metar": "METAR LIBP 020620Z AUTO VRB03KT 9999 BKN091/// 06/03 Q1010",
      "taf": "TAF LIBP 020500Z 0206/0306 22012KT CAVOK"
    },
    {
      "icao": "LIBR",
      "alert": "OK",
      "vis_m": 9999,
      "fzfg": false,
      "metar_trigger": false,
      "taf_trigger": false,
      "metar": "METAR LIBR 020620Z 16007KT CAVOK 10/07 Q1015",
      "taf": "TAF LIBR 020500Z 0206/0306 20012KT CAVOK"
    },
    {
      "icao": "LICA",
      "alert": "OK",
      "vis_m": 9999,
      "fzfg": false,
      "metar_trigger": false,
      "taf_trigger": false,
      "metar": "METAR LICA 020620Z AUTO 07006KT 9999 BKN056/// 07/05 Q1018",
      "taf": "TAF LICA 020500Z 0206/0306 07010KT 9999 SCT050"
    },
    {
      "icao": "LICC",
      "alert": "OK",
      "vis_m": 9999,
      "fzfg": false,
      "metar_trigger": false,
      "taf_trigger": false,
      "metar": "METAR LICC 020620Z 25008KT 9999 FEW070 06/04 Q1019",
      "taf": "TAF LICC 020500Z 0206/0306 25010KT 9999 SCT030"
    },
    {
      "icao": "LICJ",
      "alert": "OK",
      "vis_m": 9999,
      "fzfg": false,
      "metar_trigger": false,
      "taf_trigger": false,
      "metar": "METAR LICJ 020620Z 19014KT 9999 FEW040 14/09 Q1016",
      "taf": "TAF LICJ 020500Z 0206/0306 19018G30KT 9999 SCT030"
    },
    {
      "icao": "LIMC",
      "alert": "OK",
      "vis_m": 6000,
      "fzfg": false,
      "metar_trigger": false,
      "taf_trigger": false,
      "metar": "METAR LIMC 020620Z 04003KT 360V070 6000 2500SW BCFG SCT050 M01/M01 Q1006 NOSIG",
      "taf": "TAF LIMC 020500Z 0206/0312 VRB04KT 7000 BKN040"
    },
    {
      "icao": "LIME",
      "alert": "OK",
      "vis_m": 300,
      "fzfg": false,
      "metar_trigger": false,
      "taf_trigger": false,
      "metar": "METAR LIME 020620Z 24004KT 0300 R28/0400D FG BKN001 01/01 Q1006 NOSIG",
      "taf": ""
    },
    {
      "icao": "LIMF",
      "alert": "OK",
      "vis_m": 8000,
      "fzfg": false,
      "metar_trigger": false,
      "taf_trigger": false,
      "metar": "METAR LIMF 020620Z 25004KT 220V280 8000 NSC M01/M04 Q1006",
      "taf": "TAF LIMF 020500Z 0206/0306 VRB04KT 6000 BKN040"
    },
    {
      "icao": "LIMJ",
      "alert": "OK",
      "vis_m": 9999,
      "fzfg": false,
      "metar_trigger": false,
      "taf_trigger": false,
      "metar": "METAR LIMJ 020620Z 08006KT 9999 SCT035 07/03 Q1005",
      "taf": "TAF LIMJ 020500Z 0206/0306 VRB05KT 9999 SCT025"
    },
    {
      "icao": "LIPE",
      "alert": "OK",
      "vis_m": 4000,
      "fzfg": false,
      "metar_trigger": false,
      "taf_trigger": false,
      "metar": "METAR LIPE 020620Z 25002KT 4000 BR FEW065 00/M00 Q1007",
      "taf": "TAF LIPE 020500Z 0206/0306 VRB05KT 9999 SCT010 BKN050"
    },
    {
      "icao": "LIPH",
      "alert": "OK",
      "vis_m": 9999,
      "fzfg": false,
      "metar_trigger": false,
      "taf_trigger": false,
      "metar": "METAR LIPH 020620Z AUTO VRB02KT 9999 SCT026/// OVC058/// 02/M01 Q1006",
      "taf": "TAF LIPH 020500Z 0206/0306 VRB04KT 9999 OVC030"
    },
    {
      "icao": "LIPQ",
      "alert": "OK",
      "vis_m": 9999,
      "fzfg": false,
      "metar_trigger": false,
      "taf_trigger": false,
      "metar": "METAR LIPQ 020620Z AUTO 02003KT 9999 -RA OVC023/// 03/02 Q1006",
      "taf": "TAF LIPQ 020500Z 0206/0306 VRB05KT 9999 FEW030"
    },
    {
      "icao": "LIPR",
      "alert": "OK",
      "vis_m": 9999,
      "fzfg": false,
      "metar_trigger": false,
      "taf_trigger": false,
      "metar": "METAR LIPR 020620Z 18004KT 9999 BKN060 07/04 Q1006",
      "taf": "TAF LIPR 020500Z 0206/0306 18010KT CAVOK"
    },
    {
      "icao": "LIPX",
      "alert": "OK",
      "vis_m": 500,
      "fzfg": false,
      "metar_trigger": false,
      "taf_trigger": false,
      "metar": "METAR LIPX 020620Z VRB01KT 0500 R04/0700D FG VV002 01/01 Q1006",
      "taf": ""
    },
    {
      "icao": "LIPY",
      "alert": "OK",
      "vis_m": 9999,
      "fzfg": false,
      "metar_trigger": false,
      "taf_trigger": false,
      "metar": "METAR LIPY 020620Z AUTO VRB02KT 9999 BKN055/// 05/02 Q1007",
      "taf": "TAF LIPY 020500Z 0206/0306 VRB05KT 9999 OVC030"
    },
    {
      "icao": "LIPZ",
      "alert": "OK",
      "vis_m": 9999,
      "fzfg": false,
      "metar_trigger": false,
      "taf_trigger": false,
      "metar": "METAR LIPZ 020620Z 35005KT 9999 BKN050 01/M02 Q1007 NOSIG",
      "taf": "TAF LIPZ 020500Z 0206/0312 VRB05KT 9999 BKN030"
    },
    {
      "icao": "LIRF",
      "alert": "OK",
      "vis_m": 9999,
      "fzfg": false,
      "metar_trigger": false,
      "taf_trigger": false,
      "metar": "METAR LIRF 020620Z 25012KT 9999 -RA SCT030 SCT050 13/08 Q1011 NOSIG",
      "taf": "TAF LIRF 020500Z 0206/0312 VRB05KT 9999 BKN030"
    },
    {
      "icao": "LIRN",
      "alert": "OK",
      "vis_m": 9999,
      "fzfg": false,
      "metar_trigger": false,
      "taf_trigger": false,
      "metar": "METAR LIRN 020620Z 22007KT 190V250 9999 FEW050 13/07 Q1013 NOSIG",
      "taf": "TAF LIRN 020500Z 0206/0306 23010KT 9999 SCT040"
    },
    {
      "icao": "LIRP",
      "alert": "OK",
      "vis_m": 9999,
      "fzfg": false,
      "metar_trigger": false,
      "taf_trigger": false,
      "metar": "METAR LIRP 020615Z 24016KT 9999 FEW030 BKN070 12/07 Q1007 NOSIG",
      "taf": "TAF LIRP 020500Z 0206/0306 24012KT 9999 SCT030 SCT060"
    },
    {
      "icao": "LIRZ",
      "alert": "OK",
      "vis_m": 9999,
      "fzfg": false,
      "metar_trigger": false,
      "taf_trigger": false,
      "metar": "METAR LIRZ 020620Z AUTO 25004KT 9999 BKN040/// BKN075/// 05/05 Q1009",
      "taf": "TAF LIRZ 020500Z 0206/0306 19012KT 9999 BKN040"
    },
    {
      "icao": "LJLJ",
      "alert": "OK",
      "vis_m": 9999,
      "fzfg": false,
      "metar_trigger": false,
      "taf_trigger": false,
      "metar": "METAR LJLJ 020630Z 21006KT 9999 BKN025 OVC035 03/M00 Q1004 NOSIG",
      "taf": "TAF LJLJ 020500Z 0206/0306 30004KT 9999 BKN025 OVC045"
    },
    {
      "icao": "LKMT",
      "alert": "OK",
      "vis_m": 9999,
      "fzfg": false,
      "metar_trigger": false,
      "taf_trigger": false,
      "metar": "METAR LKMT 020630Z 22024KT CAVOK 01/M04 Q0997 NOSIG",
      "taf": "TAF LKMT 020500Z 0206/0306 21018KT 9999 SCT040"
    },
    {
      "icao": "LKPR",
      "alert": "OK",
      "vis_m": 9999,
      "fzfg": false,
      "metar_trigger": false,
      "taf_trigger": false,
      "metar": "METAR LKPR 020630Z 21027G37KT 9999 FEW020 SCT040 00/M03 Q0994 TEMPO 6000 -SN BKN017",
      "taf": "TAF LKPR 020500Z 0206/0312 24017KT 9999 BKN025"
    },
    {
      "icao": "LLBG",
      "alert": "OK",
      "vis_m": 9999,
      "fzfg": false,
      "metar_trigger": false,
      "taf_trigger": false,
      "metar": "METAR LLBG 020620Z 16005KT 9999 BKN040 13/12 Q1021 NOSIG",
      "taf": "TAF LLBG 020505Z 0206/0306 17006KT 9999 BKN035"
    },
    {
      "icao": "LMML",
      "alert": "OK",
      "vis_m": 9999,
      "fzfg": false,
      "metar_trigger": false,
      "taf_trigger": false,
      "metar": "METAR LMML 020645Z 22007KT 9999 FEW025 13/10 Q1020 NOSIG",
      "taf": ""
    },
    {
      "icao": "LOWW",
      "alert": "OK",
      "vis_m": 9999,
      "fzfg": false,
      "metar_trigger": false,
      "taf_trigger": false,
      "metar": "METAR LOWW 020620Z 27010KT CAVOK 03/M07 Q1002 NOSIG",
      "taf": ""
    },
    {
      "icao": "LPFR",
      "alert": "OK",
      "vis_m": 9999,
      "fzfg": false,
      "metar_trigger": false,
      "taf_trigger": false,
      "metar": "METAR LPFR 020630Z 14016KT 9999 FEW010 16/15 Q1006",
      "taf": "TAF LPFR 020500Z 0206/0306 13015KT 9999 FEW010 SCT030"
    },
    {
      "icao": "LPMA",
      "alert": "OK",
      "vis_m": 9999,
      "fzfg": false,
      "metar_trigger": false,
      "taf_trigger": false,
      "metar": "METAR LPMA 020630Z 33009KT 290V020 9999 BKN015 FEW018CB 15/10 Q0997",
      "taf": "TAF LPMA 020500Z 0206/0306 22017KT 9999 SCT013 SCT030"
    },
    {
      "icao": "LPPR",
      "alert": "OK",
      "vis_m": 9999,
      "fzfg": false,
      "metar_trigger": false,
      "taf_trigger": false,
      "metar": "METAR LPPR 020630Z 11013KT 9999 BKN045 13/09 Q1002",
      "taf": "TAF LPPR 020500Z 0206/0306 11013KT 9999 SCT040"
    },
    {
      "icao": "LPPS",
      "alert": "OK",
      "vis_m": 9999,
      "fzfg": false,
      "metar_trigger": false,
      "taf_trigger": false,
      "metar": "METAR LPPS 020630Z 29012KT 9999 SCT013 FEW018CB 14/12 Q0998",
      "taf": "TAF LPPS 020500Z 0206/0312 27020KT 9999 SCT013 SCT030"
    },
    {
      "icao": "LPPT",
      "alert": "OK",
      "vis_m": 9000,
      "fzfg": false,
      "metar_trigger": false,
      "taf_trigger": false,
      "metar": "METAR LPPT 020630Z 13008G18KT 9000 -RA SCT004 BKN012 13/13 Q1002 RERA",
      "taf": "TAF LPPT 020500Z 0206/0312 14013KT 9999 SCT012 BKN025"
    },
    {
      "icao": "LQBK",
      "alert": "OK",
      "vis_m": 9999,
      "fzfg": false,
      "metar_trigger": false,
      "taf_trigger": false,
      "metar": "METAR LQBK 020630Z 14008KT CAVOK 01/M01 Q1005 NOSIG",
      "taf": "TAF LQBK 020500Z 0206/0306 22005KT CAVOK TX12/0213Z TN00/0306Z"
    },
    {
      "icao": "LQSA",
      "alert": "OK",
      "vis_m": 9999,
      "fzfg": false,
      "metar_trigger": false,
      "taf_trigger": false,
      "metar": "METAR LQSA 020630Z 13016KT 9999 BKN050 06/00 Q1008 NOSIG",
      "taf": "TAF LQSA 020500Z 0206/0306 14005KT CAVOK TX08/0213Z TN01/0301Z"
    },
    {
      "icao": "LQTZ",
      "alert": "OK",
      "vis_m": 9999,
      "fzfg": false,
      "metar_trigger": false,
      "taf_trigger": false,
      "metar": "METAR LQTZ 020630Z 12004KT 070V170 9999 FEW060 05/M02 Q1006",
      "taf": "TAF LQTZ 020500Z 0206/0306 16005KT CAVOK TX13/0213Z TN01/0306Z"
    },
    {
      "icao": "LRBC",
      "alert": "OK",
      "vis_m": 9999,
      "fzfg": false,
      "metar_trigger": false,
      "taf_trigger": false,
      "metar": "METAR LRBC 020630Z 14010KT CAVOK M02/M08 Q1006",
      "taf": "TAF LRBC 020500Z 0206/0215 16012KT CAVOK"
    },
    {
      "icao": "LRBS",
      "alert": "OK",
      "vis_m": 9999,
      "fzfg": false,
      "metar_trigger": false,
      "taf_trigger": false,
      "metar": "METAR LRBS 020630Z 25002KT CAVOK M03/M07 Q1014 NOSIG",
      "taf": "TAF LRBS 020500Z 0206/0306 VRB04KT CAVOK"
    },
    {
      "icao": "LRBV",
      "alert": "OK",
      "vis_m": 9999,
      "fzfg": false,
      "metar_trigger": false,
      "taf_trigger": false,
      "metar": "METAR LRBV 020630Z 22010KT 9999 SCT056 BKN086 00/M06 Q1007",
      "taf": "TAF LRBV 020500Z 0206/0215 27006KT 9999 BKN050"
    },
    {
      "icao": "LRCL",
      "alert": "OK",
      "vis_m": 9999,
      "fzfg": false,
      "metar_trigger": false,
      "taf_trigger": false,
      "metar": "METAR LRCL 020630Z VRB02KT 9999 OVC049 02/M03 Q1005",
      "taf": "TAF LRCL 020500Z 0206/0215 VRB04KT 9999 BKN050"
    },
    {
      "icao": "LRCV",
      "alert": "OK",
      "vis_m": 9999,
      "fzfg": false,
      "metar_trigger": false,
      "taf_trigger": false,
      "metar": "METAR LRCV 020630Z 08004KT CAVOK M04/M06 Q1012",
      "taf": "TAF LRCV 020500Z 0206/0215 VRB04KT CAVOK"
    },
    {
      "icao": "LRIA",
      "alert": "OK",
      "vis_m": 9999,
      "fzfg": false,
      "metar_trigger": false,
      "taf_trigger": false,
      "metar": "METAR LRIA 020630Z 14005KT 100V180 CAVOK M01/M06 Q1005",
      "taf": "TAF LRIA 020500Z 0206/0215 10007KT CAVOK"
    },
    {
      "icao": "LROP",
      "alert": "OK",
      "vis_m": 9999,
      "fzfg": false,
      "metar_trigger": false,
      "taf_trigger": false,
      "metar": "METAR LROP 020630Z 22005KT CAVOK M03/M08 Q1013 NOSIG",
      "taf": "TAF LROP 020500Z 0206/0306 VRB04KT CAVOK"
    },
    {
      "icao": "LRSB",
      "alert": "OK",
      "vis_m": 9999,
      "fzfg": false,
      "metar_trigger": false,
      "taf_trigger": false,
      "metar": "METAR LRSB 020630Z VRB02KT 9999 SCT055 M02/M05 Q1007",
      "taf": "TAF LRSB 020500Z 0206/0306 VRB04KT 9999 BKN045"
    },
    {
      "icao": "LRSM",
      "alert": "OK",
      "vis_m": 9999,
      "fzfg": false,
      "metar_trigger": false,
      "taf_trigger": false,
      "metar": "METAR LRSM 020630Z 22012KT 9999 FEW030 03/M01 Q1004",
      "taf": "TAF LRSM 020500Z 0206/0215 24012KT 9999 BKN040"
    },
    {
      "icao": "LRSV",
      "alert": "OK",
      "vis_m": 9999,
      "fzfg": false,
      "metar_trigger": false,
      "taf_trigger": false,
      "metar": "METAR LRSV 020630Z 19011KT CAVOK 00/M05 Q1001",
      "taf": "TAF LRSV 020500Z 0206/0215 21010KT CAVOK"
    },
    {
      "icao": "LRTM",
      "alert": "OK",
      "vis_m": 9999,
      "fzfg": false,
      "metar_trigger": false,
      "taf_trigger": false,
      "metar": "METAR LRTM 020630Z 20014KT 9999 SCT045 03/M04 Q1006",
      "taf": "TAF LRTM 020500Z 0206/0215 VRB04KT 9999 BKN050"
    },
    {
      "icao": "LRTR",
      "alert": "OK",
      "vis_m": 9999,
      "fzfg": false,
      "metar_trigger": false,
      "taf_trigger": false,
      "metar": "METAR LRTR 020630Z 19015KT CAVOK 03/M08 Q1007",
      "taf": "TAF LRTR 020500Z 0206/0306 18013KT 9999 BKN045"
    },
    {
      "icao": "LTAC",
      "alert": "OK",
      "vis_m": 9999,
      "fzfg": false,
      "metar_trigger": false,
      "taf_trigger": false,
      "metar": "METAR LTAC 020620Z 03003KT 360V060 CAVOK M13/M16 Q1022 NOSIG RMK RWY21C 00000KT RWY03L VRB02KT RWY21R 00000KT RWY03R 00000KT RWY21L 00000KT",
      "taf": "TAF LTAC 020440Z 0206/0306 VRB02KT CAVOK"
    },
    {
      "icao": "LTFM",
      "alert": "OK",
      "vis_m": 9999,
      "fzfg": false,
      "metar_trigger": false,
      "taf_trigger": false,
      "metar": "METAR LTFM 020620Z 19012KT CAVOK 01/M04 Q1021 NOSIG RMK RWY17L 19016KT RWY34L 18014KT RWY16R 18015KT RWY36 19011KT RWY18 19016KT",
      "taf": "TAF LTFM 020440Z 0206/0312 20018KT CAVOK"
    },
    {
      "icao": "LUKK",
      "alert": "OK",
      "vis_m": 9999,
      "fzfg": false,
      "metar_trigger": false,
      "taf_trigger": false,
      "metar": "METAR LUKK 020630Z 25007KT 210V270 CAVOK M03/M07 Q1007 TEMPO 22016G26KT",
      "taf": "TAF LUKK 020521Z 0206/0306 21012KT CAVOK"
    },
    {
      "icao": "LWOH",
      "alert": "OK",
      "vis_m": 9999,
      "fzfg": false,
      "metar_trigger": false,
      "taf_trigger": false,
      "metar": "METAR LWOH 020650Z 32003KT 9999 FEW020 SCT050 M05/M06 Q1017",
      "taf": "TAF LWOH 020540Z 0206/0306 VRB03KT 9999 SCT050"
    },
    {
      "icao": "LWSK",
      "alert": "OK",
      "vis_m": 9999,
      "fzfg": false,
      "metar_trigger": false,
      "taf_trigger": false,
      "metar": "METAR LWSK 020650Z 06003KT 360V090 CAVOK M09/M11 Q1020 NOSIG",
      "taf": "TAF LWSK 020540Z 0206/0306 VRB02KT CAVOK"
    },
    {
      "icao": "LYBE",
      "alert": "OK",
      "vis_m": 9999,
      "fzfg": false,
      "metar_trigger": false,
      "taf_trigger": false,
      "metar": "METAR LYBE 020630Z 17012KT CAVOK 06/M06 Q1008 NOSIG",
      "taf": "TAF LYBE 020500Z 0206/0306 17012KT CAVOK TX11/0212Z TN01/0306Z"
    },
    {
      "icao": "LYNI",
      "alert": "OK",
      "vis_m": 9999,
      "fzfg": false,
      "metar_trigger": false,
      "taf_trigger": false,
      "metar": "METAR LYNI 020630Z 15003KT 110V200 CAVOK 03/M09 Q1015 NOSIG",
      "taf": "TAF LYNI 020500Z 0206/0306 16009KT CAVOK TX09/0212Z TNM00/0206Z"
    },
    {
      "icao": "LYPG",
      "alert": "OK",
      "vis_m": 3000,
      "fzfg": false,
      "metar_trigger": false,
      "taf_trigger": false,
      "metar": "METAR LYPG 020630Z 27003KT 3000 SN FEW030 BKN040 OVC070 M01/M03 Q1019 NOSIG",
      "taf": "TAF LYPG 020500Z 0206/0306 36006KT 9999 FEW030 BKN040 OVC080 TX06/0218Z TN01/0206Z"
    },
    {
      "icao": "LZIB",
      "alert": "OK",
      "vis_m": 9999,
      "fzfg": false,
      "metar_trigger": false,
      "taf_trigger": false,
      "metar": "METAR LZIB 020630Z 25016KT CAVOK 05/M08 Q1001 NOSIG",
      "taf": "TAF LZIB 020515Z 0206/0306 27016KT CAVOK"
    },
    {
      "icao": "LZKZ",
      "alert": "OK",
      "vis_m": 9999,
      "fzfg": false,
      "metar_trigger": false,
      "taf_trigger": false,
      "metar": "METAR LZKZ 020630Z 19006KT CAVOK M02/M04 Q1000 NOSIG",
      "taf": "TAF LZKZ 020515Z 0206/0306 22010KT 9999 SCT020"
    },
    {
      "icao": "LZTT",
      "alert": "OK",
      "vis_m": 9999,
      "fzfg": false,
      "metar_trigger": false,
      "taf_trigger": false,
      "metar": "METAR LZTT 020630Z 25014KT 9999 -SN FEW020 BKN033 M02/M06 Q0996 NOSIG",
      "taf": "TAF LZTT 020515Z 0206/0306 26015KT 9999 BKN033"
    },
    {
      "icao": "OEJN",
      "alert": "OK",
      "vis_m": 9999,
      "fzfg": false,
      "metar_trigger": false,
      "taf_trigger": false,
      "metar": "METAR OEJN 020600Z 00000KT CAVOK 25/11 Q1016 NOSIG",
      "taf": "TAF OEJN 020500Z 0206/0312 33012KT CAVOK"
    },
    {
      "icao": "OEMA",
      "alert": "OK",
      "vis_m": 9999,
      "fzfg": false,
      "metar_trigger": false,
      "taf_trigger": false,
      "metar": "METAR OEMA 020600Z 15002KT CAVOK 15/M02 Q1022 NOSIG",
      "taf": "TAF OEMA 020500Z 0206/0312 09010KT CAVOK"
    },
    {
      "icao": "OJAI",
      "alert": "OK",
      "vis_m": 3500,
      "fzfg": false,
      "metar_trigger": false,
      "taf_trigger": false,
      "metar": "METAR OJAI 020600Z 19003KT 3500 BR FEW020 BKN025 08/07 Q1021 NOSIG",
      "taf": ""
    },
    {
      "icao": "OMAA",
      "alert": "OK",
      "vis_m": 9999,
      "fzfg": false,
      "metar_trigger": false,
      "taf_trigger": false,
      "metar": "METAR OMAA 020600Z 22006KT 9999 FEW030 19/14 Q1021 NOSIG",
      "taf": "TAF OMAA 020500Z 0206/0312 22005KT 9999 FEW040"
    },
    {
      "icao": "OMDB",
      "alert": "OK",
      "vis_m": 9999,
      "fzfg": false,
      "metar_trigger": false,
      "taf_trigger": false,
      "metar": "METAR OMDB 020630Z 18006KT 140V210 CAVOK 20/12 Q1021 NOSIG",
      "taf": "TAF OMDB 020500Z 0206/0312 20005KT 8000 NSC"
    },
    {
      "icao": "UAAA",
      "alert": "OK",
      "vis_m": 4600,
      "fzfg": false,
      "metar_trigger": false,
      "taf_trigger": false,
      "metar": "METAR UAAA 020630Z 36002MPS 4600 BR BKN007 OVC018 00/M01 Q1019 NOSIG",
      "taf": "TAF UAAA 020503Z 0206/0306 03003MPS 5000 BR BKN011 OVC030 TX02/0209Z TNM02/0302Z"
    },
    {
      "icao": "UBBB",
      "alert": "OK",
      "vis_m": 5000,
      "fzfg": false,
      "metar_trigger": false,
      "taf_trigger": false,
      "metar": "METAR UBBB 020630Z 32026G40KT 5000 -SHRASN BKN010 BKN021CB OVC021 03/01 Q1021 NOSIG",
      "taf": "TAF UBBB 020503Z 0206/0306 32026G36KT 9999 SCT015 FEW030CB OVC030 TX04/0209Z TN02/0302Z"
    },
    {
      "icao": "UDSG",
      "alert": "OK",
      "vis_m": 9999,
      "fzfg": false,
      "metar_trigger": false,
      "taf_trigger": false,
      "metar": "METAR UDSG 020630Z 33007KT 310V030 9999 SCT043 M07/M16 Q1018 NOSIG",
      "taf": "TAF UDSG 020458Z 0206/0306 VRB06KT 5000 BR BKN030"
    },
    {
      "icao": "UDYZ",
      "alert": "OK",
      "vis_m": 5000,
      "fzfg": false,
      "metar_trigger": false,
      "taf_trigger": false,
      "metar": "METAR UDYZ 020630Z 14008KT 5000 -SHSN BR OVC026CB M02/M05 Q1019 NOSIG",
      "taf": "TAF UDYZ 020500Z 0206/0306 14006KT 3500 BR BKN030"
    },
    {
      "icao": "UGKO",
      "alert": "OK",
      "vis_m": 9999,
      "fzfg": false,
      "metar_trigger": false,
      "taf_trigger": false,
      "metar": "METAR UGKO 020630Z 25008KT CAVOK 03/M05 Q1026 NOSIG",
      "taf": "TAF UGKO 020500Z 0206/0306 24010KT CAVOK TX06/0211Z TNM04/0303Z"
    }
  ]
}