{
  "ts_utc": "2026-01-11T20:43:19Z",
  "threshold_m": 150,
  "source": "stations_override.txt (ICAO list) + aviationweather.gov (METAR/TAF raw)",
  "station_count": 159,
  "stations": [
    {
      "icao": "BIKF",
      "alert": "OK",
      "vis_m": 9999,
      "fzfg": false,
      "metar_trigger": false,
      "taf_trigger": false,
      "metar": "METAR BIKF 112030Z 03018KT CAVOK M01/M06 Q0993",
      "taf": "TAF BIKF 111955Z 1121/1221 02022KT 9999 FEW030 TX00/1203Z TNM03/1218Z"
    },
    {
      "icao": "BKPR",
      "alert": "OK",
      "vis_m": 9999,
      "fzfg": false,
      "metar_trigger": false,
      "taf_trigger": false,
      "metar": "METAR BKPR 112030Z 31004KT 9999 BKN055 M06/M09 Q1018 NOSIG",
      "taf": ""
    },
    {
      "icao": "EBCI",
      "alert": "OK",
      "vis_m": 9999,
      "fzfg": false,
      "metar_trigger": false,
      "taf_trigger": false,
      "metar": "METAR EBCI 112020Z 16016KT 9999 FEW014 01/M02 Q1016 NOSIG",
      "taf": "TAF EBCI 111700Z 1118/1224 17012KT 9999 BKN014"
    },
    {
      "icao": "EDDB",
      "alert": "OK",
      "vis_m": 9999,
      "fzfg": false,
      "metar_trigger": false,
      "taf_trigger": false,
      "metar": "METAR EDDB 112020Z AUTO 27006KT CAVOK M11/M12 Q1023 NOSIG",
      "taf": "TAF EDDB 111700Z 1118/1218 28009KT CAVOK"
    },
    {
      "icao": "EDDH",
      "alert": "OK",
      "vis_m": 9999,
      "fzfg": false,
      "metar_trigger": false,
      "taf_trigger": false,
      "metar": "METAR EDDH 112020Z AUTO 12005KT 090V150 CAVOK M07/M08 Q1022 NOSIG",
      "taf": "TAF EDDH 111700Z 1118/1224 VRB03KT 6000 NSC"
    },
    {
      "icao": "EDDK",
      "alert": "OK",
      "vis_m": 9999,
      "fzfg": false,
      "metar_trigger": false,
      "taf_trigger": false,
      "metar": "METAR EDDK 112020Z AUTO 13009KT 9999 BKN018 M01/M03 Q1021 NOSIG",
      "taf": "TAF EDDK 111700Z 1118/1224 14009KT 9999 BKN020"
    },
    {
      "icao": "EDDN",
      "alert": "OK",
      "vis_m": 9999,
      "fzfg": false,
      "metar_trigger": false,
      "taf_trigger": false,
      "metar": "METAR EDDN 112020Z AUTO VRB02KT 9999 BKN015 M07/M09 Q1024 NOSIG",
      "taf": ""
    },
    {
      "icao": "EDDS",
      "alert": "OK",
      "vis_m": 9999,
      "fzfg": false,
      "metar_trigger": false,
      "taf_trigger": false,
      "metar": "METAR EDDS 112020Z AUTO 15003KT CAVOK M03/M05 Q1022 NOSIG",
      "taf": "TAF EDDS 111700Z 1118/1218 18004KT 9999 BKN020"
    },
    {
      "icao": "EDFH",
      "alert": "OK",
      "vis_m": 8000,
      "fzfg": false,
      "metar_trigger": false,
      "taf_trigger": false,
      "metar": "METAR EDFH 112020Z 17010KT 8000 BKN004 M03/M04 Q1020",
      "taf": "TAF EDFH 111700Z 1118/1218 16008KT 8000 BKN005"
    },
    {
      "icao": "EDJA",
      "alert": "OK",
      "vis_m": 9000,
      "fzfg": false,
      "metar_trigger": false,
      "taf_trigger": false,
      "metar": "METAR EDJA 112020Z 15005KT 9000 NSC M08/M09 Q1022",
      "taf": "TAF EDJA 111700Z 1118/1203 19004KT CAVOK"
    },
    {
      "icao": "EDLW",
      "alert": "OK",
      "vis_m": 9999,
      "fzfg": false,
      "metar_trigger": false,
      "taf_trigger": false,
      "metar": "METAR EDLW 112020Z 17009KT 9999 FEW014 M02/M04 Q1019",
      "taf": "TAF EDLW 111700Z 1118/1218 17008KT 9999 FEW015"
    },
    {
      "icao": "EDNY",
      "alert": "OK",
      "vis_m": 9999,
      "fzfg": false,
      "metar_trigger": false,
      "taf_trigger": false,
      "metar": "METAR EDNY 112020Z AUTO 04004KT 9999 // BKN250/// M03/M04 Q1023",
      "taf": "TAF EDNY 111700Z 1118/1203 06003KT 9999 BKN020"
    },
    {
      "icao": "EDSB",
      "alert": "OK",
      "vis_m": 6000,
      "fzfg": false,
      "metar_trigger": false,
      "taf_trigger": false,
      "metar": "METAR EDSB 112020Z 07001KT 6000 OVC025 M01/M02 Q1024",
      "taf": "TAF EDSB 111700Z 1118/1218 08004KT 9999 BKN025"
    },
    {
      "icao": "EETN",
      "alert": "OK",
      "vis_m": 1000,
      "fzfg": false,
      "metar_trigger": false,
      "taf_trigger": false,
      "metar": "METAR EETN 112020Z 09008KT 1000 R08/P2000N +SN VV011 M05/M06 Q1013 TEMPO 0600",
      "taf": "TAF EETN 111730Z 1118/1218 03012KT 5000 SN SCT015 OVC020"
    },
    {
      "icao": "EFTU",
      "alert": "OK",
      "vis_m": 9999,
      "fzfg": false,
      "metar_trigger": false,
      "taf_trigger": false,
      "metar": "METAR EFTU 112020Z AUTO 04006KT 9999 -SHSN BKN045 M07/M09 Q1017",
      "taf": "TAF EFTU 112032Z 1121/1221 03007KT 9999 -SN SCT025"
    },
    {
      "icao": "EGBB",
      "alert": "OK",
      "vis_m": 6000,
      "fzfg": false,
      "metar_trigger": false,
      "taf_trigger": false,
      "metar": "METAR EGBB 112020Z 16014KT 6000 -RA OVC008 09/08 Q0997 RERA REDZ",
      "taf": "TAF EGBB 111703Z 1118/1218 17015KT 9999 -RA BKN010"
    },
    {
      "icao": "EGGP",
      "alert": "OK",
      "vis_m": 7000,
      "fzfg": false,
      "metar_trigger": false,
      "taf_trigger": false,
      "metar": "METAR EGGP 112020Z 17014G24KT 7000 RA SCT012 BKN016 BKN039 09/08 Q0992",
      "taf": ""
    },
    {
      "icao": "EGGW",
      "alert": "OK",
      "vis_m": 4300,
      "fzfg": false,
      "metar_trigger": false,
      "taf_trigger": false,
      "metar": "METAR EGGW 112020Z AUTO 17013KT 4300 BR OVC004 07/06 Q1002",
      "taf": ""
    },
    {
      "icao": "EGKK",
      "alert": "OK",
      "vis_m": 3000,
      "fzfg": false,
      "metar_trigger": false,
      "taf_trigger": false,
      "metar": "METAR EGKK 112020Z 18014G27KT 3000 -RADZ BKN007 08/07 Q1005",
      "taf": "TAF EGKK 111657Z 1118/1224 16013KT 9999 BKN010"
    },
    {
      "icao": "EGNM",
      "alert": "OK",
      "vis_m": 9999,
      "fzfg": false,
      "metar_trigger": false,
      "taf_trigger": false,
      "metar": "METAR EGNM 112020Z 17015KT 9999 -RA BKN008 OVC012 07/07 Q0994",
      "taf": "TAF EGNM 111657Z 1118/1218 15015G28KT 9999 BKN006"
    },
    {
      "icao": "EGPD",
      "alert": "OK",
      "vis_m": 9000,
      "fzfg": false,
      "metar_trigger": false,
      "taf_trigger": false,
      "metar": "METAR EGPD 112020Z AUTO 16025KT 9000 -RA OVC006/// //////TCU 06/05 Q0987 RERA TEMPO 4000 RA",
      "taf": "TAF EGPD 111703Z 1118/1218 16020G32KT 9999 BKN010"
    },
    {
      "icao": "EGPF",
      "alert": "OK",
      "vis_m": 8000,
      "fzfg": false,
      "metar_trigger": false,
      "taf_trigger": false,
      "metar": "METAR EGPF 112020Z AUTO 15018G34KT 8000 -RA SCT039/// //////TCU 10/08 Q0981",
      "taf": "TAF EGPF 111702Z 1118/1218 15015G25KT 9999 FEW015 SCT030"
    },
    {
      "icao": "EHBK",
      "alert": "OK",
      "vis_m": 9999,
      "fzfg": false,
      "metar_trigger": false,
      "taf_trigger": false,
      "metar": "METAR EHBK 112025Z AUTO 18010KT 150V220 9999 NSC 00/M03 Q1018 NOSIG",
      "taf": "TAF EHBK 111712Z 1118/1224 18008KT 9999 BKN016"
    },
    {
      "icao": "EHEH",
      "alert": "OK",
      "vis_m": 9999,
      "fzfg": false,
      "metar_trigger": false,
      "taf_trigger": false,
      "metar": "METAR EHEH 112025Z AUTO 17012KT 120V200 9999 OVC089 01/M03 Q1018 BLU NOSIG RMK TREND REMOTE BY EHWX",
      "taf": "TAF EHEH 111730Z 1118/1224 17010KT 9999 BKN012"
    },
    {
      "icao": "EKBI",
      "alert": "OK",
      "vis_m": 9999,
      "fzfg": false,
      "metar_trigger": false,
      "taf_trigger": false,
      "metar": "METAR EKBI 112020Z AUTO 12005KT 9999 BKN130/// M06/M06 Q1020",
      "taf": "TAF EKBI 112027Z 1121/1221 12008KT CAVOK"
    },
    {
      "icao": "EKCH",
      "alert": "OK",
      "vis_m": 9999,
      "fzfg": false,
      "metar_trigger": false,
      "taf_trigger": false,
      "metar": "METAR EKCH 112020Z AUTO 29003KT 9999 NCD M08/M10 Q1022 NOSIG",
      "taf": "TAF EKCH 112027Z 1121/1221 33010KT CAVOK"
    },
    {
      "icao": "ENAL",
      "alert": "OK",
      "vis_m": 9999,
      "fzfg": false,
      "metar_trigger": false,
      "taf_trigger": false,
      "metar": "METAR ENAL 112020Z 15005KT 120V190 CAVOK 03/M08 Q1006",
      "taf": "TAF ENAL 112000Z 1121/1206 12015KT CAVOK"
    },
    {
      "icao": "ENBR",
      "alert": "OK",
      "vis_m": 9999,
      "fzfg": false,
      "metar_trigger": false,
      "taf_trigger": false,
      "metar": "METAR ENBR 112020Z 14023G33KT 9999 SCT035 03/M11 Q1007 RMK WIND 1200FT 14038G51KT",
      "taf": "TAF ENBR 111700Z 1118/1218 13022KT 9999 SCT045"
    },
    {
      "icao": "ENGM",
      "alert": "OK",
      "vis_m": 9999,
      "fzfg": false,
      "metar_trigger": false,
      "taf_trigger": false,
      "metar": "METAR ENGM 112020Z 00000KT 9999 BKN003 M18/M20 Q1021 NOSIG",
      "taf": "TAF ENGM 111700Z 1118/1218 VRB03KT 9999 FEW003"
    },
    {
      "icao": "ENHD",
      "alert": "OK",
      "vis_m": 9999,
      "fzfg": false,
      "metar_trigger": false,
      "taf_trigger": false,
      "metar": "METAR ENHD 112020Z 14026KT 9999 SCT035 02/M07 Q1008",
      "taf": "TAF ENHD 111400Z 1115/1123 14025KT 9999 BKN040"
    },
    {
      "icao": "ENTC",
      "alert": "OK",
      "vis_m": 9999,
      "fzfg": false,
      "metar_trigger": false,
      "taf_trigger": false,
      "metar": "METAR ENTC 112020Z VRB02KT CAVOK M09/M12 Q1020 NOSIG RMK WIND 2600FT 17020KT",
      "taf": "TAF ENTC 111700Z 1118/1218 20005KT CAVOK"
    },
    {
      "icao": "ENTO",
      "alert": "OK",
      "vis_m": 9999,
      "fzfg": false,
      "metar_trigger": false,
      "taf_trigger": false,
      "metar": "METAR ENTO 112020Z 36009KT 9999 OVC004 M13/M15 Q1021 NOSIG",
      "taf": "TAF ENTO 111700Z 1118/1218 02005KT CAVOK"
    },
    {
      "icao": "ENVA",
      "alert": "OK",
      "vis_m": 9999,
      "fzfg": false,
      "metar_trigger": false,
      "taf_trigger": false,
      "metar": "METAR ENVA 112020Z 08010KT CAVOK M04/M13 Q1015 RMK WIND 670FT 12016KT",
      "taf": "TAF ENVA 111700Z 1118/1218 10008KT CAVOK"
    },
    {
      "icao": "ENZV",
      "alert": "OK",
      "vis_m": 9999,
      "fzfg": false,
      "metar_trigger": false,
      "taf_trigger": false,
      "metar": "METAR ENZV 112020Z 14026G39KT 9999 NSC 00/M07 Q1009 NOSIG",
      "taf": "TAF ENZV 111700Z 1118/1218 14022G35KT 9999 SCT045"
    },
    {
      "icao": "EPGD",
      "alert": "OK",
      "vis_m": 800,
      "fzfg": false,
      "metar_trigger": false,
      "taf_trigger": false,
      "metar": "METAR EPGD 112030Z 34006KT 0800 R29/1600D +SHSN VV008 M02/M03 Q1012",
      "taf": "TAF EPGD 111730Z 1118/1218 33012KT 9999 SCT015"
    },
    {
      "icao": "EPKK",
      "alert": "OK",
      "vis_m": 8000,
      "fzfg": false,
      "metar_trigger": false,
      "taf_trigger": false,
      "metar": "METAR EPKK 112030Z 28018KT 8000 -SN DRSN BKN017 M05/M08 Q1015",
      "taf": "TAF EPKK 112030Z 1121/1221 27015KT 6000 -SN BKN020"
    },
    {
      "icao": "EPKT",
      "alert": "OK",
      "vis_m": 7000,
      "fzfg": false,
      "metar_trigger": false,
      "taf_trigger": false,
      "metar": "METAR EPKT 112030Z 27014KT 7000 -SN DRSN BKN007 OVC009 M06/M07 Q1015 RESN",
      "taf": ""
    },
    {
      "icao": "EPLB",
      "alert": "OK",
      "vis_m": 6000,
      "fzfg": false,
      "metar_trigger": false,
      "taf_trigger": false,
      "metar": "METAR EPLB 112030Z 26005KT 6000 -SN SCT009 OVC046 M05/M05 Q1009",
      "taf": "TAF EPLB 111730Z 1118/1218 30008KT 8000 -SN BKN020"
    },
    {
      "icao": "EPMO",
      "alert": "OK",
      "vis_m": 9999,
      "fzfg": false,
      "metar_trigger": false,
      "taf_trigger": false,
      "metar": "METAR EPMO 112030Z 30007KT 9999 -SN SCT026 BKN037 M03/M04 Q1011",
      "taf": "TAF EPMO 111730Z 1118/1218 30006KT 7000 -SN SCT009 BKN015"
    },
    {
      "icao": "EPPO",
      "alert": "OK",
      "vis_m": 9999,
      "fzfg": false,
      "metar_trigger": false,
      "taf_trigger": false,
      "metar": "METAR EPPO 112030Z 29011KT 9999 BKN037 M03/M07 Q1017",
      "taf": "TAF EPPO 111730Z 1118/1218 30012KT 9999 BKN020"
    },
    {
      "icao": "EPRA",
      "alert": "OK",
      "vis_m": 4500,
      "fzfg": false,
      "metar_trigger": false,
      "taf_trigger": false,
      "metar": "METAR EPRA 112030Z 30011KT 260V330 4500 -SN SCT008 OVC011 M02/M04 Q1009",
      "taf": "TAF EPRA 112030Z 1121/1206 28010KT 7000 -SN BKN016 OVC027"
    },
    {
      "icao": "EPRZ",
      "alert": "OK",
      "vis_m": 8000,
      "fzfg": false,
      "metar_trigger": false,
      "taf_trigger": false,
      "metar": "METAR EPRZ 112030Z 26016KT 8000 -SN SCT003 OVC013 M04/M05 Q1011 RESN",
      "taf": "TAF EPRZ 111730Z 1118/1218 28012KT 3000 -SN BR BKN014"
    },
    {
      "icao": "EPSC",
      "alert": "OK",
      "vis_m": 9999,
      "fzfg": false,
      "metar_trigger": false,
      "taf_trigger": false,
      "metar": "METAR EPSC 112030Z 27007KT CAVOK M05/M08 Q1020",
      "taf": "TAF EPSC 111730Z 1118/1218 28010KT CAVOK"
    },
    {
      "icao": "EPSY",
      "alert": "OK",
      "vis_m": 9999,
      "fzfg": false,
      "metar_trigger": false,
      "taf_trigger": false,
      "metar": "METAR EPSY 112030Z 33004KT 9999 BKN011 BKN016 M05/M07 Q1010",
      "taf": "TAF EPSY 112030Z 1121/1206 35005KT 9999 BKN014"
    },
    {
      "icao": "EPWA",
      "alert": "OK",
      "vis_m": 9999,
      "fzfg": false,
      "metar_trigger": false,
      "taf_trigger": false,
      "metar": "METAR EPWA 112030Z 31008KT 9999 FEW009 BKN043 M03/M04 Q1010 NOSIG",
      "taf": "TAF EPWA 112030Z 1121/1221 31008KT 9999 -SN SCT012 BKN016"
    },
    {
      "icao": "EPWR",
      "alert": "OK",
      "vis_m": 9999,
      "fzfg": false,
      "metar_trigger": false,
      "taf_trigger": false,
      "metar": "METAR EPWR 112030Z 29019KT 9999 DRSN BKN040 M05/M08 Q1019",
      "taf": "TAF EPWR 112030Z 1121/1221 28018KT 9999 BKN040"
    },
    {
      "icao": "ESGG",
      "alert": "OK",
      "vis_m": 9999,
      "fzfg": false,
      "metar_trigger": false,
      "taf_trigger": false,
      "metar": "METAR ESGG 112020Z 00000KT CAVOK M12/M14 Q1020",
      "taf": "TAF ESGG 112030Z 1121/1221 VRB02KT CAVOK"
    },
    {
      "icao": "ESKN",
      "alert": "OK",
      "vis_m": 9999,
      "fzfg": false,
      "metar_trigger": false,
      "taf_trigger": false,
      "metar": "METAR ESKN 112020Z 32010KT 9999 SCT017 BKN031 M08/M10 Q1018",
      "taf": "TAF ESKN 112030Z 1121/1221 33012KT 9999 BKN025"
    },
    {
      "icao": "ESMS",
      "alert": "OK",
      "vis_m": 9999,
      "fzfg": false,
      "metar_trigger": false,
      "taf_trigger": false,
      "metar": "METAR ESMS 112020Z 30004KT CAVOK M12/M13 Q1020",
      "taf": "TAF ESMS 112027Z 1121/1221 VRB04KT CAVOK"
    },
    {
      "icao": "ESSA",
      "alert": "OK",
      "vis_m": 9999,
      "fzfg": false,
      "metar_trigger": false,
      "taf_trigger": false,
      "metar": "METAR ESSA 112020Z 33008KT 9999 -SN BKN019 M06/M07 Q1017 TEMPO BKN013",
      "taf": "TAF ESSA 112030Z 1121/1221 32012KT 9999 -SN BKN017"
    },
    {
      "icao": "EYKA",
      "alert": "OK",
      "vis_m": 5000,
      "fzfg": false,
      "metar_trigger": false,
      "taf_trigger": false,
      "metar": "METAR EYKA 112020Z 33004KT 5000 -SN BR FEW029 M10/M12 Q1010",
      "taf": "TAF EYKA 111706Z 1118/1218 VRB04KT 5000 BR SCT010 BKN015"
    },
    {
      "icao": "EYPA",
      "alert": "OK",
      "vis_m": 9999,
      "fzfg": false,
      "metar_trigger": false,
      "taf_trigger": false,
      "metar": "METAR EYPA 112020Z 04005KT CAVOK M06/M09 Q1012",
      "taf": "TAF EYPA 111704Z 1118/1218 VRB05KT 5000 BR SCT015"
    },
    {
      "icao": "EYVI",
      "alert": "OK",
      "vis_m": 8000,
      "fzfg": false,
      "metar_trigger": false,
      "taf_trigger": false,
      "metar": "METAR EYVI 112020Z 32003KT 8000 FEW029 M15/M16 Q1008 NOSIG",
      "taf": "TAF EYVI 111707Z 1118/1218 VRB04KT 5000 BR SCT010 BKN015"
    },
    {
      "icao": "GCFV",
      "alert": "OK",
      "vis_m": 9999,
      "fzfg": false,
      "metar_trigger": false,
      "taf_trigger": false,
      "metar": "METAR GCFV 112030Z 04009KT 9999 SCT020 18/13 Q1024",
      "taf": "TAF GCFV 112000Z 1121/1221 03006KT 9999 FEW020 TX21/1214Z TN14/1206Z"
    },
    {
      "icao": "GCLP",
      "alert": "OK",
      "vis_m": 9999,
      "fzfg": false,
      "metar_trigger": false,
      "taf_trigger": false,
      "metar": "METAR GCLP 112030Z 33007KT 290V030 9999 BKN027 17/12 Q1024 NOSIG",
      "taf": "TAF GCLP 112000Z 1121/1221 33007KT 9999 SCT025 TX21/1214Z TN15/1206Z"
    },
    {
      "icao": "GCTS",
      "alert": "OK",
      "vis_m": 9999,
      "fzfg": false,
      "metar_trigger": false,
      "taf_trigger": false,
      "metar": "METAR GCTS 112030Z 05007KT 9999 FEW035 18/12 Q1024 NOSIG",
      "taf": "TAF GCTS 112000Z 1121/1221 03008KT 9999 FEW030 TX23/1214Z TN16/1206Z"
    },
    {
      "icao": "GMAD",
      "alert": "OK",
      "vis_m": 9999,
      "fzfg": false,
      "metar_trigger": false,
      "taf_trigger": false,
      "metar": "METAR GMAD 112030Z 16008KT CAVOK 12/10 Q1024 NOSIG",
      "taf": "TAF GMAD 111700Z 1118/1224 20008KT CAVOK"
    },
    {
      "icao": "GMMN",
      "alert": "OK",
      "vis_m": 9999,
      "fzfg": false,
      "metar_trigger": false,
      "taf_trigger": false,
      "metar": "METAR GMMN 112030Z 05006KT CAVOK 11/08 Q1025 NOSIG",
      "taf": "TAF GMMN 111700Z 1118/1224 04008KT CAVOK"
    },
    {
      "icao": "GMMX",
      "alert": "OK",
      "vis_m": 9999,
      "fzfg": false,
      "metar_trigger": false,
      "taf_trigger": false,
      "metar": "METAR GMMX 112030Z VRB01KT CAVOK 12/08 Q1025 NOSIG",
      "taf": "TAF GMMX 111700Z 1118/1224 06006KT CAVOK"
    },
    {
      "icao": "HEGN",
      "alert": "OK",
      "vis_m": 9999,
      "fzfg": false,
      "metar_trigger": false,
      "taf_trigger": false,
      "metar": "METAR HEGN 112000Z 28002KT CAVOK 18/10 Q1016 NOSIG",
      "taf": "TAF HEGN 111700Z 1118/1224 03008KT CAVOK"
    },
    {
      "icao": "HEMA",
      "alert": "OK",
      "vis_m": 9999,
      "fzfg": false,
      "metar_trigger": false,
      "taf_trigger": false,
      "metar": "METAR HEMA 112000Z 27005KT CAVOK 17/13 Q1016 NOSIG",
      "taf": "TAF HEMA 111700Z 1118/1224 32008G20KT CAVOK"
    },
    {
      "icao": "HESH",
      "alert": "OK",
      "vis_m": 9999,
      "fzfg": false,
      "metar_trigger": false,
      "taf_trigger": false,
      "metar": "METAR HESH 112000Z 00000KT CAVOK 18/09 Q1016 NOSIG",
      "taf": "TAF HESH 111700Z 1118/1224 01011KT CAVOK"
    },
    {
      "icao": "HESX",
      "alert": "OK",
      "vis_m": 9999,
      "fzfg": false,
      "metar_trigger": false,
      "taf_trigger": false,
      "metar": "METAR HESX 112000Z 21005KT CAVOK 14/05 Q1017 NOSIG",
      "taf": "TAF HESX 111700Z 1118/1224 26008KT CAVOK"
    },
    {
      "icao": "LATI",
      "alert": "OK",
      "vis_m": 9999,
      "fzfg": false,
      "metar_trigger": false,
      "taf_trigger": false,
      "metar": "METAR LATI 112020Z 31009KT CAVOK 01/M07 Q1015 NOSIG",
      "taf": ""
    },
    {
      "icao": "LBPD",
      "alert": "OK",
      "vis_m": 9999,
      "fzfg": false,
      "metar_trigger": false,
      "taf_trigger": false,
      "metar": "METAR LBPD 112030Z AUTO 28021KT 9999 SCT069/// OVC079/// M01/M08 Q1016",
      "taf": "TAF LBPD 111700Z 1118/1218 28020KT 9999 SCT030 BKN050"
    },
    {
      "icao": "LBSF",
      "alert": "OK",
      "vis_m": 9999,
      "fzfg": false,
      "metar_trigger": false,
      "taf_trigger": false,
      "metar": "METAR LBSF 112030Z AUTO 28010KT 9999 SCT052/// M07/M10 Q1017 NOSIG",
      "taf": "TAF LBSF 111700Z 1118/1218 28014KT 9999 BKN025 OVC045"
    },
    {
      "icao": "LBWN",
      "alert": "OK",
      "vis_m": 9999,
      "fzfg": false,
      "metar_trigger": false,
      "taf_trigger": false,
      "metar": "METAR LBWN 112030Z AUTO 30008KT 9999 NSC M02/M05 Q1015 NOSIG",
      "taf": "TAF LBWN 111700Z 1118/1218 31010KT 9999 SCT020 OVC040"
    },
    {
      "icao": "LCLK",
      "alert": "OK",
      "vis_m": 9999,
      "fzfg": false,
      "metar_trigger": false,
      "taf_trigger": false,
      "metar": "METAR LCLK 112030Z 23022G32KT 9999 -SHRA FEW025 FEW030TCU BKN040 17/12 Q1011 NOSIG",
      "taf": "TAF LCLK 111730Z 1118/1218 22023KT 9999 -SHRA FEW025TCU FEW030CB SCT040"
    },
    {
      "icao": "LCPH",
      "alert": "OK",
      "vis_m": 7000,
      "fzfg": false,
      "metar_trigger": false,
      "taf_trigger": false,
      "metar": "METAR LCPH 112030Z 26020KT 7000 -SHRA SCT020 FEW025TCU BKN040 14/12 Q1012 RERA TEMPO 5000 SHRA",
      "taf": "TAF LCPH 111730Z 1118/1218 26021KT 9999 -SHRA FEW025TCU FEW030CB SCT040"
    },
    {
      "icao": "LEAL",
      "alert": "OK",
      "vis_m": 9999,
      "fzfg": false,
      "metar_trigger": false,
      "taf_trigger": false,
      "metar": "METAR LEAL 112030Z VRB01KT CAVOK 10/07 Q1025 NOSIG",
      "taf": "TAF LEAL 111700Z 1118/1218 28008KT CAVOK TX16/1213Z TN07/1206Z"
    },
    {
      "icao": "LEBB",
      "alert": "OK",
      "vis_m": 9999,
      "fzfg": false,
      "metar_trigger": false,
      "taf_trigger": false,
      "metar": "METAR LEBB 112030Z 17007KT 100V270 CAVOK 14/07 Q1019 NOSIG",
      "taf": "TAF LEBB 111700Z 1118/1218 18008KT 9999 SCT060 TX15/1214Z TN12/1207Z"
    },
    {
      "icao": "LEBL",
      "alert": "OK",
      "vis_m": 9999,
      "fzfg": false,
      "metar_trigger": false,
      "taf_trigger": false,
      "metar": "METAR LEBL 112030Z 33004KT 280V030 9999 FEW035 07/04 Q1024 NOSIG",
      "taf": "TAF LEBL 111700Z 1118/1218 VRB04KT 9999 FEW020 TX15/1213Z TN05/1206Z"
    },
    {
      "icao": "LECH",
      "alert": "OK",
      "vis_m": 9000,
      "fzfg": false,
      "metar_trigger": false,
      "taf_trigger": false,
      "metar": "METAR LECH 112030Z AUTO VRB02KT 9000 NCD 06/02 Q1024",
      "taf": ""
    },
    {
      "icao": "LEMD",
      "alert": "OK",
      "vis_m": 9999,
      "fzfg": false,
      "metar_trigger": false,
      "taf_trigger": false,
      "metar": "METAR LEMD 112030Z 12003KT 070V170 CAVOK 05/02 Q1025 NOSIG",
      "taf": "TAF LEMD 111700Z 1118/1224 VRB03KT CAVOK TX08/1215Z TN02/1200Z"
    },
    {
      "icao": "LEMG",
      "alert": "OK",
      "vis_m": 9999,
      "fzfg": false,
      "metar_trigger": false,
      "taf_trigger": false,
      "metar": "METAR LEMG 112030Z VRB01KT CAVOK 09/06 Q1026 NOSIG",
      "taf": "TAF LEMG 111700Z 1118/1218 27006KT CAVOK TX17/1214Z TN07/1207Z"
    },
    {
      "icao": "LEVC",
      "alert": "OK",
      "vis_m": 9999,
      "fzfg": false,
      "metar_trigger": false,
      "taf_trigger": false,
      "metar": "METAR LEVC 112030Z 26007KT CAVOK 07/05 Q1024 NOSIG",
      "taf": "TAF LEVC 111700Z 1118/1218 26008KT CAVOK TX19/1214Z TN05/1206Z"
    },
    {
      "icao": "LEXJ",
      "alert": "OK",
      "vis_m": 9999,
      "fzfg": false,
      "metar_trigger": false,
      "taf_trigger": false,
      "metar": "METAR LEXJ 112030Z 21012KT 160V250 CAVOK 16/06 Q1017",
      "taf": "TAF LEXJ 112000Z 1121/1221 22009KT 9999 SCT060 TX15/1213Z TN12/1208Z"
    },
    {
      "icao": "LEZG",
      "alert": "OK",
      "vis_m": 9999,
      "fzfg": false,
      "metar_trigger": false,
      "taf_trigger": false,
      "metar": "METAR LEZG 112030Z VRB01KT 9999 SCT070 08/04 Q1023 NOSIG",
      "taf": "TAF LEZG 111700Z 1118/1218 24009KT 9999 FEW050 TX14/1215Z TN04/1206Z"
    },
    {
      "icao": "LEZL",
      "alert": "OK",
      "vis_m": 9999,
      "fzfg": false,
      "metar_trigger": false,
      "taf_trigger": false,
      "metar": "METAR LEZL 112030Z 10004KT 050V150 CAVOK 09/08 Q1026 NOSIG",
      "taf": "TAF LEZL 112000Z 1121/1221 06004KT CAVOK TX16/1215Z TN05/1207Z"
    },
    {
      "icao": "LFBD",
      "alert": "OK",
      "vis_m": 9999,
      "fzfg": false,
      "metar_trigger": false,
      "taf_trigger": false,
      "metar": "METAR LFBD 112030Z AUTO 15008KT 9999 FEW037 BKN094 OVC110 06/06 Q1019",
      "taf": ""
    },
    {
      "icao": "LFLL",
      "alert": "OK",
      "vis_m": 9999,
      "fzfg": false,
      "metar_trigger": false,
      "taf_trigger": false,
      "metar": "METAR LFLL 112030Z 15006KT CAVOK 01/M01 Q1023 NOSIG",
      "taf": ""
    },
    {
      "icao": "LFLS",
      "alert": "OK",
      "vis_m": 9999,
      "fzfg": false,
      "metar_trigger": false,
      "taf_trigger": false,
      "metar": "METAR LFLS 112030Z AUTO 13004KT CAVOK M03/M03 Q1022",
      "taf": "TAF LFLS 111400Z 1115/1215 09005KT CAVOK"
    },
    {
      "icao": "LFMN",
      "alert": "OK",
      "vis_m": 9999,
      "fzfg": false,
      "metar_trigger": false,
      "taf_trigger": false,
      "metar": "METAR LFMN 112030Z 32010KT CAVOK 07/M03 Q1023 NOSIG",
      "taf": "TAF LFMN 112000Z 1121/1303 33012KT CAVOK"
    },
    {
      "icao": "LFOB",
      "alert": "OK",
      "vis_m": 9999,
      "fzfg": false,
      "metar_trigger": false,
      "taf_trigger": false,
      "metar": "METAR LFOB 112030Z AUTO 17012KT 9999 -RA SCT026/// BKN033/// OVC050/// ///TCU 04/00 Q1015 BECMG 18015G25KT 4000 RA BKN009 OVC014",
      "taf": ""
    },
    {
      "icao": "LFPO",
      "alert": "OK",
      "vis_m": 9999,
      "fzfg": false,
      "metar_trigger": false,
      "taf_trigger": false,
      "metar": "METAR LFPO 112030Z AUTO 17012KT 9999 BKN044 BKN064 BKN078 04/M02 Q1017",
      "taf": ""
    },
    {
      "icao": "LFSB",
      "alert": "OK",
      "vis_m": 9999,
      "fzfg": false,
      "metar_trigger": false,
      "taf_trigger": false,
      "metar": "METAR LFSB 112030Z AUTO 12006KT CAVOK M00/M02 Q1023 NOSIG",
      "taf": "TAF LFSB 111700Z 1118/1218 VRB03KT 9999 OVC025"
    },
    {
      "icao": "LGAV",
      "alert": "OK",
      "vis_m": 9999,
      "fzfg": false,
      "metar_trigger": false,
      "taf_trigger": false,
      "metar": "METAR LGAV 112020Z 01008KT 340V040 9999 FEW020 SCT035 09/02 Q1010 NOSIG",
      "taf": "TAF LGAV 111700Z 1118/1218 VRB05KT 9999 FEW018 SCT025"
    },
    {
      "icao": "LGTS",
      "alert": "OK",
      "vis_m": 9999,
      "fzfg": false,
      "metar_trigger": false,
      "taf_trigger": false,
      "metar": "METAR LGTS 112020Z 34020G30KT 9999 FEW015 SCT025 02/M07 Q1015 NOSIG",
      "taf": "TAF LGTS 111700Z 1118/1218 34015G30KT 9999 FEW025"
    },
    {
      "icao": "LHBP",
      "alert": "OK",
      "vis_m": 9999,
      "fzfg": false,
      "metar_trigger": false,
      "taf_trigger": false,
      "metar": "METAR LHBP 112030Z 31021KT 9999 DRSN NSC M04/M10 Q1018 NOSIG",
      "taf": "TAF LHBP 111715Z 1118/1218 30020G30KT 9999 DRSN NSC"
    },
    {
      "icao": "LHDC",
      "alert": "OK",
      "vis_m": 8000,
      "fzfg": false,
      "metar_trigger": false,
      "taf_trigger": false,
      "metar": "METAR LHDC 111945Z AUTO 16005KT 8000 NSC M09/M11 Q1017 NOSIG",
      "taf": "TAF LHDC 111715Z 1118/1203 20008KT CAVOK"
    },
    {
      "icao": "LIBD",
      "alert": "OK",
      "vis_m": 9999,
      "fzfg": false,
      "metar_trigger": false,
      "taf_trigger": false,
      "metar": "METAR LIBD 112020Z 33015G26KT 290V010 9999 SCT045 06/M04 Q1019",
      "taf": "TAF LIBD 111700Z 1118/1218 34015KT 9999 FEW040"
    },
    {
      "icao": "LIBG",
      "alert": "OK",
      "vis_m": null,
      "fzfg": false,
      "metar_trigger": false,
      "taf_trigger": false,
      "metar": "",
      "taf": "TAF LIBG 111700Z 1118/1203 33015KT 9999 FEW040"
    },
    {
      "icao": "LIBP",
      "alert": "OK",
      "vis_m": 8000,
      "fzfg": false,
      "metar_trigger": false,
      "taf_trigger": false,
      "metar": "METAR LIBP 112020Z AUTO 21003KT 180V240 8000 SCT060/// 02/02 Q1024",
      "taf": "TAF LIBP 111700Z 1118/1218 22006KT 9999 SCT040"
    },
    {
      "icao": "LIBR",
      "alert": "OK",
      "vis_m": 9999,
      "fzfg": false,
      "metar_trigger": false,
      "taf_trigger": false,
      "metar": "METAR LIBR 112020Z 34018G29KT CAVOK 07/M02 Q1016",
      "taf": "TAF LIBR 111700Z 1118/1218 35020G35KT 9999 SCT040"
    },
    {
      "icao": "LICA",
      "alert": "OK",
      "vis_m": 9999,
      "fzfg": false,
      "metar_trigger": false,
      "taf_trigger": false,
      "metar": "METAR LICA 112020Z AUTO 09006KT 9999 NCD 05/M00 Q1018",
      "taf": "TAF LICA 111700Z 1118/1218 VRB05KT CAVOK"
    },
    {
      "icao": "LICC",
      "alert": "OK",
      "vis_m": 9999,
      "fzfg": false,
      "metar_trigger": false,
      "taf_trigger": false,
      "metar": "METAR LICC 112020Z 30008KT 9999 SCT080 10/05 Q1019",
      "taf": "TAF LICC 111700Z 1118/1218 VRB05KT 9999 FEW040"
    },
    {
      "icao": "LICJ",
      "alert": "OK",
      "vis_m": 9999,
      "fzfg": false,
      "metar_trigger": false,
      "taf_trigger": false,
      "metar": "METAR LICJ 112020Z 31012KT 9999 FEW040 13/05 Q1020",
      "taf": "TAF LICJ 111700Z 1118/1218 34010KT 9999 FEW030"
    },
    {
      "icao": "LIMC",
      "alert": "OK",
      "vis_m": 9999,
      "fzfg": false,
      "metar_trigger": false,
      "taf_trigger": false,
      "metar": "METAR LIMC 112020Z 01007KT CAVOK M01/M07 Q1022 NOSIG",
      "taf": "TAF LIMC 111700Z 1118/1224 VRB05KT CAVOK"
    },
    {
      "icao": "LIME",
      "alert": "OK",
      "vis_m": 9999,
      "fzfg": false,
      "metar_trigger": false,
      "taf_trigger": false,
      "metar": "METAR LIME 112020Z 36005KT CAVOK 02/M08 Q1022 NOSIG",
      "taf": "TAF LIME 111700Z 1118/1218 VRB05KT CAVOK"
    },
    {
      "icao": "LIMF",
      "alert": "OK",
      "vis_m": 9999,
      "fzfg": false,
      "metar_trigger": false,
      "taf_trigger": false,
      "metar": "METAR LIMF 112020Z 31006KT CAVOK 03/M08 Q1022",
      "taf": "TAF LIMF 111700Z 1118/1218 VRB05KT CAVOK"
    },
    {
      "icao": "LIMJ",
      "alert": "OK",
      "vis_m": 9999,
      "fzfg": false,
      "metar_trigger": false,
      "taf_trigger": false,
      "metar": "METAR LIMJ 112020Z 03004KT CAVOK 07/M08 Q1022",
      "taf": "TAF LIMJ 111700Z 1118/1218 VRB05KT CAVOK"
    },
    {
      "icao": "LIPE",
      "alert": "OK",
      "vis_m": 9999,
      "fzfg": false,
      "metar_trigger": false,
      "taf_trigger": false,
      "metar": "METAR LIPE 112020Z 20007KT CAVOK 01/M05 Q1022",
      "taf": "TAF LIPE 111700Z 1118/1218 VRB05KT CAVOK"
    },
    {
      "icao": "LIPH",
      "alert": "OK",
      "vis_m": 9999,
      "fzfg": false,
      "metar_trigger": false,
      "taf_trigger": false,
      "metar": "METAR LIPH 112020Z 02004KT CAVOK 02/M02 Q1023",
      "taf": "TAF LIPH 111700Z 1118/1218 VRB05KT 9999 FEW030"
    },
    {
      "icao": "LIPQ",
      "alert": "OK",
      "vis_m": 9999,
      "fzfg": false,
      "metar_trigger": false,
      "taf_trigger": false,
      "metar": "METAR LIPQ 112020Z AUTO VRB01KT 9999 NCD M01/M05 Q1023",
      "taf": "TAF LIPQ 111700Z 1118/1218 VRB05KT 9999 SCT040"
    },
    {
      "icao": "LIPR",
      "alert": "OK",
      "vis_m": 9999,
      "fzfg": false,
      "metar_trigger": false,
      "taf_trigger": false,
      "metar": "METAR LIPR 112020Z 19005KT CAVOK 02/M01 Q1023",
      "taf": "TAF LIPR 111700Z 1118/1218 21006KT CAVOK"
    },
    {
      "icao": "LIPX",
      "alert": "OK",
      "vis_m": 9999,
      "fzfg": false,
      "metar_trigger": false,
      "taf_trigger": false,
      "metar": "METAR LIPX 112020Z 32004KT CAVOK M01/M03 Q1022",
      "taf": "TAF LIPX 111700Z 1118/1218 VRB05KT CAVOK"
    },
    {
      "icao": "LIPY",
      "alert": "OK",
      "vis_m": 9999,
      "fzfg": false,
      "metar_trigger": false,
      "taf_trigger": false,
      "metar": "METAR LIPY 112020Z AUTO 17003KT 9999 NCD 02/M01 Q1023",
      "taf": "TAF LIPY 111700Z 1118/1218 21006KT 9999 FEW040"
    },
    {
      "icao": "LIPZ",
      "alert": "OK",
      "vis_m": 9999,
      "fzfg": false,
      "metar_trigger": false,
      "taf_trigger": false,
      "metar": "METAR LIPZ 112020Z 07006KT CAVOK 02/M01 Q1023 NOSIG",
      "taf": "TAF LIPZ 111700Z 1118/1224 VRB05KT 9999 FEW030"
    },
    {
      "icao": "LIRF",
      "alert": "OK",
      "vis_m": 9999,
      "fzfg": false,
      "metar_trigger": false,
      "taf_trigger": false,
      "metar": "METAR LIRF 112020Z 01007KT CAVOK 05/M02 Q1022 NOSIG",
      "taf": "TAF LIRF 111700Z 1118/1224 02010KT CAVOK"
    },
    {
      "icao": "LIRN",
      "alert": "OK",
      "vis_m": 9999,
      "fzfg": false,
      "metar_trigger": false,
      "taf_trigger": false,
      "metar": "METAR LIRN 112020Z 06006KT CAVOK 05/M01 Q1021 NOSIG",
      "taf": "TAF LIRN 111700Z 1118/1218 05010KT CAVOK"
    },
    {
      "icao": "LIRP",
      "alert": "OK",
      "vis_m": 9999,
      "fzfg": false,
      "metar_trigger": false,
      "taf_trigger": false,
      "metar": "METAR LIRP 112015Z 12003KT CAVOK 00/M01 Q1022 NOSIG",
      "taf": "TAF LIRP 111700Z 1118/1218 12005KT CAVOK"
    },
    {
      "icao": "LIRZ",
      "alert": "OK",
      "vis_m": 9999,
      "fzfg": false,
      "metar_trigger": false,
      "taf_trigger": false,
      "metar": "METAR LIRZ 112020Z AUTO 36007KT 9999 NCD 01/M01 Q1022",
      "taf": "TAF LIRZ 111700Z 1118/1218 VRB05KT 9999 FEW050"
    },
    {
      "icao": "LJLJ",
      "alert": "OK",
      "vis_m": 9999,
      "fzfg": false,
      "metar_trigger": false,
      "taf_trigger": false,
      "metar": "METAR LJLJ 112030Z 27003KT 9999 MIFG NSC M12/M13 Q1023 NOSIG",
      "taf": "TAF LJLJ 111700Z 1118/1218 29003KT CAVOK"
    },
    {
      "icao": "LKMT",
      "alert": "OK",
      "vis_m": 9999,
      "fzfg": false,
      "metar_trigger": false,
      "taf_trigger": false,
      "metar": "METAR LKMT 112030Z 22011KT 9999 -SN OVC028 M06/M09 Q1018 NOSIG",
      "taf": "TAF LKMT 111700Z 1118/1218 22008KT 9999 BKN025"
    },
    {
      "icao": "LKPR",
      "alert": "OK",
      "vis_m": 9999,
      "fzfg": false,
      "metar_trigger": false,
      "taf_trigger": false,
      "metar": "METAR LKPR 112030Z 22012KT CAVOK M10/M13 Q1022 NOSIG",
      "taf": "TAF LKPR 112000Z 1121/1303 25010KT CAVOK"
    },
    {
      "icao": "LLBG",
      "alert": "OK",
      "vis_m": 9999,
      "fzfg": false,
      "metar_trigger": false,
      "taf_trigger": false,
      "metar": "METAR LLBG 112020Z 14004KT CAVOK 13/10 Q1016 NOSIG",
      "taf": "TAF LLBG 111703Z 1118/1218 14005KT CAVOK"
    },
    {
      "icao": "LMML",
      "alert": "OK",
      "vis_m": 9999,
      "fzfg": false,
      "metar_trigger": false,
      "taf_trigger": false,
      "metar": "METAR LMML 112015Z 29008KT 9999 FEW023 10/04 Q1020 NOSIG",
      "taf": ""
    },
    {
      "icao": "LOWW",
      "alert": "OK",
      "vis_m": 9999,
      "fzfg": false,
      "metar_trigger": false,
      "taf_trigger": false,
      "metar": "METAR LOWW 112020Z 30017KT CAVOK M03/M12 Q1022 NOSIG",
      "taf": "TAF LOWW 112015Z 1121/1303 30010KT CAVOK TXM03/1303Z TNM08/1207Z"
    },
    {
      "icao": "LPFR",
      "alert": "OK",
      "vis_m": 9999,
      "fzfg": false,
      "metar_trigger": false,
      "taf_trigger": false,
      "metar": "METAR LPFR 112030Z 02003KT 310V040 CAVOK 11/09 Q1026",
      "taf": "TAF LPFR 111700Z 1118/1218 VRB02KT 9999 FEW025"
    },
    {
      "icao": "LPMA",
      "alert": "OK",
      "vis_m": 9999,
      "fzfg": false,
      "metar_trigger": false,
      "taf_trigger": false,
      "metar": "METAR LPMA 112030Z 32004KT 9999 -SHRA BKN015 16/14 Q1026",
      "taf": "TAF LPMA 111700Z 1118/1218 VRB05KT 9999 SCT015"
    },
    {
      "icao": "LPPR",
      "alert": "OK",
      "vis_m": 9999,
      "fzfg": false,
      "metar_trigger": false,
      "taf_trigger": false,
      "metar": "METAR LPPR 112030Z 18014KT 9999 BKN006 BKN012 14/13 Q1022",
      "taf": "TAF LPPR 111700Z 1118/1218 18013KT 9999 SCT006 BKN012"
    },
    {
      "icao": "LPPS",
      "alert": "OK",
      "vis_m": 8000,
      "fzfg": false,
      "metar_trigger": false,
      "taf_trigger": false,
      "metar": "METAR LPPS 112030Z VRB02KT 8000 -DZ FEW010 BKN030 15/13 Q1026",
      "taf": "TAF LPPS 111700Z 1118/1224 17005KT 9999 SCT015 SCT030"
    },
    {
      "icao": "LPPT",
      "alert": "OK",
      "vis_m": 9999,
      "fzfg": false,
      "metar_trigger": false,
      "taf_trigger": false,
      "metar": "METAR LPPT 112030Z 21009KT 9999 FEW004 BKN009 13/13 Q1025",
      "taf": "TAF LPPT 111700Z 1118/1224 21008KT 9999 SCT008 BKN015"
    },
    {
      "icao": "LQBK",
      "alert": "OK",
      "vis_m": 9999,
      "fzfg": false,
      "metar_trigger": false,
      "taf_trigger": false,
      "metar": "METAR LQBK 112030Z VRB01KT CAVOK M09/M10 Q1023 NOSIG",
      "taf": "TAF LQBK 111700Z 1118/1218 16005KT CAVOK TX00/1212Z TNM12/1206Z"
    },
    {
      "icao": "LQSA",
      "alert": "OK",
      "vis_m": 9999,
      "fzfg": false,
      "metar_trigger": false,
      "taf_trigger": false,
      "metar": "METAR LQSA 112030Z 34002KT 9999 SCT050 M07/M09 Q1020 NOSIG",
      "taf": "TAF LQSA 111700Z 1118/1218 29005KT 9999 SCT045 TXM03/1214Z TNM13/1206Z"
    },
    {
      "icao": "LQTZ",
      "alert": "OK",
      "vis_m": 9999,
      "fzfg": false,
      "metar_trigger": false,
      "taf_trigger": false,
      "metar": "METAR LQTZ 112030Z VRB02KT 9999 FEW060 M05/M06 Q1022",
      "taf": "TAF LQTZ 111700Z 1118/1218 30005KT 9999 SCT045 TXM01/1213Z TNM13/1206Z"
    },
    {
      "icao": "LRBC",
      "alert": "OK",
      "vis_m": 9999,
      "fzfg": false,
      "metar_trigger": false,
      "taf_trigger": false,
      "metar": "METAR LRBC 112030Z 29003KT 260V010 CAVOK M04/M13 Q1013",
      "taf": "TAF LRBC 112000Z 1121/1206 28006KT CAVOK"
    },
    {
      "icao": "LRBS",
      "alert": "OK",
      "vis_m": 6000,
      "fzfg": false,
      "metar_trigger": false,
      "taf_trigger": false,
      "metar": "METAR LRBS 112030Z 29003KT 240V340 6000 NSC M06/M07 Q1016 NOSIG",
      "taf": "TAF LRBS 111700Z 1118/1218 VRB04KT 5000 BR SCT025"
    },
    {
      "icao": "LRBV",
      "alert": "OK",
      "vis_m": 9999,
      "fzfg": false,
      "metar_trigger": false,
      "taf_trigger": false,
      "metar": "METAR LRBV 112030Z 28008KT 250V310 9999 FEW043 OVC057 M06/M10 Q1013",
      "taf": "TAF LRBV 112000Z 1121/1206 28006KT 9999 BKN050"
    },
    {
      "icao": "LRCL",
      "alert": "OK",
      "vis_m": 9999,
      "fzfg": false,
      "metar_trigger": false,
      "taf_trigger": false,
      "metar": "METAR LRCL 112030Z VRB01KT 9999 BKN063 M07/M09 Q1016",
      "taf": "TAF LRCL 112000Z 1121/1206 VRB04KT 9999 BKN055"
    },
    {
      "icao": "LRCV",
      "alert": "OK",
      "vis_m": 9999,
      "fzfg": false,
      "metar_trigger": false,
      "taf_trigger": false,
      "metar": "METAR LRCV 112030Z 29012KT CAVOK M05/M08 Q1016",
      "taf": "TAF LRCV 112000Z 1121/1206 28010KT CAVOK"
    },
    {
      "icao": "LRIA",
      "alert": "OK",
      "vis_m": 9999,
      "fzfg": false,
      "metar_trigger": false,
      "taf_trigger": false,
      "metar": "METAR LRIA 112030Z COR 28005KT 9999 FEW047 M04/M10 Q1012",
      "taf": "TAF LRIA 112000Z 1121/1206 VRB04KT CAVOK"
    },
    {
      "icao": "LROP",
      "alert": "OK",
      "vis_m": 4000,
      "fzfg": false,
      "metar_trigger": false,
      "taf_trigger": false,
      "metar": "METAR LROP 112030Z 27007KT 4000 BR NSC M08/M09 Q1016 NOSIG",
      "taf": "TAF LROP 111700Z 1118/1218 VRB04KT 3000 BR SCT025"
    },
    {
      "icao": "LRSB",
      "alert": "OK",
      "vis_m": 9999,
      "fzfg": false,
      "metar_trigger": false,
      "taf_trigger": false,
      "metar": "METAR LRSB 112030Z VRB02KT 9999 BKN061 M07/M09 Q1015",
      "taf": "TAF LRSB 111700Z 1118/1218 31006KT 9999 BKN045"
    },
    {
      "icao": "LRSM",
      "alert": "OK",
      "vis_m": 3600,
      "fzfg": false,
      "metar_trigger": false,
      "taf_trigger": false,
      "metar": "METAR LRSM 112030Z AUTO 09002KT 3600 -SN VV012 M07/M09 Q1017",
      "taf": "TAF LRSM 111400Z 1115/1124 27014KT 9999 BKN040"
    },
    {
      "icao": "LRSV",
      "alert": "OK",
      "vis_m": 9999,
      "fzfg": false,
      "metar_trigger": false,
      "taf_trigger": false,
      "metar": "METAR LRSV 112030Z 26009KT CAVOK M06/M13 Q1009",
      "taf": "TAF LRSV 112000Z 1121/1206 27008KT CAVOK"
    },
    {
      "icao": "LRTM",
      "alert": "OK",
      "vis_m": 9999,
      "fzfg": false,
      "metar_trigger": false,
      "taf_trigger": false,
      "metar": "METAR LRTM 112030Z AUTO 23006KT 9999 FEW050/// BKN065/// M06/M09 Q1016 RESN",
      "taf": "TAF LRTM 111400Z 1115/1124 VRB04KT 9999 OVC045"
    },
    {
      "icao": "LRTR",
      "alert": "OK",
      "vis_m": 9999,
      "fzfg": false,
      "metar_trigger": false,
      "taf_trigger": false,
      "metar": "METAR LRTR 112030Z 28002KT 9999 -SN SCT040 M07/M09 Q1019",
      "taf": "TAF LRTR 111700Z 1118/1218 24006KT 9999 BKN030"
    },
    {
      "icao": "LTAC",
      "alert": "OK",
      "vis_m": 6000,
      "fzfg": false,
      "metar_trigger": false,
      "taf_trigger": false,
      "metar": "METAR LTAC 112020Z 25003KT 220V310 6000 FEW010 BKN025 BKN080 01/00 Q1005 NOSIG RMK RWY21C VRB02KT RWY03L VRB02KT RWY21R VRB02KT RWY03R 21004KT RWY21L 13004KT",
      "taf": "TAF LTAC 111640Z 1118/1218 VRB02KT 6000 SCT035 BKN090"
    },
    {
      "icao": "LTFM",
      "alert": "OK",
      "vis_m": 9999,
      "fzfg": false,
      "metar_trigger": false,
      "taf_trigger": false,
      "metar": "METAR LTFM 112020Z 02022KT 9999 -SHRASN BKN012 BKN020 04/00 Q1012 NOSIG RMK RWY17L 03021KT RWY34L 02020KT RWY16R 01019KT RWY36 02020KT RWY18 03019KT",
      "taf": "TAF LTFM 111640Z 1118/1224 02020G30KT 9999 -SHRA BKN012 BKN020"
    },
    {
      "icao": "LUKK",
      "alert": "OK",
      "vis_m": 9999,
      "fzfg": false,
      "metar_trigger": false,
      "taf_trigger": false,
      "metar": "METAR LUKK 112030Z VRB02KT CAVOK M06/M10 Q1012 NOSIG",
      "taf": "TAF LUKK 111716Z 1118/1218 26008KT CAVOK"
    },
    {
      "icao": "LWOH",
      "alert": "OK",
      "vis_m": 9999,
      "fzfg": false,
      "metar_trigger": false,
      "taf_trigger": false,
      "metar": "METAR LWOH 111950Z 33012KT 300V360 9999 BKN035 M04/M08 Q1014",
      "taf": "TAF LWOH 112010Z 1121/1221 34012KT 9999 FEW040"
    },
    {
      "icao": "LWSK",
      "alert": "OK",
      "vis_m": 9999,
      "fzfg": false,
      "metar_trigger": false,
      "taf_trigger": false,
      "metar": "METAR LWSK 112030Z 34010KT 9999 BKN050 M02/M10 Q1020 NOSIG",
      "taf": "TAF LWSK 112010Z 1121/1221 01010KT 9999 SCT050"
    },
    {
      "icao": "LYBE",
      "alert": "OK",
      "vis_m": 9999,
      "fzfg": false,
      "metar_trigger": false,
      "taf_trigger": false,
      "metar": "METAR LYBE 112030Z 27008KT 9999 SCT040 M04/M07 Q1021 NOSIG",
      "taf": "TAF LYBE 111700Z 1118/1218 27010KT 9999 SCT035 TXM01/1212Z TNM10/1206Z"
    },
    {
      "icao": "LYNI",
      "alert": "OK",
      "vis_m": 9999,
      "fzfg": false,
      "metar_trigger": false,
      "taf_trigger": false,
      "metar": "METAR LYNI 112030Z 32001KT 9999 -SN SCT015 BKN030 M04/M05 Q1021 NOSIG",
      "taf": "TAF LYNI 111700Z 1118/1218 30005KT 9999 SCT015 BKN025 TXM02/1212Z TNM07/1206Z"
    },
    {
      "icao": "LYPG",
      "alert": "OK",
      "vis_m": 9999,
      "fzfg": false,
      "metar_trigger": false,
      "taf_trigger": false,
      "metar": "METAR LYPG 112030Z 01023G35KT CAVOK 01/M15 Q1019 NOSIG",
      "taf": "TAF LYPG 111700Z 1118/1218 36015G25KT CAVOK TX05/1212Z TNM02/1205Z"
    },
    {
      "icao": "LZIB",
      "alert": "OK",
      "vis_m": 9999,
      "fzfg": false,
      "metar_trigger": false,
      "taf_trigger": false,
      "metar": "METAR LZIB 112030Z 30013KT CAVOK M04/M12 Q1021 NOSIG",
      "taf": "TAF LZIB 111715Z 1118/1218 29014KT CAVOK"
    },
    {
      "icao": "LZKZ",
      "alert": "OK",
      "vis_m": 8000,
      "fzfg": false,
      "metar_trigger": false,
      "taf_trigger": false,
      "metar": "METAR LZKZ 112030Z 36002KT 8000 NSC M07/M09 Q1015 NOSIG",
      "taf": "TAF LZKZ 111715Z 1118/1218 VRB02KT 9999 FEW045"
    },
    {
      "icao": "LZTT",
      "alert": "OK",
      "vis_m": 9000,
      "fzfg": false,
      "metar_trigger": false,
      "taf_trigger": false,
      "metar": "METAR LZTT 112030Z 27017KT 9000 -SN DRSN OVC033 M07/M10 Q1011",
      "taf": "TAF LZTT 111715Z 1118/1218 25015KT 9999 -SN DRSN FEW013 OVC040"
    },
    {
      "icao": "OEJN",
      "alert": "OK",
      "vis_m": 9999,
      "fzfg": false,
      "metar_trigger": false,
      "taf_trigger": false,
      "metar": "METAR OEJN 112000Z VRB02KT CAVOK 25/17 Q1015 NOSIG",
      "taf": "TAF OEJN 111700Z 1118/1224 36005KT CAVOK"
    },
    {
      "icao": "OEMA",
      "alert": "OK",
      "vis_m": 9999,
      "fzfg": false,
      "metar_trigger": false,
      "taf_trigger": false,
      "metar": "METAR OEMA 112000Z 36006KT CAVOK 19/01 Q1020 NOSIG",
      "taf": "TAF OEMA 111700Z 1118/1224 09008KT CAVOK"
    },
    {
      "icao": "OJAI",
      "alert": "OK",
      "vis_m": 5000,
      "fzfg": false,
      "metar_trigger": false,
      "taf_trigger": false,
      "metar": "METAR OJAI 112000Z 00000KT 5000 HZ NSC 08/04 Q1017 NOSIG",
      "taf": "TAF OJAI 111700Z 1118/1224 24014KT 5000 HZ NSC"
    },
    {
      "icao": "OMAA",
      "alert": "OK",
      "vis_m": 8000,
      "fzfg": false,
      "metar_trigger": false,
      "taf_trigger": false,
      "metar": "METAR OMAA 112000Z 35003KT 8000 NSC 19/14 Q1021 NOSIG",
      "taf": "TAF OMAA 111700Z 1118/1300 32005KT 8000 NSC"
    },
    {
      "icao": "OMDB",
      "alert": "OK",
      "vis_m": 9999,
      "fzfg": false,
      "metar_trigger": false,
      "taf_trigger": false,
      "metar": "METAR OMDB 112030Z VRB03KT CAVOK 22/12 Q1021 NOSIG",
      "taf": "TAF OMDB 111700Z 1118/1300 14005KT 8000 NSC"
    },
    {
      "icao": "UAAA",
      "alert": "OK",
      "vis_m": 1700,
      "fzfg": false,
      "metar_trigger": false,
      "taf_trigger": false,
      "metar": "METAR UAAA 112030Z VRB01MPS 1700 R05R/P2000D BR FU FEW100 BKN200 M01/M05 Q1021 NOSIG",
      "taf": "TAF UAAA 111707Z 1118/1218 22003MPS 1400 BR FU SCT030 BKN100 TX07/1209Z TNM03/1201Z"
    },
    {
      "icao": "UBBB",
      "alert": "OK",
      "vis_m": 9999,
      "fzfg": false,
      "metar_trigger": false,
      "taf_trigger": false,
      "metar": "METAR UBBB 112030Z 20024G34KT CAVOK 10/02 Q1010 NOSIG",
      "taf": "TAF UBBB 111704Z 1118/1218 19024G34KT CAVOK TX14/1209Z TN07/1200Z"
    },
    {
      "icao": "UDSG",
      "alert": "OK",
      "vis_m": 9999,
      "fzfg": false,
      "metar_trigger": false,
      "taf_trigger": false,
      "metar": "METAR UDSG 112030Z 36004KT 9999 BKN049 M04/M06 Q1018 NOSIG",
      "taf": "TAF UDSG 111658Z 1118/1218 VRB04KT 9999 BKN040"
    },
    {
      "icao": "UDYZ",
      "alert": "OK",
      "vis_m": 1500,
      "fzfg": false,
      "metar_trigger": false,
      "taf_trigger": false,
      "metar": "METAR UDYZ 112030Z 07002KT 1500 1100W R08/2000U BR FEW046 M02/M03 Q1020 NOSIG",
      "taf": "TAF UDYZ 111700Z 1118/1218 VRB06KT 2000 BR SCT040"
    },
    {
      "icao": "UGKO",
      "alert": "OK",
      "vis_m": 9999,
      "fzfg": false,
      "metar_trigger": false,
      "taf_trigger": false,
      "metar": "METAR UGKO 112030Z 08019KT CAVOK 12/M01 Q1008 NOSIG",
      "taf": "TAF UGKO 111700Z 1118/1218 08010KT CAVOK TX14/1212Z TN09/1202Z"
    }
  ]
}