{
  "ts_utc": "2026-07-06T01:19:35Z",
  "threshold_m": 150,
  "source": "stations_override.txt (ICAO list) + aviationweather.gov (METAR/TAF raw)",
  "station_count": 159,
  "stations": [
    {
      "icao": "BIKF",
      "alert": "OK",
      "vis_m": 9999,
      "fzfg": false,
      "metar_trigger": false,
      "taf_trigger": false,
      "metar": "METAR BIKF 060100Z 09006KT 9999 FEW021 SCT040 OVC110 11/06 Q1010",
      "taf": "TAF BIKF 052253Z 0600/0700 10010KT 9999 FEW025 TX13/0613Z TN09/0618Z"
    },
    {
      "icao": "BKPR",
      "alert": "OK",
      "vis_m": 9999,
      "fzfg": false,
      "metar_trigger": false,
      "taf_trigger": false,
      "metar": "METAR BKPR 060100Z 01003KT CAVOK 13/10 Q1019 NOSIG",
      "taf": "TAF BKPR 052330Z 0600/0624 34008KT CAVOK"
    },
    {
      "icao": "EBCI",
      "alert": "OK",
      "vis_m": 9999,
      "fzfg": false,
      "metar_trigger": false,
      "taf_trigger": false,
      "metar": "METAR EBCI 060050Z 20004KT CAVOK 16/14 Q1022 NOSIG",
      "taf": "TAF EBCI 052300Z 0600/0706 22006KT CAVOK"
    },
    {
      "icao": "EDDB",
      "alert": "OK",
      "vis_m": 9999,
      "fzfg": false,
      "metar_trigger": false,
      "taf_trigger": false,
      "metar": "METAR EDDB 060050Z AUTO 30007KT CAVOK 15/11 Q1016 NOSIG",
      "taf": "TAF EDDB 052300Z 0600/0624 28009KT CAVOK"
    },
    {
      "icao": "EDDH",
      "alert": "OK",
      "vis_m": 9999,
      "fzfg": false,
      "metar_trigger": false,
      "taf_trigger": false,
      "metar": "METAR EDDH 060050Z AUTO 26004KT 9999 FEW020 13/12 Q1016 NOSIG",
      "taf": "TAF EDDH 052300Z 0600/0706 29004KT 9999 SCT025"
    },
    {
      "icao": "EDDK",
      "alert": "OK",
      "vis_m": 9999,
      "fzfg": false,
      "metar_trigger": false,
      "taf_trigger": false,
      "metar": "METAR EDDK 060050Z AUTO 23004KT 200V260 9999 BKN044 17/14 Q1021 NOSIG",
      "taf": "TAF EDDK 052300Z 0600/0706 28005KT 9999 FEW040"
    },
    {
      "icao": "EDDN",
      "alert": "OK",
      "vis_m": 9999,
      "fzfg": false,
      "metar_trigger": false,
      "taf_trigger": false,
      "metar": "METAR EDDN 060050Z AUTO 26004KT 9999 FEW035 16/14 Q1020",
      "taf": "TAF EDDN 052300Z 0600/0624 28006KT 9999 SCT030"
    },
    {
      "icao": "EDDS",
      "alert": "OK",
      "vis_m": 9999,
      "fzfg": false,
      "metar_trigger": false,
      "taf_trigger": false,
      "metar": "METAR EDDS 060050Z AUTO 29003KT CAVOK 17/14 Q1022",
      "taf": "TAF EDDS 052300Z 0600/0624 26004KT 9999 SCT040"
    },
    {
      "icao": "EDFH",
      "alert": "OK",
      "vis_m": 9999,
      "fzfg": false,
      "metar_trigger": false,
      "taf_trigger": false,
      "metar": "METAR EDFH 060050Z 27004KT CAVOK 15/13 Q1022",
      "taf": "TAF EDFH 052300Z 0600/0624 27004KT 9999 FEW030"
    },
    {
      "icao": "EDJA",
      "alert": "OK",
      "vis_m": 9999,
      "fzfg": false,
      "metar_trigger": false,
      "taf_trigger": false,
      "metar": "METAR EDJA 060050Z AUTO 22007KT 9999 // FEW026/// BKN075/// BKN150/// 15/14 Q1023",
      "taf": "TAF EDJA 051700Z 0518/0603 36008KT CAVOK"
    },
    {
      "icao": "EDLW",
      "alert": "OK",
      "vis_m": 9999,
      "fzfg": false,
      "metar_trigger": false,
      "taf_trigger": false,
      "metar": "METAR EDLW 060050Z AUTO 20005KT 9999 // BKN044/// BKN085/// OVC130/// 16/14 Q1020",
      "taf": "TAF EDLW 051700Z 0518/0618 28008KT 9999 BKN035"
    },
    {
      "icao": "EDNY",
      "alert": "OK",
      "vis_m": 9999,
      "fzfg": false,
      "metar_trigger": false,
      "taf_trigger": false,
      "metar": "METAR EDNY 060050Z AUTO VRB02KT 9999 // BKN044/// 16/15 Q1022",
      "taf": "TAF EDNY 051700Z 0518/0603 VRB03KT CAVOK"
    },
    {
      "icao": "EDSB",
      "alert": "OK",
      "vis_m": 9999,
      "fzfg": false,
      "metar_trigger": false,
      "taf_trigger": false,
      "metar": "METAR EDSB 060050Z AUTO 19003KT 9999 // FEW160/// 18/14 Q1021",
      "taf": "TAF EDSB 052300Z 0600/0624 VRB03KT 9999 FEW035"
    },
    {
      "icao": "EETN",
      "alert": "OK",
      "vis_m": 9999,
      "fzfg": false,
      "metar_trigger": false,
      "taf_trigger": false,
      "metar": "METAR EETN 060050Z 30007KT 9999 BKN010 16/14 Q0996",
      "taf": "TAF EETN 052330Z 0600/0624 30012KT 9999 SCT010 FEW025CB BKN030"
    },
    {
      "icao": "EFTU",
      "alert": "OK",
      "vis_m": 9999,
      "fzfg": false,
      "metar_trigger": false,
      "taf_trigger": false,
      "metar": "METAR EFTU 060050Z AUTO 31004KT 9999 BKN006 OVC041 //////CB 14/14 Q0997",
      "taf": ""
    },
    {
      "icao": "EGBB",
      "alert": "OK",
      "vis_m": 9999,
      "fzfg": false,
      "metar_trigger": false,
      "taf_trigger": false,
      "metar": "METAR EGBB 060050Z 21004KT CAVOK 18/14 Q1021",
      "taf": "TAF EGBB 052259Z 0600/0624 25008KT 9999 FEW040"
    },
    {
      "icao": "EGGP",
      "alert": "OK",
      "vis_m": 9999,
      "fzfg": false,
      "metar_trigger": false,
      "taf_trigger": false,
      "metar": "METAR EGGP 060050Z 22003KT 190V270 CAVOK 16/14 Q1019",
      "taf": "TAF EGGP 052300Z 0600/0624 21006KT 9999 SCT020"
    },
    {
      "icao": "EGGW",
      "alert": "OK",
      "vis_m": 9999,
      "fzfg": false,
      "metar_trigger": false,
      "taf_trigger": false,
      "metar": "METAR EGGW 060050Z AUTO 25006KT 220V280 9999 NCD 18/16 Q1021",
      "taf": "TAF EGGW 052254Z 0600/0624 27012KT 9999 FEW045"
    },
    {
      "icao": "EGKK",
      "alert": "OK",
      "vis_m": 9999,
      "fzfg": false,
      "metar_trigger": false,
      "taf_trigger": false,
      "metar": "METAR EGKK 060050Z 23006KT CAVOK 18/15 Q1021",
      "taf": "TAF EGKK 052254Z 0600/0706 24009KT 9999 FEW045"
    },
    {
      "icao": "EGNM",
      "alert": "OK",
      "vis_m": 9999,
      "fzfg": false,
      "metar_trigger": false,
      "taf_trigger": false,
      "metar": "METAR EGNM 060050Z 24011KT 9999 BKN016 17/15 Q1018",
      "taf": "TAF EGNM 052258Z 0600/0624 27013KT 9999 SCT020"
    },
    {
      "icao": "EGPD",
      "alert": "OK",
      "vis_m": 9999,
      "fzfg": false,
      "metar_trigger": false,
      "taf_trigger": false,
      "metar": "METAR EGPD 060050Z AUTO 11001KT 9999 NCD 14/13 Q1011",
      "taf": "TAF EGPD 052254Z 0600/0624 24005KT 9999 FEW008 SCT040"
    },
    {
      "icao": "EGPF",
      "alert": "OK",
      "vis_m": 9999,
      "fzfg": false,
      "metar_trigger": false,
      "taf_trigger": false,
      "metar": "METAR EGPF 060050Z AUTO 26011KT 9999 -RA SCT012 BKN040 14/13 Q1015",
      "taf": "TAF EGPF 052254Z 0600/0624 25009KT 9999 SCT018"
    },
    {
      "icao": "EHBK",
      "alert": "OK",
      "vis_m": 9999,
      "fzfg": false,
      "metar_trigger": false,
      "taf_trigger": false,
      "metar": "METAR EHBK 060055Z AUTO 20005KT 9999 NSC 15/14 Q1021",
      "taf": "TAF EHBK 052313Z 0600/0706 VRB02KT CAVOK"
    },
    {
      "icao": "EHEH",
      "alert": "OK",
      "vis_m": 9999,
      "fzfg": false,
      "metar_trigger": false,
      "taf_trigger": false,
      "metar": "METAR EHEH 060055Z AUTO 20004KT 9999 OVC140 16/14 Q1020 BLU",
      "taf": "TAF EHEH 052354Z 0600/0706 23006KT CAVOK"
    },
    {
      "icao": "EKBI",
      "alert": "OK",
      "vis_m": 9999,
      "fzfg": false,
      "metar_trigger": false,
      "taf_trigger": false,
      "metar": "METAR EKBI 060050Z AUTO 27007KT 9999 BKN160/// 09/07 Q1014",
      "taf": "TAF EKBI 052327Z 0600/0624 27008KT 9999 FEW025"
    },
    {
      "icao": "EKCH",
      "alert": "OK",
      "vis_m": 9999,
      "fzfg": false,
      "metar_trigger": false,
      "taf_trigger": false,
      "metar": "METAR EKCH 060050Z AUTO 28009KT 9999 BKN170/// 11/08 Q1012 NOSIG",
      "taf": "TAF EKCH 052327Z 0600/0624 28010KT 9999 FEW025"
    },
    {
      "icao": "ENAL",
      "alert": "OK",
      "vis_m": 9999,
      "fzfg": false,
      "metar_trigger": false,
      "taf_trigger": false,
      "metar": "METAR ENAL 060050Z AUTO 20011KT 9999 BKN051/// OVC061/// 10/06 Q1008",
      "taf": "TAF ENAL 052300Z 0600/0609 24015KT 9999 SCT025 BKN045"
    },
    {
      "icao": "ENBR",
      "alert": "OK",
      "vis_m": 9999,
      "fzfg": false,
      "metar_trigger": false,
      "taf_trigger": false,
      "metar": "METAR ENBR 060050Z 12003KT 9999 NSC 08/05 Q1011 RMK WIND 1200FT 23007KT",
      "taf": "TAF ENBR 052300Z 0600/0624 29005KT 9999 SCT030"
    },
    {
      "icao": "ENGM",
      "alert": "OK",
      "vis_m": 9999,
      "fzfg": false,
      "metar_trigger": false,
      "taf_trigger": false,
      "metar": "METAR ENGM 060050Z 34004KT 310V010 CAVOK 10/01 Q1007",
      "taf": "TAF ENGM 052300Z 0600/0624 33005KT CAVOK"
    },
    {
      "icao": "ENHD",
      "alert": "OK",
      "vis_m": 9999,
      "fzfg": false,
      "metar_trigger": false,
      "taf_trigger": false,
      "metar": "METAR ENHD 060050Z AUTO 24002KT 9999 BKN028/// BKN034/// OVC046/// 10/07 Q1011",
      "taf": "TAF ENHD 051400Z 0515/0522 31012KT 9999 FEW035"
    },
    {
      "icao": "ENTC",
      "alert": "OK",
      "vis_m": 9999,
      "fzfg": false,
      "metar_trigger": false,
      "taf_trigger": false,
      "metar": "METAR ENTC 060050Z 03002KT CAVOK 11/09 Q1005 RMK WIND 2600FT 17013KT",
      "taf": "TAF ENTC 052300Z 0600/0624 03008KT 9999 FEW045"
    },
    {
      "icao": "ENTO",
      "alert": "OK",
      "vis_m": 9999,
      "fzfg": false,
      "metar_trigger": false,
      "taf_trigger": false,
      "metar": "METAR ENTO 060050Z AUTO 31005KT 9999 NCD 10/00 Q1007",
      "taf": "TAF ENTO 052300Z 0600/0624 33008KT CAVOK"
    },
    {
      "icao": "ENVA",
      "alert": "OK",
      "vis_m": 9999,
      "fzfg": false,
      "metar_trigger": false,
      "taf_trigger": false,
      "metar": "METAR ENVA 060050Z AUTO 18004KT 9999 BKN043/// 08/05 Q1008 RMK WIND 670FT 22008KT",
      "taf": "TAF ENVA 052300Z 0600/0624 20008KT 9999 FEW020 BKN030"
    },
    {
      "icao": "ENZV",
      "alert": "OK",
      "vis_m": 9999,
      "fzfg": false,
      "metar_trigger": false,
      "taf_trigger": false,
      "metar": "METAR ENZV 060050Z 16002KT 9999 FEW029 10/07 Q1012",
      "taf": "TAF ENZV 052300Z 0600/0624 31003KT 9999 SCT030"
    },
    {
      "icao": "EPGD",
      "alert": "OK",
      "vis_m": 9999,
      "fzfg": false,
      "metar_trigger": false,
      "taf_trigger": false,
      "metar": "METAR EPGD 060100Z 27012KT CAVOK 13/09 Q1009",
      "taf": "TAF EPGD 052330Z 0600/0624 27012KT 9999 FEW030"
    },
    {
      "icao": "EPKK",
      "alert": "OK",
      "vis_m": 9999,
      "fzfg": false,
      "metar_trigger": false,
      "taf_trigger": false,
      "metar": "METAR EPKK 060100Z 24004KT 9999 FEW053 13/13 Q1015",
      "taf": "TAF EPKK 052330Z 0600/0624 24006KT CAVOK"
    },
    {
      "icao": "EPKT",
      "alert": "OK",
      "vis_m": 9999,
      "fzfg": false,
      "metar_trigger": false,
      "taf_trigger": false,
      "metar": "METAR EPKT 060100Z 26004KT CAVOK 11/10 Q1015",
      "taf": "TAF EPKT 052330Z 0600/0624 28008KT CAVOK"
    },
    {
      "icao": "EPLB",
      "alert": "OK",
      "vis_m": 9999,
      "fzfg": false,
      "metar_trigger": false,
      "taf_trigger": false,
      "metar": "METAR EPLB 060100Z 28011KT CAVOK 14/12 Q1011",
      "taf": "TAF EPLB 052330Z 0600/0624 27010KT CAVOK"
    },
    {
      "icao": "EPMO",
      "alert": "OK",
      "vis_m": 9999,
      "fzfg": false,
      "metar_trigger": false,
      "taf_trigger": false,
      "metar": "METAR EPMO 060100Z 25009KT CAVOK 12/09 Q1011",
      "taf": "TAF EPMO 052330Z 0600/0624 28010KT CAVOK"
    },
    {
      "icao": "EPPO",
      "alert": "OK",
      "vis_m": 9999,
      "fzfg": false,
      "metar_trigger": false,
      "taf_trigger": false,
      "metar": "METAR EPPO 060100Z 28006KT 9999 FEW043 11/08 Q1014",
      "taf": "TAF EPPO 052330Z 0600/0624 31005KT CAVOK"
    },
    {
      "icao": "EPRA",
      "alert": "OK",
      "vis_m": 9999,
      "fzfg": false,
      "metar_trigger": false,
      "taf_trigger": false,
      "metar": "METAR EPRA 060100Z 27009KT CAVOK 13/11 Q1012",
      "taf": "TAF EPRA 052330Z 0600/0609 27010KT CAVOK"
    },
    {
      "icao": "EPRZ",
      "alert": "OK",
      "vis_m": 9999,
      "fzfg": false,
      "metar_trigger": false,
      "taf_trigger": false,
      "metar": "METAR EPRZ 060100Z 25008KT 9999 SCT043 14/14 Q1014",
      "taf": "TAF EPRZ 052330Z 0600/0624 25012KT CAVOK"
    },
    {
      "icao": "EPSC",
      "alert": "OK",
      "vis_m": 9999,
      "fzfg": false,
      "metar_trigger": false,
      "taf_trigger": false,
      "metar": "METAR EPSC 060100Z 25006KT CAVOK 12/09 Q1013",
      "taf": "TAF EPSC 052330Z 0600/0624 26010KT CAVOK"
    },
    {
      "icao": "EPSY",
      "alert": "OK",
      "vis_m": 9999,
      "fzfg": false,
      "metar_trigger": false,
      "taf_trigger": false,
      "metar": "METAR EPSY 060100Z 27008KT 230V300 CAVOK 12/09 Q1009",
      "taf": "TAF EPSY 052330Z 0600/0609 27010KT CAVOK"
    },
    {
      "icao": "EPWA",
      "alert": "OK",
      "vis_m": 9999,
      "fzfg": false,
      "metar_trigger": false,
      "taf_trigger": false,
      "metar": "METAR EPWA 060100Z 26010KT 9999 FEW038 13/11 Q1011 NOSIG",
      "taf": "TAF EPWA 052330Z 0600/0624 28010KT CAVOK"
    },
    {
      "icao": "EPWR",
      "alert": "OK",
      "vis_m": 9999,
      "fzfg": false,
      "metar_trigger": false,
      "taf_trigger": false,
      "metar": "METAR EPWR 060100Z 27009KT 9999 SCT042 15/11 Q1015",
      "taf": "TAF EPWR 052330Z 0600/0624 27008KT CAVOK"
    },
    {
      "icao": "ESGG",
      "alert": "OK",
      "vis_m": 9999,
      "fzfg": false,
      "metar_trigger": false,
      "taf_trigger": false,
      "metar": "METAR ESGG 060050Z 24008KT CAVOK 13/10 Q1007",
      "taf": "TAF ESGG 052330Z 0600/0624 28008KT CAVOK"
    },
    {
      "icao": "ESKN",
      "alert": "OK",
      "vis_m": 9999,
      "fzfg": false,
      "metar_trigger": false,
      "taf_trigger": false,
      "metar": "METAR ESKN 060050Z 30005KT 270V350 CAVOK 10/05 Q1006",
      "taf": "TAF ESKN 052330Z 0600/0624 30009KT CAVOK"
    },
    {
      "icao": "ESMS",
      "alert": "OK",
      "vis_m": 9999,
      "fzfg": false,
      "metar_trigger": false,
      "taf_trigger": false,
      "metar": "METAR ESMS 060050Z 30010KT CAVOK 12/07 Q1011",
      "taf": "TAF ESMS 052327Z 0600/0624 28010KT CAVOK"
    },
    {
      "icao": "ESSA",
      "alert": "OK",
      "vis_m": 9999,
      "fzfg": false,
      "metar_trigger": false,
      "taf_trigger": false,
      "metar": "METAR ESSA 060050Z 29008KT CAVOK 08/04 Q1004 NOSIG",
      "taf": "TAF ESSA 052330Z 0600/0624 32012KT 9999 SCT040"
    },
    {
      "icao": "EYKA",
      "alert": "OK",
      "vis_m": 9999,
      "fzfg": false,
      "metar_trigger": false,
      "taf_trigger": false,
      "metar": "METAR EYKA 060050Z 27005KT 9999 SCT041 13/13 Q1003",
      "taf": "TAF EYKA 052320Z 0600/0624 25006KT 9000 SCT035"
    },
    {
      "icao": "EYPA",
      "alert": "OK",
      "vis_m": 9999,
      "fzfg": false,
      "metar_trigger": false,
      "taf_trigger": false,
      "metar": "METAR EYPA 060050Z 33005KT 290V020 9999 FEW010 BKN019 BKN030CB 14/14 Q1003",
      "taf": "TAF EYPA 052310Z 0600/0624 31010KT 9000 BKN025"
    },
    {
      "icao": "EYVI",
      "alert": "OK",
      "vis_m": 9999,
      "fzfg": false,
      "metar_trigger": false,
      "taf_trigger": false,
      "metar": "METAR EYVI 060050Z 25005KT 220V280 9999 BKN004 BKN020CB 13/13 Q1003 TEMPO 5000 SHRA",
      "taf": "TAF EYVI 052320Z 0600/0624 25010KT 9000 BKN015"
    },
    {
      "icao": "GCFV",
      "alert": "OK",
      "vis_m": 9999,
      "fzfg": false,
      "metar_trigger": false,
      "taf_trigger": false,
      "metar": "METAR GCFV 060100Z AUTO 34008KT 320V020 CAVOK 24/17 Q1017",
      "taf": "TAF GCFV 052000Z 0521/0621 30014KT 9999 FEW020 TX33/0614Z TN22/0606Z"
    },
    {
      "icao": "GCLP",
      "alert": "OK",
      "vis_m": 9999,
      "fzfg": false,
      "metar_trigger": false,
      "taf_trigger": false,
      "metar": "METAR GCLP 060100Z 01022KT 9999 FEW020 22/19 Q1017 NOSIG",
      "taf": "TAF GCLP 052000Z 0521/0621 36021KT 9999 FEW020 TX30/0614Z TN22/0606Z"
    },
    {
      "icao": "GCTS",
      "alert": "OK",
      "vis_m": 9999,
      "fzfg": false,
      "metar_trigger": false,
      "taf_trigger": false,
      "metar": "METAR GCTS 060100Z 25005KT 210V270 9999 SCT020 22/20 Q1018 NOSIG",
      "taf": "TAF GCTS 052000Z 0521/0621 VRB06KT 9999 FEW020 TX31/0614Z TN22/0606Z"
    },
    {
      "icao": "GMAD",
      "alert": "OK",
      "vis_m": 6000,
      "fzfg": false,
      "metar_trigger": false,
      "taf_trigger": false,
      "metar": "METAR GMAD 060100Z 19003KT 140V230 6000 OVC006 22/21 Q1016 NOSIG",
      "taf": "TAF GMAD 052300Z 0600/0706 23004KT 6000 OVC006"
    },
    {
      "icao": "GMMN",
      "alert": "OK",
      "vis_m": 9999,
      "fzfg": false,
      "metar_trigger": false,
      "taf_trigger": false,
      "metar": "METAR GMMN 060100Z 03004KT CAVOK 23/18 Q1016 NOSIG",
      "taf": "TAF GMMN 052300Z 0600/0706 12003KT CAVOK"
    },
    {
      "icao": "GMMX",
      "alert": "OK",
      "vis_m": 9999,
      "fzfg": false,
      "metar_trigger": false,
      "taf_trigger": false,
      "metar": "METAR GMMX 060100Z 24004KT CAVOK 29/13 Q1018 NOSIG",
      "taf": "TAF GMMX 052300Z 0600/0706 02006KT CAVOK"
    },
    {
      "icao": "HEGN",
      "alert": "OK",
      "vis_m": 9999,
      "fzfg": false,
      "metar_trigger": false,
      "taf_trigger": false,
      "metar": "METAR HEGN 060000Z 29011KT CAVOK 31/13 Q1006 NOSIG",
      "taf": "TAF HEGN 052300Z 0600/0706 30010KT CAVOK"
    },
    {
      "icao": "HEMA",
      "alert": "OK",
      "vis_m": 9999,
      "fzfg": false,
      "metar_trigger": false,
      "taf_trigger": false,
      "metar": "METAR HEMA 060000Z 29004KT CAVOK 30/06 Q1005 NOSIG",
      "taf": "TAF HEMA 052300Z 0600/0706 29010KT CAVOK"
    },
    {
      "icao": "HESH",
      "alert": "OK",
      "vis_m": 9999,
      "fzfg": false,
      "metar_trigger": false,
      "taf_trigger": false,
      "metar": "METAR HESH 060000Z 34016KT CAVOK 31/19 Q1005 NOSIG",
      "taf": "TAF HESH 052300Z 0600/0706 33012KT CAVOK"
    },
    {
      "icao": "HESX",
      "alert": "OK",
      "vis_m": 9999,
      "fzfg": false,
      "metar_trigger": false,
      "taf_trigger": false,
      "metar": "METAR HESX 060000Z 04007KT CAVOK 26/21 Q1007 NOSIG",
      "taf": "TAF HESX 052300Z 0600/0706 05006KT CAVOK"
    },
    {
      "icao": "LATI",
      "alert": "OK",
      "vis_m": null,
      "fzfg": false,
      "metar_trigger": false,
      "taf_trigger": false,
      "metar": "",
      "taf": "TAF LATI 052300Z 0600/0624 VRB03KT CAVOK TX34/0611Z TN17/0604Z"
    },
    {
      "icao": "LBPD",
      "alert": "OK",
      "vis_m": 9999,
      "fzfg": false,
      "metar_trigger": false,
      "taf_trigger": false,
      "metar": "METAR LBPD 060100Z AUTO 29007KT 9999 NCD 19/11 Q1016",
      "taf": "TAF LBPD 052300Z 0600/0624 VRB03KT 9999 SCT050"
    },
    {
      "icao": "LBSF",
      "alert": "OK",
      "vis_m": 9999,
      "fzfg": false,
      "metar_trigger": false,
      "taf_trigger": false,
      "metar": "METAR LBSF 060100Z AUTO VRB02KT 9999 NCD 12/11 Q1018 NOSIG",
      "taf": "TAF LBSF 052300Z 0600/0624 VRB03KT 9999 SCT050"
    },
    {
      "icao": "LBWN",
      "alert": "OK",
      "vis_m": 9999,
      "fzfg": false,
      "metar_trigger": false,
      "taf_trigger": false,
      "metar": "METAR LBWN 060100Z AUTO 33003KT 9999 NCD 16/16 Q1014 NOSIG",
      "taf": "TAF LBWN 052300Z 0600/0624 VRB04KT 9999 SCT045"
    },
    {
      "icao": "LCLK",
      "alert": "OK",
      "vis_m": 8000,
      "fzfg": false,
      "metar_trigger": false,
      "taf_trigger": false,
      "metar": "METAR LCLK 060100Z 23004KT 8000 NSC 25/24 Q1005 TEMPO 5000 BR BKN008",
      "taf": "TAF LCLK 052330Z 0600/0700 23008KT 8000 FEW015"
    },
    {
      "icao": "LCPH",
      "alert": "OK",
      "vis_m": 9999,
      "fzfg": false,
      "metar_trigger": false,
      "taf_trigger": false,
      "metar": "METAR LCPH 060100Z AUTO 07002KT 9999 OVC019 25/22 Q1005 NOSIG",
      "taf": "TAF LCPH 052330Z 0600/0700 06005KT 9999 FEW015"
    },
    {
      "icao": "LEAL",
      "alert": "OK",
      "vis_m": 9999,
      "fzfg": false,
      "metar_trigger": false,
      "taf_trigger": false,
      "metar": "METAR LEAL 060100Z 27004KT CAVOK 24/14 Q1019 NOSIG",
      "taf": "TAF LEAL 052300Z 0600/0624 VRB04KT CAVOK TX35/0612Z TN21/0606Z"
    },
    {
      "icao": "LEBB",
      "alert": "OK",
      "vis_m": 9999,
      "fzfg": false,
      "metar_trigger": false,
      "taf_trigger": false,
      "metar": "METAR LEBB 060100Z AUTO 08004KT CAVOK 19/14 Q1020",
      "taf": "TAF LEBB 052300Z 0600/0624 08008KT CAVOK TX39/0613Z TN17/0605Z"
    },
    {
      "icao": "LEBL",
      "alert": "OK",
      "vis_m": 9999,
      "fzfg": false,
      "metar_trigger": false,
      "taf_trigger": false,
      "metar": "METAR LEBL 060100Z 33005KT CAVOK 26/12 Q1019 NOSIG",
      "taf": "TAF LEBL 052300Z 0600/0624 33005KT CAVOK TX32/0613Z TN24/0606Z"
    },
    {
      "icao": "LECH",
      "alert": "OK",
      "vis_m": 9999,
      "fzfg": false,
      "metar_trigger": false,
      "taf_trigger": false,
      "metar": "METAR LECH 060100Z AUTO 19006KT CAVOK 23/11 Q1021",
      "taf": "TAF LECH 052300Z 0600/0624 24005KT CAVOK TX38/0612Z TN19/0606Z"
    },
    {
      "icao": "LEMD",
      "alert": "OK",
      "vis_m": 9999,
      "fzfg": false,
      "metar_trigger": false,
      "taf_trigger": false,
      "metar": "METAR LEMD 060100Z 01004KT CAVOK 26/08 Q1020 NOSIG",
      "taf": "TAF LEMD 052300Z 0600/0706 VRB04KT CAVOK TX40/0616Z TN22/0606Z"
    },
    {
      "icao": "LEMG",
      "alert": "OK",
      "vis_m": 9999,
      "fzfg": false,
      "metar_trigger": false,
      "taf_trigger": false,
      "metar": "METAR LEMG 060100Z 28007KT CAVOK 23/18 Q1020 NOSIG",
      "taf": "TAF LEMG 052300Z 0600/0624 29007KT CAVOK TX30/0614Z TN20/0606Z"
    },
    {
      "icao": "LEVC",
      "alert": "OK",
      "vis_m": 9999,
      "fzfg": false,
      "metar_trigger": false,
      "taf_trigger": false,
      "metar": "METAR LEVC 060100Z 28004KT CAVOK 23/14 Q1019 NOSIG",
      "taf": "TAF LEVC 052300Z 0600/0624 VRB04KT CAVOK TX38/0612Z TN22/0606Z"
    },
    {
      "icao": "LEXJ",
      "alert": "OK",
      "vis_m": 9999,
      "fzfg": false,
      "metar_trigger": false,
      "taf_trigger": false,
      "metar": "METAR LEXJ 060100Z AUTO 00000KT CAVOK 18/15 Q1019",
      "taf": ""
    },
    {
      "icao": "LEZG",
      "alert": "OK",
      "vis_m": 9999,
      "fzfg": false,
      "metar_trigger": false,
      "taf_trigger": false,
      "metar": "METAR LEZG 060100Z VRB02KT CAVOK 25/12 Q1020 NOSIG",
      "taf": "TAF LEZG 052300Z 0600/0624 29006KT CAVOK TX42/0615Z TN23/0606Z"
    },
    {
      "icao": "LEZL",
      "alert": "OK",
      "vis_m": 9999,
      "fzfg": false,
      "metar_trigger": false,
      "taf_trigger": false,
      "metar": "METAR LEZL 060100Z AUTO 26006KT 210V280 CAVOK 30/13 Q1017",
      "taf": "TAF LEZL 052000Z 0521/0621 23010KT CAVOK TX42/0615Z TN23/0605Z"
    },
    {
      "icao": "LFBD",
      "alert": "OK",
      "vis_m": 9999,
      "fzfg": false,
      "metar_trigger": false,
      "taf_trigger": false,
      "metar": "METAR LFBD 060100Z AUTO 05005KT CAVOK 22/14 Q1020 NOSIG",
      "taf": "TAF LFBD 052300Z 0600/0706 02005KT CAVOK TX40/0615Z TN22/0605Z"
    },
    {
      "icao": "LFLL",
      "alert": "OK",
      "vis_m": 9999,
      "fzfg": false,
      "metar_trigger": false,
      "taf_trigger": false,
      "metar": "METAR LFLL 060100Z 32005KT CAVOK 21/12 Q1022 NOSIG",
      "taf": "TAF LFLL 052300Z 0600/0706 VRB02KT CAVOK"
    },
    {
      "icao": "LFLS",
      "alert": "OK",
      "vis_m": 9999,
      "fzfg": false,
      "metar_trigger": false,
      "taf_trigger": false,
      "metar": "METAR LFLS 060100Z AUTO 14005KT 110V180 CAVOK 16/11 Q1022",
      "taf": "TAF LFLS 051400Z 0515/0615 35013KT CAVOK"
    },
    {
      "icao": "LFMN",
      "alert": "OK",
      "vis_m": 9999,
      "fzfg": false,
      "metar_trigger": false,
      "taf_trigger": false,
      "metar": "METAR LFMN 060100Z 33004KT CAVOK 24/16 Q1016 NOSIG",
      "taf": "TAF LFMN 052000Z 0521/0703 VRB04KT CAVOK"
    },
    {
      "icao": "LFOB",
      "alert": "OK",
      "vis_m": 9999,
      "fzfg": false,
      "metar_trigger": false,
      "taf_trigger": false,
      "metar": "METAR LFOB 060100Z AUTO 31003KT CAVOK 14/13 Q1023 NOSIG",
      "taf": "TAF LFOB 052300Z 0600/0624 VRB03KT CAVOK"
    },
    {
      "icao": "LFPO",
      "alert": "OK",
      "vis_m": 9999,
      "fzfg": false,
      "metar_trigger": false,
      "taf_trigger": false,
      "metar": "METAR LFPO 060100Z AUTO 28002KT CAVOK 20/14 Q1023 NOSIG",
      "taf": "TAF LFPO 052300Z 0600/0706 32006KT CAVOK"
    },
    {
      "icao": "LFSB",
      "alert": "OK",
      "vis_m": 9999,
      "fzfg": false,
      "metar_trigger": false,
      "taf_trigger": false,
      "metar": "METAR LFSB 060100Z AUTO 28003KT CAVOK 17/13 Q1022 NOSIG",
      "taf": "TAF LFSB 052300Z 0600/0624 30010KT CAVOK"
    },
    {
      "icao": "LGAV",
      "alert": "OK",
      "vis_m": 9999,
      "fzfg": false,
      "metar_trigger": false,
      "taf_trigger": false,
      "metar": "METAR LGAV 060050Z 01007KT CAVOK 22/08 Q1014 NOSIG",
      "taf": "TAF LGAV 052300Z 0600/0624 02015KT 9999 FEW025"
    },
    {
      "icao": "LGTS",
      "alert": "OK",
      "vis_m": 9999,
      "fzfg": false,
      "metar_trigger": false,
      "taf_trigger": false,
      "metar": "METAR LGTS 060050Z VRB02KT 9999 FEW025 20/13 Q1015 NOSIG",
      "taf": "TAF LGTS 052300Z 0600/0624 33013KT 9999 FEW030"
    },
    {
      "icao": "LHBP",
      "alert": "OK",
      "vis_m": 9999,
      "fzfg": false,
      "metar_trigger": false,
      "taf_trigger": false,
      "metar": "METAR LHBP 060100Z 33005KT CAVOK 19/12 Q1016 NOSIG",
      "taf": "TAF LHBP 052315Z 0600/0624 30007KT CAVOK"
    },
    {
      "icao": "LHDC",
      "alert": "OK",
      "vis_m": 9999,
      "fzfg": false,
      "metar_trigger": false,
      "taf_trigger": false,
      "metar": "METAR LHDC 060045Z AUTO 35004KT CAVOK 18/12 Q1014 NOSIG",
      "taf": "TAF LHDC 052315Z 0600/0609 VRB03KT CAVOK"
    },
    {
      "icao": "LIBD",
      "alert": "OK",
      "vis_m": 9999,
      "fzfg": false,
      "metar_trigger": false,
      "taf_trigger": false,
      "metar": "METAR LIBD 060050Z 25007KT CAVOK 20/09 Q1016",
      "taf": "TAF LIBD 052300Z 0600/0624 VRB05KT CAVOK"
    },
    {
      "icao": "LIBG",
      "alert": "OK",
      "vis_m": 9999,
      "fzfg": false,
      "metar_trigger": false,
      "taf_trigger": false,
      "metar": "METAR LIBG 060050Z AUTO 33003KT 290V360 9999 NCD 24/11 Q1015",
      "taf": "TAF LIBG 052300Z 0600/0624 VRB05KT CAVOK"
    },
    {
      "icao": "LIBP",
      "alert": "OK",
      "vis_m": 9999,
      "fzfg": false,
      "metar_trigger": false,
      "taf_trigger": false,
      "metar": "METAR LIBP 060050Z AUTO 25006KT 220V340 9999 FEW059/// BKN100/// BKN170/// 21/15 Q1017",
      "taf": "TAF LIBP 052300Z 0600/0624 VRB05KT CAVOK"
    },
    {
      "icao": "LIBR",
      "alert": "OK",
      "vis_m": 9999,
      "fzfg": false,
      "metar_trigger": false,
      "taf_trigger": false,
      "metar": "METAR LIBR 060050Z 33009KT CAVOK 25/18 Q1015",
      "taf": "TAF LIBR 052300Z 0600/0624 34012KT CAVOK"
    },
    {
      "icao": "LICA",
      "alert": "OK",
      "vis_m": 9999,
      "fzfg": false,
      "metar_trigger": false,
      "taf_trigger": false,
      "metar": "METAR LICA 060050Z AUTO 07005KT 040V110 9999 NCD 19/17 Q1017",
      "taf": "TAF LICA 052300Z 0600/0624 VRB05KT CAVOK"
    },
    {
      "icao": "LICC",
      "alert": "OK",
      "vis_m": 9999,
      "fzfg": false,
      "metar_trigger": false,
      "taf_trigger": false,
      "metar": "METAR LICC 060050Z 27006KT CAVOK 22/14 Q1017",
      "taf": "TAF LICC 052300Z 0600/0624 26006KT CAVOK"
    },
    {
      "icao": "LICJ",
      "alert": "OK",
      "vis_m": 9999,
      "fzfg": false,
      "metar_trigger": false,
      "taf_trigger": false,
      "metar": "METAR LICJ 060050Z 23003KT CAVOK 25/18 Q1017",
      "taf": "TAF LICJ 052300Z 0600/0624 VRB05KT CAVOK"
    },
    {
      "icao": "LIMC",
      "alert": "OK",
      "vis_m": 9999,
      "fzfg": false,
      "metar_trigger": false,
      "taf_trigger": false,
      "metar": "METAR LIMC 060050Z VRB02KT CAVOK 20/14 Q1016 NOSIG",
      "taf": "TAF LIMC 052300Z 0600/0706 VRB05KT CAVOK"
    },
    {
      "icao": "LIME",
      "alert": "OK",
      "vis_m": 9999,
      "fzfg": false,
      "metar_trigger": false,
      "taf_trigger": false,
      "metar": "METAR LIME 060050Z VRB02KT 9999 FEW080 23/15 Q1016 NOSIG",
      "taf": "TAF LIME 052300Z 0600/0624 VRB06KT CAVOK"
    },
    {
      "icao": "LIMF",
      "alert": "OK",
      "vis_m": 9999,
      "fzfg": false,
      "metar_trigger": false,
      "taf_trigger": false,
      "metar": "METAR LIMF 060050Z 33005KT CAVOK 22/14 Q1017",
      "taf": "TAF LIMF 052300Z 0600/0624 VRB05KT CAVOK"
    },
    {
      "icao": "LIMJ",
      "alert": "OK",
      "vis_m": 9999,
      "fzfg": false,
      "metar_trigger": false,
      "taf_trigger": false,
      "metar": "METAR LIMJ 060050Z 06003KT CAVOK 24/16 Q1016",
      "taf": "TAF LIMJ 052300Z 0600/0624 02006KT CAVOK"
    },
    {
      "icao": "LIPE",
      "alert": "OK",
      "vis_m": 9999,
      "fzfg": false,
      "metar_trigger": false,
      "taf_trigger": false,
      "metar": "METAR LIPE 060050Z AUTO 21005KT 9999 NCD 24/17 Q1015",
      "taf": "TAF LIPE 052300Z 0600/0624 VRB05KT CAVOK"
    },
    {
      "icao": "LIPH",
      "alert": "OK",
      "vis_m": 9999,
      "fzfg": false,
      "metar_trigger": false,
      "taf_trigger": false,
      "metar": "METAR LIPH 060050Z AUTO 04005KT 360V070 9999 SCT140/// BKN190/// 22/18 Q1017",
      "taf": "TAF LIPH 052300Z 0600/0624 VRB05KT 9999 FEW040"
    },
    {
      "icao": "LIPQ",
      "alert": "OK",
      "vis_m": 9999,
      "fzfg": false,
      "metar_trigger": false,
      "taf_trigger": false,
      "metar": "METAR LIPQ 060050Z AUTO 09003KT 360V130 9999 -RA FEW002/// BKN100/// BKN140/// 19/18 Q1017 RERA",
      "taf": "TAF LIPQ 052300Z 0600/0624 VRB05KT 9999 FEW040"
    },
    {
      "icao": "LIPR",
      "alert": "OK",
      "vis_m": 9999,
      "fzfg": false,
      "metar_trigger": false,
      "taf_trigger": false,
      "metar": "METAR LIPR 060050Z AUTO 24002KT 9999 BKN130/// BKN170/// 22/15 Q1015",
      "taf": "TAF LIPR 052300Z 0600/0624 VRB05KT CAVOK"
    },
    {
      "icao": "LIPX",
      "alert": "OK",
      "vis_m": 9999,
      "fzfg": false,
      "metar_trigger": false,
      "taf_trigger": false,
      "metar": "METAR LIPX 060050Z 08005KT CAVOK 24/17 Q1016",
      "taf": "TAF LIPX 052300Z 0600/0624 VRB05KT CAVOK"
    },
    {
      "icao": "LIPY",
      "alert": "OK",
      "vis_m": 9999,
      "fzfg": false,
      "metar_trigger": false,
      "taf_trigger": false,
      "metar": "METAR LIPY 060050Z AUTO 22004KT 9999 BKN170/// 21/15 Q1015",
      "taf": "TAF LIPY 052300Z 0600/0624 VRB05KT CAVOK"
    },
    {
      "icao": "LIPZ",
      "alert": "OK",
      "vis_m": 9999,
      "fzfg": false,
      "metar_trigger": false,
      "taf_trigger": false,
      "metar": "METAR LIPZ 060050Z 04010KT 9999 FEW070CB 21/18 Q1016 NOSIG",
      "taf": "TAF LIPZ 052300Z 0600/0706 16010KT 9999 FEW040"
    },
    {
      "icao": "LIRF",
      "alert": "OK",
      "vis_m": 9999,
      "fzfg": false,
      "metar_trigger": false,
      "taf_trigger": false,
      "metar": "METAR LIRF 060050Z 05002KT CAVOK 21/20 Q1016 NOSIG",
      "taf": "TAF LIRF 052300Z 0600/0706 VRB05KT CAVOK"
    },
    {
      "icao": "LIRN",
      "alert": "OK",
      "vis_m": 9999,
      "fzfg": false,
      "metar_trigger": false,
      "taf_trigger": false,
      "metar": "METAR LIRN 060050Z 09003KT CAVOK 24/15 Q1017 NOSIG",
      "taf": "TAF LIRN 052300Z 0600/0624 VRB05KT CAVOK"
    },
    {
      "icao": "LIRP",
      "alert": "OK",
      "vis_m": 9999,
      "fzfg": false,
      "metar_trigger": false,
      "taf_trigger": false,
      "metar": "METAR LIRP 060045Z 23004KT CAVOK 21/19 Q1016 NOSIG",
      "taf": "TAF LIRP 052300Z 0600/0624 VRB03KT CAVOK"
    },
    {
      "icao": "LIRZ",
      "alert": "OK",
      "vis_m": 9999,
      "fzfg": false,
      "metar_trigger": false,
      "taf_trigger": false,
      "metar": "METAR LIRZ 060050Z AUTO 03005KT 9999 NCD 20/17 Q1017",
      "taf": "TAF LIRZ 052300Z 0600/0624 VRB05KT 9999 FEW040"
    },
    {
      "icao": "LJLJ",
      "alert": "OK",
      "vis_m": 9999,
      "fzfg": false,
      "metar_trigger": false,
      "taf_trigger": false,
      "metar": "METAR LJLJ 060100Z 01004KT 300V050 9999 FEW050TCU SCT075 BKN100 17/16 Q1019 NOSIG",
      "taf": "TAF LJLJ 052300Z 0600/0700 VRB02KT 9999 SCT090"
    },
    {
      "icao": "LKMT",
      "alert": "OK",
      "vis_m": 9999,
      "fzfg": false,
      "metar_trigger": false,
      "taf_trigger": false,
      "metar": "METAR LKMT 060100Z 23004KT CAVOK 13/12 Q1016 NOSIG",
      "taf": "TAF LKMT 052300Z 0600/0624 22008KT CAVOK"
    },
    {
      "icao": "LKPR",
      "alert": "OK",
      "vis_m": 9999,
      "fzfg": false,
      "metar_trigger": false,
      "taf_trigger": false,
      "metar": "METAR LKPR 060100Z 27007KT 9999 -SHRA FEW030TCU 16/14 Q1018 NOSIG",
      "taf": "TAF LKPR 052300Z 0600/0706 27010KT 9999 SCT045"
    },
    {
      "icao": "LLBG",
      "alert": "OK",
      "vis_m": 9999,
      "fzfg": false,
      "metar_trigger": false,
      "taf_trigger": false,
      "metar": "METAR LLBG 060050Z 15007KT 9999 SCT023 25/22 Q1007 NOSIG",
      "taf": "TAF LLBG 052301Z 0600/0624 VRB04KT 9999 SCT023 TX31/0611Z TN25/0603Z"
    },
    {
      "icao": "LMML",
      "alert": "OK",
      "vis_m": 9999,
      "fzfg": false,
      "metar_trigger": false,
      "taf_trigger": false,
      "metar": "METAR LMML 060115Z 11006KT 9999 FEW010 24/22 Q1016 NOSIG",
      "taf": "TAF LMML 052300Z 0600/0624 16006KT 9999 FEW015"
    },
    {
      "icao": "LOWW",
      "alert": "OK",
      "vis_m": 9999,
      "fzfg": false,
      "metar_trigger": false,
      "taf_trigger": false,
      "metar": "METAR LOWW 060050Z 28012KT 9999 SCT050 20/13 Q1018 NOSIG",
      "taf": "TAF LOWW 052315Z 0600/0706 29010KT 9999 FEW050 TX24/0614Z TN18/0703Z"
    },
    {
      "icao": "LPFR",
      "alert": "OK",
      "vis_m": 9999,
      "fzfg": false,
      "metar_trigger": false,
      "taf_trigger": false,
      "metar": "METAR LPFR 060100Z 36002KT CAVOK 27/15 Q1017",
      "taf": "TAF LPFR 052300Z 0600/0624 VRB02KT CAVOK"
    },
    {
      "icao": "LPMA",
      "alert": "OK",
      "vis_m": 9999,
      "fzfg": false,
      "metar_trigger": false,
      "taf_trigger": false,
      "metar": "METAR LPMA 060100Z 31005KT 9999 BKN015 22/17 Q1019",
      "taf": "TAF LPMA 052300Z 0600/0624 VRB05KT 9999 SCT016"
    },
    {
      "icao": "LPPR",
      "alert": "OK",
      "vis_m": 800,
      "fzfg": false,
      "metar_trigger": false,
      "taf_trigger": false,
      "metar": "METAR LPPR 060100Z VRB01KT 0800 R17/1000N FG BKN001 BKN003 20/19 Q1018",
      "taf": ""
    },
    {
      "icao": "LPPS",
      "alert": "OK",
      "vis_m": 9999,
      "fzfg": false,
      "metar_trigger": false,
      "taf_trigger": false,
      "metar": "METAR LPPS 060100Z 32005KT 9999 SCT014 SCT030 21/17 Q1019",
      "taf": "TAF LPPS 052300Z 0600/0706 34007KT 9999 SCT015 SCT030"
    },
    {
      "icao": "LPPT",
      "alert": "OK",
      "vis_m": 9999,
      "fzfg": false,
      "metar_trigger": false,
      "taf_trigger": false,
      "metar": "METAR LPPT 060100Z VRB01KT CAVOK 26/07 Q1018 NOSIG",
      "taf": "TAF LPPT 052300Z 0600/0706 VRB02KT CAVOK"
    },
    {
      "icao": "LQBK",
      "alert": "OK",
      "vis_m": 9999,
      "fzfg": false,
      "metar_trigger": false,
      "taf_trigger": false,
      "metar": "METAR LQBK 060100Z VRB01KT CAVOK 17/13 Q1017 NOSIG",
      "taf": "TAF LQBK 052300Z 0600/0624 33005KT CAVOK TX28/0614Z TN16/0603Z"
    },
    {
      "icao": "LQSA",
      "alert": "OK",
      "vis_m": 9999,
      "fzfg": false,
      "metar_trigger": false,
      "taf_trigger": false,
      "metar": "METAR LQSA 060100Z 16004KT 130V190 CAVOK 15/11 Q1020",
      "taf": "TAF LQSA 052300Z 0600/0624 VRB02KT CAVOK TX27/0614Z TN12/0603Z"
    },
    {
      "icao": "LQTZ",
      "alert": "OK",
      "vis_m": 9999,
      "fzfg": false,
      "metar_trigger": false,
      "taf_trigger": false,
      "metar": "METAR LQTZ 060100Z VRB02KT CAVOK 13/13 Q1018",
      "taf": "TAF LQTZ 052300Z 0600/0624 03005KT CAVOK TX27/0614Z TN13/0603Z"
    },
    {
      "icao": "LRBC",
      "alert": "OK",
      "vis_m": 9999,
      "fzfg": false,
      "metar_trigger": false,
      "taf_trigger": false,
      "metar": "METAR LRBC 060100Z VRB01KT CAVOK 14/12 Q1013",
      "taf": "TAF LRBC 052300Z 0600/0609 VRB04KT CAVOK"
    },
    {
      "icao": "LRBS",
      "alert": "OK",
      "vis_m": 9999,
      "fzfg": false,
      "metar_trigger": false,
      "taf_trigger": false,
      "metar": "METAR LRBS 060100Z AUTO 00000KT 9999 NCD 17/14 Q1014 NOSIG",
      "taf": "TAF LRBS 052300Z 0600/0624 VRB04KT CAVOK"
    },
    {
      "icao": "LRBV",
      "alert": "OK",
      "vis_m": 9999,
      "fzfg": false,
      "metar_trigger": false,
      "taf_trigger": false,
      "metar": "METAR LRBV 060100Z AUTO 22006KT 190V260 9999 SCT062/// 13/10 Q1016",
      "taf": "TAF LRBV 051700Z 0518/0603 27007KT CAVOK"
    },
    {
      "icao": "LRCL",
      "alert": "OK",
      "vis_m": 9999,
      "fzfg": false,
      "metar_trigger": false,
      "taf_trigger": false,
      "metar": "METAR LRCL 060100Z 32001KT CAVOK 16/11 Q1015",
      "taf": "TAF LRCL 052300Z 0600/0609 VRB04KT CAVOK"
    },
    {
      "icao": "LRCV",
      "alert": "OK",
      "vis_m": 9999,
      "fzfg": false,
      "metar_trigger": false,
      "taf_trigger": false,
      "metar": "METAR LRCV 060100Z 25005KT CAVOK 16/12 Q1015",
      "taf": "TAF LRCV 052300Z 0600/0609 VRB04KT CAVOK"
    },
    {
      "icao": "LRIA",
      "alert": "OK",
      "vis_m": 9999,
      "fzfg": false,
      "metar_trigger": false,
      "taf_trigger": false,
      "metar": "METAR LRIA 060100Z 20003KT CAVOK 17/11 Q1012",
      "taf": "TAF LRIA 052300Z 0600/0609 VRB04KT CAVOK"
    },
    {
      "icao": "LROP",
      "alert": "OK",
      "vis_m": 9999,
      "fzfg": false,
      "metar_trigger": false,
      "taf_trigger": false,
      "metar": "METAR LROP 060100Z VRB02KT CAVOK 16/15 Q1014 NOSIG",
      "taf": "TAF LROP 052300Z 0600/0624 VRB04KT CAVOK"
    },
    {
      "icao": "LRSB",
      "alert": "OK",
      "vis_m": 9999,
      "fzfg": false,
      "metar_trigger": false,
      "taf_trigger": false,
      "metar": "METAR LRSB 060100Z VRB02KT CAVOK 14/12 Q1016",
      "taf": "TAF LRSB 052300Z 0600/0624 VRB04KT CAVOK"
    },
    {
      "icao": "LRSM",
      "alert": "OK",
      "vis_m": 9999,
      "fzfg": false,
      "metar_trigger": false,
      "taf_trigger": false,
      "metar": "METAR LRSM 060100Z AUTO 17002KT 9999 FEW080/// SCT100/// 17/13 Q1014",
      "taf": ""
    },
    {
      "icao": "LRSV",
      "alert": "OK",
      "vis_m": 9999,
      "fzfg": false,
      "metar_trigger": false,
      "taf_trigger": false,
      "metar": "METAR LRSV 060100Z 27006KT CAVOK 16/10 Q1013",
      "taf": "TAF LRSV 052300Z 0600/0609 24006KT CAVOK"
    },
    {
      "icao": "LRTM",
      "alert": "OK",
      "vis_m": 9999,
      "fzfg": false,
      "metar_trigger": false,
      "taf_trigger": false,
      "metar": "METAR LRTM 060100Z 00000KT CAVOK 13/12 Q1015",
      "taf": "TAF LRTM 052300Z 0600/0609 VRB04KT CAVOK"
    },
    {
      "icao": "LRTR",
      "alert": "OK",
      "vis_m": 9999,
      "fzfg": false,
      "metar_trigger": false,
      "taf_trigger": false,
      "metar": "METAR LRTR 060100Z 00000KT CAVOK 16/12 Q1016",
      "taf": "TAF LRTR 052300Z 0600/0624 32007KT CAVOK"
    },
    {
      "icao": "LTAC",
      "alert": "OK",
      "vis_m": 9999,
      "fzfg": false,
      "metar_trigger": false,
      "taf_trigger": false,
      "metar": "METAR LTAC 060050Z 04009KT 9999 FEW040 SCT080 15/11 Q1015 NOSIG",
      "taf": "TAF LTAC 052240Z 0600/0624 03009KT 9999 SCT040"
    },
    {
      "icao": "LTFM",
      "alert": "OK",
      "vis_m": 9999,
      "fzfg": false,
      "metar_trigger": false,
      "taf_trigger": false,
      "metar": "METAR LTFM 060050Z VRB02KT CAVOK 20/14 Q1014 NOSIG",
      "taf": "TAF LTFM 052240Z 0600/0706 VRB02KT CAVOK"
    },
    {
      "icao": "LUKK",
      "alert": "OK",
      "vis_m": 9999,
      "fzfg": false,
      "metar_trigger": false,
      "taf_trigger": false,
      "metar": "METAR LUKK 060100Z 25004KT CAVOK 15/12 Q1012 NOSIG",
      "taf": "TAF LUKK 052317Z 0600/0624 VRB04KT CAVOK"
    },
    {
      "icao": "LWOH",
      "alert": "OK",
      "vis_m": null,
      "fzfg": false,
      "metar_trigger": false,
      "taf_trigger": false,
      "metar": "",
      "taf": "TAF LWOH 052330Z 0600/0624 33006KT CAVOK"
    },
    {
      "icao": "LWSK",
      "alert": "OK",
      "vis_m": null,
      "fzfg": false,
      "metar_trigger": false,
      "taf_trigger": false,
      "metar": "",
      "taf": "TAF LWSK 052330Z 0600/0624 VRB02KT CAVOK"
    },
    {
      "icao": "LYBE",
      "alert": "OK",
      "vis_m": 9999,
      "fzfg": false,
      "metar_trigger": false,
      "taf_trigger": false,
      "metar": "METAR LYBE 060100Z 18006KT CAVOK 17/14 Q1017 NOSIG",
      "taf": "TAF LYBE 052300Z 0600/0624 24005KT CAVOK TX28/0613Z TN16/0603Z"
    },
    {
      "icao": "LYNI",
      "alert": "OK",
      "vis_m": 9999,
      "fzfg": false,
      "metar_trigger": false,
      "taf_trigger": false,
      "metar": "METAR LYNI 060100Z 11003KT CAVOK 16/11 Q1018 NOSIG",
      "taf": "TAF LYNI 052300Z 0600/0624 09005KT CAVOK TX29/0613Z TN13/0603Z"
    },
    {
      "icao": "LYPG",
      "alert": "OK",
      "vis_m": 9999,
      "fzfg": false,
      "metar_trigger": false,
      "taf_trigger": false,
      "metar": "METAR LYPG 060100Z 32007KT CAVOK 23/09 Q1016 NOSIG",
      "taf": "TAF LYPG 052300Z 0600/0624 34007KT CAVOK TX34/0612Z TN22/0603Z"
    },
    {
      "icao": "LZIB",
      "alert": "OK",
      "vis_m": 9999,
      "fzfg": false,
      "metar_trigger": false,
      "taf_trigger": false,
      "metar": "METAR LZIB 060100Z 02004KT 330V070 CAVOK 18/14 Q1017 NOSIG",
      "taf": "TAF LZIB 052315Z 0600/0700 27007KT CAVOK"
    },
    {
      "icao": "LZKZ",
      "alert": "OK",
      "vis_m": 9999,
      "fzfg": false,
      "metar_trigger": false,
      "taf_trigger": false,
      "metar": "METAR LZKZ 060100Z VRB01KT CAVOK 14/12 Q1015 NOSIG",
      "taf": "TAF LZKZ 052315Z 0600/0700 36004KT CAVOK"
    },
    {
      "icao": "LZTT",
      "alert": "OK",
      "vis_m": 9999,
      "fzfg": false,
      "metar_trigger": false,
      "taf_trigger": false,
      "metar": "METAR LZTT 060100Z 27010KT 9999 FEW063 13/09 Q1016",
      "taf": "TAF LZTT 052315Z 0600/0700 26009KT 9999 SCT012 BKN060"
    },
    {
      "icao": "OEJN",
      "alert": "OK",
      "vis_m": 9999,
      "fzfg": false,
      "metar_trigger": false,
      "taf_trigger": false,
      "metar": "METAR OEJN 060100Z 33005KT CAVOK 31/17 Q1002 NOSIG",
      "taf": "TAF OEJN 052300Z 0600/0706 30005KT 9999 FEW040"
    },
    {
      "icao": "OEMA",
      "alert": "OK",
      "vis_m": 9999,
      "fzfg": false,
      "metar_trigger": false,
      "taf_trigger": false,
      "metar": "METAR OEMA 060100Z VRB02KT CAVOK 35/01 Q1009 NOSIG",
      "taf": "TAF OEMA 052300Z 0600/0706 32005KT CAVOK"
    },
    {
      "icao": "OJAI",
      "alert": "OK",
      "vis_m": 4000,
      "fzfg": false,
      "metar_trigger": false,
      "taf_trigger": false,
      "metar": "METAR OJAI 060100Z 23005KT 4000 BR NSC 20/18 Q1012 NOSIG",
      "taf": "TAF OJAI 052300Z 0600/0706 29010KT 5000 HZ FEW035"
    },
    {
      "icao": "OMAA",
      "alert": "OK",
      "vis_m": 9999,
      "fzfg": false,
      "metar_trigger": false,
      "taf_trigger": false,
      "metar": "METAR OMAA 060100Z 00000KT CAVOK 30/15 Q0997 NOSIG",
      "taf": "TAF OMAA 052300Z 0600/0706 21005KT 8000 NSC"
    },
    {
      "icao": "OMDB",
      "alert": "OK",
      "vis_m": 9999,
      "fzfg": false,
      "metar_trigger": false,
      "taf_trigger": false,
      "metar": "METAR OMDB 060100Z 19007KT CAVOK 31/14 Q0997 NOSIG",
      "taf": "TAF OMDB 052300Z 0600/0706 18005KT 8000 NSC"
    },
    {
      "icao": "UAAA",
      "alert": "OK",
      "vis_m": 9999,
      "fzfg": false,
      "metar_trigger": false,
      "taf_trigger": false,
      "metar": "METAR UAAA 060100Z VRB01MPS 9999 FEW100 SCT200 21/13 Q1009 NOSIG",
      "taf": "TAF UAAA 052303Z 0600/0624 22003MPS 9999 FEW050 SCT100 TX30/0610Z TN15/0600Z"
    },
    {
      "icao": "UBBB",
      "alert": "OK",
      "vis_m": 9999,
      "fzfg": false,
      "metar_trigger": false,
      "taf_trigger": false,
      "metar": "METAR UBBB 060100Z 29004KT CAVOK 23/22 Q1008 NOSIG",
      "taf": "TAF UBBB 052259Z 0600/0624 32005KT CAVOK TX30/0610Z TN22/0601Z"
    },
    {
      "icao": "UDSG",
      "alert": "OK",
      "vis_m": 9999,
      "fzfg": false,
      "metar_trigger": false,
      "taf_trigger": false,
      "metar": "METAR UDSG 060100Z 24003KT 200V280 9999 BKN043CB 15/14 Q1017 NOSIG",
      "taf": "TAF UDSG 052258Z 0600/0624 06006KT 9999 SCT040"
    },
    {
      "icao": "UDYZ",
      "alert": "OK",
      "vis_m": 9999,
      "fzfg": false,
      "metar_trigger": false,
      "taf_trigger": false,
      "metar": "METAR UDYZ 060100Z 06007KT 9999 SCT043CB 23/13 Q1011 NOSIG",
      "taf": "TAF UDYZ 052300Z 0600/0624 04006KT 9999 SCT040"
    },
    {
      "icao": "UGKO",
      "alert": "OK",
      "vis_m": 9999,
      "fzfg": false,
      "metar_trigger": false,
      "taf_trigger": false,
      "metar": "METAR UGKO 060100Z 11003KT 9999 BKN047 20/19 Q1011 NOSIG",
      "taf": "TAF UGKO 052300Z 0600/0624 26007KT 9999 SCT030 TX26/0611Z TN19/0602Z"
    }
  ]
}