{
  "ts_utc": "2026-03-17T21:51:14Z",
  "threshold_m": 150,
  "source": "stations_override.txt (ICAO list) + aviationweather.gov (METAR/TAF raw)",
  "station_count": 159,
  "stations": [
    {
      "icao": "BIKF",
      "alert": "OK",
      "vis_m": 9999,
      "fzfg": false,
      "metar_trigger": false,
      "taf_trigger": false,
      "metar": "METAR BIKF 172130Z 01021KT 9999 FEW020 SCT120 M01/M05 Q0991",
      "taf": "TAF BIKF 171931Z 1721/1821 36022KT 9999 FEW018 SCT030 TX03/1816Z TNM01/1808Z"
    },
    {
      "icao": "BKPR",
      "alert": "OK",
      "vis_m": 9999,
      "fzfg": false,
      "metar_trigger": false,
      "taf_trigger": false,
      "metar": "METAR BKPR 172130Z 35010KT 9999 BKN035 05/04 Q1012 NOSIG",
      "taf": "TAF BKPR 171730Z 1718/1818 03008KT 9999 SCT025 BKN040"
    },
    {
      "icao": "EBCI",
      "alert": "OK",
      "vis_m": 9999,
      "fzfg": false,
      "metar_trigger": false,
      "taf_trigger": false,
      "metar": "METAR EBCI 172120Z 14005KT CAVOK 10/06 Q1019 NOSIG",
      "taf": "TAF EBCI 171704Z 1718/1824 16005KT CAVOK"
    },
    {
      "icao": "EDDB",
      "alert": "OK",
      "vis_m": 9999,
      "fzfg": false,
      "metar_trigger": false,
      "taf_trigger": false,
      "metar": "METAR EDDB 172120Z AUTO 11004KT CAVOK 03/M01 Q1027 NOSIG",
      "taf": "TAF EDDB 171700Z 1718/1818 13004KT CAVOK"
    },
    {
      "icao": "EDDH",
      "alert": "OK",
      "vis_m": 9999,
      "fzfg": false,
      "metar_trigger": false,
      "taf_trigger": false,
      "metar": "METAR EDDH 172120Z AUTO 12008KT CAVOK 08/03 Q1024 NOSIG",
      "taf": "TAF EDDH 171700Z 1718/1824 15006KT CAVOK"
    },
    {
      "icao": "EDDK",
      "alert": "OK",
      "vis_m": 9999,
      "fzfg": false,
      "metar_trigger": false,
      "taf_trigger": false,
      "metar": "METAR EDDK 172120Z AUTO 11005KT CAVOK 09/05 Q1022 NOSIG",
      "taf": "TAF EDDK 171700Z 1718/1824 12006KT 9999 FEW045"
    },
    {
      "icao": "EDDN",
      "alert": "OK",
      "vis_m": 9999,
      "fzfg": false,
      "metar_trigger": false,
      "taf_trigger": false,
      "metar": "METAR EDDN 172120Z AUTO 07003KT CAVOK 01/M01 Q1024 NOSIG",
      "taf": "TAF EDDN 171700Z 1718/1818 09004KT CAVOK"
    },
    {
      "icao": "EDDS",
      "alert": "OK",
      "vis_m": 9999,
      "fzfg": false,
      "metar_trigger": false,
      "taf_trigger": false,
      "metar": "METAR EDDS 172120Z AUTO 09005KT CAVOK 05/03 Q1021",
      "taf": "TAF EDDS 171700Z 1718/1818 07006KT CAVOK"
    },
    {
      "icao": "EDFH",
      "alert": "OK",
      "vis_m": 9999,
      "fzfg": false,
      "metar_trigger": false,
      "taf_trigger": false,
      "metar": "METAR EDFH 172120Z 10008KT CAVOK 06/04 Q1021",
      "taf": "TAF EDFH 171700Z 1718/1818 13008KT 9999 SCT015"
    },
    {
      "icao": "EDJA",
      "alert": "OK",
      "vis_m": 9999,
      "fzfg": false,
      "metar_trigger": false,
      "taf_trigger": false,
      "metar": "METAR EDJA 172120Z 06006KT CAVOK 02/01 Q1021",
      "taf": "TAF EDJA 171700Z 1718/1803 07007KT 9999 SCT040"
    },
    {
      "icao": "EDLW",
      "alert": "OK",
      "vis_m": 9999,
      "fzfg": false,
      "metar_trigger": false,
      "taf_trigger": false,
      "metar": "METAR EDLW 172120Z 12006KT 9999 OVC049 10/06 Q1022",
      "taf": "TAF EDLW 171700Z 1718/1818 14005KT 9999 SCT045"
    },
    {
      "icao": "EDNY",
      "alert": "OK",
      "vis_m": 9999,
      "fzfg": false,
      "metar_trigger": false,
      "taf_trigger": false,
      "metar": "METAR EDNY 172120Z AUTO 04006KT 360V070 9999 // OVC110/// 06/03 Q1020",
      "taf": "TAF EDNY 171700Z 1718/1803 04008KT CAVOK"
    },
    {
      "icao": "EDSB",
      "alert": "OK",
      "vis_m": 9999,
      "fzfg": false,
      "metar_trigger": false,
      "taf_trigger": false,
      "metar": "METAR EDSB 172120Z AUTO 05007KT 9999 // FEW079/// 08/04 Q1021",
      "taf": "TAF EDSB 171700Z 1718/1818 04007KT CAVOK"
    },
    {
      "icao": "EETN",
      "alert": "OK",
      "vis_m": 300,
      "fzfg": true,
      "metar_trigger": false,
      "taf_trigger": false,
      "metar": "METAR EETN 172120Z 25004KT 0300 R26/1000N FZFG VV002 M00/M00 Q1028 NOSIG",
      "taf": "TAF EETN 171730Z 1718/1818 28007KT 9999 BKN005 BKN012"
    },
    {
      "icao": "EFTU",
      "alert": "OK",
      "vis_m": 7000,
      "fzfg": false,
      "metar_trigger": false,
      "taf_trigger": false,
      "metar": "METAR EFTU 172120Z AUTO 21011KT 7000 OVC002 01/01 Q1026",
      "taf": "TAF EFTU 172036Z 1721/1821 22009KT 5000 OVC002"
    },
    {
      "icao": "EGBB",
      "alert": "OK",
      "vis_m": 9999,
      "fzfg": false,
      "metar_trigger": false,
      "taf_trigger": false,
      "metar": "METAR EGBB 172120Z 14004KT CAVOK 07/04 Q1014",
      "taf": "TAF EGBB 171659Z 1718/1818 18010KT CAVOK"
    },
    {
      "icao": "EGGP",
      "alert": "OK",
      "vis_m": 9999,
      "fzfg": false,
      "metar_trigger": false,
      "taf_trigger": false,
      "metar": "METAR EGGP 172120Z 17009KT 9999 BKN034 10/06 Q1012",
      "taf": "TAF EGGP 171656Z 1718/1818 18010KT 9999 FEW045"
    },
    {
      "icao": "EGGW",
      "alert": "OK",
      "vis_m": 9999,
      "fzfg": false,
      "metar_trigger": false,
      "taf_trigger": false,
      "metar": "METAR EGGW 172120Z AUTO 17006KT 140V200 9999 NCD 09/06 Q1015",
      "taf": "TAF EGGW 171656Z 1718/1818 18012KT CAVOK"
    },
    {
      "icao": "EGKK",
      "alert": "OK",
      "vis_m": 9999,
      "fzfg": false,
      "metar_trigger": false,
      "taf_trigger": false,
      "metar": "METAR EGKK 172120Z VRB02KT CAVOK 10/06 Q1015",
      "taf": "TAF EGKK 171656Z 1718/1824 20012KT CAVOK"
    },
    {
      "icao": "EGNM",
      "alert": "OK",
      "vis_m": 9999,
      "fzfg": false,
      "metar_trigger": false,
      "taf_trigger": false,
      "metar": "METAR EGNM 172120Z 21010KT CAVOK 10/06 Q1012",
      "taf": "TAF EGNM 171655Z 1718/1818 21010KT 9999 FEW030"
    },
    {
      "icao": "EGPD",
      "alert": "OK",
      "vis_m": 9999,
      "fzfg": false,
      "metar_trigger": false,
      "taf_trigger": false,
      "metar": "METAR EGPD 172120Z COR AUTO 20010KT 9999 BKN025 10/05 Q1005 NOSIG",
      "taf": "TAF EGPD 171657Z 1718/1818 20018G32KT 9999 SCT025"
    },
    {
      "icao": "EGPF",
      "alert": "OK",
      "vis_m": 9000,
      "fzfg": false,
      "metar_trigger": false,
      "taf_trigger": false,
      "metar": "METAR EGPF 172120Z AUTO 22012KT 180V240 9000 BKN020 OVC029 11/07 Q1007",
      "taf": "TAF EGPF 171659Z 1718/1818 19015G25KT 9999 FEW020 BKN025"
    },
    {
      "icao": "EHBK",
      "alert": "OK",
      "vis_m": 9999,
      "fzfg": false,
      "metar_trigger": false,
      "taf_trigger": false,
      "metar": "METAR EHBK 172125Z AUTO 16005KT 9999 NSC 10/05 Q1020 NOSIG",
      "taf": "TAF EHBK 171707Z 1718/1824 09007KT CAVOK"
    },
    {
      "icao": "EHEH",
      "alert": "OK",
      "vis_m": 9999,
      "fzfg": false,
      "metar_trigger": false,
      "taf_trigger": false,
      "metar": "METAR EHEH 172125Z AUTO 13007KT 100V160 9999 OVC280 10/07 Q1020 BLU",
      "taf": "TAF EHEH 171705Z 1718/1824 14007KT CAVOK"
    },
    {
      "icao": "EKBI",
      "alert": "OK",
      "vis_m": 9999,
      "fzfg": false,
      "metar_trigger": false,
      "taf_trigger": false,
      "metar": "METAR EKBI 172120Z AUTO 15008KT 120V180 9999 BKN021/// OVC049/// 08/05 Q1023",
      "taf": "TAF EKBI 172027Z 1721/1821 16007KT 9999 BKN020"
    },
    {
      "icao": "EKCH",
      "alert": "OK",
      "vis_m": 9999,
      "fzfg": false,
      "metar_trigger": false,
      "taf_trigger": false,
      "metar": "METAR EKCH 172120Z AUTO 14012KT 9999 NCD 03/01 Q1027 NOSIG",
      "taf": "TAF EKCH 172027Z 1721/1821 14010KT 9999 FEW020"
    },
    {
      "icao": "ENAL",
      "alert": "OK",
      "vis_m": 9999,
      "fzfg": false,
      "metar_trigger": false,
      "taf_trigger": false,
      "metar": "METAR ENAL 172120Z 21020KT 9999 -DZ BKN046 12/06 Q1002",
      "taf": "TAF ENAL 172000Z 1721/1806 20018KT 9999 BKN045"
    },
    {
      "icao": "ENBR",
      "alert": "OK",
      "vis_m": 9999,
      "fzfg": false,
      "metar_trigger": false,
      "taf_trigger": false,
      "metar": "METAR ENBR 172120Z 17029G43KT 9999 BKN008 07/06 Q1011 RMK WIND 1200FT 17034G52KT",
      "taf": ""
    },
    {
      "icao": "ENGM",
      "alert": "OK",
      "vis_m": 6000,
      "fzfg": false,
      "metar_trigger": false,
      "taf_trigger": false,
      "metar": "METAR ENGM 172120Z 19012KT 6000 OVC002 04/03 Q1018 NOSIG",
      "taf": "TAF ENGM 171700Z 1718/1818 20012KT 7000 -DZRA OVC005"
    },
    {
      "icao": "ENHD",
      "alert": "OK",
      "vis_m": 9999,
      "fzfg": false,
      "metar_trigger": false,
      "taf_trigger": false,
      "metar": "METAR ENHD 172120Z AUTO 16024G36KT 9999 OVC005/// 07/06 Q1013",
      "taf": "TAF ENHD 171400Z 1715/1723 15020G32KT 8000 BKN004"
    },
    {
      "icao": "ENTC",
      "alert": "OK",
      "vis_m": 9999,
      "fzfg": false,
      "metar_trigger": false,
      "taf_trigger": false,
      "metar": "METAR ENTC 172120Z 19018G30KT 9999 -SHRA BKN025CB 04/M00 Q1000 TEMPO 19020KT RMK WIND 2600FT 17045KT",
      "taf": ""
    },
    {
      "icao": "ENTO",
      "alert": "OK",
      "vis_m": 1100,
      "fzfg": false,
      "metar_trigger": false,
      "taf_trigger": false,
      "metar": "METAR ENTO 172120Z AUTO 18011KT 1100 R18/P2000N R36/P2000N DZ BKN001/// OVC003/// 05/05 Q1020",
      "taf": "TAF ENTO 171700Z 1718/1818 18015KT 3000 -DZRA SCT002 OVC005"
    },
    {
      "icao": "ENVA",
      "alert": "OK",
      "vis_m": 9999,
      "fzfg": false,
      "metar_trigger": false,
      "taf_trigger": false,
      "metar": "METAR ENVA 172120Z 17022G35KT CAVOK 09/02 Q1005 RMK WIND 670FT 18033G49KT",
      "taf": ""
    },
    {
      "icao": "ENZV",
      "alert": "OK",
      "vis_m": 9999,
      "fzfg": false,
      "metar_trigger": false,
      "taf_trigger": false,
      "metar": "METAR ENZV 172120Z 16021KT 9999 OVC007 07/06 Q1014",
      "taf": ""
    },
    {
      "icao": "EPGD",
      "alert": "OK",
      "vis_m": 4500,
      "fzfg": false,
      "metar_trigger": false,
      "taf_trigger": false,
      "metar": "METAR EPGD 172130Z 13002KT 4500 BR NSC 01/00 Q1029",
      "taf": ""
    },
    {
      "icao": "EPKK",
      "alert": "OK",
      "vis_m": 9999,
      "fzfg": false,
      "metar_trigger": false,
      "taf_trigger": false,
      "metar": "METAR EPKK 172130Z 08004KT 9999 BKN045 06/03 Q1025",
      "taf": "TAF EPKK 172030Z 1721/1821 06005KT 9999 SCT023 BKN050"
    },
    {
      "icao": "EPKT",
      "alert": "OK",
      "vis_m": 9999,
      "fzfg": false,
      "metar_trigger": false,
      "taf_trigger": false,
      "metar": "METAR EPKT 172130Z 03007KT CAVOK 05/01 Q1025",
      "taf": "TAF EPKT 171708Z 1718/1818 01006KT 9999 BKN020"
    },
    {
      "icao": "EPLB",
      "alert": "OK",
      "vis_m": 9999,
      "fzfg": false,
      "metar_trigger": false,
      "taf_trigger": false,
      "metar": "METAR EPLB 172130Z 02010KT CAVOK 06/03 Q1025",
      "taf": "TAF EPLB 171730Z 1718/1818 36005KT CAVOK"
    },
    {
      "icao": "EPMO",
      "alert": "OK",
      "vis_m": 9999,
      "fzfg": false,
      "metar_trigger": false,
      "taf_trigger": false,
      "metar": "METAR EPMO 172130Z 36007KT CAVOK 04/01 Q1028",
      "taf": "TAF EPMO 171730Z 1718/1818 36006KT 9999 BKN035"
    },
    {
      "icao": "EPPO",
      "alert": "OK",
      "vis_m": 4300,
      "fzfg": false,
      "metar_trigger": false,
      "taf_trigger": false,
      "metar": "METAR EPPO 172130Z 03003KT 4300 BR NSC M01/M03 Q1028",
      "taf": ""
    },
    {
      "icao": "EPRA",
      "alert": "OK",
      "vis_m": 9999,
      "fzfg": false,
      "metar_trigger": false,
      "taf_trigger": false,
      "metar": "METAR EPRA 172130Z 35003KT CAVOK 05/00 Q1026",
      "taf": "TAF EPRA 172030Z 1721/1806 01005KT CAVOK"
    },
    {
      "icao": "EPRZ",
      "alert": "OK",
      "vis_m": 6000,
      "fzfg": false,
      "metar_trigger": false,
      "taf_trigger": false,
      "metar": "METAR EPRZ 172130Z 33004KT 6000 NSC 03/01 Q1024",
      "taf": "TAF EPRZ 171730Z 1718/1818 35007KT 9999 SCT030"
    },
    {
      "icao": "EPSC",
      "alert": "OK",
      "vis_m": 9999,
      "fzfg": false,
      "metar_trigger": false,
      "taf_trigger": false,
      "metar": "METAR EPSC 172130Z 07002KT CAVOK M00/M02 Q1028",
      "taf": "TAF EPSC 171730Z 1718/1818 14005KT CAVOK"
    },
    {
      "icao": "EPSY",
      "alert": "OK",
      "vis_m": 9999,
      "fzfg": false,
      "metar_trigger": false,
      "taf_trigger": false,
      "metar": "METAR EPSY 172130Z 01002KT CAVOK M01/M02 Q1029",
      "taf": "TAF EPSY 172030Z 1721/1806 02005KT CAVOK"
    },
    {
      "icao": "EPWA",
      "alert": "OK",
      "vis_m": 9999,
      "fzfg": false,
      "metar_trigger": false,
      "taf_trigger": false,
      "metar": "METAR EPWA 172130Z 01006KT CAVOK 07/01 Q1027 NOSIG",
      "taf": "TAF EPWA 172030Z 1721/1821 04008KT CAVOK"
    },
    {
      "icao": "EPWR",
      "alert": "OK",
      "vis_m": 9999,
      "fzfg": false,
      "metar_trigger": false,
      "taf_trigger": false,
      "metar": "METAR EPWR 172130Z 36003KT CAVOK 03/01 Q1027",
      "taf": "TAF EPWR 172030Z 1721/1821 01005KT CAVOK"
    },
    {
      "icao": "ESGG",
      "alert": "OK",
      "vis_m": 9999,
      "fzfg": false,
      "metar_trigger": false,
      "taf_trigger": false,
      "metar": "METAR ESGG 172120Z 18011KT CAVOK 03/01 Q1024",
      "taf": "TAF ESGG 172030Z 1721/1821 17012KT CAVOK"
    },
    {
      "icao": "ESKN",
      "alert": "OK",
      "vis_m": 6000,
      "fzfg": false,
      "metar_trigger": false,
      "taf_trigger": false,
      "metar": "METAR ESKN 172120Z 17005KT 6000 NSC 01/01 Q1025",
      "taf": "TAF ESKN 172030Z 1721/1821 18008KT 7000 SCT002"
    },
    {
      "icao": "ESMS",
      "alert": "OK",
      "vis_m": 650,
      "fzfg": true,
      "metar_trigger": false,
      "taf_trigger": false,
      "metar": "METAR ESMS 172120Z 13006KT 0650 R17/P2000N R35/P2000N FZFG OVC001 M00/M00 Q1027",
      "taf": "TAF ESMS 172027Z 1721/1821 15007KT 0300 FZFG BKN001"
    },
    {
      "icao": "ESSA",
      "alert": "OK",
      "vis_m": 9999,
      "fzfg": false,
      "metar_trigger": false,
      "taf_trigger": false,
      "metar": "METAR ESSA 172120Z 18008KT 9999 BKN003 M00/M00 Q1025 NOSIG",
      "taf": "TAF ESSA 172030Z 1721/1821 19010KT 9999 FEW004"
    },
    {
      "icao": "EYKA",
      "alert": "OK",
      "vis_m": 9000,
      "fzfg": false,
      "metar_trigger": false,
      "taf_trigger": false,
      "metar": "METAR EYKA 172120Z 30003KT 280V340 9000 NSC 03/02 Q1029",
      "taf": "TAF EYKA 171700Z 1718/1818 VRB03KT 9000 SCT035"
    },
    {
      "icao": "EYPA",
      "alert": "OK",
      "vis_m": 450,
      "fzfg": false,
      "metar_trigger": false,
      "taf_trigger": false,
      "metar": "METAR EYPA 172120Z VRB02KT 0450 R19/0550N FG VV001 02/02 Q1030",
      "taf": ""
    },
    {
      "icao": "EYVI",
      "alert": "OK",
      "vis_m": 6000,
      "fzfg": false,
      "metar_trigger": false,
      "taf_trigger": false,
      "metar": "METAR EYVI 172120Z VRB01KT 6000 NSC 04/02 Q1028 NOSIG",
      "taf": "TAF EYVI 171700Z 1718/1818 VRB04KT 9000 SCT045"
    },
    {
      "icao": "GCFV",
      "alert": "OK",
      "vis_m": 9999,
      "fzfg": false,
      "metar_trigger": false,
      "taf_trigger": false,
      "metar": "METAR GCFV 172130Z 21010KT 9999 FEW030 19/14 Q1011",
      "taf": "TAF GCFV 172000Z 1721/1821 22007KT 9999 SCT030 TX22/1814Z TN15/1806Z"
    },
    {
      "icao": "GCLP",
      "alert": "OK",
      "vis_m": 9999,
      "fzfg": false,
      "metar_trigger": false,
      "taf_trigger": false,
      "metar": "METAR GCLP 172130Z 25007KT 210V300 9999 FEW035 19/13 Q1010 NOSIG",
      "taf": "TAF GCLP 172000Z 1721/1821 21016KT 9999 SCT035 TX22/1814Z TN14/1806Z"
    },
    {
      "icao": "GCTS",
      "alert": "OK",
      "vis_m": 9999,
      "fzfg": false,
      "metar_trigger": false,
      "taf_trigger": false,
      "metar": "METAR GCTS 172130Z 27008KT 9999 FEW020 18/14 Q1010 NOSIG",
      "taf": "TAF GCTS 172000Z 1721/1821 26014KT 9999 SCT025 TX23/1814Z TN14/1806Z"
    },
    {
      "icao": "GMAD",
      "alert": "OK",
      "vis_m": 6000,
      "fzfg": false,
      "metar_trigger": false,
      "taf_trigger": false,
      "metar": "METAR GMAD 172130Z 19004KT 6000 FEW006 SCT020 15/13 Q1012 NOSIG",
      "taf": "TAF GMAD 171700Z 1718/1824 26008KT 8000 SCT026TCU BKN080"
    },
    {
      "icao": "GMMN",
      "alert": "OK",
      "vis_m": 2000,
      "fzfg": false,
      "metar_trigger": false,
      "taf_trigger": false,
      "metar": "SPECI GMMN 172145Z 14007KT 110V170 2000 RA SCT003 BKN008 BKN016TCU 14/13 Q1011 NOSIG",
      "taf": "TAF GMMN 171700Z 1718/1824 02012KT 6000 SCT016 BKN100"
    },
    {
      "icao": "GMMX",
      "alert": "OK",
      "vis_m": 6000,
      "fzfg": false,
      "metar_trigger": false,
      "taf_trigger": false,
      "metar": "METAR GMMX 172130Z 14003KT 110V180 6000 SHRA BKN023 FEW030TCU 15/12 Q1011 TEMPO 4000",
      "taf": "TAF GMMX 171700Z 1718/1824 06006KT 8000 SCT033 SCT100"
    },
    {
      "icao": "HEGN",
      "alert": "OK",
      "vis_m": 9999,
      "fzfg": false,
      "metar_trigger": false,
      "taf_trigger": false,
      "metar": "METAR HEGN 172100Z 00000KT 9999 FEW025 22/03 Q1008 NOSIG",
      "taf": "TAF HEGN 171700Z 1718/1824 12010KT CAVOK"
    },
    {
      "icao": "HEMA",
      "alert": "OK",
      "vis_m": 9999,
      "fzfg": false,
      "metar_trigger": false,
      "taf_trigger": false,
      "metar": "METAR HEMA 172100Z 18004KT CAVOK 21/13 Q1010 NOSIG",
      "taf": "TAF HEMA 171700Z 1718/1824 13012KT CAVOK"
    },
    {
      "icao": "HESH",
      "alert": "OK",
      "vis_m": 9999,
      "fzfg": false,
      "metar_trigger": false,
      "taf_trigger": false,
      "metar": "METAR HESH 172100Z 00000KT CAVOK 20/10 Q1010 NOSIG",
      "taf": "TAF HESH 171700Z 1718/1824 30010KT CAVOK"
    },
    {
      "icao": "HESX",
      "alert": "OK",
      "vis_m": 9999,
      "fzfg": false,
      "metar_trigger": false,
      "taf_trigger": false,
      "metar": "METAR HESX 172100Z 08013LT CAVOK 16/08 Q1007 NOSIG",
      "taf": "TAF HESX 171700Z 1718/1824 07009KT CAVOK"
    },
    {
      "icao": "LATI",
      "alert": "OK",
      "vis_m": 5000,
      "fzfg": false,
      "metar_trigger": false,
      "taf_trigger": false,
      "metar": "METAR LATI 172150Z VRB02KT 5000 BR FEW064 BKN092 10/08 Q1010 NOSIG",
      "taf": "TAF LATI 171700Z 1718/1818 VRB05KT 9999 FEW030 BKN050 OVC070 TX17/1812Z TN09/1805Z"
    },
    {
      "icao": "LBPD",
      "alert": "OK",
      "vis_m": 9999,
      "fzfg": false,
      "metar_trigger": false,
      "taf_trigger": false,
      "metar": "METAR LBPD 172130Z AUTO 10010KT 9999 OVC240/// 04/M00 Q1018",
      "taf": "TAF LBPD 171700Z 1718/1818 09010KT 9999 SCT070"
    },
    {
      "icao": "LBSF",
      "alert": "OK",
      "vis_m": 9999,
      "fzfg": false,
      "metar_trigger": false,
      "taf_trigger": false,
      "metar": "METAR LBSF 172130Z AUTO 13016KT 9999 NSC 06/M02 Q1016 NOSIG",
      "taf": "TAF LBSF 171700Z 1718/1818 10010KT 9999 SCT040"
    },
    {
      "icao": "LBWN",
      "alert": "OK",
      "vis_m": 9999,
      "fzfg": false,
      "metar_trigger": false,
      "taf_trigger": false,
      "metar": "METAR LBWN 172130Z AUTO 00000KT 9999 NCD 05/01 Q1019 NOSIG",
      "taf": "TAF LBWN 171700Z 1718/1818 11010KT 9999 SCT045"
    },
    {
      "icao": "LCLK",
      "alert": "OK",
      "vis_m": 9999,
      "fzfg": false,
      "metar_trigger": false,
      "taf_trigger": false,
      "metar": "METAR LCLK 172130Z 32005KT CAVOK 12/10 Q1012 NOSIG",
      "taf": "TAF LCLK 171730Z 1718/1818 35008KT CAVOK"
    },
    {
      "icao": "LCPH",
      "alert": "OK",
      "vis_m": 9999,
      "fzfg": false,
      "metar_trigger": false,
      "taf_trigger": false,
      "metar": "METAR LCPH 172130Z 09008KT CAVOK 13/10 Q1010 NOSIG",
      "taf": "TAF LCPH 171730Z 1718/1818 07008KT 9999 FEW030"
    },
    {
      "icao": "LEAL",
      "alert": "OK",
      "vis_m": 9999,
      "fzfg": false,
      "metar_trigger": false,
      "taf_trigger": false,
      "metar": "METAR LEAL 172130Z VRB02KT CAVOK 09/05 Q1013 NOSIG",
      "taf": "TAF LEAL 171700Z 1718/1818 VRB04KT CAVOK TX19/1812Z TN09/1806Z"
    },
    {
      "icao": "LEBB",
      "alert": "OK",
      "vis_m": 9999,
      "fzfg": false,
      "metar_trigger": false,
      "taf_trigger": false,
      "metar": "METAR LEBB 172130Z 13007KT 070V170 CAVOK 16/06 Q1007 NOSIG",
      "taf": "TAF LEBB 171700Z 1718/1818 12009KT CAVOK TX26/1814Z TN09/1806Z"
    },
    {
      "icao": "LEBL",
      "alert": "OK",
      "vis_m": 6000,
      "fzfg": false,
      "metar_trigger": false,
      "taf_trigger": false,
      "metar": "METAR LEBL 172130Z 05002KT 6000 SCT006 12/12 Q1014 NOSIG",
      "taf": "TAF LEBL 171700Z 1718/1818 14008KT CAVOK TX16/1813Z TN08/1806Z"
    },
    {
      "icao": "LECH",
      "alert": "OK",
      "vis_m": 9000,
      "fzfg": false,
      "metar_trigger": false,
      "taf_trigger": false,
      "metar": "METAR LECH 172130Z AUTO 05005KT 9000 NCD 09/06 Q1013",
      "taf": "TAF LECH 171700Z 1718/1818 VRB04KT CAVOK TX19/1812Z TN06/1806Z"
    },
    {
      "icao": "LEMD",
      "alert": "OK",
      "vis_m": 9999,
      "fzfg": false,
      "metar_trigger": false,
      "taf_trigger": false,
      "metar": "METAR LEMD 172130Z 01003KT 330V060 CAVOK 11/02 Q1011 NOSIG",
      "taf": "TAF LEMD 171700Z 1718/1824 VRB04KT CAVOK TX20/1815Z TN04/1806Z"
    },
    {
      "icao": "LEMG",
      "alert": "OK",
      "vis_m": 9999,
      "fzfg": false,
      "metar_trigger": false,
      "taf_trigger": false,
      "metar": "METAR LEMG 172130Z 28005KT CAVOK 11/08 Q1011 NOSIG",
      "taf": "TAF LEMG 171700Z 1718/1818 12010KT CAVOK TX19/1814Z TN08/1807Z"
    },
    {
      "icao": "LEVC",
      "alert": "OK",
      "vis_m": 9999,
      "fzfg": false,
      "metar_trigger": false,
      "taf_trigger": false,
      "metar": "METAR LEVC 172130Z VRB02KT CAVOK 10/07 Q1012 NOSIG",
      "taf": "TAF LEVC 171700Z 1718/1818 10009KT CAVOK TX18/1812Z TN06/1805Z"
    },
    {
      "icao": "LEXJ",
      "alert": "OK",
      "vis_m": 9999,
      "fzfg": false,
      "metar_trigger": false,
      "taf_trigger": false,
      "metar": "METAR LEXJ 172130Z VRB02KT CAVOK 10/07 Q1006",
      "taf": "TAF LEXJ 172000Z 1721/1821 20008KT CAVOK TX20/1812Z TN07/1806Z"
    },
    {
      "icao": "LEZG",
      "alert": "OK",
      "vis_m": 9999,
      "fzfg": false,
      "metar_trigger": false,
      "taf_trigger": false,
      "metar": "METAR LEZG 172130Z 11004KT CAVOK 13/07 Q1011 NOSIG",
      "taf": "TAF LEZG 171700Z 1718/1818 10010KT CAVOK TX21/1814Z TN07/1806Z"
    },
    {
      "icao": "LEZL",
      "alert": "OK",
      "vis_m": 9999,
      "fzfg": false,
      "metar_trigger": false,
      "taf_trigger": false,
      "metar": "METAR LEZL 172130Z 26008KT CAVOK 17/08 Q1009 NOSIG",
      "taf": "TAF LEZL 172000Z 1721/1821 29010KT CAVOK TX25/1815Z TN10/1807Z"
    },
    {
      "icao": "LFBD",
      "alert": "OK",
      "vis_m": 9999,
      "fzfg": false,
      "metar_trigger": false,
      "taf_trigger": false,
      "metar": "METAR LFBD 172130Z AUTO 09004KT CAVOK 13/10 Q1010 NOSIG",
      "taf": "TAF LFBD 171700Z 1718/1824 10008KT CAVOK TX21/1815Z TN07/1806Z"
    },
    {
      "icao": "LFLL",
      "alert": "OK",
      "vis_m": 9999,
      "fzfg": false,
      "metar_trigger": false,
      "taf_trigger": false,
      "metar": "METAR LFLL 172130Z VRB02KT CAVOK 10/05 Q1015 NOSIG",
      "taf": "TAF LFLL 171700Z 1718/1824 34005KT CAVOK"
    },
    {
      "icao": "LFLS",
      "alert": "OK",
      "vis_m": 9999,
      "fzfg": false,
      "metar_trigger": false,
      "taf_trigger": false,
      "metar": "METAR LFLS 172130Z AUTO 09004KT 050V110 CAVOK 03/02 Q1016",
      "taf": "TAF LFLS 171400Z 1715/1815 02005KT CAVOK"
    },
    {
      "icao": "LFMN",
      "alert": "OK",
      "vis_m": 9999,
      "fzfg": false,
      "metar_trigger": false,
      "taf_trigger": false,
      "metar": "METAR LFMN 172130Z 33009KT CAVOK 12/04 Q1014 NOSIG",
      "taf": "TAF LFMN 172000Z 1721/1903 35005KT CAVOK"
    },
    {
      "icao": "LFOB",
      "alert": "OK",
      "vis_m": 9999,
      "fzfg": false,
      "metar_trigger": false,
      "taf_trigger": false,
      "metar": "METAR LFOB 172130Z AUTO 11002KT CAVOK 07/05 Q1018 NOSIG",
      "taf": "TAF LFOB 171700Z 1718/1818 15006KT CAVOK"
    },
    {
      "icao": "LFPO",
      "alert": "OK",
      "vis_m": 9999,
      "fzfg": false,
      "metar_trigger": false,
      "taf_trigger": false,
      "metar": "METAR LFPO 172130Z 08003KT CAVOK 11/06 Q1017 NOSIG",
      "taf": "TAF LFPO 171700Z 1718/1824 12005KT CAVOK"
    },
    {
      "icao": "LFSB",
      "alert": "OK",
      "vis_m": 9999,
      "fzfg": false,
      "metar_trigger": false,
      "taf_trigger": false,
      "metar": "METAR LFSB 172130Z AUTO 00000KT CAVOK 07/03 Q1019 NOSIG",
      "taf": "TAF LFSB 171700Z 1718/1818 VRB04KT 9999 BKN055"
    },
    {
      "icao": "LGAV",
      "alert": "OK",
      "vis_m": 9999,
      "fzfg": false,
      "metar_trigger": false,
      "taf_trigger": false,
      "metar": "METAR LGAV 172120Z 36011KT 9999 FEW020 BKN070 12/03 Q1012 NOSIG",
      "taf": "TAF LGAV 171700Z 1718/1818 02012KT 9999 SCT020 BKN070"
    },
    {
      "icao": "LGTS",
      "alert": "OK",
      "vis_m": 9999,
      "fzfg": false,
      "metar_trigger": false,
      "taf_trigger": false,
      "metar": "METAR LGTS 172120Z VRB02KT 9999 SCT025 10/04 Q1015 NOSIG",
      "taf": "TAF LGTS 171700Z 1718/1818 14013KT 9999 SCT025"
    },
    {
      "icao": "LHBP",
      "alert": "OK",
      "vis_m": 9999,
      "fzfg": false,
      "metar_trigger": false,
      "taf_trigger": false,
      "metar": "METAR LHBP 172130Z 34007KT CAVOK 07/03 Q1019 NOSIG",
      "taf": "TAF LHBP 171715Z 1718/1818 01007KT 9999 SCT040 BKN080"
    },
    {
      "icao": "LHDC",
      "alert": "OK",
      "vis_m": 9999,
      "fzfg": false,
      "metar_trigger": false,
      "taf_trigger": false,
      "metar": "METAR LHDC 172115Z AUTO 03013KT CAVOK 08/03 Q1018",
      "taf": "TAF LHDC 171415Z 1715/1724 12006KT CAVOK"
    },
    {
      "icao": "LIBD",
      "alert": "OK",
      "vis_m": 9999,
      "fzfg": false,
      "metar_trigger": false,
      "taf_trigger": false,
      "metar": "METAR LIBD 172120Z 33010G23KT 300V360 9999 FEW020 BKN040 09/06 Q1010",
      "taf": "TAF LIBD 171700Z 1718/1818 28008KT 9999 SCT030"
    },
    {
      "icao": "LIBG",
      "alert": "OK",
      "vis_m": null,
      "fzfg": false,
      "metar_trigger": false,
      "taf_trigger": false,
      "metar": "",
      "taf": "TAF LIBG 171700Z 1718/1803 VRB06KT 9999 SCT025"
    },
    {
      "icao": "LIBP",
      "alert": "OK",
      "vis_m": 9999,
      "fzfg": false,
      "metar_trigger": false,
      "taf_trigger": false,
      "metar": "METAR LIBP 172120Z AUTO 20003KT 080V250 9999 -TSRA OVC043/// 07/05 Q1014",
      "taf": ""
    },
    {
      "icao": "LIBR",
      "alert": "OK",
      "vis_m": 7000,
      "fzfg": false,
      "metar_trigger": false,
      "taf_trigger": false,
      "metar": "METAR LIBR 172120Z 33011KT 7000 RA SCT010 BKN040 10/07 Q1010",
      "taf": "TAF LIBR 171700Z 1718/1818 34008KT 9999 BKN035"
    },
    {
      "icao": "LICA",
      "alert": "OK",
      "vis_m": 9999,
      "fzfg": false,
      "metar_trigger": false,
      "taf_trigger": false,
      "metar": "METAR LICA 172120Z AUTO 05008KT 9999 -RA FEW047/// OVC061/// 12/11 Q1009",
      "taf": "TAF LICA 171700Z 1718/1818 08010KT 9999 BKN040"
    },
    {
      "icao": "LICC",
      "alert": "OK",
      "vis_m": 9999,
      "fzfg": false,
      "metar_trigger": false,
      "taf_trigger": false,
      "metar": "METAR LICC 172120Z 05009KT 9999 SCT045 BKN060 14/13 Q1009",
      "taf": "TAF LICC 171700Z 1718/1818 06010KT 9999 BKN030"
    },
    {
      "icao": "LICJ",
      "alert": "OK",
      "vis_m": 9999,
      "fzfg": false,
      "metar_trigger": false,
      "taf_trigger": false,
      "metar": "METAR LICJ 172120Z 01009KT 9999 SCT020 SCT050 15/13 Q1011",
      "taf": "TAF LICJ 171700Z 1718/1818 03016KT 9999 SCT020"
    },
    {
      "icao": "LIMC",
      "alert": "OK",
      "vis_m": 9999,
      "fzfg": false,
      "metar_trigger": false,
      "taf_trigger": false,
      "metar": "METAR LIMC 172120Z 06003KT 030V090 9999 SCT050 11/05 Q1016 NOSIG",
      "taf": "TAF LIMC 171700Z 1718/1824 VRB05KT 9999 SCT050"
    },
    {
      "icao": "LIME",
      "alert": "OK",
      "vis_m": 9999,
      "fzfg": false,
      "metar_trigger": false,
      "taf_trigger": false,
      "metar": "METAR LIME 172120Z 13008KT 9999 BKN060 11/00 Q1017 NOSIG",
      "taf": "TAF LIME 171700Z 1718/1818 VRB06KT 9999 SCT050"
    },
    {
      "icao": "LIMF",
      "alert": "OK",
      "vis_m": 9999,
      "fzfg": false,
      "metar_trigger": false,
      "taf_trigger": false,
      "metar": "METAR LIMF 172120Z 35007KT 9999 BKN050 10/05 Q1016",
      "taf": "TAF LIMF 171700Z 1718/1818 VRB05KT 9999 SCT030"
    },
    {
      "icao": "LIMJ",
      "alert": "OK",
      "vis_m": 9999,
      "fzfg": false,
      "metar_trigger": false,
      "taf_trigger": false,
      "metar": "METAR LIMJ 172120Z 05006KT CAVOK 14/03 Q1015",
      "taf": "TAF LIMJ 171700Z 1718/1818 35012KT 9999 SCT020"
    },
    {
      "icao": "LIPE",
      "alert": "OK",
      "vis_m": 9999,
      "fzfg": false,
      "metar_trigger": false,
      "taf_trigger": false,
      "metar": "METAR LIPE 172120Z 11008KT 9999 -RA NSC 10/05 Q1017",
      "taf": "TAF LIPE 171700Z 1718/1818 09010KT 9999 FEW050"
    },
    {
      "icao": "LIPH",
      "alert": "OK",
      "vis_m": 9999,
      "fzfg": false,
      "metar_trigger": false,
      "taf_trigger": false,
      "metar": "METAR LIPH 172120Z VRB01KT 9999 BKN080 09/02 Q1018",
      "taf": ""
    },
    {
      "icao": "LIPQ",
      "alert": "OK",
      "vis_m": 9999,
      "fzfg": false,
      "metar_trigger": false,
      "taf_trigger": false,
      "metar": "METAR LIPQ 172120Z AUTO 09008KT 9999 NCD 09/M04 Q1018",
      "taf": "TAF LIPQ 171700Z 1718/1818 06006KT 9999 SCT060"
    },
    {
      "icao": "LIPR",
      "alert": "OK",
      "vis_m": 9999,
      "fzfg": false,
      "metar_trigger": false,
      "taf_trigger": false,
      "metar": "METAR LIPR 172120Z 07007KT CAVOK 11/03 Q1017",
      "taf": "TAF LIPR 171700Z 1718/1818 09005KT 9999 FEW045"
    },
    {
      "icao": "LIPX",
      "alert": "OK",
      "vis_m": 9999,
      "fzfg": false,
      "metar_trigger": false,
      "taf_trigger": false,
      "metar": "METAR LIPX 172120Z 09006KT 9999 BKN065 11/02 Q1018",
      "taf": "TAF LIPX 171700Z 1718/1818 VRB05KT 9999 SCT030"
    },
    {
      "icao": "LIPY",
      "alert": "OK",
      "vis_m": 9999,
      "fzfg": false,
      "metar_trigger": false,
      "taf_trigger": false,
      "metar": "METAR LIPY 172120Z AUTO 03015KT 9999 FEW043/// 11/02 Q1015",
      "taf": "TAF LIPY 171700Z 1718/1818 03012KT 9999 SCT040"
    },
    {
      "icao": "LIPZ",
      "alert": "OK",
      "vis_m": 9999,
      "fzfg": false,
      "metar_trigger": false,
      "taf_trigger": false,
      "metar": "METAR LIPZ 172120Z 10010KT 9999 SCT070 12/M00 Q1018 NOSIG",
      "taf": ""
    },
    {
      "icao": "LIRF",
      "alert": "OK",
      "vis_m": 9999,
      "fzfg": false,
      "metar_trigger": false,
      "taf_trigger": false,
      "metar": "METAR LIRF 172120Z 02006KT CAVOK 09/M02 Q1013 NOSIG",
      "taf": "TAF LIRF 171700Z 1718/1824 01015KT CAVOK"
    },
    {
      "icao": "LIRN",
      "alert": "OK",
      "vis_m": 9999,
      "fzfg": false,
      "metar_trigger": false,
      "taf_trigger": false,
      "metar": "METAR LIRN 172120Z 08004KT 030V160 9999 BKN060 11/02 Q1011 NOSIG",
      "taf": "TAF LIRN 171700Z 1718/1818 03008KT 9999 BKN040"
    },
    {
      "icao": "LIRP",
      "alert": "OK",
      "vis_m": 9999,
      "fzfg": false,
      "metar_trigger": false,
      "taf_trigger": false,
      "metar": "METAR LIRP 172115Z 09014KT 9999 SCT070 13/M04 Q1015 NOSIG",
      "taf": "TAF LIRP 171700Z 1718/1818 09014KT 9999 SCT030 SCT060"
    },
    {
      "icao": "LIRZ",
      "alert": "OK",
      "vis_m": 9999,
      "fzfg": false,
      "metar_trigger": false,
      "taf_trigger": false,
      "metar": "METAR LIRZ 172120Z AUTO 02008KT 9999 NCD 07/00 Q1015",
      "taf": "TAF LIRZ 171700Z 1718/1818 03014KT CAVOK"
    },
    {
      "icao": "LJLJ",
      "alert": "OK",
      "vis_m": 9999,
      "fzfg": false,
      "metar_trigger": false,
      "taf_trigger": false,
      "metar": "METAR LJLJ 172130Z COR 25002KT 9999 FEW070 SCT250 M00/M02 Q1019 NOSIG",
      "taf": "TAF LJLJ 171700Z 1718/1818 12006KT 9999 FEW050"
    },
    {
      "icao": "LKMT",
      "alert": "OK",
      "vis_m": 7000,
      "fzfg": false,
      "metar_trigger": false,
      "taf_trigger": false,
      "metar": "METAR LKMT 172130Z 04008KT 7000 BKN025 OVC033 06/04 Q1024 NOSIG",
      "taf": "TAF LKMT 171700Z 1718/1818 04008KT 9999 SCT018 BKN035"
    },
    {
      "icao": "LKPR",
      "alert": "OK",
      "vis_m": 9999,
      "fzfg": false,
      "metar_trigger": false,
      "taf_trigger": false,
      "metar": "METAR LKPR 172130Z 09008KT CAVOK 01/M03 Q1025 NOSIG",
      "taf": "TAF LKPR 172000Z 1721/1903 06005KT CAVOK"
    },
    {
      "icao": "LLBG",
      "alert": "OK",
      "vis_m": 9999,
      "fzfg": false,
      "metar_trigger": false,
      "taf_trigger": false,
      "metar": "METAR LLBG 172120Z VRB03KT CAVOK 13/09 Q1009 NOSIG",
      "taf": "TAF LLBG 171703Z 1718/1818 VRB04KT CAVOK TX29/1812Z TN09/1803Z"
    },
    {
      "icao": "LMML",
      "alert": "OK",
      "vis_m": 9999,
      "fzfg": false,
      "metar_trigger": false,
      "taf_trigger": false,
      "metar": "METAR LMML 172145Z 02013KT 9999 FEW015TCU BKN020 15/12 Q1008 TEMPO 9000 SHRA",
      "taf": "TAF LMML 171700Z 1718/1818 03015KT 9999 FEW020"
    },
    {
      "icao": "LOWW",
      "alert": "OK",
      "vis_m": 9999,
      "fzfg": false,
      "metar_trigger": false,
      "taf_trigger": false,
      "metar": "METAR LOWW 172120Z 33009KT 9999 FEW032 SCT040 BKN048 05/02 Q1023 NOSIG",
      "taf": "TAF LOWW 172015Z 1721/1903 34012KT 9999 BKN040 TX16/1815Z TN03/1903Z"
    },
    {
      "icao": "LPFR",
      "alert": "OK",
      "vis_m": 9999,
      "fzfg": false,
      "metar_trigger": false,
      "taf_trigger": false,
      "metar": "METAR LPFR 172130Z 26003KT 200V310 9999 -RA FEW005 FEW020CB SCT045 15/14 Q1010",
      "taf": "TAF LPFR 171700Z 1718/1818 16010KT 9999 SCT015 BKN025"
    },
    {
      "icao": "LPMA",
      "alert": "OK",
      "vis_m": 9999,
      "fzfg": false,
      "metar_trigger": false,
      "taf_trigger": false,
      "metar": "METAR LPMA 172130Z 33003KT 240V050 9999 SCT014 FEW018TCU 16/12 Q1005",
      "taf": "TAF LPMA 171700Z 1718/1818 VRB05KT 9999 SCT015"
    },
    {
      "icao": "LPPR",
      "alert": "OK",
      "vis_m": 9999,
      "fzfg": false,
      "metar_trigger": false,
      "taf_trigger": false,
      "metar": "METAR LPPR 172130Z 17004KT 9999 BKN022 15/09 Q1008",
      "taf": "TAF LPPR 171700Z 1718/1818 VRB02KT 9999 SCT030"
    },
    {
      "icao": "LPPS",
      "alert": "OK",
      "vis_m": 9999,
      "fzfg": false,
      "metar_trigger": false,
      "taf_trigger": false,
      "metar": "METAR LPPS 172130Z 27009KT 9999 FEW012 SCT030 16/12 Q1005",
      "taf": "TAF LPPS 171700Z 1718/1824 27010KT 9999 SCT015"
    },
    {
      "icao": "LPPT",
      "alert": "OK",
      "vis_m": 7000,
      "fzfg": false,
      "metar_trigger": false,
      "taf_trigger": false,
      "metar": "METAR LPPT 172130Z 14008KT 120V180 7000 -RA SCT003 BKN008 14/14 Q1008",
      "taf": "TAF LPPT 171700Z 1718/1824 22018KT 9999 SCT015 BKN025"
    },
    {
      "icao": "LQBK",
      "alert": "OK",
      "vis_m": 5000,
      "fzfg": false,
      "metar_trigger": false,
      "taf_trigger": false,
      "metar": "METAR LQBK 172130Z 30005KT 5000 RA BR SCT013 BKN017 OVC025 05/03 Q1017 NOSIG",
      "taf": "TAF LQBK 171700Z 1718/1818 30005KT 9999 BKN020 OVC030 TX12/1814Z TN03/1806Z"
    },
    {
      "icao": "LQSA",
      "alert": "OK",
      "vis_m": 2500,
      "fzfg": false,
      "metar_trigger": false,
      "taf_trigger": false,
      "metar": "METAR LQSA 172130Z 31003KT 2500 SN BKN005 OVC025 00/00 Q1014 NOSIG",
      "taf": ""
    },
    {
      "icao": "LQTZ",
      "alert": "OK",
      "vis_m": 5000,
      "fzfg": false,
      "metar_trigger": false,
      "taf_trigger": false,
      "metar": "METAR LQTZ 172130Z VRB02KT 5000 -RA BR BKN010 OVC015 03/03 Q1016",
      "taf": "TAF LQTZ 171700Z 1718/1818 02006KT 9999 SCT015 BKN030 TX12/1813Z TN01/1806Z"
    },
    {
      "icao": "LRBC",
      "alert": "OK",
      "vis_m": 9999,
      "fzfg": false,
      "metar_trigger": false,
      "taf_trigger": false,
      "metar": "METAR LRBC 172130Z 32004KT CAVOK 04/M02 Q1022",
      "taf": "TAF LRBC 172000Z 1721/1806 VRB04KT CAVOK"
    },
    {
      "icao": "LRBS",
      "alert": "OK",
      "vis_m": 9999,
      "fzfg": false,
      "metar_trigger": false,
      "taf_trigger": false,
      "metar": "METAR LRBS 172130Z 06003KT CAVOK 04/M01 Q1020 NOSIG",
      "taf": "TAF LRBS 171700Z 1718/1818 09008KT CAVOK"
    },
    {
      "icao": "LRBV",
      "alert": "OK",
      "vis_m": 9999,
      "fzfg": false,
      "metar_trigger": false,
      "taf_trigger": false,
      "metar": "METAR LRBV 172130Z AUTO 06005KT 9999 NCD 02/M03 Q1020",
      "taf": "TAF LRBV 172000Z 1721/1806 10008KT CAVOK"
    },
    {
      "icao": "LRCL",
      "alert": "OK",
      "vis_m": 9999,
      "fzfg": false,
      "metar_trigger": false,
      "taf_trigger": false,
      "metar": "METAR LRCL 172130Z 36004KT 310V030 CAVOK 03/M03 Q1019",
      "taf": "TAF LRCL 172000Z 1721/1806 VRB04KT CAVOK"
    },
    {
      "icao": "LRCV",
      "alert": "OK",
      "vis_m": 9999,
      "fzfg": false,
      "metar_trigger": false,
      "taf_trigger": false,
      "metar": "METAR LRCV 172130Z 08011KT CAVOK 06/01 Q1018",
      "taf": "TAF LRCV 172000Z 1721/1806 08010KT CAVOK"
    },
    {
      "icao": "LRIA",
      "alert": "OK",
      "vis_m": 9999,
      "fzfg": false,
      "metar_trigger": false,
      "taf_trigger": false,
      "metar": "METAR LRIA 172130Z 08006KT CAVOK 06/M03 Q1023",
      "taf": "TAF LRIA 172000Z 1721/1806 VRB04KT CAVOK"
    },
    {
      "icao": "LROP",
      "alert": "OK",
      "vis_m": 9999,
      "fzfg": false,
      "metar_trigger": false,
      "taf_trigger": false,
      "metar": "METAR LROP 172130Z 07004KT CAVOK 04/M02 Q1020 NOSIG",
      "taf": "TAF LROP 171700Z 1718/1818 09008KT CAVOK"
    },
    {
      "icao": "LRSB",
      "alert": "OK",
      "vis_m": 9999,
      "fzfg": false,
      "metar_trigger": false,
      "taf_trigger": false,
      "metar": "METAR LRSB 172130Z 11008KT CAVOK 08/M01 Q1018",
      "taf": "TAF LRSB 171700Z 1718/1818 14006KT 9999 BKN050"
    },
    {
      "icao": "LRSM",
      "alert": "OK",
      "vis_m": 9999,
      "fzfg": false,
      "metar_trigger": false,
      "taf_trigger": false,
      "metar": "METAR LRSM 172130Z AUTO 09007KT 9999 NCD 07/M00 Q1019",
      "taf": "TAF LRSM 171400Z 1715/1724 04008KT CAVOK"
    },
    {
      "icao": "LRSV",
      "alert": "OK",
      "vis_m": 9999,
      "fzfg": false,
      "metar_trigger": false,
      "taf_trigger": false,
      "metar": "METAR LRSV 172130Z 16005KT CAVOK 05/M03 Q1022",
      "taf": "TAF LRSV 172000Z 1721/1806 09007KT CAVOK"
    },
    {
      "icao": "LRTM",
      "alert": "OK",
      "vis_m": 9999,
      "fzfg": false,
      "metar_trigger": false,
      "taf_trigger": false,
      "metar": "METAR LRTM 172130Z AUTO 04006KT 9999 NCD 07/M03 Q1020",
      "taf": "TAF LRTM 171400Z 1715/1724 VRB04KT CAVOK"
    },
    {
      "icao": "LRTR",
      "alert": "OK",
      "vis_m": 9999,
      "fzfg": false,
      "metar_trigger": false,
      "taf_trigger": false,
      "metar": "METAR LRTR 172130Z 16004KT CAVOK 07/02 Q1017",
      "taf": "TAF LRTR 171700Z 1718/1818 02006KT CAVOK"
    },
    {
      "icao": "LTAC",
      "alert": "OK",
      "vis_m": 9999,
      "fzfg": false,
      "metar_trigger": false,
      "taf_trigger": false,
      "metar": "METAR LTAC 172120Z VRB01KT 9999 FEW040 SCT180 04/M00 Q1013 NOSIG RMK RWY21C 03004KT RWY03L 06004KT RWY21R 04003KT RWY03R 00000KT RWY21L VRB01KT",
      "taf": "TAF LTAC 171640Z 1718/1818 VRB02KT 9999 SCT040 SCT100"
    },
    {
      "icao": "LTFM",
      "alert": "OK",
      "vis_m": 9999,
      "fzfg": false,
      "metar_trigger": false,
      "taf_trigger": false,
      "metar": "METAR LTFM 172120Z 05013KT 9999 FEW015 SCT022 07/05 Q1016 NOSIG RMK RWY17L 06011KT RWY34L 04010KT RWY16R 06012KT RWY36 05013KT RWY18 06010KT",
      "taf": "TAF LTFM 171640Z 1718/1824 05015KT 9999 FEW012 SCT022 BKN180"
    },
    {
      "icao": "LUKK",
      "alert": "OK",
      "vis_m": 9999,
      "fzfg": false,
      "metar_trigger": false,
      "taf_trigger": false,
      "metar": "METAR LUKK 172130Z VRB03KT CAVOK 03/M03 Q1023 NOSIG",
      "taf": "TAF LUKK 171725Z 1718/1818 VRB05KT CAVOK"
    },
    {
      "icao": "LWOH",
      "alert": "OK",
      "vis_m": null,
      "fzfg": false,
      "metar_trigger": false,
      "taf_trigger": false,
      "metar": "",
      "taf": "TAF LWOH 172030Z 1721/1821 18010KT 9999 SCT040 BKN090"
    },
    {
      "icao": "LWSK",
      "alert": "OK",
      "vis_m": 9999,
      "fzfg": false,
      "metar_trigger": false,
      "taf_trigger": false,
      "metar": "METAR LWSK 172150Z VRB01KT 9999 BKN058 10/04 Q1013 NOSIG",
      "taf": "TAF LWSK 172030Z 1721/1821 14010KT 9999 SCT040 BKN080"
    },
    {
      "icao": "LYBE",
      "alert": "OK",
      "vis_m": 9999,
      "fzfg": false,
      "metar_trigger": false,
      "taf_trigger": false,
      "metar": "METAR LYBE 172130Z 08006KT 050V110 CAVOK 11/M00 Q1016 NOSIG",
      "taf": "TAF LYBE 171700Z 1718/1818 05008KT CAVOK TX14/1813Z TN07/1802Z"
    },
    {
      "icao": "LYNI",
      "alert": "OK",
      "vis_m": 9999,
      "fzfg": false,
      "metar_trigger": false,
      "taf_trigger": false,
      "metar": "METAR LYNI 172130Z 07012KT 9999 FEW050 BKN090 12/M02 Q1014 NOSIG",
      "taf": "TAF LYNI 171700Z 1718/1818 06010KT 9999 SCT050 BKN080 TX14/1814Z TN08/1805Z"
    },
    {
      "icao": "LYPG",
      "alert": "OK",
      "vis_m": 9999,
      "fzfg": false,
      "metar_trigger": false,
      "taf_trigger": false,
      "metar": "METAR LYPG 172130Z 32007KT 9999 -RA FEW030 SCT040 OVC076 08/07 Q1011 NOSIG",
      "taf": "TAF LYPG 171700Z 1718/1818 36010KT 9999 BKN040 OVC070 TX15/1812Z TN07/1804Z"
    },
    {
      "icao": "LZIB",
      "alert": "OK",
      "vis_m": 9999,
      "fzfg": false,
      "metar_trigger": false,
      "taf_trigger": false,
      "metar": "METAR LZIB 172130Z 36007KT CAVOK 07/02 Q1022 NOSIG",
      "taf": "TAF LZIB 171715Z 1718/1818 01011KT 9999 SCT040"
    },
    {
      "icao": "LZKZ",
      "alert": "OK",
      "vis_m": 9999,
      "fzfg": false,
      "metar_trigger": false,
      "taf_trigger": false,
      "metar": "METAR LZKZ 172130Z 36016KT CAVOK 08/03 Q1021 NOSIG",
      "taf": "TAF LZKZ 171715Z 1718/1818 01015KT CAVOK"
    },
    {
      "icao": "LZTT",
      "alert": "OK",
      "vis_m": 9999,
      "fzfg": false,
      "metar_trigger": false,
      "taf_trigger": false,
      "metar": "METAR LZTT 172130Z 04012KT 9999 BKN020 OVC040 04/01 Q1022",
      "taf": "TAF LZTT 171715Z 1718/1818 07011KT 9999 SCT013 BKN035"
    },
    {
      "icao": "OEJN",
      "alert": "OK",
      "vis_m": 9999,
      "fzfg": false,
      "metar_trigger": false,
      "taf_trigger": false,
      "metar": "METAR OEJN 172100Z 33004KT 9999 FEW040 27/15 Q1008 NOSIG",
      "taf": "TAF OEJN 171700Z 1718/1824 36005KT 7000 SCT040"
    },
    {
      "icao": "OEMA",
      "alert": "OK",
      "vis_m": 9999,
      "fzfg": false,
      "metar_trigger": false,
      "taf_trigger": false,
      "metar": "METAR OEMA 172100Z 30008KT CAVOK 27/08 Q1012 NOSIG",
      "taf": "TAF OEMA 171700Z 1718/1824 VRB03KT 9999 SCT045"
    },
    {
      "icao": "OJAI",
      "alert": "OK",
      "vis_m": 5000,
      "fzfg": false,
      "metar_trigger": false,
      "taf_trigger": false,
      "metar": "METAR OJAI 172100Z 06010KT 5000 HZ NSC 13/00 Q1013 NOSIG",
      "taf": "TAF OJAI 171638Z 1718/1824 13010KT 5000 HZ NSC"
    },
    {
      "icao": "OMAA",
      "alert": "OK",
      "vis_m": null,
      "fzfg": false,
      "metar_trigger": false,
      "taf_trigger": false,
      "metar": "",
      "taf": ""
    },
    {
      "icao": "OMDB",
      "alert": "OK",
      "vis_m": null,
      "fzfg": false,
      "metar_trigger": false,
      "taf_trigger": false,
      "metar": "",
      "taf": ""
    },
    {
      "icao": "UAAA",
      "alert": "OK",
      "vis_m": 9999,
      "fzfg": false,
      "metar_trigger": false,
      "taf_trigger": false,
      "metar": "METAR UAAA 172130Z 16002MPS 9999 BKN100 00/M03 Q1015 NOSIG",
      "taf": "TAF UAAA 171705Z 1718/1818 23002MPS 9999 SCT050 TX11/1809Z TNM01/1801Z"
    },
    {
      "icao": "UBBB",
      "alert": "OK",
      "vis_m": 9999,
      "fzfg": false,
      "metar_trigger": false,
      "taf_trigger": false,
      "metar": "METAR UBBB 172130Z 30014KT CAVOK 09/06 Q1018 NOSIG",
      "taf": "TAF UBBB 171659Z 1718/1818 30010KT 9999 BKN030 TX14/1810Z TN05/1801Z"
    },
    {
      "icao": "UDSG",
      "alert": "OK",
      "vis_m": 9999,
      "fzfg": false,
      "metar_trigger": false,
      "taf_trigger": false,
      "metar": "METAR UDSG 172130Z 17001KT 9999 FEW049 01/M01 Q1018 NOSIG",
      "taf": "TAF UDSG 171700Z 1718/1818 VRB06KT 9999 FEW050"
    },
    {
      "icao": "UDYZ",
      "alert": "OK",
      "vis_m": 9999,
      "fzfg": false,
      "metar_trigger": false,
      "taf_trigger": false,
      "metar": "METAR UDYZ 172130Z VRB02KT 9999 FEW046 08/02 Q1016 NOSIG",
      "taf": "TAF UDYZ 171700Z 1718/1818 04006KT 9999 FEW040"
    },
    {
      "icao": "UGKO",
      "alert": "OK",
      "vis_m": 300,
      "fzfg": false,
      "metar_trigger": false,
      "taf_trigger": false,
      "metar": "METAR UGKO 172130Z VRB02KT 0300 R07/0250D FG VV002 04/04 Q1019 NOSIG",
      "taf": ""
    }
  ]
}