{
  "ts_utc": "2026-04-05T21:56:52Z",
  "threshold_m": 150,
  "source": "stations_override.txt (ICAO list) + aviationweather.gov (METAR/TAF raw)",
  "station_count": 159,
  "stations": [
    {
      "icao": "BIKF",
      "alert": "OK",
      "vis_m": 9999,
      "fzfg": false,
      "metar_trigger": false,
      "taf_trigger": false,
      "metar": "METAR BIKF 052130Z 15008KT 9999 VCSH SCT035 BKN090 01/M04 Q1007",
      "taf": "TAF BIKF 051930Z 0521/0621 07006KT 9999 FEW030 TX04/0617Z TNM01/0523Z"
    },
    {
      "icao": "BKPR",
      "alert": "OK",
      "vis_m": null,
      "fzfg": false,
      "metar_trigger": false,
      "taf_trigger": false,
      "metar": "",
      "taf": "TAF BKPR 051730Z 0518/0618 34006KT 9999 FEW080"
    },
    {
      "icao": "EBCI",
      "alert": "OK",
      "vis_m": 9999,
      "fzfg": false,
      "metar_trigger": false,
      "taf_trigger": false,
      "metar": "METAR EBCI 052150Z 26005KT CAVOK 06/02 Q1025 NOSIG",
      "taf": "TAF EBCI 051702Z 0518/0624 25010KT 9999 FEW045"
    },
    {
      "icao": "EDDB",
      "alert": "OK",
      "vis_m": 9999,
      "fzfg": false,
      "metar_trigger": false,
      "taf_trigger": false,
      "metar": "METAR EDDB 052150Z AUTO 25012KT 9999 VCSH FEW///TCU 10/04 Q1016 TEMPO 28020G35KT RA",
      "taf": "TAF EDDB 051700Z 0518/0618 28015G25KT 9999 SCT045"
    },
    {
      "icao": "EDDH",
      "alert": "OK",
      "vis_m": 9999,
      "fzfg": false,
      "metar_trigger": false,
      "taf_trigger": false,
      "metar": "METAR EDDH 052150Z AUTO 26011KT 9999 SCT021 SCT031 07/04 Q1017 TEMPO 27015G25KT",
      "taf": "TAF EDDH 051700Z 0518/0624 27011KT 9999 SCT035"
    },
    {
      "icao": "EDDK",
      "alert": "OK",
      "vis_m": 9999,
      "fzfg": false,
      "metar_trigger": false,
      "taf_trigger": false,
      "metar": "METAR EDDK 052150Z AUTO 26009KT 9999 -RA FEW022 09/05 Q1024 NOSIG",
      "taf": "TAF EDDK 051700Z 0518/0624 28012KT 9999 SCT040"
    },
    {
      "icao": "EDDN",
      "alert": "OK",
      "vis_m": 9999,
      "fzfg": false,
      "metar_trigger": false,
      "taf_trigger": false,
      "metar": "METAR EDDN 052150Z AUTO 28015KT CAVOK 13/06 Q1022",
      "taf": "TAF EDDN 051700Z 0518/0618 27013KT 9999 FEW040"
    },
    {
      "icao": "EDDS",
      "alert": "OK",
      "vis_m": 9999,
      "fzfg": false,
      "metar_trigger": false,
      "taf_trigger": false,
      "metar": "METAR EDDS 052150Z AUTO 26007KT 9999 FEW047 12/06 Q1023",
      "taf": "TAF EDDS 051700Z 0518/0618 27008KT CAVOK"
    },
    {
      "icao": "EDFH",
      "alert": "OK",
      "vis_m": 9999,
      "fzfg": false,
      "metar_trigger": false,
      "taf_trigger": false,
      "metar": "METAR EDFH 052150Z 27011KT CAVOK 07/00 Q1024",
      "taf": "TAF EDFH 051700Z 0518/0618 27012KT 9999 SCT030"
    },
    {
      "icao": "EDJA",
      "alert": "OK",
      "vis_m": 9999,
      "fzfg": false,
      "metar_trigger": false,
      "taf_trigger": false,
      "metar": "METAR EDJA 052150Z AUTO 27005KT 9999 // OVC073/// 13/05 Q1023",
      "taf": "TAF EDJA 051700Z 0518/0603 25010KT CAVOK"
    },
    {
      "icao": "EDLW",
      "alert": "OK",
      "vis_m": 9999,
      "fzfg": false,
      "metar_trigger": false,
      "taf_trigger": false,
      "metar": "METAR EDLW 052150Z AUTO 26006KT 230V300 9999 // SCT038/// BKN087/// 08/03 Q1022",
      "taf": "TAF EDLW 051700Z 0518/0618 24008KT 9999 SCT035"
    },
    {
      "icao": "EDNY",
      "alert": "OK",
      "vis_m": 9999,
      "fzfg": false,
      "metar_trigger": false,
      "taf_trigger": false,
      "metar": "METAR EDNY 052150Z AUTO VRB03KT 9999 // FEW043/// SCT072/// OVC086/// 14/10 Q1023",
      "taf": "TAF EDNY 051700Z 0518/0603 25008KT CAVOK"
    },
    {
      "icao": "EDSB",
      "alert": "OK",
      "vis_m": 9999,
      "fzfg": false,
      "metar_trigger": false,
      "taf_trigger": false,
      "metar": "METAR EDSB 052150Z 26005KT 200V310 9999 SCT036 BKN044 14/07 Q1024",
      "taf": "TAF EDSB 051700Z 0518/0618 28006KT CAVOK"
    },
    {
      "icao": "EETN",
      "alert": "OK",
      "vis_m": 9999,
      "fzfg": false,
      "metar_trigger": false,
      "taf_trigger": false,
      "metar": "METAR EETN 052150Z 19010KT CAVOK 05/03 Q0995 NOSIG",
      "taf": "TAF EETN 051730Z 0518/0618 19012KT 9999 SCT015 OVC035"
    },
    {
      "icao": "EFTU",
      "alert": "OK",
      "vis_m": 9999,
      "fzfg": false,
      "metar_trigger": false,
      "taf_trigger": false,
      "metar": "METAR EFTU 052150Z AUTO 20010KT 9999 OVC043 04/01 Q0988",
      "taf": "TAF EFTU 052038Z 0521/0621 18010KT 9999 FEW007"
    },
    {
      "icao": "EGBB",
      "alert": "OK",
      "vis_m": 9999,
      "fzfg": false,
      "metar_trigger": false,
      "taf_trigger": false,
      "metar": "METAR EGBB 052150Z 22003KT 190V260 CAVOK 03/M02 Q1024",
      "taf": "TAF EGBB 051655Z 0518/0618 28010KT 9999 FEW030"
    },
    {
      "icao": "EGGP",
      "alert": "OK",
      "vis_m": 9999,
      "fzfg": false,
      "metar_trigger": false,
      "taf_trigger": false,
      "metar": "METAR EGGP 052150Z VRB02KT CAVOK 05/01 Q1023",
      "taf": "TAF EGGP 051655Z 0518/0618 28014KT 9999 SCT035"
    },
    {
      "icao": "EGGW",
      "alert": "OK",
      "vis_m": 9999,
      "fzfg": false,
      "metar_trigger": false,
      "taf_trigger": false,
      "metar": "METAR EGGW 052150Z AUTO 26007KT 9999 NCD 04/M00 Q1024",
      "taf": "TAF EGGW 051652Z 0518/0618 27015KT 9999 FEW035"
    },
    {
      "icao": "EGKK",
      "alert": "OK",
      "vis_m": 9999,
      "fzfg": false,
      "metar_trigger": false,
      "taf_trigger": false,
      "metar": "METAR EGKK 052150Z 22003KT CAVOK 06/M02 Q1025",
      "taf": "TAF EGKK 051656Z 0518/0624 25012KT 9999 FEW040"
    },
    {
      "icao": "EGNM",
      "alert": "OK",
      "vis_m": 9999,
      "fzfg": false,
      "metar_trigger": false,
      "taf_trigger": false,
      "metar": "METAR EGNM 052150Z 25010KT 9999 FEW042 03/M00 Q1021",
      "taf": "TAF EGNM 051655Z 0518/0618 26012KT 9999 SCT030"
    },
    {
      "icao": "EGPD",
      "alert": "OK",
      "vis_m": 9999,
      "fzfg": false,
      "metar_trigger": false,
      "taf_trigger": false,
      "metar": "METAR EGPD 052150Z COR AUTO 23006KT 200V270 9999 NCD 03/M03 Q1014 NOSIG",
      "taf": "TAF EGPD 051654Z 0518/0618 28016G28KT 9999 FEW040"
    },
    {
      "icao": "EGPF",
      "alert": "OK",
      "vis_m": 9999,
      "fzfg": false,
      "metar_trigger": false,
      "taf_trigger": false,
      "metar": "METAR EGPF 052150Z AUTO 25008KT 9999 NCD 04/01 Q1019",
      "taf": ""
    },
    {
      "icao": "EHBK",
      "alert": "OK",
      "vis_m": 9999,
      "fzfg": false,
      "metar_trigger": false,
      "taf_trigger": false,
      "metar": "METAR EHBK 052125Z AUTO 24006KT 210V280 9999 NSC 08/03 Q1024",
      "taf": "TAF EHBK 051702Z 0518/0624 25011KT 9999 SCT040"
    },
    {
      "icao": "EHEH",
      "alert": "OK",
      "vis_m": 9999,
      "fzfg": false,
      "metar_trigger": false,
      "taf_trigger": false,
      "metar": "METAR EHEH 052125Z AUTO 26003KT 230V290 9999 OVC330 07/04 Q1023 BLU",
      "taf": "TAF EHEH 051757Z 0518/0624 25012KT 9999 FEW035"
    },
    {
      "icao": "EKBI",
      "alert": "OK",
      "vis_m": 9999,
      "fzfg": false,
      "metar_trigger": false,
      "taf_trigger": false,
      "metar": "METAR EKBI 052150Z AUTO 26017KT 9999 SCT020/// 05/02 Q1011",
      "taf": "TAF EKBI 052027Z 0521/0621 25018KT 9999 BKN035"
    },
    {
      "icao": "EKCH",
      "alert": "OK",
      "vis_m": 9999,
      "fzfg": false,
      "metar_trigger": false,
      "taf_trigger": false,
      "metar": "METAR EKCH 052150Z AUTO 26019KT 9999 FEW039/// 06/M00 Q1009 TEMPO 26018KT",
      "taf": "TAF EKCH 052027Z 0521/0621 25020G30KT 9999 FEW045"
    },
    {
      "icao": "ENAL",
      "alert": "OK",
      "vis_m": 9999,
      "fzfg": false,
      "metar_trigger": false,
      "taf_trigger": false,
      "metar": "METAR ENAL 052150Z 26017KT 9999 -RA FEW012 SCT018 BKN026 05/03 Q0994",
      "taf": "TAF ENAL 052000Z 0521/0606 27015KT 9999 -SHRA FEW015 BKN035"
    },
    {
      "icao": "ENBR",
      "alert": "OK",
      "vis_m": 9999,
      "fzfg": false,
      "metar_trigger": false,
      "taf_trigger": false,
      "metar": "METAR ENBR 052150Z 29005KT 9999 FEW040 SCT050 03/M00 Q1001 RMK WIND 1200FT 29024KT",
      "taf": ""
    },
    {
      "icao": "ENGM",
      "alert": "OK",
      "vis_m": 9999,
      "fzfg": false,
      "metar_trigger": false,
      "taf_trigger": false,
      "metar": "METAR ENGM 052150Z 29007KT 230V350 CAVOK 03/M03 Q0990",
      "taf": "TAF ENGM 051700Z 0518/0618 27010KT 9999 FEW015"
    },
    {
      "icao": "ENHD",
      "alert": "OK",
      "vis_m": 9999,
      "fzfg": false,
      "metar_trigger": false,
      "taf_trigger": false,
      "metar": "METAR ENHD 052150Z AUTO 27026KT 9999 FEW043/// 06/02 Q1003",
      "taf": "TAF ENHD 051100Z 0512/0521 27009KT 8000 -RA SCT007 BKN015"
    },
    {
      "icao": "ENTC",
      "alert": "OK",
      "vis_m": 9999,
      "fzfg": false,
      "metar_trigger": false,
      "taf_trigger": false,
      "metar": "METAR ENTC 052150Z VRB02KT CAVOK M01/M05 Q0996 RMK WIND 2600FT 17015KT",
      "taf": "TAF ENTC 051700Z 0518/0618 36006KT CAVOK"
    },
    {
      "icao": "ENTO",
      "alert": "OK",
      "vis_m": 9999,
      "fzfg": false,
      "metar_trigger": false,
      "taf_trigger": false,
      "metar": "METAR ENTO 052150Z 29014KT CAVOK 06/M05 Q0995",
      "taf": "TAF ENTO 051700Z 0518/0618 22012KT 9999 SCT030"
    },
    {
      "icao": "ENVA",
      "alert": "OK",
      "vis_m": 9999,
      "fzfg": false,
      "metar_trigger": false,
      "taf_trigger": false,
      "metar": "METAR ENVA 052150Z 26017KT 9999 -RA SCT009 BKN012 BKN042 03/02 Q0988 RMK WIND 670FT 27017KT",
      "taf": ""
    },
    {
      "icao": "ENZV",
      "alert": "OK",
      "vis_m": 9999,
      "fzfg": false,
      "metar_trigger": false,
      "taf_trigger": false,
      "metar": "METAR ENZV 052150Z 29023KT 9999 VCSH FEW027CB SCT042 06/01 Q1004",
      "taf": ""
    },
    {
      "icao": "EPGD",
      "alert": "OK",
      "vis_m": 9999,
      "fzfg": false,
      "metar_trigger": false,
      "taf_trigger": false,
      "metar": "METAR EPGD 052130Z 26014KT CAVOK 07/01 Q1010",
      "taf": "TAF EPGD 051730Z 0518/0618 26012KT CAVOK"
    },
    {
      "icao": "EPKK",
      "alert": "OK",
      "vis_m": 9999,
      "fzfg": false,
      "metar_trigger": false,
      "taf_trigger": false,
      "metar": "METAR EPKK 052130Z 25008KT 9999 -SHRA SCT040CB BKN066 15/07 Q1013",
      "taf": ""
    },
    {
      "icao": "EPKT",
      "alert": "OK",
      "vis_m": 9999,
      "fzfg": false,
      "metar_trigger": false,
      "taf_trigger": false,
      "metar": "METAR EPKT 052130Z 33017KT CAVOK 14/07 Q1015",
      "taf": ""
    },
    {
      "icao": "EPLB",
      "alert": "OK",
      "vis_m": 9999,
      "fzfg": false,
      "metar_trigger": false,
      "taf_trigger": false,
      "metar": "METAR EPLB 052130Z 24003KT 9999 -SHRA FEW046 SCT062CB 12/10 Q1013 RETS RESHRA",
      "taf": ""
    },
    {
      "icao": "EPMO",
      "alert": "OK",
      "vis_m": 9999,
      "fzfg": false,
      "metar_trigger": false,
      "taf_trigger": false,
      "metar": "METAR EPMO 052130Z 29006KT 9999 -SHRA FEW028 FEW043CB 08/05 Q1014",
      "taf": ""
    },
    {
      "icao": "EPPO",
      "alert": "OK",
      "vis_m": 9999,
      "fzfg": false,
      "metar_trigger": false,
      "taf_trigger": false,
      "metar": "METAR EPPO 052130Z 26011KT CAVOK 09/06 Q1015",
      "taf": ""
    },
    {
      "icao": "EPRA",
      "alert": "OK",
      "vis_m": 9999,
      "fzfg": false,
      "metar_trigger": false,
      "taf_trigger": false,
      "metar": "METAR EPRA 052130Z 31011KT 280V350 9999 -SHRA SCT024CB 12/09 Q1013",
      "taf": "TAF EPRA 052030Z 0521/0606 25008KT CAVOK"
    },
    {
      "icao": "EPRZ",
      "alert": "OK",
      "vis_m": 9999,
      "fzfg": false,
      "metar_trigger": false,
      "taf_trigger": false,
      "metar": "METAR EPRZ 052130Z 20015KT CAVOK 16/05 Q1013",
      "taf": "TAF EPRZ 051730Z 0518/0618 20014KT CAVOK"
    },
    {
      "icao": "EPSC",
      "alert": "OK",
      "vis_m": 9999,
      "fzfg": false,
      "metar_trigger": false,
      "taf_trigger": false,
      "metar": "METAR EPSC 052130Z 26009KT CAVOK 07/02 Q1013",
      "taf": "TAF EPSC 051730Z 0518/0618 24008KT CAVOK"
    },
    {
      "icao": "EPSY",
      "alert": "OK",
      "vis_m": 9999,
      "fzfg": false,
      "metar_trigger": false,
      "taf_trigger": false,
      "metar": "METAR EPSY 052130Z 20003KT 9999 SCT044 05/05 Q1012",
      "taf": "TAF EPSY 052030Z 0521/0606 VRB02KT 9999 BKN030"
    },
    {
      "icao": "EPWA",
      "alert": "OK",
      "vis_m": 9999,
      "fzfg": false,
      "metar_trigger": false,
      "taf_trigger": false,
      "metar": "METAR EPWA 052130Z 32008KT 9999 SHRA FEW022 BKN044CB 09/06 Q1014 NOSIG",
      "taf": "TAF EPWA 052030Z 0521/0621 34010KT CAVOK"
    },
    {
      "icao": "EPWR",
      "alert": "OK",
      "vis_m": 9999,
      "fzfg": false,
      "metar_trigger": false,
      "taf_trigger": false,
      "metar": "METAR EPWR 052130Z 31012KT 9999 FEW040 BKN045 12/07 Q1017",
      "taf": "TAF EPWR 052030Z 0521/0621 29010KT CAVOK"
    },
    {
      "icao": "ESGG",
      "alert": "OK",
      "vis_m": 9999,
      "fzfg": false,
      "metar_trigger": false,
      "taf_trigger": false,
      "metar": "METAR ESGG 052150Z 27023G37KT 9999 BKN022 04/00 Q0999",
      "taf": "TAF ESGG 052030Z 0521/0621 25030G45KT 9999 SCT025 BKN035"
    },
    {
      "icao": "ESKN",
      "alert": "OK",
      "vis_m": 9999,
      "fzfg": false,
      "metar_trigger": false,
      "taf_trigger": false,
      "metar": "METAR ESKN 052150Z 24022KT 9999 -SHRA BKN013 BKN019 04/02 Q0988",
      "taf": "TAF ESKN 052030Z 0521/0621 22025G40KT 9999 BKN030"
    },
    {
      "icao": "ESMS",
      "alert": "OK",
      "vis_m": 9999,
      "fzfg": false,
      "metar_trigger": false,
      "taf_trigger": false,
      "metar": "METAR ESMS 052150Z 25018KT CAVOK 05/00 Q1008",
      "taf": "TAF ESMS 052027Z 0521/0621 25020G32KT 9999 FEW035"
    },
    {
      "icao": "ESSA",
      "alert": "OK",
      "vis_m": 9999,
      "fzfg": false,
      "metar_trigger": false,
      "taf_trigger": false,
      "metar": "METAR ESSA 052150Z 22017KT 9999 DZ FEW007 BKN010 04/02 Q0985 TEMPO BKN008",
      "taf": ""
    },
    {
      "icao": "EYKA",
      "alert": "OK",
      "vis_m": 9999,
      "fzfg": false,
      "metar_trigger": false,
      "taf_trigger": false,
      "metar": "METAR EYKA 052150Z 26014KT CAVOK 07/03 Q1008",
      "taf": "TAF EYKA 051700Z 0518/0618 24015KT 9000 BKN030"
    },
    {
      "icao": "EYPA",
      "alert": "OK",
      "vis_m": 9999,
      "fzfg": false,
      "metar_trigger": false,
      "taf_trigger": false,
      "metar": "METAR EYPA 052150Z 23008KT 190V320 CAVOK 05/02 Q1005",
      "taf": "TAF EYPA 051700Z 0518/0618 25015G30KT 9000 NSC"
    },
    {
      "icao": "EYVI",
      "alert": "OK",
      "vis_m": 9999,
      "fzfg": false,
      "metar_trigger": false,
      "taf_trigger": false,
      "metar": "METAR EYVI 052150Z VRB02KT 9999 -SHRA FEW028 SCT036 BKN047CB 07/02 Q1007 NOSIG",
      "taf": "TAF EYVI 051700Z 0518/0618 20014KT 9000 BKN025"
    },
    {
      "icao": "GCFV",
      "alert": "OK",
      "vis_m": 9999,
      "fzfg": false,
      "metar_trigger": false,
      "taf_trigger": false,
      "metar": "METAR GCFV 052130Z 34013KT CAVOK 20/14 Q1014",
      "taf": ""
    },
    {
      "icao": "GCLP",
      "alert": "OK",
      "vis_m": 9999,
      "fzfg": false,
      "metar_trigger": false,
      "taf_trigger": false,
      "metar": "METAR GCLP 052130Z 01013KT CAVOK 21/11 Q1014 NOSIG",
      "taf": "TAF GCLP 052000Z 0521/0621 03015KT CAVOK TX23/0614Z TN17/0606Z"
    },
    {
      "icao": "GCTS",
      "alert": "OK",
      "vis_m": 9999,
      "fzfg": false,
      "metar_trigger": false,
      "taf_trigger": false,
      "metar": "METAR GCTS 052130Z 24004KT 9999 FEW095 19/16 Q1014 NOSIG",
      "taf": "TAF GCTS 052000Z 0521/0621 10013KT CAVOK TX23/0614Z TN16/0606Z"
    },
    {
      "icao": "GMAD",
      "alert": "OK",
      "vis_m": 9999,
      "fzfg": false,
      "metar_trigger": false,
      "taf_trigger": false,
      "metar": "METAR GMAD 052130Z 11009KT 9999 SCT030 BKN080 26/07 Q1016 NOSIG",
      "taf": "TAF GMAD 051700Z 0518/0624 18014KT 8000 SCT026TCU BKN080"
    },
    {
      "icao": "GMMN",
      "alert": "OK",
      "vis_m": 9999,
      "fzfg": false,
      "metar_trigger": false,
      "taf_trigger": false,
      "metar": "METAR GMMN 052130Z 34006KT CAVOK 20/12 Q1018 NOSIG",
      "taf": "TAF GMMN 051700Z 0518/0624 34010KT CAVOK"
    },
    {
      "icao": "GMMX",
      "alert": "OK",
      "vis_m": 8000,
      "fzfg": false,
      "metar_trigger": false,
      "taf_trigger": false,
      "metar": "METAR GMMX 052130Z 26003KT 8000 BKN100 21/10 Q1019 NOSIG",
      "taf": "TAF GMMX 051700Z 0518/0624 06006KT 8000 SCT100"
    },
    {
      "icao": "HEGN",
      "alert": "OK",
      "vis_m": 9999,
      "fzfg": false,
      "metar_trigger": false,
      "taf_trigger": false,
      "metar": "METAR HEGN 052100Z 28006KT CAVOK 21/M03 Q1018 NOSIG",
      "taf": "TAF HEGN 051700Z 0518/0624 33006G18KT CAVOK"
    },
    {
      "icao": "HEMA",
      "alert": "OK",
      "vis_m": 9999,
      "fzfg": false,
      "metar_trigger": false,
      "taf_trigger": false,
      "metar": "METAR HEMA 052100Z 31014KT CAVOK 24/01 Q1017 NOSIG",
      "taf": "TAF HEMA 051700Z 0518/0624 34010G22KT CAVOK"
    },
    {
      "icao": "HESH",
      "alert": "OK",
      "vis_m": 9999,
      "fzfg": false,
      "metar_trigger": false,
      "taf_trigger": false,
      "metar": "METAR HESH 052100Z 31005KT CAVOK 21/02 Q1018 NOSIG",
      "taf": "TAF HESH 051700Z 0518/0624 35006G18KT CAVOK"
    },
    {
      "icao": "HESX",
      "alert": "OK",
      "vis_m": 9999,
      "fzfg": false,
      "metar_trigger": false,
      "taf_trigger": false,
      "metar": "METAR HESX 052100Z 34007KT CAVOK 15/11 Q1019 NOSIG",
      "taf": "TAF HESX 051700Z 0518/0624 34014KT CAVOK"
    },
    {
      "icao": "LATI",
      "alert": "OK",
      "vis_m": 9999,
      "fzfg": false,
      "metar_trigger": false,
      "taf_trigger": false,
      "metar": "METAR LATI 052150Z 16003KT CAVOK 09/04 Q1024 NOSIG",
      "taf": "TAF LATI 051700Z 0518/0618 VRB03KT CAVOK TX22/0613Z TN06/0605Z"
    },
    {
      "icao": "LBPD",
      "alert": "OK",
      "vis_m": 9999,
      "fzfg": false,
      "metar_trigger": false,
      "taf_trigger": false,
      "metar": "METAR LBPD 052130Z AUTO 04005KT 010V070 9999 BKN085/// 11/05 Q1022",
      "taf": "TAF LBPD 051700Z 0518/0618 12010KT 9999 SCT060"
    },
    {
      "icao": "LBSF",
      "alert": "OK",
      "vis_m": 9999,
      "fzfg": false,
      "metar_trigger": false,
      "taf_trigger": false,
      "metar": "METAR LBSF 052130Z AUTO VRB02KT 9999 NCD 07/05 Q1023 NOSIG",
      "taf": "TAF LBSF 051700Z 0518/0618 32010KT 9999 SCT070"
    },
    {
      "icao": "LBWN",
      "alert": "OK",
      "vis_m": 9999,
      "fzfg": false,
      "metar_trigger": false,
      "taf_trigger": false,
      "metar": "METAR LBWN 052130Z AUTO 05004KT 9999 NCD 08/02 Q1022 NOSIG",
      "taf": "TAF LBWN 051700Z 0518/0618 VRB03KT 9999 SCT030"
    },
    {
      "icao": "LCLK",
      "alert": "OK",
      "vis_m": 9999,
      "fzfg": false,
      "metar_trigger": false,
      "taf_trigger": false,
      "metar": "METAR LCLK 052130Z 31005KT 9999 FEW030 12/11 Q1017 NOSIG",
      "taf": "TAF LCLK 051730Z 0518/0618 29006KT 9999 FEW025"
    },
    {
      "icao": "LCPH",
      "alert": "OK",
      "vis_m": 9999,
      "fzfg": false,
      "metar_trigger": false,
      "taf_trigger": false,
      "metar": "METAR LCPH 052130Z 04005KT 010V080 9999 SCT018 13/12 Q1018 NOSIG",
      "taf": "TAF LCPH 051730Z 0518/0618 35008KT 9999 FEW025 FEW030TCU SCT040"
    },
    {
      "icao": "LEAL",
      "alert": "OK",
      "vis_m": 9999,
      "fzfg": false,
      "metar_trigger": false,
      "taf_trigger": false,
      "metar": "METAR LEAL 052130Z 36003KT 330V060 CAVOK 15/12 Q1025 NOSIG",
      "taf": "TAF LEAL 051700Z 0518/0618 08008KT CAVOK TX21/0612Z TN11/0606Z"
    },
    {
      "icao": "LEBB",
      "alert": "OK",
      "vis_m": 9999,
      "fzfg": false,
      "metar_trigger": false,
      "taf_trigger": false,
      "metar": "METAR LEBB 052130Z VRB02KT CAVOK 12/10 Q1025 NOSIG",
      "taf": "TAF LEBB 051700Z 0518/0618 12008KT 9999 SCT020 TX28/0615Z TN09/0603Z"
    },
    {
      "icao": "LEBL",
      "alert": "OK",
      "vis_m": 9999,
      "fzfg": false,
      "metar_trigger": false,
      "taf_trigger": false,
      "metar": "METAR LEBL 052130Z 22010KT CAVOK 15/13 Q1026 NOSIG",
      "taf": "TAF LEBL 051700Z 0518/0618 22010KT CAVOK TX21/0612Z TN11/0605Z"
    },
    {
      "icao": "LECH",
      "alert": "OK",
      "vis_m": 9999,
      "fzfg": false,
      "metar_trigger": false,
      "taf_trigger": false,
      "metar": "METAR LECH 052130Z AUTO 21005KT CAVOK 14/03 Q1026",
      "taf": "TAF LECH 051700Z 0518/0618 13008KT CAVOK TX23/0614Z TN10/0606Z"
    },
    {
      "icao": "LEMD",
      "alert": "OK",
      "vis_m": 9999,
      "fzfg": false,
      "metar_trigger": false,
      "taf_trigger": false,
      "metar": "METAR LEMD 052130Z 13001KT CAVOK 16/05 Q1023 NOSIG",
      "taf": "TAF LEMD 051700Z 0518/0624 VRB04KT CAVOK TX27/0616Z TN09/0606Z"
    },
    {
      "icao": "LEMG",
      "alert": "OK",
      "vis_m": 9999,
      "fzfg": false,
      "metar_trigger": false,
      "taf_trigger": false,
      "metar": "METAR LEMG 052130Z 28004KT CAVOK 13/06 Q1024 NOSIG",
      "taf": "TAF LEMG 051700Z 0518/0618 12010KT CAVOK TX22/0614Z TN09/0606Z"
    },
    {
      "icao": "LEVC",
      "alert": "OK",
      "vis_m": 9999,
      "fzfg": false,
      "metar_trigger": false,
      "taf_trigger": false,
      "metar": "METAR LEVC 052130Z 06004KT 030V090 CAVOK 16/08 Q1025 NOSIG",
      "taf": "TAF LEVC 051700Z 0518/0618 09008KT CAVOK TX22/0614Z TN10/0606Z"
    },
    {
      "icao": "LEXJ",
      "alert": "OK",
      "vis_m": 8000,
      "fzfg": false,
      "metar_trigger": false,
      "taf_trigger": false,
      "metar": "METAR LEXJ 052130Z AUTO 08003KT 040V150 8000 NSC 12/10 Q1024",
      "taf": "TAF LEXJ 052000Z 0521/0621 04006KT 9999 SCT020 TX30/0614Z TN10/0606Z"
    },
    {
      "icao": "LEZG",
      "alert": "OK",
      "vis_m": 9999,
      "fzfg": false,
      "metar_trigger": false,
      "taf_trigger": false,
      "metar": "METAR LEZG 052130Z 10007KT CAVOK 19/09 Q1022 NOSIG",
      "taf": "TAF LEZG 051700Z 0518/0618 11006KT CAVOK TX29/0614Z TN12/0606Z"
    },
    {
      "icao": "LEZL",
      "alert": "OK",
      "vis_m": 9999,
      "fzfg": false,
      "metar_trigger": false,
      "taf_trigger": false,
      "metar": "METAR LEZL 052130Z 00000KT CAVOK 19/07 Q1020 NOSIG",
      "taf": "TAF LEZL 052000Z 0521/0621 06008KT CAVOK TX29/0615Z TN12/0606Z"
    },
    {
      "icao": "LFBD",
      "alert": "OK",
      "vis_m": 9999,
      "fzfg": false,
      "metar_trigger": false,
      "taf_trigger": false,
      "metar": "METAR LFBD 052130Z AUTO 02006KT CAVOK 13/10 Q1025 NOSIG",
      "taf": "TAF LFBD 051700Z 0518/0624 02010KT CAVOK TX27/0614Z TN10/0606Z"
    },
    {
      "icao": "LFLL",
      "alert": "OK",
      "vis_m": 9999,
      "fzfg": false,
      "metar_trigger": false,
      "taf_trigger": false,
      "metar": "METAR LFLL 052130Z 02004KT CAVOK 15/05 Q1025 NOSIG",
      "taf": "TAF LFLL 051700Z 0518/0624 VRB03KT CAVOK"
    },
    {
      "icao": "LFLS",
      "alert": "OK",
      "vis_m": 9999,
      "fzfg": false,
      "metar_trigger": false,
      "taf_trigger": false,
      "metar": "METAR LFLS 052130Z AUTO 31006KT CAVOK 14/08 Q1025",
      "taf": ""
    },
    {
      "icao": "LFMN",
      "alert": "OK",
      "vis_m": 9999,
      "fzfg": false,
      "metar_trigger": false,
      "taf_trigger": false,
      "metar": "METAR LFMN 052130Z VRB02KT CAVOK 14/11 Q1024 NOSIG",
      "taf": "TAF LFMN 052000Z 0521/0703 33010KT CAVOK"
    },
    {
      "icao": "LFOB",
      "alert": "OK",
      "vis_m": 9999,
      "fzfg": false,
      "metar_trigger": false,
      "taf_trigger": false,
      "metar": "METAR LFOB 052130Z AUTO 32004KT CAVOK 03/01 Q1026 NOSIG",
      "taf": "TAF LFOB 051700Z 0518/0618 26012KT 9999 SCT030"
    },
    {
      "icao": "LFPO",
      "alert": "OK",
      "vis_m": 9999,
      "fzfg": false,
      "metar_trigger": false,
      "taf_trigger": false,
      "metar": "METAR LFPO 052130Z 35003KT CAVOK 09/04 Q1026 NOSIG",
      "taf": "TAF LFPO 051700Z 0518/0624 30010KT CAVOK"
    },
    {
      "icao": "LFSB",
      "alert": "OK",
      "vis_m": 9999,
      "fzfg": false,
      "metar_trigger": false,
      "taf_trigger": false,
      "metar": "METAR LFSB 052130Z AUTO 26010KT 9999 FEW054/// BKN088/// BKN110/// ///TCU 15/07 Q1024 BECMG NSC",
      "taf": ""
    },
    {
      "icao": "LGAV",
      "alert": "OK",
      "vis_m": 9999,
      "fzfg": false,
      "metar_trigger": false,
      "taf_trigger": false,
      "metar": "METAR LGAV 052150Z 30004KT 9999 FEW025 12/05 Q1022 NOSIG",
      "taf": "TAF LGAV 051700Z 0518/0618 36015KT 9999 FEW020"
    },
    {
      "icao": "LGTS",
      "alert": "OK",
      "vis_m": 9999,
      "fzfg": false,
      "metar_trigger": false,
      "taf_trigger": false,
      "metar": "METAR LGTS 052150Z 11006KT 9999 FEW025 10/07 Q1022 NOSIG",
      "taf": "TAF LGTS 051700Z 0518/0618 VRB03KT 9999 FEW025"
    },
    {
      "icao": "LHBP",
      "alert": "OK",
      "vis_m": 9999,
      "fzfg": false,
      "metar_trigger": false,
      "taf_trigger": false,
      "metar": "METAR LHBP 052130Z VRB02KT CAVOK 13/07 Q1020 NOSIG",
      "taf": "TAF LHBP 051715Z 0518/0618 18005KT CAVOK"
    },
    {
      "icao": "LHDC",
      "alert": "OK",
      "vis_m": 9999,
      "fzfg": false,
      "metar_trigger": false,
      "taf_trigger": false,
      "metar": "METAR LHDC 052115Z AUTO 20007KT 170V240 CAVOK 09/06 Q1020",
      "taf": "TAF LHDC 051715Z 0518/0603 21012KT CAVOK"
    },
    {
      "icao": "LIBD",
      "alert": "OK",
      "vis_m": 9999,
      "fzfg": false,
      "metar_trigger": false,
      "taf_trigger": false,
      "metar": "METAR LIBD 052150Z 22006KT CAVOK 08/06 Q1024",
      "taf": "TAF LIBD 051700Z 0518/0618 VRB05KT CAVOK"
    },
    {
      "icao": "LIBG",
      "alert": "OK",
      "vis_m": null,
      "fzfg": false,
      "metar_trigger": false,
      "taf_trigger": false,
      "metar": "",
      "taf": "TAF LIBG 051100Z 0512/0521 02012KT CAVOK"
    },
    {
      "icao": "LIBP",
      "alert": "OK",
      "vis_m": 9999,
      "fzfg": false,
      "metar_trigger": false,
      "taf_trigger": false,
      "metar": "METAR LIBP 052150Z AUTO 23005KT 9999 NCD 09/07 Q1023",
      "taf": "TAF LIBP 051700Z 0518/0618 VRB05KT CAVOK"
    },
    {
      "icao": "LIBR",
      "alert": "OK",
      "vis_m": 9999,
      "fzfg": false,
      "metar_trigger": false,
      "taf_trigger": false,
      "metar": "METAR LIBR 052150Z 28004KT CAVOK 10/09 Q1024",
      "taf": "TAF LIBR 051700Z 0518/0618 29007KT CAVOK"
    },
    {
      "icao": "LICA",
      "alert": "OK",
      "vis_m": 9999,
      "fzfg": false,
      "metar_trigger": false,
      "taf_trigger": false,
      "metar": "METAR LICA 052150Z AUTO VRB01KT 9999 FEW015/// 11/10 Q1026",
      "taf": "TAF LICA 051700Z 0518/0618 VRB05KT 9999 SCT013"
    },
    {
      "icao": "LICC",
      "alert": "OK",
      "vis_m": 9999,
      "fzfg": false,
      "metar_trigger": false,
      "taf_trigger": false,
      "metar": "METAR LICC 052150Z 28006KT CAVOK 13/09 Q1025",
      "taf": "TAF LICC 051700Z 0518/0618 08010KT 8000 FEW060"
    },
    {
      "icao": "LICJ",
      "alert": "OK",
      "vis_m": 9999,
      "fzfg": false,
      "metar_trigger": false,
      "taf_trigger": false,
      "metar": "METAR LICJ 052150Z 14003KT CAVOK 12/10 Q1026",
      "taf": "TAF LICJ 051700Z 0518/0618 VRB04KT CAVOK"
    },
    {
      "icao": "LIMC",
      "alert": "OK",
      "vis_m": 9999,
      "fzfg": false,
      "metar_trigger": false,
      "taf_trigger": false,
      "metar": "METAR LIMC 052150Z VRB02KT CAVOK 14/06 Q1023 NOSIG",
      "taf": "TAF LIMC 051700Z 0518/0624 VRB05KT CAVOK"
    },
    {
      "icao": "LIME",
      "alert": "OK",
      "vis_m": 9999,
      "fzfg": false,
      "metar_trigger": false,
      "taf_trigger": false,
      "metar": "METAR LIME 052150Z 35004KT CAVOK 14/06 Q1023 NOSIG",
      "taf": "TAF LIME 051700Z 0518/0618 VRB05KT CAVOK"
    },
    {
      "icao": "LIMF",
      "alert": "OK",
      "vis_m": 9999,
      "fzfg": false,
      "metar_trigger": false,
      "taf_trigger": false,
      "metar": "METAR LIMF 052150Z 33005KT CAVOK 15/05 Q1022",
      "taf": "TAF LIMF 051700Z 0518/0618 VRB05KT CAVOK"
    },
    {
      "icao": "LIMJ",
      "alert": "OK",
      "vis_m": 9999,
      "fzfg": false,
      "metar_trigger": false,
      "taf_trigger": false,
      "metar": "METAR LIMJ 052150Z 14010KT 9999 FEW010 BKN016 15/13 Q1025",
      "taf": ""
    },
    {
      "icao": "LIPE",
      "alert": "OK",
      "vis_m": 9999,
      "fzfg": false,
      "metar_trigger": false,
      "taf_trigger": false,
      "metar": "METAR LIPE 052150Z 21005KT CAVOK 13/00 Q1022",
      "taf": "TAF LIPE 051700Z 0518/0618 VRB05KT CAVOK"
    },
    {
      "icao": "LIPH",
      "alert": "OK",
      "vis_m": 9999,
      "fzfg": false,
      "metar_trigger": false,
      "taf_trigger": false,
      "metar": "METAR LIPH 052150Z AUTO VRB01KT 9999 NCD 12/06 Q1023",
      "taf": "TAF LIPH 051700Z 0518/0618 VRB05KT CAVOK"
    },
    {
      "icao": "LIPQ",
      "alert": "OK",
      "vis_m": 9999,
      "fzfg": false,
      "metar_trigger": false,
      "taf_trigger": false,
      "metar": "METAR LIPQ 052150Z AUTO 12005KT 9999 NCD 10/05 Q1023",
      "taf": "TAF LIPQ 051700Z 0518/0618 VRB05KT CAVOK"
    },
    {
      "icao": "LIPR",
      "alert": "OK",
      "vis_m": 9999,
      "fzfg": false,
      "metar_trigger": false,
      "taf_trigger": false,
      "metar": "METAR LIPR 052150Z AUTO VRB02KT 9999 NCD 10/08 Q1022",
      "taf": "TAF LIPR 051700Z 0518/0618 VRB05KT CAVOK"
    },
    {
      "icao": "LIPX",
      "alert": "OK",
      "vis_m": 9999,
      "fzfg": false,
      "metar_trigger": false,
      "taf_trigger": false,
      "metar": "METAR LIPX 052150Z 08004KT CAVOK 14/06 Q1023",
      "taf": "TAF LIPX 051700Z 0518/0618 VRB05KT CAVOK"
    },
    {
      "icao": "LIPY",
      "alert": "OK",
      "vis_m": 9999,
      "fzfg": false,
      "metar_trigger": false,
      "taf_trigger": false,
      "metar": "METAR LIPY 052150Z AUTO 19004KT 9999 NCD 16/08 Q1022",
      "taf": "TAF LIPY 051700Z 0518/0618 VRB05KT CAVOK"
    },
    {
      "icao": "LIPZ",
      "alert": "OK",
      "vis_m": 9999,
      "fzfg": false,
      "metar_trigger": false,
      "taf_trigger": false,
      "metar": "METAR LIPZ 052150Z 01004KT CAVOK 13/07 Q1023 NOSIG",
      "taf": "TAF LIPZ 051700Z 0518/0624 VRB05KT CAVOK"
    },
    {
      "icao": "LIRF",
      "alert": "OK",
      "vis_m": 7000,
      "fzfg": false,
      "metar_trigger": false,
      "taf_trigger": false,
      "metar": "METAR LIRF 052150Z 06002KT 7000 MIFG BKN004 11/11 Q1025 NOSIG",
      "taf": "TAF LIRF 051700Z 0518/0624 VRB05KT CAVOK"
    },
    {
      "icao": "LIRN",
      "alert": "OK",
      "vis_m": 9999,
      "fzfg": false,
      "metar_trigger": false,
      "taf_trigger": false,
      "metar": "METAR LIRN 052150Z 24003KT CAVOK 12/04 Q1025 NOSIG",
      "taf": "TAF LIRN 051700Z 0518/0618 29010KT CAVOK"
    },
    {
      "icao": "LIRP",
      "alert": "OK",
      "vis_m": 8000,
      "fzfg": false,
      "metar_trigger": false,
      "taf_trigger": false,
      "metar": "METAR LIRP 052145Z VRB01KT 8000 MIFG NSC 10/09 Q1026 TEMPO 6000",
      "taf": "TAF LIRP 051700Z 0518/0618 27011KT CAVOK"
    },
    {
      "icao": "LIRZ",
      "alert": "OK",
      "vis_m": 9999,
      "fzfg": false,
      "metar_trigger": false,
      "taf_trigger": false,
      "metar": "METAR LIRZ 052150Z AUTO 12003KT 010V180 9999 NCD 09/03 Q1025",
      "taf": "TAF LIRZ 051700Z 0518/0618 26010KT CAVOK"
    },
    {
      "icao": "LJLJ",
      "alert": "OK",
      "vis_m": 9999,
      "fzfg": false,
      "metar_trigger": false,
      "taf_trigger": false,
      "metar": "METAR LJLJ 052130Z VRB01KT CAVOK 09/03 Q1022 NOSIG",
      "taf": "TAF LJLJ 051700Z 0518/0618 24005KT CAVOK"
    },
    {
      "icao": "LKMT",
      "alert": "OK",
      "vis_m": 9999,
      "fzfg": false,
      "metar_trigger": false,
      "taf_trigger": false,
      "metar": "METAR LKMT 052130Z 24010KT CAVOK 13/07 Q1016 NOSIG",
      "taf": "TAF LKMT 051700Z 0518/0618 21012KT CAVOK"
    },
    {
      "icao": "LKPR",
      "alert": "OK",
      "vis_m": 9999,
      "fzfg": false,
      "metar_trigger": false,
      "taf_trigger": false,
      "metar": "METAR LKPR 052130Z 34014KT CAVOK 12/06 Q1019 NOSIG",
      "taf": "TAF LKPR 052000Z 0521/0703 26014KT CAVOK"
    },
    {
      "icao": "LLBG",
      "alert": "OK",
      "vis_m": 9999,
      "fzfg": false,
      "metar_trigger": false,
      "taf_trigger": false,
      "metar": "METAR LLBG 052150Z VRB02KT CAVOK 15/11 Q1018 NOSIG",
      "taf": "TAF LLBG 051703Z 0518/0618 30006KT CAVOK TX20/0611Z TN10/0604Z"
    },
    {
      "icao": "LMML",
      "alert": "OK",
      "vis_m": 9999,
      "fzfg": false,
      "metar_trigger": false,
      "taf_trigger": false,
      "metar": "METAR LMML 052145Z 30006KT CAVOK 13/10 Q1025 NOSIG",
      "taf": "TAF LMML 051700Z 0518/0618 34006KT 9999 FEW015"
    },
    {
      "icao": "LOWW",
      "alert": "OK",
      "vis_m": 9999,
      "fzfg": false,
      "metar_trigger": false,
      "taf_trigger": false,
      "metar": "METAR LOWW 052150Z 26009KT CAVOK 17/09 Q1019 NOSIG",
      "taf": "TAF LOWW 052015Z 0521/0703 30012KT 9999 FEW050 TX17/0521Z TN06/0703Z"
    },
    {
      "icao": "LPFR",
      "alert": "OK",
      "vis_m": 9999,
      "fzfg": false,
      "metar_trigger": false,
      "taf_trigger": false,
      "metar": "METAR LPFR 052130Z 07008KT CAVOK 19/08 Q1019",
      "taf": "TAF LPFR 051700Z 0518/0618 10013KT CAVOK"
    },
    {
      "icao": "LPMA",
      "alert": "OK",
      "vis_m": 9999,
      "fzfg": false,
      "metar_trigger": false,
      "taf_trigger": false,
      "metar": "METAR LPMA 052130Z 02003KT 330V080 9999 FEW013 17/15 Q1015",
      "taf": "TAF LPMA 051700Z 0518/0618 02012KT 9999 SCT015 SCT030"
    },
    {
      "icao": "LPPR",
      "alert": "OK",
      "vis_m": 9999,
      "fzfg": false,
      "metar_trigger": false,
      "taf_trigger": false,
      "metar": "METAR LPPR 052130Z VRB02KT CAVOK 14/07 Q1019",
      "taf": "TAF LPPR 051700Z 0518/0618 31008KT CAVOK"
    },
    {
      "icao": "LPPS",
      "alert": "OK",
      "vis_m": 9999,
      "fzfg": false,
      "metar_trigger": false,
      "taf_trigger": false,
      "metar": "METAR LPPS 052130Z 34006KT 9999 FEW013 16/14 Q1016",
      "taf": "TAF LPPS 051700Z 0518/0624 09010KT 9999 SCT014 SCT030"
    },
    {
      "icao": "LPPT",
      "alert": "OK",
      "vis_m": 9999,
      "fzfg": false,
      "metar_trigger": false,
      "taf_trigger": false,
      "metar": "METAR LPPT 052130Z 32009KT CAVOK 20/05 Q1019",
      "taf": "TAF LPPT 051700Z 0518/0624 24007KT CAVOK"
    },
    {
      "icao": "LQBK",
      "alert": "OK",
      "vis_m": 9999,
      "fzfg": false,
      "metar_trigger": false,
      "taf_trigger": false,
      "metar": "METAR LQBK 052130Z 14009KT CAVOK 13/04 Q1022 NOSIG",
      "taf": "TAF LQBK 051700Z 0518/0618 16005KT CAVOK TX22/0614Z TN05/0605Z"
    },
    {
      "icao": "LQSA",
      "alert": "OK",
      "vis_m": 9999,
      "fzfg": false,
      "metar_trigger": false,
      "taf_trigger": false,
      "metar": "METAR LQSA 052130Z 10003KT CAVOK 07/03 Q1024",
      "taf": "TAF LQSA 051700Z 0518/0618 VRB02KT CAVOK TX22/0614Z TN05/0604Z"
    },
    {
      "icao": "LQTZ",
      "alert": "OK",
      "vis_m": 9999,
      "fzfg": false,
      "metar_trigger": false,
      "taf_trigger": false,
      "metar": "METAR LQTZ 052130Z VRB02KT CAVOK 07/05 Q1023",
      "taf": "TAF LQTZ 051700Z 0518/0618 VRB02KT CAVOK TX20/0613Z TN05/0605Z"
    },
    {
      "icao": "LRBC",
      "alert": "OK",
      "vis_m": 9999,
      "fzfg": false,
      "metar_trigger": false,
      "taf_trigger": false,
      "metar": "METAR LRBC 052130Z 11002KT CAVOK 10/07 Q1019",
      "taf": "TAF LRBC 052000Z 0521/0606 VRB04KT CAVOK"
    },
    {
      "icao": "LRBS",
      "alert": "OK",
      "vis_m": 9999,
      "fzfg": false,
      "metar_trigger": false,
      "taf_trigger": false,
      "metar": "METAR LRBS 052130Z 29003KT 270V330 CAVOK 12/08 Q1021 NOSIG",
      "taf": "TAF LRBS 051700Z 0518/0618 VRB04KT CAVOK"
    },
    {
      "icao": "LRBV",
      "alert": "OK",
      "vis_m": 9999,
      "fzfg": false,
      "metar_trigger": false,
      "taf_trigger": false,
      "metar": "METAR LRBV 052130Z AUTO 22010KT 9999 NCD 08/04 Q1021",
      "taf": "TAF LRBV 051700Z 0518/0603 23006KT CAVOK"
    },
    {
      "icao": "LRCL",
      "alert": "OK",
      "vis_m": 9999,
      "fzfg": false,
      "metar_trigger": false,
      "taf_trigger": false,
      "metar": "METAR LRCL 052130Z 25005KT CAVOK 07/04 Q1022",
      "taf": "TAF LRCL 052000Z 0521/0606 VRB04KT CAVOK"
    },
    {
      "icao": "LRCV",
      "alert": "OK",
      "vis_m": 9999,
      "fzfg": false,
      "metar_trigger": false,
      "taf_trigger": false,
      "metar": "METAR LRCV 052130Z 28006KT CAVOK 11/08 Q1021",
      "taf": "TAF LRCV 052000Z 0521/0606 27006KT CAVOK"
    },
    {
      "icao": "LRIA",
      "alert": "OK",
      "vis_m": 9999,
      "fzfg": false,
      "metar_trigger": false,
      "taf_trigger": false,
      "metar": "METAR LRIA 052130Z 11003KT CAVOK 12/05 Q1018",
      "taf": "TAF LRIA 052000Z 0521/0606 VRB04KT CAVOK"
    },
    {
      "icao": "LROP",
      "alert": "OK",
      "vis_m": 9999,
      "fzfg": false,
      "metar_trigger": false,
      "taf_trigger": false,
      "metar": "METAR LROP 052130Z 25005KT CAVOK 09/08 Q1021 NOSIG",
      "taf": "TAF LROP 051700Z 0518/0618 VRB04KT CAVOK"
    },
    {
      "icao": "LRSB",
      "alert": "OK",
      "vis_m": 9999,
      "fzfg": false,
      "metar_trigger": false,
      "taf_trigger": false,
      "metar": "METAR LRSB 052130Z COR 22003KT 170V240 CAVOK 08/05 Q1022",
      "taf": "TAF LRSB 051700Z 0518/0618 VRB04KT CAVOK"
    },
    {
      "icao": "LRSM",
      "alert": "OK",
      "vis_m": 9999,
      "fzfg": false,
      "metar_trigger": false,
      "taf_trigger": false,
      "metar": "METAR LRSM 052130Z AUTO 20007KT 9999 NCD 10/05 Q1020",
      "taf": ""
    },
    {
      "icao": "LRSV",
      "alert": "OK",
      "vis_m": 9999,
      "fzfg": false,
      "metar_trigger": false,
      "taf_trigger": false,
      "metar": "METAR LRSV 052130Z 25012KT CAVOK 11/04 Q1018",
      "taf": "TAF LRSV 052000Z 0521/0606 VRB04KT CAVOK"
    },
    {
      "icao": "LRTM",
      "alert": "OK",
      "vis_m": 9999,
      "fzfg": false,
      "metar_trigger": false,
      "taf_trigger": false,
      "metar": "METAR LRTM 052130Z 23002KT CAVOK 06/04 Q1021",
      "taf": "TAF LRTM 052000Z 0521/0606 VRB04KT CAVOK"
    },
    {
      "icao": "LRTR",
      "alert": "OK",
      "vis_m": 9999,
      "fzfg": false,
      "metar_trigger": false,
      "taf_trigger": false,
      "metar": "METAR LRTR 052130Z 09005KT CAVOK 07/06 Q1022 NOSIG",
      "taf": "TAF LRTR 051700Z 0518/0618 11006KT CAVOK"
    },
    {
      "icao": "LTAC",
      "alert": "OK",
      "vis_m": 9999,
      "fzfg": false,
      "metar_trigger": false,
      "taf_trigger": false,
      "metar": "METAR LTAC 052150Z 02006KT 9999 SCT040 BKN100 05/02 Q1020 NOSIG",
      "taf": "TAF LTAC 051640Z 0518/0618 02009KT 9999 SCT040"
    },
    {
      "icao": "LTFM",
      "alert": "OK",
      "vis_m": 4500,
      "fzfg": false,
      "metar_trigger": false,
      "taf_trigger": false,
      "metar": "METAR LTFM 052150Z VRB02KT 4500 0450NE R35R/P1500N R17L/0450N R16R/0600N R36/P1500N BCFG FEW001 09/07 Q1022 NOSIG",
      "taf": "TAF LTFM 051640Z 0518/0624 VRB02KT CAVOK"
    },
    {
      "icao": "LUKK",
      "alert": "OK",
      "vis_m": 9999,
      "fzfg": false,
      "metar_trigger": false,
      "taf_trigger": false,
      "metar": "METAR LUKK 052130Z 24003KT CAVOK 09/03 Q1019 NOSIG",
      "taf": "TAF LUKK 051701Z 0518/0618 VRB06KT CAVOK"
    },
    {
      "icao": "LWOH",
      "alert": "OK",
      "vis_m": null,
      "fzfg": false,
      "metar_trigger": false,
      "taf_trigger": false,
      "metar": "",
      "taf": "TAF LWOH 052030Z 0521/0621 33005KT 9999 SCT040"
    },
    {
      "icao": "LWSK",
      "alert": "OK",
      "vis_m": 9999,
      "fzfg": false,
      "metar_trigger": false,
      "taf_trigger": false,
      "metar": "METAR LWSK 052050Z VRB01KT CAVOK 09/04 Q1023 NOSIG",
      "taf": "TAF LWSK 052030Z 0521/0621 VRB02KT CAVOK"
    },
    {
      "icao": "LYBE",
      "alert": "OK",
      "vis_m": 9999,
      "fzfg": false,
      "metar_trigger": false,
      "taf_trigger": false,
      "metar": "METAR LYBE 052130Z 17005KT CAVOK 12/07 Q1022 NOSIG",
      "taf": "TAF LYBE 051700Z 0518/0618 24005KT CAVOK TX22/0613Z TN07/0605Z"
    },
    {
      "icao": "LYNI",
      "alert": "OK",
      "vis_m": 9999,
      "fzfg": false,
      "metar_trigger": false,
      "taf_trigger": false,
      "metar": "METAR LYNI 052130Z 09005KT CAVOK 10/06 Q1023 NOSIG",
      "taf": "TAF LYNI 051700Z 0518/0618 32005KT CAVOK TX21/0613Z TN05/0605Z"
    },
    {
      "icao": "LYPG",
      "alert": "OK",
      "vis_m": 9999,
      "fzfg": false,
      "metar_trigger": false,
      "taf_trigger": false,
      "metar": "METAR LYPG 052130Z 01002KT CAVOK 11/04 Q1023 NOSIG",
      "taf": "TAF LYPG 051700Z 0518/0618 36008KT CAVOK TX23/0612Z TN08/0604Z"
    },
    {
      "icao": "LZIB",
      "alert": "OK",
      "vis_m": 9999,
      "fzfg": false,
      "metar_trigger": false,
      "taf_trigger": false,
      "metar": "METAR LZIB 052130Z 23008KT 9999 FEW046 16/10 Q1018 BECMG 29012KT",
      "taf": ""
    },
    {
      "icao": "LZKZ",
      "alert": "OK",
      "vis_m": 9999,
      "fzfg": false,
      "metar_trigger": false,
      "taf_trigger": false,
      "metar": "METAR LZKZ 052130Z 16008KT CAVOK 11/07 Q1018 NOSIG",
      "taf": "TAF LZKZ 051715Z 0518/0618 24009KT CAVOK"
    },
    {
      "icao": "LZTT",
      "alert": "OK",
      "vis_m": 9999,
      "fzfg": false,
      "metar_trigger": false,
      "taf_trigger": false,
      "metar": "METAR LZTT 052130Z 27009KT CAVOK 11/05 Q1018",
      "taf": "TAF LZTT 051715Z 0518/0618 26008KT 9999 FEW040"
    },
    {
      "icao": "OEJN",
      "alert": "OK",
      "vis_m": 9999,
      "fzfg": false,
      "metar_trigger": false,
      "taf_trigger": false,
      "metar": "METAR OEJN 052100Z 34012KT CAVOK 25/16 Q1013 NOSIG",
      "taf": "TAF OEJN 051700Z 0518/0624 35010KT 7000 FEW040"
    },
    {
      "icao": "OEMA",
      "alert": "OK",
      "vis_m": 9999,
      "fzfg": false,
      "metar_trigger": false,
      "taf_trigger": false,
      "metar": "METAR OEMA 052100Z 34008KT 9999 SCT045 27/M03 Q1017 NOSIG",
      "taf": "TAF OEMA 051700Z 0518/0624 32010KT 7000 SCT045"
    },
    {
      "icao": "OJAI",
      "alert": "OK",
      "vis_m": 4000,
      "fzfg": false,
      "metar_trigger": false,
      "taf_trigger": false,
      "metar": "METAR OJAI 052100Z 28003KT 4000 BR NSC 07/05 Q1020 NOSIG",
      "taf": "TAF OJAI 051700Z 0518/0624 28012KT 5000 HZ FEW025TCU SCT030"
    },
    {
      "icao": "OMAA",
      "alert": "OK",
      "vis_m": null,
      "fzfg": false,
      "metar_trigger": false,
      "taf_trigger": false,
      "metar": "",
      "taf": ""
    },
    {
      "icao": "OMDB",
      "alert": "OK",
      "vis_m": null,
      "fzfg": false,
      "metar_trigger": false,
      "taf_trigger": false,
      "metar": "",
      "taf": ""
    },
    {
      "icao": "UAAA",
      "alert": "OK",
      "vis_m": 9999,
      "fzfg": false,
      "metar_trigger": false,
      "taf_trigger": false,
      "metar": "METAR UAAA 052130Z 29002MPS 9999 FEW050CB SCT100 BKN200 13/07 Q1009 NOSIG",
      "taf": "TAF UAAA 051706Z 0518/0618 24003MPS 9999 SCT050CB BKN100 TX24/0610Z TN12/0601Z"
    },
    {
      "icao": "UBBB",
      "alert": "OK",
      "vis_m": 9999,
      "fzfg": false,
      "metar_trigger": false,
      "taf_trigger": false,
      "metar": "METAR UBBB 052130Z 30026G36KT 9999 -SHRA FEW015 BKN040CB OVC040 11/09 Q1008 WS R35 NOSIG",
      "taf": "TAF UBBB 051704Z 0518/0618 30024G34KT 9999 SCT010 SCT030CB OVC030 TX13/0611Z TN09/0600Z"
    },
    {
      "icao": "UDSG",
      "alert": "OK",
      "vis_m": 9999,
      "fzfg": false,
      "metar_trigger": false,
      "taf_trigger": false,
      "metar": "METAR UDSG 052130Z 36014KT 9999 NSC 04/M02 Q1016 NOSIG",
      "taf": "TAF UDSG 051658Z 0518/0618 VRB06KT 9999 SCT040"
    },
    {
      "icao": "UDYZ",
      "alert": "OK",
      "vis_m": 9999,
      "fzfg": false,
      "metar_trigger": false,
      "taf_trigger": false,
      "metar": "METAR UDYZ 052130Z 04005KT 9999 FEW046 06/01 Q1013 NOSIG",
      "taf": "TAF UDYZ 051700Z 0518/0618 VRB06KT 9999 FEW040"
    },
    {
      "icao": "UGKO",
      "alert": "OK",
      "vis_m": 9999,
      "fzfg": false,
      "metar_trigger": false,
      "taf_trigger": false,
      "metar": "METAR UGKO 052130Z 28007KT 9999 -RA SCT007 BKN024 OVC028 10/10 Q1018 NOSIG",
      "taf": "TAF UGKO 051700Z 0518/0618 25007KT 9999 SCT020 OVC050 TX13/0611Z TN09/0603Z"
    }
  ]
}