{
  "ts_utc": "2026-03-01T12:45:32Z",
  "threshold_m": 150,
  "source": "stations_override.txt (ICAO list) + aviationweather.gov (METAR/TAF raw)",
  "station_count": 159,
  "stations": [
    {
      "icao": "BIKF",
      "alert": "OK",
      "vis_m": 9999,
      "fzfg": false,
      "metar_trigger": false,
      "taf_trigger": false,
      "metar": "METAR BIKF 011230Z 36014KT CAVOK M02/M07 Q1001",
      "taf": "TAF BIKF 011036Z 0112/0212 35015KT 9999 FEW020 TX00/0212Z TNM04/0200Z"
    },
    {
      "icao": "BKPR",
      "alert": "OK",
      "vis_m": 9999,
      "fzfg": false,
      "metar_trigger": false,
      "taf_trigger": false,
      "metar": "METAR BKPR 011230Z 15005KT 120V180 CAVOK 14/04 Q1025 NOSIG",
      "taf": "TAF BKPR 011130Z 0112/0212 VRB05KT CAVOK"
    },
    {
      "icao": "EBCI",
      "alert": "OK",
      "vis_m": 9999,
      "fzfg": false,
      "metar_trigger": false,
      "taf_trigger": false,
      "metar": "METAR EBCI 011220Z 21016KT 9999 FEW026 11/03 Q1022 NOSIG",
      "taf": "TAF EBCI 011115Z 0112/0218 22011KT 9999 FEW025"
    },
    {
      "icao": "EDDB",
      "alert": "OK",
      "vis_m": 9999,
      "fzfg": false,
      "metar_trigger": false,
      "taf_trigger": false,
      "metar": "METAR EDDB 011220Z AUTO 22006KT 190V250 9999 FEW034 11/02 Q1024 NOSIG",
      "taf": "TAF EDDB 011100Z 0112/0212 25008KT 9999 SCT030"
    },
    {
      "icao": "EDDH",
      "alert": "OK",
      "vis_m": 9999,
      "fzfg": false,
      "metar_trigger": false,
      "taf_trigger": false,
      "metar": "METAR EDDH 011220Z AUTO 23013KT 210V270 9999 FEW031 11/03 Q1022 NOSIG",
      "taf": "TAF EDDH 011100Z 0112/0218 23010KT CAVOK"
    },
    {
      "icao": "EDDK",
      "alert": "OK",
      "vis_m": 9999,
      "fzfg": false,
      "metar_trigger": false,
      "taf_trigger": false,
      "metar": "METAR EDDK 011220Z AUTO 23015KT 9999 FEW047 14/02 Q1023 NOSIG",
      "taf": "TAF EDDK 011100Z 0112/0218 19009KT CAVOK"
    },
    {
      "icao": "EDDN",
      "alert": "OK",
      "vis_m": 9999,
      "fzfg": false,
      "metar_trigger": false,
      "taf_trigger": false,
      "metar": "METAR EDDN 011220Z AUTO 16004KT 070V230 CAVOK 10/01 Q1026 NOSIG",
      "taf": "TAF EDDN 011100Z 0112/0212 14004KT 9999 FEW040"
    },
    {
      "icao": "EDDS",
      "alert": "OK",
      "vis_m": 9999,
      "fzfg": false,
      "metar_trigger": false,
      "taf_trigger": false,
      "metar": "METAR EDDS 011220Z AUTO 12003KT 070V160 9999 FEW047 11/03 Q1025 NOSIG",
      "taf": "TAF EDDS 011100Z 0112/0212 13005KT 9999 FEW035"
    },
    {
      "icao": "EDFH",
      "alert": "OK",
      "vis_m": 9999,
      "fzfg": false,
      "metar_trigger": false,
      "taf_trigger": false,
      "metar": "METAR EDFH 011220Z 26006KT 210V320 9999 SCT035 11/02 Q1024",
      "taf": "TAF EDFH 011100Z 0112/0212 22008KT 9999 FEW040"
    },
    {
      "icao": "EDJA",
      "alert": "OK",
      "vis_m": 9999,
      "fzfg": false,
      "metar_trigger": false,
      "taf_trigger": false,
      "metar": "METAR EDJA 011220Z 07005KT 030V100 9999 OVC023 07/03 Q1025",
      "taf": "TAF EDJA 011100Z 0112/0121 05005KT 9999 SCT025 BKN035"
    },
    {
      "icao": "EDLW",
      "alert": "OK",
      "vis_m": 9999,
      "fzfg": false,
      "metar_trigger": false,
      "taf_trigger": false,
      "metar": "METAR EDLW 011220Z 20013KT 170V230 CAVOK 12/01 Q1023",
      "taf": "TAF EDLW 011100Z 0112/0212 19012KT CAVOK"
    },
    {
      "icao": "EDNY",
      "alert": "OK",
      "vis_m": 9999,
      "fzfg": false,
      "metar_trigger": false,
      "taf_trigger": false,
      "metar": "METAR EDNY 011220Z 24004KT 210V270 9999 OVC026 09/05 Q1026",
      "taf": "TAF EDNY 011100Z 0112/0121 06003KT 9999 BKN035"
    },
    {
      "icao": "EDSB",
      "alert": "OK",
      "vis_m": 9999,
      "fzfg": false,
      "metar_trigger": false,
      "taf_trigger": false,
      "metar": "METAR EDSB 011220Z 24004KT 140V290 9999 FEW033 13/05 Q1025",
      "taf": "TAF EDSB 011100Z 0112/0212 27005KT CAVOK"
    },
    {
      "icao": "EETN",
      "alert": "OK",
      "vis_m": 1900,
      "fzfg": false,
      "metar_trigger": false,
      "taf_trigger": false,
      "metar": "METAR EETN 011220Z 18008KT 1900 0900E R26/1300D BR BCFG OVC001 03/03 Q1011 NOSIG",
      "taf": "TAF EETN 011130Z 0112/0212 20010KT 2000 BR OVC003"
    },
    {
      "icao": "EFTU",
      "alert": "OK",
      "vis_m": 500,
      "fzfg": false,
      "metar_trigger": false,
      "taf_trigger": false,
      "metar": "METAR EFTU 011220Z AUTO 18007KT 0500 R26/0650N FG VV002 02/02 Q1008",
      "taf": "TAF EFTU 011135Z 0112/0212 18008KT 3000 BR OVC002"
    },
    {
      "icao": "EGBB",
      "alert": "OK",
      "vis_m": 9999,
      "fzfg": false,
      "metar_trigger": false,
      "taf_trigger": false,
      "metar": "METAR EGBB 011220Z 19008KT 150V230 9999 BKN014 11/08 Q1011",
      "taf": "TAF EGBB 011106Z 0112/0212 18012KT 9999 FEW012 SCT022"
    },
    {
      "icao": "EGGP",
      "alert": "OK",
      "vis_m": 9999,
      "fzfg": false,
      "metar_trigger": false,
      "taf_trigger": false,
      "metar": "METAR EGGP 011220Z 17011KT 9999 VCSH BKN020 11/07 Q1009",
      "taf": "TAF EGGP 011055Z 0112/0212 17012KT 9999 SCT030"
    },
    {
      "icao": "EGGW",
      "alert": "OK",
      "vis_m": 7000,
      "fzfg": false,
      "metar_trigger": false,
      "taf_trigger": false,
      "metar": "METAR EGGW 011220Z AUTO 18009KT 150V220 7000 BKN006 OVC009 10/09 Q1013",
      "taf": ""
    },
    {
      "icao": "EGKK",
      "alert": "OK",
      "vis_m": 6000,
      "fzfg": false,
      "metar_trigger": false,
      "taf_trigger": false,
      "metar": "METAR EGKK 011220Z 21014G27KT 6000 -RADZ BKN007 11/10 Q1015",
      "taf": "TAF EGKK 011055Z 0112/0218 20012KT 9999 BKN025"
    },
    {
      "icao": "EGNM",
      "alert": "OK",
      "vis_m": 9999,
      "fzfg": false,
      "metar_trigger": false,
      "taf_trigger": false,
      "metar": "METAR EGNM 011220Z 21012KT 180V240 9999 SCT022 11/06 Q1009",
      "taf": "TAF EGNM 011054Z 0112/0212 20010KT 9999 SCT020"
    },
    {
      "icao": "EGPD",
      "alert": "OK",
      "vis_m": 9999,
      "fzfg": false,
      "metar_trigger": false,
      "taf_trigger": false,
      "metar": "METAR EGPD 011220Z AUTO 17016KT 9999 BKN012/// BKN023/// BKN029/// //////CB 07/05 Q1003 TEMPO BKN008",
      "taf": "TAF EGPD 011055Z 0112/0212 16012KT 9999 SCT012"
    },
    {
      "icao": "EGPF",
      "alert": "OK",
      "vis_m": 9999,
      "fzfg": false,
      "metar_trigger": false,
      "taf_trigger": false,
      "metar": "METAR EGPF 011220Z AUTO 19013KT 9999 OVC013 11/09 Q1002",
      "taf": "TAF EGPF 011056Z 0112/0212 26006KT 9999 SCT022"
    },
    {
      "icao": "EHBK",
      "alert": "OK",
      "vis_m": 9999,
      "fzfg": false,
      "metar_trigger": false,
      "taf_trigger": false,
      "metar": "METAR EHBK 011225Z AUTO 21019KT 180V240 9999 BKN033/// BKN038/// BKN044/// 12/05 Q1022 NOSIG",
      "taf": "TAF EHBK 011113Z 0112/0218 21010KT 9999 FEW030"
    },
    {
      "icao": "EHEH",
      "alert": "OK",
      "vis_m": 9999,
      "fzfg": false,
      "metar_trigger": false,
      "taf_trigger": false,
      "metar": "METAR EHEH 011225Z AUTO 20013KT 170V240 9999 SCT032 SCT040 BKN045 13/05 Q1021 BLU TEMPO 21013G23KT RMK TREND REMOTE BY EHWX",
      "taf": "TAF EHEH 011103Z 0112/0218 20014KT CAVOK"
    },
    {
      "icao": "EKBI",
      "alert": "OK",
      "vis_m": 9999,
      "fzfg": false,
      "metar_trigger": false,
      "taf_trigger": false,
      "metar": "METAR EKBI 011220Z AUTO 25011KT 210V280 9999 BKN018/// 07/02 Q1019",
      "taf": "TAF EKBI 011127Z 0112/0212 23010KT 9999 SCT010"
    },
    {
      "icao": "EKCH",
      "alert": "OK",
      "vis_m": 9999,
      "fzfg": false,
      "metar_trigger": false,
      "taf_trigger": false,
      "metar": "METAR EKCH 011220Z AUTO 24013KT 9999 FEW054/// BKN082/// 07/00 Q1020 NOSIG",
      "taf": "TAF EKCH 011127Z 0112/0212 25012KT 9999 FEW025"
    },
    {
      "icao": "ENAL",
      "alert": "OK",
      "vis_m": 9999,
      "fzfg": false,
      "metar_trigger": false,
      "taf_trigger": false,
      "metar": "METAR ENAL 011220Z 16004KT 130V240 CAVOK 04/M01 Q1011",
      "taf": "TAF ENAL 011100Z 0112/0121 16006KT CAVOK"
    },
    {
      "icao": "ENBR",
      "alert": "OK",
      "vis_m": 9999,
      "fzfg": false,
      "metar_trigger": false,
      "taf_trigger": false,
      "metar": "METAR ENBR 011220Z 15009KT 9999 VCSH FEW014 SCT024 BKN033 04/M00 Q1012 TEMPO SHRA BKN014TCU RMK WIND 1200FT 15011KT",
      "taf": "TAF ENBR 011100Z 0112/0212 15010KT 9999 SCT030"
    },
    {
      "icao": "ENGM",
      "alert": "OK",
      "vis_m": 9999,
      "fzfg": false,
      "metar_trigger": false,
      "taf_trigger": false,
      "metar": "METAR ENGM 011220Z 03002KT 9999 FEW022 BKN047 02/M01 Q1009 NOSIG",
      "taf": ""
    },
    {
      "icao": "ENHD",
      "alert": "OK",
      "vis_m": 9999,
      "fzfg": false,
      "metar_trigger": false,
      "taf_trigger": false,
      "metar": "METAR ENHD 011220Z 20009KT 9999 FEW015TCU SCT025 07/01 Q1013",
      "taf": "TAF ENHD 011100Z 0112/0121 12010KT 9999 FEW020"
    },
    {
      "icao": "ENTC",
      "alert": "OK",
      "vis_m": 9999,
      "fzfg": false,
      "metar_trigger": false,
      "taf_trigger": false,
      "metar": "METAR ENTC 011220Z 21014KT 9999 SCT037 BKN043 02/M01 Q1007 NOSIG RMK WIND 2600FT 21018KT",
      "taf": "TAF ENTC 011100Z 0112/0212 20015KT 9999 -SHRA FEW025 BKN045"
    },
    {
      "icao": "ENTO",
      "alert": "OK",
      "vis_m": 9999,
      "fzfg": false,
      "metar_trigger": false,
      "taf_trigger": false,
      "metar": "METAR ENTO 011220Z 23005KT 200V260 9999 SCT039 05/01 Q1011 NOSIG",
      "taf": ""
    },
    {
      "icao": "ENVA",
      "alert": "OK",
      "vis_m": 9999,
      "fzfg": false,
      "metar_trigger": false,
      "taf_trigger": false,
      "metar": "METAR ENVA 011220Z VRB01KT CAVOK 01/M05 Q1011 NOSIG RMK WIND 670FT 08005KT",
      "taf": "TAF ENVA 011100Z 0112/0212 10005KT CAVOK"
    },
    {
      "icao": "ENZV",
      "alert": "OK",
      "vis_m": 9999,
      "fzfg": false,
      "metar_trigger": false,
      "taf_trigger": false,
      "metar": "METAR ENZV 011220Z 20008KT 9999 SCT022 07/00 Q1014 NOSIG",
      "taf": "TAF ENZV 011100Z 0112/0212 16010KT 9999 FEW020 BKN040"
    },
    {
      "icao": "EPGD",
      "alert": "OK",
      "vis_m": 9999,
      "fzfg": false,
      "metar_trigger": false,
      "taf_trigger": false,
      "metar": "METAR EPGD 011230Z 26015KT 9999 FEW023 05/M01 Q1021",
      "taf": "TAF EPGD 011130Z 0112/0212 27015KT 9999 BKN016"
    },
    {
      "icao": "EPKK",
      "alert": "OK",
      "vis_m": 9999,
      "fzfg": false,
      "metar_trigger": false,
      "taf_trigger": false,
      "metar": "METAR EPKK 011230Z 23007KT CAVOK 14/04 Q1024",
      "taf": "TAF EPKK 011130Z 0112/0212 24006KT CAVOK"
    },
    {
      "icao": "EPKT",
      "alert": "OK",
      "vis_m": 9999,
      "fzfg": false,
      "metar_trigger": false,
      "taf_trigger": false,
      "metar": "METAR EPKT 011230Z 22006KT 190V250 9999 BKN039 11/03 Q1024",
      "taf": "TAF EPKT 011130Z 0112/0212 24006KT 9999 BKN040"
    },
    {
      "icao": "EPLB",
      "alert": "OK",
      "vis_m": 9999,
      "fzfg": false,
      "metar_trigger": false,
      "taf_trigger": false,
      "metar": "METAR EPLB 011230Z 28008KT CAVOK 13/05 Q1022",
      "taf": "TAF EPLB 011130Z 0112/0212 26010KT CAVOK"
    },
    {
      "icao": "EPMO",
      "alert": "OK",
      "vis_m": 9999,
      "fzfg": false,
      "metar_trigger": false,
      "taf_trigger": false,
      "metar": "METAR EPMO 011230Z 26014KT 9999 SCT033 12/05 Q1022",
      "taf": "TAF EPMO 011130Z 0112/0212 26010KT CAVOK"
    },
    {
      "icao": "EPPO",
      "alert": "OK",
      "vis_m": 9999,
      "fzfg": false,
      "metar_trigger": false,
      "taf_trigger": false,
      "metar": "METAR EPPO 011230Z 30008KT 250V320 9999 SCT031 09/01 Q1024",
      "taf": "TAF EPPO 011130Z 0112/0212 27010KT 9999 SCT030"
    },
    {
      "icao": "EPRA",
      "alert": "OK",
      "vis_m": 9999,
      "fzfg": false,
      "metar_trigger": false,
      "taf_trigger": false,
      "metar": "METAR EPRA 011230Z 27011KT CAVOK 13/02 Q1023",
      "taf": "TAF EPRA 011130Z 0112/0121 28010KT CAVOK"
    },
    {
      "icao": "EPRZ",
      "alert": "OK",
      "vis_m": 9999,
      "fzfg": false,
      "metar_trigger": false,
      "taf_trigger": false,
      "metar": "METAR EPRZ 011230Z 26013KT CAVOK 14/04 Q1024",
      "taf": "TAF EPRZ 011130Z 0112/0212 26012KT CAVOK"
    },
    {
      "icao": "EPSC",
      "alert": "OK",
      "vis_m": 9999,
      "fzfg": false,
      "metar_trigger": false,
      "taf_trigger": false,
      "metar": "METAR EPSC 011230Z 24008KT 210V270 CAVOK 10/M00 Q1023",
      "taf": "TAF EPSC 011130Z 0112/0212 24007KT CAVOK"
    },
    {
      "icao": "EPSY",
      "alert": "OK",
      "vis_m": 9999,
      "fzfg": false,
      "metar_trigger": false,
      "taf_trigger": false,
      "metar": "METAR EPSY 011230Z 29010KT 250V330 9999 BKN031 10/03 Q1021",
      "taf": "TAF EPSY 011130Z 0112/0121 28010KT 9999 BKN030"
    },
    {
      "icao": "EPWA",
      "alert": "OK",
      "vis_m": 9999,
      "fzfg": false,
      "metar_trigger": false,
      "taf_trigger": false,
      "metar": "METAR EPWA 011230Z 26017KT 9999 FEW030 12/04 Q1023 NOSIG",
      "taf": "TAF EPWA 011130Z 0112/0212 26010KT CAVOK"
    },
    {
      "icao": "EPWR",
      "alert": "OK",
      "vis_m": 9999,
      "fzfg": false,
      "metar_trigger": false,
      "taf_trigger": false,
      "metar": "METAR EPWR 011230Z 29011KT CAVOK 11/03 Q1025",
      "taf": "TAF EPWR 011130Z 0112/0212 28012KT CAVOK"
    },
    {
      "icao": "ESGG",
      "alert": "OK",
      "vis_m": 9999,
      "fzfg": false,
      "metar_trigger": false,
      "taf_trigger": false,
      "metar": "METAR ESGG 011220Z 26017KT 9999 BKN012 04/02 Q1014",
      "taf": "TAF ESGG 011130Z 0112/0212 26015KT 9999 OVC006"
    },
    {
      "icao": "ESKN",
      "alert": "OK",
      "vis_m": 9999,
      "fzfg": false,
      "metar_trigger": false,
      "taf_trigger": false,
      "metar": "METAR ESKN 011220Z 24019G30KT 9999 BKN013 06/04 Q1009",
      "taf": "TAF ESKN 011130Z 0112/0212 24014KT 9999 BKN015"
    },
    {
      "icao": "ESMS",
      "alert": "OK",
      "vis_m": 9999,
      "fzfg": false,
      "metar_trigger": false,
      "taf_trigger": false,
      "metar": "METAR ESMS 011220Z 26017KT CAVOK 06/01 Q1020",
      "taf": "TAF ESMS 011127Z 0112/0212 25018KT 9999 SCT020"
    },
    {
      "icao": "ESSA",
      "alert": "OK",
      "vis_m": 7000,
      "fzfg": false,
      "metar_trigger": false,
      "taf_trigger": false,
      "metar": "METAR ESSA 011220Z 23009KT 7000 BKN007 04/04 Q1007 TEMPO 4000 BR BKN004",
      "taf": "TAF ESSA 011130Z 0112/0212 22007KT 6000 OVC006"
    },
    {
      "icao": "EYKA",
      "alert": "OK",
      "vis_m": 9999,
      "fzfg": false,
      "metar_trigger": false,
      "taf_trigger": false,
      "metar": "METAR EYKA 011220Z 28013KT 250V310 CAVOK 08/02 Q1018",
      "taf": "TAF EYKA 011118Z 0112/0212 26010KT 8000 SCT010 BKN015"
    },
    {
      "icao": "EYPA",
      "alert": "OK",
      "vis_m": 9999,
      "fzfg": false,
      "metar_trigger": false,
      "taf_trigger": false,
      "metar": "METAR EYPA 011220Z VRB07KT 9999 FEW010 OVC017 03/01 Q1018",
      "taf": "TAF EYPA 011100Z 0112/0212 25008G18KT 5000 BR BKN002 OVC005"
    },
    {
      "icao": "EYVI",
      "alert": "OK",
      "vis_m": 9999,
      "fzfg": false,
      "metar_trigger": false,
      "taf_trigger": false,
      "metar": "METAR EYVI 011220Z 24011KT CAVOK 08/02 Q1017 NOSIG",
      "taf": "TAF EYVI 011110Z 0112/0212 26012KT 9000 NSC"
    },
    {
      "icao": "GCFV",
      "alert": "OK",
      "vis_m": 9999,
      "fzfg": false,
      "metar_trigger": false,
      "taf_trigger": false,
      "metar": "METAR GCFV 011230Z 02018KT 9999 FEW030 BKN035 20/11 Q1019 WS ALL RWY",
      "taf": "TAF GCFV 010800Z 0109/0209 02020KT 9999 SCT035 TX21/0114Z TN15/0206Z"
    },
    {
      "icao": "GCLP",
      "alert": "OK",
      "vis_m": 9999,
      "fzfg": false,
      "metar_trigger": false,
      "taf_trigger": false,
      "metar": "METAR GCLP 011230Z 36022KT 300V020 9999 FEW035 20/10 Q1020 NOSIG",
      "taf": "TAF GCLP 010800Z 0109/0209 01025KT 9999 SCT035 TX21/0114Z TN15/0206Z"
    },
    {
      "icao": "GCTS",
      "alert": "OK",
      "vis_m": 9999,
      "fzfg": false,
      "metar_trigger": false,
      "taf_trigger": false,
      "metar": "METAR GCTS 011230Z 08021KT 9999 FEW035 21/10 Q1020 NOSIG",
      "taf": "TAF GCTS 010800Z 0109/0209 07020KT 9999 SCT035 TX22/0114Z TN16/0206Z"
    },
    {
      "icao": "GMAD",
      "alert": "OK",
      "vis_m": 6000,
      "fzfg": false,
      "metar_trigger": false,
      "taf_trigger": false,
      "metar": "METAR GMAD 011230Z 23010KT 6000 NSC 22/15 Q1012 NOSIG",
      "taf": "TAF GMAD 011100Z 0112/0218 28012KT 8000 NSC"
    },
    {
      "icao": "GMMN",
      "alert": "OK",
      "vis_m": 6000,
      "fzfg": false,
      "metar_trigger": false,
      "taf_trigger": false,
      "metar": "METAR GMMN 011230Z 03004KT 360V070 6000 BKN015 17/13 Q1017 NOSIG",
      "taf": "TAF GMMN 011100Z 0112/0218 02004KT 6000 BKN015"
    },
    {
      "icao": "GMMX",
      "alert": "OK",
      "vis_m": 8000,
      "fzfg": false,
      "metar_trigger": false,
      "taf_trigger": false,
      "metar": "METAR GMMX 011230Z VRB02KT 8000 OVC016 16/12 Q1016 NOSIG",
      "taf": "TAF GMMX 011100Z 0112/0218 04006KT 8000 SCT020 SCT080"
    },
    {
      "icao": "HEGN",
      "alert": "OK",
      "vis_m": 9999,
      "fzfg": false,
      "metar_trigger": false,
      "taf_trigger": false,
      "metar": "METAR HEGN 011200Z 36015KT CAVOK 20/04 Q1015 NOSIG",
      "taf": "TAF HEGN 011100Z 0112/0218 33018KT CAVOK"
    },
    {
      "icao": "HEMA",
      "alert": "OK",
      "vis_m": 9999,
      "fzfg": false,
      "metar_trigger": false,
      "taf_trigger": false,
      "metar": "METAR HEMA 011200Z 03012KT CAVOK 20/06 Q1014 NOSIG",
      "taf": "TAF HEMA 011100Z 0112/0218 33015KT CAVOK"
    },
    {
      "icao": "HESH",
      "alert": "OK",
      "vis_m": 9999,
      "fzfg": false,
      "metar_trigger": false,
      "taf_trigger": false,
      "metar": "METAR HESH 011200Z 10006KT CAVOK 21/05 Q1014 NOSIG",
      "taf": "TAF HESH 011100Z 0112/0218 03012KT CAVOK"
    },
    {
      "icao": "HESX",
      "alert": "OK",
      "vis_m": 9999,
      "fzfg": false,
      "metar_trigger": false,
      "taf_trigger": false,
      "metar": "METAR HESX 011200Z 32008KT 9999 SCT030 17/02 Q1018 NOSIG",
      "taf": "TAF HESX 011100Z 0112/0218 34010KT 9999 FEW025"
    },
    {
      "icao": "LATI",
      "alert": "OK",
      "vis_m": 9999,
      "fzfg": false,
      "metar_trigger": false,
      "taf_trigger": false,
      "metar": "METAR LATI 011220Z 30007KT 250V340 9999 SCT032 16/08 Q1026 NOSIG",
      "taf": "TAF LATI 011100Z 0112/0212 VRB05KT CAVOK TX18/0112Z TN04/0204Z"
    },
    {
      "icao": "LBPD",
      "alert": "OK",
      "vis_m": 9999,
      "fzfg": false,
      "metar_trigger": false,
      "taf_trigger": false,
      "metar": "METAR LBPD 011230Z AUTO 05003KT 290V100 9999 NCD 07/02 Q1029 NOSIG",
      "taf": "TAF LBPD 011100Z 0112/0212 VRB03KT 5000 BR SCT005 BKN010"
    },
    {
      "icao": "LBSF",
      "alert": "OK",
      "vis_m": 9999,
      "fzfg": false,
      "metar_trigger": false,
      "taf_trigger": false,
      "metar": "METAR LBSF 011230Z 11005KT 030V140 CAVOK 12/M05 Q1026 NOSIG",
      "taf": "TAF LBSF 011100Z 0112/0212 VRB03KT CAVOK"
    },
    {
      "icao": "LBWN",
      "alert": "OK",
      "vis_m": 9999,
      "fzfg": false,
      "metar_trigger": false,
      "taf_trigger": false,
      "metar": "METAR LBWN 011230Z 14006KT 100V180 CAVOK 09/01 Q1029 NOSIG",
      "taf": "TAF LBWN 011100Z 0112/0212 12010KT 9999 SCT035"
    },
    {
      "icao": "LCLK",
      "alert": "OK",
      "vis_m": 9999,
      "fzfg": false,
      "metar_trigger": false,
      "taf_trigger": false,
      "metar": "METAR LCLK 011230Z 03010KT 9999 FEW050 14/07 Q1020 NOSIG",
      "taf": "TAF LCLK 011130Z 0112/0212 03012KT 9999 FEW025"
    },
    {
      "icao": "LCPH",
      "alert": "OK",
      "vis_m": 9999,
      "fzfg": false,
      "metar_trigger": false,
      "taf_trigger": false,
      "metar": "METAR LCPH 011230Z 23006KT 170V260 9999 FEW040 SCT070 18/04 Q1019 NOSIG",
      "taf": "TAF LCPH 011130Z 0112/0212 26010KT 9999 FEW020"
    },
    {
      "icao": "LEAL",
      "alert": "OK",
      "vis_m": 9999,
      "fzfg": false,
      "metar_trigger": false,
      "taf_trigger": false,
      "metar": "METAR LEAL 011230Z 08009KT 9999 BKN045 16/10 Q1025 NOSIG",
      "taf": "TAF LEAL 011100Z 0112/0212 09010KT 9999 SCT040 TX17/0112Z TN09/0207Z"
    },
    {
      "icao": "LEBB",
      "alert": "OK",
      "vis_m": 9999,
      "fzfg": false,
      "metar_trigger": false,
      "taf_trigger": false,
      "metar": "METAR LEBB 011230Z VRB09KT CAVOK 18/06 Q1021 NOSIG",
      "taf": "TAF LEBB 011100Z 0112/0212 12009KT CAVOK TX19/0115Z TN11/0207Z"
    },
    {
      "icao": "LEBL",
      "alert": "OK",
      "vis_m": 9999,
      "fzfg": false,
      "metar_trigger": false,
      "taf_trigger": false,
      "metar": "METAR LEBL 011230Z 20011KT 9999 SCT020 15/10 Q1025 NOSIG",
      "taf": "TAF LEBL 011100Z 0112/0212 22009KT 9999 SCT020 TX15/0112Z TN07/0206Z"
    },
    {
      "icao": "LECH",
      "alert": "OK",
      "vis_m": 9999,
      "fzfg": false,
      "metar_trigger": false,
      "taf_trigger": false,
      "metar": "METAR LECH 011230Z AUTO 13008KT 110V170 9999 FEW018 SCT023 OVC050 13/08 Q1025",
      "taf": ""
    },
    {
      "icao": "LEMD",
      "alert": "OK",
      "vis_m": 9999,
      "fzfg": false,
      "metar_trigger": false,
      "taf_trigger": false,
      "metar": "METAR LEMD 011230Z 14006KT 110V190 9999 SCT033 BKN040 12/06 Q1024 NOSIG",
      "taf": "TAF LEMD 011100Z 0112/0218 VRB04KT 9999 SCT035 TX16/0115Z TN04/0207Z"
    },
    {
      "icao": "LEMG",
      "alert": "OK",
      "vis_m": 9999,
      "fzfg": false,
      "metar_trigger": false,
      "taf_trigger": false,
      "metar": "METAR LEMG 011230Z 12010KT 090V150 9999 BKN050 16/11 Q1023 NOSIG",
      "taf": "TAF LEMG 011100Z 0112/0212 12012KT 9999 FEW020 SCT040 TX18/0114Z TN10/0207Z"
    },
    {
      "icao": "LEVC",
      "alert": "OK",
      "vis_m": 9999,
      "fzfg": false,
      "metar_trigger": false,
      "taf_trigger": false,
      "metar": "METAR LEVC 011230Z 09003KT 360V170 9999 FEW024 BKN054 15/08 Q1026 NOSIG",
      "taf": "TAF LEVC 011100Z 0112/0212 10008KT 9999 FEW025 BKN050 TX17/0112Z TN08/0207Z"
    },
    {
      "icao": "LEXJ",
      "alert": "OK",
      "vis_m": 9999,
      "fzfg": false,
      "metar_trigger": false,
      "taf_trigger": false,
      "metar": "METAR LEXJ 011230Z 05005KT 360V100 CAVOK 12/07 Q1020",
      "taf": "TAF LEXJ 010800Z 0109/0209 20006KT CAVOK TX19/0116Z TN08/0109Z"
    },
    {
      "icao": "LEZG",
      "alert": "OK",
      "vis_m": 9999,
      "fzfg": false,
      "metar_trigger": false,
      "taf_trigger": false,
      "metar": "METAR LEZG 011230Z 08008KT 030V110 CAVOK 14/04 Q1024 NOSIG",
      "taf": "TAF LEZG 011100Z 0112/0212 11009KT CAVOK TX17/0115Z TN07/0206Z"
    },
    {
      "icao": "LEZL",
      "alert": "OK",
      "vis_m": 9999,
      "fzfg": false,
      "metar_trigger": false,
      "taf_trigger": false,
      "metar": "METAR LEZL 011230Z 10009KT 060V150 9999 FEW040 20/10 Q1021 NOSIG",
      "taf": "TAF LEZL 010800Z 0109/0209 03005KT CAVOK TX22/0115Z TN09/0207Z"
    },
    {
      "icao": "LFBD",
      "alert": "OK",
      "vis_m": 9999,
      "fzfg": false,
      "metar_trigger": false,
      "taf_trigger": false,
      "metar": "METAR LFBD 011230Z AUTO 13010KT CAVOK 15/06 Q1023 NOSIG",
      "taf": "TAF LFBD 011100Z 0112/0218 15008KT CAVOK TX17/0214Z TN06/0206Z"
    },
    {
      "icao": "LFLL",
      "alert": "OK",
      "vis_m": 9999,
      "fzfg": false,
      "metar_trigger": false,
      "taf_trigger": false,
      "metar": "METAR LFLL 011230Z 34004KT 270V040 9999 FEW013 12/06 Q1025 NOSIG",
      "taf": "TAF LFLL 011100Z 0112/0218 VRB03KT CAVOK"
    },
    {
      "icao": "LFLS",
      "alert": "OK",
      "vis_m": 9999,
      "fzfg": false,
      "metar_trigger": false,
      "taf_trigger": false,
      "metar": "METAR LFLS 011230Z AUTO VRB03KT CAVOK 13/04 Q1024 NOSIG",
      "taf": "TAF LFLS 010800Z 0109/0209 VRB03KT 9999 SCT043"
    },
    {
      "icao": "LFMN",
      "alert": "OK",
      "vis_m": 9999,
      "fzfg": false,
      "metar_trigger": false,
      "taf_trigger": false,
      "metar": "METAR LFMN 011230Z 14004KT 9999 FEW033 SCT073 BKN260 15/10 Q1025 NOSIG",
      "taf": "TAF LFMN 010800Z 0109/0215 VRB03KT 9999 FEW020 SCT050"
    },
    {
      "icao": "LFOB",
      "alert": "OK",
      "vis_m": 9999,
      "fzfg": false,
      "metar_trigger": false,
      "taf_trigger": false,
      "metar": "METAR LFOB 011230Z AUTO 21014KT 9999 BKN020 OVC027 11/07 Q1022 NOSIG",
      "taf": "TAF LFOB 011100Z 0112/0212 20012G22KT 9999 BKN020 OVC070"
    },
    {
      "icao": "LFPO",
      "alert": "OK",
      "vis_m": 9999,
      "fzfg": false,
      "metar_trigger": false,
      "taf_trigger": false,
      "metar": "METAR LFPO 011230Z 23013KT 200V260 9999 SCT029 13/06 Q1023 NOSIG",
      "taf": "TAF LFPO 011100Z 0112/0218 22012KT 9999 SCT030"
    },
    {
      "icao": "LFSB",
      "alert": "OK",
      "vis_m": 9999,
      "fzfg": false,
      "metar_trigger": false,
      "taf_trigger": false,
      "metar": "METAR LFSB 011230Z AUTO 11004KT 040V190 9999 FEW038 13/04 Q1025 NOSIG",
      "taf": "TAF LFSB 011100Z 0112/0212 VRB03KT 9999 FEW030"
    },
    {
      "icao": "LGAV",
      "alert": "OK",
      "vis_m": 9999,
      "fzfg": false,
      "metar_trigger": false,
      "taf_trigger": false,
      "metar": "METAR LGAV 011220Z 04018KT 9999 FEW025 13/03 Q1026 NOSIG",
      "taf": "TAF LGAV 011100Z 0112/0212 04017KT 9999 SCT025"
    },
    {
      "icao": "LGTS",
      "alert": "OK",
      "vis_m": 9999,
      "fzfg": false,
      "metar_trigger": false,
      "taf_trigger": false,
      "metar": "METAR LGTS 011220Z 29006KT 9999 FEW025 13/06 Q1028 NOSIG",
      "taf": "TAF LGTS 011100Z 0112/0212 VRB03KT 9999 FEW020"
    },
    {
      "icao": "LHBP",
      "alert": "OK",
      "vis_m": 9999,
      "fzfg": false,
      "metar_trigger": false,
      "taf_trigger": false,
      "metar": "METAR LHBP 011230Z 14005KT 090V190 CAVOK 14/M02 Q1025 NOSIG",
      "taf": "TAF LHBP 011115Z 0112/0212 09005KT CAVOK"
    },
    {
      "icao": "LHDC",
      "alert": "OK",
      "vis_m": 9999,
      "fzfg": false,
      "metar_trigger": false,
      "taf_trigger": false,
      "metar": "METAR LHDC 011215Z AUTO VRB02KT CAVOK 14/M00 Q1026 NOSIG",
      "taf": "TAF LHDC 011115Z 0112/0121 VRB03KT CAVOK"
    },
    {
      "icao": "LIBD",
      "alert": "OK",
      "vis_m": 9999,
      "fzfg": false,
      "metar_trigger": false,
      "taf_trigger": false,
      "metar": "METAR LIBD 011220Z 08009KT 9999 BKN040 14/10 Q1026",
      "taf": "TAF LIBD 011100Z 0112/0212 10010KT 9999 BKN025"
    },
    {
      "icao": "LIBG",
      "alert": "OK",
      "vis_m": 9999,
      "fzfg": false,
      "metar_trigger": false,
      "taf_trigger": false,
      "metar": "METAR LIBG 011150Z VRB02KT 9999 SCT035 16/08 Q1026",
      "taf": "TAF LIBG 011100Z 0112/0121 19010KT 9999 SCT020"
    },
    {
      "icao": "LIBP",
      "alert": "OK",
      "vis_m": 6000,
      "fzfg": false,
      "metar_trigger": false,
      "taf_trigger": false,
      "metar": "METAR LIBP 011220Z 06003KT 010V080 6000 OVC035 14/10 Q1026",
      "taf": "TAF LIBP 011100Z 0112/0212 VRB05KT 6000 SCT030"
    },
    {
      "icao": "LIBR",
      "alert": "OK",
      "vis_m": 9999,
      "fzfg": false,
      "metar_trigger": false,
      "taf_trigger": false,
      "metar": "METAR LIBR 011220Z 10008KT 9999 FEW030 15/08 Q1026",
      "taf": "TAF LIBR 011100Z 0112/0212 VRB05KT 9999 BKN035"
    },
    {
      "icao": "LICA",
      "alert": "OK",
      "vis_m": 9999,
      "fzfg": false,
      "metar_trigger": false,
      "taf_trigger": false,
      "metar": "METAR LICA 011220Z 26008KT CAVOK 17/12 Q1025",
      "taf": "TAF LICA 011100Z 0112/0212 VRB05KT 9999 FEW020"
    },
    {
      "icao": "LICC",
      "alert": "OK",
      "vis_m": 9999,
      "fzfg": false,
      "metar_trigger": false,
      "taf_trigger": false,
      "metar": "METAR LICC 011220Z 09009KT 9999 FEW050 17/15 Q1026",
      "taf": "TAF LICC 011100Z 0112/0212 VRB06KT 9999 SCT035"
    },
    {
      "icao": "LICJ",
      "alert": "OK",
      "vis_m": 9999,
      "fzfg": false,
      "metar_trigger": false,
      "taf_trigger": false,
      "metar": "METAR LICJ 011220Z 03007KT CAVOK 15/11 Q1025",
      "taf": "TAF LICJ 011100Z 0112/0212 VRB05KT 9999 FEW020"
    },
    {
      "icao": "LIMC",
      "alert": "OK",
      "vis_m": 3000,
      "fzfg": false,
      "metar_trigger": false,
      "taf_trigger": false,
      "metar": "METAR LIMC 011220Z 13004KT 3000 BR BKN005 11/09 Q1026 NOSIG",
      "taf": "TAF LIMC 011100Z 0112/0218 VRB04KT 2500 BR BKN005"
    },
    {
      "icao": "LIME",
      "alert": "OK",
      "vis_m": 900,
      "fzfg": false,
      "metar_trigger": false,
      "taf_trigger": false,
      "metar": "METAR LIME 011220Z 13003KT 100V160 0900 R28/1200U -DZRA FG VV002 09/09 Q1026 TEMPO 0700 FG",
      "taf": "TAF LIME 011100Z 0112/0212 VRB05KT 0200 FG OVC001"
    },
    {
      "icao": "LIMF",
      "alert": "OK",
      "vis_m": 4000,
      "fzfg": false,
      "metar_trigger": false,
      "taf_trigger": false,
      "metar": "METAR LIMF 011220Z 05004KT 4000 BR BKN030 12/08 Q1025",
      "taf": "TAF LIMF 011100Z 0112/0212 VRB04KT 6000 BKN030"
    },
    {
      "icao": "LIMJ",
      "alert": "OK",
      "vis_m": 9999,
      "fzfg": false,
      "metar_trigger": false,
      "taf_trigger": false,
      "metar": "METAR LIMJ 011220Z 14005KT 9999 SCT018 BKN074 14/11 Q1025",
      "taf": "TAF LIMJ 011100Z 0112/0212 VRB05KT 9999 SCT020 BKN030"
    },
    {
      "icao": "LIPE",
      "alert": "OK",
      "vis_m": 5000,
      "fzfg": false,
      "metar_trigger": false,
      "taf_trigger": false,
      "metar": "METAR LIPE 011220Z 06006KT 5000 BR BKN014 13/10 Q1025",
      "taf": "TAF LIPE 011100Z 0112/0212 09006KT 3500 BR BKN008"
    },
    {
      "icao": "LIPH",
      "alert": "OK",
      "vis_m": 1800,
      "fzfg": false,
      "metar_trigger": false,
      "taf_trigger": false,
      "metar": "METAR LIPH 011220Z 07004KT 050V110 1800 BR BKN003 BKN004 10/10 Q1027",
      "taf": "TAF LIPH 011100Z 0112/0212 VRB04KT 1000 FG OVC002"
    },
    {
      "icao": "LIPQ",
      "alert": "OK",
      "vis_m": 5000,
      "fzfg": false,
      "metar_trigger": false,
      "taf_trigger": false,
      "metar": "METAR LIPQ 011220Z 04005KT 010V070 5000 BR SCT005 OVC050 11/09 Q1027",
      "taf": "TAF LIPQ 011100Z 0112/0212 VRB04KT 3000 BR OVC002"
    },
    {
      "icao": "LIPR",
      "alert": "OK",
      "vis_m": 5000,
      "fzfg": false,
      "metar_trigger": false,
      "taf_trigger": false,
      "metar": "METAR LIPR 011220Z 04005KT 5000 BR BKN050 13/10 Q1025",
      "taf": "TAF LIPR 011100Z 0112/0212 VRB04KT 4000 BR FEW016 BKN040"
    },
    {
      "icao": "LIPX",
      "alert": "OK",
      "vis_m": 3500,
      "fzfg": false,
      "metar_trigger": false,
      "taf_trigger": false,
      "metar": "METAR LIPX 011220Z 05004KT 020V090 3500 BR BKN009 12/10 Q1026",
      "taf": "TAF LIPX 011100Z 0112/0212 VRB05KT 1200 BR OVC004"
    },
    {
      "icao": "LIPY",
      "alert": "OK",
      "vis_m": 9999,
      "fzfg": false,
      "metar_trigger": false,
      "taf_trigger": false,
      "metar": "METAR LIPY 011220Z 07007KT 9999 BKN050 14/11 Q1025",
      "taf": "TAF LIPY 011100Z 0112/0212 VRB04KT 7000 FEW020 BKN040"
    },
    {
      "icao": "LIPZ",
      "alert": "OK",
      "vis_m": 3000,
      "fzfg": false,
      "metar_trigger": false,
      "taf_trigger": false,
      "metar": "METAR LIPZ 011220Z 10004KT 3000 BR OVC004 10/10 Q1027 BECMG 5000 BR",
      "taf": "TAF LIPZ 011100Z 0112/0218 VRB04KT 2000 BR OVC006"
    },
    {
      "icao": "LIRF",
      "alert": "OK",
      "vis_m": 9999,
      "fzfg": false,
      "metar_trigger": false,
      "taf_trigger": false,
      "metar": "METAR LIRF 011220Z 18003KT 130V230 9999 FEW035 BKN055 15/08 Q1025 NOSIG",
      "taf": "TAF LIRF 011100Z 0112/0218 09005KT 9999 SCT035"
    },
    {
      "icao": "LIRN",
      "alert": "OK",
      "vis_m": 9999,
      "fzfg": false,
      "metar_trigger": false,
      "taf_trigger": false,
      "metar": "METAR LIRN 011220Z 20006KT 140V250 9999 SCT050 16/08 Q1025 NOSIG",
      "taf": "TAF LIRN 011100Z 0112/0212 VRB05KT 9999 SCT035"
    },
    {
      "icao": "LIRP",
      "alert": "OK",
      "vis_m": 9999,
      "fzfg": false,
      "metar_trigger": false,
      "taf_trigger": false,
      "metar": "METAR LIRP 011215Z 16004KT 9999 FEW030 SCT050 16/09 Q1025 NOSIG",
      "taf": "TAF LIRP 011100Z 0112/0212 09005KT 9999 SCT040"
    },
    {
      "icao": "LIRZ",
      "alert": "OK",
      "vis_m": 7000,
      "fzfg": false,
      "metar_trigger": false,
      "taf_trigger": false,
      "metar": "METAR LIRZ 011220Z VRB01KT 7000 BKN045 13/08 Q1025",
      "taf": "TAF LIRZ 011100Z 0112/0212 VRB04KT 9999 SCT040"
    },
    {
      "icao": "LJLJ",
      "alert": "OK",
      "vis_m": 9999,
      "fzfg": false,
      "metar_trigger": false,
      "taf_trigger": false,
      "metar": "METAR LJLJ 011230Z 17004KT 060V240 9999 FEW035 BKN210 14/05 Q1024 NOSIG",
      "taf": "TAF LJLJ 011100Z 0112/0212 12004KT 9999 FEW040"
    },
    {
      "icao": "LKMT",
      "alert": "OK",
      "vis_m": 9999,
      "fzfg": false,
      "metar_trigger": false,
      "taf_trigger": false,
      "metar": "METAR LKMT 011230Z 25003KT 180V350 CAVOK 13/03 Q1024 NOSIG",
      "taf": "TAF LKMT 011100Z 0112/0212 23008KT 9999 SCT040"
    },
    {
      "icao": "LKPR",
      "alert": "OK",
      "vis_m": 9999,
      "fzfg": false,
      "metar_trigger": false,
      "taf_trigger": false,
      "metar": "METAR LKPR 011230Z 17005KT 9999 -RA SCT034 07/05 Q1026 NOSIG",
      "taf": "TAF LKPR 011100Z 0112/0218 22006KT 9999 SCT025"
    },
    {
      "icao": "LLBG",
      "alert": "OK",
      "vis_m": 9999,
      "fzfg": false,
      "metar_trigger": false,
      "taf_trigger": false,
      "metar": "METAR LLBG 011220Z 32013KT 9999 FEW050 17/05 Q1018 NOSIG",
      "taf": "TAF LLBG 011107Z 0112/0212 34012KT 9999 FEW045 TX18/0112Z TN06/0203Z"
    },
    {
      "icao": "LMML",
      "alert": "OK",
      "vis_m": 9999,
      "fzfg": false,
      "metar_trigger": false,
      "taf_trigger": false,
      "metar": "METAR LMML 011215Z 09008KT 060V120 9999 SCT017 17/13 Q1025 NOSIG",
      "taf": "TAF LMML 011100Z 0112/0212 13007KT 9999 SCT015"
    },
    {
      "icao": "LOWW",
      "alert": "OK",
      "vis_m": 9999,
      "fzfg": false,
      "metar_trigger": false,
      "taf_trigger": false,
      "metar": "METAR LOWW 011220Z VRB03KT CAVOK 13/04 Q1025 NOSIG",
      "taf": "TAF LOWW 011115Z 0112/0218 VRB03KT CAVOK TX14/0114Z TN05/0206Z"
    },
    {
      "icao": "LPFR",
      "alert": "OK",
      "vis_m": 9999,
      "fzfg": false,
      "metar_trigger": false,
      "taf_trigger": false,
      "metar": "METAR LPFR 011230Z 11012KT 9999 FEW025 18/10 Q1021",
      "taf": "TAF LPFR 011100Z 0112/0212 09012KT CAVOK"
    },
    {
      "icao": "LPMA",
      "alert": "OK",
      "vis_m": 9999,
      "fzfg": false,
      "metar_trigger": false,
      "taf_trigger": false,
      "metar": "METAR LPMA 011230Z 03011KT 300V060 9999 FEW018 18/08 Q1024",
      "taf": "TAF LPMA 011100Z 0112/0212 01010KT 9999 SCT018"
    },
    {
      "icao": "LPPR",
      "alert": "OK",
      "vis_m": 9999,
      "fzfg": false,
      "metar_trigger": false,
      "taf_trigger": false,
      "metar": "METAR LPPR 011230Z 23008KT 200V260 CAVOK 16/06 Q1021",
      "taf": "TAF LPPR 011100Z 0112/0212 24005KT CAVOK"
    },
    {
      "icao": "LPPS",
      "alert": "OK",
      "vis_m": 9999,
      "fzfg": false,
      "metar_trigger": false,
      "taf_trigger": false,
      "metar": "METAR LPPS 011230Z 01012KT 9999 SCT015 BKN030 17/09 Q1024",
      "taf": "TAF LPPS 011100Z 0112/0218 36010KT 9999 SCT015 SCT030"
    },
    {
      "icao": "LPPT",
      "alert": "OK",
      "vis_m": 9999,
      "fzfg": false,
      "metar_trigger": false,
      "taf_trigger": false,
      "metar": "METAR LPPT 011230Z VRB04G15KT CAVOK 15/08 Q1021",
      "taf": "TAF LPPT 011100Z 0112/0218 VRB05KT 9999 SCT025"
    },
    {
      "icao": "LQBK",
      "alert": "OK",
      "vis_m": 9999,
      "fzfg": false,
      "metar_trigger": false,
      "taf_trigger": false,
      "metar": "METAR LQBK 011230Z 34005KT 300V010 CAVOK 16/06 Q1024 NOSIG",
      "taf": "TAF LQBK 011100Z 0112/0212 35006KT CAVOK TX17/0114Z TN05/0206Z"
    },
    {
      "icao": "LQSA",
      "alert": "OK",
      "vis_m": 9999,
      "fzfg": false,
      "metar_trigger": false,
      "taf_trigger": false,
      "metar": "METAR LQSA 011230Z VRB02KT CAVOK 16/02 Q1023 NOSIG",
      "taf": "TAF LQSA 011100Z 0112/0212 VRB02KT CAVOK TX19/0114Z TNM01/0205Z"
    },
    {
      "icao": "LQTZ",
      "alert": "OK",
      "vis_m": 9999,
      "fzfg": false,
      "metar_trigger": false,
      "taf_trigger": false,
      "metar": "METAR LQTZ 011230Z VRB02KT CAVOK 18/01 Q1024",
      "taf": "TAF LQTZ 011100Z 0112/0212 06005KT CAVOK TX18/0114Z TNM00/0205Z"
    },
    {
      "icao": "LRBC",
      "alert": "OK",
      "vis_m": 2000,
      "fzfg": true,
      "metar_trigger": false,
      "taf_trigger": false,
      "metar": "METAR LRBC 011230Z 15010KT 2000 BR OVC002 M01/M01 Q1027",
      "taf": "TAF LRBC 011100Z 0112/0121 16011KT 0800 FZFG OVC002"
    },
    {
      "icao": "LRBS",
      "alert": "OK",
      "vis_m": 6000,
      "fzfg": false,
      "metar_trigger": false,
      "taf_trigger": false,
      "metar": "METAR LRBS 011230Z 21006KT 180V250 6000 SCT004 BKN006 01/01 Q1030 BECMG 7000 NSW SCT010",
      "taf": "TAF LRBS 011100Z 0112/0212 25006KT 5000 BR OVC005"
    },
    {
      "icao": "LRBV",
      "alert": "OK",
      "vis_m": 9999,
      "fzfg": false,
      "metar_trigger": false,
      "taf_trigger": false,
      "metar": "METAR LRBV 011230Z 00000KT CAVOK 11/M02 Q1025",
      "taf": "TAF LRBV 011100Z 0112/0121 VRB04KT CAVOK"
    },
    {
      "icao": "LRCL",
      "alert": "OK",
      "vis_m": 9999,
      "fzfg": false,
      "metar_trigger": false,
      "taf_trigger": false,
      "metar": "METAR LRCL 011230Z VRB02KT CAVOK 13/M01 Q1025",
      "taf": "TAF LRCL 011100Z 0112/0121 VRB04KT CAVOK"
    },
    {
      "icao": "LRCV",
      "alert": "OK",
      "vis_m": 7000,
      "fzfg": false,
      "metar_trigger": false,
      "taf_trigger": false,
      "metar": "METAR LRCV 011230Z 21003KT 130V280 7000 BKN009 04/01 Q1029",
      "taf": "TAF LRCV 011100Z 0112/0121 VRB04KT 3000 BR OVC005"
    },
    {
      "icao": "LRIA",
      "alert": "OK",
      "vis_m": 9999,
      "fzfg": false,
      "metar_trigger": false,
      "taf_trigger": false,
      "metar": "METAR LRIA 011230Z VRB03KT CAVOK 07/M01 Q1027",
      "taf": "TAF LRIA 011100Z 0112/0121 13006KT CAVOK"
    },
    {
      "icao": "LROP",
      "alert": "OK",
      "vis_m": 5000,
      "fzfg": false,
      "metar_trigger": false,
      "taf_trigger": false,
      "metar": "METAR LROP 011230Z 22008KT 190V260 5000 BR OVC004 02/M01 Q1029 BECMG 7000 NSW SCT010",
      "taf": "TAF LROP 011100Z 0112/0212 25006KT 5000 BR OVC005"
    },
    {
      "icao": "LRSB",
      "alert": "OK",
      "vis_m": 9999,
      "fzfg": false,
      "metar_trigger": false,
      "taf_trigger": false,
      "metar": "METAR LRSB 011230Z 36003KT CAVOK 14/M05 Q1025",
      "taf": "TAF LRSB 011100Z 0112/0212 VRB04KT CAVOK"
    },
    {
      "icao": "LRSM",
      "alert": "OK",
      "vis_m": 9999,
      "fzfg": false,
      "metar_trigger": false,
      "taf_trigger": false,
      "metar": "METAR LRSM 011230Z 28004KT 190V340 CAVOK 14/02 Q1026",
      "taf": "TAF LRSM 011100Z 0112/0121 VRB04KT CAVOK"
    },
    {
      "icao": "LRSV",
      "alert": "OK",
      "vis_m": 450,
      "fzfg": false,
      "metar_trigger": false,
      "taf_trigger": false,
      "metar": "METAR LRSV 011230Z 06003KT 020V090 0450 R34/0750D FG OVC001 01/01 Q1025",
      "taf": "TAF LRSV 011100Z 0112/0121 VRB04KT 0600 FG VV002"
    },
    {
      "icao": "LRTM",
      "alert": "OK",
      "vis_m": 9999,
      "fzfg": false,
      "metar_trigger": false,
      "taf_trigger": false,
      "metar": "METAR LRTM 011230Z 32003KT 260V030 CAVOK 13/M03 Q1026",
      "taf": "TAF LRTM 011100Z 0112/0121 VRB04KT CAVOK"
    },
    {
      "icao": "LRTR",
      "alert": "OK",
      "vis_m": 9999,
      "fzfg": false,
      "metar_trigger": false,
      "taf_trigger": false,
      "metar": "METAR LRTR 011230Z 12003KT 030V170 CAVOK 15/M06 Q1025",
      "taf": "TAF LRTR 011100Z 0112/0212 VRB04KT CAVOK"
    },
    {
      "icao": "LTAC",
      "alert": "OK",
      "vis_m": 9999,
      "fzfg": false,
      "metar_trigger": false,
      "taf_trigger": false,
      "metar": "METAR LTAC 011220Z VRB04KT 9999 SCT040 09/M04 Q1022 NOSIG RMK RWY21C 03008KT 280V060 RWY03L 08005KT 050V140 RWY21R 04007KT 350V070 RWY03R VRB02KT RWY21L VRB02KT",
      "taf": "TAF LTAC 011040Z 0112/0212 VRB02KT 9999 SCT040"
    },
    {
      "icao": "LTFM",
      "alert": "OK",
      "vis_m": 9999,
      "fzfg": false,
      "metar_trigger": false,
      "taf_trigger": false,
      "metar": "METAR LTFM 011220Z 03012KT 9999 FEW016 BKN028 07/02 Q1029 NOSIG RMK RWY17L 02012KT RWY34L 02012KT RWY16R 02012KT RWY36 03013KT RWY18 03011KT",
      "taf": "TAF LTFM 011040Z 0112/0218 04012KT 9999 FEW016 BKN028"
    },
    {
      "icao": "LUKK",
      "alert": "OK",
      "vis_m": 9999,
      "fzfg": false,
      "metar_trigger": false,
      "taf_trigger": false,
      "metar": "METAR LUKK 011230Z 22010KT CAVOK 10/M01 Q1027 NOSIG",
      "taf": "TAF LUKK 011114Z 0112/0212 21009KT CAVOK"
    },
    {
      "icao": "LWOH",
      "alert": "OK",
      "vis_m": 9999,
      "fzfg": false,
      "metar_trigger": false,
      "taf_trigger": false,
      "metar": "METAR LWOH 011220Z 16004KT 130V190 CAVOK 11/04 Q1026",
      "taf": "TAF LWOH 011120Z 0112/0212 17008KT CAVOK"
    },
    {
      "icao": "LWSK",
      "alert": "OK",
      "vis_m": 9999,
      "fzfg": false,
      "metar_trigger": false,
      "taf_trigger": false,
      "metar": "METAR LWSK 011220Z VRB02KT CAVOK 14/06 Q1027 NOSIG",
      "taf": "TAF LWSK 011120Z 0112/0212 VRB02KT CAVOK"
    },
    {
      "icao": "LYBE",
      "alert": "OK",
      "vis_m": 9999,
      "fzfg": false,
      "metar_trigger": false,
      "taf_trigger": false,
      "metar": "METAR LYBE 011230Z VRB03KT CAVOK 14/02 Q1025 NOSIG",
      "taf": "TAF LYBE 011100Z 0112/0212 09004KT CAVOK TX16/0113Z TN02/0206Z"
    },
    {
      "icao": "LYNI",
      "alert": "OK",
      "vis_m": 9999,
      "fzfg": false,
      "metar_trigger": false,
      "taf_trigger": false,
      "metar": "METAR LYNI 011230Z VRB02KT CAVOK 16/02 Q1025 NOSIG",
      "taf": "TAF LYNI 011100Z 0112/0212 12005KT CAVOK TX16/0113Z TNM02/0205Z"
    },
    {
      "icao": "LYPG",
      "alert": "OK",
      "vis_m": 9999,
      "fzfg": false,
      "metar_trigger": false,
      "taf_trigger": false,
      "metar": "METAR LYPG 011230Z 13006KT 080V170 CAVOK 17/06 Q1026 NOSIG",
      "taf": "TAF LYPG 011100Z 0112/0212 17005KT CAVOK TX17/0113Z TN03/0205Z"
    },
    {
      "icao": "LZIB",
      "alert": "OK",
      "vis_m": 9999,
      "fzfg": false,
      "metar_trigger": false,
      "taf_trigger": false,
      "metar": "METAR LZIB 011230Z 09004KT 040V130 CAVOK 12/02 Q1025 NOSIG",
      "taf": "TAF LZIB 011115Z 0112/0212 07007KT CAVOK"
    },
    {
      "icao": "LZKZ",
      "alert": "OK",
      "vis_m": 9999,
      "fzfg": false,
      "metar_trigger": false,
      "taf_trigger": false,
      "metar": "METAR LZKZ 011230Z 22006KT 150V280 CAVOK 13/02 Q1025 NOSIG",
      "taf": "TAF LZKZ 011115Z 0112/0212 21007KT CAVOK"
    },
    {
      "icao": "LZTT",
      "alert": "OK",
      "vis_m": 9999,
      "fzfg": false,
      "metar_trigger": false,
      "taf_trigger": false,
      "metar": "METAR LZTT 011230Z 16005KT 110V220 9999 FEW043 12/02 Q1024 NOSIG",
      "taf": "TAF LZTT 011115Z 0112/0212 06005KT CAVOK"
    },
    {
      "icao": "OEJN",
      "alert": "OK",
      "vis_m": 9999,
      "fzfg": false,
      "metar_trigger": false,
      "taf_trigger": false,
      "metar": "METAR OEJN 011200Z 33017KT 9999 SCT040 26/09 Q1011 NOSIG",
      "taf": "TAF OEJN 011100Z 0112/0218 33014KT 9999 FEW040"
    },
    {
      "icao": "OEMA",
      "alert": "OK",
      "vis_m": 9999,
      "fzfg": false,
      "metar_trigger": false,
      "taf_trigger": false,
      "metar": "METAR OEMA 011200Z 25009KT CAVOK 25/M03 Q1012 NOSIG",
      "taf": "TAF OEMA 011100Z 0112/0218 27012KT CAVOK"
    },
    {
      "icao": "OJAI",
      "alert": "OK",
      "vis_m": 5000,
      "fzfg": false,
      "metar_trigger": false,
      "taf_trigger": false,
      "metar": "METAR OJAI 011200Z 16005KT 5000 HZ NSC 13/M04 Q1018 NOSIG",
      "taf": "TAF OJAI 011100Z 0112/0218 03010KT 5000 HZ FEW030"
    },
    {
      "icao": "OMAA",
      "alert": "OK",
      "vis_m": 9999,
      "fzfg": false,
      "metar_trigger": false,
      "taf_trigger": false,
      "metar": "METAR OMAA 011230Z AUTO 17005KT 140V240 9999 FEW250/// 36/00 Q1007 NOSIG",
      "taf": "TAF OMAA 011100Z 0112/0218 21006KT CAVOK"
    },
    {
      "icao": "OMDB",
      "alert": "OK",
      "vis_m": 9999,
      "fzfg": false,
      "metar_trigger": false,
      "taf_trigger": false,
      "metar": "METAR OMDB 011230Z 02009KT CAVOK 31/10 Q1008 NOSIG",
      "taf": "TAF OMDB 011100Z 0112/0218 32013KT 8000 NSC"
    },
    {
      "icao": "UAAA",
      "alert": "OK",
      "vis_m": 9999,
      "fzfg": false,
      "metar_trigger": false,
      "taf_trigger": false,
      "metar": "METAR UAAA 011230Z 04004MPS 9999 BKN200 M06/M10 Q1024 NOSIG",
      "taf": "TAF UAAA 011102Z 0112/0212 04003MPS 3100 BR FU SCT011 BKN030 TX04/0209Z TNM10/0202Z"
    },
    {
      "icao": "UBBB",
      "alert": "OK",
      "vis_m": 9999,
      "fzfg": false,
      "metar_trigger": false,
      "taf_trigger": false,
      "metar": "METAR UBBB 011230Z 34016KT 9999 BKN027 06/M01 Q1023 NOSIG",
      "taf": "TAF UBBB 011114Z 0112/0212 33016KT 9999 BKN030 TX05/0112Z TN02/0201Z"
    },
    {
      "icao": "UDSG",
      "alert": "OK",
      "vis_m": 6000,
      "fzfg": false,
      "metar_trigger": false,
      "taf_trigger": false,
      "metar": "METAR UDSG 011230Z 14002KT 6000 -SN OVC026 M03/M05 Q1018 NOSIG",
      "taf": "TAF UDSG 011058Z 0112/0212 VRB06KT 5000 BR BKN030"
    },
    {
      "icao": "UDYZ",
      "alert": "OK",
      "vis_m": 9999,
      "fzfg": false,
      "metar_trigger": false,
      "taf_trigger": false,
      "metar": "METAR UDYZ 011230Z 05006KT 9999 SCT040CB 06/M01 Q1018 NOSIG",
      "taf": "TAF UDYZ 011100Z 0112/0212 04004KT 9999 SCT040"
    },
    {
      "icao": "UGKO",
      "alert": "OK",
      "vis_m": 9999,
      "fzfg": false,
      "metar_trigger": false,
      "taf_trigger": false,
      "metar": "METAR UGKO 011230Z 28009KT 9999 BKN058 08/05 Q1022 NOSIG",
      "taf": "TAF UGKO 011100Z 0112/0212 26012KT 9999 SCT020 OVC040 TX08/0212Z TN04/0203Z"
    }
  ]
}