{
  "ts_utc": "2026-02-12T15:32:02Z",
  "threshold_m": 150,
  "source": "stations_override.txt (ICAO list) + aviationweather.gov (METAR/TAF raw)",
  "station_count": 159,
  "stations": [
    {
      "icao": "BIKF",
      "alert": "OK",
      "vis_m": 9999,
      "fzfg": false,
      "metar_trigger": false,
      "taf_trigger": false,
      "metar": "METAR BIKF 121500Z 36010KT CAVOK M03/M11 Q1006",
      "taf": "TAF BIKF 121333Z 1215/1315 02010KT CAVOK TXM03/1215Z TNM07/1309Z"
    },
    {
      "icao": "BKPR",
      "alert": "OK",
      "vis_m": 9999,
      "fzfg": false,
      "metar_trigger": false,
      "taf_trigger": false,
      "metar": "METAR BKPR 121530Z 15005KT 9999 BKN035 11/06 Q0989 NOSIG",
      "taf": "TAF BKPR 121130Z 1212/1312 18008KT 9999 BKN030"
    },
    {
      "icao": "EBCI",
      "alert": "OK",
      "vis_m": 9999,
      "fzfg": false,
      "metar_trigger": false,
      "taf_trigger": false,
      "metar": "METAR EBCI 121520Z 25010KT 220V280 9999 SCT024 BKN040 10/06 Q0985 NOSIG",
      "taf": "TAF EBCI 121115Z 1212/1318 28009KT 9999 SCT012 BKN016"
    },
    {
      "icao": "EDDB",
      "alert": "OK",
      "vis_m": 7000,
      "fzfg": false,
      "metar_trigger": false,
      "taf_trigger": false,
      "metar": "METAR EDDB 121520Z AUTO 17007KT 7000 -RADZ FEW006 BKN016 07/07 Q0978 NOSIG",
      "taf": "TAF EDDB 121100Z 1212/1312 15007KT 9999 BKN030"
    },
    {
      "icao": "EDDH",
      "alert": "OK",
      "vis_m": 9999,
      "fzfg": false,
      "metar_trigger": false,
      "taf_trigger": false,
      "metar": "METAR EDDH 121520Z AUTO 04006KT 010V070 9999 -SHRA OVC006 FEW///TCU 02/01 Q0980 RESHRA TEMPO 4500 RA OVC004",
      "taf": "TAF EDDH 121100Z 1212/1318 07008KT 7000 OVC004"
    },
    {
      "icao": "EDDK",
      "alert": "OK",
      "vis_m": 9999,
      "fzfg": false,
      "metar_trigger": false,
      "taf_trigger": false,
      "metar": "METAR EDDK 121520Z AUTO 27012KT 9999 -SHRA SCT014 BKN037 OVC047 SCT///TCU 08/07 Q0984 RESHRA TEMPO 4000 SHRA BKN014",
      "taf": "TAF EDDK 121100Z 1212/1318 28008KT 9999 BKN015"
    },
    {
      "icao": "EDDN",
      "alert": "OK",
      "vis_m": 9999,
      "fzfg": false,
      "metar_trigger": false,
      "taf_trigger": false,
      "metar": "METAR EDDN 121520Z AUTO 24010KT 9999 -RA FEW013 BKN029 OVC039 08/06 Q0982 TEMPO 23015G30KT RA",
      "taf": "TAF EDDN 121100Z 1212/1312 21010KT 9999 BKN025"
    },
    {
      "icao": "EDDS",
      "alert": "OK",
      "vis_m": 9999,
      "fzfg": false,
      "metar_trigger": false,
      "taf_trigger": false,
      "metar": "METAR EDDS 121520Z AUTO 24013KT 210V280 9999 -SHRA FEW021 SCT039 FEW///TCU 08/05 Q0986 RESHRA TEMPO SHRA",
      "taf": "TAF EDDS 121100Z 1212/1312 22012KT 9999 SCT035"
    },
    {
      "icao": "EDFH",
      "alert": "OK",
      "vis_m": 9999,
      "fzfg": false,
      "metar_trigger": false,
      "taf_trigger": false,
      "metar": "METAR EDFH 121520Z 26011KT 230V290 9999 -RA FEW016 BKN019 07/04 Q0984",
      "taf": "TAF EDFH 121100Z 1212/1312 28015KT 9999 BKN015"
    },
    {
      "icao": "EDJA",
      "alert": "OK",
      "vis_m": 9999,
      "fzfg": false,
      "metar_trigger": false,
      "taf_trigger": false,
      "metar": "METAR EDJA 121520Z 24024KT 9999 -DZ BKN013 06/04 Q0988",
      "taf": "TAF EDJA 121400Z 1215/1224 24015G25KT 9999 SCT014 BKN020"
    },
    {
      "icao": "EDLW",
      "alert": "OK",
      "vis_m": 9999,
      "fzfg": false,
      "metar_trigger": false,
      "taf_trigger": false,
      "metar": "METAR EDLW 121520Z 25007KT 9999 SCT031 OVC038 08/07 Q0982",
      "taf": ""
    },
    {
      "icao": "EDNY",
      "alert": "OK",
      "vis_m": 9999,
      "fzfg": false,
      "metar_trigger": false,
      "taf_trigger": false,
      "metar": "METAR EDNY 121520Z 25012KT 9999 -RA FEW018 BKN024 BKN031 08/06 Q0990",
      "taf": "TAF EDNY 121400Z 1215/1224 23020G30KT 9999 OVC020"
    },
    {
      "icao": "EDSB",
      "alert": "OK",
      "vis_m": 9999,
      "fzfg": false,
      "metar_trigger": false,
      "taf_trigger": false,
      "metar": "METAR EDSB 121520Z 20011KT 9999 -RA FEW025 BKN039 10/08 Q0987",
      "taf": "TAF EDSB 121100Z 1212/1312 21015KT 9999 BKN035"
    },
    {
      "icao": "EETN",
      "alert": "OK",
      "vis_m": 9999,
      "fzfg": false,
      "metar_trigger": false,
      "taf_trigger": false,
      "metar": "METAR EETN 121520Z 06006KT CAVOK M07/M09 Q0994 NOSIG",
      "taf": "TAF EETN 121130Z 1212/1312 07006KT CAVOK"
    },
    {
      "icao": "EFTU",
      "alert": "OK",
      "vis_m": 9999,
      "fzfg": false,
      "metar_trigger": false,
      "taf_trigger": false,
      "metar": "METAR EFTU 121520Z AUTO 05006KT 020V080 9999 SCT012 OVC024 M11/M14 Q0996",
      "taf": "TAF EFTU 121423Z 1215/1315 05006KT 9999 BKN009"
    },
    {
      "icao": "EGBB",
      "alert": "OK",
      "vis_m": 6000,
      "fzfg": false,
      "metar_trigger": false,
      "taf_trigger": false,
      "metar": "METAR EGBB 121520Z 02007KT 360V070 6000 -RA BKN007 06/05 Q0987",
      "taf": ""
    },
    {
      "icao": "EGGP",
      "alert": "OK",
      "vis_m": 9000,
      "fzfg": false,
      "metar_trigger": false,
      "taf_trigger": false,
      "metar": "METAR EGGP 121520Z 08007KT 9000 -RA OVC018 05/03 Q0987",
      "taf": "TAF EGGP 121056Z 1212/1312 05006KT 9999 SCT014 BKN030"
    },
    {
      "icao": "EGGW",
      "alert": "OK",
      "vis_m": 9999,
      "fzfg": false,
      "metar_trigger": false,
      "taf_trigger": false,
      "metar": "METAR EGGW 121520Z AUTO 35008KT 300V020 9999 -RA BKN008/// OVC011/// //////CB 07/06 Q0986",
      "taf": "TAF EGGW 121055Z 1212/1312 32010KT 9999 SCT020"
    },
    {
      "icao": "EGKK",
      "alert": "OK",
      "vis_m": 9999,
      "fzfg": false,
      "metar_trigger": false,
      "taf_trigger": false,
      "metar": "METAR EGKK 121520Z 26013KT 9999 -RA FEW013 BKN021 10/08 Q0986",
      "taf": "TAF EGKK 121059Z 1212/1318 26010KT 9999 SCT010 BKN020"
    },
    {
      "icao": "EGNM",
      "alert": "OK",
      "vis_m": 9999,
      "fzfg": false,
      "metar_trigger": false,
      "taf_trigger": false,
      "metar": "METAR EGNM 121520Z 04004KT 020V090 9999 -RA SCT010 BKN017 03/02 Q0987",
      "taf": ""
    },
    {
      "icao": "EGPD",
      "alert": "OK",
      "vis_m": 9999,
      "fzfg": false,
      "metar_trigger": false,
      "taf_trigger": false,
      "metar": "METAR EGPD 121520Z COR AUTO 08006KT 050V120 9999 NCD 04/M01 Q0993 NOSIG",
      "taf": "TAF EGPD 121057Z 1212/1312 05010KT 9999 SCT012 BKN025"
    },
    {
      "icao": "EGPF",
      "alert": "OK",
      "vis_m": 9999,
      "fzfg": false,
      "metar_trigger": false,
      "taf_trigger": false,
      "metar": "METAR EGPF 121520Z AUTO 05012KT 9999 -RA SCT014 BKN024 BKN031 04/02 Q0991",
      "taf": "TAF EGPF 121053Z 1212/1312 07012KT 9999 BKN020"
    },
    {
      "icao": "EHBK",
      "alert": "OK",
      "vis_m": 9999,
      "fzfg": false,
      "metar_trigger": false,
      "taf_trigger": false,
      "metar": "METAR EHBK 121525Z AUTO 25007KT 180V310 9999 BKN017 BKN020 OVC026 09/08 Q0984 TEMPO 6000 RADZ",
      "taf": "TAF EHBK 121121Z 1212/1318 27010KT 9999 BKN009"
    },
    {
      "icao": "EHEH",
      "alert": "OK",
      "vis_m": 9999,
      "fzfg": false,
      "metar_trigger": false,
      "taf_trigger": false,
      "metar": "METAR EHEH 121525Z AUTO 26009KT 220V290 9999 FEW007 SCT010 BKN013 09/07 Q0984 REDZ GRN TEMPO 4500 -RADZ BKN005 OVC010",
      "taf": "TAF EHEH 121123Z 1212/1318 27008KT 9999 FEW007 BKN012"
    },
    {
      "icao": "EKBI",
      "alert": "OK",
      "vis_m": 9999,
      "fzfg": false,
      "metar_trigger": false,
      "taf_trigger": false,
      "metar": "METAR EKBI 121520Z AUTO 04014KT 9999 -SN BKN011/// OVC034/// M01/M03 Q0986",
      "taf": "TAF EKBI 121427Z 1215/1315 06015KT 4000 -SN DRSN OVC008"
    },
    {
      "icao": "EKCH",
      "alert": "OK",
      "vis_m": 3000,
      "fzfg": false,
      "metar_trigger": false,
      "taf_trigger": false,
      "metar": "METAR EKCH 121520Z 05013KT 030V090 3000 -SN SCT009 BKN012 00/M01 Q0986 TEMPO 2500 BKN008",
      "taf": "TAF EKCH 121427Z 1215/1315 04018KT 3000 -SN BKN008"
    },
    {
      "icao": "ENAL",
      "alert": "OK",
      "vis_m": 9999,
      "fzfg": false,
      "metar_trigger": false,
      "taf_trigger": false,
      "metar": "METAR ENAL 121520Z 18007KT 160V220 9999 FEW028 BKN034 00/M05 Q0992",
      "taf": "TAF ENAL 121400Z 1215/1224 19008KT 9999 FEW012 BKN030"
    },
    {
      "icao": "ENBR",
      "alert": "OK",
      "vis_m": 9999,
      "fzfg": false,
      "metar_trigger": false,
      "taf_trigger": false,
      "metar": "METAR ENBR 121520Z 15005KT 9999 FEW035 M00/M10 Q0993 NOSIG RMK WIND 1200FT 16009KT",
      "taf": "TAF ENBR 121100Z 1212/1312 VRB03KT 9999 FEW020 BKN035"
    },
    {
      "icao": "ENGM",
      "alert": "OK",
      "vis_m": 9999,
      "fzfg": false,
      "metar_trigger": false,
      "taf_trigger": false,
      "metar": "METAR ENGM 121520Z 02008KT 9999 -SN SCT029 BKN033 M07/M11 Q0995 NOSIG",
      "taf": ""
    },
    {
      "icao": "ENHD",
      "alert": "OK",
      "vis_m": 9999,
      "fzfg": false,
      "metar_trigger": false,
      "taf_trigger": false,
      "metar": "METAR ENHD 121520Z 20004KT 170V240 CAVOK 00/M11 Q0993",
      "taf": "TAF ENHD 121400Z 1215/1223 11006KT 9999 SCT040"
    },
    {
      "icao": "ENTC",
      "alert": "OK",
      "vis_m": 9999,
      "fzfg": false,
      "metar_trigger": false,
      "taf_trigger": false,
      "metar": "METAR ENTC 121520Z 21013KT 9999 -SHSN BKN029 M07/M12 Q0993 TEMPO 2500 -SHSN VV010 RMK WIND 2600FT 25010KT",
      "taf": "TAF ENTC 121100Z 1212/1312 21012KT 9999 FEW020 BKN035"
    },
    {
      "icao": "ENTO",
      "alert": "OK",
      "vis_m": 9999,
      "fzfg": false,
      "metar_trigger": false,
      "taf_trigger": false,
      "metar": "METAR ENTO 121520Z 05007KT 9999 OVC038 M07/M11 Q0995 NOSIG",
      "taf": ""
    },
    {
      "icao": "ENVA",
      "alert": "OK",
      "vis_m": 9999,
      "fzfg": false,
      "metar_trigger": false,
      "taf_trigger": false,
      "metar": "METAR ENVA 121520Z 09005KT CAVOK M06/M15 Q0994 NOSIG RMK WIND 670FT 14009KT",
      "taf": "TAF ENVA 121100Z 1212/1312 10008KT CAVOK"
    },
    {
      "icao": "ENZV",
      "alert": "OK",
      "vis_m": 9999,
      "fzfg": false,
      "metar_trigger": false,
      "taf_trigger": false,
      "metar": "METAR ENZV 121520Z 35004KT 330V030 CAVOK M00/M11 Q0993 NOSIG",
      "taf": "TAF ENZV 121100Z 1212/1312 10005KT 9999 FEW020 BKN040"
    },
    {
      "icao": "EPGD",
      "alert": "OK",
      "vis_m": 1700,
      "fzfg": false,
      "metar_trigger": false,
      "taf_trigger": false,
      "metar": "METAR EPGD 121500Z 05007KT 1700 -RASN BR OVC001 M00/M00 Q0983",
      "taf": "TAF EPGD 121130Z 1212/1312 06008KT 3500 -SNRA BR OVC002"
    },
    {
      "icao": "EPKK",
      "alert": "OK",
      "vis_m": 9999,
      "fzfg": false,
      "metar_trigger": false,
      "taf_trigger": false,
      "metar": "METAR EPKK 121500Z 08003KT CAVOK 11/04 Q0983",
      "taf": "TAF EPKK 121430Z 1215/1315 VRB02KT CAVOK"
    },
    {
      "icao": "EPKT",
      "alert": "OK",
      "vis_m": 9999,
      "fzfg": false,
      "metar_trigger": false,
      "taf_trigger": false,
      "metar": "METAR EPKT 121500Z 17006KT CAVOK 10/04 Q0983",
      "taf": "TAF EPKT 121130Z 1212/1312 22011KT CAVOK"
    },
    {
      "icao": "EPLB",
      "alert": "OK",
      "vis_m": 9999,
      "fzfg": false,
      "metar_trigger": false,
      "taf_trigger": false,
      "metar": "METAR EPLB 121500Z 12002KT 9999 SCT046 05/04 Q0985",
      "taf": "TAF EPLB 121130Z 1212/1312 20010KT 9999 BKN028"
    },
    {
      "icao": "EPMO",
      "alert": "OK",
      "vis_m": 150,
      "fzfg": false,
      "metar_trigger": false,
      "taf_trigger": false,
      "metar": "METAR EPMO 121500Z 10004KT 0150 R08/0200N FG VV000 03/03 Q0984",
      "taf": ""
    },
    {
      "icao": "EPPO",
      "alert": "OK",
      "vis_m": 9000,
      "fzfg": false,
      "metar_trigger": false,
      "taf_trigger": false,
      "metar": "METAR EPPO 121500Z 12004KT 9000 BKN049 07/06 Q0980",
      "taf": "TAF EPPO 121130Z 1212/1312 13005KT 3000 BR BKN001"
    },
    {
      "icao": "EPRA",
      "alert": "OK",
      "vis_m": 9999,
      "fzfg": false,
      "metar_trigger": false,
      "taf_trigger": false,
      "metar": "METAR EPRA 121500Z 14006KT 9999 SCT037 07/04 Q0984",
      "taf": "TAF EPRA 121430Z 1215/1224 16005KT 9999 SCT045"
    },
    {
      "icao": "EPRZ",
      "alert": "OK",
      "vis_m": 9999,
      "fzfg": false,
      "metar_trigger": false,
      "taf_trigger": false,
      "metar": "METAR EPRZ 121500Z 18009KT CAVOK 09/04 Q0986",
      "taf": "TAF EPRZ 121130Z 1212/1312 20012KT CAVOK"
    },
    {
      "icao": "EPSC",
      "alert": "OK",
      "vis_m": 900,
      "fzfg": false,
      "metar_trigger": false,
      "taf_trigger": false,
      "metar": "METAR EPSC 121500Z 07004KT 0900 R31/1200N -RA FG OVC002 03/03 Q0980",
      "taf": "TAF EPSC 121130Z 1212/1312 07006KT 2500 -RA BR OVC003"
    },
    {
      "icao": "EPSY",
      "alert": "OK",
      "vis_m": 8000,
      "fzfg": false,
      "metar_trigger": false,
      "taf_trigger": false,
      "metar": "METAR EPSY 121500Z VRB02KT 8000 OVC009 03/02 Q0984",
      "taf": "TAF EPSY 121430Z 1215/1224 VRB02KT 9999 BKN010"
    },
    {
      "icao": "EPWA",
      "alert": "OK",
      "vis_m": 800,
      "fzfg": false,
      "metar_trigger": false,
      "taf_trigger": false,
      "metar": "METAR EPWA 121500Z 13005KT 0800 0400W R11/0550N -RA FG OVC002 04/04 Q0984 TEMPO 0300 FG",
      "taf": ""
    },
    {
      "icao": "EPWR",
      "alert": "OK",
      "vis_m": 9999,
      "fzfg": false,
      "metar_trigger": false,
      "taf_trigger": false,
      "metar": "METAR EPWR 121500Z 18008KT 9999 -RA FEW022 BKN038 10/05 Q0981",
      "taf": "TAF EPWR 121430Z 1215/1315 17010KT 9999 FEW022"
    },
    {
      "icao": "ESGG",
      "alert": "OK",
      "vis_m": 9999,
      "fzfg": false,
      "metar_trigger": false,
      "taf_trigger": false,
      "metar": "METAR ESGG 121520Z 04011KT 9999 OVC017 M04/M07 Q0990",
      "taf": "TAF ESGG 121430Z 1215/1315 04011KT 9999 BKN016"
    },
    {
      "icao": "ESKN",
      "alert": "OK",
      "vis_m": 9999,
      "fzfg": false,
      "metar_trigger": false,
      "taf_trigger": false,
      "metar": "METAR ESKN 121520Z 02008KT 350V050 9999 BKN018 M04/M08 Q0994",
      "taf": "TAF ESKN 121430Z 1215/1315 02010KT 9999 SCT045"
    },
    {
      "icao": "ESMS",
      "alert": "OK",
      "vis_m": 2500,
      "fzfg": false,
      "metar_trigger": false,
      "taf_trigger": false,
      "metar": "METAR ESMS 121520Z 07016KT 2500 -SN FEW007 SCT009 OVC013 M00/M01 Q0985",
      "taf": "TAF ESMS 121427Z 1215/1315 05015KT 4000 -SN BKN007"
    },
    {
      "icao": "ESSA",
      "alert": "OK",
      "vis_m": 9999,
      "fzfg": false,
      "metar_trigger": false,
      "taf_trigger": false,
      "metar": "METAR ESSA 121520Z 02012KT CAVOK M06/M12 Q0995 NOSIG",
      "taf": "TAF ESSA 121430Z 1215/1315 04012KT 9999 FEW030"
    },
    {
      "icao": "EYKA",
      "alert": "OK",
      "vis_m": 1800,
      "fzfg": false,
      "metar_trigger": false,
      "taf_trigger": false,
      "metar": "METAR EYKA 121520Z VRB02KT 1800 -FZDZ BR OVC002 M01/M01 Q0986",
      "taf": "TAF EYKA 121100Z 1212/1312 VRB04KT 3000 BR OVC002"
    },
    {
      "icao": "EYPA",
      "alert": "OK",
      "vis_m": 9999,
      "fzfg": false,
      "metar_trigger": false,
      "taf_trigger": false,
      "metar": "METAR EYPA 121520Z 06011KT 9999 OVC022 M04/M06 Q0987",
      "taf": "TAF EYPA 121100Z 1212/1312 06010KT 9000 SCT010 OVC015"
    },
    {
      "icao": "EYVI",
      "alert": "OK",
      "vis_m": 3100,
      "fzfg": false,
      "metar_trigger": false,
      "taf_trigger": false,
      "metar": "METAR EYVI 121520Z 10002KT 3100 -RA BR OVC006 00/M00 Q0986 NOSIG",
      "taf": "TAF EYVI 121100Z 1212/1312 VRB04KT 5000 SN BR OVC005"
    },
    {
      "icao": "GCFV",
      "alert": "OK",
      "vis_m": 9999,
      "fzfg": false,
      "metar_trigger": false,
      "taf_trigger": false,
      "metar": "METAR GCFV 121500Z 04007KT 9999 SCT015 19/15 Q1023",
      "taf": "TAF GCFV 121400Z 1215/1315 04008KT 9999 SCT015 TX23/1314Z TN17/1306Z"
    },
    {
      "icao": "GCLP",
      "alert": "OK",
      "vis_m": 9999,
      "fzfg": false,
      "metar_trigger": false,
      "taf_trigger": false,
      "metar": "METAR GCLP 121500Z 04012KT 9999 FEW020 21/16 Q1023 NOSIG",
      "taf": "TAF GCLP 121400Z 1215/1315 04005KT 9999 SCT020 TX23/1314Z TN16/1306Z"
    },
    {
      "icao": "GCTS",
      "alert": "OK",
      "vis_m": 9999,
      "fzfg": false,
      "metar_trigger": false,
      "taf_trigger": false,
      "metar": "METAR GCTS 121500Z 19006KT 110V260 9999 FEW020 22/16 Q1023 NOSIG",
      "taf": ""
    },
    {
      "icao": "GMAD",
      "alert": "OK",
      "vis_m": 5000,
      "fzfg": false,
      "metar_trigger": false,
      "taf_trigger": false,
      "metar": "METAR GMAD 121500Z 23006KT 190V260 5000 SCT006 BKN016 19/18 Q1020 NOSIG",
      "taf": "TAF GMAD 121100Z 1212/1318 26008KT 6000 SCT010 BKN016"
    },
    {
      "icao": "GMMN",
      "alert": "OK",
      "vis_m": 9999,
      "fzfg": false,
      "metar_trigger": false,
      "taf_trigger": false,
      "metar": "METAR GMMN 121500Z VRB02KT CAVOK 22/16 Q1021 NOSIG",
      "taf": "TAF GMMN 121100Z 1212/1318 14004KT 9999 BKN010"
    },
    {
      "icao": "GMMX",
      "alert": "OK",
      "vis_m": 9999,
      "fzfg": false,
      "metar_trigger": false,
      "taf_trigger": false,
      "metar": "METAR GMMX 121500Z VRB04KT CAVOK 25/12 Q1020 NOSIG",
      "taf": "TAF GMMX 121100Z 1212/1318 06006KT CAVOK"
    },
    {
      "icao": "HEGN",
      "alert": "OK",
      "vis_m": 9999,
      "fzfg": false,
      "metar_trigger": false,
      "taf_trigger": false,
      "metar": "METAR HEGN 121500Z 12005KT CAVOK 25/07 Q1014 NOSIG",
      "taf": "TAF HEGN 121100Z 1212/1318 36010KT CAVOK"
    },
    {
      "icao": "HEMA",
      "alert": "OK",
      "vis_m": 9999,
      "fzfg": false,
      "metar_trigger": false,
      "taf_trigger": false,
      "metar": "METAR HEMA 121500Z 04005KT CAVOK 23/10 Q1014 NOSIG",
      "taf": "TAF HEMA 121100Z 1212/1318 35010KT CAVOK"
    },
    {
      "icao": "HESH",
      "alert": "OK",
      "vis_m": 9999,
      "fzfg": false,
      "metar_trigger": false,
      "taf_trigger": false,
      "metar": "METAR HESH 121500Z 17010KT CAVOK 27/09 Q1013 NOSIG",
      "taf": "TAF HESH 121100Z 1212/1318 07010KT CAVOK"
    },
    {
      "icao": "HESX",
      "alert": "OK",
      "vis_m": 9999,
      "fzfg": false,
      "metar_trigger": false,
      "taf_trigger": false,
      "metar": "METAR HESX 121500Z 23017KT CAVOK 22/01 Q1011 NOSIG",
      "taf": "TAF HESX 121150Z 1212/1318 20015KT 7000 NSC"
    },
    {
      "icao": "LATI",
      "alert": "OK",
      "vis_m": 9999,
      "fzfg": false,
      "metar_trigger": false,
      "taf_trigger": false,
      "metar": "METAR LATI 121520Z VRB02KT 9999 FEW044 OVC078 13/08 Q0988 NOSIG",
      "taf": "TAF LATI 121100Z 1212/1312 16012KT 9999 SCT040 BKN070 TX15/1212Z TN07/1305Z"
    },
    {
      "icao": "LBPD",
      "alert": "OK",
      "vis_m": 9999,
      "fzfg": false,
      "metar_trigger": false,
      "taf_trigger": false,
      "metar": "METAR LBPD 121530Z AUTO 21002KT 9999 OVC026/// 07/05 Q0992 NOSIG",
      "taf": "TAF LBPD 121100Z 1212/1312 VRB04KT 9999 BKN015"
    },
    {
      "icao": "LBSF",
      "alert": "OK",
      "vis_m": 9999,
      "fzfg": false,
      "metar_trigger": false,
      "taf_trigger": false,
      "metar": "METAR LBSF 121530Z 10007KT 9999 BKN058 07/05 Q0990 NOSIG",
      "taf": "TAF LBSF 121100Z 1212/1312 VRB04KT 9999 BKN060"
    },
    {
      "icao": "LBWN",
      "alert": "OK",
      "vis_m": 2200,
      "fzfg": false,
      "metar_trigger": false,
      "taf_trigger": false,
      "metar": "METAR LBWN 121530Z 12006KT 2200 -RA BR SCT001 OVC022 07/07 Q0992 TEMPO 1500 BR BKN001",
      "taf": "TAF LBWN 121100Z 1212/1312 11010KT 9999 SCT045"
    },
    {
      "icao": "LCLK",
      "alert": "OK",
      "vis_m": 9999,
      "fzfg": false,
      "metar_trigger": false,
      "taf_trigger": false,
      "metar": "METAR LCLK 121500Z 22011KT 9999 FEW025 BKN070 18/16 Q1008 NOSIG",
      "taf": "TAF LCLK 121130Z 1212/1312 20019KT 9999 FEW025 SCT045"
    },
    {
      "icao": "LCPH",
      "alert": "OK",
      "vis_m": 9999,
      "fzfg": false,
      "metar_trigger": false,
      "taf_trigger": false,
      "metar": "METAR LCPH 121500Z 22008KT 170V240 9999 BKN070 18/15 Q1008 NOSIG",
      "taf": "TAF LCPH 121130Z 1212/1312 21015KT 8000 -RA FEW025 SCT045"
    },
    {
      "icao": "LEAL",
      "alert": "OK",
      "vis_m": 9999,
      "fzfg": false,
      "metar_trigger": false,
      "taf_trigger": false,
      "metar": "METAR LEAL 121500Z 29015KT 260V330 9999 FEW025 23/02 Q1013 NOSIG",
      "taf": "TAF LEAL 121100Z 1212/1312 28015KT 9999 FEW030 TX23/1213Z TN09/1306Z"
    },
    {
      "icao": "LEBB",
      "alert": "OK",
      "vis_m": 9999,
      "fzfg": false,
      "metar_trigger": false,
      "taf_trigger": false,
      "metar": "METAR LEBB 121500Z 30014KT CAVOK 17/04 Q1009 NOSIG",
      "taf": "TAF LEBB 121100Z 1212/1312 28013KT 9999 FEW060 TX17/1214Z TN09/1309Z"
    },
    {
      "icao": "LEBL",
      "alert": "OK",
      "vis_m": 9999,
      "fzfg": false,
      "metar_trigger": false,
      "taf_trigger": false,
      "metar": "METAR LEBL 121500Z 29024KT 9999 FEW020 19/02 Q1004 NOSIG",
      "taf": "TAF LEBL 121100Z 1212/1312 29025KT 9999 FEW020 TX20/1212Z TN10/1306Z"
    },
    {
      "icao": "LECH",
      "alert": "OK",
      "vis_m": 9000,
      "fzfg": false,
      "metar_trigger": false,
      "taf_trigger": false,
      "metar": "METAR LECH 121500Z AUTO 27017KT 240V320 9000 NCD 18/M02 Q1010",
      "taf": ""
    },
    {
      "icao": "LEMD",
      "alert": "OK",
      "vis_m": 9999,
      "fzfg": false,
      "metar_trigger": false,
      "taf_trigger": false,
      "metar": "METAR LEMD 121500Z 21011KT 190V250 9999 FEW045 13/05 Q1014 NOSIG",
      "taf": "TAF LEMD 121100Z 1212/1318 26012KT 9999 FEW030 TX13/1215Z TN08/1307Z"
    },
    {
      "icao": "LEMG",
      "alert": "OK",
      "vis_m": 9999,
      "fzfg": false,
      "metar_trigger": false,
      "taf_trigger": false,
      "metar": "METAR LEMG 121500Z 30009G21KT 280V340 9999 FEW052 20/10 Q1017 NOSIG",
      "taf": "TAF LEMG 121100Z 1212/1312 30012KT 9999 FEW030 TX23/1214Z TN14/1307Z"
    },
    {
      "icao": "LEVC",
      "alert": "OK",
      "vis_m": 9999,
      "fzfg": false,
      "metar_trigger": false,
      "taf_trigger": false,
      "metar": "METAR LEVC 121500Z 29018G30KT CAVOK 20/02 Q1012 NOSIG",
      "taf": "TAF LEVC 121100Z 1212/1312 29015KT 9999 FEW045 TX21/1214Z TN12/1306Z"
    },
    {
      "icao": "LEXJ",
      "alert": "OK",
      "vis_m": 9999,
      "fzfg": false,
      "metar_trigger": false,
      "taf_trigger": false,
      "metar": "METAR LEXJ 121500Z 29017KT 9999 FEW050 15/06 Q1009",
      "taf": "TAF LEXJ 121400Z 1215/1315 28015KT 9999 FEW060 TX17/1215Z TN10/1309Z"
    },
    {
      "icao": "LEZG",
      "alert": "OK",
      "vis_m": 9999,
      "fzfg": false,
      "metar_trigger": false,
      "taf_trigger": false,
      "metar": "METAR LEZG 121500Z 28018KT 260V320 9999 SCT075 17/01 Q1009 NOSIG",
      "taf": "TAF LEZG 121100Z 1212/1312 28015KT 9999 FEW050 TX18/1212Z TN08/1306Z"
    },
    {
      "icao": "LEZL",
      "alert": "OK",
      "vis_m": 9999,
      "fzfg": false,
      "metar_trigger": false,
      "taf_trigger": false,
      "metar": "METAR LEZL 121500Z 23009KT 9999 FEW038 19/12 Q1019 NOSIG",
      "taf": "TAF LEZL 121400Z 1215/1315 24010KT CAVOK TX20/1215Z TN12/1307Z"
    },
    {
      "icao": "LFBD",
      "alert": "OK",
      "vis_m": 7000,
      "fzfg": false,
      "metar_trigger": false,
      "taf_trigger": false,
      "metar": "METAR LFBD 121500Z AUTO 32019KT 7000 -RA FEW021/// SCT026/// BKN031/// //////CB 10/07 Q1005 TEMPO 28025G40KT 1200 TSRA BKN014 BKN020CB",
      "taf": "TAF LFBD 121100Z 1212/1318 28015G30KT 9999 BKN030 TX13/1214Z TN08/1307Z"
    },
    {
      "icao": "LFLL",
      "alert": "OK",
      "vis_m": 9999,
      "fzfg": false,
      "metar_trigger": false,
      "taf_trigger": false,
      "metar": "METAR LFLL 121500Z 26009KT 9999 -RA FEW020 FEW030TCU SCT033 BKN053 09/06 Q0998 TEMPO 29015G25KT 4000 SHRA BKN035TCU",
      "taf": "TAF LFLL 121100Z 1212/1318 27012KT 9999 BKN040"
    },
    {
      "icao": "LFLS",
      "alert": "OK",
      "vis_m": 3500,
      "fzfg": false,
      "metar_trigger": false,
      "taf_trigger": false,
      "metar": "METAR LFLS 121500Z AUTO 32013KT 3500 +RA BR FEW009/// SCT013/// BKN019/// //////CB 07/05 Q0999 TEMPO 28015G25KT 2000 +SHRA",
      "taf": "TAF LFLS 121400Z 1215/1315 20012KT 9999 BKN045"
    },
    {
      "icao": "LFMN",
      "alert": "OK",
      "vis_m": 9999,
      "fzfg": false,
      "metar_trigger": false,
      "taf_trigger": false,
      "metar": "METAR LFMN 121500Z 10012KT 9999 FEW050 BKN230 14/10 Q0988 BECMG 27020G30KT",
      "taf": "TAF LFMN 121400Z 1215/1321 09014KT CAVOK"
    },
    {
      "icao": "LFOB",
      "alert": "OK",
      "vis_m": 9000,
      "fzfg": false,
      "metar_trigger": false,
      "taf_trigger": false,
      "metar": "METAR LFOB 121500Z AUTO 27016KT 9000 -RA BKN017/// BKN025/// BKN035/// //////TCU 10/08 Q0989 TEMPO 28020G30KT 3000 SHRA BKN014TCU",
      "taf": "TAF LFOB 121100Z 1212/1312 28010G20KT 9999 BKN020"
    },
    {
      "icao": "LFPO",
      "alert": "OK",
      "vis_m": 9999,
      "fzfg": false,
      "metar_trigger": false,
      "taf_trigger": false,
      "metar": "METAR LFPO 121500Z 27017KT 9999 FEW033TCU SCT033 SCT050 10/07 Q0990 TEMPO 26015G30KT 3500 -SHRA SCT030CB",
      "taf": "TAF LFPO 121100Z 1212/1318 26015G30KT 9999 BKN020"
    },
    {
      "icao": "LFSB",
      "alert": "OK",
      "vis_m": 9999,
      "fzfg": false,
      "metar_trigger": false,
      "taf_trigger": false,
      "metar": "METAR LFSB 121500Z AUTO 25017KT 9999 FEW032/// SCT048/// OVC130/// //////CB 11/06 Q0991 TEMPO 26020G35KT SHRA",
      "taf": "TAF LFSB 121100Z 1212/1312 25015G25KT 9999 SCT030 BKN050"
    },
    {
      "icao": "LGAV",
      "alert": "OK",
      "vis_m": 9999,
      "fzfg": false,
      "metar_trigger": false,
      "taf_trigger": false,
      "metar": "METAR LGAV 121520Z 20010KT 9999 FEW025 SCT070 16/08 Q0994 NOSIG",
      "taf": "TAF LGAV 121100Z 1212/1312 25013KT 9999 SCT025 SCT070"
    },
    {
      "icao": "LGTS",
      "alert": "OK",
      "vis_m": 9999,
      "fzfg": false,
      "metar_trigger": false,
      "taf_trigger": false,
      "metar": "METAR LGTS 121520Z 17006KT 9999 FEW020 14/09 Q0991 NOSIG",
      "taf": "TAF LGTS 121100Z 1212/1312 14013KT 9999 SCT030"
    },
    {
      "icao": "LHBP",
      "alert": "OK",
      "vis_m": 9999,
      "fzfg": false,
      "metar_trigger": false,
      "taf_trigger": false,
      "metar": "METAR LHBP 121500Z 10007KT 9999 SCT044 BKN140 12/08 Q0986 NOSIG",
      "taf": "TAF LHBP 121115Z 1212/1312 14006KT 9999 SCT040 BKN070"
    },
    {
      "icao": "LHDC",
      "alert": "OK",
      "vis_m": 9999,
      "fzfg": false,
      "metar_trigger": false,
      "taf_trigger": false,
      "metar": "METAR LHDC 121445Z AUTO 16005KT 130V190 CAVOK 13/08 Q0988 NOSIG",
      "taf": ""
    },
    {
      "icao": "LIBD",
      "alert": "OK",
      "vis_m": 9000,
      "fzfg": false,
      "metar_trigger": false,
      "taf_trigger": false,
      "metar": "METAR LIBD 121520Z 20007KT 9000 -RA SCT040 11/09 Q0984",
      "taf": "TAF LIBD 121100Z 1212/1312 20008KT 9999 SCT040"
    },
    {
      "icao": "LIBG",
      "alert": "OK",
      "vis_m": 8000,
      "fzfg": false,
      "metar_trigger": false,
      "taf_trigger": false,
      "metar": "METAR LIBG 121450Z 23004KT 180V270 8000 -RA SCT025 BKN040 13/12 Q0986 RERA",
      "taf": "TAF LIBG 121400Z 1215/1224 17010KT 9999 SCT050"
    },
    {
      "icao": "LIBP",
      "alert": "OK",
      "vis_m": 9999,
      "fzfg": false,
      "metar_trigger": false,
      "taf_trigger": false,
      "metar": "METAR LIBP 121520Z AUTO 24004KT 9999 -RA FEW062/// SCT100/// BKN120/// 11/08 Q0986",
      "taf": "TAF LIBP 121100Z 1212/1312 VRB05KT 9999 BKN050"
    },
    {
      "icao": "LIBR",
      "alert": "OK",
      "vis_m": 6000,
      "fzfg": false,
      "metar_trigger": false,
      "taf_trigger": false,
      "metar": "METAR LIBR 121520Z 20012KT 6000 SCT020 12/10 Q0986",
      "taf": "TAF LIBR 121100Z 1212/1312 18013KT 9999 SCT050"
    },
    {
      "icao": "LICA",
      "alert": "OK",
      "vis_m": 9999,
      "fzfg": false,
      "metar_trigger": false,
      "taf_trigger": false,
      "metar": "METAR LICA 121520Z AUTO 26029G46KT 9999 BKN034/// 15/10 Q0989",
      "taf": "TAF LICA 121100Z 1212/1312 26025G40KT 9999 BKN020"
    },
    {
      "icao": "LICC",
      "alert": "OK",
      "vis_m": 9999,
      "fzfg": false,
      "metar_trigger": false,
      "taf_trigger": false,
      "metar": "METAR LICC 121520Z 28017G29KT 9999 SCT050 17/13 Q0993",
      "taf": "TAF LICC 121100Z 1212/1312 27022G35KT 9999 SCT030"
    },
    {
      "icao": "LICJ",
      "alert": "OK",
      "vis_m": 8000,
      "fzfg": false,
      "metar_trigger": false,
      "taf_trigger": false,
      "metar": "METAR LICJ 121520Z 26030KT 8000 SCT035 16/10 Q0995",
      "taf": "TAF LICJ 121100Z 1212/1312 25025G40KT 9999 SCT020"
    },
    {
      "icao": "LIMC",
      "alert": "OK",
      "vis_m": 9999,
      "fzfg": false,
      "metar_trigger": false,
      "taf_trigger": false,
      "metar": "METAR LIMC 121520Z 25005KT 9999 FEW025 11/06 Q0987 NOSIG",
      "taf": "TAF LIMC 121100Z 1212/1318 VRB05KT 7000 SCT030"
    },
    {
      "icao": "LIME",
      "alert": "OK",
      "vis_m": 9999,
      "fzfg": false,
      "metar_trigger": false,
      "taf_trigger": false,
      "metar": "METAR LIME 121520Z 25007KT 9999 SCT025 11/06 Q0987 NOSIG",
      "taf": "TAF LIME 121100Z 1212/1312 28012KT 7000 SCT020"
    },
    {
      "icao": "LIMF",
      "alert": "OK",
      "vis_m": 8000,
      "fzfg": false,
      "metar_trigger": false,
      "taf_trigger": false,
      "metar": "METAR LIMF 121520Z VRB02KT 8000 SCT030 12/05 Q0988",
      "taf": "TAF LIMF 121100Z 1212/1312 VRB05KT 7000 SCT020"
    },
    {
      "icao": "LIMJ",
      "alert": "OK",
      "vis_m": 9999,
      "fzfg": false,
      "metar_trigger": false,
      "taf_trigger": false,
      "metar": "METAR LIMJ 121520Z VRB02KT CAVOK 14/06 Q0987",
      "taf": "TAF LIMJ 121100Z 1212/1312 03010KT 9999 SCT016"
    },
    {
      "icao": "LIPE",
      "alert": "OK",
      "vis_m": 6000,
      "fzfg": false,
      "metar_trigger": false,
      "taf_trigger": false,
      "metar": "METAR LIPE 121520Z 27006KT 6000 BKN008 09/09 Q0988",
      "taf": "TAF LIPE 121100Z 1212/1312 28010KT 0100 FG BKN001"
    },
    {
      "icao": "LIPH",
      "alert": "OK",
      "vis_m": 9999,
      "fzfg": false,
      "metar_trigger": false,
      "taf_trigger": false,
      "metar": "METAR LIPH 121520Z VRB01KT CAVOK 12/08 Q0986",
      "taf": "TAF LIPH 121100Z 1212/1312 VRB05KT 4000 BR BKN020"
    },
    {
      "icao": "LIPQ",
      "alert": "OK",
      "vis_m": 5000,
      "fzfg": false,
      "metar_trigger": false,
      "taf_trigger": false,
      "metar": "METAR LIPQ 121520Z AUTO 24003KT 200V280 5000 -RA OVC005/// 11/11 Q0986",
      "taf": "TAF LIPQ 121100Z 1212/1312 VRB05KT 8000 BKN012"
    },
    {
      "icao": "LIPR",
      "alert": "OK",
      "vis_m": 3000,
      "fzfg": false,
      "metar_trigger": false,
      "taf_trigger": false,
      "metar": "METAR LIPR 121520Z 31013KT 3000 DZ BR BKN005 BKN025 10/10 Q0987",
      "taf": "TAF LIPR 121100Z 1212/1312 12006KT 9999 BKN040"
    },
    {
      "icao": "LIPX",
      "alert": "OK",
      "vis_m": 9999,
      "fzfg": false,
      "metar_trigger": false,
      "taf_trigger": false,
      "metar": "METAR LIPX 121520Z 25010KT 9999 SCT010 SCT030 11/08 Q0987",
      "taf": "TAF LIPX 121100Z 1212/1312 26010KT 9999 SCT030"
    },
    {
      "icao": "LIPY",
      "alert": "OK",
      "vis_m": 9999,
      "fzfg": false,
      "metar_trigger": false,
      "taf_trigger": false,
      "metar": "METAR LIPY 121520Z AUTO 23005KT 200V280 9999 -RA OVC038/// 13/11 Q0986",
      "taf": "TAF LIPY 121100Z 1212/1312 17007KT 9999 BKN060"
    },
    {
      "icao": "LIPZ",
      "alert": "OK",
      "vis_m": 9999,
      "fzfg": false,
      "metar_trigger": false,
      "taf_trigger": false,
      "metar": "METAR LIPZ 121520Z 35003KT 290V030 9999 SCT009 11/09 Q0986 NOSIG",
      "taf": "TAF LIPZ 121100Z 1212/1318 VRB05KT 6000 BKN015"
    },
    {
      "icao": "LIRF",
      "alert": "OK",
      "vis_m": 9999,
      "fzfg": false,
      "metar_trigger": false,
      "taf_trigger": false,
      "metar": "METAR LIRF 121520Z 29013KT 9999 SCT055 15/10 Q0987 NOSIG",
      "taf": "TAF LIRF 121100Z 1212/1318 VRB06KT 9999 FEW020"
    },
    {
      "icao": "LIRN",
      "alert": "OK",
      "vis_m": 9000,
      "fzfg": false,
      "metar_trigger": false,
      "taf_trigger": false,
      "metar": "METAR LIRN 121520Z 27010KT 9000 SCT020 BKN070 14/11 Q0986 NOSIG",
      "taf": "TAF LIRN 121100Z 1212/1312 26016KT 9999 SCT020"
    },
    {
      "icao": "LIRP",
      "alert": "OK",
      "vis_m": 9999,
      "fzfg": false,
      "metar_trigger": false,
      "taf_trigger": false,
      "metar": "METAR LIRP 121515Z 27010KT 9999 FEW020 15/11 Q0986 NOSIG",
      "taf": "TAF LIRP 121100Z 1212/1312 27010KT 9999 SCT020 SCT030"
    },
    {
      "icao": "LIRZ",
      "alert": "OK",
      "vis_m": 9999,
      "fzfg": false,
      "metar_trigger": false,
      "taf_trigger": false,
      "metar": "METAR LIRZ 121520Z AUTO 21004KT 9999 SCT042/// BKN066/// 11/10 Q0987",
      "taf": "TAF LIRZ 121100Z 1212/1312 25010KT 9999 BKN030"
    },
    {
      "icao": "LJLJ",
      "alert": "OK",
      "vis_m": 9999,
      "fzfg": false,
      "metar_trigger": false,
      "taf_trigger": false,
      "metar": "METAR LJLJ 121500Z 24003KT 220V290 9999 -RA SCT010 BKN023 09/07 Q0986 NOSIG",
      "taf": "TAF LJLJ 121100Z 1212/1312 VRB02KT 9999 SCT003 BKN033"
    },
    {
      "icao": "LKMT",
      "alert": "OK",
      "vis_m": 9999,
      "fzfg": false,
      "metar_trigger": false,
      "taf_trigger": false,
      "metar": "METAR LKMT 121500Z 21014KT 9999 SCT035 OVC041 10/05 Q0983 NOSIG",
      "taf": "TAF LKMT 121100Z 1212/1312 22012KT 9999 SCT025"
    },
    {
      "icao": "LKPR",
      "alert": "OK",
      "vis_m": 9999,
      "fzfg": false,
      "metar_trigger": false,
      "taf_trigger": false,
      "metar": "METAR LKPR 121500Z 19005KT 9999 -RA BKN032 09/05 Q0981 NOSIG",
      "taf": "TAF LKPR 121400Z 1215/1321 21011KT 9999 BKN035"
    },
    {
      "icao": "LLBG",
      "alert": "OK",
      "vis_m": 9999,
      "fzfg": false,
      "metar_trigger": false,
      "taf_trigger": false,
      "metar": "METAR LLBG 121520Z VRB03KT CAVOK 21/06 Q1012 NOSIG",
      "taf": "TAF LLBG 121100Z 1212/1312 23010KT CAVOK"
    },
    {
      "icao": "LMML",
      "alert": "OK",
      "vis_m": 9999,
      "fzfg": false,
      "metar_trigger": false,
      "taf_trigger": false,
      "metar": "METAR LMML 121515Z 27024G34KT 9999 VCTS SCT015CB 17/12 Q0999 TEMPO 5000 TSRA BKN015CB",
      "taf": ""
    },
    {
      "icao": "LOWW",
      "alert": "OK",
      "vis_m": 9999,
      "fzfg": false,
      "metar_trigger": false,
      "taf_trigger": false,
      "metar": "METAR LOWW 121520Z 14003KT 100V230 CAVOK 11/06 Q0984 NOSIG",
      "taf": "TAF LOWW 121415Z 1215/1321 VRB04KT 9999 FEW050 TX12/1314Z TN05/1321Z"
    },
    {
      "icao": "LPFR",
      "alert": "OK",
      "vis_m": 9999,
      "fzfg": false,
      "metar_trigger": false,
      "taf_trigger": false,
      "metar": "METAR LPFR 121500Z 24011KT 9999 FEW010 SCT025 17/15 Q1019",
      "taf": "TAF LPFR 121100Z 1212/1312 27007KT 9999 FEW008 SCT020"
    },
    {
      "icao": "LPMA",
      "alert": "OK",
      "vis_m": 9999,
      "fzfg": false,
      "metar_trigger": false,
      "taf_trigger": false,
      "metar": "METAR LPMA 121500Z 01007KT 310V050 9999 SCT016 20/11 Q1022",
      "taf": "TAF LPMA 121100Z 1212/1312 VRB05KT 9999 SCT015 SCT030"
    },
    {
      "icao": "LPPR",
      "alert": "OK",
      "vis_m": 5000,
      "fzfg": false,
      "metar_trigger": false,
      "taf_trigger": false,
      "metar": "METAR LPPR 121500Z 20010KT 5000 BR BKN011 BKN020 14/12 Q1016",
      "taf": ""
    },
    {
      "icao": "LPPS",
      "alert": "OK",
      "vis_m": 9999,
      "fzfg": false,
      "metar_trigger": false,
      "taf_trigger": false,
      "metar": "METAR LPPS 121500Z 28009KT 9999 SCT015 BKN030 18/12 Q1023",
      "taf": "TAF LPPS 121100Z 1212/1318 20008KT 9999 SCT015 SCT030"
    },
    {
      "icao": "LPPT",
      "alert": "OK",
      "vis_m": 9999,
      "fzfg": false,
      "metar_trigger": false,
      "taf_trigger": false,
      "metar": "METAR LPPT 121500Z 22011KT 190V260 9999 SCT018 16/12 Q1018",
      "taf": "TAF LPPT 121100Z 1212/1318 25008KT 9999 SCT020"
    },
    {
      "icao": "LQBK",
      "alert": "OK",
      "vis_m": 9999,
      "fzfg": false,
      "metar_trigger": false,
      "taf_trigger": false,
      "metar": "METAR LQBK 121500Z 19003KT CAVOK 16/05 Q0985 NOSIG",
      "taf": "TAF LQBK 121100Z 1212/1312 29008KT 9999 SCT045 TX18/1213Z TN05/1306Z"
    },
    {
      "icao": "LQSA",
      "alert": "OK",
      "vis_m": 9999,
      "fzfg": false,
      "metar_trigger": false,
      "taf_trigger": false,
      "metar": "METAR LQSA 121500Z 15010KT 9999 BKN055 12/05 Q0986 NOSIG",
      "taf": "TAF LQSA 121100Z 1212/1312 11005KT 9999 SCT050 TX13/1213Z TN02/1304Z"
    },
    {
      "icao": "LQTZ",
      "alert": "OK",
      "vis_m": 9999,
      "fzfg": false,
      "metar_trigger": false,
      "taf_trigger": false,
      "metar": "METAR LQTZ 121500Z 26006KT 230V290 9999 BKN065 16/03 Q0986",
      "taf": "TAF LQTZ 121100Z 1212/1312 10005KT 9999 SCT055 TX18/1213Z TN06/1306Z"
    },
    {
      "icao": "LRBC",
      "alert": "OK",
      "vis_m": 6000,
      "fzfg": false,
      "metar_trigger": false,
      "taf_trigger": false,
      "metar": "METAR LRBC 121500Z 17008KT 6000 NSC 05/04 Q0991",
      "taf": "TAF LRBC 121400Z 1215/1224 17010KT 7000 NSC"
    },
    {
      "icao": "LRBS",
      "alert": "OK",
      "vis_m": 5000,
      "fzfg": false,
      "metar_trigger": false,
      "taf_trigger": false,
      "metar": "METAR LRBS 121500Z 09004KT 5000 -RA BR NSC 07/05 Q0992 NOSIG",
      "taf": "TAF LRBS 121100Z 1212/1312 VRB04KT CAVOK"
    },
    {
      "icao": "LRBV",
      "alert": "OK",
      "vis_m": 9999,
      "fzfg": false,
      "metar_trigger": false,
      "taf_trigger": false,
      "metar": "METAR LRBV 121500Z 19010KT CAVOK 10/02 Q0990",
      "taf": "TAF LRBV 121400Z 1215/1224 21015KT CAVOK"
    },
    {
      "icao": "LRCL",
      "alert": "OK",
      "vis_m": 9999,
      "fzfg": false,
      "metar_trigger": false,
      "taf_trigger": false,
      "metar": "METAR LRCL 121500Z 15006KT 120V180 9999 BKN060 12/03 Q0989",
      "taf": "TAF LRCL 121400Z 1215/1224 16008KT CAVOK"
    },
    {
      "icao": "LRCV",
      "alert": "OK",
      "vis_m": 2500,
      "fzfg": false,
      "metar_trigger": false,
      "taf_trigger": false,
      "metar": "METAR LRCV 121500Z 24003KT 180V260 2500 BR SCT005 03/02 Q0992",
      "taf": "TAF LRCV 121400Z 1215/1224 VRB04KT 3000 BR BKN005"
    },
    {
      "icao": "LRIA",
      "alert": "OK",
      "vis_m": 9999,
      "fzfg": false,
      "metar_trigger": false,
      "taf_trigger": false,
      "metar": "METAR LRIA 121500Z 14010KT CAVOK 07/04 Q0991",
      "taf": "TAF LRIA 121400Z 1215/1224 10010KT CAVOK"
    },
    {
      "icao": "LROP",
      "alert": "OK",
      "vis_m": 4000,
      "fzfg": false,
      "metar_trigger": false,
      "taf_trigger": false,
      "metar": "METAR LROP 121500Z 10005KT 4000 -RA BR NSC 07/06 Q0992 NOSIG",
      "taf": "TAF LROP 121100Z 1212/1312 VRB04KT CAVOK"
    },
    {
      "icao": "LRSB",
      "alert": "OK",
      "vis_m": 9999,
      "fzfg": false,
      "metar_trigger": false,
      "taf_trigger": false,
      "metar": "METAR LRSB 121500Z 17006KT 9999 SCT065 13/03 Q0989 NOSIG",
      "taf": "TAF LRSB 121100Z 1212/1312 VRB04KT CAVOK"
    },
    {
      "icao": "LRSM",
      "alert": "OK",
      "vis_m": 9999,
      "fzfg": false,
      "metar_trigger": false,
      "taf_trigger": false,
      "metar": "METAR LRSM 121500Z 13005KT CAVOK 12/06 Q0988",
      "taf": "TAF LRSM 121400Z 1215/1224 15006KT CAVOK"
    },
    {
      "icao": "LRSV",
      "alert": "OK",
      "vis_m": 9999,
      "fzfg": false,
      "metar_trigger": false,
      "taf_trigger": false,
      "metar": "METAR LRSV 121500Z 15005KT CAVOK 05/03 Q0989",
      "taf": "TAF LRSV 121400Z 1215/1224 16006KT CAVOK"
    },
    {
      "icao": "LRTM",
      "alert": "OK",
      "vis_m": 9999,
      "fzfg": false,
      "metar_trigger": false,
      "taf_trigger": false,
      "metar": "METAR LRTM 121500Z 08005KT CAVOK 12/03 Q0989",
      "taf": "TAF LRTM 121400Z 1215/1224 VRB04KT CAVOK"
    },
    {
      "icao": "LRTR",
      "alert": "OK",
      "vis_m": 9999,
      "fzfg": false,
      "metar_trigger": false,
      "taf_trigger": false,
      "metar": "METAR LRTR 121500Z 17011KT CAVOK 14/05 Q0988",
      "taf": "TAF LRTR 121100Z 1212/1312 18012KT CAVOK"
    },
    {
      "icao": "LTAC",
      "alert": "OK",
      "vis_m": 9999,
      "fzfg": false,
      "metar_trigger": false,
      "taf_trigger": false,
      "metar": "METAR LTAC 121520Z 17005KT 130V210 9999 SCT030 SCT180 09/05 Q1000 NOSIG RMK RWY21C 18008KT 150V220 RWY03L 17003KT 130V210 RWY21R 17009KT RWY03R 16005KT RWY21L 18007KT",
      "taf": "TAF LTAC 121040Z 1212/1312 VRB02KT 9999 SCT040 BKN100"
    },
    {
      "icao": "LTFM",
      "alert": "OK",
      "vis_m": 9999,
      "fzfg": false,
      "metar_trigger": false,
      "taf_trigger": false,
      "metar": "METAR LTFM 121520Z 18014KT 9999 -SHRA BKN029 BKN090 11/10 Q0992 NOSIG RMK RWY17L 19016KT RWY34L 17014KT RWY16R 18015KT RWY36 18015KT RWY18 19018KT",
      "taf": "TAF LTFM 121040Z 1212/1318 18014KT 9999 -SHRA BKN028 BKN080"
    },
    {
      "icao": "LUKK",
      "alert": "OK",
      "vis_m": 6000,
      "fzfg": false,
      "metar_trigger": false,
      "taf_trigger": false,
      "metar": "METAR LUKK 121500Z 16007KT 6000 FEW012 06/05 Q0993 NOSIG",
      "taf": "TAF LUKK 121117Z 1212/1312 15008KT 9999 BKN015"
    },
    {
      "icao": "LWOH",
      "alert": "OK",
      "vis_m": 9999,
      "fzfg": false,
      "metar_trigger": false,
      "taf_trigger": false,
      "metar": "METAR LWOH 121520Z 30003KT 270V330 9999 FEW020 BKN035 09/06 Q0990",
      "taf": "TAF LWOH 121400Z 1215/1315 14010KT 9999 SCT020 BKN040"
    },
    {
      "icao": "LWSK",
      "alert": "OK",
      "vis_m": 9999,
      "fzfg": false,
      "metar_trigger": false,
      "taf_trigger": false,
      "metar": "METAR LWSK 121520Z 14004KT 110V170 9999 FEW032 BKN068 12/07 Q0990 NOSIG",
      "taf": "TAF LWSK 121400Z 1215/1315 VRB02KT 9999 SCT030 BKN060"
    },
    {
      "icao": "LYBE",
      "alert": "OK",
      "vis_m": 9999,
      "fzfg": false,
      "metar_trigger": false,
      "taf_trigger": false,
      "metar": "METAR LYBE 121500Z 16005KT CAVOK 16/03 Q0987 NOSIG",
      "taf": "TAF LYBE 121100Z 1212/1312 13010KT CAVOK TX17/1213Z TN05/1306Z"
    },
    {
      "icao": "LYNI",
      "alert": "OK",
      "vis_m": 9999,
      "fzfg": false,
      "metar_trigger": false,
      "taf_trigger": false,
      "metar": "METAR LYNI 121500Z 14003KT 120V180 9999 BKN060 13/06 Q0988 NOSIG",
      "taf": "TAF LYNI 121100Z 1212/1312 12010KT 9999 SCT040 TX15/1212Z TN05/1306Z"
    },
    {
      "icao": "LYPG",
      "alert": "OK",
      "vis_m": 9999,
      "fzfg": false,
      "metar_trigger": false,
      "taf_trigger": false,
      "metar": "METAR LYPG 121500Z 26004KT 240V300 9999 FEW010 BKN030 OVC070 12/11 Q0989 TEMPO 5000 RA",
      "taf": "TAF LYPG 121100Z 1212/1312 16005KT 6000 RA FEW010 BKN030 OVC060 TX14/1312Z TN07/1305Z"
    },
    {
      "icao": "LZIB",
      "alert": "OK",
      "vis_m": 9999,
      "fzfg": false,
      "metar_trigger": false,
      "taf_trigger": false,
      "metar": "METAR LZIB 121500Z 02005KT 9999 FEW010 10/09 Q0984 NOSIG",
      "taf": "TAF LZIB 121115Z 1212/1312 10006KT 9999 SCT020"
    },
    {
      "icao": "LZKZ",
      "alert": "OK",
      "vis_m": 4500,
      "fzfg": false,
      "metar_trigger": false,
      "taf_trigger": false,
      "metar": "METAR LZKZ 121500Z 03002KT 4500 -RA BR BKN009 07/06 Q0988 NOSIG",
      "taf": "TAF LZKZ 121115Z 1212/1312 21005KT 2500 BR FEW003 OVC006"
    },
    {
      "icao": "LZTT",
      "alert": "OK",
      "vis_m": 9999,
      "fzfg": false,
      "metar_trigger": false,
      "taf_trigger": false,
      "metar": "METAR LZTT 121500Z 25006KT 220V280 9999 FEW023 SCT033 08/03 Q0985 NOSIG",
      "taf": "TAF LZTT 121115Z 1212/1312 25012KT 9999 SCT025"
    },
    {
      "icao": "OEJN",
      "alert": "OK",
      "vis_m": 9999,
      "fzfg": false,
      "metar_trigger": false,
      "taf_trigger": false,
      "metar": "METAR OEJN 121500Z 31008KT CAVOK 27/18 Q1012 NOSIG",
      "taf": "TAF OEJN 121100Z 1212/1318 28012KT CAVOK"
    },
    {
      "icao": "OEMA",
      "alert": "OK",
      "vis_m": 9999,
      "fzfg": false,
      "metar_trigger": false,
      "taf_trigger": false,
      "metar": "METAR OEMA 121500Z 25004KT CAVOK 30/05 Q1015 NOSIG",
      "taf": "TAF OEMA 121100Z 1212/1318 27008KT CAVOK"
    },
    {
      "icao": "OJAI",
      "alert": "OK",
      "vis_m": 5000,
      "fzfg": false,
      "metar_trigger": false,
      "taf_trigger": false,
      "metar": "METAR OJAI 121500Z 30004KT 5000 HZ NSC 17/05 Q1015 NOSIG",
      "taf": "TAF OJAI 121100Z 1212/1318 24014KT 4000 HZ FEW035"
    },
    {
      "icao": "OMAA",
      "alert": "OK",
      "vis_m": 9999,
      "fzfg": false,
      "metar_trigger": false,
      "taf_trigger": false,
      "metar": "METAR OMAA 121530Z 36008KT CAVOK 26/17 Q1016 NOSIG",
      "taf": "TAF OMAA 121100Z 1212/1318 16010KT 8000 NSC"
    },
    {
      "icao": "OMDB",
      "alert": "OK",
      "vis_m": 9999,
      "fzfg": false,
      "metar_trigger": false,
      "taf_trigger": false,
      "metar": "METAR OMDB 121530Z 02008KT CAVOK 25/16 Q1017 NOSIG",
      "taf": ""
    },
    {
      "icao": "UAAA",
      "alert": "OK",
      "vis_m": 1100,
      "fzfg": false,
      "metar_trigger": false,
      "taf_trigger": false,
      "metar": "SPECI UAAA 121514Z 26003MPS 1100 R23L/P2000U -SHSN BR BKN014CB OVC100 M04/M05 Q1021 NOSIG",
      "taf": "TAF UAAA 121107Z 1212/1312 32003MPS 2000 -SHSN BR BKN005 OVC011CB TX00/1309Z TNM05/1303Z"
    },
    {
      "icao": "UBBB",
      "alert": "OK",
      "vis_m": 9999,
      "fzfg": false,
      "metar_trigger": false,
      "taf_trigger": false,
      "metar": "METAR UBBB 121530Z 17016G26KT CAVOK 05/03 Q1013 NOSIG",
      "taf": "TAF UBBB 121055Z 1212/1312 17010KT 9999 SCT025 TX07/1212Z TN04/1301Z"
    },
    {
      "icao": "UDSG",
      "alert": "OK",
      "vis_m": 9999,
      "fzfg": false,
      "metar_trigger": false,
      "taf_trigger": false,
      "metar": "METAR UDSG 121500Z 28003KT 9999 OVC020 M01/M01 Q1014 NOSIG",
      "taf": "TAF UDSG 121058Z 1212/1312 VRB06KT 1500 BR OVC010"
    },
    {
      "icao": "UDYZ",
      "alert": "OK",
      "vis_m": 9000,
      "fzfg": false,
      "metar_trigger": false,
      "taf_trigger": false,
      "metar": "METAR UDYZ 121500Z 00000KT 9000 BKN014 04/03 Q1015 NOSIG",
      "taf": "TAF UDYZ 121100Z 1212/1312 VRB06KT 3500 BR OVC020"
    },
    {
      "icao": "UGKO",
      "alert": "OK",
      "vis_m": 9999,
      "fzfg": false,
      "metar_trigger": false,
      "taf_trigger": false,
      "metar": "METAR UGKO 121500Z 08016KT CAVOK 13/02 Q1006 NOSIG",
      "taf": "TAF UGKO 121100Z 1212/1312 08017KT CAVOK TX19/1311Z TN10/1302Z"
    }
  ]
}