{
  "ts_utc": "2026-02-26T12:38:49Z",
  "threshold_m": 150,
  "source": "stations_override.txt (ICAO list) + aviationweather.gov (METAR/TAF raw)",
  "station_count": 159,
  "stations": [
    {
      "icao": "BIKF",
      "alert": "OK",
      "vis_m": 9999,
      "fzfg": false,
      "metar_trigger": false,
      "taf_trigger": false,
      "metar": "METAR BIKF 261230Z 13023KT 9999 FEW011 SCT031 BKN120 04/02 Q0969",
      "taf": "TAF BIKF 261048Z 2612/2712 11015G25KT 9999 -SHRA SCT015 BKN025 TX05/2613Z TNM03/2700Z"
    },
    {
      "icao": "BKPR",
      "alert": "OK",
      "vis_m": 9999,
      "fzfg": false,
      "metar_trigger": false,
      "taf_trigger": false,
      "metar": "METAR BKPR 261230Z 04006KT 330V080 9999 FEW040 11/01 Q1027 NOSIG",
      "taf": "TAF BKPR 261130Z 2612/2712 04008KT 9999 FEW050"
    },
    {
      "icao": "EBCI",
      "alert": "OK",
      "vis_m": 9999,
      "fzfg": false,
      "metar_trigger": false,
      "taf_trigger": false,
      "metar": "METAR EBCI 261220Z 21012KT 9999 FEW030 17/10 Q1021 NOSIG",
      "taf": "TAF EBCI 261110Z 2612/2718 22010KT 9999 FEW025"
    },
    {
      "icao": "EDDB",
      "alert": "OK",
      "vis_m": 9999,
      "fzfg": false,
      "metar_trigger": false,
      "taf_trigger": false,
      "metar": "METAR EDDB 261220Z AUTO 21012KT CAVOK 14/07 Q1020 NOSIG",
      "taf": "TAF EDDB 261100Z 2612/2712 19008KT CAVOK"
    },
    {
      "icao": "EDDH",
      "alert": "OK",
      "vis_m": 9999,
      "fzfg": false,
      "metar_trigger": false,
      "taf_trigger": false,
      "metar": "METAR EDDH 261220Z AUTO 21012KT 9999 FEW041 15/10 Q1017 NOSIG",
      "taf": "TAF EDDH 261100Z 2612/2718 23010KT CAVOK"
    },
    {
      "icao": "EDDK",
      "alert": "OK",
      "vis_m": 9999,
      "fzfg": false,
      "metar_trigger": false,
      "taf_trigger": false,
      "metar": "METAR EDDK 261220Z AUTO 15009KT CAVOK 16/10 Q1021 NOSIG",
      "taf": "TAF EDDK 261100Z 2612/2718 15006KT CAVOK"
    },
    {
      "icao": "EDDN",
      "alert": "OK",
      "vis_m": 9999,
      "fzfg": false,
      "metar_trigger": false,
      "taf_trigger": false,
      "metar": "METAR EDDN 261220Z AUTO VRB03KT 9999 BKN011 09/06 Q1025 BECMG SCT008",
      "taf": "TAF EDDN 261100Z 2612/2712 14007KT 9999 BKN005"
    },
    {
      "icao": "EDDS",
      "alert": "OK",
      "vis_m": 9999,
      "fzfg": false,
      "metar_trigger": false,
      "taf_trigger": false,
      "metar": "METAR EDDS 261220Z AUTO 07005KT 040V110 CAVOK 17/10 Q1023 NOSIG",
      "taf": "TAF EDDS 261100Z 2612/2712 18005KT CAVOK"
    },
    {
      "icao": "EDFH",
      "alert": "OK",
      "vis_m": 9999,
      "fzfg": false,
      "metar_trigger": false,
      "taf_trigger": false,
      "metar": "METAR EDFH 261220Z 27005KT 240V300 CAVOK 12/10 Q1023",
      "taf": "TAF EDFH 261100Z 2612/2712 28003KT 0800 FG OVC001"
    },
    {
      "icao": "EDJA",
      "alert": "OK",
      "vis_m": 9999,
      "fzfg": false,
      "metar_trigger": false,
      "taf_trigger": false,
      "metar": "METAR EDJA 261220Z 22009KT CAVOK 16/06 Q1025",
      "taf": "TAF EDJA 261100Z 2612/2621 24009KT CAVOK"
    },
    {
      "icao": "EDLW",
      "alert": "OK",
      "vis_m": 9999,
      "fzfg": false,
      "metar_trigger": false,
      "taf_trigger": false,
      "metar": "METAR EDLW 261220Z 19011KT CAVOK 16/09 Q1019",
      "taf": "TAF EDLW 261100Z 2612/2712 20010KT CAVOK"
    },
    {
      "icao": "EDNY",
      "alert": "OK",
      "vis_m": 9999,
      "fzfg": false,
      "metar_trigger": false,
      "taf_trigger": false,
      "metar": "METAR EDNY 261220Z 24005KT CAVOK 10/07 Q1026",
      "taf": "TAF EDNY 261100Z 2612/2621 24005KT CAVOK"
    },
    {
      "icao": "EDSB",
      "alert": "OK",
      "vis_m": 9999,
      "fzfg": false,
      "metar_trigger": false,
      "taf_trigger": false,
      "metar": "METAR EDSB 261220Z 14008KT CAVOK 12/10 Q1024",
      "taf": "TAF EDSB 261100Z 2612/2712 21004KT 9999 BKN005"
    },
    {
      "icao": "EETN",
      "alert": "OK",
      "vis_m": 9999,
      "fzfg": false,
      "metar_trigger": false,
      "taf_trigger": false,
      "metar": "METAR EETN 261220Z 19018G28KT 9999 -FZRA -SN OVC046 M01/M03 Q1015 TEMPO 19020G32KT",
      "taf": "TAF EETN 261130Z 2612/2712 19015G25KT 9000 SCT025 OVC030"
    },
    {
      "icao": "EFTU",
      "alert": "OK",
      "vis_m": 9999,
      "fzfg": false,
      "metar_trigger": false,
      "taf_trigger": false,
      "metar": "METAR EFTU 261220Z AUTO 21011KT 9999 -SHRA OVC004 //////CB 01/01 Q1010",
      "taf": "TAF EFTU 261132Z 2612/2712 21012G22KT 9999 -RA BKN005"
    },
    {
      "icao": "EGBB",
      "alert": "OK",
      "vis_m": 9999,
      "fzfg": false,
      "metar_trigger": false,
      "taf_trigger": false,
      "metar": "METAR EGBB 261220Z 21012G23KT 170V240 9999 BKN018 12/08 Q1012",
      "taf": "TAF EGBB 261059Z 2612/2712 21009KT 9999 SCT020"
    },
    {
      "icao": "EGGP",
      "alert": "OK",
      "vis_m": 9999,
      "fzfg": false,
      "metar_trigger": false,
      "taf_trigger": false,
      "metar": "METAR EGGP 261220Z 20010KT 9999 VCSH FEW032 BKN041 11/08 Q1008",
      "taf": ""
    },
    {
      "icao": "EGGW",
      "alert": "OK",
      "vis_m": 9999,
      "fzfg": false,
      "metar_trigger": false,
      "taf_trigger": false,
      "metar": "METAR EGGW 261220Z AUTO 22016KT 9999 BKN019 OVC024 11/08 Q1014",
      "taf": "TAF EGGW 261104Z 2612/2712 22016G26KT 9999 BKN022"
    },
    {
      "icao": "EGKK",
      "alert": "OK",
      "vis_m": 9999,
      "fzfg": false,
      "metar_trigger": false,
      "taf_trigger": false,
      "metar": "METAR EGKK 261220Z 22016G26KT 180V240 9999 BKN012 12/09 Q1017",
      "taf": "TAF EGKK 261059Z 2612/2718 22016G27KT 9999 BKN020"
    },
    {
      "icao": "EGNM",
      "alert": "OK",
      "vis_m": 9999,
      "fzfg": false,
      "metar_trigger": false,
      "taf_trigger": false,
      "metar": "METAR EGNM 261220Z 20019KT 9999 SCT012 SCT019 11/08 Q1007",
      "taf": "TAF EGNM 261056Z 2612/2712 22018G30KT 9999 BKN016"
    },
    {
      "icao": "EGPD",
      "alert": "OK",
      "vis_m": 4000,
      "fzfg": false,
      "metar_trigger": false,
      "taf_trigger": false,
      "metar": "METAR EGPD 261220Z 19015KT 4000 RA BKN013 10/08 Q0998 RERA BECMG 9999 NSW",
      "taf": ""
    },
    {
      "icao": "EGPF",
      "alert": "OK",
      "vis_m": 9999,
      "fzfg": false,
      "metar_trigger": false,
      "taf_trigger": false,
      "metar": "METAR EGPF 261220Z AUTO 20022KT 9999 -RA BKN014/// BKN024/// BKN036/// //////TCU 10/08 Q0999 RERA",
      "taf": "TAF EGPF 261059Z 2612/2712 20015G25KT 9999 BKN025"
    },
    {
      "icao": "EHBK",
      "alert": "OK",
      "vis_m": 9999,
      "fzfg": false,
      "metar_trigger": false,
      "taf_trigger": false,
      "metar": "METAR EHBK 261225Z AUTO 21011KT 180V250 9999 NSC 17/11 Q1020 NOSIG",
      "taf": "TAF EHBK 261100Z 2612/2718 20009KT CAVOK"
    },
    {
      "icao": "EHEH",
      "alert": "OK",
      "vis_m": 9999,
      "fzfg": false,
      "metar_trigger": false,
      "taf_trigger": false,
      "metar": "METAR EHEH 261225Z AUTO 22010KT 9999 NCD 18/10 Q1019 BLU NOSIG RMK TREND REMOTE BY EHWX",
      "taf": "TAF EHEH 261116Z 2612/2718 22010KT CAVOK"
    },
    {
      "icao": "EKBI",
      "alert": "OK",
      "vis_m": 7000,
      "fzfg": false,
      "metar_trigger": false,
      "taf_trigger": false,
      "metar": "METAR EKBI 261220Z AUTO 22009KT 7000 OVC005/// 09/08 Q1013",
      "taf": "TAF EKBI 261127Z 2612/2712 20012KT 4000 BR BKN005"
    },
    {
      "icao": "EKCH",
      "alert": "OK",
      "vis_m": 9999,
      "fzfg": false,
      "metar_trigger": false,
      "taf_trigger": false,
      "metar": "METAR EKCH 261220Z 21008KT 9999 BKN010 06/05 Q1015 TEMPO BKN008",
      "taf": "TAF EKCH 261127Z 2612/2712 18012KT 8000 SCT008 BKN015"
    },
    {
      "icao": "ENAL",
      "alert": "OK",
      "vis_m": 9999,
      "fzfg": false,
      "metar_trigger": false,
      "taf_trigger": false,
      "metar": "METAR ENAL 261220Z 19010KT 9999 -RA FEW030 BKN037 08/05 Q0997",
      "taf": "TAF ENAL 261100Z 2612/2621 18008KT 9999 FEW020 BKN030"
    },
    {
      "icao": "ENBR",
      "alert": "OK",
      "vis_m": 7000,
      "fzfg": false,
      "metar_trigger": false,
      "taf_trigger": false,
      "metar": "METAR ENBR 261220Z 17016KT 7000 -SHRA BKN003 07/06 Q1001 TEMPO 3000 RADZ BR RMK WIND 1200FT 17016KT",
      "taf": ""
    },
    {
      "icao": "ENGM",
      "alert": "OK",
      "vis_m": 9999,
      "fzfg": false,
      "metar_trigger": false,
      "taf_trigger": false,
      "metar": "METAR ENGM 261220Z 20007KT 9999 -RASN BKN003 02/00 Q1001 TEMPO 3000 BR BKN006",
      "taf": "TAF ENGM 261100Z 2612/2712 19008KT 5000 OVC003"
    },
    {
      "icao": "ENHD",
      "alert": "OK",
      "vis_m": 250,
      "fzfg": false,
      "metar_trigger": false,
      "taf_trigger": false,
      "metar": "METAR ENHD 261220Z 18011KT 0250 R13/0550N R31/0750N -RA FG VV001 07/07 Q1002",
      "taf": "TAF ENHD 261100Z 2612/2621 18015KT 7000 -DZRA SCT004 BKN005"
    },
    {
      "icao": "ENTC",
      "alert": "OK",
      "vis_m": 9999,
      "fzfg": false,
      "metar_trigger": false,
      "taf_trigger": false,
      "metar": "METAR ENTC 261220Z 22005KT 120V270 CAVOK M02/M07 Q1003 NOSIG RMK WIND 2600FT 16015KT",
      "taf": "TAF ENTC 261100Z 2612/2712 20014KT 9999 FEW055"
    },
    {
      "icao": "ENTO",
      "alert": "OK",
      "vis_m": 9999,
      "fzfg": false,
      "metar_trigger": false,
      "taf_trigger": false,
      "metar": "METAR ENTO 261220Z 21008KT 9999 FEW004 SCT006 03/03 Q1003 NOSIG",
      "taf": ""
    },
    {
      "icao": "ENVA",
      "alert": "OK",
      "vis_m": 9999,
      "fzfg": false,
      "metar_trigger": false,
      "taf_trigger": false,
      "metar": "METAR ENVA 261220Z VRB02KT 9999 BKN039 03/01 Q0998 NOSIG RMK WIND 670FT 14008KT",
      "taf": "TAF ENVA 261100Z 2612/2712 09005KT 9999 FEW030 BKN040"
    },
    {
      "icao": "ENZV",
      "alert": "OK",
      "vis_m": 9000,
      "fzfg": false,
      "metar_trigger": false,
      "taf_trigger": false,
      "metar": "METAR ENZV 261220Z 19013KT 9000 SCT002 OVC004 07/07 Q1004 BECMG SCT004 BKN006",
      "taf": ""
    },
    {
      "icao": "EPGD",
      "alert": "OK",
      "vis_m": 9999,
      "fzfg": false,
      "metar_trigger": false,
      "taf_trigger": false,
      "metar": "METAR EPGD 261230Z 17009KT CAVOK 07/M05 Q1022",
      "taf": "TAF EPGD 261130Z 2612/2712 19010KT CAVOK"
    },
    {
      "icao": "EPKK",
      "alert": "OK",
      "vis_m": 9999,
      "fzfg": false,
      "metar_trigger": false,
      "taf_trigger": false,
      "metar": "METAR EPKK 261230Z 09004KT 050V110 CAVOK 07/M04 Q1027",
      "taf": "TAF EPKK 261130Z 2612/2712 09010KT CAVOK"
    },
    {
      "icao": "EPKT",
      "alert": "OK",
      "vis_m": 9999,
      "fzfg": false,
      "metar_trigger": false,
      "taf_trigger": false,
      "metar": "METAR EPKT 261230Z 19008KT 150V210 CAVOK 09/M00 Q1026",
      "taf": "TAF EPKT 261130Z 2612/2712 18008KT CAVOK"
    },
    {
      "icao": "EPLB",
      "alert": "OK",
      "vis_m": 9999,
      "fzfg": false,
      "metar_trigger": false,
      "taf_trigger": false,
      "metar": "METAR EPLB 261230Z 15009KT CAVOK 03/M03 Q1029",
      "taf": "TAF EPLB 261130Z 2612/2712 18008KT CAVOK"
    },
    {
      "icao": "EPMO",
      "alert": "OK",
      "vis_m": 9999,
      "fzfg": false,
      "metar_trigger": false,
      "taf_trigger": false,
      "metar": "METAR EPMO 261230Z 15007KT 100V190 CAVOK 05/M03 Q1027",
      "taf": "TAF EPMO 261130Z 2612/2712 17008KT CAVOK"
    },
    {
      "icao": "EPPO",
      "alert": "OK",
      "vis_m": 9999,
      "fzfg": false,
      "metar_trigger": false,
      "taf_trigger": false,
      "metar": "METAR EPPO 261230Z 16010KT CAVOK 10/01 Q1023",
      "taf": "TAF EPPO 261130Z 2612/2712 16010KT CAVOK"
    },
    {
      "icao": "EPRA",
      "alert": "OK",
      "vis_m": 9999,
      "fzfg": false,
      "metar_trigger": false,
      "taf_trigger": false,
      "metar": "METAR EPRA 261230Z 15009KT 130V190 CAVOK 04/M04 Q1028",
      "taf": "TAF EPRA 261130Z 2612/2621 15008KT CAVOK"
    },
    {
      "icao": "EPRZ",
      "alert": "OK",
      "vis_m": 9999,
      "fzfg": false,
      "metar_trigger": false,
      "taf_trigger": false,
      "metar": "METAR EPRZ 261230Z 14007KT 110V170 CAVOK 06/M03 Q1028",
      "taf": "TAF EPRZ 261130Z 2612/2712 16008KT CAVOK"
    },
    {
      "icao": "EPSC",
      "alert": "OK",
      "vis_m": 9999,
      "fzfg": false,
      "metar_trigger": false,
      "taf_trigger": false,
      "metar": "METAR EPSC 261230Z 15012KT CAVOK 10/04 Q1020",
      "taf": "TAF EPSC 261130Z 2612/2712 15010KT CAVOK"
    },
    {
      "icao": "EPSY",
      "alert": "OK",
      "vis_m": 9999,
      "fzfg": false,
      "metar_trigger": false,
      "taf_trigger": false,
      "metar": "METAR EPSY 261230Z 20011KT CAVOK 02/M03 Q1026",
      "taf": "TAF EPSY 261130Z 2612/2621 18010KT CAVOK"
    },
    {
      "icao": "EPWA",
      "alert": "OK",
      "vis_m": 9999,
      "fzfg": false,
      "metar_trigger": false,
      "taf_trigger": false,
      "metar": "METAR EPWA 261230Z 16008KT CAVOK 06/M03 Q1028 NOSIG",
      "taf": "TAF EPWA 261130Z 2612/2712 15010KT CAVOK"
    },
    {
      "icao": "EPWR",
      "alert": "OK",
      "vis_m": 9999,
      "fzfg": false,
      "metar_trigger": false,
      "taf_trigger": false,
      "metar": "METAR EPWR 261230Z 14009KT 120V180 CAVOK 12/04 Q1024",
      "taf": "TAF EPWR 261130Z 2612/2712 13010KT CAVOK"
    },
    {
      "icao": "ESGG",
      "alert": "OK",
      "vis_m": 150,
      "fzfg": false,
      "metar_trigger": false,
      "taf_trigger": false,
      "metar": "METAR ESGG 261220Z 21016KT 0150 R03/0400N R21/0400N FG VV002 04/04 Q1009",
      "taf": "TAF ESGG 261130Z 2612/2712 20016KT 0300 FG VV002"
    },
    {
      "icao": "ESKN",
      "alert": "OK",
      "vis_m": 3700,
      "fzfg": false,
      "metar_trigger": false,
      "taf_trigger": false,
      "metar": "METAR ESKN 261220Z 13007KT 3700 BR OVC002 01/01 Q1009",
      "taf": "TAF ESKN 261130Z 2612/2712 13010KT 9999 BKN003"
    },
    {
      "icao": "ESMS",
      "alert": "OK",
      "vis_m": 9999,
      "fzfg": false,
      "metar_trigger": false,
      "taf_trigger": false,
      "metar": "METAR ESMS 261220Z 21011KT 9999 BKN010 06/05 Q1015",
      "taf": "TAF ESMS 261127Z 2612/2712 20012KT 8000 FEW006"
    },
    {
      "icao": "ESSA",
      "alert": "OK",
      "vis_m": 2000,
      "fzfg": false,
      "metar_trigger": false,
      "taf_trigger": false,
      "metar": "METAR ESSA 261220Z 18012KT 2000 BR OVC002 02/01 Q1008 TEMPO OVC003",
      "taf": "TAF ESSA 261130Z 2612/2712 18012KT 9000 -DZ BKN003"
    },
    {
      "icao": "EYKA",
      "alert": "OK",
      "vis_m": 9999,
      "fzfg": false,
      "metar_trigger": false,
      "taf_trigger": false,
      "metar": "METAR EYKA 261220Z 20008KT 150V250 9999 SCT017 M01/M05 Q1028",
      "taf": "TAF EYKA 261100Z 2612/2712 19008KT 9000 BKN015"
    },
    {
      "icao": "EYPA",
      "alert": "OK",
      "vis_m": 9999,
      "fzfg": false,
      "metar_trigger": false,
      "taf_trigger": false,
      "metar": "METAR EYPA 261220Z 18016KT CAVOK 02/M04 Q1023",
      "taf": "TAF EYPA 261100Z 2612/2712 18015G25KT 9000 NSC"
    },
    {
      "icao": "EYVI",
      "alert": "OK",
      "vis_m": 9999,
      "fzfg": false,
      "metar_trigger": false,
      "taf_trigger": false,
      "metar": "METAR EYVI 261220Z 20011KT 9999 BKN018 M01/M05 Q1028 NOSIG",
      "taf": "TAF EYVI 261100Z 2612/2712 19010G20KT 9000 BKN020"
    },
    {
      "icao": "GCFV",
      "alert": "OK",
      "vis_m": 9999,
      "fzfg": false,
      "metar_trigger": false,
      "taf_trigger": false,
      "metar": "METAR GCFV 261230Z 34023G34KT 9999 FEW020TCU SCT040 17/11 Q1017",
      "taf": "TAF GCFV 260800Z 2609/2709 33015KT 9999 SCT020 TX20/2614Z TN14/2706Z"
    },
    {
      "icao": "GCLP",
      "alert": "OK",
      "vis_m": 9999,
      "fzfg": false,
      "metar_trigger": false,
      "taf_trigger": false,
      "metar": "METAR GCLP 261230Z 35023KT 9999 SCT020 BKN035 20/11 Q1018 NOSIG",
      "taf": "TAF GCLP 260800Z 2609/2709 36015KT 9999 SCT020 TX19/2614Z TN14/2706Z"
    },
    {
      "icao": "GCTS",
      "alert": "OK",
      "vis_m": 9999,
      "fzfg": false,
      "metar_trigger": false,
      "taf_trigger": false,
      "metar": "METAR GCTS 261230Z VRB05KT 9999 SCT040 BKN060 19/11 Q1019 NOSIG",
      "taf": "TAF GCTS 260800Z 2609/2709 06009KT 9999 SCT020 TX22/2614Z TN14/2706Z"
    },
    {
      "icao": "GMAD",
      "alert": "OK",
      "vis_m": 8000,
      "fzfg": false,
      "metar_trigger": false,
      "taf_trigger": false,
      "metar": "METAR GMAD 261230Z 06005KT 8000 FEW020 BKN100 18/16 Q1012 NOSIG",
      "taf": "TAF GMAD 261100Z 2612/2718 07006KT 9999 SCT020 BKN080"
    },
    {
      "icao": "GMMN",
      "alert": "OK",
      "vis_m": 9999,
      "fzfg": false,
      "metar_trigger": false,
      "taf_trigger": false,
      "metar": "METAR GMMN 261230Z 03007KT CAVOK 20/12 Q1018 NOSIG",
      "taf": "TAF GMMN 260500Z 2606/2712 07006KT CAVOK"
    },
    {
      "icao": "GMMX",
      "alert": "OK",
      "vis_m": 6000,
      "fzfg": false,
      "metar_trigger": false,
      "taf_trigger": false,
      "metar": "METAR GMMX 261230Z 13019G31KT 100V160 6000 SCT026 BKN090 23/01 Q1016 TEMPO 3000 DU",
      "taf": "TAF GMMX 261100Z 2612/2718 06006KT 8000 SCT026 SCT080"
    },
    {
      "icao": "HEGN",
      "alert": "OK",
      "vis_m": 9999,
      "fzfg": false,
      "metar_trigger": false,
      "taf_trigger": false,
      "metar": "METAR HEGN 261200Z 36017KT CAVOK 24/08 Q1015 NOSIG",
      "taf": "TAF HEGN 261100Z 2612/2718 34018KT CAVOK"
    },
    {
      "icao": "HEMA",
      "alert": "OK",
      "vis_m": 9999,
      "fzfg": false,
      "metar_trigger": false,
      "taf_trigger": false,
      "metar": "METAR HEMA 261200Z 36016KT CAVOK 24/08 Q1014 NOSIG",
      "taf": "TAF HEMA 261100Z 2612/2718 36018KT CAVOK"
    },
    {
      "icao": "HESH",
      "alert": "OK",
      "vis_m": 9999,
      "fzfg": false,
      "metar_trigger": false,
      "taf_trigger": false,
      "metar": "METAR HESH 261200Z 03009KT CAVOK 25/07 Q1014 NOSIG",
      "taf": "TAF HESH 261100Z 2612/2718 02015KT CAVOK"
    },
    {
      "icao": "HESX",
      "alert": "OK",
      "vis_m": 9999,
      "fzfg": false,
      "metar_trigger": false,
      "taf_trigger": false,
      "metar": "METAR HESX 261200Z 34012KT 9999 SCT020 19/07 Q1019 NOSIG",
      "taf": "TAF HESX 261100Z 2612/2718 33010KT 9999 BKN025"
    },
    {
      "icao": "LATI",
      "alert": "OK",
      "vis_m": 9999,
      "fzfg": false,
      "metar_trigger": false,
      "taf_trigger": false,
      "metar": "METAR LATI 261220Z 33007KT 290V010 CAVOK 19/03 Q1024 NOSIG",
      "taf": "TAF LATI 261100Z 2612/2712 32010KT CAVOK TX18/2612Z TN03/2705Z"
    },
    {
      "icao": "LBPD",
      "alert": "OK",
      "vis_m": 9999,
      "fzfg": false,
      "metar_trigger": false,
      "taf_trigger": false,
      "metar": "METAR LBPD 261230Z AUTO 09006KT 050V130 9999 OVC085/// 09/02 Q1028 NOSIG",
      "taf": "TAF LBPD 261100Z 2612/2712 09010KT 9999 SCT040 BKN070"
    },
    {
      "icao": "LBSF",
      "alert": "OK",
      "vis_m": 9999,
      "fzfg": false,
      "metar_trigger": false,
      "taf_trigger": false,
      "metar": "METAR LBSF 261230Z VRB03KT 9999 SCT063 10/M04 Q1027 NOSIG",
      "taf": "TAF LBSF 261100Z 2612/2712 02006KT 9999 SCT050"
    },
    {
      "icao": "LBWN",
      "alert": "OK",
      "vis_m": 9999,
      "fzfg": false,
      "metar_trigger": false,
      "taf_trigger": false,
      "metar": "METAR LBWN 261230Z 34012KT 280V010 9999 SCT037 06/M02 Q1029 NOSIG",
      "taf": "TAF LBWN 261100Z 2612/2712 35010KT 9999 SCT040"
    },
    {
      "icao": "LCLK",
      "alert": "OK",
      "vis_m": 9999,
      "fzfg": false,
      "metar_trigger": false,
      "taf_trigger": false,
      "metar": "METAR LCLK 261230Z 34021KT 9999 FEW025 BKN050 17/05 Q1012 NOSIG",
      "taf": "TAF LCLK 261130Z 2612/2712 30018KT 9999 FEW025 SCT045"
    },
    {
      "icao": "LCPH",
      "alert": "OK",
      "vis_m": 9999,
      "fzfg": false,
      "metar_trigger": false,
      "taf_trigger": false,
      "metar": "METAR LCPH 261230Z 33019G30KT 9999 FEW025 FEW030TCU 15/02 Q1014 NOSIG",
      "taf": "TAF LCPH 261130Z 2612/2712 32018KT 9999 FEW030"
    },
    {
      "icao": "LEAL",
      "alert": "OK",
      "vis_m": 9999,
      "fzfg": false,
      "metar_trigger": false,
      "taf_trigger": false,
      "metar": "METAR LEAL 261230Z 09008KT 050V140 CAVOK 21/M02 Q1027 NOSIG",
      "taf": "TAF LEAL 261100Z 2612/2712 VRB04KT CAVOK TX21/2612Z TN06/2705Z"
    },
    {
      "icao": "LEBB",
      "alert": "OK",
      "vis_m": 9999,
      "fzfg": false,
      "metar_trigger": false,
      "taf_trigger": false,
      "metar": "METAR LEBB 261230Z 09006KT 060V140 CAVOK 23/08 Q1023 NOSIG",
      "taf": "TAF LEBB 261100Z 2612/2712 15008KT CAVOK TX25/2614Z TN07/2705Z"
    },
    {
      "icao": "LEBL",
      "alert": "OK",
      "vis_m": 9999,
      "fzfg": false,
      "metar_trigger": false,
      "taf_trigger": false,
      "metar": "METAR LEBL 261230Z 09007KT 070V150 9999 FEW016 15/10 Q1028 NOSIG",
      "taf": "TAF LEBL 261100Z 2612/2712 09006KT 9999 SCT015 TX15/2613Z TN07/2706Z"
    },
    {
      "icao": "LECH",
      "alert": "OK",
      "vis_m": 9000,
      "fzfg": false,
      "metar_trigger": false,
      "taf_trigger": false,
      "metar": "METAR LECH 261230Z AUTO 11007KT 080V160 9000 NCD 16/10 Q1027",
      "taf": ""
    },
    {
      "icao": "LEMD",
      "alert": "OK",
      "vis_m": 9999,
      "fzfg": false,
      "metar_trigger": false,
      "taf_trigger": false,
      "metar": "METAR LEMD 261230Z 29002KT CAVOK 19/03 Q1026 NOSIG",
      "taf": "TAF LEMD 261100Z 2612/2718 VRB04KT CAVOK TX21/2615Z TN02/2706Z"
    },
    {
      "icao": "LEMG",
      "alert": "OK",
      "vis_m": 9999,
      "fzfg": false,
      "metar_trigger": false,
      "taf_trigger": false,
      "metar": "METAR LEMG 261230Z 13005KT 070V180 9999 FEW025 17/11 Q1025 NOSIG",
      "taf": "TAF LEMG 261100Z 2612/2712 13010KT 9999 FEW015 SCT025 TX20/2614Z TN08/2707Z"
    },
    {
      "icao": "LEVC",
      "alert": "OK",
      "vis_m": 9999,
      "fzfg": false,
      "metar_trigger": false,
      "taf_trigger": false,
      "metar": "METAR LEVC 261230Z VRB02KT CAVOK 19/05 Q1027 NOSIG",
      "taf": "TAF LEVC 261100Z 2612/2712 VRB04KT CAVOK TX19/2612Z TN05/2705Z"
    },
    {
      "icao": "LEXJ",
      "alert": "OK",
      "vis_m": 9999,
      "fzfg": false,
      "metar_trigger": false,
      "taf_trigger": false,
      "metar": "METAR LEXJ 261230Z 05003KT 350V100 CAVOK 15/10 Q1024",
      "taf": "TAF LEXJ 260800Z 2609/2709 04009KT CAVOK TX17/2614Z TN09/2624Z"
    },
    {
      "icao": "LEZG",
      "alert": "OK",
      "vis_m": 9000,
      "fzfg": false,
      "metar_trigger": false,
      "taf_trigger": false,
      "metar": "METAR LEZG 261230Z VRB02KT 9000 NSC 16/07 Q1027 NOSIG",
      "taf": "TAF LEZG 261100Z 2612/2712 VRB04KT CAVOK TX20/2615Z TN06/2706Z"
    },
    {
      "icao": "LEZL",
      "alert": "OK",
      "vis_m": 9999,
      "fzfg": false,
      "metar_trigger": false,
      "taf_trigger": false,
      "metar": "METAR LEZL 261230Z 08008KT 050V120 CAVOK 22/09 Q1023 NOSIG",
      "taf": "TAF LEZL 260800Z 2609/2709 VRB03KT CAVOK TX24/2615Z TN10/2707Z"
    },
    {
      "icao": "LFBD",
      "alert": "OK",
      "vis_m": 9999,
      "fzfg": false,
      "metar_trigger": false,
      "taf_trigger": false,
      "metar": "METAR LFBD 261230Z AUTO 12008KT 9999 OVC004 11/10 Q1025 BECMG NSC",
      "taf": ""
    },
    {
      "icao": "LFLL",
      "alert": "OK",
      "vis_m": 9999,
      "fzfg": false,
      "metar_trigger": false,
      "taf_trigger": false,
      "metar": "METAR LFLL 261230Z 17007KT 120V220 CAVOK 17/07 Q1026 NOSIG",
      "taf": "TAF LFLL 261100Z 2612/2718 17009KT CAVOK"
    },
    {
      "icao": "LFLS",
      "alert": "OK",
      "vis_m": 9999,
      "fzfg": false,
      "metar_trigger": false,
      "taf_trigger": false,
      "metar": "METAR LFLS 261230Z AUTO 26005KT 230V300 CAVOK 15/08 Q1027 NOSIG",
      "taf": "TAF LFLS 260800Z 2609/2709 09006KT CAVOK"
    },
    {
      "icao": "LFMN",
      "alert": "OK",
      "vis_m": 9999,
      "fzfg": false,
      "metar_trigger": false,
      "taf_trigger": false,
      "metar": "METAR LFMN 261230Z 18006KT CAVOK 16/10 Q1027 NOSIG",
      "taf": "TAF LFMN 260800Z 2609/2715 33010KT CAVOK"
    },
    {
      "icao": "LFOB",
      "alert": "OK",
      "vis_m": 9999,
      "fzfg": false,
      "metar_trigger": false,
      "taf_trigger": false,
      "metar": "METAR LFOB 261230Z AUTO 21012KT 190V250 CAVOK 17/11 Q1021 NOSIG",
      "taf": "TAF LFOB 261100Z 2612/2712 20009KT CAVOK"
    },
    {
      "icao": "LFPO",
      "alert": "OK",
      "vis_m": 9999,
      "fzfg": false,
      "metar_trigger": false,
      "taf_trigger": false,
      "metar": "METAR LFPO 261230Z 20010KT CAVOK 17/11 Q1023 NOSIG",
      "taf": "TAF LFPO 261100Z 2612/2718 21010KT CAVOK"
    },
    {
      "icao": "LFSB",
      "alert": "OK",
      "vis_m": 9999,
      "fzfg": false,
      "metar_trigger": false,
      "taf_trigger": false,
      "metar": "METAR LFSB 261230Z AUTO 25010KT CAVOK 18/09 Q1025 NOSIG",
      "taf": "TAF LFSB 261100Z 2612/2712 24006KT CAVOK"
    },
    {
      "icao": "LGAV",
      "alert": "OK",
      "vis_m": 9999,
      "fzfg": false,
      "metar_trigger": false,
      "taf_trigger": false,
      "metar": "METAR LGAV 261220Z 03009KT 9999 FEW020 SCT040 BKN070 10/06 Q1026 NOSIG",
      "taf": "TAF LGAV 261100Z 2612/2712 03015KT 9999 SCT020"
    },
    {
      "icao": "LGTS",
      "alert": "OK",
      "vis_m": 9999,
      "fzfg": false,
      "metar_trigger": false,
      "taf_trigger": false,
      "metar": "METAR LGTS 261220Z 28008KT 9999 FEW030 16/02 Q1026 NOSIG",
      "taf": "TAF LGTS 261100Z 2612/2712 14013KT 9999 SCT025"
    },
    {
      "icao": "LHBP",
      "alert": "OK",
      "vis_m": 9999,
      "fzfg": false,
      "metar_trigger": false,
      "taf_trigger": false,
      "metar": "METAR LHBP 261230Z 14003KT 050V200 CAVOK 07/M03 Q1030 NOSIG",
      "taf": "TAF LHBP 261115Z 2612/2712 VRB03KT CAVOK"
    },
    {
      "icao": "LHDC",
      "alert": "OK",
      "vis_m": 9999,
      "fzfg": false,
      "metar_trigger": false,
      "taf_trigger": false,
      "metar": "METAR LHDC 261215Z AUTO VRB03KT CAVOK 08/M05 Q1030 NOSIG",
      "taf": "TAF LHDC 261115Z 2612/2621 VRB04KT CAVOK"
    },
    {
      "icao": "LIBD",
      "alert": "OK",
      "vis_m": 9999,
      "fzfg": false,
      "metar_trigger": false,
      "taf_trigger": false,
      "metar": "METAR LIBD 261220Z 34007KT 310V020 CAVOK 16/05 Q1026",
      "taf": "TAF LIBD 261100Z 2612/2712 33012KT CAVOK"
    },
    {
      "icao": "LIBG",
      "alert": "OK",
      "vis_m": 9999,
      "fzfg": false,
      "metar_trigger": false,
      "taf_trigger": false,
      "metar": "METAR LIBG 261150Z 01012KT 330V030 CAVOK 17/07 Q1026",
      "taf": "TAF LIBG 261100Z 2612/2621 34013KT CAVOK"
    },
    {
      "icao": "LIBP",
      "alert": "OK",
      "vis_m": 9999,
      "fzfg": false,
      "metar_trigger": false,
      "taf_trigger": false,
      "metar": "METAR LIBP 261220Z AUTO 05007KT 9999 NCD 16/08 Q1027",
      "taf": "TAF LIBP 261100Z 2612/2712 VRB05KT 9999 SCT040"
    },
    {
      "icao": "LIBR",
      "alert": "OK",
      "vis_m": 9999,
      "fzfg": false,
      "metar_trigger": false,
      "taf_trigger": false,
      "metar": "METAR LIBR 261220Z 33013KT 9999 BKN013 15/12 Q1026",
      "taf": "TAF LIBR 261100Z 2612/2712 34014KT CAVOK"
    },
    {
      "icao": "LICA",
      "alert": "OK",
      "vis_m": 9999,
      "fzfg": false,
      "metar_trigger": false,
      "taf_trigger": false,
      "metar": "METAR LICA 261220Z AUTO 26010KT 9999 OVC019/// 16/13 Q1027",
      "taf": "TAF LICA 261100Z 2612/2712 27010KT 9999 SCT020"
    },
    {
      "icao": "LICC",
      "alert": "OK",
      "vis_m": 9999,
      "fzfg": false,
      "metar_trigger": false,
      "taf_trigger": false,
      "metar": "METAR LICC 261220Z 08007KT CAVOK 17/14 Q1026",
      "taf": "TAF LICC 261100Z 2612/2712 09010KT CAVOK"
    },
    {
      "icao": "LICJ",
      "alert": "OK",
      "vis_m": 9999,
      "fzfg": false,
      "metar_trigger": false,
      "taf_trigger": false,
      "metar": "METAR LICJ 261220Z 03010KT CAVOK 16/12 Q1027",
      "taf": "TAF LICJ 261100Z 2612/2712 06010KT CAVOK"
    },
    {
      "icao": "LIMC",
      "alert": "OK",
      "vis_m": 9999,
      "fzfg": false,
      "metar_trigger": false,
      "taf_trigger": false,
      "metar": "METAR LIMC 261220Z 27003KT 230V020 CAVOK 15/07 Q1027 NOSIG",
      "taf": "TAF LIMC 261100Z 2612/2718 VRB04KT 8000 NSC"
    },
    {
      "icao": "LIME",
      "alert": "OK",
      "vis_m": 8000,
      "fzfg": false,
      "metar_trigger": false,
      "taf_trigger": false,
      "metar": "METAR LIME 261220Z 22005KT 180V250 8000 NSC 15/07 Q1027 NOSIG",
      "taf": "TAF LIME 261100Z 2612/2712 VRB05KT 7000 FEW030"
    },
    {
      "icao": "LIMF",
      "alert": "OK",
      "vis_m": 7000,
      "fzfg": false,
      "metar_trigger": false,
      "taf_trigger": false,
      "metar": "METAR LIMF 261220Z VRB02KT 7000 NSC 15/05 Q1027",
      "taf": "TAF LIMF 261100Z 2612/2712 VRB04KT 6000 NSC"
    },
    {
      "icao": "LIMJ",
      "alert": "OK",
      "vis_m": 9999,
      "fzfg": false,
      "metar_trigger": false,
      "taf_trigger": false,
      "metar": "METAR LIMJ 261220Z 19002KT 9999 FEW025 BKN040 15/11 Q1027",
      "taf": "TAF LIMJ 261100Z 2612/2712 VRB06KT 9999 SCT030"
    },
    {
      "icao": "LIPE",
      "alert": "OK",
      "vis_m": 7000,
      "fzfg": false,
      "metar_trigger": false,
      "taf_trigger": false,
      "metar": "METAR LIPE 261220Z 35003KT 300V040 7000 BKN026 14/08 Q1027",
      "taf": "TAF LIPE 261100Z 2612/2712 VRB04KT 5000 BR BKN025"
    },
    {
      "icao": "LIPH",
      "alert": "OK",
      "vis_m": 6000,
      "fzfg": false,
      "metar_trigger": false,
      "taf_trigger": false,
      "metar": "METAR LIPH 261220Z VRB03KT 6000 NSC 16/10 Q1027",
      "taf": "TAF LIPH 261100Z 2612/2712 VRB04KT 6000 NSC"
    },
    {
      "icao": "LIPQ",
      "alert": "OK",
      "vis_m": 9999,
      "fzfg": false,
      "metar_trigger": false,
      "taf_trigger": false,
      "metar": "METAR LIPQ 261220Z AUTO VRB04KT 9999 NCD 16/08 Q1027",
      "taf": "TAF LIPQ 261100Z 2612/2712 VRB04KT CAVOK"
    },
    {
      "icao": "LIPR",
      "alert": "OK",
      "vis_m": 7000,
      "fzfg": false,
      "metar_trigger": false,
      "taf_trigger": false,
      "metar": "METAR LIPR 261220Z 02006KT 340V050 7000 BKN030 13/08 Q1028",
      "taf": "TAF LIPR 261100Z 2612/2712 VRB04KT 5000 BR BKN025"
    },
    {
      "icao": "LIPX",
      "alert": "OK",
      "vis_m": 5000,
      "fzfg": false,
      "metar_trigger": false,
      "taf_trigger": false,
      "metar": "METAR LIPX 261220Z VRB03KT 5000 BR NSC 15/08 Q1027",
      "taf": "TAF LIPX 261100Z 2612/2712 VRB05KT 6000 NSC"
    },
    {
      "icao": "LIPY",
      "alert": "OK",
      "vis_m": 9000,
      "fzfg": false,
      "metar_trigger": false,
      "taf_trigger": false,
      "metar": "METAR LIPY 261220Z AUTO 01006KT 9000 NCD 14/10 Q1027",
      "taf": "TAF LIPY 261100Z 2612/2712 VRB04KT 7000 SCT030"
    },
    {
      "icao": "LIPZ",
      "alert": "OK",
      "vis_m": 400,
      "fzfg": false,
      "metar_trigger": false,
      "taf_trigger": false,
      "metar": "METAR LIPZ 261220Z 20003KT 150V240 0400 R04R/1400U FG VV001 08/08 Q1027 BECMG 1500 BCFG",
      "taf": "TAF LIPZ 261100Z 2612/2718 VRB04KT 0200 FG OVC001"
    },
    {
      "icao": "LIRF",
      "alert": "OK",
      "vis_m": 9999,
      "fzfg": false,
      "metar_trigger": false,
      "taf_trigger": false,
      "metar": "METAR LIRF 261220Z 25009KT 9999 FEW020 16/12 Q1027 NOSIG",
      "taf": "TAF LIRF 261100Z 2612/2718 27010KT CAVOK"
    },
    {
      "icao": "LIRN",
      "alert": "OK",
      "vis_m": 8000,
      "fzfg": false,
      "metar_trigger": false,
      "taf_trigger": false,
      "metar": "METAR LIRN 261220Z 17006KT 130V210 8000 NSC 17/12 Q1027 NOSIG",
      "taf": "TAF LIRN 261100Z 2612/2712 23010KT CAVOK"
    },
    {
      "icao": "LIRP",
      "alert": "OK",
      "vis_m": 9999,
      "fzfg": false,
      "metar_trigger": false,
      "taf_trigger": false,
      "metar": "METAR LIRP 261215Z 27007KT 9999 FEW030 17/12 Q1027 NOSIG",
      "taf": "TAF LIRP 261100Z 2612/2712 VRB04KT CAVOK"
    },
    {
      "icao": "LIRZ",
      "alert": "OK",
      "vis_m": 9999,
      "fzfg": false,
      "metar_trigger": false,
      "taf_trigger": false,
      "metar": "METAR LIRZ 261220Z AUTO VRB02KT 9999 NCD 17/09 Q1027",
      "taf": "TAF LIRZ 261100Z 2612/2712 VRB05KT 8000 FEW030"
    },
    {
      "icao": "LJLJ",
      "alert": "OK",
      "vis_m": 9999,
      "fzfg": false,
      "metar_trigger": false,
      "taf_trigger": false,
      "metar": "METAR LJLJ 261230Z VRB02KT CAVOK 14/04 Q1026 NOSIG",
      "taf": "TAF LJLJ 261100Z 2612/2712 VRB02KT CAVOK"
    },
    {
      "icao": "LKMT",
      "alert": "OK",
      "vis_m": 9999,
      "fzfg": false,
      "metar_trigger": false,
      "taf_trigger": false,
      "metar": "METAR LKMT 261230Z 24014KT CAVOK 09/03 Q1026 NOSIG",
      "taf": "TAF LKMT 261100Z 2612/2712 23012KT CAVOK"
    },
    {
      "icao": "LKPR",
      "alert": "OK",
      "vis_m": 9999,
      "fzfg": false,
      "metar_trigger": false,
      "taf_trigger": false,
      "metar": "METAR LKPR 261230Z 21003KT 140V270 CAVOK 11/04 Q1024 NOSIG",
      "taf": "TAF LKPR 261100Z 2612/2718 21006KT CAVOK"
    },
    {
      "icao": "LLBG",
      "alert": "OK",
      "vis_m": 9999,
      "fzfg": false,
      "metar_trigger": false,
      "taf_trigger": false,
      "metar": "METAR LLBG 261220Z 27019KT 240V300 9999 FEW035 SCT045 18/09 Q1015 NOSIG",
      "taf": "TAF LLBG 261107Z 2612/2712 29015KT 9999 FEW045 TX19/2612Z TN12/2704Z"
    },
    {
      "icao": "LMML",
      "alert": "OK",
      "vis_m": 9999,
      "fzfg": false,
      "metar_trigger": false,
      "taf_trigger": false,
      "metar": "METAR LMML 261215Z 19006KT 160V230 9999 FEW021 18/12 Q1027 NOSIG",
      "taf": "TAF LMML 261100Z 2612/2712 VRB05KT 9999 FEW015"
    },
    {
      "icao": "LOWW",
      "alert": "OK",
      "vis_m": 9999,
      "fzfg": false,
      "metar_trigger": false,
      "taf_trigger": false,
      "metar": "METAR LOWW 261220Z 15012KT CAVOK 09/02 Q1027 NOSIG",
      "taf": "TAF LOWW 261115Z 2612/2718 14012KT CAVOK TX11/2715Z TN00/2705Z"
    },
    {
      "icao": "LPFR",
      "alert": "OK",
      "vis_m": 9999,
      "fzfg": false,
      "metar_trigger": false,
      "taf_trigger": false,
      "metar": "METAR LPFR 261230Z 11014KT CAVOK 18/10 Q1023",
      "taf": "TAF LPFR 261100Z 2612/2712 11010KT CAVOK"
    },
    {
      "icao": "LPMA",
      "alert": "OK",
      "vis_m": 9999,
      "fzfg": false,
      "metar_trigger": false,
      "taf_trigger": false,
      "metar": "METAR LPMA 261230Z 02024G37KT 350V050 9999 SCT015 FEW018CB 17/09 Q1023",
      "taf": "TAF LPMA 261100Z 2612/2712 01018G30KT 9999 SCT015"
    },
    {
      "icao": "LPPR",
      "alert": "OK",
      "vis_m": 9999,
      "fzfg": false,
      "metar_trigger": false,
      "taf_trigger": false,
      "metar": "METAR LPPR 261230Z VRB02KT CAVOK 16/12 Q1025",
      "taf": "TAF LPPR 261100Z 2612/2712 30007KT CAVOK"
    },
    {
      "icao": "LPPS",
      "alert": "OK",
      "vis_m": 9999,
      "fzfg": false,
      "metar_trigger": false,
      "taf_trigger": false,
      "metar": "METAR LPPS 261230Z 02021KT 9999 SCT015 17/10 Q1024",
      "taf": "TAF LPPS 261100Z 2612/2718 01018KT 9999 SCT015"
    },
    {
      "icao": "LPPT",
      "alert": "OK",
      "vis_m": 9999,
      "fzfg": false,
      "metar_trigger": false,
      "taf_trigger": false,
      "metar": "METAR LPPT 261230Z 07006KT 020V100 CAVOK 18/13 Q1024",
      "taf": "TAF LPPT 261100Z 2612/2718 06007KT CAVOK"
    },
    {
      "icao": "LQBK",
      "alert": "OK",
      "vis_m": 9999,
      "fzfg": false,
      "metar_trigger": false,
      "taf_trigger": false,
      "metar": "METAR LQBK 261230Z 03004KT 320V100 CAVOK 14/03 Q1028 NOSIG",
      "taf": "TAF LQBK 261100Z 2612/2712 05005KT CAVOK TX15/2613Z TNM01/2705Z"
    },
    {
      "icao": "LQSA",
      "alert": "OK",
      "vis_m": 9999,
      "fzfg": false,
      "metar_trigger": false,
      "taf_trigger": false,
      "metar": "METAR LQSA 261230Z VRB02KT CAVOK 13/01 Q1027 NOSIG",
      "taf": "TAF LQSA 261100Z 2612/2712 VRB02KT CAVOK TX15/2614Z TN00/2705Z"
    },
    {
      "icao": "LQTZ",
      "alert": "OK",
      "vis_m": 9999,
      "fzfg": false,
      "metar_trigger": false,
      "taf_trigger": false,
      "metar": "METAR LQTZ 261230Z VRB03KT CAVOK 14/00 Q1028",
      "taf": "TAF LQTZ 261100Z 2612/2712 10006KT CAVOK TX15/2614Z TN00/2706Z"
    },
    {
      "icao": "LRBC",
      "alert": "OK",
      "vis_m": 9999,
      "fzfg": false,
      "metar_trigger": false,
      "taf_trigger": false,
      "metar": "METAR LRBC 261230Z 35012KT 9999 FEW016 SCT024 BKN041 03/M00 Q1030",
      "taf": "TAF LRBC 261100Z 2612/2621 34012KT 9999 BKN020 OVC045"
    },
    {
      "icao": "LRBS",
      "alert": "OK",
      "vis_m": 9999,
      "fzfg": false,
      "metar_trigger": false,
      "taf_trigger": false,
      "metar": "METAR LRBS 261230Z VRB02KT 9999 FEW042 05/M04 Q1031 NOSIG",
      "taf": "TAF LRBS 261100Z 2612/2712 VRB04KT CAVOK"
    },
    {
      "icao": "LRBV",
      "alert": "OK",
      "vis_m": 9999,
      "fzfg": false,
      "metar_trigger": false,
      "taf_trigger": false,
      "metar": "METAR LRBV 261230Z VRB02KT 9999 BKN044 02/M08 Q1029",
      "taf": "TAF LRBV 261100Z 2612/2621 VRB04KT 9999 SCT050"
    },
    {
      "icao": "LRCL",
      "alert": "OK",
      "vis_m": 9999,
      "fzfg": false,
      "metar_trigger": false,
      "taf_trigger": false,
      "metar": "METAR LRCL 261230Z VRB03KT 9999 FEW065 05/M07 Q1029",
      "taf": "TAF LRCL 261100Z 2612/2621 VRB04KT CAVOK"
    },
    {
      "icao": "LRCV",
      "alert": "OK",
      "vis_m": 9999,
      "fzfg": false,
      "metar_trigger": false,
      "taf_trigger": false,
      "metar": "METAR LRCV 261230Z 14006KT 120V180 9999 SCT028 06/M01 Q1030",
      "taf": "TAF LRCV 261100Z 2612/2621 09012KT CAVOK"
    },
    {
      "icao": "LRIA",
      "alert": "OK",
      "vis_m": 9999,
      "fzfg": false,
      "metar_trigger": false,
      "taf_trigger": false,
      "metar": "METAR LRIA 261230Z 31011KT 280V340 9999 BKN015 OVC020 02/M02 Q1030",
      "taf": "TAF LRIA 261100Z 2612/2621 31012KT 9999 BKN015 OVC020"
    },
    {
      "icao": "LROP",
      "alert": "OK",
      "vis_m": 9999,
      "fzfg": false,
      "metar_trigger": false,
      "taf_trigger": false,
      "metar": "METAR LROP 261230Z 07005KT CAVOK 04/M06 Q1031 NOSIG",
      "taf": "TAF LROP 261100Z 2612/2712 VRB04KT CAVOK"
    },
    {
      "icao": "LRSB",
      "alert": "OK",
      "vis_m": 9999,
      "fzfg": false,
      "metar_trigger": false,
      "taf_trigger": false,
      "metar": "METAR LRSB 261230Z VRB03KT CAVOK 05/M04 Q1028",
      "taf": "TAF LRSB 261100Z 2612/2712 VRB04KT CAVOK"
    },
    {
      "icao": "LRSM",
      "alert": "OK",
      "vis_m": 9999,
      "fzfg": false,
      "metar_trigger": false,
      "taf_trigger": false,
      "metar": "METAR LRSM 261230Z VRB02KT CAVOK 07/M06 Q1030",
      "taf": "TAF LRSM 261100Z 2612/2621 09005KT CAVOK"
    },
    {
      "icao": "LRSV",
      "alert": "OK",
      "vis_m": 9999,
      "fzfg": false,
      "metar_trigger": false,
      "taf_trigger": false,
      "metar": "METAR LRSV 261230Z 34006KT 310V020 9999 SCT020 01/M04 Q1029",
      "taf": "TAF LRSV 261100Z 2612/2621 31012KT 9999 BKN020"
    },
    {
      "icao": "LRTM",
      "alert": "OK",
      "vis_m": 9999,
      "fzfg": false,
      "metar_trigger": false,
      "taf_trigger": false,
      "metar": "METAR LRTM 261230Z VRB02KT 9999 SCT039 07/M04 Q1029",
      "taf": "TAF LRTM 261100Z 2612/2621 VRB04KT CAVOK"
    },
    {
      "icao": "LRTR",
      "alert": "OK",
      "vis_m": 9999,
      "fzfg": false,
      "metar_trigger": false,
      "taf_trigger": false,
      "metar": "METAR LRTR 261230Z 05004KT 360V120 CAVOK 09/M02 Q1029 NOSIG",
      "taf": "TAF LRTR 261100Z 2612/2712 VRB04KT CAVOK"
    },
    {
      "icao": "LTAC",
      "alert": "OK",
      "vis_m": 9999,
      "fzfg": false,
      "metar_trigger": false,
      "taf_trigger": false,
      "metar": "METAR LTAC 261220Z 01016KT 9999 SCT040 03/M09 Q1017 NOSIG RMK RWY21C 03014KT RWY03L 01014KT 330V030 RWY21R 01014KT RWY03R 01016KT RWY21L 02016KT 330V040",
      "taf": "TAF LTAC 261040Z 2612/2712 33009KT 9999 SCT040"
    },
    {
      "icao": "LTFM",
      "alert": "OK",
      "vis_m": 9999,
      "fzfg": false,
      "metar_trigger": false,
      "taf_trigger": false,
      "metar": "METAR LTFM 261220Z 01018KT 9999 BKN028 05/00 Q1028 NOSIG RMK RWY17L 01018KT RWY34L 36016KT RWY16R 36018KT RWY36 01019KT RWY18 02016KT",
      "taf": "TAF LTFM 261040Z 2612/2718 36015KT 9999 BKN028"
    },
    {
      "icao": "LUKK",
      "alert": "OK",
      "vis_m": 9999,
      "fzfg": false,
      "metar_trigger": false,
      "taf_trigger": false,
      "metar": "METAR LUKK 261230Z 36012KT 320V020 9999 OVC017 01/M02 Q1029 NOSIG",
      "taf": "TAF LUKK 261103Z 2612/2712 35012KT 9999 BKN015"
    },
    {
      "icao": "LWOH",
      "alert": "OK",
      "vis_m": 9999,
      "fzfg": false,
      "metar_trigger": false,
      "taf_trigger": false,
      "metar": "METAR LWOH 261220Z 16007KT CAVOK 09/02 Q1025",
      "taf": "TAF LWOH 261125Z 2612/2712 13008KT CAVOK"
    },
    {
      "icao": "LWSK",
      "alert": "OK",
      "vis_m": 9999,
      "fzfg": false,
      "metar_trigger": false,
      "taf_trigger": false,
      "metar": "METAR LWSK 261220Z VRB05KT 9999 SCT055 13/01 Q1027 NOSIG",
      "taf": "TAF LWSK 261125Z 2612/2712 36010KT 9999 FEW055"
    },
    {
      "icao": "LYBE",
      "alert": "OK",
      "vis_m": 9999,
      "fzfg": false,
      "metar_trigger": false,
      "taf_trigger": false,
      "metar": "METAR LYBE 261230Z 33006KT 290V020 CAVOK 10/M00 Q1029 NOSIG",
      "taf": "TAF LYBE 261100Z 2612/2712 04005KT CAVOK TX13/2712Z TNM01/2706Z"
    },
    {
      "icao": "LYNI",
      "alert": "OK",
      "vis_m": 9999,
      "fzfg": false,
      "metar_trigger": false,
      "taf_trigger": false,
      "metar": "METAR LYNI 261230Z 31012KT 290V360 9999 FEW040 SCT060 12/00 Q1028 NOSIG",
      "taf": "TAF LYNI 261100Z 2612/2712 32011KT 9999 SCT043 TX13/2614Z TNM02/2705Z"
    },
    {
      "icao": "LYPG",
      "alert": "OK",
      "vis_m": 9999,
      "fzfg": false,
      "metar_trigger": false,
      "taf_trigger": false,
      "metar": "METAR LYPG 261230Z 15006KT 110V190 CAVOK 17/M00 Q1025 NOSIG",
      "taf": "TAF LYPG 261100Z 2612/2712 16008KT CAVOK TX18/2712Z TN02/2705Z"
    },
    {
      "icao": "LZIB",
      "alert": "OK",
      "vis_m": 9999,
      "fzfg": false,
      "metar_trigger": false,
      "taf_trigger": false,
      "metar": "METAR LZIB 261230Z 09008KT CAVOK 08/00 Q1028 NOSIG",
      "taf": "TAF LZIB 261115Z 2612/2712 23008KT CAVOK"
    },
    {
      "icao": "LZKZ",
      "alert": "OK",
      "vis_m": 9999,
      "fzfg": false,
      "metar_trigger": false,
      "taf_trigger": false,
      "metar": "METAR LZKZ 261230Z 15005KT 120V210 CAVOK 06/M03 Q1029 NOSIG",
      "taf": "TAF LZKZ 261115Z 2612/2712 20006KT CAVOK"
    },
    {
      "icao": "LZTT",
      "alert": "OK",
      "vis_m": 9999,
      "fzfg": false,
      "metar_trigger": false,
      "taf_trigger": false,
      "metar": "METAR LZTT 261230Z 13004KT 080V190 CAVOK 07/M02 Q1026 NOSIG",
      "taf": "TAF LZTT 261115Z 2612/2712 VRB02KT CAVOK"
    },
    {
      "icao": "OEJN",
      "alert": "OK",
      "vis_m": 9999,
      "fzfg": false,
      "metar_trigger": false,
      "taf_trigger": false,
      "metar": "METAR OEJN 261200Z 30016KT 9999 FEW040 29/14 Q1011 NOSIG",
      "taf": "TAF OEJN 261100Z 2612/2718 34015KT 9999 FEW040"
    },
    {
      "icao": "OEMA",
      "alert": "OK",
      "vis_m": 9999,
      "fzfg": false,
      "metar_trigger": false,
      "taf_trigger": false,
      "metar": "METAR OEMA 261200Z 21007KT CAVOK 28/00 Q1013 NOSIG",
      "taf": "TAF OEMA 261100Z 2612/2718 27010KT 7000 NSC"
    },
    {
      "icao": "OJAI",
      "alert": "OK",
      "vis_m": 3000,
      "fzfg": false,
      "metar_trigger": false,
      "taf_trigger": false,
      "metar": "METAR OJAI 261200Z 27021KT 3000 BLDU FEW015 SCT020 12/07 Q1014 NOSIG",
      "taf": "TAF OJAI 261100Z 2612/2718 28018KT 4000 BLDU SCT030"
    },
    {
      "icao": "OMAA",
      "alert": "OK",
      "vis_m": 9999,
      "fzfg": false,
      "metar_trigger": false,
      "taf_trigger": false,
      "metar": "METAR OMAA 261230Z 31012KT CAVOK 25/12 Q1012 NOSIG",
      "taf": "TAF OMAA 261100Z 2612/2718 30012KT 8000 NSC"
    },
    {
      "icao": "OMDB",
      "alert": "OK",
      "vis_m": 9999,
      "fzfg": false,
      "metar_trigger": false,
      "taf_trigger": false,
      "metar": "METAR OMDB 261230Z 29011KT 230V320 CAVOK 26/11 Q1012 NOSIG",
      "taf": "TAF OMDB 261100Z 2612/2718 27012KT 8000 NSC"
    },
    {
      "icao": "UAAA",
      "alert": "OK",
      "vis_m": 9000,
      "fzfg": false,
      "metar_trigger": false,
      "taf_trigger": false,
      "metar": "METAR UAAA 261230Z 24002MPS 200V280 9000 -SHRA BKN017CB OVC100 03/01 Q1017 NOSIG",
      "taf": "TAF UAAA 261108Z 2612/2712 21003G08MPS 3100 -SHRASN BR BKN011CB OVC020 TX02/2708Z TNM07/2702Z"
    },
    {
      "icao": "UBBB",
      "alert": "OK",
      "vis_m": 9999,
      "fzfg": false,
      "metar_trigger": false,
      "taf_trigger": false,
      "metar": "METAR UBBB 261230Z 11006KT 9999 SCT016 OVC033 10/07 Q1016 NOSIG",
      "taf": "TAF UBBB 261036Z 2611/2712 11008KT 9999 BKN025 TX10/2612Z TN04/2701Z"
    },
    {
      "icao": "UDSG",
      "alert": "OK",
      "vis_m": 9999,
      "fzfg": false,
      "metar_trigger": false,
      "taf_trigger": false,
      "metar": "METAR UDSG 261230Z 07014KT 9999 BKN040 06/M01 Q1008 NOSIG",
      "taf": "TAF UDSG 261100Z 2612/2712 VRB06KT 9999 BKN040"
    },
    {
      "icao": "UDYZ",
      "alert": "OK",
      "vis_m": 9999,
      "fzfg": false,
      "metar_trigger": false,
      "taf_trigger": false,
      "metar": "METAR UDYZ 261230Z 14015KT 9999 SCT043CB 15/M03 Q1007 TEMPO 14022G32KT",
      "taf": "TAF UDYZ 261100Z 2612/2712 15006KT 9999 SCT040CB"
    },
    {
      "icao": "UGKO",
      "alert": "OK",
      "vis_m": 3100,
      "fzfg": false,
      "metar_trigger": false,
      "taf_trigger": false,
      "metar": "METAR UGKO 261230Z 25008KT 3100 RA BR SCT007 BKN010 OVC040 05/04 Q1014 NOSIG",
      "taf": "TAF UGKO 261100Z 2612/2712 26010KT 9999 -RA SCT020 OVC040 TX06/2612Z TN01/2703Z"
    }
  ]
}