{
  "ts_utc": "2025-12-26T05:17:35Z",
  "threshold_m": 150,
  "source": "stations_override.txt (ICAO list) + aviationweather.gov (METAR/TAF raw)",
  "station_count": 159,
  "stations": [
    {
      "icao": "BIKF",
      "alert": "OK",
      "vis_m": 9999,
      "fzfg": false,
      "metar_trigger": false,
      "taf_trigger": false,
      "metar": "METAR BIKF 260500Z 28021G32KT 9999 SCT017 BKN050 03/00 Q1024",
      "taf": "TAF BIKF 260459Z 2606/2706 26022G32KT 9999 FEW015 BKN035 TX05/2613Z TN00/2703Z"
    },
    {
      "icao": "BKPR",
      "alert": "OK",
      "vis_m": 9999,
      "fzfg": false,
      "metar_trigger": false,
      "taf_trigger": false,
      "metar": "METAR BKPR 260500Z 32009KT 9999 BKN010 BKN020 M01/M02 Q1026 NOSIG",
      "taf": "TAF BKPR 252330Z 2600/2624 35012KT 9999 SCT010 BKN025"
    },
    {
      "icao": "EBCI",
      "alert": "OK",
      "vis_m": 8000,
      "fzfg": false,
      "metar_trigger": false,
      "taf_trigger": false,
      "metar": "METAR EBCI 260450Z 05008KT 8000 NSC M05/M06 Q1025 NOSIG",
      "taf": "TAF EBCI 252301Z 2600/2706 05008KT CAVOK"
    },
    {
      "icao": "EDDB",
      "alert": "OK",
      "vis_m": 6000,
      "fzfg": false,
      "metar_trigger": false,
      "taf_trigger": false,
      "metar": "METAR EDDB 260420Z AUTO VRB01KT 6000 FEW003 M09/M10 Q1033 TEMPO 3000 BR BKN002",
      "taf": "TAF EDDB 252300Z 2600/2624 04005KT 9999 FEW015"
    },
    {
      "icao": "EDDH",
      "alert": "OK",
      "vis_m": 9999,
      "fzfg": false,
      "metar_trigger": false,
      "taf_trigger": false,
      "metar": "METAR EDDH 260450Z AUTO 07003KT CAVOK M07/M09 Q1034 NOSIG",
      "taf": "TAF EDDH 252300Z 2600/2706 VRB03KT CAVOK"
    },
    {
      "icao": "EDDK",
      "alert": "OK",
      "vis_m": 9999,
      "fzfg": false,
      "metar_trigger": false,
      "taf_trigger": false,
      "metar": "METAR EDDK 260450Z AUTO 15003KT CAVOK M05/M06 Q1028 NOSIG",
      "taf": "TAF EDDK 252300Z 2600/2706 09006KT CAVOK"
    },
    {
      "icao": "EDDN",
      "alert": "OK",
      "vis_m": 9999,
      "fzfg": false,
      "metar_trigger": false,
      "taf_trigger": false,
      "metar": "METAR EDDN 260450Z AUTO 06003KT 020V090 CAVOK M02/M04 Q1027",
      "taf": "TAF EDDN 252300Z 2600/2624 07007KT CAVOK"
    },
    {
      "icao": "EDDS",
      "alert": "OK",
      "vis_m": 9999,
      "fzfg": false,
      "metar_trigger": false,
      "taf_trigger": false,
      "metar": "METAR EDDS 260450Z AUTO 06001KT CAVOK M04/M05 Q1023",
      "taf": "TAF EDDS 252300Z 2600/2624 05005KT 9999 FEW020"
    },
    {
      "icao": "EDFH",
      "alert": "OK",
      "vis_m": 9999,
      "fzfg": false,
      "metar_trigger": false,
      "taf_trigger": false,
      "metar": "METAR EDFH 260450Z 09009KT CAVOK M04/M05 Q1024",
      "taf": "TAF EDFH 252300Z 2600/2624 08010KT CAVOK"
    },
    {
      "icao": "EDJA",
      "alert": "OK",
      "vis_m": 1500,
      "fzfg": false,
      "metar_trigger": false,
      "taf_trigger": false,
      "metar": "METAR EDJA 260450Z 05008KT 1500 BR VV/// M03/M04 Q1023",
      "taf": "TAF EDJA 260200Z 2603/2612 06008KT 4500 BR OVC002"
    },
    {
      "icao": "EDLW",
      "alert": "OK",
      "vis_m": 9999,
      "fzfg": false,
      "metar_trigger": false,
      "taf_trigger": false,
      "metar": "METAR EDLW 260450Z 05004KT CAVOK M06/M08 Q1028",
      "taf": "TAF EDLW 260424Z 2605/2624 06008KT CAVOK"
    },
    {
      "icao": "EDNY",
      "alert": "OK",
      "vis_m": 9999,
      "fzfg": false,
      "metar_trigger": false,
      "taf_trigger": false,
      "metar": "METAR EDNY 260450Z AUTO 06006KT 9999 // OVC009/// M01/M03 Q1023",
      "taf": ""
    },
    {
      "icao": "EDSB",
      "alert": "OK",
      "vis_m": 9999,
      "fzfg": false,
      "metar_trigger": false,
      "taf_trigger": false,
      "metar": "METAR EDSB 260450Z 02008KT CAVOK M01/M03 Q1024",
      "taf": "TAF EDSB 252300Z 2600/2624 03010KT CAVOK"
    },
    {
      "icao": "EETN",
      "alert": "OK",
      "vis_m": 9999,
      "fzfg": false,
      "metar_trigger": false,
      "taf_trigger": false,
      "metar": "METAR EETN 260450Z 33012KT CAVOK 05/01 Q1020 NOSIG",
      "taf": "TAF EETN 252330Z 2600/2624 33014KT CAVOK"
    },
    {
      "icao": "EFTU",
      "alert": "OK",
      "vis_m": 9999,
      "fzfg": false,
      "metar_trigger": false,
      "taf_trigger": false,
      "metar": "METAR EFTU 260450Z AUTO 31006KT 9999 BKN002 03/03 Q1023",
      "taf": "TAF EFTU 260226Z 2603/2703 32005KT CAVOK"
    },
    {
      "icao": "EGBB",
      "alert": "OK",
      "vis_m": 9999,
      "fzfg": false,
      "metar_trigger": false,
      "taf_trigger": false,
      "metar": "METAR EGBB 260450Z 02005KT 9999 BKN019 01/M01 Q1030",
      "taf": "TAF EGBB 260456Z 2606/2706 04012KT 9999 SCT020"
    },
    {
      "icao": "EGGP",
      "alert": "OK",
      "vis_m": 9999,
      "fzfg": false,
      "metar_trigger": false,
      "taf_trigger": false,
      "metar": "METAR EGGP 260450Z AUTO 07011KT 9999 NCD 03/M00 Q1031",
      "taf": ""
    },
    {
      "icao": "EGGW",
      "alert": "OK",
      "vis_m": 9999,
      "fzfg": false,
      "metar_trigger": false,
      "taf_trigger": false,
      "metar": "METAR EGGW 260450Z AUTO 07010KT 9999 OVC011 02/00 Q1028",
      "taf": "TAF EGGW 260456Z 2606/2706 06013KT 9999 FEW025"
    },
    {
      "icao": "EGKK",
      "alert": "OK",
      "vis_m": 9999,
      "fzfg": false,
      "metar_trigger": false,
      "taf_trigger": false,
      "metar": "METAR EGKK 260450Z 03008KT 9999 BKN015 03/01 Q1027",
      "taf": "TAF EGKK 260500Z 2606/2712 05008KT 9999 BKN018"
    },
    {
      "icao": "EGNM",
      "alert": "OK",
      "vis_m": null,
      "fzfg": false,
      "metar_trigger": false,
      "taf_trigger": false,
      "metar": "",
      "taf": ""
    },
    {
      "icao": "EGPD",
      "alert": "OK",
      "vis_m": 9999,
      "fzfg": false,
      "metar_trigger": false,
      "taf_trigger": false,
      "metar": "METAR EGPD 260450Z COR AUTO VRB02KT 9999 OVC020 04/03 Q1036 NOSIG",
      "taf": "TAF EGPD 260451Z 2606/2706 VRB02KT 9999 BKN020"
    },
    {
      "icao": "EGPF",
      "alert": "OK",
      "vis_m": 9999,
      "fzfg": false,
      "metar_trigger": false,
      "taf_trigger": false,
      "metar": "METAR EGPF 260450Z AUTO 07006KT 9999 OVC025 05/02 Q1035",
      "taf": "TAF EGPF 260455Z 2606/2706 06005KT 9999 SCT025"
    },
    {
      "icao": "EHBK",
      "alert": "OK",
      "vis_m": 9999,
      "fzfg": false,
      "metar_trigger": false,
      "taf_trigger": false,
      "metar": "METAR EHBK 260455Z AUTO 06011KT 9999 NCD M04/M06 Q1026",
      "taf": "TAF EHBK 252302Z 2600/2706 05012KT CAVOK"
    },
    {
      "icao": "EHEH",
      "alert": "OK",
      "vis_m": 9999,
      "fzfg": false,
      "metar_trigger": false,
      "taf_trigger": false,
      "metar": "METAR EHEH 260455Z AUTO 05009KT 9999 NCD M05/M07 Q1028 BLU",
      "taf": "TAF EHEH 252325Z 2600/2706 06008KT CAVOK"
    },
    {
      "icao": "EKBI",
      "alert": "OK",
      "vis_m": 9999,
      "fzfg": false,
      "metar_trigger": false,
      "taf_trigger": false,
      "metar": "METAR EKBI 260450Z AUTO 21002KT 9999 OVC011/// M01/M01 Q1035",
      "taf": "TAF EKBI 260227Z 2603/2703 24003KT 9999 OVC012"
    },
    {
      "icao": "EKCH",
      "alert": "OK",
      "vis_m": 9999,
      "fzfg": false,
      "metar_trigger": false,
      "taf_trigger": false,
      "metar": "METAR EKCH 260450Z 29004KT 9999 BKN009 01/00 Q1033 NOSIG",
      "taf": "TAF EKCH 260227Z 2603/2703 28008KT 9999 BKN008"
    },
    {
      "icao": "ENAL",
      "alert": "OK",
      "vis_m": 9999,
      "fzfg": false,
      "metar_trigger": false,
      "taf_trigger": false,
      "metar": "METAR ENAL 260450Z AUTO 15009KT 9999 BKN016/// 06/04 Q1036",
      "taf": "TAF ENAL 260200Z 2603/2612 15005KT 9999 FEW015 BKN025"
    },
    {
      "icao": "ENBR",
      "alert": "OK",
      "vis_m": 9999,
      "fzfg": false,
      "metar_trigger": false,
      "taf_trigger": false,
      "metar": "METAR ENBR 260450Z VRB02KT CAVOK 00/M00 Q1034 RMK WIND 1200FT 03010KT",
      "taf": "TAF ENBR 252300Z 2600/2624 34005KT CAVOK"
    },
    {
      "icao": "ENGM",
      "alert": "OK",
      "vis_m": 9999,
      "fzfg": false,
      "metar_trigger": false,
      "taf_trigger": false,
      "metar": "METAR ENGM 260450Z 05004KT CAVOK M03/M03 Q1032 NOSIG",
      "taf": "TAF ENGM 252300Z 2600/2624 VRB03KT CAVOK"
    },
    {
      "icao": "ENHD",
      "alert": "OK",
      "vis_m": 9999,
      "fzfg": false,
      "metar_trigger": false,
      "taf_trigger": false,
      "metar": "METAR ENHD 260450Z AUTO VRB01KT 9999 NCD 00/M00 Q1034",
      "taf": "TAF ENHD 260200Z 2603/2612 VRB04KT CAVOK"
    },
    {
      "icao": "ENTC",
      "alert": "OK",
      "vis_m": 9999,
      "fzfg": false,
      "metar_trigger": false,
      "taf_trigger": false,
      "metar": "METAR ENTC 260450Z 28021KT 9999 -SHRA BKN029 07/02 Q1018 RMK WIND 2600FT 29041G56KT",
      "taf": ""
    },
    {
      "icao": "ENTO",
      "alert": "OK",
      "vis_m": 9999,
      "fzfg": false,
      "metar_trigger": false,
      "taf_trigger": false,
      "metar": "METAR ENTO 260450Z AUTO 35002KT 9999 NCD M01/M03 Q1032",
      "taf": "TAF ENTO 252300Z 2600/2624 VRB03KT CAVOK"
    },
    {
      "icao": "ENVA",
      "alert": "OK",
      "vis_m": 9999,
      "fzfg": false,
      "metar_trigger": false,
      "taf_trigger": false,
      "metar": "METAR ENVA 260450Z 25004KT 210V270 9999 -DZRA OVC022 06/05 Q1034 REDZ RERA RMK WIND 670FT 25008KT",
      "taf": "TAF ENVA 252300Z 2600/2624 24008KT 9999 BKN020"
    },
    {
      "icao": "ENZV",
      "alert": "OK",
      "vis_m": 9999,
      "fzfg": false,
      "metar_trigger": false,
      "taf_trigger": false,
      "metar": "METAR ENZV 260450Z 16002KT CAVOK M01/M02 Q1033",
      "taf": "TAF ENZV 252300Z 2600/2624 VRB03KT CAVOK"
    },
    {
      "icao": "EPGD",
      "alert": "OK",
      "vis_m": 9999,
      "fzfg": false,
      "metar_trigger": false,
      "taf_trigger": false,
      "metar": "METAR EPGD 260500Z 27012KT 9999 OVC006 01/01 Q1028",
      "taf": "TAF EPGD 252330Z 2600/2624 29014KT 9999 BKN007"
    },
    {
      "icao": "EPKK",
      "alert": "OK",
      "vis_m": 7000,
      "fzfg": false,
      "metar_trigger": false,
      "taf_trigger": false,
      "metar": "METAR EPKK 260500Z 25008KT 7000 OVC006 M05/M07 Q1030",
      "taf": "TAF EPKK 260230Z 2603/2703 27007KT 9000 OVC005"
    },
    {
      "icao": "EPKT",
      "alert": "OK",
      "vis_m": 3100,
      "fzfg": false,
      "metar_trigger": false,
      "taf_trigger": false,
      "metar": "METAR EPKT 260500Z 26006KT 3100 BR SCT003 OVC004 M06/M07 Q1030",
      "taf": ""
    },
    {
      "icao": "EPLB",
      "alert": "OK",
      "vis_m": 9999,
      "fzfg": false,
      "metar_trigger": false,
      "taf_trigger": false,
      "metar": "METAR EPLB 260500Z 28013KT CAVOK M05/M09 Q1026",
      "taf": "TAF EPLB 252330Z 2600/2624 26012KT CAVOK"
    },
    {
      "icao": "EPMO",
      "alert": "OK",
      "vis_m": 9999,
      "fzfg": false,
      "metar_trigger": false,
      "taf_trigger": false,
      "metar": "METAR EPMO 260500Z 26012KT 9999 BKN011 M05/M08 Q1028",
      "taf": "TAF EPMO 252330Z 2600/2624 26012KT CAVOK"
    },
    {
      "icao": "EPPO",
      "alert": "OK",
      "vis_m": 5000,
      "fzfg": false,
      "metar_trigger": false,
      "taf_trigger": false,
      "metar": "METAR EPPO 260500Z 25003KT 5000 BR NSC M09/M10 Q1033",
      "taf": ""
    },
    {
      "icao": "EPRA",
      "alert": "OK",
      "vis_m": 9999,
      "fzfg": false,
      "metar_trigger": false,
      "taf_trigger": false,
      "metar": "METAR EPRA 260500Z 28010KT CAVOK M06/M09 Q1028",
      "taf": "TAF EPRA 260230Z 2603/2612 29010KT 8000 NSC"
    },
    {
      "icao": "EPRZ",
      "alert": "OK",
      "vis_m": 9000,
      "fzfg": false,
      "metar_trigger": false,
      "taf_trigger": false,
      "metar": "METAR EPRZ 260500Z 26012KT 9000 OVC008 M05/M07 Q1029",
      "taf": ""
    },
    {
      "icao": "EPSC",
      "alert": "OK",
      "vis_m": 9999,
      "fzfg": false,
      "metar_trigger": false,
      "taf_trigger": false,
      "metar": "METAR EPSC 260500Z VRB01KT 9999 OVC009 M06/M10 Q1033",
      "taf": "TAF EPSC 252330Z 2600/2624 22005KT CAVOK"
    },
    {
      "icao": "EPSY",
      "alert": "OK",
      "vis_m": 9999,
      "fzfg": false,
      "metar_trigger": false,
      "taf_trigger": false,
      "metar": "METAR EPSY 260500Z 31006KT 250V340 9999 OVC006 M00/M02 Q1026",
      "taf": "TAF EPSY 260230Z 2603/2612 27008KT 9999 OVC008"
    },
    {
      "icao": "EPWA",
      "alert": "OK",
      "vis_m": 9999,
      "fzfg": false,
      "metar_trigger": false,
      "taf_trigger": false,
      "metar": "METAR EPWA 260500Z 27011KT CAVOK M05/M09 Q1028 NOSIG",
      "taf": "TAF EPWA 260230Z 2603/2703 26010KT CAVOK"
    },
    {
      "icao": "EPWR",
      "alert": "OK",
      "vis_m": 9999,
      "fzfg": false,
      "metar_trigger": false,
      "taf_trigger": false,
      "metar": "METAR EPWR 260500Z 26004KT 9999 OVC006 M04/M05 Q1032",
      "taf": "TAF EPWR 260230Z 2603/2703 VRB02KT 9999 OVC012"
    },
    {
      "icao": "ESGG",
      "alert": "OK",
      "vis_m": 150,
      "fzfg": false,
      "metar_trigger": false,
      "taf_trigger": false,
      "metar": "METAR ESGG 260450Z 31003KT 0150 R03/0800N R21/0700N FG VV001 04/03 Q1032",
      "taf": ""
    },
    {
      "icao": "ESKN",
      "alert": "OK",
      "vis_m": 9999,
      "fzfg": false,
      "metar_trigger": false,
      "taf_trigger": false,
      "metar": "METAR ESKN 260450Z 28006KT CAVOK 00/M01 Q1029",
      "taf": "TAF ESKN 260230Z 2603/2703 29008KT CAVOK"
    },
    {
      "icao": "ESMS",
      "alert": "OK",
      "vis_m": 7000,
      "fzfg": false,
      "metar_trigger": false,
      "taf_trigger": false,
      "metar": "METAR ESMS 260450Z 32013KT 7000 OVC004 03/03 Q1031",
      "taf": "TAF ESMS 260227Z 2603/2703 32008KT 9999 BKN008"
    },
    {
      "icao": "ESSA",
      "alert": "OK",
      "vis_m": 9999,
      "fzfg": false,
      "metar_trigger": false,
      "taf_trigger": false,
      "metar": "METAR ESSA 260450Z 33003KT 290V010 CAVOK 00/M00 Q1027 NOSIG",
      "taf": "TAF ESSA 260230Z 2603/2703 30007KT CAVOK"
    },
    {
      "icao": "EYKA",
      "alert": "OK",
      "vis_m": 9999,
      "fzfg": false,
      "metar_trigger": false,
      "taf_trigger": false,
      "metar": "METAR EYKA 260450Z 30005KT 240V010 9999 OVC014 04/03 Q1021",
      "taf": "TAF EYKA 260503Z 2606/2706 31010KT 7000 BKN015"
    },
    {
      "icao": "EYPA",
      "alert": "OK",
      "vis_m": 9999,
      "fzfg": false,
      "metar_trigger": false,
      "taf_trigger": false,
      "metar": "METAR EYPA 260450Z AUTO 01006KT 330V040 9999 OVC012/// 07/05 Q1024",
      "taf": "TAF EYPA 260503Z 2606/2706 36010KT 8000 BKN010"
    },
    {
      "icao": "EYVI",
      "alert": "OK",
      "vis_m": 7000,
      "fzfg": false,
      "metar_trigger": false,
      "taf_trigger": false,
      "metar": "METAR EYVI 260450Z 33010KT 300V360 7000 -DZ OVC001 02/02 Q1018 NOSIG",
      "taf": ""
    },
    {
      "icao": "GCFV",
      "alert": "OK",
      "vis_m": 9999,
      "fzfg": false,
      "metar_trigger": false,
      "taf_trigger": false,
      "metar": "METAR GCFV 260500Z AUTO 29007KT CAVOK 13/10 Q1018",
      "taf": "TAF GCFV 260200Z 2603/2703 28005KT 9999 SCT035 TX22/2614Z TN15/2606Z"
    },
    {
      "icao": "GCLP",
      "alert": "OK",
      "vis_m": 9999,
      "fzfg": false,
      "metar_trigger": false,
      "taf_trigger": false,
      "metar": "METAR GCLP 260500Z 32006KT 9999 FEW035 BKN055 16/10 Q1019 NOSIG",
      "taf": "TAF GCLP 260200Z 2603/2703 33005KT 9999 SCT035 TX22/2614Z TN16/2606Z"
    },
    {
      "icao": "GCTS",
      "alert": "OK",
      "vis_m": 9999,
      "fzfg": false,
      "metar_trigger": false,
      "taf_trigger": false,
      "metar": "METAR GCTS 260500Z 05008KT 9999 SCT043 17/06 Q1019 NOSIG",
      "taf": "TAF GCTS 260200Z 2603/2703 36005KT 9999 SCT035 TX23/2614Z TN15/2606Z"
    },
    {
      "icao": "GMAD",
      "alert": "OK",
      "vis_m": 9999,
      "fzfg": false,
      "metar_trigger": false,
      "taf_trigger": false,
      "metar": "METAR GMAD 260500Z 03007KT CAVOK 07/07 Q1016 NOSIG",
      "taf": "TAF GMAD 252300Z 2600/2706 06008KT 8000 SCT020"
    },
    {
      "icao": "GMMN",
      "alert": "OK",
      "vis_m": 8000,
      "fzfg": false,
      "metar_trigger": false,
      "taf_trigger": false,
      "metar": "METAR GMMN 260500Z 20010KT 8000 SCT013 SCT027 10/09 Q1015 NOSIG",
      "taf": "TAF GMMN 252300Z 2600/2706 20008KT 9999 SCT020"
    },
    {
      "icao": "GMMX",
      "alert": "OK",
      "vis_m": 8000,
      "fzfg": false,
      "metar_trigger": false,
      "taf_trigger": false,
      "metar": "METAR GMMX 260500Z VRB01KT 8000 NSC 06/05 Q1015 NOSIG",
      "taf": "TAF GMMX 260500Z 2606/2712 18008KT 8000 SCT020"
    },
    {
      "icao": "HEGN",
      "alert": "OK",
      "vis_m": 9999,
      "fzfg": false,
      "metar_trigger": false,
      "taf_trigger": false,
      "metar": "METAR HEGN 260400Z 31014KT CAVOK 16/05 Q1015 NOSIG",
      "taf": "TAF HEGN 260500Z 2606/2712 34016KT CAVOK"
    },
    {
      "icao": "HEMA",
      "alert": "OK",
      "vis_m": 9999,
      "fzfg": false,
      "metar_trigger": false,
      "taf_trigger": false,
      "metar": "METAR HEMA 260400Z 30013KT CAVOK 19/05 Q1013 NOSIG",
      "taf": "TAF HEMA 260500Z 2606/2712 35015KT CAVOK"
    },
    {
      "icao": "HESH",
      "alert": "OK",
      "vis_m": 9999,
      "fzfg": false,
      "metar_trigger": false,
      "taf_trigger": false,
      "metar": "METAR HESH 260400Z 35014KT CAVOK 19/05 Q1013 NOSIG",
      "taf": "TAF HESH 260500Z 2606/2712 01014KT CAVOK"
    },
    {
      "icao": "HESX",
      "alert": "OK",
      "vis_m": 200,
      "fzfg": false,
      "metar_trigger": false,
      "taf_trigger": false,
      "metar": "METAR HESX 260400Z 29002KT 0200 R34R/0200 FG NSC 09/08 Q1018 NOSIG",
      "taf": "TAF HESX 260500Z 2606/2712 03007KT CAVOK"
    },
    {
      "icao": "LATI",
      "alert": "OK",
      "vis_m": 6000,
      "fzfg": false,
      "metar_trigger": false,
      "taf_trigger": false,
      "metar": "METAR LATI 260450Z 00000KT 6000 OVC084 06/05 Q1022 NOSIG",
      "taf": "TAF LATI 260500Z 2606/2706 VRB05KT 9999 OVC080 TX18/2612Z TN03/2623Z"
    },
    {
      "icao": "LBPD",
      "alert": "OK",
      "vis_m": 9999,
      "fzfg": false,
      "metar_trigger": false,
      "taf_trigger": false,
      "metar": "METAR LBPD 260500Z AUTO 07003KT 9999 OVC027/// 02/02 Q1027 NOSIG",
      "taf": "TAF LBPD 260500Z 2606/2706 VRB03KT 8000 BKN025 OVC045"
    },
    {
      "icao": "LBSF",
      "alert": "OK",
      "vis_m": 9999,
      "fzfg": false,
      "metar_trigger": false,
      "taf_trigger": false,
      "metar": "METAR LBSF 260500Z VRB02KT 9999 FEW018 OVC065 01/M00 Q1025 NOSIG",
      "taf": "TAF LBSF 260500Z 2606/2706 VRB03KT 8000 BKN015 OVC040"
    },
    {
      "icao": "LBWN",
      "alert": "OK",
      "vis_m": 9999,
      "fzfg": false,
      "metar_trigger": false,
      "taf_trigger": false,
      "metar": "METAR LBWN 260500Z AUTO 27003KT 9999 NCD M04/M04 Q1027 NOSIG",
      "taf": "TAF LBWN 260500Z 2606/2706 VRB03KT 9999 SCT045"
    },
    {
      "icao": "LCLK",
      "alert": "OK",
      "vis_m": 9999,
      "fzfg": false,
      "metar_trigger": false,
      "taf_trigger": false,
      "metar": "METAR LCLK 260500Z VRB03KT 9999 FEW020 SCT060 11/10 Q1016 NOSIG",
      "taf": "TAF LCLK 252330Z 2600/2700 33007KT 9999 FEW025 SCT030"
    },
    {
      "icao": "LCPH",
      "alert": "OK",
      "vis_m": 9999,
      "fzfg": false,
      "metar_trigger": false,
      "taf_trigger": false,
      "metar": "METAR LCPH 260500Z 01006KT 9999 FEW030 FEW035TCU 12/10 Q1016 NOSIG",
      "taf": "TAF LCPH 252330Z 2600/2700 36009KT 9999 FEW025"
    },
    {
      "icao": "LEAL",
      "alert": "OK",
      "vis_m": 9999,
      "fzfg": false,
      "metar_trigger": false,
      "taf_trigger": false,
      "metar": "METAR LEAL 260500Z 30009KT 9999 -RA SCT032 OVC057 11/08 Q1008 NOSIG",
      "taf": "TAF LEAL 252300Z 2600/2624 31009KT 9999 SCT030 TX17/2612Z TN07/2606Z"
    },
    {
      "icao": "LEBB",
      "alert": "OK",
      "vis_m": 9999,
      "fzfg": false,
      "metar_trigger": false,
      "taf_trigger": false,
      "metar": "METAR LEBB 260500Z 09003KT CAVOK 03/02 Q1015 NOSIG",
      "taf": "TAF LEBB 252300Z 2600/2624 VRB03KT 9999 FEW040 TX10/2615Z TN01/2601Z"
    },
    {
      "icao": "LEBL",
      "alert": "OK",
      "vis_m": 4000,
      "fzfg": false,
      "metar_trigger": false,
      "taf_trigger": false,
      "metar": "METAR LEBL 260500Z 03017KT 4000 1000 RA SCT020 BKN027 BKN033 11/11 Q1009 NOSIG",
      "taf": ""
    },
    {
      "icao": "LECH",
      "alert": "OK",
      "vis_m": 9999,
      "fzfg": false,
      "metar_trigger": false,
      "taf_trigger": false,
      "metar": "METAR LECH 260500Z AUTO 03007KT 350V060 9999 -RA FEW020 BKN050 BKN060 08/06 Q1009",
      "taf": ""
    },
    {
      "icao": "LEMD",
      "alert": "OK",
      "vis_m": 9999,
      "fzfg": false,
      "metar_trigger": false,
      "taf_trigger": false,
      "metar": "METAR LEMD 260500Z VRB01KT 9999 FEW040 M01/M01 Q1011 NOSIG",
      "taf": "TAF LEMD 252300Z 2600/2706 VRB04KT 9999 SCT030 TX09/2614Z TNM00/2606Z"
    },
    {
      "icao": "LEMG",
      "alert": "OK",
      "vis_m": 9999,
      "fzfg": false,
      "metar_trigger": false,
      "taf_trigger": false,
      "metar": "METAR LEMG 260500Z 30007KT 9999 BKN080 07/05 Q1011 NOSIG",
      "taf": "TAF LEMG 252300Z 2600/2624 27007KT 9999 FEW040 TX15/2614Z TN06/2606Z"
    },
    {
      "icao": "LEVC",
      "alert": "OK",
      "vis_m": 9999,
      "fzfg": false,
      "metar_trigger": false,
      "taf_trigger": false,
      "metar": "METAR LEVC 260500Z 29004KT 9999 -RA SCT034 OVC055 08/08 Q1009 NOSIG",
      "taf": "TAF LEVC 252300Z 2600/2624 30007KT 9999 BKN030 TX15/2614Z TN06/2606Z"
    },
    {
      "icao": "LEXJ",
      "alert": "OK",
      "vis_m": 9999,
      "fzfg": false,
      "metar_trigger": false,
      "taf_trigger": false,
      "metar": "METAR LEXJ 260500Z VRB02KT CAVOK 02/M00 Q1014",
      "taf": "TAF LEXJ 260200Z 2603/2703 VRB03KT 9999 FEW030 TX11/2615Z TNM00/2604Z"
    },
    {
      "icao": "LEZG",
      "alert": "OK",
      "vis_m": 7000,
      "fzfg": false,
      "metar_trigger": false,
      "taf_trigger": false,
      "metar": "METAR LEZG 260500Z 26010KT 7000 -RA SCT030 SCT045 04/03 Q1013 NOSIG",
      "taf": "TAF LEZG 252300Z 2600/2624 29009KT 9999 SCT040 TX08/2614Z TN03/2606Z"
    },
    {
      "icao": "LEZL",
      "alert": "OK",
      "vis_m": 8000,
      "fzfg": false,
      "metar_trigger": false,
      "taf_trigger": false,
      "metar": "METAR LEZL 260500Z 04003KT 8000 NSC 10/10 Q1012 NOSIG",
      "taf": "TAF LEZL 260200Z 2603/2703 VRB03KT 9999 FEW040 TX15/2615Z TN06/2607Z"
    },
    {
      "icao": "LFBD",
      "alert": "OK",
      "vis_m": 9999,
      "fzfg": false,
      "metar_trigger": false,
      "taf_trigger": false,
      "metar": "METAR LFBD 260500Z AUTO 04007KT CAVOK 04/02 Q1016 TEMPO 3000 BR",
      "taf": "TAF LFBD 252300Z 2600/2706 02005KT 9999 BKN030 TX09/2615Z TN01/2605Z"
    },
    {
      "icao": "LFLL",
      "alert": "OK",
      "vis_m": 5000,
      "fzfg": false,
      "metar_trigger": false,
      "taf_trigger": false,
      "metar": "METAR LFLL 260500Z 04004KT 5000 BR BKN010 OVC012 01/00 Q1020 TEMPO 3000 BR OVC004",
      "taf": "TAF LFLL 252300Z 2600/2706 VRB03KT 9000 OVC013"
    },
    {
      "icao": "LFLS",
      "alert": "OK",
      "vis_m": 9999,
      "fzfg": false,
      "metar_trigger": false,
      "taf_trigger": false,
      "metar": "METAR LFLS 260500Z AUTO 02003KT CAVOK 01/M00 Q1019 TEMPO 0600 BCFG VV///",
      "taf": "TAF LFLS 260200Z 2603/2703 VRB03KT 9000 SCT016"
    },
    {
      "icao": "LFMN",
      "alert": "OK",
      "vis_m": 9999,
      "fzfg": false,
      "metar_trigger": false,
      "taf_trigger": false,
      "metar": "METAR LFMN 260500Z 01011KT 9999 BKN058 12/02 Q1019 NOSIG",
      "taf": "TAF LFMN 260200Z 2603/2709 06015G25KT 9999 BKN070"
    },
    {
      "icao": "LFOB",
      "alert": "OK",
      "vis_m": 7000,
      "fzfg": false,
      "metar_trigger": false,
      "taf_trigger": false,
      "metar": "METAR LFOB 260500Z AUTO 05005KT 7000 NSC M04/M06 Q1024 NOSIG",
      "taf": "TAF LFOB 252300Z 2600/2624 05009KT CAVOK"
    },
    {
      "icao": "LFPO",
      "alert": "OK",
      "vis_m": 9999,
      "fzfg": false,
      "metar_trigger": false,
      "taf_trigger": false,
      "metar": "METAR LFPO 260500Z AUTO 04007KT CAVOK M02/M04 Q1023",
      "taf": ""
    },
    {
      "icao": "LFSB",
      "alert": "OK",
      "vis_m": 7000,
      "fzfg": false,
      "metar_trigger": false,
      "taf_trigger": false,
      "metar": "METAR LFSB 260500Z AUTO 34005KT 7000 OVC018 M01/M02 Q1023 TEMPO 4000 BR BKN002",
      "taf": "TAF LFSB 252300Z 2600/2624 02005KT 9999 BKN020"
    },
    {
      "icao": "LGAV",
      "alert": "OK",
      "vis_m": 9999,
      "fzfg": false,
      "metar_trigger": false,
      "taf_trigger": false,
      "metar": "METAR LGAV 260450Z VRB03KT 9999 FEW020 09/06 Q1021 NOSIG",
      "taf": "TAF LGAV 260500Z 2606/2706 30010KT 9999 SCT018 BKN030"
    },
    {
      "icao": "LGTS",
      "alert": "OK",
      "vis_m": 9999,
      "fzfg": false,
      "metar_trigger": false,
      "taf_trigger": false,
      "metar": "METAR LGTS 260450Z 09006KT 9999 FEW012 BKN030 10/06 Q1024 NOSIG",
      "taf": "TAF LGTS 260500Z 2606/2706 VRB03KT 9999 FEW012 BKN025"
    },
    {
      "icao": "LHBP",
      "alert": "OK",
      "vis_m": 9999,
      "fzfg": false,
      "metar_trigger": false,
      "taf_trigger": false,
      "metar": "METAR LHBP 260500Z 16002KT CAVOK M01/M02 Q1029 NOSIG",
      "taf": "TAF LHBP 252315Z 2600/2624 VRB03KT CAVOK"
    },
    {
      "icao": "LHDC",
      "alert": "OK",
      "vis_m": 9999,
      "fzfg": false,
      "metar_trigger": false,
      "taf_trigger": false,
      "metar": "METAR LHDC 260445Z AUTO 04003KT CAVOK M02/M05 Q1029",
      "taf": ""
    },
    {
      "icao": "LIBD",
      "alert": "OK",
      "vis_m": 9999,
      "fzfg": false,
      "metar_trigger": false,
      "taf_trigger": false,
      "metar": "METAR LIBD 260450Z 25002KT 9999 FEW040 08/07 Q1021",
      "taf": "TAF LIBD 252300Z 2600/2624 VRB05KT 9999 FEW016"
    },
    {
      "icao": "LIBG",
      "alert": "OK",
      "vis_m": null,
      "fzfg": false,
      "metar_trigger": false,
      "taf_trigger": false,
      "metar": "",
      "taf": ""
    },
    {
      "icao": "LIBP",
      "alert": "OK",
      "vis_m": 7000,
      "fzfg": false,
      "metar_trigger": false,
      "taf_trigger": false,
      "metar": "METAR LIBP 260450Z AUTO 21003KT 7000 RA SCT009/// OVC019/// 09/09 Q1023",
      "taf": "TAF LIBP 252300Z 2600/2624 VRB05KT 9999 SCT040"
    },
    {
      "icao": "LIBR",
      "alert": "OK",
      "vis_m": 9999,
      "fzfg": false,
      "metar_trigger": false,
      "taf_trigger": false,
      "metar": "METAR LIBR 260450Z 07009KT 9999 BKN035 13/10 Q1020",
      "taf": "TAF LIBR 252300Z 2600/2624 06008KT 9999 SCT040"
    },
    {
      "icao": "LICA",
      "alert": "OK",
      "vis_m": 9999,
      "fzfg": false,
      "metar_trigger": false,
      "taf_trigger": false,
      "metar": "METAR LICA 260450Z AUTO 04011KT 9999 NCD 11/08 Q1019",
      "taf": "TAF LICA 252300Z 2600/2624 07012KT CAVOK"
    },
    {
      "icao": "LICC",
      "alert": "OK",
      "vis_m": 9999,
      "fzfg": false,
      "metar_trigger": false,
      "taf_trigger": false,
      "metar": "METAR LICC 260450Z 23005KT CAVOK 09/08 Q1018",
      "taf": "TAF LICC 252300Z 2600/2624 27007KT CAVOK"
    },
    {
      "icao": "LICJ",
      "alert": "OK",
      "vis_m": 9999,
      "fzfg": false,
      "metar_trigger": false,
      "taf_trigger": false,
      "metar": "METAR LICJ 260450Z 08003KT 050V150 CAVOK 16/05 Q1016",
      "taf": "TAF LICJ 252300Z 2600/2624 16008KT 9999 FEW040"
    },
    {
      "icao": "LIMC",
      "alert": "OK",
      "vis_m": 9999,
      "fzfg": false,
      "metar_trigger": false,
      "taf_trigger": false,
      "metar": "METAR LIMC 260450Z 20002KT 9999 BKN070 04/04 Q1027 NOSIG",
      "taf": "TAF LIMC 252300Z 2600/2706 VRB05KT 9999 BKN030"
    },
    {
      "icao": "LIME",
      "alert": "OK",
      "vis_m": 9999,
      "fzfg": false,
      "metar_trigger": false,
      "taf_trigger": false,
      "metar": "METAR LIME 260450Z 28005KT 9999 BKN025 04/03 Q1026 NOSIG",
      "taf": "TAF LIME 252300Z 2600/2624 VRB05KT 9999 BKN030"
    },
    {
      "icao": "LIMF",
      "alert": "OK",
      "vis_m": 9999,
      "fzfg": false,
      "metar_trigger": false,
      "taf_trigger": false,
      "metar": "METAR LIMF 260450Z 34011KT 9999 SCT020 BKN050 05/02 Q1027",
      "taf": "TAF LIMF 252300Z 2600/2624 34006KT 6000 RA BKN012"
    },
    {
      "icao": "LIMJ",
      "alert": "OK",
      "vis_m": 9999,
      "fzfg": false,
      "metar_trigger": false,
      "taf_trigger": false,
      "metar": "METAR LIMJ 260450Z 35016KT 9999 BKN070 08/03 Q1023",
      "taf": "TAF LIMJ 252300Z 2600/2624 03015KT 9999 SCT050"
    },
    {
      "icao": "LIPE",
      "alert": "OK",
      "vis_m": 9999,
      "fzfg": false,
      "metar_trigger": false,
      "taf_trigger": false,
      "metar": "METAR LIPE 260450Z 29004KT 9999 SCT030 BKN070 05/03 Q1026",
      "taf": "TAF LIPE 252300Z 2600/2624 VRB05KT 9000 SCT010 BKN030"
    },
    {
      "icao": "LIPH",
      "alert": "OK",
      "vis_m": 9999,
      "fzfg": false,
      "metar_trigger": false,
      "taf_trigger": false,
      "metar": "METAR LIPH 260450Z AUTO VRB02KT 9999 NCD 03/M02 Q1027",
      "taf": "TAF LIPH 252300Z 2600/2624 VRB05KT CAVOK"
    },
    {
      "icao": "LIPQ",
      "alert": "OK",
      "vis_m": 9999,
      "fzfg": false,
      "metar_trigger": false,
      "taf_trigger": false,
      "metar": "METAR LIPQ 260450Z AUTO 34002KT 9999 NCD M01/M03 Q1026",
      "taf": "TAF LIPQ 252300Z 2600/2624 07006KT CAVOK"
    },
    {
      "icao": "LIPR",
      "alert": "OK",
      "vis_m": 9999,
      "fzfg": false,
      "metar_trigger": false,
      "taf_trigger": false,
      "metar": "METAR LIPR 260450Z AUTO 06009KT 9999 BKN029/// 10/05 Q1024",
      "taf": "TAF LIPR 252300Z 2600/2624 06007KT 9999 SCT040"
    },
    {
      "icao": "LIPX",
      "alert": "OK",
      "vis_m": 9999,
      "fzfg": false,
      "metar_trigger": false,
      "taf_trigger": false,
      "metar": "METAR LIPX 260450Z 26003KT 230V340 CAVOK 02/M00 Q1026",
      "taf": "TAF LIPX 252300Z 2600/2624 09010KT 9999 SCT050"
    },
    {
      "icao": "LIPY",
      "alert": "OK",
      "vis_m": 9999,
      "fzfg": false,
      "metar_trigger": false,
      "taf_trigger": false,
      "metar": "METAR LIPY 260450Z AUTO 21003KT 9999 OVC049/// 09/07 Q1024",
      "taf": "TAF LIPY 252300Z 2600/2624 VRB05KT 9999 SCT040"
    },
    {
      "icao": "LIPZ",
      "alert": "OK",
      "vis_m": 9999,
      "fzfg": false,
      "metar_trigger": false,
      "taf_trigger": false,
      "metar": "METAR LIPZ 260450Z 03009KT CAVOK 03/M01 Q1026 NOSIG",
      "taf": "TAF LIPZ 252300Z 2600/2706 03008KT CAVOK"
    },
    {
      "icao": "LIRF",
      "alert": "OK",
      "vis_m": 9999,
      "fzfg": false,
      "metar_trigger": false,
      "taf_trigger": false,
      "metar": "METAR LIRF 260450Z 05008KT CAVOK 08/04 Q1019 NOSIG",
      "taf": "TAF LIRF 252300Z 2600/2706 05012KT CAVOK"
    },
    {
      "icao": "LIRN",
      "alert": "OK",
      "vis_m": 9999,
      "fzfg": false,
      "metar_trigger": false,
      "taf_trigger": false,
      "metar": "METAR LIRN 260450Z 03005KT CAVOK 09/05 Q1019 NOSIG",
      "taf": "TAF LIRN 252300Z 2600/2624 01007KT CAVOK"
    },
    {
      "icao": "LIRP",
      "alert": "OK",
      "vis_m": 9999,
      "fzfg": false,
      "metar_trigger": false,
      "taf_trigger": false,
      "metar": "METAR LIRP 260445Z 11010KT CAVOK 08/05 Q1020 NOSIG",
      "taf": "TAF LIRP 252300Z 2600/2624 07012KT CAVOK"
    },
    {
      "icao": "LIRZ",
      "alert": "OK",
      "vis_m": 9999,
      "fzfg": false,
      "metar_trigger": false,
      "taf_trigger": false,
      "metar": "METAR LIRZ 260450Z AUTO 02012KT 9999 FEW035/// 08/05 Q1021",
      "taf": "TAF LIRZ 252300Z 2600/2624 04012KT CAVOK"
    },
    {
      "icao": "LJLJ",
      "alert": "OK",
      "vis_m": 9999,
      "fzfg": false,
      "metar_trigger": false,
      "taf_trigger": false,
      "metar": "METAR LJLJ 260500Z VRB01KT 9999 FEW006 OVC040 00/M00 Q1028 NOSIG",
      "taf": "TAF LJLJ 260500Z 2606/2706 VRB02KT 9999 FEW008 BKN040"
    },
    {
      "icao": "LKMT",
      "alert": "OK",
      "vis_m": 800,
      "fzfg": true,
      "metar_trigger": false,
      "taf_trigger": false,
      "metar": "METAR LKMT 260500Z VRB01KT 0800 R22/2000D R04/1600U FZFG VV003 M05/M05 Q1031 NOSIG",
      "taf": ""
    },
    {
      "icao": "LKPR",
      "alert": "OK",
      "vis_m": 7000,
      "fzfg": false,
      "metar_trigger": false,
      "taf_trigger": false,
      "metar": "METAR LKPR 260500Z 33004KT 7000 NSC M08/M08 Q1030 NOSIG",
      "taf": "TAF LKPR 260200Z 2603/2709 05005KT CAVOK"
    },
    {
      "icao": "LLBG",
      "alert": "OK",
      "vis_m": 9999,
      "fzfg": false,
      "metar_trigger": false,
      "taf_trigger": false,
      "metar": "METAR LLBG 260450Z VRB02KT CAVOK 11/08 Q1017 NOSIG",
      "taf": "TAF LLBG 260502Z 2606/2706 VRB04KT CAVOK"
    },
    {
      "icao": "LMML",
      "alert": "OK",
      "vis_m": 9999,
      "fzfg": false,
      "metar_trigger": false,
      "taf_trigger": false,
      "metar": "METAR LMML 260515Z 14008KT 9999 FEW029 13/10 Q1017 NOSIG",
      "taf": "TAF LMML 260500Z 2606/2706 11014KT 9999 SCT032"
    },
    {
      "icao": "LOWW",
      "alert": "OK",
      "vis_m": 9999,
      "fzfg": false,
      "metar_trigger": false,
      "taf_trigger": false,
      "metar": "METAR LOWW 260450Z 03003KT 350V070 9999 FEW044 BKN046 M03/M05 Q1030 NOSIG",
      "taf": "TAF LOWW 260515Z 2606/2712 01004KT 9999 SCT030 TX02/2712Z TNM04/2606Z"
    },
    {
      "icao": "LPFR",
      "alert": "OK",
      "vis_m": 9999,
      "fzfg": false,
      "metar_trigger": false,
      "taf_trigger": false,
      "metar": "METAR LPFR 260500Z VRB02KT CAVOK 08/05 Q1013",
      "taf": "TAF LPFR 260500Z 2606/2706 VRB02KT CAVOK"
    },
    {
      "icao": "LPMA",
      "alert": "OK",
      "vis_m": 9999,
      "fzfg": false,
      "metar_trigger": false,
      "taf_trigger": false,
      "metar": "METAR LPMA 260500Z 29006KT 9999 SCT015 14/09 Q1019",
      "taf": "TAF LPMA 260500Z 2606/2706 31005KT 9999 SCT015"
    },
    {
      "icao": "LPPR",
      "alert": "OK",
      "vis_m": 9999,
      "fzfg": false,
      "metar_trigger": false,
      "taf_trigger": false,
      "metar": "METAR LPPR 260500Z 12009KT CAVOK 04/02 Q1012",
      "taf": "TAF LPPR 260500Z 2606/2706 11010KT CAVOK"
    },
    {
      "icao": "LPPS",
      "alert": "OK",
      "vis_m": 9999,
      "fzfg": false,
      "metar_trigger": false,
      "taf_trigger": false,
      "metar": "METAR LPPS 260500Z 32007KT 9999 SCT015 16/11 Q1019",
      "taf": "TAF LPPS 260500Z 2606/2712 32010KT 9999 SCT015"
    },
    {
      "icao": "LPPT",
      "alert": "OK",
      "vis_m": 9999,
      "fzfg": false,
      "metar_trigger": false,
      "taf_trigger": false,
      "metar": "METAR LPPT 260500Z VRB02KT CAVOK 06/04 Q1013",
      "taf": "TAF LPPT 260500Z 2606/2712 VRB02KT 9999 FEW012"
    },
    {
      "icao": "LQBK",
      "alert": "OK",
      "vis_m": 9999,
      "fzfg": false,
      "metar_trigger": false,
      "taf_trigger": false,
      "metar": "METAR LQBK 260500Z 04003KT 9999 BKN005 OVC010 01/00 Q1030 NOSIG",
      "taf": "TAF LQBK 260500Z 2606/2706 02005KT 8000 SCT007 OVC015 TX03/2613Z TNM03/2705Z"
    },
    {
      "icao": "LQSA",
      "alert": "OK",
      "vis_m": 9999,
      "fzfg": false,
      "metar_trigger": false,
      "taf_trigger": false,
      "metar": "METAR LQSA 260500Z 30002KT 9999 OVC015 01/00 Q1026",
      "taf": "TAF LQSA 260500Z 2606/2706 28005KT 9999 SCT015 BKN025 TX03/2613Z TNM05/2705Z"
    },
    {
      "icao": "LQTZ",
      "alert": "OK",
      "vis_m": 9999,
      "fzfg": false,
      "metar_trigger": false,
      "taf_trigger": false,
      "metar": "METAR LQTZ 260500Z VRB01KT 9999 BKN007 OVC014 01/01 Q1028",
      "taf": "TAF LQTZ 260500Z 2606/2706 10005KT 8000 SCT010 OVC015 TX02/2613Z TNM04/2705Z"
    },
    {
      "icao": "LRBC",
      "alert": "OK",
      "vis_m": 8000,
      "fzfg": false,
      "metar_trigger": false,
      "taf_trigger": false,
      "metar": "METAR LRBC 260500Z 32004KT 8000 BKN006 M07/M08 Q1025",
      "taf": "TAF LRBC 260200Z 2603/2612 VRB04KT 9999 BKN010"
    },
    {
      "icao": "LRBS",
      "alert": "OK",
      "vis_m": 9999,
      "fzfg": false,
      "metar_trigger": false,
      "taf_trigger": false,
      "metar": "METAR LRBS 260500Z 24007KT CAVOK M06/M07 Q1028 NOSIG",
      "taf": "TAF LRBS 252300Z 2600/2624 VRB04KT CAVOK"
    },
    {
      "icao": "LRBV",
      "alert": "OK",
      "vis_m": 9999,
      "fzfg": false,
      "metar_trigger": false,
      "taf_trigger": false,
      "metar": "METAR LRBV 260500Z VRB02KT 9999 FEW020 M07/M09 Q1026",
      "taf": "TAF LRBV 260200Z 2603/2612 VRB04KT CAVOK"
    },
    {
      "icao": "LRCL",
      "alert": "OK",
      "vis_m": 9999,
      "fzfg": false,
      "metar_trigger": false,
      "taf_trigger": false,
      "metar": "METAR LRCL 260500Z COR 10003KT 9999 BKN070 M01/M02 Q1027",
      "taf": "TAF LRCL 260200Z 2603/2612 VRB04KT CAVOK"
    },
    {
      "icao": "LRCV",
      "alert": "OK",
      "vis_m": 9999,
      "fzfg": false,
      "metar_trigger": false,
      "taf_trigger": false,
      "metar": "METAR LRCV 260500Z 24005KT 9999 OVC011 M03/M04 Q1028",
      "taf": "TAF LRCV 260200Z 2603/2612 VRB04KT 9999 BKN010 OVC020"
    },
    {
      "icao": "LRIA",
      "alert": "OK",
      "vis_m": 1500,
      "fzfg": false,
      "metar_trigger": false,
      "taf_trigger": false,
      "metar": "METAR LRIA 260500Z 28005KT 240V320 1500 -FZDZ BR OVC002 M08/M08 Q1025",
      "taf": "TAF LRIA 260200Z 2603/2612 VRB04KT 5000 BR OVC003"
    },
    {
      "icao": "LROP",
      "alert": "OK",
      "vis_m": 9999,
      "fzfg": false,
      "metar_trigger": false,
      "taf_trigger": false,
      "metar": "METAR LROP 260500Z 23005KT CAVOK M06/M08 Q1028 NOSIG",
      "taf": "TAF LROP 252300Z 2600/2624 VRB04KT CAVOK"
    },
    {
      "icao": "LRSB",
      "alert": "OK",
      "vis_m": 9999,
      "fzfg": false,
      "metar_trigger": false,
      "taf_trigger": false,
      "metar": "METAR LRSB 260500Z 00000KT 9999 BKN075 M01/M02 Q1026",
      "taf": "TAF LRSB 252300Z 2600/2624 VRB04KT 9999 BKN070"
    },
    {
      "icao": "LRSM",
      "alert": "OK",
      "vis_m": 9999,
      "fzfg": false,
      "metar_trigger": false,
      "taf_trigger": false,
      "metar": "METAR LRSM 260500Z 23004KT CAVOK M04/M05 Q1028",
      "taf": "TAF LRSM 260200Z 2603/2612 VRB04KT CAVOK"
    },
    {
      "icao": "LRSV",
      "alert": "OK",
      "vis_m": 5000,
      "fzfg": true,
      "metar_trigger": false,
      "taf_trigger": false,
      "metar": "METAR LRSV 260500Z 30007KT 270V330 5000 BR NSC M06/M07 Q1023",
      "taf": "TAF LRSV 260200Z 2603/2612 VRB04KT 0600 FZFG OVC001"
    },
    {
      "icao": "LRTM",
      "alert": "OK",
      "vis_m": 9999,
      "fzfg": false,
      "metar_trigger": false,
      "taf_trigger": false,
      "metar": "METAR LRTM 260500Z 08005KT CAVOK M05/M06 Q1027",
      "taf": "TAF LRTM 260200Z 2603/2612 VRB04KT 5000 BR NSC"
    },
    {
      "icao": "LRTR",
      "alert": "OK",
      "vis_m": 5000,
      "fzfg": false,
      "metar_trigger": false,
      "taf_trigger": false,
      "metar": "METAR LRTR 260500Z 30004KT 5000 BR BKN003 OVC006 01/01 Q1029",
      "taf": "TAF LRTR 252300Z 2600/2624 27006KT 3000 BR OVC002"
    },
    {
      "icao": "LTAC",
      "alert": "OK",
      "vis_m": 3400,
      "fzfg": false,
      "metar_trigger": false,
      "taf_trigger": false,
      "metar": "SPECI LTAC 260509Z 17003KT 090V220 3400 -DZ BR SCT025 BKN080 02/02 Q1018 TEMPO FM0600 2000",
      "taf": "TAF LTAC 260440Z 2606/2706 VRB02KT 4000 BR SCT030 BKN090"
    },
    {
      "icao": "LTFM",
      "alert": "OK",
      "vis_m": 9999,
      "fzfg": false,
      "metar_trigger": false,
      "taf_trigger": false,
      "metar": "METAR LTFM 260450Z 03013KT 9999 BKN022 BKN080 07/03 Q1024 NOSIG RMK RWY17L 03013KT RWY34L 02012KT RWY16R 04012KT RWY36 03014KT RWY18 04013KT",
      "taf": "TAF LTFM 260440Z 2606/2712 02015KT 9999 SCT030 BKN080"
    },
    {
      "icao": "LUKK",
      "alert": "OK",
      "vis_m": 9999,
      "fzfg": false,
      "metar_trigger": false,
      "taf_trigger": false,
      "metar": "METAR LUKK 260500Z VRB04KT CAVOK M12/M14 Q1024 NOSIG",
      "taf": "TAF LUKK 260515Z 2606/2706 29008KT 9999 SCT035"
    },
    {
      "icao": "LWOH",
      "alert": "OK",
      "vis_m": null,
      "fzfg": false,
      "metar_trigger": false,
      "taf_trigger": false,
      "metar": "",
      "taf": "TAF LWOH 260230Z 2603/2703 32006KT 9999 SCT015 OVC035"
    },
    {
      "icao": "LWSK",
      "alert": "OK",
      "vis_m": null,
      "fzfg": false,
      "metar_trigger": false,
      "taf_trigger": false,
      "metar": "",
      "taf": "TAF LWSK 260230Z 2603/2703 03005KT 9999 SCT010 OVC030"
    },
    {
      "icao": "LYBE",
      "alert": "OK",
      "vis_m": 9999,
      "fzfg": false,
      "metar_trigger": false,
      "taf_trigger": false,
      "metar": "METAR LYBE 260500Z 09004KT 9999 BKN035 01/M04 Q1030 NOSIG",
      "taf": "TAF LYBE 252300Z 2600/2624 11007KT 9999 BKN035 TX03/2612Z TNM00/2606Z"
    },
    {
      "icao": "LYNI",
      "alert": "OK",
      "vis_m": 9999,
      "fzfg": false,
      "metar_trigger": false,
      "taf_trigger": false,
      "metar": "METAR LYNI 260500Z 31008KT 9999 OVC027 M01/M03 Q1028 NOSIG",
      "taf": "TAF LYNI 252300Z 2600/2624 04003KT 9999 SCT013 OVC025 TX02/2612Z TNM01/2606Z"
    },
    {
      "icao": "LYPG",
      "alert": "OK",
      "vis_m": 9999,
      "fzfg": false,
      "metar_trigger": false,
      "taf_trigger": false,
      "metar": "METAR LYPG 260500Z VRB02KT CAVOK 01/00 Q1024 NOSIG",
      "taf": "TAF LYPG 252300Z 2600/2624 36005KT CAVOK TX13/2613Z TN01/2605Z"
    },
    {
      "icao": "LZIB",
      "alert": "OK",
      "vis_m": 9999,
      "fzfg": false,
      "metar_trigger": false,
      "taf_trigger": false,
      "metar": "METAR LZIB 260500Z 01001KT 9999 BKN048 M00/M01 Q1030 NOSIG",
      "taf": "TAF LZIB 260515Z 2606/2706 VRB02KT 9999 BKN048"
    },
    {
      "icao": "LZKZ",
      "alert": "OK",
      "vis_m": 9999,
      "fzfg": false,
      "metar_trigger": false,
      "taf_trigger": false,
      "metar": "METAR LZKZ 260500Z VRB02KT CAVOK M05/M06 Q1028 NOSIG",
      "taf": "TAF LZKZ 260515Z 2606/2706 VRB02KT CAVOK"
    },
    {
      "icao": "LZTT",
      "alert": "OK",
      "vis_m": 9999,
      "fzfg": false,
      "metar_trigger": false,
      "taf_trigger": false,
      "metar": "METAR LZTT 260500Z 02005KT 340V040 9999 FEW003 M06/M07 Q1026 NOSIG",
      "taf": "TAF LZTT 260515Z 2606/2706 VRB02KT 9999 FEW005 BKN027"
    },
    {
      "icao": "OEJN",
      "alert": "OK",
      "vis_m": 8000,
      "fzfg": false,
      "metar_trigger": false,
      "taf_trigger": false,
      "metar": "METAR OEJN 260500Z 04002KT 8000 FEW035 25/21 Q1012 NOSIG",
      "taf": "TAF OEJN 260500Z 2606/2712 36005KT 9999 SCT040"
    },
    {
      "icao": "OEMA",
      "alert": "OK",
      "vis_m": 9999,
      "fzfg": false,
      "metar_trigger": false,
      "taf_trigger": false,
      "metar": "METAR OEMA 260500Z VRB02KT 9999 FEW040 17/04 Q1016 NOSIG",
      "taf": "TAF OEMA 260500Z 2606/2712 VRB03KT 9999 SCT040"
    },
    {
      "icao": "OJAI",
      "alert": "OK",
      "vis_m": 3000,
      "fzfg": false,
      "metar_trigger": false,
      "taf_trigger": false,
      "metar": "METAR OJAI 260500Z 01002KT 3000 BR NSC 04/03 Q1018 NOSIG",
      "taf": "TAF OJAI 260500Z 2606/2712 05005KT 3000 BR NSC"
    },
    {
      "icao": "OMAA",
      "alert": "OK",
      "vis_m": 7000,
      "fzfg": false,
      "metar_trigger": false,
      "taf_trigger": false,
      "metar": "METAR OMAA 260500Z 22005KT 7000 NSC 18/14 Q1017 NOSIG",
      "taf": "TAF OMAA 260500Z 2606/2712 24006KT 8000 FEW045"
    },
    {
      "icao": "OMDB",
      "alert": "OK",
      "vis_m": 5000,
      "fzfg": false,
      "metar_trigger": false,
      "taf_trigger": false,
      "metar": "METAR OMDB 260500Z 17005KT 140V220 5000 HZ NSC 20/15 Q1017 BECMG 6000 NSW",
      "taf": "TAF OMDB 260500Z 2606/2712 16005KT 8000 FEW040"
    },
    {
      "icao": "UAAA",
      "alert": "OK",
      "vis_m": 5000,
      "fzfg": false,
      "metar_trigger": false,
      "taf_trigger": false,
      "metar": "METAR UAAA 260500Z 00000MPS 5000 FU SCT100 BKN200 01/M05 Q1017 NOSIG",
      "taf": "TAF UAAA 252303Z 2600/2624 22003MPS 3100 BR FU SCT030CB BKN100 TX03/2609Z TNM05/2601Z"
    },
    {
      "icao": "UBBB",
      "alert": "OK",
      "vis_m": 9999,
      "fzfg": false,
      "metar_trigger": false,
      "taf_trigger": false,
      "metar": "METAR UBBB 260500Z 13006KT 9999 OVC028 05/00 Q1022 NOSIG",
      "taf": "TAF UBBB 260502Z 2606/2706 18005KT 9999 SCT015 OVC025 TX07/2610Z TN03/2701Z"
    },
    {
      "icao": "UDSG",
      "alert": "OK",
      "vis_m": 2000,
      "fzfg": false,
      "metar_trigger": false,
      "taf_trigger": false,
      "metar": "METAR UDSG 260500Z 33001KT 2000 SN BR OVC026 M02/M02 Q1017 NOSIG",
      "taf": ""
    },
    {
      "icao": "UDYZ",
      "alert": "OK",
      "vis_m": 2400,
      "fzfg": false,
      "metar_trigger": false,
      "taf_trigger": false,
      "metar": "METAR UDYZ 260500Z 00000KT 2400 R08/1500U BR SCT043 M00/M02 Q1018 NOSIG",
      "taf": "TAF UDYZ 252300Z 2600/2624 VRB04KT 3000 BR FEW040"
    },
    {
      "icao": "UGKO",
      "alert": "OK",
      "vis_m": 9999,
      "fzfg": false,
      "metar_trigger": false,
      "taf_trigger": false,
      "metar": "METAR UGKO 260500Z 07002KT 9999 OVC090 03/M00 Q1019 NOSIG",
      "taf": "TAF UGKO 260500Z 2606/2706 09006KT 9999 OVC050 TX08/2610Z TN02/2703Z"
    }
  ]
}