{
  "ts_utc": "2026-07-12T04:36:44Z",
  "threshold_m": 150,
  "source": "stations_override.txt (ICAO list) + aviationweather.gov (METAR/TAF raw)",
  "station_count": 159,
  "stations": [
    {
      "icao": "BIKF",
      "alert": "OK",
      "vis_m": 9999,
      "fzfg": false,
      "metar_trigger": false,
      "taf_trigger": false,
      "metar": "METAR BIKF 120430Z 16019KT 9999 -DZ BKN003 OVC011 10/10 Q1022",
      "taf": "TAF BIKF 120101Z 1203/1303 17020KT 4000 -DZ BR OVC004 TX11/1215Z TN09/1203Z"
    },
    {
      "icao": "BKPR",
      "alert": "OK",
      "vis_m": 9999,
      "fzfg": false,
      "metar_trigger": false,
      "taf_trigger": false,
      "metar": "METAR BKPR 120430Z 34002KT CAVOK 16/14 Q1019 NOSIG",
      "taf": "TAF BKPR 112330Z 1200/1224 33007KT 9999 SCT060"
    },
    {
      "icao": "EBCI",
      "alert": "OK",
      "vis_m": 9999,
      "fzfg": false,
      "metar_trigger": false,
      "taf_trigger": false,
      "metar": "METAR EBCI 120420Z 04007KT CAVOK 17/13 Q1021 NOSIG",
      "taf": "TAF EBCI 112303Z 1200/1306 05005KT CAVOK"
    },
    {
      "icao": "EDDB",
      "alert": "OK",
      "vis_m": 9999,
      "fzfg": false,
      "metar_trigger": false,
      "taf_trigger": false,
      "metar": "METAR EDDB 120420Z AUTO 28005KT CAVOK 18/13 Q1019 NOSIG",
      "taf": "TAF EDDB 112300Z 1200/1224 27005KT CAVOK"
    },
    {
      "icao": "EDDH",
      "alert": "OK",
      "vis_m": 3700,
      "fzfg": false,
      "metar_trigger": false,
      "taf_trigger": false,
      "metar": "METAR EDDH 120420Z AUTO 31012KT 3700 1700 BR OVC002 16/15 Q1022 TEMPO 1500",
      "taf": ""
    },
    {
      "icao": "EDDK",
      "alert": "OK",
      "vis_m": 9999,
      "fzfg": false,
      "metar_trigger": false,
      "taf_trigger": false,
      "metar": "METAR EDDK 120420Z AUTO VRB02KT CAVOK 14/12 Q1022 NOSIG",
      "taf": "TAF EDDK 112300Z 1200/1306 VRB03KT CAVOK"
    },
    {
      "icao": "EDDN",
      "alert": "OK",
      "vis_m": 9999,
      "fzfg": false,
      "metar_trigger": false,
      "taf_trigger": false,
      "metar": "METAR EDDN 120420Z AUTO VRB02KT CAVOK 13/10 Q1021 NOSIG",
      "taf": "TAF EDDN 112300Z 1200/1224 VRB02KT CAVOK"
    },
    {
      "icao": "EDDS",
      "alert": "OK",
      "vis_m": 9999,
      "fzfg": false,
      "metar_trigger": false,
      "taf_trigger": false,
      "metar": "METAR EDDS 120420Z AUTO 34003KT 310V040 CAVOK 19/09 Q1020 NOSIG",
      "taf": "TAF EDDS 112300Z 1200/1224 01004KT CAVOK"
    },
    {
      "icao": "EDFH",
      "alert": "OK",
      "vis_m": 9999,
      "fzfg": false,
      "metar_trigger": false,
      "taf_trigger": false,
      "metar": "METAR EDFH 120420Z 08006KT 030V130 CAVOK 17/09 Q1022",
      "taf": "TAF EDFH 112300Z 1200/1224 10007KT CAVOK"
    },
    {
      "icao": "EDJA",
      "alert": "OK",
      "vis_m": 9999,
      "fzfg": false,
      "metar_trigger": false,
      "taf_trigger": false,
      "metar": "METAR EDJA 120420Z 07002KT CAVOK 11/09 Q1021",
      "taf": "TAF EDJA 120200Z 1203/1212 VRB02KT CAVOK"
    },
    {
      "icao": "EDLW",
      "alert": "OK",
      "vis_m": 9999,
      "fzfg": false,
      "metar_trigger": false,
      "taf_trigger": false,
      "metar": "METAR EDLW 120420Z 00000KT CAVOK 15/12 Q1022",
      "taf": "TAF EDLW 120320Z 1204/1224 VRB03KT CAVOK"
    },
    {
      "icao": "EDNY",
      "alert": "OK",
      "vis_m": 9999,
      "fzfg": false,
      "metar_trigger": false,
      "taf_trigger": false,
      "metar": "METAR EDNY 120420Z AUTO 07005KT 9999 // NCD 16/09 Q1020",
      "taf": "TAF EDNY 120200Z 1203/1212 03008KT CAVOK"
    },
    {
      "icao": "EDSB",
      "alert": "OK",
      "vis_m": 9999,
      "fzfg": false,
      "metar_trigger": false,
      "taf_trigger": false,
      "metar": "METAR EDSB 120420Z 02009KT 9999 NSC 20/11 Q1019",
      "taf": "TAF EDSB 112300Z 1200/1224 02007KT CAVOK"
    },
    {
      "icao": "EETN",
      "alert": "OK",
      "vis_m": 9999,
      "fzfg": false,
      "metar_trigger": false,
      "taf_trigger": false,
      "metar": "METAR EETN 120420Z 06004KT CAVOK 19/17 Q1016 NOSIG",
      "taf": "TAF EETN 112330Z 1200/1224 05008KT CAVOK"
    },
    {
      "icao": "EFTU",
      "alert": "OK",
      "vis_m": 9999,
      "fzfg": false,
      "metar_trigger": false,
      "taf_trigger": false,
      "metar": "METAR EFTU 120420Z AUTO 09005KT CAVOK 20/16 Q1017",
      "taf": "TAF EFTU 120229Z 1203/1303 36006KT CAVOK"
    },
    {
      "icao": "EGBB",
      "alert": "OK",
      "vis_m": 9999,
      "fzfg": false,
      "metar_trigger": false,
      "taf_trigger": false,
      "metar": "METAR EGBB 120420Z 07010KT 9999 BKN018 17/13 Q1026",
      "taf": "TAF EGBB 112253Z 1200/1224 06010KT 9999 BKN016"
    },
    {
      "icao": "EGGP",
      "alert": "OK",
      "vis_m": 9999,
      "fzfg": false,
      "metar_trigger": false,
      "taf_trigger": false,
      "metar": "METAR EGGP 120420Z 04007KT CAVOK 16/13 Q1027",
      "taf": "TAF EGGP 112248Z 1200/1224 09008KT CAVOK"
    },
    {
      "icao": "EGGW",
      "alert": "OK",
      "vis_m": 9999,
      "fzfg": false,
      "metar_trigger": false,
      "taf_trigger": false,
      "metar": "METAR EGGW 120420Z AUTO 05011KT 9999 OVC012 16/13 Q1025",
      "taf": "TAF EGGW 112248Z 1200/1224 04010KT 9999 SCT014"
    },
    {
      "icao": "EGKK",
      "alert": "OK",
      "vis_m": 9999,
      "fzfg": false,
      "metar_trigger": false,
      "taf_trigger": false,
      "metar": "METAR EGKK 120420Z 04011KT 9999 BKN009 17/14 Q1023",
      "taf": "TAF EGKK 112255Z 1200/1306 04010KT CAVOK"
    },
    {
      "icao": "EGNM",
      "alert": "OK",
      "vis_m": 9999,
      "fzfg": false,
      "metar_trigger": false,
      "taf_trigger": false,
      "metar": "METAR EGNM 120420Z 04006KT 9999 FEW010 14/13 Q1029",
      "taf": ""
    },
    {
      "icao": "EGPD",
      "alert": "OK",
      "vis_m": 9999,
      "fzfg": false,
      "metar_trigger": false,
      "taf_trigger": false,
      "metar": "METAR EGPD 120420Z AUTO 36003KT 9999 OVC028 13/12 Q1032",
      "taf": "TAF EGPD 112253Z 1200/1224 04006KT 9999 BKN020"
    },
    {
      "icao": "EGPF",
      "alert": "OK",
      "vis_m": 9999,
      "fzfg": false,
      "metar_trigger": false,
      "taf_trigger": false,
      "metar": "METAR EGPF 120420Z AUTO 06008KT 9999 OVC007 15/14 Q1030",
      "taf": "TAF EGPF 112254Z 1200/1224 07010KT 9999 BKN010"
    },
    {
      "icao": "EHBK",
      "alert": "OK",
      "vis_m": 9999,
      "fzfg": false,
      "metar_trigger": false,
      "taf_trigger": false,
      "metar": "METAR EHBK 120425Z AUTO 05006KT 9999 NCD 17/13 Q1021 NOSIG",
      "taf": "TAF EHBK 112306Z 1200/1306 05007KT CAVOK"
    },
    {
      "icao": "EHEH",
      "alert": "OK",
      "vis_m": 9999,
      "fzfg": false,
      "metar_trigger": false,
      "taf_trigger": false,
      "metar": "METAR EHEH 120425Z AUTO 04006KT 9999 NCD 18/16 Q1022 BLU NOSIG RMK TREND REMOTE BY EHWX",
      "taf": "TAF EHEH 112303Z 1200/1306 04007KT CAVOK"
    },
    {
      "icao": "EKBI",
      "alert": "OK",
      "vis_m": 9999,
      "fzfg": false,
      "metar_trigger": false,
      "taf_trigger": false,
      "metar": "METAR EKBI 120420Z AUTO 29005KT 9999 NCD 13/12 Q1022",
      "taf": "TAF EKBI 120227Z 1203/1303 28005KT CAVOK"
    },
    {
      "icao": "EKCH",
      "alert": "OK",
      "vis_m": 9999,
      "fzfg": false,
      "metar_trigger": false,
      "taf_trigger": false,
      "metar": "METAR EKCH 120420Z AUTO 35008KT 9999 NCD 21/14 Q1020 NOSIG",
      "taf": "TAF EKCH 120227Z 1203/1303 35005KT CAVOK"
    },
    {
      "icao": "ENAL",
      "alert": "OK",
      "vis_m": 9999,
      "fzfg": false,
      "metar_trigger": false,
      "taf_trigger": false,
      "metar": "METAR ENAL 120420Z 05009KT 9999 FEW014 12/09 Q1029",
      "taf": "TAF ENAL 120200Z 1203/1212 04010KT 9999 FEW012"
    },
    {
      "icao": "ENBR",
      "alert": "OK",
      "vis_m": 9999,
      "fzfg": false,
      "metar_trigger": false,
      "taf_trigger": false,
      "metar": "METAR ENBR 120420Z 36007KT CAVOK 11/10 Q1026 RMK WIND 1200FT 35011KT",
      "taf": "TAF ENBR 112300Z 1200/1224 33010KT CAVOK"
    },
    {
      "icao": "ENGM",
      "alert": "OK",
      "vis_m": 9999,
      "fzfg": false,
      "metar_trigger": false,
      "taf_trigger": false,
      "metar": "METAR ENGM 120420Z 01011KT CAVOK 14/08 Q1026 NOSIG",
      "taf": ""
    },
    {
      "icao": "ENHD",
      "alert": "OK",
      "vis_m": 9999,
      "fzfg": false,
      "metar_trigger": false,
      "taf_trigger": false,
      "metar": "METAR ENHD 120420Z AUTO 35016KT 9999 VV004 12/10 Q1026",
      "taf": ""
    },
    {
      "icao": "ENTC",
      "alert": "OK",
      "vis_m": 9999,
      "fzfg": false,
      "metar_trigger": false,
      "taf_trigger": false,
      "metar": "METAR ENTC 120420Z 21006KT 9999 BKN055 11/08 Q1026 RMK WIND 2600FT 22007KT",
      "taf": ""
    },
    {
      "icao": "ENTO",
      "alert": "OK",
      "vis_m": 9999,
      "fzfg": false,
      "metar_trigger": false,
      "taf_trigger": false,
      "metar": "METAR ENTO 120420Z AUTO 01006KT 9999 -RA FEW030/// 15/15 Q1025",
      "taf": ""
    },
    {
      "icao": "ENVA",
      "alert": "OK",
      "vis_m": 9999,
      "fzfg": false,
      "metar_trigger": false,
      "taf_trigger": false,
      "metar": "METAR ENVA 120420Z 09004KT 9999 SCT025 09/08 Q1030 RMK WIND 670FT VRB02KT",
      "taf": "TAF ENVA 112300Z 1200/1224 VRB03KT CAVOK"
    },
    {
      "icao": "ENZV",
      "alert": "OK",
      "vis_m": 9999,
      "fzfg": false,
      "metar_trigger": false,
      "taf_trigger": false,
      "metar": "METAR ENZV 120420Z 34006KT CAVOK 12/11 Q1026",
      "taf": "TAF ENZV 112300Z 1200/1224 34015KT CAVOK"
    },
    {
      "icao": "EPGD",
      "alert": "OK",
      "vis_m": 9999,
      "fzfg": false,
      "metar_trigger": false,
      "taf_trigger": false,
      "metar": "METAR EPGD 120430Z 33009KT 9999 BKN006 15/14 Q1015",
      "taf": "TAF EPGD 112330Z 1200/1224 32013KT 9999 BKN030"
    },
    {
      "icao": "EPKK",
      "alert": "OK",
      "vis_m": 9999,
      "fzfg": false,
      "metar_trigger": false,
      "taf_trigger": false,
      "metar": "METAR EPKK 120430Z 24005KT 190V250 9999 FEW025TCU BKN056 14/13 Q1016",
      "taf": "TAF EPKK 120230Z 1203/1303 27006KT 9999 SCT040"
    },
    {
      "icao": "EPKT",
      "alert": "OK",
      "vis_m": 9999,
      "fzfg": false,
      "metar_trigger": false,
      "taf_trigger": false,
      "metar": "METAR EPKT 120430Z 22003KT 190V250 CAVOK 13/12 Q1016",
      "taf": "TAF EPKT 112330Z 1200/1224 29005KT 9999 SCT030"
    },
    {
      "icao": "EPLB",
      "alert": "OK",
      "vis_m": 9999,
      "fzfg": false,
      "metar_trigger": false,
      "taf_trigger": false,
      "metar": "METAR EPLB 120430Z 15002KT CAVOK 15/13 Q1015",
      "taf": "TAF EPLB 112330Z 1200/1224 VRB04KT 9999 SCT040"
    },
    {
      "icao": "EPMO",
      "alert": "OK",
      "vis_m": 3400,
      "fzfg": false,
      "metar_trigger": false,
      "taf_trigger": false,
      "metar": "METAR EPMO 120430Z 24010KT 3400 -DZ BR BKN006 14/14 Q1013",
      "taf": ""
    },
    {
      "icao": "EPPO",
      "alert": "OK",
      "vis_m": 9999,
      "fzfg": false,
      "metar_trigger": false,
      "taf_trigger": false,
      "metar": "METAR EPPO 120430Z 27007KT 9999 BKN040 16/14 Q1017",
      "taf": "TAF EPPO 112330Z 1200/1224 29006KT 9999 BKN050"
    },
    {
      "icao": "EPRA",
      "alert": "OK",
      "vis_m": 9999,
      "fzfg": false,
      "metar_trigger": false,
      "taf_trigger": false,
      "metar": "METAR EPRA 120430Z 22006KT 9999 FEW004 OVC035 14/13 Q1015",
      "taf": "TAF EPRA 120230Z 1203/1212 21006KT 8000 BKN030"
    },
    {
      "icao": "EPRZ",
      "alert": "OK",
      "vis_m": 9999,
      "fzfg": false,
      "metar_trigger": false,
      "taf_trigger": false,
      "metar": "METAR EPRZ 120430Z 23002KT 9999 FEW046CB 14/14 Q1016",
      "taf": "TAF EPRZ 112330Z 1200/1224 28006KT CAVOK"
    },
    {
      "icao": "EPSC",
      "alert": "OK",
      "vis_m": 9999,
      "fzfg": false,
      "metar_trigger": false,
      "taf_trigger": false,
      "metar": "METAR EPSC 120430Z 31006KT CAVOK 18/15 Q1018",
      "taf": "TAF EPSC 112330Z 1200/1224 VRB02KT CAVOK"
    },
    {
      "icao": "EPSY",
      "alert": "OK",
      "vis_m": 5000,
      "fzfg": false,
      "metar_trigger": false,
      "taf_trigger": false,
      "metar": "METAR EPSY 120430Z VRB02KT 5000 BR OVC004 14/14 Q1012",
      "taf": "TAF EPSY 120230Z 1203/1212 25006KT 9999 BKN005"
    },
    {
      "icao": "EPWA",
      "alert": "OK",
      "vis_m": 9999,
      "fzfg": false,
      "metar_trigger": false,
      "taf_trigger": false,
      "metar": "METAR EPWA 120430Z 22005KT 190V250 9999 -RA FEW008 BKN030 15/14 Q1014 BECMG BKN010",
      "taf": "TAF EPWA 120230Z 1203/1303 23005KT 9999 BKN025"
    },
    {
      "icao": "EPWR",
      "alert": "OK",
      "vis_m": 9999,
      "fzfg": false,
      "metar_trigger": false,
      "taf_trigger": false,
      "metar": "METAR EPWR 120430Z 29007KT 9999 -SHRA FEW040CB SCT044 16/13 Q1018",
      "taf": "TAF EPWR 120230Z 1203/1303 32010KT 9999 FEW050"
    },
    {
      "icao": "ESGG",
      "alert": "OK",
      "vis_m": 9999,
      "fzfg": false,
      "metar_trigger": false,
      "taf_trigger": false,
      "metar": "METAR ESGG 120420Z 03010KT CAVOK 17/15 Q1021",
      "taf": "TAF ESGG 120230Z 1203/1303 36010KT CAVOK"
    },
    {
      "icao": "ESKN",
      "alert": "OK",
      "vis_m": 9999,
      "fzfg": false,
      "metar_trigger": false,
      "taf_trigger": false,
      "metar": "METAR ESKN 120420Z 35009KT 320V020 CAVOK 17/14 Q1020",
      "taf": "TAF ESKN 120230Z 1203/1303 35010KT CAVOK"
    },
    {
      "icao": "ESMS",
      "alert": "OK",
      "vis_m": 9999,
      "fzfg": false,
      "metar_trigger": false,
      "taf_trigger": false,
      "metar": "METAR ESMS 120420Z 35003KT CAVOK 15/15 Q1019",
      "taf": "TAF ESMS 120227Z 1203/1303 32010KT CAVOK"
    },
    {
      "icao": "ESSA",
      "alert": "OK",
      "vis_m": 9999,
      "fzfg": false,
      "metar_trigger": false,
      "taf_trigger": false,
      "metar": "METAR ESSA 120420Z 36015KT CAVOK 15/11 Q1020 NOSIG",
      "taf": "TAF ESSA 120230Z 1203/1303 01015KT CAVOK"
    },
    {
      "icao": "EYKA",
      "alert": "OK",
      "vis_m": 9999,
      "fzfg": false,
      "metar_trigger": false,
      "taf_trigger": false,
      "metar": "METAR EYKA 120420Z VRB02KT 9999 SCT006 BKN009 OVC026 14/13 Q1014",
      "taf": ""
    },
    {
      "icao": "EYPA",
      "alert": "OK",
      "vis_m": 9999,
      "fzfg": false,
      "metar_trigger": false,
      "taf_trigger": false,
      "metar": "METAR EYPA 120420Z 08005KT 050V110 9999 FEW003 17/16 Q1014",
      "taf": ""
    },
    {
      "icao": "EYVI",
      "alert": "OK",
      "vis_m": 9999,
      "fzfg": false,
      "metar_trigger": false,
      "taf_trigger": false,
      "metar": "METAR EYVI 120420Z 30003KT 240V340 9999 BKN005 OVC022 14/13 Q1014 NOSIG",
      "taf": "TAF EYVI 112321Z 1200/1224 VRB03KT 5000 BR BKN005"
    },
    {
      "icao": "GCFV",
      "alert": "OK",
      "vis_m": 9999,
      "fzfg": false,
      "metar_trigger": false,
      "taf_trigger": false,
      "metar": "METAR GCFV 120430Z AUTO 34006KT CAVOK 21/16 Q1016",
      "taf": "TAF GCFV 120200Z 1203/1303 36008KT 9999 SCT030 TX25/1214Z TN20/1206Z"
    },
    {
      "icao": "GCLP",
      "alert": "OK",
      "vis_m": 9999,
      "fzfg": false,
      "metar_trigger": false,
      "taf_trigger": false,
      "metar": "METAR GCLP 120430Z 35009KT 9999 FEW040 21/15 Q1016 NOSIG",
      "taf": "TAF GCLP 120200Z 1203/1303 36015KT 9999 SCT030 TX25/1214Z TN19/1206Z"
    },
    {
      "icao": "GCTS",
      "alert": "OK",
      "vis_m": 9999,
      "fzfg": false,
      "metar_trigger": false,
      "taf_trigger": false,
      "metar": "METAR GCTS 120430Z 07010KT 9999 SCT030 23/16 Q1016 NOSIG",
      "taf": "TAF GCTS 120200Z 1203/1303 04008KT 9999 BKN030 TX26/1214Z TN20/1206Z"
    },
    {
      "icao": "GMAD",
      "alert": "OK",
      "vis_m": 9999,
      "fzfg": false,
      "metar_trigger": false,
      "taf_trigger": false,
      "metar": "METAR GMAD 120430Z 00000KT 9999 SCT010 SCT020 23/18 Q1013 NOSIG",
      "taf": "TAF GMAD 112300Z 1200/1306 18006KT 8000 SCT020"
    },
    {
      "icao": "GMMN",
      "alert": "OK",
      "vis_m": 9999,
      "fzfg": false,
      "metar_trigger": false,
      "taf_trigger": false,
      "metar": "METAR GMMN 120430Z 16003KT 9999 SCT020 18/14 Q1014 NOSIG",
      "taf": "TAF GMMN 112300Z 1200/1306 04004KT 9999 FEW020"
    },
    {
      "icao": "GMMX",
      "alert": "OK",
      "vis_m": 9999,
      "fzfg": false,
      "metar_trigger": false,
      "taf_trigger": false,
      "metar": "METAR GMMX 120430Z 25004KT CAVOK 19/16 Q1015 NOSIG",
      "taf": "TAF GMMX 112300Z 1200/1306 06006KT 8000 NSC"
    },
    {
      "icao": "HEGN",
      "alert": "OK",
      "vis_m": 9999,
      "fzfg": false,
      "metar_trigger": false,
      "taf_trigger": false,
      "metar": "METAR HEGN 120400Z 32012KT CAVOK 28/09 Q1008 NOSIG",
      "taf": ""
    },
    {
      "icao": "HEMA",
      "alert": "OK",
      "vis_m": 9999,
      "fzfg": false,
      "metar_trigger": false,
      "taf_trigger": false,
      "metar": "METAR HEMA 120400Z 31016KT CAVOK 30/10 Q1007 NOSIG",
      "taf": ""
    },
    {
      "icao": "HESH",
      "alert": "OK",
      "vis_m": 9999,
      "fzfg": false,
      "metar_trigger": false,
      "taf_trigger": false,
      "metar": "METAR HESH 120400Z 33012KT CAVOK 28/17 Q1006 NOSIG",
      "taf": ""
    },
    {
      "icao": "HESX",
      "alert": "OK",
      "vis_m": 6000,
      "fzfg": false,
      "metar_trigger": false,
      "taf_trigger": false,
      "metar": "METAR HESX 120400Z 34005KT 6000 NSC 23/20 Q1011 NOSIG",
      "taf": ""
    },
    {
      "icao": "LATI",
      "alert": "OK",
      "vis_m": 9999,
      "fzfg": false,
      "metar_trigger": false,
      "taf_trigger": false,
      "metar": "METAR LATI 120420Z 16005KT CAVOK 19/11 Q1016 NOSIG",
      "taf": "TAF LATI 112300Z 1200/1224 VRB05KT CAVOK TX35/1212Z TN17/1204Z"
    },
    {
      "icao": "LBPD",
      "alert": "OK",
      "vis_m": 9999,
      "fzfg": false,
      "metar_trigger": false,
      "taf_trigger": false,
      "metar": "METAR LBPD 120430Z AUTO VRB02KT 9999 OVC110/// 20/13 Q1016 NOSIG",
      "taf": "TAF LBPD 112300Z 1200/1224 VRB04KT CAVOK"
    },
    {
      "icao": "LBSF",
      "alert": "OK",
      "vis_m": 9999,
      "fzfg": false,
      "metar_trigger": false,
      "taf_trigger": false,
      "metar": "METAR LBSF 120430Z 29002KT 9999 BKN076 20/14 Q1018 NOSIG",
      "taf": "TAF LBSF 112300Z 1200/1224 VRB04KT CAVOK"
    },
    {
      "icao": "LBWN",
      "alert": "OK",
      "vis_m": 9999,
      "fzfg": false,
      "metar_trigger": false,
      "taf_trigger": false,
      "metar": "METAR LBWN 120430Z AUTO 29002KT 9999 NSC 18/15 Q1015 NOSIG",
      "taf": "TAF LBWN 112300Z 1200/1224 VRB04KT 9999 SCT045"
    },
    {
      "icao": "LCLK",
      "alert": "OK",
      "vis_m": 9999,
      "fzfg": false,
      "metar_trigger": false,
      "taf_trigger": false,
      "metar": "METAR LCLK 120430Z 34003KT 280V360 9999 FEW010 28/23 Q1009 NOSIG",
      "taf": "TAF LCLK 112330Z 1200/1300 32004KT 8000 NSC"
    },
    {
      "icao": "LCPH",
      "alert": "OK",
      "vis_m": 9999,
      "fzfg": false,
      "metar_trigger": false,
      "taf_trigger": false,
      "metar": "METAR LCPH 120430Z 02004KT 010V080 CAVOK 28/19 Q1009 NOSIG",
      "taf": "TAF LCPH 112330Z 1200/1300 35006KT CAVOK"
    },
    {
      "icao": "LEAL",
      "alert": "OK",
      "vis_m": 9999,
      "fzfg": false,
      "metar_trigger": false,
      "taf_trigger": false,
      "metar": "METAR LEAL 120430Z 29003KT 270V330 CAVOK 26/17 Q1010 NOSIG",
      "taf": "TAF LEAL 112300Z 1200/1224 VRB03KT 9999 FEW015 TX33/1212Z TN22/1206Z"
    },
    {
      "icao": "LEBB",
      "alert": "OK",
      "vis_m": 9999,
      "fzfg": false,
      "metar_trigger": false,
      "taf_trigger": false,
      "metar": "METAR LEBB 120430Z 14020G34KT 100V170 CAVOK 32/13 Q1008 NOSIG",
      "taf": "TAF LEBB 112300Z 1200/1224 12008KT CAVOK TX39/1213Z TN21/1224Z"
    },
    {
      "icao": "LEBL",
      "alert": "OK",
      "vis_m": 9999,
      "fzfg": false,
      "metar_trigger": false,
      "taf_trigger": false,
      "metar": "METAR LEBL 120430Z 04006KT 9999 SCT015 24/22 Q1014 NOSIG",
      "taf": "TAF LEBL 112300Z 1200/1224 07008KT 9999 SCT015 TX30/1212Z TN23/1205Z"
    },
    {
      "icao": "LECH",
      "alert": "OK",
      "vis_m": 9999,
      "fzfg": false,
      "metar_trigger": false,
      "taf_trigger": false,
      "metar": "METAR LECH 120430Z AUTO 04004KT 340V070 CAVOK 21/19 Q1015",
      "taf": "TAF LECH 112300Z 1200/1224 VRB04KT CAVOK TX34/1212Z TN19/1206Z"
    },
    {
      "icao": "LEMD",
      "alert": "OK",
      "vis_m": 9999,
      "fzfg": false,
      "metar_trigger": false,
      "taf_trigger": false,
      "metar": "METAR LEMD 120430Z 14005KT 110V170 9999 -SHRA FEW045 SCT070CB 22/15 Q1014 TEMPO TSRA",
      "taf": ""
    },
    {
      "icao": "LEMG",
      "alert": "OK",
      "vis_m": 9999,
      "fzfg": false,
      "metar_trigger": false,
      "taf_trigger": false,
      "metar": "METAR LEMG 120430Z VRB02KT 9999 FEW045 22/14 Q1012 NOSIG",
      "taf": "TAF LEMG 112300Z 1200/1224 13003KT CAVOK TX33/1214Z TN21/1205Z"
    },
    {
      "icao": "LEVC",
      "alert": "OK",
      "vis_m": 9999,
      "fzfg": false,
      "metar_trigger": false,
      "taf_trigger": false,
      "metar": "METAR LEVC 120430Z 32004KT 9999 SCT042 24/22 Q1013 NOSIG",
      "taf": "TAF LEVC 112300Z 1200/1224 VRB03KT 9999 FEW015 TX32/1214Z TN22/1206Z"
    },
    {
      "icao": "LEXJ",
      "alert": "OK",
      "vis_m": 9999,
      "fzfg": false,
      "metar_trigger": false,
      "taf_trigger": false,
      "metar": "METAR LEXJ 120430Z VRB02KT CAVOK 21/19 Q1007",
      "taf": "TAF LEXJ 120200Z 1203/1303 08005KT 9999 FEW010 TX30/1212Z TN21/1303Z"
    },
    {
      "icao": "LEZG",
      "alert": "OK",
      "vis_m": 9999,
      "fzfg": false,
      "metar_trigger": false,
      "taf_trigger": false,
      "metar": "METAR LEZG 120430Z 13006KT 100V160 CAVOK 24/14 Q1014 NOSIG",
      "taf": "TAF LEZG 112300Z 1200/1224 10010KT CAVOK TX38/1215Z TN22/1206Z"
    },
    {
      "icao": "LEZL",
      "alert": "OK",
      "vis_m": 9999,
      "fzfg": false,
      "metar_trigger": false,
      "taf_trigger": false,
      "metar": "METAR LEZL 120430Z VRB01KT CAVOK 20/16 Q1013 NOSIG",
      "taf": "TAF LEZL 120200Z 1203/1303 VRB03KT 9999 SCT025 TX30/1215Z TN19/1205Z"
    },
    {
      "icao": "LFBD",
      "alert": "OK",
      "vis_m": 9999,
      "fzfg": false,
      "metar_trigger": false,
      "taf_trigger": false,
      "metar": "METAR LFBD 120430Z AUTO 09008KT 9999 FEW011 25/15 Q1012 NOSIG",
      "taf": "TAF LFBD 112300Z 1200/1306 10008KT CAVOK TX40/1215Z TN26/1205Z"
    },
    {
      "icao": "LFLL",
      "alert": "OK",
      "vis_m": 9999,
      "fzfg": false,
      "metar_trigger": false,
      "taf_trigger": false,
      "metar": "METAR LFLL 120430Z 14007KT CAVOK 22/14 Q1016 NOSIG",
      "taf": "TAF LFLL 112300Z 1200/1306 17006KT CAVOK"
    },
    {
      "icao": "LFLS",
      "alert": "OK",
      "vis_m": 9999,
      "fzfg": false,
      "metar_trigger": false,
      "taf_trigger": false,
      "metar": "METAR LFLS 120430Z AUTO 08008KT CAVOK 18/14 Q1017 NOSIG",
      "taf": "TAF LFLS 120200Z 1203/1303 09006KT CAVOK"
    },
    {
      "icao": "LFMN",
      "alert": "OK",
      "vis_m": 9999,
      "fzfg": false,
      "metar_trigger": false,
      "taf_trigger": false,
      "metar": "METAR LFMN 120430Z 33007KT CAVOK 25/12 Q1015 NOSIG",
      "taf": "TAF LFMN 120200Z 1203/1309 35008KT CAVOK"
    },
    {
      "icao": "LFOB",
      "alert": "OK",
      "vis_m": 9999,
      "fzfg": false,
      "metar_trigger": false,
      "taf_trigger": false,
      "metar": "METAR LFOB 120430Z AUTO 02004KT CAVOK 19/17 Q1019 NOSIG",
      "taf": "TAF LFOB 112300Z 1200/1224 05011KT CAVOK"
    },
    {
      "icao": "LFPO",
      "alert": "OK",
      "vis_m": 9999,
      "fzfg": false,
      "metar_trigger": false,
      "taf_trigger": false,
      "metar": "METAR LFPO 120430Z AUTO 03007KT CAVOK 23/14 Q1018 NOSIG",
      "taf": "TAF LFPO 112300Z 1200/1306 04012KT CAVOK"
    },
    {
      "icao": "LFSB",
      "alert": "OK",
      "vis_m": 9999,
      "fzfg": false,
      "metar_trigger": false,
      "taf_trigger": false,
      "metar": "METAR LFSB 120430Z AUTO 28003KT CAVOK 16/12 Q1019 NOSIG",
      "taf": "TAF LFSB 112330Z 1200/1224 34005KT CAVOK"
    },
    {
      "icao": "LGAV",
      "alert": "OK",
      "vis_m": 9999,
      "fzfg": false,
      "metar_trigger": false,
      "taf_trigger": false,
      "metar": "METAR LGAV 120420Z 00000KT CAVOK 24/12 Q1015 NOSIG",
      "taf": "TAF LGAV 112300Z 1200/1224 05012KT 9999 FEW025"
    },
    {
      "icao": "LGTS",
      "alert": "OK",
      "vis_m": 9999,
      "fzfg": false,
      "metar_trigger": false,
      "taf_trigger": false,
      "metar": "METAR LGTS 120420Z VRB03KT CAVOK 21/13 Q1015 NOSIG",
      "taf": "TAF LGTS 112300Z 1200/1224 13003KT CAVOK"
    },
    {
      "icao": "LHBP",
      "alert": "OK",
      "vis_m": 9999,
      "fzfg": false,
      "metar_trigger": false,
      "taf_trigger": false,
      "metar": "METAR LHBP 120430Z 35003KT 320V020 CAVOK 19/12 Q1017 NOSIG",
      "taf": "TAF LHBP 112315Z 1200/1224 08008KT CAVOK"
    },
    {
      "icao": "LHDC",
      "alert": "OK",
      "vis_m": null,
      "fzfg": false,
      "metar_trigger": false,
      "taf_trigger": false,
      "metar": "",
      "taf": "TAF LHDC 111715Z 1118/1203 03005KT CAVOK"
    },
    {
      "icao": "LIBD",
      "alert": "OK",
      "vis_m": 9999,
      "fzfg": false,
      "metar_trigger": false,
      "taf_trigger": false,
      "metar": "METAR LIBD 120420Z 21002KT CAVOK 23/13 Q1014",
      "taf": "TAF LIBD 112300Z 1200/1224 21005KT CAVOK"
    },
    {
      "icao": "LIBG",
      "alert": "OK",
      "vis_m": 9999,
      "fzfg": false,
      "metar_trigger": false,
      "taf_trigger": false,
      "metar": "METAR LIBG 120420Z AUTO 13002KT 9999 0100S VV001 21/21 Q1014",
      "taf": ""
    },
    {
      "icao": "LIBP",
      "alert": "OK",
      "vis_m": 9999,
      "fzfg": false,
      "metar_trigger": false,
      "taf_trigger": false,
      "metar": "METAR LIBP 120420Z AUTO 28007KT 250V310 9999 BKN024/// 24/18 Q1018",
      "taf": "TAF LIBP 112300Z 1200/1224 VRB05KT CAVOK"
    },
    {
      "icao": "LIBR",
      "alert": "OK",
      "vis_m": 6000,
      "fzfg": false,
      "metar_trigger": false,
      "taf_trigger": false,
      "metar": "METAR LIBR 120420Z 17006KT 6000 0600SE SCT002 22/22 Q1014",
      "taf": "TAF LIBR 112300Z 1200/1224 18007KT CAVOK"
    },
    {
      "icao": "LICA",
      "alert": "OK",
      "vis_m": 9999,
      "fzfg": false,
      "metar_trigger": false,
      "taf_trigger": false,
      "metar": "METAR LICA 120420Z AUTO 08005KT 9999 NCD 20/16 Q1015",
      "taf": "TAF LICA 112300Z 1200/1224 08006KT CAVOK"
    },
    {
      "icao": "LICC",
      "alert": "OK",
      "vis_m": 9999,
      "fzfg": false,
      "metar_trigger": false,
      "taf_trigger": false,
      "metar": "METAR LICC 120420Z 25011KT CAVOK 23/18 Q1015",
      "taf": "TAF LICC 112300Z 1200/1224 26008KT CAVOK"
    },
    {
      "icao": "LICJ",
      "alert": "OK",
      "vis_m": 9999,
      "fzfg": false,
      "metar_trigger": false,
      "taf_trigger": false,
      "metar": "METAR LICJ 120420Z 15003KT CAVOK 25/18 Q1013",
      "taf": "TAF LICJ 112300Z 1200/1224 21013KT CAVOK"
    },
    {
      "icao": "LIMC",
      "alert": "OK",
      "vis_m": 9999,
      "fzfg": false,
      "metar_trigger": false,
      "taf_trigger": false,
      "metar": "METAR LIMC 120420Z 03003KT CAVOK 20/17 Q1016 NOSIG",
      "taf": "TAF LIMC 112300Z 1200/1306 VRB04KT CAVOK"
    },
    {
      "icao": "LIME",
      "alert": "OK",
      "vis_m": 9999,
      "fzfg": false,
      "metar_trigger": false,
      "taf_trigger": false,
      "metar": "METAR LIME 120420Z VRB02KT CAVOK 22/16 Q1016 NOSIG",
      "taf": "TAF LIME 112300Z 1200/1224 VRB04KT CAVOK"
    },
    {
      "icao": "LIMF",
      "alert": "OK",
      "vis_m": 9999,
      "fzfg": false,
      "metar_trigger": false,
      "taf_trigger": false,
      "metar": "METAR LIMF 120350Z 21003KT CAVOK 19/17 Q1017",
      "taf": "TAF LIMF 112300Z 1200/1224 VRB05KT CAVOK"
    },
    {
      "icao": "LIMJ",
      "alert": "OK",
      "vis_m": 9999,
      "fzfg": false,
      "metar_trigger": false,
      "taf_trigger": false,
      "metar": "METAR LIMJ 120420Z 05008KT CAVOK 25/13 Q1015",
      "taf": "TAF LIMJ 112300Z 1200/1224 VRB06KT CAVOK"
    },
    {
      "icao": "LIPE",
      "alert": "OK",
      "vis_m": 9999,
      "fzfg": false,
      "metar_trigger": false,
      "taf_trigger": false,
      "metar": "METAR LIPE 120420Z 24005KT CAVOK 21/19 Q1016",
      "taf": "TAF LIPE 112300Z 1200/1224 VRB06KT CAVOK"
    },
    {
      "icao": "LIPH",
      "alert": "OK",
      "vis_m": 9999,
      "fzfg": false,
      "metar_trigger": false,
      "taf_trigger": false,
      "metar": "METAR LIPH 120420Z AUTO 05004KT 9999 NCD 23/20 Q1016",
      "taf": "TAF LIPH 112300Z 1200/1224 VRB06KT CAVOK"
    },
    {
      "icao": "LIPQ",
      "alert": "OK",
      "vis_m": 9999,
      "fzfg": false,
      "metar_trigger": false,
      "taf_trigger": false,
      "metar": "METAR LIPQ 120420Z AUTO 09005KT 9999 NCD 21/16 Q1016",
      "taf": "TAF LIPQ 112300Z 1200/1224 VRB05KT 9999 SCT060"
    },
    {
      "icao": "LIPR",
      "alert": "OK",
      "vis_m": null,
      "fzfg": false,
      "metar_trigger": false,
      "taf_trigger": false,
      "metar": "",
      "taf": "TAF LIPR 112300Z 1200/1224 30006KT CAVOK"
    },
    {
      "icao": "LIPX",
      "alert": "OK",
      "vis_m": 9999,
      "fzfg": false,
      "metar_trigger": false,
      "taf_trigger": false,
      "metar": "METAR LIPX 120420Z 33003KT CAVOK 20/19 Q1016",
      "taf": "TAF LIPX 112300Z 1200/1224 VRB04KT CAVOK"
    },
    {
      "icao": "LIPY",
      "alert": "OK",
      "vis_m": 9999,
      "fzfg": false,
      "metar_trigger": false,
      "taf_trigger": false,
      "metar": "METAR LIPY 120420Z AUTO 21007KT 9999 BKN120/// BKN170/// 22/19 Q1017",
      "taf": ""
    },
    {
      "icao": "LIPZ",
      "alert": "OK",
      "vis_m": 9999,
      "fzfg": false,
      "metar_trigger": false,
      "taf_trigger": false,
      "metar": "METAR LIPZ 120420Z 03006KT CAVOK 22/19 Q1016 NOSIG",
      "taf": "TAF LIPZ 112300Z 1200/1306 VRB05KT CAVOK"
    },
    {
      "icao": "LIRF",
      "alert": "OK",
      "vis_m": 9999,
      "fzfg": false,
      "metar_trigger": false,
      "taf_trigger": false,
      "metar": "METAR LIRF 120420Z 03005KT CAVOK 21/20 Q1014 NOSIG",
      "taf": "TAF LIRF 112300Z 1200/1306 05006KT CAVOK"
    },
    {
      "icao": "LIRN",
      "alert": "OK",
      "vis_m": 9999,
      "fzfg": false,
      "metar_trigger": false,
      "taf_trigger": false,
      "metar": "METAR LIRN 120420Z 03005KT CAVOK 22/16 Q1016 NOSIG",
      "taf": "TAF LIRN 112300Z 1200/1224 VRB05KT CAVOK"
    },
    {
      "icao": "LIRP",
      "alert": "OK",
      "vis_m": 9999,
      "fzfg": false,
      "metar_trigger": false,
      "taf_trigger": false,
      "metar": "METAR LIRP 120415Z 08004KT CAVOK 22/19 Q1015 NOSIG",
      "taf": "TAF LIRP 112300Z 1200/1224 VRB03KT CAVOK"
    },
    {
      "icao": "LIRZ",
      "alert": "OK",
      "vis_m": 9999,
      "fzfg": false,
      "metar_trigger": false,
      "taf_trigger": false,
      "metar": "METAR LIRZ 120420Z AUTO 33004KT 9999 NCD 21/17 Q1016",
      "taf": "TAF LIRZ 112300Z 1200/1224 VRB05KT CAVOK"
    },
    {
      "icao": "LJLJ",
      "alert": "OK",
      "vis_m": 9999,
      "fzfg": false,
      "metar_trigger": false,
      "taf_trigger": false,
      "metar": "METAR LJLJ 120430Z VRB02KT 9999 SCT003 18/17 Q1019 NOSIG",
      "taf": "TAF LJLJ 112300Z 1200/1300 VRB02KT 9999 FEW035"
    },
    {
      "icao": "LKMT",
      "alert": "OK",
      "vis_m": 9999,
      "fzfg": false,
      "metar_trigger": false,
      "taf_trigger": false,
      "metar": "METAR LKMT 120430Z VRB02KT CAVOK 14/11 Q1017 NOSIG",
      "taf": "TAF LKMT 112300Z 1200/1224 34008KT CAVOK"
    },
    {
      "icao": "LKPR",
      "alert": "OK",
      "vis_m": 9999,
      "fzfg": false,
      "metar_trigger": false,
      "taf_trigger": false,
      "metar": "METAR LKPR 120430Z 30007KT CAVOK 15/11 Q1020 NOSIG",
      "taf": "TAF LKPR 120200Z 1203/1309 34008KT CAVOK"
    },
    {
      "icao": "LLBG",
      "alert": "OK",
      "vis_m": 9999,
      "fzfg": false,
      "metar_trigger": false,
      "taf_trigger": false,
      "metar": "METAR LLBG 120420Z 16006KT 9999 FEW021 25/20 Q1010 NOSIG",
      "taf": "TAF LLBG 112301Z 1200/1224 VRB04KT 9999 FEW022 TX32/1211Z TN22/1203Z"
    },
    {
      "icao": "LMML",
      "alert": "OK",
      "vis_m": 9999,
      "fzfg": false,
      "metar_trigger": false,
      "taf_trigger": false,
      "metar": "METAR LMML 120415Z 17003KT 9999 MIFG FEW008 24/23 Q1016 NOSIG",
      "taf": "TAF LMML 112300Z 1200/1224 19009KT 9999 FEW011"
    },
    {
      "icao": "LOWW",
      "alert": "OK",
      "vis_m": 9999,
      "fzfg": false,
      "metar_trigger": false,
      "taf_trigger": false,
      "metar": "METAR LOWW 120420Z 15003KT CAVOK 17/12 Q1018 NOSIG",
      "taf": "TAF LOWW 120215Z 1203/1309 VRB03KT CAVOK TX29/1215Z TN17/1203Z"
    },
    {
      "icao": "LPFR",
      "alert": "OK",
      "vis_m": 9999,
      "fzfg": false,
      "metar_trigger": false,
      "taf_trigger": false,
      "metar": "METAR LPFR 120430Z 04004KT 9999 FEW045 20/16 Q1013",
      "taf": "TAF LPFR 112300Z 1200/1224 VRB02KT 9999 FEW020"
    },
    {
      "icao": "LPMA",
      "alert": "OK",
      "vis_m": 9999,
      "fzfg": false,
      "metar_trigger": false,
      "taf_trigger": false,
      "metar": "METAR LPMA 120430Z 32003KT 9999 FEW016 19/14 Q1015",
      "taf": "TAF LPMA 112300Z 1200/1224 VRB05KT 9999 SCT015"
    },
    {
      "icao": "LPPR",
      "alert": "OK",
      "vis_m": 9999,
      "fzfg": false,
      "metar_trigger": false,
      "taf_trigger": false,
      "metar": "METAR LPPR 120430Z 19010KT 9999 BKN037 19/15 Q1012",
      "taf": "TAF LPPR 112300Z 1200/1224 18008KT 9999 SCT018"
    },
    {
      "icao": "LPPS",
      "alert": "OK",
      "vis_m": 9999,
      "fzfg": false,
      "metar_trigger": false,
      "taf_trigger": false,
      "metar": "METAR LPPS 120430Z 29011KT 9999 SCT014 21/17 Q1015",
      "taf": "TAF LPPS 112300Z 1200/1306 30012KT 9999 SCT015"
    },
    {
      "icao": "LPPT",
      "alert": "OK",
      "vis_m": 9999,
      "fzfg": false,
      "metar_trigger": false,
      "taf_trigger": false,
      "metar": "METAR LPPT 120430Z 15004KT 9999 FEW010 SCT036 19/17 Q1012 NOSIG",
      "taf": "TAF LPPT 112300Z 1200/1306 23008KT 9999 FEW025"
    },
    {
      "icao": "LQBK",
      "alert": "OK",
      "vis_m": 9999,
      "fzfg": false,
      "metar_trigger": false,
      "taf_trigger": false,
      "metar": "METAR LQBK 120430Z 14004KT CAVOK 20/16 Q1017 NOSIG",
      "taf": "TAF LQBK 112300Z 1200/1224 24005KT CAVOK TX28/1214Z TN17/1203Z"
    },
    {
      "icao": "LQSA",
      "alert": "OK",
      "vis_m": 6000,
      "fzfg": false,
      "metar_trigger": false,
      "taf_trigger": false,
      "metar": "METAR LQSA 120430Z 14006KT 090V160 6000 -SHRA SCT010 FEW035TCU BKN045 16/15 Q1020 NOSIG",
      "taf": "TAF LQSA 112300Z 1200/1224 VRB02KT 9999 SCT050 TX26/1212Z TN15/1203Z"
    },
    {
      "icao": "LQTZ",
      "alert": "OK",
      "vis_m": 9999,
      "fzfg": false,
      "metar_trigger": false,
      "taf_trigger": false,
      "metar": "METAR LQTZ 120430Z VRB02KT 9999 SCT073 17/17 Q1018",
      "taf": "TAF LQTZ 112300Z 1200/1224 27005KT CAVOK TX29/1213Z TN14/1203Z"
    },
    {
      "icao": "LRBC",
      "alert": "OK",
      "vis_m": 2500,
      "fzfg": false,
      "metar_trigger": false,
      "taf_trigger": false,
      "metar": "METAR LRBC 120430Z VRB01KT 2500 R16/1600U BR BKN001 14/13 Q1017",
      "taf": ""
    },
    {
      "icao": "LRBS",
      "alert": "OK",
      "vis_m": 9999,
      "fzfg": false,
      "metar_trigger": false,
      "taf_trigger": false,
      "metar": "METAR LRBS 120430Z 06007KT 360V090 CAVOK 19/14 Q1016 NOSIG",
      "taf": "TAF LRBS 112300Z 1200/1224 05007KT CAVOK"
    },
    {
      "icao": "LRBV",
      "alert": "OK",
      "vis_m": 9999,
      "fzfg": false,
      "metar_trigger": false,
      "taf_trigger": false,
      "metar": "METAR LRBV 120430Z VRB03KT 9999 FEW010 FEW045CB BKN066 14/13 Q1017",
      "taf": "TAF LRBV 120200Z 1203/1212 VRB04KT 9999 SCT050"
    },
    {
      "icao": "LRCL",
      "alert": "OK",
      "vis_m": 9999,
      "fzfg": false,
      "metar_trigger": false,
      "taf_trigger": false,
      "metar": "METAR LRCL 120430Z 09004KT 9999 FEW063 14/12 Q1016",
      "taf": "TAF LRCL 120200Z 1203/1212 VRB04KT CAVOK"
    },
    {
      "icao": "LRCV",
      "alert": "OK",
      "vis_m": 9999,
      "fzfg": false,
      "metar_trigger": false,
      "taf_trigger": false,
      "metar": "METAR LRCV 120430Z 08006KT CAVOK 19/14 Q1016",
      "taf": "TAF LRCV 120200Z 1203/1212 VRB04KT CAVOK"
    },
    {
      "icao": "LRIA",
      "alert": "OK",
      "vis_m": 9999,
      "fzfg": false,
      "metar_trigger": false,
      "taf_trigger": false,
      "metar": "METAR LRIA 120430Z VRB02KT CAVOK 15/12 Q1017",
      "taf": "TAF LRIA 120200Z 1203/1212 VRB04KT CAVOK"
    },
    {
      "icao": "LROP",
      "alert": "OK",
      "vis_m": 9999,
      "fzfg": false,
      "metar_trigger": false,
      "taf_trigger": false,
      "metar": "METAR LROP 120430Z 07010KT CAVOK 19/13 Q1016 NOSIG",
      "taf": "TAF LROP 112300Z 1200/1224 05007KT CAVOK"
    },
    {
      "icao": "LRSB",
      "alert": "OK",
      "vis_m": 9999,
      "fzfg": false,
      "metar_trigger": false,
      "taf_trigger": false,
      "metar": "METAR LRSB 120430Z 09003KT CAVOK 17/15 Q1017",
      "taf": "TAF LRSB 112300Z 1200/1224 VRB04KT CAVOK"
    },
    {
      "icao": "LRSM",
      "alert": "OK",
      "vis_m": 9999,
      "fzfg": false,
      "metar_trigger": false,
      "taf_trigger": false,
      "metar": "METAR LRSM 120430Z AUTO 06005KT 9999 SCT085/// BKN100/// 14/12 Q1016",
      "taf": "TAF LRSM 112000Z 1121/1206 VRB04KT CAVOK"
    },
    {
      "icao": "LRSV",
      "alert": "OK",
      "vis_m": 9999,
      "fzfg": false,
      "metar_trigger": false,
      "taf_trigger": false,
      "metar": "METAR LRSV 120430Z 25005KT 210V280 CAVOK 15/11 Q1016",
      "taf": "TAF LRSV 120200Z 1203/1212 VRB04KT CAVOK"
    },
    {
      "icao": "LRTM",
      "alert": "OK",
      "vis_m": 9999,
      "fzfg": false,
      "metar_trigger": false,
      "taf_trigger": false,
      "metar": "METAR LRTM 120430Z 07008KT CAVOK 14/13 Q1016",
      "taf": "TAF LRTM 120200Z 1203/1212 VRB04KT CAVOK"
    },
    {
      "icao": "LRTR",
      "alert": "OK",
      "vis_m": 9999,
      "fzfg": false,
      "metar_trigger": false,
      "taf_trigger": false,
      "metar": "METAR LRTR 120430Z 10006KT CAVOK 18/16 Q1015 NOSIG",
      "taf": "TAF LRTR 112300Z 1200/1224 VRB04KT 9999 SCT045"
    },
    {
      "icao": "LTAC",
      "alert": "OK",
      "vis_m": 9999,
      "fzfg": false,
      "metar_trigger": false,
      "taf_trigger": false,
      "metar": "METAR LTAC 120420Z 06004KT 340V130 CAVOK 19/12 Q1018 NOSIG RMK RWY21C 04008KT RWY03L 02007KT RWY21R 02008KT RWY03R 00000KT RWY21L 02008KT",
      "taf": "TAF LTAC 112240Z 1200/1224 VRB02KT CAVOK"
    },
    {
      "icao": "LTFM",
      "alert": "OK",
      "vis_m": 9999,
      "fzfg": false,
      "metar_trigger": false,
      "taf_trigger": false,
      "metar": "METAR LTFM 120420Z 11004KT 060V180 9999 FEW012 22/18 Q1016 NOSIG RMK RWY17L 11003KT RWY34L 07005KT 030V120 RWY16R VRB04KT RWY36 VRB02KT RWY18 13004KT",
      "taf": "TAF LTFM 112240Z 1200/1306 12006KT CAVOK"
    },
    {
      "icao": "LUKK",
      "alert": "OK",
      "vis_m": 9999,
      "fzfg": false,
      "metar_trigger": false,
      "taf_trigger": false,
      "metar": "METAR LUKK 120430Z 03004KT CAVOK 15/13 Q1016 NOSIG",
      "taf": "TAF LUKK 112323Z 1200/1224 VRB05KT CAVOK"
    },
    {
      "icao": "LWOH",
      "alert": "OK",
      "vis_m": 9999,
      "fzfg": false,
      "metar_trigger": false,
      "taf_trigger": false,
      "metar": "METAR LWOH 120420Z 32003KT CAVOK 13/11 Q1019",
      "taf": "TAF LWOH 120225Z 1203/1303 VRB02KT CAVOK"
    },
    {
      "icao": "LWSK",
      "alert": "OK",
      "vis_m": 9999,
      "fzfg": false,
      "metar_trigger": false,
      "taf_trigger": false,
      "metar": "METAR LWSK 120420Z VRB02KT CAVOK 18/14 Q1017 NOSIG",
      "taf": "TAF LWSK 120225Z 1203/1303 VRB02KT CAVOK"
    },
    {
      "icao": "LYBE",
      "alert": "OK",
      "vis_m": 9999,
      "fzfg": false,
      "metar_trigger": false,
      "taf_trigger": false,
      "metar": "METAR LYBE 120430Z 20005KT 170V230 9999 FEW043 21/15 Q1016 NOSIG",
      "taf": "TAF LYBE 112300Z 1200/1224 23006KT CAVOK TX30/1214Z TN18/1203Z"
    },
    {
      "icao": "LYNI",
      "alert": "OK",
      "vis_m": 9999,
      "fzfg": false,
      "metar_trigger": false,
      "taf_trigger": false,
      "metar": "METAR LYNI 120430Z 11003KT 080V140 9999 FEW003 18/17 Q1017 NOSIG",
      "taf": "TAF LYNI 112300Z 1200/1224 VRB02KT CAVOK TX28/1214Z TN18/1203Z"
    },
    {
      "icao": "LYPG",
      "alert": "OK",
      "vis_m": 9999,
      "fzfg": false,
      "metar_trigger": false,
      "taf_trigger": false,
      "metar": "METAR LYPG 120430Z VRB01KT 9999 FEW050 SCT090 23/14 Q1016 NOSIG",
      "taf": "TAF LYPG 112300Z 1200/1224 36005KT 9999 SCT080 TX32/1213Z TN22/1202Z"
    },
    {
      "icao": "LZIB",
      "alert": "OK",
      "vis_m": 9999,
      "fzfg": false,
      "metar_trigger": false,
      "taf_trigger": false,
      "metar": "METAR LZIB 120430Z 17002KT CAVOK 17/10 Q1017 NOSIG",
      "taf": "TAF LZIB 112315Z 1200/1300 01005KT CAVOK"
    },
    {
      "icao": "LZKZ",
      "alert": "OK",
      "vis_m": 9999,
      "fzfg": false,
      "metar_trigger": false,
      "taf_trigger": false,
      "metar": "METAR LZKZ 120430Z 00000KT CAVOK 15/13 Q1016 NOSIG",
      "taf": "TAF LZKZ 112315Z 1200/1300 03007KT CAVOK"
    },
    {
      "icao": "LZTT",
      "alert": "OK",
      "vis_m": 9999,
      "fzfg": false,
      "metar_trigger": false,
      "taf_trigger": false,
      "metar": "METAR LZTT 120430Z 29011KT 9999 FEW053 12/09 Q1017",
      "taf": "TAF LZTT 112315Z 1200/1300 27007KT 9999 FEW045 BKN060"
    },
    {
      "icao": "OEJN",
      "alert": "OK",
      "vis_m": 9999,
      "fzfg": false,
      "metar_trigger": false,
      "taf_trigger": false,
      "metar": "METAR OEJN 120400Z 30004KT CAVOK 30/25 Q1004 NOSIG",
      "taf": "TAF OEJN 112300Z 1200/1306 35005KT 9999 FEW040"
    },
    {
      "icao": "OEMA",
      "alert": "OK",
      "vis_m": 9999,
      "fzfg": false,
      "metar_trigger": false,
      "taf_trigger": false,
      "metar": "METAR OEMA 120400Z 35005KT CAVOK 33/04 Q1010 NOSIG",
      "taf": "TAF OEMA 112300Z 1200/1306 33005KT CAVOK"
    },
    {
      "icao": "OJAI",
      "alert": "OK",
      "vis_m": 5000,
      "fzfg": false,
      "metar_trigger": false,
      "taf_trigger": false,
      "metar": "METAR OJAI 120400Z 32005KT 5000 HZ NSC 18/09 Q1014 NOSIG",
      "taf": "TAF OJAI 112300Z 1200/1306 29010KT 5000 HZ NSC"
    },
    {
      "icao": "OMAA",
      "alert": "OK",
      "vis_m": 9999,
      "fzfg": false,
      "metar_trigger": false,
      "taf_trigger": false,
      "metar": "METAR OMAA 120430Z 19006KT CAVOK 33/17 Q1000 NOSIG",
      "taf": "TAF OMAA 112300Z 1200/1306 19005KT 8000 NSC"
    },
    {
      "icao": "OMDB",
      "alert": "OK",
      "vis_m": 9999,
      "fzfg": false,
      "metar_trigger": false,
      "taf_trigger": false,
      "metar": "METAR OMDB 120430Z 20007KT 160V230 CAVOK 35/16 Q0999 NOSIG",
      "taf": "TAF OMDB 112300Z 1200/1306 19008KT 8000 NSC"
    },
    {
      "icao": "UAAA",
      "alert": "OK",
      "vis_m": 9999,
      "fzfg": false,
      "metar_trigger": false,
      "taf_trigger": false,
      "metar": "METAR UAAA 120430Z 23004MPS 200V260 9999 FEW050 SCT200 32/09 Q1005 NOSIG",
      "taf": "TAF UAAA 112300Z 1200/1224 32003G08MPS 9999 FEW050CB SCT100 TX35/1210Z TN19/1201Z"
    },
    {
      "icao": "UBBB",
      "alert": "OK",
      "vis_m": 9999,
      "fzfg": false,
      "metar_trigger": false,
      "taf_trigger": false,
      "metar": "METAR UBBB 120430Z 33018KT CAVOK 28/20 Q1013 NOSIG",
      "taf": "TAF UBBB 112250Z 1200/1224 33018G28KT 9999 FEW015 TX31/1210Z TN25/1201Z"
    },
    {
      "icao": "UDSG",
      "alert": "OK",
      "vis_m": 9999,
      "fzfg": false,
      "metar_trigger": false,
      "taf_trigger": false,
      "metar": "METAR UDSG 120430Z 07015KT 9999 FEW049TCU 21/16 Q1020 NOSIG",
      "taf": "TAF UDSG 112300Z 1200/1224 VRB06KT 9999 FEW050"
    },
    {
      "icao": "UDYZ",
      "alert": "OK",
      "vis_m": 9999,
      "fzfg": false,
      "metar_trigger": false,
      "taf_trigger": false,
      "metar": "METAR UDYZ 120430Z 15003KT 060V190 9999 NSC 26/17 Q1014 NOSIG",
      "taf": "TAF UDYZ 112300Z 1200/1224 20004KT 9999 FEW040"
    },
    {
      "icao": "UGKO",
      "alert": "OK",
      "vis_m": 9999,
      "fzfg": false,
      "metar_trigger": false,
      "taf_trigger": false,
      "metar": "METAR UGKO 120430Z VRB02KT 9999 SCT058 23/20 Q1014 NOSIG",
      "taf": "TAF UGKO 112300Z 1200/1224 VRB02KT 9999 SCT030 BKN070 TX28/1212Z TN20/1202Z"
    }
  ]
}