{
  "ts_utc": "2026-01-09T22:47:05Z",
  "threshold_m": 150,
  "source": "stations_override.txt (ICAO list) + aviationweather.gov (METAR/TAF raw)",
  "station_count": 159,
  "stations": [
    {
      "icao": "BIKF",
      "alert": "OK",
      "vis_m": 9999,
      "fzfg": false,
      "metar_trigger": false,
      "taf_trigger": false,
      "metar": "METAR BIKF 092230Z 02012KT CAVOK M02/M07 Q1012",
      "taf": "TAF BIKF 091952Z 0921/1021 03008KT CAVOK TXM02/1021Z TNM07/1010Z"
    },
    {
      "icao": "BKPR",
      "alert": "OK",
      "vis_m": 9999,
      "fzfg": false,
      "metar_trigger": false,
      "taf_trigger": false,
      "metar": "METAR BKPR 092230Z 19015KT 9999 -RA SCT020 BKN040 01/01 Q1002 NOSIG",
      "taf": "TAF BKPR 091730Z 0918/1018 18008KT 9999 FEW012 SCT030 BKN080"
    },
    {
      "icao": "EBCI",
      "alert": "OK",
      "vis_m": 4000,
      "fzfg": false,
      "metar_trigger": false,
      "taf_trigger": false,
      "metar": "METAR EBCI 092220Z 27010KT 240V300 4000 -RASN SCT003 OVC006 02/01 Q0993 TEMPO 2500 -SNRA OVC004",
      "taf": "TAF EBCI 091700Z 0918/1024 30010KT 6000 -RASN SCT006 BKN010"
    },
    {
      "icao": "EDDB",
      "alert": "OK",
      "vis_m": 9999,
      "fzfg": false,
      "metar_trigger": false,
      "taf_trigger": false,
      "metar": "METAR EDDB 092220Z AUTO 08014KT 9999 BKN032 M06/M10 Q1002 NOSIG",
      "taf": "TAF EDDB 091700Z 0918/1018 08015KT 9999 SCT020"
    },
    {
      "icao": "EDDH",
      "alert": "OK",
      "vis_m": 9999,
      "fzfg": false,
      "metar_trigger": false,
      "taf_trigger": false,
      "metar": "METAR EDDH 092220Z AUTO 08020G31KT CAVOK M02/M07 Q1001 NOSIG",
      "taf": "TAF EDDH 091700Z 0918/1024 08020G30KT 9999 SCT030"
    },
    {
      "icao": "EDDK",
      "alert": "OK",
      "vis_m": 9999,
      "fzfg": false,
      "metar_trigger": false,
      "taf_trigger": false,
      "metar": "METAR EDDK 092220Z AUTO 21006KT 9999 -RA BKN012 02/01 Q0991 TEMPO RA BKN009",
      "taf": "TAF EDDK 091700Z 0918/1024 23008KT 9999 FEW014 OVC025"
    },
    {
      "icao": "EDDN",
      "alert": "OK",
      "vis_m": 9999,
      "fzfg": false,
      "metar_trigger": false,
      "taf_trigger": false,
      "metar": "METAR EDDN 092220Z AUTO 19007KT 9999 FEW019 BKN048 02/01 Q0995",
      "taf": "TAF EDDN 091700Z 0918/1018 20008KT 9999 BKN035"
    },
    {
      "icao": "EDDS",
      "alert": "OK",
      "vis_m": 9999,
      "fzfg": false,
      "metar_trigger": false,
      "taf_trigger": false,
      "metar": "METAR EDDS 092220Z AUTO 22007KT 170V260 9999 -DZ SCT019 BKN038 02/01 Q0996",
      "taf": "TAF EDDS 091700Z 0918/1018 20013KT 9999 BKN025"
    },
    {
      "icao": "EDFH",
      "alert": "OK",
      "vis_m": 3100,
      "fzfg": false,
      "metar_trigger": false,
      "taf_trigger": false,
      "metar": "METAR EDFH 092220Z 25015KT 3100 -SN SCT002 BKN004 M00/M01 Q0991",
      "taf": "TAF EDFH 091700Z 0918/1018 24015G25KT 6000 SCT002 BKN008"
    },
    {
      "icao": "EDJA",
      "alert": "OK",
      "vis_m": 9999,
      "fzfg": false,
      "metar_trigger": false,
      "taf_trigger": false,
      "metar": "METAR EDJA 092220Z AUTO 24022G35KT 9999 // FEW024/// OVC052/// 02/M01 Q0997",
      "taf": "TAF EDJA 091700Z 0918/1003 24015G25KT 9999 SCT035"
    },
    {
      "icao": "EDLW",
      "alert": "OK",
      "vis_m": 9999,
      "fzfg": false,
      "metar_trigger": false,
      "taf_trigger": false,
      "metar": "METAR EDLW 092220Z AUTO 10004KT 9999 // FEW013/// SCT017/// OVC029/// 02/01 Q0991",
      "taf": "TAF EDLW 091700Z 0918/1018 17007KT 9999 BKN015"
    },
    {
      "icao": "EDNY",
      "alert": "OK",
      "vis_m": 9999,
      "fzfg": false,
      "metar_trigger": false,
      "taf_trigger": false,
      "metar": "METAR EDNY 092220Z AUTO 25012KT 220V280 9999 // FEW035/// BKN041/// OVC084/// 04/M01 Q1000",
      "taf": "TAF EDNY 091700Z 0918/1003 23015G25KT 9999 SCT025 BKN040"
    },
    {
      "icao": "EDSB",
      "alert": "OK",
      "vis_m": 4500,
      "fzfg": false,
      "metar_trigger": false,
      "taf_trigger": false,
      "metar": "METAR EDSB 092220Z 23016G27KT 210V270 4500 RA BR FEW012 BKN015 OVC025 03/02 Q0997",
      "taf": "TAF EDSB 091700Z 0918/1018 20015G25KT 9999 BKN030"
    },
    {
      "icao": "EETN",
      "alert": "OK",
      "vis_m": 9999,
      "fzfg": false,
      "metar_trigger": false,
      "taf_trigger": false,
      "metar": "METAR EETN 092220Z 04016KT 9999 BKN013 BKN019 M05/M08 Q1013",
      "taf": "TAF EETN 091730Z 0918/1018 05018G30KT 9999 DRSN SCT020"
    },
    {
      "icao": "EFTU",
      "alert": "OK",
      "vis_m": 9999,
      "fzfg": false,
      "metar_trigger": false,
      "taf_trigger": false,
      "metar": "METAR EFTU 092220Z AUTO 04008KT 010V070 CAVOK M15/M20 Q1019",
      "taf": "TAF EFTU 092025Z 0921/1021 04009KT CAVOK"
    },
    {
      "icao": "EGBB",
      "alert": "OK",
      "vis_m": 9999,
      "fzfg": false,
      "metar_trigger": false,
      "taf_trigger": false,
      "metar": "METAR EGBB 092220Z 31008KT 9999 BKN017 02/00 Q1007",
      "taf": "TAF EGBB 091701Z 0918/1018 32008KT 9999 FEW010"
    },
    {
      "icao": "EGGP",
      "alert": "OK",
      "vis_m": 9999,
      "fzfg": false,
      "metar_trigger": false,
      "taf_trigger": false,
      "metar": "METAR EGGP 092220Z 01005KT 9999 SCT040 03/M00 Q1008",
      "taf": "TAF EGGP 091658Z 0918/1018 34010KT 9999 SCT020"
    },
    {
      "icao": "EGGW",
      "alert": "OK",
      "vis_m": 9999,
      "fzfg": false,
      "metar_trigger": false,
      "taf_trigger": false,
      "metar": "METAR EGGW 092220Z AUTO 34014KT 9999 -RA FEW006 BKN012 BKN021 01/01 Q1003",
      "taf": ""
    },
    {
      "icao": "EGKK",
      "alert": "OK",
      "vis_m": 9999,
      "fzfg": false,
      "metar_trigger": false,
      "taf_trigger": false,
      "metar": "METAR EGKK 092220Z 31015KT 9999 BKN021 04/01 Q1004",
      "taf": "TAF EGKK 091657Z 0918/1024 31012KT 9999 SCT020"
    },
    {
      "icao": "EGNM",
      "alert": "OK",
      "vis_m": 9999,
      "fzfg": false,
      "metar_trigger": false,
      "taf_trigger": false,
      "metar": "METAR EGNM 092220Z 02007KT 9999 FEW032 01/M01 Q1007",
      "taf": "TAF EGNM 091827Z 0918/1018 01010KT 9999 SCT025"
    },
    {
      "icao": "EGPD",
      "alert": "OK",
      "vis_m": 9999,
      "fzfg": false,
      "metar_trigger": false,
      "taf_trigger": false,
      "metar": "METAR EGPD 092220Z AUTO 14008KT 9999 -RA BKN027 OVC041 04/M01 Q1010 TEMPO SHRA",
      "taf": ""
    },
    {
      "icao": "EGPF",
      "alert": "OK",
      "vis_m": 4400,
      "fzfg": false,
      "metar_trigger": false,
      "taf_trigger": false,
      "metar": "METAR EGPF 092220Z AUTO VRB01KT 4400 -DZ BKN009 OVC041 01/01 Q1009 RERA REDZ",
      "taf": "TAF EGPF 091659Z 0918/1018 VRB03KT 9999 SCT020"
    },
    {
      "icao": "EHBK",
      "alert": "OK",
      "vis_m": 4100,
      "fzfg": false,
      "metar_trigger": false,
      "taf_trigger": false,
      "metar": "METAR EHBK 092225Z AUTO 26007KT 220V310 4100 -FZRA -SN BKN002 OVC003 00/M00 Q0992",
      "taf": "TAF EHBK 091712Z 0918/1024 24013KT 9999 -RADZ BKN008"
    },
    {
      "icao": "EHEH",
      "alert": "OK",
      "vis_m": 5000,
      "fzfg": false,
      "metar_trigger": false,
      "taf_trigger": false,
      "metar": "METAR EHEH 092225Z AUTO 33008KT 290V010 5000 BR BKN005 OVC006 00/M01 Q0992 YLO TEMPO 2500 -SN BKN004 OVC005 RMK TREND REMOTE BY EHWX",
      "taf": ""
    },
    {
      "icao": "EKBI",
      "alert": "OK",
      "vis_m": 9999,
      "fzfg": false,
      "metar_trigger": false,
      "taf_trigger": false,
      "metar": "METAR EKBI 092220Z AUTO 07022G32KT 9999 -SN BKN034/// M01/M06 Q1009",
      "taf": "TAF EKBI 092027Z 0921/1021 07020KT 9000 BKN025"
    },
    {
      "icao": "EKCH",
      "alert": "OK",
      "vis_m": 9999,
      "fzfg": false,
      "metar_trigger": false,
      "taf_trigger": false,
      "metar": "METAR EKCH 092220Z AUTO 06019G30KT 9999 OVC028/// M01/M06 Q1011 TEMPO 06015G25KT",
      "taf": ""
    },
    {
      "icao": "ENAL",
      "alert": "OK",
      "vis_m": 9999,
      "fzfg": false,
      "metar_trigger": false,
      "taf_trigger": false,
      "metar": "METAR ENAL 092220Z AUTO 19004KT 150V210 9999 NCD M01/M08 Q1016",
      "taf": "TAF ENAL 092000Z 0921/1006 17008KT CAVOK"
    },
    {
      "icao": "ENBR",
      "alert": "OK",
      "vis_m": 9999,
      "fzfg": false,
      "metar_trigger": false,
      "taf_trigger": false,
      "metar": "METAR ENBR 092220Z 04002KT CAVOK M07/M11 Q1017 RMK WIND 1200FT 17003KT",
      "taf": "TAF ENBR 091700Z 0918/1018 08005KT CAVOK"
    },
    {
      "icao": "ENGM",
      "alert": "OK",
      "vis_m": 9999,
      "fzfg": false,
      "metar_trigger": false,
      "taf_trigger": false,
      "metar": "METAR ENGM 092220Z 05004KT 9999 -SN OVC034 M06/M09 Q1022",
      "taf": "TAF ENGM 091700Z 0918/1018 02005KT 9999 -SN FEW010 BKN030"
    },
    {
      "icao": "ENHD",
      "alert": "OK",
      "vis_m": 9999,
      "fzfg": false,
      "metar_trigger": false,
      "taf_trigger": false,
      "metar": "METAR ENHD 092220Z AUTO 09011KT 9999 NCD M02/M11 Q1017",
      "taf": "TAF ENHD 091400Z 0915/0923 10008KT CAVOK"
    },
    {
      "icao": "ENTC",
      "alert": "OK",
      "vis_m": 9999,
      "fzfg": false,
      "metar_trigger": false,
      "taf_trigger": false,
      "metar": "METAR ENTC 092220Z 24007KT 200V270 CAVOK M06/M12 Q1023 RMK WIND 2600FT 18022KT",
      "taf": "TAF ENTC 091700Z 0918/1018 20005KT CAVOK"
    },
    {
      "icao": "ENTO",
      "alert": "OK",
      "vis_m": 9999,
      "fzfg": false,
      "metar_trigger": false,
      "taf_trigger": false,
      "metar": "METAR ENTO 092220Z AUTO 04008KT 360V060 9999 -SN OVC034/// M04/M09 Q1021",
      "taf": "TAF ENTO 091700Z 0918/1018 03010KT 9999 -SN BKN030"
    },
    {
      "icao": "ENVA",
      "alert": "OK",
      "vis_m": 9999,
      "fzfg": false,
      "metar_trigger": false,
      "taf_trigger": false,
      "metar": "METAR ENVA 092220Z 07003KT 360V120 CAVOK M03/M11 Q1018 RMK WIND 670FT 16015KT",
      "taf": "TAF ENVA 091700Z 0918/1018 10008KT CAVOK"
    },
    {
      "icao": "ENZV",
      "alert": "OK",
      "vis_m": 9999,
      "fzfg": false,
      "metar_trigger": false,
      "taf_trigger": false,
      "metar": "METAR ENZV 092220Z 09006KT CAVOK M02/M10 Q1017",
      "taf": ""
    },
    {
      "icao": "EPGD",
      "alert": "OK",
      "vis_m": 9999,
      "fzfg": false,
      "metar_trigger": false,
      "taf_trigger": false,
      "metar": "METAR EPGD 092230Z 05014G25KT 360V070 9999 -SN BKN022 M03/M07 Q1005",
      "taf": "TAF EPGD 091730Z 0918/1018 05012KT 9999 BKN016"
    },
    {
      "icao": "EPKK",
      "alert": "OK",
      "vis_m": 4200,
      "fzfg": false,
      "metar_trigger": false,
      "taf_trigger": false,
      "metar": "METAR EPKK 092230Z 33001KT 4200 BR NSC M10/M12 Q1000",
      "taf": "TAF EPKK 092030Z 0921/1021 05005KT 6000 NSC"
    },
    {
      "icao": "EPKT",
      "alert": "OK",
      "vis_m": 4000,
      "fzfg": false,
      "metar_trigger": false,
      "taf_trigger": false,
      "metar": "METAR EPKT 092230Z 03003KT 4000 BR NSC M10/M11 Q1000",
      "taf": ""
    },
    {
      "icao": "EPLB",
      "alert": "OK",
      "vis_m": 9999,
      "fzfg": false,
      "metar_trigger": false,
      "taf_trigger": false,
      "metar": "METAR EPLB 092230Z 30005KT 9999 FEW024 M13/M14 Q1000",
      "taf": "TAF EPLB 091730Z 0918/1018 29008KT 7000 -SN BKN020"
    },
    {
      "icao": "EPMO",
      "alert": "OK",
      "vis_m": 9999,
      "fzfg": false,
      "metar_trigger": false,
      "taf_trigger": false,
      "metar": "METAR EPMO 092230Z 33006KT CAVOK M14/M15 Q1002",
      "taf": "TAF EPMO 091730Z 0918/1018 33007KT 8000 BKN020"
    },
    {
      "icao": "EPPO",
      "alert": "OK",
      "vis_m": 9999,
      "fzfg": false,
      "metar_trigger": false,
      "taf_trigger": false,
      "metar": "METAR EPPO 092230Z 07008KT CAVOK M10/M13 Q1004",
      "taf": "TAF EPPO 091730Z 0918/1018 08005KT 7000 NSC"
    },
    {
      "icao": "EPRA",
      "alert": "OK",
      "vis_m": 9999,
      "fzfg": false,
      "metar_trigger": false,
      "taf_trigger": false,
      "metar": "METAR EPRA 092230Z 31005KT 9999 -SN BKN014 M11/M13 Q1001",
      "taf": "TAF EPRA 092030Z 0921/1006 32008KT 8000 SCT020"
    },
    {
      "icao": "EPRZ",
      "alert": "OK",
      "vis_m": 5000,
      "fzfg": false,
      "metar_trigger": false,
      "taf_trigger": false,
      "metar": "METAR EPRZ 092230Z 34004KT 5000 BR OVC010 M10/M12 Q1001",
      "taf": ""
    },
    {
      "icao": "EPSC",
      "alert": "OK",
      "vis_m": 9999,
      "fzfg": false,
      "metar_trigger": false,
      "taf_trigger": false,
      "metar": "METAR EPSC 092230Z 06009KT 030V100 CAVOK M05/M09 Q1005",
      "taf": "TAF EPSC 091730Z 0918/1018 07010KT CAVOK"
    },
    {
      "icao": "EPSY",
      "alert": "OK",
      "vis_m": 9999,
      "fzfg": false,
      "metar_trigger": false,
      "taf_trigger": false,
      "metar": "METAR EPSY 092230Z 32008KT 9999 -SN BKN007 BKN022 OVC029 M12/M14 Q1002",
      "taf": "TAF EPSY 092030Z 0921/1006 34008KT 9999 -SN BKN012"
    },
    {
      "icao": "EPWA",
      "alert": "OK",
      "vis_m": 9999,
      "fzfg": false,
      "metar_trigger": false,
      "taf_trigger": false,
      "metar": "METAR EPWA 092230Z 34007KT CAVOK M12/M14 Q1002 NOSIG",
      "taf": "TAF EPWA 092030Z 0921/1021 33008KT 8000 BKN020"
    },
    {
      "icao": "EPWR",
      "alert": "OK",
      "vis_m": 8000,
      "fzfg": false,
      "metar_trigger": false,
      "taf_trigger": false,
      "metar": "METAR EPWR 092230Z 06004KT 010V080 8000 NSC M07/M11 Q1002",
      "taf": "TAF EPWR 092030Z 0921/1021 08008KT 7000 NSC"
    },
    {
      "icao": "ESGG",
      "alert": "OK",
      "vis_m": 9999,
      "fzfg": false,
      "metar_trigger": false,
      "taf_trigger": false,
      "metar": "METAR ESGG 092220Z 04010KT 9999 FEW034 M05/M07 Q1015",
      "taf": "TAF ESGG 092030Z 0921/1021 04008KT 9999 BKN035"
    },
    {
      "icao": "ESKN",
      "alert": "OK",
      "vis_m": 9999,
      "fzfg": false,
      "metar_trigger": false,
      "taf_trigger": false,
      "metar": "METAR ESKN 092220Z 01008KT CAVOK M08/M09 Q1019",
      "taf": "TAF ESKN 092030Z 0921/1021 02010KT 9999 BKN040"
    },
    {
      "icao": "ESMS",
      "alert": "OK",
      "vis_m": 9999,
      "fzfg": false,
      "metar_trigger": false,
      "taf_trigger": false,
      "metar": "METAR ESMS 092220Z 04011KT 9999 -FZDZ BKN023 M02/M06 Q1009",
      "taf": "TAF ESMS 092027Z 0921/1021 08020KT 9999 BKN040"
    },
    {
      "icao": "ESSA",
      "alert": "OK",
      "vis_m": 9999,
      "fzfg": false,
      "metar_trigger": false,
      "taf_trigger": false,
      "metar": "METAR ESSA 092220Z 01008KT CAVOK M11/M12 Q1020 NOSIG",
      "taf": "TAF ESSA 092030Z 0921/1021 02010KT CAVOK"
    },
    {
      "icao": "EYKA",
      "alert": "OK",
      "vis_m": 3500,
      "fzfg": false,
      "metar_trigger": false,
      "taf_trigger": false,
      "metar": "METAR EYKA 092220Z 36010KT 320V040 3500 SN BLSN BKN014 OVC020 M08/M11 Q1000",
      "taf": "TAF EYKA 091723Z 0918/1018 02012KT 3000 SN BLSN SCT005 OVC010"
    },
    {
      "icao": "EYPA",
      "alert": "OK",
      "vis_m": 9999,
      "fzfg": false,
      "metar_trigger": false,
      "taf_trigger": false,
      "metar": "METAR EYPA 092220Z 02014KT CAVOK M06/M09 Q1006",
      "taf": "TAF EYPA 091722Z 0918/1018 04014KT 9000 NSC"
    },
    {
      "icao": "EYVI",
      "alert": "OK",
      "vis_m": 6000,
      "fzfg": false,
      "metar_trigger": false,
      "taf_trigger": false,
      "metar": "METAR EYVI 092220Z 01009KT 6000 -SN BKN016 BKN039 M10/M12 Q0997 NOSIG",
      "taf": "TAF EYVI 091725Z 0918/1018 01013KT 1500 SN OVC015"
    },
    {
      "icao": "GCFV",
      "alert": "OK",
      "vis_m": 9999,
      "fzfg": false,
      "metar_trigger": false,
      "taf_trigger": false,
      "metar": "METAR GCFV 092230Z 03017KT 9999 SCT025 SCT038 18/12 Q1029",
      "taf": "TAF GCFV 092000Z 0921/1021 05015KT 9999 SCT025 TX20/1014Z TN15/1006Z"
    },
    {
      "icao": "GCLP",
      "alert": "OK",
      "vis_m": 9999,
      "fzfg": false,
      "metar_trigger": false,
      "taf_trigger": false,
      "metar": "METAR GCLP 092230Z 03017KT 9999 FEW030 SCT047 18/12 Q1029 NOSIG",
      "taf": "TAF GCLP 092000Z 0921/1021 03013KT 9999 SCT030 TX19/1014Z TN15/1006Z"
    },
    {
      "icao": "GCTS",
      "alert": "OK",
      "vis_m": 9999,
      "fzfg": false,
      "metar_trigger": false,
      "taf_trigger": false,
      "metar": "METAR GCTS 092230Z 02008KT 340V060 9999 FEW030 16/08 Q1029 NOSIG",
      "taf": "TAF GCTS 092000Z 0921/1021 04009KT 9999 FEW030 TX23/1014Z TN15/1006Z"
    },
    {
      "icao": "GMAD",
      "alert": "OK",
      "vis_m": 9999,
      "fzfg": false,
      "metar_trigger": false,
      "taf_trigger": false,
      "metar": "METAR GMAD 092230Z 12005KT CAVOK 09/09 Q1027 NOSIG",
      "taf": "TAF GMAD 091700Z 0918/1024 06008KT CAVOK"
    },
    {
      "icao": "GMMN",
      "alert": "OK",
      "vis_m": 8000,
      "fzfg": false,
      "metar_trigger": false,
      "taf_trigger": false,
      "metar": "METAR GMMN 092230Z 08004KT 030V100 8000 FEW023 10/08 Q1030 NOSIG",
      "taf": "TAF GMMN 091700Z 0918/1024 02006KT 9999 FEW023"
    },
    {
      "icao": "GMMX",
      "alert": "OK",
      "vis_m": 9999,
      "fzfg": false,
      "metar_trigger": false,
      "taf_trigger": false,
      "metar": "METAR GMMX 092230Z 06005KT CAVOK 09/07 Q1029 NOSIG",
      "taf": "TAF GMMX 091700Z 0918/1024 06006KT 8000 NSC"
    },
    {
      "icao": "HEGN",
      "alert": "OK",
      "vis_m": 9999,
      "fzfg": false,
      "metar_trigger": false,
      "taf_trigger": false,
      "metar": "METAR HEGN 092200Z 29013KT CAVOK 16/02 Q1020 NOSIG",
      "taf": "TAF HEGN 091700Z 0918/1024 31010G22KT CAVOK"
    },
    {
      "icao": "HEMA",
      "alert": "OK",
      "vis_m": 9999,
      "fzfg": false,
      "metar_trigger": false,
      "taf_trigger": false,
      "metar": "METAR HEMA 092200Z 32014KT CAVOK 18/07 Q1018 NOSIG",
      "taf": "TAF HEMA 091700Z 0918/1024 34008G20KT 8000 NSC"
    },
    {
      "icao": "HESH",
      "alert": "OK",
      "vis_m": 9999,
      "fzfg": false,
      "metar_trigger": false,
      "taf_trigger": false,
      "metar": "METAR HESH 092200Z 34008KT CAVOK 18/04 Q1018 NOSIG",
      "taf": "TAF HESH 091700Z 0918/1024 36012KT CAVOK"
    },
    {
      "icao": "HESX",
      "alert": "OK",
      "vis_m": 9999,
      "fzfg": false,
      "metar_trigger": false,
      "taf_trigger": false,
      "metar": "METAR HESX 092200Z 23007KT CAVOK 11/07 Q1021 NOSIG",
      "taf": "TAF HESX 091700Z 0918/1024 32015KT 9999 SCT025"
    },
    {
      "icao": "LATI",
      "alert": "OK",
      "vis_m": 9999,
      "fzfg": false,
      "metar_trigger": false,
      "taf_trigger": false,
      "metar": "METAR LATI 092220Z 22010KT 190V250 9999 FEW020CB BKN045 OVC070 14/10 Q1004 NOSIG",
      "taf": "TAF LATI 091700Z 0918/1018 14013KT 9999 -RA SCT030 BKN060 TX14/1001Z TN07/1018Z"
    },
    {
      "icao": "LBPD",
      "alert": "OK",
      "vis_m": 9999,
      "fzfg": false,
      "metar_trigger": false,
      "taf_trigger": false,
      "metar": "METAR LBPD 092230Z AUTO 22002KT 9999 OVC110/// 00/M03 Q1004",
      "taf": "TAF LBPD 091700Z 0918/1018 VRB03KT 9999 SCT050"
    },
    {
      "icao": "LBSF",
      "alert": "OK",
      "vis_m": 6000,
      "fzfg": false,
      "metar_trigger": false,
      "taf_trigger": false,
      "metar": "METAR LBSF 092230Z AUTO VRB02KT 6000 RASN OVC033/// 01/M02 Q1003 TEMPO 5000 SNRA",
      "taf": "TAF LBSF 091700Z 0918/1018 VRB03KT 9999 SCT030 BKN050"
    },
    {
      "icao": "LBWN",
      "alert": "OK",
      "vis_m": 9999,
      "fzfg": false,
      "metar_trigger": false,
      "taf_trigger": false,
      "metar": "METAR LBWN 092230Z AUTO 01004KT 9999 NCD M00/M04 Q1003 NOSIG",
      "taf": "TAF LBWN 091700Z 0918/1018 VRB04KT CAVOK"
    },
    {
      "icao": "LCLK",
      "alert": "OK",
      "vis_m": 9999,
      "fzfg": false,
      "metar_trigger": false,
      "taf_trigger": false,
      "metar": "METAR LCLK 092230Z 28005KT 9999 FEW020 11/07 Q1014 NOSIG",
      "taf": "TAF LCLK 091730Z 0918/1018 30018KT 9999 FEW020 SCT040"
    },
    {
      "icao": "LCPH",
      "alert": "OK",
      "vis_m": 9999,
      "fzfg": false,
      "metar_trigger": false,
      "taf_trigger": false,
      "metar": "METAR LCPH 092230Z 33012KT 9999 BKN042 15/07 Q1015 NOSIG",
      "taf": "TAF LCPH 091730Z 0918/1018 30025G35KT 9999 FEW025 SCT040"
    },
    {
      "icao": "LEAL",
      "alert": "OK",
      "vis_m": 9999,
      "fzfg": false,
      "metar_trigger": false,
      "taf_trigger": false,
      "metar": "METAR LEAL 092230Z 27006KT 9999 BKN060 14/06 Q1022 NOSIG",
      "taf": "TAF LEAL 091700Z 0918/1018 27009KT CAVOK TX16/1014Z TN08/1006Z"
    },
    {
      "icao": "LEBB",
      "alert": "OK",
      "vis_m": 9999,
      "fzfg": false,
      "metar_trigger": false,
      "taf_trigger": false,
      "metar": "METAR LEBB 092230Z 27009KT 230V300 9999 -RA SCT027 SCT039 BKN065 08/05 Q1022 TEMPO 3000 SHRA SCT025TCU",
      "taf": "TAF LEBB 091700Z 0918/1018 29009KT 9999 FEW020 SCT040 TX10/0923Z TN07/0923Z"
    },
    {
      "icao": "LEBL",
      "alert": "OK",
      "vis_m": 9999,
      "fzfg": false,
      "metar_trigger": false,
      "taf_trigger": false,
      "metar": "METAR LEBL 092230Z 32013KT 9999 FEW050 10/M00 Q1015 NOSIG",
      "taf": ""
    },
    {
      "icao": "LECH",
      "alert": "OK",
      "vis_m": 9999,
      "fzfg": false,
      "metar_trigger": false,
      "taf_trigger": false,
      "metar": "METAR LECH 092230Z AUTO 30002KT 9999 BKN070 05/01 Q1019",
      "taf": ""
    },
    {
      "icao": "LEMD",
      "alert": "OK",
      "vis_m": 9999,
      "fzfg": false,
      "metar_trigger": false,
      "taf_trigger": false,
      "metar": "METAR LEMD 092230Z 27015KT CAVOK 08/M01 Q1022 NOSIG",
      "taf": ""
    },
    {
      "icao": "LEMG",
      "alert": "OK",
      "vis_m": 9999,
      "fzfg": false,
      "metar_trigger": false,
      "taf_trigger": false,
      "metar": "METAR LEMG 092230Z 31009KT CAVOK 13/08 Q1026 NOSIG",
      "taf": "TAF LEMG 091700Z 0918/1018 29010KT 9999 FEW030 TX18/1014Z TN10/1006Z"
    },
    {
      "icao": "LEVC",
      "alert": "OK",
      "vis_m": 9999,
      "fzfg": false,
      "metar_trigger": false,
      "taf_trigger": false,
      "metar": "METAR LEVC 092230Z 23004KT 200V260 CAVOK 10/03 Q1020 NOSIG",
      "taf": "TAF LEVC 091700Z 0918/1018 27015KT 9999 FEW040 TX16/1014Z TN07/1006Z"
    },
    {
      "icao": "LEXJ",
      "alert": "OK",
      "vis_m": 4000,
      "fzfg": false,
      "metar_trigger": false,
      "taf_trigger": false,
      "metar": "SPECI LEXJ 092241Z 29014KT 4000 RA SCT025 SCT035 BKN050 08/05 Q1023",
      "taf": ""
    },
    {
      "icao": "LEZG",
      "alert": "OK",
      "vis_m": 9999,
      "fzfg": false,
      "metar_trigger": false,
      "taf_trigger": false,
      "metar": "METAR LEZG 092230Z 27013KT 9999 SCT080 07/00 Q1020 NOSIG",
      "taf": "TAF LEZG 091700Z 0918/1018 29012KT 9999 FEW040 TX11/1015Z TN05/1006Z"
    },
    {
      "icao": "LEZL",
      "alert": "OK",
      "vis_m": 9999,
      "fzfg": false,
      "metar_trigger": false,
      "taf_trigger": false,
      "metar": "METAR LEZL 092230Z 30003KT CAVOK 09/08 Q1028 NOSIG",
      "taf": "TAF LEZL 092000Z 0921/1021 30003KT CAVOK TX15/1015Z TN06/1007Z"
    },
    {
      "icao": "LFBD",
      "alert": "OK",
      "vis_m": 9999,
      "fzfg": false,
      "metar_trigger": false,
      "taf_trigger": false,
      "metar": "METAR LFBD 092230Z AUTO 32011KT 9999 -RA FEW022/// SCT038/// BKN047/// ///CB 05/03 Q1016",
      "taf": ""
    },
    {
      "icao": "LFLL",
      "alert": "OK",
      "vis_m": 9999,
      "fzfg": false,
      "metar_trigger": false,
      "taf_trigger": false,
      "metar": "METAR LFLL 092230Z 27006KT 200V340 9999 BKN033 05/00 Q1008 NOSIG",
      "taf": "TAF LFLL 091700Z 0918/1024 25010KT 9999 SCT060"
    },
    {
      "icao": "LFLS",
      "alert": "OK",
      "vis_m": 9999,
      "fzfg": false,
      "metar_trigger": false,
      "taf_trigger": false,
      "metar": "METAR LFLS 092230Z AUTO 12003KT 090V160 9999 SCT037 OVC044 01/01 Q1008",
      "taf": ""
    },
    {
      "icao": "LFMN",
      "alert": "OK",
      "vis_m": 9999,
      "fzfg": false,
      "metar_trigger": false,
      "taf_trigger": false,
      "metar": "METAR LFMN 092230Z 28005KT 260V340 CAVOK 10/00 Q1000 NOSIG",
      "taf": ""
    },
    {
      "icao": "LFOB",
      "alert": "OK",
      "vis_m": 9999,
      "fzfg": false,
      "metar_trigger": false,
      "taf_trigger": false,
      "metar": "METAR LFOB 092230Z AUTO 29017KT 9999 BKN025 BKN034 OVC046 04/02 Q1001 TEMPO 4000 -SHRA BKN011TCU BECMG 28015G25KT",
      "taf": "TAF LFOB 091700Z 0918/1018 28015G25KT 9999 BKN025"
    },
    {
      "icao": "LFPO",
      "alert": "OK",
      "vis_m": 9999,
      "fzfg": false,
      "metar_trigger": false,
      "taf_trigger": false,
      "metar": "METAR LFPO 092230Z 26010KT 9999 BKN019 BKN046 04/02 Q1002 TEMPO 4000 -SHRA",
      "taf": "TAF LFPO 091700Z 0918/1024 27015KT 9999 SCT020 BKN140"
    },
    {
      "icao": "LFSB",
      "alert": "OK",
      "vis_m": 9999,
      "fzfg": false,
      "metar_trigger": false,
      "taf_trigger": false,
      "metar": "METAR LFSB 092230Z AUTO 25019KT 220V290 9999 -RA SCT022 BKN033 BKN043 04/01 Q1001 TEMPO 4000 -SHRASN FEW020TCU BECMG 25015G30KT",
      "taf": ""
    },
    {
      "icao": "LGAV",
      "alert": "OK",
      "vis_m": 9999,
      "fzfg": false,
      "metar_trigger": false,
      "taf_trigger": false,
      "metar": "METAR LGAV 092220Z VRB01KT 9999 FEW030 10/06 Q1010 NOSIG",
      "taf": "TAF LGAV 091700Z 0918/1018 24012KT 9999 FEW025"
    },
    {
      "icao": "LGTS",
      "alert": "OK",
      "vis_m": 8000,
      "fzfg": false,
      "metar_trigger": false,
      "taf_trigger": false,
      "metar": "METAR LGTS 092220Z VRB02KT 8000 FEW025 02/01 Q1007 NOSIG",
      "taf": "TAF LGTS 091700Z 0918/1018 VRB03KT 9999 FEW030"
    },
    {
      "icao": "LHBP",
      "alert": "OK",
      "vis_m": 6000,
      "fzfg": false,
      "metar_trigger": false,
      "taf_trigger": false,
      "metar": "METAR LHBP 092230Z 02003KT 320V070 6000 OVC005 M06/M08 Q1002 TEMPO 4000 BR OVC004",
      "taf": "TAF LHBP 091715Z 0918/1018 09006KT 7000 BKN015 BKN025"
    },
    {
      "icao": "LHDC",
      "alert": "OK",
      "vis_m": 6000,
      "fzfg": false,
      "metar_trigger": false,
      "taf_trigger": false,
      "metar": "METAR LHDC 092215Z AUTO 07005KT 6000 OVC010 M05/M07 Q1002",
      "taf": "TAF LHDC 091415Z 0915/0924 VRB02KT 7000 NSC"
    },
    {
      "icao": "LIBD",
      "alert": "OK",
      "vis_m": 9999,
      "fzfg": false,
      "metar_trigger": false,
      "taf_trigger": false,
      "metar": "METAR LIBD 092220Z VRB02KT CAVOK 10/07 Q1004",
      "taf": "TAF LIBD 091700Z 0918/1018 25016KT 9999 SCT040"
    },
    {
      "icao": "LIBG",
      "alert": "OK",
      "vis_m": null,
      "fzfg": false,
      "metar_trigger": false,
      "taf_trigger": false,
      "metar": "",
      "taf": "TAF LIBG 091700Z 0918/1003 21010KT 9999 SCT040"
    },
    {
      "icao": "LIBP",
      "alert": "OK",
      "vis_m": 9999,
      "fzfg": false,
      "metar_trigger": false,
      "taf_trigger": false,
      "metar": "METAR LIBP 092220Z AUTO 23010KT 9999 FEW150/// BKN210/// 12/03 Q1001",
      "taf": "TAF LIBP 091700Z 0918/1018 24012KT 9999 SCT050"
    },
    {
      "icao": "LIBR",
      "alert": "OK",
      "vis_m": 9999,
      "fzfg": false,
      "metar_trigger": false,
      "taf_trigger": false,
      "metar": "METAR LIBR 092220Z 24008KT CAVOK 13/09 Q1005",
      "taf": "TAF LIBR 091700Z 0918/1018 21013KT 9999 FEW040"
    },
    {
      "icao": "LICA",
      "alert": "OK",
      "vis_m": 9999,
      "fzfg": false,
      "metar_trigger": false,
      "taf_trigger": false,
      "metar": "METAR LICA 092220Z AUTO 25017KT 9999 BKN020/// 15/12 Q1010",
      "taf": "TAF LICA 091700Z 0918/1018 27026G38KT 9999 BKN016"
    },
    {
      "icao": "LICC",
      "alert": "OK",
      "vis_m": 9999,
      "fzfg": false,
      "metar_trigger": false,
      "taf_trigger": false,
      "metar": "METAR LICC 092220Z 26010KT 9999 BKN030 14/09 Q1012",
      "taf": "TAF LICC 091700Z 0918/1018 26013KT 9999 FEW050"
    },
    {
      "icao": "LICJ",
      "alert": "OK",
      "vis_m": 9999,
      "fzfg": false,
      "metar_trigger": false,
      "taf_trigger": false,
      "metar": "METAR LICJ 092220Z 22016KT 9999 SCT050 15/11 Q1011",
      "taf": "TAF LICJ 091700Z 0918/1018 23020G30KT 9999 SCT020"
    },
    {
      "icao": "LIMC",
      "alert": "OK",
      "vis_m": 4000,
      "fzfg": false,
      "metar_trigger": false,
      "taf_trigger": false,
      "metar": "METAR LIMC 092220Z 19003KT 150V260 4000 VCFG BR NSC M03/M04 Q0999 NOSIG",
      "taf": "TAF LIMC 091700Z 0918/1024 VRB04KT 9000 SCT030"
    },
    {
      "icao": "LIME",
      "alert": "OK",
      "vis_m": 7000,
      "fzfg": false,
      "metar_trigger": false,
      "taf_trigger": false,
      "metar": "METAR LIME 092220Z 02004KT 7000 NSC M02/M03 Q0999 NOSIG",
      "taf": "TAF LIME 091700Z 0918/1018 VRB04KT 9999 SCT050"
    },
    {
      "icao": "LIMF",
      "alert": "OK",
      "vis_m": 5000,
      "fzfg": false,
      "metar_trigger": false,
      "taf_trigger": false,
      "metar": "METAR LIMF 092220Z VRB02KT 5000 BR NSC M01/M04 Q1000",
      "taf": "TAF LIMF 091700Z 0918/1018 VRB05KT 9999 FEW030"
    },
    {
      "icao": "LIMJ",
      "alert": "OK",
      "vis_m": 9999,
      "fzfg": false,
      "metar_trigger": false,
      "taf_trigger": false,
      "metar": "METAR LIMJ 092220Z 04010KT CAVOK 09/M02 Q0998",
      "taf": "TAF LIMJ 091700Z 0918/1018 36013KT 9999 FEW030"
    },
    {
      "icao": "LIPE",
      "alert": "OK",
      "vis_m": 5000,
      "fzfg": false,
      "metar_trigger": false,
      "taf_trigger": false,
      "metar": "METAR LIPE 092220Z 23005KT 5000 BR SCT060 M01/M02 Q1001",
      "taf": "TAF LIPE 091700Z 0918/1018 VRB05KT 6000 BKN015"
    },
    {
      "icao": "LIPH",
      "alert": "OK",
      "vis_m": 5000,
      "fzfg": false,
      "metar_trigger": false,
      "taf_trigger": false,
      "metar": "METAR LIPH 092220Z AUTO VRB01KT 5000 BR NCD M01/M02 Q1000",
      "taf": "TAF LIPH 091700Z 0918/1018 VRB05KT 9999 SCT040"
    },
    {
      "icao": "LIPQ",
      "alert": "OK",
      "vis_m": 9999,
      "fzfg": false,
      "metar_trigger": false,
      "taf_trigger": false,
      "metar": "METAR LIPQ 092220Z AUTO VRB02KT 9999 OVC034/// 02/01 Q1000",
      "taf": "TAF LIPQ 091700Z 0918/1018 VRB05KT 9999 BKN030"
    },
    {
      "icao": "LIPR",
      "alert": "OK",
      "vis_m": 4000,
      "fzfg": false,
      "metar_trigger": false,
      "taf_trigger": false,
      "metar": "METAR LIPR 092220Z AUTO 21004KT 4000 BR BKN210/// M01/M01 Q1001",
      "taf": "TAF LIPR 091700Z 0918/1018 29010KT 9999 SCT040"
    },
    {
      "icao": "LIPX",
      "alert": "OK",
      "vis_m": 9999,
      "fzfg": false,
      "metar_trigger": false,
      "taf_trigger": false,
      "metar": "METAR LIPX 092220Z 02004KT CAVOK M04/M05 Q1000",
      "taf": "TAF LIPX 091700Z 0918/1018 VRB05KT 9999 FEW020"
    },
    {
      "icao": "LIPY",
      "alert": "OK",
      "vis_m": 6000,
      "fzfg": false,
      "metar_trigger": false,
      "taf_trigger": false,
      "metar": "METAR LIPY 092220Z AUTO VRB02KT 6000 SCT220/// 04/03 Q1001",
      "taf": "TAF LIPY 091700Z 0918/1018 24012KT 9999 SCT050"
    },
    {
      "icao": "LIPZ",
      "alert": "OK",
      "vis_m": 9999,
      "fzfg": false,
      "metar_trigger": false,
      "taf_trigger": false,
      "metar": "METAR LIPZ 092220Z 27003KT 230V300 CAVOK M00/M02 Q1000 NOSIG",
      "taf": "TAF LIPZ 091700Z 0918/1024 VRB05KT 9999 SCT030"
    },
    {
      "icao": "LIRF",
      "alert": "OK",
      "vis_m": 9999,
      "fzfg": false,
      "metar_trigger": false,
      "taf_trigger": false,
      "metar": "METAR LIRF 092220Z 25018KT CAVOK 13/07 Q1004 NOSIG",
      "taf": "TAF LIRF 091700Z 0918/1024 25023G35KT 9999 SCT020"
    },
    {
      "icao": "LIRN",
      "alert": "OK",
      "vis_m": 9999,
      "fzfg": false,
      "metar_trigger": false,
      "taf_trigger": false,
      "metar": "METAR LIRN 092220Z 27006KT 9999 -RA SCT040 13/08 Q1006 NOSIG",
      "taf": "TAF LIRN 091700Z 0918/1018 25018KT 9999 BKN025"
    },
    {
      "icao": "LIRP",
      "alert": "OK",
      "vis_m": 9999,
      "fzfg": false,
      "metar_trigger": false,
      "taf_trigger": false,
      "metar": "METAR LIRP 092215Z 26015KT 9999 SCT030 11/07 Q1000 NOSIG",
      "taf": "TAF LIRP 091700Z 0918/1018 27015KT 9999 FEW020 SCT040"
    },
    {
      "icao": "LIRZ",
      "alert": "OK",
      "vis_m": 9999,
      "fzfg": false,
      "metar_trigger": false,
      "taf_trigger": false,
      "metar": "METAR LIRZ 092220Z AUTO 15006KT 9999 BKN045/// 09/04 Q1002",
      "taf": "TAF LIRZ 091700Z 0918/1018 24012KT 9999 BKN040"
    },
    {
      "icao": "LJLJ",
      "alert": "OK",
      "vis_m": 5000,
      "fzfg": false,
      "metar_trigger": false,
      "taf_trigger": false,
      "metar": "METAR LJLJ 092230Z 31003KT 280V360 5000 -RA BR FEW010 OVC030 01/M00 Q0999 NOSIG",
      "taf": "TAF LJLJ 091700Z 0918/1018 29006KT 6000 FEW003 BKN016 BKN030"
    },
    {
      "icao": "LKMT",
      "alert": "OK",
      "vis_m": 6000,
      "fzfg": false,
      "metar_trigger": false,
      "taf_trigger": false,
      "metar": "METAR LKMT 092230Z 20002KT 6000 -SN OVC043 M04/M06 Q1000 TEMPO 2500 SN BKN012",
      "taf": "TAF LKMT 091700Z 0918/1018 VRB02KT 9999 BKN035"
    },
    {
      "icao": "LKPR",
      "alert": "OK",
      "vis_m": 4500,
      "fzfg": false,
      "metar_trigger": false,
      "taf_trigger": false,
      "metar": "METAR LKPR 092230Z 05003KT 030V100 4500 BR SCT003 BKN020 OVC036 M04/M05 Q0997 NOSIG",
      "taf": "TAF LKPR 092000Z 0921/1103 06005KT 6000 SCT008 OVC013"
    },
    {
      "icao": "LLBG",
      "alert": "OK",
      "vis_m": 9999,
      "fzfg": false,
      "metar_trigger": false,
      "taf_trigger": false,
      "metar": "METAR LLBG 092220Z 29015KT 9999 FEW035 SCT045 16/08 Q1017 TEMPO RA BKN030",
      "taf": "TAF LLBG 091703Z 0918/1018 29012KT 9999 SCT035"
    },
    {
      "icao": "LMML",
      "alert": "OK",
      "vis_m": 9999,
      "fzfg": false,
      "metar_trigger": false,
      "taf_trigger": false,
      "metar": "METAR LMML 092215Z 22012G24KT 190V250 9999 FEW015 14/11 Q1016 NOSIG",
      "taf": "TAF LMML 091700Z 0918/1018 24018KT 9999 FEW015"
    },
    {
      "icao": "LOWW",
      "alert": "OK",
      "vis_m": 4700,
      "fzfg": false,
      "metar_trigger": false,
      "taf_trigger": false,
      "metar": "METAR LOWW 092220Z VRB02KT 4700 BR BKN007 M07/M08 Q1001 NOSIG",
      "taf": "TAF LOWW 092015Z 0921/1103 12003KT 6000 BKN008 TXM02/1013Z TNM06/1101Z"
    },
    {
      "icao": "LPFR",
      "alert": "OK",
      "vis_m": 9999,
      "fzfg": false,
      "metar_trigger": false,
      "taf_trigger": false,
      "metar": "METAR LPFR 092230Z 32007KT 9999 FEW020 10/08 Q1030",
      "taf": "TAF LPFR 091700Z 0918/1018 26012KT 9999 SCT012 BKN018"
    },
    {
      "icao": "LPMA",
      "alert": "OK",
      "vis_m": 9999,
      "fzfg": false,
      "metar_trigger": false,
      "taf_trigger": false,
      "metar": "METAR LPMA 092230Z 36006KT 9999 SCT015 14/12 Q1032",
      "taf": "TAF LPMA 091700Z 0918/1018 05010KT 9999 SCT015"
    },
    {
      "icao": "LPPR",
      "alert": "OK",
      "vis_m": 9999,
      "fzfg": false,
      "metar_trigger": false,
      "taf_trigger": false,
      "metar": "METAR LPPR 092230Z VRB02KT 9999 FEW022 SCT030 09/07 Q1028",
      "taf": "TAF LPPR 091700Z 0918/1018 30007KT 9999 FEW015 SCT030"
    },
    {
      "icao": "LPPS",
      "alert": "OK",
      "vis_m": 9999,
      "fzfg": false,
      "metar_trigger": false,
      "taf_trigger": false,
      "metar": "METAR LPPS 092230Z VRB02KT 9999 FEW014 14/11 Q1032",
      "taf": "TAF LPPS 091700Z 0918/1024 07008KT 9999 SCT015 SCT030"
    },
    {
      "icao": "LPPT",
      "alert": "OK",
      "vis_m": 9999,
      "fzfg": false,
      "metar_trigger": false,
      "taf_trigger": false,
      "metar": "METAR LPPT 092230Z 27003KT 9999 FEW020 09/08 Q1030",
      "taf": "TAF LPPT 091700Z 0918/1024 32010KT 9999 SCT020"
    },
    {
      "icao": "LQBK",
      "alert": "OK",
      "vis_m": 9999,
      "fzfg": false,
      "metar_trigger": false,
      "taf_trigger": false,
      "metar": "METAR LQBK 092230Z 21013KT 9999 -RA SCT030 OVC045 05/03 Q1000 NOSIG",
      "taf": ""
    },
    {
      "icao": "LQSA",
      "alert": "OK",
      "vis_m": 5000,
      "fzfg": false,
      "metar_trigger": false,
      "taf_trigger": false,
      "metar": "METAR LQSA 092230Z 15006KT 5000 BR SCT050 00/00 Q1000",
      "taf": ""
    },
    {
      "icao": "LQTZ",
      "alert": "OK",
      "vis_m": 2500,
      "fzfg": false,
      "metar_trigger": false,
      "taf_trigger": false,
      "metar": "METAR LQTZ 092230Z 10007KT 2500 -RA BR BKN015 OVC025 01/01 Q1000",
      "taf": ""
    },
    {
      "icao": "LRBC",
      "alert": "OK",
      "vis_m": 9999,
      "fzfg": false,
      "metar_trigger": false,
      "taf_trigger": false,
      "metar": "METAR LRBC 092230Z 10003KT 070V130 CAVOK M04/M10 Q1001",
      "taf": "TAF LRBC 092000Z 0921/1006 14005KT CAVOK"
    },
    {
      "icao": "LRBS",
      "alert": "OK",
      "vis_m": 9999,
      "fzfg": false,
      "metar_trigger": false,
      "taf_trigger": false,
      "metar": "METAR LRBS 092230Z 00000KT 9999 OVC030 00/M02 Q1002 NOSIG",
      "taf": "TAF LRBS 091700Z 0918/1018 VRB04KT CAVOK"
    },
    {
      "icao": "LRBV",
      "alert": "OK",
      "vis_m": 9999,
      "fzfg": false,
      "metar_trigger": false,
      "taf_trigger": false,
      "metar": "METAR LRBV 092230Z AUTO VRB02KT 9999 BKN044/// OVC065/// M05/M08 Q1000",
      "taf": "TAF LRBV 091700Z 0918/1003 VRB04KT 9999 BKN050"
    },
    {
      "icao": "LRCL",
      "alert": "OK",
      "vis_m": 9999,
      "fzfg": false,
      "metar_trigger": false,
      "taf_trigger": false,
      "metar": "METAR LRCL 092230Z 06004KT 9999 OVC037 M05/M08 Q1001",
      "taf": "TAF LRCL 092000Z 0921/1006 09006KT 9999 OVC040"
    },
    {
      "icao": "LRCV",
      "alert": "OK",
      "vis_m": 9999,
      "fzfg": false,
      "metar_trigger": false,
      "taf_trigger": false,
      "metar": "METAR LRCV 092230Z 07003KT 040V100 9999 FEW038 BKN042 M00/M01 Q1001",
      "taf": "TAF LRCV 092000Z 0921/1006 VRB04KT 9999 SCT025 BKN035"
    },
    {
      "icao": "LRIA",
      "alert": "OK",
      "vis_m": 9999,
      "fzfg": false,
      "metar_trigger": false,
      "taf_trigger": false,
      "metar": "METAR LRIA 092230Z VRB01KT CAVOK M04/M10 Q1001",
      "taf": "TAF LRIA 092000Z 0921/1006 21005KT CAVOK"
    },
    {
      "icao": "LROP",
      "alert": "OK",
      "vis_m": 9999,
      "fzfg": false,
      "metar_trigger": false,
      "taf_trigger": false,
      "metar": "METAR LROP 092230Z 16003KT 9999 OVC028 00/M03 Q1002 NOSIG",
      "taf": "TAF LROP 091700Z 0918/1018 VRB04KT CAVOK"
    },
    {
      "icao": "LRSB",
      "alert": "OK",
      "vis_m": 9999,
      "fzfg": false,
      "metar_trigger": false,
      "taf_trigger": false,
      "metar": "METAR LRSB 092230Z COR 17002KT 9999 BKN040 BKN050 M03/M08 Q0999",
      "taf": "TAF LRSB 091700Z 0918/1018 VRB04KT 9999 OVC045"
    },
    {
      "icao": "LRSM",
      "alert": "OK",
      "vis_m": 9999,
      "fzfg": false,
      "metar_trigger": false,
      "taf_trigger": false,
      "metar": "METAR LRSM 092230Z AUTO VRB01KT 9999 OVC022/// M05/M08 Q1002",
      "taf": "TAF LRSM 091400Z 0915/0924 VRB04KT CAVOK"
    },
    {
      "icao": "LRSV",
      "alert": "OK",
      "vis_m": 9999,
      "fzfg": false,
      "metar_trigger": false,
      "taf_trigger": false,
      "metar": "METAR LRSV 092230Z AUTO 23009KT 9999 R16////// R34/P2000 NCD M07/M12 Q0999",
      "taf": "TAF LRSV 092000Z 0921/1006 24008KT CAVOK"
    },
    {
      "icao": "LRTM",
      "alert": "OK",
      "vis_m": 9999,
      "fzfg": false,
      "metar_trigger": false,
      "taf_trigger": false,
      "metar": "METAR LRTM 092230Z AUTO 06005KT 9999 SCT033/// BKN041/// M05/M08 Q1001",
      "taf": "TAF LRTM 091400Z 0915/0924 VRB04KT CAVOK"
    },
    {
      "icao": "LRTR",
      "alert": "OK",
      "vis_m": 3000,
      "fzfg": false,
      "metar_trigger": false,
      "taf_trigger": false,
      "metar": "METAR LRTR 092230Z 10005KT 3000 -SN BR BKN004 OVC020 M01/M01 Q1000 RESN",
      "taf": "TAF LRTR 091700Z 0918/1018 11010KT 3000 -SN BR BKN010 OVC025"
    },
    {
      "icao": "LTAC",
      "alert": "OK",
      "vis_m": 9999,
      "fzfg": false,
      "metar_trigger": false,
      "taf_trigger": false,
      "metar": "METAR LTAC 092220Z 23004KT 190V270 CAVOK M05/M09 Q1011 NOSIG RMK RWY21C 20003KT 150V250 RWY03L VRB02KT RWY21R VRB02KT RWY03R 18002KT RWY21L 19005KT",
      "taf": "TAF LTAC 091640Z 0918/1018 26012KT CAVOK"
    },
    {
      "icao": "LTFM",
      "alert": "OK",
      "vis_m": 9999,
      "fzfg": false,
      "metar_trigger": false,
      "taf_trigger": false,
      "metar": "METAR LTFM 092220Z 22020KT CAVOK 09/01 Q1007 NOSIG RMK RWY17L 22020G30KT RWY34L 21016KT RWY16R 21018KT RWY36 22018KT RWY18 22020KT",
      "taf": "TAF LTFM 091640Z 0918/1024 20018KT CAVOK"
    },
    {
      "icao": "LUKK",
      "alert": "OK",
      "vis_m": 9999,
      "fzfg": false,
      "metar_trigger": false,
      "taf_trigger": false,
      "metar": "METAR LUKK 092230Z 22004KT CAVOK M08/M11 Q1002 NOSIG",
      "taf": "TAF LUKK 091702Z 0918/1018 VRB05KT 9999 SCT030"
    },
    {
      "icao": "LWOH",
      "alert": "OK",
      "vis_m": null,
      "fzfg": false,
      "metar_trigger": false,
      "taf_trigger": false,
      "metar": "",
      "taf": "TAF LWOH 092050Z 0921/1021 13010KT 9999 RA SCT005 OVC020"
    },
    {
      "icao": "LWSK",
      "alert": "OK",
      "vis_m": 9999,
      "fzfg": false,
      "metar_trigger": false,
      "taf_trigger": false,
      "metar": "METAR LWSK 092220Z 16002KT 9999 FEW040 BKN090 M01/M03 Q1005 REFZRA NOSIG",
      "taf": ""
    },
    {
      "icao": "LYBE",
      "alert": "OK",
      "vis_m": 1000,
      "fzfg": false,
      "metar_trigger": false,
      "taf_trigger": false,
      "metar": "METAR LYBE 092230Z 21009KT 1000 R12L/P2000N R30R/1300U -RA BR BKN001 BKN025 01/00 Q1001 NOSIG",
      "taf": "TAF LYBE 091700Z 0918/1018 10006KT 6000 BKN040 TX01/0918Z TN00/1006Z"
    },
    {
      "icao": "LYNI",
      "alert": "OK",
      "vis_m": 9999,
      "fzfg": false,
      "metar_trigger": false,
      "taf_trigger": false,
      "metar": "METAR LYNI 092230Z VRB02KT 9999 SCT040 01/00 Q1002 NOSIG",
      "taf": "TAF LYNI 091700Z 0918/1018 17004KT 8000 SCT015 BKN030 TX01/0918Z TN00/1006Z"
    },
    {
      "icao": "LYPG",
      "alert": "OK",
      "vis_m": 6000,
      "fzfg": false,
      "metar_trigger": false,
      "taf_trigger": false,
      "metar": "METAR LYPG 092230Z 00000KT 6000 -RA FEW006 SCT026 BKN040 03/02 Q1003 NOSIG",
      "taf": "TAF LYPG 091700Z 0918/1018 35005KT 7000 RA FEW010 SCT023 OVC070 TX08/1012Z TN02/0918Z"
    },
    {
      "icao": "LZIB",
      "alert": "OK",
      "vis_m": 9999,
      "fzfg": false,
      "metar_trigger": false,
      "taf_trigger": false,
      "metar": "METAR LZIB 092230Z 04004KT 9999 SCT012 M04/M06 Q1001 NOSIG",
      "taf": "TAF LZIB 091715Z 0918/1018 06005KT 9999 OVC008"
    },
    {
      "icao": "LZKZ",
      "alert": "OK",
      "vis_m": 9999,
      "fzfg": false,
      "metar_trigger": false,
      "taf_trigger": false,
      "metar": "METAR LZKZ 092230Z 02006KT 9999 BKN013 M08/M11 Q1001 TEMPO BKN009",
      "taf": "TAF LZKZ 091715Z 0918/1018 VRB02KT 9999 SCT045"
    },
    {
      "icao": "LZTT",
      "alert": "OK",
      "vis_m": 9999,
      "fzfg": false,
      "metar_trigger": false,
      "taf_trigger": false,
      "metar": "METAR LZTT 092230Z 10002KT 9999 FEW026 OVC076 M11/M13 Q0997",
      "taf": "TAF LZTT 091715Z 0918/1018 VRB02KT 9999 BKN045"
    },
    {
      "icao": "OEJN",
      "alert": "OK",
      "vis_m": 9999,
      "fzfg": false,
      "metar_trigger": false,
      "taf_trigger": false,
      "metar": "METAR OEJN 092200Z 13003KT CAVOK 24/17 Q1013 NOSIG",
      "taf": "TAF OEJN 091700Z 0918/1024 04006KT 6000 SCT040"
    },
    {
      "icao": "OEMA",
      "alert": "OK",
      "vis_m": 9999,
      "fzfg": false,
      "metar_trigger": false,
      "taf_trigger": false,
      "metar": "METAR OEMA 092200Z 24007KT CAVOK 21/10 Q1017 NOSIG",
      "taf": "TAF OEMA 091700Z 0918/1024 30010KT 7000 SCT040"
    },
    {
      "icao": "OJAI",
      "alert": "OK",
      "vis_m": 2500,
      "fzfg": false,
      "metar_trigger": false,
      "taf_trigger": false,
      "metar": "METAR OJAI 092200Z 27019KT 2500 BLDU FEW025 SCT035 08/05 Q1016 NOSIG",
      "taf": "TAF OJAI 091700Z 0918/1024 26016KT 2500 RA BR SCT030 BKN035"
    },
    {
      "icao": "OMAA",
      "alert": "OK",
      "vis_m": 9999,
      "fzfg": false,
      "metar_trigger": false,
      "taf_trigger": false,
      "metar": "METAR OMAA 092200Z 10004KT 050V120 CAVOK 18/12 Q1017 NOSIG",
      "taf": "TAF OMAA 091700Z 0918/1100 VRB02KT 8000 NSC"
    },
    {
      "icao": "OMDB",
      "alert": "OK",
      "vis_m": 9999,
      "fzfg": false,
      "metar_trigger": false,
      "taf_trigger": false,
      "metar": "METAR OMDB 092230Z 10003KT CAVOK 20/12 Q1017 NOSIG",
      "taf": "TAF OMDB 091700Z 0918/1100 12005KT 8000 NSC"
    },
    {
      "icao": "UAAA",
      "alert": "OK",
      "vis_m": 1700,
      "fzfg": false,
      "metar_trigger": false,
      "taf_trigger": false,
      "metar": "METAR UAAA 092230Z VRB01MPS 1700 R23L/P2000D BR OVC006 M05/M07 Q1019 NOSIG RMK QBB180",
      "taf": "TAF UAAA 091701Z 0918/1018 17003MPS 1200 BR FU BKN011 OVC020 TX03/1009Z TNM07/1001Z"
    },
    {
      "icao": "UBBB",
      "alert": "OK",
      "vis_m": 9999,
      "fzfg": false,
      "metar_trigger": false,
      "taf_trigger": false,
      "metar": "METAR UBBB 092230Z 32018KT 9999 SCT017 08/05 Q1004 NOSIG",
      "taf": ""
    },
    {
      "icao": "UDSG",
      "alert": "OK",
      "vis_m": 450,
      "fzfg": true,
      "metar_trigger": false,
      "taf_trigger": false,
      "metar": "METAR UDSG 092230Z 13003KT 0450 R02/1300D FZFG OVC016 M03/M03 Q1006 NOSIG",
      "taf": "TAF UDSG 091700Z 0918/1018 VRB06KT 1500 BR OVC020"
    },
    {
      "icao": "UDYZ",
      "alert": "OK",
      "vis_m": 1300,
      "fzfg": false,
      "metar_trigger": false,
      "taf_trigger": false,
      "metar": "METAR UDYZ 092230Z VRB01KT 1300 1200W R08/P2000D BR BKN040CB M01/M02 Q1007 NOSIG",
      "taf": "TAF UDYZ 091700Z 0918/1018 24006KT 1000 BR BKN030CB"
    },
    {
      "icao": "UGKO",
      "alert": "OK",
      "vis_m": 9999,
      "fzfg": false,
      "metar_trigger": false,
      "taf_trigger": false,
      "metar": "METAR UGKO 092230Z VRB02KT 9999 SCT037 05/04 Q1007 NOSIG",
      "taf": "TAF UGKO 091700Z 0918/1018 25010KT 9999 OVC050 TX09/1012Z TN04/1003Z"
    }
  ]
}