{
  "ts_utc": "2026-05-11T18:28:45Z",
  "threshold_m": 150,
  "source": "stations_override.txt (ICAO list) + aviationweather.gov (METAR/TAF raw)",
  "station_count": 159,
  "stations": [
    {
      "icao": "BIKF",
      "alert": "OK",
      "vis_m": 9999,
      "fzfg": false,
      "metar_trigger": false,
      "taf_trigger": false,
      "metar": "METAR BIKF 111800Z 23024KT 9999 FEW035 08/01 Q0998",
      "taf": "TAF BIKF 111626Z 1118/1218 26025G35KT 9999 SCT026 TX09/1214Z TN03/1205Z"
    },
    {
      "icao": "BKPR",
      "alert": "OK",
      "vis_m": 9999,
      "fzfg": false,
      "metar_trigger": false,
      "taf_trigger": false,
      "metar": "METAR BKPR 111800Z 23019KT CAVOK 19/10 Q1009 NOSIG",
      "taf": "TAF BKPR 111730Z 1118/1218 23015KT 9999 FEW050"
    },
    {
      "icao": "EBCI",
      "alert": "OK",
      "vis_m": 9999,
      "fzfg": false,
      "metar_trigger": false,
      "taf_trigger": false,
      "metar": "METAR EBCI 111820Z 33009KT 300V360 9999 FEW035 08/01 Q1010 NOSIG",
      "taf": "TAF EBCI 111710Z 1118/1224 31011KT 9999 FEW035"
    },
    {
      "icao": "EDDB",
      "alert": "OK",
      "vis_m": 9999,
      "fzfg": false,
      "metar_trigger": false,
      "taf_trigger": false,
      "metar": "METAR EDDB 111820Z AUTO 29014KT 9999 BKN013 OVC017 09/06 Q1000 BECMG BKN015",
      "taf": "TAF EDDB 111700Z 1118/1218 29015G25KT 9999 SCT010 OVC025"
    },
    {
      "icao": "EDDH",
      "alert": "OK",
      "vis_m": 9999,
      "fzfg": false,
      "metar_trigger": false,
      "taf_trigger": false,
      "metar": "METAR EDDH 111820Z AUTO 28011KT 240V320 9999 FEW040 09/03 Q1001 BECMG 28007KT",
      "taf": "TAF EDDH 111700Z 1118/1224 30012KT 9999 BKN030"
    },
    {
      "icao": "EDDK",
      "alert": "OK",
      "vis_m": 9999,
      "fzfg": false,
      "metar_trigger": false,
      "taf_trigger": false,
      "metar": "METAR EDDK 111820Z AUTO 29008KT 9999 -SHRA SCT049 FEW///CB 09/03 Q1006 RESHRA NOSIG",
      "taf": "TAF EDDK 111700Z 1118/1224 30008KT 9999 BKN030"
    },
    {
      "icao": "EDDN",
      "alert": "OK",
      "vis_m": 9999,
      "fzfg": false,
      "metar_trigger": false,
      "taf_trigger": false,
      "metar": "METAR EDDN 111820Z AUTO 29010KT 270V340 9999 BKN014 BKN019 OVC028 09/07 Q1004 NOSIG",
      "taf": "TAF EDDN 111700Z 1118/1218 30010KT 9999 BKN015"
    },
    {
      "icao": "EDDS",
      "alert": "OK",
      "vis_m": 9999,
      "fzfg": false,
      "metar_trigger": false,
      "taf_trigger": false,
      "metar": "METAR EDDS 111820Z AUTO 34014KT 9999 -SHRA SCT009 BKN015 BKN022 BKN///TCU 07/05 Q1006 RESHRA TEMPO RA BKN010",
      "taf": "TAF EDDS 111700Z 1118/1218 28008KT 9999 SCT015"
    },
    {
      "icao": "EDFH",
      "alert": "OK",
      "vis_m": 9999,
      "fzfg": false,
      "metar_trigger": false,
      "taf_trigger": false,
      "metar": "METAR EDFH 111820Z 31009KT 290V350 9999 -DZ SCT013 BKN023 05/04 Q1006",
      "taf": "TAF EDFH 111700Z 1118/1218 29008KT 9999 SCT015"
    },
    {
      "icao": "EDJA",
      "alert": "OK",
      "vis_m": 8000,
      "fzfg": false,
      "metar_trigger": false,
      "taf_trigger": false,
      "metar": "METAR EDJA 111820Z 22010KT 8000 -RA OVC027 10/08 Q1004",
      "taf": "TAF EDJA 111700Z 1118/1203 23015G30KT 9999 SCT020 BKN045"
    },
    {
      "icao": "EDLW",
      "alert": "OK",
      "vis_m": 9999,
      "fzfg": false,
      "metar_trigger": false,
      "taf_trigger": false,
      "metar": "METAR EDLW 111820Z 29006KT 220V350 9999 FEW042 08/01 Q1005",
      "taf": "TAF EDLW 111700Z 1118/1218 28007KT 9999 BKN030"
    },
    {
      "icao": "EDNY",
      "alert": "OK",
      "vis_m": 9999,
      "fzfg": false,
      "metar_trigger": false,
      "taf_trigger": false,
      "metar": "METAR EDNY 111820Z 27006KT 240V310 9999 FEW032 BKN036 OVC044 13/08 Q1005",
      "taf": "TAF EDNY 111700Z 1118/1203 25010KT 9999 BKN030"
    },
    {
      "icao": "EDSB",
      "alert": "OK",
      "vis_m": 9999,
      "fzfg": false,
      "metar_trigger": false,
      "taf_trigger": false,
      "metar": "METAR EDSB 111820Z 27004KT 240V310 9999 SCT045 09/07 Q1007",
      "taf": "TAF EDSB 111700Z 1118/1218 26005KT 9999 SCT020"
    },
    {
      "icao": "EETN",
      "alert": "OK",
      "vis_m": 9999,
      "fzfg": false,
      "metar_trigger": false,
      "taf_trigger": false,
      "metar": "METAR EETN 111820Z 13006KT CAVOK 15/04 Q1005 NOSIG",
      "taf": "TAF EETN 111730Z 1118/1218 14010KT CAVOK"
    },
    {
      "icao": "EFTU",
      "alert": "OK",
      "vis_m": 9999,
      "fzfg": false,
      "metar_trigger": false,
      "taf_trigger": false,
      "metar": "METAR EFTU 111820Z AUTO 16005KT 120V190 9999 BKN040 12/05 Q1005",
      "taf": "TAF EFTU 111730Z 1118/1218 16007KT 9999 BKN040"
    },
    {
      "icao": "EGBB",
      "alert": "OK",
      "vis_m": 9999,
      "fzfg": false,
      "metar_trigger": false,
      "taf_trigger": false,
      "metar": "METAR EGBB 111820Z 01008KT CAVOK 11/M01 Q1014",
      "taf": "TAF EGBB 111704Z 1118/1218 02010KT 9999 FEW045"
    },
    {
      "icao": "EGGP",
      "alert": "OK",
      "vis_m": 9999,
      "fzfg": false,
      "metar_trigger": false,
      "taf_trigger": false,
      "metar": "METAR EGGP 111820Z 30009KT 270V330 CAVOK 10/M00 Q1015",
      "taf": "TAF EGGP 111653Z 1118/1218 31010KT 9999 FEW045"
    },
    {
      "icao": "EGGW",
      "alert": "OK",
      "vis_m": 9999,
      "fzfg": false,
      "metar_trigger": false,
      "taf_trigger": false,
      "metar": "METAR EGGW 111820Z AUTO 01008KT 320V040 9999 NCD 10/M00 Q1013",
      "taf": "TAF EGGW 111701Z 1118/1218 02008KT 9999 BKN045"
    },
    {
      "icao": "EGKK",
      "alert": "OK",
      "vis_m": 9999,
      "fzfg": false,
      "metar_trigger": false,
      "taf_trigger": false,
      "metar": "METAR EGKK 111820Z 36008KT 330V050 9999 FEW046 11/01 Q1013",
      "taf": "TAF EGKK 111647Z 1118/1224 02010KT 9999 SCT030"
    },
    {
      "icao": "EGNM",
      "alert": "OK",
      "vis_m": 9999,
      "fzfg": false,
      "metar_trigger": false,
      "taf_trigger": false,
      "metar": "METAR EGNM 111820Z 03005KT 9999 SCT049 07/M01 Q1014",
      "taf": "TAF EGNM 111656Z 1118/1218 03005KT 9999 FEW045"
    },
    {
      "icao": "EGPD",
      "alert": "OK",
      "vis_m": 9999,
      "fzfg": false,
      "metar_trigger": false,
      "taf_trigger": false,
      "metar": "METAR EGPD 111820Z COR AUTO 01005KT 9999 NCD 08/M01 Q1013 NOSIG",
      "taf": "TAF EGPD 111659Z 1118/1218 36003KT 9999 SCT045"
    },
    {
      "icao": "EGPF",
      "alert": "OK",
      "vis_m": 9999,
      "fzfg": false,
      "metar_trigger": false,
      "taf_trigger": false,
      "metar": "METAR EGPF 111820Z AUTO 30009KT 9999 NCD 11/00 Q1014",
      "taf": "TAF EGPF 111652Z 1118/1218 27010KT 9999 SCT040"
    },
    {
      "icao": "EHBK",
      "alert": "OK",
      "vis_m": 9999,
      "fzfg": false,
      "metar_trigger": false,
      "taf_trigger": false,
      "metar": "METAR EHBK 111755Z AUTO 32010KT 270V350 9999 FEW040/// SCT047/// 09/02 Q1008 NOSIG",
      "taf": "TAF EHBK 111653Z 1118/1224 30010KT 9999 SCT035"
    },
    {
      "icao": "EHEH",
      "alert": "OK",
      "vis_m": 9999,
      "fzfg": false,
      "metar_trigger": false,
      "taf_trigger": false,
      "metar": "METAR EHEH 111755Z AUTO 29009KT 230V360 9999 FEW035 SCT044 BKN057 09/01 Q1008 REDZ BLU TEMPO FEW025CB RMK TREND REMOTE BY EHWX",
      "taf": "TAF EHEH 111700Z 1118/1224 32010G21KT 9999 SCT070"
    },
    {
      "icao": "EKBI",
      "alert": "OK",
      "vis_m": 9999,
      "fzfg": false,
      "metar_trigger": false,
      "taf_trigger": false,
      "metar": "METAR EKBI 111820Z AUTO 04010KT 9999 FEW036/// BKN047/// BKN066/// 10/03 Q1000",
      "taf": "TAF EKBI 111727Z 1118/1218 10005KT 9999 FEW040"
    },
    {
      "icao": "EKCH",
      "alert": "OK",
      "vis_m": 9999,
      "fzfg": false,
      "metar_trigger": false,
      "taf_trigger": false,
      "metar": "METAR EKCH 111820Z AUTO 33008KT 9999 OVC035/// 09/06 Q0998 NOSIG",
      "taf": "TAF EKCH 111727Z 1118/1218 34010KT 9999 BKN040"
    },
    {
      "icao": "ENAL",
      "alert": "OK",
      "vis_m": 9999,
      "fzfg": false,
      "metar_trigger": false,
      "taf_trigger": false,
      "metar": "METAR ENAL 111820Z 27010KT CAVOK 07/02 Q1007",
      "taf": "TAF ENAL 111700Z 1118/1203 25008KT 9999 FEW030"
    },
    {
      "icao": "ENBR",
      "alert": "OK",
      "vis_m": 9999,
      "fzfg": false,
      "metar_trigger": false,
      "taf_trigger": false,
      "metar": "METAR ENBR 111820Z 32012KT 280V340 9999 FEW049 08/01 Q1006 NOSIG RMK WIND 1200FT 33023KT",
      "taf": "TAF ENBR 111700Z 1118/1218 34018KT 9999 FEW020 SCT040"
    },
    {
      "icao": "ENGM",
      "alert": "OK",
      "vis_m": 9999,
      "fzfg": false,
      "metar_trigger": false,
      "taf_trigger": false,
      "metar": "METAR ENGM 111820Z 36009KT CAVOK 07/02 Q1003 NOSIG",
      "taf": "TAF ENGM 111700Z 1118/1218 35010KT 9999 SCT040"
    },
    {
      "icao": "ENHD",
      "alert": "OK",
      "vis_m": 9999,
      "fzfg": false,
      "metar_trigger": false,
      "taf_trigger": false,
      "metar": "METAR ENHD 111820Z 34024KT CAVOK 08/02 Q1005",
      "taf": "TAF ENHD 111400Z 1115/1122 34020KT 9999 FEW020"
    },
    {
      "icao": "ENTC",
      "alert": "OK",
      "vis_m": 9999,
      "fzfg": false,
      "metar_trigger": false,
      "taf_trigger": false,
      "metar": "METAR ENTC 111820Z 33003KT 9999 BKN051 10/00 Q1004 NOSIG RMK WIND 2600FT 17010KT",
      "taf": "TAF ENTC 111700Z 1118/1218 22005KT 9999 SCT040"
    },
    {
      "icao": "ENTO",
      "alert": "OK",
      "vis_m": 9999,
      "fzfg": false,
      "metar_trigger": false,
      "taf_trigger": false,
      "metar": "METAR ENTO 111820Z 36010KT 9999 VCSH SCT052TCU 08/03 Q1003 NOSIG",
      "taf": "TAF ENTO 111700Z 1118/1218 35010KT 9999 FEW040"
    },
    {
      "icao": "ENVA",
      "alert": "OK",
      "vis_m": 9999,
      "fzfg": false,
      "metar_trigger": false,
      "taf_trigger": false,
      "metar": "METAR ENVA 111820Z 27008KT 9999 FEW040CB 09/M00 Q1006 NOSIG RMK WIND 670FT 28008KT",
      "taf": "TAF ENVA 111700Z 1118/1218 26008KT 9999 FEW040"
    },
    {
      "icao": "ENZV",
      "alert": "OK",
      "vis_m": 9999,
      "fzfg": false,
      "metar_trigger": false,
      "taf_trigger": false,
      "metar": "METAR ENZV 111820Z 34017KT CAVOK 09/02 Q1005 TEMPO 33020G30KT",
      "taf": "TAF ENZV 111700Z 1118/1218 36018KT 9999 FEW040"
    },
    {
      "icao": "EPGD",
      "alert": "OK",
      "vis_m": 9999,
      "fzfg": false,
      "metar_trigger": false,
      "taf_trigger": false,
      "metar": "METAR EPGD 111800Z 13012KT 9999 FEW045 15/14 Q0995",
      "taf": "TAF EPGD 111730Z 1118/1218 16014KT CAVOK"
    },
    {
      "icao": "EPKK",
      "alert": "OK",
      "vis_m": 9999,
      "fzfg": false,
      "metar_trigger": false,
      "taf_trigger": false,
      "metar": "METAR EPKK 111800Z VRB02KT CAVOK 16/13 Q0999",
      "taf": "TAF EPKK 111730Z 1118/1218 VRB05KT CAVOK"
    },
    {
      "icao": "EPKT",
      "alert": "OK",
      "vis_m": 9999,
      "fzfg": false,
      "metar_trigger": false,
      "taf_trigger": false,
      "metar": "METAR EPKT 111800Z 14005KT CAVOK 15/13 Q0999",
      "taf": "TAF EPKT 111730Z 1118/1218 17010KT 9999 BKN040"
    },
    {
      "icao": "EPLB",
      "alert": "OK",
      "vis_m": 9999,
      "fzfg": false,
      "metar_trigger": false,
      "taf_trigger": false,
      "metar": "METAR EPLB 111800Z 21005KT CAVOK 16/12 Q1001",
      "taf": "TAF EPLB 111730Z 1118/1218 17010KT CAVOK"
    },
    {
      "icao": "EPMO",
      "alert": "OK",
      "vis_m": 9999,
      "fzfg": false,
      "metar_trigger": false,
      "taf_trigger": false,
      "metar": "METAR EPMO 111800Z 12006KT CAVOK 15/14 Q0998",
      "taf": "TAF EPMO 111730Z 1118/1218 14008KT CAVOK"
    },
    {
      "icao": "EPPO",
      "alert": "OK",
      "vis_m": 9999,
      "fzfg": false,
      "metar_trigger": false,
      "taf_trigger": false,
      "metar": "METAR EPPO 111800Z 24006KT CAVOK 14/12 Q0996",
      "taf": "TAF EPPO 111730Z 1118/1218 30005KT 9999 SCT040"
    },
    {
      "icao": "EPRA",
      "alert": "OK",
      "vis_m": 9999,
      "fzfg": false,
      "metar_trigger": false,
      "taf_trigger": false,
      "metar": "METAR EPRA 111800Z 13008KT 9999 FEW043 15/13 Q0999",
      "taf": "TAF EPRA 111730Z 1118/1203 16006KT CAVOK"
    },
    {
      "icao": "EPRZ",
      "alert": "OK",
      "vis_m": 9999,
      "fzfg": false,
      "metar_trigger": false,
      "taf_trigger": false,
      "metar": "METAR EPRZ 111800Z 13007KT CAVOK 15/12 Q1001",
      "taf": "TAF EPRZ 111730Z 1118/1218 15013KT 9999 SCT045"
    },
    {
      "icao": "EPSC",
      "alert": "OK",
      "vis_m": 9999,
      "fzfg": false,
      "metar_trigger": false,
      "taf_trigger": false,
      "metar": "METAR EPSC 111800Z 26009KT 9999 FEW010 SCT022 OVC026 11/08 Q0997",
      "taf": "TAF EPSC 111730Z 1118/1218 26010KT 9999 BKN010"
    },
    {
      "icao": "EPSY",
      "alert": "OK",
      "vis_m": 9999,
      "fzfg": false,
      "metar_trigger": false,
      "taf_trigger": false,
      "metar": "METAR EPSY 111800Z 13004KT 090V160 9999 -SHRA SCT029 BKN042CB 14/13 Q0999",
      "taf": "TAF EPSY 111730Z 1118/1203 12008KT 9999 SCT040"
    },
    {
      "icao": "EPWA",
      "alert": "OK",
      "vis_m": 9999,
      "fzfg": false,
      "metar_trigger": false,
      "taf_trigger": false,
      "metar": "METAR EPWA 111800Z 13009KT CAVOK 15/13 Q0999 NOSIG",
      "taf": "TAF EPWA 111730Z 1118/1218 15008KT CAVOK"
    },
    {
      "icao": "EPWR",
      "alert": "OK",
      "vis_m": 9999,
      "fzfg": false,
      "metar_trigger": false,
      "taf_trigger": false,
      "metar": "METAR EPWR 111800Z 15007KT 9999 -SHRA FEW020CB 14/12 Q0997 RETS",
      "taf": "TAF EPWR 111730Z 1118/1218 32010KT 9999 BKN040"
    },
    {
      "icao": "ESGG",
      "alert": "OK",
      "vis_m": 9999,
      "fzfg": false,
      "metar_trigger": false,
      "taf_trigger": false,
      "metar": "METAR ESGG 111820Z 07008KT 9999 SCT047 07/04 Q1000",
      "taf": "TAF ESGG 111730Z 1118/1218 08010KT CAVOK"
    },
    {
      "icao": "ESKN",
      "alert": "OK",
      "vis_m": 9999,
      "fzfg": false,
      "metar_trigger": false,
      "taf_trigger": false,
      "metar": "METAR ESKN 111820Z 33006KT 9999 -RA FEW024 SCT037 BKN052 07/06 Q1002",
      "taf": "TAF ESKN 111730Z 1118/1218 03007KT 9999 -RA BKN040"
    },
    {
      "icao": "ESMS",
      "alert": "OK",
      "vis_m": 9999,
      "fzfg": false,
      "metar_trigger": false,
      "taf_trigger": false,
      "metar": "METAR ESMS 111820Z 31010KT 9999 SCT012 BKN015 08/08 Q0996",
      "taf": "TAF ESMS 111727Z 1118/1218 34012KT 9999 SCT030"
    },
    {
      "icao": "ESSA",
      "alert": "OK",
      "vis_m": 9999,
      "fzfg": false,
      "metar_trigger": false,
      "taf_trigger": false,
      "metar": "METAR ESSA 111820Z 03011KT CAVOK 08/04 Q1003 NOSIG",
      "taf": "TAF ESSA 111730Z 1118/1218 03009KT CAVOK"
    },
    {
      "icao": "EYKA",
      "alert": "OK",
      "vis_m": 9999,
      "fzfg": false,
      "metar_trigger": false,
      "taf_trigger": false,
      "metar": "METAR EYKA 111820Z 12011KT CAVOK 14/06 Q1003",
      "taf": "TAF EYKA 111700Z 1118/1218 12010KT 9000 NSC"
    },
    {
      "icao": "EYPA",
      "alert": "OK",
      "vis_m": 9999,
      "fzfg": false,
      "metar_trigger": false,
      "taf_trigger": false,
      "metar": "METAR EYPA 111820Z 11009KT CAVOK 17/04 Q1000",
      "taf": "TAF EYPA 111700Z 1118/1218 12010KT 9000 NSC"
    },
    {
      "icao": "EYVI",
      "alert": "OK",
      "vis_m": 9999,
      "fzfg": false,
      "metar_trigger": false,
      "taf_trigger": false,
      "metar": "METAR EYVI 111820Z 13009KT CAVOK 11/07 Q1005 NOSIG",
      "taf": "TAF EYVI 111700Z 1118/1218 13010KT 9000 NSC"
    },
    {
      "icao": "GCFV",
      "alert": "OK",
      "vis_m": 9999,
      "fzfg": false,
      "metar_trigger": false,
      "taf_trigger": false,
      "metar": "METAR GCFV 111800Z 13005KT 090V170 9999 FEW040 SCT045 21/15 Q1018",
      "taf": "TAF GCFV 111400Z 1115/1215 07008KT 9999 BKN035 TX24/1214Z TN17/1206Z"
    },
    {
      "icao": "GCLP",
      "alert": "OK",
      "vis_m": 9999,
      "fzfg": false,
      "metar_trigger": false,
      "taf_trigger": false,
      "metar": "METAR GCLP 111800Z 05006KT 010V080 9999 BKN050 21/14 Q1017 NOSIG",
      "taf": "TAF GCLP 111400Z 1115/1215 05006KT 9999 FEW025 BKN035 TX23/1214Z TN16/1206Z"
    },
    {
      "icao": "GCTS",
      "alert": "OK",
      "vis_m": 9999,
      "fzfg": false,
      "metar_trigger": false,
      "taf_trigger": false,
      "metar": "METAR GCTS 111800Z 27010KT 210V310 9999 FEW060 23/11 Q1017 NOSIG",
      "taf": "TAF GCTS 111400Z 1115/1215 06008KT 9999 SCT040 TX24/1214Z TN16/1206Z"
    },
    {
      "icao": "GMAD",
      "alert": "OK",
      "vis_m": 9999,
      "fzfg": false,
      "metar_trigger": false,
      "taf_trigger": false,
      "metar": "METAR GMAD 111800Z 25012KT 220V290 CAVOK 25/07 Q1015 NOSIG",
      "taf": "TAF GMAD 111700Z 1118/1224 25012KT CAVOK"
    },
    {
      "icao": "GMMN",
      "alert": "OK",
      "vis_m": 9999,
      "fzfg": false,
      "metar_trigger": false,
      "taf_trigger": false,
      "metar": "METAR GMMN 111800Z 33012KT 9999 FEW030 20/09 Q1017 NOSIG",
      "taf": "TAF GMMN 111700Z 1118/1224 34010KT 9999 FEW030"
    },
    {
      "icao": "GMMX",
      "alert": "OK",
      "vis_m": 9999,
      "fzfg": false,
      "metar_trigger": false,
      "taf_trigger": false,
      "metar": "METAR GMMX 111800Z 31012KT 270V350 9999 FEW026 26/11 Q1015 NOSIG",
      "taf": "TAF GMMX 111700Z 1118/1224 32008KT 8000 NSC"
    },
    {
      "icao": "HEGN",
      "alert": "OK",
      "vis_m": 9999,
      "fzfg": false,
      "metar_trigger": false,
      "taf_trigger": false,
      "metar": "METAR HEGN 111800Z 35008KT CAVOK 28/12 Q1011 NOSIG",
      "taf": "TAF HEGN 111700Z 1118/1224 32014KT CAVOK"
    },
    {
      "icao": "HEMA",
      "alert": "OK",
      "vis_m": 9999,
      "fzfg": false,
      "metar_trigger": false,
      "taf_trigger": false,
      "metar": "METAR HEMA 111800Z 34004KT CAVOK 28/11 Q1011 NOSIG",
      "taf": "TAF HEMA 111700Z 1118/1224 31015KT CAVOK"
    },
    {
      "icao": "HESH",
      "alert": "OK",
      "vis_m": 9999,
      "fzfg": false,
      "metar_trigger": false,
      "taf_trigger": false,
      "metar": "METAR HESH 111800Z 34007KT CAVOK 32/10 Q1010 NOSIG",
      "taf": "TAF HESH 111700Z 1118/1224 35012KT CAVOK"
    },
    {
      "icao": "HESX",
      "alert": "OK",
      "vis_m": 9999,
      "fzfg": false,
      "metar_trigger": false,
      "taf_trigger": false,
      "metar": "METAR HESX 111800Z 03007KT CAVOK 27/10 Q1014 NOSIG",
      "taf": "TAF HESX 111700Z 1118/1224 02010KT CAVOK"
    },
    {
      "icao": "LATI",
      "alert": "OK",
      "vis_m": 9999,
      "fzfg": false,
      "metar_trigger": false,
      "taf_trigger": false,
      "metar": "METAR LATI 111820Z 24004KT 210V280 9999 FEW088 22/12 Q1011 NOSIG",
      "taf": "TAF LATI 111700Z 1118/1218 VRB05KT 9999 SCT050 TX26/1212Z TN15/1204Z"
    },
    {
      "icao": "LBPD",
      "alert": "OK",
      "vis_m": 9999,
      "fzfg": false,
      "metar_trigger": false,
      "taf_trigger": false,
      "metar": "METAR LBPD 111800Z AUTO 14007KT 9999 FEW088/// 20/15 Q1006 NOSIG",
      "taf": "TAF LBPD 111700Z 1118/1218 11010KT 9999 SCT060"
    },
    {
      "icao": "LBSF",
      "alert": "OK",
      "vis_m": 9999,
      "fzfg": false,
      "metar_trigger": false,
      "taf_trigger": false,
      "metar": "METAR LBSF 111800Z AUTO 36005KT 9999 BKN070/// 19/13 Q1008 TEMPO 5000 SHRA FEW040TCU",
      "taf": "TAF LBSF 111700Z 1118/1218 09010KT 9999 SCT060"
    },
    {
      "icao": "LBWN",
      "alert": "OK",
      "vis_m": 9999,
      "fzfg": false,
      "metar_trigger": false,
      "taf_trigger": false,
      "metar": "METAR LBWN 111800Z AUTO 10006KT 9999 SCT009/// 14/14 Q1010 NOSIG",
      "taf": "TAF LBWN 111700Z 1118/1218 11010KT 9999 SCT045"
    },
    {
      "icao": "LCLK",
      "alert": "OK",
      "vis_m": 9999,
      "fzfg": false,
      "metar_trigger": false,
      "taf_trigger": false,
      "metar": "METAR LCLK 111800Z 22004KT CAVOK 21/19 Q1013 NOSIG",
      "taf": "TAF LCLK 111730Z 1118/1218 22010KT 9999 FEW025"
    },
    {
      "icao": "LCPH",
      "alert": "OK",
      "vis_m": 9999,
      "fzfg": false,
      "metar_trigger": false,
      "taf_trigger": false,
      "metar": "METAR LCPH 111800Z 31007KT CAVOK 20/18 Q1014 NOSIG",
      "taf": "TAF LCPH 111730Z 1118/1218 30010KT 9999 FEW020"
    },
    {
      "icao": "LEAL",
      "alert": "OK",
      "vis_m": 9999,
      "fzfg": false,
      "metar_trigger": false,
      "taf_trigger": false,
      "metar": "METAR LEAL 111800Z 16004KT 090V220 CAVOK 22/15 Q1014 NOSIG",
      "taf": "TAF LEAL 111700Z 1118/1218 VRB04KT CAVOK TX26/1212Z TN14/1206Z"
    },
    {
      "icao": "LEBB",
      "alert": "OK",
      "vis_m": 9999,
      "fzfg": false,
      "metar_trigger": false,
      "taf_trigger": false,
      "metar": "METAR LEBB 111800Z 28004KT 9999 FEW017 18/13 Q1015 NOSIG",
      "taf": "TAF LEBB 111700Z 1118/1218 VRB03KT 9999 FEW045 SCT060 TX16/1212Z TN11/1201Z"
    },
    {
      "icao": "LEBL",
      "alert": "OK",
      "vis_m": 9999,
      "fzfg": false,
      "metar_trigger": false,
      "taf_trigger": false,
      "metar": "METAR LEBL 111800Z 23017KT CAVOK 20/15 Q1012 NOSIG",
      "taf": "TAF LEBL 111700Z 1118/1218 23015KT 9999 FEW030 TX21/1212Z TN13/1205Z"
    },
    {
      "icao": "LECH",
      "alert": "OK",
      "vis_m": 9999,
      "fzfg": false,
      "metar_trigger": false,
      "taf_trigger": false,
      "metar": "METAR LECH 111800Z AUTO 08007KT 050V110 CAVOK 20/12 Q1013",
      "taf": "TAF LECH 111700Z 1118/1218 VRB04KT CAVOK TX23/1214Z TN10/1206Z"
    },
    {
      "icao": "LEMD",
      "alert": "OK",
      "vis_m": 9999,
      "fzfg": false,
      "metar_trigger": false,
      "taf_trigger": false,
      "metar": "METAR LEMD 111800Z 22009G19KT 190V270 9999 FEW048 18/06 Q1015 NOSIG",
      "taf": "TAF LEMD 111700Z 1118/1224 22010KT 9999 FEW045 TX19/1118Z TN07/1205Z"
    },
    {
      "icao": "LEMG",
      "alert": "OK",
      "vis_m": 9999,
      "fzfg": false,
      "metar_trigger": false,
      "taf_trigger": false,
      "metar": "METAR LEMG 111800Z 18006KT 140V210 9999 FEW050 22/13 Q1014 NOSIG",
      "taf": "TAF LEMG 111700Z 1118/1218 16010KT 9999 FEW045 TX25/1214Z TN13/1206Z"
    },
    {
      "icao": "LEVC",
      "alert": "OK",
      "vis_m": 9999,
      "fzfg": false,
      "metar_trigger": false,
      "taf_trigger": false,
      "metar": "METAR LEVC 111800Z 24011KT 9999 FEW050 25/05 Q1012 NOSIG",
      "taf": "TAF LEVC 111700Z 1118/1218 27012KT CAVOK TX26/1212Z TN12/1206Z"
    },
    {
      "icao": "LEXJ",
      "alert": "OK",
      "vis_m": 9999,
      "fzfg": false,
      "metar_trigger": false,
      "taf_trigger": false,
      "metar": "METAR LEXJ 111800Z 07003KT 010V140 9999 FEW035 17/12 Q1015",
      "taf": "TAF LEXJ 111400Z 1115/1215 VRB03KT 9999 FEW045 SCT070 TX19/1115Z TN14/1122Z"
    },
    {
      "icao": "LEZG",
      "alert": "OK",
      "vis_m": 9999,
      "fzfg": false,
      "metar_trigger": false,
      "taf_trigger": false,
      "metar": "METAR LEZG 111800Z 27011KT 9999 FEW065TCU BKN085 19/10 Q1013 NOSIG",
      "taf": "TAF LEZG 111700Z 1118/1218 24006KT 9999 FEW060 TX22/1218Z TN11/1207Z"
    },
    {
      "icao": "LEZL",
      "alert": "OK",
      "vis_m": 9999,
      "fzfg": false,
      "metar_trigger": false,
      "taf_trigger": false,
      "metar": "METAR LEZL 111800Z 24010KT 210V270 CAVOK 22/08 Q1015 NOSIG",
      "taf": "TAF LEZL 111400Z 1115/1215 22010KT 9999 FEW040 TX25/1215Z TN13/1206Z"
    },
    {
      "icao": "LFBD",
      "alert": "OK",
      "vis_m": 9999,
      "fzfg": false,
      "metar_trigger": false,
      "taf_trigger": false,
      "metar": "METAR LFBD 111800Z AUTO 31010KT 9999 SCT026 OVC034 16/10 Q1014 NOSIG",
      "taf": "TAF LFBD 111700Z 1118/1224 31010KT 9999 BKN030 TX20/1214Z TN12/1204Z"
    },
    {
      "icao": "LFLL",
      "alert": "OK",
      "vis_m": 9999,
      "fzfg": false,
      "metar_trigger": false,
      "taf_trigger": false,
      "metar": "METAR LFLL 111800Z 32008KT 9999 -SHRA FEW010 FEW036CB BKN066 BKN086 14/12 Q1010 NOSIG",
      "taf": ""
    },
    {
      "icao": "LFLS",
      "alert": "OK",
      "vis_m": 9999,
      "fzfg": false,
      "metar_trigger": false,
      "taf_trigger": false,
      "metar": "METAR LFLS 111800Z AUTO 31004KT 9999 -TSRA FEW017/// SCT036/// BKN054/// ///CB 12/11 Q1010 TEMPO VRB17G30KT 2000 TSRA BKN011 BKN027CB",
      "taf": "TAF LFLS 111400Z 1115/1215 23008KT 9999 FEW010 BKN050"
    },
    {
      "icao": "LFMN",
      "alert": "OK",
      "vis_m": 9999,
      "fzfg": false,
      "metar_trigger": false,
      "taf_trigger": false,
      "metar": "METAR LFMN 111800Z COR 27012KT 9999 FEW086 23/08 Q1005 NOSIG",
      "taf": "TAF LFMN 111400Z 1115/1221 24020KT 9999 FEW080"
    },
    {
      "icao": "LFOB",
      "alert": "OK",
      "vis_m": 9999,
      "fzfg": false,
      "metar_trigger": false,
      "taf_trigger": false,
      "metar": "METAR LFOB 111800Z AUTO 01012KT 340V040 9999 -RA FEW011/// SCT028/// OVC038/// ///CB 08/07 Q1012 TEMPO VRB15G25KT 4000 SHRA",
      "taf": "TAF LFOB 111700Z 1118/1218 31010G20KT 9999 BKN040"
    },
    {
      "icao": "LFPO",
      "alert": "OK",
      "vis_m": 9999,
      "fzfg": false,
      "metar_trigger": false,
      "taf_trigger": false,
      "metar": "METAR LFPO 111800Z AUTO 33010KT 9999 FEW042 OVC062 13/05 Q1011 TEMPO 4000 -SHRA SCT030TCU",
      "taf": "TAF LFPO 111700Z 1118/1224 34010KT 9999 SCT035"
    },
    {
      "icao": "LFSB",
      "alert": "OK",
      "vis_m": 9999,
      "fzfg": false,
      "metar_trigger": false,
      "taf_trigger": false,
      "metar": "METAR LFSB 111800Z AUTO 27011KT 250V310 9999 4600 +RA FEW016/// SCT022/// BKN027/// ///TCU 12/11 Q1006 TEMPO 4000 SHRA BKN010 FEW030CB",
      "taf": ""
    },
    {
      "icao": "LGAV",
      "alert": "OK",
      "vis_m": 9999,
      "fzfg": false,
      "metar_trigger": false,
      "taf_trigger": false,
      "metar": "METAR LGAV 111820Z 21006KT 9999 FEW030 20/10 Q1010 NOSIG",
      "taf": "TAF LGAV 111700Z 1118/1218 25010KT 9999 FEW025"
    },
    {
      "icao": "LGTS",
      "alert": "OK",
      "vis_m": 9999,
      "fzfg": false,
      "metar_trigger": false,
      "taf_trigger": false,
      "metar": "METAR LGTS 111820Z VRB02KT 9999 FEW025 19/15 Q1009 NOSIG",
      "taf": "TAF LGTS 111700Z 1118/1218 VRB03KT 9999 FEW030"
    },
    {
      "icao": "LHBP",
      "alert": "OK",
      "vis_m": 9999,
      "fzfg": false,
      "metar_trigger": false,
      "taf_trigger": false,
      "metar": "METAR LHBP 111800Z 20010KT CAVOK 21/10 Q1001 NOSIG",
      "taf": "TAF LHBP 111715Z 1118/1218 21009KT CAVOK"
    },
    {
      "icao": "LHDC",
      "alert": "OK",
      "vis_m": 9999,
      "fzfg": false,
      "metar_trigger": false,
      "taf_trigger": false,
      "metar": "METAR LHDC 111745Z AUTO 10006KT 9999 -SHRA BKN062 //////CB 19/16 Q1001 NOSIG",
      "taf": "TAF LHDC 111415Z 1115/1124 16008KT CAVOK"
    },
    {
      "icao": "LIBD",
      "alert": "OK",
      "vis_m": 9999,
      "fzfg": false,
      "metar_trigger": false,
      "taf_trigger": false,
      "metar": "METAR LIBD 111820Z 20006KT 160V250 CAVOK 22/11 Q1010",
      "taf": "TAF LIBD 111700Z 1118/1218 23011KT CAVOK"
    },
    {
      "icao": "LIBG",
      "alert": "OK",
      "vis_m": 9999,
      "fzfg": false,
      "metar_trigger": false,
      "taf_trigger": false,
      "metar": "METAR LIBG 111750Z 24005KT 220V280 CAVOK 23/14 Q1010",
      "taf": "TAF LIBG 111400Z 1115/1124 21010KT CAVOK"
    },
    {
      "icao": "LIBP",
      "alert": "OK",
      "vis_m": 9999,
      "fzfg": false,
      "metar_trigger": false,
      "taf_trigger": false,
      "metar": "METAR LIBP 111820Z AUTO 24009KT 200V260 9999 NCD 23/08 Q1007",
      "taf": "TAF LIBP 111700Z 1118/1218 23015KT CAVOK"
    },
    {
      "icao": "LIBR",
      "alert": "OK",
      "vis_m": 9999,
      "fzfg": false,
      "metar_trigger": false,
      "taf_trigger": false,
      "metar": "METAR LIBR 111820Z 23010KT CAVOK 22/15 Q1010",
      "taf": "TAF LIBR 111700Z 1118/1218 20008KT CAVOK"
    },
    {
      "icao": "LICA",
      "alert": "OK",
      "vis_m": 9999,
      "fzfg": false,
      "metar_trigger": false,
      "taf_trigger": false,
      "metar": "METAR LICA 111820Z AUTO 24006KT 9999 NCD 18/16 Q1014",
      "taf": "TAF LICA 111700Z 1118/1218 23006KT 9999 FEW080"
    },
    {
      "icao": "LICC",
      "alert": "OK",
      "vis_m": 9999,
      "fzfg": false,
      "metar_trigger": false,
      "taf_trigger": false,
      "metar": "METAR LICC 111820Z 11002KT CAVOK 21/16 Q1014",
      "taf": "TAF LICC 111700Z 1118/1218 VRB05KT CAVOK"
    },
    {
      "icao": "LICJ",
      "alert": "OK",
      "vis_m": 9999,
      "fzfg": false,
      "metar_trigger": false,
      "taf_trigger": false,
      "metar": "METAR LICJ 111820Z 24002KT CAVOK 20/17 Q1013",
      "taf": "TAF LICJ 111700Z 1118/1218 VRB05KT CAVOK"
    },
    {
      "icao": "LIMC",
      "alert": "OK",
      "vis_m": 9999,
      "fzfg": false,
      "metar_trigger": false,
      "taf_trigger": false,
      "metar": "METAR LIMC 111820Z 03005KT CAVOK 17/11 Q1003 NOSIG",
      "taf": "TAF LIMC 111700Z 1118/1224 02008KT 9999 FEW040"
    },
    {
      "icao": "LIME",
      "alert": "OK",
      "vis_m": 9999,
      "fzfg": false,
      "metar_trigger": false,
      "taf_trigger": false,
      "metar": "METAR LIME 111820Z 11002KT 9999 SCT070 14/12 Q1003 NOSIG",
      "taf": "TAF LIME 111700Z 1118/1218 VRB05KT 9999 FEW040"
    },
    {
      "icao": "LIMF",
      "alert": "OK",
      "vis_m": 9999,
      "fzfg": false,
      "metar_trigger": false,
      "taf_trigger": false,
      "metar": "METAR LIMF 111820Z VRB03KT CAVOK 18/12 Q1002",
      "taf": "TAF LIMF 111700Z 1118/1218 28007KT 9999 FEW040"
    },
    {
      "icao": "LIMJ",
      "alert": "OK",
      "vis_m": 9999,
      "fzfg": false,
      "metar_trigger": false,
      "taf_trigger": false,
      "metar": "METAR LIMJ 111820Z 11018KT 9999 BKN024 19/15 Q1004",
      "taf": "TAF LIMJ 111700Z 1118/1218 06008KT 9999 SCT020"
    },
    {
      "icao": "LIPE",
      "alert": "OK",
      "vis_m": 9999,
      "fzfg": false,
      "metar_trigger": false,
      "taf_trigger": false,
      "metar": "METAR LIPE 111820Z 23009KT CAVOK 21/09 Q1003",
      "taf": "TAF LIPE 111700Z 1118/1218 22012KT 9999 FEW060"
    },
    {
      "icao": "LIPH",
      "alert": "OK",
      "vis_m": 7000,
      "fzfg": false,
      "metar_trigger": false,
      "taf_trigger": false,
      "metar": "METAR LIPH 111820Z 18006KT 7000 TSRA SCT020CB BKN050 14/13 Q1003",
      "taf": "TAF LIPH 111700Z 1118/1218 VRB05KT 9999 SCT020 BKN060"
    },
    {
      "icao": "LIPQ",
      "alert": "OK",
      "vis_m": 6000,
      "fzfg": false,
      "metar_trigger": false,
      "taf_trigger": false,
      "metar": "METAR LIPQ 111820Z AUTO 05011KT 6000 +TSRA BKN039/// OVC072/// 13/12 Q1001",
      "taf": "TAF LIPQ 111700Z 1118/1218 VRB05KT 9999 BKN060"
    },
    {
      "icao": "LIPR",
      "alert": "OK",
      "vis_m": 9999,
      "fzfg": false,
      "metar_trigger": false,
      "taf_trigger": false,
      "metar": "METAR LIPR 111820Z 21013G23KT CAVOK 21/11 Q1004",
      "taf": "TAF LIPR 111700Z 1118/1218 20015KT 9999 FEW050"
    },
    {
      "icao": "LIPX",
      "alert": "OK",
      "vis_m": 9999,
      "fzfg": false,
      "metar_trigger": false,
      "taf_trigger": false,
      "metar": "METAR LIPX 111820Z 23003KT 9999 BKN080 15/11 Q1003",
      "taf": "TAF LIPX 111700Z 1118/1218 28008KT 9999 SCT040"
    },
    {
      "icao": "LIPY",
      "alert": "OK",
      "vis_m": 9999,
      "fzfg": false,
      "metar_trigger": false,
      "taf_trigger": false,
      "metar": "METAR LIPY 111820Z AUTO 24011KT 9999 FEW088/// 21/12 Q1005",
      "taf": "TAF LIPY 111700Z 1118/1218 24014KT 9999 FEW070"
    },
    {
      "icao": "LIPZ",
      "alert": "OK",
      "vis_m": 9999,
      "fzfg": false,
      "metar_trigger": false,
      "taf_trigger": false,
      "metar": "METAR LIPZ 111820Z 31010KT 9999 SCT035CB BKN065 13/12 Q1003 RETSRA NOSIG",
      "taf": "TAF LIPZ 111700Z 1118/1224 20010KT 9999 SCT020 BKN040"
    },
    {
      "icao": "LIRF",
      "alert": "OK",
      "vis_m": 9999,
      "fzfg": false,
      "metar_trigger": false,
      "taf_trigger": false,
      "metar": "METAR LIRF 111820Z 17009KT 9999 SCT010 19/17 Q1010 NOSIG",
      "taf": "TAF LIRF 111700Z 1118/1224 19012KT CAVOK"
    },
    {
      "icao": "LIRN",
      "alert": "OK",
      "vis_m": 9999,
      "fzfg": false,
      "metar_trigger": false,
      "taf_trigger": false,
      "metar": "METAR LIRN 111820Z 20011KT 9999 FEW010 SCT050 19/16 Q1013 NOSIG",
      "taf": "TAF LIRN 111700Z 1118/1218 19010KT 9999 FEW040"
    },
    {
      "icao": "LIRP",
      "alert": "OK",
      "vis_m": 9999,
      "fzfg": false,
      "metar_trigger": false,
      "taf_trigger": false,
      "metar": "METAR LIRP 111815Z 24014KT 9999 FEW030 18/13 Q1008 NOSIG",
      "taf": "TAF LIRP 111700Z 1118/1218 24015KT 9999 SCT020"
    },
    {
      "icao": "LIRZ",
      "alert": "OK",
      "vis_m": 9999,
      "fzfg": false,
      "metar_trigger": false,
      "taf_trigger": false,
      "metar": "METAR LIRZ 111820Z AUTO 23016KT 9999 BKN043/// 19/11 Q1009",
      "taf": "TAF LIRZ 111700Z 1118/1218 21016KT 9999 BKN040"
    },
    {
      "icao": "LJLJ",
      "alert": "OK",
      "vis_m": 9999,
      "fzfg": false,
      "metar_trigger": false,
      "taf_trigger": false,
      "metar": "METAR LJLJ 111800Z 24006KT 9999 VCSH FEW030TCU BKN040 BKN050 13/12 Q1004 BECMG SHRA",
      "taf": "TAF LJLJ 111700Z 1118/1218 30003KT 9999 SCT030 BKN040"
    },
    {
      "icao": "LKMT",
      "alert": "OK",
      "vis_m": 9999,
      "fzfg": false,
      "metar_trigger": false,
      "taf_trigger": false,
      "metar": "METAR LKMT 111800Z 28005KT CAVOK 15/12 Q0998 NOSIG",
      "taf": "TAF LKMT 111700Z 1118/1218 23008KT CAVOK"
    },
    {
      "icao": "LKPR",
      "alert": "OK",
      "vis_m": 9999,
      "fzfg": false,
      "metar_trigger": false,
      "taf_trigger": false,
      "metar": "METAR LKPR 111800Z 26012KT 9999 SCT022 13/10 Q0999 NOSIG",
      "taf": "TAF LKPR 111700Z 1118/1224 26012KT 9999 BKN035"
    },
    {
      "icao": "LLBG",
      "alert": "OK",
      "vis_m": 9999,
      "fzfg": false,
      "metar_trigger": false,
      "taf_trigger": false,
      "metar": "METAR LLBG 111820Z VRB03KT CAVOK 22/10 Q1015 NOSIG",
      "taf": "TAF LLBG 111707Z 1118/1218 VRB04KT CAVOK TX34/1212Z TN16/1203Z"
    },
    {
      "icao": "LMML",
      "alert": "OK",
      "vis_m": 9999,
      "fzfg": false,
      "metar_trigger": false,
      "taf_trigger": false,
      "metar": "METAR LMML 111815Z 23009KT 9999 FEW011 19/16 Q1015 NOSIG",
      "taf": "TAF LMML 111700Z 1118/1218 22008KT 9999 FEW011"
    },
    {
      "icao": "LOWW",
      "alert": "OK",
      "vis_m": 9999,
      "fzfg": false,
      "metar_trigger": false,
      "taf_trigger": false,
      "metar": "METAR LOWW 111820Z 28019KT 9999 SHRA FEW018 SCT030TCU 14/11 Q1000 TEMPO 29022G32KT -SHRA",
      "taf": "TAF LOWW 111715Z 1118/1224 29015G25KT 9999 FEW040 TX18/1118Z TN07/1224Z"
    },
    {
      "icao": "LPFR",
      "alert": "OK",
      "vis_m": 9999,
      "fzfg": false,
      "metar_trigger": false,
      "taf_trigger": false,
      "metar": "METAR LPFR 111800Z 23008KT 9999 FEW025 19/13 Q1015",
      "taf": "TAF LPFR 111700Z 1118/1218 24008KT 9999 SCT020"
    },
    {
      "icao": "LPMA",
      "alert": "OK",
      "vis_m": 9999,
      "fzfg": false,
      "metar_trigger": false,
      "taf_trigger": false,
      "metar": "METAR LPMA 111800Z 09003KT 350V150 9999 SCT016 18/12 Q1016",
      "taf": "TAF LPMA 111700Z 1118/1218 VRB05KT 9999 SCT015"
    },
    {
      "icao": "LPPR",
      "alert": "OK",
      "vis_m": 9999,
      "fzfg": false,
      "metar_trigger": false,
      "taf_trigger": false,
      "metar": "METAR LPPR 111800Z 19012KT 160V220 9999 BKN017 17/13 Q1013",
      "taf": "TAF LPPR 111700Z 1118/1218 20010KT 9999 SCT020"
    },
    {
      "icao": "LPPS",
      "alert": "OK",
      "vis_m": 9999,
      "fzfg": false,
      "metar_trigger": false,
      "taf_trigger": false,
      "metar": "METAR LPPS 111800Z 28011KT 9999 SCT015 18/12 Q1017",
      "taf": "TAF LPPS 111700Z 1118/1224 27010KT 9999 SCT015"
    },
    {
      "icao": "LPPT",
      "alert": "OK",
      "vis_m": 9999,
      "fzfg": false,
      "metar_trigger": false,
      "taf_trigger": false,
      "metar": "METAR LPPT 111800Z 23013KT 9999 VCSH SCT020 17/13 Q1014",
      "taf": "TAF LPPT 111700Z 1118/1224 22013KT 9999 SCT020"
    },
    {
      "icao": "LQBK",
      "alert": "OK",
      "vis_m": 9999,
      "fzfg": false,
      "metar_trigger": false,
      "taf_trigger": false,
      "metar": "METAR LQBK 111800Z 22014KT 9999 FEW035TCU SCT047 21/08 Q1004 TEMPO 5000 SHRA",
      "taf": "TAF LQBK 111700Z 1118/1218 23010KT 9999 SCT045 TX21/1210Z TN13/1204Z"
    },
    {
      "icao": "LQSA",
      "alert": "OK",
      "vis_m": 9999,
      "fzfg": false,
      "metar_trigger": false,
      "taf_trigger": false,
      "metar": "METAR LQSA 111800Z VRB03KT CAVOK 18/10 Q1007 NOSIG",
      "taf": "TAF LQSA 111700Z 1118/1218 22006KT 9999 SCT050 TX21/1213Z TN06/1204Z"
    },
    {
      "icao": "LQTZ",
      "alert": "OK",
      "vis_m": 9999,
      "fzfg": false,
      "metar_trigger": false,
      "taf_trigger": false,
      "metar": "METAR LQTZ 111800Z 23005KT 200V270 9999 FEW065 21/10 Q1005",
      "taf": "TAF LQTZ 111700Z 1118/1218 25008KT 9999 SCT060 TX21/1212Z TN11/1204Z"
    },
    {
      "icao": "LRBC",
      "alert": "OK",
      "vis_m": 9999,
      "fzfg": false,
      "metar_trigger": false,
      "taf_trigger": false,
      "metar": "METAR LRBC 111800Z 16011KT CAVOK 18/13 Q1006",
      "taf": "TAF LRBC 111700Z 1118/1203 17010KT CAVOK"
    },
    {
      "icao": "LRBS",
      "alert": "OK",
      "vis_m": 9999,
      "fzfg": false,
      "metar_trigger": false,
      "taf_trigger": false,
      "metar": "METAR LRBS 111800Z 10009KT 060V130 CAVOK 22/14 Q1006 NOSIG",
      "taf": "TAF LRBS 111700Z 1118/1218 VRB04KT CAVOK"
    },
    {
      "icao": "LRBV",
      "alert": "OK",
      "vis_m": 9999,
      "fzfg": false,
      "metar_trigger": false,
      "taf_trigger": false,
      "metar": "METAR LRBV 111800Z 21010KT 9999 FEW087 17/10 Q1007",
      "taf": "TAF LRBV 111700Z 1118/1203 21014KT CAVOK"
    },
    {
      "icao": "LRCL",
      "alert": "OK",
      "vis_m": 9999,
      "fzfg": false,
      "metar_trigger": false,
      "taf_trigger": false,
      "metar": "METAR LRCL 111800Z 18004KT 9999 SCT059 18/10 Q1004",
      "taf": "TAF LRCL 111700Z 1118/1203 16008KT CAVOK"
    },
    {
      "icao": "LRCV",
      "alert": "OK",
      "vis_m": 9999,
      "fzfg": false,
      "metar_trigger": false,
      "taf_trigger": false,
      "metar": "METAR LRCV 111800Z 10003KT CAVOK 19/17 Q1006",
      "taf": "TAF LRCV 111700Z 1118/1203 VRB04KT CAVOK"
    },
    {
      "icao": "LRIA",
      "alert": "OK",
      "vis_m": 9999,
      "fzfg": false,
      "metar_trigger": false,
      "taf_trigger": false,
      "metar": "METAR LRIA 111800Z 16006KT CAVOK 20/09 Q1006",
      "taf": "TAF LRIA 111700Z 1118/1203 18008KT CAVOK"
    },
    {
      "icao": "LROP",
      "alert": "OK",
      "vis_m": 9999,
      "fzfg": false,
      "metar_trigger": false,
      "taf_trigger": false,
      "metar": "METAR LROP 111800Z 12007KT CAVOK 21/14 Q1006 NOSIG",
      "taf": "TAF LROP 111700Z 1118/1218 VRB04KT CAVOK"
    },
    {
      "icao": "LRSB",
      "alert": "OK",
      "vis_m": 9999,
      "fzfg": false,
      "metar_trigger": false,
      "taf_trigger": false,
      "metar": "METAR LRSB 111800Z 20006KT 120V220 9999 FEW082 19/10 Q1005",
      "taf": "TAF LRSB 111700Z 1118/1218 VRB04KT 9999 SCT045"
    },
    {
      "icao": "LRSM",
      "alert": "OK",
      "vis_m": 9999,
      "fzfg": false,
      "metar_trigger": false,
      "taf_trigger": false,
      "metar": "METAR LRSM 111800Z AUTO 08005KT 9999 -SHRA FEW055/// BKN095/// BKN140/// 16/14 Q1003",
      "taf": "TAF LRSM 111400Z 1115/1124 15008KT CAVOK"
    },
    {
      "icao": "LRSV",
      "alert": "OK",
      "vis_m": 9999,
      "fzfg": false,
      "metar_trigger": false,
      "taf_trigger": false,
      "metar": "METAR LRSV 111800Z 17011KT CAVOK 18/12 Q1005",
      "taf": "TAF LRSV 111700Z 1118/1203 17012KT CAVOK"
    },
    {
      "icao": "LRTM",
      "alert": "OK",
      "vis_m": 9999,
      "fzfg": false,
      "metar_trigger": false,
      "taf_trigger": false,
      "metar": "METAR LRTM 111800Z 07007KT 9999 VCTS SCT036 FEW040CB 15/14 Q1005",
      "taf": "TAF LRTM 111700Z 1118/1203 VRB04KT CAVOK"
    },
    {
      "icao": "LRTR",
      "alert": "OK",
      "vis_m": 9999,
      "fzfg": false,
      "metar_trigger": false,
      "taf_trigger": false,
      "metar": "METAR LRTR 111800Z 24003KT 9999 FEW045 18/13 Q1004 NOSIG",
      "taf": "TAF LRTR 111700Z 1118/1218 23010KT CAVOK"
    },
    {
      "icao": "LTAC",
      "alert": "OK",
      "vis_m": 9999,
      "fzfg": false,
      "metar_trigger": false,
      "taf_trigger": false,
      "metar": "METAR LTAC 111820Z 01007KT 9999 FEW040 13/09 Q1015 NOSIG",
      "taf": "TAF LTAC 111640Z 1118/1218 03012KT 9999 SCT040 SCT100"
    },
    {
      "icao": "LTFM",
      "alert": "OK",
      "vis_m": 9999,
      "fzfg": false,
      "metar_trigger": false,
      "taf_trigger": false,
      "metar": "METAR LTFM 111820Z 19004KT CAVOK 19/13 Q1010 NOSIG",
      "taf": "TAF LTFM 111640Z 1118/1224 10007KT CAVOK"
    },
    {
      "icao": "LUKK",
      "alert": "OK",
      "vis_m": 9999,
      "fzfg": false,
      "metar_trigger": false,
      "taf_trigger": false,
      "metar": "METAR LUKK 111800Z 18008KT CAVOK 18/14 Q1008 NOSIG",
      "taf": "TAF LUKK 111714Z 1118/1218 17009KT 9999 SCT040"
    },
    {
      "icao": "LWOH",
      "alert": "OK",
      "vis_m": 9999,
      "fzfg": false,
      "metar_trigger": false,
      "taf_trigger": false,
      "metar": "METAR LWOH 111820Z 21005KT 160V290 9999 FEW035 18/08 Q1013",
      "taf": "TAF LWOH 111710Z 1118/1218 VRB02KT CAVOK"
    },
    {
      "icao": "LWSK",
      "alert": "OK",
      "vis_m": 9999,
      "fzfg": false,
      "metar_trigger": false,
      "taf_trigger": false,
      "metar": "METAR LWSK 111820Z 29002KT CAVOK 20/10 Q1007 NOSIG",
      "taf": "TAF LWSK 111710Z 1118/1218 VRB02KT CAVOK"
    },
    {
      "icao": "LYBE",
      "alert": "OK",
      "vis_m": 9999,
      "fzfg": false,
      "metar_trigger": false,
      "taf_trigger": false,
      "metar": "METAR LYBE 111800Z 32006KT 9999 FEW040TCU 16/15 Q1005 TEMPO 5000 SHRA SCT040TCU",
      "taf": "TAF LYBE 111700Z 1118/1218 18005KT CAVOK TX22/1213Z TN15/1203Z"
    },
    {
      "icao": "LYNI",
      "alert": "OK",
      "vis_m": 9999,
      "fzfg": false,
      "metar_trigger": false,
      "taf_trigger": false,
      "metar": "METAR LYNI 111800Z 16003KT 110V210 9999 FEW060 22/10 Q1006 NOSIG",
      "taf": "TAF LYNI 111700Z 1118/1218 22008KT CAVOK TX26/1214Z TN13/1203Z"
    },
    {
      "icao": "LYPG",
      "alert": "OK",
      "vis_m": 9999,
      "fzfg": false,
      "metar_trigger": false,
      "taf_trigger": false,
      "metar": "METAR LYPG 111800Z 12006KT 9999 FEW034 SCT050 21/14 Q1010 NOSIG",
      "taf": "TAF LYPG 111700Z 1118/1218 36005KT 9999 FEW040 SCT080 TX23/1213Z TN15/1204Z"
    },
    {
      "icao": "LZIB",
      "alert": "OK",
      "vis_m": 9999,
      "fzfg": false,
      "metar_trigger": false,
      "taf_trigger": false,
      "metar": "METAR LZIB 111800Z 27023KT 9999 FEW030 FEW040CB 17/09 Q0999 TEMPO 3000 TSRA SCT030CB",
      "taf": "TAF LZIB 111715Z 1118/1218 18009KT 9999 FEW020 SCT040"
    },
    {
      "icao": "LZKZ",
      "alert": "OK",
      "vis_m": 9999,
      "fzfg": false,
      "metar_trigger": false,
      "taf_trigger": false,
      "metar": "METAR LZKZ 111800Z 14004KT 9999 FEW040TCU SCT048 17/14 Q1002 BECMG TSRA FEW015 SCT030CB",
      "taf": "TAF LZKZ 111715Z 1118/1218 19009KT 9999 FEW035 BKN045"
    },
    {
      "icao": "LZTT",
      "alert": "OK",
      "vis_m": 9999,
      "fzfg": false,
      "metar_trigger": false,
      "taf_trigger": false,
      "metar": "METAR LZTT 111800Z 19004KT 170V230 9999 FEW023 SCT056 13/11 Q1002",
      "taf": "TAF LZTT 111715Z 1118/1218 24005KT 9999 FEW030 BKN045"
    },
    {
      "icao": "OEJN",
      "alert": "OK",
      "vis_m": 9999,
      "fzfg": false,
      "metar_trigger": false,
      "taf_trigger": false,
      "metar": "METAR OEJN 111800Z 34002KT CAVOK 31/15 Q1010 NOSIG",
      "taf": "TAF OEJN 111700Z 1118/1224 03006KT CAVOK"
    },
    {
      "icao": "OEMA",
      "alert": "OK",
      "vis_m": 9999,
      "fzfg": false,
      "metar_trigger": false,
      "taf_trigger": false,
      "metar": "METAR OEMA 111800Z 28010KT CAVOK 37/00 Q1014 NOSIG",
      "taf": "TAF OEMA 111700Z 1118/1224 VRB03KT CAVOK"
    },
    {
      "icao": "OJAI",
      "alert": "OK",
      "vis_m": 5000,
      "fzfg": false,
      "metar_trigger": false,
      "taf_trigger": false,
      "metar": "METAR OJAI 111800Z 28007KT 5000 HZ NSC 20/03 Q1017 NOSIG",
      "taf": "TAF OJAI 111651Z 1118/1224 VRB02KT 5000 HZ NSC"
    },
    {
      "icao": "OMAA",
      "alert": "OK",
      "vis_m": 9999,
      "fzfg": false,
      "metar_trigger": false,
      "taf_trigger": false,
      "metar": "METAR OMAA 111800Z 32005KT 280V040 CAVOK 28/21 Q1006 NOSIG",
      "taf": "TAF OMAA 111700Z 1118/1300 30006KT 8000 NSC"
    },
    {
      "icao": "OMDB",
      "alert": "OK",
      "vis_m": 9999,
      "fzfg": false,
      "metar_trigger": false,
      "taf_trigger": false,
      "metar": "METAR OMDB 111800Z 18004KT CAVOK 30/21 Q1006 NOSIG",
      "taf": "TAF OMDB 111700Z 1118/1300 17005KT 8000 NSC"
    },
    {
      "icao": "UAAA",
      "alert": "OK",
      "vis_m": 9999,
      "fzfg": false,
      "metar_trigger": false,
      "taf_trigger": false,
      "metar": "METAR UAAA 111800Z 22002MPS 190V260 9999 BKN050CB OVC100 14/11 Q1022 NOSIG",
      "taf": "TAF UAAA 111702Z 1118/1218 23003G08MPS 9999 BKN050CB OVC100 TX16/1206Z TN10/1202Z"
    },
    {
      "icao": "UBBB",
      "alert": "OK",
      "vis_m": 9999,
      "fzfg": false,
      "metar_trigger": false,
      "taf_trigger": false,
      "metar": "METAR UBBB 111800Z 17006KT CAVOK 18/14 Q1016 NOSIG",
      "taf": "TAF UBBB 111656Z 1118/1218 17006KT CAVOK TX26/1210Z TN14/1201Z"
    },
    {
      "icao": "UDSG",
      "alert": "OK",
      "vis_m": 9999,
      "fzfg": false,
      "metar_trigger": false,
      "taf_trigger": false,
      "metar": "METAR UDSG 111800Z 07008KT 9999 SCT049CB 14/06 Q1020 NOSIG",
      "taf": "TAF UDSG 111658Z 1118/1218 24006KT 9999 BKN040"
    },
    {
      "icao": "UDYZ",
      "alert": "OK",
      "vis_m": 9999,
      "fzfg": false,
      "metar_trigger": false,
      "taf_trigger": false,
      "metar": "METAR UDYZ 111800Z 04006KT 9999 FEW043CB 18/08 Q1015 NOSIG",
      "taf": "TAF UDYZ 111700Z 1118/1218 03006KT 9999 FEW040"
    },
    {
      "icao": "UGKO",
      "alert": "OK",
      "vis_m": 9999,
      "fzfg": false,
      "metar_trigger": false,
      "taf_trigger": false,
      "metar": "METAR UGKO 111800Z 24012KT CAVOK 19/14 Q1013 NOSIG",
      "taf": "TAF UGKO 111700Z 1118/1218 08010KT CAVOK TX26/1211Z TN12/1202Z"
    }
  ]
}