{
  "ts_utc": "2026-01-22T15:17:00Z",
  "threshold_m": 150,
  "source": "stations_override.txt (ICAO list) + aviationweather.gov (METAR/TAF raw)",
  "station_count": 159,
  "stations": [
    {
      "icao": "BIKF",
      "alert": "OK",
      "vis_m": 9999,
      "fzfg": false,
      "metar_trigger": false,
      "taf_trigger": false,
      "metar": "METAR BIKF 221500Z 08017KT 9999 -RA OVC029 06/04 Q0984",
      "taf": "TAF BIKF 221331Z 2215/2315 07020KT 9999 SCT020 BKN030 TX08/2216Z TN04/2312Z"
    },
    {
      "icao": "BKPR",
      "alert": "OK",
      "vis_m": 9999,
      "fzfg": false,
      "metar_trigger": false,
      "taf_trigger": false,
      "metar": "METAR BKPR 221500Z 18003KT 9999 FEW040 05/01 Q1001 NOSIG",
      "taf": "TAF BKPR 221130Z 2212/2312 VRB03KT 9999 BKN040"
    },
    {
      "icao": "EBCI",
      "alert": "OK",
      "vis_m": 9999,
      "fzfg": false,
      "metar_trigger": false,
      "taf_trigger": false,
      "metar": "METAR EBCI 221450Z 16008KT 9999 BKN020 07/03 Q0993 NOSIG",
      "taf": "TAF EBCI 221120Z 2212/2318 17010KT CAVOK"
    },
    {
      "icao": "EDDB",
      "alert": "OK",
      "vis_m": 9999,
      "fzfg": false,
      "metar_trigger": false,
      "taf_trigger": false,
      "metar": "METAR EDDB 221450Z AUTO 09007KT CAVOK M01/M06 Q1002 NOSIG",
      "taf": "TAF EDDB 221100Z 2212/2312 08008KT CAVOK"
    },
    {
      "icao": "EDDH",
      "alert": "OK",
      "vis_m": 9999,
      "fzfg": false,
      "metar_trigger": false,
      "taf_trigger": false,
      "metar": "METAR EDDH 221450Z AUTO 07012KT CAVOK M00/M05 Q1002 NOSIG",
      "taf": "TAF EDDH 221100Z 2212/2318 08010KT 9999 FEW025"
    },
    {
      "icao": "EDDK",
      "alert": "OK",
      "vis_m": 9999,
      "fzfg": false,
      "metar_trigger": false,
      "taf_trigger": false,
      "metar": "METAR EDDK 221450Z AUTO 13012KT CAVOK 06/M03 Q0996 NOSIG",
      "taf": "TAF EDDK 221100Z 2212/2318 12008KT CAVOK"
    },
    {
      "icao": "EDDN",
      "alert": "OK",
      "vis_m": 9999,
      "fzfg": false,
      "metar_trigger": false,
      "taf_trigger": false,
      "metar": "METAR EDDN 221450Z AUTO 17007KT 9999 FEW017 M04/M09 Q1000 NOSIG",
      "taf": ""
    },
    {
      "icao": "EDDS",
      "alert": "OK",
      "vis_m": 9999,
      "fzfg": false,
      "metar_trigger": false,
      "taf_trigger": false,
      "metar": "METAR EDDS 221450Z AUTO VRB02KT CAVOK 03/M02 Q0997 NOSIG",
      "taf": "TAF EDDS 221100Z 2212/2312 VRB02KT CAVOK"
    },
    {
      "icao": "EDFH",
      "alert": "OK",
      "vis_m": 9000,
      "fzfg": false,
      "metar_trigger": false,
      "taf_trigger": false,
      "metar": "METAR EDFH 221450Z 14008KT 9000 BKN016 M00/M01 Q0995",
      "taf": "TAF EDFH 221100Z 2212/2312 14014KT CAVOK"
    },
    {
      "icao": "EDJA",
      "alert": "OK",
      "vis_m": 300,
      "fzfg": true,
      "metar_trigger": false,
      "taf_trigger": false,
      "metar": "METAR EDJA 221450Z 00000KT 0300 R06/0600N FZFG VV/// M03/M03 Q0997",
      "taf": "TAF EDJA 221400Z 2215/2224 VRB03KT 0500 FZFG VV002"
    },
    {
      "icao": "EDLW",
      "alert": "OK",
      "vis_m": 9999,
      "fzfg": false,
      "metar_trigger": false,
      "taf_trigger": false,
      "metar": "METAR EDLW 221450Z 04006KT CAVOK 05/M04 Q0996",
      "taf": "TAF EDLW 221100Z 2212/2312 VRB03KT CAVOK"
    },
    {
      "icao": "EDNY",
      "alert": "OK",
      "vis_m": 5000,
      "fzfg": false,
      "metar_trigger": false,
      "taf_trigger": false,
      "metar": "METAR EDNY 221450Z VRB03KT 5000 BR OVC005 M00/M00 Q0998",
      "taf": "TAF EDNY 221400Z 2215/2224 VRB02KT 4000 BR OVC003"
    },
    {
      "icao": "EDSB",
      "alert": "OK",
      "vis_m": 5000,
      "fzfg": false,
      "metar_trigger": false,
      "taf_trigger": false,
      "metar": "METAR EDSB 221450Z VRB02KT 5000 BR OVC004 M01/M01 Q0999",
      "taf": "TAF EDSB 221100Z 2212/2312 VRB02KT 3000 BR OVC005"
    },
    {
      "icao": "EETN",
      "alert": "OK",
      "vis_m": 9999,
      "fzfg": false,
      "metar_trigger": false,
      "taf_trigger": false,
      "metar": "METAR EETN 221450Z 08012KT 9999 -SN OVC021 M07/M10 Q1024 NOSIG",
      "taf": "TAF EETN 221130Z 2212/2312 10012KT 9999 OVC015"
    },
    {
      "icao": "EFTU",
      "alert": "OK",
      "vis_m": 9999,
      "fzfg": false,
      "metar_trigger": false,
      "taf_trigger": false,
      "metar": "METAR EFTU 221450Z AUTO 10011KT 9999 OVC017 M06/M09 Q1025",
      "taf": "TAF EFTU 221433Z 2215/2315 09010KT 9999 OVC017"
    },
    {
      "icao": "EGBB",
      "alert": "OK",
      "vis_m": 6000,
      "fzfg": false,
      "metar_trigger": false,
      "taf_trigger": false,
      "metar": "METAR EGBB 221450Z 11010KT 6000 -RA BKN006 08/07 Q0986",
      "taf": ""
    },
    {
      "icao": "EGGP",
      "alert": "OK",
      "vis_m": 9999,
      "fzfg": false,
      "metar_trigger": false,
      "taf_trigger": false,
      "metar": "METAR EGGP 221450Z 11013KT 9999 OVC009 08/06 Q0985",
      "taf": "TAF EGGP 221054Z 2212/2312 12012KT 9999 BKN020"
    },
    {
      "icao": "EGGW",
      "alert": "OK",
      "vis_m": 5000,
      "fzfg": false,
      "metar_trigger": false,
      "taf_trigger": false,
      "metar": "METAR EGGW 221450Z AUTO 11010KT 5000 BR OVC004 07/07 Q0986",
      "taf": ""
    },
    {
      "icao": "EGKK",
      "alert": "OK",
      "vis_m": 6000,
      "fzfg": false,
      "metar_trigger": false,
      "taf_trigger": false,
      "metar": "METAR EGKK 221450Z 10009KT 6000 -RA BKN008 BKN015 09/08 Q0986",
      "taf": ""
    },
    {
      "icao": "EGNM",
      "alert": "OK",
      "vis_m": 2100,
      "fzfg": false,
      "metar_trigger": false,
      "taf_trigger": false,
      "metar": "METAR EGNM 221450Z 09013KT 2100 -RA BR SCT002 OVC003 04/04 Q0988",
      "taf": "TAF EGNM 221100Z 2212/2312 12012KT 6000 BKN008"
    },
    {
      "icao": "EGPD",
      "alert": "OK",
      "vis_m": 7000,
      "fzfg": false,
      "metar_trigger": false,
      "taf_trigger": false,
      "metar": "METAR EGPD 221450Z 12018G28KT 7000 BKN015 06/02 Q0997 TEMPO BKN012",
      "taf": "TAF EGPD 221054Z 2212/2312 13020G35KT 9999 BKN016"
    },
    {
      "icao": "EGPF",
      "alert": "OK",
      "vis_m": 7000,
      "fzfg": false,
      "metar_trigger": false,
      "taf_trigger": false,
      "metar": "METAR EGPF 221450Z AUTO 07015KT 7000 -RA OVC014/// //////TCU 07/05 Q0989",
      "taf": "TAF EGPF 221057Z 2212/2312 08011KT 9999 FEW012 BKN025"
    },
    {
      "icao": "EHBK",
      "alert": "OK",
      "vis_m": 9999,
      "fzfg": false,
      "metar_trigger": false,
      "taf_trigger": false,
      "metar": "METAR EHBK 221455Z AUTO 12004KT 9999 SCT031 SCT039 07/02 Q0994 NOSIG",
      "taf": "TAF EHBK 221119Z 2212/2318 15007KT CAVOK"
    },
    {
      "icao": "EHEH",
      "alert": "OK",
      "vis_m": 9999,
      "fzfg": false,
      "metar_trigger": false,
      "taf_trigger": false,
      "metar": "METAR EHEH 221455Z AUTO 11006KT 030V180 9999 BKN170 BKN230 06/M01 Q0994 BLU NOSIG",
      "taf": ""
    },
    {
      "icao": "EKBI",
      "alert": "OK",
      "vis_m": 9999,
      "fzfg": false,
      "metar_trigger": false,
      "taf_trigger": false,
      "metar": "METAR EKBI 221451Z 07016KT 9999 FEW019 BKN025 M01/M04 Q1006",
      "taf": "TAF EKBI 221427Z 2215/2315 08015KT 9999 -SG OVC020"
    },
    {
      "icao": "EKCH",
      "alert": "OK",
      "vis_m": 9999,
      "fzfg": false,
      "metar_trigger": false,
      "taf_trigger": false,
      "metar": "METAR EKCH 221450Z AUTO 07015KT 9999 OVC020/// 00/M03 Q1008 NOSIG",
      "taf": "TAF EKCH 221427Z 2215/2315 07018KT 9999 BKN020"
    },
    {
      "icao": "ENAL",
      "alert": "OK",
      "vis_m": 9999,
      "fzfg": false,
      "metar_trigger": false,
      "taf_trigger": false,
      "metar": "METAR ENAL 221450Z 12012KT CAVOK 05/M09 Q1012",
      "taf": "TAF ENAL 221400Z 2215/2224 13008KT CAVOK"
    },
    {
      "icao": "ENBR",
      "alert": "OK",
      "vis_m": 9999,
      "fzfg": false,
      "metar_trigger": false,
      "taf_trigger": false,
      "metar": "METAR ENBR 221450Z 08003KT 040V110 CAVOK 03/M09 Q1010 NOSIG RMK WIND 1200FT 10004KT",
      "taf": "TAF ENBR 221100Z 2212/2312 07005KT CAVOK"
    },
    {
      "icao": "ENGM",
      "alert": "OK",
      "vis_m": 9999,
      "fzfg": false,
      "metar_trigger": false,
      "taf_trigger": false,
      "metar": "METAR ENGM 221450Z 08007KT 9999 FEW018 BKN020 M03/M07 Q1019 NOSIG",
      "taf": "TAF ENGM 221100Z 2212/2312 02008KT 9999 OVC020"
    },
    {
      "icao": "ENHD",
      "alert": "OK",
      "vis_m": 9999,
      "fzfg": false,
      "metar_trigger": false,
      "taf_trigger": false,
      "metar": "METAR ENHD 221450Z 09009KT 060V120 CAVOK 03/M09 Q1010",
      "taf": "TAF ENHD 221400Z 2215/2223 10012KT CAVOK"
    },
    {
      "icao": "ENTC",
      "alert": "OK",
      "vis_m": 9999,
      "fzfg": false,
      "metar_trigger": false,
      "taf_trigger": false,
      "metar": "METAR ENTC 221450Z VRB02KT 9999 FEW005 M08/M10 Q1024 NOSIG RMK WIND 2600FT 20004KT",
      "taf": "TAF ENTC 221100Z 2212/2312 VRB02KT 9999 FEW001"
    },
    {
      "icao": "ENTO",
      "alert": "OK",
      "vis_m": 9999,
      "fzfg": false,
      "metar_trigger": false,
      "taf_trigger": false,
      "metar": "METAR ENTO 221450Z 04010KT 360V070 9999 OVC025 M01/M05 Q1017 NOSIG",
      "taf": "TAF ENTO 221100Z 2212/2312 04012KT 9999 OVC020"
    },
    {
      "icao": "ENVA",
      "alert": "OK",
      "vis_m": 9999,
      "fzfg": false,
      "metar_trigger": false,
      "taf_trigger": false,
      "metar": "METAR ENVA 221450Z 11010KT 060V140 CAVOK M02/M09 Q1020 TEMPO 14015G25KT RMK WIND 670FT 14017G29KT",
      "taf": "TAF ENVA 221100Z 2212/2312 11010KT CAVOK"
    },
    {
      "icao": "ENZV",
      "alert": "OK",
      "vis_m": 9999,
      "fzfg": false,
      "metar_trigger": false,
      "taf_trigger": false,
      "metar": "METAR ENZV 221450Z 10014KT CAVOK 02/M08 Q1010 NOSIG",
      "taf": "TAF ENZV 221100Z 2212/2312 09008KT CAVOK"
    },
    {
      "icao": "EPGD",
      "alert": "OK",
      "vis_m": 7000,
      "fzfg": false,
      "metar_trigger": false,
      "taf_trigger": false,
      "metar": "METAR EPGD 221500Z 08007KT 7000 NSC M06/M08 Q1008",
      "taf": "TAF EPGD 221130Z 2212/2312 11007KT 4500 BR NSC"
    },
    {
      "icao": "EPKK",
      "alert": "OK",
      "vis_m": 5000,
      "fzfg": false,
      "metar_trigger": false,
      "taf_trigger": false,
      "metar": "METAR EPKK 221500Z 06002KT 5000 HZ BKN066 M03/M08 Q1003",
      "taf": "TAF EPKK 221430Z 2215/2315 07004KT 5000 HZ NSC"
    },
    {
      "icao": "EPKT",
      "alert": "OK",
      "vis_m": 7000,
      "fzfg": false,
      "metar_trigger": false,
      "taf_trigger": false,
      "metar": "METAR EPKT 221500Z 11005KT 7000 NSC M00/M09 Q1002",
      "taf": "TAF EPKT 221130Z 2212/2312 10004KT 7000 NSC"
    },
    {
      "icao": "EPLB",
      "alert": "OK",
      "vis_m": 4500,
      "fzfg": false,
      "metar_trigger": false,
      "taf_trigger": false,
      "metar": "METAR EPLB 221500Z 08012KT 4500 BR OVC003 M13/M14 Q1007",
      "taf": "TAF EPLB 221130Z 2212/2312 08008KT 4000 HZ NSC"
    },
    {
      "icao": "EPMO",
      "alert": "OK",
      "vis_m": 8000,
      "fzfg": false,
      "metar_trigger": false,
      "taf_trigger": false,
      "metar": "METAR EPMO 221500Z 07015KT 8000 NSC M07/M11 Q1007",
      "taf": "TAF EPMO 221130Z 2212/2312 08012KT 6000 NSC"
    },
    {
      "icao": "EPPO",
      "alert": "OK",
      "vis_m": 9999,
      "fzfg": false,
      "metar_trigger": false,
      "taf_trigger": false,
      "metar": "METAR EPPO 221500Z 07008KT CAVOK M01/M07 Q1003",
      "taf": "TAF EPPO 221130Z 2212/2312 10006KT CAVOK"
    },
    {
      "icao": "EPRA",
      "alert": "OK",
      "vis_m": 8000,
      "fzfg": false,
      "metar_trigger": false,
      "taf_trigger": false,
      "metar": "METAR EPRA 221500Z 07011KT 8000 NSC M10/M14 Q1005",
      "taf": "TAF EPRA 221430Z 2215/2224 09007KT 8000 NSC"
    },
    {
      "icao": "EPRZ",
      "alert": "OK",
      "vis_m": 5000,
      "fzfg": false,
      "metar_trigger": false,
      "taf_trigger": false,
      "metar": "METAR EPRZ 221500Z 07012KT 5000 BR NSC M09/M13 Q1004",
      "taf": "TAF EPRZ 221130Z 2212/2312 09009KT 4000 BR HZ NSC"
    },
    {
      "icao": "EPSC",
      "alert": "OK",
      "vis_m": 8000,
      "fzfg": false,
      "metar_trigger": false,
      "taf_trigger": false,
      "metar": "METAR EPSC 221500Z VRB02KT 8000 NSC M01/M06 Q1004",
      "taf": "TAF EPSC 221130Z 2212/2312 09006KT 7000 NSC"
    },
    {
      "icao": "EPSY",
      "alert": "OK",
      "vis_m": 6000,
      "fzfg": false,
      "metar_trigger": false,
      "taf_trigger": false,
      "metar": "METAR EPSY 221500Z 08006KT 020V120 6000 NSC M11/M13 Q1009",
      "taf": "TAF EPSY 221430Z 2215/2224 09008KT 7000 NSC"
    },
    {
      "icao": "EPWA",
      "alert": "OK",
      "vis_m": 9999,
      "fzfg": false,
      "metar_trigger": false,
      "taf_trigger": false,
      "metar": "METAR EPWA 221500Z 08010KT CAVOK M05/M10 Q1007 NOSIG",
      "taf": "TAF EPWA 221430Z 2215/2315 08010KT 9000 NSC"
    },
    {
      "icao": "EPWR",
      "alert": "OK",
      "vis_m": 9999,
      "fzfg": false,
      "metar_trigger": false,
      "taf_trigger": false,
      "metar": "METAR EPWR 221500Z 15004KT CAVOK 01/M06 Q1002",
      "taf": "TAF EPWR 221430Z 2215/2315 12007KT CAVOK"
    },
    {
      "icao": "ESGG",
      "alert": "OK",
      "vis_m": 9999,
      "fzfg": false,
      "metar_trigger": false,
      "taf_trigger": false,
      "metar": "METAR ESGG 221450Z 07016KT 9999 BKN019 M00/M05 Q1011",
      "taf": "TAF ESGG 221430Z 2215/2315 07014G24KT 9999 BKN020"
    },
    {
      "icao": "ESKN",
      "alert": "OK",
      "vis_m": 6000,
      "fzfg": false,
      "metar_trigger": false,
      "taf_trigger": false,
      "metar": "METAR ESKN 221450Z 06009KT 6000 -FZDZ SCT007 BKN009 M03/M03 Q1019",
      "taf": "TAF ESKN 221430Z 2215/2315 07012KT 9000 -SN SCT012 OVC020"
    },
    {
      "icao": "ESMS",
      "alert": "OK",
      "vis_m": 8000,
      "fzfg": false,
      "metar_trigger": false,
      "taf_trigger": false,
      "metar": "METAR ESMS 221450Z 08019KT 8000 BKN018 OVC025 M00/M04 Q1007",
      "taf": "TAF ESMS 221427Z 2215/2315 07015KT 9000 BKN020"
    },
    {
      "icao": "ESSA",
      "alert": "OK",
      "vis_m": 9999,
      "fzfg": false,
      "metar_trigger": false,
      "taf_trigger": false,
      "metar": "METAR ESSA 221450Z 08012KT 9999 BKN013 M03/M06 Q1021 NOSIG",
      "taf": "TAF ESSA 221430Z 2215/2315 08014KT 9999 SCT008 OVC015"
    },
    {
      "icao": "EYKA",
      "alert": "OK",
      "vis_m": 9999,
      "fzfg": false,
      "metar_trigger": false,
      "taf_trigger": false,
      "metar": "METAR EYKA 221450Z 09011KT 9999 OVC012 M07/M10 Q1015",
      "taf": "TAF EYKA 221100Z 2212/2312 09012KT 8000 OVC015"
    },
    {
      "icao": "EYPA",
      "alert": "OK",
      "vis_m": 9999,
      "fzfg": false,
      "metar_trigger": false,
      "taf_trigger": false,
      "metar": "METAR EYPA 221450Z 09013KT 9999 OVC013 M05/M09 Q1014",
      "taf": "TAF EYPA 221100Z 2212/2312 10012KT 9000 OVC015"
    },
    {
      "icao": "EYVI",
      "alert": "OK",
      "vis_m": 9999,
      "fzfg": false,
      "metar_trigger": false,
      "taf_trigger": false,
      "metar": "METAR EYVI 221450Z 09010KT 9999 -SN OVC008 M09/M10 Q1015 NOSIG",
      "taf": "TAF EYVI 221100Z 2212/2312 08010KT 8000 BKN010"
    },
    {
      "icao": "GCFV",
      "alert": "OK",
      "vis_m": 9999,
      "fzfg": false,
      "metar_trigger": false,
      "taf_trigger": false,
      "metar": "METAR GCFV 221500Z 28011KT 250V340 9999 SCT020 BKN030 21/16 Q1018",
      "taf": "TAF GCFV 221400Z 2215/2315 31008KT 9999 SCT025 TX22/2314Z TN16/2306Z"
    },
    {
      "icao": "GCLP",
      "alert": "OK",
      "vis_m": 9999,
      "fzfg": false,
      "metar_trigger": false,
      "taf_trigger": false,
      "metar": "METAR GCLP 221500Z VRB08KT 9999 FEW022 BKN035 21/15 Q1019 NOSIG",
      "taf": "TAF GCLP 221400Z 2215/2315 36010KT 9999 FEW025 TX23/2314Z TN15/2306Z"
    },
    {
      "icao": "GCTS",
      "alert": "OK",
      "vis_m": 9999,
      "fzfg": false,
      "metar_trigger": false,
      "taf_trigger": false,
      "metar": "METAR GCTS 221500Z 19006KT 100V270 9999 FEW025 21/14 Q1020 NOSIG",
      "taf": "TAF GCTS 221400Z 2215/2315 16008KT 9999 SCT025 TX23/2314Z TN15/2306Z"
    },
    {
      "icao": "GMAD",
      "alert": "OK",
      "vis_m": 8000,
      "fzfg": false,
      "metar_trigger": false,
      "taf_trigger": false,
      "metar": "METAR GMAD 221500Z 05006KT 8000 BKN010 15/15 Q1016 NOSIG",
      "taf": "TAF GMAD 221100Z 2212/2318 24006KT 6000 SCT010 BKN026"
    },
    {
      "icao": "GMMN",
      "alert": "OK",
      "vis_m": 8000,
      "fzfg": false,
      "metar_trigger": false,
      "taf_trigger": false,
      "metar": "METAR GMMN 221500Z 28011KT 8000 BKN020 17/13 Q1014 NOSIG",
      "taf": "TAF GMMN 221100Z 2212/2318 22012KT 9999 SCT012 BKN018"
    },
    {
      "icao": "GMMX",
      "alert": "OK",
      "vis_m": 9999,
      "fzfg": false,
      "metar_trigger": false,
      "taf_trigger": false,
      "metar": "METAR GMMX 221500Z 28010KT 9999 SCT010 BKN020 17/14 Q1015 NOSIG",
      "taf": "TAF GMMX 221100Z 2212/2318 24014KT 8000 SCT020 SCT080"
    },
    {
      "icao": "HEGN",
      "alert": "OK",
      "vis_m": 9999,
      "fzfg": false,
      "metar_trigger": false,
      "taf_trigger": false,
      "metar": "METAR HEGN 221500Z 13006KT CAVOK 23/18 Q1011 NOSIG",
      "taf": "TAF HEGN 221100Z 2212/2318 12012KT CAVOK"
    },
    {
      "icao": "HEMA",
      "alert": "OK",
      "vis_m": 9999,
      "fzfg": false,
      "metar_trigger": false,
      "taf_trigger": false,
      "metar": "METAR HEMA 221500Z 12010KT CAVOK 24/17 Q1010 NOSIG",
      "taf": "TAF HEMA 221100Z 2212/2318 13014KT CAVOK"
    },
    {
      "icao": "HESH",
      "alert": "OK",
      "vis_m": 9999,
      "fzfg": false,
      "metar_trigger": false,
      "taf_trigger": false,
      "metar": "METAR HESH 221500Z 01003KT CAVOK 23/12 Q1012 NOSIG",
      "taf": "TAF HESH 221100Z 2212/2318 15012KT CAVOK"
    },
    {
      "icao": "HESX",
      "alert": "OK",
      "vis_m": 9999,
      "fzfg": false,
      "metar_trigger": false,
      "taf_trigger": false,
      "metar": "METAR HESX 221500Z 16007KT CAVOK 21/01 Q1009 NOSIG",
      "taf": "TAF HESX 221100Z 2212/2318 25008KT 6000 SCT020 OVC070"
    },
    {
      "icao": "LATI",
      "alert": "OK",
      "vis_m": 9999,
      "fzfg": false,
      "metar_trigger": false,
      "taf_trigger": false,
      "metar": "METAR LATI 221450Z VRB03KT 9999 SCT050 BKN070 12/06 Q1000 NOSIG",
      "taf": "TAF LATI 221100Z 2212/2312 VRB05KT 9999 -RA SCT035 BKN070 TX15/2312Z TN07/2304Z"
    },
    {
      "icao": "LBPD",
      "alert": "OK",
      "vis_m": 9999,
      "fzfg": false,
      "metar_trigger": false,
      "taf_trigger": false,
      "metar": "METAR LBPD 221500Z AUTO 31003KT 9999 BKN057/// 03/01 Q1004 NOSIG",
      "taf": "TAF LBPD 221100Z 2212/2312 VRB04KT 5000 BR OVC015"
    },
    {
      "icao": "LBSF",
      "alert": "OK",
      "vis_m": 9999,
      "fzfg": false,
      "metar_trigger": false,
      "taf_trigger": false,
      "metar": "METAR LBSF 221500Z 11003KT 080V150 9999 BKN019 BKN026 03/M01 Q1002 NOSIG",
      "taf": "TAF LBSF 221100Z 2212/2312 12006KT 9999 SCT020 BKN030 OVC040"
    },
    {
      "icao": "LBWN",
      "alert": "OK",
      "vis_m": 8000,
      "fzfg": false,
      "metar_trigger": false,
      "taf_trigger": false,
      "metar": "METAR LBWN 221500Z 26003KT 8000 SCT019 BKN033 06/06 Q1004 NOSIG",
      "taf": "TAF LBWN 221100Z 2212/2312 11010KT 7000 BKN020 OVC040"
    },
    {
      "icao": "LCLK",
      "alert": "OK",
      "vis_m": 9999,
      "fzfg": false,
      "metar_trigger": false,
      "taf_trigger": false,
      "metar": "METAR LCLK 221500Z 05021KT 9999 -RA BKN018 13/10 Q1013 NOSIG",
      "taf": "TAF LCLK 221130Z 2212/2312 04020KT 9999 SCT025"
    },
    {
      "icao": "LCPH",
      "alert": "OK",
      "vis_m": 9999,
      "fzfg": false,
      "metar_trigger": false,
      "taf_trigger": false,
      "metar": "METAR LCPH 221500Z 14008KT 090V170 9999 FEW030 15/05 Q1010 NOSIG",
      "taf": "TAF LCPH 221130Z 2212/2312 13020KT 9999 SCT025"
    },
    {
      "icao": "LEAL",
      "alert": "OK",
      "vis_m": 9999,
      "fzfg": false,
      "metar_trigger": false,
      "taf_trigger": false,
      "metar": "METAR LEAL 221500Z 30014KT CAVOK 16/03 Q1003 NOSIG",
      "taf": "TAF LEAL 221100Z 2212/2312 29015KT 9999 SCT040 TX17/2213Z TN09/2306Z"
    },
    {
      "icao": "LEBB",
      "alert": "OK",
      "vis_m": 9999,
      "fzfg": false,
      "metar_trigger": false,
      "taf_trigger": false,
      "metar": "METAR LEBB 221500Z 22008KT 130V280 9999 FEW040 14/04 Q1000 NOSIG",
      "taf": "TAF LEBB 221100Z 2212/2312 22009KT 9999 FEW040 TX14/2215Z TN07/2306Z"
    },
    {
      "icao": "LEBL",
      "alert": "OK",
      "vis_m": 9999,
      "fzfg": false,
      "metar_trigger": false,
      "taf_trigger": false,
      "metar": "METAR LEBL 221500Z 09003KT 040V130 9999 FEW025 16/08 Q0998 NOSIG",
      "taf": ""
    },
    {
      "icao": "LECH",
      "alert": "OK",
      "vis_m": 9000,
      "fzfg": false,
      "metar_trigger": false,
      "taf_trigger": false,
      "metar": "METAR LECH 221500Z AUTO 24008KT 210V270 9000 FEW070 14/M00 Q1001",
      "taf": ""
    },
    {
      "icao": "LEMD",
      "alert": "OK",
      "vis_m": 9999,
      "fzfg": false,
      "metar_trigger": false,
      "taf_trigger": false,
      "metar": "METAR LEMD 221500Z 22014KT 190V250 9999 FEW045 BKN050 08/02 Q1004 NOSIG",
      "taf": "TAF LEMD 221100Z 2212/2318 21010KT 9999 FEW030 TX10/2214Z TN03/2308Z"
    },
    {
      "icao": "LEMG",
      "alert": "OK",
      "vis_m": 9999,
      "fzfg": false,
      "metar_trigger": false,
      "taf_trigger": false,
      "metar": "METAR LEMG 221500Z 30012KT 9999 FEW045 SCT055 15/05 Q1010 NOSIG",
      "taf": "TAF LEMG 221100Z 2212/2312 30012KT 9999 FEW040 TX17/2214Z TN10/2307Z"
    },
    {
      "icao": "LEVC",
      "alert": "OK",
      "vis_m": 9999,
      "fzfg": false,
      "metar_trigger": false,
      "taf_trigger": false,
      "metar": "METAR LEVC 221500Z 27020KT 9999 FEW050 16/03 Q1002 NOSIG",
      "taf": "TAF LEVC 221100Z 2212/2312 27010KT 9999 SCT040 TX17/2213Z TN07/2305Z"
    },
    {
      "icao": "LEXJ",
      "alert": "OK",
      "vis_m": 9999,
      "fzfg": false,
      "metar_trigger": false,
      "taf_trigger": false,
      "metar": "METAR LEXJ 221500Z 08003KT 050V110 CAVOK 13/03 Q0999",
      "taf": "TAF LEXJ 221400Z 2215/2315 24009KT 9999 SCT040 TX13/2215Z TN08/2306Z"
    },
    {
      "icao": "LEZG",
      "alert": "OK",
      "vis_m": 9999,
      "fzfg": false,
      "metar_trigger": false,
      "taf_trigger": false,
      "metar": "METAR LEZG 221500Z 30007KT 250V330 9999 FEW050 13/05 Q1002 NOSIG",
      "taf": "TAF LEZG 221100Z 2212/2312 28008KT 9999 FEW040 TX13/2215Z TN05/2306Z"
    },
    {
      "icao": "LEZL",
      "alert": "OK",
      "vis_m": 9999,
      "fzfg": false,
      "metar_trigger": false,
      "taf_trigger": false,
      "metar": "METAR LEZL 221500Z 23007KT 9999 OVC049 14/09 Q1011 NOSIG",
      "taf": "TAF LEZL 221400Z 2215/2315 22010KT 9999 SCT030 TX15/2215Z TN08/2307Z"
    },
    {
      "icao": "LFBD",
      "alert": "OK",
      "vis_m": 9999,
      "fzfg": false,
      "metar_trigger": false,
      "taf_trigger": false,
      "metar": "METAR LFBD 221500Z AUTO 24009KT 9999 FEW029/// SCT058/// ///TCU 11/08 Q0998 TEMPO 25015G25KT 3000 SHRA FEW020CB BKN035TCU",
      "taf": ""
    },
    {
      "icao": "LFLL",
      "alert": "OK",
      "vis_m": 9999,
      "fzfg": false,
      "metar_trigger": false,
      "taf_trigger": false,
      "metar": "METAR LFLL 221500Z 17007KT CAVOK 10/05 Q0998 NOSIG",
      "taf": "TAF LFLL 221100Z 2212/2318 15009KT CAVOK"
    },
    {
      "icao": "LFLS",
      "alert": "OK",
      "vis_m": 9999,
      "fzfg": false,
      "metar_trigger": false,
      "taf_trigger": false,
      "metar": "METAR LFLS 221500Z AUTO VRB02KT CAVOK 08/05 Q0998 NOSIG",
      "taf": "TAF LFLS 221400Z 2215/2315 09004KT CAVOK"
    },
    {
      "icao": "LFMN",
      "alert": "OK",
      "vis_m": 9999,
      "fzfg": false,
      "metar_trigger": false,
      "taf_trigger": false,
      "metar": "METAR LFMN 221500Z 02006KT 350V050 9999 -RA FEW040 BKN053 09/06 Q0999 NOSIG",
      "taf": "TAF LFMN 221400Z 2215/2321 34010KT 9999 FEW040 BKN050"
    },
    {
      "icao": "LFOB",
      "alert": "OK",
      "vis_m": 9999,
      "fzfg": false,
      "metar_trigger": false,
      "taf_trigger": false,
      "metar": "METAR LFOB 221500Z AUTO 17013KT 9999 FEW016 BKN040 OVC049 10/08 Q0991 TEMPO 4000 -SHRA BKN009 BKN014TCU",
      "taf": "TAF LFOB 221100Z 2212/2312 15012KT 9999 BKN015"
    },
    {
      "icao": "LFPO",
      "alert": "OK",
      "vis_m": 9999,
      "fzfg": false,
      "metar_trigger": false,
      "taf_trigger": false,
      "metar": "METAR LFPO 221500Z 20012KT 9999 BKN023 11/07 Q0992 NOSIG",
      "taf": "TAF LFPO 221100Z 2212/2318 18012KT 9999 BKN016"
    },
    {
      "icao": "LFSB",
      "alert": "OK",
      "vis_m": 9999,
      "fzfg": false,
      "metar_trigger": false,
      "taf_trigger": false,
      "metar": "METAR LFSB 221500Z AUTO 16004KT CAVOK 05/00 Q0997 NOSIG",
      "taf": "TAF LFSB 221100Z 2212/2312 15005KT CAVOK"
    },
    {
      "icao": "LGAV",
      "alert": "OK",
      "vis_m": 9999,
      "fzfg": false,
      "metar_trigger": false,
      "taf_trigger": false,
      "metar": "METAR LGAV 221450Z 19007KT 9999 SCT018 SCT025 BKN060 14/10 Q1002 NOSIG",
      "taf": "TAF LGAV 221100Z 2212/2312 22010KT 9999 FEW015 SCT025 BKN070"
    },
    {
      "icao": "LGTS",
      "alert": "OK",
      "vis_m": 9999,
      "fzfg": false,
      "metar_trigger": false,
      "taf_trigger": false,
      "metar": "METAR LGTS 221450Z VRB02KT 9999 SCT010 BKN025 09/07 Q1003 NOSIG",
      "taf": "TAF LGTS 221100Z 2212/2312 VRB03KT 9999 FEW010 BKN030"
    },
    {
      "icao": "LHBP",
      "alert": "OK",
      "vis_m": 7000,
      "fzfg": false,
      "metar_trigger": false,
      "taf_trigger": false,
      "metar": "METAR LHBP 221500Z 09004KT 7000 FEW010 OVC032 M00/M02 Q1004 TEMPO TL1600 4500 BR",
      "taf": ""
    },
    {
      "icao": "LHDC",
      "alert": "OK",
      "vis_m": 8000,
      "fzfg": false,
      "metar_trigger": false,
      "taf_trigger": false,
      "metar": "METAR LHDC 221445Z AUTO 03005KT 8000 NSC 02/M03 Q1004 NOSIG",
      "taf": "TAF LHDC 221415Z 2215/2224 03006KT 8000 OVC045"
    },
    {
      "icao": "LIBD",
      "alert": "OK",
      "vis_m": 9999,
      "fzfg": false,
      "metar_trigger": false,
      "taf_trigger": false,
      "metar": "METAR LIBD 221450Z 27003KT 230V300 9999 FEW045 12/09 Q0999",
      "taf": "TAF LIBD 221100Z 2212/2312 25006KT 8000 SCT030"
    },
    {
      "icao": "LIBG",
      "alert": "OK",
      "vis_m": 9999,
      "fzfg": false,
      "metar_trigger": false,
      "taf_trigger": false,
      "metar": "METAR LIBG 221450Z VRB02KT 9999 FEW030 13/08 Q0999",
      "taf": "TAF LIBG 221400Z 2215/2224 VRB05KT 9999 SCT020"
    },
    {
      "icao": "LIBP",
      "alert": "OK",
      "vis_m": 9999,
      "fzfg": false,
      "metar_trigger": false,
      "taf_trigger": false,
      "metar": "METAR LIBP 221450Z AUTO 02004KT 310V060 9999 FEW042/// BKN075/// 10/07 Q1000",
      "taf": "TAF LIBP 221100Z 2212/2312 VRB05KT 9999 SCT020"
    },
    {
      "icao": "LIBR",
      "alert": "OK",
      "vis_m": 9999,
      "fzfg": false,
      "metar_trigger": false,
      "taf_trigger": false,
      "metar": "METAR LIBR 221450Z VRB02KT CAVOK 12/09 Q0999",
      "taf": "TAF LIBR 221100Z 2212/2312 VRB05KT 9999 FEW020"
    },
    {
      "icao": "LICA",
      "alert": "OK",
      "vis_m": 9999,
      "fzfg": false,
      "metar_trigger": false,
      "taf_trigger": false,
      "metar": "METAR LICA 221450Z AUTO 27009KT 9999 RA BKN019/// 13/12 Q1000",
      "taf": "TAF LICA 221100Z 2212/2312 25012KT 9999 SCT040"
    },
    {
      "icao": "LICC",
      "alert": "OK",
      "vis_m": 9999,
      "fzfg": false,
      "metar_trigger": false,
      "taf_trigger": false,
      "metar": "METAR LICC 221450Z 27009KT 9999 FEW040 SCT080 17/15 Q1000",
      "taf": "TAF LICC 221100Z 2212/2312 26012KT 7000 FEW050"
    },
    {
      "icao": "LICJ",
      "alert": "OK",
      "vis_m": 9999,
      "fzfg": false,
      "metar_trigger": false,
      "taf_trigger": false,
      "metar": "METAR LICJ 221420Z 26007KT 9999 FEW040 15/08 Q1000",
      "taf": "TAF LICJ 221100Z 2212/2312 26013KT 9999 SCT025"
    },
    {
      "icao": "LIMC",
      "alert": "OK",
      "vis_m": 800,
      "fzfg": false,
      "metar_trigger": false,
      "taf_trigger": false,
      "metar": "METAR LIMC 221450Z VRB02KT 0800 R35R/0900D R17L/1900U R35L/1700D FG OVC001 02/02 Q1000 NOSIG",
      "taf": ""
    },
    {
      "icao": "LIME",
      "alert": "OK",
      "vis_m": 6000,
      "fzfg": false,
      "metar_trigger": false,
      "taf_trigger": false,
      "metar": "METAR LIME 221450Z 21003KT 6000 NSC 05/01 Q1000 NOSIG",
      "taf": "TAF LIME 221100Z 2212/2312 VRB04KT CAVOK"
    },
    {
      "icao": "LIMF",
      "alert": "OK",
      "vis_m": 6000,
      "fzfg": false,
      "metar_trigger": false,
      "taf_trigger": false,
      "metar": "METAR LIMF 221450Z 19003KT 6000 BKN140 05/01 Q1000",
      "taf": "TAF LIMF 221100Z 2212/2312 VRB04KT 4000 BR NSC"
    },
    {
      "icao": "LIMJ",
      "alert": "OK",
      "vis_m": 9999,
      "fzfg": false,
      "metar_trigger": false,
      "taf_trigger": false,
      "metar": "METAR LIMJ 221450Z 05008KT 9999 BKN065 10/00 Q0999",
      "taf": "TAF LIMJ 221100Z 2212/2312 03013KT 9999 FEW040"
    },
    {
      "icao": "LIPE",
      "alert": "OK",
      "vis_m": 7000,
      "fzfg": false,
      "metar_trigger": false,
      "taf_trigger": false,
      "metar": "METAR LIPE 221450Z VRB01KT 7000 BKN035 07/01 Q1001",
      "taf": "TAF LIPE 221100Z 2212/2312 VRB05KT 9999 SCT020 SCT040"
    },
    {
      "icao": "LIPH",
      "alert": "OK",
      "vis_m": 9999,
      "fzfg": false,
      "metar_trigger": false,
      "taf_trigger": false,
      "metar": "METAR LIPH 221450Z 25003KT 230V290 CAVOK 08/M05 Q1000",
      "taf": "TAF LIPH 221100Z 2212/2312 VRB05KT 9999 SCT060"
    },
    {
      "icao": "LIPQ",
      "alert": "OK",
      "vis_m": 9999,
      "fzfg": false,
      "metar_trigger": false,
      "taf_trigger": false,
      "metar": "METAR LIPQ 221450Z AUTO 26002KT 9999 OVC062/// 09/M03 Q1000",
      "taf": "TAF LIPQ 221100Z 2212/2312 VRB05KT 9999 SCT050"
    },
    {
      "icao": "LIPR",
      "alert": "OK",
      "vis_m": 8000,
      "fzfg": false,
      "metar_trigger": false,
      "taf_trigger": false,
      "metar": "METAR LIPR 221450Z 02004KT 8000 BKN017 05/02 Q1001",
      "taf": "TAF LIPR 221100Z 2212/2312 30006KT 9999 SCT020"
    },
    {
      "icao": "LIPX",
      "alert": "OK",
      "vis_m": 9999,
      "fzfg": false,
      "metar_trigger": false,
      "taf_trigger": false,
      "metar": "METAR LIPX 221450Z 27004KT CAVOK 08/M03 Q1000",
      "taf": "TAF LIPX 221100Z 2212/2312 VRB04KT 9999 SCT050"
    },
    {
      "icao": "LIPY",
      "alert": "OK",
      "vis_m": 9999,
      "fzfg": false,
      "metar_trigger": false,
      "taf_trigger": false,
      "metar": "METAR LIPY 221450Z AUTO 31007KT 9999 OVC024/// 07/03 Q1001",
      "taf": "TAF LIPY 221100Z 2212/2312 25008KT 9999 SCT070"
    },
    {
      "icao": "LIPZ",
      "alert": "OK",
      "vis_m": 9999,
      "fzfg": false,
      "metar_trigger": false,
      "taf_trigger": false,
      "metar": "METAR LIPZ 221450Z 21004KT 9999 SCT055 07/M02 Q1000 NOSIG",
      "taf": "TAF LIPZ 221100Z 2212/2318 VRB05KT CAVOK"
    },
    {
      "icao": "LIRF",
      "alert": "OK",
      "vis_m": 9999,
      "fzfg": false,
      "metar_trigger": false,
      "taf_trigger": false,
      "metar": "METAR LIRF 221450Z 28005KT 9999 FEW030 12/06 Q0999 NOSIG",
      "taf": "TAF LIRF 221100Z 2212/2318 24010KT 9999 FEW040"
    },
    {
      "icao": "LIRN",
      "alert": "OK",
      "vis_m": 9999,
      "fzfg": false,
      "metar_trigger": false,
      "taf_trigger": false,
      "metar": "METAR LIRN 221450Z VRB03KT 9999 SCT050 13/06 Q0999 NOSIG",
      "taf": "TAF LIRN 221100Z 2212/2312 VRB05KT 9999 SCT050"
    },
    {
      "icao": "LIRP",
      "alert": "OK",
      "vis_m": 9999,
      "fzfg": false,
      "metar_trigger": false,
      "taf_trigger": false,
      "metar": "METAR LIRP 221445Z 12004KT CAVOK 11/01 Q0999 NOSIG",
      "taf": "TAF LIRP 221100Z 2212/2312 08005KT CAVOK"
    },
    {
      "icao": "LIRZ",
      "alert": "OK",
      "vis_m": 9999,
      "fzfg": false,
      "metar_trigger": false,
      "taf_trigger": false,
      "metar": "METAR LIRZ 221450Z AUTO 20003KT 160V240 9999 BKN054/// 13/04 Q0998",
      "taf": "TAF LIRZ 221100Z 2212/2312 VRB05KT 9999 BKN045"
    },
    {
      "icao": "LJLJ",
      "alert": "OK",
      "vis_m": 9999,
      "fzfg": false,
      "metar_trigger": false,
      "taf_trigger": false,
      "metar": "METAR LJLJ 221500Z 07002KT 9999 SCT050 M01/M06 Q1000 NOSIG",
      "taf": "TAF LJLJ 221100Z 2212/2312 12003KT 9999 FEW010 BKN060"
    },
    {
      "icao": "LKMT",
      "alert": "OK",
      "vis_m": 9999,
      "fzfg": false,
      "metar_trigger": false,
      "taf_trigger": false,
      "metar": "METAR LKMT 221500Z 05001KT CAVOK 01/M06 Q1002 NOSIG",
      "taf": "TAF LKMT 221100Z 2212/2312 VRB02KT CAVOK"
    },
    {
      "icao": "LKPR",
      "alert": "OK",
      "vis_m": 9999,
      "fzfg": false,
      "metar_trigger": false,
      "taf_trigger": false,
      "metar": "METAR LKPR 221500Z 13005KT 100V200 9999 OVC015 M05/M08 Q1001 NOSIG",
      "taf": "TAF LKPR 221400Z 2215/2321 14006KT 9999 BKN015"
    },
    {
      "icao": "LLBG",
      "alert": "OK",
      "vis_m": 9999,
      "fzfg": false,
      "metar_trigger": false,
      "taf_trigger": false,
      "metar": "METAR LLBG 221450Z 13015KT CAVOK 20/02 Q1010 NOSIG",
      "taf": "TAF LLBG 221105Z 2212/2312 10012KT CAVOK"
    },
    {
      "icao": "LMML",
      "alert": "OK",
      "vis_m": 9999,
      "fzfg": false,
      "metar_trigger": false,
      "taf_trigger": false,
      "metar": "METAR LMML 221515Z 25009KT 9999 SCT021 14/11 Q1002 NOSIG",
      "taf": "TAF LMML 221100Z 2212/2312 29015KT 9999 FEW025"
    },
    {
      "icao": "LOWW",
      "alert": "OK",
      "vis_m": 3600,
      "fzfg": false,
      "metar_trigger": false,
      "taf_trigger": false,
      "metar": "METAR LOWW 221450Z 13005KT 3600 1000E R11/P1500D R16/P1500U -SG BR FEW003 BKN010 M04/M06 Q1003 TEMPO 2000 -SG OVC007",
      "taf": "TAF LOWW 221415Z 2215/2321 13005KT 4000 BR OVC006 TXM01/2321Z TNM06/2305Z"
    },
    {
      "icao": "LPFR",
      "alert": "OK",
      "vis_m": 9999,
      "fzfg": false,
      "metar_trigger": false,
      "taf_trigger": false,
      "metar": "METAR LPFR 221500Z 25013KT 9999 FEW018 SCT030 BKN042 15/11 Q1010",
      "taf": "TAF LPFR 221100Z 2212/2312 VRB02KT 9999 FEW020 BKN040"
    },
    {
      "icao": "LPMA",
      "alert": "OK",
      "vis_m": 9999,
      "fzfg": false,
      "metar_trigger": false,
      "taf_trigger": false,
      "metar": "METAR LPMA 221500Z 05003KT 030V090 9999 SCT012 SCT030 19/15 Q1017",
      "taf": "TAF LPMA 221100Z 2212/2312 VRB05KT 9999 SCT015"
    },
    {
      "icao": "LPPR",
      "alert": "OK",
      "vis_m": 3000,
      "fzfg": false,
      "metar_trigger": false,
      "taf_trigger": false,
      "metar": "METAR LPPR 221500Z 17014KT 3000 -RA BR BKN006 BKN012 10/10 Q1000 RERA",
      "taf": "TAF LPPR 221100Z 2212/2312 19015KT 6000 -RA SCT008 BKN015"
    },
    {
      "icao": "LPPS",
      "alert": "OK",
      "vis_m": 9999,
      "fzfg": false,
      "metar_trigger": false,
      "taf_trigger": false,
      "metar": "METAR LPPS 221500Z 29014KT 9999 SCT010 BKN030 18/16 Q1017",
      "taf": "TAF LPPS 221100Z 2212/2318 30015KT 9999 SCT015 SCT030"
    },
    {
      "icao": "LPPT",
      "alert": "OK",
      "vis_m": 1800,
      "fzfg": false,
      "metar_trigger": false,
      "taf_trigger": false,
      "metar": "METAR LPPT 221500Z 21016KT 1800 -RADZ BR FEW004 BKN006 12/12 Q1005",
      "taf": ""
    },
    {
      "icao": "LQBK",
      "alert": "OK",
      "vis_m": 5000,
      "fzfg": false,
      "metar_trigger": false,
      "taf_trigger": false,
      "metar": "METAR LQBK 221500Z 34005KT 5000 BR NSC M01/M03 Q1002 NOSIG",
      "taf": "TAF LQBK 221100Z 2212/2312 VRB02KT 4000 BR OVC008 TX01/2312Z TNM04/2224Z"
    },
    {
      "icao": "LQSA",
      "alert": "OK",
      "vis_m": 4000,
      "fzfg": false,
      "metar_trigger": false,
      "taf_trigger": false,
      "metar": "METAR LQSA 221500Z 00000KT 4000 BR SCT050 03/M03 Q1001 NOSIG",
      "taf": "TAF LQSA 221100Z 2212/2312 VRB02KT 4000 BR FEW010 SCT045 TX05/2312Z TNM02/2305Z"
    },
    {
      "icao": "LQTZ",
      "alert": "OK",
      "vis_m": 4000,
      "fzfg": false,
      "metar_trigger": false,
      "taf_trigger": false,
      "metar": "METAR LQTZ 221500Z VRB01KT 4000 -RA BR BKN055 00/M01 Q1002",
      "taf": "TAF LQTZ 221100Z 2212/2312 VRB02KT 6000 SCT007 BKN045 TX04/2312Z TNM03/2303Z"
    },
    {
      "icao": "LRBC",
      "alert": "OK",
      "vis_m": 7000,
      "fzfg": false,
      "metar_trigger": false,
      "taf_trigger": false,
      "metar": "METAR LRBC 221500Z 15006KT 7000 -RA BKN015 OVC043 02/00 Q1005",
      "taf": "TAF LRBC 221400Z 2215/2224 17007KT 9999 BKN015"
    },
    {
      "icao": "LRBS",
      "alert": "OK",
      "vis_m": 800,
      "fzfg": false,
      "metar_trigger": false,
      "taf_trigger": false,
      "metar": "METAR LRBS 221500Z 05003KT 0800 R07/1800N FG OVC001 02/01 Q1005 NOSIG",
      "taf": "TAF LRBS 221100Z 2212/2312 VRB04KT 3000 -RA BR OVC002"
    },
    {
      "icao": "LRBV",
      "alert": "OK",
      "vis_m": 9999,
      "fzfg": false,
      "metar_trigger": false,
      "taf_trigger": false,
      "metar": "METAR LRBV 221500Z 36002KT 9999 -RA SCT025 BKN038 OVC051 02/00 Q1002",
      "taf": "TAF LRBV 221400Z 2215/2224 VRB04KT 9999 BKN040"
    },
    {
      "icao": "LRCL",
      "alert": "OK",
      "vis_m": 4000,
      "fzfg": false,
      "metar_trigger": false,
      "taf_trigger": false,
      "metar": "METAR LRCL 221500Z 10004KT 4000 -FZRA BR OVC029 M01/M03 Q1004",
      "taf": "TAF LRCL 221400Z 2215/2224 VRB04KT 5000 -SN BR OVC040"
    },
    {
      "icao": "LRCV",
      "alert": "OK",
      "vis_m": 2800,
      "fzfg": false,
      "metar_trigger": false,
      "taf_trigger": false,
      "metar": "METAR LRCV 221500Z COR 08004KT 2800 BR OVC003 01/01 Q1004",
      "taf": "TAF LRCV 221400Z 2215/2224 VRB04KT 3000 BR OVC005"
    },
    {
      "icao": "LRIA",
      "alert": "OK",
      "vis_m": 9999,
      "fzfg": false,
      "metar_trigger": false,
      "taf_trigger": false,
      "metar": "METAR LRIA 221500Z 11014KT 9999 SCT008 BKN018 02/01 Q1006",
      "taf": "TAF LRIA 221400Z 2215/2224 11011KT 9999 BKN020"
    },
    {
      "icao": "LROP",
      "alert": "OK",
      "vis_m": 2500,
      "fzfg": false,
      "metar_trigger": false,
      "taf_trigger": false,
      "metar": "METAR LROP 221500Z 04005KT 2500 -RADZ BR OVC002 02/02 Q1005 NOSIG",
      "taf": "TAF LROP 221100Z 2212/2312 VRB04KT 3000 -RA BR OVC002"
    },
    {
      "icao": "LRSB",
      "alert": "OK",
      "vis_m": 9999,
      "fzfg": false,
      "metar_trigger": false,
      "taf_trigger": false,
      "metar": "METAR LRSB 221500Z 33003KT 9999 BKN070 M00/M03 Q1002",
      "taf": "TAF LRSB 221100Z 2212/2312 VRB04KT 9999 BKN050"
    },
    {
      "icao": "LRSM",
      "alert": "OK",
      "vis_m": 8000,
      "fzfg": false,
      "metar_trigger": false,
      "taf_trigger": false,
      "metar": "METAR LRSM 221500Z 03002KT 8000 NSC 01/M04 Q1004",
      "taf": "TAF LRSM 221400Z 2215/2224 VRB04KT CAVOK"
    },
    {
      "icao": "LRSV",
      "alert": "OK",
      "vis_m": 9999,
      "fzfg": false,
      "metar_trigger": false,
      "taf_trigger": false,
      "metar": "METAR LRSV 221500Z 14008KT 9999 BKN010 01/00 Q1003",
      "taf": "TAF LRSV 221400Z 2215/2224 13007KT 9999 BKN010"
    },
    {
      "icao": "LRTM",
      "alert": "OK",
      "vis_m": 2000,
      "fzfg": false,
      "metar_trigger": false,
      "taf_trigger": false,
      "metar": "METAR LRTM 221500Z 05002KT 2000 -SN BR FEW012 BKN028 OVC040 M03/M05 Q1004",
      "taf": "TAF LRTM 221400Z 2215/2224 VRB04KT 3000 -SN BR BKN040"
    },
    {
      "icao": "LRTR",
      "alert": "OK",
      "vis_m": 9000,
      "fzfg": false,
      "metar_trigger": false,
      "taf_trigger": false,
      "metar": "METAR LRTR 221500Z 02003KT 9000 OVC042 02/M01 Q1003",
      "taf": "TAF LRTR 221100Z 2212/2312 VRB04KT 9999 BKN045"
    },
    {
      "icao": "LTAC",
      "alert": "OK",
      "vis_m": 2300,
      "fzfg": false,
      "metar_trigger": false,
      "taf_trigger": false,
      "metar": "METAR LTAC 221450Z VRB02KT 2300 -SN BR SCT007 BKN025 BKN080 M01/M02 Q1010 BECMG 4000",
      "taf": "TAF LTAC 221040Z 2212/2312 VRB02KT 9999 SCT035 BKN090"
    },
    {
      "icao": "LTFM",
      "alert": "OK",
      "vis_m": 9999,
      "fzfg": false,
      "metar_trigger": false,
      "taf_trigger": false,
      "metar": "METAR LTFM 221450Z 21013KT 9999 -SHRA SCT040 BKN100 10/06 Q1004 NOSIG RMK RWY17L 20011KT RWY34L 20012KT RWY16R 20009KT RWY36 21011KT RWY18 21013KT",
      "taf": "TAF LTFM 221040Z 2212/2318 20012KT 9999 SCT040 BKN100"
    },
    {
      "icao": "LUKK",
      "alert": "OK",
      "vis_m": 9999,
      "fzfg": false,
      "metar_trigger": false,
      "taf_trigger": false,
      "metar": "METAR LUKK 221500Z 12009KT 9999 SCT012 OVC017 01/M01 Q1008 NOSIG",
      "taf": "TAF LUKK 221119Z 2212/2312 09009KT 5000 BR OVC008"
    },
    {
      "icao": "LWOH",
      "alert": "OK",
      "vis_m": null,
      "fzfg": false,
      "metar_trigger": false,
      "taf_trigger": false,
      "metar": "",
      "taf": "TAF LWOH 221415Z 2215/2315 VRB03KT 9999 BKN040"
    },
    {
      "icao": "LWSK",
      "alert": "OK",
      "vis_m": 6000,
      "fzfg": false,
      "metar_trigger": false,
      "taf_trigger": false,
      "metar": "METAR LWSK 221450Z VRB01KT 6000 FEW013 SCT036 04/02 Q1003 NOSIG",
      "taf": "TAF LWSK 221415Z 2215/2315 VRB02KT 6000 FEW015 SCT040"
    },
    {
      "icao": "LYBE",
      "alert": "OK",
      "vis_m": 5000,
      "fzfg": false,
      "metar_trigger": false,
      "taf_trigger": false,
      "metar": "METAR LYBE 221500Z 26005KT 5000 BR NSC M00/M03 Q1003 NOSIG",
      "taf": "TAF LYBE 221100Z 2212/2312 30004KT 3000 BR NSC TX00/2212Z TNM03/2306Z"
    },
    {
      "icao": "LYNI",
      "alert": "OK",
      "vis_m": 9999,
      "fzfg": false,
      "metar_trigger": false,
      "taf_trigger": false,
      "metar": "METAR LYNI 221500Z 10006KT 9999 FEW090 08/M00 Q1002 NOSIG",
      "taf": "TAF LYNI 221100Z 2212/2312 06006KT 9999 SCT040 BKN090 TX09/2312Z TN00/2305Z"
    },
    {
      "icao": "LYPG",
      "alert": "OK",
      "vis_m": 9999,
      "fzfg": false,
      "metar_trigger": false,
      "taf_trigger": false,
      "metar": "METAR LYPG 221500Z VRB02KT 9999 FEW014 SCT046 OVC070 08/06 Q1001 NOSIG",
      "taf": "TAF LYPG 221100Z 2212/2312 12005KT 9999 FEW013 BKN050 OVC073 TX10/2213Z TN05/2305Z"
    },
    {
      "icao": "LZIB",
      "alert": "OK",
      "vis_m": 5000,
      "fzfg": false,
      "metar_trigger": false,
      "taf_trigger": false,
      "metar": "METAR LZIB 221500Z 13006KT 5000 BR BKN015 M01/M05 Q1003 NOSIG",
      "taf": "TAF LZIB 221115Z 2212/2312 12008KT 9999 FEW008 SCT020"
    },
    {
      "icao": "LZKZ",
      "alert": "OK",
      "vis_m": 9999,
      "fzfg": false,
      "metar_trigger": false,
      "taf_trigger": false,
      "metar": "METAR LZKZ 221500Z 00000KT CAVOK M01/M06 Q1004 NOSIG",
      "taf": "TAF LZKZ 221115Z 2212/2312 VRB02KT 8000 BKN035"
    },
    {
      "icao": "LZTT",
      "alert": "OK",
      "vis_m": 3000,
      "fzfg": false,
      "metar_trigger": false,
      "taf_trigger": false,
      "metar": "METAR LZTT 221500Z 16003KT 120V190 3000 -SN FEW008 OVC026 M01/M02 Q1001 TEMPO 1400 -SN BR BKN004",
      "taf": "TAF LZTT 221115Z 2212/2312 VRB02KT 9999 FEW020 BKN045"
    },
    {
      "icao": "OEJN",
      "alert": "OK",
      "vis_m": 6000,
      "fzfg": false,
      "metar_trigger": false,
      "taf_trigger": false,
      "metar": "METAR OEJN 221500Z 21007KT 6000 NSC 28/20 Q1011 NOSIG",
      "taf": "TAF OEJN 221100Z 2212/2318 22010KT 7000 FEW040"
    },
    {
      "icao": "OEMA",
      "alert": "OK",
      "vis_m": 9000,
      "fzfg": false,
      "metar_trigger": false,
      "taf_trigger": false,
      "metar": "METAR OEMA 221500Z 08012KT 9000 NSC 23/M02 Q1018 NOSIG",
      "taf": "TAF OEMA 221100Z 2212/2318 10015KT 7000 NSC"
    },
    {
      "icao": "OJAI",
      "alert": "OK",
      "vis_m": 2800,
      "fzfg": false,
      "metar_trigger": false,
      "taf_trigger": false,
      "metar": "METAR OJAI 221500Z 10011KT 2800 HZ NSC 09/M04 Q1018 NOSIG",
      "taf": "TAF OJAI 221003Z 2212/2318 08012KT 4000 -RA SCT035 BKN035"
    },
    {
      "icao": "OMAA",
      "alert": "OK",
      "vis_m": 9999,
      "fzfg": false,
      "metar_trigger": false,
      "taf_trigger": false,
      "metar": "METAR OMAA 221500Z 01008KT CAVOK 18/00 Q1022 NOSIG",
      "taf": "TAF OMAA 221100Z 2212/2318 33015KT 8000 NSC"
    },
    {
      "icao": "OMDB",
      "alert": "OK",
      "vis_m": 9999,
      "fzfg": false,
      "metar_trigger": false,
      "taf_trigger": false,
      "metar": "METAR OMDB 221500Z 01010KT 340V040 CAVOK 19/M01 Q1021 NOSIG",
      "taf": "TAF OMDB 221100Z 2212/2318 36014KT 8000 NSC"
    },
    {
      "icao": "UAAA",
      "alert": "OK",
      "vis_m": 5000,
      "fzfg": false,
      "metar_trigger": false,
      "taf_trigger": false,
      "metar": "METAR UAAA 221500Z 22003MPS 5000 BR BKN100 OVC200 M04/M09 Q1014 NOSIG",
      "taf": "TAF UAAA 221103Z 2212/2312 32003MPS 3100 BR FU SCT011 BKN050 TXM04/2308Z TNM10/2302Z"
    },
    {
      "icao": "UBBB",
      "alert": "OK",
      "vis_m": 9999,
      "fzfg": false,
      "metar_trigger": false,
      "taf_trigger": false,
      "metar": "METAR UBBB 221500Z 21008KT CAVOK 05/M02 Q1018 NOSIG",
      "taf": "TAF UBBB 221054Z 2212/2312 21014KT CAVOK TX07/2212Z TNM02/2300Z"
    },
    {
      "icao": "UDSG",
      "alert": "OK",
      "vis_m": 9000,
      "fzfg": false,
      "metar_trigger": false,
      "taf_trigger": false,
      "metar": "METAR UDSG 221500Z 29003KT 9000 SCT043 M11/M14 Q1019 NOSIG",
      "taf": "TAF UDSG 221058Z 2212/2312 VRB06KT 9999 SCT040"
    },
    {
      "icao": "UDYZ",
      "alert": "OK",
      "vis_m": 9999,
      "fzfg": false,
      "metar_trigger": false,
      "taf_trigger": false,
      "metar": "METAR UDYZ 221500Z 18002KT 9999 NSC M04/M10 Q1023 NOSIG",
      "taf": "TAF UDYZ 221100Z 2212/2312 VRB04KT 9999 FEW040"
    },
    {
      "icao": "UGKO",
      "alert": "OK",
      "vis_m": 9999,
      "fzfg": false,
      "metar_trigger": false,
      "taf_trigger": false,
      "metar": "METAR UGKO 221500Z 09021G31KT CAVOK 07/M07 Q1012 NOSIG",
      "taf": "TAF UGKO 221100Z 2212/2312 08017KT CAVOK TX10/2311Z TN05/2303Z"
    }
  ]
}