{
  "ts_utc": "2026-01-06T21:30:16Z",
  "threshold_m": 150,
  "source": "stations_override.txt (ICAO list) + aviationweather.gov (METAR/TAF raw)",
  "station_count": 159,
  "stations": [
    {
      "icao": "BIKF",
      "alert": "OK",
      "vis_m": 9999,
      "fzfg": false,
      "metar_trigger": false,
      "taf_trigger": false,
      "metar": "METAR BIKF 062100Z 09010KT CAVOK M06/M10 Q1015",
      "taf": "TAF BIKF 061944Z 0621/0721 08017KT CAVOK TXM01/0721Z TNM05/0700Z"
    },
    {
      "icao": "BKPR",
      "alert": "OK",
      "vis_m": null,
      "fzfg": false,
      "metar_trigger": false,
      "taf_trigger": false,
      "metar": "",
      "taf": ""
    },
    {
      "icao": "EBCI",
      "alert": "OK",
      "vis_m": 4500,
      "fzfg": false,
      "metar_trigger": false,
      "taf_trigger": false,
      "metar": "METAR EBCI 062120Z 19013KT 4500 BR BKN006 M03/M04 Q1015 TEMPO BKN004",
      "taf": "TAF EBCI 061700Z 0618/0724 19011KT 6000 SCT005"
    },
    {
      "icao": "EDDB",
      "alert": "OK",
      "vis_m": 2300,
      "fzfg": false,
      "metar_trigger": false,
      "taf_trigger": false,
      "metar": "METAR EDDB 062120Z AUTO 20003KT 2300 0350 R24R/1900N R24L/0400N BCFG FEW034 M08/M09 Q1016 TEMPO 1000 BCFG",
      "taf": "TAF EDDB 061700Z 0618/0718 22005KT 8000 BKN030"
    },
    {
      "icao": "EDDH",
      "alert": "OK",
      "vis_m": 9999,
      "fzfg": false,
      "metar_trigger": false,
      "taf_trigger": false,
      "metar": "METAR EDDH 062120Z AUTO 22010KT 9999 OVC008 M00/M02 Q1013 NOSIG",
      "taf": "TAF EDDH 061700Z 0618/0724 20008KT 9999 BKN012"
    },
    {
      "icao": "EDDK",
      "alert": "OK",
      "vis_m": 9999,
      "fzfg": false,
      "metar_trigger": false,
      "taf_trigger": false,
      "metar": "METAR EDDK 062120Z AUTO 16005KT CAVOK M03/M05 Q1016 NOSIG",
      "taf": "TAF EDDK 061700Z 0618/0724 14005KT 9999 BKN020"
    },
    {
      "icao": "EDDN",
      "alert": "OK",
      "vis_m": 9999,
      "fzfg": false,
      "metar_trigger": false,
      "taf_trigger": false,
      "metar": "METAR EDDN 062120Z AUTO 24003KT 9999 -SN OVC014 M05/M07 Q1017",
      "taf": "TAF EDDN 061700Z 0618/0718 VRB03KT 9999 BKN015"
    },
    {
      "icao": "EDDS",
      "alert": "OK",
      "vis_m": 6000,
      "fzfg": false,
      "metar_trigger": false,
      "taf_trigger": false,
      "metar": "METAR EDDS 062120Z AUTO VRB01KT 6000 -SN BKN016 BKN021 BKN027 M04/M06 Q1016",
      "taf": "TAF EDDS 061700Z 0618/0718 VRB03KT 9999 BKN012"
    },
    {
      "icao": "EDFH",
      "alert": "OK",
      "vis_m": 9999,
      "fzfg": false,
      "metar_trigger": false,
      "taf_trigger": false,
      "metar": "METAR EDFH 062120Z 24007KT 9999 SCT007 BKN015 BKN018 M04/M05 Q1015",
      "taf": "TAF EDFH 061700Z 0618/0718 23005KT 9999 SCT012 BKN035"
    },
    {
      "icao": "EDJA",
      "alert": "OK",
      "vis_m": 9999,
      "fzfg": false,
      "metar_trigger": false,
      "taf_trigger": false,
      "metar": "METAR EDJA 062120Z COR 21003KT 9999 -SN SCT010 OVC013 M06/M08 Q1015",
      "taf": "TAF EDJA 061700Z 0618/0703 VRB03KT 9999 OVC035"
    },
    {
      "icao": "EDLW",
      "alert": "OK",
      "vis_m": 9999,
      "fzfg": false,
      "metar_trigger": false,
      "taf_trigger": false,
      "metar": "METAR EDLW 062120Z 20008KT 9999 SCT016 BKN019 M01/M03 Q1015",
      "taf": "TAF EDLW 061700Z 0618/0718 21008KT 9999 BKN010"
    },
    {
      "icao": "EDNY",
      "alert": "OK",
      "vis_m": 7000,
      "fzfg": false,
      "metar_trigger": false,
      "taf_trigger": false,
      "metar": "METAR EDNY 062120Z AUTO 05003KT 7000 -SN OVC026/// M05/M06 Q1017",
      "taf": "TAF EDNY 061700Z 0618/0703 VRB03KT 7000 FEW020 BKN030"
    },
    {
      "icao": "EDSB",
      "alert": "OK",
      "vis_m": 9999,
      "fzfg": false,
      "metar_trigger": false,
      "taf_trigger": false,
      "metar": "METAR EDSB 062120Z 20003KT 9999 -SN SCT027 OVC035 M03/M05 Q1019",
      "taf": "TAF EDSB 061700Z 0618/0718 20004KT 9999 SCT012 BKN020"
    },
    {
      "icao": "EETN",
      "alert": "OK",
      "vis_m": 4500,
      "fzfg": false,
      "metar_trigger": false,
      "taf_trigger": false,
      "metar": "METAR EETN 062120Z 11009KT 4500 SN FEW038 OVC048 M05/M06 Q1015 TEMPO 6000 -SN",
      "taf": ""
    },
    {
      "icao": "EFTU",
      "alert": "OK",
      "vis_m": 7000,
      "fzfg": false,
      "metar_trigger": false,
      "taf_trigger": false,
      "metar": "METAR EFTU 062120Z AUTO 10009KT 7000 -SN FEW009 OVC030 M04/M05 Q1014",
      "taf": "TAF EFTU 062022Z 0621/0721 11010KT 9999 -SN FEW006 BKN020"
    },
    {
      "icao": "EGBB",
      "alert": "OK",
      "vis_m": 9000,
      "fzfg": false,
      "metar_trigger": false,
      "taf_trigger": false,
      "metar": "METAR EGBB 062120Z 21008KT 9000 -RADZ BKN007 03/02 Q1005 RERA REDZ",
      "taf": "TAF EGBB 061656Z 0618/0718 21012KT 9999 SCT035"
    },
    {
      "icao": "EGGP",
      "alert": "OK",
      "vis_m": 7000,
      "fzfg": false,
      "metar_trigger": false,
      "taf_trigger": false,
      "metar": "METAR EGGP 062120Z 26012KT 7000 -RA SCT012 BKN020 04/03 Q1003",
      "taf": "TAF EGGP 061658Z 0618/0718 20005KT 9999 SCT025"
    },
    {
      "icao": "EGGW",
      "alert": "OK",
      "vis_m": 9999,
      "fzfg": false,
      "metar_trigger": false,
      "taf_trigger": false,
      "metar": "METAR EGGW 062120Z AUTO 21013KT 9999 -RA OVC031 02/01 Q1007",
      "taf": "TAF EGGW 061654Z 0618/0718 21007KT 9999 SCT030"
    },
    {
      "icao": "EGKK",
      "alert": "OK",
      "vis_m": 9999,
      "fzfg": false,
      "metar_trigger": false,
      "taf_trigger": false,
      "metar": "METAR EGKK 062120Z 20008KT 9999 -RA SCT035 05/02 Q1010",
      "taf": "TAF EGKK 061700Z 0618/0724 22005KT 9999 FEW040"
    },
    {
      "icao": "EGNM",
      "alert": "OK",
      "vis_m": 5000,
      "fzfg": false,
      "metar_trigger": false,
      "taf_trigger": false,
      "metar": "METAR EGNM 062120Z 25016KT 5000 -RASN BKN006 02/01 Q1000",
      "taf": "TAF EGNM 061655Z 0618/0718 21009KT 9999 SCT018"
    },
    {
      "icao": "EGPD",
      "alert": "OK",
      "vis_m": 9000,
      "fzfg": false,
      "metar_trigger": false,
      "taf_trigger": false,
      "metar": "METAR EGPD 062120Z AUTO 31015KT 9000 BKN006 BKN009 OVC018 01/M00 Q0995 TEMPO 4000 -RASN",
      "taf": ""
    },
    {
      "icao": "EGPF",
      "alert": "OK",
      "vis_m": 9999,
      "fzfg": false,
      "metar_trigger": false,
      "taf_trigger": false,
      "metar": "METAR EGPF 062120Z AUTO 27005KT 9999 BKN021 03/01 Q0998 RESG",
      "taf": "TAF EGPF 061700Z 0618/0718 28010KT 9999 SCT030"
    },
    {
      "icao": "EHBK",
      "alert": "OK",
      "vis_m": 9999,
      "fzfg": false,
      "metar_trigger": false,
      "taf_trigger": false,
      "metar": "METAR EHBK 062125Z AUTO 20014KT 9999 NCD M03/M05 Q1015 NOSIG",
      "taf": "TAF EHBK 061720Z 0618/0724 22008KT CAVOK"
    },
    {
      "icao": "EHEH",
      "alert": "OK",
      "vis_m": 5000,
      "fzfg": false,
      "metar_trigger": false,
      "taf_trigger": false,
      "metar": "METAR EHEH 062055Z AUTO 18007KT 5000 BR NCD M03/M04 Q1015 WHT NOSIG RMK TREND REMOTE BY EHWX",
      "taf": "TAF EHEH 061728Z 0618/0724 21006KT 9999 BKN020"
    },
    {
      "icao": "EKBI",
      "alert": "OK",
      "vis_m": 9999,
      "fzfg": false,
      "metar_trigger": false,
      "taf_trigger": false,
      "metar": "METAR EKBI 062120Z 17008KT 9999 BKN003 M01/M01 Q1008",
      "taf": "TAF EKBI 062027Z 0621/0721 17009KT 9999 BKN020"
    },
    {
      "icao": "EKCH",
      "alert": "OK",
      "vis_m": 9999,
      "fzfg": false,
      "metar_trigger": false,
      "taf_trigger": false,
      "metar": "METAR EKCH 062120Z AUTO 20008KT 9999 FEW022/// SCT042/// M00/M03 Q1012 TEMPO BKN010",
      "taf": "TAF EKCH 062027Z 0621/0721 19013KT 9000 BKN020"
    },
    {
      "icao": "ENAL",
      "alert": "OK",
      "vis_m": 9999,
      "fzfg": false,
      "metar_trigger": false,
      "taf_trigger": false,
      "metar": "METAR ENAL 062120Z 14012KT CAVOK M04/M13 Q1011",
      "taf": "TAF ENAL 062000Z 0621/0706 12010KT CAVOK"
    },
    {
      "icao": "ENBR",
      "alert": "OK",
      "vis_m": 9999,
      "fzfg": false,
      "metar_trigger": false,
      "taf_trigger": false,
      "metar": "METAR ENBR 062120Z 10003KT CAVOK M09/M13 Q1009 RMK WIND 1200FT 13009KT",
      "taf": "TAF ENBR 061700Z 0618/0718 08006KT CAVOK"
    },
    {
      "icao": "ENGM",
      "alert": "OK",
      "vis_m": 9999,
      "fzfg": false,
      "metar_trigger": false,
      "taf_trigger": false,
      "metar": "METAR ENGM 062120Z 33004KT 9999 FEW011 BKN013 M12/M14 Q1011 NOSIG",
      "taf": "TAF ENGM 061700Z 0618/0718 01008KT 9999 SCT012 BKN025"
    },
    {
      "icao": "ENHD",
      "alert": "OK",
      "vis_m": 9999,
      "fzfg": false,
      "metar_trigger": false,
      "taf_trigger": false,
      "metar": "METAR ENHD 062120Z 09008KT CAVOK M05/M09 Q1009",
      "taf": "TAF ENHD 061400Z 0615/0623 09008KT 9999 FEW040"
    },
    {
      "icao": "ENTC",
      "alert": "OK",
      "vis_m": 9999,
      "fzfg": false,
      "metar_trigger": false,
      "taf_trigger": false,
      "metar": "METAR ENTC 062120Z 08002KT CAVOK M14/M17 Q1022 NOSIG RMK WIND 2600FT 17016KT",
      "taf": "TAF ENTC 061700Z 0618/0718 VRB03KT CAVOK"
    },
    {
      "icao": "ENTO",
      "alert": "OK",
      "vis_m": 9999,
      "fzfg": false,
      "metar_trigger": false,
      "taf_trigger": false,
      "metar": "METAR ENTO 062120Z AUTO 36007KT 9999 UP NCD M11/M13 Q1012",
      "taf": "TAF ENTO 061700Z 0618/0718 36008KT 9999 BKN025"
    },
    {
      "icao": "ENVA",
      "alert": "OK",
      "vis_m": 9999,
      "fzfg": false,
      "metar_trigger": false,
      "taf_trigger": false,
      "metar": "METAR ENVA 062120Z 14008KT CAVOK M16/M18 Q1016 RMK WIND 670FT 11007KT",
      "taf": "TAF ENVA 061700Z 0618/0718 11008KT CAVOK"
    },
    {
      "icao": "ENZV",
      "alert": "OK",
      "vis_m": 9999,
      "fzfg": false,
      "metar_trigger": false,
      "taf_trigger": false,
      "metar": "METAR ENZV 062120Z 00000KT 9999 FEW040 M08/M10 Q1008",
      "taf": "TAF ENZV 061700Z 0618/0718 13005KT 9999 FEW035"
    },
    {
      "icao": "EPGD",
      "alert": "OK",
      "vis_m": 9999,
      "fzfg": false,
      "metar_trigger": false,
      "taf_trigger": false,
      "metar": "METAR EPGD 062100Z VRB02KT CAVOK M07/M08 Q1013",
      "taf": "TAF EPGD 061730Z 0618/0718 24005KT CAVOK"
    },
    {
      "icao": "EPKK",
      "alert": "OK",
      "vis_m": 6000,
      "fzfg": false,
      "metar_trigger": false,
      "taf_trigger": false,
      "metar": "METAR EPKK 062100Z 22002KT 6000 NSC M04/M06 Q1015",
      "taf": "TAF EPKK 062030Z 0621/0721 VRB02KT 6000 BKN026"
    },
    {
      "icao": "EPKT",
      "alert": "OK",
      "vis_m": 7000,
      "fzfg": false,
      "metar_trigger": false,
      "taf_trigger": false,
      "metar": "METAR EPKT 062100Z VRB01KT 7000 NSC M07/M09 Q1015",
      "taf": "TAF EPKT 061730Z 0618/0718 32004KT CAVOK"
    },
    {
      "icao": "EPLB",
      "alert": "OK",
      "vis_m": 1900,
      "fzfg": false,
      "metar_trigger": false,
      "taf_trigger": false,
      "metar": "METAR EPLB 062100Z 30006KT 1900 -SN BR SCT016 OVC020 M05/M06 Q1015",
      "taf": ""
    },
    {
      "icao": "EPMO",
      "alert": "OK",
      "vis_m": 1700,
      "fzfg": false,
      "metar_trigger": false,
      "taf_trigger": false,
      "metar": "METAR EPMO 062100Z 23004KT 1700 MIFG BR NSC M09/M09 Q1016",
      "taf": "TAF EPMO 061730Z 0618/0718 24003KT 1800 BR NSC"
    },
    {
      "icao": "EPPO",
      "alert": "OK",
      "vis_m": 9999,
      "fzfg": false,
      "metar_trigger": false,
      "taf_trigger": false,
      "metar": "METAR EPPO 062100Z 29005KT 9999 OVC007 M05/M06 Q1016",
      "taf": "TAF EPPO 061730Z 0618/0718 28003KT 9999 BKN011"
    },
    {
      "icao": "EPRA",
      "alert": "OK",
      "vis_m": 9000,
      "fzfg": false,
      "metar_trigger": false,
      "taf_trigger": false,
      "metar": "METAR EPRA 062100Z 31004KT 9000 NSC M05/M08 Q1015",
      "taf": "TAF EPRA 062030Z 0621/0706 29005KT 8000 NSC"
    },
    {
      "icao": "EPRZ",
      "alert": "OK",
      "vis_m": 2400,
      "fzfg": false,
      "metar_trigger": false,
      "taf_trigger": false,
      "metar": "METAR EPRZ 062100Z 33007KT 2400 SN BKN015 OVC028 M04/M06 Q1014",
      "taf": "TAF EPRZ 061730Z 0618/0718 32005KT CAVOK"
    },
    {
      "icao": "EPSC",
      "alert": "OK",
      "vis_m": 6000,
      "fzfg": false,
      "metar_trigger": false,
      "taf_trigger": false,
      "metar": "METAR EPSC 062100Z 17003KT 140V200 6000 OVC005 M04/M05 Q1015",
      "taf": "TAF EPSC 061730Z 0618/0718 20003KT 9999 OVC010"
    },
    {
      "icao": "EPSY",
      "alert": "OK",
      "vis_m": 4600,
      "fzfg": false,
      "metar_trigger": false,
      "taf_trigger": false,
      "metar": "METAR EPSY 062100Z VRB01KT 4600 BR NSC M12/M14 Q1015",
      "taf": "TAF EPSY 062030Z 0621/0706 20003KT 4000 BR NSC"
    },
    {
      "icao": "EPWA",
      "alert": "OK",
      "vis_m": 4400,
      "fzfg": false,
      "metar_trigger": false,
      "taf_trigger": false,
      "metar": "METAR EPWA 062100Z VRB01KT 4400 BR NSC M08/M09 Q1016 NOSIG",
      "taf": "TAF EPWA 062030Z 0621/0721 30004KT 6000 NSC"
    },
    {
      "icao": "EPWR",
      "alert": "OK",
      "vis_m": 9999,
      "fzfg": false,
      "metar_trigger": false,
      "taf_trigger": false,
      "metar": "METAR EPWR 062100Z 23006KT 9999 BKN025 M04/M08 Q1017",
      "taf": "TAF EPWR 062030Z 0621/0721 24003KT 9999 BKN030"
    },
    {
      "icao": "ESGG",
      "alert": "OK",
      "vis_m": 9999,
      "fzfg": false,
      "metar_trigger": false,
      "taf_trigger": false,
      "metar": "METAR ESGG 062120Z 12004KT 9999 BKN038 OVC051 M08/M09 Q1010",
      "taf": "TAF ESGG 062030Z 0621/0721 12003KT 9999 BKN004"
    },
    {
      "icao": "ESKN",
      "alert": "OK",
      "vis_m": 9999,
      "fzfg": false,
      "metar_trigger": false,
      "taf_trigger": false,
      "metar": "METAR ESKN 062120Z 27012KT 9999 BKN006 M06/M07 Q1010",
      "taf": "TAF ESKN 062030Z 0621/0721 28008KT 9999 SCT005 BKN015"
    },
    {
      "icao": "ESMS",
      "alert": "OK",
      "vis_m": 5000,
      "fzfg": false,
      "metar_trigger": false,
      "taf_trigger": false,
      "metar": "METAR ESMS 062120Z 10002KT 5000 BR BKN024 BKN032 M06/M06 Q1012",
      "taf": "TAF ESMS 062027Z 0621/0721 VRB03KT 5000 BKN020"
    },
    {
      "icao": "ESSA",
      "alert": "OK",
      "vis_m": 9999,
      "fzfg": false,
      "metar_trigger": false,
      "taf_trigger": false,
      "metar": "METAR ESSA 062120Z 34003KT 320V020 9999 BKN005 M02/M02 Q1008 TEMPO BKN005",
      "taf": "TAF ESSA 062030Z 0621/0721 25003KT 9999 BKN015"
    },
    {
      "icao": "EYKA",
      "alert": "OK",
      "vis_m": 6000,
      "fzfg": false,
      "metar_trigger": false,
      "taf_trigger": false,
      "metar": "METAR EYKA 062120Z 24005KT 6000 OVC006 M05/M06 Q1014",
      "taf": "TAF EYKA 061714Z 0618/0718 VRB04KT 5000 BR OVC010"
    },
    {
      "icao": "EYPA",
      "alert": "OK",
      "vis_m": 9000,
      "fzfg": false,
      "metar_trigger": false,
      "taf_trigger": false,
      "metar": "METAR EYPA 062120Z 16007KT 130V200 9000 -SHSN FEW003 SCT022CB M08/M09 Q1012",
      "taf": "TAF EYPA 061710Z 0618/0718 15010KT 5000 BR SCT005 BKN020"
    },
    {
      "icao": "EYVI",
      "alert": "OK",
      "vis_m": 9000,
      "fzfg": false,
      "metar_trigger": false,
      "taf_trigger": false,
      "metar": "METAR EYVI 062120Z 25005KT 220V290 9000 OVC004 M05/M06 Q1012 NOSIG",
      "taf": ""
    },
    {
      "icao": "GCFV",
      "alert": "OK",
      "vis_m": 9999,
      "fzfg": false,
      "metar_trigger": false,
      "taf_trigger": false,
      "metar": "METAR GCFV 062100Z 01021KT 9999 SCT038 17/08 Q1024",
      "taf": "TAF GCFV 062000Z 0621/0721 02020KT 9999 SCT035 TX20/0714Z TN14/0706Z"
    },
    {
      "icao": "GCLP",
      "alert": "OK",
      "vis_m": 9999,
      "fzfg": false,
      "metar_trigger": false,
      "taf_trigger": false,
      "metar": "METAR GCLP 062100Z 03022KT 9999 SCT035 BKN050 17/10 Q1025 NOSIG",
      "taf": "TAF GCLP 062000Z 0621/0721 02020KT 9999 SCT035 BKN050 TX18/0714Z TN15/0706Z"
    },
    {
      "icao": "GCTS",
      "alert": "OK",
      "vis_m": 9999,
      "fzfg": false,
      "metar_trigger": false,
      "taf_trigger": false,
      "metar": "METAR GCTS 062100Z 04015KT 9999 FEW030 16/10 Q1025 NOSIG",
      "taf": "TAF GCTS 062000Z 0621/0721 05015KT 9999 SCT035 TX22/0714Z TN15/0706Z"
    },
    {
      "icao": "GMAD",
      "alert": "OK",
      "vis_m": 9999,
      "fzfg": false,
      "metar_trigger": false,
      "taf_trigger": false,
      "metar": "METAR GMAD 062100Z 00000KT CAVOK 13/M00 Q1018 NOSIG",
      "taf": "TAF GMAD 061700Z 0618/0724 20008KT 6000 SCT016"
    },
    {
      "icao": "GMMN",
      "alert": "OK",
      "vis_m": 9999,
      "fzfg": false,
      "metar_trigger": false,
      "taf_trigger": false,
      "metar": "METAR GMMN 062100Z 23003KT 9999 SCT030 06/03 Q1025 NOSIG",
      "taf": "TAF GMMN 061700Z 0618/0724 36006KT 9999 BKN030"
    },
    {
      "icao": "GMMX",
      "alert": "OK",
      "vis_m": 9999,
      "fzfg": false,
      "metar_trigger": false,
      "taf_trigger": false,
      "metar": "METAR GMMX 062100Z 05004KT CAVOK 08/05 Q1024 NOSIG",
      "taf": "TAF GMMX 061700Z 0618/0724 22004KT 8000 BKN023"
    },
    {
      "icao": "HEGN",
      "alert": "OK",
      "vis_m": 9999,
      "fzfg": false,
      "metar_trigger": false,
      "taf_trigger": false,
      "metar": "METAR HEGN 062100Z 29004KT CAVOK 17/07 Q1020 NOSIG",
      "taf": "TAF HEGN 061700Z 0618/0724 33012KT CAVOK"
    },
    {
      "icao": "HEMA",
      "alert": "OK",
      "vis_m": 6000,
      "fzfg": false,
      "metar_trigger": false,
      "taf_trigger": false,
      "metar": "METAR HEMA 062100Z 28008KT 6000 NSC 18/08 Q1019 NOSIG",
      "taf": "TAF HEMA 061700Z 0618/0724 33013KT 6000 NSC"
    },
    {
      "icao": "HESH",
      "alert": "OK",
      "vis_m": 9999,
      "fzfg": false,
      "metar_trigger": false,
      "taf_trigger": false,
      "metar": "METAR HESH 062100Z 34007KT CAVOK 21/12 Q1020 NOSIG",
      "taf": "TAF HESH 061700Z 0618/0724 36011KT CAVOK"
    },
    {
      "icao": "HESX",
      "alert": "OK",
      "vis_m": 6000,
      "fzfg": false,
      "metar_trigger": false,
      "taf_trigger": false,
      "metar": "METAR HESX 062100Z 07009KT 6000 NSC 13/06 Q1021 NOSIG",
      "taf": "TAF HESX 061700Z 0618/0724 VRB03KT 6000 NSC"
    },
    {
      "icao": "LATI",
      "alert": "OK",
      "vis_m": 9999,
      "fzfg": false,
      "metar_trigger": false,
      "taf_trigger": false,
      "metar": "METAR LATI 062120Z 15008KT 9999 BKN130 14/08 Q1006 NOSIG",
      "taf": "TAF LATI 061700Z 0618/0718 16010KT 9999 SCT030 OVC060 TX15/0712Z TN12/0704Z"
    },
    {
      "icao": "LBPD",
      "alert": "OK",
      "vis_m": 9999,
      "fzfg": false,
      "metar_trigger": false,
      "taf_trigger": false,
      "metar": "METAR LBPD 062100Z AUTO 09004KT 040V170 9999 FEW064/// BKN130/// 09/09 Q1009",
      "taf": "TAF LBPD 061700Z 0618/0718 VRB03KT 9999 BKN060"
    },
    {
      "icao": "LBSF",
      "alert": "OK",
      "vis_m": 9999,
      "fzfg": false,
      "metar_trigger": false,
      "taf_trigger": false,
      "metar": "METAR LBSF 062100Z AUTO 34003KT 310V030 9999 SCT038/// 08/07 Q1008 NOSIG",
      "taf": "TAF LBSF 061700Z 0618/0718 03008KT 9999 SCT040 BKN060"
    },
    {
      "icao": "LBWN",
      "alert": "OK",
      "vis_m": 9999,
      "fzfg": false,
      "metar_trigger": false,
      "taf_trigger": false,
      "metar": "METAR LBWN 062100Z AUTO 15005KT 9999 NSC 13/09 Q1011 NOSIG",
      "taf": "TAF LBWN 061700Z 0618/0718 19010KT 9999 SCT015 SCT030"
    },
    {
      "icao": "LCLK",
      "alert": "OK",
      "vis_m": 9999,
      "fzfg": false,
      "metar_trigger": false,
      "taf_trigger": false,
      "metar": "METAR LCLK 062100Z 31007KT CAVOK 13/10 Q1022 NOSIG",
      "taf": "TAF LCLK 061730Z 0618/0718 04010KT 9999 FEW035"
    },
    {
      "icao": "LCPH",
      "alert": "OK",
      "vis_m": 9999,
      "fzfg": false,
      "metar_trigger": false,
      "taf_trigger": false,
      "metar": "METAR LCPH 062100Z 02006KT 010V080 9999 FEW040 14/10 Q1021 NOSIG",
      "taf": "TAF LCPH 061730Z 0618/0718 12010KT 9999 FEW030"
    },
    {
      "icao": "LEAL",
      "alert": "OK",
      "vis_m": 9999,
      "fzfg": false,
      "metar_trigger": false,
      "taf_trigger": false,
      "metar": "METAR LEAL 062100Z 29006KT 9999 FEW025 05/00 Q1017 NOSIG",
      "taf": "TAF LEAL 061700Z 0618/0718 VRB03KT 9999 FEW030 TX13/0714Z TN04/0706Z"
    },
    {
      "icao": "LEBB",
      "alert": "OK",
      "vis_m": 9999,
      "fzfg": false,
      "metar_trigger": false,
      "taf_trigger": false,
      "metar": "METAR LEBB 062100Z 09004KT 020V120 CAVOK 02/02 Q1022 NOSIG",
      "taf": "TAF LEBB 061700Z 0618/0718 15006KT 9999 SCT020 BKN040 TX11/0714Z TN01/0619Z"
    },
    {
      "icao": "LEBL",
      "alert": "OK",
      "vis_m": 9999,
      "fzfg": false,
      "metar_trigger": false,
      "taf_trigger": false,
      "metar": "METAR LEBL 062100Z 32012KT CAVOK 04/M02 Q1015 NOSIG",
      "taf": "TAF LEBL 061700Z 0618/0718 34013KT CAVOK TX10/0713Z TN01/0706Z"
    },
    {
      "icao": "LECH",
      "alert": "OK",
      "vis_m": 9999,
      "fzfg": false,
      "metar_trigger": false,
      "taf_trigger": false,
      "metar": "METAR LECH 062100Z AUTO 33019G34KT 270V360 CAVOK 05/M08 Q1015",
      "taf": ""
    },
    {
      "icao": "LEMD",
      "alert": "OK",
      "vis_m": 9999,
      "fzfg": false,
      "metar_trigger": false,
      "taf_trigger": false,
      "metar": "METAR LEMD 062100Z 35007KT CAVOK 01/M08 Q1020 NOSIG",
      "taf": ""
    },
    {
      "icao": "LEMG",
      "alert": "OK",
      "vis_m": 9999,
      "fzfg": false,
      "metar_trigger": false,
      "taf_trigger": false,
      "metar": "METAR LEMG 062100Z 28013KT CAVOK 07/M04 Q1021 NOSIG",
      "taf": "TAF LEMG 061700Z 0618/0718 30012KT CAVOK TX13/0714Z TN04/0706Z"
    },
    {
      "icao": "LEVC",
      "alert": "OK",
      "vis_m": 9999,
      "fzfg": false,
      "metar_trigger": false,
      "taf_trigger": false,
      "metar": "METAR LEVC 062100Z 34018KT CAVOK 08/M08 Q1017 NOSIG",
      "taf": "TAF LEVC 061700Z 0618/0718 31008KT CAVOK TX13/0714Z TNM01/0706Z"
    },
    {
      "icao": "LEXJ",
      "alert": "OK",
      "vis_m": 9999,
      "fzfg": false,
      "metar_trigger": false,
      "taf_trigger": false,
      "metar": "METAR LEXJ 062100Z 24006KT 9999 -RA BKN050 OVC065 05/02 Q1022",
      "taf": "TAF LEXJ 062000Z 0621/0721 22009KT 9999 SCT040 BKN070 TX12/0713Z TN04/0621Z"
    },
    {
      "icao": "LEZG",
      "alert": "OK",
      "vis_m": 9999,
      "fzfg": false,
      "metar_trigger": false,
      "taf_trigger": false,
      "metar": "METAR LEZG 062100Z 29022KT CAVOK 02/M03 Q1019 NOSIG",
      "taf": "TAF LEZG 061700Z 0618/0718 32020KT 9999 FEW030 TX09/0715Z TN00/0706Z"
    },
    {
      "icao": "LEZL",
      "alert": "OK",
      "vis_m": 9999,
      "fzfg": false,
      "metar_trigger": false,
      "taf_trigger": false,
      "metar": "METAR LEZL 062100Z 32006KT 290V350 CAVOK 06/01 Q1023 NOSIG",
      "taf": "TAF LEZL 062000Z 0621/0721 33004KT CAVOK TX12/0715Z TN00/0707Z"
    },
    {
      "icao": "LFBD",
      "alert": "OK",
      "vis_m": 8000,
      "fzfg": false,
      "metar_trigger": false,
      "taf_trigger": false,
      "metar": "METAR LFBD 062100Z AUTO 10003KT 8000 NSC M04/M05 Q1022 NOSIG",
      "taf": "TAF LFBD 061700Z 0618/0724 35004KT CAVOK TX10/0800Z TNM03/0700Z"
    },
    {
      "icao": "LFLL",
      "alert": "OK",
      "vis_m": 9999,
      "fzfg": false,
      "metar_trigger": false,
      "taf_trigger": false,
      "metar": "METAR LFLL 062100Z 35013KT 9999 SCT019 OVC028 M02/M05 Q1018 NOSIG",
      "taf": ""
    },
    {
      "icao": "LFLS",
      "alert": "OK",
      "vis_m": 9999,
      "fzfg": false,
      "metar_trigger": false,
      "taf_trigger": false,
      "metar": "METAR LFLS 062100Z AUTO 34015KT 9999 FEW015 OVC037 M04/M06 Q1016",
      "taf": "TAF LFLS 061400Z 0615/0715 36010KT 9999 BKN007"
    },
    {
      "icao": "LFMN",
      "alert": "OK",
      "vis_m": 9999,
      "fzfg": false,
      "metar_trigger": false,
      "taf_trigger": false,
      "metar": "METAR LFMN 062100Z 32012KT 9999 FEW040CB SCT050 05/M01 Q1006 TEMPO SHRA",
      "taf": "TAF LFMN 062000Z 0621/0803 34015KT 9999 FEW030TCU SCT040"
    },
    {
      "icao": "LFOB",
      "alert": "OK",
      "vis_m": 9999,
      "fzfg": false,
      "metar_trigger": false,
      "taf_trigger": false,
      "metar": "METAR LFOB 062100Z AUTO 20005KT 180V240 9999 OVC046 00/M02 Q1017 TEMPO 2000 SN BKN008",
      "taf": "TAF LFOB 061700Z 0618/0718 23007KT 6000 NSC"
    },
    {
      "icao": "LFPO",
      "alert": "OK",
      "vis_m": 3800,
      "fzfg": false,
      "metar_trigger": false,
      "taf_trigger": false,
      "metar": "METAR LFPO 062100Z AUTO 21006KT 3800 BR OVC002 M03/M03 Q1019",
      "taf": "TAF LFPO 061700Z 0618/0724 19005KT 8000 FEW030"
    },
    {
      "icao": "LFSB",
      "alert": "OK",
      "vis_m": 9999,
      "fzfg": false,
      "metar_trigger": false,
      "taf_trigger": false,
      "metar": "METAR LFSB 062100Z AUTO 33002KT 9999 OVC026 M03/M05 Q1019 TEMPO BKN011",
      "taf": "TAF LFSB 061700Z 0618/0718 27004KT 9999 BKN025"
    },
    {
      "icao": "LGAV",
      "alert": "OK",
      "vis_m": 9999,
      "fzfg": false,
      "metar_trigger": false,
      "taf_trigger": false,
      "metar": "METAR LGAV 062120Z 04004KT 340V060 9999 DZ FEW020 SCT030 15/12 Q1013 NOSIG",
      "taf": "TAF LGAV 061700Z 0618/0718 18012KT 9999 FEW018 SCT030"
    },
    {
      "icao": "LGTS",
      "alert": "OK",
      "vis_m": 9999,
      "fzfg": false,
      "metar_trigger": false,
      "taf_trigger": false,
      "metar": "METAR LGTS 062120Z VRB03KT 9999 FEW020 11/11 Q1010 NOSIG",
      "taf": "TAF LGTS 061700Z 0618/0718 16013KT 9999 SCT030"
    },
    {
      "icao": "LHBP",
      "alert": "OK",
      "vis_m": 1300,
      "fzfg": false,
      "metar_trigger": false,
      "taf_trigger": false,
      "metar": "METAR LHBP 062100Z 31005KT 1300 R31L/P2000N R31R/P2000N +SN VV012 M02/M03 Q1012 TEMPO 0500 +SN VV003",
      "taf": "TAF LHBP 061715Z 0618/0718 32007KT 5000 -SN BKN018 OVC050"
    },
    {
      "icao": "LHDC",
      "alert": "OK",
      "vis_m": 4700,
      "fzfg": false,
      "metar_trigger": false,
      "taf_trigger": false,
      "metar": "METAR LHDC 062045Z AUTO 02011KT 340V050 4700 -FZDZ BR BKN008 BKN026 M02/M03 Q1010 NOSIG",
      "taf": "TAF LHDC 061415Z 0615/0624 05008KT 9999 SCT012 OVC020"
    },
    {
      "icao": "LIBD",
      "alert": "OK",
      "vis_m": 600,
      "fzfg": false,
      "metar_trigger": false,
      "taf_trigger": false,
      "metar": "METAR LIBD 062120Z 30006KT 260V330 0600 R07/P2000N FG OVC002 11/11 Q1003",
      "taf": ""
    },
    {
      "icao": "LIBG",
      "alert": "OK",
      "vis_m": null,
      "fzfg": false,
      "metar_trigger": false,
      "taf_trigger": false,
      "metar": "",
      "taf": "TAF LIBG 061700Z 0618/0703 15009KT 9999 SCT015"
    },
    {
      "icao": "LIBP",
      "alert": "OK",
      "vis_m": 9999,
      "fzfg": false,
      "metar_trigger": false,
      "taf_trigger": false,
      "metar": "METAR LIBP 062120Z AUTO 26003KT 210V300 9999 -RA OVC031/// 05/03 Q1007",
      "taf": "TAF LIBP 061700Z 0618/0718 31009KT 6000 RA OVC010"
    },
    {
      "icao": "LIBR",
      "alert": "OK",
      "vis_m": 7000,
      "fzfg": false,
      "metar_trigger": false,
      "taf_trigger": false,
      "metar": "METAR LIBR 062120Z 21014KT 7000 FEW010 16/14 Q1003",
      "taf": "TAF LIBR 061700Z 0618/0718 18013KT 9999 BKN015"
    },
    {
      "icao": "LICA",
      "alert": "OK",
      "vis_m": 9999,
      "fzfg": false,
      "metar_trigger": false,
      "taf_trigger": false,
      "metar": "METAR LICA 062120Z AUTO 25010KT 9999 OVC037/// 16/12 Q1007",
      "taf": "TAF LICA 061700Z 0618/0718 07010KT 9999 SCT050"
    },
    {
      "icao": "LICC",
      "alert": "OK",
      "vis_m": 9999,
      "fzfg": false,
      "metar_trigger": false,
      "taf_trigger": false,
      "metar": "METAR LICC 062120Z 25011KT CAVOK 13/10 Q1007",
      "taf": "TAF LICC 061700Z 0618/0718 26013KT 7000 FEW060"
    },
    {
      "icao": "LICJ",
      "alert": "OK",
      "vis_m": 9999,
      "fzfg": false,
      "metar_trigger": false,
      "taf_trigger": false,
      "metar": "METAR LICJ 062120Z 19008KT 9999 FEW035 14/09 Q1007",
      "taf": "TAF LICJ 061700Z 0618/0718 22014KT 9999 SCT030"
    },
    {
      "icao": "LIMC",
      "alert": "OK",
      "vis_m": 9999,
      "fzfg": false,
      "metar_trigger": false,
      "taf_trigger": false,
      "metar": "METAR LIMC 062120Z 04004KT CAVOK M03/M06 Q1011 NOSIG",
      "taf": "TAF LIMC 061700Z 0618/0724 VRB04KT CAVOK"
    },
    {
      "icao": "LIME",
      "alert": "OK",
      "vis_m": 9999,
      "fzfg": false,
      "metar_trigger": false,
      "taf_trigger": false,
      "metar": "METAR LIME 062120Z 02004KT 9999 FEW100 M02/M05 Q1011 NOSIG",
      "taf": "TAF LIME 061700Z 0618/0718 VRB04KT CAVOK"
    },
    {
      "icao": "LIMF",
      "alert": "OK",
      "vis_m": 9999,
      "fzfg": false,
      "metar_trigger": false,
      "taf_trigger": false,
      "metar": "METAR LIMF 062120Z 30005KT CAVOK M02/M09 Q1010",
      "taf": "TAF LIMF 061700Z 0618/0718 VRB03KT CAVOK"
    },
    {
      "icao": "LIMJ",
      "alert": "OK",
      "vis_m": 9999,
      "fzfg": false,
      "metar_trigger": false,
      "taf_trigger": false,
      "metar": "METAR LIMJ 062120Z 06014KT CAVOK 03/M06 Q1008",
      "taf": "TAF LIMJ 061700Z 0618/0718 03015KT CAVOK"
    },
    {
      "icao": "LIPE",
      "alert": "OK",
      "vis_m": 5000,
      "fzfg": false,
      "metar_trigger": false,
      "taf_trigger": false,
      "metar": "METAR LIPE 062120Z 26005KT 5000 BR FEW005 BKN025 01/01 Q1011",
      "taf": ""
    },
    {
      "icao": "LIPH",
      "alert": "OK",
      "vis_m": 9999,
      "fzfg": false,
      "metar_trigger": false,
      "taf_trigger": false,
      "metar": "METAR LIPH 062120Z 30006KT CAVOK 01/M02 Q1011",
      "taf": "TAF LIPH 061700Z 0618/0718 05006KT 9999 SCT070"
    },
    {
      "icao": "LIPQ",
      "alert": "OK",
      "vis_m": 9999,
      "fzfg": false,
      "metar_trigger": false,
      "taf_trigger": false,
      "metar": "METAR LIPQ 062120Z AUTO 11003KT 070V210 9999 SCT083/// OVC180/// 00/M04 Q1010",
      "taf": "TAF LIPQ 061700Z 0618/0718 VRB05KT 9999 SCT030"
    },
    {
      "icao": "LIPR",
      "alert": "OK",
      "vis_m": 4000,
      "fzfg": false,
      "metar_trigger": false,
      "taf_trigger": false,
      "metar": "METAR LIPR 062120Z 29010KT 4000 -RA BKN004 01/00 Q1009",
      "taf": ""
    },
    {
      "icao": "LIPX",
      "alert": "OK",
      "vis_m": 8000,
      "fzfg": false,
      "metar_trigger": false,
      "taf_trigger": false,
      "metar": "METAR LIPX 062120Z 02003KT 8000 NSC M03/M05 Q1011",
      "taf": "TAF LIPX 061700Z 0618/0718 VRB04KT CAVOK"
    },
    {
      "icao": "LIPY",
      "alert": "OK",
      "vis_m": 9999,
      "fzfg": false,
      "metar_trigger": false,
      "taf_trigger": false,
      "metar": "METAR LIPY 062120Z AUTO 36013KT 9999 -RA BKN020/// OVC067/// 05/03 Q1007 REDZ",
      "taf": "TAF LIPY 061700Z 0618/0718 VRB05KT 6000 RA OVC005"
    },
    {
      "icao": "LIPZ",
      "alert": "OK",
      "vis_m": 9999,
      "fzfg": false,
      "metar_trigger": false,
      "taf_trigger": false,
      "metar": "METAR LIPZ 062120Z 34007KT CAVOK 01/M02 Q1011 NOSIG",
      "taf": "TAF LIPZ 061700Z 0618/0724 03010KT 9999 SCT040"
    },
    {
      "icao": "LIRF",
      "alert": "OK",
      "vis_m": 9999,
      "fzfg": false,
      "metar_trigger": false,
      "taf_trigger": false,
      "metar": "METAR LIRF 062120Z 06008KT 9999 SCT030 06/04 Q1004 NOSIG",
      "taf": "TAF LIRF 061700Z 0618/0724 34008KT 9999 SCT020"
    },
    {
      "icao": "LIRN",
      "alert": "OK",
      "vis_m": 8000,
      "fzfg": false,
      "metar_trigger": false,
      "taf_trigger": false,
      "metar": "METAR LIRN 062120Z 26008KT 8000 BKN030 12/10 Q1004 NOSIG",
      "taf": "TAF LIRN 061700Z 0618/0718 21011KT 9999 SCT030"
    },
    {
      "icao": "LIRP",
      "alert": "OK",
      "vis_m": 9999,
      "fzfg": false,
      "metar_trigger": false,
      "taf_trigger": false,
      "metar": "METAR LIRP 062115Z 12010KT 9999 SCT070 04/00 Q1007 NOSIG",
      "taf": "TAF LIRP 061700Z 0618/0718 12008KT 9999 BKN070"
    },
    {
      "icao": "LIRZ",
      "alert": "OK",
      "vis_m": 9999,
      "fzfg": false,
      "metar_trigger": false,
      "taf_trigger": false,
      "metar": "METAR LIRZ 062120Z AUTO 35010KT 9999 OVC050/// 03/00 Q1005",
      "taf": "TAF LIRZ 061700Z 0618/0718 01013KT 8000 BKN020"
    },
    {
      "icao": "LJLJ",
      "alert": "OK",
      "vis_m": 2500,
      "fzfg": false,
      "metar_trigger": false,
      "taf_trigger": false,
      "metar": "METAR LJLJ 062100Z 30002KT 2500 SN BR SCT003 SCT009 OVC020 M04/M05 Q1012 BECMG 3500 -SN BR",
      "taf": "TAF LJLJ 061700Z 0618/0718 13005KT 1500 -SN BKN006 OVC020"
    },
    {
      "icao": "LKMT",
      "alert": "OK",
      "vis_m": 9999,
      "fzfg": false,
      "metar_trigger": false,
      "taf_trigger": false,
      "metar": "METAR LKMT 062100Z 04004KT CAVOK M06/M08 Q1015 NOSIG",
      "taf": "TAF LKMT 061700Z 0618/0718 VRB02KT CAVOK"
    },
    {
      "icao": "LKPR",
      "alert": "OK",
      "vis_m": 9999,
      "fzfg": false,
      "metar_trigger": false,
      "taf_trigger": false,
      "metar": "METAR LKPR 062100Z VRB02KT 9999 BKN032 M06/M09 Q1016 NOSIG",
      "taf": "TAF LKPR 062000Z 0621/0803 24005KT 9999 BKN025"
    },
    {
      "icao": "LLBG",
      "alert": "OK",
      "vis_m": 9000,
      "fzfg": false,
      "metar_trigger": false,
      "taf_trigger": false,
      "metar": "METAR LLBG 062120Z VRB01KT 9000 NSC 13/10 Q1021 NOSIG",
      "taf": "TAF LLBG 061704Z 0618/0718 VRB03KT CAVOK"
    },
    {
      "icao": "LMML",
      "alert": "OK",
      "vis_m": 9000,
      "fzfg": false,
      "metar_trigger": false,
      "taf_trigger": false,
      "metar": "METAR LMML 062115Z 28004KT 9000 NSC 13/12 Q1009 NOSIG",
      "taf": "TAF LMML 061700Z 0618/0718 23015KT 8000 FEW015"
    },
    {
      "icao": "LOWW",
      "alert": "OK",
      "vis_m": 9999,
      "fzfg": false,
      "metar_trigger": false,
      "taf_trigger": false,
      "metar": "METAR LOWW 062120Z 33012KT CAVOK M03/M09 Q1015 NOSIG",
      "taf": "TAF LOWW 062015Z 0621/0803 32012KT 9999 FEW050 TXM02/0712Z TNM05/0803Z"
    },
    {
      "icao": "LPFR",
      "alert": "OK",
      "vis_m": 9999,
      "fzfg": false,
      "metar_trigger": false,
      "taf_trigger": false,
      "metar": "METAR LPFR 062100Z 33005KT CAVOK 07/01 Q1025",
      "taf": "TAF LPFR 061700Z 0618/0718 34008KT CAVOK"
    },
    {
      "icao": "LPMA",
      "alert": "OK",
      "vis_m": 9999,
      "fzfg": false,
      "metar_trigger": false,
      "taf_trigger": false,
      "metar": "METAR LPMA 062100Z 02014KT 340V060 9999 SCT015 15/08 Q1029",
      "taf": "TAF LPMA 061700Z 0618/0718 02015KT 9999 SCT015"
    },
    {
      "icao": "LPPR",
      "alert": "OK",
      "vis_m": 9999,
      "fzfg": false,
      "metar_trigger": false,
      "taf_trigger": false,
      "metar": "METAR LPPR 062100Z VRB02KT 9999 FEW040 08/03 Q1024",
      "taf": "TAF LPPR 061700Z 0618/0718 34008KT 9999 SCT040"
    },
    {
      "icao": "LPPS",
      "alert": "OK",
      "vis_m": 9999,
      "fzfg": false,
      "metar_trigger": false,
      "taf_trigger": false,
      "metar": "METAR LPPS 062100Z 05010KT 020V100 9999 SCT015 14/07 Q1030",
      "taf": "TAF LPPS 061700Z 0618/0724 03013KT 9999 SCT015"
    },
    {
      "icao": "LPPT",
      "alert": "OK",
      "vis_m": 9999,
      "fzfg": false,
      "metar_trigger": false,
      "taf_trigger": false,
      "metar": "METAR LPPT 062100Z 35010KT 9999 BKN038 09/04 Q1025",
      "taf": "TAF LPPT 061700Z 0618/0724 34015KT CAVOK"
    },
    {
      "icao": "LQBK",
      "alert": "OK",
      "vis_m": 1200,
      "fzfg": false,
      "metar_trigger": false,
      "taf_trigger": false,
      "metar": "METAR LQBK 062100Z 29006KT 1200 R16/1200D SN BR OVC004 M04/M04 Q1013 NOSIG",
      "taf": ""
    },
    {
      "icao": "LQSA",
      "alert": "OK",
      "vis_m": 6000,
      "fzfg": false,
      "metar_trigger": false,
      "taf_trigger": false,
      "metar": "METAR LQSA 062100Z 30009KT 6000 -FZRA OVC013 M02/M03 Q1007 NOSIG",
      "taf": "TAF LQSA 061700Z 0618/0718 29005KT 7000 SCT010 OVC030 TXM01/0618Z TNM06/0705Z"
    },
    {
      "icao": "LQTZ",
      "alert": "OK",
      "vis_m": 7000,
      "fzfg": false,
      "metar_trigger": false,
      "taf_trigger": false,
      "metar": "METAR LQTZ 062100Z 29006KT 7000 -SN BKN007 OVC015 M03/M03 Q1011",
      "taf": ""
    },
    {
      "icao": "LRBC",
      "alert": "OK",
      "vis_m": 9999,
      "fzfg": false,
      "metar_trigger": false,
      "taf_trigger": false,
      "metar": "METAR LRBC 062100Z 36008KT 9999 OVC011 01/01 Q1012",
      "taf": "TAF LRBC 062000Z 0621/0706 01010KT 9999 OVC010"
    },
    {
      "icao": "LRBS",
      "alert": "OK",
      "vis_m": 5000,
      "fzfg": false,
      "metar_trigger": false,
      "taf_trigger": false,
      "metar": "METAR LRBS 062100Z VRB01KT 5000 -DZ BR FEW005 04/03 Q1010 BECMG 3000 -DZ BR BKN005",
      "taf": "TAF LRBS 061700Z 0618/0718 VRB04KT 5000 BR SCT005"
    },
    {
      "icao": "LRBV",
      "alert": "OK",
      "vis_m": 7000,
      "fzfg": false,
      "metar_trigger": false,
      "taf_trigger": false,
      "metar": "METAR LRBV 062100Z 15005KT 7000 FEW003 SCT045 BKN083 02/01 Q1008",
      "taf": "TAF LRBV 062000Z 0621/0706 10007KT 5000 BR SCT035 BKN060"
    },
    {
      "icao": "LRCL",
      "alert": "OK",
      "vis_m": 400,
      "fzfg": false,
      "metar_trigger": false,
      "taf_trigger": false,
      "metar": "METAR LRCL 062100Z 04003KT 0400 R25/0600N FG VV002 01/00 Q1009",
      "taf": "TAF LRCL 062000Z 0621/0706 VRB04KT 0300 FG OVC001"
    },
    {
      "icao": "LRCV",
      "alert": "OK",
      "vis_m": 200,
      "fzfg": false,
      "metar_trigger": false,
      "taf_trigger": false,
      "metar": "METAR LRCV 062100Z 26001KT 0200 R26/0350N FG VV002 02/02 Q1009",
      "taf": "TAF LRCV 062000Z 0621/0706 VRB04KT 0300 FG OVC002"
    },
    {
      "icao": "LRIA",
      "alert": "OK",
      "vis_m": 200,
      "fzfg": false,
      "metar_trigger": false,
      "taf_trigger": false,
      "metar": "METAR LRIA 062100Z 30005KT 0200 R14/0750N FG VV001 01/01 Q1012",
      "taf": "TAF LRIA 062000Z 0621/0706 31007KT 0300 FG OVC001"
    },
    {
      "icao": "LROP",
      "alert": "OK",
      "vis_m": 5000,
      "fzfg": false,
      "metar_trigger": false,
      "taf_trigger": false,
      "metar": "METAR LROP 062100Z VRB02KT 5000 -DZ BR SCT010 SCT047 04/04 Q1010 BECMG 3000 -DZ BR BKN005",
      "taf": "TAF LROP 061700Z 0618/0718 VRB04KT 5000 BR SCT005"
    },
    {
      "icao": "LRSB",
      "alert": "OK",
      "vis_m": 3500,
      "fzfg": false,
      "metar_trigger": false,
      "taf_trigger": false,
      "metar": "METAR LRSB 062100Z 32002KT 3500 BR SCT001 OVC006 01/01 Q1008",
      "taf": "TAF LRSB 061700Z 0618/0718 VRB04KT 5000 BR BKN005 OVC015"
    },
    {
      "icao": "LRSM",
      "alert": "OK",
      "vis_m": 2900,
      "fzfg": false,
      "metar_trigger": false,
      "taf_trigger": false,
      "metar": "METAR LRSM 062100Z AUTO 00000KT 2900 SCT001/// BKN005/// BKN008/// M00/M01 Q1010 REFZRA",
      "taf": ""
    },
    {
      "icao": "LRSV",
      "alert": "OK",
      "vis_m": 5000,
      "fzfg": false,
      "metar_trigger": false,
      "taf_trigger": false,
      "metar": "METAR LRSV 062100Z 33008KT 5000 BR OVC006 M01/M02 Q1011",
      "taf": "TAF LRSV 062000Z 0621/0706 33008KT 5000 BR OVC010"
    },
    {
      "icao": "LRTM",
      "alert": "OK",
      "vis_m": 550,
      "fzfg": false,
      "metar_trigger": false,
      "taf_trigger": false,
      "metar": "METAR LRTM 062100Z AUTO 25001KT 0550 R07/0650N FG VV001 01/00 Q1009",
      "taf": "TAF LRTM 061400Z 0615/0624 VRB04KT 1500 BR BKN010 BKN035"
    },
    {
      "icao": "LRTR",
      "alert": "OK",
      "vis_m": 1500,
      "fzfg": false,
      "metar_trigger": false,
      "taf_trigger": false,
      "metar": "METAR LRTR 062100Z 25003KT 1500 -FZDZ BR OVC002 M00/M00 Q1010",
      "taf": "TAF LRTR 061700Z 0618/0718 VRB04KT 3000 BR BKN005 OVC010"
    },
    {
      "icao": "LTAC",
      "alert": "OK",
      "vis_m": 4800,
      "fzfg": false,
      "metar_trigger": false,
      "taf_trigger": false,
      "metar": "METAR LTAC 062120Z VRB01KT 4800 BR NSC 01/M00 Q1021 NOSIG RMK RWY21C 00000KT RWY03L 00000KT RWY21R 00000KT RWY03R 00000KT RWY21L VRB01KT",
      "taf": "TAF LTAC 061640Z 0618/0718 VRB02KT 7000 SCT040 SCT100"
    },
    {
      "icao": "LTFM",
      "alert": "OK",
      "vis_m": 9999,
      "fzfg": false,
      "metar_trigger": false,
      "taf_trigger": false,
      "metar": "METAR LTFM 062120Z 19010KT 9999 FEW040 BKN100 13/08 Q1013 NOSIG RMK RWY17L 19010KT RWY34L 19009KT RWY16R 18012KT RWY36 19010KT RWY18 19012KT",
      "taf": "TAF LTFM 061640Z 0618/0724 17012KT 9999 SCT040 BKN100"
    },
    {
      "icao": "LUKK",
      "alert": "OK",
      "vis_m": 900,
      "fzfg": false,
      "metar_trigger": false,
      "taf_trigger": false,
      "metar": "METAR LUKK 062100Z VRB01KT 0900 0800SW R08/1000N FG VV002 03/03 Q1012 NOSIG",
      "taf": "TAF LUKK 061721Z 0618/0718 VRB05KT 0300 FG VV001"
    },
    {
      "icao": "LWOH",
      "alert": "OK",
      "vis_m": null,
      "fzfg": false,
      "metar_trigger": false,
      "taf_trigger": false,
      "metar": "",
      "taf": "TAF LWOH 062015Z 0621/0721 14015KT 9999 RA SCT015 OVC035"
    },
    {
      "icao": "LWSK",
      "alert": "OK",
      "vis_m": 8000,
      "fzfg": false,
      "metar_trigger": false,
      "taf_trigger": false,
      "metar": "METAR LWSK 062120Z VRB02KT 8000 BKN013 OVC040 09/08 Q1009 NOSIG",
      "taf": "TAF LWSK 062015Z 0621/0721 VRB02KT 9999 SCT015 OVC040"
    },
    {
      "icao": "LYBE",
      "alert": "OK",
      "vis_m": 2500,
      "fzfg": false,
      "metar_trigger": false,
      "taf_trigger": false,
      "metar": "METAR LYBE 062100Z 00000KT 2500 BR OVC003 M02/M02 Q1011 NOSIG",
      "taf": "TAF LYBE 061700Z 0618/0718 32007KT 5000 BR BKN010 BKN025 TXM01/0713Z TNM03/0706Z"
    },
    {
      "icao": "LYNI",
      "alert": "OK",
      "vis_m": 8000,
      "fzfg": false,
      "metar_trigger": false,
      "taf_trigger": false,
      "metar": "METAR LYNI 062100Z 32006KT 290V350 8000 -RA SCT004 BKN030 OVC070 01/01 Q1009 NOSIG",
      "taf": "TAF LYNI 061700Z 0618/0718 33010KT 9999 BKN010 BKN030 BKN070 TX01/0618Z TNM02/0706Z"
    },
    {
      "icao": "LYPG",
      "alert": "OK",
      "vis_m": 7000,
      "fzfg": false,
      "metar_trigger": false,
      "taf_trigger": false,
      "metar": "METAR LYPG 062100Z 13016KT 7000 RA FEW020 SCT040 BKN070 14/12 Q1002 TEMPO 5000",
      "taf": "TAF LYPG 061700Z 0618/0718 18005KT 7000 RA FEW010 BKN030 OVC070 TX13/0700Z TN09/0718Z"
    },
    {
      "icao": "LZIB",
      "alert": "OK",
      "vis_m": 9999,
      "fzfg": false,
      "metar_trigger": false,
      "taf_trigger": false,
      "metar": "METAR LZIB 062100Z 33008KT CAVOK M02/M09 Q1014 NOSIG",
      "taf": "TAF LZIB 061715Z 0618/0718 33009KT 9999 FEW020"
    },
    {
      "icao": "LZKZ",
      "alert": "OK",
      "vis_m": 4000,
      "fzfg": false,
      "metar_trigger": false,
      "taf_trigger": false,
      "metar": "METAR LZKZ 062100Z 36022KT 4000 -SN BLSN OVC044 M03/M06 Q1012 NOSIG",
      "taf": "TAF LZKZ 061715Z 0618/0718 03015KT 9999 BKN040"
    },
    {
      "icao": "LZTT",
      "alert": "OK",
      "vis_m": 2000,
      "fzfg": false,
      "metar_trigger": false,
      "taf_trigger": false,
      "metar": "METAR LZTT 062100Z 07009KT 2000 -SN BKN005 OVC016 M07/M08 Q1010",
      "taf": "TAF LZTT 061715Z 0618/0718 08008KT 9999 SCT016 BKN040"
    },
    {
      "icao": "OEJN",
      "alert": "OK",
      "vis_m": 9999,
      "fzfg": false,
      "metar_trigger": false,
      "taf_trigger": false,
      "metar": "METAR OEJN 062100Z 36004KT CAVOK 25/14 Q1016 NOSIG",
      "taf": "TAF OEJN 061700Z 0618/0724 02006KT 7000 FEW040"
    },
    {
      "icao": "OEMA",
      "alert": "OK",
      "vis_m": 9999,
      "fzfg": false,
      "metar_trigger": false,
      "taf_trigger": false,
      "metar": "METAR OEMA 062100Z 04005KT CAVOK 21/00 Q1023 NOSIG",
      "taf": "TAF OEMA 061700Z 0618/0724 09010KT 7000 NSC"
    },
    {
      "icao": "OJAI",
      "alert": "OK",
      "vis_m": 5000,
      "fzfg": false,
      "metar_trigger": false,
      "taf_trigger": false,
      "metar": "METAR OJAI 062100Z 05006KT 5000 HZ NSC 09/M01 Q1024 NOSIG",
      "taf": "TAF OJAI 061643Z 0618/0724 11008KT 5000 HZ NSC"
    },
    {
      "icao": "OMAA",
      "alert": "OK",
      "vis_m": 9999,
      "fzfg": false,
      "metar_trigger": false,
      "taf_trigger": false,
      "metar": "METAR OMAA 062100Z 32003KT CAVOK 20/13 Q1020 NOSIG",
      "taf": "TAF OMAA 061700Z 0618/0800 VRB02KT 8000 NSC"
    },
    {
      "icao": "OMDB",
      "alert": "OK",
      "vis_m": null,
      "fzfg": false,
      "metar_trigger": false,
      "taf_trigger": false,
      "metar": "",
      "taf": "TAF OMDB 061700Z 0618/0800 07005KT 8000 NSC"
    },
    {
      "icao": "UAAA",
      "alert": "OK",
      "vis_m": 2100,
      "fzfg": false,
      "metar_trigger": false,
      "taf_trigger": false,
      "metar": "METAR UAAA 062100Z 15002MPS 2100 BR FU FEW200 M05/M06 Q1030 NOSIG",
      "taf": "TAF UAAA 061702Z 0618/0718 22003MPS 1200 BR FU BKN011 BKN050 TX03/0709Z TNM04/0701Z"
    },
    {
      "icao": "UBBB",
      "alert": "OK",
      "vis_m": 450,
      "fzfg": false,
      "metar_trigger": false,
      "taf_trigger": false,
      "metar": "METAR UBBB 062100Z 17006KT 0450 R16/P2000 R17/1100 FG SCT003 BKN017 08/08 Q1023 NOSIG",
      "taf": "TAF UBBB 061656Z 0617/0718 16006KT 0200 FG VV002 TX12/0710Z TN04/0703Z"
    },
    {
      "icao": "UDSG",
      "alert": "OK",
      "vis_m": 3300,
      "fzfg": false,
      "metar_trigger": false,
      "taf_trigger": false,
      "metar": "METAR UDSG 062100Z 07005KT 3300 BR FEW049 M19/M21 Q1028 NOSIG",
      "taf": "TAF UDSG 061658Z 0618/0718 VRB06KT 5000 BR FEW040"
    },
    {
      "icao": "UDYZ",
      "alert": "OK",
      "vis_m": 2500,
      "fzfg": false,
      "metar_trigger": false,
      "taf_trigger": false,
      "metar": "METAR UDYZ 062100Z 29001KT 2500 BR NSC M12/M14 Q1030 NOSIG",
      "taf": "TAF UDYZ 061700Z 0618/0718 VRB04KT 2300 BR FEW040"
    },
    {
      "icao": "UGKO",
      "alert": "OK",
      "vis_m": 9999,
      "fzfg": false,
      "metar_trigger": false,
      "taf_trigger": false,
      "metar": "METAR UGKO 062100Z 07003KT CAVOK 03/M03 Q1021 NOSIG",
      "taf": "TAF UGKO 061700Z 0618/0718 09007KT CAVOK TX16/0712Z TN03/0703Z"
    }
  ]
}