{
  "ts_utc": "2026-02-03T23:58:37Z",
  "threshold_m": 150,
  "source": "stations_override.txt (ICAO list) + aviationweather.gov (METAR/TAF raw)",
  "station_count": 159,
  "stations": [
    {
      "icao": "BIKF",
      "alert": "OK",
      "vis_m": 9999,
      "fzfg": false,
      "metar_trigger": false,
      "taf_trigger": false,
      "metar": "METAR BIKF 032330Z 09010KT CAVOK 03/M01 Q1009",
      "taf": "TAF BIKF 032252Z 0400/0500 07015KT 9999 FEW030 TX03/0400Z TN00/0500Z"
    },
    {
      "icao": "BKPR",
      "alert": "OK",
      "vis_m": null,
      "fzfg": false,
      "metar_trigger": false,
      "taf_trigger": false,
      "metar": "",
      "taf": "TAF BKPR 032330Z 0400/0424 17008KT 9999 SCT030 BKN080"
    },
    {
      "icao": "EBCI",
      "alert": "OK",
      "vis_m": 9999,
      "fzfg": false,
      "metar_trigger": false,
      "taf_trigger": false,
      "metar": "METAR EBCI 032350Z 18008KT 9999 FEW025 BKN040 07/05 Q0998 NOSIG",
      "taf": "TAF EBCI 032300Z 0400/0506 17007KT 9999 FEW040"
    },
    {
      "icao": "EDDB",
      "alert": "OK",
      "vis_m": 9999,
      "fzfg": false,
      "metar_trigger": false,
      "taf_trigger": false,
      "metar": "METAR EDDB 032350Z AUTO 09012KT 9999 FEW019 OVC045 M05/M13 Q1009 TEMPO 4000 -SN",
      "taf": "TAF EDDB 032300Z 0400/0424 09010KT 9999 BKN020"
    },
    {
      "icao": "EDDH",
      "alert": "OK",
      "vis_m": 9999,
      "fzfg": false,
      "metar_trigger": false,
      "taf_trigger": false,
      "metar": "METAR EDDH 032350Z AUTO 10013KT 070V130 9999 BKN019 OVC026 M04/M11 Q1007 NOSIG",
      "taf": "TAF EDDH 032300Z 0400/0506 09012KT 9999 OVC020"
    },
    {
      "icao": "EDDK",
      "alert": "OK",
      "vis_m": 9999,
      "fzfg": false,
      "metar_trigger": false,
      "taf_trigger": false,
      "metar": "METAR EDDK 032350Z AUTO 13010KT 9999 BKN049 04/02 Q1000 NOSIG",
      "taf": "TAF EDDK 032300Z 0400/0506 12008KT 9999 BKN040"
    },
    {
      "icao": "EDDN",
      "alert": "OK",
      "vis_m": 7000,
      "fzfg": false,
      "metar_trigger": false,
      "taf_trigger": false,
      "metar": "METAR EDDN 032350Z AUTO 12005KT 7000 NCD M01/M02 Q1004",
      "taf": "TAF EDDN 032300Z 0400/0424 10006KT 8000 NSC"
    },
    {
      "icao": "EDDS",
      "alert": "OK",
      "vis_m": 800,
      "fzfg": true,
      "metar_trigger": false,
      "taf_trigger": false,
      "metar": "METAR EDDS 032350Z AUTO VRB02KT 0800 0400 R25/1800D FZFG NCD M01/M02 Q1002",
      "taf": "TAF EDDS 032300Z 0400/0424 VRB02KT 3000 BR NSC"
    },
    {
      "icao": "EDFH",
      "alert": "OK",
      "vis_m": 250,
      "fzfg": true,
      "metar_trigger": false,
      "taf_trigger": false,
      "metar": "METAR EDFH 032350Z 14010KT 0250 R21/0275N FZFG VV/// M01/M01 Q1000",
      "taf": "TAF EDFH 032300Z 0400/0424 14015KT 0700 FG OVC004"
    },
    {
      "icao": "EDJA",
      "alert": "OK",
      "vis_m": 9999,
      "fzfg": false,
      "metar_trigger": false,
      "taf_trigger": false,
      "metar": "METAR EDJA 032350Z AUTO 33001KT 9999 // SCT160/// M02/M02 Q1002",
      "taf": "TAF EDJA 031700Z 0318/0403 22006KT CAVOK"
    },
    {
      "icao": "EDLW",
      "alert": "OK",
      "vis_m": 9999,
      "fzfg": false,
      "metar_trigger": false,
      "taf_trigger": false,
      "metar": "METAR EDLW 032350Z AUTO 13006KT 9999 // FEW044/// OVC100/// 05/03 Q0999",
      "taf": "TAF EDLW 031700Z 0318/0418 10007KT 9999 BKN025"
    },
    {
      "icao": "EDNY",
      "alert": "OK",
      "vis_m": 9999,
      "fzfg": false,
      "metar_trigger": false,
      "taf_trigger": false,
      "metar": "METAR EDNY 032350Z AUTO 07004KT 030V120 9999 // NCD M01/M02 Q1003",
      "taf": "TAF EDNY 031700Z 0318/0403 04004KT CAVOK"
    },
    {
      "icao": "EDSB",
      "alert": "OK",
      "vis_m": 400,
      "fzfg": false,
      "metar_trigger": false,
      "taf_trigger": false,
      "metar": "METAR EDSB 032350Z AUTO 02002KT 0400 0350 R21/0450N VV/// M01/M01 Q1002",
      "taf": "TAF EDSB 032300Z 0400/0424 VRB03KT 0800 FG VV002"
    },
    {
      "icao": "EETN",
      "alert": "OK",
      "vis_m": 9999,
      "fzfg": false,
      "metar_trigger": false,
      "taf_trigger": false,
      "metar": "METAR EETN 032350Z 01006KT 330V040 9999 FEW011 BKN017 M09/M12 Q1028",
      "taf": "TAF EETN 032330Z 0400/0424 02006KT 9999 BKN012"
    },
    {
      "icao": "EFTU",
      "alert": "OK",
      "vis_m": 9999,
      "fzfg": false,
      "metar_trigger": false,
      "taf_trigger": false,
      "metar": "METAR EFTU 032350Z AUTO 00000KT 9999 -SHSN BKN022 M13/M14 Q1029",
      "taf": "TAF EFTU 032327Z 0400/0424 VRB01KT 9999 BKN025"
    },
    {
      "icao": "EGBB",
      "alert": "OK",
      "vis_m": 1900,
      "fzfg": false,
      "metar_trigger": false,
      "taf_trigger": false,
      "metar": "METAR EGBB 032350Z 04003KT 1900 BR OVC003 01/00 Q0993",
      "taf": "TAF EGBB 032304Z 0400/0424 06004KT 7000 BKN008"
    },
    {
      "icao": "EGGP",
      "alert": "OK",
      "vis_m": 8000,
      "fzfg": false,
      "metar_trigger": false,
      "taf_trigger": false,
      "metar": "METAR EGGP 032350Z 12007KT 8000 -RADZ OVC009 01/00 Q0993",
      "taf": "TAF EGGP 032300Z 0400/0424 11008KT 9999 BKN016"
    },
    {
      "icao": "EGGW",
      "alert": "OK",
      "vis_m": 1300,
      "fzfg": false,
      "metar_trigger": false,
      "taf_trigger": false,
      "metar": "METAR EGGW 032350Z AUTO 07002KT 1300 RA SCT002/// OVC008/// //////TCU 01/00 Q0992",
      "taf": "TAF EGGW 032256Z 0400/0424 13007KT 6000 SCT004 BKN020"
    },
    {
      "icao": "EGKK",
      "alert": "OK",
      "vis_m": 2700,
      "fzfg": false,
      "metar_trigger": false,
      "taf_trigger": false,
      "metar": "METAR EGKK 032350Z 07003KT 2700 BR BKN001 04/04 Q0993",
      "taf": "TAF EGKK 032258Z 0400/0506 VRB04KT 9999 SCT010"
    },
    {
      "icao": "EGNM",
      "alert": "OK",
      "vis_m": null,
      "fzfg": false,
      "metar_trigger": false,
      "taf_trigger": false,
      "metar": "",
      "taf": ""
    },
    {
      "icao": "EGPD",
      "alert": "OK",
      "vis_m": 5000,
      "fzfg": false,
      "metar_trigger": false,
      "taf_trigger": false,
      "metar": "METAR EGPD 032350Z AUTO 12013KT 5000 -RA BKN007 OVC021 03/01 Q1000 RERA REDZ",
      "taf": "TAF EGPD 032256Z 0400/0424 10012KT 9999 SCT010 BKN016"
    },
    {
      "icao": "EGPF",
      "alert": "OK",
      "vis_m": 9999,
      "fzfg": false,
      "metar_trigger": false,
      "taf_trigger": false,
      "metar": "METAR EGPF 032350Z AUTO 07013KT 9999 BKN018 OVC022 04/01 Q0995",
      "taf": "TAF EGPF 032256Z 0400/0424 07012KT 9999 SCT020"
    },
    {
      "icao": "EHBK",
      "alert": "OK",
      "vis_m": 9999,
      "fzfg": false,
      "metar_trigger": false,
      "taf_trigger": false,
      "metar": "METAR EHBK 032355Z AUTO 19010KT 150V210 9999 OVC046 08/05 Q0998",
      "taf": "TAF EHBK 032313Z 0400/0506 18008KT 9999 OVC045"
    },
    {
      "icao": "EHEH",
      "alert": "OK",
      "vis_m": null,
      "fzfg": false,
      "metar_trigger": false,
      "taf_trigger": false,
      "metar": "",
      "taf": "TAF EHEH 031755Z 0318/0424 11007KT 7000 SCT010 BKN012"
    },
    {
      "icao": "EKBI",
      "alert": "OK",
      "vis_m": 9999,
      "fzfg": false,
      "metar_trigger": false,
      "taf_trigger": false,
      "metar": "METAR EKBI 032350Z AUTO 09023G35KT 9999 FEW021/// BKN057/// M02/M06 Q1010",
      "taf": "TAF EKBI 032336Z 0400/0424 10022G40KT 9999 BKN025"
    },
    {
      "icao": "EKCH",
      "alert": "OK",
      "vis_m": 9999,
      "fzfg": false,
      "metar_trigger": false,
      "taf_trigger": false,
      "metar": "METAR EKCH 032350Z AUTO 09021KT 9999 BKN020/// M02/M06 Q1016 TEMPO 10022G34KT",
      "taf": "TAF EKCH 032336Z 0400/0424 09020KT 9999 BKN018"
    },
    {
      "icao": "ENAL",
      "alert": "OK",
      "vis_m": 9999,
      "fzfg": false,
      "metar_trigger": false,
      "taf_trigger": false,
      "metar": "METAR ENAL 032350Z AUTO 13012KT 9999 NCD M03/M13 Q1019",
      "taf": "TAF ENAL 032300Z 0400/0409 13016KT CAVOK"
    },
    {
      "icao": "ENBR",
      "alert": "OK",
      "vis_m": 9999,
      "fzfg": false,
      "metar_trigger": false,
      "taf_trigger": false,
      "metar": "METAR ENBR 032350Z 06002KT CAVOK M05/M11 Q1017 RMK WIND 1200FT 09004KT",
      "taf": "TAF ENBR 032300Z 0400/0424 01005KT CAVOK"
    },
    {
      "icao": "ENGM",
      "alert": "OK",
      "vis_m": 9999,
      "fzfg": false,
      "metar_trigger": false,
      "taf_trigger": false,
      "metar": "METAR ENGM 032350Z 03005KT 9999 OVC023 M09/M12 Q1025",
      "taf": "TAF ENGM 032300Z 0400/0424 02005KT 9999 -SN BKN020"
    },
    {
      "icao": "ENHD",
      "alert": "OK",
      "vis_m": 9999,
      "fzfg": false,
      "metar_trigger": false,
      "taf_trigger": false,
      "metar": "METAR ENHD 032350Z AUTO 09020KT 9999 NCD M01/M12 Q1015",
      "taf": "TAF ENHD 031400Z 0315/0323 09015KT CAVOK"
    },
    {
      "icao": "ENTC",
      "alert": "OK",
      "vis_m": 9999,
      "fzfg": false,
      "metar_trigger": false,
      "taf_trigger": false,
      "metar": "METAR ENTC 032350Z 19015KT 9999 FEW020 SCT025 BKN032 M00/M04 Q1022 RMK WIND 2600FT 24009KT",
      "taf": "TAF ENTC 032300Z 0400/0424 19012KT 9999 SCT015 BKN030"
    },
    {
      "icao": "ENTO",
      "alert": "OK",
      "vis_m": 9999,
      "fzfg": false,
      "metar_trigger": false,
      "taf_trigger": false,
      "metar": "METAR ENTO 032350Z AUTO 03011KT 360V060 9999 OVC015/// M07/M10 Q1024",
      "taf": "TAF ENTO 032300Z 0400/0424 03012KT 9999 SCT012 BKN018"
    },
    {
      "icao": "ENVA",
      "alert": "OK",
      "vis_m": 9999,
      "fzfg": false,
      "metar_trigger": false,
      "taf_trigger": false,
      "metar": "METAR ENVA 032350Z 09005KT CAVOK M12/M17 Q1023 RMK WIND 670FT 14009KT",
      "taf": "TAF ENVA 032300Z 0400/0424 09006KT CAVOK"
    },
    {
      "icao": "ENZV",
      "alert": "OK",
      "vis_m": 9999,
      "fzfg": false,
      "metar_trigger": false,
      "taf_trigger": false,
      "metar": "METAR ENZV 032350Z AUTO 09012G24KT 9999 NCD M01/M11 Q1015",
      "taf": "TAF ENZV 032300Z 0400/0424 09014KT CAVOK"
    },
    {
      "icao": "EPGD",
      "alert": "OK",
      "vis_m": 9999,
      "fzfg": false,
      "metar_trigger": false,
      "taf_trigger": false,
      "metar": "METAR EPGD 032330Z 08007KT CAVOK M13/M16 Q1018",
      "taf": "TAF EPGD 032330Z 0400/0424 09010KT CAVOK"
    },
    {
      "icao": "EPKK",
      "alert": "OK",
      "vis_m": 2500,
      "fzfg": false,
      "metar_trigger": false,
      "taf_trigger": false,
      "metar": "METAR EPKK 032330Z 05006KT 2500 -SN BR SCT008 BKN014 M04/M05 Q1010",
      "taf": "TAF EPKK 032330Z 0400/0424 06008KT 4000 -SN BR OVC012"
    },
    {
      "icao": "EPKT",
      "alert": "OK",
      "vis_m": 7000,
      "fzfg": false,
      "metar_trigger": false,
      "taf_trigger": false,
      "metar": "METAR EPKT 032330Z 08007KT 050V110 7000 -SN FEW009 OVC021 M04/M05 Q1009",
      "taf": "TAF EPKT 032330Z 0400/0424 10006KT 4000 -SN BR SCT008 OVC020"
    },
    {
      "icao": "EPLB",
      "alert": "OK",
      "vis_m": 9999,
      "fzfg": false,
      "metar_trigger": false,
      "taf_trigger": false,
      "metar": "METAR EPLB 032330Z 11010KT 9999 BKN042 M08/M12 Q1016",
      "taf": "TAF EPLB 032330Z 0400/0424 10012KT 7000 BKN020"
    },
    {
      "icao": "EPMO",
      "alert": "OK",
      "vis_m": 9999,
      "fzfg": false,
      "metar_trigger": false,
      "taf_trigger": false,
      "metar": "METAR EPMO 032330Z 07015KT 9999 BKN029 M11/M15 Q1016",
      "taf": "TAF EPMO 032330Z 0400/0424 09010KT 9999 BKN020"
    },
    {
      "icao": "EPPO",
      "alert": "OK",
      "vis_m": 9999,
      "fzfg": false,
      "metar_trigger": false,
      "taf_trigger": false,
      "metar": "METAR EPPO 032330Z 09010KT 9999 FEW018 M08/M14 Q1012",
      "taf": "TAF EPPO 032330Z 0400/0424 09011KT 9999 SCT016"
    },
    {
      "icao": "EPRA",
      "alert": "OK",
      "vis_m": 9999,
      "fzfg": false,
      "metar_trigger": false,
      "taf_trigger": false,
      "metar": "METAR EPRA 032330Z 09009KT 9999 -SN FEW016 BKN028 M07/M12 Q1014",
      "taf": "TAF EPRA 032330Z 0400/0409 09012KT 8000 -SN BKN020"
    },
    {
      "icao": "EPRZ",
      "alert": "OK",
      "vis_m": 3000,
      "fzfg": false,
      "metar_trigger": false,
      "taf_trigger": false,
      "metar": "METAR EPRZ 032330Z 09015KT 3000 -SN BR SCT016 BKN036 M06/M08 Q1013",
      "taf": "TAF EPRZ 032330Z 0400/0424 10012KT 4000 -SN BR SCT009 BKN020"
    },
    {
      "icao": "EPSC",
      "alert": "OK",
      "vis_m": 9999,
      "fzfg": false,
      "metar_trigger": false,
      "taf_trigger": false,
      "metar": "METAR EPSC 032330Z 08007KT 9999 OVC012 M08/M12 Q1012",
      "taf": "TAF EPSC 032330Z 0400/0424 08010KT 9999 OVC012"
    },
    {
      "icao": "EPSY",
      "alert": "OK",
      "vis_m": 9999,
      "fzfg": false,
      "metar_trigger": false,
      "taf_trigger": false,
      "metar": "METAR EPSY 032330Z 07004KT 010V130 CAVOK M15/M18 Q1019",
      "taf": "TAF EPSY 032330Z 0400/0409 08008KT CAVOK"
    },
    {
      "icao": "EPWA",
      "alert": "OK",
      "vis_m": 9999,
      "fzfg": false,
      "metar_trigger": false,
      "taf_trigger": false,
      "metar": "METAR EPWA 032330Z 08011KT 9999 BKN033 M09/M15 Q1016 NOSIG",
      "taf": "TAF EPWA 032330Z 0400/0424 09010KT 9999 BKN020"
    },
    {
      "icao": "EPWR",
      "alert": "OK",
      "vis_m": 7000,
      "fzfg": false,
      "metar_trigger": false,
      "taf_trigger": false,
      "metar": "METAR EPWR 032330Z 10008KT 7000 -SN FEW010 BKN016 M04/M05 Q1009",
      "taf": "TAF EPWR 032330Z 0400/0424 10008KT 5000 -SN BR SCT010 BKN015"
    },
    {
      "icao": "ESGG",
      "alert": "OK",
      "vis_m": 9999,
      "fzfg": false,
      "metar_trigger": false,
      "taf_trigger": false,
      "metar": "METAR ESGG 032350Z 09012KT CAVOK M06/M09 Q1018",
      "taf": "TAF ESGG 032330Z 0400/0424 08014KT CAVOK"
    },
    {
      "icao": "ESKN",
      "alert": "OK",
      "vis_m": 9999,
      "fzfg": false,
      "metar_trigger": false,
      "taf_trigger": false,
      "metar": "METAR ESKN 032350Z 05008KT 9999 BKN028 M05/M09 Q1026",
      "taf": "TAF ESKN 032330Z 0400/0424 05008KT 9999 BKN028"
    },
    {
      "icao": "ESMS",
      "alert": "OK",
      "vis_m": 9999,
      "fzfg": false,
      "metar_trigger": false,
      "taf_trigger": false,
      "metar": "METAR ESMS 032350Z 09021G33KT 9999 OVC016 M03/M06 Q1015",
      "taf": "TAF ESMS 032327Z 0400/0424 09020KT 9999 BKN016"
    },
    {
      "icao": "ESSA",
      "alert": "OK",
      "vis_m": 9999,
      "fzfg": false,
      "metar_trigger": false,
      "taf_trigger": false,
      "metar": "METAR ESSA 032350Z 05006KT 9999 SCT028 M10/M13 Q1028 NOSIG",
      "taf": "TAF ESSA 032330Z 0400/0424 05008KT 9999 SCT025"
    },
    {
      "icao": "EYKA",
      "alert": "OK",
      "vis_m": 9999,
      "fzfg": false,
      "metar_trigger": false,
      "taf_trigger": false,
      "metar": "METAR EYKA 032350Z AUTO 08004KT 9999 NCD M19/M21 Q1025",
      "taf": "TAF EYKA 032300Z 0400/0424 VRB04KT 9000 NSC"
    },
    {
      "icao": "EYPA",
      "alert": "OK",
      "vis_m": 9999,
      "fzfg": false,
      "metar_trigger": false,
      "taf_trigger": false,
      "metar": "METAR EYPA 032350Z AUTO 09006KT 9999 NCD M13/M17 Q1025",
      "taf": "TAF EYPA 032300Z 0400/0424 VRB04KT 9000 NSC"
    },
    {
      "icao": "EYVI",
      "alert": "OK",
      "vis_m": 9999,
      "fzfg": false,
      "metar_trigger": false,
      "taf_trigger": false,
      "metar": "METAR EYVI 032350Z 11005KT CAVOK M16/M18 Q1024 NOSIG",
      "taf": "TAF EYVI 032300Z 0400/0424 VRB04KT 9000 NSC"
    },
    {
      "icao": "GCFV",
      "alert": "OK",
      "vis_m": 9999,
      "fzfg": false,
      "metar_trigger": false,
      "taf_trigger": false,
      "metar": "METAR GCFV 032330Z AUTO 00000KT 9999 FEW030 17/12 Q1019",
      "taf": "TAF GCFV 032000Z 0321/0421 26005KT 9999 FEW030 TX22/0414Z TN16/0406Z"
    },
    {
      "icao": "GCLP",
      "alert": "OK",
      "vis_m": 9999,
      "fzfg": false,
      "metar_trigger": false,
      "taf_trigger": false,
      "metar": "METAR GCLP 032330Z VRB01KT 9999 FEW027 16/12 Q1019 NOSIG",
      "taf": "TAF GCLP 032000Z 0321/0421 30005KT 9999 SCT030 TX22/0414Z TN14/0406Z"
    },
    {
      "icao": "GCTS",
      "alert": "OK",
      "vis_m": 9999,
      "fzfg": false,
      "metar_trigger": false,
      "taf_trigger": false,
      "metar": "METAR GCTS 032330Z 33004KT 9999 FEW035 17/10 Q1019 NOSIG",
      "taf": "TAF GCTS 032000Z 0321/0421 31007KT 9999 FEW030 TX24/0414Z TN16/0406Z"
    },
    {
      "icao": "GMAD",
      "alert": "OK",
      "vis_m": 8000,
      "fzfg": false,
      "metar_trigger": false,
      "taf_trigger": false,
      "metar": "METAR GMAD 032330Z 20010KT 8000 FEW040 SCT100 14/14 Q1017 NOSIG",
      "taf": "TAF GMAD 032300Z 0400/0506 26008KT 8000 SCT016 SCT080"
    },
    {
      "icao": "GMMN",
      "alert": "OK",
      "vis_m": 8000,
      "fzfg": false,
      "metar_trigger": false,
      "taf_trigger": false,
      "metar": "METAR GMMN 032330Z 22019KT 8000 BKN006 BKN016 12/11 Q1013 NOSIG",
      "taf": "TAF GMMN 032300Z 0400/0506 22020G30KT 8000 BKN006 BKN016"
    },
    {
      "icao": "GMMX",
      "alert": "OK",
      "vis_m": 9999,
      "fzfg": false,
      "metar_trigger": false,
      "taf_trigger": false,
      "metar": "METAR GMMX 032330Z 18007KT 9999 FEW026 SCT100 12/10 Q1016 NOSIG",
      "taf": "TAF GMMX 032300Z 0400/0506 20006KT 8000 SCT023 SCT080"
    },
    {
      "icao": "HEGN",
      "alert": "OK",
      "vis_m": 9999,
      "fzfg": false,
      "metar_trigger": false,
      "taf_trigger": false,
      "metar": "METAR HEGN 032300Z 29010KT CAVOK 17/07 Q1020 NOSIG",
      "taf": "TAF HEGN 032300Z 0400/0506 29012KT CAVOK"
    },
    {
      "icao": "HEMA",
      "alert": "OK",
      "vis_m": 9999,
      "fzfg": false,
      "metar_trigger": false,
      "taf_trigger": false,
      "metar": "METAR HEMA 032300Z 30010KT CAVOK 18/10 Q1018 NOSIG",
      "taf": "TAF HEMA 032300Z 0400/0506 30012KT 6000 NSC"
    },
    {
      "icao": "HESH",
      "alert": "OK",
      "vis_m": 9999,
      "fzfg": false,
      "metar_trigger": false,
      "taf_trigger": false,
      "metar": "METAR HESH 032300Z 33012KT CAVOK 19/08 Q1019 NOSIG",
      "taf": "TAF HESH 032300Z 0400/0506 33013KT CAVOK"
    },
    {
      "icao": "HESX",
      "alert": "OK",
      "vis_m": 9999,
      "fzfg": false,
      "metar_trigger": false,
      "taf_trigger": false,
      "metar": "METAR HESX 032300Z 35002KT CAVOK 11/08 Q1022 NOSIG",
      "taf": "TAF HESX 032300Z 0400/0506 VRB02KT 6000 NSC"
    },
    {
      "icao": "LATI",
      "alert": "OK",
      "vis_m": 9999,
      "fzfg": false,
      "metar_trigger": false,
      "taf_trigger": false,
      "metar": "METAR LATI 032350Z 14004KT 9999 SCT072 OVC110 09/04 Q1013 NOSIG",
      "taf": "TAF LATI 032300Z 0400/0424 VRB05KT 9999 BKN090 TX20/0412Z TN08/0403Z"
    },
    {
      "icao": "LBPD",
      "alert": "OK",
      "vis_m": 9999,
      "fzfg": false,
      "metar_trigger": false,
      "taf_trigger": false,
      "metar": "METAR LBPD 032330Z AUTO 00000KT 9999 OVC013/// M00/M00 Q1022",
      "taf": "TAF LBPD 032300Z 0400/0424 VRB03KT 3000 BR OVC010"
    },
    {
      "icao": "LBSF",
      "alert": "OK",
      "vis_m": 9000,
      "fzfg": false,
      "metar_trigger": false,
      "taf_trigger": false,
      "metar": "METAR LBSF 032330Z AUTO 13005KT 9000 NSC M02/M03 Q1018 NOSIG",
      "taf": "TAF LBSF 032300Z 0400/0424 10010KT 9999 SCT050"
    },
    {
      "icao": "LBWN",
      "alert": "OK",
      "vis_m": 9999,
      "fzfg": false,
      "metar_trigger": false,
      "taf_trigger": false,
      "metar": "METAR LBWN 032330Z AUTO VRB02KT 9999 OVC018/// 03/01 Q1021 NOSIG",
      "taf": "TAF LBWN 032300Z 0400/0424 12010KT 9999 BKN020"
    },
    {
      "icao": "LCLK",
      "alert": "OK",
      "vis_m": 9999,
      "fzfg": false,
      "metar_trigger": false,
      "taf_trigger": false,
      "metar": "METAR LCLK 032330Z 30007KT CAVOK 12/07 Q1019 NOSIG",
      "taf": "TAF LCLK 032330Z 0400/0500 30008KT 9999 FEW020"
    },
    {
      "icao": "LCPH",
      "alert": "OK",
      "vis_m": 9999,
      "fzfg": false,
      "metar_trigger": false,
      "taf_trigger": false,
      "metar": "METAR LCPH 032330Z 01007KT CAVOK 09/06 Q1019 NOSIG",
      "taf": "TAF LCPH 032330Z 0400/0500 02009KT 9999 FEW020"
    },
    {
      "icao": "LEAL",
      "alert": "OK",
      "vis_m": 9999,
      "fzfg": false,
      "metar_trigger": false,
      "taf_trigger": false,
      "metar": "METAR LEAL 032330Z 27004KT CAVOK 10/05 Q1003 NOSIG",
      "taf": "TAF LEAL 032300Z 0400/0424 26007KT 9999 FEW030 TX18/0413Z TN07/0407Z"
    },
    {
      "icao": "LEBB",
      "alert": "OK",
      "vis_m": 9999,
      "fzfg": false,
      "metar_trigger": false,
      "taf_trigger": false,
      "metar": "METAR LEBB 032330Z VRB06G17KT 9999 FEW050 11/03 Q0993 NOSIG",
      "taf": "TAF LEBB 032300Z 0400/0424 17009KT 9999 SCT050 TX15/0412Z TN07/0405Z"
    },
    {
      "icao": "LEBL",
      "alert": "OK",
      "vis_m": 9999,
      "fzfg": false,
      "metar_trigger": false,
      "taf_trigger": false,
      "metar": "METAR LEBL 032330Z 32007KT 9999 FEW020 07/05 Q0999 NOSIG",
      "taf": "TAF LEBL 032300Z 0400/0424 35005KT 9999 FEW020 TX14/0414Z TN05/0406Z"
    },
    {
      "icao": "LECH",
      "alert": "OK",
      "vis_m": 9999,
      "fzfg": false,
      "metar_trigger": false,
      "taf_trigger": false,
      "metar": "METAR LECH 032330Z AUTO 22006KT CAVOK 06/02 Q0999",
      "taf": ""
    },
    {
      "icao": "LEMD",
      "alert": "OK",
      "vis_m": 9999,
      "fzfg": false,
      "metar_trigger": false,
      "taf_trigger": false,
      "metar": "METAR LEMD 032330Z 20008KT 9999 RA SCT017 BKN026 05/05 Q0998 NOSIG",
      "taf": "TAF LEMD 032300Z 0400/0506 22010KT 9999 SCT020 TX08/0414Z TN04/0407Z"
    },
    {
      "icao": "LEMG",
      "alert": "OK",
      "vis_m": 6000,
      "fzfg": false,
      "metar_trigger": false,
      "taf_trigger": false,
      "metar": "METAR LEMG 032330Z 09005KT 6000 RA FEW007 BKN030 BKN040 11/10 Q1003 NOSIG",
      "taf": "TAF LEMG 032300Z 0400/0424 VRB02KT 9999 SCT020 TX16/0414Z TN10/0407Z"
    },
    {
      "icao": "LEVC",
      "alert": "OK",
      "vis_m": 9999,
      "fzfg": false,
      "metar_trigger": false,
      "taf_trigger": false,
      "metar": "METAR LEVC 032330Z 18006KT CAVOK 09/04 Q1001 NOSIG",
      "taf": "TAF LEVC 032300Z 0400/0424 22007KT 9999 FEW030 TX19/0413Z TN08/0406Z"
    },
    {
      "icao": "LEXJ",
      "alert": "OK",
      "vis_m": 9999,
      "fzfg": false,
      "metar_trigger": false,
      "taf_trigger": false,
      "metar": "METAR LEXJ 032330Z AUTO 20016G26KT 160V250 CAVOK 11/02 Q0990",
      "taf": "TAF LEXJ 032000Z 0321/0421 20009KT CAVOK TX16/0416Z TN08/0404Z"
    },
    {
      "icao": "LEZG",
      "alert": "OK",
      "vis_m": 9999,
      "fzfg": false,
      "metar_trigger": false,
      "taf_trigger": false,
      "metar": "METAR LEZG 032330Z 13005KT CAVOK 05/03 Q0998 NOSIG",
      "taf": "TAF LEZG 032300Z 0400/0424 23008KT 9999 FEW020 TX12/0414Z TN05/0406Z"
    },
    {
      "icao": "LEZL",
      "alert": "OK",
      "vis_m": 8000,
      "fzfg": false,
      "metar_trigger": false,
      "taf_trigger": false,
      "metar": "METAR LEZL 032330Z 19012G22KT 160V250 8000 -RA OVC005 13/12 Q0999 RERA NOSIG",
      "taf": "TAF LEZL 032000Z 0321/0421 18009KT 9999 BKN020 TX18/0415Z TN12/0407Z"
    },
    {
      "icao": "LFBD",
      "alert": "OK",
      "vis_m": 9999,
      "fzfg": false,
      "metar_trigger": false,
      "taf_trigger": false,
      "metar": "METAR LFBD 032330Z AUTO 17007KT CAVOK 07/03 Q0995 TEMPO BKN060TCU",
      "taf": "TAF LFBD 032300Z 0400/0506 18010KT CAVOK TX12/0416Z TN05/0406Z"
    },
    {
      "icao": "LFLL",
      "alert": "OK",
      "vis_m": 9999,
      "fzfg": false,
      "metar_trigger": false,
      "taf_trigger": false,
      "metar": "METAR LFLL 032330Z 14005KT CAVOK 07/05 Q1000 NOSIG",
      "taf": "TAF LFLL 032300Z 0400/0506 13007KT CAVOK"
    },
    {
      "icao": "LFLS",
      "alert": "OK",
      "vis_m": 9999,
      "fzfg": false,
      "metar_trigger": false,
      "taf_trigger": false,
      "metar": "METAR LFLS 032330Z AUTO 07008KT CAVOK 02/02 Q1000",
      "taf": "TAF LFLS 031400Z 0315/0415 24008KT CAVOK"
    },
    {
      "icao": "LFMN",
      "alert": "OK",
      "vis_m": 9999,
      "fzfg": false,
      "metar_trigger": false,
      "taf_trigger": false,
      "metar": "METAR LFMN 032330Z 34009KT 9999 FEW028 BKN040 09/07 Q1004 NOSIG",
      "taf": "TAF LFMN 032000Z 0321/0503 34010KT 9999 BKN030"
    },
    {
      "icao": "LFOB",
      "alert": "OK",
      "vis_m": 9999,
      "fzfg": false,
      "metar_trigger": false,
      "taf_trigger": false,
      "metar": "METAR LFOB 032330Z AUTO 17007KT CAVOK 06/06 Q0996 TEMPO 2000 BR VV///",
      "taf": "TAF LFOB 032300Z 0400/0424 19010KT 9999 SCT020"
    },
    {
      "icao": "LFPO",
      "alert": "OK",
      "vis_m": 9999,
      "fzfg": false,
      "metar_trigger": false,
      "taf_trigger": false,
      "metar": "METAR LFPO 032330Z 18005KT 9999 FEW046 SCT210 06/04 Q0997 NOSIG",
      "taf": "TAF LFPO 032300Z 0400/0506 17006KT CAVOK"
    },
    {
      "icao": "LFSB",
      "alert": "OK",
      "vis_m": 9999,
      "fzfg": false,
      "metar_trigger": false,
      "taf_trigger": false,
      "metar": "METAR LFSB 032330Z AUTO 17005KT CAVOK 05/03 Q1002 NOSIG",
      "taf": "TAF LFSB 032300Z 0400/0424 19006KT CAVOK"
    },
    {
      "icao": "LGAV",
      "alert": "OK",
      "vis_m": 9999,
      "fzfg": false,
      "metar_trigger": false,
      "taf_trigger": false,
      "metar": "METAR LGAV 032350Z VRB02KT 9999 FEW020 08/06 Q1020 NOSIG",
      "taf": "TAF LGAV 032300Z 0400/0424 VRB05KT 9999 FEW025"
    },
    {
      "icao": "LGTS",
      "alert": "OK",
      "vis_m": 9999,
      "fzfg": false,
      "metar_trigger": false,
      "taf_trigger": false,
      "metar": "METAR LGTS 032350Z 00000KT 9999 FEW020 BKN030 10/10 Q1020 NOSIG",
      "taf": "TAF LGTS 032300Z 0400/0424 12013KT 9999 FEW010 BKN040"
    },
    {
      "icao": "LHBP",
      "alert": "OK",
      "vis_m": 8000,
      "fzfg": false,
      "metar_trigger": false,
      "taf_trigger": false,
      "metar": "SPECI LHBP 032335Z 07005KT 8000 -FZRA OVC006 01/00 Q1011 TEMPO FZRA",
      "taf": "TAF LHBP 032315Z 0400/0424 08008KT 8000 -RA SCT008 OVC030"
    },
    {
      "icao": "LHDC",
      "alert": "OK",
      "vis_m": 8000,
      "fzfg": false,
      "metar_trigger": false,
      "taf_trigger": false,
      "metar": "METAR LHDC 032315Z AUTO 07007KT 8000 -SHRA BKN027 OVC044 03/02 Q1013",
      "taf": "TAF LHDC 031415Z 0315/0324 08006KT 7000 -SN OVC030"
    },
    {
      "icao": "LIBD",
      "alert": "OK",
      "vis_m": 9999,
      "fzfg": false,
      "metar_trigger": false,
      "taf_trigger": false,
      "metar": "METAR LIBD 032350Z 16007KT CAVOK 15/11 Q1009",
      "taf": "TAF LIBD 032300Z 0400/0424 18012KT CAVOK"
    },
    {
      "icao": "LIBG",
      "alert": "OK",
      "vis_m": null,
      "fzfg": false,
      "metar_trigger": false,
      "taf_trigger": false,
      "metar": "",
      "taf": "TAF LIBG 031700Z 0318/0403 17020G30KT 9999 FEW010 SCT020"
    },
    {
      "icao": "LIBP",
      "alert": "OK",
      "vis_m": 9999,
      "fzfg": false,
      "metar_trigger": false,
      "taf_trigger": false,
      "metar": "METAR LIBP 032350Z AUTO VRB02KT 9999 -RA OVC067/// 10/10 Q1006",
      "taf": "TAF LIBP 032300Z 0400/0424 VRB05KT 9999 OVC080"
    },
    {
      "icao": "LIBR",
      "alert": "OK",
      "vis_m": 9999,
      "fzfg": false,
      "metar_trigger": false,
      "taf_trigger": false,
      "metar": "METAR LIBR 032350Z 17014KT CAVOK 15/12 Q1011",
      "taf": "TAF LIBR 032300Z 0400/0424 16025G35KT CAVOK"
    },
    {
      "icao": "LICA",
      "alert": "OK",
      "vis_m": 9999,
      "fzfg": false,
      "metar_trigger": false,
      "taf_trigger": false,
      "metar": "METAR LICA 032350Z AUTO 07018KT 9999 FEW150/// 15/12 Q1009",
      "taf": "TAF LICA 032300Z 0400/0424 07020G30KT 9999 SCT025"
    },
    {
      "icao": "LICC",
      "alert": "OK",
      "vis_m": 9999,
      "fzfg": false,
      "metar_trigger": false,
      "taf_trigger": false,
      "metar": "METAR LICC 032350Z 05009KT 9999 BKN015 15/12 Q1009",
      "taf": "TAF LICC 032300Z 0400/0424 VRB05KT 9999 SCT030"
    },
    {
      "icao": "LICJ",
      "alert": "OK",
      "vis_m": 9999,
      "fzfg": false,
      "metar_trigger": false,
      "taf_trigger": false,
      "metar": "METAR LICJ 032350Z 06004KT 360V130 CAVOK 15/10 Q1004",
      "taf": "TAF LICJ 032300Z 0400/0424 18016G26KT 9999 SCT030"
    },
    {
      "icao": "LIMC",
      "alert": "OK",
      "vis_m": 2000,
      "fzfg": false,
      "metar_trigger": false,
      "taf_trigger": false,
      "metar": "METAR LIMC 032350Z 29003KT 2000 BR SCT002 BKN020 04/04 Q1007 NOSIG",
      "taf": ""
    },
    {
      "icao": "LIME",
      "alert": "OK",
      "vis_m": 3000,
      "fzfg": false,
      "metar_trigger": false,
      "taf_trigger": false,
      "metar": "METAR LIME 032350Z 24004KT 3000 BR SCT005 BKN015 05/05 Q1006 NOSIG",
      "taf": "TAF LIME 031700Z 0318/0418 VRB05KT 6000 SCT006 BKN020"
    },
    {
      "icao": "LIMF",
      "alert": "OK",
      "vis_m": 5000,
      "fzfg": false,
      "metar_trigger": false,
      "taf_trigger": false,
      "metar": "METAR LIMF 032350Z 28004KT 5000 BR SCT030 03/02 Q1007",
      "taf": "TAF LIMF 031700Z 0318/0418 VRB05KT 6000 SCT030"
    },
    {
      "icao": "LIMJ",
      "alert": "OK",
      "vis_m": 9999,
      "fzfg": false,
      "metar_trigger": false,
      "taf_trigger": false,
      "metar": "METAR LIMJ 032350Z 04017KT 9999 SCT028 SCT045 06/02 Q1005",
      "taf": "TAF LIMJ 031700Z 0318/0418 35015KT 9999 BKN030"
    },
    {
      "icao": "LIPE",
      "alert": "OK",
      "vis_m": 4000,
      "fzfg": false,
      "metar_trigger": false,
      "taf_trigger": false,
      "metar": "METAR LIPE 032350Z 26007KT 4000 BR SCT005 BKN010 05/04 Q1007",
      "taf": "TAF LIPE 032300Z 0400/0424 VRB05KT 3000 BR FEW002 BKN010"
    },
    {
      "icao": "LIPH",
      "alert": "OK",
      "vis_m": 9999,
      "fzfg": false,
      "metar_trigger": false,
      "taf_trigger": false,
      "metar": "METAR LIPH 032350Z AUTO 00000KT 9999 OVC013/// 06/05 Q1006",
      "taf": "TAF LIPH 032300Z 0400/0424 VRB06KT CAVOK"
    },
    {
      "icao": "LIPQ",
      "alert": "OK",
      "vis_m": 8000,
      "fzfg": false,
      "metar_trigger": false,
      "taf_trigger": false,
      "metar": "METAR LIPQ 032350Z AUTO 03002KT 8000 SCT021/// OVC036/// 08/08 Q1006",
      "taf": "TAF LIPQ 032300Z 0400/0424 VRB05KT 9000 FEW010"
    },
    {
      "icao": "LIPR",
      "alert": "OK",
      "vis_m": 3200,
      "fzfg": false,
      "metar_trigger": false,
      "taf_trigger": false,
      "metar": "METAR LIPR 032350Z AUTO 30005KT 3200 -RA BR OVC005/// 07/07 Q1007",
      "taf": "TAF LIPR 032300Z 0400/0424 VRB05KT 6000 BKN005"
    },
    {
      "icao": "LIPX",
      "alert": "OK",
      "vis_m": 300,
      "fzfg": false,
      "metar_trigger": false,
      "taf_trigger": false,
      "metar": "METAR LIPX 032350Z 23005KT 0300 R04/0550N FG VV001 04/04 Q1007",
      "taf": "TAF LIPX 032300Z 0400/0424 VRB05KT 4000 BR BKN010"
    },
    {
      "icao": "LIPY",
      "alert": "OK",
      "vis_m": 4000,
      "fzfg": false,
      "metar_trigger": false,
      "taf_trigger": false,
      "metar": "METAR LIPY 032350Z AUTO 34004KT 310V010 4000 -DZ BR OVC003/// 08/08 Q1006",
      "taf": "TAF LIPY 032300Z 0400/0424 VRB05KT 4000 RA BR SCT004 OVC060"
    },
    {
      "icao": "LIPZ",
      "alert": "OK",
      "vis_m": 9999,
      "fzfg": false,
      "metar_trigger": false,
      "taf_trigger": false,
      "metar": "METAR LIPZ 032350Z 33003KT 9999 BKN010 07/06 Q1006 NOSIG",
      "taf": "TAF LIPZ 032300Z 0400/0506 VRB05KT 9000 BKN010"
    },
    {
      "icao": "LIRF",
      "alert": "OK",
      "vis_m": 9000,
      "fzfg": false,
      "metar_trigger": false,
      "taf_trigger": false,
      "metar": "METAR LIRF 032350Z 13007KT 9000 RA SCT050 12/12 Q1006 NOSIG",
      "taf": "TAF LIRF 031700Z 0318/0424 15015KT 9999 SCT030"
    },
    {
      "icao": "LIRN",
      "alert": "OK",
      "vis_m": 9999,
      "fzfg": false,
      "metar_trigger": false,
      "taf_trigger": false,
      "metar": "METAR LIRN 032350Z VRB01KT CAVOK 14/10 Q1007 NOSIG",
      "taf": "TAF LIRN 031700Z 0318/0418 17015KT 9999 SCT030"
    },
    {
      "icao": "LIRP",
      "alert": "OK",
      "vis_m": 9999,
      "fzfg": false,
      "metar_trigger": false,
      "taf_trigger": false,
      "metar": "METAR LIRP 032345Z 14003KT 9999 SCT030 SCT040 10/10 Q1004 NOSIG",
      "taf": "TAF LIRP 031700Z 0318/0418 09010KT 9999 SCT040"
    },
    {
      "icao": "LIRZ",
      "alert": "OK",
      "vis_m": 2500,
      "fzfg": false,
      "metar_trigger": false,
      "taf_trigger": false,
      "metar": "METAR LIRZ 032350Z AUTO 09004KT 2500 RA BR BKN019/// 10/10 Q1005",
      "taf": "TAF LIRZ 032300Z 0400/0424 VRB05KT 9999 BKN020"
    },
    {
      "icao": "LJLJ",
      "alert": "OK",
      "vis_m": 4000,
      "fzfg": false,
      "metar_trigger": false,
      "taf_trigger": false,
      "metar": "METAR LJLJ 032330Z 28004KT 4000 BR FEW002 SCT023 BKN043 03/03 Q1007 NOSIG",
      "taf": "TAF LJLJ 032300Z 0400/0500 VRB02KT 7000 FEW004 OVC020"
    },
    {
      "icao": "LKMT",
      "alert": "OK",
      "vis_m": 6000,
      "fzfg": false,
      "metar_trigger": false,
      "taf_trigger": false,
      "metar": "METAR LKMT 032330Z 31002KT 6000 OVC023 M04/M06 Q1009 TEMPO 4500 BR",
      "taf": "TAF LKMT 032300Z 0400/0424 03006KT 8000 OVC023"
    },
    {
      "icao": "LKPR",
      "alert": "OK",
      "vis_m": 8000,
      "fzfg": false,
      "metar_trigger": false,
      "taf_trigger": false,
      "metar": "METAR LKPR 032330Z 15004KT 8000 OVC007 M01/M02 Q1006 NOSIG",
      "taf": "TAF LKPR 032300Z 0400/0506 13006KT 9000 SCT007 OVC013"
    },
    {
      "icao": "LLBG",
      "alert": "OK",
      "vis_m": 9999,
      "fzfg": false,
      "metar_trigger": false,
      "taf_trigger": false,
      "metar": "METAR LLBG 032350Z VRB03KT 9999 SCT040 SCT050 15/08 Q1021 NOSIG",
      "taf": "TAF LLBG 032301Z 0400/0424 VRB04KT 9999 SCT035"
    },
    {
      "icao": "LMML",
      "alert": "OK",
      "vis_m": 9999,
      "fzfg": false,
      "metar_trigger": false,
      "taf_trigger": false,
      "metar": "METAR LMML 032345Z 13012KT CAVOK 15/13 Q1006 NOSIG",
      "taf": "TAF LMML 032300Z 0400/0424 16020G30KT 9999 FEW020"
    },
    {
      "icao": "LOWW",
      "alert": "OK",
      "vis_m": 9999,
      "fzfg": false,
      "metar_trigger": false,
      "taf_trigger": false,
      "metar": "METAR LOWW 032350Z 13004KT 090V170 9999 FEW009 BKN010 01/M01 Q1009 TEMPO BKN008",
      "taf": "TAF LOWW 032315Z 0400/0506 12010KT 9999 OVC012 TX01/0500Z TNM00/0400Z"
    },
    {
      "icao": "LPFR",
      "alert": "OK",
      "vis_m": 5000,
      "fzfg": false,
      "metar_trigger": false,
      "taf_trigger": false,
      "metar": "METAR LPFR 032330Z 25025KT 5000 R28/1400N RA BKN004 BKN012 16/15 Q0999",
      "taf": "TAF LPFR 032300Z 0400/0424 24022KT 6000 -RA SCT005 BKN012"
    },
    {
      "icao": "LPMA",
      "alert": "OK",
      "vis_m": 9999,
      "fzfg": false,
      "metar_trigger": false,
      "taf_trigger": false,
      "metar": "METAR LPMA 032330Z VRB02KT 9999 FEW015 17/12 Q1014",
      "taf": "TAF LPMA 032300Z 0400/0424 VRB05KT 9999 SCT015"
    },
    {
      "icao": "LPPR",
      "alert": "OK",
      "vis_m": 9000,
      "fzfg": false,
      "metar_trigger": false,
      "taf_trigger": false,
      "metar": "METAR LPPR 032330Z 19019KT 9000 -RADZ BKN006 OVC013 10/09 Q0988",
      "taf": "TAF LPPR 032300Z 0400/0424 15017KT 3000 -RADZ BR SCT004 BKN008"
    },
    {
      "icao": "LPPS",
      "alert": "OK",
      "vis_m": 9999,
      "fzfg": false,
      "metar_trigger": false,
      "taf_trigger": false,
      "metar": "METAR LPPS 032330Z 27016KT 9999 BKN011 BKN030 17/16 Q1015",
      "taf": "TAF LPPS 032300Z 0400/0506 27017KT 9999 SCT013 SCT030"
    },
    {
      "icao": "LPPT",
      "alert": "OK",
      "vis_m": 6000,
      "fzfg": false,
      "metar_trigger": false,
      "taf_trigger": false,
      "metar": "METAR LPPT 032330Z 26020G36KT 6000 -RA FEW004 SCT006 BKN011 16/15 Q0994",
      "taf": "TAF LPPT 032300Z 0400/0506 25018KT 6000 -RA SCT006 BKN012"
    },
    {
      "icao": "LQBK",
      "alert": "OK",
      "vis_m": 7000,
      "fzfg": false,
      "metar_trigger": false,
      "taf_trigger": false,
      "metar": "METAR LQBK 032330Z VRB02KT 7000 SCT027 05/04 Q1007 NOSIG",
      "taf": "TAF LQBK 032300Z 0400/0424 VRB02KT 9999 SCT040 TX11/0414Z TN04/0406Z"
    },
    {
      "icao": "LQSA",
      "alert": "OK",
      "vis_m": 9999,
      "fzfg": false,
      "metar_trigger": false,
      "taf_trigger": false,
      "metar": "METAR LQSA 032330Z 10005KT 030V140 9999 -DZ BKN035 11/08 Q1008",
      "taf": "TAF LQSA 032300Z 0400/0424 13005KT 9999 BKN045 TX12/0413Z TN05/0405Z"
    },
    {
      "icao": "LQTZ",
      "alert": "OK",
      "vis_m": 9999,
      "fzfg": false,
      "metar_trigger": false,
      "taf_trigger": false,
      "metar": "METAR LQTZ 032330Z 13006KT 100V160 9999 SCT055 12/07 Q1008",
      "taf": "TAF LQTZ 032300Z 0400/0424 08007KT 9999 SCT050 TX14/0413Z TN06/0406Z"
    },
    {
      "icao": "LRBC",
      "alert": "OK",
      "vis_m": 9999,
      "fzfg": false,
      "metar_trigger": false,
      "taf_trigger": false,
      "metar": "METAR LRBC 032330Z 16013KT CAVOK M05/M08 Q1020",
      "taf": "TAF LRBC 032300Z 0400/0409 16014KT CAVOK"
    },
    {
      "icao": "LRBS",
      "alert": "OK",
      "vis_m": 9999,
      "fzfg": false,
      "metar_trigger": false,
      "taf_trigger": false,
      "metar": "METAR LRBS 032330Z 01005KT 330V050 CAVOK M04/M08 Q1021 NOSIG",
      "taf": "TAF LRBS 032300Z 0400/0424 05006KT CAVOK"
    },
    {
      "icao": "LRBV",
      "alert": "OK",
      "vis_m": 9999,
      "fzfg": false,
      "metar_trigger": false,
      "taf_trigger": false,
      "metar": "METAR LRBV 032330Z AUTO 10003KT 9999 OVC075/// 00/M03 Q1014",
      "taf": ""
    },
    {
      "icao": "LRCL",
      "alert": "OK",
      "vis_m": 9999,
      "fzfg": false,
      "metar_trigger": false,
      "taf_trigger": false,
      "metar": "METAR LRCL 032330Z 09008KT 9999 -RA OVC041 02/M01 Q1014",
      "taf": "TAF LRCL 032300Z 0400/0409 07006KT 9999 BKN050"
    },
    {
      "icao": "LRCV",
      "alert": "OK",
      "vis_m": 9999,
      "fzfg": false,
      "metar_trigger": false,
      "taf_trigger": false,
      "metar": "METAR LRCV 032330Z 02003KT CAVOK M06/M08 Q1020",
      "taf": "TAF LRCV 032300Z 0400/0409 VRB04KT CAVOK"
    },
    {
      "icao": "LRIA",
      "alert": "OK",
      "vis_m": 9999,
      "fzfg": false,
      "metar_trigger": false,
      "taf_trigger": false,
      "metar": "METAR LRIA 032330Z 11013KT CAVOK M07/M09 Q1021",
      "taf": "TAF LRIA 032300Z 0400/0409 12008KT CAVOK"
    },
    {
      "icao": "LROP",
      "alert": "OK",
      "vis_m": 9999,
      "fzfg": false,
      "metar_trigger": false,
      "taf_trigger": false,
      "metar": "METAR LROP 032330Z 01007KT CAVOK M04/M10 Q1021 NOSIG",
      "taf": "TAF LROP 032300Z 0400/0424 05006KT CAVOK"
    },
    {
      "icao": "LRSB",
      "alert": "OK",
      "vis_m": 9999,
      "fzfg": false,
      "metar_trigger": false,
      "taf_trigger": false,
      "metar": "METAR LRSB 032330Z 22004KT 9999 BKN065 01/M00 Q1014",
      "taf": "TAF LRSB 032300Z 0400/0424 VRB04KT 9999 BKN065"
    },
    {
      "icao": "LRSM",
      "alert": "OK",
      "vis_m": 9999,
      "fzfg": false,
      "metar_trigger": false,
      "taf_trigger": false,
      "metar": "METAR LRSM 032330Z AUTO 12005KT 9999 -DZ SCT034/// BKN039/// OVC046/// 03/01 Q1014",
      "taf": "TAF LRSM 031400Z 0315/0324 VRB04KT 9999 BKN040"
    },
    {
      "icao": "LRSV",
      "alert": "OK",
      "vis_m": 9999,
      "fzfg": false,
      "metar_trigger": false,
      "taf_trigger": false,
      "metar": "METAR LRSV 032330Z 14012KT CAVOK M06/M08 Q1016",
      "taf": "TAF LRSV 032300Z 0400/0409 14010KT 9999 BKN010"
    },
    {
      "icao": "LRTM",
      "alert": "OK",
      "vis_m": 7000,
      "fzfg": false,
      "metar_trigger": false,
      "taf_trigger": false,
      "metar": "METAR LRTM 032330Z AUTO 23002KT 7000 BKN046/// 01/M00 Q1015",
      "taf": "TAF LRTM 032300Z 0400/0409 VRB04KT CAVOK"
    },
    {
      "icao": "LRTR",
      "alert": "OK",
      "vis_m": 9999,
      "fzfg": false,
      "metar_trigger": false,
      "taf_trigger": false,
      "metar": "METAR LRTR 032330Z 10012KT 9999 -RA SCT045 02/01 Q1012",
      "taf": "TAF LRTR 032300Z 0400/0424 11012KT 9999 SCT045"
    },
    {
      "icao": "LTAC",
      "alert": "OK",
      "vis_m": 9999,
      "fzfg": false,
      "metar_trigger": false,
      "taf_trigger": false,
      "metar": "METAR LTAC 032350Z VRB01KT CAVOK M02/M05 Q1021 NOSIG",
      "taf": "TAF LTAC 032240Z 0400/0424 VRB02KT CAVOK"
    },
    {
      "icao": "LTFM",
      "alert": "OK",
      "vis_m": 9999,
      "fzfg": false,
      "metar_trigger": false,
      "taf_trigger": false,
      "metar": "METAR LTFM 032350Z 17004KT 9999 BKN035 03/01 Q1023 NOSIG",
      "taf": "TAF LTFM 032240Z 0400/0506 15005KT 9999 BKN035"
    },
    {
      "icao": "LUKK",
      "alert": "OK",
      "vis_m": 9999,
      "fzfg": false,
      "metar_trigger": false,
      "taf_trigger": false,
      "metar": "METAR LUKK 032330Z 10005KT 060V170 CAVOK M09/M11 Q1023 NOSIG",
      "taf": "TAF LUKK 032302Z 0400/0424 11008KT CAVOK"
    },
    {
      "icao": "LWOH",
      "alert": "OK",
      "vis_m": null,
      "fzfg": false,
      "metar_trigger": false,
      "taf_trigger": false,
      "metar": "",
      "taf": "TAF LWOH 032335Z 0400/0424 VRB02KT 9999 BKN040"
    },
    {
      "icao": "LWSK",
      "alert": "OK",
      "vis_m": 9999,
      "fzfg": false,
      "metar_trigger": false,
      "taf_trigger": false,
      "metar": "METAR LWSK 032350Z VRB01KT 9999 SCT015 BKN026 04/02 Q1018 NOSIG",
      "taf": "TAF LWSK 032335Z 0400/0424 VRB02KT 9999 SCT015 BKN025"
    },
    {
      "icao": "LYBE",
      "alert": "OK",
      "vis_m": 9999,
      "fzfg": false,
      "metar_trigger": false,
      "taf_trigger": false,
      "metar": "METAR LYBE 032330Z 13013KT 9999 -RA NSC 06/02 Q1011 NOSIG",
      "taf": "TAF LYBE 032300Z 0400/0424 12014KT CAVOK TX10/0412Z TN03/0406Z"
    },
    {
      "icao": "LYNI",
      "alert": "OK",
      "vis_m": 9999,
      "fzfg": false,
      "metar_trigger": false,
      "taf_trigger": false,
      "metar": "METAR LYNI 032330Z 10008KT CAVOK 05/01 Q1015 NOSIG",
      "taf": "TAF LYNI 032300Z 0400/0424 11008KT 9999 BKN040 BKN090 TX11/0413Z TN03/0406Z"
    },
    {
      "icao": "LYPG",
      "alert": "OK",
      "vis_m": 300,
      "fzfg": false,
      "metar_trigger": false,
      "taf_trigger": false,
      "metar": "METAR LYPG 032330Z VRB01KT 0300 R18/0450N R36/0400N FG SCT050 OVC090 07/07 Q1014 NOSIG",
      "taf": "TAF LYPG 032300Z 0400/0424 32005KT 6000 SCT010 SCT040 OVC090 TX16/0416Z TN07/0403Z"
    },
    {
      "icao": "LZIB",
      "alert": "OK",
      "vis_m": 9999,
      "fzfg": false,
      "metar_trigger": false,
      "taf_trigger": false,
      "metar": "METAR LZIB 032330Z 03008KT 9999 OVC008 01/M00 Q1010 NOSIG",
      "taf": "TAF LZIB 032315Z 0400/0500 06010KT 9999 OVC016"
    },
    {
      "icao": "LZKZ",
      "alert": "OK",
      "vis_m": 4500,
      "fzfg": false,
      "metar_trigger": false,
      "taf_trigger": false,
      "metar": "METAR LZKZ 032330Z 35004KT 4500 -SN BR OVC009 00/M00 Q1013 NOSIG",
      "taf": "TAF LZKZ 032315Z 0400/0500 34005KT 9999 OVC020"
    },
    {
      "icao": "LZTT",
      "alert": "OK",
      "vis_m": 9999,
      "fzfg": false,
      "metar_trigger": false,
      "taf_trigger": false,
      "metar": "METAR LZTT 032330Z 16006KT 110V200 9999 FEW009 BKN033 M03/M04 Q1009",
      "taf": "TAF LZTT 032315Z 0400/0500 17004KT 4000 -SN BKN030"
    },
    {
      "icao": "OEJN",
      "alert": "OK",
      "vis_m": 9999,
      "fzfg": false,
      "metar_trigger": false,
      "taf_trigger": false,
      "metar": "METAR OEJN 032300Z 36007KT 9999 FEW040 24/17 Q1016 NOSIG",
      "taf": "TAF OEJN 032300Z 0400/0506 VRB03KT 7000 NSC"
    },
    {
      "icao": "OEMA",
      "alert": "OK",
      "vis_m": 9999,
      "fzfg": false,
      "metar_trigger": false,
      "taf_trigger": false,
      "metar": "METAR OEMA 032300Z 33004KT CAVOK 19/01 Q1019 NOSIG",
      "taf": "TAF OEMA 032300Z 0400/0506 VRB03KT CAVOK"
    },
    {
      "icao": "OJAI",
      "alert": "OK",
      "vis_m": 4000,
      "fzfg": false,
      "metar_trigger": false,
      "taf_trigger": false,
      "metar": "METAR OJAI 032300Z 27009KT 4000 BR SCT020 10/08 Q1021 NOSIG",
      "taf": "TAF OJAI 032239Z 0400/0506 26010KT 3000 BR SCT030"
    },
    {
      "icao": "OMAA",
      "alert": "OK",
      "vis_m": 9999,
      "fzfg": false,
      "metar_trigger": false,
      "taf_trigger": false,
      "metar": "METAR OMAA 032330Z 11007KT CAVOK 18/13 Q1015 NOSIG",
      "taf": "TAF OMAA 032300Z 0400/0506 09006KT 8000 NSC"
    },
    {
      "icao": "OMDB",
      "alert": "OK",
      "vis_m": 9999,
      "fzfg": false,
      "metar_trigger": false,
      "taf_trigger": false,
      "metar": "METAR OMDB 032300Z 13007KT CAVOK 20/16 Q1015 NOSIG",
      "taf": "TAF OMDB 032300Z 0400/0506 10005KT 8000 NSC"
    },
    {
      "icao": "UAAA",
      "alert": "OK",
      "vis_m": 7000,
      "fzfg": false,
      "metar_trigger": false,
      "taf_trigger": false,
      "metar": "METAR UAAA 032330Z VRB01MPS 7000 BKN021CB OVC100 04/02 Q1023 NOSIG",
      "taf": "TAF UAAA 032304Z 0400/0424 32003MPS 4000 BR FU BKN020CB OVC050 TX06/0409Z TN01/0402Z"
    },
    {
      "icao": "UBBB",
      "alert": "OK",
      "vis_m": 9999,
      "fzfg": false,
      "metar_trigger": false,
      "taf_trigger": false,
      "metar": "METAR UBBB 032330Z 33024G34KT 9999 -DZ OVC005 06/05 Q1013 NOSIG",
      "taf": "TAF UBBB 032303Z 0400/0424 32024G34KT 6000 BKN006 OVC020 TX04/0409Z TN03/0402Z"
    },
    {
      "icao": "UDSG",
      "alert": "OK",
      "vis_m": 9999,
      "fzfg": false,
      "metar_trigger": false,
      "taf_trigger": false,
      "metar": "METAR UDSG 032330Z 35014G24KT 9999 BKN033 M01/M07 Q1014 NOSIG",
      "taf": "TAF UDSG 032258Z 0400/0424 VRB06KT 9999 BKN030"
    },
    {
      "icao": "UDYZ",
      "alert": "OK",
      "vis_m": 9999,
      "fzfg": false,
      "metar_trigger": false,
      "taf_trigger": false,
      "metar": "METAR UDYZ 032330Z 10007KT 9999 SCT046 02/00 Q1011 NOSIG",
      "taf": "TAF UDYZ 032300Z 0400/0424 13006KT 2300 BR SCT020"
    },
    {
      "icao": "UGKO",
      "alert": "OK",
      "vis_m": 9999,
      "fzfg": false,
      "metar_trigger": false,
      "taf_trigger": false,
      "metar": "METAR UGKO 032330Z 24009KT 9999 -RA SCT014 BKN016 OVC022 04/03 Q1023 NOSIG",
      "taf": "TAF UGKO 032300Z 0400/0424 25008KT 9999 SCT030 OVC050 TX06/0410Z TN00/0424Z"
    }
  ]
}