{
  "ts_utc": "2026-02-23T19:33:10Z",
  "threshold_m": 150,
  "source": "stations_override.txt (ICAO list) + aviationweather.gov (METAR/TAF raw)",
  "station_count": 159,
  "stations": [
    {
      "icao": "BIKF",
      "alert": "OK",
      "vis_m": 9999,
      "fzfg": false,
      "metar_trigger": false,
      "taf_trigger": false,
      "metar": "METAR BIKF 231900Z 16010KT 9999 FEW013TCU BKN030 05/04 Q0991",
      "taf": "TAF BIKF 231656Z 2318/2418 16008KT 9999 -SHRA SCT015 BKN025 TX06/2318Z TNM01/2418Z"
    },
    {
      "icao": "BKPR",
      "alert": "OK",
      "vis_m": 9999,
      "fzfg": false,
      "metar_trigger": false,
      "taf_trigger": false,
      "metar": "METAR BKPR 231930Z 19004KT 160V250 CAVOK 07/03 Q1018 NOSIG",
      "taf": "TAF BKPR 231730Z 2318/2418 23008KT 9999 FEW040 BKN080"
    },
    {
      "icao": "EBCI",
      "alert": "OK",
      "vis_m": 8000,
      "fzfg": false,
      "metar_trigger": false,
      "taf_trigger": false,
      "metar": "METAR EBCI 231920Z 24012KT 8000 -RADZ FEW012 BKN018 09/08 Q1018 BECMG BKN012 TEMPO 4000 RADZ",
      "taf": "TAF EBCI 231703Z 2318/2424 26014KT 9999 SCT030"
    },
    {
      "icao": "EDDB",
      "alert": "OK",
      "vis_m": 9999,
      "fzfg": false,
      "metar_trigger": false,
      "taf_trigger": false,
      "metar": "METAR EDDB 231920Z AUTO 25007KT 9999 -SHRA SCT034 SCT043 FEW///TCU 05/04 Q1009 TEMPO SHRA BKN012TCU",
      "taf": "TAF EDDB 231700Z 2318/2418 26011KT 9999 SCT020 BKN030"
    },
    {
      "icao": "EDDH",
      "alert": "OK",
      "vis_m": 9999,
      "fzfg": false,
      "metar_trigger": false,
      "taf_trigger": false,
      "metar": "METAR EDDH 231920Z AUTO 28009KT 240V310 9999 OVC013 07/05 Q1009 TEMPO BKN009",
      "taf": ""
    },
    {
      "icao": "EDDK",
      "alert": "OK",
      "vis_m": 9999,
      "fzfg": false,
      "metar_trigger": false,
      "taf_trigger": false,
      "metar": "METAR EDDK 231920Z AUTO 26013KT 9999 VCSH SCT027 FEW///TCU 10/07 Q1016 NOSIG",
      "taf": "TAF EDDK 231700Z 2318/2424 26010KT 9999 BKN025"
    },
    {
      "icao": "EDDN",
      "alert": "OK",
      "vis_m": 9999,
      "fzfg": false,
      "metar_trigger": false,
      "taf_trigger": false,
      "metar": "METAR EDDN 231920Z AUTO 26011KT 9999 FEW040 09/04 Q1016 NOSIG",
      "taf": "TAF EDDN 231700Z 2318/2418 26013KT 9999 SCT030"
    },
    {
      "icao": "EDDS",
      "alert": "OK",
      "vis_m": 9999,
      "fzfg": false,
      "metar_trigger": false,
      "taf_trigger": false,
      "metar": "METAR EDDS 231920Z AUTO 23006KT 180V260 9999 FEW036 10/06 Q1017 NOSIG",
      "taf": "TAF EDDS 231700Z 2318/2418 25010KT 9999 BKN030"
    },
    {
      "icao": "EDFH",
      "alert": "OK",
      "vis_m": 9999,
      "fzfg": false,
      "metar_trigger": false,
      "taf_trigger": false,
      "metar": "METAR EDFH 231920Z 27017KT 9999 BKN024 08/04 Q1016",
      "taf": "TAF EDFH 231700Z 2318/2418 27015G25KT 9999 SCT010 BKN030"
    },
    {
      "icao": "EDJA",
      "alert": "OK",
      "vis_m": 9999,
      "fzfg": false,
      "metar_trigger": false,
      "taf_trigger": false,
      "metar": "METAR EDJA 231920Z 24010KT 9999 -RA FEW022 08/06 Q1018",
      "taf": "TAF EDJA 231700Z 2318/2403 24014KT 9999 SCT020 BKN040"
    },
    {
      "icao": "EDLW",
      "alert": "OK",
      "vis_m": 9999,
      "fzfg": false,
      "metar_trigger": false,
      "taf_trigger": false,
      "metar": "METAR EDLW 231920Z 25009KT 230V290 9999 BKN026 09/05 Q1014",
      "taf": "TAF EDLW 231700Z 2318/2418 25010KT 9999 BKN025"
    },
    {
      "icao": "EDNY",
      "alert": "OK",
      "vis_m": 9999,
      "fzfg": false,
      "metar_trigger": false,
      "taf_trigger": false,
      "metar": "METAR EDNY 231920Z 24007KT 9999 -RA BKN021 BKN028 10/08 Q1020",
      "taf": "TAF EDNY 231700Z 2318/2403 25008KT 9999 SCT030 BKN045"
    },
    {
      "icao": "EDSB",
      "alert": "OK",
      "vis_m": 9999,
      "fzfg": false,
      "metar_trigger": false,
      "taf_trigger": false,
      "metar": "METAR EDSB 231920Z 21011KT 9999 FEW032 BKN060 OVC076 11/08 Q1019",
      "taf": "TAF EDSB 231700Z 2318/2418 21009KT 9999 SCT025 BKN040"
    },
    {
      "icao": "EETN",
      "alert": "OK",
      "vis_m": 9999,
      "fzfg": false,
      "metar_trigger": false,
      "taf_trigger": false,
      "metar": "METAR EETN 231920Z 11008KT CAVOK M06/M09 Q1007 NOSIG",
      "taf": "TAF EETN 231730Z 2318/2418 07008KT CAVOK"
    },
    {
      "icao": "EFTU",
      "alert": "OK",
      "vis_m": 9999,
      "fzfg": false,
      "metar_trigger": false,
      "taf_trigger": false,
      "metar": "METAR EFTU 231920Z AUTO 11007KT CAVOK M07/M08 Q1007",
      "taf": "TAF EFTU 231729Z 2318/2418 12005KT 9999 OVC009"
    },
    {
      "icao": "EGBB",
      "alert": "OK",
      "vis_m": 2600,
      "fzfg": false,
      "metar_trigger": false,
      "taf_trigger": false,
      "metar": "METAR EGBB 231920Z 18003KT 130V220 2600 -DZ OVC004 10/09 Q1013",
      "taf": "TAF EGBB 231845Z 2318/2418 19005KT 9999 BKN010"
    },
    {
      "icao": "EGGP",
      "alert": "OK",
      "vis_m": 9999,
      "fzfg": false,
      "metar_trigger": false,
      "taf_trigger": false,
      "metar": "METAR EGGP 231920Z 10006KT 9999 OVC014 09/08 Q1011",
      "taf": "TAF EGGP 231656Z 2318/2418 19007KT 9999 SCT030"
    },
    {
      "icao": "EGGW",
      "alert": "OK",
      "vis_m": 2500,
      "fzfg": false,
      "metar_trigger": false,
      "taf_trigger": false,
      "metar": "METAR EGGW 231920Z AUTO 20006KT 160V230 2500 -RADZ BKN002 BKN010 09/09 Q1014 REDZ",
      "taf": ""
    },
    {
      "icao": "EGKK",
      "alert": "OK",
      "vis_m": 9999,
      "fzfg": false,
      "metar_trigger": false,
      "taf_trigger": false,
      "metar": "METAR EGKK 231920Z 22008KT 9999 OVC006 11/11 Q1016",
      "taf": "TAF EGKK 231659Z 2318/2424 22010KT 9999 BKN017"
    },
    {
      "icao": "EGNM",
      "alert": "OK",
      "vis_m": 9999,
      "fzfg": false,
      "metar_trigger": false,
      "taf_trigger": false,
      "metar": "METAR EGNM 231920Z 23005KT 9999 -RA FEW010 BKN015 09/07 Q1011",
      "taf": "TAF EGNM 231658Z 2318/2418 26010KT 9999 SCT024"
    },
    {
      "icao": "EGPD",
      "alert": "OK",
      "vis_m": 9999,
      "fzfg": false,
      "metar_trigger": false,
      "taf_trigger": false,
      "metar": "METAR EGPD 231920Z COR AUTO 28004KT 9999 BKN035 08/04 Q1007 NOSIG",
      "taf": "TAF EGPD 231656Z 2318/2418 28009KT 9999 SCT035"
    },
    {
      "icao": "EGPF",
      "alert": "OK",
      "vis_m": 7000,
      "fzfg": false,
      "metar_trigger": false,
      "taf_trigger": false,
      "metar": "METAR EGPF 231920Z AUTO 21007KT 7000 -RA NCD 09/06 Q1008",
      "taf": ""
    },
    {
      "icao": "EHBK",
      "alert": "OK",
      "vis_m": 9999,
      "fzfg": false,
      "metar_trigger": false,
      "taf_trigger": false,
      "metar": "METAR EHBK 231925Z AUTO 24010KT 200V270 9999 FEW029 SCT039 10/07 Q1016 NOSIG",
      "taf": "TAF EHBK 231718Z 2318/2424 25010KT 9999 BKN018"
    },
    {
      "icao": "EHEH",
      "alert": "OK",
      "vis_m": 9999,
      "fzfg": false,
      "metar_trigger": false,
      "taf_trigger": false,
      "metar": "METAR EHEH 231925Z AUTO 24010KT 210V270 9999 OVC049 10/07 Q1015 BLU NOSIG",
      "taf": "TAF EHEH 231746Z 2318/2424 26012G22KT 9999 FEW022"
    },
    {
      "icao": "EKBI",
      "alert": "OK",
      "vis_m": 1400,
      "fzfg": false,
      "metar_trigger": false,
      "taf_trigger": false,
      "metar": "METAR EKBI 231920Z AUTO 26007KT 1400 R09/P1500N R27/P1500N BCFG OVC002/// 04/04 Q1006",
      "taf": "TAF EKBI 231727Z 2318/2418 25008KT 8000 BKN003"
    },
    {
      "icao": "EKCH",
      "alert": "OK",
      "vis_m": 4000,
      "fzfg": false,
      "metar_trigger": false,
      "taf_trigger": false,
      "metar": "METAR EKCH 231920Z 26004KT 4000 BR BKN007 03/03 Q1005 TEMPO BKN004",
      "taf": "TAF EKCH 231727Z 2318/2418 26010KT 8000 BKN005"
    },
    {
      "icao": "ENAL",
      "alert": "OK",
      "vis_m": 9999,
      "fzfg": false,
      "metar_trigger": false,
      "taf_trigger": false,
      "metar": "METAR ENAL 231920Z 06011KT 9999 FEW014 02/00 Q1005",
      "taf": "TAF ENAL 231700Z 2318/2403 07008KT 9999 FEW010 BKN020"
    },
    {
      "icao": "ENBR",
      "alert": "OK",
      "vis_m": 9999,
      "fzfg": false,
      "metar_trigger": false,
      "taf_trigger": false,
      "metar": "METAR ENBR 231920Z 13005KT 9999 BKN008 04/03 Q1004 NOSIG RMK WIND 1200FT 16009KT",
      "taf": "TAF ENBR 231700Z 2318/2418 13008KT 9999 SCT008 BKN020"
    },
    {
      "icao": "ENGM",
      "alert": "OK",
      "vis_m": 9999,
      "fzfg": false,
      "metar_trigger": false,
      "taf_trigger": false,
      "metar": "METAR ENGM 231920Z VRB01KT 9999 FEW011 BKN014 M02/M04 Q1003 TEMPO BKN016",
      "taf": "TAF ENGM 231700Z 2318/2418 02003KT 8000 -SN SCT007 BKN018"
    },
    {
      "icao": "ENHD",
      "alert": "OK",
      "vis_m": 1200,
      "fzfg": false,
      "metar_trigger": false,
      "taf_trigger": false,
      "metar": "METAR ENHD 231920Z 11008KT 1200 R13/P2000N R31/P2000N BR FEW001 BKN035 03/03 Q1005",
      "taf": "TAF ENHD 231400Z 2315/2323 14006KT 9999 SCT010 BKN015"
    },
    {
      "icao": "ENTC",
      "alert": "OK",
      "vis_m": 9999,
      "fzfg": false,
      "metar_trigger": false,
      "taf_trigger": false,
      "metar": "METAR ENTC 231920Z 00000KT CAVOK M09/M11 Q1009 NOSIG RMK WIND 2600FT 20007KT",
      "taf": "TAF ENTC 231700Z 2318/2418 22008KT 9999 FEW015"
    },
    {
      "icao": "ENTO",
      "alert": "OK",
      "vis_m": 9999,
      "fzfg": false,
      "metar_trigger": false,
      "taf_trigger": false,
      "metar": "METAR ENTO 231920Z 36004KT 330V040 9999 OVC006 M01/M01 Q1004 NOSIG",
      "taf": "TAF ENTO 231700Z 2318/2418 18005KT 1500 BR BKN002"
    },
    {
      "icao": "ENVA",
      "alert": "OK",
      "vis_m": 9999,
      "fzfg": false,
      "metar_trigger": false,
      "taf_trigger": false,
      "metar": "METAR ENVA 231920Z 11005KT CAVOK M07/M09 Q1006 NOSIG RMK WIND 670FT 11003KT",
      "taf": "TAF ENVA 231700Z 2318/2418 09005KT CAVOK"
    },
    {
      "icao": "ENZV",
      "alert": "OK",
      "vis_m": 9999,
      "fzfg": false,
      "metar_trigger": false,
      "taf_trigger": false,
      "metar": "METAR ENZV 231920Z 19002KT 9999 VCSH FEW010 SCT013 BKN031 04/03 Q1005 TEMPO BKN012",
      "taf": ""
    },
    {
      "icao": "EPGD",
      "alert": "OK",
      "vis_m": 6000,
      "fzfg": false,
      "metar_trigger": false,
      "taf_trigger": false,
      "metar": "METAR EPGD 231900Z 28007KT 6000 -DZ OVC003 03/03 Q1003",
      "taf": "TAF EPGD 231730Z 2318/2418 25006KT 9999 BKN005"
    },
    {
      "icao": "EPKK",
      "alert": "OK",
      "vis_m": 9999,
      "fzfg": false,
      "metar_trigger": false,
      "taf_trigger": false,
      "metar": "METAR EPKK 231900Z 22004KT CAVOK 05/03 Q1010",
      "taf": "TAF EPKK 231730Z 2318/2418 24012KT 9999 BKN040"
    },
    {
      "icao": "EPKT",
      "alert": "OK",
      "vis_m": 9999,
      "fzfg": false,
      "metar_trigger": false,
      "taf_trigger": false,
      "metar": "METAR EPKT 231900Z 21006KT CAVOK 05/02 Q1009",
      "taf": "TAF EPKT 231730Z 2318/2418 24008KT 9999 BKN030"
    },
    {
      "icao": "EPLB",
      "alert": "OK",
      "vis_m": 9999,
      "fzfg": false,
      "metar_trigger": false,
      "taf_trigger": false,
      "metar": "METAR EPLB 231900Z 23006KT 9999 FEW019 SCT023CB BKN027 05/04 Q1008",
      "taf": "TAF EPLB 231730Z 2318/2418 25007KT 9999 BKN025"
    },
    {
      "icao": "EPMO",
      "alert": "OK",
      "vis_m": 8000,
      "fzfg": false,
      "metar_trigger": false,
      "taf_trigger": false,
      "metar": "METAR EPMO 231900Z 18005KT 8000 -SHRA SCT019 SCT026CB BKN034 05/05 Q1006",
      "taf": "TAF EPMO 231730Z 2318/2418 23007KT 9999 BKN035"
    },
    {
      "icao": "EPPO",
      "alert": "OK",
      "vis_m": 9999,
      "fzfg": false,
      "metar_trigger": false,
      "taf_trigger": false,
      "metar": "METAR EPPO 231900Z 26008KT 9999 -SHRA FEW023CB BKN030 06/04 Q1007",
      "taf": "TAF EPPO 231730Z 2318/2418 25008KT 9999 BKN020"
    },
    {
      "icao": "EPRA",
      "alert": "OK",
      "vis_m": 9999,
      "fzfg": false,
      "metar_trigger": false,
      "taf_trigger": false,
      "metar": "METAR EPRA 231900Z 22008KT 9999 SCT025 BKN045 05/04 Q1008",
      "taf": "TAF EPRA 231730Z 2318/2403 26010KT 9999 BKN025"
    },
    {
      "icao": "EPRZ",
      "alert": "OK",
      "vis_m": 9999,
      "fzfg": false,
      "metar_trigger": false,
      "taf_trigger": false,
      "metar": "METAR EPRZ 231900Z 20007KT CAVOK 06/04 Q1010",
      "taf": "TAF EPRZ 231730Z 2318/2418 24008KT 9999 BKN030"
    },
    {
      "icao": "EPSC",
      "alert": "OK",
      "vis_m": 9999,
      "fzfg": false,
      "metar_trigger": false,
      "taf_trigger": false,
      "metar": "METAR EPSC 231900Z 24005KT 200V260 9999 FEW007 SCT019 BKN025 05/04 Q1006",
      "taf": "TAF EPSC 231730Z 2318/2418 26010KT 9999 BKN020"
    },
    {
      "icao": "EPSY",
      "alert": "OK",
      "vis_m": 2800,
      "fzfg": false,
      "metar_trigger": false,
      "taf_trigger": false,
      "metar": "METAR EPSY 231900Z 20006KT 2800 -RA BR OVC002 03/03 Q1004",
      "taf": "TAF EPSY 231730Z 2318/2403 21006KT 8000 OVC006"
    },
    {
      "icao": "EPWA",
      "alert": "OK",
      "vis_m": 9999,
      "fzfg": false,
      "metar_trigger": false,
      "taf_trigger": false,
      "metar": "METAR EPWA 231900Z 18005KT 9999 BKN022 BKN038 05/05 Q1006 NOSIG",
      "taf": "TAF EPWA 231730Z 2318/2418 23007KT 9999 BKN035"
    },
    {
      "icao": "EPWR",
      "alert": "OK",
      "vis_m": 9999,
      "fzfg": false,
      "metar_trigger": false,
      "taf_trigger": false,
      "metar": "METAR EPWR 231900Z 26008KT 9999 FEW030CB SCT038 07/04 Q1008",
      "taf": "TAF EPWR 231730Z 2318/2418 26010KT CAVOK"
    },
    {
      "icao": "ESGG",
      "alert": "OK",
      "vis_m": 6000,
      "fzfg": false,
      "metar_trigger": false,
      "taf_trigger": false,
      "metar": "METAR ESGG 231920Z 00000KT 6000 OVC003 01/01 Q1003",
      "taf": ""
    },
    {
      "icao": "ESKN",
      "alert": "OK",
      "vis_m": 2500,
      "fzfg": false,
      "metar_trigger": false,
      "taf_trigger": false,
      "metar": "METAR ESKN 231920Z 02002KT 2500 BR OVC002 00/00 Q1004",
      "taf": "TAF ESKN 231730Z 2318/2418 12006KT 9999 SCT003 BKN010"
    },
    {
      "icao": "ESMS",
      "alert": "OK",
      "vis_m": 900,
      "fzfg": false,
      "metar_trigger": false,
      "taf_trigger": false,
      "metar": "METAR ESMS 231920Z 28006KT 0900 R17/P2000N R35/P2000N FG OVC002 03/03 Q1004",
      "taf": "TAF ESMS 231727Z 2318/2418 26010KT 5000 BKN002"
    },
    {
      "icao": "ESSA",
      "alert": "OK",
      "vis_m": 9999,
      "fzfg": false,
      "metar_trigger": false,
      "taf_trigger": false,
      "metar": "METAR ESSA 231920Z 10004KT 9999 BKN007 M01/M02 Q1004 NOSIG",
      "taf": "TAF ESSA 231730Z 2318/2418 12007KT 9999 SCT008 BKN015"
    },
    {
      "icao": "EYKA",
      "alert": "OK",
      "vis_m": 7000,
      "fzfg": false,
      "metar_trigger": false,
      "taf_trigger": false,
      "metar": "METAR EYKA 231920Z 23006KT 7000 BKN011 OVC017 01/01 Q1003",
      "taf": "TAF EYKA 231707Z 2318/2418 VRB04KT 3000 BR OVC002"
    },
    {
      "icao": "EYPA",
      "alert": "OK",
      "vis_m": 5000,
      "fzfg": false,
      "metar_trigger": false,
      "taf_trigger": false,
      "metar": "METAR EYPA 231920Z VRB01KT 5000 BR OVC003 00/M00 Q1002",
      "taf": "TAF EYPA 231703Z 2318/2418 VRB04KT 5000 BR OVC005"
    },
    {
      "icao": "EYVI",
      "alert": "OK",
      "vis_m": 550,
      "fzfg": false,
      "metar_trigger": false,
      "taf_trigger": false,
      "metar": "METAR EYVI 231920Z 21006KT 0550 R01/1500N FG VV001 00/M00 Q1003 NOSIG",
      "taf": ""
    },
    {
      "icao": "GCFV",
      "alert": "OK",
      "vis_m": 9999,
      "fzfg": false,
      "metar_trigger": false,
      "taf_trigger": false,
      "metar": "METAR GCFV 231900Z 01003KT 350V050 CAVOK 21/14 Q1021",
      "taf": "TAF GCFV 231400Z 2315/2415 07005KT 9000 NSC TX24/2414Z TN17/2406Z"
    },
    {
      "icao": "GCLP",
      "alert": "OK",
      "vis_m": 9999,
      "fzfg": false,
      "metar_trigger": false,
      "taf_trigger": false,
      "metar": "METAR GCLP 231900Z 17003KT 120V210 CAVOK 22/10 Q1020 NOSIG",
      "taf": "TAF GCLP 231400Z 2315/2415 15006KT 9000 NSC TX26/2414Z TN17/2406Z"
    },
    {
      "icao": "GCTS",
      "alert": "OK",
      "vis_m": 9999,
      "fzfg": false,
      "metar_trigger": false,
      "taf_trigger": false,
      "metar": "METAR GCTS 231900Z 15004KT CAVOK 22/08 Q1021 NOSIG",
      "taf": "TAF GCTS 231400Z 2315/2415 10007KT 9000 NSC TX31/2414Z TN18/2406Z"
    },
    {
      "icao": "GMAD",
      "alert": "OK",
      "vis_m": 9999,
      "fzfg": false,
      "metar_trigger": false,
      "taf_trigger": false,
      "metar": "METAR GMAD 231900Z 26010KT CAVOK 22/M02 Q1020 NOSIG",
      "taf": "TAF GMAD 231700Z 2318/2424 28012KT CAVOK"
    },
    {
      "icao": "GMMN",
      "alert": "OK",
      "vis_m": 9999,
      "fzfg": false,
      "metar_trigger": false,
      "taf_trigger": false,
      "metar": "METAR GMMN 231900Z 04004KT CAVOK 18/12 Q1023 NOSIG",
      "taf": "TAF GMMN 231700Z 2318/2424 36006KT CAVOK"
    },
    {
      "icao": "GMMX",
      "alert": "OK",
      "vis_m": 9999,
      "fzfg": false,
      "metar_trigger": false,
      "taf_trigger": false,
      "metar": "METAR GMMX 231900Z 08005KT 050V110 CAVOK 20/02 Q1023 NOSIG",
      "taf": "TAF GMMX 231700Z 2318/2424 06006KT CAVOK"
    },
    {
      "icao": "HEGN",
      "alert": "OK",
      "vis_m": 9999,
      "fzfg": false,
      "metar_trigger": false,
      "taf_trigger": false,
      "metar": "METAR HEGN 231900Z 33015KT CAVOK 20/04 Q1015 NOSIG",
      "taf": "TAF HEGN 231700Z 2318/2424 34015G25KT CAVOK"
    },
    {
      "icao": "HEMA",
      "alert": "OK",
      "vis_m": 9999,
      "fzfg": false,
      "metar_trigger": false,
      "taf_trigger": false,
      "metar": "METAR HEMA 231900Z 30008KT CAVOK 18/08 Q1014 NOSIG",
      "taf": "TAF HEMA 231700Z 2318/2424 33012KT CAVOK"
    },
    {
      "icao": "HESH",
      "alert": "OK",
      "vis_m": 9999,
      "fzfg": false,
      "metar_trigger": false,
      "taf_trigger": false,
      "metar": "METAR HESH 231900Z 34005KT CAVOK 20/06 Q1013 NOSIG",
      "taf": "TAF HESH 231700Z 2318/2424 04010KT CAVOK"
    },
    {
      "icao": "HESX",
      "alert": "OK",
      "vis_m": 9999,
      "fzfg": false,
      "metar_trigger": false,
      "taf_trigger": false,
      "metar": "METAR HESX 231900Z 34007KT CAVOK 12/08 Q1017 NOSIG",
      "taf": "TAF HESX 231700Z 2318/2424 27012G22KT 9999 SCT020"
    },
    {
      "icao": "LATI",
      "alert": "OK",
      "vis_m": 9999,
      "fzfg": false,
      "metar_trigger": false,
      "taf_trigger": false,
      "metar": "METAR LATI 231920Z 14005KT CAVOK 08/04 Q1020 NOSIG",
      "taf": "TAF LATI 231700Z 2318/2418 VRB05KT CAVOK TX18/2412Z TN02/2404Z"
    },
    {
      "icao": "LBPD",
      "alert": "OK",
      "vis_m": 9999,
      "fzfg": false,
      "metar_trigger": false,
      "taf_trigger": false,
      "metar": "METAR LBPD 231930Z AUTO VRB02KT 9999 OVC089/// 09/06 Q1016 NOSIG",
      "taf": "TAF LBPD 231700Z 2318/2418 VRB03KT 9999 BKN060"
    },
    {
      "icao": "LBSF",
      "alert": "OK",
      "vis_m": 9999,
      "fzfg": false,
      "metar_trigger": false,
      "taf_trigger": false,
      "metar": "METAR LBSF 231930Z AUTO 00000KT 9999 NSC 05/02 Q1017 NOSIG",
      "taf": "TAF LBSF 231700Z 2318/2418 VRB03KT 9999 SCT050"
    },
    {
      "icao": "LBWN",
      "alert": "OK",
      "vis_m": 9999,
      "fzfg": false,
      "metar_trigger": false,
      "taf_trigger": false,
      "metar": "METAR LBWN 231930Z AUTO 28003KT 240V300 9999 -SHRA NSC 09/04 Q1014 NOSIG",
      "taf": "TAF LBWN 231700Z 2318/2418 VRB03KT 9999 BKN045"
    },
    {
      "icao": "LCLK",
      "alert": "OK",
      "vis_m": 9999,
      "fzfg": false,
      "metar_trigger": false,
      "taf_trigger": false,
      "metar": "METAR LCLK 231930Z 29007KT CAVOK 11/08 Q1013 NOSIG",
      "taf": "TAF LCLK 231730Z 2318/2418 30007KT 9999 FEW025"
    },
    {
      "icao": "LCPH",
      "alert": "OK",
      "vis_m": 9999,
      "fzfg": false,
      "metar_trigger": false,
      "taf_trigger": false,
      "metar": "METAR LCPH 231930Z 03007KT 010V080 9999 FEW025 12/09 Q1014 NOSIG",
      "taf": "TAF LCPH 231730Z 2318/2418 30010KT 9999 FEW020"
    },
    {
      "icao": "LEAL",
      "alert": "OK",
      "vis_m": 9999,
      "fzfg": false,
      "metar_trigger": false,
      "taf_trigger": false,
      "metar": "METAR LEAL 231900Z 30003KT 270V020 CAVOK 13/11 Q1024 NOSIG",
      "taf": ""
    },
    {
      "icao": "LEBB",
      "alert": "OK",
      "vis_m": 9999,
      "fzfg": false,
      "metar_trigger": false,
      "taf_trigger": false,
      "metar": "METAR LEBB 231900Z VRB01KT CAVOK 14/11 Q1022 NOSIG",
      "taf": "TAF LEBB 231700Z 2318/2418 12005KT CAVOK TX24/2414Z TN09/2407Z"
    },
    {
      "icao": "LEBL",
      "alert": "OK",
      "vis_m": 6000,
      "fzfg": false,
      "metar_trigger": false,
      "taf_trigger": false,
      "metar": "METAR LEBL 231900Z 00000KT 6000 FEW025 13/12 Q1024 NOSIG",
      "taf": "TAF LEBL 231700Z 2318/2418 20007KT 9999 FEW025 TX19/2412Z TN08/2406Z"
    },
    {
      "icao": "LECH",
      "alert": "OK",
      "vis_m": 9000,
      "fzfg": false,
      "metar_trigger": false,
      "taf_trigger": false,
      "metar": "METAR LECH 231900Z AUTO 21004KT 9000 NCD 13/03 Q1024",
      "taf": ""
    },
    {
      "icao": "LEMD",
      "alert": "OK",
      "vis_m": 9999,
      "fzfg": false,
      "metar_trigger": false,
      "taf_trigger": false,
      "metar": "METAR LEMD 231900Z 20003KT 140V250 CAVOK 18/01 Q1024 NOSIG",
      "taf": "TAF LEMD 231700Z 2318/2424 VRB04KT CAVOK TX20/2415Z TN03/2407Z"
    },
    {
      "icao": "LEMG",
      "alert": "OK",
      "vis_m": 9999,
      "fzfg": false,
      "metar_trigger": false,
      "taf_trigger": false,
      "metar": "METAR LEMG 231900Z 09005KT CAVOK 13/10 Q1024 NOSIG",
      "taf": "TAF LEMG 231700Z 2318/2418 13010KT CAVOK TX20/2414Z TN08/2407Z"
    },
    {
      "icao": "LEVC",
      "alert": "OK",
      "vis_m": 9999,
      "fzfg": false,
      "metar_trigger": false,
      "taf_trigger": false,
      "metar": "METAR LEVC 231900Z VRB01KT CAVOK 15/10 Q1024 NOSIG",
      "taf": "TAF LEVC 231700Z 2318/2418 11009KT CAVOK TX23/2412Z TN06/2406Z"
    },
    {
      "icao": "LEXJ",
      "alert": "OK",
      "vis_m": 6000,
      "fzfg": false,
      "metar_trigger": false,
      "taf_trigger": false,
      "metar": "METAR LEXJ 231900Z 00000KT 6000 NSC 12/10 Q1021",
      "taf": "TAF LEXJ 231400Z 2315/2415 20009KT CAVOK TX22/2415Z TN11/2323Z"
    },
    {
      "icao": "LEZG",
      "alert": "OK",
      "vis_m": 9999,
      "fzfg": false,
      "metar_trigger": false,
      "taf_trigger": false,
      "metar": "METAR LEZG 231900Z 19004KT CAVOK 14/04 Q1023 NOSIG",
      "taf": "TAF LEZG 231700Z 2318/2418 VRB04KT CAVOK TX21/2414Z TN05/2406Z"
    },
    {
      "icao": "LEZL",
      "alert": "OK",
      "vis_m": 9999,
      "fzfg": false,
      "metar_trigger": false,
      "taf_trigger": false,
      "metar": "METAR LEZL 231900Z 21005KT CAVOK 19/11 Q1023 NOSIG",
      "taf": "TAF LEZL 231400Z 2315/2415 VRB03KT CAVOK TX23/2315Z TN08/2407Z"
    },
    {
      "icao": "LFBD",
      "alert": "OK",
      "vis_m": 9999,
      "fzfg": false,
      "metar_trigger": false,
      "taf_trigger": false,
      "metar": "METAR LFBD 231900Z AUTO 12006KT CAVOK 11/09 Q1024 NOSIG",
      "taf": "TAF LFBD 231700Z 2318/2424 11005KT CAVOK TX19/2415Z TN08/2406Z"
    },
    {
      "icao": "LFLL",
      "alert": "OK",
      "vis_m": 9999,
      "fzfg": false,
      "metar_trigger": false,
      "taf_trigger": false,
      "metar": "METAR LFLL 231900Z VRB03KT 9999 FEW036 BKN063 13/09 Q1024 NOSIG",
      "taf": "TAF LFLL 231700Z 2318/2424 VRB04KT 9999 BKN030"
    },
    {
      "icao": "LFLS",
      "alert": "OK",
      "vis_m": 9999,
      "fzfg": false,
      "metar_trigger": false,
      "taf_trigger": false,
      "metar": "METAR LFLS 231900Z AUTO 13004KT 100V170 9999 FEW041 OVC062 12/09 Q1024 NOSIG",
      "taf": "TAF LFLS 231400Z 2315/2415 02006KT 9999 SCT040 SCT060"
    },
    {
      "icao": "LFMN",
      "alert": "OK",
      "vis_m": 9999,
      "fzfg": false,
      "metar_trigger": false,
      "taf_trigger": false,
      "metar": "METAR LFMN 231900Z 33003KT 9999 FEW033 BKN260 13/10 Q1019 NOSIG",
      "taf": "TAF LFMN 231400Z 2315/2421 14006KT 9999 SCT026"
    },
    {
      "icao": "LFOB",
      "alert": "OK",
      "vis_m": 9999,
      "fzfg": false,
      "metar_trigger": false,
      "taf_trigger": false,
      "metar": "METAR LFOB 231900Z AUTO 22007KT 9999 OVC034 13/08 Q1019 NOSIG",
      "taf": "TAF LFOB 231700Z 2318/2418 24010KT 9999 BKN025"
    },
    {
      "icao": "LFPO",
      "alert": "OK",
      "vis_m": 9999,
      "fzfg": false,
      "metar_trigger": false,
      "taf_trigger": false,
      "metar": "METAR LFPO 231900Z 24008KT CAVOK 14/08 Q1021 NOSIG",
      "taf": "TAF LFPO 231700Z 2318/2424 22010KT CAVOK"
    },
    {
      "icao": "LFSB",
      "alert": "OK",
      "vis_m": 9999,
      "fzfg": false,
      "metar_trigger": false,
      "taf_trigger": false,
      "metar": "METAR LFSB 231900Z AUTO 24008KT 9999 FEW035 BKN048 OVC092 11/09 Q1022 TEMPO FEW030TCU",
      "taf": "TAF LFSB 231700Z 2318/2418 26012KT 9999 BKN025 BKN060"
    },
    {
      "icao": "LGAV",
      "alert": "OK",
      "vis_m": 9999,
      "fzfg": false,
      "metar_trigger": false,
      "taf_trigger": false,
      "metar": "METAR LGAV 231920Z 26002KT 9999 FEW025 08/04 Q1020 NOSIG",
      "taf": "TAF LGAV 231700Z 2318/2418 26010KT 9999 SCT030"
    },
    {
      "icao": "LGTS",
      "alert": "OK",
      "vis_m": 9999,
      "fzfg": false,
      "metar_trigger": false,
      "taf_trigger": false,
      "metar": "METAR LGTS 231920Z VRB03KT 9999 FEW025 06/04 Q1019 NOSIG",
      "taf": "TAF LGTS 231700Z 2318/2418 VRB03KT 9999 FEW030"
    },
    {
      "icao": "LHBP",
      "alert": "OK",
      "vis_m": 9999,
      "fzfg": false,
      "metar_trigger": false,
      "taf_trigger": false,
      "metar": "METAR LHBP 231930Z 18003KT 150V240 9999 FEW035TCU BKN072 06/06 Q1014 TEMPO TL2030 SHRA FEW025CB BKN030 TEMPO FM2030 30022G35KT 4000 TSRAGS BKN025CB",
      "taf": "TAF LHBP 231715Z 2318/2418 27008KT 9999 SCT030"
    },
    {
      "icao": "LHDC",
      "alert": "OK",
      "vis_m": 9999,
      "fzfg": false,
      "metar_trigger": false,
      "taf_trigger": false,
      "metar": "METAR LHDC 231845Z AUTO 26007KT CAVOK 07/05 Q1013 NOSIG",
      "taf": "TAF LHDC 231715Z 2318/2403 VRB03KT 9999 SCT040 BKN090"
    },
    {
      "icao": "LIBD",
      "alert": "OK",
      "vis_m": 9999,
      "fzfg": false,
      "metar_trigger": false,
      "taf_trigger": false,
      "metar": "METAR LIBD 231920Z 26005KT CAVOK 09/07 Q1019",
      "taf": "TAF LIBD 231700Z 2318/2418 25007KT CAVOK"
    },
    {
      "icao": "LIBG",
      "alert": "OK",
      "vis_m": 9999,
      "fzfg": false,
      "metar_trigger": false,
      "taf_trigger": false,
      "metar": "METAR LIBG 231850Z 03003KT CAVOK 09/06 Q1019",
      "taf": "TAF LIBG 231700Z 2318/2403 VRB05KT CAVOK"
    },
    {
      "icao": "LIBP",
      "alert": "OK",
      "vis_m": 9999,
      "fzfg": false,
      "metar_trigger": false,
      "taf_trigger": false,
      "metar": "METAR LIBP 231920Z AUTO 23002KT 9999 NCD 09/09 Q1019",
      "taf": "TAF LIBP 231700Z 2318/2418 VRB05KT 8000 NSC"
    },
    {
      "icao": "LIBR",
      "alert": "OK",
      "vis_m": 9999,
      "fzfg": false,
      "metar_trigger": false,
      "taf_trigger": false,
      "metar": "METAR LIBR 231920Z 18002KT CAVOK 11/08 Q1019",
      "taf": "TAF LIBR 231700Z 2318/2418 VRB06KT 8000 NSC"
    },
    {
      "icao": "LICA",
      "alert": "OK",
      "vis_m": 9999,
      "fzfg": false,
      "metar_trigger": false,
      "taf_trigger": false,
      "metar": "METAR LICA 231920Z AUTO 23006KT 9999 OVC021/// 14/11 Q1022",
      "taf": "TAF LICA 231700Z 2318/2418 27012KT 9999 FEW020"
    },
    {
      "icao": "LICC",
      "alert": "OK",
      "vis_m": 9999,
      "fzfg": false,
      "metar_trigger": false,
      "taf_trigger": false,
      "metar": "METAR LICC 231920Z 26009KT CAVOK 13/09 Q1020",
      "taf": "TAF LICC 231700Z 2318/2418 VRB05KT CAVOK"
    },
    {
      "icao": "LICJ",
      "alert": "OK",
      "vis_m": 9999,
      "fzfg": false,
      "metar_trigger": false,
      "taf_trigger": false,
      "metar": "METAR LICJ 231920Z 21011KT CAVOK 15/08 Q1021",
      "taf": "TAF LICJ 231700Z 2318/2418 21012KT CAVOK"
    },
    {
      "icao": "LIMC",
      "alert": "OK",
      "vis_m": 9999,
      "fzfg": false,
      "metar_trigger": false,
      "taf_trigger": false,
      "metar": "METAR LIMC 231920Z VRB02KT CAVOK 08/06 Q1018 NOSIG",
      "taf": "TAF LIMC 231700Z 2318/2424 VRB05KT 8000 NSC"
    },
    {
      "icao": "LIME",
      "alert": "OK",
      "vis_m": 6000,
      "fzfg": false,
      "metar_trigger": false,
      "taf_trigger": false,
      "metar": "METAR LIME 231920Z VRB01KT 6000 NSC 09/07 Q1018 NOSIG",
      "taf": "TAF LIME 231700Z 2318/2418 VRB05KT 7000 NSC"
    },
    {
      "icao": "LIMF",
      "alert": "OK",
      "vis_m": 9999,
      "fzfg": false,
      "metar_trigger": false,
      "taf_trigger": false,
      "metar": "METAR LIMF 231920Z 29005KT CAVOK 11/05 Q1018",
      "taf": "TAF LIMF 231700Z 2318/2418 VRB04KT 8000 NSC"
    },
    {
      "icao": "LIMJ",
      "alert": "OK",
      "vis_m": 9999,
      "fzfg": false,
      "metar_trigger": false,
      "taf_trigger": false,
      "metar": "METAR LIMJ 231920Z 14007KT 9999 FEW016 SCT038 15/12 Q1019",
      "taf": "TAF LIMJ 231700Z 2318/2418 VRB05KT 9999 SCT015"
    },
    {
      "icao": "LIPE",
      "alert": "OK",
      "vis_m": 9999,
      "fzfg": false,
      "metar_trigger": false,
      "taf_trigger": false,
      "metar": "METAR LIPE 231920Z 07005KT CAVOK 11/08 Q1018",
      "taf": "TAF LIPE 231700Z 2318/2418 VRB05KT 9999 FEW030"
    },
    {
      "icao": "LIPH",
      "alert": "OK",
      "vis_m": 4000,
      "fzfg": false,
      "metar_trigger": false,
      "taf_trigger": false,
      "metar": "METAR LIPH 231920Z VRB02KT 4000 BR MIFG NSC 07/07 Q1019",
      "taf": "TAF LIPH 231700Z 2318/2418 VRB05KT 6000 BKN020"
    },
    {
      "icao": "LIPQ",
      "alert": "OK",
      "vis_m": 3500,
      "fzfg": false,
      "metar_trigger": false,
      "taf_trigger": false,
      "metar": "METAR LIPQ 231920Z AUTO 12005KT 3500 BR FEW032/// 07/06 Q1019",
      "taf": "TAF LIPQ 231700Z 2318/2418 VRB05KT 9999 SCT030"
    },
    {
      "icao": "LIPR",
      "alert": "OK",
      "vis_m": 2500,
      "fzfg": false,
      "metar_trigger": false,
      "taf_trigger": false,
      "metar": "METAR LIPR 231920Z 17001KT 2500 BR NSC 09/08 Q1018",
      "taf": "TAF LIPR 231700Z 2318/2418 VRB05KT 7000 FEW030"
    },
    {
      "icao": "LIPX",
      "alert": "OK",
      "vis_m": 7000,
      "fzfg": false,
      "metar_trigger": false,
      "taf_trigger": false,
      "metar": "METAR LIPX 231920Z 10004KT 060V120 7000 BKN025 10/08 Q1019",
      "taf": "TAF LIPX 231700Z 2318/2418 VRB05KT 6000 SCT020"
    },
    {
      "icao": "LIPY",
      "alert": "OK",
      "vis_m": 9999,
      "fzfg": false,
      "metar_trigger": false,
      "taf_trigger": false,
      "metar": "METAR LIPY 231920Z AUTO VRB01KT 9999 NCD 09/08 Q1019",
      "taf": "TAF LIPY 231700Z 2318/2418 VRB05KT 7000 FEW030"
    },
    {
      "icao": "LIPZ",
      "alert": "OK",
      "vis_m": 7000,
      "fzfg": false,
      "metar_trigger": false,
      "taf_trigger": false,
      "metar": "METAR LIPZ 231920Z 23004KT 7000 NSC 08/07 Q1019 NOSIG",
      "taf": "TAF LIPZ 231700Z 2318/2424 VRB05KT 6000 BKN020"
    },
    {
      "icao": "LIRF",
      "alert": "OK",
      "vis_m": 9999,
      "fzfg": false,
      "metar_trigger": false,
      "taf_trigger": false,
      "metar": "METAR LIRF 231920Z 22007KT 9999 SCT028 13/11 Q1019 NOSIG",
      "taf": "TAF LIRF 231700Z 2318/2424 VRB05KT 9999 SCT030"
    },
    {
      "icao": "LIRN",
      "alert": "OK",
      "vis_m": 9999,
      "fzfg": false,
      "metar_trigger": false,
      "taf_trigger": false,
      "metar": "METAR LIRN 231920Z VRB02KT 9999 FEW020 SCT050 14/11 Q1021 NOSIG",
      "taf": "TAF LIRN 231700Z 2318/2418 VRB05KT 9999 BKN030"
    },
    {
      "icao": "LIRP",
      "alert": "OK",
      "vis_m": 9999,
      "fzfg": false,
      "metar_trigger": false,
      "taf_trigger": false,
      "metar": "METAR LIRP 231915Z VRB02KT CAVOK 12/12 Q1020 NOSIG",
      "taf": "TAF LIRP 231700Z 2318/2418 VRB03KT 9999 SCT020 SCT040"
    },
    {
      "icao": "LIRZ",
      "alert": "OK",
      "vis_m": 9999,
      "fzfg": false,
      "metar_trigger": false,
      "taf_trigger": false,
      "metar": "METAR LIRZ 231920Z AUTO VRB02KT 9999 FEW035/// BKN044/// 10/08 Q1020",
      "taf": "TAF LIRZ 231700Z 2318/2418 VRB05KT 9999 BKN030"
    },
    {
      "icao": "LJLJ",
      "alert": "OK",
      "vis_m": 9999,
      "fzfg": false,
      "metar_trigger": false,
      "taf_trigger": false,
      "metar": "METAR LJLJ 231900Z VRB02KT CAVOK 05/04 Q1017 NOSIG",
      "taf": "TAF LJLJ 231700Z 2318/2418 VRB02KT 9999 FEW060"
    },
    {
      "icao": "LKMT",
      "alert": "OK",
      "vis_m": 9999,
      "fzfg": false,
      "metar_trigger": false,
      "taf_trigger": false,
      "metar": "METAR LKMT 231900Z 22015KT 9999 FEW017 07/06 Q1011 TEMPO 4500 SHRA SCT018",
      "taf": "TAF LKMT 231700Z 2318/2418 25010KT CAVOK"
    },
    {
      "icao": "LKPR",
      "alert": "OK",
      "vis_m": 9999,
      "fzfg": false,
      "metar_trigger": false,
      "taf_trigger": false,
      "metar": "METAR LKPR 231900Z 23013KT 9999 FEW030 06/03 Q1012 NOSIG",
      "taf": "TAF LKPR 231700Z 2318/2424 23015KT 9999 SCT035"
    },
    {
      "icao": "LLBG",
      "alert": "OK",
      "vis_m": 9999,
      "fzfg": false,
      "metar_trigger": false,
      "taf_trigger": false,
      "metar": "METAR LLBG 231920Z 13004KT CAVOK 13/09 Q1015 BECMG 7000 RA FEW025TCU BKN030",
      "taf": "TAF LLBG 231708Z 2318/2418 18007KT 9999 SCT030"
    },
    {
      "icao": "LMML",
      "alert": "OK",
      "vis_m": 9999,
      "fzfg": false,
      "metar_trigger": false,
      "taf_trigger": false,
      "metar": "METAR LMML 231915Z 25010KT CAVOK 13/11 Q1023 NOSIG",
      "taf": "TAF LMML 231700Z 2318/2418 27012KT 9999 FEW018"
    },
    {
      "icao": "LOWW",
      "alert": "OK",
      "vis_m": 9999,
      "fzfg": false,
      "metar_trigger": false,
      "taf_trigger": false,
      "metar": "METAR LOWW 231920Z VRB04KT 9999 FEW046 11/05 Q1014 TEMPO 30010KT",
      "taf": "TAF LOWW 231715Z 2318/2424 28012KT 9999 FEW050 TX11/2318Z TN04/2424Z"
    },
    {
      "icao": "LPFR",
      "alert": "OK",
      "vis_m": 9999,
      "fzfg": false,
      "metar_trigger": false,
      "taf_trigger": false,
      "metar": "METAR LPFR 231900Z 10006KT CAVOK 14/12 Q1023",
      "taf": "TAF LPFR 231700Z 2318/2418 12008KT CAVOK"
    },
    {
      "icao": "LPMA",
      "alert": "OK",
      "vis_m": 9999,
      "fzfg": false,
      "metar_trigger": false,
      "taf_trigger": false,
      "metar": "METAR LPMA 231900Z 07003KT 010V140 9999 SCT014 17/14 Q1021",
      "taf": "TAF LPMA 231700Z 2318/2418 VRB05KT 9999 FEW015"
    },
    {
      "icao": "LPPR",
      "alert": "OK",
      "vis_m": 9999,
      "fzfg": false,
      "metar_trigger": false,
      "taf_trigger": false,
      "metar": "METAR LPPR 231900Z 20003KT CAVOK 16/08 Q1021",
      "taf": "TAF LPPR 231700Z 2318/2418 VRB02KT CAVOK"
    },
    {
      "icao": "LPPS",
      "alert": "OK",
      "vis_m": 9999,
      "fzfg": false,
      "metar_trigger": false,
      "taf_trigger": false,
      "metar": "METAR LPPS 231900Z 13004KT 9999 SCT014 16/14 Q1021",
      "taf": "TAF LPPS 231700Z 2318/2424 12008KT 9999 FEW015"
    },
    {
      "icao": "LPPT",
      "alert": "OK",
      "vis_m": 9999,
      "fzfg": false,
      "metar_trigger": false,
      "taf_trigger": false,
      "metar": "METAR LPPT 231900Z 23010KT CAVOK 15/09 Q1022",
      "taf": "TAF LPPT 231700Z 2318/2424 22007KT CAVOK"
    },
    {
      "icao": "LQBK",
      "alert": "OK",
      "vis_m": 9999,
      "fzfg": false,
      "metar_trigger": false,
      "taf_trigger": false,
      "metar": "METAR LQBK 231900Z 13002KT CAVOK 08/05 Q1016 NOSIG",
      "taf": "TAF LQBK 231700Z 2318/2418 32005KT CAVOK TX12/2413Z TN06/2406Z"
    },
    {
      "icao": "LQSA",
      "alert": "OK",
      "vis_m": 9999,
      "fzfg": false,
      "metar_trigger": false,
      "taf_trigger": false,
      "metar": "METAR LQSA 231900Z 06003KT 040V110 CAVOK 08/03 Q1017 NOSIG",
      "taf": ""
    },
    {
      "icao": "LQTZ",
      "alert": "OK",
      "vis_m": 9999,
      "fzfg": false,
      "metar_trigger": false,
      "taf_trigger": false,
      "metar": "METAR LQTZ 231900Z VRB02KT CAVOK 07/03 Q1016",
      "taf": "TAF LQTZ 231700Z 2318/2418 30005KT CAVOK TX10/2413Z TN04/2406Z"
    },
    {
      "icao": "LRBC",
      "alert": "OK",
      "vis_m": 4000,
      "fzfg": false,
      "metar_trigger": false,
      "taf_trigger": false,
      "metar": "METAR LRBC 231900Z VRB02KT 4000 -RA BR OVC033 04/04 Q1012",
      "taf": "TAF LRBC 231700Z 2318/2403 VRB04KT 3000 -RA BR OVC030"
    },
    {
      "icao": "LRBS",
      "alert": "OK",
      "vis_m": 8000,
      "fzfg": false,
      "metar_trigger": false,
      "taf_trigger": false,
      "metar": "METAR LRBS 231900Z 27008KT 8000 NSC 03/02 Q1013 NOSIG",
      "taf": "TAF LRBS 231700Z 2318/2418 25010KT CAVOK"
    },
    {
      "icao": "LRBV",
      "alert": "OK",
      "vis_m": 5000,
      "fzfg": false,
      "metar_trigger": false,
      "taf_trigger": false,
      "metar": "METAR LRBV 231900Z VRB02KT 5000 2000N -RA BR FEW002 SCT007 BKN017 04/03 Q1013",
      "taf": ""
    },
    {
      "icao": "LRCL",
      "alert": "OK",
      "vis_m": 3000,
      "fzfg": false,
      "metar_trigger": false,
      "taf_trigger": false,
      "metar": "METAR LRCL 231900Z 06004KT 3000 -RA BR BKN005 OVC030 05/04 Q1014",
      "taf": ""
    },
    {
      "icao": "LRCV",
      "alert": "OK",
      "vis_m": 9999,
      "fzfg": false,
      "metar_trigger": false,
      "taf_trigger": false,
      "metar": "METAR LRCV 231900Z 25004KT CAVOK 05/04 Q1014",
      "taf": "TAF LRCV 231700Z 2318/2403 26008KT CAVOK"
    },
    {
      "icao": "LRIA",
      "alert": "OK",
      "vis_m": 800,
      "fzfg": false,
      "metar_trigger": false,
      "taf_trigger": false,
      "metar": "METAR LRIA 231900Z 19002KT 0800 R14/1000D -RA FG BKN001 OVC030 05/04 Q1012",
      "taf": ""
    },
    {
      "icao": "LROP",
      "alert": "OK",
      "vis_m": 6000,
      "fzfg": false,
      "metar_trigger": false,
      "taf_trigger": false,
      "metar": "METAR LROP 231900Z 25008KT 6000 NSC 02/01 Q1013 NOSIG",
      "taf": "TAF LROP 231700Z 2318/2418 25010KT CAVOK"
    },
    {
      "icao": "LRSB",
      "alert": "OK",
      "vis_m": 9999,
      "fzfg": false,
      "metar_trigger": false,
      "taf_trigger": false,
      "metar": "METAR LRSB 231900Z 30011KT 9999 SCT060 BKN075 08/06 Q1013",
      "taf": ""
    },
    {
      "icao": "LRSM",
      "alert": "OK",
      "vis_m": 8000,
      "fzfg": false,
      "metar_trigger": false,
      "taf_trigger": false,
      "metar": "METAR LRSM 231900Z AUTO 16004KT 120V180 8000 -SHRA SCT044/// BKN050/// 06/05 Q1013",
      "taf": ""
    },
    {
      "icao": "LRSV",
      "alert": "OK",
      "vis_m": 9999,
      "fzfg": false,
      "metar_trigger": false,
      "taf_trigger": false,
      "metar": "METAR LRSV 231900Z 25009KT 9999 BKN045 04/02 Q1011",
      "taf": "TAF LRSV 231700Z 2318/2403 23008KT 9999 OVC040"
    },
    {
      "icao": "LRTM",
      "alert": "OK",
      "vis_m": 4200,
      "fzfg": false,
      "metar_trigger": false,
      "taf_trigger": false,
      "metar": "METAR LRTM 231900Z AUTO 26003KT 4200 -RA BR BKN010/// 06/06 Q1014",
      "taf": "TAF LRTM 231400Z 2315/2324 VRB04KT 9999 SCT015 BKN040"
    },
    {
      "icao": "LRTR",
      "alert": "OK",
      "vis_m": 7000,
      "fzfg": false,
      "metar_trigger": false,
      "taf_trigger": false,
      "metar": "METAR LRTR 231900Z 18006KT 7000 NSC 07/07 Q1016 TEMPO 5000 BR",
      "taf": "TAF LRTR 231700Z 2318/2418 25006KT 9999 SCT045"
    },
    {
      "icao": "LTAC",
      "alert": "OK",
      "vis_m": 9999,
      "fzfg": false,
      "metar_trigger": false,
      "taf_trigger": false,
      "metar": "METAR LTAC 231920Z 15003KT CAVOK 02/M01 Q1015 NOSIG RMK RWY21C 13005KT RWY03L 13003KT RWY21R 13005KT RWY03R 11002KT RWY21L 11005KT",
      "taf": "TAF LTAC 231640Z 2318/2418 VRB02KT CAVOK"
    },
    {
      "icao": "LTFM",
      "alert": "OK",
      "vis_m": 9999,
      "fzfg": false,
      "metar_trigger": false,
      "taf_trigger": false,
      "metar": "METAR LTFM 231920Z 21010KT CAVOK 05/02 Q1017 NOSIG RMK RWY17L 21011KT RWY34L 21010KT RWY16R 22010KT RWY36 20008KT RWY18 21013KT",
      "taf": "TAF LTFM 231640Z 2318/2424 21014KT CAVOK"
    },
    {
      "icao": "LUKK",
      "alert": "OK",
      "vis_m": 4400,
      "fzfg": false,
      "metar_trigger": false,
      "taf_trigger": false,
      "metar": "METAR LUKK 231900Z 27004KT 4400 -RA BR OVC040 02/02 Q1012 TEMPO 3000 -RA BR BKN015",
      "taf": "TAF LUKK 231707Z 2318/2418 23006KT 9999 BKN030"
    },
    {
      "icao": "LWOH",
      "alert": "OK",
      "vis_m": 9999,
      "fzfg": false,
      "metar_trigger": false,
      "taf_trigger": false,
      "metar": "METAR LWOH 231850Z 05004KT 9999 FEW040 06/01 Q1019",
      "taf": ""
    },
    {
      "icao": "LWSK",
      "alert": "OK",
      "vis_m": 9999,
      "fzfg": false,
      "metar_trigger": false,
      "taf_trigger": false,
      "metar": "METAR LWSK 231920Z 03003KT CAVOK 05/02 Q1018 NOSIG",
      "taf": "TAF LWSK 231730Z 2318/2418 VRB02KT CAVOK"
    },
    {
      "icao": "LYBE",
      "alert": "OK",
      "vis_m": 9999,
      "fzfg": false,
      "metar_trigger": false,
      "taf_trigger": false,
      "metar": "METAR LYBE 231900Z 20005KT CAVOK 10/03 Q1017 NOSIG",
      "taf": "TAF LYBE 231700Z 2318/2418 20005KT CAVOK TX12/2413Z TN06/2406Z"
    },
    {
      "icao": "LYNI",
      "alert": "OK",
      "vis_m": 9999,
      "fzfg": false,
      "metar_trigger": false,
      "taf_trigger": false,
      "metar": "METAR LYNI 231900Z 07004KT CAVOK 06/04 Q1017 NOSIG",
      "taf": "TAF LYNI 231700Z 2318/2418 21005KT 9999 BKN080 TX10/2414Z TN00/2405Z"
    },
    {
      "icao": "LYPG",
      "alert": "OK",
      "vis_m": 9999,
      "fzfg": false,
      "metar_trigger": false,
      "taf_trigger": false,
      "metar": "METAR LYPG 231900Z 06004KT CAVOK 09/03 Q1020 NOSIG",
      "taf": "TAF LYPG 231700Z 2318/2418 36005KT CAVOK TX14/2413Z TN04/2405Z"
    },
    {
      "icao": "LZIB",
      "alert": "OK",
      "vis_m": 9999,
      "fzfg": false,
      "metar_trigger": false,
      "taf_trigger": false,
      "metar": "METAR LZIB 231930Z 18005KT 9999 FEW025 08/06 Q1014 NOSIG",
      "taf": "TAF LZIB 231715Z 2318/2418 30009KT 9999 SCT040"
    },
    {
      "icao": "LZKZ",
      "alert": "OK",
      "vis_m": 7000,
      "fzfg": false,
      "metar_trigger": false,
      "taf_trigger": false,
      "metar": "METAR LZKZ 231930Z 13002KT 7000 BKN008 BKN014 05/04 Q1012 NOSIG",
      "taf": "TAF LZKZ 231715Z 2318/2418 02005KT 9999 BKN018"
    },
    {
      "icao": "LZTT",
      "alert": "OK",
      "vis_m": 9999,
      "fzfg": false,
      "metar_trigger": false,
      "taf_trigger": false,
      "metar": "METAR LZTT 231930Z 30006KT 9999 FEW070 04/01 Q1010",
      "taf": "TAF LZTT 231715Z 2318/2418 27008KT 9999 FEW040"
    },
    {
      "icao": "OEJN",
      "alert": "OK",
      "vis_m": 9999,
      "fzfg": false,
      "metar_trigger": false,
      "taf_trigger": false,
      "metar": "METAR OEJN 231900Z 35007KT CAVOK 24/15 Q1011 NOSIG",
      "taf": "TAF OEJN 231700Z 2318/2424 36010KT 7000 NSC"
    },
    {
      "icao": "OEMA",
      "alert": "OK",
      "vis_m": 9999,
      "fzfg": false,
      "metar_trigger": false,
      "taf_trigger": false,
      "metar": "METAR OEMA 231900Z 21010KT CAVOK 25/05 Q1013 NOSIG",
      "taf": "TAF OEMA 231700Z 2318/2424 23008KT CAVOK"
    },
    {
      "icao": "OJAI",
      "alert": "OK",
      "vis_m": 5000,
      "fzfg": false,
      "metar_trigger": false,
      "taf_trigger": false,
      "metar": "METAR OJAI 231900Z 28005KT 5000 HZ FEW035 08/05 Q1015 NOSIG",
      "taf": "TAF OJAI 231638Z 2318/2424 27012KT 5000 HZ SCT030"
    },
    {
      "icao": "OMAA",
      "alert": "OK",
      "vis_m": 5000,
      "fzfg": false,
      "metar_trigger": false,
      "taf_trigger": false,
      "metar": "METAR OMAA 231930Z VRB06KT 5000 HZ NSC 21/19 Q1010 BECMG 3000",
      "taf": "TAF OMAA 231700Z 2318/2500 03005KT 8000 NSC"
    },
    {
      "icao": "OMDB",
      "alert": "OK",
      "vis_m": 5000,
      "fzfg": false,
      "metar_trigger": false,
      "taf_trigger": false,
      "metar": "METAR OMDB 231930Z 22005KT 5000 HZ NSC 23/21 Q1011 BECMG 4000",
      "taf": "TAF OMDB 231700Z 2318/2500 12005KT 8000 NSC"
    },
    {
      "icao": "UAAA",
      "alert": "OK",
      "vis_m": 9999,
      "fzfg": false,
      "metar_trigger": false,
      "taf_trigger": false,
      "metar": "METAR UAAA 231900Z 10002MPS 9999 OVC021 M03/M07 Q1024 NOSIG",
      "taf": "TAF UAAA 231702Z 2318/2418 04002G07MPS 3100 -SHSN BR BKN011CB OVC020 TXM03/2409Z TNM06/2402Z"
    },
    {
      "icao": "UBBB",
      "alert": "OK",
      "vis_m": 9999,
      "fzfg": false,
      "metar_trigger": false,
      "taf_trigger": false,
      "metar": "METAR UBBB 231930Z 33012KT 9999 -DZ OVC011 06/04 Q1018 NOSIG",
      "taf": "TAF UBBB 231701Z 2318/2418 33014KT 9999 BKN012 BKN025 TX07/2410Z TN04/2401Z"
    },
    {
      "icao": "UDSG",
      "alert": "OK",
      "vis_m": 9999,
      "fzfg": false,
      "metar_trigger": false,
      "taf_trigger": false,
      "metar": "METAR UDSG 231900Z 14001KT 9999 FEW049 M02/M02 Q1013 NOSIG",
      "taf": ""
    },
    {
      "icao": "UDYZ",
      "alert": "OK",
      "vis_m": 9999,
      "fzfg": false,
      "metar_trigger": false,
      "taf_trigger": false,
      "metar": "METAR UDYZ 231900Z 00000KT 9999 FEW046 06/M00 Q1011 NOSIG",
      "taf": "TAF UDYZ 231700Z 2318/2418 04006KT 9999 FEW040"
    },
    {
      "icao": "UGKO",
      "alert": "OK",
      "vis_m": 9999,
      "fzfg": false,
      "metar_trigger": false,
      "taf_trigger": false,
      "metar": "METAR UGKO 231900Z 26003KT 9999 SCT026 OVC044 07/06 Q1018 NOSIG",
      "taf": "TAF UGKO 231700Z 2318/2418 26007KT 9000 SCT030 OVC045 TX14/2411Z TN04/2403Z"
    }
  ]
}