{
  "ts_utc": "2026-03-23T17:32:08Z",
  "threshold_m": 150,
  "source": "stations_override.txt (ICAO list) + aviationweather.gov (METAR/TAF raw)",
  "station_count": 159,
  "stations": [
    {
      "icao": "BIKF",
      "alert": "OK",
      "vis_m": 500,
      "fzfg": false,
      "metar_trigger": false,
      "taf_trigger": false,
      "metar": "METAR BIKF 231700Z 01029G40KT 0500 R01/0700N SN OVC003 M01/M01 Q0973",
      "taf": "TAF BIKF 231659Z 2318/2418 01032G42KT 4000 SN SCT012 OVC015 TX01/2414Z TNM02/2407Z"
    },
    {
      "icao": "BKPR",
      "alert": "OK",
      "vis_m": 9999,
      "fzfg": false,
      "metar_trigger": false,
      "taf_trigger": false,
      "metar": "METAR BKPR 231730Z 02015KT 9999 BKN050 10/02 Q1013 NOSIG",
      "taf": "TAF BKPR 231730Z 2318/2418 02010KT 9999 BKN050"
    },
    {
      "icao": "EBCI",
      "alert": "OK",
      "vis_m": 9999,
      "fzfg": false,
      "metar_trigger": false,
      "taf_trigger": false,
      "metar": "METAR EBCI 231720Z 32004KT 270V350 CAVOK 13/04 Q1021 NOSIG",
      "taf": "TAF EBCI 231706Z 2318/2424 30004KT 9999 FEW045"
    },
    {
      "icao": "EDDB",
      "alert": "OK",
      "vis_m": 9999,
      "fzfg": false,
      "metar_trigger": false,
      "taf_trigger": false,
      "metar": "METAR EDDB 231720Z AUTO 26006KT CAVOK 11/00 Q1018 NOSIG",
      "taf": "TAF EDDB 231700Z 2318/2418 28004KT CAVOK"
    },
    {
      "icao": "EDDH",
      "alert": "OK",
      "vis_m": 9999,
      "fzfg": false,
      "metar_trigger": false,
      "taf_trigger": false,
      "metar": "METAR EDDH 231720Z AUTO 30005KT CAVOK 12/03 Q1019 NOSIG",
      "taf": "TAF EDDH 231700Z 2318/2424 30006KT CAVOK"
    },
    {
      "icao": "EDDK",
      "alert": "OK",
      "vis_m": 9999,
      "fzfg": false,
      "metar_trigger": false,
      "taf_trigger": false,
      "metar": "METAR EDDK 231720Z AUTO 32008KT CAVOK 13/01 Q1020 NOSIG",
      "taf": "TAF EDDK 231700Z 2318/2424 28005KT CAVOK"
    },
    {
      "icao": "EDDN",
      "alert": "OK",
      "vis_m": 9999,
      "fzfg": false,
      "metar_trigger": false,
      "taf_trigger": false,
      "metar": "METAR EDDN 231720Z AUTO 00000KT CAVOK 12/M00 Q1019 NOSIG",
      "taf": "TAF EDDN 231700Z 2318/2418 VRB03KT CAVOK"
    },
    {
      "icao": "EDDS",
      "alert": "OK",
      "vis_m": 9999,
      "fzfg": false,
      "metar_trigger": false,
      "taf_trigger": false,
      "metar": "METAR EDDS 231720Z AUTO VRB02KT CAVOK 10/01 Q1019 NOSIG",
      "taf": "TAF EDDS 231700Z 2318/2418 02005KT CAVOK"
    },
    {
      "icao": "EDFH",
      "alert": "OK",
      "vis_m": 9999,
      "fzfg": false,
      "metar_trigger": false,
      "taf_trigger": false,
      "metar": "METAR EDFH 231720Z 00000KT CAVOK 11/M02 Q1019",
      "taf": "TAF EDFH 231700Z 2318/2418 30005KT CAVOK"
    },
    {
      "icao": "EDJA",
      "alert": "OK",
      "vis_m": 9999,
      "fzfg": false,
      "metar_trigger": false,
      "taf_trigger": false,
      "metar": "METAR EDJA 231720Z COR 04003KT CAVOK 09/M02 Q1019",
      "taf": "TAF EDJA 231700Z 2318/2403 VRB03KT CAVOK"
    },
    {
      "icao": "EDLW",
      "alert": "OK",
      "vis_m": 9999,
      "fzfg": false,
      "metar_trigger": false,
      "taf_trigger": false,
      "metar": "METAR EDLW 231720Z 33006KT CAVOK 13/02 Q1019",
      "taf": "TAF EDLW 231700Z 2318/2418 VRB03KT CAVOK"
    },
    {
      "icao": "EDNY",
      "alert": "OK",
      "vis_m": 9999,
      "fzfg": false,
      "metar_trigger": false,
      "taf_trigger": false,
      "metar": "METAR EDNY 231720Z VRB02KT CAVOK 11/01 Q1019",
      "taf": "TAF EDNY 231700Z 2318/2403 VRB03KT CAVOK"
    },
    {
      "icao": "EDSB",
      "alert": "OK",
      "vis_m": 9999,
      "fzfg": false,
      "metar_trigger": false,
      "taf_trigger": false,
      "metar": "METAR EDSB 231720Z VRB01KT CAVOK 14/00 Q1019",
      "taf": "TAF EDSB 231700Z 2318/2418 VRB03KT CAVOK"
    },
    {
      "icao": "EETN",
      "alert": "OK",
      "vis_m": 9999,
      "fzfg": false,
      "metar_trigger": false,
      "taf_trigger": false,
      "metar": "METAR EETN 231720Z 23009KT CAVOK 07/M01 Q1010 NOSIG",
      "taf": "TAF EETN 231730Z 2318/2418 21008KT CAVOK"
    },
    {
      "icao": "EFTU",
      "alert": "OK",
      "vis_m": 9999,
      "fzfg": false,
      "metar_trigger": false,
      "taf_trigger": false,
      "metar": "METAR EFTU 231720Z AUTO 21006KT CAVOK 02/01 Q1008",
      "taf": "TAF EFTU 231436Z 2315/2415 22006KT 9999 BKN015"
    },
    {
      "icao": "EGBB",
      "alert": "OK",
      "vis_m": 9999,
      "fzfg": false,
      "metar_trigger": false,
      "taf_trigger": false,
      "metar": "METAR EGBB 231720Z 22005KT 190V250 CAVOK 12/05 Q1019",
      "taf": "TAF EGBB 231656Z 2318/2418 22006KT 9999 FEW035"
    },
    {
      "icao": "EGGP",
      "alert": "OK",
      "vis_m": 9999,
      "fzfg": false,
      "metar_trigger": false,
      "taf_trigger": false,
      "metar": "METAR EGGP 231720Z 21008KT CAVOK 11/04 Q1017",
      "taf": "TAF EGGP 231655Z 2318/2418 22008KT 9999 FEW030"
    },
    {
      "icao": "EGGW",
      "alert": "OK",
      "vis_m": 9999,
      "fzfg": false,
      "metar_trigger": false,
      "taf_trigger": false,
      "metar": "METAR EGGW 231720Z AUTO 24008KT 9999 FEW032 12/06 Q1019",
      "taf": "TAF EGGW 231658Z 2318/2418 22008KT 9999 SCT030"
    },
    {
      "icao": "EGKK",
      "alert": "OK",
      "vis_m": 9999,
      "fzfg": false,
      "metar_trigger": false,
      "taf_trigger": false,
      "metar": "METAR EGKK 231720Z 19006KT CAVOK 12/04 Q1020",
      "taf": "TAF EGKK 231654Z 2318/2424 21008KT 9999 FEW030"
    },
    {
      "icao": "EGNM",
      "alert": "OK",
      "vis_m": 9999,
      "fzfg": false,
      "metar_trigger": false,
      "taf_trigger": false,
      "metar": "METAR EGNM 231720Z 22008KT CAVOK 09/02 Q1016",
      "taf": "TAF EGNM 231701Z 2318/2418 21008KT 9999 SCT025"
    },
    {
      "icao": "EGPD",
      "alert": "OK",
      "vis_m": 9999,
      "fzfg": false,
      "metar_trigger": false,
      "taf_trigger": false,
      "metar": "METAR EGPD 231720Z COR AUTO 18015KT 9999 NCD 08/04 Q1007 NOSIG",
      "taf": "TAF EGPD 231654Z 2318/2418 19012KT 9999 SCT030"
    },
    {
      "icao": "EGPF",
      "alert": "OK",
      "vis_m": 6000,
      "fzfg": false,
      "metar_trigger": false,
      "taf_trigger": false,
      "metar": "METAR EGPF 231720Z AUTO 21014KT 6000 -RA BKN031/// BKN047/// //////TCU 09/06 Q1010",
      "taf": "TAF EGPF 231658Z 2318/2418 21015KT 9999 FEW015 SCT030"
    },
    {
      "icao": "EHBK",
      "alert": "OK",
      "vis_m": 9999,
      "fzfg": false,
      "metar_trigger": false,
      "taf_trigger": false,
      "metar": "METAR EHBK 231725Z AUTO 25004KT 220V280 9999 NSC 13/01 Q1020 NOSIG",
      "taf": "TAF EHBK 231717Z 2318/2424 27004KT CAVOK"
    },
    {
      "icao": "EHEH",
      "alert": "OK",
      "vis_m": 9999,
      "fzfg": false,
      "metar_trigger": false,
      "taf_trigger": false,
      "metar": "METAR EHEH 231725Z AUTO 27003KT 240V320 9999 BKN170 OVC350 14/03 Q1020 BLU NOSIG",
      "taf": "TAF EHEH 231137Z 2312/2418 36004KT CAVOK"
    },
    {
      "icao": "EKBI",
      "alert": "OK",
      "vis_m": 9999,
      "fzfg": false,
      "metar_trigger": false,
      "taf_trigger": false,
      "metar": "METAR EKBI 231720Z AUTO 29003KT 9999 NCD 08/M00 Q1018",
      "taf": "TAF EKBI 231727Z 2318/2418 30004KT 9999 FEW040"
    },
    {
      "icao": "EKCH",
      "alert": "OK",
      "vis_m": 9999,
      "fzfg": false,
      "metar_trigger": false,
      "taf_trigger": false,
      "metar": "METAR EKCH 231720Z AUTO 01005KT 9999 NCD 07/01 Q1018 NOSIG",
      "taf": "TAF EKCH 231727Z 2318/2418 03005KT 9999 FEW045"
    },
    {
      "icao": "ENAL",
      "alert": "OK",
      "vis_m": 9999,
      "fzfg": false,
      "metar_trigger": false,
      "taf_trigger": false,
      "metar": "METAR ENAL 231720Z 23017KT 9999 -SHRA FEW010 SCT020 BKN034 04/02 Q1007 RESHRA",
      "taf": "TAF ENAL 231400Z 2315/2324 25020KT 9999 -SHRASN FEW015TCU BKN030"
    },
    {
      "icao": "ENBR",
      "alert": "OK",
      "vis_m": 9999,
      "fzfg": false,
      "metar_trigger": false,
      "taf_trigger": false,
      "metar": "METAR ENBR 231720Z 18010KT 9999 FEW027 SCT035 05/M01 Q1012 NOSIG RMK WIND 1200FT 19013KT",
      "taf": ""
    },
    {
      "icao": "ENGM",
      "alert": "OK",
      "vis_m": 9999,
      "fzfg": false,
      "metar_trigger": false,
      "taf_trigger": false,
      "metar": "METAR ENGM 231720Z 24007KT CAVOK 05/M09 Q1011 NOSIG",
      "taf": "TAF ENGM 231100Z 2312/2412 29012KT CAVOK"
    },
    {
      "icao": "ENHD",
      "alert": "OK",
      "vis_m": 9999,
      "fzfg": false,
      "metar_trigger": false,
      "taf_trigger": false,
      "metar": "METAR ENHD 231720Z 18010KT 9999 FEW023 06/02 Q1013",
      "taf": "TAF ENHD 231400Z 2315/2323 21008KT 9999 SCT025"
    },
    {
      "icao": "ENTC",
      "alert": "OK",
      "vis_m": 9999,
      "fzfg": false,
      "metar_trigger": false,
      "taf_trigger": false,
      "metar": "METAR ENTC 231720Z 31005G19KT 250V350 9999 -SNRA FEW005 SCT018 BKN032 01/M02 Q0989 TEMPO 26018G28KT 4000 SHRAGSSN BKN009 SCT020CB RMK WIND 2600FT 30027KT",
      "taf": ""
    },
    {
      "icao": "ENTO",
      "alert": "OK",
      "vis_m": 9999,
      "fzfg": false,
      "metar_trigger": false,
      "taf_trigger": false,
      "metar": "METAR ENTO 231720Z 22008KT CAVOK 06/M00 Q1013 NOSIG",
      "taf": "TAF ENTO 231100Z 2312/2412 26010KT CAVOK"
    },
    {
      "icao": "ENVA",
      "alert": "OK",
      "vis_m": 9999,
      "fzfg": false,
      "metar_trigger": false,
      "taf_trigger": false,
      "metar": "METAR ENVA 231720Z 22013KT 9999 FEW020TCU 04/M04 Q1007 TEMPO 26018G28KT 2500 -SHSNGS BKN012CB RMK WIND 670FT 22014KT",
      "taf": "TAF ENVA 231100Z 2312/2412 24015KT 9999 FEW020 SCT040"
    },
    {
      "icao": "ENZV",
      "alert": "OK",
      "vis_m": 9999,
      "fzfg": false,
      "metar_trigger": false,
      "taf_trigger": false,
      "metar": "METAR ENZV 231720Z 18008KT 9999 FEW025 06/01 Q1015 NOSIG",
      "taf": "TAF ENZV 231100Z 2312/2412 28010KT 9999 SCT030"
    },
    {
      "icao": "EPGD",
      "alert": "OK",
      "vis_m": 9999,
      "fzfg": false,
      "metar_trigger": false,
      "taf_trigger": false,
      "metar": "METAR EPGD 231700Z 06004KT CAVOK 10/02 Q1017",
      "taf": "TAF EPGD 231730Z 2318/2418 VRB02KT CAVOK"
    },
    {
      "icao": "EPKK",
      "alert": "OK",
      "vis_m": 9999,
      "fzfg": false,
      "metar_trigger": false,
      "taf_trigger": false,
      "metar": "METAR EPKK 231700Z 03003KT 350V050 CAVOK 13/M04 Q1017",
      "taf": "TAF EPKK 231730Z 2318/2418 VRB02KT CAVOK"
    },
    {
      "icao": "EPKT",
      "alert": "OK",
      "vis_m": 9999,
      "fzfg": false,
      "metar_trigger": false,
      "taf_trigger": false,
      "metar": "METAR EPKT 231700Z 31003KT CAVOK 11/M02 Q1017",
      "taf": "TAF EPKT 231730Z 2318/2418 33004KT CAVOK"
    },
    {
      "icao": "EPLB",
      "alert": "OK",
      "vis_m": 9999,
      "fzfg": false,
      "metar_trigger": false,
      "taf_trigger": false,
      "metar": "METAR EPLB 231700Z 30001KT CAVOK 09/M03 Q1017",
      "taf": "TAF EPLB 231730Z 2318/2418 VRB02KT CAVOK"
    },
    {
      "icao": "EPMO",
      "alert": "OK",
      "vis_m": 9999,
      "fzfg": false,
      "metar_trigger": false,
      "taf_trigger": false,
      "metar": "METAR EPMO 231700Z 30002KT CAVOK 11/M02 Q1017",
      "taf": "TAF EPMO 231730Z 2318/2418 VRB03KT CAVOK"
    },
    {
      "icao": "EPPO",
      "alert": "OK",
      "vis_m": 9999,
      "fzfg": false,
      "metar_trigger": false,
      "taf_trigger": false,
      "metar": "METAR EPPO 231700Z 32002KT CAVOK 12/M02 Q1018",
      "taf": "TAF EPPO 231730Z 2318/2418 VRB02KT CAVOK"
    },
    {
      "icao": "EPRA",
      "alert": "OK",
      "vis_m": 9999,
      "fzfg": false,
      "metar_trigger": false,
      "taf_trigger": false,
      "metar": "METAR EPRA 231700Z VRB03KT CAVOK 11/M03 Q1017",
      "taf": "TAF EPRA 231730Z 2318/2403 VRB02KT CAVOK"
    },
    {
      "icao": "EPRZ",
      "alert": "OK",
      "vis_m": 9999,
      "fzfg": false,
      "metar_trigger": false,
      "taf_trigger": false,
      "metar": "METAR EPRZ 231700Z 35004KT CAVOK 11/M04 Q1017",
      "taf": "TAF EPRZ 231703Z 2318/2418 02004KT CAVOK"
    },
    {
      "icao": "EPSC",
      "alert": "OK",
      "vis_m": 9999,
      "fzfg": false,
      "metar_trigger": false,
      "taf_trigger": false,
      "metar": "METAR EPSC 231700Z 32003KT CAVOK 11/M01 Q1018",
      "taf": "TAF EPSC 231730Z 2318/2418 VRB02KT CAVOK"
    },
    {
      "icao": "EPSY",
      "alert": "OK",
      "vis_m": 9999,
      "fzfg": false,
      "metar_trigger": false,
      "taf_trigger": false,
      "metar": "METAR EPSY 231700Z 20002KT CAVOK 10/M01 Q1017",
      "taf": "TAF EPSY 231730Z 2318/2403 19005KT CAVOK"
    },
    {
      "icao": "EPWA",
      "alert": "OK",
      "vis_m": 9999,
      "fzfg": false,
      "metar_trigger": false,
      "taf_trigger": false,
      "metar": "METAR EPWA 231700Z 30006KT CAVOK 10/M03 Q1017 NOSIG",
      "taf": "TAF EPWA 231730Z 2318/2418 VRB03KT CAVOK"
    },
    {
      "icao": "EPWR",
      "alert": "OK",
      "vis_m": 9999,
      "fzfg": false,
      "metar_trigger": false,
      "taf_trigger": false,
      "metar": "METAR EPWR 231700Z 27003KT CAVOK 12/01 Q1018",
      "taf": "TAF EPWR 231730Z 2318/2418 25004KT CAVOK"
    },
    {
      "icao": "ESGG",
      "alert": "OK",
      "vis_m": 9999,
      "fzfg": false,
      "metar_trigger": false,
      "taf_trigger": false,
      "metar": "METAR ESGG 231720Z 29004KT 260V320 CAVOK 04/M01 Q1015",
      "taf": "TAF ESGG 231430Z 2315/2415 26010KT CAVOK"
    },
    {
      "icao": "ESKN",
      "alert": "OK",
      "vis_m": 9999,
      "fzfg": false,
      "metar_trigger": false,
      "taf_trigger": false,
      "metar": "METAR ESKN 231720Z 26008KT CAVOK 04/M04 Q1012",
      "taf": "TAF ESKN 231430Z 2315/2415 26012KT CAVOK"
    },
    {
      "icao": "ESMS",
      "alert": "OK",
      "vis_m": 9999,
      "fzfg": false,
      "metar_trigger": false,
      "taf_trigger": false,
      "metar": "METAR ESMS 231720Z 30005KT CAVOK 06/01 Q1017",
      "taf": "TAF ESMS 231427Z 2315/2415 27005KT CAVOK"
    },
    {
      "icao": "ESSA",
      "alert": "OK",
      "vis_m": 9999,
      "fzfg": false,
      "metar_trigger": false,
      "taf_trigger": false,
      "metar": "METAR ESSA 231720Z 25008KT CAVOK 06/M03 Q1010 NOSIG",
      "taf": "TAF ESSA 231430Z 2315/2415 24014KT 9999 SCT040"
    },
    {
      "icao": "EYKA",
      "alert": "OK",
      "vis_m": 9999,
      "fzfg": false,
      "metar_trigger": false,
      "taf_trigger": false,
      "metar": "METAR EYKA 231720Z VRB01KT CAVOK 07/M01 Q1017",
      "taf": "TAF EYKA 231700Z 2318/2418 VRB04KT 9000 NSC"
    },
    {
      "icao": "EYPA",
      "alert": "OK",
      "vis_m": 9999,
      "fzfg": false,
      "metar_trigger": false,
      "taf_trigger": false,
      "metar": "METAR EYPA 231720Z 21003KT 190V250 CAVOK 03/01 Q1016",
      "taf": "TAF EYPA 231700Z 2318/2418 VRB03KT 8000 NSC"
    },
    {
      "icao": "EYVI",
      "alert": "OK",
      "vis_m": 9999,
      "fzfg": false,
      "metar_trigger": false,
      "taf_trigger": false,
      "metar": "METAR EYVI 231720Z 30006KT CAVOK 10/M02 Q1017 NOSIG",
      "taf": "TAF EYVI 231700Z 2318/2418 VRB05KT 9000 NSC"
    },
    {
      "icao": "GCFV",
      "alert": "OK",
      "vis_m": 9999,
      "fzfg": false,
      "metar_trigger": false,
      "taf_trigger": false,
      "metar": "METAR GCFV 231700Z 16013KT 9999 SCT025 20/15 Q1008",
      "taf": "TAF GCFV 231400Z 2315/2415 16016KT 9999 SCT025 TX22/2414Z TN16/2406Z"
    },
    {
      "icao": "GCLP",
      "alert": "OK",
      "vis_m": 9999,
      "fzfg": false,
      "metar_trigger": false,
      "taf_trigger": false,
      "metar": "METAR GCLP 231700Z 20012KT 160V230 9999 FEW020 SCT045 21/16 Q1006 NOSIG",
      "taf": "TAF GCLP 231400Z 2315/2415 19018KT 9999 SCT030 TX22/2414Z TN15/2406Z"
    },
    {
      "icao": "GCTS",
      "alert": "OK",
      "vis_m": 9999,
      "fzfg": false,
      "metar_trigger": false,
      "taf_trigger": false,
      "metar": "METAR GCTS 231700Z 18005KT 150V240 9999 VCTS SCT020 BKN080CB 20/14 Q1007 NOSIG",
      "taf": "TAF GCTS 231400Z 2315/2415 23005KT 9999 SCT020 TX22/2414Z TN15/2406Z"
    },
    {
      "icao": "GMAD",
      "alert": "OK",
      "vis_m": 9999,
      "fzfg": false,
      "metar_trigger": false,
      "taf_trigger": false,
      "metar": "METAR GMAD 231700Z 25010KT 9999 FEW030TCU FEW040CB 22/14 Q1009 NOSIG",
      "taf": "TAF GMAD 231700Z 2318/2424 20008KT 8000 SCT020TCU SCT080"
    },
    {
      "icao": "GMMN",
      "alert": "OK",
      "vis_m": 9999,
      "fzfg": false,
      "metar_trigger": false,
      "taf_trigger": false,
      "metar": "METAR GMMN 231700Z 36011KT 9999 SCT030 19/14 Q1012 NOSIG",
      "taf": "TAF GMMN 231700Z 2318/2424 36010KT 9999 SCT020"
    },
    {
      "icao": "GMMX",
      "alert": "OK",
      "vis_m": 9999,
      "fzfg": false,
      "metar_trigger": false,
      "taf_trigger": false,
      "metar": "METAR GMMX 231700Z VRB04KT 9999 BKN023 FEW030CB 23/09 Q1010 NOSIG",
      "taf": "TAF GMMX 231700Z 2318/2424 06006KT 8000 BKN023 FEW030CB"
    },
    {
      "icao": "HEGN",
      "alert": "OK",
      "vis_m": 9999,
      "fzfg": false,
      "metar_trigger": false,
      "taf_trigger": false,
      "metar": "METAR HEGN 231700Z 34005KT CAVOK 22/12 Q1007 NOSIG",
      "taf": "TAF HEGN 231700Z 2318/2424 31010KT 9999 SCT025"
    },
    {
      "icao": "HEMA",
      "alert": "OK",
      "vis_m": 9999,
      "fzfg": false,
      "metar_trigger": false,
      "taf_trigger": false,
      "metar": "METAR HEMA 231700Z 09005KT 9999 FEW020 22/16 Q1007 NOSIG",
      "taf": "TAF HEMA 231700Z 2318/2424 35010KT 9999 SCT025"
    },
    {
      "icao": "HESH",
      "alert": "OK",
      "vis_m": 9999,
      "fzfg": false,
      "metar_trigger": false,
      "taf_trigger": false,
      "metar": "METAR HESH 231700Z 12005KT CAVOK 22/09 Q1007 NOSIG",
      "taf": "TAF HESH 231700Z 2318/2424 32010KT 9999 SCT025"
    },
    {
      "icao": "HESX",
      "alert": "OK",
      "vis_m": 9999,
      "fzfg": false,
      "metar_trigger": false,
      "taf_trigger": false,
      "metar": "METAR HESX 231700Z 36010KT 9999 FEW020 SCT100 15/07 Q1010 NOSIG",
      "taf": "TAF HESX 231700Z 2318/2424 30010KT 9999 SCT020"
    },
    {
      "icao": "LATI",
      "alert": "OK",
      "vis_m": 9999,
      "fzfg": false,
      "metar_trigger": false,
      "taf_trigger": false,
      "metar": "METAR LATI 231720Z VRB03KT 9999 BKN090 11/06 Q1013 NOSIG",
      "taf": "TAF LATI 231700Z 2318/2418 VRB05KT 9999 SCT080 TX19/2412Z TN06/2404Z"
    },
    {
      "icao": "LBPD",
      "alert": "OK",
      "vis_m": 9999,
      "fzfg": false,
      "metar_trigger": false,
      "taf_trigger": false,
      "metar": "METAR LBPD 231730Z AUTO 11008KT 9999 -RA SCT040/// OVC048/// 08/06 Q1014 NOSIG",
      "taf": "TAF LBPD 231700Z 2318/2418 09010KT 9999 SCT030 OVC050"
    },
    {
      "icao": "LBSF",
      "alert": "OK",
      "vis_m": 9999,
      "fzfg": false,
      "metar_trigger": false,
      "taf_trigger": false,
      "metar": "METAR LBSF 231730Z AUTO 04006KT 350V070 9999 SCT025/// BKN036/// OVC048/// 06/02 Q1015 NOSIG",
      "taf": "TAF LBSF 231700Z 2318/2418 03010KT 9999 BKN025 BKN040"
    },
    {
      "icao": "LBWN",
      "alert": "OK",
      "vis_m": 9999,
      "fzfg": false,
      "metar_trigger": false,
      "taf_trigger": false,
      "metar": "METAR LBWN 231730Z AUTO 01005KT 330V060 9999 NSC 08/03 Q1014 NOSIG",
      "taf": "TAF LBWN 231700Z 2318/2418 02010KT 9999 OVC045"
    },
    {
      "icao": "LCLK",
      "alert": "OK",
      "vis_m": 9999,
      "fzfg": false,
      "metar_trigger": false,
      "taf_trigger": false,
      "metar": "METAR LCLK 231700Z 32004KT 9999 FEW030 13/12 Q1009 NOSIG",
      "taf": "TAF LCLK 231730Z 2318/2418 31006KT 9999 FEW025 SCT045"
    },
    {
      "icao": "LCPH",
      "alert": "OK",
      "vis_m": 9999,
      "fzfg": false,
      "metar_trigger": false,
      "taf_trigger": false,
      "metar": "METAR LCPH 231700Z 26004KT 250V320 9999 FEW025 FEW028TCU 15/10 Q1009 NOSIG",
      "taf": "TAF LCPH 231730Z 2318/2418 04007KT 9999 FEW025 SCT035"
    },
    {
      "icao": "LEAL",
      "alert": "OK",
      "vis_m": 9999,
      "fzfg": false,
      "metar_trigger": false,
      "taf_trigger": false,
      "metar": "METAR LEAL 231700Z 07018G28KT 9999 FEW020 16/12 Q1017 NOSIG",
      "taf": "TAF LEAL 231700Z 2318/2418 08012KT 9999 FEW040 TX18/2412Z TN08/2406Z"
    },
    {
      "icao": "LEBB",
      "alert": "OK",
      "vis_m": 9999,
      "fzfg": false,
      "metar_trigger": false,
      "taf_trigger": false,
      "metar": "METAR LEBB 231700Z 34005KT 300V010 9999 FEW030 15/09 Q1021 NOSIG",
      "taf": "TAF LEBB 231700Z 2318/2418 10006KT 9000 FEW020 SCT030 TX20/2414Z TN04/2406Z"
    },
    {
      "icao": "LEBL",
      "alert": "OK",
      "vis_m": 9999,
      "fzfg": false,
      "metar_trigger": false,
      "taf_trigger": false,
      "metar": "METAR LEBL 231700Z 10005KT 080V140 9999 FEW040 15/09 Q1019 NOSIG",
      "taf": "TAF LEBL 231700Z 2318/2418 09012KT 9999 FEW020 TX18/2412Z TN09/2406Z"
    },
    {
      "icao": "LECH",
      "alert": "OK",
      "vis_m": 9999,
      "fzfg": false,
      "metar_trigger": false,
      "taf_trigger": false,
      "metar": "METAR LECH 231700Z AUTO 17005KT 140V200 CAVOK 11/07 Q1019",
      "taf": "TAF LECH 231700Z 2318/2418 VRB04KT 9999 FEW020 TX19/2413Z TN04/2406Z"
    },
    {
      "icao": "LEMD",
      "alert": "OK",
      "vis_m": 9999,
      "fzfg": false,
      "metar_trigger": false,
      "taf_trigger": false,
      "metar": "METAR LEMD 231700Z 04004KT 330V120 CAVOK 17/M02 Q1016 NOSIG",
      "taf": "TAF LEMD 231700Z 2318/2424 VRB04KT CAVOK TX18/2416Z TN02/2406Z"
    },
    {
      "icao": "LEMG",
      "alert": "OK",
      "vis_m": 9999,
      "fzfg": false,
      "metar_trigger": false,
      "taf_trigger": false,
      "metar": "METAR LEMG 231700Z 13008KT 100V160 9999 FEW040 16/11 Q1015 NOSIG",
      "taf": "TAF LEMG 231700Z 2318/2418 13009KT 9999 FEW040 TX18/2413Z TN11/2406Z"
    },
    {
      "icao": "LEVC",
      "alert": "OK",
      "vis_m": 9999,
      "fzfg": false,
      "metar_trigger": false,
      "taf_trigger": false,
      "metar": "METAR LEVC 231700Z 06010KT 9999 FEW020 14/08 Q1019 NOSIG",
      "taf": "TAF LEVC 231700Z 2318/2418 06008KT 9999 FEW020 TX20/2412Z TN06/2406Z"
    },
    {
      "icao": "LEXJ",
      "alert": "OK",
      "vis_m": 9999,
      "fzfg": false,
      "metar_trigger": false,
      "taf_trigger": false,
      "metar": "METAR LEXJ 231700Z 04005KT 010V100 9999 FEW023 13/08 Q1021",
      "taf": "TAF LEXJ 231400Z 2315/2415 05009KT 9999 SCT020 BKN040 TX19/2413Z TN03/2406Z"
    },
    {
      "icao": "LEZG",
      "alert": "OK",
      "vis_m": 9999,
      "fzfg": false,
      "metar_trigger": false,
      "taf_trigger": false,
      "metar": "METAR LEZG 231700Z 30007KT CAVOK 18/03 Q1017 NOSIG",
      "taf": "TAF LEZG 231700Z 2318/2418 30010KT CAVOK TX21/2414Z TN05/2406Z"
    },
    {
      "icao": "LEZL",
      "alert": "OK",
      "vis_m": 9999,
      "fzfg": false,
      "metar_trigger": false,
      "taf_trigger": false,
      "metar": "METAR LEZL 231700Z 09007KT 050V120 CAVOK 24/08 Q1012 NOSIG",
      "taf": "TAF LEZL 231400Z 2315/2415 06007KT CAVOK TX25/2315Z TN12/2407Z"
    },
    {
      "icao": "LFBD",
      "alert": "OK",
      "vis_m": 9999,
      "fzfg": false,
      "metar_trigger": false,
      "taf_trigger": false,
      "metar": "METAR LFBD 231700Z AUTO 05005KT 010V090 CAVOK 16/04 Q1020 NOSIG",
      "taf": "TAF LFBD 231700Z 2318/2424 06010KT CAVOK TX19/2415Z TN04/2406Z"
    },
    {
      "icao": "LFLL",
      "alert": "OK",
      "vis_m": 9999,
      "fzfg": false,
      "metar_trigger": false,
      "taf_trigger": false,
      "metar": "METAR LFLL 231700Z 34009KT 9999 FEW036TCU 14/04 Q1019 NOSIG",
      "taf": "TAF LFLL 231700Z 2318/2424 35006KT CAVOK"
    },
    {
      "icao": "LFLS",
      "alert": "OK",
      "vis_m": 9999,
      "fzfg": false,
      "metar_trigger": false,
      "taf_trigger": false,
      "metar": "METAR LFLS 231700Z AUTO 34009KT 9999 SCT035 OVC084 12/05 Q1018 TEMPO 4000 -SHRA BKN030TCU",
      "taf": "TAF LFLS 231400Z 2315/2415 36006KT 9999 SCT035"
    },
    {
      "icao": "LFMN",
      "alert": "OK",
      "vis_m": 9999,
      "fzfg": false,
      "metar_trigger": false,
      "taf_trigger": false,
      "metar": "METAR LFMN 231700Z 22003KT 200V260 9999 FEW100 15/05 Q1017 NOSIG",
      "taf": "TAF LFMN 231400Z 2315/2421 17005KT CAVOK"
    },
    {
      "icao": "LFOB",
      "alert": "OK",
      "vis_m": 9999,
      "fzfg": false,
      "metar_trigger": false,
      "taf_trigger": false,
      "metar": "METAR LFOB 231700Z AUTO 01003KT CAVOK 14/05 Q1021 NOSIG",
      "taf": "TAF LFOB 231700Z 2318/2418 02006KT CAVOK"
    },
    {
      "icao": "LFPO",
      "alert": "OK",
      "vis_m": 9999,
      "fzfg": false,
      "metar_trigger": false,
      "taf_trigger": false,
      "metar": "METAR LFPO 231700Z 35004KT 310V030 CAVOK 15/03 Q1020 NOSIG",
      "taf": "TAF LFPO 231700Z 2318/2424 02005KT CAVOK"
    },
    {
      "icao": "LFSB",
      "alert": "OK",
      "vis_m": 9999,
      "fzfg": false,
      "metar_trigger": false,
      "taf_trigger": false,
      "metar": "METAR LFSB 231700Z AUTO 35007KT CAVOK 12/01 Q1019 NOSIG",
      "taf": "TAF LFSB 231100Z 2312/2412 32004KT CAVOK"
    },
    {
      "icao": "LGAV",
      "alert": "OK",
      "vis_m": 9999,
      "fzfg": false,
      "metar_trigger": false,
      "taf_trigger": false,
      "metar": "METAR LGAV 231650Z 03006KT 9999 FEW030 12/05 Q1012 NOSIG",
      "taf": "TAF LGAV 231700Z 2318/2418 04012KT 9999 FEW025"
    },
    {
      "icao": "LGTS",
      "alert": "OK",
      "vis_m": 9999,
      "fzfg": false,
      "metar_trigger": false,
      "taf_trigger": false,
      "metar": "METAR LGTS 231720Z VRB03KT 9999 SCT030 12/07 Q1013 NOSIG",
      "taf": "TAF LGTS 231700Z 2318/2418 VRB03KT 9999 SCT025"
    },
    {
      "icao": "LHBP",
      "alert": "OK",
      "vis_m": 9999,
      "fzfg": false,
      "metar_trigger": false,
      "taf_trigger": false,
      "metar": "METAR LHBP 231700Z 31005KT CAVOK 12/01 Q1016 NOSIG",
      "taf": "TAF LHBP 231715Z 2318/2418 34007KT CAVOK"
    },
    {
      "icao": "LHDC",
      "alert": "OK",
      "vis_m": 9999,
      "fzfg": false,
      "metar_trigger": false,
      "taf_trigger": false,
      "metar": "METAR LHDC 231645Z AUTO 16002KT CAVOK 12/05 Q1016 NOSIG",
      "taf": "TAF LHDC 231415Z 2315/2324 27006KT CAVOK"
    },
    {
      "icao": "LIBD",
      "alert": "OK",
      "vis_m": 9999,
      "fzfg": false,
      "metar_trigger": false,
      "taf_trigger": false,
      "metar": "METAR LIBD 231720Z 36004KT CAVOK 12/08 Q1014",
      "taf": "TAF LIBD 231700Z 2318/2418 35010KT 9999 SCT030"
    },
    {
      "icao": "LIBG",
      "alert": "OK",
      "vis_m": 9999,
      "fzfg": false,
      "metar_trigger": false,
      "taf_trigger": false,
      "metar": "METAR LIBG 231650Z 02006KT CAVOK 13/05 Q1013",
      "taf": "TAF LIBG 231700Z 2318/2403 03008KT 9999 SCT030"
    },
    {
      "icao": "LIBP",
      "alert": "OK",
      "vis_m": 9999,
      "fzfg": false,
      "metar_trigger": false,
      "taf_trigger": false,
      "metar": "METAR LIBP 231720Z AUTO 28004KT 9999 FEW066/// 10/06 Q1016",
      "taf": "TAF LIBP 231700Z 2318/2418 01010KT 9999 SCT030"
    },
    {
      "icao": "LIBR",
      "alert": "OK",
      "vis_m": 9999,
      "fzfg": false,
      "metar_trigger": false,
      "taf_trigger": false,
      "metar": "METAR LIBR 231720Z 35007KT CAVOK 13/07 Q1013",
      "taf": "TAF LIBR 231700Z 2318/2418 35010KT 9999 FEW040"
    },
    {
      "icao": "LICA",
      "alert": "OK",
      "vis_m": 9999,
      "fzfg": false,
      "metar_trigger": false,
      "taf_trigger": false,
      "metar": "METAR LICA 231720Z AUTO 05009KT 9999 BKN073/// 10/07 Q1013",
      "taf": "TAF LICA 231700Z 2318/2418 08010KT 9999 SCT030"
    },
    {
      "icao": "LICC",
      "alert": "OK",
      "vis_m": 9999,
      "fzfg": false,
      "metar_trigger": false,
      "taf_trigger": false,
      "metar": "METAR LICC 231720Z 07005KT 9999 FEW020 SCT080 13/11 Q1013",
      "taf": "TAF LICC 231700Z 2318/2418 VRB05KT 9999 SCT020"
    },
    {
      "icao": "LICJ",
      "alert": "OK",
      "vis_m": 9999,
      "fzfg": false,
      "metar_trigger": false,
      "taf_trigger": false,
      "metar": "METAR LICJ 231720Z 32007KT 290V350 CAVOK 15/07 Q1013",
      "taf": "TAF LICJ 231700Z 2318/2418 33007KT 9999 SCT030"
    },
    {
      "icao": "LIMC",
      "alert": "OK",
      "vis_m": 9999,
      "fzfg": false,
      "metar_trigger": false,
      "taf_trigger": false,
      "metar": "METAR LIMC 231720Z 21006KT 160V250 CAVOK 15/01 Q1016 NOSIG",
      "taf": "TAF LIMC 231700Z 2318/2424 36008KT CAVOK"
    },
    {
      "icao": "LIME",
      "alert": "OK",
      "vis_m": 9999,
      "fzfg": false,
      "metar_trigger": false,
      "taf_trigger": false,
      "metar": "METAR LIME 231720Z 19003KT 160V230 9999 FEW100 13/02 Q1016 NOSIG",
      "taf": "TAF LIME 231700Z 2318/2418 03006KT CAVOK"
    },
    {
      "icao": "LIMF",
      "alert": "OK",
      "vis_m": 9999,
      "fzfg": false,
      "metar_trigger": false,
      "taf_trigger": false,
      "metar": "METAR LIMF 231720Z 23004KT 200V260 CAVOK 15/M01 Q1016",
      "taf": "TAF LIMF 231700Z 2318/2418 VRB05KT CAVOK"
    },
    {
      "icao": "LIMJ",
      "alert": "OK",
      "vis_m": 9999,
      "fzfg": false,
      "metar_trigger": false,
      "taf_trigger": false,
      "metar": "METAR LIMJ 231720Z 26008KT CAVOK 16/06 Q1015",
      "taf": "TAF LIMJ 231700Z 2318/2418 04010KT CAVOK"
    },
    {
      "icao": "LIPE",
      "alert": "OK",
      "vis_m": 9999,
      "fzfg": false,
      "metar_trigger": false,
      "taf_trigger": false,
      "metar": "METAR LIPE 231720Z 29004KT CAVOK 14/01 Q1016",
      "taf": "TAF LIPE 231700Z 2318/2418 VRB05KT 9999 SCT050"
    },
    {
      "icao": "LIPH",
      "alert": "OK",
      "vis_m": 9999,
      "fzfg": false,
      "metar_trigger": false,
      "taf_trigger": false,
      "metar": "METAR LIPH 231720Z 18002KT CAVOK 15/02 Q1016",
      "taf": "TAF LIPH 231700Z 2318/2418 VRB05KT CAVOK"
    },
    {
      "icao": "LIPQ",
      "alert": "OK",
      "vis_m": 9999,
      "fzfg": false,
      "metar_trigger": false,
      "taf_trigger": false,
      "metar": "METAR LIPQ 231720Z AUTO 11008KT 9999 BKN100/// 13/03 Q1016",
      "taf": "TAF LIPQ 231700Z 2318/2418 04005KT 9999 FEW060"
    },
    {
      "icao": "LIPR",
      "alert": "OK",
      "vis_m": 9999,
      "fzfg": false,
      "metar_trigger": false,
      "taf_trigger": false,
      "metar": "METAR LIPR 231720Z 01003KT 330V030 CAVOK 11/07 Q1016",
      "taf": "TAF LIPR 231700Z 2318/2418 VRB06KT 9999 SCT050"
    },
    {
      "icao": "LIPX",
      "alert": "OK",
      "vis_m": 9999,
      "fzfg": false,
      "metar_trigger": false,
      "taf_trigger": false,
      "metar": "METAR LIPX 231720Z 25005KT CAVOK 14/02 Q1016",
      "taf": "TAF LIPX 231700Z 2318/2418 VRB05KT CAVOK"
    },
    {
      "icao": "LIPY",
      "alert": "OK",
      "vis_m": 9999,
      "fzfg": false,
      "metar_trigger": false,
      "taf_trigger": false,
      "metar": "METAR LIPY 231720Z AUTO 34003KT 9999 NCD 11/09 Q1016",
      "taf": "TAF LIPY 231700Z 2318/2418 31010KT 9999 SCT040"
    },
    {
      "icao": "LIPZ",
      "alert": "OK",
      "vis_m": 9999,
      "fzfg": false,
      "metar_trigger": false,
      "taf_trigger": false,
      "metar": "METAR LIPZ 231720Z VRB01KT CAVOK 15/02 Q1016 NOSIG",
      "taf": "TAF LIPZ 231700Z 2318/2424 03006KT CAVOK"
    },
    {
      "icao": "LIRF",
      "alert": "OK",
      "vis_m": 9999,
      "fzfg": false,
      "metar_trigger": false,
      "taf_trigger": false,
      "metar": "METAR LIRF 231720Z 29009KT 9999 -DZ SCT050 14/07 Q1013 NOSIG",
      "taf": "TAF LIRF 231700Z 2318/2424 31010KT 9999 SCT030"
    },
    {
      "icao": "LIRN",
      "alert": "OK",
      "vis_m": 6000,
      "fzfg": false,
      "metar_trigger": false,
      "taf_trigger": false,
      "metar": "METAR LIRN 231720Z VRB06KT 6000 -RA SCT050 11/08 Q1013 NOSIG",
      "taf": "TAF LIRN 231700Z 2318/2418 03006KT 9999 FEW040"
    },
    {
      "icao": "LIRP",
      "alert": "OK",
      "vis_m": 9999,
      "fzfg": false,
      "metar_trigger": false,
      "taf_trigger": false,
      "metar": "METAR LIRP 231715Z 32007KT 9999 FEW070 13/04 Q1016 NOSIG",
      "taf": "TAF LIRP 231700Z 2318/2418 30006KT 9999 SCT060"
    },
    {
      "icao": "LIRZ",
      "alert": "OK",
      "vis_m": 9999,
      "fzfg": false,
      "metar_trigger": false,
      "taf_trigger": false,
      "metar": "METAR LIRZ 231720Z AUTO 05006KT 9999 NCD 11/03 Q1015",
      "taf": "TAF LIRZ 231700Z 2318/2418 04014KT 9999 FEW080"
    },
    {
      "icao": "LJLJ",
      "alert": "OK",
      "vis_m": 9999,
      "fzfg": false,
      "metar_trigger": false,
      "taf_trigger": false,
      "metar": "METAR LJLJ 231700Z 15003KT 120V180 9999 SCT065 10/04 Q1017 NOSIG",
      "taf": "TAF LJLJ 231700Z 2318/2418 12005KT 9999 FEW070 SCT090"
    },
    {
      "icao": "LKMT",
      "alert": "OK",
      "vis_m": 9999,
      "fzfg": false,
      "metar_trigger": false,
      "taf_trigger": false,
      "metar": "METAR LKMT 231700Z 34003KT 320V070 CAVOK 12/M00 Q1017 NOSIG",
      "taf": "TAF LKMT 231700Z 2318/2418 36005KT CAVOK"
    },
    {
      "icao": "LKPR",
      "alert": "OK",
      "vis_m": 9999,
      "fzfg": false,
      "metar_trigger": false,
      "taf_trigger": false,
      "metar": "METAR LKPR 231700Z VRB02KT CAVOK 11/M02 Q1018 NOSIG",
      "taf": "TAF LKPR 231700Z 2318/2424 06004KT CAVOK"
    },
    {
      "icao": "LLBG",
      "alert": "OK",
      "vis_m": 9999,
      "fzfg": false,
      "metar_trigger": false,
      "taf_trigger": false,
      "metar": "METAR LLBG 231720Z 01004KT CAVOK 16/11 Q1010 NOSIG",
      "taf": "TAF LLBG 231710Z 2318/2418 VRB04KT 9999 FEW040 TX19/2411Z TN08/2402Z"
    },
    {
      "icao": "LMML",
      "alert": "OK",
      "vis_m": 9999,
      "fzfg": false,
      "metar_trigger": false,
      "taf_trigger": false,
      "metar": "METAR LMML 231715Z 31008KT 9999 FEW024 13/10 Q1012 NOSIG",
      "taf": "TAF LMML 231700Z 2318/2418 VRB06KT 9999 FEW020"
    },
    {
      "icao": "LOWW",
      "alert": "OK",
      "vis_m": 9999,
      "fzfg": false,
      "metar_trigger": false,
      "taf_trigger": false,
      "metar": "METAR LOWW 231720Z 26006KT CAVOK 12/01 Q1017 NOSIG",
      "taf": "TAF LOWW 231715Z 2318/2424 VRB04KT 9999 FEW050 TX17/2413Z TN05/2404Z"
    },
    {
      "icao": "LPFR",
      "alert": "OK",
      "vis_m": null,
      "fzfg": false,
      "metar_trigger": false,
      "taf_trigger": false,
      "metar": "",
      "taf": "TAF LPFR 231100Z 2312/2412 19007KT 9999 SCT020"
    },
    {
      "icao": "LPMA",
      "alert": "OK",
      "vis_m": 9999,
      "fzfg": false,
      "metar_trigger": false,
      "taf_trigger": false,
      "metar": "METAR LPMA 231700Z 03018KT 9999 BKN013 FEW016TCU 18/14 Q1012",
      "taf": "TAF LPMA 231700Z 2318/2418 02015KT 9999 SCT015"
    },
    {
      "icao": "LPPR",
      "alert": "OK",
      "vis_m": 9999,
      "fzfg": false,
      "metar_trigger": false,
      "taf_trigger": false,
      "metar": "METAR LPPR 231700Z 32007KT 300V360 CAVOK 19/10 Q1015",
      "taf": "TAF LPPR 231700Z 2318/2418 33008KT CAVOK"
    },
    {
      "icao": "LPPS",
      "alert": "OK",
      "vis_m": 9999,
      "fzfg": false,
      "metar_trigger": false,
      "taf_trigger": false,
      "metar": "METAR LPPS 231700Z 07016KT 9999 SCT010 FEW014TCU 17/15 Q1012",
      "taf": "TAF LPPS 231700Z 2318/2424 07015KT 9999 SCT012"
    },
    {
      "icao": "LPPT",
      "alert": "OK",
      "vis_m": 9999,
      "fzfg": false,
      "metar_trigger": false,
      "taf_trigger": false,
      "metar": "METAR LPPT 231700Z 30006KT 270V340 9999 FEW035 20/14 Q1014",
      "taf": "TAF LPPT 231700Z 2318/2424 32008KT 9999 FEW035"
    },
    {
      "icao": "LQBK",
      "alert": "OK",
      "vis_m": 9999,
      "fzfg": false,
      "metar_trigger": false,
      "taf_trigger": false,
      "metar": "METAR LQBK 231700Z VRB06KT 9999 VCSH FEW045TCU SCT049 11/04 Q1016 RESHRA NOSIG",
      "taf": "TAF LQBK 231700Z 2318/2418 34005KT CAVOK TX15/2414Z TN04/2405Z"
    },
    {
      "icao": "LQSA",
      "alert": "OK",
      "vis_m": 9999,
      "fzfg": false,
      "metar_trigger": false,
      "taf_trigger": false,
      "metar": "METAR LQSA 231700Z 31008KT 9999 BKN055 09/02 Q1014 NOSIG",
      "taf": "TAF LQSA 231700Z 2318/2418 28005KT 9999 BKN055 TX12/2413Z TN04/2405Z"
    },
    {
      "icao": "LQTZ",
      "alert": "OK",
      "vis_m": 9999,
      "fzfg": false,
      "metar_trigger": false,
      "taf_trigger": false,
      "metar": "METAR LQTZ 231700Z 31004KT 9999 BKN050 10/04 Q1015",
      "taf": "TAF LQTZ 231700Z 2318/2418 04005KT 9999 SCT040 TX14/2414Z TN03/2405Z"
    },
    {
      "icao": "LRBC",
      "alert": "OK",
      "vis_m": 9999,
      "fzfg": false,
      "metar_trigger": false,
      "taf_trigger": false,
      "metar": "METAR LRBC 231700Z 34005KT 9999 BKN062 11/01 Q1017",
      "taf": "TAF LRBC 231700Z 2318/2403 34005KT 9999 BKN060"
    },
    {
      "icao": "LRBS",
      "alert": "OK",
      "vis_m": 9999,
      "fzfg": false,
      "metar_trigger": false,
      "taf_trigger": false,
      "metar": "METAR LRBS 231700Z 31005KT 9999 -RA NSC 10/05 Q1016 NOSIG",
      "taf": "TAF LRBS 231700Z 2318/2418 VRB04KT CAVOK"
    },
    {
      "icao": "LRBV",
      "alert": "OK",
      "vis_m": 9999,
      "fzfg": false,
      "metar_trigger": false,
      "taf_trigger": false,
      "metar": "METAR LRBV 231700Z 05005KT 9999 FEW045 BKN058 09/01 Q1016",
      "taf": "TAF LRBV 231700Z 2318/2403 VRB04KT 9999 BKN055"
    },
    {
      "icao": "LRCL",
      "alert": "OK",
      "vis_m": 9999,
      "fzfg": false,
      "metar_trigger": false,
      "taf_trigger": false,
      "metar": "METAR LRCL 231700Z 16003KT CAVOK 11/00 Q1016",
      "taf": "TAF LRCL 231700Z 2318/2403 VRB04KT CAVOK"
    },
    {
      "icao": "LRCV",
      "alert": "OK",
      "vis_m": 9000,
      "fzfg": false,
      "metar_trigger": false,
      "taf_trigger": false,
      "metar": "METAR LRCV 231700Z COR 23002KT 9000 -RA FEW032 OVC040 07/07 Q1017",
      "taf": "TAF LRCV 231700Z 2318/2403 VRB04KT 9999 BKN040"
    },
    {
      "icao": "LRIA",
      "alert": "OK",
      "vis_m": 9999,
      "fzfg": false,
      "metar_trigger": false,
      "taf_trigger": false,
      "metar": "METAR LRIA 231700Z 34005KT CAVOK 12/M01 Q1017",
      "taf": "TAF LRIA 231700Z 2318/2403 VRB04KT CAVOK"
    },
    {
      "icao": "LROP",
      "alert": "OK",
      "vis_m": 9999,
      "fzfg": false,
      "metar_trigger": false,
      "taf_trigger": false,
      "metar": "METAR LROP 231700Z 33006KT CAVOK 10/03 Q1016 NOSIG",
      "taf": "TAF LROP 231700Z 2318/2418 VRB04KT CAVOK"
    },
    {
      "icao": "LRSB",
      "alert": "OK",
      "vis_m": 9999,
      "fzfg": false,
      "metar_trigger": false,
      "taf_trigger": false,
      "metar": "METAR LRSB 231700Z 16001KT 9999 SCT065 BKN080 09/02 Q1016 NOSIG",
      "taf": "TAF LRSB 231700Z 2318/2418 VRB04KT 9999 BKN065"
    },
    {
      "icao": "LRSM",
      "alert": "OK",
      "vis_m": 9999,
      "fzfg": false,
      "metar_trigger": false,
      "taf_trigger": false,
      "metar": "METAR LRSM 231700Z 00000KT CAVOK 11/M02 Q1016",
      "taf": "TAF LRSM 231400Z 2315/2324 VRB04KT CAVOK"
    },
    {
      "icao": "LRSV",
      "alert": "OK",
      "vis_m": 9999,
      "fzfg": false,
      "metar_trigger": false,
      "taf_trigger": false,
      "metar": "METAR LRSV 231700Z 36002KT CAVOK 09/M01 Q1017",
      "taf": "TAF LRSV 231700Z 2318/2403 VRB04KT CAVOK"
    },
    {
      "icao": "LRTM",
      "alert": "OK",
      "vis_m": 9999,
      "fzfg": false,
      "metar_trigger": false,
      "taf_trigger": false,
      "metar": "METAR LRTM 231700Z 25004KT CAVOK 11/01 Q1016",
      "taf": "TAF LRTM 231400Z 2315/2324 VRB04KT CAVOK"
    },
    {
      "icao": "LRTR",
      "alert": "OK",
      "vis_m": 9999,
      "fzfg": false,
      "metar_trigger": false,
      "taf_trigger": false,
      "metar": "METAR LRTR 231700Z 01004KT CAVOK 11/04 Q1015",
      "taf": "TAF LRTR 231700Z 2318/2418 VRB04KT CAVOK"
    },
    {
      "icao": "LTAC",
      "alert": "OK",
      "vis_m": 9999,
      "fzfg": false,
      "metar_trigger": false,
      "taf_trigger": false,
      "metar": "METAR LTAC 231720Z 16005KT 120V230 9999 -SHRA BKN030 BKN080 07/06 Q1010 NOSIG RMK RWY21C 16005KT 110V170 RWY03L 15004KT RWY21R 16006KT RWY03R 14003KT RWY21L 15004KT",
      "taf": "TAF LTAC 231640Z 2318/2418 VRB02KT 9999 BKN035 BKN100"
    },
    {
      "icao": "LTFM",
      "alert": "OK",
      "vis_m": 1200,
      "fzfg": false,
      "metar_trigger": false,
      "taf_trigger": false,
      "metar": "METAR LTFM 231720Z 02005KT 340V040 1200 R35R/P1500N R17L/P1500D R34L/P1500D R36/P1500N -RA BR BKN002 08/07 Q1013 NOSIG RMK RWY17L 02004KT RWY34L 02005KT RWY16R 02004KT RWY36 01006KT RWY18 01004KT",
      "taf": "TAF LTFM 231640Z 2318/2424 34006KT 1200 -DZ BCFG BKN002 BKN018"
    },
    {
      "icao": "LUKK",
      "alert": "OK",
      "vis_m": 9999,
      "fzfg": false,
      "metar_trigger": false,
      "taf_trigger": false,
      "metar": "METAR LUKK 231700Z 05005KT CAVOK 11/00 Q1016 NOSIG",
      "taf": "TAF LUKK 231708Z 2318/2418 VRB05KT CAVOK"
    },
    {
      "icao": "LWOH",
      "alert": "OK",
      "vis_m": 9999,
      "fzfg": false,
      "metar_trigger": false,
      "taf_trigger": false,
      "metar": "METAR LWOH 231720Z 35006KT 320V030 9999 BKN045 09/01 Q1012",
      "taf": "TAF LWOH 231430Z 2315/2415 36008KT 9999 BKN040 BKN080"
    },
    {
      "icao": "LWSK",
      "alert": "OK",
      "vis_m": 9999,
      "fzfg": false,
      "metar_trigger": false,
      "taf_trigger": false,
      "metar": "METAR LWSK 231720Z 02005KT 340V040 9999 BKN050 BKN070 11/05 Q1012 NOSIG",
      "taf": "TAF LWSK 231430Z 2315/2415 36010KT 9999 SCT040 BKN100"
    },
    {
      "icao": "LYBE",
      "alert": "OK",
      "vis_m": 9999,
      "fzfg": false,
      "metar_trigger": false,
      "taf_trigger": false,
      "metar": "METAR LYBE 231700Z 09007KT CAVOK 13/02 Q1015 NOSIG",
      "taf": "TAF LYBE 231700Z 2318/2418 11006KT CAVOK TX17/2413Z TN06/2405Z"
    },
    {
      "icao": "LYNI",
      "alert": "OK",
      "vis_m": 9999,
      "fzfg": false,
      "metar_trigger": false,
      "taf_trigger": false,
      "metar": "METAR LYNI 231700Z 02011KT 350V050 9999 FEW060 10/02 Q1014 NOSIG",
      "taf": "TAF LYNI 231700Z 2318/2418 04007KT CAVOK TX14/2413Z TN04/2405Z"
    },
    {
      "icao": "LYPG",
      "alert": "OK",
      "vis_m": 9999,
      "fzfg": false,
      "metar_trigger": false,
      "taf_trigger": false,
      "metar": "METAR LYPG 231700Z 33008KT 9999 SCT090 14/04 Q1012 NOSIG",
      "taf": "TAF LYPG 231700Z 2318/2418 36008KT 9999 FEW040 SCT080 TX18/2413Z TN08/2400Z"
    },
    {
      "icao": "LZIB",
      "alert": "OK",
      "vis_m": 9999,
      "fzfg": false,
      "metar_trigger": false,
      "taf_trigger": false,
      "metar": "METAR LZIB 231700Z 31003KT 9999 VCSH FEW048 14/M00 Q1017 NOSIG",
      "taf": "TAF LZIB 231715Z 2318/2418 32005KT CAVOK"
    },
    {
      "icao": "LZKZ",
      "alert": "OK",
      "vis_m": 9999,
      "fzfg": false,
      "metar_trigger": false,
      "taf_trigger": false,
      "metar": "METAR LZKZ 231700Z 33006KT CAVOK 13/M01 Q1016 NOSIG",
      "taf": "TAF LZKZ 231715Z 2318/2418 34006KT CAVOK"
    },
    {
      "icao": "LZTT",
      "alert": "OK",
      "vis_m": 9999,
      "fzfg": false,
      "metar_trigger": false,
      "taf_trigger": false,
      "metar": "METAR LZTT 231700Z 05003KT 9999 FEW056 08/M01 Q1016 NOSIG",
      "taf": "TAF LZTT 231715Z 2318/2418 25004KT 9999 FEW070"
    },
    {
      "icao": "OEJN",
      "alert": "OK",
      "vis_m": 7000,
      "fzfg": false,
      "metar_trigger": false,
      "taf_trigger": false,
      "metar": "METAR OEJN 231700Z 19003KT 7000 NSC 28/20 Q1006 NOSIG",
      "taf": "TAF OEJN 231700Z 2318/2424 17006KT 7000 NSC"
    },
    {
      "icao": "OEMA",
      "alert": "OK",
      "vis_m": 9999,
      "fzfg": false,
      "metar_trigger": false,
      "taf_trigger": false,
      "metar": "METAR OEMA 231700Z 25006KT CAVOK 28/M01 Q1009 NOSIG",
      "taf": "TAF OEMA 231700Z 2318/2424 VRB03KT 9999 FEW045"
    },
    {
      "icao": "OJAI",
      "alert": "OK",
      "vis_m": 5000,
      "fzfg": false,
      "metar_trigger": false,
      "taf_trigger": false,
      "metar": "METAR OJAI 231700Z 19003KT 5000 HZ NSC 11/05 Q1010 NOSIG",
      "taf": ""
    },
    {
      "icao": "OMAA",
      "alert": "OK",
      "vis_m": null,
      "fzfg": false,
      "metar_trigger": false,
      "taf_trigger": false,
      "metar": "",
      "taf": ""
    },
    {
      "icao": "OMDB",
      "alert": "OK",
      "vis_m": null,
      "fzfg": false,
      "metar_trigger": false,
      "taf_trigger": false,
      "metar": "",
      "taf": ""
    },
    {
      "icao": "UAAA",
      "alert": "OK",
      "vis_m": 9999,
      "fzfg": false,
      "metar_trigger": false,
      "taf_trigger": false,
      "metar": "SPECI UAAA 231710Z 12002MPS 050V160 9999 -SHRA BKN033CB OVC100 10/08 Q1020 WS R23L NOSIG",
      "taf": "TAF UAAA 231703Z 2318/2418 23003G08MPS 5000 -SHRA BR BKN030CB OVC100 TX15/2409Z TN06/2401Z"
    },
    {
      "icao": "UBBB",
      "alert": "OK",
      "vis_m": 8000,
      "fzfg": false,
      "metar_trigger": false,
      "taf_trigger": false,
      "metar": "METAR UBBB 231730Z 30008KT 8000 SCT003 08/07 Q1011 NOSIG",
      "taf": ""
    },
    {
      "icao": "UDSG",
      "alert": "OK",
      "vis_m": 9999,
      "fzfg": false,
      "metar_trigger": false,
      "taf_trigger": false,
      "metar": "METAR UDSG 231700Z 04006KT 9999 FEW049 01/01 Q1014 NOSIG",
      "taf": "TAF UDSG 231658Z 2318/2418 VRB06KT 9999 SCT040"
    },
    {
      "icao": "UDYZ",
      "alert": "OK",
      "vis_m": 9999,
      "fzfg": false,
      "metar_trigger": false,
      "taf_trigger": false,
      "metar": "METAR UDYZ 231700Z 02006KT 9999 FEW043CB 09/03 Q1012 NOSIG",
      "taf": "TAF UDYZ 231700Z 2318/2418 04006KT 9999 FEW040"
    },
    {
      "icao": "UGKO",
      "alert": "OK",
      "vis_m": 9999,
      "fzfg": false,
      "metar_trigger": false,
      "taf_trigger": false,
      "metar": "METAR UGKO 231700Z 27005KT 230V320 9999 SCT025 10/09 Q1011 NOSIG",
      "taf": "TAF UGKO 231700Z 2318/2418 26007KT 9000 SCT023 BKN040 TX19/2411Z TN06/2403Z"
    }
  ]
}