{
  "ts_utc": "2026-05-10T16:35:26Z",
  "threshold_m": 150,
  "source": "stations_override.txt (ICAO list) + aviationweather.gov (METAR/TAF raw)",
  "station_count": 159,
  "stations": [
    {
      "icao": "BIKF",
      "alert": "OK",
      "vis_m": 9999,
      "fzfg": false,
      "metar_trigger": false,
      "taf_trigger": false,
      "metar": "METAR BIKF 101630Z 22009KT 9999 -DZ OVC004 07/07 Q1018",
      "taf": "TAF BIKF 101622Z 1018/1118 22012KT 7000 -RADZ BKN005 TX08/1114Z TN05/1110Z"
    },
    {
      "icao": "BKPR",
      "alert": "OK",
      "vis_m": 9999,
      "fzfg": false,
      "metar_trigger": false,
      "taf_trigger": false,
      "metar": "METAR BKPR 101630Z 20004KT 130V230 CAVOK 21/11 Q1014 NOSIG",
      "taf": "TAF BKPR 101130Z 1012/1112 VRB03KT 9999 FEW030 BKN100"
    },
    {
      "icao": "EBCI",
      "alert": "OK",
      "vis_m": 9999,
      "fzfg": false,
      "metar_trigger": false,
      "taf_trigger": false,
      "metar": "METAR EBCI 101620Z 02008KT CAVOK 16/08 Q1009 NOSIG",
      "taf": "TAF EBCI 101118Z 1012/1118 03010KT 9999 SCT035"
    },
    {
      "icao": "EDDB",
      "alert": "OK",
      "vis_m": 9999,
      "fzfg": false,
      "metar_trigger": false,
      "taf_trigger": false,
      "metar": "METAR EDDB 101620Z AUTO 28002KT CAVOK 21/08 Q1009 NOSIG",
      "taf": "TAF EDDB 101100Z 1012/1112 24004KT CAVOK"
    },
    {
      "icao": "EDDH",
      "alert": "OK",
      "vis_m": 9999,
      "fzfg": false,
      "metar_trigger": false,
      "taf_trigger": false,
      "metar": "METAR EDDH 101620Z AUTO 34009KT 320V020 CAVOK 16/08 Q1010 NOSIG",
      "taf": "TAF EDDH 101100Z 1012/1118 VRB03KT CAVOK"
    },
    {
      "icao": "EDDK",
      "alert": "OK",
      "vis_m": 9999,
      "fzfg": false,
      "metar_trigger": false,
      "taf_trigger": false,
      "metar": "METAR EDDK 101620Z AUTO 01008KT CAVOK 20/10 Q1008 NOSIG",
      "taf": "TAF EDDK 101100Z 1012/1118 35008KT CAVOK"
    },
    {
      "icao": "EDDN",
      "alert": "OK",
      "vis_m": 9999,
      "fzfg": false,
      "metar_trigger": false,
      "taf_trigger": false,
      "metar": "METAR EDDN 101620Z AUTO 09004KT 040V130 CAVOK 23/06 Q1007 NOSIG",
      "taf": "TAF EDDN 101100Z 1012/1112 11009KT CAVOK"
    },
    {
      "icao": "EDDS",
      "alert": "OK",
      "vis_m": 9999,
      "fzfg": false,
      "metar_trigger": false,
      "taf_trigger": false,
      "metar": "METAR EDDS 101620Z AUTO 08007KT 9999 VCSH FEW///TCU 22/10 Q1006 TEMPO SHRA",
      "taf": "TAF EDDS 101100Z 1012/1112 03006KT CAVOK"
    },
    {
      "icao": "EDFH",
      "alert": "OK",
      "vis_m": 9999,
      "fzfg": false,
      "metar_trigger": false,
      "taf_trigger": false,
      "metar": "METAR EDFH 101620Z 02012KT 9999 FEW060CB 17/10 Q1008",
      "taf": "TAF EDFH 101100Z 1012/1112 03008KT CAVOK"
    },
    {
      "icao": "EDJA",
      "alert": "OK",
      "vis_m": 9999,
      "fzfg": false,
      "metar_trigger": false,
      "taf_trigger": false,
      "metar": "METAR EDJA 101620Z 15008KT 120V180 9999 VCSH SCT049TCU OVC062 16/11 Q1008",
      "taf": "TAF EDJA 101400Z 1015/1024 24007KT 9999 SCT040"
    },
    {
      "icao": "EDLW",
      "alert": "OK",
      "vis_m": 9999,
      "fzfg": false,
      "metar_trigger": false,
      "taf_trigger": false,
      "metar": "METAR EDLW 101620Z 35007KT 320V020 CAVOK 18/09 Q1009",
      "taf": "TAF EDLW 101100Z 1012/1112 35005KT CAVOK"
    },
    {
      "icao": "EDNY",
      "alert": "OK",
      "vis_m": 9999,
      "fzfg": false,
      "metar_trigger": false,
      "taf_trigger": false,
      "metar": "METAR EDNY 101620Z 14004KT 110V180 9999 FEW053 BKN077CB 20/07 Q1007",
      "taf": "TAF EDNY 101400Z 1015/1024 24007KT 9999 SCT055"
    },
    {
      "icao": "EDSB",
      "alert": "OK",
      "vis_m": 9999,
      "fzfg": false,
      "metar_trigger": false,
      "taf_trigger": false,
      "metar": "METAR EDSB 101620Z 19015KT 9999 -RA FEW050 18/14 Q1006",
      "taf": "TAF EDSB 101100Z 1012/1112 01006KT CAVOK"
    },
    {
      "icao": "EETN",
      "alert": "OK",
      "vis_m": 9999,
      "fzfg": false,
      "metar_trigger": false,
      "taf_trigger": false,
      "metar": "METAR EETN 101620Z VRB02KT CAVOK 12/05 Q1012 NOSIG",
      "taf": "TAF EETN 101130Z 1012/1112 04010KT 9999 BKN045"
    },
    {
      "icao": "EFTU",
      "alert": "OK",
      "vis_m": 9999,
      "fzfg": false,
      "metar_trigger": false,
      "taf_trigger": false,
      "metar": "METAR EFTU 101620Z AUTO 23011KT 190V250 CAVOK 13/M02 Q1010",
      "taf": "TAF EFTU 101432Z 1015/1115 19009KT CAVOK"
    },
    {
      "icao": "EGBB",
      "alert": "OK",
      "vis_m": 9999,
      "fzfg": false,
      "metar_trigger": false,
      "taf_trigger": false,
      "metar": "METAR EGBB 101620Z 04009KT 360V070 CAVOK 13/M00 Q1016",
      "taf": "TAF EGBB 101053Z 1012/1112 03010KT 9999 SCT040"
    },
    {
      "icao": "EGGP",
      "alert": "OK",
      "vis_m": 9999,
      "fzfg": false,
      "metar_trigger": false,
      "taf_trigger": false,
      "metar": "METAR EGGP 101620Z 32013KT 9999 SCT039 13/01 Q1017",
      "taf": ""
    },
    {
      "icao": "EGGW",
      "alert": "OK",
      "vis_m": 9999,
      "fzfg": false,
      "metar_trigger": false,
      "taf_trigger": false,
      "metar": "METAR EGGW 101620Z AUTO 03012KT 010V100 9999 BKN043 12/02 Q1015",
      "taf": "TAF EGGW 101058Z 1012/1112 03010KT 9999 SCT040"
    },
    {
      "icao": "EGKK",
      "alert": "OK",
      "vis_m": 9999,
      "fzfg": false,
      "metar_trigger": false,
      "taf_trigger": false,
      "metar": "METAR EGKK 101620Z 03012KT 9999 SCT032 11/07 Q1014",
      "taf": "TAF EGKK 101101Z 1012/1118 03013KT 9999 SCT035"
    },
    {
      "icao": "EGNM",
      "alert": "OK",
      "vis_m": 9999,
      "fzfg": false,
      "metar_trigger": false,
      "taf_trigger": false,
      "metar": "METAR EGNM 101620Z 08003KT 360V150 9999 FEW049 11/00 Q1017",
      "taf": "TAF EGNM 101100Z 1012/1112 03009KT 9999 FEW015"
    },
    {
      "icao": "EGPD",
      "alert": "OK",
      "vis_m": 9999,
      "fzfg": false,
      "metar_trigger": false,
      "taf_trigger": false,
      "metar": "METAR EGPD 101620Z COR AUTO 27013KT 9999 -RA BKN049 11/04 Q1013 NOSIG",
      "taf": "TAF EGPD 101057Z 1012/1112 30008KT 9999 SCT030"
    },
    {
      "icao": "EGPF",
      "alert": "OK",
      "vis_m": 9999,
      "fzfg": false,
      "metar_trigger": false,
      "taf_trigger": false,
      "metar": "METAR EGPF 101620Z AUTO 29013KT 9999 BKN036 11/04 Q1017",
      "taf": "TAF EGPF 101058Z 1012/1112 29009KT 9999 FEW030"
    },
    {
      "icao": "EHBK",
      "alert": "OK",
      "vis_m": 9999,
      "fzfg": false,
      "metar_trigger": false,
      "taf_trigger": false,
      "metar": "METAR EHBK 101625Z AUTO 02011KT 350V050 9999 NSC 17/08 Q1009 NOSIG",
      "taf": "TAF EHBK 101114Z 1012/1118 03010KT CAVOK"
    },
    {
      "icao": "EHEH",
      "alert": "OK",
      "vis_m": 9999,
      "fzfg": false,
      "metar_trigger": false,
      "taf_trigger": false,
      "metar": "METAR EHEH 101625Z AUTO 02009KT 360V060 9999 OVC170 17/07 Q1010 BLU NOSIG RMK TREND REMOTE BY EHWX",
      "taf": "TAF EHEH 101115Z 1012/1118 03008G18KT 9999 SCT040"
    },
    {
      "icao": "EKBI",
      "alert": "OK",
      "vis_m": 9999,
      "fzfg": false,
      "metar_trigger": false,
      "taf_trigger": false,
      "metar": "METAR EKBI 101620Z AUTO 30011KT 9999 NCD 11/M00 Q1012",
      "taf": "TAF EKBI 101427Z 1015/1115 33008KT 9999 SCT040"
    },
    {
      "icao": "EKCH",
      "alert": "OK",
      "vis_m": 9999,
      "fzfg": false,
      "metar_trigger": false,
      "taf_trigger": false,
      "metar": "METAR EKCH 101620Z AUTO 01006KT 340V040 9999 FEW036/// SCT067/// BKN100/// 13/07 Q1011 NOSIG",
      "taf": "TAF EKCH 101427Z 1015/1115 20006KT CAVOK"
    },
    {
      "icao": "ENAL",
      "alert": "OK",
      "vis_m": 9999,
      "fzfg": false,
      "metar_trigger": false,
      "taf_trigger": false,
      "metar": "METAR ENAL 101620Z 28003KT 210V320 9999 -RA FEW008 SCT015 BKN032 03/01 Q1011",
      "taf": ""
    },
    {
      "icao": "ENBR",
      "alert": "OK",
      "vis_m": 9999,
      "fzfg": false,
      "metar_trigger": false,
      "taf_trigger": false,
      "metar": "METAR ENBR 101620Z 30007KT 9999 SCT024 05/M00 Q1011 NOSIG RMK WIND 1200FT 28010KT",
      "taf": "TAF ENBR 101100Z 1012/1112 30005KT 9999 -SHRA FEW015 BKN035"
    },
    {
      "icao": "ENGM",
      "alert": "OK",
      "vis_m": 9999,
      "fzfg": false,
      "metar_trigger": false,
      "taf_trigger": false,
      "metar": "METAR ENGM 101620Z 18006KT 150V220 9999 VCSH FEW040CB 10/M02 Q1006 NOSIG",
      "taf": "TAF ENGM 101100Z 1012/1112 16010KT 9999 SCT020"
    },
    {
      "icao": "ENHD",
      "alert": "OK",
      "vis_m": 9999,
      "fzfg": false,
      "metar_trigger": false,
      "taf_trigger": false,
      "metar": "METAR ENHD 101620Z 26010KT 9999 VCSH FEW017TCU SCT022 BKN034 07/02 Q1011",
      "taf": ""
    },
    {
      "icao": "ENTC",
      "alert": "OK",
      "vis_m": 9999,
      "fzfg": false,
      "metar_trigger": false,
      "taf_trigger": false,
      "metar": "METAR ENTC 101620Z 02007KT CAVOK 07/02 Q1007 NOSIG RMK WIND 2600FT 17008KT",
      "taf": "TAF ENTC 101100Z 1012/1112 18006KT 9999 FEW030"
    },
    {
      "icao": "ENTO",
      "alert": "OK",
      "vis_m": 9999,
      "fzfg": false,
      "metar_trigger": false,
      "taf_trigger": false,
      "metar": "METAR ENTO 101620Z 21012KT 9999 FEW030TCU 10/02 Q1007 NOSIG",
      "taf": "TAF ENTO 101100Z 1012/1112 35008KT 9999 SCT020"
    },
    {
      "icao": "ENVA",
      "alert": "OK",
      "vis_m": 9999,
      "fzfg": false,
      "metar_trigger": false,
      "taf_trigger": false,
      "metar": "METAR ENVA 101620Z 29010KT 9999 FEW045 SCT057CB 07/M01 Q1008 RMK WIND 670FT 31015KT",
      "taf": "TAF ENVA 101100Z 1012/1112 28010KT 9999 SCT045"
    },
    {
      "icao": "ENZV",
      "alert": "OK",
      "vis_m": 9999,
      "fzfg": false,
      "metar_trigger": false,
      "taf_trigger": false,
      "metar": "METAR ENZV 101620Z 29010KT 9999 FEW022 08/02 Q1012 TEMPO SCT020CB",
      "taf": "TAF ENZV 101100Z 1012/1112 30009KT 9999 FEW015 SCT025"
    },
    {
      "icao": "EPGD",
      "alert": "OK",
      "vis_m": 9999,
      "fzfg": false,
      "metar_trigger": false,
      "taf_trigger": false,
      "metar": "METAR EPGD 101630Z 10007KT 060V120 CAVOK 16/02 Q1010",
      "taf": "TAF EPGD 101130Z 1012/1112 VRB04KT CAVOK"
    },
    {
      "icao": "EPKK",
      "alert": "OK",
      "vis_m": 9999,
      "fzfg": false,
      "metar_trigger": false,
      "taf_trigger": false,
      "metar": "METAR EPKK 101630Z 06010KT CAVOK 18/02 Q1011",
      "taf": "TAF EPKK 101430Z 1015/1115 08010KT CAVOK"
    },
    {
      "icao": "EPKT",
      "alert": "OK",
      "vis_m": 9999,
      "fzfg": false,
      "metar_trigger": false,
      "taf_trigger": false,
      "metar": "METAR EPKT 101630Z 08008KT CAVOK 18/03 Q1011",
      "taf": "TAF EPKT 101130Z 1012/1112 12010KT CAVOK"
    },
    {
      "icao": "EPLB",
      "alert": "OK",
      "vis_m": 9999,
      "fzfg": false,
      "metar_trigger": false,
      "taf_trigger": false,
      "metar": "METAR EPLB 101630Z 06005KT CAVOK 17/04 Q1013",
      "taf": "TAF EPLB 101130Z 1012/1112 VRB03KT CAVOK"
    },
    {
      "icao": "EPMO",
      "alert": "OK",
      "vis_m": 9999,
      "fzfg": false,
      "metar_trigger": false,
      "taf_trigger": false,
      "metar": "METAR EPMO 101630Z 32003KT 290V360 CAVOK 19/M03 Q1012",
      "taf": "TAF EPMO 101130Z 1012/1112 VRB03KT CAVOK"
    },
    {
      "icao": "EPPO",
      "alert": "OK",
      "vis_m": 9999,
      "fzfg": false,
      "metar_trigger": false,
      "taf_trigger": false,
      "metar": "METAR EPPO 101630Z 19007KT 170V240 CAVOK 19/02 Q1010",
      "taf": "TAF EPPO 101130Z 1012/1112 16010KT CAVOK"
    },
    {
      "icao": "EPRA",
      "alert": "OK",
      "vis_m": 9999,
      "fzfg": false,
      "metar_trigger": false,
      "taf_trigger": false,
      "metar": "METAR EPRA 101630Z VRB01KT CAVOK 19/00 Q1012",
      "taf": "TAF EPRA 101430Z 1015/1024 VRB02KT CAVOK"
    },
    {
      "icao": "EPRZ",
      "alert": "OK",
      "vis_m": 9999,
      "fzfg": false,
      "metar_trigger": false,
      "taf_trigger": false,
      "metar": "METAR EPRZ 101630Z 12004KT 080V150 CAVOK 18/03 Q1013",
      "taf": "TAF EPRZ 101130Z 1012/1112 VRB05KT CAVOK"
    },
    {
      "icao": "EPSC",
      "alert": "OK",
      "vis_m": 9999,
      "fzfg": false,
      "metar_trigger": false,
      "taf_trigger": false,
      "metar": "METAR EPSC 101630Z 28007KT CAVOK 17/07 Q1010",
      "taf": "TAF EPSC 101130Z 1012/1112 16010KT 9999 SCT049"
    },
    {
      "icao": "EPSY",
      "alert": "OK",
      "vis_m": 9999,
      "fzfg": false,
      "metar_trigger": false,
      "taf_trigger": false,
      "metar": "METAR EPSY 101630Z VRB02KT CAVOK 18/01 Q1012",
      "taf": "TAF EPSY 101430Z 1015/1024 VRB02KT CAVOK"
    },
    {
      "icao": "EPWA",
      "alert": "OK",
      "vis_m": 9999,
      "fzfg": false,
      "metar_trigger": false,
      "taf_trigger": false,
      "metar": "METAR EPWA 101630Z VRB01KT CAVOK 19/M05 Q1012 NOSIG",
      "taf": "TAF EPWA 101430Z 1015/1115 VRB05KT CAVOK"
    },
    {
      "icao": "EPWR",
      "alert": "OK",
      "vis_m": 9999,
      "fzfg": false,
      "metar_trigger": false,
      "taf_trigger": false,
      "metar": "METAR EPWR 101630Z 09003KT 070V150 CAVOK 20/05 Q1010",
      "taf": "TAF EPWR 101430Z 1015/1115 14010KT CAVOK"
    },
    {
      "icao": "ESGG",
      "alert": "OK",
      "vis_m": 9999,
      "fzfg": false,
      "metar_trigger": false,
      "taf_trigger": false,
      "metar": "METAR ESGG 101620Z 25011KT 9999 SCT030 09/01 Q1009",
      "taf": "TAF ESGG 101430Z 1015/1115 26010KT 9999 SCT020 BKN025"
    },
    {
      "icao": "ESKN",
      "alert": "OK",
      "vis_m": 9999,
      "fzfg": false,
      "metar_trigger": false,
      "taf_trigger": false,
      "metar": "METAR ESKN 101620Z 16006KT CAVOK 12/04 Q1007",
      "taf": "TAF ESKN 101430Z 1015/1115 14012KT CAVOK"
    },
    {
      "icao": "ESMS",
      "alert": "OK",
      "vis_m": 9999,
      "fzfg": false,
      "metar_trigger": false,
      "taf_trigger": false,
      "metar": "METAR ESMS 101620Z 25006KT CAVOK 14/06 Q1010",
      "taf": "TAF ESMS 101427Z 1015/1115 24006KT CAVOK"
    },
    {
      "icao": "ESSA",
      "alert": "OK",
      "vis_m": 9999,
      "fzfg": false,
      "metar_trigger": false,
      "taf_trigger": false,
      "metar": "METAR ESSA 101620Z 17016KT CAVOK 13/M04 Q1007 NOSIG",
      "taf": "TAF ESSA 101430Z 1015/1115 18013G24KT CAVOK"
    },
    {
      "icao": "EYKA",
      "alert": "OK",
      "vis_m": 9999,
      "fzfg": false,
      "metar_trigger": false,
      "taf_trigger": false,
      "metar": "METAR EYKA 101620Z 11003KT CAVOK 11/07 Q1014",
      "taf": "TAF EYKA 101100Z 1012/1112 VRB03KT 9000 BKN015"
    },
    {
      "icao": "EYPA",
      "alert": "OK",
      "vis_m": 9999,
      "fzfg": false,
      "metar_trigger": false,
      "taf_trigger": false,
      "metar": "METAR EYPA 101620Z VRB02KT CAVOK 12/00 Q1013",
      "taf": "TAF EYPA 101100Z 1012/1112 VRB03KT 9000 NSC"
    },
    {
      "icao": "EYVI",
      "alert": "OK",
      "vis_m": 9999,
      "fzfg": false,
      "metar_trigger": false,
      "taf_trigger": false,
      "metar": "METAR EYVI 101620Z VRB02KT 9999 FEW015 SCT023 BKN028 09/07 Q1014 NOSIG",
      "taf": "TAF EYVI 101100Z 1012/1112 24006KT 9000 OVC010"
    },
    {
      "icao": "GCFV",
      "alert": "OK",
      "vis_m": 9999,
      "fzfg": false,
      "metar_trigger": false,
      "taf_trigger": false,
      "metar": "METAR GCFV 101630Z 13005KT 100V180 9999 FEW035 SCT045 21/14 Q1016",
      "taf": "TAF GCFV 101400Z 1015/1115 08006KT 9999 FEW030 SCT045 TX24/1114Z TN17/1106Z"
    },
    {
      "icao": "GCLP",
      "alert": "OK",
      "vis_m": 9999,
      "fzfg": false,
      "metar_trigger": false,
      "taf_trigger": false,
      "metar": "METAR GCLP 101630Z 33007KT 290V350 9999 BKN035 20/14 Q1016 NOSIG",
      "taf": "TAF GCLP 101400Z 1015/1115 20005KT 9999 FEW025 BKN040 TX23/1114Z TN17/1106Z"
    },
    {
      "icao": "GCTS",
      "alert": "OK",
      "vis_m": 9999,
      "fzfg": false,
      "metar_trigger": false,
      "taf_trigger": false,
      "metar": "METAR GCTS 101630Z VRB02KT 9999 FEW030 BKN045 21/15 Q1016 NOSIG",
      "taf": "TAF GCTS 101400Z 1015/1115 19008KT 9999 FEW030 BKN060 TX23/1114Z TN16/1106Z"
    },
    {
      "icao": "GMAD",
      "alert": "OK",
      "vis_m": 9999,
      "fzfg": false,
      "metar_trigger": false,
      "taf_trigger": false,
      "metar": "METAR GMAD 101630Z 25013KT CAVOK 23/11 Q1014 NOSIG",
      "taf": "TAF GMAD 101100Z 1012/1118 26012KT 8000 SCT020"
    },
    {
      "icao": "GMMN",
      "alert": "OK",
      "vis_m": 9999,
      "fzfg": false,
      "metar_trigger": false,
      "taf_trigger": false,
      "metar": "METAR GMMN 101630Z 32013KT 9999 BKN030 21/14 Q1016 NOSIG",
      "taf": "TAF GMMN 101100Z 1012/1118 23014KT 9999 BKN020"
    },
    {
      "icao": "GMMX",
      "alert": "OK",
      "vis_m": 9999,
      "fzfg": false,
      "metar_trigger": false,
      "taf_trigger": false,
      "metar": "METAR GMMX 101630Z VRB04KT CAVOK 25/10 Q1015 NOSIG",
      "taf": "TAF GMMX 101100Z 1012/1118 32015KT CAVOK"
    },
    {
      "icao": "HEGN",
      "alert": "OK",
      "vis_m": 9999,
      "fzfg": false,
      "metar_trigger": false,
      "taf_trigger": false,
      "metar": "METAR HEGN 101600Z 35013KT CAVOK 28/14 Q1010 NOSIG",
      "taf": ""
    },
    {
      "icao": "HEMA",
      "alert": "OK",
      "vis_m": 9999,
      "fzfg": false,
      "metar_trigger": false,
      "taf_trigger": false,
      "metar": "METAR HEMA 101600Z 34015KT CAVOK 30/09 Q1010 NOSIG",
      "taf": ""
    },
    {
      "icao": "HESH",
      "alert": "OK",
      "vis_m": 9999,
      "fzfg": false,
      "metar_trigger": false,
      "taf_trigger": false,
      "metar": "METAR HESH 101600Z 34012KT CAVOK 33/08 Q1009 NOSIG",
      "taf": ""
    },
    {
      "icao": "HESX",
      "alert": "OK",
      "vis_m": 9999,
      "fzfg": false,
      "metar_trigger": false,
      "taf_trigger": false,
      "metar": "METAR HESX 101600Z 01014KT CAVOK 30/09 Q1014 NOSIG",
      "taf": ""
    },
    {
      "icao": "LATI",
      "alert": "OK",
      "vis_m": 9999,
      "fzfg": false,
      "metar_trigger": false,
      "taf_trigger": false,
      "metar": "METAR LATI 101620Z 31006KT 280V340 CAVOK 22/17 Q1013 NOSIG",
      "taf": "TAF LATI 101100Z 1012/1112 VRB05KT 9999 SCT030 BKN100 TX26/1112Z TN14/1104Z"
    },
    {
      "icao": "LBPD",
      "alert": "OK",
      "vis_m": 9999,
      "fzfg": false,
      "metar_trigger": false,
      "taf_trigger": false,
      "metar": "METAR LBPD 101630Z AUTO 15008KT 9999 SCT100/// OVC120/// 22/13 Q1012 NOSIG",
      "taf": "TAF LBPD 101100Z 1012/1112 30012KT 9999 SCT060"
    },
    {
      "icao": "LBSF",
      "alert": "OK",
      "vis_m": 9999,
      "fzfg": false,
      "metar_trigger": false,
      "taf_trigger": false,
      "metar": "METAR LBSF 101630Z AUTO 06005KT 9999 NSC 20/10 Q1013 NOSIG",
      "taf": "TAF LBSF 101100Z 1012/1112 34010KT 9999 SCT040 SCT060"
    },
    {
      "icao": "LBWN",
      "alert": "OK",
      "vis_m": 9999,
      "fzfg": false,
      "metar_trigger": false,
      "taf_trigger": false,
      "metar": "METAR LBWN 101630Z AUTO 32005KT 290V350 9999 NCD 20/13 Q1013 NOSIG",
      "taf": "TAF LBWN 101100Z 1012/1112 30010KT 9999 SCT015 BKN030"
    },
    {
      "icao": "LCLK",
      "alert": "OK",
      "vis_m": 9999,
      "fzfg": false,
      "metar_trigger": false,
      "taf_trigger": false,
      "metar": "METAR LCLK 101630Z 19003KT 150V210 CAVOK 24/18 Q1013 NOSIG",
      "taf": "TAF LCLK 101130Z 1012/1112 22015KT 9999 FEW030"
    },
    {
      "icao": "LCPH",
      "alert": "OK",
      "vis_m": 9999,
      "fzfg": false,
      "metar_trigger": false,
      "taf_trigger": false,
      "metar": "METAR LCPH 101630Z 31011KT CAVOK 21/12 Q1014 NOSIG",
      "taf": "TAF LCPH 101130Z 1012/1112 29015KT 9999 FEW030"
    },
    {
      "icao": "LEAL",
      "alert": "OK",
      "vis_m": 9999,
      "fzfg": false,
      "metar_trigger": false,
      "taf_trigger": false,
      "metar": "METAR LEAL 101630Z 18011KT 140V220 9999 FEW025 24/14 Q1011 NOSIG",
      "taf": "TAF LEAL 101100Z 1012/1112 18010KT 9999 FEW035 TX25/1012Z TN16/1105Z"
    },
    {
      "icao": "LEBB",
      "alert": "OK",
      "vis_m": 9999,
      "fzfg": false,
      "metar_trigger": false,
      "taf_trigger": false,
      "metar": "METAR LEBB 101630Z VRB02KT 9999 FEW070 19/11 Q1008 NOSIG",
      "taf": ""
    },
    {
      "icao": "LEBL",
      "alert": "OK",
      "vis_m": 9999,
      "fzfg": false,
      "metar_trigger": false,
      "taf_trigger": false,
      "metar": "METAR LEBL 101630Z 22018KT CAVOK 20/15 Q1010 NOSIG",
      "taf": "TAF LEBL 101100Z 1012/1112 24010KT 9999 FEW050 TX21/1013Z TN14/1106Z"
    },
    {
      "icao": "LECH",
      "alert": "OK",
      "vis_m": 9999,
      "fzfg": false,
      "metar_trigger": false,
      "taf_trigger": false,
      "metar": "METAR LECH 101630Z AUTO 19015KT CAVOK 19/11 Q1011",
      "taf": "TAF LECH 101100Z 1012/1112 22010KT 9999 FEW020 TX23/1014Z TN10/1105Z"
    },
    {
      "icao": "LEMD",
      "alert": "OK",
      "vis_m": 9999,
      "fzfg": false,
      "metar_trigger": false,
      "taf_trigger": false,
      "metar": "METAR LEMD 101630Z 20010KT 170V250 9999 FEW046 16/07 Q1012 NOSIG",
      "taf": "TAF LEMD 101100Z 1012/1118 20010KT 9999 SCT030 TX16/1015Z TN06/1105Z"
    },
    {
      "icao": "LEMG",
      "alert": "OK",
      "vis_m": 9999,
      "fzfg": false,
      "metar_trigger": false,
      "taf_trigger": false,
      "metar": "METAR LEMG 101630Z 17010KT 140V210 9999 FEW045 SCT070 19/12 Q1014 NOSIG",
      "taf": "TAF LEMG 101100Z 1012/1112 18006KT 9999 SCT030 TX22/1014Z TN13/1106Z"
    },
    {
      "icao": "LEVC",
      "alert": "OK",
      "vis_m": 9999,
      "fzfg": false,
      "metar_trigger": false,
      "taf_trigger": false,
      "metar": "METAR LEVC 101630Z 14006KT 100V180 9999 FEW060 22/16 Q1010 NOSIG",
      "taf": "TAF LEVC 101100Z 1012/1112 25010KT 9999 FEW020 TX24/1012Z TN14/1105Z"
    },
    {
      "icao": "LEXJ",
      "alert": "OK",
      "vis_m": 9999,
      "fzfg": false,
      "metar_trigger": false,
      "taf_trigger": false,
      "metar": "METAR LEXJ 101630Z 26010KT 9999 SCT043 18/13 Q1008",
      "taf": ""
    },
    {
      "icao": "LEZG",
      "alert": "OK",
      "vis_m": 9999,
      "fzfg": false,
      "metar_trigger": false,
      "taf_trigger": false,
      "metar": "METAR LEZG 101600Z COR 23009KT 9999 FEW070 BKN080 17/10 Q1011 NOSIG",
      "taf": ""
    },
    {
      "icao": "LEZL",
      "alert": "OK",
      "vis_m": 9999,
      "fzfg": false,
      "metar_trigger": false,
      "taf_trigger": false,
      "metar": "METAR LEZL 101630Z 23014KT 200V270 9999 FEW039 SCT049 20/12 Q1014 NOSIG",
      "taf": "TAF LEZL 101400Z 1015/1115 22012KT 9999 SCT030 TX22/1015Z TN11/1107Z"
    },
    {
      "icao": "LFBD",
      "alert": "OK",
      "vis_m": 9999,
      "fzfg": false,
      "metar_trigger": false,
      "taf_trigger": false,
      "metar": "METAR LFBD 101630Z AUTO 29012KT CAVOK 20/08 Q1007 TEMPO VRB20G30KT 3000 TSRA BKN030CB",
      "taf": "TAF LFBD 101100Z 1012/1118 24010KT 9999 SCT040 TX22/1013Z TN11/1105Z"
    },
    {
      "icao": "LFLL",
      "alert": "OK",
      "vis_m": 9999,
      "fzfg": false,
      "metar_trigger": false,
      "taf_trigger": false,
      "metar": "METAR LFLL 101630Z 17007KT 130V220 9999 SCT030 FEW033CB SCT100 BKN230 18/13 Q1008 NOSIG",
      "taf": ""
    },
    {
      "icao": "LFLS",
      "alert": "OK",
      "vis_m": 9999,
      "fzfg": false,
      "metar_trigger": false,
      "taf_trigger": false,
      "metar": "METAR LFLS 101630Z AUTO 23006KT 190V280 9999 BKN021 BKN058 17/13 Q1009 NOSIG",
      "taf": "TAF LFLS 101400Z 1015/1115 22009KT 9999 SCT020 BKN040"
    },
    {
      "icao": "LFMN",
      "alert": "OK",
      "vis_m": 9999,
      "fzfg": false,
      "metar_trigger": false,
      "taf_trigger": false,
      "metar": "METAR LFMN 101630Z 08010KT 9999 FEW012 SCT033 18/15 Q1011 NOSIG",
      "taf": "TAF LFMN 101400Z 1015/1121 10010KT 9999 FEW016 OVC050"
    },
    {
      "icao": "LFOB",
      "alert": "OK",
      "vis_m": 5000,
      "fzfg": false,
      "metar_trigger": false,
      "taf_trigger": false,
      "metar": "METAR LFOB 101630Z AUTO 03011KT 5000 -RA BR FEW008/// SCT031/// BKN048/// ///TCU 12/11 Q1008 TEMPO VRB15G27KT 2000 TSRA BKN030CB",
      "taf": ""
    },
    {
      "icao": "LFPO",
      "alert": "OK",
      "vis_m": 8000,
      "fzfg": false,
      "metar_trigger": false,
      "taf_trigger": false,
      "metar": "METAR LFPO 101630Z VRB03KT 8000 -RA BKN007 BKN016 15/14 Q1008 NOSIG",
      "taf": "TAF LFPO 101100Z 1012/1118 VRB05KT 9999 BKN030"
    },
    {
      "icao": "LFSB",
      "alert": "OK",
      "vis_m": 9999,
      "fzfg": false,
      "metar_trigger": false,
      "taf_trigger": false,
      "metar": "METAR LFSB 101630Z AUTO 21003KT 170V230 9999 FEW019 BKN076 OVC120 16/13 Q1009 TEMPO FEW040CB BKN050",
      "taf": "TAF LFSB 101100Z 1012/1112 28008KT CAVOK"
    },
    {
      "icao": "LGAV",
      "alert": "OK",
      "vis_m": 9999,
      "fzfg": false,
      "metar_trigger": false,
      "taf_trigger": false,
      "metar": "METAR LGAV 101620Z 21006KT 9999 FEW025 22/12 Q1014 NOSIG",
      "taf": "TAF LGAV 101100Z 1012/1112 18010KT 9999 FEW025"
    },
    {
      "icao": "LGTS",
      "alert": "OK",
      "vis_m": 9999,
      "fzfg": false,
      "metar_trigger": false,
      "taf_trigger": false,
      "metar": "METAR LGTS 101620Z 17009KT 9999 FEW025 22/13 Q1013 NOSIG",
      "taf": "TAF LGTS 101100Z 1012/1112 VRB03KT 9999 FEW025"
    },
    {
      "icao": "LHBP",
      "alert": "OK",
      "vis_m": 9999,
      "fzfg": false,
      "metar_trigger": false,
      "taf_trigger": false,
      "metar": "METAR LHBP 101630Z 20004KT 130V260 CAVOK 24/07 Q1011 NOSIG",
      "taf": "TAF LHBP 101115Z 1012/1112 VRB03KT CAVOK"
    },
    {
      "icao": "LHDC",
      "alert": "OK",
      "vis_m": 9999,
      "fzfg": false,
      "metar_trigger": false,
      "taf_trigger": false,
      "metar": "METAR LHDC 101615Z AUTO VRB03KT CAVOK 24/05 Q1012 NOSIG",
      "taf": "TAF LHDC 101415Z 1015/1024 VRB04KT CAVOK"
    },
    {
      "icao": "LIBD",
      "alert": "OK",
      "vis_m": 9999,
      "fzfg": false,
      "metar_trigger": false,
      "taf_trigger": false,
      "metar": "METAR LIBD 101620Z 15009KT CAVOK 23/12 Q1012",
      "taf": "TAF LIBD 101100Z 1012/1112 10010KT CAVOK"
    },
    {
      "icao": "LIBG",
      "alert": "OK",
      "vis_m": 9999,
      "fzfg": false,
      "metar_trigger": false,
      "taf_trigger": false,
      "metar": "METAR LIBG 101550Z 20007KT CAVOK 22/11 Q1013",
      "taf": "TAF LIBG 101400Z 1015/1024 18010KT 9999 SCT030"
    },
    {
      "icao": "LIBP",
      "alert": "OK",
      "vis_m": 9999,
      "fzfg": false,
      "metar_trigger": false,
      "taf_trigger": false,
      "metar": "METAR LIBP 101620Z AUTO 36007KT 320V030 9999 FEW025/// SCT100/// 20/15 Q1011",
      "taf": ""
    },
    {
      "icao": "LIBR",
      "alert": "OK",
      "vis_m": 9999,
      "fzfg": false,
      "metar_trigger": false,
      "taf_trigger": false,
      "metar": "METAR LIBR 101620Z 21013KT CAVOK 22/11 Q1013",
      "taf": "TAF LIBR 101100Z 1012/1112 12010KT 9999 FEW040"
    },
    {
      "icao": "LICA",
      "alert": "OK",
      "vis_m": 9999,
      "fzfg": false,
      "metar_trigger": false,
      "taf_trigger": false,
      "metar": "METAR LICA 101620Z AUTO 22006KT 9999 NCD 20/17 Q1014",
      "taf": "TAF LICA 101100Z 1012/1112 08012KT 9999 FEW050"
    },
    {
      "icao": "LICC",
      "alert": "OK",
      "vis_m": 9999,
      "fzfg": false,
      "metar_trigger": false,
      "taf_trigger": false,
      "metar": "METAR LICC 101620Z 08009KT CAVOK 22/18 Q1013",
      "taf": "TAF LICC 101100Z 1012/1112 08012KT 9999 FEW080"
    },
    {
      "icao": "LICJ",
      "alert": "OK",
      "vis_m": 9999,
      "fzfg": false,
      "metar_trigger": false,
      "taf_trigger": false,
      "metar": "METAR LICJ 101620Z 27018KT CAVOK 19/16 Q1014",
      "taf": "TAF LICJ 101100Z 1012/1112 27013KT 9999 FEW050"
    },
    {
      "icao": "LIMC",
      "alert": "OK",
      "vis_m": 9999,
      "fzfg": false,
      "metar_trigger": false,
      "taf_trigger": false,
      "metar": "METAR LIMC 101620Z VRB02KT 9999 -RA BKN050 15/12 Q1013 NOSIG",
      "taf": "TAF LIMC 101100Z 1012/1118 VRB05KT 4000 RA BKN050"
    },
    {
      "icao": "LIME",
      "alert": "OK",
      "vis_m": 9999,
      "fzfg": false,
      "metar_trigger": false,
      "taf_trigger": false,
      "metar": "METAR LIME 101620Z 06005KT 030V100 9999 -RA SCT030 BKN045 14/14 Q1012 NOSIG",
      "taf": "TAF LIME 101100Z 1012/1112 VRB05KT 4000 RA SCT050"
    },
    {
      "icao": "LIMF",
      "alert": "OK",
      "vis_m": 7000,
      "fzfg": false,
      "metar_trigger": false,
      "taf_trigger": false,
      "metar": "METAR LIMF 101620Z 02004KT 7000 FEW007 BKN020 14/13 Q1012",
      "taf": ""
    },
    {
      "icao": "LIMJ",
      "alert": "OK",
      "vis_m": 5000,
      "fzfg": false,
      "metar_trigger": false,
      "taf_trigger": false,
      "metar": "METAR LIMJ 101620Z 36004KT 340V040 5000 BR SCT012 BKN026 16/16 Q1012",
      "taf": "TAF LIMJ 101100Z 1012/1112 VRB05KT 4000 RA SCT020"
    },
    {
      "icao": "LIPE",
      "alert": "OK",
      "vis_m": 9999,
      "fzfg": false,
      "metar_trigger": false,
      "taf_trigger": false,
      "metar": "METAR LIPE 101620Z 10004KT 9999 SCT035 SCT050 18/16 Q1011",
      "taf": "TAF LIPE 101100Z 1012/1112 11005KT 9999 SCT040 SCT070"
    },
    {
      "icao": "LIPH",
      "alert": "OK",
      "vis_m": 8000,
      "fzfg": false,
      "metar_trigger": false,
      "taf_trigger": false,
      "metar": "METAR LIPH 101620Z 07006KT 8000 -RA BKN040 16/16 Q1012",
      "taf": "TAF LIPH 101100Z 1012/1112 16012KT 9999 BKN070"
    },
    {
      "icao": "LIPQ",
      "alert": "OK",
      "vis_m": 9999,
      "fzfg": false,
      "metar_trigger": false,
      "taf_trigger": false,
      "metar": "METAR LIPQ 101620Z AUTO 24003KT 210V280 9999 BKN059/// BKN100/// 20/12 Q1012",
      "taf": "TAF LIPQ 101100Z 1012/1112 VRB05KT CAVOK"
    },
    {
      "icao": "LIPR",
      "alert": "OK",
      "vis_m": 9999,
      "fzfg": false,
      "metar_trigger": false,
      "taf_trigger": false,
      "metar": "METAR LIPR 101620Z 32003KT 260V010 9999 SCT008 SCT040 19/17 Q1011",
      "taf": "TAF LIPR 101100Z 1012/1112 10010KT 9999 FEW060"
    },
    {
      "icao": "LIPX",
      "alert": "OK",
      "vis_m": 9999,
      "fzfg": false,
      "metar_trigger": false,
      "taf_trigger": false,
      "metar": "METAR LIPX 101620Z COR 09004KT 050V130 9999 -RA BKN040 18/10 Q1012",
      "taf": "TAF LIPX 101100Z 1012/1112 VRB05KT 4000 RA"
    },
    {
      "icao": "LIPY",
      "alert": "OK",
      "vis_m": 9000,
      "fzfg": false,
      "metar_trigger": false,
      "taf_trigger": false,
      "metar": "METAR LIPY 101620Z AUTO 12002KT 9000 -RA FEW004/// BKN071/// 18/17 Q1012",
      "taf": "TAF LIPY 101100Z 1012/1112 15010KT 9999 FEW060"
    },
    {
      "icao": "LIPZ",
      "alert": "OK",
      "vis_m": 9999,
      "fzfg": false,
      "metar_trigger": false,
      "taf_trigger": false,
      "metar": "METAR LIPZ 101620Z 09003KT 9999 -RA FEW040 BKN055 16/14 Q1012 TEMPO RA",
      "taf": "TAF LIPZ 101100Z 1012/1118 11010KT 9999 SCT070"
    },
    {
      "icao": "LIRF",
      "alert": "OK",
      "vis_m": 9999,
      "fzfg": false,
      "metar_trigger": false,
      "taf_trigger": false,
      "metar": "METAR LIRF 101620Z 19005KT 140V220 9999 SCT012 20/18 Q1010 NOSIG",
      "taf": "TAF LIRF 101100Z 1012/1118 17013KT 9999 SCT040"
    },
    {
      "icao": "LIRN",
      "alert": "OK",
      "vis_m": 8000,
      "fzfg": false,
      "metar_trigger": false,
      "taf_trigger": false,
      "metar": "METAR LIRN 101620Z 21013KT 8000 SCT010 BKN030 19/16 Q1013 NOSIG",
      "taf": "TAF LIRN 101100Z 1012/1112 19012KT 9999 FEW050"
    },
    {
      "icao": "LIRP",
      "alert": "OK",
      "vis_m": 9999,
      "fzfg": false,
      "metar_trigger": false,
      "taf_trigger": false,
      "metar": "METAR LIRP 101615Z 15003KT 9999 FEW025 20/14 Q1011 NOSIG",
      "taf": "TAF LIRP 101100Z 1012/1112 10007KT 9999 SCT030 BKN060"
    },
    {
      "icao": "LIRZ",
      "alert": "OK",
      "vis_m": 9999,
      "fzfg": false,
      "metar_trigger": false,
      "taf_trigger": false,
      "metar": "METAR LIRZ 101620Z AUTO 01007KT 9999 SCT074/// BKN100/// 17/15 Q1012",
      "taf": "TAF LIRZ 101100Z 1012/1112 VRB05KT 9999 BKN030"
    },
    {
      "icao": "LJLJ",
      "alert": "OK",
      "vis_m": 9999,
      "fzfg": false,
      "metar_trigger": false,
      "taf_trigger": false,
      "metar": "METAR LJLJ 101630Z 23007KT 9999 FEW055 BKN090 19/07 Q1012 NOSIG",
      "taf": "TAF LJLJ 101100Z 1012/1112 12005KT 9999 FEW050"
    },
    {
      "icao": "LKMT",
      "alert": "OK",
      "vis_m": 9999,
      "fzfg": false,
      "metar_trigger": false,
      "taf_trigger": false,
      "metar": "METAR LKMT 101630Z VRB02KT CAVOK 21/08 Q1010 NOSIG",
      "taf": "TAF LKMT 101100Z 1012/1112 VRB02KT CAVOK"
    },
    {
      "icao": "LKPR",
      "alert": "OK",
      "vis_m": 9999,
      "fzfg": false,
      "metar_trigger": false,
      "taf_trigger": false,
      "metar": "METAR LKPR 101630Z 04006KT 330V080 CAVOK 18/05 Q1009 NOSIG",
      "taf": "TAF LKPR 101400Z 1015/1121 09005KT CAVOK"
    },
    {
      "icao": "LLBG",
      "alert": "OK",
      "vis_m": 9999,
      "fzfg": false,
      "metar_trigger": false,
      "taf_trigger": false,
      "metar": "METAR LLBG 101620Z 33007KT CAVOK 23/13 Q1014 NOSIG",
      "taf": "TAF LLBG 101104Z 1012/1112 33010KT CAVOK TX27/1012Z TN15/1103Z"
    },
    {
      "icao": "LMML",
      "alert": "OK",
      "vis_m": 9999,
      "fzfg": false,
      "metar_trigger": false,
      "taf_trigger": false,
      "metar": "METAR LMML 101615Z 02011KT 9999 FEW014 20/16 Q1013 NOSIG",
      "taf": "TAF LMML 101100Z 1012/1112 08015KT 9999 FEW015"
    },
    {
      "icao": "LOWW",
      "alert": "OK",
      "vis_m": 9999,
      "fzfg": false,
      "metar_trigger": false,
      "taf_trigger": false,
      "metar": "METAR LOWW 101620Z 16010KT 9999 FEW045 21/11 Q1009 NOSIG",
      "taf": "TAF LOWW 101415Z 1015/1121 16014KT 9999 FEW050 TX22/1015Z TN14/1121Z"
    },
    {
      "icao": "LPFR",
      "alert": "OK",
      "vis_m": 9999,
      "fzfg": false,
      "metar_trigger": false,
      "taf_trigger": false,
      "metar": "METAR LPFR 101630Z 23012KT 9999 FEW020 19/12 Q1014",
      "taf": "TAF LPFR 101100Z 1012/1112 23013KT 9999 SCT020"
    },
    {
      "icao": "LPMA",
      "alert": "OK",
      "vis_m": 9999,
      "fzfg": false,
      "metar_trigger": false,
      "taf_trigger": false,
      "metar": "METAR LPMA 101630Z 03010KT 360V070 9999 SCT016 19/10 Q1015",
      "taf": ""
    },
    {
      "icao": "LPPR",
      "alert": "OK",
      "vis_m": 9999,
      "fzfg": false,
      "metar_trigger": false,
      "taf_trigger": false,
      "metar": "METAR LPPR 101630Z 18015KT 9999 FEW020 FEW025CB SCT040 17/12 Q1008",
      "taf": "TAF LPPR 101100Z 1012/1112 18018KT 9999 SCT020"
    },
    {
      "icao": "LPPS",
      "alert": "OK",
      "vis_m": 9999,
      "fzfg": false,
      "metar_trigger": false,
      "taf_trigger": false,
      "metar": "METAR LPPS 101630Z 27013KT 9999 FEW015 19/09 Q1016",
      "taf": "TAF LPPS 101100Z 1012/1118 27013KT 9999 SCT015"
    },
    {
      "icao": "LPPT",
      "alert": "OK",
      "vis_m": 9999,
      "fzfg": false,
      "metar_trigger": false,
      "taf_trigger": false,
      "metar": "METAR LPPT 101630Z 21021KT 9999 FEW015 BKN020 FEW025CB 17/13 Q1010",
      "taf": "TAF LPPT 101100Z 1012/1118 21018KT 9999 SCT020"
    },
    {
      "icao": "LQBK",
      "alert": "OK",
      "vis_m": 9999,
      "fzfg": false,
      "metar_trigger": false,
      "taf_trigger": false,
      "metar": "METAR LQBK 101630Z 15013KT 9999 -SHRA FEW035TCU BKN043 20/10 Q1011 NOSIG",
      "taf": "TAF LQBK 101100Z 1012/1112 02004KT CAVOK TX25/1013Z TN12/1104Z"
    },
    {
      "icao": "LQSA",
      "alert": "OK",
      "vis_m": 9999,
      "fzfg": false,
      "metar_trigger": false,
      "taf_trigger": false,
      "metar": "METAR LQSA 101630Z 32005KT CAVOK 21/10 Q1012 NOSIG",
      "taf": "TAF LQSA 101100Z 1012/1112 VRB02KT 9999 SCT050 TX24/1112Z TN08/1104Z"
    },
    {
      "icao": "LQTZ",
      "alert": "OK",
      "vis_m": 9999,
      "fzfg": false,
      "metar_trigger": false,
      "taf_trigger": false,
      "metar": "METAR LQTZ 101630Z 13004KT 9999 SCT050 22/10 Q1011",
      "taf": "TAF LQTZ 101100Z 1012/1112 10005KT CAVOK TX25/1013Z TN10/1104Z"
    },
    {
      "icao": "LRBC",
      "alert": "OK",
      "vis_m": 9999,
      "fzfg": false,
      "metar_trigger": false,
      "taf_trigger": false,
      "metar": "METAR LRBC 101630Z 36004KT 9999 FEW040 17/11 Q1014",
      "taf": "TAF LRBC 101400Z 1015/1024 34006KT 9999 BKN040"
    },
    {
      "icao": "LRBS",
      "alert": "OK",
      "vis_m": 9999,
      "fzfg": false,
      "metar_trigger": false,
      "taf_trigger": false,
      "metar": "METAR LRBS 101630Z 18005KT 150V210 9999 FEW040 FEW050CB 20/13 Q1013 TEMPO VRB25KT 3000 TSRA",
      "taf": "TAF LRBS 101100Z 1012/1112 VRB04KT 9999 SCT035"
    },
    {
      "icao": "LRBV",
      "alert": "OK",
      "vis_m": 9999,
      "fzfg": false,
      "metar_trigger": false,
      "taf_trigger": false,
      "metar": "METAR LRBV 101630Z 29009KT 260V320 CAVOK 17/10 Q1014",
      "taf": "TAF LRBV 101400Z 1015/1024 VRB04KT 9999 SCT045"
    },
    {
      "icao": "LRCL",
      "alert": "OK",
      "vis_m": 9999,
      "fzfg": false,
      "metar_trigger": false,
      "taf_trigger": false,
      "metar": "METAR LRCL 101630Z 15006KT 120V180 9999 FEW064 20/11 Q1012",
      "taf": "TAF LRCL 101400Z 1015/1024 VRB04KT 9999 SCT045"
    },
    {
      "icao": "LRCV",
      "alert": "OK",
      "vis_m": 9999,
      "fzfg": false,
      "metar_trigger": false,
      "taf_trigger": false,
      "metar": "METAR LRCV 101630Z 18004KT CAVOK 22/14 Q1013",
      "taf": "TAF LRCV 101400Z 1015/1024 VRB04KT CAVOK"
    },
    {
      "icao": "LRIA",
      "alert": "OK",
      "vis_m": 9999,
      "fzfg": false,
      "metar_trigger": false,
      "taf_trigger": false,
      "metar": "METAR LRIA 101630Z 36007KT 9999 FEW027 17/11 Q1014",
      "taf": "TAF LRIA 101400Z 1015/1024 33010KT 9999 BKN025"
    },
    {
      "icao": "LROP",
      "alert": "OK",
      "vis_m": 9999,
      "fzfg": false,
      "metar_trigger": false,
      "taf_trigger": false,
      "metar": "METAR LROP 101630Z 20006KT 9999 SCT040CB 20/14 Q1013 TEMPO VRB25KT 3000 TSRA",
      "taf": "TAF LROP 101100Z 1012/1112 VRB04KT 9999 SCT035"
    },
    {
      "icao": "LRSB",
      "alert": "OK",
      "vis_m": 9999,
      "fzfg": false,
      "metar_trigger": false,
      "taf_trigger": false,
      "metar": "METAR LRSB 101630Z 14004KT CAVOK 18/10 Q1013",
      "taf": ""
    },
    {
      "icao": "LRSM",
      "alert": "OK",
      "vis_m": 9999,
      "fzfg": false,
      "metar_trigger": false,
      "taf_trigger": false,
      "metar": "METAR LRSM 101630Z AUTO 00000KT 9999 FEW070/// 22/08 Q1012",
      "taf": ""
    },
    {
      "icao": "LRSV",
      "alert": "OK",
      "vis_m": 9999,
      "fzfg": false,
      "metar_trigger": false,
      "taf_trigger": false,
      "metar": "METAR LRSV 101630Z 36003KT 9999 BKN041 14/09 Q1014",
      "taf": "TAF LRSV 101400Z 1015/1024 02006KT 9999 SCT025 BKN045"
    },
    {
      "icao": "LRTM",
      "alert": "OK",
      "vis_m": 9999,
      "fzfg": false,
      "metar_trigger": false,
      "taf_trigger": false,
      "metar": "METAR LRTM 101630Z 24006KT CAVOK 19/11 Q1013",
      "taf": "TAF LRTM 101400Z 1015/1024 VRB04KT CAVOK"
    },
    {
      "icao": "LRTR",
      "alert": "OK",
      "vis_m": 9999,
      "fzfg": false,
      "metar_trigger": false,
      "taf_trigger": false,
      "metar": "METAR LRTR 101630Z 03003KT 340V060 CAVOK 24/13 Q1011",
      "taf": "TAF LRTR 101100Z 1012/1112 VRB04KT CAVOK"
    },
    {
      "icao": "LTAC",
      "alert": "OK",
      "vis_m": 9999,
      "fzfg": false,
      "metar_trigger": false,
      "taf_trigger": false,
      "metar": "METAR LTAC 101620Z 28006KT 9999 FEW040 SCT100 20/08 Q1015 NOSIG RMK RWY21C 26005KT RWY03L 26005KT RWY21R 26006KT RWY03R 26005KT RWY21L 26007KT",
      "taf": "TAF LTAC 101040Z 1012/1112 VRB02KT 9999 SCT040 SCT100"
    },
    {
      "icao": "LTFM",
      "alert": "OK",
      "vis_m": 9999,
      "fzfg": false,
      "metar_trigger": false,
      "taf_trigger": false,
      "metar": "METAR LTFM 101620Z 07008KT 9999 FEW030 SCT080 19/12 Q1014 NOSIG RMK RWY17L 09007KT RWY34L 06007KT RWY16R 08008KT RWY36 06008KT 020V090 RWY18 09008KT",
      "taf": "TAF LTFM 101040Z 1012/1118 06010KT 9999 SCT030"
    },
    {
      "icao": "LUKK",
      "alert": "OK",
      "vis_m": 9999,
      "fzfg": false,
      "metar_trigger": false,
      "taf_trigger": false,
      "metar": "METAR LUKK 101630Z 35010KT CAVOK 15/13 Q1013 NOSIG",
      "taf": "TAF LUKK 101102Z 1012/1112 31010KT 9999 BKN020"
    },
    {
      "icao": "LWOH",
      "alert": "OK",
      "vis_m": 9999,
      "fzfg": false,
      "metar_trigger": false,
      "taf_trigger": false,
      "metar": "METAR LWOH 101620Z VRB02KT 9999 FEW035 20/12 Q1015",
      "taf": "TAF LWOH 101415Z 1015/1115 16006KT 9999 SCT040 BKN090"
    },
    {
      "icao": "LWSK",
      "alert": "OK",
      "vis_m": 9999,
      "fzfg": false,
      "metar_trigger": false,
      "taf_trigger": false,
      "metar": "METAR LWSK 101620Z 15005KT 120V180 9999 FEW050 BKN090 22/13 Q1012 NOSIG",
      "taf": "TAF LWSK 101415Z 1015/1115 VRB02KT 9999 FEW050 SCT100"
    },
    {
      "icao": "LYBE",
      "alert": "OK",
      "vis_m": 9999,
      "fzfg": false,
      "metar_trigger": false,
      "taf_trigger": false,
      "metar": "METAR LYBE 101630Z 17005KT 140V200 CAVOK 24/11 Q1011 NOSIG",
      "taf": "TAF LYBE 101100Z 1012/1112 16006KT 9999 SCT045 TX27/1014Z TN15/1103Z"
    },
    {
      "icao": "LYNI",
      "alert": "OK",
      "vis_m": 9999,
      "fzfg": false,
      "metar_trigger": false,
      "taf_trigger": false,
      "metar": "METAR LYNI 101630Z 00000KT CAVOK 25/06 Q1012 NOSIG",
      "taf": "TAF LYNI 101100Z 1012/1112 17004KT 9999 SCT045 TX25/1013Z TN11/1103Z"
    },
    {
      "icao": "LYPG",
      "alert": "OK",
      "vis_m": 9999,
      "fzfg": false,
      "metar_trigger": false,
      "taf_trigger": false,
      "metar": "METAR LYPG 101630Z 17005KT 140V210 9999 FEW034 23/12 Q1013 NOSIG",
      "taf": "TAF LYPG 101100Z 1012/1112 18008KT 9999 SCT040 BKN090 TX23/1014Z TN15/1104Z"
    },
    {
      "icao": "LZIB",
      "alert": "OK",
      "vis_m": 9999,
      "fzfg": false,
      "metar_trigger": false,
      "taf_trigger": false,
      "metar": "METAR LZIB 101630Z 15008KT CAVOK 23/11 Q1009 NOSIG",
      "taf": "TAF LZIB 101115Z 1012/1112 14008KT CAVOK"
    },
    {
      "icao": "LZKZ",
      "alert": "OK",
      "vis_m": 9999,
      "fzfg": false,
      "metar_trigger": false,
      "taf_trigger": false,
      "metar": "METAR LZKZ 101630Z 13004KT CAVOK 20/05 Q1012 NOSIG",
      "taf": "TAF LZKZ 101115Z 1012/1112 02006KT CAVOK"
    },
    {
      "icao": "LZTT",
      "alert": "OK",
      "vis_m": 9999,
      "fzfg": false,
      "metar_trigger": false,
      "taf_trigger": false,
      "metar": "METAR LZTT 101630Z 16005KT 130V200 9999 FEW053 SCT060 17/07 Q1012 NOSIG",
      "taf": "TAF LZTT 101115Z 1012/1112 08004KT 9999 FEW045"
    },
    {
      "icao": "OEJN",
      "alert": "OK",
      "vis_m": 9999,
      "fzfg": false,
      "metar_trigger": false,
      "taf_trigger": false,
      "metar": "METAR OEJN 101600Z 31006KT 9999 FEW040 31/19 Q1008 NOSIG",
      "taf": "TAF OEJN 101100Z 1012/1118 28012KT 9999 FEW040"
    },
    {
      "icao": "OEMA",
      "alert": "OK",
      "vis_m": 9999,
      "fzfg": false,
      "metar_trigger": false,
      "taf_trigger": false,
      "metar": "METAR OEMA 101600Z 28013KT CAVOK 38/M04 Q1012 NOSIG",
      "taf": "TAF OEMA 101100Z 1012/1118 24013KT 7000 FEW040"
    },
    {
      "icao": "OJAI",
      "alert": "OK",
      "vis_m": 4000,
      "fzfg": false,
      "metar_trigger": false,
      "taf_trigger": false,
      "metar": "METAR OJAI 101600Z 28016KT 4000 BLDU NSC 26/08 Q1016 NOSIG",
      "taf": "TAF OJAI 101100Z 1012/1118 31008KT 5000 HZ NSC"
    },
    {
      "icao": "OMAA",
      "alert": "OK",
      "vis_m": 9999,
      "fzfg": false,
      "metar_trigger": false,
      "taf_trigger": false,
      "metar": "METAR OMAA 101630Z 28010KT CAVOK 30/15 Q1008 NOSIG",
      "taf": "TAF OMAA 101100Z 1012/1118 30014KT 8000 NSC"
    },
    {
      "icao": "OMDB",
      "alert": "OK",
      "vis_m": 9999,
      "fzfg": false,
      "metar_trigger": false,
      "taf_trigger": false,
      "metar": "METAR OMDB 101630Z 26006KT 220V280 CAVOK 31/19 Q1007 NOSIG",
      "taf": "TAF OMDB 101100Z 1012/1118 27013KT CAVOK"
    },
    {
      "icao": "UAAA",
      "alert": "OK",
      "vis_m": 9999,
      "fzfg": false,
      "metar_trigger": false,
      "taf_trigger": false,
      "metar": "METAR UAAA 101600Z 19003MPS 150V230 9999 -SHRA BKN033CB OVC100 14/13 Q1017 NOSIG",
      "taf": "TAF UAAA 101110Z 1012/1112 23003G08MPS 2500 SHRA BR SCT011 BKN020CB OVC100 TX18/1106Z TN11/1100Z"
    },
    {
      "icao": "UBBB",
      "alert": "OK",
      "vis_m": 9999,
      "fzfg": false,
      "metar_trigger": false,
      "taf_trigger": false,
      "metar": "METAR UBBB 101630Z 16008KT CAVOK 18/16 Q1017 NOSIG",
      "taf": "TAF UBBB 101054Z 1012/1112 15006KT CAVOK TX26/1012Z TN14/1101Z"
    },
    {
      "icao": "UDSG",
      "alert": "OK",
      "vis_m": 9999,
      "fzfg": false,
      "metar_trigger": false,
      "taf_trigger": false,
      "metar": "METAR UDSG 101600Z 24009KT 9999 -SHRA BKN043CB 13/06 Q1022 NOSIG",
      "taf": "TAF UDSG 101058Z 1012/1112 06006KT 9999 SCT050"
    },
    {
      "icao": "UDYZ",
      "alert": "OK",
      "vis_m": 9999,
      "fzfg": false,
      "metar_trigger": false,
      "taf_trigger": false,
      "metar": "METAR UDYZ 101600Z 14003KT 030V160 9999 SCT043CB 22/06 Q1016 NOSIG",
      "taf": "TAF UDYZ 101100Z 1012/1112 22006KT 9999 FEW040"
    },
    {
      "icao": "UGKO",
      "alert": "OK",
      "vis_m": 9999,
      "fzfg": false,
      "metar_trigger": false,
      "taf_trigger": false,
      "metar": "METAR UGKO 101630Z VRB02KT 9999 BKN047CB 18/11 Q1014 NOSIG",
      "taf": "TAF UGKO 101100Z 1012/1112 08007KT CAVOK TX29/1012Z TN12/1102Z"
    }
  ]
}