{
  "ts_utc": "2026-05-03T09:45:50Z",
  "threshold_m": 150,
  "source": "stations_override.txt (ICAO list) + aviationweather.gov (METAR/TAF raw)",
  "station_count": 159,
  "stations": [
    {
      "icao": "BIKF",
      "alert": "OK",
      "vis_m": 9999,
      "fzfg": false,
      "metar_trigger": false,
      "taf_trigger": false,
      "metar": "METAR BIKF 030930Z 35006KT 320V030 9999 SCT032 BKN240 06/M01 Q1011",
      "taf": "TAF BIKF 030759Z 0309/0409 32010KT 9999 FEW020 SCT040 TX08/0312Z TNM01/0406Z"
    },
    {
      "icao": "BKPR",
      "alert": "OK",
      "vis_m": 9999,
      "fzfg": false,
      "metar_trigger": false,
      "taf_trigger": false,
      "metar": "METAR BKPR 030930Z 03007KT 360V060 9999 FEW050 12/M02 Q1021 NOSIG",
      "taf": "TAF BKPR 030530Z 0306/0406 01010KT 9999 FEW050"
    },
    {
      "icao": "EBCI",
      "alert": "OK",
      "vis_m": 6000,
      "fzfg": false,
      "metar_trigger": false,
      "taf_trigger": false,
      "metar": "METAR EBCI 030920Z 22007KT 6000 -RA BKN010 BKN035 14/13 Q1012 TEMPO 4000 RA SHRA BKN008",
      "taf": "TAF EBCI 030511Z 0306/0412 20006KT 9999 SCT030"
    },
    {
      "icao": "EDDB",
      "alert": "OK",
      "vis_m": 9999,
      "fzfg": false,
      "metar_trigger": false,
      "taf_trigger": false,
      "metar": "METAR EDDB 030920Z AUTO 20007KT 160V230 CAVOK 25/08 Q1013 NOSIG",
      "taf": "TAF EDDB 030500Z 0306/0406 18004KT CAVOK"
    },
    {
      "icao": "EDDH",
      "alert": "OK",
      "vis_m": 9999,
      "fzfg": false,
      "metar_trigger": false,
      "taf_trigger": false,
      "metar": "METAR EDDH 030920Z AUTO 17004KT 140V210 CAVOK 21/14 Q1011 NOSIG",
      "taf": "TAF EDDH 030500Z 0306/0412 VRB03KT 9999 FEW035"
    },
    {
      "icao": "EDDK",
      "alert": "OK",
      "vis_m": 9999,
      "fzfg": false,
      "metar_trigger": false,
      "taf_trigger": false,
      "metar": "METAR EDDK 030920Z AUTO 16011KT CAVOK 20/07 Q1012 NOSIG",
      "taf": ""
    },
    {
      "icao": "EDDN",
      "alert": "OK",
      "vis_m": 9999,
      "fzfg": false,
      "metar_trigger": false,
      "taf_trigger": false,
      "metar": "METAR EDDN 030920Z AUTO VRB03KT CAVOK 22/05 Q1015 NOSIG",
      "taf": "TAF EDDN 030500Z 0306/0406 10004KT CAVOK"
    },
    {
      "icao": "EDDS",
      "alert": "OK",
      "vis_m": 9999,
      "fzfg": false,
      "metar_trigger": false,
      "taf_trigger": false,
      "metar": "METAR EDDS 030920Z AUTO 04004KT 320V100 CAVOK 20/06 Q1015 NOSIG",
      "taf": "TAF EDDS 030500Z 0306/0406 VRB03KT CAVOK"
    },
    {
      "icao": "EDFH",
      "alert": "OK",
      "vis_m": 9999,
      "fzfg": false,
      "metar_trigger": false,
      "taf_trigger": false,
      "metar": "METAR EDFH 030920Z 19013KT 160V220 CAVOK 18/04 Q1014",
      "taf": "TAF EDFH 030500Z 0306/0406 20007KT CAVOK"
    },
    {
      "icao": "EDJA",
      "alert": "OK",
      "vis_m": 9999,
      "fzfg": false,
      "metar_trigger": false,
      "taf_trigger": false,
      "metar": "METAR EDJA 030920Z 29006KT 260V320 CAVOK 19/08 Q1016",
      "taf": "TAF EDJA 030800Z 0309/0318 27005KT CAVOK"
    },
    {
      "icao": "EDLW",
      "alert": "OK",
      "vis_m": 9999,
      "fzfg": false,
      "metar_trigger": false,
      "taf_trigger": false,
      "metar": "METAR EDLW 030920Z 18012KT CAVOK 20/08 Q1012",
      "taf": "TAF EDLW 030500Z 0306/0406 VRB03KT CAVOK"
    },
    {
      "icao": "EDNY",
      "alert": "OK",
      "vis_m": 9999,
      "fzfg": false,
      "metar_trigger": false,
      "taf_trigger": false,
      "metar": "METAR EDNY 030920Z 24006KT CAVOK 20/07 Q1016",
      "taf": "TAF EDNY 030800Z 0309/0318 25005KT CAVOK"
    },
    {
      "icao": "EDSB",
      "alert": "OK",
      "vis_m": 9999,
      "fzfg": false,
      "metar_trigger": false,
      "taf_trigger": false,
      "metar": "METAR EDSB 030920Z COR 15005KT 110V200 CAVOK 20/12 Q1015",
      "taf": "TAF EDSB 030500Z 0306/0406 VRB03KT CAVOK"
    },
    {
      "icao": "EETN",
      "alert": "OK",
      "vis_m": 9999,
      "fzfg": false,
      "metar_trigger": false,
      "taf_trigger": false,
      "metar": "METAR EETN 030920Z 32006KT CAVOK 10/07 Q1009 TEMPO FEW030CB",
      "taf": "TAF EETN 030530Z 0306/0406 24010KT CAVOK"
    },
    {
      "icao": "EFTU",
      "alert": "OK",
      "vis_m": 9999,
      "fzfg": false,
      "metar_trigger": false,
      "taf_trigger": false,
      "metar": "METAR EFTU 030920Z AUTO 33006KT 290V030 9999 SCT022 11/05 Q1009",
      "taf": "TAF EFTU 030824Z 0309/0409 33008KT CAVOK"
    },
    {
      "icao": "EGBB",
      "alert": "OK",
      "vis_m": 9999,
      "fzfg": false,
      "metar_trigger": false,
      "taf_trigger": false,
      "metar": "METAR EGBB 030920Z 28006KT 240V320 9999 BKN016 12/09 Q1009",
      "taf": ""
    },
    {
      "icao": "EGGP",
      "alert": "OK",
      "vis_m": 9999,
      "fzfg": false,
      "metar_trigger": false,
      "taf_trigger": false,
      "metar": "METAR EGGP 030920Z 34008KT 9999 FEW009 BKN018 OVC028 11/10 Q1009",
      "taf": ""
    },
    {
      "icao": "EGGW",
      "alert": "OK",
      "vis_m": 9999,
      "fzfg": false,
      "metar_trigger": false,
      "taf_trigger": false,
      "metar": "METAR EGGW 030920Z AUTO 22009KT 190V250 9999 BKN016 13/10 Q1009",
      "taf": "TAF EGGW 030501Z 0306/0406 24007KT 9999 BKN020"
    },
    {
      "icao": "EGKK",
      "alert": "OK",
      "vis_m": 9999,
      "fzfg": false,
      "metar_trigger": false,
      "taf_trigger": false,
      "metar": "METAR EGKK 030920Z 24005KT 180V290 9999 BKN013 15/12 Q1010",
      "taf": ""
    },
    {
      "icao": "EGNM",
      "alert": "OK",
      "vis_m": 3000,
      "fzfg": false,
      "metar_trigger": false,
      "taf_trigger": false,
      "metar": "METAR EGNM 030920Z 03011KT 3000 -RA BR BKN004 09/09 Q1009",
      "taf": "TAF EGNM 030500Z 0306/0406 03009KT 9999 SCT015"
    },
    {
      "icao": "EGPD",
      "alert": "OK",
      "vis_m": 9999,
      "fzfg": false,
      "metar_trigger": false,
      "taf_trigger": false,
      "metar": "METAR EGPD 030920Z COR AUTO 08006KT 040V120 9999 OVC020 08/04 Q1015 NOSIG",
      "taf": ""
    },
    {
      "icao": "EGPF",
      "alert": "OK",
      "vis_m": 9999,
      "fzfg": false,
      "metar_trigger": false,
      "taf_trigger": false,
      "metar": "METAR EGPF 030920Z AUTO 06016KT 9999 OVC011 09/07 Q1014",
      "taf": "TAF EGPF 030500Z 0306/0406 07009KT 9999 BKN012"
    },
    {
      "icao": "EHBK",
      "alert": "OK",
      "vis_m": 9999,
      "fzfg": false,
      "metar_trigger": false,
      "taf_trigger": false,
      "metar": "METAR EHBK 030925Z AUTO 21009KT 180V240 9999 NSC 18/10 Q1011 NOSIG",
      "taf": "TAF EHBK 030521Z 0306/0412 18007KT CAVOK"
    },
    {
      "icao": "EHEH",
      "alert": "OK",
      "vis_m": 9999,
      "fzfg": false,
      "metar_trigger": false,
      "taf_trigger": false,
      "metar": "METAR EHEH 030925Z AUTO 22009KT 9999 FEW083 SCT089 OVC097 18/14 Q1011 BLU NOSIG RMK TREND REMOTE BY EHWX",
      "taf": "TAF EHEH 030509Z 0306/0412 19005KT CAVOK"
    },
    {
      "icao": "EKBI",
      "alert": "OK",
      "vis_m": 9999,
      "fzfg": false,
      "metar_trigger": false,
      "taf_trigger": false,
      "metar": "METAR EKBI 030920Z AUTO 24004KT 210V290 9999 BKN011/// BKN087/// 12/10 Q1012",
      "taf": ""
    },
    {
      "icao": "EKCH",
      "alert": "OK",
      "vis_m": 9999,
      "fzfg": false,
      "metar_trigger": false,
      "taf_trigger": false,
      "metar": "METAR EKCH 030920Z AUTO VRB03KT 9999 FEW015/// 15/10 Q1012 NOSIG",
      "taf": "TAF EKCH 030827Z 0309/0409 VRB04KT 9999 FEW012"
    },
    {
      "icao": "ENAL",
      "alert": "OK",
      "vis_m": 9999,
      "fzfg": false,
      "metar_trigger": false,
      "taf_trigger": false,
      "metar": "METAR ENAL 030920Z 25006KT 210V280 9999 BKN041 06/M03 Q1012",
      "taf": "TAF ENAL 030800Z 0309/0318 32005KT 9999 SCT040"
    },
    {
      "icao": "ENBR",
      "alert": "OK",
      "vis_m": 9999,
      "fzfg": false,
      "metar_trigger": false,
      "taf_trigger": false,
      "metar": "METAR ENBR 030920Z 32007KT 9999 FEW030 08/02 Q1012 NOSIG RMK WIND 1200FT 33009KT",
      "taf": "TAF ENBR 030500Z 0306/0406 34010KT 9999 SCT025"
    },
    {
      "icao": "ENGM",
      "alert": "OK",
      "vis_m": 9999,
      "fzfg": false,
      "metar_trigger": false,
      "taf_trigger": false,
      "metar": "METAR ENGM 030920Z 04007KT 020V090 9999 FEW025 BKN030 06/M01 Q1011 NOSIG",
      "taf": "TAF ENGM 030500Z 0306/0406 01008KT 9999 SCT020 BKN030"
    },
    {
      "icao": "ENHD",
      "alert": "OK",
      "vis_m": 9999,
      "fzfg": false,
      "metar_trigger": false,
      "taf_trigger": false,
      "metar": "METAR ENHD 030920Z 34014KT 9999 FEW023 08/02 Q1012",
      "taf": "TAF ENHD 030800Z 0309/0318 34018KT 9999 FEW022"
    },
    {
      "icao": "ENTC",
      "alert": "OK",
      "vis_m": 9999,
      "fzfg": false,
      "metar_trigger": false,
      "taf_trigger": false,
      "metar": "METAR ENTC 030920Z 22018KT 9999 -SHSNRA FEW017CB SCT023 BKN043 01/M02 Q1001 TEMPO 0800 SHSNRA VV006 RMK WIND 2600FT 22020KT",
      "taf": "TAF ENTC 030500Z 0306/0406 20015KT 9999 -SHSN SCT020 BKN030"
    },
    {
      "icao": "ENTO",
      "alert": "OK",
      "vis_m": 9999,
      "fzfg": false,
      "metar_trigger": false,
      "taf_trigger": false,
      "metar": "METAR ENTO 030920Z 04009KT 010V070 9999 OVC018 10/04 Q1010 NOSIG",
      "taf": "TAF ENTO 030500Z 0306/0406 03010KT 9999 BKN012"
    },
    {
      "icao": "ENVA",
      "alert": "OK",
      "vis_m": 9999,
      "fzfg": false,
      "metar_trigger": false,
      "taf_trigger": false,
      "metar": "METAR ENVA 030920Z 21003KT 170V290 9999 FEW020 SCT040 05/M01 Q1011 NOSIG RMK WIND 670FT VRB04KT",
      "taf": "TAF ENVA 030500Z 0306/0406 27005KT 9999 FEW020 BKN030"
    },
    {
      "icao": "ENZV",
      "alert": "OK",
      "vis_m": 9999,
      "fzfg": false,
      "metar_trigger": false,
      "taf_trigger": false,
      "metar": "METAR ENZV 030920Z 35007KT 9999 SCT020 09/04 Q1011 NOSIG",
      "taf": "TAF ENZV 030500Z 0306/0406 33008KT 9999 SCT018"
    },
    {
      "icao": "EPGD",
      "alert": "OK",
      "vis_m": 9999,
      "fzfg": false,
      "metar_trigger": false,
      "taf_trigger": false,
      "metar": "METAR EPGD 030930Z 23014G24KT CAVOK 25/01 Q1013",
      "taf": "TAF EPGD 030530Z 0306/0406 23008KT CAVOK"
    },
    {
      "icao": "EPKK",
      "alert": "OK",
      "vis_m": 9999,
      "fzfg": false,
      "metar_trigger": false,
      "taf_trigger": false,
      "metar": "METAR EPKK 030930Z 25005KT 220V310 CAVOK 21/06 Q1019",
      "taf": "TAF EPKK 030830Z 0309/0409 VRB04KT CAVOK"
    },
    {
      "icao": "EPKT",
      "alert": "OK",
      "vis_m": 9999,
      "fzfg": false,
      "metar_trigger": false,
      "taf_trigger": false,
      "metar": "METAR EPKT 030930Z 19009KT 140V220 CAVOK 21/04 Q1019",
      "taf": "TAF EPKT 030530Z 0306/0406 16004KT CAVOK"
    },
    {
      "icao": "EPLB",
      "alert": "OK",
      "vis_m": 9999,
      "fzfg": false,
      "metar_trigger": false,
      "taf_trigger": false,
      "metar": "METAR EPLB 030930Z 22011KT CAVOK 22/05 Q1019",
      "taf": "TAF EPLB 030530Z 0306/0406 24010KT CAVOK"
    },
    {
      "icao": "EPMO",
      "alert": "OK",
      "vis_m": 9999,
      "fzfg": false,
      "metar_trigger": false,
      "taf_trigger": false,
      "metar": "METAR EPMO 030930Z 20013KT 150V240 CAVOK 25/02 Q1017",
      "taf": "TAF EPMO 030530Z 0306/0406 21012KT CAVOK"
    },
    {
      "icao": "EPPO",
      "alert": "OK",
      "vis_m": 9999,
      "fzfg": false,
      "metar_trigger": false,
      "taf_trigger": false,
      "metar": "METAR EPPO 030930Z 20011KT CAVOK 24/05 Q1015",
      "taf": "TAF EPPO 030530Z 0306/0406 14004KT CAVOK"
    },
    {
      "icao": "EPRA",
      "alert": "OK",
      "vis_m": 9999,
      "fzfg": false,
      "metar_trigger": false,
      "taf_trigger": false,
      "metar": "METAR EPRA 030930Z 20012KT 170V240 CAVOK 23/01 Q1018",
      "taf": "TAF EPRA 030830Z 0309/0318 20012KT CAVOK"
    },
    {
      "icao": "EPRZ",
      "alert": "OK",
      "vis_m": 9999,
      "fzfg": false,
      "metar_trigger": false,
      "taf_trigger": false,
      "metar": "METAR EPRZ 030930Z 18012KT CAVOK 20/02 Q1020",
      "taf": "TAF EPRZ 030530Z 0306/0406 20006KT CAVOK"
    },
    {
      "icao": "EPSC",
      "alert": "OK",
      "vis_m": 9999,
      "fzfg": false,
      "metar_trigger": false,
      "taf_trigger": false,
      "metar": "METAR EPSC 030930Z 15007KT 120V180 CAVOK 24/07 Q1012",
      "taf": "TAF EPSC 030530Z 0306/0406 14008KT CAVOK"
    },
    {
      "icao": "EPSY",
      "alert": "OK",
      "vis_m": 9999,
      "fzfg": false,
      "metar_trigger": false,
      "taf_trigger": false,
      "metar": "METAR EPSY 030930Z 21017G30KT 180V260 CAVOK 23/01 Q1016",
      "taf": "TAF EPSY 030830Z 0309/0318 22017KT CAVOK"
    },
    {
      "icao": "EPWA",
      "alert": "OK",
      "vis_m": 9999,
      "fzfg": false,
      "metar_trigger": false,
      "taf_trigger": false,
      "metar": "METAR EPWA 030930Z 19012KT CAVOK 24/03 Q1017 NOSIG",
      "taf": "TAF EPWA 030830Z 0309/0409 20015KT CAVOK"
    },
    {
      "icao": "EPWR",
      "alert": "OK",
      "vis_m": 9999,
      "fzfg": false,
      "metar_trigger": false,
      "taf_trigger": false,
      "metar": "METAR EPWR 030930Z 21012KT 160V240 CAVOK 25/01 Q1016",
      "taf": "TAF EPWR 030830Z 0309/0409 22012KT CAVOK"
    },
    {
      "icao": "ESGG",
      "alert": "OK",
      "vis_m": 600,
      "fzfg": false,
      "metar_trigger": false,
      "taf_trigger": false,
      "metar": "METAR ESGG 030920Z 23006KT 0600 R03/1400U R21/1000U FG VV002 09/09 Q1010",
      "taf": ""
    },
    {
      "icao": "ESKN",
      "alert": "OK",
      "vis_m": 9999,
      "fzfg": false,
      "metar_trigger": false,
      "taf_trigger": false,
      "metar": "METAR ESKN 030920Z 06007KT 020V090 9999 SCT019 BKN065 12/08 Q1009",
      "taf": "TAF ESKN 030830Z 0309/0409 09004KT 9999 SCT020 BKN040"
    },
    {
      "icao": "ESMS",
      "alert": "OK",
      "vis_m": 9999,
      "fzfg": false,
      "metar_trigger": false,
      "taf_trigger": false,
      "metar": "METAR ESMS 030920Z 26006KT 220V310 CAVOK 17/11 Q1011",
      "taf": "TAF ESMS 030827Z 0309/0409 30006KT 9999 FEW012"
    },
    {
      "icao": "ESSA",
      "alert": "OK",
      "vis_m": 7000,
      "fzfg": false,
      "metar_trigger": false,
      "taf_trigger": false,
      "metar": "METAR ESSA 030920Z 04005KT 020V080 7000 -DZ FEW006 BKN022 06/04 Q1011 TEMPO 4000 -DZ OVC020",
      "taf": "TAF ESSA 030830Z 0309/0409 02006KT 9999 BKN023"
    },
    {
      "icao": "EYKA",
      "alert": "OK",
      "vis_m": 9999,
      "fzfg": false,
      "metar_trigger": false,
      "taf_trigger": false,
      "metar": "METAR EYKA 030920Z 27013KT CAVOK 24/03 Q1014",
      "taf": "TAF EYKA 030500Z 0306/0406 VRB04KT 9000 NSC"
    },
    {
      "icao": "EYPA",
      "alert": "OK",
      "vis_m": 9999,
      "fzfg": false,
      "metar_trigger": false,
      "taf_trigger": false,
      "metar": "METAR EYPA 030920Z VRB06KT CAVOK 14/05 Q1013",
      "taf": "TAF EYPA 030500Z 0306/0406 21010KT 9000 NSC"
    },
    {
      "icao": "EYVI",
      "alert": "OK",
      "vis_m": 9999,
      "fzfg": false,
      "metar_trigger": false,
      "taf_trigger": false,
      "metar": "METAR EYVI 030920Z 28013KT CAVOK 23/03 Q1015 NOSIG",
      "taf": "TAF EYVI 030500Z 0306/0406 25010KT 9000 NSC"
    },
    {
      "icao": "GCFV",
      "alert": "OK",
      "vis_m": 9999,
      "fzfg": false,
      "metar_trigger": false,
      "taf_trigger": false,
      "metar": "METAR GCFV 030930Z 02014KT 9999 FEW021 21/14 Q1017",
      "taf": "TAF GCFV 030800Z 0309/0409 05010KT 9999 FEW025 TX22/0314Z TN18/0406Z"
    },
    {
      "icao": "GCLP",
      "alert": "OK",
      "vis_m": 9999,
      "fzfg": false,
      "metar_trigger": false,
      "taf_trigger": false,
      "metar": "METAR GCLP 030930Z 03015KT 9999 FEW020 21/15 Q1018 NOSIG",
      "taf": "TAF GCLP 030800Z 0309/0409 03015KT 9999 FEW025 TX24/0314Z TN18/0406Z"
    },
    {
      "icao": "GCTS",
      "alert": "OK",
      "vis_m": 9999,
      "fzfg": false,
      "metar_trigger": false,
      "taf_trigger": false,
      "metar": "METAR GCTS 030930Z 08007KT 020V110 9999 FEW025 21/13 Q1018 NOSIG",
      "taf": "TAF GCTS 030800Z 0309/0409 04009KT 9999 FEW030 TX24/0314Z TN17/0406Z"
    },
    {
      "icao": "GMAD",
      "alert": "OK",
      "vis_m": 9999,
      "fzfg": false,
      "metar_trigger": false,
      "taf_trigger": false,
      "metar": "METAR GMAD 030930Z 14003KT CAVOK 21/13 Q1014 NOSIG",
      "taf": "TAF GMAD 030500Z 0306/0412 22006KT 8000 SCT010 SCT016"
    },
    {
      "icao": "GMMN",
      "alert": "OK",
      "vis_m": 9999,
      "fzfg": false,
      "metar_trigger": false,
      "taf_trigger": false,
      "metar": "METAR GMMN 030900Z VRB05KT 9999 BKN023 19/14 Q1016 NOSIG",
      "taf": "TAF GMMN 030500Z 0306/0412 18004KT 9999 BKN023"
    },
    {
      "icao": "GMMX",
      "alert": "OK",
      "vis_m": 9999,
      "fzfg": false,
      "metar_trigger": false,
      "taf_trigger": false,
      "metar": "METAR GMMX 030930Z VRB03KT 9999 FEW033 20/13 Q1016 NOSIG",
      "taf": "TAF GMMX 030500Z 0306/0412 06006KT 8000 SCT026"
    },
    {
      "icao": "HEGN",
      "alert": "OK",
      "vis_m": 9999,
      "fzfg": false,
      "metar_trigger": false,
      "taf_trigger": false,
      "metar": "METAR HEGN 030900Z 02005KT CAVOK 32/14 Q1009 NOSIG",
      "taf": "TAF HEGN 030500Z 0306/0412 32008G22KT 9999 SCT020"
    },
    {
      "icao": "HEMA",
      "alert": "OK",
      "vis_m": 9999,
      "fzfg": false,
      "metar_trigger": false,
      "taf_trigger": false,
      "metar": "METAR HEMA 030900Z 08006KT CAVOK 34/15 Q1009 NOSIG",
      "taf": "TAF HEMA 030500Z 0306/0412 32008G22KT 9999 SCT020"
    },
    {
      "icao": "HESH",
      "alert": "OK",
      "vis_m": 9999,
      "fzfg": false,
      "metar_trigger": false,
      "taf_trigger": false,
      "metar": "METAR HESH 030900Z 12008KT 9999 SCT030 30/18 Q1008 NOSIG",
      "taf": "TAF HESH 030500Z 0306/0412 34006G20KT 9999 SCT020"
    },
    {
      "icao": "HESX",
      "alert": "OK",
      "vis_m": 9999,
      "fzfg": false,
      "metar_trigger": false,
      "taf_trigger": false,
      "metar": "METAR HESX 030900Z 28010KT CAVOK 24/11 Q1011 NOSIG",
      "taf": "TAF HESX 030500Z 0306/0412 30009KT 9999 FEW025"
    },
    {
      "icao": "LATI",
      "alert": "OK",
      "vis_m": 9999,
      "fzfg": false,
      "metar_trigger": false,
      "taf_trigger": false,
      "metar": "METAR LATI 030920Z 03008KT 330V080 CAVOK 19/02 Q1018 NOSIG",
      "taf": "TAF LATI 030500Z 0306/0406 VRB05KT 9999 SCT100 TX23/0312Z TN07/0404Z"
    },
    {
      "icao": "LBPD",
      "alert": "OK",
      "vis_m": 9999,
      "fzfg": false,
      "metar_trigger": false,
      "taf_trigger": false,
      "metar": "METAR LBPD 030930Z AUTO 29006KT 250V340 9999 FEW056/// SCT072/// 11/02 Q1021 NOSIG",
      "taf": "TAF LBPD 030500Z 0306/0406 30010KT 9999 SCT040 BKN070"
    },
    {
      "icao": "LBSF",
      "alert": "OK",
      "vis_m": 9999,
      "fzfg": false,
      "metar_trigger": false,
      "taf_trigger": false,
      "metar": "METAR LBSF 030930Z 04010KT 360V130 9999 SCT045 SCT066 09/M01 Q1022 NOSIG",
      "taf": "TAF LBSF 030500Z 0306/0406 VRB04KT 9999 FEW040 BKN070"
    },
    {
      "icao": "LBWN",
      "alert": "OK",
      "vis_m": 9999,
      "fzfg": false,
      "metar_trigger": false,
      "taf_trigger": false,
      "metar": "METAR LBWN 030930Z 06019G30KT 9999 -SHRA FEW030TCU BKN039 11/04 Q1020 TEMPO 5000 SHRA",
      "taf": ""
    },
    {
      "icao": "LCLK",
      "alert": "OK",
      "vis_m": 8000,
      "fzfg": false,
      "metar_trigger": false,
      "taf_trigger": false,
      "metar": "METAR LCLK 030930Z 22007KT 8000 -RA FEW018 18/17 Q1006 BECMG 22019KT",
      "taf": "TAF LCLK 030530Z 0306/0406 02007KT 9999 FEW020"
    },
    {
      "icao": "LCPH",
      "alert": "OK",
      "vis_m": 5000,
      "fzfg": false,
      "metar_trigger": false,
      "taf_trigger": false,
      "metar": "METAR LCPH 030930Z 31005KT 250V340 5000 -SHRA FEW020 SCT035 BKN050 16/14 Q1008 RERA TEMPO 3000 SHRA",
      "taf": "TAF LCPH 030530Z 0306/0406 06009KT 9999 FEW020"
    },
    {
      "icao": "LEAL",
      "alert": "OK",
      "vis_m": 9999,
      "fzfg": false,
      "metar_trigger": false,
      "taf_trigger": false,
      "metar": "METAR LEAL 030930Z 06005KT 030V110 9999 FEW010 SCT013 BKN053 20/14 Q1016 NOSIG",
      "taf": "TAF LEAL 030500Z 0306/0406 VRB04KT 9999 SCT015 TX23/0313Z TN15/0306Z"
    },
    {
      "icao": "LEBB",
      "alert": "OK",
      "vis_m": 9999,
      "fzfg": false,
      "metar_trigger": false,
      "taf_trigger": false,
      "metar": "METAR LEBB 030930Z 28005KT 240V320 9999 FEW030 20/15 Q1012 NOSIG",
      "taf": "TAF LEBB 030500Z 0306/0406 30009KT 9999 FEW035 TX20/0314Z TN12/0306Z"
    },
    {
      "icao": "LEBL",
      "alert": "OK",
      "vis_m": 9999,
      "fzfg": false,
      "metar_trigger": false,
      "taf_trigger": false,
      "metar": "METAR LEBL 030930Z 12007KT 090V160 9999 FEW014 SCT020 BKN028 19/14 Q1017 NOSIG",
      "taf": ""
    },
    {
      "icao": "LECH",
      "alert": "OK",
      "vis_m": 8000,
      "fzfg": false,
      "metar_trigger": false,
      "taf_trigger": false,
      "metar": "METAR LECH 030930Z AUTO 04003KT 010V070 8000 -RA FEW043 SCT070 15/14 Q1017 RERA",
      "taf": ""
    },
    {
      "icao": "LEMD",
      "alert": "OK",
      "vis_m": 9000,
      "fzfg": false,
      "metar_trigger": false,
      "taf_trigger": false,
      "metar": "METAR LEMD 030930Z 20004KT 130V270 9000 SCT012 BKN024 17/13 Q1014 NOSIG",
      "taf": ""
    },
    {
      "icao": "LEMG",
      "alert": "OK",
      "vis_m": 9999,
      "fzfg": false,
      "metar_trigger": false,
      "taf_trigger": false,
      "metar": "METAR LEMG 030930Z 13010KT 100V160 9999 SCT030 21/15 Q1015 NOSIG",
      "taf": "TAF LEMG 030500Z 0306/0406 29005KT 9999 SCT025 TX22/0314Z TN16/0306Z"
    },
    {
      "icao": "LEVC",
      "alert": "OK",
      "vis_m": 8000,
      "fzfg": false,
      "metar_trigger": false,
      "taf_trigger": false,
      "metar": "METAR LEVC 030930Z 13007KT 8000 FEW013 SCT017 BKN025 18/15 Q1016 NOSIG",
      "taf": ""
    },
    {
      "icao": "LEXJ",
      "alert": "OK",
      "vis_m": 9999,
      "fzfg": false,
      "metar_trigger": false,
      "taf_trigger": false,
      "metar": "METAR LEXJ 030930Z VRB02KT 9999 SCT017 17/14 Q1013",
      "taf": "TAF LEXJ 030800Z 0309/0409 VRB03KT 9999 SCT010 BKN040 TX19/0313Z TN12/0406Z"
    },
    {
      "icao": "LEZG",
      "alert": "OK",
      "vis_m": 9999,
      "fzfg": false,
      "metar_trigger": false,
      "taf_trigger": false,
      "metar": "METAR LEZG 030930Z 10010KT 9999 BKN009 16/14 Q1015 NOSIG",
      "taf": "TAF LEZG 030500Z 0306/0406 11009KT 9999 SCT040 TX22/0314Z TN14/0306Z"
    },
    {
      "icao": "LEZL",
      "alert": "OK",
      "vis_m": 9999,
      "fzfg": false,
      "metar_trigger": false,
      "taf_trigger": false,
      "metar": "METAR LEZL 030930Z 22009KT 9999 FEW025 SCT030 21/14 Q1015 NOSIG",
      "taf": "TAF LEZL 030800Z 0309/0409 23009KT 9999 FEW030 TX26/0315Z TN13/0407Z"
    },
    {
      "icao": "LFBD",
      "alert": "OK",
      "vis_m": 9999,
      "fzfg": false,
      "metar_trigger": false,
      "taf_trigger": false,
      "metar": "METAR LFBD 030930Z AUTO 17006KT 140V200 9999 SCT017/// BKN026/// BKN033/// ///TCU 19/15 Q1013 TEMPO 4000 SHRA",
      "taf": ""
    },
    {
      "icao": "LFLL",
      "alert": "OK",
      "vis_m": 9999,
      "fzfg": false,
      "metar_trigger": false,
      "taf_trigger": false,
      "metar": "METAR LFLL 030930Z 19010KT 9999 -SHRA FEW073TCU BKN086 17/06 Q1017 NOSIG",
      "taf": ""
    },
    {
      "icao": "LFLS",
      "alert": "OK",
      "vis_m": 9999,
      "fzfg": false,
      "metar_trigger": false,
      "taf_trigger": false,
      "metar": "METAR LFLS 030930Z AUTO 24007KT 210V280 CAVOK 15/08 Q1017 NOSIG",
      "taf": "TAF LFLS 030800Z 0309/0409 24010KT CAVOK"
    },
    {
      "icao": "LFMN",
      "alert": "OK",
      "vis_m": 9999,
      "fzfg": false,
      "metar_trigger": false,
      "taf_trigger": false,
      "metar": "METAR LFMN 030930Z 10008KT CAVOK 19/12 Q1020 NOSIG",
      "taf": "TAF LFMN 030800Z 0309/0415 14005KT CAVOK"
    },
    {
      "icao": "LFOB",
      "alert": "OK",
      "vis_m": 9999,
      "fzfg": false,
      "metar_trigger": false,
      "taf_trigger": false,
      "metar": "METAR LFOB 030930Z AUTO 20008KT 9999 OVC008 15/13 Q1012 TEMPO 4000 SHRA BKN020CB",
      "taf": "TAF LFOB 030500Z 0306/0406 19007KT 9999 SCT020 BKN060"
    },
    {
      "icao": "LFPO",
      "alert": "OK",
      "vis_m": 9999,
      "fzfg": false,
      "metar_trigger": false,
      "taf_trigger": false,
      "metar": "METAR LFPO 030930Z 18008KT 9999 -SHRA BKN010 BKN016 15/14 Q1012 NOSIG",
      "taf": ""
    },
    {
      "icao": "LFSB",
      "alert": "OK",
      "vis_m": 9999,
      "fzfg": false,
      "metar_trigger": false,
      "taf_trigger": false,
      "metar": "METAR LFSB 030930Z AUTO 13010KT CAVOK 21/08 Q1015 NOSIG",
      "taf": "TAF LFSB 030500Z 0306/0406 VRB03KT CAVOK"
    },
    {
      "icao": "LGAV",
      "alert": "OK",
      "vis_m": 9999,
      "fzfg": false,
      "metar_trigger": false,
      "taf_trigger": false,
      "metar": "METAR LGAV 030920Z 02016KT 340V050 9999 FEW018 BKN030 14/03 Q1017 NOSIG",
      "taf": "TAF LGAV 030500Z 0306/0406 32012KT 9999 SCT025 BKN070"
    },
    {
      "icao": "LGTS",
      "alert": "OK",
      "vis_m": 9999,
      "fzfg": false,
      "metar_trigger": false,
      "taf_trigger": false,
      "metar": "METAR LGTS 030920Z 29011KT 9999 SCT025 14/05 Q1019 NOSIG",
      "taf": "TAF LGTS 030500Z 0306/0406 VRB03KT 9999 SCT025"
    },
    {
      "icao": "LHBP",
      "alert": "OK",
      "vis_m": 9999,
      "fzfg": false,
      "metar_trigger": false,
      "taf_trigger": false,
      "metar": "METAR LHBP 030930Z 11009KT 080V150 CAVOK 19/M00 Q1021 NOSIG",
      "taf": "TAF LHBP 030515Z 0306/0406 10008KT CAVOK"
    },
    {
      "icao": "LHDC",
      "alert": "OK",
      "vis_m": 9999,
      "fzfg": false,
      "metar_trigger": false,
      "taf_trigger": false,
      "metar": "METAR LHDC 030915Z AUTO VRB04KT CAVOK 18/02 Q1022 NOSIG",
      "taf": "TAF LHDC 030815Z 0309/0318 10006KT CAVOK"
    },
    {
      "icao": "LIBD",
      "alert": "OK",
      "vis_m": 9999,
      "fzfg": false,
      "metar_trigger": false,
      "taf_trigger": false,
      "metar": "METAR LIBD 030920Z 33010KT 290V360 CAVOK 21/04 Q1019",
      "taf": "TAF LIBD 030500Z 0306/0406 27008KT CAVOK"
    },
    {
      "icao": "LIBG",
      "alert": "OK",
      "vis_m": 9999,
      "fzfg": false,
      "metar_trigger": false,
      "taf_trigger": false,
      "metar": "METAR LIBG 030850Z 01015KT CAVOK 23/04 Q1017",
      "taf": "TAF LIBG 030800Z 0309/0318 35015KT CAVOK"
    },
    {
      "icao": "LIBP",
      "alert": "OK",
      "vis_m": 9999,
      "fzfg": false,
      "metar_trigger": false,
      "taf_trigger": false,
      "metar": "METAR LIBP 030920Z AUTO VRB02KT 9999 FEW002/// 23/03 Q1020",
      "taf": "TAF LIBP 030500Z 0306/0406 23007KT 9999 FEW050"
    },
    {
      "icao": "LIBR",
      "alert": "OK",
      "vis_m": 9999,
      "fzfg": false,
      "metar_trigger": false,
      "taf_trigger": false,
      "metar": "METAR LIBR 030920Z 34014KT CAVOK 18/14 Q1018",
      "taf": "TAF LIBR 030500Z 0306/0406 33015KT CAVOK"
    },
    {
      "icao": "LICA",
      "alert": "OK",
      "vis_m": 9999,
      "fzfg": false,
      "metar_trigger": false,
      "taf_trigger": false,
      "metar": "METAR LICA 030920Z AUTO 24013KT 9999 NCD 20/13 Q1021",
      "taf": "TAF LICA 030500Z 0306/0406 07005KT CAVOK"
    },
    {
      "icao": "LICC",
      "alert": "OK",
      "vis_m": 9999,
      "fzfg": false,
      "metar_trigger": false,
      "taf_trigger": false,
      "metar": "METAR LICC 030920Z 25008KT 220V290 CAVOK 22/15 Q1021",
      "taf": "TAF LICC 030500Z 0306/0406 27008KT CAVOK"
    },
    {
      "icao": "LICJ",
      "alert": "OK",
      "vis_m": 9999,
      "fzfg": false,
      "metar_trigger": false,
      "taf_trigger": false,
      "metar": "METAR LICJ 030920Z 03006KT CAVOK 18/07 Q1022",
      "taf": "TAF LICJ 030500Z 0306/0406 17005KT CAVOK"
    },
    {
      "icao": "LIMC",
      "alert": "OK",
      "vis_m": 9999,
      "fzfg": false,
      "metar_trigger": false,
      "taf_trigger": false,
      "metar": "METAR LIMC 030920Z 09004KT 020V160 CAVOK 22/05 Q1019 NOSIG",
      "taf": "TAF LIMC 030500Z 0306/0412 VRB05KT CAVOK"
    },
    {
      "icao": "LIME",
      "alert": "OK",
      "vis_m": 9999,
      "fzfg": false,
      "metar_trigger": false,
      "taf_trigger": false,
      "metar": "METAR LIME 030920Z 23005KT 180V290 CAVOK 21/06 Q1019 NOSIG",
      "taf": "TAF LIME 030500Z 0306/0406 VRB05KT CAVOK"
    },
    {
      "icao": "LIMF",
      "alert": "OK",
      "vis_m": 9999,
      "fzfg": false,
      "metar_trigger": false,
      "taf_trigger": false,
      "metar": "METAR LIMF 030920Z VRB02KT 9999 FEW150 19/09 Q1020",
      "taf": "TAF LIMF 030500Z 0306/0406 VRB05KT 9999 SCT070"
    },
    {
      "icao": "LIMJ",
      "alert": "OK",
      "vis_m": 9999,
      "fzfg": false,
      "metar_trigger": false,
      "taf_trigger": false,
      "metar": "METAR LIMJ 030920Z 23002KT CAVOK 18/11 Q1021",
      "taf": "TAF LIMJ 030500Z 0306/0406 VRB05KT CAVOK"
    },
    {
      "icao": "LIPE",
      "alert": "OK",
      "vis_m": 9999,
      "fzfg": false,
      "metar_trigger": false,
      "taf_trigger": false,
      "metar": "METAR LIPE 030920Z VRB02KT CAVOK 23/05 Q1019",
      "taf": "TAF LIPE 030500Z 0306/0406 VRB05KT CAVOK"
    },
    {
      "icao": "LIPH",
      "alert": "OK",
      "vis_m": 9999,
      "fzfg": false,
      "metar_trigger": false,
      "taf_trigger": false,
      "metar": "METAR LIPH 030920Z VRB03KT CAVOK 22/08 Q1019",
      "taf": "TAF LIPH 030500Z 0306/0406 VRB05KT CAVOK"
    },
    {
      "icao": "LIPQ",
      "alert": "OK",
      "vis_m": 9999,
      "fzfg": false,
      "metar_trigger": false,
      "taf_trigger": false,
      "metar": "METAR LIPQ 030920Z AUTO 18005KT 140V230 9999 NCD 21/10 Q1019",
      "taf": "TAF LIPQ 030500Z 0306/0406 VRB05KT 9999 FEW060"
    },
    {
      "icao": "LIPR",
      "alert": "OK",
      "vis_m": 9999,
      "fzfg": false,
      "metar_trigger": false,
      "taf_trigger": false,
      "metar": "METAR LIPR 030920Z 02005KT 350V070 CAVOK 19/09 Q1019",
      "taf": "TAF LIPR 030500Z 0306/0406 VRB05KT CAVOK"
    },
    {
      "icao": "LIPX",
      "alert": "OK",
      "vis_m": 9999,
      "fzfg": false,
      "metar_trigger": false,
      "taf_trigger": false,
      "metar": "METAR LIPX 030920Z VRB02KT CAVOK 22/07 Q1019",
      "taf": "TAF LIPX 030500Z 0306/0406 VRB05KT CAVOK"
    },
    {
      "icao": "LIPY",
      "alert": "OK",
      "vis_m": 9999,
      "fzfg": false,
      "metar_trigger": false,
      "taf_trigger": false,
      "metar": "METAR LIPY 030920Z AUTO VRB03KT 9999 NCD 24/06 Q1019",
      "taf": "TAF LIPY 030500Z 0306/0406 24008KT CAVOK"
    },
    {
      "icao": "LIPZ",
      "alert": "OK",
      "vis_m": 9999,
      "fzfg": false,
      "metar_trigger": false,
      "taf_trigger": false,
      "metar": "METAR LIPZ 030920Z 15005KT 120V190 CAVOK 20/10 Q1019 NOSIG",
      "taf": "TAF LIPZ 030500Z 0306/0412 02006KT CAVOK"
    },
    {
      "icao": "LIRF",
      "alert": "OK",
      "vis_m": 9999,
      "fzfg": false,
      "metar_trigger": false,
      "taf_trigger": false,
      "metar": "METAR LIRF 030920Z 28005KT 200V320 CAVOK 20/08 Q1021 NOSIG",
      "taf": "TAF LIRF 030500Z 0306/0412 05006KT CAVOK"
    },
    {
      "icao": "LIRN",
      "alert": "OK",
      "vis_m": 9999,
      "fzfg": false,
      "metar_trigger": false,
      "taf_trigger": false,
      "metar": "METAR LIRN 030920Z VRB03KT CAVOK 21/03 Q1021 NOSIG",
      "taf": "TAF LIRN 030500Z 0306/0406 VRB05KT CAVOK"
    },
    {
      "icao": "LIRP",
      "alert": "OK",
      "vis_m": 9999,
      "fzfg": false,
      "metar_trigger": false,
      "taf_trigger": false,
      "metar": "METAR LIRP 030915Z VRB03KT CAVOK 20/09 Q1021 NOSIG",
      "taf": "TAF LIRP 030500Z 0306/0406 14005KT CAVOK"
    },
    {
      "icao": "LIRZ",
      "alert": "OK",
      "vis_m": 9999,
      "fzfg": false,
      "metar_trigger": false,
      "taf_trigger": false,
      "metar": "METAR LIRZ 030920Z AUTO VRB02KT 9999 NCD 19/08 Q1021",
      "taf": "TAF LIRZ 030500Z 0306/0406 VRB05KT CAVOK"
    },
    {
      "icao": "LJLJ",
      "alert": "OK",
      "vis_m": 9999,
      "fzfg": false,
      "metar_trigger": false,
      "taf_trigger": false,
      "metar": "METAR LJLJ 030930Z 08006KT 060V120 CAVOK 20/08 Q1019 NOSIG",
      "taf": "TAF LJLJ 030500Z 0306/0406 VRB02KT CAVOK"
    },
    {
      "icao": "LKMT",
      "alert": "OK",
      "vis_m": 9999,
      "fzfg": false,
      "metar_trigger": false,
      "taf_trigger": false,
      "metar": "METAR LKMT 030930Z 23014KT CAVOK 21/04 Q1019 NOSIG",
      "taf": "TAF LKMT 030500Z 0306/0406 20012KT CAVOK"
    },
    {
      "icao": "LKPR",
      "alert": "OK",
      "vis_m": 9999,
      "fzfg": false,
      "metar_trigger": false,
      "taf_trigger": false,
      "metar": "METAR LKPR 030930Z 13005KT 100V200 CAVOK 22/04 Q1017 NOSIG",
      "taf": "TAF LKPR 030800Z 0309/0415 16009KT CAVOK"
    },
    {
      "icao": "LLBG",
      "alert": "OK",
      "vis_m": 9999,
      "fzfg": false,
      "metar_trigger": false,
      "taf_trigger": false,
      "metar": "METAR LLBG 030920Z 25017KT 9999 SCT027 24/16 Q1008 NOSIG",
      "taf": "TAF LLBG 030503Z 0306/0406 21010KT 9999 FEW020 TX24/0309Z TN15/0404Z"
    },
    {
      "icao": "LMML",
      "alert": "OK",
      "vis_m": 9999,
      "fzfg": false,
      "metar_trigger": false,
      "taf_trigger": false,
      "metar": "METAR LMML 030915Z 26009KT 200V290 9999 FEW044 20/08 Q1022 NOSIG",
      "taf": "TAF LMML 030500Z 0306/0406 25010KT 9999 FEW025"
    },
    {
      "icao": "LOWW",
      "alert": "OK",
      "vis_m": 9999,
      "fzfg": false,
      "metar_trigger": false,
      "taf_trigger": false,
      "metar": "METAR LOWW 030920Z 14017KT CAVOK 20/06 Q1019 NOSIG",
      "taf": "TAF LOWW 030815Z 0309/0415 14015KT CAVOK TX27/0414Z TN12/0403Z"
    },
    {
      "icao": "LPFR",
      "alert": "OK",
      "vis_m": 9999,
      "fzfg": false,
      "metar_trigger": false,
      "taf_trigger": false,
      "metar": "METAR LPFR 030930Z 24007KT 210V270 9999 FEW020 18/12 Q1016",
      "taf": "TAF LPFR 030500Z 0306/0406 31005KT 9999 FEW025"
    },
    {
      "icao": "LPMA",
      "alert": "OK",
      "vis_m": 9999,
      "fzfg": false,
      "metar_trigger": false,
      "taf_trigger": false,
      "metar": "METAR LPMA 030930Z 20015KT 9999 SCT013 BKN030 19/15 Q1017",
      "taf": "TAF LPMA 030500Z 0306/0406 VRB05KT 9999 SCT015"
    },
    {
      "icao": "LPPR",
      "alert": "OK",
      "vis_m": 9999,
      "fzfg": false,
      "metar_trigger": false,
      "taf_trigger": false,
      "metar": "METAR LPPR 030930Z 19009KT 9999 -SHRA SCT008 BKN012 FEW018CB 15/14 Q1013",
      "taf": "TAF LPPR 030500Z 0306/0406 20005KT 9999 SCT015"
    },
    {
      "icao": "LPPS",
      "alert": "OK",
      "vis_m": 9999,
      "fzfg": false,
      "metar_trigger": false,
      "taf_trigger": false,
      "metar": "METAR LPPS 030930Z 16009KT 9999 SCT012 18/15 Q1018",
      "taf": "TAF LPPS 030500Z 0306/0412 VRB05KT 9999 SCT015"
    },
    {
      "icao": "LPPT",
      "alert": "OK",
      "vis_m": 9999,
      "fzfg": false,
      "metar_trigger": false,
      "taf_trigger": false,
      "metar": "METAR LPPT 030930Z 27006KT 240V300 9999 SCT022 BKN036 16/12 Q1015",
      "taf": "TAF LPPT 030500Z 0306/0412 VRB02KT 9999 SCT012"
    },
    {
      "icao": "LQBK",
      "alert": "OK",
      "vis_m": 9999,
      "fzfg": false,
      "metar_trigger": false,
      "taf_trigger": false,
      "metar": "METAR LQBK 030930Z VRB02KT CAVOK 21/06 Q1020 NOSIG",
      "taf": "TAF LQBK 030500Z 0306/0406 VRB02KT CAVOK TX23/0313Z TN06/0404Z"
    },
    {
      "icao": "LQSA",
      "alert": "OK",
      "vis_m": 9999,
      "fzfg": false,
      "metar_trigger": false,
      "taf_trigger": false,
      "metar": "METAR LQSA 030930Z 30006KT 230V350 9999 FEW070 17/04 Q1019 NOSIG",
      "taf": "TAF LQSA 030500Z 0306/0406 31005KT CAVOK TX21/0313Z TN04/0404Z"
    },
    {
      "icao": "LQTZ",
      "alert": "OK",
      "vis_m": 9999,
      "fzfg": false,
      "metar_trigger": false,
      "taf_trigger": false,
      "metar": "METAR LQTZ 030930Z 10004KT 050V150 CAVOK 19/06 Q1020",
      "taf": "TAF LQTZ 030500Z 0306/0406 34005KT CAVOK TX20/0313Z TN00/0404Z"
    },
    {
      "icao": "LRBC",
      "alert": "OK",
      "vis_m": 9999,
      "fzfg": false,
      "metar_trigger": false,
      "taf_trigger": false,
      "metar": "METAR LRBC 030930Z 33006KT 270V010 CAVOK 14/M02 Q1023",
      "taf": "TAF LRBC 030800Z 0309/0318 VRB04KT CAVOK"
    },
    {
      "icao": "LRBS",
      "alert": "OK",
      "vis_m": 9999,
      "fzfg": false,
      "metar_trigger": false,
      "taf_trigger": false,
      "metar": "METAR LRBS 030930Z 07009KT 360V140 CAVOK 14/00 Q1023 NOSIG",
      "taf": "TAF LRBS 030500Z 0306/0406 03008KT CAVOK"
    },
    {
      "icao": "LRBV",
      "alert": "OK",
      "vis_m": 9999,
      "fzfg": false,
      "metar_trigger": false,
      "taf_trigger": false,
      "metar": "METAR LRBV 030930Z 20001KT 9999 FEW043 10/M05 Q1023",
      "taf": "TAF LRBV 030800Z 0309/0318 VRB04KT 9999 BKN030"
    },
    {
      "icao": "LRCL",
      "alert": "OK",
      "vis_m": 9999,
      "fzfg": false,
      "metar_trigger": false,
      "taf_trigger": false,
      "metar": "METAR LRCL 030930Z 09005KT 010V170 CAVOK 14/M02 Q1022",
      "taf": "TAF LRCL 030800Z 0309/0318 VRB04KT CAVOK"
    },
    {
      "icao": "LRCV",
      "alert": "OK",
      "vis_m": 9999,
      "fzfg": false,
      "metar_trigger": false,
      "taf_trigger": false,
      "metar": "METAR LRCV 030930Z 12006KT 030V160 CAVOK 14/01 Q1023",
      "taf": "TAF LRCV 030800Z 0309/0318 10007KT CAVOK"
    },
    {
      "icao": "LRIA",
      "alert": "OK",
      "vis_m": 9999,
      "fzfg": false,
      "metar_trigger": false,
      "taf_trigger": false,
      "metar": "METAR LRIA 030930Z 14006KT 110V180 CAVOK 14/M03 Q1023",
      "taf": "TAF LRIA 030800Z 0309/0318 VRB04KT CAVOK"
    },
    {
      "icao": "LROP",
      "alert": "OK",
      "vis_m": 9999,
      "fzfg": false,
      "metar_trigger": false,
      "taf_trigger": false,
      "metar": "METAR LROP 030930Z 05007KT 020V090 CAVOK 13/M01 Q1023 NOSIG",
      "taf": "TAF LROP 030500Z 0306/0406 03008KT CAVOK"
    },
    {
      "icao": "LRSB",
      "alert": "OK",
      "vis_m": 9999,
      "fzfg": false,
      "metar_trigger": false,
      "taf_trigger": false,
      "metar": "METAR LRSB 030930Z COR VRB04KT CAVOK 13/M01 Q1022",
      "taf": "TAF LRSB 030500Z 0306/0406 VRB04KT CAVOK"
    },
    {
      "icao": "LRSM",
      "alert": "OK",
      "vis_m": 9999,
      "fzfg": false,
      "metar_trigger": false,
      "taf_trigger": false,
      "metar": "METAR LRSM 030930Z AUTO VRB04KT 9999 NCD 17/01 Q1022",
      "taf": ""
    },
    {
      "icao": "LRSV",
      "alert": "OK",
      "vis_m": 9999,
      "fzfg": false,
      "metar_trigger": false,
      "taf_trigger": false,
      "metar": "METAR LRSV 030930Z VRB04KT CAVOK 14/M01 Q1022",
      "taf": "TAF LRSV 030800Z 0309/0318 VRB04KT CAVOK"
    },
    {
      "icao": "LRTM",
      "alert": "OK",
      "vis_m": 9999,
      "fzfg": false,
      "metar_trigger": false,
      "taf_trigger": false,
      "metar": "METAR LRTM 030930Z VRB04KT 9999 FEW036 14/M01 Q1023",
      "taf": "TAF LRTM 030800Z 0309/0318 VRB04KT CAVOK"
    },
    {
      "icao": "LRTR",
      "alert": "OK",
      "vis_m": 9999,
      "fzfg": false,
      "metar_trigger": false,
      "taf_trigger": false,
      "metar": "METAR LRTR 030930Z 07004KT 310V120 CAVOK 15/03 Q1022",
      "taf": "TAF LRTR 030500Z 0306/0406 VRB04KT CAVOK"
    },
    {
      "icao": "LTAC",
      "alert": "OK",
      "vis_m": 9999,
      "fzfg": false,
      "metar_trigger": false,
      "taf_trigger": false,
      "metar": "METAR LTAC 030920Z 09013KT 9999 SCT015 BKN025 BKN080 08/03 Q1009 NOSIG RMK RWY21C 05016KT RWY03L 07013KT 030V090 RWY21R 04016KT RWY03R 06013KT RWY21L 08012KT",
      "taf": "TAF LTAC 030440Z 0306/0406 05015KT 9999 BKN030 BKN080"
    },
    {
      "icao": "LTFM",
      "alert": "OK",
      "vis_m": 9999,
      "fzfg": false,
      "metar_trigger": false,
      "taf_trigger": false,
      "metar": "METAR LTFM 030920Z 04027KT 9999 FEW016 SCT020 BKN070 11/07 Q1015 NOSIG RMK RWY17L 04024KT RWY34L 03021G31KT RWY16R 03024G35KT RWY36 04025KT RWY18 04027KT",
      "taf": "TAF LTFM 030440Z 0306/0412 03026G38KT 9999 -SHRA BKN020 BKN070"
    },
    {
      "icao": "LUKK",
      "alert": "OK",
      "vis_m": 9999,
      "fzfg": false,
      "metar_trigger": false,
      "taf_trigger": false,
      "metar": "METAR LUKK 030930Z 07007KT 340V130 CAVOK 15/M03 Q1022 NOSIG",
      "taf": "TAF LUKK 030516Z 0306/0406 VRB06KT CAVOK"
    },
    {
      "icao": "LWOH",
      "alert": "OK",
      "vis_m": 9999,
      "fzfg": false,
      "metar_trigger": false,
      "taf_trigger": false,
      "metar": "METAR LWOH 030920Z 35009KT 310V040 9999 FEW010 SCT050 12/00 Q1019",
      "taf": "TAF LWOH 030815Z 0309/0409 01106KT 9999 FEW010 SCT050"
    },
    {
      "icao": "LWSK",
      "alert": "OK",
      "vis_m": 9999,
      "fzfg": false,
      "metar_trigger": false,
      "taf_trigger": false,
      "metar": "METAR LWSK 030920Z 02005KT 350V140 9999 SCT060 15/M03 Q1020 NOSIG",
      "taf": "TAF LWSK 030815Z 0309/0409 03010KT 9999 SCT050"
    },
    {
      "icao": "LYBE",
      "alert": "OK",
      "vis_m": 9999,
      "fzfg": false,
      "metar_trigger": false,
      "taf_trigger": false,
      "metar": "METAR LYBE 030930Z 12006KT 010V180 CAVOK 16/02 Q1022 NOSIG",
      "taf": "TAF LYBE 030500Z 0306/0406 12012KT CAVOK TX20/0313Z TN06/0404Z"
    },
    {
      "icao": "LYNI",
      "alert": "OK",
      "vis_m": 9999,
      "fzfg": false,
      "metar_trigger": false,
      "taf_trigger": false,
      "metar": "METAR LYNI 030930Z VRB03KT 9999 BKN050 14/M01 Q1022 NOSIG",
      "taf": "TAF LYNI 030500Z 0306/0406 08012KT CAVOK TX17/0313Z TN03/0404Z"
    },
    {
      "icao": "LYPG",
      "alert": "OK",
      "vis_m": 9999,
      "fzfg": false,
      "metar_trigger": false,
      "taf_trigger": false,
      "metar": "METAR LYPG 030930Z 14008KT 110V190 9999 FEW050 20/06 Q1018 NOSIG",
      "taf": "TAF LYPG 030500Z 0306/0406 36005KT 9999 FEW050 SCT090 TX23/0314Z TN09/0404Z"
    },
    {
      "icao": "LZIB",
      "alert": "OK",
      "vis_m": 9999,
      "fzfg": false,
      "metar_trigger": false,
      "taf_trigger": false,
      "metar": "METAR LZIB 030930Z 11014KT CAVOK 21/04 Q1020 NOSIG",
      "taf": "TAF LZIB 030515Z 0306/0406 04006KT CAVOK"
    },
    {
      "icao": "LZKZ",
      "alert": "OK",
      "vis_m": 9999,
      "fzfg": false,
      "metar_trigger": false,
      "taf_trigger": false,
      "metar": "METAR LZKZ 030930Z VRB04KT CAVOK 18/02 Q1022 NOSIG",
      "taf": "TAF LZKZ 030515Z 0306/0406 VRB02KT CAVOK"
    },
    {
      "icao": "LZTT",
      "alert": "OK",
      "vis_m": 9999,
      "fzfg": false,
      "metar_trigger": false,
      "taf_trigger": false,
      "metar": "METAR LZTT 030930Z 15008KT 110V180 CAVOK 18/M01 Q1021 NOSIG",
      "taf": "TAF LZTT 030515Z 0306/0406 28006KT CAVOK"
    },
    {
      "icao": "OEJN",
      "alert": "OK",
      "vis_m": 8000,
      "fzfg": false,
      "metar_trigger": false,
      "taf_trigger": false,
      "metar": "METAR OEJN 030900Z 24009KT 8000 NSC 36/17 Q1009 NOSIG",
      "taf": "TAF OEJN 030500Z 0306/0412 26012KT CAVOK"
    },
    {
      "icao": "OEMA",
      "alert": "OK",
      "vis_m": 9999,
      "fzfg": false,
      "metar_trigger": false,
      "taf_trigger": false,
      "metar": "METAR OEMA 030900Z 21004KT CAVOK 37/M04 Q1015 NOSIG",
      "taf": "TAF OEMA 030500Z 0306/0412 12010KT CAVOK"
    },
    {
      "icao": "OJAI",
      "alert": "OK",
      "vis_m": 4000,
      "fzfg": false,
      "metar_trigger": false,
      "taf_trigger": false,
      "metar": "METAR OJAI 030900Z 25022KT 4000 BLDU NSC 26/08 Q1009 NOSIG",
      "taf": "TAF OJAI 030500Z 0306/0412 23016KT 4000 BLDU"
    },
    {
      "icao": "OMAA",
      "alert": "OK",
      "vis_m": 9999,
      "fzfg": false,
      "metar_trigger": false,
      "taf_trigger": false,
      "metar": "METAR OMAA 030930Z 29010KT 270V340 CAVOK 41/08 Q1007 NOSIG",
      "taf": "TAF OMAA 030500Z 0306/0412 VRB02KT 8000 NSC"
    },
    {
      "icao": "OMDB",
      "alert": "OK",
      "vis_m": 9999,
      "fzfg": false,
      "metar_trigger": false,
      "taf_trigger": false,
      "metar": "METAR OMDB 030930Z 33011KT 300V020 CAVOK 42/07 Q1006 NOSIG",
      "taf": "TAF OMDB 030500Z 0306/0412 23007KT CAVOK"
    },
    {
      "icao": "UAAA",
      "alert": "OK",
      "vis_m": 9999,
      "fzfg": false,
      "metar_trigger": false,
      "taf_trigger": false,
      "metar": "METAR UAAA 030930Z 20003MPS 150V250 9999 SCT050CB BKN100 23/12 Q1011 NOSIG",
      "taf": "TAF UAAA 030505Z 0306/0406 25003MPS 9999 BKN050CB OVC100 TX24/0309Z TN13/0401Z"
    },
    {
      "icao": "UBBB",
      "alert": "OK",
      "vis_m": 9999,
      "fzfg": false,
      "metar_trigger": false,
      "taf_trigger": false,
      "metar": "METAR UBBB 030930Z 36012KT 9999 BKN013 BKN034 12/08 Q1017 NOSIG",
      "taf": "TAF UBBB 030508Z 0306/0406 33016KT 9999 SCT012 BKN040 TX14/0310Z TN09/0401Z"
    },
    {
      "icao": "UDSG",
      "alert": "OK",
      "vis_m": 9999,
      "fzfg": false,
      "metar_trigger": false,
      "taf_trigger": false,
      "metar": "METAR UDSG 030930Z 27005KT 9999 BKN046CB 14/07 Q1016 NOSIG",
      "taf": "TAF UDSG 030458Z 0306/0406 24006KT 9999 BKN040"
    },
    {
      "icao": "UDYZ",
      "alert": "OK",
      "vis_m": 9999,
      "fzfg": false,
      "metar_trigger": false,
      "taf_trigger": false,
      "metar": "METAR UDYZ 030930Z 11006KT 9999 SCT046 20/09 Q1014 NOSIG",
      "taf": ""
    },
    {
      "icao": "UGKO",
      "alert": "OK",
      "vis_m": 9999,
      "fzfg": false,
      "metar_trigger": false,
      "taf_trigger": false,
      "metar": "METAR UGKO 030930Z 26006KT 230V290 9999 SCT015 OVC028 14/10 Q1011 NOSIG",
      "taf": "TAF UGKO 030500Z 0306/0406 25007KT 9999 SCT030 OVC045 TX17/0311Z TN09/0322Z"
    }
  ]
}