{
  "ts_utc": "2026-02-14T07:21:49Z",
  "threshold_m": 150,
  "source": "stations_override.txt (ICAO list) + aviationweather.gov (METAR/TAF raw)",
  "station_count": 159,
  "stations": [
    {
      "icao": "BIKF",
      "alert": "OK",
      "vis_m": 9999,
      "fzfg": false,
      "metar_trigger": false,
      "taf_trigger": false,
      "metar": "METAR BIKF 140700Z 09012KT CAVOK M04/M10 Q1004",
      "taf": "TAF BIKF 140454Z 1406/1506 09012KT 9999 FEW025 SCT040 TX00/1415Z TNM06/1506Z"
    },
    {
      "icao": "BKPR",
      "alert": "OK",
      "vis_m": 9999,
      "fzfg": false,
      "metar_trigger": false,
      "taf_trigger": false,
      "metar": "METAR BKPR 140700Z VRB02KT CAVOK 02/01 Q1002 TEMPO 4000 BR",
      "taf": "TAF BKPR 140530Z 1406/1506 16007KT 9999 SCT040"
    },
    {
      "icao": "EBCI",
      "alert": "OK",
      "vis_m": 9999,
      "fzfg": false,
      "metar_trigger": false,
      "taf_trigger": false,
      "metar": "METAR EBCI 140650Z 03013KT 9999 BKN011 M01/M03 Q1006 TEMPO BKN009",
      "taf": "TAF EBCI 140503Z 1406/1512 03012KT 8000 BKN009"
    },
    {
      "icao": "EDDB",
      "alert": "OK",
      "vis_m": 8000,
      "fzfg": false,
      "metar_trigger": false,
      "taf_trigger": false,
      "metar": "METAR EDDB 140650Z AUTO 02008KT 8000 -SN BKN015 M00/M02 Q1004 NOSIG",
      "taf": "TAF EDDB 140500Z 1406/1506 02007KT 9999 SCT010 BKN015"
    },
    {
      "icao": "EDDH",
      "alert": "OK",
      "vis_m": 9999,
      "fzfg": false,
      "metar_trigger": false,
      "taf_trigger": false,
      "metar": "METAR EDDH 140650Z AUTO 36005KT 330V040 9999 FEW010 OVC017 M01/M03 Q1008 NOSIG",
      "taf": "TAF EDDH 140500Z 1406/1512 02006KT 9999 SCT008 BKN025"
    },
    {
      "icao": "EDDK",
      "alert": "OK",
      "vis_m": 9999,
      "fzfg": false,
      "metar_trigger": false,
      "taf_trigger": false,
      "metar": "METAR EDDK 140650Z AUTO 01009KT 9999 OVC011 01/M01 Q1004 NOSIG",
      "taf": "TAF EDDK 140500Z 1406/1512 35008KT 9999 OVC015"
    },
    {
      "icao": "EDDN",
      "alert": "OK",
      "vis_m": 9999,
      "fzfg": false,
      "metar_trigger": false,
      "taf_trigger": false,
      "metar": "METAR EDDN 140650Z AUTO 35003KT 9999 FEW046 03/02 Q0998 NOSIG",
      "taf": "TAF EDDN 140500Z 1406/1506 25006KT 9999 BKN045"
    },
    {
      "icao": "EDDS",
      "alert": "OK",
      "vis_m": 9999,
      "fzfg": false,
      "metar_trigger": false,
      "taf_trigger": false,
      "metar": "METAR EDDS 140650Z AUTO 01005KT 340V040 9999 -RADZ SCT014 BKN022 OVC027 05/04 Q0996 TEMPO RA BKN014",
      "taf": "TAF EDDS 140500Z 1406/1506 36009KT 9999 FEW010 BKN025"
    },
    {
      "icao": "EDFH",
      "alert": "OK",
      "vis_m": 2000,
      "fzfg": false,
      "metar_trigger": false,
      "taf_trigger": false,
      "metar": "METAR EDFH 140650Z 36011KT 2000 -DZ BR OVC001 M00/M01 Q1000",
      "taf": "TAF EDFH 140500Z 1406/1506 02010KT 1200 BR VV003"
    },
    {
      "icao": "EDJA",
      "alert": "OK",
      "vis_m": 9999,
      "fzfg": false,
      "metar_trigger": false,
      "taf_trigger": false,
      "metar": "METAR EDJA 140650Z 03008KT 9999 BKN011 03/01 Q0994",
      "taf": "TAF EDJA 140500Z 1406/1415 04007KT 9999 SCT008 BKN060"
    },
    {
      "icao": "EDLW",
      "alert": "OK",
      "vis_m": 9999,
      "fzfg": false,
      "metar_trigger": false,
      "taf_trigger": false,
      "metar": "METAR EDLW 140650Z 35008KT 9999 OVC006 M01/M02 Q1005",
      "taf": "TAF EDLW 140500Z 1406/1506 01006KT 9999 SCT004 BKN007"
    },
    {
      "icao": "EDNY",
      "alert": "OK",
      "vis_m": 9999,
      "fzfg": false,
      "metar_trigger": false,
      "taf_trigger": false,
      "metar": "METAR EDNY 140650Z 04006KT CAVOK 05/02 Q0994",
      "taf": "TAF EDNY 140500Z 1406/1415 03006KT 9999 SCT015 BKN060"
    },
    {
      "icao": "EDSB",
      "alert": "OK",
      "vis_m": 5000,
      "fzfg": false,
      "metar_trigger": false,
      "taf_trigger": false,
      "metar": "METAR EDSB 140650Z 01010KT 5000 -RA BR OVC005 05/04 Q0998",
      "taf": "TAF EDSB 140500Z 1406/1506 03012KT 9999 BKN005"
    },
    {
      "icao": "EETN",
      "alert": "OK",
      "vis_m": 9999,
      "fzfg": false,
      "metar_trigger": false,
      "taf_trigger": false,
      "metar": "METAR EETN 140720Z 04009KT 010V070 9999 SCT009 M13/M14 Q1009 NOSIG",
      "taf": "TAF EETN 140530Z 1406/1506 04012KT 9999 BKN010"
    },
    {
      "icao": "EFTU",
      "alert": "OK",
      "vis_m": 9999,
      "fzfg": false,
      "metar_trigger": false,
      "taf_trigger": false,
      "metar": "METAR EFTU 140650Z AUTO VRB01KT CAVOK M21/M23 Q1011",
      "taf": "TAF EFTU 140528Z 1406/1506 07004KT CAVOK"
    },
    {
      "icao": "EGBB",
      "alert": "OK",
      "vis_m": 9999,
      "fzfg": false,
      "metar_trigger": false,
      "taf_trigger": false,
      "metar": "METAR EGBB 140650Z 32005KT CAVOK M01/M03 Q1014",
      "taf": "TAF EGBB 140456Z 1406/1506 30005KT 9999 FEW040"
    },
    {
      "icao": "EGGP",
      "alert": "OK",
      "vis_m": 9999,
      "fzfg": false,
      "metar_trigger": false,
      "taf_trigger": false,
      "metar": "METAR EGGP 140650Z 27001KT CAVOK M02/M04 Q1015",
      "taf": "TAF EGGP 140457Z 1406/1506 34006KT CAVOK"
    },
    {
      "icao": "EGGW",
      "alert": "OK",
      "vis_m": 9999,
      "fzfg": false,
      "metar_trigger": false,
      "taf_trigger": false,
      "metar": "METAR EGGW 140650Z AUTO VRB08KT 9999 NCD M01/M03 Q1013",
      "taf": "TAF EGGW 140457Z 1406/1506 34008KT 9999 FEW030"
    },
    {
      "icao": "EGKK",
      "alert": "OK",
      "vis_m": 9999,
      "fzfg": false,
      "metar_trigger": false,
      "taf_trigger": false,
      "metar": "METAR EGKK 140650Z 02009KT 9999 FEW033 01/M04 Q1012",
      "taf": "TAF EGKK 140453Z 1406/1512 01010KT 9999 SCT035"
    },
    {
      "icao": "EGNM",
      "alert": "OK",
      "vis_m": 9999,
      "fzfg": false,
      "metar_trigger": false,
      "taf_trigger": false,
      "metar": "METAR EGNM 140650Z 29009KT CAVOK M02/M05 Q1013",
      "taf": "TAF EGNM 140456Z 1406/1506 29006KT CAVOK"
    },
    {
      "icao": "EGPD",
      "alert": "OK",
      "vis_m": 9999,
      "fzfg": false,
      "metar_trigger": false,
      "taf_trigger": false,
      "metar": "METAR EGPD 140650Z COR AUTO 28008KT 9999 NCD M00/M03 Q1012 NOSIG",
      "taf": "TAF EGPD 140453Z 1406/1506 28010KT 9999 FEW020"
    },
    {
      "icao": "EGPF",
      "alert": "OK",
      "vis_m": 9999,
      "fzfg": false,
      "metar_trigger": false,
      "taf_trigger": false,
      "metar": "METAR EGPF 140650Z AUTO VRB02KT 9999 NCD M04/M05 Q1015",
      "taf": "TAF EGPF 140454Z 1406/1506 27004KT 9999 FEW035"
    },
    {
      "icao": "EHBK",
      "alert": "OK",
      "vis_m": 9999,
      "fzfg": false,
      "metar_trigger": false,
      "taf_trigger": false,
      "metar": "METAR EHBK 140655Z AUTO 02012KT 340V060 9999 OVC010 00/M02 Q1006 NOSIG",
      "taf": "TAF EHBK 140516Z 1406/1512 01012KT 9999 BKN008"
    },
    {
      "icao": "EHEH",
      "alert": "OK",
      "vis_m": 9999,
      "fzfg": false,
      "metar_trigger": false,
      "taf_trigger": false,
      "metar": "METAR EHEH 140655Z AUTO 01012KT 330V060 9999 BKN020 OVC023 00/M03 Q1007 WHT NOSIG RMK TREND REMOTE BY EHWX",
      "taf": "TAF EHEH 140526Z 1406/1512 02011KT 9999 BKN018"
    },
    {
      "icao": "EKBI",
      "alert": "OK",
      "vis_m": 9999,
      "fzfg": false,
      "metar_trigger": false,
      "taf_trigger": false,
      "metar": "METAR EKBI 140650Z AUTO 35002KT 9999 NCD M13/M14 Q1010",
      "taf": "TAF EKBI 140527Z 1406/1506 02006KT CAVOK"
    },
    {
      "icao": "EKCH",
      "alert": "OK",
      "vis_m": 9999,
      "fzfg": false,
      "metar_trigger": false,
      "taf_trigger": false,
      "metar": "METAR EKCH 140650Z AUTO 05013KT 9999 OVC050/// M04/M07 Q1009 NOSIG",
      "taf": "TAF EKCH 140527Z 1406/1506 04010KT 9999 BKN030"
    },
    {
      "icao": "ENAL",
      "alert": "OK",
      "vis_m": 9999,
      "fzfg": false,
      "metar_trigger": false,
      "taf_trigger": false,
      "metar": "METAR ENAL 140650Z 14009KT CAVOK M04/M06 Q1009",
      "taf": "TAF ENAL 140500Z 1406/1415 16009KT 9999 FEW030"
    },
    {
      "icao": "ENBR",
      "alert": "OK",
      "vis_m": 9999,
      "fzfg": false,
      "metar_trigger": false,
      "taf_trigger": false,
      "metar": "METAR ENBR 140650Z 13003KT 9999 BKN040 M04/M05 Q1008 NOSIG RMK WIND 1200FT 10003KT",
      "taf": "TAF ENBR 140500Z 1406/1506 VRB05KT 9999 FEW010 BKN050"
    },
    {
      "icao": "ENGM",
      "alert": "OK",
      "vis_m": 9999,
      "fzfg": false,
      "metar_trigger": false,
      "taf_trigger": false,
      "metar": "METAR ENGM 140650Z 35004KT 320V020 CAVOK M17/M20 Q1011 NOSIG",
      "taf": "TAF ENGM 140500Z 1406/1506 35003KT CAVOK"
    },
    {
      "icao": "ENHD",
      "alert": "OK",
      "vis_m": 350,
      "fzfg": false,
      "metar_trigger": false,
      "taf_trigger": false,
      "metar": "METAR ENHD 140650Z AUTO 07008KT 0350 R13/1600N R31/P2000N +SN VV008 M01/M02 Q1008",
      "taf": "TAF ENHD 140500Z 1406/1415 11008KT 9999 FEW008 SCT020 BKN030"
    },
    {
      "icao": "ENTC",
      "alert": "OK",
      "vis_m": 9999,
      "fzfg": false,
      "metar_trigger": false,
      "taf_trigger": false,
      "metar": "METAR ENTC 140650Z 18017KT 9999 VCSH FEW016 SCT033 BKN046 M04/M06 Q0996 TEMPO 1200 -SHSN VV009 RMK WIND 2600FT 17014KT",
      "taf": "TAF ENTC 140500Z 1406/1506 20012KT 9999 FEW015 SCT030"
    },
    {
      "icao": "ENTO",
      "alert": "OK",
      "vis_m": 9999,
      "fzfg": false,
      "metar_trigger": false,
      "taf_trigger": false,
      "metar": "METAR ENTO 140650Z 36003KT 9999 FEW025 M14/M16 Q1011 NOSIG",
      "taf": "TAF ENTO 140500Z 1406/1506 35003KT CAVOK"
    },
    {
      "icao": "ENVA",
      "alert": "OK",
      "vis_m": 9999,
      "fzfg": false,
      "metar_trigger": false,
      "taf_trigger": false,
      "metar": "METAR ENVA 140650Z 10011KT 9999 FEW026 BKN037 OVC050 M13/M16 Q1008 NOSIG RMK WIND 670FT 15007KT",
      "taf": "TAF ENVA 140500Z 1406/1506 11009KT 9999 SCT012 BKN030"
    },
    {
      "icao": "ENZV",
      "alert": "OK",
      "vis_m": 9999,
      "fzfg": false,
      "metar_trigger": false,
      "taf_trigger": false,
      "metar": "METAR ENZV 140650Z 14020KT 9999 -SN SCT016 M02/M06 Q1006 TEMPO 1000 SHSN VV008",
      "taf": "TAF ENZV 140500Z 1406/1506 15020KT 9999 SCT015 BKN030"
    },
    {
      "icao": "EPGD",
      "alert": "OK",
      "vis_m": 9999,
      "fzfg": false,
      "metar_trigger": false,
      "taf_trigger": false,
      "metar": "METAR EPGD 140700Z 36009KT 9999 -SN OVC005 M04/M05 Q1003",
      "taf": "TAF EPGD 140530Z 1406/1506 36010KT 9999 OVC006"
    },
    {
      "icao": "EPKK",
      "alert": "OK",
      "vis_m": 8000,
      "fzfg": false,
      "metar_trigger": false,
      "taf_trigger": false,
      "metar": "METAR EPKK 140700Z VRB01KT 8000 FEW011 BKN023 02/01 Q1000",
      "taf": "TAF EPKK 140530Z 1406/1506 VRB02KT 9999 BKN013"
    },
    {
      "icao": "EPKT",
      "alert": "OK",
      "vis_m": 9999,
      "fzfg": false,
      "metar_trigger": false,
      "taf_trigger": false,
      "metar": "METAR EPKT 140700Z 31003KT 9999 SCT004 OVC006 00/M00 Q1000",
      "taf": ""
    },
    {
      "icao": "EPLB",
      "alert": "OK",
      "vis_m": 7000,
      "fzfg": false,
      "metar_trigger": false,
      "taf_trigger": false,
      "metar": "METAR EPLB 140700Z 29008KT 7000 OVC006 01/00 Q0999",
      "taf": "TAF EPLB 140530Z 1406/1506 29010KT 9999 BKN008"
    },
    {
      "icao": "EPMO",
      "alert": "OK",
      "vis_m": 7000,
      "fzfg": false,
      "metar_trigger": false,
      "taf_trigger": false,
      "metar": "METAR EPMO 140700Z 32008KT 7000 BKN006 M03/M03 Q1001",
      "taf": "TAF EPMO 140530Z 1406/1506 32008KT 9999 BKN007"
    },
    {
      "icao": "EPPO",
      "alert": "OK",
      "vis_m": 9999,
      "fzfg": false,
      "metar_trigger": false,
      "taf_trigger": false,
      "metar": "METAR EPPO 140700Z 01005KT 9999 OVC019 M01/M02 Q1003",
      "taf": "TAF EPPO 140530Z 1406/1506 02010KT 8000 BKN007"
    },
    {
      "icao": "EPRA",
      "alert": "OK",
      "vis_m": 9999,
      "fzfg": false,
      "metar_trigger": false,
      "taf_trigger": false,
      "metar": "METAR EPRA 140700Z 35006KT 310V010 9999 OVC007 00/M02 Q1000",
      "taf": "TAF EPRA 140530Z 1406/1415 30008KT 9999 OVC007"
    },
    {
      "icao": "EPRZ",
      "alert": "OK",
      "vis_m": 9999,
      "fzfg": false,
      "metar_trigger": false,
      "taf_trigger": false,
      "metar": "METAR EPRZ 140700Z 30008KT 9999 SCT009 BKN040 02/00 Q1000",
      "taf": "TAF EPRZ 140530Z 1406/1506 27006KT 9999 BKN011"
    },
    {
      "icao": "EPSC",
      "alert": "OK",
      "vis_m": 9999,
      "fzfg": false,
      "metar_trigger": false,
      "taf_trigger": false,
      "metar": "METAR EPSC 140700Z 31005KT 9999 OVC024 M00/M03 Q1005",
      "taf": "TAF EPSC 140530Z 1406/1506 35010KT 9999 OVC022"
    },
    {
      "icao": "EPSY",
      "alert": "OK",
      "vis_m": 9999,
      "fzfg": false,
      "metar_trigger": false,
      "taf_trigger": false,
      "metar": "METAR EPSY 140700Z 34006KT 310V010 9999 OVC006 M06/M08 Q1001",
      "taf": "TAF EPSY 140530Z 1406/1415 35008KT 9999 OVC007"
    },
    {
      "icao": "EPWA",
      "alert": "OK",
      "vis_m": 9000,
      "fzfg": false,
      "metar_trigger": false,
      "taf_trigger": false,
      "metar": "METAR EPWA 140700Z 30009KT 9000 BKN007 M01/M02 Q1000 NOSIG",
      "taf": "TAF EPWA 140530Z 1406/1506 32010KT 9999 BKN008"
    },
    {
      "icao": "EPWR",
      "alert": "OK",
      "vis_m": 4800,
      "fzfg": false,
      "metar_trigger": false,
      "taf_trigger": false,
      "metar": "METAR EPWR 140700Z 33005KT 4800 -DZ BR FEW003 BKN006 BKN035 01/00 Q1002",
      "taf": ""
    },
    {
      "icao": "ESGG",
      "alert": "OK",
      "vis_m": 9999,
      "fzfg": false,
      "metar_trigger": false,
      "taf_trigger": false,
      "metar": "METAR ESGG 140650Z 03005KT CAVOK M13/M15 Q1010",
      "taf": "TAF ESGG 140530Z 1406/1506 04005KT CAVOK"
    },
    {
      "icao": "ESKN",
      "alert": "OK",
      "vis_m": 9999,
      "fzfg": false,
      "metar_trigger": false,
      "taf_trigger": false,
      "metar": "METAR ESKN 140650Z 28003KT CAVOK M18/M19 Q1011",
      "taf": "TAF ESKN 140530Z 1406/1506 35002KT CAVOK"
    },
    {
      "icao": "ESMS",
      "alert": "OK",
      "vis_m": 9999,
      "fzfg": false,
      "metar_trigger": false,
      "taf_trigger": false,
      "metar": "METAR ESMS 140650Z 02006KT CAVOK M06/M09 Q1008",
      "taf": "TAF ESMS 140527Z 1406/1506 02008KT CAVOK"
    },
    {
      "icao": "ESSA",
      "alert": "OK",
      "vis_m": 9999,
      "fzfg": false,
      "metar_trigger": false,
      "taf_trigger": false,
      "metar": "METAR ESSA 140650Z 31002KT CAVOK M22/M24 Q1011 NOSIG",
      "taf": "TAF ESSA 140530Z 1406/1506 34002KT CAVOK"
    },
    {
      "icao": "EYKA",
      "alert": "OK",
      "vis_m": 9999,
      "fzfg": false,
      "metar_trigger": false,
      "taf_trigger": false,
      "metar": "METAR EYKA 140720Z 35006KT 270V050 9999 OVC010 M11/M13 Q1001",
      "taf": "TAF EYKA 140513Z 1406/1506 VRB04KT 7000 BKN010"
    },
    {
      "icao": "EYPA",
      "alert": "OK",
      "vis_m": 9999,
      "fzfg": false,
      "metar_trigger": false,
      "taf_trigger": false,
      "metar": "METAR EYPA 140720Z 04008KT CAVOK M11/M15 Q1004",
      "taf": "TAF EYPA 140500Z 1406/1506 04010KT 8000 BKN015"
    },
    {
      "icao": "EYVI",
      "alert": "OK",
      "vis_m": 9999,
      "fzfg": false,
      "metar_trigger": false,
      "taf_trigger": false,
      "metar": "METAR EYVI 140650Z 34011KT 9999 OVC010 M08/M10 Q0997 NOSIG",
      "taf": "TAF EYVI 140518Z 1406/1506 35011KT 5000 -SN BKN010"
    },
    {
      "icao": "GCFV",
      "alert": "OK",
      "vis_m": 9999,
      "fzfg": false,
      "metar_trigger": false,
      "taf_trigger": false,
      "metar": "METAR GCFV 140700Z 01024KT 9999 FEW030 BKN035 17/10 Q1025",
      "taf": "TAF GCFV 140200Z 1403/1503 01020KT 9999 SCT035 TX22/1414Z TN17/1406Z"
    },
    {
      "icao": "GCLP",
      "alert": "OK",
      "vis_m": 9999,
      "fzfg": false,
      "metar_trigger": false,
      "taf_trigger": false,
      "metar": "METAR GCLP 140700Z 01024KT 9999 BKN035 17/08 Q1025 NOSIG",
      "taf": "TAF GCLP 140200Z 1403/1503 01022KT 9999 BKN025 TX22/1414Z TN16/1406Z"
    },
    {
      "icao": "GCTS",
      "alert": "OK",
      "vis_m": 9999,
      "fzfg": false,
      "metar_trigger": false,
      "taf_trigger": false,
      "metar": "METAR GCTS 140700Z 06021KT 9999 FEW035 17/07 Q1025 NOSIG",
      "taf": "TAF GCTS 140200Z 1403/1503 04015KT 9999 SCT030 TX24/1414Z TN14/1406Z"
    },
    {
      "icao": "GMAD",
      "alert": "OK",
      "vis_m": 9999,
      "fzfg": false,
      "metar_trigger": false,
      "taf_trigger": false,
      "metar": "METAR GMAD 140700Z 26009KT 230V310 CAVOK 10/07 Q1020 NOSIG",
      "taf": "TAF GMAD 140500Z 1406/1512 22006KT 8000 FEW020"
    },
    {
      "icao": "GMMN",
      "alert": "OK",
      "vis_m": 9999,
      "fzfg": false,
      "metar_trigger": false,
      "taf_trigger": false,
      "metar": "METAR GMMN 140700Z 26006KT 9999 BKN030 10/07 Q1024 NOSIG",
      "taf": "TAF GMMN 140500Z 1406/1512 30006KT 9999 BKN030"
    },
    {
      "icao": "GMMX",
      "alert": "OK",
      "vis_m": 8000,
      "fzfg": false,
      "metar_trigger": false,
      "taf_trigger": false,
      "metar": "METAR GMMX 140700Z 23007KT 8000 OVC023 11/08 Q1025 NOSIG",
      "taf": "TAF GMMX 140500Z 1406/1512 06006KT 8000 SCT023"
    },
    {
      "icao": "HEGN",
      "alert": "OK",
      "vis_m": null,
      "fzfg": false,
      "metar_trigger": false,
      "taf_trigger": false,
      "metar": "",
      "taf": "TAF HEGN 132300Z 1400/1506 29010G20KT 6000 NSC"
    },
    {
      "icao": "HEMA",
      "alert": "OK",
      "vis_m": null,
      "fzfg": false,
      "metar_trigger": false,
      "taf_trigger": false,
      "metar": "",
      "taf": "TAF HEMA 132300Z 1400/1506 27010G20KT 6000 NSC"
    },
    {
      "icao": "HESH",
      "alert": "OK",
      "vis_m": null,
      "fzfg": false,
      "metar_trigger": false,
      "taf_trigger": false,
      "metar": "",
      "taf": "TAF HESH 132300Z 1400/1506 28010G20KT 6000 NSC"
    },
    {
      "icao": "HESX",
      "alert": "OK",
      "vis_m": null,
      "fzfg": false,
      "metar_trigger": false,
      "taf_trigger": false,
      "metar": "",
      "taf": "TAF HESX 132300Z 1400/1506 22015KT 6000 NSC"
    },
    {
      "icao": "LATI",
      "alert": "OK",
      "vis_m": 9999,
      "fzfg": false,
      "metar_trigger": false,
      "taf_trigger": false,
      "metar": "METAR LATI 140720Z 15004KT 110V170 9999 FEW045 BKN070 11/08 Q1002 NOSIG",
      "taf": "TAF LATI 140500Z 1406/1506 VRB04KT 9999 SCT030 BKN070 TX16/1412Z TN08/1505Z"
    },
    {
      "icao": "LBPD",
      "alert": "OK",
      "vis_m": 9999,
      "fzfg": false,
      "metar_trigger": false,
      "taf_trigger": false,
      "metar": "METAR LBPD 140700Z AUTO 15006KT 9999 NCD 09/04 Q1004 NOSIG",
      "taf": "TAF LBPD 140500Z 1406/1506 28010KT CAVOK"
    },
    {
      "icao": "LBSF",
      "alert": "OK",
      "vis_m": 9999,
      "fzfg": false,
      "metar_trigger": false,
      "taf_trigger": false,
      "metar": "METAR LBSF 140700Z 00000KT CAVOK 05/03 Q1003 NOSIG",
      "taf": "TAF LBSF 140500Z 1406/1506 VRB04KT CAVOK"
    },
    {
      "icao": "LBWN",
      "alert": "OK",
      "vis_m": 9999,
      "fzfg": false,
      "metar_trigger": false,
      "taf_trigger": false,
      "metar": "METAR LBWN 140700Z 28010KT CAVOK 09/06 Q1002 NOSIG",
      "taf": "TAF LBWN 140500Z 1406/1506 29010KT 9999 SCT040"
    },
    {
      "icao": "LCLK",
      "alert": "OK",
      "vis_m": 9999,
      "fzfg": false,
      "metar_trigger": false,
      "taf_trigger": false,
      "metar": "METAR LCLK 140700Z 22013KT 9999 FEW020 FEW025CB 18/14 Q1008 NOSIG RMK CB TO N",
      "taf": "TAF LCLK 140530Z 1406/1506 23010KT 9999 FEW025"
    },
    {
      "icao": "LCPH",
      "alert": "OK",
      "vis_m": 7000,
      "fzfg": false,
      "metar_trigger": false,
      "taf_trigger": false,
      "metar": "METAR LCPH 140700Z 27018KT 250V320 7000 FEW025TCU SCT030 BKN035 18/14 Q1009 NOSIG",
      "taf": "TAF LCPH 140530Z 1406/1506 29020KT 8000 FEW025 SCT045"
    },
    {
      "icao": "LEAL",
      "alert": "OK",
      "vis_m": 9999,
      "fzfg": false,
      "metar_trigger": false,
      "taf_trigger": false,
      "metar": "METAR LEAL 140700Z 30023G35KT CAVOK 13/00 Q1002 NOSIG",
      "taf": "TAF LEAL 140500Z 1406/1506 29015KT CAVOK TX21/1413Z TN10/1406Z"
    },
    {
      "icao": "LEBB",
      "alert": "OK",
      "vis_m": 9999,
      "fzfg": false,
      "metar_trigger": false,
      "taf_trigger": false,
      "metar": "SPECI LEBB 140717Z 31023G35KT 270V340 9999 -SHRA BKN022 SCT026TCU BKN033 09/07 Q1009 RESHRA TEMPO 3000 SHRA",
      "taf": "TAF LEBB 140500Z 1406/1506 30009KT 9999 SCT010 BKN020 TX11/1412Z TN08/1424Z"
    },
    {
      "icao": "LEBL",
      "alert": "OK",
      "vis_m": 9999,
      "fzfg": false,
      "metar_trigger": false,
      "taf_trigger": false,
      "metar": "METAR LEBL 140700Z 01005KT 310V070 9999 FEW015 SCT040 10/04 Q0993 NOSIG",
      "taf": "TAF LEBL 140500Z 1406/1506 32013KT 9999 FEW035 TX18/1413Z TN09/1406Z"
    },
    {
      "icao": "LECH",
      "alert": "OK",
      "vis_m": 9999,
      "fzfg": false,
      "metar_trigger": false,
      "taf_trigger": false,
      "metar": "METAR LECH 140700Z AUTO 33034G56KT 280V020 CAVOK 11/M02 Q0994",
      "taf": ""
    },
    {
      "icao": "LEMD",
      "alert": "OK",
      "vis_m": 9999,
      "fzfg": false,
      "metar_trigger": false,
      "taf_trigger": false,
      "metar": "METAR LEMD 140700Z 34010G20KT 300V030 9999 FEW070 04/M04 Q1009 WS R32R NOSIG",
      "taf": ""
    },
    {
      "icao": "LEMG",
      "alert": "OK",
      "vis_m": 9999,
      "fzfg": false,
      "metar_trigger": false,
      "taf_trigger": false,
      "metar": "METAR LEMG 140700Z 30017G27KT 9999 SCT049 BKN057 10/03 Q1014 NOSIG",
      "taf": "TAF LEMG 140500Z 1406/1506 31018KT 9999 SCT040 TX17/1414Z TN09/1407Z"
    },
    {
      "icao": "LEVC",
      "alert": "OK",
      "vis_m": 9999,
      "fzfg": false,
      "metar_trigger": false,
      "taf_trigger": false,
      "metar": "METAR LEVC 140700Z 29016KT CAVOK 13/M02 Q1000 NOSIG",
      "taf": "TAF LEVC 140500Z 1406/1506 29012KT CAVOK TX20/1414Z TN11/1406Z"
    },
    {
      "icao": "LEXJ",
      "alert": "OK",
      "vis_m": 9000,
      "fzfg": false,
      "metar_trigger": false,
      "taf_trigger": false,
      "metar": "METAR LEXJ 140700Z 33028G46KT 300V010 9000 -SHRA FEW014 BKN025 FEW028TCU 10/06 Q1012",
      "taf": ""
    },
    {
      "icao": "LEZG",
      "alert": "OK",
      "vis_m": 9999,
      "fzfg": false,
      "metar_trigger": false,
      "taf_trigger": false,
      "metar": "METAR LEZG 140700Z 30024KT 9999 SCT045 07/03 Q1003 NOSIG",
      "taf": ""
    },
    {
      "icao": "LEZL",
      "alert": "OK",
      "vis_m": 9999,
      "fzfg": false,
      "metar_trigger": false,
      "taf_trigger": false,
      "metar": "METAR LEZL 140700Z 33016KT CAVOK 10/02 Q1017 NOSIG",
      "taf": ""
    },
    {
      "icao": "LFBD",
      "alert": "OK",
      "vis_m": 9999,
      "fzfg": false,
      "metar_trigger": false,
      "taf_trigger": false,
      "metar": "METAR LFBD 140700Z AUTO 34018KT 310V010 9999 OVC021 08/05 Q1003 TEMPO 3000 SHRA BKN020TCU BECMG 34015G25KT",
      "taf": "TAF LFBD 140500Z 1406/1512 31010KT 9999 BKN020 TX11/1512Z TN02/1504Z"
    },
    {
      "icao": "LFLL",
      "alert": "OK",
      "vis_m": 9999,
      "fzfg": false,
      "metar_trigger": false,
      "taf_trigger": false,
      "metar": "METAR LFLL 140700Z 35012KT 9999 BKN009 BKN066 07/06 Q0994 NOSIG",
      "taf": "TAF LFLL 140500Z 1406/1512 34006KT 9999 BKN040"
    },
    {
      "icao": "LFLS",
      "alert": "OK",
      "vis_m": 9999,
      "fzfg": false,
      "metar_trigger": false,
      "taf_trigger": false,
      "metar": "METAR LFLS 140700Z AUTO VRB02KT 9999 OVC009 06/05 Q0993 TEMPO 4000 BKN012 BECMG 34012KT",
      "taf": "TAF LFLS 140200Z 1403/1503 VRB03KT 6000 SCT010 OVC050"
    },
    {
      "icao": "LFMN",
      "alert": "OK",
      "vis_m": 9999,
      "fzfg": false,
      "metar_trigger": false,
      "taf_trigger": false,
      "metar": "METAR LFMN 140700Z 33012KT 9999 -RA BKN060 09/06 Q0988 BECMG NSW",
      "taf": "TAF LFMN 140200Z 1403/1509 02015KT 9999 -RA BKN040"
    },
    {
      "icao": "LFOB",
      "alert": "OK",
      "vis_m": 9999,
      "fzfg": false,
      "metar_trigger": false,
      "taf_trigger": false,
      "metar": "METAR LFOB 140700Z AUTO 01015KT 9999 OVC023 01/M02 Q1007 BECMG 02015G25KT",
      "taf": "TAF LFOB 140500Z 1406/1506 02015G25KT 9999 OVC012"
    },
    {
      "icao": "LFPO",
      "alert": "OK",
      "vis_m": 8000,
      "fzfg": false,
      "metar_trigger": false,
      "taf_trigger": false,
      "metar": "METAR LFPO 140700Z 01016KT 8000 OVC013 02/M01 Q1005 TEMPO 01015G25KT",
      "taf": "TAF LFPO 140500Z 1406/1512 02015G25KT 8000 OVC012"
    },
    {
      "icao": "LFSB",
      "alert": "OK",
      "vis_m": 9999,
      "fzfg": false,
      "metar_trigger": false,
      "taf_trigger": false,
      "metar": "METAR LFSB 140700Z AUTO 34007KT 9999 BKN006 OVC011 06/05 Q0996 TEMPO 4000 BR BKN003",
      "taf": "TAF LFSB 140500Z 1406/1506 35006KT 9999 BKN007"
    },
    {
      "icao": "LGAV",
      "alert": "OK",
      "vis_m": 9999,
      "fzfg": false,
      "metar_trigger": false,
      "taf_trigger": false,
      "metar": "METAR LGAV 140650Z 25005KT 9999 FEW020 15/08 Q1006 NOSIG",
      "taf": "TAF LGAV 140500Z 1406/1506 28012KT 9999 SCT025"
    },
    {
      "icao": "LGTS",
      "alert": "OK",
      "vis_m": 9999,
      "fzfg": false,
      "metar_trigger": false,
      "taf_trigger": false,
      "metar": "METAR LGTS 140650Z VRB02KT 9999 FEW020 09/07 Q1005 NOSIG",
      "taf": ""
    },
    {
      "icao": "LHBP",
      "alert": "OK",
      "vis_m": 9999,
      "fzfg": false,
      "metar_trigger": false,
      "taf_trigger": false,
      "metar": "METAR LHBP 140700Z 11004KT CAVOK 04/03 Q0999 NOSIG",
      "taf": "TAF LHBP 140515Z 1406/1506 12006KT CAVOK"
    },
    {
      "icao": "LHDC",
      "alert": "OK",
      "vis_m": 7000,
      "fzfg": false,
      "metar_trigger": false,
      "taf_trigger": false,
      "metar": "METAR LHDC 140645Z AUTO 18006KT 7000 FEW041 03/02 Q1001 TEMPO 4000 BR",
      "taf": "TAF LHDC 140515Z 1406/1415 16005KT CAVOK"
    },
    {
      "icao": "LIBD",
      "alert": "OK",
      "vis_m": 9999,
      "fzfg": false,
      "metar_trigger": false,
      "taf_trigger": false,
      "metar": "METAR LIBD 140650Z 18005KT CAVOK 12/09 Q0998",
      "taf": "TAF LIBD 140500Z 1406/1506 16013KT 9999 SCT030"
    },
    {
      "icao": "LIBG",
      "alert": "OK",
      "vis_m": 8000,
      "fzfg": false,
      "metar_trigger": false,
      "taf_trigger": false,
      "metar": "SPECI LIBG 140655Z 17006KT 8000 SCT020 12/11 Q0999",
      "taf": "TAF LIBG 140500Z 1408/1415 15014KT 9999 BKN025"
    },
    {
      "icao": "LIBP",
      "alert": "OK",
      "vis_m": 9999,
      "fzfg": false,
      "metar_trigger": false,
      "taf_trigger": false,
      "metar": "METAR LIBP 140650Z AUTO VRB02KT 9999 FEW230/// 08/07 Q0993",
      "taf": "TAF LIBP 140500Z 1406/1506 VRB05KT 9999 OVC020"
    },
    {
      "icao": "LIBR",
      "alert": "OK",
      "vis_m": 9999,
      "fzfg": false,
      "metar_trigger": false,
      "taf_trigger": false,
      "metar": "METAR LIBR 140650Z 16009KT CAVOK 12/10 Q0999",
      "taf": "TAF LIBR 140500Z 1406/1506 15015KT 9999 SCT030"
    },
    {
      "icao": "LICA",
      "alert": "OK",
      "vis_m": 9999,
      "fzfg": false,
      "metar_trigger": false,
      "taf_trigger": false,
      "metar": "METAR LICA 140650Z AUTO 06009KT 9999 FEW061/// BKN079/// 12/08 Q0999",
      "taf": "TAF LICA 140500Z 1406/1506 08016KT 9999 SCT020 SCT060"
    },
    {
      "icao": "LICC",
      "alert": "OK",
      "vis_m": 9999,
      "fzfg": false,
      "metar_trigger": false,
      "taf_trigger": false,
      "metar": "METAR LICC 140650Z 05006KT 9999 BKN080 13/09 Q1000",
      "taf": "TAF LICC 140500Z 1406/1506 VRB05KT 9999 SCT030"
    },
    {
      "icao": "LICJ",
      "alert": "OK",
      "vis_m": 9999,
      "fzfg": false,
      "metar_trigger": false,
      "taf_trigger": false,
      "metar": "METAR LICJ 140650Z AUTO 18008KT 9999 OVC066/// 15/09 Q0996",
      "taf": "TAF LICJ 140500Z 1406/1506 20012KT 9999 SCT030"
    },
    {
      "icao": "LIMC",
      "alert": "OK",
      "vis_m": 9999,
      "fzfg": false,
      "metar_trigger": false,
      "taf_trigger": false,
      "metar": "METAR LIMC 140650Z 36010KT 9999 -RA BKN060 07/06 Q0993 NOSIG",
      "taf": "TAF LIMC 140500Z 1406/1512 01010KT 7000 RA OVC040"
    },
    {
      "icao": "LIME",
      "alert": "OK",
      "vis_m": 9999,
      "fzfg": false,
      "metar_trigger": false,
      "taf_trigger": false,
      "metar": "METAR LIME 140650Z VRB02KT 9999 -RA BKN040 08/05 Q0993 NOSIG",
      "taf": "TAF LIME 140500Z 1406/1506 VRB06KT 7000 RA OVC045"
    },
    {
      "icao": "LIMF",
      "alert": "OK",
      "vis_m": 9999,
      "fzfg": false,
      "metar_trigger": false,
      "taf_trigger": false,
      "metar": "METAR LIMF 140650Z 31009KT 9999 OVC030 07/04 Q0994",
      "taf": "TAF LIMF 140500Z 1406/1506 34010KT 6000 RA OVC035"
    },
    {
      "icao": "LIMJ",
      "alert": "OK",
      "vis_m": 9999,
      "fzfg": false,
      "metar_trigger": false,
      "taf_trigger": false,
      "metar": "METAR LIMJ 140650Z 03009KT 9999 -RA SCT040 BKN050 10/07 Q0990",
      "taf": "TAF LIMJ 140500Z 1406/1506 01016G28KT 6000 RA OVC040"
    },
    {
      "icao": "LIPE",
      "alert": "OK",
      "vis_m": 3500,
      "fzfg": false,
      "metar_trigger": false,
      "taf_trigger": false,
      "metar": "METAR LIPE 140650Z 10005KT 3500 -RA BR FEW045 SCT060 08/08 Q0992",
      "taf": "TAF LIPE 140500Z 1406/1506 02007KT 1200 RA OVC010"
    },
    {
      "icao": "LIPH",
      "alert": "OK",
      "vis_m": 8000,
      "fzfg": false,
      "metar_trigger": false,
      "taf_trigger": false,
      "metar": "METAR LIPH 140650Z 04006KT 010V070 8000 BKN020 BKN080 09/07 Q0995",
      "taf": "TAF LIPH 140500Z 1406/1506 05007KT 6000 BKN014"
    },
    {
      "icao": "LIPQ",
      "alert": "OK",
      "vis_m": 9999,
      "fzfg": false,
      "metar_trigger": false,
      "taf_trigger": false,
      "metar": "METAR LIPQ 140650Z AUTO 05003KT 9999 SCT130/// 08/06 Q0995",
      "taf": "TAF LIPQ 140500Z 1406/1506 02007KT 6000 BKN020"
    },
    {
      "icao": "LIPR",
      "alert": "OK",
      "vis_m": 9999,
      "fzfg": false,
      "metar_trigger": false,
      "taf_trigger": false,
      "metar": "METAR LIPR 140650Z 18004KT 9999 -RA BKN060 10/07 Q0993",
      "taf": "TAF LIPR 140500Z 1406/1506 14008KT 4000 RA BKN020"
    },
    {
      "icao": "LIPX",
      "alert": "OK",
      "vis_m": 7000,
      "fzfg": false,
      "metar_trigger": false,
      "taf_trigger": false,
      "metar": "METAR LIPX 140650Z 11009KT 7000 -RA OVC035 09/07 Q0994",
      "taf": "TAF LIPX 140500Z 1406/1506 08010KT 7000 RA BKN050"
    },
    {
      "icao": "LIPY",
      "alert": "OK",
      "vis_m": 9999,
      "fzfg": false,
      "metar_trigger": false,
      "taf_trigger": false,
      "metar": "METAR LIPY 140650Z AUTO 34003KT 300V010 9999 FEW075/// BKN130/// 10/07 Q0993",
      "taf": "TAF LIPY 140500Z 1406/1506 16008KT 4000 RA OVC010"
    },
    {
      "icao": "LIPZ",
      "alert": "OK",
      "vis_m": 9000,
      "fzfg": false,
      "metar_trigger": false,
      "taf_trigger": false,
      "metar": "METAR LIPZ 140650Z 04010KT 9000 -RA FEW025 BKN065 08/07 Q0994 NOSIG",
      "taf": "TAF LIPZ 140500Z 1406/1512 04011KT 7000 SCT015"
    },
    {
      "icao": "LIRF",
      "alert": "OK",
      "vis_m": 7000,
      "fzfg": false,
      "metar_trigger": false,
      "taf_trigger": false,
      "metar": "METAR LIRF 140650Z 18015KT 7000 -TSRA SCT020CB BKN025 14/11 Q0990 RESHRA TEMPO TSRA",
      "taf": "TAF LIRF 140500Z 1406/1512 18018KT 9999 BKN020"
    },
    {
      "icao": "LIRN",
      "alert": "OK",
      "vis_m": 9999,
      "fzfg": false,
      "metar_trigger": false,
      "taf_trigger": false,
      "metar": "METAR LIRN 140650Z 18006KT 110V230 9999 SCT020 BKN040 13/11 Q0996 TEMPO SHRA",
      "taf": "TAF LIRN 140500Z 1406/1506 17010KT 9999 BKN030"
    },
    {
      "icao": "LIRP",
      "alert": "OK",
      "vis_m": 9999,
      "fzfg": false,
      "metar_trigger": false,
      "taf_trigger": false,
      "metar": "METAR LIRP 140645Z 09012KT 9999 -RA SCT030 BKN040 11/10 Q0988 NOSIG",
      "taf": "TAF LIRP 140500Z 1406/1506 09018KT 9999 RA SCT020 BKN040"
    },
    {
      "icao": "LIRZ",
      "alert": "OK",
      "vis_m": 9999,
      "fzfg": false,
      "metar_trigger": false,
      "taf_trigger": false,
      "metar": "METAR LIRZ 140650Z AUTO 03005KT 9999 -RA BKN034/// 08/08 Q0992",
      "taf": "TAF LIRZ 140500Z 1406/1506 13010KT 9999 BKN030"
    },
    {
      "icao": "LJLJ",
      "alert": "OK",
      "vis_m": 9999,
      "fzfg": false,
      "metar_trigger": false,
      "taf_trigger": false,
      "metar": "METAR LJLJ 140700Z VRB02KT 9999 SCT002 SCT050 BKN120 02/02 Q0996 NOSIG",
      "taf": "TAF LJLJ 140500Z 1406/1506 VRB02KT 9999 SCT050"
    },
    {
      "icao": "LKMT",
      "alert": "OK",
      "vis_m": 3500,
      "fzfg": false,
      "metar_trigger": false,
      "taf_trigger": false,
      "metar": "METAR LKMT 140700Z 01006KT 3500 BR OVC005 03/03 Q1000 NOSIG",
      "taf": "TAF LKMT 140500Z 1406/1506 VRB02KT 2000 BR BKN005"
    },
    {
      "icao": "LKPR",
      "alert": "OK",
      "vis_m": 5000,
      "fzfg": false,
      "metar_trigger": false,
      "taf_trigger": false,
      "metar": "METAR LKPR 140700Z 36008KT 5000 BR OVC002 01/01 Q1000 NOSIG",
      "taf": ""
    },
    {
      "icao": "LLBG",
      "alert": "OK",
      "vis_m": 1300,
      "fzfg": false,
      "metar_trigger": false,
      "taf_trigger": false,
      "metar": "METAR LLBG 140720Z 19009KT 1300 R08/1700/ R12/1200/ R21/1300/ R26/1500/ ///// Q////",
      "taf": "TAF LLBG 140510Z 1406/1506 19010KT 1800 DU NSC"
    },
    {
      "icao": "LMML",
      "alert": "OK",
      "vis_m": 9999,
      "fzfg": false,
      "metar_trigger": false,
      "taf_trigger": false,
      "metar": "METAR LMML 140715Z 16014KT CAVOK 16/13 Q0997 NOSIG",
      "taf": "TAF LMML 140500Z 1406/1506 16012KT 9999 FEW020"
    },
    {
      "icao": "LOWW",
      "alert": "OK",
      "vis_m": 9999,
      "fzfg": false,
      "metar_trigger": false,
      "taf_trigger": false,
      "metar": "METAR LOWW 140650Z 33003KT 200V010 CAVOK 03/01 Q0997 NOSIG",
      "taf": "TAF LOWW 140515Z 1406/1512 VRB03KT 9999 BKN050 TX07/1415Z TN01/1507Z"
    },
    {
      "icao": "LPFR",
      "alert": "OK",
      "vis_m": 9999,
      "fzfg": false,
      "metar_trigger": false,
      "taf_trigger": false,
      "metar": "METAR LPFR 140700Z 31012G22KT CAVOK 11/03 Q1022",
      "taf": "TAF LPFR 140500Z 1406/1506 31015KT CAVOK"
    },
    {
      "icao": "LPMA",
      "alert": "OK",
      "vis_m": 9999,
      "fzfg": false,
      "metar_trigger": false,
      "taf_trigger": false,
      "metar": "METAR LPMA 140700Z 01012KT 9999 SCT016 15/07 Q1029",
      "taf": "TAF LPMA 140500Z 1406/1506 02012KT 9999 SCT015"
    },
    {
      "icao": "LPPR",
      "alert": "OK",
      "vis_m": 9999,
      "fzfg": false,
      "metar_trigger": false,
      "taf_trigger": false,
      "metar": "METAR LPPR 140700Z 36007KT 330V040 9999 -SHRA FEW025 SCT035 09/04 Q1022",
      "taf": "TAF LPPR 140500Z 1406/1506 35013KT 9999 FEW020 SCT035"
    },
    {
      "icao": "LPPS",
      "alert": "OK",
      "vis_m": 9999,
      "fzfg": false,
      "metar_trigger": false,
      "taf_trigger": false,
      "metar": "METAR LPPS 140700Z 01008KT 9999 SCT015 SCT030 15/08 Q1029",
      "taf": "TAF LPPS 140500Z 1406/1512 36015KT 9999 SCT015 SCT030"
    },
    {
      "icao": "LPPT",
      "alert": "OK",
      "vis_m": 9999,
      "fzfg": false,
      "metar_trigger": false,
      "taf_trigger": false,
      "metar": "METAR LPPT 140700Z 34008KT 9999 FEW035 10/05 Q1023",
      "taf": "TAF LPPT 140500Z 1406/1512 33013KT 9999 FEW035"
    },
    {
      "icao": "LQBK",
      "alert": "OK",
      "vis_m": 9999,
      "fzfg": false,
      "metar_trigger": false,
      "taf_trigger": false,
      "metar": "METAR LQBK 140700Z VRB02KT CAVOK 00/00 Q0998 NOSIG",
      "taf": "TAF LQBK 140500Z 1406/1506 15005KT CAVOK TX13/1412Z TN01/1406Z"
    },
    {
      "icao": "LQSA",
      "alert": "OK",
      "vis_m": 500,
      "fzfg": false,
      "metar_trigger": false,
      "taf_trigger": false,
      "metar": "METAR LQSA 140700Z VRB03KT 0500 R11/0700N FG VV002 01/01 Q0999 NOSIG",
      "taf": "TAF LQSA 140500Z 1406/1506 14008KT 0800 FG BKN003 TX13/1413Z TN01/1406Z"
    },
    {
      "icao": "LQTZ",
      "alert": "OK",
      "vis_m": 5000,
      "fzfg": false,
      "metar_trigger": false,
      "taf_trigger": false,
      "metar": "METAR LQTZ 140700Z VRB02KT 5000 BR NSC M01/M01 Q0999",
      "taf": "TAF LQTZ 140500Z 1406/1506 16005KT 7000 NSC TX14/1413Z TNM02/1406Z"
    },
    {
      "icao": "LRBC",
      "alert": "OK",
      "vis_m": 50,
      "fzfg": false,
      "metar_trigger": false,
      "taf_trigger": false,
      "metar": "METAR LRBC 140700Z VRB02KT 0050 R34/0200N FG VV001 01/01 Q1001",
      "taf": "TAF LRBC 140500Z 1406/1415 VRB04KT 0100 FG VV001"
    },
    {
      "icao": "LRBS",
      "alert": "OK",
      "vis_m": 200,
      "fzfg": false,
      "metar_trigger": false,
      "taf_trigger": false,
      "metar": "METAR LRBS 140700Z 23005KT 200V310 0200 R07/0600N FG VV001 03/03 Q1002 NOSIG",
      "taf": "TAF LRBS 140500Z 1406/1506 25008KT 0300 FG OVC001"
    },
    {
      "icao": "LRBV",
      "alert": "OK",
      "vis_m": 9999,
      "fzfg": false,
      "metar_trigger": false,
      "taf_trigger": false,
      "metar": "METAR LRBV 140700Z VRB03KT 9999 FEW020 SCT029 05/02 Q1001",
      "taf": "TAF LRBV 140500Z 1406/1415 29008KT 9999 SCT015 BKN030"
    },
    {
      "icao": "LRCL",
      "alert": "OK",
      "vis_m": 9999,
      "fzfg": false,
      "metar_trigger": false,
      "taf_trigger": false,
      "metar": "METAR LRCL 140700Z 00000KT CAVOK 01/M00 Q1001",
      "taf": "TAF LRCL 140500Z 1406/1415 VRB04KT 5000 BR NSC"
    },
    {
      "icao": "LRCV",
      "alert": "OK",
      "vis_m": 8000,
      "fzfg": false,
      "metar_trigger": false,
      "taf_trigger": false,
      "metar": "METAR LRCV 140700Z 25003KT 220V290 8000 NSC 04/04 Q1002",
      "taf": "TAF LRCV 140500Z 1406/1415 VRB04KT 3000 BR NSC"
    },
    {
      "icao": "LRIA",
      "alert": "OK",
      "vis_m": 100,
      "fzfg": false,
      "metar_trigger": false,
      "taf_trigger": false,
      "metar": "METAR LRIA 140700Z 26003KT 0100 R14/0250N FG VV001 02/01 Q1000",
      "taf": "TAF LRIA 140500Z 1406/1415 VRB04KT 0800 FG OVC002"
    },
    {
      "icao": "LROP",
      "alert": "OK",
      "vis_m": 300,
      "fzfg": false,
      "metar_trigger": false,
      "taf_trigger": false,
      "metar": "METAR LROP 140700Z 23006KT 0300 R08R/0400N R08L/0400N FG VV002 03/03 Q1002 NOSIG",
      "taf": "TAF LROP 140500Z 1406/1506 25008KT 0300 FG OVC001"
    },
    {
      "icao": "LRSB",
      "alert": "OK",
      "vis_m": 9999,
      "fzfg": false,
      "metar_trigger": false,
      "taf_trigger": false,
      "metar": "METAR LRSB 140700Z VRB01KT CAVOK 04/00 Q1001",
      "taf": "TAF LRSB 140500Z 1406/1506 VRB04KT CAVOK"
    },
    {
      "icao": "LRSM",
      "alert": "OK",
      "vis_m": 9999,
      "fzfg": false,
      "metar_trigger": false,
      "taf_trigger": false,
      "metar": "METAR LRSM 140700Z AUTO 00000KT 9999 FEW065/// 04/03 Q1001",
      "taf": ""
    },
    {
      "icao": "LRSV",
      "alert": "OK",
      "vis_m": 9999,
      "fzfg": false,
      "metar_trigger": false,
      "taf_trigger": false,
      "metar": "METAR LRSV 140700Z 00000KT CAVOK 06/03 Q0999",
      "taf": "TAF LRSV 140500Z 1406/1415 27005KT CAVOK"
    },
    {
      "icao": "LRTM",
      "alert": "OK",
      "vis_m": 250,
      "fzfg": false,
      "metar_trigger": false,
      "taf_trigger": false,
      "metar": "METAR LRTM 140700Z 00000KT 0250 R07/0450N FG FEW001 SCT003 01/00 Q1002",
      "taf": "TAF LRTM 140500Z 1406/1415 VRB04KT 0300 FG BKN001"
    },
    {
      "icao": "LRTR",
      "alert": "OK",
      "vis_m": 3500,
      "fzfg": true,
      "metar_trigger": false,
      "taf_trigger": false,
      "metar": "METAR LRTR 140700Z 11005KT 3500 BR FEW005 01/01 Q1002",
      "taf": "TAF LRTR 140500Z 1406/1506 11006KT 0600 FZFG BKN004"
    },
    {
      "icao": "LTAC",
      "alert": "OK",
      "vis_m": 9999,
      "fzfg": false,
      "metar_trigger": false,
      "taf_trigger": false,
      "metar": "METAR LTAC 140650Z 24012KT 9999 -SHRA FEW015 BKN025 BKN100 07/05 Q1003 NOSIG RMK RWY21C 23011KT RWY03L 24010KT RWY21R 22012KT RWY03R 23010KT RWY21L 23011KT",
      "taf": "TAF LTAC 140440Z 1406/1506 20007KT 9999 SCT040 BKN100"
    },
    {
      "icao": "LTFM",
      "alert": "OK",
      "vis_m": 9999,
      "fzfg": false,
      "metar_trigger": false,
      "taf_trigger": false,
      "metar": "METAR LTFM 140650Z 21012KT 9999 FEW005 SCT018 BKN035 08/07 Q1004 NOSIG RMK RWY17L 21013KT RWY34L 21013KT RWY16R 22012KT RWY36 21012KT RWY18 21015KT",
      "taf": "TAF LTFM 140440Z 1406/1512 VRB02KT 9999 BKN016 BKN027"
    },
    {
      "icao": "LUKK",
      "alert": "OK",
      "vis_m": 4300,
      "fzfg": false,
      "metar_trigger": false,
      "taf_trigger": false,
      "metar": "METAR LUKK 140700Z 31005KT 280V350 4300 2000SW BR OVC002 03/03 Q0999 NOSIG",
      "taf": "TAF LUKK 140518Z 1406/1506 29006KT 9999 BKN007"
    },
    {
      "icao": "LWOH",
      "alert": "OK",
      "vis_m": 9999,
      "fzfg": false,
      "metar_trigger": false,
      "taf_trigger": false,
      "metar": "METAR LWOH 140720Z 32003KT 290V360 9999 SCT013 BKN035 05/04 Q1003",
      "taf": "TAF LWOH 140500Z 1406/1506 VRB10KT 9999 SCT020 BKN040"
    },
    {
      "icao": "LWSK",
      "alert": "OK",
      "vis_m": 9999,
      "fzfg": false,
      "metar_trigger": false,
      "taf_trigger": false,
      "metar": "METAR LWSK 140720Z VRB02KT CAVOK 04/03 Q1004 NOSIG",
      "taf": "TAF LWSK 140500Z 1406/1506 VRB02KT 9999 FEW040"
    },
    {
      "icao": "LYBE",
      "alert": "OK",
      "vis_m": 9999,
      "fzfg": false,
      "metar_trigger": false,
      "taf_trigger": false,
      "metar": "METAR LYBE 140700Z 10007KT CAVOK 06/03 Q1000 NOSIG",
      "taf": "TAF LYBE 140500Z 1406/1506 14010KT CAVOK TX15/1413Z TN05/1406Z"
    },
    {
      "icao": "LYNI",
      "alert": "OK",
      "vis_m": 9999,
      "fzfg": false,
      "metar_trigger": false,
      "taf_trigger": false,
      "metar": "METAR LYNI 140700Z VRB01KT CAVOK 04/04 Q1003 NOSIG",
      "taf": "TAF LYNI 140500Z 1406/1506 13006KT 4000 BR NSC TX15/1413Z TN02/1406Z"
    },
    {
      "icao": "LYPG",
      "alert": "OK",
      "vis_m": 9999,
      "fzfg": false,
      "metar_trigger": false,
      "taf_trigger": false,
      "metar": "METAR LYPG 140700Z 26004KT 240V300 9999 FEW017 SCT040 OVC070 08/06 Q1002 NOSIG",
      "taf": "TAF LYPG 140500Z 1406/1506 14005KT 8000 SCT030 BKN070 TX15/1414Z TN08/1406Z"
    },
    {
      "icao": "LZIB",
      "alert": "OK",
      "vis_m": 9999,
      "fzfg": false,
      "metar_trigger": false,
      "taf_trigger": false,
      "metar": "METAR LZIB 140700Z 03008KT CAVOK 05/02 Q0997 NOSIG",
      "taf": "TAF LZIB 140515Z 1406/1506 04006KT 9999 SCT030"
    },
    {
      "icao": "LZKZ",
      "alert": "OK",
      "vis_m": 2000,
      "fzfg": false,
      "metar_trigger": false,
      "taf_trigger": false,
      "metar": "METAR LZKZ 140700Z VRB02KT 2000 R01/0650D BR BCFG SCT002 BKN005 02/02 Q1000 BECMG 5000 BR SCT006 BKN025",
      "taf": "TAF LZKZ 140515Z 1406/1506 VRB02KT 9999 FEW018"
    },
    {
      "icao": "LZTT",
      "alert": "OK",
      "vis_m": 9999,
      "fzfg": false,
      "metar_trigger": false,
      "taf_trigger": false,
      "metar": "METAR LZTT 140700Z VRB01KT 9999 FEW026 SCT050 M01/M01 Q0999 NOSIG",
      "taf": "TAF LZTT 140515Z 1406/1506 VRB02KT 9999 SCT045"
    },
    {
      "icao": "OEJN",
      "alert": "OK",
      "vis_m": 9999,
      "fzfg": false,
      "metar_trigger": false,
      "taf_trigger": false,
      "metar": "METAR OEJN 140700Z 31003KT CAVOK 29/15 Q1013 NOSIG",
      "taf": "TAF OEJN 140500Z 1406/1512 32010KT CAVOK"
    },
    {
      "icao": "OEMA",
      "alert": "OK",
      "vis_m": 9999,
      "fzfg": false,
      "metar_trigger": false,
      "taf_trigger": false,
      "metar": "METAR OEMA 140700Z 29006KT CAVOK 25/04 Q1018 NOSIG",
      "taf": "TAF OEMA 140500Z 1406/1512 29010KT CAVOK"
    },
    {
      "icao": "OJAI",
      "alert": "OK",
      "vis_m": 900,
      "fzfg": false,
      "metar_trigger": false,
      "taf_trigger": false,
      "metar": "METAR OJAI 140700Z 25018KT 0900 DS NSC 14/02 Q1015 NOSIG",
      "taf": "TAF OJAI 140430Z 1406/1512 26022KT 1000 BLDU NSC"
    },
    {
      "icao": "OMAA",
      "alert": "OK",
      "vis_m": 9999,
      "fzfg": false,
      "metar_trigger": false,
      "taf_trigger": false,
      "metar": "METAR OMAA 140700Z 11004KT 080V140 CAVOK 29/03 Q1017 NOSIG",
      "taf": "TAF OMAA 140500Z 1406/1512 VRB02KT 8000 NSC"
    },
    {
      "icao": "OMDB",
      "alert": "OK",
      "vis_m": 9999,
      "fzfg": false,
      "metar_trigger": false,
      "taf_trigger": false,
      "metar": "METAR OMDB 140700Z 15003KT 070V240 CAVOK 29/03 Q1017 NOSIG",
      "taf": "TAF OMDB 140500Z 1406/1512 16005KT CAVOK"
    },
    {
      "icao": "UAAA",
      "alert": "OK",
      "vis_m": 4000,
      "fzfg": false,
      "metar_trigger": false,
      "taf_trigger": false,
      "metar": "METAR UAAA 140700Z 02002MPS 350V050 4000 -FZRA BR BKN050CB OVC100 M01/M03 Q1021 NOSIG",
      "taf": "TAF UAAA 140504Z 1406/1506 24003MPS 3100 -SHRASN BR FU BKN011CB OVC030 TX00/1409Z TNM09/1503Z"
    },
    {
      "icao": "UBBB",
      "alert": "OK",
      "vis_m": 9999,
      "fzfg": false,
      "metar_trigger": false,
      "taf_trigger": false,
      "metar": "METAR UBBB 140700Z 16014KT CAVOK 15/06 Q1003 NOSIG",
      "taf": "TAF UBBB 140458Z 1406/1506 20014KT CAVOK TX17/1410Z TN07/1501Z"
    },
    {
      "icao": "UDSG",
      "alert": "OK",
      "vis_m": 9999,
      "fzfg": false,
      "metar_trigger": false,
      "taf_trigger": false,
      "metar": "METAR UDSG 140700Z 16011KT 9999 -RA OVC033 03/01 Q1011 NOSIG",
      "taf": ""
    },
    {
      "icao": "UDYZ",
      "alert": "OK",
      "vis_m": 9000,
      "fzfg": false,
      "metar_trigger": false,
      "taf_trigger": false,
      "metar": "METAR UDYZ 140700Z 27004KT 190V320 9000 -SHRA BKN043CB 08/04 Q1009 NOSIG",
      "taf": "TAF UDYZ 140500Z 1406/1506 24006KT 9999 SCT040"
    },
    {
      "icao": "UGKO",
      "alert": "OK",
      "vis_m": 9999,
      "fzfg": false,
      "metar_trigger": false,
      "taf_trigger": false,
      "metar": "METAR UGKO 140700Z 08020KT CAVOK 17/05 Q1000 NOSIG",
      "taf": "TAF UGKO 140500Z 1406/1506 08010KT 9999 BKN080 TX19/1411Z TN10/1504Z"
    }
  ]
}