{
  "ts_utc": "2026-01-28T04:55:55Z",
  "threshold_m": 150,
  "source": "stations_override.txt (ICAO list) + aviationweather.gov (METAR/TAF raw)",
  "station_count": 159,
  "stations": [
    {
      "icao": "BIKF",
      "alert": "OK",
      "vis_m": 9999,
      "fzfg": false,
      "metar_trigger": false,
      "taf_trigger": false,
      "metar": "METAR BIKF 280430Z 07012KT CAVOK 04/M05 Q0999",
      "taf": "TAF BIKF 280446Z 2806/2906 07014KT CAVOK TX04/2815Z TN02/2807Z"
    },
    {
      "icao": "BKPR",
      "alert": "OK",
      "vis_m": 1500,
      "fzfg": true,
      "metar_trigger": false,
      "taf_trigger": false,
      "metar": "METAR BKPR 280430Z 18003KT 150V240 1500 R35/0400U BCFG FEW005 M02/M02 Q1006 BECMG 0300 FZFG BKN002",
      "taf": "TAF BKPR 272330Z 2800/2824 17005KT CAVOK"
    },
    {
      "icao": "EBCI",
      "alert": "OK",
      "vis_m": 5000,
      "fzfg": false,
      "metar_trigger": false,
      "taf_trigger": false,
      "metar": "METAR EBCI 280450Z 22004KT 5000 BR SCT044 05/04 Q0994 TEMPO 4000 BR",
      "taf": ""
    },
    {
      "icao": "EDDB",
      "alert": "OK",
      "vis_m": 9999,
      "fzfg": false,
      "metar_trigger": false,
      "taf_trigger": false,
      "metar": "METAR EDDB 280450Z AUTO 06007KT 9999 OVC015 M01/M03 Q1000 TEMPO BKN015",
      "taf": "TAF EDDB 272300Z 2800/2824 11007KT 7000 SCT004 BKN015"
    },
    {
      "icao": "EDDH",
      "alert": "OK",
      "vis_m": 9999,
      "fzfg": false,
      "metar_trigger": false,
      "taf_trigger": false,
      "metar": "METAR EDDH 280450Z AUTO 10009KT 9999 OVC014 01/M01 Q0999 NOSIG",
      "taf": ""
    },
    {
      "icao": "EDDK",
      "alert": "OK",
      "vis_m": 9000,
      "fzfg": false,
      "metar_trigger": false,
      "taf_trigger": false,
      "metar": "METAR EDDK 280450Z AUTO VRB02KT 9000 OVC014 04/03 Q0994 NOSIG",
      "taf": "TAF EDDK 272300Z 2800/2906 10004KT 9999 OVC020"
    },
    {
      "icao": "EDDN",
      "alert": "OK",
      "vis_m": 7000,
      "fzfg": false,
      "metar_trigger": false,
      "taf_trigger": false,
      "metar": "METAR EDDN 280450Z AUTO 05004KT 7000 NSC 01/M00 Q0993",
      "taf": "TAF EDDN 272300Z 2800/2824 09006KT 9999 BKN030"
    },
    {
      "icao": "EDDS",
      "alert": "OK",
      "vis_m": 7000,
      "fzfg": false,
      "metar_trigger": false,
      "taf_trigger": false,
      "metar": "METAR EDDS 280450Z AUTO 24002KT 7000 OVC014 03/02 Q0991",
      "taf": "TAF EDDS 272300Z 2800/2824 34004KT 9000 SCT015 BKN030"
    },
    {
      "icao": "EDFH",
      "alert": "OK",
      "vis_m": 500,
      "fzfg": false,
      "metar_trigger": false,
      "taf_trigger": false,
      "metar": "METAR EDFH 280420Z 30003KT 0500 R21/0600N FG VV/// 03/03 Q0992",
      "taf": "TAF EDFH 272300Z 2800/2824 14011KT 2000 -RADZ OVC002"
    },
    {
      "icao": "EDJA",
      "alert": "OK",
      "vis_m": 9999,
      "fzfg": false,
      "metar_trigger": false,
      "taf_trigger": false,
      "metar": "METAR EDJA 280420Z 02006KT CAVOK 00/M01 Q0990",
      "taf": "TAF EDJA 280200Z 2803/2812 03006KT 9999 SCT060"
    },
    {
      "icao": "EDLW",
      "alert": "OK",
      "vis_m": 2800,
      "fzfg": false,
      "metar_trigger": false,
      "taf_trigger": false,
      "metar": "METAR EDLW 280420Z 02004KT 2800 -DZ BR FEW010 OVC012 02/02 Q0993",
      "taf": "TAF EDLW 280420Z 2805/2824 06007KT 3000 BR OVC010"
    },
    {
      "icao": "EDNY",
      "alert": "OK",
      "vis_m": 9999,
      "fzfg": false,
      "metar_trigger": false,
      "taf_trigger": false,
      "metar": "METAR EDNY 280420Z AUTO 00000KT 9999 // FEW096/// OVC110/// 02/00 Q0990",
      "taf": "TAF EDNY 280200Z 2803/2812 04004KT 9999 SCT060"
    },
    {
      "icao": "EDSB",
      "alert": "OK",
      "vis_m": 3000,
      "fzfg": false,
      "metar_trigger": false,
      "taf_trigger": false,
      "metar": "METAR EDSB 280420Z 01004KT 3000 DZ BR SCT002 BKN013 OVC015 04/04 Q0992",
      "taf": "TAF EDSB 272300Z 2800/2824 30004KT 9000 SCT007 BKN015"
    },
    {
      "icao": "EETN",
      "alert": "OK",
      "vis_m": 9999,
      "fzfg": false,
      "metar_trigger": false,
      "taf_trigger": false,
      "metar": "METAR EETN 280450Z 07010KT 9999 OVC009 M07/M09 Q1013 NOSIG",
      "taf": "TAF EETN 272330Z 2800/2824 08010KT 9999 OVC008"
    },
    {
      "icao": "EFTU",
      "alert": "OK",
      "vis_m": 9999,
      "fzfg": false,
      "metar_trigger": false,
      "taf_trigger": false,
      "metar": "METAR EFTU 280450Z AUTO 08005KT 040V110 9999 BKN005 M13/M14 Q1015",
      "taf": "TAF EFTU 280227Z 2803/2903 08008KT 9999 OVC003"
    },
    {
      "icao": "EGBB",
      "alert": "OK",
      "vis_m": 9999,
      "fzfg": false,
      "metar_trigger": false,
      "taf_trigger": false,
      "metar": "METAR EGBB 280450Z 14002KT CAVOK 01/00 Q0991",
      "taf": "TAF EGBB 272257Z 2800/2824 18005KT 9999 FEW025"
    },
    {
      "icao": "EGGP",
      "alert": "OK",
      "vis_m": 9999,
      "fzfg": false,
      "metar_trigger": false,
      "taf_trigger": false,
      "metar": "METAR EGGP 280450Z AUTO 12004KT 090V150 9999 NCD 04/02 Q0990",
      "taf": "TAF EGGP 272253Z 2800/2824 17008KT 9999 SCT030"
    },
    {
      "icao": "EGGW",
      "alert": "OK",
      "vis_m": 8000,
      "fzfg": false,
      "metar_trigger": false,
      "taf_trigger": false,
      "metar": "METAR EGGW 280450Z AUTO 19003KT 160V220 8000 NCD 02/02 Q0991",
      "taf": ""
    },
    {
      "icao": "EGKK",
      "alert": "OK",
      "vis_m": 8000,
      "fzfg": false,
      "metar_trigger": false,
      "taf_trigger": false,
      "metar": "METAR EGKK 280450Z 29002KT 8000 NSC 01/01 Q0992",
      "taf": ""
    },
    {
      "icao": "EGNM",
      "alert": "OK",
      "vis_m": 2000,
      "fzfg": false,
      "metar_trigger": false,
      "taf_trigger": false,
      "metar": "METAR EGNM 280450Z 16003KT 130V200 2000 BR FEW002 01/01 Q0990",
      "taf": ""
    },
    {
      "icao": "EGPD",
      "alert": "OK",
      "vis_m": 7000,
      "fzfg": false,
      "metar_trigger": false,
      "taf_trigger": false,
      "metar": "METAR EGPD 280450Z COR AUTO 14016G27KT 100V160 7000 -RA OVC009 05/04 Q0990 RERA TEMPO 3000 RADZ BKN006",
      "taf": ""
    },
    {
      "icao": "EGPF",
      "alert": "OK",
      "vis_m": 9999,
      "fzfg": false,
      "metar_trigger": false,
      "taf_trigger": false,
      "metar": "METAR EGPF 280450Z AUTO 09005KT 9999 BKN047 06/04 Q0987",
      "taf": "TAF EGPF 272303Z 2800/2824 07017KT 9999 SCT035"
    },
    {
      "icao": "EHBK",
      "alert": "OK",
      "vis_m": 9999,
      "fzfg": false,
      "metar_trigger": false,
      "taf_trigger": false,
      "metar": "METAR EHBK 280425Z AUTO 21004KT 9999 FEW009/// BKN011/// OVC014/// 04/04 Q0994",
      "taf": ""
    },
    {
      "icao": "EHEH",
      "alert": "OK",
      "vis_m": null,
      "fzfg": false,
      "metar_trigger": false,
      "taf_trigger": false,
      "metar": "",
      "taf": "TAF EHEH 272358Z 2800/2906 12006KT 2000 BR BKN015"
    },
    {
      "icao": "EKBI",
      "alert": "OK",
      "vis_m": 9000,
      "fzfg": false,
      "metar_trigger": false,
      "taf_trigger": false,
      "metar": "METAR EKBI 280450Z AUTO 08015KT 9000 -SN OVC009/// M01/M02 Q1002",
      "taf": "TAF EKBI 280227Z 2803/2903 08014KT 9999 BKN012"
    },
    {
      "icao": "EKCH",
      "alert": "OK",
      "vis_m": 9999,
      "fzfg": false,
      "metar_trigger": false,
      "taf_trigger": false,
      "metar": "METAR EKCH 280450Z 07016KT 9999 OVC014 M01/M03 Q1005 NOSIG",
      "taf": "TAF EKCH 280227Z 2803/2903 05015KT 9999 OVC012"
    },
    {
      "icao": "ENAL",
      "alert": "OK",
      "vis_m": 9999,
      "fzfg": false,
      "metar_trigger": false,
      "taf_trigger": false,
      "metar": "METAR ENAL 280420Z AUTO 21005KT 9999 NCD M03/M06 Q1006",
      "taf": "TAF ENAL 280200Z 2803/2812 15008KT CAVOK"
    },
    {
      "icao": "ENBR",
      "alert": "OK",
      "vis_m": 9999,
      "fzfg": false,
      "metar_trigger": false,
      "taf_trigger": false,
      "metar": "METAR ENBR 280350Z AUTO 00000KT 9999 NCD M07/M10 Q1006 RMK WIND 1200FT 26007KT",
      "taf": "TAF ENBR 272300Z 2800/2824 VRB03KT CAVOK"
    },
    {
      "icao": "ENGM",
      "alert": "OK",
      "vis_m": 9999,
      "fzfg": false,
      "metar_trigger": false,
      "taf_trigger": false,
      "metar": "METAR ENGM 280420Z 01005KT 9999 -SN OVC024 M09/M12 Q1013",
      "taf": "TAF ENGM 272300Z 2800/2824 02005KT 9999 -SN BKN015"
    },
    {
      "icao": "ENHD",
      "alert": "OK",
      "vis_m": 9999,
      "fzfg": false,
      "metar_trigger": false,
      "taf_trigger": false,
      "metar": "METAR ENHD 280420Z AUTO 10011KT 9999 BKN039/// M04/M09 Q1005",
      "taf": "TAF ENHD 280200Z 2803/2812 11005KT CAVOK"
    },
    {
      "icao": "ENTC",
      "alert": "OK",
      "vis_m": 9999,
      "fzfg": false,
      "metar_trigger": false,
      "taf_trigger": false,
      "metar": "METAR ENTC 280420Z 23010KT 9999 BKN046 M07/M10 Q1013 RMK WIND 2600FT 29013KT",
      "taf": ""
    },
    {
      "icao": "ENTO",
      "alert": "OK",
      "vis_m": 9999,
      "fzfg": false,
      "metar_trigger": false,
      "taf_trigger": false,
      "metar": "METAR ENTO 280350Z AUTO 36009KT 9999 -SN OVC023/// M07/M10 Q1012",
      "taf": "TAF ENTO 272300Z 2800/2824 02008KT 9999 -SN BKN020"
    },
    {
      "icao": "ENVA",
      "alert": "OK",
      "vis_m": 9999,
      "fzfg": false,
      "metar_trigger": false,
      "taf_trigger": false,
      "metar": "METAR ENVA 280350Z AUTO 09004KT 050V120 9999 NCD M11/M15 Q1010 RMK WIND 670FT 10012KT",
      "taf": "TAF ENVA 272300Z 2800/2824 12008KT CAVOK"
    },
    {
      "icao": "ENZV",
      "alert": "OK",
      "vis_m": 9999,
      "fzfg": false,
      "metar_trigger": false,
      "taf_trigger": false,
      "metar": "METAR ENZV 280420Z 09013KT CAVOK M03/M15 Q1005",
      "taf": "TAF ENZV 272300Z 2800/2824 11008KT CAVOK"
    },
    {
      "icao": "EPGD",
      "alert": "OK",
      "vis_m": 9999,
      "fzfg": false,
      "metar_trigger": false,
      "taf_trigger": false,
      "metar": "METAR EPGD 280430Z 01007KT 320V030 9999 -SN OVC005 M02/M03 Q1001",
      "taf": ""
    },
    {
      "icao": "EPKK",
      "alert": "OK",
      "vis_m": 3600,
      "fzfg": false,
      "metar_trigger": false,
      "taf_trigger": false,
      "metar": "METAR EPKK 280430Z VRB01KT 3600 BR FEW035 BKN040 M00/M02 Q0998",
      "taf": "TAF EPKK 280230Z 2803/2903 VRB02KT 6000 BKN040"
    },
    {
      "icao": "EPKT",
      "alert": "OK",
      "vis_m": 7000,
      "fzfg": false,
      "metar_trigger": false,
      "taf_trigger": false,
      "metar": "METAR EPKT 280430Z VRB02KT 7000 FEW033 OVC038 M00/M01 Q0998",
      "taf": "TAF EPKT 272330Z 2800/2824 VRB02KT 9999 OVC026"
    },
    {
      "icao": "EPLB",
      "alert": "OK",
      "vis_m": 3400,
      "fzfg": false,
      "metar_trigger": false,
      "taf_trigger": false,
      "metar": "METAR EPLB 280430Z 08003KT 3400 BR NSC M03/M03 Q0999",
      "taf": ""
    },
    {
      "icao": "EPMO",
      "alert": "OK",
      "vis_m": 1700,
      "fzfg": false,
      "metar_trigger": false,
      "taf_trigger": false,
      "metar": "METAR EPMO 280430Z 36002KT 1700 -SN BR SCT005 BKN007 M02/M02 Q1000",
      "taf": ""
    },
    {
      "icao": "EPPO",
      "alert": "OK",
      "vis_m": 2200,
      "fzfg": false,
      "metar_trigger": false,
      "taf_trigger": false,
      "metar": "METAR EPPO 280430Z 04004KT 2200 BR BKN003 M01/M02 Q1001",
      "taf": ""
    },
    {
      "icao": "EPRA",
      "alert": "OK",
      "vis_m": 3500,
      "fzfg": false,
      "metar_trigger": false,
      "taf_trigger": false,
      "metar": "METAR EPRA 280430Z 35004KT 3500 -SN BR SCT004 BKN010 M01/M01 Q0999",
      "taf": "TAF EPRA 280230Z 2803/2812 04005KT 3000 -SN BR BKN014"
    },
    {
      "icao": "EPRZ",
      "alert": "OK",
      "vis_m": 9999,
      "fzfg": false,
      "metar_trigger": false,
      "taf_trigger": false,
      "metar": "METAR EPRZ 280430Z 20003KT 9999 SCT043 M04/M04 Q0999",
      "taf": "TAF EPRZ 272330Z 2800/2824 27006KT 2000 BR NSC"
    },
    {
      "icao": "EPSC",
      "alert": "OK",
      "vis_m": 5000,
      "fzfg": false,
      "metar_trigger": false,
      "taf_trigger": false,
      "metar": "METAR EPSC 280430Z VRB02KT 5000 BR OVC013 M01/M02 Q1002",
      "taf": "TAF EPSC 272330Z 2800/2824 04003KT 6000 BKN015"
    },
    {
      "icao": "EPSY",
      "alert": "OK",
      "vis_m": 1800,
      "fzfg": false,
      "metar_trigger": false,
      "taf_trigger": false,
      "metar": "METAR EPSY 280430Z 01003KT 1800 BR OVC001 M01/M01 Q1000",
      "taf": "TAF EPSY 280230Z 2803/2812 VRB02KT 1500 BR BKN003 OVC005"
    },
    {
      "icao": "EPWA",
      "alert": "OK",
      "vis_m": 4400,
      "fzfg": false,
      "metar_trigger": false,
      "taf_trigger": false,
      "metar": "METAR EPWA 280430Z 02003KT 4400 -SN BR BKN006 M00/M01 Q1000 NOSIG",
      "taf": ""
    },
    {
      "icao": "EPWR",
      "alert": "OK",
      "vis_m": 6000,
      "fzfg": false,
      "metar_trigger": false,
      "taf_trigger": false,
      "metar": "METAR EPWR 280430Z 02003KT 6000 FEW005 BKN014 00/M00 Q0999",
      "taf": "TAF EPWR 280230Z 2803/2903 03004KT 5000 BR BKN030"
    },
    {
      "icao": "ESGG",
      "alert": "OK",
      "vis_m": 9999,
      "fzfg": false,
      "metar_trigger": false,
      "taf_trigger": false,
      "metar": "METAR ESGG 280450Z 07011KT 9999 SCT022 M05/M09 Q1007",
      "taf": "TAF ESGG 280230Z 2803/2903 07009KT 9999 BKN020"
    },
    {
      "icao": "ESKN",
      "alert": "OK",
      "vis_m": 9999,
      "fzfg": false,
      "metar_trigger": false,
      "taf_trigger": false,
      "metar": "METAR ESKN 280450Z 02008KT 340V050 9999 BKN031 M04/M08 Q1012",
      "taf": "TAF ESKN 280230Z 2803/2903 02009KT 9999 BKN030"
    },
    {
      "icao": "ESMS",
      "alert": "OK",
      "vis_m": 9999,
      "fzfg": false,
      "metar_trigger": false,
      "taf_trigger": false,
      "metar": "METAR ESMS 280450Z 06015KT 9999 OVC009 M01/M03 Q1004",
      "taf": "TAF ESMS 280227Z 2803/2903 07012KT 9999 OVC009"
    },
    {
      "icao": "ESSA",
      "alert": "OK",
      "vis_m": 9999,
      "fzfg": false,
      "metar_trigger": false,
      "taf_trigger": false,
      "metar": "METAR ESSA 280450Z 02006KT 9999 BKN015 M11/M12 Q1014 NOSIG",
      "taf": "TAF ESSA 280230Z 2803/2903 03007KT CAVOK"
    },
    {
      "icao": "EYKA",
      "alert": "OK",
      "vis_m": 2700,
      "fzfg": false,
      "metar_trigger": false,
      "taf_trigger": false,
      "metar": "METAR EYKA 280450Z 01005KT 340V050 2700 SN BR OVC024 M05/M06 Q1002",
      "taf": "TAF EYKA 272300Z 2800/2824 VRB04KT 5000 SN BR OVC015"
    },
    {
      "icao": "EYPA",
      "alert": "OK",
      "vis_m": 8000,
      "fzfg": false,
      "metar_trigger": false,
      "taf_trigger": false,
      "metar": "METAR EYPA 280450Z 07009KT 8000 -SN FEW034 M07/M10 Q1004",
      "taf": "TAF EYPA 272300Z 2800/2824 07010KT 8000 OVC020"
    },
    {
      "icao": "EYVI",
      "alert": "OK",
      "vis_m": 2300,
      "fzfg": false,
      "metar_trigger": false,
      "taf_trigger": false,
      "metar": "METAR EYVI 280450Z 04006KT 2300 SN BR OVC027 M05/M06 Q1000 NOSIG",
      "taf": ""
    },
    {
      "icao": "GCFV",
      "alert": "OK",
      "vis_m": 9999,
      "fzfg": false,
      "metar_trigger": false,
      "taf_trigger": false,
      "metar": "METAR GCFV 280430Z AUTO 18003KT 140V260 9999 OVC020 18/14 Q1020",
      "taf": "TAF GCFV 280200Z 2803/2903 26009KT 9999 SCT030 TX22/2814Z TN14/2806Z"
    },
    {
      "icao": "GCLP",
      "alert": "OK",
      "vis_m": 9999,
      "fzfg": false,
      "metar_trigger": false,
      "taf_trigger": false,
      "metar": "METAR GCLP 280430Z VRB02KT CAVOK 14/11 Q1020 NOSIG",
      "taf": "TAF GCLP 280200Z 2803/2903 VRB05KT 9999 FEW030 TX22/2814Z TN15/2806Z"
    },
    {
      "icao": "GCTS",
      "alert": "OK",
      "vis_m": 9999,
      "fzfg": false,
      "metar_trigger": false,
      "taf_trigger": false,
      "metar": "METAR GCTS 280430Z 30005KT 9999 FEW030 16/12 Q1020 NOSIG",
      "taf": "TAF GCTS 280200Z 2803/2903 VRB05KT 9999 FEW030 TX22/2814Z TN16/2806Z"
    },
    {
      "icao": "GMAD",
      "alert": "OK",
      "vis_m": 8000,
      "fzfg": false,
      "metar_trigger": false,
      "taf_trigger": false,
      "metar": "METAR GMAD 280430Z 11004KT 8000 -RA BKN006 SCT020 14/13 Q1020 NOSIG",
      "taf": "TAF GMAD 272300Z 2800/2906 22005KT 8000 SCT020 BKN080"
    },
    {
      "icao": "GMMN",
      "alert": "OK",
      "vis_m": 9999,
      "fzfg": false,
      "metar_trigger": false,
      "taf_trigger": false,
      "metar": "METAR GMMN 280430Z 22017KT 180V250 9999 BKN008 13/12 Q1015 NOSIG",
      "taf": "TAF GMMN 272300Z 2800/2906 22014KT 9999 BKN010 BKN020"
    },
    {
      "icao": "GMMX",
      "alert": "OK",
      "vis_m": 8000,
      "fzfg": false,
      "metar_trigger": false,
      "taf_trigger": false,
      "metar": "METAR GMMX 280430Z 28003KT 230V330 8000 BKN020 13/11 Q1018 NOSIG",
      "taf": "TAF GMMX 271700Z 2718/2824 06006KT 8000 SCT023 SCT080"
    },
    {
      "icao": "HEGN",
      "alert": "OK",
      "vis_m": 9999,
      "fzfg": false,
      "metar_trigger": false,
      "taf_trigger": false,
      "metar": "METAR HEGN 280400Z 36004KT CAVOK 16/M09 Q1017 NOSIG",
      "taf": "TAF HEGN 272300Z 2800/2906 28008KT CAVOK"
    },
    {
      "icao": "HEMA",
      "alert": "OK",
      "vis_m": 9999,
      "fzfg": false,
      "metar_trigger": false,
      "taf_trigger": false,
      "metar": "METAR HEMA 280400Z 26010KT CAVOK 17/M10 Q1017 NOSIG",
      "taf": "TAF HEMA 272300Z 2800/2906 24008KT CAVOK"
    },
    {
      "icao": "HESH",
      "alert": "OK",
      "vis_m": 9999,
      "fzfg": false,
      "metar_trigger": false,
      "taf_trigger": false,
      "metar": "METAR HESH 280400Z 25005KT CAVOK 18/M04 Q1018 NOSIG",
      "taf": "TAF HESH 272300Z 2800/2906 29008KT CAVOK"
    },
    {
      "icao": "HESX",
      "alert": "OK",
      "vis_m": 6000,
      "fzfg": false,
      "metar_trigger": false,
      "taf_trigger": false,
      "metar": "METAR HESX 280400Z 22008KT 6000 NSC 10/02 Q1015 NOSIG",
      "taf": "TAF HESX 272300Z 2800/2906 24009KT 6000 SCT030"
    },
    {
      "icao": "LATI",
      "alert": "OK",
      "vis_m": 9999,
      "fzfg": false,
      "metar_trigger": false,
      "taf_trigger": false,
      "metar": "METAR LATI 280450Z 16003KT 9999 SCT057 05/03 Q1008 NOSIG",
      "taf": "TAF LATI 272300Z 2800/2824 VRB05KT CAVOK TX15/2812Z TN04/2805Z"
    },
    {
      "icao": "LBPD",
      "alert": "OK",
      "vis_m": 9999,
      "fzfg": false,
      "metar_trigger": false,
      "taf_trigger": false,
      "metar": "METAR LBPD 280430Z AUTO 36003KT 9999 NCD 02/02 Q1007 NOSIG",
      "taf": "TAF LBPD 272300Z 2800/2824 28010KT 9999 BKN040"
    },
    {
      "icao": "LBSF",
      "alert": "OK",
      "vis_m": 250,
      "fzfg": true,
      "metar_trigger": false,
      "taf_trigger": false,
      "metar": "METAR LBSF 280430Z VRB01KT 0250 R27/0300N FZFG VV001 M02/M03 Q1007 NOSIG",
      "taf": "TAF LBSF 272300Z 2800/2824 VRB04KT 9999 SCT015 BKN030"
    },
    {
      "icao": "LBWN",
      "alert": "OK",
      "vis_m": 9999,
      "fzfg": false,
      "metar_trigger": false,
      "taf_trigger": false,
      "metar": "METAR LBWN 280430Z AUTO 28003KT 240V300 9999 4800W FEW010/// 03/03 Q1007 NOSIG",
      "taf": "TAF LBWN 272300Z 2800/2824 27010KT 9999 SCT008 BKN015"
    },
    {
      "icao": "LCLK",
      "alert": "OK",
      "vis_m": 9999,
      "fzfg": false,
      "metar_trigger": false,
      "taf_trigger": false,
      "metar": "METAR LCLK 280430Z 31006KT 9999 FEW030 SCT050 11/10 Q1011 NOSIG",
      "taf": "TAF LCLK 272330Z 2800/2900 32007KT 9999 FEW020 SCT040"
    },
    {
      "icao": "LCPH",
      "alert": "OK",
      "vis_m": 8000,
      "fzfg": false,
      "metar_trigger": false,
      "taf_trigger": false,
      "metar": "METAR LCPH 280430Z 04007KT 010V080 8000 FEW030 SCT050 11/08 Q1010 NOSIG",
      "taf": "TAF LCPH 272330Z 2800/2900 19010KT 8000 FEW025 SCT050"
    },
    {
      "icao": "LEAL",
      "alert": "OK",
      "vis_m": 9999,
      "fzfg": false,
      "metar_trigger": false,
      "taf_trigger": false,
      "metar": "METAR LEAL 280430Z 25011KT CAVOK 10/03 Q1003 NOSIG",
      "taf": "TAF LEAL 272300Z 2800/2824 27015KT 9999 FEW040 TX20/2814Z TN10/2807Z"
    },
    {
      "icao": "LEBB",
      "alert": "OK",
      "vis_m": 9999,
      "fzfg": false,
      "metar_trigger": false,
      "taf_trigger": false,
      "metar": "METAR LEBB 280430Z VRB02KT CAVOK 03/02 Q0997 NOSIG",
      "taf": "TAF LEBB 272300Z 2800/2824 22009KT 9999 FEW030 TX10/2816Z TN04/2806Z"
    },
    {
      "icao": "LEBL",
      "alert": "OK",
      "vis_m": 9999,
      "fzfg": false,
      "metar_trigger": false,
      "taf_trigger": false,
      "metar": "METAR LEBL 280430Z 20009KT 9999 FEW025 10/02 Q0997 NOSIG",
      "taf": ""
    },
    {
      "icao": "LECH",
      "alert": "OK",
      "vis_m": 9000,
      "fzfg": false,
      "metar_trigger": false,
      "taf_trigger": false,
      "metar": "METAR LECH 280430Z AUTO 25016KT 9000 NSC 07/M00 Q0999",
      "taf": ""
    },
    {
      "icao": "LEMD",
      "alert": "OK",
      "vis_m": 9999,
      "fzfg": false,
      "metar_trigger": false,
      "taf_trigger": false,
      "metar": "METAR LEMD 280430Z 16006KT 9999 -RA FEW009 BKN017 03/03 Q1000 NOSIG",
      "taf": ""
    },
    {
      "icao": "LEMG",
      "alert": "OK",
      "vis_m": 9999,
      "fzfg": false,
      "metar_trigger": false,
      "taf_trigger": false,
      "metar": "METAR LEMG 280430Z 29003KT 9999 -RA FEW020 SCT056 BKN076 10/08 Q1006 NOSIG",
      "taf": "TAF LEMG 272300Z 2800/2824 VRB02KT 9999 FEW025 TX19/2814Z TN14/2807Z"
    },
    {
      "icao": "LEVC",
      "alert": "OK",
      "vis_m": 9999,
      "fzfg": false,
      "metar_trigger": false,
      "taf_trigger": false,
      "metar": "METAR LEVC 280430Z 29013KT 270V330 9999 FEW040 10/03 Q1001 NOSIG",
      "taf": "TAF LEVC 272300Z 2800/2824 27018KT 9999 FEW040 TX18/2814Z TN08/2807Z"
    },
    {
      "icao": "LEXJ",
      "alert": "OK",
      "vis_m": 9999,
      "fzfg": false,
      "metar_trigger": false,
      "taf_trigger": false,
      "metar": "METAR LEXJ 280430Z 18005KT 130V260 CAVOK 07/M01 Q0995",
      "taf": "TAF LEXJ 280200Z 2803/2903 20009KT 9999 SCT040 TX11/2815Z TN06/2803Z"
    },
    {
      "icao": "LEZG",
      "alert": "OK",
      "vis_m": 9999,
      "fzfg": false,
      "metar_trigger": false,
      "taf_trigger": false,
      "metar": "METAR LEZG 280430Z VRB02KT 9999 BKN050 06/01 Q1000 NOSIG",
      "taf": ""
    },
    {
      "icao": "LEZL",
      "alert": "OK",
      "vis_m": 8000,
      "fzfg": false,
      "metar_trigger": false,
      "taf_trigger": false,
      "metar": "METAR LEZL 280430Z 22020KT 8000 -RA SCT009 BKN012 14/13 Q1002 RERA NOSIG",
      "taf": "TAF LEZL 280200Z 2803/2903 22018KT 9999 BKN025 TX18/2815Z TN10/2807Z"
    },
    {
      "icao": "LFBD",
      "alert": "OK",
      "vis_m": 9999,
      "fzfg": false,
      "metar_trigger": false,
      "taf_trigger": false,
      "metar": "METAR LFBD 280430Z AUTO 19003KT 9999 BKN033 OVC050 06/05 Q0996 TEMPO VRB15G25KT 4000 SHRA BKN010 BKN030TCU",
      "taf": "TAF LFBD 272300Z 2800/2906 VRB03KT 9999 BKN030 TX11/2813Z TN05/2806Z"
    },
    {
      "icao": "LFLL",
      "alert": "OK",
      "vis_m": 9999,
      "fzfg": false,
      "metar_trigger": false,
      "taf_trigger": false,
      "metar": "METAR LFLL 280430Z 34006KT 9999 -RA FEW013 BKN023 06/05 Q0992 NOSIG",
      "taf": "TAF LFLL 272300Z 2800/2906 32009KT 8000 -RA FEW004 OVC020"
    },
    {
      "icao": "LFLS",
      "alert": "OK",
      "vis_m": 7000,
      "fzfg": false,
      "metar_trigger": false,
      "taf_trigger": false,
      "metar": "METAR LFLS 280430Z AUTO 07004KT 350V100 7000 RA OVC013/// ///TCU 04/03 Q0992 TEMPO 1000 SN BKN004",
      "taf": "TAF LFLS 280200Z 2803/2903 30007KT 8000 -RA OVC016"
    },
    {
      "icao": "LFMN",
      "alert": "OK",
      "vis_m": 6000,
      "fzfg": false,
      "metar_trigger": false,
      "taf_trigger": false,
      "metar": "METAR LFMN 280430Z 03011KT 350V060 6000 -RA FEW008 SCT020 BKN040 10/09 Q0990 BECMG NSW",
      "taf": ""
    },
    {
      "icao": "LFOB",
      "alert": "OK",
      "vis_m": 9999,
      "fzfg": false,
      "metar_trigger": false,
      "taf_trigger": false,
      "metar": "METAR LFOB 280430Z AUTO VRB03KT CAVOK 01/01 Q0994 TEMPO 0600 FG VV///",
      "taf": "TAF LFOB 272300Z 2800/2824 20005KT 9999 SCT030"
    },
    {
      "icao": "LFPO",
      "alert": "OK",
      "vis_m": 6000,
      "fzfg": false,
      "metar_trigger": false,
      "taf_trigger": false,
      "metar": "METAR LFPO 280430Z 17002KT 6000 R06/1400U NSC 04/04 Q0994 TEMPO 4000 BR",
      "taf": "TAF LFPO 272300Z 2800/2906 24005KT CAVOK"
    },
    {
      "icao": "LFSB",
      "alert": "OK",
      "vis_m": 3200,
      "fzfg": false,
      "metar_trigger": false,
      "taf_trigger": false,
      "metar": "METAR LFSB 280430Z AUTO 32005KT 3200 -RA BR BKN011 BKN020 OVC033 03/03 Q0992 TEMPO 1500 BR BKN002",
      "taf": "TAF LFSB 272300Z 2800/2824 17004KT 9999 FEW010 BKN040"
    },
    {
      "icao": "LGAV",
      "alert": "OK",
      "vis_m": 9999,
      "fzfg": false,
      "metar_trigger": false,
      "taf_trigger": false,
      "metar": "METAR LGAV 280450Z 19011KT 160V230 9999 FEW025 12/05 Q1010 NOSIG",
      "taf": "TAF LGAV 272300Z 2800/2824 27010KT 9999 FEW018 SCT030"
    },
    {
      "icao": "LGTS",
      "alert": "OK",
      "vis_m": 9999,
      "fzfg": false,
      "metar_trigger": false,
      "taf_trigger": false,
      "metar": "METAR LGTS 280420Z VRB03KT 9999 FEW010 02/02 Q1008 NOSIG",
      "taf": "TAF LGTS 272300Z 2800/2824 34005KT 9999 FEW020"
    },
    {
      "icao": "LHBP",
      "alert": "OK",
      "vis_m": 9999,
      "fzfg": false,
      "metar_trigger": false,
      "taf_trigger": false,
      "metar": "METAR LHBP 280430Z 12007KT 9999 OVC046 02/M00 Q1000 NOSIG",
      "taf": "TAF LHBP 272315Z 2800/2824 11007KT CAVOK"
    },
    {
      "icao": "LHDC",
      "alert": "OK",
      "vis_m": 650,
      "fzfg": false,
      "metar_trigger": false,
      "taf_trigger": false,
      "metar": "METAR LHDC 280415Z AUTO 13004KT 100V160 0650 R04/0750N FG VV002 02/02 Q1003",
      "taf": ""
    },
    {
      "icao": "LIBD",
      "alert": "OK",
      "vis_m": 9999,
      "fzfg": false,
      "metar_trigger": false,
      "taf_trigger": false,
      "metar": "METAR LIBD 280420Z 17003KT CAVOK 09/05 Q1004",
      "taf": "TAF LIBD 272300Z 2800/2824 19006KT CAVOK"
    },
    {
      "icao": "LIBG",
      "alert": "OK",
      "vis_m": null,
      "fzfg": false,
      "metar_trigger": false,
      "taf_trigger": false,
      "metar": "",
      "taf": "TAF LIBG 271700Z 2718/2803 VRB05KT 9999 FEW040"
    },
    {
      "icao": "LIBP",
      "alert": "OK",
      "vis_m": 9999,
      "fzfg": false,
      "metar_trigger": false,
      "taf_trigger": false,
      "metar": "METAR LIBP 280420Z AUTO VRB02KT 9999 SCT120/// BKN170/// 08/04 Q0998",
      "taf": "TAF LIBP 272300Z 2800/2824 23010KT CAVOK"
    },
    {
      "icao": "LIBR",
      "alert": "OK",
      "vis_m": 9999,
      "fzfg": false,
      "metar_trigger": false,
      "taf_trigger": false,
      "metar": "METAR LIBR 280420Z 17008KT CAVOK 09/07 Q1006",
      "taf": "TAF LIBR 272300Z 2800/2824 18006KT 9999 FEW030"
    },
    {
      "icao": "LICA",
      "alert": "OK",
      "vis_m": 9999,
      "fzfg": false,
      "metar_trigger": false,
      "taf_trigger": false,
      "metar": "METAR LICA 280420Z AUTO 07009KT 9999 FEW220/// 08/07 Q1006",
      "taf": "TAF LICA 272300Z 2800/2824 VRB05KT 9999 SCT040"
    },
    {
      "icao": "LICC",
      "alert": "OK",
      "vis_m": 9999,
      "fzfg": false,
      "metar_trigger": false,
      "taf_trigger": false,
      "metar": "METAR LICC 280420Z 24008KT 9999 FEW060 10/07 Q1008",
      "taf": "TAF LICC 272300Z 2800/2824 26010KT 9999 SCT030"
    },
    {
      "icao": "LICJ",
      "alert": "OK",
      "vis_m": 9999,
      "fzfg": false,
      "metar_trigger": false,
      "taf_trigger": false,
      "metar": "METAR LICJ 280420Z 19024G34KT 9999 FEW050 16/10 Q1003",
      "taf": "TAF LICJ 272300Z 2800/2824 18018G30KT 9999 SCT040"
    },
    {
      "icao": "LIMC",
      "alert": "OK",
      "vis_m": 9999,
      "fzfg": false,
      "metar_trigger": false,
      "taf_trigger": false,
      "metar": "METAR LIMC 280420Z 01010KT 9999 -RA BKN020 04/04 Q0995 NOSIG",
      "taf": "TAF LIMC 272300Z 2800/2906 VRB04KT 3000 RA BKN014"
    },
    {
      "icao": "LIME",
      "alert": "OK",
      "vis_m": 9999,
      "fzfg": false,
      "metar_trigger": false,
      "taf_trigger": false,
      "metar": "METAR LIME 280420Z 30003KT 9999 RA BKN025 05/05 Q0995 NOSIG",
      "taf": "TAF LIME 272300Z 2800/2824 VRB04KT 3000 RA BKN014"
    },
    {
      "icao": "LIMF",
      "alert": "OK",
      "vis_m": 8000,
      "fzfg": false,
      "metar_trigger": false,
      "taf_trigger": false,
      "metar": "METAR LIMF 280420Z 29003KT 8000 DZ SCT020 OVC040 03/02 Q0995",
      "taf": "TAF LIMF 272300Z 2800/2824 VRB04KT 4000 RA BKN014"
    },
    {
      "icao": "LIMJ",
      "alert": "OK",
      "vis_m": 6000,
      "fzfg": false,
      "metar_trigger": false,
      "taf_trigger": false,
      "metar": "METAR LIMJ 280420Z 04014KT 6000 -RA BKN023 06/03 Q0992",
      "taf": "TAF LIMJ 272300Z 2800/2824 02015KT 4000 RA BKN014"
    },
    {
      "icao": "LIPE",
      "alert": "OK",
      "vis_m": 6000,
      "fzfg": false,
      "metar_trigger": false,
      "taf_trigger": false,
      "metar": "METAR LIPE 280420Z 06006KT 6000 -RA SCT035 BKN050 08/07 Q0993",
      "taf": "TAF LIPE 272300Z 2800/2824 09010KT 8000 BKN050"
    },
    {
      "icao": "LIPH",
      "alert": "OK",
      "vis_m": 2300,
      "fzfg": false,
      "metar_trigger": false,
      "taf_trigger": false,
      "metar": "METAR LIPH 280420Z AUTO 05008KT 020V080 2300 -RA BR SCT003/// OVC020/// 06/06 Q0998 RERA",
      "taf": "TAF LIPH 272300Z 2800/2824 05010KT 4000 RA BKN015"
    },
    {
      "icao": "LIPQ",
      "alert": "OK",
      "vis_m": 6000,
      "fzfg": false,
      "metar_trigger": false,
      "taf_trigger": false,
      "metar": "METAR LIPQ 280420Z AUTO 03005KT 6000 -RA OVC028/// 06/06 Q0999",
      "taf": "TAF LIPQ 272300Z 2800/2824 05007KT 4000 RA BKN030"
    },
    {
      "icao": "LIPR",
      "alert": "OK",
      "vis_m": 9999,
      "fzfg": false,
      "metar_trigger": false,
      "taf_trigger": false,
      "metar": "METAR LIPR 280420Z AUTO 13012KT 9999 BKN035/// BKN120/// 10/07 Q0995",
      "taf": "TAF LIPR 272300Z 2800/2824 13012KT 9999 BKN050"
    },
    {
      "icao": "LIPX",
      "alert": "OK",
      "vis_m": 9999,
      "fzfg": false,
      "metar_trigger": false,
      "taf_trigger": false,
      "metar": "METAR LIPX 280420Z 07008KT 9999 -RA BKN030 07/05 Q0995",
      "taf": "TAF LIPX 272300Z 2800/2824 03007KT 3000 RA BKN014"
    },
    {
      "icao": "LIPY",
      "alert": "OK",
      "vis_m": 9999,
      "fzfg": false,
      "metar_trigger": false,
      "taf_trigger": false,
      "metar": "METAR LIPY 280420Z AUTO 15007KT 100V210 9999 OVC057/// 11/06 Q0997",
      "taf": "TAF LIPY 272300Z 2800/2824 VRB05KT 9999 BKN050"
    },
    {
      "icao": "LIPZ",
      "alert": "OK",
      "vis_m": 2000,
      "fzfg": false,
      "metar_trigger": false,
      "taf_trigger": false,
      "metar": "METAR LIPZ 280420Z 05011KT 2000 -RA BR BKN012 06/05 Q0998 NOSIG",
      "taf": "TAF LIPZ 272300Z 2800/2906 04012KT 5000 RA BKN030"
    },
    {
      "icao": "LIRF",
      "alert": "OK",
      "vis_m": 5000,
      "fzfg": false,
      "metar_trigger": false,
      "taf_trigger": false,
      "metar": "METAR LIRF 280420Z 16011KT 5000 RA SCT005 BKN010 14/13 Q0998 NOSIG",
      "taf": "TAF LIRF 272300Z 2800/2906 16020G30KT 9999 RA SCT010 SCT030"
    },
    {
      "icao": "LIRN",
      "alert": "OK",
      "vis_m": 8000,
      "fzfg": false,
      "metar_trigger": false,
      "taf_trigger": false,
      "metar": "METAR LIRN 280420Z VRB04KT 8000 -RA BKN030 11/09 Q1003 NOSIG",
      "taf": "TAF LIRN 272300Z 2800/2824 17012KT 9999 SCT030"
    },
    {
      "icao": "LIRP",
      "alert": "OK",
      "vis_m": 8000,
      "fzfg": false,
      "metar_trigger": false,
      "taf_trigger": false,
      "metar": "METAR LIRP 280415Z 20011KT 8000 -RA FEW025 BKN035 14/14 Q0992 RERA NOSIG",
      "taf": "TAF LIRP 272300Z 2800/2824 09008KT 8000 -RA SCT020 BKN035"
    },
    {
      "icao": "LIRZ",
      "alert": "OK",
      "vis_m": 9999,
      "fzfg": false,
      "metar_trigger": false,
      "taf_trigger": false,
      "metar": "METAR LIRZ 280420Z AUTO 15011KT 9999 -DZRA BKN019/// 10/07 Q0996",
      "taf": "TAF LIRZ 272300Z 2800/2824 17014KT 7000 RA BKN025"
    },
    {
      "icao": "LJLJ",
      "alert": "OK",
      "vis_m": 9999,
      "fzfg": false,
      "metar_trigger": false,
      "taf_trigger": false,
      "metar": "METAR LJLJ 280430Z VRB01KT 9999 FEW008 OVC026 02/01 Q0998 NOSIG",
      "taf": "TAF LJLJ 272300Z 2800/2900 VRB02KT 7000 FEW003 BKN050"
    },
    {
      "icao": "LKMT",
      "alert": "OK",
      "vis_m": 6000,
      "fzfg": false,
      "metar_trigger": false,
      "taf_trigger": false,
      "metar": "METAR LKMT 280430Z 06003KT 050V110 6000 OVC030 M00/M01 Q0998 NOSIG",
      "taf": "TAF LKMT 272300Z 2800/2824 24004KT 8000 BKN015 OVC025"
    },
    {
      "icao": "LKPR",
      "alert": "OK",
      "vis_m": 4000,
      "fzfg": false,
      "metar_trigger": false,
      "taf_trigger": false,
      "metar": "METAR LKPR 280430Z VRB01KT 4000 BR SCT002 BKN018 M02/M02 Q0997 NOSIG",
      "taf": ""
    },
    {
      "icao": "LLBG",
      "alert": "OK",
      "vis_m": 8000,
      "fzfg": false,
      "metar_trigger": false,
      "taf_trigger": false,
      "metar": "METAR LLBG 280450Z 19010KT 8000 NSC 14/01 Q1014 TEMPO 5000 HZ",
      "taf": "TAF LLBG 272323Z 2800/2824 13005KT CAVOK"
    },
    {
      "icao": "LMML",
      "alert": "OK",
      "vis_m": 9999,
      "fzfg": false,
      "metar_trigger": false,
      "taf_trigger": false,
      "metar": "METAR LMML 280445Z 18012KT 160V220 CAVOK 15/13 Q1008 NOSIG",
      "taf": ""
    },
    {
      "icao": "LOWW",
      "alert": "OK",
      "vis_m": 1300,
      "fzfg": false,
      "metar_trigger": false,
      "taf_trigger": false,
      "metar": "METAR LOWW 280420Z 04004KT 1300 R16/1300U R29/1000N DZ BCFG SCT001 BKN002 00/00 Q0996 TEMPO 1500 BR",
      "taf": "TAF LOWW 280215Z 2803/2909 13007KT 1800 BCFG OVC002 TX02/2818Z TNM00/2805Z"
    },
    {
      "icao": "LPFR",
      "alert": "OK",
      "vis_m": 6000,
      "fzfg": false,
      "metar_trigger": false,
      "taf_trigger": false,
      "metar": "METAR LPFR 280430Z 22031G43KT 6000 -RA FEW016 SCT022 BKN040 15/12 Q1001",
      "taf": "TAF LPFR 272300Z 2800/2824 26018KT 9999 SCT025"
    },
    {
      "icao": "LPMA",
      "alert": "OK",
      "vis_m": 9999,
      "fzfg": false,
      "metar_trigger": false,
      "taf_trigger": false,
      "metar": "METAR LPMA 280430Z 34006KT 290V010 9999 FEW015 18/10 Q1015",
      "taf": ""
    },
    {
      "icao": "LPPR",
      "alert": "OK",
      "vis_m": 9000,
      "fzfg": false,
      "metar_trigger": false,
      "taf_trigger": false,
      "metar": "METAR LPPR 280430Z 06010KT 9000 RA FEW018 BKN040 08/06 Q0989",
      "taf": ""
    },
    {
      "icao": "LPPS",
      "alert": "OK",
      "vis_m": 9999,
      "fzfg": false,
      "metar_trigger": false,
      "taf_trigger": false,
      "metar": "METAR LPPS 280430Z 27018KT 9999 FEW012 17/14 Q1016",
      "taf": "TAF LPPS 272300Z 2800/2906 27015KT 9999 SCT015 SCT030"
    },
    {
      "icao": "LPPT",
      "alert": "OK",
      "vis_m": 6000,
      "fzfg": false,
      "metar_trigger": false,
      "taf_trigger": false,
      "metar": "METAR LPPT 280430Z 28025G60KT 6000 -RA FEW004 SCT006 FEW015TCU 13/10 Q0993 RERA",
      "taf": "TAF LPPT 272300Z 2800/2906 23015KT 9999 SCT020"
    },
    {
      "icao": "LQBK",
      "alert": "OK",
      "vis_m": 6000,
      "fzfg": false,
      "metar_trigger": false,
      "taf_trigger": false,
      "metar": "METAR LQBK 280430Z 16004KT 6000 NSC 01/01 Q1000 NOSIG",
      "taf": ""
    },
    {
      "icao": "LQSA",
      "alert": "OK",
      "vis_m": 8000,
      "fzfg": false,
      "metar_trigger": false,
      "taf_trigger": false,
      "metar": "METAR LQSA 280430Z VRB01KT 8000 SCT050 BKN065 M00/M00 Q1003 NOSIG",
      "taf": "TAF LQSA 272300Z 2800/2824 11005KT CAVOK TX11/2814Z TNM02/2800Z"
    },
    {
      "icao": "LQTZ",
      "alert": "OK",
      "vis_m": 9999,
      "fzfg": false,
      "metar_trigger": false,
      "taf_trigger": false,
      "metar": "METAR LQTZ 280430Z VRB02KT CAVOK M01/M01 Q1001",
      "taf": "TAF LQTZ 272300Z 2800/2824 10005KT 9999 SCT060 TX14/2813Z TNM03/2801Z"
    },
    {
      "icao": "LRBC",
      "alert": "OK",
      "vis_m": 200,
      "fzfg": true,
      "metar_trigger": false,
      "taf_trigger": false,
      "metar": "METAR LRBC 280430Z 16007KT 0200 R16/0600N FZFG VV001 M00/M00 Q1004",
      "taf": "TAF LRBC 280200Z 2803/2812 17007KT 0350 FG VV002"
    },
    {
      "icao": "LRBS",
      "alert": "OK",
      "vis_m": 1500,
      "fzfg": false,
      "metar_trigger": false,
      "taf_trigger": false,
      "metar": "METAR LRBS 280430Z 21003KT 1500 BR OVC001 03/03 Q1006 NOSIG",
      "taf": "TAF LRBS 272300Z 2800/2824 VRB04KT 1500 BR OVC001"
    },
    {
      "icao": "LRBV",
      "alert": "OK",
      "vis_m": 1800,
      "fzfg": false,
      "metar_trigger": false,
      "taf_trigger": false,
      "metar": "METAR LRBV 280430Z AUTO 07002KT 1800 0750 R21/P2000N FG OVC015/// 01/01 Q1003",
      "taf": "TAF LRBV 280200Z 2803/2812 VRB04KT 9999 BKN020"
    },
    {
      "icao": "LRCL",
      "alert": "OK",
      "vis_m": 600,
      "fzfg": false,
      "metar_trigger": false,
      "taf_trigger": false,
      "metar": "METAR LRCL 280430Z 00000KT 0600 R25/1000U FG VV002 01/00 Q1004",
      "taf": "TAF LRCL 280200Z 2803/2812 VRB04KT 0800 FG BKN002"
    },
    {
      "icao": "LRCV",
      "alert": "OK",
      "vis_m": 250,
      "fzfg": false,
      "metar_trigger": false,
      "taf_trigger": false,
      "metar": "METAR LRCV 280430Z VRB02KT 0250 R26/0250N FG VV001 00/00 Q1006",
      "taf": "TAF LRCV 280200Z 2803/2812 VRB04KT 0800 FG BKN002"
    },
    {
      "icao": "LRIA",
      "alert": "OK",
      "vis_m": 400,
      "fzfg": true,
      "metar_trigger": false,
      "taf_trigger": false,
      "metar": "METAR LRIA 280430Z 06002KT 0400 R14/0700N FZFG OVC001 M00/M01 Q1004",
      "taf": "TAF LRIA 280200Z 2803/2812 10006KT 0150 FZFG VV001"
    },
    {
      "icao": "LROP",
      "alert": "OK",
      "vis_m": 200,
      "fzfg": false,
      "metar_trigger": false,
      "taf_trigger": false,
      "metar": "METAR LROP 280430Z 21006KT 0200 R08R/0550N R08L/1200D FG OVC001 03/03 Q1005 NOSIG",
      "taf": ""
    },
    {
      "icao": "LRSB",
      "alert": "OK",
      "vis_m": 500,
      "fzfg": false,
      "metar_trigger": false,
      "taf_trigger": false,
      "metar": "METAR LRSB 280430Z 28004KT 0500 R27/0650N FG VV002 03/03 Q1004",
      "taf": ""
    },
    {
      "icao": "LRSM",
      "alert": "OK",
      "vis_m": 500,
      "fzfg": true,
      "metar_trigger": false,
      "taf_trigger": false,
      "metar": "METAR LRSM 280430Z AUTO 07004KT 0500 R19/0600N FZFG VV001 M00/M01 Q1003",
      "taf": "TAF LRSM 280200Z 2803/2812 VRB04KT 0300 FG VV001"
    },
    {
      "icao": "LRSV",
      "alert": "OK",
      "vis_m": 200,
      "fzfg": true,
      "metar_trigger": false,
      "taf_trigger": false,
      "metar": "METAR LRSV 280430Z VRB02KT 0200 R34/0200N FZFG VV001 M01/M01 Q1002",
      "taf": ""
    },
    {
      "icao": "LRTM",
      "alert": "OK",
      "vis_m": 350,
      "fzfg": false,
      "metar_trigger": false,
      "taf_trigger": false,
      "metar": "METAR LRTM 280430Z AUTO 07003KT 0350 R07/0550N FG VV000 01/01 Q1004",
      "taf": "TAF LRTM 280200Z 2803/2812 VRB04KT 0800 FG BKN002"
    },
    {
      "icao": "LRTR",
      "alert": "OK",
      "vis_m": 500,
      "fzfg": false,
      "metar_trigger": false,
      "taf_trigger": false,
      "metar": "METAR LRTR 280430Z 11012KT 0500 R11/1100D FG VV002 01/01 Q1003",
      "taf": "TAF LRTR 272300Z 2800/2824 11010KT 0300 FG VV001"
    },
    {
      "icao": "LTAC",
      "alert": "OK",
      "vis_m": 9999,
      "fzfg": false,
      "metar_trigger": false,
      "taf_trigger": false,
      "metar": "METAR LTAC 280420Z 36002KT 9999 BKN035 BKN100 04/02 Q1009 NOSIG RMK RWY21C VRB02KT RWY03L 36002KT RWY21R VRB02KT RWY03R VRB02KT RWY21L 02003KT",
      "taf": ""
    },
    {
      "icao": "LTFM",
      "alert": "OK",
      "vis_m": 9999,
      "fzfg": false,
      "metar_trigger": false,
      "taf_trigger": false,
      "metar": "METAR LTFM 280420Z 01005KT 9999 SCT006 BKN020 08/07 Q1008 NOSIG RMK RWY17L 36004KT RWY34L 33005KT RWY16R 34003KT RWY36 01004KT RWY18 01003KT",
      "taf": "TAF LTFM 272240Z 2800/2906 22010KT 9999 SCT040 BKN100"
    },
    {
      "icao": "LUKK",
      "alert": "OK",
      "vis_m": 1100,
      "fzfg": true,
      "metar_trigger": false,
      "taf_trigger": false,
      "metar": "METAR LUKK 280430Z VRB02KT 1100 0800SE R08/1900U BR PRFG OVC003 M01/M01 Q1005 TEMPO 0400 FZFG",
      "taf": "TAF LUKK 272322Z 2800/2824 15005KT 0400 FZDZ FZFG VV001"
    },
    {
      "icao": "LWOH",
      "alert": "OK",
      "vis_m": null,
      "fzfg": false,
      "metar_trigger": false,
      "taf_trigger": false,
      "metar": "",
      "taf": "TAF LWOH 280230Z 2803/2903 VRB02KT 9999 FEW040"
    },
    {
      "icao": "LWSK",
      "alert": "OK",
      "vis_m": 9999,
      "fzfg": false,
      "metar_trigger": false,
      "taf_trigger": false,
      "metar": "METAR LWSK 2804350Z VRB02KT CAVOK M02/M03 Q1009 NOSIG",
      "taf": "TAF LWSK 280230Z 2803/2903 VRB02KT CAVOK"
    },
    {
      "icao": "LYBE",
      "alert": "OK",
      "vis_m": 8000,
      "fzfg": false,
      "metar_trigger": false,
      "taf_trigger": false,
      "metar": "METAR LYBE 280430Z 12006KT 8000 NSC M01/M03 Q1003 NOSIG",
      "taf": "TAF LYBE 272300Z 2800/2824 12007KT CAVOK TX11/2812Z TN01/2803Z"
    },
    {
      "icao": "LYNI",
      "alert": "OK",
      "vis_m": 500,
      "fzfg": false,
      "metar_trigger": false,
      "taf_trigger": false,
      "metar": "METAR LYNI 280430Z 18003KT 120V230 0500 R29/0900D R11/1000N FG VV002 00/00 Q1007 NOSIG",
      "taf": "TAF LYNI 272300Z 2800/2824 20004KT 2000 BR BKN003 TX12/2812Z TNM01/2804Z"
    },
    {
      "icao": "LYPG",
      "alert": "OK",
      "vis_m": 9999,
      "fzfg": false,
      "metar_trigger": false,
      "taf_trigger": false,
      "metar": "METAR LYPG 280430Z 35005KT 9999 FEW050 05/03 Q1008 NOSIG",
      "taf": "TAF LYPG 272300Z 2800/2824 36005KT 9999 SCT040 BKN080 TX10/2813Z TN04/2805Z"
    },
    {
      "icao": "LZIB",
      "alert": "OK",
      "vis_m": 5000,
      "fzfg": false,
      "metar_trigger": false,
      "taf_trigger": false,
      "metar": "METAR LZIB 280430Z 03006KT 5000 BR SCT004 BKN007 OVC009 00/00 Q0997 NOSIG",
      "taf": ""
    },
    {
      "icao": "LZKZ",
      "alert": "OK",
      "vis_m": 400,
      "fzfg": false,
      "metar_trigger": false,
      "taf_trigger": false,
      "metar": "METAR LZKZ 280430Z 18007KT 0400 R01/1400D FG VV002 00/00 Q1001 NOSIG",
      "taf": "TAF LZKZ 272315Z 2800/2900 VRB02KT 6000 BKN025"
    },
    {
      "icao": "LZTT",
      "alert": "OK",
      "vis_m": 9999,
      "fzfg": false,
      "metar_trigger": false,
      "taf_trigger": false,
      "metar": "METAR LZTT 280430Z 27010KT 9999 BKN036 02/M02 Q0997",
      "taf": "TAF LZTT 272315Z 2800/2900 25006KT 9999 BKN025"
    },
    {
      "icao": "OEJN",
      "alert": "OK",
      "vis_m": 9999,
      "fzfg": false,
      "metar_trigger": false,
      "taf_trigger": false,
      "metar": "METAR OEJN 280400Z 00000KT CAVOK 23/17 Q1015 NOSIG",
      "taf": "TAF OEJN 272300Z 2800/2906 VRB03KT 7000 NSC"
    },
    {
      "icao": "OEMA",
      "alert": "OK",
      "vis_m": 9999,
      "fzfg": false,
      "metar_trigger": false,
      "taf_trigger": false,
      "metar": "METAR OEMA 280400Z 24010KT CAVOK 22/12 Q1017 NOSIG",
      "taf": "TAF OEMA 272300Z 2800/2906 27010KT 9999 FEW040"
    },
    {
      "icao": "OJAI",
      "alert": "OK",
      "vis_m": 3000,
      "fzfg": false,
      "metar_trigger": false,
      "taf_trigger": false,
      "metar": "METAR OJAI 280400Z 18002KT 3000 BR NSC 05/04 Q1014 NOSIG",
      "taf": "TAF OJAI 272248Z 2800/2906 26012KT 4000 HZ SCT035"
    },
    {
      "icao": "OMAA",
      "alert": "OK",
      "vis_m": 9999,
      "fzfg": false,
      "metar_trigger": false,
      "taf_trigger": false,
      "metar": "METAR OMAA 280430Z 11004KT CAVOK 16/10 Q1021 NOSIG",
      "taf": "TAF OMAA 272300Z 2800/2906 03005KT 8000 NSC"
    },
    {
      "icao": "OMDB",
      "alert": "OK",
      "vis_m": 9999,
      "fzfg": false,
      "metar_trigger": false,
      "taf_trigger": false,
      "metar": "METAR OMDB 280430Z 09006KT 050V120 CAVOK 19/10 Q1022 NOSIG",
      "taf": "TAF OMDB 272300Z 2800/2906 08005KT CAVOK"
    },
    {
      "icao": "UAAA",
      "alert": "OK",
      "vis_m": 9999,
      "fzfg": false,
      "metar_trigger": false,
      "taf_trigger": false,
      "metar": "METAR UAAA 280430Z 23002MPS 9999 SCT050CB BKN100 02/M06 Q1022 NOSIG",
      "taf": "TAF UAAA 272302Z 2800/2824 22003MPS 3100 BR FU SCT030CB BKN100 TX01/2808Z TNM05/2802Z"
    },
    {
      "icao": "UBBB",
      "alert": "OK",
      "vis_m": 9999,
      "fzfg": false,
      "metar_trigger": false,
      "taf_trigger": false,
      "metar": "METAR UBBB 280430Z 16008KT 9999 BKN045 05/03 Q1023 NOSIG",
      "taf": "TAF UBBB 272259Z 2800/2824 14012KT 9999 OVC030 TX09/2808Z TN05/2801Z"
    },
    {
      "icao": "UDSG",
      "alert": "OK",
      "vis_m": 300,
      "fzfg": true,
      "metar_trigger": false,
      "taf_trigger": false,
      "metar": "METAR UDSG 280430Z 02002KT 0300 R02/0325U FZFG VV001 M14/M15 Q1021 NOSIG",
      "taf": "TAF UDSG 272258Z 2800/2824 VRB06KT 1500 BR BKN020"
    },
    {
      "icao": "UDYZ",
      "alert": "OK",
      "vis_m": 3900,
      "fzfg": false,
      "metar_trigger": false,
      "taf_trigger": false,
      "metar": "METAR UDYZ 280430Z 04002KT 3900 BR BKN008 M05/M07 Q1024 NOSIG",
      "taf": "TAF UDYZ 272300Z 2800/2824 VRB04KT 2300 BR BKN008"
    },
    {
      "icao": "UGKO",
      "alert": "OK",
      "vis_m": 9999,
      "fzfg": false,
      "metar_trigger": false,
      "taf_trigger": false,
      "metar": "METAR UGKO 280430Z 09021G32KT CAVOK 07/M01 Q1014 NOSIG",
      "taf": "TAF UGKO 272300Z 2800/2824 08017KT CAVOK TX15/2812Z TN06/2802Z"
    }
  ]
}