{
  "ts_utc": "2026-01-15T11:39:30Z",
  "threshold_m": 150,
  "source": "stations_override.txt (ICAO list) + aviationweather.gov (METAR/TAF raw)",
  "station_count": 159,
  "stations": [
    {
      "icao": "BIKF",
      "alert": "OK",
      "vis_m": 9999,
      "fzfg": false,
      "metar_trigger": false,
      "taf_trigger": false,
      "metar": "METAR BIKF 151130Z 03015KT CAVOK M00/M05 Q0987",
      "taf": "TAF BIKF 151034Z 1512/1612 02018KT 9999 FEW025 SCT045 TX02/1606Z TN00/1512Z"
    },
    {
      "icao": "BKPR",
      "alert": "OK",
      "vis_m": 9999,
      "fzfg": false,
      "metar_trigger": false,
      "taf_trigger": false,
      "metar": "METAR BKPR 151130Z 36004KT 9999 BKN060 09/05 Q1024 NOSIG",
      "taf": "TAF BKPR 151130Z 1512/1612 30006KT 9999 BKN060"
    },
    {
      "icao": "EBCI",
      "alert": "OK",
      "vis_m": 9999,
      "fzfg": false,
      "metar_trigger": false,
      "taf_trigger": false,
      "metar": "METAR EBCI 151120Z COR 21015G25KT 9999 SCT025 BKN035 09/05 Q1010 BECMG 21015KT",
      "taf": "TAF EBCI 151110Z 1512/1618 19012KT 9999 SCT020"
    },
    {
      "icao": "EDDB",
      "alert": "OK",
      "vis_m": 900,
      "fzfg": false,
      "metar_trigger": false,
      "taf_trigger": false,
      "metar": "METAR EDDB 151120Z AUTO 15006KT 0900 0400 R24R/1900N R24L/1100N FG OVC001 04/04 Q1015 TEMPO 3000 BR BKN001",
      "taf": "TAF EDDB 151100Z 1512/1612 14007KT 4000 BR BKN002"
    },
    {
      "icao": "EDDH",
      "alert": "OK",
      "vis_m": 8000,
      "fzfg": false,
      "metar_trigger": false,
      "taf_trigger": false,
      "metar": "METAR EDDH 151120Z COR AUTO 15009KT 8000 FEW003 06/05 Q1011 NOSIG",
      "taf": "TAF EDDH 151100Z 1512/1618 15008KT 9999 SCT020"
    },
    {
      "icao": "EDDK",
      "alert": "OK",
      "vis_m": 9999,
      "fzfg": false,
      "metar_trigger": false,
      "taf_trigger": false,
      "metar": "METAR EDDK 151120Z AUTO 17008KT 9999 FEW023 BKN035 OVC045 10/08 Q1012 NOSIG",
      "taf": "TAF EDDK 151100Z 1512/1618 15009KT 9999 BKN030"
    },
    {
      "icao": "EDDN",
      "alert": "OK",
      "vis_m": 9999,
      "fzfg": false,
      "metar_trigger": false,
      "taf_trigger": false,
      "metar": "METAR EDDN 151120Z AUTO 14007KT 9999 SCT031 06/04 Q1016 NOSIG",
      "taf": "TAF EDDN 151100Z 1512/1612 12007KT 9999 FEW030 BKN040"
    },
    {
      "icao": "EDDS",
      "alert": "OK",
      "vis_m": 9999,
      "fzfg": false,
      "metar_trigger": false,
      "taf_trigger": false,
      "metar": "METAR EDDS 151120Z AUTO 20005KT 160V260 9999 FEW049 11/05 Q1014 NOSIG",
      "taf": "TAF EDDS 151100Z 1512/1612 VRB03KT CAVOK"
    },
    {
      "icao": "EDFH",
      "alert": "OK",
      "vis_m": 9999,
      "fzfg": false,
      "metar_trigger": false,
      "taf_trigger": false,
      "metar": "METAR EDFH 151120Z 21012KT 9999 BKN012 OVC029 08/06 Q1012",
      "taf": "TAF EDFH 151100Z 1512/1612 19012KT 9999 BKN030"
    },
    {
      "icao": "EDJA",
      "alert": "OK",
      "vis_m": 9999,
      "fzfg": false,
      "metar_trigger": false,
      "taf_trigger": false,
      "metar": "METAR EDJA 151120Z 24009KT CAVOK 09/03 Q1017",
      "taf": "TAF EDJA 151100Z 1512/1521 22007KT CAVOK"
    },
    {
      "icao": "EDLW",
      "alert": "OK",
      "vis_m": 9999,
      "fzfg": false,
      "metar_trigger": false,
      "taf_trigger": false,
      "metar": "METAR EDLW 151120Z 20013KT 9999 SCT039 11/07 Q1010",
      "taf": "TAF EDLW 151100Z 1512/1612 18013KT 9999 SCT035"
    },
    {
      "icao": "EDNY",
      "alert": "OK",
      "vis_m": 9999,
      "fzfg": false,
      "metar_trigger": false,
      "taf_trigger": false,
      "metar": "METAR EDNY 151120Z 10003KT 050V140 CAVOK 09/03 Q1017",
      "taf": "TAF EDNY 151100Z 1512/1521 VRB03KT CAVOK"
    },
    {
      "icao": "EDSB",
      "alert": "OK",
      "vis_m": 9999,
      "fzfg": false,
      "metar_trigger": false,
      "taf_trigger": false,
      "metar": "METAR EDSB 151120Z 20011KT CAVOK 12/07 Q1015",
      "taf": "TAF EDSB 151100Z 1512/1612 19010KT CAVOK"
    },
    {
      "icao": "EETN",
      "alert": "OK",
      "vis_m": 9999,
      "fzfg": false,
      "metar_trigger": false,
      "taf_trigger": false,
      "metar": "METAR EETN 151120Z 17012KT 9999 DRSN BKN008 OVC039 M09/M11 Q1019 NOSIG",
      "taf": "TAF EETN 151130Z 1512/1612 17012KT 9999 BKN007 BKN035"
    },
    {
      "icao": "EFTU",
      "alert": "OK",
      "vis_m": 4700,
      "fzfg": false,
      "metar_trigger": false,
      "taf_trigger": false,
      "metar": "METAR EFTU 151120Z AUTO 15007KT 4700 -SHSN OVC006 M03/M03 Q1014",
      "taf": ""
    },
    {
      "icao": "EGBB",
      "alert": "OK",
      "vis_m": 5000,
      "fzfg": false,
      "metar_trigger": false,
      "taf_trigger": false,
      "metar": "METAR EGBB 151120Z 14003KT 5000 BR SCT002 BKN040 07/06 Q1000",
      "taf": "TAF EGBB 151059Z 1512/1612 16006KT 9999 SCT020"
    },
    {
      "icao": "EGGP",
      "alert": "OK",
      "vis_m": 9999,
      "fzfg": false,
      "metar_trigger": false,
      "taf_trigger": false,
      "metar": "METAR EGGP 151120Z VRB01KT 9999 FEW038 05/04 Q1000",
      "taf": "TAF EGGP 151056Z 1512/1612 16005KT 9999 FEW035"
    },
    {
      "icao": "EGGW",
      "alert": "OK",
      "vis_m": 5000,
      "fzfg": false,
      "metar_trigger": false,
      "taf_trigger": false,
      "metar": "METAR EGGW 151120Z AUTO 17007KT 150V210 5000 -DZ OVC003/// //////TCU 08/07 Q1001 RERA",
      "taf": "TAF EGGW 151102Z 1512/1612 16010KT 9999 SCT004 BKN020"
    },
    {
      "icao": "EGKK",
      "alert": "OK",
      "vis_m": 9999,
      "fzfg": false,
      "metar_trigger": false,
      "taf_trigger": false,
      "metar": "METAR EGKK 151120Z 19007KT 9999 -RA BKN007 OVC045 08/08 Q1003",
      "taf": "TAF EGKK 151056Z 1512/1618 17012KT 9999 BKN015"
    },
    {
      "icao": "EGNM",
      "alert": "OK",
      "vis_m": 9999,
      "fzfg": false,
      "metar_trigger": false,
      "taf_trigger": false,
      "metar": "METAR EGNM 151120Z 20004KT 140V230 9999 SCT014 06/04 Q1000",
      "taf": "TAF EGNM 151056Z 1512/1612 17010KT 9999 FEW012"
    },
    {
      "icao": "EGPD",
      "alert": "OK",
      "vis_m": 9999,
      "fzfg": false,
      "metar_trigger": false,
      "taf_trigger": false,
      "metar": "METAR EGPD 151120Z COR AUTO 22010KT 9999 NCD 06/03 Q0994 NOSIG",
      "taf": "TAF EGPD 151102Z 1512/1612 20008KT 9999 FEW015"
    },
    {
      "icao": "EGPF",
      "alert": "OK",
      "vis_m": 9999,
      "fzfg": false,
      "metar_trigger": false,
      "taf_trigger": false,
      "metar": "METAR EGPF 151120Z AUTO 21018KT 9999 NCD 06/04 Q0996",
      "taf": "TAF EGPF 151054Z 1512/1612 21014KT 9999 FEW045"
    },
    {
      "icao": "EHBK",
      "alert": "OK",
      "vis_m": 9999,
      "fzfg": false,
      "metar_trigger": false,
      "taf_trigger": false,
      "metar": "METAR EHBK 151125Z AUTO 21017KT 9999 FEW023 OVC031 11/07 Q1010 NOSIG",
      "taf": "TAF EHBK 151054Z 1512/1618 20012KT 9999 BKN020"
    },
    {
      "icao": "EHEH",
      "alert": "OK",
      "vis_m": 9999,
      "fzfg": false,
      "metar_trigger": false,
      "taf_trigger": false,
      "metar": "METAR EHEH 151125Z AUTO 19009KT 160V230 9999 SCT016 BKN020 OVC024 11/08 Q1009 WHT TEMPO SCT010 BKN012 RMK TREND REMOTE BY EHWX",
      "taf": "TAF EHEH 150554Z 1506/1612 18009KT 9999 OVC025"
    },
    {
      "icao": "EKBI",
      "alert": "OK",
      "vis_m": 1200,
      "fzfg": false,
      "metar_trigger": false,
      "taf_trigger": false,
      "metar": "METAR EKBI 151120Z AUTO 15009KT 120V180 1200 R09/P1500D R27/P1500D BR OVC002/// 03/03 Q1007",
      "taf": "TAF EKBI 151127Z 1512/1612 14010KT 1200 -RADZ BR OVC002"
    },
    {
      "icao": "EKCH",
      "alert": "OK",
      "vis_m": 9999,
      "fzfg": false,
      "metar_trigger": false,
      "taf_trigger": false,
      "metar": "METAR EKCH 151120Z 14013KT 9999 BKN010 04/02 Q1012 BECMG BKN008",
      "taf": "TAF EKCH 151127Z 1512/1612 16017KT 9999 BKN008"
    },
    {
      "icao": "ENAL",
      "alert": "OK",
      "vis_m": 9999,
      "fzfg": false,
      "metar_trigger": false,
      "taf_trigger": false,
      "metar": "METAR ENAL 151120Z 14006KT CAVOK 07/M01 Q0998",
      "taf": "TAF ENAL 151100Z 1512/1521 13008KT 9999 SCT060"
    },
    {
      "icao": "ENBR",
      "alert": "OK",
      "vis_m": 9999,
      "fzfg": false,
      "metar_trigger": false,
      "taf_trigger": false,
      "metar": "METAR ENBR 151120Z 12008KT 090V150 9999 BKN050 05/M01 Q0998 NOSIG RMK WIND 1200FT 13017KT",
      "taf": "TAF ENBR 151100Z 1512/1612 14012KT 9999 -SHRA FEW020 BKN040"
    },
    {
      "icao": "ENGM",
      "alert": "OK",
      "vis_m": 5000,
      "fzfg": true,
      "metar_trigger": false,
      "taf_trigger": false,
      "metar": "METAR ENGM 151120Z 01004KT 350V060 5000 1200E -SN BCFG OVC007 M06/M08 Q1008 TEMPO 1200 -SN BR BKN004",
      "taf": "TAF ENGM 151100Z 1512/1612 VRB03KT 0300 FZFG VV001"
    },
    {
      "icao": "ENHD",
      "alert": "OK",
      "vis_m": 9999,
      "fzfg": false,
      "metar_trigger": false,
      "taf_trigger": false,
      "metar": "METAR ENHD 151120Z 13020KT 9999 -SHRA BKN039 04/01 Q0999",
      "taf": "TAF ENHD 151100Z 1512/1521 14018KT 9999 -SHRA FEW015 BKN030"
    },
    {
      "icao": "ENTC",
      "alert": "OK",
      "vis_m": 9999,
      "fzfg": false,
      "metar_trigger": false,
      "taf_trigger": false,
      "metar": "METAR ENTC 151120Z 16002KT CAVOK M05/M08 Q1007 NOSIG RMK WIND 2600FT 15010KT",
      "taf": "TAF ENTC 151100Z 1512/1612 20008KT CAVOK"
    },
    {
      "icao": "ENTO",
      "alert": "OK",
      "vis_m": 3000,
      "fzfg": false,
      "metar_trigger": false,
      "taf_trigger": false,
      "metar": "METAR ENTO 151120Z 36004KT 3000 BR VV002 M03/M03 Q1008 TEMPO 1500 BR",
      "taf": "TAF ENTO 151100Z 1512/1612 17012KT 6000 -RASN BKN003"
    },
    {
      "icao": "ENVA",
      "alert": "OK",
      "vis_m": 9999,
      "fzfg": false,
      "metar_trigger": false,
      "taf_trigger": false,
      "metar": "METAR ENVA 151120Z 09009KT CAVOK M01/M06 Q1004 NOSIG RMK WIND 670FT 09010KT",
      "taf": "TAF ENVA 151100Z 1512/1612 09008KT CAVOK"
    },
    {
      "icao": "ENZV",
      "alert": "OK",
      "vis_m": 9999,
      "fzfg": false,
      "metar_trigger": false,
      "taf_trigger": false,
      "metar": "METAR ENZV 151120Z 12013KT 9999 -RA BKN033 04/01 Q0999 TEMPO 4000 SHRA BKN009 SCT018CB",
      "taf": "TAF ENZV 151100Z 1512/1612 13015KT 9999 -SHRA FEW015 BKN030"
    },
    {
      "icao": "EPGD",
      "alert": "OK",
      "vis_m": 9999,
      "fzfg": false,
      "metar_trigger": false,
      "taf_trigger": false,
      "metar": "METAR EPGD 151130Z 18008KT 9999 FEW017 02/00 Q1018",
      "taf": "TAF EPGD 151130Z 1512/1612 16010KT 8000 NSC"
    },
    {
      "icao": "EPKK",
      "alert": "OK",
      "vis_m": 4800,
      "fzfg": false,
      "metar_trigger": false,
      "taf_trigger": false,
      "metar": "METAR EPKK 151130Z 05005KT 4800 BR NSC 02/00 Q1019",
      "taf": "TAF EPKK 151130Z 1512/1612 07005KT 5000 BR NSC"
    },
    {
      "icao": "EPKT",
      "alert": "OK",
      "vis_m": 8000,
      "fzfg": false,
      "metar_trigger": false,
      "taf_trigger": false,
      "metar": "METAR EPKT 151130Z 17004KT 8000 NSC 03/01 Q1019",
      "taf": "TAF EPKT 151130Z 1512/1612 15004KT 7000 NSC"
    },
    {
      "icao": "EPLB",
      "alert": "OK",
      "vis_m": 2100,
      "fzfg": false,
      "metar_trigger": false,
      "taf_trigger": false,
      "metar": "METAR EPLB 151130Z 07004KT 2100 BR OVC004 M03/M03 Q1021",
      "taf": "TAF EPLB 151130Z 1512/1612 VRB02KT 2500 BR BKN004"
    },
    {
      "icao": "EPMO",
      "alert": "OK",
      "vis_m": 900,
      "fzfg": true,
      "metar_trigger": false,
      "taf_trigger": false,
      "metar": "METAR EPMO 151130Z 11003KT 0900 R08/0900N FZFG SCT002 BKN032 M01/M01 Q1020",
      "taf": "TAF EPMO 151130Z 1512/1612 VRB04KT 1200 BR BKN020"
    },
    {
      "icao": "EPPO",
      "alert": "OK",
      "vis_m": 800,
      "fzfg": true,
      "metar_trigger": false,
      "taf_trigger": false,
      "metar": "METAR EPPO 151130Z 11007KT 0800 R28/1100U FZFG VV002 M00/M01 Q1018",
      "taf": "TAF EPPO 151130Z 1512/1612 13005KT 0400 FZFG BKN001"
    },
    {
      "icao": "EPRA",
      "alert": "OK",
      "vis_m": 9999,
      "fzfg": false,
      "metar_trigger": false,
      "taf_trigger": false,
      "metar": "METAR EPRA 151130Z 31004KT 9999 BKN020 02/M02 Q1020",
      "taf": "TAF EPRA 151130Z 1512/1521 27005KT 9999 BKN023"
    },
    {
      "icao": "EPRZ",
      "alert": "OK",
      "vis_m": 9999,
      "fzfg": false,
      "metar_trigger": false,
      "taf_trigger": false,
      "metar": "METAR EPRZ 151130Z 34004KT 9999 OVC010 02/00 Q1021",
      "taf": "TAF EPRZ 151130Z 1512/1612 VRB02KT 9999 OVC009"
    },
    {
      "icao": "EPSC",
      "alert": "OK",
      "vis_m": 9999,
      "fzfg": false,
      "metar_trigger": false,
      "taf_trigger": false,
      "metar": "METAR EPSC 151130Z 13012KT 9999 BKN015 02/00 Q1016",
      "taf": "TAF EPSC 151130Z 1512/1612 14010KT 8000 OVC012"
    },
    {
      "icao": "EPSY",
      "alert": "OK",
      "vis_m": 3300,
      "fzfg": false,
      "metar_trigger": false,
      "taf_trigger": false,
      "metar": "METAR EPSY 151130Z 14003KT 100V180 3300 BR BKN004 OVC035 M04/M05 Q1020",
      "taf": "TAF EPSY 151130Z 1512/1521 14006KT 4000 BR BKN004"
    },
    {
      "icao": "EPWA",
      "alert": "OK",
      "vis_m": 2500,
      "fzfg": false,
      "metar_trigger": false,
      "taf_trigger": false,
      "metar": "METAR EPWA 151130Z 11004KT 070V140 2500 BR FEW003 BKN030 01/00 Q1020 NOSIG",
      "taf": "TAF EPWA 151130Z 1512/1612 VRB04KT 2000 BR BKN020"
    },
    {
      "icao": "EPWR",
      "alert": "OK",
      "vis_m": 6000,
      "fzfg": false,
      "metar_trigger": false,
      "taf_trigger": false,
      "metar": "METAR EPWR 151130Z 13007KT 6000 NSC 03/02 Q1018",
      "taf": "TAF EPWR 151130Z 1512/1612 12007KT 5000 BR SCT045"
    },
    {
      "icao": "ESGG",
      "alert": "OK",
      "vis_m": 9999,
      "fzfg": false,
      "metar_trigger": false,
      "taf_trigger": false,
      "metar": "METAR ESGG 151120Z 17013KT 9999 BKN008 02/00 Q1010",
      "taf": "TAF ESGG 151130Z 1512/1612 18006KT 8000 SCT004 BKN015"
    },
    {
      "icao": "ESKN",
      "alert": "OK",
      "vis_m": 9999,
      "fzfg": false,
      "metar_trigger": false,
      "taf_trigger": false,
      "metar": "METAR ESKN 151120Z 19006KT 9999 BKN006 02/01 Q1013",
      "taf": "TAF ESKN 151130Z 1512/1612 19006KT 9999 OVC015"
    },
    {
      "icao": "ESMS",
      "alert": "OK",
      "vis_m": 9999,
      "fzfg": false,
      "metar_trigger": false,
      "taf_trigger": false,
      "metar": "METAR ESMS 151120Z 14011KT 9999 BKN014 BKN070 03/02 Q1013",
      "taf": "TAF ESMS 150827Z 1509/1609 18006KT 9999 FEW020"
    },
    {
      "icao": "ESSA",
      "alert": "OK",
      "vis_m": 9999,
      "fzfg": false,
      "metar_trigger": false,
      "taf_trigger": false,
      "metar": "METAR ESSA 151120Z 23010KT 9999 BKN009 01/M00 Q1013 NOSIG",
      "taf": "TAF ESSA 151130Z 1512/1612 20007KT 9999 SCT010 BKN015"
    },
    {
      "icao": "EYKA",
      "alert": "OK",
      "vis_m": 9999,
      "fzfg": false,
      "metar_trigger": false,
      "taf_trigger": false,
      "metar": "METAR EYKA 151120Z 16008KT 120V180 9999 OVC026 M10/M13 Q1023",
      "taf": "TAF EYKA 151100Z 1512/1612 VRB04KT 8000 SCT015 BKN020"
    },
    {
      "icao": "EYPA",
      "alert": "OK",
      "vis_m": 6000,
      "fzfg": false,
      "metar_trigger": false,
      "taf_trigger": false,
      "metar": "METAR EYPA 151120Z 16008KT 130V190 6000 OVC027 M05/M06 Q1020",
      "taf": "TAF EYPA 151109Z 1512/1612 15009KT 5000 BR SCT005 BKN015"
    },
    {
      "icao": "EYVI",
      "alert": "OK",
      "vis_m": 9999,
      "fzfg": false,
      "metar_trigger": false,
      "taf_trigger": false,
      "metar": "METAR EYVI 151120Z 17011KT CAVOK M13/M15 Q1022 NOSIG",
      "taf": ""
    },
    {
      "icao": "GCFV",
      "alert": "OK",
      "vis_m": 9999,
      "fzfg": false,
      "metar_trigger": false,
      "taf_trigger": false,
      "metar": "METAR GCFV 151130Z 01014KT 9999 FEW035 SCT044 19/09 Q1025",
      "taf": "TAF GCFV 150800Z 1509/1609 04011KT 9999 SCT040 TX20/1514Z TN15/1606Z"
    },
    {
      "icao": "GCLP",
      "alert": "OK",
      "vis_m": 9999,
      "fzfg": false,
      "metar_trigger": false,
      "taf_trigger": false,
      "metar": "METAR GCLP 151130Z 01015KT 9999 BKN040 19/09 Q1025 NOSIG",
      "taf": "TAF GCLP 150800Z 1509/1609 02016KT 9999 SCT040 TX20/1514Z TN15/1606Z"
    },
    {
      "icao": "GCTS",
      "alert": "OK",
      "vis_m": 9999,
      "fzfg": false,
      "metar_trigger": false,
      "taf_trigger": false,
      "metar": "METAR GCTS 151130Z 10011KT 9999 BKN040 18/09 Q1026 NOSIG",
      "taf": "TAF GCTS 150800Z 1509/1609 06015KT 9999 SCT040 TX22/1514Z TN14/1606Z"
    },
    {
      "icao": "GMAD",
      "alert": "OK",
      "vis_m": 9999,
      "fzfg": false,
      "metar_trigger": false,
      "taf_trigger": false,
      "metar": "METAR GMAD 151130Z 28003KT 9999 FEW030 17/14 Q1023 NOSIG",
      "taf": "TAF GMAD 151100Z 1512/1618 27010KT 8000 FEW030"
    },
    {
      "icao": "GMMN",
      "alert": "OK",
      "vis_m": 9999,
      "fzfg": false,
      "metar_trigger": false,
      "taf_trigger": false,
      "metar": "METAR GMMN 151130Z 24004KT 180V310 9999 SCT020 15/12 Q1023 NOSIG",
      "taf": "TAF GMMN 151100Z 1512/1618 26006KT 9999 FEW020"
    },
    {
      "icao": "GMMX",
      "alert": "OK",
      "vis_m": 9999,
      "fzfg": false,
      "metar_trigger": false,
      "taf_trigger": false,
      "metar": "METAR GMMX 151130Z 05004KT 350V130 CAVOK 14/09 Q1022 NOSIG",
      "taf": "TAF GMMX 151100Z 1512/1618 06006KT 8000 SCT026"
    },
    {
      "icao": "HEGN",
      "alert": "OK",
      "vis_m": 9999,
      "fzfg": false,
      "metar_trigger": false,
      "taf_trigger": false,
      "metar": "METAR HEGN 151100Z 36010KT CAVOK 20/07 Q1022 NOSIG",
      "taf": "TAF HEGN 151100Z 1512/1618 35010G20KT CAVOK"
    },
    {
      "icao": "HEMA",
      "alert": "OK",
      "vis_m": 9999,
      "fzfg": false,
      "metar_trigger": false,
      "taf_trigger": false,
      "metar": "METAR HEMA 151100Z 35022KT 9999 FEW020 SCT025 21/09 Q1021 NOSIG",
      "taf": "TAF HEMA 151100Z 1512/1618 36015G25KT 6000 SCT025"
    },
    {
      "icao": "HESH",
      "alert": "OK",
      "vis_m": 9999,
      "fzfg": false,
      "metar_trigger": false,
      "taf_trigger": false,
      "metar": "METAR HESH 151100Z 01011KT CAVOK 21/05 Q1023 NOSIG",
      "taf": "TAF HESH 151100Z 1512/1618 02010G20KT CAVOK"
    },
    {
      "icao": "HESX",
      "alert": "OK",
      "vis_m": 9999,
      "fzfg": false,
      "metar_trigger": false,
      "taf_trigger": false,
      "metar": "METAR HESX 151100Z 22006KT 9999 FEW030 SCT100 17/08 Q1025 NOSIG",
      "taf": "TAF HESX 151101Z 1512/1618 35010KT 9999 FEW020 BKN070"
    },
    {
      "icao": "LATI",
      "alert": "OK",
      "vis_m": 9999,
      "fzfg": false,
      "metar_trigger": false,
      "taf_trigger": false,
      "metar": "METAR LATI 151120Z 07004KT 030V110 9999 FEW050 SCT110 16/03 Q1025 NOSIG",
      "taf": "TAF LATI 151100Z 1512/1612 VRB05KT CAVOK TX16/1512Z TN03/1605Z"
    },
    {
      "icao": "LBPD",
      "alert": "OK",
      "vis_m": 9999,
      "fzfg": false,
      "metar_trigger": false,
      "taf_trigger": false,
      "metar": "METAR LBPD 151130Z AUTO 28014KT 9999 NCD 16/03 Q1020 NOSIG",
      "taf": "TAF LBPD 151100Z 1512/1612 28010KT 9999 BKN070"
    },
    {
      "icao": "LBSF",
      "alert": "OK",
      "vis_m": 9999,
      "fzfg": false,
      "metar_trigger": false,
      "taf_trigger": false,
      "metar": "METAR LBSF 151130Z 28011KT 250V310 CAVOK 11/02 Q1022 NOSIG",
      "taf": "TAF LBSF 151100Z 1512/1612 31010KT 9999 SCT060"
    },
    {
      "icao": "LBWN",
      "alert": "OK",
      "vis_m": 9999,
      "fzfg": false,
      "metar_trigger": false,
      "taf_trigger": false,
      "metar": "METAR LBWN 151130Z 29014KT 9999 SCT040 11/04 Q1019 NOSIG",
      "taf": "TAF LBWN 151100Z 1512/1612 28012KT 9999 SCT040"
    },
    {
      "icao": "LCLK",
      "alert": "OK",
      "vis_m": 9999,
      "fzfg": false,
      "metar_trigger": false,
      "taf_trigger": false,
      "metar": "METAR LCLK 151130Z 11003KT 9999 SCT050 16/04 Q1023 NOSIG",
      "taf": "TAF LCLK 151130Z 1512/1612 11010KT 9999 FEW040"
    },
    {
      "icao": "LCPH",
      "alert": "OK",
      "vis_m": 9999,
      "fzfg": false,
      "metar_trigger": false,
      "taf_trigger": false,
      "metar": "METAR LCPH 151130Z 24005KT 170V260 9999 FEW040 SCT045 17/07 Q1023 NOSIG",
      "taf": "TAF LCPH 151130Z 1512/1612 23010KT 9999 FEW035 SCT045"
    },
    {
      "icao": "LEAL",
      "alert": "OK",
      "vis_m": 9999,
      "fzfg": false,
      "metar_trigger": false,
      "taf_trigger": false,
      "metar": "METAR LEAL 151130Z 24003KT 190V290 CAVOK 17/06 Q1019 NOSIG",
      "taf": "TAF LEAL 151100Z 1512/1612 VRB04KT CAVOK TX17/1513Z TN07/1606Z"
    },
    {
      "icao": "LEBB",
      "alert": "OK",
      "vis_m": 9999,
      "fzfg": false,
      "metar_trigger": false,
      "taf_trigger": false,
      "metar": "METAR LEBB 151130Z 14008G24KT 080V180 9999 FEW034 15/03 Q1010 NOSIG",
      "taf": "TAF LEBB 151100Z 1512/1612 20009KT 9999 FEW025 SCT060 TX16/1512Z TN05/1607Z"
    },
    {
      "icao": "LEBL",
      "alert": "OK",
      "vis_m": 9999,
      "fzfg": false,
      "metar_trigger": false,
      "taf_trigger": false,
      "metar": "METAR LEBL 151130Z 27003KT 230V350 9999 FEW015 14/10 Q1018 NOSIG",
      "taf": "TAF LEBL 151100Z 1512/1612 21010KT 9999 FEW015 TX15/1512Z TN06/1606Z"
    },
    {
      "icao": "LECH",
      "alert": "OK",
      "vis_m": 9000,
      "fzfg": false,
      "metar_trigger": false,
      "taf_trigger": false,
      "metar": "METAR LECH 151130Z AUTO 23004KT 9000 NCD 13/05 Q1018",
      "taf": ""
    },
    {
      "icao": "LEMD",
      "alert": "OK",
      "vis_m": 3500,
      "fzfg": false,
      "metar_trigger": false,
      "taf_trigger": false,
      "metar": "METAR LEMD 151130Z 15005KT 100V210 3500 BR SCT002 BKN003 OVC007 05/05 Q1019 BECMG BKN004",
      "taf": "TAF LEMD 151100Z 1512/1618 VRB05KT 9999 BKN020 TX09/1515Z TN05/1607Z"
    },
    {
      "icao": "LEMG",
      "alert": "OK",
      "vis_m": 9999,
      "fzfg": false,
      "metar_trigger": false,
      "taf_trigger": false,
      "metar": "METAR LEMG 151130Z 30005KT 9999 FEW025 14/09 Q1021 NOSIG",
      "taf": "TAF LEMG 151100Z 1512/1612 29006KT 9999 SCT040 TX18/1514Z TN11/1607Z"
    },
    {
      "icao": "LEVC",
      "alert": "OK",
      "vis_m": 9999,
      "fzfg": false,
      "metar_trigger": false,
      "taf_trigger": false,
      "metar": "METAR LEVC 151130Z 24004KT 200V300 CAVOK 15/05 Q1018 NOSIG",
      "taf": "TAF LEVC 151100Z 1512/1612 26005KT CAVOK TX18/1512Z TN06/1606Z"
    },
    {
      "icao": "LEXJ",
      "alert": "OK",
      "vis_m": 9999,
      "fzfg": false,
      "metar_trigger": false,
      "taf_trigger": false,
      "metar": "METAR LEXJ 151130Z 21017G28KT 160V250 9999 SCT068 14/03 Q1008",
      "taf": ""
    },
    {
      "icao": "LEZG",
      "alert": "OK",
      "vis_m": 9999,
      "fzfg": false,
      "metar_trigger": false,
      "taf_trigger": false,
      "metar": "METAR LEZG 151130Z 09006KT CAVOK 09/05 Q1017 NOSIG",
      "taf": "TAF LEZG 151100Z 1512/1612 19012KT 9999 FEW020 TX14/1514Z TN05/1606Z"
    },
    {
      "icao": "LEZL",
      "alert": "OK",
      "vis_m": 800,
      "fzfg": false,
      "metar_trigger": false,
      "taf_trigger": false,
      "metar": "METAR LEZL 151130Z VRB02KT 0800 R27/1900N R09/0800N FG VV002 09/09 Q1022 BECMG 5000 BR",
      "taf": "TAF LEZL 150800Z 1509/1609 07003KT 0500 FG VV001 TX14/1515Z TN08/1607Z"
    },
    {
      "icao": "LFBD",
      "alert": "OK",
      "vis_m": 9999,
      "fzfg": false,
      "metar_trigger": false,
      "taf_trigger": false,
      "metar": "METAR LFBD 151130Z AUTO 14009KT CAVOK 11/08 Q1010 NOSIG",
      "taf": "TAF LFBD 150500Z 1506/1612 18005KT 6000 NSC TX13/1514Z TN05/1506Z"
    },
    {
      "icao": "LFLL",
      "alert": "OK",
      "vis_m": 9999,
      "fzfg": false,
      "metar_trigger": false,
      "taf_trigger": false,
      "metar": "METAR LFLL 151130Z 18014KT 9999 FEW030 14/06 Q1015 NOSIG",
      "taf": "TAF LFLL 151100Z 1512/1618 18015G25KT CAVOK"
    },
    {
      "icao": "LFLS",
      "alert": "OK",
      "vis_m": 9999,
      "fzfg": false,
      "metar_trigger": false,
      "taf_trigger": false,
      "metar": "METAR LFLS 151130Z AUTO 10004KT 060V130 CAVOK 12/05 Q1016 BECMG 22012KT",
      "taf": "TAF LFLS 150800Z 1509/1609 08006KT CAVOK"
    },
    {
      "icao": "LFMN",
      "alert": "OK",
      "vis_m": 9999,
      "fzfg": false,
      "metar_trigger": false,
      "taf_trigger": false,
      "metar": "METAR LFMN 151130Z 32006KT 290V350 CAVOK 15/04 Q1020 NOSIG",
      "taf": "TAF LFMN 150800Z 1509/1615 33010KT CAVOK"
    },
    {
      "icao": "LFOB",
      "alert": "OK",
      "vis_m": 9999,
      "fzfg": false,
      "metar_trigger": false,
      "taf_trigger": false,
      "metar": "METAR LFOB 151130Z AUTO 18011KT 9999 FEW018 OVC048 10/07 Q1008 TEMPO 4000 DZ BKN013",
      "taf": "TAF LFOB 150500Z 1506/1606 22012G22KT 9999 OVC011"
    },
    {
      "icao": "LFPO",
      "alert": "OK",
      "vis_m": 9999,
      "fzfg": false,
      "metar_trigger": false,
      "taf_trigger": false,
      "metar": "METAR LFPO 151130Z 18009KT 9999 FEW015 BKN049 10/07 Q1009 NOSIG",
      "taf": "TAF LFPO 151100Z 1512/1618 18010KT 9999 BKN012"
    },
    {
      "icao": "LFSB",
      "alert": "OK",
      "vis_m": 9999,
      "fzfg": false,
      "metar_trigger": false,
      "taf_trigger": false,
      "metar": "METAR LFSB 151130Z AUTO 13007KT CAVOK 12/05 Q1015 NOSIG",
      "taf": "TAF LFSB 151100Z 1512/1612 15008KT CAVOK"
    },
    {
      "icao": "LGAV",
      "alert": "OK",
      "vis_m": 9999,
      "fzfg": false,
      "metar_trigger": false,
      "taf_trigger": false,
      "metar": "METAR LGAV 151120Z 09006KT 060V120 9999 FEW030 15/07 Q1023 NOSIG",
      "taf": "TAF LGAV 151100Z 1512/1612 VRB05KT 9999 FEW016 SCT025"
    },
    {
      "icao": "LGTS",
      "alert": "OK",
      "vis_m": 9999,
      "fzfg": false,
      "metar_trigger": false,
      "taf_trigger": false,
      "metar": "METAR LGTS 151120Z VRB03KT CAVOK 10/04 Q1024 NOSIG",
      "taf": "TAF LGTS 151100Z 1512/1612 VRB03KT 9999 FEW030"
    },
    {
      "icao": "LHBP",
      "alert": "OK",
      "vis_m": 3300,
      "fzfg": false,
      "metar_trigger": false,
      "taf_trigger": false,
      "metar": "METAR LHBP 151130Z 06004KT 030V090 3300 BR BKN006 M01/M03 Q1022 NOSIG",
      "taf": "TAF LHBP 151115Z 1512/1612 09005KT 2500 BR OVC005"
    },
    {
      "icao": "LHDC",
      "alert": "OK",
      "vis_m": 3600,
      "fzfg": false,
      "metar_trigger": false,
      "taf_trigger": false,
      "metar": "METAR LHDC 151115Z AUTO VRB01KT 3600 BR OVC007 00/M00 Q1023 NOSIG",
      "taf": "TAF LHDC 151115Z 1512/1521 VRB03KT 5000 BR SCT004 OVC035"
    },
    {
      "icao": "LIBD",
      "alert": "OK",
      "vis_m": 9999,
      "fzfg": false,
      "metar_trigger": false,
      "taf_trigger": false,
      "metar": "METAR LIBD 151120Z 01005KT 330V030 CAVOK 12/09 Q1023",
      "taf": "TAF LIBD 151100Z 1512/1612 VRB06KT 9999 FEW030"
    },
    {
      "icao": "LIBG",
      "alert": "OK",
      "vis_m": 9999,
      "fzfg": false,
      "metar_trigger": false,
      "taf_trigger": false,
      "metar": "METAR LIBG 151050Z VRB03KT 9999 FEW030 15/15 Q1023",
      "taf": "TAF LIBG 151100Z 1512/1521 VRB05KT 8000 FEW025"
    },
    {
      "icao": "LIBP",
      "alert": "OK",
      "vis_m": 9999,
      "fzfg": false,
      "metar_trigger": false,
      "taf_trigger": false,
      "metar": "METAR LIBP 151120Z AUTO VRB02KT 9999 NCD 15/05 Q1023",
      "taf": "TAF LIBP 151100Z 1512/1612 VRB05KT CAVOK"
    },
    {
      "icao": "LIBR",
      "alert": "OK",
      "vis_m": 9999,
      "fzfg": false,
      "metar_trigger": false,
      "taf_trigger": false,
      "metar": "METAR LIBR 151120Z 20005KT 160V230 9999 FEW020 15/09 Q1023",
      "taf": "TAF LIBR 151100Z 1512/1612 VRB06KT 9999 FEW025"
    },
    {
      "icao": "LICA",
      "alert": "OK",
      "vis_m": 9999,
      "fzfg": false,
      "metar_trigger": false,
      "taf_trigger": false,
      "metar": "METAR LICA 151120Z AUTO 07010KT 9999 NCD 17/07 Q1022",
      "taf": "TAF LICA 151100Z 1512/1612 08010KT CAVOK"
    },
    {
      "icao": "LICC",
      "alert": "OK",
      "vis_m": 9999,
      "fzfg": false,
      "metar_trigger": false,
      "taf_trigger": false,
      "metar": "METAR LICC 151120Z 22003KT 170V260 9999 SCT040 18/14 Q1023",
      "taf": "TAF LICC 151100Z 1512/1612 VRB05KT 9999 SCT040"
    },
    {
      "icao": "LICJ",
      "alert": "OK",
      "vis_m": 9999,
      "fzfg": false,
      "metar_trigger": false,
      "taf_trigger": false,
      "metar": "METAR LICJ 151120Z 03008KT CAVOK 15/10 Q1022",
      "taf": "TAF LICJ 151100Z 1512/1612 05010KT CAVOK"
    },
    {
      "icao": "LIMC",
      "alert": "OK",
      "vis_m": 900,
      "fzfg": false,
      "metar_trigger": false,
      "taf_trigger": false,
      "metar": "METAR LIMC 151120Z VRB03KT 0900 R35R/P2000N R17L/P2000N R35L/P2000N FG OVC004 07/06 Q1022 NOSIG",
      "taf": "TAF LIMC 151100Z 1512/1618 VRB05KT 0800 -RA FG BKN003"
    },
    {
      "icao": "LIME",
      "alert": "OK",
      "vis_m": 2000,
      "fzfg": false,
      "metar_trigger": false,
      "taf_trigger": false,
      "metar": "METAR LIME 151120Z VRB01KT 2000 BR BKN010 06/05 Q1022 NOSIG",
      "taf": "TAF LIME 151100Z 1512/1612 VRB04KT 3000 BR SCT010 BKN040"
    },
    {
      "icao": "LIMF",
      "alert": "OK",
      "vis_m": 7000,
      "fzfg": false,
      "metar_trigger": false,
      "taf_trigger": false,
      "metar": "METAR LIMF 151120Z VRB02KT 7000 BKN055 06/01 Q1022",
      "taf": "TAF LIMF 151100Z 1512/1612 VRB03KT 8000 SCT050"
    },
    {
      "icao": "LIMJ",
      "alert": "OK",
      "vis_m": 9999,
      "fzfg": false,
      "metar_trigger": false,
      "taf_trigger": false,
      "metar": "METAR LIMJ 151120Z 06008KT 9999 VCSH SCT024 SCT035TCU 13/08 Q1021",
      "taf": "TAF LIMJ 151100Z 1512/1612 04008KT 9999 SCT020 SCT050"
    },
    {
      "icao": "LIPE",
      "alert": "OK",
      "vis_m": 3000,
      "fzfg": false,
      "metar_trigger": false,
      "taf_trigger": false,
      "metar": "METAR LIPE 151120Z 07003KT 3000 BR BKN055 06/06 Q1022",
      "taf": "TAF LIPE 151100Z 1512/1612 VRB04KT 3000 BR BKN040"
    },
    {
      "icao": "LIPH",
      "alert": "OK",
      "vis_m": 6000,
      "fzfg": false,
      "metar_trigger": false,
      "taf_trigger": false,
      "metar": "METAR LIPH 151120Z VRB02KT 6000 FEW050 BKN080 09/04 Q1022",
      "taf": "TAF LIPH 151100Z 1512/1612 VRB04KT 6000 SCT040"
    },
    {
      "icao": "LIPQ",
      "alert": "OK",
      "vis_m": 9999,
      "fzfg": false,
      "metar_trigger": false,
      "taf_trigger": false,
      "metar": "METAR LIPQ 151120Z AUTO VRB01KT 9999 FEW020/// BKN045/// BKN072/// 10/07 Q1022",
      "taf": "TAF LIPQ 151100Z 1512/1612 VRB04KT 7000 BKN035"
    },
    {
      "icao": "LIPR",
      "alert": "OK",
      "vis_m": 4000,
      "fzfg": false,
      "metar_trigger": false,
      "taf_trigger": false,
      "metar": "METAR LIPR 151120Z 32004KT 290V350 4000 BR BKN007 08/06 Q1022",
      "taf": "TAF LIPR 151100Z 1512/1612 VRB04KT 3000 BR SCT020"
    },
    {
      "icao": "LIPX",
      "alert": "OK",
      "vis_m": 6000,
      "fzfg": false,
      "metar_trigger": false,
      "taf_trigger": false,
      "metar": "METAR LIPX 151120Z 20003KT 170V230 6000 BKN080 08/04 Q1022",
      "taf": "TAF LIPX 151100Z 1512/1612 VRB04KT 6000 BKN050"
    },
    {
      "icao": "LIPY",
      "alert": "OK",
      "vis_m": 9999,
      "fzfg": false,
      "metar_trigger": false,
      "taf_trigger": false,
      "metar": "METAR LIPY 151120Z AUTO 03005KT 9999 BKN078/// 13/08 Q1022",
      "taf": "TAF LIPY 151100Z 1512/1612 VRB05KT 7000 SCT060"
    },
    {
      "icao": "LIPZ",
      "alert": "OK",
      "vis_m": 7000,
      "fzfg": false,
      "metar_trigger": false,
      "taf_trigger": false,
      "metar": "METAR LIPZ 151120Z 16003KT 130V190 7000 SCT070 08/03 Q1022 NOSIG",
      "taf": "TAF LIPZ 151100Z 1512/1618 VRB04KT 6000 SCT040"
    },
    {
      "icao": "LIRF",
      "alert": "OK",
      "vis_m": 9999,
      "fzfg": false,
      "metar_trigger": false,
      "taf_trigger": false,
      "metar": "METAR LIRF 151120Z 13009KT 9999 FEW030 BKN050 15/09 Q1023 NOSIG",
      "taf": "TAF LIRF 151100Z 1512/1618 15012KT 9999 SCT030"
    },
    {
      "icao": "LIRN",
      "alert": "OK",
      "vis_m": 9999,
      "fzfg": false,
      "metar_trigger": false,
      "taf_trigger": false,
      "metar": "METAR LIRN 151120Z 01003KT 340V050 9999 FEW040 15/07 Q1023 NOSIG",
      "taf": "TAF LIRN 151100Z 1512/1612 VRB05KT CAVOK"
    },
    {
      "icao": "LIRP",
      "alert": "OK",
      "vis_m": 9999,
      "fzfg": false,
      "metar_trigger": false,
      "taf_trigger": false,
      "metar": "METAR LIRP 151115Z 10004KT 9999 SCT020 SCT030 13/12 Q1021 NOSIG",
      "taf": "TAF LIRP 151100Z 1512/1612 12005KT 9999 SCT020 SCT040"
    },
    {
      "icao": "LIRZ",
      "alert": "OK",
      "vis_m": 9999,
      "fzfg": false,
      "metar_trigger": false,
      "taf_trigger": false,
      "metar": "METAR LIRZ 151120Z AUTO 13005KT 100V160 9999 BKN070/// 14/06 Q1022",
      "taf": "TAF LIRZ 151100Z 1512/1612 VRB05KT 9999 SCT040"
    },
    {
      "icao": "LJLJ",
      "alert": "OK",
      "vis_m": 9999,
      "fzfg": false,
      "metar_trigger": false,
      "taf_trigger": false,
      "metar": "METAR LJLJ 151100Z 00000KT 9999 FEW040 BKN055 02/02 Q1020 NOSIG",
      "taf": "TAF LJLJ 151100Z 1512/1612 30003KT 9999 FEW040 BKN060"
    },
    {
      "icao": "LKMT",
      "alert": "OK",
      "vis_m": 5000,
      "fzfg": false,
      "metar_trigger": false,
      "taf_trigger": false,
      "metar": "METAR LKMT 151130Z 22010KT 5000 BR FEW019 BKN025 01/M00 Q1020 NOSIG",
      "taf": "TAF LKMT 151100Z 1512/1612 22008KT 6000 BKN025"
    },
    {
      "icao": "LKPR",
      "alert": "OK",
      "vis_m": 2800,
      "fzfg": false,
      "metar_trigger": false,
      "taf_trigger": false,
      "metar": "METAR LKPR 151130Z 18004KT 2800 -RA BR MIFG FEW022 BKN030 04/04 Q1017 NOSIG",
      "taf": "TAF LKPR 151100Z 1512/1618 12004KT 3000 BR BKN022"
    },
    {
      "icao": "LLBG",
      "alert": "OK",
      "vis_m": 9999,
      "fzfg": false,
      "metar_trigger": false,
      "taf_trigger": false,
      "metar": "METAR LLBG 151120Z VRB02KT 9999 SCT047 18/06 Q1023 NOSIG",
      "taf": "TAF LLBG 151112Z 1512/1612 32010KT 9999 FEW040"
    },
    {
      "icao": "LMML",
      "alert": "OK",
      "vis_m": 9999,
      "fzfg": false,
      "metar_trigger": false,
      "taf_trigger": false,
      "metar": "METAR LMML 151115Z 14012KT 9999 FEW017 18/14 Q1022 NOSIG",
      "taf": "TAF LMML 151100Z 1512/1612 15012KT 9999 FEW018"
    },
    {
      "icao": "LOWW",
      "alert": "OK",
      "vis_m": 1700,
      "fzfg": true,
      "metar_trigger": false,
      "taf_trigger": false,
      "metar": "METAR LOWW 151120Z 14003KT 1700 1000SW R16/1400U R29/1200U BR FEW001 BKN002 M02/M02 Q1021 NOSIG",
      "taf": "TAF LOWW 151115Z 1512/1618 15004KT 0800 FZFG FEW001 BKN002 TX00/1615Z TNM02/1512Z"
    },
    {
      "icao": "LPFR",
      "alert": "OK",
      "vis_m": 9999,
      "fzfg": false,
      "metar_trigger": false,
      "taf_trigger": false,
      "metar": "METAR LPFR 151130Z 24004KT 9999 FEW014 SCT045 14/11 Q1022",
      "taf": "TAF LPFR 151100Z 1512/1612 27005KT 9999 FEW015"
    },
    {
      "icao": "LPMA",
      "alert": "OK",
      "vis_m": 9999,
      "fzfg": false,
      "metar_trigger": false,
      "taf_trigger": false,
      "metar": "METAR LPMA 151130Z 17004KT 090V240 9999 SCT015 SCT030 17/10 Q1026",
      "taf": "TAF LPMA 151100Z 1512/1612 VRB05KT 9999 SCT015"
    },
    {
      "icao": "LPPR",
      "alert": "OK",
      "vis_m": 5000,
      "fzfg": false,
      "metar_trigger": false,
      "taf_trigger": false,
      "metar": "METAR LPPR 151130Z 17022KT 5000 -RA BR BKN009 OVC016 11/09 Q1013",
      "taf": "TAF LPPR 151100Z 1512/1612 17020KT 8000 -RA SCT008 BKN015"
    },
    {
      "icao": "LPPS",
      "alert": "OK",
      "vis_m": 9999,
      "fzfg": false,
      "metar_trigger": false,
      "taf_trigger": false,
      "metar": "METAR LPPS 151130Z 30009KT 9999 VCSH SCT014 SCT030 16/12 Q1026",
      "taf": "TAF LPPS 151100Z 1512/1618 30010KT 9999 SCT015 BKN030"
    },
    {
      "icao": "LPPT",
      "alert": "OK",
      "vis_m": 9999,
      "fzfg": false,
      "metar_trigger": false,
      "taf_trigger": false,
      "metar": "METAR LPPT 151130Z 21014KT 9999 FEW022 BKN030 14/10 Q1018",
      "taf": "TAF LPPT 151100Z 1512/1618 22015KT 9999 FEW025 BKN035"
    },
    {
      "icao": "LQBK",
      "alert": "OK",
      "vis_m": 9999,
      "fzfg": false,
      "metar_trigger": false,
      "taf_trigger": false,
      "metar": "METAR LQBK 151130Z 34003KT CAVOK 05/01 Q1021 NOSIG",
      "taf": "TAF LQBK 151100Z 1512/1612 22005KT CAVOK TX08/1513Z TN02/1605Z"
    },
    {
      "icao": "LQSA",
      "alert": "OK",
      "vis_m": 9999,
      "fzfg": false,
      "metar_trigger": false,
      "taf_trigger": false,
      "metar": "METAR LQSA 151130Z 00000KT 9999 SCT050 07/02 Q1023 NOSIG",
      "taf": "TAF LQSA 151100Z 1512/1612 VRB02KT 8000 FEW012 SCT050 TX08/1514Z TN00/1605Z"
    },
    {
      "icao": "LQTZ",
      "alert": "OK",
      "vis_m": 7000,
      "fzfg": false,
      "metar_trigger": false,
      "taf_trigger": false,
      "metar": "METAR LQTZ 151130Z VRB02KT 7000 SCT056 BKN067 06/03 Q1022",
      "taf": "TAF LQTZ 151100Z 1512/1612 VRB02KT 7000 BKN045 TX07/1513Z TN00/1605Z"
    },
    {
      "icao": "LRBC",
      "alert": "OK",
      "vis_m": 8000,
      "fzfg": false,
      "metar_trigger": false,
      "taf_trigger": false,
      "metar": "METAR LRBC 151130Z 36006KT 8000 OVC016 M02/M06 Q1021",
      "taf": "TAF LRBC 151100Z 1512/1521 36007KT 8000 BKN015 OVC025"
    },
    {
      "icao": "LRBS",
      "alert": "OK",
      "vis_m": 8000,
      "fzfg": false,
      "metar_trigger": false,
      "taf_trigger": false,
      "metar": "METAR LRBS 151130Z 08006KT 8000 NSC 03/M02 Q1021 NOSIG",
      "taf": "TAF LRBS 151100Z 1512/1612 09010KT 5000 BR NSC"
    },
    {
      "icao": "LRBV",
      "alert": "OK",
      "vis_m": 5000,
      "fzfg": false,
      "metar_trigger": false,
      "taf_trigger": false,
      "metar": "METAR LRBV 151130Z 22004KT 180V280 5000 -RADZ BR BKN009 OVC012 02/01 Q1020 RERA",
      "taf": "TAF LRBV 151100Z 1512/1521 29006KT 5000 -RADZ BR BKN010 OVC015"
    },
    {
      "icao": "LRCL",
      "alert": "OK",
      "vis_m": 1400,
      "fzfg": false,
      "metar_trigger": false,
      "taf_trigger": false,
      "metar": "METAR LRCL 151130Z 00000KT 1400 R25/1600N DZ BR OVC012 01/M01 Q1022",
      "taf": "TAF LRCL 151100Z 1512/1521 VRB04KT 1500 -SN BR BKN005 OVC015"
    },
    {
      "icao": "LRCV",
      "alert": "OK",
      "vis_m": 9999,
      "fzfg": false,
      "metar_trigger": false,
      "taf_trigger": false,
      "metar": "METAR LRCV 151130Z 29012KT CAVOK 11/05 Q1020",
      "taf": "TAF LRCV 151100Z 1512/1521 29012KT CAVOK"
    },
    {
      "icao": "LRIA",
      "alert": "OK",
      "vis_m": 9999,
      "fzfg": false,
      "metar_trigger": false,
      "taf_trigger": false,
      "metar": "METAR LRIA 151130Z 33005KT 9999 BKN008 OVC038 M04/M06 Q1022",
      "taf": "TAF LRIA 151100Z 1512/1521 32006KT 9999 SCT005 BKN035"
    },
    {
      "icao": "LROP",
      "alert": "OK",
      "vis_m": 5000,
      "fzfg": false,
      "metar_trigger": false,
      "taf_trigger": false,
      "metar": "METAR LROP 151130Z 10007KT 5000 BR NSC 01/M04 Q1021 NOSIG",
      "taf": "TAF LROP 151100Z 1512/1612 09010KT 5000 BR NSC"
    },
    {
      "icao": "LRSB",
      "alert": "OK",
      "vis_m": 4000,
      "fzfg": false,
      "metar_trigger": false,
      "taf_trigger": false,
      "metar": "METAR LRSB 151130Z VRB01KT 4000 BR OVC007 02/01 Q1021",
      "taf": "TAF LRSB 151100Z 1512/1612 VRB04KT 5000 BR BKN010 OVC020"
    },
    {
      "icao": "LRSM",
      "alert": "OK",
      "vis_m": 5000,
      "fzfg": false,
      "metar_trigger": false,
      "taf_trigger": false,
      "metar": "METAR LRSM 151130Z VRB01KT 5000 BR BKN003 01/M01 Q1023",
      "taf": "TAF LRSM 151100Z 1512/1521 VRB04KT 3000 BR BKN002"
    },
    {
      "icao": "LRSV",
      "alert": "OK",
      "vis_m": 5000,
      "fzfg": false,
      "metar_trigger": false,
      "taf_trigger": false,
      "metar": "METAR LRSV 151130Z 08004KT 5000 BR OVC005 M06/M07 Q1020",
      "taf": "TAF LRSV 151100Z 1512/1521 07005KT 5000 BR OVC010"
    },
    {
      "icao": "LRTM",
      "alert": "OK",
      "vis_m": 1400,
      "fzfg": false,
      "metar_trigger": false,
      "taf_trigger": false,
      "metar": "METAR LRTM 151130Z 23002KT 1400 R07/1900D -SHSN BR FEW003 SCT007 BKN013 00/M01 Q1022",
      "taf": "TAF LRTM 151100Z 1512/1521 VRB04KT 1500 -SN BR BKN005 OVC020"
    },
    {
      "icao": "LRTR",
      "alert": "OK",
      "vis_m": 6000,
      "fzfg": false,
      "metar_trigger": false,
      "taf_trigger": false,
      "metar": "METAR LRTR 151130Z 10003KT 6000 NSC 05/02 Q1022",
      "taf": "TAF LRTR 151100Z 1512/1612 VRB04KT 5000 BR BKN020"
    },
    {
      "icao": "LTAC",
      "alert": "OK",
      "vis_m": 9999,
      "fzfg": false,
      "metar_trigger": false,
      "taf_trigger": false,
      "metar": "METAR LTAC 151120Z 24012KT 9999 SCT010 SCT035 BKN090 02/M02 Q1021 NOSIG RMK RWY21C 23012KT RWY03L 24010KT RWY21R 22010KT RWY03R 24008KT 200V270 RWY21L 24012KT",
      "taf": "TAF LTAC 151040Z 1512/1612 22008KT 9999 SCT010 SCT040 BKN100"
    },
    {
      "icao": "LTFM",
      "alert": "OK",
      "vis_m": 9999,
      "fzfg": false,
      "metar_trigger": false,
      "taf_trigger": false,
      "metar": "METAR LTFM 151120Z 22017KT 9999 FEW025 BKN070 11/06 Q1021 NOSIG RMK RWY17L 22013KT RWY34L 21016KT RWY16R 21013KT RWY36 22014KT RWY18 22016KT",
      "taf": "TAF LTFM 151040Z 1512/1618 23017G27KT 9999 FEW025 BKN070"
    },
    {
      "icao": "LUKK",
      "alert": "OK",
      "vis_m": 8000,
      "fzfg": false,
      "metar_trigger": false,
      "taf_trigger": false,
      "metar": "METAR LUKK 151130Z 04008KT 8000 -SN OVC012 M05/M07 Q1022 TEMPO 4000 SN BR BKN007",
      "taf": "TAF LUKK 151105Z 1512/1612 03008KT 9999 BKN012"
    },
    {
      "icao": "LWOH",
      "alert": "OK",
      "vis_m": 9999,
      "fzfg": false,
      "metar_trigger": false,
      "taf_trigger": false,
      "metar": "METAR LWOH 151050Z 15004KT 120V180 9999 FEW033 07/03 Q1025",
      "taf": "TAF LWOH 151120Z 1512/1612 VRB02KT 9999 FEW033"
    },
    {
      "icao": "LWSK",
      "alert": "OK",
      "vis_m": 9999,
      "fzfg": false,
      "metar_trigger": false,
      "taf_trigger": false,
      "metar": "METAR LWSK 151050Z VRB01KT CAVOK 07/01 Q1025 NOSIG",
      "taf": "TAF LWSK 151120Z 1512/1612 VRB02KT CAVOK"
    },
    {
      "icao": "LYBE",
      "alert": "OK",
      "vis_m": 9999,
      "fzfg": false,
      "metar_trigger": false,
      "taf_trigger": false,
      "metar": "METAR LYBE 151130Z 00000KT CAVOK 07/02 Q1022 NOSIG",
      "taf": "TAF LYBE 151100Z 1512/1612 18005KT 9999 SCT045 TX08/1513Z TN02/1606Z"
    },
    {
      "icao": "LYNI",
      "alert": "OK",
      "vis_m": 9999,
      "fzfg": false,
      "metar_trigger": false,
      "taf_trigger": false,
      "metar": "METAR LYNI 151130Z VRB01KT 9999 SCT050 BKN070 09/05 Q1024 NOSIG",
      "taf": "TAF LYNI 151100Z 1512/1612 11004KT 9999 SCT060 TX10/1513Z TN00/1606Z"
    },
    {
      "icao": "LYPG",
      "alert": "OK",
      "vis_m": 9999,
      "fzfg": false,
      "metar_trigger": false,
      "taf_trigger": false,
      "metar": "METAR LYPG 151130Z VRB02KT 9999 BKN070 12/06 Q1025 NOSIG",
      "taf": "TAF LYPG 151100Z 1512/1612 17005KT 9999 FEW040 BKN080 TX13/1513Z TN05/1605Z"
    },
    {
      "icao": "LZIB",
      "alert": "OK",
      "vis_m": 2800,
      "fzfg": false,
      "metar_trigger": false,
      "taf_trigger": false,
      "metar": "METAR LZIB 151130Z 11003KT 2800 BR SCT004 M01/M01 Q1021 NOSIG",
      "taf": "TAF LZIB 151115Z 1512/1612 VRB02KT 6000 FEW007 BKN016"
    },
    {
      "icao": "LZKZ",
      "alert": "OK",
      "vis_m": 6000,
      "fzfg": false,
      "metar_trigger": false,
      "taf_trigger": false,
      "metar": "METAR LZKZ 151130Z 20002KT 6000 OVC017 M01/M03 Q1022 NOSIG",
      "taf": "TAF LZKZ 151115Z 1512/1612 VRB02KT 9999 SCT010 BKN025"
    },
    {
      "icao": "LZTT",
      "alert": "OK",
      "vis_m": 9999,
      "fzfg": false,
      "metar_trigger": false,
      "taf_trigger": false,
      "metar": "METAR LZTT 151130Z 08003KT 9999 SCT011 BKN023 02/M00 Q1018 NOSIG",
      "taf": "TAF LZTT 151115Z 1512/1612 VRB02KT 9999 FEW009 SCT014 BKN025"
    },
    {
      "icao": "OEJN",
      "alert": "OK",
      "vis_m": 9999,
      "fzfg": false,
      "metar_trigger": false,
      "taf_trigger": false,
      "metar": "METAR OEJN 151100Z 32011KT CAVOK 28/08 Q1013 NOSIG",
      "taf": "TAF OEJN 151100Z 1512/1618 33014KT 9999 FEW040"
    },
    {
      "icao": "OEMA",
      "alert": "OK",
      "vis_m": 9999,
      "fzfg": false,
      "metar_trigger": false,
      "taf_trigger": false,
      "metar": "METAR OEMA 151100Z 11009KT CAVOK 21/M02 Q1021 NOSIG",
      "taf": "TAF OEMA 151100Z 1512/1618 08012KT 7000 NSC"
    },
    {
      "icao": "OJAI",
      "alert": "OK",
      "vis_m": 5000,
      "fzfg": false,
      "metar_trigger": false,
      "taf_trigger": false,
      "metar": "METAR OJAI 151100Z 28010KT 5000 HZ SCT030 11/02 Q1024 NOSIG",
      "taf": "TAF OJAI 151100Z 1512/1618 29008KT 5000 HZ FEW030"
    },
    {
      "icao": "OMAA",
      "alert": "OK",
      "vis_m": 9999,
      "fzfg": false,
      "metar_trigger": false,
      "taf_trigger": false,
      "metar": "METAR OMAA 151100Z 29014KT 260V320 CAVOK 26/11 Q1015 NOSIG",
      "taf": "TAF OMAA 151100Z 1512/1618 32015KT 8000 FEW045"
    },
    {
      "icao": "OMDB",
      "alert": "OK",
      "vis_m": 9999,
      "fzfg": false,
      "metar_trigger": false,
      "taf_trigger": false,
      "metar": "METAR OMDB 151130Z 28014KT 240V310 CAVOK 27/07 Q1015 NOSIG",
      "taf": "TAF OMDB 151100Z 1512/1618 28014KT 8000 NSC"
    },
    {
      "icao": "UAAA",
      "alert": "OK",
      "vis_m": 5000,
      "fzfg": false,
      "metar_trigger": false,
      "taf_trigger": false,
      "metar": "METAR UAAA 151130Z VRB01MPS 5000 BR OVC007 M07/M08 Q1021 NOSIG",
      "taf": "TAF UAAA 151110Z 1512/1612 34003G08MPS 1600 BR FU BKN011CB OVC020 TXM07/1608Z TNM10/1603Z"
    },
    {
      "icao": "UBBB",
      "alert": "OK",
      "vis_m": 9999,
      "fzfg": false,
      "metar_trigger": false,
      "taf_trigger": false,
      "metar": "METAR UBBB 151130Z 36014KT CAVOK 05/M02 Q1023 NOSIG",
      "taf": "TAF UBBB 151051Z 1512/1612 01010KT 9999 SCT030 TX05/1512Z TN01/1601Z"
    },
    {
      "icao": "UDSG",
      "alert": "OK",
      "vis_m": 9999,
      "fzfg": false,
      "metar_trigger": false,
      "taf_trigger": false,
      "metar": "METAR UDSG 151130Z 14002KT 9999 NSC M07/M13 Q1019 NOSIG",
      "taf": "TAF UDSG 151058Z 1512/1612 VRB06KT 9999 FEW040"
    },
    {
      "icao": "UDYZ",
      "alert": "OK",
      "vis_m": 9999,
      "fzfg": false,
      "metar_trigger": false,
      "taf_trigger": false,
      "metar": "METAR UDYZ 151130Z VRB01KT 9999 FEW046 03/M10 Q1019 NOSIG",
      "taf": "TAF UDYZ 151100Z 1512/1612 VRB06KT 6000 FEW040"
    },
    {
      "icao": "UGKO",
      "alert": "OK",
      "vis_m": 9999,
      "fzfg": false,
      "metar_trigger": false,
      "taf_trigger": false,
      "metar": "METAR UGKO 151130Z 04005KT 360V060 9999 BKN010 05/01 Q1024 NOSIG",
      "taf": "TAF UGKO 151100Z 1512/1612 VRB02KT 9999 SCT020 BKN050 TX05/1512Z TNM01/1601Z"
    }
  ]
}