{
  "ts_utc": "2026-03-07T13:50:34Z",
  "threshold_m": 150,
  "source": "stations_override.txt (ICAO list) + aviationweather.gov (METAR/TAF raw)",
  "station_count": 159,
  "stations": [
    {
      "icao": "BIKF",
      "alert": "OK",
      "vis_m": 9999,
      "fzfg": false,
      "metar_trigger": false,
      "taf_trigger": false,
      "metar": "METAR BIKF 071330Z 22025KT 9999 VCSH FEW011CB BKN019 02/01 Q0987",
      "taf": "TAF BIKF 071344Z 0715/0815 22025G35KT 9999 SCT015 BKN035 TX03/0715Z TNM00/0804Z"
    },
    {
      "icao": "BKPR",
      "alert": "OK",
      "vis_m": 9999,
      "fzfg": false,
      "metar_trigger": false,
      "taf_trigger": false,
      "metar": "METAR BKPR 071330Z 11003KT 080V210 CAVOK 16/03 Q1025 NOSIG",
      "taf": "TAF BKPR 071130Z 0712/0812 VRB05KT 9999 FEW050"
    },
    {
      "icao": "EBCI",
      "alert": "OK",
      "vis_m": 9000,
      "fzfg": false,
      "metar_trigger": false,
      "taf_trigger": false,
      "metar": "METAR EBCI 071320Z 04007KT 9000 NSC 14/08 Q1024 NOSIG",
      "taf": "TAF EBCI 071101Z 0712/0818 04008KT CAVOK"
    },
    {
      "icao": "EDDB",
      "alert": "OK",
      "vis_m": 9999,
      "fzfg": false,
      "metar_trigger": false,
      "taf_trigger": false,
      "metar": "METAR EDDB 071320Z AUTO 20004KT 100V270 CAVOK 18/04 Q1025 NOSIG",
      "taf": "TAF EDDB 071100Z 0712/0812 16005KT CAVOK"
    },
    {
      "icao": "EDDH",
      "alert": "OK",
      "vis_m": 9999,
      "fzfg": false,
      "metar_trigger": false,
      "taf_trigger": false,
      "metar": "METAR EDDH 071320Z AUTO 18002KT CAVOK 18/05 Q1025 NOSIG",
      "taf": "TAF EDDH 071100Z 0712/0818 VRB03KT CAVOK"
    },
    {
      "icao": "EDDK",
      "alert": "OK",
      "vis_m": 9999,
      "fzfg": false,
      "metar_trigger": false,
      "taf_trigger": false,
      "metar": "METAR EDDK 071320Z AUTO 28003KT 200V320 CAVOK 18/05 Q1024 NOSIG",
      "taf": "TAF EDDK 071100Z 0712/0818 VRB03KT CAVOK"
    },
    {
      "icao": "EDDN",
      "alert": "OK",
      "vis_m": 9999,
      "fzfg": false,
      "metar_trigger": false,
      "taf_trigger": false,
      "metar": "METAR EDDN 071320Z AUTO 20004KT 110V250 CAVOK 16/04 Q1023 NOSIG",
      "taf": "TAF EDDN 071100Z 0712/0812 VRB03KT CAVOK"
    },
    {
      "icao": "EDDS",
      "alert": "OK",
      "vis_m": 9999,
      "fzfg": false,
      "metar_trigger": false,
      "taf_trigger": false,
      "metar": "METAR EDDS 071320Z AUTO 06004KT 330V130 CAVOK 18/03 Q1022 NOSIG",
      "taf": "TAF EDDS 071100Z 0712/0812 03005KT CAVOK"
    },
    {
      "icao": "EDFH",
      "alert": "OK",
      "vis_m": 9999,
      "fzfg": false,
      "metar_trigger": false,
      "taf_trigger": false,
      "metar": "METAR EDFH 071320Z 08004KT 360V160 CAVOK 16/02 Q1024",
      "taf": "TAF EDFH 071100Z 0712/0812 11006KT CAVOK"
    },
    {
      "icao": "EDJA",
      "alert": "OK",
      "vis_m": 9999,
      "fzfg": false,
      "metar_trigger": false,
      "taf_trigger": false,
      "metar": "METAR EDJA 071320Z 05009KT 350V100 CAVOK 14/05 Q1023",
      "taf": "TAF EDJA 071100Z 0712/0721 05005KT CAVOK"
    },
    {
      "icao": "EDLW",
      "alert": "OK",
      "vis_m": 9999,
      "fzfg": false,
      "metar_trigger": false,
      "taf_trigger": false,
      "metar": "METAR EDLW 071320Z 01003KT 330V040 CAVOK 17/06 Q1024",
      "taf": "TAF EDLW 071100Z 0712/0812 VRB03KT CAVOK"
    },
    {
      "icao": "EDNY",
      "alert": "OK",
      "vis_m": 9999,
      "fzfg": false,
      "metar_trigger": false,
      "taf_trigger": false,
      "metar": "METAR EDNY 071320Z 23006KT CAVOK 13/06 Q1023",
      "taf": "TAF EDNY 071100Z 0712/0721 23005KT CAVOK"
    },
    {
      "icao": "EDSB",
      "alert": "OK",
      "vis_m": 9999,
      "fzfg": false,
      "metar_trigger": false,
      "taf_trigger": false,
      "metar": "METAR EDSB 071320Z 36006KT 320V030 CAVOK 15/07 Q1023",
      "taf": "TAF EDSB 071100Z 0712/0812 01006KT CAVOK"
    },
    {
      "icao": "EETN",
      "alert": "OK",
      "vis_m": 9999,
      "fzfg": false,
      "metar_trigger": false,
      "taf_trigger": false,
      "metar": "METAR EETN 071320Z 31005KT CAVOK 04/M00 Q1028 NOSIG",
      "taf": "TAF EETN 071130Z 0712/0812 26007KT CAVOK"
    },
    {
      "icao": "EFTU",
      "alert": "OK",
      "vis_m": 9999,
      "fzfg": false,
      "metar_trigger": false,
      "taf_trigger": false,
      "metar": "METAR EFTU 071320Z AUTO 28008KT CAVOK 07/M03 Q1028",
      "taf": "TAF EFTU 071127Z 0712/0812 26005KT CAVOK"
    },
    {
      "icao": "EGBB",
      "alert": "OK",
      "vis_m": 9999,
      "fzfg": false,
      "metar_trigger": false,
      "taf_trigger": false,
      "metar": "METAR EGBB 071320Z 11006KT 080V150 9999 BKN011 07/05 Q1026",
      "taf": ""
    },
    {
      "icao": "EGGP",
      "alert": "OK",
      "vis_m": 9999,
      "fzfg": false,
      "metar_trigger": false,
      "taf_trigger": false,
      "metar": "METAR EGGP 071320Z 14006KT 120V180 9999 FEW013 SCT019 BKN024 08/04 Q1026",
      "taf": "TAF EGGP 071054Z 0712/0812 16008KT 9999 SCT020"
    },
    {
      "icao": "EGGW",
      "alert": "OK",
      "vis_m": 2800,
      "fzfg": false,
      "metar_trigger": false,
      "taf_trigger": false,
      "metar": "METAR EGGW 071320Z AUTO 07004KT 050V110 2800 BR OVC002 07/07 Q1026",
      "taf": ""
    },
    {
      "icao": "EGKK",
      "alert": "OK",
      "vis_m": 9999,
      "fzfg": false,
      "metar_trigger": false,
      "taf_trigger": false,
      "metar": "METAR EGKK 071320Z 04008KT 9999 BKN006 09/08 Q1026",
      "taf": ""
    },
    {
      "icao": "EGNM",
      "alert": "OK",
      "vis_m": 9999,
      "fzfg": false,
      "metar_trigger": false,
      "taf_trigger": false,
      "metar": "METAR EGNM 071320Z 16005KT 140V200 9999 BKN020 07/03 Q1026",
      "taf": "TAF EGNM 071054Z 0712/0812 14006KT 9999 SCT020"
    },
    {
      "icao": "EGPD",
      "alert": "OK",
      "vis_m": 9999,
      "fzfg": false,
      "metar_trigger": false,
      "taf_trigger": false,
      "metar": "METAR EGPD 071320Z COR AUTO 18011KT 9999 NCD 10/04 Q1022 NOSIG",
      "taf": "TAF EGPD 071058Z 0712/0812 20009KT CAVOK"
    },
    {
      "icao": "EGPF",
      "alert": "OK",
      "vis_m": 9999,
      "fzfg": false,
      "metar_trigger": false,
      "taf_trigger": false,
      "metar": "METAR EGPF 071320Z AUTO 17011KT 9999 BKN028 10/04 Q1024",
      "taf": ""
    },
    {
      "icao": "EHBK",
      "alert": "OK",
      "vis_m": 9999,
      "fzfg": false,
      "metar_trigger": false,
      "taf_trigger": false,
      "metar": "METAR EHBK 071325Z AUTO 04007KT 360V070 9999 NSC 16/07 Q1024 NOSIG",
      "taf": "TAF EHBK 071114Z 0712/0818 VRB02KT CAVOK"
    },
    {
      "icao": "EHEH",
      "alert": "OK",
      "vis_m": 7000,
      "fzfg": false,
      "metar_trigger": false,
      "taf_trigger": false,
      "metar": "METAR EHEH 071325Z AUTO 36005KT 310V050 7000 HZ BKN290 16/10 Q1025 WHT NOSIG RMK TREND REMOTE BY EHWX",
      "taf": "TAF EHEH 071103Z 0712/0818 02005KT 7000 NSC"
    },
    {
      "icao": "EKBI",
      "alert": "OK",
      "vis_m": 4100,
      "fzfg": false,
      "metar_trigger": false,
      "taf_trigger": false,
      "metar": "METAR EKBI 071319Z 13003KT 4100 BR BKN035 11/08 Q1025",
      "taf": "TAF EKBI 071127Z 0712/0812 18003KT 4000 BR BKN040"
    },
    {
      "icao": "EKCH",
      "alert": "OK",
      "vis_m": 9999,
      "fzfg": false,
      "metar_trigger": false,
      "taf_trigger": false,
      "metar": "METAR EKCH 071320Z AUTO 15005KT 9999 FEW096/// SCT110/// 08/01 Q1026 NOSIG",
      "taf": "TAF EKCH 071127Z 0712/0812 15007KT CAVOK"
    },
    {
      "icao": "ENAL",
      "alert": "OK",
      "vis_m": 9999,
      "fzfg": false,
      "metar_trigger": false,
      "taf_trigger": false,
      "metar": "METAR ENAL 071320Z 13004KT 080V150 CAVOK 08/03 Q1023",
      "taf": "TAF ENAL 071100Z 0712/0721 VRB04KT CAVOK"
    },
    {
      "icao": "ENBR",
      "alert": "OK",
      "vis_m": 4500,
      "fzfg": false,
      "metar_trigger": false,
      "taf_trigger": false,
      "metar": "METAR ENBR 071320Z 20004KT 4500 BR VV005 05/05 Q1026 BECMG 9000 NSW BKN010 RMK WIND 1200FT 16007KT",
      "taf": ""
    },
    {
      "icao": "ENGM",
      "alert": "OK",
      "vis_m": 9999,
      "fzfg": false,
      "metar_trigger": false,
      "taf_trigger": false,
      "metar": "METAR ENGM 071320Z 07003KT 9999 BKN008 04/02 Q1027 TEMPO SCT006 BKN012",
      "taf": ""
    },
    {
      "icao": "ENHD",
      "alert": "OK",
      "vis_m": 2000,
      "fzfg": false,
      "metar_trigger": false,
      "taf_trigger": false,
      "metar": "METAR ENHD 071320Z 26003KT 230V290 2000 BR SCT003 SCT006 OVC015 06/05 Q1026",
      "taf": ""
    },
    {
      "icao": "ENTC",
      "alert": "OK",
      "vis_m": 9999,
      "fzfg": false,
      "metar_trigger": false,
      "taf_trigger": false,
      "metar": "METAR ENTC 071320Z 19013KT 9999 BKN037 04/02 Q1017 NOSIG RMK WIND 2600FT 25023G34KT",
      "taf": "TAF ENTC 071100Z 0712/0812 20012KT 9999 FEW015 SCT025"
    },
    {
      "icao": "ENTO",
      "alert": "OK",
      "vis_m": 9999,
      "fzfg": false,
      "metar_trigger": false,
      "taf_trigger": false,
      "metar": "METAR ENTO 071320Z 01007KT 9999 BKN018 05/04 Q1027 NOSIG",
      "taf": "TAF ENTO 071100Z 0712/0812 01005KT 7000 BKN015"
    },
    {
      "icao": "ENVA",
      "alert": "OK",
      "vis_m": 9999,
      "fzfg": false,
      "metar_trigger": false,
      "taf_trigger": false,
      "metar": "METAR ENVA 071320Z VRB02KT CAVOK 05/00 Q1024 NOSIG RMK WIND 670FT 16007KT",
      "taf": "TAF ENVA 071100Z 0712/0812 VRB05KT CAVOK"
    },
    {
      "icao": "ENZV",
      "alert": "OK",
      "vis_m": 5000,
      "fzfg": false,
      "metar_trigger": false,
      "taf_trigger": false,
      "metar": "METAR ENZV 071320Z 30003KT 270V330 5000 BR SCT010 BKN015 09/05 Q1026 TEMPO 3000 -DZ BR BKN006",
      "taf": ""
    },
    {
      "icao": "EPGD",
      "alert": "OK",
      "vis_m": 9999,
      "fzfg": false,
      "metar_trigger": false,
      "taf_trigger": false,
      "metar": "METAR EPGD 071330Z 21004KT CAVOK 15/M03 Q1027",
      "taf": "TAF EPGD 071130Z 0712/0812 24004KT CAVOK"
    },
    {
      "icao": "EPKK",
      "alert": "OK",
      "vis_m": 9999,
      "fzfg": false,
      "metar_trigger": false,
      "taf_trigger": false,
      "metar": "METAR EPKK 071330Z 07007KT 040V100 CAVOK 14/M05 Q1027",
      "taf": "TAF EPKK 071130Z 0712/0812 07005KT CAVOK"
    },
    {
      "icao": "EPKT",
      "alert": "OK",
      "vis_m": 9999,
      "fzfg": false,
      "metar_trigger": false,
      "taf_trigger": false,
      "metar": "METAR EPKT 071330Z VRB02KT CAVOK 17/M06 Q1026",
      "taf": "TAF EPKT 071130Z 0712/0812 16004KT CAVOK"
    },
    {
      "icao": "EPLB",
      "alert": "OK",
      "vis_m": 9999,
      "fzfg": false,
      "metar_trigger": false,
      "taf_trigger": false,
      "metar": "METAR EPLB 071330Z 06004KT 020V120 CAVOK 12/M02 Q1028",
      "taf": "TAF EPLB 071130Z 0712/0812 VRB02KT CAVOK"
    },
    {
      "icao": "EPMO",
      "alert": "OK",
      "vis_m": 9999,
      "fzfg": false,
      "metar_trigger": false,
      "taf_trigger": false,
      "metar": "METAR EPMO 071330Z VRB02KT CAVOK 15/M06 Q1028",
      "taf": "TAF EPMO 071130Z 0712/0812 VRB03KT CAVOK"
    },
    {
      "icao": "EPPO",
      "alert": "OK",
      "vis_m": 9999,
      "fzfg": false,
      "metar_trigger": false,
      "taf_trigger": false,
      "metar": "METAR EPPO 071330Z VRB03KT CAVOK 17/00 Q1027",
      "taf": "TAF EPPO 071130Z 0712/0812 16002KT CAVOK"
    },
    {
      "icao": "EPRA",
      "alert": "OK",
      "vis_m": 9999,
      "fzfg": false,
      "metar_trigger": false,
      "taf_trigger": false,
      "metar": "METAR EPRA 071330Z 05005KT 010V080 CAVOK 13/M10 Q1028",
      "taf": "TAF EPRA 071130Z 0712/0721 12004KT CAVOK"
    },
    {
      "icao": "EPRZ",
      "alert": "OK",
      "vis_m": 9999,
      "fzfg": false,
      "metar_trigger": false,
      "taf_trigger": false,
      "metar": "METAR EPRZ 071330Z 11005KT 070V170 CAVOK 13/M03 Q1027",
      "taf": "TAF EPRZ 071130Z 0712/0812 10004KT CAVOK"
    },
    {
      "icao": "EPSC",
      "alert": "OK",
      "vis_m": 9999,
      "fzfg": false,
      "metar_trigger": false,
      "taf_trigger": false,
      "metar": "METAR EPSC 071330Z 13007KT CAVOK 16/02 Q1026",
      "taf": "TAF EPSC 071130Z 0712/0812 12006KT CAVOK"
    },
    {
      "icao": "EPSY",
      "alert": "OK",
      "vis_m": 9999,
      "fzfg": false,
      "metar_trigger": false,
      "taf_trigger": false,
      "metar": "METAR EPSY 071330Z 21005KT 170V240 CAVOK 14/M06 Q1028",
      "taf": "TAF EPSY 071130Z 0712/0721 VRB02KT CAVOK"
    },
    {
      "icao": "EPWA",
      "alert": "OK",
      "vis_m": 9999,
      "fzfg": false,
      "metar_trigger": false,
      "taf_trigger": false,
      "metar": "METAR EPWA 071330Z VRB02KT CAVOK 15/M06 Q1028 NOSIG",
      "taf": "TAF EPWA 071130Z 0712/0812 VRB03KT CAVOK"
    },
    {
      "icao": "EPWR",
      "alert": "OK",
      "vis_m": 9999,
      "fzfg": false,
      "metar_trigger": false,
      "taf_trigger": false,
      "metar": "METAR EPWR 071330Z 14010KT 100V170 CAVOK 17/00 Q1026",
      "taf": "TAF EPWR 071130Z 0712/0812 10005KT CAVOK"
    },
    {
      "icao": "ESGG",
      "alert": "OK",
      "vis_m": 7000,
      "fzfg": false,
      "metar_trigger": false,
      "taf_trigger": false,
      "metar": "METAR ESGG 071320Z 03005KT 7000 -RA VV027 04/03 Q1026",
      "taf": "TAF ESGG 071130Z 0712/0812 13005KT 9999 -RA SCT040 BKN060"
    },
    {
      "icao": "ESKN",
      "alert": "OK",
      "vis_m": 9999,
      "fzfg": false,
      "metar_trigger": false,
      "taf_trigger": false,
      "metar": "METAR ESKN 071320Z 00000KT 9999 -RA SCT016 BKN047 05/04 Q1028",
      "taf": "TAF ESKN 071130Z 0712/0812 VRB03KT CAVOK"
    },
    {
      "icao": "ESMS",
      "alert": "OK",
      "vis_m": 9999,
      "fzfg": false,
      "metar_trigger": false,
      "taf_trigger": false,
      "metar": "METAR ESMS 071320Z VRB02KT CAVOK 12/02 Q1026",
      "taf": "TAF ESMS 071127Z 0712/0812 12005KT CAVOK"
    },
    {
      "icao": "ESSA",
      "alert": "OK",
      "vis_m": 9999,
      "fzfg": false,
      "metar_trigger": false,
      "taf_trigger": false,
      "metar": "METAR ESSA 071320Z 08006KT 9999 -RA SCT005 BKN040 03/02 Q1028 NOSIG",
      "taf": "TAF ESSA 071130Z 0712/0812 07005KT 9000 BKN045"
    },
    {
      "icao": "EYKA",
      "alert": "OK",
      "vis_m": 9999,
      "fzfg": false,
      "metar_trigger": false,
      "taf_trigger": false,
      "metar": "METAR EYKA 071320Z 27004KT 230V320 CAVOK 11/M07 Q1028",
      "taf": "TAF EYKA 071100Z 0712/0812 VRB04KT 9000 NSC"
    },
    {
      "icao": "EYPA",
      "alert": "OK",
      "vis_m": 9999,
      "fzfg": false,
      "metar_trigger": false,
      "taf_trigger": false,
      "metar": "METAR EYPA 071320Z VRB02KT CAVOK 07/01 Q1028",
      "taf": "TAF EYPA 071100Z 0712/0812 VRB04KT 9000 NSC"
    },
    {
      "icao": "EYVI",
      "alert": "OK",
      "vis_m": 9999,
      "fzfg": false,
      "metar_trigger": false,
      "taf_trigger": false,
      "metar": "METAR EYVI 071320Z 29004KT 230V040 CAVOK 10/M05 Q1027 NOSIG",
      "taf": "TAF EYVI 071100Z 0712/0812 VRB04KT 9000 NSC"
    },
    {
      "icao": "GCFV",
      "alert": "OK",
      "vis_m": 9999,
      "fzfg": false,
      "metar_trigger": false,
      "taf_trigger": false,
      "metar": "METAR GCFV 071330Z 02017KT 9999 FEW030 BKN040 19/06 Q1020",
      "taf": "TAF GCFV 070800Z 0709/0809 03018KT 9999 SCT035 TX20/0714Z TN14/0806Z"
    },
    {
      "icao": "GCLP",
      "alert": "OK",
      "vis_m": 9999,
      "fzfg": false,
      "metar_trigger": false,
      "taf_trigger": false,
      "metar": "METAR GCLP 071330Z 02020KT 9999 BKN035 19/09 Q1021 NOSIG",
      "taf": "TAF GCLP 070800Z 0709/0809 02022KT 9999 BKN035 TX18/0714Z TN14/0806Z"
    },
    {
      "icao": "GCTS",
      "alert": "OK",
      "vis_m": 9999,
      "fzfg": false,
      "metar_trigger": false,
      "taf_trigger": false,
      "metar": "METAR GCTS 071330Z 09027KT 9999 FEW045 19/09 Q1021 NOSIG",
      "taf": "TAF GCTS 070800Z 0709/0809 08022KT 9999 SCT040 TX22/0714Z TN13/0806Z"
    },
    {
      "icao": "GMAD",
      "alert": "OK",
      "vis_m": 8000,
      "fzfg": false,
      "metar_trigger": false,
      "taf_trigger": false,
      "metar": "METAR GMAD 071330Z 24007KT 200V290 8000 SCT026TCU 20/13 Q1016 NOSIG",
      "taf": "TAF GMAD 071100Z 0712/0818 27012KT CAVOK"
    },
    {
      "icao": "GMMN",
      "alert": "OK",
      "vis_m": 9999,
      "fzfg": false,
      "metar_trigger": false,
      "taf_trigger": false,
      "metar": "METAR GMMN 071330Z 27009KT 250V310 9999 BKN026 15/10 Q1018 NOSIG",
      "taf": "TAF GMMN 071100Z 0712/0818 22008KT 9999 BKN026"
    },
    {
      "icao": "GMMX",
      "alert": "OK",
      "vis_m": 9999,
      "fzfg": false,
      "metar_trigger": false,
      "taf_trigger": false,
      "metar": "METAR GMMX 071330Z VRB03KT 9999 BKN020 SCT040 14/04 Q1018 NOSIG",
      "taf": "TAF GMMX 071100Z 0712/0818 04006KT 8000 SCT020 SCT040"
    },
    {
      "icao": "HEGN",
      "alert": "OK",
      "vis_m": 9999,
      "fzfg": false,
      "metar_trigger": false,
      "taf_trigger": false,
      "metar": "METAR HEGN 071300Z 36016KT CAVOK 24/05 Q1014 NOSIG",
      "taf": "TAF HEGN 071113Z 0712/0818 35010G24KT CAVOK"
    },
    {
      "icao": "HEMA",
      "alert": "OK",
      "vis_m": 9999,
      "fzfg": false,
      "metar_trigger": false,
      "taf_trigger": false,
      "metar": "METAR HEMA 071300Z 34014KT CAVOK 22/09 Q1014 NOSIG",
      "taf": "TAF HEMA 071113Z 0712/0818 36010G24KT 6000 NSC"
    },
    {
      "icao": "HESH",
      "alert": "OK",
      "vis_m": 9999,
      "fzfg": false,
      "metar_trigger": false,
      "taf_trigger": false,
      "metar": "METAR HESH 071300Z 36012KT CAVOK 23/07 Q1014 NOSIG",
      "taf": "TAF HESH 071113Z 0712/0818 01006G18KT CAVOK"
    },
    {
      "icao": "HESX",
      "alert": "OK",
      "vis_m": 9999,
      "fzfg": false,
      "metar_trigger": false,
      "taf_trigger": false,
      "metar": "METAR HESX 071300Z 35012KT 9999 SCT020 22/09 Q1014 NOSIG",
      "taf": "TAF HESX 071113Z 0712/0818 34010KT 6000 SCT025"
    },
    {
      "icao": "LATI",
      "alert": "OK",
      "vis_m": 9999,
      "fzfg": false,
      "metar_trigger": false,
      "taf_trigger": false,
      "metar": "METAR LATI 071350Z 25008KT CAVOK 19/06 Q1025 NOSIG",
      "taf": "TAF LATI 071100Z 0712/0812 28010KT CAVOK TX21/0712Z TN08/0805Z"
    },
    {
      "icao": "LBPD",
      "alert": "OK",
      "vis_m": 9999,
      "fzfg": false,
      "metar_trigger": false,
      "taf_trigger": false,
      "metar": "METAR LBPD 071330Z AUTO 14005KT 090V200 9999 NCD 15/03 Q1027 NOSIG",
      "taf": "TAF LBPD 071100Z 0712/0812 09010KT CAVOK"
    },
    {
      "icao": "LBSF",
      "alert": "OK",
      "vis_m": 9999,
      "fzfg": false,
      "metar_trigger": false,
      "taf_trigger": false,
      "metar": "METAR LBSF 071330Z VRB04KT 9999 FEW065 16/M04 Q1025 NOSIG",
      "taf": "TAF LBSF 071100Z 0712/0812 10010KT CAVOK"
    },
    {
      "icao": "LBWN",
      "alert": "OK",
      "vis_m": 9999,
      "fzfg": false,
      "metar_trigger": false,
      "taf_trigger": false,
      "metar": "METAR LBWN 071330Z 13012KT 9999 FEW033 09/03 Q1029 NOSIG",
      "taf": "TAF LBWN 071100Z 0712/0812 12010KT 9999 SCT040"
    },
    {
      "icao": "LCLK",
      "alert": "OK",
      "vis_m": 9999,
      "fzfg": false,
      "metar_trigger": false,
      "taf_trigger": false,
      "metar": "METAR LCLK 071330Z 35011KT 9999 FEW025 19/02 Q1018 NOSIG",
      "taf": "TAF LCLK 071130Z 0712/0812 02015KT 9999 FEW025"
    },
    {
      "icao": "LCPH",
      "alert": "OK",
      "vis_m": 9999,
      "fzfg": false,
      "metar_trigger": false,
      "taf_trigger": false,
      "metar": "METAR LCPH 071330Z 16008KT 9999 FEW025 SCT050 17/07 Q1018 NOSIG",
      "taf": "TAF LCPH 071130Z 0712/0812 16012KT 9999 FEW020"
    },
    {
      "icao": "LEAL",
      "alert": "OK",
      "vis_m": 9999,
      "fzfg": false,
      "metar_trigger": false,
      "taf_trigger": false,
      "metar": "METAR LEAL 071330Z 10007KT 060V150 9999 SCT025 15/09 Q1017 NOSIG",
      "taf": "TAF LEAL 071100Z 0712/0812 VRB04KT 9999 FEW020 TX15/0713Z TN07/0806Z"
    },
    {
      "icao": "LEBB",
      "alert": "OK",
      "vis_m": 9999,
      "fzfg": false,
      "metar_trigger": false,
      "taf_trigger": false,
      "metar": "METAR LEBB 071330Z 12003KT 060V220 9999 FEW015 OVC024 13/10 Q1021 NOSIG",
      "taf": "TAF LEBB 071100Z 0712/0812 31009KT 7000 BKN016 TX14/0714Z TN07/0806Z"
    },
    {
      "icao": "LEBL",
      "alert": "OK",
      "vis_m": 9999,
      "fzfg": false,
      "metar_trigger": false,
      "taf_trigger": false,
      "metar": "METAR LEBL 071330Z 09008KT 9999 FEW035 15/10 Q1020 NOSIG",
      "taf": ""
    },
    {
      "icao": "LECH",
      "alert": "OK",
      "vis_m": 9999,
      "fzfg": false,
      "metar_trigger": false,
      "taf_trigger": false,
      "metar": "METAR LECH 071330Z AUTO 02007KT 330V060 9999 SCT009 BKN017 BKN028 09/08 Q1019",
      "taf": ""
    },
    {
      "icao": "LEMD",
      "alert": "OK",
      "vis_m": 9999,
      "fzfg": false,
      "metar_trigger": false,
      "taf_trigger": false,
      "metar": "METAR LEMD 071330Z 34006KT 310V010 9999 -DZ VCSH FEW025 BKN035TCU BKN070 10/06 Q1016 TEMPO SHRA",
      "taf": "TAF LEMD 071100Z 0712/0818 02007KT 9999 SCT030 TX14/0714Z TN05/0806Z"
    },
    {
      "icao": "LEMG",
      "alert": "OK",
      "vis_m": 9999,
      "fzfg": false,
      "metar_trigger": false,
      "taf_trigger": false,
      "metar": "METAR LEMG 071330Z 30006KT 9999 FEW035 SCT050 BKN070 16/07 Q1016 NOSIG",
      "taf": "TAF LEMG 071100Z 0712/0812 20006KT 9999 SCT035 TX18/0714Z TN08/0807Z"
    },
    {
      "icao": "LEVC",
      "alert": "OK",
      "vis_m": 9999,
      "fzfg": false,
      "metar_trigger": false,
      "taf_trigger": false,
      "metar": "METAR LEVC 071330Z 06009KT 9999 -RA FEW011 SCT014 BKN050 12/09 Q1018 NOSIG",
      "taf": "TAF LEVC 071100Z 0712/0812 09010KT 9999 SCT015 TX14/0713Z TN09/0806Z"
    },
    {
      "icao": "LEXJ",
      "alert": "OK",
      "vis_m": 2000,
      "fzfg": false,
      "metar_trigger": false,
      "taf_trigger": false,
      "metar": "METAR LEXJ 071330Z 26005KT 230V300 2000 DZ BR OVC011 09/08 Q1021",
      "taf": ""
    },
    {
      "icao": "LEZG",
      "alert": "OK",
      "vis_m": 9999,
      "fzfg": false,
      "metar_trigger": false,
      "taf_trigger": false,
      "metar": "METAR LEZG 071330Z 10010KT 070V130 9999 SCT030 14/09 Q1018 NOSIG",
      "taf": "TAF LEZG 071100Z 0712/0812 11010KT 9999 SCT020 TX15/0714Z TN06/0806Z"
    },
    {
      "icao": "LEZL",
      "alert": "OK",
      "vis_m": 9999,
      "fzfg": false,
      "metar_trigger": false,
      "taf_trigger": false,
      "metar": "METAR LEZL 071330Z 21003KT 9999 FEW028 18/11 Q1016 NOSIG",
      "taf": "TAF LEZL 070800Z 0709/0809 VRB03KT 9999 SCT030 TX17/0715Z TN10/0807Z"
    },
    {
      "icao": "LFBD",
      "alert": "OK",
      "vis_m": 9999,
      "fzfg": false,
      "metar_trigger": false,
      "taf_trigger": false,
      "metar": "METAR LFBD 071330Z AUTO 11009KT 9999 SCT036 OVC050 17/10 Q1020 TEMPO SHRA BKN030TCU",
      "taf": "TAF LFBD 071100Z 0712/0818 08008KT 9999 BKN035 TX17/0715Z TN10/0805Z"
    },
    {
      "icao": "LFLL",
      "alert": "OK",
      "vis_m": 9999,
      "fzfg": false,
      "metar_trigger": false,
      "taf_trigger": false,
      "metar": "METAR LFLL 071330Z 20005KT 160V270 9999 FEW050 BKN250 19/07 Q1022 NOSIG",
      "taf": "TAF LFLL 071100Z 0712/0818 19005KT CAVOK"
    },
    {
      "icao": "LFLS",
      "alert": "OK",
      "vis_m": 9999,
      "fzfg": false,
      "metar_trigger": false,
      "taf_trigger": false,
      "metar": "METAR LFLS 071330Z AUTO 27008KT 230V320 CAVOK 17/07 Q1023 NOSIG",
      "taf": "TAF LFLS 070800Z 0709/0809 09006KT CAVOK"
    },
    {
      "icao": "LFMN",
      "alert": "OK",
      "vis_m": 9999,
      "fzfg": false,
      "metar_trigger": false,
      "taf_trigger": false,
      "metar": "METAR LFMN 071330Z 09014KT 9999 FEW066 BKN100 OVC260 16/09 Q1024 NOSIG",
      "taf": "TAF LFMN 070800Z 0709/0815 08012KT 9999 SCT050"
    },
    {
      "icao": "LFOB",
      "alert": "OK",
      "vis_m": 5000,
      "fzfg": false,
      "metar_trigger": false,
      "taf_trigger": false,
      "metar": "METAR LFOB 071330Z AUTO 01005KT 330V040 5000 BR NSC 13/10 Q1024 NOSIG",
      "taf": "TAF LFOB 071100Z 0712/0812 06008KT 8000 FEW010"
    },
    {
      "icao": "LFPO",
      "alert": "OK",
      "vis_m": 9999,
      "fzfg": false,
      "metar_trigger": false,
      "taf_trigger": false,
      "metar": "METAR LFPO 071330Z AUTO 07005KT 030V100 CAVOK 17/09 Q1023 NOSIG",
      "taf": "TAF LFPO 071100Z 0712/0818 07006KT CAVOK"
    },
    {
      "icao": "LFSB",
      "alert": "OK",
      "vis_m": 9999,
      "fzfg": false,
      "metar_trigger": false,
      "taf_trigger": false,
      "metar": "METAR LFSB 071330Z AUTO VRB03KT CAVOK 17/05 Q1022 NOSIG",
      "taf": "TAF LFSB 071100Z 0712/0812 34004KT CAVOK"
    },
    {
      "icao": "LGAV",
      "alert": "OK",
      "vis_m": 9999,
      "fzfg": false,
      "metar_trigger": false,
      "taf_trigger": false,
      "metar": "METAR LGAV 071320Z 06010KT 020V080 9999 FEW025 16/06 Q1027 NOSIG",
      "taf": "TAF LGAV 071100Z 0712/0812 03014KT 9999 FEW025"
    },
    {
      "icao": "LGTS",
      "alert": "OK",
      "vis_m": 9999,
      "fzfg": false,
      "metar_trigger": false,
      "taf_trigger": false,
      "metar": "METAR LGTS 071320Z 18008KT 9999 SCT020 16/07 Q1028 NOSIG",
      "taf": "TAF LGTS 071100Z 0712/0812 16013KT 9999 SCT030"
    },
    {
      "icao": "LHBP",
      "alert": "OK",
      "vis_m": 9999,
      "fzfg": false,
      "metar_trigger": false,
      "taf_trigger": false,
      "metar": "METAR LHBP 071330Z 17005KT 120V220 CAVOK 17/M03 Q1026 NOSIG",
      "taf": "TAF LHBP 071115Z 0712/0812 VRB04KT CAVOK"
    },
    {
      "icao": "LHDC",
      "alert": "OK",
      "vis_m": 9999,
      "fzfg": false,
      "metar_trigger": false,
      "taf_trigger": false,
      "metar": "METAR LHDC 071315Z AUTO VRB03KT CAVOK 17/M00 Q1026 NOSIG",
      "taf": "TAF LHDC 071115Z 0712/0721 VRB03KT CAVOK"
    },
    {
      "icao": "LIBD",
      "alert": "OK",
      "vis_m": 8000,
      "fzfg": false,
      "metar_trigger": false,
      "taf_trigger": false,
      "metar": "METAR LIBD 071320Z 04004KT 350V070 8000 FEW012 14/11 Q1025",
      "taf": "TAF LIBD 071100Z 0712/0812 VRB05KT 6000 SCT020"
    },
    {
      "icao": "LIBG",
      "alert": "OK",
      "vis_m": 5000,
      "fzfg": false,
      "metar_trigger": false,
      "taf_trigger": false,
      "metar": "SPECI LIBG 071309Z 12006KT 080V150 5000 RA BKN020 15/12 Q1025",
      "taf": "TAF LIBG 071100Z 0712/0721 VRB05KT CAVOK"
    },
    {
      "icao": "LIBP",
      "alert": "OK",
      "vis_m": 9999,
      "fzfg": false,
      "metar_trigger": false,
      "taf_trigger": false,
      "metar": "METAR LIBP 071320Z AUTO 09007KT 050V110 9999 FEW018/// BKN040/// 14/10 Q1026",
      "taf": "TAF LIBP 071100Z 0712/0812 VRB04KT CAVOK"
    },
    {
      "icao": "LIBR",
      "alert": "OK",
      "vis_m": 9999,
      "fzfg": false,
      "metar_trigger": false,
      "taf_trigger": false,
      "metar": "METAR LIBR 071320Z 04004KT CAVOK 15/11 Q1025",
      "taf": "TAF LIBR 071100Z 0712/0812 VRB04KT 6000 BKN030"
    },
    {
      "icao": "LICA",
      "alert": "OK",
      "vis_m": 9999,
      "fzfg": false,
      "metar_trigger": false,
      "taf_trigger": false,
      "metar": "METAR LICA 071320Z AUTO 07012KT 9999 BKN061/// 16/12 Q1024",
      "taf": "TAF LICA 071100Z 0712/0812 08013KT 9999 SCT040"
    },
    {
      "icao": "LICC",
      "alert": "OK",
      "vis_m": 9999,
      "fzfg": false,
      "metar_trigger": false,
      "taf_trigger": false,
      "metar": "METAR LICC 071320Z 07010KT 9999 SCT010 18/16 Q1024",
      "taf": "TAF LICC 071100Z 0712/0812 07012KT 9999 SCT015"
    },
    {
      "icao": "LICJ",
      "alert": "OK",
      "vis_m": 9999,
      "fzfg": false,
      "metar_trigger": false,
      "taf_trigger": false,
      "metar": "METAR LICJ 071320Z 03008KT CAVOK 16/12 Q1022",
      "taf": "TAF LICJ 071100Z 0712/0812 03010KT 9999 FEW040"
    },
    {
      "icao": "LIMC",
      "alert": "OK",
      "vis_m": 8000,
      "fzfg": false,
      "metar_trigger": false,
      "taf_trigger": false,
      "metar": "METAR LIMC 071320Z 29004KT 250V320 8000 NSC 16/06 Q1025 NOSIG",
      "taf": "TAF LIMC 071100Z 0712/0818 VRB05KT CAVOK"
    },
    {
      "icao": "LIME",
      "alert": "OK",
      "vis_m": 9999,
      "fzfg": false,
      "metar_trigger": false,
      "taf_trigger": false,
      "metar": "METAR LIME 071320Z 18004KT 120V240 CAVOK 16/03 Q1024 NOSIG",
      "taf": "TAF LIME 071100Z 0712/0812 VRB05KT CAVOK"
    },
    {
      "icao": "LIMF",
      "alert": "OK",
      "vis_m": 6000,
      "fzfg": false,
      "metar_trigger": false,
      "taf_trigger": false,
      "metar": "METAR LIMF 071320Z 02003KT 340V050 6000 NSC 15/05 Q1025",
      "taf": "TAF LIMF 071100Z 0712/0812 VRB04KT 6000 NSC"
    },
    {
      "icao": "LIMJ",
      "alert": "OK",
      "vis_m": 9999,
      "fzfg": false,
      "metar_trigger": false,
      "taf_trigger": false,
      "metar": "METAR LIMJ 071320Z 15007KT CAVOK 15/09 Q1024",
      "taf": "TAF LIMJ 071100Z 0712/0812 VRB06KT 9999 SCT040"
    },
    {
      "icao": "LIPE",
      "alert": "OK",
      "vis_m": 8000,
      "fzfg": false,
      "metar_trigger": false,
      "taf_trigger": false,
      "metar": "METAR LIPE 071320Z VRB02KT 8000 SCT035 14/06 Q1025",
      "taf": "TAF LIPE 071100Z 0712/0812 VRB04KT 5000 BR FEW016"
    },
    {
      "icao": "LIPH",
      "alert": "OK",
      "vis_m": 9999,
      "fzfg": false,
      "metar_trigger": false,
      "taf_trigger": false,
      "metar": "METAR LIPH 071320Z 19004KT 150V220 CAVOK 18/04 Q1025",
      "taf": "TAF LIPH 071100Z 0712/0812 VRB03KT CAVOK"
    },
    {
      "icao": "LIPQ",
      "alert": "OK",
      "vis_m": 9999,
      "fzfg": false,
      "metar_trigger": false,
      "taf_trigger": false,
      "metar": "METAR LIPQ 071320Z AUTO 19004KT 160V240 9999 NCD 16/09 Q1025",
      "taf": "TAF LIPQ 071100Z 0712/0812 VRB04KT 7000 NSC"
    },
    {
      "icao": "LIPR",
      "alert": "OK",
      "vis_m": 8000,
      "fzfg": false,
      "metar_trigger": false,
      "taf_trigger": false,
      "metar": "METAR LIPR 071320Z 06007KT 8000 NSC 13/10 Q1025",
      "taf": "TAF LIPR 071100Z 0712/0812 VRB06KT CAVOK"
    },
    {
      "icao": "LIPX",
      "alert": "OK",
      "vis_m": 9999,
      "fzfg": false,
      "metar_trigger": false,
      "taf_trigger": false,
      "metar": "METAR LIPX 071320Z VRB03KT CAVOK 18/04 Q1025",
      "taf": "TAF LIPX 071100Z 0712/0812 VRB05KT CAVOK"
    },
    {
      "icao": "LIPY",
      "alert": "OK",
      "vis_m": 9999,
      "fzfg": false,
      "metar_trigger": false,
      "taf_trigger": false,
      "metar": "METAR LIPY 071320Z AUTO 07010KT 9999 NCD 14/11 Q1025",
      "taf": "TAF LIPY 071100Z 0712/0812 VRB04KT 3000 BR FEW015"
    },
    {
      "icao": "LIPZ",
      "alert": "OK",
      "vis_m": 9999,
      "fzfg": false,
      "metar_trigger": false,
      "taf_trigger": false,
      "metar": "METAR LIPZ 071320Z 15005KT CAVOK 15/07 Q1025 NOSIG",
      "taf": "TAF LIPZ 071100Z 0712/0818 VRB04KT 8000 NSC"
    },
    {
      "icao": "LIRF",
      "alert": "OK",
      "vis_m": 9999,
      "fzfg": false,
      "metar_trigger": false,
      "taf_trigger": false,
      "metar": "METAR LIRF 071320Z 18005KT 140V200 CAVOK 17/08 Q1024 NOSIG",
      "taf": "TAF LIRF 071100Z 0712/0818 17010KT CAVOK"
    },
    {
      "icao": "LIRN",
      "alert": "OK",
      "vis_m": 9999,
      "fzfg": false,
      "metar_trigger": false,
      "taf_trigger": false,
      "metar": "METAR LIRN 071320Z 19006KT 140V220 CAVOK 17/06 Q1024 NOSIG",
      "taf": "TAF LIRN 071100Z 0712/0812 VRB05KT 9999 SCT050"
    },
    {
      "icao": "LIRP",
      "alert": "OK",
      "vis_m": 9999,
      "fzfg": false,
      "metar_trigger": false,
      "taf_trigger": false,
      "metar": "METAR LIRP 071315Z VRB02KT 9999 FEW030 19/08 Q1024 NOSIG",
      "taf": "TAF LIRP 071100Z 0712/0812 10007KT 9999 BKN050"
    },
    {
      "icao": "LIRZ",
      "alert": "OK",
      "vis_m": 9999,
      "fzfg": false,
      "metar_trigger": false,
      "taf_trigger": false,
      "metar": "METAR LIRZ 071320Z AUTO 23005KT 9999 BKN084/// 16/08 Q1024",
      "taf": "TAF LIRZ 071100Z 0712/0812 01006KT CAVOK"
    },
    {
      "icao": "LJLJ",
      "alert": "OK",
      "vis_m": 9999,
      "fzfg": false,
      "metar_trigger": false,
      "taf_trigger": false,
      "metar": "METAR LJLJ 071330Z 06004KT 030V110 9999 FEW060 16/04 Q1024 NOSIG",
      "taf": "TAF LJLJ 071100Z 0712/0812 12006KT CAVOK"
    },
    {
      "icao": "LKMT",
      "alert": "OK",
      "vis_m": 9999,
      "fzfg": false,
      "metar_trigger": false,
      "taf_trigger": false,
      "metar": "METAR LKMT 071330Z 34003KT 290V020 CAVOK 16/00 Q1026 NOSIG",
      "taf": "TAF LKMT 071100Z 0712/0812 VRB02KT CAVOK"
    },
    {
      "icao": "LKPR",
      "alert": "OK",
      "vis_m": 9999,
      "fzfg": false,
      "metar_trigger": false,
      "taf_trigger": false,
      "metar": "METAR LKPR 071330Z 07005KT 030V120 CAVOK 14/03 Q1025 NOSIG",
      "taf": "TAF LKPR 071100Z 0712/0818 12006KT CAVOK"
    },
    {
      "icao": "LLBG",
      "alert": "OK",
      "vis_m": 9999,
      "fzfg": false,
      "metar_trigger": false,
      "taf_trigger": false,
      "metar": "METAR LLBG 071320Z 32011KT 9999 SCT035 19/09 Q1017 NOSIG",
      "taf": "TAF LLBG 071100Z 0712/0812 30012KT 9999 SCT035 TX18/0712Z TN08/0804Z"
    },
    {
      "icao": "LMML",
      "alert": "OK",
      "vis_m": 9999,
      "fzfg": false,
      "metar_trigger": false,
      "taf_trigger": false,
      "metar": "METAR LMML 071345Z 08013KT 040V100 9999 BKN012 17/14 Q1022 NOSIG",
      "taf": "TAF LMML 071100Z 0712/0812 10015KT 9999 SCT015"
    },
    {
      "icao": "LOWW",
      "alert": "OK",
      "vis_m": 9999,
      "fzfg": false,
      "metar_trigger": false,
      "taf_trigger": false,
      "metar": "METAR LOWW 071320Z 15015KT CAVOK 16/02 Q1025 NOSIG",
      "taf": "TAF LOWW 071115Z 0712/0818 13012KT CAVOK TX16/0714Z TN03/0805Z"
    },
    {
      "icao": "LPFR",
      "alert": "OK",
      "vis_m": 9999,
      "fzfg": false,
      "metar_trigger": false,
      "taf_trigger": false,
      "metar": "METAR LPFR 071330Z 23009KT 9999 FEW025 16/10 Q1017",
      "taf": "TAF LPFR 071100Z 0712/0812 33005KT 9999 SCT045"
    },
    {
      "icao": "LPMA",
      "alert": "OK",
      "vis_m": 9999,
      "fzfg": false,
      "metar_trigger": false,
      "taf_trigger": false,
      "metar": "METAR LPMA 071330Z 01011KT 340V050 9999 SCT016 SCT033 16/05 Q1025",
      "taf": "TAF LPMA 071100Z 0712/0812 02013KT 9999 SCT015 SCT030"
    },
    {
      "icao": "LPPR",
      "alert": "OK",
      "vis_m": 9999,
      "fzfg": false,
      "metar_trigger": false,
      "taf_trigger": false,
      "metar": "METAR LPPR 071330Z 32010KT 9999 FEW025 14/08 Q1019",
      "taf": "TAF LPPR 071100Z 0712/0812 03005KT CAVOK"
    },
    {
      "icao": "LPPS",
      "alert": "OK",
      "vis_m": 9999,
      "fzfg": false,
      "metar_trigger": false,
      "taf_trigger": false,
      "metar": "METAR LPPS 071330Z 01013KT 350V050 9999 FEW015 BKN030 16/08 Q1024",
      "taf": "TAF LPPS 071100Z 0712/0818 03013KT 9999 FEW015 BKN030"
    },
    {
      "icao": "LPPT",
      "alert": "OK",
      "vis_m": 9999,
      "fzfg": false,
      "metar_trigger": false,
      "taf_trigger": false,
      "metar": "METAR LPPT 071330Z 34009KT 290V020 9999 SCT036 16/08 Q1018",
      "taf": "TAF LPPT 071100Z 0712/0818 33012KT 9999 FEW030"
    },
    {
      "icao": "LQBK",
      "alert": "OK",
      "vis_m": 9999,
      "fzfg": false,
      "metar_trigger": false,
      "taf_trigger": false,
      "metar": "METAR LQBK 071330Z VRB04KT CAVOK 17/02 Q1025 NOSIG",
      "taf": "TAF LQBK 071100Z 0712/0812 03005KT CAVOK TX18/0714Z TN00/0805Z"
    },
    {
      "icao": "LQSA",
      "alert": "OK",
      "vis_m": 9999,
      "fzfg": false,
      "metar_trigger": false,
      "taf_trigger": false,
      "metar": "METAR LQSA 071330Z VRB03KT 9999 FEW060 18/M02 Q1023 NOSIG",
      "taf": "TAF LQSA 071100Z 0712/0812 VRB02KT CAVOK TX19/0714Z TNM00/0805Z"
    },
    {
      "icao": "LQTZ",
      "alert": "OK",
      "vis_m": 9999,
      "fzfg": false,
      "metar_trigger": false,
      "taf_trigger": false,
      "metar": "METAR LQTZ 071330Z VRB05KT 9999 FEW050 19/M01 Q1024",
      "taf": "TAF LQTZ 071100Z 0712/0812 VRB02KT CAVOK TX17/0714Z TNM00/0805Z"
    },
    {
      "icao": "LRBC",
      "alert": "OK",
      "vis_m": 9999,
      "fzfg": false,
      "metar_trigger": false,
      "taf_trigger": false,
      "metar": "METAR LRBC 071330Z VRB02KT CAVOK 14/M08 Q1028",
      "taf": "TAF LRBC 071100Z 0712/0721 VRB04KT CAVOK"
    },
    {
      "icao": "LRBS",
      "alert": "OK",
      "vis_m": 9999,
      "fzfg": false,
      "metar_trigger": false,
      "taf_trigger": false,
      "metar": "METAR LRBS 071330Z 17005KT 140V210 CAVOK 14/01 Q1029 NOSIG",
      "taf": "TAF LRBS 071100Z 0712/0812 VRB04KT CAVOK"
    },
    {
      "icao": "LRBV",
      "alert": "OK",
      "vis_m": 9999,
      "fzfg": false,
      "metar_trigger": false,
      "taf_trigger": false,
      "metar": "METAR LRBV 071330Z 33001KT CAVOK 14/M08 Q1026",
      "taf": "TAF LRBV 071100Z 0712/0721 09004KT CAVOK"
    },
    {
      "icao": "LRCL",
      "alert": "OK",
      "vis_m": 9999,
      "fzfg": false,
      "metar_trigger": false,
      "taf_trigger": false,
      "metar": "METAR LRCL 071330Z VRB02KT CAVOK 15/M07 Q1026",
      "taf": "TAF LRCL 071100Z 0712/0721 VRB04KT CAVOK"
    },
    {
      "icao": "LRCV",
      "alert": "OK",
      "vis_m": 9999,
      "fzfg": false,
      "metar_trigger": false,
      "taf_trigger": false,
      "metar": "METAR LRCV 071330Z 09003KT 030V150 CAVOK 14/02 Q1028",
      "taf": "TAF LRCV 071100Z 0712/0721 12008KT CAVOK"
    },
    {
      "icao": "LRIA",
      "alert": "OK",
      "vis_m": 9999,
      "fzfg": false,
      "metar_trigger": false,
      "taf_trigger": false,
      "metar": "METAR LRIA 071330Z VRB03KT CAVOK 13/M01 Q1028",
      "taf": "TAF LRIA 071100Z 0712/0721 VRB04KT CAVOK"
    },
    {
      "icao": "LROP",
      "alert": "OK",
      "vis_m": 9999,
      "fzfg": false,
      "metar_trigger": false,
      "taf_trigger": false,
      "metar": "METAR LROP 071330Z VRB02KT CAVOK 14/M04 Q1029 NOSIG",
      "taf": "TAF LROP 071100Z 0712/0812 VRB04KT CAVOK"
    },
    {
      "icao": "LRSB",
      "alert": "OK",
      "vis_m": 9999,
      "fzfg": false,
      "metar_trigger": false,
      "taf_trigger": false,
      "metar": "METAR LRSB 071330Z 01005KT 340V050 CAVOK 16/M03 Q1026 NOSIG",
      "taf": "TAF LRSB 071100Z 0712/0812 VRB04KT CAVOK"
    },
    {
      "icao": "LRSM",
      "alert": "OK",
      "vis_m": 9999,
      "fzfg": false,
      "metar_trigger": false,
      "taf_trigger": false,
      "metar": "METAR LRSM 071330Z AUTO 31003KT 280V340 9999 NCD 17/M04 Q1026",
      "taf": "TAF LRSM 070500Z 0706/0715 VRB04KT CAVOK"
    },
    {
      "icao": "LRSV",
      "alert": "OK",
      "vis_m": 9999,
      "fzfg": false,
      "metar_trigger": false,
      "taf_trigger": false,
      "metar": "METAR LRSV 071330Z 09005KT 050V160 CAVOK 11/M01 Q1027",
      "taf": "TAF LRSV 071100Z 0712/0721 VRB04KT CAVOK"
    },
    {
      "icao": "LRTM",
      "alert": "OK",
      "vis_m": 9999,
      "fzfg": false,
      "metar_trigger": false,
      "taf_trigger": false,
      "metar": "METAR LRTM 071330Z VRB02KT CAVOK 16/M04 Q1026",
      "taf": "TAF LRTM 071100Z 0712/0721 09005KT CAVOK"
    },
    {
      "icao": "LRTR",
      "alert": "OK",
      "vis_m": 9999,
      "fzfg": false,
      "metar_trigger": false,
      "taf_trigger": false,
      "metar": "METAR LRTR 071330Z 17004KT 120V230 CAVOK 17/02 Q1026 NOSIG",
      "taf": "TAF LRTR 071100Z 0712/0812 VRB04KT CAVOK"
    },
    {
      "icao": "LTAC",
      "alert": "OK",
      "vis_m": 9999,
      "fzfg": false,
      "metar_trigger": false,
      "taf_trigger": false,
      "metar": "METAR LTAC 071320Z 04009KT 360V070 9999 SCT040 07/M08 Q1023 NOSIG RMK RWY21C 02010KT 340V060 RWY03L 04008KT 330V090 RWY21R 03009KT 360V060 RWY03R 04011KT 360V070 RWY21L 04011KT 010V090",
      "taf": "TAF LTAC 071040Z 0712/0812 VRB02KT 9999 SCT040"
    },
    {
      "icao": "LTFM",
      "alert": "OK",
      "vis_m": 9999,
      "fzfg": false,
      "metar_trigger": false,
      "taf_trigger": false,
      "metar": "METAR LTFM 071320Z 07013KT 030V100 9999 SCT022 09/M00 Q1030 NOSIG RMK RWY17L 06012KT RWY34L 06013KT RWY16R 06013KT RWY36 05014KT RWY18 07012KT",
      "taf": "TAF LTFM 071040Z 0712/0818 07009KT 9999 SCT022"
    },
    {
      "icao": "LUKK",
      "alert": "OK",
      "vis_m": 9999,
      "fzfg": false,
      "metar_trigger": false,
      "taf_trigger": false,
      "metar": "METAR LUKK 071330Z VRB02KT CAVOK 12/M01 Q1028 NOSIG",
      "taf": "TAF LUKK 071103Z 0712/0812 VRB06KT 9999 SCT040"
    },
    {
      "icao": "LWOH",
      "alert": "OK",
      "vis_m": 9999,
      "fzfg": false,
      "metar_trigger": false,
      "taf_trigger": false,
      "metar": "METAR LWOH 071350Z 19004KT 150V240 9999 FEW040 15/01 Q1025",
      "taf": "TAF LWOH 071130Z 0712/0812 16008KT CAVOK"
    },
    {
      "icao": "LWSK",
      "alert": "OK",
      "vis_m": 9999,
      "fzfg": false,
      "metar_trigger": false,
      "taf_trigger": false,
      "metar": "METAR LWSK 071350Z 15006KT 110V220 CAVOK 18/05 Q1025 NOSIG",
      "taf": "TAF LWSK 071130Z 0712/0812 VRB02KT CAVOK"
    },
    {
      "icao": "LYBE",
      "alert": "OK",
      "vis_m": 9999,
      "fzfg": false,
      "metar_trigger": false,
      "taf_trigger": false,
      "metar": "METAR LYBE 071330Z 14006KT 070V180 CAVOK 18/02 Q1025 NOSIG",
      "taf": "TAF LYBE 071100Z 0712/0812 11008KT CAVOK TX18/0713Z TN01/0805Z"
    },
    {
      "icao": "LYNI",
      "alert": "OK",
      "vis_m": 9999,
      "fzfg": false,
      "metar_trigger": false,
      "taf_trigger": false,
      "metar": "METAR LYNI 071330Z 11001KT CAVOK 19/01 Q1025 NOSIG",
      "taf": "TAF LYNI 071100Z 0712/0812 06006KT CAVOK TX18/0714Z TN02/0805Z"
    },
    {
      "icao": "LYPG",
      "alert": "OK",
      "vis_m": 9999,
      "fzfg": false,
      "metar_trigger": false,
      "taf_trigger": false,
      "metar": "METAR LYPG 071330Z 14005KT 090V200 CAVOK 20/01 Q1025 NOSIG",
      "taf": "TAF LYPG 071100Z 0712/0812 16005KT CAVOK TX20/0713Z TN05/0805Z"
    },
    {
      "icao": "LZIB",
      "alert": "OK",
      "vis_m": 9999,
      "fzfg": false,
      "metar_trigger": false,
      "taf_trigger": false,
      "metar": "METAR LZIB 071330Z 13008KT 100V180 CAVOK 17/02 Q1025 NOSIG",
      "taf": "TAF LZIB 071115Z 0712/0812 15010KT CAVOK"
    },
    {
      "icao": "LZKZ",
      "alert": "OK",
      "vis_m": 9999,
      "fzfg": false,
      "metar_trigger": false,
      "taf_trigger": false,
      "metar": "METAR LZKZ 071330Z 21004KT 150V250 CAVOK 16/M02 Q1026 NOSIG",
      "taf": "TAF LZKZ 071115Z 0712/0812 VRB02KT CAVOK"
    },
    {
      "icao": "LZTT",
      "alert": "OK",
      "vis_m": 9999,
      "fzfg": false,
      "metar_trigger": false,
      "taf_trigger": false,
      "metar": "METAR LZTT 071330Z 06005KT 020V090 CAVOK 16/M08 Q1026 NOSIG",
      "taf": "TAF LZTT 071115Z 0712/0812 VRB02KT CAVOK"
    },
    {
      "icao": "OEJN",
      "alert": "OK",
      "vis_m": 9999,
      "fzfg": false,
      "metar_trigger": false,
      "taf_trigger": false,
      "metar": "METAR OEJN 071300Z 30012KT 9999 SCT040 28/14 Q1011 NOSIG",
      "taf": "TAF OEJN 071100Z 0712/0818 30012KT 7000 SCT040"
    },
    {
      "icao": "OEMA",
      "alert": "OK",
      "vis_m": 9999,
      "fzfg": false,
      "metar_trigger": false,
      "taf_trigger": false,
      "metar": "METAR OEMA 071300Z 28011KT 9999 SCT040 30/02 Q1012 NOSIG",
      "taf": "TAF OEMA 071100Z 0712/0818 25013KT 7000 SCT040"
    },
    {
      "icao": "OJAI",
      "alert": "OK",
      "vis_m": 4000,
      "fzfg": false,
      "metar_trigger": false,
      "taf_trigger": false,
      "metar": "METAR OJAI 071300Z 28014KT 4000 HZ BKN030 15/02 Q1017 NOSIG",
      "taf": "TAF OJAI 071100Z 0712/0818 30010KT 4000 HZ SCT035"
    },
    {
      "icao": "OMAA",
      "alert": "OK",
      "vis_m": null,
      "fzfg": false,
      "metar_trigger": false,
      "taf_trigger": false,
      "metar": "",
      "taf": ""
    },
    {
      "icao": "OMDB",
      "alert": "OK",
      "vis_m": null,
      "fzfg": false,
      "metar_trigger": false,
      "taf_trigger": false,
      "metar": "",
      "taf": ""
    },
    {
      "icao": "UAAA",
      "alert": "OK",
      "vis_m": 9999,
      "fzfg": false,
      "metar_trigger": false,
      "taf_trigger": false,
      "metar": "METAR UAAA 071330Z VRB01MPS 9999 SCT200 08/04 Q1020 NOSIG",
      "taf": "TAF UAAA 071105Z 0712/0812 19003MPS 9999 SCT050 BKN100 TX14/0809Z TN00/0801Z"
    },
    {
      "icao": "UBBB",
      "alert": "OK",
      "vis_m": 9999,
      "fzfg": false,
      "metar_trigger": false,
      "taf_trigger": false,
      "metar": "METAR UBBB 071330Z 36018KT 9999 SCT016 07/04 Q1024 NOSIG",
      "taf": "TAF UBBB 071057Z 0712/0812 33010KT 9999 BKN012 BKN030 TX08/0712Z TN05/0801Z"
    },
    {
      "icao": "UDSG",
      "alert": "OK",
      "vis_m": 9999,
      "fzfg": false,
      "metar_trigger": false,
      "taf_trigger": false,
      "metar": "METAR UDSG 071330Z 01008KT 9999 BKN040 M00/M07 Q1018 NOSIG",
      "taf": "TAF UDSG 071058Z 0712/0812 VRB06KT 9999 BKN040"
    },
    {
      "icao": "UDYZ",
      "alert": "OK",
      "vis_m": 9999,
      "fzfg": false,
      "metar_trigger": false,
      "taf_trigger": false,
      "metar": "METAR UDYZ 071330Z 24004KT 9999 BKN033 04/01 Q1019 NOSIG",
      "taf": "TAF UDYZ 071100Z 0712/0812 23006KT 9999 BKN020"
    },
    {
      "icao": "UGKO",
      "alert": "OK",
      "vis_m": 9999,
      "fzfg": false,
      "metar_trigger": false,
      "taf_trigger": false,
      "metar": "METAR UGKO 071330Z 25010KT 9999 SCT028 BKN040 06/03 Q1025 NOSIG",
      "taf": "TAF UGKO 071100Z 0712/0812 VRB02KT 9000 SCT021 BKN033 TX08/0811Z TN03/0803Z"
    }
  ]
}