{
  "ts_utc": "2026-03-19T14:41:46Z",
  "threshold_m": 150,
  "source": "stations_override.txt (ICAO list) + aviationweather.gov (METAR/TAF raw)",
  "station_count": 159,
  "stations": [
    {
      "icao": "BIKF",
      "alert": "OK",
      "vis_m": 9999,
      "fzfg": false,
      "metar_trigger": false,
      "taf_trigger": false,
      "metar": "METAR BIKF 191430Z 23038G57KT 9999 VCSH SCT017 BKN032 05/M00 Q0991 REDZ",
      "taf": "TAF BIKF 191340Z 1915/2015 22037G50KT 9999 -SHRA SCT010 BKN020 TX06/1915Z TNM01/2009Z"
    },
    {
      "icao": "BKPR",
      "alert": "OK",
      "vis_m": 9999,
      "fzfg": false,
      "metar_trigger": false,
      "taf_trigger": false,
      "metar": "METAR BKPR 191430Z 02016KT 9999 BKN055 10/M03 Q1013 NOSIG",
      "taf": "TAF BKPR 191130Z 1912/2012 04015KT 9999 SCT050 BKN090"
    },
    {
      "icao": "EBCI",
      "alert": "OK",
      "vis_m": 9999,
      "fzfg": false,
      "metar_trigger": false,
      "taf_trigger": false,
      "metar": "METAR EBCI 191420Z 05013KT CAVOK 15/M00 Q1023 NOSIG",
      "taf": "TAF EBCI 191104Z 1912/2018 05007KT CAVOK"
    },
    {
      "icao": "EDDB",
      "alert": "OK",
      "vis_m": 9999,
      "fzfg": false,
      "metar_trigger": false,
      "taf_trigger": false,
      "metar": "METAR EDDB 191420Z AUTO 28004KT 210V320 CAVOK 16/02 Q1023 NOSIG",
      "taf": "TAF EDDB 191100Z 1912/2012 35005KT CAVOK"
    },
    {
      "icao": "EDDH",
      "alert": "OK",
      "vis_m": 9999,
      "fzfg": false,
      "metar_trigger": false,
      "taf_trigger": false,
      "metar": "METAR EDDH 191420Z AUTO 30007KT 250V010 CAVOK 15/03 Q1025 NOSIG",
      "taf": "TAF EDDH 191100Z 1912/2018 29004KT CAVOK"
    },
    {
      "icao": "EDDK",
      "alert": "OK",
      "vis_m": 9999,
      "fzfg": false,
      "metar_trigger": false,
      "taf_trigger": false,
      "metar": "METAR EDDK 191420Z AUTO VRB04KT CAVOK 17/M01 Q1023 NOSIG",
      "taf": "TAF EDDK 191100Z 1912/2018 36007KT CAVOK"
    },
    {
      "icao": "EDDN",
      "alert": "OK",
      "vis_m": 9999,
      "fzfg": false,
      "metar_trigger": false,
      "taf_trigger": false,
      "metar": "METAR EDDN 191420Z AUTO 08008KT 040V120 CAVOK 13/M02 Q1022 NOSIG",
      "taf": "TAF EDDN 191100Z 1912/2012 07008KT CAVOK"
    },
    {
      "icao": "EDDS",
      "alert": "OK",
      "vis_m": 9999,
      "fzfg": false,
      "metar_trigger": false,
      "taf_trigger": false,
      "metar": "METAR EDDS 191420Z AUTO 06010KT 030V090 CAVOK 15/M04 Q1020 NOSIG",
      "taf": "TAF EDDS 191100Z 1912/2012 06008KT CAVOK"
    },
    {
      "icao": "EDFH",
      "alert": "OK",
      "vis_m": 9999,
      "fzfg": false,
      "metar_trigger": false,
      "taf_trigger": false,
      "metar": "METAR EDFH 191420Z 03007KT 350V100 CAVOK 13/M01 Q1022",
      "taf": "TAF EDFH 191100Z 1912/2012 07007KT CAVOK"
    },
    {
      "icao": "EDJA",
      "alert": "OK",
      "vis_m": 9999,
      "fzfg": false,
      "metar_trigger": false,
      "taf_trigger": false,
      "metar": "METAR EDJA 191420Z 04011KT CAVOK 11/M01 Q1020",
      "taf": "TAF EDJA 191400Z 1915/1924 06012KT CAVOK"
    },
    {
      "icao": "EDLW",
      "alert": "OK",
      "vis_m": 9999,
      "fzfg": false,
      "metar_trigger": false,
      "taf_trigger": false,
      "metar": "METAR EDLW 191420Z 08008KT 040V100 9999 15/01 Q1024",
      "taf": "TAF EDLW 191100Z 1912/2012 04005KT CAVOK"
    },
    {
      "icao": "EDNY",
      "alert": "OK",
      "vis_m": 9999,
      "fzfg": false,
      "metar_trigger": false,
      "taf_trigger": false,
      "metar": "METAR EDNY 191420Z 06013KT CAVOK 13/00 Q1019",
      "taf": "TAF EDNY 191400Z 1915/1924 04011KT CAVOK"
    },
    {
      "icao": "EDSB",
      "alert": "OK",
      "vis_m": 9999,
      "fzfg": false,
      "metar_trigger": false,
      "taf_trigger": false,
      "metar": "METAR EDSB 191420Z 03015KT CAVOK 15/M00 Q1021",
      "taf": "TAF EDSB 191100Z 1912/2012 03013KT CAVOK"
    },
    {
      "icao": "EETN",
      "alert": "OK",
      "vis_m": 8000,
      "fzfg": false,
      "metar_trigger": false,
      "taf_trigger": false,
      "metar": "METAR EETN 191420Z 23005KT 8000 OVC005 03/02 Q1017 NOSIG",
      "taf": "TAF EETN 191130Z 1912/2012 23010KT 8000 OVC007"
    },
    {
      "icao": "EFTU",
      "alert": "OK",
      "vis_m": 9999,
      "fzfg": false,
      "metar_trigger": false,
      "taf_trigger": false,
      "metar": "METAR EFTU 191420Z AUTO 31009KT 260V340 CAVOK 08/M01 Q1017",
      "taf": "TAF EFTU 191123Z 1912/2012 30007KT CAVOK"
    },
    {
      "icao": "EGBB",
      "alert": "OK",
      "vis_m": 9999,
      "fzfg": false,
      "metar_trigger": false,
      "taf_trigger": false,
      "metar": "METAR EGBB 191420Z 07007KT 020V110 CAVOK 16/03 Q1026",
      "taf": "TAF EGBB 191053Z 1912/2012 08006KT CAVOK"
    },
    {
      "icao": "EGGP",
      "alert": "OK",
      "vis_m": 9999,
      "fzfg": false,
      "metar_trigger": false,
      "taf_trigger": false,
      "metar": "METAR EGGP 191420Z 12008KT CAVOK 16/02 Q1026",
      "taf": "TAF EGGP 191058Z 1912/2012 10004KT CAVOK"
    },
    {
      "icao": "EGGW",
      "alert": "OK",
      "vis_m": 9999,
      "fzfg": false,
      "metar_trigger": false,
      "taf_trigger": false,
      "metar": "METAR EGGW 191420Z AUTO 11009KT 060V140 9999 NCD 15/04 Q1025",
      "taf": "TAF EGGW 191059Z 1912/2012 07007KT CAVOK"
    },
    {
      "icao": "EGKK",
      "alert": "OK",
      "vis_m": 9999,
      "fzfg": false,
      "metar_trigger": false,
      "taf_trigger": false,
      "metar": "METAR EGKK 191420Z 06010KT CAVOK 16/03 Q1024",
      "taf": "TAF EGKK 191059Z 1912/2018 07011KT CAVOK"
    },
    {
      "icao": "EGNM",
      "alert": "OK",
      "vis_m": 9999,
      "fzfg": false,
      "metar_trigger": false,
      "taf_trigger": false,
      "metar": "METAR EGNM 191420Z 05005KT 9999 FEW017 SCT034 13/08 Q1028",
      "taf": "TAF EGNM 191059Z 1912/2012 07005KT 9999 FEW030"
    },
    {
      "icao": "EGPD",
      "alert": "OK",
      "vis_m": 9999,
      "fzfg": false,
      "metar_trigger": false,
      "taf_trigger": false,
      "metar": "METAR EGPD 191420Z COR AUTO 14008KT 100V170 9999 NCD 11/03 Q1029 NOSIG",
      "taf": "TAF EGPD 191057Z 1912/2012 VRB03KT 9999 FEW040"
    },
    {
      "icao": "EGPF",
      "alert": "OK",
      "vis_m": 9999,
      "fzfg": false,
      "metar_trigger": false,
      "taf_trigger": false,
      "metar": "METAR EGPF 191420Z AUTO 04010KT 9999 NCD 14/07 Q1028",
      "taf": "TAF EGPF 191056Z 1912/2012 08006KT 9999 SCT040"
    },
    {
      "icao": "EHBK",
      "alert": "OK",
      "vis_m": 9999,
      "fzfg": false,
      "metar_trigger": false,
      "taf_trigger": false,
      "metar": "METAR EHBK 191425Z AUTO 05010KT 010V080 9999 NCD 16/02 Q1024 NOSIG",
      "taf": "TAF EHBK 191106Z 1912/2018 05006KT CAVOK"
    },
    {
      "icao": "EHEH",
      "alert": "OK",
      "vis_m": 9999,
      "fzfg": false,
      "metar_trigger": false,
      "taf_trigger": false,
      "metar": "METAR EHEH 191425Z AUTO 05004KT 340V110 9999 NCD 16/02 Q1024 BLU NOSIG",
      "taf": "TAF EHEH 191129Z 1912/2018 05003KT CAVOK"
    },
    {
      "icao": "EKBI",
      "alert": "OK",
      "vis_m": 9999,
      "fzfg": false,
      "metar_trigger": false,
      "taf_trigger": false,
      "metar": "METAR EKBI 191420Z AUTO 32005KT 9999 -RA OVC048/// 09/05 Q1025",
      "taf": "TAF EKBI 191427Z 1915/2015 31008KT 9999 BKN025"
    },
    {
      "icao": "EKCH",
      "alert": "OK",
      "vis_m": 9999,
      "fzfg": false,
      "metar_trigger": false,
      "taf_trigger": false,
      "metar": "METAR EKCH 191420Z AUTO 30009KT 9999 OVC037/// 11/02 Q1024 NOSIG",
      "taf": "TAF EKCH 191427Z 1915/2015 24004KT 9999 BKN045"
    },
    {
      "icao": "ENAL",
      "alert": "OK",
      "vis_m": 9999,
      "fzfg": false,
      "metar_trigger": false,
      "taf_trigger": false,
      "metar": "METAR ENAL 191420Z 25012KT 9999 VCSH FEW025 SCT032 BKN041 08/04 Q1023",
      "taf": "TAF ENAL 191400Z 1915/1924 24008KT 9999 -SHRA FEW010 SCT020 BKN040"
    },
    {
      "icao": "ENBR",
      "alert": "OK",
      "vis_m": 9999,
      "fzfg": false,
      "metar_trigger": false,
      "taf_trigger": false,
      "metar": "METAR ENBR 191420Z 21007KT 9999 FEW018 SCT022 BKN038 08/05 Q1026 TEMPO BKN014TCU RMK WIND 1200FT 24008KT",
      "taf": "TAF ENBR 191100Z 1912/2012 18008KT 9999 FEW012 BKN020"
    },
    {
      "icao": "ENGM",
      "alert": "OK",
      "vis_m": 9999,
      "fzfg": false,
      "metar_trigger": false,
      "taf_trigger": false,
      "metar": "METAR ENGM 191420Z VRB03KT CAVOK 11/M01 Q1022 NOSIG",
      "taf": "TAF ENGM 191100Z 1912/2012 35008KT CAVOK"
    },
    {
      "icao": "ENHD",
      "alert": "OK",
      "vis_m": 9999,
      "fzfg": false,
      "metar_trigger": false,
      "taf_trigger": false,
      "metar": "METAR ENHD 191420Z 28003KT 230V300 9999 FEW012 BKN016 09/06 Q1027",
      "taf": "TAF ENHD 191400Z 1915/1923 28008KT 9999 BKN016"
    },
    {
      "icao": "ENTC",
      "alert": "OK",
      "vis_m": 9999,
      "fzfg": false,
      "metar_trigger": false,
      "taf_trigger": false,
      "metar": "METAR ENTC 191420Z 27018KT 9999 -RA SCT023 BKN033 BKN040 03/00 Q1003 TEMPO 27020G30KT 4500 SHRASN SCT025CB RMK WIND 2600FT 30046KT",
      "taf": ""
    },
    {
      "icao": "ENTO",
      "alert": "OK",
      "vis_m": 9999,
      "fzfg": false,
      "metar_trigger": false,
      "taf_trigger": false,
      "metar": "METAR ENTO 191420Z 16006KT 100V190 CAVOK 11/03 Q1022 NOSIG",
      "taf": "TAF ENTO 191100Z 1912/2012 35005KT CAVOK"
    },
    {
      "icao": "ENVA",
      "alert": "OK",
      "vis_m": 9999,
      "fzfg": false,
      "metar_trigger": false,
      "taf_trigger": false,
      "metar": "METAR ENVA 191420Z 28012KT 9999 SCT034 BKN040 06/02 Q1022 BECMG VRB05KT RMK WIND 670FT 28010KT",
      "taf": "TAF ENVA 191100Z 1912/2012 28018KT 9999 -SHRA FEW020 BKN035"
    },
    {
      "icao": "ENZV",
      "alert": "OK",
      "vis_m": 9999,
      "fzfg": false,
      "metar_trigger": false,
      "taf_trigger": false,
      "metar": "METAR ENZV 191420Z 32008KT 9999 SCT007 BKN009 BKN016 08/05 Q1027 BECMG SCT008 BKN015",
      "taf": ""
    },
    {
      "icao": "EPGD",
      "alert": "OK",
      "vis_m": 9999,
      "fzfg": false,
      "metar_trigger": false,
      "taf_trigger": false,
      "metar": "METAR EPGD 191430Z 28010KT 9999 BKN040 09/01 Q1023",
      "taf": "TAF EPGD 191130Z 1912/2012 29007KT 9999 SCT048"
    },
    {
      "icao": "EPKK",
      "alert": "OK",
      "vis_m": 9999,
      "fzfg": false,
      "metar_trigger": false,
      "taf_trigger": false,
      "metar": "METAR EPKK 191430Z VRB02KT 9999 FEW066 12/M04 Q1021",
      "taf": "TAF EPKK 191430Z 1915/2015 06010KT 9999 SCT060"
    },
    {
      "icao": "EPKT",
      "alert": "OK",
      "vis_m": 9999,
      "fzfg": false,
      "metar_trigger": false,
      "taf_trigger": false,
      "metar": "METAR EPKT 191430Z 17003KT 100V220 9999 FEW050TCU 11/M01 Q1021",
      "taf": "TAF EPKT 191130Z 1912/2012 VRB02KT 9999 SCT045"
    },
    {
      "icao": "EPLB",
      "alert": "OK",
      "vis_m": 9999,
      "fzfg": false,
      "metar_trigger": false,
      "taf_trigger": false,
      "metar": "METAR EPLB 191430Z 36003KT CAVOK 11/M00 Q1021",
      "taf": "TAF EPLB 191130Z 1912/2012 05006KT CAVOK"
    },
    {
      "icao": "EPMO",
      "alert": "OK",
      "vis_m": 9999,
      "fzfg": false,
      "metar_trigger": false,
      "taf_trigger": false,
      "metar": "METAR EPMO 191430Z 30005KT 250V020 CAVOK 12/M02 Q1022",
      "taf": "TAF EPMO 191130Z 1912/2012 35005KT 9999 SCT040"
    },
    {
      "icao": "EPPO",
      "alert": "OK",
      "vis_m": 9999,
      "fzfg": false,
      "metar_trigger": false,
      "taf_trigger": false,
      "metar": "METAR EPPO 191430Z 29007KT 280V340 CAVOK 13/M02 Q1023",
      "taf": "TAF EPPO 191130Z 1912/2012 32004KT CAVOK"
    },
    {
      "icao": "EPRA",
      "alert": "OK",
      "vis_m": 9999,
      "fzfg": false,
      "metar_trigger": false,
      "taf_trigger": false,
      "metar": "METAR EPRA 191430Z 05006KT CAVOK 11/01 Q1021",
      "taf": "TAF EPRA 191430Z 1915/1924 06006KT CAVOK"
    },
    {
      "icao": "EPRZ",
      "alert": "OK",
      "vis_m": 9999,
      "fzfg": false,
      "metar_trigger": false,
      "taf_trigger": false,
      "metar": "METAR EPRZ 191430Z 01005KT 310V040 CAVOK 10/M00 Q1021",
      "taf": "TAF EPRZ 191130Z 1912/2012 35010KT CAVOK"
    },
    {
      "icao": "EPSC",
      "alert": "OK",
      "vis_m": 9999,
      "fzfg": false,
      "metar_trigger": false,
      "taf_trigger": false,
      "metar": "METAR EPSC 191430Z 30009KT CAVOK 13/M01 Q1024",
      "taf": "TAF EPSC 191130Z 1912/2012 VRB03KT CAVOK"
    },
    {
      "icao": "EPSY",
      "alert": "OK",
      "vis_m": 9999,
      "fzfg": false,
      "metar_trigger": false,
      "taf_trigger": false,
      "metar": "METAR EPSY 191430Z 35007KT 310V020 CAVOK 11/M05 Q1022",
      "taf": "TAF EPSY 191430Z 1915/1924 VRB02KT CAVOK"
    },
    {
      "icao": "EPWA",
      "alert": "OK",
      "vis_m": 9999,
      "fzfg": false,
      "metar_trigger": false,
      "taf_trigger": false,
      "metar": "METAR EPWA 191430Z 32008KT 290V360 CAVOK 12/M01 Q1021 NOSIG",
      "taf": "TAF EPWA 191430Z 1915/2015 32004KT CAVOK"
    },
    {
      "icao": "EPWR",
      "alert": "OK",
      "vis_m": 9999,
      "fzfg": false,
      "metar_trigger": false,
      "taf_trigger": false,
      "metar": "METAR EPWR 191430Z 34008KT 300V360 9999 FEW048 13/01 Q1022",
      "taf": "TAF EPWR 191430Z 1915/2015 35004KT CAVOK"
    },
    {
      "icao": "ESGG",
      "alert": "OK",
      "vis_m": 9999,
      "fzfg": false,
      "metar_trigger": false,
      "taf_trigger": false,
      "metar": "METAR ESGG 191420Z 27006KT CAVOK 10/03 Q1022",
      "taf": "TAF ESGG 191430Z 1915/2015 27007KT CAVOK"
    },
    {
      "icao": "ESKN",
      "alert": "OK",
      "vis_m": 9999,
      "fzfg": false,
      "metar_trigger": false,
      "taf_trigger": false,
      "metar": "METAR ESKN 191420Z 30008KT 270V340 9999 FEW025 09/04 Q1020",
      "taf": "TAF ESKN 191430Z 1915/2015 30008KT CAVOK"
    },
    {
      "icao": "ESMS",
      "alert": "OK",
      "vis_m": 9999,
      "fzfg": false,
      "metar_trigger": false,
      "taf_trigger": false,
      "metar": "METAR ESMS 191420Z 25006KT 9999 BKN042 10/03 Q1023",
      "taf": "TAF ESMS 191427Z 1915/2015 30006KT 9999 BKN045"
    },
    {
      "icao": "ESSA",
      "alert": "OK",
      "vis_m": 9999,
      "fzfg": false,
      "metar_trigger": false,
      "taf_trigger": false,
      "metar": "METAR ESSA 191420Z 32005KT 270V020 CAVOK 11/M02 Q1019 NOSIG",
      "taf": "TAF ESSA 191430Z 1915/2015 34004KT CAVOK"
    },
    {
      "icao": "EYKA",
      "alert": "OK",
      "vis_m": 9999,
      "fzfg": false,
      "metar_trigger": false,
      "taf_trigger": false,
      "metar": "METAR EYKA 191420Z 27006KT 240V310 CAVOK 09/M01 Q1021",
      "taf": "TAF EYKA 191100Z 1912/2012 VRB04KT 8000 SCT045"
    },
    {
      "icao": "EYPA",
      "alert": "OK",
      "vis_m": 9999,
      "fzfg": false,
      "metar_trigger": false,
      "taf_trigger": false,
      "metar": "METAR EYPA 191420Z 21007KT 140V260 9999 SCT031 BKN043 04/01 Q1021",
      "taf": "TAF EYPA 191100Z 1912/2012 VRB05KT 8000 SCT015 BKN030"
    },
    {
      "icao": "EYVI",
      "alert": "OK",
      "vis_m": 9999,
      "fzfg": false,
      "metar_trigger": false,
      "taf_trigger": false,
      "metar": "METAR EYVI 191420Z 28007KT 250V310 9999 SCT035 10/01 Q1021 NOSIG",
      "taf": "TAF EYVI 191110Z 1912/2012 VRB03KT 9000 SCT040"
    },
    {
      "icao": "GCFV",
      "alert": "OK",
      "vis_m": 9999,
      "fzfg": false,
      "metar_trigger": false,
      "taf_trigger": false,
      "metar": "METAR GCFV 191430Z 20019G29KT 9999 FEW030 SCT035 20/11 Q1002",
      "taf": "TAF GCFV 191400Z 1915/2015 21020KT 9999 SCT035 TX22/2014Z TN17/2006Z"
    },
    {
      "icao": "GCLP",
      "alert": "OK",
      "vis_m": 9999,
      "fzfg": false,
      "metar_trigger": false,
      "taf_trigger": false,
      "metar": "METAR GCLP 191430Z 22017KT 190V260 9999 FEW035 SCT070 21/10 Q1001 WS ALL RWY NOSIG",
      "taf": "TAF GCLP 191400Z 1915/2015 22026KT 9999 SCT035 TX23/2014Z TN16/2006Z"
    },
    {
      "icao": "GCTS",
      "alert": "OK",
      "vis_m": 9999,
      "fzfg": false,
      "metar_trigger": false,
      "taf_trigger": false,
      "metar": "METAR GCTS 191430Z 27016KT 240V300 9999 SCT030 BKN075 18/10 Q1002 NOSIG",
      "taf": "TAF GCTS 191400Z 1915/2015 26017KT 9999 SCT030 TX21/2014Z TN15/2006Z"
    },
    {
      "icao": "GMAD",
      "alert": "OK",
      "vis_m": 6000,
      "fzfg": false,
      "metar_trigger": false,
      "taf_trigger": false,
      "metar": "METAR GMAD 191430Z 27015KT 6000 BKN023 SCT083 19/15 Q1004 NOSIG",
      "taf": "TAF GMAD 191100Z 1912/2018 28016KT 8000 SCT020 SCT080"
    },
    {
      "icao": "GMMN",
      "alert": "OK",
      "vis_m": 9999,
      "fzfg": false,
      "metar_trigger": false,
      "taf_trigger": false,
      "metar": "METAR GMMN 191430Z 34008KT 9999 SCT014 BKN020 18/14 Q1004 NOSIG",
      "taf": "TAF GMMN 191100Z 1912/2018 02006KT 320V080 9999 SCT014 BKN020"
    },
    {
      "icao": "GMMX",
      "alert": "OK",
      "vis_m": 8000,
      "fzfg": false,
      "metar_trigger": false,
      "taf_trigger": false,
      "metar": "METAR GMMX 191430Z 34008KT 290V030 8000 SCT023 SCT200 22/12 Q1002 NOSIG",
      "taf": ""
    },
    {
      "icao": "HEGN",
      "alert": "OK",
      "vis_m": 1000,
      "fzfg": false,
      "metar_trigger": false,
      "taf_trigger": false,
      "metar": "METAR HEGN 191400Z 30012KT 1000 R34/1000 R16/1000 SA NSC 25/04 Q1006 NOSIG",
      "taf": "TAF HEGN 191100Z 1912/2018 29015G25KT 6000 NSC"
    },
    {
      "icao": "HEMA",
      "alert": "OK",
      "vis_m": 1200,
      "fzfg": false,
      "metar_trigger": false,
      "taf_trigger": false,
      "metar": "METAR HEMA 191400Z 29014KT 1200 R15/1200 SA NSC 25/06 Q1007 NOSIG",
      "taf": "TAF HEMA 191100Z 1912/2018 29015G25KT 6000 NSC"
    },
    {
      "icao": "HESH",
      "alert": "OK",
      "vis_m": 1000,
      "fzfg": false,
      "metar_trigger": false,
      "taf_trigger": false,
      "metar": "METAR HESH 191400Z 26011KT 1000 R22/1000 SA NSC 25/04 Q1005 NOSIG",
      "taf": "TAF HESH 191100Z 1912/2018 28010G20KT 6000 NSC"
    },
    {
      "icao": "HESX",
      "alert": "OK",
      "vis_m": 9999,
      "fzfg": false,
      "metar_trigger": false,
      "taf_trigger": false,
      "metar": "METAR HESX 191400Z 31014KT 9999 SCT020 20/06 Q1006 NOSIG",
      "taf": "TAF HESX 191100Z 1912/2018 26013KT 9999 SCT025"
    },
    {
      "icao": "LATI",
      "alert": "OK",
      "vis_m": 9999,
      "fzfg": false,
      "metar_trigger": false,
      "taf_trigger": false,
      "metar": "METAR LATI 191420Z 05007KT 350V080 9999 SCT076 17/01 Q1008 NOSIG",
      "taf": "TAF LATI 191100Z 1912/2012 12010KT 9999 FEW100 TX20/2012Z TN04/2005Z"
    },
    {
      "icao": "LBPD",
      "alert": "OK",
      "vis_m": 9999,
      "fzfg": false,
      "metar_trigger": false,
      "taf_trigger": false,
      "metar": "METAR LBPD 191430Z AUTO 05006KT 9999 SCT048/// OVC065/// 08/01 Q1015 NOSIG",
      "taf": "TAF LBPD 191100Z 1912/2012 VRB04KT 9999 SCT040 BKN060"
    },
    {
      "icao": "LBSF",
      "alert": "OK",
      "vis_m": 9999,
      "fzfg": false,
      "metar_trigger": false,
      "taf_trigger": false,
      "metar": "METAR LBSF 191430Z 05012KT 9999 OVC054 06/M02 Q1015 NOSIG",
      "taf": "TAF LBSF 191100Z 1912/2012 05014KT 9999 SCT025 OVC040"
    },
    {
      "icao": "LBWN",
      "alert": "OK",
      "vis_m": 9999,
      "fzfg": false,
      "metar_trigger": false,
      "taf_trigger": false,
      "metar": "METAR LBWN 191430Z 02008KT 350V050 9999 BKN045 08/M01 Q1015 NOSIG",
      "taf": "TAF LBWN 191100Z 1912/2012 02014KT 9999 BKN025"
    },
    {
      "icao": "LCLK",
      "alert": "OK",
      "vis_m": 9999,
      "fzfg": false,
      "metar_trigger": false,
      "taf_trigger": false,
      "metar": "METAR LCLK 191430Z 19006KT 9999 TS FEW020 FEW030CB BKN050 17/15 Q1000 NOSIG RMK CB TO N",
      "taf": "TAF LCLK 191130Z 1912/2012 07010KT 9999 FEW030 SCT050"
    },
    {
      "icao": "LCPH",
      "alert": "OK",
      "vis_m": 9999,
      "fzfg": false,
      "metar_trigger": false,
      "taf_trigger": false,
      "metar": "METAR LCPH 191430Z 15009KT 9999 TS FEW025CB BKN050 19/15 Q1000 TEMPO 5000 TSRA FEW030CB",
      "taf": "TAF LCPH 191130Z 1912/2012 25010KT 9999 FEW030 SCT050"
    },
    {
      "icao": "LEAL",
      "alert": "OK",
      "vis_m": 9999,
      "fzfg": false,
      "metar_trigger": false,
      "taf_trigger": false,
      "metar": "METAR LEAL 191430Z 08023KT 9999 FEW016 17/11 Q1013 NOSIG",
      "taf": "TAF LEAL 191100Z 1912/2012 08018KT 9999 FEW020 TX18/1912Z TN11/2007Z"
    },
    {
      "icao": "LEBB",
      "alert": "OK",
      "vis_m": 9999,
      "fzfg": false,
      "metar_trigger": false,
      "taf_trigger": false,
      "metar": "METAR LEBB 191430Z 11013KT 080V140 CAVOK 21/08 Q1011 NOSIG",
      "taf": "TAF LEBB 191100Z 1912/2012 14009KT CAVOK TX20/1914Z TN08/2006Z"
    },
    {
      "icao": "LEBL",
      "alert": "OK",
      "vis_m": 9000,
      "fzfg": false,
      "metar_trigger": false,
      "taf_trigger": false,
      "metar": "METAR LEBL 191430Z 06012KT 9000 FEW020 SCT027 BKN053 14/08 Q1017 NOSIG",
      "taf": "TAF LEBL 191100Z 1912/2012 07012KT 9999 FEW030 TX17/1912Z TN08/2006Z"
    },
    {
      "icao": "LECH",
      "alert": "OK",
      "vis_m": 9000,
      "fzfg": false,
      "metar_trigger": false,
      "taf_trigger": false,
      "metar": "METAR LECH 191430Z AUTO 10011KT 9000 FEW023 OVC036 12/08 Q1016",
      "taf": "TAF LECH 191100Z 1912/2012 08008KT 9999 SCT020 BKN040 TX17/1912Z TN06/2007Z"
    },
    {
      "icao": "LEMD",
      "alert": "OK",
      "vis_m": 9999,
      "fzfg": false,
      "metar_trigger": false,
      "taf_trigger": false,
      "metar": "METAR LEMD 191430Z 01003KT 290V100 CAVOK 17/04 Q1011 NOSIG",
      "taf": "TAF LEMD 191100Z 1912/2018 VRB04KT CAVOK TX20/1915Z TN05/2007Z"
    },
    {
      "icao": "LEMG",
      "alert": "OK",
      "vis_m": 9999,
      "fzfg": false,
      "metar_trigger": false,
      "taf_trigger": false,
      "metar": "METAR LEMG 191430Z 13012KT 9999 FEW020 18/11 Q1009 NOSIG",
      "taf": "TAF LEMG 191100Z 1912/2012 13011KT 9999 SCT020 TX20/1913Z TN11/2006Z"
    },
    {
      "icao": "LEVC",
      "alert": "OK",
      "vis_m": 9999,
      "fzfg": false,
      "metar_trigger": false,
      "taf_trigger": false,
      "metar": "METAR LEVC 191430Z 08014KT 040V110 9999 FEW025 SCT053 16/09 Q1016 NOSIG",
      "taf": "TAF LEVC 191100Z 1912/2012 07014KT 9999 FEW020 BKN035 TX17/1912Z TN10/2007Z"
    },
    {
      "icao": "LEXJ",
      "alert": "OK",
      "vis_m": 9999,
      "fzfg": false,
      "metar_trigger": false,
      "taf_trigger": false,
      "metar": "METAR LEXJ 191430Z 05010KT 350V100 CAVOK 16/10 Q1009",
      "taf": "TAF LEXJ 191400Z 1915/2015 06009KT CAVOK TX23/2014Z TN07/2007Z"
    },
    {
      "icao": "LEZG",
      "alert": "OK",
      "vis_m": 9999,
      "fzfg": false,
      "metar_trigger": false,
      "taf_trigger": false,
      "metar": "METAR LEZG 191430Z 10013KT 080V140 9999 BKN045 16/06 Q1015 NOSIG",
      "taf": "TAF LEZG 191100Z 1912/2012 11012KT 9999 SCT025 TX18/1914Z TN06/2007Z"
    },
    {
      "icao": "LEZL",
      "alert": "OK",
      "vis_m": 9999,
      "fzfg": false,
      "metar_trigger": false,
      "taf_trigger": false,
      "metar": "METAR LEZL 191430Z 09001KT CAVOK 24/10 Q1005 NOSIG",
      "taf": "TAF LEZL 191400Z 1915/2015 VRB03KT 9999 FEW035 TX24/1915Z TN13/2007Z"
    },
    {
      "icao": "LFBD",
      "alert": "OK",
      "vis_m": 9999,
      "fzfg": false,
      "metar_trigger": false,
      "taf_trigger": false,
      "metar": "METAR LFBD 191430Z AUTO 10015KT 060V140 CAVOK 19/04 Q1015 TEMPO 10015G25KT",
      "taf": "TAF LFBD 191100Z 1912/2018 11012KT CAVOK TX18/1915Z TN04/2006Z"
    },
    {
      "icao": "LFLL",
      "alert": "OK",
      "vis_m": 9999,
      "fzfg": false,
      "metar_trigger": false,
      "taf_trigger": false,
      "metar": "METAR LFLL 191430Z 01005KT 310V050 CAVOK 16/03 Q1018 NOSIG",
      "taf": "TAF LFLL 191100Z 1912/2018 31003KT CAVOK"
    },
    {
      "icao": "LFLS",
      "alert": "OK",
      "vis_m": 9999,
      "fzfg": false,
      "metar_trigger": false,
      "taf_trigger": false,
      "metar": "METAR LFLS 191430Z AUTO 33010KT CAVOK 15/04 Q1017 NOSIG",
      "taf": "TAF LFLS 190800Z 1909/2009 09007KT CAVOK"
    },
    {
      "icao": "LFMN",
      "alert": "OK",
      "vis_m": 9999,
      "fzfg": false,
      "metar_trigger": false,
      "taf_trigger": false,
      "metar": "METAR LFMN 191430Z 11013KT 9999 FEW040 17/06 Q1016 NOSIG",
      "taf": "TAF LFMN 191400Z 1915/2021 12012KT CAVOK"
    },
    {
      "icao": "LFOB",
      "alert": "OK",
      "vis_m": 9999,
      "fzfg": false,
      "metar_trigger": false,
      "taf_trigger": false,
      "metar": "METAR LFOB 191430Z AUTO 06013KT CAVOK 17/04 Q1022 NOSIG",
      "taf": "TAF LFOB 191100Z 1912/2012 07010KT CAVOK"
    },
    {
      "icao": "LFPO",
      "alert": "OK",
      "vis_m": 9999,
      "fzfg": false,
      "metar_trigger": false,
      "taf_trigger": false,
      "metar": "METAR LFPO 191430Z 05010KT 020V090 CAVOK 17/02 Q1021 NOSIG",
      "taf": "TAF LFPO 191100Z 1912/2018 07008KT CAVOK"
    },
    {
      "icao": "LFSB",
      "alert": "OK",
      "vis_m": 9999,
      "fzfg": false,
      "metar_trigger": false,
      "taf_trigger": false,
      "metar": "METAR LFSB 191430Z AUTO 01005KT 320V040 CAVOK 16/03 Q1019 NOSIG",
      "taf": "TAF LFSB 191100Z 1912/2012 35005KT CAVOK"
    },
    {
      "icao": "LGAV",
      "alert": "OK",
      "vis_m": 9999,
      "fzfg": false,
      "metar_trigger": false,
      "taf_trigger": false,
      "metar": "METAR LGAV 191420Z 36013KT 9999 FEW018 BKN025 10/05 Q1009 NOSIG",
      "taf": "TAF LGAV 191100Z 1912/2012 01016KT 9999 FEW018 SCT025 BKN070"
    },
    {
      "icao": "LGTS",
      "alert": "OK",
      "vis_m": 9999,
      "fzfg": false,
      "metar_trigger": false,
      "taf_trigger": false,
      "metar": "METAR LGTS 191420Z 27005KT 9999 SCT025 12/03 Q1012 NOSIG",
      "taf": "TAF LGTS 191100Z 1912/2012 VRB03KT 9999 SCT025"
    },
    {
      "icao": "LHBP",
      "alert": "OK",
      "vis_m": 9999,
      "fzfg": false,
      "metar_trigger": false,
      "taf_trigger": false,
      "metar": "METAR LHBP 191430Z 09007KT 060V120 CAVOK 12/M02 Q1020 NOSIG",
      "taf": "TAF LHBP 191115Z 1912/2012 07014KT CAVOK"
    },
    {
      "icao": "LHDC",
      "alert": "OK",
      "vis_m": 9999,
      "fzfg": false,
      "metar_trigger": false,
      "taf_trigger": false,
      "metar": "METAR LHDC 191415Z AUTO 04010KT 360V080 CAVOK 12/M02 Q1019 NOSIG",
      "taf": "TAF LHDC 191415Z 1915/1924 03009KT CAVOK"
    },
    {
      "icao": "LIBD",
      "alert": "OK",
      "vis_m": 9999,
      "fzfg": false,
      "metar_trigger": false,
      "taf_trigger": false,
      "metar": "METAR LIBD 191420Z 33008KT 300V360 9999 FEW040 13/06 Q1010",
      "taf": "TAF LIBD 191100Z 1912/2012 VRB05KT 9999 SCT030"
    },
    {
      "icao": "LIBG",
      "alert": "OK",
      "vis_m": 9999,
      "fzfg": false,
      "metar_trigger": false,
      "taf_trigger": false,
      "metar": "METAR LIBG 191350Z 03010KT 010V070 9999 FEW040 13/08 Q1009",
      "taf": "TAF LIBG 191400Z 1915/1924 03011KT 9999 FEW040"
    },
    {
      "icao": "LIBP",
      "alert": "OK",
      "vis_m": 9999,
      "fzfg": false,
      "metar_trigger": false,
      "taf_trigger": false,
      "metar": "METAR LIBP 191420Z AUTO 35011KT 310V010 9999 BKN073/// 15/05 Q1014",
      "taf": "TAF LIBP 191100Z 1912/2012 VRB05KT 9999 FEW050"
    },
    {
      "icao": "LIBR",
      "alert": "OK",
      "vis_m": 9999,
      "fzfg": false,
      "metar_trigger": false,
      "taf_trigger": false,
      "metar": "METAR LIBR 191420Z 28005KT 9999 FEW030 13/08 Q1009",
      "taf": "TAF LIBR 191100Z 1912/2012 04010KT 9999 BKN050"
    },
    {
      "icao": "LICA",
      "alert": "OK",
      "vis_m": 9999,
      "fzfg": false,
      "metar_trigger": false,
      "taf_trigger": false,
      "metar": "METAR LICA 191420Z AUTO 28014KT 9999 BKN048/// BKN087/// 13/07 Q1009",
      "taf": "TAF LICA 191100Z 1912/2012 27012KT 8000 FEW030"
    },
    {
      "icao": "LICC",
      "alert": "OK",
      "vis_m": 9999,
      "fzfg": false,
      "metar_trigger": false,
      "taf_trigger": false,
      "metar": "METAR LICC 191420Z 08006KT 050V120 9999 FEW050 14/12 Q1008",
      "taf": "TAF LICC 191100Z 1912/2012 09010KT 9999 SCT035"
    },
    {
      "icao": "LICJ",
      "alert": "OK",
      "vis_m": 9999,
      "fzfg": false,
      "metar_trigger": false,
      "taf_trigger": false,
      "metar": "METAR LICJ 191420Z 02013KT 9999 SCT030 14/08 Q1011",
      "taf": "TAF LICJ 191100Z 1912/2012 02013KT 9999 SCT025"
    },
    {
      "icao": "LIMC",
      "alert": "OK",
      "vis_m": 9999,
      "fzfg": false,
      "metar_trigger": false,
      "taf_trigger": false,
      "metar": "METAR LIMC 191420Z 21006KT 150V240 CAVOK 17/M02 Q1016 NOSIG",
      "taf": "TAF LIMC 191100Z 1912/2018 23010KT CAVOK"
    },
    {
      "icao": "LIME",
      "alert": "OK",
      "vis_m": 9999,
      "fzfg": false,
      "metar_trigger": false,
      "taf_trigger": false,
      "metar": "METAR LIME 191420Z 21007KT 160V290 CAVOK 16/01 Q1016 NOSIG",
      "taf": "TAF LIME 191100Z 1912/2012 24010KT CAVOK"
    },
    {
      "icao": "LIMF",
      "alert": "OK",
      "vis_m": 9999,
      "fzfg": false,
      "metar_trigger": false,
      "taf_trigger": false,
      "metar": "METAR LIMF 191420Z 08004KT 040V130 CAVOK 17/M04 Q1017",
      "taf": "TAF LIMF 191100Z 1912/2012 VRB05KT CAVOK"
    },
    {
      "icao": "LIMJ",
      "alert": "OK",
      "vis_m": 9999,
      "fzfg": false,
      "metar_trigger": false,
      "taf_trigger": false,
      "metar": "METAR LIMJ 191420Z 34013KT 300V010 CAVOK 19/M00 Q1015",
      "taf": "TAF LIMJ 191100Z 1912/2012 04008KT CAVOK"
    },
    {
      "icao": "LIPE",
      "alert": "OK",
      "vis_m": 9999,
      "fzfg": false,
      "metar_trigger": false,
      "taf_trigger": false,
      "metar": "METAR LIPE 191420Z 10011KT CAVOK 17/M01 Q1016",
      "taf": "TAF LIPE 191100Z 1912/2012 05013KT CAVOK"
    },
    {
      "icao": "LIPH",
      "alert": "OK",
      "vis_m": 9999,
      "fzfg": false,
      "metar_trigger": false,
      "taf_trigger": false,
      "metar": "METAR LIPH 191420Z 14009KT CAVOK 16/04 Q1017",
      "taf": "TAF LIPH 191100Z 1912/2012 VRB05KT CAVOK"
    },
    {
      "icao": "LIPQ",
      "alert": "OK",
      "vis_m": 9999,
      "fzfg": false,
      "metar_trigger": false,
      "taf_trigger": false,
      "metar": "METAR LIPQ 191420Z AUTO 11018KT 9999 NCD 17/M02 Q1016",
      "taf": "TAF LIPQ 191100Z 1912/2012 09012KT CAVOK"
    },
    {
      "icao": "LIPR",
      "alert": "OK",
      "vis_m": 9999,
      "fzfg": false,
      "metar_trigger": false,
      "taf_trigger": false,
      "metar": "METAR LIPR 191420Z 07007KT CAVOK 14/05 Q1017",
      "taf": "TAF LIPR 191100Z 1912/2012 05013KT CAVOK"
    },
    {
      "icao": "LIPX",
      "alert": "OK",
      "vis_m": 9999,
      "fzfg": false,
      "metar_trigger": false,
      "taf_trigger": false,
      "metar": "METAR LIPX 191420Z VRB03KT CAVOK 18/M03 Q1016",
      "taf": "TAF LIPX 191100Z 1912/2012 VRB05KT CAVOK"
    },
    {
      "icao": "LIPY",
      "alert": "OK",
      "vis_m": 9999,
      "fzfg": false,
      "metar_trigger": false,
      "taf_trigger": false,
      "metar": "METAR LIPY 191420Z AUTO 05010KT 9999 NCD 14/06 Q1015",
      "taf": "TAF LIPY 191100Z 1912/2012 03013KT 9999 BKN040"
    },
    {
      "icao": "LIPZ",
      "alert": "OK",
      "vis_m": 9999,
      "fzfg": false,
      "metar_trigger": false,
      "taf_trigger": false,
      "metar": "METAR LIPZ 191420Z AUTO 13005KT 100V210 9999 NCD 16/03 Q1017",
      "taf": "TAF LIPZ 191100Z 1912/2018 10010KT CAVOK"
    },
    {
      "icao": "LIRF",
      "alert": "OK",
      "vis_m": 9999,
      "fzfg": false,
      "metar_trigger": false,
      "taf_trigger": false,
      "metar": "METAR LIRF 191420Z 24010KT CAVOK 15/06 Q1011 NOSIG",
      "taf": "TAF LIRF 191100Z 1912/2018 03010KT 9999 FEW050"
    },
    {
      "icao": "LIRN",
      "alert": "OK",
      "vis_m": 9999,
      "fzfg": false,
      "metar_trigger": false,
      "taf_trigger": false,
      "metar": "METAR LIRN 191420Z 04009KT 350V060 9999 SCT070 15/04 Q1011 NOSIG",
      "taf": "TAF LIRN 191100Z 1912/2012 04010KT CAVOK"
    },
    {
      "icao": "LIRP",
      "alert": "OK",
      "vis_m": 9999,
      "fzfg": false,
      "metar_trigger": false,
      "taf_trigger": false,
      "metar": "METAR LIRP 191415Z 09011KT CAVOK 17/M02 Q1014 NOSIG",
      "taf": "TAF LIRP 191100Z 1912/2012 05015KT CAVOK"
    },
    {
      "icao": "LIRZ",
      "alert": "OK",
      "vis_m": 9999,
      "fzfg": false,
      "metar_trigger": false,
      "taf_trigger": false,
      "metar": "METAR LIRZ 191420Z AUTO 03016KT 9999 NCD 15/02 Q1014",
      "taf": "TAF LIRZ 191100Z 1912/2012 03012KT 9999 FEW050"
    },
    {
      "icao": "LJLJ",
      "alert": "OK",
      "vis_m": 9999,
      "fzfg": false,
      "metar_trigger": false,
      "taf_trigger": false,
      "metar": "METAR LJLJ 191430Z 09014KT 060V120 9999 FEW077 13/M02 Q1017 NOSIG",
      "taf": "TAF LJLJ 191100Z 1912/2012 09008KT 9999 FEW065"
    },
    {
      "icao": "LKMT",
      "alert": "OK",
      "vis_m": 9999,
      "fzfg": false,
      "metar_trigger": false,
      "taf_trigger": false,
      "metar": "METAR LKMT 191430Z 36006KT 340V040 CAVOK 12/M00 Q1021 NOSIG",
      "taf": "TAF LKMT 191100Z 1912/2012 02012KT CAVOK"
    },
    {
      "icao": "LKPR",
      "alert": "OK",
      "vis_m": 9999,
      "fzfg": false,
      "metar_trigger": false,
      "taf_trigger": false,
      "metar": "METAR LKPR 191430Z 07003KT 030V150 CAVOK 13/M02 Q1022 NOSIG",
      "taf": "TAF LKPR 191400Z 1915/2021 04004KT CAVOK"
    },
    {
      "icao": "LLBG",
      "alert": "OK",
      "vis_m": 9999,
      "fzfg": false,
      "metar_trigger": false,
      "taf_trigger": false,
      "metar": "METAR LLBG 191420Z 24014KT 9999 BKN023 20/13 Q1001 NOSIG",
      "taf": "TAF LLBG 191103Z 1912/2012 24015KT 9999 SCT030 BKN040 TX22/1912Z TN13/2004Z"
    },
    {
      "icao": "LMML",
      "alert": "OK",
      "vis_m": 9999,
      "fzfg": false,
      "metar_trigger": false,
      "taf_trigger": false,
      "metar": "METAR LMML 191415Z 30019KT 9999 FEW036 16/07 Q1009 NOSIG",
      "taf": "TAF LMML 191100Z 1912/2012 32015KT 9999 FEW025"
    },
    {
      "icao": "LOWW",
      "alert": "OK",
      "vis_m": 9999,
      "fzfg": false,
      "metar_trigger": false,
      "taf_trigger": false,
      "metar": "METAR LOWW 191420Z 35009KT CAVOK 14/M02 Q1021 NOSIG",
      "taf": "TAF LOWW 191415Z 1915/2021 34006KT CAVOK TX14/2015Z TN02/2005Z"
    },
    {
      "icao": "LPFR",
      "alert": "OK",
      "vis_m": 7000,
      "fzfg": false,
      "metar_trigger": false,
      "taf_trigger": false,
      "metar": "METAR LPFR 191430Z 13013KT 7000 RA FEW008 BKN030 15/14 Q1007",
      "taf": "TAF LPFR 191100Z 1912/2012 13013KT 9999 SCT015"
    },
    {
      "icao": "LPMA",
      "alert": "OK",
      "vis_m": 9999,
      "fzfg": false,
      "metar_trigger": false,
      "taf_trigger": false,
      "metar": "METAR LPMA 191430Z 21023KT 9999 4000NE -SHRA BKN013 FEW018CB 15/10 Q0994",
      "taf": "TAF LPMA 191100Z 1912/2012 21020G32KT 9999 SCT015"
    },
    {
      "icao": "LPPR",
      "alert": "OK",
      "vis_m": 9999,
      "fzfg": false,
      "metar_trigger": false,
      "taf_trigger": false,
      "metar": "METAR LPPR 191430Z 17005KT 140V200 9999 FEW030 21/09 Q1006",
      "taf": "TAF LPPR 191100Z 1912/2012 VRB05KT 9999 SCT030"
    },
    {
      "icao": "LPPS",
      "alert": "OK",
      "vis_m": 9999,
      "fzfg": false,
      "metar_trigger": false,
      "taf_trigger": false,
      "metar": "METAR LPPS 191430Z 20026KT 9999 FEW015 FEW018TCU 16/07 Q0994",
      "taf": "TAF LPPS 191100Z 1912/2018 20015KT 9999 SCT015 SCT030"
    },
    {
      "icao": "LPPT",
      "alert": "OK",
      "vis_m": 9000,
      "fzfg": false,
      "metar_trigger": false,
      "taf_trigger": false,
      "metar": "METAR LPPT 191430Z 17008KT 140V200 9000 -RA FEW018 BKN044 14/12 Q1006",
      "taf": ""
    },
    {
      "icao": "LQBK",
      "alert": "OK",
      "vis_m": 9999,
      "fzfg": false,
      "metar_trigger": false,
      "taf_trigger": false,
      "metar": "METAR LQBK 191430Z 05008KT 010V080 CAVOK 13/M02 Q1017 NOSIG",
      "taf": "TAF LQBK 191100Z 1912/2012 34005KT CAVOK TX14/1913Z TN01/2005Z"
    },
    {
      "icao": "LQSA",
      "alert": "OK",
      "vis_m": 9999,
      "fzfg": false,
      "metar_trigger": false,
      "taf_trigger": false,
      "metar": "METAR LQSA 191430Z 08005KT 030V130 9999 SCT060 09/M01 Q1015 NOSIG",
      "taf": "TAF LQSA 191100Z 1912/2012 VRB02KT 9999 BKN055 TX10/1913Z TN01/2005Z"
    },
    {
      "icao": "LQTZ",
      "alert": "OK",
      "vis_m": 9999,
      "fzfg": false,
      "metar_trigger": false,
      "taf_trigger": false,
      "metar": "METAR LQTZ 191430Z 06008KT 020V090 9999 SCT055 11/00 Q1017",
      "taf": "TAF LQTZ 191100Z 1912/2012 11005KT CAVOK TX13/1913Z TNM01/2005Z"
    },
    {
      "icao": "LRBC",
      "alert": "OK",
      "vis_m": 9999,
      "fzfg": false,
      "metar_trigger": false,
      "taf_trigger": false,
      "metar": "METAR LRBC 191430Z 34013KT 9999 -RA SCT023 BKN043 07/01 Q1019",
      "taf": "TAF LRBC 191400Z 1915/1924 33012KT 9999 SCT025 BKN045"
    },
    {
      "icao": "LRBS",
      "alert": "OK",
      "vis_m": 9999,
      "fzfg": false,
      "metar_trigger": false,
      "taf_trigger": false,
      "metar": "METAR LRBS 191430Z 05013KT 9999 FEW039 08/M01 Q1018 NOSIG",
      "taf": "TAF LRBS 191100Z 1912/2012 06014KT 9999 BKN035"
    },
    {
      "icao": "LRBV",
      "alert": "OK",
      "vis_m": 9999,
      "fzfg": false,
      "metar_trigger": false,
      "taf_trigger": false,
      "metar": "METAR LRBV 191430Z 08004KT 040V110 9999 SCT039 BKN050 04/M03 Q1017",
      "taf": "TAF LRBV 191400Z 1915/1924 VRB04KT 9999 BKN040"
    },
    {
      "icao": "LRCL",
      "alert": "OK",
      "vis_m": 9999,
      "fzfg": false,
      "metar_trigger": false,
      "taf_trigger": false,
      "metar": "METAR LRCL 191430Z 04006KT 9999 BKN064 09/M03 Q1018",
      "taf": "TAF LRCL 191400Z 1915/1924 VRB04KT 9999 BKN050"
    },
    {
      "icao": "LRCV",
      "alert": "OK",
      "vis_m": 9999,
      "fzfg": false,
      "metar_trigger": false,
      "taf_trigger": false,
      "metar": "METAR LRCV 191430Z 11004KT 080V150 CAVOK 07/01 Q1018",
      "taf": "TAF LRCV 191400Z 1915/1924 VRB04KT CAVOK"
    },
    {
      "icao": "LRIA",
      "alert": "OK",
      "vis_m": 9999,
      "fzfg": false,
      "metar_trigger": false,
      "taf_trigger": false,
      "metar": "METAR LRIA 191430Z 01011KT 9999 BKN025 07/01 Q1019",
      "taf": "TAF LRIA 191400Z 1915/1924 36010KT 9999 BKN035"
    },
    {
      "icao": "LROP",
      "alert": "OK",
      "vis_m": 9999,
      "fzfg": false,
      "metar_trigger": false,
      "taf_trigger": false,
      "metar": "METAR LROP 191430Z 06014KT CAVOK 08/M04 Q1018 NOSIG",
      "taf": "TAF LROP 191100Z 1912/2012 07018KT 9999 BKN035"
    },
    {
      "icao": "LRSB",
      "alert": "OK",
      "vis_m": 9999,
      "fzfg": false,
      "metar_trigger": false,
      "taf_trigger": false,
      "metar": "METAR LRSB 191430Z 05003KT 350V110 9999 FEW050 BKN070 08/M04 Q1017",
      "taf": "TAF LRSB 191100Z 1912/2012 VRB04KT 9999 BKN045"
    },
    {
      "icao": "LRSM",
      "alert": "OK",
      "vis_m": 9999,
      "fzfg": false,
      "metar_trigger": false,
      "taf_trigger": false,
      "metar": "METAR LRSM 191430Z 03007KT CAVOK 11/M02 Q1019",
      "taf": "TAF LRSM 191400Z 1915/1924 03007KT CAVOK"
    },
    {
      "icao": "LRSV",
      "alert": "OK",
      "vis_m": 9999,
      "fzfg": false,
      "metar_trigger": false,
      "taf_trigger": false,
      "metar": "METAR LRSV 191430Z 36009KT 9999 SCT017 05/02 Q1019",
      "taf": "TAF LRSV 191400Z 1915/1924 35009KT 9999 BKN020 BKN035"
    },
    {
      "icao": "LRTM",
      "alert": "OK",
      "vis_m": 9999,
      "fzfg": false,
      "metar_trigger": false,
      "taf_trigger": false,
      "metar": "METAR LRTM 191430Z 04003KT 010V080 9999 SCT036 FEW038CB 09/M03 Q1018",
      "taf": "TAF LRTM 191400Z 1915/1924 06006KT 9999 BKN040"
    },
    {
      "icao": "LRTR",
      "alert": "OK",
      "vis_m": 9999,
      "fzfg": false,
      "metar_trigger": false,
      "taf_trigger": false,
      "metar": "METAR LRTR 191430Z 02007KT CAVOK 11/00 Q1017 NOSIG",
      "taf": "TAF LRTR 191100Z 1912/2012 04008KT CAVOK"
    },
    {
      "icao": "LTAC",
      "alert": "OK",
      "vis_m": 8000,
      "fzfg": false,
      "metar_trigger": false,
      "taf_trigger": false,
      "metar": "METAR LTAC 191420Z 05016KT 8000 -SHRA SCT019 BKN023 BKN080 07/06 Q1003 NOSIG RMK RWY21C 04016KT RWY03L 04015KT RWY21R 03014KT RWY03R 02016KT RWY21L 03015KT",
      "taf": "TAF LTAC 191040Z 1912/2012 05012KT 9999 -SHRA SCT010 BKN030 BKN080"
    },
    {
      "icao": "LTFM",
      "alert": "OK",
      "vis_m": 9999,
      "fzfg": false,
      "metar_trigger": false,
      "taf_trigger": false,
      "metar": "METAR LTFM 191350Z 03025KT 9999 FEW019 BKN039 08/03 Q1012 NOSIG RMK RWY17L 03018KT RWY34L 02021KT RWY16R 03020KT RWY36 03023KT RWY18 04018KT",
      "taf": "TAF LTFM 191040Z 1912/2018 03024G35KT 9999 SCT018 BKN035"
    },
    {
      "icao": "LUKK",
      "alert": "OK",
      "vis_m": 9999,
      "fzfg": false,
      "metar_trigger": false,
      "taf_trigger": false,
      "metar": "METAR LUKK 191430Z 02012KT 9999 FEW032 OVC040 08/01 Q1018 NOSIG",
      "taf": "TAF LUKK 191109Z 1912/2012 01010KT 9999 BKN025"
    },
    {
      "icao": "LWOH",
      "alert": "OK",
      "vis_m": 9999,
      "fzfg": false,
      "metar_trigger": false,
      "taf_trigger": false,
      "metar": "METAR LWOH 191420Z 35009KT 320V020 9999 FEW020 BKN035 07/01 Q1010",
      "taf": "TAF LWOH 191130Z 1912/2012 36008KT 9999 SCT040"
    },
    {
      "icao": "LWSK",
      "alert": "OK",
      "vis_m": 9999,
      "fzfg": false,
      "metar_trigger": false,
      "taf_trigger": false,
      "metar": "METAR LWSK 191427Z COR 06006KT 030V100 9999 SCT050 BKN070 12/M01 Q1012 NOSIG",
      "taf": "TAF LWSK 191130Z 1912/2012 02010KT 9999 SCT050"
    },
    {
      "icao": "LYBE",
      "alert": "OK",
      "vis_m": 9999,
      "fzfg": false,
      "metar_trigger": false,
      "taf_trigger": false,
      "metar": "METAR LYBE 191430Z 02011KT 340V060 9999 SCT045 12/M02 Q1017 NOSIG",
      "taf": "TAF LYBE 191100Z 1912/2012 05012KT CAVOK TX13/1913Z TN03/2005Z"
    },
    {
      "icao": "LYNI",
      "alert": "OK",
      "vis_m": 9999,
      "fzfg": false,
      "metar_trigger": false,
      "taf_trigger": false,
      "metar": "METAR LYNI 191430Z 04015KT 9999 FEW050 BKN070 11/M04 Q1015 NOSIG",
      "taf": "TAF LYNI 191100Z 1912/2012 04016KT 9999 SCT070 TX14/1913Z TN01/2005Z"
    },
    {
      "icao": "LYPG",
      "alert": "OK",
      "vis_m": 9999,
      "fzfg": false,
      "metar_trigger": false,
      "taf_trigger": false,
      "metar": "METAR LYPG 191430Z 02016KT 350V060 9999 FEW090 16/M02 Q1010 NOSIG",
      "taf": "TAF LYPG 191100Z 1912/2012 36010KT 9999 SCT090 TX17/2012Z TN09/2005Z"
    },
    {
      "icao": "LZIB",
      "alert": "OK",
      "vis_m": 9999,
      "fzfg": false,
      "metar_trigger": false,
      "taf_trigger": false,
      "metar": "METAR LZIB 191430Z 01004KT 260V070 CAVOK 15/M03 Q1020 NOSIG",
      "taf": "TAF LZIB 191115Z 1912/2012 06007KT CAVOK"
    },
    {
      "icao": "LZKZ",
      "alert": "OK",
      "vis_m": 9999,
      "fzfg": false,
      "metar_trigger": false,
      "taf_trigger": false,
      "metar": "METAR LZKZ 191430Z 05008KT 010V070 CAVOK 11/M03 Q1020 NOSIG",
      "taf": "TAF LZKZ 191115Z 1912/2012 03013KT CAVOK"
    },
    {
      "icao": "LZTT",
      "alert": "OK",
      "vis_m": 9999,
      "fzfg": false,
      "metar_trigger": false,
      "taf_trigger": false,
      "metar": "METAR LZTT 191430Z 06015KT 9999 SCT060 08/M04 Q1020 NOSIG",
      "taf": "TAF LZTT 191115Z 1912/2012 06013KT 9999 SCT050"
    },
    {
      "icao": "OEJN",
      "alert": "OK",
      "vis_m": 6000,
      "fzfg": false,
      "metar_trigger": false,
      "taf_trigger": false,
      "metar": "METAR OEJN 191400Z 33016KT 6000 SCT040 30/13 Q1006 NOSIG",
      "taf": "TAF OEJN 191100Z 1912/2018 18015KT 7000 SCT040"
    },
    {
      "icao": "OEMA",
      "alert": "OK",
      "vis_m": 9999,
      "fzfg": false,
      "metar_trigger": false,
      "taf_trigger": false,
      "metar": "METAR OEMA 191400Z 24017G27KT CAVOK 28/M03 Q1007 NOSIG",
      "taf": "TAF OEMA 191100Z 1912/2018 27016KT 7000 SCT045"
    },
    {
      "icao": "OJAI",
      "alert": "OK",
      "vis_m": 2000,
      "fzfg": false,
      "metar_trigger": false,
      "taf_trigger": false,
      "metar": "SPECI OJAI 191410Z 22017KT 2000 -RA FEW025CB BKN040 11/07 Q1003 NOSIG",
      "taf": ""
    },
    {
      "icao": "OMAA",
      "alert": "OK",
      "vis_m": null,
      "fzfg": false,
      "metar_trigger": false,
      "taf_trigger": false,
      "metar": "",
      "taf": ""
    },
    {
      "icao": "OMDB",
      "alert": "OK",
      "vis_m": null,
      "fzfg": false,
      "metar_trigger": false,
      "taf_trigger": false,
      "metar": "",
      "taf": ""
    },
    {
      "icao": "UAAA",
      "alert": "OK",
      "vis_m": 5000,
      "fzfg": false,
      "metar_trigger": false,
      "taf_trigger": false,
      "metar": "METAR UAAA 191430Z VRB01MPS 5000 FU FEW200 07/M02 Q1019 NOSIG",
      "taf": "TAF UAAA 191102Z 1912/2012 16002G07MPS 9999 FEW100 TX16/2010Z TN00/2000Z"
    },
    {
      "icao": "UBBB",
      "alert": "OK",
      "vis_m": 9999,
      "fzfg": false,
      "metar_trigger": false,
      "taf_trigger": false,
      "metar": "METAR UBBB 191430Z 16016KT CAVOK 12/07 Q1016 NOSIG",
      "taf": "TAF UBBB 191055Z 1912/2012 15008KT 9999 SCT035 TX14/1912Z TN07/2000Z"
    },
    {
      "icao": "UDSG",
      "alert": "OK",
      "vis_m": 9999,
      "fzfg": false,
      "metar_trigger": false,
      "taf_trigger": false,
      "metar": "METAR UDSG 191430Z 07016KT 9999 BKN049 07/00 Q1011 NOSIG",
      "taf": "TAF UDSG 191058Z 1912/2012 VRB06KT 9999 SCT040"
    },
    {
      "icao": "UDYZ",
      "alert": "OK",
      "vis_m": 9999,
      "fzfg": false,
      "metar_trigger": false,
      "taf_trigger": false,
      "metar": "METAR UDYZ 191430Z 09002KT 9999 FEW046 16/01 Q1008 NOSIG",
      "taf": "TAF UDYZ 191100Z 1912/2012 16006KT 9999 FEW040"
    },
    {
      "icao": "UGKO",
      "alert": "OK",
      "vis_m": 9999,
      "fzfg": false,
      "metar_trigger": false,
      "taf_trigger": false,
      "metar": "METAR UGKO 191430Z 08025KT CAVOK 17/02 Q1005 NOSIG",
      "taf": "TAF UGKO 191100Z 1912/2012 08031G43KT CAVOK TX21/1912Z TN14/2003Z"
    }
  ]
}