{
  "ts_utc": "2026-03-23T07:24:47Z",
  "threshold_m": 150,
  "source": "stations_override.txt (ICAO list) + aviationweather.gov (METAR/TAF raw)",
  "station_count": 159,
  "stations": [
    {
      "icao": "BIKF",
      "alert": "OK",
      "vis_m": 9999,
      "fzfg": false,
      "metar_trigger": false,
      "taf_trigger": false,
      "metar": "METAR BIKF 230700Z 09015KT 9999 FEW032 OVC076 M01/M03 Q0992",
      "taf": ""
    },
    {
      "icao": "BKPR",
      "alert": "OK",
      "vis_m": null,
      "fzfg": false,
      "metar_trigger": false,
      "taf_trigger": false,
      "metar": "",
      "taf": "TAF BKPR 230530Z 2306/2406 02008KT 9999 SCT040 BKN080"
    },
    {
      "icao": "EBCI",
      "alert": "OK",
      "vis_m": 7000,
      "fzfg": false,
      "metar_trigger": false,
      "taf_trigger": false,
      "metar": "METAR EBCI 230650Z VRB02KT 7000 NSC 05/02 Q1018 TEMPO 2500 BR",
      "taf": "TAF EBCI 230500Z 2306/2412 34003KT CAVOK"
    },
    {
      "icao": "EDDB",
      "alert": "OK",
      "vis_m": 9999,
      "fzfg": false,
      "metar_trigger": false,
      "taf_trigger": false,
      "metar": "METAR EDDB 230720Z AUTO VRB01KT CAVOK 08/02 Q1017 NOSIG",
      "taf": "TAF EDDB 230500Z 2306/2406 VRB03KT CAVOK"
    },
    {
      "icao": "EDDH",
      "alert": "OK",
      "vis_m": 9999,
      "fzfg": false,
      "metar_trigger": false,
      "taf_trigger": false,
      "metar": "METAR EDDH 230720Z AUTO 18003KT 140V220 CAVOK 08/02 Q1018 NOSIG",
      "taf": "TAF EDDH 230500Z 2306/2412 26004KT CAVOK"
    },
    {
      "icao": "EDDK",
      "alert": "OK",
      "vis_m": 9999,
      "fzfg": false,
      "metar_trigger": false,
      "taf_trigger": false,
      "metar": "METAR EDDK 230720Z AUTO 15003KT CAVOK 06/03 Q1018 NOSIG",
      "taf": "TAF EDDK 230500Z 2306/2412 VRB01KT CAVOK"
    },
    {
      "icao": "EDDN",
      "alert": "OK",
      "vis_m": 9999,
      "fzfg": false,
      "metar_trigger": false,
      "taf_trigger": false,
      "metar": "METAR EDDN 230720Z AUTO 33003KT CAVOK 04/00 Q1017 NOSIG",
      "taf": "TAF EDDN 230500Z 2306/2406 VRB02KT CAVOK"
    },
    {
      "icao": "EDDS",
      "alert": "OK",
      "vis_m": 9999,
      "fzfg": false,
      "metar_trigger": false,
      "taf_trigger": false,
      "metar": "METAR EDDS 230720Z AUTO 22001KT CAVOK 03/00 Q1016 NOSIG",
      "taf": "TAF EDDS 230500Z 2306/2406 VRB02KT CAVOK"
    },
    {
      "icao": "EDFH",
      "alert": "OK",
      "vis_m": 9999,
      "fzfg": false,
      "metar_trigger": false,
      "taf_trigger": false,
      "metar": "METAR EDFH 230650Z 09003KT 050V110 CAVOK 07/00 Q1016",
      "taf": "TAF EDFH 230500Z 2306/2406 08004KT CAVOK"
    },
    {
      "icao": "EDJA",
      "alert": "OK",
      "vis_m": 9999,
      "fzfg": false,
      "metar_trigger": false,
      "taf_trigger": false,
      "metar": "METAR EDJA 230650Z 23005KT CAVOK 03/M00 Q1015",
      "taf": "TAF EDJA 230500Z 2306/2315 20004KT 9999 SCT060"
    },
    {
      "icao": "EDLW",
      "alert": "OK",
      "vis_m": 9999,
      "fzfg": false,
      "metar_trigger": false,
      "taf_trigger": false,
      "metar": "METAR EDLW 230650Z 15007KT CAVOK 05/01 Q1017",
      "taf": "TAF EDLW 230500Z 2306/2406 16005KT CAVOK"
    },
    {
      "icao": "EDNY",
      "alert": "OK",
      "vis_m": 9999,
      "fzfg": false,
      "metar_trigger": false,
      "taf_trigger": false,
      "metar": "METAR EDNY 230650Z 06003KT CAVOK 02/00 Q1016",
      "taf": "TAF EDNY 230500Z 2306/2315 VRB03KT 9999 SCT055"
    },
    {
      "icao": "EDSB",
      "alert": "OK",
      "vis_m": 9999,
      "fzfg": false,
      "metar_trigger": false,
      "taf_trigger": false,
      "metar": "METAR EDSB 230650Z 19003KT CAVOK 00/M00 Q1017",
      "taf": "TAF EDSB 230500Z 2306/2406 VRB03KT CAVOK"
    },
    {
      "icao": "EETN",
      "alert": "OK",
      "vis_m": 9999,
      "fzfg": false,
      "metar_trigger": false,
      "taf_trigger": false,
      "metar": "METAR EETN 230720Z 22011KT 190V250 CAVOK 05/M01 Q1013 NOSIG",
      "taf": "TAF EETN 230530Z 2306/2406 21012KT CAVOK"
    },
    {
      "icao": "EFTU",
      "alert": "OK",
      "vis_m": 9999,
      "fzfg": false,
      "metar_trigger": false,
      "taf_trigger": false,
      "metar": "METAR EFTU 230720Z AUTO 24014KT CAVOK 05/M00 Q1009",
      "taf": "TAF EFTU 230532Z 2306/2406 22009KT CAVOK"
    },
    {
      "icao": "EGBB",
      "alert": "OK",
      "vis_m": 9000,
      "fzfg": false,
      "metar_trigger": false,
      "taf_trigger": false,
      "metar": "METAR EGBB 230650Z 33003KT 9000 OVC037 07/04 Q1020",
      "taf": "TAF EGBB 230455Z 2306/2406 32006KT 9999 SCT025"
    },
    {
      "icao": "EGGP",
      "alert": "OK",
      "vis_m": 9999,
      "fzfg": false,
      "metar_trigger": false,
      "taf_trigger": false,
      "metar": "METAR EGGP 230650Z 30005KT CAVOK 05/03 Q1021",
      "taf": "TAF EGGP 230455Z 2306/2406 33008KT 9999 FEW020"
    },
    {
      "icao": "EGGW",
      "alert": "OK",
      "vis_m": 2700,
      "fzfg": false,
      "metar_trigger": false,
      "taf_trigger": false,
      "metar": "METAR EGGW 230650Z AUTO 31005KT 280V350 2700 HZ FEW034 05/04 Q1020",
      "taf": "TAF EGGW 230457Z 2306/2406 34004KT 6000 SCT030"
    },
    {
      "icao": "EGKK",
      "alert": "OK",
      "vis_m": 7000,
      "fzfg": false,
      "metar_trigger": false,
      "taf_trigger": false,
      "metar": "METAR EGKK 230650Z VRB02KT 7000 NSC 02/01 Q1020",
      "taf": "TAF EGKK 230454Z 2306/2412 VRB04KT 7000 FEW030"
    },
    {
      "icao": "EGNM",
      "alert": "OK",
      "vis_m": 9999,
      "fzfg": false,
      "metar_trigger": false,
      "taf_trigger": false,
      "metar": "METAR EGNM 230650Z 26006KT 230V300 CAVOK 02/M01 Q1020",
      "taf": "TAF EGNM 230539Z 2306/2406 VRB02KT 9999 FEW045"
    },
    {
      "icao": "EGPD",
      "alert": "OK",
      "vis_m": 9999,
      "fzfg": false,
      "metar_trigger": false,
      "taf_trigger": false,
      "metar": "METAR EGPD 230650Z COR AUTO 24007KT 9999 NCD 03/M01 Q1018 NOSIG",
      "taf": "TAF EGPD 230458Z 2306/2406 26006KT 9999 FEW040"
    },
    {
      "icao": "EGPF",
      "alert": "OK",
      "vis_m": 9999,
      "fzfg": false,
      "metar_trigger": false,
      "taf_trigger": false,
      "metar": "METAR EGPF 230650Z AUTO 04003KT 9999 NCD 02/01 Q1019",
      "taf": "TAF EGPF 230458Z 2306/2406 VRB02KT 9999 FEW030"
    },
    {
      "icao": "EHBK",
      "alert": "OK",
      "vis_m": 9999,
      "fzfg": false,
      "metar_trigger": false,
      "taf_trigger": false,
      "metar": "METAR EHBK 230655Z AUTO 21007KT 9999 NSC 04/02 Q1018 NOSIG",
      "taf": "TAF EHBK 230526Z 2306/2412 20005KT CAVOK"
    },
    {
      "icao": "EHEH",
      "alert": "OK",
      "vis_m": 3300,
      "fzfg": false,
      "metar_trigger": false,
      "taf_trigger": false,
      "metar": "METAR EHEH 230655Z AUTO 19001KT 3300 R03/P3000N BR BKN250/// 03/03 Q1018 YLO BECMG 6000 NSW",
      "taf": "TAF EHEH 230516Z 2306/2412 33003KT 4000 BR NSC"
    },
    {
      "icao": "EKBI",
      "alert": "OK",
      "vis_m": 4600,
      "fzfg": false,
      "metar_trigger": false,
      "taf_trigger": false,
      "metar": "METAR EKBI 230720Z AUTO 31003KT 4600 BR OVC006/// 05/04 Q1018",
      "taf": ""
    },
    {
      "icao": "EKCH",
      "alert": "OK",
      "vis_m": 9000,
      "fzfg": false,
      "metar_trigger": false,
      "taf_trigger": false,
      "metar": "METAR EKCH 230720Z AUTO 21005KT 9000 NCD 06/03 Q1017 NOSIG",
      "taf": ""
    },
    {
      "icao": "ENAL",
      "alert": "OK",
      "vis_m": 9999,
      "fzfg": false,
      "metar_trigger": false,
      "taf_trigger": false,
      "metar": "METAR ENAL 230650Z 27015KT 9999 -DZ FEW017CB SCT029 03/M00 Q1006",
      "taf": "TAF ENAL 230500Z 2306/2315 25018KT 9999 -SHRA FEW015 BKN030"
    },
    {
      "icao": "ENBR",
      "alert": "OK",
      "vis_m": 9999,
      "fzfg": false,
      "metar_trigger": false,
      "taf_trigger": false,
      "metar": "METAR ENBR 230650Z 24009KT 9999 VCSH SCT017CB SCT025 03/M00 Q1012 TEMPO 26015G28KT SHRASNGS FEW010 BKN020CB RMK WIND 1200FT 27017KT",
      "taf": ""
    },
    {
      "icao": "ENGM",
      "alert": "OK",
      "vis_m": 9999,
      "fzfg": false,
      "metar_trigger": false,
      "taf_trigger": false,
      "metar": "METAR ENGM 230650Z 22008KT CAVOK 02/M01 Q1009 NOSIG",
      "taf": "TAF ENGM 230500Z 2306/2406 22008KT CAVOK"
    },
    {
      "icao": "ENHD",
      "alert": "OK",
      "vis_m": 9999,
      "fzfg": false,
      "metar_trigger": false,
      "taf_trigger": false,
      "metar": "METAR ENHD 230650Z 27011KT 9999 FEW026 05/02 Q1014",
      "taf": "TAF ENHD 230500Z 2306/2315 27015KT 9999 SCT030"
    },
    {
      "icao": "ENTC",
      "alert": "OK",
      "vis_m": 9999,
      "fzfg": false,
      "metar_trigger": false,
      "taf_trigger": false,
      "metar": "METAR ENTC 230650Z 20022KT 9999 BKN056 04/M04 Q0976 TEMPO 20025G35KT RMK WIND 2600FT 18040G52KT",
      "taf": "TAF ENTC 230500Z 2306/2406 18018KT 9999 SCT020 BKN040"
    },
    {
      "icao": "ENTO",
      "alert": "OK",
      "vis_m": 9999,
      "fzfg": false,
      "metar_trigger": false,
      "taf_trigger": false,
      "metar": "METAR ENTO 230650Z 27006KT 220V300 CAVOK 04/M01 Q1012 NOSIG",
      "taf": "TAF ENTO 230500Z 2306/2406 26010KT CAVOK"
    },
    {
      "icao": "ENVA",
      "alert": "OK",
      "vis_m": 9999,
      "fzfg": false,
      "metar_trigger": false,
      "taf_trigger": false,
      "metar": "METAR ENVA 230650Z 22022KT 9999 VCSH FEW051 03/M03 Q1002 TEMPO 26022G35KT SHRASNGS SCT015 BKN020CB RMK WIND 670FT 22022G37KT",
      "taf": ""
    },
    {
      "icao": "ENZV",
      "alert": "OK",
      "vis_m": 9999,
      "fzfg": false,
      "metar_trigger": false,
      "taf_trigger": false,
      "metar": "METAR ENZV 230650Z 22003KT 190V260 9999 FEW030 05/02 Q1015 NOSIG",
      "taf": "TAF ENZV 230500Z 2306/2406 28012KT 9999 SCT030"
    },
    {
      "icao": "EPGD",
      "alert": "OK",
      "vis_m": 9999,
      "fzfg": false,
      "metar_trigger": false,
      "taf_trigger": false,
      "metar": "METAR EPGD 230700Z VRB01KT CAVOK 06/02 Q1018",
      "taf": "TAF EPGD 230530Z 2306/2406 VRB02KT CAVOK"
    },
    {
      "icao": "EPKK",
      "alert": "OK",
      "vis_m": 9999,
      "fzfg": false,
      "metar_trigger": false,
      "taf_trigger": false,
      "metar": "METAR EPKK 230700Z 10004KT CAVOK 06/M02 Q1017",
      "taf": "TAF EPKK 230530Z 2306/2406 VRB02KT CAVOK"
    },
    {
      "icao": "EPKT",
      "alert": "OK",
      "vis_m": 9999,
      "fzfg": false,
      "metar_trigger": false,
      "taf_trigger": false,
      "metar": "METAR EPKT 230700Z VRB02KT CAVOK 08/M01 Q1017",
      "taf": "TAF EPKT 230530Z 2306/2406 VRB02KT CAVOK"
    },
    {
      "icao": "EPLB",
      "alert": "OK",
      "vis_m": 9000,
      "fzfg": false,
      "metar_trigger": false,
      "taf_trigger": false,
      "metar": "METAR EPLB 230700Z 07004KT 9000 NSC 04/00 Q1019",
      "taf": "TAF EPLB 230530Z 2306/2406 VRB03KT CAVOK"
    },
    {
      "icao": "EPMO",
      "alert": "OK",
      "vis_m": 9999,
      "fzfg": false,
      "metar_trigger": false,
      "taf_trigger": false,
      "metar": "METAR EPMO 230700Z 12005KT 100V160 CAVOK 06/M00 Q1019",
      "taf": "TAF EPMO 230530Z 2306/2406 VRB04KT CAVOK"
    },
    {
      "icao": "EPPO",
      "alert": "OK",
      "vis_m": 9999,
      "fzfg": false,
      "metar_trigger": false,
      "taf_trigger": false,
      "metar": "METAR EPPO 230700Z 12002KT CAVOK 08/03 Q1017",
      "taf": "TAF EPPO 230530Z 2306/2406 VRB02KT CAVOK"
    },
    {
      "icao": "EPRA",
      "alert": "OK",
      "vis_m": 9999,
      "fzfg": false,
      "metar_trigger": false,
      "taf_trigger": false,
      "metar": "METAR EPRA 230700Z 13004KT 090V170 CAVOK 07/M02 Q1019",
      "taf": "TAF EPRA 230530Z 2306/2315 12005KT CAVOK"
    },
    {
      "icao": "EPRZ",
      "alert": "OK",
      "vis_m": 9999,
      "fzfg": false,
      "metar_trigger": false,
      "taf_trigger": false,
      "metar": "METAR EPRZ 230700Z 09008KT CAVOK 04/M02 Q1018",
      "taf": "TAF EPRZ 230530Z 2306/2406 10004KT CAVOK"
    },
    {
      "icao": "EPSC",
      "alert": "OK",
      "vis_m": 9999,
      "fzfg": false,
      "metar_trigger": false,
      "taf_trigger": false,
      "metar": "METAR EPSC 230700Z VRB01KT CAVOK 04/01 Q1018",
      "taf": "TAF EPSC 230530Z 2306/2406 VRB02KT CAVOK"
    },
    {
      "icao": "EPSY",
      "alert": "OK",
      "vis_m": 9999,
      "fzfg": false,
      "metar_trigger": false,
      "taf_trigger": false,
      "metar": "METAR EPSY 230700Z VRB01KT CAVOK 04/M00 Q1019",
      "taf": "TAF EPSY 230530Z 2306/2315 VRB02KT CAVOK"
    },
    {
      "icao": "EPWA",
      "alert": "OK",
      "vis_m": 9999,
      "fzfg": false,
      "metar_trigger": false,
      "taf_trigger": false,
      "metar": "METAR EPWA 230700Z 15005KT CAVOK 04/M01 Q1019 NOSIG",
      "taf": "TAF EPWA 230530Z 2306/2406 11004KT CAVOK"
    },
    {
      "icao": "EPWR",
      "alert": "OK",
      "vis_m": 9999,
      "fzfg": false,
      "metar_trigger": false,
      "taf_trigger": false,
      "metar": "METAR EPWR 230700Z 18003KT 140V200 CAVOK 06/02 Q1017",
      "taf": "TAF EPWR 230530Z 2306/2406 VRB02KT 8000 NSC"
    },
    {
      "icao": "ESGG",
      "alert": "OK",
      "vis_m": 650,
      "fzfg": false,
      "metar_trigger": false,
      "taf_trigger": false,
      "metar": "METAR ESGG 230650Z 22008KT 0650 R03/1600N R21/1300N FG OVC002 02/02 Q1014",
      "taf": "TAF ESGG 230530Z 2306/2406 22006KT 3000 BR OVC005"
    },
    {
      "icao": "ESKN",
      "alert": "OK",
      "vis_m": 9999,
      "fzfg": false,
      "metar_trigger": false,
      "taf_trigger": false,
      "metar": "METAR ESKN 230650Z 24010KT CAVOK 05/M00 Q1012",
      "taf": "TAF ESKN 230530Z 2306/2406 22008KT CAVOK"
    },
    {
      "icao": "ESMS",
      "alert": "OK",
      "vis_m": 7000,
      "fzfg": false,
      "metar_trigger": false,
      "taf_trigger": false,
      "metar": "METAR ESMS 230650Z VRB02KT 7000 BR NSC 02/02 Q1016",
      "taf": "TAF ESMS 230527Z 2306/2406 13005KT CAVOK"
    },
    {
      "icao": "ESSA",
      "alert": "OK",
      "vis_m": 9999,
      "fzfg": false,
      "metar_trigger": false,
      "taf_trigger": false,
      "metar": "METAR ESSA 230650Z 25013KT 9999 BKN018 03/M01 Q1010 NOSIG",
      "taf": "TAF ESSA 230530Z 2306/2406 24012KT CAVOK"
    },
    {
      "icao": "EYKA",
      "alert": "OK",
      "vis_m": 9999,
      "fzfg": false,
      "metar_trigger": false,
      "taf_trigger": false,
      "metar": "METAR EYKA 230720Z 19006KT CAVOK 07/01 Q1020",
      "taf": "TAF EYKA 230500Z 2306/2406 VRB04KT 8000 SCT045"
    },
    {
      "icao": "EYPA",
      "alert": "OK",
      "vis_m": 9999,
      "fzfg": false,
      "metar_trigger": false,
      "taf_trigger": false,
      "metar": "METAR EYPA 230720Z 16004KT CAVOK 06/01 Q1018",
      "taf": "TAF EYPA 230500Z 2306/2406 VRB04KT 8000 SCT035"
    },
    {
      "icao": "EYVI",
      "alert": "OK",
      "vis_m": 9999,
      "fzfg": false,
      "metar_trigger": false,
      "taf_trigger": false,
      "metar": "METAR EYVI 230720Z 19003KT CAVOK 06/00 Q1020 NOSIG",
      "taf": "TAF EYVI 230502Z 2306/2406 21006KT 9000 NSC"
    },
    {
      "icao": "GCFV",
      "alert": "OK",
      "vis_m": 9000,
      "fzfg": false,
      "metar_trigger": false,
      "taf_trigger": false,
      "metar": "METAR GCFV 230700Z 16004KT 9000 SHRA FEW012TCU BKN020 18/16 Q1006",
      "taf": "TAF GCFV 230200Z 2303/2403 19006KT 9999 SCT025 TX21/2314Z TN16/2306Z"
    },
    {
      "icao": "GCLP",
      "alert": "OK",
      "vis_m": 9999,
      "fzfg": false,
      "metar_trigger": false,
      "taf_trigger": false,
      "metar": "METAR GCLP 230700Z 21009KT 9999 FEW025TCU SCT050 15/14 Q1004 NOSIG",
      "taf": "TAF GCLP 230200Z 2303/2403 21008KT 9999 SCT025 TX21/2314Z TN15/2306Z"
    },
    {
      "icao": "GCTS",
      "alert": "OK",
      "vis_m": 9999,
      "fzfg": false,
      "metar_trigger": false,
      "taf_trigger": false,
      "metar": "METAR GCTS 230700Z 34006KT 9999 FEW040 14/12 Q1004 NOSIG",
      "taf": "TAF GCTS 230200Z 2303/2403 33006KT 9999 FEW020 SCT050 TX20/2314Z TN15/2306Z"
    },
    {
      "icao": "GMAD",
      "alert": "OK",
      "vis_m": 9999,
      "fzfg": false,
      "metar_trigger": false,
      "taf_trigger": false,
      "metar": "METAR GMAD 230700Z 09006KT 9999 FEW023 14/12 Q1008 NOSIG",
      "taf": "TAF GMAD 230500Z 2306/2412 07006KT 8000 SCT020 SCT080"
    },
    {
      "icao": "GMMN",
      "alert": "OK",
      "vis_m": 9999,
      "fzfg": false,
      "metar_trigger": false,
      "taf_trigger": false,
      "metar": "METAR GMMN 230700Z 22005KT 9999 FEW040 SCT100 13/12 Q1011 NOSIG",
      "taf": "TAF GMMN 230500Z 2306/2412 14004KT 9999 FEW040 SCT100"
    },
    {
      "icao": "GMMX",
      "alert": "OK",
      "vis_m": 8000,
      "fzfg": false,
      "metar_trigger": false,
      "taf_trigger": false,
      "metar": "METAR GMMX 230700Z 10003KT 8000 SCT020 BKN026 FEW030CB 13/11 Q1011 NOSIG",
      "taf": "TAF GMMX 230500Z 2306/2412 24008KT 3000 TSRA BKN023 FEW030CB"
    },
    {
      "icao": "HEGN",
      "alert": "OK",
      "vis_m": 9999,
      "fzfg": false,
      "metar_trigger": false,
      "taf_trigger": false,
      "metar": "METAR HEGN 230700Z 34007KT CAVOK 21/06 Q1010 NOSIG",
      "taf": "TAF HEGN 230500Z 2306/2412 11012KT 9999 SCT025"
    },
    {
      "icao": "HEMA",
      "alert": "OK",
      "vis_m": 9999,
      "fzfg": false,
      "metar_trigger": false,
      "taf_trigger": false,
      "metar": "METAR HEMA 230700Z 01007KT 9999 SCT020 22/16 Q1010 NOSIG",
      "taf": "TAF HEMA 230500Z 2306/2412 07012KT 9999 SCT025"
    },
    {
      "icao": "HESH",
      "alert": "OK",
      "vis_m": 9999,
      "fzfg": false,
      "metar_trigger": false,
      "taf_trigger": false,
      "metar": "METAR HESH 230700Z 36009KT CAVOK 22/07 Q1010 NOSIG",
      "taf": "TAF HESH 230500Z 2306/2412 18010KT 9999 SCT025"
    },
    {
      "icao": "HESX",
      "alert": "OK",
      "vis_m": 9999,
      "fzfg": false,
      "metar_trigger": false,
      "taf_trigger": false,
      "metar": "METAR HESX 230700Z 15004KT 9999 SCT030 17/06 Q1012 NOSIG",
      "taf": "TAF HESX 230500Z 2306/2412 08006KT CAVOK"
    },
    {
      "icao": "LATI",
      "alert": "OK",
      "vis_m": 9999,
      "fzfg": false,
      "metar_trigger": false,
      "taf_trigger": false,
      "metar": "METAR LATI 230720Z VRB02KT 9999 SCT074 BKN110 12/04 Q1013 NOSIG",
      "taf": "TAF LATI 230500Z 2306/2406 VRB05KT 9999 FEW050 BKN080 TX18/2312Z TN07/2405Z"
    },
    {
      "icao": "LBPD",
      "alert": "OK",
      "vis_m": 9999,
      "fzfg": false,
      "metar_trigger": false,
      "taf_trigger": false,
      "metar": "METAR LBPD 230700Z AUTO 31009KT 9999 OVC099/// 09/05 Q1014 NOSIG",
      "taf": "TAF LBPD 230500Z 2306/2406 VRB03KT 9999 SCT030 BKN050"
    },
    {
      "icao": "LBSF",
      "alert": "OK",
      "vis_m": 9999,
      "fzfg": false,
      "metar_trigger": false,
      "taf_trigger": false,
      "metar": "METAR LBSF 230700Z 01003KT 310V060 9999 SCT028 BKN035 06/01 Q1014 NOSIG",
      "taf": "TAF LBSF 230500Z 2306/2406 VRB03KT 9999 SCT030 BKN050"
    },
    {
      "icao": "LBWN",
      "alert": "OK",
      "vis_m": 9999,
      "fzfg": false,
      "metar_trigger": false,
      "taf_trigger": false,
      "metar": "METAR LBWN 230700Z 24004KT 150V290 9999 -RA BKN012 OVC033 07/05 Q1014 RERA TEMPO 4000 RA",
      "taf": "TAF LBWN 230500Z 2306/2406 31010KT 9999 BKN020 OVC040"
    },
    {
      "icao": "LCLK",
      "alert": "OK",
      "vis_m": 9999,
      "fzfg": false,
      "metar_trigger": false,
      "taf_trigger": false,
      "metar": "METAR LCLK 230700Z 11003KT 9999 FEW025CB 16/11 Q1009 NOSIG",
      "taf": "TAF LCLK 230530Z 2306/2406 28006KT 9999 FEW030"
    },
    {
      "icao": "LCPH",
      "alert": "OK",
      "vis_m": 9999,
      "fzfg": false,
      "metar_trigger": false,
      "taf_trigger": false,
      "metar": "METAR LCPH 230700Z 08004KT 9999 FEW028 FEW035TCU 15/11 Q1009 NOSIG",
      "taf": "TAF LCPH 230530Z 2306/2406 03008KT 9999 FEW020 SCT040"
    },
    {
      "icao": "LEAL",
      "alert": "OK",
      "vis_m": 9999,
      "fzfg": false,
      "metar_trigger": false,
      "taf_trigger": false,
      "metar": "METAR LEAL 230700Z VRB02KT CAVOK 11/09 Q1013 NOSIG",
      "taf": "TAF LEAL 230500Z 2306/2406 VRB04KT CAVOK TX18/2312Z TN07/2306Z"
    },
    {
      "icao": "LEBB",
      "alert": "OK",
      "vis_m": 9000,
      "fzfg": false,
      "metar_trigger": false,
      "taf_trigger": false,
      "metar": "METAR LEBB 230700Z VRB02KT 9000 FEW022 SCT035 BKN070 09/07 Q1019 NOSIG",
      "taf": "TAF LEBB 230500Z 2306/2406 32008KT 9999 FEW020 SCT030 TX16/2315Z TN04/2406Z"
    },
    {
      "icao": "LEBL",
      "alert": "OK",
      "vis_m": 9999,
      "fzfg": false,
      "metar_trigger": false,
      "taf_trigger": false,
      "metar": "METAR LEBL 230700Z 08016KT CAVOK 11/08 Q1015 NOSIG",
      "taf": "TAF LEBL 230500Z 2306/2406 07010KT 9999 FEW020 TX17/2312Z TN10/2306Z"
    },
    {
      "icao": "LECH",
      "alert": "OK",
      "vis_m": 9000,
      "fzfg": false,
      "metar_trigger": false,
      "taf_trigger": false,
      "metar": "METAR LECH 230700Z AUTO 01010KT 340V050 9000 NCD 10/02 Q1014",
      "taf": "TAF LECH 230500Z 2306/2406 01010KT 9999 FEW030 TX16/2312Z TN05/2306Z"
    },
    {
      "icao": "LEMD",
      "alert": "OK",
      "vis_m": 9999,
      "fzfg": false,
      "metar_trigger": false,
      "taf_trigger": false,
      "metar": "METAR LEMD 230700Z 01002KT CAVOK 05/01 Q1014 NOSIG",
      "taf": "TAF LEMD 230500Z 2306/2412 VRB04KT CAVOK TX17/2316Z TN02/2406Z"
    },
    {
      "icao": "LEMG",
      "alert": "OK",
      "vis_m": 9999,
      "fzfg": false,
      "metar_trigger": false,
      "taf_trigger": false,
      "metar": "METAR LEMG 230700Z 30007KT CAVOK 08/08 Q1012 NOSIG",
      "taf": "TAF LEMG 230500Z 2306/2406 31005KT CAVOK TX19/2313Z TN11/2306Z"
    },
    {
      "icao": "LEVC",
      "alert": "OK",
      "vis_m": 9999,
      "fzfg": false,
      "metar_trigger": false,
      "taf_trigger": false,
      "metar": "METAR LEVC 230700Z 31004KT CAVOK 07/06 Q1014 NOSIG",
      "taf": "TAF LEVC 230500Z 2306/2406 VRB03KT CAVOK TX18/2312Z TN06/2306Z"
    },
    {
      "icao": "LEXJ",
      "alert": "OK",
      "vis_m": 7000,
      "fzfg": false,
      "metar_trigger": false,
      "taf_trigger": false,
      "metar": "METAR LEXJ 230700Z 24005KT 210V270 7000 FEW029 SCT050 08/04 Q1019",
      "taf": "TAF LEXJ 230200Z 2303/2403 20006KT 9999 SCT030 TX16/2314Z TN07/2403Z"
    },
    {
      "icao": "LEZG",
      "alert": "OK",
      "vis_m": 9999,
      "fzfg": false,
      "metar_trigger": false,
      "taf_trigger": false,
      "metar": "METAR LEZG 230700Z 29008KT CAVOK 08/03 Q1016 NOSIG",
      "taf": "TAF LEZG 230500Z 2306/2406 30011KT CAVOK TX18/2314Z TN08/2306Z"
    },
    {
      "icao": "LEZL",
      "alert": "OK",
      "vis_m": 9000,
      "fzfg": false,
      "metar_trigger": false,
      "taf_trigger": false,
      "metar": "METAR LEZL 230700Z 04004KT 9000 NSC 11/11 Q1012 NOSIG",
      "taf": "TAF LEZL 230200Z 2303/2403 VRB03KT CAVOK TX25/2315Z TN10/2307Z"
    },
    {
      "icao": "LFBD",
      "alert": "OK",
      "vis_m": 9999,
      "fzfg": false,
      "metar_trigger": false,
      "taf_trigger": false,
      "metar": "METAR LFBD 230700Z AUTO 05005KT CAVOK 07/04 Q1018 NOSIG",
      "taf": "TAF LFBD 230500Z 2306/2412 03005KT CAVOK TX18/2314Z TN05/2306Z"
    },
    {
      "icao": "LFLL",
      "alert": "OK",
      "vis_m": 3000,
      "fzfg": false,
      "metar_trigger": false,
      "taf_trigger": false,
      "metar": "METAR LFLL 230700Z 13004KT 080V170 3000 0550E R35L/0325D R17R/P2000 R35R/0500D R17L/P2000 PRFG BKN001 BKN003 03/02 Q1018 BECMG 7000 NSW",
      "taf": ""
    },
    {
      "icao": "LFLS",
      "alert": "OK",
      "vis_m": 9999,
      "fzfg": false,
      "metar_trigger": false,
      "taf_trigger": false,
      "metar": "METAR LFLS 230700Z AUTO 09008KT 4700 BR BKN002 BKN049 03/03 Q1017 BECMG CAVOK",
      "taf": "TAF LFLS 230200Z 2303/2403 09008KT 3000 BR BKN002"
    },
    {
      "icao": "LFMN",
      "alert": "OK",
      "vis_m": 9999,
      "fzfg": false,
      "metar_trigger": false,
      "taf_trigger": false,
      "metar": "METAR LFMN 230700Z 35008KT CAVOK 09/03 Q1015 NOSIG",
      "taf": ""
    },
    {
      "icao": "LFOB",
      "alert": "OK",
      "vis_m": 200,
      "fzfg": false,
      "metar_trigger": false,
      "taf_trigger": false,
      "metar": "METAR LFOB 230700Z AUTO 29005KT 0200 0150 R30/0175N R12/0225N FG VV/// 02/02 Q1019 TEMPO 0800 FG",
      "taf": ""
    },
    {
      "icao": "LFPO",
      "alert": "OK",
      "vis_m": 6000,
      "fzfg": false,
      "metar_trigger": false,
      "taf_trigger": false,
      "metar": "METAR LFPO 230700Z 33004KT 290V070 6000 NSC 07/04 Q1019 TEMPO 4000 BR",
      "taf": "TAF LFPO 230500Z 2306/2412 33006KT CAVOK"
    },
    {
      "icao": "LFSB",
      "alert": "OK",
      "vis_m": 7000,
      "fzfg": false,
      "metar_trigger": false,
      "taf_trigger": false,
      "metar": "METAR LFSB 230700Z AUTO 12004KT 7000 BKN052 05/03 Q1017 NOSIG",
      "taf": "TAF LFSB 230500Z 2306/2406 VRB03KT 9999 FEW050"
    },
    {
      "icao": "LGAV",
      "alert": "OK",
      "vis_m": 9999,
      "fzfg": false,
      "metar_trigger": false,
      "taf_trigger": false,
      "metar": "METAR LGAV 230650Z 04011KT 9999 FEW025 SCT040 13/05 Q1013 NOSIG",
      "taf": "TAF LGAV 230500Z 2306/2406 01013KT 9999 SCT020 SCT070"
    },
    {
      "icao": "LGTS",
      "alert": "OK",
      "vis_m": 9999,
      "fzfg": false,
      "metar_trigger": false,
      "taf_trigger": false,
      "metar": "METAR LGTS 230650Z VRB02KT 9999 FEW015 SCT030 10/08 Q1014 NOSIG",
      "taf": "TAF LGTS 230500Z 2306/2406 VRB03KT 9999 SCT025"
    },
    {
      "icao": "LHBP",
      "alert": "OK",
      "vis_m": 9999,
      "fzfg": false,
      "metar_trigger": false,
      "taf_trigger": false,
      "metar": "METAR LHBP 230700Z 08007KT CAVOK 10/M01 Q1017 NOSIG",
      "taf": "TAF LHBP 230515Z 2306/2406 VRB03KT CAVOK"
    },
    {
      "icao": "LHDC",
      "alert": "OK",
      "vis_m": 9999,
      "fzfg": false,
      "metar_trigger": false,
      "taf_trigger": false,
      "metar": "METAR LHDC 230645Z AUTO 21010KT CAVOK 10/03 Q1017 NOSIG",
      "taf": "TAF LHDC 230515Z 2306/2315 18007KT CAVOK"
    },
    {
      "icao": "LIBD",
      "alert": "OK",
      "vis_m": 9999,
      "fzfg": false,
      "metar_trigger": false,
      "taf_trigger": false,
      "metar": "METAR LIBD 230650Z 27004KT CAVOK 10/07 Q1013",
      "taf": "TAF LIBD 230500Z 2306/2406 22005KT 9999 FEW050"
    },
    {
      "icao": "LIBG",
      "alert": "OK",
      "vis_m": 9999,
      "fzfg": false,
      "metar_trigger": false,
      "taf_trigger": false,
      "metar": "SPECI LIBG 230656Z VRB01KT CAVOK 13/09 Q1012",
      "taf": "TAF LIBG 230702Z 2308/2315 03008KT 9999 SCT040"
    },
    {
      "icao": "LIBP",
      "alert": "OK",
      "vis_m": 9999,
      "fzfg": false,
      "metar_trigger": false,
      "taf_trigger": false,
      "metar": "METAR LIBP 230650Z AUTO 24003KT 210V270 9999 -RA FEW035/// OVC059/// 09/07 Q1014",
      "taf": "TAF LIBP 230500Z 2306/2406 24005KT 9999 SCT060"
    },
    {
      "icao": "LIBR",
      "alert": "OK",
      "vis_m": 9999,
      "fzfg": false,
      "metar_trigger": false,
      "taf_trigger": false,
      "metar": "METAR LIBR 230650Z 31006KT 9999 FEW035 12/10 Q1012",
      "taf": "TAF LIBR 230500Z 2306/2406 VRB05KT 9999 FEW050"
    },
    {
      "icao": "LICA",
      "alert": "OK",
      "vis_m": 9999,
      "fzfg": false,
      "metar_trigger": false,
      "taf_trigger": false,
      "metar": "METAR LICA 230650Z AUTO 07007KT 9999 NCD 12/08 Q1012",
      "taf": "TAF LICA 230500Z 2306/2406 VRB06KT 9999 SCT030"
    },
    {
      "icao": "LICC",
      "alert": "OK",
      "vis_m": 9999,
      "fzfg": false,
      "metar_trigger": false,
      "taf_trigger": false,
      "metar": "METAR LICC 230650Z 24005KT 9999 BKN070 11/09 Q1012",
      "taf": "TAF LICC 230500Z 2306/2406 VRB05KT 9999 SCT020"
    },
    {
      "icao": "LICJ",
      "alert": "OK",
      "vis_m": 9999,
      "fzfg": false,
      "metar_trigger": false,
      "taf_trigger": false,
      "metar": "METAR LICJ 230650Z 18003KT 140V230 CAVOK 12/08 Q1012",
      "taf": "TAF LICJ 230500Z 2306/2406 VRB05KT 9999 SCT030"
    },
    {
      "icao": "LIMC",
      "alert": "OK",
      "vis_m": 9999,
      "fzfg": false,
      "metar_trigger": false,
      "taf_trigger": false,
      "metar": "METAR LIMC 230650Z 34003KT 300V070 CAVOK 05/03 Q1015 NOSIG",
      "taf": "TAF LIMC 230500Z 2306/2412 VRB05KT CAVOK"
    },
    {
      "icao": "LIME",
      "alert": "OK",
      "vis_m": 9999,
      "fzfg": false,
      "metar_trigger": false,
      "taf_trigger": false,
      "metar": "METAR LIME 230650Z 03004KT CAVOK 07/01 Q1015 NOSIG",
      "taf": "TAF LIME 230500Z 2306/2406 VRB05KT CAVOK"
    },
    {
      "icao": "LIMF",
      "alert": "OK",
      "vis_m": 9999,
      "fzfg": false,
      "metar_trigger": false,
      "taf_trigger": false,
      "metar": "METAR LIMF 230650Z 28003KT CAVOK 05/M02 Q1016",
      "taf": "TAF LIMF 230500Z 2306/2406 VRB05KT CAVOK"
    },
    {
      "icao": "LIMJ",
      "alert": "OK",
      "vis_m": 9999,
      "fzfg": false,
      "metar_trigger": false,
      "taf_trigger": false,
      "metar": "METAR LIMJ 230650Z 06013KT CAVOK 10/02 Q1015",
      "taf": "TAF LIMJ 230500Z 2306/2406 04013KT CAVOK"
    },
    {
      "icao": "LIPE",
      "alert": "OK",
      "vis_m": 9999,
      "fzfg": false,
      "metar_trigger": false,
      "taf_trigger": false,
      "metar": "METAR LIPE 230650Z 27006KT CAVOK 08/03 Q1015",
      "taf": "TAF LIPE 230500Z 2306/2406 VRB05KT 9999 FEW050"
    },
    {
      "icao": "LIPH",
      "alert": "OK",
      "vis_m": 9999,
      "fzfg": false,
      "metar_trigger": false,
      "taf_trigger": false,
      "metar": "METAR LIPH 230650Z 17001KT CAVOK 08/04 Q1015",
      "taf": "TAF LIPH 230500Z 2306/2406 VRB05KT 9999 SCT060"
    },
    {
      "icao": "LIPQ",
      "alert": "OK",
      "vis_m": 9999,
      "fzfg": false,
      "metar_trigger": false,
      "taf_trigger": false,
      "metar": "METAR LIPQ 230650Z AUTO 01004KT 9999 NCD 09/02 Q1015",
      "taf": "TAF LIPQ 230500Z 2306/2406 03005KT 9999 FEW060"
    },
    {
      "icao": "LIPR",
      "alert": "OK",
      "vis_m": 9999,
      "fzfg": false,
      "metar_trigger": false,
      "taf_trigger": false,
      "metar": "METAR LIPR 230650Z 30010KT CAVOK 08/05 Q1015",
      "taf": "TAF LIPR 230500Z 2306/2406 VRB05KT 9999 FEW060"
    },
    {
      "icao": "LIPX",
      "alert": "OK",
      "vis_m": 9999,
      "fzfg": false,
      "metar_trigger": false,
      "taf_trigger": false,
      "metar": "METAR LIPX 230650Z 32002KT CAVOK 06/00 Q1015",
      "taf": "TAF LIPX 230500Z 2306/2406 VRB05KT CAVOK"
    },
    {
      "icao": "LIPY",
      "alert": "OK",
      "vis_m": 9999,
      "fzfg": false,
      "metar_trigger": false,
      "taf_trigger": false,
      "metar": "METAR LIPY 230650Z AUTO 22005KT 9999 -RA BKN049/// 09/07 Q1014",
      "taf": "TAF LIPY 230500Z 2306/2406 VRB05KT 9999 SCT060"
    },
    {
      "icao": "LIPZ",
      "alert": "OK",
      "vis_m": 9999,
      "fzfg": false,
      "metar_trigger": false,
      "taf_trigger": false,
      "metar": "METAR LIPZ 230650Z 03004KT CAVOK 09/01 Q1015 NOSIG",
      "taf": "TAF LIPZ 230500Z 2306/2412 03006KT 9999 SCT060"
    },
    {
      "icao": "LIRF",
      "alert": "OK",
      "vis_m": 9999,
      "fzfg": false,
      "metar_trigger": false,
      "taf_trigger": false,
      "metar": "METAR LIRF 230650Z 05005KT CAVOK 07/05 Q1013 NOSIG",
      "taf": "TAF LIRF 230500Z 2306/2412 04008KT 9999 SCT030"
    },
    {
      "icao": "LIRN",
      "alert": "OK",
      "vis_m": 9999,
      "fzfg": false,
      "metar_trigger": false,
      "taf_trigger": false,
      "metar": "METAR LIRN 230650Z 34003KT 280V030 9999 FEW040 09/05 Q1012 NOSIG",
      "taf": "TAF LIRN 230500Z 2306/2406 VRB05KT 9999 SCT030"
    },
    {
      "icao": "LIRP",
      "alert": "OK",
      "vis_m": 9999,
      "fzfg": false,
      "metar_trigger": false,
      "taf_trigger": false,
      "metar": "METAR LIRP 230645Z VRB02KT 9999 FEW070 05/04 Q1014 NOSIG",
      "taf": "TAF LIRP 230500Z 2306/2406 08005KT 9999 FEW070"
    },
    {
      "icao": "LIRZ",
      "alert": "OK",
      "vis_m": 9999,
      "fzfg": false,
      "metar_trigger": false,
      "taf_trigger": false,
      "metar": "METAR LIRZ 230650Z AUTO 04003KT 010V070 9999 SCT057/// BKN088/// 07/03 Q1014",
      "taf": "TAF LIRZ 230500Z 2306/2406 VRB06KT 9999 SCT020"
    },
    {
      "icao": "LJLJ",
      "alert": "OK",
      "vis_m": 9999,
      "fzfg": false,
      "metar_trigger": false,
      "taf_trigger": false,
      "metar": "METAR LJLJ 230700Z 28004KT 9999 -SHRA FEW035TCU BKN044 03/M00 Q1015 NOSIG",
      "taf": "TAF LJLJ 230500Z 2306/2406 VRB02KT 9999 SCT055"
    },
    {
      "icao": "LKMT",
      "alert": "OK",
      "vis_m": 9999,
      "fzfg": false,
      "metar_trigger": false,
      "taf_trigger": false,
      "metar": "METAR LKMT 230700Z VRB02KT CAVOK 03/00 Q1017 NOSIG",
      "taf": "TAF LKMT 230500Z 2306/2406 VRB02KT CAVOK"
    },
    {
      "icao": "LKPR",
      "alert": "OK",
      "vis_m": 9999,
      "fzfg": false,
      "metar_trigger": false,
      "taf_trigger": false,
      "metar": "METAR LKPR 230700Z 34003KT 310V010 CAVOK 04/00 Q1016 NOSIG",
      "taf": "TAF LKPR 230500Z 2306/2412 04004KT CAVOK"
    },
    {
      "icao": "LLBG",
      "alert": "OK",
      "vis_m": 9999,
      "fzfg": false,
      "metar_trigger": false,
      "taf_trigger": false,
      "metar": "METAR LLBG 230720Z 19005KT 150V240 CAVOK 19/07 Q1011 NOSIG RMK SCT070",
      "taf": "TAF LLBG 230501Z 2306/2406 VRB04KT 9999 FEW040 TX21/2312Z TN08/2404Z"
    },
    {
      "icao": "LMML",
      "alert": "OK",
      "vis_m": 9999,
      "fzfg": false,
      "metar_trigger": false,
      "taf_trigger": false,
      "metar": "METAR LMML 230715Z 29003KT 260V320 9999 FEW020 BKN034 15/11 Q1012 NOSIG",
      "taf": "TAF LMML 230500Z 2306/2406 VRB05KT 9999 SCT018"
    },
    {
      "icao": "LOWW",
      "alert": "OK",
      "vis_m": 9999,
      "fzfg": false,
      "metar_trigger": false,
      "taf_trigger": false,
      "metar": "METAR LOWW 230650Z 28003KT 240V320 CAVOK 05/M01 Q1017 NOSIG",
      "taf": "TAF LOWW 230515Z 2306/2412 VRB04KT 9999 FEW050 TX16/2412Z TN03/2306Z"
    },
    {
      "icao": "LPFR",
      "alert": "OK",
      "vis_m": 9999,
      "fzfg": false,
      "metar_trigger": false,
      "taf_trigger": false,
      "metar": "METAR LPFR 230700Z 06003KT 020V090 CAVOK 12/11 Q1012",
      "taf": "TAF LPFR 230500Z 2306/2406 01005KT 9999 FEW030"
    },
    {
      "icao": "LPMA",
      "alert": "OK",
      "vis_m": 9999,
      "fzfg": false,
      "metar_trigger": false,
      "taf_trigger": false,
      "metar": "METAR LPMA 230700Z 02018KT 9999 BKN013 FEW018CB 16/14 Q1009",
      "taf": "TAF LPMA 230500Z 2306/2406 02015KT 9999 SCT015"
    },
    {
      "icao": "LPPR",
      "alert": "OK",
      "vis_m": 9000,
      "fzfg": false,
      "metar_trigger": false,
      "taf_trigger": false,
      "metar": "METAR LPPR 230700Z VRB02KT 9000 4200N BCFG NSC 09/07 Q1013",
      "taf": "TAF LPPR 230500Z 2306/2406 VRB02KT CAVOK"
    },
    {
      "icao": "LPPS",
      "alert": "OK",
      "vis_m": 9999,
      "fzfg": false,
      "metar_trigger": false,
      "taf_trigger": false,
      "metar": "METAR LPPS 230700Z 06015G26KT 9999 SCT012 FEW018CB 16/14 Q1009",
      "taf": "TAF LPPS 230500Z 2306/2412 06018KT 9999 SCT013"
    },
    {
      "icao": "LPPT",
      "alert": "OK",
      "vis_m": 9999,
      "fzfg": false,
      "metar_trigger": false,
      "taf_trigger": false,
      "metar": "METAR LPPT 230700Z VRB02KT CAVOK 12/09 Q1012",
      "taf": "TAF LPPT 230500Z 2306/2412 33007KT 9999 FEW018"
    },
    {
      "icao": "LQBK",
      "alert": "OK",
      "vis_m": 9999,
      "fzfg": false,
      "metar_trigger": false,
      "taf_trigger": false,
      "metar": "METAR LQBK 230700Z VRB02KT CAVOK 06/02 Q1015 NOSIG",
      "taf": "TAF LQBK 230500Z 2306/2406 34005KT CAVOK TX15/2313Z TN01/2306Z"
    },
    {
      "icao": "LQSA",
      "alert": "OK",
      "vis_m": 9999,
      "fzfg": false,
      "metar_trigger": false,
      "taf_trigger": false,
      "metar": "METAR LQSA 230700Z VRB01KT CAVOK 06/00 Q1014 NOSIG",
      "taf": "TAF LQSA 230500Z 2306/2406 VRB02KT 9999 SCT055 TX11/2314Z TN04/2405Z"
    },
    {
      "icao": "LQTZ",
      "alert": "OK",
      "vis_m": 9999,
      "fzfg": false,
      "metar_trigger": false,
      "taf_trigger": false,
      "metar": "METAR LQTZ 230700Z VRB02KT CAVOK 04/03 Q1014",
      "taf": "TAF LQTZ 230500Z 2306/2406 02005KT 9999 SCT060 TX14/2313Z TN01/2306Z"
    },
    {
      "icao": "LRBC",
      "alert": "OK",
      "vis_m": 9999,
      "fzfg": false,
      "metar_trigger": false,
      "taf_trigger": false,
      "metar": "METAR LRBC 230700Z 34011KT CAVOK 08/01 Q1018",
      "taf": "TAF LRBC 230500Z 2306/2315 36006KT CAVOK"
    },
    {
      "icao": "LRBS",
      "alert": "OK",
      "vis_m": 9999,
      "fzfg": false,
      "metar_trigger": false,
      "taf_trigger": false,
      "metar": "METAR LRBS 230700Z 05005KT 020V080 9999 -RA BKN034 OVC039 08/03 Q1016 NOSIG",
      "taf": "TAF LRBS 230500Z 2306/2406 VRB04KT 9999 BKN045"
    },
    {
      "icao": "LRBV",
      "alert": "OK",
      "vis_m": 9999,
      "fzfg": false,
      "metar_trigger": false,
      "taf_trigger": false,
      "metar": "METAR LRBV 230700Z 21004KT 180V240 9999 SCT072 05/01 Q1016",
      "taf": "TAF LRBV 230500Z 2306/2315 VRB04KT 9999 BKN060"
    },
    {
      "icao": "LRCL",
      "alert": "OK",
      "vis_m": 9999,
      "fzfg": false,
      "metar_trigger": false,
      "taf_trigger": false,
      "metar": "METAR LRCL 230700Z 00000KT CAVOK 04/M02 Q1017",
      "taf": "TAF LRCL 230500Z 2306/2315 VRB04KT CAVOK"
    },
    {
      "icao": "LRCV",
      "alert": "OK",
      "vis_m": 9999,
      "fzfg": false,
      "metar_trigger": false,
      "taf_trigger": false,
      "metar": "METAR LRCV 230700Z 34006KT 9999 BKN038 BKN045 07/06 Q1017",
      "taf": "TAF LRCV 230500Z 2306/2315 34006KT 9999 BKN040"
    },
    {
      "icao": "LRIA",
      "alert": "OK",
      "vis_m": 9999,
      "fzfg": false,
      "metar_trigger": false,
      "taf_trigger": false,
      "metar": "METAR LRIA 230700Z 36004KT 300V060 CAVOK 08/01 Q1018",
      "taf": "TAF LRIA 230500Z 2306/2315 29004KT CAVOK"
    },
    {
      "icao": "LROP",
      "alert": "OK",
      "vis_m": 9999,
      "fzfg": false,
      "metar_trigger": false,
      "taf_trigger": false,
      "metar": "METAR LROP 230700Z 07005KT 9999 -RA OVC040 08/02 Q1017 NOSIG",
      "taf": "TAF LROP 230500Z 2306/2406 VRB04KT 9999 BKN045"
    },
    {
      "icao": "LRSB",
      "alert": "OK",
      "vis_m": 9999,
      "fzfg": false,
      "metar_trigger": false,
      "taf_trigger": false,
      "metar": "METAR LRSB 230700Z VRB02KT 9999 FEW060 06/01 Q1016",
      "taf": "TAF LRSB 230500Z 2306/2406 VRB04KT CAVOK"
    },
    {
      "icao": "LRSM",
      "alert": "OK",
      "vis_m": 9999,
      "fzfg": false,
      "metar_trigger": false,
      "taf_trigger": false,
      "metar": "METAR LRSM 230700Z VRB02KT CAVOK 10/M01 Q1017",
      "taf": "TAF LRSM 230500Z 2306/2315 10005KT CAVOK"
    },
    {
      "icao": "LRSV",
      "alert": "OK",
      "vis_m": 9999,
      "fzfg": false,
      "metar_trigger": false,
      "taf_trigger": false,
      "metar": "METAR LRSV 230700Z 02003KT CAVOK 06/M01 Q1018",
      "taf": "TAF LRSV 230500Z 2306/2315 33006KT CAVOK"
    },
    {
      "icao": "LRTM",
      "alert": "OK",
      "vis_m": 9999,
      "fzfg": false,
      "metar_trigger": false,
      "taf_trigger": false,
      "metar": "METAR LRTM 230700Z VRB01KT CAVOK 05/M01 Q1017",
      "taf": "TAF LRTM 230500Z 2306/2315 VRB04KT CAVOK"
    },
    {
      "icao": "LRTR",
      "alert": "OK",
      "vis_m": 9999,
      "fzfg": false,
      "metar_trigger": false,
      "taf_trigger": false,
      "metar": "METAR LRTR 230700Z 10010KT CAVOK 08/03 Q1016 NOSIG",
      "taf": "TAF LRTR 230500Z 2306/2406 09006KT CAVOK"
    },
    {
      "icao": "LTAC",
      "alert": "OK",
      "vis_m": 8000,
      "fzfg": false,
      "metar_trigger": false,
      "taf_trigger": false,
      "metar": "METAR LTAC 230650Z 24004KT 8000 FEW015 SCT025 BKN100 08/05 Q1009 NOSIG RMK RWY21C 25004KT RWY03L 29003KT 230V320 RWY21R 25004KT 210V270 RWY03R 21004KT 170V250 RWY21L 23004KT",
      "taf": "TAF LTAC 230440Z 2306/2406 VRB02KT 4000 BR SCT040 BKN100"
    },
    {
      "icao": "LTFM",
      "alert": "OK",
      "vis_m": 2200,
      "fzfg": false,
      "metar_trigger": false,
      "taf_trigger": false,
      "metar": "METAR LTFM 230650Z 33012KT 2200 1200S R35R/P1500N R17L/P1500N R34L/P1500N R36/P1500N -RA BR BKN002 BKN018 07/06 Q1013 REDZ NOSIG RMK RWY17L 32012KT RWY34L 32011KT RWY16R 32011KT RWY36 32013KT RWY18 33014KT",
      "taf": "TAF LTFM 230440Z 2306/2412 33013KT 2000 -RA BR BKN002 BKN018"
    },
    {
      "icao": "LUKK",
      "alert": "OK",
      "vis_m": 9999,
      "fzfg": false,
      "metar_trigger": false,
      "taf_trigger": false,
      "metar": "METAR LUKK 230700Z 06007KT 030V090 CAVOK 08/01 Q1018 NOSIG",
      "taf": "TAF LUKK 230508Z 2306/2406 03008KT CAVOK"
    },
    {
      "icao": "LWOH",
      "alert": "OK",
      "vis_m": 9999,
      "fzfg": false,
      "metar_trigger": false,
      "taf_trigger": false,
      "metar": "METAR LWOH 230720Z VRB01KT 9999 FEW040 SCT090 08/03 Q1013",
      "taf": "TAF LWOH 230530Z 2306/2406 34006KT 9999 BKN040"
    },
    {
      "icao": "LWSK",
      "alert": "OK",
      "vis_m": null,
      "fzfg": false,
      "metar_trigger": false,
      "taf_trigger": false,
      "metar": "",
      "taf": "TAF LWSK 230530Z 2306/2406 VRB02KT 9999 SCT030 OVC050"
    },
    {
      "icao": "LYBE",
      "alert": "OK",
      "vis_m": 9999,
      "fzfg": false,
      "metar_trigger": false,
      "taf_trigger": false,
      "metar": "METAR LYBE 230700Z 10010KT CAVOK 09/03 Q1015 NOSIG",
      "taf": "TAF LYBE 230500Z 2306/2406 10010KT CAVOK TX15/2313Z TN06/2405Z"
    },
    {
      "icao": "LYNI",
      "alert": "OK",
      "vis_m": 9999,
      "fzfg": false,
      "metar_trigger": false,
      "taf_trigger": false,
      "metar": "METAR LYNI 230700Z VRB02KT CAVOK 10/03 Q1015 NOSIG",
      "taf": "TAF LYNI 230500Z 2306/2406 05004KT 9999 SCT040 TX14/2313Z TN04/2405Z"
    },
    {
      "icao": "LYPG",
      "alert": "OK",
      "vis_m": 9999,
      "fzfg": false,
      "metar_trigger": false,
      "taf_trigger": false,
      "metar": "METAR LYPG 230700Z 33007KT 9999 FEW050 SCT070 BKN090 13/02 Q1013 NOSIG",
      "taf": "TAF LYPG 230500Z 2306/2406 18006KT 9999 FEW040 BKN080 TX16/2313Z TN08/2400Z"
    },
    {
      "icao": "LZIB",
      "alert": "OK",
      "vis_m": 9999,
      "fzfg": false,
      "metar_trigger": false,
      "taf_trigger": false,
      "metar": "METAR LZIB 230700Z 34003KT CAVOK 07/02 Q1017 NOSIG",
      "taf": "TAF LZIB 230515Z 2306/2406 05005KT CAVOK"
    },
    {
      "icao": "LZKZ",
      "alert": "OK",
      "vis_m": 9999,
      "fzfg": false,
      "metar_trigger": false,
      "taf_trigger": false,
      "metar": "METAR LZKZ 230700Z 02009KT CAVOK 08/M01 Q1017 NOSIG",
      "taf": "TAF LZKZ 230515Z 2306/2406 01008KT CAVOK"
    },
    {
      "icao": "LZTT",
      "alert": "OK",
      "vis_m": 9999,
      "fzfg": false,
      "metar_trigger": false,
      "taf_trigger": false,
      "metar": "METAR LZTT 230700Z VRB01KT 9999 FEW056 04/M00 Q1016 NOSIG",
      "taf": "TAF LZTT 230515Z 2306/2406 26005KT 9999 FEW070"
    },
    {
      "icao": "OEJN",
      "alert": "OK",
      "vis_m": 6000,
      "fzfg": false,
      "metar_trigger": false,
      "taf_trigger": false,
      "metar": "METAR OEJN 230700Z 15008KT 6000 NSC 30/14 Q1009 NOSIG",
      "taf": "TAF OEJN 230500Z 2306/2412 22013KT 7000 FEW040"
    },
    {
      "icao": "OEMA",
      "alert": "OK",
      "vis_m": 9999,
      "fzfg": false,
      "metar_trigger": false,
      "taf_trigger": false,
      "metar": "METAR OEMA 230700Z VRB03KT 9999 FEW045 25/M07 Q1014 NOSIG",
      "taf": "TAF OEMA 230500Z 2306/2412 20012KT 8000 FEW040"
    },
    {
      "icao": "OJAI",
      "alert": "OK",
      "vis_m": 4000,
      "fzfg": false,
      "metar_trigger": false,
      "taf_trigger": false,
      "metar": "METAR OJAI 230700Z 12005KT 4000 HZ FEW030 FEW030 11/07 Q1013 NOSIG",
      "taf": "TAF OJAI 230500Z 2306/2412 24012KT 4000 BR FEW025TCU SCT030"
    },
    {
      "icao": "OMAA",
      "alert": "OK",
      "vis_m": null,
      "fzfg": false,
      "metar_trigger": false,
      "taf_trigger": false,
      "metar": "",
      "taf": ""
    },
    {
      "icao": "OMDB",
      "alert": "OK",
      "vis_m": null,
      "fzfg": false,
      "metar_trigger": false,
      "taf_trigger": false,
      "metar": "",
      "taf": ""
    },
    {
      "icao": "UAAA",
      "alert": "OK",
      "vis_m": 9999,
      "fzfg": false,
      "metar_trigger": false,
      "taf_trigger": false,
      "metar": "METAR UAAA 230700Z 26004MPS 210V290 9999 SCT050CB BKN100 17/02 Q1017 NOSIG",
      "taf": "TAF UAAA 230505Z 2306/2406 28003G08MPS 9999 SCT050CB BKN100 TX18/2309Z TN06/2401Z"
    },
    {
      "icao": "UBBB",
      "alert": "OK",
      "vis_m": 9999,
      "fzfg": false,
      "metar_trigger": false,
      "taf_trigger": false,
      "metar": "METAR UBBB 230700Z 35010KT CAVOK 13/07 Q1012 NOSIG",
      "taf": "TAF UBBB 230501Z 2306/2406 34010KT 9999 SCT040 TX15/2310Z TN07/2400Z"
    },
    {
      "icao": "UDSG",
      "alert": "OK",
      "vis_m": 9999,
      "fzfg": false,
      "metar_trigger": false,
      "taf_trigger": false,
      "metar": "METAR UDSG 230700Z 28001KT 9999 SCT049TCU 08/02 Q1013 NOSIG",
      "taf": "TAF UDSG 230458Z 2306/2406 24006KT 9999 SCT040"
    },
    {
      "icao": "UDYZ",
      "alert": "OK",
      "vis_m": 9999,
      "fzfg": false,
      "metar_trigger": false,
      "taf_trigger": false,
      "metar": "METAR UDYZ 230700Z 16005KT 120V190 9999 FEW043CB 13/07 Q1012 NOSIG",
      "taf": "TAF UDYZ 230500Z 2306/2406 22006KT 9999 SCT040"
    },
    {
      "icao": "UGKO",
      "alert": "OK",
      "vis_m": 9999,
      "fzfg": false,
      "metar_trigger": false,
      "taf_trigger": false,
      "metar": "METAR UGKO 230700Z VRB02KT 9999 BKN007 OVC013 10/08 Q1011 NOSIG",
      "taf": "TAF UGKO 230500Z 2306/2406 26007KT 9999 SCT010 BKN040 TX16/2311Z TN06/2403Z"
    }
  ]
}