{
  "ts_utc": "2026-03-27T23:49:23Z",
  "threshold_m": 150,
  "source": "stations_override.txt (ICAO list) + aviationweather.gov (METAR/TAF raw)",
  "station_count": 159,
  "stations": [
    {
      "icao": "BIKF",
      "alert": "OK",
      "vis_m": 9999,
      "fzfg": false,
      "metar_trigger": false,
      "taf_trigger": false,
      "metar": "METAR BIKF 272330Z 34013KT 9999 BKN033 M02/M08 Q1007",
      "taf": "TAF BIKF 272257Z 2800/2900 36015KT 9999 -SHRASN FEW035 TX01/2818Z TNM08/2808Z"
    },
    {
      "icao": "BKPR",
      "alert": "OK",
      "vis_m": 9999,
      "fzfg": false,
      "metar_trigger": false,
      "taf_trigger": false,
      "metar": "METAR BKPR 272330Z 34007KT 9999 SCT020 BKN060 05/03 Q1003 NOSIG",
      "taf": "TAF BKPR 272330Z 2800/2824 34008KT 9999 SCT020 BKN040"
    },
    {
      "icao": "EBCI",
      "alert": "OK",
      "vis_m": 9999,
      "fzfg": false,
      "metar_trigger": false,
      "taf_trigger": false,
      "metar": "METAR EBCI 272320Z 20013KT 9999 -RA BKN023 05/01 Q1019 BECMG SCT006 BKN011",
      "taf": "TAF EBCI 272302Z 2800/2906 20011KT 9999 BKN018"
    },
    {
      "icao": "EDDB",
      "alert": "OK",
      "vis_m": 9999,
      "fzfg": false,
      "metar_trigger": false,
      "taf_trigger": false,
      "metar": "METAR EDDB 272320Z AUTO 23005KT CAVOK 01/M04 Q1021 NOSIG",
      "taf": "TAF EDDB 272300Z 2800/2824 19004KT CAVOK"
    },
    {
      "icao": "EDDH",
      "alert": "OK",
      "vis_m": 9999,
      "fzfg": false,
      "metar_trigger": false,
      "taf_trigger": false,
      "metar": "METAR EDDH 272320Z AUTO 18008KT 9999 BKN044 06/M01 Q1017 NOSIG",
      "taf": "TAF EDDH 272300Z 2800/2906 20009KT 9999 BKN040"
    },
    {
      "icao": "EDDK",
      "alert": "OK",
      "vis_m": 9999,
      "fzfg": false,
      "metar_trigger": false,
      "taf_trigger": false,
      "metar": "METAR EDDK 272320Z AUTO 17006KT 120V200 9999 OVC041 06/M01 Q1020 NOSIG",
      "taf": "TAF EDDK 272300Z 2800/2906 16006KT 9999 SCT040"
    },
    {
      "icao": "EDDN",
      "alert": "OK",
      "vis_m": 9999,
      "fzfg": false,
      "metar_trigger": false,
      "taf_trigger": false,
      "metar": "METAR EDDN 272320Z AUTO 11006KT CAVOK M02/M06 Q1022",
      "taf": "TAF EDDN 272300Z 2800/2824 11005KT CAVOK"
    },
    {
      "icao": "EDDS",
      "alert": "OK",
      "vis_m": 9999,
      "fzfg": false,
      "metar_trigger": false,
      "taf_trigger": false,
      "metar": "METAR EDDS 272320Z AUTO VRB01KT CAVOK M02/M06 Q1022",
      "taf": "TAF EDDS 272300Z 2800/2824 VRB02KT CAVOK"
    },
    {
      "icao": "EDFH",
      "alert": "OK",
      "vis_m": 9999,
      "fzfg": false,
      "metar_trigger": false,
      "taf_trigger": false,
      "metar": "METAR EDFH 272320Z 21005KT 170V230 CAVOK 01/M04 Q1020",
      "taf": "TAF EDFH 272300Z 2800/2824 22008KT 9999 BKN040"
    },
    {
      "icao": "EDJA",
      "alert": "OK",
      "vis_m": 9999,
      "fzfg": false,
      "metar_trigger": false,
      "taf_trigger": false,
      "metar": "METAR EDJA 272320Z AUTO VRB02KT 9999 // FEW140/// M03/M05 Q1021",
      "taf": "TAF EDJA 271700Z 2718/2803 03006KT 9999 BKN060"
    },
    {
      "icao": "EDLW",
      "alert": "OK",
      "vis_m": 9999,
      "fzfg": false,
      "metar_trigger": false,
      "taf_trigger": false,
      "metar": "METAR EDLW 272320Z AUTO 19008KT 9999 // FEW036/// BKN070/// OVC093/// 06/M01 Q1019",
      "taf": "TAF EDLW 271700Z 2718/2818 19008KT 9999 SCT040"
    },
    {
      "icao": "EDNY",
      "alert": "OK",
      "vis_m": 9999,
      "fzfg": false,
      "metar_trigger": false,
      "taf_trigger": false,
      "metar": "METAR EDNY 272320Z AUTO 02002KT 9999 // NCD M03/M05 Q1022",
      "taf": "TAF EDNY 271700Z 2718/2803 02006KT 9999 SCT045"
    },
    {
      "icao": "EDSB",
      "alert": "OK",
      "vis_m": 9999,
      "fzfg": false,
      "metar_trigger": false,
      "taf_trigger": false,
      "metar": "METAR EDSB 272320Z AUTO 19002KT 9999 // NCD M02/M05 Q1023",
      "taf": "TAF EDSB 272300Z 2800/2824 VRB02KT CAVOK"
    },
    {
      "icao": "EETN",
      "alert": "OK",
      "vis_m": 9999,
      "fzfg": false,
      "metar_trigger": false,
      "taf_trigger": false,
      "metar": "METAR EETN 272320Z VRB01KT CAVOK 00/M01 Q1017",
      "taf": "TAF EETN 272330Z 2800/2824 20005KT CAVOK"
    },
    {
      "icao": "EFTU",
      "alert": "OK",
      "vis_m": 9999,
      "fzfg": false,
      "metar_trigger": false,
      "taf_trigger": false,
      "metar": "METAR EFTU 272320Z AUTO 18006KT CAVOK 00/M01 Q1014",
      "taf": "TAF EFTU 272332Z 2800/2824 18007KT CAVOK"
    },
    {
      "icao": "EGBB",
      "alert": "OK",
      "vis_m": 9999,
      "fzfg": false,
      "metar_trigger": false,
      "taf_trigger": false,
      "metar": "METAR EGBB 272320Z 30009KT CAVOK 06/02 Q1020",
      "taf": "TAF EGBB 272254Z 2800/2824 28009KT 9999 FEW025"
    },
    {
      "icao": "EGGP",
      "alert": "OK",
      "vis_m": 9999,
      "fzfg": false,
      "metar_trigger": false,
      "taf_trigger": false,
      "metar": "METAR EGGP 272320Z 29016KT 9999 FEW034 SCT043 06/00 Q1020",
      "taf": "TAF EGGP 272255Z 2800/2824 29012KT 9999 FEW030"
    },
    {
      "icao": "EGGW",
      "alert": "OK",
      "vis_m": 9999,
      "fzfg": false,
      "metar_trigger": false,
      "taf_trigger": false,
      "metar": "METAR EGGW 272320Z AUTO 31011KT 9999 FEW040 SCT047 06/03 Q1019",
      "taf": "TAF EGGW 272300Z 2800/2824 30009KT 9999 FEW040"
    },
    {
      "icao": "EGKK",
      "alert": "OK",
      "vis_m": 9999,
      "fzfg": false,
      "metar_trigger": false,
      "taf_trigger": false,
      "metar": "METAR EGKK 272320Z 31008KT 9999 BKN046 08/03 Q1020",
      "taf": ""
    },
    {
      "icao": "EGNM",
      "alert": "OK",
      "vis_m": 9999,
      "fzfg": false,
      "metar_trigger": false,
      "taf_trigger": false,
      "metar": "METAR EGNM 272320Z 27015KT CAVOK 03/M00 Q1017",
      "taf": "TAF EGNM 272255Z 2800/2824 28012KT 9999 SCT025"
    },
    {
      "icao": "EGPD",
      "alert": "OK",
      "vis_m": 9999,
      "fzfg": false,
      "metar_trigger": false,
      "taf_trigger": false,
      "metar": "METAR EGPD 272320Z COR AUTO 22010KT 9999 NCD 03/M03 Q1008 NOSIG",
      "taf": "TAF EGPD 272253Z 2800/2824 24012KT 9999 FEW025"
    },
    {
      "icao": "EGPF",
      "alert": "OK",
      "vis_m": 9999,
      "fzfg": false,
      "metar_trigger": false,
      "taf_trigger": false,
      "metar": "METAR EGPF 272320Z AUTO 22010KT 9999 NCD 02/00 Q1014",
      "taf": "TAF EGPF 272254Z 2800/2824 26013KT 9999 FEW035"
    },
    {
      "icao": "EHBK",
      "alert": "OK",
      "vis_m": 9999,
      "fzfg": false,
      "metar_trigger": false,
      "taf_trigger": false,
      "metar": "METAR EHBK 272325Z AUTO 20012KT 9999 OVC024 06/01 Q1019",
      "taf": "TAF EHBK 272303Z 2800/2906 19011KT 9999 -RADZ OVC025"
    },
    {
      "icao": "EHEH",
      "alert": "OK",
      "vis_m": 9999,
      "fzfg": false,
      "metar_trigger": false,
      "taf_trigger": false,
      "metar": "METAR EHEH 272325Z AUTO 20014KT 180V240 9999 -DZ OVC039 07/03 Q1018 BLU",
      "taf": "TAF EHEH 271759Z 2718/2824 20011KT 9999 OVC040"
    },
    {
      "icao": "EKBI",
      "alert": "OK",
      "vis_m": 4500,
      "fzfg": false,
      "metar_trigger": false,
      "taf_trigger": false,
      "metar": "METAR EKBI 272320Z AUTO 19014KT 160V220 4500 -RA BR OVC006/// 05/04 Q1012",
      "taf": "TAF EKBI 272327Z 2800/2824 20012KT 9999 BKN014"
    },
    {
      "icao": "EKCH",
      "alert": "OK",
      "vis_m": 9999,
      "fzfg": false,
      "metar_trigger": false,
      "taf_trigger": false,
      "metar": "METAR EKCH 272320Z AUTO 18012KT 9999 FEW180/// 04/01 Q1016 NOSIG",
      "taf": "TAF EKCH 272327Z 2800/2824 20012KT 9999 BKN030"
    },
    {
      "icao": "ENAL",
      "alert": "OK",
      "vis_m": 9999,
      "fzfg": false,
      "metar_trigger": false,
      "taf_trigger": false,
      "metar": "METAR ENAL 272320Z AUTO 16009KT 9999 SCT038/// 04/01 Q0999",
      "taf": "TAF ENAL 272300Z 2800/2809 19015KT 9999 -SHRA FEW040"
    },
    {
      "icao": "ENBR",
      "alert": "OK",
      "vis_m": 9999,
      "fzfg": false,
      "metar_trigger": false,
      "taf_trigger": false,
      "metar": "METAR ENBR 272320Z 19006KT 9999 -SHRA FEW004 SCT010CB BKN030 03/01 Q1004 RMK WIND 1200FT 21014KT",
      "taf": "TAF ENBR 272300Z 2800/2824 17012KT 9999 FEW004 BKN025"
    },
    {
      "icao": "ENGM",
      "alert": "OK",
      "vis_m": 9999,
      "fzfg": false,
      "metar_trigger": false,
      "taf_trigger": false,
      "metar": "METAR ENGM 272320Z 18012KT 9999 -RA BKN005 01/00 Q1006",
      "taf": "TAF ENGM 272300Z 2800/2824 18008KT 9999 BKN005"
    },
    {
      "icao": "ENHD",
      "alert": "OK",
      "vis_m": 9999,
      "fzfg": false,
      "metar_trigger": false,
      "taf_trigger": false,
      "metar": "METAR ENHD 272320Z AUTO 18009KT 9999 FEW040/// 05/02 Q1006",
      "taf": ""
    },
    {
      "icao": "ENTC",
      "alert": "OK",
      "vis_m": 9999,
      "fzfg": false,
      "metar_trigger": false,
      "taf_trigger": false,
      "metar": "METAR ENTC 272320Z 07003KT CAVOK M06/M09 Q1003 RMK WIND 2600FT 17024KT",
      "taf": "TAF ENTC 272300Z 2800/2824 VRB03KT CAVOK"
    },
    {
      "icao": "ENTO",
      "alert": "OK",
      "vis_m": 6000,
      "fzfg": false,
      "metar_trigger": false,
      "taf_trigger": false,
      "metar": "METAR ENTO 272320Z 20011KT 6000 RA OVC003 04/04 Q1006",
      "taf": "TAF ENTO 272300Z 2800/2824 20015KT 9000 BKN003"
    },
    {
      "icao": "ENVA",
      "alert": "OK",
      "vis_m": 9999,
      "fzfg": false,
      "metar_trigger": false,
      "taf_trigger": false,
      "metar": "METAR ENVA 272320Z 06004KT 020V090 CAVOK 05/M02 Q1000 RMK WIND 670FT 15010KT",
      "taf": "TAF ENVA 272300Z 2800/2824 10008KT CAVOK"
    },
    {
      "icao": "ENZV",
      "alert": "OK",
      "vis_m": 9999,
      "fzfg": false,
      "metar_trigger": false,
      "taf_trigger": false,
      "metar": "METAR ENZV 272320Z 17005KT 9999 SCT007 05/04 Q1007",
      "taf": "TAF ENZV 272300Z 2800/2824 17005KT 9999 SCT007"
    },
    {
      "icao": "EPGD",
      "alert": "OK",
      "vis_m": 3000,
      "fzfg": false,
      "metar_trigger": false,
      "taf_trigger": false,
      "metar": "METAR EPGD 272330Z 12001KT 3000 0100W PRFG BR FEW000 M02/M03 Q1020",
      "taf": "TAF EPGD 272330Z 2800/2824 VRB04KT 2000 BR OVC003"
    },
    {
      "icao": "EPKK",
      "alert": "OK",
      "vis_m": 7000,
      "fzfg": false,
      "metar_trigger": false,
      "taf_trigger": false,
      "metar": "METAR EPKK 272330Z 22006KT 7000 FEW008 BKN034 01/00 Q1015",
      "taf": "TAF EPKK 272330Z 2800/2824 24007KT 9999 -RA BKN030"
    },
    {
      "icao": "EPKT",
      "alert": "OK",
      "vis_m": 9999,
      "fzfg": false,
      "metar_trigger": false,
      "taf_trigger": false,
      "metar": "METAR EPKT 272330Z 35010KT 9999 -RA FEW016 BKN024 04/M01 Q1016",
      "taf": "TAF EPKT 272330Z 2800/2824 36008KT 9999 BKN030"
    },
    {
      "icao": "EPLB",
      "alert": "OK",
      "vis_m": 9999,
      "fzfg": false,
      "metar_trigger": false,
      "taf_trigger": false,
      "metar": "METAR EPLB 272330Z 04008KT CAVOK 07/03 Q1014",
      "taf": "TAF EPLB 272330Z 2800/2824 01008KT CAVOK"
    },
    {
      "icao": "EPMO",
      "alert": "OK",
      "vis_m": 9999,
      "fzfg": false,
      "metar_trigger": false,
      "taf_trigger": false,
      "metar": "METAR EPMO 272330Z 36010KT CAVOK 05/M00 Q1018",
      "taf": "TAF EPMO 272330Z 2800/2824 36007KT CAVOK"
    },
    {
      "icao": "EPPO",
      "alert": "OK",
      "vis_m": 9999,
      "fzfg": false,
      "metar_trigger": false,
      "taf_trigger": false,
      "metar": "METAR EPPO 272330Z 32002KT CAVOK M01/M03 Q1021",
      "taf": "TAF EPPO 272330Z 2800/2824 33003KT CAVOK"
    },
    {
      "icao": "EPRA",
      "alert": "OK",
      "vis_m": 9999,
      "fzfg": false,
      "metar_trigger": false,
      "taf_trigger": false,
      "metar": "METAR EPRA 272330Z 35009KT CAVOK 06/M01 Q1015",
      "taf": "TAF EPRA 272330Z 2800/2809 35008KT CAVOK"
    },
    {
      "icao": "EPRZ",
      "alert": "OK",
      "vis_m": 9999,
      "fzfg": false,
      "metar_trigger": false,
      "taf_trigger": false,
      "metar": "METAR EPRZ 272330Z 28007KT 9999 BKN046 05/04 Q1012",
      "taf": "TAF EPRZ 272330Z 2800/2824 32008KT 9999 BKN025"
    },
    {
      "icao": "EPSC",
      "alert": "OK",
      "vis_m": 9999,
      "fzfg": false,
      "metar_trigger": false,
      "taf_trigger": false,
      "metar": "METAR EPSC 272330Z 11005KT CAVOK M02/M02 Q1020",
      "taf": "TAF EPSC 272330Z 2800/2824 VRB03KT CAVOK"
    },
    {
      "icao": "EPSY",
      "alert": "OK",
      "vis_m": 9999,
      "fzfg": false,
      "metar_trigger": false,
      "taf_trigger": false,
      "metar": "METAR EPSY 272330Z 02005KT CAVOK 02/M02 Q1019",
      "taf": "TAF EPSY 272330Z 2800/2809 36008KT CAVOK"
    },
    {
      "icao": "EPWA",
      "alert": "OK",
      "vis_m": 9999,
      "fzfg": false,
      "metar_trigger": false,
      "taf_trigger": false,
      "metar": "METAR EPWA 272330Z 01011KT 350V050 CAVOK 07/M01 Q1017 NOSIG",
      "taf": "TAF EPWA 272330Z 2800/2824 01008KT CAVOK"
    },
    {
      "icao": "EPWR",
      "alert": "OK",
      "vis_m": 9999,
      "fzfg": false,
      "metar_trigger": false,
      "taf_trigger": false,
      "metar": "METAR EPWR 272330Z 30006KT CAVOK 03/M03 Q1020",
      "taf": "TAF EPWR 272330Z 2800/2824 31007KT CAVOK"
    },
    {
      "icao": "ESGG",
      "alert": "OK",
      "vis_m": 7000,
      "fzfg": false,
      "metar_trigger": false,
      "taf_trigger": false,
      "metar": "METAR ESGG 272320Z 20017KT 7000 -RA FEW013 OVC018 03/02 Q1011",
      "taf": "TAF ESGG 272330Z 2800/2824 19010KT 9999 -RA BKN013"
    },
    {
      "icao": "ESKN",
      "alert": "OK",
      "vis_m": 9999,
      "fzfg": false,
      "metar_trigger": false,
      "taf_trigger": false,
      "metar": "METAR ESKN 272320Z 15003KT CAVOK 01/M01 Q1013",
      "taf": "TAF ESKN 272330Z 2800/2824 17003KT CAVOK"
    },
    {
      "icao": "ESMS",
      "alert": "OK",
      "vis_m": 9999,
      "fzfg": false,
      "metar_trigger": false,
      "taf_trigger": false,
      "metar": "METAR ESMS 272320Z 19008KT 9999 FEW044 01/M01 Q1016",
      "taf": "TAF ESMS 272327Z 2800/2824 20008KT 9999 BKN035"
    },
    {
      "icao": "ESSA",
      "alert": "OK",
      "vis_m": 9999,
      "fzfg": false,
      "metar_trigger": false,
      "taf_trigger": false,
      "metar": "METAR ESSA 272320Z 22005KT CAVOK 02/M02 Q1012 NOSIG",
      "taf": "TAF ESSA 272330Z 2800/2824 18006KT CAVOK"
    },
    {
      "icao": "EYKA",
      "alert": "OK",
      "vis_m": 9999,
      "fzfg": false,
      "metar_trigger": false,
      "taf_trigger": false,
      "metar": "METAR EYKA 272320Z 33003KT CAVOK 01/M01 Q1018",
      "taf": "TAF EYKA 272300Z 2800/2824 VRB03KT 9000 NSC"
    },
    {
      "icao": "EYPA",
      "alert": "OK",
      "vis_m": 4100,
      "fzfg": false,
      "metar_trigger": false,
      "taf_trigger": false,
      "metar": "METAR EYPA 272320Z 20005KT 4100 BR OVC002 M00/M01 Q1020",
      "taf": "TAF EYPA 272300Z 2800/2824 VRB03KT 5000 BR OVC002"
    },
    {
      "icao": "EYVI",
      "alert": "OK",
      "vis_m": 9999,
      "fzfg": false,
      "metar_trigger": false,
      "taf_trigger": false,
      "metar": "METAR EYVI 272320Z 01004KT CAVOK 01/M03 Q1017 NOSIG",
      "taf": "TAF EYVI 272300Z 2800/2824 VRB04KT 9000 NSC"
    },
    {
      "icao": "GCFV",
      "alert": "OK",
      "vis_m": 9999,
      "fzfg": false,
      "metar_trigger": false,
      "taf_trigger": false,
      "metar": "METAR GCFV 272330Z AUTO 34013KT 9999 FEW021 BKN029 18/13 Q1017",
      "taf": "TAF GCFV 272000Z 2721/2821 33014KT 9999 SCT030 TX22/2814Z TN16/2806Z"
    },
    {
      "icao": "GCLP",
      "alert": "OK",
      "vis_m": 9999,
      "fzfg": false,
      "metar_trigger": false,
      "taf_trigger": false,
      "metar": "METAR GCLP 272330Z 36014KT 9999 SCT025 17/13 Q1018 NOSIG",
      "taf": "TAF GCLP 272000Z 2721/2821 36018KT 9999 SCT030 TX22/2814Z TN16/2806Z"
    },
    {
      "icao": "GCTS",
      "alert": "OK",
      "vis_m": 9999,
      "fzfg": false,
      "metar_trigger": false,
      "taf_trigger": false,
      "metar": "METAR GCTS 272330Z 14003KT 110V180 9999 SCT025 16/13 Q1018 NOSIG",
      "taf": "TAF GCTS 272000Z 2721/2821 29006KT 9999 SCT035 TX23/2814Z TN16/2806Z"
    },
    {
      "icao": "GMAD",
      "alert": "OK",
      "vis_m": 6000,
      "fzfg": false,
      "metar_trigger": false,
      "taf_trigger": false,
      "metar": "METAR GMAD 272330Z 12004KT 6000 BKN020 15/14 Q1014 NOSIG",
      "taf": "TAF GMAD 272300Z 2800/2906 18006KT 6000 BKN020"
    },
    {
      "icao": "GMMN",
      "alert": "OK",
      "vis_m": 9999,
      "fzfg": false,
      "metar_trigger": false,
      "taf_trigger": false,
      "metar": "METAR GMMN 272330Z 31003KT 9999 FEW020 12/11 Q1015 NOSIG",
      "taf": "TAF GMMN 272300Z 2800/2906 17004KT 8000 SCT010"
    },
    {
      "icao": "GMMX",
      "alert": "OK",
      "vis_m": 7000,
      "fzfg": false,
      "metar_trigger": false,
      "taf_trigger": false,
      "metar": "METAR GMMX 272330Z 03005KT 350V070 7000 SCT010 16/14 Q1014 NOSIG",
      "taf": "TAF GMMX 272300Z 2800/2906 24006KT 8000 SCT016"
    },
    {
      "icao": "HEGN",
      "alert": "OK",
      "vis_m": 9999,
      "fzfg": false,
      "metar_trigger": false,
      "taf_trigger": false,
      "metar": "METAR HEGN 272300Z 00000KT CAVOK 19/10 Q1015 NOSIG",
      "taf": "TAF HEGN 272300Z 2800/2906 25010KT 9999 SCT025"
    },
    {
      "icao": "HEMA",
      "alert": "OK",
      "vis_m": 9999,
      "fzfg": false,
      "metar_trigger": false,
      "taf_trigger": false,
      "metar": "METAR HEMA 272300Z 22004KT CAVOK 17/10 Q1015 NOSIG",
      "taf": "TAF HEMA 272300Z 2800/2906 24010KT CAVOK"
    },
    {
      "icao": "HESH",
      "alert": "OK",
      "vis_m": 9999,
      "fzfg": false,
      "metar_trigger": false,
      "taf_trigger": false,
      "metar": "METAR HESH 272300Z 19007KT CAVOK 19/11 Q1016 NOSIG",
      "taf": "TAF HESH 272300Z 2800/2906 26010KT 9999 SCT025"
    },
    {
      "icao": "HESX",
      "alert": "OK",
      "vis_m": 9999,
      "fzfg": false,
      "metar_trigger": false,
      "taf_trigger": false,
      "metar": "METAR HESX 272300Z 09003KT CAVOK 15/04 Q1015 NOSIG",
      "taf": "TAF HESX 272300Z 2800/2906 18010KT 9999 FEW020"
    },
    {
      "icao": "LATI",
      "alert": "OK",
      "vis_m": null,
      "fzfg": false,
      "metar_trigger": false,
      "taf_trigger": false,
      "metar": "",
      "taf": "TAF LATI 272300Z 2800/2824 VRB03KT 9999 BKN070 TX15/2812Z TN05/2805Z"
    },
    {
      "icao": "LBPD",
      "alert": "OK",
      "vis_m": 9999,
      "fzfg": false,
      "metar_trigger": false,
      "taf_trigger": false,
      "metar": "METAR LBPD 272330Z AUTO 30003KT 260V330 9999 OVC028/// 07/07 Q1001",
      "taf": "TAF LBPD 272300Z 2800/2824 VRB03KT 9999 BKN020 OVC040"
    },
    {
      "icao": "LBSF",
      "alert": "OK",
      "vis_m": 9000,
      "fzfg": false,
      "metar_trigger": false,
      "taf_trigger": false,
      "metar": "METAR LBSF 272330Z AUTO 28007KT 9000 -RA SCT015/// OVC031/// 04/02 Q1002 RERA TEMPO 4000 RA",
      "taf": "TAF LBSF 272300Z 2800/2824 VRB03KT 9999 SCT015 BKN025 OVC040"
    },
    {
      "icao": "LBWN",
      "alert": "OK",
      "vis_m": 9999,
      "fzfg": false,
      "metar_trigger": false,
      "taf_trigger": false,
      "metar": "METAR LBWN 272330Z AUTO 11011KT 9999 -RA SCT010/// 10/10 Q1005 RESHRA TEMPO 5000 RA",
      "taf": "TAF LBWN 272300Z 2800/2824 10014KT 9999 SCT010 OVC025"
    },
    {
      "icao": "LCLK",
      "alert": "OK",
      "vis_m": 9999,
      "fzfg": false,
      "metar_trigger": false,
      "taf_trigger": false,
      "metar": "METAR LCLK 272330Z 28006KT CAVOK 12/10 Q1012 NOSIG",
      "taf": "TAF LCLK 272330Z 2800/2900 24007KT 9999 FEW025"
    },
    {
      "icao": "LCPH",
      "alert": "OK",
      "vis_m": 9999,
      "fzfg": false,
      "metar_trigger": false,
      "taf_trigger": false,
      "metar": "METAR LCPH 272330Z 01006KT 9999 SCT022 13/10 Q1013 NOSIG",
      "taf": "TAF LCPH 272330Z 2800/2900 08009KT 9999 FEW020"
    },
    {
      "icao": "LEAL",
      "alert": "OK",
      "vis_m": 9999,
      "fzfg": false,
      "metar_trigger": false,
      "taf_trigger": false,
      "metar": "METAR LEAL 272330Z 32003KT 280V010 CAVOK 12/09 Q1019 NOSIG",
      "taf": "TAF LEAL 272300Z 2800/2824 VRB04KT 9999 FEW025 TX17/2812Z TN07/2806Z"
    },
    {
      "icao": "LEBB",
      "alert": "OK",
      "vis_m": 9999,
      "fzfg": false,
      "metar_trigger": false,
      "taf_trigger": false,
      "metar": "METAR LEBB 272330Z AUTO VRB01KT 9999 BKN039 05/04 Q1027",
      "taf": "TAF LEBB 272300Z 2800/2824 29009KT 9999 FEW020 BKN035 TX12/2812Z TN05/2800Z"
    },
    {
      "icao": "LEBL",
      "alert": "OK",
      "vis_m": 9999,
      "fzfg": false,
      "metar_trigger": false,
      "taf_trigger": false,
      "metar": "METAR LEBL 272330Z 29005KT 230V310 9999 FEW025 12/07 Q1018 NOSIG",
      "taf": "TAF LEBL 272300Z 2800/2824 24010KT 9999 FEW020 TX17/2812Z TN08/2806Z"
    },
    {
      "icao": "LECH",
      "alert": "OK",
      "vis_m": 9999,
      "fzfg": false,
      "metar_trigger": false,
      "taf_trigger": false,
      "metar": "METAR LECH 272330Z AUTO VRB01KT CAVOK 06/04 Q1019",
      "taf": "TAF LECH 272300Z 2800/2824 VRB04KT 9999 FEW030 TX19/2813Z TN03/2806Z"
    },
    {
      "icao": "LEMD",
      "alert": "OK",
      "vis_m": 9999,
      "fzfg": false,
      "metar_trigger": false,
      "taf_trigger": false,
      "metar": "METAR LEMD 272330Z 02003KT 340V080 CAVOK 08/M01 Q1020 NOSIG",
      "taf": "TAF LEMD 272300Z 2800/2906 03008KT CAVOK TX19/2816Z TN01/2807Z"
    },
    {
      "icao": "LEMG",
      "alert": "OK",
      "vis_m": 9999,
      "fzfg": false,
      "metar_trigger": false,
      "taf_trigger": false,
      "metar": "METAR LEMG 272330Z VRB02KT 9999 SCT035 OVC050 15/08 Q1019 NOSIG",
      "taf": "TAF LEMG 272300Z 2800/2824 12010KT 9999 SCT025 BKN045 TX17/2813Z TN13/2806Z"
    },
    {
      "icao": "LEVC",
      "alert": "OK",
      "vis_m": 9999,
      "fzfg": false,
      "metar_trigger": false,
      "taf_trigger": false,
      "metar": "METAR LEVC 272330Z 31004KT 280V350 CAVOK 09/06 Q1019 NOSIG",
      "taf": "TAF LEVC 272300Z 2800/2824 VRB03KT 9999 FEW025 TX20/2813Z TN06/2806Z"
    },
    {
      "icao": "LEXJ",
      "alert": "OK",
      "vis_m": 9999,
      "fzfg": false,
      "metar_trigger": false,
      "taf_trigger": false,
      "metar": "METAR LEXJ 272330Z AUTO VRB02KT 9999 FEW041 06/04 Q1027",
      "taf": "TAF LEXJ 272000Z 2721/2821 20006KT 9999 BKN030 TX12/2812Z TN07/2722Z"
    },
    {
      "icao": "LEZG",
      "alert": "OK",
      "vis_m": 9999,
      "fzfg": false,
      "metar_trigger": false,
      "taf_trigger": false,
      "metar": "METAR LEZG 272330Z 28023KT CAVOK 08/M00 Q1020 NOSIG",
      "taf": "TAF LEZG 272300Z 2800/2824 31020KT 9999 FEW045 TX18/2814Z TN06/2806Z"
    },
    {
      "icao": "LEZL",
      "alert": "OK",
      "vis_m": 9999,
      "fzfg": false,
      "metar_trigger": false,
      "taf_trigger": false,
      "metar": "METAR LEZL 272330Z 21007KT CAVOK 14/11 Q1017 NOSIG",
      "taf": "TAF LEZL 272000Z 2721/2821 VRB03KT CAVOK TX25/2815Z TN09/2807Z"
    },
    {
      "icao": "LFBD",
      "alert": "OK",
      "vis_m": 9999,
      "fzfg": false,
      "metar_trigger": false,
      "taf_trigger": false,
      "metar": "METAR LFBD 272330Z AUTO VRB03KT CAVOK 06/03 Q1025 NOSIG",
      "taf": "TAF LFBD 272300Z 2800/2906 VRB03KT CAVOK TX12/2815Z TN03/2803Z"
    },
    {
      "icao": "LFLL",
      "alert": "OK",
      "vis_m": 9999,
      "fzfg": false,
      "metar_trigger": false,
      "taf_trigger": false,
      "metar": "METAR LFLL 272330Z 34008KT CAVOK 02/M04 Q1022 NOSIG",
      "taf": "TAF LFLL 272300Z 2800/2906 36007KT CAVOK"
    },
    {
      "icao": "LFLS",
      "alert": "OK",
      "vis_m": 9999,
      "fzfg": false,
      "metar_trigger": false,
      "taf_trigger": false,
      "metar": "METAR LFLS 272330Z AUTO 35009KT CAVOK 01/M05 Q1020",
      "taf": "TAF LFLS 271400Z 2715/2815 34010KT 9999 BKN055"
    },
    {
      "icao": "LFMN",
      "alert": "OK",
      "vis_m": 9999,
      "fzfg": false,
      "metar_trigger": false,
      "taf_trigger": false,
      "metar": "METAR LFMN 272330Z 35009KT CAVOK 10/M00 Q1012 NOSIG",
      "taf": "TAF LFMN 272000Z 2721/2903 35010KT CAVOK"
    },
    {
      "icao": "LFOB",
      "alert": "OK",
      "vis_m": 4400,
      "fzfg": false,
      "metar_trigger": false,
      "taf_trigger": false,
      "metar": "METAR LFOB 272330Z AUTO 20005KT 4400 -RA BR OVC004 08/08 Q1020 TEMPO RA OVC005",
      "taf": "TAF LFOB 272300Z 2800/2824 22007KT 9999 BKN012 OVC020"
    },
    {
      "icao": "LFPO",
      "alert": "OK",
      "vis_m": 9999,
      "fzfg": false,
      "metar_trigger": false,
      "taf_trigger": false,
      "metar": "METAR LFPO 272330Z 20006KT 9999 -RA NSC 08/04 Q1021 NOSIG",
      "taf": "TAF LFPO 272300Z 2800/2906 20006KT 9999 -RA SCT012 BKN040"
    },
    {
      "icao": "LFSB",
      "alert": "OK",
      "vis_m": 9999,
      "fzfg": false,
      "metar_trigger": false,
      "taf_trigger": false,
      "metar": "METAR LFSB 272330Z AUTO VRB02KT CAVOK M02/M03 Q1023 NOSIG",
      "taf": "TAF LFSB 272300Z 2800/2824 VRB03KT CAVOK"
    },
    {
      "icao": "LGAV",
      "alert": "OK",
      "vis_m": 9999,
      "fzfg": false,
      "metar_trigger": false,
      "taf_trigger": false,
      "metar": "METAR LGAV 272320Z 29003KT 9999 FEW025 06/05 Q1004 NOSIG",
      "taf": "TAF LGAV 272300Z 2800/2824 VRB05KT 9999 FEW025 SCT030"
    },
    {
      "icao": "LGTS",
      "alert": "OK",
      "vis_m": 9999,
      "fzfg": false,
      "metar_trigger": false,
      "taf_trigger": false,
      "metar": "METAR LGTS 272320Z 14003KT 9999 FEW020 06/05 Q1002 NOSIG",
      "taf": "TAF LGTS 272300Z 2800/2824 34013KT 9999 SCT025"
    },
    {
      "icao": "LHBP",
      "alert": "OK",
      "vis_m": 9999,
      "fzfg": false,
      "metar_trigger": false,
      "taf_trigger": false,
      "metar": "SPECI LHBP 272348Z 34013KT CAVOK 07/M01 Q1008 NOSIG",
      "taf": "TAF LHBP 272315Z 2800/2824 34011KT CAVOK"
    },
    {
      "icao": "LHDC",
      "alert": "OK",
      "vis_m": 9999,
      "fzfg": false,
      "metar_trigger": false,
      "taf_trigger": false,
      "metar": "METAR LHDC 272315Z AUTO 03018KT CAVOK 07/03 Q1006",
      "taf": "TAF LHDC 271415Z 2715/2724 02022G32KT CAVOK"
    },
    {
      "icao": "LIBD",
      "alert": "OK",
      "vis_m": 9999,
      "fzfg": false,
      "metar_trigger": false,
      "taf_trigger": false,
      "metar": "METAR LIBD 272320Z 28010KT 9999 BKN030 07/06 Q1004",
      "taf": "TAF LIBD 272300Z 2800/2824 28012KT 9999 FEW010 BKN020"
    },
    {
      "icao": "LIBG",
      "alert": "OK",
      "vis_m": null,
      "fzfg": false,
      "metar_trigger": false,
      "taf_trigger": false,
      "metar": "",
      "taf": "TAF LIBG 271700Z 2718/2803 30006KT 9999 SCT030"
    },
    {
      "icao": "LIBP",
      "alert": "OK",
      "vis_m": 7000,
      "fzfg": false,
      "metar_trigger": false,
      "taf_trigger": false,
      "metar": "METAR LIBP 272320Z AUTO 31008KT 280V340 7000 -RA OVC026/// 07/06 Q1010",
      "taf": "TAF LIBP 272300Z 2800/2824 33012KT 9999 BKN015 BKN050"
    },
    {
      "icao": "LIBR",
      "alert": "OK",
      "vis_m": 9999,
      "fzfg": false,
      "metar_trigger": false,
      "taf_trigger": false,
      "metar": "METAR LIBR 272320Z 05008KT 9999 FEW020 BKN045 11/07 Q1003",
      "taf": "TAF LIBR 272300Z 2800/2824 33015KT 9999 BKN040"
    },
    {
      "icao": "LICA",
      "alert": "OK",
      "vis_m": 9999,
      "fzfg": false,
      "metar_trigger": false,
      "taf_trigger": false,
      "metar": "METAR LICA 272320Z AUTO 36004KT 9999 FEW059/// 07/05 Q1005",
      "taf": "TAF LICA 272300Z 2800/2824 VRB06KT 9999 BKN030"
    },
    {
      "icao": "LICC",
      "alert": "OK",
      "vis_m": 9999,
      "fzfg": false,
      "metar_trigger": false,
      "taf_trigger": false,
      "metar": "METAR LICC 272320Z 27005KT 220V310 CAVOK 07/02 Q1006",
      "taf": "TAF LICC 272300Z 2800/2824 26012KT CAVOK"
    },
    {
      "icao": "LICJ",
      "alert": "OK",
      "vis_m": 9999,
      "fzfg": false,
      "metar_trigger": false,
      "taf_trigger": false,
      "metar": "METAR LICJ 272320Z 34009KT 9999 SCT030 11/06 Q1007",
      "taf": "TAF LICJ 272300Z 2800/2824 31016KT 9999 SCT030"
    },
    {
      "icao": "LIMC",
      "alert": "OK",
      "vis_m": 9999,
      "fzfg": false,
      "metar_trigger": false,
      "taf_trigger": false,
      "metar": "METAR LIMC 272320Z 01003KT 320V070 CAVOK 07/M07 Q1012 NOSIG",
      "taf": "TAF LIMC 272300Z 2800/2906 VRB05KT CAVOK"
    },
    {
      "icao": "LIME",
      "alert": "OK",
      "vis_m": 9999,
      "fzfg": false,
      "metar_trigger": false,
      "taf_trigger": false,
      "metar": "METAR LIME 272320Z AUTO 33005KT 9999 NCD 08/M04 Q1012",
      "taf": "TAF LIME 272300Z 2800/2824 36006KT CAVOK"
    },
    {
      "icao": "LIMF",
      "alert": "OK",
      "vis_m": 9999,
      "fzfg": false,
      "metar_trigger": false,
      "taf_trigger": false,
      "metar": "METAR LIMF 272320Z VRB05KT CAVOK 06/M06 Q1012",
      "taf": "TAF LIMF 272300Z 2800/2824 VRB05KT CAVOK"
    },
    {
      "icao": "LIMJ",
      "alert": "OK",
      "vis_m": 9999,
      "fzfg": false,
      "metar_trigger": false,
      "taf_trigger": false,
      "metar": "METAR LIMJ 272320Z AUTO 04010KT 9999 NCD 13/M09 Q1011",
      "taf": "TAF LIMJ 272300Z 2800/2824 02012KT CAVOK"
    },
    {
      "icao": "LIPE",
      "alert": "OK",
      "vis_m": 9999,
      "fzfg": false,
      "metar_trigger": false,
      "taf_trigger": false,
      "metar": "METAR LIPE 272320Z AUTO 23003KT 9999 NCD 05/00 Q1011",
      "taf": "TAF LIPE 272300Z 2800/2824 VRB05KT CAVOK"
    },
    {
      "icao": "LIPH",
      "alert": "OK",
      "vis_m": 9999,
      "fzfg": false,
      "metar_trigger": false,
      "taf_trigger": false,
      "metar": "METAR LIPH 272320Z AUTO 30002KT 9999 NCD 05/01 Q1012",
      "taf": "TAF LIPH 272300Z 2800/2824 VRB05KT CAVOK"
    },
    {
      "icao": "LIPQ",
      "alert": "OK",
      "vis_m": 9999,
      "fzfg": false,
      "metar_trigger": false,
      "taf_trigger": false,
      "metar": "METAR LIPQ 272320Z AUTO 04003KT 350V160 9999 NCD 03/00 Q1011",
      "taf": "TAF LIPQ 272300Z 2800/2824 VRB05KT CAVOK"
    },
    {
      "icao": "LIPR",
      "alert": "OK",
      "vis_m": 9999,
      "fzfg": false,
      "metar_trigger": false,
      "taf_trigger": false,
      "metar": "METAR LIPR 272320Z AUTO 24002KT 9999 BKN075/// BKN100/// 07/05 Q1011",
      "taf": "TAF LIPR 272300Z 2800/2824 VRB05KT 9999 SCT070"
    },
    {
      "icao": "LIPX",
      "alert": "OK",
      "vis_m": 9999,
      "fzfg": false,
      "metar_trigger": false,
      "taf_trigger": false,
      "metar": "METAR LIPX 272320Z AUTO 01008KT 9999 NCD 09/M09 Q1012",
      "taf": "TAF LIPX 272300Z 2800/2824 03010KT CAVOK"
    },
    {
      "icao": "LIPY",
      "alert": "OK",
      "vis_m": 9999,
      "fzfg": false,
      "metar_trigger": false,
      "taf_trigger": false,
      "metar": "METAR LIPY 272320Z AUTO 05011KT 020V080 9999 OVC057/// 11/02 Q1011",
      "taf": "TAF LIPY 272300Z 2800/2824 01017KT 9999 OVC050"
    },
    {
      "icao": "LIPZ",
      "alert": "OK",
      "vis_m": 9999,
      "fzfg": false,
      "metar_trigger": false,
      "taf_trigger": false,
      "metar": "METAR LIPZ 272320Z 07006KT 030V090 CAVOK 09/00 Q1012 NOSIG",
      "taf": "TAF LIPZ 272300Z 2800/2906 07008KT CAVOK"
    },
    {
      "icao": "LIRF",
      "alert": "OK",
      "vis_m": 9999,
      "fzfg": false,
      "metar_trigger": false,
      "taf_trigger": false,
      "metar": "METAR LIRF 272320Z 01015KT CAVOK 09/01 Q1008 NOSIG",
      "taf": "TAF LIRF 272300Z 2800/2906 01015KT CAVOK"
    },
    {
      "icao": "LIRN",
      "alert": "OK",
      "vis_m": 9999,
      "fzfg": false,
      "metar_trigger": false,
      "taf_trigger": false,
      "metar": "METAR LIRN 272320Z 03006KT 9999 FEW070 08/02 Q1007 NOSIG",
      "taf": "TAF LIRN 272300Z 2800/2824 04008KT 9999 FEW080"
    },
    {
      "icao": "LIRP",
      "alert": "OK",
      "vis_m": 9999,
      "fzfg": false,
      "metar_trigger": false,
      "taf_trigger": false,
      "metar": "METAR LIRP 272315Z 09002KT CAVOK 05/02 Q1011 NOSIG",
      "taf": "TAF LIRP 272300Z 2800/2824 12003KT CAVOK"
    },
    {
      "icao": "LIRZ",
      "alert": "OK",
      "vis_m": 9999,
      "fzfg": false,
      "metar_trigger": false,
      "taf_trigger": false,
      "metar": "METAR LIRZ 272320Z AUTO 02007KT 330V050 9999 BKN042/// 08/02 Q1010",
      "taf": "TAF LIRZ 272300Z 2800/2824 VRB05KT 9999 BKN050"
    },
    {
      "icao": "LJLJ",
      "alert": "OK",
      "vis_m": 9999,
      "fzfg": false,
      "metar_trigger": false,
      "taf_trigger": false,
      "metar": "METAR LJLJ 272330Z 32013KT 9999 SCT075 07/M08 Q1012 NOSIG",
      "taf": "TAF LJLJ 272300Z 2800/2900 33010KT 9999 FEW060"
    },
    {
      "icao": "LKMT",
      "alert": "OK",
      "vis_m": 9999,
      "fzfg": false,
      "metar_trigger": false,
      "taf_trigger": false,
      "metar": "METAR LKMT 272330Z 03008KT 9999 -RASN BKN008 OVC012 02/01 Q1017 NOSIG",
      "taf": "TAF LKMT 272300Z 2800/2824 02010KT 9999 BKN040"
    },
    {
      "icao": "LKPR",
      "alert": "OK",
      "vis_m": 9999,
      "fzfg": false,
      "metar_trigger": false,
      "taf_trigger": false,
      "metar": "METAR LKPR 272330Z 22005KT CAVOK M03/M05 Q1020 NOSIG",
      "taf": "TAF LKPR 272300Z 2800/2906 28006KT CAVOK"
    },
    {
      "icao": "LLBG",
      "alert": "OK",
      "vis_m": 9999,
      "fzfg": false,
      "metar_trigger": false,
      "taf_trigger": false,
      "metar": "METAR LLBG 272320Z VRB03KT CAVOK 12/10 Q1015 NOSIG",
      "taf": "TAF LLBG 271705Z 2718/2818 24007KT 9999 SCT025 TX24/2812Z TN09/2803Z"
    },
    {
      "icao": "LMML",
      "alert": "OK",
      "vis_m": 9999,
      "fzfg": false,
      "metar_trigger": false,
      "taf_trigger": false,
      "metar": "METAR LMML 272345Z 29013KT 9999 FEW020 09/05 Q1008 NOSIG",
      "taf": "TAF LMML 272300Z 2800/2824 31014KT 9999 FEW020"
    },
    {
      "icao": "LOWW",
      "alert": "OK",
      "vis_m": 9999,
      "fzfg": false,
      "metar_trigger": false,
      "taf_trigger": false,
      "metar": "METAR LOWW 272320Z 33015KT 9999 -RA FEW018 SCT022 BKN026 04/M00 Q1017 NOSIG",
      "taf": ""
    },
    {
      "icao": "LPFR",
      "alert": "OK",
      "vis_m": 9999,
      "fzfg": false,
      "metar_trigger": false,
      "taf_trigger": false,
      "metar": "METAR LPFR 272330Z 07006KT CAVOK 15/07 Q1017",
      "taf": "TAF LPFR 272300Z 2800/2824 04008KT CAVOK"
    },
    {
      "icao": "LPMA",
      "alert": "OK",
      "vis_m": 9999,
      "fzfg": false,
      "metar_trigger": false,
      "taf_trigger": false,
      "metar": "METAR LPMA 272330Z 01013KT 340V040 9999 SCT015 16/10 Q1021",
      "taf": "TAF LPMA 272300Z 2800/2824 02015KT 9999 SCT015"
    },
    {
      "icao": "LPPR",
      "alert": "OK",
      "vis_m": 9999,
      "fzfg": false,
      "metar_trigger": false,
      "taf_trigger": false,
      "metar": "METAR LPPR 272330Z VRB02KT CAVOK 11/10 Q1020",
      "taf": "TAF LPPR 272300Z 2800/2824 VRB02KT CAVOK"
    },
    {
      "icao": "LPPS",
      "alert": "OK",
      "vis_m": 9999,
      "fzfg": false,
      "metar_trigger": false,
      "taf_trigger": false,
      "metar": "METAR LPPS 272330Z 02011KT 9999 SCT014 15/12 Q1021",
      "taf": "TAF LPPS 272300Z 2800/2906 02013KT 9999 SCT015 SCT030"
    },
    {
      "icao": "LPPT",
      "alert": "OK",
      "vis_m": 9999,
      "fzfg": false,
      "metar_trigger": false,
      "taf_trigger": false,
      "metar": "METAR LPPT 272330Z 35010KT CAVOK 15/07 Q1018",
      "taf": "TAF LPPT 272300Z 2800/2906 34010KT CAVOK"
    },
    {
      "icao": "LQBK",
      "alert": "OK",
      "vis_m": 9999,
      "fzfg": false,
      "metar_trigger": false,
      "taf_trigger": false,
      "metar": "METAR LQBK 272330Z 30015KT 9999 BKN013 OVC023 05/00 Q1009 NOSIG",
      "taf": "TAF LQBK 272300Z 2800/2824 30011KT 7000 SCT010 BKN015 OVC030 TX05/2813Z TN02/2806Z"
    },
    {
      "icao": "LQSA",
      "alert": "OK",
      "vis_m": 1500,
      "fzfg": false,
      "metar_trigger": false,
      "taf_trigger": false,
      "metar": "METAR LQSA 272330Z VRB02KT 1500 SN SCT003 BKN015 00/00 Q1007",
      "taf": "TAF LQSA 272300Z 2800/2824 31007KT 4000 -SN SCT010 BKN030 TX04/2813Z TN00/2806Z"
    },
    {
      "icao": "LQTZ",
      "alert": "OK",
      "vis_m": 2100,
      "fzfg": false,
      "metar_trigger": false,
      "taf_trigger": false,
      "metar": "METAR LQTZ 272330Z 28007KT 2100 SN BR OVC001 00/00 Q1007",
      "taf": "TAF LQTZ 272300Z 2800/2824 28007KT 3000 -SN BKN005 OVC015 TX02/2814Z TNM01/2805Z"
    },
    {
      "icao": "LRBC",
      "alert": "OK",
      "vis_m": 9999,
      "fzfg": false,
      "metar_trigger": false,
      "taf_trigger": false,
      "metar": "METAR LRBC 272330Z 34009KT 9999 BKN034 07/03 Q1010",
      "taf": "TAF LRBC 272300Z 2800/2809 34007KT 9999 BKN035"
    },
    {
      "icao": "LRBS",
      "alert": "OK",
      "vis_m": 8000,
      "fzfg": false,
      "metar_trigger": false,
      "taf_trigger": false,
      "metar": "METAR LRBS 272330Z 06015KT 8000 RA SCT012 BKN017 OVC043 08/06 Q1005 NOSIG",
      "taf": "TAF LRBS 272300Z 2800/2824 06012KT 9999 BKN015 OVC040"
    },
    {
      "icao": "LRBV",
      "alert": "OK",
      "vis_m": 9999,
      "fzfg": false,
      "metar_trigger": false,
      "taf_trigger": false,
      "metar": "METAR LRBV 272330Z AUTO 07012KT 9999 BKN045/// OVC061/// 07/02 Q1006 RERA",
      "taf": "TAF LRBV 272000Z 2721/2806 07015KT 9999 BKN075"
    },
    {
      "icao": "LRCL",
      "alert": "OK",
      "vis_m": 9999,
      "fzfg": false,
      "metar_trigger": false,
      "taf_trigger": false,
      "metar": "METAR LRCL 272330Z VRB01KT 9999 OVC048 08/01 Q1006",
      "taf": "TAF LRCL 272300Z 2800/2809 06005KT 9999 BKN045"
    },
    {
      "icao": "LRCV",
      "alert": "OK",
      "vis_m": 6000,
      "fzfg": false,
      "metar_trigger": false,
      "taf_trigger": false,
      "metar": "METAR LRCV 272330Z 06014KT 6000 RA BKN008 OVC027 07/07 Q1002",
      "taf": "TAF LRCV 272300Z 2800/2809 07016KT 5000 -RA BR BKN010 OVC020"
    },
    {
      "icao": "LRIA",
      "alert": "OK",
      "vis_m": 9999,
      "fzfg": false,
      "metar_trigger": false,
      "taf_trigger": false,
      "metar": "METAR LRIA 272330Z 25004KT 230V300 CAVOK 05/02 Q1010",
      "taf": "TAF LRIA 272300Z 2800/2809 VRB04KT CAVOK"
    },
    {
      "icao": "LROP",
      "alert": "OK",
      "vis_m": 7000,
      "fzfg": false,
      "metar_trigger": false,
      "taf_trigger": false,
      "metar": "METAR LROP 272330Z 07016KT 7000 RA FEW027 OVC042 08/06 Q1005 NOSIG",
      "taf": "TAF LROP 272300Z 2800/2824 07017KT 9999 SCT020 OVC040"
    },
    {
      "icao": "LRSB",
      "alert": "OK",
      "vis_m": 9999,
      "fzfg": false,
      "metar_trigger": false,
      "taf_trigger": false,
      "metar": "METAR LRSB 272330Z VRB02KT 9999 BKN050 06/04 Q1005",
      "taf": "TAF LRSB 272300Z 2800/2824 VRB04KT 9999 BKN050"
    },
    {
      "icao": "LRSM",
      "alert": "OK",
      "vis_m": 9999,
      "fzfg": false,
      "metar_trigger": false,
      "taf_trigger": false,
      "metar": "METAR LRSM 272330Z AUTO 03002KT 9999 FEW120/// BKN180/// 07/01 Q1007",
      "taf": "TAF LRSM 271400Z 2715/2724 08014KT CAVOK"
    },
    {
      "icao": "LRSV",
      "alert": "OK",
      "vis_m": 9999,
      "fzfg": false,
      "metar_trigger": false,
      "taf_trigger": false,
      "metar": "METAR LRSV 272330Z 32005KT CAVOK 05/02 Q1010",
      "taf": "TAF LRSV 272300Z 2800/2809 VRB04KT 9999 BKN030"
    },
    {
      "icao": "LRTM",
      "alert": "OK",
      "vis_m": 9999,
      "fzfg": false,
      "metar_trigger": false,
      "taf_trigger": false,
      "metar": "METAR LRTM 272330Z AUTO 05006KT 9999 -RA NCD 09/03 Q1006",
      "taf": "TAF LRTM 271700Z 2718/2803 09013KT CAVOK"
    },
    {
      "icao": "LRTR",
      "alert": "OK",
      "vis_m": 5000,
      "fzfg": false,
      "metar_trigger": false,
      "taf_trigger": false,
      "metar": "METAR LRTR 272330Z 32003KT 290V010 5000 BR FEW007 08/08 Q1004 TEMPO 3000 BR",
      "taf": "TAF LRTR 272300Z 2800/2824 VRB04KT 5000 BR SCT010 BKN045"
    },
    {
      "icao": "LTAC",
      "alert": "OK",
      "vis_m": 9999,
      "fzfg": false,
      "metar_trigger": false,
      "taf_trigger": false,
      "metar": "METAR LTAC 272320Z 01003KT 340V050 CAVOK 04/01 Q1009 NOSIG RMK RWY21C 35003KT RWY03L VRB02KT RWY21R 34003KT RWY03R 00000KT RWY21L 34003KT",
      "taf": "TAF LTAC 272240Z 2800/2824 VRB02KT CAVOK"
    },
    {
      "icao": "LTFM",
      "alert": "OK",
      "vis_m": 9999,
      "fzfg": false,
      "metar_trigger": false,
      "taf_trigger": false,
      "metar": "METAR LTFM 272320Z 17013KT 9999 -SHRA BKN035 BKN080 11/09 Q1006 NOSIG RMK RWY17L 18013KT RWY34L 17011KT RWY16R 17014KT RWY36 17012KT RWY18 18012KT",
      "taf": "TAF LTFM 272240Z 2800/2906 20012KT 9999 BKN035 BKN080"
    },
    {
      "icao": "LUKK",
      "alert": "OK",
      "vis_m": 9999,
      "fzfg": false,
      "metar_trigger": false,
      "taf_trigger": false,
      "metar": "METAR LUKK 272330Z VRB02KT CAVOK 04/02 Q1009 NOSIG",
      "taf": "TAF LUKK 272314Z 2800/2824 VRB04KT CAVOK"
    },
    {
      "icao": "LWOH",
      "alert": "OK",
      "vis_m": null,
      "fzfg": false,
      "metar_trigger": false,
      "taf_trigger": false,
      "metar": "",
      "taf": "TAF LWOH 272335Z 2800/2824 34005KT 9999 SCT035 BKN050"
    },
    {
      "icao": "LWSK",
      "alert": "OK",
      "vis_m": null,
      "fzfg": false,
      "metar_trigger": false,
      "taf_trigger": false,
      "metar": "",
      "taf": "TAF LWSK 272335Z 2800/2824 VRB02KT 9999 SCT040 BKN060"
    },
    {
      "icao": "LYBE",
      "alert": "OK",
      "vis_m": 7000,
      "fzfg": false,
      "metar_trigger": false,
      "taf_trigger": false,
      "metar": "METAR LYBE 272330Z 21009KT 7000 -RA BKN004 05/04 Q1005 RERA NOSIG",
      "taf": "TAF LYBE 272300Z 2800/2824 22010KT 8000 BKN005 BKN027 TX08/2812Z TN04/2824Z"
    },
    {
      "icao": "LYNI",
      "alert": "OK",
      "vis_m": 9999,
      "fzfg": false,
      "metar_trigger": false,
      "taf_trigger": false,
      "metar": "METAR LYNI 272330Z 32010KT 9999 SCT010 BKN030 06/05 Q1004 NOSIG",
      "taf": "TAF LYNI 272300Z 2800/2824 32010KT 9999 SCT010 BKN030 TX05/2812Z TN03/2824Z"
    },
    {
      "icao": "LYPG",
      "alert": "OK",
      "vis_m": 9999,
      "fzfg": false,
      "metar_trigger": false,
      "taf_trigger": false,
      "metar": "METAR LYPG 272330Z 34007KT CAVOK 08/01 Q1003 NOSIG",
      "taf": "TAF LYPG 272300Z 2800/2824 36008KT 9999 FEW060 TX14/2812Z TN06/2805Z"
    },
    {
      "icao": "LZIB",
      "alert": "OK",
      "vis_m": 9999,
      "fzfg": false,
      "metar_trigger": false,
      "taf_trigger": false,
      "metar": "METAR LZIB 272330Z 33016KT 9999 FEW009 BKN040 04/01 Q1015 NOSIG",
      "taf": "TAF LZIB 272315Z 2800/2900 35016KT 9999 FEW016 BKN035"
    },
    {
      "icao": "LZKZ",
      "alert": "OK",
      "vis_m": 9999,
      "fzfg": false,
      "metar_trigger": false,
      "taf_trigger": false,
      "metar": "METAR LZKZ 272330Z 36021KT CAVOK 06/02 Q1009 NOSIG",
      "taf": "TAF LZKZ 272315Z 2800/2900 01020KT 9999 FEW025 BKN040"
    },
    {
      "icao": "LZTT",
      "alert": "OK",
      "vis_m": 9999,
      "fzfg": false,
      "metar_trigger": false,
      "taf_trigger": false,
      "metar": "METAR LZTT 272330Z 31005KT 260V020 9999 OVC020 02/M01 Q1011",
      "taf": "TAF LZTT 272315Z 2800/2900 05010KT 9999 FEW010 BKN030"
    },
    {
      "icao": "OEJN",
      "alert": "OK",
      "vis_m": 9999,
      "fzfg": false,
      "metar_trigger": false,
      "taf_trigger": false,
      "metar": "METAR OEJN 272300Z 02005KT CAVOK 21/11 Q1013 NOSIG",
      "taf": "TAF OEJN 272300Z 2800/2906 VRB03KT CAVOK"
    },
    {
      "icao": "OEMA",
      "alert": "OK",
      "vis_m": 9999,
      "fzfg": false,
      "metar_trigger": false,
      "taf_trigger": false,
      "metar": "METAR OEMA 272300Z 12003KT CAVOK 18/06 Q1016 NOSIG",
      "taf": "TAF OEMA 272300Z 2800/2906 VRB03KT CAVOK"
    },
    {
      "icao": "OJAI",
      "alert": "OK",
      "vis_m": 4000,
      "fzfg": false,
      "metar_trigger": false,
      "taf_trigger": false,
      "metar": "METAR OJAI 272300Z 26008KT 4000 HZ FEW050 08/05 Q1016 NOSIG",
      "taf": "TAF OJAI 272248Z 2800/2906 26010KT 5000 HZ NSC"
    },
    {
      "icao": "OMAA",
      "alert": "OK",
      "vis_m": null,
      "fzfg": false,
      "metar_trigger": false,
      "taf_trigger": false,
      "metar": "",
      "taf": ""
    },
    {
      "icao": "OMDB",
      "alert": "OK",
      "vis_m": null,
      "fzfg": false,
      "metar_trigger": false,
      "taf_trigger": false,
      "metar": "",
      "taf": ""
    },
    {
      "icao": "UAAA",
      "alert": "OK",
      "vis_m": 9999,
      "fzfg": false,
      "metar_trigger": false,
      "taf_trigger": false,
      "metar": "METAR UAAA 272330Z 24002MPS 9999 FEW100 06/M01 Q1010 NOSIG",
      "taf": "TAF UAAA 272303Z 2800/2824 28002G07MPS 9999 FEW100 TX19/2810Z TN05/2801Z"
    },
    {
      "icao": "UBBB",
      "alert": "OK",
      "vis_m": 9999,
      "fzfg": false,
      "metar_trigger": false,
      "taf_trigger": false,
      "metar": "METAR UBBB 272330Z 21009KT 9999 -SHRA BKN050CB 12/10 Q0997 NOSIG",
      "taf": "TAF UBBB 272257Z 2800/2824 22014KT 6000 -SHRA SCT010 SCT040CB OVC040 TX14/2810Z TN11/2802Z"
    },
    {
      "icao": "UDSG",
      "alert": "OK",
      "vis_m": 9999,
      "fzfg": false,
      "metar_trigger": false,
      "taf_trigger": false,
      "metar": "METAR UDSG 272330Z 36006KT 9999 -SHRA SCT030CB OVC043 04/01 Q1006 NOSIG",
      "taf": "TAF UDSG 272258Z 2800/2824 33006KT 9999 BKN040"
    },
    {
      "icao": "UDYZ",
      "alert": "OK",
      "vis_m": 6000,
      "fzfg": false,
      "metar_trigger": false,
      "taf_trigger": false,
      "metar": "METAR UDYZ 272330Z VRB01KT 6000 -SHRA FEW011 OVC030CB 08/07 Q1005 NOSIG",
      "taf": "TAF UDYZ 272300Z 2800/2824 16006KT 6000 BKN030"
    },
    {
      "icao": "UGKO",
      "alert": "OK",
      "vis_m": 9999,
      "fzfg": false,
      "metar_trigger": false,
      "taf_trigger": false,
      "metar": "METAR UGKO 272330Z VRB02KT 9999 BKN064 09/08 Q1009 NOSIG",
      "taf": "TAF UGKO 272300Z 2800/2824 26006KT 9999 OVC050 TX18/2811Z TN07/2824Z"
    }
  ]
}