{
  "ts_utc": "2026-04-07T16:41:57Z",
  "threshold_m": 150,
  "source": "stations_override.txt (ICAO list) + aviationweather.gov (METAR/TAF raw)",
  "station_count": 159,
  "stations": [
    {
      "icao": "BIKF",
      "alert": "OK",
      "vis_m": 9999,
      "fzfg": false,
      "metar_trigger": false,
      "taf_trigger": false,
      "metar": "METAR BIKF 071630Z 19026G36KT 9999 SCT013 BKN034 08/06 Q0987",
      "taf": "TAF BIKF 071620Z 0718/0818 19028G38KT 9999 -SHRA SCT015 BKN020 TX07/0718Z TN04/0803Z"
    },
    {
      "icao": "BKPR",
      "alert": "OK",
      "vis_m": 9999,
      "fzfg": false,
      "metar_trigger": false,
      "taf_trigger": false,
      "metar": "METAR BKPR 071630Z COR 34009KT 9999 BKN045 17/07 Q1016 NOSIG",
      "taf": "TAF BKPR 071130Z 0712/0812 01008KT CAVOK"
    },
    {
      "icao": "EBCI",
      "alert": "OK",
      "vis_m": 9999,
      "fzfg": false,
      "metar_trigger": false,
      "taf_trigger": false,
      "metar": "METAR EBCI 071620Z 05012KT CAVOK 18/07 Q1023 NOSIG",
      "taf": "TAF EBCI 071113Z 0712/0818 07008KT CAVOK"
    },
    {
      "icao": "EDDB",
      "alert": "OK",
      "vis_m": 9999,
      "fzfg": false,
      "metar_trigger": false,
      "taf_trigger": false,
      "metar": "METAR EDDB 071620Z AUTO 36010KT CAVOK 13/M03 Q1025 NOSIG",
      "taf": "TAF EDDB 071100Z 0712/0812 32012G22KT 9999 SCT025"
    },
    {
      "icao": "EDDH",
      "alert": "OK",
      "vis_m": 9999,
      "fzfg": false,
      "metar_trigger": false,
      "taf_trigger": false,
      "metar": "METAR EDDH 071620Z AUTO 05006KT 360V080 CAVOK 14/M00 Q1027 NOSIG",
      "taf": "TAF EDDH 071100Z 0712/0818 33007KT CAVOK"
    },
    {
      "icao": "EDDK",
      "alert": "OK",
      "vis_m": 9999,
      "fzfg": false,
      "metar_trigger": false,
      "taf_trigger": false,
      "metar": "METAR EDDK 071620Z AUTO 07004KT 030V200 CAVOK 19/M02 Q1024 NOSIG",
      "taf": "TAF EDDK 071100Z 0712/0818 02006KT CAVOK"
    },
    {
      "icao": "EDDN",
      "alert": "OK",
      "vis_m": 9999,
      "fzfg": false,
      "metar_trigger": false,
      "taf_trigger": false,
      "metar": "METAR EDDN 071620Z AUTO 36008KT CAVOK 16/M01 Q1023 NOSIG",
      "taf": "TAF EDDN 071100Z 0712/0812 35006KT CAVOK"
    },
    {
      "icao": "EDDS",
      "alert": "OK",
      "vis_m": 9999,
      "fzfg": false,
      "metar_trigger": false,
      "taf_trigger": false,
      "metar": "METAR EDDS 071620Z AUTO 36007KT 320V030 CAVOK 18/02 Q1022 NOSIG",
      "taf": "TAF EDDS 071100Z 0712/0812 04004KT CAVOK"
    },
    {
      "icao": "EDFH",
      "alert": "OK",
      "vis_m": 9999,
      "fzfg": false,
      "metar_trigger": false,
      "taf_trigger": false,
      "metar": "METAR EDFH 071620Z 05005KT 360V110 CAVOK 16/01 Q1024",
      "taf": "TAF EDFH 071100Z 0712/0812 10007KT CAVOK"
    },
    {
      "icao": "EDJA",
      "alert": "OK",
      "vis_m": 9999,
      "fzfg": false,
      "metar_trigger": false,
      "taf_trigger": false,
      "metar": "METAR EDJA 071620Z 36005KT 300V030 CAVOK 18/07 Q1022",
      "taf": "TAF EDJA 071400Z 0715/0724 35004KT CAVOK"
    },
    {
      "icao": "EDLW",
      "alert": "OK",
      "vis_m": 9999,
      "fzfg": false,
      "metar_trigger": false,
      "taf_trigger": false,
      "metar": "METAR EDLW 071620Z 06008KT 030V090 CAVOK 14/M05 Q1025",
      "taf": "TAF EDLW 071100Z 0712/0812 06007KT CAVOK"
    },
    {
      "icao": "EDNY",
      "alert": "OK",
      "vis_m": 9999,
      "fzfg": false,
      "metar_trigger": false,
      "taf_trigger": false,
      "metar": "METAR EDNY 071620Z 23006KT CAVOK 19/09 Q1022",
      "taf": "TAF EDNY 071400Z 0715/0724 25005KT CAVOK"
    },
    {
      "icao": "EDSB",
      "alert": "OK",
      "vis_m": 9999,
      "fzfg": false,
      "metar_trigger": false,
      "taf_trigger": false,
      "metar": "METAR EDSB 071620Z 02010KT CAVOK 19/04 Q1022",
      "taf": "TAF EDSB 071100Z 0712/0812 01010KT CAVOK"
    },
    {
      "icao": "EETN",
      "alert": "OK",
      "vis_m": 9999,
      "fzfg": false,
      "metar_trigger": false,
      "taf_trigger": false,
      "metar": "METAR EETN 071620Z 35006KT 9999 SCT026 06/03 Q1016 NOSIG",
      "taf": "TAF EETN 071130Z 0712/0812 36012KT 9999 BKN025 0712/0715 5000 SHRA BKN012 SCT020CB"
    },
    {
      "icao": "EFTU",
      "alert": "OK",
      "vis_m": 9999,
      "fzfg": false,
      "metar_trigger": false,
      "taf_trigger": false,
      "metar": "METAR EFTU 071620Z AUTO 36007KT 330V040 9999 FEW035 08/02 Q1020",
      "taf": "TAF EFTU 071427Z 0715/0815 01009KT 9999 FEW030 OVC045"
    },
    {
      "icao": "EGBB",
      "alert": "OK",
      "vis_m": 9999,
      "fzfg": false,
      "metar_trigger": false,
      "taf_trigger": false,
      "metar": "METAR EGBB 071550Z 13013G23KT 090V160 CAVOK 20/05 Q1020",
      "taf": "TAF EGBB 071104Z 0712/0812 11013KT CAVOK"
    },
    {
      "icao": "EGGP",
      "alert": "OK",
      "vis_m": 9999,
      "fzfg": false,
      "metar_trigger": false,
      "taf_trigger": false,
      "metar": "METAR EGGP 071620Z 14012KT 100V160 CAVOK 18/06 Q1019",
      "taf": "TAF EGGP 071057Z 0712/0812 14015G25KT CAVOK"
    },
    {
      "icao": "EGGW",
      "alert": "OK",
      "vis_m": 9999,
      "fzfg": false,
      "metar_trigger": false,
      "taf_trigger": false,
      "metar": "METAR EGGW 071620Z AUTO 12013KT 9999 NCD 16/04 Q1022",
      "taf": "TAF EGGW 071057Z 0712/0812 12010KT CAVOK"
    },
    {
      "icao": "EGKK",
      "alert": "OK",
      "vis_m": 9999,
      "fzfg": false,
      "metar_trigger": false,
      "taf_trigger": false,
      "metar": "METAR EGKK 071620Z 11012KT CAVOK 19/04 Q1021",
      "taf": "TAF EGKK 071055Z 0712/0818 09008KT CAVOK"
    },
    {
      "icao": "EGNM",
      "alert": "OK",
      "vis_m": 9999,
      "fzfg": false,
      "metar_trigger": false,
      "taf_trigger": false,
      "metar": "METAR EGNM 071620Z 13013KT 100V160 CAVOK 17/03 Q1021",
      "taf": "TAF EGNM 071056Z 0712/0812 14010KT CAVOK"
    },
    {
      "icao": "EGPD",
      "alert": "OK",
      "vis_m": 9999,
      "fzfg": false,
      "metar_trigger": false,
      "taf_trigger": false,
      "metar": "METAR EGPD 071620Z COR AUTO 16014KT 9999 NCD 10/05 Q1021 NOSIG",
      "taf": "TAF EGPD 071059Z 0712/0812 15012KT CAVOK"
    },
    {
      "icao": "EGPF",
      "alert": "OK",
      "vis_m": 9999,
      "fzfg": false,
      "metar_trigger": false,
      "taf_trigger": false,
      "metar": "METAR EGPF 071620Z AUTO 13007KT 100V170 9999 NCD 19/05 Q1017",
      "taf": ""
    },
    {
      "icao": "EHBK",
      "alert": "OK",
      "vis_m": 9999,
      "fzfg": false,
      "metar_trigger": false,
      "taf_trigger": false,
      "metar": "METAR EHBK 071625Z AUTO 05010KT 020V080 9999 NCD 17/02 Q1024 NOSIG",
      "taf": "TAF EHBK 071102Z 0712/0818 07011KT CAVOK"
    },
    {
      "icao": "EHEH",
      "alert": "OK",
      "vis_m": 9999,
      "fzfg": false,
      "metar_trigger": false,
      "taf_trigger": false,
      "metar": "METAR EHEH 071625Z AUTO 07008KT 360V110 9999 NCD 17/00 Q1025 BLU NOSIG RMK TREND REMOTE BY EHWX",
      "taf": "TAF EHEH 071101Z 0712/0818 10011KT CAVOK"
    },
    {
      "icao": "EKBI",
      "alert": "OK",
      "vis_m": 9999,
      "fzfg": false,
      "metar_trigger": false,
      "taf_trigger": false,
      "metar": "METAR EKBI 071620Z AUTO 01005KT 320V040 9999 NCD 13/M05 Q1028",
      "taf": "TAF EKBI 071427Z 0715/0815 33004KT CAVOK"
    },
    {
      "icao": "EKCH",
      "alert": "OK",
      "vis_m": 9999,
      "fzfg": false,
      "metar_trigger": false,
      "taf_trigger": false,
      "metar": "METAR EKCH 071620Z AUTO 35012KT 9999 NCD 10/M04 Q1027 NOSIG",
      "taf": "TAF EKCH 071427Z 0715/0815 35014KT CAVOK"
    },
    {
      "icao": "ENAL",
      "alert": "OK",
      "vis_m": 9999,
      "fzfg": false,
      "metar_trigger": false,
      "taf_trigger": false,
      "metar": "METAR ENAL 071620Z 04007KT CAVOK 07/02 Q1028",
      "taf": "TAF ENAL 071400Z 0715/0724 VRB04KT CAVOK"
    },
    {
      "icao": "ENBR",
      "alert": "OK",
      "vis_m": 9999,
      "fzfg": false,
      "metar_trigger": false,
      "taf_trigger": false,
      "metar": "METAR ENBR 071620Z 21004KT CAVOK 10/M06 Q1028 NOSIG RMK WIND 1200FT 15007KT",
      "taf": "TAF ENBR 071100Z 0712/0812 24007KT CAVOK"
    },
    {
      "icao": "ENGM",
      "alert": "OK",
      "vis_m": 9999,
      "fzfg": false,
      "metar_trigger": false,
      "taf_trigger": false,
      "metar": "METAR ENGM 071620Z 02008KT CAVOK 11/M06 Q1027 NOSIG",
      "taf": "TAF ENGM 071100Z 0712/0812 01008KT CAVOK"
    },
    {
      "icao": "ENHD",
      "alert": "OK",
      "vis_m": 9999,
      "fzfg": false,
      "metar_trigger": false,
      "taf_trigger": false,
      "metar": "METAR ENHD 071620Z 26005KT CAVOK 08/M00 Q1028",
      "taf": "TAF ENHD 071400Z 0715/0722 30007KT CAVOK"
    },
    {
      "icao": "ENTC",
      "alert": "OK",
      "vis_m": 9999,
      "fzfg": false,
      "metar_trigger": false,
      "taf_trigger": false,
      "metar": "METAR ENTC 071620Z 15006KT 110V200 CAVOK 05/M06 Q1033 NOSIG RMK WIND 2600FT 16014KT",
      "taf": "TAF ENTC 071100Z 0712/0812 20006KT CAVOK"
    },
    {
      "icao": "ENTO",
      "alert": "OK",
      "vis_m": 9999,
      "fzfg": false,
      "metar_trigger": false,
      "taf_trigger": false,
      "metar": "METAR ENTO 071620Z 22009KT CAVOK 11/M04 Q1028 NOSIG",
      "taf": "TAF ENTO 071100Z 0712/0812 34007KT CAVOK"
    },
    {
      "icao": "ENVA",
      "alert": "OK",
      "vis_m": 9999,
      "fzfg": false,
      "metar_trigger": false,
      "taf_trigger": false,
      "metar": "METAR ENVA 071620Z 23003KT 200V260 9999 SCT041 10/02 Q1030 NOSIG RMK WIND 670FT 30003KT",
      "taf": "TAF ENVA 071100Z 0712/0812 VRB04KT 9999 FEW010 BKN020"
    },
    {
      "icao": "ENZV",
      "alert": "OK",
      "vis_m": 9999,
      "fzfg": false,
      "metar_trigger": false,
      "taf_trigger": false,
      "metar": "METAR ENZV 071620Z 30005KT CAVOK 09/02 Q1028 NOSIG",
      "taf": "TAF ENZV 071100Z 0712/0812 30010KT CAVOK"
    },
    {
      "icao": "EPGD",
      "alert": "OK",
      "vis_m": 9999,
      "fzfg": false,
      "metar_trigger": false,
      "taf_trigger": false,
      "metar": "METAR EPGD 071630Z 35014KT 9999 BKN024 05/M00 Q1023",
      "taf": "TAF EPGD 071130Z 0712/0812 33020KT 9999 BKN035"
    },
    {
      "icao": "EPKK",
      "alert": "OK",
      "vis_m": 9999,
      "fzfg": false,
      "metar_trigger": false,
      "taf_trigger": false,
      "metar": "METAR EPKK 071630Z 32017KT 9999 FEW045CB BKN053 09/M04 Q1019",
      "taf": "TAF EPKK 071430Z 0715/0815 29020G32KT CAVOK"
    },
    {
      "icao": "EPKT",
      "alert": "OK",
      "vis_m": 9999,
      "fzfg": false,
      "metar_trigger": false,
      "taf_trigger": false,
      "metar": "METAR EPKT 071630Z 30010KT 9999 FEW044 07/M02 Q1020",
      "taf": "TAF EPKT 071130Z 0712/0812 28018G28KT CAVOK"
    },
    {
      "icao": "EPLB",
      "alert": "OK",
      "vis_m": 9999,
      "fzfg": false,
      "metar_trigger": false,
      "taf_trigger": false,
      "metar": "METAR EPLB 071630Z 30013KT 9999 FEW048 06/00 Q1014",
      "taf": "TAF EPLB 071130Z 0712/0812 29020KT 9999 SCT030"
    },
    {
      "icao": "EPMO",
      "alert": "OK",
      "vis_m": 9999,
      "fzfg": false,
      "metar_trigger": false,
      "taf_trigger": false,
      "metar": "METAR EPMO 071630Z 33018KT 290V350 9999 SCT030 BKN038 06/M00 Q1019",
      "taf": "TAF EPMO 071130Z 0712/0812 31020KT 9999 BKN035"
    },
    {
      "icao": "EPPO",
      "alert": "OK",
      "vis_m": 9999,
      "fzfg": false,
      "metar_trigger": false,
      "taf_trigger": false,
      "metar": "METAR EPPO 071630Z 34014KT CAVOK 11/M05 Q1023",
      "taf": "TAF EPPO 071130Z 0712/0812 30012KT 9999 BKN035"
    },
    {
      "icao": "EPRA",
      "alert": "OK",
      "vis_m": 9999,
      "fzfg": false,
      "metar_trigger": false,
      "taf_trigger": false,
      "metar": "METAR EPRA 071630Z 33013KT 9999 BKN036 07/M00 Q1017",
      "taf": "TAF EPRA 071430Z 0715/0724 32016KT 9999 BKN040"
    },
    {
      "icao": "EPRZ",
      "alert": "OK",
      "vis_m": 9999,
      "fzfg": false,
      "metar_trigger": false,
      "taf_trigger": false,
      "metar": "METAR EPRZ 071630Z 31014KT 9999 -SHRA BKN040CB 06/01 Q1017",
      "taf": "TAF EPRZ 071130Z 0712/0812 28022G35KT CAVOK"
    },
    {
      "icao": "EPSC",
      "alert": "OK",
      "vis_m": 9999,
      "fzfg": false,
      "metar_trigger": false,
      "taf_trigger": false,
      "metar": "METAR EPSC 071630Z 33010KT 300V360 CAVOK 10/M03 Q1026",
      "taf": "TAF EPSC 071130Z 0712/0812 32015KT CAVOK"
    },
    {
      "icao": "EPSY",
      "alert": "OK",
      "vis_m": 9999,
      "fzfg": false,
      "metar_trigger": false,
      "taf_trigger": false,
      "metar": "METAR EPSY 071630Z 33016G27KT 290V360 9999 -SHRA BKN014CB BKN023 04/01 Q1018",
      "taf": "TAF EPSY 071430Z 0715/0724 32012KT 9999 BKN035"
    },
    {
      "icao": "EPWA",
      "alert": "OK",
      "vis_m": 9999,
      "fzfg": false,
      "metar_trigger": false,
      "taf_trigger": false,
      "metar": "METAR EPWA 071630Z 33022KT 9999 FEW046 07/M02 Q1018 TEMPO 33012KT",
      "taf": "TAF EPWA 071430Z 0715/0815 33020KT 9999 SCT045"
    },
    {
      "icao": "EPWR",
      "alert": "OK",
      "vis_m": 9999,
      "fzfg": false,
      "metar_trigger": false,
      "taf_trigger": false,
      "metar": "METAR EPWR 071630Z 30013KT CAVOK 11/M01 Q1023",
      "taf": "TAF EPWR 071430Z 0715/0815 32014KT 9999 SCT045"
    },
    {
      "icao": "ESGG",
      "alert": "OK",
      "vis_m": 9999,
      "fzfg": false,
      "metar_trigger": false,
      "taf_trigger": false,
      "metar": "METAR ESGG 071620Z 03010KT CAVOK 10/M08 Q1027",
      "taf": "TAF ESGG 071430Z 0715/0815 36010KT CAVOK"
    },
    {
      "icao": "ESKN",
      "alert": "OK",
      "vis_m": 9999,
      "fzfg": false,
      "metar_trigger": false,
      "taf_trigger": false,
      "metar": "METAR ESKN 071620Z 36010G20KT 330V030 9999 SCT038 07/00 Q1025",
      "taf": ""
    },
    {
      "icao": "ESMS",
      "alert": "OK",
      "vis_m": 9999,
      "fzfg": false,
      "metar_trigger": false,
      "taf_trigger": false,
      "metar": "METAR ESMS 071620Z 32015KT CAVOK 09/M01 Q1026",
      "taf": "TAF ESMS 071427Z 0715/0815 33015KT CAVOK"
    },
    {
      "icao": "ESSA",
      "alert": "OK",
      "vis_m": 9999,
      "fzfg": false,
      "metar_trigger": false,
      "taf_trigger": false,
      "metar": "METAR ESSA 071620Z 36018KT 9999 BKN023 04/M00 Q1026 NOSIG",
      "taf": "TAF ESSA 071430Z 0715/0815 36020KT 9999 BKN025"
    },
    {
      "icao": "EYKA",
      "alert": "OK",
      "vis_m": 9999,
      "fzfg": false,
      "metar_trigger": false,
      "taf_trigger": false,
      "metar": "METAR EYKA 071620Z 35006KT 280V040 9999 SCT020 BKN030 05/02 Q1012",
      "taf": "TAF EYKA 071100Z 0712/0812 32012KT 9000 BKN020"
    },
    {
      "icao": "EYPA",
      "alert": "OK",
      "vis_m": 9999,
      "fzfg": false,
      "metar_trigger": false,
      "taf_trigger": false,
      "metar": "METAR EYPA 071620Z 36010KT 310V050 9999 OVC013 04/01 Q1018",
      "taf": "TAF EYPA 071100Z 0712/0812 34013KT 9000 OVC010"
    },
    {
      "icao": "EYVI",
      "alert": "OK",
      "vis_m": 9999,
      "fzfg": false,
      "metar_trigger": false,
      "taf_trigger": false,
      "metar": "METAR EYVI 071620Z 33012KT 9999 SCT016 BKN028 BKN033 04/02 Q1009 NOSIG",
      "taf": "TAF EYVI 071100Z 0712/0812 33012KT 5000 RA OVC010"
    },
    {
      "icao": "GCFV",
      "alert": "OK",
      "vis_m": 9999,
      "fzfg": false,
      "metar_trigger": false,
      "taf_trigger": false,
      "metar": "METAR GCFV 071630Z 33014KT 9999 SCT035 22/11 Q1019",
      "taf": "TAF GCFV 071400Z 0715/0815 01015KT 9999 SCT030 TX20/0814Z TN16/0806Z"
    },
    {
      "icao": "GCLP",
      "alert": "OK",
      "vis_m": 9999,
      "fzfg": false,
      "metar_trigger": false,
      "taf_trigger": false,
      "metar": "METAR GCLP 071630Z 01022G32KT 9999 FEW013 BKN023 18/15 Q1020 NOSIG",
      "taf": "TAF GCLP 071400Z 0715/0815 36019KT 9999 BKN030 TX20/0814Z TN14/0806Z"
    },
    {
      "icao": "GCTS",
      "alert": "OK",
      "vis_m": 9999,
      "fzfg": false,
      "metar_trigger": false,
      "taf_trigger": false,
      "metar": "METAR GCTS 071630Z 08017KT 050V110 9999 BKN025 20/12 Q1021 WS R07 NOSIG",
      "taf": "TAF GCTS 071400Z 0715/0815 05017KT 9999 SCT035 TX20/0814Z TN14/0806Z"
    },
    {
      "icao": "GMAD",
      "alert": "OK",
      "vis_m": 8000,
      "fzfg": false,
      "metar_trigger": false,
      "taf_trigger": false,
      "metar": "METAR GMAD 071630Z 25014KT 220V280 8000 FEW020 21/13 Q1017 NOSIG",
      "taf": "TAF GMAD 071100Z 0712/0818 26010KT 8000 SCT026 BKN080"
    },
    {
      "icao": "GMMN",
      "alert": "OK",
      "vis_m": 8000,
      "fzfg": false,
      "metar_trigger": false,
      "taf_trigger": false,
      "metar": "METAR GMMN 071630Z 29012KT 8000 BKN026 SCT030TCU FEW033CB 19/13 Q1017 NOSIG",
      "taf": "TAF GMMN 071100Z 0712/0818 24012KT 9999 BKN020"
    },
    {
      "icao": "GMMX",
      "alert": "OK",
      "vis_m": 8000,
      "fzfg": false,
      "metar_trigger": false,
      "taf_trigger": false,
      "metar": "METAR GMMX 071630Z 31014KT 270V350 8000 SCT023 BKN080 20/13 Q1017 NOSIG",
      "taf": "TAF GMMX 071100Z 0712/0818 06006KT 8000 SCT033"
    },
    {
      "icao": "HEGN",
      "alert": "OK",
      "vis_m": 9999,
      "fzfg": false,
      "metar_trigger": false,
      "taf_trigger": false,
      "metar": "METAR HEGN 071600Z 35013KT 9999 SCT020 26/07 Q1016 NOSIG",
      "taf": ""
    },
    {
      "icao": "HEMA",
      "alert": "OK",
      "vis_m": 9999,
      "fzfg": false,
      "metar_trigger": false,
      "taf_trigger": false,
      "metar": "METAR HEMA 071600Z 33009KT CAVOK 25/07 Q1016 NOSIG",
      "taf": ""
    },
    {
      "icao": "HESH",
      "alert": "OK",
      "vis_m": 9999,
      "fzfg": false,
      "metar_trigger": false,
      "taf_trigger": false,
      "metar": "METAR HESH 071600Z 28013KT CAVOK 29/02 Q1015 NOSIG",
      "taf": ""
    },
    {
      "icao": "HESX",
      "alert": "OK",
      "vis_m": 9999,
      "fzfg": false,
      "metar_trigger": false,
      "taf_trigger": false,
      "metar": "METAR HESX 071600Z 34009KT 9999 SCT020 21/09 Q1019 NOSIG",
      "taf": ""
    },
    {
      "icao": "LATI",
      "alert": "OK",
      "vis_m": 9999,
      "fzfg": false,
      "metar_trigger": false,
      "taf_trigger": false,
      "metar": "METAR LATI 071620Z 35006KT 320V030 CAVOK 19/07 Q1019 NOSIG",
      "taf": "TAF LATI 071100Z 0712/0812 29010KT CAVOK TX24/0812Z TN08/0804Z"
    },
    {
      "icao": "LBPD",
      "alert": "OK",
      "vis_m": 9999,
      "fzfg": false,
      "metar_trigger": false,
      "taf_trigger": false,
      "metar": "METAR LBPD 071630Z AUTO 25010KT 9999 SCT098/// 21/05 Q1013 TEMPO 30020G30KT",
      "taf": "TAF LBPD 071100Z 0712/0812 27022KT 9999 SCT080"
    },
    {
      "icao": "LBSF",
      "alert": "OK",
      "vis_m": 9999,
      "fzfg": false,
      "metar_trigger": false,
      "taf_trigger": false,
      "metar": "METAR LBSF 071630Z AUTO 31015KT 9999 NCD 17/03 Q1016 NOSIG",
      "taf": "TAF LBSF 071100Z 0712/0812 28020KT 9999 SCT080"
    },
    {
      "icao": "LBWN",
      "alert": "OK",
      "vis_m": 9999,
      "fzfg": false,
      "metar_trigger": false,
      "taf_trigger": false,
      "metar": "METAR LBWN 071630Z AUTO 10007KT 9999 NSC 09/06 Q1014 NOSIG",
      "taf": "TAF LBWN 071100Z 0712/0812 27010KT 9999 BKN040"
    },
    {
      "icao": "LCLK",
      "alert": "OK",
      "vis_m": 9999,
      "fzfg": false,
      "metar_trigger": false,
      "taf_trigger": false,
      "metar": "METAR LCLK 071630Z 23008KT 9999 FEW023 17/15 Q1015 NOSIG",
      "taf": "TAF LCLK 071130Z 0712/0812 22018KT 9999 FEW025"
    },
    {
      "icao": "LCPH",
      "alert": "OK",
      "vis_m": 9999,
      "fzfg": false,
      "metar_trigger": false,
      "taf_trigger": false,
      "metar": "METAR LCPH 071630Z 31006KT 9999 SCT016 BKN021 17/13 Q1017 NOSIG",
      "taf": "TAF LCPH 071130Z 0712/0812 29015KT 9999 FEW020"
    },
    {
      "icao": "LEAL",
      "alert": "OK",
      "vis_m": 9999,
      "fzfg": false,
      "metar_trigger": false,
      "taf_trigger": false,
      "metar": "METAR LEAL 071630Z 07010KT 030V100 9999 FEW045 19/10 Q1018 NOSIG",
      "taf": "TAF LEAL 071100Z 0712/0812 VRB04KT 9999 FEW015 TX21/0712Z TN12/0806Z"
    },
    {
      "icao": "LEBB",
      "alert": "OK",
      "vis_m": 9999,
      "fzfg": false,
      "metar_trigger": false,
      "taf_trigger": false,
      "metar": "METAR LEBB 071630Z 14008KT 110V200 CAVOK 27/08 Q1014 NOSIG",
      "taf": "TAF LEBB 071100Z 0712/0812 13009KT CAVOK TX27/0713Z TN14/0806Z"
    },
    {
      "icao": "LEBL",
      "alert": "OK",
      "vis_m": 9999,
      "fzfg": false,
      "metar_trigger": false,
      "taf_trigger": false,
      "metar": "METAR LEBL 071630Z 08008KT CAVOK 18/11 Q1020 NOSIG",
      "taf": "TAF LEBL 071100Z 0712/0812 08010KT CAVOK TX20/0712Z TN11/0805Z"
    },
    {
      "icao": "LECH",
      "alert": "OK",
      "vis_m": 9999,
      "fzfg": false,
      "metar_trigger": false,
      "taf_trigger": false,
      "metar": "METAR LECH 071630Z AUTO 10006KT 060V130 CAVOK 18/04 Q1020",
      "taf": "TAF LECH 071100Z 0712/0812 09006KT CAVOK TX23/0714Z TN10/0806Z"
    },
    {
      "icao": "LEMD",
      "alert": "OK",
      "vis_m": 9999,
      "fzfg": false,
      "metar_trigger": false,
      "taf_trigger": false,
      "metar": "METAR LEMD 071630Z 07003KT 350V150 9999 FEW075 22/06 Q1015 NOSIG",
      "taf": "TAF LEMD 071100Z 0712/0818 VRB05KT CAVOK TX23/0715Z TN10/0806Z"
    },
    {
      "icao": "LEMG",
      "alert": "OK",
      "vis_m": 9999,
      "fzfg": false,
      "metar_trigger": false,
      "taf_trigger": false,
      "metar": "METAR LEMG 071630Z 13008KT CAVOK 19/11 Q1016 NOSIG",
      "taf": "TAF LEMG 071100Z 0712/0812 14008KT CAVOK TX22/0714Z TN14/0806Z"
    },
    {
      "icao": "LEVC",
      "alert": "OK",
      "vis_m": 9999,
      "fzfg": false,
      "metar_trigger": false,
      "taf_trigger": false,
      "metar": "METAR LEVC 071630Z 08006KT 040V120 CAVOK 19/08 Q1019 NOSIG",
      "taf": "TAF LEVC 071100Z 0712/0812 09010KT 9999 FEW010 TX22/0714Z TN11/0806Z"
    },
    {
      "icao": "LEXJ",
      "alert": "OK",
      "vis_m": 9999,
      "fzfg": false,
      "metar_trigger": false,
      "taf_trigger": false,
      "metar": "METAR LEXJ 071630Z 21013G26KT 170V280 CAVOK 25/09 Q1013",
      "taf": ""
    },
    {
      "icao": "LEZG",
      "alert": "OK",
      "vis_m": 9999,
      "fzfg": false,
      "metar_trigger": false,
      "taf_trigger": false,
      "metar": "METAR LEZG 071630Z 11011KT CAVOK 25/03 Q1016 NOSIG",
      "taf": "TAF LEZG 071100Z 0712/0812 09010KT CAVOK TX28/0714Z TN12/0806Z"
    },
    {
      "icao": "LEZL",
      "alert": "OK",
      "vis_m": 8000,
      "fzfg": false,
      "metar_trigger": false,
      "taf_trigger": false,
      "metar": "METAR LEZL 071630Z 23012KT 200V260 8000 RA FEW030 BKN040 17/15 Q1016 NOSIG",
      "taf": "TAF LEZL 071400Z 0715/0815 22012KT 9999 FEW030 TX27/0715Z TN14/0806Z"
    },
    {
      "icao": "LFBD",
      "alert": "OK",
      "vis_m": 9999,
      "fzfg": false,
      "metar_trigger": false,
      "taf_trigger": false,
      "metar": "METAR LFBD 071630Z AUTO 13008KT CAVOK 25/09 Q1016 NOSIG",
      "taf": "TAF LFBD 071100Z 0712/0818 13010KT CAVOK TX27/0715Z TN13/0805Z"
    },
    {
      "icao": "LFLL",
      "alert": "OK",
      "vis_m": 9999,
      "fzfg": false,
      "metar_trigger": false,
      "taf_trigger": false,
      "metar": "METAR LFLL 071630Z 17009KT CAVOK 25/M01 Q1020 NOSIG",
      "taf": "TAF LFLL 071100Z 0712/0818 17012KT CAVOK"
    },
    {
      "icao": "LFLS",
      "alert": "OK",
      "vis_m": 9999,
      "fzfg": false,
      "metar_trigger": false,
      "taf_trigger": false,
      "metar": "METAR LFLS 071630Z AUTO 24007KT 200V260 CAVOK 23/01 Q1021 NOSIG",
      "taf": "TAF LFLS 071400Z 0715/0815 22008KT CAVOK"
    },
    {
      "icao": "LFMN",
      "alert": "OK",
      "vis_m": 9999,
      "fzfg": false,
      "metar_trigger": false,
      "taf_trigger": false,
      "metar": "METAR LFMN 071630Z 13005KT CAVOK 17/11 Q1022 NOSIG",
      "taf": "TAF LFMN 071400Z 0715/0821 15005KT 9999 FEW018"
    },
    {
      "icao": "LFOB",
      "alert": "OK",
      "vis_m": 9999,
      "fzfg": false,
      "metar_trigger": false,
      "taf_trigger": false,
      "metar": "METAR LFOB 071630Z AUTO 07011KT CAVOK 21/10 Q1021 NOSIG",
      "taf": "TAF LFOB 071100Z 0712/0812 10009KT CAVOK"
    },
    {
      "icao": "LFPO",
      "alert": "OK",
      "vis_m": 9999,
      "fzfg": false,
      "metar_trigger": false,
      "taf_trigger": false,
      "metar": "METAR LFPO 071630Z 09010KT CAVOK 23/10 Q1020 NOSIG",
      "taf": "TAF LFPO 071100Z 0712/0818 09008KT CAVOK"
    },
    {
      "icao": "LFSB",
      "alert": "OK",
      "vis_m": 9999,
      "fzfg": false,
      "metar_trigger": false,
      "taf_trigger": false,
      "metar": "METAR LFSB 071630Z AUTO 01007KT 340V040 CAVOK 21/08 Q1021 NOSIG",
      "taf": "TAF LFSB 071100Z 0712/0812 35005KT CAVOK"
    },
    {
      "icao": "LGAV",
      "alert": "OK",
      "vis_m": 9999,
      "fzfg": false,
      "metar_trigger": false,
      "taf_trigger": false,
      "metar": "METAR LGAV 071620Z 22010KT CAVOK 18/10 Q1017 NOSIG",
      "taf": "TAF LGAV 071100Z 0712/0812 VRB05KT 9999 FEW025"
    },
    {
      "icao": "LGTS",
      "alert": "OK",
      "vis_m": 9999,
      "fzfg": false,
      "metar_trigger": false,
      "taf_trigger": false,
      "metar": "METAR LGTS 071620Z 19006KT 9999 FEW030 23/10 Q1013 NOSIG",
      "taf": "TAF LGTS 071100Z 0712/0812 33006KT 9999 FEW025"
    },
    {
      "icao": "LHBP",
      "alert": "OK",
      "vis_m": 9999,
      "fzfg": false,
      "metar_trigger": false,
      "taf_trigger": false,
      "metar": "METAR LHBP 071630Z 30019G30KT CAVOK 15/M05 Q1017 NOSIG",
      "taf": "TAF LHBP 071115Z 0712/0812 30016G26KT CAVOK"
    },
    {
      "icao": "LHDC",
      "alert": "OK",
      "vis_m": 9999,
      "fzfg": false,
      "metar_trigger": false,
      "taf_trigger": false,
      "metar": "METAR LHDC 071615Z AUTO 27015KT CAVOK 15/M05 Q1014 NOSIG",
      "taf": "TAF LHDC 071415Z 0715/0724 33012KT CAVOK"
    },
    {
      "icao": "LIBD",
      "alert": "OK",
      "vis_m": 9999,
      "fzfg": false,
      "metar_trigger": false,
      "taf_trigger": false,
      "metar": "METAR LIBD 071620Z 07003KT CAVOK 20/12 Q1019",
      "taf": "TAF LIBD 071100Z 0712/0812 04010KT CAVOK"
    },
    {
      "icao": "LIBG",
      "alert": "OK",
      "vis_m": 9999,
      "fzfg": false,
      "metar_trigger": false,
      "taf_trigger": false,
      "metar": "METAR LIBG 071550Z 24005KT 200V260 CAVOK 22/11 Q1019",
      "taf": "TAF LIBG 071400Z 0715/0724 21007KT 9999 FEW030"
    },
    {
      "icao": "LIBP",
      "alert": "OK",
      "vis_m": 9999,
      "fzfg": false,
      "metar_trigger": false,
      "taf_trigger": false,
      "metar": "METAR LIBP 071620Z AUTO 09003KT 360V140 9999 NCD 21/06 Q1019",
      "taf": "TAF LIBP 071100Z 0712/0812 07011KT CAVOK"
    },
    {
      "icao": "LIBR",
      "alert": "OK",
      "vis_m": 9999,
      "fzfg": false,
      "metar_trigger": false,
      "taf_trigger": false,
      "metar": "METAR LIBR 071620Z 03002KT CAVOK 18/09 Q1019",
      "taf": "TAF LIBR 071100Z 0712/0812 01010KT CAVOK"
    },
    {
      "icao": "LICA",
      "alert": "OK",
      "vis_m": 9999,
      "fzfg": false,
      "metar_trigger": false,
      "taf_trigger": false,
      "metar": "METAR LICA 071620Z AUTO 25009KT 9999 FEW016/// 16/13 Q1023",
      "taf": "TAF LICA 071100Z 0712/0812 25008KT 9999 FEW020"
    },
    {
      "icao": "LICC",
      "alert": "OK",
      "vis_m": 9999,
      "fzfg": false,
      "metar_trigger": false,
      "taf_trigger": false,
      "metar": "METAR LICC 071620Z 08011KT CAVOK 19/14 Q1022",
      "taf": "TAF LICC 071100Z 0712/0812 08010KT CAVOK"
    },
    {
      "icao": "LICJ",
      "alert": "OK",
      "vis_m": 9999,
      "fzfg": false,
      "metar_trigger": false,
      "taf_trigger": false,
      "metar": "METAR LICJ 071620Z 05008KT CAVOK 20/11 Q1023",
      "taf": "TAF LICJ 071100Z 0712/0812 03009KT CAVOK"
    },
    {
      "icao": "LIMC",
      "alert": "OK",
      "vis_m": 9999,
      "fzfg": false,
      "metar_trigger": false,
      "taf_trigger": false,
      "metar": "METAR LIMC 071620Z 21005KT 140V310 CAVOK 25/10 Q1018 NOSIG",
      "taf": "TAF LIMC 071100Z 0712/0818 VRB05KT CAVOK"
    },
    {
      "icao": "LIME",
      "alert": "OK",
      "vis_m": 9999,
      "fzfg": false,
      "metar_trigger": false,
      "taf_trigger": false,
      "metar": "METAR LIME 071620Z 26006KT 220V290 CAVOK 24/10 Q1018 NOSIG",
      "taf": "TAF LIME 071100Z 0712/0812 23010KT CAVOK"
    },
    {
      "icao": "LIMF",
      "alert": "OK",
      "vis_m": 9999,
      "fzfg": false,
      "metar_trigger": false,
      "taf_trigger": false,
      "metar": "METAR LIMF 071620Z 12003KT 060V170 CAVOK 25/10 Q1018",
      "taf": "TAF LIMF 071100Z 0712/0812 VRB05KT CAVOK"
    },
    {
      "icao": "LIMJ",
      "alert": "OK",
      "vis_m": 9999,
      "fzfg": false,
      "metar_trigger": false,
      "taf_trigger": false,
      "metar": "METAR LIMJ 071620Z 18005KT 9999 SCT010 OVC032 15/14 Q1022",
      "taf": "TAF LIMJ 071100Z 0712/0812 15010KT 9999 SCT015 BKN025"
    },
    {
      "icao": "LIPE",
      "alert": "OK",
      "vis_m": 9999,
      "fzfg": false,
      "metar_trigger": false,
      "taf_trigger": false,
      "metar": "METAR LIPE 071620Z VRB02KT CAVOK 24/11 Q1017",
      "taf": "TAF LIPE 071100Z 0712/0812 VRB05KT CAVOK"
    },
    {
      "icao": "LIPH",
      "alert": "OK",
      "vis_m": 9999,
      "fzfg": false,
      "metar_trigger": false,
      "taf_trigger": false,
      "metar": "METAR LIPH 071620Z 15005KT 110V200 CAVOK 22/10 Q1018",
      "taf": "TAF LIPH 071100Z 0712/0812 VRB05KT 9999 FEW040"
    },
    {
      "icao": "LIPQ",
      "alert": "OK",
      "vis_m": 9999,
      "fzfg": false,
      "metar_trigger": false,
      "taf_trigger": false,
      "metar": "METAR LIPQ 071620Z AUTO 14008KT 9999 NCD 19/10 Q1018",
      "taf": "TAF LIPQ 071100Z 0712/0812 19010KT CAVOK"
    },
    {
      "icao": "LIPR",
      "alert": "OK",
      "vis_m": 9999,
      "fzfg": false,
      "metar_trigger": false,
      "taf_trigger": false,
      "metar": "METAR LIPR 071620Z 10006KT 070V130 CAVOK 19/11 Q1018",
      "taf": "TAF LIPR 071100Z 0712/0812 06010KT CAVOK"
    },
    {
      "icao": "LIPX",
      "alert": "OK",
      "vis_m": 9999,
      "fzfg": false,
      "metar_trigger": false,
      "taf_trigger": false,
      "metar": "METAR LIPX 071620Z 23006KT CAVOK 24/11 Q1017",
      "taf": "TAF LIPX 071100Z 0712/0812 VRB05KT CAVOK"
    },
    {
      "icao": "LIPY",
      "alert": "OK",
      "vis_m": 9999,
      "fzfg": false,
      "metar_trigger": false,
      "taf_trigger": false,
      "metar": "METAR LIPY 071620Z AUTO 03007KT 9999 NCD 19/11 Q1018",
      "taf": "TAF LIPY 071100Z 0712/0812 VRB05KT CAVOK"
    },
    {
      "icao": "LIPZ",
      "alert": "OK",
      "vis_m": 9999,
      "fzfg": false,
      "metar_trigger": false,
      "taf_trigger": false,
      "metar": "METAR LIPZ 071620Z 15007KT CAVOK 18/12 Q1018 NOSIG",
      "taf": "TAF LIPZ 071100Z 0712/0818 16010KT CAVOK"
    },
    {
      "icao": "LIRF",
      "alert": "OK",
      "vis_m": 9999,
      "fzfg": false,
      "metar_trigger": false,
      "taf_trigger": false,
      "metar": "METAR LIRF 071620Z 24007KT 210V270 CAVOK 17/12 Q1022 NOSIG",
      "taf": "TAF LIRF 071100Z 0712/0818 22010KT CAVOK"
    },
    {
      "icao": "LIRN",
      "alert": "OK",
      "vis_m": 9999,
      "fzfg": false,
      "metar_trigger": false,
      "taf_trigger": false,
      "metar": "METAR LIRN 071620Z 19007KT CAVOK 16/12 Q1023 NOSIG",
      "taf": "TAF LIRN 071100Z 0712/0812 22010KT 8000 FEW016"
    },
    {
      "icao": "LIRP",
      "alert": "OK",
      "vis_m": 9999,
      "fzfg": false,
      "metar_trigger": false,
      "taf_trigger": false,
      "metar": "METAR LIRP 071615Z 27008KT CAVOK 18/08 Q1021 NOSIG",
      "taf": "TAF LIRP 071100Z 0712/0812 24005KT CAVOK"
    },
    {
      "icao": "LIRZ",
      "alert": "OK",
      "vis_m": 9999,
      "fzfg": false,
      "metar_trigger": false,
      "taf_trigger": false,
      "metar": "METAR LIRZ 071620Z AUTO 29006KT 9999 NCD 23/06 Q1020",
      "taf": "TAF LIRZ 071100Z 0712/0812 VRB04KT CAVOK"
    },
    {
      "icao": "LJLJ",
      "alert": "OK",
      "vis_m": 9999,
      "fzfg": false,
      "metar_trigger": false,
      "taf_trigger": false,
      "metar": "METAR LJLJ 071630Z 04003KT 9999 FEW075 21/08 Q1017 NOSIG",
      "taf": "TAF LJLJ 071100Z 0712/0812 VRB02KT CAVOK"
    },
    {
      "icao": "LKMT",
      "alert": "OK",
      "vis_m": 9999,
      "fzfg": false,
      "metar_trigger": false,
      "taf_trigger": false,
      "metar": "METAR LKMT 071630Z 35019KT CAVOK 09/M03 Q1021 NOSIG",
      "taf": "TAF LKMT 071100Z 0712/0812 35012KT CAVOK"
    },
    {
      "icao": "LKPR",
      "alert": "OK",
      "vis_m": 9999,
      "fzfg": false,
      "metar_trigger": false,
      "taf_trigger": false,
      "metar": "METAR LKPR 071630Z 36015KT CAVOK 12/M06 Q1024 NOSIG",
      "taf": "TAF LKPR 071400Z 0715/0821 34014KT CAVOK"
    },
    {
      "icao": "LLBG",
      "alert": "OK",
      "vis_m": 9999,
      "fzfg": false,
      "metar_trigger": false,
      "taf_trigger": false,
      "metar": "METAR LLBG 071620Z 29006KT 9999 SCT028 17/12 Q1018 NOSIG",
      "taf": "TAF LLBG 071111Z 0712/0812 28012KT 9999 SCT035 TX20/0712Z TN12/0804Z"
    },
    {
      "icao": "LMML",
      "alert": "OK",
      "vis_m": 9999,
      "fzfg": false,
      "metar_trigger": false,
      "taf_trigger": false,
      "metar": "METAR LMML 071615Z 24007KT 210V270 9999 FEW015 18/13 Q1023 NOSIG",
      "taf": "TAF LMML 071100Z 0712/0812 27010KT 9999 FEW015"
    },
    {
      "icao": "LOWW",
      "alert": "OK",
      "vis_m": 9999,
      "fzfg": false,
      "metar_trigger": false,
      "taf_trigger": false,
      "metar": "METAR LOWW 071620Z 35017KT CAVOK 17/M03 Q1019 NOSIG",
      "taf": "TAF LOWW 071415Z 0715/0821 34012KT CAVOK TX17/0715Z TN05/0804Z"
    },
    {
      "icao": "LPFR",
      "alert": "OK",
      "vis_m": 9999,
      "fzfg": false,
      "metar_trigger": false,
      "taf_trigger": false,
      "metar": "METAR LPFR 071630Z 29009KT 9999 SCT012 BKN048 13/10 Q1016",
      "taf": "TAF LPFR 071100Z 0712/0812 19012KT 9999 SCT015 BKN030"
    },
    {
      "icao": "LPMA",
      "alert": "OK",
      "vis_m": 9999,
      "fzfg": false,
      "metar_trigger": false,
      "taf_trigger": false,
      "metar": "METAR LPMA 071630Z 35012G23KT 260V030 9999 SCT014 16/04 Q1023",
      "taf": "TAF LPMA 071100Z 0712/0812 34013KT 9999 SCT014 SCT030"
    },
    {
      "icao": "LPPR",
      "alert": "OK",
      "vis_m": 9999,
      "fzfg": false,
      "metar_trigger": false,
      "taf_trigger": false,
      "metar": "METAR LPPR 071630Z 19013KT 9999 SCT015 BKN027 13/11 Q1012",
      "taf": "TAF LPPR 071100Z 0712/0812 22008KT 9999 SCT018 SCT035"
    },
    {
      "icao": "LPPS",
      "alert": "OK",
      "vis_m": 9999,
      "fzfg": false,
      "metar_trigger": false,
      "taf_trigger": false,
      "metar": "METAR LPPS 071630Z 33018KT 9999 FEW015 16/05 Q1023",
      "taf": "TAF LPPS 071100Z 0712/0818 33018KT 9999 SCT015 SCT030"
    },
    {
      "icao": "LPPT",
      "alert": "OK",
      "vis_m": 9999,
      "fzfg": false,
      "metar_trigger": false,
      "taf_trigger": false,
      "metar": "METAR LPPT 071630Z 16009KT 140V200 9999 FEW016 FEW020CB BKN030 12/09 Q1014",
      "taf": "TAF LPPT 071100Z 0712/0818 24010KT 9999 SCT025"
    },
    {
      "icao": "LQBK",
      "alert": "OK",
      "vis_m": 9999,
      "fzfg": false,
      "metar_trigger": false,
      "taf_trigger": false,
      "metar": "METAR LQBK 071630Z VRB01KT CAVOK 20/04 Q1017 NOSIG",
      "taf": "TAF LQBK 071100Z 0712/0812 06006KT CAVOK TX22/0713Z TN05/0805Z"
    },
    {
      "icao": "LQSA",
      "alert": "OK",
      "vis_m": 9999,
      "fzfg": false,
      "metar_trigger": false,
      "taf_trigger": false,
      "metar": "METAR LQSA 071630Z 32006KT 9999 FEW060 20/05 Q1016 NOSIG",
      "taf": "TAF LQSA 071100Z 0712/0812 32006KT 9999 SCT050 TX23/0714Z TN04/0805Z"
    },
    {
      "icao": "LQTZ",
      "alert": "OK",
      "vis_m": 9999,
      "fzfg": false,
      "metar_trigger": false,
      "taf_trigger": false,
      "metar": "METAR LQTZ 071630Z 31007KT CAVOK 20/05 Q1017",
      "taf": "TAF LQTZ 071100Z 0712/0812 10005KT CAVOK TX22/0713Z TN05/0805Z"
    },
    {
      "icao": "LRBC",
      "alert": "OK",
      "vis_m": 9999,
      "fzfg": false,
      "metar_trigger": false,
      "taf_trigger": false,
      "metar": "METAR LRBC 071630Z 25003KT 220V350 9999 FEW040CB SCT055 12/M01 Q1012",
      "taf": "TAF LRBC 071400Z 0715/0724 35008KT 9999 BKN060"
    },
    {
      "icao": "LRBS",
      "alert": "OK",
      "vis_m": 9999,
      "fzfg": false,
      "metar_trigger": false,
      "taf_trigger": false,
      "metar": "METAR LRBS 071630Z 27005KT CAVOK 16/01 Q1012 NOSIG",
      "taf": "TAF LRBS 071100Z 0712/0812 25010KT CAVOK"
    },
    {
      "icao": "LRBV",
      "alert": "OK",
      "vis_m": 9999,
      "fzfg": false,
      "metar_trigger": false,
      "taf_trigger": false,
      "metar": "METAR LRBV 071630Z 34009KT 320V020 9999 SCT080 09/M03 Q1013",
      "taf": "TAF LRBV 071400Z 0715/0724 30012KT CAVOK"
    },
    {
      "icao": "LRCL",
      "alert": "OK",
      "vis_m": 9999,
      "fzfg": false,
      "metar_trigger": false,
      "taf_trigger": false,
      "metar": "METAR LRCL 071630Z 31008KT CAVOK 12/M05 Q1014",
      "taf": "TAF LRCL 071400Z 0715/0724 29012KT CAVOK"
    },
    {
      "icao": "LRCV",
      "alert": "OK",
      "vis_m": 9999,
      "fzfg": false,
      "metar_trigger": false,
      "taf_trigger": false,
      "metar": "METAR LRCV 071630Z 29017KT CAVOK 16/M01 Q1013",
      "taf": "TAF LRCV 071400Z 0715/0724 29022KT CAVOK"
    },
    {
      "icao": "LRIA",
      "alert": "OK",
      "vis_m": 9999,
      "fzfg": false,
      "metar_trigger": false,
      "taf_trigger": false,
      "metar": "METAR LRIA 071630Z 35008KT 310V020 9999 FEW040CB 11/M03 Q1012",
      "taf": "TAF LRIA 071400Z 0715/0724 30012KT CAVOK"
    },
    {
      "icao": "LROP",
      "alert": "OK",
      "vis_m": 9999,
      "fzfg": false,
      "metar_trigger": false,
      "taf_trigger": false,
      "metar": "METAR LROP 071630Z 27008KT CAVOK 15/M03 Q1012 NOSIG",
      "taf": "TAF LROP 071100Z 0712/0812 26012KT CAVOK"
    },
    {
      "icao": "LRSB",
      "alert": "OK",
      "vis_m": 9999,
      "fzfg": false,
      "metar_trigger": false,
      "taf_trigger": false,
      "metar": "METAR LRSB 071630Z 29015KT CAVOK 12/M06 Q1014",
      "taf": "TAF LRSB 071100Z 0712/0812 32010KT CAVOK"
    },
    {
      "icao": "LRSM",
      "alert": "OK",
      "vis_m": 9999,
      "fzfg": false,
      "metar_trigger": false,
      "taf_trigger": false,
      "metar": "METAR LRSM 071630Z 30009KT CAVOK 14/M06 Q1014",
      "taf": "TAF LRSM 071400Z 0715/0724 32015KT CAVOK"
    },
    {
      "icao": "LRSV",
      "alert": "OK",
      "vis_m": 9999,
      "fzfg": false,
      "metar_trigger": false,
      "taf_trigger": false,
      "metar": "METAR LRSV 071630Z 26014KT 9999 FEW002 SCT035CB 08/M03 Q1011",
      "taf": "TAF LRSV 071400Z 0715/0724 29012KT 9999 SCT045"
    },
    {
      "icao": "LRTM",
      "alert": "OK",
      "vis_m": 9999,
      "fzfg": false,
      "metar_trigger": false,
      "taf_trigger": false,
      "metar": "METAR LRTM 071630Z 30011KT CAVOK 13/M06 Q1013",
      "taf": "TAF LRTM 071400Z 0715/0724 32012KT CAVOK"
    },
    {
      "icao": "LRTR",
      "alert": "OK",
      "vis_m": 9999,
      "fzfg": false,
      "metar_trigger": false,
      "taf_trigger": false,
      "metar": "METAR LRTR 071630Z 31010KT CAVOK 15/M00 Q1016",
      "taf": "TAF LRTR 071100Z 0712/0812 30014KT CAVOK"
    },
    {
      "icao": "LTAC",
      "alert": "OK",
      "vis_m": 9999,
      "fzfg": false,
      "metar_trigger": false,
      "taf_trigger": false,
      "metar": "METAR LTAC 071620Z 33012KT 9999 SCT040 SCT100 11/01 Q1014 NOSIG",
      "taf": "TAF LTAC 071040Z 0712/0812 VRB02KT 9999 SCT040 SCT100"
    },
    {
      "icao": "LTFM",
      "alert": "OK",
      "vis_m": 9999,
      "fzfg": false,
      "metar_trigger": false,
      "taf_trigger": false,
      "metar": "METAR LTFM 071620Z 07010KT 9999 SCT035 BKN100 11/08 Q1015 NOSIG",
      "taf": "TAF LTFM 071040Z 0712/0818 VRB02KT 9999 SCT035 BKN100"
    },
    {
      "icao": "LUKK",
      "alert": "OK",
      "vis_m": 9999,
      "fzfg": false,
      "metar_trigger": false,
      "taf_trigger": false,
      "metar": "METAR LUKK 071630Z 36009KT 9999 SCT037 BKN046CB 08/M01 Q1012 TEMPO 31020G34KT SCT045CB",
      "taf": ""
    },
    {
      "icao": "LWOH",
      "alert": "OK",
      "vis_m": 9999,
      "fzfg": false,
      "metar_trigger": false,
      "taf_trigger": false,
      "metar": "METAR LWOH 071620Z 21008KT 170V280 9999 FEW040 18/05 Q1018",
      "taf": "TAF LWOH 071420Z 0715/0815 27010KT 9999 SCT040"
    },
    {
      "icao": "LWSK",
      "alert": "OK",
      "vis_m": 9999,
      "fzfg": false,
      "metar_trigger": false,
      "taf_trigger": false,
      "metar": "METAR LWSK 071620Z VRB02KT 9999 FEW055 24/08 Q1014 NOSIG",
      "taf": "TAF LWSK 071420Z 0715/0815 VRB02KT 999 FEW060"
    },
    {
      "icao": "LYBE",
      "alert": "OK",
      "vis_m": 9999,
      "fzfg": false,
      "metar_trigger": false,
      "taf_trigger": false,
      "metar": "METAR LYBE 071630Z 30010KT CAVOK 17/04 Q1017 NOSIG",
      "taf": "TAF LYBE 071100Z 0712/0812 30010KT CAVOK TX19/0713Z TN04/0804Z"
    },
    {
      "icao": "LYNI",
      "alert": "OK",
      "vis_m": 9999,
      "fzfg": false,
      "metar_trigger": false,
      "taf_trigger": false,
      "metar": "METAR LYNI 071630Z 31008KT CAVOK 17/04 Q1016 NOSIG",
      "taf": "TAF LYNI 071100Z 0712/0812 29007KT CAVOK TX21/0713Z TN07/0805Z"
    },
    {
      "icao": "LYPG",
      "alert": "OK",
      "vis_m": 9999,
      "fzfg": false,
      "metar_trigger": false,
      "taf_trigger": false,
      "metar": "METAR LYPG 071630Z 12013KT CAVOK 19/10 Q1018 NOSIG",
      "taf": "TAF LYPG 071100Z 0712/0812 16005KT CAVOK TX23/0713Z TN08/0804Z"
    },
    {
      "icao": "LZIB",
      "alert": "OK",
      "vis_m": 9999,
      "fzfg": false,
      "metar_trigger": false,
      "taf_trigger": false,
      "metar": "METAR LZIB 071630Z 34016KT 300V010 CAVOK 16/M06 Q1019 NOSIG",
      "taf": "TAF LZIB 071115Z 0712/0812 30012KT CAVOK"
    },
    {
      "icao": "LZKZ",
      "alert": "OK",
      "vis_m": 9999,
      "fzfg": false,
      "metar_trigger": false,
      "taf_trigger": false,
      "metar": "METAR LZKZ 071630Z 33017KT CAVOK 13/M10 Q1015 NOSIG",
      "taf": ""
    },
    {
      "icao": "LZTT",
      "alert": "OK",
      "vis_m": 9999,
      "fzfg": false,
      "metar_trigger": false,
      "taf_trigger": false,
      "metar": "METAR LZTT 071630Z 31014KT 270V350 9999 FEW033 08/M11 Q1015 NOSIG",
      "taf": "TAF LZTT 071115Z 0712/0812 25014KT 9999 FEW065"
    },
    {
      "icao": "OEJN",
      "alert": "OK",
      "vis_m": 9999,
      "fzfg": false,
      "metar_trigger": false,
      "taf_trigger": false,
      "metar": "METAR OEJN 071600Z 33016KT 9999 BKN040 27/17 Q1012 NOSIG",
      "taf": "TAF OEJN 071100Z 0712/0818 32014KT 7000 FEW040"
    },
    {
      "icao": "OEMA",
      "alert": "OK",
      "vis_m": 9999,
      "fzfg": false,
      "metar_trigger": false,
      "taf_trigger": false,
      "metar": "METAR OEMA 071600Z 31011KT 9999 SCT045 28/M04 Q1017 NOSIG",
      "taf": "TAF OEMA 071100Z 0712/0818 28010KT 9999 FEW045"
    },
    {
      "icao": "OJAI",
      "alert": "OK",
      "vis_m": 5000,
      "fzfg": false,
      "metar_trigger": false,
      "taf_trigger": false,
      "metar": "METAR OJAI 071600Z 28012KT 5000 HZ SCT025 SCT030 12/08 Q1019 NOSIG",
      "taf": "TAF OJAI 071100Z 0712/0818 27012KT 4000 HZ FEW025TCU SCT030"
    },
    {
      "icao": "OMAA",
      "alert": "OK",
      "vis_m": null,
      "fzfg": false,
      "metar_trigger": false,
      "taf_trigger": false,
      "metar": "",
      "taf": ""
    },
    {
      "icao": "OMDB",
      "alert": "OK",
      "vis_m": null,
      "fzfg": false,
      "metar_trigger": false,
      "taf_trigger": false,
      "metar": "",
      "taf": ""
    },
    {
      "icao": "UAAA",
      "alert": "OK",
      "vis_m": 9999,
      "fzfg": false,
      "metar_trigger": false,
      "taf_trigger": false,
      "metar": "METAR UAAA 071630Z 22003MPS 9999 SCT100 17/09 Q1004 NOSIG",
      "taf": "TAF UAAA 071103Z 0712/0812 01002MPS 9999 SCT050CB BKN100 TX25/0810Z TN12/0801Z"
    },
    {
      "icao": "UBBB",
      "alert": "OK",
      "vis_m": 9999,
      "fzfg": false,
      "metar_trigger": false,
      "taf_trigger": false,
      "metar": "METAR UBBB 071630Z 16010KT CAVOK 12/08 Q1009 NOSIG",
      "taf": "TAF UBBB 071049Z 0712/0812 17014KT CAVOK TX16/0712Z TN09/0801Z"
    },
    {
      "icao": "UDSG",
      "alert": "OK",
      "vis_m": 9999,
      "fzfg": false,
      "metar_trigger": false,
      "taf_trigger": false,
      "metar": "METAR UDSG 071630Z 25009KT 9999 -SHRA SCT043CB 05/02 Q1013 NOSIG",
      "taf": "TAF UDSG 071100Z 0712/0812 22006KT 9999 SCT040"
    },
    {
      "icao": "UDYZ",
      "alert": "OK",
      "vis_m": 9999,
      "fzfg": false,
      "metar_trigger": false,
      "taf_trigger": false,
      "metar": "METAR UDYZ 071630Z 17006KT 9999 SCT043CB 13/03 Q1010 NOSIG",
      "taf": "TAF UDYZ 071100Z 0712/0812 23006KT SCT040"
    },
    {
      "icao": "UGKO",
      "alert": "OK",
      "vis_m": 9999,
      "fzfg": false,
      "metar_trigger": false,
      "taf_trigger": false,
      "metar": "METAR UGKO 071630Z 25006KT CAVOK 13/07 Q1009 NOSIG",
      "taf": "TAF UGKO 071100Z 0712/0812 25007KT CAVOK TX20/0712Z TN07/0803Z"
    }
  ]
}