{
  "ts_utc": "2026-01-11T08:45:06Z",
  "threshold_m": 150,
  "source": "stations_override.txt (ICAO list) + aviationweather.gov (METAR/TAF raw)",
  "station_count": 159,
  "stations": [
    {
      "icao": "BIKF",
      "alert": "OK",
      "vis_m": 9999,
      "fzfg": false,
      "metar_trigger": false,
      "taf_trigger": false,
      "metar": "METAR BIKF 110830Z 36008KT CAVOK M03/M06 Q0998",
      "taf": "TAF BIKF 110745Z 1109/1209 36010KT 9999 FEW030 TXM01/1206Z TNM04/1117Z"
    },
    {
      "icao": "BKPR",
      "alert": "OK",
      "vis_m": 9999,
      "fzfg": false,
      "metar_trigger": false,
      "taf_trigger": false,
      "metar": "METAR BKPR 110830Z 02019KT 9999 -SN SCT010 BKN025 M03/M04 Q1011 NOSIG",
      "taf": ""
    },
    {
      "icao": "EBCI",
      "alert": "OK",
      "vis_m": 4000,
      "fzfg": false,
      "metar_trigger": false,
      "taf_trigger": false,
      "metar": "METAR EBCI 110820Z 18007KT 4000 BR BKN006 M03/M04 Q1023 NOSIG",
      "taf": "TAF EBCI 110508Z 1106/1212 18005KT 8000 SCT005 BKN012"
    },
    {
      "icao": "EDDB",
      "alert": "OK",
      "vis_m": 9999,
      "fzfg": false,
      "metar_trigger": false,
      "taf_trigger": false,
      "metar": "METAR EDDB 110820Z AUTO 29009KT CAVOK M06/M10 Q1021 NOSIG",
      "taf": "TAF EDDB 110500Z 1106/1206 30010KT CAVOK"
    },
    {
      "icao": "EDDH",
      "alert": "OK",
      "vis_m": 550,
      "fzfg": true,
      "metar_trigger": false,
      "taf_trigger": false,
      "metar": "METAR EDDH 110820Z AUTO 30003KT 240V350 0550 0350 R23/1200D R15/1000D FZFG OVC002 M11/M12 Q1025 TEMPO 0800",
      "taf": "TAF EDDH 110500Z 1106/1212 VRB03KT CAVOK"
    },
    {
      "icao": "EDDK",
      "alert": "OK",
      "vis_m": 9999,
      "fzfg": false,
      "metar_trigger": false,
      "taf_trigger": false,
      "metar": "METAR EDDK 110820Z AUTO 10005KT 070V140 CAVOK M07/M09 Q1025 NOSIG",
      "taf": "TAF EDDK 110500Z 1106/1212 12006KT CAVOK"
    },
    {
      "icao": "EDDN",
      "alert": "OK",
      "vis_m": 9999,
      "fzfg": false,
      "metar_trigger": false,
      "taf_trigger": false,
      "metar": "METAR EDDN 110820Z AUTO 36001KT CAVOK M11/M12 Q1025 NOSIG",
      "taf": "TAF EDDN 110500Z 1106/1206 32002KT 9999 FEW010"
    },
    {
      "icao": "EDDS",
      "alert": "OK",
      "vis_m": 9999,
      "fzfg": false,
      "metar_trigger": false,
      "taf_trigger": false,
      "metar": "METAR EDDS 110820Z AUTO VRB01KT 9999 OVC012 OVC022 M03/M05 Q1023 TEMPO SCT012",
      "taf": "TAF EDDS 110500Z 1106/1206 VRB03KT 9999 OVC008"
    },
    {
      "icao": "EDFH",
      "alert": "OK",
      "vis_m": 9999,
      "fzfg": false,
      "metar_trigger": false,
      "taf_trigger": false,
      "metar": "METAR EDFH 110820Z 14007KT 9999 BKN010 M07/M08 Q1022",
      "taf": "TAF EDFH 110500Z 1106/1206 15005KT 9999 SCT030"
    },
    {
      "icao": "EDJA",
      "alert": "OK",
      "vis_m": 2700,
      "fzfg": false,
      "metar_trigger": false,
      "taf_trigger": false,
      "metar": "METAR EDJA 110820Z 00000KT 2700 BR OVC004 M04/M05 Q1022",
      "taf": "TAF EDJA 110800Z 1109/1118 24004KT 8000 SCT005 OVC012"
    },
    {
      "icao": "EDLW",
      "alert": "OK",
      "vis_m": 9999,
      "fzfg": false,
      "metar_trigger": false,
      "taf_trigger": false,
      "metar": "METAR EDLW 110820Z 12008KT CAVOK M07/M10 Q1025",
      "taf": "TAF EDLW 110500Z 1106/1206 15005KT CAVOK"
    },
    {
      "icao": "EDNY",
      "alert": "OK",
      "vis_m": 9999,
      "fzfg": false,
      "metar_trigger": false,
      "taf_trigger": false,
      "metar": "METAR EDNY 110820Z 04004KT 9999 OVC018 M01/M03 Q1024",
      "taf": "TAF EDNY 110800Z 1109/1118 VRB03KT 9999 FEW012 BKN020"
    },
    {
      "icao": "EDSB",
      "alert": "OK",
      "vis_m": 8000,
      "fzfg": false,
      "metar_trigger": false,
      "taf_trigger": false,
      "metar": "METAR EDSB 110820Z 04005KT 8000 BKN023 OVC033 M01/M03 Q1026",
      "taf": "TAF EDSB 110500Z 1106/1206 VRB03KT 9999 BKN015"
    },
    {
      "icao": "EETN",
      "alert": "OK",
      "vis_m": 6000,
      "fzfg": false,
      "metar_trigger": false,
      "taf_trigger": false,
      "metar": "METAR EETN 110820Z 05011KT 6000 -SN DRSN SCT012 OVC022 M04/M06 Q1009 TEMPO 2000 SN",
      "taf": "TAF EETN 110530Z 1106/1206 04015KT 2000 SN DRSN BKN010 OVC020"
    },
    {
      "icao": "EFTU",
      "alert": "OK",
      "vis_m": 9999,
      "fzfg": false,
      "metar_trigger": false,
      "taf_trigger": false,
      "metar": "METAR EFTU 110820Z AUTO 02010KT 350V060 9999 -SN FEW016 M07/M10 Q1014",
      "taf": "TAF EFTU 110823Z 1109/1209 02010KT 9999 -SN FEW016"
    },
    {
      "icao": "EGBB",
      "alert": "OK",
      "vis_m": 9999,
      "fzfg": false,
      "metar_trigger": false,
      "taf_trigger": false,
      "metar": "METAR EGBB 110820Z 16015KT 9999 FEW012 OVC034 03/01 Q1013",
      "taf": "TAF EGBB 110506Z 1106/1206 15010KT 9999 FEW015 SCT030"
    },
    {
      "icao": "EGGP",
      "alert": "OK",
      "vis_m": 9999,
      "fzfg": false,
      "metar_trigger": false,
      "taf_trigger": false,
      "metar": "METAR EGGP 110820Z 15015G25KT 9999 -RA BKN012 03/01 Q1008",
      "taf": "TAF EGGP 110458Z 1106/1206 16015G25KT 9999 SCT030"
    },
    {
      "icao": "EGGW",
      "alert": "OK",
      "vis_m": 9999,
      "fzfg": false,
      "metar_trigger": false,
      "taf_trigger": false,
      "metar": "METAR EGGW 110820Z AUTO 15010KT 9999 BKN016 00/M00 Q1016",
      "taf": "TAF EGGW 110505Z 1106/1206 15012KT 9999 FEW012 SCT040"
    },
    {
      "icao": "EGKK",
      "alert": "OK",
      "vis_m": 9999,
      "fzfg": false,
      "metar_trigger": false,
      "taf_trigger": false,
      "metar": "METAR EGKK 110820Z 15006KT 9999 SCT020 03/02 Q1018",
      "taf": "TAF EGKK 110501Z 1106/1212 10005KT 9999 FEW020"
    },
    {
      "icao": "EGNM",
      "alert": "OK",
      "vis_m": 6000,
      "fzfg": false,
      "metar_trigger": false,
      "taf_trigger": false,
      "metar": "METAR EGNM 110820Z 15014KT 6000 -RASN SCT004 BKN006 M00/M01 Q1010",
      "taf": "TAF EGNM 110457Z 1106/1206 15012KT 9999 SCT020"
    },
    {
      "icao": "EGPD",
      "alert": "OK",
      "vis_m": 5000,
      "fzfg": false,
      "metar_trigger": false,
      "taf_trigger": false,
      "metar": "METAR EGPD 110820Z AUTO 17029G40KT 5000 -RA BKN009/// OVC015/// //////CB 03/01 Q1002 RERA TEMPO 4000 RA BKN006",
      "taf": "TAF EGPD 110457Z 1106/1206 17022G38KT 9999 BKN016"
    },
    {
      "icao": "EGPF",
      "alert": "OK",
      "vis_m": 8000,
      "fzfg": false,
      "metar_trigger": false,
      "taf_trigger": false,
      "metar": "METAR EGPF 110820Z 14006KT 090V190 8000 -RA BKN015CB OVC034 05/03 Q1000 RESHRA",
      "taf": ""
    },
    {
      "icao": "EHBK",
      "alert": "OK",
      "vis_m": 9000,
      "fzfg": false,
      "metar_trigger": false,
      "taf_trigger": false,
      "metar": "METAR EHBK 110825Z AUTO 18007KT 150V210 9000 OVC011/// M02/M04 Q1024 NOSIG",
      "taf": "TAF EHBK 110553Z 1106/1212 VRB02KT 7000 BKN010"
    },
    {
      "icao": "EHEH",
      "alert": "OK",
      "vis_m": 8000,
      "fzfg": false,
      "metar_trigger": false,
      "taf_trigger": false,
      "metar": "METAR EHEH 110825Z AUTO 16004KT 120V210 8000 BR OVC015 M04/M06 Q1024 WHT NOSIG RMK TREND REMOTE BY EHWX",
      "taf": "TAF EHEH 102353Z 1100/1206 07004KT CAVOK"
    },
    {
      "icao": "EKBI",
      "alert": "OK",
      "vis_m": 9999,
      "fzfg": false,
      "metar_trigger": false,
      "taf_trigger": false,
      "metar": "METAR EKBI 110820Z AUTO 08002KT 9999 NCD M16/M17 Q1025",
      "taf": "TAF EKBI 110827Z 1109/1209 VRB02KT CAVOK"
    },
    {
      "icao": "EKCH",
      "alert": "OK",
      "vis_m": 9999,
      "fzfg": false,
      "metar_trigger": false,
      "taf_trigger": false,
      "metar": "METAR EKCH 110820Z AUTO 32010KT 9999 NCD M04/M09 Q1022 NOSIG",
      "taf": "TAF EKCH 110827Z 1109/1209 33012KT CAVOK"
    },
    {
      "icao": "ENAL",
      "alert": "OK",
      "vis_m": 9999,
      "fzfg": false,
      "metar_trigger": false,
      "taf_trigger": false,
      "metar": "METAR ENAL 110820Z 14010KT CAVOK 01/M11 Q1016",
      "taf": "TAF ENAL 110800Z 1109/1118 14015KT CAVOK"
    },
    {
      "icao": "ENBR",
      "alert": "OK",
      "vis_m": 9999,
      "fzfg": false,
      "metar_trigger": false,
      "taf_trigger": false,
      "metar": "METAR ENBR 110820Z 13013KT 9999 BKN044 00/M07 Q1017 NOSIG RMK WIND 1200FT 13031KT",
      "taf": ""
    },
    {
      "icao": "ENGM",
      "alert": "OK",
      "vis_m": 9999,
      "fzfg": false,
      "metar_trigger": false,
      "taf_trigger": false,
      "metar": "METAR ENGM 110820Z VRB03KT 9999 OVC004 M18/M21 Q1024 TEMPO SCT004",
      "taf": "TAF ENGM 110500Z 1106/1206 34005KT CAVOK"
    },
    {
      "icao": "ENHD",
      "alert": "OK",
      "vis_m": 9999,
      "fzfg": false,
      "metar_trigger": false,
      "taf_trigger": false,
      "metar": "METAR ENHD 110820Z 13021KT 9999 BKN038 01/M05 Q1018",
      "taf": "TAF ENHD 110800Z 1109/1118 12020KT 9999 BKN040"
    },
    {
      "icao": "ENTC",
      "alert": "OK",
      "vis_m": 9999,
      "fzfg": false,
      "metar_trigger": false,
      "taf_trigger": false,
      "metar": "METAR ENTC 110820Z 23009KT CAVOK M06/M11 Q1020 NOSIG RMK WIND 2600FT 18015KT",
      "taf": "TAF ENTC 110500Z 1106/1206 20005KT CAVOK"
    },
    {
      "icao": "ENTO",
      "alert": "OK",
      "vis_m": 9999,
      "fzfg": false,
      "metar_trigger": false,
      "taf_trigger": false,
      "metar": "METAR ENTO 110820Z 36004KT CAVOK M17/M19 Q1024 TEMPO BKN004",
      "taf": "TAF ENTO 110500Z 1106/1206 36003KT CAVOK"
    },
    {
      "icao": "ENVA",
      "alert": "OK",
      "vis_m": 9999,
      "fzfg": false,
      "metar_trigger": false,
      "taf_trigger": false,
      "metar": "METAR ENVA 110820Z 09002KT CAVOK M12/M15 Q1020 NOSIG RMK WIND 670FT 13008KT",
      "taf": "TAF ENVA 110500Z 1106/1206 11008KT CAVOK"
    },
    {
      "icao": "ENZV",
      "alert": "OK",
      "vis_m": 9999,
      "fzfg": false,
      "metar_trigger": false,
      "taf_trigger": false,
      "metar": "METAR ENZV 110820Z 13017KT CAVOK 00/M06 Q1019 NOSIG",
      "taf": "TAF ENZV 110500Z 1106/1206 13015KT 9999 SCT045"
    },
    {
      "icao": "EPGD",
      "alert": "OK",
      "vis_m": 9999,
      "fzfg": false,
      "metar_trigger": false,
      "taf_trigger": false,
      "metar": "METAR EPGD 110830Z 34009KT 9999 SCT017 M02/M04 Q1009",
      "taf": "TAF EPGD 110530Z 1106/1206 33012KT 3500 -SHSN DRSN BKN012 BKN016CB"
    },
    {
      "icao": "EPKK",
      "alert": "OK",
      "vis_m": 5000,
      "fzfg": false,
      "metar_trigger": false,
      "taf_trigger": false,
      "metar": "METAR EPKK 110830Z 27015KT 5000 -SN DRSN BR FEW010 BKN018 M03/M06 Q1010",
      "taf": "TAF EPKK 110830Z 1109/1209 27015KT 6000 -SN BKN020"
    },
    {
      "icao": "EPKT",
      "alert": "OK",
      "vis_m": 3000,
      "fzfg": false,
      "metar_trigger": false,
      "taf_trigger": false,
      "metar": "METAR EPKT 110830Z 29014KT 3000 SN DRSN FEW009 BKN012 M04/M06 Q1010",
      "taf": "TAF EPKT 110530Z 1106/1206 28012KT 3500 -SN BR BKN014 BKN017"
    },
    {
      "icao": "EPLB",
      "alert": "OK",
      "vis_m": 9000,
      "fzfg": false,
      "metar_trigger": false,
      "taf_trigger": false,
      "metar": "METAR EPLB 110830Z 30007KT 9000 -SN FEW015 BKN020 M06/M08 Q1006",
      "taf": "TAF EPLB 110530Z 1106/1206 29008KT 7000 -SN BKN030"
    },
    {
      "icao": "EPMO",
      "alert": "OK",
      "vis_m": 7000,
      "fzfg": false,
      "metar_trigger": false,
      "taf_trigger": false,
      "metar": "METAR EPMO 110830Z 30007KT 7000 -SN FEW033 BKN039 M04/M06 Q1007",
      "taf": "TAF EPMO 110530Z 1106/1206 30010KT 9999 BKN025"
    },
    {
      "icao": "EPPO",
      "alert": "OK",
      "vis_m": 9999,
      "fzfg": false,
      "metar_trigger": false,
      "taf_trigger": false,
      "metar": "METAR EPPO 110830Z 29011KT 9999 SCT013 OVC040 M03/M06 Q1014",
      "taf": "TAF EPPO 110530Z 1106/1206 30014KT 9999 -SN BKN020"
    },
    {
      "icao": "EPRA",
      "alert": "OK",
      "vis_m": 8000,
      "fzfg": false,
      "metar_trigger": false,
      "taf_trigger": false,
      "metar": "METAR EPRA 110830Z 31008KT 8000 -SN BKN010 BKN020 M04/M06 Q1007",
      "taf": "TAF EPRA 110830Z 1109/1118 31010KT 8000 -SN BKN020"
    },
    {
      "icao": "EPRZ",
      "alert": "OK",
      "vis_m": 3000,
      "fzfg": false,
      "metar_trigger": false,
      "taf_trigger": false,
      "metar": "METAR EPRZ 110830Z 27010KT 3000 -SN BR FEW003 SCT010 BKN031 M04/M06 Q1007",
      "taf": "TAF EPRZ 110530Z 1106/1206 26014KT 6000 -SN BKN014 BKN017"
    },
    {
      "icao": "EPSC",
      "alert": "OK",
      "vis_m": 9999,
      "fzfg": false,
      "metar_trigger": false,
      "taf_trigger": false,
      "metar": "METAR EPSC 110830Z 31012KT 9999 BKN021 M01/M05 Q1017",
      "taf": "TAF EPSC 110530Z 1106/1206 30012KT CAVOK"
    },
    {
      "icao": "EPSY",
      "alert": "OK",
      "vis_m": 9999,
      "fzfg": false,
      "metar_trigger": false,
      "taf_trigger": false,
      "metar": "METAR EPSY 110830Z 33007KT 290V360 9999 -SN SCT008 BKN014 M06/M08 Q1007",
      "taf": "TAF EPSY 110830Z 1109/1118 32007KT 9999 BKN030"
    },
    {
      "icao": "EPWA",
      "alert": "OK",
      "vis_m": 9999,
      "fzfg": false,
      "metar_trigger": false,
      "taf_trigger": false,
      "metar": "METAR EPWA 110830Z 30009KT 9999 -SN NSC M04/M06 Q1007 NOSIG",
      "taf": "TAF EPWA 110830Z 1109/1209 28008KT 9999 BKN025"
    },
    {
      "icao": "EPWR",
      "alert": "OK",
      "vis_m": 8000,
      "fzfg": false,
      "metar_trigger": false,
      "taf_trigger": false,
      "metar": "METAR EPWR 110830Z 28018KT 8000 -SN DRSN BKN017 BKN032 M05/M07 Q1015",
      "taf": "TAF EPWR 110830Z 1109/1209 29015KT 9999 -SN BKN030"
    },
    {
      "icao": "ESGG",
      "alert": "OK",
      "vis_m": 150,
      "fzfg": true,
      "metar_trigger": false,
      "taf_trigger": false,
      "metar": "METAR ESGG 110820Z 02004KT 0150 R03/0550N R21/0600N FZFG VV002 M13/M15 Q1022",
      "taf": "TAF ESGG 110830Z 1109/1209 36006KT CAVOK"
    },
    {
      "icao": "ESKN",
      "alert": "OK",
      "vis_m": 9999,
      "fzfg": false,
      "metar_trigger": false,
      "taf_trigger": false,
      "metar": "METAR ESKN 110820Z 33013KT 9999 FEW015 M08/M10 Q1018",
      "taf": "TAF ESKN 110830Z 1109/1209 34014KT 9999 FEW015"
    },
    {
      "icao": "ESMS",
      "alert": "OK",
      "vis_m": 9999,
      "fzfg": false,
      "metar_trigger": false,
      "taf_trigger": false,
      "metar": "METAR ESMS 110820Z 32009KT CAVOK M09/M12 Q1020",
      "taf": "TAF ESMS 110827Z 1109/1209 32008KT CAVOK"
    },
    {
      "icao": "ESSA",
      "alert": "OK",
      "vis_m": 9999,
      "fzfg": false,
      "metar_trigger": false,
      "taf_trigger": false,
      "metar": "METAR ESSA 110820Z 33014KT CAVOK M07/M08 Q1018 NOSIG",
      "taf": "TAF ESSA 110830Z 1109/1209 33014KT CAVOK"
    },
    {
      "icao": "EYKA",
      "alert": "OK",
      "vis_m": 8000,
      "fzfg": false,
      "metar_trigger": false,
      "taf_trigger": false,
      "metar": "METAR EYKA 110820Z 32003KT 290V350 8000 -SN FEW024 M12/M14 Q1005",
      "taf": "TAF EYKA 110512Z 1106/1206 VRB03KT 5000 SN BKN030"
    },
    {
      "icao": "EYPA",
      "alert": "OK",
      "vis_m": 9999,
      "fzfg": false,
      "metar_trigger": false,
      "taf_trigger": false,
      "metar": "METAR EYPA 110820Z 02009KT 9999 -SN FEW046 M04/M07 Q1007",
      "taf": "TAF EYPA 110511Z 1106/1206 02007KT 7000 BKN030"
    },
    {
      "icao": "EYVI",
      "alert": "OK",
      "vis_m": 6000,
      "fzfg": false,
      "metar_trigger": false,
      "taf_trigger": false,
      "metar": "METAR EYVI 110820Z VRB02KT 6000 -SN NSC M15/M17 Q1003 NOSIG",
      "taf": "TAF EYVI 110503Z 1106/1206 VRB03KT 5000 SN BKN025"
    },
    {
      "icao": "GCFV",
      "alert": "OK",
      "vis_m": 9999,
      "fzfg": false,
      "metar_trigger": false,
      "taf_trigger": false,
      "metar": "METAR GCFV 110830Z 06012KT 9999 FEW025 18/12 Q1025",
      "taf": "TAF GCFV 110800Z 1109/1209 05010KT 9999 FEW020 TX20/1114Z TN13/1206Z"
    },
    {
      "icao": "GCLP",
      "alert": "OK",
      "vis_m": 9999,
      "fzfg": false,
      "metar_trigger": false,
      "taf_trigger": false,
      "metar": "METAR GCLP 110830Z 04011KT 020V080 9999 FEW025 SCT035 18/13 Q1025 NOSIG",
      "taf": "TAF GCLP 110800Z 1109/1209 03014KT 9999 FEW025 TX21/1114Z TN14/1206Z"
    },
    {
      "icao": "GCTS",
      "alert": "OK",
      "vis_m": 9999,
      "fzfg": false,
      "metar_trigger": false,
      "taf_trigger": false,
      "metar": "METAR GCTS 110830Z 01006KT 340V120 9999 FEW040 16/10 Q1025 NOSIG",
      "taf": "TAF GCTS 110800Z 1109/1209 09015KT 9999 SCT040 TX23/1114Z TN16/1206Z"
    },
    {
      "icao": "GMAD",
      "alert": "OK",
      "vis_m": 9999,
      "fzfg": false,
      "metar_trigger": false,
      "taf_trigger": false,
      "metar": "METAR GMAD 110830Z 06007KT CAVOK 08/07 Q1025 NOSIG",
      "taf": "TAF GMAD 110500Z 1106/1212 05006KT CAVOK"
    },
    {
      "icao": "GMMN",
      "alert": "OK",
      "vis_m": 9999,
      "fzfg": false,
      "metar_trigger": false,
      "taf_trigger": false,
      "metar": "METAR GMMN 110830Z 06009KT 9999 FEW023 09/08 Q1027 NOSIG",
      "taf": "TAF GMMN 110500Z 1106/1212 04007KT 9999 SCT023"
    },
    {
      "icao": "GMMX",
      "alert": "OK",
      "vis_m": 9999,
      "fzfg": false,
      "metar_trigger": false,
      "taf_trigger": false,
      "metar": "METAR GMMX 110830Z 08003KT CAVOK 07/05 Q1025 NOSIG",
      "taf": "TAF GMMX 110500Z 1106/1212 06005KT CAVOK"
    },
    {
      "icao": "HEGN",
      "alert": "OK",
      "vis_m": 9999,
      "fzfg": false,
      "metar_trigger": false,
      "taf_trigger": false,
      "metar": "METAR HEGN 110800Z 31008KT CAVOK 19/08 Q1019 NOSIG",
      "taf": "TAF HEGN 110500Z 1106/1212 32015KT CAVOK"
    },
    {
      "icao": "HEMA",
      "alert": "OK",
      "vis_m": 9999,
      "fzfg": false,
      "metar_trigger": false,
      "taf_trigger": false,
      "metar": "METAR HEMA 110800Z 32013KT CAVOK 22/13 Q1018 NOSIG",
      "taf": "TAF HEMA 110500Z 1106/1212 33016KT CAVOK"
    },
    {
      "icao": "HESH",
      "alert": "OK",
      "vis_m": 9999,
      "fzfg": false,
      "metar_trigger": false,
      "taf_trigger": false,
      "metar": "METAR HESH 110800Z 35007KT CAVOK 22/08 Q1019 NOSIG",
      "taf": "TAF HESH 110500Z 1106/1212 34014KT CAVOK"
    },
    {
      "icao": "HESX",
      "alert": "OK",
      "vis_m": 9999,
      "fzfg": false,
      "metar_trigger": false,
      "taf_trigger": false,
      "metar": "METAR HESX 110800Z 24005KT CAVOK 16/07 Q1019 NOSIG",
      "taf": "TAF HESX 110500Z 1106/1212 23009KT CAVOK"
    },
    {
      "icao": "LATI",
      "alert": "OK",
      "vis_m": 9999,
      "fzfg": false,
      "metar_trigger": false,
      "taf_trigger": false,
      "metar": "METAR LATI 110820Z 19004KT 110V260 9999 FEW056 BKN098 06/02 Q1008 NOSIG",
      "taf": "TAF LATI 110500Z 1106/1206 VRB04KT CAVOK TX08/1112Z TNM04/1205Z"
    },
    {
      "icao": "LBPD",
      "alert": "OK",
      "vis_m": 9999,
      "fzfg": false,
      "metar_trigger": false,
      "taf_trigger": false,
      "metar": "METAR LBPD 110830Z AUTO 28019KT 9999 BKN082/// OVC097/// 05/M01 Q1006 NOSIG",
      "taf": "TAF LBPD 110500Z 1106/1206 28015G28KT 9999 SCT020 BKN050"
    },
    {
      "icao": "LBSF",
      "alert": "OK",
      "vis_m": 8000,
      "fzfg": false,
      "metar_trigger": false,
      "taf_trigger": false,
      "metar": "METAR LBSF 110830Z 28016KT 8000 -SN OVC013 M02/M04 Q1008 NOSIG",
      "taf": ""
    },
    {
      "icao": "LBWN",
      "alert": "OK",
      "vis_m": 9999,
      "fzfg": false,
      "metar_trigger": false,
      "taf_trigger": false,
      "metar": "METAR LBWN 110830Z 01006KT 300V050 9999 -SN SCT017 BKN042 M02/M05 Q1009 NOSIG",
      "taf": "TAF LBWN 110500Z 1106/1206 36018G30KT 4000 SN BKN010 OVC020"
    },
    {
      "icao": "LCLK",
      "alert": "OK",
      "vis_m": 9999,
      "fzfg": false,
      "metar_trigger": false,
      "taf_trigger": false,
      "metar": "METAR LCLK 110830Z 21011KT 9999 FEW020 FEW025TCU 20/15 Q1015 NOSIG",
      "taf": ""
    },
    {
      "icao": "LCPH",
      "alert": "OK",
      "vis_m": 9999,
      "fzfg": false,
      "metar_trigger": false,
      "taf_trigger": false,
      "metar": "METAR LCPH 110830Z 23011KT 190V250 9999 FEW030 SCT050 19/13 Q1015 NOSIG",
      "taf": ""
    },
    {
      "icao": "LEAL",
      "alert": "OK",
      "vis_m": 9999,
      "fzfg": false,
      "metar_trigger": false,
      "taf_trigger": false,
      "metar": "METAR LEAL 110830Z 30008KT 270V330 CAVOK 12/01 Q1025 NOSIG",
      "taf": "TAF LEAL 110500Z 1106/1206 29008KT CAVOK TX17/1114Z TN07/1106Z"
    },
    {
      "icao": "LEBB",
      "alert": "OK",
      "vis_m": 9999,
      "fzfg": false,
      "metar_trigger": false,
      "taf_trigger": false,
      "metar": "METAR LEBB 110830Z VRB01KT CAVOK 06/04 Q1023 NOSIG",
      "taf": "TAF LEBB 110500Z 1106/1206 14008KT 9999 FEW040 SCT060 TX14/1114Z TN05/1106Z"
    },
    {
      "icao": "LEBL",
      "alert": "OK",
      "vis_m": 9999,
      "fzfg": false,
      "metar_trigger": false,
      "taf_trigger": false,
      "metar": "METAR LEBL 110830Z 32010G20KT 280V340 9999 FEW050 06/02 Q1024 NOSIG",
      "taf": "TAF LEBL 110500Z 1106/1206 35009KT 9999 FEW020 TX13/1113Z TN05/1106Z"
    },
    {
      "icao": "LECH",
      "alert": "OK",
      "vis_m": 9000,
      "fzfg": false,
      "metar_trigger": false,
      "taf_trigger": false,
      "metar": "METAR LECH 110830Z AUTO VRB01KT 9000 NCD 08/00 Q1024",
      "taf": ""
    },
    {
      "icao": "LEMD",
      "alert": "OK",
      "vis_m": 9999,
      "fzfg": false,
      "metar_trigger": false,
      "taf_trigger": false,
      "metar": "METAR LEMD 110830Z 00000KT 9999 FEW060 M02/M02 Q1027 NOSIG",
      "taf": "TAF LEMD 110500Z 1106/1212 VRB03KT CAVOK TX10/1114Z TNM03/1106Z"
    },
    {
      "icao": "LEMG",
      "alert": "OK",
      "vis_m": 9999,
      "fzfg": false,
      "metar_trigger": false,
      "taf_trigger": false,
      "metar": "METAR LEMG 110830Z 29010KT CAVOK 10/04 Q1026 NOSIG",
      "taf": "TAF LEMG 110500Z 1106/1206 29012KT CAVOK TX17/1114Z TN06/1107Z"
    },
    {
      "icao": "LEVC",
      "alert": "OK",
      "vis_m": 9999,
      "fzfg": false,
      "metar_trigger": false,
      "taf_trigger": false,
      "metar": "METAR LEVC 110830Z 26008KT CAVOK 06/01 Q1025 NOSIG",
      "taf": "TAF LEVC 110500Z 1106/1206 27008KT CAVOK TX16/1114Z TN04/1106Z"
    },
    {
      "icao": "LEXJ",
      "alert": "OK",
      "vis_m": 9999,
      "fzfg": false,
      "metar_trigger": false,
      "taf_trigger": false,
      "metar": "METAR LEXJ 110830Z 16003KT 120V190 9999 SCT041 06/05 Q1022",
      "taf": "TAF LEXJ 110800Z 1109/1209 22009KT 9999 FEW040 SCT070 TX16/1113Z TN12/1208Z"
    },
    {
      "icao": "LEZG",
      "alert": "OK",
      "vis_m": 9999,
      "fzfg": false,
      "metar_trigger": false,
      "taf_trigger": false,
      "metar": "METAR LEZG 110830Z 31003KT 210V010 CAVOK 06/01 Q1025 NOSIG",
      "taf": "TAF LEZG 110500Z 1106/1206 24009KT 9999 FEW020 TX12/1115Z TN03/1106Z"
    },
    {
      "icao": "LEZL",
      "alert": "OK",
      "vis_m": 9999,
      "fzfg": false,
      "metar_trigger": false,
      "taf_trigger": false,
      "metar": "METAR LEZL 110830Z VRB02KT CAVOK 06/05 Q1028 NOSIG",
      "taf": "TAF LEZL 110800Z 1109/1209 06004KT CAVOK TX16/1115Z TN05/1207Z"
    },
    {
      "icao": "LFBD",
      "alert": "OK",
      "vis_m": 400,
      "fzfg": false,
      "metar_trigger": false,
      "taf_trigger": false,
      "metar": "METAR LFBD 110830Z AUTO 13006KT 0400 0350 R23/0450N R05/0750N R29/0500D FG VV/// 02/01 Q1024",
      "taf": ""
    },
    {
      "icao": "LFLL",
      "alert": "OK",
      "vis_m": 9999,
      "fzfg": false,
      "metar_trigger": false,
      "taf_trigger": false,
      "metar": "METAR LFLL 110830Z 32006KT 9999 SCT040 02/M00 Q1024 NOSIG",
      "taf": "TAF LFLL 110500Z 1106/1212 34005KT 9999 BKN028"
    },
    {
      "icao": "LFLS",
      "alert": "OK",
      "vis_m": 9999,
      "fzfg": false,
      "metar_trigger": false,
      "taf_trigger": false,
      "metar": "METAR LFLS 110830Z AUTO VRB02KT 9999 FEW013 M01/M02 Q1023",
      "taf": "TAF LFLS 110200Z 1103/1203 33008KT 9999 FEW013 BKN030"
    },
    {
      "icao": "LFMN",
      "alert": "OK",
      "vis_m": 9999,
      "fzfg": false,
      "metar_trigger": false,
      "taf_trigger": false,
      "metar": "METAR LFMN 110830Z 34008KT CAVOK 07/M08 Q1017 NOSIG",
      "taf": "TAF LFMN 110800Z 1109/1215 33010KT CAVOK"
    },
    {
      "icao": "LFOB",
      "alert": "OK",
      "vis_m": 9999,
      "fzfg": false,
      "metar_trigger": false,
      "taf_trigger": false,
      "metar": "METAR LFOB 110830Z AUTO 13005KT CAVOK M01/M01 Q1023 NOSIG",
      "taf": "TAF LFOB 110500Z 1106/1206 18008KT 9999 BKN020"
    },
    {
      "icao": "LFPO",
      "alert": "OK",
      "vis_m": 9999,
      "fzfg": false,
      "metar_trigger": false,
      "taf_trigger": false,
      "metar": "METAR LFPO 110830Z AUTO 17005KT CAVOK M00/M01 Q1023",
      "taf": "TAF LFPO 110500Z 1106/1212 19005KT CAVOK"
    },
    {
      "icao": "LFSB",
      "alert": "OK",
      "vis_m": 9999,
      "fzfg": false,
      "metar_trigger": false,
      "taf_trigger": false,
      "metar": "METAR LFSB 110830Z AUTO 00000KT 9999 OVC009 00/M01 Q1025 NOSIG",
      "taf": ""
    },
    {
      "icao": "LGAV",
      "alert": "OK",
      "vis_m": 9999,
      "fzfg": false,
      "metar_trigger": false,
      "taf_trigger": false,
      "metar": "METAR LGAV 110820Z 25013KT 9999 FEW020 11/03 Q1005 NOSIG",
      "taf": "TAF LGAV 110500Z 1106/1206 24012KT 9999 SCT025 SCT070"
    },
    {
      "icao": "LGTS",
      "alert": "OK",
      "vis_m": 9999,
      "fzfg": false,
      "metar_trigger": false,
      "taf_trigger": false,
      "metar": "METAR LGTS 110820Z 32013G23KT 9999 SCT030 07/01 Q1005 NOSIG",
      "taf": "TAF LGTS 110500Z 1106/1206 34015KT 9999 SCT030"
    },
    {
      "icao": "LHBP",
      "alert": "OK",
      "vis_m": 9999,
      "fzfg": false,
      "metar_trigger": false,
      "taf_trigger": false,
      "metar": "METAR LHBP 110830Z 30010KT 9999 DRSN NSC M06/M09 Q1015 NOSIG",
      "taf": "TAF LHBP 110515Z 1106/1206 30012KT CAVOK"
    },
    {
      "icao": "LHDC",
      "alert": "OK",
      "vis_m": null,
      "fzfg": false,
      "metar_trigger": false,
      "taf_trigger": false,
      "metar": "",
      "taf": "TAF LHDC 110815Z 1109/1118 21007KT CAVOK"
    },
    {
      "icao": "LIBD",
      "alert": "OK",
      "vis_m": 9999,
      "fzfg": false,
      "metar_trigger": false,
      "taf_trigger": false,
      "metar": "METAR LIBD 110820Z 29007KT 260V320 9999 SCT015 BKN030 07/03 Q1011",
      "taf": "TAF LIBD 110500Z 1106/1206 29014KT 9999 FEW040"
    },
    {
      "icao": "LIBG",
      "alert": "OK",
      "vis_m": 9999,
      "fzfg": false,
      "metar_trigger": false,
      "taf_trigger": false,
      "metar": "METAR LIBG 110750Z 27005KT 240V310 CAVOK 06/05 Q1009",
      "taf": "TAF LIBG 110800Z 1109/1118 32012KT 9999 SCT040"
    },
    {
      "icao": "LIBP",
      "alert": "OK",
      "vis_m": 9999,
      "fzfg": false,
      "metar_trigger": false,
      "taf_trigger": false,
      "metar": "METAR LIBP 110820Z AUTO 08008KT 9999 BKN049/// 06/01 Q1016",
      "taf": "TAF LIBP 110500Z 1106/1206 23007KT 9999 SCT040"
    },
    {
      "icao": "LIBR",
      "alert": "OK",
      "vis_m": 9999,
      "fzfg": false,
      "metar_trigger": false,
      "taf_trigger": false,
      "metar": "METAR LIBR 110820Z 29015KT 9999 SCT045 08/04 Q1008",
      "taf": ""
    },
    {
      "icao": "LICA",
      "alert": "OK",
      "vis_m": 9999,
      "fzfg": false,
      "metar_trigger": false,
      "taf_trigger": false,
      "metar": "METAR LICA 110820Z AUTO 09004KT 9999 NCD 09/06 Q1011",
      "taf": "TAF LICA 110500Z 1106/1206 VRB05KT 9999 SCT020"
    },
    {
      "icao": "LICC",
      "alert": "OK",
      "vis_m": 9999,
      "fzfg": false,
      "metar_trigger": false,
      "taf_trigger": false,
      "metar": "METAR LICC 110820Z 26006KT 9999 FEW100 09/05 Q1012",
      "taf": "TAF LICC 110500Z 1106/1206 26017KT 9999 SCT040"
    },
    {
      "icao": "LICJ",
      "alert": "OK",
      "vis_m": 9999,
      "fzfg": false,
      "metar_trigger": false,
      "taf_trigger": false,
      "metar": "METAR LICJ 110820Z 02015KT 9999 SCT035 BKN045 11/07 Q1013",
      "taf": "TAF LICJ 110500Z 1106/1206 30020G30KT 9999 SCT030"
    },
    {
      "icao": "LIMC",
      "alert": "OK",
      "vis_m": 9999,
      "fzfg": false,
      "metar_trigger": false,
      "taf_trigger": false,
      "metar": "METAR LIMC 110820Z 29004KT 250V350 CAVOK 04/M06 Q1017 NOSIG",
      "taf": "TAF LIMC 110500Z 1106/1212 01007KT CAVOK"
    },
    {
      "icao": "LIME",
      "alert": "OK",
      "vis_m": 9999,
      "fzfg": false,
      "metar_trigger": false,
      "taf_trigger": false,
      "metar": "METAR LIME 110820Z 36005KT CAVOK 02/M09 Q1016 NOSIG",
      "taf": "TAF LIME 110500Z 1106/1206 VRB06KT CAVOK"
    },
    {
      "icao": "LIMF",
      "alert": "OK",
      "vis_m": 9999,
      "fzfg": false,
      "metar_trigger": false,
      "taf_trigger": false,
      "metar": "METAR LIMF 110820Z VRB02KT CAVOK 01/M08 Q1017",
      "taf": "TAF LIMF 110500Z 1106/1206 VRB05KT CAVOK"
    },
    {
      "icao": "LIMJ",
      "alert": "OK",
      "vis_m": 9999,
      "fzfg": false,
      "metar_trigger": false,
      "taf_trigger": false,
      "metar": "METAR LIMJ 110820Z 08009KT 060V120 CAVOK 09/M09 Q1016",
      "taf": "TAF LIMJ 110500Z 1106/1206 03012KT CAVOK"
    },
    {
      "icao": "LIPE",
      "alert": "OK",
      "vis_m": 9999,
      "fzfg": false,
      "metar_trigger": false,
      "taf_trigger": false,
      "metar": "METAR LIPE 110820Z 21003KT CAVOK 01/M04 Q1016",
      "taf": "TAF LIPE 110500Z 1106/1206 VRB06KT CAVOK"
    },
    {
      "icao": "LIPH",
      "alert": "OK",
      "vis_m": 9999,
      "fzfg": false,
      "metar_trigger": false,
      "taf_trigger": false,
      "metar": "METAR LIPH 110820Z 06005KT CAVOK 01/M02 Q1016",
      "taf": "TAF LIPH 110500Z 1106/1206 VRB05KT CAVOK"
    },
    {
      "icao": "LIPQ",
      "alert": "OK",
      "vis_m": 9999,
      "fzfg": false,
      "metar_trigger": false,
      "taf_trigger": false,
      "metar": "METAR LIPQ 110820Z AUTO VRB02KT 9999 FEW240/// M00/M02 Q1017",
      "taf": "TAF LIPQ 110500Z 1106/1206 VRB05KT CAVOK"
    },
    {
      "icao": "LIPR",
      "alert": "OK",
      "vis_m": 9999,
      "fzfg": false,
      "metar_trigger": false,
      "taf_trigger": false,
      "metar": "METAR LIPR 110820Z 24004KT 190V300 9999 -SHGS FEW030TCU BKN040 04/M00 Q1016 RESHGS",
      "taf": "TAF LIPR 110500Z 1106/1206 28010KT 9999 FEW040"
    },
    {
      "icao": "LIPX",
      "alert": "OK",
      "vis_m": 9999,
      "fzfg": false,
      "metar_trigger": false,
      "taf_trigger": false,
      "metar": "METAR LIPX 110820Z VRB02KT CAVOK 01/M04 Q1016",
      "taf": "TAF LIPX 110500Z 1106/1206 VRB05KT CAVOK"
    },
    {
      "icao": "LIPY",
      "alert": "OK",
      "vis_m": 9999,
      "fzfg": false,
      "metar_trigger": false,
      "taf_trigger": false,
      "metar": "METAR LIPY 110820Z AUTO VRB02KT 9999 SCT058/// 04/01 Q1016",
      "taf": "TAF LIPY 110500Z 1106/1206 28007KT 9999 FEW040"
    },
    {
      "icao": "LIPZ",
      "alert": "OK",
      "vis_m": 9999,
      "fzfg": false,
      "metar_trigger": false,
      "taf_trigger": false,
      "metar": "METAR LIPZ 110820Z 07005KT 030V090 CAVOK 01/M02 Q1016 NOSIG",
      "taf": "TAF LIPZ 110500Z 1106/1212 VRB05KT CAVOK"
    },
    {
      "icao": "LIRF",
      "alert": "OK",
      "vis_m": 9999,
      "fzfg": false,
      "metar_trigger": false,
      "taf_trigger": false,
      "metar": "METAR LIRF 110820Z 04004KT CAVOK 03/01 Q1014 NOSIG",
      "taf": "TAF LIRF 110500Z 1106/1212 03007KT 9999 SCT030"
    },
    {
      "icao": "LIRN",
      "alert": "OK",
      "vis_m": 9999,
      "fzfg": false,
      "metar_trigger": false,
      "taf_trigger": false,
      "metar": "METAR LIRN 110820Z VRB01KT CAVOK 04/01 Q1013 NOSIG",
      "taf": "TAF LIRN 110500Z 1106/1206 05005KT 9999 SCT030"
    },
    {
      "icao": "LIRP",
      "alert": "OK",
      "vis_m": 9999,
      "fzfg": false,
      "metar_trigger": false,
      "taf_trigger": false,
      "metar": "METAR LIRP 110815Z 12004KT CAVOK 00/M00 Q1015 NOSIG",
      "taf": "TAF LIRP 110500Z 1106/1206 10005KT CAVOK"
    },
    {
      "icao": "LIRZ",
      "alert": "OK",
      "vis_m": 9999,
      "fzfg": false,
      "metar_trigger": false,
      "taf_trigger": false,
      "metar": "METAR LIRZ 110820Z AUTO VRB02KT 9999 NCD 01/M01 Q1015",
      "taf": "TAF LIRZ 110500Z 1106/1206 VRB05KT 9999 FEW030"
    },
    {
      "icao": "LJLJ",
      "alert": "OK",
      "vis_m": 9999,
      "fzfg": false,
      "metar_trigger": false,
      "taf_trigger": false,
      "metar": "METAR LJLJ 110830Z 15004KT 140V210 9999 FEW003 BKN027 M03/M07 Q1019 NOSIG",
      "taf": ""
    },
    {
      "icao": "LKMT",
      "alert": "OK",
      "vis_m": 4500,
      "fzfg": false,
      "metar_trigger": false,
      "taf_trigger": false,
      "metar": "METAR LKMT 110830Z 23010KT 4500 SN FEW015 OVC027 M05/M07 Q1014 NOSIG",
      "taf": "TAF LKMT 110500Z 1106/1206 34012KT 9999 BKN030"
    },
    {
      "icao": "LKPR",
      "alert": "OK",
      "vis_m": 9999,
      "fzfg": false,
      "metar_trigger": false,
      "taf_trigger": false,
      "metar": "METAR LKPR 110830Z 26013KT CAVOK M07/M11 Q1020 NOSIG",
      "taf": "TAF LKPR 110800Z 1109/1215 28012KT CAVOK"
    },
    {
      "icao": "LLBG",
      "alert": "OK",
      "vis_m": 9999,
      "fzfg": false,
      "metar_trigger": false,
      "taf_trigger": false,
      "metar": "METAR LLBG 110820Z VRB03KT CAVOK 19/07 Q1018 NOSIG",
      "taf": "TAF LLBG 110501Z 1106/1206 VRB04KT CAVOK"
    },
    {
      "icao": "LMML",
      "alert": "OK",
      "vis_m": 9999,
      "fzfg": false,
      "metar_trigger": false,
      "taf_trigger": false,
      "metar": "METAR LMML 110815Z 28018G30KT 9999 FEW027TCU 12/05 Q1015 NOSIG",
      "taf": "TAF LMML 110500Z 1106/1206 30028G38KT 9999 FEW015 SCT045"
    },
    {
      "icao": "LOWW",
      "alert": "OK",
      "vis_m": 9999,
      "fzfg": false,
      "metar_trigger": false,
      "taf_trigger": false,
      "metar": "METAR LOWW 110820Z 31018KT 9999 FEW022 SCT050 M03/M08 Q1019 NOSIG",
      "taf": "TAF LOWW 110815Z 1109/1215 30015G25KT 9999 FEW020 BKN040 TXM03/1113Z TNM08/1207Z"
    },
    {
      "icao": "LPFR",
      "alert": "OK",
      "vis_m": 9999,
      "fzfg": false,
      "metar_trigger": false,
      "taf_trigger": false,
      "metar": "METAR LPFR 110830Z 03005KT CAVOK 08/06 Q1028",
      "taf": "TAF LPFR 110500Z 1106/1206 VRB02KT CAVOK"
    },
    {
      "icao": "LPMA",
      "alert": "OK",
      "vis_m": 9999,
      "fzfg": false,
      "metar_trigger": false,
      "taf_trigger": false,
      "metar": "METAR LPMA 110830Z VRB02KT 9999 FEW015 BKN025 14/11 Q1027",
      "taf": "TAF LPMA 110500Z 1106/1206 VRB05KT 9999 SCT015"
    },
    {
      "icao": "LPPR",
      "alert": "OK",
      "vis_m": 9999,
      "fzfg": false,
      "metar_trigger": false,
      "taf_trigger": false,
      "metar": "METAR LPPR 110830Z 17015KT 9999 -DZ BKN005 BKN011 12/11 Q1024",
      "taf": "TAF LPPR 110500Z 1106/1206 18012KT 8000 -RA SCT006 BKN015"
    },
    {
      "icao": "LPPS",
      "alert": "OK",
      "vis_m": 9999,
      "fzfg": false,
      "metar_trigger": false,
      "taf_trigger": false,
      "metar": "METAR LPPS 110830Z 33003KT 9999 FEW013 13/12 Q1028",
      "taf": "TAF LPPS 110500Z 1106/1212 VRB05KT 9999 SCT015"
    },
    {
      "icao": "LPPT",
      "alert": "OK",
      "vis_m": 1500,
      "fzfg": false,
      "metar_trigger": false,
      "taf_trigger": false,
      "metar": "METAR LPPT 110830Z 00000KT 1500 -DZ BR FEW001 BKN003 10/10 Q1027",
      "taf": ""
    },
    {
      "icao": "LQBK",
      "alert": "OK",
      "vis_m": 9999,
      "fzfg": false,
      "metar_trigger": false,
      "taf_trigger": false,
      "metar": "METAR LQBK 110830Z 15005KT CAVOK M05/M08 Q1021 NOSIG",
      "taf": "TAF LQBK 110500Z 1106/1206 29007KT 9999 SCT040 TXM01/1113Z TNM12/1206Z"
    },
    {
      "icao": "LQSA",
      "alert": "OK",
      "vis_m": 9999,
      "fzfg": false,
      "metar_trigger": false,
      "taf_trigger": false,
      "metar": "METAR LQSA 110830Z 32009KT 290V350 9999 SCT040 M04/M08 Q1016 NOSIG",
      "taf": "TAF LQSA 110500Z 1106/1206 29006KT 9999 BKN020 TXM02/1106Z TNM14/1206Z"
    },
    {
      "icao": "LQTZ",
      "alert": "OK",
      "vis_m": 9999,
      "fzfg": false,
      "metar_trigger": false,
      "taf_trigger": false,
      "metar": "METAR LQTZ 110830Z 28009KT 9999 SCT026 BKN050 M05/M08 Q1019",
      "taf": "TAF LQTZ 110500Z 1106/1206 34007KT 9999 SCT010 BKN025 TXM01/1113Z TNM13/1206Z"
    },
    {
      "icao": "LRBC",
      "alert": "OK",
      "vis_m": 9999,
      "fzfg": false,
      "metar_trigger": false,
      "taf_trigger": false,
      "metar": "METAR LRBC 110830Z 35004KT 9999 BKN055 M06/M13 Q1009",
      "taf": "TAF LRBC 110800Z 1109/1118 33006KT 9999 BKN045"
    },
    {
      "icao": "LRBS",
      "alert": "OK",
      "vis_m": 2800,
      "fzfg": false,
      "metar_trigger": false,
      "taf_trigger": false,
      "metar": "METAR LRBS 110830Z 06004KT 2800 -SN BR SCT010 OVC032 M05/M07 Q1011 BECMG 5000",
      "taf": ""
    },
    {
      "icao": "LRBV",
      "alert": "OK",
      "vis_m": 4400,
      "fzfg": false,
      "metar_trigger": false,
      "taf_trigger": false,
      "metar": "METAR LRBV 110830Z 31027G38KT 4400 BLSN FEW022 SCT040 BKN065 M07/M10 Q1007",
      "taf": "TAF LRBV 110800Z 1109/1118 30015KT 5000 -SN OVC035"
    },
    {
      "icao": "LRCL",
      "alert": "OK",
      "vis_m": 9999,
      "fzfg": false,
      "metar_trigger": false,
      "taf_trigger": false,
      "metar": "METAR LRCL 110830Z 27008KT 9999 SCT043 M05/M10 Q1011",
      "taf": "TAF LRCL 110800Z 1109/1118 30008KT CAVOK"
    },
    {
      "icao": "LRCV",
      "alert": "OK",
      "vis_m": 2800,
      "fzfg": false,
      "metar_trigger": false,
      "taf_trigger": false,
      "metar": "METAR LRCV 110830Z 19004KT 150V230 2800 SN BR OVC002 M01/M01 Q1008",
      "taf": "TAF LRCV 110800Z 1109/1118 VRB04KT 5000 BR BKN005 OVC025"
    },
    {
      "icao": "LRIA",
      "alert": "OK",
      "vis_m": 9999,
      "fzfg": false,
      "metar_trigger": false,
      "taf_trigger": false,
      "metar": "METAR LRIA 110830Z 28005KT 250V310 CAVOK M06/M12 Q1008",
      "taf": "TAF LRIA 110800Z 1109/1118 26006KT CAVOK"
    },
    {
      "icao": "LROP",
      "alert": "OK",
      "vis_m": 2900,
      "fzfg": false,
      "metar_trigger": false,
      "taf_trigger": false,
      "metar": "METAR LROP 110830Z 10007KT 2900 -SN BR FEW007 SCT010 OVC030 M06/M07 Q1010 BECMG 5000",
      "taf": ""
    },
    {
      "icao": "LRSB",
      "alert": "OK",
      "vis_m": 9999,
      "fzfg": false,
      "metar_trigger": false,
      "taf_trigger": false,
      "metar": "METAR LRSB 110830Z 04006KT 9999 FEW029 BKN033 OVC055 M05/M10 Q1011",
      "taf": "TAF LRSB 110500Z 1106/1206 35008KT 9999 BKN030"
    },
    {
      "icao": "LRSM",
      "alert": "OK",
      "vis_m": 9999,
      "fzfg": false,
      "metar_trigger": false,
      "taf_trigger": false,
      "metar": "METAR LRSM 110830Z 15003KT 9999 BKN017 M10/M14 Q1013",
      "taf": "TAF LRSM 110800Z 1109/1118 25005KT 9999 BKN040"
    },
    {
      "icao": "LRSV",
      "alert": "OK",
      "vis_m": 9999,
      "fzfg": false,
      "metar_trigger": false,
      "taf_trigger": false,
      "metar": "METAR LRSV 110830Z 32005KT 290V350 9999 BKN045 M06/M12 Q1006",
      "taf": "TAF LRSV 110800Z 1109/1118 25006KT 9999 BKN040"
    },
    {
      "icao": "LRTM",
      "alert": "OK",
      "vis_m": 9999,
      "fzfg": false,
      "metar_trigger": false,
      "taf_trigger": false,
      "metar": "METAR LRTM 110830Z 09004KT CAVOK M09/M15 Q1011",
      "taf": "TAF LRTM 110800Z 1109/1118 VRB04KT CAVOK"
    },
    {
      "icao": "LRTR",
      "alert": "OK",
      "vis_m": 9999,
      "fzfg": false,
      "metar_trigger": false,
      "taf_trigger": false,
      "metar": "METAR LRTR 110830Z 28007KT 9999 BKN013 M08/M12 Q1016",
      "taf": "TAF LRTR 110500Z 1106/1206 34015KT 9999 BKN040"
    },
    {
      "icao": "LTAC",
      "alert": "OK",
      "vis_m": 9999,
      "fzfg": false,
      "metar_trigger": false,
      "taf_trigger": false,
      "metar": "METAR LTAC 110820Z 28007KT 9999 -SHRA BKN035 BKN080 05/03 Q1006 NOSIG RMK RWY21C 27012KT RWY03L 28007KT RWY21R 26010KT RWY03R 25009KT RWY21L 27009KT",
      "taf": "TAF LTAC 110440Z 1106/1206 21012KT 9999 SCT040 BKN100"
    },
    {
      "icao": "LTFM",
      "alert": "OK",
      "vis_m": 9999,
      "fzfg": false,
      "metar_trigger": false,
      "taf_trigger": false,
      "metar": "METAR LTFM 110820Z 36018KT 9999 -SHRA SCT012 BKN025 05/03 Q1005 NOSIG RMK RWY17L 36017KT RWY34L 36017KT RWY16R 36016KT RWY36 36018KT RWY18 36017KT",
      "taf": "TAF LTFM 110440Z 1106/1212 01014KT 9999 -SHRA SCT035 BKN100"
    },
    {
      "icao": "LUKK",
      "alert": "OK",
      "vis_m": 9999,
      "fzfg": false,
      "metar_trigger": false,
      "taf_trigger": false,
      "metar": "METAR LUKK 110830Z 33011KT CAVOK M09/M14 Q1007 NOSIG",
      "taf": "TAF LUKK 110503Z 1106/1206 34012KT 9999 BKN030"
    },
    {
      "icao": "LWOH",
      "alert": "OK",
      "vis_m": 9000,
      "fzfg": false,
      "metar_trigger": false,
      "taf_trigger": false,
      "metar": "METAR LWOH 110823Z COR 31008KT 9000 -SN OVC011 M00/M01 Q1006",
      "taf": "TAF LWOH 110530Z 1106/1206 36012KT 9999 SCT025 BKN040 OVC060"
    },
    {
      "icao": "LWSK",
      "alert": "OK",
      "vis_m": 9999,
      "fzfg": false,
      "metar_trigger": false,
      "taf_trigger": false,
      "metar": "METAR LWSK 110820Z 02016KT 9999 SCT020 BKN035 BKN075 01/M02 Q1011 NOSIG",
      "taf": "TAF LWSK 110530Z 1106/1206 02015KT 9999 FEW020 BKN040 OVC070"
    },
    {
      "icao": "LYBE",
      "alert": "OK",
      "vis_m": 6000,
      "fzfg": false,
      "metar_trigger": false,
      "taf_trigger": false,
      "metar": "METAR LYBE 110830Z 27013KT 6000 FEW012 M05/M06 Q1017 NOSIG",
      "taf": "TAF LYBE 110500Z 1106/1206 35012KT 9999 SCT010 BKN030 TXM03/1112Z TNM05/1106Z"
    },
    {
      "icao": "LYNI",
      "alert": "OK",
      "vis_m": 2700,
      "fzfg": false,
      "metar_trigger": false,
      "taf_trigger": false,
      "metar": "METAR LYNI 110830Z 31010KT 270V350 2700 SN SCT008 BKN017 OVC027 M03/M04 Q1014 NOSIG",
      "taf": ""
    },
    {
      "icao": "LYPG",
      "alert": "OK",
      "vis_m": 9999,
      "fzfg": false,
      "metar_trigger": false,
      "taf_trigger": false,
      "metar": "METAR LYPG 110830Z 36017KT 9999 FEW040 07/M05 Q1009 NOSIG",
      "taf": "TAF LYPG 110500Z 1106/1206 36015KT 9999 FEW050 SCT080 TX09/1112Z TNM01/1205Z"
    },
    {
      "icao": "LZIB",
      "alert": "OK",
      "vis_m": 9999,
      "fzfg": false,
      "metar_trigger": false,
      "taf_trigger": false,
      "metar": "METAR LZIB 110830Z 30013KT 260V330 9999 SCT029 M02/M08 Q1018 NOSIG",
      "taf": "TAF LZIB 110515Z 1106/1206 29015KT 9999 SCT030"
    },
    {
      "icao": "LZKZ",
      "alert": "OK",
      "vis_m": 9999,
      "fzfg": false,
      "metar_trigger": false,
      "taf_trigger": false,
      "metar": "METAR LZKZ 110830Z VRB01KT 9999 FEW046 M11/M14 Q1011 NOSIG",
      "taf": "TAF LZKZ 110515Z 1106/1206 22005KT CAVOK"
    },
    {
      "icao": "LZTT",
      "alert": "OK",
      "vis_m": 9999,
      "fzfg": false,
      "metar_trigger": false,
      "taf_trigger": false,
      "metar": "METAR LZTT 110830Z 27017KT 9999 -SN DRSN FEW014 OVC040 M06/M10 Q1006 NOSIG",
      "taf": "TAF LZTT 110515Z 1106/1206 27018KT 9999 -SN DRSN FEW013 BKN030"
    },
    {
      "icao": "OEJN",
      "alert": "OK",
      "vis_m": 7000,
      "fzfg": false,
      "metar_trigger": false,
      "taf_trigger": false,
      "metar": "METAR OEJN 110800Z 12003KT 7000 NSC 28/07 Q1016 NOSIG",
      "taf": "TAF OEJN 110500Z 1106/1212 26008KT 7000 FEW040"
    },
    {
      "icao": "OEMA",
      "alert": "OK",
      "vis_m": 9999,
      "fzfg": false,
      "metar_trigger": false,
      "taf_trigger": false,
      "metar": "METAR OEMA 110800Z 09010KT CAVOK 19/02 Q1024 NOSIG",
      "taf": "TAF OEMA 110500Z 1106/1212 10012KT 7000 FEW040"
    },
    {
      "icao": "OJAI",
      "alert": "OK",
      "vis_m": 5000,
      "fzfg": false,
      "metar_trigger": false,
      "taf_trigger": false,
      "metar": "METAR OJAI 110800Z 14004KT 5000 HZ NSC 11/06 Q1021 NOSIG",
      "taf": "TAF OJAI 110500Z 1106/1212 14006KT 3000 BR NSC"
    },
    {
      "icao": "OMAA",
      "alert": "OK",
      "vis_m": 9999,
      "fzfg": false,
      "metar_trigger": false,
      "taf_trigger": false,
      "metar": "METAR OMAA 110800Z 31003KT 280V350 CAVOK 24/10 Q1021 NOSIG",
      "taf": "TAF OMAA 110500Z 1106/1212 VRB02KT 8000 NSC"
    },
    {
      "icao": "OMDB",
      "alert": "OK",
      "vis_m": 9999,
      "fzfg": false,
      "metar_trigger": false,
      "taf_trigger": false,
      "metar": "METAR OMDB 110830Z VRB03KT CAVOK 26/09 Q1021 BECMG 30010KT",
      "taf": "TAF OMDB 110500Z 1106/1212 16005KT 8000 NSC"
    },
    {
      "icao": "UAAA",
      "alert": "OK",
      "vis_m": 3500,
      "fzfg": false,
      "metar_trigger": false,
      "taf_trigger": false,
      "metar": "METAR UAAA 110830Z VRB01MPS 3500 FU SCT100 BKN200 06/M03 Q1017 NOSIG",
      "taf": "TAF UAAA 110508Z 1106/1206 03003G08MPS 3100 BR FU SCT050CB BKN100 TX06/1109Z TNM04/1201Z"
    },
    {
      "icao": "UBBB",
      "alert": "OK",
      "vis_m": 9999,
      "fzfg": false,
      "metar_trigger": false,
      "taf_trigger": false,
      "metar": "METAR UBBB 110830Z 20026KT CAVOK 10/03 Q1014 NOSIG",
      "taf": "TAF UBBB 110504Z 1106/1206 17018G28KT 9999 SCT008 BKN025 TX12/1110Z TN05/1202Z"
    },
    {
      "icao": "UDSG",
      "alert": "OK",
      "vis_m": 9999,
      "fzfg": false,
      "metar_trigger": false,
      "taf_trigger": false,
      "metar": "METAR UDSG 110830Z 27001KT 9999 BKN043 M08/M12 Q1021 NOSIG",
      "taf": "TAF UDSG 110458Z 1106/1206 VRB06KT 9999 SCT040"
    },
    {
      "icao": "UDYZ",
      "alert": "OK",
      "vis_m": 3900,
      "fzfg": false,
      "metar_trigger": false,
      "taf_trigger": false,
      "metar": "METAR UDYZ 110830Z 08002KT 3900 BR SCT046 M01/M04 Q1022 NOSIG",
      "taf": "TAF UDYZ 110500Z 1106/1206 VRB06KT 3500 BR FEW030"
    },
    {
      "icao": "UGKO",
      "alert": "OK",
      "vis_m": 9999,
      "fzfg": false,
      "metar_trigger": false,
      "taf_trigger": false,
      "metar": "METAR UGKO 110830Z 08023G37KT CAVOK 12/M03 Q1011 NOSIG",
      "taf": "TAF UGKO 110500Z 1106/1206 08017KT CAVOK TX14/1111Z TN09/1106Z"
    }
  ]
}