{
  "ts_utc": "2026-01-23T05:29:49Z",
  "threshold_m": 150,
  "source": "stations_override.txt (ICAO list) + aviationweather.gov (METAR/TAF raw)",
  "station_count": 159,
  "stations": [
    {
      "icao": "BIKF",
      "alert": "OK",
      "vis_m": 9999,
      "fzfg": false,
      "metar_trigger": false,
      "taf_trigger": false,
      "metar": "METAR BIKF 230500Z 09019KT 9999 -RA OVC022 06/04 Q0997",
      "taf": "TAF BIKF 230447Z 2306/2406 09015G25KT 9999 BKN017 TX06/2306Z TN01/2324Z"
    },
    {
      "icao": "BKPR",
      "alert": "OK",
      "vis_m": null,
      "fzfg": false,
      "metar_trigger": false,
      "taf_trigger": false,
      "metar": "",
      "taf": ""
    },
    {
      "icao": "EBCI",
      "alert": "OK",
      "vis_m": 9999,
      "fzfg": false,
      "metar_trigger": false,
      "taf_trigger": false,
      "metar": "METAR EBCI 230520Z 14006KT 9999 BKN013 07/05 Q0992 TEMPO BKN007",
      "taf": "TAF EBCI 230520Z 2306/2412 16007KT 9999 BKN030"
    },
    {
      "icao": "EDDB",
      "alert": "OK",
      "vis_m": 4200,
      "fzfg": false,
      "metar_trigger": false,
      "taf_trigger": false,
      "metar": "METAR EDDB 230520Z AUTO 07007KT 4200 BR NCD M08/M09 Q1004 NOSIG",
      "taf": "TAF EDDB 230500Z 2306/2406 08009KT 5000 BR NSC"
    },
    {
      "icao": "EDDH",
      "alert": "OK",
      "vis_m": 7000,
      "fzfg": false,
      "metar_trigger": false,
      "taf_trigger": false,
      "metar": "METAR EDDH 230520Z AUTO 10007KT 070V130 7000 NSC M05/M07 Q1002 NOSIG",
      "taf": "TAF EDDH 230500Z 2306/2412 09011KT 9999 FEW030"
    },
    {
      "icao": "EDDK",
      "alert": "OK",
      "vis_m": 9999,
      "fzfg": false,
      "metar_trigger": false,
      "taf_trigger": false,
      "metar": "METAR EDDK 230520Z AUTO 12009KT 080V150 9999 OVC047 03/M02 Q0996 NOSIG",
      "taf": "TAF EDDK 230500Z 2306/2412 12009KT 9999 BKN040"
    },
    {
      "icao": "EDDN",
      "alert": "OK",
      "vis_m": 7000,
      "fzfg": false,
      "metar_trigger": false,
      "taf_trigger": false,
      "metar": "METAR EDDN 230520Z AUTO 12008KT 7000 BKN010 M07/M10 Q1000 NOSIG",
      "taf": "TAF EDDN 230500Z 2306/2406 11007KT 7000 OVC010"
    },
    {
      "icao": "EDDS",
      "alert": "OK",
      "vis_m": 7000,
      "fzfg": false,
      "metar_trigger": false,
      "taf_trigger": false,
      "metar": "METAR EDDS 230520Z AUTO 09004KT 050V130 7000 NSC M02/M05 Q0996 NOSIG",
      "taf": "TAF EDDS 230500Z 2306/2406 VRB03KT CAVOK"
    },
    {
      "icao": "EDFH",
      "alert": "OK",
      "vis_m": 6000,
      "fzfg": false,
      "metar_trigger": false,
      "taf_trigger": false,
      "metar": "METAR EDFH 230520Z 14014KT 6000 OVC039 M02/M03 Q0995",
      "taf": "TAF EDFH 230500Z 2306/2406 14014KT 6000 SCT030"
    },
    {
      "icao": "EDJA",
      "alert": "OK",
      "vis_m": 6000,
      "fzfg": false,
      "metar_trigger": false,
      "taf_trigger": false,
      "metar": "METAR EDJA 230520Z 05005KT 6000 NSC M05/M06 Q0997",
      "taf": "TAF EDJA 230500Z 2306/2315 05004KT CAVOK"
    },
    {
      "icao": "EDLW",
      "alert": "OK",
      "vis_m": 9999,
      "fzfg": false,
      "metar_trigger": false,
      "taf_trigger": false,
      "metar": "METAR EDLW 230520Z 09005KT CAVOK 04/01 Q0995",
      "taf": "TAF EDLW 230500Z 2306/2406 13007KT 9999 SCT035"
    },
    {
      "icao": "EDNY",
      "alert": "OK",
      "vis_m": 6000,
      "fzfg": false,
      "metar_trigger": false,
      "taf_trigger": false,
      "metar": "METAR EDNY 230450Z 05004KT 6000 BKN004 M03/M03 Q0998",
      "taf": "TAF EDNY 230500Z 2306/2315 04003KT 6000 OVC004"
    },
    {
      "icao": "EDSB",
      "alert": "OK",
      "vis_m": 6000,
      "fzfg": false,
      "metar_trigger": false,
      "taf_trigger": false,
      "metar": "METAR EDSB 230520Z 03004KT 6000 NSC M01/M02 Q0997",
      "taf": "TAF EDSB 230500Z 2306/2406 02003KT 5000 BR SCT005"
    },
    {
      "icao": "EETN",
      "alert": "OK",
      "vis_m": 9999,
      "fzfg": false,
      "metar_trigger": false,
      "taf_trigger": false,
      "metar": "METAR EETN 230520Z 10009KT 9999 -SN OVC008 M09/M10 Q1024 NOSIG",
      "taf": "TAF EETN 222330Z 2300/2324 10010KT 9999 OVC012"
    },
    {
      "icao": "EFTU",
      "alert": "OK",
      "vis_m": 9999,
      "fzfg": false,
      "metar_trigger": false,
      "taf_trigger": false,
      "metar": "METAR EFTU 230520Z AUTO 08006KT 9999 -SHSN OVC021 M08/M10 Q1024",
      "taf": "TAF EFTU 230236Z 2303/2403 08007KT 9999 BKN020"
    },
    {
      "icao": "EGBB",
      "alert": "OK",
      "vis_m": 9999,
      "fzfg": false,
      "metar_trigger": false,
      "taf_trigger": false,
      "metar": "METAR EGBB 230520Z 11009KT 9999 BKN007 05/04 Q0984",
      "taf": "TAF EGBB 230502Z 2306/2406 12012KT 9999 SCT020"
    },
    {
      "icao": "EGGP",
      "alert": "OK",
      "vis_m": 9999,
      "fzfg": false,
      "metar_trigger": false,
      "taf_trigger": false,
      "metar": "METAR EGGP 230520Z 11009KT 9999 FEW020 05/03 Q0984",
      "taf": "TAF EGGP 230500Z 2306/2406 12010KT 9999 SCT025"
    },
    {
      "icao": "EGGW",
      "alert": "OK",
      "vis_m": 9999,
      "fzfg": false,
      "metar_trigger": false,
      "taf_trigger": false,
      "metar": "METAR EGGW 230520Z AUTO 12012KT 9999 OVC007 06/05 Q0985",
      "taf": "TAF EGGW 230504Z 2306/2406 12013KT 9999 SCT008"
    },
    {
      "icao": "EGKK",
      "alert": "OK",
      "vis_m": 9999,
      "fzfg": false,
      "metar_trigger": false,
      "taf_trigger": false,
      "metar": "METAR EGKK 230520Z 11009KT 9999 BKN011 07/06 Q0985",
      "taf": "TAF EGKK 230503Z 2306/2412 14006KT 9999 SCT015"
    },
    {
      "icao": "EGNM",
      "alert": "OK",
      "vis_m": 9999,
      "fzfg": false,
      "metar_trigger": false,
      "taf_trigger": false,
      "metar": "METAR EGNM 230520Z 14012KT 9999 BKN007 05/04 Q0986",
      "taf": "TAF EGNM 230500Z 2306/2406 12012KT 9999 BKN018"
    },
    {
      "icao": "EGPD",
      "alert": "OK",
      "vis_m": 4400,
      "fzfg": false,
      "metar_trigger": false,
      "taf_trigger": false,
      "metar": "METAR EGPD 230520Z AUTO 11021G33KT 4400 RA BKN013/// OVC020/// //////TCU 04/02 Q0994",
      "taf": "TAF EGPD 230455Z 2306/2406 12018G34KT 9999 BKN016"
    },
    {
      "icao": "EGPF",
      "alert": "OK",
      "vis_m": 9999,
      "fzfg": false,
      "metar_trigger": false,
      "taf_trigger": false,
      "metar": "METAR EGPF 230520Z AUTO 07015KT 9999 -RA OVC015/// //////TCU 05/03 Q0987",
      "taf": "TAF EGPF 230501Z 2306/2406 08014KT 9999 FEW020 BKN030"
    },
    {
      "icao": "EHBK",
      "alert": "OK",
      "vis_m": 9999,
      "fzfg": false,
      "metar_trigger": false,
      "taf_trigger": false,
      "metar": "METAR EHBK 230525Z AUTO 12007KT 9999 FEW048 05/03 Q0994",
      "taf": "TAF EHBK 230521Z 2306/2412 13004KT 9999 SCT040"
    },
    {
      "icao": "EHEH",
      "alert": "OK",
      "vis_m": 8000,
      "fzfg": false,
      "metar_trigger": false,
      "taf_trigger": false,
      "metar": "METAR EHEH 230455Z AUTO 13005KT 100V170 8000 BR OVC051 05/03 Q0994 BLU NOSIG RMK TREND REMOTE BY EHWX",
      "taf": "TAF EHEH 222349Z 2300/2406 13005KT 9999 BKN040"
    },
    {
      "icao": "EKBI",
      "alert": "OK",
      "vis_m": 9999,
      "fzfg": false,
      "metar_trigger": false,
      "taf_trigger": false,
      "metar": "METAR EKBI 230520Z AUTO 08018KT 9999 BKN021/// 00/M03 Q1004",
      "taf": "TAF EKBI 230527Z 2306/2406 09020G32KT 9999 OVC018"
    },
    {
      "icao": "EKCH",
      "alert": "OK",
      "vis_m": 9999,
      "fzfg": false,
      "metar_trigger": false,
      "taf_trigger": false,
      "metar": "METAR EKCH 230520Z AUTO 09022G33KT 9999 OVC018/// 00/M04 Q1009 NOSIG",
      "taf": "TAF EKCH 230527Z 2306/2406 09020G30KT 9999 BKN020"
    },
    {
      "icao": "ENAL",
      "alert": "OK",
      "vis_m": 9999,
      "fzfg": false,
      "metar_trigger": false,
      "taf_trigger": false,
      "metar": "METAR ENAL 230520Z 14013KT CAVOK 02/M11 Q1010",
      "taf": "TAF ENAL 230200Z 2303/2312 12009KT CAVOK"
    },
    {
      "icao": "ENBR",
      "alert": "OK",
      "vis_m": 9999,
      "fzfg": false,
      "metar_trigger": false,
      "taf_trigger": false,
      "metar": "METAR ENBR 230520Z 03003KT 300V100 CAVOK M03/M12 Q1010 NOSIG RMK WIND 1200FT 11008KT",
      "taf": "TAF ENBR 222300Z 2300/2324 07005KT CAVOK"
    },
    {
      "icao": "ENGM",
      "alert": "OK",
      "vis_m": 8000,
      "fzfg": false,
      "metar_trigger": false,
      "taf_trigger": false,
      "metar": "METAR ENGM 230520Z 03007KT 8000 -SN BKN027 M06/M08 Q1019 NOSIG",
      "taf": "TAF ENGM 222300Z 2300/2324 04010KT 9999 -SN BKN025"
    },
    {
      "icao": "ENHD",
      "alert": "OK",
      "vis_m": 9999,
      "fzfg": false,
      "metar_trigger": false,
      "taf_trigger": false,
      "metar": "METAR ENHD 230520Z AUTO 08012KT 9999 NCD M02/M11 Q1010",
      "taf": "TAF ENHD 230200Z 2303/2312 08012KT CAVOK"
    },
    {
      "icao": "ENTC",
      "alert": "OK",
      "vis_m": 9999,
      "fzfg": false,
      "metar_trigger": false,
      "taf_trigger": false,
      "metar": "METAR ENTC 230520Z VRB01KT CAVOK M09/M11 Q1022 RMK WIND 2600FT 19004KT",
      "taf": "TAF ENTC 222300Z 2300/2324 VRB02KT 9999 FEW003"
    },
    {
      "icao": "ENTO",
      "alert": "OK",
      "vis_m": 9999,
      "fzfg": false,
      "metar_trigger": false,
      "taf_trigger": false,
      "metar": "METAR ENTO 230520Z 04010KT 010V070 9999 -SHSN BKN022 M03/M07 Q1017 REFZRA NOSIG",
      "taf": "TAF ENTO 222300Z 2300/2324 04012KT 9999 -SN BKN020"
    },
    {
      "icao": "ENVA",
      "alert": "OK",
      "vis_m": 9999,
      "fzfg": false,
      "metar_trigger": false,
      "taf_trigger": false,
      "metar": "METAR ENVA 230520Z 10011KT CAVOK M04/M11 Q1019 NOSIG RMK WIND 670FT 14019KT",
      "taf": "TAF ENVA 222300Z 2300/2324 11010KT CAVOK"
    },
    {
      "icao": "ENZV",
      "alert": "OK",
      "vis_m": 9999,
      "fzfg": false,
      "metar_trigger": false,
      "taf_trigger": false,
      "metar": "METAR ENZV 230520Z 10018KT 080V140 CAVOK M01/M11 Q1010 NOSIG",
      "taf": "TAF ENZV 222300Z 2300/2324 10012KT CAVOK"
    },
    {
      "icao": "EPGD",
      "alert": "OK",
      "vis_m": 6000,
      "fzfg": false,
      "metar_trigger": false,
      "taf_trigger": false,
      "metar": "METAR EPGD 230500Z 10013KT 6000 OVC005 M10/M11 Q1011",
      "taf": "TAF EPGD 222330Z 2300/2324 09010KT 5000 BR BKN009"
    },
    {
      "icao": "EPKK",
      "alert": "OK",
      "vis_m": 5000,
      "fzfg": false,
      "metar_trigger": false,
      "taf_trigger": false,
      "metar": "METAR EPKK 230500Z 06007KT 5000 BR FEW057 M08/M10 Q1005",
      "taf": "TAF EPKK 230230Z 2303/2403 07008KT 6000 BKN040"
    },
    {
      "icao": "EPKT",
      "alert": "OK",
      "vis_m": 4800,
      "fzfg": false,
      "metar_trigger": false,
      "taf_trigger": false,
      "metar": "METAR EPKT 230500Z 07007KT 4800 BR NSC M07/M10 Q1004",
      "taf": "TAF EPKT 222330Z 2300/2324 09004KT 4000 BR BKN040"
    },
    {
      "icao": "EPLB",
      "alert": "OK",
      "vis_m": 4000,
      "fzfg": false,
      "metar_trigger": false,
      "taf_trigger": false,
      "metar": "METAR EPLB 230500Z 06008KT 4000 BR OVC003 M08/M08 Q1008",
      "taf": "TAF EPLB 222330Z 2300/2324 08012KT 6000 OVC007"
    },
    {
      "icao": "EPMO",
      "alert": "OK",
      "vis_m": 7000,
      "fzfg": false,
      "metar_trigger": false,
      "taf_trigger": false,
      "metar": "METAR EPMO 230500Z 07012KT 7000 BKN020 M09/M10 Q1009",
      "taf": ""
    },
    {
      "icao": "EPPO",
      "alert": "OK",
      "vis_m": 5000,
      "fzfg": false,
      "metar_trigger": false,
      "taf_trigger": false,
      "metar": "METAR EPPO 230500Z 10012KT 5000 -SN BR BKN008 M09/M11 Q1007",
      "taf": "TAF EPPO 222330Z 2300/2324 09010KT 7000 NSC"
    },
    {
      "icao": "EPRA",
      "alert": "OK",
      "vis_m": 6000,
      "fzfg": false,
      "metar_trigger": false,
      "taf_trigger": false,
      "metar": "METAR EPRA 230500Z 07008KT 6000 OVC005 M08/M10 Q1007",
      "taf": "TAF EPRA 230230Z 2303/2312 08008KT 7000 OVC007"
    },
    {
      "icao": "EPRZ",
      "alert": "OK",
      "vis_m": 4000,
      "fzfg": false,
      "metar_trigger": false,
      "taf_trigger": false,
      "metar": "METAR EPRZ 230500Z 07009KT 4000 -SN BR OVC016 M06/M08 Q1005",
      "taf": "TAF EPRZ 222330Z 2300/2324 09009KT 4000 BR BKN007"
    },
    {
      "icao": "EPSC",
      "alert": "OK",
      "vis_m": 6000,
      "fzfg": false,
      "metar_trigger": false,
      "taf_trigger": false,
      "metar": "METAR EPSC 230500Z 09005KT 6000 NSC M10/M12 Q1007",
      "taf": "TAF EPSC 222330Z 2300/2324 09010KT 7000 NSC"
    },
    {
      "icao": "EPSY",
      "alert": "OK",
      "vis_m": 9000,
      "fzfg": false,
      "metar_trigger": false,
      "taf_trigger": false,
      "metar": "METAR EPSY 230500Z 08007KT 040V110 9000 OVC008 M10/M11 Q1011",
      "taf": "TAF EPSY 230230Z 2303/2312 08008KT 8000 BKN010"
    },
    {
      "icao": "EPWA",
      "alert": "OK",
      "vis_m": 8000,
      "fzfg": false,
      "metar_trigger": false,
      "taf_trigger": false,
      "metar": "METAR EPWA 230500Z 08010KT 8000 -SN OVC016 M08/M09 Q1009 NOSIG",
      "taf": "TAF EPWA 230230Z 2303/2403 08010KT 7000 SCT009 BKN015"
    },
    {
      "icao": "EPWR",
      "alert": "OK",
      "vis_m": 5000,
      "fzfg": false,
      "metar_trigger": false,
      "taf_trigger": false,
      "metar": "METAR EPWR 230500Z 09005KT 050V120 5000 BR NSC M05/M09 Q1004",
      "taf": "TAF EPWR 230230Z 2303/2403 09005KT 6000 NSC"
    },
    {
      "icao": "ESGG",
      "alert": "OK",
      "vis_m": 9999,
      "fzfg": false,
      "metar_trigger": false,
      "taf_trigger": false,
      "metar": "METAR ESGG 230520Z 09014KT 9999 OVC020 M02/M06 Q1012",
      "taf": "TAF ESGG 230230Z 2303/2403 09015G25KT 9999 OVC020"
    },
    {
      "icao": "ESKN",
      "alert": "OK",
      "vis_m": 9999,
      "fzfg": false,
      "metar_trigger": false,
      "taf_trigger": false,
      "metar": "METAR ESKN 230520Z 03009KT 9999 SG BKN026 OVC034 M03/M05 Q1018",
      "taf": "TAF ESKN 230230Z 2303/2403 08012KT 9999 -SN OVC015"
    },
    {
      "icao": "ESMS",
      "alert": "OK",
      "vis_m": 9999,
      "fzfg": false,
      "metar_trigger": false,
      "taf_trigger": false,
      "metar": "METAR ESMS 230520Z 09021KT 9999 BKN013 M01/M04 Q1008",
      "taf": "TAF ESMS 230227Z 2303/2403 09018G32KT 9999 OVC015"
    },
    {
      "icao": "ESSA",
      "alert": "OK",
      "vis_m": 9999,
      "fzfg": false,
      "metar_trigger": false,
      "taf_trigger": false,
      "metar": "METAR ESSA 230520Z 09006KT 9999 BKN018 M04/M07 Q1021 NOSIG",
      "taf": "TAF ESSA 230230Z 2303/2403 08012KT 9999 OVC018"
    },
    {
      "icao": "EYKA",
      "alert": "OK",
      "vis_m": 9999,
      "fzfg": false,
      "metar_trigger": false,
      "taf_trigger": false,
      "metar": "METAR EYKA 230520Z 09011KT 9999 -SN OVC026 M08/M12 Q1017",
      "taf": "TAF EYKA 230514Z 2306/2406 10010KT 9000 OVC020"
    },
    {
      "icao": "EYPA",
      "alert": "OK",
      "vis_m": 9999,
      "fzfg": false,
      "metar_trigger": false,
      "taf_trigger": false,
      "metar": "METAR EYPA 230520Z 10012KT 070V130 9999 OVC022 M05/M09 Q1017",
      "taf": "TAF EYPA 230514Z 2306/2406 10011KT 9000 OVC020"
    },
    {
      "icao": "EYVI",
      "alert": "OK",
      "vis_m": 8000,
      "fzfg": false,
      "metar_trigger": false,
      "taf_trigger": false,
      "metar": "METAR EYVI 230520Z 10009KT 060V130 8000 -SN OVC028 M09/M12 Q1016 NOSIG",
      "taf": "TAF EYVI 230500Z 2306/2406 10012KT 9000 OVC020"
    },
    {
      "icao": "GCFV",
      "alert": "OK",
      "vis_m": 9999,
      "fzfg": false,
      "metar_trigger": false,
      "taf_trigger": false,
      "metar": "METAR GCFV 230500Z AUTO 30005KT 9999 FEW042 17/13 Q1018",
      "taf": "TAF GCFV 230200Z 2303/2403 30005KT 9999 SCT020 TX22/2314Z TN16/2306Z"
    },
    {
      "icao": "GCLP",
      "alert": "OK",
      "vis_m": 9999,
      "fzfg": false,
      "metar_trigger": false,
      "taf_trigger": false,
      "metar": "METAR GCLP 230500Z 32003KT 9999 SCT027 SCT045 16/13 Q1019 NOSIG",
      "taf": "TAF GCLP 230200Z 2303/2403 28005KT 9999 SCT020 TX23/2314Z TN15/2306Z"
    },
    {
      "icao": "GCTS",
      "alert": "OK",
      "vis_m": 9999,
      "fzfg": false,
      "metar_trigger": false,
      "taf_trigger": false,
      "metar": "METAR GCTS 230500Z 35004KT 9999 BKN034 18/12 Q1019 NOSIG",
      "taf": "TAF GCTS 230200Z 2303/2403 34005KT 9999 BKN025 TX23/2314Z TN15/2306Z"
    },
    {
      "icao": "GMAD",
      "alert": "OK",
      "vis_m": 4000,
      "fzfg": false,
      "metar_trigger": false,
      "taf_trigger": false,
      "metar": "METAR GMAD 230500Z 03003KT 4000 BR BKN004 13/12 Q1015 NOSIG",
      "taf": "TAF GMAD 230500Z 2306/2412 07004KT 5000 BKN008"
    },
    {
      "icao": "GMMN",
      "alert": "OK",
      "vis_m": 9999,
      "fzfg": false,
      "metar_trigger": false,
      "taf_trigger": false,
      "metar": "METAR GMMN 230500Z 21014KT 9999 SCT016 BKN023 13/11 Q1012 NOSIG",
      "taf": "TAF GMMN 222300Z 2300/2406 22013KT 8000 SCT030 BKN100"
    },
    {
      "icao": "GMMX",
      "alert": "OK",
      "vis_m": 9999,
      "fzfg": false,
      "metar_trigger": false,
      "taf_trigger": false,
      "metar": "METAR GMMX 230500Z 20005KT 180V240 9999 FEW010 BKN026 12/10 Q1015 NOSIG",
      "taf": "TAF GMMX 222300Z 2300/2406 24014KT 8000 SCT020 SCT080"
    },
    {
      "icao": "HEGN",
      "alert": "OK",
      "vis_m": 9999,
      "fzfg": false,
      "metar_trigger": false,
      "taf_trigger": false,
      "metar": "METAR HEGN 230500Z 35005KT CAVOK 19/18 Q1011 NOSIG",
      "taf": "TAF HEGN 230500Z 2306/2412 34010G20KT 6000 NSC"
    },
    {
      "icao": "HEMA",
      "alert": "OK",
      "vis_m": 9999,
      "fzfg": false,
      "metar_trigger": false,
      "taf_trigger": false,
      "metar": "METAR HEMA 230500Z 20006KT CAVOK 20/16 Q1009 NOSIG",
      "taf": "TAF HEMA 230500Z 2306/2412 03014KT CAVOK"
    },
    {
      "icao": "HESH",
      "alert": "OK",
      "vis_m": 9999,
      "fzfg": false,
      "metar_trigger": false,
      "taf_trigger": false,
      "metar": "METAR HESH 230500Z 35005KT CAVOK 21/10 Q1011 NOSIG",
      "taf": "TAF HESH 230500Z 2306/2412 01014KT CAVOK"
    },
    {
      "icao": "HESX",
      "alert": "OK",
      "vis_m": 9999,
      "fzfg": false,
      "metar_trigger": false,
      "taf_trigger": false,
      "metar": "METAR HESX 230500Z 24005KT CAVOK 10/07 Q1013 NOSIG",
      "taf": "TAF HESX 230500Z 2306/2412 22008KT 8000 NSC"
    },
    {
      "icao": "LATI",
      "alert": "OK",
      "vis_m": 9999,
      "fzfg": false,
      "metar_trigger": false,
      "taf_trigger": false,
      "metar": "METAR LATI 230520Z 14004KT 9999 FEW040 SCT074 BKN098 07/05 Q1003 NOSIG",
      "taf": "TAF LATI 230500Z 2306/2406 VRB05KT 9999 SCT040 BKN080 TX14/2313Z TN04/2322Z"
    },
    {
      "icao": "LBPD",
      "alert": "OK",
      "vis_m": 9999,
      "fzfg": false,
      "metar_trigger": false,
      "taf_trigger": false,
      "metar": "METAR LBPD 230500Z AUTO 00000KT 9999 OVC007/// M01/M01 Q1005 NOSIG",
      "taf": "TAF LBPD 230500Z 2306/2406 VRB04KT 4000 BR BKN005 OVC010"
    },
    {
      "icao": "LBSF",
      "alert": "OK",
      "vis_m": 2200,
      "fzfg": false,
      "metar_trigger": false,
      "taf_trigger": false,
      "metar": "METAR LBSF 230500Z 35003KT 2200 BR SCT003 OVC007 01/M00 Q1004 TEMPO 1200 BR BKN002",
      "taf": "TAF LBSF 230500Z 2306/2406 VRB04KT 1200 BR BKN005 OVC010"
    },
    {
      "icao": "LBWN",
      "alert": "OK",
      "vis_m": 5000,
      "fzfg": false,
      "metar_trigger": false,
      "taf_trigger": false,
      "metar": "METAR LBWN 230500Z AUTO 31004KT 5000 BR SCT010/// BKN023/// 02/02 Q1005 TEMPO 3000 BR BKN008",
      "taf": "TAF LBWN 230500Z 2306/2406 VRB04KT 7000 SCT015 BKN030"
    },
    {
      "icao": "LCLK",
      "alert": "OK",
      "vis_m": 9999,
      "fzfg": false,
      "metar_trigger": false,
      "taf_trigger": false,
      "metar": "METAR LCLK 230500Z 36009KT 9999 FEW020 SCT023 11/10 Q1012 NOSIG",
      "taf": "TAF LCLK 222330Z 2300/2400 04015KT 9999 SCT020"
    },
    {
      "icao": "LCPH",
      "alert": "OK",
      "vis_m": 9999,
      "fzfg": false,
      "metar_trigger": false,
      "taf_trigger": false,
      "metar": "METAR LCPH 230500Z 07004KT 9999 FEW030 09/07 Q1011 NOSIG",
      "taf": "TAF LCPH 222330Z 2300/2400 03009KT 9999 SCT020"
    },
    {
      "icao": "LEAL",
      "alert": "OK",
      "vis_m": 9999,
      "fzfg": false,
      "metar_trigger": false,
      "taf_trigger": false,
      "metar": "METAR LEAL 230500Z VRB02KT CAVOK 09/07 Q1001 NOSIG",
      "taf": "TAF LEAL 230500Z 2306/2406 VRB04KT 9999 SCT040 TX19/2313Z TN09/2306Z"
    },
    {
      "icao": "LEBB",
      "alert": "OK",
      "vis_m": 9999,
      "fzfg": false,
      "metar_trigger": false,
      "taf_trigger": false,
      "metar": "METAR LEBB 230500Z VRB03KT 9999 FEW026 07/07 Q0992 NOSIG",
      "taf": "TAF LEBB 230500Z 2306/2406 20009KT 9999 FEW030 TX11/2314Z TN06/2406Z"
    },
    {
      "icao": "LEBL",
      "alert": "OK",
      "vis_m": 9999,
      "fzfg": false,
      "metar_trigger": false,
      "taf_trigger": false,
      "metar": "METAR LEBL 230500Z 33004KT 9999 FEW035 SCT060 06/04 Q0997 NOSIG",
      "taf": "TAF LEBL 230500Z 2306/2406 34006KT 9999 FEW030 TX16/2313Z TN07/2306Z"
    },
    {
      "icao": "LECH",
      "alert": "OK",
      "vis_m": 9999,
      "fzfg": false,
      "metar_trigger": false,
      "taf_trigger": false,
      "metar": "METAR LECH 230500Z AUTO 22004KT CAVOK 06/04 Q0997",
      "taf": ""
    },
    {
      "icao": "LEMD",
      "alert": "OK",
      "vis_m": 3000,
      "fzfg": false,
      "metar_trigger": false,
      "taf_trigger": false,
      "metar": "SPECI LEMD 230518Z VRB01KT 3000 0350 R32L/1400U R32R/0700D BR BCFG FEW003 SCT049 02/02 Q0998 NOSIG",
      "taf": "TAF LEMD 230500Z 2306/2412 VRB05KT 9999 SCT045 TX08/2314Z TN00/2408Z"
    },
    {
      "icao": "LEMG",
      "alert": "OK",
      "vis_m": 4000,
      "fzfg": false,
      "metar_trigger": false,
      "taf_trigger": false,
      "metar": "METAR LEMG 230500Z COR 27005KT 240V300 4000 +RA FEW010 SCT035 BKN060 11/11 Q1004 NOSIG",
      "taf": "TAF LEMG 230500Z 2306/2406 30010KT 9999 SCT030 TX18/2314Z TN10/2307Z"
    },
    {
      "icao": "LEVC",
      "alert": "OK",
      "vis_m": 9999,
      "fzfg": false,
      "metar_trigger": false,
      "taf_trigger": false,
      "metar": "METAR LEVC 230500Z 20006KT 9999 BKN036 11/05 Q0998 NOSIG",
      "taf": "TAF LEVC 230500Z 2306/2406 18007KT 9999 SCT040 TX16/2313Z TN07/2306Z"
    },
    {
      "icao": "LEXJ",
      "alert": "OK",
      "vis_m": 9999,
      "fzfg": false,
      "metar_trigger": false,
      "taf_trigger": false,
      "metar": "METAR LEXJ 230500Z 19002KT 9999 FEW065 08/04 Q0991",
      "taf": "TAF LEXJ 230200Z 2303/2403 24009KT 9999 FEW030 TX14/2313Z TN07/2403Z"
    },
    {
      "icao": "LEZG",
      "alert": "OK",
      "vis_m": 9999,
      "fzfg": false,
      "metar_trigger": false,
      "taf_trigger": false,
      "metar": "METAR LEZG 230500Z 08004KT 030V140 9999 DZ BKN040 BKN050 OVC060 07/04 Q0997 NOSIG",
      "taf": "TAF LEZG 230500Z 2306/2406 VRB04KT 9999 FEW040 TX13/2315Z TN05/2306Z"
    },
    {
      "icao": "LEZL",
      "alert": "OK",
      "vis_m": 9999,
      "fzfg": false,
      "metar_trigger": false,
      "taf_trigger": false,
      "metar": "METAR LEZL 230500Z 30007KT CAVOK 13/10 Q1004 NOSIG",
      "taf": "TAF LEZL 230200Z 2303/2403 25007KT 9999 BKN025 TX15/2315Z TN08/2307Z"
    },
    {
      "icao": "LFBD",
      "alert": "OK",
      "vis_m": 9999,
      "fzfg": false,
      "metar_trigger": false,
      "taf_trigger": false,
      "metar": "METAR LFBD 230500Z AUTO 18009KT 9999 RA BKN037/// BKN046/// OVC054/// ///CB 07/06 Q0991 TEMPO 4000 -RA BKN010 BKN020",
      "taf": ""
    },
    {
      "icao": "LFLL",
      "alert": "OK",
      "vis_m": 9999,
      "fzfg": false,
      "metar_trigger": false,
      "taf_trigger": false,
      "metar": "METAR LFLL 230500Z 14007KT 9999 FEW016 BKN200 05/03 Q0995 NOSIG",
      "taf": "TAF LFLL 230500Z 2306/2412 15010KT 9999 SCT016 BKN200"
    },
    {
      "icao": "LFLS",
      "alert": "OK",
      "vis_m": 9999,
      "fzfg": false,
      "metar_trigger": false,
      "taf_trigger": false,
      "metar": "METAR LFLS 230500Z AUTO 10010KT 9999 BKN010 BKN220 OVC240 02/02 Q0995 TEMPO 0800 FG VV///",
      "taf": ""
    },
    {
      "icao": "LFMN",
      "alert": "OK",
      "vis_m": 9999,
      "fzfg": false,
      "metar_trigger": false,
      "taf_trigger": false,
      "metar": "METAR LFMN 230500Z 34007KT 9999 OVC050 08/05 Q1000 NOSIG",
      "taf": "TAF LFMN 230200Z 2303/2409 34010KT 9999 OVC050"
    },
    {
      "icao": "LFOB",
      "alert": "OK",
      "vis_m": 9999,
      "fzfg": false,
      "metar_trigger": false,
      "taf_trigger": false,
      "metar": "METAR LFOB 230500Z AUTO 13010KT 9999 BKN006 OVC130 05/05 Q0989 BECMG BKN020",
      "taf": "TAF LFOB 222300Z 2300/2324 14010KT 9999 SCT025"
    },
    {
      "icao": "LFPO",
      "alert": "OK",
      "vis_m": 9999,
      "fzfg": false,
      "metar_trigger": false,
      "taf_trigger": false,
      "metar": "METAR LFPO 230500Z 13007KT 9999 FEW040 SCT080 BKN100 05/04 Q0990 TEMPO 4500 -RA",
      "taf": "TAF LFPO 230500Z 2306/2412 14010KT 9999 FEW040 SCT080 BKN100"
    },
    {
      "icao": "LFSB",
      "alert": "OK",
      "vis_m": 9000,
      "fzfg": false,
      "metar_trigger": false,
      "taf_trigger": false,
      "metar": "METAR LFSB 230500Z AUTO VRB02KT 9000 NSC M00/M02 Q0996 TEMPO 4500 BR",
      "taf": "TAF LFSB 230500Z 2306/2406 12005KT CAVOK"
    },
    {
      "icao": "LGAV",
      "alert": "OK",
      "vis_m": 9999,
      "fzfg": false,
      "metar_trigger": false,
      "taf_trigger": false,
      "metar": "METAR LGAV 230520Z VRB02KT 9999 FEW018 05/04 Q1004 NOSIG",
      "taf": "TAF LGAV 230500Z 2306/2406 VRB05KT 7000 FEW015 SCT025"
    },
    {
      "icao": "LGTS",
      "alert": "OK",
      "vis_m": 4000,
      "fzfg": false,
      "metar_trigger": false,
      "taf_trigger": false,
      "metar": "METAR LGTS 230520Z VRB03KT 4000 BR SCT010 SCT025 05/05 Q1005 BECMG 2000 BR",
      "taf": "TAF LGTS 230500Z 2306/2406 VRB03KT 4000 BR SCT008"
    },
    {
      "icao": "LHBP",
      "alert": "OK",
      "vis_m": 9999,
      "fzfg": false,
      "metar_trigger": false,
      "taf_trigger": false,
      "metar": "METAR LHBP 230500Z VRB02KT 9999 BKN032 OVC050 M00/M02 Q1004 TEMPO -FZRA",
      "taf": "TAF LHBP 230515Z 2306/2406 10005KT 8000 SCT030 BKN060"
    },
    {
      "icao": "LHDC",
      "alert": "OK",
      "vis_m": 8000,
      "fzfg": false,
      "metar_trigger": false,
      "taf_trigger": false,
      "metar": "METAR LHDC 230445Z AUTO 06004KT 8000 SCT035 M01/M03 Q1004 NOSIG",
      "taf": "TAF LHDC 230515Z 2306/2315 VRB02KT 8000 SCT035 BKN075"
    },
    {
      "icao": "LIBD",
      "alert": "OK",
      "vis_m": 9999,
      "fzfg": false,
      "metar_trigger": false,
      "taf_trigger": false,
      "metar": "METAR LIBD 230520Z 29003KT CAVOK 07/07 Q1001",
      "taf": "TAF LIBD 230500Z 2306/2406 VRB05KT 8000 SCT030"
    },
    {
      "icao": "LIBG",
      "alert": "OK",
      "vis_m": null,
      "fzfg": false,
      "metar_trigger": false,
      "taf_trigger": false,
      "metar": "",
      "taf": ""
    },
    {
      "icao": "LIBP",
      "alert": "OK",
      "vis_m": 6000,
      "fzfg": false,
      "metar_trigger": false,
      "taf_trigger": false,
      "metar": "METAR LIBP 230520Z AUTO 23002KT 6000 OVC032/// 08/08 Q1002",
      "taf": "TAF LIBP 230500Z 2306/2406 VRB05KT 6000 BKN030"
    },
    {
      "icao": "LIBR",
      "alert": "OK",
      "vis_m": 8000,
      "fzfg": false,
      "metar_trigger": false,
      "taf_trigger": false,
      "metar": "METAR LIBR 230520Z 18002KT 8000 FEW045 09/09 Q1002",
      "taf": "TAF LIBR 230500Z 2306/2406 VRB05KT 7000 SCT020"
    },
    {
      "icao": "LICA",
      "alert": "OK",
      "vis_m": 9999,
      "fzfg": false,
      "metar_trigger": false,
      "taf_trigger": false,
      "metar": "METAR LICA 230520Z AUTO 07006KT 9999 NCD 07/06 Q1001",
      "taf": "TAF LICA 230500Z 2306/2406 07010KT 9999 BKN020"
    },
    {
      "icao": "LICC",
      "alert": "OK",
      "vis_m": 9999,
      "fzfg": false,
      "metar_trigger": false,
      "taf_trigger": false,
      "metar": "METAR LICC 230520Z 25005KT 9999 SCT100 08/06 Q1000",
      "taf": "TAF LICC 230500Z 2306/2406 26010KT 9999 SCT030"
    },
    {
      "icao": "LICJ",
      "alert": "OK",
      "vis_m": 9999,
      "fzfg": false,
      "metar_trigger": false,
      "taf_trigger": false,
      "metar": "METAR LICJ 230520Z 17004KT 9999 SCT050 11/09 Q1001",
      "taf": "TAF LICJ 230500Z 2306/2406 16008KT 9999 FEW030"
    },
    {
      "icao": "LIMC",
      "alert": "OK",
      "vis_m": 4000,
      "fzfg": false,
      "metar_trigger": false,
      "taf_trigger": false,
      "metar": "METAR LIMC 230520Z 02002KT 4000 BR BCFG SCT080 M02/M02 Q1001 NOSIG",
      "taf": "TAF LIMC 230500Z 2306/2412 VRB04KT 5000 BR BKN060"
    },
    {
      "icao": "LIME",
      "alert": "OK",
      "vis_m": 9999,
      "fzfg": false,
      "metar_trigger": false,
      "taf_trigger": false,
      "metar": "METAR LIME 230520Z 36003KT 9999 SCT060 03/M01 Q1001 NOSIG",
      "taf": "TAF LIME 230500Z 2306/2406 VRB04KT 6000 SCT060"
    },
    {
      "icao": "LIMF",
      "alert": "OK",
      "vis_m": 2000,
      "fzfg": true,
      "metar_trigger": false,
      "taf_trigger": false,
      "metar": "METAR LIMF 230520Z 20002KT 2000 BR SCT110 M02/M03 Q1001",
      "taf": "TAF LIMF 230500Z 2306/2406 VRB03KT 0400 FZFG OVC001"
    },
    {
      "icao": "LIMJ",
      "alert": "OK",
      "vis_m": 9999,
      "fzfg": false,
      "metar_trigger": false,
      "taf_trigger": false,
      "metar": "METAR LIMJ 230520Z 04008KT 9999 BKN034 08/02 Q1000",
      "taf": "TAF LIMJ 230500Z 2306/2406 03014KT 7000 RA BKN030"
    },
    {
      "icao": "LIPE",
      "alert": "OK",
      "vis_m": 2500,
      "fzfg": false,
      "metar_trigger": false,
      "taf_trigger": false,
      "metar": "METAR LIPE 230520Z VRB01KT 2500 BR NSC 01/01 Q1002",
      "taf": "TAF LIPE 230500Z 2306/2406 VRB05KT 6000 SCT040"
    },
    {
      "icao": "LIPH",
      "alert": "OK",
      "vis_m": 9999,
      "fzfg": false,
      "metar_trigger": false,
      "taf_trigger": false,
      "metar": "METAR LIPH 230520Z AUTO 22001KT 9999 FEW064/// BKN100/// 01/M02 Q1002",
      "taf": "TAF LIPH 230500Z 2306/2406 VRB05KT 9999 BKN050"
    },
    {
      "icao": "LIPQ",
      "alert": "OK",
      "vis_m": 9999,
      "fzfg": false,
      "metar_trigger": false,
      "taf_trigger": false,
      "metar": "METAR LIPQ 230520Z AUTO 01001KT 9999 BKN048/// 02/M01 Q1002",
      "taf": "TAF LIPQ 230500Z 2306/2406 VRB05KT 9999 BKN040"
    },
    {
      "icao": "LIPR",
      "alert": "OK",
      "vis_m": 9999,
      "fzfg": false,
      "metar_trigger": false,
      "taf_trigger": false,
      "metar": "METAR LIPR 230520Z AUTO 30002KT 9999 OVC014/// 05/03 Q1002",
      "taf": "TAF LIPR 230500Z 2306/2406 VRB05KT 8000 SCT030"
    },
    {
      "icao": "LIPX",
      "alert": "OK",
      "vis_m": 4000,
      "fzfg": false,
      "metar_trigger": false,
      "taf_trigger": false,
      "metar": "METAR LIPX 230520Z 30002KT 4000 BR BKN060 01/00 Q1002",
      "taf": "TAF LIPX 230500Z 2306/2406 VRB03KT 2000 BR SCT050"
    },
    {
      "icao": "LIPY",
      "alert": "OK",
      "vis_m": 8000,
      "fzfg": false,
      "metar_trigger": false,
      "taf_trigger": false,
      "metar": "METAR LIPY 230520Z AUTO 14002KT 8000 OVC018/// 07/04 Q1002",
      "taf": "TAF LIPY 230500Z 2306/2406 VRB05KT 7000 BKN040"
    },
    {
      "icao": "LIPZ",
      "alert": "OK",
      "vis_m": 9999,
      "fzfg": false,
      "metar_trigger": false,
      "taf_trigger": false,
      "metar": "METAR LIPZ 230520Z VRB02KT CAVOK 02/M02 Q1002 NOSIG",
      "taf": "TAF LIPZ 230500Z 2306/2412 VRB05KT 9999 SCT040"
    },
    {
      "icao": "LIRF",
      "alert": "OK",
      "vis_m": 9999,
      "fzfg": false,
      "metar_trigger": false,
      "taf_trigger": false,
      "metar": "METAR LIRF 230520Z 08007KT 9999 FEW045 04/03 Q1001 NOSIG",
      "taf": "TAF LIRF 230500Z 2306/2412 07010KT 9999 FEW040"
    },
    {
      "icao": "LIRN",
      "alert": "OK",
      "vis_m": 9999,
      "fzfg": false,
      "metar_trigger": false,
      "taf_trigger": false,
      "metar": "METAR LIRN 230520Z 36002KT 9999 FEW050 06/05 Q1001 NOSIG",
      "taf": "TAF LIRN 230500Z 2306/2406 VRB05KT 9999 SCT050"
    },
    {
      "icao": "LIRP",
      "alert": "OK",
      "vis_m": 9999,
      "fzfg": false,
      "metar_trigger": false,
      "taf_trigger": false,
      "metar": "METAR LIRP 230515Z 14006KT 9999 SCT040 06/05 Q1000 NOSIG",
      "taf": "TAF LIRP 230500Z 2306/2406 11003KT 9999 SCT040 BKN080"
    },
    {
      "icao": "LIRZ",
      "alert": "OK",
      "vis_m": 9999,
      "fzfg": false,
      "metar_trigger": false,
      "taf_trigger": false,
      "metar": "METAR LIRZ 230520Z AUTO VRB02KT 9999 FEW140/// 01/00 Q1002",
      "taf": "TAF LIRZ 230500Z 2306/2406 VRB05KT 9999 BKN045"
    },
    {
      "icao": "LJLJ",
      "alert": "OK",
      "vis_m": 9999,
      "fzfg": false,
      "metar_trigger": false,
      "taf_trigger": false,
      "metar": "METAR LJLJ 230500Z VRB02KT 9999 BKN043 M06/M07 Q1002 NOSIG",
      "taf": "TAF LJLJ 230500Z 2306/2406 12003KT 9999 BKN043"
    },
    {
      "icao": "LKMT",
      "alert": "OK",
      "vis_m": 4000,
      "fzfg": false,
      "metar_trigger": false,
      "taf_trigger": false,
      "metar": "METAR LKMT 230500Z 03004KT 4000 BR BKN030 M01/M04 Q1003 NOSIG",
      "taf": "TAF LKMT 230500Z 2306/2406 02005KT 9999 BKN025"
    },
    {
      "icao": "LKPR",
      "alert": "OK",
      "vis_m": 8000,
      "fzfg": false,
      "metar_trigger": false,
      "taf_trigger": false,
      "metar": "METAR LKPR 230500Z 16005KT 120V180 8000 BKN009 OVC011 M07/M09 Q1001 TEMPO 5000 BR BKN005",
      "taf": "TAF LKPR 230500Z 2306/2412 14005KT 8000 BKN015"
    },
    {
      "icao": "LLBG",
      "alert": "OK",
      "vis_m": 9999,
      "fzfg": false,
      "metar_trigger": false,
      "taf_trigger": false,
      "metar": "METAR LLBG 230520Z 17004KT 9999 FEW035 15/10 Q1012 NOSIG RMK SCT120",
      "taf": "TAF LLBG 230502Z 2306/2406 VRB04KT CAVOK"
    },
    {
      "icao": "LMML",
      "alert": "OK",
      "vis_m": 9999,
      "fzfg": false,
      "metar_trigger": false,
      "taf_trigger": false,
      "metar": "METAR LMML 230515Z 29006KT 9999 -SHRA FEW015CB 12/11 Q1000 TEMPO 8000 SHRA",
      "taf": "TAF LMML 230500Z 2306/2406 30014KT 9999 FEW025"
    },
    {
      "icao": "LOWW",
      "alert": "OK",
      "vis_m": 5000,
      "fzfg": false,
      "metar_trigger": false,
      "taf_trigger": false,
      "metar": "METAR LOWW 230520Z 26004KT 230V300 5000 BR FEW005 BKN006 M05/M07 Q1003 NOSIG",
      "taf": "TAF LOWW 230515Z 2306/2412 VRB04KT 6000 OVC010 TX00/2412Z TNM05/2307Z"
    },
    {
      "icao": "LPFR",
      "alert": "OK",
      "vis_m": 9999,
      "fzfg": false,
      "metar_trigger": false,
      "taf_trigger": false,
      "metar": "METAR LPFR 230500Z 29008KT 9999 FEW020 12/08 Q1006",
      "taf": "TAF LPFR 230500Z 2306/2406 30012KT 9999 SCT025"
    },
    {
      "icao": "LPMA",
      "alert": "OK",
      "vis_m": 9999,
      "fzfg": false,
      "metar_trigger": false,
      "taf_trigger": false,
      "metar": "METAR LPMA 230500Z 35011KT 310V030 9999 -SHRA BKN015 16/14 Q1016",
      "taf": "TAF LPMA 230500Z 2306/2406 34012KT 9999 SCT015"
    },
    {
      "icao": "LPPR",
      "alert": "OK",
      "vis_m": 9999,
      "fzfg": false,
      "metar_trigger": false,
      "taf_trigger": false,
      "metar": "METAR LPPR 230500Z 26010G23KT 220V310 9999 VCSH FEW020 FEW025CB SCT032 11/05 Q0999",
      "taf": "TAF LPPR 230500Z 2306/2406 26015KT 9999 SCT020 FEW025TCU"
    },
    {
      "icao": "LPPS",
      "alert": "OK",
      "vis_m": 9999,
      "fzfg": false,
      "metar_trigger": false,
      "taf_trigger": false,
      "metar": "METAR LPPS 230500Z 34014KT 9999 SCT012 BKN030 16/15 Q1016",
      "taf": "TAF LPPS 230500Z 2306/2412 31015KT 9999 SCT015 SCT030"
    },
    {
      "icao": "LPPT",
      "alert": "OK",
      "vis_m": 6000,
      "fzfg": false,
      "metar_trigger": false,
      "taf_trigger": false,
      "metar": "METAR LPPT 230500Z 27015G27KT 240V300 6000 SHRA FEW015 FEW025TCU BKN030 10/07 Q1005",
      "taf": "TAF LPPT 230500Z 2306/2412 29015KT 9999 SCT020 FEW025TCU"
    },
    {
      "icao": "LQBK",
      "alert": "OK",
      "vis_m": 5000,
      "fzfg": false,
      "metar_trigger": false,
      "taf_trigger": false,
      "metar": "METAR LQBK 230500Z 31002KT 5000 BR FEW045 M01/M02 Q1003 NOSIG",
      "taf": "TAF LQBK 230500Z 2306/2406 VRB02KT 7000 SCT045 TX03/2313Z TNM01/2306Z"
    },
    {
      "icao": "LQSA",
      "alert": "OK",
      "vis_m": 1500,
      "fzfg": false,
      "metar_trigger": false,
      "taf_trigger": false,
      "metar": "METAR LQSA 230500Z 00000KT 1500 BR SCT005 BKN050 M02/M02 Q1002 NOSIG",
      "taf": "TAF LQSA 230500Z 2306/2406 VRB02KT 2000 BR FEW010 SCT045 TX06/2314Z TNM01/2405Z"
    },
    {
      "icao": "LQTZ",
      "alert": "OK",
      "vis_m": 2300,
      "fzfg": false,
      "metar_trigger": false,
      "taf_trigger": false,
      "metar": "METAR LQTZ 230500Z VRB02KT 2300 BR SCT004 BKN050 M01/M01 Q1003",
      "taf": "TAF LQTZ 230500Z 2306/2406 VRB02KT 6000 SCT050 TX06/2313Z TNM01/2306Z"
    },
    {
      "icao": "LRBC",
      "alert": "OK",
      "vis_m": 3700,
      "fzfg": false,
      "metar_trigger": false,
      "taf_trigger": false,
      "metar": "METAR LRBC 230500Z 15003KT 3700 -SN BR OVC006 01/01 Q1006",
      "taf": "TAF LRBC 230200Z 2303/2312 16006KT 5000 -SN BR BKN010 OVC015"
    },
    {
      "icao": "LRBS",
      "alert": "OK",
      "vis_m": 200,
      "fzfg": false,
      "metar_trigger": false,
      "taf_trigger": false,
      "metar": "METAR LRBS 230500Z 00000KT 0200 R07/0350N FG VV001 00/00 Q1006 NOSIG",
      "taf": "TAF LRBS 222300Z 2300/2324 VRB04KT 0600 FG OVC002"
    },
    {
      "icao": "LRBV",
      "alert": "OK",
      "vis_m": 1100,
      "fzfg": false,
      "metar_trigger": false,
      "taf_trigger": false,
      "metar": "METAR LRBV 230500Z 00000KT 1100 R21/1500D -SN BR FEW001 OVC005 M00/M00 Q1003",
      "taf": "TAF LRBV 230200Z 2303/2312 VRB04KT 5000 BR BKN010 BKN045"
    },
    {
      "icao": "LRCL",
      "alert": "OK",
      "vis_m": 1000,
      "fzfg": true,
      "metar_trigger": false,
      "taf_trigger": false,
      "metar": "METAR LRCL 230500Z 00000KT 1000 R25/P2000 -SN FZFG SCT007 BKN018 OVC035 M01/M02 Q1004",
      "taf": "TAF LRCL 230200Z 2303/2312 VRB04KT 3000 -SN BR BKN010 OVC030"
    },
    {
      "icao": "LRCV",
      "alert": "OK",
      "vis_m": 200,
      "fzfg": true,
      "metar_trigger": false,
      "taf_trigger": false,
      "metar": "METAR LRCV 230500Z 25003KT 0200 R26/0300N FZFG VV003 M00/M00 Q1005",
      "taf": "TAF LRCV 230200Z 2303/2312 VRB04KT 0350 FZFG VV002"
    },
    {
      "icao": "LRIA",
      "alert": "OK",
      "vis_m": 3900,
      "fzfg": false,
      "metar_trigger": false,
      "taf_trigger": false,
      "metar": "METAR LRIA 230500Z 10008KT 3900 -SN BR BKN001 BKN023 M01/M02 Q1007",
      "taf": "TAF LRIA 230200Z 2303/2312 11007KT 5000 -SN BR BKN010 OVC020"
    },
    {
      "icao": "LROP",
      "alert": "OK",
      "vis_m": 100,
      "fzfg": false,
      "metar_trigger": false,
      "taf_trigger": false,
      "metar": "METAR LROP 230500Z VRB02KT 0100 R08R/0225N R08L/0375N FG VV001 00/00 Q1006 NOSIG",
      "taf": "TAF LROP 222300Z 2300/2324 VRB04KT 0600 FG OVC002"
    },
    {
      "icao": "LRSB",
      "alert": "OK",
      "vis_m": 6000,
      "fzfg": false,
      "metar_trigger": false,
      "taf_trigger": false,
      "metar": "METAR LRSB 230500Z 16001KT 6000 SCT033 BKN046 M01/M03 Q1003",
      "taf": "TAF LRSB 222300Z 2300/2324 VRB04KT 9999 BKN030 BKN070"
    },
    {
      "icao": "LRSM",
      "alert": "OK",
      "vis_m": 2000,
      "fzfg": false,
      "metar_trigger": false,
      "taf_trigger": false,
      "metar": "METAR LRSM 230500Z VRB01KT 2000 BR NSC M01/M03 Q1005",
      "taf": "TAF LRSM 230200Z 2303/2312 VRB04KT 5000 BR BKN040"
    },
    {
      "icao": "LRSV",
      "alert": "OK",
      "vis_m": 300,
      "fzfg": true,
      "metar_trigger": false,
      "taf_trigger": false,
      "metar": "METAR LRSV 230500Z COR 08006KT 0300 R34/0500N FZFG VV002 M01/M01 Q1005",
      "taf": "TAF LRSV 230200Z 2303/2312 12006KT 0200 -SN FZFG VV001"
    },
    {
      "icao": "LRTM",
      "alert": "OK",
      "vis_m": 1400,
      "fzfg": false,
      "metar_trigger": false,
      "taf_trigger": false,
      "metar": "METAR LRTM 230500Z 29001KT 1400 R07/1700D -SN BR SCT009 BKN023 OVC035 M02/M02 Q1004",
      "taf": "TAF LRTM 230200Z 2303/2312 VRB04KT 1500 -SN BR BKN010 OVC030"
    },
    {
      "icao": "LRTR",
      "alert": "OK",
      "vis_m": 2000,
      "fzfg": false,
      "metar_trigger": false,
      "taf_trigger": false,
      "metar": "METAR LRTR 230500Z 05002KT 2000 BR NSC M01/M01 Q1004 TEMPO 1500 BR",
      "taf": "TAF LRTR 222300Z 2300/2324 VRB04KT 5000 BR BKN040"
    },
    {
      "icao": "LTAC",
      "alert": "OK",
      "vis_m": 2800,
      "fzfg": false,
      "metar_trigger": false,
      "taf_trigger": false,
      "metar": "METAR LTAC 230520Z 36005KT 2800 BR SCT009 BKN025 BKN080 M00/M01 Q1008 BECMG 4000 RMK RWY21C VRB01KT RWY03L 35003KT RWY21R 00000KT RWY03R 36003KT RWY21L 36002KT",
      "taf": "TAF LTAC 230440Z 2306/2406 VRB02KT 4000 BR SCT010 BKN025 BKN080"
    },
    {
      "icao": "LTFM",
      "alert": "OK",
      "vis_m": 4600,
      "fzfg": false,
      "metar_trigger": false,
      "taf_trigger": false,
      "metar": "METAR LTFM 230520Z 29004KT 200V340 4600 -SHRA BR SCT003 BKN030 08/07 Q1005 NOSIG RMK RWY17L VRB05G15KT RWY34L 25003KT 230V290 RWY16R 24004KT RWY36 24003KT 130V280 RWY18 25005KT 140V270",
      "taf": "TAF LTFM 230440Z 2306/2412 30005KT 9999 BKN004 BKN020"
    },
    {
      "icao": "LUKK",
      "alert": "OK",
      "vis_m": 1600,
      "fzfg": false,
      "metar_trigger": false,
      "taf_trigger": false,
      "metar": "METAR LUKK 230500Z 07009KT 1600 1200SW R08/1400D -SN BR OVC001 M02/M02 Q1008 TEMPO 1000 BR",
      "taf": "TAF LUKK 230511Z 2306/2406 07009KT 4000 -SN BR OVC003"
    },
    {
      "icao": "LWOH",
      "alert": "OK",
      "vis_m": null,
      "fzfg": false,
      "metar_trigger": false,
      "taf_trigger": false,
      "metar": "",
      "taf": "TAF LWOH 230520Z 2306/2406 32006KT 9999 BKN015 BECNG 2307/2309 16008KT SCT030 SCT050"
    },
    {
      "icao": "LWSK",
      "alert": "OK",
      "vis_m": 1600,
      "fzfg": false,
      "metar_trigger": false,
      "taf_trigger": false,
      "metar": "METAR LWSK 230520Z 00000KT 1600 BR BKN003 M01/M01 Q1005 NOSIG",
      "taf": "TAF LWSK 230520Z 2306/2406 VRB02KT 1500 BR BKN005"
    },
    {
      "icao": "LYBE",
      "alert": "OK",
      "vis_m": 4000,
      "fzfg": false,
      "metar_trigger": false,
      "taf_trigger": false,
      "metar": "METAR LYBE 230500Z 23005KT 4000 BR NSC M02/M03 Q1004 TEMPO -FZRA",
      "taf": "TAF LYBE 230500Z 2306/2406 25005KT 3000 BR NSC TX04/2313Z TNM02/2306Z"
    },
    {
      "icao": "LYNI",
      "alert": "OK",
      "vis_m": 8000,
      "fzfg": false,
      "metar_trigger": false,
      "taf_trigger": false,
      "metar": "METAR LYNI 230500Z 17004KT 8000 NSC M01/M02 Q1004 TEMPO 4000 BR",
      "taf": "TAF LYNI 230500Z 2306/2406 08004KT 5000 BR NSC TX10/2313Z TNM02/2306Z"
    },
    {
      "icao": "LYPG",
      "alert": "OK",
      "vis_m": 2000,
      "fzfg": false,
      "metar_trigger": false,
      "taf_trigger": false,
      "metar": "METAR LYPG 230500Z 10001KT 2000 BR FEW014 BKN034 OVC070 06/06 Q1003 NOSIG",
      "taf": "TAF LYPG 230500Z 2306/2406 17006KT 9999 FEW015 BKN040 BKN070 TX12/2313Z TN06/2306Z"
    },
    {
      "icao": "LZIB",
      "alert": "OK",
      "vis_m": 6000,
      "fzfg": false,
      "metar_trigger": false,
      "taf_trigger": false,
      "metar": "METAR LZIB 230500Z 14001KT 6000 FEW008 BKN016 M02/M04 Q1003 NOSIG",
      "taf": "TAF LZIB 230515Z 2306/2406 08005KT 6000 FEW008 BKN017"
    },
    {
      "icao": "LZKZ",
      "alert": "OK",
      "vis_m": 4000,
      "fzfg": false,
      "metar_trigger": false,
      "taf_trigger": false,
      "metar": "METAR LZKZ 230500Z 03001KT 4000 BR BKN009 OVC033 M01/M02 Q1004 NOSIG",
      "taf": "TAF LZKZ 230515Z 2306/2406 VRB02KT 6000 FEW007 SCT010 OVC030"
    },
    {
      "icao": "LZTT",
      "alert": "OK",
      "vis_m": 8000,
      "fzfg": false,
      "metar_trigger": false,
      "taf_trigger": false,
      "metar": "METAR LZTT 230500Z 05004KT 8000 OVC004 M02/M03 Q1001",
      "taf": "TAF LZTT 230515Z 2306/2406 VRB02KT 8000 SCT009 BKN016"
    },
    {
      "icao": "OEJN",
      "alert": "OK",
      "vis_m": 6000,
      "fzfg": false,
      "metar_trigger": false,
      "taf_trigger": false,
      "metar": "METAR OEJN 230500Z 12003KT 6000 NSC 25/11 Q1013 NOSIG",
      "taf": "TAF OEJN 230500Z 2306/2412 19017KT 7000 FEW030"
    },
    {
      "icao": "OEMA",
      "alert": "OK",
      "vis_m": 6000,
      "fzfg": false,
      "metar_trigger": false,
      "taf_trigger": false,
      "metar": "METAR OEMA 230500Z 07009KT 6000 NSC 16/M07 Q1019 NOSIG",
      "taf": "TAF OEMA 230500Z 2306/2412 24015KT 6000 FEW030"
    },
    {
      "icao": "OJAI",
      "alert": "OK",
      "vis_m": 3000,
      "fzfg": false,
      "metar_trigger": false,
      "taf_trigger": false,
      "metar": "METAR OJAI 230500Z 01004KT 3000 HZ NSC 06/02 Q1013 NOSIG",
      "taf": "TAF OJAI 230500Z 2306/2412 VRB02KT 3000 HZ SCT040"
    },
    {
      "icao": "OMAA",
      "alert": "OK",
      "vis_m": null,
      "fzfg": false,
      "metar_trigger": false,
      "taf_trigger": false,
      "metar": "",
      "taf": "TAF OMAA 230500Z 2306/2412 06006KT 8000 NSC"
    },
    {
      "icao": "OMDB",
      "alert": "OK",
      "vis_m": null,
      "fzfg": false,
      "metar_trigger": false,
      "taf_trigger": false,
      "metar": "",
      "taf": "TAF OMDB 230500Z 2306/2412 06007KT CAVOK"
    },
    {
      "icao": "UAAA",
      "alert": "OK",
      "vis_m": 9999,
      "fzfg": false,
      "metar_trigger": false,
      "taf_trigger": false,
      "metar": "METAR UAAA 230500Z 03006MPS 9999 BKN050CB OVC100 M04/M06 Q1021 NOSIG",
      "taf": "TAF UAAA 230506Z 2306/2406 04003MPS 6000 BKN020CB OVC050 TXM03/2308Z TNM11/2402Z"
    },
    {
      "icao": "UBBB",
      "alert": "OK",
      "vis_m": 9999,
      "fzfg": false,
      "metar_trigger": false,
      "taf_trigger": false,
      "metar": "METAR UBBB 230500Z 29002KT 9999 SCT019 01/M00 Q1013 NOSIG",
      "taf": "TAF UBBB 230501Z 2306/2406 31005KT 9999 SCT030 TX07/2310Z TN01/2401Z"
    },
    {
      "icao": "UDSG",
      "alert": "OK",
      "vis_m": 6000,
      "fzfg": false,
      "metar_trigger": false,
      "taf_trigger": false,
      "metar": "METAR UDSG 230500Z 21002KT 6000 BKN043 M10/M12 Q1014 NOSIG",
      "taf": "TAF UDSG 230458Z 2306/2406 36006KT 5000 BR BKN030"
    },
    {
      "icao": "UDYZ",
      "alert": "OK",
      "vis_m": 5000,
      "fzfg": false,
      "metar_trigger": false,
      "taf_trigger": false,
      "metar": "METAR UDYZ 230500Z 24002KT 5000 BR SCT046 M06/M08 Q1017 NOSIG",
      "taf": "TAF UDYZ 230500Z 2306/2406 VRB04KT 3500 BR SCT040"
    },
    {
      "icao": "UGKO",
      "alert": "OK",
      "vis_m": 9999,
      "fzfg": false,
      "metar_trigger": false,
      "taf_trigger": false,
      "metar": "METAR UGKO 230500Z 09010KT 9999 BKN090 08/M05 Q1007 NOSIG",
      "taf": "TAF UGKO 230500Z 2306/2406 09007KT 9999 OVC080 TX10/2311Z TN04/2403Z"
    }
  ]
}