{
  "ts_utc": "2026-03-05T23:39:46Z",
  "threshold_m": 150,
  "source": "stations_override.txt (ICAO list) + aviationweather.gov (METAR/TAF raw)",
  "station_count": 159,
  "stations": [
    {
      "icao": "BIKF",
      "alert": "OK",
      "vis_m": 9999,
      "fzfg": false,
      "metar_trigger": false,
      "taf_trigger": false,
      "metar": "METAR BIKF 052330Z 11013KT 9999 FEW039 BKN090 02/M04 Q0991",
      "taf": ""
    },
    {
      "icao": "BKPR",
      "alert": "OK",
      "vis_m": 9999,
      "fzfg": false,
      "metar_trigger": false,
      "taf_trigger": false,
      "metar": "METAR BKPR 052330Z VRB01KT CAVOK 01/01 Q1026 NOSIG",
      "taf": "TAF BKPR 052330Z 0600/0624 VRB03KT CAVOK"
    },
    {
      "icao": "EBCI",
      "alert": "OK",
      "vis_m": 9999,
      "fzfg": false,
      "metar_trigger": false,
      "taf_trigger": false,
      "metar": "METAR EBCI 052320Z 15004KT 120V180 CAVOK 12/03 Q1018 NOSIG",
      "taf": "TAF EBCI 052300Z 0600/0706 18005KT CAVOK"
    },
    {
      "icao": "EDDB",
      "alert": "OK",
      "vis_m": 9999,
      "fzfg": false,
      "metar_trigger": false,
      "taf_trigger": false,
      "metar": "METAR EDDB 052320Z AUTO 11004KT CAVOK 03/M03 Q1024 NOSIG",
      "taf": "TAF EDDB 052300Z 0600/0624 11005KT CAVOK"
    },
    {
      "icao": "EDDH",
      "alert": "OK",
      "vis_m": 9999,
      "fzfg": false,
      "metar_trigger": false,
      "taf_trigger": false,
      "metar": "METAR EDDH 052320Z AUTO 14006KT CAVOK 06/M01 Q1022 NOSIG",
      "taf": "TAF EDDH 052300Z 0600/0706 13004KT CAVOK"
    },
    {
      "icao": "EDDK",
      "alert": "OK",
      "vis_m": 9999,
      "fzfg": false,
      "metar_trigger": false,
      "taf_trigger": false,
      "metar": "METAR EDDK 052320Z AUTO 08005KT 050V110 CAVOK 09/02 Q1020 NOSIG",
      "taf": "TAF EDDK 052300Z 0600/0706 12005KT CAVOK"
    },
    {
      "icao": "EDDN",
      "alert": "OK",
      "vis_m": 9999,
      "fzfg": false,
      "metar_trigger": false,
      "taf_trigger": false,
      "metar": "METAR EDDN 052320Z AUTO 12004KT CAVOK 06/01 Q1021",
      "taf": "TAF EDDN 052300Z 0600/0624 10004KT CAVOK"
    },
    {
      "icao": "EDDS",
      "alert": "OK",
      "vis_m": 9999,
      "fzfg": false,
      "metar_trigger": false,
      "taf_trigger": false,
      "metar": "METAR EDDS 052320Z AUTO VRB02KT CAVOK 04/02 Q1019",
      "taf": "TAF EDDS 052300Z 0600/0624 VRB03KT CAVOK"
    },
    {
      "icao": "EDFH",
      "alert": "OK",
      "vis_m": 9999,
      "fzfg": false,
      "metar_trigger": false,
      "taf_trigger": false,
      "metar": "METAR EDFH 052320Z 13010KT CAVOK 07/03 Q1019",
      "taf": "TAF EDFH 052300Z 0600/0624 12008KT CAVOK"
    },
    {
      "icao": "EDJA",
      "alert": "OK",
      "vis_m": 5000,
      "fzfg": false,
      "metar_trigger": false,
      "taf_trigger": false,
      "metar": "METAR EDJA 052320Z AUTO 10002KT 5000 // SCT004/// M00/M01 Q1020",
      "taf": "TAF EDJA 051700Z 0518/0603 06006KT CAVOK"
    },
    {
      "icao": "EDLW",
      "alert": "OK",
      "vis_m": 9999,
      "fzfg": false,
      "metar_trigger": false,
      "taf_trigger": false,
      "metar": "METAR EDLW 052320Z AUTO 06004KT 9999 // NCD 09/01 Q1020",
      "taf": "TAF EDLW 051700Z 0518/0618 13005KT CAVOK"
    },
    {
      "icao": "EDNY",
      "alert": "OK",
      "vis_m": 5000,
      "fzfg": false,
      "metar_trigger": false,
      "taf_trigger": false,
      "metar": "METAR EDNY 052320Z AUTO 00000KT 5000 // NCD 03/03 Q1020",
      "taf": "TAF EDNY 051700Z 0518/0603 VRB03KT CAVOK"
    },
    {
      "icao": "EDSB",
      "alert": "OK",
      "vis_m": 9999,
      "fzfg": false,
      "metar_trigger": false,
      "taf_trigger": false,
      "metar": "METAR EDSB 052320Z AUTO VRB01KT 9999 // NCD 05/03 Q1019",
      "taf": "TAF EDSB 052300Z 0600/0624 VRB03KT CAVOK"
    },
    {
      "icao": "EETN",
      "alert": "OK",
      "vis_m": 9999,
      "fzfg": false,
      "metar_trigger": false,
      "taf_trigger": false,
      "metar": "METAR EETN 052320Z 26003KT CAVOK M01/M01 Q1020",
      "taf": "TAF EETN 052330Z 0600/0624 25008KT CAVOK"
    },
    {
      "icao": "EFTU",
      "alert": "OK",
      "vis_m": 9999,
      "fzfg": false,
      "metar_trigger": false,
      "taf_trigger": false,
      "metar": "METAR EFTU 052320Z AUTO VRB01KT CAVOK M03/M04 Q1020",
      "taf": "TAF EFTU 052034Z 0521/0621 27004KT CAVOK"
    },
    {
      "icao": "EGBB",
      "alert": "OK",
      "vis_m": 8000,
      "fzfg": false,
      "metar_trigger": false,
      "taf_trigger": false,
      "metar": "METAR EGBB 052320Z 32010KT 8000 BKN025 08/07 Q1016",
      "taf": "TAF EGBB 052257Z 0600/0624 32010KT 9999 FEW012 BKN020"
    },
    {
      "icao": "EGGP",
      "alert": "OK",
      "vis_m": 9999,
      "fzfg": false,
      "metar_trigger": false,
      "taf_trigger": false,
      "metar": "METAR EGGP 052320Z 31012KT 9999 BKN013 OVC020 05/03 Q1018",
      "taf": "TAF EGGP 052259Z 0600/0624 30010KT 9999 SCT020"
    },
    {
      "icao": "EGGW",
      "alert": "OK",
      "vis_m": 9999,
      "fzfg": false,
      "metar_trigger": false,
      "taf_trigger": false,
      "metar": "METAR EGGW 052320Z AUTO 13004KT 9999 NCD 09/07 Q1016",
      "taf": "TAF EGGW 052253Z 0600/0624 15004KT 9999 FEW040"
    },
    {
      "icao": "EGKK",
      "alert": "OK",
      "vis_m": 9999,
      "fzfg": false,
      "metar_trigger": false,
      "taf_trigger": false,
      "metar": "METAR EGKK 052320Z 07002KT 9999 SCT034 09/07 Q1016",
      "taf": "TAF EGKK 052255Z 0600/0706 05005KT 9999 FEW045"
    },
    {
      "icao": "EGNM",
      "alert": "OK",
      "vis_m": null,
      "fzfg": false,
      "metar_trigger": false,
      "taf_trigger": false,
      "metar": "",
      "taf": "TAF EGNM 051703Z 0518/0618 14006KT 9999 SCT040"
    },
    {
      "icao": "EGPD",
      "alert": "OK",
      "vis_m": 7000,
      "fzfg": false,
      "metar_trigger": false,
      "taf_trigger": false,
      "metar": "METAR EGPD 052320Z COR AUTO 31013KT 7000 -RA SCT007 OVC030 03/02 Q1020 NOSIG",
      "taf": "TAF EGPD 052253Z 0600/0624 30006KT 9999 SCT030"
    },
    {
      "icao": "EGPF",
      "alert": "OK",
      "vis_m": 9999,
      "fzfg": false,
      "metar_trigger": false,
      "taf_trigger": false,
      "metar": "METAR EGPF 052320Z AUTO 05004KT 9999 NCD 03/01 Q1021",
      "taf": "TAF EGPF 052256Z 0600/0624 VRB04KT 9999 FEW030"
    },
    {
      "icao": "EHBK",
      "alert": "OK",
      "vis_m": 9999,
      "fzfg": false,
      "metar_trigger": false,
      "taf_trigger": false,
      "metar": "METAR EHBK 052325Z AUTO 11004KT 9999 NSC 08/03 Q1018",
      "taf": "TAF EHBK 052307Z 0600/0706 13004KT CAVOK"
    },
    {
      "icao": "EHEH",
      "alert": "OK",
      "vis_m": 9999,
      "fzfg": false,
      "metar_trigger": false,
      "taf_trigger": false,
      "metar": "METAR EHEH 052325Z AUTO 16001KT 9999 NCD 07/03 Q1018 BLU",
      "taf": "TAF EHEH 051741Z 0518/0624 12006KT CAVOK"
    },
    {
      "icao": "EKBI",
      "alert": "OK",
      "vis_m": 9999,
      "fzfg": false,
      "metar_trigger": false,
      "taf_trigger": false,
      "metar": "METAR EKBI 052320Z AUTO 11006KT 9999 NCD 04/00 Q1022",
      "taf": "TAF EKBI 052327Z 0600/0624 13006KT CAVOK"
    },
    {
      "icao": "EKCH",
      "alert": "OK",
      "vis_m": 9999,
      "fzfg": false,
      "metar_trigger": false,
      "taf_trigger": false,
      "metar": "METAR EKCH 052320Z AUTO 14004KT 9999 NCD 02/01 Q1025 NOSIG",
      "taf": "TAF EKCH 052327Z 0600/0624 14006KT CAVOK"
    },
    {
      "icao": "ENAL",
      "alert": "OK",
      "vis_m": 9000,
      "fzfg": false,
      "metar_trigger": false,
      "taf_trigger": false,
      "metar": "METAR ENAL 052320Z AUTO 26016KT 9000 RA SCT028/// OVC035/// 07/06 Q1015 RMK WIND RWY 06 25010KT",
      "taf": "TAF ENAL 052300Z 0600/0609 25015KT 7000 -RA BKN025"
    },
    {
      "icao": "ENBR",
      "alert": "OK",
      "vis_m": 9999,
      "fzfg": false,
      "metar_trigger": false,
      "taf_trigger": false,
      "metar": "METAR ENBR 052320Z 14010KT 9999 SCT032 09/04 Q1018 RMK WIND 1200FT 16019KT",
      "taf": "TAF ENBR 052300Z 0600/0624 15008KT 9999 BKN030"
    },
    {
      "icao": "ENGM",
      "alert": "OK",
      "vis_m": 9999,
      "fzfg": false,
      "metar_trigger": false,
      "taf_trigger": false,
      "metar": "METAR ENGM 052320Z 00000KT CAVOK M03/M04 Q1020",
      "taf": "TAF ENGM 052300Z 0600/0624 20003KT CAVOK"
    },
    {
      "icao": "ENHD",
      "alert": "OK",
      "vis_m": 9999,
      "fzfg": false,
      "metar_trigger": false,
      "taf_trigger": false,
      "metar": "METAR ENHD 052320Z AUTO 14010KT 9999 NCD 07/04 Q1019",
      "taf": "TAF ENHD 051400Z 0515/0523 15015KT 9999 SCT018"
    },
    {
      "icao": "ENTC",
      "alert": "OK",
      "vis_m": 9999,
      "fzfg": false,
      "metar_trigger": false,
      "taf_trigger": false,
      "metar": "METAR ENTC 052320Z 20010KT 9999 -RA BKN026 OVC033 04/02 Q1004 RMK WIND 2600FT 19028KT",
      "taf": "TAF ENTC 052300Z 0600/0624 22018KT 9999 -RA SCT015 BKN020"
    },
    {
      "icao": "ENTO",
      "alert": "OK",
      "vis_m": 9999,
      "fzfg": false,
      "metar_trigger": false,
      "taf_trigger": false,
      "metar": "METAR ENTO 052320Z AUTO 21006KT 9999 OVC037/// 02/M00 Q1022",
      "taf": "TAF ENTO 052300Z 0600/0624 18005KT 9999 BKN035"
    },
    {
      "icao": "ENVA",
      "alert": "OK",
      "vis_m": 9999,
      "fzfg": false,
      "metar_trigger": false,
      "taf_trigger": false,
      "metar": "METAR ENVA 052320Z 07004KT 030V110 CAVOK 08/00 Q1014 RMK WIND 670FT 14007KT",
      "taf": "TAF ENVA 052300Z 0600/0624 12007KT 9999 SCT045"
    },
    {
      "icao": "ENZV",
      "alert": "OK",
      "vis_m": 9999,
      "fzfg": false,
      "metar_trigger": false,
      "taf_trigger": false,
      "metar": "METAR ENZV 052320Z 15011KT CAVOK 08/04 Q1019",
      "taf": "TAF ENZV 052300Z 0600/0624 14012KT 9999 FEW025"
    },
    {
      "icao": "EPGD",
      "alert": "OK",
      "vis_m": 7000,
      "fzfg": false,
      "metar_trigger": false,
      "taf_trigger": false,
      "metar": "METAR EPGD 052330Z 27004KT 7000 NSC M01/M03 Q1025",
      "taf": "TAF EPGD 052330Z 0600/0624 27004KT CAVOK"
    },
    {
      "icao": "EPKK",
      "alert": "OK",
      "vis_m": 9999,
      "fzfg": false,
      "metar_trigger": false,
      "taf_trigger": false,
      "metar": "METAR EPKK 052330Z VRB01KT CAVOK M01/M04 Q1026",
      "taf": "TAF EPKK 052330Z 0600/0624 VRB02KT CAVOK"
    },
    {
      "icao": "EPKT",
      "alert": "OK",
      "vis_m": 9999,
      "fzfg": false,
      "metar_trigger": false,
      "taf_trigger": false,
      "metar": "METAR EPKT 052330Z 05002KT CAVOK M04/M05 Q1026",
      "taf": "TAF EPKT 052330Z 0600/0624 VRB02KT CAVOK"
    },
    {
      "icao": "EPLB",
      "alert": "OK",
      "vis_m": 9999,
      "fzfg": false,
      "metar_trigger": false,
      "taf_trigger": false,
      "metar": "METAR EPLB 052330Z 30007KT CAVOK 01/M01 Q1025",
      "taf": "TAF EPLB 052330Z 0600/0624 29005KT CAVOK"
    },
    {
      "icao": "EPMO",
      "alert": "OK",
      "vis_m": 9000,
      "fzfg": false,
      "metar_trigger": false,
      "taf_trigger": false,
      "metar": "METAR EPMO 052330Z 27002KT 9000 NSC M01/M02 Q1026",
      "taf": "TAF EPMO 052330Z 0600/0624 VRB02KT 8000 NSC"
    },
    {
      "icao": "EPPO",
      "alert": "OK",
      "vis_m": 600,
      "fzfg": true,
      "metar_trigger": false,
      "taf_trigger": false,
      "metar": "METAR EPPO 052330Z VRB01KT 0600 R28/P2000D FZFG NSC M02/M03 Q1026",
      "taf": "TAF EPPO 052330Z 0600/0624 VRB02KT 2000 BR NSC"
    },
    {
      "icao": "EPRA",
      "alert": "OK",
      "vis_m": 9999,
      "fzfg": false,
      "metar_trigger": false,
      "taf_trigger": false,
      "metar": "METAR EPRA 052330Z 27006KT CAVOK 01/M02 Q1026",
      "taf": "TAF EPRA 052330Z 0600/0609 27006KT 8000 NSC"
    },
    {
      "icao": "EPRZ",
      "alert": "OK",
      "vis_m": 7000,
      "fzfg": false,
      "metar_trigger": false,
      "taf_trigger": false,
      "metar": "METAR EPRZ 052330Z 25006KT 7000 NSC M01/M03 Q1026",
      "taf": "TAF EPRZ 052330Z 0600/0624 24006KT CAVOK"
    },
    {
      "icao": "EPSC",
      "alert": "OK",
      "vis_m": 9999,
      "fzfg": false,
      "metar_trigger": false,
      "taf_trigger": false,
      "metar": "METAR EPSC 052330Z 11006KT CAVOK M01/M03 Q1025",
      "taf": "TAF EPSC 052330Z 0600/0624 12005KT CAVOK"
    },
    {
      "icao": "EPSY",
      "alert": "OK",
      "vis_m": 9999,
      "fzfg": false,
      "metar_trigger": false,
      "taf_trigger": false,
      "metar": "METAR EPSY 052330Z 00000KT CAVOK M04/M05 Q1025",
      "taf": "TAF EPSY 052330Z 0600/0609 VRB02KT CAVOK"
    },
    {
      "icao": "EPWA",
      "alert": "OK",
      "vis_m": 7000,
      "fzfg": false,
      "metar_trigger": false,
      "taf_trigger": false,
      "metar": "METAR EPWA 052330Z 25003KT 7000 MIFG NSC M01/M01 Q1026 TEMPO 3000 BR",
      "taf": "TAF EPWA 052330Z 0600/0624 VRB02KT 7000 NSC"
    },
    {
      "icao": "EPWR",
      "alert": "OK",
      "vis_m": 9999,
      "fzfg": false,
      "metar_trigger": false,
      "taf_trigger": false,
      "metar": "METAR EPWR 052330Z 11003KT CAVOK M00/M02 Q1026",
      "taf": "TAF EPWR 052330Z 0600/0624 12004KT CAVOK"
    },
    {
      "icao": "ESGG",
      "alert": "OK",
      "vis_m": 9999,
      "fzfg": false,
      "metar_trigger": false,
      "taf_trigger": false,
      "metar": "METAR ESGG 052320Z 14004KT CAVOK 00/M01 Q1023",
      "taf": "TAF ESGG 052330Z 0600/0624 15005KT CAVOK"
    },
    {
      "icao": "ESKN",
      "alert": "OK",
      "vis_m": 9999,
      "fzfg": false,
      "metar_trigger": false,
      "taf_trigger": false,
      "metar": "METAR ESKN 052320Z 27005KT CAVOK M01/M03 Q1022",
      "taf": "TAF ESKN 052330Z 0600/0624 27004KT CAVOK"
    },
    {
      "icao": "ESMS",
      "alert": "OK",
      "vis_m": 9999,
      "fzfg": false,
      "metar_trigger": false,
      "taf_trigger": false,
      "metar": "METAR ESMS 052320Z 12003KT CAVOK M01/M01 Q1024",
      "taf": "TAF ESMS 052327Z 0600/0624 12005KT CAVOK"
    },
    {
      "icao": "ESSA",
      "alert": "OK",
      "vis_m": 9999,
      "fzfg": false,
      "metar_trigger": false,
      "taf_trigger": false,
      "metar": "METAR ESSA 052320Z 26005KT CAVOK 01/M03 Q1021 NOSIG",
      "taf": "TAF ESSA 052330Z 0600/0624 25005KT CAVOK"
    },
    {
      "icao": "EYKA",
      "alert": "OK",
      "vis_m": 9999,
      "fzfg": false,
      "metar_trigger": false,
      "taf_trigger": false,
      "metar": "METAR EYKA 052320Z 28006KT CAVOK M00/M01 Q1023",
      "taf": "TAF EYKA 052300Z 0600/0624 VRB04KT 5000 BR SCT003"
    },
    {
      "icao": "EYPA",
      "alert": "OK",
      "vis_m": 1400,
      "fzfg": true,
      "metar_trigger": false,
      "taf_trigger": false,
      "metar": "METAR EYPA 052320Z 10002KT 1400 R19/1600U BR OVC001 M02/M03 Q1024",
      "taf": "TAF EYPA 052300Z 0600/0624 VRB04KT 0600 FZFG VV002"
    },
    {
      "icao": "EYVI",
      "alert": "OK",
      "vis_m": 9999,
      "fzfg": false,
      "metar_trigger": false,
      "taf_trigger": false,
      "metar": "METAR EYVI 052250Z 33006KT CAVOK 01/M01 Q1022 NOSIG",
      "taf": "TAF EYVI 052300Z 0600/0624 VRB04KT 5000 BR SCT003"
    },
    {
      "icao": "GCFV",
      "alert": "OK",
      "vis_m": 9999,
      "fzfg": false,
      "metar_trigger": false,
      "taf_trigger": false,
      "metar": "METAR GCFV 052330Z AUTO 33009KT CAVOK 16/11 Q1023",
      "taf": "TAF GCFV 052000Z 0521/0621 36009KT 9999 SCT030 TX20/0614Z TN15/0606Z"
    },
    {
      "icao": "GCLP",
      "alert": "OK",
      "vis_m": 9999,
      "fzfg": false,
      "metar_trigger": false,
      "taf_trigger": false,
      "metar": "METAR GCLP 052330Z 36014KT 9999 FEW030 16/11 Q1023 NOSIG",
      "taf": "TAF GCLP 052000Z 0521/0621 36012KT 9999 SCT030 TX18/0614Z TN15/0606Z"
    },
    {
      "icao": "GCTS",
      "alert": "OK",
      "vis_m": 9999,
      "fzfg": false,
      "metar_trigger": false,
      "taf_trigger": false,
      "metar": "METAR GCTS 052330Z 05004KT 020V080 9999 FEW030 18/12 Q1023 NOSIG",
      "taf": "TAF GCTS 052000Z 0521/0621 34007KT 9999 SCT035 TX23/0614Z TN15/0606Z"
    },
    {
      "icao": "GMAD",
      "alert": "OK",
      "vis_m": 8000,
      "fzfg": false,
      "metar_trigger": false,
      "taf_trigger": false,
      "metar": "METAR GMAD 052330Z 20003KT 8000 NSC 14/12 Q1018 NOSIG",
      "taf": "TAF GMAD 052300Z 0600/0706 18005KT 8000 SCT020"
    },
    {
      "icao": "GMMN",
      "alert": "OK",
      "vis_m": 9999,
      "fzfg": false,
      "metar_trigger": false,
      "taf_trigger": false,
      "metar": "METAR GMMN 052330Z 23005KT 9999 SCT010 BKN020 11/10 Q1021 NOSIG",
      "taf": "TAF GMMN 052300Z 0600/0706 24005KT 9999 SCT010 BKN016"
    },
    {
      "icao": "GMMX",
      "alert": "OK",
      "vis_m": 8000,
      "fzfg": false,
      "metar_trigger": false,
      "taf_trigger": false,
      "metar": "METAR GMMX 052330Z VRB02KT 8000 BKN010 13/11 Q1021 NOSIG",
      "taf": "TAF GMMX 052300Z 0600/0706 24007KT 8000 SCT026"
    },
    {
      "icao": "HEGN",
      "alert": "OK",
      "vis_m": 9999,
      "fzfg": false,
      "metar_trigger": false,
      "taf_trigger": false,
      "metar": "METAR HEGN 052300Z 27008KT CAVOK 16/01 Q1018 NOSIG",
      "taf": "TAF HEGN 052300Z 0600/0706 28012KT CAVOK"
    },
    {
      "icao": "HEMA",
      "alert": "OK",
      "vis_m": 9999,
      "fzfg": false,
      "metar_trigger": false,
      "taf_trigger": false,
      "metar": "METAR HEMA 052300Z 29010KT CAVOK 16/07 Q1016 NOSIG",
      "taf": "TAF HEMA 052300Z 0600/0706 29006G18KT CAVOK"
    },
    {
      "icao": "HESH",
      "alert": "OK",
      "vis_m": 9999,
      "fzfg": false,
      "metar_trigger": false,
      "taf_trigger": false,
      "metar": "METAR HESH 052300Z 34010KT CAVOK 19/04 Q1016 NOSIG",
      "taf": "TAF HESH 052300Z 0600/0706 31011KT CAVOK"
    },
    {
      "icao": "HESX",
      "alert": "OK",
      "vis_m": 6000,
      "fzfg": false,
      "metar_trigger": false,
      "taf_trigger": false,
      "metar": "METAR HESX 052300Z 01006KT 6000 NSC 11/09 Q1021 NOSIG",
      "taf": "TAF HESX 052300Z 0600/0706 02006KT 9999 SCT025"
    },
    {
      "icao": "LATI",
      "alert": "OK",
      "vis_m": 6000,
      "fzfg": false,
      "metar_trigger": false,
      "taf_trigger": false,
      "metar": "METAR LATI 052320Z VRB01KT 6000 NSC 07/05 Q1024 TEMPO 3000 BCFG",
      "taf": "TAF LATI 052300Z 0600/0624 VRB03KT 3000 BCFG NSC TX20/0612Z TN04/0605Z"
    },
    {
      "icao": "LBPD",
      "alert": "OK",
      "vis_m": 9999,
      "fzfg": false,
      "metar_trigger": false,
      "taf_trigger": false,
      "metar": "METAR LBPD 052330Z AUTO VRB01KT 9999 NCD 04/04 Q1024",
      "taf": "TAF LBPD 052300Z 0600/0624 28010KT 9999 SCT070"
    },
    {
      "icao": "LBSF",
      "alert": "OK",
      "vis_m": 4500,
      "fzfg": false,
      "metar_trigger": false,
      "taf_trigger": false,
      "metar": "METAR LBSF 052330Z AUTO VRB01KT 4500 BR NCD 02/01 Q1025 TEMPO 3000 BR",
      "taf": "TAF LBSF 052300Z 0600/0624 VRB03KT CAVOK"
    },
    {
      "icao": "LBWN",
      "alert": "OK",
      "vis_m": 9000,
      "fzfg": false,
      "metar_trigger": false,
      "taf_trigger": false,
      "metar": "METAR LBWN 052330Z AUTO 31003KT 9000 NSC 06/03 Q1023 NOSIG",
      "taf": "TAF LBWN 052300Z 0600/0624 VRB03KT 9999 SCT030"
    },
    {
      "icao": "LCLK",
      "alert": "OK",
      "vis_m": 9999,
      "fzfg": false,
      "metar_trigger": false,
      "taf_trigger": false,
      "metar": "METAR LCLK 052330Z 31008KT CAVOK 09/07 Q1021 NOSIG",
      "taf": "TAF LCLK 052330Z 0600/0700 32006KT CAVOK"
    },
    {
      "icao": "LCPH",
      "alert": "OK",
      "vis_m": 9999,
      "fzfg": false,
      "metar_trigger": false,
      "taf_trigger": false,
      "metar": "METAR LCPH 052330Z 06005KT 010V080 9999 FEW030 11/06 Q1021 NOSIG",
      "taf": "TAF LCPH 052330Z 0600/0700 05007KT CAVOK"
    },
    {
      "icao": "LEAL",
      "alert": "OK",
      "vis_m": 9999,
      "fzfg": false,
      "metar_trigger": false,
      "taf_trigger": false,
      "metar": "METAR LEAL 052330Z 29003KT 250V310 9999 BKN045 11/11 Q1010 NOSIG",
      "taf": "TAF LEAL 052300Z 0600/0624 27007KT 9999 FEW020 TX15/0613Z TN07/0606Z"
    },
    {
      "icao": "LEBB",
      "alert": "OK",
      "vis_m": 4100,
      "fzfg": false,
      "metar_trigger": false,
      "taf_trigger": false,
      "metar": "METAR LEBB 052330Z AUTO 29006KT 4100 -RA BR OVC013 11/10 Q1016",
      "taf": "TAF LEBB 052300Z 0600/0624 31009KT 9000 SCT010 BKN020 TX11/0600Z TN10/0609Z"
    },
    {
      "icao": "LEBL",
      "alert": "OK",
      "vis_m": 800,
      "fzfg": false,
      "metar_trigger": false,
      "taf_trigger": false,
      "metar": "METAR LEBL 052330Z 06016KT 0800 R24R/1400N R02/P2000 R06R/1900N R24L/P2000 DZ BKN005 BKN015 BKN035 14/14 Q1013 NOSIG",
      "taf": "TAF LEBL 052300Z 0600/0624 06012KT 2500 BR BKN005 BKN015 TX16/0612Z TN12/0606Z"
    },
    {
      "icao": "LECH",
      "alert": "OK",
      "vis_m": 8000,
      "fzfg": false,
      "metar_trigger": false,
      "taf_trigger": false,
      "metar": "METAR LECH 052330Z AUTO 01002KT 8000 BKN019 BKN025 OVC049 11/11 Q1011",
      "taf": ""
    },
    {
      "icao": "LEMD",
      "alert": "OK",
      "vis_m": 9999,
      "fzfg": false,
      "metar_trigger": false,
      "taf_trigger": false,
      "metar": "METAR LEMD 052330Z VRB02KT 9999 -RA SCT026 BKN035 09/09 Q1011 NOSIG",
      "taf": "TAF LEMD 052300Z 0600/0706 VRB04KT 9999 FEW060 TX14/0613Z TN07/0607Z"
    },
    {
      "icao": "LEMG",
      "alert": "OK",
      "vis_m": 9999,
      "fzfg": false,
      "metar_trigger": false,
      "taf_trigger": false,
      "metar": "METAR LEMG 052330Z 28005KT 240V300 9999 FEW040 11/08 Q1013 NOSIG",
      "taf": "TAF LEMG 052300Z 0600/0624 29008KT 9999 FEW050 TX14/0614Z TN09/0607Z"
    },
    {
      "icao": "LEVC",
      "alert": "OK",
      "vis_m": 6000,
      "fzfg": false,
      "metar_trigger": false,
      "taf_trigger": false,
      "metar": "METAR LEVC 052330Z 32003KT 6000 FEW007 BKN009 13/12 Q1011 NOSIG",
      "taf": "TAF LEVC 052300Z 0600/0624 30007KT 9999 BKN015 TX15/0613Z TN10/0606Z"
    },
    {
      "icao": "LEXJ",
      "alert": "OK",
      "vis_m": 5000,
      "fzfg": false,
      "metar_trigger": false,
      "taf_trigger": false,
      "metar": "METAR LEXJ 052330Z AUTO 27010KT 5000 -RA BR SCT009 BKN021 BKN065 09/08 Q1017",
      "taf": "TAF LEXJ 052000Z 0521/0621 30009KT 9000 SCT010 BKN020 TX11/0615Z TN09/0606Z"
    },
    {
      "icao": "LEZG",
      "alert": "OK",
      "vis_m": 9000,
      "fzfg": false,
      "metar_trigger": false,
      "taf_trigger": false,
      "metar": "METAR LEZG 052330Z 24003KT 210V270 9000 -RA BKN010 BKN020 12/12 Q1013 NOSIG",
      "taf": "TAF LEZG 052300Z 0600/0624 31009KT 9999 BKN020 TX12/0614Z TN09/0606Z"
    },
    {
      "icao": "LEZL",
      "alert": "OK",
      "vis_m": 9999,
      "fzfg": false,
      "metar_trigger": false,
      "taf_trigger": false,
      "metar": "METAR LEZL 052330Z 24010KT 9999 FEW012 BKN040 14/12 Q1014 NOSIG",
      "taf": "TAF LEZL 052000Z 0521/0621 26009KT 9999 FEW020 SCT040 TX15/0615Z TN10/0607Z"
    },
    {
      "icao": "LFBD",
      "alert": "OK",
      "vis_m": 4000,
      "fzfg": false,
      "metar_trigger": false,
      "taf_trigger": false,
      "metar": "METAR LFBD 052330Z AUTO 08006KT 4000 -RA BR FEW007 SCT011 BKN025 12/11 Q1015 TEMPO BKN010 BECMG 9999 NSW",
      "taf": "TAF LFBD 052300Z 0600/0706 07005KT 9999 BKN025 TX17/0614Z TN12/0702Z"
    },
    {
      "icao": "LFLL",
      "alert": "OK",
      "vis_m": 9999,
      "fzfg": false,
      "metar_trigger": false,
      "taf_trigger": false,
      "metar": "METAR LFLL 052330Z 14008KT CAVOK 12/06 Q1018 NOSIG",
      "taf": "TAF LFLL 052300Z 0600/0706 16005KT CAVOK"
    },
    {
      "icao": "LFLS",
      "alert": "OK",
      "vis_m": 9999,
      "fzfg": false,
      "metar_trigger": false,
      "taf_trigger": false,
      "metar": "METAR LFLS 052330Z AUTO 09006KT CAVOK 06/05 Q1019",
      "taf": "TAF LFLS 051400Z 0515/0615 VRB03KT CAVOK"
    },
    {
      "icao": "LFMN",
      "alert": "OK",
      "vis_m": 9999,
      "fzfg": false,
      "metar_trigger": false,
      "taf_trigger": false,
      "metar": "METAR LFMN 052330Z 07015KT 9999 BKN100 BKN210 18/06 Q1019 NOSIG",
      "taf": "TAF LFMN 052000Z 0521/0703 08013KT 9999 BKN100"
    },
    {
      "icao": "LFOB",
      "alert": "OK",
      "vis_m": 9999,
      "fzfg": false,
      "metar_trigger": false,
      "taf_trigger": false,
      "metar": "METAR LFOB 052330Z AUTO 02001KT CAVOK 07/06 Q1017 NOSIG",
      "taf": "TAF LFOB 052300Z 0600/0624 VRB03KT CAVOK"
    },
    {
      "icao": "LFPO",
      "alert": "OK",
      "vis_m": 9999,
      "fzfg": false,
      "metar_trigger": false,
      "taf_trigger": false,
      "metar": "METAR LFPO 052330Z 00000KT CAVOK 10/06 Q1017 NOSIG",
      "taf": "TAF LFPO 052300Z 0600/0706 VRB03KT CAVOK"
    },
    {
      "icao": "LFSB",
      "alert": "OK",
      "vis_m": 9999,
      "fzfg": false,
      "metar_trigger": false,
      "taf_trigger": false,
      "metar": "METAR LFSB 052330Z AUTO VRB01KT CAVOK 05/03 Q1019 NOSIG",
      "taf": "TAF LFSB 052300Z 0600/0624 VRB02KT CAVOK"
    },
    {
      "icao": "LGAV",
      "alert": "OK",
      "vis_m": 9999,
      "fzfg": false,
      "metar_trigger": false,
      "taf_trigger": false,
      "metar": "METAR LGAV 052320Z VRB01KT 9999 SCT035 11/07 Q1023 NOSIG",
      "taf": "TAF LGAV 052300Z 0600/0624 02012KT 9999 SCT025 SCT070"
    },
    {
      "icao": "LGTS",
      "alert": "OK",
      "vis_m": 9999,
      "fzfg": false,
      "metar_trigger": false,
      "taf_trigger": false,
      "metar": "METAR LGTS 052320Z VRB03KT 9999 FEW025 07/07 Q1025 NOSIG",
      "taf": "TAF LGTS 052300Z 0600/0624 34013KT 9999 FEW025"
    },
    {
      "icao": "LHBP",
      "alert": "OK",
      "vis_m": 9000,
      "fzfg": false,
      "metar_trigger": false,
      "taf_trigger": false,
      "metar": "METAR LHBP 052330Z VRB01KT 9000 NSC 02/M01 Q1025 NOSIG",
      "taf": "TAF LHBP 052315Z 0600/0624 09007KT CAVOK"
    },
    {
      "icao": "LHDC",
      "alert": "OK",
      "vis_m": 9999,
      "fzfg": false,
      "metar_trigger": false,
      "taf_trigger": false,
      "metar": "METAR LHDC 052315Z AUTO 04008KT CAVOK 03/M03 Q1025",
      "taf": "TAF LHDC 051415Z 0515/0524 33006KT CAVOK"
    },
    {
      "icao": "LIBD",
      "alert": "OK",
      "vis_m": 6000,
      "fzfg": false,
      "metar_trigger": false,
      "taf_trigger": false,
      "metar": "METAR LIBD 052320Z 24004KT 6000 FEW016 07/07 Q1024",
      "taf": "TAF LIBD 052300Z 0600/0624 VRB05KT 6000 SCT015"
    },
    {
      "icao": "LIBG",
      "alert": "OK",
      "vis_m": null,
      "fzfg": false,
      "metar_trigger": false,
      "taf_trigger": false,
      "metar": "",
      "taf": "TAF LIBG 051700Z 0518/0603 VRB05KT 9999 SCT030"
    },
    {
      "icao": "LIBP",
      "alert": "OK",
      "vis_m": 3700,
      "fzfg": false,
      "metar_trigger": false,
      "taf_trigger": false,
      "metar": "METAR LIBP 052320Z AUTO VRB01KT 3700 BR BKN017/// BKN028/// 09/09 Q1025",
      "taf": "TAF LIBP 052300Z 0600/0624 VRB05KT 3000 BR FEW030"
    },
    {
      "icao": "LIBR",
      "alert": "OK",
      "vis_m": 9999,
      "fzfg": false,
      "metar_trigger": false,
      "taf_trigger": false,
      "metar": "METAR LIBR 052320Z 02009KT 9999 SCT015 13/11 Q1024",
      "taf": "TAF LIBR 052300Z 0600/0624 33008KT 7000 FEW020"
    },
    {
      "icao": "LICA",
      "alert": "OK",
      "vis_m": 9999,
      "fzfg": false,
      "metar_trigger": false,
      "taf_trigger": false,
      "metar": "METAR LICA 052320Z AUTO 05014KT 9999 NCD 13/11 Q1022",
      "taf": "TAF LICA 052300Z 0600/0624 08016KT CAVOK"
    },
    {
      "icao": "LICC",
      "alert": "OK",
      "vis_m": 9999,
      "fzfg": false,
      "metar_trigger": false,
      "taf_trigger": false,
      "metar": "METAR LICC 052320Z 09012KT 9999 BKN040 15/13 Q1022",
      "taf": "TAF LICC 052300Z 0600/0624 08012KT 9999 FEW015 BKN040"
    },
    {
      "icao": "LICJ",
      "alert": "OK",
      "vis_m": 9999,
      "fzfg": false,
      "metar_trigger": false,
      "taf_trigger": false,
      "metar": "METAR LICJ 052320Z 15005KT CAVOK 13/11 Q1019",
      "taf": "TAF LICJ 052300Z 0600/0624 VRB05KT CAVOK"
    },
    {
      "icao": "LIMC",
      "alert": "OK",
      "vis_m": 3000,
      "fzfg": false,
      "metar_trigger": false,
      "taf_trigger": false,
      "metar": "METAR LIMC 052320Z 17002KT 3000 BR BKN020 09/08 Q1025 NOSIG",
      "taf": "TAF LIMC 052300Z 0600/0706 VRB05KT 3000 BR BKN020"
    },
    {
      "icao": "LIME",
      "alert": "OK",
      "vis_m": 5000,
      "fzfg": false,
      "metar_trigger": false,
      "taf_trigger": false,
      "metar": "METAR LIME 052320Z 02002KT 5000 BR SCT020 08/06 Q1025 NOSIG",
      "taf": "TAF LIME 052300Z 0600/0624 VRB05KT 3000 BR BKN020"
    },
    {
      "icao": "LIMF",
      "alert": "OK",
      "vis_m": 3000,
      "fzfg": false,
      "metar_trigger": false,
      "taf_trigger": false,
      "metar": "METAR LIMF 052320Z 35002KT 3000 BR SCT006 BKN015 09/07 Q1025",
      "taf": "TAF LIMF 052300Z 0600/0624 VRB04KT 3000 BR BKN006"
    },
    {
      "icao": "LIMJ",
      "alert": "OK",
      "vis_m": 8000,
      "fzfg": false,
      "metar_trigger": false,
      "taf_trigger": false,
      "metar": "METAR LIMJ 052320Z AUTO 03016KT 8000 NCD 12/06 Q1022",
      "taf": "TAF LIMJ 052300Z 0600/0624 35015KT 8000 FEW040"
    },
    {
      "icao": "LIPE",
      "alert": "OK",
      "vis_m": 5000,
      "fzfg": false,
      "metar_trigger": false,
      "taf_trigger": false,
      "metar": "METAR LIPE 052320Z 01001KT 5000 BR BKN026 10/09 Q1025",
      "taf": "TAF LIPE 052300Z 0600/0624 VRB04KT 4000 BR SCT015"
    },
    {
      "icao": "LIPH",
      "alert": "OK",
      "vis_m": 2200,
      "fzfg": false,
      "metar_trigger": false,
      "taf_trigger": false,
      "metar": "METAR LIPH 052320Z AUTO VRB01KT 2200 1300E BR NCD 06/06 Q1025",
      "taf": "TAF LIPH 052300Z 0600/0624 VRB04KT 2000 BR FEW015"
    },
    {
      "icao": "LIPQ",
      "alert": "OK",
      "vis_m": 1000,
      "fzfg": false,
      "metar_trigger": false,
      "taf_trigger": false,
      "metar": "METAR LIPQ 052320Z AUTO 07002KT 1000 R09/P2000D BR BKN012/// 05/05 Q1025",
      "taf": "TAF LIPQ 052300Z 0600/0624 VRB05KT 2000 BR SCT015"
    },
    {
      "icao": "LIPR",
      "alert": "OK",
      "vis_m": 9999,
      "fzfg": false,
      "metar_trigger": false,
      "taf_trigger": false,
      "metar": "METAR LIPR 052320Z AUTO 35002KT 9999 OVC023/// 10/09 Q1025",
      "taf": "TAF LIPR 052300Z 0600/0624 VRB05KT 7000 BKN018"
    },
    {
      "icao": "LIPX",
      "alert": "OK",
      "vis_m": 5000,
      "fzfg": false,
      "metar_trigger": false,
      "taf_trigger": false,
      "metar": "METAR LIPX 052320Z 32004KT 5000 BR NSC 06/05 Q1025",
      "taf": "TAF LIPX 052300Z 0600/0624 VRB05KT 6000 BKN020"
    },
    {
      "icao": "LIPY",
      "alert": "OK",
      "vis_m": 5000,
      "fzfg": false,
      "metar_trigger": false,
      "taf_trigger": false,
      "metar": "METAR LIPY 052320Z AUTO 24001KT 5000 BR OVC024/// 10/09 Q1025",
      "taf": "TAF LIPY 052300Z 0600/0624 VRB05KT 7000 BKN015"
    },
    {
      "icao": "LIPZ",
      "alert": "OK",
      "vis_m": 6000,
      "fzfg": false,
      "metar_trigger": false,
      "taf_trigger": false,
      "metar": "METAR LIPZ 052320Z 31002KT 6000 NSC 08/07 Q1025 NOSIG",
      "taf": "TAF LIPZ 052300Z 0600/0706 VRB04KT 4000 BR NSC"
    },
    {
      "icao": "LIRF",
      "alert": "OK",
      "vis_m": 9000,
      "fzfg": false,
      "metar_trigger": false,
      "taf_trigger": false,
      "metar": "METAR LIRF 052320Z 08003KT 9000 NSC 10/09 Q1021 NOSIG",
      "taf": "TAF LIRF 052300Z 0600/0706 07006KT CAVOK"
    },
    {
      "icao": "LIRN",
      "alert": "OK",
      "vis_m": 9999,
      "fzfg": false,
      "metar_trigger": false,
      "taf_trigger": false,
      "metar": "METAR LIRN 052320Z 26004KT CAVOK 11/08 Q1022 NOSIG",
      "taf": "TAF LIRN 052300Z 0600/0624 VRB05KT CAVOK"
    },
    {
      "icao": "LIRP",
      "alert": "OK",
      "vis_m": 9999,
      "fzfg": false,
      "metar_trigger": false,
      "taf_trigger": false,
      "metar": "METAR LIRP 052315Z 12006KT CAVOK 10/09 Q1022 NOSIG",
      "taf": "TAF LIRP 052300Z 0600/0624 11012KT 9999 FEW030 SCT070"
    },
    {
      "icao": "LIRZ",
      "alert": "OK",
      "vis_m": 9999,
      "fzfg": false,
      "metar_trigger": false,
      "taf_trigger": false,
      "metar": "METAR LIRZ 052320Z AUTO 36009KT 9999 NCD 09/07 Q1022",
      "taf": "TAF LIRZ 052300Z 0600/0624 35010KT CAVOK"
    },
    {
      "icao": "LJLJ",
      "alert": "OK",
      "vis_m": 9999,
      "fzfg": false,
      "metar_trigger": false,
      "taf_trigger": false,
      "metar": "METAR LJLJ 052330Z 31002KT CAVOK 01/01 Q1025 NOSIG",
      "taf": "TAF LJLJ 052300Z 0600/0700 VRB02KT CAVOK"
    },
    {
      "icao": "LKMT",
      "alert": "OK",
      "vis_m": 9999,
      "fzfg": false,
      "metar_trigger": false,
      "taf_trigger": false,
      "metar": "METAR LKMT 052330Z 20002KT CAVOK M01/M03 Q1026 NOSIG",
      "taf": "TAF LKMT 052300Z 0600/0624 VRB01KT CAVOK"
    },
    {
      "icao": "LKPR",
      "alert": "OK",
      "vis_m": 9000,
      "fzfg": false,
      "metar_trigger": false,
      "taf_trigger": false,
      "metar": "METAR LKPR 052330Z 23003KT 9000 NSC 02/02 Q1024 NOSIG",
      "taf": "TAF LKPR 052300Z 0600/0706 12004KT CAVOK"
    },
    {
      "icao": "LLBG",
      "alert": "OK",
      "vis_m": 9999,
      "fzfg": false,
      "metar_trigger": false,
      "taf_trigger": false,
      "metar": "METAR LLBG 052320Z VRB02KT CAVOK 09/04 Q1021 NOSIG",
      "taf": "TAF LLBG 052303Z 0600/0624 VRB03KT CAVOK TX19/0612Z TN06/0604Z"
    },
    {
      "icao": "LMML",
      "alert": "OK",
      "vis_m": 9999,
      "fzfg": false,
      "metar_trigger": false,
      "taf_trigger": false,
      "metar": "METAR LMML 052315Z 11018KT 9999 BKN012 15/13 Q1020 NOSIG",
      "taf": "TAF LMML 052300Z 0600/0624 11015KT 9999 SCT012"
    },
    {
      "icao": "LOWW",
      "alert": "OK",
      "vis_m": 9999,
      "fzfg": false,
      "metar_trigger": false,
      "taf_trigger": false,
      "metar": "METAR LOWW 052320Z 19003KT CAVOK 03/M02 Q1024 NOSIG",
      "taf": "TAF LOWW 052321Z 0600/0706 06004KT CAVOK TX15/0614Z TN02/0605Z"
    },
    {
      "icao": "LPFR",
      "alert": "OK",
      "vis_m": 9999,
      "fzfg": false,
      "metar_trigger": false,
      "taf_trigger": false,
      "metar": "METAR LPFR 052330Z 31014KT 9999 FEW020 12/06 Q1018",
      "taf": "TAF LPFR 052300Z 0600/0624 32015KT 9999 SCT030"
    },
    {
      "icao": "LPMA",
      "alert": "OK",
      "vis_m": 9999,
      "fzfg": false,
      "metar_trigger": false,
      "taf_trigger": false,
      "metar": "METAR LPMA 052330Z 01022KT 330V030 9999 SCT015 14/07 Q1028",
      "taf": "TAF LPMA 052300Z 0600/0624 01015G25KT 9999 SCT015"
    },
    {
      "icao": "LPPR",
      "alert": "OK",
      "vis_m": 9999,
      "fzfg": false,
      "metar_trigger": false,
      "taf_trigger": false,
      "metar": "METAR LPPR 052330Z 34014KT 9999 FEW040 09/04 Q1020",
      "taf": "TAF LPPR 052300Z 0600/0624 35013KT 9999 SCT025"
    },
    {
      "icao": "LPPS",
      "alert": "OK",
      "vis_m": 9999,
      "fzfg": false,
      "metar_trigger": false,
      "taf_trigger": false,
      "metar": "METAR LPPS 052330Z 04015KT 010V070 9999 SCT015 BKN030 14/06 Q1029",
      "taf": "TAF LPPS 052300Z 0600/0706 03015KT 9999 FEW015 BKN030"
    },
    {
      "icao": "LPPT",
      "alert": "OK",
      "vis_m": 9999,
      "fzfg": false,
      "metar_trigger": false,
      "taf_trigger": false,
      "metar": "METAR LPPT 052330Z 33015KT 9999 -RA FEW020 FEW025TCU 09/05 Q1020 WS R02",
      "taf": "TAF LPPT 052300Z 0600/0706 33017KT 9999 SCT025"
    },
    {
      "icao": "LQBK",
      "alert": "OK",
      "vis_m": 9999,
      "fzfg": false,
      "metar_trigger": false,
      "taf_trigger": false,
      "metar": "METAR LQBK 052330Z VRB02KT CAVOK 03/M00 Q1025 NOSIG",
      "taf": "TAF LQBK 052300Z 0600/0624 15005KT CAVOK TX17/0614Z TN01/0605Z"
    },
    {
      "icao": "LQSA",
      "alert": "OK",
      "vis_m": 9999,
      "fzfg": false,
      "metar_trigger": false,
      "taf_trigger": false,
      "metar": "METAR LQSA 052330Z VRB02KT CAVOK 01/01 Q1026",
      "taf": "TAF LQSA 052300Z 0600/0624 VRB02KT CAVOK TX17/0612Z TNM01/0605Z"
    },
    {
      "icao": "LQTZ",
      "alert": "OK",
      "vis_m": 6000,
      "fzfg": false,
      "metar_trigger": false,
      "taf_trigger": false,
      "metar": "METAR LQTZ 052330Z VRB02KT 6000 NSC 01/01 Q1026",
      "taf": ""
    },
    {
      "icao": "LRBC",
      "alert": "OK",
      "vis_m": 9999,
      "fzfg": false,
      "metar_trigger": false,
      "taf_trigger": false,
      "metar": "METAR LRBC 052330Z 34004KT CAVOK 04/M02 Q1024",
      "taf": "TAF LRBC 052300Z 0600/0609 35004KT CAVOK"
    },
    {
      "icao": "LRBS",
      "alert": "OK",
      "vis_m": 6000,
      "fzfg": false,
      "metar_trigger": false,
      "taf_trigger": false,
      "metar": "METAR LRBS 052330Z 07006KT 6000 NSC 04/03 Q1024 NOSIG",
      "taf": "TAF LRBS 052300Z 0600/0624 VRB04KT 5000 BR NSC"
    },
    {
      "icao": "LRBV",
      "alert": "OK",
      "vis_m": 9999,
      "fzfg": false,
      "metar_trigger": false,
      "taf_trigger": false,
      "metar": "METAR LRBV 052330Z AUTO 26006KT 9999 BKN054/// 05/M03 Q1023",
      "taf": "TAF LRBV 052000Z 0521/0606 28006KT 9999 SCT045"
    },
    {
      "icao": "LRCL",
      "alert": "OK",
      "vis_m": 9999,
      "fzfg": false,
      "metar_trigger": false,
      "taf_trigger": false,
      "metar": "METAR LRCL 052330Z 26004KT CAVOK 03/M05 Q1024",
      "taf": "TAF LRCL 052300Z 0600/0609 27006KT CAVOK"
    },
    {
      "icao": "LRCV",
      "alert": "OK",
      "vis_m": 9999,
      "fzfg": false,
      "metar_trigger": false,
      "taf_trigger": false,
      "metar": "METAR LRCV 052330Z 30004KT 270V330 CAVOK 05/03 Q1023",
      "taf": "TAF LRCV 052300Z 0600/0609 VRB04KT CAVOK"
    },
    {
      "icao": "LRIA",
      "alert": "OK",
      "vis_m": 9999,
      "fzfg": false,
      "metar_trigger": false,
      "taf_trigger": false,
      "metar": "METAR LRIA 052330Z 26007KT 210V300 CAVOK 03/M02 Q1023",
      "taf": "TAF LRIA 052300Z 0600/0609 30010KT CAVOK"
    },
    {
      "icao": "LROP",
      "alert": "OK",
      "vis_m": 6000,
      "fzfg": false,
      "metar_trigger": false,
      "taf_trigger": false,
      "metar": "METAR LROP 052330Z 06006KT 6000 NSC 04/02 Q1024 NOSIG",
      "taf": "TAF LROP 052300Z 0600/0624 VRB04KT 5000 BR NSC"
    },
    {
      "icao": "LRSB",
      "alert": "OK",
      "vis_m": 9999,
      "fzfg": false,
      "metar_trigger": false,
      "taf_trigger": false,
      "metar": "METAR LRSB 052330Z 27004KT CAVOK 04/M01 Q1024",
      "taf": "TAF LRSB 052300Z 0600/0624 34006KT 9999 SCT040"
    },
    {
      "icao": "LRSM",
      "alert": "OK",
      "vis_m": 9999,
      "fzfg": false,
      "metar_trigger": false,
      "taf_trigger": false,
      "metar": "METAR LRSM 052330Z AUTO 29004KT 9999 NCD 01/M04 Q1025",
      "taf": "TAF LRSM 051400Z 0515/0524 31008KT CAVOK"
    },
    {
      "icao": "LRSV",
      "alert": "OK",
      "vis_m": 9999,
      "fzfg": false,
      "metar_trigger": false,
      "taf_trigger": false,
      "metar": "METAR LRSV 052330Z AUTO 29011KT 9999 NCD 04/M04 Q1023",
      "taf": "TAF LRSV 052300Z 0600/0609 30010KT CAVOK"
    },
    {
      "icao": "LRTM",
      "alert": "OK",
      "vis_m": 9999,
      "fzfg": false,
      "metar_trigger": false,
      "taf_trigger": false,
      "metar": "METAR LRTM 052330Z AUTO 23003KT 210V290 9999 NCD 03/M04 Q1024",
      "taf": "TAF LRTM 051400Z 0515/0524 30010KT CAVOK"
    },
    {
      "icao": "LRTR",
      "alert": "OK",
      "vis_m": 9999,
      "fzfg": false,
      "metar_trigger": false,
      "taf_trigger": false,
      "metar": "METAR LRTR 052330Z 05003KT CAVOK 05/02 Q1025",
      "taf": "TAF LRTR 052300Z 0600/0624 VRB04KT CAVOK"
    },
    {
      "icao": "LTAC",
      "alert": "OK",
      "vis_m": 9999,
      "fzfg": false,
      "metar_trigger": false,
      "taf_trigger": false,
      "metar": "METAR LTAC 052320Z 13004KT 9999 SCT040 BKN100 04/M04 Q1019 NOSIG RMK RWY21C 12004KT RWY03L 12003KT 090V150 RWY21R 12003KT RWY03R VRB02KT RWY21L 11005KT",
      "taf": "TAF LTAC 052240Z 0600/0624 VRB02KT 9999 SCT040 BKN100"
    },
    {
      "icao": "LTFM",
      "alert": "OK",
      "vis_m": 9999,
      "fzfg": false,
      "metar_trigger": false,
      "taf_trigger": false,
      "metar": "METAR LTFM 052320Z 30009G22KT 280V340 9999 SCT040 BKN090 10/05 Q1022 NOSIG RMK RWY17L 28005KT RWY34L 28007KT RWY16R 27005KT RWY36 30008KT RWY18 31006KT 280V340",
      "taf": "TAF LTFM 052240Z 0600/0706 30006KT 9999 SCT040 BKN090"
    },
    {
      "icao": "LUKK",
      "alert": "OK",
      "vis_m": 9999,
      "fzfg": false,
      "metar_trigger": false,
      "taf_trigger": false,
      "metar": "METAR LUKK 052330Z 32013KT CAVOK 05/M02 Q1022 NOSIG",
      "taf": "TAF LUKK 052317Z 0600/0624 33012KT CAVOK"
    },
    {
      "icao": "LWOH",
      "alert": "OK",
      "vis_m": null,
      "fzfg": false,
      "metar_trigger": false,
      "taf_trigger": false,
      "metar": "",
      "taf": "TAF LWOH 052030Z 0521/0621 33006KT 9999 FEW045"
    },
    {
      "icao": "LWSK",
      "alert": "OK",
      "vis_m": 7000,
      "fzfg": false,
      "metar_trigger": false,
      "taf_trigger": false,
      "metar": "METAR LWSK 052320Z VRB01KT 7000 NSC 02/01 Q1026 NOSIG",
      "taf": "TAF LWSK 052030Z 0521/0621 VRB02KT CAVOK"
    },
    {
      "icao": "LYBE",
      "alert": "OK",
      "vis_m": 8000,
      "fzfg": false,
      "metar_trigger": false,
      "taf_trigger": false,
      "metar": "METAR LYBE 052330Z 22005KT 8000 NSC 08/04 Q1025 NOSIG",
      "taf": "TAF LYBE 052300Z 0600/0624 20004KT 7000 NSC TX16/0612Z TN02/0606Z"
    },
    {
      "icao": "LYNI",
      "alert": "OK",
      "vis_m": 3000,
      "fzfg": false,
      "metar_trigger": false,
      "taf_trigger": false,
      "metar": "METAR LYNI 052330Z 13003KT 3000 MIFG BR NSC 03/03 Q1026 NOSIG",
      "taf": "TAF LYNI 052300Z 0600/0624 07004KT 4000 BR NSC TX16/0614Z TN02/0606Z"
    },
    {
      "icao": "LYPG",
      "alert": "OK",
      "vis_m": 9999,
      "fzfg": false,
      "metar_trigger": false,
      "taf_trigger": false,
      "metar": "METAR LYPG 052330Z 30003KT 180V330 CAVOK 08/07 Q1024 NOSIG",
      "taf": "TAF LYPG 052300Z 0600/0624 34005KT CAVOK TX19/0613Z TN07/0605Z"
    },
    {
      "icao": "LZIB",
      "alert": "OK",
      "vis_m": 9999,
      "fzfg": false,
      "metar_trigger": false,
      "taf_trigger": false,
      "metar": "METAR LZIB 052330Z VRB01KT CAVOK 04/M03 Q1025 NOSIG",
      "taf": "TAF LZIB 052315Z 0600/0700 04005KT CAVOK"
    },
    {
      "icao": "LZKZ",
      "alert": "OK",
      "vis_m": 9999,
      "fzfg": false,
      "metar_trigger": false,
      "taf_trigger": false,
      "metar": "METAR LZKZ 052330Z 34004KT CAVOK 03/M04 Q1026 NOSIG",
      "taf": "TAF LZKZ 052315Z 0600/0700 VRB02KT CAVOK"
    },
    {
      "icao": "LZTT",
      "alert": "OK",
      "vis_m": 9999,
      "fzfg": false,
      "metar_trigger": false,
      "taf_trigger": false,
      "metar": "METAR LZTT 052330Z VRB03KT CAVOK M03/M06 Q1025",
      "taf": "TAF LZTT 052315Z 0600/0700 25005KT CAVOK"
    },
    {
      "icao": "OEJN",
      "alert": "OK",
      "vis_m": 9999,
      "fzfg": false,
      "metar_trigger": false,
      "taf_trigger": false,
      "metar": "METAR OEJN 052300Z 33009KT 9999 SCT040 25/16 Q1012 NOSIG",
      "taf": "TAF OEJN 052300Z 0600/0706 36005KT 7000 SCT040"
    },
    {
      "icao": "OEMA",
      "alert": "OK",
      "vis_m": 9999,
      "fzfg": false,
      "metar_trigger": false,
      "taf_trigger": false,
      "metar": "METAR OEMA 052300Z 05007KT CAVOK 22/02 Q1017 NOSIG",
      "taf": "TAF OEMA 052300Z 0600/0706 06010KT CAVOK"
    },
    {
      "icao": "OJAI",
      "alert": "OK",
      "vis_m": 5000,
      "fzfg": false,
      "metar_trigger": false,
      "taf_trigger": false,
      "metar": "METAR OJAI 052300Z 06006KT 5000 HZ NSC 06/M03 Q1021 NOSIG",
      "taf": "TAF OJAI 052300Z 0600/0706 VRB02KT 5000 HZ NSC"
    },
    {
      "icao": "OMAA",
      "alert": "OK",
      "vis_m": null,
      "fzfg": false,
      "metar_trigger": false,
      "taf_trigger": false,
      "metar": "",
      "taf": ""
    },
    {
      "icao": "OMDB",
      "alert": "OK",
      "vis_m": null,
      "fzfg": false,
      "metar_trigger": false,
      "taf_trigger": false,
      "metar": "",
      "taf": ""
    },
    {
      "icao": "UAAA",
      "alert": "OK",
      "vis_m": 5000,
      "fzfg": false,
      "metar_trigger": false,
      "taf_trigger": false,
      "metar": "METAR UAAA 052330Z 00000MPS 5000 BR BKN018CB OVC100 02/01 Q1022 NOSIG",
      "taf": "TAF UAAA 052301Z 0600/0624 04003MPS 3100 -SHRA BR BKN015CB OVC030 TX04/0609Z TNM01/0601Z"
    },
    {
      "icao": "UBBB",
      "alert": "OK",
      "vis_m": 9999,
      "fzfg": false,
      "metar_trigger": false,
      "taf_trigger": false,
      "metar": "METAR UBBB 052330Z 20018KT CAVOK 07/03 Q1016 NOSIG",
      "taf": "TAF UBBB 052300Z 0600/0624 18014KT 9999 SCT025 TX12/0610Z TN05/0601Z"
    },
    {
      "icao": "UDSG",
      "alert": "OK",
      "vis_m": 9999,
      "fzfg": false,
      "metar_trigger": false,
      "taf_trigger": false,
      "metar": "METAR UDSG 052330Z 13002KT 9999 BKN049 M08/M10 Q1019 NOSIG",
      "taf": "TAF UDSG 052258Z 0600/0624 VRB06KT 9999 BKN040"
    },
    {
      "icao": "UDYZ",
      "alert": "OK",
      "vis_m": 9999,
      "fzfg": false,
      "metar_trigger": false,
      "taf_trigger": false,
      "metar": "METAR UDYZ 052330Z 03001KT 9999 NSC M02/M06 Q1021 NOSIG",
      "taf": "TAF UDYZ 052300Z 0600/0624 20004KT 9999 FEW040"
    },
    {
      "icao": "UGKO",
      "alert": "OK",
      "vis_m": 9999,
      "fzfg": false,
      "metar_trigger": false,
      "taf_trigger": false,
      "metar": "METAR UGKO 052330Z 07006KT CAVOK 03/M00 Q1019 NOSIG",
      "taf": "TAF UGKO 052300Z 0600/0624 08007KT 9999 SCT030 BKN050 TX09/0612Z TN02/0603Z"
    }
  ]
}