{
  "ts_utc": "2025-12-21T17:42:10Z",
  "threshold_m": 150,
  "source": "stations_override.txt (ICAO list) + aviationweather.gov (METAR/TAF raw)",
  "station_count": 114,
  "stations": [
    {
      "icao": "BIKF",
      "alert": "OK",
      "vis_m": 8000,
      "fzfg": false,
      "metar_trigger": false,
      "taf_trigger": false,
      "metar": "METAR BIKF 211730Z 13020KT 8000 -RA SCT009 BKN039 08/07 Q1006",
      "taf": "TAF BIKF 211632Z 2118/2218 13022G32KT 9999 SCT010 BKN020 TX08/2118Z TN06/2218Z"
    },
    {
      "icao": "BKPR",
      "alert": "OK",
      "vis_m": 2500,
      "fzfg": false,
      "metar_trigger": false,
      "taf_trigger": false,
      "metar": "METAR BKPR 211730Z 29003KT 250V340 2500 BR BKN006 02/02 Q1018 NOSIG",
      "taf": "TAF BKPR 211730Z 2118/2218 VRB03KT 3000 BR BKN010"
    },
    {
      "icao": "EBBR",
      "alert": "OK",
      "vis_m": 9999,
      "fzfg": false,
      "metar_trigger": false,
      "taf_trigger": false,
      "metar": "METAR EBBR 211720Z 06006KT CAVOK 07/06 Q1007 NOSIG",
      "taf": "TAF EBBR 211700Z 2118/2224 10007KT CAVOK"
    },
    {
      "icao": "EBCI",
      "alert": "OK",
      "vis_m": 9999,
      "fzfg": false,
      "metar_trigger": false,
      "taf_trigger": false,
      "metar": "METAR EBCI 211720Z 06007KT CAVOK 09/08 Q1007 NOSIG",
      "taf": "TAF EBCI 211700Z 2118/2224 11007KT CAVOK"
    },
    {
      "icao": "EDDB",
      "alert": "OK",
      "vis_m": 6000,
      "fzfg": false,
      "metar_trigger": false,
      "taf_trigger": false,
      "metar": "METAR EDDB 211720Z AUTO 11010KT 6000 OVC004 06/06 Q1018 NOSIG",
      "taf": "TAF EDDB 211700Z 2118/2218 08010KT 6000 OVC004"
    },
    {
      "icao": "EDDH",
      "alert": "OK",
      "vis_m": 9000,
      "fzfg": false,
      "metar_trigger": false,
      "taf_trigger": false,
      "metar": "METAR EDDH 211720Z AUTO 10012KT 9000 OVC004 06/05 Q1017 TEMPO 4500 BR OVC005",
      "taf": "TAF EDDH 211700Z 2118/2224 09011KT 8000 OVC004"
    },
    {
      "icao": "EDDK",
      "alert": "OK",
      "vis_m": 9999,
      "fzfg": false,
      "metar_trigger": false,
      "taf_trigger": false,
      "metar": "METAR EDDK 211720Z AUTO 09006KT 070V130 CAVOK 09/03 Q1009 NOSIG",
      "taf": "TAF EDDK 211700Z 2118/2224 11006KT CAVOK"
    },
    {
      "icao": "EDDN",
      "alert": "OK",
      "vis_m": 9999,
      "fzfg": false,
      "metar_trigger": false,
      "taf_trigger": false,
      "metar": "METAR EDDN 211720Z AUTO 12006KT CAVOK 01/M01 Q1012 NOSIG",
      "taf": "TAF EDDN 211700Z 2118/2218 12007KT CAVOK"
    },
    {
      "icao": "EDFH",
      "alert": "OK",
      "vis_m": 9999,
      "fzfg": false,
      "metar_trigger": false,
      "taf_trigger": false,
      "metar": "METAR EDFH 211720Z 11009KT CAVOK 05/01 Q1008",
      "taf": "TAF EDFH 211700Z 2118/2218 12010KT CAVOK"
    },
    {
      "icao": "EDJA",
      "alert": "OK",
      "vis_m": 3900,
      "fzfg": false,
      "metar_trigger": false,
      "taf_trigger": false,
      "metar": "METAR EDJA 211720Z 06008KT 3900 BR OVC002 M01/M02 Q1009",
      "taf": "TAF EDJA 211700Z 2118/2203 06004KT 4000 BR OVC002"
    },
    {
      "icao": "EDLW",
      "alert": "OK",
      "vis_m": 9999,
      "fzfg": false,
      "metar_trigger": false,
      "taf_trigger": false,
      "metar": "METAR EDLW 211720Z 04007KT CAVOK 08/05 Q1010",
      "taf": "TAF EDLW 211700Z 2118/2218 07007KT CAVOK"
    },
    {
      "icao": "EDSB",
      "alert": "OK",
      "vis_m": 9999,
      "fzfg": false,
      "metar_trigger": false,
      "taf_trigger": false,
      "metar": "METAR EDSB 211720Z 02005KT CAVOK 04/01 Q1008",
      "taf": "TAF EDSB 211700Z 2118/2218 02009KT CAVOK"
    },
    {
      "icao": "EETN",
      "alert": "OK",
      "vis_m": 9999,
      "fzfg": false,
      "metar_trigger": false,
      "taf_trigger": false,
      "metar": "METAR EETN 211720Z 34011KT 9999 OVC015 04/01 Q1014 NOSIG",
      "taf": "TAF EETN 211730Z 2118/2218 34012KT 9999 SCT015 BKN020"
    },
    {
      "icao": "EFHK",
      "alert": "OK",
      "vis_m": 9999,
      "fzfg": false,
      "metar_trigger": false,
      "taf_trigger": false,
      "metar": "METAR EFHK 211720Z 32008KT 9999 FEW014 01/M01 Q1013 TEMPO BKN014",
      "taf": "TAF EFHK 211738Z 2118/2218 33010KT 9999 FEW014"
    },
    {
      "icao": "EFTU",
      "alert": "OK",
      "vis_m": 9999,
      "fzfg": false,
      "metar_trigger": false,
      "taf_trigger": false,
      "metar": "METAR EFTU 211720Z AUTO 32005KT 280V350 9999 FEW007 02/01 Q1016",
      "taf": "TAF EFTU 211729Z 2118/2218 33007KT 9999 SCT014"
    },
    {
      "icao": "EGGW",
      "alert": "OK",
      "vis_m": 4600,
      "fzfg": false,
      "metar_trigger": false,
      "taf_trigger": false,
      "metar": "METAR EGGW 211720Z AUTO 07007KT 4600 RA OVC004 08/08 Q1006",
      "taf": "TAF EGGW 211659Z 2118/2218 10008KT 9999 BKN005"
    },
    {
      "icao": "EGKK",
      "alert": "OK",
      "vis_m": 9000,
      "fzfg": false,
      "metar_trigger": false,
      "taf_trigger": false,
      "metar": "METAR EGKK 211720Z 07009KT 9000 -RA SCT007 BKN009 10/10 Q1005",
      "taf": "TAF EGKK 211654Z 2118/2224 10008KT 9999 BKN008"
    },
    {
      "icao": "EHEH",
      "alert": "OK",
      "vis_m": 9999,
      "fzfg": false,
      "metar_trigger": false,
      "taf_trigger": false,
      "metar": "METAR EHEH 211725Z AUTO 06005KT 020V110 9999 OVC300 08/06 Q1009 BLU NOSIG RMK TREND REMOTE BY EHWX",
      "taf": "TAF EHEH 211107Z 2112/2218 09006KT CAVOK"
    },
    {
      "icao": "EKBI",
      "alert": "OK",
      "vis_m": 9999,
      "fzfg": false,
      "metar_trigger": false,
      "taf_trigger": false,
      "metar": "METAR EKBI 211720Z AUTO 09012KT 9999 OVC010/// 05/04 Q1019",
      "taf": "TAF EKBI 211727Z 2118/2218 10012KT 9999 BKN008"
    },
    {
      "icao": "EKCH",
      "alert": "OK",
      "vis_m": 9999,
      "fzfg": false,
      "metar_trigger": false,
      "taf_trigger": false,
      "metar": "METAR EKCH 211720Z AUTO 11007KT 9999 OVC018/// 06/02 Q1022 NOSIG",
      "taf": "TAF EKCH 211727Z 2118/2218 11007KT 9999 BKN016"
    },
    {
      "icao": "ENTO",
      "alert": "OK",
      "vis_m": 9999,
      "fzfg": false,
      "metar_trigger": false,
      "taf_trigger": false,
      "metar": "METAR ENTO 211720Z 36006KT CAVOK M01/M03 Q1023 NOSIG",
      "taf": "TAF ENTO 211700Z 2118/2218 36008KT CAVOK"
    },
    {
      "icao": "EPGD",
      "alert": "OK",
      "vis_m": 9999,
      "fzfg": false,
      "metar_trigger": false,
      "taf_trigger": false,
      "metar": "METAR EPGD 211730Z 30005KT 9999 FEW017 BKN020 02/01 Q1021",
      "taf": "TAF EPGD 211730Z 2118/2218 28005KT 9999 BKN020"
    },
    {
      "icao": "EPKK",
      "alert": "OK",
      "vis_m": 4200,
      "fzfg": false,
      "metar_trigger": false,
      "taf_trigger": false,
      "metar": "METAR EPKK 211730Z 06009KT 4200 BR OVC003 04/04 Q1019",
      "taf": "TAF EPKK 211730Z 2118/2218 06008KT 5000 BR OVC003"
    },
    {
      "icao": "EPKT",
      "alert": "OK",
      "vis_m": 6000,
      "fzfg": false,
      "metar_trigger": false,
      "taf_trigger": false,
      "metar": "METAR EPKT 211730Z 09006KT 6000 OVC003 05/04 Q1019",
      "taf": "TAF EPKT 211730Z 2118/2218 09007KT 6000 OVC003"
    },
    {
      "icao": "EPWA",
      "alert": "OK",
      "vis_m": 9999,
      "fzfg": false,
      "metar_trigger": false,
      "taf_trigger": false,
      "metar": "METAR EPWA 211730Z VRB01KT 9999 BKN017 03/M00 Q1022 NOSIG",
      "taf": "TAF EPWA 211730Z 2118/2218 VRB03KT 9999 BKN017"
    },
    {
      "icao": "EPWR",
      "alert": "OK",
      "vis_m": 6000,
      "fzfg": false,
      "metar_trigger": false,
      "taf_trigger": false,
      "metar": "METAR EPWR 211730Z 09007KT 6000 OVC004 06/05 Q1019",
      "taf": "TAF EPWR 211730Z 2118/2218 09009KT 4000 BR BKN004"
    },
    {
      "icao": "ESGG",
      "alert": "OK",
      "vis_m": 800,
      "fzfg": false,
      "metar_trigger": false,
      "taf_trigger": false,
      "metar": "METAR ESGG 211720Z 05006KT 0800 R03/P2000N R21/P2000N FG VV003 02/02 Q1022",
      "taf": "TAF ESGG 211730Z 2118/2218 04005KT 3000 BR OVC005"
    },
    {
      "icao": "ESKN",
      "alert": "OK",
      "vis_m": 9999,
      "fzfg": false,
      "metar_trigger": false,
      "taf_trigger": false,
      "metar": "METAR ESKN 211720Z 30007KT CAVOK 00/M01 Q1021",
      "taf": "TAF ESKN 211730Z 2118/2218 30007KT CAVOK"
    },
    {
      "icao": "ESMX",
      "alert": "OK",
      "vis_m": 500,
      "fzfg": false,
      "metar_trigger": false,
      "taf_trigger": false,
      "metar": "METAR ESMX 211720Z 35002KT 0500 R01/0650N R19/0600D FG VV002 01/01 Q1022",
      "taf": "TAF ESMX 211730Z 2118/2120 VRB02KT 0300 FG VV002"
    },
    {
      "icao": "EVRA",
      "alert": "OK",
      "vis_m": 9999,
      "fzfg": false,
      "metar_trigger": false,
      "taf_trigger": false,
      "metar": "METAR EVRA 211720Z 32009KT 260V350 9999 FEW016 BKN019 OVC027 06/03 Q1016 NOSIG",
      "taf": "TAF EVRA 211701Z 2118/2218 30010KT 9999 BKN030"
    },
    {
      "icao": "EYKA",
      "alert": "OK",
      "vis_m": 9999,
      "fzfg": false,
      "metar_trigger": false,
      "taf_trigger": false,
      "metar": "METAR EYKA 211720Z 28008KT 9999 OVC033 05/03 Q1018",
      "taf": "TAF EYKA 211700Z 2118/2218 28008KT 8000 OVC025"
    },
    {
      "icao": "EYVI",
      "alert": "OK",
      "vis_m": 9999,
      "fzfg": false,
      "metar_trigger": false,
      "taf_trigger": false,
      "metar": "METAR EYVI 211720Z 28009KT 9999 FEW010 BKN033 05/03 Q1016 TEMPO BKN010",
      "taf": "TAF EYVI 211700Z 2118/2218 29008KT 8000 SCT010 OVC025"
    },
    {
      "icao": "GCLP",
      "alert": "OK",
      "vis_m": 9999,
      "fzfg": false,
      "metar_trigger": false,
      "taf_trigger": false,
      "metar": "METAR GCLP 211730Z 35013KT 9999 FEW040 SCT050 19/13 Q1018 NOSIG",
      "taf": "TAF GCLP 211400Z 2115/2215 36012KT 9999 FEW050 TX20/2214Z TN15/2206Z"
    },
    {
      "icao": "GCTS",
      "alert": "OK",
      "vis_m": 9999,
      "fzfg": false,
      "metar_trigger": false,
      "taf_trigger": false,
      "metar": "METAR GCTS 211730Z 18004KT 150V230 9999 BKN040 19/10 Q1019 NOSIG",
      "taf": "TAF GCTS 211400Z 2115/2215 19007KT 9999 SCT040 TX24/2214Z TN16/2206Z"
    },
    {
      "icao": "HECA",
      "alert": "OK",
      "vis_m": 9999,
      "fzfg": false,
      "metar_trigger": false,
      "taf_trigger": false,
      "metar": "METAR HECA 211730Z 15008KT CAVOK 18/01 Q1012 NOSIG",
      "taf": "TAF HECA 211700Z 2118/2224 19008KT CAVOK"
    },
    {
      "icao": "HEGN",
      "alert": "OK",
      "vis_m": 9999,
      "fzfg": false,
      "metar_trigger": false,
      "taf_trigger": false,
      "metar": "METAR HEGN 211700Z 17003KT CAVOK 22/11 Q1013 NOSIG",
      "taf": "TAF HEGN 211700Z 2118/2224 24008KT CAVOK"
    },
    {
      "icao": "HESH",
      "alert": "OK",
      "vis_m": 9999,
      "fzfg": false,
      "metar_trigger": false,
      "taf_trigger": false,
      "metar": "METAR HESH 211700Z 16006KT CAVOK 21/11 Q1013 NOSIG",
      "taf": "TAF HESH 211700Z 2118/2224 29008KT CAVOK"
    },
    {
      "icao": "HESX",
      "alert": "OK",
      "vis_m": 9999,
      "fzfg": false,
      "metar_trigger": false,
      "taf_trigger": false,
      "metar": "METAR HESX 211700Z 18008KT CAVOK 18/03 Q1012 NOSIG",
      "taf": "TAF HESX 211700Z 2118/2224 20008KT CAVOK"
    },
    {
      "icao": "LATI",
      "alert": "OK",
      "vis_m": 9999,
      "fzfg": false,
      "metar_trigger": false,
      "taf_trigger": false,
      "metar": "METAR LATI 211720Z 15004KT CAVOK 07/03 Q1014 NOSIG",
      "taf": "TAF LATI 211700Z 2118/2218 VRB05KT CAVOK TX17/2212Z TN01/2205Z"
    },
    {
      "icao": "LBSF",
      "alert": "OK",
      "vis_m": 9000,
      "fzfg": false,
      "metar_trigger": false,
      "taf_trigger": false,
      "metar": "METAR LBSF 211730Z AUTO 13004KT 100V210 9000 NCD 01/M00 Q1018 NOSIG",
      "taf": "TAF LBSF 211700Z 2118/2218 VRB04KT 8000 SCT030"
    },
    {
      "icao": "LBWN",
      "alert": "OK",
      "vis_m": 9999,
      "fzfg": false,
      "metar_trigger": false,
      "taf_trigger": false,
      "metar": "METAR LBWN 211730Z AUTO 33007KT 9999 FEW009/// BKN020/// 07/07 Q1019 NOSIG",
      "taf": "TAF LBWN 211700Z 2118/2218 35008KT 7000 BKN010 OVC030"
    },
    {
      "icao": "LCLK",
      "alert": "OK",
      "vis_m": 9999,
      "fzfg": false,
      "metar_trigger": false,
      "taf_trigger": false,
      "metar": "METAR LCLK 211730Z 12008KT 9999 FEW030 FEW040CB BKN060 19/13 Q1013 NOSIG",
      "taf": "TAF LCLK 211730Z 2118/2218 01009KT 9999 FEW020 SCT030"
    },
    {
      "icao": "LDDU",
      "alert": "OK",
      "vis_m": 9999,
      "fzfg": false,
      "metar_trigger": false,
      "taf_trigger": false,
      "metar": "METAR LDDU 211730Z 02004KT 340V060 CAVOK 11/06 Q1014 NOSIG",
      "taf": "TAF LDDU 211725Z 2118/2218 VRB02KT CAVOK TX15/2211Z TN08/2203Z"
    },
    {
      "icao": "LDSP",
      "alert": "OK",
      "vis_m": 9999,
      "fzfg": false,
      "metar_trigger": false,
      "taf_trigger": false,
      "metar": "METAR LDSP 211730Z 29003KT 270V330 CAVOK 09/06 Q1014 NOSIG",
      "taf": "TAF LDSP 211725Z 2118/2218 VRB02KT CAVOK TX16/2212Z TN07/2205Z"
    },
    {
      "icao": "LDZA",
      "alert": "OK",
      "vis_m": 8000,
      "fzfg": false,
      "metar_trigger": false,
      "taf_trigger": false,
      "metar": "METAR LDZA 211730Z 05004KT 020V080 8000 -DZ OVC013 04/03 Q1019 TEMPO OVC008",
      "taf": "TAF LDZA 211725Z 2118/2218 VRB02KT 6000 OVC015 TX06/2213Z TN03/2118Z"
    },
    {
      "icao": "LEAL",
      "alert": "OK",
      "vis_m": 9999,
      "fzfg": false,
      "metar_trigger": false,
      "taf_trigger": false,
      "metar": "METAR LEAL 211730Z 30011KT 9999 FEW020 BKN053 13/04 Q1005 NOSIG",
      "taf": "TAF LEAL 211700Z 2118/2218 25008KT 9999 FEW020 BKN040 TX13/2213Z TN07/2207Z"
    },
    {
      "icao": "LEBL",
      "alert": "OK",
      "vis_m": 9999,
      "fzfg": false,
      "metar_trigger": false,
      "taf_trigger": false,
      "metar": "METAR LEBL 211730Z 22006KT 9999 SCT037 14/10 Q1004 NOSIG",
      "taf": "TAF LEBL 211700Z 2118/2218 VRB04KT 9999 SCT040 TX14/2118Z TN09/2206Z"
    },
    {
      "icao": "LECH",
      "alert": "OK",
      "vis_m": 9999,
      "fzfg": false,
      "metar_trigger": false,
      "taf_trigger": false,
      "metar": "METAR LECH 211730Z AUTO 24006KT CAVOK 09/02 Q1003",
      "taf": ""
    },
    {
      "icao": "LEMD",
      "alert": "OK",
      "vis_m": 9999,
      "fzfg": false,
      "metar_trigger": false,
      "taf_trigger": false,
      "metar": "METAR LEMD 211730Z VRB02KT CAVOK 02/01 Q1004 NOSIG",
      "taf": "TAF LEMD 211700Z 2118/2224 VRB04KT 9999 SCT030 TX07/2215Z TNM01/2207Z"
    },
    {
      "icao": "LEMG",
      "alert": "OK",
      "vis_m": 9999,
      "fzfg": false,
      "metar_trigger": false,
      "taf_trigger": false,
      "metar": "METAR LEMG 211730Z 29007KT 9999 FEW040 BKN065 09/06 Q1007 NOSIG",
      "taf": "TAF LEMG 211700Z 2118/2218 30008KT 9999 FEW012 SCT060 TX14/2214Z TN07/2206Z"
    },
    {
      "icao": "LERS",
      "alert": "OK",
      "vis_m": 9999,
      "fzfg": false,
      "metar_trigger": false,
      "taf_trigger": false,
      "metar": "METAR LERS 211730Z 36002KT 9999 SCT030 11/08 Q1004",
      "taf": "TAF LERS 211400Z 2115/2215 22008KT 9999 SCT025 TX12/2213Z TN06/2206Z"
    },
    {
      "icao": "LEVC",
      "alert": "OK",
      "vis_m": 9999,
      "fzfg": false,
      "metar_trigger": false,
      "taf_trigger": false,
      "metar": "METAR LEVC 211730Z 25006KT CAVOK 11/04 Q1005 NOSIG",
      "taf": "TAF LEVC 211700Z 2118/2218 27008KT 9999 FEW040 TX12/2213Z TN05/2207Z"
    },
    {
      "icao": "LFLL",
      "alert": "OK",
      "vis_m": 9999,
      "fzfg": false,
      "metar_trigger": false,
      "taf_trigger": false,
      "metar": "METAR LFLL 211730Z 15009KT CAVOK 10/06 Q1005 NOSIG",
      "taf": "TAF LFLL 211700Z 2118/2224 12006KT CAVOK"
    },
    {
      "icao": "LFMN",
      "alert": "OK",
      "vis_m": 9999,
      "fzfg": false,
      "metar_trigger": false,
      "taf_trigger": false,
      "metar": "METAR LFMN 211730Z 07017KT 9999 -RA BKN066 15/10 Q1010 NOSIG",
      "taf": "TAF LFMN 211400Z 2115/2221 08020KT 9999 BKN040"
    },
    {
      "icao": "LFOB",
      "alert": "OK",
      "vis_m": 9999,
      "fzfg": false,
      "metar_trigger": false,
      "taf_trigger": false,
      "metar": "METAR LFOB 211730Z AUTO 10013KT 9999 -RA ///TCU 11/10 Q1004 BECMG NSC",
      "taf": "TAF LFOB 211700Z 2118/2218 11012KT 9999 NSC"
    },
    {
      "icao": "LFPO",
      "alert": "OK",
      "vis_m": 9999,
      "fzfg": false,
      "metar_trigger": false,
      "taf_trigger": false,
      "metar": "METAR LFPO 211730Z AUTO 10010KT 9999 -RA ///CB 10/09 Q1004 TEMPO 4500 -RA BECMG BKN040",
      "taf": "TAF LFPO 211700Z 2118/2224 11010KT 9999 NSC"
    },
    {
      "icao": "LFSB",
      "alert": "OK",
      "vis_m": 9999,
      "fzfg": false,
      "metar_trigger": false,
      "taf_trigger": false,
      "metar": "METAR LFSB 211730Z AUTO VRB01KT 9999 SCT009 02/01 Q1007 TEMPO 0500 FG VV///",
      "taf": "TAF LFSB 211710Z 2118/2218 VRB03KT 8000 SCT006"
    },
    {
      "icao": "LGAV",
      "alert": "OK",
      "vis_m": 9999,
      "fzfg": false,
      "metar_trigger": false,
      "taf_trigger": false,
      "metar": "METAR LGAV 211720Z 03006KT 9999 SCT035 14/07 Q1016 NOSIG",
      "taf": "TAF LGAV 211700Z 2118/2218 36010KT 9999 SCT025 SCT070"
    },
    {
      "icao": "LGIR",
      "alert": "OK",
      "vis_m": 9999,
      "fzfg": false,
      "metar_trigger": false,
      "taf_trigger": false,
      "metar": "METAR LGIR 211720Z 16003KT 9999 SCT020 15/11 Q1013 NOSIG",
      "taf": "TAF LGIR 211700Z 2118/2218 VRB05KT 9999 SCT020 SCT080"
    },
    {
      "icao": "LGKR",
      "alert": "OK",
      "vis_m": 9999,
      "fzfg": false,
      "metar_trigger": false,
      "taf_trigger": false,
      "metar": "METAR LGKR 211720Z 00000KT 9999 FEW010 11/09 Q1013 NOSIG",
      "taf": "TAF LGKR 211700Z 2118/2218 VRB03KT 9999 FEW010 SCT020"
    },
    {
      "icao": "LGRP",
      "alert": "OK",
      "vis_m": 9999,
      "fzfg": false,
      "metar_trigger": false,
      "taf_trigger": false,
      "metar": "METAR LGRP 211720Z VRB03KT 9999 FEW012 SCT020 15/12 Q1012 NOSIG",
      "taf": "TAF LGRP 211700Z 2118/2218 14010KT 9999 FEW012 BKN020"
    },
    {
      "icao": "LGTS",
      "alert": "OK",
      "vis_m": 9999,
      "fzfg": false,
      "metar_trigger": false,
      "taf_trigger": false,
      "metar": "METAR LGTS 211720Z 10005KT 9999 FEW012 10/08 Q1017 NOSIG",
      "taf": "TAF LGTS 211700Z 2118/2218 VRB03KT 9999 FEW025"
    },
    {
      "icao": "LGZA",
      "alert": "OK",
      "vis_m": 8000,
      "fzfg": false,
      "metar_trigger": false,
      "taf_trigger": false,
      "metar": "METAR LGZA 211720Z 00000KT 8000 FEW020 BKN080 14/12 Q1013",
      "taf": "TAF LGZA 211700Z 2118/2203 08010KT 9000 FEW020 BKN080"
    },
    {
      "icao": "LHBP",
      "alert": "OK",
      "vis_m": 5000,
      "fzfg": false,
      "metar_trigger": false,
      "taf_trigger": false,
      "metar": "METAR LHBP 211730Z 11004KT 080V140 5000 BR OVC004 04/04 Q1020 BECMG -DZ BR OVC005",
      "taf": "TAF LHBP 211715Z 2118/2218 10005KT 6000 OVC006"
    },
    {
      "icao": "LHDC",
      "alert": "OK",
      "vis_m": 7000,
      "fzfg": false,
      "metar_trigger": false,
      "taf_trigger": false,
      "metar": "METAR LHDC 211715Z AUTO 00000KT 7000 OVC015 05/05 Q1020 TEMPO OVC012",
      "taf": "TAF LHDC 211715Z 2118/2203 VRB03KT 7000 FEW005 OVC020"
    },
    {
      "icao": "LIBD",
      "alert": "OK",
      "vis_m": 9999,
      "fzfg": false,
      "metar_trigger": false,
      "taf_trigger": false,
      "metar": "METAR LIBD 211720Z 23004KT 9999 FEW025 08/08 Q1014",
      "taf": "TAF LIBD 211700Z 2118/2218 VRB05KT 9999 FEW030"
    },
    {
      "icao": "LICC",
      "alert": "OK",
      "vis_m": 9999,
      "fzfg": false,
      "metar_trigger": false,
      "taf_trigger": false,
      "metar": "METAR LICC 211720Z 04009KT 9999 -RA FEW020 BKN070 15/14 Q1011 RERA",
      "taf": "TAF LICC 211700Z 2118/2218 07012KT 8000 RA BKN040"
    },
    {
      "icao": "LICJ",
      "alert": "OK",
      "vis_m": 9999,
      "fzfg": false,
      "metar_trigger": false,
      "taf_trigger": false,
      "metar": "METAR LICJ 211720Z 26004KT 210V280 9999 FEW045 16/13 Q1009",
      "taf": "TAF LICJ 211700Z 2118/2218 20010KT 9999 SCT040"
    },
    {
      "icao": "LIEO",
      "alert": "OK",
      "vis_m": 9999,
      "fzfg": false,
      "metar_trigger": false,
      "taf_trigger": false,
      "metar": "METAR LIEO 211720Z 09004KT 9999 FEW015 BKN050 13/13 Q1009",
      "taf": "TAF LIEO 211700Z 2118/2218 VRB05KT 8000 BKN020"
    },
    {
      "icao": "LIMC",
      "alert": "OK",
      "vis_m": 9999,
      "fzfg": false,
      "metar_trigger": false,
      "taf_trigger": false,
      "metar": "METAR LIMC 211720Z 12008KT 9999 BKN030 09/06 Q1015 NOSIG",
      "taf": "TAF LIMC 211700Z 2118/2224 VRB03KT 8000 BKN040"
    },
    {
      "icao": "LIME",
      "alert": "OK",
      "vis_m": 9999,
      "fzfg": false,
      "metar_trigger": false,
      "taf_trigger": false,
      "metar": "METAR LIME 211720Z 01002KT 9999 BKN030 08/06 Q1015 NOSIG",
      "taf": "TAF LIME 211700Z 2118/2218 VRB03KT 8000 SCT030"
    },
    {
      "icao": "LIPH",
      "alert": "OK",
      "vis_m": 9999,
      "fzfg": false,
      "metar_trigger": false,
      "taf_trigger": false,
      "metar": "METAR LIPH 211720Z 33002KT CAVOK 06/04 Q1015",
      "taf": "TAF LIPH 211700Z 2118/2218 VRB04KT 9999 FEW030"
    },
    {
      "icao": "LIPQ",
      "alert": "OK",
      "vis_m": 9999,
      "fzfg": false,
      "metar_trigger": false,
      "taf_trigger": false,
      "metar": "METAR LIPQ 211720Z AUTO 08004KT 9999 NCD 08/03 Q1016",
      "taf": "TAF LIPQ 211700Z 2118/2218 12007KT CAVOK"
    },
    {
      "icao": "LIPX",
      "alert": "OK",
      "vis_m": 9999,
      "fzfg": false,
      "metar_trigger": false,
      "taf_trigger": false,
      "metar": "METAR LIPX 211720Z 36004KT CAVOK 05/04 Q1015",
      "taf": "TAF LIPX 211700Z 2118/2218 VRB03KT 8000 NSC"
    },
    {
      "icao": "LIPY",
      "alert": "OK",
      "vis_m": 3200,
      "fzfg": false,
      "metar_trigger": false,
      "taf_trigger": false,
      "metar": "METAR LIPY 211720Z AUTO 12002KT 3200 BR BKN067/// 11/10 Q1015",
      "taf": "TAF LIPY 211700Z 2118/2218 VRB05KT 3000 BR BKN010"
    },
    {
      "icao": "LIPZ",
      "alert": "OK",
      "vis_m": 9999,
      "fzfg": false,
      "metar_trigger": false,
      "taf_trigger": false,
      "metar": "METAR LIPZ 211720Z 32003KT 290V010 CAVOK 09/05 Q1015 NOSIG",
      "taf": "TAF LIPZ 211700Z 2118/2224 03005KT 9999 FEW030"
    },
    {
      "icao": "LIRA",
      "alert": "OK",
      "vis_m": 9999,
      "fzfg": false,
      "metar_trigger": false,
      "taf_trigger": false,
      "metar": "METAR LIRA 211720Z 10005KT 080V140 CAVOK 12/06 Q1012",
      "taf": "TAF LIRA 211700Z 2118/2218 04005KT 9999 FEW060"
    },
    {
      "icao": "LIRN",
      "alert": "OK",
      "vis_m": 9999,
      "fzfg": false,
      "metar_trigger": false,
      "taf_trigger": false,
      "metar": "METAR LIRN 211720Z 01004KT 9999 FEW080 13/07 Q1012 NOSIG",
      "taf": "TAF LIRN 211700Z 2118/2218 05006KT 9999 SCT060"
    },
    {
      "icao": "LLBG",
      "alert": "OK",
      "vis_m": 9999,
      "fzfg": false,
      "metar_trigger": false,
      "taf_trigger": false,
      "metar": "METAR LLBG 211720Z 10005KT CAVOK 16/09 Q1014 NOSIG",
      "taf": "TAF LLBG 211716Z 2118/2218 VRB03KT CAVOK"
    },
    {
      "icao": "LMML",
      "alert": "OK",
      "vis_m": 9999,
      "fzfg": false,
      "metar_trigger": false,
      "taf_trigger": false,
      "metar": "METAR LMML 211715Z VRB02KT 9999 FEW017 SCT045 14/13 Q1010 NOSIG",
      "taf": "TAF LMML 211700Z 2118/2218 VRB05KT 9999 SCT020"
    },
    {
      "icao": "LOWW",
      "alert": "OK",
      "vis_m": 4300,
      "fzfg": false,
      "metar_trigger": false,
      "taf_trigger": false,
      "metar": "METAR LOWW 211720Z 14010KT 4300 BR FEW001 BKN002 02/02 Q1018 TEMPO 2500 BR",
      "taf": "TAF LOWW 211715Z 2118/2224 13013KT 6000 OVC002 TX04/2217Z TN03/2118Z"
    },
    {
      "icao": "LPFR",
      "alert": "OK",
      "vis_m": 9999,
      "fzfg": false,
      "metar_trigger": false,
      "taf_trigger": false,
      "metar": "METAR LPFR 211730Z 32005KT 9999 FEW015 11/08 Q1009",
      "taf": "TAF LPFR 211700Z 2118/2218 31010KT 9999 FEW015 SCT030"
    },
    {
      "icao": "LPPR",
      "alert": "OK",
      "vis_m": 9999,
      "fzfg": false,
      "metar_trigger": false,
      "taf_trigger": false,
      "metar": "METAR LPPR 211730Z 15004KT 9999 FEW022 06/05 Q1007",
      "taf": "TAF LPPR 211700Z 2118/2218 15007KT 9999 FEW012 SCT035"
    },
    {
      "icao": "LPPT",
      "alert": "OK",
      "vis_m": 9999,
      "fzfg": false,
      "metar_trigger": false,
      "taf_trigger": false,
      "metar": "METAR LPPT 211730Z VRB03KT 9999 FEW016 FEW020TCU 07/05 Q1009",
      "taf": "TAF LPPT 211700Z 2118/2224 29007KT 9999 SCT035"
    },
    {
      "icao": "LQSA",
      "alert": "OK",
      "vis_m": 7000,
      "fzfg": false,
      "metar_trigger": false,
      "taf_trigger": false,
      "metar": "METAR LQSA 211730Z 13004KT 090V150 7000 BKN010 OVC020 03/02 Q1018 NOSIG",
      "taf": ""
    },
    {
      "icao": "LQTZ",
      "alert": "OK",
      "vis_m": 7000,
      "fzfg": false,
      "metar_trigger": false,
      "taf_trigger": false,
      "metar": "METAR LQTZ 211730Z VRB02KT 7000 OVC016 05/05 Q1018",
      "taf": "TAF LQTZ 211700Z 2118/2218 VRB02KT 7000 OVC015 TX05/2213Z TN02/2205Z"
    },
    {
      "icao": "LRCL",
      "alert": "OK",
      "vis_m": 7000,
      "fzfg": false,
      "metar_trigger": false,
      "taf_trigger": false,
      "metar": "METAR LRCL 211730Z 27004KT 7000 BKN015 OVC035 05/04 Q1019",
      "taf": "TAF LRCL 211700Z 2118/2203 VRB04KT 5000 BR BKN015"
    },
    {
      "icao": "LRCV",
      "alert": "OK",
      "vis_m": 6000,
      "fzfg": false,
      "metar_trigger": false,
      "taf_trigger": false,
      "metar": "METAR LRCV 211730Z 36002KT 6000 OVC010 05/04 Q1020",
      "taf": "TAF LRCV 211700Z 2118/2203 VRB04KT 5000 BR OVC010"
    },
    {
      "icao": "LRIA",
      "alert": "OK",
      "vis_m": 8000,
      "fzfg": false,
      "metar_trigger": false,
      "taf_trigger": false,
      "metar": "METAR LRIA 211730Z 27005KT 8000 OVC003 01/01 Q1021",
      "taf": "TAF LRIA 211700Z 2118/2203 28004KT 9999 OVC003"
    },
    {
      "icao": "LROP",
      "alert": "OK",
      "vis_m": 5000,
      "fzfg": false,
      "metar_trigger": false,
      "taf_trigger": false,
      "metar": "METAR LROP 211730Z 21003KT 5000 BR OVC015 06/05 Q1020 BECMG 3000 BR OVC010",
      "taf": "TAF LROP 211700Z 2118/2218 VRB04KT 5000 BR SCT005 OVC015"
    },
    {
      "icao": "LRSB",
      "alert": "OK",
      "vis_m": 2000,
      "fzfg": false,
      "metar_trigger": false,
      "taf_trigger": false,
      "metar": "METAR LRSB 211730Z VRB02KT 2000 0800E R27/P2000 BCFG BR NSC M01/M01 Q1019 BECMG 1500 BCFG BR",
      "taf": "TAF LRSB 211700Z 2118/2218 VRB04KT 1500 BR NSC"
    },
    {
      "icao": "LRTR",
      "alert": "OK",
      "vis_m": 5000,
      "fzfg": false,
      "metar_trigger": false,
      "taf_trigger": false,
      "metar": "METAR LRTR 211730Z 03008KT 5000 BR OVC003 04/04 Q1020 BECMG 3000 BR OVC002",
      "taf": "TAF LRTR 211700Z 2118/2218 VRB04KT 5000 BR OVC005"
    },
    {
      "icao": "LTAF",
      "alert": "OK",
      "vis_m": 9999,
      "fzfg": false,
      "metar_trigger": false,
      "taf_trigger": false,
      "metar": "METAR LTAF 211720Z 04009KT CAVOK 14/M01 Q1016 NOSIG RMK RWY23 06009KT 4CI200",
      "taf": "TAF LTAF 211640Z 2118/2218 03009KT CAVOK"
    },
    {
      "icao": "LTAI",
      "alert": "OK",
      "vis_m": 9999,
      "fzfg": false,
      "metar_trigger": false,
      "taf_trigger": false,
      "metar": "METAR LTAI 211720Z 33007KT 9999 SCT030 BKN090 13/10 Q1014 NOSIG RMK RWY18C 33005KT RWY36R 34005KT RWY18L 35004KT",
      "taf": "TAF LTAI 211640Z 2118/2218 34009KT 9999 SCT030 BKN100"
    },
    {
      "icao": "LTFM",
      "alert": "OK",
      "vis_m": 9999,
      "fzfg": false,
      "metar_trigger": false,
      "taf_trigger": false,
      "metar": "METAR LTFM 211720Z 04008KT 9999 SCT015 BKN028 12/10 Q1017 NOSIG RMK RWY17L 04008KT RWY34L 04008KT RWY16R 05007KT RWY36 05007KT RWY18 05006KT",
      "taf": "TAF LTFM 211640Z 2118/2224 05008KT 9999 SCT015 BKN028"
    },
    {
      "icao": "LUBL",
      "alert": "OK",
      "vis_m": null,
      "fzfg": false,
      "metar_trigger": false,
      "taf_trigger": false,
      "metar": "",
      "taf": ""
    },
    {
      "icao": "LUKK",
      "alert": "OK",
      "vis_m": 5000,
      "fzfg": false,
      "metar_trigger": false,
      "taf_trigger": false,
      "metar": "METAR LUKK 211730Z 31005KT 280V360 5000 BR OVC002 01/01 Q1020 NOSIG",
      "taf": "TAF LUKK 211722Z 2118/2218 VRB04KT 3000 BR OVC003"
    },
    {
      "icao": "LWSK",
      "alert": "OK",
      "vis_m": 600,
      "fzfg": false,
      "metar_trigger": false,
      "taf_trigger": false,
      "metar": "METAR LWSK 211720Z VRB02KT 0600 R34/1100N FG VV001 02/01 Q1019 NOSIG",
      "taf": "TAF LWSK 211735Z 2118/2218 VRB02KT 0600 FG OVC003"
    },
    {
      "icao": "LYBE",
      "alert": "OK",
      "vis_m": 4500,
      "fzfg": false,
      "metar_trigger": false,
      "taf_trigger": false,
      "metar": "METAR LYBE 211730Z 04001KT 4500 BR OVC006 04/03 Q1020 NOSIG",
      "taf": "TAF LYBE 211700Z 2118/2218 07006KT 5000 BR OVC005 TX08/2213Z TN02/2206Z"
    },
    {
      "icao": "LZIB",
      "alert": "OK",
      "vis_m": 2700,
      "fzfg": false,
      "metar_trigger": false,
      "taf_trigger": false,
      "metar": "METAR LZIB 211730Z 11005KT 2700 -DZ BR SCT001 OVC002 03/03 Q1019 NOSIG",
      "taf": "TAF LZIB 211715Z 2118/2218 12004KT 6000 OVC005"
    },
    {
      "icao": "LZKZ",
      "alert": "OK",
      "vis_m": 7000,
      "fzfg": false,
      "metar_trigger": false,
      "taf_trigger": false,
      "metar": "METAR LZKZ 211730Z 31002KT 7000 BCFG BKN009 04/04 Q1020 NOSIG",
      "taf": "TAF LZKZ 211715Z 2118/2218 VRB02KT 7000 SCT008"
    },
    {
      "icao": "LZTT",
      "alert": "OK",
      "vis_m": 9999,
      "fzfg": false,
      "metar_trigger": false,
      "taf_trigger": false,
      "metar": "METAR LZTT 211730Z 29003KT 9999 FEW003 BKN010 01/M00 Q1018 NOSIG",
      "taf": "TAF LZTT 211715Z 2118/2218 VRB02KT 9999 FEW003 BKN011"
    },
    {
      "icao": "OEJN",
      "alert": "OK",
      "vis_m": 9999,
      "fzfg": false,
      "metar_trigger": false,
      "taf_trigger": false,
      "metar": "METAR OEJN 211700Z 25003KT CAVOK 26/19 Q1012 NOSIG",
      "taf": "TAF OEJN 211700Z 2118/2224 VRB03KT 9999 FEW040"
    },
    {
      "icao": "OEMA",
      "alert": "OK",
      "vis_m": 9999,
      "fzfg": false,
      "metar_trigger": false,
      "taf_trigger": false,
      "metar": "METAR OEMA 211700Z 33004KT CAVOK 17/M03 Q1018 NOSIG",
      "taf": "TAF OEMA 211700Z 2118/2224 07006KT CAVOK"
    },
    {
      "icao": "OERK",
      "alert": "OK",
      "vis_m": 9999,
      "fzfg": false,
      "metar_trigger": false,
      "taf_trigger": false,
      "metar": "METAR OERK 211700Z 10002KT CAVOK 12/02 Q1022 NOSIG",
      "taf": "TAF OERK 211700Z 2118/2224 10005KT 7000 NSC"
    },
    {
      "icao": "OJAI",
      "alert": "OK",
      "vis_m": 5000,
      "fzfg": false,
      "metar_trigger": false,
      "taf_trigger": false,
      "metar": "METAR OJAI 211700Z 08004KT 5000 HZ NSC 10/04 Q1017 NOSIG",
      "taf": "TAF OJAI 211700Z 2118/2224 12010KT 5000 HZ NSC"
    },
    {
      "icao": "OKBK",
      "alert": "OK",
      "vis_m": null,
      "fzfg": false,
      "metar_trigger": false,
      "taf_trigger": false,
      "metar": "",
      "taf": ""
    },
    {
      "icao": "OMAA",
      "alert": "OK",
      "vis_m": 9999,
      "fzfg": false,
      "metar_trigger": false,
      "taf_trigger": false,
      "metar": "METAR OMAA 211700Z 36005KT 220V010 CAVOK 20/12 Q1019 NOSIG",
      "taf": "TAF OMAA 211700Z 2118/2300 05005KT 8000 NSC"
    },
    {
      "icao": "UAAA",
      "alert": "OK",
      "vis_m": 1100,
      "fzfg": false,
      "metar_trigger": false,
      "taf_trigger": false,
      "metar": "METAR UAAA 211730Z 08002MPS 1100 R23L/P2000 -SN BR BKN009 OVC026 M01/M01 Q1029 NOSIG",
      "taf": "TAF UAAA 211702Z 2118/2218 16003MPS 1100 BR FU BKN004 OVC011 TXM00/2207Z TNM06/2201Z"
    },
    {
      "icao": "UCFM",
      "alert": "CRITICAL",
      "vis_m": 50,
      "fzfg": true,
      "metar_trigger": true,
      "taf_trigger": false,
      "metar": "METAR UCFM 211730Z 13002MPS 0050 R25/0150N FZFG VV001 M01/M01 Q1029 NOSIG",
      "taf": "TAF UCFM 211655Z 2118/2218 12003MPS 0300 FZFG VV001"
    },
    {
      "icao": "UDYZ",
      "alert": "OK",
      "vis_m": 2700,
      "fzfg": false,
      "metar_trigger": false,
      "taf_trigger": false,
      "metar": "METAR UDYZ 211730Z 33002KT 2700 BR NSC M03/M06 Q1023 NOSIG",
      "taf": "TAF UDYZ 211700Z 2118/2218 VRB04KT 3000 BR FEW040"
    },
    {
      "icao": "UGTB",
      "alert": "OK",
      "vis_m": 5000,
      "fzfg": false,
      "metar_trigger": false,
      "taf_trigger": false,
      "metar": "METAR UGTB 211730Z 00000KT 5000 BR OVC025 02/00 Q1024 NOSIG",
      "taf": "TAF UGTB 211700Z 2118/2218 VRB02KT 5000 OVC024 TX09/2212Z TNM02/2203Z"
    },
    {
      "icao": "UKKK",
      "alert": "OK",
      "vis_m": null,
      "fzfg": false,
      "metar_trigger": false,
      "taf_trigger": false,
      "metar": "",
      "taf": ""
    },
    {
      "icao": "UTTT",
      "alert": "OK",
      "vis_m": null,
      "fzfg": false,
      "metar_trigger": false,
      "taf_trigger": false,
      "metar": "",
      "taf": ""
    }
  ]
}