{
  "ts_utc": "2026-02-14T22:23:20Z",
  "threshold_m": 150,
  "source": "stations_override.txt (ICAO list) + aviationweather.gov (METAR/TAF raw)",
  "station_count": 159,
  "stations": [
    {
      "icao": "BIKF",
      "alert": "OK",
      "vis_m": 9999,
      "fzfg": false,
      "metar_trigger": false,
      "taf_trigger": false,
      "metar": "METAR BIKF 142200Z 08018KT CAVOK M03/M09 Q0997",
      "taf": "TAF BIKF 141936Z 1421/1521 09015G25KT CAVOK TXM02/1515Z TNM07/1521Z"
    },
    {
      "icao": "BKPR",
      "alert": "OK",
      "vis_m": 9999,
      "fzfg": false,
      "metar_trigger": false,
      "taf_trigger": false,
      "metar": "METAR BKPR 142200Z 03004KT 360V100 9999 SCT015 BKN030 06/06 Q1003 NOSIG",
      "taf": ""
    },
    {
      "icao": "EBCI",
      "alert": "OK",
      "vis_m": 9999,
      "fzfg": false,
      "metar_trigger": false,
      "taf_trigger": false,
      "metar": "METAR EBCI 142150Z 19003KT CAVOK M02/M04 Q1019 NOSIG",
      "taf": "TAF EBCI 141700Z 1418/1524 02006KT 9999 FEW025"
    },
    {
      "icao": "EDDB",
      "alert": "OK",
      "vis_m": 9999,
      "fzfg": false,
      "metar_trigger": false,
      "taf_trigger": false,
      "metar": "METAR EDDB 142150Z AUTO 35009KT 9999 FEW015 OVC038 M01/M04 Q1016 NOSIG",
      "taf": "TAF EDDB 141700Z 1418/1518 36009KT 9999 FEW020 BKN035"
    },
    {
      "icao": "EDDH",
      "alert": "OK",
      "vis_m": 7000,
      "fzfg": false,
      "metar_trigger": false,
      "taf_trigger": false,
      "metar": "METAR EDDH 142150Z AUTO 32002KT 7000 0650 R05/1500D R15/P2000N BCFG NCD M07/M07 Q1019 TEMPO 4500 BCFG",
      "taf": "TAF EDDH 141700Z 1418/1524 VRB03KT 9999 FEW025"
    },
    {
      "icao": "EDDK",
      "alert": "OK",
      "vis_m": 9999,
      "fzfg": false,
      "metar_trigger": false,
      "taf_trigger": false,
      "metar": "METAR EDDK 142150Z AUTO 35002KT 9999 OVC033 M00/M03 Q1018 NOSIG",
      "taf": "TAF EDDK 141700Z 1418/1524 35008KT 9999 OVC013"
    },
    {
      "icao": "EDDN",
      "alert": "OK",
      "vis_m": 9999,
      "fzfg": false,
      "metar_trigger": false,
      "taf_trigger": false,
      "metar": "METAR EDDN 142150Z AUTO 01006KT 9999 BKN022 BKN028 00/M04 Q1014 TEMPO OVC015",
      "taf": ""
    },
    {
      "icao": "EDDS",
      "alert": "OK",
      "vis_m": 9999,
      "fzfg": false,
      "metar_trigger": false,
      "taf_trigger": false,
      "metar": "METAR EDDS 142150Z AUTO 36008KT 330V030 9999 -SN BKN008 BKN012 OVC018 01/M01 Q1013",
      "taf": "TAF EDDS 141700Z 1418/1518 34010KT 9999 SCT007 BKN015"
    },
    {
      "icao": "EDFH",
      "alert": "OK",
      "vis_m": 8000,
      "fzfg": false,
      "metar_trigger": false,
      "taf_trigger": false,
      "metar": "METAR EDFH 142150Z 35006KT 8000 BKN007 M02/M03 Q1015",
      "taf": "TAF EDFH 141700Z 1418/1518 36010KT 8000 BKN005"
    },
    {
      "icao": "EDJA",
      "alert": "OK",
      "vis_m": 9999,
      "fzfg": false,
      "metar_trigger": false,
      "taf_trigger": false,
      "metar": "METAR EDJA 142150Z 01007KT 9999 -SN SCT006 BKN014 OVC018 M01/M01 Q1011",
      "taf": "TAF EDJA 141700Z 1418/1503 36008KT 7000 SNRA BKN006"
    },
    {
      "icao": "EDLW",
      "alert": "OK",
      "vis_m": 9999,
      "fzfg": false,
      "metar_trigger": false,
      "taf_trigger": false,
      "metar": "METAR EDLW 142150Z 36002KT 9999 SCT029 M01/M04 Q1018",
      "taf": "TAF EDLW 141700Z 1418/1518 35007KT 9999 OVC013"
    },
    {
      "icao": "EDNY",
      "alert": "OK",
      "vis_m": 9999,
      "fzfg": false,
      "metar_trigger": false,
      "taf_trigger": false,
      "metar": "METAR EDNY 142150Z AUTO 36003KT 300V070 9999 // FEW015/// BKN020/// OVC045/// 02/01 Q1013",
      "taf": "TAF EDNY 141700Z 1418/1503 02006KT 9000 SCT012 BKN025"
    },
    {
      "icao": "EDSB",
      "alert": "OK",
      "vis_m": 9999,
      "fzfg": false,
      "metar_trigger": false,
      "taf_trigger": false,
      "metar": "METAR EDSB 142150Z 01009KT 9999 FEW016 OVC025 02/M00 Q1016",
      "taf": "TAF EDSB 141700Z 1418/1518 02010KT 9999 SCT010 BKN020"
    },
    {
      "icao": "EETN",
      "alert": "OK",
      "vis_m": 9999,
      "fzfg": false,
      "metar_trigger": false,
      "taf_trigger": false,
      "metar": "METAR EETN 142220Z 00000KT CAVOK M19/M21 Q1016",
      "taf": "TAF EETN 141730Z 1418/1518 VRB02KT CAVOK"
    },
    {
      "icao": "EFTU",
      "alert": "OK",
      "vis_m": 9999,
      "fzfg": false,
      "metar_trigger": false,
      "taf_trigger": false,
      "metar": "METAR EFTU 142220Z AUTO 13003KT 9999 BKN020 M17/M19 Q1014",
      "taf": "TAF EFTU 142025Z 1421/1521 10003KT CAVOK"
    },
    {
      "icao": "EGBB",
      "alert": "OK",
      "vis_m": 9999,
      "fzfg": false,
      "metar_trigger": false,
      "taf_trigger": false,
      "metar": "METAR EGBB 142150Z 16007KT CAVOK 03/M02 Q1015",
      "taf": "TAF EGBB 141657Z 1418/1518 24005KT 9999 FEW030"
    },
    {
      "icao": "EGGP",
      "alert": "OK",
      "vis_m": 9999,
      "fzfg": false,
      "metar_trigger": false,
      "taf_trigger": false,
      "metar": "METAR EGGP 142150Z 17010KT 9999 BKN035 03/M02 Q1013",
      "taf": "TAF EGGP 141653Z 1418/1518 VRB03KT 9999 SCT025"
    },
    {
      "icao": "EGGW",
      "alert": "OK",
      "vis_m": 9999,
      "fzfg": false,
      "metar_trigger": false,
      "taf_trigger": false,
      "metar": "METAR EGGW 142150Z AUTO 17005KT 9999 NCD 02/M02 Q1016",
      "taf": "TAF EGGW 141704Z 1418/1518 24004KT 9999 FEW035"
    },
    {
      "icao": "EGKK",
      "alert": "OK",
      "vis_m": 9999,
      "fzfg": false,
      "metar_trigger": false,
      "taf_trigger": false,
      "metar": "METAR EGKK 142150Z 16003KT CAVOK 03/M03 Q1018",
      "taf": "TAF EGKK 141700Z 1418/1524 20005KT 9999 SCT045"
    },
    {
      "icao": "EGNM",
      "alert": "OK",
      "vis_m": 9999,
      "fzfg": false,
      "metar_trigger": false,
      "taf_trigger": false,
      "metar": "METAR EGNM 142150Z 16006KT 9999 FEW030 01/M01 Q1012",
      "taf": "TAF EGNM 141652Z 1418/1518 29006KT 9999 FEW030"
    },
    {
      "icao": "EGPD",
      "alert": "OK",
      "vis_m": 9999,
      "fzfg": false,
      "metar_trigger": false,
      "taf_trigger": false,
      "metar": "METAR EGPD 142150Z COR AUTO 19014KT 9999 NCD 02/M02 Q1007 NOSIG",
      "taf": "TAF EGPD 141657Z 1418/1518 18008KT 9999 FEW020"
    },
    {
      "icao": "EGPF",
      "alert": "OK",
      "vis_m": 9999,
      "fzfg": false,
      "metar_trigger": false,
      "taf_trigger": false,
      "metar": "METAR EGPF 142150Z AUTO 14008KT 9999 -RA BKN022 BKN032 04/00 Q1006 RESG",
      "taf": "TAF EGPF 141654Z 1418/1518 13010KT 9999 FEW035"
    },
    {
      "icao": "EHBK",
      "alert": "OK",
      "vis_m": 9999,
      "fzfg": false,
      "metar_trigger": false,
      "taf_trigger": false,
      "metar": "METAR EHBK 142155Z AUTO VRB01KT 9999 NCD M03/M05 Q1019",
      "taf": "TAF EHBK 141708Z 1418/1524 02007KT 9999 BKN016"
    },
    {
      "icao": "EHEH",
      "alert": "OK",
      "vis_m": 9999,
      "fzfg": false,
      "metar_trigger": false,
      "taf_trigger": false,
      "metar": "METAR EHEH 142155Z AUTO 11002KT 9999 BKN320 M05/M05 Q1019 BLU",
      "taf": "TAF EHEH 141714Z 1418/1524 01006KT CAVOK"
    },
    {
      "icao": "EKBI",
      "alert": "OK",
      "vis_m": 9999,
      "fzfg": false,
      "metar_trigger": false,
      "taf_trigger": false,
      "metar": "METAR EKBI 142150Z AUTO 17004KT 9999 OVC032/// M03/M06 Q1018",
      "taf": "TAF EKBI 142027Z 1421/1521 15002KT 9999 BKN048"
    },
    {
      "icao": "EKCH",
      "alert": "OK",
      "vis_m": 9999,
      "fzfg": false,
      "metar_trigger": false,
      "taf_trigger": false,
      "metar": "METAR EKCH 142150Z AUTO 31004KT 9999 OVC041/// M03/M09 Q1018 NOSIG",
      "taf": "TAF EKCH 142027Z 1421/1521 VRB03KT 9999 BKN045"
    },
    {
      "icao": "ENAL",
      "alert": "OK",
      "vis_m": 9999,
      "fzfg": false,
      "metar_trigger": false,
      "taf_trigger": false,
      "metar": "METAR ENAL 142150Z 16009KT CAVOK M01/M06 Q1010",
      "taf": "TAF ENAL 142000Z 1421/1506 15010KT CAVOK"
    },
    {
      "icao": "ENBR",
      "alert": "OK",
      "vis_m": 9999,
      "fzfg": false,
      "metar_trigger": false,
      "taf_trigger": false,
      "metar": "METAR ENBR 142150Z 17011KT 9999 BKN033 M00/M03 Q1012 RMK WIND 1200FT 16015KT",
      "taf": "TAF ENBR 141700Z 1418/1518 14008KT 9999 SCT015"
    },
    {
      "icao": "ENGM",
      "alert": "OK",
      "vis_m": 9999,
      "fzfg": false,
      "metar_trigger": false,
      "taf_trigger": false,
      "metar": "METAR ENGM 142150Z 01003KT CAVOK M19/M21 Q1015 NOSIG",
      "taf": "TAF ENGM 141700Z 1418/1518 VRB03KT CAVOK"
    },
    {
      "icao": "ENHD",
      "alert": "OK",
      "vis_m": 9999,
      "fzfg": false,
      "metar_trigger": false,
      "taf_trigger": false,
      "metar": "METAR ENHD 142150Z VRB06KT 9999 BKN031 M01/M02 Q1013",
      "taf": "TAF ENHD 141400Z 1415/1423 10008KT 9999 FEW006 BKN025"
    },
    {
      "icao": "ENTC",
      "alert": "OK",
      "vis_m": 1100,
      "fzfg": false,
      "metar_trigger": false,
      "taf_trigger": false,
      "metar": "METAR ENTC 142150Z 22020KT 1100 R36/P2000N R18/P2000N -SN OVC022 M03/M06 Q0999 RMK WIND 2600FT 21021KT",
      "taf": ""
    },
    {
      "icao": "ENTO",
      "alert": "OK",
      "vis_m": 9999,
      "fzfg": false,
      "metar_trigger": false,
      "taf_trigger": false,
      "metar": "METAR ENTO 142150Z AUTO 33002KT 9999 OVC026/// M11/M13 Q1016",
      "taf": "TAF ENTO 141700Z 1418/1518 VRB03KT CAVOK"
    },
    {
      "icao": "ENVA",
      "alert": "OK",
      "vis_m": 9999,
      "fzfg": false,
      "metar_trigger": false,
      "taf_trigger": false,
      "metar": "METAR ENVA 142150Z 08004KT CAVOK M10/M11 Q1011 RMK WIND 670FT 15014KT",
      "taf": "TAF ENVA 141700Z 1418/1518 10008KT 9999 FEW015 SCT025"
    },
    {
      "icao": "ENZV",
      "alert": "OK",
      "vis_m": 9999,
      "fzfg": false,
      "metar_trigger": false,
      "taf_trigger": false,
      "metar": "METAR ENZV 142150Z 00000KT 9999 FEW020 BKN040 M02/M04 Q1013",
      "taf": "TAF ENZV 141700Z 1418/1518 04005KT 9999 BKN035"
    },
    {
      "icao": "EPGD",
      "alert": "OK",
      "vis_m": 9999,
      "fzfg": false,
      "metar_trigger": false,
      "taf_trigger": false,
      "metar": "METAR EPGD 142200Z 01005KT 340V130 9999 -SN BKN014 M04/M05 Q1013",
      "taf": "TAF EPGD 141730Z 1418/1518 36005KT 9999 BKN018"
    },
    {
      "icao": "EPKK",
      "alert": "OK",
      "vis_m": 700,
      "fzfg": false,
      "metar_trigger": false,
      "taf_trigger": false,
      "metar": "METAR EPKK 142200Z 36007KT 0700 R25/1800N +SN BKN003 BKN007 M01/M02 Q1009",
      "taf": "TAF EPKK 142030Z 1421/1521 36005KT 2000 SN BR OVC012"
    },
    {
      "icao": "EPKT",
      "alert": "OK",
      "vis_m": 2200,
      "fzfg": false,
      "metar_trigger": false,
      "taf_trigger": false,
      "metar": "METAR EPKT 142200Z 33005KT 2200 SN BR SCT003 BKN008 M03/M04 Q1010",
      "taf": "TAF EPKT 141730Z 1418/1518 01010KT 5000 -SN BR SCT009 OVC014"
    },
    {
      "icao": "EPLB",
      "alert": "OK",
      "vis_m": 8000,
      "fzfg": false,
      "metar_trigger": false,
      "taf_trigger": false,
      "metar": "METAR EPLB 142200Z 01006KT 8000 OVC006 M03/M04 Q1010",
      "taf": ""
    },
    {
      "icao": "EPMO",
      "alert": "OK",
      "vis_m": 9999,
      "fzfg": false,
      "metar_trigger": false,
      "taf_trigger": false,
      "metar": "METAR EPMO 142200Z 02008KT 9999 OVC008 M05/M06 Q1012",
      "taf": "TAF EPMO 141730Z 1418/1518 34007KT 9999 BKN012"
    },
    {
      "icao": "EPPO",
      "alert": "OK",
      "vis_m": 9999,
      "fzfg": false,
      "metar_trigger": false,
      "taf_trigger": false,
      "metar": "METAR EPPO 142200Z 36007KT 9999 OVC023 M01/M04 Q1013",
      "taf": "TAF EPPO 141730Z 1418/1518 36007KT 9999 BKN020"
    },
    {
      "icao": "EPRA",
      "alert": "OK",
      "vis_m": 9000,
      "fzfg": false,
      "metar_trigger": false,
      "taf_trigger": false,
      "metar": "METAR EPRA 142200Z 01006KT 9000 OVC006 M04/M05 Q1010",
      "taf": "TAF EPRA 142030Z 1421/1506 35008KT 9999 OVC008"
    },
    {
      "icao": "EPRZ",
      "alert": "OK",
      "vis_m": 2400,
      "fzfg": false,
      "metar_trigger": false,
      "taf_trigger": false,
      "metar": "METAR EPRZ 142200Z 02004KT 2400 -SN BR BKN005 M00/M00 Q1008 RESN",
      "taf": "TAF EPRZ 141730Z 1418/1518 02010KT 9999 -RA OVC015"
    },
    {
      "icao": "EPSC",
      "alert": "OK",
      "vis_m": 9999,
      "fzfg": false,
      "metar_trigger": false,
      "taf_trigger": false,
      "metar": "METAR EPSC 142200Z 33006KT 310V030 9999 BKN032 M01/M07 Q1016",
      "taf": "TAF EPSC 141730Z 1418/1518 33005KT 9999 SCT020 BKN035"
    },
    {
      "icao": "EPSY",
      "alert": "OK",
      "vis_m": 9999,
      "fzfg": false,
      "metar_trigger": false,
      "taf_trigger": false,
      "metar": "METAR EPSY 142200Z 02009KT 9999 OVC008 M07/M09 Q1012",
      "taf": "TAF EPSY 142030Z 1421/1506 01008KT 9999 OVC008"
    },
    {
      "icao": "EPWA",
      "alert": "OK",
      "vis_m": 9999,
      "fzfg": false,
      "metar_trigger": false,
      "taf_trigger": false,
      "metar": "METAR EPWA 142200Z 35006KT 9999 BKN011 M04/M06 Q1011 TEMPO BKN009",
      "taf": "TAF EPWA 142030Z 1421/1521 34008KT 9999 BKN012"
    },
    {
      "icao": "EPWR",
      "alert": "OK",
      "vis_m": 9999,
      "fzfg": false,
      "metar_trigger": false,
      "taf_trigger": false,
      "metar": "METAR EPWR 142200Z 33009KT 9999 FEW013 BKN023 M01/M03 Q1013",
      "taf": "TAF EPWR 142030Z 1421/1521 35006KT 9999 BKN013"
    },
    {
      "icao": "ESGG",
      "alert": "OK",
      "vis_m": 9999,
      "fzfg": false,
      "metar_trigger": false,
      "taf_trigger": false,
      "metar": "METAR ESGG 142150Z 14005KT CAVOK M09/M13 Q1017",
      "taf": "TAF ESGG 142030Z 1421/1521 11004KT CAVOK"
    },
    {
      "icao": "ESKN",
      "alert": "OK",
      "vis_m": 9999,
      "fzfg": false,
      "metar_trigger": false,
      "taf_trigger": false,
      "metar": "METAR ESKN 142150Z 28003KT CAVOK M15/M16 Q1017",
      "taf": "TAF ESKN 142030Z 1421/1521 26003KT CAVOK"
    },
    {
      "icao": "ESMS",
      "alert": "OK",
      "vis_m": 9999,
      "fzfg": false,
      "metar_trigger": false,
      "taf_trigger": false,
      "metar": "METAR ESMS 142150Z VRB02KT 9999 OVC043 M06/M08 Q1017",
      "taf": "TAF ESMS 142027Z 1421/1521 VRB03KT 9999 BKN042"
    },
    {
      "icao": "ESSA",
      "alert": "OK",
      "vis_m": 9999,
      "fzfg": false,
      "metar_trigger": false,
      "taf_trigger": false,
      "metar": "METAR ESSA 142150Z 26005KT CAVOK M14/M16 Q1016 NOSIG",
      "taf": "TAF ESSA 142030Z 1421/1521 26005KT CAVOK"
    },
    {
      "icao": "EYKA",
      "alert": "OK",
      "vis_m": 5000,
      "fzfg": false,
      "metar_trigger": false,
      "taf_trigger": false,
      "metar": "METAR EYKA 142220Z 34002KT 5000 BR NSC M14/M15 Q1013",
      "taf": "TAF EYKA 141704Z 1418/1518 VRB04KT 8000 NSC"
    },
    {
      "icao": "EYPA",
      "alert": "OK",
      "vis_m": 9999,
      "fzfg": false,
      "metar_trigger": false,
      "taf_trigger": false,
      "metar": "METAR EYPA 142220Z 07006KT CAVOK M11/M16 Q1016",
      "taf": "TAF EYPA 141703Z 1418/1518 VRB05KT 8000 NSC"
    },
    {
      "icao": "EYVI",
      "alert": "OK",
      "vis_m": 9999,
      "fzfg": false,
      "metar_trigger": false,
      "taf_trigger": false,
      "metar": "METAR EYVI 142220Z 04007KT 9999 -SN OVC015 M11/M13 Q1011 NOSIG",
      "taf": "TAF EYVI 141706Z 1418/1518 VRB05KT 6000 BKN015"
    },
    {
      "icao": "GCFV",
      "alert": "OK",
      "vis_m": 9999,
      "fzfg": false,
      "metar_trigger": false,
      "taf_trigger": false,
      "metar": "METAR GCFV 142200Z 01025KT 9999 FEW030 17/09 Q1026",
      "taf": "TAF GCFV 142000Z 1421/1521 03020KT 9999 FEW040 TX20/1514Z TN16/1506Z"
    },
    {
      "icao": "GCLP",
      "alert": "OK",
      "vis_m": 9999,
      "fzfg": false,
      "metar_trigger": false,
      "taf_trigger": false,
      "metar": "METAR GCLP 142200Z 01025G36KT 9999 BKN030 18/10 Q1027 NOSIG",
      "taf": "TAF GCLP 142000Z 1421/1521 02020KT 9999 FEW035 TX20/1514Z TN16/1506Z"
    },
    {
      "icao": "GCTS",
      "alert": "OK",
      "vis_m": 9999,
      "fzfg": false,
      "metar_trigger": false,
      "taf_trigger": false,
      "metar": "METAR GCTS 142200Z 05010G20KT 010V110 9999 FEW030 17/08 Q1026 NOSIG",
      "taf": ""
    },
    {
      "icao": "GMAD",
      "alert": "OK",
      "vis_m": 9999,
      "fzfg": false,
      "metar_trigger": false,
      "taf_trigger": false,
      "metar": "METAR GMAD 142200Z 02003KT CAVOK 12/11 Q1020 NOSIG",
      "taf": "TAF GMAD 141700Z 1418/1524 26008KT CAVOK"
    },
    {
      "icao": "GMMN",
      "alert": "OK",
      "vis_m": 9999,
      "fzfg": false,
      "metar_trigger": false,
      "taf_trigger": false,
      "metar": "METAR GMMN 142200Z 15005KT 9999 BKN026 08/05 Q1031 NOSIG",
      "taf": "TAF GMMN 141700Z 1418/1524 02011KT 9999 SCT030"
    },
    {
      "icao": "GMMX",
      "alert": "OK",
      "vis_m": 9999,
      "fzfg": false,
      "metar_trigger": false,
      "taf_trigger": false,
      "metar": "METAR GMMX 142200Z 07008KT CAVOK 10/04 Q1029 NOSIG",
      "taf": "TAF GMMX 141700Z 1418/1524 28008KT 8000 SCT026 SCT100"
    },
    {
      "icao": "HEGN",
      "alert": "OK",
      "vis_m": 9999,
      "fzfg": false,
      "metar_trigger": false,
      "taf_trigger": false,
      "metar": "METAR HEGN 142200Z 28006KT CAVOK 18/M02 Q1018 NOSIG",
      "taf": "TAF HEGN 141100Z 1412/1518 35010G20KT 6000 NSC"
    },
    {
      "icao": "HEMA",
      "alert": "OK",
      "vis_m": 9999,
      "fzfg": false,
      "metar_trigger": false,
      "taf_trigger": false,
      "metar": "METAR HEMA 142200Z 26006KT CAVOK 18/09 Q1017 NOSIG",
      "taf": "TAF HEMA 141100Z 1412/1518 34010G20KT 6000 NSC"
    },
    {
      "icao": "HESH",
      "alert": "OK",
      "vis_m": 9999,
      "fzfg": false,
      "metar_trigger": false,
      "taf_trigger": false,
      "metar": "METAR HESH 142200Z 00000KT CAVOK 20/03 Q1018 NOSIG",
      "taf": "TAF HESH 141100Z 1412/1518 36010G20KT 6000 NSC"
    },
    {
      "icao": "HESX",
      "alert": "OK",
      "vis_m": 9999,
      "fzfg": false,
      "metar_trigger": false,
      "taf_trigger": false,
      "metar": "METAR HESX 142200Z 19006KT CAVOK 15/M01 Q1017 NOSIG",
      "taf": "TAF HESX 141100Z 1412/1518 30008KT CAVOK"
    },
    {
      "icao": "LATI",
      "alert": "OK",
      "vis_m": 9999,
      "fzfg": false,
      "metar_trigger": false,
      "taf_trigger": false,
      "metar": "METAR LATI 142220Z 16008KT 120V180 9999 OVC060 13/08 Q0997 NOSIG",
      "taf": "TAF LATI 141700Z 1418/1518 16012KT 9999 SCT060 BKN080 TX15/1513Z TN11/1506Z"
    },
    {
      "icao": "LBPD",
      "alert": "OK",
      "vis_m": 9999,
      "fzfg": false,
      "metar_trigger": false,
      "taf_trigger": false,
      "metar": "METAR LBPD 142200Z AUTO 17003KT 130V200 9999 FEW140/// 06/06 Q1007",
      "taf": "TAF LBPD 141700Z 1418/1518 10010KT 9999 SCT060"
    },
    {
      "icao": "LBSF",
      "alert": "OK",
      "vis_m": 9999,
      "fzfg": false,
      "metar_trigger": false,
      "taf_trigger": false,
      "metar": "METAR LBSF 142200Z AUTO VRB02KT 9999 SCT056/// 05/04 Q1005 NOSIG",
      "taf": "TAF LBSF 141700Z 1418/1518 12010KT 9999 SCT060"
    },
    {
      "icao": "LBWN",
      "alert": "OK",
      "vis_m": 9999,
      "fzfg": false,
      "metar_trigger": false,
      "taf_trigger": false,
      "metar": "METAR LBWN 142200Z AUTO 12005KT 9999 NSC 10/07 Q1008 NOSIG",
      "taf": "TAF LBWN 141700Z 1418/1518 10010KT 9999 SCT045"
    },
    {
      "icao": "LCLK",
      "alert": "OK",
      "vis_m": 9999,
      "fzfg": false,
      "metar_trigger": false,
      "taf_trigger": false,
      "metar": "METAR LCLK 142200Z 29003KT CAVOK 11/11 Q1018 NOSIG",
      "taf": "TAF LCLK 141730Z 1418/1518 23010KT 9999 FEW025"
    },
    {
      "icao": "LCPH",
      "alert": "OK",
      "vis_m": 9999,
      "fzfg": false,
      "metar_trigger": false,
      "taf_trigger": false,
      "metar": "METAR LCPH 142200Z 08006KT 9999 SCT018 13/11 Q1018 NOSIG",
      "taf": "TAF LCPH 141730Z 1418/1518 30010KT 9999 FEW025"
    },
    {
      "icao": "LEAL",
      "alert": "OK",
      "vis_m": 9999,
      "fzfg": false,
      "metar_trigger": false,
      "taf_trigger": false,
      "metar": "METAR LEAL 142200Z 30021G33KT 270V340 CAVOK 14/M00 Q1017 NOSIG",
      "taf": "TAF LEAL 141700Z 1418/1518 31020KT 9999 FEW012 TX20/1513Z TN09/1506Z"
    },
    {
      "icao": "LEBB",
      "alert": "OK",
      "vis_m": 9999,
      "fzfg": false,
      "metar_trigger": false,
      "taf_trigger": false,
      "metar": "METAR LEBB 142200Z VRB01KT 9999 FEW038 SCT055 07/04 Q1025 NOSIG",
      "taf": "TAF LEBB 141700Z 1418/1518 30009KT 9999 SCT020 BKN030 TX15/1512Z TN07/1501Z"
    },
    {
      "icao": "LEBL",
      "alert": "OK",
      "vis_m": 9999,
      "fzfg": false,
      "metar_trigger": false,
      "taf_trigger": false,
      "metar": "METAR LEBL 142200Z 31012KT 9999 FEW030 13/M02 Q1011 NOSIG",
      "taf": "TAF LEBL 141700Z 1418/1518 32012KT 9999 FEW035 TX15/1513Z TN07/1506Z"
    },
    {
      "icao": "LECH",
      "alert": "OK",
      "vis_m": 9999,
      "fzfg": false,
      "metar_trigger": false,
      "taf_trigger": false,
      "metar": "METAR LECH 142200Z AUTO 35027G46KT 290V030 CAVOK 10/M02 Q1015",
      "taf": ""
    },
    {
      "icao": "LEMD",
      "alert": "OK",
      "vis_m": 9999,
      "fzfg": false,
      "metar_trigger": false,
      "taf_trigger": false,
      "metar": "METAR LEMD 142200Z 16003KT 060V210 CAVOK 05/M05 Q1023 NOSIG",
      "taf": ""
    },
    {
      "icao": "LEMG",
      "alert": "OK",
      "vis_m": 9999,
      "fzfg": false,
      "metar_trigger": false,
      "taf_trigger": false,
      "metar": "METAR LEMG 142200Z 29014KT CAVOK 12/M00 Q1025 NOSIG",
      "taf": "TAF LEMG 141700Z 1418/1518 30012KT 9999 FEW040 TX18/1514Z TN09/1507Z"
    },
    {
      "icao": "LEVC",
      "alert": "OK",
      "vis_m": 9999,
      "fzfg": false,
      "metar_trigger": false,
      "taf_trigger": false,
      "metar": "METAR LEVC 142200Z 30020G31KT CAVOK 13/M01 Q1017 NOSIG",
      "taf": "TAF LEVC 141700Z 1418/1518 33020KT 9999 FEW060 TX19/1514Z TN10/1506Z"
    },
    {
      "icao": "LEXJ",
      "alert": "OK",
      "vis_m": 9999,
      "fzfg": false,
      "metar_trigger": false,
      "taf_trigger": false,
      "metar": "METAR LEXJ 142200Z 24007KT 9999 BKN036 08/03 Q1025",
      "taf": "TAF LEXJ 142000Z 1421/1521 22009KT 9999 SCT020 BKN040 TX15/1514Z TN08/1423Z"
    },
    {
      "icao": "LEZG",
      "alert": "OK",
      "vis_m": 9999,
      "fzfg": false,
      "metar_trigger": false,
      "taf_trigger": false,
      "metar": "METAR LEZG 142200Z 28023KT 9999 FEW040 07/02 Q1021 NOSIG",
      "taf": "TAF LEZG 141700Z 1418/1518 30020KT 9999 FEW030 SCT060 TX16/1512Z TN06/1506Z"
    },
    {
      "icao": "LEZL",
      "alert": "OK",
      "vis_m": 9999,
      "fzfg": false,
      "metar_trigger": false,
      "taf_trigger": false,
      "metar": "METAR LEZL 142200Z 30003KT CAVOK 09/05 Q1027 NOSIG",
      "taf": "TAF LEZL 142000Z 1421/1521 27005KT 9999 FEW040 TX18/1515Z TN06/1507Z"
    },
    {
      "icao": "LFBD",
      "alert": "OK",
      "vis_m": 9999,
      "fzfg": false,
      "metar_trigger": false,
      "taf_trigger": false,
      "metar": "METAR LFBD 142200Z AUTO 28004KT 9999 FEW043 BKN049 OVC240 06/02 Q1023 NOSIG",
      "taf": "TAF LFBD 141700Z 1418/1524 34010KT 9999 BKN020 TX13/1516Z TN04/1504Z"
    },
    {
      "icao": "LFLL",
      "alert": "OK",
      "vis_m": 9999,
      "fzfg": false,
      "metar_trigger": false,
      "taf_trigger": false,
      "metar": "METAR LFLL 142200Z 33017KT 9999 BKN011 OVC025 02/M00 Q1016 NOSIG",
      "taf": ""
    },
    {
      "icao": "LFLS",
      "alert": "OK",
      "vis_m": 9999,
      "fzfg": false,
      "metar_trigger": false,
      "taf_trigger": false,
      "metar": "METAR LFLS 142200Z AUTO 34018KT 9999 OVC013 01/M01 Q1014",
      "taf": ""
    },
    {
      "icao": "LFMN",
      "alert": "OK",
      "vis_m": 9999,
      "fzfg": false,
      "metar_trigger": false,
      "taf_trigger": false,
      "metar": "METAR LFMN 142200Z 32010KT CAVOK 10/07 Q1000 NOSIG",
      "taf": "TAF LFMN 142000Z 1421/1603 34010KT CAVOK"
    },
    {
      "icao": "LFOB",
      "alert": "OK",
      "vis_m": 9999,
      "fzfg": false,
      "metar_trigger": false,
      "taf_trigger": false,
      "metar": "METAR LFOB 142200Z AUTO 28005KT CAVOK M01/M03 Q1020 NOSIG",
      "taf": "TAF LFOB 141700Z 1418/1518 35006KT CAVOK"
    },
    {
      "icao": "LFPO",
      "alert": "OK",
      "vis_m": 9999,
      "fzfg": false,
      "metar_trigger": false,
      "taf_trigger": false,
      "metar": "METAR LFPO 142200Z VRB02KT CAVOK M00/M02 Q1020 NOSIG",
      "taf": "TAF LFPO 141700Z 1418/1524 02010KT 9999 BKN030"
    },
    {
      "icao": "LFSB",
      "alert": "OK",
      "vis_m": 9999,
      "fzfg": false,
      "metar_trigger": false,
      "taf_trigger": false,
      "metar": "METAR LFSB 142200Z AUTO 33008KT 9999 OVC011 02/00 Q1015 TEMPO OVC005",
      "taf": ""
    },
    {
      "icao": "LGAV",
      "alert": "OK",
      "vis_m": 9999,
      "fzfg": false,
      "metar_trigger": false,
      "taf_trigger": false,
      "metar": "METAR LGAV 142150Z VRB02KT 9999 SCT018 15/11 Q1009 NOSIG",
      "taf": "TAF LGAV 141700Z 1418/1518 19012KT 9999 SCT025"
    },
    {
      "icao": "LGTS",
      "alert": "OK",
      "vis_m": null,
      "fzfg": false,
      "metar_trigger": false,
      "taf_trigger": false,
      "metar": "",
      "taf": "TAF LGTS 141700Z 1418/1518 13010KT 9999 SCT030"
    },
    {
      "icao": "LHBP",
      "alert": "OK",
      "vis_m": 9999,
      "fzfg": false,
      "metar_trigger": false,
      "taf_trigger": false,
      "metar": "METAR LHBP 142200Z 05005KT CAVOK 07/05 Q1003 NOSIG",
      "taf": "TAF LHBP 141715Z 1418/1518 08008KT CAVOK"
    },
    {
      "icao": "LHDC",
      "alert": "OK",
      "vis_m": 9999,
      "fzfg": false,
      "metar_trigger": false,
      "taf_trigger": false,
      "metar": "METAR LHDC 142145Z AUTO 06006KT 010V120 CAVOK 07/04 Q1004",
      "taf": "TAF LHDC 141415Z 1415/1424 16004KT CAVOK"
    },
    {
      "icao": "LIBD",
      "alert": "OK",
      "vis_m": 9999,
      "fzfg": false,
      "metar_trigger": false,
      "taf_trigger": false,
      "metar": "METAR LIBD 142150Z 27002KT 9999 -DZ FEW008 SCT015 10/09 Q0996",
      "taf": "TAF LIBD 141700Z 1418/1518 16013KT 9999 BKN030"
    },
    {
      "icao": "LIBG",
      "alert": "OK",
      "vis_m": null,
      "fzfg": false,
      "metar_trigger": false,
      "taf_trigger": false,
      "metar": "",
      "taf": "TAF LIBG 141700Z 1418/1503 31016KT 9999 BKN030"
    },
    {
      "icao": "LIBP",
      "alert": "OK",
      "vis_m": 9999,
      "fzfg": false,
      "metar_trigger": false,
      "taf_trigger": false,
      "metar": "METAR LIBP 142150Z AUTO 14003KT 100V220 9999 BKN083/// BKN150/// 10/09 Q0996",
      "taf": "TAF LIBP 141700Z 1418/1518 VRB05KT 9999 BKN030"
    },
    {
      "icao": "LIBR",
      "alert": "OK",
      "vis_m": 5000,
      "fzfg": false,
      "metar_trigger": false,
      "taf_trigger": false,
      "metar": "METAR LIBR 142150Z 27005KT 230V300 5000 +RA BR FEW005 BKN040 11/11 Q0995",
      "taf": "TAF LIBR 141700Z 1418/1518 16018G32KT 9999 BKN030"
    },
    {
      "icao": "LICA",
      "alert": "OK",
      "vis_m": 9999,
      "fzfg": false,
      "metar_trigger": false,
      "taf_trigger": false,
      "metar": "METAR LICA 142150Z AUTO 26005KT 9999 FEW017/// BKN043/// 12/11 Q0997",
      "taf": "TAF LICA 141700Z 1418/1518 26010KT 9999 FEW020 SCT050"
    },
    {
      "icao": "LICC",
      "alert": "OK",
      "vis_m": 9999,
      "fzfg": false,
      "metar_trigger": false,
      "taf_trigger": false,
      "metar": "METAR LICC 142150Z 26007KT CAVOK 10/06 Q0998",
      "taf": "TAF LICC 141700Z 1418/1518 VRB05KT 9999 SCT020"
    },
    {
      "icao": "LICJ",
      "alert": "OK",
      "vis_m": 9999,
      "fzfg": false,
      "metar_trigger": false,
      "taf_trigger": false,
      "metar": "METAR LICJ 142150Z 20017KT 9999 FEW035 13/08 Q0996",
      "taf": "TAF LICJ 141700Z 1418/1518 20014KT 9999 SCT030"
    },
    {
      "icao": "LIMC",
      "alert": "OK",
      "vis_m": 7000,
      "fzfg": false,
      "metar_trigger": false,
      "taf_trigger": false,
      "metar": "METAR LIMC 142150Z 01003KT 340V040 7000 R35R/1800D R17L/1600U R35L/0700N BCFG NSC 04/04 Q1002 NOSIG",
      "taf": "TAF LIMC 141700Z 1418/1524 VRB05KT 8000 SCT040"
    },
    {
      "icao": "LIME",
      "alert": "OK",
      "vis_m": 8000,
      "fzfg": false,
      "metar_trigger": false,
      "taf_trigger": false,
      "metar": "METAR LIME 142150Z AUTO VRB01KT 8000 FEW110/// 08/08 Q1001",
      "taf": "TAF LIME 141700Z 1418/1518 33007KT 8000 SCT040"
    },
    {
      "icao": "LIMF",
      "alert": "OK",
      "vis_m": 9999,
      "fzfg": false,
      "metar_trigger": false,
      "taf_trigger": false,
      "metar": "METAR LIMF 142150Z AUTO 35003KT 9999 NCD 06/03 Q1002",
      "taf": "TAF LIMF 141700Z 1418/1518 VRB05KT 9999 SCT030"
    },
    {
      "icao": "LIMJ",
      "alert": "OK",
      "vis_m": 9999,
      "fzfg": false,
      "metar_trigger": false,
      "taf_trigger": false,
      "metar": "METAR LIMJ 142150Z VRB06KT CAVOK 13/05 Q1000",
      "taf": "TAF LIMJ 141700Z 1418/1518 03014KT 7000 SCT020"
    },
    {
      "icao": "LIPE",
      "alert": "OK",
      "vis_m": 6000,
      "fzfg": false,
      "metar_trigger": false,
      "taf_trigger": false,
      "metar": "METAR LIPE 142150Z 29007KT 6000 DZ SCT003 BKN008 09/09 Q1000",
      "taf": "TAF LIPE 141700Z 1418/1518 29008KT 6000 BKN030"
    },
    {
      "icao": "LIPH",
      "alert": "OK",
      "vis_m": 9999,
      "fzfg": false,
      "metar_trigger": false,
      "taf_trigger": false,
      "metar": "METAR LIPH 142150Z 04003KT 010V070 9999 BKN060 10/07 Q1000",
      "taf": "TAF LIPH 141700Z 1418/1518 05010KT 7000 BKN040"
    },
    {
      "icao": "LIPQ",
      "alert": "OK",
      "vis_m": 9999,
      "fzfg": false,
      "metar_trigger": false,
      "taf_trigger": false,
      "metar": "METAR LIPQ 142150Z AUTO VRB01KT 9999 -RA OVC044/// 09/07 Q1001",
      "taf": "TAF LIPQ 141700Z 1418/1518 02012KT 9999 BKN030"
    },
    {
      "icao": "LIPR",
      "alert": "OK",
      "vis_m": 9999,
      "fzfg": false,
      "metar_trigger": false,
      "taf_trigger": false,
      "metar": "METAR LIPR 142150Z 32009KT 9999 BKN010 10/09 Q0998",
      "taf": "TAF LIPR 141700Z 1418/1518 VRB06KT 8000 BKN030"
    },
    {
      "icao": "LIPX",
      "alert": "OK",
      "vis_m": 9999,
      "fzfg": false,
      "metar_trigger": false,
      "taf_trigger": false,
      "metar": "METAR LIPX 142150Z 27004KT 9999 -RA FEW040 BKN060 09/07 Q1001",
      "taf": "TAF LIPX 141700Z 1418/1518 30005KT 7000 SCT050"
    },
    {
      "icao": "LIPY",
      "alert": "OK",
      "vis_m": 9999,
      "fzfg": false,
      "metar_trigger": false,
      "taf_trigger": false,
      "metar": "METAR LIPY 142150Z AUTO VRB01KT 9999 BKN190/// BKN240/// 09/08 Q0998",
      "taf": "TAF LIPY 141700Z 1418/1518 VRB05KT 7000 SCT040"
    },
    {
      "icao": "LIPZ",
      "alert": "OK",
      "vis_m": 9999,
      "fzfg": false,
      "metar_trigger": false,
      "taf_trigger": false,
      "metar": "METAR LIPZ 142150Z 04011KT 9999 BKN045 09/07 Q1000 NOSIG",
      "taf": "TAF LIPZ 141700Z 1418/1524 04016KT 7000 BKN025"
    },
    {
      "icao": "LIRF",
      "alert": "OK",
      "vis_m": 9999,
      "fzfg": false,
      "metar_trigger": false,
      "taf_trigger": false,
      "metar": "METAR LIRF 142150Z 09003KT 050V150 CAVOK 11/09 Q0996 NOSIG",
      "taf": "TAF LIRF 141700Z 1418/1524 10010KT 9999 SCT020"
    },
    {
      "icao": "LIRN",
      "alert": "OK",
      "vis_m": 9999,
      "fzfg": false,
      "metar_trigger": false,
      "taf_trigger": false,
      "metar": "METAR LIRN 142150Z 05005KT 9999 -RA SCT040 10/09 Q0996 NOSIG",
      "taf": "TAF LIRN 141700Z 1418/1518 VRB05KT 9999 SCT015 SCT030"
    },
    {
      "icao": "LIRP",
      "alert": "OK",
      "vis_m": 9999,
      "fzfg": false,
      "metar_trigger": false,
      "taf_trigger": false,
      "metar": "METAR LIRP 142145Z 12005KT 9999 FEW040 BKN060 10/09 Q0998 NOSIG",
      "taf": "TAF LIRP 141700Z 1418/1518 07008KT 9999 -RA SCT020 BKN040"
    },
    {
      "icao": "LIRZ",
      "alert": "OK",
      "vis_m": 9999,
      "fzfg": false,
      "metar_trigger": false,
      "taf_trigger": false,
      "metar": "METAR LIRZ 142150Z AUTO 35005KT 9999 SCT068/// 08/07 Q0997",
      "taf": "TAF LIRZ 141700Z 1418/1518 VRB06KT 9000 SCT030"
    },
    {
      "icao": "LJLJ",
      "alert": "OK",
      "vis_m": 8000,
      "fzfg": false,
      "metar_trigger": false,
      "taf_trigger": false,
      "metar": "METAR LJLJ 142200Z 27004KT 8000 -RA FEW003 SCT038 BKN050 06/06 Q1002 NOSIG",
      "taf": ""
    },
    {
      "icao": "LKMT",
      "alert": "OK",
      "vis_m": 1600,
      "fzfg": false,
      "metar_trigger": false,
      "taf_trigger": false,
      "metar": "METAR LKMT 142200Z 01010KT 1600 SN BR SCT006 OVC019 M01/M01 Q1010 NOSIG",
      "taf": "TAF LKMT 141700Z 1418/1518 01010KT 3500 -SN BR OVC005"
    },
    {
      "icao": "LKPR",
      "alert": "OK",
      "vis_m": 9999,
      "fzfg": false,
      "metar_trigger": false,
      "taf_trigger": false,
      "metar": "METAR LKPR 142200Z 34011KT 300V360 9999 BKN016 OVC022 M01/M03 Q1012 NOSIG",
      "taf": "TAF LKPR 142000Z 1421/1603 36012KT 9999 BKN015"
    },
    {
      "icao": "LLBG",
      "alert": "OK",
      "vis_m": 4000,
      "fzfg": false,
      "metar_trigger": false,
      "taf_trigger": false,
      "metar": "METAR LLBG 142150Z 12006KT 4000 DU NSC 14/11 Q1019 NOSIG",
      "taf": "TAF LLBG 141706Z 1418/1518 14005KT 4000 DU NSC"
    },
    {
      "icao": "LMML",
      "alert": "OK",
      "vis_m": 9999,
      "fzfg": false,
      "metar_trigger": false,
      "taf_trigger": false,
      "metar": "METAR LMML 142215Z 25009KT 9999 FEW019 14/11 Q1001 NOSIG",
      "taf": "TAF LMML 141700Z 1418/1518 32010KT 9999 FEW018"
    },
    {
      "icao": "LOWW",
      "alert": "OK",
      "vis_m": 9999,
      "fzfg": false,
      "metar_trigger": false,
      "taf_trigger": false,
      "metar": "METAR LOWW 142150Z 34013KT 9999 -RASN FEW006 SCT008 BKN013 01/00 Q1008 TEMPO 4000 -RASN BKN009",
      "taf": ""
    },
    {
      "icao": "LPFR",
      "alert": "OK",
      "vis_m": 9999,
      "fzfg": false,
      "metar_trigger": false,
      "taf_trigger": false,
      "metar": "METAR LPFR 142200Z 31005KT 260V350 CAVOK 11/07 Q1029",
      "taf": "TAF LPFR 141700Z 1418/1518 32013KT 9999 SCT035"
    },
    {
      "icao": "LPMA",
      "alert": "OK",
      "vis_m": 9999,
      "fzfg": false,
      "metar_trigger": false,
      "taf_trigger": false,
      "metar": "METAR LPMA 142200Z 01010KT 9999 FEW016 15/09 Q1032",
      "taf": "TAF LPMA 141700Z 1418/1518 02010KT 9999 SCT016"
    },
    {
      "icao": "LPPR",
      "alert": "OK",
      "vis_m": 9999,
      "fzfg": false,
      "metar_trigger": false,
      "taf_trigger": false,
      "metar": "METAR LPPR 142200Z 00000KT 9999 FEW025 SCT040 09/07 Q1029",
      "taf": "TAF LPPR 141700Z 1418/1518 34010KT 9999 FEW030"
    },
    {
      "icao": "LPPS",
      "alert": "OK",
      "vis_m": 9999,
      "fzfg": false,
      "metar_trigger": false,
      "taf_trigger": false,
      "metar": "METAR LPPS 142200Z 05006KT 9999 FEW015 14/08 Q1033",
      "taf": "TAF LPPS 141700Z 1418/1524 06015KT 9999 SCT015"
    },
    {
      "icao": "LPPT",
      "alert": "OK",
      "vis_m": 9999,
      "fzfg": false,
      "metar_trigger": false,
      "taf_trigger": false,
      "metar": "METAR LPPT 142200Z 33006KT 9999 FEW025 11/08 Q1030",
      "taf": "TAF LPPT 141700Z 1418/1524 33012KT 9999 SCT040"
    },
    {
      "icao": "LQBK",
      "alert": "OK",
      "vis_m": 9999,
      "fzfg": false,
      "metar_trigger": false,
      "taf_trigger": false,
      "metar": "METAR LQBK 142200Z 27003KT 230V300 CAVOK 07/06 Q1000 NOSIG",
      "taf": "TAF LQBK 141700Z 1418/1518 26004KT 9999 SCT045 TX07/1418Z TNM00/1518Z"
    },
    {
      "icao": "LQSA",
      "alert": "OK",
      "vis_m": 9999,
      "fzfg": false,
      "metar_trigger": false,
      "taf_trigger": false,
      "metar": "METAR LQSA 142200Z 10003KT 9999 SCT055 07/06 Q0999",
      "taf": "TAF LQSA 141700Z 1418/1518 14005KT 9999 BKN045 TX07/1418Z TNM01/1518Z"
    },
    {
      "icao": "LQTZ",
      "alert": "OK",
      "vis_m": 9999,
      "fzfg": false,
      "metar_trigger": false,
      "taf_trigger": false,
      "metar": "METAR LQTZ 142200Z 11003KT 9999 BKN065 09/05 Q1000",
      "taf": "TAF LQTZ 141700Z 1418/1518 16005KT 9999 SCT050 TX10/1418Z TN01/1518Z"
    },
    {
      "icao": "LRBC",
      "alert": "OK",
      "vis_m": 4400,
      "fzfg": false,
      "metar_trigger": false,
      "taf_trigger": false,
      "metar": "METAR LRBC 142200Z 16011KT 4400 BR OVC002 06/06 Q1007",
      "taf": "TAF LRBC 142000Z 1421/1506 16008KT 3000 BR BKN005"
    },
    {
      "icao": "LRBS",
      "alert": "OK",
      "vis_m": 500,
      "fzfg": false,
      "metar_trigger": false,
      "taf_trigger": false,
      "metar": "METAR LRBS 142200Z VRB02KT 0500 R07/1100U FG BKN001 OVC006 05/05 Q1007 NOSIG",
      "taf": ""
    },
    {
      "icao": "LRBV",
      "alert": "OK",
      "vis_m": 9999,
      "fzfg": false,
      "metar_trigger": false,
      "taf_trigger": false,
      "metar": "METAR LRBV 142200Z AUTO 19011KT 9999 OVC120/// 09/01 Q1005",
      "taf": "TAF LRBV 142000Z 1421/1506 VRB04KT CAVOK"
    },
    {
      "icao": "LRCL",
      "alert": "OK",
      "vis_m": 9999,
      "fzfg": false,
      "metar_trigger": false,
      "taf_trigger": false,
      "metar": "METAR LRCL 142200Z VRB02KT CAVOK 05/02 Q1005",
      "taf": "TAF LRCL 142000Z 1421/1506 VRB04KT CAVOK"
    },
    {
      "icao": "LRCV",
      "alert": "OK",
      "vis_m": 6000,
      "fzfg": false,
      "metar_trigger": false,
      "taf_trigger": false,
      "metar": "METAR LRCV 142200Z 07009KT 6000 -RA BKN043 07/06 Q1005",
      "taf": "TAF LRCV 142000Z 1421/1506 VRB04KT 7000 NSC"
    },
    {
      "icao": "LRIA",
      "alert": "OK",
      "vis_m": 9999,
      "fzfg": false,
      "metar_trigger": false,
      "taf_trigger": false,
      "metar": "METAR LRIA 142200Z 09011KT CAVOK 05/03 Q1008",
      "taf": "TAF LRIA 142000Z 1421/1506 08006KT CAVOK"
    },
    {
      "icao": "LROP",
      "alert": "OK",
      "vis_m": 200,
      "fzfg": false,
      "metar_trigger": false,
      "taf_trigger": false,
      "metar": "METAR LROP 142200Z 02004KT 360V070 0200 R08R/0500N R08L/0500N FG VV002 06/05 Q1007 NOSIG",
      "taf": ""
    },
    {
      "icao": "LRSB",
      "alert": "OK",
      "vis_m": 9999,
      "fzfg": false,
      "metar_trigger": false,
      "taf_trigger": false,
      "metar": "METAR LRSB 142200Z 15006KT CAVOK 08/01 Q1004",
      "taf": "TAF LRSB 141700Z 1418/1518 VRB04KT CAVOK"
    },
    {
      "icao": "LRSM",
      "alert": "OK",
      "vis_m": 9999,
      "fzfg": false,
      "metar_trigger": false,
      "taf_trigger": false,
      "metar": "METAR LRSM 142200Z AUTO 09007KT 9999 FEW120/// BKN150/// 07/03 Q1004",
      "taf": ""
    },
    {
      "icao": "LRSV",
      "alert": "OK",
      "vis_m": 9999,
      "fzfg": false,
      "metar_trigger": false,
      "taf_trigger": false,
      "metar": "METAR LRSV 142200Z 02005KT CAVOK 03/02 Q1006",
      "taf": "TAF LRSV 142000Z 1421/1506 01006KT CAVOK"
    },
    {
      "icao": "LRTM",
      "alert": "OK",
      "vis_m": 9999,
      "fzfg": false,
      "metar_trigger": false,
      "taf_trigger": false,
      "metar": "METAR LRTM 142200Z AUTO 09005KT 9999 NCD 04/02 Q1005",
      "taf": "TAF LRTM 142000Z 1421/1506 VRB04KT CAVOK"
    },
    {
      "icao": "LRTR",
      "alert": "OK",
      "vis_m": 9999,
      "fzfg": false,
      "metar_trigger": false,
      "taf_trigger": false,
      "metar": "METAR LRTR 142200Z 08008KT 9999 -RA NSC 09/04 Q1003",
      "taf": "TAF LRTR 141700Z 1418/1518 10007KT CAVOK"
    },
    {
      "icao": "LTAC",
      "alert": "OK",
      "vis_m": 9999,
      "fzfg": false,
      "metar_trigger": false,
      "taf_trigger": false,
      "metar": "METAR LTAC 142150Z VRB02KT CAVOK 02/00 Q1017 NOSIG RMK RWY21C 05004KT 360V080 RWY03L VRB02KT RWY21R 03004KT RWY03R VRB01KT RWY21L 05004KT 020V090",
      "taf": "TAF LTAC 141640Z 1418/1518 26012KT 9999 SCT040"
    },
    {
      "icao": "LTFM",
      "alert": "OK",
      "vis_m": 9999,
      "fzfg": false,
      "metar_trigger": false,
      "taf_trigger": false,
      "metar": "METAR LTFM 142150Z 16008KT CAVOK 12/07 Q1011 NOSIG RMK RWY17L 17008KT RWY34L 15008KT RWY16R 16010KT RWY36 16010KT RWY18 17009KT",
      "taf": "TAF LTFM 141640Z 1418/1524 16012KT CAVOK"
    },
    {
      "icao": "LUKK",
      "alert": "OK",
      "vis_m": 9999,
      "fzfg": false,
      "metar_trigger": false,
      "taf_trigger": false,
      "metar": "METAR LUKK 142200Z 16006KT CAVOK 05/03 Q1009 NOSIG",
      "taf": "TAF LUKK 141710Z 1418/1518 14006KT CAVOK"
    },
    {
      "icao": "LWOH",
      "alert": "OK",
      "vis_m": null,
      "fzfg": false,
      "metar_trigger": false,
      "taf_trigger": false,
      "metar": "",
      "taf": "TAF LWOH 142030Z 1421/1521 VRB03KT 9999 -RA SCT015 OVC035"
    },
    {
      "icao": "LWSK",
      "alert": "OK",
      "vis_m": 4000,
      "fzfg": false,
      "metar_trigger": false,
      "taf_trigger": false,
      "metar": "METAR LWSK 142220Z VRB02KT 4000 BR FEW015 OVC050 07/06 Q1004 NOSIG",
      "taf": "TAF LWSK 142030Z 1421/1521 VRB02KT 4000 BR SCT015 OVC050"
    },
    {
      "icao": "LYBE",
      "alert": "OK",
      "vis_m": 9999,
      "fzfg": false,
      "metar_trigger": false,
      "taf_trigger": false,
      "metar": "METAR LYBE 142200Z 13008KT CAVOK 10/05 Q1001 NOSIG",
      "taf": "TAF LYBE 141700Z 1418/1518 10007KT CAVOK TX09/1418Z TN02/1518Z"
    },
    {
      "icao": "LYNI",
      "alert": "OK",
      "vis_m": 9999,
      "fzfg": false,
      "metar_trigger": false,
      "taf_trigger": false,
      "metar": "METAR LYNI 142200Z 09004KT 9999 -RA FEW017 BKN043 OVC080 08/08 Q1004 RERA NOSIG",
      "taf": "TAF LYNI 141700Z 1418/1518 10005KT 9999 BKN070 TX11/1510Z TN03/1518Z"
    },
    {
      "icao": "LYPG",
      "alert": "OK",
      "vis_m": 9999,
      "fzfg": false,
      "metar_trigger": false,
      "taf_trigger": false,
      "metar": "METAR LYPG 142200Z 30008KT 9999 RA FEW010 BKN040 OVC070 09/09 Q0999 NOSIG",
      "taf": "TAF LYPG 141700Z 1418/1518 12008KT 8000 FEW010 BKN034 OVC070 TX11/1512Z TN07/1518Z"
    },
    {
      "icao": "LZIB",
      "alert": "OK",
      "vis_m": 9999,
      "fzfg": false,
      "metar_trigger": false,
      "taf_trigger": false,
      "metar": "METAR LZIB 142200Z 29007KT 9999 FEW010 SCT034 BKN039 04/02 Q1005 NOSIG",
      "taf": "TAF LZIB 141715Z 1418/1518 35006KT 9999 SCT035"
    },
    {
      "icao": "LZKZ",
      "alert": "OK",
      "vis_m": 9999,
      "fzfg": false,
      "metar_trigger": false,
      "taf_trigger": false,
      "metar": "METAR LZKZ 142200Z 36008KT 9999 BCFG NSC 04/03 Q1005 NOSIG",
      "taf": "TAF LZKZ 141715Z 1418/1518 01006KT 9999 FEW008 SCT040"
    },
    {
      "icao": "LZTT",
      "alert": "OK",
      "vis_m": 3000,
      "fzfg": false,
      "metar_trigger": false,
      "taf_trigger": false,
      "metar": "METAR LZTT 142200Z 06006KT 3000 -DZ BR OVC002 02/01 Q1005",
      "taf": ""
    },
    {
      "icao": "OEJN",
      "alert": "OK",
      "vis_m": 9999,
      "fzfg": false,
      "metar_trigger": false,
      "taf_trigger": false,
      "metar": "METAR OEJN 142200Z 36006KT CAVOK 25/16 Q1013 NOSIG",
      "taf": "TAF OEJN 141700Z 1418/1524 03005KT CAVOK"
    },
    {
      "icao": "OEMA",
      "alert": "OK",
      "vis_m": 9999,
      "fzfg": false,
      "metar_trigger": false,
      "taf_trigger": false,
      "metar": "METAR OEMA 142200Z 34004KT CAVOK 21/M07 Q1019 NOSIG",
      "taf": "TAF OEMA 141700Z 1418/1524 31008KT CAVOK"
    },
    {
      "icao": "OJAI",
      "alert": "OK",
      "vis_m": 3000,
      "fzfg": false,
      "metar_trigger": false,
      "taf_trigger": false,
      "metar": "METAR OJAI 142200Z 12005KT 3000 BLDU NSC 07/03 Q1021 NOSIG",
      "taf": "TAF OJAI 141700Z 1418/1524 25014KT 1500 DU NSC"
    },
    {
      "icao": "OMAA",
      "alert": "OK",
      "vis_m": 9999,
      "fzfg": false,
      "metar_trigger": false,
      "taf_trigger": false,
      "metar": "METAR OMAA 142200Z 07002KT CAVOK 21/13 Q1014 NOSIG",
      "taf": "TAF OMAA 141700Z 1418/1600 03006KT 8000 NSC"
    },
    {
      "icao": "OMDB",
      "alert": "OK",
      "vis_m": 9999,
      "fzfg": false,
      "metar_trigger": false,
      "taf_trigger": false,
      "metar": "METAR OMDB 142200Z 14004KT CAVOK 23/14 Q1014 NOSIG",
      "taf": "TAF OMDB 141700Z 1418/1600 14005KT CAVOK"
    },
    {
      "icao": "UAAA",
      "alert": "OK",
      "vis_m": 600,
      "fzfg": true,
      "metar_trigger": false,
      "taf_trigger": false,
      "metar": "METAR UAAA 142200Z 27002MPS 0600 R23L/1700N FZFG SCT050 BKN100 M02/M02 Q1022 NOSIG",
      "taf": "TAF UAAA 141702Z 1418/1518 34003MPS 1200 BR FU BKN011 OVC020 TX03/1509Z TNM04/1502Z"
    },
    {
      "icao": "UBBB",
      "alert": "OK",
      "vis_m": 9999,
      "fzfg": false,
      "metar_trigger": false,
      "taf_trigger": false,
      "metar": "METAR UBBB 142200Z 31014KT 9999 SCT012 08/05 Q1008 NOSIG",
      "taf": "TAF UBBB 141700Z 1418/1518 31020G30KT 8000 BKN008 BKN025 TX12/1510Z TN07/1501Z"
    },
    {
      "icao": "UDSG",
      "alert": "OK",
      "vis_m": 4700,
      "fzfg": false,
      "metar_trigger": false,
      "taf_trigger": false,
      "metar": "METAR UDSG 142200Z 10002KT 4700 BR OVC010 01/01 Q1015 NOSIG",
      "taf": "TAF UDSG 141700Z 1418/1518 VRB06KT 1200 BR BKN010"
    },
    {
      "icao": "UDYZ",
      "alert": "OK",
      "vis_m": 5000,
      "fzfg": false,
      "metar_trigger": false,
      "taf_trigger": false,
      "metar": "METAR UDYZ 142200Z VRB01KT 5000 BR FEW046 01/01 Q1014 NOSIG",
      "taf": "TAF UDYZ 141700Z 1418/1518 VRB04KT 3500 BR FEW040"
    },
    {
      "icao": "UGKO",
      "alert": "OK",
      "vis_m": 9999,
      "fzfg": false,
      "metar_trigger": false,
      "taf_trigger": false,
      "metar": "METAR UGKO 142200Z 25007KT 9999 OVC020 11/10 Q1015 NOSIG",
      "taf": "TAF UGKO 141700Z 1418/1518 25007KT 9999 BKN050 TX18/1511Z TN10/1504Z"
    }
  ]
}