{
  "ts_utc": "2026-04-28T20:15:52Z",
  "threshold_m": 150,
  "source": "stations_override.txt (ICAO list) + aviationweather.gov (METAR/TAF raw)",
  "station_count": 159,
  "stations": [
    {
      "icao": "BIKF",
      "alert": "OK",
      "vis_m": 9999,
      "fzfg": false,
      "metar_trigger": false,
      "taf_trigger": false,
      "metar": "METAR BIKF 282000Z 20020G31KT 9999 -DZRA BKN025 BKN050 06/02 Q1008",
      "taf": "TAF BIKF 281931Z 2821/2921 20023G33KT 9999 -SHRA BKN025 TX07/2914Z TN05/2906Z"
    },
    {
      "icao": "BKPR",
      "alert": "OK",
      "vis_m": 9999,
      "fzfg": false,
      "metar_trigger": false,
      "taf_trigger": false,
      "metar": "METAR BKPR 282000Z 35009KT 9999 BKN085 16/06 Q1017 NOSIG",
      "taf": "TAF BKPR 281730Z 2818/2918 36008KT 9999 SCT060"
    },
    {
      "icao": "EBCI",
      "alert": "OK",
      "vis_m": 9999,
      "fzfg": false,
      "metar_trigger": false,
      "taf_trigger": false,
      "metar": "METAR EBCI 281950Z 05014KT CAVOK 15/02 Q1019 NOSIG",
      "taf": "TAF EBCI 281700Z 2818/2924 05015G25KT CAVOK"
    },
    {
      "icao": "EDDB",
      "alert": "OK",
      "vis_m": 9999,
      "fzfg": false,
      "metar_trigger": false,
      "taf_trigger": false,
      "metar": "METAR EDDB 281950Z AUTO 03010KT CAVOK 10/M02 Q1026 NOSIG",
      "taf": "TAF EDDB 281700Z 2818/2918 05010KT CAVOK"
    },
    {
      "icao": "EDDH",
      "alert": "OK",
      "vis_m": 9999,
      "fzfg": false,
      "metar_trigger": false,
      "taf_trigger": false,
      "metar": "METAR EDDH 281950Z AUTO 02005KT 340V050 CAVOK 09/M02 Q1028 NOSIG",
      "taf": "TAF EDDH 281700Z 2818/2924 04010KT CAVOK"
    },
    {
      "icao": "EDDK",
      "alert": "OK",
      "vis_m": 9999,
      "fzfg": false,
      "metar_trigger": false,
      "taf_trigger": false,
      "metar": "METAR EDDK 281950Z AUTO 08005KT CAVOK 15/02 Q1021 NOSIG",
      "taf": "TAF EDDK 281700Z 2818/2924 06010KT CAVOK"
    },
    {
      "icao": "EDDN",
      "alert": "OK",
      "vis_m": 9999,
      "fzfg": false,
      "metar_trigger": false,
      "taf_trigger": false,
      "metar": "METAR EDDN 281950Z AUTO 03009KT CAVOK 13/02 Q1020 NOSIG",
      "taf": "TAF EDDN 281700Z 2818/2918 05005KT CAVOK"
    },
    {
      "icao": "EDDS",
      "alert": "OK",
      "vis_m": 9999,
      "fzfg": false,
      "metar_trigger": false,
      "taf_trigger": false,
      "metar": "METAR EDDS 281950Z AUTO 06008KT CAVOK 16/02 Q1017 NOSIG",
      "taf": "TAF EDDS 281700Z 2818/2918 05007KT CAVOK"
    },
    {
      "icao": "EDFH",
      "alert": "OK",
      "vis_m": 9999,
      "fzfg": false,
      "metar_trigger": false,
      "taf_trigger": false,
      "metar": "METAR EDFH 281950Z 07006KT 020V110 CAVOK 12/01 Q1020",
      "taf": "TAF EDFH 281700Z 2818/2918 08011KT CAVOK"
    },
    {
      "icao": "EDJA",
      "alert": "OK",
      "vis_m": 9999,
      "fzfg": false,
      "metar_trigger": false,
      "taf_trigger": false,
      "metar": "METAR EDJA 281950Z 05004KT CAVOK 14/01 Q1017",
      "taf": "TAF EDJA 281700Z 2818/2903 05010KT CAVOK"
    },
    {
      "icao": "EDLW",
      "alert": "OK",
      "vis_m": 9999,
      "fzfg": false,
      "metar_trigger": false,
      "taf_trigger": false,
      "metar": "METAR EDLW 281950Z 07007KT CAVOK 11/M01 Q1023",
      "taf": "TAF EDLW 281700Z 2818/2918 06012KT CAVOK"
    },
    {
      "icao": "EDNY",
      "alert": "OK",
      "vis_m": 9999,
      "fzfg": false,
      "metar_trigger": false,
      "taf_trigger": false,
      "metar": "METAR EDNY 281950Z 04010KT CAVOK 17/02 Q1016",
      "taf": "TAF EDNY 281700Z 2818/2903 04007KT CAVOK"
    },
    {
      "icao": "EDSB",
      "alert": "OK",
      "vis_m": 9999,
      "fzfg": false,
      "metar_trigger": false,
      "taf_trigger": false,
      "metar": "METAR EDSB 281950Z 03011KT CAVOK 17/03 Q1016",
      "taf": "TAF EDSB 281700Z 2818/2918 03012KT CAVOK"
    },
    {
      "icao": "EETN",
      "alert": "OK",
      "vis_m": 9999,
      "fzfg": false,
      "metar_trigger": false,
      "taf_trigger": false,
      "metar": "METAR EETN 281950Z 36008KT CAVOK 05/M05 Q1021 NOSIG",
      "taf": "TAF EETN 281730Z 2818/2918 36012KT 9999 SCT045"
    },
    {
      "icao": "EFTU",
      "alert": "OK",
      "vis_m": 9999,
      "fzfg": false,
      "metar_trigger": false,
      "taf_trigger": false,
      "metar": "METAR EFTU 281950Z AUTO VRB02KT CAVOK 01/M09 Q1024",
      "taf": "TAF EFTU 281730Z 2818/2918 02010KT CAVOK"
    },
    {
      "icao": "EGBB",
      "alert": "OK",
      "vis_m": 9999,
      "fzfg": false,
      "metar_trigger": false,
      "taf_trigger": false,
      "metar": "METAR EGBB 281950Z 04008KT CAVOK 10/02 Q1027",
      "taf": "TAF EGBB 281702Z 2818/2918 05013KT 9999 FEW030"
    },
    {
      "icao": "EGGP",
      "alert": "OK",
      "vis_m": 9999,
      "fzfg": false,
      "metar_trigger": false,
      "taf_trigger": false,
      "metar": "METAR EGGP 281950Z 08009KT CAVOK 10/03 Q1028",
      "taf": "TAF EGGP 281702Z 2818/2918 04009KT CAVOK"
    },
    {
      "icao": "EGGW",
      "alert": "OK",
      "vis_m": 9999,
      "fzfg": false,
      "metar_trigger": false,
      "taf_trigger": false,
      "metar": "METAR EGGW 281950Z AUTO 03010KT 9999 NCD 09/M01 Q1025",
      "taf": "TAF EGGW 281711Z 2818/2918 03012KT CAVOK"
    },
    {
      "icao": "EGKK",
      "alert": "OK",
      "vis_m": 9999,
      "fzfg": false,
      "metar_trigger": false,
      "taf_trigger": false,
      "metar": "METAR EGKK 281950Z 04011KT CAVOK 12/00 Q1023",
      "taf": "TAF EGKK 281653Z 2818/2924 06013KT CAVOK"
    },
    {
      "icao": "EGNM",
      "alert": "OK",
      "vis_m": 9999,
      "fzfg": false,
      "metar_trigger": false,
      "taf_trigger": false,
      "metar": "METAR EGNM 281950Z 04005KT 9999 FEW025 07/03 Q1030",
      "taf": "TAF EGNM 281703Z 2818/2918 04009KT 9999 FEW030"
    },
    {
      "icao": "EGPD",
      "alert": "OK",
      "vis_m": 9999,
      "fzfg": false,
      "metar_trigger": false,
      "taf_trigger": false,
      "metar": "METAR EGPD 281950Z COR AUTO 16009KT 9999 NCD 06/03 Q1032 NOSIG",
      "taf": "TAF EGPD 281654Z 2818/2918 14005KT 9999 FEW025"
    },
    {
      "icao": "EGPF",
      "alert": "OK",
      "vis_m": 9999,
      "fzfg": false,
      "metar_trigger": false,
      "taf_trigger": false,
      "metar": "METAR EGPF 281950Z AUTO 05009KT 9999 NCD 10/06 Q1031",
      "taf": "TAF EGPF 281656Z 2818/2918 09006KT CAVOK"
    },
    {
      "icao": "EHBK",
      "alert": "OK",
      "vis_m": 9999,
      "fzfg": false,
      "metar_trigger": false,
      "taf_trigger": false,
      "metar": "METAR EHBK 281955Z AUTO 05013KT 020V090 9999 NCD 14/02 Q1020 NOSIG",
      "taf": "TAF EHBK 281659Z 2818/2924 06014KT CAVOK"
    },
    {
      "icao": "EHEH",
      "alert": "OK",
      "vis_m": 9999,
      "fzfg": false,
      "metar_trigger": false,
      "taf_trigger": false,
      "metar": "METAR EHEH 281955Z AUTO 05012KT 020V080 9999 NCD 14/M00 Q1022 BLU NOSIG RMK TREND REMOTE BY EHWX",
      "taf": "TAF EHEH 281704Z 2818/2924 06012KT CAVOK"
    },
    {
      "icao": "EKBI",
      "alert": "OK",
      "vis_m": 9999,
      "fzfg": false,
      "metar_trigger": false,
      "taf_trigger": false,
      "metar": "METAR EKBI 281950Z AUTO 07002KT 9999 NCD 06/M01 Q1029",
      "taf": "TAF EKBI 281727Z 2818/2918 02005KT CAVOK"
    },
    {
      "icao": "EKCH",
      "alert": "OK",
      "vis_m": 9999,
      "fzfg": false,
      "metar_trigger": false,
      "taf_trigger": false,
      "metar": "METAR EKCH 281950Z AUTO 34012KT 9999 NCD 09/00 Q1028 NOSIG",
      "taf": "TAF EKCH 281727Z 2818/2918 34015KT CAVOK"
    },
    {
      "icao": "ENAL",
      "alert": "OK",
      "vis_m": 9999,
      "fzfg": false,
      "metar_trigger": false,
      "taf_trigger": false,
      "metar": "METAR ENAL 281950Z 25010KT 9999 FEW006 BKN010 08/07 Q1031",
      "taf": "TAF ENAL 281700Z 2818/2903 24008KT 9999 FEW010 BKN015"
    },
    {
      "icao": "ENBR",
      "alert": "OK",
      "vis_m": 9999,
      "fzfg": false,
      "metar_trigger": false,
      "taf_trigger": false,
      "metar": "METAR ENBR 281950Z 32006KT 9999 FEW010 SCT017 08/06 Q1031 RMK WIND 1200FT 34009KT",
      "taf": ""
    },
    {
      "icao": "ENGM",
      "alert": "OK",
      "vis_m": 9999,
      "fzfg": false,
      "metar_trigger": false,
      "taf_trigger": false,
      "metar": "METAR ENGM 281950Z 32003KT 300V360 CAVOK 10/M04 Q1027 NOSIG",
      "taf": "TAF ENGM 281700Z 2818/2918 01005KT CAVOK"
    },
    {
      "icao": "ENHD",
      "alert": "OK",
      "vis_m": 9999,
      "fzfg": false,
      "metar_trigger": false,
      "taf_trigger": false,
      "metar": "METAR ENHD 281950Z 34013KT 9999 SCT007 BKN012 08/07 Q1031",
      "taf": "TAF ENHD 281400Z 2815/2822 33012KT CAVOK"
    },
    {
      "icao": "ENTC",
      "alert": "OK",
      "vis_m": 9999,
      "fzfg": false,
      "metar_trigger": false,
      "taf_trigger": false,
      "metar": "METAR ENTC 281950Z 22004KT 9999 BKN047 03/M05 Q1027 NOSIG RMK WIND 2600FT 15004KT",
      "taf": "TAF ENTC 281700Z 2818/2918 VRB03KT 9999 FEW015 BKN035"
    },
    {
      "icao": "ENTO",
      "alert": "OK",
      "vis_m": 9999,
      "fzfg": false,
      "metar_trigger": false,
      "taf_trigger": false,
      "metar": "METAR ENTO 281950Z 24005KT CAVOK 07/M01 Q1028 NOSIG",
      "taf": "TAF ENTO 281700Z 2818/2918 23010KT CAVOK"
    },
    {
      "icao": "ENVA",
      "alert": "OK",
      "vis_m": 9999,
      "fzfg": false,
      "metar_trigger": false,
      "taf_trigger": false,
      "metar": "METAR ENVA 281950Z 23005KT 9999 -DZRA FEW015 BKN022 06/05 Q1029 RMK WIND 670FT 23008KT",
      "taf": "TAF ENVA 281700Z 2818/2918 24010KT CAVOK"
    },
    {
      "icao": "ENZV",
      "alert": "OK",
      "vis_m": 9999,
      "fzfg": false,
      "metar_trigger": false,
      "taf_trigger": false,
      "metar": "METAR ENZV 281950Z 33008KT 9999 FEW013 08/05 Q1031",
      "taf": "TAF ENZV 281700Z 2818/2918 31010KT CAVOK"
    },
    {
      "icao": "EPGD",
      "alert": "OK",
      "vis_m": 9999,
      "fzfg": false,
      "metar_trigger": false,
      "taf_trigger": false,
      "metar": "METAR EPGD 282000Z 36005KT CAVOK 03/M03 Q1027",
      "taf": "TAF EPGD 281730Z 2818/2918 01010KT CAVOK"
    },
    {
      "icao": "EPKK",
      "alert": "OK",
      "vis_m": 9999,
      "fzfg": false,
      "metar_trigger": false,
      "taf_trigger": false,
      "metar": "METAR EPKK 282000Z 02007KT CAVOK 06/M07 Q1023",
      "taf": "TAF EPKK 281730Z 2818/2918 06010KT CAVOK"
    },
    {
      "icao": "EPKT",
      "alert": "OK",
      "vis_m": 9999,
      "fzfg": false,
      "metar_trigger": false,
      "taf_trigger": false,
      "metar": "METAR EPKT 282000Z 04004KT CAVOK 04/M07 Q1024",
      "taf": "TAF EPKT 281730Z 2818/2918 04008KT CAVOK"
    },
    {
      "icao": "EPLB",
      "alert": "OK",
      "vis_m": 9999,
      "fzfg": false,
      "metar_trigger": false,
      "taf_trigger": false,
      "metar": "METAR EPLB 282000Z 29003KT CAVOK 04/M02 Q1023",
      "taf": "TAF EPLB 281730Z 2818/2918 36010KT CAVOK"
    },
    {
      "icao": "EPMO",
      "alert": "OK",
      "vis_m": 9999,
      "fzfg": false,
      "metar_trigger": false,
      "taf_trigger": false,
      "metar": "METAR EPMO 282000Z 35005KT CAVOK 05/M04 Q1024",
      "taf": "TAF EPMO 281730Z 2818/2918 36010KT CAVOK"
    },
    {
      "icao": "EPPO",
      "alert": "OK",
      "vis_m": 9999,
      "fzfg": false,
      "metar_trigger": false,
      "taf_trigger": false,
      "metar": "METAR EPPO 282000Z 07006KT CAVOK 07/M04 Q1025",
      "taf": "TAF EPPO 281730Z 2818/2918 03006KT CAVOK"
    },
    {
      "icao": "EPRA",
      "alert": "OK",
      "vis_m": 9999,
      "fzfg": false,
      "metar_trigger": false,
      "taf_trigger": false,
      "metar": "METAR EPRA 282000Z 36002KT CAVOK 06/M06 Q1024",
      "taf": "TAF EPRA 281730Z 2818/2903 34006KT CAVOK"
    },
    {
      "icao": "EPRZ",
      "alert": "OK",
      "vis_m": 9999,
      "fzfg": false,
      "metar_trigger": false,
      "taf_trigger": false,
      "metar": "METAR EPRZ 282000Z 34004KT CAVOK 05/M06 Q1023",
      "taf": "TAF EPRZ 281730Z 2818/2918 36010KT CAVOK"
    },
    {
      "icao": "EPSC",
      "alert": "OK",
      "vis_m": 9999,
      "fzfg": false,
      "metar_trigger": false,
      "taf_trigger": false,
      "metar": "METAR EPSC 282000Z VRB02KT CAVOK 06/M03 Q1027",
      "taf": "TAF EPSC 281730Z 2818/2918 01010KT CAVOK"
    },
    {
      "icao": "EPSY",
      "alert": "OK",
      "vis_m": 9999,
      "fzfg": false,
      "metar_trigger": false,
      "taf_trigger": false,
      "metar": "METAR EPSY 282000Z 34006KT CAVOK 03/M06 Q1025",
      "taf": "TAF EPSY 281730Z 2818/2903 36005KT CAVOK"
    },
    {
      "icao": "EPWA",
      "alert": "OK",
      "vis_m": 9999,
      "fzfg": false,
      "metar_trigger": false,
      "taf_trigger": false,
      "metar": "METAR EPWA 282000Z 01006KT 330V060 CAVOK 08/M05 Q1024 NOSIG",
      "taf": "TAF EPWA 281730Z 2818/2918 35010KT CAVOK"
    },
    {
      "icao": "EPWR",
      "alert": "OK",
      "vis_m": 9999,
      "fzfg": false,
      "metar_trigger": false,
      "taf_trigger": false,
      "metar": "METAR EPWR 282000Z 01005KT CAVOK 08/M06 Q1025",
      "taf": "TAF EPWR 281730Z 2818/2918 04007KT CAVOK"
    },
    {
      "icao": "ESGG",
      "alert": "OK",
      "vis_m": 9999,
      "fzfg": false,
      "metar_trigger": false,
      "taf_trigger": false,
      "metar": "METAR ESGG 281950Z 02003KT CAVOK 07/M03 Q1028",
      "taf": "TAF ESGG 281730Z 2818/2918 03005KT CAVOK"
    },
    {
      "icao": "ESKN",
      "alert": "OK",
      "vis_m": 9999,
      "fzfg": false,
      "metar_trigger": false,
      "taf_trigger": false,
      "metar": "METAR ESKN 281950Z 13003KT CAVOK 03/M04 Q1027",
      "taf": "TAF ESKN 281730Z 2818/2918 34006KT CAVOK"
    },
    {
      "icao": "ESMS",
      "alert": "OK",
      "vis_m": 9999,
      "fzfg": false,
      "metar_trigger": false,
      "taf_trigger": false,
      "metar": "METAR ESMS 281950Z 10003KT CAVOK 03/M02 Q1027",
      "taf": "TAF ESMS 281727Z 2818/2918 14006KT CAVOK"
    },
    {
      "icao": "ESSA",
      "alert": "OK",
      "vis_m": 9999,
      "fzfg": false,
      "metar_trigger": false,
      "taf_trigger": false,
      "metar": "METAR ESSA 281950Z 07003KT CAVOK 00/M07 Q1027 NOSIG",
      "taf": "TAF ESSA 281730Z 2818/2918 04010KT CAVOK"
    },
    {
      "icao": "EYKA",
      "alert": "OK",
      "vis_m": 9999,
      "fzfg": false,
      "metar_trigger": false,
      "taf_trigger": false,
      "metar": "METAR EYKA 281950Z VRB02KT CAVOK 03/M06 Q1022",
      "taf": "TAF EYKA 281705Z 2818/2918 32007KT 9000 SCT040"
    },
    {
      "icao": "EYPA",
      "alert": "OK",
      "vis_m": 9999,
      "fzfg": false,
      "metar_trigger": false,
      "taf_trigger": false,
      "metar": "METAR EYPA 281950Z 01008KT CAVOK 03/M04 Q1025",
      "taf": "TAF EYPA 281700Z 2818/2918 35006KT 9000 FEW030"
    },
    {
      "icao": "EYVI",
      "alert": "OK",
      "vis_m": 9999,
      "fzfg": false,
      "metar_trigger": false,
      "taf_trigger": false,
      "metar": "METAR EYVI 281950Z 33006KT CAVOK 03/M08 Q1020 NOSIG",
      "taf": "TAF EYVI 281713Z 2818/2918 33008KT 9000 NSC"
    },
    {
      "icao": "GCFV",
      "alert": "OK",
      "vis_m": 9999,
      "fzfg": false,
      "metar_trigger": false,
      "taf_trigger": false,
      "metar": "METAR GCFV 282000Z 33010KT 310V010 9999 FEW018 BKN030 19/14 Q1014",
      "taf": "TAF GCFV 281400Z 2815/2915 32010KT 9999 BKN025 TX21/2914Z TN17/2906Z"
    },
    {
      "icao": "GCLP",
      "alert": "OK",
      "vis_m": 9999,
      "fzfg": false,
      "metar_trigger": false,
      "taf_trigger": false,
      "metar": "METAR GCLP 282000Z 36015KT 330V030 9999 BKN030 19/13 Q1014 NOSIG",
      "taf": "TAF GCLP 281400Z 2815/2915 03017KT 9999 SCT030 TX23/2914Z TN16/2906Z"
    },
    {
      "icao": "GCTS",
      "alert": "OK",
      "vis_m": 9999,
      "fzfg": false,
      "metar_trigger": false,
      "taf_trigger": false,
      "metar": "METAR GCTS 282000Z 13004KT 100V170 9999 BKN030 19/14 Q1015 NOSIG",
      "taf": "TAF GCTS 281400Z 2815/2915 09007KT 9999 BKN030 TX23/2914Z TN15/2906Z"
    },
    {
      "icao": "GMAD",
      "alert": "OK",
      "vis_m": 8000,
      "fzfg": false,
      "metar_trigger": false,
      "taf_trigger": false,
      "metar": "METAR GMAD 282000Z 23012KT 8000 BKN026 19/14 Q1011 NOSIG",
      "taf": "TAF GMAD 281700Z 2818/2924 27012KT 8000 BKN026"
    },
    {
      "icao": "GMMN",
      "alert": "OK",
      "vis_m": 9999,
      "fzfg": false,
      "metar_trigger": false,
      "taf_trigger": false,
      "metar": "METAR GMMN 282000Z 32007KT 9999 BKN016 17/14 Q1011 NOSIG",
      "taf": "TAF GMMN 281700Z 2818/2924 32008KT 9999 BKN016"
    },
    {
      "icao": "GMMX",
      "alert": "OK",
      "vis_m": 9999,
      "fzfg": false,
      "metar_trigger": false,
      "taf_trigger": false,
      "metar": "METAR GMMX 282000Z 24004KT 220V280 9999 FEW026 BKN040 20/14 Q1011 NOSIG",
      "taf": "TAF GMMX 281700Z 2818/2924 28006KT 8000 SCT026 SCT033"
    },
    {
      "icao": "HEGN",
      "alert": "OK",
      "vis_m": 9999,
      "fzfg": false,
      "metar_trigger": false,
      "taf_trigger": false,
      "metar": "METAR HEGN 281900Z 00000KT CAVOK 23/13 Q1012 NOSIG",
      "taf": "TAF HEGN 281700Z 2818/2924 34006G18KT CAVOK"
    },
    {
      "icao": "HEMA",
      "alert": "OK",
      "vis_m": 9999,
      "fzfg": false,
      "metar_trigger": false,
      "taf_trigger": false,
      "metar": "METAR HEMA 281900Z 34006KT CAVOK 23/15 Q1011 NOSIG",
      "taf": "TAF HEMA 281700Z 2818/2924 34006G18KT CAVOK"
    },
    {
      "icao": "HESH",
      "alert": "OK",
      "vis_m": 9999,
      "fzfg": false,
      "metar_trigger": false,
      "taf_trigger": false,
      "metar": "METAR HESH 281900Z 36006KT CAVOK 25/11 Q1010 NOSIG",
      "taf": "TAF HESH 281700Z 2818/2924 36013KT CAVOK"
    },
    {
      "icao": "HESX",
      "alert": "OK",
      "vis_m": 9999,
      "fzfg": false,
      "metar_trigger": false,
      "taf_trigger": false,
      "metar": "METAR HESX 281900Z 01008KT CAVOK 21/09 Q1015 NOSIG",
      "taf": ""
    },
    {
      "icao": "LATI",
      "alert": "OK",
      "vis_m": 9999,
      "fzfg": false,
      "metar_trigger": false,
      "taf_trigger": false,
      "metar": "METAR LATI 281950Z VRB02KT CAVOK 15/10 Q1017 NOSIG",
      "taf": "TAF LATI 281700Z 2818/2918 VRB03KT CAVOK TX27/2912Z TN10/2904Z"
    },
    {
      "icao": "LBPD",
      "alert": "OK",
      "vis_m": 9999,
      "fzfg": false,
      "metar_trigger": false,
      "taf_trigger": false,
      "metar": "METAR LBPD 282000Z AUTO 09008KT 9999 NCD 13/07 Q1017",
      "taf": "TAF LBPD 281700Z 2818/2918 09010KT 9999 SCT060"
    },
    {
      "icao": "LBSF",
      "alert": "OK",
      "vis_m": 9999,
      "fzfg": false,
      "metar_trigger": false,
      "taf_trigger": false,
      "metar": "METAR LBSF 282000Z AUTO 17003KT 140V230 9999 NSC 11/05 Q1017 NOSIG",
      "taf": "TAF LBSF 281700Z 2818/2918 VRB04KT 9999 SCT060"
    },
    {
      "icao": "LBWN",
      "alert": "OK",
      "vis_m": 9999,
      "fzfg": false,
      "metar_trigger": false,
      "taf_trigger": false,
      "metar": "METAR LBWN 282000Z AUTO 06003KT 9999 NSC 06/03 Q1019 NOSIG",
      "taf": "TAF LBWN 281700Z 2818/2918 12010KT CAVOK"
    },
    {
      "icao": "LCLK",
      "alert": "OK",
      "vis_m": 9999,
      "fzfg": false,
      "metar_trigger": false,
      "taf_trigger": false,
      "metar": "METAR LCLK 282000Z 35004KT 270V040 CAVOK 18/17 Q1012 NOSIG",
      "taf": "TAF LCLK 281730Z 2818/2918 22010KT 9999 FEW020"
    },
    {
      "icao": "LCPH",
      "alert": "OK",
      "vis_m": 9999,
      "fzfg": false,
      "metar_trigger": false,
      "taf_trigger": false,
      "metar": "METAR LCPH 282000Z AUTO 02005KT 9999 OVC013 17/15 Q1013 NOSIG",
      "taf": "TAF LCPH 281730Z 2818/2918 35007KT 9999 FEW020"
    },
    {
      "icao": "LEAL",
      "alert": "OK",
      "vis_m": 9999,
      "fzfg": false,
      "metar_trigger": false,
      "taf_trigger": false,
      "metar": "METAR LEAL 282000Z 08005KT 060V120 9999 BKN025 20/14 Q1011 NOSIG",
      "taf": "TAF LEAL 281700Z 2818/2918 08009KT CAVOK TX25/2912Z TN13/2906Z"
    },
    {
      "icao": "LEBB",
      "alert": "OK",
      "vis_m": 9999,
      "fzfg": false,
      "metar_trigger": false,
      "taf_trigger": false,
      "metar": "METAR LEBB 282000Z 31003KT 280V360 9999 SCT013 BKN034 BKN056 16/15 Q1011 NOSIG",
      "taf": "TAF LEBB 281700Z 2818/2918 30007KT 9999 FEW015 SCT025 TX22/2912Z TN13/2906Z"
    },
    {
      "icao": "LEBL",
      "alert": "OK",
      "vis_m": 9999,
      "fzfg": false,
      "metar_trigger": false,
      "taf_trigger": false,
      "metar": "METAR LEBL 282000Z 07007KT 9999 FEW025 19/16 Q1012 NOSIG",
      "taf": "TAF LEBL 281700Z 2818/2918 07009KT 9999 FEW020 TX21/2912Z TN16/2905Z"
    },
    {
      "icao": "LECH",
      "alert": "OK",
      "vis_m": 9000,
      "fzfg": false,
      "metar_trigger": false,
      "taf_trigger": false,
      "metar": "METAR LECH 282000Z AUTO 11007KT 9000 NSC 16/12 Q1012",
      "taf": "TAF LECH 281700Z 2818/2918 VRB04KT CAVOK TX25/2913Z TN11/2906Z"
    },
    {
      "icao": "LEMD",
      "alert": "OK",
      "vis_m": 9999,
      "fzfg": false,
      "metar_trigger": false,
      "taf_trigger": false,
      "metar": "METAR LEMD 282000Z 19008KT 160V230 9999 SCT075 19/09 Q1009 NOSIG",
      "taf": "TAF LEMD 281700Z 2818/2924 16006KT CAVOK TX20/2915Z TN11/2906Z"
    },
    {
      "icao": "LEMG",
      "alert": "OK",
      "vis_m": 9999,
      "fzfg": false,
      "metar_trigger": false,
      "taf_trigger": false,
      "metar": "METAR LEMG 282000Z 20007KT 170V230 9999 FEW025 18/12 Q1010 NOSIG",
      "taf": "TAF LEMG 281700Z 2818/2918 13010KT 9999 FEW025 TX21/2914Z TN16/2906Z"
    },
    {
      "icao": "LEVC",
      "alert": "OK",
      "vis_m": 9999,
      "fzfg": false,
      "metar_trigger": false,
      "taf_trigger": false,
      "metar": "METAR LEVC 282000Z 15004KT 120V180 CAVOK 18/14 Q1012 NOSIG",
      "taf": "TAF LEVC 281700Z 2818/2918 VRB04KT CAVOK TX24/2912Z TN12/2906Z"
    },
    {
      "icao": "LEXJ",
      "alert": "OK",
      "vis_m": 8000,
      "fzfg": false,
      "metar_trigger": false,
      "taf_trigger": false,
      "metar": "SPECI LEXJ 282013Z VRB01KT 8000 OVC012 16/14 Q1012",
      "taf": ""
    },
    {
      "icao": "LEZG",
      "alert": "OK",
      "vis_m": 9999,
      "fzfg": false,
      "metar_trigger": false,
      "taf_trigger": false,
      "metar": "METAR LEZG 282000Z 10012KT 070V130 CAVOK 22/07 Q1008 NOSIG",
      "taf": "TAF LEZG 281700Z 2818/2918 11010KT CAVOK TX26/2914Z TN14/2906Z"
    },
    {
      "icao": "LEZL",
      "alert": "OK",
      "vis_m": 9999,
      "fzfg": false,
      "metar_trigger": false,
      "taf_trigger": false,
      "metar": "METAR LEZL 282000Z 26007KT 9999 FEW020 SCT040 20/16 Q1009 NOSIG",
      "taf": "TAF LEZL 281400Z 2815/2915 21012KT 9999 SCT040 TX26/2815Z TN15/2906Z"
    },
    {
      "icao": "LFBD",
      "alert": "OK",
      "vis_m": 9999,
      "fzfg": false,
      "metar_trigger": false,
      "taf_trigger": false,
      "metar": "METAR LFBD 282000Z AUTO 16003KT CAVOK 18/12 Q1012 TEMPO 4000 -SHRA BKN060TCU",
      "taf": "TAF LFBD 281700Z 2818/2924 21010KT CAVOK TX25/2916Z TN15/2905Z"
    },
    {
      "icao": "LFLL",
      "alert": "OK",
      "vis_m": 9999,
      "fzfg": false,
      "metar_trigger": false,
      "taf_trigger": false,
      "metar": "METAR LFLL 282000Z 12007KT 9999 BKN031 BKN073 14/13 Q1015 NOSIG",
      "taf": "TAF LFLL 281700Z 2818/2924 15007KT CAVOK"
    },
    {
      "icao": "LFLS",
      "alert": "OK",
      "vis_m": 9999,
      "fzfg": false,
      "metar_trigger": false,
      "taf_trigger": false,
      "metar": "METAR LFLS 282000Z AUTO 09007KT 9999 FEW052 OVC098 13/12 Q1015",
      "taf": "TAF LFLS 281400Z 2815/2915 24005KT 9999 FEW035 BKN050"
    },
    {
      "icao": "LFMN",
      "alert": "OK",
      "vis_m": 9999,
      "fzfg": false,
      "metar_trigger": false,
      "taf_trigger": false,
      "metar": "METAR LFMN 282000Z VRB02KT CAVOK 17/14 Q1015 NOSIG",
      "taf": "TAF LFMN 281400Z 2815/2921 15010KT 9999 FEW016"
    },
    {
      "icao": "LFOB",
      "alert": "OK",
      "vis_m": 9999,
      "fzfg": false,
      "metar_trigger": false,
      "taf_trigger": false,
      "metar": "METAR LFOB 282000Z AUTO 02009KT CAVOK 14/06 Q1017 NOSIG",
      "taf": "TAF LFOB 281700Z 2818/2918 04014G24KT CAVOK"
    },
    {
      "icao": "LFPO",
      "alert": "OK",
      "vis_m": 9999,
      "fzfg": false,
      "metar_trigger": false,
      "taf_trigger": false,
      "metar": "METAR LFPO 282000Z 02008KT CAVOK 18/06 Q1015 NOSIG",
      "taf": "TAF LFPO 281700Z 2818/2924 05010KT CAVOK"
    },
    {
      "icao": "LFSB",
      "alert": "OK",
      "vis_m": 9999,
      "fzfg": false,
      "metar_trigger": false,
      "taf_trigger": false,
      "metar": "METAR LFSB 282000Z AUTO VRB03KT CAVOK 17/10 Q1016 NOSIG",
      "taf": "TAF LFSB 281700Z 2818/2918 VRB03KT CAVOK"
    },
    {
      "icao": "LGAV",
      "alert": "OK",
      "vis_m": 9999,
      "fzfg": false,
      "metar_trigger": false,
      "taf_trigger": false,
      "metar": "METAR LGAV 281950Z 36003KT CAVOK 12/07 Q1017 NOSIG",
      "taf": "TAF LGAV 281700Z 2818/2918 VRB05KT 9999 FEW030"
    },
    {
      "icao": "LGTS",
      "alert": "OK",
      "vis_m": 9999,
      "fzfg": false,
      "metar_trigger": false,
      "taf_trigger": false,
      "metar": "METAR LGTS 281950Z VRB02KT 9999 FEW020 14/12 Q1017 NOSIG",
      "taf": "TAF LGTS 281700Z 2818/2918 VRB03KT 9999 FEW030"
    },
    {
      "icao": "LHBP",
      "alert": "OK",
      "vis_m": 9999,
      "fzfg": false,
      "metar_trigger": false,
      "taf_trigger": false,
      "metar": "METAR LHBP 282000Z 09003KT CAVOK 09/00 Q1018 BECMG 09015G25KT SQ",
      "taf": "TAF LHBP 281715Z 2818/2918 08005KT CAVOK"
    },
    {
      "icao": "LHDC",
      "alert": "OK",
      "vis_m": 9999,
      "fzfg": false,
      "metar_trigger": false,
      "taf_trigger": false,
      "metar": "METAR LHDC 281945Z AUTO 03010KT CAVOK 12/M04 Q1019",
      "taf": "TAF LHDC 281415Z 2815/2824 04007KT CAVOK"
    },
    {
      "icao": "LIBD",
      "alert": "OK",
      "vis_m": 9999,
      "fzfg": false,
      "metar_trigger": false,
      "taf_trigger": false,
      "metar": "METAR LIBD 281950Z 18002KT CAVOK 16/13 Q1015",
      "taf": "TAF LIBD 281700Z 2818/2918 VRB05KT 9999 FEW040"
    },
    {
      "icao": "LIBG",
      "alert": "OK",
      "vis_m": null,
      "fzfg": false,
      "metar_trigger": false,
      "taf_trigger": false,
      "metar": "",
      "taf": "TAF LIBG 281400Z 2815/2824 17010KT 9999 FEW030"
    },
    {
      "icao": "LIBP",
      "alert": "OK",
      "vis_m": 9999,
      "fzfg": false,
      "metar_trigger": false,
      "taf_trigger": false,
      "metar": "METAR LIBP 281950Z AUTO VRB01KT 9999 BKN100/// OVC120/// 18/13 Q1015",
      "taf": "TAF LIBP 281700Z 2818/2918 VRB05KT CAVOK"
    },
    {
      "icao": "LIBR",
      "alert": "OK",
      "vis_m": 9999,
      "fzfg": false,
      "metar_trigger": false,
      "taf_trigger": false,
      "metar": "METAR LIBR 281950Z 21009KT CAVOK 18/15 Q1016",
      "taf": "TAF LIBR 281700Z 2818/2918 19010KT CAVOK"
    },
    {
      "icao": "LICA",
      "alert": "OK",
      "vis_m": 9999,
      "fzfg": false,
      "metar_trigger": false,
      "taf_trigger": false,
      "metar": "METAR LICA 281950Z AUTO 07005KT 9999 NCD 14/12 Q1016",
      "taf": "TAF LICA 281700Z 2818/2918 VRB05KT CAVOK"
    },
    {
      "icao": "LICC",
      "alert": "OK",
      "vis_m": 9999,
      "fzfg": false,
      "metar_trigger": false,
      "taf_trigger": false,
      "metar": "METAR LICC 281950Z 04008KT CAVOK 18/13 Q1016",
      "taf": "TAF LICC 281700Z 2818/2918 07012KT CAVOK"
    },
    {
      "icao": "LICJ",
      "alert": "OK",
      "vis_m": 9999,
      "fzfg": false,
      "metar_trigger": false,
      "taf_trigger": false,
      "metar": "METAR LICJ 281950Z 20004KT CAVOK 18/16 Q1015",
      "taf": "TAF LICJ 281700Z 2818/2918 VRB05KT CAVOK"
    },
    {
      "icao": "LIMC",
      "alert": "OK",
      "vis_m": 9999,
      "fzfg": false,
      "metar_trigger": false,
      "taf_trigger": false,
      "metar": "METAR LIMC 281950Z 34005KT 9999 SCT070 18/13 Q1015 TEMPO RA",
      "taf": "TAF LIMC 281700Z 2818/2924 36008KT 9999 FEW040 BKN090"
    },
    {
      "icao": "LIME",
      "alert": "OK",
      "vis_m": 9999,
      "fzfg": false,
      "metar_trigger": false,
      "taf_trigger": false,
      "metar": "METAR LIME 281950Z 05003KT 9999 SCT065 BKN100 19/12 Q1015 NOSIG",
      "taf": "TAF LIME 281700Z 2818/2918 VRB05KT 9999 FEW050 SCT080"
    },
    {
      "icao": "LIMF",
      "alert": "OK",
      "vis_m": 9999,
      "fzfg": false,
      "metar_trigger": false,
      "taf_trigger": false,
      "metar": "METAR LIMF 281950Z 34006KT 9999 -RA OVC060 16/15 Q1016",
      "taf": "TAF LIMF 281700Z 2818/2918 VRB05KT 9999 BKN060"
    },
    {
      "icao": "LIMJ",
      "alert": "OK",
      "vis_m": 9999,
      "fzfg": false,
      "metar_trigger": false,
      "taf_trigger": false,
      "metar": "METAR LIMJ 281950Z AUTO VRB02KT 9999 NCD 18/10 Q1015",
      "taf": "TAF LIMJ 281700Z 2818/2918 VRB05KT CAVOK"
    },
    {
      "icao": "LIPE",
      "alert": "OK",
      "vis_m": 9999,
      "fzfg": false,
      "metar_trigger": false,
      "taf_trigger": false,
      "metar": "METAR LIPE 281950Z 08005KT CAVOK 18/14 Q1014",
      "taf": "TAF LIPE 281700Z 2818/2918 VRB05KT CAVOK"
    },
    {
      "icao": "LIPH",
      "alert": "OK",
      "vis_m": 9999,
      "fzfg": false,
      "metar_trigger": false,
      "taf_trigger": false,
      "metar": "METAR LIPH 281950Z 11002KT CAVOK 17/11 Q1015",
      "taf": "TAF LIPH 281700Z 2818/2918 VRB05KT 9999 FEW030"
    },
    {
      "icao": "LIPQ",
      "alert": "OK",
      "vis_m": 9999,
      "fzfg": false,
      "metar_trigger": false,
      "taf_trigger": false,
      "metar": "METAR LIPQ 281950Z AUTO VRB02KT 9999 BKN065/// BKN130/// 16/12 Q1016",
      "taf": "TAF LIPQ 281700Z 2818/2918 VRB05KT 9999 FEW030"
    },
    {
      "icao": "LIPR",
      "alert": "OK",
      "vis_m": 9999,
      "fzfg": false,
      "metar_trigger": false,
      "taf_trigger": false,
      "metar": "METAR LIPR 281950Z 22003KT CAVOK 17/15 Q1014",
      "taf": "TAF LIPR 281700Z 2818/2918 VRB05KT CAVOK"
    },
    {
      "icao": "LIPX",
      "alert": "OK",
      "vis_m": 9999,
      "fzfg": false,
      "metar_trigger": false,
      "taf_trigger": false,
      "metar": "METAR LIPX 281950Z 08004KT 050V110 CAVOK 20/09 Q1015",
      "taf": "TAF LIPX 281700Z 2818/2918 VRB05KT 9999 FEW060"
    },
    {
      "icao": "LIPY",
      "alert": "OK",
      "vis_m": 9999,
      "fzfg": false,
      "metar_trigger": false,
      "taf_trigger": false,
      "metar": "METAR LIPY 281950Z AUTO 18004KT 150V220 9999 BKN098/// BKN130/// 19/14 Q1014",
      "taf": "TAF LIPY 281700Z 2818/2918 VRB05KT CAVOK"
    },
    {
      "icao": "LIPZ",
      "alert": "OK",
      "vis_m": 9999,
      "fzfg": false,
      "metar_trigger": false,
      "taf_trigger": false,
      "metar": "METAR LIPZ 281950Z 10004KT 070V130 CAVOK 17/14 Q1015 NOSIG",
      "taf": "TAF LIPZ 281700Z 2818/2924 VRB05KT 9999 FEW030"
    },
    {
      "icao": "LIRF",
      "alert": "OK",
      "vis_m": 9999,
      "fzfg": false,
      "metar_trigger": false,
      "taf_trigger": false,
      "metar": "METAR LIRF 281950Z 06004KT CAVOK 13/11 Q1015 NOSIG",
      "taf": "TAF LIRF 281700Z 2818/2924 VRB04KT CAVOK"
    },
    {
      "icao": "LIRN",
      "alert": "OK",
      "vis_m": 9999,
      "fzfg": false,
      "metar_trigger": false,
      "taf_trigger": false,
      "metar": "METAR LIRN 281950Z 22003KT 190V250 CAVOK 17/15 Q1016 NOSIG",
      "taf": "TAF LIRN 281700Z 2818/2918 VRB05KT CAVOK"
    },
    {
      "icao": "LIRP",
      "alert": "OK",
      "vis_m": 9999,
      "fzfg": false,
      "metar_trigger": false,
      "taf_trigger": false,
      "metar": "METAR LIRP 281945Z 33003KT CAVOK 16/11 Q1016 NOSIG",
      "taf": "TAF LIRP 281700Z 2818/2918 26010KT CAVOK"
    },
    {
      "icao": "LIRZ",
      "alert": "OK",
      "vis_m": 9999,
      "fzfg": false,
      "metar_trigger": false,
      "taf_trigger": false,
      "metar": "METAR LIRZ 281950Z AUTO 24006KT 9999 NCD 18/07 Q1015",
      "taf": "TAF LIRZ 281700Z 2818/2918 23010KT CAVOK"
    },
    {
      "icao": "LJLJ",
      "alert": "OK",
      "vis_m": 9999,
      "fzfg": false,
      "metar_trigger": false,
      "taf_trigger": false,
      "metar": "METAR LJLJ 282000Z VRB01KT 9999 -SHRA FEW003 FEW043TCU SCT065 BKN080 12/12 Q1019 NOSIG",
      "taf": "TAF LJLJ 281700Z 2818/2918 10005KT 9999 FEW045 BKN080"
    },
    {
      "icao": "LKMT",
      "alert": "OK",
      "vis_m": 9999,
      "fzfg": false,
      "metar_trigger": false,
      "taf_trigger": false,
      "metar": "METAR LKMT 282000Z 02006KT CAVOK 04/M05 Q1023 NOSIG",
      "taf": "TAF LKMT 281700Z 2818/2918 04008KT CAVOK"
    },
    {
      "icao": "LKPR",
      "alert": "OK",
      "vis_m": 9999,
      "fzfg": false,
      "metar_trigger": false,
      "taf_trigger": false,
      "metar": "METAR LKPR 282000Z 05004KT 010V080 CAVOK 10/M03 Q1022 NOSIG",
      "taf": "TAF LKPR 281700Z 2818/2924 06008KT CAVOK"
    },
    {
      "icao": "LLBG",
      "alert": "OK",
      "vis_m": 9999,
      "fzfg": false,
      "metar_trigger": false,
      "taf_trigger": false,
      "metar": "METAR LLBG 281950Z VRB02KT CAVOK 19/14 Q1014 NOSIG",
      "taf": "TAF LLBG 281705Z 2818/2918 VRB04KT 9999 SCT017 TX25/2911Z TN15/2903Z"
    },
    {
      "icao": "LMML",
      "alert": "OK",
      "vis_m": 9999,
      "fzfg": false,
      "metar_trigger": false,
      "taf_trigger": false,
      "metar": "METAR LMML 281945Z 11010KT CAVOK 17/15 Q1015 NOSIG",
      "taf": "TAF LMML 281700Z 2818/2918 11012KT 9999 FEW020"
    },
    {
      "icao": "LOWW",
      "alert": "OK",
      "vis_m": 9999,
      "fzfg": false,
      "metar_trigger": false,
      "taf_trigger": false,
      "metar": "METAR LOWW 281950Z 03012KT CAVOK 13/00 Q1020 NOSIG",
      "taf": "TAF LOWW 281715Z 2818/2924 02010KT CAVOK TX16/2818Z TN04/2924Z"
    },
    {
      "icao": "LPFR",
      "alert": "OK",
      "vis_m": 9999,
      "fzfg": false,
      "metar_trigger": false,
      "taf_trigger": false,
      "metar": "METAR LPFR 282000Z 25009KT 9999 BKN016 18/16 Q1008",
      "taf": "TAF LPFR 281700Z 2818/2918 10008KT 9999 SCT012"
    },
    {
      "icao": "LPMA",
      "alert": "OK",
      "vis_m": 9999,
      "fzfg": false,
      "metar_trigger": false,
      "taf_trigger": false,
      "metar": "METAR LPMA 282000Z 35009KT 9999 SCT016 BKN033 17/10 Q1015",
      "taf": "TAF LPMA 281700Z 2818/2918 36010KT 9999 SCT015 SCT030"
    },
    {
      "icao": "LPPR",
      "alert": "OK",
      "vis_m": 9999,
      "fzfg": false,
      "metar_trigger": false,
      "taf_trigger": false,
      "metar": "METAR LPPR 282000Z 36007KT 320V030 CAVOK 20/12 Q1007",
      "taf": "TAF LPPR 281700Z 2818/2918 35010KT 9999 FEW025"
    },
    {
      "icao": "LPPS",
      "alert": "OK",
      "vis_m": 9999,
      "fzfg": false,
      "metar_trigger": false,
      "taf_trigger": false,
      "metar": "METAR LPPS 282000Z 35009KT 9999 FEW015 BKN030 17/12 Q1015",
      "taf": "TAF LPPS 281700Z 2818/2924 36010KT 9999 SCT015 BKN030"
    },
    {
      "icao": "LPPT",
      "alert": "OK",
      "vis_m": 9999,
      "fzfg": false,
      "metar_trigger": false,
      "taf_trigger": false,
      "metar": "METAR LPPT 282000Z 31011KT 9999 FEW007 15/14 Q1008",
      "taf": "TAF LPPT 281700Z 2818/2924 33010KT 9999 FEW025"
    },
    {
      "icao": "LQBK",
      "alert": "OK",
      "vis_m": 9999,
      "fzfg": false,
      "metar_trigger": false,
      "taf_trigger": false,
      "metar": "METAR LQBK 282000Z 29002KT CAVOK 11/05 Q1017 NOSIG",
      "taf": "TAF LQBK 281700Z 2818/2918 35005KT CAVOK TX15/2912Z TN05/2905Z"
    },
    {
      "icao": "LQSA",
      "alert": "OK",
      "vis_m": 9999,
      "fzfg": false,
      "metar_trigger": false,
      "taf_trigger": false,
      "metar": "METAR LQSA 282000Z 32005KT CAVOK 15/05 Q1017 NOSIG",
      "taf": "TAF LQSA 281700Z 2818/2918 29006KT 9999 SCT050 TX18/2913Z TN07/2904Z"
    },
    {
      "icao": "LQTZ",
      "alert": "OK",
      "vis_m": 9999,
      "fzfg": false,
      "metar_trigger": false,
      "taf_trigger": false,
      "metar": "METAR LQTZ 282000Z VRB02KT 9999 -RA BKN060 14/09 Q1017",
      "taf": "TAF LQTZ 281700Z 2818/2918 03006KT CAVOK TX17/2818Z TN06/2904Z"
    },
    {
      "icao": "LRBC",
      "alert": "OK",
      "vis_m": 9999,
      "fzfg": false,
      "metar_trigger": false,
      "taf_trigger": false,
      "metar": "METAR LRBC 282000Z 32006KT CAVOK 11/01 Q1020",
      "taf": "TAF LRBC 281700Z 2818/2903 01007KT CAVOK"
    },
    {
      "icao": "LRBS",
      "alert": "OK",
      "vis_m": 9999,
      "fzfg": false,
      "metar_trigger": false,
      "taf_trigger": false,
      "metar": "METAR LRBS 282000Z 05003KT CAVOK 14/06 Q1017 NOSIG",
      "taf": "TAF LRBS 281700Z 2818/2918 12006KT CAVOK"
    },
    {
      "icao": "LRBV",
      "alert": "OK",
      "vis_m": 9999,
      "fzfg": false,
      "metar_trigger": false,
      "taf_trigger": false,
      "metar": "METAR LRBV 282000Z 19007KT 9999 FEW085 08/02 Q1018",
      "taf": "TAF LRBV 281700Z 2818/2903 VRB04KT CAVOK"
    },
    {
      "icao": "LRCL",
      "alert": "OK",
      "vis_m": 9999,
      "fzfg": false,
      "metar_trigger": false,
      "taf_trigger": false,
      "metar": "METAR LRCL 282000Z 24003KT CAVOK 07/M01 Q1019",
      "taf": "TAF LRCL 281700Z 2818/2903 31007KT CAVOK"
    },
    {
      "icao": "LRCV",
      "alert": "OK",
      "vis_m": 9999,
      "fzfg": false,
      "metar_trigger": false,
      "taf_trigger": false,
      "metar": "METAR LRCV 282000Z 16008KT CAVOK 13/06 Q1016",
      "taf": "TAF LRCV 281700Z 2818/2903 VRB04KT CAVOK"
    },
    {
      "icao": "LRIA",
      "alert": "OK",
      "vis_m": 9999,
      "fzfg": false,
      "metar_trigger": false,
      "taf_trigger": false,
      "metar": "METAR LRIA 282000Z 35010KT CAVOK 11/M04 Q1020",
      "taf": "TAF LRIA 281700Z 2818/2903 34008KT CAVOK"
    },
    {
      "icao": "LROP",
      "alert": "OK",
      "vis_m": 9999,
      "fzfg": false,
      "metar_trigger": false,
      "taf_trigger": false,
      "metar": "METAR LROP 282000Z 00000KT CAVOK 13/05 Q1018 NOSIG",
      "taf": "TAF LROP 281700Z 2818/2918 12006KT CAVOK"
    },
    {
      "icao": "LRSB",
      "alert": "OK",
      "vis_m": 9999,
      "fzfg": false,
      "metar_trigger": false,
      "taf_trigger": false,
      "metar": "METAR LRSB 282000Z 26003KT CAVOK 08/02 Q1018",
      "taf": "TAF LRSB 281700Z 2818/2918 VRB04KT CAVOK"
    },
    {
      "icao": "LRSM",
      "alert": "OK",
      "vis_m": 9999,
      "fzfg": false,
      "metar_trigger": false,
      "taf_trigger": false,
      "metar": "METAR LRSM 282000Z AUTO 33006KT 9999 NCD 08/M04 Q1019",
      "taf": "TAF LRSM 281400Z 2815/2824 35012KT CAVOK"
    },
    {
      "icao": "LRSV",
      "alert": "OK",
      "vis_m": 9999,
      "fzfg": false,
      "metar_trigger": false,
      "taf_trigger": false,
      "metar": "METAR LRSV 282000Z 35007KT CAVOK 08/M06 Q1020",
      "taf": "TAF LRSV 281700Z 2818/2903 34008KT CAVOK"
    },
    {
      "icao": "LRTM",
      "alert": "OK",
      "vis_m": 9999,
      "fzfg": false,
      "metar_trigger": false,
      "taf_trigger": false,
      "metar": "METAR LRTM 282000Z VRB02KT CAVOK 08/M00 Q1018",
      "taf": "TAF LRTM 281700Z 2818/2903 VRB04KT CAVOK"
    },
    {
      "icao": "LRTR",
      "alert": "OK",
      "vis_m": 9999,
      "fzfg": false,
      "metar_trigger": false,
      "taf_trigger": false,
      "metar": "METAR LRTR 282000Z 01004KT CAVOK 09/04 Q1018 NOSIG",
      "taf": "TAF LRTR 281700Z 2818/2918 01009KT CAVOK"
    },
    {
      "icao": "LTAC",
      "alert": "OK",
      "vis_m": 9999,
      "fzfg": false,
      "metar_trigger": false,
      "taf_trigger": false,
      "metar": "METAR LTAC 281950Z 12003KT CAVOK 11/05 Q1015 NOSIG RMK RWY21C 08005KT 050V120 RWY03L 12003KT RWY21R 06004KT RWY03R 10002KT RWY21L 10006KT",
      "taf": "TAF LTAC 281640Z 2818/2918 VRB02KT 9999 SCT040"
    },
    {
      "icao": "LTFM",
      "alert": "OK",
      "vis_m": 9999,
      "fzfg": false,
      "metar_trigger": false,
      "taf_trigger": false,
      "metar": "METAR LTFM 281950Z 08010KT CAVOK 10/06 Q1019 NOSIG RMK RWY17L 08010KT RWY34L 07010KT RWY16R 08009KT RWY36 08007KT 010V100 RWY18 09009KT",
      "taf": "TAF LTFM 281640Z 2818/2924 07008KT CAVOK"
    },
    {
      "icao": "LUKK",
      "alert": "OK",
      "vis_m": 9999,
      "fzfg": false,
      "metar_trigger": false,
      "taf_trigger": false,
      "metar": "METAR LUKK 282000Z 01008KT CAVOK 11/M03 Q1019 NOSIG",
      "taf": "TAF LUKK 281701Z 2818/2918 36009KT CAVOK"
    },
    {
      "icao": "LWOH",
      "alert": "OK",
      "vis_m": 9999,
      "fzfg": false,
      "metar_trigger": false,
      "taf_trigger": false,
      "metar": "METAR LWOH 281850Z 17008KT 130V190 9999 FEW035 16/10 Q1017",
      "taf": "TAF LWOH 281710Z 2818/2918 VRB02KT 9999 FEW040"
    },
    {
      "icao": "LWSK",
      "alert": "OK",
      "vis_m": 9999,
      "fzfg": false,
      "metar_trigger": false,
      "taf_trigger": false,
      "metar": "METAR LWSK 281950Z 12004KT 060V150 CAVOK 16/08 Q1015 NOSIG",
      "taf": "TAF LWSK 281710Z 2818/2918 VRB02KT CAVOK"
    },
    {
      "icao": "LYBE",
      "alert": "OK",
      "vis_m": 9999,
      "fzfg": false,
      "metar_trigger": false,
      "taf_trigger": false,
      "metar": "METAR LYBE 282000Z 09002KT CAVOK 13/03 Q1018 NOSIG",
      "taf": "TAF LYBE 281700Z 2818/2918 04006KT CAVOK TX17/2818Z TN09/2904Z"
    },
    {
      "icao": "LYNI",
      "alert": "OK",
      "vis_m": 9999,
      "fzfg": false,
      "metar_trigger": false,
      "taf_trigger": false,
      "metar": "METAR LYNI 282000Z 35004KT 270V070 CAVOK 18/02 Q1016 NOSIG",
      "taf": "TAF LYNI 281700Z 2818/2918 34005KT CAVOK TX21/2913Z TN10/2904Z"
    },
    {
      "icao": "LYPG",
      "alert": "OK",
      "vis_m": 9999,
      "fzfg": false,
      "metar_trigger": false,
      "taf_trigger": false,
      "metar": "METAR LYPG 282000Z 22003KT CAVOK 18/10 Q1016 NOSIG",
      "taf": "TAF LYPG 281700Z 2818/2918 36004KT CAVOK TX25/2914Z TN11/2904Z"
    },
    {
      "icao": "LZIB",
      "alert": "OK",
      "vis_m": 9999,
      "fzfg": false,
      "metar_trigger": false,
      "taf_trigger": false,
      "metar": "METAR LZIB 282000Z 02005KT CAVOK 12/M00 Q1019 NOSIG",
      "taf": "TAF LZIB 281715Z 2818/2918 04009KT CAVOK"
    },
    {
      "icao": "LZKZ",
      "alert": "OK",
      "vis_m": 9999,
      "fzfg": false,
      "metar_trigger": false,
      "taf_trigger": false,
      "metar": "METAR LZKZ 282000Z 01015KT CAVOK 09/M09 Q1022 NOSIG",
      "taf": "TAF LZKZ 281715Z 2818/2918 02009KT CAVOK"
    },
    {
      "icao": "LZTT",
      "alert": "OK",
      "vis_m": 9999,
      "fzfg": false,
      "metar_trigger": false,
      "taf_trigger": false,
      "metar": "METAR LZTT 282000Z 12006KT 080V150 9999 FEW066 03/M07 Q1021",
      "taf": "TAF LZTT 281715Z 2818/2918 09009KT 9999 FEW060"
    },
    {
      "icao": "OEJN",
      "alert": "OK",
      "vis_m": 9999,
      "fzfg": false,
      "metar_trigger": false,
      "taf_trigger": false,
      "metar": "METAR OEJN 282000Z 36012KT CAVOK 26/15 Q1009 NOSIG",
      "taf": "TAF OEJN 281700Z 2818/2924 01005KT CAVOK"
    },
    {
      "icao": "OEMA",
      "alert": "OK",
      "vis_m": 9999,
      "fzfg": false,
      "metar_trigger": false,
      "taf_trigger": false,
      "metar": "METAR OEMA 282000Z 20007KT CAVOK 28/01 Q1012 NOSIG",
      "taf": "TAF OEMA 281700Z 2818/2924 VRB03KT 7000 NSC"
    },
    {
      "icao": "OJAI",
      "alert": "OK",
      "vis_m": 5000,
      "fzfg": false,
      "metar_trigger": false,
      "taf_trigger": false,
      "metar": "METAR OJAI 282000Z 29007KT 5000 HZ NSC 14/09 Q1016 NOSIG",
      "taf": "TAF OJAI 281700Z 2818/2924 29012KT 5000 HZ FEW035"
    },
    {
      "icao": "OMAA",
      "alert": "OK",
      "vis_m": 9999,
      "fzfg": false,
      "metar_trigger": false,
      "taf_trigger": false,
      "metar": "METAR OMAA 282000Z 04006KT CAVOK 31/17 Q1006 NOSIG",
      "taf": "TAF OMAA 281700Z 2818/3000 01007KT 8000 NSC"
    },
    {
      "icao": "OMDB",
      "alert": "OK",
      "vis_m": 9999,
      "fzfg": false,
      "metar_trigger": false,
      "taf_trigger": false,
      "metar": "METAR OMDB 282000Z 03007KT 010V070 CAVOK 33/18 Q1006 NOSIG",
      "taf": "TAF OMDB 281700Z 2818/3000 29010KT CAVOK"
    },
    {
      "icao": "UAAA",
      "alert": "OK",
      "vis_m": 9999,
      "fzfg": false,
      "metar_trigger": false,
      "taf_trigger": false,
      "metar": "METAR UAAA 282000Z 18001MPS 9999 SCT200 13/08 Q1015 NOSIG",
      "taf": "TAF UAAA 281702Z 2818/2918 19003MPS 9999 SCT050CB BKN100 TX25/2909Z TN12/2901Z"
    },
    {
      "icao": "UBBB",
      "alert": "OK",
      "vis_m": 9999,
      "fzfg": false,
      "metar_trigger": false,
      "taf_trigger": false,
      "metar": "METAR UBBB 282000Z 33010KT CAVOK 12/02 Q1019 NOSIG",
      "taf": "TAF UBBB 281702Z 2818/2918 33014KT 9999 SCT040 TX13/2910Z TN09/2901Z"
    },
    {
      "icao": "UDSG",
      "alert": "OK",
      "vis_m": 9999,
      "fzfg": false,
      "metar_trigger": false,
      "taf_trigger": false,
      "metar": "METAR UDSG 282000Z 06017KT 9999 FEW049 07/02 Q1017 NOSIG",
      "taf": "TAF UDSG 281658Z 2818/2918 VRB06KT 9999 SCT050"
    },
    {
      "icao": "UDYZ",
      "alert": "OK",
      "vis_m": 9999,
      "fzfg": false,
      "metar_trigger": false,
      "taf_trigger": false,
      "metar": "METAR UDYZ 282000Z 32003KT 9999 FEW046 13/07 Q1014 NOSIG",
      "taf": "TAF UDYZ 281700Z 2818/2918 04006KT 9999 FEW040"
    },
    {
      "icao": "UGKO",
      "alert": "OK",
      "vis_m": 9999,
      "fzfg": false,
      "metar_trigger": false,
      "taf_trigger": false,
      "metar": "METAR UGKO 282000Z VRB02KT CAVOK 08/05 Q1018 NOSIG",
      "taf": "TAF UGKO 281700Z 2818/2918 25006KT CAVOK TX18/2911Z TN06/2902Z"
    }
  ]
}