{
  "ts_utc": "2026-03-16T06:55:00Z",
  "threshold_m": 150,
  "source": "stations_override.txt (ICAO list) + aviationweather.gov (METAR/TAF raw)",
  "station_count": 159,
  "stations": [
    {
      "icao": "BIKF",
      "alert": "OK",
      "vis_m": 9999,
      "fzfg": false,
      "metar_trigger": false,
      "taf_trigger": false,
      "metar": "METAR BIKF 160630Z 04019G29KT CAVOK 00/M03 Q0985",
      "taf": "TAF BIKF 160409Z 1606/1706 03020KT 9999 FEW040 TX03/1615Z TN00/1608Z"
    },
    {
      "icao": "BKPR",
      "alert": "OK",
      "vis_m": null,
      "fzfg": false,
      "metar_trigger": false,
      "taf_trigger": false,
      "metar": "",
      "taf": "TAF BKPR 160530Z 1606/1706 35007KT CAVOK"
    },
    {
      "icao": "EBCI",
      "alert": "OK",
      "vis_m": 9999,
      "fzfg": false,
      "metar_trigger": false,
      "taf_trigger": false,
      "metar": "METAR EBCI 160620Z 24010KT 9999 FEW022 05/03 Q1014 NOSIG",
      "taf": "TAF EBCI 160500Z 1606/1712 27011KT 9999 SCT020"
    },
    {
      "icao": "EDDB",
      "alert": "OK",
      "vis_m": 9999,
      "fzfg": false,
      "metar_trigger": false,
      "taf_trigger": false,
      "metar": "METAR EDDB 160650Z AUTO 17011KT CAVOK 05/04 Q1010 NOSIG",
      "taf": ""
    },
    {
      "icao": "EDDH",
      "alert": "OK",
      "vis_m": 9999,
      "fzfg": false,
      "metar_trigger": false,
      "taf_trigger": false,
      "metar": "METAR EDDH 160650Z AUTO 21008KT 9999 -RA BKN010 04/03 Q1005 RESHRA TEMPO RA BKN008",
      "taf": "TAF EDDH 160500Z 1606/1712 16010KT 9999 SCT020"
    },
    {
      "icao": "EDDK",
      "alert": "OK",
      "vis_m": 9999,
      "fzfg": false,
      "metar_trigger": false,
      "taf_trigger": false,
      "metar": "METAR EDDK 160650Z AUTO 33013KT 300V360 9999 TSGSRA FEW015 SCT022 BKN030 BKN///CB 03/02 Q1013 TEMPO NSW",
      "taf": ""
    },
    {
      "icao": "EDDN",
      "alert": "OK",
      "vis_m": 9999,
      "fzfg": false,
      "metar_trigger": false,
      "taf_trigger": false,
      "metar": "METAR EDDN 160650Z AUTO 19006KT 170V230 9999 -SHRA FEW037 FEW///TCU 04/M01 Q1015 TEMPO 24011KT RA",
      "taf": "TAF EDDN 160500Z 1606/1706 17005KT 9999 SCT030"
    },
    {
      "icao": "EDDS",
      "alert": "OK",
      "vis_m": 9999,
      "fzfg": false,
      "metar_trigger": false,
      "taf_trigger": false,
      "metar": "METAR EDDS 160650Z AUTO 23006KT 160V280 9999 BKN037 04/M01 Q1016 NOSIG",
      "taf": "TAF EDDS 160500Z 1606/1706 22005KT 9999 BKN030"
    },
    {
      "icao": "EDFH",
      "alert": "OK",
      "vis_m": 9999,
      "fzfg": false,
      "metar_trigger": false,
      "taf_trigger": false,
      "metar": "METAR EDFH 160620Z 26014KT 220V290 9999 FEW009 BKN011 04/02 Q1012",
      "taf": "TAF EDFH 160500Z 1606/1706 27014KT 9999 BKN010"
    },
    {
      "icao": "EDJA",
      "alert": "OK",
      "vis_m": 9999,
      "fzfg": false,
      "metar_trigger": false,
      "taf_trigger": false,
      "metar": "METAR EDJA 160620Z COR 22011KT CAVOK 02/00 Q1017",
      "taf": "TAF EDJA 160500Z 1606/1615 22010KT 9999 SCT030"
    },
    {
      "icao": "EDLW",
      "alert": "OK",
      "vis_m": 9000,
      "fzfg": false,
      "metar_trigger": false,
      "taf_trigger": false,
      "metar": "METAR EDLW 160620Z 25016G26KT 230V300 9000 -RA SCT008 BKN010 OVC015 03/02 Q1010",
      "taf": "TAF EDLW 160500Z 1606/1706 25013KT 9999 BKN020"
    },
    {
      "icao": "EDNY",
      "alert": "OK",
      "vis_m": 9999,
      "fzfg": false,
      "metar_trigger": false,
      "taf_trigger": false,
      "metar": "METAR EDNY 160620Z 23011KT CAVOK 03/00 Q1019",
      "taf": "TAF EDNY 160500Z 1606/1615 23005KT 9999 SCT045"
    },
    {
      "icao": "EDSB",
      "alert": "OK",
      "vis_m": 9999,
      "fzfg": false,
      "metar_trigger": false,
      "taf_trigger": false,
      "metar": "METAR EDSB 160620Z 20014KT 9999 OVC029 06/01 Q1017",
      "taf": "TAF EDSB 160500Z 1606/1706 22012KT 9999 SCT030"
    },
    {
      "icao": "EETN",
      "alert": "OK",
      "vis_m": 6000,
      "fzfg": false,
      "metar_trigger": false,
      "taf_trigger": false,
      "metar": "METAR EETN 160650Z 18004KT 6000 OVC003 02/02 Q1015 TEMPO 2000 BR",
      "taf": "TAF EETN 160530Z 1606/1706 22005KT 6000 OVC004"
    },
    {
      "icao": "EFTU",
      "alert": "OK",
      "vis_m": 9999,
      "fzfg": true,
      "metar_trigger": false,
      "taf_trigger": false,
      "metar": "METAR EFTU 160650Z AUTO 19005KT 160V220 9999 OVC001 00/00 Q1013",
      "taf": "TAF EFTU 160525Z 1606/1706 21006KT 0500 FZFG VV001"
    },
    {
      "icao": "EGBB",
      "alert": "OK",
      "vis_m": 9999,
      "fzfg": false,
      "metar_trigger": false,
      "taf_trigger": false,
      "metar": "METAR EGBB 160620Z 25006KT 210V280 9999 BKN033 05/02 Q1012",
      "taf": "TAF EGBB 160456Z 1606/1706 23009KT 9999 FEW015 SCT025"
    },
    {
      "icao": "EGGP",
      "alert": "OK",
      "vis_m": 9999,
      "fzfg": false,
      "metar_trigger": false,
      "taf_trigger": false,
      "metar": "METAR EGGP 160620Z 23011KT 9999 SCT040 05/02 Q1010",
      "taf": "TAF EGGP 160456Z 1606/1706 25012KT 9999 SCT030"
    },
    {
      "icao": "EGGW",
      "alert": "OK",
      "vis_m": 9999,
      "fzfg": false,
      "metar_trigger": false,
      "taf_trigger": false,
      "metar": "METAR EGGW 160620Z AUTO 24009KT 9999 NCD 04/02 Q1013",
      "taf": "TAF EGGW 160457Z 1606/1706 24012KT 9999 FEW022 SCT040"
    },
    {
      "icao": "EGKK",
      "alert": "OK",
      "vis_m": 9999,
      "fzfg": false,
      "metar_trigger": false,
      "taf_trigger": false,
      "metar": "METAR EGKK 160620Z 24007KT CAVOK 06/04 Q1015",
      "taf": "TAF EGKK 160458Z 1606/1712 24011KT 9999 FEW035"
    },
    {
      "icao": "EGNM",
      "alert": "OK",
      "vis_m": 9999,
      "fzfg": false,
      "metar_trigger": false,
      "taf_trigger": false,
      "metar": "METAR EGNM 160620Z 24008KT 9999 -DZ SCT017 04/02 Q1008",
      "taf": "TAF EGNM 160525Z 1606/1706 23013KT 9999 SCT015"
    },
    {
      "icao": "EGPD",
      "alert": "OK",
      "vis_m": 9999,
      "fzfg": false,
      "metar_trigger": false,
      "taf_trigger": false,
      "metar": "METAR EGPD 160620Z COR AUTO 21007KT 9999 NCD 01/M02 Q0999 NOSIG",
      "taf": "TAF EGPD 160457Z 1606/1706 21012KT 9999 FEW030"
    },
    {
      "icao": "EGPF",
      "alert": "OK",
      "vis_m": 9999,
      "fzfg": false,
      "metar_trigger": false,
      "taf_trigger": false,
      "metar": "METAR EGPF 160620Z AUTO 21015KT 9999 -RA SCT026/// BKN031/// BKN037/// //////TCU 04/02 Q1003",
      "taf": "TAF EGPF 160455Z 1606/1706 23012KT 9999 SCT025"
    },
    {
      "icao": "EHBK",
      "alert": "OK",
      "vis_m": 9999,
      "fzfg": false,
      "metar_trigger": false,
      "taf_trigger": false,
      "metar": "METAR EHBK 160625Z AUTO 26011KT 220V300 9999 SCT015/// BKN019/// BKN023/// 06/04 Q1012 TEMPO 7000 -SHRA FEW020CB",
      "taf": "TAF EHBK 160514Z 1606/1712 27012KT 9999 BKN030"
    },
    {
      "icao": "EHEH",
      "alert": "OK",
      "vis_m": 9999,
      "fzfg": false,
      "metar_trigger": false,
      "taf_trigger": false,
      "metar": "METAR EHEH 160625Z AUTO 27005KT 220V310 9999 NCD 05/03 Q1012 BLU TEMPO 4000 SHRAGS FEW015 SCT020CB BKN025 RMK TREND REMOTE BY EHWX",
      "taf": ""
    },
    {
      "icao": "EKBI",
      "alert": "OK",
      "vis_m": 4400,
      "fzfg": false,
      "metar_trigger": false,
      "taf_trigger": false,
      "metar": "METAR EKBI 160650Z AUTO 17005KT 4400 -RA BR OVC005/// 03/02 Q1003",
      "taf": "TAF EKBI 160527Z 1606/1706 19008KT 8000 -RA BKN007"
    },
    {
      "icao": "EKCH",
      "alert": "OK",
      "vis_m": 9999,
      "fzfg": false,
      "metar_trigger": false,
      "taf_trigger": false,
      "metar": "METAR EKCH 160650Z AUTO 16013KT 9999 NCD 04/02 Q1007 NOSIG",
      "taf": "TAF EKCH 160527Z 1606/1706 16015KT CAVOK"
    },
    {
      "icao": "ENAL",
      "alert": "OK",
      "vis_m": 9999,
      "fzfg": false,
      "metar_trigger": false,
      "taf_trigger": false,
      "metar": "METAR ENAL 160620Z 21009KT 9999 SCT050 06/00 Q0993",
      "taf": "TAF ENAL 160500Z 1606/1615 20009KT 9999 FEW040"
    },
    {
      "icao": "ENBR",
      "alert": "OK",
      "vis_m": 8000,
      "fzfg": false,
      "metar_trigger": false,
      "taf_trigger": false,
      "metar": "METAR ENBR 160620Z 17006KT 130V190 8000 -SHRA FEW007 SCT017 BKN035 03/01 Q0996 NOSIG RMK WIND 1200FT 17013KT",
      "taf": "TAF ENBR 160500Z 1606/1706 15009KT 9999 SCT020"
    },
    {
      "icao": "ENGM",
      "alert": "OK",
      "vis_m": 9000,
      "fzfg": false,
      "metar_trigger": false,
      "taf_trigger": false,
      "metar": "METAR ENGM 160620Z 17008KT 9000 -RA FEW004 BKN005 02/01 Q1000 TEMPO BKN004",
      "taf": "TAF ENGM 160500Z 1606/1706 16012KT 9000 -RASN BKN005"
    },
    {
      "icao": "ENHD",
      "alert": "OK",
      "vis_m": 9999,
      "fzfg": false,
      "metar_trigger": false,
      "taf_trigger": false,
      "metar": "METAR ENHD 160620Z 15004KT 9999 FEW020 SCT049 04/02 Q0997",
      "taf": "TAF ENHD 160500Z 1606/1615 21008KT 9999 FEW010 BKN020"
    },
    {
      "icao": "ENTC",
      "alert": "OK",
      "vis_m": 9999,
      "fzfg": false,
      "metar_trigger": false,
      "taf_trigger": false,
      "metar": "METAR ENTC 160620Z VRB01KT CAVOK M02/M04 Q0998 NOSIG RMK WIND 2600FT 16015KT",
      "taf": "TAF ENTC 160500Z 1606/1706 22006KT CAVOK"
    },
    {
      "icao": "ENTO",
      "alert": "OK",
      "vis_m": 5000,
      "fzfg": false,
      "metar_trigger": false,
      "taf_trigger": false,
      "metar": "METAR ENTO 160620Z 17018KT 5000 RA BR BKN003 BKN005 03/03 Q1000 TEMPO 17020G30KT 4000 -RADZ BR",
      "taf": "TAF ENTO 160500Z 1606/1706 17018KT 7000 -RA OVC003"
    },
    {
      "icao": "ENVA",
      "alert": "OK",
      "vis_m": 9999,
      "fzfg": false,
      "metar_trigger": false,
      "taf_trigger": false,
      "metar": "METAR ENVA 160620Z 06004KT 360V100 CAVOK 06/M01 Q0995 NOSIG RMK WIND 670FT 15013KT",
      "taf": "TAF ENVA 160500Z 1606/1706 14008KT CAVOK"
    },
    {
      "icao": "ENZV",
      "alert": "OK",
      "vis_m": 9999,
      "fzfg": false,
      "metar_trigger": false,
      "taf_trigger": false,
      "metar": "METAR ENZV 160620Z VRB02KT 9999 SCT029 03/02 Q0998 NOSIG",
      "taf": ""
    },
    {
      "icao": "EPGD",
      "alert": "OK",
      "vis_m": 9999,
      "fzfg": false,
      "metar_trigger": false,
      "taf_trigger": false,
      "metar": "METAR EPGD 160630Z 15006KT 9999 BKN005 03/02 Q1013",
      "taf": "TAF EPGD 160530Z 1606/1706 16008KT 7000 -RA BKN025"
    },
    {
      "icao": "EPKK",
      "alert": "OK",
      "vis_m": 5000,
      "fzfg": false,
      "metar_trigger": false,
      "taf_trigger": false,
      "metar": "METAR EPKK 160630Z VRB01KT 5000 BR OVC010 05/04 Q1014",
      "taf": "TAF EPKK 160530Z 1606/1706 VRB02KT 9999 BKN010"
    },
    {
      "icao": "EPKT",
      "alert": "OK",
      "vis_m": 1100,
      "fzfg": false,
      "metar_trigger": false,
      "taf_trigger": false,
      "metar": "METAR EPKT 160630Z VRB01KT 1100 0750E R26/1100D BCFG BR OVC002 04/04 Q1014",
      "taf": ""
    },
    {
      "icao": "EPLB",
      "alert": "OK",
      "vis_m": 9999,
      "fzfg": false,
      "metar_trigger": false,
      "taf_trigger": false,
      "metar": "METAR EPLB 160630Z 09006KT CAVOK 02/M01 Q1014",
      "taf": "TAF EPLB 160530Z 1606/1706 10007KT CAVOK"
    },
    {
      "icao": "EPMO",
      "alert": "OK",
      "vis_m": 6000,
      "fzfg": false,
      "metar_trigger": false,
      "taf_trigger": false,
      "metar": "METAR EPMO 160630Z 15005KT 120V190 6000 BKN009 06/04 Q1014",
      "taf": "TAF EPMO 160530Z 1606/1706 VRB02KT 9999 SCT008 BKN014"
    },
    {
      "icao": "EPPO",
      "alert": "OK",
      "vis_m": 9999,
      "fzfg": false,
      "metar_trigger": false,
      "taf_trigger": false,
      "metar": "METAR EPPO 160630Z 14004KT 9999 -RA FEW004 OVC029 04/03 Q1013",
      "taf": "TAF EPPO 160530Z 1606/1706 18007KT 9999 BKN018"
    },
    {
      "icao": "EPRA",
      "alert": "OK",
      "vis_m": 3500,
      "fzfg": false,
      "metar_trigger": false,
      "taf_trigger": false,
      "metar": "METAR EPRA 160630Z VRB02KT 3500 BR NSC 02/01 Q1014",
      "taf": ""
    },
    {
      "icao": "EPRZ",
      "alert": "OK",
      "vis_m": 9999,
      "fzfg": false,
      "metar_trigger": false,
      "taf_trigger": false,
      "metar": "METAR EPRZ 160630Z VRB02KT CAVOK 02/M01 Q1014",
      "taf": "TAF EPRZ 160530Z 1606/1706 15002KT CAVOK"
    },
    {
      "icao": "EPSC",
      "alert": "OK",
      "vis_m": 9999,
      "fzfg": false,
      "metar_trigger": false,
      "taf_trigger": false,
      "metar": "METAR EPSC 160630Z 15009KT 9999 BKN007 05/04 Q1011",
      "taf": "TAF EPSC 160530Z 1606/1706 16010KT 9999 BKN025"
    },
    {
      "icao": "EPSY",
      "alert": "OK",
      "vis_m": 500,
      "fzfg": false,
      "metar_trigger": false,
      "taf_trigger": false,
      "metar": "METAR EPSY 160630Z VRB02KT 0500 R01/0700N FG OVC001 04/04 Q1014",
      "taf": "TAF EPSY 160530Z 1606/1615 VRB02KT 0600 FG OVC002"
    },
    {
      "icao": "EPWA",
      "alert": "OK",
      "vis_m": 3500,
      "fzfg": false,
      "metar_trigger": false,
      "taf_trigger": false,
      "metar": "METAR EPWA 160630Z 13004KT 090V150 3500 BR BKN006 05/04 Q1014 NOSIG",
      "taf": "TAF EPWA 160530Z 1606/1706 VRB02KT 8000 SCT007 BKN014"
    },
    {
      "icao": "EPWR",
      "alert": "OK",
      "vis_m": 9999,
      "fzfg": false,
      "metar_trigger": false,
      "taf_trigger": false,
      "metar": "METAR EPWR 160630Z 13005KT 9999 -RA FEW037 06/05 Q1013",
      "taf": "TAF EPWR 160530Z 1606/1706 12005KT 9999 BKN018"
    },
    {
      "icao": "ESGG",
      "alert": "OK",
      "vis_m": 9999,
      "fzfg": false,
      "metar_trigger": false,
      "taf_trigger": false,
      "metar": "METAR ESGG 160620Z 15012KT CAVOK 02/00 Q1004",
      "taf": "TAF ESGG 160530Z 1606/1706 16012KT 9999 FEW010"
    },
    {
      "icao": "ESKN",
      "alert": "OK",
      "vis_m": 9999,
      "fzfg": false,
      "metar_trigger": false,
      "taf_trigger": false,
      "metar": "METAR ESKN 160620Z 14008KT CAVOK 02/01 Q1010",
      "taf": "TAF ESKN 160530Z 1606/1706 16008KT CAVOK"
    },
    {
      "icao": "ESMS",
      "alert": "OK",
      "vis_m": 9999,
      "fzfg": false,
      "metar_trigger": false,
      "taf_trigger": false,
      "metar": "METAR ESMS 160620Z 16010KT CAVOK 03/03 Q1007",
      "taf": "TAF ESMS 160527Z 1606/1706 16010KT 9000 NSC"
    },
    {
      "icao": "ESSA",
      "alert": "OK",
      "vis_m": 9999,
      "fzfg": false,
      "metar_trigger": false,
      "taf_trigger": false,
      "metar": "METAR ESSA 160620Z 15008KT CAVOK 00/M01 Q1010 NOSIG",
      "taf": "TAF ESSA 160530Z 1606/1706 17010KT CAVOK"
    },
    {
      "icao": "EYKA",
      "alert": "OK",
      "vis_m": 9999,
      "fzfg": false,
      "metar_trigger": false,
      "taf_trigger": false,
      "metar": "METAR EYKA 160650Z 15007KT CAVOK 06/M02 Q1015",
      "taf": "TAF EYKA 160500Z 1606/1706 16008KT 8000 SCT045"
    },
    {
      "icao": "EYPA",
      "alert": "OK",
      "vis_m": 9999,
      "fzfg": false,
      "metar_trigger": false,
      "taf_trigger": false,
      "metar": "METAR EYPA 160650Z VRB02KT 9999 -DZ OVC002 03/03 Q1014",
      "taf": ""
    },
    {
      "icao": "EYVI",
      "alert": "OK",
      "vis_m": 9999,
      "fzfg": false,
      "metar_trigger": false,
      "taf_trigger": false,
      "metar": "METAR EYVI 160650Z 16009KT CAVOK 05/M04 Q1016 NOSIG",
      "taf": "TAF EYVI 160500Z 1606/1706 16012KT 9000 NSC"
    },
    {
      "icao": "GCFV",
      "alert": "OK",
      "vis_m": 9999,
      "fzfg": false,
      "metar_trigger": false,
      "taf_trigger": false,
      "metar": "METAR GCFV 160630Z 03011KT 9999 BKN025 18/13 Q1014",
      "taf": "TAF GCFV 160200Z 1603/1703 04009KT 9999 BKN020 TX20/1614Z TN15/1606Z"
    },
    {
      "icao": "GCLP",
      "alert": "OK",
      "vis_m": 9999,
      "fzfg": false,
      "metar_trigger": false,
      "taf_trigger": false,
      "metar": "METAR GCLP 160630Z 36007KT 9999 BKN025 17/12 Q1014 NOSIG",
      "taf": "TAF GCLP 160200Z 1603/1703 02013KT 9999 BKN020 TX21/1614Z TN15/1606Z"
    },
    {
      "icao": "GCTS",
      "alert": "OK",
      "vis_m": 9999,
      "fzfg": false,
      "metar_trigger": false,
      "taf_trigger": false,
      "metar": "METAR GCTS 160630Z 03007KT 9999 FEW028 16/10 Q1014 NOSIG",
      "taf": "TAF GCTS 160200Z 1603/1703 04009KT 9999 FEW025 TX22/1614Z TN15/1606Z"
    },
    {
      "icao": "GMAD",
      "alert": "OK",
      "vis_m": 6000,
      "fzfg": false,
      "metar_trigger": false,
      "taf_trigger": false,
      "metar": "METAR GMAD 160630Z 00000KT 6000 BKN010 14/12 Q1013 NOSIG",
      "taf": "TAF GMAD 160500Z 1606/1712 22005KT 8000 BKN010"
    },
    {
      "icao": "GMMN",
      "alert": "OK",
      "vis_m": 9999,
      "fzfg": false,
      "metar_trigger": false,
      "taf_trigger": false,
      "metar": "METAR GMMN 160630Z 04007KT 9999 SCT015 10/09 Q1014 NOSIG",
      "taf": "TAF GMMN 160500Z 1606/1712 04008KT 9999 SCT015"
    },
    {
      "icao": "GMMX",
      "alert": "OK",
      "vis_m": 9999,
      "fzfg": false,
      "metar_trigger": false,
      "taf_trigger": false,
      "metar": "METAR GMMX 160630Z VRB02KT CAVOK 10/09 Q1013 NOSIG",
      "taf": "TAF GMMX 160500Z 1606/1712 06006KT 8000 NSC"
    },
    {
      "icao": "HEGN",
      "alert": "OK",
      "vis_m": 9999,
      "fzfg": false,
      "metar_trigger": false,
      "taf_trigger": false,
      "metar": "METAR HEGN 160600Z 30015KT CAVOK 18/06 Q1015 NOSIG",
      "taf": "TAF HEGN 160500Z 1606/1712 31015KT 6000 NSC"
    },
    {
      "icao": "HEMA",
      "alert": "OK",
      "vis_m": 9999,
      "fzfg": false,
      "metar_trigger": false,
      "taf_trigger": false,
      "metar": "METAR HEMA 160600Z 32014KT CAVOK 20/05 Q1014 NOSIG",
      "taf": "TAF HEMA 160500Z 1606/1712 34015KT 6000 NSC"
    },
    {
      "icao": "HESH",
      "alert": "OK",
      "vis_m": 9999,
      "fzfg": false,
      "metar_trigger": false,
      "taf_trigger": false,
      "metar": "METAR HESH 160600Z 35012KT CAVOK 20/04 Q1015 NOSIG",
      "taf": "TAF HESH 160500Z 1606/1712 01010KT 6000 NSC"
    },
    {
      "icao": "HESX",
      "alert": "OK",
      "vis_m": 9999,
      "fzfg": false,
      "metar_trigger": false,
      "taf_trigger": false,
      "metar": "METAR HESX 160600Z 19005KT CAVOK 12/06 Q1015 NOSIG",
      "taf": "TAF HESX 160500Z 1606/1712 VRB03KT CAVOK"
    },
    {
      "icao": "LATI",
      "alert": "OK",
      "vis_m": 9999,
      "fzfg": false,
      "metar_trigger": false,
      "taf_trigger": false,
      "metar": "METAR LATI 160650Z VRB02KT 9999 SCT100 10/05 Q1012 NOSIG",
      "taf": "TAF LATI 160500Z 1606/1706 VRB03KT CAVOK TX21/1612Z TN05/1705Z"
    },
    {
      "icao": "LBPD",
      "alert": "OK",
      "vis_m": 9999,
      "fzfg": false,
      "metar_trigger": false,
      "taf_trigger": false,
      "metar": "METAR LBPD 160630Z AUTO 00000KT 9999 NCD 05/M00 Q1016 NOSIG",
      "taf": "TAF LBPD 160500Z 1606/1706 VRB04KT CAVOK"
    },
    {
      "icao": "LBSF",
      "alert": "OK",
      "vis_m": 8000,
      "fzfg": false,
      "metar_trigger": false,
      "taf_trigger": false,
      "metar": "METAR LBSF 160630Z VRB02KT 8000 NSC 01/M02 Q1016 NOSIG",
      "taf": "TAF LBSF 160500Z 1606/1706 VRB04KT CAVOK"
    },
    {
      "icao": "LBWN",
      "alert": "OK",
      "vis_m": 9999,
      "fzfg": false,
      "metar_trigger": false,
      "taf_trigger": false,
      "metar": "METAR LBWN 160630Z 27006KT CAVOK 06/03 Q1016 NOSIG",
      "taf": "TAF LBWN 160500Z 1606/1706 35008KT 9999 SCT012"
    },
    {
      "icao": "LCLK",
      "alert": "OK",
      "vis_m": 9999,
      "fzfg": false,
      "metar_trigger": false,
      "taf_trigger": false,
      "metar": "METAR LCLK 160630Z 25009KT 9999 FEW025 17/12 Q1010 NOSIG",
      "taf": "TAF LCLK 160530Z 1606/1706 24016KT 9999 FEW020 SCT040"
    },
    {
      "icao": "LCPH",
      "alert": "OK",
      "vis_m": 9999,
      "fzfg": false,
      "metar_trigger": false,
      "taf_trigger": false,
      "metar": "METAR LCPH 160630Z 26013KT 250V320 9999 SCT030 BKN040 16/10 Q1012 NOSIG",
      "taf": "TAF LCPH 160530Z 1606/1706 29018KT 9999 FEW025 SCT035"
    },
    {
      "icao": "LEAL",
      "alert": "OK",
      "vis_m": 9999,
      "fzfg": false,
      "metar_trigger": false,
      "taf_trigger": false,
      "metar": "METAR LEAL 160630Z 30005KT 260V320 CAVOK 08/04 Q1021 NOSIG",
      "taf": "TAF LEAL 160500Z 1606/1706 29005KT CAVOK TX18/1612Z TN06/1606Z"
    },
    {
      "icao": "LEBB",
      "alert": "OK",
      "vis_m": 9999,
      "fzfg": false,
      "metar_trigger": false,
      "taf_trigger": false,
      "metar": "METAR LEBB 160630Z COR VRB02KT 9999 FEW005 SCT016 BKN030 10/10 Q1025 NOSIG",
      "taf": "TAF LEBB 160500Z 1606/1706 11005KT 9999 SCT020 BKN040 TX16/1613Z TN05/1706Z"
    },
    {
      "icao": "LEBL",
      "alert": "OK",
      "vis_m": 9999,
      "fzfg": false,
      "metar_trigger": false,
      "taf_trigger": false,
      "metar": "METAR LEBL 160630Z 32008G19KT 300V010 CAVOK 07/M00 Q1019 NOSIG",
      "taf": "TAF LEBL 160500Z 1606/1706 33007KT CAVOK TX16/1613Z TN06/1606Z"
    },
    {
      "icao": "LECH",
      "alert": "OK",
      "vis_m": 9999,
      "fzfg": false,
      "metar_trigger": false,
      "taf_trigger": false,
      "metar": "METAR LECH 160630Z AUTO 15003KT 060V180 CAVOK 06/M01 Q1019",
      "taf": ""
    },
    {
      "icao": "LEMD",
      "alert": "OK",
      "vis_m": 9999,
      "fzfg": false,
      "metar_trigger": false,
      "taf_trigger": false,
      "metar": "METAR LEMD 160630Z VRB01KT CAVOK 01/01 Q1022 NOSIG",
      "taf": "TAF LEMD 160500Z 1606/1712 VRB04KT CAVOK TX21/1615Z TN01/1607Z"
    },
    {
      "icao": "LEMG",
      "alert": "OK",
      "vis_m": 9999,
      "fzfg": false,
      "metar_trigger": false,
      "taf_trigger": false,
      "metar": "METAR LEMG 160630Z 29006KT CAVOK 08/06 Q1019 NOSIG",
      "taf": "TAF LEMG 160500Z 1606/1706 29007KT CAVOK TX18/1615Z TN11/1607Z"
    },
    {
      "icao": "LEVC",
      "alert": "OK",
      "vis_m": 9999,
      "fzfg": false,
      "metar_trigger": false,
      "taf_trigger": false,
      "metar": "METAR LEVC 160630Z 26005KT CAVOK 05/M00 Q1020 NOSIG",
      "taf": "TAF LEVC 160500Z 1606/1706 27005KT CAVOK TX20/1612Z TN05/1705Z"
    },
    {
      "icao": "LEXJ",
      "alert": "OK",
      "vis_m": 8000,
      "fzfg": false,
      "metar_trigger": false,
      "taf_trigger": false,
      "metar": "METAR LEXJ 160630Z 24003KT 190V280 8000 BKN013 10/08 Q1025",
      "taf": "TAF LEXJ 160200Z 1603/1703 22009KT 9999 SCT020 BKN040 TX14/1612Z TN08/1703Z"
    },
    {
      "icao": "LEZG",
      "alert": "OK",
      "vis_m": 9999,
      "fzfg": false,
      "metar_trigger": false,
      "taf_trigger": false,
      "metar": "METAR LEZG 160630Z 27013KT 9999 FEW035 08/06 Q1021 NOSIG",
      "taf": "TAF LEZG 160500Z 1606/1706 29015KT CAVOK TX19/1614Z TN08/1606Z"
    },
    {
      "icao": "LEZL",
      "alert": "OK",
      "vis_m": 9999,
      "fzfg": false,
      "metar_trigger": false,
      "taf_trigger": false,
      "metar": "METAR LEZL 160630Z 03005KT CAVOK 10/08 Q1020 NOSIG",
      "taf": "TAF LEZL 160200Z 1603/1703 VRB03KT CAVOK TX23/1615Z TN12/1607Z"
    },
    {
      "icao": "LFBD",
      "alert": "OK",
      "vis_m": 9999,
      "fzfg": false,
      "metar_trigger": false,
      "taf_trigger": false,
      "metar": "METAR LFBD 160630Z AUTO 21005KT 9999 SCT003 SCT013 BKN030 09/09 Q1023 NOSIG",
      "taf": "TAF LFBD 160500Z 1606/1712 24005KT 9999 SCT030 TX16/1712Z TN04/1706Z"
    },
    {
      "icao": "LFLL",
      "alert": "OK",
      "vis_m": 9999,
      "fzfg": false,
      "metar_trigger": false,
      "taf_trigger": false,
      "metar": "METAR LFLL 160630Z 15007KT CAVOK 02/00 Q1022 NOSIG",
      "taf": "TAF LFLL 160500Z 1606/1712 VRB03KT CAVOK"
    },
    {
      "icao": "LFLS",
      "alert": "OK",
      "vis_m": 9999,
      "fzfg": false,
      "metar_trigger": false,
      "taf_trigger": false,
      "metar": "METAR LFLS 160630Z AUTO VRB03KT CAVOK M01/M02 Q1021 NOSIG",
      "taf": "TAF LFLS 160200Z 1603/1703 09005KT CAVOK"
    },
    {
      "icao": "LFMN",
      "alert": "OK",
      "vis_m": 9999,
      "fzfg": false,
      "metar_trigger": false,
      "taf_trigger": false,
      "metar": "METAR LFMN 160630Z 33013KT CAVOK 10/03 Q1013 NOSIG",
      "taf": "TAF LFMN 160200Z 1603/1709 33010KT CAVOK"
    },
    {
      "icao": "LFOB",
      "alert": "OK",
      "vis_m": 9999,
      "fzfg": false,
      "metar_trigger": false,
      "taf_trigger": false,
      "metar": "METAR LFOB 160630Z AUTO 25007KT CAVOK 07/05 Q1017 TEMPO 4000 SHRA BKN014 BKN020TCU",
      "taf": "TAF LFOB 160500Z 1606/1706 27012KT CAVOK"
    },
    {
      "icao": "LFPO",
      "alert": "OK",
      "vis_m": 9999,
      "fzfg": false,
      "metar_trigger": false,
      "taf_trigger": false,
      "metar": "METAR LFPO 160630Z 25005KT CAVOK 07/05 Q1019 NOSIG",
      "taf": "TAF LFPO 160500Z 1606/1712 24008KT CAVOK"
    },
    {
      "icao": "LFSB",
      "alert": "OK",
      "vis_m": 9999,
      "fzfg": false,
      "metar_trigger": false,
      "taf_trigger": false,
      "metar": "METAR LFSB 160630Z AUTO VRB03KT 9999 FEW039 BKN052 BKN066 03/01 Q1020 NOSIG",
      "taf": "TAF LFSB 160500Z 1606/1706 VRB03KT CAVOK"
    },
    {
      "icao": "LGAV",
      "alert": "OK",
      "vis_m": 9999,
      "fzfg": false,
      "metar_trigger": false,
      "taf_trigger": false,
      "metar": "METAR LGAV 160620Z VRB03KT CAVOK 12/05 Q1015 NOSIG",
      "taf": "TAF LGAV 160500Z 1606/1706 02012KT 9999 FEW025 BKN070"
    },
    {
      "icao": "LGTS",
      "alert": "OK",
      "vis_m": 9999,
      "fzfg": false,
      "metar_trigger": false,
      "taf_trigger": false,
      "metar": "METAR LGTS 160620Z VRB03KT 9999 FEW020 08/04 Q1016 NOSIG",
      "taf": "TAF LGTS 160500Z 1606/1706 VRB03KT 9999 FEW030"
    },
    {
      "icao": "LHBP",
      "alert": "OK",
      "vis_m": 9999,
      "fzfg": false,
      "metar_trigger": false,
      "taf_trigger": false,
      "metar": "METAR LHBP 160630Z 34003KT CAVOK 03/M02 Q1015 NOSIG",
      "taf": "TAF LHBP 160515Z 1606/1706 VRB03KT CAVOK"
    },
    {
      "icao": "LHDC",
      "alert": "OK",
      "vis_m": 9999,
      "fzfg": false,
      "metar_trigger": false,
      "taf_trigger": false,
      "metar": "METAR LHDC 160615Z AUTO 14004KT 100V170 CAVOK 04/M01 Q1016 NOSIG",
      "taf": "TAF LHDC 160515Z 1606/1615 15005KT CAVOK"
    },
    {
      "icao": "LIBD",
      "alert": "OK",
      "vis_m": 9999,
      "fzfg": false,
      "metar_trigger": false,
      "taf_trigger": false,
      "metar": "METAR LIBD 160620Z 17005KT 120V220 9999 BKN020 13/10 Q1010",
      "taf": "TAF LIBD 160500Z 1606/1706 11010KT 9999 SCT030"
    },
    {
      "icao": "LIBG",
      "alert": "OK",
      "vis_m": null,
      "fzfg": false,
      "metar_trigger": false,
      "taf_trigger": false,
      "metar": "",
      "taf": ""
    },
    {
      "icao": "LIBP",
      "alert": "OK",
      "vis_m": 9999,
      "fzfg": false,
      "metar_trigger": false,
      "taf_trigger": false,
      "metar": "METAR LIBP 160620Z AUTO 06007KT 9999 SCT017/// 14/13 Q1012",
      "taf": "TAF LIBP 160500Z 1606/1706 VRB06KT 9999 SCT020"
    },
    {
      "icao": "LIBR",
      "alert": "OK",
      "vis_m": 9999,
      "fzfg": false,
      "metar_trigger": false,
      "taf_trigger": false,
      "metar": "METAR LIBR 160620Z 11009KT 9999 -RA FEW020 14/12 Q1010",
      "taf": "TAF LIBR 160500Z 1606/1706 13012KT 9999 SCT030"
    },
    {
      "icao": "LICA",
      "alert": "OK",
      "vis_m": 9999,
      "fzfg": false,
      "metar_trigger": false,
      "taf_trigger": false,
      "metar": "METAR LICA 160620Z AUTO 06010KT 9999 FEW050/// BKN078/// BKN120/// 13/10 Q1006",
      "taf": "TAF LICA 160500Z 1606/1706 08016KT 9999 RA BKN040"
    },
    {
      "icao": "LICC",
      "alert": "OK",
      "vis_m": 9999,
      "fzfg": false,
      "metar_trigger": false,
      "taf_trigger": false,
      "metar": "METAR LICC 160620Z 23004KT 9999 FEW030 07/06 Q1004",
      "taf": "TAF LICC 160500Z 1606/1706 24007KT 9999 BKN020"
    },
    {
      "icao": "LICJ",
      "alert": "OK",
      "vis_m": 9999,
      "fzfg": false,
      "metar_trigger": false,
      "taf_trigger": false,
      "metar": "METAR LICJ 160620Z VRB02KT CAVOK 09/06 Q1004",
      "taf": "TAF LICJ 160500Z 1606/1706 18008KT 9999 SCT030"
    },
    {
      "icao": "LIMC",
      "alert": "OK",
      "vis_m": 9999,
      "fzfg": false,
      "metar_trigger": false,
      "taf_trigger": false,
      "metar": "METAR LIMC 160620Z 34004KT CAVOK 04/03 Q1014 NOSIG",
      "taf": "TAF LIMC 160500Z 1606/1712 VRB05KT CAVOK"
    },
    {
      "icao": "LIME",
      "alert": "OK",
      "vis_m": 9999,
      "fzfg": false,
      "metar_trigger": false,
      "taf_trigger": false,
      "metar": "METAR LIME 160620Z 03004KT CAVOK 07/04 Q1014 NOSIG",
      "taf": "TAF LIME 160500Z 1606/1706 VRB05KT CAVOK"
    },
    {
      "icao": "LIMF",
      "alert": "OK",
      "vis_m": 9999,
      "fzfg": false,
      "metar_trigger": false,
      "taf_trigger": false,
      "metar": "METAR LIMF 160620Z VRB02KT CAVOK 06/01 Q1015",
      "taf": "TAF LIMF 160500Z 1606/1706 VRB05KT CAVOK"
    },
    {
      "icao": "LIMJ",
      "alert": "OK",
      "vis_m": 9999,
      "fzfg": false,
      "metar_trigger": false,
      "taf_trigger": false,
      "metar": "METAR LIMJ 160620Z 05017KT CAVOK 12/06 Q1013",
      "taf": "TAF LIMJ 160500Z 1606/1706 04012KT CAVOK"
    },
    {
      "icao": "LIPE",
      "alert": "OK",
      "vis_m": 7000,
      "fzfg": false,
      "metar_trigger": false,
      "taf_trigger": false,
      "metar": "METAR LIPE 160620Z 25006KT 7000 NSC 09/08 Q1014",
      "taf": "TAF LIPE 160500Z 1606/1706 VRB06KT 9999 FEW020"
    },
    {
      "icao": "LIPH",
      "alert": "OK",
      "vis_m": 9999,
      "fzfg": false,
      "metar_trigger": false,
      "taf_trigger": false,
      "metar": "METAR LIPH 160620Z 00000KT CAVOK 09/06 Q1013",
      "taf": "TAF LIPH 160500Z 1606/1706 VRB06KT CAVOK"
    },
    {
      "icao": "LIPQ",
      "alert": "OK",
      "vis_m": 9999,
      "fzfg": false,
      "metar_trigger": false,
      "taf_trigger": false,
      "metar": "METAR LIPQ 160620Z AUTO VRB02KT 9999 FEW200/// 07/04 Q1013",
      "taf": "TAF LIPQ 160500Z 1606/1706 VRB05KT 9999 FEW070"
    },
    {
      "icao": "LIPR",
      "alert": "OK",
      "vis_m": 9999,
      "fzfg": false,
      "metar_trigger": false,
      "taf_trigger": false,
      "metar": "METAR LIPR 160620Z 30011KT CAVOK 11/09 Q1013",
      "taf": "TAF LIPR 160500Z 1606/1706 30010KT 8000 FEW020"
    },
    {
      "icao": "LIPX",
      "alert": "OK",
      "vis_m": 9999,
      "fzfg": false,
      "metar_trigger": false,
      "taf_trigger": false,
      "metar": "METAR LIPX 160620Z 31003KT CAVOK 06/04 Q1014",
      "taf": "TAF LIPX 160500Z 1606/1706 VRB05KT CAVOK"
    },
    {
      "icao": "LIPY",
      "alert": "OK",
      "vis_m": 2500,
      "fzfg": false,
      "metar_trigger": false,
      "taf_trigger": false,
      "metar": "METAR LIPY 160620Z AUTO VRB02KT 2500 R22/1000U BCFG FEW013/// 08/08 Q1013",
      "taf": "TAF LIPY 160500Z 1606/1706 VRB06KT 3000 BR SCT030"
    },
    {
      "icao": "LIPZ",
      "alert": "OK",
      "vis_m": 9999,
      "fzfg": false,
      "metar_trigger": false,
      "taf_trigger": false,
      "metar": "METAR LIPZ 160620Z 36005KT CAVOK 10/06 Q1013 NOSIG",
      "taf": "TAF LIPZ 160500Z 1606/1712 01007KT CAVOK"
    },
    {
      "icao": "LIRF",
      "alert": "OK",
      "vis_m": 9999,
      "fzfg": false,
      "metar_trigger": false,
      "taf_trigger": false,
      "metar": "METAR LIRF 160620Z 02010KT CAVOK 12/07 Q1008 NOSIG",
      "taf": "TAF LIRF 160500Z 1606/1712 04012KT 9999 FEW020"
    },
    {
      "icao": "LIRN",
      "alert": "OK",
      "vis_m": 9999,
      "fzfg": false,
      "metar_trigger": false,
      "taf_trigger": false,
      "metar": "METAR LIRN 160620Z 05006KT 9999 FEW040 BKN060 12/08 Q1007 NOSIG",
      "taf": "TAF LIRN 160500Z 1606/1706 04012KT 9999 SCT030"
    },
    {
      "icao": "LIRP",
      "alert": "OK",
      "vis_m": 9999,
      "fzfg": false,
      "metar_trigger": false,
      "taf_trigger": false,
      "metar": "METAR LIRP 160615Z 18002KT CAVOK 08/07 Q1011 NOSIG",
      "taf": "TAF LIRP 160500Z 1606/1706 VRB03KT CAVOK"
    },
    {
      "icao": "LIRZ",
      "alert": "OK",
      "vis_m": 9999,
      "fzfg": false,
      "metar_trigger": false,
      "taf_trigger": false,
      "metar": "METAR LIRZ 160620Z AUTO 01009KT 9999 NCD 12/06 Q1011",
      "taf": "TAF LIRZ 160500Z 1606/1706 06013KT 9999 SCT030"
    },
    {
      "icao": "LJLJ",
      "alert": "OK",
      "vis_m": 9999,
      "fzfg": false,
      "metar_trigger": false,
      "taf_trigger": false,
      "metar": "METAR LJLJ 160630Z 31004KT 9999 FEW050 SCT200 01/01 Q1015 NOSIG",
      "taf": "TAF LJLJ 160500Z 1606/1706 VRB02KT 9999 FEW040"
    },
    {
      "icao": "LKMT",
      "alert": "OK",
      "vis_m": 8000,
      "fzfg": false,
      "metar_trigger": false,
      "taf_trigger": false,
      "metar": "METAR LKMT 160630Z VRB02KT 8000 OVC013 07/05 Q1014 NOSIG",
      "taf": "TAF LKMT 160500Z 1606/1706 24010KT 9999 BKN045"
    },
    {
      "icao": "LKPR",
      "alert": "OK",
      "vis_m": 9999,
      "fzfg": false,
      "metar_trigger": false,
      "taf_trigger": false,
      "metar": "METAR LKPR 160630Z 20010KT 9999 FEW012 BKN047 04/02 Q1014 NOSIG",
      "taf": "TAF LKPR 160500Z 1606/1712 23012KT 9999 SCT020 OVC040"
    },
    {
      "icao": "LLBG",
      "alert": "OK",
      "vis_m": 9999,
      "fzfg": false,
      "metar_trigger": false,
      "taf_trigger": false,
      "metar": "METAR LLBG 160650Z 19011KT 9999 FEW022 SCT035 16/11 Q1016 NOSIG",
      "taf": "TAF LLBG 160507Z 1606/1706 20008KT 9999 SCT035 TX20/1611Z TN09/1704Z"
    },
    {
      "icao": "LMML",
      "alert": "OK",
      "vis_m": 9999,
      "fzfg": false,
      "metar_trigger": false,
      "taf_trigger": false,
      "metar": "METAR LMML 160645Z 02015KT 9999 FEW020 13/10 Q1000 NOSIG",
      "taf": "TAF LMML 160500Z 1606/1706 01015KT 9999 SCT018"
    },
    {
      "icao": "LOWW",
      "alert": "OK",
      "vis_m": 9999,
      "fzfg": false,
      "metar_trigger": false,
      "taf_trigger": false,
      "metar": "METAR LOWW 160620Z 30008KT 270V340 9999 FEW045 BKN048 08/02 Q1016 NOSIG",
      "taf": "TAF LOWW 160515Z 1606/1712 28012KT 9999 FEW040 TX11/1615Z TN04/1705Z"
    },
    {
      "icao": "LPFR",
      "alert": "OK",
      "vis_m": 9999,
      "fzfg": false,
      "metar_trigger": false,
      "taf_trigger": false,
      "metar": "METAR LPFR 160630Z 06007KT 030V090 CAVOK 15/06 Q1018",
      "taf": "TAF LPFR 160500Z 1606/1706 05008KT CAVOK"
    },
    {
      "icao": "LPMA",
      "alert": "OK",
      "vis_m": 9999,
      "fzfg": false,
      "metar_trigger": false,
      "taf_trigger": false,
      "metar": "METAR LPMA 160630Z 01009KT 9999 VCSH BKN014 15/12 Q1017",
      "taf": "TAF LPMA 160500Z 1606/1706 02012KT 9999 SCT015 SCT030"
    },
    {
      "icao": "LPPR",
      "alert": "OK",
      "vis_m": 9999,
      "fzfg": false,
      "metar_trigger": false,
      "taf_trigger": false,
      "metar": "METAR LPPR 160630Z 03006KT 330V080 CAVOK 09/07 Q1021",
      "taf": "TAF LPPR 160500Z 1606/1706 08008KT CAVOK"
    },
    {
      "icao": "LPPS",
      "alert": "OK",
      "vis_m": 9999,
      "fzfg": false,
      "metar_trigger": false,
      "taf_trigger": false,
      "metar": "METAR LPPS 160630Z 06006KT 020V100 9999 SCT012 SCT030 14/12 Q1018",
      "taf": "TAF LPPS 160500Z 1606/1712 05008KT 9999 SCT012 SCT030"
    },
    {
      "icao": "LPPT",
      "alert": "OK",
      "vis_m": 9999,
      "fzfg": false,
      "metar_trigger": false,
      "taf_trigger": false,
      "metar": "METAR LPPT 160630Z 04004KT CAVOK 10/08 Q1020",
      "taf": "TAF LPPT 160500Z 1606/1712 06007KT CAVOK"
    },
    {
      "icao": "LQBK",
      "alert": "OK",
      "vis_m": 9999,
      "fzfg": false,
      "metar_trigger": false,
      "taf_trigger": false,
      "metar": "METAR LQBK 160630Z 13004KT CAVOK 03/M00 Q1015 NOSIG",
      "taf": "TAF LQBK 160500Z 1606/1706 15005KT CAVOK TX18/1613Z TN00/1606Z"
    },
    {
      "icao": "LQSA",
      "alert": "OK",
      "vis_m": 9999,
      "fzfg": false,
      "metar_trigger": false,
      "taf_trigger": false,
      "metar": "METAR LQSA 160630Z VRB02KT CAVOK 03/M00 Q1015 NOSIG",
      "taf": "TAF LQSA 160500Z 1606/1706 VRB02KT CAVOK TX17/1614Z TN01/1606Z"
    },
    {
      "icao": "LQTZ",
      "alert": "OK",
      "vis_m": 9999,
      "fzfg": false,
      "metar_trigger": false,
      "taf_trigger": false,
      "metar": "METAR LQTZ 160630Z 00000KT CAVOK 01/00 Q1015",
      "taf": "TAF LQTZ 160500Z 1606/1706 12005KT CAVOK TX16/1613Z TNM00/1606Z"
    },
    {
      "icao": "LRBC",
      "alert": "OK",
      "vis_m": 9999,
      "fzfg": false,
      "metar_trigger": false,
      "taf_trigger": false,
      "metar": "METAR LRBC 160630Z VRB02KT 9999 OVC065 04/M01 Q1018",
      "taf": "TAF LRBC 160500Z 1606/1615 VRB04KT CAVOK"
    },
    {
      "icao": "LRBS",
      "alert": "OK",
      "vis_m": 9999,
      "fzfg": false,
      "metar_trigger": false,
      "taf_trigger": false,
      "metar": "METAR LRBS 160630Z 00000KT CAVOK 05/01 Q1017 NOSIG",
      "taf": "TAF LRBS 160500Z 1606/1706 VRB04KT CAVOK"
    },
    {
      "icao": "LRBV",
      "alert": "OK",
      "vis_m": 9999,
      "fzfg": false,
      "metar_trigger": false,
      "taf_trigger": false,
      "metar": "METAR LRBV 160630Z 10003KT 070V130 9999 FEW068 02/M02 Q1017",
      "taf": "TAF LRBV 160500Z 1606/1615 VRB04KT 9999 SCT050"
    },
    {
      "icao": "LRCL",
      "alert": "OK",
      "vis_m": 9999,
      "fzfg": false,
      "metar_trigger": false,
      "taf_trigger": false,
      "metar": "METAR LRCL 160630Z VRB01KT CAVOK 01/M03 Q1017",
      "taf": "TAF LRCL 160500Z 1606/1615 VRB04KT CAVOK"
    },
    {
      "icao": "LRCV",
      "alert": "OK",
      "vis_m": 9999,
      "fzfg": false,
      "metar_trigger": false,
      "taf_trigger": false,
      "metar": "METAR LRCV 160630Z 28001KT CAVOK 05/03 Q1018",
      "taf": "TAF LRCV 160500Z 1606/1615 VRB04KT CAVOK"
    },
    {
      "icao": "LRIA",
      "alert": "OK",
      "vis_m": 9999,
      "fzfg": false,
      "metar_trigger": false,
      "taf_trigger": false,
      "metar": "METAR LRIA 160630Z 28003KT CAVOK 04/M02 Q1018",
      "taf": "TAF LRIA 160500Z 1606/1615 VRB04KT CAVOK"
    },
    {
      "icao": "LROP",
      "alert": "OK",
      "vis_m": 9999,
      "fzfg": false,
      "metar_trigger": false,
      "taf_trigger": false,
      "metar": "METAR LROP 160630Z VRB02KT CAVOK 06/M02 Q1017 NOSIG",
      "taf": "TAF LROP 160500Z 1606/1706 VRB04KT CAVOK"
    },
    {
      "icao": "LRSB",
      "alert": "OK",
      "vis_m": 9999,
      "fzfg": false,
      "metar_trigger": false,
      "taf_trigger": false,
      "metar": "METAR LRSB 160630Z VRB01KT CAVOK 04/M01 Q1016",
      "taf": "TAF LRSB 160500Z 1606/1706 VRB04KT CAVOK"
    },
    {
      "icao": "LRSM",
      "alert": "OK",
      "vis_m": 9999,
      "fzfg": false,
      "metar_trigger": false,
      "taf_trigger": false,
      "metar": "METAR LRSM 160630Z 10002KT CAVOK 08/M00 Q1017",
      "taf": "TAF LRSM 160500Z 1606/1615 17006KT CAVOK"
    },
    {
      "icao": "LRSV",
      "alert": "OK",
      "vis_m": 9999,
      "fzfg": false,
      "metar_trigger": false,
      "taf_trigger": false,
      "metar": "METAR LRSV 160630Z VRB01KT CAVOK 06/M02 Q1017",
      "taf": "TAF LRSV 160500Z 1606/1615 VRB04KT CAVOK"
    },
    {
      "icao": "LRTM",
      "alert": "OK",
      "vis_m": 9000,
      "fzfg": false,
      "metar_trigger": false,
      "taf_trigger": false,
      "metar": "METAR LRTM 160630Z 10004KT 9000 NSC 01/M03 Q1017",
      "taf": "TAF LRTM 160500Z 1606/1615 VRB04KT CAVOK"
    },
    {
      "icao": "LRTR",
      "alert": "OK",
      "vis_m": 9999,
      "fzfg": false,
      "metar_trigger": false,
      "taf_trigger": false,
      "metar": "METAR LRTR 160630Z 10006KT CAVOK 04/01 Q1016",
      "taf": "TAF LRTR 160500Z 1606/1706 VRB04KT CAVOK"
    },
    {
      "icao": "LTAC",
      "alert": "OK",
      "vis_m": 9999,
      "fzfg": false,
      "metar_trigger": false,
      "taf_trigger": false,
      "metar": "METAR LTAC 160620Z 21007KT 9999 FEW040 05/00 Q1011 NOSIG RMK RWY21C 20008KT RWY03L 20007KT RWY21R 19008KT RWY03R 20008KT RWY21L 21008KT",
      "taf": "TAF LTAC 160440Z 1606/1706 VRB02KT 9999 FEW040 SCT100"
    },
    {
      "icao": "LTFM",
      "alert": "OK",
      "vis_m": 9999,
      "fzfg": false,
      "metar_trigger": false,
      "taf_trigger": false,
      "metar": "METAR LTFM 160620Z 35009KT 9999 BKN018 07/05 Q1015 NOSIG RMK RWY17L 35008KT RWY34L 35009KT RWY16R 35008KT RWY36 36008KT RWY18 36008KT",
      "taf": "TAF LTFM 160440Z 1606/1712 34008KT 9999 SCT014 BKN022"
    },
    {
      "icao": "LUKK",
      "alert": "OK",
      "vis_m": 9999,
      "fzfg": false,
      "metar_trigger": false,
      "taf_trigger": false,
      "metar": "METAR LUKK 160630Z 02006KT 350V060 CAVOK 06/M01 Q1018 NOSIG",
      "taf": "TAF LUKK 160508Z 1606/1706 VRB06KT 9999 SCT040"
    },
    {
      "icao": "LWOH",
      "alert": "OK",
      "vis_m": 9999,
      "fzfg": false,
      "metar_trigger": false,
      "taf_trigger": false,
      "metar": "METAR LWOH 160650Z VRB02KT CAVOK 08/03 Q1014",
      "taf": "TAF LWOH 160530Z 1606/1706 VRB02KT CAVOK"
    },
    {
      "icao": "LWSK",
      "alert": "OK",
      "vis_m": 9999,
      "fzfg": false,
      "metar_trigger": false,
      "taf_trigger": false,
      "metar": "METAR LWSK 160650Z VRB01KT 9999 BKN018 05/02 Q1016 NOSIG",
      "taf": "TAF LWSK 160530Z 1606/1706 VRB02KT 9999 SCT020"
    },
    {
      "icao": "LYBE",
      "alert": "OK",
      "vis_m": 9999,
      "fzfg": false,
      "metar_trigger": false,
      "taf_trigger": false,
      "metar": "METAR LYBE 160630Z VRB01KT CAVOK 06/00 Q1016 NOSIG",
      "taf": "TAF LYBE 160500Z 1606/1706 11008KT CAVOK TX17/1613Z TN02/1705Z"
    },
    {
      "icao": "LYNI",
      "alert": "OK",
      "vis_m": 9999,
      "fzfg": false,
      "metar_trigger": false,
      "taf_trigger": false,
      "metar": "METAR LYNI 160630Z VRB02KT CAVOK 03/01 Q1016 NOSIG",
      "taf": "TAF LYNI 160500Z 1606/1706 05005KT CAVOK TX18/1613Z TN01/1705Z"
    },
    {
      "icao": "LYPG",
      "alert": "OK",
      "vis_m": 9999,
      "fzfg": false,
      "metar_trigger": false,
      "taf_trigger": false,
      "metar": "METAR LYPG 160630Z 34003KT 280V020 CAVOK 10/04 Q1013 NOSIG",
      "taf": "TAF LYPG 160500Z 1606/1706 18005KT CAVOK TX20/1614Z TN07/1706Z"
    },
    {
      "icao": "LZIB",
      "alert": "OK",
      "vis_m": 9999,
      "fzfg": false,
      "metar_trigger": false,
      "taf_trigger": false,
      "metar": "METAR LZIB 160630Z 30005KT 270V340 9999 BKN045 08/03 Q1016 NOSIG",
      "taf": "TAF LZIB 160515Z 1606/1706 28009KT CAVOK"
    },
    {
      "icao": "LZKZ",
      "alert": "OK",
      "vis_m": 9999,
      "fzfg": false,
      "metar_trigger": false,
      "taf_trigger": false,
      "metar": "METAR LZKZ 160630Z 35007KT CAVOK 05/M04 Q1015 NOSIG",
      "taf": "TAF LZKZ 160515Z 1606/1706 36004KT CAVOK"
    },
    {
      "icao": "LZTT",
      "alert": "OK",
      "vis_m": 9999,
      "fzfg": false,
      "metar_trigger": false,
      "taf_trigger": false,
      "metar": "METAR LZTT 160630Z 00000KT CAVOK M01/M04 Q1013 NOSIG",
      "taf": "TAF LZTT 160515Z 1606/1706 VRB02KT CAVOK"
    },
    {
      "icao": "OEJN",
      "alert": "OK",
      "vis_m": 8000,
      "fzfg": false,
      "metar_trigger": false,
      "taf_trigger": false,
      "metar": "METAR OEJN 160600Z 36004KT 8000 NSC 27/21 Q1010 NOSIG",
      "taf": "TAF OEJN 160500Z 1606/1712 30012KT 7000 NSC"
    },
    {
      "icao": "OEMA",
      "alert": "OK",
      "vis_m": 9999,
      "fzfg": false,
      "metar_trigger": false,
      "taf_trigger": false,
      "metar": "METAR OEMA 160600Z 22005KT 9999 SCT045 28/07 Q1013 NOSIG",
      "taf": "TAF OEMA 160500Z 1606/1712 29010KT 9999 SCT040"
    },
    {
      "icao": "OJAI",
      "alert": "OK",
      "vis_m": null,
      "fzfg": false,
      "metar_trigger": false,
      "taf_trigger": false,
      "metar": "",
      "taf": "TAF OJAI 160500Z 1606/1712 25012KT 1500 BR SCT030"
    },
    {
      "icao": "OMAA",
      "alert": "OK",
      "vis_m": null,
      "fzfg": false,
      "metar_trigger": false,
      "taf_trigger": false,
      "metar": "",
      "taf": ""
    },
    {
      "icao": "OMDB",
      "alert": "OK",
      "vis_m": null,
      "fzfg": false,
      "metar_trigger": false,
      "taf_trigger": false,
      "metar": "",
      "taf": ""
    },
    {
      "icao": "UAAA",
      "alert": "OK",
      "vis_m": 9999,
      "fzfg": false,
      "metar_trigger": false,
      "taf_trigger": false,
      "metar": "METAR UAAA 160630Z 02004MPS 330V080 9999 FEW100 BKN200 06/M03 Q1024 NOSIG",
      "taf": "TAF UAAA 160502Z 1606/1706 04002G07MPS 9999 SCT100 TX08/1609Z TN00/1701Z"
    },
    {
      "icao": "UBBB",
      "alert": "OK",
      "vis_m": 9999,
      "fzfg": false,
      "metar_trigger": false,
      "taf_trigger": false,
      "metar": "METAR UBBB 160630Z 17008KT 150V220 9999 FEW006 10/08 Q1008 NOSIG",
      "taf": "TAF UBBB 160458Z 1606/1706 18010KT 9999 BKN030 TX14/1610Z TN06/1701Z"
    },
    {
      "icao": "UDSG",
      "alert": "OK",
      "vis_m": 9999,
      "fzfg": false,
      "metar_trigger": false,
      "taf_trigger": false,
      "metar": "METAR UDSG 160630Z 31002KT 9999 FEW026CB BKN046 04/03 Q1009 NOSIG",
      "taf": "TAF UDSG 160458Z 1606/1706 VRB06KT 5000 BR OVC030"
    },
    {
      "icao": "UDYZ",
      "alert": "OK",
      "vis_m": 9999,
      "fzfg": false,
      "metar_trigger": false,
      "taf_trigger": false,
      "metar": "METAR UDYZ 160630Z 22004KT 180V250 9999 SCT046CB 10/07 Q1008 NOSIG",
      "taf": "TAF UDYZ 160500Z 1606/1706 20006KT 9999 OVC030"
    },
    {
      "icao": "UGKO",
      "alert": "OK",
      "vis_m": 4500,
      "fzfg": false,
      "metar_trigger": false,
      "taf_trigger": false,
      "metar": "METAR UGKO 160630Z VRB02KT 4500 -RA BR BKN014 OVC024 08/07 Q1010 NOSIG",
      "taf": "TAF UGKO 160500Z 1606/1706 25007KT 8000 OVC040 TX10/1610Z TN07/1703Z"
    }
  ]
}