{
  "ts_utc": "2026-06-18T23:07:11Z",
  "threshold_m": 150,
  "source": "stations_override.txt (ICAO list) + aviationweather.gov (METAR/TAF raw)",
  "station_count": 159,
  "stations": [
    {
      "icao": "BIKF",
      "alert": "OK",
      "vis_m": 9999,
      "fzfg": false,
      "metar_trigger": false,
      "taf_trigger": false,
      "metar": "METAR BIKF 182300Z 03011KT 9999 FEW049 BKN070 11/05 Q1001",
      "taf": "TAF BIKF 182254Z 1900/2000 04013KT CAVOK TX15/1915Z TN08/1905Z"
    },
    {
      "icao": "BKPR",
      "alert": "OK",
      "vis_m": 9999,
      "fzfg": false,
      "metar_trigger": false,
      "taf_trigger": false,
      "metar": "METAR BKPR 182300Z VRB02KT CAVOK 17/12 Q1021 NOSIG",
      "taf": ""
    },
    {
      "icao": "EBCI",
      "alert": "OK",
      "vis_m": 9999,
      "fzfg": false,
      "metar_trigger": false,
      "taf_trigger": false,
      "metar": "METAR EBCI 182250Z 15003KT 110V210 9999 FEW060CB 19/18 Q1017 NOSIG",
      "taf": "TAF EBCI 181710Z 1818/1924 20004KT CAVOK"
    },
    {
      "icao": "EDDB",
      "alert": "OK",
      "vis_m": 9999,
      "fzfg": false,
      "metar_trigger": false,
      "taf_trigger": false,
      "metar": "METAR EDDB 182250Z AUTO 09004KT CAVOK 20/17 Q1018 NOSIG",
      "taf": "TAF EDDB 181700Z 1818/1918 31005KT CAVOK"
    },
    {
      "icao": "EDDH",
      "alert": "OK",
      "vis_m": 9999,
      "fzfg": false,
      "metar_trigger": false,
      "taf_trigger": false,
      "metar": "METAR EDDH 182250Z AUTO 07004KT CAVOK 20/17 Q1017 NOSIG",
      "taf": "TAF EDDH 181700Z 1818/1924 32007KT CAVOK"
    },
    {
      "icao": "EDDK",
      "alert": "OK",
      "vis_m": 9999,
      "fzfg": false,
      "metar_trigger": false,
      "taf_trigger": false,
      "metar": "METAR EDDK 182250Z AUTO VRB02KT CAVOK 23/16 Q1016 NOSIG",
      "taf": "TAF EDDK 181700Z 1818/1924 09005KT CAVOK"
    },
    {
      "icao": "EDDN",
      "alert": "OK",
      "vis_m": 9999,
      "fzfg": false,
      "metar_trigger": false,
      "taf_trigger": false,
      "metar": "METAR EDDN 182250Z AUTO 11004KT CAVOK 22/15 Q1019",
      "taf": "TAF EDDN 181700Z 1818/1918 VRB02KT CAVOK"
    },
    {
      "icao": "EDDS",
      "alert": "OK",
      "vis_m": 9999,
      "fzfg": false,
      "metar_trigger": false,
      "taf_trigger": false,
      "metar": "METAR EDDS 182250Z AUTO VRB01KT CAVOK 22/15 Q1018",
      "taf": "TAF EDDS 181700Z 1818/1918 06006KT CAVOK"
    },
    {
      "icao": "EDFH",
      "alert": "OK",
      "vis_m": 9999,
      "fzfg": false,
      "metar_trigger": false,
      "taf_trigger": false,
      "metar": "METAR EDFH 182250Z 15007KT CAVOK 23/14 Q1019",
      "taf": "TAF EDFH 181700Z 1818/1918 22004KT CAVOK"
    },
    {
      "icao": "EDJA",
      "alert": "OK",
      "vis_m": 9999,
      "fzfg": false,
      "metar_trigger": false,
      "taf_trigger": false,
      "metar": "METAR EDJA 182250Z AUTO 00000KT 9999 // FEW150/// 19/15 Q1020",
      "taf": "TAF EDJA 181700Z 1818/1903 VRB03KT CAVOK"
    },
    {
      "icao": "EDLW",
      "alert": "OK",
      "vis_m": 9999,
      "fzfg": false,
      "metar_trigger": false,
      "taf_trigger": false,
      "metar": "METAR EDLW 182250Z AUTO 12004KT 9999 // BKN250/// 23/17 Q1015",
      "taf": "TAF EDLW 181700Z 1818/1918 13004KT CAVOK"
    },
    {
      "icao": "EDNY",
      "alert": "OK",
      "vis_m": 9999,
      "fzfg": false,
      "metar_trigger": false,
      "taf_trigger": false,
      "metar": "METAR EDNY 182250Z AUTO VRB02KT 9999 // NCD 17/16 Q1019",
      "taf": "TAF EDNY 181700Z 1818/1903 VRB03KT CAVOK"
    },
    {
      "icao": "EDSB",
      "alert": "OK",
      "vis_m": 9999,
      "fzfg": false,
      "metar_trigger": false,
      "taf_trigger": false,
      "metar": "METAR EDSB 182250Z AUTO VRB02KT 9999 // NCD 23/18 Q1016",
      "taf": "TAF EDSB 181700Z 1818/1918 VRB03KT CAVOK"
    },
    {
      "icao": "EETN",
      "alert": "OK",
      "vis_m": 9999,
      "fzfg": false,
      "metar_trigger": false,
      "taf_trigger": false,
      "metar": "METAR EETN 182250Z 25010KT 9999 BKN009 14/13 Q1011",
      "taf": "TAF EETN 181730Z 1818/1918 26010KT 9999 FEW040"
    },
    {
      "icao": "EFTU",
      "alert": "OK",
      "vis_m": 9999,
      "fzfg": false,
      "metar_trigger": false,
      "taf_trigger": false,
      "metar": "METAR EFTU 182250Z AUTO 28002KT CAVOK 12/10 Q1011",
      "taf": "TAF EFTU 182034Z 1821/1921 29004KT CAVOK"
    },
    {
      "icao": "EGBB",
      "alert": "OK",
      "vis_m": 9999,
      "fzfg": false,
      "metar_trigger": false,
      "taf_trigger": false,
      "metar": "METAR EGBB 182250Z 19003KT CAVOK 17/15 Q1013",
      "taf": "TAF EGBB 181657Z 1818/1918 20007KT 9999 SCT025"
    },
    {
      "icao": "EGGP",
      "alert": "OK",
      "vis_m": 9999,
      "fzfg": false,
      "metar_trigger": false,
      "taf_trigger": false,
      "metar": "METAR EGGP 182250Z 17007KT 130V200 CAVOK 18/14 Q1011",
      "taf": "TAF EGGP 181701Z 1818/1918 20008KT 9999 FEW030"
    },
    {
      "icao": "EGGW",
      "alert": "OK",
      "vis_m": 9999,
      "fzfg": false,
      "metar_trigger": false,
      "taf_trigger": false,
      "metar": "METAR EGGW 182250Z AUTO 19005KT 160V220 9999 NCD 18/16 Q1014",
      "taf": "TAF EGGW 181659Z 1818/1918 20009KT 9999 SCT025"
    },
    {
      "icao": "EGKK",
      "alert": "OK",
      "vis_m": 9999,
      "fzfg": false,
      "metar_trigger": false,
      "taf_trigger": false,
      "metar": "METAR EGKK 182250Z 17001KT CAVOK 18/17 Q1014",
      "taf": "TAF EGKK 181701Z 1818/1924 19008KT 9999 SCT025"
    },
    {
      "icao": "EGNM",
      "alert": "OK",
      "vis_m": 9999,
      "fzfg": false,
      "metar_trigger": false,
      "taf_trigger": false,
      "metar": "METAR EGNM 182250Z 19010KT 9999 SCT026 SCT039 19/15 Q1012",
      "taf": "TAF EGNM 181704Z 1818/1918 29014KT 9999 SCT035"
    },
    {
      "icao": "EGPD",
      "alert": "OK",
      "vis_m": 9999,
      "fzfg": false,
      "metar_trigger": false,
      "taf_trigger": false,
      "metar": "METAR EGPD 182250Z AUTO 19010KT 9999 NCD 16/13 Q1007",
      "taf": "TAF EGPD 181655Z 1818/1918 17008KT 9999 FEW018"
    },
    {
      "icao": "EGPF",
      "alert": "OK",
      "vis_m": 6000,
      "fzfg": false,
      "metar_trigger": false,
      "taf_trigger": false,
      "metar": "METAR EGPF 182250Z AUTO 07005KT 6000 -RA SCT007/// BKN011/// OVC039/// //////CB 15/15 Q1007 RERA REDZ",
      "taf": ""
    },
    {
      "icao": "EHBK",
      "alert": "OK",
      "vis_m": 6000,
      "fzfg": false,
      "metar_trigger": false,
      "taf_trigger": false,
      "metar": "METAR EHBK 182255Z AUTO 23015KT 200V290 6000 +TSRA FEW002 BKN015CB BKN047 20/17 Q1019",
      "taf": "TAF EHBK 181723Z 1818/1924 22004KT 9999 FEW045"
    },
    {
      "icao": "EHEH",
      "alert": "OK",
      "vis_m": 9999,
      "fzfg": false,
      "metar_trigger": false,
      "taf_trigger": false,
      "metar": "METAR EHEH 182255Z AUTO 09012KT 060V140 9999 -TSRA FEW000 SCT005 BKN015CB 20/19 Q1016 RERA WHT",
      "taf": "TAF EHEH 181747Z 1818/1924 23004KT CAVOK"
    },
    {
      "icao": "EKBI",
      "alert": "OK",
      "vis_m": 8000,
      "fzfg": false,
      "metar_trigger": false,
      "taf_trigger": false,
      "metar": "METAR EKBI 182250Z AUTO 14003KT 8000 OVC200/// 15/15 Q1017",
      "taf": "TAF EKBI 182027Z 1821/1921 24004KT 9999 SCT035"
    },
    {
      "icao": "EKCH",
      "alert": "OK",
      "vis_m": 9999,
      "fzfg": false,
      "metar_trigger": false,
      "taf_trigger": false,
      "metar": "METAR EKCH 182250Z AUTO 22001KT 9999 NCD 16/15 Q1017 NOSIG",
      "taf": "TAF EKCH 182027Z 1821/1921 26006KT 9999 SCT035 BKN040"
    },
    {
      "icao": "ENAL",
      "alert": "OK",
      "vis_m": 9999,
      "fzfg": false,
      "metar_trigger": false,
      "taf_trigger": false,
      "metar": "METAR ENAL 182250Z AUTO 11003KT 080V170 9999 -RA BKN051/// BKN059/// 13/12 Q1010",
      "taf": "TAF ENAL 182000Z 1821/1906 VRB04KT 9999 BKN050"
    },
    {
      "icao": "ENBR",
      "alert": "OK",
      "vis_m": 9999,
      "fzfg": false,
      "metar_trigger": false,
      "taf_trigger": false,
      "metar": "METAR ENBR 182250Z 14010KT 9999 -SHRA NSC 13/11 Q1012 RMK WIND 1200FT 16018KT",
      "taf": "TAF ENBR 181700Z 1818/1918 17012KT 9999 FEW020 SCT050"
    },
    {
      "icao": "ENGM",
      "alert": "OK",
      "vis_m": 9999,
      "fzfg": false,
      "metar_trigger": false,
      "taf_trigger": false,
      "metar": "METAR ENGM 182250Z 21005KT CAVOK 15/11 Q1012",
      "taf": "TAF ENGM 181700Z 1818/1918 20008KT CAVOK"
    },
    {
      "icao": "ENHD",
      "alert": "OK",
      "vis_m": 6000,
      "fzfg": false,
      "metar_trigger": false,
      "taf_trigger": false,
      "metar": "METAR ENHD 182250Z AUTO 16009KT 6000 RA OVC032/// 13/12 Q1013 REDZRA",
      "taf": "TAF ENHD 181400Z 1815/1822 18009KT 9999 FEW001 SCT040"
    },
    {
      "icao": "ENTC",
      "alert": "OK",
      "vis_m": 9999,
      "fzfg": false,
      "metar_trigger": false,
      "taf_trigger": false,
      "metar": "METAR ENTC 182250Z 02011KT CAVOK 07/03 Q1011 RMK WIND 2600FT 10008KT",
      "taf": "TAF ENTC 181700Z 1818/1918 02008KT 9999 FEW030"
    },
    {
      "icao": "ENTO",
      "alert": "OK",
      "vis_m": 6000,
      "fzfg": false,
      "metar_trigger": false,
      "taf_trigger": false,
      "metar": "METAR ENTO 182250Z AUTO 23004KT 6000 // NCD 16/10 Q1013",
      "taf": "TAF ENTO 181700Z 1818/1918 22008KT CAVOK"
    },
    {
      "icao": "ENVA",
      "alert": "OK",
      "vis_m": 9999,
      "fzfg": false,
      "metar_trigger": false,
      "taf_trigger": false,
      "metar": "METAR ENVA 182250Z 10005KT 9999 FEW010 11/11 Q1013 RMK WIND 670FT 14011KT",
      "taf": "TAF ENVA 181700Z 1818/1918 VRB05KT 9999 FEW012 BKN025"
    },
    {
      "icao": "ENZV",
      "alert": "OK",
      "vis_m": 9999,
      "fzfg": false,
      "metar_trigger": false,
      "taf_trigger": false,
      "metar": "METAR ENZV 182250Z 17008KT 9999 -RA FEW015 BKN040 14/12 Q1013",
      "taf": "TAF ENZV 181700Z 1818/1918 19010KT 9999 SCT025"
    },
    {
      "icao": "EPGD",
      "alert": "OK",
      "vis_m": 9999,
      "fzfg": false,
      "metar_trigger": false,
      "taf_trigger": false,
      "metar": "METAR EPGD 182300Z VRB02KT CAVOK 13/11 Q1019",
      "taf": "TAF EPGD 181730Z 1818/1918 28010KT 9999 SCT030"
    },
    {
      "icao": "EPKK",
      "alert": "OK",
      "vis_m": 9999,
      "fzfg": false,
      "metar_trigger": false,
      "taf_trigger": false,
      "metar": "METAR EPKK 182300Z VRB01KT CAVOK 18/16 Q1020",
      "taf": "TAF EPKK 182030Z 1821/1921 26003KT CAVOK"
    },
    {
      "icao": "EPKT",
      "alert": "OK",
      "vis_m": 9999,
      "fzfg": false,
      "metar_trigger": false,
      "taf_trigger": false,
      "metar": "METAR EPKT 182300Z 01001KT CAVOK 17/16 Q1020",
      "taf": "TAF EPKT 181730Z 1818/1918 25005KT CAVOK"
    },
    {
      "icao": "EPLB",
      "alert": "OK",
      "vis_m": 9999,
      "fzfg": false,
      "metar_trigger": false,
      "taf_trigger": false,
      "metar": "METAR EPLB 182300Z 28002KT CAVOK 19/16 Q1019",
      "taf": "TAF EPLB 181730Z 1818/1918 30010KT CAVOK"
    },
    {
      "icao": "EPMO",
      "alert": "OK",
      "vis_m": 8000,
      "fzfg": false,
      "metar_trigger": false,
      "taf_trigger": false,
      "metar": "METAR EPMO 182300Z 24005KT 8000 FEW036 17/16 Q1019",
      "taf": "TAF EPMO 181730Z 1818/1918 27010KT CAVOK"
    },
    {
      "icao": "EPPO",
      "alert": "OK",
      "vis_m": 9999,
      "fzfg": false,
      "metar_trigger": false,
      "taf_trigger": false,
      "metar": "METAR EPPO 182300Z VRB01KT CAVOK 18/18 Q1019",
      "taf": "TAF EPPO 181730Z 1818/1918 27007KT 9999 SCT040"
    },
    {
      "icao": "EPRA",
      "alert": "OK",
      "vis_m": 9999,
      "fzfg": false,
      "metar_trigger": false,
      "taf_trigger": false,
      "metar": "METAR EPRA 182300Z 22002KT CAVOK 16/15 Q1019",
      "taf": "TAF EPRA 182030Z 1821/1906 VRB02KT CAVOK"
    },
    {
      "icao": "EPRZ",
      "alert": "OK",
      "vis_m": 9999,
      "fzfg": false,
      "metar_trigger": false,
      "taf_trigger": false,
      "metar": "METAR EPRZ 182300Z 24005KT CAVOK 19/15 Q1020",
      "taf": "TAF EPRZ 181730Z 1818/1918 28008KT CAVOK"
    },
    {
      "icao": "EPSC",
      "alert": "OK",
      "vis_m": 9999,
      "fzfg": false,
      "metar_trigger": false,
      "taf_trigger": false,
      "metar": "METAR EPSC 182300Z 12002KT CAVOK 16/15 Q1019",
      "taf": "TAF EPSC 181730Z 1818/1918 02006KT 9999 SCT040"
    },
    {
      "icao": "EPSY",
      "alert": "OK",
      "vis_m": 8000,
      "fzfg": false,
      "metar_trigger": false,
      "taf_trigger": false,
      "metar": "METAR EPSY 182300Z 00000KT 8000 SCT038 13/13 Q1019",
      "taf": "TAF EPSY 182030Z 1821/1906 29008KT CAVOK"
    },
    {
      "icao": "EPWA",
      "alert": "OK",
      "vis_m": 9999,
      "fzfg": false,
      "metar_trigger": false,
      "taf_trigger": false,
      "metar": "METAR EPWA 182300Z 00000KT 9999 BKN039 17/16 Q1019 NOSIG",
      "taf": "TAF EPWA 182030Z 1821/1921 VRB04KT CAVOK"
    },
    {
      "icao": "EPWR",
      "alert": "OK",
      "vis_m": 9999,
      "fzfg": false,
      "metar_trigger": false,
      "taf_trigger": false,
      "metar": "METAR EPWR 182300Z 17002KT CAVOK 19/17 Q1019",
      "taf": "TAF EPWR 182030Z 1821/1921 VRB02KT CAVOK"
    },
    {
      "icao": "ESGG",
      "alert": "OK",
      "vis_m": 9999,
      "fzfg": false,
      "metar_trigger": false,
      "taf_trigger": false,
      "metar": "METAR ESGG 182250Z 19005KT CAVOK 12/10 Q1016",
      "taf": "TAF ESGG 182030Z 1821/1921 23005KT CAVOK"
    },
    {
      "icao": "ESKN",
      "alert": "OK",
      "vis_m": 9999,
      "fzfg": false,
      "metar_trigger": false,
      "taf_trigger": false,
      "metar": "METAR ESKN 182250Z 25005KT CAVOK 13/12 Q1014",
      "taf": "TAF ESKN 182030Z 1821/1921 24006KT CAVOK"
    },
    {
      "icao": "ESMS",
      "alert": "OK",
      "vis_m": 9999,
      "fzfg": false,
      "metar_trigger": false,
      "taf_trigger": false,
      "metar": "METAR ESMS 182250Z 18003KT CAVOK 15/15 Q1017",
      "taf": "TAF ESMS 182027Z 1821/1921 26005KT 9999 FEW035"
    },
    {
      "icao": "ESSA",
      "alert": "OK",
      "vis_m": 9999,
      "fzfg": false,
      "metar_trigger": false,
      "taf_trigger": false,
      "metar": "METAR ESSA 182250Z 25006KT CAVOK 15/11 Q1012 NOSIG",
      "taf": "TAF ESSA 182030Z 1821/1921 25007KT CAVOK"
    },
    {
      "icao": "EYKA",
      "alert": "OK",
      "vis_m": 9999,
      "fzfg": false,
      "metar_trigger": false,
      "taf_trigger": false,
      "metar": "METAR EYKA 182250Z 29007KT 9999 BKN026 OVC031 15/13 Q1017",
      "taf": "TAF EYKA 182302Z 1900/1924 27010KT 9000 OVC020"
    },
    {
      "icao": "EYPA",
      "alert": "OK",
      "vis_m": 9999,
      "fzfg": false,
      "metar_trigger": false,
      "taf_trigger": false,
      "metar": "METAR EYPA 182250Z AUTO VRB04KT 9999 OVC050/// 15/14 Q1016",
      "taf": "TAF EYPA 182301Z 1900/1924 VRB03KT 9000 OVC025"
    },
    {
      "icao": "EYVI",
      "alert": "OK",
      "vis_m": 9999,
      "fzfg": false,
      "metar_trigger": false,
      "taf_trigger": false,
      "metar": "METAR EYVI 182250Z 29006KT 260V320 9999 FEW011 BKN020 OVC025 15/13 Q1017 NOSIG",
      "taf": "TAF EYVI 182303Z 1900/1924 28010KT 9000 SCT010 OVC015"
    },
    {
      "icao": "GCFV",
      "alert": "OK",
      "vis_m": 9999,
      "fzfg": false,
      "metar_trigger": false,
      "taf_trigger": false,
      "metar": "METAR GCFV 182300Z AUTO 36012KT 9999 OVC022 21/15 Q1018",
      "taf": "TAF GCFV 182000Z 1821/1921 35010KT 9999 SCT025 TX28/1914Z TN20/1906Z"
    },
    {
      "icao": "GCLP",
      "alert": "OK",
      "vis_m": 9999,
      "fzfg": false,
      "metar_trigger": false,
      "taf_trigger": false,
      "metar": "METAR GCLP 182300Z 36015KT 9999 FEW025 21/16 Q1018 NOSIG",
      "taf": "TAF GCLP 182000Z 1821/1921 02022KT 9999 SCT025 TX26/1914Z TN20/1906Z"
    },
    {
      "icao": "GCTS",
      "alert": "OK",
      "vis_m": 9999,
      "fzfg": false,
      "metar_trigger": false,
      "taf_trigger": false,
      "metar": "METAR GCTS 182300Z 09009KT 9999 BKN022 21/17 Q1019 NOSIG",
      "taf": "TAF GCTS 182000Z 1821/1921 12010KT 9999 BKN025 TX27/1914Z TN21/1906Z"
    },
    {
      "icao": "GMAD",
      "alert": "OK",
      "vis_m": 8000,
      "fzfg": false,
      "metar_trigger": false,
      "taf_trigger": false,
      "metar": "METAR GMAD 182300Z 26006KT 8000 SCT010 SCT026 21/17 Q1015 NOSIG",
      "taf": "TAF GMAD 181700Z 1818/1924 20008KT 8000 BKN016"
    },
    {
      "icao": "GMMN",
      "alert": "OK",
      "vis_m": 9999,
      "fzfg": false,
      "metar_trigger": false,
      "taf_trigger": false,
      "metar": "METAR GMMN 182300Z 32004KT 9999 BKN008 20/17 Q1014 NOSIG",
      "taf": "TAF GMMN 181700Z 1818/1924 32010KT CAVOK"
    },
    {
      "icao": "GMMX",
      "alert": "OK",
      "vis_m": 9999,
      "fzfg": false,
      "metar_trigger": false,
      "taf_trigger": false,
      "metar": "METAR GMMX 182300Z 26010KT CAVOK 20/16 Q1015 NOSIG",
      "taf": "TAF GMMX 181700Z 1818/1924 06006KT 8000 NSC"
    },
    {
      "icao": "HEGN",
      "alert": "OK",
      "vis_m": 9999,
      "fzfg": false,
      "metar_trigger": false,
      "taf_trigger": false,
      "metar": "METAR HEGN 182200Z 30011KT CAVOK 29/08 Q1007 NOSIG",
      "taf": "TAF HEGN 182300Z 1900/2006 30012KT CAVOK"
    },
    {
      "icao": "HEMA",
      "alert": "OK",
      "vis_m": 9999,
      "fzfg": false,
      "metar_trigger": false,
      "taf_trigger": false,
      "metar": "METAR HEMA 182200Z 32008KT CAVOK 30/05 Q1006 NOSIG",
      "taf": "TAF HEMA 182300Z 1900/2006 26010KT CAVOK"
    },
    {
      "icao": "HESH",
      "alert": "OK",
      "vis_m": 9999,
      "fzfg": false,
      "metar_trigger": false,
      "taf_trigger": false,
      "metar": "METAR HESH 182200Z 35012KT CAVOK 31/16 Q1006 NOSIG",
      "taf": "TAF HESH 182300Z 1900/2006 34010KT CAVOK"
    },
    {
      "icao": "HESX",
      "alert": "OK",
      "vis_m": 9999,
      "fzfg": false,
      "metar_trigger": false,
      "taf_trigger": false,
      "metar": "METAR HESX 182200Z 01006KT CAVOK 23/14 Q1011 NOSIG",
      "taf": "TAF HESX 182300Z 1900/2006 VRB03KT CAVOK"
    },
    {
      "icao": "LATI",
      "alert": "OK",
      "vis_m": 9999,
      "fzfg": false,
      "metar_trigger": false,
      "taf_trigger": false,
      "metar": "METAR LATI 182250Z VRB02KT CAVOK 21/16 Q1016 NOSIG",
      "taf": "TAF LATI 182300Z 1900/1924 VRB03KT CAVOK TX35/1912Z TN18/1904Z"
    },
    {
      "icao": "LBPD",
      "alert": "OK",
      "vis_m": 9999,
      "fzfg": false,
      "metar_trigger": false,
      "taf_trigger": false,
      "metar": "METAR LBPD 182300Z AUTO 10004KT 9999 NCD 18/15 Q1019",
      "taf": "TAF LBPD 181700Z 1818/1918 10010KT 9999 SCT060"
    },
    {
      "icao": "LBSF",
      "alert": "OK",
      "vis_m": 9999,
      "fzfg": false,
      "metar_trigger": false,
      "taf_trigger": false,
      "metar": "METAR LBSF 182300Z AUTO VRB01KT 9999 FEW071/// 14/12 Q1021 NOSIG",
      "taf": "TAF LBSF 181700Z 1818/1918 03010KT 9999 SCT060"
    },
    {
      "icao": "LBWN",
      "alert": "OK",
      "vis_m": 9999,
      "fzfg": false,
      "metar_trigger": false,
      "taf_trigger": false,
      "metar": "METAR LBWN 182300Z AUTO 25003KT 210V330 9999 NCD 15/15 Q1018 NOSIG",
      "taf": "TAF LBWN 181700Z 1818/1918 VRB04KT 9999 SCT045"
    },
    {
      "icao": "LCLK",
      "alert": "OK",
      "vis_m": 9999,
      "fzfg": false,
      "metar_trigger": false,
      "taf_trigger": false,
      "metar": "METAR LCLK 182300Z 29005KT CAVOK 21/19 Q1007 NOSIG",
      "taf": "TAF LCLK 181730Z 1818/1918 22016KT CAVOK"
    },
    {
      "icao": "LCPH",
      "alert": "OK",
      "vis_m": 9999,
      "fzfg": false,
      "metar_trigger": false,
      "taf_trigger": false,
      "metar": "METAR LCPH 182300Z 03005KT 010V080 9999 FEW020 21/17 Q1007 NOSIG",
      "taf": "TAF LCPH 181730Z 1818/1918 32010KT 9999 SCT020"
    },
    {
      "icao": "LEAL",
      "alert": "OK",
      "vis_m": 9999,
      "fzfg": false,
      "metar_trigger": false,
      "taf_trigger": false,
      "metar": "METAR LEAL 182300Z 05006KT 020V080 CAVOK 25/21 Q1016 NOSIG",
      "taf": "TAF LEAL 181700Z 1818/1918 08014KT CAVOK TX32/1912Z TN20/1905Z"
    },
    {
      "icao": "LEBB",
      "alert": "OK",
      "vis_m": 9999,
      "fzfg": false,
      "metar_trigger": false,
      "taf_trigger": false,
      "metar": "METAR LEBB 182300Z AUTO 06003KT 020V080 9999 OVC007 21/20 Q1016",
      "taf": ""
    },
    {
      "icao": "LEBL",
      "alert": "OK",
      "vis_m": 9999,
      "fzfg": false,
      "metar_trigger": false,
      "taf_trigger": false,
      "metar": "METAR LEBL 182300Z 07006KT 030V100 CAVOK 24/20 Q1018 NOSIG",
      "taf": "TAF LEBL 181700Z 1818/1918 08010KT CAVOK TX28/1912Z TN22/1906Z"
    },
    {
      "icao": "LECH",
      "alert": "OK",
      "vis_m": 9999,
      "fzfg": false,
      "metar_trigger": false,
      "taf_trigger": false,
      "metar": "METAR LECH 182300Z AUTO 08003KT 030V110 CAVOK 20/17 Q1019",
      "taf": "TAF LECH 181700Z 1818/1918 11010KT CAVOK TX31/1912Z TN21/1905Z"
    },
    {
      "icao": "LEMD",
      "alert": "OK",
      "vis_m": 9999,
      "fzfg": false,
      "metar_trigger": false,
      "taf_trigger": false,
      "metar": "METAR LEMD 182300Z 16006KT CAVOK 27/08 Q1016 NOSIG",
      "taf": "TAF LEMD 181700Z 1818/1924 16006KT CAVOK TX36/1916Z TN19/1905Z"
    },
    {
      "icao": "LEMG",
      "alert": "OK",
      "vis_m": 9999,
      "fzfg": false,
      "metar_trigger": false,
      "taf_trigger": false,
      "metar": "METAR LEMG 182300Z 09003KT CAVOK 23/19 Q1015 NOSIG",
      "taf": "TAF LEMG 181700Z 1818/1918 14010KT CAVOK TX32/1914Z TN21/1906Z"
    },
    {
      "icao": "LEVC",
      "alert": "OK",
      "vis_m": 9999,
      "fzfg": false,
      "metar_trigger": false,
      "taf_trigger": false,
      "metar": "METAR LEVC 182300Z VRB02KT 9999 FEW012 23/20 Q1017 NOSIG",
      "taf": "TAF LEVC 181700Z 1818/1918 09008KT CAVOK TX31/1912Z TN19/1905Z"
    },
    {
      "icao": "LEXJ",
      "alert": "OK",
      "vis_m": 9999,
      "fzfg": false,
      "metar_trigger": false,
      "taf_trigger": false,
      "metar": "METAR LEXJ 182300Z AUTO VRB01KT 9999 OVC009 20/19 Q1015",
      "taf": ""
    },
    {
      "icao": "LEZG",
      "alert": "OK",
      "vis_m": 9999,
      "fzfg": false,
      "metar_trigger": false,
      "taf_trigger": false,
      "metar": "METAR LEZG 182300Z 10012KT 080V140 CAVOK 25/08 Q1016 NOSIG",
      "taf": "TAF LEZG 181700Z 1818/1918 12010KT CAVOK TX37/1915Z TN20/1905Z"
    },
    {
      "icao": "LEZL",
      "alert": "OK",
      "vis_m": 9999,
      "fzfg": false,
      "metar_trigger": false,
      "taf_trigger": false,
      "metar": "METAR LEZL 182300Z 22006KT 190V250 CAVOK 26/16 Q1013 NOSIG",
      "taf": "TAF LEZL 182000Z 1821/1921 21010KT CAVOK TX39/1915Z TN22/1906Z"
    },
    {
      "icao": "LFBD",
      "alert": "OK",
      "vis_m": 9999,
      "fzfg": false,
      "metar_trigger": false,
      "taf_trigger": false,
      "metar": "METAR LFBD 182300Z AUTO VRB03KT 9999 ///TCU 26/19 Q1014 BECMG NSC",
      "taf": "TAF LFBD 181700Z 1818/1924 19010KT CAVOK TX36/1818Z TN21/1906Z"
    },
    {
      "icao": "LFLL",
      "alert": "OK",
      "vis_m": 9999,
      "fzfg": false,
      "metar_trigger": false,
      "taf_trigger": false,
      "metar": "METAR LFLL 182230Z 13006KT CAVOK 25/11 Q1018 NOSIG",
      "taf": "TAF LFLL 181700Z 1818/1924 17008KT CAVOK"
    },
    {
      "icao": "LFLS",
      "alert": "OK",
      "vis_m": 9999,
      "fzfg": false,
      "metar_trigger": false,
      "taf_trigger": false,
      "metar": "METAR LFLS 182300Z AUTO 08007KT CAVOK 19/15 Q1019",
      "taf": ""
    },
    {
      "icao": "LFMN",
      "alert": "OK",
      "vis_m": 9999,
      "fzfg": false,
      "metar_trigger": false,
      "taf_trigger": false,
      "metar": "METAR LFMN 182300Z 30004KT 270V330 CAVOK 23/18 Q1018 NOSIG",
      "taf": "TAF LFMN 182000Z 1821/2003 VRB03KT CAVOK"
    },
    {
      "icao": "LFOB",
      "alert": "OK",
      "vis_m": 9999,
      "fzfg": false,
      "metar_trigger": false,
      "taf_trigger": false,
      "metar": "METAR LFOB 182300Z AUTO VRB02KT CAVOK 19/18 Q1015 NOSIG",
      "taf": "TAF LFOB 181700Z 1818/1918 VRB04KT CAVOK"
    },
    {
      "icao": "LFPO",
      "alert": "OK",
      "vis_m": 9999,
      "fzfg": false,
      "metar_trigger": false,
      "taf_trigger": false,
      "metar": "METAR LFPO 182300Z AUTO 00000KT CAVOK 21/19 Q1014 NOSIG",
      "taf": "TAF LFPO 181700Z 1818/1924 19003KT CAVOK"
    },
    {
      "icao": "LFSB",
      "alert": "OK",
      "vis_m": 9999,
      "fzfg": false,
      "metar_trigger": false,
      "taf_trigger": false,
      "metar": "METAR LFSB 182300Z AUTO 00000KT CAVOK 19/15 Q1017 NOSIG",
      "taf": "TAF LFSB 181700Z 1818/1918 VRB04KT CAVOK"
    },
    {
      "icao": "LGAV",
      "alert": "OK",
      "vis_m": 9999,
      "fzfg": false,
      "metar_trigger": false,
      "taf_trigger": false,
      "metar": "METAR LGAV 182250Z 02008KT CAVOK 25/11 Q1014 NOSIG",
      "taf": "TAF LGAV 181700Z 1818/1918 03012KT 9999 FEW025"
    },
    {
      "icao": "LGTS",
      "alert": "OK",
      "vis_m": 9999,
      "fzfg": false,
      "metar_trigger": false,
      "taf_trigger": false,
      "metar": "METAR LGTS 182250Z 05006KT 9999 SHRA FEW018TCU BKN025 22/19 Q1017 NOSIG",
      "taf": ""
    },
    {
      "icao": "LHBP",
      "alert": "OK",
      "vis_m": 9999,
      "fzfg": false,
      "metar_trigger": false,
      "taf_trigger": false,
      "metar": "METAR LHBP 182300Z 00000KT CAVOK 19/14 Q1020 NOSIG",
      "taf": "TAF LHBP 181715Z 1818/1918 VRB05KT CAVOK"
    },
    {
      "icao": "LHDC",
      "alert": "OK",
      "vis_m": 9999,
      "fzfg": false,
      "metar_trigger": false,
      "taf_trigger": false,
      "metar": "METAR LHDC 182245Z AUTO 05002KT CAVOK 17/13 Q1020",
      "taf": "TAF LHDC 181715Z 1818/1903 VRB03KT CAVOK"
    },
    {
      "icao": "LIBD",
      "alert": "OK",
      "vis_m": 9999,
      "fzfg": false,
      "metar_trigger": false,
      "taf_trigger": false,
      "metar": "METAR LIBD 182250Z 23005KT CAVOK 20/14 Q1018",
      "taf": "TAF LIBD 181700Z 1818/1918 28006KT CAVOK"
    },
    {
      "icao": "LIBG",
      "alert": "OK",
      "vis_m": 9999,
      "fzfg": false,
      "metar_trigger": false,
      "taf_trigger": false,
      "metar": "METAR LIBG 182250Z AUTO 01010KT 9999 NCD 26/10 Q1016",
      "taf": "TAF LIBG 181700Z 1818/1918 35008KT CAVOK"
    },
    {
      "icao": "LIBP",
      "alert": "OK",
      "vis_m": 9999,
      "fzfg": false,
      "metar_trigger": false,
      "taf_trigger": false,
      "metar": "METAR LIBP 182250Z AUTO 21005KT 9999 NCD 19/14 Q1019",
      "taf": "TAF LIBP 181700Z 1818/1918 VRB05KT CAVOK"
    },
    {
      "icao": "LIBR",
      "alert": "OK",
      "vis_m": 9999,
      "fzfg": false,
      "metar_trigger": false,
      "taf_trigger": false,
      "metar": "METAR LIBR 182250Z 32009KT CAVOK 24/19 Q1016",
      "taf": "TAF LIBR 181700Z 1818/1918 33012KT CAVOK"
    },
    {
      "icao": "LICA",
      "alert": "OK",
      "vis_m": 9999,
      "fzfg": false,
      "metar_trigger": false,
      "taf_trigger": false,
      "metar": "METAR LICA 182250Z AUTO 08004KT 9999 NCD 20/19 Q1018",
      "taf": "TAF LICA 181700Z 1818/1918 VRB04KT CAVOK"
    },
    {
      "icao": "LICC",
      "alert": "OK",
      "vis_m": 9999,
      "fzfg": false,
      "metar_trigger": false,
      "taf_trigger": false,
      "metar": "METAR LICC 182250Z 25005KT CAVOK 23/15 Q1017",
      "taf": "TAF LICC 181700Z 1818/1918 VRB05KT CAVOK"
    },
    {
      "icao": "LICJ",
      "alert": "OK",
      "vis_m": 9999,
      "fzfg": false,
      "metar_trigger": false,
      "taf_trigger": false,
      "metar": "METAR LICJ 182250Z 20004KT 170V240 CAVOK 22/20 Q1017",
      "taf": "TAF LICJ 181700Z 1818/1918 06015KT CAVOK"
    },
    {
      "icao": "LIMC",
      "alert": "OK",
      "vis_m": 9999,
      "fzfg": false,
      "metar_trigger": false,
      "taf_trigger": false,
      "metar": "METAR LIMC 182250Z 03005KT CAVOK 22/18 Q1019 NOSIG",
      "taf": "TAF LIMC 181700Z 1818/1924 VRB05KT CAVOK"
    },
    {
      "icao": "LIME",
      "alert": "OK",
      "vis_m": 9999,
      "fzfg": false,
      "metar_trigger": false,
      "taf_trigger": false,
      "metar": "METAR LIME 182250Z AUTO 35003KT 9999 NCD 25/18 Q1020",
      "taf": "TAF LIME 181700Z 1818/1918 VRB05KT CAVOK"
    },
    {
      "icao": "LIMF",
      "alert": "OK",
      "vis_m": 9999,
      "fzfg": false,
      "metar_trigger": false,
      "taf_trigger": false,
      "metar": "METAR LIMF 182250Z 32006KT 300V360 CAVOK 26/17 Q1019",
      "taf": "TAF LIMF 181700Z 1818/1918 VRB05KT CAVOK"
    },
    {
      "icao": "LIMJ",
      "alert": "OK",
      "vis_m": 9999,
      "fzfg": false,
      "metar_trigger": false,
      "taf_trigger": false,
      "metar": "METAR LIMJ 182250Z 33005KT 290V360 CAVOK 24/12 Q1018",
      "taf": "TAF LIMJ 181700Z 1818/1918 VRB05KT CAVOK"
    },
    {
      "icao": "LIPE",
      "alert": "OK",
      "vis_m": 9999,
      "fzfg": false,
      "metar_trigger": false,
      "taf_trigger": false,
      "metar": "METAR LIPE 182250Z AUTO VRB01KT 9999 NCD 24/17 Q1018",
      "taf": "TAF LIPE 181700Z 1818/1918 10010KT CAVOK"
    },
    {
      "icao": "LIPH",
      "alert": "OK",
      "vis_m": 9999,
      "fzfg": false,
      "metar_trigger": false,
      "taf_trigger": false,
      "metar": "METAR LIPH 182250Z AUTO 36002KT 9999 NCD 24/20 Q1018",
      "taf": "TAF LIPH 181700Z 1818/1918 VRB05KT CAVOK"
    },
    {
      "icao": "LIPQ",
      "alert": "OK",
      "vis_m": null,
      "fzfg": false,
      "metar_trigger": false,
      "taf_trigger": false,
      "metar": "METAR LIPQ 182250Z AUTO 05003KT 010V080 //// // NCD 23/18 Q1019",
      "taf": "TAF LIPQ 181700Z 1818/1918 VRB05KT CAVOK"
    },
    {
      "icao": "LIPR",
      "alert": "OK",
      "vis_m": 9999,
      "fzfg": false,
      "metar_trigger": false,
      "taf_trigger": false,
      "metar": "METAR LIPR 182250Z AUTO VRB01KT 9999 NCD 22/17 Q1018",
      "taf": "TAF LIPR 181700Z 1818/1918 08010KT CAVOK"
    },
    {
      "icao": "LIPX",
      "alert": "OK",
      "vis_m": 9999,
      "fzfg": false,
      "metar_trigger": false,
      "taf_trigger": false,
      "metar": "METAR LIPX 182250Z 06004KT CAVOK 26/18 Q1019",
      "taf": "TAF LIPX 181700Z 1818/1918 11006KT CAVOK"
    },
    {
      "icao": "LIPY",
      "alert": "OK",
      "vis_m": 9999,
      "fzfg": false,
      "metar_trigger": false,
      "taf_trigger": false,
      "metar": "METAR LIPY 182250Z AUTO 18004KT 140V210 9999 NCD 22/13 Q1018",
      "taf": "TAF LIPY 181700Z 1818/1918 VRB05KT CAVOK"
    },
    {
      "icao": "LIPZ",
      "alert": "OK",
      "vis_m": 9999,
      "fzfg": false,
      "metar_trigger": false,
      "taf_trigger": false,
      "metar": "METAR LIPZ 182250Z 34003KT CAVOK 24/20 Q1019 NOSIG",
      "taf": "TAF LIPZ 181700Z 1818/1924 VRB05KT CAVOK"
    },
    {
      "icao": "LIRF",
      "alert": "OK",
      "vis_m": 9999,
      "fzfg": false,
      "metar_trigger": false,
      "taf_trigger": false,
      "metar": "METAR LIRF 182250Z VRB02KT CAVOK 23/21 Q1018 NOSIG",
      "taf": "TAF LIRF 181700Z 1818/1924 VRB04KT CAVOK"
    },
    {
      "icao": "LIRN",
      "alert": "OK",
      "vis_m": 9999,
      "fzfg": false,
      "metar_trigger": false,
      "taf_trigger": false,
      "metar": "METAR LIRN 182250Z 36002KT CAVOK 25/16 Q1018 NOSIG",
      "taf": "TAF LIRN 181700Z 1818/1918 28010KT CAVOK"
    },
    {
      "icao": "LIRP",
      "alert": "OK",
      "vis_m": 9999,
      "fzfg": false,
      "metar_trigger": false,
      "taf_trigger": false,
      "metar": "METAR LIRP 182215Z VRB22KT CAVOK 20/18 Q1019 NOSIG",
      "taf": "TAF LIRP 181700Z 1818/1918 29008KT CAVOK"
    },
    {
      "icao": "LIRZ",
      "alert": "OK",
      "vis_m": 9999,
      "fzfg": false,
      "metar_trigger": false,
      "taf_trigger": false,
      "metar": "METAR LIRZ 182250Z AUTO 02006KT 9999 NCD 23/17 Q1019",
      "taf": "TAF LIRZ 181700Z 1818/1918 VRB05KT CAVOK"
    },
    {
      "icao": "LJLJ",
      "alert": "OK",
      "vis_m": 9999,
      "fzfg": false,
      "metar_trigger": false,
      "taf_trigger": false,
      "metar": "METAR LJLJ 182300Z 33004KT 310V010 CAVOK 17/16 Q1022 NOSIG",
      "taf": "TAF LJLJ 182300Z 1900/2000 VRB02KT CAVOK"
    },
    {
      "icao": "LKMT",
      "alert": "OK",
      "vis_m": 9999,
      "fzfg": false,
      "metar_trigger": false,
      "taf_trigger": false,
      "metar": "METAR LKMT 182300Z 23002KT CAVOK 17/15 Q1021 NOSIG",
      "taf": "TAF LKMT 181700Z 1818/1918 20005KT CAVOK"
    },
    {
      "icao": "LKPR",
      "alert": "OK",
      "vis_m": 9999,
      "fzfg": false,
      "metar_trigger": false,
      "taf_trigger": false,
      "metar": "METAR LKPR 182300Z 15005KT CAVOK 21/15 Q1020 NOSIG",
      "taf": "TAF LKPR 182000Z 1821/2003 17005KT CAVOK"
    },
    {
      "icao": "LLBG",
      "alert": "OK",
      "vis_m": 9999,
      "fzfg": false,
      "metar_trigger": false,
      "taf_trigger": false,
      "metar": "METAR LLBG 182250Z VRB03KT CAVOK 23/17 Q1009 NOSIG",
      "taf": "TAF LLBG 181701Z 1818/1918 30007KT CAVOK TX30/1911Z TN19/1903Z"
    },
    {
      "icao": "LMML",
      "alert": "OK",
      "vis_m": 9999,
      "fzfg": false,
      "metar_trigger": false,
      "taf_trigger": false,
      "metar": "METAR LMML 182245Z VRB02KT CAVOK 23/19 Q1018 NOSIG",
      "taf": "TAF LMML 182300Z 1900/1924 VRB06KT 9999 FEW018"
    },
    {
      "icao": "LOWW",
      "alert": "OK",
      "vis_m": 9999,
      "fzfg": false,
      "metar_trigger": false,
      "taf_trigger": false,
      "metar": "METAR LOWW 182250Z 13004KT CAVOK 20/17 Q1020 NOSIG",
      "taf": "TAF LOWW 182015Z 1821/2003 VRB03KT CAVOK TX33/1914Z TN18/1903Z"
    },
    {
      "icao": "LPFR",
      "alert": "OK",
      "vis_m": 9999,
      "fzfg": false,
      "metar_trigger": false,
      "taf_trigger": false,
      "metar": "METAR LPFR 182300Z VRB02KT CAVOK 25/19 Q1013",
      "taf": "TAF LPFR 181700Z 1818/1918 26010KT CAVOK"
    },
    {
      "icao": "LPMA",
      "alert": "OK",
      "vis_m": 9999,
      "fzfg": false,
      "metar_trigger": false,
      "taf_trigger": false,
      "metar": "METAR LPMA 182300Z 31003KT 260V360 9999 FEW015 21/15 Q1019",
      "taf": "TAF LPMA 181700Z 1818/1918 02008KT 9999 SCT015"
    },
    {
      "icao": "LPPR",
      "alert": "OK",
      "vis_m": 9999,
      "fzfg": false,
      "metar_trigger": false,
      "taf_trigger": false,
      "metar": "METAR LPPR 182300Z VRB01KT 9999 FEW003 16/15 Q1016",
      "taf": "TAF LPPR 181700Z 1818/1918 32008KT 9999 SCT015"
    },
    {
      "icao": "LPPS",
      "alert": "OK",
      "vis_m": 9999,
      "fzfg": false,
      "metar_trigger": false,
      "taf_trigger": false,
      "metar": "METAR LPPS 182300Z 36006KT 9999 FEW012 20/17 Q1019",
      "taf": "TAF LPPS 181700Z 1818/1924 01010KT 9999 SCT015"
    },
    {
      "icao": "LPPT",
      "alert": "OK",
      "vis_m": 9999,
      "fzfg": false,
      "metar_trigger": false,
      "taf_trigger": false,
      "metar": "METAR LPPT 182300Z 33010KT 300V360 CAVOK 18/15 Q1015",
      "taf": "TAF LPPT 181700Z 1818/1924 34015KT CAVOK"
    },
    {
      "icao": "LQBK",
      "alert": "OK",
      "vis_m": 9999,
      "fzfg": false,
      "metar_trigger": false,
      "taf_trigger": false,
      "metar": "METAR LQBK 182300Z 15002KT CAVOK 18/17 Q1020 NOSIG",
      "taf": "TAF LQBK 182300Z 1900/1924 15005KT CAVOK TX32/1914Z TN16/1903Z"
    },
    {
      "icao": "LQSA",
      "alert": "OK",
      "vis_m": 9999,
      "fzfg": false,
      "metar_trigger": false,
      "taf_trigger": false,
      "metar": "METAR LQSA 182300Z 29002KT CAVOK 19/16 Q1022",
      "taf": "TAF LQSA 182300Z 1900/1924 VRB02KT CAVOK TX30/1914Z TN15/1903Z"
    },
    {
      "icao": "LQTZ",
      "alert": "OK",
      "vis_m": 9999,
      "fzfg": false,
      "metar_trigger": false,
      "taf_trigger": false,
      "metar": "METAR LQTZ 182300Z VRB02KT CAVOK 18/18 Q1021",
      "taf": "TAF LQTZ 182300Z 1900/1924 32003KT CAVOK TX29/1912Z TN15/1903Z"
    },
    {
      "icao": "LRBC",
      "alert": "OK",
      "vis_m": 9999,
      "fzfg": false,
      "metar_trigger": false,
      "taf_trigger": false,
      "metar": "METAR LRBC 182300Z VRB02KT CAVOK 14/12 Q1021",
      "taf": "TAF LRBC 182000Z 1821/1906 VRB04KT CAVOK"
    },
    {
      "icao": "LRBS",
      "alert": "OK",
      "vis_m": 9999,
      "fzfg": false,
      "metar_trigger": false,
      "taf_trigger": false,
      "metar": "METAR LRBS 182300Z VRB02KT CAVOK 18/12 Q1020 NOSIG",
      "taf": "TAF LRBS 181700Z 1818/1918 06008KT CAVOK"
    },
    {
      "icao": "LRBV",
      "alert": "OK",
      "vis_m": 9999,
      "fzfg": false,
      "metar_trigger": false,
      "taf_trigger": false,
      "metar": "METAR LRBV 182300Z AUTO 21010KT 9999 FEW052/// 12/07 Q1021",
      "taf": "TAF LRBV 181700Z 1818/1903 30006KT 9999 SCT055"
    },
    {
      "icao": "LRCL",
      "alert": "OK",
      "vis_m": 9999,
      "fzfg": false,
      "metar_trigger": false,
      "taf_trigger": false,
      "metar": "METAR LRCL 182300Z VRB02KT CAVOK 15/11 Q1021",
      "taf": "TAF LRCL 182000Z 1821/1906 VRB04KT CAVOK"
    },
    {
      "icao": "LRCV",
      "alert": "OK",
      "vis_m": 9999,
      "fzfg": false,
      "metar_trigger": false,
      "taf_trigger": false,
      "metar": "METAR LRCV 182300Z 11008KT CAVOK 17/15 Q1019",
      "taf": "TAF LRCV 182000Z 1821/1906 VRB04KT CAVOK"
    },
    {
      "icao": "LRIA",
      "alert": "OK",
      "vis_m": 9999,
      "fzfg": false,
      "metar_trigger": false,
      "taf_trigger": false,
      "metar": "METAR LRIA 182300Z 23005KT CAVOK 15/11 Q1020",
      "taf": "TAF LRIA 182000Z 1821/1906 VRB04KT CAVOK"
    },
    {
      "icao": "LROP",
      "alert": "OK",
      "vis_m": 9999,
      "fzfg": false,
      "metar_trigger": false,
      "taf_trigger": false,
      "metar": "METAR LROP 182300Z 02005KT CAVOK 18/13 Q1020 NOSIG",
      "taf": "TAF LROP 181700Z 1818/1918 06008KT CAVOK"
    },
    {
      "icao": "LRSB",
      "alert": "OK",
      "vis_m": 9999,
      "fzfg": false,
      "metar_trigger": false,
      "taf_trigger": false,
      "metar": "METAR LRSB 182300Z 18003KT 120V230 9999 FEW070 14/11 Q1021",
      "taf": "TAF LRSB 181700Z 1818/1918 VRB04KT CAVOK"
    },
    {
      "icao": "LRSM",
      "alert": "OK",
      "vis_m": 9999,
      "fzfg": false,
      "metar_trigger": false,
      "taf_trigger": false,
      "metar": "METAR LRSM 182300Z AUTO 21004KT 9999 NCD 16/13 Q1020",
      "taf": ""
    },
    {
      "icao": "LRSV",
      "alert": "OK",
      "vis_m": 9999,
      "fzfg": false,
      "metar_trigger": false,
      "taf_trigger": false,
      "metar": "METAR LRSV 182300Z 24007KT CAVOK 15/08 Q1021",
      "taf": "TAF LRSV 182000Z 1821/1906 25006KT CAVOK"
    },
    {
      "icao": "LRTM",
      "alert": "OK",
      "vis_m": 9999,
      "fzfg": false,
      "metar_trigger": false,
      "taf_trigger": false,
      "metar": "METAR LRTM 182300Z 00000KT CAVOK 12/10 Q1021",
      "taf": "TAF LRTM 182000Z 1821/1906 VRB04KT CAVOK"
    },
    {
      "icao": "LRTR",
      "alert": "OK",
      "vis_m": 9999,
      "fzfg": false,
      "metar_trigger": false,
      "taf_trigger": false,
      "metar": "METAR LRTR 182300Z 02005KT CAVOK 15/13 Q1019",
      "taf": "TAF LRTR 181700Z 1818/1918 02010KT CAVOK"
    },
    {
      "icao": "LTAC",
      "alert": "OK",
      "vis_m": 9999,
      "fzfg": false,
      "metar_trigger": false,
      "taf_trigger": false,
      "metar": "METAR LTAC 182250Z 17006KT 9999 SCT040 SCT100 17/13 Q1016 NOSIG RMK RWY21C 13005KT 100V160 RWY03L 17005KT RWY21R 13006KT RWY03R 15004KT RWY21L 17004KT",
      "taf": "TAF LTAC 182240Z 1900/1924 VRB02KT 9999 SCT040 SCT100"
    },
    {
      "icao": "LTFM",
      "alert": "OK",
      "vis_m": 9999,
      "fzfg": false,
      "metar_trigger": false,
      "taf_trigger": false,
      "metar": "METAR LTFM 182250Z 04012KT 9999 FEW022 SCT180 20/16 Q1016 NOSIG RMK RWY17L 04012KT RWY34L 03009KT RWY16R 04012KT RWY36 04014KT RWY18 06011KT",
      "taf": "TAF LTFM 182240Z 1900/2006 04013KT 9999 SCT022 BKN120"
    },
    {
      "icao": "LUKK",
      "alert": "OK",
      "vis_m": 9999,
      "fzfg": false,
      "metar_trigger": false,
      "taf_trigger": false,
      "metar": "METAR LUKK 182300Z 23002KT CAVOK 13/12 Q1019 NOSIG",
      "taf": "TAF LUKK 182304Z 1900/1924 34008KT CAVOK"
    },
    {
      "icao": "LWOH",
      "alert": "OK",
      "vis_m": null,
      "fzfg": false,
      "metar_trigger": false,
      "taf_trigger": false,
      "metar": "",
      "taf": ""
    },
    {
      "icao": "LWSK",
      "alert": "OK",
      "vis_m": 9999,
      "fzfg": false,
      "metar_trigger": false,
      "taf_trigger": false,
      "metar": "METAR LWSK 182250Z VRB01KT CAVOK 19/12 Q1019 NOSIG",
      "taf": ""
    },
    {
      "icao": "LYBE",
      "alert": "OK",
      "vis_m": 9999,
      "fzfg": false,
      "metar_trigger": false,
      "taf_trigger": false,
      "metar": "METAR LYBE 182300Z VRB02KT CAVOK 19/15 Q1019 NOSIG",
      "taf": "TAF LYBE 181700Z 1818/1918 04005KT CAVOK TX31/1913Z TN18/1904Z"
    },
    {
      "icao": "LYNI",
      "alert": "OK",
      "vis_m": 9999,
      "fzfg": false,
      "metar_trigger": false,
      "taf_trigger": false,
      "metar": "METAR LYNI 182300Z 11002KT CAVOK 18/13 Q1019 NOSIG",
      "taf": "TAF LYNI 181700Z 1818/1918 30007KT 9999 SCT050 TX31/1914Z TN14/1903Z"
    },
    {
      "icao": "LYPG",
      "alert": "OK",
      "vis_m": 9999,
      "fzfg": false,
      "metar_trigger": false,
      "taf_trigger": false,
      "metar": "METAR LYPG 182300Z 35010KT CAVOK 26/13 Q1017 NOSIG",
      "taf": "TAF LYPG 181700Z 1818/1918 34012KT CAVOK TX33/1914Z TN25/1903Z"
    },
    {
      "icao": "LZIB",
      "alert": "OK",
      "vis_m": 9999,
      "fzfg": false,
      "metar_trigger": false,
      "taf_trigger": false,
      "metar": "METAR LZIB 182300Z 02002KT CAVOK 20/16 Q1020 NOSIG",
      "taf": "TAF LZIB 181715Z 1818/1918 33007KT CAVOK"
    },
    {
      "icao": "LZKZ",
      "alert": "OK",
      "vis_m": 9999,
      "fzfg": false,
      "metar_trigger": false,
      "taf_trigger": false,
      "metar": "METAR LZKZ 182300Z 02005KT CAVOK 17/14 Q1021 NOSIG",
      "taf": "TAF LZKZ 181715Z 1818/1918 35004KT CAVOK"
    },
    {
      "icao": "LZTT",
      "alert": "OK",
      "vis_m": 9999,
      "fzfg": false,
      "metar_trigger": false,
      "taf_trigger": false,
      "metar": "METAR LZTT 182300Z 27003KT 9999 FEW080 12/11 Q1023",
      "taf": "TAF LZTT 181715Z 1818/1918 27004KT 9999 FEW050"
    },
    {
      "icao": "OEJN",
      "alert": "OK",
      "vis_m": 9999,
      "fzfg": false,
      "metar_trigger": false,
      "taf_trigger": false,
      "metar": "METAR OEJN 182300Z 34009KT CAVOK 31/12 Q1002 NOSIG",
      "taf": "TAF OEJN 182300Z 1900/2006 36007KT CAVOK"
    },
    {
      "icao": "OEMA",
      "alert": "OK",
      "vis_m": 9999,
      "fzfg": false,
      "metar_trigger": false,
      "taf_trigger": false,
      "metar": "METAR OEMA 182300Z 32005KT CAVOK 35/01 Q1008 NOSIG",
      "taf": "TAF OEMA 182300Z 1900/2006 29010KT CAVOK"
    },
    {
      "icao": "OJAI",
      "alert": "OK",
      "vis_m": 5000,
      "fzfg": false,
      "metar_trigger": false,
      "taf_trigger": false,
      "metar": "METAR OJAI 182200Z 31006KT 5000 HZ NSC 19/10 Q1013 NOSIG",
      "taf": "TAF OJAI 181700Z 1818/1924 28010KT 5000 HZ NSC"
    },
    {
      "icao": "OMAA",
      "alert": "OK",
      "vis_m": 9999,
      "fzfg": false,
      "metar_trigger": false,
      "taf_trigger": false,
      "metar": "METAR OMAA 182300Z 18001KT CAVOK 32/12 Q1000 NOSIG",
      "taf": "TAF OMAA 182300Z 1900/2006 13005KT 8000 NSC"
    },
    {
      "icao": "OMDB",
      "alert": "OK",
      "vis_m": 9999,
      "fzfg": false,
      "metar_trigger": false,
      "taf_trigger": false,
      "metar": "METAR OMDB 182300Z 09003KT 360V130 CAVOK 37/10 Q1000 NOSIG",
      "taf": "TAF OMDB 182300Z 1900/2006 06005KT CAVOK"
    },
    {
      "icao": "UAAA",
      "alert": "OK",
      "vis_m": 9999,
      "fzfg": false,
      "metar_trigger": false,
      "taf_trigger": false,
      "metar": "METAR UAAA 182300Z 24005MPS 9999 SCT050CB BKN100 23/11 Q1012 NOSIG",
      "taf": "TAF UAAA 181702Z 1818/1918 19003MPS 9999 FEW050CB BKN100 TX33/1910Z TN17/1901Z"
    },
    {
      "icao": "UBBB",
      "alert": "OK",
      "vis_m": 9999,
      "fzfg": false,
      "metar_trigger": false,
      "taf_trigger": false,
      "metar": "METAR UBBB 182300Z 00000KT CAVOK 23/19 Q1011 NOSIG",
      "taf": "TAF UBBB 182255Z 1900/1924 17006KT CAVOK TX33/1910Z TN20/1901Z"
    },
    {
      "icao": "UDSG",
      "alert": "OK",
      "vis_m": 9999,
      "fzfg": false,
      "metar_trigger": false,
      "taf_trigger": false,
      "metar": "METAR UDSG 182300Z 13010KT 9999 -SHRA BKN040CB 14/12 Q1020 NOSIG",
      "taf": "TAF UDSG 181700Z 1818/1918 03006KT 9999 SCT050"
    },
    {
      "icao": "UDYZ",
      "alert": "OK",
      "vis_m": 9999,
      "fzfg": false,
      "metar_trigger": false,
      "taf_trigger": false,
      "metar": "METAR UDYZ 182300Z 11006KT 9999 FEW043CB 22/13 Q1014 NOSIG",
      "taf": "TAF UDYZ 181700Z 1818/1918 04006KT 9999 FEW040"
    },
    {
      "icao": "UGKO",
      "alert": "OK",
      "vis_m": 9999,
      "fzfg": false,
      "metar_trigger": false,
      "taf_trigger": false,
      "metar": "METAR UGKO 182300Z 08004KT 9999 SCT032 19/17 Q1012 NOSIG",
      "taf": "TAF UGKO 182300Z 1900/1924 08007KT 9999 SCT026 BKN045 TX27/1910Z TN18/1901Z"
    }
  ]
}