{
  "ts_utc": "2026-02-01T09:48:06Z",
  "threshold_m": 150,
  "source": "stations_override.txt (ICAO list) + aviationweather.gov (METAR/TAF raw)",
  "station_count": 159,
  "stations": [
    {
      "icao": "BIKF",
      "alert": "OK",
      "vis_m": 9999,
      "fzfg": false,
      "metar_trigger": false,
      "taf_trigger": false,
      "metar": "METAR BIKF 010930Z 07010KT CAVOK 02/M02 Q0998",
      "taf": "TAF BIKF 010751Z 0109/0209 08013KT 9999 FEW040 TX04/0115Z TN01/0109Z"
    },
    {
      "icao": "BKPR",
      "alert": "OK",
      "vis_m": 9999,
      "fzfg": false,
      "metar_trigger": false,
      "taf_trigger": false,
      "metar": "METAR BKPR 010930Z 01016KT 9999 -RA SCT012 BKN025 02/02 Q1005 NOSIG",
      "taf": "TAF BKPR 010530Z 0106/0206 01008KT 9999 SCT012 BKN040"
    },
    {
      "icao": "EBCI",
      "alert": "OK",
      "vis_m": 9999,
      "fzfg": false,
      "metar_trigger": false,
      "taf_trigger": false,
      "metar": "METAR EBCI 010920Z 18009KT 9999 BKN009 06/04 Q1005 BECMG BKN012",
      "taf": "TAF EBCI 010506Z 0106/0212 18006KT 9999 SCT012 BKN020"
    },
    {
      "icao": "EDDB",
      "alert": "OK",
      "vis_m": 9999,
      "fzfg": false,
      "metar_trigger": false,
      "taf_trigger": false,
      "metar": "METAR EDDB 010920Z AUTO 10011KT 060V120 9999 OVC020 M08/M12 Q1016 NOSIG",
      "taf": "TAF EDDB 010500Z 0106/0206 08011KT 9999 OVC025"
    },
    {
      "icao": "EDDH",
      "alert": "OK",
      "vis_m": 9999,
      "fzfg": false,
      "metar_trigger": false,
      "taf_trigger": false,
      "metar": "METAR EDDH 010920Z AUTO 10013KT 9999 BKN037 OVC044 M05/M09 Q1014 NOSIG",
      "taf": "TAF EDDH 010500Z 0106/0212 11012KT 9999 BKN013"
    },
    {
      "icao": "EDDK",
      "alert": "OK",
      "vis_m": 9999,
      "fzfg": false,
      "metar_trigger": false,
      "taf_trigger": false,
      "metar": "METAR EDDK 010920Z AUTO 11007KT 070V150 9999 FEW012 05/02 Q1008 NOSIG",
      "taf": "TAF EDDK 010500Z 0106/0212 12009KT 9999 SCT015 BKN030"
    },
    {
      "icao": "EDDN",
      "alert": "OK",
      "vis_m": 9999,
      "fzfg": false,
      "metar_trigger": false,
      "taf_trigger": false,
      "metar": "METAR EDDN 010920Z AUTO 13005KT 9999 BKN011 OVC030 01/M01 Q1011 NOSIG",
      "taf": "TAF EDDN 010500Z 0106/0206 11006KT 9999 BKN015 OVC040"
    },
    {
      "icao": "EDDS",
      "alert": "OK",
      "vis_m": 9999,
      "fzfg": false,
      "metar_trigger": false,
      "taf_trigger": false,
      "metar": "METAR EDDS 010920Z AUTO VRB01KT CAVOK 01/M01 Q1009 NOSIG",
      "taf": "TAF EDDS 010500Z 0106/0206 VRB03KT 7000 SCT008"
    },
    {
      "icao": "EDFH",
      "alert": "OK",
      "vis_m": 200,
      "fzfg": false,
      "metar_trigger": false,
      "taf_trigger": false,
      "metar": "METAR EDFH 010920Z 14010KT 120V180 0200 R21/0350N FG VV/// 02/02 Q1007",
      "taf": "TAF EDFH 010500Z 0106/0206 14012KT 0600 FG OVC001"
    },
    {
      "icao": "EDJA",
      "alert": "OK",
      "vis_m": 9999,
      "fzfg": false,
      "metar_trigger": false,
      "taf_trigger": false,
      "metar": "METAR EDJA 010920Z 15003KT 110V180 9999 OVC010 01/M00 Q1009",
      "taf": "TAF EDJA 010800Z 0109/0118 VRB03KT 6000 OVC005"
    },
    {
      "icao": "EDLW",
      "alert": "OK",
      "vis_m": 9999,
      "fzfg": false,
      "metar_trigger": false,
      "taf_trigger": false,
      "metar": "METAR EDLW 010920Z 13009KT CAVOK 04/02 Q1007",
      "taf": "TAF EDLW 010500Z 0106/0206 12006KT 9999 SCT045"
    },
    {
      "icao": "EDNY",
      "alert": "OK",
      "vis_m": 9999,
      "fzfg": false,
      "metar_trigger": false,
      "taf_trigger": false,
      "metar": "METAR EDNY 010920Z 23003KT 9999 SCT008 OVC012 02/01 Q1010",
      "taf": "TAF EDNY 010800Z 0109/0118 VRB03KT 9999 OVC009"
    },
    {
      "icao": "EDSB",
      "alert": "OK",
      "vis_m": 5000,
      "fzfg": false,
      "metar_trigger": false,
      "taf_trigger": false,
      "metar": "METAR EDSB 010920Z 03001KT 5000 BR BKN036 OVC042 03/03 Q1009",
      "taf": ""
    },
    {
      "icao": "EETN",
      "alert": "OK",
      "vis_m": 9000,
      "fzfg": false,
      "metar_trigger": false,
      "taf_trigger": false,
      "metar": "METAR EETN 010920Z 10006KT 9000 -SN BKN018 M14/M16 Q1033 TEMPO 5000 SN",
      "taf": "TAF EETN 010530Z 0106/0206 10006KT 6000 SN SCT015 BKN020"
    },
    {
      "icao": "EFTU",
      "alert": "OK",
      "vis_m": 9999,
      "fzfg": false,
      "metar_trigger": false,
      "taf_trigger": false,
      "metar": "METAR EFTU 010920Z AUTO 11003KT CAVOK M16/M18 Q1034",
      "taf": "TAF EFTU 010836Z 0109/0209 08005KT CAVOK"
    },
    {
      "icao": "EGBB",
      "alert": "OK",
      "vis_m": 4000,
      "fzfg": false,
      "metar_trigger": false,
      "taf_trigger": false,
      "metar": "METAR EGBB 010920Z 14003KT 120V190 4000 BR OVC003 07/06 Q1000",
      "taf": "TAF EGBB 010500Z 0106/0206 18005KT 9999 SCT030"
    },
    {
      "icao": "EGGP",
      "alert": "OK",
      "vis_m": 9999,
      "fzfg": false,
      "metar_trigger": false,
      "taf_trigger": false,
      "metar": "METAR EGGP 010920Z 12005KT 9999 SCT023 BKN033 05/04 Q0999",
      "taf": "TAF EGGP 010505Z 0106/0206 18005KT 9999 BKN030"
    },
    {
      "icao": "EGGW",
      "alert": "OK",
      "vis_m": 900,
      "fzfg": false,
      "metar_trigger": false,
      "taf_trigger": false,
      "metar": "METAR EGGW 010920Z AUTO 18004KT 160V220 0900 R25/P1500N FG OVC002 07/07 Q1000",
      "taf": "TAF EGGW 010502Z 0106/0206 17005KT 9999 FEW008 SCT045"
    },
    {
      "icao": "EGKK",
      "alert": "OK",
      "vis_m": 9999,
      "fzfg": false,
      "metar_trigger": false,
      "taf_trigger": false,
      "metar": "METAR EGKK 010920Z VRB01KT 9999 -RA BKN041 08/08 Q1001",
      "taf": "TAF EGKK 010500Z 0106/0212 18004KT 9999 SCT012"
    },
    {
      "icao": "EGNM",
      "alert": "OK",
      "vis_m": 9999,
      "fzfg": false,
      "metar_trigger": false,
      "taf_trigger": false,
      "metar": "METAR EGNM 010920Z 24004KT 9999 FEW005 04/04 Q0999",
      "taf": "TAF EGNM 010504Z 0106/0206 16004KT 9999 SCT015"
    },
    {
      "icao": "EGPD",
      "alert": "OK",
      "vis_m": 7000,
      "fzfg": false,
      "metar_trigger": false,
      "taf_trigger": false,
      "metar": "METAR EGPD 010920Z 12013KT 7000 -RA BKN007 06/05 Q1000 TEMPO 4000 RA BKN006",
      "taf": "TAF EGPD 010500Z 0106/0206 12012KT 9999 SCT008 BKN015"
    },
    {
      "icao": "EGPF",
      "alert": "OK",
      "vis_m": 9999,
      "fzfg": false,
      "metar_trigger": false,
      "taf_trigger": false,
      "metar": "METAR EGPF 010920Z AUTO VRB02KT 9999 BKN014 OVC043 06/05 Q0998",
      "taf": ""
    },
    {
      "icao": "EHBK",
      "alert": "OK",
      "vis_m": 9999,
      "fzfg": false,
      "metar_trigger": false,
      "taf_trigger": false,
      "metar": "METAR EHBK 010925Z AUTO 15008KT 9999 OVC034/// 08/05 Q1006 NOSIG",
      "taf": "TAF EHBK 010501Z 0106/0212 16006KT 9999 BKN040"
    },
    {
      "icao": "EHEH",
      "alert": "OK",
      "vis_m": null,
      "fzfg": false,
      "metar_trigger": false,
      "taf_trigger": false,
      "metar": "",
      "taf": "TAF EHEH 010545Z 0106/0212 14006KT 7000 BR BKN040"
    },
    {
      "icao": "EKBI",
      "alert": "OK",
      "vis_m": 9999,
      "fzfg": false,
      "metar_trigger": false,
      "taf_trigger": false,
      "metar": "METAR EKBI 010920Z AUTO 11013KT 9999 OVC014/// M05/M07 Q1015",
      "taf": "TAF EKBI 010827Z 0109/0209 11015KT 9999 BKN016"
    },
    {
      "icao": "EKCH",
      "alert": "OK",
      "vis_m": 9999,
      "fzfg": false,
      "metar_trigger": false,
      "taf_trigger": false,
      "metar": "METAR EKCH 010920Z AUTO 11021KT 9999 SCT025/// M04/M09 Q1020 TEMPO 11020G30KT",
      "taf": "TAF EKCH 010827Z 0109/0209 11018KT 9999 FEW030"
    },
    {
      "icao": "ENAL",
      "alert": "OK",
      "vis_m": 9999,
      "fzfg": false,
      "metar_trigger": false,
      "taf_trigger": false,
      "metar": "METAR ENAL 010920Z 13011KT CAVOK 01/M09 Q1016",
      "taf": "TAF ENAL 010800Z 0109/0118 13012KT CAVOK"
    },
    {
      "icao": "ENBR",
      "alert": "OK",
      "vis_m": 9999,
      "fzfg": false,
      "metar_trigger": false,
      "taf_trigger": false,
      "metar": "METAR ENBR 010920Z 04003KT CAVOK M03/M11 Q1015 NOSIG RMK WIND 1200FT 11005KT",
      "taf": "TAF ENBR 010500Z 0106/0206 10005KT CAVOK"
    },
    {
      "icao": "ENGM",
      "alert": "OK",
      "vis_m": 9999,
      "fzfg": false,
      "metar_trigger": false,
      "taf_trigger": false,
      "metar": "METAR ENGM 010920Z 32002KT 9999 -SHSN SCT020 BKN036 M09/M11 Q1024 NOSIG",
      "taf": "TAF ENGM 010500Z 0106/0206 03005KT 9999 BKN025"
    },
    {
      "icao": "ENHD",
      "alert": "OK",
      "vis_m": 9999,
      "fzfg": false,
      "metar_trigger": false,
      "taf_trigger": false,
      "metar": "METAR ENHD 010920Z 11021KT CAVOK M00/M11 Q1015",
      "taf": "TAF ENHD 010800Z 0109/0118 11018KT CAVOK"
    },
    {
      "icao": "ENTC",
      "alert": "OK",
      "vis_m": 9999,
      "fzfg": false,
      "metar_trigger": false,
      "taf_trigger": false,
      "metar": "METAR ENTC 010920Z 19016KT 9999 BKN040 M04/M11 Q1014 TEMPO 4000 -SHSN VV012 RMK WIND 2600FT 19020KT",
      "taf": "TAF ENTC 010500Z 0106/0206 19020KT 9999 FEW030 BKN050"
    },
    {
      "icao": "ENTO",
      "alert": "OK",
      "vis_m": 9999,
      "fzfg": false,
      "metar_trigger": false,
      "taf_trigger": false,
      "metar": "METAR ENTO 010920Z 13007KT 090V160 9999 OVC029 M04/M10 Q1024 NOSIG",
      "taf": "TAF ENTO 010500Z 0106/0206 09005KT 9999 BKN025"
    },
    {
      "icao": "ENVA",
      "alert": "OK",
      "vis_m": 9999,
      "fzfg": false,
      "metar_trigger": false,
      "taf_trigger": false,
      "metar": "METAR ENVA 010920Z 14012KT CAVOK M03/M12 Q1019 NOSIG RMK WIND 670FT 16017KT",
      "taf": "TAF ENVA 010500Z 0106/0206 16012KT CAVOK"
    },
    {
      "icao": "ENZV",
      "alert": "OK",
      "vis_m": 9999,
      "fzfg": false,
      "metar_trigger": false,
      "taf_trigger": false,
      "metar": "METAR ENZV 010920Z 11013KT 9999 BKN036 M00/M09 Q1015 TEMPO 15018G28KT",
      "taf": "TAF ENZV 010500Z 0106/0206 12012KT 9999 SCT040"
    },
    {
      "icao": "EPGD",
      "alert": "OK",
      "vis_m": 9999,
      "fzfg": false,
      "metar_trigger": false,
      "taf_trigger": false,
      "metar": "METAR EPGD 010930Z 12012KT CAVOK M13/M16 Q1024",
      "taf": "TAF EPGD 010530Z 0106/0206 10010KT CAVOK"
    },
    {
      "icao": "EPKK",
      "alert": "OK",
      "vis_m": 9999,
      "fzfg": false,
      "metar_trigger": false,
      "taf_trigger": false,
      "metar": "METAR EPKK 010930Z 05011KT 9999 -SG SCT007 BKN016 M12/M15 Q1017",
      "taf": "TAF EPKK 010830Z 0109/0209 06012KT 9999 -SG BKN004 OVC008"
    },
    {
      "icao": "EPKT",
      "alert": "OK",
      "vis_m": 9999,
      "fzfg": false,
      "metar_trigger": false,
      "taf_trigger": false,
      "metar": "METAR EPKT 010930Z 07009KT 9999 -SN FEW003 BKN005 OVC019 M11/M14 Q1016",
      "taf": ""
    },
    {
      "icao": "EPLB",
      "alert": "OK",
      "vis_m": 9999,
      "fzfg": false,
      "metar_trigger": false,
      "taf_trigger": false,
      "metar": "METAR EPLB 010930Z 07008KT CAVOK M16/M17 Q1022",
      "taf": "TAF EPLB 010530Z 0106/0206 08010KT CAVOK"
    },
    {
      "icao": "EPMO",
      "alert": "OK",
      "vis_m": 9999,
      "fzfg": false,
      "metar_trigger": false,
      "taf_trigger": false,
      "metar": "METAR EPMO 010930Z 07010KT CAVOK M14/M17 Q1023",
      "taf": "TAF EPMO 010530Z 0106/0206 09010KT CAVOK"
    },
    {
      "icao": "EPPO",
      "alert": "OK",
      "vis_m": 9999,
      "fzfg": false,
      "metar_trigger": false,
      "taf_trigger": false,
      "metar": "METAR EPPO 010930Z 09013KT CAVOK M10/M16 Q1020",
      "taf": "TAF EPPO 010530Z 0106/0206 09012KT CAVOK"
    },
    {
      "icao": "EPRA",
      "alert": "OK",
      "vis_m": 9999,
      "fzfg": false,
      "metar_trigger": false,
      "taf_trigger": false,
      "metar": "METAR EPRA 010930Z 06008KT CAVOK M15/M18 Q1021",
      "taf": "TAF EPRA 010830Z 0109/0118 07008KT CAVOK"
    },
    {
      "icao": "EPRZ",
      "alert": "OK",
      "vis_m": 9999,
      "fzfg": false,
      "metar_trigger": false,
      "taf_trigger": false,
      "metar": "METAR EPRZ 010930Z 09014KT CAVOK M13/M17 Q1018",
      "taf": "TAF EPRZ 010530Z 0106/0206 07010KT CAVOK"
    },
    {
      "icao": "EPSC",
      "alert": "OK",
      "vis_m": 9999,
      "fzfg": false,
      "metar_trigger": false,
      "taf_trigger": false,
      "metar": "METAR EPSC 010930Z 09012KT CAVOK M10/M14 Q1020",
      "taf": "TAF EPSC 010530Z 0106/0206 10012KT CAVOK"
    },
    {
      "icao": "EPSY",
      "alert": "OK",
      "vis_m": 9999,
      "fzfg": false,
      "metar_trigger": false,
      "taf_trigger": false,
      "metar": "METAR EPSY 010930Z 05004KT 020V090 CAVOK M16/M18 Q1025",
      "taf": "TAF EPSY 010830Z 0109/0118 06006KT CAVOK"
    },
    {
      "icao": "EPWA",
      "alert": "OK",
      "vis_m": 9999,
      "fzfg": false,
      "metar_trigger": false,
      "taf_trigger": false,
      "metar": "METAR EPWA 010930Z 09008KT CAVOK M13/M17 Q1023 NOSIG",
      "taf": "TAF EPWA 010830Z 0109/0209 08010KT CAVOK"
    },
    {
      "icao": "EPWR",
      "alert": "OK",
      "vis_m": 9999,
      "fzfg": false,
      "metar_trigger": false,
      "taf_trigger": false,
      "metar": "METAR EPWR 010930Z 09010KT 9999 -SN FEW006 SCT015 M09/M13 Q1017",
      "taf": "TAF EPWR 010830Z 0109/0209 09010KT 9999 BKN017"
    },
    {
      "icao": "ESGG",
      "alert": "OK",
      "vis_m": 9999,
      "fzfg": false,
      "metar_trigger": false,
      "taf_trigger": false,
      "metar": "METAR ESGG 010920Z 12010KT CAVOK M05/M12 Q1022",
      "taf": "TAF ESGG 010830Z 0109/0209 11009KT CAVOK"
    },
    {
      "icao": "ESKN",
      "alert": "OK",
      "vis_m": 9999,
      "fzfg": false,
      "metar_trigger": false,
      "taf_trigger": false,
      "metar": "METAR ESKN 010920Z 13011KT 100V160 9999 -SN BKN033 M04/M11 Q1028",
      "taf": "TAF ESKN 010830Z 0109/0209 13013KT 9999 -SN BKN025"
    },
    {
      "icao": "ESMS",
      "alert": "OK",
      "vis_m": 9999,
      "fzfg": false,
      "metar_trigger": false,
      "taf_trigger": false,
      "metar": "METAR ESMS 010920Z 11017G30KT CAVOK M05/M10 Q1020",
      "taf": "TAF ESMS 010827Z 0109/0209 11015KT CAVOK"
    },
    {
      "icao": "ESSA",
      "alert": "OK",
      "vis_m": 9999,
      "fzfg": false,
      "metar_trigger": false,
      "taf_trigger": false,
      "metar": "METAR ESSA 010920Z 13013KT 9999 FEW013 SCT023 M05/M11 Q1030 NOSIG",
      "taf": "TAF ESSA 010830Z 0109/0209 12010KT 9999 BKN020"
    },
    {
      "icao": "EYKA",
      "alert": "OK",
      "vis_m": 9999,
      "fzfg": false,
      "metar_trigger": false,
      "taf_trigger": false,
      "metar": "METAR EYKA 010920Z VRB02KT CAVOK M17/M19 Q1029",
      "taf": "TAF EYKA 010500Z 0106/0206 VRB04KT 5000 BR BKN005"
    },
    {
      "icao": "EYPA",
      "alert": "OK",
      "vis_m": 9999,
      "fzfg": false,
      "metar_trigger": false,
      "taf_trigger": false,
      "metar": "METAR EYPA 010920Z 10006KT CAVOK M17/M22 Q1029",
      "taf": "TAF EYPA 010500Z 0106/0206 09008KT CAVOK"
    },
    {
      "icao": "EYVI",
      "alert": "OK",
      "vis_m": 9999,
      "fzfg": false,
      "metar_trigger": false,
      "taf_trigger": false,
      "metar": "METAR EYVI 010920Z 03007KT CAVOK M17/M19 Q1026 NOSIG",
      "taf": "TAF EYVI 010500Z 0106/0206 04008KT 5000 BR BKN005"
    },
    {
      "icao": "GCFV",
      "alert": "OK",
      "vis_m": 9999,
      "fzfg": false,
      "metar_trigger": false,
      "taf_trigger": false,
      "metar": "METAR GCFV 010930Z 32007KT 290V010 CAVOK 19/09 Q1021",
      "taf": "TAF GCFV 010800Z 0109/0209 33007KT 9999 FEW020 TX22/0114Z TN14/0206Z"
    },
    {
      "icao": "GCLP",
      "alert": "OK",
      "vis_m": 9999,
      "fzfg": false,
      "metar_trigger": false,
      "taf_trigger": false,
      "metar": "METAR GCLP 010930Z 02018KT 9999 FEW020 18/13 Q1021 NOSIG",
      "taf": "TAF GCLP 010800Z 0109/0209 02018KT 9999 FEW020 TX21/0114Z TN15/0206Z"
    },
    {
      "icao": "GCTS",
      "alert": "OK",
      "vis_m": 9999,
      "fzfg": false,
      "metar_trigger": false,
      "taf_trigger": false,
      "metar": "METAR GCTS 010930Z VRB02KT 9999 FEW020 19/14 Q1022 NOSIG",
      "taf": "TAF GCTS 010800Z 0109/0209 12007KT 9999 FEW025 TX23/0114Z TN14/0206Z"
    },
    {
      "icao": "GMAD",
      "alert": "OK",
      "vis_m": 2000,
      "fzfg": false,
      "metar_trigger": false,
      "taf_trigger": false,
      "metar": "METAR GMAD 010930Z 00000KT 2000 R27/1300N BR OVC004 15/15 Q1019 TEMPO 1200 BR",
      "taf": "TAF GMAD 010500Z 0106/0212 22005KT 6000 BKN005 SCT020"
    },
    {
      "icao": "GMMN",
      "alert": "OK",
      "vis_m": 6000,
      "fzfg": false,
      "metar_trigger": false,
      "taf_trigger": false,
      "metar": "SPECI GMMN 010931Z 17003KT 6000 NSC 12/11 Q1020 NOSIG",
      "taf": "TAF GMMN 010500Z 0106/0212 08002KT 2000 BR SCT005"
    },
    {
      "icao": "GMMX",
      "alert": "OK",
      "vis_m": 9999,
      "fzfg": false,
      "metar_trigger": false,
      "taf_trigger": false,
      "metar": "METAR GMMX 010930Z VRB01KT CAVOK 16/12 Q1020 NOSIG",
      "taf": "TAF GMMX 010500Z 0106/0212 24006KT SCT023"
    },
    {
      "icao": "HEGN",
      "alert": "OK",
      "vis_m": 9999,
      "fzfg": false,
      "metar_trigger": false,
      "taf_trigger": false,
      "metar": "METAR HEGN 010900Z 13006KT CAVOK 24/17 Q1016 NOSIG",
      "taf": "TAF HEGN 010500Z 0106/0212 24008KT CAVOK"
    },
    {
      "icao": "HEMA",
      "alert": "OK",
      "vis_m": 9999,
      "fzfg": false,
      "metar_trigger": false,
      "taf_trigger": false,
      "metar": "METAR HEMA 010900Z 05005KT CAVOK 25/06 Q1015 NOSIG",
      "taf": "TAF HEMA 010500Z 0106/0212 23008KT CAVOK"
    },
    {
      "icao": "HESH",
      "alert": "OK",
      "vis_m": 9999,
      "fzfg": false,
      "metar_trigger": false,
      "taf_trigger": false,
      "metar": "METAR HESH 010900Z 03006KT CAVOK 26/13 Q1015 NOSIG",
      "taf": "TAF HESH 010500Z 0106/0212 30008KT CAVOK"
    },
    {
      "icao": "HESX",
      "alert": "OK",
      "vis_m": 9999,
      "fzfg": false,
      "metar_trigger": false,
      "taf_trigger": false,
      "metar": "METAR HESX 010900Z 19017KT CAVOK 25/M05 Q1013 NOSIG",
      "taf": "TAF HESX 010500Z 0106/0212 22012G24KT 6000 NSC"
    },
    {
      "icao": "LATI",
      "alert": "OK",
      "vis_m": null,
      "fzfg": false,
      "metar_trigger": false,
      "taf_trigger": false,
      "metar": "",
      "taf": "TAF LATI 010500Z 0106/0206 VRB05KT 9999 SCT060 TX14/0112Z TN06/0205Z"
    },
    {
      "icao": "LBPD",
      "alert": "OK",
      "vis_m": 5000,
      "fzfg": false,
      "metar_trigger": false,
      "taf_trigger": false,
      "metar": "METAR LBPD 010930Z AUTO 10013KT 5000 -SN OVC005/// 01/01 Q1012 TEMPO 3000 SNRA BKN003",
      "taf": "TAF LBPD 010500Z 0106/0206 10016KT 8000 SCT010 OVC015"
    },
    {
      "icao": "LBSF",
      "alert": "OK",
      "vis_m": 5000,
      "fzfg": false,
      "metar_trigger": false,
      "taf_trigger": false,
      "metar": "METAR LBSF 010930Z 12013KT 5000 -SN SCT008 BKN012 OVC022 02/00 Q1009 TEMPO 4000 SNRA BKN010",
      "taf": "TAF LBSF 010500Z 0106/0206 10016KT 9999 BKN008 OVC012"
    },
    {
      "icao": "LBWN",
      "alert": "OK",
      "vis_m": 9999,
      "fzfg": false,
      "metar_trigger": false,
      "taf_trigger": false,
      "metar": "METAR LBWN 010930Z AUTO 05012KT 9999 OVC012/// M01/M03 Q1016 NOSIG",
      "taf": "TAF LBWN 010500Z 0106/0206 05012KT 8000 BKN015 OVC025"
    },
    {
      "icao": "LCLK",
      "alert": "OK",
      "vis_m": 6000,
      "fzfg": false,
      "metar_trigger": false,
      "taf_trigger": false,
      "metar": "METAR LCLK 010930Z 09004KT 6000 NSC 19/15 Q1013 BECMG 5000 DU",
      "taf": "TAF LCLK 010530Z 0106/0206 33006KT 9999 FEW025"
    },
    {
      "icao": "LCPH",
      "alert": "OK",
      "vis_m": 9999,
      "fzfg": false,
      "metar_trigger": false,
      "taf_trigger": false,
      "metar": "METAR LCPH 010930Z 15013KT CAVOK 20/14 Q1012 NOSIG",
      "taf": "TAF LCPH 010530Z 0106/0206 08006KT 9999 SCT020"
    },
    {
      "icao": "LEAL",
      "alert": "OK",
      "vis_m": 9999,
      "fzfg": false,
      "metar_trigger": false,
      "taf_trigger": false,
      "metar": "METAR LEAL 010930Z 27014KT 240V300 CAVOK 15/04 Q1016 NOSIG",
      "taf": "TAF LEAL 010500Z 0106/0206 23005KT 9999 FEW030 TX16/0113Z TN10/0106Z"
    },
    {
      "icao": "LEBB",
      "alert": "OK",
      "vis_m": 9999,
      "fzfg": false,
      "metar_trigger": false,
      "taf_trigger": false,
      "metar": "METAR LEBB 010930Z 09004KT 9999 FEW020 SCT039 BKN051 12/07 Q1011 NOSIG",
      "taf": "TAF LEBB 010500Z 0106/0206 14009KT 9999 BKN040 TX13/0115Z TN08/0106Z"
    },
    {
      "icao": "LEBL",
      "alert": "OK",
      "vis_m": 9999,
      "fzfg": false,
      "metar_trigger": false,
      "taf_trigger": false,
      "metar": "METAR LEBL 010930Z 32011KT CAVOK 09/04 Q1012 NOSIG",
      "taf": "TAF LEBL 010500Z 0106/0206 32009KT CAVOK TX15/0112Z TN07/0106Z"
    },
    {
      "icao": "LECH",
      "alert": "OK",
      "vis_m": 9000,
      "fzfg": false,
      "metar_trigger": false,
      "taf_trigger": false,
      "metar": "METAR LECH 010930Z AUTO 20004KT 190V250 9000 NSC 09/01 Q1013",
      "taf": ""
    },
    {
      "icao": "LEMD",
      "alert": "OK",
      "vis_m": 3000,
      "fzfg": false,
      "metar_trigger": false,
      "taf_trigger": false,
      "metar": "METAR LEMD 010930Z 18005KT 090V220 3000 -RADZ BR BKN004 OVC012 06/06 Q1015 NOSIG",
      "taf": "TAF LEMD 010500Z 0106/0212 VRB03KT 9999 SCT010 TX09/0204Z TN04/0106Z"
    },
    {
      "icao": "LEMG",
      "alert": "OK",
      "vis_m": 9999,
      "fzfg": false,
      "metar_trigger": false,
      "taf_trigger": false,
      "metar": "METAR LEMG 010930Z VRB02KT 9999 FEW050 13/10 Q1018 NOSIG",
      "taf": "TAF LEMG 010500Z 0106/0206 29005KT 9999 FEW045 TX19/0115Z TN12/0106Z"
    },
    {
      "icao": "LEVC",
      "alert": "OK",
      "vis_m": 9999,
      "fzfg": false,
      "metar_trigger": false,
      "taf_trigger": false,
      "metar": "METAR LEVC 010930Z 28019KT CAVOK 13/04 Q1015 NOSIG",
      "taf": ""
    },
    {
      "icao": "LEXJ",
      "alert": "OK",
      "vis_m": 9999,
      "fzfg": false,
      "metar_trigger": false,
      "taf_trigger": false,
      "metar": "METAR LEXJ 010930Z 23008KT 200V260 9999 BKN044 OVC060 13/05 Q1010",
      "taf": ""
    },
    {
      "icao": "LEZG",
      "alert": "OK",
      "vis_m": 9999,
      "fzfg": false,
      "metar_trigger": false,
      "taf_trigger": false,
      "metar": "METAR LEZG 010930Z VRB01KT 9999 BKN070 07/05 Q1013 NOSIG",
      "taf": "TAF LEZG 010500Z 0106/0206 24007KT 9999 FEW050 TX14/0114Z TN06/0106Z"
    },
    {
      "icao": "LEZL",
      "alert": "OK",
      "vis_m": 4000,
      "fzfg": false,
      "metar_trigger": false,
      "taf_trigger": false,
      "metar": "METAR LEZL 010930Z 21006KT 170V250 4000 BR -DZ OVC006 BKN010 14/14 Q1018 NOSIG",
      "taf": ""
    },
    {
      "icao": "LFBD",
      "alert": "OK",
      "vis_m": 9999,
      "fzfg": false,
      "metar_trigger": false,
      "taf_trigger": false,
      "metar": "METAR LFBD 010930Z AUTO 22012KT 9999 SCT009 SCT014 BKN021 10/09 Q1009 TEMPO 22015G25KT 4000 SHRA BKN013TCU",
      "taf": "TAF LFBD 010500Z 0106/0212 20010KT 7000 BKN020 TX12/0115Z TN07/0203Z"
    },
    {
      "icao": "LFLL",
      "alert": "OK",
      "vis_m": 9999,
      "fzfg": false,
      "metar_trigger": false,
      "taf_trigger": false,
      "metar": "METAR LFLL 010930Z 16006KT CAVOK 08/05 Q1009 NOSIG",
      "taf": "TAF LFLL 010500Z 0106/0212 16007KT 9999 BKN040"
    },
    {
      "icao": "LFLS",
      "alert": "OK",
      "vis_m": 9999,
      "fzfg": false,
      "metar_trigger": false,
      "taf_trigger": false,
      "metar": "METAR LFLS 010930Z AUTO 07009KT CAVOK 06/03 Q1009 NOSIG",
      "taf": "TAF LFLS 010800Z 0109/0209 09008KT CAVOK"
    },
    {
      "icao": "LFMN",
      "alert": "OK",
      "vis_m": 9999,
      "fzfg": false,
      "metar_trigger": false,
      "taf_trigger": false,
      "metar": "METAR LFMN 010930Z 33013KT 9999 SCT056 09/01 Q1008 BECMG 20008KT",
      "taf": "TAF LFMN 010800Z 0109/0215 33010KT 9999 SCT045"
    },
    {
      "icao": "LFOB",
      "alert": "OK",
      "vis_m": 9999,
      "fzfg": false,
      "metar_trigger": false,
      "taf_trigger": false,
      "metar": "METAR LFOB 010930Z AUTO 18008KT 9999 OVC004 06/06 Q1004 TEMPO 4000 -RA SCT007 BKN012 OVC020",
      "taf": "TAF LFOB 010500Z 0106/0206 17006KT 8000 BKN007 OVC050"
    },
    {
      "icao": "LFPO",
      "alert": "OK",
      "vis_m": 1500,
      "fzfg": false,
      "metar_trigger": false,
      "taf_trigger": false,
      "metar": "METAR LFPO 010930Z 19006KT 1500 -RA BR OVC002 07/07 Q1005 BECMG 6000 -RA BKN004",
      "taf": ""
    },
    {
      "icao": "LFSB",
      "alert": "OK",
      "vis_m": 9999,
      "fzfg": false,
      "metar_trigger": false,
      "taf_trigger": false,
      "metar": "METAR LFSB 010930Z AUTO 13005KT 9999 BKN031 BKN040 OVC068 05/02 Q1009 NOSIG",
      "taf": "TAF LFSB 010500Z 0106/0206 14005KT 9999 BKN025"
    },
    {
      "icao": "LGAV",
      "alert": "OK",
      "vis_m": 6000,
      "fzfg": false,
      "metar_trigger": false,
      "taf_trigger": false,
      "metar": "METAR LGAV 010920Z 20025G40KT 170V260 6000 TSRA FEW015CB BKN025 BKN050 15/09 Q0999 NOSIG",
      "taf": "TAF LGAV 010500Z 0106/0206 14010KT 9999 FEW015 BKN025 BKN070"
    },
    {
      "icao": "LGTS",
      "alert": "OK",
      "vis_m": 9999,
      "fzfg": false,
      "metar_trigger": false,
      "taf_trigger": false,
      "metar": "METAR LGTS 010920Z 12008KT 360V170 9999 FEW008 FEW015TCU BKN025 09/03 Q1001 WS R10 NOSIG",
      "taf": "TAF LGTS 010500Z 0106/0206 10013KT 9999 FEW010 BKN025"
    },
    {
      "icao": "LHBP",
      "alert": "OK",
      "vis_m": 5000,
      "fzfg": false,
      "metar_trigger": false,
      "taf_trigger": false,
      "metar": "METAR LHBP 010930Z 08005KT 5000 -SN OVC012 M00/M02 Q1013 BECMG 8000 NSW",
      "taf": "TAF LHBP 010515Z 0106/0206 07006KT 9999 OVC030"
    },
    {
      "icao": "LHDC",
      "alert": "OK",
      "vis_m": 9999,
      "fzfg": false,
      "metar_trigger": false,
      "taf_trigger": false,
      "metar": "METAR LHDC 010915Z AUTO 03008KT 9999 OVC010 M02/M05 Q1013 NOSIG",
      "taf": "TAF LHDC 010815Z 0109/0118 03007KT 9999 OVC010"
    },
    {
      "icao": "LIBD",
      "alert": "OK",
      "vis_m": 9999,
      "fzfg": false,
      "metar_trigger": false,
      "taf_trigger": false,
      "metar": "METAR LIBD 010920Z 31010KT 9999 SCT030 11/07 Q1002",
      "taf": "TAF LIBD 010500Z 0106/0206 34012KT 9999 FEW020"
    },
    {
      "icao": "LIBG",
      "alert": "OK",
      "vis_m": 8000,
      "fzfg": false,
      "metar_trigger": false,
      "taf_trigger": false,
      "metar": "METAR LIBG 010850Z 36010KT 8000 -RA BKN020 11/08 Q1000",
      "taf": "TAF LIBG 010800Z 0109/0118 03016KT 9999 SCT030"
    },
    {
      "icao": "LIBP",
      "alert": "OK",
      "vis_m": 9999,
      "fzfg": false,
      "metar_trigger": false,
      "taf_trigger": false,
      "metar": "METAR LIBP 010920Z AUTO 32008KT 270V350 9999 FEW058/// 10/06 Q1007",
      "taf": "TAF LIBP 010500Z 0106/0206 VRB05KT 9999 BKN030"
    },
    {
      "icao": "LIBR",
      "alert": "OK",
      "vis_m": 9999,
      "fzfg": false,
      "metar_trigger": false,
      "taf_trigger": false,
      "metar": "METAR LIBR 010920Z 08011KT 9999 -RA BKN040 11/08 Q1000",
      "taf": "TAF LIBR 010500Z 0106/0206 06016KT 9999 SCT040"
    },
    {
      "icao": "LICA",
      "alert": "OK",
      "vis_m": 9999,
      "fzfg": false,
      "metar_trigger": false,
      "taf_trigger": false,
      "metar": "METAR LICA 010920Z AUTO VRB05KT 9999 SCT053/// BKN110/// 12/06 Q0999",
      "taf": "TAF LICA 010500Z 0106/0206 VRB05KT 9999 BKN030"
    },
    {
      "icao": "LICC",
      "alert": "OK",
      "vis_m": 9999,
      "fzfg": false,
      "metar_trigger": false,
      "taf_trigger": false,
      "metar": "METAR LICC 010920Z 20006KT 9999 FEW040 SCT100 13/11 Q1000",
      "taf": "TAF LICC 010500Z 0106/0206 28012KT 9999 SCT030"
    },
    {
      "icao": "LICJ",
      "alert": "OK",
      "vis_m": 9999,
      "fzfg": false,
      "metar_trigger": false,
      "taf_trigger": false,
      "metar": "METAR LICJ 010920Z 34016KT 9999 BKN025 15/10 Q1005",
      "taf": "TAF LICJ 010500Z 0106/0206 35015KT 9999 SCT030"
    },
    {
      "icao": "LIMC",
      "alert": "OK",
      "vis_m": 6000,
      "fzfg": false,
      "metar_trigger": false,
      "taf_trigger": false,
      "metar": "METAR LIMC 010920Z VRB02KT 6000 VCFG NSC 03/03 Q1009 NOSIG",
      "taf": "TAF LIMC 010500Z 0106/0212 VRB05KT 5000 BR FEW020"
    },
    {
      "icao": "LIME",
      "alert": "OK",
      "vis_m": 9999,
      "fzfg": false,
      "metar_trigger": false,
      "taf_trigger": false,
      "metar": "METAR LIME 010920Z VRB01KT CAVOK 06/02 Q1009 NOSIG",
      "taf": "TAF LIME 010500Z 0106/0206 VRB05KT 6000 FEW020"
    },
    {
      "icao": "LIMF",
      "alert": "OK",
      "vis_m": 9999,
      "fzfg": false,
      "metar_trigger": false,
      "taf_trigger": false,
      "metar": "METAR LIMF 010920Z 07003KT CAVOK 04/00 Q1008",
      "taf": "TAF LIMF 010500Z 0106/0206 VRB04KT CAVOK"
    },
    {
      "icao": "LIMJ",
      "alert": "OK",
      "vis_m": 9999,
      "fzfg": false,
      "metar_trigger": false,
      "taf_trigger": false,
      "metar": "METAR LIMJ 010920Z 03018KT CAVOK 09/02 Q1007",
      "taf": "TAF LIMJ 010500Z 0106/0206 04014KT 9999 FEW050"
    },
    {
      "icao": "LIPE",
      "alert": "OK",
      "vis_m": 5000,
      "fzfg": false,
      "metar_trigger": false,
      "taf_trigger": false,
      "metar": "METAR LIPE 010920Z 30003KT 260V340 5000 BR FEW030 BKN050 07/05 Q1009",
      "taf": "TAF LIPE 010500Z 0106/0206 VRB05KT 7000 BKN030"
    },
    {
      "icao": "LIPH",
      "alert": "OK",
      "vis_m": 9999,
      "fzfg": false,
      "metar_trigger": false,
      "taf_trigger": false,
      "metar": "METAR LIPH 010920Z 04005KT 010V070 9999 FEW040 07/02 Q1009",
      "taf": "TAF LIPH 010500Z 0106/0206 VRB04KT 9999 FEW040"
    },
    {
      "icao": "LIPQ",
      "alert": "OK",
      "vis_m": 9999,
      "fzfg": false,
      "metar_trigger": false,
      "taf_trigger": false,
      "metar": "METAR LIPQ 010920Z AUTO 11014KT 9999 NCD 09/01 Q1009",
      "taf": "TAF LIPQ 010500Z 0106/0206 04005KT CAVOK"
    },
    {
      "icao": "LIPR",
      "alert": "OK",
      "vis_m": 9999,
      "fzfg": false,
      "metar_trigger": false,
      "taf_trigger": false,
      "metar": "METAR LIPR 010920Z 30010KT 9999 BKN045 07/05 Q1008",
      "taf": "TAF LIPR 010500Z 0106/0206 30010KT 9999 BKN040"
    },
    {
      "icao": "LIPX",
      "alert": "OK",
      "vis_m": 7000,
      "fzfg": false,
      "metar_trigger": false,
      "taf_trigger": false,
      "metar": "METAR LIPX 010850Z 33004KT 7000 SCT030 04/02 Q1009",
      "taf": "TAF LIPX 010500Z 0106/0206 VRB05KT 0300 FG BKN002"
    },
    {
      "icao": "LIPY",
      "alert": "OK",
      "vis_m": 9999,
      "fzfg": false,
      "metar_trigger": false,
      "taf_trigger": false,
      "metar": "METAR LIPY 010920Z AUTO 31009KT 9999 OVC046/// 07/05 Q1008",
      "taf": "TAF LIPY 010500Z 0106/0206 31010KT 8000 BKN012"
    },
    {
      "icao": "LIPZ",
      "alert": "OK",
      "vis_m": 9999,
      "fzfg": false,
      "metar_trigger": false,
      "taf_trigger": false,
      "metar": "METAR LIPZ 010920Z 02008KT CAVOK 07/02 Q1009 NOSIG",
      "taf": "TAF LIPZ 010500Z 0106/0212 04008KT CAVOK"
    },
    {
      "icao": "LIRF",
      "alert": "OK",
      "vis_m": 9999,
      "fzfg": false,
      "metar_trigger": false,
      "taf_trigger": false,
      "metar": "METAR LIRF 010920Z 01007KT CAVOK 11/05 Q1004 NOSIG",
      "taf": "TAF LIRF 010500Z 0106/0212 02010KT CAVOK"
    },
    {
      "icao": "LIRN",
      "alert": "OK",
      "vis_m": 9999,
      "fzfg": false,
      "metar_trigger": false,
      "taf_trigger": false,
      "metar": "METAR LIRN 010920Z 05008KT CAVOK 13/04 Q1004 NOSIG",
      "taf": "TAF LIRN 010500Z 0106/0206 03012KT 9999 FEW030"
    },
    {
      "icao": "LIRP",
      "alert": "OK",
      "vis_m": 9999,
      "fzfg": false,
      "metar_trigger": false,
      "taf_trigger": false,
      "metar": "METAR LIRP 010915Z 11005KT CAVOK 07/06 Q1007 NOSIG",
      "taf": "TAF LIRP 010500Z 0106/0206 14005KT 9999 FEW050"
    },
    {
      "icao": "LIRZ",
      "alert": "OK",
      "vis_m": 9999,
      "fzfg": false,
      "metar_trigger": false,
      "taf_trigger": false,
      "metar": "METAR LIRZ 010920Z AUTO 04012KT 9999 NCD 09/03 Q1006",
      "taf": "TAF LIRZ 010500Z 0106/0206 03014KT CAVOK"
    },
    {
      "icao": "LJLJ",
      "alert": "OK",
      "vis_m": 9999,
      "fzfg": false,
      "metar_trigger": false,
      "taf_trigger": false,
      "metar": "METAR LJLJ 010930Z VRB02KT 9999 FEW013 SCT065 BKN120 04/01 Q1010 NOSIG",
      "taf": "TAF LJLJ 010500Z 0106/0206 VRB02KT 9999 OVC035"
    },
    {
      "icao": "LKMT",
      "alert": "OK",
      "vis_m": 9000,
      "fzfg": false,
      "metar_trigger": false,
      "taf_trigger": false,
      "metar": "METAR LKMT 010930Z 04008KT 9000 OVC014 M08/M10 Q1015 NOSIG",
      "taf": ""
    },
    {
      "icao": "LKPR",
      "alert": "OK",
      "vis_m": 7000,
      "fzfg": false,
      "metar_trigger": false,
      "taf_trigger": false,
      "metar": "METAR LKPR 010930Z 36003KT 330V050 7000 FEW007 BKN013 OVC025 M04/M05 Q1012 NOSIG",
      "taf": "TAF LKPR 010800Z 0109/0215 07006KT 6000 SCT010 OVC025"
    },
    {
      "icao": "LLBG",
      "alert": "OK",
      "vis_m": 9999,
      "fzfg": false,
      "metar_trigger": false,
      "taf_trigger": false,
      "metar": "METAR LLBG 010920Z 16007KT CAVOK 27/04 Q1014 NOSIG",
      "taf": "TAF LLBG 010503Z 0106/0206 VRB03KT 8000 NSC"
    },
    {
      "icao": "LMML",
      "alert": "OK",
      "vis_m": 9999,
      "fzfg": false,
      "metar_trigger": false,
      "taf_trigger": false,
      "metar": "METAR LMML 010945Z 30025KT 9999 FEW025 15/10 Q1003 NOSIG",
      "taf": "TAF LMML 010500Z 0106/0206 31028KT 9999 FEW018"
    },
    {
      "icao": "LOWW",
      "alert": "OK",
      "vis_m": 4000,
      "fzfg": false,
      "metar_trigger": false,
      "taf_trigger": false,
      "metar": "METAR LOWW 010920Z 01006KT 330V030 4000 -SN BR FEW008 SCT020 BKN028 M03/M05 Q1013 BECMG TL1000 5000 BR",
      "taf": "TAF LOWW 010815Z 0109/0215 35008KT 8000 BKN015 TX02/0213Z TNM03/0109Z"
    },
    {
      "icao": "LPFR",
      "alert": "OK",
      "vis_m": 9999,
      "fzfg": false,
      "metar_trigger": false,
      "taf_trigger": false,
      "metar": "METAR LPFR 010930Z 24008KT 9999 FEW012 SCT020 15/14 Q1018",
      "taf": "TAF LPFR 010500Z 0106/0206 24010KT 9999 SCT015 BKN030"
    },
    {
      "icao": "LPMA",
      "alert": "OK",
      "vis_m": 9999,
      "fzfg": false,
      "metar_trigger": false,
      "taf_trigger": false,
      "metar": "METAR LPMA 010930Z VRB02KT 9999 FEW015 18/10 Q1021",
      "taf": "TAF LPMA 010500Z 0106/0206 VRB05KT 9999 SCT015"
    },
    {
      "icao": "LPPR",
      "alert": "OK",
      "vis_m": 1500,
      "fzfg": false,
      "metar_trigger": false,
      "taf_trigger": false,
      "metar": "METAR LPPR 010930Z 22006KT 190V250 1500 0800S -DZ BCFG SCT002 OVC005 13/13 Q1011",
      "taf": "TAF LPPR 010500Z 0106/0206 17015KT 6000 -RA SCT008 BKN015"
    },
    {
      "icao": "LPPS",
      "alert": "OK",
      "vis_m": 9999,
      "fzfg": false,
      "metar_trigger": false,
      "taf_trigger": false,
      "metar": "METAR LPPS 010930Z 25005KT 220V300 CAVOK 18/14 Q1021",
      "taf": "TAF LPPS 010500Z 0106/0212 27007KT 9999 SCT012 SCT030"
    },
    {
      "icao": "LPPT",
      "alert": "OK",
      "vis_m": 3000,
      "fzfg": false,
      "metar_trigger": false,
      "taf_trigger": false,
      "metar": "METAR LPPT 010930Z 23007KT 3000 -DZ BR FEW002 BKN003 15/15 Q1014",
      "taf": "TAF LPPT 010500Z 0106/0212 23013KT 6000 -RA SCT006 BKN012"
    },
    {
      "icao": "LQBK",
      "alert": "OK",
      "vis_m": 9999,
      "fzfg": false,
      "metar_trigger": false,
      "taf_trigger": false,
      "metar": "METAR LQBK 010930Z 35005KT 9999 FEW013 BKN047 04/02 Q1011 NOSIG",
      "taf": "TAF LQBK 010500Z 0106/0206 06005KT 7000 SCT015 BKN030 TX04/0113Z TN00/0205Z"
    },
    {
      "icao": "LQSA",
      "alert": "OK",
      "vis_m": 9999,
      "fzfg": false,
      "metar_trigger": false,
      "taf_trigger": false,
      "metar": "METAR LQSA 010930Z 27004KT 230V300 9999 BKN025 04/02 Q1006 NOSIG",
      "taf": "TAF LQSA 010500Z 0106/0206 29006KT 9999 BKN025 TX05/0113Z TNM01/0205Z"
    },
    {
      "icao": "LQTZ",
      "alert": "OK",
      "vis_m": 9999,
      "fzfg": false,
      "metar_trigger": false,
      "taf_trigger": false,
      "metar": "METAR LQTZ 010930Z VRB02KT 9999 FEW010 BKN015 OVC030 03/03 Q1009",
      "taf": "TAF LQTZ 010500Z 0106/0206 04005KT 6000 SCT012 OVC025 TX04/0113Z TNM01/0205Z"
    },
    {
      "icao": "LRBC",
      "alert": "OK",
      "vis_m": 9999,
      "fzfg": false,
      "metar_trigger": false,
      "taf_trigger": false,
      "metar": "METAR LRBC 010930Z 35010KT 320V030 9999 BKN055 M08/M12 Q1020",
      "taf": "TAF LRBC 010800Z 0109/0118 35010KT 9999 BKN050"
    },
    {
      "icao": "LRBS",
      "alert": "OK",
      "vis_m": 9999,
      "fzfg": false,
      "metar_trigger": false,
      "taf_trigger": false,
      "metar": "METAR LRBS 010930Z 07016KT 9999 FEW018 M03/M07 Q1018 NOSIG",
      "taf": "TAF LRBS 010500Z 0106/0206 08016KT 9999 OVC040"
    },
    {
      "icao": "LRBV",
      "alert": "OK",
      "vis_m": 9999,
      "fzfg": false,
      "metar_trigger": false,
      "taf_trigger": false,
      "metar": "METAR LRBV 010930Z 09008KT 9999 FEW063 01/M05 Q1012",
      "taf": "TAF LRBV 010800Z 0109/0118 08010KT 9999 SCT055"
    },
    {
      "icao": "LRCL",
      "alert": "OK",
      "vis_m": 9999,
      "fzfg": false,
      "metar_trigger": false,
      "taf_trigger": false,
      "metar": "METAR LRCL 010930Z 09006KT 9999 OVC006 03/03 Q1011",
      "taf": "TAF LRCL 010800Z 0109/0118 VRB04KT 0600 FG VV002"
    },
    {
      "icao": "LRCV",
      "alert": "OK",
      "vis_m": 9999,
      "fzfg": false,
      "metar_trigger": false,
      "taf_trigger": false,
      "metar": "METAR LRCV 010930Z 09017KT 9999 SCT015 OVC020 M02/M05 Q1015",
      "taf": "TAF LRCV 010800Z 0109/0118 10018KT 9999 OVC030"
    },
    {
      "icao": "LRIA",
      "alert": "OK",
      "vis_m": 9999,
      "fzfg": false,
      "metar_trigger": false,
      "taf_trigger": false,
      "metar": "METAR LRIA 010930Z 34008KT 310V020 CAVOK M09/M14 Q1021",
      "taf": "TAF LRIA 010800Z 0109/0118 34008KT CAVOK"
    },
    {
      "icao": "LROP",
      "alert": "OK",
      "vis_m": 9999,
      "fzfg": false,
      "metar_trigger": false,
      "taf_trigger": false,
      "metar": "METAR LROP 010930Z 07021KT 9999 FEW018 M03/M09 Q1018 NOSIG",
      "taf": "TAF LROP 010500Z 0106/0206 08016KT 9999 OVC040"
    },
    {
      "icao": "LRSB",
      "alert": "OK",
      "vis_m": 9999,
      "fzfg": false,
      "metar_trigger": false,
      "taf_trigger": false,
      "metar": "METAR LRSB 010930Z 13009KT 9999 FEW015 SCT070 04/M01 Q1010",
      "taf": "TAF LRSB 010500Z 0106/0206 VRB04KT 9999 BKN045"
    },
    {
      "icao": "LRSM",
      "alert": "OK",
      "vis_m": 9999,
      "fzfg": false,
      "metar_trigger": false,
      "taf_trigger": false,
      "metar": "METAR LRSM 010930Z 03003KT 360V070 9999 OVC021 01/M03 Q1013",
      "taf": "TAF LRSM 010800Z 0109/0118 VRB04KT 9999 BKN045"
    },
    {
      "icao": "LRSV",
      "alert": "OK",
      "vis_m": 9999,
      "fzfg": false,
      "metar_trigger": false,
      "taf_trigger": false,
      "metar": "METAR LRSV 010930Z 05004KT 9999 FEW015 M13/M15 Q1018",
      "taf": "TAF LRSV 010800Z 0109/0118 VRB03KT 9999 SCT025"
    },
    {
      "icao": "LRTM",
      "alert": "OK",
      "vis_m": 9999,
      "fzfg": false,
      "metar_trigger": false,
      "taf_trigger": false,
      "metar": "METAR LRTM 010930Z 06005KT 020V100 9999 FEW030 04/01 Q1011",
      "taf": "TAF LRTM 010800Z 0109/0118 VRB04KT 9999 SCT030"
    },
    {
      "icao": "LRTR",
      "alert": "OK",
      "vis_m": 9999,
      "fzfg": false,
      "metar_trigger": false,
      "taf_trigger": false,
      "metar": "METAR LRTR 010930Z 07003KT 020V130 9999 FEW006 04/03 Q1011",
      "taf": "TAF LRTR 010500Z 0106/0206 VRB04KT 9999 OVC035"
    },
    {
      "icao": "LTAC",
      "alert": "OK",
      "vis_m": 9999,
      "fzfg": false,
      "metar_trigger": false,
      "taf_trigger": false,
      "metar": "METAR LTAC 010920Z 27003KT 160V320 9999 FEW040 SCT100 09/04 Q1012 NOSIG RMK RWY21C VRB01KT RWY03L VRB02KT RWY21R VRB02KT RWY03R VRB01KT RWY21L VRB01KT",
      "taf": "TAF LTAC 010440Z 0106/0206 VRB02KT 9999 SCT040"
    },
    {
      "icao": "LTFM",
      "alert": "OK",
      "vis_m": 9999,
      "fzfg": false,
      "metar_trigger": false,
      "taf_trigger": false,
      "metar": "METAR LTFM 010920Z 06021KT 9999 BKN011 BKN025 06/04 Q1011 NOSIG RMK RWY17L 06020KT RWY34L 06015KT RWY16R 06022KT RWY36 06019KT RWY18 07018KT",
      "taf": "TAF LTFM 010440Z 0106/0212 05015KT 9999 BKN011 BKN025"
    },
    {
      "icao": "LUKK",
      "alert": "OK",
      "vis_m": 9999,
      "fzfg": false,
      "metar_trigger": false,
      "taf_trigger": false,
      "metar": "METAR LUKK 010930Z 36011KT CAVOK M09/M15 Q1020 NOSIG",
      "taf": "TAF LUKK 010518Z 0106/0206 01012KT 9999 SCT025"
    },
    {
      "icao": "LWOH",
      "alert": "OK",
      "vis_m": null,
      "fzfg": false,
      "metar_trigger": false,
      "taf_trigger": false,
      "metar": "",
      "taf": "TAF LWOH 010830Z 0109/0209 33010KT 9999 RA BKN015 OVC040"
    },
    {
      "icao": "LWSK",
      "alert": "OK",
      "vis_m": null,
      "fzfg": false,
      "metar_trigger": false,
      "taf_trigger": false,
      "metar": "",
      "taf": "TAF LWSK 010830Z 0109/0209 VRB02KT 6000 RA SCT005 BKN020 OVC030"
    },
    {
      "icao": "LYBE",
      "alert": "OK",
      "vis_m": 9999,
      "fzfg": false,
      "metar_trigger": false,
      "taf_trigger": false,
      "metar": "METAR LYBE 010930Z 11014KT 9999 BKN046 03/M02 Q1011 NOSIG",
      "taf": "TAF LYBE 010500Z 0106/0206 11013KT 9999 BKN045 TX05/0113Z TNM01/0206Z"
    },
    {
      "icao": "LYNI",
      "alert": "OK",
      "vis_m": 9999,
      "fzfg": false,
      "metar_trigger": false,
      "taf_trigger": false,
      "metar": "METAR LYNI 010930Z 06007KT 010V130 9999 FEW025 SCT040 03/M02 Q1009 NOSIG",
      "taf": "TAF LYNI 010500Z 0106/0206 05012KT 9999 BKN033 TX04/0112Z TNM03/0206Z"
    },
    {
      "icao": "LYPG",
      "alert": "OK",
      "vis_m": 9999,
      "fzfg": false,
      "metar_trigger": false,
      "taf_trigger": false,
      "metar": "METAR LYPG 010930Z 16004KT 9999 FEW050 OVC070 08/06 Q1002 NOSIG",
      "taf": "TAF LYPG 010500Z 0106/0206 36005KT 9999 SCT040 BKN090 TX10/0112Z TN03/0205Z"
    },
    {
      "icao": "LZIB",
      "alert": "OK",
      "vis_m": 7000,
      "fzfg": false,
      "metar_trigger": false,
      "taf_trigger": false,
      "metar": "METAR LZIB 010930Z 27006KT 7000 FEW004 BKN006 OVC007 M00/M03 Q1013 TEMPO SCT004 BKN010",
      "taf": ""
    },
    {
      "icao": "LZKZ",
      "alert": "OK",
      "vis_m": 9999,
      "fzfg": false,
      "metar_trigger": false,
      "taf_trigger": false,
      "metar": "METAR LZKZ 010930Z 03012KT 9999 OVC036 M04/M09 Q1013 NOSIG",
      "taf": "TAF LZKZ 010515Z 0106/0206 01018KT 9999 SCT030"
    },
    {
      "icao": "LZTT",
      "alert": "OK",
      "vis_m": 3500,
      "fzfg": false,
      "metar_trigger": false,
      "taf_trigger": false,
      "metar": "METAR LZTT 010930Z VRB02KT 3500 BR OVC003 M10/M11 Q1011 TEMPO BKN006",
      "taf": ""
    },
    {
      "icao": "OEJN",
      "alert": "OK",
      "vis_m": 9999,
      "fzfg": false,
      "metar_trigger": false,
      "taf_trigger": false,
      "metar": "METAR OEJN 010900Z 00000KT CAVOK 32/13 Q1013 NOSIG",
      "taf": "TAF OEJN 010500Z 0106/0212 26010KT CAVOK"
    },
    {
      "icao": "OEMA",
      "alert": "OK",
      "vis_m": 9999,
      "fzfg": false,
      "metar_trigger": false,
      "taf_trigger": false,
      "metar": "METAR OEMA 010900Z 09003KT CAVOK 26/07 Q1020 NOSIG",
      "taf": "TAF OEMA 010500Z 0106/0212 11010KT CAVOK"
    },
    {
      "icao": "OJAI",
      "alert": "OK",
      "vis_m": 5000,
      "fzfg": false,
      "metar_trigger": false,
      "taf_trigger": false,
      "metar": "METAR OJAI 010900Z 13005KT 5000 HZ NSC 18/07 Q1019 NOSIG",
      "taf": "TAF OJAI 010500Z 0106/0212 20010KT 5000 HZ NSC"
    },
    {
      "icao": "OMAA",
      "alert": "OK",
      "vis_m": 9999,
      "fzfg": false,
      "metar_trigger": false,
      "taf_trigger": false,
      "metar": "METAR OMAA 010930Z 28006KT 230V310 CAVOK 24/14 Q1018 BECMG 33010KT",
      "taf": "TAF OMAA 010500Z 0106/0212 VRB02KT 8000 NSC"
    },
    {
      "icao": "OMDB",
      "alert": "OK",
      "vis_m": 9999,
      "fzfg": false,
      "metar_trigger": false,
      "taf_trigger": false,
      "metar": "METAR OMDB 010930Z 29006KT 250V020 CAVOK 26/10 Q1018 NOSIG",
      "taf": "TAF OMDB 010500Z 0106/0212 19005KT 8000 FEW025"
    },
    {
      "icao": "UAAA",
      "alert": "OK",
      "vis_m": 3800,
      "fzfg": false,
      "metar_trigger": false,
      "taf_trigger": false,
      "metar": "METAR UAAA 010930Z 03003MPS 3800 FU SCT200 05/M01 Q1019 NOSIG",
      "taf": "TAF UAAA 010503Z 0106/0206 02003MPS 6000 SCT100 TX04/0109Z TNM03/0202Z"
    },
    {
      "icao": "UBBB",
      "alert": "OK",
      "vis_m": 9999,
      "fzfg": false,
      "metar_trigger": false,
      "taf_trigger": false,
      "metar": "METAR UBBB 010930Z 01008KT 330V040 9999 BKN015 08/04 Q1009 NOSIG",
      "taf": "TAF UBBB 010513Z 0106/0206 31006KT 9999 BKN010 BKN030 TX10/0110Z TN04/0200Z"
    },
    {
      "icao": "UDSG",
      "alert": "OK",
      "vis_m": 9000,
      "fzfg": false,
      "metar_trigger": false,
      "taf_trigger": false,
      "metar": "METAR UDSG 010930Z 29003KT 9000 BKN043 03/M01 Q1015 NOSIG",
      "taf": "TAF UDSG 010500Z 0106/0206 VRB06KT 1500 BR BKN010"
    },
    {
      "icao": "UDYZ",
      "alert": "OK",
      "vis_m": 1600,
      "fzfg": false,
      "metar_trigger": false,
      "taf_trigger": false,
      "metar": "METAR UDYZ 010930Z VRB01KT 1600 R08/1500U BR SCT046 02/M01 Q1016 NOSIG",
      "taf": "TAF UDYZ 010500Z 0106/0206 VRB06KT 2000 BR BKN020"
    },
    {
      "icao": "UGKO",
      "alert": "OK",
      "vis_m": 9999,
      "fzfg": false,
      "metar_trigger": false,
      "taf_trigger": false,
      "metar": "METAR UGKO 010930Z 12005KT 9999 OVC043 12/09 Q1013 NOSIG",
      "taf": "TAF UGKO 010500Z 0106/0206 08007KT 9999 BKN050 TX11/0111Z TN06/0202Z"
    }
  ]
}