{
  "ts_utc": "2026-04-18T07:48:27Z",
  "threshold_m": 150,
  "source": "stations_override.txt (ICAO list) + aviationweather.gov (METAR/TAF raw)",
  "station_count": 159,
  "stations": [
    {
      "icao": "BIKF",
      "alert": "OK",
      "vis_m": 9999,
      "fzfg": false,
      "metar_trigger": false,
      "taf_trigger": false,
      "metar": "METAR BIKF 180730Z 31008KT 9999 SCT046 04/M05 Q1012",
      "taf": "TAF BIKF 180446Z 1806/1906 28017KT 9999 SCT020 BKN040 TX07/1815Z TN01/1902Z"
    },
    {
      "icao": "BKPR",
      "alert": "OK",
      "vis_m": 9999,
      "fzfg": false,
      "metar_trigger": false,
      "taf_trigger": false,
      "metar": "METAR BKPR 180730Z 36008KT 9999 FEW035 15/04 Q1016 NOSIG",
      "taf": "TAF BKPR 180530Z 1806/1906 36008KT 9999 FEW050"
    },
    {
      "icao": "EBCI",
      "alert": "OK",
      "vis_m": 9999,
      "fzfg": false,
      "metar_trigger": false,
      "taf_trigger": false,
      "metar": "METAR EBCI 180720Z VRB02KT CAVOK 13/09 Q1021 NOSIG",
      "taf": "TAF EBCI 180501Z 1806/1912 18003KT 9999 BKN045"
    },
    {
      "icao": "EDDB",
      "alert": "OK",
      "vis_m": 9999,
      "fzfg": false,
      "metar_trigger": false,
      "taf_trigger": false,
      "metar": "METAR EDDB 180720Z AUTO 10004KT 060V150 CAVOK 14/04 Q1021 NOSIG",
      "taf": "TAF EDDB 180500Z 1806/1906 11004KT CAVOK"
    },
    {
      "icao": "EDDH",
      "alert": "OK",
      "vis_m": 9999,
      "fzfg": false,
      "metar_trigger": false,
      "taf_trigger": false,
      "metar": "METAR EDDH 180720Z AUTO 16007KT 130V190 CAVOK 14/07 Q1019 NOSIG",
      "taf": "TAF EDDH 180500Z 1806/1912 11005KT CAVOK"
    },
    {
      "icao": "EDDK",
      "alert": "OK",
      "vis_m": 9999,
      "fzfg": false,
      "metar_trigger": false,
      "taf_trigger": false,
      "metar": "METAR EDDK 180720Z AUTO 15003KT 100V190 CAVOK 13/09 Q1021 NOSIG",
      "taf": "TAF EDDK 180500Z 1806/1912 VRB02KT CAVOK"
    },
    {
      "icao": "EDDN",
      "alert": "OK",
      "vis_m": 9999,
      "fzfg": false,
      "metar_trigger": false,
      "taf_trigger": false,
      "metar": "METAR EDDN 180720Z AUTO 13006KT CAVOK 13/07 Q1020 NOSIG",
      "taf": "TAF EDDN 180500Z 1806/1906 12003KT CAVOK"
    },
    {
      "icao": "EDDS",
      "alert": "OK",
      "vis_m": 9999,
      "fzfg": false,
      "metar_trigger": false,
      "taf_trigger": false,
      "metar": "METAR EDDS 180720Z AUTO 10003KT 060V130 CAVOK 12/08 Q1020 NOSIG",
      "taf": "TAF EDDS 180500Z 1806/1906 VRB03KT CAVOK"
    },
    {
      "icao": "EDFH",
      "alert": "OK",
      "vis_m": 9999,
      "fzfg": false,
      "metar_trigger": false,
      "taf_trigger": false,
      "metar": "METAR EDFH 180720Z VRB02KT CAVOK 12/08 Q1021",
      "taf": "TAF EDFH 180500Z 1806/1906 VRB03KT CAVOK"
    },
    {
      "icao": "EDJA",
      "alert": "OK",
      "vis_m": 9999,
      "fzfg": false,
      "metar_trigger": false,
      "taf_trigger": false,
      "metar": "METAR EDJA 180720Z 21006KT CAVOK 12/07 Q1021",
      "taf": "TAF EDJA 180500Z 1806/1815 VRB03KT CAVOK"
    },
    {
      "icao": "EDLW",
      "alert": "OK",
      "vis_m": 9999,
      "fzfg": false,
      "metar_trigger": false,
      "taf_trigger": false,
      "metar": "METAR EDLW 180720Z 18004KT 140V220 CAVOK 15/08 Q1020",
      "taf": "TAF EDLW 180500Z 1806/1906 17007KT CAVOK"
    },
    {
      "icao": "EDNY",
      "alert": "OK",
      "vis_m": 9999,
      "fzfg": false,
      "metar_trigger": false,
      "taf_trigger": false,
      "metar": "METAR EDNY 180720Z VRB02KT CAVOK 12/07 Q1021",
      "taf": "TAF EDNY 180500Z 1806/1815 06003KT CAVOK"
    },
    {
      "icao": "EDSB",
      "alert": "OK",
      "vis_m": 9999,
      "fzfg": false,
      "metar_trigger": false,
      "taf_trigger": false,
      "metar": "METAR EDSB 180720Z 21006KT 180V240 CAVOK 14/09 Q1020",
      "taf": "TAF EDSB 180500Z 1806/1906 VRB03KT CAVOK"
    },
    {
      "icao": "EETN",
      "alert": "OK",
      "vis_m": 9999,
      "fzfg": false,
      "metar_trigger": false,
      "taf_trigger": false,
      "metar": "METAR EETN 180720Z 09009KT 040V110 CAVOK 10/M00 Q1023 NOSIG",
      "taf": "TAF EETN 180530Z 1806/1906 07007KT CAVOK"
    },
    {
      "icao": "EFTU",
      "alert": "OK",
      "vis_m": 9999,
      "fzfg": false,
      "metar_trigger": false,
      "taf_trigger": false,
      "metar": "METAR EFTU 180720Z AUTO 13005KT CAVOK 10/M01 Q1023",
      "taf": "TAF EFTU 180525Z 1806/1906 07003KT CAVOK"
    },
    {
      "icao": "EGBB",
      "alert": "OK",
      "vis_m": 9999,
      "fzfg": false,
      "metar_trigger": false,
      "taf_trigger": false,
      "metar": "METAR EGBB 180720Z 24005KT CAVOK 09/06 Q1021",
      "taf": "TAF EGBB 180500Z 1806/1906 21009KT 9999 FEW018 SCT030"
    },
    {
      "icao": "EGGP",
      "alert": "OK",
      "vis_m": 9999,
      "fzfg": false,
      "metar_trigger": false,
      "taf_trigger": false,
      "metar": "METAR EGGP 180720Z 25007KT 9999 SCT028 10/06 Q1020",
      "taf": "TAF EGGP 180505Z 1806/1906 25012KT 9999 SCT035"
    },
    {
      "icao": "EGGW",
      "alert": "OK",
      "vis_m": 9999,
      "fzfg": false,
      "metar_trigger": false,
      "taf_trigger": false,
      "metar": "METAR EGGW 180720Z AUTO 26009KT 9999 NCD 09/07 Q1021",
      "taf": "TAF EGGW 180456Z 1806/1906 25006KT CAVOK"
    },
    {
      "icao": "EGKK",
      "alert": "OK",
      "vis_m": 9999,
      "fzfg": false,
      "metar_trigger": false,
      "taf_trigger": false,
      "metar": "METAR EGKK 180720Z 26005KT 230V300 CAVOK 11/07 Q1022",
      "taf": "TAF EGKK 180504Z 1806/1912 24005KT 9999 SCT035"
    },
    {
      "icao": "EGNM",
      "alert": "OK",
      "vis_m": 9999,
      "fzfg": false,
      "metar_trigger": false,
      "taf_trigger": false,
      "metar": "METAR EGNM 180720Z 24009KT 9999 -SHRA SCT012 SCT025 08/06 Q1018",
      "taf": ""
    },
    {
      "icao": "EGPD",
      "alert": "OK",
      "vis_m": 9999,
      "fzfg": false,
      "metar_trigger": false,
      "taf_trigger": false,
      "metar": "METAR EGPD 180720Z COR AUTO 23012KT 200V260 9999 NCD 09/05 Q1010 NOSIG",
      "taf": "TAF EGPD 180457Z 1806/1906 21010KT 9999 SCT030"
    },
    {
      "icao": "EGPF",
      "alert": "OK",
      "vis_m": 9000,
      "fzfg": false,
      "metar_trigger": false,
      "taf_trigger": false,
      "metar": "METAR EGPF 180720Z AUTO 23013KT 9000 -RA BKN019 BKN040 09/08 Q1014",
      "taf": "TAF EGPF 180454Z 1806/1906 21009KT 9999 SCT030"
    },
    {
      "icao": "EHBK",
      "alert": "OK",
      "vis_m": 9999,
      "fzfg": false,
      "metar_trigger": false,
      "taf_trigger": false,
      "metar": "METAR EHBK 180725Z AUTO 20006KT 9999 NSC 14/09 Q1021 NOSIG",
      "taf": "TAF EHBK 180505Z 1806/1912 23005KT CAVOK"
    },
    {
      "icao": "EHEH",
      "alert": "OK",
      "vis_m": 9999,
      "fzfg": false,
      "metar_trigger": false,
      "taf_trigger": false,
      "metar": "METAR EHEH 180725Z AUTO 22004KT 190V260 9999 FEW054 SCT096 OVC110 15/10 Q1021 BLU NOSIG RMK TREND REMOTE BY EHWX",
      "taf": "TAF EHEH 180516Z 1806/1912 VRB02KT 9999 SCT050"
    },
    {
      "icao": "EKBI",
      "alert": "OK",
      "vis_m": 9999,
      "fzfg": false,
      "metar_trigger": false,
      "taf_trigger": false,
      "metar": "METAR EKBI 180720Z AUTO 13007KT 9999 BKN076/// 11/06 Q1019",
      "taf": "TAF EKBI 180527Z 1806/1906 13005KT 9999 SCT020"
    },
    {
      "icao": "EKCH",
      "alert": "OK",
      "vis_m": 9999,
      "fzfg": false,
      "metar_trigger": false,
      "taf_trigger": false,
      "metar": "METAR EKCH 180720Z AUTO 13007KT 9999 OVC078/// 08/04 Q1022 NOSIG",
      "taf": "TAF EKCH 180527Z 1806/1906 16006KT 9999 FEW035"
    },
    {
      "icao": "ENAL",
      "alert": "OK",
      "vis_m": 9999,
      "fzfg": false,
      "metar_trigger": false,
      "taf_trigger": false,
      "metar": "METAR ENAL 180720Z 15005KT 110V170 9999 SCT056 13/03 Q1014",
      "taf": "TAF ENAL 180500Z 1806/1815 13008KT 9999 -RA BKN050"
    },
    {
      "icao": "ENBR",
      "alert": "OK",
      "vis_m": 9999,
      "fzfg": false,
      "metar_trigger": false,
      "taf_trigger": false,
      "metar": "METAR ENBR 180720Z 13011KT 9999 -SHRA FEW008 BKN023 09/07 Q1015 TEMPO 4000 SHRA BR BKN008 SCT020CB RMK WIND 1200FT 15020KT",
      "taf": "TAF ENBR 180500Z 1806/1906 14012KT 9999 FEW012 BKN025"
    },
    {
      "icao": "ENGM",
      "alert": "OK",
      "vis_m": 9999,
      "fzfg": false,
      "metar_trigger": false,
      "taf_trigger": false,
      "metar": "METAR ENGM 180720Z 05004KT 020V090 CAVOK 07/02 Q1021 NOSIG",
      "taf": "TAF ENGM 180500Z 1806/1906 03005KT CAVOK"
    },
    {
      "icao": "ENHD",
      "alert": "OK",
      "vis_m": 4300,
      "fzfg": false,
      "metar_trigger": false,
      "taf_trigger": false,
      "metar": "METAR ENHD 180720Z 17011KT 4300 SHRA FEW002 BKN006 BKN016 09/08 Q1015",
      "taf": "TAF ENHD 180500Z 1806/1815 15012KT 9999 -RA FEW012 BKN025"
    },
    {
      "icao": "ENTC",
      "alert": "OK",
      "vis_m": 9999,
      "fzfg": false,
      "metar_trigger": false,
      "taf_trigger": false,
      "metar": "METAR ENTC 180720Z 24003KT 210V270 CAVOK 06/M01 Q1025 NOSIG RMK WIND 2600FT 17012KT",
      "taf": "TAF ENTC 180500Z 1806/1906 VRB03KT CAVOK"
    },
    {
      "icao": "ENTO",
      "alert": "OK",
      "vis_m": 9999,
      "fzfg": false,
      "metar_trigger": false,
      "taf_trigger": false,
      "metar": "METAR ENTO 180720Z VRB02KT CAVOK 08/06 Q1021 NOSIG",
      "taf": "TAF ENTO 180500Z 1806/1906 03005KT CAVOK"
    },
    {
      "icao": "ENVA",
      "alert": "OK",
      "vis_m": 9999,
      "fzfg": false,
      "metar_trigger": false,
      "taf_trigger": false,
      "metar": "METAR ENVA 180720Z 14008KT CAVOK 12/02 Q1018 NOSIG RMK WIND 670FT 16014KT",
      "taf": "TAF ENVA 180500Z 1806/1906 12008KT CAVOK"
    },
    {
      "icao": "ENZV",
      "alert": "OK",
      "vis_m": 9999,
      "fzfg": false,
      "metar_trigger": false,
      "taf_trigger": false,
      "metar": "METAR ENZV 180720Z 16012KT 9999 VCSH BKN026 11/08 Q1016 TEMPO 4000 SHRA BKN008 SCT020CB",
      "taf": ""
    },
    {
      "icao": "EPGD",
      "alert": "OK",
      "vis_m": 9999,
      "fzfg": false,
      "metar_trigger": false,
      "taf_trigger": false,
      "metar": "METAR EPGD 180730Z 36006KT 330V030 CAVOK 12/02 Q1023",
      "taf": "TAF EPGD 180530Z 1806/1906 36005KT CAVOK"
    },
    {
      "icao": "EPKK",
      "alert": "OK",
      "vis_m": 9999,
      "fzfg": false,
      "metar_trigger": false,
      "taf_trigger": false,
      "metar": "METAR EPKK 180730Z 18003KT 160V240 9999 FEW025 11/04 Q1022",
      "taf": "TAF EPKK 180530Z 1806/1906 24004KT CAVOK"
    },
    {
      "icao": "EPKT",
      "alert": "OK",
      "vis_m": 9999,
      "fzfg": false,
      "metar_trigger": false,
      "taf_trigger": false,
      "metar": "METAR EPKT 180730Z 35007KT CAVOK 12/04 Q1022",
      "taf": "TAF EPKT 180530Z 1806/1906 VRB02KT CAVOK"
    },
    {
      "icao": "EPLB",
      "alert": "OK",
      "vis_m": 9999,
      "fzfg": false,
      "metar_trigger": false,
      "taf_trigger": false,
      "metar": "METAR EPLB 180730Z 31009KT CAVOK 08/05 Q1020",
      "taf": ""
    },
    {
      "icao": "EPMO",
      "alert": "OK",
      "vis_m": 9999,
      "fzfg": false,
      "metar_trigger": false,
      "taf_trigger": false,
      "metar": "METAR EPMO 180730Z 01005KT 9999 BKN038 10/06 Q1021",
      "taf": "TAF EPMO 180530Z 1806/1906 31005KT CAVOK"
    },
    {
      "icao": "EPPO",
      "alert": "OK",
      "vis_m": 9999,
      "fzfg": false,
      "metar_trigger": false,
      "taf_trigger": false,
      "metar": "METAR EPPO 180730Z 13004KT 100V180 CAVOK 13/04 Q1023",
      "taf": "TAF EPPO 180530Z 1806/1906 08004KT CAVOK"
    },
    {
      "icao": "EPRA",
      "alert": "OK",
      "vis_m": 9999,
      "fzfg": false,
      "metar_trigger": false,
      "taf_trigger": false,
      "metar": "METAR EPRA 180730Z 32008KT 290V350 CAVOK 09/04 Q1021",
      "taf": "TAF EPRA 180530Z 1806/1815 32008KT CAVOK"
    },
    {
      "icao": "EPRZ",
      "alert": "OK",
      "vis_m": 9999,
      "fzfg": false,
      "metar_trigger": false,
      "taf_trigger": false,
      "metar": "METAR EPRZ 180730Z 28008KT 9999 FEW023 11/05 Q1021",
      "taf": "TAF EPRZ 180530Z 1806/1906 26005KT 9999 BKN018"
    },
    {
      "icao": "EPSC",
      "alert": "OK",
      "vis_m": 9999,
      "fzfg": false,
      "metar_trigger": false,
      "taf_trigger": false,
      "metar": "METAR EPSC 180730Z 15005KT 100V180 CAVOK 12/04 Q1022",
      "taf": "TAF EPSC 180530Z 1806/1906 10005KT CAVOK"
    },
    {
      "icao": "EPSY",
      "alert": "OK",
      "vis_m": 9999,
      "fzfg": false,
      "metar_trigger": false,
      "taf_trigger": false,
      "metar": "METAR EPSY 180730Z 35003KT 300V080 9999 FEW005 07/05 Q1021",
      "taf": "TAF EPSY 180530Z 1806/1815 34007KT 4000 BR BKN005"
    },
    {
      "icao": "EPWA",
      "alert": "OK",
      "vis_m": 9999,
      "fzfg": false,
      "metar_trigger": false,
      "taf_trigger": false,
      "metar": "METAR EPWA 180730Z 27004KT 240V320 9999 BKN046 08/04 Q1021 NOSIG",
      "taf": "TAF EPWA 180530Z 1806/1906 30006KT CAVOK"
    },
    {
      "icao": "EPWR",
      "alert": "OK",
      "vis_m": 9999,
      "fzfg": false,
      "metar_trigger": false,
      "taf_trigger": false,
      "metar": "METAR EPWR 180730Z VRB02KT CAVOK 13/02 Q1022",
      "taf": "TAF EPWR 180530Z 1806/1906 VRB02KT CAVOK"
    },
    {
      "icao": "ESGG",
      "alert": "OK",
      "vis_m": 9999,
      "fzfg": false,
      "metar_trigger": false,
      "taf_trigger": false,
      "metar": "METAR ESGG 180720Z 18006KT CAVOK 09/05 Q1021",
      "taf": "TAF ESGG 180530Z 1806/1906 15005KT CAVOK"
    },
    {
      "icao": "ESKN",
      "alert": "OK",
      "vis_m": 9999,
      "fzfg": false,
      "metar_trigger": false,
      "taf_trigger": false,
      "metar": "METAR ESKN 180720Z 03005KT 350V060 CAVOK 10/02 Q1023",
      "taf": "TAF ESKN 180530Z 1806/1906 VRB01KT CAVOK"
    },
    {
      "icao": "ESMS",
      "alert": "OK",
      "vis_m": 9999,
      "fzfg": false,
      "metar_trigger": false,
      "taf_trigger": false,
      "metar": "METAR ESMS 180720Z 16006KT CAVOK 11/02 Q1022",
      "taf": "TAF ESMS 180527Z 1806/1906 16006KT 9999 SCT040"
    },
    {
      "icao": "ESSA",
      "alert": "OK",
      "vis_m": 9999,
      "fzfg": false,
      "metar_trigger": false,
      "taf_trigger": false,
      "metar": "METAR ESSA 180720Z 36004KT 320V040 CAVOK 08/M01 Q1023 NOSIG",
      "taf": "TAF ESSA 180530Z 1806/1906 32004KT CAVOK"
    },
    {
      "icao": "EYKA",
      "alert": "OK",
      "vis_m": 9999,
      "fzfg": false,
      "metar_trigger": false,
      "taf_trigger": false,
      "metar": "METAR EYKA 180720Z 04004KT 340V080 CAVOK 10/01 Q1020",
      "taf": "TAF EYKA 180506Z 1806/1906 01010KT 9000 NSC"
    },
    {
      "icao": "EYPA",
      "alert": "OK",
      "vis_m": 9999,
      "fzfg": false,
      "metar_trigger": false,
      "taf_trigger": false,
      "metar": "METAR EYPA 180720Z VRB02KT CAVOK 10/02 Q1022",
      "taf": "TAF EYPA 180500Z 1806/1906 VRB04KT 8000 NSC"
    },
    {
      "icao": "EYVI",
      "alert": "OK",
      "vis_m": 9999,
      "fzfg": false,
      "metar_trigger": false,
      "taf_trigger": false,
      "metar": "METAR EYVI 180720Z 32006KT 270V030 CAVOK 10/04 Q1018 NOSIG",
      "taf": "TAF EYVI 180501Z 1806/1906 VRB03KT 9000 NSC"
    },
    {
      "icao": "GCFV",
      "alert": "OK",
      "vis_m": 9999,
      "fzfg": false,
      "metar_trigger": false,
      "taf_trigger": false,
      "metar": "METAR GCFV 180730Z 33005KT CAVOK 20/11 Q1013",
      "taf": "TAF GCFV 180200Z 1803/1903 35007KT 8000 NSC TX29/1814Z TN18/1806Z"
    },
    {
      "icao": "GCLP",
      "alert": "OK",
      "vis_m": 9999,
      "fzfg": false,
      "metar_trigger": false,
      "taf_trigger": false,
      "metar": "METAR GCLP 180730Z 18004KT 100V250 CAVOK 24/07 Q1012 NOSIG",
      "taf": "TAF GCLP 180200Z 1803/1903 VRB09KT 8000 NSC TX29/1814Z TN20/1806Z"
    },
    {
      "icao": "GCTS",
      "alert": "OK",
      "vis_m": 9999,
      "fzfg": false,
      "metar_trigger": false,
      "taf_trigger": false,
      "metar": "METAR GCTS 180730Z 12015KT CAVOK 21/14 Q1011 NOSIG",
      "taf": "TAF GCTS 180200Z 1803/1903 09015KT 8000 NSC TX30/1814Z TN22/1806Z"
    },
    {
      "icao": "GMAD",
      "alert": "OK",
      "vis_m": 8000,
      "fzfg": false,
      "metar_trigger": false,
      "taf_trigger": false,
      "metar": "METAR GMAD 180730Z 07010KT 8000 NSC 20/07 Q1013 NOSIG",
      "taf": "TAF GMAD 180500Z 1806/1912 22004KT 8000 NSC"
    },
    {
      "icao": "GMMN",
      "alert": "OK",
      "vis_m": 9999,
      "fzfg": false,
      "metar_trigger": false,
      "taf_trigger": false,
      "metar": "METAR GMMN 180730Z 13003KT 110V180 9999 FEW004 14/12 Q1016 NOSIG",
      "taf": "TAF GMMN 180500Z 1806/1912 30003KT 8000 BKN004"
    },
    {
      "icao": "GMMX",
      "alert": "OK",
      "vis_m": 9999,
      "fzfg": false,
      "metar_trigger": false,
      "taf_trigger": false,
      "metar": "METAR GMMX 180730Z VRB02KT CAVOK 19/15 Q1017 NOSIG",
      "taf": "TAF GMMX 180500Z 1806/1912 12006KT CAVOK"
    },
    {
      "icao": "HEGN",
      "alert": "OK",
      "vis_m": 4000,
      "fzfg": false,
      "metar_trigger": false,
      "taf_trigger": false,
      "metar": "METAR HEGN 180700Z 32018KT 4000 SA SCT020 BKN025 28/02 Q1008 NOSIG",
      "taf": "TAF HEGN 180500Z 1806/1912 29015G25KT 6000 SCT025"
    },
    {
      "icao": "HEMA",
      "alert": "OK",
      "vis_m": 6000,
      "fzfg": false,
      "metar_trigger": false,
      "taf_trigger": false,
      "metar": "METAR HEMA 180700Z 36013KT 6000 NSC 28/16 Q1007 NOSIG",
      "taf": "TAF HEMA 180500Z 1806/1912 29012G25KT 6000 SCT025"
    },
    {
      "icao": "HESH",
      "alert": "OK",
      "vis_m": 9999,
      "fzfg": false,
      "metar_trigger": false,
      "taf_trigger": false,
      "metar": "METAR HESH 180700Z 00000KT CAVOK 29/22 Q1006 NOSIG",
      "taf": "TAF HESH 180500Z 1806/1912 29010G22KT 6000 SCT025"
    },
    {
      "icao": "HESX",
      "alert": "OK",
      "vis_m": 9999,
      "fzfg": false,
      "metar_trigger": false,
      "taf_trigger": false,
      "metar": "METAR HESX 180700Z 26016KT CAVOK 20/14 Q1007 NOSIG",
      "taf": "TAF HESX 180500Z 1806/1912 26014KT 6000 NSC"
    },
    {
      "icao": "LATI",
      "alert": "OK",
      "vis_m": null,
      "fzfg": false,
      "metar_trigger": false,
      "taf_trigger": false,
      "metar": "",
      "taf": "TAF LATI 180500Z 1806/1906 VRB05KT CAVOK TX27/1812Z TN08/1904Z"
    },
    {
      "icao": "LBPD",
      "alert": "OK",
      "vis_m": 9999,
      "fzfg": false,
      "metar_trigger": false,
      "taf_trigger": false,
      "metar": "METAR LBPD 180730Z AUTO VRB03KT 9999 BKN099/// 16/08 Q1014 NOSIG",
      "taf": "TAF LBPD 180500Z 1806/1906 VRB04KT 9999 SCT033 BKN050"
    },
    {
      "icao": "LBSF",
      "alert": "OK",
      "vis_m": 9000,
      "fzfg": false,
      "metar_trigger": false,
      "taf_trigger": false,
      "metar": "METAR LBSF 180730Z 08009KT 030V130 9000 -TSRA SCT025 FEW028CB BKN045 BKN057 10/07 Q1015 RETSRA TEMPO 4000 SHRA SCT020TCU BKN040",
      "taf": ""
    },
    {
      "icao": "LBWN",
      "alert": "OK",
      "vis_m": 9999,
      "fzfg": false,
      "metar_trigger": false,
      "taf_trigger": false,
      "metar": "METAR LBWN 180730Z 01012KT 9999 FEW016 SCT040 14/10 Q1013 NOSIG",
      "taf": "TAF LBWN 180500Z 1806/1906 35012KT 9999 SCT040"
    },
    {
      "icao": "LCLK",
      "alert": "OK",
      "vis_m": 1500,
      "fzfg": false,
      "metar_trigger": false,
      "taf_trigger": false,
      "metar": "METAR LCLK 180730Z 20009KT 170V230 1500 DU FEW020TCU 22/18 Q1001 TEMPO 1500 DU SHRA SCT020TCU FEW025CB",
      "taf": "TAF LCLK 180530Z 1806/1906 35008KT 8000 FEW030"
    },
    {
      "icao": "LCPH",
      "alert": "OK",
      "vis_m": 1500,
      "fzfg": false,
      "metar_trigger": false,
      "taf_trigger": false,
      "metar": "METAR LCPH 180730Z 17008KT 1500 DU FEW030 FEW040CB BKN050 19/17 Q1000 TEMPO 1000 TSRA DU SCT020CB",
      "taf": "TAF LCPH 180530Z 1806/1906 13017KT 8000 FEW030"
    },
    {
      "icao": "LEAL",
      "alert": "OK",
      "vis_m": 9999,
      "fzfg": false,
      "metar_trigger": false,
      "taf_trigger": false,
      "metar": "METAR LEAL 180730Z 00000KT CAVOK 20/08 Q1020 NOSIG",
      "taf": "TAF LEAL 180500Z 1806/1906 VRB04KT CAVOK TX23/1812Z TN12/1905Z"
    },
    {
      "icao": "LEBB",
      "alert": "OK",
      "vis_m": 9999,
      "fzfg": false,
      "metar_trigger": false,
      "taf_trigger": false,
      "metar": "METAR LEBB 180730Z VRB02KT 9999 FEW011 BKN029 15/13 Q1023 NOSIG",
      "taf": "TAF LEBB 180500Z 1806/1906 VRB03KT 9999 BKN016 TX19/1815Z TN10/1902Z"
    },
    {
      "icao": "LEBL",
      "alert": "OK",
      "vis_m": 9999,
      "fzfg": false,
      "metar_trigger": false,
      "taf_trigger": false,
      "metar": "METAR LEBL 180730Z 31004KT 270V020 CAVOK 18/13 Q1020 NOSIG",
      "taf": "TAF LEBL 180500Z 1806/1906 31007KT CAVOK TX21/1812Z TN12/1806Z"
    },
    {
      "icao": "LECH",
      "alert": "OK",
      "vis_m": 9999,
      "fzfg": false,
      "metar_trigger": false,
      "taf_trigger": false,
      "metar": "METAR LECH 180730Z AUTO 20003KT 170V250 CAVOK 15/09 Q1020",
      "taf": "TAF LECH 180500Z 1806/1906 VRB04KT CAVOK TX25/1813Z TN11/1905Z"
    },
    {
      "icao": "LEMD",
      "alert": "OK",
      "vis_m": 9999,
      "fzfg": false,
      "metar_trigger": false,
      "taf_trigger": false,
      "metar": "METAR LEMD 180730Z VRB01KT CAVOK 14/07 Q1020 NOSIG",
      "taf": "TAF LEMD 180500Z 1806/1912 VRB04KT CAVOK TX28/1816Z TN10/1906Z"
    },
    {
      "icao": "LEMG",
      "alert": "OK",
      "vis_m": 9999,
      "fzfg": false,
      "metar_trigger": false,
      "taf_trigger": false,
      "metar": "METAR LEMG 180730Z 30008KT CAVOK 13/08 Q1019 NOSIG",
      "taf": "TAF LEMG 180500Z 1806/1906 29007KT CAVOK TX23/1814Z TN09/1806Z"
    },
    {
      "icao": "LEVC",
      "alert": "OK",
      "vis_m": 9999,
      "fzfg": false,
      "metar_trigger": false,
      "taf_trigger": false,
      "metar": "METAR LEVC 180730Z 31004KT 280V350 CAVOK 16/12 Q1020 NOSIG",
      "taf": "TAF LEVC 180500Z 1806/1906 VRB04KT CAVOK TX25/1812Z TN12/1905Z"
    },
    {
      "icao": "LEXJ",
      "alert": "OK",
      "vis_m": 9999,
      "fzfg": false,
      "metar_trigger": false,
      "taf_trigger": false,
      "metar": "METAR LEXJ 180730Z VRB01KT 9999 SCT015 OVC025 14/12 Q1023",
      "taf": "TAF LEXJ 180200Z 1803/1903 10005KT 9999 SCT005 BKN016 TX17/1814Z TN12/1803Z"
    },
    {
      "icao": "LEZG",
      "alert": "OK",
      "vis_m": 9999,
      "fzfg": false,
      "metar_trigger": false,
      "taf_trigger": false,
      "metar": "METAR LEZG 180730Z 29003KT 260V320 CAVOK 16/11 Q1020 NOSIG",
      "taf": "TAF LEZG 180500Z 1806/1906 29008KT CAVOK TX30/1814Z TN14/1905Z"
    },
    {
      "icao": "LEZL",
      "alert": "OK",
      "vis_m": 9999,
      "fzfg": false,
      "metar_trigger": false,
      "taf_trigger": false,
      "metar": "METAR LEZL 180730Z 05006KT CAVOK 18/10 Q1017 NOSIG",
      "taf": "TAF LEZL 180200Z 1803/1903 04005KT CAVOK TX32/1815Z TN13/1806Z"
    },
    {
      "icao": "LFBD",
      "alert": "OK",
      "vis_m": 9999,
      "fzfg": false,
      "metar_trigger": false,
      "taf_trigger": false,
      "metar": "METAR LFBD 180730Z AUTO 35006KT 310V040 CAVOK 14/11 Q1022 NOSIG",
      "taf": "TAF LFBD 180500Z 1806/1912 31005KT CAVOK TX25/1815Z TN11/1806Z"
    },
    {
      "icao": "LFLL",
      "alert": "OK",
      "vis_m": 9999,
      "fzfg": false,
      "metar_trigger": false,
      "taf_trigger": false,
      "metar": "METAR LFLL 180730Z 36004KT 290V050 CAVOK 13/09 Q1021 NOSIG",
      "taf": "TAF LFLL 180500Z 1806/1912 VRB02KT CAVOK"
    },
    {
      "icao": "LFLS",
      "alert": "OK",
      "vis_m": 9999,
      "fzfg": false,
      "metar_trigger": false,
      "taf_trigger": false,
      "metar": "METAR LFLS 180730Z AUTO VRB02KT CAVOK 13/09 Q1021 NOSIG",
      "taf": "TAF LFLS 180200Z 1803/1903 09005KT CAVOK"
    },
    {
      "icao": "LFMN",
      "alert": "OK",
      "vis_m": 9999,
      "fzfg": false,
      "metar_trigger": false,
      "taf_trigger": false,
      "metar": "METAR LFMN 180730Z 06003KT CAVOK 21/11 Q1018 NOSIG",
      "taf": "TAF LFMN 180200Z 1803/1909 01005KT CAVOK"
    },
    {
      "icao": "LFOB",
      "alert": "OK",
      "vis_m": 9999,
      "fzfg": false,
      "metar_trigger": false,
      "taf_trigger": false,
      "metar": "METAR LFOB 180730Z AUTO 28002KT CAVOK 13/12 Q1021 TEMPO 4500 -SHRA BKN013 BECMG 34010KT",
      "taf": "TAF LFOB 180500Z 1806/1906 VRB05KT 9999 SCT040"
    },
    {
      "icao": "LFPO",
      "alert": "OK",
      "vis_m": 9999,
      "fzfg": false,
      "metar_trigger": false,
      "taf_trigger": false,
      "metar": "METAR LFPO 180730Z 19003KT 140V240 CAVOK 14/09 Q1021 NOSIG",
      "taf": "TAF LFPO 180500Z 1806/1912 24003KT CAVOK"
    },
    {
      "icao": "LFSB",
      "alert": "OK",
      "vis_m": 9999,
      "fzfg": false,
      "metar_trigger": false,
      "taf_trigger": false,
      "metar": "METAR LFSB 180730Z AUTO 17004KT 140V200 CAVOK 14/08 Q1021 NOSIG",
      "taf": "TAF LFSB 180500Z 1806/1906 VRB03KT CAVOK"
    },
    {
      "icao": "LGAV",
      "alert": "OK",
      "vis_m": 9999,
      "fzfg": false,
      "metar_trigger": false,
      "taf_trigger": false,
      "metar": "METAR LGAV 180720Z 03018KT 9999 FEW025 18/02 Q1010 NOSIG",
      "taf": "TAF LGAV 180500Z 1806/1906 01018KT 9999 FEW025"
    },
    {
      "icao": "LGTS",
      "alert": "OK",
      "vis_m": 9999,
      "fzfg": false,
      "metar_trigger": false,
      "taf_trigger": false,
      "metar": "METAR LGTS 180720Z VRB02KT 9999 SCT030 16/12 Q1012 NOSIG",
      "taf": "TAF LGTS 180500Z 1806/1906 35013KT 9999 SCT025 BKN050"
    },
    {
      "icao": "LHBP",
      "alert": "OK",
      "vis_m": 9999,
      "fzfg": false,
      "metar_trigger": false,
      "taf_trigger": false,
      "metar": "METAR LHBP 180730Z 01005KT 320V050 CAVOK 15/01 Q1020 NOSIG",
      "taf": "TAF LHBP 180515Z 1806/1906 36005KT CAVOK"
    },
    {
      "icao": "LHDC",
      "alert": "OK",
      "vis_m": 9999,
      "fzfg": false,
      "metar_trigger": false,
      "taf_trigger": false,
      "metar": "METAR LHDC 180715Z AUTO 03011KT 350V060 CAVOK 13/03 Q1019 NOSIG",
      "taf": "TAF LHDC 180515Z 1806/1815 02012G22KT CAVOK"
    },
    {
      "icao": "LIBD",
      "alert": "OK",
      "vis_m": 9999,
      "fzfg": false,
      "metar_trigger": false,
      "taf_trigger": false,
      "metar": "METAR LIBD 180720Z 31010KT 270V340 CAVOK 19/11 Q1014",
      "taf": "TAF LIBD 180500Z 1806/1906 27008KT CAVOK"
    },
    {
      "icao": "LIBG",
      "alert": "OK",
      "vis_m": 9999,
      "fzfg": false,
      "metar_trigger": false,
      "taf_trigger": false,
      "metar": "METAR LIBG 180650Z 35013KT CAVOK 18/11 Q1012",
      "taf": "TAF LIBG 180500Z 1807/1815 VRB05KT CAVOK"
    },
    {
      "icao": "LIBP",
      "alert": "OK",
      "vis_m": 9999,
      "fzfg": false,
      "metar_trigger": false,
      "taf_trigger": false,
      "metar": "METAR LIBP 180720Z AUTO 22005KT 9999 NCD 18/11 Q1018",
      "taf": "TAF LIBP 180500Z 1806/1906 24005KT CAVOK"
    },
    {
      "icao": "LIBR",
      "alert": "OK",
      "vis_m": 9999,
      "fzfg": false,
      "metar_trigger": false,
      "taf_trigger": false,
      "metar": "METAR LIBR 180720Z 32017KT CAVOK 17/14 Q1012",
      "taf": "TAF LIBR 180500Z 1806/1906 33016KT CAVOK"
    },
    {
      "icao": "LICA",
      "alert": "OK",
      "vis_m": 9999,
      "fzfg": false,
      "metar_trigger": false,
      "taf_trigger": false,
      "metar": "METAR LICA 180720Z AUTO 22008KT 9999 BKN013/// 18/16 Q1015",
      "taf": "TAF LICA 180500Z 1806/1906 24010KT 9999 SCT014"
    },
    {
      "icao": "LICC",
      "alert": "OK",
      "vis_m": 9999,
      "fzfg": false,
      "metar_trigger": false,
      "taf_trigger": false,
      "metar": "METAR LICC 180720Z VRB02KT CAVOK 19/16 Q1014",
      "taf": "TAF LICC 180500Z 1806/1906 VRB05KT 9999 FEW020"
    },
    {
      "icao": "LICJ",
      "alert": "OK",
      "vis_m": 9999,
      "fzfg": false,
      "metar_trigger": false,
      "taf_trigger": false,
      "metar": "METAR LICJ 180720Z 23005KT 190V250 CAVOK 17/14 Q1015",
      "taf": "TAF LICJ 180500Z 1806/1906 VRB05KT 9999 SCT010"
    },
    {
      "icao": "LIMC",
      "alert": "OK",
      "vis_m": 9999,
      "fzfg": false,
      "metar_trigger": false,
      "taf_trigger": false,
      "metar": "METAR LIMC 180720Z 02003KT 320V080 9999 SCT060 18/13 Q1019 NOSIG",
      "taf": "TAF LIMC 180500Z 1806/1912 VRB05KT 9999 SCT050"
    },
    {
      "icao": "LIME",
      "alert": "OK",
      "vis_m": 9999,
      "fzfg": false,
      "metar_trigger": false,
      "taf_trigger": false,
      "metar": "METAR LIME 180720Z 02003KT 9999 FEW050 SCT100 18/12 Q1019 NOSIG",
      "taf": "TAF LIME 180500Z 1806/1906 VRB05KT 9999 SCT050"
    },
    {
      "icao": "LIMF",
      "alert": "OK",
      "vis_m": 9999,
      "fzfg": false,
      "metar_trigger": false,
      "taf_trigger": false,
      "metar": "METAR LIMF 180720Z 11003KT 9999 BKN050 17/14 Q1019",
      "taf": "TAF LIMF 180500Z 1806/1906 VRB05KT 9999 SCT040"
    },
    {
      "icao": "LIMJ",
      "alert": "OK",
      "vis_m": 9999,
      "fzfg": false,
      "metar_trigger": false,
      "taf_trigger": false,
      "metar": "METAR LIMJ 180720Z 36003KT 310V030 CAVOK 21/11 Q1018",
      "taf": "TAF LIMJ 180500Z 1806/1906 VRB05KT CAVOK"
    },
    {
      "icao": "LIPE",
      "alert": "OK",
      "vis_m": 9999,
      "fzfg": false,
      "metar_trigger": false,
      "taf_trigger": false,
      "metar": "METAR LIPE 180720Z 21003KT 160V250 CAVOK 17/11 Q1019",
      "taf": "TAF LIPE 180500Z 1806/1906 VRB05KT CAVOK"
    },
    {
      "icao": "LIPH",
      "alert": "OK",
      "vis_m": 9999,
      "fzfg": false,
      "metar_trigger": false,
      "taf_trigger": false,
      "metar": "METAR LIPH 180720Z 06004KT CAVOK 20/10 Q1019",
      "taf": "TAF LIPH 180500Z 1806/1906 VRB05KT CAVOK"
    },
    {
      "icao": "LIPQ",
      "alert": "OK",
      "vis_m": 9999,
      "fzfg": false,
      "metar_trigger": false,
      "taf_trigger": false,
      "metar": "METAR LIPQ 180720Z AUTO VRB02KT 9999 FEW076/// 19/10 Q1019",
      "taf": "TAF LIPQ 180500Z 1806/1906 VRB04KT 9999 SCT060"
    },
    {
      "icao": "LIPR",
      "alert": "OK",
      "vis_m": 9999,
      "fzfg": false,
      "metar_trigger": false,
      "taf_trigger": false,
      "metar": "METAR LIPR 180720Z 32004KT 290V010 CAVOK 18/11 Q1019",
      "taf": "TAF LIPR 180500Z 1806/1906 VRB05KT CAVOK"
    },
    {
      "icao": "LIPX",
      "alert": "OK",
      "vis_m": 9999,
      "fzfg": false,
      "metar_trigger": false,
      "taf_trigger": false,
      "metar": "METAR LIPX 180720Z 10004KT 070V150 9999 SCT090 19/11 Q1019",
      "taf": "TAF LIPX 180500Z 1806/1906 VRB05KT 9999 FEW050"
    },
    {
      "icao": "LIPY",
      "alert": "OK",
      "vis_m": 9999,
      "fzfg": false,
      "metar_trigger": false,
      "taf_trigger": false,
      "metar": "METAR LIPY 180720Z AUTO 23006KT 9999 NCD 17/12 Q1018",
      "taf": "TAF LIPY 180500Z 1806/1906 24006KT CAVOK"
    },
    {
      "icao": "LIPZ",
      "alert": "OK",
      "vis_m": 9999,
      "fzfg": false,
      "metar_trigger": false,
      "taf_trigger": false,
      "metar": "METAR LIPZ 180720Z 06005KT CAVOK 19/10 Q1019 NOSIG",
      "taf": "TAF LIPZ 180500Z 1806/1912 05008KT CAVOK"
    },
    {
      "icao": "LIRF",
      "alert": "OK",
      "vis_m": 9999,
      "fzfg": false,
      "metar_trigger": false,
      "taf_trigger": false,
      "metar": "METAR LIRF 180720Z 36004KT 330V050 CAVOK 19/12 Q1016 NOSIG",
      "taf": "TAF LIRF 180500Z 1806/1912 04007KT 9999 FEW050"
    },
    {
      "icao": "LIRN",
      "alert": "OK",
      "vis_m": 9999,
      "fzfg": false,
      "metar_trigger": false,
      "taf_trigger": false,
      "metar": "METAR LIRN 180720Z VRB04KT CAVOK 20/07 Q1015 NOSIG",
      "taf": "TAF LIRN 180500Z 1806/1906 VRB05KT 9999 SCT060"
    },
    {
      "icao": "LIRP",
      "alert": "OK",
      "vis_m": 9999,
      "fzfg": false,
      "metar_trigger": false,
      "taf_trigger": false,
      "metar": "METAR LIRP 180715Z 10004KT CAVOK 16/13 Q1018 NOSIG",
      "taf": "TAF LIRP 180500Z 1806/1906 VRB03KT CAVOK"
    },
    {
      "icao": "LIRZ",
      "alert": "OK",
      "vis_m": 9999,
      "fzfg": false,
      "metar_trigger": false,
      "taf_trigger": false,
      "metar": "METAR LIRZ 180720Z AUTO 35006KT 9999 NCD 17/11 Q1018",
      "taf": "TAF LIRZ 180500Z 1806/1906 VRB05KT CAVOK"
    },
    {
      "icao": "LJLJ",
      "alert": "OK",
      "vis_m": 9999,
      "fzfg": false,
      "metar_trigger": false,
      "taf_trigger": false,
      "metar": "METAR LJLJ 180730Z VRB01KT 9999 FEW070 13/07 Q1021 NOSIG",
      "taf": "TAF LJLJ 180500Z 1806/1906 30003KT 9999 FEW070"
    },
    {
      "icao": "LKMT",
      "alert": "OK",
      "vis_m": 9999,
      "fzfg": false,
      "metar_trigger": false,
      "taf_trigger": false,
      "metar": "METAR LKMT 180730Z 06003KT 350V100 CAVOK 11/04 Q1022 NOSIG",
      "taf": "TAF LKMT 180500Z 1806/1906 22004KT CAVOK"
    },
    {
      "icao": "LKPR",
      "alert": "OK",
      "vis_m": 9999,
      "fzfg": false,
      "metar_trigger": false,
      "taf_trigger": false,
      "metar": "METAR LKPR 180730Z VRB02KT CAVOK 14/04 Q1021 NOSIG",
      "taf": "TAF LKPR 180500Z 1806/1912 VRB02KT CAVOK"
    },
    {
      "icao": "LLBG",
      "alert": "OK",
      "vis_m": 4500,
      "fzfg": false,
      "metar_trigger": false,
      "taf_trigger": false,
      "metar": "METAR LLBG 180720Z 24021G32KT 4500 DU NSC 26/09 Q1005 NOSIG",
      "taf": ""
    },
    {
      "icao": "LMML",
      "alert": "OK",
      "vis_m": 9999,
      "fzfg": false,
      "metar_trigger": false,
      "taf_trigger": false,
      "metar": "METAR LMML 180745Z 33006KT 300V020 9999 FEW015 20/15 Q1015 NOSIG",
      "taf": "TAF LMML 180500Z 1806/1906 31010KT 9999 FEW012"
    },
    {
      "icao": "LOWW",
      "alert": "OK",
      "vis_m": 9999,
      "fzfg": false,
      "metar_trigger": false,
      "taf_trigger": false,
      "metar": "METAR LOWW 180720Z 02004KT 340V050 CAVOK 13/05 Q1022 NOSIG",
      "taf": "TAF LOWW 180515Z 1806/1912 35007KT CAVOK TX20/1815Z TN08/1903Z"
    },
    {
      "icao": "LPFR",
      "alert": "OK",
      "vis_m": 9999,
      "fzfg": false,
      "metar_trigger": false,
      "taf_trigger": false,
      "metar": "METAR LPFR 180730Z 08006KT CAVOK 21/06 Q1016",
      "taf": "TAF LPFR 180500Z 1806/1906 06007KT CAVOK"
    },
    {
      "icao": "LPMA",
      "alert": "OK",
      "vis_m": 9999,
      "fzfg": false,
      "metar_trigger": false,
      "taf_trigger": false,
      "metar": "METAR LPMA 180730Z 02016KT 9999 BKN015 16/11 Q1016",
      "taf": "TAF LPMA 180500Z 1806/1906 03015KT 9999 BKN015"
    },
    {
      "icao": "LPPR",
      "alert": "OK",
      "vis_m": 9999,
      "fzfg": false,
      "metar_trigger": false,
      "taf_trigger": false,
      "metar": "METAR LPPR 180730Z VRB02KT CAVOK 14/11 Q1018",
      "taf": "TAF LPPR 180500Z 1806/1906 VRB02KT 9999 FEW012"
    },
    {
      "icao": "LPPS",
      "alert": "OK",
      "vis_m": 9999,
      "fzfg": false,
      "metar_trigger": false,
      "taf_trigger": false,
      "metar": "METAR LPPS 180730Z 06009KT 030V100 9999 BKN014 SCT030 16/12 Q1017",
      "taf": "TAF LPPS 180500Z 1806/1912 06012KT 9999 SCT014 BKN030"
    },
    {
      "icao": "LPPT",
      "alert": "OK",
      "vis_m": 9999,
      "fzfg": false,
      "metar_trigger": false,
      "taf_trigger": false,
      "metar": "METAR LPPT 180730Z 36003KT CAVOK 14/11 Q1017",
      "taf": "TAF LPPT 180500Z 1806/1912 33007KT CAVOK"
    },
    {
      "icao": "LQBK",
      "alert": "OK",
      "vis_m": 9999,
      "fzfg": false,
      "metar_trigger": false,
      "taf_trigger": false,
      "metar": "METAR LQBK 180730Z 32006KT 290V350 CAVOK 16/07 Q1019 NOSIG",
      "taf": "TAF LQBK 180500Z 1806/1906 32005KT CAVOK TX20/1813Z TN07/1904Z"
    },
    {
      "icao": "LQSA",
      "alert": "OK",
      "vis_m": 9999,
      "fzfg": false,
      "metar_trigger": false,
      "taf_trigger": false,
      "metar": "METAR LQSA 180730Z VRB01KT CAVOK 11/06 Q1018 NOSIG",
      "taf": "TAF LQSA 180500Z 1806/1906 29005KT CAVOK TX20/1814Z TN03/1904Z"
    },
    {
      "icao": "LQTZ",
      "alert": "OK",
      "vis_m": 9999,
      "fzfg": false,
      "metar_trigger": false,
      "taf_trigger": false,
      "metar": "METAR LQTZ 180730Z 30006KT 250V330 CAVOK 14/09 Q1018",
      "taf": "TAF LQTZ 180500Z 1806/1906 33005KT CAVOK TX18/1813Z TN05/1904Z"
    },
    {
      "icao": "LRBC",
      "alert": "OK",
      "vis_m": 9999,
      "fzfg": false,
      "metar_trigger": false,
      "taf_trigger": false,
      "metar": "METAR LRBC 180730Z 36013KT 9999 FEW035 SCT056 12/05 Q1017",
      "taf": "TAF LRBC 180500Z 1806/1815 34012KT CAVOK"
    },
    {
      "icao": "LRBS",
      "alert": "OK",
      "vis_m": 9999,
      "fzfg": false,
      "metar_trigger": false,
      "taf_trigger": false,
      "metar": "METAR LRBS 180730Z 06008KT 020V080 CAVOK 15/08 Q1015 NOSIG",
      "taf": "TAF LRBS 180500Z 1806/1906 VRB04KT 5000 BR NSC"
    },
    {
      "icao": "LRBV",
      "alert": "OK",
      "vis_m": 9999,
      "fzfg": false,
      "metar_trigger": false,
      "taf_trigger": false,
      "metar": "METAR LRBV 180730Z 08003KT 9999 FEW016 SCT045 10/06 Q1016",
      "taf": "TAF LRBV 180500Z 1806/1815 VRB04KT 3000 BR BKN002 BKN010"
    },
    {
      "icao": "LRCL",
      "alert": "OK",
      "vis_m": 9999,
      "fzfg": false,
      "metar_trigger": false,
      "taf_trigger": false,
      "metar": "METAR LRCL 180730Z VRB04KT CAVOK 13/03 Q1017",
      "taf": "TAF LRCL 180500Z 1806/1815 30006KT CAVOK"
    },
    {
      "icao": "LRCV",
      "alert": "OK",
      "vis_m": 9999,
      "fzfg": false,
      "metar_trigger": false,
      "taf_trigger": false,
      "metar": "METAR LRCV 180730Z 14009KT 9999 FEW025 15/10 Q1016",
      "taf": "TAF LRCV 180500Z 1806/1815 VRB04KT CAVOK"
    },
    {
      "icao": "LRIA",
      "alert": "OK",
      "vis_m": 9999,
      "fzfg": false,
      "metar_trigger": false,
      "taf_trigger": false,
      "metar": "METAR LRIA 180730Z 31014KT 9999 BKN030 11/04 Q1017",
      "taf": "TAF LRIA 180500Z 1806/1815 31012KT 9999 SCT045"
    },
    {
      "icao": "LROP",
      "alert": "OK",
      "vis_m": 9999,
      "fzfg": false,
      "metar_trigger": false,
      "taf_trigger": false,
      "metar": "METAR LROP 180730Z 08006KT 050V120 CAVOK 15/07 Q1015 NOSIG",
      "taf": "TAF LROP 180500Z 1806/1906 VRB04KT 5000 BR NSC"
    },
    {
      "icao": "LRSB",
      "alert": "OK",
      "vis_m": 9999,
      "fzfg": false,
      "metar_trigger": false,
      "taf_trigger": false,
      "metar": "METAR LRSB 180730Z 33004KT 260V020 9999 SCT040 12/04 Q1016",
      "taf": "TAF LRSB 180500Z 1806/1906 29008KT CAVOK"
    },
    {
      "icao": "LRSM",
      "alert": "OK",
      "vis_m": 9999,
      "fzfg": false,
      "metar_trigger": false,
      "taf_trigger": false,
      "metar": "METAR LRSM 180730Z 03009KT CAVOK 14/01 Q1018",
      "taf": "TAF LRSM 180500Z 1806/1815 30005KT CAVOK"
    },
    {
      "icao": "LRSV",
      "alert": "OK",
      "vis_m": 9999,
      "fzfg": false,
      "metar_trigger": false,
      "taf_trigger": false,
      "metar": "METAR LRSV 180730Z 31012KT 270V340 9999 SCT026 11/04 Q1017",
      "taf": "TAF LRSV 180500Z 1806/1815 31012KT 9999 BKN045"
    },
    {
      "icao": "LRTM",
      "alert": "OK",
      "vis_m": 9999,
      "fzfg": false,
      "metar_trigger": false,
      "taf_trigger": false,
      "metar": "METAR LRTM 180730Z 33003KT 250V050 CAVOK 12/06 Q1017",
      "taf": "TAF LRTM 180500Z 1806/1815 VRB04KT 3000 BR SCT002"
    },
    {
      "icao": "LRTR",
      "alert": "OK",
      "vis_m": 9999,
      "fzfg": false,
      "metar_trigger": false,
      "taf_trigger": false,
      "metar": "METAR LRTR 180730Z 01013KT CAVOK 14/03 Q1017",
      "taf": "TAF LRTR 180500Z 1806/1906 36012KT CAVOK"
    },
    {
      "icao": "LTAC",
      "alert": "OK",
      "vis_m": 9999,
      "fzfg": false,
      "metar_trigger": false,
      "taf_trigger": false,
      "metar": "SPECI LTAC 180741Z 03004KT 350V050 9999 -SHRA FEW003 BKN030 BKN080 11/10 Q1004 NOSIG",
      "taf": "TAF LTAC 180440Z 1806/1906 04008KT 9999 SCT035 BKN100"
    },
    {
      "icao": "LTFM",
      "alert": "OK",
      "vis_m": 9999,
      "fzfg": false,
      "metar_trigger": false,
      "taf_trigger": false,
      "metar": "METAR LTFM 180720Z 36019KT CAVOK 12/08 Q1011 NOSIG RMK RWY17L 36015KT RWY34L 35018KT RWY16R 36015KT RWY36 36019KT RWY18 36018KT",
      "taf": "TAF LTFM 180440Z 1806/1912 02018G28KT 9999 FEW012 BKN120"
    },
    {
      "icao": "LUKK",
      "alert": "OK",
      "vis_m": 9999,
      "fzfg": false,
      "metar_trigger": false,
      "taf_trigger": false,
      "metar": "METAR LUKK 180730Z 34015KT 9999 BKN036 11/03 Q1015 NOSIG",
      "taf": "TAF LUKK 180507Z 1806/1906 34014KT CAVOK"
    },
    {
      "icao": "LWOH",
      "alert": "OK",
      "vis_m": null,
      "fzfg": false,
      "metar_trigger": false,
      "taf_trigger": false,
      "metar": "",
      "taf": "TAF LWOH 180525Z 1806/1906 34008KT 9999 FEW050 SCT080"
    },
    {
      "icao": "LWSK",
      "alert": "OK",
      "vis_m": null,
      "fzfg": false,
      "metar_trigger": false,
      "taf_trigger": false,
      "metar": "",
      "taf": "TAF LWSK 180525Z 1806/1906 VRB02KT CAVOK"
    },
    {
      "icao": "LYBE",
      "alert": "OK",
      "vis_m": 9999,
      "fzfg": false,
      "metar_trigger": false,
      "taf_trigger": false,
      "metar": "METAR LYBE 180730Z 02007KT 350V050 CAVOK 14/05 Q1018 NOSIG",
      "taf": "TAF LYBE 180500Z 1806/1906 35004KT CAVOK TX21/1813Z TN04/1904Z"
    },
    {
      "icao": "LYNI",
      "alert": "OK",
      "vis_m": 9999,
      "fzfg": false,
      "metar_trigger": false,
      "taf_trigger": false,
      "metar": "METAR LYNI 180730Z 34012KT 9999 FEW050 16/06 Q1015 NOSIG",
      "taf": "TAF LYNI 180500Z 1806/1906 33008KT CAVOK TX21/1812Z TN05/1904Z"
    },
    {
      "icao": "LYPG",
      "alert": "OK",
      "vis_m": 9999,
      "fzfg": false,
      "metar_trigger": false,
      "taf_trigger": false,
      "metar": "METAR LYPG 180730Z 04010KT 350V080 CAVOK 22/01 Q1013 TEMPO 36022KT",
      "taf": "TAF LYPG 180500Z 1806/1906 36012KT CAVOK TX27/1813Z TN12/1904Z"
    },
    {
      "icao": "LZIB",
      "alert": "OK",
      "vis_m": 9999,
      "fzfg": false,
      "metar_trigger": false,
      "taf_trigger": false,
      "metar": "METAR LZIB 180730Z 01011KT CAVOK 16/00 Q1021 NOSIG",
      "taf": "TAF LZIB 180515Z 1806/1906 36005KT CAVOK"
    },
    {
      "icao": "LZKZ",
      "alert": "OK",
      "vis_m": 9999,
      "fzfg": false,
      "metar_trigger": false,
      "taf_trigger": false,
      "metar": "METAR LZKZ 180730Z 02012KT CAVOK 12/04 Q1020 NOSIG",
      "taf": ""
    },
    {
      "icao": "LZTT",
      "alert": "OK",
      "vis_m": 9999,
      "fzfg": false,
      "metar_trigger": false,
      "taf_trigger": false,
      "metar": "METAR LZTT 180730Z VRB03KT CAVOK 09/M00 Q1020 NOSIG",
      "taf": "TAF LZTT 180515Z 1806/1906 30005KT CAVOK"
    },
    {
      "icao": "OEJN",
      "alert": "OK",
      "vis_m": 5000,
      "fzfg": false,
      "metar_trigger": false,
      "taf_trigger": false,
      "metar": "SPECI OEJN 180733Z 16013G23KT 5000 BLDU NSC 39/14 Q1006 TEMPO 3000",
      "taf": "TAF OEJN 180500Z 1806/1912 18022KT 7000 NSC"
    },
    {
      "icao": "OEMA",
      "alert": "OK",
      "vis_m": 9999,
      "fzfg": false,
      "metar_trigger": false,
      "taf_trigger": false,
      "metar": "METAR OEMA 180700Z 11010KT CAVOK 32/08 Q1012 NOSIG",
      "taf": "TAF OEMA 180500Z 1806/1912 14010KT CAVOK"
    },
    {
      "icao": "OJAI",
      "alert": "OK",
      "vis_m": null,
      "fzfg": false,
      "metar_trigger": false,
      "taf_trigger": false,
      "metar": "",
      "taf": "TAF OJAI 180440Z 1806/1912 15010KT 3000 DU SCT040"
    },
    {
      "icao": "OMAA",
      "alert": "OK",
      "vis_m": null,
      "fzfg": false,
      "metar_trigger": false,
      "taf_trigger": false,
      "metar": "",
      "taf": ""
    },
    {
      "icao": "OMDB",
      "alert": "OK",
      "vis_m": null,
      "fzfg": false,
      "metar_trigger": false,
      "taf_trigger": false,
      "metar": "",
      "taf": ""
    },
    {
      "icao": "UAAA",
      "alert": "OK",
      "vis_m": 9999,
      "fzfg": false,
      "metar_trigger": false,
      "taf_trigger": false,
      "metar": "METAR UAAA 180730Z VRB01MPS 9999 BKN024 OVC100 08/03 Q1025 NOSIG",
      "taf": "TAF UAAA 180501Z 1806/1906 01003MPS 9999 SCT040CB BKN100 TX12/1809Z TN04/1901Z"
    },
    {
      "icao": "UBBB",
      "alert": "OK",
      "vis_m": 9999,
      "fzfg": false,
      "metar_trigger": false,
      "taf_trigger": false,
      "metar": "METAR UBBB 180730Z 19022G32KT CAVOK 16/10 Q1014 NOSIG",
      "taf": "TAF UBBB 180505Z 1806/1906 16018KT 9999 SCT025 TX17/1810Z TN10/1901Z"
    },
    {
      "icao": "UDSG",
      "alert": "OK",
      "vis_m": 9999,
      "fzfg": false,
      "metar_trigger": false,
      "taf_trigger": false,
      "metar": "METAR UDSG 180730Z 34002KT 9999 FEW043CB BKN049 12/M01 Q1015 NOSIG",
      "taf": "TAF UDSG 180500Z 1806/1906 24006KT 9999 BKN040"
    },
    {
      "icao": "UDYZ",
      "alert": "OK",
      "vis_m": 9999,
      "fzfg": false,
      "metar_trigger": false,
      "taf_trigger": false,
      "metar": "METAR UDYZ 180730Z VRB02KT 9999 SCT046 16/04 Q1013 NOSIG",
      "taf": "TAF UDYZ 180500Z 1806/1906 28006KT 9999 SCT040"
    },
    {
      "icao": "UGKO",
      "alert": "OK",
      "vis_m": 9999,
      "fzfg": false,
      "metar_trigger": false,
      "taf_trigger": false,
      "metar": "METAR UGKO 180730Z 08030G45KT CAVOK 20/04 Q1003 NOSIG",
      "taf": "TAF UGKO 180500Z 1806/1906 08020G35KT CAVOK TX20/1811Z TN11/1903Z"
    }
  ]
}