{
  "ts_utc": "2026-02-07T22:53:46Z",
  "threshold_m": 150,
  "source": "stations_override.txt (ICAO list) + aviationweather.gov (METAR/TAF raw)",
  "station_count": 159,
  "stations": [
    {
      "icao": "BIKF",
      "alert": "OK",
      "vis_m": 9999,
      "fzfg": false,
      "metar_trigger": false,
      "taf_trigger": false,
      "metar": "METAR BIKF 072230Z 04008KT CAVOK 00/M04 Q1010",
      "taf": "TAF BIKF 072239Z 0800/0900 05008KT 9999 FEW034 TX02/0815Z TNM03/0806Z"
    },
    {
      "icao": "BKPR",
      "alert": "OK",
      "vis_m": 9999,
      "fzfg": false,
      "metar_trigger": false,
      "taf_trigger": false,
      "metar": "METAR BKPR 072230Z 30007KT 9999 SCT080 07/04 Q1006 NOSIG",
      "taf": "TAF BKPR 071730Z 0718/0818 28008KT 9999 SCT070"
    },
    {
      "icao": "EBCI",
      "alert": "OK",
      "vis_m": 9999,
      "fzfg": false,
      "metar_trigger": false,
      "taf_trigger": false,
      "metar": "METAR EBCI 072220Z 15005KT CAVOK 07/04 Q1005 NOSIG",
      "taf": "TAF EBCI 071708Z 0718/0824 17007KT 9999 FEW025 SCT045"
    },
    {
      "icao": "EDDB",
      "alert": "OK",
      "vis_m": 1600,
      "fzfg": false,
      "metar_trigger": false,
      "taf_trigger": false,
      "metar": "METAR EDDB 072220Z AUTO 05005KT 1600 1100 R06L/P2000N R06R/1500U BR OVC002 01/01 Q1009 TEMPO 0800 FG OVC001",
      "taf": "TAF EDDB 071700Z 0718/0818 05006KT 3500 BR OVC003"
    },
    {
      "icao": "EDDH",
      "alert": "OK",
      "vis_m": 9000,
      "fzfg": false,
      "metar_trigger": false,
      "taf_trigger": false,
      "metar": "METAR EDDH 072220Z AUTO 09007KT 9000 -SHRA OVC005 FEW///TCU 01/00 Q1010 TEMPO OVC004",
      "taf": "TAF EDDH 071700Z 0718/0824 08006KT 6000 OVC005"
    },
    {
      "icao": "EDDK",
      "alert": "OK",
      "vis_m": 9999,
      "fzfg": false,
      "metar_trigger": false,
      "taf_trigger": false,
      "metar": "METAR EDDK 072220Z AUTO 08004KT CAVOK 05/04 Q1007 NOSIG",
      "taf": "TAF EDDK 071700Z 0718/0824 12005KT CAVOK"
    },
    {
      "icao": "EDDN",
      "alert": "OK",
      "vis_m": 350,
      "fzfg": false,
      "metar_trigger": false,
      "taf_trigger": false,
      "metar": "METAR EDDN 072220Z AUTO VRB01KT 0350 R28/0700N FG VV003 03/03 Q1007",
      "taf": ""
    },
    {
      "icao": "EDDS",
      "alert": "OK",
      "vis_m": 9999,
      "fzfg": false,
      "metar_trigger": false,
      "taf_trigger": false,
      "metar": "METAR EDDS 072220Z AUTO VRB01KT CAVOK 02/02 Q1006",
      "taf": "TAF EDDS 071700Z 0718/0818 03005KT 9999 BKN030"
    },
    {
      "icao": "EDFH",
      "alert": "OK",
      "vis_m": 9999,
      "fzfg": false,
      "metar_trigger": false,
      "taf_trigger": false,
      "metar": "METAR EDFH 072220Z 14009KT 9999 BCFG NSC 02/02 Q1006",
      "taf": "TAF EDFH 071700Z 0718/0818 14004KT 9999 SCT012"
    },
    {
      "icao": "EDJA",
      "alert": "OK",
      "vis_m": 1000,
      "fzfg": false,
      "metar_trigger": false,
      "taf_trigger": false,
      "metar": "METAR EDJA 072220Z AUTO 13002KT 1000 0400 R24/P2000N // FEW150/// 01/01 Q1006",
      "taf": "TAF EDJA 071700Z 0718/0803 VRB03KT 9999 FEW030"
    },
    {
      "icao": "EDLW",
      "alert": "OK",
      "vis_m": 9999,
      "fzfg": false,
      "metar_trigger": false,
      "taf_trigger": false,
      "metar": "METAR EDLW 072220Z AUTO 16009KT 9999 // NCD 05/04 Q1006",
      "taf": "TAF EDLW 071700Z 0718/0818 14004KT 9999 FEW030"
    },
    {
      "icao": "EDNY",
      "alert": "OK",
      "vis_m": 9999,
      "fzfg": false,
      "metar_trigger": false,
      "taf_trigger": false,
      "metar": "METAR EDNY 072220Z AUTO 03004KT 340V080 9999 // NCD 00/M00 Q1006",
      "taf": "TAF EDNY 071700Z 0718/0803 04003KT 9999 FEW040"
    },
    {
      "icao": "EDSB",
      "alert": "OK",
      "vis_m": 8000,
      "fzfg": false,
      "metar_trigger": false,
      "taf_trigger": false,
      "metar": "METAR EDSB 072220Z 32002KT 8000 BCFG FEW003 03/03 Q1006",
      "taf": "TAF EDSB 071700Z 0718/0818 03005KT CAVOK"
    },
    {
      "icao": "EETN",
      "alert": "OK",
      "vis_m": 9999,
      "fzfg": false,
      "metar_trigger": false,
      "taf_trigger": false,
      "metar": "METAR EETN 072250Z 08011KT 9999 -SG OVC007 M10/M11 Q1022",
      "taf": "TAF EETN 071730Z 0718/0818 05009KT 9999 BKN008"
    },
    {
      "icao": "EFTU",
      "alert": "OK",
      "vis_m": 9999,
      "fzfg": false,
      "metar_trigger": false,
      "taf_trigger": false,
      "metar": "METAR EFTU 072250Z AUTO 08008KT 9999 -SHSN OVC010 M10/M12 Q1024",
      "taf": "TAF EFTU 072027Z 0721/0821 08009KT 9999 BKN008"
    },
    {
      "icao": "EGBB",
      "alert": "OK",
      "vis_m": 9999,
      "fzfg": false,
      "metar_trigger": false,
      "taf_trigger": false,
      "metar": "METAR EGBB 072220Z 19007KT 160V240 9999 BKN010 09/08 Q0996",
      "taf": ""
    },
    {
      "icao": "EGGP",
      "alert": "OK",
      "vis_m": 9999,
      "fzfg": false,
      "metar_trigger": false,
      "taf_trigger": false,
      "metar": "METAR EGGP 072220Z 18004KT 150V220 9999 SCT020 SCT040 07/07 Q0994",
      "taf": "TAF EGGP 071706Z 0718/0818 10010KT 9999 BKN016"
    },
    {
      "icao": "EGGW",
      "alert": "OK",
      "vis_m": 9999,
      "fzfg": false,
      "metar_trigger": false,
      "taf_trigger": false,
      "metar": "METAR EGGW 072220Z AUTO 18008KT 150V210 9999 FEW007 SCT010 BKN016 08/07 Q0998",
      "taf": "TAF EGGW 071654Z 0718/0818 17008KT 9999 SCT008 BKN015"
    },
    {
      "icao": "EGKK",
      "alert": "OK",
      "vis_m": 9999,
      "fzfg": false,
      "metar_trigger": false,
      "taf_trigger": false,
      "metar": "METAR EGKK 072220Z 17005KT 140V200 9999 FEW014 09/08 Q1000",
      "taf": "TAF EGKK 071657Z 0718/0824 18009KT 9999 SCT015"
    },
    {
      "icao": "EGNM",
      "alert": "OK",
      "vis_m": 2000,
      "fzfg": false,
      "metar_trigger": false,
      "taf_trigger": false,
      "metar": "METAR EGNM 072220Z 14010KT 2000 -RA BR SCT001 OVC002 08/08 Q0994",
      "taf": "TAF EGNM 071706Z 0718/0818 11010KT 6000 BKN005"
    },
    {
      "icao": "EGPD",
      "alert": "OK",
      "vis_m": 2300,
      "fzfg": false,
      "metar_trigger": false,
      "taf_trigger": false,
      "metar": "METAR EGPD 072220Z AUTO 11014G25KT 2300 +RA OVC002/// //////TCU 07/06 Q1001 TEMPO 4000 RA",
      "taf": "TAF EGPD 071658Z 0718/0818 11010KT 8000 SCT002 BKN008"
    },
    {
      "icao": "EGPF",
      "alert": "OK",
      "vis_m": 9999,
      "fzfg": false,
      "metar_trigger": false,
      "taf_trigger": false,
      "metar": "METAR EGPF 072220Z AUTO 06010KT 9999 -RA BKN006 OVC017 07/06 Q0997",
      "taf": "TAF EGPF 071654Z 0718/0818 07010KT 9999 BKN020"
    },
    {
      "icao": "EHBK",
      "alert": "OK",
      "vis_m": 9999,
      "fzfg": false,
      "metar_trigger": false,
      "taf_trigger": false,
      "metar": "METAR EHBK 072225Z AUTO 15005KT 9999 NSC 06/04 Q1006",
      "taf": "TAF EHBK 071716Z 0718/0824 15005KT CAVOK"
    },
    {
      "icao": "EHEH",
      "alert": "OK",
      "vis_m": 9999,
      "fzfg": false,
      "metar_trigger": false,
      "taf_trigger": false,
      "metar": "METAR EHEH 072225Z AUTO 15005KT 9999 OVC270 06/04 Q1005 BLU NOSIG RMK TREND REMOTE BY EHWX",
      "taf": "TAF EHEH 071709Z 0718/0824 16005KT CAVOK"
    },
    {
      "icao": "EKBI",
      "alert": "OK",
      "vis_m": 4500,
      "fzfg": false,
      "metar_trigger": false,
      "taf_trigger": false,
      "metar": "METAR EKBI 072220Z AUTO 09012KT 4500 -SN BKN007/// OVC042/// M00/M01 Q1012",
      "taf": "TAF EKBI 072027Z 0721/0821 09014KT 9999 BKN007"
    },
    {
      "icao": "EKCH",
      "alert": "OK",
      "vis_m": 9999,
      "fzfg": false,
      "metar_trigger": false,
      "taf_trigger": false,
      "metar": "METAR EKCH 072221Z 05013KT 9999 BKN014 M00/M02 Q1014 NOSIG",
      "taf": "TAF EKCH 072027Z 0721/0821 07012KT 9999 OVC015"
    },
    {
      "icao": "ENAL",
      "alert": "OK",
      "vis_m": 9999,
      "fzfg": false,
      "metar_trigger": false,
      "taf_trigger": false,
      "metar": "METAR ENAL 072220Z AUTO 14008KT 9999 NCD 03/M03 Q1014",
      "taf": "TAF ENAL 072000Z 0721/0806 14007KT CAVOK"
    },
    {
      "icao": "ENBR",
      "alert": "OK",
      "vis_m": 9999,
      "fzfg": false,
      "metar_trigger": false,
      "taf_trigger": false,
      "metar": "METAR ENBR 072220Z VRB01KT CAVOK 01/M00 Q1013 RMK WIND 1200FT 11008KT",
      "taf": "TAF ENBR 071700Z 0718/0818 VRB03KT CAVOK"
    },
    {
      "icao": "ENGM",
      "alert": "OK",
      "vis_m": 9999,
      "fzfg": false,
      "metar_trigger": false,
      "taf_trigger": false,
      "metar": "METAR ENGM 072220Z 05006KT CAVOK M09/M15 Q1023",
      "taf": ""
    },
    {
      "icao": "ENHD",
      "alert": "OK",
      "vis_m": 9999,
      "fzfg": false,
      "metar_trigger": false,
      "taf_trigger": false,
      "metar": "METAR ENHD 072220Z AUTO 10015KT 9999 FEW025/// BKN039/// OVC049/// 03/M07 Q1013",
      "taf": "TAF ENHD 071400Z 0715/0723 10010KT CAVOK"
    },
    {
      "icao": "ENTC",
      "alert": "OK",
      "vis_m": 9999,
      "fzfg": false,
      "metar_trigger": false,
      "taf_trigger": false,
      "metar": "METAR ENTC 072220Z 21012KT 9999 SCT040 M04/M08 Q1021 RMK WIND 2600FT 30008KT",
      "taf": "TAF ENTC 071700Z 0718/0818 18005KT 9999 FEW040"
    },
    {
      "icao": "ENTO",
      "alert": "OK",
      "vis_m": 9999,
      "fzfg": false,
      "metar_trigger": false,
      "taf_trigger": false,
      "metar": "METAR ENTO 072220Z AUTO 05008KT 9999 NCD M07/M12 Q1022",
      "taf": "TAF ENTO 071700Z 0718/0818 02010KT 9999 FEW040"
    },
    {
      "icao": "ENVA",
      "alert": "OK",
      "vis_m": 9999,
      "fzfg": false,
      "metar_trigger": false,
      "taf_trigger": false,
      "metar": "METAR ENVA 072220Z 09010KT CAVOK M02/M11 Q1020 RMK WIND 670FT 13018KT",
      "taf": "TAF ENVA 071700Z 0718/0818 10007KT CAVOK"
    },
    {
      "icao": "ENZV",
      "alert": "OK",
      "vis_m": 9999,
      "fzfg": false,
      "metar_trigger": false,
      "taf_trigger": false,
      "metar": "METAR ENZV 072220Z 09012KT 9999 FEW037 BKN045 02/M07 Q1014",
      "taf": "TAF ENZV 071700Z 0718/0818 12012KT CAVOK"
    },
    {
      "icao": "EPGD",
      "alert": "OK",
      "vis_m": 4300,
      "fzfg": false,
      "metar_trigger": false,
      "taf_trigger": false,
      "metar": "METAR EPGD 072230Z 05006KT 020V080 4300 -SN BR OVC003 M03/M03 Q1010",
      "taf": "TAF EPGD 071730Z 0718/0818 06007KT 4000 -SN BR OVC006"
    },
    {
      "icao": "EPKK",
      "alert": "OK",
      "vis_m": 1300,
      "fzfg": false,
      "metar_trigger": false,
      "taf_trigger": false,
      "metar": "METAR EPKK 072230Z VRB02KT 1300 R25/P2000N BR BKN003 OVC009 02/01 Q1006",
      "taf": "TAF EPKK 072030Z 0721/0821 01001KT 1500 BR OVC005"
    },
    {
      "icao": "EPKT",
      "alert": "OK",
      "vis_m": 350,
      "fzfg": false,
      "metar_trigger": false,
      "taf_trigger": false,
      "metar": "METAR EPKT 072230Z 33002KT 0350 R26/0900U -RA FG BKN001 OVC002 01/00 Q1006",
      "taf": ""
    },
    {
      "icao": "EPLB",
      "alert": "OK",
      "vis_m": 4300,
      "fzfg": false,
      "metar_trigger": false,
      "taf_trigger": false,
      "metar": "METAR EPLB 072230Z 06006KT 4300 -SN BR BKN004 OVC013 M01/M02 Q1007",
      "taf": "TAF EPLB 071730Z 0718/0818 06005KT 5000 BR SCT004 BKN007"
    },
    {
      "icao": "EPMO",
      "alert": "OK",
      "vis_m": 4600,
      "fzfg": false,
      "metar_trigger": false,
      "taf_trigger": false,
      "metar": "METAR EPMO 072230Z 05006KT 4600 BR OVC006 M00/M00 Q1008",
      "taf": ""
    },
    {
      "icao": "EPPO",
      "alert": "OK",
      "vis_m": 1800,
      "fzfg": false,
      "metar_trigger": false,
      "taf_trigger": false,
      "metar": "METAR EPPO 072230Z 07004KT 1800 BR OVC001 M00/M01 Q1009",
      "taf": ""
    },
    {
      "icao": "EPRA",
      "alert": "OK",
      "vis_m": 3500,
      "fzfg": false,
      "metar_trigger": false,
      "taf_trigger": false,
      "metar": "METAR EPRA 072230Z 08004KT 3500 -FZDZ BR OVC004 M00/M01 Q1007",
      "taf": "TAF EPRA 072030Z 0721/0806 05005KT 3000 BR OVC004"
    },
    {
      "icao": "EPRZ",
      "alert": "OK",
      "vis_m": 500,
      "fzfg": false,
      "metar_trigger": false,
      "taf_trigger": false,
      "metar": "METAR EPRZ 072230Z 25002KT 0500 R27/1700D -DZ FG OVC002 01/01 Q1006",
      "taf": "TAF EPRZ 071730Z 0718/0818 30002KT 0100 FG OVC001"
    },
    {
      "icao": "EPSC",
      "alert": "OK",
      "vis_m": 9999,
      "fzfg": false,
      "metar_trigger": false,
      "taf_trigger": false,
      "metar": "METAR EPSC 072230Z VRB04KT 9999 BKN008 OVC032 M00/M01 Q1010",
      "taf": "TAF EPSC 071730Z 0718/0818 05005KT 4000 BR OVC006"
    },
    {
      "icao": "EPSY",
      "alert": "OK",
      "vis_m": 3700,
      "fzfg": false,
      "metar_trigger": false,
      "taf_trigger": false,
      "metar": "METAR EPSY 072230Z 05004KT 010V100 3700 -SN BR FEW002 SCT005 OVC026 M02/M03 Q1009",
      "taf": "TAF EPSY 072030Z 0721/0806 03005KT 5000 -SN BR BKN020"
    },
    {
      "icao": "EPWA",
      "alert": "OK",
      "vis_m": 6000,
      "fzfg": false,
      "metar_trigger": false,
      "taf_trigger": false,
      "metar": "METAR EPWA 072230Z 05005KT 6000 -SN BKN006 00/M01 Q1008 TEMPO 4000 BR",
      "taf": "TAF EPWA 072030Z 0721/0821 04004KT 2000 -DZ BR OVC003"
    },
    {
      "icao": "EPWR",
      "alert": "OK",
      "vis_m": 2000,
      "fzfg": false,
      "metar_trigger": false,
      "taf_trigger": false,
      "metar": "METAR EPWR 072230Z 03003KT 2000 -DZ BR FEW002 OVC005 01/01 Q1008",
      "taf": ""
    },
    {
      "icao": "ESGG",
      "alert": "OK",
      "vis_m": 9999,
      "fzfg": false,
      "metar_trigger": false,
      "taf_trigger": false,
      "metar": "METAR ESGG 072220Z 07010KT CAVOK M06/M10 Q1017",
      "taf": "TAF ESGG 072030Z 0721/0821 07010KT 9999 SCT025"
    },
    {
      "icao": "ESKN",
      "alert": "OK",
      "vis_m": 9999,
      "fzfg": false,
      "metar_trigger": false,
      "taf_trigger": false,
      "metar": "METAR ESKN 072220Z 03008KT 360V060 CAVOK M07/M09 Q1021",
      "taf": "TAF ESKN 072030Z 0721/0821 01007KT CAVOK"
    },
    {
      "icao": "ESMS",
      "alert": "OK",
      "vis_m": 9000,
      "fzfg": false,
      "metar_trigger": false,
      "taf_trigger": false,
      "metar": "METAR ESMS 072220Z 07017KT 9000 BKN009 OVC012 M00/M02 Q1013",
      "taf": "TAF ESMS 072027Z 0721/0821 07014KT 9999 BKN012"
    },
    {
      "icao": "ESSA",
      "alert": "OK",
      "vis_m": 9999,
      "fzfg": false,
      "metar_trigger": false,
      "taf_trigger": false,
      "metar": "METAR ESSA 072220Z 03007KT 9999 BKN015 M04/M06 Q1022 NOSIG",
      "taf": "TAF ESSA 072030Z 0721/0821 03008KT 9999 OVC013"
    },
    {
      "icao": "EYKA",
      "alert": "OK",
      "vis_m": 9000,
      "fzfg": false,
      "metar_trigger": false,
      "taf_trigger": false,
      "metar": "METAR EYKA 072250Z 03005KT 340V070 9000 -SN OVC010 M03/M05 Q1012",
      "taf": ""
    },
    {
      "icao": "EYPA",
      "alert": "OK",
      "vis_m": 9999,
      "fzfg": false,
      "metar_trigger": false,
      "taf_trigger": false,
      "metar": "METAR EYPA 072250Z 07010KT 9999 SCT013 OVC046 M03/M06 Q1014",
      "taf": "TAF EYPA 071714Z 0718/0818 06010KT 8000 BKN030"
    },
    {
      "icao": "EYVI",
      "alert": "OK",
      "vis_m": 9999,
      "fzfg": false,
      "metar_trigger": false,
      "taf_trigger": false,
      "metar": "METAR EYVI 072250Z 05009KT 9999 -SN BKN007 M04/M06 Q1010 NOSIG",
      "taf": "TAF EYVI 071716Z 0718/0818 06010KT 5000 -SN BR SCT010 BKN030"
    },
    {
      "icao": "GCFV",
      "alert": "OK",
      "vis_m": 9999,
      "fzfg": false,
      "metar_trigger": false,
      "taf_trigger": false,
      "metar": "METAR GCFV 072230Z 28003KT 250V320 9999 FEW030 17/11 Q1026",
      "taf": "TAF GCFV 072000Z 0721/0821 31005KT 9999 FEW030 TX21/0814Z TN13/0806Z"
    },
    {
      "icao": "GCLP",
      "alert": "OK",
      "vis_m": 9999,
      "fzfg": false,
      "metar_trigger": false,
      "taf_trigger": false,
      "metar": "METAR GCLP 072230Z 32004KT 260V020 9999 FEW035 16/11 Q1026 NOSIG",
      "taf": "TAF GCLP 072000Z 0721/0821 33007KT 9999 FEW035 TX21/0814Z TN15/0806Z"
    },
    {
      "icao": "GCTS",
      "alert": "OK",
      "vis_m": 9999,
      "fzfg": false,
      "metar_trigger": false,
      "taf_trigger": false,
      "metar": "METAR GCTS 072230Z 04006KT 9999 FEW030 17/12 Q1027 NOSIG",
      "taf": "TAF GCTS 072000Z 0721/0821 02006KT 9999 SCT035 TX22/0814Z TN14/0806Z"
    },
    {
      "icao": "GMAD",
      "alert": "OK",
      "vis_m": 9999,
      "fzfg": false,
      "metar_trigger": false,
      "taf_trigger": false,
      "metar": "METAR GMAD 072230Z 25007KT CAVOK 14/12 Q1025 NOSIG",
      "taf": "TAF GMAD 071700Z 0718/0824 26008KT 9999 SCT020 SCT080"
    },
    {
      "icao": "GMMN",
      "alert": "OK",
      "vis_m": 5000,
      "fzfg": false,
      "metar_trigger": false,
      "taf_trigger": false,
      "metar": "METAR GMMN 072230Z 23023KT 5000 RA SCT010 BKN017 14/12 Q1019 RERA NOSIG",
      "taf": "TAF GMMN 071700Z 0718/0824 22018G35KT 9999 BKN026"
    },
    {
      "icao": "GMMX",
      "alert": "OK",
      "vis_m": 9999,
      "fzfg": false,
      "metar_trigger": false,
      "taf_trigger": false,
      "metar": "METAR GMMX 072230Z 22008KT 9999 FEW080 SCT200 13/08 Q1025 NOSIG",
      "taf": "TAF GMMX 071700Z 0718/0824 24015KT 9999 SCT026 SCT100"
    },
    {
      "icao": "HEGN",
      "alert": "OK",
      "vis_m": 9999,
      "fzfg": false,
      "metar_trigger": false,
      "taf_trigger": false,
      "metar": "METAR HEGN 072200Z 25006KT CAVOK 18/05 Q1016 NOSIG",
      "taf": "TAF HEGN 071700Z 0718/0824 25007KT CAVOK"
    },
    {
      "icao": "HEMA",
      "alert": "OK",
      "vis_m": 9999,
      "fzfg": false,
      "metar_trigger": false,
      "taf_trigger": false,
      "metar": "METAR HEMA 072200Z 23006KT CAVOK 19/08 Q1016 NOSIG",
      "taf": "TAF HEMA 071700Z 0718/0824 14008KT CAVOK"
    },
    {
      "icao": "HESH",
      "alert": "OK",
      "vis_m": 9999,
      "fzfg": false,
      "metar_trigger": false,
      "taf_trigger": false,
      "metar": "METAR HESH 072200Z 28006KT CAVOK 20/17 Q1016 NOSIG",
      "taf": "TAF HESH 071700Z 0718/0824 26008KT CAVOK"
    },
    {
      "icao": "HESX",
      "alert": "OK",
      "vis_m": 9999,
      "fzfg": false,
      "metar_trigger": false,
      "taf_trigger": false,
      "metar": "METAR HESX 072200Z 18005KT CAVOK 18/06 Q1015 NOSIG",
      "taf": "TAF HESX 071700Z 0718/0824 23009KT CAVOK"
    },
    {
      "icao": "LATI",
      "alert": "OK",
      "vis_m": 9999,
      "fzfg": false,
      "metar_trigger": false,
      "taf_trigger": false,
      "metar": "METAR LATI 072250Z 34008KT 9999 -RA FEW029CB BKN046 11/08 Q1007 NOSIG",
      "taf": "TAF LATI 071700Z 0718/0818 VRB05KT 9999 SCT040 OVC080 TX16/0812Z TN10/0805Z"
    },
    {
      "icao": "LBPD",
      "alert": "OK",
      "vis_m": 9999,
      "fzfg": false,
      "metar_trigger": false,
      "taf_trigger": false,
      "metar": "METAR LBPD 072230Z AUTO 16005KT 9999 SCT088/// BKN230/// 08/06 Q1005",
      "taf": "TAF LBPD 071700Z 0718/0818 29008KT 9999 BKN050"
    },
    {
      "icao": "LBSF",
      "alert": "OK",
      "vis_m": 5000,
      "fzfg": false,
      "metar_trigger": false,
      "taf_trigger": false,
      "metar": "METAR LBSF 072230Z AUTO 28002KT 5000 0700W BCFG FEW003/// SCT087/// 05/04 Q1006 TEMPO 0800 BCFG",
      "taf": "TAF LBSF 071700Z 0718/0818 VRB04KT 9999 SCT030 BKN050"
    },
    {
      "icao": "LBWN",
      "alert": "OK",
      "vis_m": 6000,
      "fzfg": false,
      "metar_trigger": false,
      "taf_trigger": false,
      "metar": "METAR LBWN 072230Z AUTO 00000KT 6000 SCT017/// 05/05 Q1006 TEMPO 5000 BR",
      "taf": "TAF LBWN 071700Z 0718/0818 VRB03KT 9999 BKN015 BKN030"
    },
    {
      "icao": "LCLK",
      "alert": "OK",
      "vis_m": 9999,
      "fzfg": false,
      "metar_trigger": false,
      "taf_trigger": false,
      "metar": "METAR LCLK 072230Z VRB03KT CAVOK 11/09 Q1010 NOSIG",
      "taf": "TAF LCLK 071730Z 0718/0818 22010KT 9999 FEW025"
    },
    {
      "icao": "LCPH",
      "alert": "OK",
      "vis_m": 9999,
      "fzfg": false,
      "metar_trigger": false,
      "taf_trigger": false,
      "metar": "METAR LCPH 072230Z 07004KT 010V080 9999 FEW014 17/14 Q1010 NOSIG",
      "taf": "TAF LCPH 071730Z 0718/0818 30010KT 9999 FEW020"
    },
    {
      "icao": "LEAL",
      "alert": "OK",
      "vis_m": 9999,
      "fzfg": false,
      "metar_trigger": false,
      "taf_trigger": false,
      "metar": "METAR LEAL 072230Z 22006KT 9999 BKN060 13/09 Q1007 NOSIG",
      "taf": "TAF LEAL 071700Z 0718/0818 22012KT 9999 FEW040 TX17/0814Z TN08/0806Z"
    },
    {
      "icao": "LEBB",
      "alert": "OK",
      "vis_m": 9999,
      "fzfg": false,
      "metar_trigger": false,
      "taf_trigger": false,
      "metar": "METAR LEBB 072230Z 13012KT 090V160 9999 FEW035 12/04 Q0998 NOSIG",
      "taf": "TAF LEBB 071700Z 0718/0818 13009KT 9999 FEW050 TX12/0814Z TN08/0804Z"
    },
    {
      "icao": "LEBL",
      "alert": "OK",
      "vis_m": 9999,
      "fzfg": false,
      "metar_trigger": false,
      "taf_trigger": false,
      "metar": "METAR LEBL 072230Z VRB02KT 9999 FEW020TCU 11/07 Q1005 NOSIG",
      "taf": "TAF LEBL 071700Z 0718/0818 29009KT 9999 FEW025 TX16/0813Z TN07/0806Z"
    },
    {
      "icao": "LECH",
      "alert": "OK",
      "vis_m": 9999,
      "fzfg": false,
      "metar_trigger": false,
      "taf_trigger": false,
      "metar": "METAR LECH 072230Z AUTO 19002KT 9999 SCT045 BKN050 10/04 Q1004",
      "taf": ""
    },
    {
      "icao": "LEMD",
      "alert": "OK",
      "vis_m": 4000,
      "fzfg": false,
      "metar_trigger": false,
      "taf_trigger": false,
      "metar": "METAR LEMD 072230Z 04001KT 4000 -RA BR FEW025 BKN035 BKN045 04/04 Q1002 NOSIG",
      "taf": "TAF LEMD 071700Z 0718/0824 VRB04KT 9999 BKN020 TX10/0815Z TN02/0719Z"
    },
    {
      "icao": "LEMG",
      "alert": "OK",
      "vis_m": 9999,
      "fzfg": false,
      "metar_trigger": false,
      "taf_trigger": false,
      "metar": "METAR LEMG 072230Z 26005KT 230V300 9999 FEW045 SCT060 10/09 Q1012 NOSIG",
      "taf": "TAF LEMG 071700Z 0718/0818 23015KT 9999 FEW040 TX17/0814Z TN09/0806Z"
    },
    {
      "icao": "LEVC",
      "alert": "OK",
      "vis_m": 9999,
      "fzfg": false,
      "metar_trigger": false,
      "taf_trigger": false,
      "metar": "METAR LEVC 072230Z 28004KT CAVOK 08/06 Q1005 NOSIG",
      "taf": "TAF LEVC 071700Z 0718/0818 30006KT 9999 SCT035 TX18/0814Z TN08/0806Z"
    },
    {
      "icao": "LEXJ",
      "alert": "OK",
      "vis_m": 9999,
      "fzfg": false,
      "metar_trigger": false,
      "taf_trigger": false,
      "metar": "METAR LEXJ 072230Z AUTO 20015G26KT 150V230 CAVOK 13/03 Q0996",
      "taf": ""
    },
    {
      "icao": "LEZG",
      "alert": "OK",
      "vis_m": 9999,
      "fzfg": false,
      "metar_trigger": false,
      "taf_trigger": false,
      "metar": "METAR LEZG 072230Z 08005KT 9999 -RA BKN045 OVC055 08/08 Q1003 NOSIG",
      "taf": "TAF LEZG 071700Z 0718/0818 10007KT 9999 FEW050 TX13/0815Z TN05/0806Z"
    },
    {
      "icao": "LEZL",
      "alert": "OK",
      "vis_m": 9000,
      "fzfg": false,
      "metar_trigger": false,
      "taf_trigger": false,
      "metar": "METAR LEZL 072230Z 24008KT 210V270 9000 FEW036 12/08 Q1011 NOSIG",
      "taf": "TAF LEZL 072000Z 0721/0821 26008KT 9999 FEW030 TX15/0815Z TN09/0807Z"
    },
    {
      "icao": "LFBD",
      "alert": "OK",
      "vis_m": 9999,
      "fzfg": false,
      "metar_trigger": false,
      "taf_trigger": false,
      "metar": "METAR LFBD 072230Z AUTO 12009KT CAVOK 09/04 Q1001 NOSIG",
      "taf": "TAF LFBD 071700Z 0718/0824 12005KT CAVOK TX12/0814Z TN06/0806Z"
    },
    {
      "icao": "LFLL",
      "alert": "OK",
      "vis_m": 9999,
      "fzfg": false,
      "metar_trigger": false,
      "taf_trigger": false,
      "metar": "METAR LFLL 072230Z 13006KT CAVOK 05/04 Q1005 NOSIG",
      "taf": "TAF LFLL 071700Z 0718/0824 VRB03KT CAVOK"
    },
    {
      "icao": "LFLS",
      "alert": "OK",
      "vis_m": 9999,
      "fzfg": false,
      "metar_trigger": false,
      "taf_trigger": false,
      "metar": "METAR LFLS 072230Z AUTO 07007KT CAVOK 04/03 Q1005",
      "taf": "TAF LFLS 071400Z 0715/0815 VRB03KT CAVOK"
    },
    {
      "icao": "LFMN",
      "alert": "OK",
      "vis_m": 9999,
      "fzfg": false,
      "metar_trigger": false,
      "taf_trigger": false,
      "metar": "METAR LFMN 072230Z 29007KT 9999 SCT056 09/08 Q1007 NOSIG",
      "taf": "TAF LFMN 072000Z 0721/0903 33010KT 9999 FEW040"
    },
    {
      "icao": "LFOB",
      "alert": "OK",
      "vis_m": 9999,
      "fzfg": false,
      "metar_trigger": false,
      "taf_trigger": false,
      "metar": "METAR LFOB 072230Z AUTO 12006KT 9999 FEW039 BKN045 OVC062 07/06 Q1003 TEMPO BKN007 BKN012 BECMG 18010KT",
      "taf": "TAF LFOB 071700Z 0718/0818 18010KT 9999 SCT030"
    },
    {
      "icao": "LFPO",
      "alert": "OK",
      "vis_m": 9999,
      "fzfg": false,
      "metar_trigger": false,
      "taf_trigger": false,
      "metar": "METAR LFPO 072230Z 16003KT 9999 SCT043 BKN055 09/05 Q1004 NOSIG",
      "taf": "TAF LFPO 071700Z 0718/0824 17008KT CAVOK"
    },
    {
      "icao": "LFSB",
      "alert": "OK",
      "vis_m": 9999,
      "fzfg": false,
      "metar_trigger": false,
      "taf_trigger": false,
      "metar": "METAR LFSB 072230Z AUTO VRB02KT CAVOK 02/02 Q1006 TEMPO 3000 BCFG",
      "taf": "TAF LFSB 071700Z 0718/0818 VRB03KT CAVOK"
    },
    {
      "icao": "LGAV",
      "alert": "OK",
      "vis_m": 9999,
      "fzfg": false,
      "metar_trigger": false,
      "taf_trigger": false,
      "metar": "METAR LGAV 072220Z VRB02KT CAVOK 14/06 Q1007 NOSIG",
      "taf": "TAF LGAV 071700Z 0718/0818 23012KT 9999 FEW020"
    },
    {
      "icao": "LGTS",
      "alert": "OK",
      "vis_m": 9999,
      "fzfg": false,
      "metar_trigger": false,
      "taf_trigger": false,
      "metar": "METAR LGTS 072220Z 11004KT 9999 FEW018 10/07 Q1006 NOSIG",
      "taf": "TAF LGTS 071700Z 0718/0818 33010KT 9999 FEW025"
    },
    {
      "icao": "LHBP",
      "alert": "OK",
      "vis_m": 9999,
      "fzfg": false,
      "metar_trigger": false,
      "taf_trigger": false,
      "metar": "METAR LHBP 072230Z 00000KT 9999 MIFG NSC 03/02 Q1006 NOSIG",
      "taf": "TAF LHBP 071715Z 0718/0818 29005KT CAVOK"
    },
    {
      "icao": "LHDC",
      "alert": "OK",
      "vis_m": 5000,
      "fzfg": false,
      "metar_trigger": false,
      "taf_trigger": false,
      "metar": "METAR LHDC 072215Z AUTO 26001KT 5000 BR SCT010 OVC034 06/05 Q1005",
      "taf": "TAF LHDC 071415Z 0715/0724 24008KT 9999 BKN020"
    },
    {
      "icao": "LIBD",
      "alert": "OK",
      "vis_m": 9999,
      "fzfg": false,
      "metar_trigger": false,
      "taf_trigger": false,
      "metar": "METAR LIBD 072220Z 26004KT 9999 -RA BKN030 10/09 Q1006 RERA",
      "taf": "TAF LIBD 071700Z 0718/0818 24006KT 9999 SCT040"
    },
    {
      "icao": "LIBG",
      "alert": "OK",
      "vis_m": null,
      "fzfg": false,
      "metar_trigger": false,
      "taf_trigger": false,
      "metar": "",
      "taf": "TAF LIBG 071700Z 0718/0803 20010KT 9999 SCT040"
    },
    {
      "icao": "LIBP",
      "alert": "OK",
      "vis_m": 9999,
      "fzfg": false,
      "metar_trigger": false,
      "taf_trigger": false,
      "metar": "METAR LIBP 072220Z AUTO VRB02KT 9999 BKN240/// 09/06 Q1006",
      "taf": "TAF LIBP 071700Z 0718/0818 VRB05KT 9999 SCT060"
    },
    {
      "icao": "LIBR",
      "alert": "OK",
      "vis_m": 9999,
      "fzfg": false,
      "metar_trigger": false,
      "taf_trigger": false,
      "metar": "METAR LIBR 072220Z 20008KT CAVOK 13/10 Q1006",
      "taf": "TAF LIBR 071700Z 0718/0818 22012KT 9999 SCT040"
    },
    {
      "icao": "LICA",
      "alert": "OK",
      "vis_m": 9999,
      "fzfg": false,
      "metar_trigger": false,
      "taf_trigger": false,
      "metar": "METAR LICA 072220Z AUTO 24013KT 9999 FEW027/// BKN067/// 14/11 Q1010",
      "taf": "TAF LICA 071700Z 0718/0818 27015KT 9999 SCT015"
    },
    {
      "icao": "LICC",
      "alert": "OK",
      "vis_m": 9999,
      "fzfg": false,
      "metar_trigger": false,
      "taf_trigger": false,
      "metar": "METAR LICC 072220Z 27015KT 9999 FEW040 SCT100 13/09 Q1011",
      "taf": "TAF LICC 071700Z 0718/0818 26015KT 9999 SCT050"
    },
    {
      "icao": "LICJ",
      "alert": "OK",
      "vis_m": 9999,
      "fzfg": false,
      "metar_trigger": false,
      "taf_trigger": false,
      "metar": "METAR LICJ 072220Z 25020KT 9999 FEW030 SCT070 15/10 Q1012",
      "taf": "TAF LICJ 071700Z 0718/0818 23018G28KT 9999 BKN030"
    },
    {
      "icao": "LIMC",
      "alert": "OK",
      "vis_m": 8000,
      "fzfg": false,
      "metar_trigger": false,
      "taf_trigger": false,
      "metar": "METAR LIMC 072220Z 05001KT 8000 VCFG FEW025 SCT080 06/06 Q1007 BECMG 4000 BCFG",
      "taf": "TAF LIMC 071700Z 0718/0824 VRB04KT 9999 SCT050"
    },
    {
      "icao": "LIME",
      "alert": "OK",
      "vis_m": 4000,
      "fzfg": false,
      "metar_trigger": false,
      "taf_trigger": false,
      "metar": "METAR LIME 072220Z 10004KT 4000 BR SCT015 09/09 Q1006 NOSIG",
      "taf": "TAF LIME 071700Z 0718/0818 VRB04KT 9999 SCT050"
    },
    {
      "icao": "LIMF",
      "alert": "OK",
      "vis_m": 9999,
      "fzfg": false,
      "metar_trigger": false,
      "taf_trigger": false,
      "metar": "METAR LIMF 072220Z VRB02KT 9999 SCT090 06/04 Q1006",
      "taf": "TAF LIMF 071700Z 0718/0818 VRB04KT 9999 SCT050"
    },
    {
      "icao": "LIMJ",
      "alert": "OK",
      "vis_m": 9999,
      "fzfg": false,
      "metar_trigger": false,
      "taf_trigger": false,
      "metar": "METAR LIMJ 072220Z AUTO 03003KT 340V060 9999 OVC062/// 10/08 Q1007",
      "taf": "TAF LIMJ 071700Z 0718/0818 04007KT 9999 SCT020"
    },
    {
      "icao": "LIPE",
      "alert": "OK",
      "vis_m": 2000,
      "fzfg": false,
      "metar_trigger": false,
      "taf_trigger": false,
      "metar": "METAR LIPE 072220Z 24003KT 2000 BR BKN004 08/08 Q1006",
      "taf": ""
    },
    {
      "icao": "LIPH",
      "alert": "OK",
      "vis_m": 9999,
      "fzfg": false,
      "metar_trigger": false,
      "taf_trigger": false,
      "metar": "METAR LIPH 072220Z AUTO 21001KT 9999 FEW056/// OVC069/// 08/08 Q1006",
      "taf": "TAF LIPH 071700Z 0718/0818 VRB05KT 4000 BR SCT060"
    },
    {
      "icao": "LIPQ",
      "alert": "OK",
      "vis_m": 9999,
      "fzfg": false,
      "metar_trigger": false,
      "taf_trigger": false,
      "metar": "METAR LIPQ 072220Z AUTO 10003KT 9999 -RA BKN043/// 08/07 Q1006",
      "taf": "TAF LIPQ 071700Z 0718/0818 VRB05KT 9999 BKN050"
    },
    {
      "icao": "LIPR",
      "alert": "OK",
      "vis_m": 9999,
      "fzfg": false,
      "metar_trigger": false,
      "taf_trigger": false,
      "metar": "METAR LIPR 072220Z AUTO 28005KT 250V310 9999 -RA SCT065/// OVC100/// 09/08 Q1005",
      "taf": "TAF LIPR 071700Z 0718/0818 VRB05KT 7000 SCT050"
    },
    {
      "icao": "LIPX",
      "alert": "OK",
      "vis_m": 2500,
      "fzfg": false,
      "metar_trigger": false,
      "taf_trigger": false,
      "metar": "METAR LIPX 072220Z 24003KT 2500 BR SCT030 BKN075 06/06 Q1007",
      "taf": "TAF LIPX 071700Z 0718/0818 VRB04KT 6000 NSC"
    },
    {
      "icao": "LIPY",
      "alert": "OK",
      "vis_m": 9999,
      "fzfg": false,
      "metar_trigger": false,
      "taf_trigger": false,
      "metar": "METAR LIPY 072220Z AUTO 17003KT 9999 BKN088/// BKN190/// 10/08 Q1006",
      "taf": "TAF LIPY 071700Z 0718/0818 VRB05KT 9999 SCT040"
    },
    {
      "icao": "LIPZ",
      "alert": "OK",
      "vis_m": 9999,
      "fzfg": false,
      "metar_trigger": false,
      "taf_trigger": false,
      "metar": "METAR LIPZ 072220Z 33003KT 300V020 9999 BKN070 08/07 Q1006 NOSIG",
      "taf": ""
    },
    {
      "icao": "LIRF",
      "alert": "OK",
      "vis_m": 9999,
      "fzfg": false,
      "metar_trigger": false,
      "taf_trigger": false,
      "metar": "METAR LIRF 072220Z 26010KT 9999 SCT025 13/10 Q1007 NOSIG",
      "taf": "TAF LIRF 071700Z 0718/0824 24012KT 9999 SCT030"
    },
    {
      "icao": "LIRN",
      "alert": "OK",
      "vis_m": 9999,
      "fzfg": false,
      "metar_trigger": false,
      "taf_trigger": false,
      "metar": "METAR LIRN 072220Z 28003KT 260V010 9999 SCT065 10/09 Q1008 NOSIG",
      "taf": "TAF LIRN 071700Z 0718/0818 19010KT 9999 SCT040"
    },
    {
      "icao": "LIRP",
      "alert": "OK",
      "vis_m": 9999,
      "fzfg": false,
      "metar_trigger": false,
      "taf_trigger": false,
      "metar": "METAR LIRP 072215Z 12004KT 9999 -RA SCT030 BKN040 10/10 Q1006 NOSIG",
      "taf": "TAF LIRP 071700Z 0718/0818 28005KT 9999 BKN030"
    },
    {
      "icao": "LIRZ",
      "alert": "OK",
      "vis_m": 9999,
      "fzfg": false,
      "metar_trigger": false,
      "taf_trigger": false,
      "metar": "METAR LIRZ 072220Z AUTO 27003KT 9999 BKN019/// 08/08 Q1006",
      "taf": "TAF LIRZ 071700Z 0718/0818 VRB05KT 9999 RA BKN030"
    },
    {
      "icao": "LJLJ",
      "alert": "OK",
      "vis_m": 8000,
      "fzfg": false,
      "metar_trigger": false,
      "taf_trigger": false,
      "metar": "METAR LJLJ 072230Z VRB01KT 8000 FEW003 SCT055 04/04 Q1006 NOSIG",
      "taf": "TAF LJLJ 071700Z 0718/0818 VRB02KT 9999 BKN040"
    },
    {
      "icao": "LKMT",
      "alert": "OK",
      "vis_m": 500,
      "fzfg": false,
      "metar_trigger": false,
      "taf_trigger": false,
      "metar": "METAR LKMT 072230Z 05003KT 0500 R22/0650D R04/0700N -RA FG VV003 02/02 Q1007 NOSIG",
      "taf": "TAF LKMT 071700Z 0718/0818 03003KT 0800 -DZ FG OVC005"
    },
    {
      "icao": "LKPR",
      "alert": "OK",
      "vis_m": 600,
      "fzfg": false,
      "metar_trigger": false,
      "taf_trigger": false,
      "metar": "METAR LKPR 072230Z VRB02KT 0600 R24/0800U R30/0800N PRFG VV003 02/02 Q1006 NOSIG",
      "taf": "TAF LKPR 072000Z 0721/0903 VRB02KT 1400 BR BKN005"
    },
    {
      "icao": "LLBG",
      "alert": "OK",
      "vis_m": 9999,
      "fzfg": false,
      "metar_trigger": false,
      "taf_trigger": false,
      "metar": "METAR LLBG 072250Z 16006KT CAVOK 17/12 Q1013 NOSIG",
      "taf": "TAF LLBG 071701Z 0718/0818 VRB04KT CAVOK"
    },
    {
      "icao": "LMML",
      "alert": "OK",
      "vis_m": 9999,
      "fzfg": false,
      "metar_trigger": false,
      "taf_trigger": false,
      "metar": "METAR LMML 072245Z 27009KT CAVOK 12/10 Q1014 NOSIG",
      "taf": ""
    },
    {
      "icao": "LOWW",
      "alert": "OK",
      "vis_m": 9000,
      "fzfg": false,
      "metar_trigger": false,
      "taf_trigger": false,
      "metar": "METAR LOWW 072220Z VRB01KT 9000 -RA FEW012 SCT013 BKN020 05/03 Q1007 NOSIG",
      "taf": "TAF LOWW 072015Z 0721/0903 VRB03KT 9999 BKN020 TX07/0813Z TN02/0903Z"
    },
    {
      "icao": "LPFR",
      "alert": "OK",
      "vis_m": 9999,
      "fzfg": false,
      "metar_trigger": false,
      "taf_trigger": false,
      "metar": "METAR LPFR 072230Z 25005KT 9999 FEW020 12/09 Q1012",
      "taf": "TAF LPFR 071700Z 0718/0818 27015KT 9999 SCT025"
    },
    {
      "icao": "LPMA",
      "alert": "OK",
      "vis_m": 9999,
      "fzfg": false,
      "metar_trigger": false,
      "taf_trigger": false,
      "metar": "METAR LPMA 072230Z 33006KT 270V350 9999 FEW015 17/12 Q1023",
      "taf": "TAF LPMA 071700Z 0718/0818 23010KT 9999 SCT015"
    },
    {
      "icao": "LPPR",
      "alert": "OK",
      "vis_m": 6000,
      "fzfg": false,
      "metar_trigger": false,
      "taf_trigger": false,
      "metar": "METAR LPPR 072230Z 34018KT 6000 SHRA FEW015CB BKN017 BKN030 09/08 Q1005",
      "taf": "TAF LPPR 071700Z 0718/0818 25015KT 8000 -RA SCT012 BKN025"
    },
    {
      "icao": "LPPS",
      "alert": "OK",
      "vis_m": 9999,
      "fzfg": false,
      "metar_trigger": false,
      "taf_trigger": false,
      "metar": "METAR LPPS 072230Z 28014KT 9999 SCT011 17/15 Q1023",
      "taf": "TAF LPPS 071700Z 0718/0824 27018KT 9999 SCT015"
    },
    {
      "icao": "LPPT",
      "alert": "OK",
      "vis_m": 9999,
      "fzfg": false,
      "metar_trigger": false,
      "taf_trigger": false,
      "metar": "METAR LPPT 072230Z 29008KT 250V320 9999 FEW020 FEW025CB 11/08 Q1010 RESHRA",
      "taf": "TAF LPPT 071700Z 0718/0824 28020KT 9999 SCT025"
    },
    {
      "icao": "LQBK",
      "alert": "OK",
      "vis_m": 9999,
      "fzfg": false,
      "metar_trigger": false,
      "taf_trigger": false,
      "metar": "METAR LQBK 072230Z 15007KT CAVOK 06/06 Q1006 NOSIG",
      "taf": "TAF LQBK 071700Z 0718/0818 VRB02KT 9999 BKN020 TX11/0814Z TN05/0805Z"
    },
    {
      "icao": "LQSA",
      "alert": "OK",
      "vis_m": 6000,
      "fzfg": false,
      "metar_trigger": false,
      "taf_trigger": false,
      "metar": "METAR LQSA 072230Z 13003KT 6000 SCT003 BKN045 05/05 Q1006",
      "taf": "TAF LQSA 071700Z 0718/0818 VRB02KT 9999 SCT015 BKN035 TX10/0813Z TN02/0805Z"
    },
    {
      "icao": "LQTZ",
      "alert": "OK",
      "vis_m": 200,
      "fzfg": false,
      "metar_trigger": false,
      "taf_trigger": false,
      "metar": "METAR LQTZ 072230Z VRB01KT 0200 R09/0175N FG VV002 05/05 Q1007",
      "taf": ""
    },
    {
      "icao": "LRBC",
      "alert": "OK",
      "vis_m": 500,
      "fzfg": false,
      "metar_trigger": false,
      "taf_trigger": false,
      "metar": "METAR LRBC 072230Z 18002KT 0500 R34/0600N FG VV002 01/00 Q1005",
      "taf": "TAF LRBC 072000Z 0721/0806 VRB04KT 0800 FG OVC002"
    },
    {
      "icao": "LRBS",
      "alert": "OK",
      "vis_m": 4500,
      "fzfg": false,
      "metar_trigger": false,
      "taf_trigger": false,
      "metar": "METAR LRBS 072230Z 23005KT 4500 BR OVC005 05/04 Q1006 BECMG 3000 BR",
      "taf": "TAF LRBS 071700Z 0718/0818 26007KT 9999 OVC010"
    },
    {
      "icao": "LRBV",
      "alert": "OK",
      "vis_m": 9999,
      "fzfg": false,
      "metar_trigger": false,
      "taf_trigger": false,
      "metar": "METAR LRBV 072230Z AUTO 21002KT 9999 SCT022/// OVC058/// 03/02 Q1005 RESHUP",
      "taf": "TAF LRBV 072000Z 0721/0806 24006KT 9999 SCT030"
    },
    {
      "icao": "LRCL",
      "alert": "OK",
      "vis_m": 6000,
      "fzfg": false,
      "metar_trigger": false,
      "taf_trigger": false,
      "metar": "METAR LRCL 072230Z 00000KT 6000 NSC 05/04 Q1004",
      "taf": "TAF LRCL 072000Z 0721/0806 VRB04KT 9999 SCT030 OVC060"
    },
    {
      "icao": "LRCV",
      "alert": "OK",
      "vis_m": 3000,
      "fzfg": false,
      "metar_trigger": false,
      "taf_trigger": false,
      "metar": "METAR LRCV 072230Z 23002KT 3000 BR FEW008 SCT012 04/04 Q1006",
      "taf": "TAF LRCV 072000Z 0721/0806 VRB04KT 3000 BR SCT010"
    },
    {
      "icao": "LRIA",
      "alert": "OK",
      "vis_m": 8000,
      "fzfg": false,
      "metar_trigger": false,
      "taf_trigger": false,
      "metar": "METAR LRIA 072230Z 30002KT 8000 NSC M01/M02 Q1006",
      "taf": "TAF LRIA 072000Z 0721/0806 VRB04KT 9999 SCT010"
    },
    {
      "icao": "LROP",
      "alert": "OK",
      "vis_m": 5000,
      "fzfg": false,
      "metar_trigger": false,
      "taf_trigger": false,
      "metar": "METAR LROP 072230Z 22006KT 5000 BR OVC007 05/05 Q1006 BECMG 3000 BR",
      "taf": "TAF LROP 071700Z 0718/0818 26010KT 9999 OVC010"
    },
    {
      "icao": "LRSB",
      "alert": "OK",
      "vis_m": 9999,
      "fzfg": false,
      "metar_trigger": false,
      "taf_trigger": false,
      "metar": "METAR LRSB 072230Z 22003KT 190V260 9999 FEW018 BKN037 OVC045 05/05 Q1005",
      "taf": "TAF LRSB 071700Z 0718/0818 VRB04KT CAVOK"
    },
    {
      "icao": "LRSM",
      "alert": "OK",
      "vis_m": 4400,
      "fzfg": false,
      "metar_trigger": false,
      "taf_trigger": false,
      "metar": "METAR LRSM 072230Z AUTO 23003KT 4400 -SHRA FEW006/// SCT009/// BKN023/// 06/05 Q1005",
      "taf": ""
    },
    {
      "icao": "LRSV",
      "alert": "OK",
      "vis_m": 1500,
      "fzfg": false,
      "metar_trigger": false,
      "taf_trigger": false,
      "metar": "METAR LRSV 072230Z VRB02KT 1500 BR OVC007 00/M00 Q1004",
      "taf": ""
    },
    {
      "icao": "LRTM",
      "alert": "OK",
      "vis_m": 500,
      "fzfg": false,
      "metar_trigger": false,
      "taf_trigger": false,
      "metar": "METAR LRTM 072230Z AUTO 09003KT 0500 R07/0750D FG NCD 05/05 Q1005",
      "taf": "TAF LRTM 072000Z 0721/0806 VRB04KT 5000 BR SCT010 OVC045"
    },
    {
      "icao": "LRTR",
      "alert": "OK",
      "vis_m": 3000,
      "fzfg": false,
      "metar_trigger": false,
      "taf_trigger": false,
      "metar": "METAR LRTR 072230Z 28001KT 3000 BR SCT025 OVC035 07/07 Q1006",
      "taf": "TAF LRTR 071700Z 0718/0818 VRB04KT 9999 SCT025"
    },
    {
      "icao": "LTAC",
      "alert": "OK",
      "vis_m": 9999,
      "fzfg": false,
      "metar_trigger": false,
      "taf_trigger": false,
      "metar": "SPECI LTAC 072246Z 22007KT 9999 FEW021 BKN030 BKN080 06/05 Q1007 RESHRA NOSIG",
      "taf": ""
    },
    {
      "icao": "LTFM",
      "alert": "OK",
      "vis_m": 3200,
      "fzfg": false,
      "metar_trigger": false,
      "taf_trigger": false,
      "metar": "METAR LTFM 072220Z 28003KT 3200 1300N R35R/P1500N R17L/1300D R34L/P1500N R36/P1500N BR SCT003 BKN022 08/07 Q1006 NOSIG RMK RWY17L VRB02KT RWY34L VRB02KT RWY16R VRB01KT RWY36 VRB04KT RWY18 VRB03KT",
      "taf": "TAF LTFM 071640Z 0718/0824 09012KT 6000 BKN008 BKN022"
    },
    {
      "icao": "LUKK",
      "alert": "OK",
      "vis_m": 9999,
      "fzfg": false,
      "metar_trigger": false,
      "taf_trigger": false,
      "metar": "METAR LUKK 072230Z 34006KT CAVOK M01/M02 Q1005 BECMG BKN012",
      "taf": "TAF LUKK 071724Z 0718/0818 33005KT 9999 OVC008"
    },
    {
      "icao": "LWOH",
      "alert": "OK",
      "vis_m": null,
      "fzfg": false,
      "metar_trigger": false,
      "taf_trigger": false,
      "metar": "",
      "taf": "TAF LWOH 072030Z 0721/0821 VRB02KT 9999 BKN040"
    },
    {
      "icao": "LWSK",
      "alert": "OK",
      "vis_m": 9999,
      "fzfg": false,
      "metar_trigger": false,
      "taf_trigger": false,
      "metar": "METAR LWSK 072250Z 14003KT 9999 FEW050 04/04 Q1006 NOSIG",
      "taf": "TAF LWSK 072030Z 0721/0821 VRB02KT 9999 FEW050"
    },
    {
      "icao": "LYBE",
      "alert": "OK",
      "vis_m": 2500,
      "fzfg": false,
      "metar_trigger": false,
      "taf_trigger": false,
      "metar": "METAR LYBE 072230Z 20003KT 2500 -RA BR BKN035 08/07 Q1007 BECMG 1200",
      "taf": "TAF LYBE 071700Z 0718/0818 23004KT 7000 SCT015 BKN025 TX11/0813Z TN05/0806Z"
    },
    {
      "icao": "LYNI",
      "alert": "OK",
      "vis_m": 4000,
      "fzfg": false,
      "metar_trigger": false,
      "taf_trigger": false,
      "metar": "METAR LYNI 072230Z VRB01KT 4000 -RA BR FEW004 SCT010 OVC030 07/07 Q1007 NOSIG",
      "taf": ""
    },
    {
      "icao": "LYPG",
      "alert": "OK",
      "vis_m": 5000,
      "fzfg": false,
      "metar_trigger": false,
      "taf_trigger": false,
      "metar": "METAR LYPG 072230Z 36003KT 5000 BR FEW010 BKN040 OVC070 09/09 Q1007 NOSIG",
      "taf": "TAF LYPG 071700Z 0718/0818 36005KT 9999 FEW010 SCT040 BKN080 TX14/0813Z TN09/0806Z"
    },
    {
      "icao": "LZIB",
      "alert": "OK",
      "vis_m": 9999,
      "fzfg": false,
      "metar_trigger": false,
      "taf_trigger": false,
      "metar": "METAR LZIB 072230Z 16003KT 9999 FEW020 05/03 Q1007 NOSIG",
      "taf": "TAF LZIB 071715Z 0718/0818 28005KT 9999 FEW015 SCT030"
    },
    {
      "icao": "LZKZ",
      "alert": "OK",
      "vis_m": 3500,
      "fzfg": false,
      "metar_trigger": false,
      "taf_trigger": false,
      "metar": "METAR LZKZ 072230Z 22002KT 3500 0600S R01/0800N PRFG BKN016 OVC020 04/04 Q1005 NOSIG",
      "taf": "TAF LZKZ 071715Z 0718/0818 02005KT 7000 SCT008 SCT012 OVC020"
    },
    {
      "icao": "LZTT",
      "alert": "OK",
      "vis_m": 7000,
      "fzfg": false,
      "metar_trigger": false,
      "taf_trigger": false,
      "metar": "METAR LZTT 072230Z 28007KT 7000 SCT006 OVC040 02/02 Q1004",
      "taf": "TAF LZTT 071715Z 0718/0818 VRB02KT 7000 FEW005 SCT008 OVC016"
    },
    {
      "icao": "OEJN",
      "alert": "OK",
      "vis_m": 9999,
      "fzfg": false,
      "metar_trigger": false,
      "taf_trigger": false,
      "metar": "METAR OEJN 072200Z 00000KT CAVOK 22/16 Q1015 NOSIG",
      "taf": "TAF OEJN 071700Z 0718/0824 03005KT 7000 NSC"
    },
    {
      "icao": "OEMA",
      "alert": "OK",
      "vis_m": 9999,
      "fzfg": false,
      "metar_trigger": false,
      "taf_trigger": false,
      "metar": "METAR OEMA 072200Z 02004KT CAVOK 20/01 Q1019 NOSIG",
      "taf": "TAF OEMA 071700Z 0718/0824 VRB03KT CAVOK"
    },
    {
      "icao": "OJAI",
      "alert": "OK",
      "vis_m": 4000,
      "fzfg": false,
      "metar_trigger": false,
      "taf_trigger": false,
      "metar": "METAR OJAI 072200Z 26008KT 4000 HZ NSC 13/07 Q1016 NOSIG",
      "taf": "TAF OJAI 071700Z 0718/0824 25012KT 5000 HZ NSC"
    },
    {
      "icao": "OMAA",
      "alert": "OK",
      "vis_m": 9999,
      "fzfg": false,
      "metar_trigger": false,
      "taf_trigger": false,
      "metar": "METAR OMAA 072230Z 03005KT CAVOK 21/15 Q1015 NOSIG",
      "taf": "TAF OMAA 071700Z 0718/0900 02007KT 8000 NSC"
    },
    {
      "icao": "OMDB",
      "alert": "OK",
      "vis_m": 9999,
      "fzfg": false,
      "metar_trigger": false,
      "taf_trigger": false,
      "metar": "METAR OMDB 072230Z VRB03KT CAVOK 22/17 Q1015 NOSIG",
      "taf": "TAF OMDB 071700Z 0718/0900 34010KT 8000 NSC"
    },
    {
      "icao": "UAAA",
      "alert": "OK",
      "vis_m": 9999,
      "fzfg": false,
      "metar_trigger": false,
      "taf_trigger": false,
      "metar": "SPECI UAAA 072249Z 01001MPS 9999 -SN BKN008 OVC023 M03/M03 Q1028 NOSIG",
      "taf": "TAF UAAA 071702Z 0718/0818 01003MPS 3100 -SHSN BR BKN011CB OVC100 TX00/0807Z TNM04/0802Z"
    },
    {
      "icao": "UBBB",
      "alert": "OK",
      "vis_m": 9999,
      "fzfg": false,
      "metar_trigger": false,
      "taf_trigger": false,
      "metar": "METAR UBBB 072230Z 34004KT 290V020 CAVOK 06/04 Q1004 NOSIG",
      "taf": "TAF UBBB 072249Z 0800/0824 32005KT 5000 BR SCT030 TX06/0810Z TN04/0802Z"
    },
    {
      "icao": "UDSG",
      "alert": "OK",
      "vis_m": 3300,
      "fzfg": false,
      "metar_trigger": false,
      "taf_trigger": false,
      "metar": "METAR UDSG 072230Z 08001KT 3300 BR OVC023 M02/M02 Q1007 NOSIG",
      "taf": "TAF UDSG 071658Z 0718/0818 VRB06KT 5000 BR OVC030"
    },
    {
      "icao": "UDYZ",
      "alert": "OK",
      "vis_m": 2400,
      "fzfg": false,
      "metar_trigger": false,
      "taf_trigger": false,
      "metar": "METAR UDYZ 072230Z 34001KT 2400 -RA BR BKN043 02/01 Q1007 NOSIG",
      "taf": "TAF UDYZ 071700Z 0718/0818 VRB04KT 3500 BR BKN040"
    },
    {
      "icao": "UGKO",
      "alert": "OK",
      "vis_m": 9999,
      "fzfg": false,
      "metar_trigger": false,
      "taf_trigger": false,
      "metar": "METAR UGKO 072230Z 15005KT 080V210 9999 SCT030 BKN082 11/01 Q1003 NOSIG",
      "taf": "TAF UGKO 071700Z 0718/0818 25007KT CAVOK TX11/0718Z TN08/0803Z"
    }
  ]
}