{
  "ts_utc": "2025-12-25T06:18:05Z",
  "threshold_m": 150,
  "source": "stations_override.txt (ICAO list) + aviationweather.gov (METAR/TAF raw)",
  "station_count": 159,
  "stations": [
    {
      "icao": "BIKF",
      "alert": "OK",
      "vis_m": 4000,
      "fzfg": false,
      "metar_trigger": false,
      "taf_trigger": false,
      "metar": "METAR BIKF 250600Z 17023KT 4000 -DZ BR OVC004 08/08 Q1019",
      "taf": "TAF BIKF 250459Z 2506/2606 18023G33KT 6000 -RADZ SCT007 BKN012 TX08/2506Z TN03/2603Z"
    },
    {
      "icao": "BKPR",
      "alert": "OK",
      "vis_m": 8000,
      "fzfg": false,
      "metar_trigger": false,
      "taf_trigger": false,
      "metar": "METAR BKPR 250600Z 01014KT 8000 -SN SCT010 BKN020 00/00 Q1021 TEMPO 1500 SN",
      "taf": "TAF BKPR 250530Z 2506/2606 36014KT 9999 SCT010 BKN030"
    },
    {
      "icao": "EBCI",
      "alert": "OK",
      "vis_m": 9999,
      "fzfg": false,
      "metar_trigger": false,
      "taf_trigger": false,
      "metar": "METAR EBCI 250550Z 05015KT CAVOK M05/M09 Q1025 NOSIG",
      "taf": "TAF EBCI 250510Z 2506/2612 05013KT CAVOK"
    },
    {
      "icao": "EDDB",
      "alert": "OK",
      "vis_m": 9999,
      "fzfg": false,
      "metar_trigger": false,
      "taf_trigger": false,
      "metar": "METAR EDDB 250550Z AUTO 07008KT 9999 FEW008 M09/M11 Q1038 NOSIG",
      "taf": "TAF EDDB 250500Z 2506/2606 07008KT CAVOK"
    },
    {
      "icao": "EDDH",
      "alert": "OK",
      "vis_m": 9999,
      "fzfg": false,
      "metar_trigger": false,
      "taf_trigger": false,
      "metar": "METAR EDDH 250550Z AUTO 07007KT CAVOK M05/M09 Q1038 NOSIG",
      "taf": "TAF EDDH 250500Z 2506/2612 08009KT CAVOK"
    },
    {
      "icao": "EDDK",
      "alert": "OK",
      "vis_m": 9999,
      "fzfg": false,
      "metar_trigger": false,
      "taf_trigger": false,
      "metar": "METAR EDDK 250550Z AUTO 06006KT CAVOK M03/M09 Q1028 NOSIG",
      "taf": "TAF EDDK 250500Z 2506/2612 VRB03KT CAVOK"
    },
    {
      "icao": "EDDN",
      "alert": "OK",
      "vis_m": 9999,
      "fzfg": false,
      "metar_trigger": false,
      "taf_trigger": false,
      "metar": "METAR EDDN 250550Z AUTO 08007KT 020V120 CAVOK M02/M06 Q1025 NOSIG",
      "taf": "TAF EDDN 250500Z 2506/2606 08010KT 9999 FEW020"
    },
    {
      "icao": "EDDS",
      "alert": "OK",
      "vis_m": 9999,
      "fzfg": false,
      "metar_trigger": false,
      "taf_trigger": false,
      "metar": "METAR EDDS 250550Z AUTO 09013KT 060V130 9999 OVC019 00/M04 Q1020 NOSIG",
      "taf": "TAF EDDS 250500Z 2506/2606 06010KT 9999 BKN020"
    },
    {
      "icao": "EDFH",
      "alert": "OK",
      "vis_m": 9999,
      "fzfg": false,
      "metar_trigger": false,
      "taf_trigger": false,
      "metar": "METAR EDFH 250550Z 06009KT 9999 BKN018 M05/M08 Q1022",
      "taf": "TAF EDFH 250500Z 2506/2606 09013KT 9999 BKN020"
    },
    {
      "icao": "EDJA",
      "alert": "OK",
      "vis_m": 9999,
      "fzfg": false,
      "metar_trigger": false,
      "taf_trigger": false,
      "metar": "METAR EDJA 250550Z 07010KT 030V120 9999 OVC007 M02/M04 Q1018",
      "taf": "TAF EDJA 250500Z 2506/2515 07010KT 9999 OVC007"
    },
    {
      "icao": "EDLW",
      "alert": "OK",
      "vis_m": 9999,
      "fzfg": false,
      "metar_trigger": false,
      "taf_trigger": false,
      "metar": "METAR EDLW 250550Z 03010KT CAVOK M06/M09 Q1030",
      "taf": "TAF EDLW 250500Z 2506/2606 05011KT CAVOK"
    },
    {
      "icao": "EDNY",
      "alert": "OK",
      "vis_m": 9999,
      "fzfg": false,
      "metar_trigger": false,
      "taf_trigger": false,
      "metar": "METAR EDNY 250550Z 04010KT CAVOK M01/M03 Q1018",
      "taf": ""
    },
    {
      "icao": "EDSB",
      "alert": "OK",
      "vis_m": 9999,
      "fzfg": false,
      "metar_trigger": false,
      "taf_trigger": false,
      "metar": "METAR EDSB 250550Z 03016KT 9999 OVC030 00/M05 Q1021",
      "taf": "TAF EDSB 250500Z 2506/2606 03012KT 9999 BKN030"
    },
    {
      "icao": "EETN",
      "alert": "OK",
      "vis_m": 9999,
      "fzfg": false,
      "metar_trigger": false,
      "taf_trigger": false,
      "metar": "METAR EETN 250550Z 26012KT 9999 -RA SCT009 BKN045 05/04 Q1026 TEMPO BKN008",
      "taf": "TAF EETN 250530Z 2506/2606 26012KT 9999 BKN010"
    },
    {
      "icao": "EFTU",
      "alert": "OK",
      "vis_m": 9999,
      "fzfg": false,
      "metar_trigger": false,
      "taf_trigger": false,
      "metar": "METAR EFTU 250550Z AUTO 27008KT CAVOK 03/02 Q1026",
      "taf": "TAF EFTU 250527Z 2506/2606 28010KT CAVOK"
    },
    {
      "icao": "EGBB",
      "alert": "OK",
      "vis_m": 9999,
      "fzfg": false,
      "metar_trigger": false,
      "taf_trigger": false,
      "metar": "METAR EGBB 250550Z 04009KT 9999 BKN021 03/M01 Q1033",
      "taf": "TAF EGBB 250501Z 2506/2606 04010KT 9999 SCT030"
    },
    {
      "icao": "EGGP",
      "alert": "OK",
      "vis_m": 9999,
      "fzfg": false,
      "metar_trigger": false,
      "taf_trigger": false,
      "metar": "METAR EGGP 250550Z AUTO 07009KT 040V100 9999 BKN031/// 03/M02 Q1036",
      "taf": "TAF EGGP 242254Z 2500/2524 07009KT 9999 SCT025"
    },
    {
      "icao": "EGGW",
      "alert": "OK",
      "vis_m": 9999,
      "fzfg": false,
      "metar_trigger": false,
      "taf_trigger": false,
      "metar": "METAR EGGW 250550Z AUTO 04016KT 9999 NCD 01/M01 Q1030",
      "taf": "TAF EGGW 250454Z 2506/2606 04013KT 9999 FEW025"
    },
    {
      "icao": "EGKK",
      "alert": "OK",
      "vis_m": 9999,
      "fzfg": false,
      "metar_trigger": false,
      "taf_trigger": false,
      "metar": "METAR EGKK 250550Z 04016KT CAVOK 04/M02 Q1027",
      "taf": "TAF EGKK 250456Z 2506/2612 05018G29KT 9999 FEW030"
    },
    {
      "icao": "EGNM",
      "alert": "OK",
      "vis_m": null,
      "fzfg": false,
      "metar_trigger": false,
      "taf_trigger": false,
      "metar": "",
      "taf": ""
    },
    {
      "icao": "EGPD",
      "alert": "OK",
      "vis_m": 9999,
      "fzfg": false,
      "metar_trigger": false,
      "taf_trigger": false,
      "metar": "METAR EGPD 250550Z COR AUTO VRB02KT 9999 BKN022 M02/M03 Q1040 NOSIG",
      "taf": "TAF EGPD 250457Z 2506/2606 VRB02KT 9999 BKN025"
    },
    {
      "icao": "EGPF",
      "alert": "OK",
      "vis_m": 8000,
      "fzfg": false,
      "metar_trigger": false,
      "taf_trigger": false,
      "metar": "METAR EGPF 250550Z AUTO 23003KT 190V260 8000 OVC025 M01/M01 Q1040",
      "taf": "TAF EGPF 250502Z 2506/2606 07005KT 9999 FEW018 SCT022"
    },
    {
      "icao": "EHBK",
      "alert": "OK",
      "vis_m": 9999,
      "fzfg": false,
      "metar_trigger": false,
      "taf_trigger": false,
      "metar": "METAR EHBK 250555Z AUTO 05015KT 010V070 9999 NCD M05/M09 Q1027 NOSIG",
      "taf": "TAF EHBK 250513Z 2506/2612 05014KT CAVOK"
    },
    {
      "icao": "EHEH",
      "alert": "OK",
      "vis_m": 9999,
      "fzfg": false,
      "metar_trigger": false,
      "taf_trigger": false,
      "metar": "METAR EHEH 250555Z AUTO 05012KT 030V100 9999 NCD M04/M10 Q1030 BLU NOSIG RMK TREND REMOTE BY EHWX",
      "taf": "TAF EHEH 250512Z 2506/2612 04012KT CAVOK"
    },
    {
      "icao": "EKBI",
      "alert": "OK",
      "vis_m": 9999,
      "fzfg": false,
      "metar_trigger": false,
      "taf_trigger": false,
      "metar": "METAR EKBI 250550Z AUTO 06004KT 9999 NCD M04/M05 Q1040",
      "taf": "TAF EKBI 250527Z 2506/2606 VRB04KT 9999 BKN018"
    },
    {
      "icao": "EKCH",
      "alert": "OK",
      "vis_m": 9999,
      "fzfg": false,
      "metar_trigger": false,
      "taf_trigger": false,
      "metar": "METAR EKCH 250550Z AUTO 04005KT 9999 NCD M03/M04 Q1041 NOSIG",
      "taf": "TAF EKCH 250527Z 2506/2606 02008KT 9999 SCT030"
    },
    {
      "icao": "ENAL",
      "alert": "OK",
      "vis_m": 9999,
      "fzfg": false,
      "metar_trigger": false,
      "taf_trigger": false,
      "metar": "METAR ENAL 250550Z AUTO 23014KT 9999 OVC026/// 09/04 Q1037",
      "taf": "TAF ENAL 250500Z 2506/2515 21015KT 9999 FEW020 BKN025"
    },
    {
      "icao": "ENBR",
      "alert": "OK",
      "vis_m": 9999,
      "fzfg": false,
      "metar_trigger": false,
      "taf_trigger": false,
      "metar": "METAR ENBR 250550Z 00000KT 9999 BKN028 03/02 Q1040 NOSIG RMK WIND 1200FT 36003KT",
      "taf": "TAF ENBR 250500Z 2506/2606 VRB03KT 9999 FEW012 BKN025"
    },
    {
      "icao": "ENGM",
      "alert": "OK",
      "vis_m": 9999,
      "fzfg": false,
      "metar_trigger": false,
      "taf_trigger": false,
      "metar": "METAR ENGM 250550Z 36003KT 280V020 CAVOK M08/M09 Q1036 NOSIG",
      "taf": "TAF ENGM 250500Z 2506/2606 VRB03KT CAVOK"
    },
    {
      "icao": "ENHD",
      "alert": "OK",
      "vis_m": 9999,
      "fzfg": false,
      "metar_trigger": false,
      "taf_trigger": false,
      "metar": "METAR ENHD 250550Z AUTO 01004KT 9999 OVC023/// 02/01 Q1040",
      "taf": "TAF ENHD 250500Z 2506/2515 01005KT 9999 BKN025"
    },
    {
      "icao": "ENTC",
      "alert": "OK",
      "vis_m": 9999,
      "fzfg": false,
      "metar_trigger": false,
      "taf_trigger": false,
      "metar": "METAR ENTC 250550Z 30026G36KT 9999 SQ SCT045 BKN058 06/M04 Q1004 RMK WIND 2600FT 30050G69KT",
      "taf": "TAF ENTC 250500Z 2506/2606 28015KT 9999 -RA FEW009 BKN018"
    },
    {
      "icao": "ENTO",
      "alert": "OK",
      "vis_m": 9999,
      "fzfg": false,
      "metar_trigger": false,
      "taf_trigger": false,
      "metar": "METAR ENTO 250550Z AUTO VRB02KT 9999 NCD M02/M02 Q1037",
      "taf": "TAF ENTO 250500Z 2506/2606 24005KT CAVOK"
    },
    {
      "icao": "ENVA",
      "alert": "OK",
      "vis_m": 9999,
      "fzfg": false,
      "metar_trigger": false,
      "taf_trigger": false,
      "metar": "METAR ENVA 250550Z 28021KT 9999 BKN035 08/04 Q1031 NOSIG RMK WIND 670FT 27011KT",
      "taf": "TAF ENVA 250500Z 2506/2606 25015KT 9999 FEW012 BKN030"
    },
    {
      "icao": "ENZV",
      "alert": "OK",
      "vis_m": 9999,
      "fzfg": false,
      "metar_trigger": false,
      "taf_trigger": false,
      "metar": "METAR ENZV 250550Z 02003KT 340V070 9999 OVC024 M01/M01 Q1040 NOSIG",
      "taf": "TAF ENZV 250500Z 2506/2606 VRB03KT 9999 SCT025"
    },
    {
      "icao": "EPGD",
      "alert": "OK",
      "vis_m": 9999,
      "fzfg": false,
      "metar_trigger": false,
      "taf_trigger": false,
      "metar": "METAR EPGD 250600Z VRB02KT CAVOK M10/M11 Q1039",
      "taf": "TAF EPGD 250530Z 2506/2606 VRB03KT CAVOK"
    },
    {
      "icao": "EPKK",
      "alert": "OK",
      "vis_m": 9999,
      "fzfg": false,
      "metar_trigger": false,
      "taf_trigger": false,
      "metar": "METAR EPKK 250600Z 07010KT 9999 OVC009 M05/M07 Q1034",
      "taf": "TAF EPKK 250530Z 2506/2606 07011KT 9999 OVC010"
    },
    {
      "icao": "EPKT",
      "alert": "OK",
      "vis_m": 9999,
      "fzfg": false,
      "metar_trigger": false,
      "taf_trigger": false,
      "metar": "METAR EPKT 250600Z 07009KT 040V110 9999 OVC010 M05/M07 Q1034",
      "taf": "TAF EPKT 250530Z 2506/2606 08010KT 9999 BKN008 OVC010"
    },
    {
      "icao": "EPLB",
      "alert": "OK",
      "vis_m": 9999,
      "fzfg": false,
      "metar_trigger": false,
      "taf_trigger": false,
      "metar": "METAR EPLB 250600Z 07007KT CAVOK M13/M14 Q1039",
      "taf": "TAF EPLB 250530Z 2506/2606 09005KT CAVOK"
    },
    {
      "icao": "EPMO",
      "alert": "OK",
      "vis_m": 9999,
      "fzfg": false,
      "metar_trigger": false,
      "taf_trigger": false,
      "metar": "METAR EPMO 250600Z 06003KT CAVOK M12/M13 Q1040",
      "taf": "TAF EPMO 250530Z 2506/2606 08003KT CAVOK"
    },
    {
      "icao": "EPPO",
      "alert": "OK",
      "vis_m": 9999,
      "fzfg": false,
      "metar_trigger": false,
      "taf_trigger": false,
      "metar": "METAR EPPO 250600Z 07004KT CAVOK M11/M13 Q1039",
      "taf": "TAF EPPO 250530Z 2506/2606 07005KT CAVOK"
    },
    {
      "icao": "EPRA",
      "alert": "OK",
      "vis_m": 9999,
      "fzfg": false,
      "metar_trigger": false,
      "taf_trigger": false,
      "metar": "METAR EPRA 250600Z VRB02KT CAVOK M13/M15 Q1038",
      "taf": "TAF EPRA 250530Z 2506/2515 06004KT CAVOK"
    },
    {
      "icao": "EPRZ",
      "alert": "OK",
      "vis_m": 9999,
      "fzfg": false,
      "metar_trigger": false,
      "taf_trigger": false,
      "metar": "METAR EPRZ 250600Z 06008KT 9999 OVC010 M06/M08 Q1036",
      "taf": "TAF EPRZ 250530Z 2506/2606 06010KT 9999 OVC011"
    },
    {
      "icao": "EPSC",
      "alert": "OK",
      "vis_m": 9999,
      "fzfg": false,
      "metar_trigger": false,
      "taf_trigger": false,
      "metar": "METAR EPSC 250600Z 06003KT 040V120 CAVOK M10/M11 Q1040",
      "taf": "TAF EPSC 250530Z 2506/2606 VRB04KT CAVOK"
    },
    {
      "icao": "EPSY",
      "alert": "OK",
      "vis_m": 9999,
      "fzfg": false,
      "metar_trigger": false,
      "taf_trigger": false,
      "metar": "METAR EPSY 250600Z 02004KT CAVOK M14/M16 Q1041",
      "taf": "TAF EPSY 250530Z 2506/2515 VRB02KT CAVOK"
    },
    {
      "icao": "EPWA",
      "alert": "OK",
      "vis_m": 9999,
      "fzfg": false,
      "metar_trigger": false,
      "taf_trigger": false,
      "metar": "METAR EPWA 250600Z 07006KT CAVOK M10/M13 Q1040 NOSIG",
      "taf": "TAF EPWA 250530Z 2506/2606 07004KT CAVOK"
    },
    {
      "icao": "EPWR",
      "alert": "OK",
      "vis_m": 9999,
      "fzfg": false,
      "metar_trigger": false,
      "taf_trigger": false,
      "metar": "METAR EPWR 250600Z 04006KT 010V070 9999 BKN008 M08/M09 Q1037",
      "taf": "TAF EPWR 250530Z 2506/2606 08005KT 9999 OVC008"
    },
    {
      "icao": "ESGG",
      "alert": "OK",
      "vis_m": 9999,
      "fzfg": false,
      "metar_trigger": false,
      "taf_trigger": false,
      "metar": "METAR ESGG 250550Z 22005KT CAVOK M02/M03 Q1038",
      "taf": "TAF ESGG 250530Z 2506/2606 VRB02KT CAVOK"
    },
    {
      "icao": "ESKN",
      "alert": "OK",
      "vis_m": 9999,
      "fzfg": false,
      "metar_trigger": false,
      "taf_trigger": false,
      "metar": "METAR ESKN 250550Z 26009KT 9999 OVC004 M02/M02 Q1034",
      "taf": "TAF ESKN 250530Z 2506/2606 25008KT 9999 BKN002"
    },
    {
      "icao": "ESMS",
      "alert": "OK",
      "vis_m": 9999,
      "fzfg": false,
      "metar_trigger": false,
      "taf_trigger": false,
      "metar": "METAR ESMS 250550Z 06002KT CAVOK M07/M07 Q1040",
      "taf": "TAF ESMS 250527Z 2506/2606 VRB04KT 9999 BKN025"
    },
    {
      "icao": "ESSA",
      "alert": "OK",
      "vis_m": 9999,
      "fzfg": false,
      "metar_trigger": false,
      "taf_trigger": false,
      "metar": "METAR ESSA 250550Z 25009KT CAVOK M02/M04 Q1032 NOSIG",
      "taf": "TAF ESSA 250530Z 2506/2606 25008KT CAVOK"
    },
    {
      "icao": "EYKA",
      "alert": "OK",
      "vis_m": 9999,
      "fzfg": false,
      "metar_trigger": false,
      "taf_trigger": false,
      "metar": "METAR EYKA 250550Z 25007KT 220V280 9999 OVC024 M02/M06 Q1037",
      "taf": "TAF EYKA 250500Z 2506/2606 27012KT 9000 OVC025"
    },
    {
      "icao": "EYPA",
      "alert": "OK",
      "vis_m": 9999,
      "fzfg": false,
      "metar_trigger": false,
      "taf_trigger": false,
      "metar": "METAR EYPA 250550Z 28005KT 240V340 9999 OVC026 03/M02 Q1038",
      "taf": "TAF EYPA 250500Z 2506/2606 27012KT 9000 OVC025"
    },
    {
      "icao": "EYVI",
      "alert": "OK",
      "vis_m": 9999,
      "fzfg": false,
      "metar_trigger": false,
      "taf_trigger": false,
      "metar": "METAR EYVI 250550Z 29008KT 260V330 9999 OVC021 M03/M06 Q1037 NOSIG",
      "taf": "TAF EYVI 250500Z 2506/2606 27010KT 9000 OVC015"
    },
    {
      "icao": "GCFV",
      "alert": "OK",
      "vis_m": 9999,
      "fzfg": false,
      "metar_trigger": false,
      "taf_trigger": false,
      "metar": "METAR GCFV 250600Z 32006KT 9999 FEW017 BKN035 16/13 Q1013",
      "taf": "TAF GCFV 250200Z 2503/2603 30008KT 9999 BKN030 TX21/2514Z TN15/2506Z"
    },
    {
      "icao": "GCLP",
      "alert": "OK",
      "vis_m": 9999,
      "fzfg": false,
      "metar_trigger": false,
      "taf_trigger": false,
      "metar": "METAR GCLP 250600Z 35009KT 9999 BKN040 16/13 Q1014 NOSIG",
      "taf": "TAF GCLP 250200Z 2503/2603 33005KT 9999 BKN040 TX21/2514Z TN16/2506Z"
    },
    {
      "icao": "GCTS",
      "alert": "OK",
      "vis_m": 9999,
      "fzfg": false,
      "metar_trigger": false,
      "taf_trigger": false,
      "metar": "METAR GCTS 250600Z 01006KT 9999 FEW030 16/11 Q1014 NOSIG",
      "taf": "TAF GCTS 250200Z 2503/2603 36006KT 9999 SCT025 TX23/2514Z TN15/2506Z"
    },
    {
      "icao": "GMAD",
      "alert": "OK",
      "vis_m": 6000,
      "fzfg": false,
      "metar_trigger": false,
      "taf_trigger": false,
      "metar": "METAR GMAD 250600Z 20007KT 6000 -RA SCT006 BKN033 13/13 Q1009 NOSIG",
      "taf": "TAF GMAD 250500Z 2506/2612 21005KT 6000 SCT010 BKN020"
    },
    {
      "icao": "GMMN",
      "alert": "OK",
      "vis_m": 9999,
      "fzfg": false,
      "metar_trigger": false,
      "taf_trigger": false,
      "metar": "METAR GMMN 250600Z 23006KT 9999 BKN020 10/08 Q1009 NOSIG",
      "taf": "TAF GMMN 250500Z 2506/2612 24007KT 9999 SCT013 BKN020"
    },
    {
      "icao": "GMMX",
      "alert": "OK",
      "vis_m": 3000,
      "fzfg": false,
      "metar_trigger": false,
      "taf_trigger": false,
      "metar": "METAR GMMX 250600Z 24007KT 3000 SCT010 BKN020 10/10 Q1009 RERA TEMPO 2000 RA",
      "taf": "TAF GMMX 250500Z 2506/2612 24008KT 6000 SCT010 BKN020"
    },
    {
      "icao": "HEGN",
      "alert": "OK",
      "vis_m": 9999,
      "fzfg": false,
      "metar_trigger": false,
      "taf_trigger": false,
      "metar": "METAR HEGN 250500Z 29007KT CAVOK 16/05 Q1017 NOSIG",
      "taf": "TAF HEGN 250500Z 2506/2612 35014KT CAVOK"
    },
    {
      "icao": "HEMA",
      "alert": "OK",
      "vis_m": 9999,
      "fzfg": false,
      "metar_trigger": false,
      "taf_trigger": false,
      "metar": "METAR HEMA 250500Z 28010KT 9999 SCT025 SCT200 18/11 Q1016 NOSIG",
      "taf": "TAF HEMA 250500Z 2506/2612 01015KT CAVOK"
    },
    {
      "icao": "HESH",
      "alert": "OK",
      "vis_m": 9999,
      "fzfg": false,
      "metar_trigger": false,
      "taf_trigger": false,
      "metar": "METAR HESH 250500Z 33008KT CAVOK 21/07 Q1015 NOSIG",
      "taf": "TAF HESH 250500Z 2506/2612 02012KT CAVOK"
    },
    {
      "icao": "HESX",
      "alert": "OK",
      "vis_m": 300,
      "fzfg": false,
      "metar_trigger": false,
      "taf_trigger": false,
      "metar": "METAR HESX 250500Z 31003KT 0300 R34R/0300 FG NSC 10/10 Q1018 NOSIG",
      "taf": "TAF HESX 250500Z 2506/2612 04010KT CAVOK"
    },
    {
      "icao": "LATI",
      "alert": "OK",
      "vis_m": 9999,
      "fzfg": false,
      "metar_trigger": false,
      "taf_trigger": false,
      "metar": "METAR LATI 250550Z 14004KT 9999 FEW025CB FEW033 BKN110 04/01 Q1018 NOSIG",
      "taf": "TAF LATI 250500Z 2506/2606 VRB05KT CAVOK TX16/2512Z TN01/2605Z"
    },
    {
      "icao": "LBPD",
      "alert": "OK",
      "vis_m": 9999,
      "fzfg": false,
      "metar_trigger": false,
      "taf_trigger": false,
      "metar": "METAR LBPD 250600Z AUTO 14010KT 9999 -RA OVC008/// 07/07 Q1022 NOSIG",
      "taf": "TAF LBPD 250500Z 2506/2606 10010KT 7000 RA BKN005 OVC010"
    },
    {
      "icao": "LBSF",
      "alert": "OK",
      "vis_m": 5000,
      "fzfg": false,
      "metar_trigger": false,
      "taf_trigger": false,
      "metar": "METAR LBSF 250600Z 14007KT 5000 -RA BR FEW009 OVC021 02/01 Q1022 TEMPO 2000 RASN BKN004",
      "taf": ""
    },
    {
      "icao": "LBWN",
      "alert": "OK",
      "vis_m": 7000,
      "fzfg": false,
      "metar_trigger": false,
      "taf_trigger": false,
      "metar": "METAR LBWN 250600Z AUTO 06018KT 7000 -RA FEW013/// BKN016/// OVC037/// 07/07 Q1027 NOSIG",
      "taf": "TAF LBWN 250500Z 2506/2606 03020G35KT 5000 RA SCT010 OVC020"
    },
    {
      "icao": "LCLK",
      "alert": "OK",
      "vis_m": 6000,
      "fzfg": false,
      "metar_trigger": false,
      "taf_trigger": false,
      "metar": "METAR LCLK 250600Z 31004KT 6000 FEW025CB SCT030 15/14 Q1020 NOSIG RMK CB TO SE",
      "taf": "TAF LCLK 250530Z 2506/2606 35008KT 9999 FEW025 SCT035"
    },
    {
      "icao": "LCPH",
      "alert": "OK",
      "vis_m": 9999,
      "fzfg": false,
      "metar_trigger": false,
      "taf_trigger": false,
      "metar": "METAR LCPH 250600Z 08007KT 010V080 9999 FEW030 FEW035TCU 14/10 Q1019 NOSIG",
      "taf": "TAF LCPH 250530Z 2506/2606 08007KT 9999 FEW025"
    },
    {
      "icao": "LEAL",
      "alert": "OK",
      "vis_m": 9999,
      "fzfg": false,
      "metar_trigger": false,
      "taf_trigger": false,
      "metar": "METAR LEAL 250600Z 33004KT 310V020 9999 FEW040 10/06 Q1007 NOSIG",
      "taf": "TAF LEAL 250500Z 2506/2606 30009KT 9999 FEW030 TX11/2512Z TN06/2506Z"
    },
    {
      "icao": "LEBB",
      "alert": "OK",
      "vis_m": 9999,
      "fzfg": false,
      "metar_trigger": false,
      "taf_trigger": false,
      "metar": "METAR LEBB 250600Z 17003KT 140V220 9999 FEW042 BKN056 05/03 Q1013 NOSIG",
      "taf": "TAF LEBB 250500Z 2506/2606 VRB03KT 9999 SCT040 TX07/2514Z TN01/2601Z"
    },
    {
      "icao": "LEBL",
      "alert": "OK",
      "vis_m": 9000,
      "fzfg": false,
      "metar_trigger": false,
      "taf_trigger": false,
      "metar": "METAR LEBL 250600Z 32007KT 9000 DZ FEW022TCU BKN028 OVC037 07/07 Q1011 NOSIG",
      "taf": "TAF LEBL 250500Z 2506/2606 35010KT 9999 SCT025 TX13/2513Z TN07/2506Z"
    },
    {
      "icao": "LECH",
      "alert": "OK",
      "vis_m": 9999,
      "fzfg": false,
      "metar_trigger": false,
      "taf_trigger": false,
      "metar": "METAR LECH 250600Z AUTO VRB02KT 9999 -RA BKN034 OVC043 06/05 Q1009",
      "taf": ""
    },
    {
      "icao": "LEMD",
      "alert": "OK",
      "vis_m": 9999,
      "fzfg": false,
      "metar_trigger": false,
      "taf_trigger": false,
      "metar": "METAR LEMD 250600Z VRB02KT 9999 SCT035 BKN045 04/00 Q1008 NOSIG",
      "taf": "TAF LEMD 250500Z 2506/2612 36005KT 9999 SCT030 TX06/2514Z TN00/2606Z"
    },
    {
      "icao": "LEMG",
      "alert": "OK",
      "vis_m": 9999,
      "fzfg": false,
      "metar_trigger": false,
      "taf_trigger": false,
      "metar": "METAR LEMG 250600Z 31005KT 9999 FEW052 SCT072 06/05 Q1007 NOSIG",
      "taf": "TAF LEMG 250500Z 2506/2606 29010KT 9999 FEW030 TX14/2514Z TN07/2506Z"
    },
    {
      "icao": "LEVC",
      "alert": "OK",
      "vis_m": 9999,
      "fzfg": false,
      "metar_trigger": false,
      "taf_trigger": false,
      "metar": "SPECI LEVC 250608Z 28003KT 250V320 9999 RA BKN015 05/04 Q1009 NOSIG",
      "taf": ""
    },
    {
      "icao": "LEXJ",
      "alert": "OK",
      "vis_m": 9999,
      "fzfg": false,
      "metar_trigger": false,
      "taf_trigger": false,
      "metar": "METAR LEXJ 250600Z 02008KT 340V070 9999 FEW020 BKN038 08/01 Q1014",
      "taf": ""
    },
    {
      "icao": "LEZG",
      "alert": "OK",
      "vis_m": 9999,
      "fzfg": false,
      "metar_trigger": false,
      "taf_trigger": false,
      "metar": "METAR LEZG 250600Z 27010KT 9999 BKN060 03/M02 Q1011 NOSIG",
      "taf": "TAF LEZG 250500Z 2506/2606 29020KT 9999 FEW080 TX06/2514Z TN03/2506Z"
    },
    {
      "icao": "LEZL",
      "alert": "OK",
      "vis_m": 9999,
      "fzfg": false,
      "metar_trigger": false,
      "taf_trigger": false,
      "metar": "METAR LEZL 250600Z 14001KT CAVOK 07/07 Q1008 NOSIG",
      "taf": "TAF LEZL 250200Z 2503/2603 VRB03KT 9999 FEW040 TX15/2515Z TN06/2507Z"
    },
    {
      "icao": "LFBD",
      "alert": "OK",
      "vis_m": 9999,
      "fzfg": false,
      "metar_trigger": false,
      "taf_trigger": false,
      "metar": "METAR LFBD 250600Z AUTO 04008KT CAVOK 01/M02 Q1014 TEMPO BKN014",
      "taf": "TAF LFBD 250500Z 2506/2612 02005KT 9999 BKN040 TX06/2612Z TNM02/2508Z"
    },
    {
      "icao": "LFLL",
      "alert": "OK",
      "vis_m": 8000,
      "fzfg": false,
      "metar_trigger": false,
      "taf_trigger": false,
      "metar": "METAR LFLL 250600Z VRB02KT 8000 OVC005 00/M01 Q1016 TEMPO OVC004",
      "taf": "TAF LFLL 250500Z 2506/2612 35006KT 9999 OVC006"
    },
    {
      "icao": "LFLS",
      "alert": "OK",
      "vis_m": 9999,
      "fzfg": false,
      "metar_trigger": false,
      "taf_trigger": false,
      "metar": "METAR LFLS 250600Z AUTO VRB03KT CAVOK M01/M02 Q1014 TEMPO BKN008",
      "taf": "TAF LFLS 250200Z 2503/2603 33005KT 9999 OVC020"
    },
    {
      "icao": "LFMN",
      "alert": "OK",
      "vis_m": 9999,
      "fzfg": false,
      "metar_trigger": false,
      "taf_trigger": false,
      "metar": "METAR LFMN 250600Z 03016KT 9999 FEW050 BKN083 13/M01 Q1011 NOSIG",
      "taf": "TAF LFMN 250200Z 2503/2609 03016KT 9999 BKN060"
    },
    {
      "icao": "LFOB",
      "alert": "OK",
      "vis_m": 9999,
      "fzfg": false,
      "metar_trigger": false,
      "taf_trigger": false,
      "metar": "METAR LFOB 250600Z AUTO 04018KT 9999 OVC030 M02/M06 Q1022 BECMG 05015G25KT",
      "taf": "TAF LFOB 250500Z 2506/2606 05015G25KT 9999 SCT030"
    },
    {
      "icao": "LFPO",
      "alert": "OK",
      "vis_m": 9999,
      "fzfg": false,
      "metar_trigger": false,
      "taf_trigger": false,
      "metar": "METAR LFPO 250600Z 04012KT CAVOK 00/M05 Q1020 NOSIG",
      "taf": "TAF LFPO 250500Z 2506/2612 06010G20KT CAVOK"
    },
    {
      "icao": "LFSB",
      "alert": "OK",
      "vis_m": 9999,
      "fzfg": false,
      "metar_trigger": false,
      "taf_trigger": false,
      "metar": "METAR LFSB 250600Z AUTO 35003KT 320V050 9999 OVC025 M00/M03 Q1019 NOSIG",
      "taf": "TAF LFSB 250510Z 2506/2606 36006KT 9999 FEW015 BKN025"
    },
    {
      "icao": "LGAV",
      "alert": "OK",
      "vis_m": 9999,
      "fzfg": false,
      "metar_trigger": false,
      "taf_trigger": false,
      "metar": "METAR LGAV 250550Z VRB01KT 9999 FEW020 09/07 Q1017 NOSIG",
      "taf": "TAF LGAV 250500Z 2506/2606 VRB03KT 9999 FEW018"
    },
    {
      "icao": "LGTS",
      "alert": "OK",
      "vis_m": 9999,
      "fzfg": false,
      "metar_trigger": false,
      "taf_trigger": false,
      "metar": "METAR LGTS 250550Z 34009KT 9999 -RA FEW012 BKN025 11/10 Q1017 NOSIG",
      "taf": ""
    },
    {
      "icao": "LHBP",
      "alert": "OK",
      "vis_m": 9999,
      "fzfg": false,
      "metar_trigger": false,
      "taf_trigger": false,
      "metar": "METAR LHBP 250600Z 07009KT 040V100 9999 -SN OVC019 02/M01 Q1029 NOSIG",
      "taf": "TAF LHBP 250515Z 2506/2606 07011KT 9999 BKN030 OVC050"
    },
    {
      "icao": "LHDC",
      "alert": "OK",
      "vis_m": 9999,
      "fzfg": false,
      "metar_trigger": false,
      "taf_trigger": false,
      "metar": "METAR LHDC 250545Z AUTO 04012KT CAVOK 02/M01 Q1029 NOSIG",
      "taf": "TAF LHDC 250515Z 2506/2515 05012KT CAVOK"
    },
    {
      "icao": "LIBD",
      "alert": "OK",
      "vis_m": 9999,
      "fzfg": false,
      "metar_trigger": false,
      "taf_trigger": false,
      "metar": "METAR LIBD 250550Z 20006KT 9999 FEW030 05/05 Q1016",
      "taf": "TAF LIBD 250500Z 2506/2606 VRB05KT CAVOK"
    },
    {
      "icao": "LIBG",
      "alert": "OK",
      "vis_m": null,
      "fzfg": false,
      "metar_trigger": false,
      "taf_trigger": false,
      "metar": "",
      "taf": ""
    },
    {
      "icao": "LIBP",
      "alert": "OK",
      "vis_m": 9999,
      "fzfg": false,
      "metar_trigger": false,
      "taf_trigger": false,
      "metar": "METAR LIBP 250550Z AUTO 24004KT 9999 BKN140/// BKN240/// 06/06 Q1016",
      "taf": "TAF LIBP 250500Z 2506/2606 VRB05KT 9999 BKN060"
    },
    {
      "icao": "LIBR",
      "alert": "OK",
      "vis_m": 9999,
      "fzfg": false,
      "metar_trigger": false,
      "taf_trigger": false,
      "metar": "METAR LIBR 250550Z VRB02KT 9999 FEW040 11/08 Q1016",
      "taf": "TAF LIBR 250500Z 2506/2606 16005KT 9999 FEW040"
    },
    {
      "icao": "LICA",
      "alert": "OK",
      "vis_m": 9999,
      "fzfg": false,
      "metar_trigger": false,
      "taf_trigger": false,
      "metar": "METAR LICA 250550Z AUTO 05009KT 9999 NCD 08/05 Q1014",
      "taf": "TAF LICA 250500Z 2506/2606 07012KT 9999 SCT020"
    },
    {
      "icao": "LICC",
      "alert": "OK",
      "vis_m": 9999,
      "fzfg": false,
      "metar_trigger": false,
      "taf_trigger": false,
      "metar": "METAR LICC 250550Z 25005KT 9999 -RA FEW050 BKN090 09/07 Q1014",
      "taf": "TAF LICC 250500Z 2506/2606 25008KT 9999 SCT030"
    },
    {
      "icao": "LICJ",
      "alert": "OK",
      "vis_m": 9999,
      "fzfg": false,
      "metar_trigger": false,
      "taf_trigger": false,
      "metar": "METAR LICJ 250550Z 18011KT 150V210 CAVOK 15/08 Q1011",
      "taf": "TAF LICJ 250500Z 2506/2606 21015KT 9999 SCT060"
    },
    {
      "icao": "LIMC",
      "alert": "OK",
      "vis_m": 4000,
      "fzfg": false,
      "metar_trigger": false,
      "taf_trigger": false,
      "metar": "METAR LIMC 250550Z VRB02KT 4000 -RA BR BKN015 05/04 Q1020 TEMPO 2000 BR",
      "taf": "TAF LIMC 250500Z 2506/2612 VRB05KT 6000 BKN030"
    },
    {
      "icao": "LIME",
      "alert": "OK",
      "vis_m": 6000,
      "fzfg": false,
      "metar_trigger": false,
      "taf_trigger": false,
      "metar": "METAR LIME 250550Z 24005KT 6000 -RA BKN003 05/05 Q1020 NOSIG",
      "taf": "TAF LIME 250500Z 2506/2606 VRB05KT 6000 SCT010 BKN030"
    },
    {
      "icao": "LIMF",
      "alert": "OK",
      "vis_m": 9999,
      "fzfg": false,
      "metar_trigger": false,
      "taf_trigger": false,
      "metar": "METAR LIMF 250550Z 27005KT 9999 -RA BKN030 04/03 Q1020",
      "taf": "TAF LIMF 250500Z 2506/2606 35006KT 4000 RA BKN020"
    },
    {
      "icao": "LIMJ",
      "alert": "OK",
      "vis_m": 9999,
      "fzfg": false,
      "metar_trigger": false,
      "taf_trigger": false,
      "metar": "METAR LIMJ 250550Z 03014KT CAVOK 10/00 Q1015",
      "taf": "TAF LIMJ 250500Z 2506/2606 03015KT 9999 SCT060"
    },
    {
      "icao": "LIPE",
      "alert": "OK",
      "vis_m": 9000,
      "fzfg": false,
      "metar_trigger": false,
      "taf_trigger": false,
      "metar": "METAR LIPE 250550Z 25007KT 9000 RA BKN006 05/05 Q1019",
      "taf": "TAF LIPE 250500Z 2506/2606 05012KT 8000 RA BKN008"
    },
    {
      "icao": "LIPH",
      "alert": "OK",
      "vis_m": 9999,
      "fzfg": false,
      "metar_trigger": false,
      "taf_trigger": false,
      "metar": "METAR LIPH 250550Z AUTO 06019KT 9999 BKN064/// OVC092/// 08/M00 Q1021",
      "taf": "TAF LIPH 250500Z 2506/2606 05014KT 9999 BKN030"
    },
    {
      "icao": "LIPQ",
      "alert": "OK",
      "vis_m": 9999,
      "fzfg": false,
      "metar_trigger": false,
      "taf_trigger": false,
      "metar": "METAR LIPQ 250550Z AUTO 01003KT 320V120 9999 BKN078/// 06/M01 Q1022",
      "taf": "TAF LIPQ 250500Z 2506/2606 06020G33KT 9999 BKN050"
    },
    {
      "icao": "LIPR",
      "alert": "OK",
      "vis_m": 9999,
      "fzfg": false,
      "metar_trigger": false,
      "taf_trigger": false,
      "metar": "METAR LIPR 250550Z AUTO 08014KT 9999 BKN030/// BKN089/// 11/08 Q1016",
      "taf": "TAF LIPR 250500Z 2506/2606 08015KT 8000 BKN020"
    },
    {
      "icao": "LIPX",
      "alert": "OK",
      "vis_m": 9999,
      "fzfg": false,
      "metar_trigger": false,
      "taf_trigger": false,
      "metar": "METAR LIPX 250550Z 12004KT 080V150 9999 BKN050 08/03 Q1020",
      "taf": "TAF LIPX 250500Z 2506/2606 07013KT 6000 BKN040"
    },
    {
      "icao": "LIPY",
      "alert": "OK",
      "vis_m": 9999,
      "fzfg": false,
      "metar_trigger": false,
      "taf_trigger": false,
      "metar": "METAR LIPY 250550Z AUTO 10005KT 9999 -RA BKN019/// 11/10 Q1016 RETSRA",
      "taf": "TAF LIPY 250500Z 2506/2606 10015KT 9999 SCT050"
    },
    {
      "icao": "LIPZ",
      "alert": "OK",
      "vis_m": 9999,
      "fzfg": false,
      "metar_trigger": false,
      "taf_trigger": false,
      "metar": "METAR LIPZ 250550Z 06016KT 9999 BKN060 06/01 Q1020 NOSIG",
      "taf": "TAF LIPZ 250500Z 2506/2612 07015KT 9999 BKN040"
    },
    {
      "icao": "LIRF",
      "alert": "OK",
      "vis_m": 7000,
      "fzfg": false,
      "metar_trigger": false,
      "taf_trigger": false,
      "metar": "METAR LIRF 250550Z 07008KT 7000 RA BKN040 09/09 Q1013 NOSIG",
      "taf": "TAF LIRF 250500Z 2506/2612 11012KT 7000 RA BKN030"
    },
    {
      "icao": "LIRN",
      "alert": "OK",
      "vis_m": 9999,
      "fzfg": false,
      "metar_trigger": false,
      "taf_trigger": false,
      "metar": "METAR LIRN 250550Z 34005KT 310V020 CAVOK 09/06 Q1013 NOSIG",
      "taf": "TAF LIRN 250500Z 2506/2606 06007KT 7000 SCT030"
    },
    {
      "icao": "LIRP",
      "alert": "OK",
      "vis_m": 9999,
      "fzfg": false,
      "metar_trigger": false,
      "taf_trigger": false,
      "metar": "METAR LIRP 250545Z 07015KT 9999 SCT040 10/03 Q1012 NOSIG",
      "taf": "TAF LIRP 250500Z 2506/2606 07012KT 9999 SCT030 SCT070"
    },
    {
      "icao": "LIRZ",
      "alert": "OK",
      "vis_m": 9999,
      "fzfg": false,
      "metar_trigger": false,
      "taf_trigger": false,
      "metar": "METAR LIRZ 250550Z AUTO 29003KT 230V330 9999 -RA OVC054/// 07/07 Q1014",
      "taf": "TAF LIRZ 250500Z 2506/2606 VRB06KT 9999 BKN050"
    },
    {
      "icao": "LJLJ",
      "alert": "OK",
      "vis_m": 8000,
      "fzfg": false,
      "metar_trigger": false,
      "taf_trigger": false,
      "metar": "METAR LJLJ 250600Z VRB02KT 8000 FEW004 OVC047 00/M00 Q1026 NOSIG",
      "taf": "TAF LJLJ 250500Z 2506/2606 VRB02KT 9999 FEW005 OVC050"
    },
    {
      "icao": "LKMT",
      "alert": "OK",
      "vis_m": 9999,
      "fzfg": false,
      "metar_trigger": false,
      "taf_trigger": false,
      "metar": "METAR LKMT 250600Z 03010KT 9999 OVC013 M04/M06 Q1033 NOSIG",
      "taf": "TAF LKMT 250500Z 2506/2606 04010KT 9999 BKN012 OVC016"
    },
    {
      "icao": "LKPR",
      "alert": "OK",
      "vis_m": 9999,
      "fzfg": false,
      "metar_trigger": false,
      "taf_trigger": false,
      "metar": "METAR LKPR 250600Z 01004KT CAVOK M06/M07 Q1030 NOSIG",
      "taf": "TAF LKPR 250500Z 2506/2612 05008KT CAVOK"
    },
    {
      "icao": "LLBG",
      "alert": "OK",
      "vis_m": 9999,
      "fzfg": false,
      "metar_trigger": false,
      "taf_trigger": false,
      "metar": "METAR LLBG 250550Z VRB02KT CAVOK 16/05 Q1018 NOSIG",
      "taf": "TAF LLBG 250504Z 2506/2606 VRB03KT CAVOK"
    },
    {
      "icao": "LMML",
      "alert": "OK",
      "vis_m": 9999,
      "fzfg": false,
      "metar_trigger": false,
      "taf_trigger": false,
      "metar": "METAR LMML 250545Z 23012KT 9999 FEW031 15/09 Q1015 NOSIG",
      "taf": "TAF LMML 250500Z 2506/2606 23015KT 9999 SCT030"
    },
    {
      "icao": "LOWW",
      "alert": "OK",
      "vis_m": 8000,
      "fzfg": false,
      "metar_trigger": false,
      "taf_trigger": false,
      "metar": "METAR LOWW 250550Z 35005KT 8000 -SN FEW022 SCT024 BKN036 M02/M04 Q1030 NOSIG",
      "taf": "TAF LOWW 250515Z 2506/2612 01005KT 9999 BKN040 TX00/2612Z TNM04/2606Z"
    },
    {
      "icao": "LPFR",
      "alert": "OK",
      "vis_m": 9999,
      "fzfg": false,
      "metar_trigger": false,
      "taf_trigger": false,
      "metar": "METAR LPFR 250600Z 35006KT CAVOK 07/05 Q1009",
      "taf": "TAF LPFR 250500Z 2506/2606 30007KT CAVOK"
    },
    {
      "icao": "LPMA",
      "alert": "OK",
      "vis_m": 9999,
      "fzfg": false,
      "metar_trigger": false,
      "taf_trigger": false,
      "metar": "METAR LPMA 250600Z 36015KT 330V030 9999 SCT015 16/09 Q1015",
      "taf": "TAF LPMA 250500Z 2506/2606 36013KT 9999 SCT015"
    },
    {
      "icao": "LPPR",
      "alert": "OK",
      "vis_m": 9999,
      "fzfg": false,
      "metar_trigger": false,
      "taf_trigger": false,
      "metar": "METAR LPPR 250600Z 05005KT CAVOK 05/04 Q1010",
      "taf": "TAF LPPR 250500Z 2506/2606 36007KT 9999 SCT040"
    },
    {
      "icao": "LPPS",
      "alert": "OK",
      "vis_m": 9999,
      "fzfg": false,
      "metar_trigger": false,
      "taf_trigger": false,
      "metar": "METAR LPPS 250600Z 02013KT 9999 FEW015 15/09 Q1015",
      "taf": "TAF LPPS 250500Z 2506/2612 34015KT 9999 SCT015"
    },
    {
      "icao": "LPPT",
      "alert": "OK",
      "vis_m": 9999,
      "fzfg": false,
      "metar_trigger": false,
      "taf_trigger": false,
      "metar": "METAR LPPT 250600Z 32004KT 9999 FEW016 09/06 Q1009",
      "taf": "TAF LPPT 250500Z 2506/2612 36005KT CAVOK"
    },
    {
      "icao": "LQBK",
      "alert": "OK",
      "vis_m": 3500,
      "fzfg": false,
      "metar_trigger": false,
      "taf_trigger": false,
      "metar": "METAR LQBK 250600Z 30007KT 3500 DZ BR OVC005 03/02 Q1025 NOSIG",
      "taf": "TAF LQBK 250500Z 2506/2606 34005KT 9999 BKN010 OVC025 TX03/2512Z TN01/2605Z"
    },
    {
      "icao": "LQSA",
      "alert": "OK",
      "vis_m": 9999,
      "fzfg": false,
      "metar_trigger": false,
      "taf_trigger": false,
      "metar": "METAR LQSA 250600Z 29006KT 9999 SCT012 BKN030 03/02 Q1022 NOSIG",
      "taf": "TAF LQSA 250500Z 2506/2606 28007KT 9999 SCT014 BKN035 TX03/2513Z TNM01/2606Z"
    },
    {
      "icao": "LQTZ",
      "alert": "OK",
      "vis_m": 3500,
      "fzfg": false,
      "metar_trigger": false,
      "taf_trigger": false,
      "metar": "METAR LQTZ 250600Z 00000KT 3500 -RA BR SCT003 OVC008 03/03 Q1024",
      "taf": "TAF LQTZ 250500Z 2506/2606 04005KT 6000 BKN007 OVC015 TX04/2512Z TNM00/2605Z"
    },
    {
      "icao": "LRBC",
      "alert": "OK",
      "vis_m": 9999,
      "fzfg": false,
      "metar_trigger": false,
      "taf_trigger": false,
      "metar": "METAR LRBC 250600Z 34009KT 9999 FEW011 SCT029 M04/M05 Q1037",
      "taf": "TAF LRBC 250500Z 2506/2515 36012KT 9999 BKN025"
    },
    {
      "icao": "LRBS",
      "alert": "OK",
      "vis_m": 9999,
      "fzfg": false,
      "metar_trigger": false,
      "taf_trigger": false,
      "metar": "METAR LRBS 250600Z 04020G32KT 010V070 9999 OVC026 M02/M05 Q1032 NOSIG",
      "taf": "TAF LRBS 250500Z 2506/2606 04020G33KT 5000 -SN OVC025"
    },
    {
      "icao": "LRBV",
      "alert": "OK",
      "vis_m": 9999,
      "fzfg": false,
      "metar_trigger": false,
      "taf_trigger": false,
      "metar": "METAR LRBV 250600Z 09011KT 9999 BKN071 M02/M07 Q1030",
      "taf": "TAF LRBV 250500Z 2506/2515 09008KT 9999 BKN045"
    },
    {
      "icao": "LRCL",
      "alert": "OK",
      "vis_m": 9999,
      "fzfg": false,
      "metar_trigger": false,
      "taf_trigger": false,
      "metar": "METAR LRCL 250600Z VRB01KT CAVOK M00/M02 Q1030",
      "taf": "TAF LRCL 250500Z 2506/2515 12006KT 9999 SCT045"
    },
    {
      "icao": "LRCV",
      "alert": "OK",
      "vis_m": 3000,
      "fzfg": false,
      "metar_trigger": false,
      "taf_trigger": false,
      "metar": "METAR LRCV 250600Z 07022KT 3000 -SN FEW005 SCT011 OVC021 M01/M01 Q1029",
      "taf": "TAF LRCV 250500Z 2506/2515 07024KT 3000 -SN BKN015 OVC020"
    },
    {
      "icao": "LRIA",
      "alert": "OK",
      "vis_m": 9999,
      "fzfg": false,
      "metar_trigger": false,
      "taf_trigger": false,
      "metar": "METAR LRIA 250600Z 34006KT 9999 FEW023 M08/M09 Q1038",
      "taf": "TAF LRIA 250500Z 2506/2515 02006KT CAVOK"
    },
    {
      "icao": "LROP",
      "alert": "OK",
      "vis_m": 9999,
      "fzfg": false,
      "metar_trigger": false,
      "taf_trigger": false,
      "metar": "METAR LROP 250600Z 05025KT 9999 OVC025 M02/M07 Q1032 NOSIG",
      "taf": "TAF LROP 250500Z 2506/2606 05026KT 9999 OVC025"
    },
    {
      "icao": "LRSB",
      "alert": "OK",
      "vis_m": 9000,
      "fzfg": false,
      "metar_trigger": false,
      "taf_trigger": false,
      "metar": "METAR LRSB 250600Z 17003KT 130V200 9000 -SN FEW023 SCT044 OVC050 M01/M01 Q1029",
      "taf": "TAF LRSB 250500Z 2506/2606 VRB04KT 5000 -SN SCT020 BKN035"
    },
    {
      "icao": "LRSM",
      "alert": "OK",
      "vis_m": 9999,
      "fzfg": false,
      "metar_trigger": false,
      "taf_trigger": false,
      "metar": "METAR LRSM 250600Z 08007KT CAVOK 04/M02 Q1030",
      "taf": "TAF LRSM 250500Z 2506/2515 08006KT CAVOK"
    },
    {
      "icao": "LRSV",
      "alert": "OK",
      "vis_m": 4000,
      "fzfg": false,
      "metar_trigger": false,
      "taf_trigger": false,
      "metar": "METAR LRSV 250600Z 03005KT 4000 BR BKN003 BKN020 M08/M09 Q1035",
      "taf": "TAF LRSV 250500Z 2506/2515 06008KT 9999 BKN010 BKN020"
    },
    {
      "icao": "LRTM",
      "alert": "OK",
      "vis_m": 9999,
      "fzfg": false,
      "metar_trigger": false,
      "taf_trigger": false,
      "metar": "METAR LRTM 250600Z 07001KT CAVOK 00/M01 Q1030",
      "taf": "TAF LRTM 250500Z 2506/2515 VRB04KT 9999 SCT040"
    },
    {
      "icao": "LRTR",
      "alert": "OK",
      "vis_m": 9999,
      "fzfg": false,
      "metar_trigger": false,
      "taf_trigger": false,
      "metar": "METAR LRTR 250600Z 07004KT CAVOK 04/01 Q1027",
      "taf": "TAF LRTR 250500Z 2506/2606 VRB04KT CAVOK"
    },
    {
      "icao": "LTAC",
      "alert": "OK",
      "vis_m": 250,
      "fzfg": true,
      "metar_trigger": false,
      "taf_trigger": false,
      "metar": "METAR LTAC 250550Z 34003KT 290V050 0250 0200W R03C/1200D R21C/0300N R03L/0225N R03R/P1500N BCFG SCT001 BKN008 M01/M01 Q1023 NOSIG",
      "taf": "TAF LTAC 250440Z 2506/2606 VRB02KT 0700 FZFG SCT001 BKN025"
    },
    {
      "icao": "LTFM",
      "alert": "OK",
      "vis_m": 9999,
      "fzfg": false,
      "metar_trigger": false,
      "taf_trigger": false,
      "metar": "METAR LTFM 250550Z COR 08017KT 9999 BKN014 BKN022 12/09 Q1022 NOSIG RMK RWY17L 08021KT RWY34L 07019KT RWY16R 08020KT RWY36 08015G26KT RWY18 08019G29KT",
      "taf": "TAF LTFM 250440Z 2506/2612 08018G28KT 9999 -RA SCT015 BKN028"
    },
    {
      "icao": "LUKK",
      "alert": "OK",
      "vis_m": 9999,
      "fzfg": false,
      "metar_trigger": false,
      "taf_trigger": false,
      "metar": "METAR LUKK 250600Z 05009KT 9999 OVC014 M08/M11 Q1038 NOSIG",
      "taf": "TAF LUKK 250522Z 2506/2606 04009KT 9999 BKN013"
    },
    {
      "icao": "LWOH",
      "alert": "OK",
      "vis_m": 9999,
      "fzfg": false,
      "metar_trigger": false,
      "taf_trigger": false,
      "metar": "METAR LWOH 250550Z 36004KT 320V020 9999 FEW010 BKN033 04/02 Q1018",
      "taf": "TAF LWOH 250540Z 2506/2606 32010KT 9999 FEW020 BKN040"
    },
    {
      "icao": "LWSK",
      "alert": "OK",
      "vis_m": null,
      "fzfg": false,
      "metar_trigger": false,
      "taf_trigger": false,
      "metar": "",
      "taf": "TAF LWSK 250540Z 2506/2606 VRB02KT 6000 SCT020 OVC040"
    },
    {
      "icao": "LYBE",
      "alert": "OK",
      "vis_m": 9999,
      "fzfg": false,
      "metar_trigger": false,
      "taf_trigger": false,
      "metar": "METAR LYBE 250600Z 11006KT 9999 -RA BKN012 BKN025 02/01 Q1027 NOSIG",
      "taf": "TAF LYBE 250500Z 2506/2606 11013KT 9999 BKN012 BKN025 TX02/2506Z TNM01/2606Z"
    },
    {
      "icao": "LYNI",
      "alert": "OK",
      "vis_m": 9999,
      "fzfg": false,
      "metar_trigger": false,
      "taf_trigger": false,
      "metar": "METAR LYNI 250600Z VRB02KT 9999 -SN SCT010 BKN027 OVC080 02/M02 Q1024 NOSIG",
      "taf": ""
    },
    {
      "icao": "LYPG",
      "alert": "OK",
      "vis_m": 500,
      "fzfg": false,
      "metar_trigger": false,
      "taf_trigger": false,
      "metar": "METAR LYPG 250600Z 27002KT 0500 R18/0600D R36/P2000N FG FEW007 03/03 Q1019 TEMPO 0200",
      "taf": "TAF LYPG 250500Z 2506/2606 VRB02KT 0300 FG FEW007 TX12/2513Z TN01/2605Z"
    },
    {
      "icao": "LZIB",
      "alert": "OK",
      "vis_m": 9999,
      "fzfg": false,
      "metar_trigger": false,
      "taf_trigger": false,
      "metar": "METAR LZIB 250600Z 04004KT 9999 -SN BKN037 01/M03 Q1030 NOSIG",
      "taf": "TAF LZIB 250515Z 2506/2606 04006KT 9999 BKN040"
    },
    {
      "icao": "LZKZ",
      "alert": "OK",
      "vis_m": 9999,
      "fzfg": false,
      "metar_trigger": false,
      "taf_trigger": false,
      "metar": "METAR LZKZ 250600Z 01015KT CAVOK M01/M05 Q1031 NOSIG",
      "taf": "TAF LZKZ 250515Z 2506/2606 01016KT 9999 BKN045"
    },
    {
      "icao": "LZTT",
      "alert": "OK",
      "vis_m": 9999,
      "fzfg": false,
      "metar_trigger": false,
      "taf_trigger": false,
      "metar": "METAR LZTT 250600Z 06002KT 9999 SCT008 BKN033 M06/M08 Q1030 NOSIG",
      "taf": "TAF LZTT 250515Z 2506/2606 05005KT 9999 SCT008 BKN030"
    },
    {
      "icao": "OEJN",
      "alert": "OK",
      "vis_m": 8000,
      "fzfg": false,
      "metar_trigger": false,
      "taf_trigger": false,
      "metar": "METAR OEJN 250600Z 35002KT 8000 NSC 26/22 Q1014 NOSIG",
      "taf": "TAF OEJN 250500Z 2506/2612 36006KT 7000 SCT040"
    },
    {
      "icao": "OEMA",
      "alert": "OK",
      "vis_m": 9999,
      "fzfg": false,
      "metar_trigger": false,
      "taf_trigger": false,
      "metar": "METAR OEMA 250600Z 03011KT CAVOK 18/04 Q1021 NOSIG",
      "taf": "TAF OEMA 250500Z 2506/2612 08010KT 9999 SCT040"
    },
    {
      "icao": "OJAI",
      "alert": "OK",
      "vis_m": 3000,
      "fzfg": false,
      "metar_trigger": false,
      "taf_trigger": false,
      "metar": "METAR OJAI 250500Z 07010KT 3000 BR NSC 05/03 Q1021 NOSIG",
      "taf": "TAF OJAI 250500Z 2506/2612 14010KT 5000 HZ NSC"
    },
    {
      "icao": "OMAA",
      "alert": "OK",
      "vis_m": 9999,
      "fzfg": false,
      "metar_trigger": false,
      "taf_trigger": false,
      "metar": "METAR OMAA 250600Z 21005KT 9999 FEW045 20/14 Q1018 BECMG 30010KT",
      "taf": "TAF OMAA 250500Z 2506/2612 22005KT 8000 FEW045"
    },
    {
      "icao": "OMDB",
      "alert": "OK",
      "vis_m": 9999,
      "fzfg": false,
      "metar_trigger": false,
      "taf_trigger": false,
      "metar": "METAR OMDB 250600Z VRB06KT CAVOK 20/13 Q1018 NOSIG",
      "taf": "TAF OMDB 250500Z 2506/2612 24005KT 8000 FEW030"
    },
    {
      "icao": "UAAA",
      "alert": "OK",
      "vis_m": 1600,
      "fzfg": false,
      "metar_trigger": false,
      "taf_trigger": false,
      "metar": "METAR UAAA 250600Z VRB01MPS 1600 R05R/1600N BR BKN200 M03/M04 Q1018 NOSIG",
      "taf": "TAF UAAA 250502Z 2506/2606 34002MPS 5000 BR FU SCT050 BKN100 TX00/2509Z TNM05/2601Z"
    },
    {
      "icao": "UBBB",
      "alert": "OK",
      "vis_m": 8000,
      "fzfg": false,
      "metar_trigger": false,
      "taf_trigger": false,
      "metar": "METAR UBBB 250600Z 33018KT 8000 -RA BKN010 OVC032 07/05 Q1026 NOSIG",
      "taf": "TAF UBBB 250511Z 2506/2606 32018G28KT 9999 SCT015 FEW030CB OVC030 TX08/2509Z TN03/2602Z"
    },
    {
      "icao": "UDSG",
      "alert": "OK",
      "vis_m": 6000,
      "fzfg": false,
      "metar_trigger": false,
      "taf_trigger": false,
      "metar": "METAR UDSG 250600Z 07002KT 6000 FEW049 M05/M05 Q1023 NOSIG",
      "taf": "TAF UDSG 250458Z 2506/2606 VRB06KT 5000 BR SCT040"
    },
    {
      "icao": "UDYZ",
      "alert": "OK",
      "vis_m": 1800,
      "fzfg": false,
      "metar_trigger": false,
      "taf_trigger": false,
      "metar": "METAR UDYZ 250600Z 00000KT 1800 R08/2000N BR FEW046 M02/M04 Q1024 NOSIG",
      "taf": "TAF UDYZ 250500Z 2506/2606 VRB04KT 6000 FEW040"
    },
    {
      "icao": "UGKO",
      "alert": "OK",
      "vis_m": 9999,
      "fzfg": false,
      "metar_trigger": false,
      "taf_trigger": false,
      "metar": "METAR UGKO 250600Z 27005KT 9999 SCT028 BKN063 08/07 Q1024 NOSIG",
      "taf": "TAF UGKO 250500Z 2506/2606 26007KT 9999 SCT023 BKN050 TX09/2511Z TN04/2603Z"
    }
  ]
}