{
  "ts_utc": "2026-01-19T23:49:43Z",
  "threshold_m": 150,
  "source": "stations_override.txt (ICAO list) + aviationweather.gov (METAR/TAF raw)",
  "station_count": 159,
  "stations": [
    {
      "icao": "BIKF",
      "alert": "OK",
      "vis_m": 9999,
      "fzfg": false,
      "metar_trigger": false,
      "taf_trigger": false,
      "metar": "METAR BIKF 192330Z 18012KT 9999 FEW028 03/00 Q0998",
      "taf": "TAF BIKF 192243Z 2000/2100 15020G30KT 9999 -SHRA FEW015 BKN035 TX06/2014Z TN01/2022Z"
    },
    {
      "icao": "BKPR",
      "alert": "OK",
      "vis_m": 9999,
      "fzfg": false,
      "metar_trigger": false,
      "taf_trigger": false,
      "metar": "METAR BKPR 192330Z 35008KT CAVOK M05/M08 Q1031 NOSIG",
      "taf": "TAF BKPR 192330Z 2000/2024 35008KT CAVOK"
    },
    {
      "icao": "EBCI",
      "alert": "OK",
      "vis_m": 7000,
      "fzfg": false,
      "metar_trigger": false,
      "taf_trigger": false,
      "metar": "METAR EBCI 192320Z VRB02KT 7000 NSC 05/03 Q1018 NOSIG",
      "taf": "TAF EBCI 192300Z 2000/2106 16004KT CAVOK"
    },
    {
      "icao": "EDDB",
      "alert": "OK",
      "vis_m": 9999,
      "fzfg": false,
      "metar_trigger": false,
      "taf_trigger": false,
      "metar": "METAR EDDB 192320Z AUTO 15010KT CAVOK M02/M07 Q1024 NOSIG",
      "taf": "TAF EDDB 192300Z 2000/2024 13008KT CAVOK"
    },
    {
      "icao": "EDDH",
      "alert": "OK",
      "vis_m": 9999,
      "fzfg": false,
      "metar_trigger": false,
      "taf_trigger": false,
      "metar": "METAR EDDH 192320Z AUTO 13003KT CAVOK M01/M04 Q1021 NOSIG",
      "taf": "TAF EDDH 192300Z 2000/2106 11005KT CAVOK"
    },
    {
      "icao": "EDDK",
      "alert": "OK",
      "vis_m": 9000,
      "fzfg": false,
      "metar_trigger": false,
      "taf_trigger": false,
      "metar": "METAR EDDK 192320Z AUTO 13007KT 9000 OVC007 01/M01 Q1021 TEMPO SCT007",
      "taf": "TAF EDDK 192300Z 2000/2106 12008KT 9999 OVC007"
    },
    {
      "icao": "EDDN",
      "alert": "OK",
      "vis_m": 9999,
      "fzfg": false,
      "metar_trigger": false,
      "taf_trigger": false,
      "metar": "METAR EDDN 192320Z AUTO 10006KT CAVOK M03/M07 Q1022",
      "taf": "TAF EDDN 192300Z 2000/2024 11006KT CAVOK"
    },
    {
      "icao": "EDDS",
      "alert": "OK",
      "vis_m": 8000,
      "fzfg": false,
      "metar_trigger": false,
      "taf_trigger": false,
      "metar": "METAR EDDS 192320Z AUTO 30001KT 8000 NCD M03/M04 Q1019",
      "taf": "TAF EDDS 192300Z 2000/2024 VRB03KT CAVOK"
    },
    {
      "icao": "EDFH",
      "alert": "OK",
      "vis_m": 350,
      "fzfg": true,
      "metar_trigger": false,
      "taf_trigger": false,
      "metar": "METAR EDFH 192320Z 14006KT 110V170 0350 R21/0400N FZFG VV/// M02/M02 Q1019",
      "taf": "TAF EDFH 192300Z 2000/2024 14010KT 0400 FZFG OVC001"
    },
    {
      "icao": "EDJA",
      "alert": "OK",
      "vis_m": 600,
      "fzfg": false,
      "metar_trigger": false,
      "taf_trigger": false,
      "metar": "METAR EDJA 192320Z AUTO 00000KT 0600 0500 R24/0650D // VV/// M04/M05 Q1019",
      "taf": "TAF EDJA 191700Z 1918/2003 05004KT CAVOK"
    },
    {
      "icao": "EDLW",
      "alert": "OK",
      "vis_m": 9999,
      "fzfg": false,
      "metar_trigger": false,
      "taf_trigger": false,
      "metar": "METAR EDLW 192320Z AUTO 12002KT 9999 // NCD 00/M02 Q1019",
      "taf": "TAF EDLW 191700Z 1918/2018 14004KT CAVOK"
    },
    {
      "icao": "EDNY",
      "alert": "OK",
      "vis_m": 2200,
      "fzfg": false,
      "metar_trigger": false,
      "taf_trigger": false,
      "metar": "METAR EDNY 192320Z AUTO 02004KT 2200 // BKN002/// OVC005/// M02/M02 Q1020",
      "taf": "TAF EDNY 191700Z 1918/2003 04003KT CAVOK"
    },
    {
      "icao": "EDSB",
      "alert": "OK",
      "vis_m": 3800,
      "fzfg": false,
      "metar_trigger": false,
      "taf_trigger": false,
      "metar": "METAR EDSB 192320Z AUTO 04004KT 3800 OVC002/// 00/M00 Q1021",
      "taf": "TAF EDSB 192300Z 2000/2024 07005KT 3000 BR OVC003"
    },
    {
      "icao": "EETN",
      "alert": "OK",
      "vis_m": 900,
      "fzfg": true,
      "metar_trigger": false,
      "taf_trigger": false,
      "metar": "METAR EETN 192320Z 18005KT 0900 R08/P2000 FZFG VV002 M09/M10 Q1031",
      "taf": "TAF EETN 192330Z 2000/2024 22005KT 3000 BR OVC003"
    },
    {
      "icao": "EFTU",
      "alert": "OK",
      "vis_m": 9999,
      "fzfg": false,
      "metar_trigger": false,
      "taf_trigger": false,
      "metar": "METAR EFTU 192320Z AUTO 15006KT 9999 OVC011 M01/M02 Q1029",
      "taf": "TAF EFTU 192323Z 2000/2024 14005KT 9999 BKN008"
    },
    {
      "icao": "EGBB",
      "alert": "OK",
      "vis_m": 7000,
      "fzfg": false,
      "metar_trigger": false,
      "taf_trigger": false,
      "metar": "METAR EGBB 192320Z 15008KT 7000 DZ BKN006 OVC013 09/08 Q1011",
      "taf": "TAF EGBB 192259Z 2000/2024 15010KT 9999 BKN024"
    },
    {
      "icao": "EGGP",
      "alert": "OK",
      "vis_m": 9999,
      "fzfg": false,
      "metar_trigger": false,
      "taf_trigger": false,
      "metar": "METAR EGGP 192320Z 15009KT CAVOK 06/05 Q1010",
      "taf": "TAF EGGP 192303Z 2000/2024 15008KT 9999 FEW010 SCT020"
    },
    {
      "icao": "EGGW",
      "alert": "OK",
      "vis_m": 5000,
      "fzfg": false,
      "metar_trigger": false,
      "taf_trigger": false,
      "metar": "METAR EGGW 192320Z AUTO 16010KT 5000 -RADZ OVC007 09/08 Q1012",
      "taf": "TAF EGGW 192305Z 2000/2024 16010KT 9999 BKN006"
    },
    {
      "icao": "EGKK",
      "alert": "OK",
      "vis_m": 8000,
      "fzfg": false,
      "metar_trigger": false,
      "taf_trigger": false,
      "metar": "METAR EGKK 192320Z 17007KT 130V200 8000 -RA BKN008 10/09 Q1013",
      "taf": "TAF EGKK 192301Z 2000/2106 14005KT 9999 SCT012 BKN020"
    },
    {
      "icao": "EGNM",
      "alert": "OK",
      "vis_m": 500,
      "fzfg": false,
      "metar_trigger": false,
      "taf_trigger": false,
      "metar": "METAR EGNM 192220Z 13006KT 100V160 0500 R32/1000N FG VV/// 08/08 Q1011",
      "taf": "TAF EGNM 192300Z 2000/2024 14007KT 0300 FG VV///"
    },
    {
      "icao": "EGPD",
      "alert": "OK",
      "vis_m": 500,
      "fzfg": false,
      "metar_trigger": false,
      "taf_trigger": false,
      "metar": "METAR EGPD 192320Z AUTO 14006KT 0500 R16/0450N FG VV/// 07/07 Q1011 TEMPO 1200 BR",
      "taf": "TAF EGPD 192258Z 2000/2024 VRB04KT 1200 BR BKN002"
    },
    {
      "icao": "EGPF",
      "alert": "OK",
      "vis_m": 3700,
      "fzfg": false,
      "metar_trigger": false,
      "taf_trigger": false,
      "metar": "METAR EGPF 192320Z AUTO 07006KT 3700 BR OVC003 04/04 Q1009",
      "taf": "TAF EGPF 192301Z 2000/2024 08006KT 3000 BR BKN003"
    },
    {
      "icao": "EHBK",
      "alert": "OK",
      "vis_m": 9999,
      "fzfg": false,
      "metar_trigger": false,
      "taf_trigger": false,
      "metar": "METAR EHBK 192325Z AUTO 12005KT 9999 NCD 01/M00 Q1019",
      "taf": "TAF EHBK 192317Z 2000/2106 12003KT CAVOK"
    },
    {
      "icao": "EHEH",
      "alert": "OK",
      "vis_m": 7000,
      "fzfg": false,
      "metar_trigger": false,
      "taf_trigger": false,
      "metar": "METAR EHEH 192325Z AUTO 13005KT 100V170 7000 BR NCD 01/00 Q1019 WHT",
      "taf": "TAF EHEH 191712Z 1918/2024 14005KT CAVOK"
    },
    {
      "icao": "EKBI",
      "alert": "OK",
      "vis_m": 7000,
      "fzfg": false,
      "metar_trigger": false,
      "taf_trigger": false,
      "metar": "METAR EKBI 192320Z AUTO 10003KT 7000 NCD M03/M04 Q1021",
      "taf": "TAF EKBI 192327Z 2000/2024 10004KT 8000 NSC"
    },
    {
      "icao": "EKCH",
      "alert": "OK",
      "vis_m": 9999,
      "fzfg": false,
      "metar_trigger": false,
      "taf_trigger": false,
      "metar": "METAR EKCH 192320Z AUTO 15009KT 9999 NCD 01/M02 Q1024 NOSIG",
      "taf": "TAF EKCH 192327Z 2000/2024 15008KT CAVOK"
    },
    {
      "icao": "ENAL",
      "alert": "OK",
      "vis_m": 9999,
      "fzfg": false,
      "metar_trigger": false,
      "taf_trigger": false,
      "metar": "METAR ENAL 192320Z AUTO 25003KT 9999 OVC060/// 03/02 Q1020",
      "taf": "TAF ENAL 192300Z 2000/2009 VRB05KT 9999 FEW015 SCT050"
    },
    {
      "icao": "ENBR",
      "alert": "OK",
      "vis_m": 9999,
      "fzfg": false,
      "metar_trigger": false,
      "taf_trigger": false,
      "metar": "METAR ENBR 192320Z 04003KT CAVOK 02/01 Q1021 RMK WIND 1200FT 25006KT",
      "taf": "TAF ENBR 192300Z 2000/2024 12005KT 9999 FEW007 SCT050"
    },
    {
      "icao": "ENGM",
      "alert": "OK",
      "vis_m": 9999,
      "fzfg": false,
      "metar_trigger": false,
      "taf_trigger": false,
      "metar": "METAR ENGM 192320Z 10003KT 9999 OVC018 M02/M04 Q1025",
      "taf": "TAF ENGM 192300Z 2000/2024 03005KT 9999 BKN018"
    },
    {
      "icao": "ENHD",
      "alert": "OK",
      "vis_m": 9999,
      "fzfg": false,
      "metar_trigger": false,
      "taf_trigger": false,
      "metar": "METAR ENHD 192320Z AUTO 16006KT 9999 NCD 01/M02 Q1021",
      "taf": "TAF ENHD 191400Z 1915/1923 16008KT 9999 FEW050"
    },
    {
      "icao": "ENTC",
      "alert": "CRITICAL",
      "vis_m": 50,
      "fzfg": true,
      "metar_trigger": true,
      "taf_trigger": true,
      "metar": "METAR ENTC 192320Z VRB02KT 0050 R36/0375N R18/0400N FZFG VV001 M03/M03 Q1027 RMK WIND 2600FT 09008KT",
      "taf": "TAF ENTC 192300Z 2000/2024 VRB02KT 0100 FZFG VV000"
    },
    {
      "icao": "ENTO",
      "alert": "OK",
      "vis_m": 9999,
      "fzfg": false,
      "metar_trigger": false,
      "taf_trigger": false,
      "metar": "METAR ENTO 192320Z AUTO 05005KT 010V080 9999 OVC013/// M01/M02 Q1025",
      "taf": "TAF ENTO 192300Z 2000/2024 03005KT 9999 BKN012"
    },
    {
      "icao": "ENVA",
      "alert": "OK",
      "vis_m": 9999,
      "fzfg": false,
      "metar_trigger": false,
      "taf_trigger": false,
      "metar": "METAR ENVA 192320Z 12006KT CAVOK M01/M04 Q1024 RMK WIND 670FT 09009KT",
      "taf": "TAF ENVA 192300Z 2000/2024 09005KT CAVOK"
    },
    {
      "icao": "ENZV",
      "alert": "OK",
      "vis_m": 9999,
      "fzfg": false,
      "metar_trigger": false,
      "taf_trigger": false,
      "metar": "METAR ENZV 192320Z VRB02KT CAVOK 01/M04 Q1021",
      "taf": "TAF ENZV 191700Z 1918/2018 12005KT CAVOK"
    },
    {
      "icao": "EPGD",
      "alert": "OK",
      "vis_m": 7000,
      "fzfg": false,
      "metar_trigger": false,
      "taf_trigger": false,
      "metar": "METAR EPGD 192330Z 17008KT 7000 NSC M08/M10 Q1028",
      "taf": "TAF EPGD 192330Z 2000/2024 17005KT 7000 NSC"
    },
    {
      "icao": "EPKK",
      "alert": "OK",
      "vis_m": 2500,
      "fzfg": false,
      "metar_trigger": false,
      "taf_trigger": false,
      "metar": "METAR EPKK 192330Z 27001KT 2500 BR NSC M12/M14 Q1032",
      "taf": "TAF EPKK 192330Z 2000/2024 VRB02KT 2500 BR NSC"
    },
    {
      "icao": "EPKT",
      "alert": "OK",
      "vis_m": 3300,
      "fzfg": false,
      "metar_trigger": false,
      "taf_trigger": false,
      "metar": "METAR EPKT 192330Z 10004KT 3300 BR NSC M09/M11 Q1031",
      "taf": "TAF EPKT 192330Z 2000/2024 10003KT 3500 BR NSC"
    },
    {
      "icao": "EPLB",
      "alert": "OK",
      "vis_m": 2600,
      "fzfg": false,
      "metar_trigger": false,
      "taf_trigger": false,
      "metar": "METAR EPLB 192330Z 07001KT 2600 BR NSC M16/M17 Q1033",
      "taf": "TAF EPLB 192330Z 2000/2024 VRB04KT CAVOK"
    },
    {
      "icao": "EPMO",
      "alert": "OK",
      "vis_m": 3200,
      "fzfg": false,
      "metar_trigger": false,
      "taf_trigger": false,
      "metar": "METAR EPMO 192330Z 11003KT 070V150 3200 BR NSC M13/M14 Q1032",
      "taf": "TAF EPMO 192330Z 2000/2024 12005KT 7000 NSC"
    },
    {
      "icao": "EPPO",
      "alert": "OK",
      "vis_m": 9999,
      "fzfg": false,
      "metar_trigger": false,
      "taf_trigger": false,
      "metar": "METAR EPPO 192330Z 11004KT CAVOK M04/M08 Q1028",
      "taf": "TAF EPPO 192330Z 2000/2024 15006KT CAVOK"
    },
    {
      "icao": "EPRA",
      "alert": "OK",
      "vis_m": 8000,
      "fzfg": false,
      "metar_trigger": false,
      "taf_trigger": false,
      "metar": "METAR EPRA 192330Z 16004KT 8000 NSC M11/M13 Q1032",
      "taf": "TAF EPRA 192330Z 2000/2009 15005KT CAVOK"
    },
    {
      "icao": "EPRZ",
      "alert": "OK",
      "vis_m": 3500,
      "fzfg": false,
      "metar_trigger": false,
      "taf_trigger": false,
      "metar": "METAR EPRZ 192330Z 07004KT 3500 BR NSC M13/M14 Q1033",
      "taf": "TAF EPRZ 192330Z 2000/2024 08005KT 3500 BR NSC"
    },
    {
      "icao": "EPSC",
      "alert": "OK",
      "vis_m": 9999,
      "fzfg": false,
      "metar_trigger": false,
      "taf_trigger": false,
      "metar": "METAR EPSC 192330Z 13012KT CAVOK M02/M06 Q1026",
      "taf": "TAF EPSC 192330Z 2000/2024 14010KT CAVOK"
    },
    {
      "icao": "EPSY",
      "alert": "OK",
      "vis_m": 3300,
      "fzfg": false,
      "metar_trigger": false,
      "taf_trigger": false,
      "metar": "METAR EPSY 192330Z 00000KT 3300 BR NSC M20/M22 Q1032",
      "taf": "TAF EPSY 192330Z 2000/2009 VRB02KT 6000 NSC"
    },
    {
      "icao": "EPWA",
      "alert": "OK",
      "vis_m": 5000,
      "fzfg": false,
      "metar_trigger": false,
      "taf_trigger": false,
      "metar": "METAR EPWA 192330Z 13005KT 5000 BR NSC M12/M13 Q1033 TEMPO 3000",
      "taf": "TAF EPWA 192330Z 2000/2024 13005KT 7000 NSC"
    },
    {
      "icao": "EPWR",
      "alert": "OK",
      "vis_m": 9999,
      "fzfg": false,
      "metar_trigger": false,
      "taf_trigger": false,
      "metar": "METAR EPWR 192330Z 15018KT CAVOK M01/M08 Q1028",
      "taf": "TAF EPWR 192330Z 2000/2024 16014KT CAVOK"
    },
    {
      "icao": "ESGG",
      "alert": "OK",
      "vis_m": 6000,
      "fzfg": false,
      "metar_trigger": false,
      "taf_trigger": false,
      "metar": "METAR ESGG 192320Z 11006KT 6000 OVC003 M04/M04 Q1024",
      "taf": "TAF ESGG 192330Z 2000/2024 11009KT 8000 OVC003"
    },
    {
      "icao": "ESKN",
      "alert": "OK",
      "vis_m": 9999,
      "fzfg": false,
      "metar_trigger": false,
      "taf_trigger": false,
      "metar": "METAR ESKN 192320Z 16006KT 9999 OVC006 M00/M01 Q1027",
      "taf": "TAF ESKN 192330Z 2000/2024 16005KT 9000 OVC006"
    },
    {
      "icao": "ESMS",
      "alert": "OK",
      "vis_m": 9999,
      "fzfg": false,
      "metar_trigger": false,
      "taf_trigger": false,
      "metar": "METAR ESMS 192320Z 14005KT CAVOK 01/M02 Q1024",
      "taf": "TAF ESMS 192327Z 2000/2024 13005KT CAVOK"
    },
    {
      "icao": "ESSA",
      "alert": "OK",
      "vis_m": 9999,
      "fzfg": false,
      "metar_trigger": false,
      "taf_trigger": false,
      "metar": "METAR ESSA 192320Z 19006KT 9999 OVC009 M00/M02 Q1027 NOSIG",
      "taf": "TAF ESSA 192330Z 2000/2024 19006KT 9999 OVC007"
    },
    {
      "icao": "EYKA",
      "alert": "OK",
      "vis_m": 6000,
      "fzfg": false,
      "metar_trigger": false,
      "taf_trigger": false,
      "metar": "METAR EYKA 192320Z AUTO VRB01KT 6000 NCD M14/M16 Q1033",
      "taf": "TAF EYKA 192300Z 2000/2024 VRB04KT 5000 BR NSC"
    },
    {
      "icao": "EYPA",
      "alert": "OK",
      "vis_m": 9000,
      "fzfg": false,
      "metar_trigger": false,
      "taf_trigger": false,
      "metar": "METAR EYPA 192320Z AUTO 16006KT 9000 NCD M12/M14 Q1031",
      "taf": "TAF EYPA 192300Z 2000/2024 15008KT 9000 NSC"
    },
    {
      "icao": "EYVI",
      "alert": "OK",
      "vis_m": 5000,
      "fzfg": false,
      "metar_trigger": false,
      "taf_trigger": false,
      "metar": "METAR EYVI 192320Z 17004KT 5000 BR NSC M13/M15 Q1032 NOSIG",
      "taf": "TAF EYVI 192300Z 2000/2024 18008KT 5000 BR NSC"
    },
    {
      "icao": "GCFV",
      "alert": "OK",
      "vis_m": 9999,
      "fzfg": false,
      "metar_trigger": false,
      "taf_trigger": false,
      "metar": "METAR GCFV 192330Z AUTO 36013KT 9999 FEW033 16/10 Q1024",
      "taf": "TAF GCFV 192000Z 1921/2021 36009KT 9999 SCT035 TX21/2014Z TN14/2006Z"
    },
    {
      "icao": "GCLP",
      "alert": "OK",
      "vis_m": 9999,
      "fzfg": false,
      "metar_trigger": false,
      "taf_trigger": false,
      "metar": "METAR GCLP 192330Z 35013KT 9999 FEW030 16/11 Q1024 NOSIG",
      "taf": "TAF GCLP 192000Z 1921/2021 02020KT 9999 BKN035 TX20/2014Z TN16/2006Z"
    },
    {
      "icao": "GCTS",
      "alert": "OK",
      "vis_m": 9999,
      "fzfg": false,
      "metar_trigger": false,
      "taf_trigger": false,
      "metar": "METAR GCTS 192330Z 04010KT 9999 FEW040 16/06 Q1025 NOSIG",
      "taf": "TAF GCTS 192000Z 1921/2021 03008KT 9999 SCT040 TX22/2014Z TN14/2006Z"
    },
    {
      "icao": "GMAD",
      "alert": "OK",
      "vis_m": 9999,
      "fzfg": false,
      "metar_trigger": false,
      "taf_trigger": false,
      "metar": "METAR GMAD 192330Z 06004KT CAVOK 07/05 Q1019 NOSIG",
      "taf": "TAF GMAD 192300Z 2000/2106 06008KT 8000 SCT020"
    },
    {
      "icao": "GMMN",
      "alert": "OK",
      "vis_m": 9999,
      "fzfg": false,
      "metar_trigger": false,
      "taf_trigger": false,
      "metar": "METAR GMMN 192330Z 21006KT 9999 SCT030 06/05 Q1023 NOSIG",
      "taf": ""
    },
    {
      "icao": "GMMX",
      "alert": "OK",
      "vis_m": 9999,
      "fzfg": false,
      "metar_trigger": false,
      "taf_trigger": false,
      "metar": "METAR GMMX 192330Z VRB02KT CAVOK 07/05 Q1022 NOSIG",
      "taf": "TAF GMMX 192300Z 2000/2106 06006KT 8000 NSC"
    },
    {
      "icao": "HEGN",
      "alert": "OK",
      "vis_m": 9999,
      "fzfg": false,
      "metar_trigger": false,
      "taf_trigger": false,
      "metar": "METAR HEGN 192300Z 30008KT CAVOK 14/03 Q1019 NOSIG",
      "taf": "TAF HEGN 192300Z 2000/2106 30012KT CAVOK"
    },
    {
      "icao": "HEMA",
      "alert": "OK",
      "vis_m": 9999,
      "fzfg": false,
      "metar_trigger": false,
      "taf_trigger": false,
      "metar": "METAR HEMA 192300Z 27008KT CAVOK 16/10 Q1018 NOSIG",
      "taf": "TAF HEMA 192300Z 2000/2106 31012KT CAVOK"
    },
    {
      "icao": "HESH",
      "alert": "OK",
      "vis_m": 9999,
      "fzfg": false,
      "metar_trigger": false,
      "taf_trigger": false,
      "metar": "METAR HESH 192300Z 34005KT CAVOK 15/07 Q1018 NOSIG",
      "taf": "TAF HESH 192300Z 2000/2106 33010KT CAVOK"
    },
    {
      "icao": "HESX",
      "alert": "OK",
      "vis_m": 6000,
      "fzfg": false,
      "metar_trigger": false,
      "taf_trigger": false,
      "metar": "METAR HESX 192300Z 36004KT 6000 NSC 09/07 Q1019 NOSIG",
      "taf": "TAF HESX 192300Z 2000/2106 01008KT CAVOK"
    },
    {
      "icao": "LATI",
      "alert": "OK",
      "vis_m": null,
      "fzfg": false,
      "metar_trigger": false,
      "taf_trigger": false,
      "metar": "",
      "taf": "TAF LATI 192300Z 2000/2024 VRB05KT CAVOK TX13/2012Z TNM04/2005Z"
    },
    {
      "icao": "LBPD",
      "alert": "OK",
      "vis_m": 9999,
      "fzfg": false,
      "metar_trigger": false,
      "taf_trigger": false,
      "metar": "METAR LBPD 192330Z AUTO VRB03KT 9999 NCD M04/M07 Q1036",
      "taf": "TAF LBPD 192300Z 2000/2024 VRB03KT 9999 SCT040"
    },
    {
      "icao": "LBSF",
      "alert": "OK",
      "vis_m": 9999,
      "fzfg": false,
      "metar_trigger": false,
      "taf_trigger": false,
      "metar": "METAR LBSF 192330Z AUTO 11005KT 9999 NCD M09/M11 Q1034 NOSIG",
      "taf": "TAF LBSF 192300Z 2000/2024 11010KT 9999 SCT050"
    },
    {
      "icao": "LBWN",
      "alert": "OK",
      "vis_m": 9000,
      "fzfg": false,
      "metar_trigger": false,
      "taf_trigger": false,
      "metar": "METAR LBWN 192330Z AUTO 27008KT 9000 FEW016/// M06/M08 Q1037 NOSIG",
      "taf": "TAF LBWN 192300Z 2000/2024 30010KT 9999 BKN010"
    },
    {
      "icao": "LCLK",
      "alert": "OK",
      "vis_m": 9999,
      "fzfg": false,
      "metar_trigger": false,
      "taf_trigger": false,
      "metar": "METAR LCLK 192330Z 29004KT 270V330 CAVOK 04/M01 Q1023 NOSIG",
      "taf": "TAF LCLK 192330Z 2000/2100 34009KT 9999 FEW030"
    },
    {
      "icao": "LCPH",
      "alert": "OK",
      "vis_m": 9999,
      "fzfg": false,
      "metar_trigger": false,
      "taf_trigger": false,
      "metar": "METAR LCPH 192330Z VRB04KT 9999 FEW035 SCT040 08/M03 Q1022 NOSIG",
      "taf": "TAF LCPH 192330Z 2000/2100 06008KT 9999 FEW030 SCT045"
    },
    {
      "icao": "LEAL",
      "alert": "OK",
      "vis_m": 9999,
      "fzfg": false,
      "metar_trigger": false,
      "taf_trigger": false,
      "metar": "METAR LEAL 192330Z 29008KT 9999 BKN050 11/06 Q1012 NOSIG",
      "taf": "TAF LEAL 192300Z 2000/2024 32010KT 9999 FEW035 TX17/2013Z TN10/2006Z"
    },
    {
      "icao": "LEBB",
      "alert": "OK",
      "vis_m": 9999,
      "fzfg": false,
      "metar_trigger": false,
      "taf_trigger": false,
      "metar": "METAR LEBB 192330Z AUTO 08003KT 340V110 CAVOK 06/05 Q1020",
      "taf": "TAF LEBB 192300Z 2000/2024 20005KT 9999 BKN030 TX13/2013Z TN02/2007Z"
    },
    {
      "icao": "LEBL",
      "alert": "OK",
      "vis_m": 8000,
      "fzfg": false,
      "metar_trigger": false,
      "taf_trigger": false,
      "metar": "METAR LEBL 192330Z 04014KT 8000 RA FEW018 SCT021 BKN040 11/10 Q1013 NOSIG",
      "taf": "TAF LEBL 192300Z 2000/2024 01013KT 9999 SCT020 BKN030 TX14/2013Z TN09/2006Z"
    },
    {
      "icao": "LECH",
      "alert": "OK",
      "vis_m": 9000,
      "fzfg": false,
      "metar_trigger": false,
      "taf_trigger": false,
      "metar": "METAR LECH 192330Z AUTO 03009G20KT 320V070 9000 SCT056 10/04 Q1013",
      "taf": ""
    },
    {
      "icao": "LEMD",
      "alert": "OK",
      "vis_m": 9999,
      "fzfg": false,
      "metar_trigger": false,
      "taf_trigger": false,
      "metar": "METAR LEMD 192330Z 04001KT CAVOK 03/M00 Q1017 NOSIG",
      "taf": "TAF LEMD 192300Z 2000/2106 VRB03KT CAVOK TX12/2014Z TNM03/2006Z"
    },
    {
      "icao": "LEMG",
      "alert": "OK",
      "vis_m": 9999,
      "fzfg": false,
      "metar_trigger": false,
      "taf_trigger": false,
      "metar": "METAR LEMG 192330Z 29014KT CAVOK 10/03 Q1018 NOSIG",
      "taf": "TAF LEMG 192300Z 2000/2024 29012KT CAVOK TX14/2014Z TN06/2006Z"
    },
    {
      "icao": "LEVC",
      "alert": "OK",
      "vis_m": 9999,
      "fzfg": false,
      "metar_trigger": false,
      "taf_trigger": false,
      "metar": "METAR LEVC 192330Z 31007KT 9999 FEW060 10/06 Q1013 NOSIG",
      "taf": "TAF LEVC 192300Z 2000/2024 31007KT 9999 SCT035 TX15/2013Z TN07/2006Z"
    },
    {
      "icao": "LEXJ",
      "alert": "OK",
      "vis_m": 9999,
      "fzfg": false,
      "metar_trigger": false,
      "taf_trigger": false,
      "metar": "METAR LEXJ 192330Z AUTO 22007KT 9999 SCT034 08/02 Q1019",
      "taf": "TAF LEXJ 192000Z 1921/2021 24009KT 9999 SCT040 TX13/2014Z TN05/2008Z"
    },
    {
      "icao": "LEZG",
      "alert": "OK",
      "vis_m": 9999,
      "fzfg": false,
      "metar_trigger": false,
      "taf_trigger": false,
      "metar": "METAR LEZG 192330Z 28015KT 9999 FEW050 09/05 Q1017 NOSIG",
      "taf": "TAF LEZG 192300Z 2000/2024 30010KT 9999 SCT030 TX10/2015Z TN03/2006Z"
    },
    {
      "icao": "LEZL",
      "alert": "OK",
      "vis_m": 9999,
      "fzfg": false,
      "metar_trigger": false,
      "taf_trigger": false,
      "metar": "METAR LEZL 192330Z 30004KT CAVOK 08/04 Q1020 NOSIG",
      "taf": "TAF LEZL 192000Z 1921/2021 28004KT CAVOK TX15/2015Z TN05/2007Z"
    },
    {
      "icao": "LFBD",
      "alert": "OK",
      "vis_m": 9999,
      "fzfg": false,
      "metar_trigger": false,
      "taf_trigger": false,
      "metar": "METAR LFBD 192330Z AUTO VRB02KT 9999 1700 R05/1400U FEW021 BKN058 BKN200 06/06 Q1018 TEMPO 0500 FG VV///",
      "taf": "TAF LFBD 192300Z 2000/2106 VRB03KT 8000 NSC TX12/2013Z TN05/2005Z"
    },
    {
      "icao": "LFLL",
      "alert": "OK",
      "vis_m": 550,
      "fzfg": false,
      "metar_trigger": false,
      "taf_trigger": false,
      "metar": "METAR LFLL 192330Z VRB03KT 0550 R35L/0650N R17R/0800U R35R/0650D R17L/0600N FG VV/// 02/02 Q1019 NOSIG",
      "taf": "TAF LFLL 192300Z 2000/2106 VRB02KT 0600 FG VV///"
    },
    {
      "icao": "LFLS",
      "alert": "OK",
      "vis_m": 350,
      "fzfg": false,
      "metar_trigger": false,
      "taf_trigger": false,
      "metar": "METAR LFLS 192330Z AUTO VRB03KT 0350 R09/0450N R27/0400N FG VV/// 02/02 Q1019",
      "taf": ""
    },
    {
      "icao": "LFMN",
      "alert": "OK",
      "vis_m": 9999,
      "fzfg": false,
      "metar_trigger": false,
      "taf_trigger": false,
      "metar": "METAR LFMN 192330Z 32008KT 9999 BKN100 BKN260 10/02 Q1018 NOSIG",
      "taf": "TAF LFMN 192000Z 1921/2103 06015KT CAVOK"
    },
    {
      "icao": "LFOB",
      "alert": "OK",
      "vis_m": 8000,
      "fzfg": false,
      "metar_trigger": false,
      "taf_trigger": false,
      "metar": "METAR LFOB 192330Z AUTO 10008KT 8000 NSC 06/05 Q1017 TEMPO 2000 BR",
      "taf": "TAF LFOB 192300Z 2000/2024 10005KT 8000 NSC"
    },
    {
      "icao": "LFPO",
      "alert": "OK",
      "vis_m": 9999,
      "fzfg": false,
      "metar_trigger": false,
      "taf_trigger": false,
      "metar": "METAR LFPO 192330Z AUTO 14003KT CAVOK 07/05 Q1018",
      "taf": "TAF LFPO 191700Z 1918/2024 11005KT CAVOK"
    },
    {
      "icao": "LFSB",
      "alert": "OK",
      "vis_m": 7000,
      "fzfg": true,
      "metar_trigger": false,
      "taf_trigger": false,
      "metar": "METAR LFSB 192330Z AUTO VRB02KT 7000 OVC004 01/M00 Q1020 TEMPO 0300 FZFG VV///",
      "taf": ""
    },
    {
      "icao": "LGAV",
      "alert": "OK",
      "vis_m": 9999,
      "fzfg": false,
      "metar_trigger": false,
      "taf_trigger": false,
      "metar": "METAR LGAV 192320Z 03016G27KT 9999 -RA FEW020 BKN040 05/00 Q1030 NOSIG",
      "taf": "TAF LGAV 192300Z 2000/2024 03015KT 9999 SCT020 BKN040"
    },
    {
      "icao": "LGTS",
      "alert": "OK",
      "vis_m": 9999,
      "fzfg": false,
      "metar_trigger": false,
      "taf_trigger": false,
      "metar": "METAR LGTS 192320Z 10006KT 9999 FEW020 SCT040 M01/M05 Q1035 NOSIG",
      "taf": "TAF LGTS 192300Z 2000/2024 11010KT 9999 SCT030"
    },
    {
      "icao": "LHBP",
      "alert": "OK",
      "vis_m": 3000,
      "fzfg": false,
      "metar_trigger": false,
      "taf_trigger": false,
      "metar": "METAR LHBP 192330Z 02003KT 340V060 3000 BR OVC002 M08/M09 Q1037 NOSIG",
      "taf": "TAF LHBP 192315Z 2000/2024 04005KT 5000 BR BKN006"
    },
    {
      "icao": "LHDC",
      "alert": "OK",
      "vis_m": 3700,
      "fzfg": false,
      "metar_trigger": false,
      "taf_trigger": false,
      "metar": "METAR LHDC 192315Z AUTO 07004KT 350V110 3700 BR OVC003 M06/M07 Q1037",
      "taf": "TAF LHDC 191715Z 1918/2003 VRB02KT 3000 BR OVC002"
    },
    {
      "icao": "LIBD",
      "alert": "OK",
      "vis_m": 9999,
      "fzfg": false,
      "metar_trigger": false,
      "taf_trigger": false,
      "metar": "METAR LIBD 192320Z AUTO 11008KT 9999 BKN069/// 09/03 Q1024",
      "taf": "TAF LIBD 192300Z 2000/2024 16008KT 9999 SCT040"
    },
    {
      "icao": "LIBG",
      "alert": "OK",
      "vis_m": null,
      "fzfg": false,
      "metar_trigger": false,
      "taf_trigger": false,
      "metar": "",
      "taf": "TAF LIBG 191700Z 1918/2003 11008KT 9999 SCT030"
    },
    {
      "icao": "LIBP",
      "alert": "OK",
      "vis_m": 9999,
      "fzfg": false,
      "metar_trigger": false,
      "taf_trigger": false,
      "metar": "METAR LIBP 192320Z AUTO 05003KT 9999 OVC045/// 09/07 Q1025",
      "taf": "TAF LIBP 192300Z 2000/2024 VRB05KT 9999 BKN030"
    },
    {
      "icao": "LIBR",
      "alert": "OK",
      "vis_m": 9999,
      "fzfg": false,
      "metar_trigger": false,
      "taf_trigger": false,
      "metar": "METAR LIBR 192320Z VRB02KT CAVOK 09/02 Q1025",
      "taf": "TAF LIBR 192300Z 2000/2024 VRB05KT 9999 SCT040"
    },
    {
      "icao": "LICA",
      "alert": "OK",
      "vis_m": 9999,
      "fzfg": false,
      "metar_trigger": false,
      "taf_trigger": false,
      "metar": "METAR LICA 192320Z AUTO 07021KT 9999 OVC100/// 12/07 Q1019",
      "taf": "TAF LICA 192300Z 2000/2024 09024G40KT 9999 SCT020 BKN060"
    },
    {
      "icao": "LICC",
      "alert": "OK",
      "vis_m": 4000,
      "fzfg": false,
      "metar_trigger": false,
      "taf_trigger": false,
      "metar": "METAR LICC 192320Z 09024KT 4000 RA BKN015 BKN030 13/11 Q1017",
      "taf": "TAF LICC 192300Z 2000/2024 10023G40KT 4000 RA BKN015"
    },
    {
      "icao": "LICJ",
      "alert": "OK",
      "vis_m": 9999,
      "fzfg": false,
      "metar_trigger": false,
      "taf_trigger": false,
      "metar": "METAR LICJ 192320Z 10021G38KT 040V140 9999 -RA SCT040 BKN070 16/06 Q1011 WS R07",
      "taf": "TAF LICJ 192300Z 2000/2024 10025G45KT 9999 SCT040 BKN060"
    },
    {
      "icao": "LIMC",
      "alert": "OK",
      "vis_m": 9999,
      "fzfg": false,
      "metar_trigger": false,
      "taf_trigger": false,
      "metar": "METAR LIMC 192320Z 03002KT 9999 SCT040 02/M01 Q1027 NOSIG",
      "taf": "TAF LIMC 191700Z 1918/2024 VRB04KT 9999 SCT050 SCT090"
    },
    {
      "icao": "LIME",
      "alert": "OK",
      "vis_m": 9999,
      "fzfg": false,
      "metar_trigger": false,
      "taf_trigger": false,
      "metar": "METAR LIME 192320Z 02003KT 9999 BKN080 02/M00 Q1027 NOSIG",
      "taf": "TAF LIME 192300Z 2000/2024 VRB04KT 9999 BKN040"
    },
    {
      "icao": "LIMF",
      "alert": "OK",
      "vis_m": 9999,
      "fzfg": false,
      "metar_trigger": false,
      "taf_trigger": false,
      "metar": "METAR LIMF 192320Z 30004KT 9999 FEW080 03/M00 Q1027",
      "taf": "TAF LIMF 192300Z 2000/2024 VRB04KT 9999 BKN060"
    },
    {
      "icao": "LIMJ",
      "alert": "OK",
      "vis_m": 9999,
      "fzfg": false,
      "metar_trigger": false,
      "taf_trigger": false,
      "metar": "METAR LIMJ 192320Z AUTO 04012KT 9999 SCT120/// BKN150/// 08/01 Q1023",
      "taf": "TAF LIMJ 192300Z 2000/2024 02015KT CAVOK"
    },
    {
      "icao": "LIPE",
      "alert": "OK",
      "vis_m": 9999,
      "fzfg": false,
      "metar_trigger": false,
      "taf_trigger": false,
      "metar": "METAR LIPE 192320Z 01004KT 330V040 9999 SCT040 BKN048 04/M00 Q1028",
      "taf": "TAF LIPE 192300Z 2000/2024 28006KT 8000 BKN020"
    },
    {
      "icao": "LIPH",
      "alert": "OK",
      "vis_m": 9999,
      "fzfg": false,
      "metar_trigger": false,
      "taf_trigger": false,
      "metar": "METAR LIPH 192320Z AUTO 01004KT 9999 BKN085/// 01/M06 Q1029",
      "taf": "TAF LIPH 192300Z 2000/2024 06008KT CAVOK"
    },
    {
      "icao": "LIPQ",
      "alert": "OK",
      "vis_m": 9999,
      "fzfg": false,
      "metar_trigger": false,
      "taf_trigger": false,
      "metar": "METAR LIPQ 192320Z AUTO 01002KT 9999 NCD 01/M08 Q1029",
      "taf": "TAF LIPQ 192300Z 2000/2024 VRB05KT CAVOK"
    },
    {
      "icao": "LIPR",
      "alert": "OK",
      "vis_m": 9999,
      "fzfg": false,
      "metar_trigger": false,
      "taf_trigger": false,
      "metar": "METAR LIPR 192320Z AUTO 09011KT 060V120 9999 FEW035/// BKN076/// BKN091/// 10/05 Q1026",
      "taf": "TAF LIPR 192300Z 2000/2024 10012KT 9999 BKN030"
    },
    {
      "icao": "LIPX",
      "alert": "OK",
      "vis_m": 9999,
      "fzfg": false,
      "metar_trigger": false,
      "taf_trigger": false,
      "metar": "METAR LIPX 192320Z VRB01KT 9999 BKN050 04/M02 Q1028",
      "taf": "TAF LIPX 192300Z 2000/2024 VRB05KT 9999 SCT050"
    },
    {
      "icao": "LIPY",
      "alert": "OK",
      "vis_m": 9999,
      "fzfg": false,
      "metar_trigger": false,
      "taf_trigger": false,
      "metar": "METAR LIPY 192320Z AUTO 09005KT 060V130 9999 OVC063/// 11/04 Q1025",
      "taf": "TAF LIPY 192300Z 2000/2024 09011KT 9999 BKN040"
    },
    {
      "icao": "LIPZ",
      "alert": "OK",
      "vis_m": 9999,
      "fzfg": false,
      "metar_trigger": false,
      "taf_trigger": false,
      "metar": "METAR LIPZ 192320Z 02008KT CAVOK 00/M06 Q1029 NOSIG",
      "taf": "TAF LIPZ 192300Z 2000/2106 05010KT CAVOK"
    },
    {
      "icao": "LIRF",
      "alert": "OK",
      "vis_m": 9999,
      "fzfg": false,
      "metar_trigger": false,
      "taf_trigger": false,
      "metar": "METAR LIRF 192320Z 06011KT 9999 -RA NSC 11/06 Q1019 NOSIG",
      "taf": "TAF LIRF 192300Z 2000/2106 06013KT 9999 SCT050"
    },
    {
      "icao": "LIRN",
      "alert": "OK",
      "vis_m": 9999,
      "fzfg": false,
      "metar_trigger": false,
      "taf_trigger": false,
      "metar": "METAR LIRN 192320Z 03009KT CAVOK 10/05 Q1019 NOSIG",
      "taf": "TAF LIRN 192300Z 2000/2024 05012KT 9999 SCT060"
    },
    {
      "icao": "LIRP",
      "alert": "OK",
      "vis_m": 9999,
      "fzfg": false,
      "metar_trigger": false,
      "taf_trigger": false,
      "metar": "METAR LIRP 192315Z 07012KT CAVOK 10/02 Q1022 NOSIG",
      "taf": "TAF LIRP 192300Z 2000/2024 08016KT 9999 SCT020 BKN060"
    },
    {
      "icao": "LIRZ",
      "alert": "OK",
      "vis_m": 9999,
      "fzfg": false,
      "metar_trigger": false,
      "taf_trigger": false,
      "metar": "METAR LIRZ 192320Z AUTO 05010KT 9999 OVC097/// 10/04 Q1021",
      "taf": "TAF LIRZ 192300Z 2000/2024 04015KT 9999 SCT070"
    },
    {
      "icao": "LJLJ",
      "alert": "OK",
      "vis_m": 8000,
      "fzfg": false,
      "metar_trigger": false,
      "taf_trigger": false,
      "metar": "METAR LJLJ 192330Z 12006KT 8000 FEW003 OVC021 M03/M07 Q1032 NOSIG",
      "taf": "TAF LJLJ 192300Z 2000/2100 11004KT 9999 FEW003 OVC023"
    },
    {
      "icao": "LKMT",
      "alert": "OK",
      "vis_m": 9999,
      "fzfg": false,
      "metar_trigger": false,
      "taf_trigger": false,
      "metar": "METAR LKMT 192330Z 26007KT CAVOK M04/M08 Q1032 NOSIG",
      "taf": "TAF LKMT 192300Z 2000/2024 24012KT CAVOK"
    },
    {
      "icao": "LKPR",
      "alert": "OK",
      "vis_m": 9999,
      "fzfg": false,
      "metar_trigger": false,
      "taf_trigger": false,
      "metar": "METAR LKPR 192330Z 08004KT CAVOK M07/M08 Q1026 NOSIG",
      "taf": "TAF LKPR 192300Z 2000/2106 10006KT CAVOK"
    },
    {
      "icao": "LLBG",
      "alert": "OK",
      "vis_m": 9999,
      "fzfg": false,
      "metar_trigger": false,
      "taf_trigger": false,
      "metar": "METAR LLBG 192320Z VRB02KT CAVOK 08/02 Q1021 RMK FEW075",
      "taf": "TAF LLBG 192308Z 2000/2024 05005KT 9999 SCT050"
    },
    {
      "icao": "LMML",
      "alert": "OK",
      "vis_m": 9999,
      "fzfg": false,
      "metar_trigger": false,
      "taf_trigger": false,
      "metar": "METAR LMML 192345Z 09029G41KT 9999 BKN017 15/12 Q1010 NOSIG",
      "taf": "TAF LMML 192300Z 2000/2024 09027G38KT 9999 BKN018"
    },
    {
      "icao": "LOWW",
      "alert": "OK",
      "vis_m": 9999,
      "fzfg": false,
      "metar_trigger": false,
      "taf_trigger": false,
      "metar": "METAR LOWW 192320Z 12006KT 080V170 CAVOK M06/M08 Q1033 TEMPO BKN010",
      "taf": "TAF LOWW 192315Z 2000/2106 14013KT 9999 FEW015 TXM05/2014Z TNM08/2007Z"
    },
    {
      "icao": "LPFR",
      "alert": "OK",
      "vis_m": 9999,
      "fzfg": false,
      "metar_trigger": false,
      "taf_trigger": false,
      "metar": "METAR LPFR 192330Z 33006KT 300V360 CAVOK 10/08 Q1021",
      "taf": "TAF LPFR 192300Z 2000/2024 30005KT CAVOK"
    },
    {
      "icao": "LPMA",
      "alert": "OK",
      "vis_m": 9999,
      "fzfg": false,
      "metar_trigger": false,
      "taf_trigger": false,
      "metar": "METAR LPMA 192330Z 31003KT 260V010 9999 FEW015 14/09 Q1027",
      "taf": "TAF LPMA 192300Z 2000/2024 33008KT 9999 SCT015"
    },
    {
      "icao": "LPPR",
      "alert": "OK",
      "vis_m": 7000,
      "fzfg": false,
      "metar_trigger": false,
      "taf_trigger": false,
      "metar": "METAR LPPR 192330Z 12007KT 7000 FEW003 06/06 Q1021",
      "taf": "TAF LPPR 192300Z 2000/2024 VRB02KT 9999 FEW012"
    },
    {
      "icao": "LPPS",
      "alert": "OK",
      "vis_m": 9999,
      "fzfg": false,
      "metar_trigger": false,
      "taf_trigger": false,
      "metar": "METAR LPPS 192330Z 36008KT 9999 SCT013 15/13 Q1027",
      "taf": "TAF LPPS 192300Z 2000/2106 33007KT 9999 SCT015 SCT030"
    },
    {
      "icao": "LPPT",
      "alert": "OK",
      "vis_m": 9999,
      "fzfg": false,
      "metar_trigger": false,
      "taf_trigger": false,
      "metar": "METAR LPPT 192330Z 28002KT 9999 FEW010 08/08 Q1021",
      "taf": "TAF LPPT 192300Z 2000/2106 29007KT 9999 SCT025"
    },
    {
      "icao": "LQBK",
      "alert": "OK",
      "vis_m": 9999,
      "fzfg": false,
      "metar_trigger": false,
      "taf_trigger": false,
      "metar": "METAR LQBK 192330Z 32005KT 9999 OVC030 M03/M05 Q1034 NOSIG",
      "taf": "TAF LQBK 192300Z 2000/2024 VRB02KT 9999 BKN020 TXM01/2014Z TNM05/2006Z"
    },
    {
      "icao": "LQSA",
      "alert": "OK",
      "vis_m": 6000,
      "fzfg": false,
      "metar_trigger": false,
      "taf_trigger": false,
      "metar": "METAR LQSA 192330Z 12003KT 6000 BKN015 M06/M07 Q1030",
      "taf": "TAF LQSA 192300Z 2000/2024 VRB02KT 7000 FEW035 TX00/2013Z TNM10/2006Z"
    },
    {
      "icao": "LQTZ",
      "alert": "OK",
      "vis_m": 3500,
      "fzfg": false,
      "metar_trigger": false,
      "taf_trigger": false,
      "metar": "METAR LQTZ 192330Z 00000KT 3500 BR NSC M09/M09 Q1033",
      "taf": ""
    },
    {
      "icao": "LRBC",
      "alert": "OK",
      "vis_m": 5000,
      "fzfg": false,
      "metar_trigger": false,
      "taf_trigger": false,
      "metar": "METAR LRBC 192330Z 09002KT 5000 BR NSC M10/M13 Q1036",
      "taf": "TAF LRBC 192300Z 2000/2009 VRB04KT CAVOK"
    },
    {
      "icao": "LRBS",
      "alert": "OK",
      "vis_m": 3000,
      "fzfg": false,
      "metar_trigger": false,
      "taf_trigger": false,
      "metar": "METAR LRBS 192330Z 27004KT 3000 BR NSC M07/M08 Q1037 NOSIG",
      "taf": "TAF LRBS 192300Z 2000/2024 25006KT 3000 BR NSC"
    },
    {
      "icao": "LRBV",
      "alert": "OK",
      "vis_m": 8000,
      "fzfg": false,
      "metar_trigger": false,
      "taf_trigger": false,
      "metar": "METAR LRBV 192330Z AUTO 22005KT 8000 NCD M11/M13 Q1034",
      "taf": "TAF LRBV 192000Z 1921/2006 21006KT 7000 NSC"
    },
    {
      "icao": "LRCL",
      "alert": "OK",
      "vis_m": 5000,
      "fzfg": false,
      "metar_trigger": false,
      "taf_trigger": false,
      "metar": "METAR LRCL 192330Z 10001KT 5000 BR NSC M13/M15 Q1036",
      "taf": "TAF LRCL 192300Z 2000/2009 VRB04KT 3000 BR NSC"
    },
    {
      "icao": "LRCV",
      "alert": "OK",
      "vis_m": 4500,
      "fzfg": false,
      "metar_trigger": false,
      "taf_trigger": false,
      "metar": "METAR LRCV 192330Z 27004KT 4500 BR NSC M08/M09 Q1037",
      "taf": "TAF LRCV 192300Z 2000/2009 VRB04KT 5000 BR NSC"
    },
    {
      "icao": "LRIA",
      "alert": "OK",
      "vis_m": 6000,
      "fzfg": false,
      "metar_trigger": false,
      "taf_trigger": false,
      "metar": "METAR LRIA 192330Z 25002KT 6000 NSC M13/M15 Q1037",
      "taf": "TAF LRIA 192300Z 2000/2009 VRB04KT 5000 BR NSC"
    },
    {
      "icao": "LROP",
      "alert": "OK",
      "vis_m": 3000,
      "fzfg": false,
      "metar_trigger": false,
      "taf_trigger": false,
      "metar": "METAR LROP 192330Z 25004KT 3000 BR NSC M08/M09 Q1037 NOSIG",
      "taf": "TAF LROP 192300Z 2000/2024 25006KT 3000 BR NSC"
    },
    {
      "icao": "LRSB",
      "alert": "OK",
      "vis_m": 5000,
      "fzfg": false,
      "metar_trigger": false,
      "taf_trigger": false,
      "metar": "METAR LRSB 192330Z 25006KT 5000 BR NSC M13/M15 Q1034",
      "taf": "TAF LRSB 192300Z 2000/2024 VRB04KT 3000 BR NSC"
    },
    {
      "icao": "LRSM",
      "alert": "OK",
      "vis_m": 250,
      "fzfg": true,
      "metar_trigger": false,
      "taf_trigger": false,
      "metar": "METAR LRSM 192330Z AUTO 09003KT 0250 R19/0300N FZFG VV001 M09/M11 Q1037",
      "taf": "TAF LRSM 191400Z 1915/1924 VRB04KT CAVOK"
    },
    {
      "icao": "LRSV",
      "alert": "OK",
      "vis_m": 9999,
      "fzfg": false,
      "metar_trigger": false,
      "taf_trigger": false,
      "metar": "METAR LRSV 192330Z 24004KT CAVOK M09/M10 Q1033",
      "taf": "TAF LRSV 192300Z 2000/2009 VRB04KT CAVOK"
    },
    {
      "icao": "LRTM",
      "alert": "OK",
      "vis_m": 5000,
      "fzfg": false,
      "metar_trigger": false,
      "taf_trigger": false,
      "metar": "METAR LRTM 192330Z AUTO 01001KT 5000 NCD M16/M18 Q1036",
      "taf": "TAF LRTM 191400Z 1915/1924 VRB04KT 5000 BR FEW010"
    },
    {
      "icao": "LRTR",
      "alert": "OK",
      "vis_m": 8000,
      "fzfg": false,
      "metar_trigger": false,
      "taf_trigger": false,
      "metar": "METAR LRTR 192330Z 33003KT 280V350 8000 NSC M07/M07 Q1036",
      "taf": "TAF LRTR 192300Z 2000/2024 VRB04KT 5000 BR NSC"
    },
    {
      "icao": "LTAC",
      "alert": "OK",
      "vis_m": 9999,
      "fzfg": false,
      "metar_trigger": false,
      "taf_trigger": false,
      "metar": "METAR LTAC 192320Z 16005KT 9999 FEW040 M06/M09 Q1024 NOSIG RMK RWY21C 13006KT RWY03L 14004KT RWY21R 13006KT RWY03R VRB01KT RWY21L 10006KT",
      "taf": "TAF LTAC 192240Z 2000/2024 VRB02KT 9999 SCT035"
    },
    {
      "icao": "LTFM",
      "alert": "OK",
      "vis_m": 9999,
      "fzfg": false,
      "metar_trigger": false,
      "taf_trigger": false,
      "metar": "METAR LTFM 192320Z 01019KT 9999 -RA BKN012 BKN022 03/M01 Q1033 NOSIG RMK RWY17L 36017KT RWY34L 35020KT RWY16R 36017KT RWY36 01019KT RWY18 01017KT",
      "taf": "TAF LTFM 192240Z 2000/2106 04016G26KT 7000 -RA BKN011 BKN022"
    },
    {
      "icao": "LUKK",
      "alert": "OK",
      "vis_m": 7000,
      "fzfg": false,
      "metar_trigger": false,
      "taf_trigger": false,
      "metar": "METAR LUKK 192330Z VRB02KT 7000 NSC M14/M15 Q1037 BECMG 3000 BR",
      "taf": "TAF LUKK 192319Z 2000/2024 VRB04KT 5000 BR NSC"
    },
    {
      "icao": "LWOH",
      "alert": "OK",
      "vis_m": null,
      "fzfg": false,
      "metar_trigger": false,
      "taf_trigger": false,
      "metar": "",
      "taf": "TAF LWOH 192320Z 2000/2024 VRB02KT 9999 FEW040"
    },
    {
      "icao": "LWSK",
      "alert": "OK",
      "vis_m": null,
      "fzfg": false,
      "metar_trigger": false,
      "taf_trigger": false,
      "metar": "",
      "taf": "TAF LWSK 192320Z 2000/2024 VRB02KT CAVOK"
    },
    {
      "icao": "LYBE",
      "alert": "OK",
      "vis_m": 9999,
      "fzfg": false,
      "metar_trigger": false,
      "taf_trigger": false,
      "metar": "METAR LYBE 192330Z 11009KT CAVOK M04/M08 Q1035 NOSIG",
      "taf": "TAF LYBE 192300Z 2000/2024 11010KT CAVOK TX03/2013Z TNM05/2006Z"
    },
    {
      "icao": "LYNI",
      "alert": "OK",
      "vis_m": 9999,
      "fzfg": false,
      "metar_trigger": false,
      "taf_trigger": false,
      "metar": "METAR LYNI 192330Z VRB01KT CAVOK M07/M09 Q1035 NOSIG",
      "taf": "TAF LYNI 192300Z 2000/2024 10005KT CAVOK TX04/2013Z TNM10/2006Z"
    },
    {
      "icao": "LYPG",
      "alert": "OK",
      "vis_m": 9999,
      "fzfg": false,
      "metar_trigger": false,
      "taf_trigger": false,
      "metar": "METAR LYPG 192330Z 35006KT CAVOK M01/M04 Q1029 NOSIG",
      "taf": "TAF LYPG 192300Z 2000/2024 35005KT CAVOK TX10/2013Z TNM03/2005Z"
    },
    {
      "icao": "LZIB",
      "alert": "OK",
      "vis_m": 7000,
      "fzfg": false,
      "metar_trigger": false,
      "taf_trigger": false,
      "metar": "METAR LZIB 192330Z 10007KT 7000 FEW006 M07/M08 Q1035 NOSIG",
      "taf": "TAF LZIB 192315Z 2000/2100 12009KT CAVOK"
    },
    {
      "icao": "LZKZ",
      "alert": "OK",
      "vis_m": 200,
      "fzfg": true,
      "metar_trigger": false,
      "taf_trigger": false,
      "metar": "METAR LZKZ 192330Z 00000KT 0200 R01/0225N FZFG NSC M14/M16 Q1036 NOSIG",
      "taf": "TAF LZKZ 192315Z 2000/2100 VRB02KT 2500 BR NSC"
    },
    {
      "icao": "LZTT",
      "alert": "OK",
      "vis_m": 9999,
      "fzfg": false,
      "metar_trigger": false,
      "taf_trigger": false,
      "metar": "METAR LZTT 192330Z 27004KT CAVOK M15/M17 Q1031",
      "taf": "TAF LZTT 192315Z 2000/2100 26005KT CAVOK"
    },
    {
      "icao": "OEJN",
      "alert": "OK",
      "vis_m": 9999,
      "fzfg": false,
      "metar_trigger": false,
      "taf_trigger": false,
      "metar": "METAR OEJN 192300Z 35005KT CAVOK 21/11 Q1014 NOSIG",
      "taf": "TAF OEJN 192300Z 2000/2106 03006KT 9999 FEW040"
    },
    {
      "icao": "OEMA",
      "alert": "OK",
      "vis_m": 9999,
      "fzfg": false,
      "metar_trigger": false,
      "taf_trigger": false,
      "metar": "METAR OEMA 192300Z 03005KT CAVOK 14/M05 Q1018 NOSIG",
      "taf": "TAF OEMA 192300Z 2000/2106 VRB03KT CAVOK"
    },
    {
      "icao": "OJAI",
      "alert": "OK",
      "vis_m": 5000,
      "fzfg": false,
      "metar_trigger": false,
      "taf_trigger": false,
      "metar": "METAR OJAI 192300Z 31004KT 5000 BR NSC 04/02 Q1020 NOSIG",
      "taf": "TAF OJAI 192250Z 2000/2106 VRB02KT 5000 HZ NSC"
    },
    {
      "icao": "OMAA",
      "alert": "OK",
      "vis_m": 9999,
      "fzfg": false,
      "metar_trigger": false,
      "taf_trigger": false,
      "metar": "METAR OMAA 192300Z 12008KT CAVOK 17/10 Q1014 NOSIG",
      "taf": "TAF OMAA 192300Z 2000/2106 15007KT 8000 NSC"
    },
    {
      "icao": "OMDB",
      "alert": "OK",
      "vis_m": 9999,
      "fzfg": false,
      "metar_trigger": false,
      "taf_trigger": false,
      "metar": "METAR OMDB 192300Z 20003KT 140V250 CAVOK 18/13 Q1014 NOSIG",
      "taf": "TAF OMDB 192300Z 2000/2106 13005KT 8000 NSC"
    },
    {
      "icao": "UAAA",
      "alert": "OK",
      "vis_m": 2500,
      "fzfg": false,
      "metar_trigger": false,
      "taf_trigger": false,
      "metar": "METAR UAAA 192330Z 13001MPS 2500 BR FEW100 M14/M15 Q1024 NOSIG",
      "taf": "TAF UAAA 192300Z 2000/2024 23003MPS 1200 BR FU SCT011 BKN030 TXM07/2008Z TNM16/2003Z"
    },
    {
      "icao": "UBBB",
      "alert": "OK",
      "vis_m": 9999,
      "fzfg": false,
      "metar_trigger": false,
      "taf_trigger": false,
      "metar": "METAR UBBB 192330Z 35016KT 9999 -RASN SCT013 BKN038 02/M01 Q1022 NOSIG",
      "taf": "TAF UBBB 192300Z 2000/2024 35016KT 9999 OVC025 TX03/2011Z TN01/2001Z"
    },
    {
      "icao": "UDSG",
      "alert": "OK",
      "vis_m": 9999,
      "fzfg": false,
      "metar_trigger": false,
      "taf_trigger": false,
      "metar": "METAR UDSG 192330Z 04007KT 9999 BKN046 M06/M10 Q1011 NOSIG",
      "taf": "TAF UDSG 192258Z 2000/2024 36006KT 9999 BKN030"
    },
    {
      "icao": "UDYZ",
      "alert": "OK",
      "vis_m": 4200,
      "fzfg": false,
      "metar_trigger": false,
      "taf_trigger": false,
      "metar": "METAR UDYZ 192330Z 14004KT 080V170 4200 -SN BR BKN002 OVC030 M02/M02 Q1011 NOSIG",
      "taf": "TAF UDYZ 192300Z 2000/2024 14006KT 1200 BR SCT003 BKN020"
    },
    {
      "icao": "UGKO",
      "alert": "OK",
      "vis_m": 9999,
      "fzfg": false,
      "metar_trigger": false,
      "taf_trigger": false,
      "metar": "METAR UGKO 192330Z VRB02KT 9999 SCT089 01/01 Q1020 NOSIG",
      "taf": "TAF UGKO 192300Z 2000/2024 08006KT 9999 SCT030 BKN070 TX06/2012Z TNM01/2002Z"
    }
  ]
}