{
  "ts_utc": "2026-03-30T12:06:46Z",
  "threshold_m": 150,
  "source": "stations_override.txt (ICAO list) + aviationweather.gov (METAR/TAF raw)",
  "station_count": 159,
  "stations": [
    {
      "icao": "BIKF",
      "alert": "OK",
      "vis_m": 9999,
      "fzfg": false,
      "metar_trigger": false,
      "taf_trigger": false,
      "metar": "METAR BIKF 301200Z 24016G27KT 9999 VCSH SCT030CB BKN052 04/M01 Q1006 RESHRA",
      "taf": "TAF BIKF 301103Z 3012/3112 24017KT 9999 -SHRASN SCT015 BKN025 TX04/3015Z TN00/3100Z"
    },
    {
      "icao": "BKPR",
      "alert": "OK",
      "vis_m": 9999,
      "fzfg": false,
      "metar_trigger": false,
      "taf_trigger": false,
      "metar": "METAR BKPR 301200Z 02005KT 340V060 9999 SCT035 BKN045 09/03 Q1011 NOSIG",
      "taf": "TAF BKPR 301130Z 3012/3112 03008KT 9999 SCT025 BKN040"
    },
    {
      "icao": "EBCI",
      "alert": "OK",
      "vis_m": 9999,
      "fzfg": false,
      "metar_trigger": false,
      "taf_trigger": false,
      "metar": "METAR EBCI 301150Z 30011G21KT 270V340 9999 FEW025 BKN035 09/01 Q1020 TEMPO 30015G28KT 3500 SHRA",
      "taf": "TAF EBCI 301120Z 3012/3118 29013KT 9999 SCT020TCU"
    },
    {
      "icao": "EDDB",
      "alert": "OK",
      "vis_m": 9999,
      "fzfg": false,
      "metar_trigger": false,
      "taf_trigger": false,
      "metar": "METAR EDDB 301150Z AUTO 24009KT 9999 -SHRA BKN012 BKN020 BKN035 FEW///TCU 07/04 Q1010 TEMPO 27015G25KT SHRA BKN020CB",
      "taf": "TAF EDDB 301100Z 3012/3112 27013KT 9999 BKN015"
    },
    {
      "icao": "EDDH",
      "alert": "OK",
      "vis_m": 9999,
      "fzfg": false,
      "metar_trigger": false,
      "taf_trigger": false,
      "metar": "METAR EDDH 301150Z AUTO 30014KT 260V320 9999 -SHRA FEW024 SCT037 FEW///CB 09/04 Q1011",
      "taf": ""
    },
    {
      "icao": "EDDK",
      "alert": "OK",
      "vis_m": 9999,
      "fzfg": false,
      "metar_trigger": false,
      "taf_trigger": false,
      "metar": "METAR EDDK 301150Z AUTO 31017KT 9999 VCSH FEW044 FEW///CB 11/01 Q1017 TEMPO 30020G30KT",
      "taf": "TAF EDDK 301100Z 3012/3118 30015G25KT 9999 BKN035"
    },
    {
      "icao": "EDDN",
      "alert": "OK",
      "vis_m": 9999,
      "fzfg": false,
      "metar_trigger": false,
      "taf_trigger": false,
      "metar": "METAR EDDN 301150Z AUTO 28010KT 9999 -SHRA SCT023 BKN039 BKN049 FEW///CB 06/01 Q1014 RESHRA TEMPO 32020G30KT 4000 SHRAGS BKN015CB",
      "taf": "TAF EDDN 301100Z 3012/3112 26015G25KT 9999 BKN015 BKN020"
    },
    {
      "icao": "EDDS",
      "alert": "OK",
      "vis_m": 9999,
      "fzfg": false,
      "metar_trigger": false,
      "taf_trigger": false,
      "metar": "METAR EDDS 301150Z AUTO 26011KT 220V290 9999 -SHRA VCTS FEW021 FEW///CB 04/01 Q1016 RESHRA TEMPO 3000 TSRAGS",
      "taf": "TAF EDDS 301100Z 3012/3112 30012KT 9999 SCT020"
    },
    {
      "icao": "EDFH",
      "alert": "OK",
      "vis_m": 9999,
      "fzfg": false,
      "metar_trigger": false,
      "taf_trigger": false,
      "metar": "METAR EDFH 301150Z 31012KT 9999 SCT039 07/M02 Q1016",
      "taf": "TAF EDFH 301100Z 3012/3112 31015KT 9999 SCT010"
    },
    {
      "icao": "EDJA",
      "alert": "OK",
      "vis_m": 9999,
      "fzfg": false,
      "metar_trigger": false,
      "taf_trigger": false,
      "metar": "METAR EDJA 301150Z 26009KT 9999 FEW027 SCT043 OVC052 01/M00 Q1016",
      "taf": "TAF EDJA 301100Z 3012/3021 27015G25KT 9999 BKN015"
    },
    {
      "icao": "EDLW",
      "alert": "OK",
      "vis_m": 9999,
      "fzfg": false,
      "metar_trigger": false,
      "taf_trigger": false,
      "metar": "METAR EDLW 301150Z 27009KT 240V330 9999 FEW023 SCT034 BKN041 06/03 Q1015",
      "taf": "TAF EDLW 301100Z 3012/3112 29010KT 9999 BKN030"
    },
    {
      "icao": "EDNY",
      "alert": "OK",
      "vis_m": 9999,
      "fzfg": false,
      "metar_trigger": false,
      "taf_trigger": false,
      "metar": "METAR EDNY 301150Z 26011KT 230V300 9999 SCT023 BKN026 OVC047 06/02 Q1018",
      "taf": "TAF EDNY 301100Z 3012/3021 25012KT 9999 BKN020"
    },
    {
      "icao": "EDSB",
      "alert": "OK",
      "vis_m": 9999,
      "fzfg": false,
      "metar_trigger": false,
      "taf_trigger": false,
      "metar": "METAR EDSB 301150Z 20007KT 150V230 9999 VCSH FEW041 06/05 Q1018 RETS",
      "taf": "TAF EDSB 301100Z 3012/3112 30012KT 9999 SCT025"
    },
    {
      "icao": "EETN",
      "alert": "OK",
      "vis_m": 9999,
      "fzfg": false,
      "metar_trigger": false,
      "taf_trigger": false,
      "metar": "METAR EETN 301150Z 24006KT 200V280 CAVOK 08/M03 Q1013 NOSIG",
      "taf": "TAF EETN 301130Z 3012/3112 17006KT 9999 SCT005"
    },
    {
      "icao": "EFTU",
      "alert": "OK",
      "vis_m": 9999,
      "fzfg": false,
      "metar_trigger": false,
      "taf_trigger": false,
      "metar": "METAR EFTU 301150Z AUTO 19009KT 140V210 9999 OVC007 02/01 Q1012",
      "taf": "TAF EFTU 301125Z 3012/3112 17009KT 9999 BKN006"
    },
    {
      "icao": "EGBB",
      "alert": "OK",
      "vis_m": 9999,
      "fzfg": false,
      "metar_trigger": false,
      "taf_trigger": false,
      "metar": "METAR EGBB 301150Z 31016KT 9999 SCT028 10/02 Q1024",
      "taf": "TAF EGBB 301049Z 3012/3112 29012KT 9999 SCT040"
    },
    {
      "icao": "EGGP",
      "alert": "OK",
      "vis_m": 9999,
      "fzfg": false,
      "metar_trigger": false,
      "taf_trigger": false,
      "metar": "METAR EGGP 301150Z 29024KT 9999 FEW028 SCT036 10/03 Q1025",
      "taf": "TAF EGGP 301100Z 3012/3112 30018G30KT 9999 SCT025"
    },
    {
      "icao": "EGGW",
      "alert": "OK",
      "vis_m": 9999,
      "fzfg": false,
      "metar_trigger": false,
      "taf_trigger": false,
      "metar": "METAR EGGW 301150Z AUTO 33014KT 9999 -RA SCT035 SCT045 09/05 Q1023",
      "taf": "TAF EGGW 301058Z 3012/3112 30014KT 9999 SCT032"
    },
    {
      "icao": "EGKK",
      "alert": "OK",
      "vis_m": 9999,
      "fzfg": false,
      "metar_trigger": false,
      "taf_trigger": false,
      "metar": "METAR EGKK 301150Z 31015KT 9999 SCT043 12/03 Q1024",
      "taf": "TAF EGKK 301057Z 3012/3118 30010KT 9999 SCT030"
    },
    {
      "icao": "EGNM",
      "alert": "OK",
      "vis_m": 9999,
      "fzfg": false,
      "metar_trigger": false,
      "taf_trigger": false,
      "metar": "METAR EGNM 301150Z 30018KT 9999 VCSH FEW020CB SCT030 08/03 Q1022",
      "taf": "TAF EGNM 301100Z 3012/3112 29017G29KT 9999 SCT025"
    },
    {
      "icao": "EGPD",
      "alert": "OK",
      "vis_m": 9999,
      "fzfg": false,
      "metar_trigger": false,
      "taf_trigger": false,
      "metar": "METAR EGPD 301150Z COR AUTO 30019G30KT 9999 SCT041 09/M01 Q1016 NOSIG",
      "taf": "TAF EGPD 301057Z 3012/3112 29013KT 9999 FEW040"
    },
    {
      "icao": "EGPF",
      "alert": "OK",
      "vis_m": 9999,
      "fzfg": false,
      "metar_trigger": false,
      "taf_trigger": false,
      "metar": "METAR EGPF 301150Z AUTO 30018G29KT 9999 -RA SCT028 SCT040 BKN049 08/03 Q1021",
      "taf": "TAF EGPF 301055Z 3012/3112 28012KT 9999 SCT035"
    },
    {
      "icao": "EHBK",
      "alert": "OK",
      "vis_m": 9999,
      "fzfg": false,
      "metar_trigger": false,
      "taf_trigger": false,
      "metar": "METAR EHBK 301155Z AUTO 33016G27KT 290V010 9999 -RA FEW018/// BKN028/// BKN034/// 06/03 Q1018 TEMPO 31015G25KT 4000 SHRA SCT020CB",
      "taf": "TAF EHBK 301101Z 3012/3118 31012KT 9999 SCT030"
    },
    {
      "icao": "EHEH",
      "alert": "OK",
      "vis_m": 9999,
      "fzfg": false,
      "metar_trigger": false,
      "taf_trigger": false,
      "metar": "METAR EHEH 301155Z AUTO 29007KT 220V340 9999 DZRA FEW015CB BKN053 BKN059 08/04 Q1018 BLU TEMPO 4500 SHRA FEW012 SCT020CB RMK TREND REMOTE BY EHWX",
      "taf": "TAF EHEH 301116Z 3012/3118 31010KT 9999 SCT022"
    },
    {
      "icao": "EKBI",
      "alert": "OK",
      "vis_m": 9999,
      "fzfg": false,
      "metar_trigger": false,
      "taf_trigger": false,
      "metar": "METAR EKBI 301150Z 29019G31KT 9999 -SHRA BKN018 FEW020CB 06/03 Q1008",
      "taf": "TAF EKBI 301127Z 3012/3112 28015KT 9999 BKN020"
    },
    {
      "icao": "EKCH",
      "alert": "OK",
      "vis_m": 9999,
      "fzfg": false,
      "metar_trigger": false,
      "taf_trigger": false,
      "metar": "METAR EKCH 301150Z 30007KT 280V340 9999 FEW023CB BKN036 08/04 Q1007 NOSIG",
      "taf": "TAF EKCH 301127Z 3012/3112 28012KT 9999 SCT020"
    },
    {
      "icao": "ENAL",
      "alert": "OK",
      "vis_m": 9999,
      "fzfg": false,
      "metar_trigger": false,
      "taf_trigger": false,
      "metar": "METAR ENAL 301150Z 20013KT 180V240 9999 SCT037 08/01 Q0997",
      "taf": "TAF ENAL 301100Z 3012/3021 20012KT 9999 -SHRA FEW015 BKN025"
    },
    {
      "icao": "ENBR",
      "alert": "OK",
      "vis_m": 9999,
      "fzfg": false,
      "metar_trigger": false,
      "taf_trigger": false,
      "metar": "METAR ENBR 301150Z 12008KT 9999 SHGSRA FEW007 SCT011CB BKN022 04/03 Q1002 TEMPO 4000 SHRASNGS BKN008 SCT015CB RMK WIND 1200FT 16005KT",
      "taf": "TAF ENBR 301100Z 3012/3112 17008KT 9999 -SHRA FEW003 SCT010 BKN025"
    },
    {
      "icao": "ENGM",
      "alert": "OK",
      "vis_m": 9999,
      "fzfg": false,
      "metar_trigger": false,
      "taf_trigger": false,
      "metar": "METAR ENGM 301150Z 36003KT 280V050 9999 -RA SCT005 BKN031 02/01 Q1000 NOSIG",
      "taf": "TAF ENGM 301100Z 3012/3112 16005KT 9999 SCT030"
    },
    {
      "icao": "ENHD",
      "alert": "OK",
      "vis_m": 9999,
      "fzfg": false,
      "metar_trigger": false,
      "taf_trigger": false,
      "metar": "METAR ENHD 301150Z 24009KT 9999 FEW028 SCT035 07/04 Q1004",
      "taf": "TAF ENHD 301100Z 3012/3021 30012KT 9999 -SHRA FEW015 SCT025"
    },
    {
      "icao": "ENTC",
      "alert": "OK",
      "vis_m": 9999,
      "fzfg": false,
      "metar_trigger": false,
      "taf_trigger": false,
      "metar": "METAR ENTC 301150Z 19008KT CAVOK 05/M03 Q0999 NOSIG RMK WIND 2600FT 18023KT",
      "taf": "TAF ENTC 301100Z 3012/3112 20008KT CAVOK"
    },
    {
      "icao": "ENTO",
      "alert": "OK",
      "vis_m": 9999,
      "fzfg": false,
      "metar_trigger": false,
      "taf_trigger": false,
      "metar": "METAR ENTO 301150Z VRB03KT 9999 SCT032 08/00 Q1001 NOSIG",
      "taf": "TAF ENTO 301100Z 3012/3112 20008KT 9999 SCT030"
    },
    {
      "icao": "ENVA",
      "alert": "OK",
      "vis_m": 9999,
      "fzfg": false,
      "metar_trigger": false,
      "taf_trigger": false,
      "metar": "METAR ENVA 301150Z 16003KT 090V230 CAVOK 11/M03 Q0998 NOSIG RMK WIND 670FT 15004KT",
      "taf": "TAF ENVA 301100Z 3012/3112 12008KT CAVOK"
    },
    {
      "icao": "ENZV",
      "alert": "OK",
      "vis_m": 9999,
      "fzfg": false,
      "metar_trigger": false,
      "taf_trigger": false,
      "metar": "METAR ENZV 301150Z 33006KT 9999 -RA FEW009 BKN017 BKN021 05/03 Q1005 NOSIG",
      "taf": "TAF ENZV 301100Z 3012/3112 27012KT 9999 -SHRA FEW015 BKN025"
    },
    {
      "icao": "EPGD",
      "alert": "OK",
      "vis_m": 9999,
      "fzfg": false,
      "metar_trigger": false,
      "taf_trigger": false,
      "metar": "METAR EPGD 301200Z 19012KT 170V230 9999 BKN046 10/M02 Q1009",
      "taf": "TAF EPGD 301130Z 3012/3112 19010KT 9999 BKN035"
    },
    {
      "icao": "EPKK",
      "alert": "OK",
      "vis_m": 9999,
      "fzfg": false,
      "metar_trigger": false,
      "taf_trigger": false,
      "metar": "METAR EPKK 301200Z 23007KT 200V260 9999 -RA BKN022 06/01 Q1012",
      "taf": "TAF EPKK 301130Z 3012/3112 22005KT 9999 BKN025"
    },
    {
      "icao": "EPKT",
      "alert": "OK",
      "vis_m": 9999,
      "fzfg": false,
      "metar_trigger": false,
      "taf_trigger": false,
      "metar": "METAR EPKT 301200Z 24006KT 200V270 9999 SCT043 08/M03 Q1011",
      "taf": "TAF EPKT 301130Z 3012/3112 27007KT 9999 FEW045"
    },
    {
      "icao": "EPLB",
      "alert": "OK",
      "vis_m": 9999,
      "fzfg": false,
      "metar_trigger": false,
      "taf_trigger": false,
      "metar": "METAR EPLB 301200Z 30010KT 270V340 CAVOK 11/02 Q1010",
      "taf": "TAF EPLB 301130Z 3012/3112 32012KT CAVOK"
    },
    {
      "icao": "EPMO",
      "alert": "OK",
      "vis_m": 9999,
      "fzfg": false,
      "metar_trigger": false,
      "taf_trigger": false,
      "metar": "METAR EPMO 301200Z 24008KT 210V280 9999 FEW044 11/01 Q1011",
      "taf": "TAF EPMO 301130Z 3012/3112 VRB05KT CAVOK"
    },
    {
      "icao": "EPPO",
      "alert": "OK",
      "vis_m": 9999,
      "fzfg": false,
      "metar_trigger": false,
      "taf_trigger": false,
      "metar": "METAR EPPO 301200Z 22010KT 9999 BKN043 07/01 Q1010",
      "taf": "TAF EPPO 301130Z 3012/3112 20010KT 9999 OVC040"
    },
    {
      "icao": "EPRA",
      "alert": "OK",
      "vis_m": 8000,
      "fzfg": false,
      "metar_trigger": false,
      "taf_trigger": false,
      "metar": "METAR EPRA 301200Z 26004KT 8000 -RA FEW010 BKN038 05/03 Q1012",
      "taf": "TAF EPRA 301130Z 3012/3021 24005KT 9999 BKN040"
    },
    {
      "icao": "EPRZ",
      "alert": "OK",
      "vis_m": 9999,
      "fzfg": false,
      "metar_trigger": false,
      "taf_trigger": false,
      "metar": "METAR EPRZ 301200Z 31009KT 260V350 9999 SCT030 10/01 Q1011",
      "taf": "TAF EPRZ 301130Z 3012/3112 29008KT 9999 SCT030"
    },
    {
      "icao": "EPSC",
      "alert": "OK",
      "vis_m": 9999,
      "fzfg": false,
      "metar_trigger": false,
      "taf_trigger": false,
      "metar": "METAR EPSC 301200Z 22006KT 190V250 9999 -RA SCT014 BKN019 07/03 Q1009",
      "taf": "TAF EPSC 301130Z 3012/3112 20008KT 9999 BKN030"
    },
    {
      "icao": "EPSY",
      "alert": "OK",
      "vis_m": 9999,
      "fzfg": false,
      "metar_trigger": false,
      "taf_trigger": false,
      "metar": "METAR EPSY 301200Z 20008KT 140V250 CAVOK 11/M01 Q1011",
      "taf": "TAF EPSY 301130Z 3012/3021 22008KT CAVOK"
    },
    {
      "icao": "EPWA",
      "alert": "OK",
      "vis_m": 9999,
      "fzfg": false,
      "metar_trigger": false,
      "taf_trigger": false,
      "metar": "METAR EPWA 301200Z VRB02KT CAVOK 09/02 Q1011 NOSIG",
      "taf": "TAF EPWA 301130Z 3012/3112 VRB03KT CAVOK"
    },
    {
      "icao": "EPWR",
      "alert": "OK",
      "vis_m": 9999,
      "fzfg": false,
      "metar_trigger": false,
      "taf_trigger": false,
      "metar": "METAR EPWR 301200Z 22010KT 9999 SCT031 BKN036 07/00 Q1011",
      "taf": "TAF EPWR 301130Z 3012/3112 23012KT 9999 FEW030 BKN040"
    },
    {
      "icao": "ESGG",
      "alert": "OK",
      "vis_m": 9999,
      "fzfg": false,
      "metar_trigger": false,
      "taf_trigger": false,
      "metar": "METAR ESGG 301150Z 23012KT 9999 FEW040 05/02 Q1003",
      "taf": "TAF ESGG 301130Z 3012/3112 25010KT 9999 BKN025"
    },
    {
      "icao": "ESKN",
      "alert": "OK",
      "vis_m": 9999,
      "fzfg": false,
      "metar_trigger": false,
      "taf_trigger": false,
      "metar": "METAR ESKN 301150Z 15015KT 9999 SCT014 OVC075 06/02 Q1005",
      "taf": "TAF ESKN 301130Z 3012/3112 17012KT 9999 SCT013 BKN030"
    },
    {
      "icao": "ESMS",
      "alert": "OK",
      "vis_m": 9999,
      "fzfg": false,
      "metar_trigger": false,
      "taf_trigger": false,
      "metar": "METAR ESMS 301150Z 27010KT 250V310 9999 SCT015 06/05 Q1006",
      "taf": "TAF ESMS 301127Z 3012/3112 29010KT 9999 BKN015"
    },
    {
      "icao": "ESSA",
      "alert": "OK",
      "vis_m": 9999,
      "fzfg": false,
      "metar_trigger": false,
      "taf_trigger": false,
      "metar": "METAR ESSA 301150Z 18023KT 9999 BKN039 07/M01 Q1006 NOSIG",
      "taf": "TAF ESSA 301130Z 3012/3112 18013KT 9999 SCT035"
    },
    {
      "icao": "EYKA",
      "alert": "OK",
      "vis_m": 9999,
      "fzfg": false,
      "metar_trigger": false,
      "taf_trigger": false,
      "metar": "METAR EYKA 301150Z 35004KT 310V050 CAVOK 12/01 Q1011",
      "taf": "TAF EYKA 301100Z 3012/3112 VRB05KT 9000 NSC"
    },
    {
      "icao": "EYPA",
      "alert": "OK",
      "vis_m": 9999,
      "fzfg": false,
      "metar_trigger": false,
      "taf_trigger": false,
      "metar": "METAR EYPA 301150Z 22006KT 180V270 CAVOK 09/01 Q1011",
      "taf": "TAF EYPA 301100Z 3012/3112 VRB05KT 9000 SCT035"
    },
    {
      "icao": "EYVI",
      "alert": "OK",
      "vis_m": 9999,
      "fzfg": false,
      "metar_trigger": false,
      "taf_trigger": false,
      "metar": "METAR EYVI 301150Z VRB04KT CAVOK 13/03 Q1010 NOSIG",
      "taf": "TAF EYVI 301100Z 3012/3112 VRB05KT 9000 SCT045"
    },
    {
      "icao": "GCFV",
      "alert": "OK",
      "vis_m": 9999,
      "fzfg": false,
      "metar_trigger": false,
      "taf_trigger": false,
      "metar": "METAR GCFV 301200Z 02021KT 9999 FEW025 20/12 Q1018",
      "taf": "TAF GCFV 300800Z 3009/3109 04020KT CAVOK TX21/3014Z TN17/3106Z"
    },
    {
      "icao": "GCLP",
      "alert": "OK",
      "vis_m": 9999,
      "fzfg": false,
      "metar_trigger": false,
      "taf_trigger": false,
      "metar": "METAR GCLP 301200Z 01025KT 9999 SCT025 21/13 Q1019 NOSIG",
      "taf": "TAF GCLP 300800Z 3009/3109 01024KT 9999 FEW025 TX21/3014Z TN16/3106Z"
    },
    {
      "icao": "GCTS",
      "alert": "OK",
      "vis_m": 9999,
      "fzfg": false,
      "metar_trigger": false,
      "taf_trigger": false,
      "metar": "METAR GCTS 301200Z 07026KT CAVOK 23/12 Q1018 NOSIG",
      "taf": "TAF GCTS 300800Z 3009/3109 07025KT 9999 FEW030 TX24/3014Z TN17/3106Z"
    },
    {
      "icao": "GMAD",
      "alert": "OK",
      "vis_m": 6000,
      "fzfg": false,
      "metar_trigger": false,
      "taf_trigger": false,
      "metar": "METAR GMAD 301200Z 24006KT 190V310 6000 SCT020 24/15 Q1013 NOSIG",
      "taf": "TAF GMAD 301100Z 3012/3118 24005KT 6000 SCT020"
    },
    {
      "icao": "GMMN",
      "alert": "OK",
      "vis_m": 9999,
      "fzfg": false,
      "metar_trigger": false,
      "taf_trigger": false,
      "metar": "METAR GMMN 301200Z 05017KT 020V080 CAVOK 19/06 Q1020 NOSIG",
      "taf": "TAF GMMN 301100Z 3012/3118 04018KT CAVOK"
    },
    {
      "icao": "GMMX",
      "alert": "OK",
      "vis_m": 9999,
      "fzfg": false,
      "metar_trigger": false,
      "taf_trigger": false,
      "metar": "METAR GMMX 301200Z 06009KT 360V120 CAVOK 19/06 Q1017 NOSIG",
      "taf": "TAF GMMX 301100Z 3012/3118 04008KT CAVOK"
    },
    {
      "icao": "HEGN",
      "alert": "OK",
      "vis_m": 9999,
      "fzfg": false,
      "metar_trigger": false,
      "taf_trigger": false,
      "metar": "METAR HEGN 301100Z 35013KT 9999 SCT020 BKN025 23/09 Q1010 NOSIG",
      "taf": "TAF HEGN 301100Z 3012/3118 34015G25KT 9999 SCT025"
    },
    {
      "icao": "HEMA",
      "alert": "OK",
      "vis_m": 4000,
      "fzfg": false,
      "metar_trigger": false,
      "taf_trigger": false,
      "metar": "METAR HEMA 301100Z 36011KT 4000 SA NSC 24/15 Q1010 NOSIG",
      "taf": "TAF HEMA 301100Z 3012/3118 33015G25KT 9999 SCT025"
    },
    {
      "icao": "HESH",
      "alert": "OK",
      "vis_m": 9999,
      "fzfg": false,
      "metar_trigger": false,
      "taf_trigger": false,
      "metar": "METAR HESH 301100Z 02012KT 9999 BKN020 23/13 Q1011 NOSIG",
      "taf": "TAF HESH 301100Z 3012/3118 01008KT 9999 SCT025"
    },
    {
      "icao": "HESX",
      "alert": "OK",
      "vis_m": 9999,
      "fzfg": false,
      "metar_trigger": false,
      "taf_trigger": false,
      "metar": "METAR HESX 301100Z 33008KT 9999 FEW020 20/06 Q1013 NOSIG",
      "taf": "TAF HESX 301100Z 3012/3118 30010KT 9999 SCT020"
    },
    {
      "icao": "LATI",
      "alert": "OK",
      "vis_m": 9999,
      "fzfg": false,
      "metar_trigger": false,
      "taf_trigger": false,
      "metar": "METAR LATI 301150Z 33011KT 300V360 9999 FEW059 17/04 Q1011 NOSIG",
      "taf": "TAF LATI 301100Z 3012/3112 32010KT 9999 FEW050 BKN090 TX18/3012Z TN06/3104Z"
    },
    {
      "icao": "LBPD",
      "alert": "OK",
      "vis_m": 9999,
      "fzfg": false,
      "metar_trigger": false,
      "taf_trigger": false,
      "metar": "METAR LBPD 301200Z AUTO 30010KT 9999 OVC069/// 13/07 Q1007 NOSIG",
      "taf": "TAF LBPD 301100Z 3012/3112 28014KT 9999 BKN060"
    },
    {
      "icao": "LBSF",
      "alert": "OK",
      "vis_m": 9999,
      "fzfg": false,
      "metar_trigger": false,
      "taf_trigger": false,
      "metar": "METAR LBSF 301200Z 31010KT 9999 SCT019 BKN036 OVC063 08/03 Q1009 NOSIG",
      "taf": "TAF LBSF 301100Z 3012/3112 28014KT 9999 SCT025 OVC050"
    },
    {
      "icao": "LBWN",
      "alert": "OK",
      "vis_m": 9999,
      "fzfg": false,
      "metar_trigger": false,
      "taf_trigger": false,
      "metar": "METAR LBWN 301200Z 32012KT 290V360 9999 SCT034 14/08 Q1005 NOSIG",
      "taf": "TAF LBWN 301100Z 3012/3112 34015KT 9999 SCT020 BKN040"
    },
    {
      "icao": "LCLK",
      "alert": "OK",
      "vis_m": 9999,
      "fzfg": false,
      "metar_trigger": false,
      "taf_trigger": false,
      "metar": "METAR LCLK 301200Z 22015KT 190V310 9999 SCT025 BKN050 20/10 Q1007 NOSIG",
      "taf": "TAF LCLK 301130Z 3012/3112 22021KT 9999 FEW030"
    },
    {
      "icao": "LCPH",
      "alert": "OK",
      "vis_m": 9999,
      "fzfg": false,
      "metar_trigger": false,
      "taf_trigger": false,
      "metar": "METAR LCPH 301200Z 31017KT 9999 FEW030TCU SCT034 BKN040 19/11 Q1009 NOSIG",
      "taf": "TAF LCPH 301130Z 3012/3112 29018KT 9999 FEW025 SCT035"
    },
    {
      "icao": "LEAL",
      "alert": "OK",
      "vis_m": 9999,
      "fzfg": false,
      "metar_trigger": false,
      "taf_trigger": false,
      "metar": "METAR LEAL 301200Z 24007KT 190V300 CAVOK 18/M04 Q1026 NOSIG",
      "taf": "TAF LEAL 301100Z 3012/3112 14010KT CAVOK TX17/3012Z TN09/3105Z"
    },
    {
      "icao": "LEBB",
      "alert": "OK",
      "vis_m": 9999,
      "fzfg": false,
      "metar_trigger": false,
      "taf_trigger": false,
      "metar": "METAR LEBB 301200Z 30013KT 280V340 9999 FEW018 BKN022 OVC033 11/08 Q1034 NOSIG",
      "taf": "TAF LEBB 301100Z 3012/3112 33009KT 6000 BKN020 TX12/3019Z TN10/3012Z"
    },
    {
      "icao": "LEBL",
      "alert": "OK",
      "vis_m": 9999,
      "fzfg": false,
      "metar_trigger": false,
      "taf_trigger": false,
      "metar": "METAR LEBL 301200Z 21006KT 140V280 CAVOK 17/03 Q1023 NOSIG",
      "taf": "TAF LEBL 301100Z 3012/3112 22010KT CAVOK TX21/3012Z TN09/3106Z"
    },
    {
      "icao": "LECH",
      "alert": "OK",
      "vis_m": 9999,
      "fzfg": false,
      "metar_trigger": false,
      "taf_trigger": false,
      "metar": "METAR LECH 301200Z AUTO 34008KT 290V020 CAVOK 17/M00 Q1025",
      "taf": "TAF LECH 301100Z 3012/3112 33012KT CAVOK TX20/3013Z TN11/3105Z"
    },
    {
      "icao": "LEMD",
      "alert": "OK",
      "vis_m": 9999,
      "fzfg": false,
      "metar_trigger": false,
      "taf_trigger": false,
      "metar": "METAR LEMD 301200Z 33003KT 260V040 CAVOK 15/00 Q1028 NOSIG",
      "taf": "TAF LEMD 301100Z 3012/3118 01010KT CAVOK TX19/3016Z TN07/3106Z"
    },
    {
      "icao": "LEMG",
      "alert": "OK",
      "vis_m": 9999,
      "fzfg": false,
      "metar_trigger": false,
      "taf_trigger": false,
      "metar": "METAR LEMG 301200Z 15006KT 080V200 CAVOK 18/M04 Q1027 NOSIG",
      "taf": "TAF LEMG 301100Z 3012/3112 13010KT CAVOK TX19/3013Z TN10/3107Z"
    },
    {
      "icao": "LEVC",
      "alert": "OK",
      "vis_m": 9999,
      "fzfg": false,
      "metar_trigger": false,
      "taf_trigger": false,
      "metar": "METAR LEVC 301200Z 21004KT CAVOK 17/M03 Q1026 NOSIG",
      "taf": "TAF LEVC 301100Z 3012/3112 VRB04KT CAVOK TX21/3012Z TN11/3105Z"
    },
    {
      "icao": "LEXJ",
      "alert": "OK",
      "vis_m": 9999,
      "fzfg": false,
      "metar_trigger": false,
      "taf_trigger": false,
      "metar": "METAR LEXJ 301200Z 28013KT 260V320 9999 OVC032 12/05 Q1035",
      "taf": "TAF LEXJ 300800Z 3009/3109 31009KT 9999 BKN025 TX13/3021Z TN10/3009Z"
    },
    {
      "icao": "LEZG",
      "alert": "OK",
      "vis_m": 9999,
      "fzfg": false,
      "metar_trigger": false,
      "taf_trigger": false,
      "metar": "METAR LEZG 301200Z 30030G40KT 9999 FEW035 15/04 Q1028 NOSIG",
      "taf": "TAF LEZG 301100Z 3012/3112 32025KT 9999 FEW045 TX16/3014Z TN09/3105Z"
    },
    {
      "icao": "LEZL",
      "alert": "OK",
      "vis_m": 9999,
      "fzfg": false,
      "metar_trigger": false,
      "taf_trigger": false,
      "metar": "METAR LEZL 301200Z 08011KT 060V130 CAVOK 17/M02 Q1028 NOSIG",
      "taf": "TAF LEZL 300800Z 3009/3109 06010KT CAVOK TX22/3015Z TN10/3107Z"
    },
    {
      "icao": "LFBD",
      "alert": "OK",
      "vis_m": 7000,
      "fzfg": false,
      "metar_trigger": false,
      "taf_trigger": false,
      "metar": "METAR LFBD 301200Z AUTO 28012KT 250V310 7000 -RADZ BKN005 OVC010 13/12 Q1029 TEMPO 1000 RA BECMG BKN015",
      "taf": "TAF LFBD 301100Z 3012/3118 30010KT 9999 BKN015 TX15/3014Z TN05/3105Z"
    },
    {
      "icao": "LFLL",
      "alert": "OK",
      "vis_m": 9999,
      "fzfg": false,
      "metar_trigger": false,
      "taf_trigger": false,
      "metar": "METAR LFLL 301200Z 13007KT 9999 SCT009 OVC017 06/04 Q1024 NOSIG",
      "taf": "TAF LFLL 301100Z 3012/3118 34010KT 9999 BKN030"
    },
    {
      "icao": "LFLS",
      "alert": "OK",
      "vis_m": 4900,
      "fzfg": false,
      "metar_trigger": false,
      "taf_trigger": false,
      "metar": "METAR LFLS 301200Z AUTO 08003KT 060V120 4900 -DZ BR FEW007 BKN023 OVC031 06/04 Q1023 TEMPO 36012G25KT SHRA SCT020TCU BKN025",
      "taf": "TAF LFLS 300800Z 3009/3109 VRB05KT 9999 BKN030"
    },
    {
      "icao": "LFMN",
      "alert": "OK",
      "vis_m": 9999,
      "fzfg": false,
      "metar_trigger": false,
      "taf_trigger": false,
      "metar": "METAR LFMN 301200Z COR 19007KT 160V220 CAVOK 17/07 Q1011 BECMG 09010KT",
      "taf": "TAF LFMN 300800Z 3009/3115 32010KT CAVOK"
    },
    {
      "icao": "LFOB",
      "alert": "OK",
      "vis_m": 9999,
      "fzfg": false,
      "metar_trigger": false,
      "taf_trigger": false,
      "metar": "METAR LFOB 301200Z AUTO 32017KT 290V350 9999 BKN039 BKN049 BKN064 12/04 Q1023 BECMG 32015G28KT",
      "taf": "TAF LFOB 301100Z 3012/3112 32015G28KT 9999 BKN035"
    },
    {
      "icao": "LFPO",
      "alert": "OK",
      "vis_m": 9999,
      "fzfg": false,
      "metar_trigger": false,
      "taf_trigger": false,
      "metar": "METAR LFPO 301130Z 32015KT 300V010 9999 BKN048 SCT130 12/02 Q1023 NOSIG",
      "taf": "TAF LFPO 301100Z 3012/3118 32015KT CAVOK"
    },
    {
      "icao": "LFSB",
      "alert": "OK",
      "vis_m": 9999,
      "fzfg": false,
      "metar_trigger": false,
      "taf_trigger": false,
      "metar": "METAR LFSB 301200Z AUTO 27012KT 9999 -RA BKN022/// BKN030/// OVC039/// ///TCU 07/04 Q1019 TEMPO 33020G30KT 4000 SHRA FEW020CB BKN030",
      "taf": "TAF LFSB 301100Z 3012/3112 26012KT 9999 FEW020 BKN035"
    },
    {
      "icao": "LGAV",
      "alert": "OK",
      "vis_m": 9999,
      "fzfg": false,
      "metar_trigger": false,
      "taf_trigger": false,
      "metar": "METAR LGAV 301150Z COR 24010KT 210V270 9999 FEW025 19/04 Q1009 NOSIG",
      "taf": "TAF LGAV 301100Z 3012/3112 21010KT 9999 FEW020"
    },
    {
      "icao": "LGTS",
      "alert": "OK",
      "vis_m": 9999,
      "fzfg": false,
      "metar_trigger": false,
      "taf_trigger": false,
      "metar": "METAR LGTS 301150Z 32011KT 9999 FEW020 18/07 Q1008 NOSIG",
      "taf": "TAF LGTS 301100Z 3012/3112 VRB03KT 9999 FEW025"
    },
    {
      "icao": "LHBP",
      "alert": "OK",
      "vis_m": 9999,
      "fzfg": false,
      "metar_trigger": false,
      "taf_trigger": false,
      "metar": "METAR LHBP 301200Z 33012KT 9999 -RA OVC040 07/03 Q1011 NOSIG",
      "taf": "TAF LHBP 301115Z 3012/3112 32013KT 9999 -RA OVC040"
    },
    {
      "icao": "LHDC",
      "alert": "OK",
      "vis_m": 9999,
      "fzfg": false,
      "metar_trigger": false,
      "taf_trigger": false,
      "metar": "METAR LHDC 301145Z AUTO 01006KT 330V050 9999 FEW040 BKN073 11/05 Q1009 NOSIG",
      "taf": "TAF LHDC 301115Z 3012/3021 33007KT CAVOK"
    },
    {
      "icao": "LIBD",
      "alert": "OK",
      "vis_m": 9999,
      "fzfg": false,
      "metar_trigger": false,
      "taf_trigger": false,
      "metar": "METAR LIBD 301150Z 35008KT 310V020 9999 FEW040 15/07 Q1012",
      "taf": "TAF LIBD 301100Z 3012/3112 34012KT 9999 SCT030"
    },
    {
      "icao": "LIBG",
      "alert": "OK",
      "vis_m": 9999,
      "fzfg": false,
      "metar_trigger": false,
      "taf_trigger": false,
      "metar": "METAR LIBG 301050Z 32007KT 270V360 9999 FEW040 14/05 Q1013",
      "taf": "TAF LIBG 301100Z 3012/3021 34010KT 9999 SCT030"
    },
    {
      "icao": "LIBP",
      "alert": "OK",
      "vis_m": 9999,
      "fzfg": false,
      "metar_trigger": false,
      "taf_trigger": false,
      "metar": "METAR LIBP 301150Z AUTO 04010KT 9999 BKN210/// 14/06 Q1013",
      "taf": "TAF LIBP 301100Z 3012/3112 06010KT 9999 SCT030"
    },
    {
      "icao": "LIBR",
      "alert": "OK",
      "vis_m": 9999,
      "fzfg": false,
      "metar_trigger": false,
      "taf_trigger": false,
      "metar": "METAR LIBR 301150Z 33015KT CAVOK 14/08 Q1012",
      "taf": "TAF LIBR 301100Z 3012/3112 33016KT 9999 BKN030"
    },
    {
      "icao": "LICA",
      "alert": "OK",
      "vis_m": 9999,
      "fzfg": false,
      "metar_trigger": false,
      "taf_trigger": false,
      "metar": "METAR LICA 301150Z AUTO 27013KT 9999 NCD 16/11 Q1013",
      "taf": "TAF LICA 301100Z 3012/3112 27012KT 9999 SCT030"
    },
    {
      "icao": "LICC",
      "alert": "OK",
      "vis_m": 9999,
      "fzfg": false,
      "metar_trigger": false,
      "taf_trigger": false,
      "metar": "METAR LICC 301150Z 10009KT 070V130 9999 FEW040 BKN090 16/11 Q1014",
      "taf": "TAF LICC 301100Z 3012/3112 09010KT 9999 SCT040"
    },
    {
      "icao": "LICJ",
      "alert": "OK",
      "vis_m": 9999,
      "fzfg": false,
      "metar_trigger": false,
      "taf_trigger": false,
      "metar": "METAR LICJ 301150Z 31006KT CAVOK 15/08 Q1014",
      "taf": "TAF LICJ 301100Z 3012/3112 29012KT 9999 FEW040"
    },
    {
      "icao": "LIMC",
      "alert": "OK",
      "vis_m": 9999,
      "fzfg": false,
      "metar_trigger": false,
      "taf_trigger": false,
      "metar": "METAR LIMC 301150Z VRB05KT CAVOK 18/M02 Q1011 BECMG 01015KT",
      "taf": "TAF LIMC 301100Z 3012/3118 01015KT CAVOK"
    },
    {
      "icao": "LIME",
      "alert": "OK",
      "vis_m": 9999,
      "fzfg": false,
      "metar_trigger": false,
      "taf_trigger": false,
      "metar": "METAR LIME 301150Z VRB08G22KT 9999 SCT050 18/M03 Q1009 NOSIG",
      "taf": "TAF LIME 301100Z 3012/3112 35013KT CAVOK"
    },
    {
      "icao": "LIMF",
      "alert": "OK",
      "vis_m": 9999,
      "fzfg": false,
      "metar_trigger": false,
      "taf_trigger": false,
      "metar": "METAR LIMF 301150Z 10003KT 050V140 CAVOK 16/M02 Q1012",
      "taf": "TAF LIMF 301100Z 3012/3112 VRB05KT CAVOK"
    },
    {
      "icao": "LIMJ",
      "alert": "OK",
      "vis_m": 9999,
      "fzfg": false,
      "metar_trigger": false,
      "taf_trigger": false,
      "metar": "METAR LIMJ 301150Z 15005KT CAVOK 15/06 Q1013",
      "taf": "TAF LIMJ 301100Z 3012/3112 20010KT CAVOK"
    },
    {
      "icao": "LIPE",
      "alert": "OK",
      "vis_m": 9999,
      "fzfg": false,
      "metar_trigger": false,
      "taf_trigger": false,
      "metar": "METAR LIPE 301150Z VRB02KT CAVOK 16/02 Q1012",
      "taf": "TAF LIPE 301100Z 3012/3112 VRB05KT CAVOK"
    },
    {
      "icao": "LIPH",
      "alert": "OK",
      "vis_m": 9999,
      "fzfg": false,
      "metar_trigger": false,
      "taf_trigger": false,
      "metar": "METAR LIPH 301150Z 11006KT 080V150 9999 FEW015 14/06 Q1012",
      "taf": "TAF LIPH 301100Z 3012/3112 VRB05KT 9999 SCT040"
    },
    {
      "icao": "LIPQ",
      "alert": "OK",
      "vis_m": 9999,
      "fzfg": false,
      "metar_trigger": false,
      "taf_trigger": false,
      "metar": "METAR LIPQ 301150Z AUTO 12004KT 070V160 9999 BKN084/// 14/00 Q1013",
      "taf": "TAF LIPQ 301100Z 3012/3112 VRB06KT 9999 SCT050"
    },
    {
      "icao": "LIPR",
      "alert": "OK",
      "vis_m": 9999,
      "fzfg": false,
      "metar_trigger": false,
      "taf_trigger": false,
      "metar": "METAR LIPR 301150Z 04007KT CAVOK 13/07 Q1012",
      "taf": "TAF LIPR 301100Z 3012/3112 11012KT 9999 BKN070"
    },
    {
      "icao": "LIPX",
      "alert": "OK",
      "vis_m": 9999,
      "fzfg": false,
      "metar_trigger": false,
      "taf_trigger": false,
      "metar": "METAR LIPX 301150Z VRB04KT CAVOK 15/02 Q1011",
      "taf": "TAF LIPX 301100Z 3012/3112 VRB05KT CAVOK"
    },
    {
      "icao": "LIPY",
      "alert": "OK",
      "vis_m": 9999,
      "fzfg": false,
      "metar_trigger": false,
      "taf_trigger": false,
      "metar": "METAR LIPY 301150Z AUTO 06005KT 020V110 9999 BKN110/// 14/06 Q1013",
      "taf": "TAF LIPY 301100Z 3012/3112 09010KT 9999 SCT040"
    },
    {
      "icao": "LIPZ",
      "alert": "OK",
      "vis_m": 9999,
      "fzfg": false,
      "metar_trigger": false,
      "taf_trigger": false,
      "metar": "METAR LIPZ 301150Z 10009KT 070V130 9999 FEW015 13/08 Q1012 NOSIG",
      "taf": "TAF LIPZ 301100Z 3012/3118 12010KT 9999 SCT040"
    },
    {
      "icao": "LIRF",
      "alert": "OK",
      "vis_m": 9999,
      "fzfg": false,
      "metar_trigger": false,
      "taf_trigger": false,
      "metar": "METAR LIRF 301150Z 28009KT 250V310 CAVOK 15/07 Q1013 NOSIG",
      "taf": "TAF LIRF 301100Z 3012/3118 26010KT 9999 FEW040"
    },
    {
      "icao": "LIRN",
      "alert": "OK",
      "vis_m": 9999,
      "fzfg": false,
      "metar_trigger": false,
      "taf_trigger": false,
      "metar": "METAR LIRN 301150Z 23008KT 140V280 CAVOK 16/05 Q1013 NOSIG",
      "taf": "TAF LIRN 301100Z 3012/3112 24010KT 9999 SCT050"
    },
    {
      "icao": "LIRP",
      "alert": "OK",
      "vis_m": 9999,
      "fzfg": false,
      "metar_trigger": false,
      "taf_trigger": false,
      "metar": "METAR LIRP 301145Z 26011KT CAVOK 16/05 Q1014 NOSIG",
      "taf": "TAF LIRP 301100Z 3012/3112 27010KT 9999 BKN080"
    },
    {
      "icao": "LIRZ",
      "alert": "OK",
      "vis_m": 9999,
      "fzfg": false,
      "metar_trigger": false,
      "taf_trigger": false,
      "metar": "METAR LIRZ 301150Z AUTO VRB02KT 9999 NCD 14/02 Q1012",
      "taf": "TAF LIRZ 301100Z 3012/3112 VRB05KT 9999 SCT040"
    },
    {
      "icao": "LJLJ",
      "alert": "OK",
      "vis_m": 9999,
      "fzfg": false,
      "metar_trigger": false,
      "taf_trigger": false,
      "metar": "METAR LJLJ 301200Z VRB01KT 9999 FEW023 SCT037 BKN070 08/00 Q1013 NOSIG",
      "taf": "TAF LJLJ 301100Z 3012/3112 VRB02KT 9999 BKN045"
    },
    {
      "icao": "LKMT",
      "alert": "OK",
      "vis_m": 9999,
      "fzfg": false,
      "metar_trigger": false,
      "taf_trigger": false,
      "metar": "METAR LKMT 301200Z 21008KT CAVOK 08/M01 Q1012 NOSIG",
      "taf": "TAF LKMT 301100Z 3012/3112 23009KT 9999 SCT040"
    },
    {
      "icao": "LKPR",
      "alert": "OK",
      "vis_m": 9999,
      "fzfg": false,
      "metar_trigger": false,
      "taf_trigger": false,
      "metar": "METAR LKPR 301200Z 20010KT 9999 FEW020 BKN033 05/01 Q1011 NOSIG",
      "taf": "TAF LKPR 301100Z 3012/3118 21016KT 9999 BKN022"
    },
    {
      "icao": "LLBG",
      "alert": "OK",
      "vis_m": 9999,
      "fzfg": false,
      "metar_trigger": false,
      "taf_trigger": false,
      "metar": "METAR LLBG 301150Z 26012KT 9999 BKN033 19/10 Q1011 NOSIG",
      "taf": "TAF LLBG 301102Z 3012/3112 26014KT 9999 SCT035 TX19/3012Z TN12/3103Z"
    },
    {
      "icao": "LMML",
      "alert": "OK",
      "vis_m": 9999,
      "fzfg": false,
      "metar_trigger": false,
      "taf_trigger": false,
      "metar": "METAR LMML 301145Z 25004KT 200V310 9999 SCT030 16/09 Q1015 NOSIG",
      "taf": "TAF LMML 301100Z 3012/3112 25007KT 9999 FEW025"
    },
    {
      "icao": "LOWW",
      "alert": "OK",
      "vis_m": 9999,
      "fzfg": false,
      "metar_trigger": false,
      "taf_trigger": false,
      "metar": "METAR LOWW 301150Z 30018G31KT 9999 FEW034 SCT038 BKN050 08/M00 Q1014 NOSIG",
      "taf": "TAF LOWW 301115Z 3012/3118 31015KT CAVOK TX09/3012Z TN04/3106Z"
    },
    {
      "icao": "LPFR",
      "alert": "OK",
      "vis_m": 9999,
      "fzfg": false,
      "metar_trigger": false,
      "taf_trigger": false,
      "metar": "METAR LPFR 301200Z 10015KT CAVOK 16/03 Q1028",
      "taf": "TAF LPFR 301100Z 3012/3112 12012KT CAVOK"
    },
    {
      "icao": "LPMA",
      "alert": "OK",
      "vis_m": 9999,
      "fzfg": false,
      "metar_trigger": false,
      "taf_trigger": false,
      "metar": "METAR LPMA 301200Z 01022KT 9999 SCT015 18/11 Q1025",
      "taf": "TAF LPMA 301100Z 3012/3112 01020G32KT 9999 SCT015"
    },
    {
      "icao": "LPPR",
      "alert": "OK",
      "vis_m": 9999,
      "fzfg": false,
      "metar_trigger": false,
      "taf_trigger": false,
      "metar": "METAR LPPR 301200Z 31008KT 280V340 CAVOK 16/07 Q1032",
      "taf": "TAF LPPR 301100Z 3012/3112 32008KT CAVOK"
    },
    {
      "icao": "LPPS",
      "alert": "OK",
      "vis_m": 9999,
      "fzfg": false,
      "metar_trigger": false,
      "taf_trigger": false,
      "metar": "METAR LPPS 301200Z 06021G32KT 9999 SCT014 18/12 Q1025",
      "taf": "TAF LPPS 301100Z 3012/3118 05018KT 9999 SCT015"
    },
    {
      "icao": "LPPT",
      "alert": "OK",
      "vis_m": 9999,
      "fzfg": false,
      "metar_trigger": false,
      "taf_trigger": false,
      "metar": "METAR LPPT 301200Z 04010KT 010V080 CAVOK 16/01 Q1030",
      "taf": "TAF LPPT 301100Z 3012/3118 05013KT CAVOK"
    },
    {
      "icao": "LQBK",
      "alert": "OK",
      "vis_m": 9999,
      "fzfg": false,
      "metar_trigger": false,
      "taf_trigger": false,
      "metar": "METAR LQBK 301200Z 28007KT 270V020 9999 RA SCT015 OVC030 05/01 Q1015 NOSIG",
      "taf": "TAF LQBK 301100Z 3012/3112 20005KT 8000 -RA SCT015 OVC030 TX06/3112Z TN04/3104Z"
    },
    {
      "icao": "LQSA",
      "alert": "OK",
      "vis_m": 9999,
      "fzfg": false,
      "metar_trigger": false,
      "taf_trigger": false,
      "metar": "METAR LQSA 301200Z VRB01KT 9999 FEW022 BKN030 06/01 Q1013 NOSIG",
      "taf": "TAF LQSA 301100Z 3012/3112 32005KT 9999 SCT020 BKN040 TX05/3013Z TN00/3105Z"
    },
    {
      "icao": "LQTZ",
      "alert": "OK",
      "vis_m": 9999,
      "fzfg": false,
      "metar_trigger": false,
      "taf_trigger": false,
      "metar": "METAR LQTZ 301200Z 29007KT 9999 -RA BKN011 OVC018 03/03 Q1014",
      "taf": "TAF LQTZ 301100Z 3012/3112 28005KT 9999 -RA SCT012 BKN025 TX06/3112Z TN00/3105Z"
    },
    {
      "icao": "LRBC",
      "alert": "OK",
      "vis_m": 9999,
      "fzfg": false,
      "metar_trigger": false,
      "taf_trigger": false,
      "metar": "METAR LRBC 301200Z 34016KT 9999 SCT024 BKN030 13/08 Q1005",
      "taf": "TAF LRBC 301100Z 3012/3021 34015KT 9999 BKN025 BKN060"
    },
    {
      "icao": "LRBS",
      "alert": "OK",
      "vis_m": 9999,
      "fzfg": false,
      "metar_trigger": false,
      "taf_trigger": false,
      "metar": "METAR LRBS 301200Z 24004KT 210V270 9999 FEW015 SCT048 13/10 Q1006 NOSIG",
      "taf": "TAF LRBS 301100Z 3012/3112 26012KT CAVOK"
    },
    {
      "icao": "LRBV",
      "alert": "OK",
      "vis_m": 9999,
      "fzfg": false,
      "metar_trigger": false,
      "taf_trigger": false,
      "metar": "METAR LRBV 301200Z 28012KT 9999 FEW011 SCT018 BKN039 10/06 Q1006",
      "taf": "TAF LRBV 301100Z 3012/3021 30010KT 9999 BKN015 OVC030"
    },
    {
      "icao": "LRCL",
      "alert": "OK",
      "vis_m": 9999,
      "fzfg": false,
      "metar_trigger": false,
      "taf_trigger": false,
      "metar": "METAR LRCL 301200Z 32007KT 280V340 9999 SCT024 13/07 Q1007",
      "taf": "TAF LRCL 301100Z 3012/3021 24006KT 9999 SCT020"
    },
    {
      "icao": "LRCV",
      "alert": "OK",
      "vis_m": 9999,
      "fzfg": false,
      "metar_trigger": false,
      "taf_trigger": false,
      "metar": "METAR LRCV 301200Z 24010KT 9999 BKN048 11/08 Q1007",
      "taf": "TAF LRCV 301100Z 3012/3021 24012KT 9999 BKN045"
    },
    {
      "icao": "LRIA",
      "alert": "OK",
      "vis_m": 9999,
      "fzfg": false,
      "metar_trigger": false,
      "taf_trigger": false,
      "metar": "METAR LRIA 301200Z 30011KT 9999 -RA FEW015 SCT025 11/09 Q1005",
      "taf": "TAF LRIA 301100Z 3012/3021 33010KT 9999 BKN020 BKN045"
    },
    {
      "icao": "LROP",
      "alert": "OK",
      "vis_m": 9999,
      "fzfg": false,
      "metar_trigger": false,
      "taf_trigger": false,
      "metar": "METAR LROP 301200Z 24005KT CAVOK 13/09 Q1006 NOSIG",
      "taf": "TAF LROP 301100Z 3012/3112 26012KT CAVOK"
    },
    {
      "icao": "LRSB",
      "alert": "OK",
      "vis_m": 9999,
      "fzfg": false,
      "metar_trigger": false,
      "taf_trigger": false,
      "metar": "METAR LRSB 301200Z 30004KT 270V330 9999 FEW012 BKN040 11/08 Q1007",
      "taf": "TAF LRSB 301100Z 3012/3112 30010KT 9999 SCT010 OVC025"
    },
    {
      "icao": "LRSM",
      "alert": "OK",
      "vis_m": 9999,
      "fzfg": false,
      "metar_trigger": false,
      "taf_trigger": false,
      "metar": "METAR LRSM 301200Z 28008KT CAVOK 13/07 Q1008",
      "taf": "TAF LRSM 301100Z 3012/3021 27006KT 9999 SCT045"
    },
    {
      "icao": "LRSV",
      "alert": "OK",
      "vis_m": 9999,
      "fzfg": false,
      "metar_trigger": false,
      "taf_trigger": false,
      "metar": "METAR LRSV 301200Z 31014KT 9999 SCT021 BKN039 10/06 Q1006",
      "taf": "TAF LRSV 301100Z 3012/3021 32014KT 9999 SCT020 BKN035"
    },
    {
      "icao": "LRTM",
      "alert": "OK",
      "vis_m": 9999,
      "fzfg": false,
      "metar_trigger": false,
      "taf_trigger": false,
      "metar": "METAR LRTM 301200Z 23008KT 200V260 9999 SCT016 BKN022 13/08 Q1007",
      "taf": "TAF LRTM 301100Z 3012/3021 24008KT 9999 SCT010 BKN045"
    },
    {
      "icao": "LRTR",
      "alert": "OK",
      "vis_m": 2000,
      "fzfg": false,
      "metar_trigger": false,
      "taf_trigger": false,
      "metar": "METAR LRTR 301200Z 27008KT 2000 -RA BR SCT003 BKN005 OVC010 08/08 Q1010 NOSIG",
      "taf": "TAF LRTR 301100Z 3012/3112 27007KT 5000 -RADZ BR BKN005 OVC010"
    },
    {
      "icao": "LTAC",
      "alert": "OK",
      "vis_m": 9999,
      "fzfg": false,
      "metar_trigger": false,
      "taf_trigger": false,
      "metar": "METAR LTAC 301150Z 25012KT 9999 SCT020 BKN100 07/02 Q1004 NOSIG RMK RWY21C 24013KT RWY03L 23010KT 200V260 RWY21R 23012KT RWY03R 23009KT RWY21L 23011KT",
      "taf": "TAF LTAC 301040Z 3012/3112 24012KT 9999 SCT040 BKN100"
    },
    {
      "icao": "LTFM",
      "alert": "OK",
      "vis_m": 9999,
      "fzfg": false,
      "metar_trigger": false,
      "taf_trigger": false,
      "metar": "METAR LTFM 301150Z 30009KT 260V330 9999 -RA BKN007 BKN018 11/10 Q1007 NOSIG RMK RWY17L 30009KT 270V340 RWY34L 30009G20KT RWY16R 28007KT RWY36 30009KT 260V320 RWY18 30010G21KT",
      "taf": "TAF LTFM 301040Z 3012/3118 31015G25KT 9999 -RA BKN007 BKN018"
    },
    {
      "icao": "LUKK",
      "alert": "OK",
      "vis_m": 9999,
      "fzfg": false,
      "metar_trigger": false,
      "taf_trigger": false,
      "metar": "METAR LUKK 301200Z 36012KT 330V030 9999 BKN034 13/06 Q1002 NOSIG",
      "taf": "TAF LUKK 301102Z 3012/3112 34012KT 9999 SCT040"
    },
    {
      "icao": "LWOH",
      "alert": "OK",
      "vis_m": 9999,
      "fzfg": false,
      "metar_trigger": false,
      "taf_trigger": false,
      "metar": "METAR LWOH 301150Z 15008KT 9999 FEW040 12/05 Q1009",
      "taf": "TAF LWOH 301120Z 3012/3112 16010KT 9999 FEW045"
    },
    {
      "icao": "LWSK",
      "alert": "OK",
      "vis_m": 9999,
      "fzfg": false,
      "metar_trigger": false,
      "taf_trigger": false,
      "metar": "METAR LWSK 301150Z 02011KT 9999 BKN050 12/06 Q1010 NOSIG",
      "taf": "TAF LWSK 301120Z 3012/3112 02006KT 9999 SCT045"
    },
    {
      "icao": "LYBE",
      "alert": "OK",
      "vis_m": 8000,
      "fzfg": false,
      "metar_trigger": false,
      "taf_trigger": false,
      "metar": "METAR LYBE 301200Z 27014KT 8000 -RA BKN007 06/05 Q1013 NOSIG",
      "taf": "TAF LYBE 301100Z 3012/3112 28014KT 8000 BKN008 BKN027 TX09/3112Z TN03/3105Z"
    },
    {
      "icao": "LYNI",
      "alert": "OK",
      "vis_m": 9999,
      "fzfg": false,
      "metar_trigger": false,
      "taf_trigger": false,
      "metar": "METAR LYNI 301200Z 31009KT 280V340 9999 FEW007 OVC025 07/05 Q1012 NOSIG",
      "taf": "TAF LYNI 301100Z 3012/3112 32011KT 9999 SCT012 BKN020 TX10/3112Z TN04/3106Z"
    },
    {
      "icao": "LYPG",
      "alert": "OK",
      "vis_m": 9999,
      "fzfg": false,
      "metar_trigger": false,
      "taf_trigger": false,
      "metar": "METAR LYPG 301200Z 18006KT 140V210 9999 FEW040 18/03 Q1010 NOSIG",
      "taf": "TAF LYPG 301100Z 3012/3112 16007KT 9999 FEW050 TX18/3013Z TN07/3102Z"
    },
    {
      "icao": "LZIB",
      "alert": "OK",
      "vis_m": 9999,
      "fzfg": false,
      "metar_trigger": false,
      "taf_trigger": false,
      "metar": "METAR LZIB 301200Z 29014KT 9999 FEW040 09/M01 Q1013 NOSIG",
      "taf": "TAF LZIB 301115Z 3012/3112 30007KT 9999 SCT040"
    },
    {
      "icao": "LZKZ",
      "alert": "OK",
      "vis_m": 9999,
      "fzfg": false,
      "metar_trigger": false,
      "taf_trigger": false,
      "metar": "METAR LZKZ 301200Z 36016KT CAVOK 09/02 Q1010 NOSIG",
      "taf": ""
    },
    {
      "icao": "LZTT",
      "alert": "OK",
      "vis_m": 1300,
      "fzfg": false,
      "metar_trigger": false,
      "taf_trigger": false,
      "metar": "METAR LZTT 301200Z 00000KT 1300 R27/0800D SN BR SCT003 OVC008 01/00 Q1010 TEMPO 3500 -SN BR",
      "taf": "TAF LZTT 301115Z 3012/3112 VRB02KT 7000 BKN016"
    },
    {
      "icao": "OEJN",
      "alert": "OK",
      "vis_m": 9999,
      "fzfg": false,
      "metar_trigger": false,
      "taf_trigger": false,
      "metar": "METAR OEJN 301200Z 27006KT CAVOK 31/13 Q1007 NOSIG",
      "taf": "TAF OEJN 301100Z 3012/3118 28012KT CAVOK"
    },
    {
      "icao": "OEMA",
      "alert": "OK",
      "vis_m": 9999,
      "fzfg": false,
      "metar_trigger": false,
      "taf_trigger": false,
      "metar": "METAR OEMA 301200Z 29011KT CAVOK 33/03 Q1010 NOSIG",
      "taf": "TAF OEMA 301100Z 3012/3118 29013KT 9999 SCT040"
    },
    {
      "icao": "OJAI",
      "alert": "OK",
      "vis_m": 5000,
      "fzfg": false,
      "metar_trigger": false,
      "taf_trigger": false,
      "metar": "METAR OJAI 301100Z 26012KT 5000 HZ SCT025 FEW030 14/08 Q1013 NOSIG",
      "taf": "TAF OJAI 301100Z 3012/3118 25010KT 5000 HZ FEW030"
    },
    {
      "icao": "OMAA",
      "alert": "OK",
      "vis_m": null,
      "fzfg": false,
      "metar_trigger": false,
      "taf_trigger": false,
      "metar": "",
      "taf": ""
    },
    {
      "icao": "OMDB",
      "alert": "OK",
      "vis_m": null,
      "fzfg": false,
      "metar_trigger": false,
      "taf_trigger": false,
      "metar": "",
      "taf": ""
    },
    {
      "icao": "UAAA",
      "alert": "OK",
      "vis_m": 9999,
      "fzfg": false,
      "metar_trigger": false,
      "taf_trigger": false,
      "metar": "METAR UAAA 301130Z 03004MPS 9999 BKN200 24/02 Q1006 NOSIG",
      "taf": "TAF UAAA 301104Z 3012/3112 20003MPS 9999 FEW100 TX23/3110Z TN04/3101Z"
    },
    {
      "icao": "UBBB",
      "alert": "OK",
      "vis_m": 9999,
      "fzfg": false,
      "metar_trigger": false,
      "taf_trigger": false,
      "metar": "METAR UBBB 301200Z 16011KT 9999 FEW008 15/13 Q0998 NOSIG",
      "taf": "TAF UBBB 301053Z 3012/3112 16008KT 9999 SCT010 TX17/3012Z TN08/3101Z"
    },
    {
      "icao": "UDSG",
      "alert": "OK",
      "vis_m": 9999,
      "fzfg": false,
      "metar_trigger": false,
      "taf_trigger": false,
      "metar": "METAR UDSG 301130Z 22014KT 9999 FEW040CB BKN046 09/M03 Q1002 NOSIG",
      "taf": "TAF UDSG 301100Z 3012/3112 22006KT 9999 SCT040"
    },
    {
      "icao": "UDYZ",
      "alert": "OK",
      "vis_m": 9999,
      "fzfg": false,
      "metar_trigger": false,
      "taf_trigger": false,
      "metar": "METAR UDYZ 301130Z 30005KT 240V340 9999 SCT043CB 15/03 Q1001 NOSIG",
      "taf": "TAF UDYZ 301100Z 3012/3112 24006KT 9999 SCT040"
    },
    {
      "icao": "UGKO",
      "alert": "OK",
      "vis_m": 4000,
      "fzfg": false,
      "metar_trigger": false,
      "taf_trigger": false,
      "metar": "METAR UGKO 301200Z 24012KT 210V280 4000 SHRA SCT007 BKN019CB OVC039 11/10 Q1002 NOSIG",
      "taf": "TAF UGKO 301100Z 3012/3112 26010KT 9999 SCT023 BKN050 TX17/3111Z TN07/3103Z"
    }
  ]
}