{
  "ts_utc": "2026-02-21T20:29:13Z",
  "threshold_m": 150,
  "source": "stations_override.txt (ICAO list) + aviationweather.gov (METAR/TAF raw)",
  "station_count": 159,
  "stations": [
    {
      "icao": "BIKF",
      "alert": "OK",
      "vis_m": 9999,
      "fzfg": false,
      "metar_trigger": false,
      "taf_trigger": false,
      "metar": "METAR BIKF 212000Z 07024KT 9999 FEW048 BKN120 01/M08 Q0998",
      "taf": "TAF BIKF 211945Z 2121/2221 07022G32KT CAVOK TX03/2215Z TN00/2123Z"
    },
    {
      "icao": "BKPR",
      "alert": "OK",
      "vis_m": null,
      "fzfg": false,
      "metar_trigger": false,
      "taf_trigger": false,
      "metar": "",
      "taf": "TAF BKPR 211730Z 2118/2218 01008KT 9999 SCT020 BKN030"
    },
    {
      "icao": "EBCI",
      "alert": "OK",
      "vis_m": 9999,
      "fzfg": false,
      "metar_trigger": false,
      "taf_trigger": false,
      "metar": "METAR EBCI 212020Z 22016KT 9999 FEW005 BKN006 11/10 Q1022 TEMPO 3000 -RADZ BKN004",
      "taf": "TAF EBCI 211720Z 2118/2224 23010KT 9999 BKN012"
    },
    {
      "icao": "EDDB",
      "alert": "OK",
      "vis_m": 9999,
      "fzfg": false,
      "metar_trigger": false,
      "taf_trigger": false,
      "metar": "METAR EDDB 212020Z AUTO 24008KT 9999 FEW028 SCT043 06/04 Q1017 NOSIG",
      "taf": "TAF EDDB 211700Z 2118/2218 23008KT 9999 BKN030"
    },
    {
      "icao": "EDDH",
      "alert": "OK",
      "vis_m": 9000,
      "fzfg": false,
      "metar_trigger": false,
      "taf_trigger": false,
      "metar": "METAR EDDH 212020Z AUTO 24003KT 9000 BKN008 BKN012 OVC047 06/06 Q1015 TEMPO 4500 -RADZ",
      "taf": "TAF EDDH 211700Z 2118/2224 23007KT 9999 OVC011"
    },
    {
      "icao": "EDDK",
      "alert": "OK",
      "vis_m": 8000,
      "fzfg": false,
      "metar_trigger": false,
      "taf_trigger": false,
      "metar": "METAR EDDK 212020Z AUTO 20003KT 170V230 8000 -DZ FEW006 OVC015 10/08 Q1021 TEMPO BKN012",
      "taf": "TAF EDDK 211700Z 2118/2224 23007KT 9999 BKN015"
    },
    {
      "icao": "EDDN",
      "alert": "OK",
      "vis_m": 5000,
      "fzfg": false,
      "metar_trigger": false,
      "taf_trigger": false,
      "metar": "METAR EDDN 212020Z AUTO 21005KT 5000 -DZ BR BKN009 BKN014 07/06 Q1023 TEMPO SCT009 BKN012",
      "taf": "TAF EDDN 211700Z 2118/2218 23009KT 9999 SCT012 BKN020"
    },
    {
      "icao": "EDDS",
      "alert": "OK",
      "vis_m": 9999,
      "fzfg": false,
      "metar_trigger": false,
      "taf_trigger": false,
      "metar": "METAR EDDS 212020Z AUTO 20005KT 180V240 CAVOK 09/06 Q1025 NOSIG",
      "taf": "TAF EDDS 211700Z 2118/2218 22004KT 9999 BKN020"
    },
    {
      "icao": "EDFH",
      "alert": "OK",
      "vis_m": 3000,
      "fzfg": false,
      "metar_trigger": false,
      "taf_trigger": false,
      "metar": "METAR EDFH 212020Z 25013KT 210V280 3000 -RA BR BKN004 08/07 Q1022",
      "taf": "TAF EDFH 211700Z 2118/2218 26012KT 9999 SCT004 BKN010"
    },
    {
      "icao": "EDJA",
      "alert": "OK",
      "vis_m": 9999,
      "fzfg": false,
      "metar_trigger": false,
      "taf_trigger": false,
      "metar": "METAR EDJA 212020Z 24017G28KT 9999 -RA BKN010 OVC032 07/05 Q1026",
      "taf": "TAF EDJA 211700Z 2118/2203 24010KT 9999 SCT009 BKN025"
    },
    {
      "icao": "EDLW",
      "alert": "OK",
      "vis_m": 9999,
      "fzfg": false,
      "metar_trigger": false,
      "taf_trigger": false,
      "metar": "METAR EDLW 212020Z 22014KT 9999 FEW013 BKN042 09/08 Q1019",
      "taf": "TAF EDLW 211700Z 2118/2218 25012KT 9999 SCT008 BKN015"
    },
    {
      "icao": "EDNY",
      "alert": "OK",
      "vis_m": 9999,
      "fzfg": false,
      "metar_trigger": false,
      "taf_trigger": false,
      "metar": "METAR EDNY 212020Z 25005KT 220V280 9999 -RA SCT031 SCT050 OVC058 08/06 Q1028",
      "taf": "TAF EDNY 211700Z 2118/2203 24011KT 7000 OVC020"
    },
    {
      "icao": "EDSB",
      "alert": "OK",
      "vis_m": 9999,
      "fzfg": false,
      "metar_trigger": false,
      "taf_trigger": false,
      "metar": "METAR EDSB 212020Z 20013KT CAVOK 10/08 Q1026",
      "taf": "TAF EDSB 211700Z 2118/2218 21012KT 9999 BKN035"
    },
    {
      "icao": "EETN",
      "alert": "OK",
      "vis_m": 9000,
      "fzfg": false,
      "metar_trigger": false,
      "taf_trigger": false,
      "metar": "METAR EETN 212020Z 20014KT 9000 -SN BKN022 M04/M06 Q1003 TEMPO 2000 SN",
      "taf": "TAF EETN 211730Z 2118/2218 19014KT 9999 SCT015 BKN025"
    },
    {
      "icao": "EFTU",
      "alert": "OK",
      "vis_m": 2400,
      "fzfg": false,
      "metar_trigger": false,
      "taf_trigger": false,
      "metar": "METAR EFTU 212020Z AUTO 21009KT 2400 -SN OVC003 M00/M00 Q0998",
      "taf": "TAF EFTU 211732Z 2118/2218 22011KT 6000 -SN OVC003"
    },
    {
      "icao": "EGBB",
      "alert": "OK",
      "vis_m": 9999,
      "fzfg": false,
      "metar_trigger": false,
      "taf_trigger": false,
      "metar": "METAR EGBB 212020Z 21008KT 170V260 9999 BKN018 11/10 Q1016",
      "taf": ""
    },
    {
      "icao": "EGGP",
      "alert": "OK",
      "vis_m": 9999,
      "fzfg": false,
      "metar_trigger": false,
      "taf_trigger": false,
      "metar": "METAR EGGP 212020Z 23014KT 200V260 CAVOK 11/08 Q1013",
      "taf": "TAF EGGP 211702Z 2118/2218 23009KT 9999 SCT030"
    },
    {
      "icao": "EGGW",
      "alert": "OK",
      "vis_m": 9999,
      "fzfg": false,
      "metar_trigger": false,
      "taf_trigger": false,
      "metar": "METAR EGGW 212020Z AUTO 23010KT 9999 BKN012 11/10 Q1017",
      "taf": ""
    },
    {
      "icao": "EGKK",
      "alert": "OK",
      "vis_m": 9999,
      "fzfg": false,
      "metar_trigger": false,
      "taf_trigger": false,
      "metar": "METAR EGKK 212020Z 23010KT 9999 BKN005 12/11 Q1020",
      "taf": "TAF EGKK 211655Z 2118/2224 24012KT 9999 BKN007"
    },
    {
      "icao": "EGNM",
      "alert": "OK",
      "vis_m": 8000,
      "fzfg": false,
      "metar_trigger": false,
      "taf_trigger": false,
      "metar": "METAR EGNM 212020Z 23008KT 200V260 8000 -RA FEW005 BKN008 10/09 Q1011",
      "taf": "TAF EGNM 211703Z 2118/2218 25014KT 9999 SCT020"
    },
    {
      "icao": "EGPD",
      "alert": "OK",
      "vis_m": 3500,
      "fzfg": false,
      "metar_trigger": false,
      "taf_trigger": false,
      "metar": "METAR EGPD 212020Z 13003KT 3500 BR OVC003 06/06 Q1005 RERA REDZ",
      "taf": ""
    },
    {
      "icao": "EGPF",
      "alert": "OK",
      "vis_m": 9999,
      "fzfg": false,
      "metar_trigger": false,
      "taf_trigger": false,
      "metar": "METAR EGPF 212020Z AUTO 23013KT 9999 BKN016 BKN020 10/09 Q1007",
      "taf": "TAF EGPF 211657Z 2118/2218 22009KT 9999 BKN030"
    },
    {
      "icao": "EHBK",
      "alert": "OK",
      "vis_m": 9999,
      "fzfg": false,
      "metar_trigger": false,
      "taf_trigger": false,
      "metar": "METAR EHBK 212025Z AUTO 22014KT 9999 DZ SCT004 BKN005 OVC006 10/10 Q1020 NOSIG",
      "taf": "TAF EHBK 211716Z 2118/2224 24012KT 9999 BKN018"
    },
    {
      "icao": "EHEH",
      "alert": "OK",
      "vis_m": 2700,
      "fzfg": false,
      "metar_trigger": false,
      "taf_trigger": false,
      "metar": "METAR EHEH 211955Z AUTO 21009KT 190V250 2700 R21/P3000N -DZ FEW003 BKN004 OVC006 10/10 Q1019 REDZ YLO TEMPO 2000 DZRA BKN002 OVC005",
      "taf": "TAF EHEH 211731Z 2118/2224 24008KT 8000 SCT015 BKN020"
    },
    {
      "icao": "EKBI",
      "alert": "OK",
      "vis_m": 9999,
      "fzfg": false,
      "metar_trigger": false,
      "taf_trigger": false,
      "metar": "METAR EKBI 212020Z AUTO 24004KT 9999 BKN059/// 01/01 Q1013",
      "taf": "TAF EKBI 212027Z 2121/2221 23006KT CAVOK"
    },
    {
      "icao": "EKCH",
      "alert": "OK",
      "vis_m": 9999,
      "fzfg": false,
      "metar_trigger": false,
      "taf_trigger": false,
      "metar": "METAR EKCH 212020Z AUTO 26012KT 9999 NCD 02/00 Q1011 NOSIG",
      "taf": "TAF EKCH 212027Z 2121/2221 24010KT 9999 FEW012"
    },
    {
      "icao": "ENAL",
      "alert": "OK",
      "vis_m": 9999,
      "fzfg": false,
      "metar_trigger": false,
      "taf_trigger": false,
      "metar": "METAR ENAL 212020Z 16006KT 9999 -SN SCT006TCU BKN012 00/M00 Q1009",
      "taf": "TAF ENAL 211700Z 2118/2203 34008KT 9999 FEW010 SCT030"
    },
    {
      "icao": "ENBR",
      "alert": "OK",
      "vis_m": 9999,
      "fzfg": false,
      "metar_trigger": false,
      "taf_trigger": false,
      "metar": "METAR ENBR 212020Z 09004KT 060V120 CAVOK 03/M01 Q1009 RMK WIND 1200FT 06003KT",
      "taf": "TAF ENBR 211700Z 2118/2218 VRB03KT 9999 FEW020"
    },
    {
      "icao": "ENGM",
      "alert": "OK",
      "vis_m": 9999,
      "fzfg": false,
      "metar_trigger": false,
      "taf_trigger": false,
      "metar": "METAR ENGM 212020Z 34005KT 290V020 CAVOK M03/M08 Q1007 NOSIG",
      "taf": "TAF ENGM 211700Z 2118/2218 36003KT CAVOK"
    },
    {
      "icao": "ENHD",
      "alert": "OK",
      "vis_m": 9999,
      "fzfg": false,
      "metar_trigger": false,
      "taf_trigger": false,
      "metar": "METAR ENHD 212020Z 11004KT CAVOK M01/M02 Q1010",
      "taf": "TAF ENHD 211400Z 2115/2123 34012KT 9999 FEW040"
    },
    {
      "icao": "ENTC",
      "alert": "OK",
      "vis_m": 9999,
      "fzfg": false,
      "metar_trigger": false,
      "taf_trigger": false,
      "metar": "METAR ENTC 212020Z 19013KT 9999 SCT009 BKN055 M05/M07 Q0998 RMK WIND 2600FT 28017KT",
      "taf": ""
    },
    {
      "icao": "ENTO",
      "alert": "OK",
      "vis_m": 9999,
      "fzfg": false,
      "metar_trigger": false,
      "taf_trigger": false,
      "metar": "METAR ENTO 212020Z 28002KT CAVOK M01/M03 Q1008 NOSIG",
      "taf": "TAF ENTO 211700Z 2118/2218 34005KT CAVOK"
    },
    {
      "icao": "ENVA",
      "alert": "OK",
      "vis_m": 9999,
      "fzfg": false,
      "metar_trigger": false,
      "taf_trigger": false,
      "metar": "METAR ENVA 212020Z 29010KT 9999 FEW026 M00/M02 Q1006 RMK WIND 670FT 27010KT",
      "taf": ""
    },
    {
      "icao": "ENZV",
      "alert": "OK",
      "vis_m": 9999,
      "fzfg": false,
      "metar_trigger": false,
      "taf_trigger": false,
      "metar": "METAR ENZV 212020Z 17004KT CAVOK 00/M01 Q1010 NOSIG",
      "taf": "TAF ENZV 211700Z 2118/2218 33005KT 9999 SCT040"
    },
    {
      "icao": "EPGD",
      "alert": "OK",
      "vis_m": 9999,
      "fzfg": false,
      "metar_trigger": false,
      "taf_trigger": false,
      "metar": "METAR EPGD 212000Z 24011KT 9999 -DZ BKN003 03/02 Q1009",
      "taf": "TAF EPGD 211730Z 2118/2218 25012KT 7000 BKN007"
    },
    {
      "icao": "EPKK",
      "alert": "OK",
      "vis_m": 9000,
      "fzfg": false,
      "metar_trigger": false,
      "taf_trigger": false,
      "metar": "METAR EPKK 212000Z 20004KT 9000 BKN020 02/01 Q1020",
      "taf": "TAF EPKK 211730Z 2118/2218 25010KT 9999 OVC020"
    },
    {
      "icao": "EPKT",
      "alert": "OK",
      "vis_m": 8000,
      "fzfg": false,
      "metar_trigger": false,
      "taf_trigger": false,
      "metar": "METAR EPKT 212000Z 21009KT 8000 BKN020 02/M00 Q1019",
      "taf": "TAF EPKT 211730Z 2118/2218 22010KT 9999 BKN020"
    },
    {
      "icao": "EPLB",
      "alert": "OK",
      "vis_m": 7000,
      "fzfg": false,
      "metar_trigger": false,
      "taf_trigger": false,
      "metar": "METAR EPLB 212000Z 22009KT 7000 -SN FEW009 BKN012 OVC015 00/M01 Q1018",
      "taf": "TAF EPLB 211730Z 2118/2218 VRB02KT CAVOK"
    },
    {
      "icao": "EPMO",
      "alert": "OK",
      "vis_m": 1300,
      "fzfg": false,
      "metar_trigger": false,
      "taf_trigger": false,
      "metar": "METAR EPMO 212000Z 21010KT 1300 R08/1300N -DZ BR BKN002 02/02 Q1015",
      "taf": "TAF EPMO 211730Z 2118/2218 19007KT 3500 BR OVC006"
    },
    {
      "icao": "EPPO",
      "alert": "OK",
      "vis_m": 9999,
      "fzfg": false,
      "metar_trigger": false,
      "taf_trigger": false,
      "metar": "METAR EPPO 212000Z 24006KT 9999 BKN040 04/03 Q1015",
      "taf": "TAF EPPO 211730Z 2118/2218 26010KT 9999 BKN015"
    },
    {
      "icao": "EPRA",
      "alert": "OK",
      "vis_m": 9999,
      "fzfg": false,
      "metar_trigger": false,
      "taf_trigger": false,
      "metar": "METAR EPRA 212000Z 23009KT 9999 OVC008 02/01 Q1017",
      "taf": "TAF EPRA 211730Z 2118/2203 19010KT 8000 -RA BKN014 OVC023"
    },
    {
      "icao": "EPRZ",
      "alert": "OK",
      "vis_m": 9999,
      "fzfg": false,
      "metar_trigger": false,
      "taf_trigger": false,
      "metar": "METAR EPRZ 212000Z 22007KT 9999 -RA BKN020 02/M01 Q1020",
      "taf": "TAF EPRZ 211730Z 2118/2218 22010KT 9999 BKN030"
    },
    {
      "icao": "EPSC",
      "alert": "OK",
      "vis_m": 9999,
      "fzfg": false,
      "metar_trigger": false,
      "taf_trigger": false,
      "metar": "METAR EPSC 212000Z 24006KT 210V270 9999 FEW008 BKN010 05/05 Q1014",
      "taf": "TAF EPSC 211730Z 2118/2218 25010KT 7000 BKN010"
    },
    {
      "icao": "EPSY",
      "alert": "OK",
      "vis_m": 2000,
      "fzfg": false,
      "metar_trigger": false,
      "taf_trigger": false,
      "metar": "METAR EPSY 212000Z 20006KT 2000 BR OVC002 M00/M00 Q1013",
      "taf": "TAF EPSY 211730Z 2118/2203 19010KT 4000 BR OVC006"
    },
    {
      "icao": "EPWA",
      "alert": "OK",
      "vis_m": 6000,
      "fzfg": false,
      "metar_trigger": false,
      "taf_trigger": false,
      "metar": "METAR EPWA 212000Z 21006KT 6000 OVC004 02/02 Q1016 TEMPO 4000 DZ BR",
      "taf": "TAF EPWA 211730Z 2118/2218 19006KT 6000 BKN008 BKN012"
    },
    {
      "icao": "EPWR",
      "alert": "OK",
      "vis_m": 9999,
      "fzfg": false,
      "metar_trigger": false,
      "taf_trigger": false,
      "metar": "METAR EPWR 212000Z 24008KT 9999 FEW048 05/02 Q1018",
      "taf": "TAF EPWR 211730Z 2118/2218 25010KT 9999 SCT040"
    },
    {
      "icao": "ESGG",
      "alert": "OK",
      "vis_m": 9999,
      "fzfg": false,
      "metar_trigger": false,
      "taf_trigger": false,
      "metar": "METAR ESGG 212020Z 35007KT 9999 BKN009 00/00 Q1007",
      "taf": "TAF ESGG 211730Z 2118/2218 24010KT 0200 FG VV002"
    },
    {
      "icao": "ESKN",
      "alert": "OK",
      "vis_m": 9999,
      "fzfg": false,
      "metar_trigger": false,
      "taf_trigger": false,
      "metar": "METAR ESKN 212020Z 30010KT 9999 FEW003 BKN005 01/00 Q1001",
      "taf": ""
    },
    {
      "icao": "ESMS",
      "alert": "OK",
      "vis_m": 9999,
      "fzfg": false,
      "metar_trigger": false,
      "taf_trigger": false,
      "metar": "METAR ESMS 212020Z 26014KT CAVOK 02/02 Q1009",
      "taf": ""
    },
    {
      "icao": "ESSA",
      "alert": "OK",
      "vis_m": 3800,
      "fzfg": false,
      "metar_trigger": false,
      "taf_trigger": false,
      "metar": "METAR ESSA 212020Z 34011KT 3800 -SN BKN007 OVC011 M01/M01 Q1000 BECMG 9999 NSW SCT015",
      "taf": ""
    },
    {
      "icao": "EYKA",
      "alert": "OK",
      "vis_m": 2300,
      "fzfg": false,
      "metar_trigger": false,
      "taf_trigger": false,
      "metar": "METAR EYKA 212020Z 20007KT 160V240 2300 -SN -FZRA BR BKN010 OVC019 M02/M03 Q1011",
      "taf": "TAF EYKA 211711Z 2118/2218 20010KT 5000 SN OVC015"
    },
    {
      "icao": "EYPA",
      "alert": "OK",
      "vis_m": 3300,
      "fzfg": false,
      "metar_trigger": false,
      "taf_trigger": false,
      "metar": "METAR EYPA 212020Z 19017KT 3300 -FZRA BR OVC004 M00/M01 Q1006 REFZRA",
      "taf": "TAF EYPA 211722Z 2118/2218 24012G22KT 5000 SN -FZDZ OVC005"
    },
    {
      "icao": "EYVI",
      "alert": "OK",
      "vis_m": 9999,
      "fzfg": false,
      "metar_trigger": false,
      "taf_trigger": false,
      "metar": "METAR EYVI 212020Z 19016KT 9999 BKN021 M02/M07 Q1012 NOSIG",
      "taf": "TAF EYVI 211709Z 2118/2218 19013KT 5000 SN OVC015"
    },
    {
      "icao": "GCFV",
      "alert": "OK",
      "vis_m": 9999,
      "fzfg": false,
      "metar_trigger": false,
      "taf_trigger": false,
      "metar": "METAR GCFV 212000Z 01007KT CAVOK 18/16 Q1022",
      "taf": "TAF GCFV 212000Z 2121/2221 01010KT CAVOK TX25/2214Z TN18/2206Z"
    },
    {
      "icao": "GCLP",
      "alert": "OK",
      "vis_m": 9999,
      "fzfg": false,
      "metar_trigger": false,
      "taf_trigger": false,
      "metar": "METAR GCLP 212000Z 02016KT 9999 FEW020 18/15 Q1022 NOSIG",
      "taf": "TAF GCLP 212000Z 2121/2221 02015KT 9999 FEW020 TX26/2214Z TN18/2206Z"
    },
    {
      "icao": "GCTS",
      "alert": "OK",
      "vis_m": 9999,
      "fzfg": false,
      "metar_trigger": false,
      "taf_trigger": false,
      "metar": "METAR GCTS 212000Z 09007KT 050V140 CAVOK 18/14 Q1022 NOSIG",
      "taf": "TAF GCTS 212000Z 2121/2221 04010KT CAVOK TX28/2214Z TN18/2206Z"
    },
    {
      "icao": "GMAD",
      "alert": "OK",
      "vis_m": 9999,
      "fzfg": false,
      "metar_trigger": false,
      "taf_trigger": false,
      "metar": "METAR GMAD 212000Z 18005KT CAVOK 19/09 Q1021 NOSIG",
      "taf": "TAF GMAD 211700Z 2118/2224 20008KT CAVOK"
    },
    {
      "icao": "GMMN",
      "alert": "OK",
      "vis_m": 8000,
      "fzfg": false,
      "metar_trigger": false,
      "taf_trigger": false,
      "metar": "METAR GMMN 212000Z 04004KT 8000 NSC 16/12 Q1025 NOSIG",
      "taf": ""
    },
    {
      "icao": "GMMX",
      "alert": "OK",
      "vis_m": 9999,
      "fzfg": false,
      "metar_trigger": false,
      "taf_trigger": false,
      "metar": "METAR GMMX 212000Z 09005KT CAVOK 19/05 Q1025 NOSIG",
      "taf": "TAF GMMX 211700Z 2118/2224 04006KT 8000 NSC"
    },
    {
      "icao": "HEGN",
      "alert": "OK",
      "vis_m": 9999,
      "fzfg": false,
      "metar_trigger": false,
      "taf_trigger": false,
      "metar": "METAR HEGN 212000Z 29010KT CAVOK 19/06 Q1014 NOSIG",
      "taf": "TAF HEGN 211700Z 2118/2224 31014KT CAVOK"
    },
    {
      "icao": "HEMA",
      "alert": "OK",
      "vis_m": 9999,
      "fzfg": false,
      "metar_trigger": false,
      "taf_trigger": false,
      "metar": "METAR HEMA 212000Z 30007KT CAVOK 19/15 Q1012 NOSIG",
      "taf": "TAF HEMA 211700Z 2118/2224 30014KT CAVOK"
    },
    {
      "icao": "HESH",
      "alert": "OK",
      "vis_m": 9999,
      "fzfg": false,
      "metar_trigger": false,
      "taf_trigger": false,
      "metar": "METAR HESH 212000Z 35006KT CAVOK 20/11 Q1013 NOSIG",
      "taf": "TAF HESH 211700Z 2118/2224 35012KT CAVOK"
    },
    {
      "icao": "HESX",
      "alert": "OK",
      "vis_m": 9999,
      "fzfg": false,
      "metar_trigger": false,
      "taf_trigger": false,
      "metar": "METAR HESX 212000Z 03006KT CAVOK 13/07 Q1017 NOSIG",
      "taf": "TAF HESX 211700Z 2118/2224 30009KT CAVOK"
    },
    {
      "icao": "LATI",
      "alert": "OK",
      "vis_m": 9999,
      "fzfg": false,
      "metar_trigger": false,
      "taf_trigger": false,
      "metar": "METAR LATI 212020Z 00000KT CAVOK 06/01 Q1017 NOSIG",
      "taf": "TAF LATI 211700Z 2118/2218 32008KT CAVOK TX16/2212Z TN02/2205Z"
    },
    {
      "icao": "LBPD",
      "alert": "OK",
      "vis_m": 9999,
      "fzfg": false,
      "metar_trigger": false,
      "taf_trigger": false,
      "metar": "METAR LBPD 212000Z AUTO 29015KT 9999 -SHRA SCT027/// OVC043/// 03/00 Q1020 NOSIG",
      "taf": "TAF LBPD 211700Z 2118/2218 27014KT 9999 SCT020 OVC030"
    },
    {
      "icao": "LBSF",
      "alert": "OK",
      "vis_m": 9999,
      "fzfg": false,
      "metar_trigger": false,
      "taf_trigger": false,
      "metar": "METAR LBSF 212000Z AUTO 32008KT 290V350 9999 OVC024/// M03/M06 Q1021 NOSIG",
      "taf": "TAF LBSF 211700Z 2118/2218 30008KT 9999 SCT020 BKN035"
    },
    {
      "icao": "LBWN",
      "alert": "OK",
      "vis_m": 9999,
      "fzfg": false,
      "metar_trigger": false,
      "taf_trigger": false,
      "metar": "METAR LBWN 212000Z AUTO 31008KT 270V350 9999 OVC009/// 00/M00 Q1020 NOSIG",
      "taf": "TAF LBWN 211700Z 2118/2218 30012KT 9999 OVC008"
    },
    {
      "icao": "LCLK",
      "alert": "OK",
      "vis_m": 9999,
      "fzfg": false,
      "metar_trigger": false,
      "taf_trigger": false,
      "metar": "METAR LCLK 212000Z 29008KT 9999 SCT045 15/12 Q1014 NOSIG",
      "taf": "TAF LCLK 211730Z 2118/2218 26006KT 9999 FEW020 SCT030"
    },
    {
      "icao": "LCPH",
      "alert": "OK",
      "vis_m": 9999,
      "fzfg": false,
      "metar_trigger": false,
      "taf_trigger": false,
      "metar": "METAR LCPH 212000Z 36002KT 9999 FEW025 12/09 Q1015 NOSIG",
      "taf": "TAF LCPH 211730Z 2118/2218 34008KT 9999 FEW020 SCT040"
    },
    {
      "icao": "LEAL",
      "alert": "OK",
      "vis_m": 9999,
      "fzfg": false,
      "metar_trigger": false,
      "taf_trigger": false,
      "metar": "METAR LEAL 212000Z 27002KT CAVOK 11/07 Q1031 NOSIG",
      "taf": ""
    },
    {
      "icao": "LEBB",
      "alert": "OK",
      "vis_m": 9999,
      "fzfg": false,
      "metar_trigger": false,
      "taf_trigger": false,
      "metar": "METAR LEBB 212000Z 09003KT 060V120 CAVOK 09/06 Q1030 NOSIG",
      "taf": "TAF LEBB 211700Z 2118/2218 12005KT CAVOK TX16/2215Z TN05/2207Z"
    },
    {
      "icao": "LEBL",
      "alert": "OK",
      "vis_m": 9999,
      "fzfg": false,
      "metar_trigger": false,
      "taf_trigger": false,
      "metar": "METAR LEBL 212000Z 27004KT 240V310 CAVOK 12/08 Q1029 NOSIG",
      "taf": "TAF LEBL 211700Z 2118/2218 22010KT CAVOK TX19/2213Z TN06/2207Z"
    },
    {
      "icao": "LECH",
      "alert": "OK",
      "vis_m": 9000,
      "fzfg": false,
      "metar_trigger": false,
      "taf_trigger": false,
      "metar": "METAR LECH 212000Z AUTO 20004KT 160V240 9000 NCD 09/08 Q1030",
      "taf": ""
    },
    {
      "icao": "LEMD",
      "alert": "OK",
      "vis_m": 9999,
      "fzfg": false,
      "metar_trigger": false,
      "taf_trigger": false,
      "metar": "METAR LEMD 212000Z 00000KT CAVOK 10/01 Q1030 NOSIG",
      "taf": "TAF LEMD 211700Z 2118/2224 VRB04KT CAVOK TX20/2216Z TN01/2207Z"
    },
    {
      "icao": "LEMG",
      "alert": "OK",
      "vis_m": 9999,
      "fzfg": false,
      "metar_trigger": false,
      "taf_trigger": false,
      "metar": "METAR LEMG 212000Z VRB02KT CAVOK 10/08 Q1030 NOSIG",
      "taf": "TAF LEMG 211700Z 2118/2218 13010KT CAVOK TX19/2214Z TN10/2207Z"
    },
    {
      "icao": "LEVC",
      "alert": "OK",
      "vis_m": 9999,
      "fzfg": false,
      "metar_trigger": false,
      "taf_trigger": false,
      "metar": "METAR LEVC 212000Z 34003KT 9999 FEW007 12/09 Q1031 NOSIG",
      "taf": "TAF LEVC 211700Z 2118/2218 11010KT CAVOK TX21/2214Z TN06/2206Z"
    },
    {
      "icao": "LEXJ",
      "alert": "OK",
      "vis_m": 9999,
      "fzfg": false,
      "metar_trigger": false,
      "taf_trigger": false,
      "metar": "METAR LEXJ 212000Z 22003KT CAVOK 08/07 Q1030",
      "taf": "TAF LEXJ 212000Z 2121/2221 22005KT CAVOK TX15/2213Z TN05/2207Z"
    },
    {
      "icao": "LEZG",
      "alert": "OK",
      "vis_m": 9999,
      "fzfg": false,
      "metar_trigger": false,
      "taf_trigger": false,
      "metar": "METAR LEZG 212000Z 22006KT CAVOK 09/05 Q1030 NOSIG",
      "taf": "TAF LEZG 211700Z 2118/2218 32006KT CAVOK TX18/2214Z TN03/2206Z"
    },
    {
      "icao": "LEZL",
      "alert": "OK",
      "vis_m": 9999,
      "fzfg": false,
      "metar_trigger": false,
      "taf_trigger": false,
      "metar": "METAR LEZL 212000Z 03004KT CAVOK 16/09 Q1027 NOSIG",
      "taf": "TAF LEZL 212000Z 2121/2221 05007KT CAVOK TX22/2215Z TN08/2207Z"
    },
    {
      "icao": "LFBD",
      "alert": "OK",
      "vis_m": 9999,
      "fzfg": false,
      "metar_trigger": false,
      "taf_trigger": false,
      "metar": "METAR LFBD 212000Z AUTO 10002KT CAVOK 09/07 Q1031 BECMG 2000 BR",
      "taf": "TAF LFBD 211700Z 2118/2224 VRB03KT 9999 BKN025 TX16/2214Z TN04/2207Z"
    },
    {
      "icao": "LFLL",
      "alert": "OK",
      "vis_m": 9999,
      "fzfg": false,
      "metar_trigger": false,
      "taf_trigger": false,
      "metar": "METAR LFLL 212000Z 01004KT 280V040 9999 SCT040 09/06 Q1031 NOSIG",
      "taf": "TAF LFLL 211700Z 2118/2224 06005KT 9999 BKN040"
    },
    {
      "icao": "LFLS",
      "alert": "OK",
      "vis_m": 9999,
      "fzfg": false,
      "metar_trigger": false,
      "taf_trigger": false,
      "metar": "METAR LFLS 212000Z AUTO VRB02KT CAVOK 07/04 Q1030 NOSIG",
      "taf": "TAF LFLS 211400Z 2115/2215 01008KT 9999 BKN030"
    },
    {
      "icao": "LFMN",
      "alert": "OK",
      "vis_m": 9999,
      "fzfg": false,
      "metar_trigger": false,
      "taf_trigger": false,
      "metar": "METAR LFMN 212000Z 34004KT 310V040 CAVOK 11/06 Q1024 NOSIG",
      "taf": "TAF LFMN 212000Z 2121/2303 34010KT CAVOK"
    },
    {
      "icao": "LFOB",
      "alert": "OK",
      "vis_m": 9999,
      "fzfg": false,
      "metar_trigger": false,
      "taf_trigger": false,
      "metar": "METAR LFOB 212000Z AUTO 23009KT 200V270 9999 OVC007 12/12 Q1024 TEMPO 3000 RADZ OVC003",
      "taf": "TAF LFOB 211700Z 2118/2218 24012KT 9999 OVC015"
    },
    {
      "icao": "LFPO",
      "alert": "OK",
      "vis_m": 9999,
      "fzfg": false,
      "metar_trigger": false,
      "taf_trigger": false,
      "metar": "METAR LFPO 212000Z 23011KT 9999 OVC012 13/10 Q1025 NOSIG",
      "taf": "TAF LFPO 211700Z 2118/2224 24010KT 9999 BKN013"
    },
    {
      "icao": "LFSB",
      "alert": "OK",
      "vis_m": 9999,
      "fzfg": false,
      "metar_trigger": false,
      "taf_trigger": false,
      "metar": "METAR LFSB 212000Z AUTO 24005KT 9999 FEW029 OVC062 10/06 Q1029 NOSIG",
      "taf": "TAF LFSB 211700Z 2118/2218 24008KT 9999 FEW030 BKN045"
    },
    {
      "icao": "LGAV",
      "alert": "OK",
      "vis_m": 9999,
      "fzfg": false,
      "metar_trigger": false,
      "taf_trigger": false,
      "metar": "METAR LGAV 212020Z 28003KT 9999 FEW020 SCT040 09/07 Q1015 NOSIG",
      "taf": "TAF LGAV 211700Z 2118/2218 01010KT 9999 SCT025 SCT070"
    },
    {
      "icao": "LGTS",
      "alert": "OK",
      "vis_m": 9999,
      "fzfg": false,
      "metar_trigger": false,
      "taf_trigger": false,
      "metar": "METAR LGTS 212020Z 35015KT 9999 FEW025 08/00 Q1017 NOSIG",
      "taf": "TAF LGTS 211700Z 2118/2218 34013KT 9999 FEW030"
    },
    {
      "icao": "LHBP",
      "alert": "OK",
      "vis_m": 9999,
      "fzfg": false,
      "metar_trigger": false,
      "taf_trigger": false,
      "metar": "METAR LHBP 212000Z 24005KT 9999 SCT026 BKN035 03/01 Q1023 NOSIG",
      "taf": "TAF LHBP 211715Z 2118/2218 25005KT 9999 BKN020 BKN050"
    },
    {
      "icao": "LHDC",
      "alert": "OK",
      "vis_m": 5000,
      "fzfg": false,
      "metar_trigger": false,
      "taf_trigger": false,
      "metar": "METAR LHDC 211945Z AUTO 20007KT 5000 BR OVC043 02/02 Q1023",
      "taf": "TAF LHDC 211415Z 2115/2124 24006KT 8000 SCT004 BKN030"
    },
    {
      "icao": "LIBD",
      "alert": "OK",
      "vis_m": 9999,
      "fzfg": false,
      "metar_trigger": false,
      "taf_trigger": false,
      "metar": "METAR LIBD 212020Z 28010KT 9999 FEW030 09/05 Q1020",
      "taf": "TAF LIBD 211700Z 2118/2218 28013KT 9999 SCT030"
    },
    {
      "icao": "LIBG",
      "alert": "OK",
      "vis_m": null,
      "fzfg": false,
      "metar_trigger": false,
      "taf_trigger": false,
      "metar": "",
      "taf": "TAF LIBG 211700Z 2118/2203 34015KT 9999 SCT040"
    },
    {
      "icao": "LIBP",
      "alert": "OK",
      "vis_m": 9999,
      "fzfg": false,
      "metar_trigger": false,
      "taf_trigger": false,
      "metar": "METAR LIBP 212020Z AUTO 21004KT 9999 BKN160/// 05/04 Q1025",
      "taf": "TAF LIBP 211700Z 2118/2218 24006KT 9999 SCT030"
    },
    {
      "icao": "LIBR",
      "alert": "OK",
      "vis_m": 9999,
      "fzfg": false,
      "metar_trigger": false,
      "taf_trigger": false,
      "metar": "METAR LIBR 212020Z 33013KT 300V360 9999 FEW035 12/06 Q1018",
      "taf": "TAF LIBR 211700Z 2118/2218 32018G28KT 9999 SCT020"
    },
    {
      "icao": "LICA",
      "alert": "OK",
      "vis_m": 9999,
      "fzfg": false,
      "metar_trigger": false,
      "taf_trigger": false,
      "metar": "METAR LICA 212020Z AUTO VRB02KT 9999 -RA FEW023/// SCT078/// 11/09 Q1021",
      "taf": "TAF LICA 211700Z 2118/2218 28012KT 9999 FEW020"
    },
    {
      "icao": "LICC",
      "alert": "OK",
      "vis_m": 9999,
      "fzfg": false,
      "metar_trigger": false,
      "taf_trigger": false,
      "metar": "METAR LICC 212020Z 18003KT 160V220 9999 FEW060 11/07 Q1021",
      "taf": "TAF LICC 211700Z 2118/2218 24006KT 9999 BKN050"
    },
    {
      "icao": "LICJ",
      "alert": "OK",
      "vis_m": 9999,
      "fzfg": false,
      "metar_trigger": false,
      "taf_trigger": false,
      "metar": "METAR LICJ 212020Z 35012KT 9999 SCT030 14/08 Q1024",
      "taf": "TAF LICJ 211700Z 2118/2218 33014KT 9999 FEW030"
    },
    {
      "icao": "LIMC",
      "alert": "OK",
      "vis_m": 9999,
      "fzfg": false,
      "metar_trigger": false,
      "taf_trigger": false,
      "metar": "METAR LIMC 212020Z VRB02KT CAVOK 05/03 Q1023 NOSIG",
      "taf": "TAF LIMC 211700Z 2118/2224 VRB05KT CAVOK"
    },
    {
      "icao": "LIME",
      "alert": "OK",
      "vis_m": 9999,
      "fzfg": false,
      "metar_trigger": false,
      "taf_trigger": false,
      "metar": "METAR LIME 212020Z AUTO 02004KT 9999 NCD 07/04 Q1024",
      "taf": "TAF LIME 211700Z 2118/2218 23006KT CAVOK"
    },
    {
      "icao": "LIMF",
      "alert": "OK",
      "vis_m": 9999,
      "fzfg": false,
      "metar_trigger": false,
      "taf_trigger": false,
      "metar": "METAR LIMF 212020Z 32003KT 270V060 CAVOK 08/02 Q1023",
      "taf": "TAF LIMF 211700Z 2118/2218 VRB05KT CAVOK"
    },
    {
      "icao": "LIMJ",
      "alert": "OK",
      "vis_m": 9999,
      "fzfg": false,
      "metar_trigger": false,
      "taf_trigger": false,
      "metar": "METAR LIMJ 212020Z 04003KT 360V080 CAVOK 11/08 Q1024",
      "taf": "TAF LIMJ 211700Z 2118/2218 VRB05KT CAVOK"
    },
    {
      "icao": "LIPE",
      "alert": "OK",
      "vis_m": 9999,
      "fzfg": false,
      "metar_trigger": false,
      "taf_trigger": false,
      "metar": "METAR LIPE 212020Z 10006KT CAVOK 06/03 Q1024",
      "taf": "TAF LIPE 211700Z 2118/2218 VRB05KT CAVOK"
    },
    {
      "icao": "LIPH",
      "alert": "OK",
      "vis_m": 9999,
      "fzfg": false,
      "metar_trigger": false,
      "taf_trigger": false,
      "metar": "METAR LIPH 212020Z 25004KT CAVOK 07/06 Q1024",
      "taf": "TAF LIPH 211700Z 2118/2218 22006KT 9999 FEW040"
    },
    {
      "icao": "LIPQ",
      "alert": "OK",
      "vis_m": 9999,
      "fzfg": false,
      "metar_trigger": false,
      "taf_trigger": false,
      "metar": "METAR LIPQ 212020Z AUTO 10002KT 9999 NCD 04/03 Q1024",
      "taf": "TAF LIPQ 211700Z 2118/2218 VRB06KT 9999 FEW030"
    },
    {
      "icao": "LIPR",
      "alert": "OK",
      "vis_m": 9999,
      "fzfg": false,
      "metar_trigger": false,
      "taf_trigger": false,
      "metar": "METAR LIPR 212020Z VRB02KT CAVOK 05/03 Q1024",
      "taf": "TAF LIPR 211700Z 2118/2218 VRB06KT CAVOK"
    },
    {
      "icao": "LIPX",
      "alert": "OK",
      "vis_m": 9999,
      "fzfg": false,
      "metar_trigger": false,
      "taf_trigger": false,
      "metar": "METAR LIPX 212020Z 36003KT 330V050 CAVOK 07/04 Q1024",
      "taf": "TAF LIPX 211700Z 2118/2218 VRB05KT CAVOK"
    },
    {
      "icao": "LIPY",
      "alert": "OK",
      "vis_m": 9999,
      "fzfg": false,
      "metar_trigger": false,
      "taf_trigger": false,
      "metar": "METAR LIPY 212020Z AUTO 19004KT 9999 NCD 05/04 Q1024",
      "taf": "TAF LIPY 211700Z 2118/2218 VRB05KT CAVOK"
    },
    {
      "icao": "LIPZ",
      "alert": "OK",
      "vis_m": 9999,
      "fzfg": false,
      "metar_trigger": false,
      "taf_trigger": false,
      "metar": "METAR LIPZ 212020Z 23007KT CAVOK 06/06 Q1024 NOSIG",
      "taf": "TAF LIPZ 211700Z 2118/2224 VRB05KT CAVOK"
    },
    {
      "icao": "LIRF",
      "alert": "OK",
      "vis_m": 9999,
      "fzfg": false,
      "metar_trigger": false,
      "taf_trigger": false,
      "metar": "METAR LIRF 212020Z 35003KT 310V030 CAVOK 08/04 Q1023 NOSIG",
      "taf": "TAF LIRF 211700Z 2118/2224 01006KT CAVOK"
    },
    {
      "icao": "LIRN",
      "alert": "OK",
      "vis_m": 9999,
      "fzfg": false,
      "metar_trigger": false,
      "taf_trigger": false,
      "metar": "METAR LIRN 212020Z 35004KT 300V020 CAVOK 10/05 Q1022 NOSIG",
      "taf": "TAF LIRN 211700Z 2118/2218 29008KT 9999 FEW040"
    },
    {
      "icao": "LIRP",
      "alert": "OK",
      "vis_m": 9999,
      "fzfg": false,
      "metar_trigger": false,
      "taf_trigger": false,
      "metar": "METAR LIRP 212015Z 30001KT CAVOK 07/07 Q1024 NOSIG",
      "taf": "TAF LIRP 211700Z 2118/2218 27005KT CAVOK"
    },
    {
      "icao": "LIRZ",
      "alert": "OK",
      "vis_m": 9999,
      "fzfg": false,
      "metar_trigger": false,
      "taf_trigger": false,
      "metar": "METAR LIRZ 212020Z AUTO 36004KT 260V020 9999 NCD 06/03 Q1024",
      "taf": "TAF LIRZ 211700Z 2118/2218 VRB05KT 9999 FEW030"
    },
    {
      "icao": "LJLJ",
      "alert": "OK",
      "vis_m": 9999,
      "fzfg": false,
      "metar_trigger": false,
      "taf_trigger": false,
      "metar": "METAR LJLJ 212000Z VRB01KT 9999 MIFG FEW060 M01/M01 Q1024 NOSIG",
      "taf": "TAF LJLJ 211700Z 2118/2218 VRB02KT 9999 FEW050"
    },
    {
      "icao": "LKMT",
      "alert": "OK",
      "vis_m": 9000,
      "fzfg": false,
      "metar_trigger": false,
      "taf_trigger": false,
      "metar": "METAR LKMT 212000Z 22012KT 9000 NSC 01/00 Q1021 NOSIG",
      "taf": "TAF LKMT 211700Z 2118/2218 23010KT 6000 OVC036"
    },
    {
      "icao": "LKPR",
      "alert": "OK",
      "vis_m": 9999,
      "fzfg": false,
      "metar_trigger": false,
      "taf_trigger": false,
      "metar": "METAR LKPR 212000Z 22013KT 9999 FEW045 06/03 Q1021 NOSIG",
      "taf": "TAF LKPR 212000Z 2121/2303 23011KT 9999 SCT030"
    },
    {
      "icao": "LLBG",
      "alert": "OK",
      "vis_m": 9999,
      "fzfg": false,
      "metar_trigger": false,
      "taf_trigger": false,
      "metar": "METAR LLBG 212020Z 15006KT 9999 FEW025 SCT040 15/12 Q1016 NOSIG",
      "taf": "TAF LLBG 211713Z 2118/2218 VRB04KT 9999 SCT030"
    },
    {
      "icao": "LMML",
      "alert": "OK",
      "vis_m": 9999,
      "fzfg": false,
      "metar_trigger": false,
      "taf_trigger": false,
      "metar": "METAR LMML 212015Z 30016KT 9999 FEW018 13/10 Q1022 NOSIG",
      "taf": "TAF LMML 211700Z 2118/2218 31015KT 9999 FEW018"
    },
    {
      "icao": "LOWW",
      "alert": "OK",
      "vis_m": 9999,
      "fzfg": false,
      "metar_trigger": false,
      "taf_trigger": false,
      "metar": "METAR LOWW 212020Z 30013KT 9999 FEW019 06/02 Q1023 NOSIG",
      "taf": "TAF LOWW 212015Z 2121/2303 29007KT 9999 BKN040 TX10/2302Z TN05/2202Z"
    },
    {
      "icao": "LPFR",
      "alert": "OK",
      "vis_m": 9999,
      "fzfg": false,
      "metar_trigger": false,
      "taf_trigger": false,
      "metar": "METAR LPFR 212000Z 03005KT CAVOK 16/05 Q1027",
      "taf": "TAF LPFR 211700Z 2118/2218 12008KT CAVOK"
    },
    {
      "icao": "LPMA",
      "alert": "OK",
      "vis_m": 9999,
      "fzfg": false,
      "metar_trigger": false,
      "taf_trigger": false,
      "metar": "METAR LPMA 212000Z 01011KT 9999 FEW016 16/11 Q1026",
      "taf": "TAF LPMA 211700Z 2118/2218 03015KT 9999 SCT015"
    },
    {
      "icao": "LPPR",
      "alert": "OK",
      "vis_m": 9999,
      "fzfg": false,
      "metar_trigger": false,
      "taf_trigger": false,
      "metar": "METAR LPPR 212000Z 01003KT CAVOK 09/08 Q1029",
      "taf": "TAF LPPR 211700Z 2118/2218 31005KT CAVOK"
    },
    {
      "icao": "LPPS",
      "alert": "OK",
      "vis_m": 9999,
      "fzfg": false,
      "metar_trigger": false,
      "taf_trigger": false,
      "metar": "METAR LPPS 212000Z 03006KT 340V070 9999 SCT015 15/11 Q1026",
      "taf": "TAF LPPS 211700Z 2118/2224 06010KT 9999 SCT015"
    },
    {
      "icao": "LPPT",
      "alert": "OK",
      "vis_m": 9999,
      "fzfg": false,
      "metar_trigger": false,
      "taf_trigger": false,
      "metar": "METAR LPPT 212000Z 35005KT CAVOK 16/09 Q1028",
      "taf": "TAF LPPT 211700Z 2118/2224 02007KT CAVOK"
    },
    {
      "icao": "LQBK",
      "alert": "OK",
      "vis_m": 9999,
      "fzfg": false,
      "metar_trigger": false,
      "taf_trigger": false,
      "metar": "METAR LQBK 212000Z 28003KT 230V310 9999 BKN030 03/01 Q1026 NOSIG",
      "taf": "TAF LQBK 211700Z 2118/2218 19005KT 9999 SCT040 TX12/2213Z TNM00/2205Z"
    },
    {
      "icao": "LQSA",
      "alert": "OK",
      "vis_m": 9999,
      "fzfg": false,
      "metar_trigger": false,
      "taf_trigger": false,
      "metar": "METAR LQSA 212000Z 30004KT 9999 FEW020 BKN035 01/01 Q1024 NOSIG",
      "taf": "TAF LQSA 211700Z 2118/2218 33005KT 9999 BKN030 TX09/2214Z TNM01/2204Z"
    },
    {
      "icao": "LQTZ",
      "alert": "OK",
      "vis_m": 4000,
      "fzfg": false,
      "metar_trigger": false,
      "taf_trigger": false,
      "metar": "METAR LQTZ 212000Z 31003KT 4000 -SN BR FEW012 BKN020 OVC030 01/01 Q1025",
      "taf": "TAF LQTZ 211700Z 2118/2218 30005KT 9999 SCT020 BKN035 TX12/2213Z TNM01/2206Z"
    },
    {
      "icao": "LRBC",
      "alert": "OK",
      "vis_m": 9999,
      "fzfg": false,
      "metar_trigger": false,
      "taf_trigger": false,
      "metar": "METAR LRBC 212000Z 16006KT 9999 -SN OVC024 M02/M04 Q1024",
      "taf": "TAF LRBC 211700Z 2118/2203 VRB04KT 7000 BKN040"
    },
    {
      "icao": "LRBS",
      "alert": "OK",
      "vis_m": 3000,
      "fzfg": false,
      "metar_trigger": false,
      "taf_trigger": false,
      "metar": "METAR LRBS 212000Z 32003KT 300V360 3000 -SN BR BKN007 OVC017 M02/M02 Q1024 NOSIG",
      "taf": "TAF LRBS 211700Z 2118/2218 06010KT 3000 -SN BR BKN015 OVC030"
    },
    {
      "icao": "LRBV",
      "alert": "OK",
      "vis_m": 3500,
      "fzfg": false,
      "metar_trigger": false,
      "taf_trigger": false,
      "metar": "METAR LRBV 212000Z 26004KT 3500 SG FEW015 BKN030 OVC040 M03/M03 Q1021",
      "taf": "TAF LRBV 211700Z 2118/2203 VRB04KT 9999 BKN030"
    },
    {
      "icao": "LRCL",
      "alert": "OK",
      "vis_m": 9999,
      "fzfg": false,
      "metar_trigger": false,
      "taf_trigger": false,
      "metar": "METAR LRCL 212000Z 00000KT 9999 OVC028 00/M01 Q1023",
      "taf": "TAF LRCL 211700Z 2118/2203 VRB04KT 9999 OVC035"
    },
    {
      "icao": "LRCV",
      "alert": "OK",
      "vis_m": 9999,
      "fzfg": false,
      "metar_trigger": false,
      "taf_trigger": false,
      "metar": "METAR LRCV 212000Z 26007KT 9999 OVC019 M02/M03 Q1024",
      "taf": "TAF LRCV 211700Z 2118/2203 VRB04KT 9999 OVC030"
    },
    {
      "icao": "LRIA",
      "alert": "OK",
      "vis_m": 9999,
      "fzfg": false,
      "metar_trigger": false,
      "taf_trigger": false,
      "metar": "METAR LRIA 212000Z 11005KT 9999 OVC047 M01/M05 Q1024",
      "taf": "TAF LRIA 211700Z 2118/2203 08005KT CAVOK"
    },
    {
      "icao": "LROP",
      "alert": "OK",
      "vis_m": 3500,
      "fzfg": false,
      "metar_trigger": false,
      "taf_trigger": false,
      "metar": "METAR LROP 212000Z 36003KT 330V040 3500 -SN BR OVC008 M01/M01 Q1024 BECMG 5000",
      "taf": "TAF LROP 211700Z 2118/2218 06010KT 3000 -SN BR BKN015 OVC030"
    },
    {
      "icao": "LRSB",
      "alert": "OK",
      "vis_m": 1500,
      "fzfg": false,
      "metar_trigger": false,
      "taf_trigger": false,
      "metar": "METAR LRSB 212000Z 14002KT 1500 -SN BR SCT009 OVC014 M00/M01 Q1022",
      "taf": "TAF LRSB 211700Z 2118/2218 VRB04KT 3000 -SN BR BKN010 OVC030"
    },
    {
      "icao": "LRSM",
      "alert": "OK",
      "vis_m": 9999,
      "fzfg": false,
      "metar_trigger": false,
      "taf_trigger": false,
      "metar": "METAR LRSM 212000Z AUTO 22005KT 9999 -DZ OVC010/// 03/01 Q1023",
      "taf": ""
    },
    {
      "icao": "LRSV",
      "alert": "OK",
      "vis_m": 9999,
      "fzfg": false,
      "metar_trigger": false,
      "taf_trigger": false,
      "metar": "METAR LRSV 212000Z 15007KT 9999 SCT038 M04/M06 Q1020",
      "taf": "TAF LRSV 211700Z 2118/2203 13008KT 9999 SCT040"
    },
    {
      "icao": "LRTM",
      "alert": "OK",
      "vis_m": 3800,
      "fzfg": false,
      "metar_trigger": false,
      "taf_trigger": false,
      "metar": "METAR LRTM 212000Z AUTO 25004KT 3800 -SN BR NCD 00/M00 Q1023",
      "taf": "TAF LRTM 211400Z 2115/2124 VRB04KT 9999 SCT020 BKN030"
    },
    {
      "icao": "LRTR",
      "alert": "OK",
      "vis_m": 7000,
      "fzfg": false,
      "metar_trigger": false,
      "taf_trigger": false,
      "metar": "METAR LRTR 212000Z 23004KT 7000 BKN010 BKN016 02/02 Q1024",
      "taf": "TAF LRTR 211700Z 2118/2218 VRB04KT 9999 BKN025"
    },
    {
      "icao": "LTAC",
      "alert": "OK",
      "vis_m": 9999,
      "fzfg": false,
      "metar_trigger": false,
      "taf_trigger": false,
      "metar": "METAR LTAC 212020Z VRB02KT 9999 SCT040 BKN100 05/02 Q1011 NOSIG RMK RWY21C 07003KT 040V100 RWY03L 06002KT RWY21R 06003KT RWY03R 16003KT 130V200 RWY21L 14005KT",
      "taf": "TAF LTAC 211640Z 2118/2218 VRB02KT 9999 SCT040 BKN100"
    },
    {
      "icao": "LTFM",
      "alert": "OK",
      "vis_m": 8000,
      "fzfg": false,
      "metar_trigger": false,
      "taf_trigger": false,
      "metar": "METAR LTFM 212020Z 01016KT 8000 -SHRA BKN009 BKN020 08/06 Q1014 NOSIG RMK RWY17L 01014KT RWY34L 36016KT RWY16R 01014KT RWY36 01015KT RWY18 02014KT",
      "taf": "TAF LTFM 211640Z 2118/2224 01018KT 9999 BKN008 BKN020"
    },
    {
      "icao": "LUKK",
      "alert": "OK",
      "vis_m": 9999,
      "fzfg": false,
      "metar_trigger": false,
      "taf_trigger": false,
      "metar": "METAR LUKK 212000Z 06005KT 020V080 CAVOK M02/M06 Q1024 NOSIG",
      "taf": "TAF LUKK 211728Z 2118/2218 VRB05KT 9999 BKN040"
    },
    {
      "icao": "LWOH",
      "alert": "OK",
      "vis_m": 9999,
      "fzfg": false,
      "metar_trigger": false,
      "taf_trigger": false,
      "metar": "METAR LWOH 211950Z 32008KT 290V350 9999 SCT050 04/M01 Q1017",
      "taf": "TAF LWOH 212022Z 2121/2221 34010KT 9999 BKN050"
    },
    {
      "icao": "LWSK",
      "alert": "OK",
      "vis_m": 9999,
      "fzfg": false,
      "metar_trigger": false,
      "taf_trigger": false,
      "metar": "METAR LWSK 211950Z 02012KT 9999 SCT030 BKN070 02/M01 Q1022 NOSIG",
      "taf": "TAF LWSK 212022Z 2121/2221 02014KT 9999 SCT030 BKN070"
    },
    {
      "icao": "LYBE",
      "alert": "OK",
      "vis_m": 8000,
      "fzfg": false,
      "metar_trigger": false,
      "taf_trigger": false,
      "metar": "METAR LYBE 212000Z 24005KT 8000 -RASN BKN020 02/00 Q1025 TEMPO 3000 BKN005",
      "taf": "TAF LYBE 211700Z 2118/2218 28008KT 9999 BKN014 BKN027 TX09/2213Z TN00/2204Z"
    },
    {
      "icao": "LYNI",
      "alert": "OK",
      "vis_m": 9999,
      "fzfg": false,
      "metar_trigger": false,
      "taf_trigger": false,
      "metar": "METAR LYNI 212000Z VRB02KT 9999 -SN SCT017 BKN030 OVC080 M00/M02 Q1024 NOSIG",
      "taf": "TAF LYNI 211700Z 2118/2218 35006KT 9999 SCT015 BKN040 TX05/2212Z TN00/2205Z"
    },
    {
      "icao": "LYPG",
      "alert": "OK",
      "vis_m": 9999,
      "fzfg": false,
      "metar_trigger": false,
      "taf_trigger": false,
      "metar": "METAR LYPG 212000Z 36012G23KT 9999 FEW090 10/M01 Q1019 NOSIG",
      "taf": "TAF LYPG 211700Z 2118/2218 02015KT 9999 SCT080 TX16/2213Z TN07/2205Z"
    },
    {
      "icao": "LZIB",
      "alert": "OK",
      "vis_m": 7000,
      "fzfg": false,
      "metar_trigger": false,
      "taf_trigger": false,
      "metar": "METAR LZIB 212000Z 06003KT 7000 FEW010 00/M00 Q1024 NOSIG",
      "taf": "TAF LZIB 211715Z 2118/2218 30004KT 6000 FEW010 SCT040"
    },
    {
      "icao": "LZKZ",
      "alert": "OK",
      "vis_m": 9999,
      "fzfg": false,
      "metar_trigger": false,
      "taf_trigger": false,
      "metar": "METAR LZKZ 212000Z 00000KT CAVOK 01/M03 Q1022 NOSIG",
      "taf": ""
    },
    {
      "icao": "LZTT",
      "alert": "OK",
      "vis_m": 9999,
      "fzfg": false,
      "metar_trigger": false,
      "taf_trigger": false,
      "metar": "METAR LZTT 212000Z 33006KT 9999 FEW018 BKN063 01/M02 Q1019",
      "taf": "TAF LZTT 211715Z 2118/2218 22004KT 9999 FEW020 BKN050"
    },
    {
      "icao": "OEJN",
      "alert": "OK",
      "vis_m": 9999,
      "fzfg": false,
      "metar_trigger": false,
      "taf_trigger": false,
      "metar": "METAR OEJN 212000Z 36003KT CAVOK 26/18 Q1011 NOSIG",
      "taf": "TAF OEJN 211700Z 2118/2224 VRB03KT 7000 NSC"
    },
    {
      "icao": "OEMA",
      "alert": "OK",
      "vis_m": 9999,
      "fzfg": false,
      "metar_trigger": false,
      "taf_trigger": false,
      "metar": "METAR OEMA 212000Z VRB03KT CAVOK 26/M09 Q1016 NOSIG",
      "taf": "TAF OEMA 211700Z 2118/2224 10008KT CAVOK"
    },
    {
      "icao": "OJAI",
      "alert": "OK",
      "vis_m": 5000,
      "fzfg": false,
      "metar_trigger": false,
      "taf_trigger": false,
      "metar": "METAR OJAI 212000Z 28005KT 5000 HZ NSC 12/09 Q1017 NOSIG",
      "taf": "TAF OJAI 211700Z 2118/2224 27012KT 5000 HZ FEW035"
    },
    {
      "icao": "OMAA",
      "alert": "OK",
      "vis_m": 9999,
      "fzfg": false,
      "metar_trigger": false,
      "taf_trigger": false,
      "metar": "METAR OMAA 212000Z 32006KT CAVOK 23/18 Q1013 NOSIG",
      "taf": "TAF OMAA 211700Z 2118/2300 34008KT 8000 NSC"
    },
    {
      "icao": "OMDB",
      "alert": "OK",
      "vis_m": 9999,
      "fzfg": false,
      "metar_trigger": false,
      "taf_trigger": false,
      "metar": "METAR OMDB 212000Z 02005KT 320V080 CAVOK 24/19 Q1013 NOSIG",
      "taf": "TAF OMDB 211700Z 2118/2300 18005KT 8000 NSC"
    },
    {
      "icao": "UAAA",
      "alert": "OK",
      "vis_m": 9999,
      "fzfg": false,
      "metar_trigger": false,
      "taf_trigger": false,
      "metar": "METAR UAAA 212000Z 35003MPS 290V010 9999 SCT018 BKN100 M00/M03 Q1027 NOSIG",
      "taf": "TAF UAAA 211702Z 2118/2218 21003MPS 3100 BR FU SCT011 BKN100 TX08/2209Z TNM03/2201Z"
    },
    {
      "icao": "UBBB",
      "alert": "OK",
      "vis_m": 9999,
      "fzfg": false,
      "metar_trigger": false,
      "taf_trigger": false,
      "metar": "METAR UBBB 212000Z 32018KT 9999 BKN028 07/05 Q1021 NOSIG",
      "taf": "TAF UBBB 211700Z 2118/2218 32020G30KT 9999 SCT012 BKN025 TX08/2210Z TN04/2201Z"
    },
    {
      "icao": "UDSG",
      "alert": "OK",
      "vis_m": 8000,
      "fzfg": false,
      "metar_trigger": false,
      "taf_trigger": false,
      "metar": "METAR UDSG 212000Z 02002KT 8000 NSC M03/M04 Q1021 NOSIG",
      "taf": "TAF UDSG 211700Z 2118/2218 VRB06KT 9999 FEW040"
    },
    {
      "icao": "UDYZ",
      "alert": "OK",
      "vis_m": 9999,
      "fzfg": false,
      "metar_trigger": false,
      "taf_trigger": false,
      "metar": "METAR UDYZ 212000Z 05007KT 9999 NSC 05/M02 Q1019 NOSIG",
      "taf": "TAF UDYZ 211700Z 2118/2218 VRB04KT 6000 FEW040"
    },
    {
      "icao": "UGKO",
      "alert": "OK",
      "vis_m": 9999,
      "fzfg": false,
      "metar_trigger": false,
      "taf_trigger": false,
      "metar": "METAR UGKO 212000Z 10010KT CAVOK 15/M03 Q1010 NOSIG",
      "taf": "TAF UGKO 211700Z 2118/2218 08017KT CAVOK TX18/2212Z TN10/2120Z"
    }
  ]
}