{
  "ts_utc": "2025-12-28T15:15:32Z",
  "threshold_m": 150,
  "source": "stations_override.txt (ICAO list) + aviationweather.gov (METAR/TAF raw)",
  "station_count": 159,
  "stations": [
    {
      "icao": "BIKF",
      "alert": "OK",
      "vis_m": 9999,
      "fzfg": false,
      "metar_trigger": false,
      "taf_trigger": false,
      "metar": "METAR BIKF 281500Z 24010KT 9999 BKN013 BKN033 07/06 Q1036",
      "taf": "TAF BIKF 281354Z 2815/2915 25008KT 8000 -DZRA SCT007 BKN014 OVC024 TX06/2815Z TN03/2911Z"
    },
    {
      "icao": "BKPR",
      "alert": "OK",
      "vis_m": 9999,
      "fzfg": false,
      "metar_trigger": false,
      "taf_trigger": false,
      "metar": "METAR BKPR 281500Z 34011KT 9999 FEW050 02/M06 Q1019 NOSIG",
      "taf": "TAF BKPR 281130Z 2812/2912 01012KT CAVOK"
    },
    {
      "icao": "EBCI",
      "alert": "OK",
      "vis_m": 9999,
      "fzfg": false,
      "metar_trigger": false,
      "taf_trigger": false,
      "metar": "METAR EBCI 281450Z 05010KT CAVOK 03/M01 Q1028 NOSIG",
      "taf": "TAF EBCI 281100Z 2812/2918 06006KT CAVOK"
    },
    {
      "icao": "EDDB",
      "alert": "OK",
      "vis_m": 9999,
      "fzfg": false,
      "metar_trigger": false,
      "taf_trigger": false,
      "metar": "METAR EDDB 281450Z AUTO 27006KT CAVOK 00/M02 Q1028 NOSIG",
      "taf": "TAF EDDB 281100Z 2812/2912 28007KT CAVOK"
    },
    {
      "icao": "EDDH",
      "alert": "OK",
      "vis_m": 9999,
      "fzfg": false,
      "metar_trigger": false,
      "taf_trigger": false,
      "metar": "METAR EDDH 281450Z AUTO 23003KT CAVOK 02/M00 Q1029 NOSIG",
      "taf": "TAF EDDH 281100Z 2812/2918 25002KT CAVOK"
    },
    {
      "icao": "EDDK",
      "alert": "OK",
      "vis_m": 9999,
      "fzfg": false,
      "metar_trigger": false,
      "taf_trigger": false,
      "metar": "METAR EDDK 281450Z AUTO 19001KT CAVOK 03/M00 Q1030 NOSIG",
      "taf": ""
    },
    {
      "icao": "EDDN",
      "alert": "OK",
      "vis_m": 9999,
      "fzfg": false,
      "metar_trigger": false,
      "taf_trigger": false,
      "metar": "METAR EDDN 281450Z AUTO 33003KT CAVOK 03/M03 Q1028 NOSIG",
      "taf": "TAF EDDN 281100Z 2812/2912 VRB03KT CAVOK"
    },
    {
      "icao": "EDDS",
      "alert": "OK",
      "vis_m": 9999,
      "fzfg": false,
      "metar_trigger": false,
      "taf_trigger": false,
      "metar": "METAR EDDS 281450Z AUTO 08003KT 050V120 CAVOK 03/M02 Q1026 NOSIG",
      "taf": "TAF EDDS 281100Z 2812/2912 06005KT CAVOK"
    },
    {
      "icao": "EDFH",
      "alert": "OK",
      "vis_m": 9999,
      "fzfg": false,
      "metar_trigger": false,
      "taf_trigger": false,
      "metar": "METAR EDFH 281450Z 08008KT CAVOK 02/M04 Q1027",
      "taf": "TAF EDFH 281100Z 2812/2912 09008KT CAVOK"
    },
    {
      "icao": "EDJA",
      "alert": "OK",
      "vis_m": 9999,
      "fzfg": false,
      "metar_trigger": false,
      "taf_trigger": false,
      "metar": "METAR EDJA 281450Z 06011KT 9999 OVC004 M03/M03 Q1025",
      "taf": "TAF EDJA 281400Z 2815/2824 06010KT 9000 OVC003"
    },
    {
      "icao": "EDLW",
      "alert": "OK",
      "vis_m": 200,
      "fzfg": true,
      "metar_trigger": false,
      "taf_trigger": false,
      "metar": "METAR EDLW 281450Z 02004KT 0200 R06/0275N FZFG VV/// M02/M02 Q1031",
      "taf": ""
    },
    {
      "icao": "EDNY",
      "alert": "OK",
      "vis_m": 9999,
      "fzfg": false,
      "metar_trigger": false,
      "taf_trigger": false,
      "metar": "METAR EDNY 281450Z 02010KT CAVOK M00/M03 Q1025",
      "taf": "TAF EDNY 281400Z 2815/2824 04008KT CAVOK"
    },
    {
      "icao": "EDSB",
      "alert": "OK",
      "vis_m": 9999,
      "fzfg": false,
      "metar_trigger": false,
      "taf_trigger": false,
      "metar": "METAR EDSB 281450Z 04017KT CAVOK 04/M02 Q1026",
      "taf": "TAF EDSB 281100Z 2812/2912 VRB03KT CAVOK"
    },
    {
      "icao": "EETN",
      "alert": "OK",
      "vis_m": 9999,
      "fzfg": false,
      "metar_trigger": false,
      "taf_trigger": false,
      "metar": "METAR EETN 281450Z 33008KT 9999 SCT032 00/M08 Q1008 NOSIG",
      "taf": "TAF EETN 281130Z 2812/2912 33016KT 9999 FEW030"
    },
    {
      "icao": "EFTU",
      "alert": "OK",
      "vis_m": 9999,
      "fzfg": false,
      "metar_trigger": false,
      "taf_trigger": false,
      "metar": "METAR EFTU 281450Z AUTO 28005KT 9999 -SHRA OVC025 01/M01 Q1008",
      "taf": "TAF EFTU 281426Z 2815/2915 30008KT 9999 BKN025"
    },
    {
      "icao": "EGBB",
      "alert": "OK",
      "vis_m": 9999,
      "fzfg": false,
      "metar_trigger": false,
      "taf_trigger": false,
      "metar": "METAR EGBB 281450Z 06008KT 9999 OVC016 05/02 Q1032",
      "taf": "TAF EGBB 281053Z 2812/2912 06009KT 9999 BKN020"
    },
    {
      "icao": "EGGP",
      "alert": "OK",
      "vis_m": 9999,
      "fzfg": false,
      "metar_trigger": false,
      "taf_trigger": false,
      "metar": "METAR EGGP 281450Z 10007KT 070V140 9999 BKN023 06/01 Q1033",
      "taf": "TAF EGGP 281056Z 2812/2912 09008KT 9999 BKN023"
    },
    {
      "icao": "EGGW",
      "alert": "OK",
      "vis_m": 9999,
      "fzfg": false,
      "metar_trigger": false,
      "taf_trigger": false,
      "metar": "METAR EGGW 281450Z AUTO 06012KT 030V090 9999 OVC016 05/02 Q1031",
      "taf": "TAF EGGW 281100Z 2812/2912 04012KT 9999 SCT020"
    },
    {
      "icao": "EGKK",
      "alert": "OK",
      "vis_m": 9999,
      "fzfg": false,
      "metar_trigger": false,
      "taf_trigger": false,
      "metar": "METAR EGKK 281450Z 05015KT 9999 BKN021 07/03 Q1030",
      "taf": "TAF EGKK 281057Z 2812/2918 04009KT 9999 BKN022"
    },
    {
      "icao": "EGNM",
      "alert": "OK",
      "vis_m": 9999,
      "fzfg": false,
      "metar_trigger": false,
      "taf_trigger": false,
      "metar": "METAR EGNM 281450Z 06007KT 020V080 9999 BKN017 05/02 Q1033",
      "taf": "TAF EGNM 281056Z 2812/2912 06007KT 9999 BKN018"
    },
    {
      "icao": "EGPD",
      "alert": "OK",
      "vis_m": 9999,
      "fzfg": false,
      "metar_trigger": false,
      "taf_trigger": false,
      "metar": "METAR EGPD 281450Z COR AUTO 27004KT 9999 OVC020 04/00 Q1036 NOSIG",
      "taf": "TAF EGPD 281054Z 2812/2912 29005KT 9999 SCT020"
    },
    {
      "icao": "EGPF",
      "alert": "OK",
      "vis_m": 9999,
      "fzfg": false,
      "metar_trigger": false,
      "taf_trigger": false,
      "metar": "METAR EGPF 281450Z AUTO 06006KT 030V090 9999 OVC022 06/02 Q1036",
      "taf": "TAF EGPF 281100Z 2812/2912 05004KT 9999 BKN025"
    },
    {
      "icao": "EHBK",
      "alert": "OK",
      "vis_m": 9999,
      "fzfg": false,
      "metar_trigger": false,
      "taf_trigger": false,
      "metar": "METAR EHBK 281455Z AUTO 05009KT 9999 NCD 03/00 Q1029 NOSIG",
      "taf": "TAF EHBK 281119Z 2812/2918 05008KT CAVOK"
    },
    {
      "icao": "EHEH",
      "alert": "OK",
      "vis_m": 9999,
      "fzfg": false,
      "metar_trigger": false,
      "taf_trigger": false,
      "metar": "METAR EHEH 281455Z AUTO 06006KT 010V090 9999 NCD 05/01 Q1031 BLU NOSIG RMK TREND REMOTE BY EHWX",
      "taf": "TAF EHEH 281146Z 2812/2918 06007KT CAVOK"
    },
    {
      "icao": "EKBI",
      "alert": "OK",
      "vis_m": 9999,
      "fzfg": false,
      "metar_trigger": false,
      "taf_trigger": false,
      "metar": "METAR EKBI 281450Z AUTO 26010KT 9999 BKN017/// 04/02 Q1026",
      "taf": "TAF EKBI 281427Z 2815/2915 24010KT CAVOK"
    },
    {
      "icao": "EKCH",
      "alert": "OK",
      "vis_m": 9999,
      "fzfg": false,
      "metar_trigger": false,
      "taf_trigger": false,
      "metar": "METAR EKCH 281450Z AUTO 24008KT 9999 NCD 02/M02 Q1024 NOSIG",
      "taf": "TAF EKCH 281427Z 2815/2915 27012KT CAVOK"
    },
    {
      "icao": "ENAL",
      "alert": "OK",
      "vis_m": 9999,
      "fzfg": false,
      "metar_trigger": false,
      "taf_trigger": false,
      "metar": "METAR ENAL 281450Z 27014KT 240V300 9999 FEW010 SCT022 BKN034 07/03 Q1024",
      "taf": "TAF ENAL 281400Z 2815/2824 30025KT 9999 FEW020 BKN035"
    },
    {
      "icao": "ENBR",
      "alert": "OK",
      "vis_m": 9999,
      "fzfg": false,
      "metar_trigger": false,
      "taf_trigger": false,
      "metar": "METAR ENBR 281450Z 12002KT 9999 VCSH SCT020 BKN024 02/M00 Q1029 TEMPO 4000 -SHRASN VV012 RMK WIND 1200FT 29010KT",
      "taf": "TAF ENBR 281100Z 2812/2912 VRB05KT 9999 -SHRA FEW015TCU BKN030"
    },
    {
      "icao": "ENGM",
      "alert": "OK",
      "vis_m": 9999,
      "fzfg": false,
      "metar_trigger": false,
      "taf_trigger": false,
      "metar": "METAR ENGM 281450Z VRB02KT CAVOK M05/M08 Q1019 NOSIG",
      "taf": "TAF ENGM 281100Z 2812/2912 VRB03KT CAVOK"
    },
    {
      "icao": "ENHD",
      "alert": "OK",
      "vis_m": 9999,
      "fzfg": false,
      "metar_trigger": false,
      "taf_trigger": false,
      "metar": "METAR ENHD 281450Z 01006KT 9999 VCSH FEW035 BKN047 04/01 Q1029",
      "taf": "TAF ENHD 281400Z 2815/2823 36015KT 9999 SCT040"
    },
    {
      "icao": "ENTC",
      "alert": "OK",
      "vis_m": 4000,
      "fzfg": false,
      "metar_trigger": false,
      "taf_trigger": false,
      "metar": "METAR ENTC 281450Z 20005KT 4000 -SHSN VV013 M02/M04 Q0992 BECMG 35015KT TEMPO 35015G30KT 1000 SHSN VV008 RMK WIND 2600FT 28018KT",
      "taf": ""
    },
    {
      "icao": "ENTO",
      "alert": "OK",
      "vis_m": 9999,
      "fzfg": false,
      "metar_trigger": false,
      "taf_trigger": false,
      "metar": "METAR ENTO 281450Z VRB01KT CAVOK 02/M06 Q1020 NOSIG",
      "taf": "TAF ENTO 281100Z 2812/2912 24008KT CAVOK"
    },
    {
      "icao": "ENVA",
      "alert": "OK",
      "vis_m": 9999,
      "fzfg": false,
      "metar_trigger": false,
      "taf_trigger": false,
      "metar": "METAR ENVA 281450Z 26031KT 9999 SCT016 BKN019 04/03 Q1014 RERA WS R27 TEMPO 27035G45KT 4000 SHRA BKN012CB RMK WIND 670FT 27030G48KT",
      "taf": "TAF ENVA 281100Z 2812/2912 26022KT 9999 FEW015TCU BKN030"
    },
    {
      "icao": "ENZV",
      "alert": "OK",
      "vis_m": 9999,
      "fzfg": false,
      "metar_trigger": false,
      "taf_trigger": false,
      "metar": "METAR ENZV 281450Z 36010KT 9999 BKN033 BKN040 04/M00 Q1029 NOSIG",
      "taf": "TAF ENZV 281100Z 2812/2912 35008KT CAVOK"
    },
    {
      "icao": "EPGD",
      "alert": "OK",
      "vis_m": 9999,
      "fzfg": false,
      "metar_trigger": false,
      "taf_trigger": false,
      "metar": "METAR EPGD 281500Z 31015KT 9999 BKN022 01/M03 Q1020",
      "taf": "TAF EPGD 281130Z 2812/2912 34018KT 9999 BKN025"
    },
    {
      "icao": "EPKK",
      "alert": "OK",
      "vis_m": 9999,
      "fzfg": false,
      "metar_trigger": false,
      "taf_trigger": false,
      "metar": "METAR EPKK 281500Z 27014KT 9999 FEW032 OVC038 00/M05 Q1022",
      "taf": "TAF EPKK 281430Z 2815/2915 27014KT 9999 SCT027 OVC035"
    },
    {
      "icao": "EPKT",
      "alert": "OK",
      "vis_m": 9999,
      "fzfg": false,
      "metar_trigger": false,
      "taf_trigger": false,
      "metar": "METAR EPKT 281500Z 29010KT 9999 SCT023 OVC029 M00/M04 Q1022",
      "taf": "TAF EPKT 281130Z 2812/2912 29012KT 9999 BKN036"
    },
    {
      "icao": "EPLB",
      "alert": "OK",
      "vis_m": 9999,
      "fzfg": false,
      "metar_trigger": false,
      "taf_trigger": false,
      "metar": "METAR EPLB 281500Z 30014KT 270V330 9999 FEW031 BKN048 01/M03 Q1013",
      "taf": "TAF EPLB 281130Z 2812/2912 30015KT 9999 BKN024"
    },
    {
      "icao": "EPMO",
      "alert": "OK",
      "vis_m": 9999,
      "fzfg": false,
      "metar_trigger": false,
      "taf_trigger": false,
      "metar": "METAR EPMO 281500Z 29013KT 9999 BKN034 02/M02 Q1017",
      "taf": "TAF EPMO 281130Z 2812/2912 30015KT 9999 BKN035"
    },
    {
      "icao": "EPPO",
      "alert": "OK",
      "vis_m": 9999,
      "fzfg": false,
      "metar_trigger": false,
      "taf_trigger": false,
      "metar": "METAR EPPO 281500Z 28012KT CAVOK 01/M02 Q1024",
      "taf": "TAF EPPO 281130Z 2812/2912 31010KT CAVOK"
    },
    {
      "icao": "EPRA",
      "alert": "OK",
      "vis_m": 9999,
      "fzfg": false,
      "metar_trigger": false,
      "taf_trigger": false,
      "metar": "METAR EPRA 281500Z 31019G30KT 270V330 9999 BKN043 01/M04 Q1017",
      "taf": "TAF EPRA 281430Z 2815/2824 29014KT 9999 BKN040"
    },
    {
      "icao": "EPRZ",
      "alert": "OK",
      "vis_m": 9999,
      "fzfg": false,
      "metar_trigger": false,
      "taf_trigger": false,
      "metar": "METAR EPRZ 281500Z 29019G29KT 9999 FEW027 BKN042 01/M04 Q1016",
      "taf": "TAF EPRZ 281130Z 2812/2912 28014KT 9999 BKN020"
    },
    {
      "icao": "EPSC",
      "alert": "OK",
      "vis_m": 9999,
      "fzfg": false,
      "metar_trigger": false,
      "taf_trigger": false,
      "metar": "METAR EPSC 281500Z 28008KT CAVOK 01/M02 Q1025",
      "taf": "TAF EPSC 281130Z 2812/2912 27008KT CAVOK"
    },
    {
      "icao": "EPSY",
      "alert": "OK",
      "vis_m": 9999,
      "fzfg": false,
      "metar_trigger": false,
      "taf_trigger": false,
      "metar": "METAR EPSY 281500Z 32013KT 300V360 9999 BKN026 02/M03 Q1016",
      "taf": "TAF EPSY 281430Z 2815/2824 32012KT 9999 BKN030"
    },
    {
      "icao": "EPWA",
      "alert": "OK",
      "vis_m": 9999,
      "fzfg": false,
      "metar_trigger": false,
      "taf_trigger": false,
      "metar": "METAR EPWA 281500Z 30017KT 9999 BKN040 02/M03 Q1017 NOSIG",
      "taf": "TAF EPWA 281430Z 2815/2915 30013KT 9999 BKN043"
    },
    {
      "icao": "EPWR",
      "alert": "OK",
      "vis_m": 9999,
      "fzfg": false,
      "metar_trigger": false,
      "taf_trigger": false,
      "metar": "METAR EPWR 281500Z 28011KT CAVOK 01/M02 Q1025",
      "taf": "TAF EPWR 281430Z 2815/2915 29012KT CAVOK"
    },
    {
      "icao": "ESGG",
      "alert": "OK",
      "vis_m": 9999,
      "fzfg": false,
      "metar_trigger": false,
      "taf_trigger": false,
      "metar": "METAR ESGG 281450Z 26007KT 9999 BKN010 03/02 Q1020",
      "taf": "TAF ESGG 281430Z 2815/2915 24012KT 9999 SCT015"
    },
    {
      "icao": "ESKN",
      "alert": "OK",
      "vis_m": 9999,
      "fzfg": false,
      "metar_trigger": false,
      "taf_trigger": false,
      "metar": "METAR ESKN 281450Z 27012KT CAVOK 00/M05 Q1017",
      "taf": "TAF ESKN 281430Z 2815/2915 27012KT CAVOK"
    },
    {
      "icao": "ESMS",
      "alert": "OK",
      "vis_m": 9999,
      "fzfg": false,
      "metar_trigger": false,
      "taf_trigger": false,
      "metar": "METAR ESMS 281450Z 25008KT CAVOK 02/M02 Q1023",
      "taf": "TAF ESMS 281427Z 2815/2915 29010KT CAVOK"
    },
    {
      "icao": "ESSA",
      "alert": "OK",
      "vis_m": 9999,
      "fzfg": false,
      "metar_trigger": false,
      "taf_trigger": false,
      "metar": "METAR ESSA 281450Z 27010KT CAVOK 01/M05 Q1013 NOSIG",
      "taf": "TAF ESSA 281430Z 2815/2915 25008KT CAVOK"
    },
    {
      "icao": "EYKA",
      "alert": "OK",
      "vis_m": 9999,
      "fzfg": false,
      "metar_trigger": false,
      "taf_trigger": false,
      "metar": "METAR EYKA 281450Z 31007KT 260V020 9999 SCT048 01/M07 Q1010",
      "taf": "TAF EYKA 281100Z 2812/2912 32012G22KT 9000 SCT035"
    },
    {
      "icao": "EYPA",
      "alert": "OK",
      "vis_m": 9999,
      "fzfg": false,
      "metar_trigger": false,
      "taf_trigger": false,
      "metar": "METAR EYPA 281450Z 34009G19KT 290V040 9999 SCT020CB BKN041 04/00 Q1015",
      "taf": "TAF EYPA 281100Z 2812/2912 35014G25KT 9000 SCT035"
    },
    {
      "icao": "EYVI",
      "alert": "OK",
      "vis_m": 9999,
      "fzfg": false,
      "metar_trigger": false,
      "taf_trigger": false,
      "metar": "METAR EYVI 281450Z 34012KT 9999 OVC032 M01/M06 Q1006 NOSIG",
      "taf": "TAF EYVI 281100Z 2812/2912 33015G25KT 9000 BKN015"
    },
    {
      "icao": "GCFV",
      "alert": "OK",
      "vis_m": 9999,
      "fzfg": false,
      "metar_trigger": false,
      "taf_trigger": false,
      "metar": "METAR GCFV 281500Z 32008KT 270V010 9999 SCT036 SCT040 22/10 Q1018",
      "taf": "TAF GCFV 281400Z 2815/2915 32008KT 9999 FEW030 TX21/2914Z TN14/2906Z"
    },
    {
      "icao": "GCLP",
      "alert": "OK",
      "vis_m": 9999,
      "fzfg": false,
      "metar_trigger": false,
      "taf_trigger": false,
      "metar": "METAR GCLP 281500Z 10004KT 050V150 9999 BKN040 20/13 Q1018 NOSIG",
      "taf": "TAF GCLP 281400Z 2815/2915 35006KT 9999 BKN030 TX21/2914Z TN15/2906Z"
    },
    {
      "icao": "GCTS",
      "alert": "OK",
      "vis_m": 9999,
      "fzfg": false,
      "metar_trigger": false,
      "taf_trigger": false,
      "metar": "METAR GCTS 281500Z 19003KT 120V280 9999 BKN040 20/12 Q1018 NOSIG",
      "taf": "TAF GCTS 281400Z 2815/2915 13005KT 9999 BKN030 TX23/2914Z TN16/2906Z"
    },
    {
      "icao": "GMAD",
      "alert": "OK",
      "vis_m": 8000,
      "fzfg": false,
      "metar_trigger": false,
      "taf_trigger": false,
      "metar": "METAR GMAD 281500Z 25012KT 8000 SCT016TCU BKN100 16/14 Q1015 NOSIG",
      "taf": "TAF GMAD 281100Z 2812/2918 26008KT 6000 BKN020TCU BKN080"
    },
    {
      "icao": "GMMN",
      "alert": "OK",
      "vis_m": 6000,
      "fzfg": false,
      "metar_trigger": false,
      "taf_trigger": false,
      "metar": "METAR GMMN 281500Z 23023G35KT 6000 RA BKN016 BKN020 13/10 Q1010 NOSIG",
      "taf": "TAF GMMN 281100Z 2812/2918 22018KT 9999 SCT026"
    },
    {
      "icao": "GMMX",
      "alert": "OK",
      "vis_m": 9999,
      "fzfg": false,
      "metar_trigger": false,
      "taf_trigger": false,
      "metar": "METAR GMMX 281500Z 24016KT 9999 FEW013 BKN023 13/10 Q1014 NOSIG",
      "taf": "TAF GMMX 281100Z 2812/2918 24010KT 6000 SCT013 BKN020"
    },
    {
      "icao": "HEGN",
      "alert": "OK",
      "vis_m": 9999,
      "fzfg": false,
      "metar_trigger": false,
      "taf_trigger": false,
      "metar": "METAR HEGN 281400Z 01006KT CAVOK 22/08 Q1012 NOSIG",
      "taf": "TAF HEGN 281100Z 2812/2918 34015KT CAVOK"
    },
    {
      "icao": "HEMA",
      "alert": "OK",
      "vis_m": 9999,
      "fzfg": false,
      "metar_trigger": false,
      "taf_trigger": false,
      "metar": "METAR HEMA 281400Z 05006KT CAVOK 22/07 Q1012 NOSIG",
      "taf": "TAF HEMA 281100Z 2812/2918 35014KT CAVOK"
    },
    {
      "icao": "HESH",
      "alert": "OK",
      "vis_m": 9999,
      "fzfg": false,
      "metar_trigger": false,
      "taf_trigger": false,
      "metar": "METAR HESH 281400Z 07007KT CAVOK 22/10 Q1011 NOSIG",
      "taf": "TAF HESH 281100Z 2812/2918 01012KT CAVOK"
    },
    {
      "icao": "HESX",
      "alert": "OK",
      "vis_m": 9999,
      "fzfg": false,
      "metar_trigger": false,
      "taf_trigger": false,
      "metar": "METAR HESX 281400Z 30010KT 9999 SCT020 18/04 Q1011 NOSIG",
      "taf": "TAF HESX 281100Z 2812/2918 30010KT 9999 SCT025"
    },
    {
      "icao": "LATI",
      "alert": "OK",
      "vis_m": 9999,
      "fzfg": false,
      "metar_trigger": false,
      "taf_trigger": false,
      "metar": "METAR LATI 281450Z 31005KT CAVOK 12/03 Q1015 NOSIG",
      "taf": "TAF LATI 281100Z 2812/2912 VRB03KT CAVOK TX15/2812Z TNM02/2904Z"
    },
    {
      "icao": "LBPD",
      "alert": "OK",
      "vis_m": 9999,
      "fzfg": false,
      "metar_trigger": false,
      "taf_trigger": false,
      "metar": "METAR LBPD 281500Z AUTO 29024KT 9999 NCD 05/M04 Q1014 NOSIG",
      "taf": "TAF LBPD 281100Z 2812/2912 30028G40KT 9999 BKN050"
    },
    {
      "icao": "LBSF",
      "alert": "OK",
      "vis_m": 9999,
      "fzfg": false,
      "metar_trigger": false,
      "taf_trigger": false,
      "metar": "METAR LBSF 281500Z 29016KT 9999 FEW029 00/M06 Q1016 WS ALL RWY NOSIG",
      "taf": "TAF LBSF 281100Z 2812/2912 29030G42KT 9999 BKN030"
    },
    {
      "icao": "LBWN",
      "alert": "OK",
      "vis_m": 9999,
      "fzfg": false,
      "metar_trigger": false,
      "taf_trigger": false,
      "metar": "METAR LBWN 281500Z AUTO 28008KT 9999 NSC 03/M02 Q1010 NOSIG",
      "taf": "TAF LBWN 281100Z 2812/2912 27014KT 9999 SCT025 SCT045"
    },
    {
      "icao": "LCLK",
      "alert": "OK",
      "vis_m": 9999,
      "fzfg": false,
      "metar_trigger": false,
      "taf_trigger": false,
      "metar": "METAR LCLK 281500Z 32009KT 9999 FEW025 SCT050 13/06 Q1007 NOSIG",
      "taf": "TAF LCLK 281130Z 2812/2912 21012KT 9999 FEW030 SCT060"
    },
    {
      "icao": "LCPH",
      "alert": "OK",
      "vis_m": 9999,
      "fzfg": false,
      "metar_trigger": false,
      "taf_trigger": false,
      "metar": "METAR LCPH 281500Z 31013KT 9999 SCT040 BKN050 14/05 Q1008 NOSIG",
      "taf": "TAF LCPH 281130Z 2812/2912 30014KT 9999 FEW030 SCT060"
    },
    {
      "icao": "LEAL",
      "alert": "OK",
      "vis_m": 9999,
      "fzfg": false,
      "metar_trigger": false,
      "taf_trigger": false,
      "metar": "METAR LEAL 281500Z 07015KT 9999 FEW020TCU BKN034 17/14 Q1014 NOSIG",
      "taf": "TAF LEAL 281100Z 2812/2912 06014KT 9999 BKN020 TX17/2813Z TN08/2906Z"
    },
    {
      "icao": "LEBB",
      "alert": "OK",
      "vis_m": 9999,
      "fzfg": false,
      "metar_trigger": false,
      "taf_trigger": false,
      "metar": "METAR LEBB 281500Z 15007KT 100V190 9999 FEW050 17/07 Q1018 NOSIG",
      "taf": "TAF LEBB 281100Z 2812/2912 11008KT 9999 FEW040 TX15/2814Z TN04/2908Z"
    },
    {
      "icao": "LEBL",
      "alert": "OK",
      "vis_m": 9999,
      "fzfg": false,
      "metar_trigger": false,
      "taf_trigger": false,
      "metar": "METAR LEBL 281500Z 09008KT 060V120 9999 FEW023 14/12 Q1018 NOSIG",
      "taf": "TAF LEBL 281100Z 2812/2912 07012KT 9999 FEW020 TX15/2812Z TN08/2907Z"
    },
    {
      "icao": "LECH",
      "alert": "OK",
      "vis_m": 9999,
      "fzfg": false,
      "metar_trigger": false,
      "taf_trigger": false,
      "metar": "METAR LECH 281500Z AUTO 06006KT 020V080 9999 FEW010 SCT017 12/10 Q1017",
      "taf": ""
    },
    {
      "icao": "LEMD",
      "alert": "OK",
      "vis_m": 9999,
      "fzfg": false,
      "metar_trigger": false,
      "taf_trigger": false,
      "metar": "METAR LEMD 281500Z 05003KT 340V110 9999 SCT050 BKN065 12/03 Q1014 NOSIG",
      "taf": "TAF LEMD 281100Z 2812/2918 02006KT 9999 SCT040 TX12/2815Z TN03/2907Z"
    },
    {
      "icao": "LEMG",
      "alert": "OK",
      "vis_m": 9999,
      "fzfg": false,
      "metar_trigger": false,
      "taf_trigger": false,
      "metar": "METAR LEMG 281500Z 27005KT 9999 FEW025 SCT050 13/09 Q1012 NOSIG",
      "taf": ""
    },
    {
      "icao": "LEVC",
      "alert": "OK",
      "vis_m": 4000,
      "fzfg": false,
      "metar_trigger": false,
      "taf_trigger": false,
      "metar": "METAR LEVC 281500Z 33006KT 260V040 4000 SHRA TS FEW015 SCT025CB BKN027 09/08 Q1017 NOSIG",
      "taf": "TAF LEVC 281100Z 2812/2912 05010KT 9999 FEW015 SCT020 BKN025 TX14/2813Z TN06/2906Z"
    },
    {
      "icao": "LEXJ",
      "alert": "OK",
      "vis_m": 9999,
      "fzfg": false,
      "metar_trigger": false,
      "taf_trigger": false,
      "metar": "METAR LEXJ 281500Z 05005KT 340V140 CAVOK 15/10 Q1017",
      "taf": "TAF LEXJ 281400Z 2815/2915 20009KT CAVOK TX17/2815Z TN07/2906Z"
    },
    {
      "icao": "LEZG",
      "alert": "OK",
      "vis_m": 9999,
      "fzfg": false,
      "metar_trigger": false,
      "taf_trigger": false,
      "metar": "METAR LEZG 281500Z VRB02KT 9999 BKN040 12/09 Q1018 NOSIG",
      "taf": "TAF LEZG 281100Z 2812/2912 28006KT 9999 BKN030 OVC050 TX10/2814Z TN06/2906Z"
    },
    {
      "icao": "LEZL",
      "alert": "OK",
      "vis_m": 9999,
      "fzfg": false,
      "metar_trigger": false,
      "taf_trigger": false,
      "metar": "METAR LEZL 281500Z 08003KT CAVOK 15/08 Q1011 NOSIG",
      "taf": "TAF LEZL 281400Z 2815/2915 05006KT 9999 FEW030 TX17/2815Z TN05/2906Z"
    },
    {
      "icao": "LFBD",
      "alert": "OK",
      "vis_m": 9999,
      "fzfg": false,
      "metar_trigger": false,
      "taf_trigger": false,
      "metar": "METAR LFBD 281500Z AUTO 04008KT CAVOK 12/03 Q1019 NOSIG",
      "taf": "TAF LFBD 281100Z 2812/2918 04005KT CAVOK TX11/2815Z TN01/2906Z"
    },
    {
      "icao": "LFLL",
      "alert": "OK",
      "vis_m": 9000,
      "fzfg": false,
      "metar_trigger": false,
      "taf_trigger": false,
      "metar": "METAR LFLL 281500Z 33004KT 280V010 9000 OVC004 M01/M02 Q1023 NOSIG",
      "taf": "TAF LFLL 281100Z 2812/2918 VRB03KT 6000 OVC006"
    },
    {
      "icao": "LFLS",
      "alert": "OK",
      "vis_m": 9999,
      "fzfg": false,
      "metar_trigger": false,
      "taf_trigger": false,
      "metar": "METAR LFLS 281500Z AUTO 03007KT CAVOK 03/M00 Q1021 NOSIG",
      "taf": "TAF LFLS 281400Z 2815/2915 03007KT CAVOK"
    },
    {
      "icao": "LFMN",
      "alert": "OK",
      "vis_m": 9999,
      "fzfg": false,
      "metar_trigger": false,
      "taf_trigger": false,
      "metar": "METAR LFMN 281500Z 12009KT CAVOK 15/04 Q1018 NOSIG",
      "taf": "TAF LFMN 281400Z 2815/2921 09008KT CAVOK"
    },
    {
      "icao": "LFOB",
      "alert": "OK",
      "vis_m": 9999,
      "fzfg": false,
      "metar_trigger": false,
      "taf_trigger": false,
      "metar": "METAR LFOB 281500Z AUTO 05013KT 020V100 9999 OVC014 03/00 Q1027",
      "taf": ""
    },
    {
      "icao": "LFPO",
      "alert": "OK",
      "vis_m": 9999,
      "fzfg": false,
      "metar_trigger": false,
      "taf_trigger": false,
      "metar": "METAR LFPO 281500Z AUTO 04010KT 9999 OVC009 01/M01 Q1027",
      "taf": "TAF LFPO 280500Z 2806/2912 02008KT 6000 BKN006"
    },
    {
      "icao": "LFSB",
      "alert": "OK",
      "vis_m": 5000,
      "fzfg": false,
      "metar_trigger": false,
      "taf_trigger": false,
      "metar": "METAR LFSB 281500Z AUTO 35006KT 320V020 5000 BR OVC003 M01/M01 Q1025 NOSIG",
      "taf": "TAF LFSB 281100Z 2812/2912 34006KT 6000 BKN015"
    },
    {
      "icao": "LGAV",
      "alert": "OK",
      "vis_m": 9999,
      "fzfg": false,
      "metar_trigger": false,
      "taf_trigger": false,
      "metar": "METAR LGAV 281450Z 35006KT CAVOK 15/00 Q1010 NOSIG",
      "taf": "TAF LGAV 281100Z 2812/2912 28010KT 9999 FEW020"
    },
    {
      "icao": "LGTS",
      "alert": "OK",
      "vis_m": 9999,
      "fzfg": false,
      "metar_trigger": false,
      "taf_trigger": false,
      "metar": "METAR LGTS 281450Z 34026G37KT 9999 FEW025 10/M02 Q1012 NOSIG",
      "taf": "TAF LGTS 281100Z 2812/2912 33030G45KT 9999 FEW030"
    },
    {
      "icao": "LHBP",
      "alert": "OK",
      "vis_m": 9999,
      "fzfg": false,
      "metar_trigger": false,
      "taf_trigger": false,
      "metar": "METAR LHBP 281500Z 32023KT 9999 FEW042 03/M06 Q1021 NOSIG",
      "taf": "TAF LHBP 281115Z 2812/2912 31020G30KT 9999 FEW040"
    },
    {
      "icao": "LHDC",
      "alert": "OK",
      "vis_m": 9999,
      "fzfg": false,
      "metar_trigger": false,
      "taf_trigger": false,
      "metar": "METAR LHDC 281445Z AUTO 30004KT 260V330 CAVOK 03/M03 Q1019",
      "taf": "TAF LHDC 281115Z 2812/2821 30014KT CAVOK"
    },
    {
      "icao": "LIBD",
      "alert": "OK",
      "vis_m": 9999,
      "fzfg": false,
      "metar_trigger": false,
      "taf_trigger": false,
      "metar": "METAR LIBD 281450Z 29005KT CAVOK 13/04 Q1017",
      "taf": "TAF LIBD 281100Z 2812/2912 28012KT CAVOK"
    },
    {
      "icao": "LIBG",
      "alert": "OK",
      "vis_m": 9999,
      "fzfg": false,
      "metar_trigger": false,
      "taf_trigger": false,
      "metar": "METAR LIBG 281450Z 33008KT CAVOK 13/11 Q1016",
      "taf": "TAF LIBG 281400Z 2815/2824 35013KT CAVOK"
    },
    {
      "icao": "LIBP",
      "alert": "OK",
      "vis_m": 9999,
      "fzfg": false,
      "metar_trigger": false,
      "taf_trigger": false,
      "metar": "METAR LIBP 281450Z AUTO 25003KT 9999 NCD 14/04 Q1020",
      "taf": "TAF LIBP 281100Z 2812/2912 VRB05KT CAVOK"
    },
    {
      "icao": "LIBR",
      "alert": "OK",
      "vis_m": 9999,
      "fzfg": false,
      "metar_trigger": false,
      "taf_trigger": false,
      "metar": "METAR LIBR 281450Z 32019KT 9999 FEW015 13/10 Q1015",
      "taf": "TAF LIBR 281100Z 2812/2912 33013KT 9999 FEW025"
    },
    {
      "icao": "LICA",
      "alert": "OK",
      "vis_m": 9999,
      "fzfg": false,
      "metar_trigger": false,
      "taf_trigger": false,
      "metar": "METAR LICA 281450Z AUTO 26009KT 9999 NCD 15/09 Q1018",
      "taf": "TAF LICA 281100Z 2812/2912 27010KT CAVOK"
    },
    {
      "icao": "LICC",
      "alert": "OK",
      "vis_m": 9999,
      "fzfg": false,
      "metar_trigger": false,
      "taf_trigger": false,
      "metar": "METAR LICC 281450Z 10006KT CAVOK 17/14 Q1017",
      "taf": "TAF LICC 281100Z 2812/2912 VRB06KT 9999 FEW030"
    },
    {
      "icao": "LICJ",
      "alert": "OK",
      "vis_m": 9999,
      "fzfg": false,
      "metar_trigger": false,
      "taf_trigger": false,
      "metar": "METAR LICJ 281450Z AUTO 04009KT 9999 NCD 15/09 Q1019",
      "taf": "TAF LICJ 281100Z 2812/2912 04010KT CAVOK"
    },
    {
      "icao": "LIMC",
      "alert": "OK",
      "vis_m": 9999,
      "fzfg": false,
      "metar_trigger": false,
      "taf_trigger": false,
      "metar": "METAR LIMC 281450Z 12008KT CAVOK 11/01 Q1019 NOSIG",
      "taf": "TAF LIMC 281100Z 2812/2918 VRB05KT CAVOK"
    },
    {
      "icao": "LIME",
      "alert": "OK",
      "vis_m": 9999,
      "fzfg": false,
      "metar_trigger": false,
      "taf_trigger": false,
      "metar": "METAR LIME 281450Z 10007KT CAVOK 11/01 Q1020 NOSIG",
      "taf": "TAF LIME 281100Z 2812/2912 VRB05KT CAVOK"
    },
    {
      "icao": "LIMF",
      "alert": "OK",
      "vis_m": 9999,
      "fzfg": false,
      "metar_trigger": false,
      "taf_trigger": false,
      "metar": "METAR LIMF 281450Z 09002KT CAVOK 11/00 Q1019",
      "taf": "TAF LIMF 281100Z 2812/2912 VRB05KT CAVOK"
    },
    {
      "icao": "LIMJ",
      "alert": "OK",
      "vis_m": 9999,
      "fzfg": false,
      "metar_trigger": false,
      "taf_trigger": false,
      "metar": "METAR LIMJ 281450Z VRB02KT 9999 BKN018 14/09 Q1019",
      "taf": "TAF LIMJ 281100Z 2812/2912 03012KT CAVOK"
    },
    {
      "icao": "LIPE",
      "alert": "OK",
      "vis_m": 9999,
      "fzfg": false,
      "metar_trigger": false,
      "taf_trigger": false,
      "metar": "METAR LIPE 281450Z 04004KT CAVOK 09/04 Q1020",
      "taf": "TAF LIPE 281100Z 2812/2912 VRB06KT CAVOK"
    },
    {
      "icao": "LIPH",
      "alert": "OK",
      "vis_m": 9999,
      "fzfg": false,
      "metar_trigger": false,
      "taf_trigger": false,
      "metar": "METAR LIPH 281450Z 08008KT CAVOK 10/03 Q1021",
      "taf": "TAF LIPH 281100Z 2812/2912 VRB05KT CAVOK"
    },
    {
      "icao": "LIPQ",
      "alert": "OK",
      "vis_m": 9999,
      "fzfg": false,
      "metar_trigger": false,
      "taf_trigger": false,
      "metar": "METAR LIPQ 281450Z AUTO 16005KT 9999 NCD 10/01 Q1021",
      "taf": "TAF LIPQ 281100Z 2812/2912 VRB05KT CAVOK"
    },
    {
      "icao": "LIPR",
      "alert": "OK",
      "vis_m": 9999,
      "fzfg": false,
      "metar_trigger": false,
      "taf_trigger": false,
      "metar": "METAR LIPR 281450Z 09005KT CAVOK 10/04 Q1020",
      "taf": "TAF LIPR 281100Z 2812/2912 VRB06KT CAVOK"
    },
    {
      "icao": "LIPX",
      "alert": "OK",
      "vis_m": 9999,
      "fzfg": false,
      "metar_trigger": false,
      "taf_trigger": false,
      "metar": "METAR LIPX 281450Z 13004KT CAVOK 10/02 Q1020",
      "taf": "TAF LIPX 281100Z 2812/2912 VRB06KT CAVOK"
    },
    {
      "icao": "LIPY",
      "alert": "OK",
      "vis_m": 9999,
      "fzfg": false,
      "metar_trigger": false,
      "taf_trigger": false,
      "metar": "METAR LIPY 281450Z AUTO 02004KT 350V050 9999 NCD 11/06 Q1021",
      "taf": "TAF LIPY 281100Z 2812/2912 VRB05KT CAVOK"
    },
    {
      "icao": "LIPZ",
      "alert": "OK",
      "vis_m": 9999,
      "fzfg": false,
      "metar_trigger": false,
      "taf_trigger": false,
      "metar": "METAR LIPZ 281450Z 07005KT CAVOK 10/04 Q1020 NOSIG",
      "taf": "TAF LIPZ 281100Z 2812/2918 VRB05KT CAVOK"
    },
    {
      "icao": "LIRF",
      "alert": "OK",
      "vis_m": 9999,
      "fzfg": false,
      "metar_trigger": false,
      "taf_trigger": false,
      "metar": "METAR LIRF 281450Z 32003KT CAVOK 13/06 Q1019 NOSIG",
      "taf": "TAF LIRF 281100Z 2812/2918 02005KT CAVOK"
    },
    {
      "icao": "LIRN",
      "alert": "OK",
      "vis_m": 9999,
      "fzfg": false,
      "metar_trigger": false,
      "taf_trigger": false,
      "metar": "METAR LIRN 281450Z 35004KT 280V050 CAVOK 14/03 Q1018 NOSIG",
      "taf": "TAF LIRN 281100Z 2812/2912 VRB05KT CAVOK"
    },
    {
      "icao": "LIRP",
      "alert": "OK",
      "vis_m": 9999,
      "fzfg": false,
      "metar_trigger": false,
      "taf_trigger": false,
      "metar": "METAR LIRP 281445Z 15003KT CAVOK 12/04 Q1019 NOSIG",
      "taf": "TAF LIRP 281100Z 2812/2912 12005KT CAVOK"
    },
    {
      "icao": "LIRZ",
      "alert": "OK",
      "vis_m": 9999,
      "fzfg": false,
      "metar_trigger": false,
      "taf_trigger": false,
      "metar": "METAR LIRZ 281450Z AUTO VRB02KT 9999 NCD 09/02 Q1019",
      "taf": "TAF LIRZ 281100Z 2812/2912 VRB05KT CAVOK"
    },
    {
      "icao": "LJLJ",
      "alert": "OK",
      "vis_m": 8000,
      "fzfg": false,
      "metar_trigger": false,
      "taf_trigger": false,
      "metar": "METAR LJLJ 281500Z 35003KT 8000 FEW003 SCT010 OVC017 01/M00 Q1025 NOSIG",
      "taf": "TAF LJLJ 281100Z 2812/2912 29003KT 8000 FEW004 OVC012"
    },
    {
      "icao": "LKMT",
      "alert": "OK",
      "vis_m": 9999,
      "fzfg": false,
      "metar_trigger": false,
      "taf_trigger": false,
      "metar": "METAR LKMT 281500Z 35008KT 9999 BKN032 01/M05 Q1025 NOSIG",
      "taf": "TAF LKMT 281100Z 2812/2912 35010KT 9999 BKN043"
    },
    {
      "icao": "LKPR",
      "alert": "OK",
      "vis_m": 9999,
      "fzfg": false,
      "metar_trigger": false,
      "taf_trigger": false,
      "metar": "METAR LKPR 281500Z 27005KT CAVOK 01/M05 Q1027 NOSIG",
      "taf": "TAF LKPR 281400Z 2815/2921 28008KT CAVOK"
    },
    {
      "icao": "LLBG",
      "alert": "OK",
      "vis_m": 9999,
      "fzfg": false,
      "metar_trigger": false,
      "taf_trigger": false,
      "metar": "METAR LLBG 281450Z 26008KT 9999 FEW045 16/07 Q1010 NOSIG",
      "taf": "TAF LLBG 281126Z 2812/2912 29012KT 9999 SCT035"
    },
    {
      "icao": "LMML",
      "alert": "OK",
      "vis_m": 9999,
      "fzfg": false,
      "metar_trigger": false,
      "taf_trigger": false,
      "metar": "METAR LMML 281445Z 21004KT 180V250 9999 FEW028 16/11 Q1018 NOSIG",
      "taf": "TAF LMML 281100Z 2812/2912 VRB07KT 9999 FEW019"
    },
    {
      "icao": "LOWW",
      "alert": "OK",
      "vis_m": 9999,
      "fzfg": false,
      "metar_trigger": false,
      "taf_trigger": false,
      "metar": "METAR LOWW 281450Z 33012KT CAVOK 03/M04 Q1025 NOSIG",
      "taf": "TAF LOWW 281415Z 2815/2921 32013KT 9999 FEW035 TX03/2815Z TNM04/2905Z"
    },
    {
      "icao": "LPFR",
      "alert": "OK",
      "vis_m": 9000,
      "fzfg": false,
      "metar_trigger": false,
      "taf_trigger": false,
      "metar": "METAR LPFR 281500Z 04018G28KT 9000 -SHRA FEW008 SCT012 FEW018CB 12/10 Q1009",
      "taf": ""
    },
    {
      "icao": "LPMA",
      "alert": "OK",
      "vis_m": 9999,
      "fzfg": false,
      "metar_trigger": false,
      "taf_trigger": false,
      "metar": "METAR LPMA 281500Z VRB04KT 9999 SCT016 19/08 Q1018",
      "taf": ""
    },
    {
      "icao": "LPPR",
      "alert": "OK",
      "vis_m": 9999,
      "fzfg": false,
      "metar_trigger": false,
      "taf_trigger": false,
      "metar": "METAR LPPR 281500Z 05003KT 360V110 CAVOK 16/07 Q1014",
      "taf": "TAF LPPR 281100Z 2812/2912 08005KT CAVOK"
    },
    {
      "icao": "LPPS",
      "alert": "OK",
      "vis_m": 9999,
      "fzfg": false,
      "metar_trigger": false,
      "taf_trigger": false,
      "metar": "METAR LPPS 281500Z 35008KT 320V020 9999 FEW015 17/09 Q1018",
      "taf": "TAF LPPS 281100Z 2812/2918 34013KT 9999 SCT015"
    },
    {
      "icao": "LPPT",
      "alert": "OK",
      "vis_m": 9999,
      "fzfg": false,
      "metar_trigger": false,
      "taf_trigger": false,
      "metar": "METAR LPPT 281500Z 06010G22KT 360V100 9999 FEW025 14/09 Q1012",
      "taf": "TAF LPPT 281100Z 2812/2918 06015KT 9999 FEW020"
    },
    {
      "icao": "LQBK",
      "alert": "OK",
      "vis_m": 9999,
      "fzfg": false,
      "metar_trigger": false,
      "taf_trigger": false,
      "metar": "METAR LQBK 281500Z 29005KT CAVOK 03/M02 Q1025 NOSIG",
      "taf": "TAF LQBK 281100Z 2812/2912 18005KT CAVOK TX07/2813Z TNM05/2905Z"
    },
    {
      "icao": "LQSA",
      "alert": "OK",
      "vis_m": 9999,
      "fzfg": false,
      "metar_trigger": false,
      "taf_trigger": false,
      "metar": "METAR LQSA 281500Z 31007KT 9999 FEW040 01/M05 Q1022 NOSIG",
      "taf": "TAF LQSA 281100Z 2812/2912 31012KT 9999 SCT040 TX04/2813Z TNM08/2905Z"
    },
    {
      "icao": "LQTZ",
      "alert": "OK",
      "vis_m": 9999,
      "fzfg": false,
      "metar_trigger": false,
      "taf_trigger": false,
      "metar": "METAR LQTZ 281500Z 30005KT 9999 BKN040 03/M02 Q1023",
      "taf": "TAF LQTZ 281100Z 2812/2912 36006KT 9999 SCT035 TX05/2813Z TNM07/2905Z"
    },
    {
      "icao": "LRBC",
      "alert": "OK",
      "vis_m": 9999,
      "fzfg": false,
      "metar_trigger": false,
      "taf_trigger": false,
      "metar": "METAR LRBC 281500Z 32022G32KT 9999 OVC062 03/M04 Q1008",
      "taf": "TAF LRBC 281400Z 2815/2824 31018KT 9999 BKN050"
    },
    {
      "icao": "LRBS",
      "alert": "OK",
      "vis_m": 9999,
      "fzfg": false,
      "metar_trigger": false,
      "taf_trigger": false,
      "metar": "METAR LRBS 281500Z COR 29009KT 260V350 CAVOK 05/M06 Q1011 NOSIG",
      "taf": "TAF LRBS 281100Z 2812/2912 26010KT CAVOK"
    },
    {
      "icao": "LRBV",
      "alert": "OK",
      "vis_m": 7000,
      "fzfg": false,
      "metar_trigger": false,
      "taf_trigger": false,
      "metar": "METAR LRBV 281500Z 29014G24KT 260V320 7000 -SN BLSN OVC032 M01/M04 Q1010",
      "taf": "TAF LRBV 281400Z 2815/2824 29018KT 5000 -SN BLSN BKN030"
    },
    {
      "icao": "LRCL",
      "alert": "OK",
      "vis_m": 9999,
      "fzfg": false,
      "metar_trigger": false,
      "taf_trigger": false,
      "metar": "METAR LRCL 281500Z 30020KT 9999 OVC037 01/M05 Q1015",
      "taf": "TAF LRCL 281400Z 2815/2824 30018KT 9999 BKN050"
    },
    {
      "icao": "LRCV",
      "alert": "OK",
      "vis_m": 9999,
      "fzfg": false,
      "metar_trigger": false,
      "taf_trigger": false,
      "metar": "METAR LRCV 281500Z 31011KT CAVOK 03/M05 Q1014",
      "taf": "TAF LRCV 281400Z 2815/2824 33012KT CAVOK"
    },
    {
      "icao": "LRIA",
      "alert": "OK",
      "vis_m": 8000,
      "fzfg": false,
      "metar_trigger": false,
      "taf_trigger": false,
      "metar": "METAR LRIA 281500Z 29021G31KT 8000 -SN BKN012 01/M01 Q1005",
      "taf": "TAF LRIA 281400Z 2815/2824 31020KT 8000 -SN SCT015 BKN033"
    },
    {
      "icao": "LROP",
      "alert": "OK",
      "vis_m": 9999,
      "fzfg": false,
      "metar_trigger": false,
      "taf_trigger": false,
      "metar": "METAR LROP 281500Z 29012KT CAVOK 03/M06 Q1011 NOSIG",
      "taf": "TAF LROP 281100Z 2812/2912 27011KT CAVOK"
    },
    {
      "icao": "LRSB",
      "alert": "OK",
      "vis_m": 9999,
      "fzfg": false,
      "metar_trigger": false,
      "taf_trigger": false,
      "metar": "METAR LRSB 281500Z 29020G31KT 9999 FEW033 BKN048 OVC065 01/M06 Q1014 NOSIG",
      "taf": ""
    },
    {
      "icao": "LRSM",
      "alert": "OK",
      "vis_m": 9999,
      "fzfg": false,
      "metar_trigger": false,
      "taf_trigger": false,
      "metar": "METAR LRSM 281500Z AUTO 31017KT 9999 OVC047/// 02/M04 Q1017",
      "taf": "TAF LRSM 281100Z 2812/2821 31015KT 9999 BKN030"
    },
    {
      "icao": "LRSV",
      "alert": "OK",
      "vis_m": 5000,
      "fzfg": false,
      "metar_trigger": false,
      "taf_trigger": false,
      "metar": "METAR LRSV 281500Z 32022KT 5000 -SN BLSN BKN022 M00/M03 Q1006",
      "taf": "TAF LRSV 281400Z 2815/2824 31022KT 0600 SN BLSN BKN010 BKN025"
    },
    {
      "icao": "LRTM",
      "alert": "OK",
      "vis_m": 9999,
      "fzfg": false,
      "metar_trigger": false,
      "taf_trigger": false,
      "metar": "METAR LRTM 281500Z 28019KT 9999 FEW017 BKN037 02/M05 Q1013",
      "taf": "TAF LRTM 281400Z 2815/2824 28018KT 9999 BKN035"
    },
    {
      "icao": "LRTR",
      "alert": "OK",
      "vis_m": 9999,
      "fzfg": false,
      "metar_trigger": false,
      "taf_trigger": false,
      "metar": "METAR LRTR 281500Z 28004KT CAVOK 01/M02 Q1020 NOSIG",
      "taf": "TAF LRTR 281100Z 2812/2912 31012KT CAVOK"
    },
    {
      "icao": "LTAC",
      "alert": "OK",
      "vis_m": 9999,
      "fzfg": false,
      "metar_trigger": false,
      "taf_trigger": false,
      "metar": "METAR LTAC 281450Z 24014KT 9999 FEW015 BKN030 BKN080 M01/M03 Q1002 NOSIG RMK RWY21C 23013KT RWY03L 23012KT RWY21R 22013KT RWY03R 23013KT RWY21L 23012KT",
      "taf": "TAF LTAC 281040Z 2812/2912 25015KT 9999 SCT030 BKN080"
    },
    {
      "icao": "LTFM",
      "alert": "OK",
      "vis_m": 9999,
      "fzfg": false,
      "metar_trigger": false,
      "taf_trigger": false,
      "metar": "METAR LTFM 281450Z 35017KT 9999 BKN025 05/M01 Q1010 NOSIG RMK RWY17L 34014KT RWY34L 34015KT RWY16R 35013KT RWY36 35016KT RWY18 35016KT",
      "taf": "TAF LTFM 281040Z 2812/2918 32017G27KT 9999 SCT017 BKN025"
    },
    {
      "icao": "LUKK",
      "alert": "OK",
      "vis_m": 9999,
      "fzfg": false,
      "metar_trigger": false,
      "taf_trigger": false,
      "metar": "METAR LUKK 281500Z 33018G30KT 9999 -SHSN BKN016CB OVC026 01/M01 Q1002 RESHSN TEMPO 33024G38KT 3000 SHSN BKN010 SCT025CB",
      "taf": "TAF LUKK 281106Z 2812/2912 32018G28KT 9999 BKN020"
    },
    {
      "icao": "LWOH",
      "alert": "OK",
      "vis_m": 9999,
      "fzfg": false,
      "metar_trigger": false,
      "taf_trigger": false,
      "metar": "METAR LWOH 281450Z 32014KT 290V010 CAVOK 08/M03 Q1013",
      "taf": "TAF LWOH 281430Z 2815/2915 34015KT CAVOK"
    },
    {
      "icao": "LWSK",
      "alert": "OK",
      "vis_m": 9999,
      "fzfg": false,
      "metar_trigger": false,
      "taf_trigger": false,
      "metar": "METAR LWSK 281450Z 33008KT 280V070 CAVOK 04/M06 Q1018 NOSIG",
      "taf": "TAF LWSK 281430Z 2815/2915 36016KT CAVOK"
    },
    {
      "icao": "LYBE",
      "alert": "OK",
      "vis_m": 9999,
      "fzfg": false,
      "metar_trigger": false,
      "taf_trigger": false,
      "metar": "METAR LYBE 281500Z 30012KT 9999 BKN040 03/M02 Q1022 NOSIG",
      "taf": "TAF LYBE 281100Z 2812/2912 29013KT 9999 SCT030 TX06/2912Z TNM03/2906Z"
    },
    {
      "icao": "LYNI",
      "alert": "OK",
      "vis_m": 9999,
      "fzfg": false,
      "metar_trigger": false,
      "taf_trigger": false,
      "metar": "METAR LYNI 281500Z 30006KT 220V330 9999 BKN040 03/M04 Q1020 NOSIG",
      "taf": "TAF LYNI 281100Z 2812/2912 29016KT 9999 BKN030 TX06/2912Z TNM03/2906Z"
    },
    {
      "icao": "LYPG",
      "alert": "OK",
      "vis_m": 9999,
      "fzfg": false,
      "metar_trigger": false,
      "taf_trigger": false,
      "metar": "METAR LYPG 281500Z 01014KT CAVOK 11/M09 Q1016 NOSIG",
      "taf": "TAF LYPG 281100Z 2812/2912 35009KT CAVOK TX13/2813Z TN01/2906Z"
    },
    {
      "icao": "LZIB",
      "alert": "OK",
      "vis_m": 9999,
      "fzfg": false,
      "metar_trigger": false,
      "taf_trigger": false,
      "metar": "METAR LZIB 281500Z 31017KT 9999 FEW032 03/M04 Q1024 NOSIG",
      "taf": "TAF LZIB 281115Z 2812/2912 32015KT 9999 SCT035 BKN038"
    },
    {
      "icao": "LZKZ",
      "alert": "OK",
      "vis_m": 9999,
      "fzfg": false,
      "metar_trigger": false,
      "taf_trigger": false,
      "metar": "METAR LZKZ 281500Z 34018KT 9999 BKN045 02/M07 Q1018 NOSIG",
      "taf": "TAF LZKZ 281115Z 2812/2912 35015KT 9999 BKN047"
    },
    {
      "icao": "LZTT",
      "alert": "OK",
      "vis_m": 9999,
      "fzfg": false,
      "metar_trigger": false,
      "taf_trigger": false,
      "metar": "METAR LZTT 281500Z 28021KT 9999 FEW030 M02/M09 Q1015 NOSIG",
      "taf": "TAF LZTT 281115Z 2812/2912 28017KT 9999 FEW016 SCT050"
    },
    {
      "icao": "OEJN",
      "alert": "OK",
      "vis_m": 9999,
      "fzfg": false,
      "metar_trigger": false,
      "taf_trigger": false,
      "metar": "METAR OEJN 281500Z 34013KT CAVOK 25/16 Q1011 NOSIG",
      "taf": "TAF OEJN 281100Z 2812/2918 33010KT CAVOK"
    },
    {
      "icao": "OEMA",
      "alert": "OK",
      "vis_m": 9999,
      "fzfg": false,
      "metar_trigger": false,
      "taf_trigger": false,
      "metar": "METAR OEMA 281500Z 24009KT 9999 FEW040 22/02 Q1013 NOSIG",
      "taf": ""
    },
    {
      "icao": "OJAI",
      "alert": "OK",
      "vis_m": 3500,
      "fzfg": false,
      "metar_trigger": false,
      "taf_trigger": false,
      "metar": "METAR OJAI 281500Z 28015KT 3500 BR SCT030 09/07 Q1010 NOSIG",
      "taf": "TAF OJAI 281100Z 2812/2918 29018G30KT 3000 RA BR SCT020TCU BKN030"
    },
    {
      "icao": "OMAA",
      "alert": "OK",
      "vis_m": 9999,
      "fzfg": false,
      "metar_trigger": false,
      "taf_trigger": false,
      "metar": "METAR OMAA 281500Z 16007KT CAVOK 25/12 Q1011 NOSIG",
      "taf": "TAF OMAA 281100Z 2812/2918 17012KT 8000 NSC"
    },
    {
      "icao": "OMDB",
      "alert": "OK",
      "vis_m": 9999,
      "fzfg": false,
      "metar_trigger": false,
      "taf_trigger": false,
      "metar": "METAR OMDB 281500Z 23003KT 190V260 CAVOK 26/13 Q1011 NOSIG",
      "taf": "TAF OMDB 281100Z 2812/2918 18008KT 8000 NSC"
    },
    {
      "icao": "UAAA",
      "alert": "OK",
      "vis_m": 900,
      "fzfg": true,
      "metar_trigger": false,
      "taf_trigger": false,
      "metar": "SPECI UAAA 281506Z 16001MPS 0900 R05R/P2000 FZFG SCT100 BKN200 M01/M02 Q1015 NOSIG",
      "taf": "TAF UAAA 281109Z 2812/2912 20003MPS 1200 BR FU SCT050 BKN100 TX02/2909Z TNM03/2901Z"
    },
    {
      "icao": "UBBB",
      "alert": "OK",
      "vis_m": 9999,
      "fzfg": false,
      "metar_trigger": false,
      "taf_trigger": false,
      "metar": "METAR UBBB 281500Z 28004KT 9999 OVC021 06/03 Q1002 NOSIG",
      "taf": "TAF UBBB 281055Z 2812/2912 32012KT 9999 SCT012 BKN020 TX06/2812Z TN02/2902Z"
    },
    {
      "icao": "UDSG",
      "alert": "OK",
      "vis_m": 9999,
      "fzfg": false,
      "metar_trigger": false,
      "taf_trigger": false,
      "metar": "METAR UDSG 281500Z 03005KT 9999 NSC M13/M16 Q1000 NOSIG",
      "taf": "TAF UDSG 281100Z 2812/2912 VRB06KT 9999 SCT040"
    },
    {
      "icao": "UDYZ",
      "alert": "OK",
      "vis_m": 9999,
      "fzfg": false,
      "metar_trigger": false,
      "taf_trigger": false,
      "metar": "METAR UDYZ 281500Z 08004KT 9999 NSC M04/M06 Q1002 NOSIG",
      "taf": "TAF UDYZ 281100Z 2812/2912 VRB04KT 6000 FEW040"
    },
    {
      "icao": "UGKO",
      "alert": "OK",
      "vis_m": 9999,
      "fzfg": false,
      "metar_trigger": false,
      "taf_trigger": false,
      "metar": "METAR UGKO 281500Z VRB02KT 9999 SCT027 BKN078 01/01 Q1003 NOSIG",
      "taf": "TAF UGKO 281100Z 2812/2912 08007KT 9999 SCT015 OVC045 TX02/2812Z TNM01/2904Z"
    }
  ]
}