{
  "ts_utc": "2026-01-22T07:18:37Z",
  "threshold_m": 150,
  "source": "stations_override.txt (ICAO list) + aviationweather.gov (METAR/TAF raw)",
  "station_count": 159,
  "stations": [
    {
      "icao": "BIKF",
      "alert": "OK",
      "vis_m": 9999,
      "fzfg": false,
      "metar_trigger": false,
      "taf_trigger": false,
      "metar": "METAR BIKF 220700Z 08013KT 9999 -RA FEW015 BKN030 06/02 Q0986",
      "taf": "TAF BIKF 220454Z 2206/2306 07018G28KT 9999 BKN035 TX08/2218Z TN06/2206Z"
    },
    {
      "icao": "BKPR",
      "alert": "OK",
      "vis_m": 6000,
      "fzfg": false,
      "metar_trigger": false,
      "taf_trigger": false,
      "metar": "METAR BKPR 220700Z 05001KT 6000 FEW030 M02/M02 Q1003 NOSIG",
      "taf": "TAF BKPR 220530Z 2206/2306 VRB03KT 9999 BKN025"
    },
    {
      "icao": "EBCI",
      "alert": "OK",
      "vis_m": 9999,
      "fzfg": false,
      "metar_trigger": false,
      "taf_trigger": false,
      "metar": "METAR EBCI 220650Z 14008KT CAVOK 04/M00 Q0993 NOSIG",
      "taf": "TAF EBCI 220504Z 2206/2312 15008KT CAVOK"
    },
    {
      "icao": "EDDB",
      "alert": "OK",
      "vis_m": 7000,
      "fzfg": false,
      "metar_trigger": false,
      "taf_trigger": false,
      "metar": "METAR EDDB 220650Z AUTO 04006KT 7000 NCD M07/M09 Q1003 NOSIG",
      "taf": "TAF EDDB 220500Z 2206/2306 08007KT CAVOK"
    },
    {
      "icao": "EDDH",
      "alert": "OK",
      "vis_m": 9999,
      "fzfg": false,
      "metar_trigger": false,
      "taf_trigger": false,
      "metar": "METAR EDDH 220650Z AUTO 07010KT CAVOK M04/M06 Q1004 NOSIG",
      "taf": "TAF EDDH 220500Z 2206/2312 09010KT CAVOK"
    },
    {
      "icao": "EDDK",
      "alert": "OK",
      "vis_m": 9999,
      "fzfg": false,
      "metar_trigger": false,
      "taf_trigger": false,
      "metar": "METAR EDDK 220650Z AUTO 10005KT 070V140 CAVOK M00/M06 Q0997 NOSIG",
      "taf": "TAF EDDK 220500Z 2206/2312 12008KT CAVOK"
    },
    {
      "icao": "EDDN",
      "alert": "OK",
      "vis_m": 7000,
      "fzfg": false,
      "metar_trigger": false,
      "taf_trigger": false,
      "metar": "METAR EDDN 220650Z AUTO 11003KT 7000 OVC009 M09/M11 Q1000 NOSIG",
      "taf": "TAF EDDN 220500Z 2206/2306 11006KT 7000 NSC"
    },
    {
      "icao": "EDDS",
      "alert": "OK",
      "vis_m": 6000,
      "fzfg": false,
      "metar_trigger": false,
      "taf_trigger": false,
      "metar": "METAR EDDS 220650Z AUTO 14002KT 6000 NSC M06/M07 Q0996 NOSIG",
      "taf": "TAF EDDS 220500Z 2206/2306 VRB02KT CAVOK"
    },
    {
      "icao": "EDFH",
      "alert": "OK",
      "vis_m": 9000,
      "fzfg": false,
      "metar_trigger": false,
      "taf_trigger": false,
      "metar": "METAR EDFH 220650Z 14015KT 9000 NSC M05/M06 Q0996",
      "taf": "TAF EDFH 220500Z 2206/2306 14013KT CAVOK"
    },
    {
      "icao": "EDJA",
      "alert": "OK",
      "vis_m": 1200,
      "fzfg": false,
      "metar_trigger": false,
      "taf_trigger": false,
      "metar": "METAR EDJA 220650Z 23003KT 1200 R24/1900D BR OVC002 M05/M06 Q0997",
      "taf": ""
    },
    {
      "icao": "EDLW",
      "alert": "OK",
      "vis_m": 9999,
      "fzfg": false,
      "metar_trigger": false,
      "taf_trigger": false,
      "metar": "METAR EDLW 220650Z 03003KT 360V060 CAVOK M02/M04 Q0997",
      "taf": "TAF EDLW 220500Z 2206/2306 VRB03KT CAVOK"
    },
    {
      "icao": "EDNY",
      "alert": "OK",
      "vis_m": 4700,
      "fzfg": false,
      "metar_trigger": false,
      "taf_trigger": false,
      "metar": "METAR EDNY 220650Z VRB02KT 4700 BR OVC004 M02/M02 Q0998",
      "taf": "TAF EDNY 220500Z 2206/2215 VRB02KT 6000 OVC006"
    },
    {
      "icao": "EDSB",
      "alert": "OK",
      "vis_m": 1400,
      "fzfg": false,
      "metar_trigger": false,
      "taf_trigger": false,
      "metar": "METAR EDSB 220650Z 08004KT 050V110 1400 R21/1800U BR BKN002 OVC005 M01/M02 Q0998",
      "taf": "TAF EDSB 220500Z 2206/2306 VRB03KT 3000 BR OVC005"
    },
    {
      "icao": "EETN",
      "alert": "OK",
      "vis_m": 9000,
      "fzfg": false,
      "metar_trigger": false,
      "taf_trigger": false,
      "metar": "METAR EETN 220650Z 10010KT 9000 -SN OVC023 M07/M09 Q1024 TEMPO BKN014",
      "taf": "TAF EETN 220530Z 2206/2306 09014KT 9999 OVC015"
    },
    {
      "icao": "EFTU",
      "alert": "OK",
      "vis_m": 9999,
      "fzfg": false,
      "metar_trigger": false,
      "taf_trigger": false,
      "metar": "METAR EFTU 220650Z AUTO 11012KT 9999 OVC010 M05/M07 Q1025",
      "taf": "TAF EFTU 220524Z 2206/2306 10012KT 9999 -SN OVC011"
    },
    {
      "icao": "EGBB",
      "alert": "OK",
      "vis_m": 9999,
      "fzfg": false,
      "metar_trigger": false,
      "taf_trigger": false,
      "metar": "METAR EGBB 220650Z 12012KT 9999 -RA OVC008 08/07 Q0987",
      "taf": "TAF EGBB 220454Z 2206/2306 12012KT 9999 SCT006 BKN010"
    },
    {
      "icao": "EGGP",
      "alert": "OK",
      "vis_m": 9999,
      "fzfg": false,
      "metar_trigger": false,
      "taf_trigger": false,
      "metar": "METAR EGGP 220650Z 11011KT 9999 -RA BKN010 08/07 Q0987",
      "taf": "TAF EGGP 220455Z 2206/2306 12012KT 9999 BKN020"
    },
    {
      "icao": "EGGW",
      "alert": "OK",
      "vis_m": 4800,
      "fzfg": false,
      "metar_trigger": false,
      "taf_trigger": false,
      "metar": "METAR EGGW 220650Z AUTO 12008KT 4800 -RADZ OVC003 07/06 Q0988",
      "taf": "TAF EGGW 220456Z 2206/2306 13012KT 9999 BKN007"
    },
    {
      "icao": "EGKK",
      "alert": "OK",
      "vis_m": 6000,
      "fzfg": false,
      "metar_trigger": false,
      "taf_trigger": false,
      "metar": "METAR EGKK 220650Z 13008KT 6000 -RADZ BKN007 08/08 Q0988",
      "taf": "TAF EGKK 220457Z 2206/2312 13008KT 9999 FEW010 SCT030"
    },
    {
      "icao": "EGNM",
      "alert": "OK",
      "vis_m": 1800,
      "fzfg": false,
      "metar_trigger": false,
      "taf_trigger": false,
      "metar": "METAR EGNM 220650Z 10013KT 1800 -RA BR OVC002 06/06 Q0989",
      "taf": "TAF EGNM 220455Z 2206/2306 12012KT 6000 BKN008"
    },
    {
      "icao": "EGPD",
      "alert": "OK",
      "vis_m": 6000,
      "fzfg": false,
      "metar_trigger": false,
      "taf_trigger": false,
      "metar": "METAR EGPD 220650Z AUTO 12021G33KT 6000 OVC009/// //////TCU 06/04 Q0995 TEMPO BKN012",
      "taf": "TAF EGPD 220454Z 2206/2306 13020G35KT 9999 BKN012"
    },
    {
      "icao": "EGPF",
      "alert": "OK",
      "vis_m": 9999,
      "fzfg": false,
      "metar_trigger": false,
      "taf_trigger": false,
      "metar": "METAR EGPF 220650Z AUTO 08013KT 9999 BKN027 OVC043 08/06 Q0988",
      "taf": "TAF EGPF 220456Z 2206/2306 08011KT 9999 FEW012 BKN025"
    },
    {
      "icao": "EHBK",
      "alert": "OK",
      "vis_m": 9999,
      "fzfg": false,
      "metar_trigger": false,
      "taf_trigger": false,
      "metar": "METAR EHBK 220655Z AUTO 11006KT 9999 NSC 01/M03 Q0995 NOSIG",
      "taf": "TAF EHBK 220504Z 2206/2312 09007KT CAVOK"
    },
    {
      "icao": "EHEH",
      "alert": "OK",
      "vis_m": 9999,
      "fzfg": false,
      "metar_trigger": false,
      "taf_trigger": false,
      "metar": "METAR EHEH 220655Z AUTO 10005KT 060V140 9999 FEW310 00/M04 Q0995 BLU NOSIG RMK TREND REMOTE BY EHWX",
      "taf": "TAF EHEH 220547Z 2206/2312 09006KT CAVOK"
    },
    {
      "icao": "EKBI",
      "alert": "OK",
      "vis_m": 9999,
      "fzfg": false,
      "metar_trigger": false,
      "taf_trigger": false,
      "metar": "METAR EKBI 220650Z AUTO 08017KT 9999 OVC016/// M00/M03 Q1008",
      "taf": "TAF EKBI 220527Z 2206/2306 08015KT 9999 OVC030"
    },
    {
      "icao": "EKCH",
      "alert": "OK",
      "vis_m": 7000,
      "fzfg": false,
      "metar_trigger": false,
      "taf_trigger": false,
      "metar": "METAR EKCH 220650Z AUTO 06017KT 7000 OVC016/// M01/M04 Q1009 NOSIG",
      "taf": "TAF EKCH 220527Z 2206/2306 07018KT 9999 BKN020"
    },
    {
      "icao": "ENAL",
      "alert": "OK",
      "vis_m": 9999,
      "fzfg": false,
      "metar_trigger": false,
      "taf_trigger": false,
      "metar": "METAR ENAL 220650Z 12010KT CAVOK 04/M08 Q1011",
      "taf": "TAF ENAL 220500Z 2206/2215 12009KT CAVOK"
    },
    {
      "icao": "ENBR",
      "alert": "OK",
      "vis_m": 9999,
      "fzfg": false,
      "metar_trigger": false,
      "taf_trigger": false,
      "metar": "METAR ENBR 220650Z 00000KT CAVOK M03/M07 Q1010 NOSIG RMK WIND 1200FT VRB01KT",
      "taf": "TAF ENBR 220500Z 2206/2306 07005KT CAVOK"
    },
    {
      "icao": "ENGM",
      "alert": "OK",
      "vis_m": 9999,
      "fzfg": false,
      "metar_trigger": false,
      "taf_trigger": false,
      "metar": "METAR ENGM 220650Z 01006KT 9999 OVC022 M03/M05 Q1019 NOSIG",
      "taf": "TAF ENGM 220500Z 2206/2306 02008KT 9999 OVC020"
    },
    {
      "icao": "ENHD",
      "alert": "OK",
      "vis_m": 9999,
      "fzfg": false,
      "metar_trigger": false,
      "taf_trigger": false,
      "metar": "METAR ENHD 220650Z AUTO 11011KT 9999 NCD 02/M09 Q1010",
      "taf": ""
    },
    {
      "icao": "ENTC",
      "alert": "OK",
      "vis_m": 900,
      "fzfg": true,
      "metar_trigger": false,
      "taf_trigger": false,
      "metar": "METAR ENTC 220650Z VRB01KT 0900 R36/P2000N R18/1400D FZFG SCT000 M09/M11 Q1024 RMK WIND 2600FT 09009KT",
      "taf": "TAF ENTC 220500Z 2206/2306 VRB02KT 9999 FEW001"
    },
    {
      "icao": "ENTO",
      "alert": "OK",
      "vis_m": 9999,
      "fzfg": false,
      "metar_trigger": false,
      "taf_trigger": false,
      "metar": "METAR ENTO 220650Z 03011KT 9999 OVC024 M01/M05 Q1018 NOSIG",
      "taf": "TAF ENTO 220500Z 2206/2306 04012KT 9999 OVC020"
    },
    {
      "icao": "ENVA",
      "alert": "OK",
      "vis_m": 9999,
      "fzfg": false,
      "metar_trigger": false,
      "taf_trigger": false,
      "metar": "METAR ENVA 220650Z 11016KT CAVOK M01/M07 Q1019 NOSIG RMK WIND 670FT 12013KT",
      "taf": "TAF ENVA 220500Z 2206/2306 11010KT CAVOK"
    },
    {
      "icao": "ENZV",
      "alert": "OK",
      "vis_m": 9999,
      "fzfg": false,
      "metar_trigger": false,
      "taf_trigger": false,
      "metar": "METAR ENZV 220650Z 10012KT CAVOK 02/M08 Q1010 NOSIG",
      "taf": "TAF ENZV 220500Z 2206/2306 10009KT CAVOK"
    },
    {
      "icao": "EPGD",
      "alert": "OK",
      "vis_m": 900,
      "fzfg": true,
      "metar_trigger": false,
      "taf_trigger": false,
      "metar": "METAR EPGD 220700Z VRB02KT 0900 R29/0600N FZFG FEW001 M10/M11 Q1007",
      "taf": ""
    },
    {
      "icao": "EPKK",
      "alert": "OK",
      "vis_m": 3100,
      "fzfg": false,
      "metar_trigger": false,
      "taf_trigger": false,
      "metar": "METAR EPKK 220700Z 05004KT 3100 BR NSC M10/M12 Q1003",
      "taf": "TAF EPKK 220530Z 2206/2306 VRB02KT 4000 BR NSC"
    },
    {
      "icao": "EPKT",
      "alert": "OK",
      "vis_m": 5000,
      "fzfg": false,
      "metar_trigger": false,
      "taf_trigger": false,
      "metar": "METAR EPKT 220700Z 26003KT 5000 BR NSC M15/M17 Q1003",
      "taf": "TAF EPKT 220530Z 2206/2306 05004KT 7000 NSC"
    },
    {
      "icao": "EPLB",
      "alert": "OK",
      "vis_m": 2200,
      "fzfg": false,
      "metar_trigger": false,
      "taf_trigger": false,
      "metar": "METAR EPLB 220700Z 07006KT 2200 BR NSC M18/M19 Q1007",
      "taf": "TAF EPLB 220530Z 2206/2306 09010KT 2500 BR NSC"
    },
    {
      "icao": "EPMO",
      "alert": "OK",
      "vis_m": 2500,
      "fzfg": false,
      "metar_trigger": false,
      "taf_trigger": false,
      "metar": "METAR EPMO 220700Z 06008KT 2500 BR NSC M15/M16 Q1007",
      "taf": ""
    },
    {
      "icao": "EPPO",
      "alert": "OK",
      "vis_m": 8000,
      "fzfg": false,
      "metar_trigger": false,
      "taf_trigger": false,
      "metar": "METAR EPPO 220700Z 08004KT 8000 NSC M08/M10 Q1004",
      "taf": "TAF EPPO 220530Z 2206/2306 09010KT CAVOK"
    },
    {
      "icao": "EPRA",
      "alert": "OK",
      "vis_m": 6000,
      "fzfg": false,
      "metar_trigger": false,
      "taf_trigger": false,
      "metar": "METAR EPRA 220700Z 13005KT 6000 NSC M13/M15 Q1005",
      "taf": "TAF EPRA 220530Z 2206/2215 14006KT 8000 NSC"
    },
    {
      "icao": "EPRZ",
      "alert": "OK",
      "vis_m": 3700,
      "fzfg": false,
      "metar_trigger": false,
      "taf_trigger": false,
      "metar": "METAR EPRZ 220700Z 09008KT 3700 BR NSC M12/M15 Q1005",
      "taf": "TAF EPRZ 220530Z 2206/2306 08003KT 4000 BR NSC"
    },
    {
      "icao": "EPSC",
      "alert": "OK",
      "vis_m": 4600,
      "fzfg": false,
      "metar_trigger": false,
      "taf_trigger": false,
      "metar": "METAR EPSC 220700Z 04003KT 360V070 4600 BR NSC M08/M10 Q1005",
      "taf": "TAF EPSC 220530Z 2206/2306 07007KT CAVOK"
    },
    {
      "icao": "EPSY",
      "alert": "OK",
      "vis_m": 4100,
      "fzfg": false,
      "metar_trigger": false,
      "taf_trigger": false,
      "metar": "METAR EPSY 220700Z 07005KT 020V110 4100 BR NSC M13/M14 Q1008",
      "taf": "TAF EPSY 220530Z 2206/2215 07006KT 5000 BR NSC"
    },
    {
      "icao": "EPWA",
      "alert": "OK",
      "vis_m": 5000,
      "fzfg": false,
      "metar_trigger": false,
      "taf_trigger": false,
      "metar": "METAR EPWA 220700Z 10008KT 5000 BR NSC M11/M13 Q1007 NOSIG",
      "taf": ""
    },
    {
      "icao": "EPWR",
      "alert": "OK",
      "vis_m": 9999,
      "fzfg": false,
      "metar_trigger": false,
      "taf_trigger": false,
      "metar": "METAR EPWR 220700Z 11004KT CAVOK M06/M09 Q1003",
      "taf": "TAF EPWR 220530Z 2206/2306 12007KT CAVOK"
    },
    {
      "icao": "ESGG",
      "alert": "OK",
      "vis_m": 9999,
      "fzfg": false,
      "metar_trigger": false,
      "taf_trigger": false,
      "metar": "METAR ESGG 220650Z 06014KT 030V090 9999 BKN025 M00/M05 Q1012",
      "taf": "TAF ESGG 220530Z 2206/2306 06012G22KT 9999 OVC025"
    },
    {
      "icao": "ESKN",
      "alert": "OK",
      "vis_m": 4200,
      "fzfg": false,
      "metar_trigger": false,
      "taf_trigger": false,
      "metar": "METAR ESKN 220650Z 06011KT 4200 -SN BKN020 M01/M03 Q1018",
      "taf": "TAF ESKN 220530Z 2206/2306 07012KT 9000 -SN SCT012 OVC020"
    },
    {
      "icao": "ESMS",
      "alert": "OK",
      "vis_m": 5000,
      "fzfg": false,
      "metar_trigger": false,
      "taf_trigger": false,
      "metar": "METAR ESMS 220650Z 07013KT 5000 BR BKN013 M01/M03 Q1008",
      "taf": ""
    },
    {
      "icao": "ESSA",
      "alert": "OK",
      "vis_m": 9999,
      "fzfg": false,
      "metar_trigger": false,
      "taf_trigger": false,
      "metar": "METAR ESSA 220650Z 07014KT 9999 FEW014 BKN019 M02/M04 Q1021 TEMPO BKN012",
      "taf": "TAF ESSA 220530Z 2206/2306 06010KT 9000 -SN SCT008 OVC015"
    },
    {
      "icao": "EYKA",
      "alert": "OK",
      "vis_m": 8000,
      "fzfg": false,
      "metar_trigger": false,
      "taf_trigger": false,
      "metar": "METAR EYKA 220650Z VRB06KT 8000 -SN OVC007 M13/M15 Q1015",
      "taf": "TAF EYKA 220503Z 2206/2306 08008KT 8000 BKN010"
    },
    {
      "icao": "EYPA",
      "alert": "OK",
      "vis_m": 9999,
      "fzfg": false,
      "metar_trigger": false,
      "taf_trigger": false,
      "metar": "METAR EYPA 220650Z 10008KT 9999 OVC011 M10/M12 Q1014",
      "taf": "TAF EYPA 220506Z 2206/2306 09010KT 8000 BKN010"
    },
    {
      "icao": "EYVI",
      "alert": "OK",
      "vis_m": 6000,
      "fzfg": false,
      "metar_trigger": false,
      "taf_trigger": false,
      "metar": "METAR EYVI 220650Z 08010KT 050V110 6000 -SN OVC006 M13/M15 Q1014 TEMPO 3000 SN",
      "taf": "TAF EYVI 220500Z 2206/2306 08012KT 5000 BR BKN005"
    },
    {
      "icao": "GCFV",
      "alert": "OK",
      "vis_m": 9999,
      "fzfg": false,
      "metar_trigger": false,
      "taf_trigger": false,
      "metar": "METAR GCFV 220700Z 32006KT 9999 FEW022 SCT028 BKN033 17/14 Q1019 RERA",
      "taf": "TAF GCFV 220200Z 2203/2303 29007KT 9999 SCT025 BKN035 TX21/2214Z TN15/2206Z"
    },
    {
      "icao": "GCLP",
      "alert": "OK",
      "vis_m": 9999,
      "fzfg": false,
      "metar_trigger": false,
      "taf_trigger": false,
      "metar": "METAR GCLP 220700Z VRB02KT 9999 SCT027 16/12 Q1020 NOSIG",
      "taf": "TAF GCLP 220200Z 2203/2303 27005KT 9999 BKN030 TX21/2214Z TN15/2206Z"
    },
    {
      "icao": "GCTS",
      "alert": "OK",
      "vis_m": 9999,
      "fzfg": false,
      "metar_trigger": false,
      "taf_trigger": false,
      "metar": "METAR GCTS 220700Z 03005KT 9999 BKN025 15/12 Q1020 NOSIG",
      "taf": "TAF GCTS 220200Z 2203/2303 30005KT 9999 SCT030 TX22/2214Z TN14/2206Z"
    },
    {
      "icao": "GMAD",
      "alert": "OK",
      "vis_m": 3000,
      "fzfg": false,
      "metar_trigger": false,
      "taf_trigger": false,
      "metar": "METAR GMAD 220700Z 00000KT 3000 DZ BKN003 BKN016 12/12 Q1017 NOSIG",
      "taf": "TAF GMAD 220500Z 2206/2312 24006KT 6000 SCT008 SCT026"
    },
    {
      "icao": "GMMN",
      "alert": "OK",
      "vis_m": 3000,
      "fzfg": false,
      "metar_trigger": false,
      "taf_trigger": false,
      "metar": "SPECI GMMN 220705Z 22005KT 3000 0300N BR FEW005 BKN030 10/10 Q1015 NOSIG",
      "taf": "TAF GMMN 220500Z 2206/2312 26008KT 8000 BKN004"
    },
    {
      "icao": "GMMX",
      "alert": "OK",
      "vis_m": 3000,
      "fzfg": false,
      "metar_trigger": false,
      "taf_trigger": false,
      "metar": "METAR GMMX 220700Z 22005KT 190V290 3000 RA SCT010 BKN020 12/11 Q1016 TEMPO 1500 SHRA",
      "taf": "TAF GMMX 220500Z 2206/2312 24006KT 8000 BKN026 SCT080"
    },
    {
      "icao": "HEGN",
      "alert": "OK",
      "vis_m": null,
      "fzfg": false,
      "metar_trigger": false,
      "taf_trigger": false,
      "metar": "",
      "taf": "TAF HEGN 220500Z 2206/2312 12014KT CAVOK"
    },
    {
      "icao": "HEMA",
      "alert": "OK",
      "vis_m": null,
      "fzfg": false,
      "metar_trigger": false,
      "taf_trigger": false,
      "metar": "",
      "taf": "TAF HEMA 220500Z 2206/2312 13014KT CAVOK"
    },
    {
      "icao": "HESH",
      "alert": "OK",
      "vis_m": null,
      "fzfg": false,
      "metar_trigger": false,
      "taf_trigger": false,
      "metar": "",
      "taf": "TAF HESH 220500Z 2206/2312 15012KT CAVOK"
    },
    {
      "icao": "HESX",
      "alert": "OK",
      "vis_m": null,
      "fzfg": false,
      "metar_trigger": false,
      "taf_trigger": false,
      "metar": "",
      "taf": "TAF HESX 220500Z 2206/2312 25010KT 7000 SCT020 OVC070"
    },
    {
      "icao": "LATI",
      "alert": "OK",
      "vis_m": null,
      "fzfg": false,
      "metar_trigger": false,
      "taf_trigger": false,
      "metar": "",
      "taf": "TAF LATI 220500Z 2206/2306 VRB05KT 9999 BKN060 TX13/2212Z TN07/2305Z"
    },
    {
      "icao": "LBPD",
      "alert": "OK",
      "vis_m": 4900,
      "fzfg": false,
      "metar_trigger": false,
      "taf_trigger": false,
      "metar": "METAR LBPD 220700Z AUTO 26003KT 220V280 4900 BR OVC017/// M01/M01 Q1007 TEMPO 4000 BR",
      "taf": "TAF LBPD 220500Z 2206/2306 VRB03KT 6000 BKN015 OVC025"
    },
    {
      "icao": "LBSF",
      "alert": "OK",
      "vis_m": 9999,
      "fzfg": false,
      "metar_trigger": false,
      "taf_trigger": false,
      "metar": "METAR LBSF 220700Z 10003KT 050V140 9999 SCT017 OVC020 M01/M02 Q1005 NOSIG",
      "taf": "TAF LBSF 220500Z 2206/2306 12010KT 8000 SCT020 BKN030 OVC040"
    },
    {
      "icao": "LBWN",
      "alert": "OK",
      "vis_m": 9999,
      "fzfg": false,
      "metar_trigger": false,
      "taf_trigger": false,
      "metar": "METAR LBWN 220700Z 10004KT 9999 -RA BKN033 OVC045 06/05 Q1007 TEMPO RA",
      "taf": "TAF LBWN 220500Z 2206/2306 11010KT 9999 BKN020 OVC040"
    },
    {
      "icao": "LCLK",
      "alert": "OK",
      "vis_m": 9999,
      "fzfg": false,
      "metar_trigger": false,
      "taf_trigger": false,
      "metar": "METAR LCLK 220700Z 03014KT CAVOK 14/08 Q1018 NOSIG",
      "taf": "TAF LCLK 220530Z 2206/2306 05020KT 9999 BKN070"
    },
    {
      "icao": "LCPH",
      "alert": "OK",
      "vis_m": 9999,
      "fzfg": false,
      "metar_trigger": false,
      "taf_trigger": false,
      "metar": "METAR LCPH 220700Z 09018KT 9999 BKN080 14/08 Q1014 NOSIG",
      "taf": "TAF LCPH 220530Z 2206/2306 13020G30KT 9999 BKN070"
    },
    {
      "icao": "LEAL",
      "alert": "OK",
      "vis_m": 9999,
      "fzfg": false,
      "metar_trigger": false,
      "taf_trigger": false,
      "metar": "METAR LEAL 220700Z 28008G18KT 220V330 CAVOK 13/04 Q1000 NOSIG",
      "taf": "TAF LEAL 220500Z 2206/2306 VRB04KT 9999 BKN040 TX18/2213Z TN09/2306Z"
    },
    {
      "icao": "LEBB",
      "alert": "OK",
      "vis_m": 9999,
      "fzfg": false,
      "metar_trigger": false,
      "taf_trigger": false,
      "metar": "METAR LEBB 220700Z 27006KT 220V300 9999 BKN042 BKN052 11/05 Q1000 NOSIG",
      "taf": "TAF LEBB 220500Z 2206/2306 22009KT 9999 FEW010 SCT030 TX13/2215Z TN07/2209Z"
    },
    {
      "icao": "LEBL",
      "alert": "OK",
      "vis_m": 9999,
      "fzfg": false,
      "metar_trigger": false,
      "taf_trigger": false,
      "metar": "METAR LEBL 220700Z 33013G27KT 300V010 9999 DZ FEW020 BKN060 11/09 Q0994 NOSIG",
      "taf": ""
    },
    {
      "icao": "LECH",
      "alert": "OK",
      "vis_m": 9000,
      "fzfg": false,
      "metar_trigger": false,
      "taf_trigger": false,
      "metar": "METAR LECH 220700Z AUTO 31007KT 250V010 9000 FEW050 11/00 Q0997",
      "taf": ""
    },
    {
      "icao": "LEMD",
      "alert": "OK",
      "vis_m": 9999,
      "fzfg": false,
      "metar_trigger": false,
      "taf_trigger": false,
      "metar": "METAR LEMD 220700Z 19009KT CAVOK 07/00 Q1002 NOSIG",
      "taf": "TAF LEMD 220500Z 2206/2312 20008KT 9999 SCT010 SCT030 TX10/2215Z TN04/2207Z"
    },
    {
      "icao": "LEMG",
      "alert": "OK",
      "vis_m": 9999,
      "fzfg": false,
      "metar_trigger": false,
      "taf_trigger": false,
      "metar": "METAR LEMG 220700Z 30007KT 9999 FEW040 10/05 Q1008 NOSIG",
      "taf": "TAF LEMG 220500Z 2206/2306 30010KT 9999 FEW050 TX17/2214Z TN11/2207Z"
    },
    {
      "icao": "LEVC",
      "alert": "OK",
      "vis_m": 9999,
      "fzfg": false,
      "metar_trigger": false,
      "taf_trigger": false,
      "metar": "METAR LEVC 220700Z 27012KT CAVOK 11/03 Q0998 NOSIG",
      "taf": "TAF LEVC 220500Z 2206/2306 27010KT 9999 BKN040 TX18/2213Z TN07/2305Z"
    },
    {
      "icao": "LEXJ",
      "alert": "OK",
      "vis_m": 9999,
      "fzfg": false,
      "metar_trigger": false,
      "taf_trigger": false,
      "metar": "METAR LEXJ 220700Z 28018G29KT 9999 SCT052 SCT060 10/04 Q1000",
      "taf": ""
    },
    {
      "icao": "LEZG",
      "alert": "OK",
      "vis_m": 9999,
      "fzfg": false,
      "metar_trigger": false,
      "taf_trigger": false,
      "metar": "METAR LEZG 220700Z 26010KT 9999 FEW080 07/06 Q0999 NOSIG",
      "taf": "TAF LEZG 220500Z 2206/2306 28008KT 9999 FEW040 TX13/2215Z TN05/2306Z"
    },
    {
      "icao": "LEZL",
      "alert": "OK",
      "vis_m": 9999,
      "fzfg": false,
      "metar_trigger": false,
      "taf_trigger": false,
      "metar": "METAR LEZL 220700Z 23008KT 9999 FEW040 11/09 Q1010 NOSIG",
      "taf": "TAF LEZL 220200Z 2203/2303 25009KT 9999 FEW030 TX15/2215Z TN09/2207Z"
    },
    {
      "icao": "LFBD",
      "alert": "OK",
      "vis_m": 9999,
      "fzfg": false,
      "metar_trigger": false,
      "taf_trigger": false,
      "metar": "METAR LFBD 220700Z AUTO 22008KT 9999 FEW031 BKN056 BKN074 08/07 Q0995 TEMPO 24020G35KT 1500 TSRA BKN025CB",
      "taf": "TAF LFBD 220500Z 2206/2312 24010KT CAVOK TX12/2214Z TN06/2223Z"
    },
    {
      "icao": "LFLL",
      "alert": "OK",
      "vis_m": 7000,
      "fzfg": false,
      "metar_trigger": false,
      "taf_trigger": false,
      "metar": "METAR LFLL 220700Z 13007KT 7000 -RA BKN034 05/05 Q0997 NOSIG",
      "taf": "TAF LFLL 220500Z 2206/2312 17008KT CAVOK"
    },
    {
      "icao": "LFLS",
      "alert": "OK",
      "vis_m": 5000,
      "fzfg": false,
      "metar_trigger": false,
      "taf_trigger": false,
      "metar": "METAR LFLS 220700Z AUTO 10004KT 5000 -RA BR OVC014 04/04 Q0997 NOSIG",
      "taf": ""
    },
    {
      "icao": "LFMN",
      "alert": "OK",
      "vis_m": 9999,
      "fzfg": false,
      "metar_trigger": false,
      "taf_trigger": false,
      "metar": "METAR LFMN 220700Z 33007KT 9999 SCT066 BKN090 08/03 Q1000 NOSIG",
      "taf": ""
    },
    {
      "icao": "LFOB",
      "alert": "OK",
      "vis_m": 9999,
      "fzfg": false,
      "metar_trigger": false,
      "taf_trigger": false,
      "metar": "METAR LFOB 220700Z AUTO 14009KT 9999 FEW022 BKN042 BKN074 07/05 Q0991 TEMPO BKN008",
      "taf": "TAF LFOB 220500Z 2206/2306 15012KT 9999 BKN015"
    },
    {
      "icao": "LFPO",
      "alert": "OK",
      "vis_m": 9999,
      "fzfg": false,
      "metar_trigger": false,
      "taf_trigger": false,
      "metar": "METAR LFPO 220700Z 17007KT 9999 BKN020 09/05 Q0991 NOSIG",
      "taf": "TAF LFPO 220500Z 2206/2312 15008KT 9999 SCT026 BKN040"
    },
    {
      "icao": "LFSB",
      "alert": "OK",
      "vis_m": 5000,
      "fzfg": true,
      "metar_trigger": false,
      "taf_trigger": false,
      "metar": "METAR LFSB 220700Z AUTO VRB02KT 5000 BR OVC003 M02/M02 Q0998 TEMPO 0300 FZFG VV///",
      "taf": ""
    },
    {
      "icao": "LGAV",
      "alert": "OK",
      "vis_m": 9999,
      "fzfg": false,
      "metar_trigger": false,
      "taf_trigger": false,
      "metar": "METAR LGAV 220650Z 00000KT 9999 SCT012 SCT030 BKN070 08/06 Q1005 NOSIG",
      "taf": "TAF LGAV 220500Z 2206/2306 04008KT 9999 FEW012 BKN025 BKN070"
    },
    {
      "icao": "LGTS",
      "alert": "OK",
      "vis_m": 7000,
      "fzfg": false,
      "metar_trigger": false,
      "taf_trigger": false,
      "metar": "METAR LGTS 220650Z 27007KT 7000 SCT006 BKN020 OVC035 07/07 Q1005 NOSIG",
      "taf": "TAF LGTS 220500Z 2206/2306 VRB03KT 9999 FEW010 BKN030"
    },
    {
      "icao": "LHBP",
      "alert": "OK",
      "vis_m": 5000,
      "fzfg": false,
      "metar_trigger": false,
      "taf_trigger": false,
      "metar": "METAR LHBP 220700Z 08003KT 5000 BR NSC M03/M05 Q1005 BECMG TL0800 7000 NSW",
      "taf": "TAF LHBP 220515Z 2206/2306 09005KT CAVOK"
    },
    {
      "icao": "LHDC",
      "alert": "OK",
      "vis_m": 7000,
      "fzfg": false,
      "metar_trigger": false,
      "taf_trigger": false,
      "metar": "METAR LHDC 220645Z AUTO 05002KT 7000 SCT024 OVC046 M02/M05 Q1006 NOSIG",
      "taf": "TAF LHDC 220515Z 2206/2215 03005KT CAVOK"
    },
    {
      "icao": "LIBD",
      "alert": "OK",
      "vis_m": 9999,
      "fzfg": false,
      "metar_trigger": false,
      "taf_trigger": false,
      "metar": "METAR LIBD 220650Z VRB02KT 9999 SCT020 06/06 Q0999",
      "taf": "TAF LIBD 220500Z 2206/2306 25006KT 7000 SCT005 BKN014"
    },
    {
      "icao": "LIBG",
      "alert": "OK",
      "vis_m": 9999,
      "fzfg": false,
      "metar_trigger": false,
      "taf_trigger": false,
      "metar": "SPECI LIBG 220656Z VRB01KT 9999 SCT015 08/08 Q0999",
      "taf": "TAF LIBG 220710Z 2208/2215 VRB05KT 7000 SCT020"
    },
    {
      "icao": "LIBP",
      "alert": "OK",
      "vis_m": 9999,
      "fzfg": false,
      "metar_trigger": false,
      "taf_trigger": false,
      "metar": "METAR LIBP 220650Z AUTO 23004KT 9999 OVC016/// 07/07 Q1000",
      "taf": "TAF LIBP 220500Z 2206/2306 VRB05KT 9999 BKN040"
    },
    {
      "icao": "LIBR",
      "alert": "OK",
      "vis_m": 9999,
      "fzfg": false,
      "metar_trigger": false,
      "taf_trigger": false,
      "metar": "METAR LIBR 220650Z 30005KT 9999 FEW025 09/08 Q0999",
      "taf": "TAF LIBR 220500Z 2206/2306 VRB05KT 9999 SCT040"
    },
    {
      "icao": "LICA",
      "alert": "OK",
      "vis_m": 9999,
      "fzfg": false,
      "metar_trigger": false,
      "taf_trigger": false,
      "metar": "METAR LICA 220650Z AUTO 06004KT 9999 FEW097/// 07/06 Q0999",
      "taf": "TAF LICA 220500Z 2206/2306 08012KT 9999 SCT040"
    },
    {
      "icao": "LICC",
      "alert": "OK",
      "vis_m": 9999,
      "fzfg": false,
      "metar_trigger": false,
      "taf_trigger": false,
      "metar": "METAR LICC 220650Z 25003KT 9999 FEW060 07/06 Q1000",
      "taf": "TAF LICC 220500Z 2206/2306 26012KT 7000 FEW050"
    },
    {
      "icao": "LICJ",
      "alert": "OK",
      "vis_m": 9999,
      "fzfg": false,
      "metar_trigger": false,
      "taf_trigger": false,
      "metar": "METAR LICJ 220650Z 33013KT 9999 FEW020 SCT060 14/09 Q1001",
      "taf": "TAF LICJ 220500Z 2206/2306 34015KT 9999 SCT025"
    },
    {
      "icao": "LIMC",
      "alert": "OK",
      "vis_m": 200,
      "fzfg": true,
      "metar_trigger": false,
      "taf_trigger": false,
      "metar": "METAR LIMC 220650Z 36004KT 0200 R35R/0400N R17L/0375N R35L/0500N FZFG OVC001 M01/M01 Q1001 NOSIG",
      "taf": ""
    },
    {
      "icao": "LIME",
      "alert": "OK",
      "vis_m": 9999,
      "fzfg": false,
      "metar_trigger": false,
      "taf_trigger": false,
      "metar": "METAR LIME 220650Z 02004KT CAVOK M01/M03 Q1001 NOSIG",
      "taf": "TAF LIME 220500Z 2206/2306 VRB04KT CAVOK"
    },
    {
      "icao": "LIMF",
      "alert": "CRITICAL",
      "vis_m": 100,
      "fzfg": true,
      "metar_trigger": true,
      "taf_trigger": false,
      "metar": "METAR LIMF 220650Z VRB02KT 0100 R36/0550N FZFG VV015 M01/M02 Q1001",
      "taf": "TAF LIMF 220500Z 2206/2306 VRB04KT 4000 BR NSC"
    },
    {
      "icao": "LIMJ",
      "alert": "OK",
      "vis_m": 9999,
      "fzfg": false,
      "metar_trigger": false,
      "taf_trigger": false,
      "metar": "METAR LIMJ 220650Z 03017KT CAVOK 04/M01 Q1000",
      "taf": "TAF LIMJ 220500Z 2206/2306 04013KT 9999 FEW040"
    },
    {
      "icao": "LIPE",
      "alert": "OK",
      "vis_m": 5000,
      "fzfg": false,
      "metar_trigger": false,
      "taf_trigger": false,
      "metar": "METAR LIPE 220650Z 30002KT 5000 BR SCT025 BKN040 03/01 Q1002",
      "taf": "TAF LIPE 220500Z 2206/2306 VRB05KT 9999 SCT040 BKN060"
    },
    {
      "icao": "LIPH",
      "alert": "OK",
      "vis_m": 9999,
      "fzfg": false,
      "metar_trigger": false,
      "taf_trigger": false,
      "metar": "METAR LIPH 220650Z VRB02KT 9999 BKN070 00/M05 Q1002",
      "taf": "TAF LIPH 220500Z 2206/2306 VRB05KT CAVOK"
    },
    {
      "icao": "LIPQ",
      "alert": "OK",
      "vis_m": 9999,
      "fzfg": false,
      "metar_trigger": false,
      "taf_trigger": false,
      "metar": "METAR LIPQ 220650Z AUTO 01005KT 9999 OVC057/// 01/M05 Q1001",
      "taf": "TAF LIPQ 220500Z 2206/2306 VRB05KT CAVOK"
    },
    {
      "icao": "LIPR",
      "alert": "OK",
      "vis_m": 8000,
      "fzfg": false,
      "metar_trigger": false,
      "taf_trigger": false,
      "metar": "METAR LIPR 220650Z 30006KT 8000 BKN015 04/01 Q1002",
      "taf": "TAF LIPR 220500Z 2206/2306 VRB05KT 9999 BKN020"
    },
    {
      "icao": "LIPX",
      "alert": "OK",
      "vis_m": 9999,
      "fzfg": false,
      "metar_trigger": false,
      "taf_trigger": false,
      "metar": "METAR LIPX 220650Z VRB01KT 9999 BKN055 00/M02 Q1001",
      "taf": "TAF LIPX 220500Z 2206/2306 VRB04KT 9999 SCT050"
    },
    {
      "icao": "LIPY",
      "alert": "OK",
      "vis_m": 9999,
      "fzfg": false,
      "metar_trigger": false,
      "taf_trigger": false,
      "metar": "METAR LIPY 220650Z AUTO 29003KT 250V310 9999 OVC018/// 05/02 Q1002",
      "taf": "TAF LIPY 220500Z 2206/2306 25008KT 9999 BKN014 OVC015"
    },
    {
      "icao": "LIPZ",
      "alert": "OK",
      "vis_m": 9999,
      "fzfg": false,
      "metar_trigger": false,
      "taf_trigger": false,
      "metar": "METAR LIPZ 220650Z 28003KT 9999 SCT070 01/M05 Q1002 NOSIG",
      "taf": "TAF LIPZ 220500Z 2206/2312 VRB05KT CAVOK"
    },
    {
      "icao": "LIRF",
      "alert": "OK",
      "vis_m": 9999,
      "fzfg": false,
      "metar_trigger": false,
      "taf_trigger": false,
      "metar": "METAR LIRF 220650Z 09003KT CAVOK 05/03 Q1000 NOSIG",
      "taf": "TAF LIRF 220500Z 2206/2312 34007KT 9999 SCT050"
    },
    {
      "icao": "LIRN",
      "alert": "OK",
      "vis_m": 9999,
      "fzfg": false,
      "metar_trigger": false,
      "taf_trigger": false,
      "metar": "METAR LIRN 220650Z 31004KT 270V080 9999 SCT080 09/05 Q0999 NOSIG",
      "taf": "TAF LIRN 220500Z 2206/2306 VRB05KT 9999 SCT050"
    },
    {
      "icao": "LIRP",
      "alert": "OK",
      "vis_m": 9999,
      "fzfg": false,
      "metar_trigger": false,
      "taf_trigger": false,
      "metar": "METAR LIRP 220645Z 12004KT CAVOK M01/M01 Q1000 NOSIG",
      "taf": "TAF LIRP 220500Z 2206/2306 11004KT 9999 FEW020 SCT040"
    },
    {
      "icao": "LIRZ",
      "alert": "OK",
      "vis_m": 9999,
      "fzfg": false,
      "metar_trigger": false,
      "taf_trigger": false,
      "metar": "METAR LIRZ 220650Z AUTO 13002KT 9999 OVC050/// 05/03 Q1000",
      "taf": "TAF LIRZ 220500Z 2206/2306 VRB05KT 9999 BKN045"
    },
    {
      "icao": "LJLJ",
      "alert": "OK",
      "vis_m": 8000,
      "fzfg": false,
      "metar_trigger": false,
      "taf_trigger": false,
      "metar": "METAR LJLJ 220700Z 29004KT 8000 FEW010 BKN060 M06/M08 Q1002 NOSIG",
      "taf": "TAF LJLJ 220500Z 2206/2306 12003KT 6000 BKN010 OVC065"
    },
    {
      "icao": "LKMT",
      "alert": "OK",
      "vis_m": 9999,
      "fzfg": false,
      "metar_trigger": false,
      "taf_trigger": false,
      "metar": "METAR LKMT 220700Z 00000KT CAVOK M09/M11 Q1003 NOSIG",
      "taf": "TAF LKMT 220500Z 2206/2306 VRB02KT CAVOK"
    },
    {
      "icao": "LKPR",
      "alert": "OK",
      "vis_m": 8000,
      "fzfg": false,
      "metar_trigger": false,
      "taf_trigger": false,
      "metar": "METAR LKPR 220700Z 05003KT 020V100 8000 BKN014 M07/M09 Q1001 NOSIG",
      "taf": "TAF LKPR 220500Z 2206/2312 13002KT 5000 BR BKN014"
    },
    {
      "icao": "LLBG",
      "alert": "OK",
      "vis_m": 9999,
      "fzfg": false,
      "metar_trigger": false,
      "taf_trigger": false,
      "metar": "METAR LLBG 220650Z 10008KT CAVOK 18/00 Q1015 TEMPO 10020G30KT RMK OVC100 FCST 1500FT-WIND 100/30KT",
      "taf": "TAF LLBG 220504Z 2206/2306 10010KT CAVOK"
    },
    {
      "icao": "LMML",
      "alert": "OK",
      "vis_m": 9999,
      "fzfg": false,
      "metar_trigger": false,
      "taf_trigger": false,
      "metar": "METAR LMML 220715Z 27006KT 9999 FEW018TCU 11/10 Q1001 NOSIG",
      "taf": "TAF LMML 220500Z 2206/2306 30012KT 9999 FEW017"
    },
    {
      "icao": "LOWW",
      "alert": "OK",
      "vis_m": 5000,
      "fzfg": false,
      "metar_trigger": false,
      "taf_trigger": false,
      "metar": "METAR LOWW 220650Z 14012KT 5000 BR FEW006 BKN007 M06/M08 Q1003 TEMPO 4000 BR",
      "taf": "TAF LOWW 220515Z 2206/2312 14012KT 5000 BR OVC007 TXM02/2312Z TNM06/2305Z"
    },
    {
      "icao": "LPFR",
      "alert": "OK",
      "vis_m": 9999,
      "fzfg": false,
      "metar_trigger": false,
      "taf_trigger": false,
      "metar": "METAR LPFR 220700Z 29007KT 9999 FEW020 13/09 Q1011",
      "taf": "TAF LPFR 220500Z 2206/2306 29010KT 9999 SCT035"
    },
    {
      "icao": "LPMA",
      "alert": "OK",
      "vis_m": 9999,
      "fzfg": false,
      "metar_trigger": false,
      "taf_trigger": false,
      "metar": "METAR LPMA 220700Z 29003KT 240V340 9999 FEW013 16/13 Q1018",
      "taf": "TAF LPMA 220500Z 2206/2306 VRB05KT 9999 SCT015"
    },
    {
      "icao": "LPPR",
      "alert": "OK",
      "vis_m": 9999,
      "fzfg": false,
      "metar_trigger": false,
      "taf_trigger": false,
      "metar": "METAR LPPR 220700Z 27003KT 220V320 9999 FEW018 SCT030 11/06 Q1006",
      "taf": "TAF LPPR 220500Z 2206/2306 32010KT 9999 BKN035"
    },
    {
      "icao": "LPPS",
      "alert": "OK",
      "vis_m": 9999,
      "fzfg": false,
      "metar_trigger": false,
      "taf_trigger": false,
      "metar": "METAR LPPS 220700Z 30011KT 9999 SCT008 16/15 Q1018",
      "taf": "TAF LPPS 220500Z 2206/2312 30015KT 9999 SCT015"
    },
    {
      "icao": "LPPT",
      "alert": "OK",
      "vis_m": 9999,
      "fzfg": false,
      "metar_trigger": false,
      "taf_trigger": false,
      "metar": "METAR LPPT 220700Z 27003KT 230V310 9999 FEW030 BKN046 11/08 Q1009",
      "taf": "TAF LPPT 220500Z 2206/2312 25008KT 9999 SCT020"
    },
    {
      "icao": "LQBK",
      "alert": "OK",
      "vis_m": 3500,
      "fzfg": false,
      "metar_trigger": false,
      "taf_trigger": false,
      "metar": "METAR LQBK 220700Z 00000KT 3500 BR OVC005 M04/M05 Q1004 NOSIG",
      "taf": "TAF LQBK 220500Z 2206/2306 VRB02KT 7000 SCT012 BKN035 TX01/2213Z TNM04/2206Z"
    },
    {
      "icao": "LQSA",
      "alert": "OK",
      "vis_m": 2500,
      "fzfg": false,
      "metar_trigger": false,
      "taf_trigger": false,
      "metar": "METAR LQSA 220700Z 14001KT 2500 BR FEW010 BKN045 M04/M04 Q1002 NOSIG",
      "taf": "TAF LQSA 220500Z 2206/2306 VRB02KT 4000 BR FEW010 BKN045 TX01/2214Z TNM04/2206Z"
    },
    {
      "icao": "LQTZ",
      "alert": "OK",
      "vis_m": 3300,
      "fzfg": false,
      "metar_trigger": false,
      "taf_trigger": false,
      "metar": "METAR LQTZ 220700Z 36001KT 3300 BR SCT006 M06/M06 Q1003",
      "taf": "TAF LQTZ 220500Z 2206/2306 VRB02KT 6000 SCT012 BKN045 TX01/2213Z TNM06/2206Z"
    },
    {
      "icao": "LRBC",
      "alert": "OK",
      "vis_m": 9999,
      "fzfg": false,
      "metar_trigger": false,
      "taf_trigger": false,
      "metar": "METAR LRBC 220700Z 15011KT 9999 OVC013 01/M01 Q1008",
      "taf": "TAF LRBC 220500Z 2206/2215 16016KT 9999 BKN005"
    },
    {
      "icao": "LRBS",
      "alert": "OK",
      "vis_m": 4000,
      "fzfg": false,
      "metar_trigger": false,
      "taf_trigger": false,
      "metar": "METAR LRBS 220700Z 06004KT 4000 BR OVC003 00/M00 Q1008 NOSIG",
      "taf": ""
    },
    {
      "icao": "LRBV",
      "alert": "OK",
      "vis_m": 9999,
      "fzfg": false,
      "metar_trigger": false,
      "taf_trigger": false,
      "metar": "METAR LRBV 220700Z 24006KT 9999 FEW040 M06/M08 Q1004",
      "taf": "TAF LRBV 220500Z 2206/2215 VRB04KT 9999 SCT050"
    },
    {
      "icao": "LRCL",
      "alert": "OK",
      "vis_m": 5000,
      "fzfg": false,
      "metar_trigger": false,
      "taf_trigger": false,
      "metar": "METAR LRCL 220700Z 00000KT 5000 BR OVC064 M05/M08 Q1006",
      "taf": "TAF LRCL 220500Z 2206/2215 VRB04KT 5000 BR BKN065"
    },
    {
      "icao": "LRCV",
      "alert": "OK",
      "vis_m": 1200,
      "fzfg": false,
      "metar_trigger": false,
      "taf_trigger": false,
      "metar": "METAR LRCV 220700Z 09003KT 1200 R26/1900N SN BR OVC002 00/00 Q1007",
      "taf": "TAF LRCV 220500Z 2206/2215 07006KT 3000 -SN BR OVC002"
    },
    {
      "icao": "LRIA",
      "alert": "OK",
      "vis_m": 9999,
      "fzfg": false,
      "metar_trigger": false,
      "taf_trigger": false,
      "metar": "METAR LRIA 220700Z 11014KT 9999 SCT019 01/M01 Q1008",
      "taf": "TAF LRIA 220500Z 2206/2215 13010KT 9999 BKN020"
    },
    {
      "icao": "LROP",
      "alert": "OK",
      "vis_m": 5000,
      "fzfg": false,
      "metar_trigger": false,
      "taf_trigger": false,
      "metar": "METAR LROP 220700Z 07006KT 5000 -DZRA BR OVC004 00/00 Q1008 NOSIG",
      "taf": ""
    },
    {
      "icao": "LRSB",
      "alert": "OK",
      "vis_m": 9999,
      "fzfg": false,
      "metar_trigger": false,
      "taf_trigger": false,
      "metar": "METAR LRSB 220700Z 26003KT 230V300 9999 FEW040 BKN053 M03/M06 Q1004",
      "taf": "TAF LRSB 220500Z 2206/2306 VRB04KT 9999 SCT075"
    },
    {
      "icao": "LRSM",
      "alert": "OK",
      "vis_m": 9999,
      "fzfg": false,
      "metar_trigger": false,
      "taf_trigger": false,
      "metar": "METAR LRSM 220700Z VRB01KT CAVOK M04/M08 Q1006",
      "taf": "TAF LRSM 220500Z 2206/2215 VRB04KT CAVOK"
    },
    {
      "icao": "LRSV",
      "alert": "OK",
      "vis_m": 600,
      "fzfg": true,
      "metar_trigger": false,
      "taf_trigger": false,
      "metar": "METAR LRSV 220700Z 15006KT 0600 R34/1100U FZFG BKN007 M02/M02 Q1005",
      "taf": ""
    },
    {
      "icao": "LRTM",
      "alert": "OK",
      "vis_m": 2100,
      "fzfg": false,
      "metar_trigger": false,
      "taf_trigger": false,
      "metar": "METAR LRTM 220700Z 22003KT 2100 BR NSC M09/M11 Q1006",
      "taf": "TAF LRTM 220500Z 2206/2215 VRB04KT 3000 BR NSC"
    },
    {
      "icao": "LRTR",
      "alert": "OK",
      "vis_m": 7000,
      "fzfg": false,
      "metar_trigger": false,
      "taf_trigger": false,
      "metar": "METAR LRTR 220700Z 11003KT 7000 BKN046 M01/M03 Q1005",
      "taf": "TAF LRTR 220500Z 2206/2306 VRB04KT 9999 BKN045"
    },
    {
      "icao": "LTAC",
      "alert": "OK",
      "vis_m": 1300,
      "fzfg": false,
      "metar_trigger": false,
      "taf_trigger": false,
      "metar": "SPECI LTAC 220713Z 05004KT 010V080 1300 R03C/P1500N R21C/P1500N R03L/P1500N R03R/P1500N -SN BR SCT013 BKN029 BKN080 M02/M06 Q1015 BECMG 4000",
      "taf": ""
    },
    {
      "icao": "LTFM",
      "alert": "OK",
      "vis_m": 9999,
      "fzfg": false,
      "metar_trigger": false,
      "taf_trigger": false,
      "metar": "METAR LTFM 220650Z 21006KT 9999 -RA BKN040 BKN090 06/00 Q1008 NOSIG RMK RWY17L 26005KT 220V280 RWY34L 23005KT 190V320 RWY16R 27005KT 220V350 RWY36 VRB04KT RWY18 21004KT 160V270",
      "taf": "TAF LTFM 220440Z 2206/2312 11006KT 9999 BKN040 BKN090"
    },
    {
      "icao": "LUKK",
      "alert": "OK",
      "vis_m": 9999,
      "fzfg": false,
      "metar_trigger": false,
      "taf_trigger": false,
      "metar": "METAR LUKK 220700Z 18007KT 9999 OVC025 01/M01 Q1011 NOSIG",
      "taf": "TAF LUKK 220521Z 2206/2306 13009KT 9999 BKN015"
    },
    {
      "icao": "LWOH",
      "alert": "OK",
      "vis_m": null,
      "fzfg": false,
      "metar_trigger": false,
      "taf_trigger": false,
      "metar": "",
      "taf": "TAF LWOH 220540Z 2206/2306 VRB02KT 9999 SCT020 BKN040"
    },
    {
      "icao": "LWSK",
      "alert": "OK",
      "vis_m": null,
      "fzfg": false,
      "metar_trigger": false,
      "taf_trigger": false,
      "metar": "",
      "taf": "TAF LWSK 220540Z 2206/2306 VRB02KT 1500 BR SCT003 BKN012 OVC020"
    },
    {
      "icao": "LYBE",
      "alert": "OK",
      "vis_m": 200,
      "fzfg": true,
      "metar_trigger": false,
      "taf_trigger": false,
      "metar": "METAR LYBE 220700Z VRB02KT 0200 R12L/0375N R30R/0325N FZFG VV001 M06/M06 Q1005 NOSIG",
      "taf": "TAF LYBE 220500Z 2206/2306 26004KT 4000 BR BKN005 TX02/2212Z TNM06/2206Z"
    },
    {
      "icao": "LYNI",
      "alert": "OK",
      "vis_m": 9999,
      "fzfg": false,
      "metar_trigger": false,
      "taf_trigger": false,
      "metar": "METAR LYNI 220700Z 09010KT 9999 BKN035 BKN085 03/M02 Q1004 NOSIG",
      "taf": "TAF LYNI 220500Z 2206/2306 10015KT 9999 BKN040 BKN080 TX05/2213Z TNM02/2305Z"
    },
    {
      "icao": "LYPG",
      "alert": "OK",
      "vis_m": 2000,
      "fzfg": false,
      "metar_trigger": false,
      "taf_trigger": false,
      "metar": "METAR LYPG 220700Z 27003KT 2000 MIFG BR FEW013 BKN050 04/04 Q1002 TEMPO 4000",
      "taf": "TAF LYPG 220500Z 2206/2306 12005KT 8000 FEW010 BKN050 OVC073 TX11/2213Z TN04/2305Z"
    },
    {
      "icao": "LZIB",
      "alert": "OK",
      "vis_m": 4500,
      "fzfg": false,
      "metar_trigger": false,
      "taf_trigger": false,
      "metar": "METAR LZIB 220700Z 08004KT 4500 BR SCT007 SCT008 M07/M08 Q1004 BECMG FEW012",
      "taf": "TAF LZIB 220515Z 2206/2306 06005KT 9999 FEW010"
    },
    {
      "icao": "LZKZ",
      "alert": "OK",
      "vis_m": 9999,
      "fzfg": false,
      "metar_trigger": false,
      "taf_trigger": false,
      "metar": "METAR LZKZ 220700Z 35004KT 9999 BKN032 M04/M07 Q1006 NOSIG",
      "taf": "TAF LZKZ 220515Z 2206/2306 VRB02KT 9999 SCT030"
    },
    {
      "icao": "LZTT",
      "alert": "OK",
      "vis_m": 9999,
      "fzfg": false,
      "metar_trigger": false,
      "taf_trigger": false,
      "metar": "METAR LZTT 220700Z 34002KT 9999 FEW030 BKN078 M06/M09 Q1002 NOSIG",
      "taf": "TAF LZTT 220515Z 2206/2306 VRB02KT 9999 SCT020 BKN050"
    },
    {
      "icao": "OEJN",
      "alert": "OK",
      "vis_m": 9999,
      "fzfg": false,
      "metar_trigger": false,
      "taf_trigger": false,
      "metar": "METAR OEJN 220700Z 11008KT CAVOK 29/00 Q1013 NOSIG",
      "taf": "TAF OEJN 220500Z 2206/2312 17015KT 7000 NSC"
    },
    {
      "icao": "OEMA",
      "alert": "OK",
      "vis_m": 9999,
      "fzfg": false,
      "metar_trigger": false,
      "taf_trigger": false,
      "metar": "METAR OEMA 220700Z 08017KT CAVOK 14/M07 Q1026 NOSIG",
      "taf": "TAF OEMA 220500Z 2206/2312 10018KT 7000 NSC"
    },
    {
      "icao": "OJAI",
      "alert": "OK",
      "vis_m": 4000,
      "fzfg": false,
      "metar_trigger": false,
      "taf_trigger": false,
      "metar": "METAR OJAI 220700Z 07015KT 4000 BLDU NSC 06/M05 Q1022 NOSIG",
      "taf": "TAF OJAI 220500Z 2206/2312 11014KT 5000 HZ FEW035"
    },
    {
      "icao": "OMAA",
      "alert": "OK",
      "vis_m": 9999,
      "fzfg": false,
      "metar_trigger": false,
      "taf_trigger": false,
      "metar": "METAR OMAA 220700Z 34016KT CAVOK 20/00 Q1022 NOSIG",
      "taf": "TAF OMAA 220500Z 2206/2312 30015KT 8000 FEW040"
    },
    {
      "icao": "OMDB",
      "alert": "OK",
      "vis_m": 9999,
      "fzfg": false,
      "metar_trigger": false,
      "taf_trigger": false,
      "metar": "METAR OMDB 220700Z 36013KT CAVOK 20/M01 Q1022 NOSIG",
      "taf": "TAF OMDB 220500Z 2206/2312 35014KT 8000 NSC"
    },
    {
      "icao": "UAAA",
      "alert": "OK",
      "vis_m": 3200,
      "fzfg": false,
      "metar_trigger": false,
      "taf_trigger": false,
      "metar": "METAR UAAA 220700Z VRB01MPS 3200 BR BKN100 OVC200 M08/M10 Q1010 NOSIG",
      "taf": "TAF UAAA 220501Z 2206/2306 32003MPS 3100 BR FU SCT011 BKN050 TXM04/2208Z TNM10/2302Z"
    },
    {
      "icao": "UBBB",
      "alert": "OK",
      "vis_m": 9999,
      "fzfg": false,
      "metar_trigger": false,
      "taf_trigger": false,
      "metar": "METAR UBBB 220700Z 20012KT CAVOK 05/00 Q1024 NOSIG",
      "taf": "TAF UBBB 220504Z 2206/2306 20010KT CAVOK TX07/2211Z TNM02/2300Z"
    },
    {
      "icao": "UDSG",
      "alert": "OK",
      "vis_m": 9999,
      "fzfg": false,
      "metar_trigger": false,
      "taf_trigger": false,
      "metar": "METAR UDSG 220700Z 13002KT 9999 NSC M18/M21 Q1025 NOSIG",
      "taf": "TAF UDSG 220458Z 2206/2306 VRB06KT 9999 FEW050"
    },
    {
      "icao": "UDYZ",
      "alert": "OK",
      "vis_m": 9000,
      "fzfg": false,
      "metar_trigger": false,
      "taf_trigger": false,
      "metar": "METAR UDYZ 220700Z VRB01KT 9000 NSC M07/M09 Q1029 NOSIG",
      "taf": "TAF UDYZ 220500Z 2206/2306 20006KT 6000 FEW040"
    },
    {
      "icao": "UGKO",
      "alert": "OK",
      "vis_m": 9999,
      "fzfg": false,
      "metar_trigger": false,
      "taf_trigger": false,
      "metar": "METAR UGKO 220700Z 09021KT CAVOK 04/M04 Q1018 NOSIG",
      "taf": "TAF UGKO 220500Z 2206/2306 08017KT CAVOK TX08/2211Z TN03/2206Z"
    }
  ]
}