{
  "ts_utc": "2026-05-12T07:52:04Z",
  "threshold_m": 150,
  "source": "stations_override.txt (ICAO list) + aviationweather.gov (METAR/TAF raw)",
  "station_count": 159,
  "stations": [
    {
      "icao": "BIKF",
      "alert": "OK",
      "vis_m": 9999,
      "fzfg": false,
      "metar_trigger": false,
      "taf_trigger": false,
      "metar": "METAR BIKF 120730Z 32016KT 9999 FEW015 SCT030 05/02 Q1000",
      "taf": "TAF BIKF 120740Z 1209/1309 35012KT 9999 FEW026 TX09/1215Z TN02/1302Z"
    },
    {
      "icao": "BKPR",
      "alert": "OK",
      "vis_m": null,
      "fzfg": false,
      "metar_trigger": false,
      "taf_trigger": false,
      "metar": "",
      "taf": "TAF BKPR 120530Z 1206/1306 23015KT 9999 SCT050"
    },
    {
      "icao": "EBCI",
      "alert": "OK",
      "vis_m": 9999,
      "fzfg": false,
      "metar_trigger": false,
      "taf_trigger": false,
      "metar": "METAR EBCI 120720Z 28006KT 240V320 9999 FEW035 07/02 Q1016 NOSIG",
      "taf": "TAF EBCI 120510Z 1206/1312 29007KT 9999 FEW025 SCT035"
    },
    {
      "icao": "EDDB",
      "alert": "OK",
      "vis_m": 9999,
      "fzfg": false,
      "metar_trigger": false,
      "taf_trigger": false,
      "metar": "METAR EDDB 120720Z AUTO 25010KT 9999 FEW027 BKN041 09/02 Q1005 NOSIG",
      "taf": "TAF EDDB 120500Z 1206/1306 27007KT CAVOK"
    },
    {
      "icao": "EDDH",
      "alert": "OK",
      "vis_m": 9999,
      "fzfg": false,
      "metar_trigger": false,
      "taf_trigger": false,
      "metar": "METAR EDDH 120720Z AUTO 33009KT 300V360 9999 -RA FEW013 BKN018 BKN035 07/05 Q1006 TEMPO SHRA BKN013TCU",
      "taf": "TAF EDDH 120500Z 1206/1312 31007KT 9999 BKN030"
    },
    {
      "icao": "EDDK",
      "alert": "OK",
      "vis_m": 9999,
      "fzfg": false,
      "metar_trigger": false,
      "taf_trigger": false,
      "metar": "METAR EDDK 120720Z AUTO 28016KT 9999 SCT023 BKN031 08/03 Q1013 NOSIG",
      "taf": "TAF EDDK 120500Z 1206/1312 29013KT 9999 SCT030"
    },
    {
      "icao": "EDDN",
      "alert": "OK",
      "vis_m": 9999,
      "fzfg": false,
      "metar_trigger": false,
      "taf_trigger": false,
      "metar": "METAR EDDN 120720Z AUTO 28016KT 9999 BKN021 OVC026 05/00 Q1012 TEMPO 29015G25KT",
      "taf": "TAF EDDN 120500Z 1206/1306 28012KT 9999 SCT020"
    },
    {
      "icao": "EDDS",
      "alert": "OK",
      "vis_m": 9999,
      "fzfg": false,
      "metar_trigger": false,
      "taf_trigger": false,
      "metar": "METAR EDDS 120720Z AUTO 28011KT 240V310 9999 FEW024 SCT029 07/01 Q1014 NOSIG",
      "taf": "TAF EDDS 120500Z 1206/1306 27008KT 9999 BKN020"
    },
    {
      "icao": "EDFH",
      "alert": "OK",
      "vis_m": 9999,
      "fzfg": false,
      "metar_trigger": false,
      "taf_trigger": false,
      "metar": "METAR EDFH 120720Z 28011KT 240V300 9999 SCT011 BKN017 04/01 Q1013",
      "taf": "TAF EDFH 120500Z 1206/1306 29012KT 9999 BKN015"
    },
    {
      "icao": "EDJA",
      "alert": "OK",
      "vis_m": 9999,
      "fzfg": false,
      "metar_trigger": false,
      "taf_trigger": false,
      "metar": "METAR EDJA 120720Z 27014KT 9999 FEW015 BKN019 05/01 Q1013",
      "taf": "TAF EDJA 120500Z 1206/1215 27010KT 9999 SCT006 BKN015"
    },
    {
      "icao": "EDLW",
      "alert": "OK",
      "vis_m": 9999,
      "fzfg": false,
      "metar_trigger": false,
      "taf_trigger": false,
      "metar": "METAR EDLW 120720Z COR 26011KT 230V300 9999 07/02 Q1011",
      "taf": "TAF EDLW 120500Z 1206/1306 28011KT 9999 BKN030"
    },
    {
      "icao": "EDNY",
      "alert": "OK",
      "vis_m": 9999,
      "fzfg": false,
      "metar_trigger": false,
      "taf_trigger": false,
      "metar": "METAR EDNY 120720Z 25009KT 220V300 9999 FEW030 06/M00 Q1015",
      "taf": "TAF EDNY 120500Z 1206/1215 28004KT 9999 SCT015 BKN030"
    },
    {
      "icao": "EDSB",
      "alert": "OK",
      "vis_m": 9999,
      "fzfg": false,
      "metar_trigger": false,
      "taf_trigger": false,
      "metar": "METAR EDSB 120720Z 24008KT 200V280 9999 FEW021 SCT024 08/03 Q1016",
      "taf": "TAF EDSB 120500Z 1206/1306 25006KT 9999 SCT030"
    },
    {
      "icao": "EETN",
      "alert": "OK",
      "vis_m": 9999,
      "fzfg": false,
      "metar_trigger": false,
      "taf_trigger": false,
      "metar": "METAR EETN 120750Z 14012KT CAVOK 14/06 Q1001 TEMPO FEW030CB",
      "taf": "TAF EETN 120530Z 1206/1306 14014KT 9999 SCT045"
    },
    {
      "icao": "EFTU",
      "alert": "OK",
      "vis_m": 9999,
      "fzfg": false,
      "metar_trigger": false,
      "taf_trigger": false,
      "metar": "METAR EFTU 120720Z AUTO 10007KT 9999 -RA NSC 10/07 Q1000",
      "taf": "TAF EFTU 120531Z 1206/1306 12008KT CAVOK"
    },
    {
      "icao": "EGBB",
      "alert": "OK",
      "vis_m": 9999,
      "fzfg": false,
      "metar_trigger": false,
      "taf_trigger": false,
      "metar": "METAR EGBB 120720Z 26006KT 220V290 9999 FEW039 08/02 Q1015",
      "taf": "TAF EGBB 120455Z 1206/1306 VRB04KT 9999 SCT045"
    },
    {
      "icao": "EGGP",
      "alert": "OK",
      "vis_m": 9999,
      "fzfg": false,
      "metar_trigger": false,
      "taf_trigger": false,
      "metar": "METAR EGGP 120720Z 25012KT 9999 FEW037 BKN047 10/05 Q1014",
      "taf": "TAF EGGP 120458Z 1206/1306 21005KT 9999 SCT045"
    },
    {
      "icao": "EGGW",
      "alert": "OK",
      "vis_m": 9999,
      "fzfg": false,
      "metar_trigger": false,
      "taf_trigger": false,
      "metar": "METAR EGGW 120720Z AUTO 27008KT 9999 NCD 08/01 Q1015",
      "taf": "TAF EGGW 120501Z 1206/1306 VRB02KT CAVOK"
    },
    {
      "icao": "EGKK",
      "alert": "OK",
      "vis_m": 9999,
      "fzfg": false,
      "metar_trigger": false,
      "taf_trigger": false,
      "metar": "METAR EGKK 120720Z 25003KT 200V280 CAVOK 09/04 Q1016",
      "taf": "TAF EGKK 120503Z 1206/1312 VRB03KT 9999 FEW045"
    },
    {
      "icao": "EGNM",
      "alert": "OK",
      "vis_m": 9999,
      "fzfg": false,
      "metar_trigger": false,
      "taf_trigger": false,
      "metar": "METAR EGNM 120720Z 25010KT 9999 FEW018 SCT032 08/04 Q1012",
      "taf": "TAF EGNM 120459Z 1206/1306 25012KT 9999 SCT045"
    },
    {
      "icao": "EGPD",
      "alert": "OK",
      "vis_m": 9999,
      "fzfg": false,
      "metar_trigger": false,
      "taf_trigger": false,
      "metar": "METAR EGPD 120720Z 28010KT 250V320 9999 VCSH SCT027 09/04 Q1006 TEMPO SHRA",
      "taf": "TAF EGPD 120501Z 1206/1306 23007KT 9999 SCT035"
    },
    {
      "icao": "EGPF",
      "alert": "OK",
      "vis_m": 9999,
      "fzfg": false,
      "metar_trigger": false,
      "taf_trigger": false,
      "metar": "METAR EGPF 120720Z AUTO 28013KT 240V300 9999 -RA FEW028 SCT039 BKN045 10/04 Q1010",
      "taf": "TAF EGPF 120457Z 1206/1306 27010KT 9999 SCT024"
    },
    {
      "icao": "EHBK",
      "alert": "OK",
      "vis_m": 9999,
      "fzfg": false,
      "metar_trigger": false,
      "taf_trigger": false,
      "metar": "METAR EHBK 120725Z AUTO 24007KT 210V290 9999 FEW024 SCT029 BKN035 07/04 Q1014 TEMPO -SHRA FEW020TCU",
      "taf": "TAF EHBK 120504Z 1206/1312 26008KT 9999 BKN040"
    },
    {
      "icao": "EHEH",
      "alert": "OK",
      "vis_m": 9999,
      "fzfg": false,
      "metar_trigger": false,
      "taf_trigger": false,
      "metar": "METAR EHEH 120725Z AUTO 28007KT 230V340 9999 FEW038 BKN042 BKN047 09/03 Q1014 BLU NOSIG RMK TREND REMOTE BY EHWX",
      "taf": "TAF EHEH 120506Z 1206/1312 27006KT 9999 SCT028"
    },
    {
      "icao": "EKBI",
      "alert": "OK",
      "vis_m": 9999,
      "fzfg": false,
      "metar_trigger": false,
      "taf_trigger": false,
      "metar": "METAR EKBI 120720Z AUTO 32009KT 300V360 9999 FEW020/// 10/06 Q1004",
      "taf": "TAF EKBI 120527Z 1206/1306 31008KT 9999 FEW040"
    },
    {
      "icao": "EKCH",
      "alert": "OK",
      "vis_m": 9999,
      "fzfg": false,
      "metar_trigger": false,
      "taf_trigger": false,
      "metar": "METAR EKCH 120720Z AUTO 31009G19KT 280V340 9999 BKN020/// 10/05 Q1001 NOSIG",
      "taf": "TAF EKCH 120527Z 1206/1306 33010KT 9999 BKN030"
    },
    {
      "icao": "ENAL",
      "alert": "OK",
      "vis_m": 9999,
      "fzfg": false,
      "metar_trigger": false,
      "taf_trigger": false,
      "metar": "METAR ENAL 120720Z 15006KT 110V170 CAVOK 08/01 Q1003",
      "taf": "TAF ENAL 120500Z 1206/1215 14008KT 9999 SCT030"
    },
    {
      "icao": "ENBR",
      "alert": "OK",
      "vis_m": 9999,
      "fzfg": false,
      "metar_trigger": false,
      "taf_trigger": false,
      "metar": "METAR ENBR 120720Z 19004KT 140V220 9999 FEW015 06/01 Q1004 NOSIG RMK WIND 1200FT VRB02KT",
      "taf": "TAF ENBR 120500Z 1206/1306 VRB04KT CAVOK"
    },
    {
      "icao": "ENGM",
      "alert": "OK",
      "vis_m": 9999,
      "fzfg": false,
      "metar_trigger": false,
      "taf_trigger": false,
      "metar": "METAR ENGM 120720Z 02007KT 360V060 CAVOK 08/00 Q1003 NOSIG",
      "taf": "TAF ENGM 120500Z 1206/1306 35010KT CAVOK"
    },
    {
      "icao": "ENHD",
      "alert": "OK",
      "vis_m": 9999,
      "fzfg": false,
      "metar_trigger": false,
      "taf_trigger": false,
      "metar": "METAR ENHD 120720Z 35003KT 300V050 9999 FEW020 09/03 Q1005",
      "taf": "TAF ENHD 120500Z 1206/1215 34008KT 9999 SCT020"
    },
    {
      "icao": "ENTC",
      "alert": "OK",
      "vis_m": 9999,
      "fzfg": false,
      "metar_trigger": false,
      "taf_trigger": false,
      "metar": "METAR ENTC 120720Z 19005KT 9999 -RA OVC033 06/03 Q1001 NOSIG RMK WIND 2600FT 09009KT",
      "taf": "TAF ENTC 120500Z 1206/1306 02005KT 9999 -RA FEW040 BKN060"
    },
    {
      "icao": "ENTO",
      "alert": "OK",
      "vis_m": 9999,
      "fzfg": false,
      "metar_trigger": false,
      "taf_trigger": false,
      "metar": "METAR ENTO 120720Z 02008KT 340V050 CAVOK 09/02 Q1003 NOSIG",
      "taf": "TAF ENTO 120500Z 1206/1306 35010KT 9999 FEW040"
    },
    {
      "icao": "ENVA",
      "alert": "OK",
      "vis_m": 9999,
      "fzfg": false,
      "metar_trigger": false,
      "taf_trigger": false,
      "metar": "METAR ENVA 120720Z VRB01KT CAVOK 08/M00 Q1005 NOSIG RMK WIND 670FT 36003KT",
      "taf": "TAF ENVA 120500Z 1206/1306 11007KT CAVOK"
    },
    {
      "icao": "ENZV",
      "alert": "OK",
      "vis_m": 9999,
      "fzfg": false,
      "metar_trigger": false,
      "taf_trigger": false,
      "metar": "METAR ENZV 120720Z 30009KT 9999 SCT016 08/03 Q1005 NOSIG",
      "taf": "TAF ENZV 120500Z 1206/1306 VRB04KT 9999 SCT020"
    },
    {
      "icao": "EPGD",
      "alert": "OK",
      "vis_m": 9999,
      "fzfg": false,
      "metar_trigger": false,
      "taf_trigger": false,
      "metar": "METAR EPGD 120730Z 28017KT 9999 BKN018 10/06 Q0999",
      "taf": "TAF EPGD 120530Z 1206/1306 28017KT 9999 BKN020"
    },
    {
      "icao": "EPKK",
      "alert": "OK",
      "vis_m": 9999,
      "fzfg": false,
      "metar_trigger": false,
      "taf_trigger": false,
      "metar": "METAR EPKK 120730Z 29008KT 9999 -RA SCT015 BKN028 10/08 Q1002",
      "taf": "TAF EPKK 120530Z 1206/1306 32012KT 9999 FEW007 SCT014"
    },
    {
      "icao": "EPKT",
      "alert": "OK",
      "vis_m": 9999,
      "fzfg": false,
      "metar_trigger": false,
      "taf_trigger": false,
      "metar": "METAR EPKT 120730Z 30012KT 270V330 9999 -RA FEW006 BKN008 08/07 Q1003",
      "taf": "TAF EPKT 120530Z 1206/1306 33010KT 9999 BKN007"
    },
    {
      "icao": "EPLB",
      "alert": "OK",
      "vis_m": 9999,
      "fzfg": false,
      "metar_trigger": false,
      "taf_trigger": false,
      "metar": "METAR EPLB 120730Z 25012KT 9999 BKN012 OVC016 15/13 Q0998",
      "taf": "TAF EPLB 120530Z 1206/1306 17005KT 9999 BKN030"
    },
    {
      "icao": "EPMO",
      "alert": "OK",
      "vis_m": 4300,
      "fzfg": false,
      "metar_trigger": false,
      "taf_trigger": false,
      "metar": "METAR EPMO 120730Z 29017KT 4300 RA BR SCT008 BKN019 08/08 Q1000",
      "taf": "TAF EPMO 120530Z 1206/1306 30012KT 9999 -RA BKN011"
    },
    {
      "icao": "EPPO",
      "alert": "OK",
      "vis_m": 9999,
      "fzfg": false,
      "metar_trigger": false,
      "taf_trigger": false,
      "metar": "METAR EPPO 120730Z 28013KT 9999 BKN020 09/05 Q1004",
      "taf": "TAF EPPO 120530Z 1206/1306 28011KT CAVOK"
    },
    {
      "icao": "EPRA",
      "alert": "OK",
      "vis_m": 7000,
      "fzfg": false,
      "metar_trigger": false,
      "taf_trigger": false,
      "metar": "METAR EPRA 120730Z 30013KT 7000 -RA BKN003 OVC010 09/08 Q0999",
      "taf": "TAF EPRA 120530Z 1206/1215 31010KT 9999 -RA BKN008"
    },
    {
      "icao": "EPRZ",
      "alert": "OK",
      "vis_m": 9999,
      "fzfg": false,
      "metar_trigger": false,
      "taf_trigger": false,
      "metar": "METAR EPRZ 120730Z 21007KT 160V220 9999 -SHRA FEW018 BKN040CB 15/12 Q0998",
      "taf": "TAF EPRZ 120530Z 1206/1306 25002KT 9999 SCT048"
    },
    {
      "icao": "EPSC",
      "alert": "OK",
      "vis_m": 9999,
      "fzfg": false,
      "metar_trigger": false,
      "taf_trigger": false,
      "metar": "METAR EPSC 120730Z 25010KT CAVOK 08/01 Q1003",
      "taf": "TAF EPSC 120530Z 1206/1306 26010KT 9999 FEW040"
    },
    {
      "icao": "EPSY",
      "alert": "OK",
      "vis_m": 5000,
      "fzfg": false,
      "metar_trigger": false,
      "taf_trigger": false,
      "metar": "METAR EPSY 120730Z 34009KT 310V020 5000 BR SCT002 BKN005 09/09 Q0999",
      "taf": "TAF EPSY 120530Z 1206/1215 32010KT 8000 -RA BKN010"
    },
    {
      "icao": "EPWA",
      "alert": "OK",
      "vis_m": 9999,
      "fzfg": false,
      "metar_trigger": false,
      "taf_trigger": false,
      "metar": "METAR EPWA 120730Z 30019KT 9999 -RA BKN008 BKN020 09/08 Q0999 TEMPO 3000 RA",
      "taf": "TAF EPWA 120530Z 1206/1306 30012KT 9999 BKN017"
    },
    {
      "icao": "EPWR",
      "alert": "OK",
      "vis_m": 9999,
      "fzfg": false,
      "metar_trigger": false,
      "taf_trigger": false,
      "metar": "METAR EPWR 120730Z 29017KT 9999 BKN018 10/06 Q1005",
      "taf": "TAF EPWR 120530Z 1206/1306 28014KT 9999 BKN020"
    },
    {
      "icao": "ESGG",
      "alert": "OK",
      "vis_m": 9999,
      "fzfg": false,
      "metar_trigger": false,
      "taf_trigger": false,
      "metar": "METAR ESGG 120720Z 36011KT 9999 BKN013 07/04 Q1001",
      "taf": "TAF ESGG 120530Z 1206/1306 36010KT 9999 OVC017"
    },
    {
      "icao": "ESKN",
      "alert": "OK",
      "vis_m": 9999,
      "fzfg": false,
      "metar_trigger": false,
      "taf_trigger": false,
      "metar": "METAR ESKN 120720Z 36009KT 330V030 9999 -DZ BKN006 07/06 Q0997",
      "taf": "TAF ESKN 120530Z 1206/1306 01010KT 8000 -DZ BKN006"
    },
    {
      "icao": "ESMS",
      "alert": "OK",
      "vis_m": 9999,
      "fzfg": false,
      "metar_trigger": false,
      "taf_trigger": false,
      "metar": "METAR ESMS 120720Z 32011KT 9999 BKN016 08/05 Q1000",
      "taf": "TAF ESMS 120527Z 1206/1306 32010KT 9999 BKN012"
    },
    {
      "icao": "ESSA",
      "alert": "OK",
      "vis_m": 9999,
      "fzfg": false,
      "metar_trigger": false,
      "taf_trigger": false,
      "metar": "METAR ESSA 120720Z 02017KT 9999 OVC006 05/05 Q0998 TEMPO RA BKN004",
      "taf": "TAF ESSA 120530Z 1206/1306 01015KT 9999 -RA BKN008"
    },
    {
      "icao": "EYKA",
      "alert": "OK",
      "vis_m": 9999,
      "fzfg": false,
      "metar_trigger": false,
      "taf_trigger": false,
      "metar": "METAR EYKA 120750Z 13008KT 9999 -SHRA FEW017CB 11/09 Q0999",
      "taf": "TAF EYKA 120503Z 1206/1306 12010KT 9000 BKN045"
    },
    {
      "icao": "EYPA",
      "alert": "OK",
      "vis_m": 2900,
      "fzfg": false,
      "metar_trigger": false,
      "taf_trigger": false,
      "metar": "METAR EYPA 120750Z VRB02KT 2900 -RA BR OVC002 08/07 Q0998",
      "taf": "TAF EYPA 120503Z 1206/1306 VRB03KT 5000 BR OVC005"
    },
    {
      "icao": "EYVI",
      "alert": "OK",
      "vis_m": 9999,
      "fzfg": false,
      "metar_trigger": false,
      "taf_trigger": false,
      "metar": "METAR EYVI 120750Z 15012KT CAVOK 14/07 Q0999 TEMPO BKN040CB",
      "taf": "TAF EYVI 120505Z 1206/1306 14010KT 9000 SCT045"
    },
    {
      "icao": "GCFV",
      "alert": "OK",
      "vis_m": 9999,
      "fzfg": false,
      "metar_trigger": false,
      "taf_trigger": false,
      "metar": "METAR GCFV 120730Z 35009KT CAVOK 20/13 Q1020",
      "taf": "TAF GCFV 120200Z 1203/1303 07008KT 9999 FEW025 TX24/1214Z TN17/1206Z"
    },
    {
      "icao": "GCLP",
      "alert": "OK",
      "vis_m": 9999,
      "fzfg": false,
      "metar_trigger": false,
      "taf_trigger": false,
      "metar": "METAR GCLP 120730Z 36011KT 9999 FEW025 18/14 Q1020 NOSIG",
      "taf": "TAF GCLP 120200Z 1203/1303 35005KT 9999 SCT025 TX23/1214Z TN16/1206Z"
    },
    {
      "icao": "GCTS",
      "alert": "OK",
      "vis_m": 9999,
      "fzfg": false,
      "metar_trigger": false,
      "taf_trigger": false,
      "metar": "METAR GCTS 120730Z 05005KT 9999 FEW043 19/12 Q1021 NOSIG",
      "taf": "TAF GCTS 120200Z 1203/1303 05006KT 9999 SCT040 TX25/1214Z TN16/1206Z"
    },
    {
      "icao": "GMAD",
      "alert": "OK",
      "vis_m": 9999,
      "fzfg": false,
      "metar_trigger": false,
      "taf_trigger": false,
      "metar": "METAR GMAD 120730Z 02004KT CAVOK 16/13 Q1019 NOSIG",
      "taf": "TAF GMAD 120500Z 1206/1312 14003KT CAVOK"
    },
    {
      "icao": "GMMN",
      "alert": "OK",
      "vis_m": 9999,
      "fzfg": false,
      "metar_trigger": false,
      "taf_trigger": false,
      "metar": "METAR GMMN 120730Z 20005KT 170V240 9999 FEW020 17/12 Q1022 NOSIG",
      "taf": "TAF GMMN 120500Z 1206/1312 16005KT 9999 SCT020"
    },
    {
      "icao": "GMMX",
      "alert": "OK",
      "vis_m": 9999,
      "fzfg": false,
      "metar_trigger": false,
      "taf_trigger": false,
      "metar": "METAR GMMX 120730Z VRB02KT CAVOK 17/11 Q1022 NOSIG",
      "taf": "TAF GMMX 120600Z 1206/1312 24006KT 8000 NSC"
    },
    {
      "icao": "HEGN",
      "alert": "OK",
      "vis_m": 9999,
      "fzfg": false,
      "metar_trigger": false,
      "taf_trigger": false,
      "metar": "METAR HEGN 120700Z 35010KT CAVOK 32/01 Q1013 NOSIG",
      "taf": "TAF HEGN 120500Z 1206/1312 35015KT CAVOK"
    },
    {
      "icao": "HEMA",
      "alert": "OK",
      "vis_m": 9999,
      "fzfg": false,
      "metar_trigger": false,
      "taf_trigger": false,
      "metar": "METAR HEMA 120700Z 34018KT CAVOK 32/03 Q1012 NOSIG",
      "taf": "TAF HEMA 120500Z 1206/1312 36012G22KT CAVOK"
    },
    {
      "icao": "HESH",
      "alert": "OK",
      "vis_m": 9999,
      "fzfg": false,
      "metar_trigger": false,
      "taf_trigger": false,
      "metar": "METAR HESH 120700Z 35012KT CAVOK 31/11 Q1012 NOSIG",
      "taf": "TAF HESH 120500Z 1206/1312 01014KT CAVOK"
    },
    {
      "icao": "HESX",
      "alert": "OK",
      "vis_m": 9999,
      "fzfg": false,
      "metar_trigger": false,
      "taf_trigger": false,
      "metar": "METAR HESX 120700Z 18010KT CAVOK 32/05 Q1013 NOSIG",
      "taf": "TAF HESX 120500Z 1206/1312 22010KT CAVOK"
    },
    {
      "icao": "LATI",
      "alert": "OK",
      "vis_m": 9999,
      "fzfg": false,
      "metar_trigger": false,
      "taf_trigger": false,
      "metar": "METAR LATI 120750Z 11005KT 080V150 9999 BKN098 24/10 Q1009 NOSIG",
      "taf": "TAF LATI 120500Z 1206/1306 VRB05KT CAVOK TX26/1212Z TN14/1304Z"
    },
    {
      "icao": "LBPD",
      "alert": "OK",
      "vis_m": 9999,
      "fzfg": false,
      "metar_trigger": false,
      "taf_trigger": false,
      "metar": "METAR LBPD 120730Z AUTO 29003KT 210V360 9999 NCD 23/16 Q1006 NOSIG",
      "taf": "TAF LBPD 120500Z 1206/1306 29010KT 9999 SCT060"
    },
    {
      "icao": "LBSF",
      "alert": "OK",
      "vis_m": 9999,
      "fzfg": false,
      "metar_trigger": false,
      "taf_trigger": false,
      "metar": "METAR LBSF 120730Z VRB04KT 9999 FEW070 19/11 Q1008 NOSIG",
      "taf": "TAF LBSF 120500Z 1206/1306 VRB04KT 9999 SCT060"
    },
    {
      "icao": "LBWN",
      "alert": "OK",
      "vis_m": 6000,
      "fzfg": false,
      "metar_trigger": false,
      "taf_trigger": false,
      "metar": "METAR LBWN 120730Z VRB02KT 6000 FEW007 20/16 Q1005 NOSIG",
      "taf": "TAF LBWN 120500Z 1206/1306 VRB04KT 9999 SCT040"
    },
    {
      "icao": "LCLK",
      "alert": "OK",
      "vis_m": 8000,
      "fzfg": false,
      "metar_trigger": false,
      "taf_trigger": false,
      "metar": "METAR LCLK 120730Z 16007KT 120V200 8000 FEW010 SCT070 23/19 Q1012 NOSIG",
      "taf": "TAF LCLK 120530Z 1206/1306 28006KT 9999 FEW025"
    },
    {
      "icao": "LCPH",
      "alert": "OK",
      "vis_m": 9999,
      "fzfg": false,
      "metar_trigger": false,
      "taf_trigger": false,
      "metar": "METAR LCPH 120730Z 16010KT CAVOK 22/18 Q1012 NOSIG",
      "taf": "TAF LCPH 120530Z 1206/1306 06006KT 9999 FEW020"
    },
    {
      "icao": "LEAL",
      "alert": "OK",
      "vis_m": 9999,
      "fzfg": false,
      "metar_trigger": false,
      "taf_trigger": false,
      "metar": "METAR LEAL 120730Z 17005KT 120V230 9999 FEW010 SCT030 20/11 Q1015 NOSIG",
      "taf": "TAF LEAL 120500Z 1206/1306 24009KT 9999 FEW015 TX26/1212Z TN14/1206Z"
    },
    {
      "icao": "LEBB",
      "alert": "OK",
      "vis_m": 4500,
      "fzfg": false,
      "metar_trigger": false,
      "taf_trigger": false,
      "metar": "METAR LEBB 120730Z VRB01KT 4500 BR SCT005 BKN050 13/13 Q1018 BECMG 6000 NSW",
      "taf": "TAF LEBB 120500Z 1206/1306 VRB03KT 9999 FEW010 SCT025 TX16/1212Z TN10/1305Z"
    },
    {
      "icao": "LEBL",
      "alert": "OK",
      "vis_m": 9999,
      "fzfg": false,
      "metar_trigger": false,
      "taf_trigger": false,
      "metar": "METAR LEBL 120730Z 34005KT 240V040 CAVOK 19/11 Q1015 NOSIG",
      "taf": "TAF LEBL 120500Z 1206/1306 34008KT 9999 FEW030 TX21/1212Z TN14/1305Z"
    },
    {
      "icao": "LECH",
      "alert": "OK",
      "vis_m": 9999,
      "fzfg": false,
      "metar_trigger": false,
      "taf_trigger": false,
      "metar": "METAR LECH 120730Z AUTO 24003KT 200V280 CAVOK 16/08 Q1016",
      "taf": "TAF LECH 120500Z 1206/1306 VRB04KT CAVOK TX22/1214Z TN10/1206Z"
    },
    {
      "icao": "LEMD",
      "alert": "OK",
      "vis_m": 9999,
      "fzfg": false,
      "metar_trigger": false,
      "taf_trigger": false,
      "metar": "METAR LEMD 120730Z VRB02KT 9999 SCT070 12/08 Q1017 NOSIG",
      "taf": ""
    },
    {
      "icao": "LEMG",
      "alert": "OK",
      "vis_m": 9999,
      "fzfg": false,
      "metar_trigger": false,
      "taf_trigger": false,
      "metar": "METAR LEMG 120730Z 27008KT 230V310 9999 FEW060 17/09 Q1020 NOSIG",
      "taf": "TAF LEMG 120500Z 1206/1306 29010KT 9999 FEW045 TX25/1214Z TN15/1306Z"
    },
    {
      "icao": "LEVC",
      "alert": "OK",
      "vis_m": 9999,
      "fzfg": false,
      "metar_trigger": false,
      "taf_trigger": false,
      "metar": "METAR LEVC 120730Z 32005KT 270V360 CAVOK 21/08 Q1015 NOSIG",
      "taf": "TAF LEVC 120500Z 1206/1306 30005KT CAVOK TX26/1212Z TN12/1206Z"
    },
    {
      "icao": "LEXJ",
      "alert": "OK",
      "vis_m": 9999,
      "fzfg": false,
      "metar_trigger": false,
      "taf_trigger": false,
      "metar": "METAR LEXJ 120730Z 12004KT 080V160 9999 SCT026 OVC057 15/13 Q1018",
      "taf": "TAF LEXJ 120200Z 1203/1303 22005KT 9999 SCT045 TX15/1215Z TN13/1205Z"
    },
    {
      "icao": "LEZG",
      "alert": "OK",
      "vis_m": 9999,
      "fzfg": false,
      "metar_trigger": false,
      "taf_trigger": false,
      "metar": "METAR LEZG 120730Z COR 29010KT 270V330 9999 SCT085 15/10 Q1016 NOSIG",
      "taf": "TAF LEZG 120500Z 1206/1306 24006KT 9999 FEW050 TX22/1218Z TN11/1207Z"
    },
    {
      "icao": "LEZL",
      "alert": "OK",
      "vis_m": 9999,
      "fzfg": false,
      "metar_trigger": false,
      "taf_trigger": false,
      "metar": "METAR LEZL 120730Z 17005KT 140V230 9999 FEW040 17/14 Q1020 NOSIG",
      "taf": "TAF LEZL 120200Z 1203/1303 VRB03KT 9999 FEW040 TX24/1215Z TN14/1206Z"
    },
    {
      "icao": "LFBD",
      "alert": "OK",
      "vis_m": 9999,
      "fzfg": false,
      "metar_trigger": false,
      "taf_trigger": false,
      "metar": "METAR LFBD 120730Z AUTO 06008KT CAVOK 15/10 Q1018 BECMG 33010KT",
      "taf": "TAF LFBD 120500Z 1206/1312 VRB03KT CAVOK TX20/1214Z TN11/1206Z"
    },
    {
      "icao": "LFLL",
      "alert": "OK",
      "vis_m": 9999,
      "fzfg": false,
      "metar_trigger": false,
      "taf_trigger": false,
      "metar": "METAR LFLL 120730Z VRB03KT 9999 VCSH FEW013 FEW020TCU SCT070 11/07 Q1016 NOSIG",
      "taf": "TAF LFLL 120500Z 1206/1312 VRB02KT 9999 FEW009 BKN060"
    },
    {
      "icao": "LFLS",
      "alert": "OK",
      "vis_m": 9999,
      "fzfg": false,
      "metar_trigger": false,
      "taf_trigger": false,
      "metar": "METAR LFLS 120730Z AUTO 02004KT 320V080 9999 BKN019 BKN024 BKN029 11/06 Q1016 NOSIG",
      "taf": "TAF LFLS 120200Z 1203/1303 VRB03KT 9999 BKN040"
    },
    {
      "icao": "LFMN",
      "alert": "OK",
      "vis_m": 9999,
      "fzfg": false,
      "metar_trigger": false,
      "taf_trigger": false,
      "metar": "METAR LFMN 120730Z 25018KT CAVOK 22/08 Q1004 NOSIG",
      "taf": "TAF LFMN 120200Z 1203/1309 26015KT CAVOK"
    },
    {
      "icao": "LFOB",
      "alert": "OK",
      "vis_m": 9999,
      "fzfg": false,
      "metar_trigger": false,
      "taf_trigger": false,
      "metar": "METAR LFOB 120730Z AUTO 25007KT CAVOK 09/05 Q1018 NOSIG",
      "taf": "TAF LFOB 120500Z 1206/1306 29003KT CAVOK"
    },
    {
      "icao": "LFPO",
      "alert": "OK",
      "vis_m": 9999,
      "fzfg": false,
      "metar_trigger": false,
      "taf_trigger": false,
      "metar": "METAR LFPO 120730Z VRB02KT 9999 FEW036 11/01 Q1018 NOSIG",
      "taf": "TAF LFPO 120500Z 1206/1312 26004KT CAVOK"
    },
    {
      "icao": "LFSB",
      "alert": "OK",
      "vis_m": 9999,
      "fzfg": false,
      "metar_trigger": false,
      "taf_trigger": false,
      "metar": "METAR LFSB 120730Z AUTO 29006KT 260V320 9999 SCT017 SCT026 BKN041 08/04 Q1016 NOSIG",
      "taf": ""
    },
    {
      "icao": "LGAV",
      "alert": "OK",
      "vis_m": 9999,
      "fzfg": false,
      "metar_trigger": false,
      "taf_trigger": false,
      "metar": "METAR LGAV 120720Z 13005KT 080V170 CAVOK 26/10 Q1011 NOSIG",
      "taf": "TAF LGAV 120500Z 1206/1306 04010KT 9999 FEW025"
    },
    {
      "icao": "LGTS",
      "alert": "OK",
      "vis_m": 9999,
      "fzfg": false,
      "metar_trigger": false,
      "taf_trigger": false,
      "metar": "METAR LGTS 120720Z VRB03KT CAVOK 24/13 Q1008 NOSIG",
      "taf": "TAF LGTS 120500Z 1206/1306 VRB03KT 9999 FEW030"
    },
    {
      "icao": "LHBP",
      "alert": "OK",
      "vis_m": 9999,
      "fzfg": false,
      "metar_trigger": false,
      "taf_trigger": false,
      "metar": "METAR LHBP 120730Z 31016KT 9999 -RA SCT026 BKN060 13/10 Q1003 NOSIG",
      "taf": "TAF LHBP 120515Z 1206/1306 26008KT 9999 SCT040 SCT100"
    },
    {
      "icao": "LHDC",
      "alert": "OK",
      "vis_m": 9999,
      "fzfg": false,
      "metar_trigger": false,
      "taf_trigger": false,
      "metar": "METAR LHDC 120715Z AUTO 21014KT 170V240 9999 FEW022 BKN032 17/12 Q1001 NOSIG",
      "taf": "TAF LHDC 120515Z 1206/1215 19009KT CAVOK"
    },
    {
      "icao": "LIBD",
      "alert": "OK",
      "vis_m": 9999,
      "fzfg": false,
      "metar_trigger": false,
      "taf_trigger": false,
      "metar": "METAR LIBD 120720Z 24011KT 210V270 CAVOK 24/11 Q1008",
      "taf": "TAF LIBD 120500Z 1206/1306 21011KT CAVOK"
    },
    {
      "icao": "LIBG",
      "alert": "OK",
      "vis_m": 9999,
      "fzfg": false,
      "metar_trigger": false,
      "taf_trigger": false,
      "metar": "METAR LIBG 120650Z VRB02KT CAVOK 21/15 Q1009",
      "taf": "TAF LIBG 120601Z 1206/1215 VRB04KT CAVOK"
    },
    {
      "icao": "LIBP",
      "alert": "OK",
      "vis_m": 9999,
      "fzfg": false,
      "metar_trigger": false,
      "taf_trigger": false,
      "metar": "METAR LIBP 120720Z AUTO 23014KT 200V260 9999 NCD 23/07 Q1006",
      "taf": "TAF LIBP 120500Z 1206/1306 24015KT CAVOK"
    },
    {
      "icao": "LIBR",
      "alert": "OK",
      "vis_m": 9999,
      "fzfg": false,
      "metar_trigger": false,
      "taf_trigger": false,
      "metar": "METAR LIBR 120720Z 24010KT CAVOK 24/13 Q1009",
      "taf": "TAF LIBR 120500Z 1206/1306 22015KT CAVOK"
    },
    {
      "icao": "LICA",
      "alert": "OK",
      "vis_m": 9999,
      "fzfg": false,
      "metar_trigger": false,
      "taf_trigger": false,
      "metar": "METAR LICA 120720Z AUTO 24012KT 9999 NCD 21/18 Q1012",
      "taf": "TAF LICA 120500Z 1206/1306 VRB05KT 9999 FEW080"
    },
    {
      "icao": "LICC",
      "alert": "OK",
      "vis_m": 9999,
      "fzfg": false,
      "metar_trigger": false,
      "taf_trigger": false,
      "metar": "METAR LICC 120720Z 26009KT 230V290 CAVOK 25/19 Q1012",
      "taf": "TAF LICC 120500Z 1206/1306 25010KT CAVOK"
    },
    {
      "icao": "LICJ",
      "alert": "OK",
      "vis_m": 9999,
      "fzfg": false,
      "metar_trigger": false,
      "taf_trigger": false,
      "metar": "METAR LICJ 120720Z 25013KT CAVOK 20/14 Q1014",
      "taf": "TAF LICJ 120500Z 1206/1306 19012KT CAVOK"
    },
    {
      "icao": "LIMC",
      "alert": "OK",
      "vis_m": 9999,
      "fzfg": false,
      "metar_trigger": false,
      "taf_trigger": false,
      "metar": "METAR LIMC 120720Z 02019KT CAVOK 18/M00 Q1004 NOSIG",
      "taf": "TAF LIMC 120500Z 1206/1312 02008KT 9999 FEW040"
    },
    {
      "icao": "LIME",
      "alert": "OK",
      "vis_m": 9999,
      "fzfg": false,
      "metar_trigger": false,
      "taf_trigger": false,
      "metar": "METAR LIME 120720Z VRB02KT 9999 FEW020 15/09 Q1003 BECMG 32016G28KT",
      "taf": "TAF LIME 120500Z 1206/1306 VRB05KT 9999 SCT040"
    },
    {
      "icao": "LIMF",
      "alert": "OK",
      "vis_m": 9999,
      "fzfg": false,
      "metar_trigger": false,
      "taf_trigger": false,
      "metar": "METAR LIMF 120720Z 10005KT 070V140 CAVOK 16/11 Q1005",
      "taf": "TAF LIMF 120500Z 1206/1306 VRB05KT CAVOK"
    },
    {
      "icao": "LIMJ",
      "alert": "OK",
      "vis_m": 9999,
      "fzfg": false,
      "metar_trigger": false,
      "taf_trigger": false,
      "metar": "METAR LIMJ 120720Z 24002KT CAVOK 19/14 Q1004",
      "taf": "TAF LIMJ 120500Z 1206/1306 VRB06KT 9999 SCT020"
    },
    {
      "icao": "LIPE",
      "alert": "OK",
      "vis_m": 9999,
      "fzfg": false,
      "metar_trigger": false,
      "taf_trigger": false,
      "metar": "METAR LIPE 120720Z 29003KT 210V350 CAVOK 21/11 Q1002",
      "taf": "TAF LIPE 120500Z 1206/1306 VRB05KT 9999 FEW060"
    },
    {
      "icao": "LIPH",
      "alert": "OK",
      "vis_m": 9999,
      "fzfg": false,
      "metar_trigger": false,
      "taf_trigger": false,
      "metar": "METAR LIPH 120720Z 02004KT 360V110 9999 -TSRA SCT015CB BKN030 14/13 Q1002",
      "taf": ""
    },
    {
      "icao": "LIPQ",
      "alert": "OK",
      "vis_m": 9999,
      "fzfg": false,
      "metar_trigger": false,
      "taf_trigger": false,
      "metar": "METAR LIPQ 120720Z AUTO 16005KT 120V200 9999 OVC050/// 17/15 Q1001 RETSRA",
      "taf": "TAF LIPQ 120500Z 1206/1306 VRB05KT 9999 SCT030"
    },
    {
      "icao": "LIPR",
      "alert": "OK",
      "vis_m": 9999,
      "fzfg": false,
      "metar_trigger": false,
      "taf_trigger": false,
      "metar": "METAR LIPR 120720Z 24022G33KT CAVOK 22/08 Q1002",
      "taf": "TAF LIPR 120500Z 1206/1306 23015KT 9999 FEW030"
    },
    {
      "icao": "LIPX",
      "alert": "OK",
      "vis_m": 9999,
      "fzfg": false,
      "metar_trigger": false,
      "taf_trigger": false,
      "metar": "METAR LIPX 120720Z 29005KT 260V320 9999 SCT045 BKN080 16/11 Q1003",
      "taf": "TAF LIPX 120500Z 1206/1306 VRB05KT 9999 SCT040"
    },
    {
      "icao": "LIPY",
      "alert": "OK",
      "vis_m": 9999,
      "fzfg": false,
      "metar_trigger": false,
      "taf_trigger": false,
      "metar": "METAR LIPY 120720Z AUTO 24020KT 9999 NCD 22/10 Q1004",
      "taf": "TAF LIPY 120500Z 1206/1306 24018G32KT 9999 FEW070"
    },
    {
      "icao": "LIPZ",
      "alert": "OK",
      "vis_m": 9999,
      "fzfg": false,
      "metar_trigger": false,
      "taf_trigger": false,
      "metar": "METAR LIPZ 120720Z 31007KT 270V340 9999 BKN010 15/13 Q1002 NOSIG",
      "taf": ""
    },
    {
      "icao": "LIRF",
      "alert": "OK",
      "vis_m": 9999,
      "fzfg": false,
      "metar_trigger": false,
      "taf_trigger": false,
      "metar": "METAR LIRF 120720Z 23008KT 210V270 9999 SCT020 19/15 Q1009 BECMG 23018KT",
      "taf": "TAF LIRF 120500Z 1206/1312 24013KT 9999 SCT030"
    },
    {
      "icao": "LIRN",
      "alert": "OK",
      "vis_m": 9999,
      "fzfg": false,
      "metar_trigger": false,
      "taf_trigger": false,
      "metar": "METAR LIRN 120720Z 24009KT 9999 SCT030 20/10 Q1011 NOSIG",
      "taf": "TAF LIRN 120500Z 1206/1306 19010KT 9999 FEW010 SCT030"
    },
    {
      "icao": "LIRP",
      "alert": "OK",
      "vis_m": 9999,
      "fzfg": false,
      "metar_trigger": false,
      "taf_trigger": false,
      "metar": "METAR LIRP 120715Z 25019KT 9999 FEW020 SCT030 19/13 Q1006 TEMPO 24017G30KT",
      "taf": "TAF LIRP 120500Z 1206/1306 24017KT 9999 SCT025"
    },
    {
      "icao": "LIRZ",
      "alert": "OK",
      "vis_m": 9999,
      "fzfg": false,
      "metar_trigger": false,
      "taf_trigger": false,
      "metar": "METAR LIRZ 120720Z AUTO 19010KT 160V220 9999 FEW077/// 19/12 Q1007",
      "taf": "TAF LIRZ 120500Z 1206/1306 21013KT 9999 SCT030 BKN040"
    },
    {
      "icao": "LJLJ",
      "alert": "OK",
      "vis_m": 8000,
      "fzfg": false,
      "metar_trigger": false,
      "taf_trigger": false,
      "metar": "METAR LJLJ 120730Z 29006KT 250V330 8000 -TSRA FEW002 SCT013 SCT023CB BKN043 09/09 Q1004 RETSRA NOSIG",
      "taf": ""
    },
    {
      "icao": "LKMT",
      "alert": "OK",
      "vis_m": 9999,
      "fzfg": false,
      "metar_trigger": false,
      "taf_trigger": false,
      "metar": "METAR LKMT 120730Z 33004KT 300V360 9999 SCT017 OVC045 08/05 Q1006 NOSIG",
      "taf": "TAF LKMT 120500Z 1206/1306 36008KT 9999 -RA BKN030"
    },
    {
      "icao": "LKPR",
      "alert": "OK",
      "vis_m": 9999,
      "fzfg": false,
      "metar_trigger": false,
      "taf_trigger": false,
      "metar": "METAR LKPR 120730Z 26013KT 9999 BKN035 08/01 Q1007 NOSIG",
      "taf": "TAF LKPR 120500Z 1206/1312 28012KT 9999 BKN030"
    },
    {
      "icao": "LLBG",
      "alert": "OK",
      "vis_m": 9999,
      "fzfg": false,
      "metar_trigger": false,
      "taf_trigger": false,
      "metar": "METAR LLBG 120720Z VRB02KT CAVOK 28/05 Q1013 NOSIG",
      "taf": "TAF LLBG 120502Z 1206/1306 VRB04KT CAVOK TX34/1212Z TN16/1304Z"
    },
    {
      "icao": "LMML",
      "alert": "OK",
      "vis_m": 9999,
      "fzfg": false,
      "metar_trigger": false,
      "taf_trigger": false,
      "metar": "METAR LMML 120745Z 27008KT 240V310 CAVOK 25/15 Q1014 NOSIG",
      "taf": "TAF LMML 120500Z 1206/1306 25010KT CAVOK"
    },
    {
      "icao": "LOWW",
      "alert": "OK",
      "vis_m": 9999,
      "fzfg": false,
      "metar_trigger": false,
      "taf_trigger": false,
      "metar": "METAR LOWW 120720Z 31020KT 9999 FEW018 SCT024 10/06 Q1007 NOSIG",
      "taf": ""
    },
    {
      "icao": "LPFR",
      "alert": "OK",
      "vis_m": 9999,
      "fzfg": false,
      "metar_trigger": false,
      "taf_trigger": false,
      "metar": "METAR LPFR 120730Z VRB02KT 9999 FEW020 17/14 Q1019",
      "taf": "TAF LPFR 120500Z 1206/1306 VRB02KT 9999 SCT025"
    },
    {
      "icao": "LPMA",
      "alert": "OK",
      "vis_m": 9999,
      "fzfg": false,
      "metar_trigger": false,
      "taf_trigger": false,
      "metar": "METAR LPMA 120730Z 00000KT 9999 FEW015 17/13 Q1021",
      "taf": "TAF LPMA 120500Z 1206/1306 32007KT 9999 SCT015"
    },
    {
      "icao": "LPPR",
      "alert": "OK",
      "vis_m": 9999,
      "fzfg": false,
      "metar_trigger": false,
      "taf_trigger": false,
      "metar": "METAR LPPR 120730Z 13005KT 9999 FEW018CB BKN040 15/13 Q1017",
      "taf": "TAF LPPR 120500Z 1206/1306 15005KT 9999 SCT030"
    },
    {
      "icao": "LPPS",
      "alert": "OK",
      "vis_m": 9999,
      "fzfg": false,
      "metar_trigger": false,
      "taf_trigger": false,
      "metar": "METAR LPPS 120730Z 31006KT 9999 SCT015 17/13 Q1021",
      "taf": "TAF LPPS 120500Z 1206/1312 28008KT 9999 SCT015"
    },
    {
      "icao": "LPPT",
      "alert": "OK",
      "vis_m": 9999,
      "fzfg": false,
      "metar_trigger": false,
      "taf_trigger": false,
      "metar": "METAR LPPT 120730Z 20007KT 140V240 9999 VCSH FEW003 BKN012 FEW025CB 16/14 Q1017",
      "taf": "TAF LPPT 120500Z 1206/1312 22007KT 9999 SCT025"
    },
    {
      "icao": "LQBK",
      "alert": "OK",
      "vis_m": 9999,
      "fzfg": false,
      "metar_trigger": false,
      "taf_trigger": false,
      "metar": "METAR LQBK 120730Z VRB02KT 9999 FEW040 17/09 Q1005 NOSIG",
      "taf": "TAF LQBK 120500Z 1206/1306 24010KT 9999 SCT040 TX21/1210Z TN03/1304Z"
    },
    {
      "icao": "LQSA",
      "alert": "OK",
      "vis_m": 9999,
      "fzfg": false,
      "metar_trigger": false,
      "taf_trigger": false,
      "metar": "METAR LQSA 120730Z VRB02KT 9999 SCT055 19/09 Q1006 NOSIG",
      "taf": "TAF LQSA 120500Z 1206/1306 15005KT 9999 BKN050 TX21/1213Z TN03/1304Z"
    },
    {
      "icao": "LQTZ",
      "alert": "OK",
      "vis_m": 9999,
      "fzfg": false,
      "metar_trigger": false,
      "taf_trigger": false,
      "metar": "METAR LQTZ 120730Z 31010KT 280V340 9999 SCT040 17/10 Q1006",
      "taf": "TAF LQTZ 120500Z 1206/1306 27007KT 9999 SCT050 TX22/1212Z TN01/1304Z"
    },
    {
      "icao": "LRBC",
      "alert": "OK",
      "vis_m": 9999,
      "fzfg": false,
      "metar_trigger": false,
      "taf_trigger": false,
      "metar": "METAR LRBC 120730Z 16012KT 9999 FEW023 19/15 Q1002",
      "taf": "TAF LRBC 120500Z 1206/1215 16006KT CAVOK"
    },
    {
      "icao": "LRBS",
      "alert": "OK",
      "vis_m": 9999,
      "fzfg": false,
      "metar_trigger": false,
      "taf_trigger": false,
      "metar": "METAR LRBS 120730Z 24010KT 210V270 CAVOK 21/14 Q1004 NOSIG",
      "taf": "TAF LRBS 120500Z 1206/1306 27012KT CAVOK"
    },
    {
      "icao": "LRBV",
      "alert": "OK",
      "vis_m": 9999,
      "fzfg": false,
      "metar_trigger": false,
      "taf_trigger": false,
      "metar": "METAR LRBV 120730Z 32009KT 290V350 9999 FEW022 BKN078 16/12 Q1004",
      "taf": "TAF LRBV 120500Z 1206/1215 VRB04KT 9999 SCT050"
    },
    {
      "icao": "LRCL",
      "alert": "OK",
      "vis_m": 9999,
      "fzfg": false,
      "metar_trigger": false,
      "taf_trigger": false,
      "metar": "METAR LRCL 120730Z VRB03KT 9999 SCT065 16/13 Q1003",
      "taf": "TAF LRCL 120500Z 1206/1215 VRB04KT 9999 BKN050"
    },
    {
      "icao": "LRCV",
      "alert": "OK",
      "vis_m": 9999,
      "fzfg": false,
      "metar_trigger": false,
      "taf_trigger": false,
      "metar": "METAR LRCV 120730Z 32008KT 9999 -SHRA FEW010 SCT045CB 17/15 Q1006",
      "taf": "TAF LRCV 120500Z 1206/1215 24006KT 9999 SCT045"
    },
    {
      "icao": "LRIA",
      "alert": "OK",
      "vis_m": 9999,
      "fzfg": false,
      "metar_trigger": false,
      "taf_trigger": false,
      "metar": "METAR LRIA 120730Z 12007KT 9999 FEW008 15/13 Q1002",
      "taf": "TAF LRIA 120500Z 1206/1215 11010KT CAVOK"
    },
    {
      "icao": "LROP",
      "alert": "OK",
      "vis_m": 9999,
      "fzfg": false,
      "metar_trigger": false,
      "taf_trigger": false,
      "metar": "METAR LROP 120730Z 26011KT CAVOK 22/16 Q1004 NOSIG",
      "taf": "TAF LROP 120500Z 1206/1306 27012KT CAVOK"
    },
    {
      "icao": "LRSB",
      "alert": "OK",
      "vis_m": 9999,
      "fzfg": false,
      "metar_trigger": false,
      "taf_trigger": false,
      "metar": "METAR LRSB 120730Z 12005KT 090V150 9999 FEW050CB SCT060 SCT070 14/13 Q1004",
      "taf": "TAF LRSB 120500Z 1206/1306 VRB04KT 9999 SCT035CB BKN060"
    },
    {
      "icao": "LRSM",
      "alert": "OK",
      "vis_m": 9999,
      "fzfg": false,
      "metar_trigger": false,
      "taf_trigger": false,
      "metar": "METAR LRSM 120730Z 23009KT 9999 SCT036 17/13 Q1001",
      "taf": "TAF LRSM 120500Z 1206/1215 19010KT 9999 SCT035"
    },
    {
      "icao": "LRSV",
      "alert": "OK",
      "vis_m": 9999,
      "fzfg": false,
      "metar_trigger": false,
      "taf_trigger": false,
      "metar": "METAR LRSV 120730Z VRB05KT CAVOK 19/14 Q1001",
      "taf": "TAF LRSV 120500Z 1206/1215 22008KT CAVOK"
    },
    {
      "icao": "LRTM",
      "alert": "OK",
      "vis_m": 9999,
      "fzfg": false,
      "metar_trigger": false,
      "taf_trigger": false,
      "metar": "METAR LRTM 120730Z 19011KT 9999 -SHRA FEW013 SCT048 SCT050CB 15/14 Q1003",
      "taf": "TAF LRTM 120500Z 1206/1215 24007KT 9999 SCT045"
    },
    {
      "icao": "LRTR",
      "alert": "OK",
      "vis_m": 8000,
      "fzfg": false,
      "metar_trigger": false,
      "taf_trigger": false,
      "metar": "METAR LRTR 120730Z 18009KT 8000 -SHRA FEW010 SCT047 FEW055CB 13/13 Q1004",
      "taf": "TAF LRTR 120500Z 1206/1306 24012KT 9999 SCT040CB"
    },
    {
      "icao": "LTAC",
      "alert": "OK",
      "vis_m": 9999,
      "fzfg": false,
      "metar_trigger": false,
      "taf_trigger": false,
      "metar": "METAR LTAC 120720Z VRB02KT 9999 FEW040 SCT100 18/10 Q1013 NOSIG RMK RWY21C 15003KT 090V250 RWY03L VRB01KT RWY21R VRB02KT RWY03R VRB01KT RWY21L VRB01KT",
      "taf": "TAF LTAC 120440Z 1206/1306 VRB02KT 9999 SCT040 SCT100"
    },
    {
      "icao": "LTFM",
      "alert": "OK",
      "vis_m": 9999,
      "fzfg": false,
      "metar_trigger": false,
      "taf_trigger": false,
      "metar": "METAR LTFM 120720Z 22016KT CAVOK 24/15 Q1007 NOSIG RMK RWY17L 21014KT 180V240 RWY34L 21015KT RWY16R 22013KT RWY36 22015KT RWY18 22018KT",
      "taf": "TAF LTFM 120440Z 1206/1312 20010KT CAVOK"
    },
    {
      "icao": "LUKK",
      "alert": "OK",
      "vis_m": 3900,
      "fzfg": false,
      "metar_trigger": false,
      "taf_trigger": false,
      "metar": "METAR LUKK 120730Z 15008KT 110V180 3900 TSRA FEW009 BKN021 OVC033CB 13/13 Q1004 NOSIG",
      "taf": "TAF LUKK 120512Z 1206/1306 17010KT 9999 BKN012"
    },
    {
      "icao": "LWOH",
      "alert": "OK",
      "vis_m": 9999,
      "fzfg": false,
      "metar_trigger": false,
      "taf_trigger": false,
      "metar": "METAR LWOH 120750Z 13008KT 090V170 9999 SCT040 19/11 Q1010",
      "taf": "TAF LWOH 120530Z 1206/1306 16010KT 9999 SCT040"
    },
    {
      "icao": "LWSK",
      "alert": "OK",
      "vis_m": 9999,
      "fzfg": false,
      "metar_trigger": false,
      "taf_trigger": false,
      "metar": "METAR LWSK 120750Z VRB03KT 9999 FEW050 23/12 Q1008 NOSIG",
      "taf": "TAF LWSK 120530Z 1206/1306 VRB02KT CAVOK"
    },
    {
      "icao": "LYBE",
      "alert": "OK",
      "vis_m": 9999,
      "fzfg": false,
      "metar_trigger": false,
      "taf_trigger": false,
      "metar": "METAR LYBE 120730Z 27013KT 9999 FEW023 17/12 Q1005 TEMPO 30015G25KT 5000 SHRA SCT030TCU BKN040",
      "taf": "TAF LYBE 120500Z 1206/1306 23012KT 9999 SCT045 TX22/1213Z TN06/1304Z"
    },
    {
      "icao": "LYNI",
      "alert": "OK",
      "vis_m": 9999,
      "fzfg": false,
      "metar_trigger": false,
      "taf_trigger": false,
      "metar": "METAR LYNI 120730Z VRB01KT 9999 SCT050 20/12 Q1006 TEMPO FM0800 23013KT",
      "taf": "TAF LYNI 120500Z 1206/1306 18008KT 9999 SCT040 TX26/1214Z TN06/1304Z"
    },
    {
      "icao": "LYPG",
      "alert": "OK",
      "vis_m": 9999,
      "fzfg": false,
      "metar_trigger": false,
      "taf_trigger": false,
      "metar": "METAR LYPG 120730Z 14013KT 9999 FEW030 22/14 Q1008 NOSIG",
      "taf": "TAF LYPG 120500Z 1206/1306 16007KT 9999 FEW030 SCT040 TX23/1213Z TN14/1304Z"
    },
    {
      "icao": "LZIB",
      "alert": "OK",
      "vis_m": 9999,
      "fzfg": false,
      "metar_trigger": false,
      "taf_trigger": false,
      "metar": "METAR LZIB 120730Z 30019KT 9999 FEW030 11/04 Q1006 NOSIG",
      "taf": "TAF LZIB 120515Z 1206/1306 30012KT 9999 FEW020 SCT040"
    },
    {
      "icao": "LZKZ",
      "alert": "OK",
      "vis_m": 9999,
      "fzfg": false,
      "metar_trigger": false,
      "taf_trigger": false,
      "metar": "METAR LZKZ 120730Z 21006KT 9999 -RA SCT015 OVC021 14/12 Q0999 BECMG FM0830 01015KT",
      "taf": "TAF LZKZ 120515Z 1206/1306 19009KT 9999 FEW010 BKN045"
    },
    {
      "icao": "LZTT",
      "alert": "OK",
      "vis_m": 9999,
      "fzfg": false,
      "metar_trigger": false,
      "taf_trigger": false,
      "metar": "METAR LZTT 120730Z 27010KT 9999 -SHRA FEW008 BKN018 10/09 Q1000 NOSIG",
      "taf": "TAF LZTT 120515Z 1206/1306 26010KT 9999 SCT010 BKN035"
    },
    {
      "icao": "OEJN",
      "alert": "OK",
      "vis_m": 9999,
      "fzfg": false,
      "metar_trigger": false,
      "taf_trigger": false,
      "metar": "METAR OEJN 120700Z 33010KT CAVOK 37/10 Q1009 NOSIG",
      "taf": "TAF OEJN 120500Z 1206/1312 29010KT CAVOK"
    },
    {
      "icao": "OEMA",
      "alert": "OK",
      "vis_m": 9999,
      "fzfg": false,
      "metar_trigger": false,
      "taf_trigger": false,
      "metar": "METAR OEMA 120700Z VRB02KT CAVOK 36/03 Q1015 NOSIG",
      "taf": "TAF OEMA 120500Z 1206/1312 29010KT CAVOK"
    },
    {
      "icao": "OJAI",
      "alert": "OK",
      "vis_m": 5000,
      "fzfg": false,
      "metar_trigger": false,
      "taf_trigger": false,
      "metar": "METAR OJAI 120700Z 23004KT 5000 HZ NSC 25/02 Q1018 NOSIG",
      "taf": "TAF OJAI 120450Z 1206/1312 29012KT 5000 HZ NSC"
    },
    {
      "icao": "OMAA",
      "alert": "OK",
      "vis_m": 9999,
      "fzfg": false,
      "metar_trigger": false,
      "taf_trigger": false,
      "metar": "METAR OMAA 120730Z 16008KT 120V200 CAVOK 35/12 Q1006 NOSIG",
      "taf": "TAF OMAA 120500Z 1206/1312 20006KT 8000 NSC"
    },
    {
      "icao": "OMDB",
      "alert": "OK",
      "vis_m": 9999,
      "fzfg": false,
      "metar_trigger": false,
      "taf_trigger": false,
      "metar": "METAR OMDB 120730Z 31007KT 280V340 CAVOK 35/22 Q1006 NOSIG",
      "taf": "TAF OMDB 120500Z 1206/1312 22005KT 8000 NSC"
    },
    {
      "icao": "UAAA",
      "alert": "OK",
      "vis_m": 9999,
      "fzfg": false,
      "metar_trigger": false,
      "taf_trigger": false,
      "metar": "METAR UAAA 120730Z 26002MPS 9999 BKN030CB OVC100 16/09 Q1024 NOSIG",
      "taf": "TAF UAAA 120500Z 1206/1306 24003G08MPS 9999 SCT050CB BKN100 TX16/1206Z TN07/1302Z"
    },
    {
      "icao": "UBBB",
      "alert": "OK",
      "vis_m": 9999,
      "fzfg": false,
      "metar_trigger": false,
      "taf_trigger": false,
      "metar": "METAR UBBB 120730Z 19014KT CAVOK 24/11 Q1012 NOSIG",
      "taf": "TAF UBBB 120512Z 1206/1306 16010KT 9999 FEW030 TX26/1210Z TN15/1301Z"
    },
    {
      "icao": "UDSG",
      "alert": "OK",
      "vis_m": 9999,
      "fzfg": false,
      "metar_trigger": false,
      "taf_trigger": false,
      "metar": "METAR UDSG 120730Z 19006KT 9999 -SHRA BKN036CB 14/08 Q1019 TEMPO -TSRA",
      "taf": "TAF UDSG 120500Z 1206/1306 22006KT 9999 BKN040"
    },
    {
      "icao": "UDYZ",
      "alert": "OK",
      "vis_m": 9999,
      "fzfg": false,
      "metar_trigger": false,
      "taf_trigger": false,
      "metar": "METAR UDYZ 120730Z VRB02KT 9999 -SHRA BKN033CB 18/11 Q1016 NOSIG",
      "taf": "TAF UDYZ 120500Z 1206/1306 18006KT 9999 BKN030"
    },
    {
      "icao": "UGKO",
      "alert": "OK",
      "vis_m": 9999,
      "fzfg": false,
      "metar_trigger": false,
      "taf_trigger": false,
      "metar": "METAR UGKO 120730Z AUTO VRB02KT CAVOK 24/14 Q1010 NOSIG",
      "taf": "TAF UGKO 120500Z 1206/1306 08007KT CAVOK TX26/1211Z TN16/1302Z"
    }
  ]
}