{
  "ts_utc": "2026-01-16T06:58:44Z",
  "threshold_m": 150,
  "source": "stations_override.txt (ICAO list) + aviationweather.gov (METAR/TAF raw)",
  "station_count": 159,
  "stations": [
    {
      "icao": "BIKF",
      "alert": "OK",
      "vis_m": 9999,
      "fzfg": false,
      "metar_trigger": false,
      "taf_trigger": false,
      "metar": "METAR BIKF 160630Z 02013KT 9999 FEW025 SCT058 01/M02 Q0999",
      "taf": "TAF BIKF 160432Z 1606/1706 02020KT 9999 SCT035 TX02/1609Z TNM02/1706Z"
    },
    {
      "icao": "BKPR",
      "alert": "OK",
      "vis_m": null,
      "fzfg": false,
      "metar_trigger": false,
      "taf_trigger": false,
      "metar": "",
      "taf": "TAF BKPR 160530Z 1606/1706 VRB03KT 5000 BR SCT030"
    },
    {
      "icao": "EBCI",
      "alert": "OK",
      "vis_m": 9999,
      "fzfg": false,
      "metar_trigger": false,
      "taf_trigger": false,
      "metar": "METAR EBCI 160650Z 21008KT 9999 BKN014 BKN020 09/06 Q1010 NOSIG",
      "taf": "TAF EBCI 160500Z 1606/1712 22008KT 9999 SCT018 SCT035"
    },
    {
      "icao": "EDDB",
      "alert": "OK",
      "vis_m": 8000,
      "fzfg": false,
      "metar_trigger": false,
      "taf_trigger": false,
      "metar": "METAR EDDB 160650Z AUTO 13006KT 8000 NSC 03/02 Q1016 TEMPO 4500 BR",
      "taf": "TAF EDDB 160500Z 1606/1706 15008KT 9000 NSC"
    },
    {
      "icao": "EDDH",
      "alert": "OK",
      "vis_m": 9999,
      "fzfg": false,
      "metar_trigger": false,
      "taf_trigger": false,
      "metar": "METAR EDDH 160650Z AUTO 14010KT CAVOK 06/04 Q1010 NOSIG",
      "taf": "TAF EDDH 160500Z 1606/1712 15010KT CAVOK"
    },
    {
      "icao": "EDDK",
      "alert": "OK",
      "vis_m": 9999,
      "fzfg": false,
      "metar_trigger": false,
      "taf_trigger": false,
      "metar": "METAR EDDK 160650Z AUTO 17008KT 9999 SCT037 BKN049 10/06 Q1012 NOSIG",
      "taf": "TAF EDDK 160500Z 1606/1712 17008KT 9999 SCT035"
    },
    {
      "icao": "EDDN",
      "alert": "OK",
      "vis_m": 9999,
      "fzfg": false,
      "metar_trigger": false,
      "taf_trigger": false,
      "metar": "METAR EDDN 160650Z AUTO 14003KT CAVOK 01/M01 Q1016 NOSIG",
      "taf": "TAF EDDN 160500Z 1606/1706 11006KT CAVOK"
    },
    {
      "icao": "EDDS",
      "alert": "OK",
      "vis_m": 9999,
      "fzfg": false,
      "metar_trigger": false,
      "taf_trigger": false,
      "metar": "METAR EDDS 160650Z AUTO VRB01KT CAVOK M01/M01 Q1015 NOSIG",
      "taf": "TAF EDDS 160500Z 1606/1706 VRB03KT CAVOK"
    },
    {
      "icao": "EDFH",
      "alert": "OK",
      "vis_m": 9999,
      "fzfg": false,
      "metar_trigger": false,
      "taf_trigger": false,
      "metar": "METAR EDFH 160650Z 21009KT 180V240 9999 SCT035 08/05 Q1012",
      "taf": "TAF EDFH 160500Z 1606/1706 16012KT 9999 BKN025"
    },
    {
      "icao": "EDJA",
      "alert": "OK",
      "vis_m": 9999,
      "fzfg": false,
      "metar_trigger": false,
      "taf_trigger": false,
      "metar": "METAR EDJA 160650Z 19004KT CAVOK M02/M04 Q1016",
      "taf": "TAF EDJA 160500Z 1606/1615 VRB03KT CAVOK"
    },
    {
      "icao": "EDLW",
      "alert": "OK",
      "vis_m": 9999,
      "fzfg": false,
      "metar_trigger": false,
      "taf_trigger": false,
      "metar": "METAR EDLW 160650Z 20013KT 9999 OVC046 11/05 Q1010",
      "taf": "TAF EDLW 160500Z 1606/1706 19011KT 9999 BKN035"
    },
    {
      "icao": "EDNY",
      "alert": "OK",
      "vis_m": 9999,
      "fzfg": false,
      "metar_trigger": false,
      "taf_trigger": false,
      "metar": "METAR EDNY 160650Z COR VRB02KT CAVOK M04/M04 Q1017",
      "taf": "TAF EDNY 160500Z 1606/1615 VRB03KT CAVOK"
    },
    {
      "icao": "EDSB",
      "alert": "OK",
      "vis_m": 9999,
      "fzfg": false,
      "metar_trigger": false,
      "taf_trigger": false,
      "metar": "METAR EDSB 160650Z 24003KT CAVOK 01/00 Q1015",
      "taf": "TAF EDSB 160500Z 1606/1706 VRB03KT CAVOK"
    },
    {
      "icao": "EETN",
      "alert": "OK",
      "vis_m": 9999,
      "fzfg": false,
      "metar_trigger": false,
      "taf_trigger": false,
      "metar": "METAR EETN 160650Z 15007KT 120V180 9999 OVC024 M06/M08 Q1028 NOSIG",
      "taf": "TAF EETN 160530Z 1606/1706 17012KT 9999 OVC025"
    },
    {
      "icao": "EFTU",
      "alert": "OK",
      "vis_m": 9999,
      "fzfg": false,
      "metar_trigger": false,
      "taf_trigger": false,
      "metar": "METAR EFTU 160650Z AUTO 17009KT 9999 OVC019 01/M00 Q1023",
      "taf": "TAF EFTU 160532Z 1606/1706 18010KT 9000 FEW009 OVC025"
    },
    {
      "icao": "EGBB",
      "alert": "OK",
      "vis_m": 2300,
      "fzfg": false,
      "metar_trigger": false,
      "taf_trigger": false,
      "metar": "METAR EGBB 160650Z 15007KT 2300 BR OVC003 04/03 Q1003",
      "taf": "TAF EGBB 160459Z 1606/1706 15007KT 9999 BKN020"
    },
    {
      "icao": "EGGP",
      "alert": "OK",
      "vis_m": 9999,
      "fzfg": false,
      "metar_trigger": false,
      "taf_trigger": false,
      "metar": "METAR EGGP 160650Z 15008KT 9999 FEW015 03/03 Q1001",
      "taf": "TAF EGGP 160500Z 1606/1706 15009KT 9999 FEW040"
    },
    {
      "icao": "EGGW",
      "alert": "OK",
      "vis_m": 2300,
      "fzfg": false,
      "metar_trigger": false,
      "taf_trigger": false,
      "metar": "METAR EGGW 160650Z AUTO 15007KT 2300 BR BKN002 03/03 Q1004",
      "taf": "TAF EGGW 160458Z 1606/1706 15007KT 0300 FG BKN001"
    },
    {
      "icao": "EGKK",
      "alert": "OK",
      "vis_m": 9999,
      "fzfg": false,
      "metar_trigger": false,
      "taf_trigger": false,
      "metar": "METAR EGKK 160650Z VRB01KT 9999 -RA SCT014 SCT023 06/06 Q1005",
      "taf": "TAF EGKK 160455Z 1606/1712 07003KT 9999 SCT030"
    },
    {
      "icao": "EGNM",
      "alert": "OK",
      "vis_m": 9999,
      "fzfg": false,
      "metar_trigger": false,
      "taf_trigger": false,
      "metar": "METAR EGNM 160650Z 16004KT 9999 FEW011 01/01 Q1001",
      "taf": ""
    },
    {
      "icao": "EGPD",
      "alert": "OK",
      "vis_m": 9999,
      "fzfg": false,
      "metar_trigger": false,
      "taf_trigger": false,
      "metar": "METAR EGPD 160650Z AUTO 01002KT 9999 NCD M04/M05 Q1000 TEMPO 4000 BR",
      "taf": "TAF EGPD 160455Z 1606/1706 VRB03KT 9999 FEW040"
    },
    {
      "icao": "EGPF",
      "alert": "OK",
      "vis_m": 2600,
      "fzfg": false,
      "metar_trigger": false,
      "taf_trigger": false,
      "metar": "METAR EGPF 160650Z AUTO 07005KT 2600 BR NCD 01/01 Q0999",
      "taf": "TAF EGPF 160457Z 1606/1706 VRB03KT 9999 SCT025"
    },
    {
      "icao": "EHBK",
      "alert": "OK",
      "vis_m": 9999,
      "fzfg": false,
      "metar_trigger": false,
      "taf_trigger": false,
      "metar": "METAR EHBK 160625Z AUTO 20012KT 9999 BKN022 OVC026 10/07 Q1009 NOSIG",
      "taf": "TAF EHBK 160507Z 1606/1712 20013KT 9999 OVC045"
    },
    {
      "icao": "EHEH",
      "alert": "OK",
      "vis_m": 9999,
      "fzfg": false,
      "metar_trigger": false,
      "taf_trigger": false,
      "metar": "METAR EHEH 160625Z AUTO 23010KT 210V270 9999 SCT047 OVC210 09/06 Q1009 BLU NOSIG RMK TREND REMOTE BY EHWX",
      "taf": "TAF EHEH 160538Z 1606/1712 23016KT 9999 BKN030"
    },
    {
      "icao": "EKBI",
      "alert": "OK",
      "vis_m": 9999,
      "fzfg": false,
      "metar_trigger": false,
      "taf_trigger": false,
      "metar": "METAR EKBI 160650Z AUTO 14009KT 9999 FEW009/// BKN070/// 05/05 Q1006",
      "taf": "TAF EKBI 160527Z 1606/1706 15008KT 6000 FEW045"
    },
    {
      "icao": "EKCH",
      "alert": "OK",
      "vis_m": 2000,
      "fzfg": false,
      "metar_trigger": false,
      "taf_trigger": false,
      "metar": "METAR EKCH 160650Z 13017KT 2000 BR BKN002 04/03 Q1012 BECMG 4000 BKN005",
      "taf": ""
    },
    {
      "icao": "ENAL",
      "alert": "OK",
      "vis_m": 9999,
      "fzfg": false,
      "metar_trigger": false,
      "taf_trigger": false,
      "metar": "METAR ENAL 160650Z 17004KT 130V190 9999 FEW060 04/M02 Q1002",
      "taf": "TAF ENAL 160500Z 1606/1615 14007KT 9999 SCT060"
    },
    {
      "icao": "ENBR",
      "alert": "OK",
      "vis_m": 9999,
      "fzfg": false,
      "metar_trigger": false,
      "taf_trigger": false,
      "metar": "METAR ENBR 160650Z 10003KT 9999 -RA FEW020 BKN038 04/03 Q1001 NOSIG RMK WIND 1200FT 12014KT",
      "taf": "TAF ENBR 160500Z 1606/1706 08005KT 9999 -RA SCT020 BKN040"
    },
    {
      "icao": "ENGM",
      "alert": "OK",
      "vis_m": 4500,
      "fzfg": false,
      "metar_trigger": false,
      "taf_trigger": false,
      "metar": "METAR ENGM 160650Z VRB02KT 4500 -SNRA BKN004 00/M00 Q1008 TEMPO 2000 -SNRA BR",
      "taf": "TAF ENGM 160500Z 1606/1706 VRB03KT 5000 -SNRA BR BKN010"
    },
    {
      "icao": "ENHD",
      "alert": "OK",
      "vis_m": 9999,
      "fzfg": false,
      "metar_trigger": false,
      "taf_trigger": false,
      "metar": "METAR ENHD 160650Z 09008KT 9999 -RA FEW016 BKN022 05/04 Q1000",
      "taf": "TAF ENHD 160500Z 1606/1615 11012KT 9999 -RA FEW012 BKN020"
    },
    {
      "icao": "ENTC",
      "alert": "OK",
      "vis_m": 9999,
      "fzfg": false,
      "metar_trigger": false,
      "taf_trigger": false,
      "metar": "METAR ENTC 160650Z 22013KT CAVOK M02/M07 Q1009 NOSIG RMK WIND 2600FT 16008KT",
      "taf": "TAF ENTC 160500Z 1606/1706 20008KT CAVOK"
    },
    {
      "icao": "ENTO",
      "alert": "OK",
      "vis_m": 1000,
      "fzfg": false,
      "metar_trigger": false,
      "taf_trigger": false,
      "metar": "METAR ENTO 160650Z 17014KT 1000 R18/1800D R36/P2000N RA BR VV002 04/04 Q1007 TEMPO 3000 -RA BR",
      "taf": ""
    },
    {
      "icao": "ENVA",
      "alert": "OK",
      "vis_m": 9999,
      "fzfg": false,
      "metar_trigger": false,
      "taf_trigger": false,
      "metar": "METAR ENVA 160650Z 11006KT 090V170 CAVOK 05/M02 Q1007 NOSIG RMK WIND 670FT 16012KT",
      "taf": "TAF ENVA 160500Z 1606/1706 10007KT CAVOK"
    },
    {
      "icao": "ENZV",
      "alert": "OK",
      "vis_m": 9999,
      "fzfg": false,
      "metar_trigger": false,
      "taf_trigger": false,
      "metar": "METAR ENZV 160650Z 12009KT 9999 -RA BKN031 BKN039 05/02 Q1000 NOSIG",
      "taf": "TAF ENZV 160500Z 1606/1706 12012KT 9999 -RA FEW020 BKN030"
    },
    {
      "icao": "EPGD",
      "alert": "OK",
      "vis_m": 250,
      "fzfg": true,
      "metar_trigger": false,
      "taf_trigger": false,
      "metar": "METAR EPGD 160630Z 15009KT 0250 R29/0650N FZFG VV001 M03/M04 Q1021",
      "taf": ""
    },
    {
      "icao": "EPKK",
      "alert": "OK",
      "vis_m": 7000,
      "fzfg": false,
      "metar_trigger": false,
      "taf_trigger": false,
      "metar": "METAR EPKK 160630Z 04006KT 7000 SCT050 00/M01 Q1022",
      "taf": "TAF EPKK 160530Z 1606/1706 05006KT 7000 OVC045"
    },
    {
      "icao": "EPKT",
      "alert": "OK",
      "vis_m": 3900,
      "fzfg": false,
      "metar_trigger": false,
      "taf_trigger": false,
      "metar": "METAR EPKT 160630Z 13005KT 3900 BR FEW002 M00/M01 Q1021",
      "taf": "TAF EPKT 160530Z 1606/1706 12005KT 5000 BR SCT007 OVC040"
    },
    {
      "icao": "EPLB",
      "alert": "OK",
      "vis_m": 7000,
      "fzfg": false,
      "metar_trigger": false,
      "taf_trigger": false,
      "metar": "METAR EPLB 160630Z 11011KT 7000 OVC018 M07/M08 Q1027",
      "taf": "TAF EPLB 160530Z 1606/1706 11008KT 8000 OVC015"
    },
    {
      "icao": "EPMO",
      "alert": "OK",
      "vis_m": 2700,
      "fzfg": false,
      "metar_trigger": false,
      "taf_trigger": false,
      "metar": "METAR EPMO 160630Z 08006KT 2700 BR BKN008 M07/M08 Q1025",
      "taf": "TAF EPMO 160530Z 1606/1706 12007KT 3000 BR BKN007"
    },
    {
      "icao": "EPPO",
      "alert": "OK",
      "vis_m": 2800,
      "fzfg": false,
      "metar_trigger": false,
      "taf_trigger": false,
      "metar": "METAR EPPO 160630Z 11009KT 2800 BR BKN003 01/00 Q1020",
      "taf": ""
    },
    {
      "icao": "EPRA",
      "alert": "OK",
      "vis_m": 7000,
      "fzfg": false,
      "metar_trigger": false,
      "taf_trigger": false,
      "metar": "METAR EPRA 160630Z 13011KT 7000 OVC006 M03/M04 Q1024",
      "taf": "TAF EPRA 160530Z 1606/1615 11010KT 8000 OVC006"
    },
    {
      "icao": "EPRZ",
      "alert": "OK",
      "vis_m": 3200,
      "fzfg": false,
      "metar_trigger": false,
      "taf_trigger": false,
      "metar": "METAR EPRZ 160630Z 10015KT 3200 BR OVC003 M01/M01 Q1025",
      "taf": "TAF EPRZ 160530Z 1606/1706 09010KT 4000 BR OVC004"
    },
    {
      "icao": "EPSC",
      "alert": "OK",
      "vis_m": 1100,
      "fzfg": false,
      "metar_trigger": false,
      "taf_trigger": false,
      "metar": "METAR EPSC 160630Z 14014KT 1100 R31/1900N BR OVC002 02/02 Q1017",
      "taf": "TAF EPSC 160530Z 1606/1706 13013KT 0800 FG BKN002"
    },
    {
      "icao": "EPSY",
      "alert": "OK",
      "vis_m": 5000,
      "fzfg": false,
      "metar_trigger": false,
      "taf_trigger": false,
      "metar": "METAR EPSY 160630Z 13004KT 090V180 5000 BR OVC021 M08/M09 Q1026",
      "taf": "TAF EPSY 160530Z 1606/1615 14006KT 5000 BR BKN025"
    },
    {
      "icao": "EPWA",
      "alert": "OK",
      "vis_m": 4100,
      "fzfg": false,
      "metar_trigger": false,
      "taf_trigger": false,
      "metar": "METAR EPWA 160630Z 11006KT 4100 BR SCT006 BKN026 M05/M05 Q1026 TEMPO BKN006",
      "taf": "TAF EPWA 160530Z 1606/1706 12008KT 7000 BKN008"
    },
    {
      "icao": "EPWR",
      "alert": "OK",
      "vis_m": 3000,
      "fzfg": false,
      "metar_trigger": false,
      "taf_trigger": false,
      "metar": "METAR EPWR 160630Z 11007KT 3000 BR NSC 00/00 Q1019",
      "taf": "TAF EPWR 160530Z 1606/1706 12006KT 2000 BR BKN025"
    },
    {
      "icao": "ESGG",
      "alert": "OK",
      "vis_m": 1500,
      "fzfg": false,
      "metar_trigger": false,
      "taf_trigger": false,
      "metar": "METAR ESGG 160650Z 14011KT 1500 R03/P2000N R21/P2000N BR VV002 03/03 Q1010",
      "taf": "TAF ESGG 160530Z 1606/1706 16009KT 5000 -RA OVC002"
    },
    {
      "icao": "ESKN",
      "alert": "OK",
      "vis_m": 2500,
      "fzfg": false,
      "metar_trigger": false,
      "taf_trigger": false,
      "metar": "METAR ESKN 160650Z 15015KT 2500 BR OVC003 03/03 Q1017",
      "taf": "TAF ESKN 160530Z 1606/1706 17015KT 9999 OVC005"
    },
    {
      "icao": "ESMS",
      "alert": "OK",
      "vis_m": 1100,
      "fzfg": false,
      "metar_trigger": false,
      "taf_trigger": false,
      "metar": "METAR ESMS 160650Z 13012KT 1100 R17/P2000N R35/P2000N OVC002 03/03 Q1013",
      "taf": "TAF ESMS 160527Z 1606/1706 14012KT 0200 FG OVC002"
    },
    {
      "icao": "ESSA",
      "alert": "OK",
      "vis_m": 9999,
      "fzfg": false,
      "metar_trigger": false,
      "taf_trigger": false,
      "metar": "METAR ESSA 160650Z 16013KT 9999 BKN010 02/01 Q1018 TEMPO BKN009",
      "taf": "TAF ESSA 160530Z 1606/1706 17015KT 9999 OVC010"
    },
    {
      "icao": "EYKA",
      "alert": "OK",
      "vis_m": 7000,
      "fzfg": false,
      "metar_trigger": false,
      "taf_trigger": false,
      "metar": "METAR EYKA 160650Z 13008KT 100V250 7000 OVC003 M15/M17 Q1031",
      "taf": ""
    },
    {
      "icao": "EYPA",
      "alert": "OK",
      "vis_m": 5000,
      "fzfg": false,
      "metar_trigger": false,
      "taf_trigger": false,
      "metar": "METAR EYPA 160650Z 13010KT 5000 BR NSC M07/M09 Q1026",
      "taf": "TAF EYPA 160500Z 1606/1706 13012KT 6000 SCT010 BKN020"
    },
    {
      "icao": "EYVI",
      "alert": "OK",
      "vis_m": 8000,
      "fzfg": false,
      "metar_trigger": false,
      "taf_trigger": false,
      "metar": "METAR EYVI 160650Z 16009KT 8000 NSC M19/M21 Q1031 NOSIG",
      "taf": "TAF EYVI 160506Z 1606/1706 16010KT 7000 NSC"
    },
    {
      "icao": "GCFV",
      "alert": "OK",
      "vis_m": 9999,
      "fzfg": false,
      "metar_trigger": false,
      "taf_trigger": false,
      "metar": "METAR GCFV 160630Z 34007KT 9999 BKN035 17/09 Q1023",
      "taf": "TAF GCFV 160200Z 1603/1703 34007KT 9999 SCT035 TX22/1614Z TN14/1606Z"
    },
    {
      "icao": "GCLP",
      "alert": "OK",
      "vis_m": 9999,
      "fzfg": false,
      "metar_trigger": false,
      "taf_trigger": false,
      "metar": "METAR GCLP 160630Z 36010KT 9999 BKN034 17/10 Q1023 NOSIG",
      "taf": "TAF GCLP 160200Z 1603/1703 36013KT 9999 BKN035 TX22/1614Z TN15/1606Z"
    },
    {
      "icao": "GCTS",
      "alert": "OK",
      "vis_m": 9999,
      "fzfg": false,
      "metar_trigger": false,
      "taf_trigger": false,
      "metar": "METAR GCTS 160630Z 36007KT 9999 SCT035 15/09 Q1024 NOSIG",
      "taf": "TAF GCTS 160200Z 1603/1703 01005KT 9999 BKN035 TX22/1614Z TN13/1606Z"
    },
    {
      "icao": "GMAD",
      "alert": "OK",
      "vis_m": 9999,
      "fzfg": false,
      "metar_trigger": false,
      "taf_trigger": false,
      "metar": "METAR GMAD 160630Z 07005KT CAVOK 09/09 Q1022 NOSIG",
      "taf": "TAF GMAD 160500Z 1606/1712 09005KT CAVOK"
    },
    {
      "icao": "GMMN",
      "alert": "OK",
      "vis_m": 9999,
      "fzfg": false,
      "metar_trigger": false,
      "taf_trigger": false,
      "metar": "METAR GMMN 160630Z 20009KT 9999 SCT016 BKN100 08/07 Q1020 NOSIG",
      "taf": "TAF GMMN 160500Z 1606/1712 21008KT 9999 SCT016 SCT100"
    },
    {
      "icao": "GMMX",
      "alert": "OK",
      "vis_m": 5000,
      "fzfg": false,
      "metar_trigger": false,
      "taf_trigger": false,
      "metar": "METAR GMMX 160630Z 31003KT 5000 SCT006 SCT030 09/08 Q1021 NOSIG",
      "taf": "TAF GMMX 160500Z 1606/1712 06006KT 8000 SCT026"
    },
    {
      "icao": "HEGN",
      "alert": "OK",
      "vis_m": 9999,
      "fzfg": false,
      "metar_trigger": false,
      "taf_trigger": false,
      "metar": "METAR HEGN 160600Z 29012KT CAVOK 15/06 Q1022 NOSIG",
      "taf": "TAF HEGN 160500Z 1606/1712 30015KT 9999 FEW025"
    },
    {
      "icao": "HEMA",
      "alert": "OK",
      "vis_m": 9999,
      "fzfg": false,
      "metar_trigger": false,
      "taf_trigger": false,
      "metar": "METAR HEMA 160600Z 30015KT 9999 SCT020 17/10 Q1020 NOSIG",
      "taf": "TAF HEMA 160500Z 1606/1712 31015KT 9999 FEW025"
    },
    {
      "icao": "HESH",
      "alert": "OK",
      "vis_m": 9999,
      "fzfg": false,
      "metar_trigger": false,
      "taf_trigger": false,
      "metar": "METAR HESH 160600Z 35010KT CAVOK 17/05 Q1021 NOSIG",
      "taf": "TAF HESH 160500Z 1606/1712 35010KT CAVOK"
    },
    {
      "icao": "HESX",
      "alert": "OK",
      "vis_m": 150,
      "fzfg": false,
      "metar_trigger": false,
      "taf_trigger": false,
      "metar": "METAR HESX 160600Z 29002KT 0150 R32/0150 FG NSC 07/07 Q1023 NOSIG",
      "taf": "TAF HESX 160600Z 1606/1712 36006KT 9999 SCT025"
    },
    {
      "icao": "LATI",
      "alert": "OK",
      "vis_m": 9999,
      "fzfg": false,
      "metar_trigger": false,
      "taf_trigger": false,
      "metar": "METAR LATI 160650Z VRB03KT 9999 SCT070 BKN090 09/05 Q1023 NOSIG",
      "taf": "TAF LATI 160500Z 1606/1706 VRB05KT 9999 FEW040 BKN070 TX16/1612Z TN05/1705Z"
    },
    {
      "icao": "LBPD",
      "alert": "OK",
      "vis_m": 9999,
      "fzfg": false,
      "metar_trigger": false,
      "taf_trigger": false,
      "metar": "METAR LBPD 160630Z AUTO 07004KT 9999 OVC072/// 04/02 Q1023 NOSIG",
      "taf": "TAF LBPD 160500Z 1606/1706 VRB03KT 9999 BKN070"
    },
    {
      "icao": "LBSF",
      "alert": "OK",
      "vis_m": 9999,
      "fzfg": false,
      "metar_trigger": false,
      "taf_trigger": false,
      "metar": "METAR LBSF 160630Z VRB02KT 9999 BKN067 01/M00 Q1023 NOSIG",
      "taf": "TAF LBSF 160500Z 1606/1706 VRB03KT 9999 BKN050"
    },
    {
      "icao": "LBWN",
      "alert": "OK",
      "vis_m": 6000,
      "fzfg": false,
      "metar_trigger": false,
      "taf_trigger": false,
      "metar": "METAR LBWN 160630Z VRB03KT 6000 -RASN SCT009 OVC020 01/00 Q1026 TEMPO 5000 SNRA BKN010 OVC025",
      "taf": "TAF LBWN 160500Z 1606/1706 04010KT 5000 RASN SCT010 OVC020"
    },
    {
      "icao": "LCLK",
      "alert": "OK",
      "vis_m": 9999,
      "fzfg": false,
      "metar_trigger": false,
      "taf_trigger": false,
      "metar": "METAR LCLK 160630Z 30005KT 270V330 9999 FEW030 13/09 Q1023 NOSIG",
      "taf": "TAF LCLK 160530Z 1606/1706 32006KT 9999 FEW025 SCT040"
    },
    {
      "icao": "LCPH",
      "alert": "OK",
      "vis_m": 9999,
      "fzfg": false,
      "metar_trigger": false,
      "taf_trigger": false,
      "metar": "METAR LCPH 160630Z 07007KT 010V080 9999 FEW020 11/05 Q1023 NOSIG",
      "taf": "TAF LCPH 160530Z 1606/1706 05008KT 9999 FEW025 SCT035"
    },
    {
      "icao": "LEAL",
      "alert": "OK",
      "vis_m": 9999,
      "fzfg": false,
      "metar_trigger": false,
      "taf_trigger": false,
      "metar": "METAR LEAL 160630Z 28005KT 9999 BKN060 11/08 Q1015 NOSIG",
      "taf": "TAF LEAL 160500Z 1606/1706 VRB04KT CAVOK TX16/1613Z TN07/1606Z"
    },
    {
      "icao": "LEBB",
      "alert": "OK",
      "vis_m": 9999,
      "fzfg": false,
      "metar_trigger": false,
      "taf_trigger": false,
      "metar": "METAR LEBB 160630Z 08004KT 040V120 CAVOK 09/05 Q1011 NOSIG",
      "taf": "TAF LEBB 160500Z 1606/1706 12006KT 9999 FEW045 TX15/1613Z TN07/1607Z"
    },
    {
      "icao": "LEBL",
      "alert": "OK",
      "vis_m": 9000,
      "fzfg": false,
      "metar_trigger": false,
      "taf_trigger": false,
      "metar": "METAR LEBL 160630Z 34009G19KT 9000 FEW015 SCT055 06/04 Q1014 NOSIG",
      "taf": "TAF LEBL 160500Z 1606/1706 34007KT 9999 FEW015 TX14/1612Z TN06/1606Z"
    },
    {
      "icao": "LECH",
      "alert": "OK",
      "vis_m": 9999,
      "fzfg": false,
      "metar_trigger": false,
      "taf_trigger": false,
      "metar": "METAR LECH 160630Z AUTO 08003KT 030V110 9999 BKN060 06/03 Q1014",
      "taf": ""
    },
    {
      "icao": "LEMD",
      "alert": "OK",
      "vis_m": 2000,
      "fzfg": false,
      "metar_trigger": false,
      "taf_trigger": false,
      "metar": "METAR LEMD 160630Z VRB01KT 2000 DZ BR FEW001 OVC004 06/06 Q1013 NOSIG",
      "taf": "TAF LEMD 160500Z 1606/1712 VRB04KT 9999 SCT020 TX11/1615Z TN05/1607Z"
    },
    {
      "icao": "LEMG",
      "alert": "OK",
      "vis_m": 9999,
      "fzfg": false,
      "metar_trigger": false,
      "taf_trigger": false,
      "metar": "METAR LEMG 160630Z 32001KT 9999 BKN030 OVC040 10/09 Q1016 NOSIG",
      "taf": "TAF LEMG 160500Z 1606/1706 VRB02KT 9999 SCT015 TX18/1614Z TN11/1607Z"
    },
    {
      "icao": "LEVC",
      "alert": "OK",
      "vis_m": 9999,
      "fzfg": false,
      "metar_trigger": false,
      "taf_trigger": false,
      "metar": "METAR LEVC 160630Z 27003KT 230V310 CAVOK 07/05 Q1015 NOSIG",
      "taf": "TAF LEVC 160500Z 1606/1706 24005KT CAVOK TX16/1612Z TN07/1606Z"
    },
    {
      "icao": "LEXJ",
      "alert": "OK",
      "vis_m": 9999,
      "fzfg": false,
      "metar_trigger": false,
      "taf_trigger": false,
      "metar": "METAR LEXJ 160630Z 18002KT 9999 FEW040 06/05 Q1010",
      "taf": "TAF LEXJ 160200Z 1603/1703 VRB03KT 9999 FEW045 TX15/1614Z TN06/1607Z"
    },
    {
      "icao": "LEZG",
      "alert": "OK",
      "vis_m": 7000,
      "fzfg": false,
      "metar_trigger": false,
      "taf_trigger": false,
      "metar": "METAR LEZG 160630Z 08004KT 060V120 7000 FEW003 SCT050 06/06 Q1014 NOSIG",
      "taf": "TAF LEZG 160500Z 1606/1706 09005KT 9999 FEW020 TX12/1614Z TN05/1606Z"
    },
    {
      "icao": "LEZL",
      "alert": "OK",
      "vis_m": 9999,
      "fzfg": false,
      "metar_trigger": false,
      "taf_trigger": false,
      "metar": "METAR LEZL 160630Z 30006KT 9999 -RA FEW015 SCT025 13/13 Q1014 NOSIG",
      "taf": "TAF LEZL 160200Z 1603/1703 24005KT CAVOK TX17/1614Z TN08/1607Z"
    },
    {
      "icao": "LFBD",
      "alert": "OK",
      "vis_m": 9999,
      "fzfg": false,
      "metar_trigger": false,
      "taf_trigger": false,
      "metar": "METAR LFBD 160630Z AUTO 18010KT CAVOK 09/08 Q1012 TEMPO 3000 -SHRA BKN010 BKN040TCU",
      "taf": "TAF LFBD 160500Z 1606/1712 21010KT 9999 BKN040 TX11/1615Z TN05/1704Z"
    },
    {
      "icao": "LFLL",
      "alert": "OK",
      "vis_m": 9999,
      "fzfg": false,
      "metar_trigger": false,
      "taf_trigger": false,
      "metar": "METAR LFLL 160630Z 10005KT CAVOK 07/04 Q1014 NOSIG",
      "taf": "TAF LFLL 160500Z 1606/1712 18007KT CAVOK"
    },
    {
      "icao": "LFLS",
      "alert": "OK",
      "vis_m": 9999,
      "fzfg": false,
      "metar_trigger": false,
      "taf_trigger": false,
      "metar": "METAR LFLS 160630Z AUTO 08005KT 050V110 CAVOK 04/03 Q1014 NOSIG",
      "taf": "TAF LFLS 160200Z 1603/1703 VRB02KT 9999 FEW060"
    },
    {
      "icao": "LFMN",
      "alert": "OK",
      "vis_m": 9999,
      "fzfg": false,
      "metar_trigger": false,
      "taf_trigger": false,
      "metar": "METAR LFMN 160630Z 34009KT 9999 FEW033 OVC160 09/03 Q1019 NOSIG",
      "taf": "TAF LFMN 160200Z 1603/1709 33010KT CAVOK"
    },
    {
      "icao": "LFOB",
      "alert": "OK",
      "vis_m": 9999,
      "fzfg": false,
      "metar_trigger": false,
      "taf_trigger": false,
      "metar": "METAR LFOB 160630Z AUTO 13007KT 9999 FEW011 05/05 Q1009 TEMPO 4000 BR BKN004 OVC007",
      "taf": "TAF LFOB 160500Z 1606/1706 VRB03KT 9999 SCT012 BKN040"
    },
    {
      "icao": "LFPO",
      "alert": "OK",
      "vis_m": 9999,
      "fzfg": false,
      "metar_trigger": false,
      "taf_trigger": false,
      "metar": "METAR LFPO 160630Z AUTO 17003KT 9999 FEW013 BKN240 08/07 Q1010 TEMPO BKN007",
      "taf": "TAF LFPO 160500Z 1606/1712 21010KT 9999 SCT012 BKN020"
    },
    {
      "icao": "LFSB",
      "alert": "OK",
      "vis_m": 9999,
      "fzfg": false,
      "metar_trigger": false,
      "taf_trigger": false,
      "metar": "METAR LFSB 160630Z AUTO 17005KT CAVOK 02/01 Q1015 NOSIG",
      "taf": "TAF LFSB 160500Z 1606/1706 18005KT CAVOK"
    },
    {
      "icao": "LGAV",
      "alert": "OK",
      "vis_m": 9999,
      "fzfg": false,
      "metar_trigger": false,
      "taf_trigger": false,
      "metar": "METAR LGAV 160620Z 29002KT 9999 FEW025 06/04 Q1023 NOSIG",
      "taf": "TAF LGAV 160500Z 1606/1706 VRB03KT 9999 FEW030"
    },
    {
      "icao": "LGTS",
      "alert": "OK",
      "vis_m": 9999,
      "fzfg": false,
      "metar_trigger": false,
      "taf_trigger": false,
      "metar": "METAR LGTS 160650Z 11003KT CAVOK 03/02 Q1024 NOSIG",
      "taf": "TAF LGTS 160500Z 1606/1706 VRB03KT 9999 FEW030"
    },
    {
      "icao": "LHBP",
      "alert": "OK",
      "vis_m": 1500,
      "fzfg": false,
      "metar_trigger": false,
      "taf_trigger": false,
      "metar": "METAR LHBP 160630Z 09006KT 1500 BR OVC002 01/00 Q1023 TEMPO 1200 BR",
      "taf": "TAF LHBP 160515Z 1606/1706 08005KT 3000 BR OVC004"
    },
    {
      "icao": "LHDC",
      "alert": "OK",
      "vis_m": 1900,
      "fzfg": false,
      "metar_trigger": false,
      "taf_trigger": false,
      "metar": "METAR LHDC 160615Z AUTO 05004KT 1900 -DZ BR OVC008 01/01 Q1023 NOSIG",
      "taf": "TAF LHDC 160515Z 1606/1615 06005KT 5000 BR SCT010 OVC015"
    },
    {
      "icao": "LIBD",
      "alert": "OK",
      "vis_m": 9999,
      "fzfg": false,
      "metar_trigger": false,
      "taf_trigger": false,
      "metar": "METAR LIBD 160650Z 21004KT CAVOK 03/03 Q1022",
      "taf": "TAF LIBD 160500Z 1606/1706 VRB05KT 9999 FEW030"
    },
    {
      "icao": "LIBG",
      "alert": "OK",
      "vis_m": null,
      "fzfg": false,
      "metar_trigger": false,
      "taf_trigger": false,
      "metar": "",
      "taf": ""
    },
    {
      "icao": "LIBP",
      "alert": "OK",
      "vis_m": 9999,
      "fzfg": false,
      "metar_trigger": false,
      "taf_trigger": false,
      "metar": "METAR LIBP 160650Z AUTO 22003KT 9999 NCD 02/02 Q1022",
      "taf": "TAF LIBP 160500Z 1606/1706 VRB05KT CAVOK"
    },
    {
      "icao": "LIBR",
      "alert": "OK",
      "vis_m": 8000,
      "fzfg": false,
      "metar_trigger": false,
      "taf_trigger": false,
      "metar": "METAR LIBR 160650Z VRB02KT 8000 FEW025 08/07 Q1021",
      "taf": "TAF LIBR 160500Z 1606/1706 VRB05KT 9999 FEW025"
    },
    {
      "icao": "LICA",
      "alert": "OK",
      "vis_m": 9999,
      "fzfg": false,
      "metar_trigger": false,
      "taf_trigger": false,
      "metar": "METAR LICA 160650Z AUTO 07010KT 9999 NCD 10/08 Q1020",
      "taf": "TAF LICA 160500Z 1606/1706 08012KT CAVOK"
    },
    {
      "icao": "LICC",
      "alert": "OK",
      "vis_m": 9999,
      "fzfg": false,
      "metar_trigger": false,
      "taf_trigger": false,
      "metar": "METAR LICC 160650Z 24004KT 9999 BKN015 07/05 Q1020",
      "taf": "TAF LICC 160500Z 1606/1706 VRB05KT 9999 SCT020"
    },
    {
      "icao": "LICJ",
      "alert": "OK",
      "vis_m": 9999,
      "fzfg": false,
      "metar_trigger": false,
      "taf_trigger": false,
      "metar": "METAR LICJ 160650Z 19004KT CAVOK 12/09 Q1018",
      "taf": "TAF LICJ 160500Z 1606/1706 VRB06KT CAVOK"
    },
    {
      "icao": "LIMC",
      "alert": "OK",
      "vis_m": 900,
      "fzfg": false,
      "metar_trigger": false,
      "taf_trigger": false,
      "metar": "METAR LIMC 160650Z VRB02KT 0900 R35R/1800N R17L/P2000N R35L/P2000N FG OVC002 06/06 Q1021 NOSIG",
      "taf": "TAF LIMC 160500Z 1606/1712 VRB05KT 2000 -RA BR BKN003 BKN040"
    },
    {
      "icao": "LIME",
      "alert": "OK",
      "vis_m": 4000,
      "fzfg": false,
      "metar_trigger": false,
      "taf_trigger": false,
      "metar": "METAR LIME 160650Z VRB02KT 4000 -RA BR SCT035 BKN055 05/05 Q1021 NOSIG",
      "taf": "TAF LIME 160500Z 1606/1706 VRB03KT 2000 BR BKN020"
    },
    {
      "icao": "LIMF",
      "alert": "OK",
      "vis_m": 5000,
      "fzfg": false,
      "metar_trigger": false,
      "taf_trigger": false,
      "metar": "METAR LIMF 160650Z VRB01KT 5000 BR SCT015 BKN060 04/02 Q1021",
      "taf": "TAF LIMF 160500Z 1606/1706 VRB03KT 6000 SCT020 BKN060"
    },
    {
      "icao": "LIMJ",
      "alert": "OK",
      "vis_m": 9999,
      "fzfg": false,
      "metar_trigger": false,
      "taf_trigger": false,
      "metar": "METAR LIMJ 160650Z 04016KT 9999 FEW023 BKN035 09/06 Q1019",
      "taf": "TAF LIMJ 160500Z 1606/1706 04012KT 9999 SCT020 BKN030"
    },
    {
      "icao": "LIPE",
      "alert": "OK",
      "vis_m": 1000,
      "fzfg": false,
      "metar_trigger": false,
      "taf_trigger": false,
      "metar": "METAR LIPE 160650Z 29003KT 1000 R12/P2000N R30/P2000N BR FEW005 OVC010 06/06 Q1022",
      "taf": "TAF LIPE 160500Z 1606/1706 VRB04KT 2000 BR BKN020"
    },
    {
      "icao": "LIPH",
      "alert": "OK",
      "vis_m": 6000,
      "fzfg": false,
      "metar_trigger": false,
      "taf_trigger": false,
      "metar": "METAR LIPH 160650Z 33004KT 6000 FEW010 03/02 Q1021",
      "taf": "TAF LIPH 160500Z 1606/1706 VRB04KT 7000 SCT040"
    },
    {
      "icao": "LIPQ",
      "alert": "OK",
      "vis_m": 1800,
      "fzfg": false,
      "metar_trigger": false,
      "taf_trigger": false,
      "metar": "METAR LIPQ 160650Z AUTO 36003KT 330V030 1800 BR BKN003/// BKN027/// OVC032/// 08/08 Q1021",
      "taf": "TAF LIPQ 160500Z 1606/1706 VRB04KT 3000 BR BKN020"
    },
    {
      "icao": "LIPR",
      "alert": "OK",
      "vis_m": 800,
      "fzfg": false,
      "metar_trigger": false,
      "taf_trigger": false,
      "metar": "METAR LIPR 160650Z VRB01KT 0800 R30/1500D FG VV002 06/06 Q1022",
      "taf": "TAF LIPR 160500Z 1606/1706 VRB04KT 2000 BR BKN020"
    },
    {
      "icao": "LIPX",
      "alert": "OK",
      "vis_m": 5000,
      "fzfg": false,
      "metar_trigger": false,
      "taf_trigger": false,
      "metar": "METAR LIPX 160650Z VRB02KT 5000 -RA BR FEW050 BKN060 04/04 Q1022",
      "taf": "TAF LIPX 160500Z 1606/1706 VRB04KT 4000 BR SCT020 BKN060"
    },
    {
      "icao": "LIPY",
      "alert": "OK",
      "vis_m": 100,
      "fzfg": false,
      "metar_trigger": false,
      "taf_trigger": false,
      "metar": "METAR LIPY 160650Z AUTO 21003KT 180V240 0100 R22/0450N -RA FG VV002 06/06 Q1022",
      "taf": "TAF LIPY 160500Z 1606/1706 VRB05KT 6000 SCT060"
    },
    {
      "icao": "LIPZ",
      "alert": "OK",
      "vis_m": 6000,
      "fzfg": false,
      "metar_trigger": false,
      "taf_trigger": false,
      "metar": "METAR LIPZ 160650Z 03003KT 6000 FEW025 SCT070 06/04 Q1021 NOSIG",
      "taf": "TAF LIPZ 160500Z 1606/1712 VRB04KT 6000 SCT030"
    },
    {
      "icao": "LIRF",
      "alert": "OK",
      "vis_m": 9999,
      "fzfg": false,
      "metar_trigger": false,
      "taf_trigger": false,
      "metar": "METAR LIRF 160650Z 08004KT CAVOK 06/05 Q1020 NOSIG",
      "taf": "TAF LIRF 160500Z 1606/1712 06007KT CAVOK"
    },
    {
      "icao": "LIRN",
      "alert": "OK",
      "vis_m": 8000,
      "fzfg": false,
      "metar_trigger": false,
      "taf_trigger": false,
      "metar": "METAR LIRN 160650Z 35003KT 8000 NSC 06/04 Q1020 NOSIG",
      "taf": "TAF LIRN 160500Z 1606/1706 VRB05KT CAVOK"
    },
    {
      "icao": "LIRP",
      "alert": "OK",
      "vis_m": 9999,
      "fzfg": false,
      "metar_trigger": false,
      "taf_trigger": false,
      "metar": "METAR LIRP 160645Z 10006KT 9999 FEW040 BKN070 10/10 Q1020 NOSIG",
      "taf": "TAF LIRP 160500Z 1606/1706 15003KT 9999 SCT020 BKN070"
    },
    {
      "icao": "LIRZ",
      "alert": "OK",
      "vis_m": 9999,
      "fzfg": false,
      "metar_trigger": false,
      "taf_trigger": false,
      "metar": "METAR LIRZ 160650Z AUTO 01005KT 9999 NCD 03/03 Q1021",
      "taf": "TAF LIRZ 160500Z 1606/1706 VRB04KT 4000 BR FEW040"
    },
    {
      "icao": "LJLJ",
      "alert": "OK",
      "vis_m": 9999,
      "fzfg": false,
      "metar_trigger": false,
      "taf_trigger": false,
      "metar": "METAR LJLJ 160630Z VRB01KT 9999 FEW040 BKN050 01/01 Q1020 NOSIG",
      "taf": "TAF LJLJ 160500Z 1606/1706 30004KT 9999 FEW003 SCT033 BKN050"
    },
    {
      "icao": "LKMT",
      "alert": "OK",
      "vis_m": 2000,
      "fzfg": false,
      "metar_trigger": false,
      "taf_trigger": false,
      "metar": "METAR LKMT 160630Z 17004KT 2000 BR OVC007 01/01 Q1021 TEMPO 1400 BR BKN004",
      "taf": "TAF LKMT 160500Z 1606/1706 22008KT 5000 BR SCT008 BKN030"
    },
    {
      "icao": "LKPR",
      "alert": "OK",
      "vis_m": 300,
      "fzfg": true,
      "metar_trigger": false,
      "taf_trigger": false,
      "metar": "METAR LKPR 160630Z VRB02KT 0300 R24/0500N R30/0450N FZFG VV001 M01/M01 Q1019 NOSIG",
      "taf": "TAF LKPR 160500Z 1606/1712 VRB02KT 0400 FZFG VV002"
    },
    {
      "icao": "LLBG",
      "alert": "OK",
      "vis_m": 9999,
      "fzfg": false,
      "metar_trigger": false,
      "taf_trigger": false,
      "metar": "METAR LLBG 160650Z VRB02KT CAVOK 12/07 Q1023 NOSIG RMK FEW055",
      "taf": "TAF LLBG 160503Z 1606/1706 VRB03KT 9999 FEW045"
    },
    {
      "icao": "LMML",
      "alert": "OK",
      "vis_m": 9999,
      "fzfg": false,
      "metar_trigger": false,
      "taf_trigger": false,
      "metar": "METAR LMML 160645Z 13013KT CAVOK 16/14 Q1018 NOSIG",
      "taf": "TAF LMML 160500Z 1606/1706 13012KT 9999 FEW020"
    },
    {
      "icao": "LOWW",
      "alert": "OK",
      "vis_m": 600,
      "fzfg": true,
      "metar_trigger": false,
      "taf_trigger": false,
      "metar": "METAR LOWW 160650Z 14007KT 0600 R11/0800N R16/0750N FZFG VV002 M01/M01 Q1022 TEMPO 0500 FZFG VV001",
      "taf": ""
    },
    {
      "icao": "LPFR",
      "alert": "OK",
      "vis_m": 9999,
      "fzfg": false,
      "metar_trigger": false,
      "taf_trigger": false,
      "metar": "METAR LPFR 160630Z 28007KT 9999 FEW014 SCT045 12/10 Q1016",
      "taf": "TAF LPFR 160500Z 1606/1706 30010KT 9999 FEW015"
    },
    {
      "icao": "LPMA",
      "alert": "OK",
      "vis_m": 9999,
      "fzfg": false,
      "metar_trigger": false,
      "taf_trigger": false,
      "metar": "METAR LPMA 160630Z 35017KT 9999 BKN014 16/10 Q1023",
      "taf": "TAF LPMA 160500Z 1606/1706 36015KT 9999 SCT015 SCT030"
    },
    {
      "icao": "LPPR",
      "alert": "OK",
      "vis_m": 9999,
      "fzfg": false,
      "metar_trigger": false,
      "taf_trigger": false,
      "metar": "METAR LPPR 160630Z 15008KT 9999 FEW030 BKN043 09/08 Q1012",
      "taf": "TAF LPPR 160500Z 1606/1706 20010KT 9999 SCT012 SCT025"
    },
    {
      "icao": "LPPS",
      "alert": "OK",
      "vis_m": 9999,
      "fzfg": false,
      "metar_trigger": false,
      "taf_trigger": false,
      "metar": "METAR LPPS 160630Z 34018KT 9999 SCT014 15/09 Q1024",
      "taf": "TAF LPPS 160500Z 1606/1712 34017KT 9999 SCT015 SCT030"
    },
    {
      "icao": "LPPT",
      "alert": "OK",
      "vis_m": 9999,
      "fzfg": false,
      "metar_trigger": false,
      "taf_trigger": false,
      "metar": "METAR LPPT 160630Z 23006KT 9999 FEW018 FEW020TCU 08/08 Q1015",
      "taf": "TAF LPPT 160500Z 1606/1712 24007KT 9999 FEW015 SCT035"
    },
    {
      "icao": "LQBK",
      "alert": "OK",
      "vis_m": 9999,
      "fzfg": false,
      "metar_trigger": false,
      "taf_trigger": false,
      "metar": "METAR LQBK 160630Z VRB03KT CAVOK 02/02 Q1021 NOSIG",
      "taf": "TAF LQBK 160500Z 1606/1706 15005KT 9999 SCT047 TX11/1613Z TN00/1705Z"
    },
    {
      "icao": "LQSA",
      "alert": "OK",
      "vis_m": 600,
      "fzfg": true,
      "metar_trigger": false,
      "taf_trigger": false,
      "metar": "METAR LQSA 160630Z 00000KT 0600 R11/0300U FZFG BKN003 M01/M01 Q1023 NOSIG",
      "taf": "TAF LQSA 160500Z 1606/1706 VRB02KT 1200 BR BKN004 TX06/1614Z TNM01/1606Z"
    },
    {
      "icao": "LQTZ",
      "alert": "OK",
      "vis_m": 3000,
      "fzfg": false,
      "metar_trigger": false,
      "taf_trigger": false,
      "metar": "METAR LQTZ 160630Z VRB02KT 3000 BR NSC 01/01 Q1022",
      "taf": "TAF LQTZ 160500Z 1606/1706 VRB02KT 6000 SCT050 TX10/1613Z TNM02/1705Z"
    },
    {
      "icao": "LRBC",
      "alert": "OK",
      "vis_m": 7000,
      "fzfg": false,
      "metar_trigger": false,
      "taf_trigger": false,
      "metar": "METAR LRBC 160630Z AUTO 34008KT 7000 BKN012/// OVC033/// M07/M09 Q1031",
      "taf": "TAF LRBC 160500Z 1606/1615 35008KT 5000 -SN BR BKN010 OVC020"
    },
    {
      "icao": "LRBS",
      "alert": "OK",
      "vis_m": 3000,
      "fzfg": false,
      "metar_trigger": false,
      "taf_trigger": false,
      "metar": "METAR LRBS 160630Z 06014KT 3000 -SN BR SCT007 OVC030 M04/M05 Q1029 NOSIG",
      "taf": "TAF LRBS 160500Z 1606/1706 06015KT 3000 -SN BR BKN010 OVC035"
    },
    {
      "icao": "LRBV",
      "alert": "OK",
      "vis_m": 8000,
      "fzfg": false,
      "metar_trigger": false,
      "taf_trigger": false,
      "metar": "METAR LRBV 160630Z 09006KT 8000 FEW009 BKN011 OVC015 01/00 Q1024",
      "taf": "TAF LRBV 160500Z 1606/1615 VRB04KT 3000 BR BKN005 BKN025"
    },
    {
      "icao": "LRCL",
      "alert": "OK",
      "vis_m": 3000,
      "fzfg": false,
      "metar_trigger": false,
      "taf_trigger": false,
      "metar": "METAR LRCL 160630Z 05006KT 3000 -FZRA BR OVC003 00/M00 Q1025",
      "taf": "TAF LRCL 160500Z 1606/1615 VRB04KT 3000 -FZRA BR OVC005"
    },
    {
      "icao": "LRCV",
      "alert": "OK",
      "vis_m": 4000,
      "fzfg": false,
      "metar_trigger": false,
      "taf_trigger": false,
      "metar": "METAR LRCV 160630Z 10012KT 4000 BR SCT008 OVC020 M01/M02 Q1026",
      "taf": "TAF LRCV 160500Z 1606/1615 09010KT 5000 BR BKN010"
    },
    {
      "icao": "LRIA",
      "alert": "OK",
      "vis_m": 9999,
      "fzfg": false,
      "metar_trigger": false,
      "taf_trigger": false,
      "metar": "METAR LRIA 160630Z 29005KT CAVOK M16/M17 Q1033",
      "taf": "TAF LRIA 160500Z 1606/1615 33004KT CAVOK"
    },
    {
      "icao": "LROP",
      "alert": "OK",
      "vis_m": 2000,
      "fzfg": false,
      "metar_trigger": false,
      "taf_trigger": false,
      "metar": "METAR LROP 160630Z 07011KT 2000 -SN BR BKN008 OVC027 M04/M06 Q1029 NOSIG",
      "taf": "TAF LROP 160500Z 1606/1706 07015KT 3000 -SN BR BKN010 OVC035"
    },
    {
      "icao": "LRSB",
      "alert": "OK",
      "vis_m": 1500,
      "fzfg": false,
      "metar_trigger": false,
      "taf_trigger": false,
      "metar": "METAR LRSB 160630Z 00000KT 1500 -RA BR BKN003 OVC006 01/01 Q1023 NOSIG",
      "taf": "TAF LRSB 160500Z 1606/1706 VRB04KT 1500 -DZ BR OVC002"
    },
    {
      "icao": "LRSM",
      "alert": "OK",
      "vis_m": 9999,
      "fzfg": false,
      "metar_trigger": false,
      "taf_trigger": false,
      "metar": "METAR LRSM 160630Z 10007KT 9999 OVC040 01/M00 Q1024",
      "taf": "TAF LRSM 160500Z 1606/1615 11008KT 9999 BKN040"
    },
    {
      "icao": "LRSV",
      "alert": "OK",
      "vis_m": 4000,
      "fzfg": false,
      "metar_trigger": false,
      "taf_trigger": false,
      "metar": "METAR LRSV 160630Z 07004KT 030V090 4000 BR SCT035 M11/M12 Q1029",
      "taf": "TAF LRSV 160500Z 1606/1615 07007KT 3000 BR OVC020"
    },
    {
      "icao": "LRTM",
      "alert": "OK",
      "vis_m": 4500,
      "fzfg": false,
      "metar_trigger": false,
      "taf_trigger": false,
      "metar": "METAR LRTM 160630Z 04007KT 4500 BR FEW002 BKN004 M00/M01 Q1025",
      "taf": "TAF LRTM 160500Z 1606/1615 VRB04KT 5000 BR BKN005 BKN030"
    },
    {
      "icao": "LRTR",
      "alert": "OK",
      "vis_m": 1800,
      "fzfg": false,
      "metar_trigger": false,
      "taf_trigger": false,
      "metar": "METAR LRTR 160630Z 10006KT 1800 -RA BR BKN024 OVC040 02/02 Q1023",
      "taf": "TAF LRTR 160500Z 1606/1706 11008KT 5000 -RA BR BKN040"
    },
    {
      "icao": "LTAC",
      "alert": "OK",
      "vis_m": 7000,
      "fzfg": false,
      "metar_trigger": false,
      "taf_trigger": false,
      "metar": "METAR LTAC 160650Z 20006KT 7000 SCT010 BKN025 BKN080 03/01 Q1021 NOSIG",
      "taf": ""
    },
    {
      "icao": "LTFM",
      "alert": "OK",
      "vis_m": 9999,
      "fzfg": false,
      "metar_trigger": false,
      "taf_trigger": false,
      "metar": "METAR LTFM 160650Z 03007KT 9999 SCT008 BKN024 09/07 Q1024 NOSIG",
      "taf": "TAF LTFM 160440Z 1606/1712 VRB02KT 9999 FEW008 SCT025 BKN070"
    },
    {
      "icao": "LUKK",
      "alert": "OK",
      "vis_m": 8000,
      "fzfg": false,
      "metar_trigger": false,
      "taf_trigger": false,
      "metar": "METAR LUKK 160630Z 32004KT 8000 -SN SCT007 M14/M15 Q1032 TEMPO 2000 SN BKN003",
      "taf": "TAF LUKK 160518Z 1606/1706 01012KT 9999 BKN015"
    },
    {
      "icao": "LWOH",
      "alert": "OK",
      "vis_m": 9999,
      "fzfg": false,
      "metar_trigger": false,
      "taf_trigger": false,
      "metar": "METAR LWOH 160650Z 31003KT 270V330 9999 BKN050 01/00 Q1023",
      "taf": "TAF LWOH 160535Z 1606/1706 VRB02KT 9999 FEW040"
    },
    {
      "icao": "LWSK",
      "alert": "OK",
      "vis_m": 4000,
      "fzfg": false,
      "metar_trigger": false,
      "taf_trigger": false,
      "metar": "METAR LWSK 160650Z VRB01KT 4000 BR SCT055 M02/M03 Q1025 NOSIG",
      "taf": "TAF LWSK 160535Z 1606/1706 VRB02KT 3000 BR FEW050"
    },
    {
      "icao": "LYBE",
      "alert": "OK",
      "vis_m": 4500,
      "fzfg": false,
      "metar_trigger": false,
      "taf_trigger": false,
      "metar": "METAR LYBE 160630Z 13004KT 4500 BR NSC 03/01 Q1022 NOSIG",
      "taf": "TAF LYBE 160500Z 1606/1706 06004KT 9999 SCT045 TX06/1613Z TNM00/1706Z"
    },
    {
      "icao": "LYNI",
      "alert": "OK",
      "vis_m": 7000,
      "fzfg": false,
      "metar_trigger": false,
      "taf_trigger": false,
      "metar": "METAR LYNI 160630Z 12004KT 7000 BKN078 04/04 Q1023 TEMPO 4000 BR",
      "taf": "TAF LYNI 160500Z 1606/1706 20004KT 9999 SCT050 BKN080 TX07/1612Z TNM01/1706Z"
    },
    {
      "icao": "LYPG",
      "alert": "OK",
      "vis_m": 600,
      "fzfg": false,
      "metar_trigger": false,
      "taf_trigger": false,
      "metar": "METAR LYPG 160630Z VRB01KT 0600 R18/0700U R36/0400D FG FEW034 SCT080 06/05 Q1023 BECMG 0800",
      "taf": ""
    },
    {
      "icao": "LZIB",
      "alert": "OK",
      "vis_m": 2600,
      "fzfg": false,
      "metar_trigger": false,
      "taf_trigger": false,
      "metar": "METAR LZIB 160630Z 06005KT 2600 BR BKN008 OVC009 00/M00 Q1022 TEMPO 2000 BR",
      "taf": ""
    },
    {
      "icao": "LZKZ",
      "alert": "OK",
      "vis_m": 7000,
      "fzfg": false,
      "metar_trigger": false,
      "taf_trigger": false,
      "metar": "METAR LZKZ 160630Z 36007KT 7000 BKN015 01/M01 Q1024 NOSIG",
      "taf": "TAF LZKZ 160515Z 1606/1706 VRB02KT 8000 BKN017"
    },
    {
      "icao": "LZTT",
      "alert": "OK",
      "vis_m": 3000,
      "fzfg": false,
      "metar_trigger": false,
      "taf_trigger": false,
      "metar": "METAR LZTT 160630Z 00000KT 3000 BR OVC006 M00/M01 Q1021 NOSIG",
      "taf": "TAF LZTT 160515Z 1606/1706 VRB02KT 4000 OVC006"
    },
    {
      "icao": "OEJN",
      "alert": "OK",
      "vis_m": 7000,
      "fzfg": false,
      "metar_trigger": false,
      "taf_trigger": false,
      "metar": "METAR OEJN 160600Z 03004KT 7000 FEW040 24/01 Q1015 NOSIG",
      "taf": "TAF OEJN 160500Z 1606/1712 08014KT 6000 NSC"
    },
    {
      "icao": "OEMA",
      "alert": "OK",
      "vis_m": 9999,
      "fzfg": false,
      "metar_trigger": false,
      "taf_trigger": false,
      "metar": "METAR OEMA 160600Z 02009KT CAVOK 12/00 Q1025 NOSIG",
      "taf": "TAF OEMA 160500Z 1606/1712 09015KT 6000 NSC"
    },
    {
      "icao": "OJAI",
      "alert": "OK",
      "vis_m": 400,
      "fzfg": false,
      "metar_trigger": false,
      "taf_trigger": false,
      "metar": "METAR OJAI 160600Z 22002KT 0400 FG VV/// 02/01 Q1024 NOSIG",
      "taf": "TAF OJAI 160435Z 1606/1712 VRB02KT 0300 FG NSC"
    },
    {
      "icao": "OMAA",
      "alert": "OK",
      "vis_m": 9999,
      "fzfg": false,
      "metar_trigger": false,
      "taf_trigger": false,
      "metar": "METAR OMAA 160600Z 31016KT 9999 FEW035 21/11 Q1020 NOSIG",
      "taf": "TAF OMAA 160500Z 1606/1712 32013KT 8000 FEW030"
    },
    {
      "icao": "OMDB",
      "alert": "OK",
      "vis_m": 9999,
      "fzfg": false,
      "metar_trigger": false,
      "taf_trigger": false,
      "metar": "METAR OMDB 160630Z 28015KT 240V330 9999 BKN040 22/10 Q1020 TEMPO 29020G30KT",
      "taf": "TAF OMDB 160500Z 1606/1712 29014KT 8000 FEW030"
    },
    {
      "icao": "UAAA",
      "alert": "OK",
      "vis_m": 3100,
      "fzfg": false,
      "metar_trigger": false,
      "taf_trigger": false,
      "metar": "METAR UAAA 160630Z 28004MPS 3100 -SN BR OVC026 M10/M11 Q1018 NOSIG",
      "taf": "TAF UAAA 160504Z 1606/1706 33003G08MPS 3100 -SHSN BR BKN011CB OVC030 TXM07/1608Z TNM18/1703Z"
    },
    {
      "icao": "UBBB",
      "alert": "OK",
      "vis_m": 9999,
      "fzfg": false,
      "metar_trigger": false,
      "taf_trigger": false,
      "metar": "METAR UBBB 160630Z 23008KT CAVOK 05/M00 Q1022 NOSIG",
      "taf": "TAF UBBB 160502Z 1606/1706 19012KT 9999 FEW025 TX07/1610Z TN01/1702Z"
    },
    {
      "icao": "UDSG",
      "alert": "OK",
      "vis_m": 9999,
      "fzfg": false,
      "metar_trigger": false,
      "taf_trigger": false,
      "metar": "METAR UDSG 160630Z 17002KT 9999 FEW049 M16/M20 Q1021 NOSIG",
      "taf": "TAF UDSG 160500Z 1606/1706 VRB06KT 9999 SCT040"
    },
    {
      "icao": "UDYZ",
      "alert": "OK",
      "vis_m": 9999,
      "fzfg": false,
      "metar_trigger": false,
      "taf_trigger": false,
      "metar": "METAR UDYZ 160630Z 14001KT 9999 NSC M05/M09 Q1024 NOSIG",
      "taf": "TAF UDYZ 160500Z 1606/1706 VRB06KT 9999 FEW040"
    },
    {
      "icao": "UGKO",
      "alert": "OK",
      "vis_m": 2000,
      "fzfg": false,
      "metar_trigger": false,
      "taf_trigger": false,
      "metar": "METAR UGKO 160630Z 07009KT 2000 SNRA BR BKN013 OVC035 M00/M01 Q1022 NOSIG",
      "taf": "TAF UGKO 160500Z 1606/1706 10007KT 8000 BKN020 OVC040 TX03/1612Z TN00/1606Z"
    }
  ]
}