{
  "ts_utc": "2026-03-29T21:18:16Z",
  "threshold_m": 150,
  "source": "stations_override.txt (ICAO list) + aviationweather.gov (METAR/TAF raw)",
  "station_count": 159,
  "stations": [
    {
      "icao": "BIKF",
      "alert": "OK",
      "vis_m": 9999,
      "fzfg": false,
      "metar_trigger": false,
      "taf_trigger": false,
      "metar": "METAR BIKF 292100Z 26013KT 9999 VCSH FEW014CB BKN025 04/02 Q0988",
      "taf": "TAF BIKF 291958Z 2921/3021 33007KT 9999 -SHRA FEW015 BKN030 TX04/3013Z TN00/3005Z"
    },
    {
      "icao": "BKPR",
      "alert": "OK",
      "vis_m": 9999,
      "fzfg": false,
      "metar_trigger": false,
      "taf_trigger": false,
      "metar": "METAR BKPR 292100Z 33009KT 9999 BKN040 06/01 Q1014 NOSIG",
      "taf": "TAF BKPR 291730Z 2918/3018 33008KT 9999 FEW020 BKN040"
    },
    {
      "icao": "EBCI",
      "alert": "OK",
      "vis_m": 9999,
      "fzfg": false,
      "metar_trigger": false,
      "taf_trigger": false,
      "metar": "METAR EBCI 292050Z 23015KT 9999 -RA BKN028 06/03 Q1023 TEMPO BKN008",
      "taf": "TAF EBCI 291704Z 2918/3024 24012KT 9999 FEW020 BKN040"
    },
    {
      "icao": "EDDB",
      "alert": "OK",
      "vis_m": 9999,
      "fzfg": false,
      "metar_trigger": false,
      "taf_trigger": false,
      "metar": "METAR EDDB 292050Z AUTO 19009KT CAVOK 04/00 Q1021 NOSIG",
      "taf": "TAF EDDB 291700Z 2918/3018 27008KT 9999 SCT040"
    },
    {
      "icao": "EDDH",
      "alert": "OK",
      "vis_m": 9999,
      "fzfg": false,
      "metar_trigger": false,
      "taf_trigger": false,
      "metar": "METAR EDDH 292050Z AUTO 24017G29KT 190V280 9999 -RA FEW016 SCT032 BKN042 07/00 Q1016 NOSIG",
      "taf": "TAF EDDH 291700Z 2918/3024 25011KT 9999 SCT025"
    },
    {
      "icao": "EDDK",
      "alert": "OK",
      "vis_m": 9999,
      "fzfg": false,
      "metar_trigger": false,
      "taf_trigger": false,
      "metar": "METAR EDDK 292050Z AUTO 21010KT 9999 FEW044 08/M00 Q1022 NOSIG",
      "taf": "TAF EDDK 291700Z 2918/3024 27010KT 9999 BKN040"
    },
    {
      "icao": "EDDN",
      "alert": "OK",
      "vis_m": 9999,
      "fzfg": false,
      "metar_trigger": false,
      "taf_trigger": false,
      "metar": "METAR EDDN 292050Z AUTO 20002KT 9999 FEW039 02/M02 Q1025",
      "taf": ""
    },
    {
      "icao": "EDDS",
      "alert": "OK",
      "vis_m": 9999,
      "fzfg": false,
      "metar_trigger": false,
      "taf_trigger": false,
      "metar": "METAR EDDS 292050Z AUTO 20003KT 180V290 CAVOK 03/M02 Q1026",
      "taf": "TAF EDDS 291700Z 2918/3018 30007KT 9999 FEW045"
    },
    {
      "icao": "EDFH",
      "alert": "OK",
      "vis_m": 9999,
      "fzfg": false,
      "metar_trigger": false,
      "taf_trigger": false,
      "metar": "METAR EDFH 292050Z 25011KT CAVOK 05/M02 Q1023",
      "taf": "TAF EDFH 291700Z 2918/3018 24007KT 9999 FEW035"
    },
    {
      "icao": "EDJA",
      "alert": "OK",
      "vis_m": 9999,
      "fzfg": false,
      "metar_trigger": false,
      "taf_trigger": false,
      "metar": "METAR EDJA 292050Z 21004KT 9999 NSC 00/M01 Q1025",
      "taf": "TAF EDJA 291700Z 2918/3003 19004KT 9999 BKN045"
    },
    {
      "icao": "EDLW",
      "alert": "OK",
      "vis_m": 9999,
      "fzfg": false,
      "metar_trigger": false,
      "taf_trigger": false,
      "metar": "METAR EDLW 292050Z 22018KT 9999 OVC041 07/M00 Q1020",
      "taf": "TAF EDLW 291700Z 2918/3018 22013KT 9999 BKN040"
    },
    {
      "icao": "EDNY",
      "alert": "OK",
      "vis_m": 9999,
      "fzfg": false,
      "metar_trigger": false,
      "taf_trigger": false,
      "metar": "METAR EDNY 292050Z AUTO 00000KT 9999 // BKN230/// 02/00 Q1026",
      "taf": "TAF EDNY 291700Z 2918/3003 VRB03KT 9999 SCT050"
    },
    {
      "icao": "EDSB",
      "alert": "OK",
      "vis_m": 9999,
      "fzfg": false,
      "metar_trigger": false,
      "taf_trigger": false,
      "metar": "METAR EDSB 292050Z 20007KT CAVOK 04/01 Q1027",
      "taf": "TAF EDSB 291700Z 2918/3018 20004KT 9999 FEW045"
    },
    {
      "icao": "EETN",
      "alert": "OK",
      "vis_m": 9999,
      "fzfg": false,
      "metar_trigger": false,
      "taf_trigger": false,
      "metar": "METAR EETN 292050Z 21006KT 9999 FEW023 02/00 Q1015 TEMPO BKN004",
      "taf": "TAF EETN 291730Z 2918/3018 21007KT 9999 BKN030"
    },
    {
      "icao": "EFTU",
      "alert": "OK",
      "vis_m": 9999,
      "fzfg": false,
      "metar_trigger": false,
      "taf_trigger": false,
      "metar": "METAR EFTU 292050Z AUTO 20008KT 180V240 9999 BKN007 02/01 Q1012",
      "taf": "TAF EFTU 292037Z 2921/3021 19009KT 9999 BKN007"
    },
    {
      "icao": "EGBB",
      "alert": "OK",
      "vis_m": 9999,
      "fzfg": false,
      "metar_trigger": false,
      "taf_trigger": false,
      "metar": "METAR EGBB 292050Z 27011KT 250V310 CAVOK 10/05 Q1018",
      "taf": "TAF EGBB 291655Z 2918/3018 26013KT 9999 SCT020"
    },
    {
      "icao": "EGGP",
      "alert": "OK",
      "vis_m": 9999,
      "fzfg": false,
      "metar_trigger": false,
      "taf_trigger": false,
      "metar": "METAR EGGP 292050Z 30023G34KT CAVOK 10/01 Q1019",
      "taf": "TAF EGGP 291658Z 2918/3018 27022G35KT 9999 SCT025"
    },
    {
      "icao": "EGGW",
      "alert": "OK",
      "vis_m": 9999,
      "fzfg": false,
      "metar_trigger": false,
      "taf_trigger": false,
      "metar": "METAR EGGW 292050Z AUTO 26017KT 220V280 9999 SCT014 09/07 Q1019",
      "taf": "TAF EGGW 291654Z 2918/3018 24015G28KT 9999 BKN024"
    },
    {
      "icao": "EGKK",
      "alert": "OK",
      "vis_m": 9999,
      "fzfg": false,
      "metar_trigger": false,
      "taf_trigger": false,
      "metar": "METAR EGKK 292050Z 25012KT 9999 -RA BKN008 BKN020 09/08 Q1022",
      "taf": ""
    },
    {
      "icao": "EGNM",
      "alert": "OK",
      "vis_m": 9999,
      "fzfg": false,
      "metar_trigger": false,
      "taf_trigger": false,
      "metar": "METAR EGNM 292050Z 28024G36KT 9999 -SHRA SCT018 05/03 Q1015",
      "taf": ""
    },
    {
      "icao": "EGPD",
      "alert": "OK",
      "vis_m": 9999,
      "fzfg": false,
      "metar_trigger": false,
      "taf_trigger": false,
      "metar": "METAR EGPD 292050Z COR AUTO 28015KT 9999 NCD 04/M00 Q1007 NOSIG",
      "taf": "TAF EGPD 291701Z 2918/3018 28018G32KT 9999 SCT040"
    },
    {
      "icao": "EGPF",
      "alert": "OK",
      "vis_m": 9999,
      "fzfg": false,
      "metar_trigger": false,
      "taf_trigger": false,
      "metar": "METAR EGPF 292050Z AUTO 28007KT 9999 SCT036/// BKN044/// //////TCU 05/01 Q1014",
      "taf": "TAF EGPF 291700Z 2918/3018 26015KT 9999 SCT030"
    },
    {
      "icao": "EHBK",
      "alert": "OK",
      "vis_m": 9999,
      "fzfg": false,
      "metar_trigger": false,
      "taf_trigger": false,
      "metar": "METAR EHBK 292055Z COR AUTO 22020KT 190V260 9999 -DZ BKN031/// OVC035/// 07/02 Q1021",
      "taf": "TAF EHBK 291720Z 2918/3024 24010KT 9999 SCT040"
    },
    {
      "icao": "EHEH",
      "alert": "OK",
      "vis_m": 6000,
      "fzfg": false,
      "metar_trigger": false,
      "taf_trigger": false,
      "metar": "METAR EHEH 292055Z AUTO 22015KT 190V250 6000 DZ BKN017 OVC020 06/04 Q1019 WHT NOSIG RMK TREND REMOTE BY EHWX",
      "taf": ""
    },
    {
      "icao": "EKBI",
      "alert": "OK",
      "vis_m": 5000,
      "fzfg": false,
      "metar_trigger": false,
      "taf_trigger": false,
      "metar": "METAR EKBI 292050Z AUTO 19018G29KT 5000 -RA OVC007/// 03/02 Q1008",
      "taf": "TAF EKBI 292027Z 2921/3021 20015G32KT 9999 RA BKN008"
    },
    {
      "icao": "EKCH",
      "alert": "OK",
      "vis_m": 9999,
      "fzfg": false,
      "metar_trigger": false,
      "taf_trigger": false,
      "metar": "METAR EKCH 292050Z AUTO 18011KT 9999 OVC045/// 05/02 Q1014 NOSIG",
      "taf": "TAF EKCH 292027Z 2921/3021 20010KT 9999 FEW035"
    },
    {
      "icao": "ENAL",
      "alert": "OK",
      "vis_m": 9999,
      "fzfg": false,
      "metar_trigger": false,
      "taf_trigger": false,
      "metar": "METAR ENAL 292050Z 20012KT 9999 BKN041 06/M00 Q0992",
      "taf": "TAF ENAL 291400Z 2915/2922 19012KT 9999 SCT040"
    },
    {
      "icao": "ENBR",
      "alert": "OK",
      "vis_m": 9999,
      "fzfg": false,
      "metar_trigger": false,
      "taf_trigger": false,
      "metar": "METAR ENBR 292050Z 14007KT 9999 FEW008CB SCT018 BKN023 03/02 Q0997 RMK WIND 1200FT 25015KT",
      "taf": ""
    },
    {
      "icao": "ENGM",
      "alert": "OK",
      "vis_m": 9999,
      "fzfg": false,
      "metar_trigger": false,
      "taf_trigger": false,
      "metar": "METAR ENGM 292050Z 17014KT 9999 -RASN BKN008 01/M00 Q1002 NOSIG",
      "taf": "TAF ENGM 291700Z 2918/3018 20012KT 9999 BKN030"
    },
    {
      "icao": "ENHD",
      "alert": "OK",
      "vis_m": 9999,
      "fzfg": false,
      "metar_trigger": false,
      "taf_trigger": false,
      "metar": "METAR ENHD 292050Z 28009KT 9999 SCT020 06/03 Q0998",
      "taf": "TAF ENHD 291400Z 2915/2922 18022G35KT 4000 RA BR BKN008"
    },
    {
      "icao": "ENTC",
      "alert": "OK",
      "vis_m": 9999,
      "fzfg": false,
      "metar_trigger": false,
      "taf_trigger": false,
      "metar": "METAR ENTC 292050Z 20005KT 9999 FEW024 SCT035 02/M01 Q1000 NOSIG RMK WIND 2600FT 19014KT",
      "taf": "TAF ENTC 291700Z 2918/3018 21015KT 9999 FEW017 BKN030"
    },
    {
      "icao": "ENTO",
      "alert": "OK",
      "vis_m": 9999,
      "fzfg": false,
      "metar_trigger": false,
      "taf_trigger": false,
      "metar": "METAR ENTO 292050Z 18019KT 9999 -RA SCT008 BKN009 OVC010 03/03 Q1002 TEMPO 19019G29KT",
      "taf": "TAF ENTO 291700Z 2918/3018 21012KT 9999 BKN030"
    },
    {
      "icao": "ENVA",
      "alert": "OK",
      "vis_m": 9999,
      "fzfg": false,
      "metar_trigger": false,
      "taf_trigger": false,
      "metar": "METAR ENVA 292050Z 14013KT CAVOK 06/M03 Q0994 RMK WIND 670FT 16022KT",
      "taf": "TAF ENVA 291700Z 2918/3018 14008KT 9999 FEW045"
    },
    {
      "icao": "ENZV",
      "alert": "OK",
      "vis_m": 9999,
      "fzfg": false,
      "metar_trigger": false,
      "taf_trigger": false,
      "metar": "METAR ENZV 292050Z 27010KT 9999 FEW015 SCT026 BKN034 06/04 Q0999",
      "taf": ""
    },
    {
      "icao": "EPGD",
      "alert": "OK",
      "vis_m": 9999,
      "fzfg": false,
      "metar_trigger": false,
      "taf_trigger": false,
      "metar": "METAR EPGD 292100Z 19003KT 160V220 CAVOK 03/00 Q1019",
      "taf": "TAF EPGD 291730Z 2918/3018 28005KT CAVOK"
    },
    {
      "icao": "EPKK",
      "alert": "OK",
      "vis_m": 9999,
      "fzfg": false,
      "metar_trigger": false,
      "taf_trigger": false,
      "metar": "METAR EPKK 292100Z 28010KT 9999 -RA OVC016 06/03 Q1020",
      "taf": "TAF EPKK 292030Z 2921/3021 26009KT 9999 BKN016"
    },
    {
      "icao": "EPKT",
      "alert": "OK",
      "vis_m": 9999,
      "fzfg": false,
      "metar_trigger": false,
      "taf_trigger": false,
      "metar": "METAR EPKT 292100Z 30007KT 9999 BKN015 05/02 Q1021",
      "taf": "TAF EPKT 291730Z 2918/3018 31010KT 9999 BKN014"
    },
    {
      "icao": "EPLB",
      "alert": "OK",
      "vis_m": 9999,
      "fzfg": false,
      "metar_trigger": false,
      "taf_trigger": false,
      "metar": "METAR EPLB 292100Z 30008KT CAVOK 11/04 Q1015",
      "taf": "TAF EPLB 291730Z 2918/3018 32008KT CAVOK"
    },
    {
      "icao": "EPMO",
      "alert": "OK",
      "vis_m": 9999,
      "fzfg": false,
      "metar_trigger": false,
      "taf_trigger": false,
      "metar": "METAR EPMO 292100Z 31008KT CAVOK 05/01 Q1019",
      "taf": "TAF EPMO 291730Z 2918/3018 30010KT CAVOK"
    },
    {
      "icao": "EPPO",
      "alert": "OK",
      "vis_m": 9999,
      "fzfg": false,
      "metar_trigger": false,
      "taf_trigger": false,
      "metar": "METAR EPPO 292100Z 27008KT CAVOK 03/M01 Q1021",
      "taf": "TAF EPPO 291730Z 2918/3018 25005KT CAVOK"
    },
    {
      "icao": "EPRA",
      "alert": "OK",
      "vis_m": 9999,
      "fzfg": false,
      "metar_trigger": false,
      "taf_trigger": false,
      "metar": "METAR EPRA 292100Z 30013KT CAVOK 07/01 Q1018",
      "taf": "TAF EPRA 292030Z 2921/3006 31010KT CAVOK"
    },
    {
      "icao": "EPRZ",
      "alert": "OK",
      "vis_m": 9999,
      "fzfg": false,
      "metar_trigger": false,
      "taf_trigger": false,
      "metar": "METAR EPRZ 292100Z 27013KT CAVOK 09/05 Q1016",
      "taf": "TAF EPRZ 291730Z 2918/3018 27012KT 9999 BKN035"
    },
    {
      "icao": "EPSC",
      "alert": "OK",
      "vis_m": 9999,
      "fzfg": false,
      "metar_trigger": false,
      "taf_trigger": false,
      "metar": "METAR EPSC 292100Z 16006KT CAVOK 04/M01 Q1019",
      "taf": "TAF EPSC 291730Z 2918/3018 25005KT CAVOK"
    },
    {
      "icao": "EPSY",
      "alert": "OK",
      "vis_m": 9999,
      "fzfg": false,
      "metar_trigger": false,
      "taf_trigger": false,
      "metar": "METAR EPSY 292100Z 32007KT CAVOK 04/01 Q1019",
      "taf": "TAF EPSY 292030Z 2921/3006 33006KT CAVOK"
    },
    {
      "icao": "EPWA",
      "alert": "OK",
      "vis_m": 9999,
      "fzfg": false,
      "metar_trigger": false,
      "taf_trigger": false,
      "metar": "METAR EPWA 292100Z 30009KT CAVOK 06/02 Q1018 NOSIG",
      "taf": "TAF EPWA 292030Z 2921/3021 30010KT CAVOK"
    },
    {
      "icao": "EPWR",
      "alert": "OK",
      "vis_m": 9999,
      "fzfg": false,
      "metar_trigger": false,
      "taf_trigger": false,
      "metar": "METAR EPWR 292100Z 27007KT CAVOK 06/03 Q1022",
      "taf": "TAF EPWR 292030Z 2921/3021 26005KT CAVOK"
    },
    {
      "icao": "ESGG",
      "alert": "OK",
      "vis_m": 9999,
      "fzfg": false,
      "metar_trigger": false,
      "taf_trigger": false,
      "metar": "METAR ESGG 292050Z 19016KT 9999 -RA SCT017 BKN025 03/01 Q1008",
      "taf": "TAF ESGG 292030Z 2921/3021 19013KT 9999 BKN030"
    },
    {
      "icao": "ESKN",
      "alert": "OK",
      "vis_m": 9999,
      "fzfg": false,
      "metar_trigger": false,
      "taf_trigger": false,
      "metar": "METAR ESKN 292050Z 23010KT 9999 FEW032 SCT042 BKN073 05/M00 Q1011",
      "taf": "TAF ESKN 292030Z 2921/3021 20012KT CAVOK"
    },
    {
      "icao": "ESMS",
      "alert": "OK",
      "vis_m": 9999,
      "fzfg": false,
      "metar_trigger": false,
      "taf_trigger": false,
      "metar": "METAR ESMS 292050Z 18009KT CAVOK 04/01 Q1014",
      "taf": "TAF ESMS 292027Z 2921/3021 21010KT 9999 FEW030"
    },
    {
      "icao": "ESSA",
      "alert": "OK",
      "vis_m": 9999,
      "fzfg": false,
      "metar_trigger": false,
      "taf_trigger": false,
      "metar": "METAR ESSA 292050Z 21009KT 9999 SCT049 04/M02 Q1010 NOSIG",
      "taf": "TAF ESSA 292030Z 2921/3021 19009KT CAVOK"
    },
    {
      "icao": "EYKA",
      "alert": "OK",
      "vis_m": 9999,
      "fzfg": false,
      "metar_trigger": false,
      "taf_trigger": false,
      "metar": "METAR EYKA 292050Z 35003KT 300V070 CAVOK 06/01 Q1017",
      "taf": "TAF EYKA 291712Z 2918/3018 34005KT 9000 NSC"
    },
    {
      "icao": "EYPA",
      "alert": "OK",
      "vis_m": 1900,
      "fzfg": false,
      "metar_trigger": false,
      "taf_trigger": false,
      "metar": "METAR EYPA 292050Z VRB02KT 1900 BR OVC002 01/01 Q1019",
      "taf": "TAF EYPA 291715Z 2918/3018 25004KT 1500 BR OVC002"
    },
    {
      "icao": "EYVI",
      "alert": "OK",
      "vis_m": 9999,
      "fzfg": false,
      "metar_trigger": false,
      "taf_trigger": false,
      "metar": "METAR EYVI 292050Z 34007KT CAVOK 10/01 Q1015 NOSIG",
      "taf": "TAF EYVI 291712Z 2918/3018 34004KT 9000 NSC"
    },
    {
      "icao": "GCFV",
      "alert": "OK",
      "vis_m": 9999,
      "fzfg": false,
      "metar_trigger": false,
      "taf_trigger": false,
      "metar": "METAR GCFV 292100Z 02014KT 9999 SCT020 18/14 Q1019",
      "taf": "TAF GCFV 292000Z 2921/3021 03016KT 9999 FEW025 TX21/3014Z TN16/3006Z"
    },
    {
      "icao": "GCLP",
      "alert": "OK",
      "vis_m": 9999,
      "fzfg": false,
      "metar_trigger": false,
      "taf_trigger": false,
      "metar": "METAR GCLP 292100Z 01019KT 9999 SCT025 18/13 Q1019 NOSIG",
      "taf": "TAF GCLP 292000Z 2921/3021 01021KT 9999 SCT025 TX21/3014Z TN17/3006Z"
    },
    {
      "icao": "GCTS",
      "alert": "OK",
      "vis_m": 9999,
      "fzfg": false,
      "metar_trigger": false,
      "taf_trigger": false,
      "metar": "METAR GCTS 292100Z 05011KT 9999 FEW025 19/08 Q1019 WS R07 NOSIG",
      "taf": "TAF GCTS 292000Z 2921/3021 05018KT CAVOK TX24/3014Z TN17/3006Z"
    },
    {
      "icao": "GMAD",
      "alert": "OK",
      "vis_m": 8000,
      "fzfg": false,
      "metar_trigger": false,
      "taf_trigger": false,
      "metar": "METAR GMAD 292100Z 23004KT 8000 NSC 17/14 Q1014 NOSIG",
      "taf": "TAF GMAD 291700Z 2918/3024 22010KT 8000 NSC"
    },
    {
      "icao": "GMMN",
      "alert": "OK",
      "vis_m": 9999,
      "fzfg": false,
      "metar_trigger": false,
      "taf_trigger": false,
      "metar": "METAR GMMN 292100Z 03006KT 010V070 CAVOK 12/08 Q1022 NOSIG",
      "taf": "TAF GMMN 291700Z 2918/3024 36015KT CAVOK"
    },
    {
      "icao": "GMMX",
      "alert": "OK",
      "vis_m": 9999,
      "fzfg": false,
      "metar_trigger": false,
      "taf_trigger": false,
      "metar": "METAR GMMX 292100Z 06008KT 030V100 9999 SCT023 16/10 Q1019 NOSIG",
      "taf": "TAF GMMX 291700Z 2918/3024 04006KT CAVOK"
    },
    {
      "icao": "HEGN",
      "alert": "OK",
      "vis_m": 9999,
      "fzfg": false,
      "metar_trigger": false,
      "taf_trigger": false,
      "metar": "METAR HEGN 292000Z 32010KT 9999 BKN025 22/15 Q1010 NOSIG",
      "taf": "TAF HEGN 291700Z 2918/3024 34015G25KT 9999 SCT025"
    },
    {
      "icao": "HEMA",
      "alert": "OK",
      "vis_m": 9999,
      "fzfg": false,
      "metar_trigger": false,
      "taf_trigger": false,
      "metar": "METAR HEMA 292000Z 13005KT CAVOK 23/18 Q1009 NOSIG",
      "taf": "TAF HEMA 291700Z 2918/3024 22010KT 9999 SCT025"
    },
    {
      "icao": "HESH",
      "alert": "OK",
      "vis_m": 9999,
      "fzfg": false,
      "metar_trigger": false,
      "taf_trigger": false,
      "metar": "HESH 292000Z 16010KT CAVOK 21/16 Q1009 NOSIG",
      "taf": "TAF HESH 291700Z 2918/3024 32008KT 9999 SCT025"
    },
    {
      "icao": "HESX",
      "alert": "OK",
      "vis_m": 9999,
      "fzfg": false,
      "metar_trigger": false,
      "taf_trigger": false,
      "metar": "METAR HESX 292000Z 03006KT CAVOK 14/09 Q1012 NOSIG",
      "taf": "TAF HESX 291700Z 2918/3024 31012KT CAVOK"
    },
    {
      "icao": "LATI",
      "alert": "OK",
      "vis_m": 9999,
      "fzfg": false,
      "metar_trigger": false,
      "taf_trigger": false,
      "metar": "METAR LATI 292050Z VRB02KT CAVOK 09/04 Q1012 NOSIG",
      "taf": "TAF LATI 291700Z 2918/3018 VRB05KT CAVOK TX18/3012Z TN04/3005Z"
    },
    {
      "icao": "LBPD",
      "alert": "OK",
      "vis_m": 9999,
      "fzfg": false,
      "metar_trigger": false,
      "taf_trigger": false,
      "metar": "METAR LBPD 292100Z AUTO 28020KT 9999 OVC100/// 10/03 Q1008",
      "taf": "TAF LBPD 291700Z 2918/3018 28020G30KT 9999 SCT040 BKN060"
    },
    {
      "icao": "LBSF",
      "alert": "OK",
      "vis_m": 9999,
      "fzfg": false,
      "metar_trigger": false,
      "taf_trigger": false,
      "metar": "METAR LBSF 292100Z AUTO 29012KT 9999 -RA OVC010/// 05/03 Q1012 NOSIG",
      "taf": ""
    },
    {
      "icao": "LBWN",
      "alert": "OK",
      "vis_m": 9999,
      "fzfg": false,
      "metar_trigger": false,
      "taf_trigger": false,
      "metar": "METAR LBWN 292100Z AUTO 33009KT 300V360 9999 -SHRA FEW030/// SCT039/// OVC049/// 11/11 Q1003 NOSIG",
      "taf": "TAF LBWN 291700Z 2918/3018 34010KT 7000 RA SCT010 BKN015 OVC020"
    },
    {
      "icao": "LCLK",
      "alert": "OK",
      "vis_m": 9999,
      "fzfg": false,
      "metar_trigger": false,
      "taf_trigger": false,
      "metar": "METAR LCLK 292100Z 24016KT 9999 FEW050 15/09 Q1007 NOSIG",
      "taf": "TAF LCLK 291730Z 2918/3018 23011KT 9999 FEW030"
    },
    {
      "icao": "LCPH",
      "alert": "OK",
      "vis_m": 9999,
      "fzfg": false,
      "metar_trigger": false,
      "taf_trigger": false,
      "metar": "METAR LCPH 292100Z 29016KT 250V320 9999 FEW025 SCT035 15/10 Q1008 NOSIG",
      "taf": "TAF LCPH 291730Z 2918/3018 29015KT 9999 FEW025 SCT040"
    },
    {
      "icao": "LEAL",
      "alert": "OK",
      "vis_m": 9999,
      "fzfg": false,
      "metar_trigger": false,
      "taf_trigger": false,
      "metar": "METAR LEAL 292100Z 31005KT 260V360 CAVOK 11/M04 Q1025 NOSIG",
      "taf": "TAF LEAL 291700Z 2918/3018 03015KT 9999 FEW025 TX17/3012Z TN07/3006Z"
    },
    {
      "icao": "LEBB",
      "alert": "OK",
      "vis_m": 9999,
      "fzfg": false,
      "metar_trigger": false,
      "taf_trigger": false,
      "metar": "METAR LEBB 292100Z 31003KT 260V350 9999 FEW038 SCT049 08/04 Q1036 NOSIG",
      "taf": "TAF LEBB 291700Z 2918/3018 34009KT 9999 FEW030 BKN045 TX10/2918Z TN07/3006Z"
    },
    {
      "icao": "LEBL",
      "alert": "OK",
      "vis_m": 9999,
      "fzfg": false,
      "metar_trigger": false,
      "taf_trigger": false,
      "metar": "METAR LEBL 292100Z 30003KT CAVOK 12/M03 Q1023 NOSIG",
      "taf": "TAF LEBL 291700Z 2918/3018 34007KT CAVOK TX21/3012Z TN07/3006Z"
    },
    {
      "icao": "LECH",
      "alert": "OK",
      "vis_m": 9000,
      "fzfg": false,
      "metar_trigger": false,
      "taf_trigger": false,
      "metar": "METAR LECH 292100Z AUTO 33020G32KT 290V020 9000 NCD 09/M05 Q1025",
      "taf": ""
    },
    {
      "icao": "LEMD",
      "alert": "OK",
      "vis_m": 9999,
      "fzfg": false,
      "metar_trigger": false,
      "taf_trigger": false,
      "metar": "METAR LEMD 292100Z 00000KT CAVOK 06/M07 Q1029 NOSIG",
      "taf": ""
    },
    {
      "icao": "LEMG",
      "alert": "OK",
      "vis_m": 9999,
      "fzfg": false,
      "metar_trigger": false,
      "taf_trigger": false,
      "metar": "METAR LEMG 292100Z 12006KT 9999 FEW060 13/06 Q1025 NOSIG",
      "taf": "TAF LEMG 291700Z 2918/3018 36018KT CAVOK TX19/3013Z TN09/3007Z"
    },
    {
      "icao": "LEVC",
      "alert": "OK",
      "vis_m": 9999,
      "fzfg": false,
      "metar_trigger": false,
      "taf_trigger": false,
      "metar": "METAR LEVC 292100Z 33014KT 290V350 CAVOK 12/M06 Q1026 NOSIG",
      "taf": "TAF LEVC 291700Z 2918/3018 33010KT 9999 FEW025 TX22/3013Z TN05/3006Z"
    },
    {
      "icao": "LEXJ",
      "alert": "OK",
      "vis_m": 9999,
      "fzfg": false,
      "metar_trigger": false,
      "taf_trigger": false,
      "metar": "METAR LEXJ 292100Z 01005KT 320V050 9999 SCT040 10/03 Q1037",
      "taf": "TAF LEXJ 292000Z 2921/3021 31009KT 9999 SCT035 TX13/3021Z TN09/3003Z"
    },
    {
      "icao": "LEZG",
      "alert": "OK",
      "vis_m": 9999,
      "fzfg": false,
      "metar_trigger": false,
      "taf_trigger": false,
      "metar": "METAR LEZG 292100Z 30019KT CAVOK 08/M01 Q1029 NOSIG",
      "taf": "TAF LEZG 291700Z 2918/3018 34020KT 9999 FEW045 TX17/3014Z TN06/3006Z"
    },
    {
      "icao": "LEZL",
      "alert": "OK",
      "vis_m": 9999,
      "fzfg": false,
      "metar_trigger": false,
      "taf_trigger": false,
      "metar": "METAR LEZL 292100Z 02007KT CAVOK 14/00 Q1025 NOSIG",
      "taf": "TAF LEZL 292000Z 2921/3021 04008KT CAVOK TX22/3015Z TN08/3007Z"
    },
    {
      "icao": "LFBD",
      "alert": "OK",
      "vis_m": 9999,
      "fzfg": false,
      "metar_trigger": false,
      "taf_trigger": false,
      "metar": "METAR LFBD 292100Z AUTO 31006KT CAVOK 08/03 Q1034 NOSIG",
      "taf": "TAF LFBD 291700Z 2918/3024 35010KT CAVOK TX14/3014Z TN05/3001Z"
    },
    {
      "icao": "LFLL",
      "alert": "OK",
      "vis_m": 9999,
      "fzfg": false,
      "metar_trigger": false,
      "taf_trigger": false,
      "metar": "METAR LFLL 292100Z 34007KT CAVOK 05/M00 Q1029 NOSIG",
      "taf": "TAF LFLL 291700Z 2918/3024 34016KT CAVOK"
    },
    {
      "icao": "LFLS",
      "alert": "OK",
      "vis_m": 9999,
      "fzfg": false,
      "metar_trigger": false,
      "taf_trigger": false,
      "metar": "METAR LFLS 292100Z AUTO 35012KT CAVOK 05/M01 Q1027",
      "taf": "TAF LFLS 291400Z 2915/3015 34020KT 9999 BKN050"
    },
    {
      "icao": "LFMN",
      "alert": "OK",
      "vis_m": 9999,
      "fzfg": false,
      "metar_trigger": false,
      "taf_trigger": false,
      "metar": "METAR LFMN 292100Z 32008KT 300V020 CAVOK 12/02 Q1018 NOSIG",
      "taf": "TAF LFMN 292000Z 2921/3103 33010KT CAVOK"
    },
    {
      "icao": "LFOB",
      "alert": "OK",
      "vis_m": 9999,
      "fzfg": false,
      "metar_trigger": false,
      "taf_trigger": false,
      "metar": "METAR LFOB 292100Z AUTO 24011KT 210V270 9999 BKN033 BKN042 OVC054 09/04 Q1026 TEMPO 27015G25KT 4500 -RA BKN013 OVC020",
      "taf": "TAF LFOB 291700Z 2918/3018 27012KT 9999 SCT045 OVC080"
    },
    {
      "icao": "LFPO",
      "alert": "OK",
      "vis_m": 9999,
      "fzfg": false,
      "metar_trigger": false,
      "taf_trigger": false,
      "metar": "METAR LFPO 292100Z 26010KT 9999 FEW046 BKN076 10/02 Q1028 NOSIG",
      "taf": "TAF LFPO 291700Z 2918/3024 27010KT CAVOK"
    },
    {
      "icao": "LFSB",
      "alert": "OK",
      "vis_m": 9999,
      "fzfg": false,
      "metar_trigger": false,
      "taf_trigger": false,
      "metar": "METAR LFSB 292100Z AUTO 30003KT 250V340 CAVOK 02/M01 Q1028 NOSIG",
      "taf": "TAF LFSB 291730Z 2918/3018 30005KT 9999 FEW045 BKN200"
    },
    {
      "icao": "LGAV",
      "alert": "OK",
      "vis_m": 9999,
      "fzfg": false,
      "metar_trigger": false,
      "taf_trigger": false,
      "metar": "METAR LGAV 292050Z VRB02KT 9999 SCT030 08/05 Q1010 NOSIG",
      "taf": "TAF LGAV 291700Z 2918/3018 VRB05KT 9999 SCT030"
    },
    {
      "icao": "LGTS",
      "alert": "OK",
      "vis_m": 9999,
      "fzfg": false,
      "metar_trigger": false,
      "taf_trigger": false,
      "metar": "METAR LGTS 292050Z 32027G43KT 9999 FEW025 12/03 Q1009 NOSIG",
      "taf": ""
    },
    {
      "icao": "LHBP",
      "alert": "OK",
      "vis_m": 9999,
      "fzfg": false,
      "metar_trigger": false,
      "taf_trigger": false,
      "metar": "METAR LHBP 292100Z 32010KT 9999 -RA OVC046 07/05 Q1016 NOSIG",
      "taf": "TAF LHBP 291715Z 2918/3018 33011KT 8000 -RA OVC040"
    },
    {
      "icao": "LHDC",
      "alert": "OK",
      "vis_m": 8000,
      "fzfg": false,
      "metar_trigger": false,
      "taf_trigger": false,
      "metar": "METAR LHDC 292045Z AUTO 01011KT 350V050 8000 -RA NSC 10/07 Q1014 NOSIG",
      "taf": "TAF LHDC 291715Z 2918/3003 02015G25KT CAVOK"
    },
    {
      "icao": "LIBD",
      "alert": "OK",
      "vis_m": 9999,
      "fzfg": false,
      "metar_trigger": false,
      "taf_trigger": false,
      "metar": "METAR LIBD 292050Z 27006KT 9999 SCT035 09/06 Q1015",
      "taf": "TAF LIBD 291700Z 2918/3018 34013KT 9999 FEW030"
    },
    {
      "icao": "LIBG",
      "alert": "OK",
      "vis_m": null,
      "fzfg": false,
      "metar_trigger": false,
      "taf_trigger": false,
      "metar": "",
      "taf": "TAF LIBG 291400Z 2915/2924 34013KT 9999 SCT030"
    },
    {
      "icao": "LIBP",
      "alert": "OK",
      "vis_m": 9999,
      "fzfg": false,
      "metar_trigger": false,
      "taf_trigger": false,
      "metar": "METAR LIBP 292050Z AUTO 21007KT 9999 BKN072/// BKN200/// 07/05 Q1018",
      "taf": "TAF LIBP 291700Z 2918/3018 01012KT 9999 SCT030"
    },
    {
      "icao": "LIBR",
      "alert": "OK",
      "vis_m": 9999,
      "fzfg": false,
      "metar_trigger": false,
      "taf_trigger": false,
      "metar": "METAR LIBR 292050Z 33011KT CAVOK 13/07 Q1013",
      "taf": "TAF LIBR 291700Z 2918/3018 33016KT 9999 BKN030"
    },
    {
      "icao": "LICA",
      "alert": "OK",
      "vis_m": 9999,
      "fzfg": false,
      "metar_trigger": false,
      "taf_trigger": false,
      "metar": "METAR LICA 292050Z AUTO 09004KT 9999 NCD 08/06 Q1014",
      "taf": "TAF LICA 291700Z 2918/3018 VRB05KT 9999 FEW020"
    },
    {
      "icao": "LICC",
      "alert": "OK",
      "vis_m": 9999,
      "fzfg": false,
      "metar_trigger": false,
      "taf_trigger": false,
      "metar": "METAR LICC 292020Z 05007KT 9999 BKN080 15/09 Q1013",
      "taf": "TAF LICC 291700Z 2918/3018 10010KT 9999 FEW050"
    },
    {
      "icao": "LICJ",
      "alert": "OK",
      "vis_m": 9999,
      "fzfg": false,
      "metar_trigger": false,
      "taf_trigger": false,
      "metar": "METAR LICJ 292050Z 07007KT 9999 FEW030 14/08 Q1014",
      "taf": "TAF LICJ 291700Z 2918/3018 05010KT 9999 FEW040"
    },
    {
      "icao": "LIMC",
      "alert": "OK",
      "vis_m": 9999,
      "fzfg": false,
      "metar_trigger": false,
      "taf_trigger": false,
      "metar": "METAR LIMC 292050Z 35005KT 320V020 CAVOK 09/M06 Q1019 NOSIG",
      "taf": "TAF LIMC 291700Z 2918/3024 36012KT CAVOK"
    },
    {
      "icao": "LIME",
      "alert": "OK",
      "vis_m": 9999,
      "fzfg": false,
      "metar_trigger": false,
      "taf_trigger": false,
      "metar": "METAR LIME 292050Z AUTO 01003KT 9999 NCD 08/00 Q1019",
      "taf": "TAF LIME 291700Z 2918/3018 01006KT CAVOK"
    },
    {
      "icao": "LIMF",
      "alert": "OK",
      "vis_m": 9999,
      "fzfg": false,
      "metar_trigger": false,
      "taf_trigger": false,
      "metar": "METAR LIMF 292050Z 09005KT CAVOK 11/M05 Q1020",
      "taf": "TAF LIMF 291700Z 2918/3018 VRB05KT 9999 FEW100"
    },
    {
      "icao": "LIMJ",
      "alert": "OK",
      "vis_m": 9999,
      "fzfg": false,
      "metar_trigger": false,
      "taf_trigger": false,
      "metar": "METAR LIMJ 292050Z 03006KT CAVOK 16/M05 Q1018",
      "taf": "TAF LIMJ 291700Z 2918/3018 02007KT CAVOK"
    },
    {
      "icao": "LIPE",
      "alert": "OK",
      "vis_m": 9999,
      "fzfg": false,
      "metar_trigger": false,
      "taf_trigger": false,
      "metar": "METAR LIPE 292050Z 24003KT 190V270 9999 FEW074 11/04 Q1019",
      "taf": "TAF LIPE 291700Z 2918/3018 VRB05KT 9999 FEW040"
    },
    {
      "icao": "LIPH",
      "alert": "OK",
      "vis_m": 9999,
      "fzfg": false,
      "metar_trigger": false,
      "taf_trigger": false,
      "metar": "METAR LIPH 292050Z 23002KT CAVOK 12/03 Q1019",
      "taf": "TAF LIPH 291700Z 2918/3018 VRB05KT 9999 BKN050"
    },
    {
      "icao": "LIPQ",
      "alert": "OK",
      "vis_m": 9999,
      "fzfg": false,
      "metar_trigger": false,
      "taf_trigger": false,
      "metar": "METAR LIPQ 292050Z AUTO 36003KT 9999 NCD 07/01 Q1019",
      "taf": "TAF LIPQ 291700Z 2918/3018 VRB05KT 9999 BKN070"
    },
    {
      "icao": "LIPR",
      "alert": "OK",
      "vis_m": 9999,
      "fzfg": false,
      "metar_trigger": false,
      "taf_trigger": false,
      "metar": "METAR LIPR 292050Z 19003KT CAVOK 08/05 Q1019",
      "taf": "TAF LIPR 291700Z 2918/3018 VRB05KT 9999 BKN040"
    },
    {
      "icao": "LIPX",
      "alert": "OK",
      "vis_m": 9999,
      "fzfg": false,
      "metar_trigger": false,
      "taf_trigger": false,
      "metar": "METAR LIPX 292050Z 33004KT 310V010 CAVOK 12/02 Q1019",
      "taf": "TAF LIPX 291700Z 2918/3018 20010KT CAVOK"
    },
    {
      "icao": "LIPY",
      "alert": "OK",
      "vis_m": 9999,
      "fzfg": false,
      "metar_trigger": false,
      "taf_trigger": false,
      "metar": "METAR LIPY 292050Z AUTO 18002KT 9999 NCD 08/06 Q1018",
      "taf": "TAF LIPY 291700Z 2918/3018 35013KT 9999 SCT070"
    },
    {
      "icao": "LIPZ",
      "alert": "OK",
      "vis_m": 9999,
      "fzfg": false,
      "metar_trigger": false,
      "taf_trigger": false,
      "metar": "METAR LIPZ 292050Z 27003KT CAVOK 11/05 Q1019 NOSIG",
      "taf": "TAF LIPZ 291700Z 2918/3024 VRB05KT 9999 SCT040"
    },
    {
      "icao": "LIRF",
      "alert": "OK",
      "vis_m": 9999,
      "fzfg": false,
      "metar_trigger": false,
      "taf_trigger": false,
      "metar": "METAR LIRF 292050Z 31004KT CAVOK 10/09 Q1015 NOSIG",
      "taf": "TAF LIRF 291700Z 2918/3024 VRB05KT CAVOK"
    },
    {
      "icao": "LIRN",
      "alert": "OK",
      "vis_m": 9999,
      "fzfg": false,
      "metar_trigger": false,
      "taf_trigger": false,
      "metar": "METAR LIRN 292050Z 05005KT CAVOK 12/03 Q1015 NOSIG",
      "taf": "TAF LIRN 291700Z 2918/3018 05008KT 9999 SCT050"
    },
    {
      "icao": "LIRP",
      "alert": "OK",
      "vis_m": 9999,
      "fzfg": false,
      "metar_trigger": false,
      "taf_trigger": false,
      "metar": "METAR LIRP 292045Z VRB02KT CAVOK 11/M00 Q1018 NOSIG",
      "taf": "TAF LIRP 291700Z 2918/3018 10005KT CAVOK"
    },
    {
      "icao": "LIRZ",
      "alert": "OK",
      "vis_m": 9999,
      "fzfg": false,
      "metar_trigger": false,
      "taf_trigger": false,
      "metar": "METAR LIRZ 292050Z AUTO 03009KT 9999 NCD 09/02 Q1017",
      "taf": "TAF LIRZ 291700Z 2918/3018 03010KT 9999 SCT060"
    },
    {
      "icao": "LJLJ",
      "alert": "OK",
      "vis_m": 9999,
      "fzfg": false,
      "metar_trigger": false,
      "taf_trigger": false,
      "metar": "METAR LJLJ 292100Z 30007KT 9999 FEW070 SCT100 07/M03 Q1020 NOSIG",
      "taf": ""
    },
    {
      "icao": "LKMT",
      "alert": "OK",
      "vis_m": 9999,
      "fzfg": false,
      "metar_trigger": false,
      "taf_trigger": false,
      "metar": "METAR LKMT 292100Z 35005KT 310V030 9999 OVC029 05/02 Q1022 NOSIG",
      "taf": "TAF LKMT 291700Z 2918/3018 01006KT 9999 OVC016"
    },
    {
      "icao": "LKPR",
      "alert": "OK",
      "vis_m": 9999,
      "fzfg": false,
      "metar_trigger": false,
      "taf_trigger": false,
      "metar": "METAR LKPR 292100Z 19007KT CAVOK 00/M03 Q1023 NOSIG",
      "taf": "TAF LKPR 292000Z 2921/3103 24007KT CAVOK"
    },
    {
      "icao": "LLBG",
      "alert": "OK",
      "vis_m": 9999,
      "fzfg": false,
      "metar_trigger": false,
      "taf_trigger": false,
      "metar": "METAR LLBG 292050Z 15007KT 9999 FEW050 13/10 Q1012 NOSIG",
      "taf": "TAF LLBG 291703Z 2918/3018 26007KT 9999 SCT035 TX20/3012Z TN12/3004Z"
    },
    {
      "icao": "LMML",
      "alert": "OK",
      "vis_m": 9999,
      "fzfg": false,
      "metar_trigger": false,
      "taf_trigger": false,
      "metar": "METAR LMML 292045Z VRB02KT CAVOK 11/08 Q1014 NOSIG",
      "taf": "TAF LMML 291700Z 2918/3018 28006KT 9999 SCT025"
    },
    {
      "icao": "LOWW",
      "alert": "OK",
      "vis_m": 9999,
      "fzfg": false,
      "metar_trigger": false,
      "taf_trigger": false,
      "metar": "METAR LOWW 292050Z 31015KT 9999 FEW036 BKN040 06/01 Q1023 NOSIG",
      "taf": "TAF LOWW 292015Z 2921/3103 32015KT 9999 BKN035 TX09/3012Z TN03/3005Z"
    },
    {
      "icao": "LPFR",
      "alert": "OK",
      "vis_m": 9999,
      "fzfg": false,
      "metar_trigger": false,
      "taf_trigger": false,
      "metar": "METAR LPFR 292100Z 01014KT CAVOK 17/M01 Q1025",
      "taf": "TAF LPFR 291700Z 2918/3018 04010KT CAVOK"
    },
    {
      "icao": "LPMA",
      "alert": "OK",
      "vis_m": 9999,
      "fzfg": false,
      "metar_trigger": false,
      "taf_trigger": false,
      "metar": "METAR LPMA 292100Z 35019G32KT 310V020 9999 FEW015 18/06 Q1026",
      "taf": "TAF LPMA 291700Z 2918/3018 01018G30KT 9999 SCT015"
    },
    {
      "icao": "LPPR",
      "alert": "OK",
      "vis_m": 9999,
      "fzfg": false,
      "metar_trigger": false,
      "taf_trigger": false,
      "metar": "METAR LPPR 292100Z 01012KT CAVOK 14/03 Q1030",
      "taf": "TAF LPPR 291700Z 2918/3018 33010KT CAVOK"
    },
    {
      "icao": "LPPS",
      "alert": "OK",
      "vis_m": 9999,
      "fzfg": false,
      "metar_trigger": false,
      "taf_trigger": false,
      "metar": "METAR LPPS 292100Z 05020G31KT 9999 SCT012 17/10 Q1026",
      "taf": "TAF LPPS 291700Z 2918/3024 06015KT 9999 SCT015 SCT030"
    },
    {
      "icao": "LPPT",
      "alert": "OK",
      "vis_m": 9999,
      "fzfg": false,
      "metar_trigger": false,
      "taf_trigger": false,
      "metar": "METAR LPPT 292100Z 33013KT CAVOK 14/05 Q1028",
      "taf": "TAF LPPT 291700Z 2918/3024 34013KT CAVOK"
    },
    {
      "icao": "LQBK",
      "alert": "OK",
      "vis_m": 9999,
      "fzfg": false,
      "metar_trigger": false,
      "taf_trigger": false,
      "metar": "METAR LQBK 292100Z 27008KT 9999 -RA OVC027 06/03 Q1020 NOSIG",
      "taf": "TAF LQBK 291700Z 2918/3018 28008KT 9999 -RA BKN015 OVC030 TX07/3013Z TN04/3005Z"
    },
    {
      "icao": "LQSA",
      "alert": "OK",
      "vis_m": 9999,
      "fzfg": false,
      "metar_trigger": false,
      "taf_trigger": false,
      "metar": "METAR LQSA 292100Z 34003KT 300V010 9999 FEW015 BKN027 04/02 Q1018 NOSIG",
      "taf": "TAF LQSA 291700Z 2918/3018 32006KT 9999 SCT020 BKN040 TX05/3013Z TN01/3005Z"
    },
    {
      "icao": "LQTZ",
      "alert": "OK",
      "vis_m": 3500,
      "fzfg": false,
      "metar_trigger": false,
      "taf_trigger": false,
      "metar": "METAR LQTZ 292100Z 30004KT 3500 -DZ BR OVC007 03/03 Q1018",
      "taf": "TAF LQTZ 291700Z 2918/3018 29008KT 5000 -RA BR BKN010 OVC020 TX04/3013Z TN02/3005Z"
    },
    {
      "icao": "LRBC",
      "alert": "OK",
      "vis_m": 9999,
      "fzfg": false,
      "metar_trigger": false,
      "taf_trigger": false,
      "metar": "METAR LRBC 292100Z 34014KT 9999 -RA FEW011 OVC028 10/09 Q1010",
      "taf": "TAF LRBC 292000Z 2921/3006 34010KT 9999 BKN020"
    },
    {
      "icao": "LRBS",
      "alert": "OK",
      "vis_m": 9999,
      "fzfg": false,
      "metar_trigger": false,
      "taf_trigger": false,
      "metar": "METAR LRBS 292100Z VRB04KT 9999 -RA OVC030 09/08 Q1007 NOSIG",
      "taf": "TAF LRBS 291700Z 2918/3018 33006KT 9999 BKN035"
    },
    {
      "icao": "LRBV",
      "alert": "OK",
      "vis_m": 9000,
      "fzfg": false,
      "metar_trigger": false,
      "taf_trigger": false,
      "metar": "METAR LRBV 292100Z AUTO 30006KT 9000 -RA FEW012/// BKN020/// OVC033/// 06/06 Q1011",
      "taf": "TAF LRBV 292000Z 2921/3006 28008KT 9999 BKN020"
    },
    {
      "icao": "LRCL",
      "alert": "OK",
      "vis_m": 9999,
      "fzfg": false,
      "metar_trigger": false,
      "taf_trigger": false,
      "metar": "METAR LRCL 292100Z 26002KT 9999 -RA OVC052 09/08 Q1012",
      "taf": "TAF LRCL 292000Z 2921/3006 VRB04KT 9999 OVC045"
    },
    {
      "icao": "LRCV",
      "alert": "OK",
      "vis_m": 9999,
      "fzfg": false,
      "metar_trigger": false,
      "taf_trigger": false,
      "metar": "METAR LRCV 292100Z 26009KT 9999 -RA OVC049 08/08 Q1010",
      "taf": "TAF LRCV 292000Z 2921/3006 27008KT 9999 BKN040"
    },
    {
      "icao": "LRIA",
      "alert": "OK",
      "vis_m": 9999,
      "fzfg": false,
      "metar_trigger": false,
      "taf_trigger": false,
      "metar": "METAR LRIA 292100Z 34013KT CAVOK 12/09 Q1009",
      "taf": "TAF LRIA 292000Z 2921/3006 33012KT CAVOK"
    },
    {
      "icao": "LROP",
      "alert": "OK",
      "vis_m": 9999,
      "fzfg": false,
      "metar_trigger": false,
      "taf_trigger": false,
      "metar": "METAR LROP 292100Z 30008KT 9999 -RA OVC030 09/09 Q1007 NOSIG",
      "taf": "TAF LROP 291700Z 2918/3018 33008KT 9999 BKN035"
    },
    {
      "icao": "LRSB",
      "alert": "OK",
      "vis_m": 9999,
      "fzfg": false,
      "metar_trigger": false,
      "taf_trigger": false,
      "metar": "METAR LRSB 292100Z 27006KT 9999 -RA SCT006 BKN009 08/07 Q1011",
      "taf": "TAF LRSB 291700Z 2918/3018 VRB04KT 9999 BKN025"
    },
    {
      "icao": "LRSM",
      "alert": "OK",
      "vis_m": 9999,
      "fzfg": false,
      "metar_trigger": false,
      "taf_trigger": false,
      "metar": "METAR LRSM 292100Z AUTO 32004KT 9999 BKN055/// OVC070/// 10/09 Q1013 REDZ",
      "taf": ""
    },
    {
      "icao": "LRSV",
      "alert": "OK",
      "vis_m": 9999,
      "fzfg": false,
      "metar_trigger": false,
      "taf_trigger": false,
      "metar": "METAR LRSV 292100Z 31010KT 9999 FEW024 BKN042 09/07 Q1011",
      "taf": "TAF LRSV 292000Z 2921/3006 32012KT 9999 SCT040"
    },
    {
      "icao": "LRTM",
      "alert": "OK",
      "vis_m": 9999,
      "fzfg": false,
      "metar_trigger": false,
      "taf_trigger": false,
      "metar": "METAR LRTM 292100Z 23003KT 9999 -RA OVC048 09/09 Q1011",
      "taf": "TAF LRTM 292000Z 2921/3006 VRB04KT 9999 SCT040"
    },
    {
      "icao": "LRTR",
      "alert": "OK",
      "vis_m": 5000,
      "fzfg": false,
      "metar_trigger": false,
      "taf_trigger": false,
      "metar": "METAR LRTR 292100Z 33006KT 5000 BR OVC010 10/10 Q1013",
      "taf": "TAF LRTR 291700Z 2918/3018 28006KT 5000 -RA BR BKN010 BKN035"
    },
    {
      "icao": "LTAC",
      "alert": "OK",
      "vis_m": 9999,
      "fzfg": false,
      "metar_trigger": false,
      "taf_trigger": false,
      "metar": "METAR LTAC 292050Z 24009KT 9999 FEW015 SCT040 BKN100 05/03 Q1003 NOSIG RMK RWY21C 23008KT RWY03L 23007KT RWY21R 22008KT RWY03R 24007KT RWY21L 23009KT",
      "taf": "TAF LTAC 291640Z 2918/3018 24012KT 9999 SCT040 BKN100"
    },
    {
      "icao": "LTFM",
      "alert": "OK",
      "vis_m": 8000,
      "fzfg": false,
      "metar_trigger": false,
      "taf_trigger": false,
      "metar": "METAR LTFM 292050Z 27010G24KT 8000 -RA BKN009 BKN020 08/07 Q1003 NOSIG RMK RWY17L 27012KT RWY34L 26010KT 240V300 RWY16R 27009KT RWY36 26011KT RWY18 27013KT",
      "taf": "TAF LTFM 291640Z 2918/3024 25010KT 8000 -RA BKN011 BKN020"
    },
    {
      "icao": "LUKK",
      "alert": "OK",
      "vis_m": 9999,
      "fzfg": false,
      "metar_trigger": false,
      "taf_trigger": false,
      "metar": "METAR LUKK 292100Z 36009KT CAVOK 13/07 Q1007 NOSIG",
      "taf": "TAF LUKK 291706Z 2918/3018 36010KT 9999 SCT040"
    },
    {
      "icao": "LWOH",
      "alert": "OK",
      "vis_m": null,
      "fzfg": false,
      "metar_trigger": false,
      "taf_trigger": false,
      "metar": "",
      "taf": "TAF LWOH 292025Z 2921/3021 34005KT 9999 SCT040"
    },
    {
      "icao": "LWSK",
      "alert": "OK",
      "vis_m": null,
      "fzfg": false,
      "metar_trigger": false,
      "taf_trigger": false,
      "metar": "",
      "taf": "TAF LWSK 292025Z 2921/3021 35006KT 9999 BKN050"
    },
    {
      "icao": "LYBE",
      "alert": "OK",
      "vis_m": 9999,
      "fzfg": false,
      "metar_trigger": false,
      "taf_trigger": false,
      "metar": "METAR LYBE 292100Z 28016KT 9999 -RA BKN005 06/05 Q1016 TEMPO 5000 BR BKN002",
      "taf": "TAF LYBE 291700Z 2918/3018 27012KT 6000 BKN006 BKN027 TX07/3012Z TN04/3006Z"
    },
    {
      "icao": "LYNI",
      "alert": "OK",
      "vis_m": 9999,
      "fzfg": false,
      "metar_trigger": false,
      "taf_trigger": false,
      "metar": "METAR LYNI 292100Z 30006KT 250V320 9999 -DZ SCT007 OVC012 05/05 Q1015 NOSIG",
      "taf": "TAF LYNI 291700Z 2918/3018 32006KT 9999 BKN017 BKN030 TX09/3013Z TN04/3006Z"
    },
    {
      "icao": "LYPG",
      "alert": "OK",
      "vis_m": 9999,
      "fzfg": false,
      "metar_trigger": false,
      "taf_trigger": false,
      "metar": "METAR LYPG 292100Z 34014KT CAVOK 11/M00 Q1014 NOSIG",
      "taf": "TAF LYPG 291700Z 2918/3018 36015G25KT CAVOK TX18/3013Z TN07/3004Z"
    },
    {
      "icao": "LZIB",
      "alert": "OK",
      "vis_m": 9999,
      "fzfg": false,
      "metar_trigger": false,
      "taf_trigger": false,
      "metar": "METAR LZIB 292100Z 36007KT 320V040 9999 SCT025 SCT045 07/02 Q1021 NOSIG",
      "taf": "TAF LZIB 291715Z 2918/3018 31012KT 9999 FEW020 BKN040"
    },
    {
      "icao": "LZKZ",
      "alert": "OK",
      "vis_m": 9999,
      "fzfg": false,
      "metar_trigger": false,
      "taf_trigger": false,
      "metar": "METAR LZKZ 292100Z 35014KT CAVOK 10/04 Q1015 NOSIG",
      "taf": "TAF LZKZ 291715Z 2918/3018 01015KT CAVOK"
    },
    {
      "icao": "LZTT",
      "alert": "OK",
      "vis_m": 9999,
      "fzfg": false,
      "metar_trigger": false,
      "taf_trigger": false,
      "metar": "METAR LZTT 292100Z 27014KT 9999 SCT036 OVC040 03/02 Q1017",
      "taf": "TAF LZTT 291715Z 2918/3018 26007KT 9999 FEW010 SCT030 BKN060"
    },
    {
      "icao": "OEJN",
      "alert": "OK",
      "vis_m": 9999,
      "fzfg": false,
      "metar_trigger": false,
      "taf_trigger": false,
      "metar": "METAR OEJN 292100Z 36004KT CAVOK 23/14 Q1009 NOSIG",
      "taf": "TAF OEJN 291700Z 2918/3024 01005KT 9999 FEW040"
    },
    {
      "icao": "OEMA",
      "alert": "OK",
      "vis_m": 9999,
      "fzfg": false,
      "metar_trigger": false,
      "taf_trigger": false,
      "metar": "METAR OEMA 292100Z 17007KT CAVOK 26/08 Q1013 NOSIG",
      "taf": "TAF OEMA 291700Z 2918/3024 27005KT 9999 FEW045"
    },
    {
      "icao": "OJAI",
      "alert": "OK",
      "vis_m": 4000,
      "fzfg": false,
      "metar_trigger": false,
      "taf_trigger": false,
      "metar": "METAR OJAI 292100Z 26005KT 4000 BR FEW030 07/06 Q1013 NOSIG",
      "taf": "TAF OJAI 291700Z 2918/3024 26010KT 4000 BR FEW025 BKN030"
    },
    {
      "icao": "OMAA",
      "alert": "OK",
      "vis_m": null,
      "fzfg": false,
      "metar_trigger": false,
      "taf_trigger": false,
      "metar": "",
      "taf": ""
    },
    {
      "icao": "OMDB",
      "alert": "OK",
      "vis_m": null,
      "fzfg": false,
      "metar_trigger": false,
      "taf_trigger": false,
      "metar": "",
      "taf": ""
    },
    {
      "icao": "UAAA",
      "alert": "OK",
      "vis_m": 5000,
      "fzfg": false,
      "metar_trigger": false,
      "taf_trigger": false,
      "metar": "METAR UAAA 292100Z 17002MPS 5000 FU NSC 07/01 Q1011 NOSIG",
      "taf": "TAF UAAA 291702Z 2918/3018 19002MPS 9999 FEW100 TX25/3010Z TN05/3001Z"
    },
    {
      "icao": "UBBB",
      "alert": "OK",
      "vis_m": 600,
      "fzfg": false,
      "metar_trigger": false,
      "taf_trigger": false,
      "metar": "METAR UBBB 292100Z 16008KT 0600 R17/1500N FG VV002 11/11 Q1002 NOSIG",
      "taf": "TAF UBBB 291702Z 2918/3018 15008KT 0600 FG VV002 TX17/3010Z TN08/3001Z"
    },
    {
      "icao": "UDSG",
      "alert": "OK",
      "vis_m": 6000,
      "fzfg": false,
      "metar_trigger": false,
      "taf_trigger": false,
      "metar": "METAR UDSG 292100Z 11001KT 6000 -SHRA BKN020CB OVC033 05/05 Q1005 NOSIG",
      "taf": "TAF UDSG 291658Z 2918/3018 24006KT 9999 BKN040"
    },
    {
      "icao": "UDYZ",
      "alert": "OK",
      "vis_m": 9000,
      "fzfg": false,
      "metar_trigger": false,
      "taf_trigger": false,
      "metar": "METAR UDYZ 292100Z 36003KT 9000 -SHRA OVC043CB 09/08 Q1004 NOSIG",
      "taf": "TAF UDYZ 291700Z 2918/3018 18006KT 9999 BKN040"
    },
    {
      "icao": "UGKO",
      "alert": "OK",
      "vis_m": 9999,
      "fzfg": false,
      "metar_trigger": false,
      "taf_trigger": false,
      "metar": "METAR UGKO 292100Z 22013KT CAVOK 16/07 Q0998 NOSIG",
      "taf": "TAF UGKO 291700Z 2918/3018 08007KT 9999 SCT030 BKN050 TX15/2918Z TN10/3003Z"
    }
  ]
}