{
  "ts_utc": "2026-01-08T23:09:30Z",
  "threshold_m": 150,
  "source": "stations_override.txt (ICAO list) + aviationweather.gov (METAR/TAF raw)",
  "station_count": 159,
  "stations": [
    {
      "icao": "BIKF",
      "alert": "OK",
      "vis_m": 9999,
      "fzfg": false,
      "metar_trigger": false,
      "taf_trigger": false,
      "metar": "METAR BIKF 082300Z 02016KT CAVOK M01/M07 Q1003",
      "taf": "TAF BIKF 082205Z 0900/1000 05015KT CAVOK TXM02/0900Z TNM05/0908Z"
    },
    {
      "icao": "BKPR",
      "alert": "OK",
      "vis_m": 9999,
      "fzfg": false,
      "metar_trigger": false,
      "taf_trigger": false,
      "metar": "METAR BKPR 082300Z 24003KT 190V260 9999 BKN050 M06/M08 Q1012 NOSIG",
      "taf": ""
    },
    {
      "icao": "EBCI",
      "alert": "OK",
      "vis_m": 4000,
      "fzfg": false,
      "metar_trigger": false,
      "taf_trigger": false,
      "metar": "METAR EBCI 082250Z 18011KT 4000 -RADZ BR SCT004 BKN006 07/06 Q0989 TEMPO 15015G25KT 3000 RA BKN004",
      "taf": "TAF EBCI 081715Z 0818/0924 15010KT 7000 SCT006 BKN016"
    },
    {
      "icao": "EDDB",
      "alert": "OK",
      "vis_m": 9999,
      "fzfg": false,
      "metar_trigger": false,
      "taf_trigger": false,
      "metar": "METAR EDDB 082250Z AUTO 10009KT 9999 OVC019 M04/M07 Q1008 NOSIG",
      "taf": "TAF EDDB 081700Z 0818/0918 11009KT 9999 SCT015 BKN025"
    },
    {
      "icao": "EDDH",
      "alert": "OK",
      "vis_m": 9000,
      "fzfg": false,
      "metar_trigger": false,
      "taf_trigger": false,
      "metar": "METAR EDDH 082250Z AUTO 10009KT 9000 FEW007 M02/M03 Q1003 TEMPO 11013KT BKN007",
      "taf": "TAF EDDH 081700Z 0818/0924 14008KT 3000 -SN OVC004"
    },
    {
      "icao": "EDDK",
      "alert": "OK",
      "vis_m": 9999,
      "fzfg": false,
      "metar_trigger": false,
      "taf_trigger": false,
      "metar": "METAR EDDK 082250Z AUTO 12010KT 100V160 9999 -SHRA FEW010 BKN033 OVC041 FEW///TCU 02/01 Q0995 RESHRA TEMPO RA BKN012",
      "taf": "TAF EDDK 081700Z 0818/0924 13011KT 9999 BKN020"
    },
    {
      "icao": "EDDN",
      "alert": "OK",
      "vis_m": 3100,
      "fzfg": false,
      "metar_trigger": false,
      "taf_trigger": false,
      "metar": "METAR EDDN 082250Z AUTO 13011KT 3100 SN BR BKN008 BKN017 M00/M01 Q1003",
      "taf": ""
    },
    {
      "icao": "EDDS",
      "alert": "OK",
      "vis_m": 9999,
      "fzfg": false,
      "metar_trigger": false,
      "taf_trigger": false,
      "metar": "METAR EDDS 082250Z AUTO VRB01KT 9999 SHRA SCT021 BKN046 FEW///TCU 02/02 Q1000",
      "taf": "TAF EDDS 081700Z 0818/0918 15004KT 9999 BKN015"
    },
    {
      "icao": "EDFH",
      "alert": "OK",
      "vis_m": 9999,
      "fzfg": false,
      "metar_trigger": false,
      "taf_trigger": false,
      "metar": "METAR EDFH 082250Z 15015KT 9999 -RA SCT001 BKN012 OVC027 01/01 Q0995",
      "taf": "TAF EDFH 081700Z 0818/0918 17010KT 3000 BR BKN002"
    },
    {
      "icao": "EDJA",
      "alert": "OK",
      "vis_m": 9999,
      "fzfg": false,
      "metar_trigger": false,
      "taf_trigger": false,
      "metar": "METAR EDJA 082250Z AUTO 22010KT 9999 SCT015/// SCT028/// OVC039/// 02/01 Q1003",
      "taf": "TAF EDJA 081700Z 0818/0903 23015G25KT 9999 SCT007 BKN015"
    },
    {
      "icao": "EDLW",
      "alert": "OK",
      "vis_m": 9999,
      "fzfg": false,
      "metar_trigger": false,
      "taf_trigger": false,
      "metar": "METAR EDLW 082250Z AUTO 11006KT 9999 // FEW022/// BKN040/// OVC051/// 02/00 Q0996",
      "taf": "TAF EDLW 081700Z 0818/0918 14007KT 9999 BKN025"
    },
    {
      "icao": "EDNY",
      "alert": "OK",
      "vis_m": 9999,
      "fzfg": false,
      "metar_trigger": false,
      "taf_trigger": false,
      "metar": "METAR EDNY 082250Z AUTO 09003KT 040V130 9999 // FEW015/// BKN030/// OVC039/// 01/01 Q1004",
      "taf": "TAF EDNY 081700Z 0818/0903 VRB03KT 9999 OVC015"
    },
    {
      "icao": "EDSB",
      "alert": "OK",
      "vis_m": 9999,
      "fzfg": false,
      "metar_trigger": false,
      "taf_trigger": false,
      "metar": "METAR EDSB 082250Z 19016KT 9999 RA BKN034 OVC042 07/06 Q1000",
      "taf": "TAF EDSB 081700Z 0818/0918 20010KT 9999 BKN020"
    },
    {
      "icao": "EETN",
      "alert": "OK",
      "vis_m": 9999,
      "fzfg": false,
      "metar_trigger": false,
      "taf_trigger": false,
      "metar": "METAR EETN 082250Z 09013KT 9999 -SN OVC019 M06/M09 Q1020",
      "taf": "TAF EETN 081730Z 0818/0918 09012KT 9999 BKN015"
    },
    {
      "icao": "EFTU",
      "alert": "OK",
      "vis_m": 9999,
      "fzfg": false,
      "metar_trigger": false,
      "taf_trigger": false,
      "metar": "METAR EFTU 082250Z AUTO 08007KT CAVOK M17/M19 Q1023",
      "taf": "TAF EFTU 082025Z 0821/0921 10005KT 9999 SCT006"
    },
    {
      "icao": "EGBB",
      "alert": "OK",
      "vis_m": 2300,
      "fzfg": false,
      "metar_trigger": false,
      "taf_trigger": false,
      "metar": "METAR EGBB 082250Z 02014KT 2300 -SN OVC003 00/00 Q0982 RESHSN",
      "taf": ""
    },
    {
      "icao": "EGGP",
      "alert": "OK",
      "vis_m": 8000,
      "fzfg": false,
      "metar_trigger": false,
      "taf_trigger": false,
      "metar": "METAR EGGP 082250Z 02012KT 8000 -RA FEW005 OVC010 01/M00 Q0990",
      "taf": "TAF EGGP 081700Z 0818/0918 06012KT 9999 FEW010"
    },
    {
      "icao": "EGGW",
      "alert": "OK",
      "vis_m": 9999,
      "fzfg": false,
      "metar_trigger": false,
      "taf_trigger": false,
      "metar": "METAR EGGW 082250Z AUTO 09009KT 9999 SCT003/// BKN007/// BKN010/// //////CB 05/04 Q0978",
      "taf": ""
    },
    {
      "icao": "EGKK",
      "alert": "OK",
      "vis_m": 8000,
      "fzfg": false,
      "metar_trigger": false,
      "taf_trigger": false,
      "metar": "METAR EGKK 082250Z 14010KT 110V190 8000 -RA SCT016 BKN020 07/05 Q0976 RERA",
      "taf": "TAF EGKK 081704Z 0818/0924 10011KT 9999 SCT010 BKN020"
    },
    {
      "icao": "EGNM",
      "alert": "OK",
      "vis_m": 8000,
      "fzfg": false,
      "metar_trigger": false,
      "taf_trigger": false,
      "metar": "METAR EGNM 082220Z 02014KT 8000 BKN003 01/01 Q0990",
      "taf": "TAF EGNM 081659Z 0818/0918 VRB04KT 9999 FEW010"
    },
    {
      "icao": "EGPD",
      "alert": "OK",
      "vis_m": 9999,
      "fzfg": false,
      "metar_trigger": false,
      "taf_trigger": false,
      "metar": "METAR EGPD 082250Z AUTO VRB01KT 9999 SCT020/// SCT025/// BKN031/// //////TCU M06/M07 Q0997 TEMPO BKN014",
      "taf": "TAF EGPD 081656Z 0818/0918 VRB03KT 9999 SCT020"
    },
    {
      "icao": "EGPF",
      "alert": "OK",
      "vis_m": 8000,
      "fzfg": false,
      "metar_trigger": false,
      "taf_trigger": false,
      "metar": "METAR EGPF 082250Z AUTO VRB01KT 8000 BKN014 OVC025 00/00 Q0997",
      "taf": ""
    },
    {
      "icao": "EHBK",
      "alert": "OK",
      "vis_m": 9999,
      "fzfg": false,
      "metar_trigger": false,
      "taf_trigger": false,
      "metar": "METAR EHBK 082255Z AUTO 14010KT 100V160 9999 -DZ FEW037/// BKN042/// OVC046/// 04/04 Q0991 REDZ",
      "taf": "TAF EHBK 081721Z 0818/0924 15008KT 9999 -RA OVC014"
    },
    {
      "icao": "EHEH",
      "alert": "OK",
      "vis_m": 6000,
      "fzfg": false,
      "metar_trigger": false,
      "taf_trigger": false,
      "metar": "METAR EHEH 082255Z AUTO 10010KT 080V150 6000 -SHRA BKN004 OVC005 02/02 Q0991 YLO RMK TREND REMOTE BY EHWX",
      "taf": ""
    },
    {
      "icao": "EKBI",
      "alert": "OK",
      "vis_m": 9000,
      "fzfg": false,
      "metar_trigger": false,
      "taf_trigger": false,
      "metar": "METAR EKBI 082250Z AUTO 10013KT 9000 OVC007/// M02/M03 Q1005",
      "taf": "TAF EKBI 082027Z 0821/0921 11008KT 6000 BKN006"
    },
    {
      "icao": "EKCH",
      "alert": "OK",
      "vis_m": 9999,
      "fzfg": false,
      "metar_trigger": false,
      "taf_trigger": false,
      "metar": "METAR EKCH 082250Z AUTO 13020KT 9999 BKN020/// M01/M05 Q1010 TEMPO 12015G28KT",
      "taf": ""
    },
    {
      "icao": "ENAL",
      "alert": "OK",
      "vis_m": 9999,
      "fzfg": false,
      "metar_trigger": false,
      "taf_trigger": false,
      "metar": "METAR ENAL 082250Z AUTO 15013KT 9999 NCD M02/M06 Q1006",
      "taf": "TAF ENAL 082000Z 0821/0906 20010KT 9999 -SN SCT010 BKN020"
    },
    {
      "icao": "ENBR",
      "alert": "OK",
      "vis_m": 9999,
      "fzfg": false,
      "metar_trigger": false,
      "taf_trigger": false,
      "metar": "METAR ENBR 082250Z VRB02KT CAVOK M07/M14 Q1005 RMK WIND 1200FT 11012KT",
      "taf": "TAF ENBR 081700Z 0818/0918 08005KT CAVOK"
    },
    {
      "icao": "ENGM",
      "alert": "OK",
      "vis_m": 7000,
      "fzfg": false,
      "metar_trigger": false,
      "taf_trigger": false,
      "metar": "METAR ENGM 082250Z 34005KT 7000 -SN OVC010 M13/M15 Q1012",
      "taf": ""
    },
    {
      "icao": "ENHD",
      "alert": "OK",
      "vis_m": 9999,
      "fzfg": false,
      "metar_trigger": false,
      "taf_trigger": false,
      "metar": "METAR ENHD 082250Z AUTO 11013KT 9999 NCD 00/M07 Q1005",
      "taf": "TAF ENHD 081400Z 0815/0823 09007KT CAVOK"
    },
    {
      "icao": "ENTC",
      "alert": "OK",
      "vis_m": 9999,
      "fzfg": false,
      "metar_trigger": false,
      "taf_trigger": false,
      "metar": "METAR ENTC 082250Z 00000KT CAVOK M10/M17 Q1024 RMK WIND 2600FT 18027KT",
      "taf": "TAF ENTC 081700Z 0818/0918 VRB03KT CAVOK"
    },
    {
      "icao": "ENTO",
      "alert": "OK",
      "vis_m": 9999,
      "fzfg": false,
      "metar_trigger": false,
      "taf_trigger": false,
      "metar": "METAR ENTO 082250Z AUTO 01011KT 9999 -SN OVC006/// M08/M10 Q1011",
      "taf": "TAF ENTO 081700Z 0818/0918 35010KT 9999 BKN015"
    },
    {
      "icao": "ENVA",
      "alert": "OK",
      "vis_m": 9999,
      "fzfg": false,
      "metar_trigger": false,
      "taf_trigger": false,
      "metar": "METAR ENVA 082250Z 15012KT 9999 FEW030 SCT036 BKN054 M05/M11 Q1007 RMK WIND 670FT 17018KT",
      "taf": "TAF ENVA 081700Z 0818/0918 14010KT 9999 SCT050"
    },
    {
      "icao": "ENZV",
      "alert": "OK",
      "vis_m": 9999,
      "fzfg": false,
      "metar_trigger": false,
      "taf_trigger": false,
      "metar": "METAR ENZV 082250Z 13008KT CAVOK M00/M05 Q1005",
      "taf": "TAF ENZV 081700Z 0818/0918 10008KT CAVOK"
    },
    {
      "icao": "EPGD",
      "alert": "OK",
      "vis_m": 9999,
      "fzfg": false,
      "metar_trigger": false,
      "taf_trigger": false,
      "metar": "METAR EPGD 082300Z 04006KT 360V070 9999 BKN006 M05/M06 Q1011",
      "taf": ""
    },
    {
      "icao": "EPKK",
      "alert": "OK",
      "vis_m": 9999,
      "fzfg": false,
      "metar_trigger": false,
      "taf_trigger": false,
      "metar": "METAR EPKK 082300Z 27008KT 9999 BKN012 M06/M09 Q1009",
      "taf": "TAF EPKK 082030Z 0821/0921 26010KT 9999 BKN020"
    },
    {
      "icao": "EPKT",
      "alert": "OK",
      "vis_m": 9999,
      "fzfg": false,
      "metar_trigger": false,
      "taf_trigger": false,
      "metar": "METAR EPKT 082300Z 28009KT 9999 -SN OVC006 M07/M08 Q1009",
      "taf": "TAF EPKT 081730Z 0818/0918 32004KT 7000 OVC005"
    },
    {
      "icao": "EPLB",
      "alert": "OK",
      "vis_m": 7000,
      "fzfg": false,
      "metar_trigger": false,
      "taf_trigger": false,
      "metar": "METAR EPLB 082300Z 31014KT 7000 -SN DRSN OVC008 M08/M09 Q1003",
      "taf": ""
    },
    {
      "icao": "EPMO",
      "alert": "OK",
      "vis_m": 6000,
      "fzfg": false,
      "metar_trigger": false,
      "taf_trigger": false,
      "metar": "METAR EPMO 082300Z 33008KT 310V020 6000 OVC007 M09/M09 Q1008",
      "taf": ""
    },
    {
      "icao": "EPPO",
      "alert": "OK",
      "vis_m": 2700,
      "fzfg": false,
      "metar_trigger": false,
      "taf_trigger": false,
      "metar": "METAR EPPO 082300Z VRB02KT 2700 BR OVC001 M13/M15 Q1011",
      "taf": "TAF EPPO 081730Z 0818/0918 07003KT 3300 BR OVC005"
    },
    {
      "icao": "EPRA",
      "alert": "OK",
      "vis_m": 8000,
      "fzfg": false,
      "metar_trigger": false,
      "taf_trigger": false,
      "metar": "METAR EPRA 082300Z 31010KT 280V340 8000 OVC006 M09/M10 Q1007",
      "taf": "TAF EPRA 082030Z 0821/0906 33010KT 6000 OVC006"
    },
    {
      "icao": "EPRZ",
      "alert": "OK",
      "vis_m": 9999,
      "fzfg": false,
      "metar_trigger": false,
      "taf_trigger": false,
      "metar": "METAR EPRZ 082300Z 28014KT 9999 -SN OVC010 M07/M09 Q1005",
      "taf": "TAF EPRZ 081730Z 0818/0918 31012KT 3000 -SN BR FEW010 BKN015"
    },
    {
      "icao": "EPSC",
      "alert": "OK",
      "vis_m": 4700,
      "fzfg": false,
      "metar_trigger": false,
      "taf_trigger": false,
      "metar": "METAR EPSC 082300Z 10005KT 4700 BR OVC003 M09/M10 Q1011",
      "taf": ""
    },
    {
      "icao": "EPSY",
      "alert": "OK",
      "vis_m": 9999,
      "fzfg": false,
      "metar_trigger": false,
      "taf_trigger": false,
      "metar": "METAR EPSY 082300Z 36009KT 9999 BKN006 M09/M10 Q1009",
      "taf": "TAF EPSY 082030Z 0821/0906 01010KT 8000 OVC005"
    },
    {
      "icao": "EPWA",
      "alert": "OK",
      "vis_m": 9000,
      "fzfg": false,
      "metar_trigger": false,
      "taf_trigger": false,
      "metar": "METAR EPWA 082300Z 30013KT 9000 OVC007 M08/M09 Q1008 NOSIG",
      "taf": "TAF EPWA 082030Z 0821/0921 34008KT 6000 BKN007 OVC012"
    },
    {
      "icao": "EPWR",
      "alert": "OK",
      "vis_m": 4000,
      "fzfg": false,
      "metar_trigger": false,
      "taf_trigger": false,
      "metar": "METAR EPWR 082300Z 12003KT 4000 BR NSC M11/M12 Q1010",
      "taf": ""
    },
    {
      "icao": "ESGG",
      "alert": "OK",
      "vis_m": 9999,
      "fzfg": false,
      "metar_trigger": false,
      "taf_trigger": false,
      "metar": "METAR ESGG 082250Z 11008KT CAVOK M07/M08 Q1011",
      "taf": "TAF ESGG 082030Z 0821/0921 13007KT CAVOK"
    },
    {
      "icao": "ESKN",
      "alert": "OK",
      "vis_m": 9999,
      "fzfg": false,
      "metar_trigger": false,
      "taf_trigger": false,
      "metar": "METAR ESKN 082250Z 09004KT 9999 SCT032 OVC045 M02/M06 Q1016",
      "taf": "TAF ESKN 082030Z 0821/0921 VRB03KT 9999 BKN030"
    },
    {
      "icao": "ESMS",
      "alert": "OK",
      "vis_m": 9999,
      "fzfg": false,
      "metar_trigger": false,
      "taf_trigger": false,
      "metar": "METAR ESMS 082250Z 12013KT 9999 BKN027 M01/M06 Q1010",
      "taf": "TAF ESMS 082027Z 0821/0921 10009KT 9999 BKN020"
    },
    {
      "icao": "ESSA",
      "alert": "OK",
      "vis_m": 9999,
      "fzfg": false,
      "metar_trigger": false,
      "taf_trigger": false,
      "metar": "METAR ESSA 082250Z 12004KT 9999 -SN BKN033 OVC040 M03/M05 Q1017 NOSIG",
      "taf": ""
    },
    {
      "icao": "EYKA",
      "alert": "OK",
      "vis_m": 9999,
      "fzfg": false,
      "metar_trigger": false,
      "taf_trigger": false,
      "metar": "METAR EYKA 082250Z 36010KT 330V040 9999 FEW015 M09/M12 Q1010",
      "taf": "TAF EYKA 082300Z 0900/0924 02013KT 9000 SCT015"
    },
    {
      "icao": "EYPA",
      "alert": "OK",
      "vis_m": 9999,
      "fzfg": false,
      "metar_trigger": false,
      "taf_trigger": false,
      "metar": "METAR EYPA 082250Z 03007KT CAVOK M12/M14 Q1015",
      "taf": "TAF EYPA 082300Z 0900/0924 02010KT 9000 NSC"
    },
    {
      "icao": "EYVI",
      "alert": "OK",
      "vis_m": 1600,
      "fzfg": false,
      "metar_trigger": false,
      "taf_trigger": false,
      "metar": "METAR EYVI 082250Z 36019KT 1600 SN BLSN OVC026 M10/M12 Q1005 NOSIG",
      "taf": "TAF EYVI 082300Z 0900/0924 02015G25KT 1500 SN BLSN OVC020"
    },
    {
      "icao": "GCFV",
      "alert": "OK",
      "vis_m": 9999,
      "fzfg": false,
      "metar_trigger": false,
      "taf_trigger": false,
      "metar": "METAR GCFV 082300Z 31007KT 9999 FEW035 15/09 Q1031",
      "taf": "TAF GCFV 082000Z 0821/0921 34005KT 9999 FEW030 TX20/0914Z TN14/0906Z"
    },
    {
      "icao": "GCLP",
      "alert": "OK",
      "vis_m": 9999,
      "fzfg": false,
      "metar_trigger": false,
      "taf_trigger": false,
      "metar": "METAR GCLP 082300Z 34009KT 9999 FEW035 17/10 Q1031 NOSIG",
      "taf": "TAF GCLP 082000Z 0821/0921 33008KT 9999 SCT035 TX20/0914Z TN14/0906Z"
    },
    {
      "icao": "GCTS",
      "alert": "OK",
      "vis_m": 9999,
      "fzfg": false,
      "metar_trigger": false,
      "taf_trigger": false,
      "metar": "METAR GCTS 082300Z 06012KT 9999 FEW030 17/11 Q1030 NOSIG",
      "taf": "TAF GCTS 082000Z 0821/0921 07015KT 9999 FEW030 TX22/0914Z TN15/0906Z"
    },
    {
      "icao": "GMAD",
      "alert": "OK",
      "vis_m": 9999,
      "fzfg": false,
      "metar_trigger": false,
      "taf_trigger": false,
      "metar": "METAR GMAD 082300Z 02003KT CAVOK 10/08 Q1031 NOSIG",
      "taf": "TAF GMAD 081700Z 0818/0924 18006KT CAVOK"
    },
    {
      "icao": "GMMN",
      "alert": "OK",
      "vis_m": 3000,
      "fzfg": false,
      "metar_trigger": false,
      "taf_trigger": false,
      "metar": "METAR GMMN 082300Z 15004KT 110V170 3000 BR NSC 08/07 Q1032 NOSIG",
      "taf": "TAF GMMN 081700Z 0818/0924 02008KT CAVOK"
    },
    {
      "icao": "GMMX",
      "alert": "OK",
      "vis_m": 9999,
      "fzfg": false,
      "metar_trigger": false,
      "taf_trigger": false,
      "metar": "METAR GMMX 082300Z 01004KT CAVOK 10/06 Q1031 NOSIG",
      "taf": "TAF GMMX 081700Z 0818/0924 06006KT 8000 NSC"
    },
    {
      "icao": "HEGN",
      "alert": "OK",
      "vis_m": 9999,
      "fzfg": false,
      "metar_trigger": false,
      "taf_trigger": false,
      "metar": "METAR HEGN 082200Z 32001KT CAVOK 18/10 Q1015 NOSIG",
      "taf": "TAF HEGN 082300Z 0900/1006 28008KT CAVOK"
    },
    {
      "icao": "HEMA",
      "alert": "OK",
      "vis_m": 6000,
      "fzfg": false,
      "metar_trigger": false,
      "taf_trigger": false,
      "metar": "METAR HEMA 082200Z 27002KT 6000 NSC 18/16 Q1016 NOSIG",
      "taf": "TAF HEMA 082300Z 0900/1006 27009KT 6000 NSC"
    },
    {
      "icao": "HESH",
      "alert": "OK",
      "vis_m": 9999,
      "fzfg": false,
      "metar_trigger": false,
      "taf_trigger": false,
      "metar": "METAR HESH 082200Z 00000KT CAVOK 20/14 Q1016 NOSIG",
      "taf": "TAF HESH 082300Z 0900/1006 28007KT CAVOK"
    },
    {
      "icao": "HESX",
      "alert": "OK",
      "vis_m": 9999,
      "fzfg": false,
      "metar_trigger": false,
      "taf_trigger": false,
      "metar": "METAR HESX 082200Z 27005KT CAVOK 16/05 Q1016 NOSIG",
      "taf": "TAF HESX 082300Z 0900/1006 27008KT 6000 SCT025"
    },
    {
      "icao": "LATI",
      "alert": "OK",
      "vis_m": 9999,
      "fzfg": false,
      "metar_trigger": false,
      "taf_trigger": false,
      "metar": "METAR LATI 082250Z 16003KT CAVOK 01/M02 Q1017 NOSIG",
      "taf": "TAF LATI 082300Z 0900/0924 VRB05KT CAVOK TX14/0924Z TNM02/0903Z"
    },
    {
      "icao": "LBPD",
      "alert": "OK",
      "vis_m": 9999,
      "fzfg": false,
      "metar_trigger": false,
      "taf_trigger": false,
      "metar": "METAR LBPD 082300Z AUTO 28019KT 9999 NCD M02/M09 Q1008",
      "taf": "TAF LBPD 081700Z 0818/0918 29020G30KT 9999 SCT050"
    },
    {
      "icao": "LBSF",
      "alert": "OK",
      "vis_m": 9999,
      "fzfg": false,
      "metar_trigger": false,
      "taf_trigger": false,
      "metar": "METAR LBSF 082300Z AUTO 29015KT 9999 NCD M05/M11 Q1009 TEMPO 29022G34KT",
      "taf": ""
    },
    {
      "icao": "LBWN",
      "alert": "OK",
      "vis_m": 9999,
      "fzfg": false,
      "metar_trigger": false,
      "taf_trigger": false,
      "metar": "METAR LBWN 082300Z AUTO 28023KT 9999 OVC026/// M02/M06 Q1005 NOSIG",
      "taf": "TAF LBWN 081700Z 0818/0918 28030G40KT 9999 BKN020 OVC040"
    },
    {
      "icao": "LCLK",
      "alert": "OK",
      "vis_m": 9999,
      "fzfg": false,
      "metar_trigger": false,
      "taf_trigger": false,
      "metar": "METAR LCLK 082300Z 26005KT 220V290 9999 -RA FEW003 SCT025 BKN050 16/15 Q1008 TEMPO 5000 RA BKN009",
      "taf": "TAF LCLK 081730Z 0818/0918 22009KT 9999 FEW025"
    },
    {
      "icao": "LCPH",
      "alert": "OK",
      "vis_m": 9999,
      "fzfg": false,
      "metar_trigger": false,
      "taf_trigger": false,
      "metar": "METAR LCPH 082300Z 32016KT 9999 FEW035 BKN050 16/11 Q1010 NOSIG",
      "taf": "TAF LCPH 081730Z 0818/0918 09007KT 9999 SCT020 BKN035"
    },
    {
      "icao": "LEAL",
      "alert": "OK",
      "vis_m": 9999,
      "fzfg": false,
      "metar_trigger": false,
      "taf_trigger": false,
      "metar": "METAR LEAL 082300Z 25003KT 200V300 CAVOK 11/04 Q1025 NOSIG",
      "taf": ""
    },
    {
      "icao": "LEBB",
      "alert": "OK",
      "vis_m": 6000,
      "fzfg": false,
      "metar_trigger": false,
      "taf_trigger": false,
      "metar": "METAR LEBB 082300Z 27009G26KT 180V340 6000 RA SCT022 BKN040 12/10 Q1018 NOSIG",
      "taf": ""
    },
    {
      "icao": "LEBL",
      "alert": "OK",
      "vis_m": 9999,
      "fzfg": false,
      "metar_trigger": false,
      "taf_trigger": false,
      "metar": "METAR LEBL 082300Z 27019KT 9999 FEW025 13/04 Q1017 NOSIG",
      "taf": "TAF LEBL 081700Z 0818/0918 33009KT 9999 FEW020 TX16/0913Z TN09/0906Z"
    },
    {
      "icao": "LECH",
      "alert": "OK",
      "vis_m": 9000,
      "fzfg": false,
      "metar_trigger": false,
      "taf_trigger": false,
      "metar": "METAR LECH 082300Z AUTO VRB02KT 9000 NSC 09/03 Q1019",
      "taf": ""
    },
    {
      "icao": "LEMD",
      "alert": "OK",
      "vis_m": 9999,
      "fzfg": false,
      "metar_trigger": false,
      "taf_trigger": false,
      "metar": "METAR LEMD 082300Z 21010KT 9999 OVC008 05/05 Q1026 NOSIG",
      "taf": "TAF LEMD 081700Z 0818/0924 23010KT 6000 BKN005 TX11/0915Z TN05/0906Z"
    },
    {
      "icao": "LEMG",
      "alert": "OK",
      "vis_m": 9999,
      "fzfg": false,
      "metar_trigger": false,
      "taf_trigger": false,
      "metar": "METAR LEMG 082300Z 29019G29KT 260V320 CAVOK 10/05 Q1029 NOSIG",
      "taf": "TAF LEMG 081700Z 0818/0918 29012KT CAVOK TX18/0914Z TN08/0906Z"
    },
    {
      "icao": "LEVC",
      "alert": "OK",
      "vis_m": 9999,
      "fzfg": false,
      "metar_trigger": false,
      "taf_trigger": false,
      "metar": "METAR LEVC 082300Z 30015KT CAVOK 11/03 Q1024 NOSIG",
      "taf": ""
    },
    {
      "icao": "LEXJ",
      "alert": "OK",
      "vis_m": 8000,
      "fzfg": false,
      "metar_trigger": false,
      "taf_trigger": false,
      "metar": "METAR LEXJ 082300Z AUTO 27016KT 240V310 8000 3800E -RA SCT047 BKN055 OVC070 12/09 Q1017",
      "taf": "TAF LEXJ 082000Z 0821/0921 24009KT 9999 FEW020 SCT030 TX15/0821Z TN08/0912Z"
    },
    {
      "icao": "LEZG",
      "alert": "OK",
      "vis_m": 9999,
      "fzfg": false,
      "metar_trigger": false,
      "taf_trigger": false,
      "metar": "METAR LEZG 082300Z 23022KT CAVOK 10/03 Q1020 NOSIG",
      "taf": "TAF LEZG 081700Z 0818/0918 24020KT CAVOK TX14/0915Z TN05/0906Z"
    },
    {
      "icao": "LEZL",
      "alert": "OK",
      "vis_m": 9999,
      "fzfg": false,
      "metar_trigger": false,
      "taf_trigger": false,
      "metar": "METAR LEZL 082300Z 28001KT 9999 SCT025 10/08 Q1032 NOSIG",
      "taf": "TAF LEZL 082000Z 0821/0921 VRB03KT 9999 SCT020 TX16/0915Z TN09/0907Z"
    },
    {
      "icao": "LFBD",
      "alert": "OK",
      "vis_m": 9999,
      "fzfg": false,
      "metar_trigger": false,
      "taf_trigger": false,
      "metar": "METAR LFBD 082300Z AUTO 26013KT 9999 FEW016 BKN024 BKN029 11/10 Q1011 TEMPO 28030G55KT 2000 TSRA BKN010 BKN015CB",
      "taf": ""
    },
    {
      "icao": "LFLL",
      "alert": "OK",
      "vis_m": 9999,
      "fzfg": false,
      "metar_trigger": false,
      "taf_trigger": false,
      "metar": "METAR LFLL 082300Z AUTO 18017KT 9999 -RA ///TCU 08/06 Q1007",
      "taf": "TAF LFLL 081700Z 0818/0924 18015G25KT 9999 BKN045"
    },
    {
      "icao": "LFLS",
      "alert": "OK",
      "vis_m": 9999,
      "fzfg": false,
      "metar_trigger": false,
      "taf_trigger": false,
      "metar": "METAR LFLS 082300Z AUTO VRB03KT 9999 OVC058 05/04 Q1009",
      "taf": ""
    },
    {
      "icao": "LFMN",
      "alert": "OK",
      "vis_m": 9999,
      "fzfg": false,
      "metar_trigger": false,
      "taf_trigger": false,
      "metar": "METAR LFMN 082300Z 34007KT CAVOK 07/02 Q1009 WS R04 NOSIG",
      "taf": "TAF LFMN 082000Z 0821/1003 33010KT CAVOK"
    },
    {
      "icao": "LFOB",
      "alert": "OK",
      "vis_m": 9999,
      "fzfg": false,
      "metar_trigger": false,
      "taf_trigger": false,
      "metar": "METAR LFOB 082300Z AUTO 21019KT 190V250 9999 FEW034 SCT040 BKN054 09/06 Q0988 TEMPO 22030G50KT 4000 SHRA BKN012TCU",
      "taf": ""
    },
    {
      "icao": "LFPO",
      "alert": "OK",
      "vis_m": 9999,
      "fzfg": false,
      "metar_trigger": false,
      "taf_trigger": false,
      "metar": "METAR LFPO 082300Z 23021G33KT CAVOK 10/05 Q0992 BECMG 24030G50KT",
      "taf": ""
    },
    {
      "icao": "LFSB",
      "alert": "OK",
      "vis_m": 9999,
      "fzfg": false,
      "metar_trigger": false,
      "taf_trigger": false,
      "metar": "METAR LFSB 082300Z AUTO 12009KT 9999 -RA FEW043/// SCT049/// BKN060/// ///TCU 05/04 Q1002 BECMG 23020G30KT SCT020 BKN035",
      "taf": ""
    },
    {
      "icao": "LGAV",
      "alert": "OK",
      "vis_m": 9999,
      "fzfg": false,
      "metar_trigger": false,
      "taf_trigger": false,
      "metar": "METAR LGAV 082250Z 27012G24KT 9999 FEW025 10/M00 Q1011 NOSIG",
      "taf": "TAF LGAV 081700Z 0818/0918 28020KT 9999 FEW025"
    },
    {
      "icao": "LGTS",
      "alert": "OK",
      "vis_m": 9999,
      "fzfg": false,
      "metar_trigger": false,
      "taf_trigger": false,
      "metar": "METAR LGTS 082250Z 32023G33KT 9999 FEW025 05/M07 Q1012 NOSIG",
      "taf": ""
    },
    {
      "icao": "LHBP",
      "alert": "OK",
      "vis_m": 9999,
      "fzfg": false,
      "metar_trigger": false,
      "taf_trigger": false,
      "metar": "METAR LHBP 082300Z 33009KT CAVOK M08/M11 Q1009 NOSIG",
      "taf": "TAF LHBP 081715Z 0818/0918 30012KT CAVOK"
    },
    {
      "icao": "LHDC",
      "alert": "OK",
      "vis_m": 9000,
      "fzfg": false,
      "metar_trigger": false,
      "taf_trigger": false,
      "metar": "METAR LHDC 082245Z AUTO 20005KT 9000 NSC M08/M10 Q1008",
      "taf": "TAF LHDC 081415Z 0815/0824 25005KT 7000 NSC"
    },
    {
      "icao": "LIBD",
      "alert": "OK",
      "vis_m": 9999,
      "fzfg": false,
      "metar_trigger": false,
      "taf_trigger": false,
      "metar": "METAR LIBD 082250Z 21007KT CAVOK 01/M03 Q1016",
      "taf": "TAF LIBD 081700Z 0818/0918 28012KT 9999 FEW020"
    },
    {
      "icao": "LIBG",
      "alert": "OK",
      "vis_m": null,
      "fzfg": false,
      "metar_trigger": false,
      "taf_trigger": false,
      "metar": "",
      "taf": "TAF LIBG 081700Z 0818/0903 32008KT 9999 FEW040"
    },
    {
      "icao": "LIBP",
      "alert": "OK",
      "vis_m": 9999,
      "fzfg": false,
      "metar_trigger": false,
      "taf_trigger": false,
      "metar": "METAR LIBP 082250Z AUTO VRB02KT 9999 NCD M00/M02 Q1013",
      "taf": "TAF LIBP 081700Z 0818/0918 VRB05KT 9999 FEW030"
    },
    {
      "icao": "LIBR",
      "alert": "OK",
      "vis_m": 9999,
      "fzfg": false,
      "metar_trigger": false,
      "taf_trigger": false,
      "metar": "METAR LIBR 082250Z 24007KT CAVOK 04/M00 Q1017",
      "taf": "TAF LIBR 081700Z 0818/0918 30018KT 9999 FEW040"
    },
    {
      "icao": "LICA",
      "alert": "OK",
      "vis_m": 9999,
      "fzfg": false,
      "metar_trigger": false,
      "taf_trigger": false,
      "metar": "METAR LICA 082250Z AUTO 25010KT 9999 -RA OVC037/// 10/08 Q1019",
      "taf": "TAF LICA 081700Z 0818/0918 28018G28KT 9999 BKN030"
    },
    {
      "icao": "LICC",
      "alert": "OK",
      "vis_m": 9999,
      "fzfg": false,
      "metar_trigger": false,
      "taf_trigger": false,
      "metar": "METAR LICC 082250Z 28012KT 9999 FEW050 11/07 Q1019",
      "taf": "TAF LICC 081700Z 0818/0918 28020G30KT 9999 SCT040"
    },
    {
      "icao": "LICJ",
      "alert": "OK",
      "vis_m": 9999,
      "fzfg": false,
      "metar_trigger": false,
      "taf_trigger": false,
      "metar": "METAR LICJ 082250Z 26023KT 9999 SCT020 16/12 Q1021",
      "taf": "TAF LICJ 081700Z 0818/0918 29025G35KT 9999 BKN030"
    },
    {
      "icao": "LIMC",
      "alert": "OK",
      "vis_m": 9999,
      "fzfg": false,
      "metar_trigger": false,
      "taf_trigger": false,
      "metar": "METAR LIMC 082250Z 02004KT 9999 SCT028 SCT045 M01/M04 Q1010 NOSIG",
      "taf": "TAF LIMC 081700Z 0818/0924 VRB04KT 9999 SCT050"
    },
    {
      "icao": "LIME",
      "alert": "OK",
      "vis_m": 9999,
      "fzfg": false,
      "metar_trigger": false,
      "taf_trigger": false,
      "metar": "METAR LIME 082250Z 04004KT 9999 SCT060 M02/M04 Q1011 NOSIG",
      "taf": "TAF LIME 081700Z 0818/0918 VRB04KT 9999 SCT050"
    },
    {
      "icao": "LIMF",
      "alert": "OK",
      "vis_m": 9999,
      "fzfg": false,
      "metar_trigger": false,
      "taf_trigger": false,
      "metar": "METAR LIMF 082250Z AUTO 30002KT 9999 BKN032/// 00/M05 Q1010",
      "taf": "TAF LIMF 081700Z 0818/0918 VRB03KT 9000 FEW050"
    },
    {
      "icao": "LIMJ",
      "alert": "OK",
      "vis_m": 9999,
      "fzfg": false,
      "metar_trigger": false,
      "taf_trigger": false,
      "metar": "METAR LIMJ 082250Z 01003KT 9999 FEW026 BKN032 08/02 Q1010",
      "taf": ""
    },
    {
      "icao": "LIPE",
      "alert": "OK",
      "vis_m": 9999,
      "fzfg": false,
      "metar_trigger": false,
      "taf_trigger": false,
      "metar": "METAR LIPE 082250Z 02003KT 320V060 9999 SCT030 M02/M04 Q1012",
      "taf": "TAF LIPE 081700Z 0818/0918 VRB05KT CAVOK"
    },
    {
      "icao": "LIPH",
      "alert": "OK",
      "vis_m": 9999,
      "fzfg": false,
      "metar_trigger": false,
      "taf_trigger": false,
      "metar": "METAR LIPH 082250Z AUTO VRB01KT 9999 NCD M03/M06 Q1012",
      "taf": "TAF LIPH 081700Z 0818/0918 VRB05KT CAVOK"
    },
    {
      "icao": "LIPQ",
      "alert": "OK",
      "vis_m": 9999,
      "fzfg": false,
      "metar_trigger": false,
      "taf_trigger": false,
      "metar": "METAR LIPQ 082250Z AUTO 07003KT 9999 FEW026/// M00/M04 Q1012",
      "taf": "TAF LIPQ 081700Z 0818/0918 VRB05KT CAVOK"
    },
    {
      "icao": "LIPR",
      "alert": "OK",
      "vis_m": 9999,
      "fzfg": false,
      "metar_trigger": false,
      "taf_trigger": false,
      "metar": "METAR LIPR 082250Z AUTO 23002KT 9999 BKN039/// M00/M02 Q1011",
      "taf": "TAF LIPR 081700Z 0818/0918 VRB05KT CAVOK"
    },
    {
      "icao": "LIPX",
      "alert": "OK",
      "vis_m": 7000,
      "fzfg": false,
      "metar_trigger": false,
      "taf_trigger": false,
      "metar": "METAR LIPX 082250Z VRB02KT 7000 NSC M03/M04 Q1012",
      "taf": "TAF LIPX 081700Z 0818/0918 VRB05KT 8000 FEW020"
    },
    {
      "icao": "LIPY",
      "alert": "OK",
      "vis_m": 9999,
      "fzfg": false,
      "metar_trigger": false,
      "taf_trigger": false,
      "metar": "METAR LIPY 082250Z AUTO 22005KT 150V240 9999 BKN039/// BKN210/// 03/M01 Q1011",
      "taf": "TAF LIPY 081700Z 0818/0918 VRB05KT 9999 SCT030"
    },
    {
      "icao": "LIPZ",
      "alert": "OK",
      "vis_m": 9999,
      "fzfg": false,
      "metar_trigger": false,
      "taf_trigger": false,
      "metar": "METAR LIPZ 082250Z 03004KT CAVOK M02/M06 Q1012 NOSIG",
      "taf": "TAF LIPZ 081700Z 0818/0924 VRB05KT CAVOK"
    },
    {
      "icao": "LIRF",
      "alert": "OK",
      "vis_m": 9999,
      "fzfg": false,
      "metar_trigger": false,
      "taf_trigger": false,
      "metar": "METAR LIRF 082250Z 13009KT 9999 BKN020 09/02 Q1014 NOSIG",
      "taf": "TAF LIRF 081700Z 0818/0924 08006KT 9999 SCT045"
    },
    {
      "icao": "LIRN",
      "alert": "OK",
      "vis_m": 9999,
      "fzfg": false,
      "metar_trigger": false,
      "taf_trigger": false,
      "metar": "METAR LIRN 082250Z VRB03KT 9999 -RA SCT030 08/05 Q1016 NOSIG",
      "taf": "TAF LIRN 081700Z 0818/0918 VRB05KT 9999 SCT040"
    },
    {
      "icao": "LIRP",
      "alert": "OK",
      "vis_m": 9999,
      "fzfg": false,
      "metar_trigger": false,
      "taf_trigger": false,
      "metar": "METAR LIRP 082245Z 13011KT 9999 SCT025 SCT030 06/06 Q1011 TEMPO 10015G25KT",
      "taf": "TAF LIRP 081700Z 0818/0918 11010KT 9999 SCT030 BKN040"
    },
    {
      "icao": "LIRZ",
      "alert": "OK",
      "vis_m": 9999,
      "fzfg": false,
      "metar_trigger": false,
      "taf_trigger": false,
      "metar": "METAR LIRZ 082250Z AUTO 26005KT 9999 -DZ OVC030/// 02/02 Q1013",
      "taf": "TAF LIRZ 081700Z 0818/0918 VRB05KT 9999 BKN025"
    },
    {
      "icao": "LJLJ",
      "alert": "OK",
      "vis_m": 9999,
      "fzfg": false,
      "metar_trigger": false,
      "taf_trigger": false,
      "metar": "METAR LJLJ 082300Z 30004KT 250V320 CAVOK M13/M15 Q1010 NOSIG",
      "taf": "TAF LJLJ 082300Z 0900/1000 VRB02KT 9999 FEW002"
    },
    {
      "icao": "LKMT",
      "alert": "OK",
      "vis_m": 4500,
      "fzfg": false,
      "metar_trigger": false,
      "taf_trigger": false,
      "metar": "METAR LKMT 082300Z VRB02KT 4500 BR NSC M09/M10 Q1010 NOSIG",
      "taf": "TAF LKMT 081700Z 0818/0918 VRB02KT 9999 BKN025"
    },
    {
      "icao": "LKPR",
      "alert": "OK",
      "vis_m": 9999,
      "fzfg": false,
      "metar_trigger": false,
      "taf_trigger": false,
      "metar": "METAR LKPR 082300Z 08005KT 9999 OVC017 M04/M06 Q1007 NOSIG",
      "taf": "TAF LKPR 082000Z 0821/1003 11006KT 9000 OVC014"
    },
    {
      "icao": "LLBG",
      "alert": "OK",
      "vis_m": 9999,
      "fzfg": false,
      "metar_trigger": false,
      "taf_trigger": false,
      "metar": "METAR LLBG 082250Z 17006KT CAVOK 18/09 Q1013 NOSIG",
      "taf": "TAF LLBG 082306Z 0900/0924 20012KT 9999 SCT030"
    },
    {
      "icao": "LMML",
      "alert": "OK",
      "vis_m": 9999,
      "fzfg": false,
      "metar_trigger": false,
      "taf_trigger": false,
      "metar": "METAR LMML 082245Z 27022KT 9999 FEW022 SCT038 14/11 Q1023 NOSIG",
      "taf": "TAF LMML 082300Z 0900/0924 27018KT 9999 FEW025"
    },
    {
      "icao": "LOWW",
      "alert": "OK",
      "vis_m": 9999,
      "fzfg": false,
      "metar_trigger": false,
      "taf_trigger": false,
      "metar": "METAR LOWW 082250Z VRB01KT 9999 FEW028 M07/M10 Q1010 NOSIG",
      "taf": "TAF LOWW 082015Z 0821/1003 VRB03KT 9999 SCT030 TXM03/0821Z TNM06/0909Z"
    },
    {
      "icao": "LPFR",
      "alert": "OK",
      "vis_m": 9999,
      "fzfg": false,
      "metar_trigger": false,
      "taf_trigger": false,
      "metar": "METAR LPFR 082300Z 02002KT 9999 BKN026 10/09 Q1032",
      "taf": "TAF LPFR 081700Z 0818/0918 VRB05KT 9999 FEW018"
    },
    {
      "icao": "LPMA",
      "alert": "OK",
      "vis_m": 9999,
      "fzfg": false,
      "metar_trigger": false,
      "taf_trigger": false,
      "metar": "METAR LPMA 082300Z 01007KT 330V030 9999 SCT015 16/11 Q1034",
      "taf": "TAF LPMA 081700Z 0818/0918 02010KT 9999 SCT015"
    },
    {
      "icao": "LPPR",
      "alert": "OK",
      "vis_m": 5000,
      "fzfg": false,
      "metar_trigger": false,
      "taf_trigger": false,
      "metar": "METAR LPPR 082300Z 23012KT 5000 RADZ FEW001 BKN002 14/13 Q1025",
      "taf": "TAF LPPR 081700Z 0818/0918 22015KT 9999 SCT004 BKN016"
    },
    {
      "icao": "LPPS",
      "alert": "OK",
      "vis_m": 9999,
      "fzfg": false,
      "metar_trigger": false,
      "taf_trigger": false,
      "metar": "METAR LPPS 082300Z 02004KT 350V050 9999 FEW014 14/10 Q1034",
      "taf": "TAF LPPS 081700Z 0818/0924 03010KT 9999 SCT015"
    },
    {
      "icao": "LPPT",
      "alert": "OK",
      "vis_m": 9000,
      "fzfg": false,
      "metar_trigger": false,
      "taf_trigger": false,
      "metar": "METAR LPPT 082300Z 23007KT 9000 -RADZ SCT005 SCT038 12/12 Q1030",
      "taf": "TAF LPPT 081700Z 0818/0924 25008KT 9999 SCT012 BKN018"
    },
    {
      "icao": "LQBK",
      "alert": "OK",
      "vis_m": 9999,
      "fzfg": false,
      "metar_trigger": false,
      "taf_trigger": false,
      "metar": "METAR LQBK 082300Z 15007KT 120V210 CAVOK M09/M10 Q1012 NOSIG",
      "taf": "TAF LQBK 082300Z 0900/0924 15005KT CAVOK TX01/0913Z TNM11/0902Z"
    },
    {
      "icao": "LQSA",
      "alert": "OK",
      "vis_m": 4000,
      "fzfg": false,
      "metar_trigger": false,
      "taf_trigger": false,
      "metar": "METAR LQSA 082300Z 00000KT 4000 BR NSC M13/M14 Q1014",
      "taf": "TAF LQSA 082300Z 0900/0924 VRB02KT 9999 SCT050 TX02/0913Z TNM13/0902Z"
    },
    {
      "icao": "LQTZ",
      "alert": "OK",
      "vis_m": 2000,
      "fzfg": false,
      "metar_trigger": false,
      "taf_trigger": false,
      "metar": "METAR LQTZ 082300Z VRB01KT 2000 0600E PRFG SCT002 M15/M16 Q1013",
      "taf": "TAF LQTZ 082300Z 0900/0924 10005KT 7000 SCT060 TX03/0913Z TNM14/0900Z"
    },
    {
      "icao": "LRBC",
      "alert": "OK",
      "vis_m": 8000,
      "fzfg": false,
      "metar_trigger": false,
      "taf_trigger": false,
      "metar": "METAR LRBC 082300Z 29003KT 8000 NSC M08/M10 Q1000",
      "taf": "TAF LRBC 082000Z 0821/0906 36007KT 9999 OVC050"
    },
    {
      "icao": "LRBS",
      "alert": "OK",
      "vis_m": 9999,
      "fzfg": false,
      "metar_trigger": false,
      "taf_trigger": false,
      "metar": "METAR LRBS 082300Z 27010KT 9999 BKN048 M04/M06 Q1003 NOSIG",
      "taf": "TAF LRBS 081700Z 0818/0918 24012KT 3000 -SN BR BKN010 OVC020"
    },
    {
      "icao": "LRBV",
      "alert": "OK",
      "vis_m": 5000,
      "fzfg": false,
      "metar_trigger": false,
      "taf_trigger": false,
      "metar": "METAR LRBV 082300Z AUTO 30012KT 5000 SG SCT016/// BKN023/// BKN037/// M07/M10 Q1004",
      "taf": "TAF LRBV 082000Z 0821/0906 30015KT 5000 -SN BR BKN015 BKN025"
    },
    {
      "icao": "LRCL",
      "alert": "OK",
      "vis_m": 5000,
      "fzfg": false,
      "metar_trigger": false,
      "taf_trigger": false,
      "metar": "METAR LRCL 082300Z 29010KT 5000 -SN BR FEW026 OVC070 M05/M08 Q1006",
      "taf": "TAF LRCL 082000Z 0821/0906 30010KT 5000 -SN BR BKN035"
    },
    {
      "icao": "LRCV",
      "alert": "OK",
      "vis_m": 9999,
      "fzfg": false,
      "metar_trigger": false,
      "taf_trigger": false,
      "metar": "METAR LRCV 082300Z 29023KT CAVOK M05/M08 Q1006",
      "taf": "TAF LRCV 082000Z 0821/0906 27018KT CAVOK"
    },
    {
      "icao": "LRIA",
      "alert": "OK",
      "vis_m": 9999,
      "fzfg": false,
      "metar_trigger": false,
      "taf_trigger": false,
      "metar": "METAR LRIA 082300Z 30016G26KT 9999 OVC045 M03/M07 Q0999",
      "taf": "TAF LRIA 082000Z 0821/0906 30017KT 9999 OVC040"
    },
    {
      "icao": "LROP",
      "alert": "OK",
      "vis_m": 9999,
      "fzfg": false,
      "metar_trigger": false,
      "taf_trigger": false,
      "metar": "METAR LROP 082300Z 25011KT CAVOK M04/M04 Q1003 NOSIG",
      "taf": "TAF LROP 081700Z 0818/0918 24012KT 3000 -SN BR BKN010 OVC020"
    },
    {
      "icao": "LRSB",
      "alert": "OK",
      "vis_m": 9999,
      "fzfg": false,
      "metar_trigger": false,
      "taf_trigger": false,
      "metar": "METAR LRSB 082300Z 29017KT 9999 -SN FEW050 OVC080 M05/M09 Q1005",
      "taf": "TAF LRSB 081700Z 0818/0918 33017KT 9999 BKN020 OVC035"
    },
    {
      "icao": "LRSM",
      "alert": "OK",
      "vis_m": 8000,
      "fzfg": false,
      "metar_trigger": false,
      "taf_trigger": false,
      "metar": "METAR LRSM 082300Z AUTO 26011KT 8000 OVC085/// M06/M09 Q1007",
      "taf": "TAF LRSM 081400Z 0815/0824 26012KT 1500 -SN BR BKN010 OVC025"
    },
    {
      "icao": "LRSV",
      "alert": "OK",
      "vis_m": 9999,
      "fzfg": false,
      "metar_trigger": false,
      "taf_trigger": false,
      "metar": "METAR LRSV 082300Z 30013KT 9999 BKN045 M05/M08 Q0997",
      "taf": "TAF LRSV 082000Z 0821/0906 32020KT 9999 DRSN BKN045"
    },
    {
      "icao": "LRTM",
      "alert": "OK",
      "vis_m": 6000,
      "fzfg": false,
      "metar_trigger": false,
      "taf_trigger": false,
      "metar": "METAR LRTM 082300Z AUTO 24006KT 6000 -SN SCT023/// BKN028/// BKN032/// M06/M08 Q1006",
      "taf": "TAF LRTM 081400Z 0815/0824 30008KT 9999 BKN015 BKN030"
    },
    {
      "icao": "LRTR",
      "alert": "OK",
      "vis_m": 250,
      "fzfg": true,
      "metar_trigger": false,
      "taf_trigger": false,
      "metar": "METAR LRTR 082300Z 09005KT 0250 R29/P2000 FZFG FEW002 SCT006 M17/M19 Q1011",
      "taf": ""
    },
    {
      "icao": "LTAC",
      "alert": "OK",
      "vis_m": 8000,
      "fzfg": false,
      "metar_trigger": false,
      "taf_trigger": false,
      "metar": "METAR LTAC 082250Z 26012KT 210V270 8000 FEW015 BKN030 BKN080 03/M01 Q1003 NOSIG RMK RWY21C 25012KT RWY03L 25009KT RWY21R 25012KT RWY03R 24012KT RWY21L 25010KT",
      "taf": "TAF LTAC 082240Z 0900/0924 24012KT 8000 SCT040 BKN100"
    },
    {
      "icao": "LTFM",
      "alert": "OK",
      "vis_m": 9999,
      "fzfg": false,
      "metar_trigger": false,
      "taf_trigger": false,
      "metar": "METAR LTFM 082250Z 25010KT 210V270 9999 SCT010 BKN025 03/01 Q1006 NOSIG RMK RWY17L 26009KT RWY34L 25008KT RWY16R 25008KT RWY36 24008KT 180V260 RWY18 25007KT 150V270",
      "taf": "TAF LTFM 082240Z 0900/1006 26008KT 9999 FEW035 BKN080"
    },
    {
      "icao": "LUKK",
      "alert": "OK",
      "vis_m": 9999,
      "fzfg": false,
      "metar_trigger": false,
      "taf_trigger": false,
      "metar": "METAR LUKK 082300Z 31020KT 9999 DRSN BKN030 OVC046 M04/M08 Q0998 NOSIG",
      "taf": "TAF LUKK 081719Z 0818/0918 30016KT 9999 SCT010 BKN015"
    },
    {
      "icao": "LWOH",
      "alert": "OK",
      "vis_m": null,
      "fzfg": false,
      "metar_trigger": false,
      "taf_trigger": false,
      "metar": "",
      "taf": "TAF LWOH 082020Z 0821/0921 VRB02KT 9999 FEW015 BKN035"
    },
    {
      "icao": "LWSK",
      "alert": "OK",
      "vis_m": 9999,
      "fzfg": false,
      "metar_trigger": false,
      "taf_trigger": false,
      "metar": "METAR LWSK 082250Z 15006KT 110V190 CAVOK M04/M07 Q1014 NOSIG",
      "taf": "TAF LWSK 082020Z 0821/0921 VRB02KT CAVOK"
    },
    {
      "icao": "LYBE",
      "alert": "OK",
      "vis_m": 9999,
      "fzfg": false,
      "metar_trigger": false,
      "taf_trigger": false,
      "metar": "METAR LYBE 082300Z 21007KT CAVOK M06/M08 Q1012 NOSIG",
      "taf": "TAF LYBE 081700Z 0818/0918 24006KT CAVOK TX01/0914Z TNM12/0904Z"
    },
    {
      "icao": "LYNI",
      "alert": "OK",
      "vis_m": 9999,
      "fzfg": false,
      "metar_trigger": false,
      "taf_trigger": false,
      "metar": "METAR LYNI 082300Z VRB01KT 9999 BKN050 M05/M07 Q1013 NOSIG",
      "taf": "TAF LYNI 081700Z 0818/0918 19004KT 9999 SCT040 TX02/0914Z TNM10/0905Z"
    },
    {
      "icao": "LYPG",
      "alert": "OK",
      "vis_m": 9999,
      "fzfg": false,
      "metar_trigger": false,
      "taf_trigger": false,
      "metar": "METAR LYPG 082300Z 36007KT CAVOK M00/M08 Q1016 NOSIG",
      "taf": "TAF LYPG 081700Z 0818/0918 36006KT CAVOK TX05/0912Z TNM02/0905Z"
    },
    {
      "icao": "LZIB",
      "alert": "OK",
      "vis_m": 9999,
      "fzfg": false,
      "metar_trigger": false,
      "taf_trigger": false,
      "metar": "METAR LZIB 082300Z 08005KT 9999 SCT031 M05/M08 Q1010 NOSIG",
      "taf": ""
    },
    {
      "icao": "LZKZ",
      "alert": "OK",
      "vis_m": 9999,
      "fzfg": false,
      "metar_trigger": false,
      "taf_trigger": false,
      "metar": "METAR LZKZ 082300Z 34004KT 320V090 CAVOK M05/M10 Q1006 NOSIG",
      "taf": ""
    },
    {
      "icao": "LZTT",
      "alert": "OK",
      "vis_m": 9999,
      "fzfg": false,
      "metar_trigger": false,
      "taf_trigger": false,
      "metar": "METAR LZTT 082300Z 28016KT 9999 FEW016 M09/M12 Q1004",
      "taf": ""
    },
    {
      "icao": "OEJN",
      "alert": "OK",
      "vis_m": 9999,
      "fzfg": false,
      "metar_trigger": false,
      "taf_trigger": false,
      "metar": "METAR OEJN 082300Z 00000KT CAVOK 23/18 Q1014 NOSIG",
      "taf": "TAF OEJN 082300Z 0900/1006 VRB03KT 7000 NSC"
    },
    {
      "icao": "OEMA",
      "alert": "OK",
      "vis_m": 9999,
      "fzfg": false,
      "metar_trigger": false,
      "taf_trigger": false,
      "metar": "METAR OEMA 082300Z 31004KT CAVOK 17/M03 Q1020 NOSIG",
      "taf": "TAF OEMA 082300Z 0900/1006 09006KT CAVOK"
    },
    {
      "icao": "OJAI",
      "alert": "OK",
      "vis_m": 3200,
      "fzfg": false,
      "metar_trigger": false,
      "taf_trigger": false,
      "metar": "METAR OJAI 082300Z 09002KT 3200 HZ NSC 10/05 Q1015 NOSIG",
      "taf": ""
    },
    {
      "icao": "OMAA",
      "alert": "OK",
      "vis_m": 9999,
      "fzfg": false,
      "metar_trigger": false,
      "taf_trigger": false,
      "metar": "METAR OMAA 082300Z 16002KT CAVOK 17/11 Q1019 NOSIG",
      "taf": "TAF OMAA 082300Z 0900/1006 VRB02KT CAVOK"
    },
    {
      "icao": "OMDB",
      "alert": "OK",
      "vis_m": 9999,
      "fzfg": false,
      "metar_trigger": false,
      "taf_trigger": false,
      "metar": "METAR OMDB 082300Z VRB02KT CAVOK 20/11 Q1019 NOSIG",
      "taf": "TAF OMDB 082300Z 0900/1006 10005KT CAVOK"
    },
    {
      "icao": "UAAA",
      "alert": "OK",
      "vis_m": 1800,
      "fzfg": false,
      "metar_trigger": false,
      "taf_trigger": false,
      "metar": "METAR UAAA 082300Z 36002MPS 1800 R05R/P2000U BR OVC005 M05/M06 Q1026 NOSIG RMK QBB150",
      "taf": "TAF UAAA 081714Z 0818/0918 33003MPS 1500 BR BKN011 OVC100 TXM01/0909Z TNM07/0901Z"
    },
    {
      "icao": "UBBB",
      "alert": "OK",
      "vis_m": 1800,
      "fzfg": false,
      "metar_trigger": false,
      "taf_trigger": false,
      "metar": "METAR UBBB 082300Z 16010KT 1800 BR BKN007 08/07 Q1009 NOSIG",
      "taf": "TAF UBBB 082303Z 0900/0924 17014KT 3500 BR BKN010 TX12/0910Z TN08/0900Z"
    },
    {
      "icao": "UDSG",
      "alert": "OK",
      "vis_m": 2100,
      "fzfg": false,
      "metar_trigger": false,
      "taf_trigger": false,
      "metar": "METAR UDSG 082300Z 19004KT 2100 BR OVC026 M05/M05 Q1016 NOSIG",
      "taf": "TAF UDSG 081658Z 0818/0918 VRB06KT 3000 BR BKN030"
    },
    {
      "icao": "UDYZ",
      "alert": "OK",
      "vis_m": 1400,
      "fzfg": false,
      "metar_trigger": false,
      "taf_trigger": false,
      "metar": "METAR UDYZ 082300Z 32001KT 1400 1300W R08/P2000N BR SCT046 M02/M05 Q1019 NOSIG",
      "taf": "TAF UDYZ 081700Z 0818/0918 28006KT 1500 BR FEW040"
    },
    {
      "icao": "UGKO",
      "alert": "OK",
      "vis_m": 9999,
      "fzfg": false,
      "metar_trigger": false,
      "taf_trigger": false,
      "metar": "METAR UGKO 082300Z 08013KT 9999 OVC083 09/07 Q1007 NOSIG",
      "taf": "TAF UGKO 082300Z 0900/0924 09007KT 9999 BKN070 TX12/0911Z TN09/0903Z"
    }
  ]
}