{
  "ts_utc": "2026-04-30T06:38:00Z",
  "threshold_m": 150,
  "source": "stations_override.txt (ICAO list) + aviationweather.gov (METAR/TAF raw)",
  "station_count": 159,
  "stations": [
    {
      "icao": "BIKF",
      "alert": "OK",
      "vis_m": 9999,
      "fzfg": false,
      "metar_trigger": false,
      "taf_trigger": false,
      "metar": "METAR BIKF 300630Z 23017KT 9999 VCSH FEW012CB BKN047 BKN066 04/01 Q1008",
      "taf": "TAF BIKF 300448Z 3006/0106 21018KT 9999 -SHRA SCT020 BKN050 TX07/3014Z TN01/0105Z"
    },
    {
      "icao": "BKPR",
      "alert": "OK",
      "vis_m": 8000,
      "fzfg": false,
      "metar_trigger": false,
      "taf_trigger": false,
      "metar": "METAR BKPR 300630Z 01014KT 8000 -RA SCT012 BKN025 06/04 Q1021 NOSIG",
      "taf": "TAF BKPR 300530Z 3006/0106 01008KT 9999 SCT020 BKN040"
    },
    {
      "icao": "EBCI",
      "alert": "OK",
      "vis_m": 9999,
      "fzfg": false,
      "metar_trigger": false,
      "taf_trigger": false,
      "metar": "METAR EBCI 300620Z 08008KT CAVOK 09/M03 Q1025 NOSIG",
      "taf": "TAF EBCI 300520Z 3006/0112 09010KT CAVOK"
    },
    {
      "icao": "EDDB",
      "alert": "OK",
      "vis_m": 9999,
      "fzfg": false,
      "metar_trigger": false,
      "taf_trigger": false,
      "metar": "METAR EDDB 300620Z AUTO 27005KT 230V290 CAVOK 08/00 Q1033 NOSIG",
      "taf": "TAF EDDB 300500Z 3006/0106 VRB03KT CAVOK"
    },
    {
      "icao": "EDDH",
      "alert": "OK",
      "vis_m": 9999,
      "fzfg": false,
      "metar_trigger": false,
      "taf_trigger": false,
      "metar": "METAR EDDH 300620Z AUTO VRB02KT CAVOK 11/03 Q1033 BECMG 12005KT",
      "taf": "TAF EDDH 300500Z 3006/0112 VRB02KT CAVOK"
    },
    {
      "icao": "EDDK",
      "alert": "OK",
      "vis_m": 9999,
      "fzfg": false,
      "metar_trigger": false,
      "taf_trigger": false,
      "metar": "METAR EDDK 300620Z AUTO 10009KT 060V140 CAVOK 09/M04 Q1029 NOSIG",
      "taf": "TAF EDDK 300500Z 3006/0112 09009KT CAVOK"
    },
    {
      "icao": "EDDN",
      "alert": "OK",
      "vis_m": 9999,
      "fzfg": false,
      "metar_trigger": false,
      "taf_trigger": false,
      "metar": "METAR EDDN 300620Z AUTO 10012KT CAVOK 06/M07 Q1030 NOSIG",
      "taf": "TAF EDDN 300500Z 3006/0106 09006KT CAVOK"
    },
    {
      "icao": "EDDS",
      "alert": "OK",
      "vis_m": 9999,
      "fzfg": false,
      "metar_trigger": false,
      "taf_trigger": false,
      "metar": "METAR EDDS 300620Z AUTO 09011KT 060V140 CAVOK 07/M06 Q1025 NOSIG",
      "taf": "TAF EDDS 300500Z 3006/0106 09010KT CAVOK"
    },
    {
      "icao": "EDFH",
      "alert": "OK",
      "vis_m": 9999,
      "fzfg": false,
      "metar_trigger": false,
      "taf_trigger": false,
      "metar": "METAR EDFH 300620Z 10009KT 040V180 CAVOK 06/M06 Q1026",
      "taf": "TAF EDFH 300500Z 3006/0106 10015G25KT CAVOK"
    },
    {
      "icao": "EDJA",
      "alert": "OK",
      "vis_m": 9999,
      "fzfg": false,
      "metar_trigger": false,
      "taf_trigger": false,
      "metar": "METAR EDJA 300620Z 06009KT 040V100 CAVOK 05/M07 Q1024",
      "taf": "TAF EDJA 300500Z 3006/3015 06012KT CAVOK"
    },
    {
      "icao": "EDLW",
      "alert": "OK",
      "vis_m": 9999,
      "fzfg": false,
      "metar_trigger": false,
      "taf_trigger": false,
      "metar": "METAR EDLW 300620Z 05004KT 010V080 CAVOK 08/M02 Q1030",
      "taf": "TAF EDLW 300500Z 3006/0106 07004KT CAVOK"
    },
    {
      "icao": "EDNY",
      "alert": "OK",
      "vis_m": 9999,
      "fzfg": false,
      "metar_trigger": false,
      "taf_trigger": false,
      "metar": "METAR EDNY 300620Z 02012KT CAVOK 07/M03 Q1023",
      "taf": "TAF EDNY 300500Z 3006/3015 06012KT CAVOK"
    },
    {
      "icao": "EDSB",
      "alert": "OK",
      "vis_m": 9999,
      "fzfg": false,
      "metar_trigger": false,
      "taf_trigger": false,
      "metar": "METAR EDSB 300620Z 02013KT CAVOK 09/M03 Q1025",
      "taf": "TAF EDSB 300500Z 3006/0106 03012KT CAVOK"
    },
    {
      "icao": "EETN",
      "alert": "OK",
      "vis_m": 9999,
      "fzfg": false,
      "metar_trigger": false,
      "taf_trigger": false,
      "metar": "METAR EETN 300620Z 25007KT 9999 OVC005 05/04 Q1022 TEMPO 4000 RADZ BR",
      "taf": "TAF EETN 300530Z 3006/0106 26010KT 9999 BKN012"
    },
    {
      "icao": "EFTU",
      "alert": "OK",
      "vis_m": 9999,
      "fzfg": false,
      "metar_trigger": false,
      "taf_trigger": false,
      "metar": "METAR EFTU 300620Z AUTO 30006KT 270V330 9999 FEW009 07/05 Q1022",
      "taf": "TAF EFTU 300534Z 3006/0106 32010G22KT 9999 SCT025"
    },
    {
      "icao": "EGBB",
      "alert": "OK",
      "vis_m": 9999,
      "fzfg": false,
      "metar_trigger": false,
      "taf_trigger": false,
      "metar": "METAR EGBB 300620Z 10009KT CAVOK 09/04 Q1024",
      "taf": "TAF EGBB 300500Z 3006/0106 05009KT CAVOK"
    },
    {
      "icao": "EGGP",
      "alert": "OK",
      "vis_m": 9999,
      "fzfg": false,
      "metar_trigger": false,
      "taf_trigger": false,
      "metar": "METAR EGGP 300620Z 08007KT CAVOK 09/04 Q1024",
      "taf": "TAF EGGP 300456Z 3006/0106 07010KT CAVOK"
    },
    {
      "icao": "EGGW",
      "alert": "OK",
      "vis_m": 9999,
      "fzfg": false,
      "metar_trigger": false,
      "taf_trigger": false,
      "metar": "METAR EGGW 300620Z AUTO 10008KT 9999 NCD 10/04 Q1023",
      "taf": "TAF EGGW 300453Z 3006/0106 09010KT CAVOK"
    },
    {
      "icao": "EGKK",
      "alert": "OK",
      "vis_m": 9999,
      "fzfg": false,
      "metar_trigger": false,
      "taf_trigger": false,
      "metar": "METAR EGKK 300620Z 07008KT CAVOK 11/04 Q1022",
      "taf": "TAF EGKK 300459Z 3006/0112 07010KT CAVOK"
    },
    {
      "icao": "EGNM",
      "alert": "OK",
      "vis_m": 9999,
      "fzfg": false,
      "metar_trigger": false,
      "taf_trigger": false,
      "metar": "METAR EGNM 300620Z 04006KT 020V090 CAVOK 07/05 Q1027",
      "taf": "TAF EGNM 300456Z 3006/0106 06006KT CAVOK"
    },
    {
      "icao": "EGPD",
      "alert": "OK",
      "vis_m": 9999,
      "fzfg": false,
      "metar_trigger": false,
      "taf_trigger": false,
      "metar": "METAR EGPD 300620Z COR 19008KT 9999 BKN006 07/06 Q1029 NOSIG",
      "taf": "TAF EGPD 300455Z 3006/0106 16009KT CAVOK"
    },
    {
      "icao": "EGPF",
      "alert": "OK",
      "vis_m": 9999,
      "fzfg": false,
      "metar_trigger": false,
      "taf_trigger": false,
      "metar": "METAR EGPF 300620Z AUTO 06009KT 9999 NCD 09/01 Q1027",
      "taf": "TAF EGPF 300454Z 3006/0106 06006KT CAVOK"
    },
    {
      "icao": "EHBK",
      "alert": "OK",
      "vis_m": 9999,
      "fzfg": false,
      "metar_trigger": false,
      "taf_trigger": false,
      "metar": "METAR EHBK 300625Z AUTO 10014KT 9999 NSC 10/M03 Q1026 NOSIG",
      "taf": "TAF EHBK 300505Z 3006/0112 09010KT CAVOK"
    },
    {
      "icao": "EHEH",
      "alert": "OK",
      "vis_m": 9999,
      "fzfg": false,
      "metar_trigger": false,
      "taf_trigger": false,
      "metar": "METAR EHEH 300625Z AUTO 09011KT 050V120 9999 SCT370 10/M02 Q1028 BLU NOSIG RMK TREND REMOTE BY EHWX",
      "taf": "TAF EHEH 300506Z 3006/0112 08009KT CAVOK"
    },
    {
      "icao": "EKBI",
      "alert": "OK",
      "vis_m": 9999,
      "fzfg": false,
      "metar_trigger": false,
      "taf_trigger": false,
      "metar": "METAR EKBI 300620Z AUTO 28004KT 260V320 9999 NCD 08/06 Q1033",
      "taf": "TAF EKBI 300527Z 3006/0106 29004KT CAVOK"
    },
    {
      "icao": "EKCH",
      "alert": "OK",
      "vis_m": 9999,
      "fzfg": false,
      "metar_trigger": false,
      "taf_trigger": false,
      "metar": "METAR EKCH 300620Z AUTO 29008KT 9999 NCD 12/M01 Q1032 NOSIG",
      "taf": "TAF EKCH 300527Z 3006/0106 29008KT CAVOK"
    },
    {
      "icao": "ENAL",
      "alert": "OK",
      "vis_m": 9999,
      "fzfg": false,
      "metar_trigger": false,
      "taf_trigger": false,
      "metar": "METAR ENAL 300620Z 16008KT CAVOK 09/06 Q1029",
      "taf": "TAF ENAL 300500Z 3006/3015 21009KT CAVOK"
    },
    {
      "icao": "ENBR",
      "alert": "OK",
      "vis_m": 250,
      "fzfg": false,
      "metar_trigger": false,
      "taf_trigger": false,
      "metar": "METAR ENBR 300620Z 16003KT 090V230 0250 R17/0750N R35/0550N FG VV001 05/04 Q1031 TEMPO 0800 FG VV003 RMK WIND 1200FT 14006KT",
      "taf": ""
    },
    {
      "icao": "ENGM",
      "alert": "OK",
      "vis_m": 9999,
      "fzfg": false,
      "metar_trigger": false,
      "taf_trigger": false,
      "metar": "METAR ENGM 300620Z VRB01KT CAVOK 11/02 Q1028 NOSIG",
      "taf": "TAF ENGM 300500Z 3006/0106 VRB03KT CAVOK"
    },
    {
      "icao": "ENHD",
      "alert": "OK",
      "vis_m": 250,
      "fzfg": false,
      "metar_trigger": false,
      "taf_trigger": false,
      "metar": "METAR ENHD 300620Z 01003KT 0250 R13/0600N R31/0550N FG VV002 06/06 Q1031",
      "taf": "TAF ENHD 300500Z 3006/3015 34006KT 0200 FG VV002"
    },
    {
      "icao": "ENTC",
      "alert": "OK",
      "vis_m": 9999,
      "fzfg": false,
      "metar_trigger": false,
      "taf_trigger": false,
      "metar": "METAR ENTC 300620Z 20014KT 9999 -DZRA SCT010 BKN026 06/04 Q1015 TEMPO BKN012 RMK WIND 2600FT 22015KT",
      "taf": "TAF ENTC 300500Z 3006/0106 20012KT 9999 -RADZ SCT008 BKN024"
    },
    {
      "icao": "ENTO",
      "alert": "OK",
      "vis_m": 9999,
      "fzfg": false,
      "metar_trigger": false,
      "taf_trigger": false,
      "metar": "METAR ENTO 300620Z VRB02KT CAVOK 12/06 Q1029 NOSIG",
      "taf": "TAF ENTO 300500Z 3006/0106 36003KT CAVOK"
    },
    {
      "icao": "ENVA",
      "alert": "OK",
      "vis_m": 9999,
      "fzfg": false,
      "metar_trigger": false,
      "taf_trigger": false,
      "metar": "METAR ENVA 300620Z VRB01KT 9999 FEW025 BKN030 09/06 Q1029 NOSIG RMK WIND 670FT VRB02KT",
      "taf": "TAF ENVA 300500Z 3006/0106 VRB04KT 9999 FEW025"
    },
    {
      "icao": "ENZV",
      "alert": "OK",
      "vis_m": 500,
      "fzfg": false,
      "metar_trigger": false,
      "taf_trigger": false,
      "metar": "METAR ENZV 300620Z 33004KT 0500 R18/1400N R36/1300N R10/1500U FG VV002 06/06 Q1031 BECMG 2000 BCFG BKN003",
      "taf": "TAF ENZV 300500Z 3006/0106 VRB04KT 0400 FG VV002"
    },
    {
      "icao": "EPGD",
      "alert": "OK",
      "vis_m": 9999,
      "fzfg": false,
      "metar_trigger": false,
      "taf_trigger": false,
      "metar": "METAR EPGD 300630Z 22005KT 180V250 CAVOK 07/M03 Q1029",
      "taf": "TAF EPGD 300530Z 3006/0106 24005KT CAVOK"
    },
    {
      "icao": "EPKK",
      "alert": "OK",
      "vis_m": 9999,
      "fzfg": false,
      "metar_trigger": false,
      "taf_trigger": false,
      "metar": "METAR EPKK 300630Z 22003KT 180V260 CAVOK 04/M02 Q1031",
      "taf": "TAF EPKK 300530Z 3006/0106 VRB02KT CAVOK"
    },
    {
      "icao": "EPKT",
      "alert": "OK",
      "vis_m": 9999,
      "fzfg": false,
      "metar_trigger": false,
      "taf_trigger": false,
      "metar": "METAR EPKT 300630Z 29003KT 220V030 CAVOK 05/M05 Q1031",
      "taf": "TAF EPKT 300530Z 3006/0106 VRB02KT CAVOK"
    },
    {
      "icao": "EPLB",
      "alert": "OK",
      "vis_m": 9999,
      "fzfg": false,
      "metar_trigger": false,
      "taf_trigger": false,
      "metar": "METAR EPLB 300630Z 29004KT 260V320 CAVOK 06/M02 Q1030",
      "taf": "TAF EPLB 300530Z 3006/0106 32008KT CAVOK"
    },
    {
      "icao": "EPMO",
      "alert": "OK",
      "vis_m": 9999,
      "fzfg": false,
      "metar_trigger": false,
      "taf_trigger": false,
      "metar": "METAR EPMO 300630Z 33007KT CAVOK 04/M03 Q1031",
      "taf": "TAF EPMO 300530Z 3006/0106 34010KT CAVOK"
    },
    {
      "icao": "EPPO",
      "alert": "OK",
      "vis_m": 9999,
      "fzfg": false,
      "metar_trigger": false,
      "taf_trigger": false,
      "metar": "METAR EPPO 300630Z 26003KT CAVOK 07/M02 Q1031",
      "taf": "TAF EPPO 300530Z 3006/0106 VRB02KT CAVOK"
    },
    {
      "icao": "EPRA",
      "alert": "OK",
      "vis_m": 9999,
      "fzfg": false,
      "metar_trigger": false,
      "taf_trigger": false,
      "metar": "METAR EPRA 300630Z 32007KT CAVOK 05/M07 Q1030",
      "taf": "TAF EPRA 300530Z 3006/3015 27005KT CAVOK"
    },
    {
      "icao": "EPRZ",
      "alert": "OK",
      "vis_m": 9999,
      "fzfg": false,
      "metar_trigger": false,
      "taf_trigger": false,
      "metar": "METAR EPRZ 300630Z 35003KT 220V020 CAVOK 05/M04 Q1030",
      "taf": "TAF EPRZ 300530Z 3006/0106 30006KT CAVOK"
    },
    {
      "icao": "EPSC",
      "alert": "OK",
      "vis_m": 9999,
      "fzfg": false,
      "metar_trigger": false,
      "taf_trigger": false,
      "metar": "METAR EPSC 300630Z 26008KT CAVOK 09/M00 Q1031",
      "taf": "TAF EPSC 300530Z 3006/0106 25005KT CAVOK"
    },
    {
      "icao": "EPSY",
      "alert": "OK",
      "vis_m": 9999,
      "fzfg": false,
      "metar_trigger": false,
      "taf_trigger": false,
      "metar": "METAR EPSY 300630Z 32003KT 250V010 CAVOK 03/M02 Q1030",
      "taf": "TAF EPSY 300530Z 3006/3015 32006KT CAVOK"
    },
    {
      "icao": "EPWA",
      "alert": "OK",
      "vis_m": 9999,
      "fzfg": false,
      "metar_trigger": false,
      "taf_trigger": false,
      "metar": "METAR EPWA 300630Z 01005KT 320V060 CAVOK 04/M03 Q1030 NOSIG",
      "taf": "TAF EPWA 300530Z 3006/0106 32010KT CAVOK"
    },
    {
      "icao": "EPWR",
      "alert": "OK",
      "vis_m": 9999,
      "fzfg": false,
      "metar_trigger": false,
      "taf_trigger": false,
      "metar": "METAR EPWR 300630Z 27004KT CAVOK 06/M03 Q1032",
      "taf": "TAF EPWR 300530Z 3006/0106 VRB02KT CAVOK"
    },
    {
      "icao": "ESGG",
      "alert": "OK",
      "vis_m": 9999,
      "fzfg": false,
      "metar_trigger": false,
      "taf_trigger": false,
      "metar": "METAR ESGG 300620Z 24007KT CAVOK 08/06 Q1029",
      "taf": "TAF ESGG 300530Z 3006/0106 23006KT CAVOK"
    },
    {
      "icao": "ESKN",
      "alert": "OK",
      "vis_m": 9999,
      "fzfg": false,
      "metar_trigger": false,
      "taf_trigger": false,
      "metar": "METAR ESKN 300620Z 30007KT CAVOK 11/04 Q1026",
      "taf": "TAF ESKN 300530Z 3006/0106 30006KT CAVOK"
    },
    {
      "icao": "ESMS",
      "alert": "OK",
      "vis_m": 9999,
      "fzfg": false,
      "metar_trigger": false,
      "taf_trigger": false,
      "metar": "METAR ESMS 300620Z 32006KT CAVOK 11/05 Q1031",
      "taf": "TAF ESMS 300527Z 3006/0106 VRB03KT CAVOK"
    },
    {
      "icao": "ESSA",
      "alert": "OK",
      "vis_m": 9999,
      "fzfg": false,
      "metar_trigger": false,
      "taf_trigger": false,
      "metar": "METAR ESSA 300620Z 30006KT CAVOK 11/04 Q1025 NOSIG",
      "taf": "TAF ESSA 300530Z 3006/0106 28004KT 9999 BKN045"
    },
    {
      "icao": "EYKA",
      "alert": "OK",
      "vis_m": 9999,
      "fzfg": false,
      "metar_trigger": false,
      "taf_trigger": false,
      "metar": "METAR EYKA 300620Z 32003KT 270V010 CAVOK 04/M04 Q1029",
      "taf": "TAF EYKA 300505Z 3006/0106 VRB03KT 9000 OVC030"
    },
    {
      "icao": "EYPA",
      "alert": "OK",
      "vis_m": 9999,
      "fzfg": false,
      "metar_trigger": false,
      "taf_trigger": false,
      "metar": "METAR EYPA 300620Z 22006KT 190V250 CAVOK 06/01 Q1028",
      "taf": "TAF EYPA 300504Z 3006/0106 VRB04KT 9000 OVC030"
    },
    {
      "icao": "EYVI",
      "alert": "OK",
      "vis_m": 9999,
      "fzfg": false,
      "metar_trigger": false,
      "taf_trigger": false,
      "metar": "METAR EYVI 300620Z 33006KT 300V010 CAVOK 04/M05 Q1027 NOSIG",
      "taf": "TAF EYVI 300509Z 3006/0106 31012KT 9000 NSC"
    },
    {
      "icao": "GCFV",
      "alert": "OK",
      "vis_m": 9999,
      "fzfg": false,
      "metar_trigger": false,
      "taf_trigger": false,
      "metar": "METAR GCFV 300630Z 29006KT 9999 FEW025 16/13 Q1016",
      "taf": "TAF GCFV 300200Z 3003/0103 32005KT 9999 SCT025 TX21/3014Z TN16/3006Z"
    },
    {
      "icao": "GCLP",
      "alert": "OK",
      "vis_m": 9999,
      "fzfg": false,
      "metar_trigger": false,
      "taf_trigger": false,
      "metar": "METAR GCLP 300630Z 28004KT 9999 FEW025 16/13 Q1015 NOSIG",
      "taf": "TAF GCLP 300200Z 3003/0103 27005KT 9999 BKN025 TX22/3014Z TN16/3006Z"
    },
    {
      "icao": "GCTS",
      "alert": "OK",
      "vis_m": 9999,
      "fzfg": false,
      "metar_trigger": false,
      "taf_trigger": false,
      "metar": "METAR GCTS 300630Z 36004KT 9999 FEW025 16/11 Q1015 NOSIG",
      "taf": "TAF GCTS 300200Z 3003/0103 VRB05KT 9999 BKN030 TX23/3014Z TN16/3006Z"
    },
    {
      "icao": "GMAD",
      "alert": "OK",
      "vis_m": 9999,
      "fzfg": false,
      "metar_trigger": false,
      "taf_trigger": false,
      "metar": "METAR GMAD 300630Z 19004KT 9999 SCT040 BKN100 16/13 Q1014 NOSIG",
      "taf": "TAF GMAD 300500Z 3006/0112 16005KT 8000 SCT016"
    },
    {
      "icao": "GMMN",
      "alert": "OK",
      "vis_m": 9999,
      "fzfg": false,
      "metar_trigger": false,
      "taf_trigger": false,
      "metar": "METAR GMMN 300630Z 05006KT 9999 BKN020 16/13 Q1015 NOSIG",
      "taf": "TAF GMMN 300500Z 3006/0112 04006KT 9999 BKN020"
    },
    {
      "icao": "GMMX",
      "alert": "OK",
      "vis_m": 7000,
      "fzfg": false,
      "metar_trigger": false,
      "taf_trigger": false,
      "metar": "METAR GMMX 300630Z 24003KT 210V270 7000 -DZ SCT010 BKN016 15/13 Q1014 NOSIG",
      "taf": "TAF GMMX 300500Z 3006/0112 24006KT 4000 BR SCT006 BKN013"
    },
    {
      "icao": "HEGN",
      "alert": "OK",
      "vis_m": 9999,
      "fzfg": false,
      "metar_trigger": false,
      "taf_trigger": false,
      "metar": "METAR HEGN 300600Z 31012KT CAVOK 26/04 Q1013 NOSIG",
      "taf": "TAF HEGN 300500Z 3006/0112 32008G22KT CAVOK"
    },
    {
      "icao": "HEMA",
      "alert": "OK",
      "vis_m": 9999,
      "fzfg": false,
      "metar_trigger": false,
      "taf_trigger": false,
      "metar": "METAR HEMA 300600Z 33018KT CAVOK 27/03 Q1012 NOSIG",
      "taf": "TAF HEMA 300500Z 3006/0112 33008G22KT CAVOK"
    },
    {
      "icao": "HESH",
      "alert": "OK",
      "vis_m": 9999,
      "fzfg": false,
      "metar_trigger": false,
      "taf_trigger": false,
      "metar": "METAR HESH 300600Z 36012KT CAVOK 26/15 Q1012 NOSIG",
      "taf": "TAF HESH 300500Z 3006/0112 35016KT CAVOK"
    },
    {
      "icao": "HESX",
      "alert": "OK",
      "vis_m": 6000,
      "fzfg": false,
      "metar_trigger": false,
      "taf_trigger": false,
      "metar": "METAR HESX 300600Z 01005KT 6000 NSC 18/14 Q1016 NOSIG",
      "taf": "TAF HESX 300500Z 3006/0112 35009KT CAVOK"
    },
    {
      "icao": "LATI",
      "alert": "OK",
      "vis_m": 9999,
      "fzfg": false,
      "metar_trigger": false,
      "taf_trigger": false,
      "metar": "METAR LATI 300620Z VRB01KT 9999 BKN110 16/07 Q1016 NOSIG",
      "taf": "TAF LATI 300500Z 3006/0106 VRB03KT CAVOK TX20/3010Z TN04/0105Z"
    },
    {
      "icao": "LBPD",
      "alert": "OK",
      "vis_m": 9999,
      "fzfg": false,
      "metar_trigger": false,
      "taf_trigger": false,
      "metar": "METAR LBPD 300630Z AUTO 09010KT 9999 BKN025/// OVC035/// 11/10 Q1019 NOSIG",
      "taf": "TAF LBPD 300500Z 3006/0106 10010KT 9999 SCT010 BKN040"
    },
    {
      "icao": "LBSF",
      "alert": "OK",
      "vis_m": 9999,
      "fzfg": false,
      "metar_trigger": false,
      "taf_trigger": false,
      "metar": "METAR LBSF 300630Z 32006KT 9999 FEW010 OVC022 09/06 Q1019 NOSIG",
      "taf": "TAF LBSF 300500Z 3006/0106 35010KT 9999 BKN020 OVC035"
    },
    {
      "icao": "LBWN",
      "alert": "OK",
      "vis_m": 9999,
      "fzfg": false,
      "metar_trigger": false,
      "taf_trigger": false,
      "metar": "METAR LBWN 300630Z 11006KT 9999 -RA FEW033 OVC039 10/09 Q1021 NOSIG",
      "taf": "TAF LBWN 300500Z 3006/0106 12010KT 6000 RA OVC030"
    },
    {
      "icao": "LCLK",
      "alert": "OK",
      "vis_m": 8000,
      "fzfg": false,
      "metar_trigger": false,
      "taf_trigger": false,
      "metar": "METAR LCLK 300630Z 03005KT 360V060 8000 FEW013 21/17 Q1015 NOSIG",
      "taf": "TAF LCLK 300530Z 3006/0106 32006KT 9999 FEW025"
    },
    {
      "icao": "LCPH",
      "alert": "OK",
      "vis_m": 9999,
      "fzfg": false,
      "metar_trigger": false,
      "taf_trigger": false,
      "metar": "METAR LCPH 300630Z 17006KT 150V240 CAVOK 21/16 Q1015 NOSIG",
      "taf": "TAF LCPH 300530Z 3006/0106 08007KT 9999 FEW020"
    },
    {
      "icao": "LEAL",
      "alert": "OK",
      "vis_m": 9999,
      "fzfg": false,
      "metar_trigger": false,
      "taf_trigger": false,
      "metar": "METAR LEAL 300630Z VRB02KT CAVOK 17/13 Q1015 NOSIG",
      "taf": "TAF LEAL 300500Z 3006/0106 VRB03KT 9999 FEW020 TX23/3013Z TN14/3006Z"
    },
    {
      "icao": "LEBB",
      "alert": "OK",
      "vis_m": 9999,
      "fzfg": false,
      "metar_trigger": false,
      "taf_trigger": false,
      "metar": "METAR LEBB 300600Z 08004KT 020V190 9999 FEW070 15/13 Q1014 NOSIG",
      "taf": "TAF LEBB 300500Z 3006/0106 16007KT 9999 FEW030 SCT060 TX21/3013Z TN13/0101Z"
    },
    {
      "icao": "LEBL",
      "alert": "OK",
      "vis_m": 9999,
      "fzfg": false,
      "metar_trigger": false,
      "taf_trigger": false,
      "metar": "METAR LEBL 300630Z VRB02KT 9999 FEW013 17/14 Q1016 NOSIG",
      "taf": "TAF LEBL 300500Z 3006/0106 07010KT 9999 FEW020 TX22/3012Z TN16/3006Z"
    },
    {
      "icao": "LECH",
      "alert": "OK",
      "vis_m": 8000,
      "fzfg": false,
      "metar_trigger": false,
      "taf_trigger": false,
      "metar": "METAR LECH 300630Z AUTO 03005KT 350V070 8000 NCD 14/11 Q1016",
      "taf": "TAF LECH 300500Z 3006/0106 VRB03KT 9999 FEW020 TX25/3012Z TN11/3006Z"
    },
    {
      "icao": "LEMD",
      "alert": "OK",
      "vis_m": 9999,
      "fzfg": false,
      "metar_trigger": false,
      "taf_trigger": false,
      "metar": "METAR LEMD 300630Z 16004KT 120V220 9999 BKN060 13/11 Q1016 NOSIG",
      "taf": "TAF LEMD 300500Z 3006/0112 VRB05KT 9999 FEW060 TX22/3016Z TN08/0105Z"
    },
    {
      "icao": "LEMG",
      "alert": "OK",
      "vis_m": 9999,
      "fzfg": false,
      "metar_trigger": false,
      "taf_trigger": false,
      "metar": "METAR LEMG 300630Z 30009KT 9999 FEW058 14/12 Q1015 NOSIG",
      "taf": "TAF LEMG 300500Z 3006/0106 27006KT 9999 SCT020 TX25/3014Z TN15/3006Z"
    },
    {
      "icao": "LEVC",
      "alert": "OK",
      "vis_m": 9999,
      "fzfg": false,
      "metar_trigger": false,
      "taf_trigger": false,
      "metar": "METAR LEVC 300630Z 32004KT 280V360 9999 FEW043 16/14 Q1015 NOSIG",
      "taf": "TAF LEVC 300500Z 3006/0106 VRB03KT 9999 FEW020 TX24/3013Z TN13/3006Z"
    },
    {
      "icao": "LEXJ",
      "alert": "OK",
      "vis_m": 9999,
      "fzfg": false,
      "metar_trigger": false,
      "taf_trigger": false,
      "metar": "METAR LEXJ 300630Z 33003KT 250V020 CAVOK 14/12 Q1014",
      "taf": "TAF LEXJ 300200Z 3003/0103 04008KT 9999 FEW010 SCT020 TX19/3014Z TN13/3005Z"
    },
    {
      "icao": "LEZG",
      "alert": "OK",
      "vis_m": 9999,
      "fzfg": false,
      "metar_trigger": false,
      "taf_trigger": false,
      "metar": "METAR LEZG 300630Z VRB01KT CAVOK 15/13 Q1016 NOSIG",
      "taf": "TAF LEZG 300500Z 3006/0106 12005KT 9999 FEW050 TX27/3014Z TN13/3006Z"
    },
    {
      "icao": "LEZL",
      "alert": "OK",
      "vis_m": 9999,
      "fzfg": false,
      "metar_trigger": false,
      "taf_trigger": false,
      "metar": "METAR LEZL 300630Z 09004KT 070V130 CAVOK 14/13 Q1016 NOSIG",
      "taf": "TAF LEZL 300200Z 3003/0103 VRB02KT 9999 SCT030 TX25/3015Z TN12/3006Z"
    },
    {
      "icao": "LFBD",
      "alert": "OK",
      "vis_m": 8000,
      "fzfg": false,
      "metar_trigger": false,
      "taf_trigger": false,
      "metar": "METAR LFBD 300630Z AUTO 15004KT 120V180 8000 -RA FEW040/// BKN072/// OVC082/// ///TCU 15/13 Q1015 TEMPO 4000 -SHRA",
      "taf": "TAF LFBD 300500Z 3006/0112 14005KT CAVOK TX23/3012Z TN13/0102Z"
    },
    {
      "icao": "LFLL",
      "alert": "OK",
      "vis_m": 9999,
      "fzfg": false,
      "metar_trigger": false,
      "taf_trigger": false,
      "metar": "METAR LFLL 300630Z 14005KT CAVOK 16/08 Q1018 NOSIG",
      "taf": "TAF LFLL 300500Z 3006/0112 13007KT CAVOK"
    },
    {
      "icao": "LFLS",
      "alert": "OK",
      "vis_m": 9999,
      "fzfg": false,
      "metar_trigger": false,
      "taf_trigger": false,
      "metar": "METAR LFLS 300630Z AUTO 08013KT CAVOK 15/10 Q1018 NOSIG",
      "taf": "TAF LFLS 300200Z 3003/0103 08008KT CAVOK"
    },
    {
      "icao": "LFMN",
      "alert": "OK",
      "vis_m": 9999,
      "fzfg": false,
      "metar_trigger": false,
      "taf_trigger": false,
      "metar": "METAR LFMN 300630Z 07008KT 360V100 CAVOK 18/09 Q1018 NOSIG",
      "taf": "TAF LFMN 300200Z 3003/0109 36006KT CAVOK"
    },
    {
      "icao": "LFOB",
      "alert": "OK",
      "vis_m": 9999,
      "fzfg": false,
      "metar_trigger": false,
      "taf_trigger": false,
      "metar": "METAR LFOB 300630Z AUTO 09008KT CAVOK 11/01 Q1021 NOSIG",
      "taf": "TAF LFOB 300500Z 3006/0106 10012KT CAVOK"
    },
    {
      "icao": "LFPO",
      "alert": "OK",
      "vis_m": 9999,
      "fzfg": false,
      "metar_trigger": false,
      "taf_trigger": false,
      "metar": "METAR LFPO 300630Z 09012KT CAVOK 13/00 Q1020 NOSIG",
      "taf": "TAF LFPO 300500Z 3006/0112 09012KT CAVOK"
    },
    {
      "icao": "LFSB",
      "alert": "OK",
      "vis_m": 9999,
      "fzfg": false,
      "metar_trigger": false,
      "taf_trigger": false,
      "metar": "METAR LFSB 300630Z AUTO 34008KT CAVOK 09/01 Q1023 NOSIG",
      "taf": "TAF LFSB 300500Z 3006/0106 34004KT CAVOK"
    },
    {
      "icao": "LGAV",
      "alert": "OK",
      "vis_m": 9999,
      "fzfg": false,
      "metar_trigger": false,
      "taf_trigger": false,
      "metar": "METAR LGAV 300620Z VRB03KT CAVOK 19/09 Q1016 NOSIG",
      "taf": "TAF LGAV 300500Z 3006/0106 VRB05KT 9999 FEW030"
    },
    {
      "icao": "LGTS",
      "alert": "OK",
      "vis_m": 9999,
      "fzfg": false,
      "metar_trigger": false,
      "taf_trigger": false,
      "metar": "METAR LGTS 300620Z VRB02KT CAVOK 16/10 Q1017 NOSIG",
      "taf": "TAF LGTS 300500Z 3006/0106 VRB03KT 9999 FEW030"
    },
    {
      "icao": "LHBP",
      "alert": "OK",
      "vis_m": 9999,
      "fzfg": false,
      "metar_trigger": false,
      "taf_trigger": false,
      "metar": "METAR LHBP 300630Z 02011KT CAVOK 08/M07 Q1028 NOSIG",
      "taf": "TAF LHBP 300515Z 3006/0106 03009KT CAVOK"
    },
    {
      "icao": "LHDC",
      "alert": "OK",
      "vis_m": 9999,
      "fzfg": false,
      "metar_trigger": false,
      "taf_trigger": false,
      "metar": "METAR LHDC 300615Z AUTO 03016KT 350V060 CAVOK 07/M05 Q1026 NOSIG",
      "taf": "TAF LHDC 300515Z 3006/3015 02013KT CAVOK"
    },
    {
      "icao": "LIBD",
      "alert": "OK",
      "vis_m": 7000,
      "fzfg": false,
      "metar_trigger": false,
      "taf_trigger": false,
      "metar": "METAR LIBD 300620Z 30003KT 7000 -RA SCT017 16/15 Q1017",
      "taf": "TAF LIBD 300500Z 3006/0106 29008KT 9999 SCT020"
    },
    {
      "icao": "LIBG",
      "alert": "OK",
      "vis_m": 9999,
      "fzfg": false,
      "metar_trigger": false,
      "taf_trigger": false,
      "metar": "SPECI LIBG 300600Z 31007KT 9999 SCT040 18/13 Q1016",
      "taf": "TAF LIBG 300631Z 3007/3015 33012KT 9999 SCT040"
    },
    {
      "icao": "LIBP",
      "alert": "OK",
      "vis_m": 9999,
      "fzfg": false,
      "metar_trigger": false,
      "taf_trigger": false,
      "metar": "METAR LIBP 300620Z AUTO 04010KT 9999 -RA SCT011/// OVC017/// 13/12 Q1020",
      "taf": "TAF LIBP 300500Z 3006/0106 36012KT 9999 SCT020"
    },
    {
      "icao": "LIBR",
      "alert": "OK",
      "vis_m": 9999,
      "fzfg": false,
      "metar_trigger": false,
      "taf_trigger": false,
      "metar": "METAR LIBR 300620Z 34012G23KT 310V010 CAVOK 18/14 Q1015",
      "taf": "TAF LIBR 300500Z 3006/0106 33015KT 9999 SCT020"
    },
    {
      "icao": "LICA",
      "alert": "OK",
      "vis_m": 9999,
      "fzfg": false,
      "metar_trigger": false,
      "taf_trigger": false,
      "metar": "METAR LICA 300620Z AUTO 09005KT 9999 FEW160/// 17/15 Q1015",
      "taf": "TAF LICA 300500Z 3006/0106 VRB05KT 9999 BKN040"
    },
    {
      "icao": "LICC",
      "alert": "OK",
      "vis_m": 9999,
      "fzfg": false,
      "metar_trigger": false,
      "taf_trigger": false,
      "metar": "METAR LICC 300620Z 23005KT CAVOK 17/13 Q1015",
      "taf": "TAF LICC 300500Z 3006/0106 25006KT 9999 SCT040"
    },
    {
      "icao": "LICJ",
      "alert": "OK",
      "vis_m": 9999,
      "fzfg": false,
      "metar_trigger": false,
      "taf_trigger": false,
      "metar": "METAR LICJ 300620Z 23006KT CAVOK 18/14 Q1015",
      "taf": "TAF LICJ 300500Z 3006/0106 VRB05KT CAVOK"
    },
    {
      "icao": "LIMC",
      "alert": "OK",
      "vis_m": 9999,
      "fzfg": false,
      "metar_trigger": false,
      "taf_trigger": false,
      "metar": "METAR LIMC 300620Z 09005KT 030V130 9999 BKN060 13/05 Q1024 NOSIG",
      "taf": "TAF LIMC 300500Z 3006/0112 08010KT 9999 SCT030"
    },
    {
      "icao": "LIME",
      "alert": "OK",
      "vis_m": 9999,
      "fzfg": false,
      "metar_trigger": false,
      "taf_trigger": false,
      "metar": "METAR LIME 300620Z 13005KT 100V170 9999 SCT035 BKN075 12/07 Q1023 NOSIG",
      "taf": "TAF LIME 300500Z 3006/0106 12010KT 9999 SCT040"
    },
    {
      "icao": "LIMF",
      "alert": "OK",
      "vis_m": 9999,
      "fzfg": false,
      "metar_trigger": false,
      "taf_trigger": false,
      "metar": "METAR LIMF 300620Z 02007KT 9999 -DZ BKN015 BKN035 13/10 Q1023",
      "taf": "TAF LIMF 300500Z 3006/0106 03008KT 9999 SCT030"
    },
    {
      "icao": "LIMJ",
      "alert": "OK",
      "vis_m": 9999,
      "fzfg": false,
      "metar_trigger": false,
      "taf_trigger": false,
      "metar": "METAR LIMJ 300620Z 03007KT 360V060 9999 SCT080 18/11 Q1019",
      "taf": "TAF LIMJ 300500Z 3006/0106 02015KT 9999 SCT040"
    },
    {
      "icao": "LIPE",
      "alert": "OK",
      "vis_m": 9999,
      "fzfg": false,
      "metar_trigger": false,
      "taf_trigger": false,
      "metar": "METAR LIPE 300620Z 05005KT 9999 FEW015 13/10 Q1023",
      "taf": "TAF LIPE 300500Z 3006/0106 VRB05KT 9999 FEW030"
    },
    {
      "icao": "LIPH",
      "alert": "OK",
      "vis_m": 9999,
      "fzfg": false,
      "metar_trigger": false,
      "taf_trigger": false,
      "metar": "METAR LIPH 300620Z 06007KT 020V110 9999 SCT070 13/M00 Q1024",
      "taf": "TAF LIPH 300500Z 3006/0106 04008KT 9999 SCT050"
    },
    {
      "icao": "LIPQ",
      "alert": "OK",
      "vis_m": 9999,
      "fzfg": false,
      "metar_trigger": false,
      "taf_trigger": false,
      "metar": "METAR LIPQ 300620Z AUTO 10010KT 060V130 9999 NCD 12/M04 Q1024",
      "taf": "TAF LIPQ 300500Z 3006/0106 07013KT 9999 FEW050"
    },
    {
      "icao": "LIPR",
      "alert": "OK",
      "vis_m": 9999,
      "fzfg": false,
      "metar_trigger": false,
      "taf_trigger": false,
      "metar": "METAR LIPR 300620Z 06012KT 030V090 9999 SCT030 14/04 Q1022",
      "taf": "TAF LIPR 300500Z 3006/0106 06015KT 9999 SCT030"
    },
    {
      "icao": "LIPX",
      "alert": "OK",
      "vis_m": 9999,
      "fzfg": false,
      "metar_trigger": false,
      "taf_trigger": false,
      "metar": "METAR LIPX 300620Z 07011KT 040V100 9999 BKN060 14/00 Q1023",
      "taf": "TAF LIPX 300500Z 3006/0106 09013KT 9999 SCT040"
    },
    {
      "icao": "LIPY",
      "alert": "OK",
      "vis_m": 9999,
      "fzfg": false,
      "metar_trigger": false,
      "taf_trigger": false,
      "metar": "METAR LIPY 300620Z AUTO 06010KT 040V100 9999 BKN043/// 16/08 Q1021",
      "taf": "TAF LIPY 300500Z 3006/0106 VRB05KT 9999 SCT030"
    },
    {
      "icao": "LIPZ",
      "alert": "OK",
      "vis_m": 9999,
      "fzfg": false,
      "metar_trigger": false,
      "taf_trigger": false,
      "metar": "METAR LIPZ 300620Z 05010KT 9999 SCT070 12/01 Q1024 NOSIG",
      "taf": "TAF LIPZ 300500Z 3006/0112 06015KT 9999 FEW030"
    },
    {
      "icao": "LIRF",
      "alert": "OK",
      "vis_m": 9999,
      "fzfg": false,
      "metar_trigger": false,
      "taf_trigger": false,
      "metar": "METAR LIRF 300620Z 06005KT CAVOK 15/13 Q1017 NOSIG",
      "taf": "TAF LIRF 300500Z 3006/0112 05008KT 9999 SCT040"
    },
    {
      "icao": "LIRN",
      "alert": "OK",
      "vis_m": 9999,
      "fzfg": false,
      "metar_trigger": false,
      "taf_trigger": false,
      "metar": "METAR LIRN 300620Z 04004KT 010V080 9999 -RA BKN070 15/12 Q1016 NOSIG",
      "taf": "TAF LIRN 300500Z 3006/0106 VRB05KT CAVOK"
    },
    {
      "icao": "LIRP",
      "alert": "OK",
      "vis_m": 9999,
      "fzfg": false,
      "metar_trigger": false,
      "taf_trigger": false,
      "metar": "METAR LIRP 300615Z 10011KT CAVOK 17/09 Q1018 NOSIG",
      "taf": "TAF LIRP 300500Z 3006/0106 10012KT CAVOK"
    },
    {
      "icao": "LIRZ",
      "alert": "OK",
      "vis_m": 9999,
      "fzfg": false,
      "metar_trigger": false,
      "taf_trigger": false,
      "metar": "METAR LIRZ 300620Z AUTO 02011KT 9999 NCD 14/09 Q1019",
      "taf": "TAF LIRZ 300500Z 3006/0106 04013KT 9999 SCT050"
    },
    {
      "icao": "LJLJ",
      "alert": "OK",
      "vis_m": 9999,
      "fzfg": false,
      "metar_trigger": false,
      "taf_trigger": false,
      "metar": "METAR LJLJ 300630Z VRB02KT 9999 FEW033 06/01 Q1027 NOSIG",
      "taf": "TAF LJLJ 300500Z 3006/0106 13005KT 9999 FEW060"
    },
    {
      "icao": "LKMT",
      "alert": "OK",
      "vis_m": 9999,
      "fzfg": false,
      "metar_trigger": false,
      "taf_trigger": false,
      "metar": "METAR LKMT 300630Z 06007KT CAVOK 04/M03 Q1031 NOSIG",
      "taf": "TAF LKMT 300500Z 3006/0106 02012KT CAVOK"
    },
    {
      "icao": "LKPR",
      "alert": "OK",
      "vis_m": 9999,
      "fzfg": false,
      "metar_trigger": false,
      "taf_trigger": false,
      "metar": "METAR LKPR 300630Z 05003KT CAVOK 07/M06 Q1032 NOSIG",
      "taf": "TAF LKPR 300500Z 3006/0112 06006KT CAVOK"
    },
    {
      "icao": "LLBG",
      "alert": "OK",
      "vis_m": 9999,
      "fzfg": false,
      "metar_trigger": false,
      "taf_trigger": false,
      "metar": "METAR LLBG 300620Z VRB02KT 9999 FEW015 21/14 Q1015 NOSIG",
      "taf": "TAF LLBG 300507Z 3006/0106 VRB04KT 9999 FEW017 TX24/3009Z TN14/0104Z"
    },
    {
      "icao": "LMML",
      "alert": "OK",
      "vis_m": 9999,
      "fzfg": false,
      "metar_trigger": false,
      "taf_trigger": false,
      "metar": "METAR LMML 300615Z 07006KT 030V110 CAVOK 19/16 Q1015 NOSIG",
      "taf": "TAF LMML 300500Z 3006/0106 10008KT 9999 FEW015"
    },
    {
      "icao": "LOWW",
      "alert": "OK",
      "vis_m": 9999,
      "fzfg": false,
      "metar_trigger": false,
      "taf_trigger": false,
      "metar": "METAR LOWW 300620Z 35008KT CAVOK 06/M05 Q1031 NOSIG",
      "taf": "TAF LOWW 300515Z 3006/0112 01013KT CAVOK TX18/0112Z TN04/3006Z"
    },
    {
      "icao": "LPFR",
      "alert": "OK",
      "vis_m": 9999,
      "fzfg": false,
      "metar_trigger": false,
      "taf_trigger": false,
      "metar": "METAR LPFR 300630Z 03006KT 9999 FEW020 14/10 Q1016",
      "taf": "TAF LPFR 300500Z 3006/0106 02005KT 9999 FEW020"
    },
    {
      "icao": "LPMA",
      "alert": "OK",
      "vis_m": 9999,
      "fzfg": false,
      "metar_trigger": false,
      "taf_trigger": false,
      "metar": "METAR LPMA 300630Z 26005KT 9999 FEW015 SCT030 15/09 Q1014",
      "taf": "TAF LPMA 300500Z 3006/0106 21007KT 9999 SCT015"
    },
    {
      "icao": "LPPR",
      "alert": "OK",
      "vis_m": 9999,
      "fzfg": false,
      "metar_trigger": false,
      "taf_trigger": false,
      "metar": "METAR LPPR 300630Z 17008KT 9999 FEW011 BKN040 15/13 Q1014",
      "taf": "TAF LPPR 300500Z 3006/0106 18008KT 9999 SCT012 BKN040"
    },
    {
      "icao": "LPPS",
      "alert": "OK",
      "vis_m": 9999,
      "fzfg": false,
      "metar_trigger": false,
      "taf_trigger": false,
      "metar": "METAR LPPS 300630Z 00000KT 9999 FEW014 14/11 Q1015",
      "taf": "TAF LPPS 300500Z 3006/0112 VRB05KT 9999 SCT015 BKN030"
    },
    {
      "icao": "LPPT",
      "alert": "OK",
      "vis_m": 9000,
      "fzfg": false,
      "metar_trigger": false,
      "taf_trigger": false,
      "metar": "METAR LPPT 300630Z VRB05KT 9000 -RA SCT012 BKN038 15/13 Q1015",
      "taf": "TAF LPPT 300500Z 3006/0112 23005KT 9999 SCT012"
    },
    {
      "icao": "LQBK",
      "alert": "OK",
      "vis_m": 9999,
      "fzfg": false,
      "metar_trigger": false,
      "taf_trigger": false,
      "metar": "METAR LQBK 300630Z 31008KT 9999 FEW015 BKN033 07/03 Q1027 NOSIG",
      "taf": "TAF LQBK 300500Z 3006/0106 33005KT 9999 SCT040 TX13/3013Z TN01/3005Z"
    },
    {
      "icao": "LQSA",
      "alert": "OK",
      "vis_m": 8000,
      "fzfg": false,
      "metar_trigger": false,
      "taf_trigger": false,
      "metar": "METAR LQSA 300630Z VRB02KT 8000 -RA FEW009 SCT012 BKN025 05/04 Q1024 NOSIG",
      "taf": "TAF LQSA 300500Z 3006/0106 30007KT 9999 FEW025 BKN050 TX12/3013Z TN00/0104Z"
    },
    {
      "icao": "LQTZ",
      "alert": "OK",
      "vis_m": 9999,
      "fzfg": false,
      "metar_trigger": false,
      "taf_trigger": false,
      "metar": "METAR LQTZ 300630Z 36004KT 9999 -RA SCT007 BKN015 OVC023 07/06 Q1026",
      "taf": "TAF LQTZ 300500Z 3006/0106 31005KT 9999 SCT040 TX13/3013Z TNM02/0105Z"
    },
    {
      "icao": "LRBC",
      "alert": "OK",
      "vis_m": 9999,
      "fzfg": false,
      "metar_trigger": false,
      "taf_trigger": false,
      "metar": "METAR LRBC 300630Z 35009KT CAVOK 07/M02 Q1026",
      "taf": "TAF LRBC 300500Z 3006/3015 34008KT CAVOK"
    },
    {
      "icao": "LRBS",
      "alert": "OK",
      "vis_m": 9999,
      "fzfg": false,
      "metar_trigger": false,
      "taf_trigger": false,
      "metar": "METAR LRBS 300630Z 04014KT 350V070 9999 -RA FEW009 BKN014 OVC027 05/04 Q1023 TEMPO BKN010 OVC020",
      "taf": "TAF LRBS 300500Z 3006/0106 05015KT 9999 BKN015 OVC030"
    },
    {
      "icao": "LRBV",
      "alert": "OK",
      "vis_m": 9999,
      "fzfg": false,
      "metar_trigger": false,
      "taf_trigger": false,
      "metar": "METAR LRBV 300630Z 12007KT 9999 -DZ SCT018 OVC038 03/01 Q1023",
      "taf": "TAF LRBV 300500Z 3006/3015 08010KT 9999 SCT015 OVC025"
    },
    {
      "icao": "LRCL",
      "alert": "OK",
      "vis_m": 9999,
      "fzfg": false,
      "metar_trigger": false,
      "taf_trigger": false,
      "metar": "METAR LRCL 300630Z VRB01KT 9999 BKN051 07/M02 Q1024",
      "taf": "TAF LRCL 300500Z 3006/3015 VRB04KT 9999 BKN045"
    },
    {
      "icao": "LRCV",
      "alert": "OK",
      "vis_m": 9999,
      "fzfg": false,
      "metar_trigger": false,
      "taf_trigger": false,
      "metar": "METAR LRCV 300630Z 08012KT 9999 RA SCT010 BKN015 OVC020 06/05 Q1023",
      "taf": "TAF LRCV 300500Z 3006/3015 08014KT 9999 SCT010 OVC035"
    },
    {
      "icao": "LRIA",
      "alert": "OK",
      "vis_m": 9999,
      "fzfg": false,
      "metar_trigger": false,
      "taf_trigger": false,
      "metar": "METAR LRIA 300630Z 23004KT 190V270 CAVOK 06/M03 Q1026",
      "taf": "TAF LRIA 300500Z 3006/3015 VRB04KT CAVOK"
    },
    {
      "icao": "LROP",
      "alert": "OK",
      "vis_m": 9999,
      "fzfg": false,
      "metar_trigger": false,
      "taf_trigger": false,
      "metar": "METAR LROP 300630Z 05021KT 9999 -RA OVC012 05/04 Q1023 NOSIG",
      "taf": "TAF LROP 300500Z 3006/0106 05015KT 9999 BKN015 OVC030"
    },
    {
      "icao": "LRSB",
      "alert": "OK",
      "vis_m": 9999,
      "fzfg": false,
      "metar_trigger": false,
      "taf_trigger": false,
      "metar": "METAR LRSB 300630Z 12005KT 080V150 9999 SCT021 BKN030 06/01 Q1023",
      "taf": "TAF LRSB 300500Z 3006/0106 09006KT 9999 SCT020 BKN035"
    },
    {
      "icao": "LRSM",
      "alert": "OK",
      "vis_m": 9999,
      "fzfg": false,
      "metar_trigger": false,
      "taf_trigger": false,
      "metar": "METAR LRSM 300630Z 04006KT CAVOK 10/M03 Q1026",
      "taf": "TAF LRSM 300500Z 3006/3015 VRB04KT CAVOK"
    },
    {
      "icao": "LRSV",
      "alert": "OK",
      "vis_m": 9999,
      "fzfg": false,
      "metar_trigger": false,
      "taf_trigger": false,
      "metar": "METAR LRSV 300630Z 34009KT 310V010 CAVOK 06/M03 Q1025",
      "taf": "TAF LRSV 300500Z 3006/3015 35008KT CAVOK"
    },
    {
      "icao": "LRTM",
      "alert": "OK",
      "vis_m": 9999,
      "fzfg": false,
      "metar_trigger": false,
      "taf_trigger": false,
      "metar": "METAR LRTM 300630Z VRB02KT CAVOK 08/00 Q1024",
      "taf": "TAF LRTM 300500Z 3006/3015 VRB04KT 9999 SCT030 BKN045"
    },
    {
      "icao": "LRTR",
      "alert": "OK",
      "vis_m": 9999,
      "fzfg": false,
      "metar_trigger": false,
      "taf_trigger": false,
      "metar": "METAR LRTR 300630Z 01011KT 330V030 CAVOK 07/M03 Q1024",
      "taf": "TAF LRTR 300500Z 3006/0106 36015KT CAVOK"
    },
    {
      "icao": "LTAC",
      "alert": "OK",
      "vis_m": 9999,
      "fzfg": false,
      "metar_trigger": false,
      "taf_trigger": false,
      "metar": "METAR LTAC 300620Z 21003KT 150V310 CAVOK 11/01 Q1017 NOSIG RMK RWY21C 21003KT 110V280 RWY03L 15003KT 110V200 RWY21R 17003KT 090V240 RWY03R VRB02KT RWY21L VRB02KT",
      "taf": "TAF LTAC 300440Z 3006/0106 VRB02KT CAVOK"
    },
    {
      "icao": "LTFM",
      "alert": "OK",
      "vis_m": 9999,
      "fzfg": false,
      "metar_trigger": false,
      "taf_trigger": false,
      "metar": "METAR LTFM 300620Z 05015KT 9999 BKN020 12/07 Q1019 NOSIG RMK RWY17L 04012KT RWY34L 04013KT 010V070 RWY16R 04012KT RWY36 05014KT RWY18 05012KT",
      "taf": "TAF LTFM 300440Z 3006/0112 05016G26KT 9999 BKN020"
    },
    {
      "icao": "LUKK",
      "alert": "OK",
      "vis_m": 9999,
      "fzfg": false,
      "metar_trigger": false,
      "taf_trigger": false,
      "metar": "METAR LUKK 300630Z 02004KT 330V070 CAVOK 09/M03 Q1025 NOSIG",
      "taf": "TAF LUKK 300504Z 3006/0106 01010KT CAVOK"
    },
    {
      "icao": "LWOH",
      "alert": "OK",
      "vis_m": 9999,
      "fzfg": false,
      "metar_trigger": false,
      "taf_trigger": false,
      "metar": "METAR LWOH 300620Z 30004KT 260V010 CAVOK 13/07 Q1017",
      "taf": "TAF LWOH 300520Z 3006/0106 VRB02KT 9999 FEW040"
    },
    {
      "icao": "LWSK",
      "alert": "OK",
      "vis_m": 9999,
      "fzfg": false,
      "metar_trigger": false,
      "taf_trigger": false,
      "metar": "METAR LWSK 300620Z 35004KT 310V010 9999 -RA SCT035 OVC090 11/07 Q1020 NOSIG",
      "taf": "TAF LWSK 300520Z 3006/0106 VRB02KT 9999 FEW035 BKN050"
    },
    {
      "icao": "LYBE",
      "alert": "OK",
      "vis_m": 9999,
      "fzfg": false,
      "metar_trigger": false,
      "taf_trigger": false,
      "metar": "METAR LYBE 300630Z 34010KT CAVOK 07/M03 Q1025 NOSIG",
      "taf": "TAF LYBE 300500Z 3006/0106 34012KT CAVOK TX16/3013Z TN04/0104Z"
    },
    {
      "icao": "LYNI",
      "alert": "OK",
      "vis_m": 9999,
      "fzfg": false,
      "metar_trigger": false,
      "taf_trigger": false,
      "metar": "METAR LYNI 300630Z 33011KT 9999 -RA FEW012 SCT017 BKN033 07/07 Q1023 NOSIG",
      "taf": "TAF LYNI 300500Z 3006/0106 33012KT 9999 SCT014 BKN040 BKN080 TX10/3014Z TN02/0104Z"
    },
    {
      "icao": "LYPG",
      "alert": "OK",
      "vis_m": 9999,
      "fzfg": false,
      "metar_trigger": false,
      "taf_trigger": false,
      "metar": "METAR LYPG 300630Z 00000KT 9999 FEW040 OVC080 15/13 Q1017 BECMG 36015KT",
      "taf": "TAF LYPG 300500Z 3006/0106 36008KT 9999 SCT040 BKN080 TX16/3007Z TN09/0103Z"
    },
    {
      "icao": "LZIB",
      "alert": "OK",
      "vis_m": 9999,
      "fzfg": false,
      "metar_trigger": false,
      "taf_trigger": false,
      "metar": "METAR LZIB 300630Z 02011KT CAVOK 07/M07 Q1030 NOSIG",
      "taf": "TAF LZIB 300515Z 3006/0106 03012KT CAVOK"
    },
    {
      "icao": "LZKZ",
      "alert": "OK",
      "vis_m": 9999,
      "fzfg": false,
      "metar_trigger": false,
      "taf_trigger": false,
      "metar": "METAR LZKZ 300630Z 02017KT CAVOK 06/M05 Q1028 NOSIG",
      "taf": "TAF LZKZ 300515Z 3006/0106 02016KT CAVOK"
    },
    {
      "icao": "LZTT",
      "alert": "OK",
      "vis_m": 9999,
      "fzfg": false,
      "metar_trigger": false,
      "taf_trigger": false,
      "metar": "METAR LZTT 300630Z 06018KT 9999 FEW040 03/M08 Q1027 NOSIG",
      "taf": "TAF LZTT 300515Z 3006/0106 07007KT 9999 FEW045"
    },
    {
      "icao": "OEJN",
      "alert": "OK",
      "vis_m": 9999,
      "fzfg": false,
      "metar_trigger": false,
      "taf_trigger": false,
      "metar": "METAR OEJN 300600Z 34010KT CAVOK 28/17 Q1011 NOSIG",
      "taf": "TAF OEJN 300500Z 3006/0112 33015KT CAVOK"
    },
    {
      "icao": "OEMA",
      "alert": "OK",
      "vis_m": 9999,
      "fzfg": false,
      "metar_trigger": false,
      "taf_trigger": false,
      "metar": "METAR OEMA 300600Z VRB02KT CAVOK 27/06 Q1015 NOSIG",
      "taf": "TAF OEMA 300500Z 3006/0112 26012KT CAVOK"
    },
    {
      "icao": "OJAI",
      "alert": "OK",
      "vis_m": 5000,
      "fzfg": false,
      "metar_trigger": false,
      "taf_trigger": false,
      "metar": "METAR OJAI 300600Z 00000KT 5000 HZ NSC 20/11 Q1019 NOSIG",
      "taf": "TAF OJAI 300500Z 3006/0112 30012KT 5000 HZ NSC"
    },
    {
      "icao": "OMAA",
      "alert": "OK",
      "vis_m": 9999,
      "fzfg": false,
      "metar_trigger": false,
      "taf_trigger": false,
      "metar": "METAR OMAA 300630Z 30010KT CAVOK 36/13 Q1008 NOSIG",
      "taf": "TAF OMAA 300500Z 3006/0112 22005KT 8000 NSC"
    },
    {
      "icao": "OMDB",
      "alert": "OK",
      "vis_m": 9999,
      "fzfg": false,
      "metar_trigger": false,
      "taf_trigger": false,
      "metar": "METAR OMDB 300630Z 30015KT 250V330 CAVOK 37/13 Q1008 NOSIG",
      "taf": "TAF OMDB 300500Z 3006/0112 22005KT CAVOK"
    },
    {
      "icao": "UAAA",
      "alert": "OK",
      "vis_m": 9999,
      "fzfg": false,
      "metar_trigger": false,
      "taf_trigger": false,
      "metar": "METAR UAAA 300630Z 03002MPS 9999 FEW050 25/08 Q1012 NOSIG",
      "taf": "TAF UAAA 300501Z 3006/0106 03003G08MPS 9999 FEW050CB SCT100 TX27/3009Z TN11/0101Z"
    },
    {
      "icao": "UBBB",
      "alert": "OK",
      "vis_m": 9999,
      "fzfg": false,
      "metar_trigger": false,
      "taf_trigger": false,
      "metar": "METAR UBBB 300630Z 32014KT 9999 SCT018 13/08 Q1019 NOSIG",
      "taf": "TAF UBBB 300502Z 3006/0106 31012KT 9999 SCT015 BKN030 TX15/3010Z TN09/0101Z"
    },
    {
      "icao": "UDSG",
      "alert": "OK",
      "vis_m": 9999,
      "fzfg": false,
      "metar_trigger": false,
      "taf_trigger": false,
      "metar": "METAR UDSG 300630Z 21002KT 9999 FEW049 11/01 Q1019 NOSIG",
      "taf": "TAF UDSG 300500Z 3006/0106 24006KT 9999 FEW050"
    },
    {
      "icao": "UDYZ",
      "alert": "OK",
      "vis_m": 9999,
      "fzfg": false,
      "metar_trigger": false,
      "taf_trigger": false,
      "metar": "METAR UDYZ 300630Z 17003KT 120V240 9999 FEW046 16/08 Q1017 NOSIG",
      "taf": "TAF UDYZ 300500Z 3006/0106 16004KT 9999 FEW040"
    },
    {
      "icao": "UGKO",
      "alert": "OK",
      "vis_m": 9999,
      "fzfg": false,
      "metar_trigger": false,
      "taf_trigger": false,
      "metar": "METAR UGKO 300630Z VRB02KT CAVOK 15/07 Q1019 NOSIG",
      "taf": "TAF UGKO 300500Z 3006/0106 26007KT CAVOK TX21/3011Z TN07/0103Z"
    }
  ]
}