{
  "ts_utc": "2025-12-31T14:40:50Z",
  "threshold_m": 150,
  "source": "stations_override.txt (ICAO list) + aviationweather.gov (METAR/TAF raw)",
  "station_count": 159,
  "stations": [
    {
      "icao": "BIKF",
      "alert": "OK",
      "vis_m": 9999,
      "fzfg": false,
      "metar_trigger": false,
      "taf_trigger": false,
      "metar": "METAR BIKF 311430Z 02011KT CAVOK 02/M02 Q1028",
      "taf": "TAF BIKF 311333Z 3115/0115 01010KT CAVOK TX03/0115Z TNM05/0105Z"
    },
    {
      "icao": "BKPR",
      "alert": "OK",
      "vis_m": 9999,
      "fzfg": false,
      "metar_trigger": false,
      "taf_trigger": false,
      "metar": "METAR BKPR 311430Z 35012KT 9999 FEW060 M02/M14 Q1016 NOSIG",
      "taf": "TAF BKPR 311130Z 3112/0112 33008KT 9999 SCT040"
    },
    {
      "icao": "EBCI",
      "alert": "OK",
      "vis_m": 1800,
      "fzfg": false,
      "metar_trigger": false,
      "taf_trigger": false,
      "metar": "METAR EBCI 311420Z 25007KT 220V280 1800 BR BKN002 02/02 Q1025 TEMPO 1400 BR",
      "taf": ""
    },
    {
      "icao": "EDDB",
      "alert": "OK",
      "vis_m": 5000,
      "fzfg": false,
      "metar_trigger": false,
      "taf_trigger": false,
      "metar": "METAR EDDB 311420Z AUTO 29010KT 5000 -SHRA BR BKN006 FEW///TCU 02/02 Q1011 NOSIG",
      "taf": "TAF EDDB 311100Z 3112/0112 25010KT 9999 BKN006"
    },
    {
      "icao": "EDDH",
      "alert": "OK",
      "vis_m": 9999,
      "fzfg": false,
      "metar_trigger": false,
      "taf_trigger": false,
      "metar": "METAR EDDH 311420Z AUTO 29010KT 260V320 9999 FEW020 SCT030 BKN040 06/03 Q1013 RESHRA TEMPO SHRA BKN015CB",
      "taf": "TAF EDDH 311100Z 3112/0118 28009KT 9999 SCT020 SCT035"
    },
    {
      "icao": "EDDK",
      "alert": "OK",
      "vis_m": 9999,
      "fzfg": false,
      "metar_trigger": false,
      "taf_trigger": false,
      "metar": "METAR EDDK 311420Z AUTO 27009KT 9999 -DZ BKN012 BKN018 04/02 Q1023 TEMPO BKN009",
      "taf": "TAF EDDK 311100Z 3112/0118 26007KT 9999 BKN012"
    },
    {
      "icao": "EDDN",
      "alert": "OK",
      "vis_m": 9999,
      "fzfg": false,
      "metar_trigger": false,
      "taf_trigger": false,
      "metar": "METAR EDDN 311420Z AUTO 27012KT 9999 OVC014 M00/M03 Q1020 TEMPO OVC015",
      "taf": "TAF EDDN 311100Z 3112/0112 26012KT 9999 OVC012"
    },
    {
      "icao": "EDDS",
      "alert": "OK",
      "vis_m": 9999,
      "fzfg": false,
      "metar_trigger": false,
      "taf_trigger": false,
      "metar": "METAR EDDS 311420Z AUTO 28005KT 9999 FEW031 02/M06 Q1022 NOSIG",
      "taf": "TAF EDDS 311100Z 3112/0112 23004KT 9999 SCT030"
    },
    {
      "icao": "EDFH",
      "alert": "OK",
      "vis_m": 5000,
      "fzfg": false,
      "metar_trigger": false,
      "taf_trigger": false,
      "metar": "METAR EDFH 311420Z 26009KT 5000 -SN OVC002 M01/M01 Q1022",
      "taf": ""
    },
    {
      "icao": "EDJA",
      "alert": "OK",
      "vis_m": 9999,
      "fzfg": false,
      "metar_trigger": false,
      "taf_trigger": false,
      "metar": "METAR EDJA 311420Z 26006KT CAVOK M02/M10 Q1021",
      "taf": "TAF EDJA 311400Z 3115/3124 22007KT CAVOK"
    },
    {
      "icao": "EDLW",
      "alert": "OK",
      "vis_m": 9999,
      "fzfg": false,
      "metar_trigger": false,
      "taf_trigger": false,
      "metar": "METAR EDLW 311420Z 25008KT 220V280 9999 SCT007 BKN009 OVC034 03/02 Q1021",
      "taf": "TAF EDLW 311100Z 3112/0112 24010KT 4500 BR BKN004"
    },
    {
      "icao": "EDNY",
      "alert": "OK",
      "vis_m": 9999,
      "fzfg": false,
      "metar_trigger": false,
      "taf_trigger": false,
      "metar": "METAR EDNY 311420Z 21005KT CAVOK 00/M06 Q1023",
      "taf": "TAF EDNY 311400Z 3115/3124 VRB02KT CAVOK"
    },
    {
      "icao": "EDSB",
      "alert": "OK",
      "vis_m": 9999,
      "fzfg": false,
      "metar_trigger": false,
      "taf_trigger": false,
      "metar": "METAR EDSB 311420Z 20006KT CAVOK 01/M05 Q1025",
      "taf": "TAF EDSB 311100Z 3112/0112 20005KT 9999 BKN030"
    },
    {
      "icao": "EETN",
      "alert": "OK",
      "vis_m": 9999,
      "fzfg": false,
      "metar_trigger": false,
      "taf_trigger": false,
      "metar": "METAR EETN 311420Z 35006KT 9999 SCT032 M06/M12 Q1005 NOSIG",
      "taf": ""
    },
    {
      "icao": "EFTU",
      "alert": "OK",
      "vis_m": 9999,
      "fzfg": false,
      "metar_trigger": false,
      "taf_trigger": false,
      "metar": "METAR EFTU 311420Z AUTO VRB02KT CAVOK M11/M12 Q1007",
      "taf": "TAF EFTU 311428Z 3115/0115 VRB01KT CAVOK"
    },
    {
      "icao": "EGBB",
      "alert": "OK",
      "vis_m": 9999,
      "fzfg": false,
      "metar_trigger": false,
      "taf_trigger": false,
      "metar": "METAR EGBB 311420Z 30008KT 9999 SCT024 05/M00 Q1027",
      "taf": "TAF EGBB 311057Z 3112/0112 27006KT 9999 FEW040"
    },
    {
      "icao": "EGGP",
      "alert": "OK",
      "vis_m": 9999,
      "fzfg": false,
      "metar_trigger": false,
      "taf_trigger": false,
      "metar": "METAR EGGP 311420Z 30011KT 9999 BKN028 OVC033 06/M00 Q1027",
      "taf": "TAF EGGP 311102Z 3112/0112 27010KT 9999 SCT035"
    },
    {
      "icao": "EGGW",
      "alert": "OK",
      "vis_m": 9999,
      "fzfg": false,
      "metar_trigger": false,
      "taf_trigger": false,
      "metar": "METAR EGGW 311420Z AUTO 28010KT 9999 NCD 02/M00 Q1026",
      "taf": "TAF EGGW 311056Z 3112/0112 27009KT 9999 FEW025"
    },
    {
      "icao": "EGKK",
      "alert": "OK",
      "vis_m": 9999,
      "fzfg": false,
      "metar_trigger": false,
      "taf_trigger": false,
      "metar": "METAR EGKK 311420Z 22006KT 9999 3000SW VCFG NSC 02/01 Q1027",
      "taf": ""
    },
    {
      "icao": "EGNM",
      "alert": "OK",
      "vis_m": 9999,
      "fzfg": false,
      "metar_trigger": false,
      "taf_trigger": false,
      "metar": "METAR EGNM 311420Z 27014KT 9999 FEW017 SCT023 04/01 Q1023",
      "taf": "TAF EGNM 311103Z 3112/0112 28018KT 9999 FEW040"
    },
    {
      "icao": "EGPD",
      "alert": "OK",
      "vis_m": 9999,
      "fzfg": false,
      "metar_trigger": false,
      "taf_trigger": false,
      "metar": "METAR EGPD 311420Z COR AUTO 27013KT 230V300 9999 NCD 08/02 Q1017 NOSIG",
      "taf": "TAF EGPD 311053Z 3112/0112 27009KT 9999 SCT030"
    },
    {
      "icao": "EGPF",
      "alert": "OK",
      "vis_m": 9999,
      "fzfg": false,
      "metar_trigger": false,
      "taf_trigger": false,
      "metar": "METAR EGPF 311420Z AUTO 25010KT 9999 -RA BKN021 OVC026 06/05 Q1023",
      "taf": ""
    },
    {
      "icao": "EHBK",
      "alert": "OK",
      "vis_m": 6000,
      "fzfg": false,
      "metar_trigger": false,
      "taf_trigger": false,
      "metar": "METAR EHBK 311425Z AUTO 24006KT 210V270 6000 BKN004 OVC005 03/03 Q1023 REDZ NOSIG",
      "taf": "TAF EHBK 311118Z 3112/0118 24006KT 6000 SCT004 SCT040"
    },
    {
      "icao": "EHEH",
      "alert": "OK",
      "vis_m": 9999,
      "fzfg": false,
      "metar_trigger": false,
      "taf_trigger": false,
      "metar": "METAR EHEH 311425Z AUTO 25008KT 210V290 9999 DZ FEW008 SCT009 BKN011 05/03 Q1023 GRN TEMPO FEW007 SCT015 BKN018 RMK TREND REMOTE BY EHWX",
      "taf": "TAF EHEH 311125Z 3112/0118 24007KT 9999 BKN025"
    },
    {
      "icao": "EKBI",
      "alert": "OK",
      "vis_m": 9999,
      "fzfg": false,
      "metar_trigger": false,
      "taf_trigger": false,
      "metar": "METAR EKBI 311420Z AUTO 27006KT 9999 BKN034/// 04/03 Q1011",
      "taf": "TAF EKBI 311427Z 3115/0115 28008KT 9999 SCT030"
    },
    {
      "icao": "EKCH",
      "alert": "OK",
      "vis_m": 9999,
      "fzfg": false,
      "metar_trigger": false,
      "taf_trigger": false,
      "metar": "METAR EKCH 311420Z AUTO 30006KT 9999 SCT014/// 04/01 Q1009 NOSIG",
      "taf": "TAF EKCH 311427Z 3115/0115 28008KT 9999 SCT020"
    },
    {
      "icao": "ENAL",
      "alert": "OK",
      "vis_m": 9999,
      "fzfg": false,
      "metar_trigger": false,
      "taf_trigger": false,
      "metar": "METAR ENAL 311420Z 20012KT 9999 FEW015 BKN045 04/01 Q0999",
      "taf": "TAF ENAL 311400Z 3115/3124 19015KT 9999 -RA SCT015 BKN030"
    },
    {
      "icao": "ENBR",
      "alert": "OK",
      "vis_m": 9999,
      "fzfg": false,
      "metar_trigger": false,
      "taf_trigger": false,
      "metar": "METAR ENBR 311420Z 14009KT 9999 FEW006 SCT025 BKN035 03/03 Q1006 TEMPO 4000 SHRASN BKN008 SCT015CB RMK WIND 1200FT 17012KT",
      "taf": "TAF ENBR 311100Z 3112/0112 14007KT 9999 -SHRASN SCT015 BKN025"
    },
    {
      "icao": "ENGM",
      "alert": "OK",
      "vis_m": 9999,
      "fzfg": false,
      "metar_trigger": false,
      "taf_trigger": false,
      "metar": "METAR ENGM 311420Z 14004KT CAVOK M03/M07 Q1005 NOSIG",
      "taf": "TAF ENGM 311100Z 3112/0112 18008KT CAVOK"
    },
    {
      "icao": "ENHD",
      "alert": "OK",
      "vis_m": 9999,
      "fzfg": false,
      "metar_trigger": false,
      "taf_trigger": false,
      "metar": "METAR ENHD 311420Z AUTO 20005KT 130V240 9999 -RA FEW016/// BKN024/// BKN030/// 04/03 Q1007",
      "taf": "TAF ENHD 311100Z 3112/3118 VRB05KT 9999 -SHRA FEW015 BKN030"
    },
    {
      "icao": "ENTC",
      "alert": "OK",
      "vis_m": 9999,
      "fzfg": false,
      "metar_trigger": false,
      "taf_trigger": false,
      "metar": "METAR ENTC 311420Z 14003KT 110V170 9999 FEW011 M09/M12 Q1006 NOSIG RMK WIND 2600FT 07005KT",
      "taf": ""
    },
    {
      "icao": "ENTO",
      "alert": "OK",
      "vis_m": 9999,
      "fzfg": false,
      "metar_trigger": false,
      "taf_trigger": false,
      "metar": "METAR ENTO 311420Z 17004KT CAVOK M02/M06 Q1007 NOSIG",
      "taf": ""
    },
    {
      "icao": "ENVA",
      "alert": "OK",
      "vis_m": 9999,
      "fzfg": false,
      "metar_trigger": false,
      "taf_trigger": false,
      "metar": "METAR ENVA 311420Z 19011KT 9999 FEW017 SCT022 BKN028 01/M00 Q0999 TEMPO 26010KT 1500 SHSN BKN009 SCT018CB RMK WIND 670FT 21020KT",
      "taf": ""
    },
    {
      "icao": "ENZV",
      "alert": "OK",
      "vis_m": 9999,
      "fzfg": false,
      "metar_trigger": false,
      "taf_trigger": false,
      "metar": "METAR ENZV 311420Z 14005KT 9999 FEW020 SCT045 03/02 Q1009 BECMG 28012KT TEMPO 4000 SHRA BKN008 SCT015CB",
      "taf": "TAF ENZV 311100Z 3112/0112 VRB05KT 9999 -SHRA FEW010 BKN020"
    },
    {
      "icao": "EPGD",
      "alert": "OK",
      "vis_m": 3000,
      "fzfg": false,
      "metar_trigger": false,
      "taf_trigger": false,
      "metar": "METAR EPGD 311430Z 30003KT 3000 SHSN BKN002 BKN012CB M02/M02 Q1006 RESHSN",
      "taf": "TAF EPGD 311130Z 3112/0112 VRB05KT 9999 BKN020"
    },
    {
      "icao": "EPKK",
      "alert": "OK",
      "vis_m": 6000,
      "fzfg": false,
      "metar_trigger": false,
      "taf_trigger": false,
      "metar": "METAR EPKK 311430Z 24009KT 6000 -SHSN BKN031CB M03/M05 Q1011",
      "taf": "TAF EPKK 311430Z 3115/0115 25009KT 9999 BKN020"
    },
    {
      "icao": "EPKT",
      "alert": "OK",
      "vis_m": 9999,
      "fzfg": false,
      "metar_trigger": false,
      "taf_trigger": false,
      "metar": "METAR EPKT 311430Z 23008KT CAVOK M03/M06 Q1010",
      "taf": "TAF EPKT 311130Z 3112/0112 30010KT 9999 BKN020"
    },
    {
      "icao": "EPLB",
      "alert": "OK",
      "vis_m": 9999,
      "fzfg": false,
      "metar_trigger": false,
      "taf_trigger": false,
      "metar": "METAR EPLB 311430Z 29009KT CAVOK M04/M07 Q1008",
      "taf": "TAF EPLB 311130Z 3112/0112 28012KT 9999 SCT022"
    },
    {
      "icao": "EPMO",
      "alert": "OK",
      "vis_m": 1200,
      "fzfg": false,
      "metar_trigger": false,
      "taf_trigger": false,
      "metar": "METAR EPMO 311430Z 20005KT 140V210 1200 R08/1100U -SHSN BR SCT005 BKN012 BKN018CB M03/M03 Q1008",
      "taf": "TAF EPMO 311130Z 3112/0112 26010KT 9999 BKN020"
    },
    {
      "icao": "EPPO",
      "alert": "OK",
      "vis_m": 8000,
      "fzfg": false,
      "metar_trigger": false,
      "taf_trigger": false,
      "metar": "METAR EPPO 311430Z 25005KT 8000 -SN OVC007 M02/M03 Q1009",
      "taf": "TAF EPPO 311130Z 3112/0112 25010KT CAVOK"
    },
    {
      "icao": "EPRA",
      "alert": "OK",
      "vis_m": 2100,
      "fzfg": false,
      "metar_trigger": false,
      "taf_trigger": false,
      "metar": "METAR EPRA 311430Z 28010KT 2100 -SHSN BR SCT010 BKN020CB OVC035 M04/M05 Q1009",
      "taf": "TAF EPRA 311430Z 3115/3124 27010KT 9999 BKN020"
    },
    {
      "icao": "EPRZ",
      "alert": "OK",
      "vis_m": 9999,
      "fzfg": false,
      "metar_trigger": false,
      "taf_trigger": false,
      "metar": "METAR EPRZ 311430Z 27011KT 9999 FEW040 M03/M08 Q1010",
      "taf": "TAF EPRZ 311130Z 3112/0112 27010KT 9999 BKN020"
    },
    {
      "icao": "EPSC",
      "alert": "OK",
      "vis_m": 2800,
      "fzfg": false,
      "metar_trigger": false,
      "taf_trigger": false,
      "metar": "METAR EPSC 311430Z 20002KT 2800 -FZDZ BR OVC002 M01/M01 Q1009",
      "taf": "TAF EPSC 311130Z 3112/0112 22005KT 9999 BKN012"
    },
    {
      "icao": "EPSY",
      "alert": "OK",
      "vis_m": 9999,
      "fzfg": false,
      "metar_trigger": false,
      "taf_trigger": false,
      "metar": "METAR EPSY 311430Z 20004KT 9999 SCT017 BKN031 M05/M06 Q1007",
      "taf": "TAF EPSY 311430Z 3115/3124 VRB02KT 9999 BKN030"
    },
    {
      "icao": "EPWA",
      "alert": "OK",
      "vis_m": 1600,
      "fzfg": false,
      "metar_trigger": false,
      "taf_trigger": false,
      "metar": "METAR EPWA 311430Z 23003KT 1600 -SHSN BR BKN009 BKN023CB M03/M04 Q1008 TEMPO 1100 SHSN",
      "taf": "TAF EPWA 311430Z 3115/0115 VRB02KT 3000 -SN BKN015 BKN024"
    },
    {
      "icao": "EPWR",
      "alert": "OK",
      "vis_m": 6000,
      "fzfg": false,
      "metar_trigger": false,
      "taf_trigger": false,
      "metar": "METAR EPWR 311430Z 20008KT 6000 -SN SCT006 BKN015 M02/M03 Q1011",
      "taf": "TAF EPWR 311430Z 3115/0115 21008KT 5000 -SN BR FEW002 OVC010"
    },
    {
      "icao": "ESGG",
      "alert": "OK",
      "vis_m": 9999,
      "fzfg": false,
      "metar_trigger": false,
      "taf_trigger": false,
      "metar": "METAR ESGG 311420Z 08002KT CAVOK M02/M05 Q1008",
      "taf": "TAF ESGG 311430Z 3115/0115 16005KT CAVOK"
    },
    {
      "icao": "ESKN",
      "alert": "OK",
      "vis_m": 9999,
      "fzfg": false,
      "metar_trigger": false,
      "taf_trigger": false,
      "metar": "METAR ESKN 311420Z 30005KT 9999 BKN008 M06/M06 Q1008",
      "taf": "TAF ESKN 311430Z 3115/0115 31005KT 9999 BKN007"
    },
    {
      "icao": "ESMS",
      "alert": "OK",
      "vis_m": 9999,
      "fzfg": false,
      "metar_trigger": false,
      "taf_trigger": false,
      "metar": "METAR ESMS 311420Z 34006KT 9999 FEW010 BKN014 02/01 Q1008",
      "taf": "TAF ESMS 311427Z 3115/0115 28005KT 9999 FEW040"
    },
    {
      "icao": "ESSA",
      "alert": "OK",
      "vis_m": 9999,
      "fzfg": false,
      "metar_trigger": false,
      "taf_trigger": false,
      "metar": "METAR ESSA 311420Z VRB03KT CAVOK M08/M09 Q1008 NOSIG",
      "taf": "TAF ESSA 311430Z 3115/0115 27003KT CAVOK"
    },
    {
      "icao": "EYKA",
      "alert": "OK",
      "vis_m": 9999,
      "fzfg": false,
      "metar_trigger": false,
      "taf_trigger": false,
      "metar": "METAR EYKA 311420Z 31004KT 250V020 CAVOK M08/M15 Q1006",
      "taf": "TAF EYKA 311100Z 3112/0112 VRB04KT 8000 NSC"
    },
    {
      "icao": "EYPA",
      "alert": "OK",
      "vis_m": 9999,
      "fzfg": false,
      "metar_trigger": false,
      "taf_trigger": false,
      "metar": "METAR EYPA 311420Z AUTO 11001KT 9999 NCD M08/M13 Q1008",
      "taf": "TAF EYPA 311100Z 3112/0112 VRB04KT 8000 NSC"
    },
    {
      "icao": "EYVI",
      "alert": "OK",
      "vis_m": 9999,
      "fzfg": false,
      "metar_trigger": false,
      "taf_trigger": false,
      "metar": "METAR EYVI 311420Z 32008KT 9999 FEW022 M08/M12 Q1004 NOSIG",
      "taf": "TAF EYVI 311100Z 3112/0112 32010KT 9000 BKN015"
    },
    {
      "icao": "GCFV",
      "alert": "OK",
      "vis_m": 9999,
      "fzfg": false,
      "metar_trigger": false,
      "taf_trigger": false,
      "metar": "METAR GCFV 311430Z 13008KT 100V190 9999 FEW020 19/14 Q1018",
      "taf": "TAF GCFV 311400Z 3115/0115 15007KT 9999 FEW010 TX21/0114Z TN15/0106Z"
    },
    {
      "icao": "GCLP",
      "alert": "OK",
      "vis_m": 9999,
      "fzfg": false,
      "metar_trigger": false,
      "taf_trigger": false,
      "metar": "METAR GCLP 311430Z 18014KT 9999 FEW020 21/15 Q1017 NOSIG",
      "taf": "TAF GCLP 311400Z 3115/0115 18018KT 9999 FEW015 TX22/0114Z TN16/0106Z"
    },
    {
      "icao": "GCTS",
      "alert": "OK",
      "vis_m": 9999,
      "fzfg": false,
      "metar_trigger": false,
      "taf_trigger": false,
      "metar": "METAR GCTS 311430Z 24008KT 190V270 CAVOK 21/14 Q1018 NOSIG",
      "taf": "TAF GCTS 311400Z 3115/0115 22007KT 9999 FEW025 TX23/0114Z TN16/0106Z"
    },
    {
      "icao": "GMAD",
      "alert": "OK",
      "vis_m": 9999,
      "fzfg": false,
      "metar_trigger": false,
      "taf_trigger": false,
      "metar": "METAR GMAD 311430Z 00000KT 9999 FEW040 SCT200 22/10 Q1018 NOSIG",
      "taf": "TAF GMAD 311100Z 3112/0118 27010KT 8000 SCT030"
    },
    {
      "icao": "GMMN",
      "alert": "OK",
      "vis_m": 9999,
      "fzfg": false,
      "metar_trigger": false,
      "taf_trigger": false,
      "metar": "METAR GMMN 311430Z 22014KT 9999 FEW006 BKN013 17/15 Q1017 TEMPO 5000 DZ",
      "taf": "TAF GMMN 311100Z 3112/0118 21016KT 9999 BKN013"
    },
    {
      "icao": "GMMX",
      "alert": "OK",
      "vis_m": 9999,
      "fzfg": false,
      "metar_trigger": false,
      "taf_trigger": false,
      "metar": "METAR GMMX 311430Z 28005KT 240V320 9999 SCT026 19/12 Q1018 NOSIG",
      "taf": "TAF GMMX 311100Z 3112/0118 28006KT 8000 SCT026"
    },
    {
      "icao": "HEGN",
      "alert": "OK",
      "vis_m": 9999,
      "fzfg": false,
      "metar_trigger": false,
      "taf_trigger": false,
      "metar": "METAR HEGN 311400Z 05008KT CAVOK 23/08 Q1013 NOSIG",
      "taf": "TAF HEGN 311100Z 3112/0118 05010KT CAVOK"
    },
    {
      "icao": "HEMA",
      "alert": "OK",
      "vis_m": 9999,
      "fzfg": false,
      "metar_trigger": false,
      "taf_trigger": false,
      "metar": "METAR HEMA 311400Z 10008KT CAVOK 22/13 Q1013 NOSIG",
      "taf": "TAF HEMA 311100Z 3112/0118 19010KT CAVOK"
    },
    {
      "icao": "HESH",
      "alert": "OK",
      "vis_m": 9999,
      "fzfg": false,
      "metar_trigger": false,
      "taf_trigger": false,
      "metar": "METAR HESH 311400Z 16017KT 9999 FEW020 23/07 Q1012 NOSIG",
      "taf": "TAF HESH 311100Z 3112/0118 22010KT 9999 SCT025"
    },
    {
      "icao": "HESX",
      "alert": "OK",
      "vis_m": 9999,
      "fzfg": false,
      "metar_trigger": false,
      "taf_trigger": false,
      "metar": "METAR HESX 311400Z 21014KT CAVOK 19/04 Q1011 NOSIG",
      "taf": "TAF HESX 311100Z 3112/0118 25014KT CAVOK"
    },
    {
      "icao": "LATI",
      "alert": "OK",
      "vis_m": 9999,
      "fzfg": false,
      "metar_trigger": false,
      "taf_trigger": false,
      "metar": "METAR LATI 311420Z 32015KT CAVOK 05/M13 Q1014 NOSIG",
      "taf": "TAF LATI 311100Z 3112/0112 34013KT CAVOK TX09/3113Z TNM05/0105Z"
    },
    {
      "icao": "LBPD",
      "alert": "OK",
      "vis_m": 9999,
      "fzfg": false,
      "metar_trigger": false,
      "taf_trigger": false,
      "metar": "METAR LBPD 311430Z AUTO 28011KT 9999 NCD 01/M13 Q1014 NOSIG",
      "taf": "TAF LBPD 311100Z 3112/0112 27016KT CAVOK"
    },
    {
      "icao": "LBSF",
      "alert": "OK",
      "vis_m": 9999,
      "fzfg": false,
      "metar_trigger": false,
      "taf_trigger": false,
      "metar": "METAR LBSF 311430Z 28011KT 260V320 9999 FEW040 M04/M12 Q1014 NOSIG",
      "taf": ""
    },
    {
      "icao": "LBWN",
      "alert": "OK",
      "vis_m": 9999,
      "fzfg": false,
      "metar_trigger": false,
      "taf_trigger": false,
      "metar": "METAR LBWN 311430Z AUTO 27011KT 9999 NCD 00/M09 Q1012 NOSIG",
      "taf": "TAF LBWN 311100Z 3112/0112 29015KT 9999 SCT045"
    },
    {
      "icao": "LCLK",
      "alert": "OK",
      "vis_m": 9999,
      "fzfg": false,
      "metar_trigger": false,
      "taf_trigger": false,
      "metar": "METAR LCLK 311430Z 22013KT 9999 FEW025 FEW030CB BKN050 15/13 Q1005 NOSIG",
      "taf": "TAF LCLK 311130Z 3112/0112 25020KT 9999 FEW020 SCT040"
    },
    {
      "icao": "LCPH",
      "alert": "OK",
      "vis_m": 9999,
      "fzfg": false,
      "metar_trigger": false,
      "taf_trigger": false,
      "metar": "METAR LCPH 311430Z 26014KT 250V320 9999 FEW025 FEW030CB SCT040 BKN080 17/11 Q1006 TEMPO 3000 TSRA SCT025CB",
      "taf": "TAF LCPH 311130Z 3112/0112 26020KT 9999 SCT020 BKN040"
    },
    {
      "icao": "LEAL",
      "alert": "OK",
      "vis_m": 9999,
      "fzfg": false,
      "metar_trigger": false,
      "taf_trigger": false,
      "metar": "METAR LEAL 311430Z 09010KT 9999 FEW025 16/08 Q1018 NOSIG",
      "taf": "TAF LEAL 311100Z 3112/0112 12008KT CAVOK TX16/3114Z TN07/0106Z"
    },
    {
      "icao": "LEBB",
      "alert": "OK",
      "vis_m": 9999,
      "fzfg": false,
      "metar_trigger": false,
      "taf_trigger": false,
      "metar": "METAR LEBB 311430Z 03003KT 340V080 9999 SCT025 BKN035 08/04 Q1021 NOSIG",
      "taf": "TAF LEBB 311100Z 3112/0112 12006KT 9999 FEW020 BKN030 TX11/0112Z TN01/0100Z"
    },
    {
      "icao": "LEBL",
      "alert": "OK",
      "vis_m": 9999,
      "fzfg": false,
      "metar_trigger": false,
      "taf_trigger": false,
      "metar": "METAR LEBL 311430Z 15004KT 110V190 9999 SCT028 12/06 Q1019 NOSIG",
      "taf": ""
    },
    {
      "icao": "LECH",
      "alert": "OK",
      "vis_m": 9999,
      "fzfg": false,
      "metar_trigger": false,
      "taf_trigger": false,
      "metar": "METAR LECH 311430Z AUTO 13006KT 080V170 9999 FEW045 10/05 Q1018",
      "taf": ""
    },
    {
      "icao": "LEMD",
      "alert": "OK",
      "vis_m": 9999,
      "fzfg": false,
      "metar_trigger": false,
      "taf_trigger": false,
      "metar": "METAR LEMD 311430Z 20004KT 160V240 CAVOK 09/00 Q1018 NOSIG",
      "taf": "TAF LEMD 311100Z 3112/0118 VRB03KT CAVOK TX08/3114Z TNM03/0108Z"
    },
    {
      "icao": "LEMG",
      "alert": "OK",
      "vis_m": 9999,
      "fzfg": false,
      "metar_trigger": false,
      "taf_trigger": false,
      "metar": "METAR LEMG 311430Z 17005KT 130V200 9999 FEW035 15/09 Q1017 NOSIG",
      "taf": "TAF LEMG 311100Z 3112/0112 14005KT CAVOK TX18/3114Z TN13/0107Z"
    },
    {
      "icao": "LEVC",
      "alert": "OK",
      "vis_m": 9999,
      "fzfg": false,
      "metar_trigger": false,
      "taf_trigger": false,
      "metar": "METAR LEVC 311430Z 06004KT 030V120 9999 FEW038 13/04 Q1019 NOSIG",
      "taf": "TAF LEVC 311100Z 3112/0112 VRB04KT 9999 SCT040 TX15/3114Z TN05/0106Z"
    },
    {
      "icao": "LEXJ",
      "alert": "OK",
      "vis_m": 9999,
      "fzfg": false,
      "metar_trigger": false,
      "taf_trigger": false,
      "metar": "METAR LEXJ 311430Z 05004KT 340V090 9999 SCT040 10/04 Q1021",
      "taf": "TAF LEXJ 311400Z 3115/0115 22006KT 9999 SCT020 BKN025 TX11/0114Z TN01/0104Z"
    },
    {
      "icao": "LEZG",
      "alert": "OK",
      "vis_m": 9999,
      "fzfg": false,
      "metar_trigger": false,
      "taf_trigger": false,
      "metar": "METAR LEZG 311430Z 29006KT 240V340 9999 OVC030 10/04 Q1019 NOSIG",
      "taf": "TAF LEZG 311100Z 3112/0112 29010KT CAVOK TX09/3114Z TNM00/0106Z"
    },
    {
      "icao": "LEZL",
      "alert": "OK",
      "vis_m": 9999,
      "fzfg": false,
      "metar_trigger": false,
      "taf_trigger": false,
      "metar": "METAR LEZL 311430Z 06005KT CAVOK 13/10 Q1017 NOSIG",
      "taf": "TAF LEZL 311400Z 3115/0115 03005KT CAVOK TX16/0114Z TN09/0107Z"
    },
    {
      "icao": "LFBD",
      "alert": "OK",
      "vis_m": 9999,
      "fzfg": false,
      "metar_trigger": false,
      "taf_trigger": false,
      "metar": "METAR LFBD 311430Z AUTO 08007KT 050V110 CAVOK 05/M04 Q1022 NOSIG",
      "taf": "TAF LFBD 311100Z 3112/0118 05005KT CAVOK TX05/3114Z TNM05/0106Z"
    },
    {
      "icao": "LFLL",
      "alert": "OK",
      "vis_m": 9999,
      "fzfg": false,
      "metar_trigger": false,
      "taf_trigger": false,
      "metar": "METAR LFLL 311430Z 04004KT 350V070 9999 FEW022 01/M05 Q1023 NOSIG",
      "taf": "TAF LFLL 311100Z 3112/0118 35006KT CAVOK"
    },
    {
      "icao": "LFLS",
      "alert": "OK",
      "vis_m": 9999,
      "fzfg": false,
      "metar_trigger": false,
      "taf_trigger": false,
      "metar": "METAR LFLS 311430Z AUTO 35009KT CAVOK M01/M04 Q1022 NOSIG",
      "taf": "TAF LFLS 311400Z 3115/0115 VRB02KT CAVOK"
    },
    {
      "icao": "LFMN",
      "alert": "OK",
      "vis_m": 9999,
      "fzfg": false,
      "metar_trigger": false,
      "taf_trigger": false,
      "metar": "METAR LFMN 311430Z 12011KT 9999 FEW046 12/02 Q1017 NOSIG",
      "taf": "TAF LFMN 311400Z 3115/0121 12010KT 9999 FEW046"
    },
    {
      "icao": "LFOB",
      "alert": "OK",
      "vis_m": 9999,
      "fzfg": false,
      "metar_trigger": false,
      "taf_trigger": false,
      "metar": "METAR LFOB 311430Z AUTO VRB02KT 9999 SCT034 05/03 Q1027 NOSIG",
      "taf": "TAF LFOB 311100Z 3112/0112 26005KT 9999 FEW020"
    },
    {
      "icao": "LFPO",
      "alert": "OK",
      "vis_m": 9999,
      "fzfg": false,
      "metar_trigger": false,
      "taf_trigger": false,
      "metar": "METAR LFPO 311430Z 03005KT 350V070 9999 FEW023 05/00 Q1027 NOSIG",
      "taf": ""
    },
    {
      "icao": "LFSB",
      "alert": "OK",
      "vis_m": 9999,
      "fzfg": false,
      "metar_trigger": false,
      "taf_trigger": false,
      "metar": "METAR LFSB 311430Z AUTO 31003KT 270V330 CAVOK 01/M08 Q1024 NOSIG",
      "taf": "TAF LFSB 311100Z 3112/0112 VRB03KT CAVOK"
    },
    {
      "icao": "LGAV",
      "alert": "OK",
      "vis_m": 9999,
      "fzfg": false,
      "metar_trigger": false,
      "taf_trigger": false,
      "metar": "METAR LGAV 311420Z 01017KT 9999 SCT020 BKN070 06/01 Q1012 NOSIG",
      "taf": "TAF LGAV 311100Z 3112/0112 02016KT 9999 FEW016 SCT025"
    },
    {
      "icao": "LGTS",
      "alert": "OK",
      "vis_m": 9999,
      "fzfg": false,
      "metar_trigger": false,
      "taf_trigger": false,
      "metar": "METAR LGTS 311420Z 32016KT 9999 FEW025 05/M08 Q1015 NOSIG",
      "taf": "TAF LGTS 311100Z 3112/0112 34018KT 9999 SCT030"
    },
    {
      "icao": "LHBP",
      "alert": "OK",
      "vis_m": 9999,
      "fzfg": false,
      "metar_trigger": false,
      "taf_trigger": false,
      "metar": "METAR LHBP 311430Z 30013KT 9999 FEW036 SCT160 M00/M07 Q1016 NOSIG",
      "taf": "TAF LHBP 311115Z 3112/0112 31015G25KT 9999 SCT035 SCT160"
    },
    {
      "icao": "LHDC",
      "alert": "OK",
      "vis_m": 9999,
      "fzfg": false,
      "metar_trigger": false,
      "taf_trigger": false,
      "metar": "METAR LHDC 311415Z AUTO 28005KT CAVOK M02/M08 Q1014 NOSIG",
      "taf": "TAF LHDC 311415Z 3115/3124 27005KT CAVOK"
    },
    {
      "icao": "LIBD",
      "alert": "OK",
      "vis_m": 9999,
      "fzfg": false,
      "metar_trigger": false,
      "taf_trigger": false,
      "metar": "METAR LIBD 311420Z 36007KT 330V040 9999 FEW015 SCT025 06/M03 Q1018",
      "taf": "TAF LIBD 311100Z 3112/0112 36015KT 9999 FEW050"
    },
    {
      "icao": "LIBG",
      "alert": "OK",
      "vis_m": 9999,
      "fzfg": false,
      "metar_trigger": false,
      "taf_trigger": false,
      "metar": "METAR LIBG 311350Z 33017KT CAVOK 06/M05 Q1017",
      "taf": "TAF LIBG 311400Z 3115/3124 35017KT CAVOK"
    },
    {
      "icao": "LIBP",
      "alert": "OK",
      "vis_m": 9999,
      "fzfg": false,
      "metar_trigger": false,
      "taf_trigger": false,
      "metar": "METAR LIBP 311420Z AUTO 09007KT 9999 NCD 07/M03 Q1021",
      "taf": ""
    },
    {
      "icao": "LIBR",
      "alert": "OK",
      "vis_m": 9999,
      "fzfg": false,
      "metar_trigger": false,
      "taf_trigger": false,
      "metar": "METAR LIBR 311420Z 36019KT 330V030 9999 FEW048 07/M03 Q1016",
      "taf": ""
    },
    {
      "icao": "LICA",
      "alert": "OK",
      "vis_m": 9999,
      "fzfg": false,
      "metar_trigger": false,
      "taf_trigger": false,
      "metar": "METAR LICA 311420Z AUTO 03008KT 350V050 9999 BKN100/// 12/M03 Q1014",
      "taf": "TAF LICA 311100Z 3112/0112 01007KT CAVOK"
    },
    {
      "icao": "LICC",
      "alert": "OK",
      "vis_m": 9999,
      "fzfg": false,
      "metar_trigger": false,
      "taf_trigger": false,
      "metar": "METAR LICC 311420Z 12005KT 9999 BKN025 12/09 Q1015",
      "taf": "TAF LICC 311100Z 3112/0112 08010KT 9999 BKN030"
    },
    {
      "icao": "LICJ",
      "alert": "OK",
      "vis_m": 9999,
      "fzfg": false,
      "metar_trigger": false,
      "taf_trigger": false,
      "metar": "METAR LICJ 311420Z 20005KT 9999 FEW045 15/06 Q1014",
      "taf": "TAF LICJ 311100Z 3112/0112 VRB06KT 9999 FEW030"
    },
    {
      "icao": "LIMC",
      "alert": "OK",
      "vis_m": 9999,
      "fzfg": false,
      "metar_trigger": false,
      "taf_trigger": false,
      "metar": "METAR LIMC 311420Z 21003KT 150V240 9999 SCT027 06/M00 Q1018 NOSIG",
      "taf": "TAF LIMC 311100Z 3112/0118 VRB04KT 9999 SCT040"
    },
    {
      "icao": "LIME",
      "alert": "OK",
      "vis_m": 9999,
      "fzfg": false,
      "metar_trigger": false,
      "taf_trigger": false,
      "metar": "METAR LIME 311420Z 18003KT 130V250 9999 SCT045 06/M01 Q1018 NOSIG",
      "taf": "TAF LIME 311100Z 3112/0112 VRB04KT 9999 SCT040"
    },
    {
      "icao": "LIMF",
      "alert": "OK",
      "vis_m": 9999,
      "fzfg": false,
      "metar_trigger": false,
      "taf_trigger": false,
      "metar": "METAR LIMF 311420Z 09004KT 060V120 CAVOK 07/00 Q1018",
      "taf": "TAF LIMF 311100Z 3112/0112 VRB04KT 3000 BR SCT040"
    },
    {
      "icao": "LIMJ",
      "alert": "OK",
      "vis_m": 9999,
      "fzfg": false,
      "metar_trigger": false,
      "taf_trigger": false,
      "metar": "METAR LIMJ 311420Z 04011KT CAVOK 10/M02 Q1018",
      "taf": "TAF LIMJ 311100Z 3112/0112 03012KT 9999 SCT030"
    },
    {
      "icao": "LIPE",
      "alert": "OK",
      "vis_m": 9999,
      "fzfg": false,
      "metar_trigger": false,
      "taf_trigger": false,
      "metar": "METAR LIPE 311420Z VRB02KT CAVOK 07/01 Q1020",
      "taf": ""
    },
    {
      "icao": "LIPH",
      "alert": "OK",
      "vis_m": 9999,
      "fzfg": false,
      "metar_trigger": false,
      "taf_trigger": false,
      "metar": "METAR LIPH 311420Z 09005KT 9999 BKN050 06/M04 Q1020",
      "taf": "TAF LIPH 311100Z 3112/0112 VRB04KT 9999 SCT045"
    },
    {
      "icao": "LIPQ",
      "alert": "OK",
      "vis_m": 9999,
      "fzfg": false,
      "metar_trigger": false,
      "taf_trigger": false,
      "metar": "METAR LIPQ 311420Z AUTO VRB02KT 9999 NCD 07/M06 Q1020",
      "taf": "TAF LIPQ 311100Z 3112/0112 VRB05KT 9999 SCT050"
    },
    {
      "icao": "LIPR",
      "alert": "OK",
      "vis_m": 9999,
      "fzfg": false,
      "metar_trigger": false,
      "taf_trigger": false,
      "metar": "METAR LIPR 311420Z AUTO 03003KT 010V070 9999 NCD 07/M01 Q1019",
      "taf": "TAF LIPR 311100Z 3112/0112 17008KT 7000 FEW030"
    },
    {
      "icao": "LIPX",
      "alert": "OK",
      "vis_m": 9999,
      "fzfg": false,
      "metar_trigger": false,
      "taf_trigger": false,
      "metar": "METAR LIPX 311420Z 18003KT 150V220 CAVOK 07/M02 Q1019",
      "taf": "TAF LIPX 311100Z 3112/0112 VRB04KT 9999 FEW040"
    },
    {
      "icao": "LIPY",
      "alert": "OK",
      "vis_m": 9999,
      "fzfg": false,
      "metar_trigger": false,
      "taf_trigger": false,
      "metar": "METAR LIPY 311420Z AUTO 15005KT 110V180 9999 BKN065/// 07/M01 Q1019",
      "taf": "TAF LIPY 311100Z 3112/0112 13006KT 9999 SCT045"
    },
    {
      "icao": "LIPZ",
      "alert": "OK",
      "vis_m": 9999,
      "fzfg": false,
      "metar_trigger": false,
      "taf_trigger": false,
      "metar": "METAR LIPZ 311420Z 07007KT 9999 SCT056 06/M03 Q1020 NOSIG",
      "taf": "TAF LIPZ 311100Z 3112/0118 06006KT 9999 SCT040"
    },
    {
      "icao": "LIRF",
      "alert": "OK",
      "vis_m": 9999,
      "fzfg": false,
      "metar_trigger": false,
      "taf_trigger": false,
      "metar": "METAR LIRF 311420Z 26003KT 9999 SCT035 09/03 Q1016 NOSIG",
      "taf": "TAF LIRF 311100Z 3112/0118 05010KT 9999 SCT035"
    },
    {
      "icao": "LIRN",
      "alert": "OK",
      "vis_m": 9999,
      "fzfg": false,
      "metar_trigger": false,
      "taf_trigger": false,
      "metar": "METAR LIRN 311420Z AUTO 04013KT 9999 NCD 08/M07 Q1016",
      "taf": "TAF LIRN 311100Z 3112/0112 05010KT CAVOK"
    },
    {
      "icao": "LIRP",
      "alert": "OK",
      "vis_m": 9999,
      "fzfg": false,
      "metar_trigger": false,
      "taf_trigger": false,
      "metar": "METAR LIRP 311415Z 12011KT CAVOK 09/M03 Q1017 NOSIG",
      "taf": "TAF LIRP 311100Z 3112/0112 12012KT 9999 FEW060"
    },
    {
      "icao": "LIRZ",
      "alert": "OK",
      "vis_m": 9999,
      "fzfg": false,
      "metar_trigger": false,
      "taf_trigger": false,
      "metar": "METAR LIRZ 311420Z AUTO 06012KT 9999 NCD 08/M07 Q1017",
      "taf": "TAF LIRZ 311100Z 3112/0112 05010KT CAVOK"
    },
    {
      "icao": "LJLJ",
      "alert": "OK",
      "vis_m": 9999,
      "fzfg": false,
      "metar_trigger": false,
      "taf_trigger": false,
      "metar": "METAR LJLJ 311430Z 08003KT CAVOK 00/M04 Q1018 NOSIG",
      "taf": "TAF LJLJ 311100Z 3112/0112 VRB02KT 9999 FEW040"
    },
    {
      "icao": "LKMT",
      "alert": "OK",
      "vis_m": 9999,
      "fzfg": false,
      "metar_trigger": false,
      "taf_trigger": false,
      "metar": "METAR LKMT 311430Z 22015KT CAVOK M03/M06 Q1013 NOSIG",
      "taf": "TAF LKMT 311100Z 3112/0112 21012KT 9999 BKN030"
    },
    {
      "icao": "LKPR",
      "alert": "OK",
      "vis_m": 9999,
      "fzfg": false,
      "metar_trigger": false,
      "taf_trigger": false,
      "metar": "METAR LKPR 311430Z 23020KT 9999 FEW013 OVC032 M01/M03 Q1012 TEMPO 25022G32KT",
      "taf": "TAF LKPR 311400Z 3115/0121 23018KT 9999 -SN BKN025"
    },
    {
      "icao": "LLBG",
      "alert": "OK",
      "vis_m": 9999,
      "fzfg": false,
      "metar_trigger": false,
      "taf_trigger": false,
      "metar": "METAR LLBG 311420Z 23011KT 9999 FEW040 18/07 Q1011 NOSIG",
      "taf": "TAF LLBG 311109Z 3112/0112 22015KT 9999 FEW050"
    },
    {
      "icao": "LMML",
      "alert": "OK",
      "vis_m": 9999,
      "fzfg": false,
      "metar_trigger": false,
      "taf_trigger": false,
      "metar": "METAR LMML 311415Z 33007KT 9999 FEW020 15/11 Q1013 NOSIG",
      "taf": "TAF LMML 311100Z 3112/0112 29012KT 9999 SCT020"
    },
    {
      "icao": "LOWW",
      "alert": "OK",
      "vis_m": 9999,
      "fzfg": false,
      "metar_trigger": false,
      "taf_trigger": false,
      "metar": "METAR LOWW 311420Z 29021G31KT 9999 FEW032 SCT044 BKN050 M00/M09 Q1017 TEMPO 4500 -SN",
      "taf": "TAF LOWW 311415Z 3115/0121 28018KT 9999 BKN030 TX04/0111Z TNM01/3115Z"
    },
    {
      "icao": "LPFR",
      "alert": "OK",
      "vis_m": 9999,
      "fzfg": false,
      "metar_trigger": false,
      "taf_trigger": false,
      "metar": "METAR LPFR 311430Z 07009KT 9999 FEW035 15/11 Q1016",
      "taf": "TAF LPFR 311100Z 3112/0112 08012KT 9999 FEW015 BKN035"
    },
    {
      "icao": "LPMA",
      "alert": "OK",
      "vis_m": 9999,
      "fzfg": false,
      "metar_trigger": false,
      "taf_trigger": false,
      "metar": "METAR LPMA 311430Z 22019KT 9999 SCT008 BKN015 FEW018CB 19/16 Q1013",
      "taf": "TAF LPMA 311100Z 3112/0112 21018KT 9999 SCT015"
    },
    {
      "icao": "LPPR",
      "alert": "OK",
      "vis_m": 9999,
      "fzfg": false,
      "metar_trigger": false,
      "taf_trigger": false,
      "metar": "METAR LPPR 311430Z VRB02KT CAVOK 14/08 Q1017",
      "taf": "TAF LPPR 311100Z 3112/0112 11010KT CAVOK"
    },
    {
      "icao": "LPPS",
      "alert": "OK",
      "vis_m": 9999,
      "fzfg": false,
      "metar_trigger": false,
      "taf_trigger": false,
      "metar": "METAR LPPS 311430Z 21019KT 9999 SCT010 20/16 Q1013",
      "taf": "TAF LPPS 311100Z 3112/0118 18012KT 9999 SCT010"
    },
    {
      "icao": "LPPT",
      "alert": "OK",
      "vis_m": 9999,
      "fzfg": false,
      "metar_trigger": false,
      "taf_trigger": false,
      "metar": "METAR LPPT 311430Z 06004KT 020V100 9999 FEW006 11/10 Q1017",
      "taf": "TAF LPPT 311100Z 3112/0118 06005KT 0200 FG VV001"
    },
    {
      "icao": "LQBK",
      "alert": "OK",
      "vis_m": 9999,
      "fzfg": false,
      "metar_trigger": false,
      "taf_trigger": false,
      "metar": "METAR LQBK 311430Z 26006KT 9999 FEW033 02/M10 Q1021 NOSIG",
      "taf": "TAF LQBK 311100Z 3112/0112 32005KT CAVOK TX02/3113Z TNM05/0106Z"
    },
    {
      "icao": "LQSA",
      "alert": "OK",
      "vis_m": 9999,
      "fzfg": false,
      "metar_trigger": false,
      "taf_trigger": false,
      "metar": "METAR LQSA 311430Z 35006KT 320V030 9999 SCT060 M02/M13 Q1018 NOSIG",
      "taf": "TAF LQSA 311100Z 3112/0112 29005KT 9999 SCT045 TX02/0112Z TNM08/0104Z"
    },
    {
      "icao": "LQTZ",
      "alert": "OK",
      "vis_m": 9999,
      "fzfg": false,
      "metar_trigger": false,
      "taf_trigger": false,
      "metar": "METAR LQTZ 311430Z 31007KT 9999 FEW035 M01/M10 Q1019",
      "taf": "TAF LQTZ 311100Z 3112/0112 27006KT 9999 SCT040 TX01/3113Z TNM06/0106Z"
    },
    {
      "icao": "LRBC",
      "alert": "OK",
      "vis_m": 9999,
      "fzfg": false,
      "metar_trigger": false,
      "taf_trigger": false,
      "metar": "METAR LRBC 311430Z 28016KT CAVOK 00/M14 Q1008",
      "taf": "TAF LRBC 311400Z 3115/3124 28014KT 9999 SCT055"
    },
    {
      "icao": "LRBS",
      "alert": "OK",
      "vis_m": 9999,
      "fzfg": false,
      "metar_trigger": false,
      "taf_trigger": false,
      "metar": "METAR LRBS 311430Z 27008KT CAVOK 01/M09 Q1012 NOSIG",
      "taf": "TAF LRBS 311100Z 3112/0112 27010KT CAVOK"
    },
    {
      "icao": "LRBV",
      "alert": "OK",
      "vis_m": 9999,
      "fzfg": false,
      "metar_trigger": false,
      "taf_trigger": false,
      "metar": "METAR LRBV 311430Z 28008KT 250V320 9999 SCT039 BKN060 M04/M11 Q1010",
      "taf": "TAF LRBV 311400Z 3115/3124 28010KT 9999 SCT025 BKN045"
    },
    {
      "icao": "LRCL",
      "alert": "OK",
      "vis_m": 9999,
      "fzfg": false,
      "metar_trigger": false,
      "taf_trigger": false,
      "metar": "METAR LRCL 311430Z 27008KT CAVOK M03/M10 Q1012",
      "taf": "TAF LRCL 311400Z 3115/3124 28012KT 9999 BKN050"
    },
    {
      "icao": "LRCV",
      "alert": "OK",
      "vis_m": 9999,
      "fzfg": false,
      "metar_trigger": false,
      "taf_trigger": false,
      "metar": "METAR LRCV 311430Z 29016KT CAVOK M01/M09 Q1013",
      "taf": "TAF LRCV 311400Z 3115/3124 29016KT CAVOK"
    },
    {
      "icao": "LRIA",
      "alert": "OK",
      "vis_m": 9999,
      "fzfg": false,
      "metar_trigger": false,
      "taf_trigger": false,
      "metar": "METAR LRIA 311430Z 31013KT CAVOK M02/M07 Q1008",
      "taf": "TAF LRIA 311400Z 3115/3124 31015KT 9999 SCT035"
    },
    {
      "icao": "LROP",
      "alert": "OK",
      "vis_m": 9999,
      "fzfg": false,
      "metar_trigger": false,
      "taf_trigger": false,
      "metar": "METAR LROP 311430Z 25009KT CAVOK 01/M12 Q1012 NOSIG",
      "taf": "TAF LROP 311100Z 3112/0112 28010KT CAVOK"
    },
    {
      "icao": "LRSB",
      "alert": "OK",
      "vis_m": 9999,
      "fzfg": false,
      "metar_trigger": false,
      "taf_trigger": false,
      "metar": "METAR LRSB 311430Z COR 30013KT 9999 FEW055 SCT065 BKN085 M04/M10 Q1011",
      "taf": "TAF LRSB 311100Z 3112/0112 29010KT 9999 BKN045"
    },
    {
      "icao": "LRSM",
      "alert": "OK",
      "vis_m": 9999,
      "fzfg": false,
      "metar_trigger": false,
      "taf_trigger": false,
      "metar": "METAR LRSM 311430Z AUTO 25011KT 9999 SCT047/// BKN065/// M03/M07 Q1013",
      "taf": "TAF LRSM 311100Z 3112/3121 26014KT 9999 SCT030"
    },
    {
      "icao": "LRSV",
      "alert": "OK",
      "vis_m": 9999,
      "fzfg": false,
      "metar_trigger": false,
      "taf_trigger": false,
      "metar": "METAR LRSV 311430Z 33012KT 9999 -SN NSC M04/M09 Q1006",
      "taf": "TAF LRSV 311400Z 3115/3124 32016KT 9999 SCT035"
    },
    {
      "icao": "LRTM",
      "alert": "OK",
      "vis_m": 9999,
      "fzfg": false,
      "metar_trigger": false,
      "taf_trigger": false,
      "metar": "METAR LRTM 311430Z 29009KT 9999 FEW024 SCT048 M02/M11 Q1012",
      "taf": "TAF LRTM 311400Z 3115/3124 28012KT 9999 SCT025 BKN040"
    },
    {
      "icao": "LRTR",
      "alert": "OK",
      "vis_m": 9999,
      "fzfg": false,
      "metar_trigger": false,
      "taf_trigger": false,
      "metar": "METAR LRTR 311430Z 32008KT 9999 SCT045 M01/M08 Q1016",
      "taf": "TAF LRTR 311100Z 3112/0112 31013KT 9999 SCT025"
    },
    {
      "icao": "LTAC",
      "alert": "OK",
      "vis_m": 9999,
      "fzfg": false,
      "metar_trigger": false,
      "taf_trigger": false,
      "metar": "METAR LTAC 311420Z 32009KT 9999 SCT040 BKN100 M01/M07 Q1006 NOSIG RMK RWY21C 31010KT RWY03L 31009KT RWY21R 30008KT RWY03R 29008KT RWY21L 31011KT",
      "taf": "TAF LTAC 311040Z 3112/0112 VRB02KT 9999 SCT035 BKN090"
    },
    {
      "icao": "LTFM",
      "alert": "OK",
      "vis_m": 9999,
      "fzfg": false,
      "metar_trigger": false,
      "taf_trigger": false,
      "metar": "METAR LTFM 311420Z 35009KT CAVOK 02/M11 Q1013 NOSIG RMK RWY17L 35009KT RWY34L 34008KT RWY16R 34007KT RWY36 34008KT RWY18 34008KT",
      "taf": "TAF LTFM 311040Z 3112/0118 33015G25KT CAVOK"
    },
    {
      "icao": "LUKK",
      "alert": "OK",
      "vis_m": 9999,
      "fzfg": false,
      "metar_trigger": false,
      "taf_trigger": false,
      "metar": "METAR LUKK 311430Z 31015KT 9999 FEW043CB M03/M07 Q1007 RESHSN TEMPO 30018G28KT 1500 SHSN BLSN BKN012 SCT020CB",
      "taf": "TAF LUKK 311110Z 3112/0112 30014KT 9999 BKN025"
    },
    {
      "icao": "LWOH",
      "alert": "OK",
      "vis_m": 9999,
      "fzfg": false,
      "metar_trigger": false,
      "taf_trigger": false,
      "metar": "METAR LWOH 311420Z 01008KT 330V040 CAVOK 00/M15 Q1012",
      "taf": "TAF LWOH 311135Z 3112/0112 33010KT CAVOK"
    },
    {
      "icao": "LWSK",
      "alert": "OK",
      "vis_m": 9999,
      "fzfg": false,
      "metar_trigger": false,
      "taf_trigger": false,
      "metar": "METAR LWSK 311420Z 31010KT 270V340 9999 FEW060 01/M13 Q1017 NOSIG",
      "taf": "TAF LWSK 311135Z 3112/0112 36012KT CAVOK"
    },
    {
      "icao": "LYBE",
      "alert": "OK",
      "vis_m": 9999,
      "fzfg": false,
      "metar_trigger": false,
      "taf_trigger": false,
      "metar": "METAR LYBE 311430Z 32015KT 9999 SCT045 00/M10 Q1018 NOSIG",
      "taf": "TAF LYBE 311100Z 3112/0112 30016KT 9999 SCT040 TX05/0112Z TNM04/3123Z"
    },
    {
      "icao": "LYNI",
      "alert": "OK",
      "vis_m": 9999,
      "fzfg": false,
      "metar_trigger": false,
      "taf_trigger": false,
      "metar": "METAR LYNI 311430Z 31008KT 9999 SCT050 M01/M10 Q1017 NOSIG",
      "taf": "TAF LYNI 311100Z 3112/0112 31012KT 9999 SCT027 BKN040 TX02/0112Z TNM06/0106Z"
    },
    {
      "icao": "LYPG",
      "alert": "OK",
      "vis_m": 9999,
      "fzfg": false,
      "metar_trigger": false,
      "taf_trigger": false,
      "metar": "METAR LYPG 311430Z 36017KT CAVOK 04/M16 Q1017 NOSIG",
      "taf": "TAF LYPG 311100Z 3112/0112 36015G25KT CAVOK TX07/3112Z TNM05/0106Z"
    },
    {
      "icao": "LZIB",
      "alert": "OK",
      "vis_m": 2800,
      "fzfg": false,
      "metar_trigger": false,
      "taf_trigger": false,
      "metar": "METAR LZIB 311430Z 27013KT 2800 -SN FEW014 SCT018 BKN022 M01/M05 Q1017 TEMPO 1400 SN BKN010",
      "taf": ""
    },
    {
      "icao": "LZKZ",
      "alert": "OK",
      "vis_m": 9999,
      "fzfg": false,
      "metar_trigger": false,
      "taf_trigger": false,
      "metar": "METAR LZKZ 311430Z 32009KT CAVOK M01/M12 Q1012 NOSIG",
      "taf": "TAF LZKZ 311115Z 3112/0112 32006KT 9999 BKN025"
    },
    {
      "icao": "LZTT",
      "alert": "OK",
      "vis_m": 9999,
      "fzfg": false,
      "metar_trigger": false,
      "taf_trigger": false,
      "metar": "METAR LZTT 311430Z 27014KT 9999 FEW023 M06/M11 Q1009 NOSIG",
      "taf": "TAF LZTT 311115Z 3112/0112 25006KT 9999 -SN SCT020 BKN040"
    },
    {
      "icao": "OEJN",
      "alert": "OK",
      "vis_m": 9999,
      "fzfg": false,
      "metar_trigger": false,
      "taf_trigger": false,
      "metar": "METAR OEJN 311400Z 28005KT CAVOK 28/08 Q1013 NOSIG",
      "taf": "TAF OEJN 311100Z 3112/0118 33010KT CAVOK"
    },
    {
      "icao": "OEMA",
      "alert": "OK",
      "vis_m": 9999,
      "fzfg": false,
      "metar_trigger": false,
      "taf_trigger": false,
      "metar": "METAR OEMA 311400Z 22010KT CAVOK 26/M07 Q1015 NOSIG",
      "taf": "TAF OEMA 311100Z 3112/0118 26008KT 7000 NSC"
    },
    {
      "icao": "OJAI",
      "alert": "OK",
      "vis_m": 5000,
      "fzfg": false,
      "metar_trigger": false,
      "taf_trigger": false,
      "metar": "METAR OJAI 311400Z 25020KT 5000 BLDU SCT030 12/07 Q1012 NOSIG",
      "taf": "TAF OJAI 311038Z 3112/0118 25014KT 5000 HZ SCT030"
    },
    {
      "icao": "OMAA",
      "alert": "OK",
      "vis_m": 9999,
      "fzfg": false,
      "metar_trigger": false,
      "taf_trigger": false,
      "metar": "METAR OMAA 311400Z 30009KT 9999 BKN045 20/09 Q1017 NOSIG",
      "taf": "TAF OMAA 311100Z 3112/0118 31014KT 8000 SCT040"
    },
    {
      "icao": "OMDB",
      "alert": "OK",
      "vis_m": 9999,
      "fzfg": false,
      "metar_trigger": false,
      "taf_trigger": false,
      "metar": "METAR OMDB 311430Z 27009KT 9999 FEW045 21/09 Q1016 NOSIG",
      "taf": "TAF OMDB 311100Z 3112/0118 30010KT 9999 BKN045"
    },
    {
      "icao": "UAAA",
      "alert": "OK",
      "vis_m": 2200,
      "fzfg": false,
      "metar_trigger": false,
      "taf_trigger": false,
      "metar": "METAR UAAA 311430Z 03002MPS 2200 BR FU BKN050CB OVC100 04/01 Q1016 NOSIG",
      "taf": "TAF UAAA 311103Z 3112/0112 29003G08MPS 5000 BR FU BKN050CB OVC100 TX02/0109Z TNM01/0101Z"
    },
    {
      "icao": "UBBB",
      "alert": "OK",
      "vis_m": 9999,
      "fzfg": false,
      "metar_trigger": false,
      "taf_trigger": false,
      "metar": "METAR UBBB 311430Z 19020G30KT CAVOK 10/M01 Q1005 NOSIG",
      "taf": "TAF UBBB 311110Z 3112/0112 19022G32KT CAVOK TX10/3112Z TN04/0103Z"
    },
    {
      "icao": "UDSG",
      "alert": "OK",
      "vis_m": 2100,
      "fzfg": false,
      "metar_trigger": false,
      "taf_trigger": false,
      "metar": "METAR UDSG 311430Z 27002KT 2100 -SN BR OVC016 M07/M08 Q1007 NOSIG",
      "taf": "TAF UDSG 311058Z 3112/0112 VRB06KT 1500 BR OVC020"
    },
    {
      "icao": "UDYZ",
      "alert": "OK",
      "vis_m": 6000,
      "fzfg": false,
      "metar_trigger": false,
      "taf_trigger": false,
      "metar": "METAR UDYZ 311430Z 26006KT 6000 BKN046 M04/M07 Q1009 NOSIG",
      "taf": ""
    },
    {
      "icao": "UGKO",
      "alert": "OK",
      "vis_m": 9999,
      "fzfg": false,
      "metar_trigger": false,
      "taf_trigger": false,
      "metar": "METAR UGKO 311430Z VRB02KT 9999 -RA OVC034 03/00 Q1005 NOSIG",
      "taf": "TAF UGKO 311100Z 3112/0112 08007KT 9999 SCT020 OVC050 TX05/3112Z TNM00/0103Z"
    }
  ]
}