{
  "ts_utc": "2026-01-05T08:52:46Z",
  "threshold_m": 150,
  "source": "stations_override.txt (ICAO list) + aviationweather.gov (METAR/TAF raw)",
  "station_count": 159,
  "stations": [
    {
      "icao": "BIKF",
      "alert": "OK",
      "vis_m": 9999,
      "fzfg": false,
      "metar_trigger": false,
      "taf_trigger": false,
      "metar": "METAR BIKF 050830Z 11004KT 9999 FEW007 BKN036 M00/M00 Q1019",
      "taf": "TAF BIKF 050745Z 0509/0609 20006KT 9999 SCT012 BKN020 TX01/0509Z TNM04/0609Z"
    },
    {
      "icao": "BKPR",
      "alert": "OK",
      "vis_m": null,
      "fzfg": false,
      "metar_trigger": false,
      "taf_trigger": false,
      "metar": "",
      "taf": "TAF BKPR 050530Z 0506/0606 19010KT 9999 SCT020 BKN040"
    },
    {
      "icao": "EBCI",
      "alert": "OK",
      "vis_m": 9999,
      "fzfg": false,
      "metar_trigger": false,
      "taf_trigger": false,
      "metar": "METAR EBCI 050820Z 20012KT 9999 SCT012 BKN035 M03/M05 Q1011 TEMPO 2000 -SHSN BKN006",
      "taf": "TAF EBCI 050515Z 0506/0612 21009KT 9999 SCT030"
    },
    {
      "icao": "EDDB",
      "alert": "OK",
      "vis_m": 9999,
      "fzfg": false,
      "metar_trigger": false,
      "taf_trigger": false,
      "metar": "METAR EDDB 050820Z AUTO 20006KT CAVOK M01/M04 Q1012 NOSIG",
      "taf": "TAF EDDB 050500Z 0506/0606 19005KT 9999 BKN040"
    },
    {
      "icao": "EDDH",
      "alert": "OK",
      "vis_m": 9999,
      "fzfg": false,
      "metar_trigger": false,
      "taf_trigger": false,
      "metar": "METAR EDDH 050820Z AUTO 21013KT 9999 SCT012 OVC028 M00/M03 Q1009 TEMPO BKN011",
      "taf": "TAF EDDH 050500Z 0506/0612 18007KT 9999 BKN015"
    },
    {
      "icao": "EDDK",
      "alert": "OK",
      "vis_m": 9999,
      "fzfg": false,
      "metar_trigger": false,
      "taf_trigger": false,
      "metar": "METAR EDDK 050820Z AUTO 13007KT 100V160 CAVOK M04/M07 Q1013 NOSIG",
      "taf": "TAF EDDK 050500Z 0506/0612 16005KT 9999 SCT025"
    },
    {
      "icao": "EDDN",
      "alert": "OK",
      "vis_m": 9999,
      "fzfg": false,
      "metar_trigger": false,
      "taf_trigger": false,
      "metar": "METAR EDDN 050820Z AUTO 24005KT 9999 SCT026 BKN033 OVC040 M03/M08 Q1013 NOSIG",
      "taf": "TAF EDDN 050500Z 0506/0606 23004KT 9999 OVC035"
    },
    {
      "icao": "EDDS",
      "alert": "OK",
      "vis_m": 9999,
      "fzfg": false,
      "metar_trigger": false,
      "taf_trigger": false,
      "metar": "METAR EDDS 050820Z AUTO VRB01KT CAVOK M07/M09 Q1013 NOSIG",
      "taf": "TAF EDDS 050500Z 0506/0606 VRB03KT 9999 BKN030"
    },
    {
      "icao": "EDFH",
      "alert": "OK",
      "vis_m": 9999,
      "fzfg": false,
      "metar_trigger": false,
      "taf_trigger": false,
      "metar": "METAR EDFH 050820Z 25007KT 220V290 9999 OVC004 M06/M07 Q1011",
      "taf": "TAF EDFH 050500Z 0506/0606 23006KT 9999 BKN005"
    },
    {
      "icao": "EDJA",
      "alert": "OK",
      "vis_m": 9999,
      "fzfg": false,
      "metar_trigger": false,
      "taf_trigger": false,
      "metar": "METAR EDJA 050820Z 22004KT 9999 OVC028 M08/M10 Q1011",
      "taf": "TAF EDJA 050800Z 0509/0518 VRB03KT 9999 OVC030"
    },
    {
      "icao": "EDLW",
      "alert": "OK",
      "vis_m": 9999,
      "fzfg": false,
      "metar_trigger": false,
      "taf_trigger": false,
      "metar": "METAR EDLW 050820Z 18011KT 9999 FEW025 M03/M06 Q1010",
      "taf": "TAF EDLW 050500Z 0506/0606 19009KT 9999 SCT020"
    },
    {
      "icao": "EDNY",
      "alert": "OK",
      "vis_m": 9999,
      "fzfg": false,
      "metar_trigger": false,
      "taf_trigger": false,
      "metar": "METAR EDNY 050820Z AUTO VRB02KT 9999 // OVC032/// M06/M08 Q1013",
      "taf": "TAF EDNY 050800Z 0509/0518 VRB03KT 9999 OVC030"
    },
    {
      "icao": "EDSB",
      "alert": "OK",
      "vis_m": 550,
      "fzfg": true,
      "metar_trigger": false,
      "taf_trigger": false,
      "metar": "METAR EDSB 050820Z 19006KT 0550 R21/0700U FZFG VV/// M06/M07 Q1015",
      "taf": ""
    },
    {
      "icao": "EETN",
      "alert": "OK",
      "vis_m": 9999,
      "fzfg": false,
      "metar_trigger": false,
      "taf_trigger": false,
      "metar": "METAR EETN 050850Z 25002KT 9999 SCT016 SCT022 M12/M13 Q1014 NOSIG",
      "taf": "TAF EETN 050530Z 0506/0606 05010KT 9999 BKN015"
    },
    {
      "icao": "EFTU",
      "alert": "OK",
      "vis_m": 9999,
      "fzfg": false,
      "metar_trigger": false,
      "taf_trigger": false,
      "metar": "METAR EFTU 050850Z AUTO VRB01KT CAVOK M22/M25 Q1014",
      "taf": "TAF EFTU 050824Z 0509/0609 VRB02KT CAVOK"
    },
    {
      "icao": "EGBB",
      "alert": "OK",
      "vis_m": 9999,
      "fzfg": false,
      "metar_trigger": false,
      "taf_trigger": false,
      "metar": "METAR EGBB 050820Z 30006KT CAVOK M04/M05 Q1012",
      "taf": "TAF EGBB 050454Z 0506/0606 34005KT 9999 FEW025"
    },
    {
      "icao": "EGGP",
      "alert": "OK",
      "vis_m": 9999,
      "fzfg": false,
      "metar_trigger": false,
      "taf_trigger": false,
      "metar": "METAR EGGP 050820Z VRB02KT CAVOK M05/M07 Q1014",
      "taf": "TAF EGGP 050455Z 0506/0606 31005KT 9999 FEW030"
    },
    {
      "icao": "EGGW",
      "alert": "OK",
      "vis_m": 9999,
      "fzfg": false,
      "metar_trigger": false,
      "taf_trigger": false,
      "metar": "METAR EGGW 050820Z AUTO 31009KT 9999 NCD M03/M05 Q1011",
      "taf": "TAF EGGW 050456Z 0506/0606 31009KT 9999 BKN010"
    },
    {
      "icao": "EGKK",
      "alert": "OK",
      "vis_m": 9999,
      "fzfg": false,
      "metar_trigger": false,
      "taf_trigger": false,
      "metar": "METAR EGKK 050820Z 31005KT 270V340 CAVOK M01/M02 Q1012",
      "taf": "TAF EGKK 050503Z 0506/0612 24005KT 9999 FEW035"
    },
    {
      "icao": "EGNM",
      "alert": "OK",
      "vis_m": 9999,
      "fzfg": false,
      "metar_trigger": false,
      "taf_trigger": false,
      "metar": "METAR EGNM 050820Z 29012KT CAVOK M04/M07 Q1010",
      "taf": ""
    },
    {
      "icao": "EGPD",
      "alert": "OK",
      "vis_m": 9999,
      "fzfg": false,
      "metar_trigger": false,
      "taf_trigger": false,
      "metar": "METAR EGPD 050820Z 30010KT 9999 FEW020 M01/M03 Q1012 TEMPO 4000 -SHSN",
      "taf": "TAF EGPD 050456Z 0506/0606 30009KT 9999 FEW012"
    },
    {
      "icao": "EGPF",
      "alert": "OK",
      "vis_m": 9999,
      "fzfg": false,
      "metar_trigger": false,
      "taf_trigger": false,
      "metar": "METAR EGPF 050820Z AUTO VRB04KT 9999 NCD M06/M08 Q1015",
      "taf": "TAF EGPF 050453Z 0506/0606 27008KT CAVOK"
    },
    {
      "icao": "EHBK",
      "alert": "OK",
      "vis_m": 9999,
      "fzfg": false,
      "metar_trigger": false,
      "taf_trigger": false,
      "metar": "METAR EHBK 050825Z AUTO 19012KT 9999 BKN048/// M03/M06 Q1011 NOSIG",
      "taf": "TAF EHBK 050515Z 0506/0612 20007KT 9999 BKN025"
    },
    {
      "icao": "EHEH",
      "alert": "OK",
      "vis_m": 9999,
      "fzfg": false,
      "metar_trigger": false,
      "taf_trigger": false,
      "metar": "METAR EHEH 050825Z AUTO 19007KT 140V220 9999 FEW042 BKN056 OVC120 M03/M06 Q1010 BLU NOSIG RMK TREND REMOTE BY EHWX",
      "taf": "TAF EHEH 050538Z 0506/0612 20008KT CAVOK"
    },
    {
      "icao": "EKBI",
      "alert": "OK",
      "vis_m": 6000,
      "fzfg": false,
      "metar_trigger": false,
      "taf_trigger": false,
      "metar": "METAR EKBI 050820Z AUTO 07009KT 6000 -SN OVC012/// M03/M04 Q1007",
      "taf": "TAF EKBI 050827Z 0509/0609 07008KT 9999 BKN008"
    },
    {
      "icao": "EKCH",
      "alert": "OK",
      "vis_m": 9999,
      "fzfg": false,
      "metar_trigger": false,
      "taf_trigger": false,
      "metar": "METAR EKCH 050820Z 09009KT 9999 -SHSN SCT020CB BKN023 M01/M04 Q1009 TEMPO 3000 SHSN",
      "taf": "TAF EKCH 050827Z 0509/0609 12010KT 9999 BKN030"
    },
    {
      "icao": "ENAL",
      "alert": "OK",
      "vis_m": 9999,
      "fzfg": false,
      "metar_trigger": false,
      "taf_trigger": false,
      "metar": "METAR ENAL 050820Z 14010KT CAVOK M04/M11 Q1010",
      "taf": "TAF ENAL 050800Z 0509/0518 14012KT CAVOK"
    },
    {
      "icao": "ENBR",
      "alert": "OK",
      "vis_m": 9999,
      "fzfg": false,
      "metar_trigger": false,
      "taf_trigger": false,
      "metar": "METAR ENBR 050820Z 09005KT 9999 FEW043 M06/M13 Q1009 NOSIG RMK WIND 1200FT 11016KT",
      "taf": ""
    },
    {
      "icao": "ENGM",
      "alert": "OK",
      "vis_m": 9999,
      "fzfg": false,
      "metar_trigger": false,
      "taf_trigger": false,
      "metar": "METAR ENGM 050820Z 05005KT 9999 BKN027 M08/M12 Q1013 NOSIG",
      "taf": "TAF ENGM 050500Z 0506/0606 04008KT 9999 -SN BKN030"
    },
    {
      "icao": "ENHD",
      "alert": "OK",
      "vis_m": 9999,
      "fzfg": false,
      "metar_trigger": false,
      "taf_trigger": false,
      "metar": "METAR ENHD 050820Z 11011KT CAVOK M03/M10 Q1009",
      "taf": "TAF ENHD 050800Z 0509/0518 12012KT 9999 FEW030"
    },
    {
      "icao": "ENTC",
      "alert": "OK",
      "vis_m": 9999,
      "fzfg": false,
      "metar_trigger": false,
      "taf_trigger": false,
      "metar": "METAR ENTC 050820Z 08005KT 040V110 CAVOK M05/M10 Q1006 NOSIG RMK WIND 2600FT 36015KT",
      "taf": ""
    },
    {
      "icao": "ENTO",
      "alert": "OK",
      "vis_m": 9999,
      "fzfg": false,
      "metar_trigger": false,
      "taf_trigger": false,
      "metar": "METAR ENTO 050820Z 01008KT 9999 -SN BKN019 OVC022 M08/M08 Q1012 TEMPO BKN014",
      "taf": "TAF ENTO 050500Z 0506/0606 02008KT 9000 -SN BKN020"
    },
    {
      "icao": "ENVA",
      "alert": "OK",
      "vis_m": 9999,
      "fzfg": false,
      "metar_trigger": false,
      "taf_trigger": false,
      "metar": "METAR ENVA 050820Z 10006KT CAVOK M14/M18 Q1013 NOSIG RMK WIND 670FT 13015KT",
      "taf": "TAF ENVA 050500Z 0506/0606 11010KT CAVOK"
    },
    {
      "icao": "ENZV",
      "alert": "OK",
      "vis_m": 9999,
      "fzfg": false,
      "metar_trigger": false,
      "taf_trigger": false,
      "metar": "METAR ENZV 050820Z 12005KT CAVOK M05/M11 Q1009 NOSIG",
      "taf": ""
    },
    {
      "icao": "EPGD",
      "alert": "OK",
      "vis_m": 9999,
      "fzfg": false,
      "metar_trigger": false,
      "taf_trigger": false,
      "metar": "METAR EPGD 050830Z 24008KT CAVOK M05/M08 Q1012",
      "taf": "TAF EPGD 050530Z 0506/0606 25010KT CAVOK"
    },
    {
      "icao": "EPKK",
      "alert": "OK",
      "vis_m": 9999,
      "fzfg": false,
      "metar_trigger": false,
      "taf_trigger": false,
      "metar": "METAR EPKK 050830Z VRB02KT CAVOK M05/M09 Q1015",
      "taf": "TAF EPKK 050830Z 0509/0609 06005KT CAVOK"
    },
    {
      "icao": "EPKT",
      "alert": "OK",
      "vis_m": 9999,
      "fzfg": false,
      "metar_trigger": false,
      "taf_trigger": false,
      "metar": "METAR EPKT 050830Z VRB01KT CAVOK M05/M09 Q1015",
      "taf": "TAF EPKT 050530Z 0506/0606 14004KT CAVOK"
    },
    {
      "icao": "EPLB",
      "alert": "OK",
      "vis_m": 9999,
      "fzfg": false,
      "metar_trigger": false,
      "taf_trigger": false,
      "metar": "METAR EPLB 050830Z VRB02KT CAVOK M05/M09 Q1017",
      "taf": "TAF EPLB 050530Z 0506/0606 22010KT CAVOK"
    },
    {
      "icao": "EPMO",
      "alert": "OK",
      "vis_m": 9999,
      "fzfg": false,
      "metar_trigger": false,
      "taf_trigger": false,
      "metar": "METAR EPMO 050830Z 17007KT 9999 BKN024 M04/M05 Q1015",
      "taf": "TAF EPMO 050530Z 0506/0606 21010KT 9999 BKN030"
    },
    {
      "icao": "EPPO",
      "alert": "OK",
      "vis_m": 9999,
      "fzfg": false,
      "metar_trigger": false,
      "taf_trigger": false,
      "metar": "METAR EPPO 050830Z 19004KT 9999 FEW033 M02/M05 Q1014",
      "taf": "TAF EPPO 050530Z 0506/0606 20006KT 9999 BKN030"
    },
    {
      "icao": "EPRA",
      "alert": "OK",
      "vis_m": 9999,
      "fzfg": false,
      "metar_trigger": false,
      "taf_trigger": false,
      "metar": "METAR EPRA 050830Z 17003KT 120V220 CAVOK M05/M09 Q1016",
      "taf": "TAF EPRA 050830Z 0509/0518 17008KT CAVOK"
    },
    {
      "icao": "EPRZ",
      "alert": "OK",
      "vis_m": 9999,
      "fzfg": false,
      "metar_trigger": false,
      "taf_trigger": false,
      "metar": "METAR EPRZ 050830Z 07002KT CAVOK M05/M07 Q1017",
      "taf": "TAF EPRZ 050530Z 0506/0606 16004KT CAVOK"
    },
    {
      "icao": "EPSC",
      "alert": "OK",
      "vis_m": 8000,
      "fzfg": false,
      "metar_trigger": false,
      "taf_trigger": false,
      "metar": "METAR EPSC 050830Z 14007KT 8000 -SN FEW022 M01/M02 Q1012",
      "taf": "TAF EPSC 050530Z 0506/0606 17007KT 9999 BKN012"
    },
    {
      "icao": "EPSY",
      "alert": "OK",
      "vis_m": 3900,
      "fzfg": false,
      "metar_trigger": false,
      "taf_trigger": false,
      "metar": "METAR EPSY 050830Z 21007KT 3900 BR SCT003 BKN006 M07/M07 Q1014",
      "taf": "TAF EPSY 050830Z 0509/0518 21008KT 9999 BKN006"
    },
    {
      "icao": "EPWA",
      "alert": "OK",
      "vis_m": 9999,
      "fzfg": false,
      "metar_trigger": false,
      "taf_trigger": false,
      "metar": "METAR EPWA 050830Z VRB02KT 9999 FEW024 M05/M08 Q1016 NOSIG",
      "taf": "TAF EPWA 050830Z 0509/0609 18004KT CAVOK"
    },
    {
      "icao": "EPWR",
      "alert": "OK",
      "vis_m": 9999,
      "fzfg": false,
      "metar_trigger": false,
      "taf_trigger": false,
      "metar": "METAR EPWR 050830Z 11004KT CAVOK M05/M08 Q1015",
      "taf": "TAF EPWR 050830Z 0509/0609 12005KT CAVOK"
    },
    {
      "icao": "ESGG",
      "alert": "OK",
      "vis_m": 2400,
      "fzfg": false,
      "metar_trigger": false,
      "taf_trigger": false,
      "metar": "METAR ESGG 050820Z 08005KT 2400 -SN SCT012 BKN016 BKN020 M06/M07 Q1009",
      "taf": "TAF ESGG 050830Z 0509/0609 09006KT 6000 -SN FEW015 BKN030"
    },
    {
      "icao": "ESKN",
      "alert": "OK",
      "vis_m": 9999,
      "fzfg": false,
      "metar_trigger": false,
      "taf_trigger": false,
      "metar": "METAR ESKN 050820Z 03010KT 9999 FEW030 SCT039 M08/M10 Q1012",
      "taf": "TAF ESKN 050830Z 0509/0609 03010KT 9999 BKN035"
    },
    {
      "icao": "ESMS",
      "alert": "OK",
      "vis_m": 8000,
      "fzfg": false,
      "metar_trigger": false,
      "taf_trigger": false,
      "metar": "METAR ESMS 050820Z 08006KT 8000 3000S -SN BKN023 M06/M07 Q1009",
      "taf": "TAF ESMS 050827Z 0509/0609 10004KT 9999 BKN030"
    },
    {
      "icao": "ESSA",
      "alert": "OK",
      "vis_m": 9999,
      "fzfg": false,
      "metar_trigger": false,
      "taf_trigger": false,
      "metar": "METAR ESSA 050820Z 02005KT CAVOK M15/M16 Q1014 NOSIG",
      "taf": "TAF ESSA 050830Z 0509/0609 04005KT CAVOK"
    },
    {
      "icao": "EYKA",
      "alert": "OK",
      "vis_m": 9999,
      "fzfg": false,
      "metar_trigger": false,
      "taf_trigger": false,
      "metar": "METAR EYKA 050850Z 22007KT 160V250 9999 OVC016 M04/M07 Q1011",
      "taf": "TAF EYKA 050509Z 0506/0606 22014KT 9000 SCT010 OVC015"
    },
    {
      "icao": "EYPA",
      "alert": "OK",
      "vis_m": 9999,
      "fzfg": false,
      "metar_trigger": false,
      "taf_trigger": false,
      "metar": "METAR EYPA 050850Z 06003KT 9999 FEW006 OVC012 M03/M04 Q1010",
      "taf": "TAF EYPA 050508Z 0506/0606 VRB04KT 6000 BKN005 OVC010"
    },
    {
      "icao": "EYVI",
      "alert": "OK",
      "vis_m": 9999,
      "fzfg": false,
      "metar_trigger": false,
      "taf_trigger": false,
      "metar": "METAR EYVI 050850Z 19009KT 9999 BKN008 BKN042 M06/M08 Q1012 NOSIG",
      "taf": "TAF EYVI 050503Z 0506/0606 20012KT 8000 BKN010 OVC015"
    },
    {
      "icao": "GCFV",
      "alert": "OK",
      "vis_m": 9999,
      "fzfg": false,
      "metar_trigger": false,
      "taf_trigger": false,
      "metar": "METAR GCFV 050830Z VRB06KT 9999 FEW022 SCT025TCU 17/14 Q1014",
      "taf": "TAF GCFV 050800Z 0509/0609 36014KT 9999 SCT030 TX21/0514Z TN15/0606Z"
    },
    {
      "icao": "GCLP",
      "alert": "OK",
      "vis_m": 9999,
      "fzfg": false,
      "metar_trigger": false,
      "taf_trigger": false,
      "metar": "METAR GCLP 050830Z 30004KT 260V340 9999 FEW020 17/12 Q1015 NOSIG",
      "taf": "TAF GCLP 050800Z 0509/0609 35007KT 9999 SCT030 TX21/0514Z TN15/0606Z"
    },
    {
      "icao": "GCTS",
      "alert": "OK",
      "vis_m": 9999,
      "fzfg": false,
      "metar_trigger": false,
      "taf_trigger": false,
      "metar": "METAR GCTS 050830Z 01006KT 9999 FEW025 16/12 Q1015 NOSIG",
      "taf": "TAF GCTS 050800Z 0509/0609 VRB07KT 9999 SCT030 TX22/0514Z TN16/0606Z"
    },
    {
      "icao": "GMAD",
      "alert": "OK",
      "vis_m": 8000,
      "fzfg": false,
      "metar_trigger": false,
      "taf_trigger": false,
      "metar": "METAR GMAD 050830Z 23010KT 8000 SCT020TCU SCT023 15/15 Q1010 TEMPO 2000 SHRA",
      "taf": "TAF GMAD 050500Z 0506/0612 30012KT 8000 SCT020 SCT030TCU"
    },
    {
      "icao": "GMMN",
      "alert": "OK",
      "vis_m": 2000,
      "fzfg": false,
      "metar_trigger": false,
      "taf_trigger": false,
      "metar": "METAR GMMN 050830Z 24007KT 2000 R17R/1200VP2000U RA SCT002 SCT016 BKN025 13/12 Q1010 NOSIG",
      "taf": "TAF GMMN 050500Z 0506/0612 24006KT 3000 BR BKN002 BKN020TCU"
    },
    {
      "icao": "GMMX",
      "alert": "OK",
      "vis_m": 4000,
      "fzfg": false,
      "metar_trigger": false,
      "taf_trigger": false,
      "metar": "METAR GMMX 050830Z 26006KT 4000 -RA SCT006 BKN023 12/12 Q1011 NOSIG",
      "taf": "TAF GMMX 050500Z 0506/0612 24012KT 8000 SCT023 SCT090"
    },
    {
      "icao": "HEGN",
      "alert": "OK",
      "vis_m": 9999,
      "fzfg": false,
      "metar_trigger": false,
      "taf_trigger": false,
      "metar": "METAR HEGN 050800Z 33010KT CAVOK 22/02 Q1020 NOSIG",
      "taf": "TAF HEGN 050500Z 0506/0612 34015KT CAVOK"
    },
    {
      "icao": "HEMA",
      "alert": "OK",
      "vis_m": 9999,
      "fzfg": false,
      "metar_trigger": false,
      "taf_trigger": false,
      "metar": "METAR HEMA 050800Z 33012KT CAVOK 23/10 Q1018 NOSIG",
      "taf": "TAF HEMA 050500Z 0506/0612 36015KT CAVOK"
    },
    {
      "icao": "HESH",
      "alert": "OK",
      "vis_m": 9999,
      "fzfg": false,
      "metar_trigger": false,
      "taf_trigger": false,
      "metar": "METAR HESH 050800Z 36009KT CAVOK 24/07 Q1019 NOSIG",
      "taf": "TAF HESH 050500Z 0506/0612 02012KT CAVOK"
    },
    {
      "icao": "HESX",
      "alert": "OK",
      "vis_m": 2000,
      "fzfg": false,
      "metar_trigger": false,
      "taf_trigger": false,
      "metar": "METAR HESX 050800Z 23003KT 2000 BR NSC 11/08 Q1021 BECMG 6000",
      "taf": "TAF HESX 050512Z 0506/0612 VRB04KT 6000 NSC"
    },
    {
      "icao": "LATI",
      "alert": "OK",
      "vis_m": 9999,
      "fzfg": false,
      "metar_trigger": false,
      "taf_trigger": false,
      "metar": "METAR LATI 050850Z 15010KT 9999 FEW050 OVC130 15/07 Q1011 NOSIG",
      "taf": "TAF LATI 050500Z 0506/0606 15010KT 9999 BKN080 OVC130 TX16/0512Z TN10/0605Z"
    },
    {
      "icao": "LBPD",
      "alert": "OK",
      "vis_m": 9999,
      "fzfg": false,
      "metar_trigger": false,
      "taf_trigger": false,
      "metar": "METAR LBPD 050830Z AUTO 29003KT 9999 SCT066/// OVC110/// 09/07 Q1014 NOSIG",
      "taf": "TAF LBPD 050500Z 0506/0606 VRB04KT 9999 SCT070"
    },
    {
      "icao": "LBSF",
      "alert": "OK",
      "vis_m": 9999,
      "fzfg": false,
      "metar_trigger": false,
      "taf_trigger": false,
      "metar": "METAR LBSF 050830Z 11010KT 9999 FEW057 SCT072 09/05 Q1013 WS ALL RWY NOSIG",
      "taf": "TAF LBSF 050500Z 0506/0606 12010KT 9999 SCT040 BKN060"
    },
    {
      "icao": "LBWN",
      "alert": "OK",
      "vis_m": 9999,
      "fzfg": false,
      "metar_trigger": false,
      "taf_trigger": false,
      "metar": "METAR LBWN 050830Z VRB02KT 9999 SCT010 OVC015 09/08 Q1017 NOSIG",
      "taf": "TAF LBWN 050500Z 0506/0606 VRB04KT 9999 OVC010"
    },
    {
      "icao": "LCLK",
      "alert": "OK",
      "vis_m": 9999,
      "fzfg": false,
      "metar_trigger": false,
      "taf_trigger": false,
      "metar": "METAR LCLK 050830Z 05014KT CAVOK 17/09 Q1024 NOSIG",
      "taf": "TAF LCLK 050530Z 0506/0606 35009KT CAVOK"
    },
    {
      "icao": "LCPH",
      "alert": "OK",
      "vis_m": 9999,
      "fzfg": false,
      "metar_trigger": false,
      "taf_trigger": false,
      "metar": "METAR LCPH 050830Z VRB03KT CAVOK 19/09 Q1023 NOSIG",
      "taf": "TAF LCPH 050530Z 0506/0606 08008KT 9999 FEW040"
    },
    {
      "icao": "LEAL",
      "alert": "OK",
      "vis_m": 7000,
      "fzfg": false,
      "metar_trigger": false,
      "taf_trigger": false,
      "metar": "METAR LEAL 050830Z 35005KT 7000 RA FEW018 BKN030 11/10 Q1007 NOSIG",
      "taf": "TAF LEAL 050500Z 0506/0606 05012KT 9999 SCT020 TX12/0514Z TN09/0606Z"
    },
    {
      "icao": "LEBB",
      "alert": "OK",
      "vis_m": 9999,
      "fzfg": false,
      "metar_trigger": false,
      "taf_trigger": false,
      "metar": "METAR LEBB 050830Z 13002KT 9999 FEW048 BKN069 02/01 Q1017 NOSIG",
      "taf": "TAF LEBB 050500Z 0506/0606 VRB03KT 9999 BKN050 TX07/0514Z TNM00/0507Z"
    },
    {
      "icao": "LEBL",
      "alert": "OK",
      "vis_m": 9999,
      "fzfg": false,
      "metar_trigger": false,
      "taf_trigger": false,
      "metar": "METAR LEBL 050830Z 33014KT 9999 BKN055 04/01 Q1009 NOSIG",
      "taf": ""
    },
    {
      "icao": "LECH",
      "alert": "OK",
      "vis_m": 9999,
      "fzfg": false,
      "metar_trigger": false,
      "taf_trigger": false,
      "metar": "METAR LECH 050830Z AUTO VRB02KT 9999 SCT025 BKN031 02/00 Q1008",
      "taf": ""
    },
    {
      "icao": "LEMD",
      "alert": "OK",
      "vis_m": 9999,
      "fzfg": false,
      "metar_trigger": false,
      "taf_trigger": false,
      "metar": "METAR LEMD 050830Z 36003KT 9999 BKN045 M00/M03 Q1009",
      "taf": "TAF LEMD 050500Z 0506/0612 VRB03KT 9999 SCT025 TX06/0514Z TNM03/0608Z"
    },
    {
      "icao": "LEMG",
      "alert": "OK",
      "vis_m": 9999,
      "fzfg": false,
      "metar_trigger": false,
      "taf_trigger": false,
      "metar": "METAR LEMG 050830Z 28004KT 9999 FEW040 12/10 Q1006 NOSIG",
      "taf": ""
    },
    {
      "icao": "LEVC",
      "alert": "OK",
      "vis_m": 9999,
      "fzfg": false,
      "metar_trigger": false,
      "taf_trigger": false,
      "metar": "METAR LEVC 050830Z VRB02KT 9999 -RA OVC025 07/04 Q1009 NOSIG",
      "taf": "TAF LEVC 050500Z 0506/0606 VRB04KT 9999 BKN015 TX10/0514Z TN05/0606Z"
    },
    {
      "icao": "LEXJ",
      "alert": "OK",
      "vis_m": 9000,
      "fzfg": false,
      "metar_trigger": false,
      "taf_trigger": false,
      "metar": "METAR LEXJ 050830Z 16006KT 9000 FEW037 SCT045 BKN065 04/01 Q1016",
      "taf": "TAF LEXJ 050800Z 0509/0609 22005KT 9999 SCT040 TX08/0514Z TN03/0520Z"
    },
    {
      "icao": "LEZG",
      "alert": "OK",
      "vis_m": 9999,
      "fzfg": false,
      "metar_trigger": false,
      "taf_trigger": false,
      "metar": "METAR LEZG 050830Z 30017KT 9999 SCT045 02/M05 Q1011 NOSIG",
      "taf": "TAF LEZG 050500Z 0506/0606 31020G30KT 9999 BKN050 TX05/0515Z TN00/0606Z"
    },
    {
      "icao": "LEZL",
      "alert": "OK",
      "vis_m": 9999,
      "fzfg": false,
      "metar_trigger": false,
      "taf_trigger": false,
      "metar": "METAR LEZL 050830Z 15001KT CAVOK 10/10 Q1007 NOSIG",
      "taf": "TAF LEZL 050800Z 0509/0609 VRB03KT CAVOK TX15/0515Z TN02/0607Z"
    },
    {
      "icao": "LFBD",
      "alert": "OK",
      "vis_m": 9999,
      "fzfg": false,
      "metar_trigger": false,
      "taf_trigger": false,
      "metar": "METAR LFBD 050830Z AUTO 28003KT CAVOK M06/M07 Q1017 TEMPO 2000 BR",
      "taf": "TAF LFBD 050500Z 0506/0612 VRB03KT CAVOK TX05/0514Z TNM07/0506Z"
    },
    {
      "icao": "LFLL",
      "alert": "OK",
      "vis_m": 9999,
      "fzfg": false,
      "metar_trigger": false,
      "taf_trigger": false,
      "metar": "METAR LFLL 050830Z 02004KT 350V050 9999 BKN030 M05/M07 Q1014 NOSIG",
      "taf": "TAF LFLL 050500Z 0506/0612 34009KT 9999 BKN030"
    },
    {
      "icao": "LFLS",
      "alert": "OK",
      "vis_m": 9999,
      "fzfg": false,
      "metar_trigger": false,
      "taf_trigger": false,
      "metar": "METAR LFLS 050830Z AUTO 35005KT 310V030 9999 BKN029 M04/M08 Q1013",
      "taf": "TAF LFLS 050200Z 0503/0603 35008KT 9999 BKN025"
    },
    {
      "icao": "LFMN",
      "alert": "OK",
      "vis_m": 9999,
      "fzfg": false,
      "metar_trigger": false,
      "taf_trigger": false,
      "metar": "METAR LFMN 050830Z 34011KT 9999 FEW030 BKN210 05/M03 Q1006 NOSIG",
      "taf": "TAF LFMN 050800Z 0509/0615 33010KT CAVOK"
    },
    {
      "icao": "LFOB",
      "alert": "OK",
      "vis_m": 9999,
      "fzfg": false,
      "metar_trigger": false,
      "taf_trigger": false,
      "metar": "METAR LFOB 050830Z AUTO 17003KT 9999 OVC010 M02/M03 Q1012 TEMPO 2000 SHSN BKN007 BKN014TCU",
      "taf": "TAF LFOB 050500Z 0506/0606 26005KT 9999 FEW009"
    },
    {
      "icao": "LFPO",
      "alert": "OK",
      "vis_m": 9999,
      "fzfg": false,
      "metar_trigger": false,
      "taf_trigger": false,
      "metar": "METAR LFPO 050830Z AUTO 20007KT 4600 BR OVC002 M04/M04 Q1014 BECMG CAVOK",
      "taf": "TAF LFPO 050500Z 0506/0612 20005KT 4000 BR BKN003"
    },
    {
      "icao": "LFSB",
      "alert": "OK",
      "vis_m": 9999,
      "fzfg": false,
      "metar_trigger": false,
      "taf_trigger": false,
      "metar": "METAR LFSB 050830Z AUTO 23001KT CAVOK M06/M08 Q1014 NOSIG",
      "taf": "TAF LFSB 050500Z 0506/0606 VRB02KT 9999 SCT040"
    },
    {
      "icao": "LGAV",
      "alert": "OK",
      "vis_m": 9999,
      "fzfg": false,
      "metar_trigger": false,
      "taf_trigger": false,
      "metar": "METAR LGAV 050820Z 19010KT 9999 FEW018 SCT030 17/09 Q1019 NOSIG",
      "taf": "TAF LGAV 050500Z 0506/0606 22014KT 9999 SCT025 SCT070"
    },
    {
      "icao": "LGTS",
      "alert": "OK",
      "vis_m": 9999,
      "fzfg": false,
      "metar_trigger": false,
      "taf_trigger": false,
      "metar": "METAR LGTS 050820Z 10011KT 9999 SCT035 15/08 Q1015 NOSIG",
      "taf": "TAF LGTS 050500Z 0506/0606 14010KT 9999 SCT030"
    },
    {
      "icao": "LHBP",
      "alert": "OK",
      "vis_m": 9999,
      "fzfg": false,
      "metar_trigger": false,
      "taf_trigger": false,
      "metar": "METAR LHBP 050830Z 05007KT 010V080 CAVOK M03/M07 Q1015 NOSIG",
      "taf": "TAF LHBP 050515Z 0506/0606 06007KT CAVOK"
    },
    {
      "icao": "LHDC",
      "alert": "OK",
      "vis_m": 9999,
      "fzfg": false,
      "metar_trigger": false,
      "taf_trigger": false,
      "metar": "METAR LHDC 050815Z AUTO 04011KT CAVOK M02/M04 Q1014 NOSIG",
      "taf": "TAF LHDC 050815Z 0509/0518 04010KT CAVOK"
    },
    {
      "icao": "LIBD",
      "alert": "OK",
      "vis_m": 9999,
      "fzfg": false,
      "metar_trigger": false,
      "taf_trigger": false,
      "metar": "METAR LIBD 050820Z 15005KT CAVOK 14/13 Q1006",
      "taf": "TAF LIBD 050500Z 0506/0606 VRB05KT 9999 FEW040"
    },
    {
      "icao": "LIBG",
      "alert": "OK",
      "vis_m": 4000,
      "fzfg": false,
      "metar_trigger": false,
      "taf_trigger": false,
      "metar": "METAR LIBG 050750Z 16012KT 4000 BR BKN010 16/16 Q1007",
      "taf": "TAF LIBG 050800Z 0509/0518 17010KT 9999 SCT030"
    },
    {
      "icao": "LIBP",
      "alert": "OK",
      "vis_m": 3700,
      "fzfg": false,
      "metar_trigger": false,
      "taf_trigger": false,
      "metar": "METAR LIBP 050820Z AUTO VRB01KT 3700 -RA BR BKN004/// OVC015/// 08/08 Q1007",
      "taf": "TAF LIBP 050500Z 0506/0606 34006KT 3000 RA OVC008"
    },
    {
      "icao": "LIBR",
      "alert": "OK",
      "vis_m": 9999,
      "fzfg": false,
      "metar_trigger": false,
      "taf_trigger": false,
      "metar": "METAR LIBR 050820Z 17015KT 9999 BKN020 17/13 Q1008",
      "taf": "TAF LIBR 050500Z 0506/0606 17015KT 9999 SCT020"
    },
    {
      "icao": "LICA",
      "alert": "OK",
      "vis_m": 9999,
      "fzfg": false,
      "metar_trigger": false,
      "taf_trigger": false,
      "metar": "METAR LICA 050820Z AUTO 07014KT 9999 BKN091/// 17/14 Q1006",
      "taf": "TAF LICA 050500Z 0506/0606 08012KT 9999 FEW050"
    },
    {
      "icao": "LICC",
      "alert": "OK",
      "vis_m": 8000,
      "fzfg": false,
      "metar_trigger": false,
      "taf_trigger": false,
      "metar": "METAR LICC 050820Z 03006KT 8000 -DZ SCT030 BKN090 17/15 Q1005",
      "taf": "TAF LICC 050500Z 0506/0606 VRB05KT 9999 SCT030"
    },
    {
      "icao": "LICJ",
      "alert": "OK",
      "vis_m": 9999,
      "fzfg": false,
      "metar_trigger": false,
      "taf_trigger": false,
      "metar": "METAR LICJ 050820Z 06004KT CAVOK 16/13 Q1002",
      "taf": "TAF LICJ 050500Z 0506/0606 21016KT 9999 FEW030"
    },
    {
      "icao": "LIMC",
      "alert": "OK",
      "vis_m": 9999,
      "fzfg": false,
      "metar_trigger": false,
      "taf_trigger": false,
      "metar": "METAR LIMC 050820Z 01006KT CAVOK M02/M05 Q1009 NOSIG",
      "taf": "TAF LIMC 050500Z 0506/0612 VRB04KT CAVOK"
    },
    {
      "icao": "LIME",
      "alert": "OK",
      "vis_m": 9999,
      "fzfg": false,
      "metar_trigger": false,
      "taf_trigger": false,
      "metar": "METAR LIME 050820Z 01004KT CAVOK M01/M05 Q1009 NOSIG",
      "taf": "TAF LIME 050500Z 0506/0606 VRB04KT CAVOK"
    },
    {
      "icao": "LIMF",
      "alert": "OK",
      "vis_m": 9999,
      "fzfg": false,
      "metar_trigger": false,
      "taf_trigger": false,
      "metar": "METAR LIMF 050820Z 30003KT CAVOK M02/M08 Q1009",
      "taf": "TAF LIMF 050500Z 0506/0606 VRB04KT CAVOK"
    },
    {
      "icao": "LIMJ",
      "alert": "OK",
      "vis_m": 9999,
      "fzfg": false,
      "metar_trigger": false,
      "taf_trigger": false,
      "metar": "METAR LIMJ 050820Z 05015KT 9999 FEW060 04/M06 Q1006",
      "taf": "TAF LIMJ 050500Z 0506/0606 03016KT CAVOK"
    },
    {
      "icao": "LIPE",
      "alert": "OK",
      "vis_m": 9999,
      "fzfg": false,
      "metar_trigger": false,
      "taf_trigger": false,
      "metar": "METAR LIPE 050820Z 27004KT 9999 BKN060 02/M02 Q1010",
      "taf": "TAF LIPE 050500Z 0506/0606 28007KT 4000 BR SCT030 SCT060"
    },
    {
      "icao": "LIPH",
      "alert": "OK",
      "vis_m": 9999,
      "fzfg": false,
      "metar_trigger": false,
      "taf_trigger": false,
      "metar": "METAR LIPH 050820Z VRB02KT 9999 BKN070 01/M06 Q1010",
      "taf": "TAF LIPH 050500Z 0506/0606 02006KT CAVOK"
    },
    {
      "icao": "LIPQ",
      "alert": "OK",
      "vis_m": 9999,
      "fzfg": false,
      "metar_trigger": false,
      "taf_trigger": false,
      "metar": "METAR LIPQ 050820Z AUTO 04004KT 300V100 9999 BKN068/// 03/M05 Q1009",
      "taf": "TAF LIPQ 050500Z 0506/0606 08008KT CAVOK"
    },
    {
      "icao": "LIPR",
      "alert": "OK",
      "vis_m": 9999,
      "fzfg": false,
      "metar_trigger": false,
      "taf_trigger": false,
      "metar": "METAR LIPR 050820Z 29010KT 9999 -RA BKN020 SCT040 02/01 Q1009",
      "taf": "TAF LIPR 050500Z 0506/0606 29009KT 4000 -RA OVC020"
    },
    {
      "icao": "LIPX",
      "alert": "OK",
      "vis_m": 9999,
      "fzfg": false,
      "metar_trigger": false,
      "taf_trigger": false,
      "metar": "METAR LIPX 050820Z VRB01KT CAVOK M02/M07 Q1009",
      "taf": "TAF LIPX 050500Z 0506/0606 VRB04KT CAVOK"
    },
    {
      "icao": "LIPY",
      "alert": "OK",
      "vis_m": 8000,
      "fzfg": false,
      "metar_trigger": false,
      "taf_trigger": false,
      "metar": "METAR LIPY 050820Z AUTO 29005KT 260V320 8000 -RA OVC008/// 04/04 Q1008",
      "taf": "TAF LIPY 050500Z 0506/0606 28006KT 4000 RA OVC015"
    },
    {
      "icao": "LIPZ",
      "alert": "OK",
      "vis_m": 9999,
      "fzfg": false,
      "metar_trigger": false,
      "taf_trigger": false,
      "metar": "METAR LIPZ 050820Z 01007KT 9999 BKN070 02/M07 Q1009 NOSIG",
      "taf": "TAF LIPZ 050500Z 0506/0612 02008KT CAVOK"
    },
    {
      "icao": "LIRF",
      "alert": "OK",
      "vis_m": 4000,
      "fzfg": false,
      "metar_trigger": false,
      "taf_trigger": false,
      "metar": "METAR LIRF 050820Z 05008KT 4000 1000NWE/SHRA FEW010CB SCT015 BKN035 11/11 Q1003 TEMPO TSRA",
      "taf": ""
    },
    {
      "icao": "LIRN",
      "alert": "OK",
      "vis_m": 9999,
      "fzfg": false,
      "metar_trigger": false,
      "taf_trigger": false,
      "metar": "METAR LIRN 050820Z 16003KT 110V230 9999 -RA FEW055 SCT070 14/10 Q1005 NOSIG",
      "taf": "TAF LIRN 050500Z 0506/0606 17010KT 8000 RA BKN020"
    },
    {
      "icao": "LIRP",
      "alert": "OK",
      "vis_m": 9999,
      "fzfg": false,
      "metar_trigger": false,
      "taf_trigger": false,
      "metar": "METAR LIRP 050815Z 12005KT 9999 BKN040 BKN060 06/02 Q1006 NOSIG",
      "taf": "TAF LIRP 050500Z 0506/0606 12006KT 9999 SCT030 BKN050"
    },
    {
      "icao": "LIRZ",
      "alert": "OK",
      "vis_m": 9999,
      "fzfg": false,
      "metar_trigger": false,
      "taf_trigger": false,
      "metar": "METAR LIRZ 050820Z AUTO 34005KT 9999 -RA OVC026/// 05/04 Q1004",
      "taf": "TAF LIRZ 050500Z 0506/0606 01010KT 6000 RA BKN020"
    },
    {
      "icao": "LJLJ",
      "alert": "OK",
      "vis_m": 9999,
      "fzfg": false,
      "metar_trigger": false,
      "taf_trigger": false,
      "metar": "METAR LJLJ 050830Z VRB02KT 9999 FEW045 SCT055 OVC073 M02/M04 Q1011 NOSIG",
      "taf": "TAF LJLJ 050500Z 0506/0606 VRB02KT 9999 BKN040"
    },
    {
      "icao": "LKMT",
      "alert": "OK",
      "vis_m": 9999,
      "fzfg": false,
      "metar_trigger": false,
      "taf_trigger": false,
      "metar": "METAR LKMT 050830Z 22003KT CAVOK M08/M10 Q1015 NOSIG",
      "taf": "TAF LKMT 050500Z 0506/0606 20005KT CAVOK"
    },
    {
      "icao": "LKPR",
      "alert": "OK",
      "vis_m": 9999,
      "fzfg": false,
      "metar_trigger": false,
      "taf_trigger": false,
      "metar": "METAR LKPR 050830Z 20003KT 9999 BKN038 M05/M08 Q1013 NOSIG",
      "taf": "TAF LKPR 050800Z 0509/0615 19005KT 9999 BKN040"
    },
    {
      "icao": "LLBG",
      "alert": "OK",
      "vis_m": 9999,
      "fzfg": false,
      "metar_trigger": false,
      "taf_trigger": false,
      "metar": "METAR LLBG 050820Z VRB02KT CAVOK 21/06 Q1021 BECMG 13012KT",
      "taf": "TAF LLBG 050503Z 0506/0606 VRB03KT CAVOK"
    },
    {
      "icao": "LMML",
      "alert": "OK",
      "vis_m": 8000,
      "fzfg": false,
      "metar_trigger": false,
      "taf_trigger": false,
      "metar": "METAR LMML 050845Z 21010KT 170V230 8000 NSC 19/14 Q1006 NOSIG",
      "taf": ""
    },
    {
      "icao": "LOWW",
      "alert": "OK",
      "vis_m": 9999,
      "fzfg": false,
      "metar_trigger": false,
      "taf_trigger": false,
      "metar": "METAR LOWW 050820Z 12005KT 9999 BKN050 M04/M06 Q1014 TEMPO 13010KT",
      "taf": "TAF LOWW 050815Z 0509/0615 15008KT 9999 FEW050 TXM02/0613Z TNM04/0509Z"
    },
    {
      "icao": "LPFR",
      "alert": "OK",
      "vis_m": 9999,
      "fzfg": false,
      "metar_trigger": false,
      "taf_trigger": false,
      "metar": "METAR LPFR 050830Z 30006KT 9999 FEW030 10/07 Q1009",
      "taf": "TAF LPFR 050500Z 0506/0606 30008KT 9999 SCT030"
    },
    {
      "icao": "LPMA",
      "alert": "OK",
      "vis_m": 9999,
      "fzfg": false,
      "metar_trigger": false,
      "taf_trigger": false,
      "metar": "METAR LPMA 050830Z 03012G24KT 330V070 9999 -SHRA BKN015 FEW018CB 15/09 Q1018",
      "taf": "TAF LPMA 050500Z 0506/0606 01017KT 9999 SCT015"
    },
    {
      "icao": "LPPR",
      "alert": "OK",
      "vis_m": 9999,
      "fzfg": false,
      "metar_trigger": false,
      "taf_trigger": false,
      "metar": "METAR LPPR 050830Z 03007KT CAVOK 04/M01 Q1016",
      "taf": "TAF LPPR 050500Z 0506/0606 01008KT 9999 BKN045"
    },
    {
      "icao": "LPPS",
      "alert": "OK",
      "vis_m": 9999,
      "fzfg": false,
      "metar_trigger": false,
      "taf_trigger": false,
      "metar": "METAR LPPS 050830Z 04014KT 010V080 9999 SCT014 15/10 Q1018",
      "taf": "TAF LPPS 050500Z 0506/0612 02017KT 9999 SCT015"
    },
    {
      "icao": "LPPT",
      "alert": "OK",
      "vis_m": 9999,
      "fzfg": false,
      "metar_trigger": false,
      "taf_trigger": false,
      "metar": "METAR LPPT 050830Z 36014KT 9999 FEW030 07/M01 Q1012",
      "taf": "TAF LPPT 050500Z 0506/0612 33010KT CAVOK"
    },
    {
      "icao": "LQBK",
      "alert": "OK",
      "vis_m": 7000,
      "fzfg": false,
      "metar_trigger": false,
      "taf_trigger": false,
      "metar": "METAR LQBK 050830Z 32004KT 7000 -SG BKN004 OVC010 M01/M02 Q1012 NOSIG",
      "taf": "TAF LQBK 050500Z 0506/0606 33005KT 3000 -SN SCT010 BKN015 TX00/0513Z TNM02/0605Z"
    },
    {
      "icao": "LQSA",
      "alert": "OK",
      "vis_m": 7000,
      "fzfg": false,
      "metar_trigger": false,
      "taf_trigger": false,
      "metar": "METAR LQSA 050830Z 00000KT 7000 -FZDZ FEW008 SCT015 BKN050 M00/M00 Q1009 NOSIG",
      "taf": "TAF LQSA 050500Z 0506/0606 VRB02KT 9999 SCT010 BKN035 TX04/0514Z TNM02/0506Z"
    },
    {
      "icao": "LQTZ",
      "alert": "OK",
      "vis_m": 9999,
      "fzfg": false,
      "metar_trigger": false,
      "taf_trigger": false,
      "metar": "METAR LQTZ 050830Z 11004KT 9999 BKN007 OVC015 M01/M01 Q1011",
      "taf": "TAF LQTZ 050500Z 0506/0606 30006KT 9999 SCT005 BKN015 OVC025 TX00/0513Z TNM03/0605Z"
    },
    {
      "icao": "LRBC",
      "alert": "OK",
      "vis_m": 5000,
      "fzfg": false,
      "metar_trigger": false,
      "taf_trigger": false,
      "metar": "METAR LRBC 050830Z 18006KT 5000 -SN OVC033 M01/M03 Q1021",
      "taf": "TAF LRBC 050800Z 0509/0518 18007KT 5000 -SN SCT015 OVC025"
    },
    {
      "icao": "LRBS",
      "alert": "OK",
      "vis_m": 4000,
      "fzfg": false,
      "metar_trigger": false,
      "taf_trigger": false,
      "metar": "METAR LRBS 050830Z 05014KT 010V080 4000 -FZRA BR OVC005 M00/M01 Q1019 NOSIG",
      "taf": "TAF LRBS 050500Z 0506/0606 05020KT 9999 -RA BKN010 OVC020"
    },
    {
      "icao": "LRBV",
      "alert": "OK",
      "vis_m": 9999,
      "fzfg": false,
      "metar_trigger": false,
      "taf_trigger": false,
      "metar": "METAR LRBV 050830Z 08009KT 9999 BKN041 M00/M03 Q1014",
      "taf": "TAF LRBV 050800Z 0509/0518 09010KT 9999 SCT010 OVC040"
    },
    {
      "icao": "LRCL",
      "alert": "OK",
      "vis_m": 5000,
      "fzfg": false,
      "metar_trigger": false,
      "taf_trigger": false,
      "metar": "METAR LRCL 050830Z 07003KT 5000 -SN BKN022 OVC030 M03/M04 Q1015",
      "taf": "TAF LRCL 050800Z 0509/0518 VRB04KT 3000 -SN BR SCT010 OVC025"
    },
    {
      "icao": "LRCV",
      "alert": "OK",
      "vis_m": 9999,
      "fzfg": false,
      "metar_trigger": false,
      "taf_trigger": false,
      "metar": "METAR LRCV 050830Z 08014KT 9999 -RA BKN004 OVC009 00/M00 Q1017",
      "taf": "TAF LRCV 050800Z 0509/0518 08012KT 7000 -RA BKN010 OVC025"
    },
    {
      "icao": "LRIA",
      "alert": "OK",
      "vis_m": 9999,
      "fzfg": false,
      "metar_trigger": false,
      "taf_trigger": false,
      "metar": "METAR LRIA 050830Z 12003KT CAVOK M01/M03 Q1022",
      "taf": "TAF LRIA 050800Z 0509/0518 11007KT CAVOK"
    },
    {
      "icao": "LROP",
      "alert": "OK",
      "vis_m": 8000,
      "fzfg": false,
      "metar_trigger": false,
      "taf_trigger": false,
      "metar": "METAR LROP 050830Z 06018KT 8000 -RADZ OVC007 00/00 Q1019 TEMPO 5000 -RA BR",
      "taf": "TAF LROP 050500Z 0506/0606 05020KT 9999 -RA BKN010 OVC020"
    },
    {
      "icao": "LRSB",
      "alert": "OK",
      "vis_m": 7000,
      "fzfg": false,
      "metar_trigger": false,
      "taf_trigger": false,
      "metar": "METAR LRSB 050830Z 23002KT 7000 SCT004 OVC006 M02/M02 Q1013",
      "taf": ""
    },
    {
      "icao": "LRSM",
      "alert": "OK",
      "vis_m": 9999,
      "fzfg": false,
      "metar_trigger": false,
      "taf_trigger": false,
      "metar": "METAR LRSM 050830Z 07010KT CAVOK M02/M05 Q1015",
      "taf": "TAF LRSM 050800Z 0509/0518 06006KT 9999 SCT045"
    },
    {
      "icao": "LRSV",
      "alert": "OK",
      "vis_m": 9999,
      "fzfg": false,
      "metar_trigger": false,
      "taf_trigger": false,
      "metar": "METAR LRSV 050830Z 17009KT CAVOK M01/M05 Q1018",
      "taf": "TAF LRSV 050800Z 0509/0518 15009KT 9999 BKN045"
    },
    {
      "icao": "LRTM",
      "alert": "OK",
      "vis_m": 5000,
      "fzfg": false,
      "metar_trigger": false,
      "taf_trigger": false,
      "metar": "METAR LRTM 050830Z 05002KT 5000 -SN BR FEW007 SCT016 BKN027 M02/M03 Q1015",
      "taf": "TAF LRTM 050800Z 0509/0518 VRB04KT 5000 -SN SCT010 OVC025"
    },
    {
      "icao": "LRTR",
      "alert": "OK",
      "vis_m": 2500,
      "fzfg": false,
      "metar_trigger": false,
      "taf_trigger": false,
      "metar": "METAR LRTR 050830Z COR 07002KT 2500 -SN BKN006 OVC030 00/00 Q1013",
      "taf": "TAF LRTR 050500Z 0506/0606 03008KT 1500 -SN BKN010 OVC025"
    },
    {
      "icao": "LTAC",
      "alert": "OK",
      "vis_m": 7000,
      "fzfg": false,
      "metar_trigger": false,
      "taf_trigger": false,
      "metar": "METAR LTAC 050820Z 03003KT 340V060 7000 SCT040 BKN100 05/01 Q1025 NOSIG RMK RWY21C VRB02KT RWY03L 35004KT 310V040 RWY21R 01004KT 320V050 RWY03R VRB02KT RWY21L VRB02KT",
      "taf": "TAF LTAC 050440Z 0506/0606 VRB02KT 4000 BR SCT040 SCT100"
    },
    {
      "icao": "LTFM",
      "alert": "OK",
      "vis_m": 9999,
      "fzfg": false,
      "metar_trigger": false,
      "taf_trigger": false,
      "metar": "METAR LTFM 050820Z 20013KT CAVOK 15/06 Q1019 NOSIG RMK RWY17L 21016G27KT RWY34L 20016KT RWY16R 21014KT RWY36 20014KT RWY18 20015KT",
      "taf": "TAF LTFM 050440Z 0506/0612 21018G28KT CAVOK"
    },
    {
      "icao": "LUKK",
      "alert": "OK",
      "vis_m": 9999,
      "fzfg": false,
      "metar_trigger": false,
      "taf_trigger": false,
      "metar": "METAR LUKK 050830Z 02002KT 9999 SCT049 M01/M04 Q1022 NOSIG",
      "taf": "TAF LUKK 050523Z 0506/0606 09010KT 9999 BKN025"
    },
    {
      "icao": "LWOH",
      "alert": "OK",
      "vis_m": 8000,
      "fzfg": false,
      "metar_trigger": false,
      "taf_trigger": false,
      "metar": "METAR LWOH 050850Z 17007KT 8000 -RA SCT010 OVC040 09/08 Q1014",
      "taf": "TAF LWOH 050805Z 0509/0609 15012KT 9999 RA SCT010 OVC040"
    },
    {
      "icao": "LWSK",
      "alert": "OK",
      "vis_m": 9999,
      "fzfg": false,
      "metar_trigger": false,
      "taf_trigger": false,
      "metar": "METAR LWSK 050850Z 14016KT 9999 FEW050 BKN100 14/07 Q1012 NOSIG",
      "taf": "TAF LWSK 050805Z 0506/0606 12010KT 9999 FEW050 BKN090"
    },
    {
      "icao": "LYBE",
      "alert": "OK",
      "vis_m": 4000,
      "fzfg": false,
      "metar_trigger": false,
      "taf_trigger": false,
      "metar": "METAR LYBE 050830Z 06003KT 4000 -FZRA BR BKN004 OVC023 M00/M00 Q1012 NOSIG",
      "taf": "TAF LYBE 050500Z 0506/0606 05006KT 7000 BKN006 BKN025 TX01/0512Z TNM01/0606Z"
    },
    {
      "icao": "LYNI",
      "alert": "OK",
      "vis_m": 9999,
      "fzfg": false,
      "metar_trigger": false,
      "taf_trigger": false,
      "metar": "METAR LYNI 050830Z VRB01KT 9999 BKN005 OVC070 01/00 Q1013 NOSIG",
      "taf": "TAF LYNI 050500Z 0506/0606 22006KT 9999 BKN080 TX06/0513Z TN01/0506Z"
    },
    {
      "icao": "LYPG",
      "alert": "OK",
      "vis_m": 6000,
      "fzfg": false,
      "metar_trigger": false,
      "taf_trigger": false,
      "metar": "METAR LYPG 050830Z 11009KT 080V140 6000 TSRA FEW026CB BKN040 13/12 Q1009 TEMPO 4000",
      "taf": "TAF LYPG 050500Z 0506/0606 14009KT 9999 RA FEW015 SCT030 OVC070 TX14/0513Z TN11/0605Z"
    },
    {
      "icao": "LZIB",
      "alert": "OK",
      "vis_m": 9999,
      "fzfg": false,
      "metar_trigger": false,
      "taf_trigger": false,
      "metar": "METAR LZIB 050830Z 04006KT CAVOK M04/M08 Q1015 NOSIG",
      "taf": "TAF LZIB 050515Z 0506/0606 06005KT CAVOK"
    },
    {
      "icao": "LZKZ",
      "alert": "OK",
      "vis_m": 9999,
      "fzfg": false,
      "metar_trigger": false,
      "taf_trigger": false,
      "metar": "METAR LZKZ 050830Z 01011KT 9999 FEW007 M05/M07 Q1016 NOSIG",
      "taf": "TAF LZKZ 050515Z 0506/0606 02007KT CAVOK"
    },
    {
      "icao": "LZTT",
      "alert": "OK",
      "vis_m": 9999,
      "fzfg": false,
      "metar_trigger": false,
      "taf_trigger": false,
      "metar": "METAR LZTT 050830Z VRB01KT CAVOK M11/M14 Q1013 NOSIG",
      "taf": "TAF LZTT 050515Z 0506/0606 VRB02KT CAVOK"
    },
    {
      "icao": "OEJN",
      "alert": "OK",
      "vis_m": 8000,
      "fzfg": false,
      "metar_trigger": false,
      "taf_trigger": false,
      "metar": "METAR OEJN 050800Z 13005KT 8000 FEW040 29/03 Q1017 NOSIG",
      "taf": "TAF OEJN 050500Z 0506/0612 22015KT 7000 FEW040"
    },
    {
      "icao": "OEMA",
      "alert": "OK",
      "vis_m": 9999,
      "fzfg": false,
      "metar_trigger": false,
      "taf_trigger": false,
      "metar": "METAR OEMA 050800Z 10013KT CAVOK 19/03 Q1025 NOSIG",
      "taf": "TAF OEMA 050500Z 0506/0612 09015KT 7000 NSC"
    },
    {
      "icao": "OJAI",
      "alert": "OK",
      "vis_m": 5000,
      "fzfg": false,
      "metar_trigger": false,
      "taf_trigger": false,
      "metar": "METAR OJAI 050800Z 09012KT 5000 HZ NSC 08/01 Q1026 NOSIG",
      "taf": "TAF OJAI 050500Z 0506/0612 14012KT 5000 HZ NSC"
    },
    {
      "icao": "OMAA",
      "alert": "OK",
      "vis_m": 9999,
      "fzfg": false,
      "metar_trigger": false,
      "taf_trigger": false,
      "metar": "METAR OMAA 050800Z 33008KT 290V020 CAVOK 24/13 Q1021 NOSIG",
      "taf": "TAF OMAA 050500Z 0506/0612 33008KT 8000 FEW045"
    },
    {
      "icao": "OMDB",
      "alert": "OK",
      "vis_m": 9999,
      "fzfg": false,
      "metar_trigger": false,
      "taf_trigger": false,
      "metar": "METAR OMDB 050830Z 08006KT 9999 FEW045 25/12 Q1021 NOSIG",
      "taf": "TAF OMDB 050500Z 0506/0612 16006KT 8000 NSC"
    },
    {
      "icao": "UAAA",
      "alert": "OK",
      "vis_m": 5000,
      "fzfg": false,
      "metar_trigger": false,
      "taf_trigger": false,
      "metar": "SPECI UAAA 050840Z 02003MPS 5000 BR OVC007 M00/M01 Q1037 NOSIG",
      "taf": "TAF UAAA 050506Z 0506/0606 04002MPS 2100 BR BKN011 OVC030 TX02/0509Z TNM03/0602Z"
    },
    {
      "icao": "UBBB",
      "alert": "OK",
      "vis_m": 9999,
      "fzfg": false,
      "metar_trigger": false,
      "taf_trigger": false,
      "metar": "METAR UBBB 050830Z 17020G30KT CAVOK 12/04 Q1023 NOSIG",
      "taf": "TAF UBBB 050458Z 0506/0606 17014G24KT CAVOK TX12/0510Z TN02/0300Z"
    },
    {
      "icao": "UDSG",
      "alert": "OK",
      "vis_m": 8000,
      "fzfg": false,
      "metar_trigger": false,
      "taf_trigger": false,
      "metar": "METAR UDSG 050830Z 07002KT 8000 NSC M11/M15 Q1032 NOSIG",
      "taf": "TAF UDSG 050500Z 0506/0606 VRB06KT 9999 FEW050"
    },
    {
      "icao": "UDYZ",
      "alert": "OK",
      "vis_m": 5000,
      "fzfg": false,
      "metar_trigger": false,
      "taf_trigger": false,
      "metar": "METAR UDYZ 050830Z VRB01KT 5000 BR NSC M07/M10 Q1035 NOSIG",
      "taf": "TAF UDYZ 050500Z 0506/0606 VRB04KT 6000 NSC"
    },
    {
      "icao": "UGKO",
      "alert": "OK",
      "vis_m": 9999,
      "fzfg": false,
      "metar_trigger": false,
      "taf_trigger": false,
      "metar": "METAR UGKO 050830Z 10011KT CAVOK 10/01 Q1023 NOSIG",
      "taf": "TAF UGKO 050500Z 0506/0606 09007KT CAVOK TX09/0511Z TN03/0603Z"
    }
  ]
}