{
  "ts_utc": "2026-02-09T15:38:50Z",
  "threshold_m": 150,
  "source": "stations_override.txt (ICAO list) + aviationweather.gov (METAR/TAF raw)",
  "station_count": 159,
  "stations": [
    {
      "icao": "BIKF",
      "alert": "OK",
      "vis_m": 9999,
      "fzfg": false,
      "metar_trigger": false,
      "taf_trigger": false,
      "metar": "METAR BIKF 091530Z 02010KT 9999 FEW029 BKN064 BKN090 03/00 Q1006",
      "taf": "TAF BIKF 091336Z 0915/1015 04014KT 9999 BKN040 TX04/1015Z TN02/0920Z"
    },
    {
      "icao": "BKPR",
      "alert": "OK",
      "vis_m": 8000,
      "fzfg": false,
      "metar_trigger": false,
      "taf_trigger": false,
      "metar": "METAR BKPR 091530Z 01012KT 8000 -RA SCT015 BKN040 07/05 Q1007 NOSIG",
      "taf": "TAF BKPR 091130Z 0912/1012 06008KT 9999 SCT030 BKN080"
    },
    {
      "icao": "EBCI",
      "alert": "OK",
      "vis_m": 9999,
      "fzfg": false,
      "metar_trigger": false,
      "taf_trigger": false,
      "metar": "METAR EBCI 091520Z 16008KT 9999 FEW013 SCT040 08/04 Q1002 NOSIG",
      "taf": "TAF EBCI 091100Z 0912/1018 17009KT 9999 BKN012"
    },
    {
      "icao": "EDDB",
      "alert": "OK",
      "vis_m": 5000,
      "fzfg": false,
      "metar_trigger": false,
      "taf_trigger": false,
      "metar": "METAR EDDB 091520Z AUTO 12007KT 5000 BR OVC006 01/M01 Q1010 NOSIG",
      "taf": "TAF EDDB 091100Z 0912/1012 11007KT 4000 BR BKN005"
    },
    {
      "icao": "EDDH",
      "alert": "OK",
      "vis_m": 6000,
      "fzfg": false,
      "metar_trigger": false,
      "taf_trigger": false,
      "metar": "METAR EDDH 091520Z AUTO 14010KT 6000 OVC006 01/M00 Q1008 TEMPO 4500 BR",
      "taf": "TAF EDDH 091100Z 0912/1018 11008KT 7000 OVC008"
    },
    {
      "icao": "EDDK",
      "alert": "OK",
      "vis_m": 9999,
      "fzfg": false,
      "metar_trigger": false,
      "taf_trigger": false,
      "metar": "METAR EDDK 091520Z AUTO 14009KT 100V160 9999 BKN025 06/01 Q1005 NOSIG",
      "taf": ""
    },
    {
      "icao": "EDDN",
      "alert": "OK",
      "vis_m": 9999,
      "fzfg": false,
      "metar_trigger": false,
      "taf_trigger": false,
      "metar": "METAR EDDN 091520Z AUTO 13011KT 9999 OVC024 05/M00 Q1007 NOSIG",
      "taf": "TAF EDDN 091100Z 0912/1012 12006KT 9999 BKN035"
    },
    {
      "icao": "EDDS",
      "alert": "OK",
      "vis_m": 9999,
      "fzfg": false,
      "metar_trigger": false,
      "taf_trigger": false,
      "metar": "METAR EDDS 091520Z AUTO 07007KT 9999 FEW029 05/01 Q1005 NOSIG",
      "taf": "TAF EDDS 091100Z 0912/1012 12004KT 9999 BKN013"
    },
    {
      "icao": "EDFH",
      "alert": "OK",
      "vis_m": 9999,
      "fzfg": false,
      "metar_trigger": false,
      "taf_trigger": false,
      "metar": "METAR EDFH 091520Z 12006KT 080V170 9999 BKN008 03/01 Q1004",
      "taf": ""
    },
    {
      "icao": "EDJA",
      "alert": "OK",
      "vis_m": 9999,
      "fzfg": false,
      "metar_trigger": false,
      "taf_trigger": false,
      "metar": "METAR EDJA 091520Z 03006KT CAVOK 04/01 Q1005",
      "taf": "TAF EDJA 091400Z 0915/0924 VRB03KT 9999 SCT015"
    },
    {
      "icao": "EDLW",
      "alert": "OK",
      "vis_m": 9999,
      "fzfg": false,
      "metar_trigger": false,
      "taf_trigger": false,
      "metar": "METAR EDLW 091520Z 12006KT 9999 SCT031 07/01 Q1004",
      "taf": "TAF EDLW 091100Z 0912/1012 14006KT CAVOK"
    },
    {
      "icao": "EDNY",
      "alert": "OK",
      "vis_m": 9999,
      "fzfg": false,
      "metar_trigger": false,
      "taf_trigger": false,
      "metar": "METAR EDNY 091520Z VRB02KT CAVOK 07/02 Q1006",
      "taf": "TAF EDNY 091400Z 0915/0924 VRB03KT 9999 SCT020"
    },
    {
      "icao": "EDSB",
      "alert": "OK",
      "vis_m": 9999,
      "fzfg": false,
      "metar_trigger": false,
      "taf_trigger": false,
      "metar": "METAR EDSB 091520Z 02004KT CAVOK 07/03 Q1006",
      "taf": "TAF EDSB 091100Z 0912/1012 03004KT 9999 SCT006 BKN030"
    },
    {
      "icao": "EETN",
      "alert": "OK",
      "vis_m": 9999,
      "fzfg": false,
      "metar_trigger": false,
      "taf_trigger": false,
      "metar": "METAR EETN 091520Z 24012KT 9999 OVC021 M04/M06 Q1012 NOSIG",
      "taf": "TAF EETN 091130Z 0912/1012 21012KT 9999 BKN020"
    },
    {
      "icao": "EFTU",
      "alert": "OK",
      "vis_m": 9999,
      "fzfg": false,
      "metar_trigger": false,
      "taf_trigger": false,
      "metar": "METAR EFTU 091520Z AUTO 25010KT 9999 OVC012 M06/M08 Q1011",
      "taf": "TAF EFTU 091435Z 0915/1015 26011KT 9999 BKN013"
    },
    {
      "icao": "EGBB",
      "alert": "OK",
      "vis_m": 9999,
      "fzfg": false,
      "metar_trigger": false,
      "taf_trigger": false,
      "metar": "METAR EGBB 091520Z 12010KT 9999 SCT024 BKN040 10/06 Q0995",
      "taf": ""
    },
    {
      "icao": "EGGP",
      "alert": "OK",
      "vis_m": 9999,
      "fzfg": false,
      "metar_trigger": false,
      "taf_trigger": false,
      "metar": "METAR EGGP 091520Z 12012KT 9999 SCT028 09/06 Q0995",
      "taf": "TAF EGGP 091056Z 0912/1012 14008KT 9999 BKN020"
    },
    {
      "icao": "EGGW",
      "alert": "OK",
      "vis_m": 9999,
      "fzfg": false,
      "metar_trigger": false,
      "taf_trigger": false,
      "metar": "METAR EGGW 091520Z AUTO 13012KT 9999 FEW011 08/06 Q0997",
      "taf": ""
    },
    {
      "icao": "EGKK",
      "alert": "OK",
      "vis_m": 9999,
      "fzfg": false,
      "metar_trigger": false,
      "taf_trigger": false,
      "metar": "METAR EGKK 091520Z 13008KT 100V160 9999 BKN007 08/06 Q0997",
      "taf": "TAF EGKK 091104Z 0912/1018 14009KT 9999 SCT015"
    },
    {
      "icao": "EGNM",
      "alert": "OK",
      "vis_m": 9999,
      "fzfg": false,
      "metar_trigger": false,
      "taf_trigger": false,
      "metar": "METAR EGNM 091520Z 11005KT 9999 SCT008 BKN012 07/06 Q0997",
      "taf": ""
    },
    {
      "icao": "EGPD",
      "alert": "OK",
      "vis_m": 9999,
      "fzfg": false,
      "metar_trigger": false,
      "taf_trigger": false,
      "metar": "METAR EGPD 091520Z AUTO 15010KT 9999 BKN007 OVC024 08/06 Q0998 TEMPO BKN004",
      "taf": "TAF EGPD 091054Z 0912/1012 15009KT 9999 SCT008 BKN010"
    },
    {
      "icao": "EGPF",
      "alert": "OK",
      "vis_m": 9999,
      "fzfg": false,
      "metar_trigger": false,
      "taf_trigger": false,
      "metar": "METAR EGPF 091520Z AUTO 07007KT 9999 -RA FEW026 BKN032 08/07 Q0996",
      "taf": "TAF EGPF 091056Z 0912/1012 06006KT 9999 BKN030"
    },
    {
      "icao": "EHBK",
      "alert": "OK",
      "vis_m": 9999,
      "fzfg": false,
      "metar_trigger": false,
      "taf_trigger": false,
      "metar": "METAR EHBK 091525Z AUTO 16007KT 120V190 9999 FEW025/// 09/03 Q1003 NOSIG",
      "taf": "TAF EHBK 091119Z 0912/1018 15006KT CAVOK"
    },
    {
      "icao": "EHEH",
      "alert": "OK",
      "vis_m": 9999,
      "fzfg": false,
      "metar_trigger": false,
      "taf_trigger": false,
      "metar": "METAR EHEH 091525Z AUTO 13005KT 110V210 9999 OVC018 07/03 Q1003 WHT NOSIG",
      "taf": "TAF EHEH 091152Z 0912/1018 12002KT 7000 SCT005 BKN008"
    },
    {
      "icao": "EKBI",
      "alert": "OK",
      "vis_m": 6000,
      "fzfg": false,
      "metar_trigger": false,
      "taf_trigger": false,
      "metar": "METAR EKBI 091520Z AUTO 10006KT 6000 OVC007/// M01/M02 Q1010",
      "taf": "TAF EKBI 091427Z 0915/1015 10008KT 7000 BKN008"
    },
    {
      "icao": "EKCH",
      "alert": "OK",
      "vis_m": 9999,
      "fzfg": false,
      "metar_trigger": false,
      "taf_trigger": false,
      "metar": "METAR EKCH 091520Z 09009KT 9999 -SN OVC009 M01/M02 Q1012 NOSIG",
      "taf": "TAF EKCH 091427Z 0915/1015 11010KT 9999 BKN008"
    },
    {
      "icao": "ENAL",
      "alert": "OK",
      "vis_m": 9999,
      "fzfg": false,
      "metar_trigger": false,
      "taf_trigger": false,
      "metar": "METAR ENAL 091520Z 14003KT 9999 SCT025 03/M02 Q1011",
      "taf": "TAF ENAL 091400Z 0915/0924 15005KT 9999 FEW030"
    },
    {
      "icao": "ENBR",
      "alert": "OK",
      "vis_m": 9999,
      "fzfg": false,
      "metar_trigger": false,
      "taf_trigger": false,
      "metar": "METAR ENBR 091520Z 18003KT CAVOK 02/M06 Q1010 NOSIG RMK WIND 1200FT 25003KT",
      "taf": "TAF ENBR 091100Z 0912/1012 VRB03KT 9999 SCT045"
    },
    {
      "icao": "ENGM",
      "alert": "OK",
      "vis_m": 9999,
      "fzfg": false,
      "metar_trigger": false,
      "taf_trigger": false,
      "metar": "METAR ENGM 091520Z 06004KT 9999 -SN FEW010 OVC015 M09/M11 Q1013 TEMPO BKN014",
      "taf": ""
    },
    {
      "icao": "ENHD",
      "alert": "OK",
      "vis_m": 9999,
      "fzfg": false,
      "metar_trigger": false,
      "taf_trigger": false,
      "metar": "METAR ENHD 091520Z 12010KT 9999 BKN038 02/M05 Q1010",
      "taf": "TAF ENHD 091400Z 0915/0923 13010KT 9999 BKN045"
    },
    {
      "icao": "ENTC",
      "alert": "OK",
      "vis_m": 9999,
      "fzfg": false,
      "metar_trigger": false,
      "taf_trigger": false,
      "metar": "METAR ENTC 091520Z 04007KT 9999 FEW020 SCT063 M04/M08 Q1011 TEMPO 4000 -SHSN VV014 RMK WIND 2600FT 01005KT",
      "taf": "TAF ENTC 091100Z 0912/1012 VRB03KT 9999 FEW015 BKN035"
    },
    {
      "icao": "ENTO",
      "alert": "OK",
      "vis_m": 9999,
      "fzfg": false,
      "metar_trigger": false,
      "taf_trigger": false,
      "metar": "METAR ENTO 091520Z 00000KT 9999 BKN010 M06/M08 Q1014 NOSIG",
      "taf": ""
    },
    {
      "icao": "ENVA",
      "alert": "OK",
      "vis_m": 9999,
      "fzfg": false,
      "metar_trigger": false,
      "taf_trigger": false,
      "metar": "METAR ENVA 091520Z 12002KT 9999 FEW014 BKN025 BKN042 M03/M05 Q1011 NOSIG RMK WIND 670FT 11004KT",
      "taf": ""
    },
    {
      "icao": "ENZV",
      "alert": "OK",
      "vis_m": 9999,
      "fzfg": false,
      "metar_trigger": false,
      "taf_trigger": false,
      "metar": "METAR ENZV 091520Z 13012KT 9999 OVC033 01/M05 Q1010 NOSIG",
      "taf": "TAF ENZV 091100Z 0912/1012 12010KT 9999 BKN045"
    },
    {
      "icao": "EPGD",
      "alert": "OK",
      "vis_m": 7000,
      "fzfg": false,
      "metar_trigger": false,
      "taf_trigger": false,
      "metar": "METAR EPGD 091530Z 17007KT 7000 OVC003 M09/M10 Q1015",
      "taf": ""
    },
    {
      "icao": "EPKK",
      "alert": "OK",
      "vis_m": 9999,
      "fzfg": false,
      "metar_trigger": false,
      "taf_trigger": false,
      "metar": "METAR EPKK 091530Z 07009KT 9999 OVC014 M03/M06 Q1013",
      "taf": "TAF EPKK 091430Z 0915/1015 07012KT 9999 OVC013"
    },
    {
      "icao": "EPKT",
      "alert": "OK",
      "vis_m": 9999,
      "fzfg": false,
      "metar_trigger": false,
      "taf_trigger": false,
      "metar": "METAR EPKT 091530Z 09012KT 9999 OVC010 M04/M06 Q1012",
      "taf": ""
    },
    {
      "icao": "EPLB",
      "alert": "OK",
      "vis_m": 9999,
      "fzfg": false,
      "metar_trigger": false,
      "taf_trigger": false,
      "metar": "METAR EPLB 091530Z 10009KT CAVOK M09/M11 Q1017",
      "taf": "TAF EPLB 091130Z 0912/1012 12010KT 9999 SCT014"
    },
    {
      "icao": "EPMO",
      "alert": "OK",
      "vis_m": 9999,
      "fzfg": false,
      "metar_trigger": false,
      "taf_trigger": false,
      "metar": "METAR EPMO 091530Z 10008KT CAVOK M06/M10 Q1016",
      "taf": "TAF EPMO 091130Z 0912/1012 12010KT 9999 SCT014"
    },
    {
      "icao": "EPPO",
      "alert": "OK",
      "vis_m": 9999,
      "fzfg": false,
      "metar_trigger": false,
      "taf_trigger": false,
      "metar": "METAR EPPO 091530Z 10008KT 9999 BKN020 M01/M04 Q1013",
      "taf": "TAF EPPO 091130Z 0912/1012 11012KT 9999 OVC017"
    },
    {
      "icao": "EPRA",
      "alert": "OK",
      "vis_m": 9999,
      "fzfg": false,
      "metar_trigger": false,
      "taf_trigger": false,
      "metar": "METAR EPRA 091530Z 09009KT CAVOK M07/M11 Q1016",
      "taf": "TAF EPRA 091430Z 0915/0924 10012KT CAVOK"
    },
    {
      "icao": "EPRZ",
      "alert": "OK",
      "vis_m": 9999,
      "fzfg": false,
      "metar_trigger": false,
      "taf_trigger": false,
      "metar": "METAR EPRZ 091530Z 10015KT 9999 BKN015 M04/M07 Q1015",
      "taf": "TAF EPRZ 091130Z 0912/1012 09015KT 9999 OVC013"
    },
    {
      "icao": "EPSC",
      "alert": "OK",
      "vis_m": 8000,
      "fzfg": false,
      "metar_trigger": false,
      "taf_trigger": false,
      "metar": "METAR EPSC 091530Z 13011KT 8000 OVC011 M00/M03 Q1012",
      "taf": "TAF EPSC 091130Z 0912/1012 13010KT 9999 OVC014"
    },
    {
      "icao": "EPSY",
      "alert": "OK",
      "vis_m": 9999,
      "fzfg": false,
      "metar_trigger": false,
      "taf_trigger": false,
      "metar": "METAR EPSY 091530Z VRB02KT CAVOK M09/M11 Q1017",
      "taf": "TAF EPSY 091430Z 0915/0924 15006KT CAVOK"
    },
    {
      "icao": "EPWA",
      "alert": "OK",
      "vis_m": 9999,
      "fzfg": false,
      "metar_trigger": false,
      "taf_trigger": false,
      "metar": "METAR EPWA 091530Z 12011KT CAVOK M06/M10 Q1016 NOSIG",
      "taf": "TAF EPWA 091430Z 0915/1015 11011KT 9999 SCT014"
    },
    {
      "icao": "EPWR",
      "alert": "OK",
      "vis_m": 9999,
      "fzfg": false,
      "metar_trigger": false,
      "taf_trigger": false,
      "metar": "METAR EPWR 091530Z 13011KT 9999 BKN019 00/M03 Q1012",
      "taf": "TAF EPWR 091430Z 0915/1015 13010KT 9999 BKN016"
    },
    {
      "icao": "ESGG",
      "alert": "OK",
      "vis_m": 9999,
      "fzfg": false,
      "metar_trigger": false,
      "taf_trigger": false,
      "metar": "METAR ESGG 091520Z 09005KT CAVOK M04/M08 Q1012",
      "taf": "TAF ESGG 091430Z 0915/1015 12007KT 9999 FEW040"
    },
    {
      "icao": "ESKN",
      "alert": "OK",
      "vis_m": 9999,
      "fzfg": false,
      "metar_trigger": false,
      "taf_trigger": false,
      "metar": "METAR ESKN 091520Z 27007KT 9999 SCT013 M08/M10 Q1014",
      "taf": ""
    },
    {
      "icao": "ESMS",
      "alert": "OK",
      "vis_m": 6000,
      "fzfg": false,
      "metar_trigger": false,
      "taf_trigger": false,
      "metar": "METAR ESMS 091520Z 10008KT 6000 OVC005 M02/M02 Q1012",
      "taf": "TAF ESMS 091427Z 0915/1015 10007KT 9999 OVC008"
    },
    {
      "icao": "ESSA",
      "alert": "OK",
      "vis_m": 9999,
      "fzfg": false,
      "metar_trigger": false,
      "taf_trigger": false,
      "metar": "METAR ESSA 091520Z 25012KT 9999 BKN012 M07/M10 Q1013 NOSIG",
      "taf": "TAF ESSA 091430Z 0915/1015 24011KT 9999 BKN012"
    },
    {
      "icao": "EYKA",
      "alert": "OK",
      "vis_m": 9999,
      "fzfg": false,
      "metar_trigger": false,
      "taf_trigger": false,
      "metar": "METAR EYKA 091520Z 17003KT CAVOK M12/M16 Q1019",
      "taf": "TAF EYKA 091100Z 0912/1012 VRB04KT 8000 NSC"
    },
    {
      "icao": "EYPA",
      "alert": "OK",
      "vis_m": 9999,
      "fzfg": false,
      "metar_trigger": false,
      "taf_trigger": false,
      "metar": "METAR EYPA 091520Z 15007KT CAVOK M08/M14 Q1017",
      "taf": ""
    },
    {
      "icao": "EYVI",
      "alert": "OK",
      "vis_m": 9999,
      "fzfg": false,
      "metar_trigger": false,
      "taf_trigger": false,
      "metar": "METAR EYVI 091520Z 18007KT CAVOK M14/M17 Q1018 NOSIG",
      "taf": "TAF EYVI 091100Z 0912/1012 18007KT 9000 NSC"
    },
    {
      "icao": "GCFV",
      "alert": "OK",
      "vis_m": 9999,
      "fzfg": false,
      "metar_trigger": false,
      "taf_trigger": false,
      "metar": "METAR GCFV 091530Z 35013KT 320V030 9999 FEW025 23/12 Q1022",
      "taf": ""
    },
    {
      "icao": "GCLP",
      "alert": "OK",
      "vis_m": 9999,
      "fzfg": false,
      "metar_trigger": false,
      "taf_trigger": false,
      "metar": "METAR GCLP 091530Z 03021KT 9999 FEW025 21/15 Q1022 NOSIG",
      "taf": "TAF GCLP 091400Z 0915/1015 02018KT 9999 FEW025 TX22/1014Z TN17/1006Z"
    },
    {
      "icao": "GCTS",
      "alert": "OK",
      "vis_m": 9999,
      "fzfg": false,
      "metar_trigger": false,
      "taf_trigger": false,
      "metar": "METAR GCTS 091530Z 20006KT 160V260 9999 FEW035 20/13 Q1023 NOSIG",
      "taf": ""
    },
    {
      "icao": "GMAD",
      "alert": "OK",
      "vis_m": 9999,
      "fzfg": false,
      "metar_trigger": false,
      "taf_trigger": false,
      "metar": "METAR GMAD 091530Z 24007KT 9999 SCT026 SCT200 21/18 Q1019 NOSIG",
      "taf": "TAF GMAD 091100Z 0912/1018 28010KT 6000 SCT016"
    },
    {
      "icao": "GMMN",
      "alert": "OK",
      "vis_m": 8000,
      "fzfg": false,
      "metar_trigger": false,
      "taf_trigger": false,
      "metar": "METAR GMMN 091530Z 25010KT 8000 BKN010 17/16 Q1021 NOSIG",
      "taf": "TAF GMMN 091100Z 0912/1018 22014KT 8000 BKN004"
    },
    {
      "icao": "GMMX",
      "alert": "OK",
      "vis_m": 9999,
      "fzfg": false,
      "metar_trigger": false,
      "taf_trigger": false,
      "metar": "METAR GMMX 091530Z 02003KT 300V080 9999 FEW026 SCT080 22/15 Q1021 NOSIG",
      "taf": "TAF GMMX 091100Z 0912/1018 16006KT 8000 SCT020 SCT080"
    },
    {
      "icao": "HEGN",
      "alert": "OK",
      "vis_m": 9999,
      "fzfg": false,
      "metar_trigger": false,
      "taf_trigger": false,
      "metar": "METAR HEGN 091500Z 12008KT CAVOK 24/19 Q1011 NOSIG",
      "taf": "TAF HEGN 091100Z 0912/1018 12015KT CAVOK"
    },
    {
      "icao": "HEMA",
      "alert": "OK",
      "vis_m": 9999,
      "fzfg": false,
      "metar_trigger": false,
      "taf_trigger": false,
      "metar": "METAR HEMA 091500Z 13011KT CAVOK 25/19 Q1012 NOSIG",
      "taf": "TAF HEMA 091100Z 0912/1018 12016KT 6000 NSC"
    },
    {
      "icao": "HESH",
      "alert": "OK",
      "vis_m": 9999,
      "fzfg": false,
      "metar_trigger": false,
      "taf_trigger": false,
      "metar": "METAR HESH 091500Z 15004KT CAVOK 25/16 Q1012 NOSIG",
      "taf": "TAF HESH 091100Z 0912/1018 16012KT CAVOK"
    },
    {
      "icao": "HESX",
      "alert": "OK",
      "vis_m": 9999,
      "fzfg": false,
      "metar_trigger": false,
      "taf_trigger": false,
      "metar": "METAR HESX 091500Z 35004KT 9999 FEW030 BKN100 22/11 Q1010 NOSIG",
      "taf": "TAF HESX 091100Z 0912/1018 10010KT CAVOK"
    },
    {
      "icao": "LATI",
      "alert": "OK",
      "vis_m": 9999,
      "fzfg": false,
      "metar_trigger": false,
      "taf_trigger": false,
      "metar": "METAR LATI 091520Z 32006KT 9999 SCT062 OVC085 12/10 Q1005 NOSIG",
      "taf": "TAF LATI 091100Z 0912/1012 VRB05KT 9999 FEW010 SCT040 BKN070 TX15/1012Z TN05/1004Z"
    },
    {
      "icao": "LBPD",
      "alert": "OK",
      "vis_m": 9999,
      "fzfg": false,
      "metar_trigger": false,
      "taf_trigger": false,
      "metar": "METAR LBPD 091530Z AUTO 10016KT 9999 -RA BKN007/// BKN009/// OVC019/// 02/02 Q1014 NOSIG",
      "taf": "TAF LBPD 091100Z 0912/1012 11014KT 6000 RA BKN006 BKN030"
    },
    {
      "icao": "LBSF",
      "alert": "OK",
      "vis_m": 9999,
      "fzfg": false,
      "metar_trigger": false,
      "taf_trigger": false,
      "metar": "METAR LBSF 091530Z 10013KT 9999 SCT015 OVC017 05/02 Q1010 NOSIG",
      "taf": "TAF LBSF 091100Z 0912/1012 11012KT 9999 BKN030"
    },
    {
      "icao": "LBWN",
      "alert": "OK",
      "vis_m": 9999,
      "fzfg": false,
      "metar_trigger": false,
      "taf_trigger": false,
      "metar": "METAR LBWN 091530Z 05013G24KT 020V080 9999 -SN OVC022 M01/M02 Q1017 TEMPO 4000 -SN",
      "taf": "TAF LBWN 091100Z 0912/1012 06014KT 9999 BKN010 OVC020"
    },
    {
      "icao": "LCLK",
      "alert": "OK",
      "vis_m": 9999,
      "fzfg": false,
      "metar_trigger": false,
      "taf_trigger": false,
      "metar": "METAR LCLK 091530Z 23010KT 9999 FEW020 17/15 Q1009 NOSIG",
      "taf": "TAF LCLK 091130Z 0912/1012 22015KT 9999 FEW025"
    },
    {
      "icao": "LCPH",
      "alert": "OK",
      "vis_m": 9999,
      "fzfg": false,
      "metar_trigger": false,
      "taf_trigger": false,
      "metar": "METAR LCPH 091530Z 32006KT 9999 FEW018 17/13 Q1009 NOSIG",
      "taf": "TAF LCPH 091130Z 0912/1012 29015KT 9999 SCT013"
    },
    {
      "icao": "LEAL",
      "alert": "OK",
      "vis_m": 9999,
      "fzfg": false,
      "metar_trigger": false,
      "taf_trigger": false,
      "metar": "METAR LEAL 091530Z 17006KT 120V260 9999 FEW052 19/12 Q1008 NOSIG",
      "taf": ""
    },
    {
      "icao": "LEBB",
      "alert": "OK",
      "vis_m": 9999,
      "fzfg": false,
      "metar_trigger": false,
      "taf_trigger": false,
      "metar": "METAR LEBB 091530Z VRB07KT 9999 -RA FEW027 BKN069 13/10 Q1003 RERA TEMPO 3000 SHRA SCT035TCU",
      "taf": "TAF LEBB 091100Z 0912/1012 20009KT 9999 FEW040 SCT060 TX16/0913Z TN11/1006Z"
    },
    {
      "icao": "LEBL",
      "alert": "OK",
      "vis_m": 9999,
      "fzfg": false,
      "metar_trigger": false,
      "taf_trigger": false,
      "metar": "METAR LEBL 091530Z 29007G18KT 240V350 9999 FEW047 15/09 Q1006 NOSIG",
      "taf": "TAF LEBL 091100Z 0912/1012 23010KT 9999 FEW030 TX16/1012Z TN12/1005Z"
    },
    {
      "icao": "LECH",
      "alert": "OK",
      "vis_m": 8000,
      "fzfg": false,
      "metar_trigger": false,
      "taf_trigger": false,
      "metar": "METAR LECH 091530Z AUTO 11007KT 8000 NSC 14/06 Q1007",
      "taf": ""
    },
    {
      "icao": "LEMD",
      "alert": "OK",
      "vis_m": 9999,
      "fzfg": false,
      "metar_trigger": false,
      "taf_trigger": false,
      "metar": "METAR LEMD 091530Z VRB10KT 9999 -RA BKN018 11/11 Q1009 NOSIG",
      "taf": "TAF LEMD 091100Z 0912/1018 22010KT 9999 SCT030 TX13/0915Z TN05/1006Z"
    },
    {
      "icao": "LEMG",
      "alert": "OK",
      "vis_m": 9999,
      "fzfg": false,
      "metar_trigger": false,
      "taf_trigger": false,
      "metar": "METAR LEMG 091530Z 33005KT 300V010 9999 FEW050 SCT065 20/14 Q1013 NOSIG",
      "taf": "TAF LEMG 091100Z 0912/1012 29010KT 9999 SCT030 TX22/0914Z TN15/1007Z"
    },
    {
      "icao": "LEVC",
      "alert": "OK",
      "vis_m": 9999,
      "fzfg": false,
      "metar_trigger": false,
      "taf_trigger": false,
      "metar": "METAR LEVC 091530Z 28017G27KT 9999 FEW040 18/06 Q1008 NOSIG",
      "taf": "TAF LEVC 091100Z 0912/1012 28012KT 9999 FEW040 TX21/0914Z TN17/1006Z"
    },
    {
      "icao": "LEXJ",
      "alert": "OK",
      "vis_m": 4900,
      "fzfg": false,
      "metar_trigger": false,
      "taf_trigger": false,
      "metar": "METAR LEXJ 091530Z 22008KT 170V270 4900 RA BKN058 OVC070 14/09 Q1002",
      "taf": "TAF LEXJ 091400Z 0915/1015 21009KT 9999 SCT060 TX19/1013Z TN13/1007Z"
    },
    {
      "icao": "LEZG",
      "alert": "OK",
      "vis_m": 9999,
      "fzfg": false,
      "metar_trigger": false,
      "taf_trigger": false,
      "metar": "METAR LEZG 091530Z 24008KT 9999 -RA BKN070 OVC080 13/09 Q1007 NOSIG",
      "taf": ""
    },
    {
      "icao": "LEZL",
      "alert": "OK",
      "vis_m": 9999,
      "fzfg": false,
      "metar_trigger": false,
      "taf_trigger": false,
      "metar": "METAR LEZL 091530Z 23011KT 200V260 9999 BKN010 18/16 Q1014 NOSIG",
      "taf": "TAF LEZL 091400Z 0915/1015 24010KT 9999 BKN020 TX20/0915Z TN15/1007Z"
    },
    {
      "icao": "LFBD",
      "alert": "OK",
      "vis_m": 9999,
      "fzfg": false,
      "metar_trigger": false,
      "taf_trigger": false,
      "metar": "METAR LFBD 091530Z AUTO 17008KT 9999 FEW009 SCT044 BKN062 12/11 Q1002 TEMPO 20015G25KT 2000 SHRA BKN005 BKN010TCU",
      "taf": ""
    },
    {
      "icao": "LFLL",
      "alert": "OK",
      "vis_m": 9999,
      "fzfg": false,
      "metar_trigger": false,
      "taf_trigger": false,
      "metar": "METAR LFLL 091530Z 18010KT CAVOK 13/03 Q1004 NOSIG",
      "taf": "TAF LFLL 091100Z 0912/1018 14005KT CAVOK"
    },
    {
      "icao": "LFLS",
      "alert": "OK",
      "vis_m": 9999,
      "fzfg": false,
      "metar_trigger": false,
      "taf_trigger": false,
      "metar": "METAR LFLS 091530Z AUTO 22012KT CAVOK 11/02 Q1005 NOSIG",
      "taf": "TAF LFLS 091400Z 0915/1015 08007KT CAVOK"
    },
    {
      "icao": "LFMN",
      "alert": "OK",
      "vis_m": 9999,
      "fzfg": false,
      "metar_trigger": false,
      "taf_trigger": false,
      "metar": "METAR LFMN 091530Z 20008KT 9999 FEW033 FEW040CB BKN070 13/09 Q1006 NOSIG",
      "taf": "TAF LFMN 091400Z 0915/1021 20010KT 9999 SCT020 FEW040TCU"
    },
    {
      "icao": "LFOB",
      "alert": "OK",
      "vis_m": 9999,
      "fzfg": false,
      "metar_trigger": false,
      "taf_trigger": false,
      "metar": "METAR LFOB 091530Z AUTO 15011KT 9999 BKN020 OVC025 09/06 Q1000 BECMG BKN013",
      "taf": "TAF LFOB 091100Z 0912/1012 13010KT 9999 OVC003"
    },
    {
      "icao": "LFPO",
      "alert": "OK",
      "vis_m": 9999,
      "fzfg": false,
      "metar_trigger": false,
      "taf_trigger": false,
      "metar": "METAR LFPO 091530Z 16011KT 9999 FEW027 BKN260 11/05 Q1000 NOSIG",
      "taf": "TAF LFPO 091100Z 0912/1018 17008KT 9999 BKN012"
    },
    {
      "icao": "LFSB",
      "alert": "OK",
      "vis_m": 9999,
      "fzfg": false,
      "metar_trigger": false,
      "taf_trigger": false,
      "metar": "METAR LFSB 091530Z AUTO 10007KT CAVOK 08/03 Q1005 NOSIG",
      "taf": "TAF LFSB 091100Z 0912/1012 10005KT CAVOK"
    },
    {
      "icao": "LGAV",
      "alert": "OK",
      "vis_m": 9999,
      "fzfg": false,
      "metar_trigger": false,
      "taf_trigger": false,
      "metar": "METAR LGAV 091520Z 23008KT 9999 FEW030 15/08 Q1006 NOSIG",
      "taf": "TAF LGAV 091100Z 0912/1012 VRB05KT 9999 SCT025 SCT070"
    },
    {
      "icao": "LGTS",
      "alert": "OK",
      "vis_m": 9999,
      "fzfg": false,
      "metar_trigger": false,
      "taf_trigger": false,
      "metar": "METAR LGTS 091520Z 30005KT 9999 FEW010 SCT025 12/11 Q1007 NOSIG",
      "taf": "TAF LGTS 091100Z 0912/1012 VRB03KT 9999 FEW010 BKN025"
    },
    {
      "icao": "LHBP",
      "alert": "OK",
      "vis_m": 9999,
      "fzfg": false,
      "metar_trigger": false,
      "taf_trigger": false,
      "metar": "METAR LHBP 091530Z 08006KT 9999 OVC015 05/02 Q1011 NOSIG",
      "taf": "TAF LHBP 091115Z 0912/1012 07005KT 9999 BKN016 OVC070"
    },
    {
      "icao": "LHDC",
      "alert": "OK",
      "vis_m": 9999,
      "fzfg": false,
      "metar_trigger": false,
      "taf_trigger": false,
      "metar": "METAR LHDC 091515Z AUTO 04008KT 9999 BKN014 BKN064 07/04 Q1011 NOSIG",
      "taf": "TAF LHDC 091415Z 0915/0924 08008KT 9000 BKN012 BKN040"
    },
    {
      "icao": "LIBD",
      "alert": "OK",
      "vis_m": 9999,
      "fzfg": false,
      "metar_trigger": false,
      "taf_trigger": false,
      "metar": "METAR LIBD 091520Z 30006KT 270V330 9999 BKN045 12/08 Q1004",
      "taf": "TAF LIBD 091100Z 0912/1012 VRB05KT 9999 SCT040"
    },
    {
      "icao": "LIBG",
      "alert": "OK",
      "vis_m": 9999,
      "fzfg": false,
      "metar_trigger": false,
      "taf_trigger": false,
      "metar": "METAR LIBG 091450Z VRB01KT 9999 FEW010 SCT040 13/09 Q1004",
      "taf": "TAF LIBG 091400Z 0915/0924 VRB05KT 9999 SCT040"
    },
    {
      "icao": "LIBP",
      "alert": "OK",
      "vis_m": 9999,
      "fzfg": false,
      "metar_trigger": false,
      "taf_trigger": false,
      "metar": "METAR LIBP 091520Z AUTO 36005KT 320V040 9999 FEW017/// SCT047/// BKN078/// 13/09 Q1006",
      "taf": "TAF LIBP 091100Z 0912/1012 VRB05KT 7000 BKN020"
    },
    {
      "icao": "LIBR",
      "alert": "OK",
      "vis_m": 9999,
      "fzfg": false,
      "metar_trigger": false,
      "taf_trigger": false,
      "metar": "METAR LIBR 091520Z 08006KT 9999 SCT020 12/09 Q1004",
      "taf": "TAF LIBR 091100Z 0912/1012 15012KT 9999 SCT040"
    },
    {
      "icao": "LICA",
      "alert": "OK",
      "vis_m": 9999,
      "fzfg": false,
      "metar_trigger": false,
      "taf_trigger": false,
      "metar": "METAR LICA 091520Z AUTO 22004KT 9999 BKN053/// 11/10 Q1005",
      "taf": "TAF LICA 091100Z 0912/1012 26010KT 9999 SCT010 SCT030"
    },
    {
      "icao": "LICC",
      "alert": "OK",
      "vis_m": 9999,
      "fzfg": false,
      "metar_trigger": false,
      "taf_trigger": false,
      "metar": "METAR LICC 091520Z 25013KT 9999 SCT035 16/12 Q1004",
      "taf": "TAF LICC 091100Z 0912/1012 26015KT 9999 SCT030"
    },
    {
      "icao": "LICJ",
      "alert": "OK",
      "vis_m": 9999,
      "fzfg": false,
      "metar_trigger": false,
      "taf_trigger": false,
      "metar": "METAR LICJ 091520Z AUTO 27017KT 9999 FEW018/// BKN059/// 14/10 Q1006",
      "taf": "TAF LICJ 091100Z 0912/1012 26014KT 9999 FEW020 SCT040"
    },
    {
      "icao": "LIMC",
      "alert": "OK",
      "vis_m": 9999,
      "fzfg": false,
      "metar_trigger": false,
      "taf_trigger": false,
      "metar": "METAR LIMC 091520Z 35003KT 290V050 9999 VCSH BKN030TCU 11/06 Q1006 TEMPO SHRA",
      "taf": "TAF LIMC 091100Z 0912/1018 VRB04KT 9999 SCT050"
    },
    {
      "icao": "LIME",
      "alert": "OK",
      "vis_m": 9999,
      "fzfg": false,
      "metar_trigger": false,
      "taf_trigger": false,
      "metar": "METAR LIME 091520Z 08007KT 9999 FEW015TCU SCT035 BKN055 10/05 Q1006 RERA NOSIG",
      "taf": "TAF LIME 091100Z 0912/1012 VRB04KT 9999 SCT080"
    },
    {
      "icao": "LIMF",
      "alert": "OK",
      "vis_m": 9999,
      "fzfg": false,
      "metar_trigger": false,
      "taf_trigger": false,
      "metar": "METAR LIMF 091520Z 08003KT 9999 SCT025 SCT080 12/05 Q1006",
      "taf": "TAF LIMF 091100Z 0912/1012 VRB04KT 9999 BKN040"
    },
    {
      "icao": "LIMJ",
      "alert": "OK",
      "vis_m": 9999,
      "fzfg": false,
      "metar_trigger": false,
      "taf_trigger": false,
      "metar": "METAR LIMJ 091520Z 04010KT 9999 SCT032 13/06 Q1005",
      "taf": "TAF LIMJ 091100Z 0912/1012 35010KT CAVOK"
    },
    {
      "icao": "LIPE",
      "alert": "OK",
      "vis_m": 2500,
      "fzfg": false,
      "metar_trigger": false,
      "taf_trigger": false,
      "metar": "METAR LIPE 091520Z 23004KT 2500 BR SCT005 BKN030 09/09 Q1007",
      "taf": ""
    },
    {
      "icao": "LIPH",
      "alert": "OK",
      "vis_m": 9999,
      "fzfg": false,
      "metar_trigger": false,
      "taf_trigger": false,
      "metar": "METAR LIPH 091520Z VRB02KT 9999 SCT080 12/06 Q1007",
      "taf": "TAF LIPH 091100Z 0912/1012 VRB05KT 7000 SCT060"
    },
    {
      "icao": "LIPQ",
      "alert": "OK",
      "vis_m": 9999,
      "fzfg": false,
      "metar_trigger": false,
      "taf_trigger": false,
      "metar": "METAR LIPQ 091520Z AUTO 11007KT 9999 BKN068/// 11/06 Q1007",
      "taf": "TAF LIPQ 091100Z 0912/1012 03006KT 9999 BKN050"
    },
    {
      "icao": "LIPR",
      "alert": "OK",
      "vis_m": 5000,
      "fzfg": false,
      "metar_trigger": false,
      "taf_trigger": false,
      "metar": "METAR LIPR 091520Z 32004KT 5000 -RA BR SCT008 BKN025 10/09 Q1007",
      "taf": "TAF LIPR 091100Z 0912/1012 30006KT 6000 SCT010 SCT040"
    },
    {
      "icao": "LIPX",
      "alert": "OK",
      "vis_m": 9999,
      "fzfg": false,
      "metar_trigger": false,
      "taf_trigger": false,
      "metar": "METAR LIPX 091520Z 12004KT 080V150 9999 FEW030 BKN070 12/07 Q1007",
      "taf": "TAF LIPX 091100Z 0912/1012 VRB04KT 8000 BKN090"
    },
    {
      "icao": "LIPY",
      "alert": "OK",
      "vis_m": 9999,
      "fzfg": false,
      "metar_trigger": false,
      "taf_trigger": false,
      "metar": "METAR LIPY 091520Z AUTO 32008KT 9999 FEW059/// BKN100/// 11/10 Q1006",
      "taf": "TAF LIPY 091100Z 0912/1012 30006KT 7000 SCT060"
    },
    {
      "icao": "LIPZ",
      "alert": "OK",
      "vis_m": 9999,
      "fzfg": false,
      "metar_trigger": false,
      "taf_trigger": false,
      "metar": "METAR LIPZ 091520Z VRB02KT 9999 FEW070 11/06 Q1007 NOSIG",
      "taf": "TAF LIPZ 091100Z 0912/1018 05006KT 9999 SCT060"
    },
    {
      "icao": "LIRF",
      "alert": "OK",
      "vis_m": 9999,
      "fzfg": false,
      "metar_trigger": false,
      "taf_trigger": false,
      "metar": "METAR LIRF 091520Z 26007KT CAVOK 14/08 Q1005 NOSIG",
      "taf": "TAF LIRF 091100Z 0912/1018 30007KT 9999 FEW050"
    },
    {
      "icao": "LIRN",
      "alert": "OK",
      "vis_m": 9999,
      "fzfg": false,
      "metar_trigger": false,
      "taf_trigger": false,
      "metar": "METAR LIRN 091520Z VRB02KT 9999 SCT040 13/08 Q1004 NOSIG",
      "taf": "TAF LIRN 091100Z 0912/1012 VRB05KT 9999 SCT040"
    },
    {
      "icao": "LIRP",
      "alert": "OK",
      "vis_m": 9999,
      "fzfg": false,
      "metar_trigger": false,
      "taf_trigger": false,
      "metar": "METAR LIRP 091515Z VRB01KT 9999 -RA FEW025 BKN040 13/09 Q1006 NOSIG",
      "taf": "TAF LIRP 091100Z 0912/1012 VRB03KT 9999 FEW020 SCT050"
    },
    {
      "icao": "LIRZ",
      "alert": "OK",
      "vis_m": 9999,
      "fzfg": false,
      "metar_trigger": false,
      "taf_trigger": false,
      "metar": "METAR LIRZ 091520Z AUTO 34009KT 9999 -RA FEW052/// OVC062/// 11/08 Q1005",
      "taf": "TAF LIRZ 091100Z 0912/1012 02008KT 9999 SCT050"
    },
    {
      "icao": "LJLJ",
      "alert": "OK",
      "vis_m": 9999,
      "fzfg": false,
      "metar_trigger": false,
      "taf_trigger": false,
      "metar": "METAR LJLJ 091530Z 02001KT 9999 -RA FEW007 SCT013 OVC033 06/05 Q1008 NOSIG",
      "taf": "TAF LJLJ 091100Z 0912/1012 VRB02KT 9999 FEW005 SCT013 OVC035"
    },
    {
      "icao": "LKMT",
      "alert": "OK",
      "vis_m": 4500,
      "fzfg": false,
      "metar_trigger": false,
      "taf_trigger": false,
      "metar": "METAR LKMT 091530Z 03005KT 4500 BR OVC011 M01/M02 Q1011 NOSIG",
      "taf": "TAF LKMT 091100Z 0912/1012 02008KT 4000 BR OVC010"
    },
    {
      "icao": "LKPR",
      "alert": "OK",
      "vis_m": 6000,
      "fzfg": false,
      "metar_trigger": false,
      "taf_trigger": false,
      "metar": "METAR LKPR 091530Z 06005KT 6000 BKN007 BKN010 OVC032 02/01 Q1008 NOSIG",
      "taf": "TAF LKPR 091400Z 0915/1021 07004KT 3500 BR SCT003 OVC004"
    },
    {
      "icao": "LLBG",
      "alert": "OK",
      "vis_m": 9000,
      "fzfg": false,
      "metar_trigger": false,
      "taf_trigger": false,
      "metar": "METAR LLBG 091520Z VRB02KT 9000 NSC 21/14 Q1010 NOSIG",
      "taf": "TAF LLBG 091112Z 0912/1012 22010KT CAVOK"
    },
    {
      "icao": "LMML",
      "alert": "OK",
      "vis_m": 9999,
      "fzfg": false,
      "metar_trigger": false,
      "taf_trigger": false,
      "metar": "METAR LMML 091515Z 27019KT 9999 SCT019 14/10 Q1007 NOSIG",
      "taf": "TAF LMML 091100Z 0912/1012 28017KT 9999 SCT020"
    },
    {
      "icao": "LOWW",
      "alert": "OK",
      "vis_m": 9999,
      "fzfg": false,
      "metar_trigger": false,
      "taf_trigger": false,
      "metar": "METAR LOWW 091520Z 13010KT 9999 BKN012 BKN030 06/04 Q1009 TEMPO SCT012 BKN030",
      "taf": "TAF LOWW 091415Z 0915/1021 13012KT 9999 BKN012 TX05/1013Z TN03/1006Z"
    },
    {
      "icao": "LPFR",
      "alert": "OK",
      "vis_m": 4000,
      "fzfg": false,
      "metar_trigger": false,
      "taf_trigger": false,
      "metar": "METAR LPFR 091530Z 25014KT 4000 R28/1200N BR OVC002 15/15 Q1015",
      "taf": "TAF LPFR 091100Z 0912/1012 25013KT 8000 SCT006 SCT012"
    },
    {
      "icao": "LPMA",
      "alert": "OK",
      "vis_m": 9999,
      "fzfg": false,
      "metar_trigger": false,
      "taf_trigger": false,
      "metar": "METAR LPMA 091530Z 16003KT 080V210 9999 BKN013 19/16 Q1023",
      "taf": ""
    },
    {
      "icao": "LPPR",
      "alert": "OK",
      "vis_m": 500,
      "fzfg": false,
      "metar_trigger": false,
      "taf_trigger": false,
      "metar": "METAR LPPR 091530Z 21007KT 0500 R17/0750 -DZ FG VV002 14/14 Q1009",
      "taf": "TAF LPPR 091100Z 0912/1012 22012KT 6000 -RADZ SCT004 BKN008"
    },
    {
      "icao": "LPPS",
      "alert": "OK",
      "vis_m": 9999,
      "fzfg": false,
      "metar_trigger": false,
      "taf_trigger": false,
      "metar": "METAR LPPS 091530Z 28010KT 9999 SCT005 19/17 Q1023",
      "taf": "TAF LPPS 091100Z 0912/1018 27010KT 9999 SCT008 SCT012"
    },
    {
      "icao": "LPPT",
      "alert": "OK",
      "vis_m": 2000,
      "fzfg": false,
      "metar_trigger": false,
      "taf_trigger": false,
      "metar": "METAR LPPT 091530Z 24011KT 2000 -RADZ BR SCT002 BKN004 16/16 Q1012",
      "taf": "TAF LPPT 091100Z 0912/1018 24010KT 8000 SCT006 BKN012"
    },
    {
      "icao": "LQBK",
      "alert": "OK",
      "vis_m": 9999,
      "fzfg": false,
      "metar_trigger": false,
      "taf_trigger": false,
      "metar": "METAR LQBK 091530Z 06005KT 030V090 9999 SCT020 BKN043 09/06 Q1008 NOSIG",
      "taf": "TAF LQBK 091100Z 0912/1012 34005KT 9999 SCT010 BKN025 TX10/0913Z TN05/1005Z"
    },
    {
      "icao": "LQSA",
      "alert": "OK",
      "vis_m": 9999,
      "fzfg": false,
      "metar_trigger": false,
      "taf_trigger": false,
      "metar": "METAR LQSA 091530Z 29004KT 9999 FEW030 09/06 Q1006 NOSIG",
      "taf": "TAF LQSA 091100Z 0912/1012 VRB02KT 9999 FEW015 BKN050 TX10/0913Z TN03/1005Z"
    },
    {
      "icao": "LQTZ",
      "alert": "OK",
      "vis_m": 9999,
      "fzfg": false,
      "metar_trigger": false,
      "taf_trigger": false,
      "metar": "METAR LQTZ 091530Z 06006KT 020V090 9999 BKN020 OVC040 09/07 Q1007",
      "taf": "TAF LQTZ 091100Z 0912/1012 04005KT 9999 SCT025 BKN045 TX12/0913Z TN03/1005Z"
    },
    {
      "icao": "LRBC",
      "alert": "OK",
      "vis_m": 9999,
      "fzfg": false,
      "metar_trigger": false,
      "taf_trigger": false,
      "metar": "METAR LRBC 091530Z 02005KT 9999 OVC019 M04/M08 Q1020",
      "taf": "TAF LRBC 091400Z 0915/0924 03007KT 9999 OVC015"
    },
    {
      "icao": "LRBS",
      "alert": "OK",
      "vis_m": 9000,
      "fzfg": false,
      "metar_trigger": false,
      "taf_trigger": false,
      "metar": "METAR LRBS 091530Z 06015KT 9000 BKN013 OVC040 M02/M05 Q1019 NOSIG",
      "taf": "TAF LRBS 091100Z 0912/1012 07020KT 9999 BKN015 BKN035"
    },
    {
      "icao": "LRBV",
      "alert": "OK",
      "vis_m": 9999,
      "fzfg": false,
      "metar_trigger": false,
      "taf_trigger": false,
      "metar": "METAR LRBV 091530Z 09010KT 9999 -SN FEW020 BKN029 M02/M06 Q1013",
      "taf": "TAF LRBV 091400Z 0915/0924 10012KT 9999 BKN020 OVC040"
    },
    {
      "icao": "LRCL",
      "alert": "OK",
      "vis_m": 9999,
      "fzfg": false,
      "metar_trigger": false,
      "taf_trigger": false,
      "metar": "METAR LRCL 091530Z 09005KT 9999 -DZ OVC009 02/01 Q1013",
      "taf": "TAF LRCL 091400Z 0915/0924 12008KT 9999 OVC010"
    },
    {
      "icao": "LRCV",
      "alert": "OK",
      "vis_m": 9999,
      "fzfg": false,
      "metar_trigger": false,
      "taf_trigger": false,
      "metar": "METAR LRCV 091530Z 09016KT 9999 -SN OVC014 M01/M03 Q1017",
      "taf": "TAF LRCV 091400Z 0915/0924 10018KT 9999 BKN015 OVC035"
    },
    {
      "icao": "LRIA",
      "alert": "OK",
      "vis_m": 9999,
      "fzfg": false,
      "metar_trigger": false,
      "taf_trigger": false,
      "metar": "METAR LRIA 091530Z 35003KT 280V080 9999 BKN016 M06/M10 Q1022",
      "taf": "TAF LRIA 091400Z 0915/0924 02008KT 9999 BKN015"
    },
    {
      "icao": "LROP",
      "alert": "OK",
      "vis_m": 9999,
      "fzfg": false,
      "metar_trigger": false,
      "taf_trigger": false,
      "metar": "METAR LROP 091530Z 07017KT 9999 BKN014 OVC042 M02/M06 Q1019 NOSIG",
      "taf": "TAF LROP 091100Z 0912/1012 07020KT 9999 BKN015 BKN035"
    },
    {
      "icao": "LRSB",
      "alert": "OK",
      "vis_m": 9999,
      "fzfg": false,
      "metar_trigger": false,
      "taf_trigger": false,
      "metar": "METAR LRSB 091530Z 11014KT 9999 SCT045 SCT070 03/M02 Q1010",
      "taf": "TAF LRSB 091100Z 0912/1012 10012KT 9999 SCT050"
    },
    {
      "icao": "LRSM",
      "alert": "OK",
      "vis_m": 9999,
      "fzfg": false,
      "metar_trigger": false,
      "taf_trigger": false,
      "metar": "METAR LRSM 091530Z 16005KT 9999 BKN044 06/02 Q1012",
      "taf": "TAF LRSM 091400Z 0915/0924 13008KT 9999 BKN045"
    },
    {
      "icao": "LRSV",
      "alert": "OK",
      "vis_m": 9999,
      "fzfg": false,
      "metar_trigger": false,
      "taf_trigger": false,
      "metar": "METAR LRSV 091530Z 10007KT 9999 FEW015 SCT027 M09/M10 Q1018",
      "taf": "TAF LRSV 091400Z 0915/0924 08006KT 9999 BKN025"
    },
    {
      "icao": "LRTM",
      "alert": "OK",
      "vis_m": 9999,
      "fzfg": false,
      "metar_trigger": false,
      "taf_trigger": false,
      "metar": "METAR LRTM 091530Z 08010KT 9999 BKN025 03/M02 Q1013",
      "taf": "TAF LRTM 091400Z 0915/0924 10008KT 9999 BKN025"
    },
    {
      "icao": "LRTR",
      "alert": "OK",
      "vis_m": 9999,
      "fzfg": false,
      "metar_trigger": false,
      "taf_trigger": false,
      "metar": "METAR LRTR 091530Z 24005KT 9999 SCT024 BKN045 09/04 Q1010",
      "taf": "TAF LRTR 091100Z 0912/1012 VRB04KT 9999 BKN045"
    },
    {
      "icao": "LTAC",
      "alert": "OK",
      "vis_m": 9999,
      "fzfg": false,
      "metar_trigger": false,
      "taf_trigger": false,
      "metar": "METAR LTAC 091520Z 25003KT 9999 SCT035 BKN100 08/03 Q1009 NOSIG RMK RWY21C 22004KT RWY03L 24002KT RWY21R 22005KT RWY03R 22003KT RWY21L 20004KT",
      "taf": "TAF LTAC 091040Z 0912/1012 VRB02KT 9999 SCT040 BKN100"
    },
    {
      "icao": "LTFM",
      "alert": "OK",
      "vis_m": 9999,
      "fzfg": false,
      "metar_trigger": false,
      "taf_trigger": false,
      "metar": "METAR LTFM 091520Z 07016KT 9999 -RA BKN006 BKN022 07/05 Q1013 NOSIG RMK RWY17L 07020KT RWY34L 07018KT RWY16R 07020KT RWY36 07019KT RWY18 08018KT",
      "taf": "TAF LTFM 091040Z 0912/1018 06015KT 9999 BKN008 BKN022"
    },
    {
      "icao": "LUKK",
      "alert": "OK",
      "vis_m": 9999,
      "fzfg": false,
      "metar_trigger": false,
      "taf_trigger": false,
      "metar": "METAR LUKK 091530Z 04007KT CAVOK M07/M11 Q1021 NOSIG",
      "taf": "TAF LUKK 091122Z 0912/1012 04009KT 9999 BKN018"
    },
    {
      "icao": "LWOH",
      "alert": "OK",
      "vis_m": 9999,
      "fzfg": false,
      "metar_trigger": false,
      "taf_trigger": false,
      "metar": "METAR LWOH 091520Z VRB01KT 9999 SCT040 09/04 Q1005",
      "taf": "TAF LWOH 091430Z 0915/1015 19005KT 9999 BKN045"
    },
    {
      "icao": "LWSK",
      "alert": "OK",
      "vis_m": 9999,
      "fzfg": false,
      "metar_trigger": false,
      "taf_trigger": false,
      "metar": "METAR LWSK 091520Z 14003KT 110V190 9999 FEW033 SCT075 12/07 Q1007 NOSIG",
      "taf": "TAF LWSK 091430Z 0915/1015 VRB02KT 9999 FEW035 SCT070"
    },
    {
      "icao": "LYBE",
      "alert": "OK",
      "vis_m": 9999,
      "fzfg": false,
      "metar_trigger": false,
      "taf_trigger": false,
      "metar": "METAR LYBE 091530Z 10016KT 9999 FEW040 05/M01 Q1010 NOSIG",
      "taf": "TAF LYBE 091100Z 0912/1012 11015KT 9999 SCT045 TX11/0913Z TNM01/1006Z"
    },
    {
      "icao": "LYNI",
      "alert": "OK",
      "vis_m": 9999,
      "fzfg": false,
      "metar_trigger": false,
      "taf_trigger": false,
      "metar": "METAR LYNI 091530Z 08007KT 040V100 9999 -RA FEW020 BKN060 04/00 Q1010 NOSIG",
      "taf": "TAF LYNI 091100Z 0912/1012 05012KT 9999 FEW015 BKN045 OVC080 TX08/0912Z TNM01/1005Z"
    },
    {
      "icao": "LYPG",
      "alert": "OK",
      "vis_m": 9999,
      "fzfg": false,
      "metar_trigger": false,
      "taf_trigger": false,
      "metar": "METAR LYPG 091530Z VRB01KT 9999 -RA FEW040 SCT050 OVC070 11/09 Q1006 NOSIG",
      "taf": "TAF LYPG 091100Z 0912/1012 16005KT 9999 FEW025 SCT050 BKN080 TX13/0913Z TN07/1005Z"
    },
    {
      "icao": "LZIB",
      "alert": "OK",
      "vis_m": 6000,
      "fzfg": false,
      "metar_trigger": false,
      "taf_trigger": false,
      "metar": "METAR LZIB 091530Z 08005KT 6000 BKN010 OVC016 06/05 Q1010 NOSIG",
      "taf": ""
    },
    {
      "icao": "LZKZ",
      "alert": "OK",
      "vis_m": 9999,
      "fzfg": false,
      "metar_trigger": false,
      "taf_trigger": false,
      "metar": "METAR LZKZ 091530Z 03006KT 9999 BKN035 03/M02 Q1012 NOSIG",
      "taf": "TAF LZKZ 091115Z 0912/1012 01012KT 9999 BKN035"
    },
    {
      "icao": "LZTT",
      "alert": "OK",
      "vis_m": 6000,
      "fzfg": false,
      "metar_trigger": false,
      "taf_trigger": false,
      "metar": "METAR LZTT 091530Z VRB02KT 6000 FEW003 OVC006 M01/M02 Q1010 NOSIG",
      "taf": "TAF LZTT 091115Z 0912/1012 14005KT 9999 SCT002 OVC011"
    },
    {
      "icao": "OEJN",
      "alert": "OK",
      "vis_m": 9999,
      "fzfg": false,
      "metar_trigger": false,
      "taf_trigger": false,
      "metar": "METAR OEJN 091500Z 27006KT CAVOK 30/08 Q1011 NOSIG",
      "taf": "TAF OEJN 091100Z 0912/1018 30010KT CAVOK"
    },
    {
      "icao": "OEMA",
      "alert": "OK",
      "vis_m": 9999,
      "fzfg": false,
      "metar_trigger": false,
      "taf_trigger": false,
      "metar": "METAR OEMA 091500Z VRB01KT CAVOK 29/M03 Q1015 NOSIG",
      "taf": "TAF OEMA 091100Z 0912/1018 27006KT CAVOK"
    },
    {
      "icao": "OJAI",
      "alert": "OK",
      "vis_m": 3000,
      "fzfg": false,
      "metar_trigger": false,
      "taf_trigger": false,
      "metar": "METAR OJAI 091500Z 28010KT 3000 DU NSC 18/05 Q1012 NOSIG",
      "taf": "TAF OJAI 091100Z 0912/1018 23012KT 3000 DU NSC"
    },
    {
      "icao": "OMAA",
      "alert": "OK",
      "vis_m": 9999,
      "fzfg": false,
      "metar_trigger": false,
      "taf_trigger": false,
      "metar": "METAR OMAA 091530Z 31005KT CAVOK 24/12 Q1015 NOSIG",
      "taf": "TAF OMAA 091100Z 0912/1018 33012KT 8000 NSC"
    },
    {
      "icao": "OMDB",
      "alert": "OK",
      "vis_m": 9999,
      "fzfg": false,
      "metar_trigger": false,
      "taf_trigger": false,
      "metar": "METAR OMDB 091530Z 27008KT CAVOK 24/16 Q1014 NOSIG",
      "taf": "TAF OMDB 091100Z 0912/1018 29012KT CAVOK"
    },
    {
      "icao": "UAAA",
      "alert": "OK",
      "vis_m": 1800,
      "fzfg": false,
      "metar_trigger": false,
      "taf_trigger": false,
      "metar": "METAR UAAA 091530Z 25002MPS 1800 R23L/P2000 BR FU SCT100 BKN200 01/M02 Q1005 NOSIG",
      "taf": "TAF UAAA 091102Z 0912/1012 20003MPS 3100 BR FU SCT020 BKN100 TX07/1009Z TNM05/1002Z"
    },
    {
      "icao": "UBBB",
      "alert": "OK",
      "vis_m": 9999,
      "fzfg": false,
      "metar_trigger": false,
      "taf_trigger": false,
      "metar": "METAR UBBB 091530Z 02004KT 340V060 9999 BKN028 06/04 Q1008 NOSIG",
      "taf": "TAF UBBB 091056Z 0912/1012 32005KT 9999 BKN012 BKN023 TX09/0912Z TN02/1004Z"
    },
    {
      "icao": "UDSG",
      "alert": "OK",
      "vis_m": 9999,
      "fzfg": false,
      "metar_trigger": false,
      "taf_trigger": false,
      "metar": "METAR UDSG 091530Z 20008KT 9999 -SN OVC033 00/00 Q1008 NOSIG",
      "taf": "TAF UDSG 091100Z 0912/1012 VRB06KT 5000 BR BKN020"
    },
    {
      "icao": "UDYZ",
      "alert": "OK",
      "vis_m": 6000,
      "fzfg": false,
      "metar_trigger": false,
      "taf_trigger": false,
      "metar": "METAR UDYZ 091530Z 07001KT 6000 FEW043 04/03 Q1008 NOSIG",
      "taf": "TAF UDYZ 091100Z 0912/1012 22006KT 6000 BKN020"
    },
    {
      "icao": "UGKO",
      "alert": "OK",
      "vis_m": 9000,
      "fzfg": false,
      "metar_trigger": false,
      "taf_trigger": false,
      "metar": "METAR UGKO 091530Z 26008KT 9000 -RA SCT015 OVC048 07/07 Q1009 NOSIG",
      "taf": "TAF UGKO 091100Z 0912/1012 26010KT 9999 SCT022 OVC040 TX09/0912Z TN03/1005Z"
    }
  ]
}