{
  "ts_utc": "2026-03-09T04:24:47Z",
  "threshold_m": 150,
  "source": "stations_override.txt (ICAO list) + aviationweather.gov (METAR/TAF raw)",
  "station_count": 159,
  "stations": [
    {
      "icao": "BIKF",
      "alert": "OK",
      "vis_m": 9999,
      "fzfg": false,
      "metar_trigger": false,
      "taf_trigger": false,
      "metar": "METAR BIKF 090400Z 15012KT 9999 FEW019TCU SCT037 00/M02 Q0993",
      "taf": "TAF BIKF 090155Z 0903/1003 18010KT 9999 SCT015 BKN035 TX05/0916Z TN00/0903Z"
    },
    {
      "icao": "BKPR",
      "alert": "OK",
      "vis_m": null,
      "fzfg": false,
      "metar_trigger": false,
      "taf_trigger": false,
      "metar": "",
      "taf": "TAF BKPR 082330Z 0900/0924 01008KT 9999 SCT050"
    },
    {
      "icao": "EBCI",
      "alert": "OK",
      "vis_m": 6000,
      "fzfg": false,
      "metar_trigger": false,
      "taf_trigger": false,
      "metar": "METAR EBCI 090350Z 15003KT 6000 NSC 07/06 Q1021 NOSIG",
      "taf": "TAF EBCI 082302Z 0900/1006 20004KT CAVOK"
    },
    {
      "icao": "EDDB",
      "alert": "OK",
      "vis_m": 9999,
      "fzfg": false,
      "metar_trigger": false,
      "taf_trigger": false,
      "metar": "METAR EDDB 090420Z AUTO 11004KT CAVOK 01/M02 Q1024 NOSIG",
      "taf": "TAF EDDB 082300Z 0900/0924 10006KT CAVOK"
    },
    {
      "icao": "EDDH",
      "alert": "OK",
      "vis_m": 9999,
      "fzfg": false,
      "metar_trigger": false,
      "taf_trigger": false,
      "metar": "METAR EDDH 090420Z AUTO 10004KT CAVOK 05/01 Q1022 NOSIG",
      "taf": ""
    },
    {
      "icao": "EDDK",
      "alert": "OK",
      "vis_m": 9999,
      "fzfg": false,
      "metar_trigger": false,
      "taf_trigger": false,
      "metar": "METAR EDDK 090420Z AUTO 00000KT CAVOK 03/01 Q1021 NOSIG",
      "taf": "TAF EDDK 082300Z 0900/1006 VRB03KT CAVOK"
    },
    {
      "icao": "EDDN",
      "alert": "OK",
      "vis_m": 9000,
      "fzfg": false,
      "metar_trigger": false,
      "taf_trigger": false,
      "metar": "METAR EDDN 090420Z AUTO 12003KT 9000 NSC 02/00 Q1022 NOSIG",
      "taf": "TAF EDDN 082300Z 0900/0924 VRB03KT CAVOK"
    },
    {
      "icao": "EDDS",
      "alert": "OK",
      "vis_m": 9999,
      "fzfg": false,
      "metar_trigger": false,
      "taf_trigger": false,
      "metar": "METAR EDDS 090420Z AUTO VRB02KT CAVOK 02/00 Q1021",
      "taf": "TAF EDDS 082300Z 0900/0924 VRB02KT CAVOK"
    },
    {
      "icao": "EDFH",
      "alert": "OK",
      "vis_m": 9999,
      "fzfg": false,
      "metar_trigger": false,
      "taf_trigger": false,
      "metar": "METAR EDFH 090350Z 25004KT CAVOK 09/04 Q1021",
      "taf": ""
    },
    {
      "icao": "EDJA",
      "alert": "OK",
      "vis_m": 9999,
      "fzfg": false,
      "metar_trigger": false,
      "taf_trigger": false,
      "metar": "METAR EDJA 090350Z AUTO 18004KT 9999 // FEW240/// 02/01 Q1022",
      "taf": "TAF EDJA 090200Z 0903/0912 VRB03KT CAVOK"
    },
    {
      "icao": "EDLW",
      "alert": "OK",
      "vis_m": 9999,
      "fzfg": false,
      "metar_trigger": false,
      "taf_trigger": false,
      "metar": "METAR EDLW 090350Z AUTO 14009KT 9999 // NCD 08/03 Q1020",
      "taf": "TAF EDLW 081700Z 0818/0918 05004KT CAVOK"
    },
    {
      "icao": "EDNY",
      "alert": "OK",
      "vis_m": 5000,
      "fzfg": false,
      "metar_trigger": false,
      "taf_trigger": false,
      "metar": "METAR EDNY 090350Z AUTO 06002KT 5000 1900 // BKN089/// 02/02 Q1023",
      "taf": "TAF EDNY 090200Z 0903/0912 VRB02KT 8000 NSC"
    },
    {
      "icao": "EDSB",
      "alert": "OK",
      "vis_m": 7000,
      "fzfg": false,
      "metar_trigger": false,
      "taf_trigger": false,
      "metar": "METAR EDSB 090350Z 16002KT 7000 BCFG FEW045 04/03 Q1022",
      "taf": ""
    },
    {
      "icao": "EETN",
      "alert": "OK",
      "vis_m": 9999,
      "fzfg": false,
      "metar_trigger": false,
      "taf_trigger": false,
      "metar": "METAR EETN 090420Z 22005KT CAVOK 01/M02 Q1023 NOSIG",
      "taf": "TAF EETN 082330Z 0900/0924 22004KT CAVOK"
    },
    {
      "icao": "EFTU",
      "alert": "OK",
      "vis_m": 9999,
      "fzfg": false,
      "metar_trigger": false,
      "taf_trigger": false,
      "metar": "METAR EFTU 090420Z AUTO 20003KT 9999 FEW047 01/M01 Q1020",
      "taf": "TAF EFTU 090230Z 0903/1003 22006KT CAVOK"
    },
    {
      "icao": "EGBB",
      "alert": "OK",
      "vis_m": 400,
      "fzfg": false,
      "metar_trigger": false,
      "taf_trigger": false,
      "metar": "METAR EGBB 090350Z 17005KT 0400 R15/0600D FG OVC002 07/07 Q1019",
      "taf": ""
    },
    {
      "icao": "EGGP",
      "alert": "OK",
      "vis_m": 9999,
      "fzfg": false,
      "metar_trigger": false,
      "taf_trigger": false,
      "metar": "METAR EGGP 090350Z AUTO 15008KT 9999 OVC009/// 08/07 Q1018",
      "taf": ""
    },
    {
      "icao": "EGGW",
      "alert": "OK",
      "vis_m": 1800,
      "fzfg": false,
      "metar_trigger": false,
      "taf_trigger": false,
      "metar": "METAR EGGW 090420Z AUTO 17004KT 130V210 1800 BR OVC004 06/06 Q1019",
      "taf": ""
    },
    {
      "icao": "EGKK",
      "alert": "OK",
      "vis_m": 200,
      "fzfg": false,
      "metar_trigger": false,
      "taf_trigger": false,
      "metar": "METAR EGKK 090350Z VRB02KT 0200 R08R/0550N FG OVC001 07/07 Q1020",
      "taf": "TAF EGKK 082258Z 0900/1006 13005KT 5000 BR BKN005"
    },
    {
      "icao": "EGNM",
      "alert": "OK",
      "vis_m": null,
      "fzfg": false,
      "metar_trigger": false,
      "taf_trigger": false,
      "metar": "",
      "taf": "TAF EGNM 082301Z 0900/0924 15007KT 6000 SCT003 BKN006"
    },
    {
      "icao": "EGPD",
      "alert": "OK",
      "vis_m": 9999,
      "fzfg": false,
      "metar_trigger": false,
      "taf_trigger": false,
      "metar": "METAR EGPD 090350Z COR AUTO 20004KT 9999 SCT022 05/03 Q1016 NOSIG",
      "taf": "TAF EGPD 082256Z 0900/0924 18008KT 9999 FEW030"
    },
    {
      "icao": "EGPF",
      "alert": "OK",
      "vis_m": 6000,
      "fzfg": false,
      "metar_trigger": false,
      "taf_trigger": false,
      "metar": "METAR EGPF 090350Z AUTO 05003KT 6000 -RA SCT017 BKN047 05/04 Q1016",
      "taf": "TAF EGPF 082256Z 0900/0924 VRB03KT 9999 SCT025"
    },
    {
      "icao": "EHBK",
      "alert": "OK",
      "vis_m": 9999,
      "fzfg": false,
      "metar_trigger": false,
      "taf_trigger": false,
      "metar": "METAR EHBK 090355Z AUTO 20007KT 9999 NSC 07/04 Q1020",
      "taf": "TAF EHBK 082315Z 0900/1006 VRB02KT CAVOK"
    },
    {
      "icao": "EHEH",
      "alert": "OK",
      "vis_m": 2600,
      "fzfg": false,
      "metar_trigger": false,
      "taf_trigger": false,
      "metar": "METAR EHEH 090355Z AUTO 21002KT 2600 BR SCT000 01/01 Q1020 YLO",
      "taf": "TAF EHEH 082336Z 0900/1006 VRB02KT 3000 BR MIFG NSC"
    },
    {
      "icao": "EKBI",
      "alert": "OK",
      "vis_m": 4400,
      "fzfg": false,
      "metar_trigger": false,
      "taf_trigger": false,
      "metar": "METAR EKBI 090420Z AUTO 10004KT 4400 BR NCD 04/03 Q1022",
      "taf": "TAF EKBI 090227Z 0903/1003 13003KT 3000 BR NSC"
    },
    {
      "icao": "EKCH",
      "alert": "OK",
      "vis_m": 9999,
      "fzfg": false,
      "metar_trigger": false,
      "taf_trigger": false,
      "metar": "METAR EKCH 090420Z AUTO 14004KT 9999 SCT120/// BKN150/// 04/00 Q1025 NOSIG",
      "taf": "TAF EKCH 090227Z 0903/1003 15006KT 7000 NSC"
    },
    {
      "icao": "ENAL",
      "alert": "OK",
      "vis_m": null,
      "fzfg": false,
      "metar_trigger": false,
      "taf_trigger": false,
      "metar": "",
      "taf": "TAF ENAL 082300Z 0900/0909 17008KT 9999 SCT012 BKN025"
    },
    {
      "icao": "ENBR",
      "alert": "OK",
      "vis_m": 9999,
      "fzfg": false,
      "metar_trigger": false,
      "taf_trigger": false,
      "metar": "METAR ENBR 090350Z 16016KT 9999 BKN008 OVC030 04/03 Q1021 RMK WIND 1200FT 17021KT",
      "taf": "TAF ENBR 082300Z 0900/0924 17008KT 9999 BKN012"
    },
    {
      "icao": "ENGM",
      "alert": "OK",
      "vis_m": 800,
      "fzfg": false,
      "metar_trigger": false,
      "taf_trigger": false,
      "metar": "METAR ENGM 090350Z 19009KT 0800 0700SW R19R/1000N R01R/0800U R19L/1200D R01L/0800N FG VV002 01/00 Q1020",
      "taf": "TAF ENGM 082300Z 0900/0924 18005KT 4000 BR BKN006"
    },
    {
      "icao": "ENHD",
      "alert": "OK",
      "vis_m": 9999,
      "fzfg": false,
      "metar_trigger": false,
      "taf_trigger": false,
      "metar": "METAR ENHD 090350Z AUTO 15009KT 9999 SCT019/// OVC029/// 04/02 Q1022",
      "taf": ""
    },
    {
      "icao": "ENTC",
      "alert": "OK",
      "vis_m": 9999,
      "fzfg": false,
      "metar_trigger": false,
      "taf_trigger": false,
      "metar": "METAR ENTC 090320Z AUTO VRB02KT 9999 FEW008/// SCT021/// BKN038/// 01/M00 Q1013 RMK WIND 2600FT 23007KT",
      "taf": "TAF ENTC 082300Z 0900/0924 20005KT 9999 FEW015 BKN020"
    },
    {
      "icao": "ENTO",
      "alert": "OK",
      "vis_m": 150,
      "fzfg": true,
      "metar_trigger": false,
      "taf_trigger": false,
      "metar": "METAR ENTO 090350Z AUTO 21003KT 170V260 0150 R18/0550N R36/1900N FZFG VV001 M00/M00 Q1021",
      "taf": "TAF ENTO 082300Z 0900/0924 20005KT 0150 FG VV001"
    },
    {
      "icao": "ENVA",
      "alert": "OK",
      "vis_m": 9999,
      "fzfg": false,
      "metar_trigger": false,
      "taf_trigger": false,
      "metar": "METAR ENVA 090350Z 11008KT 9999 BKN052 00/M03 Q1018 RMK WIND 670FT 14007KT",
      "taf": "TAF ENVA 082300Z 0900/0924 12008KT CAVOK"
    },
    {
      "icao": "ENZV",
      "alert": "OK",
      "vis_m": 9999,
      "fzfg": false,
      "metar_trigger": false,
      "taf_trigger": false,
      "metar": "METAR ENZV 090350Z AUTO 17003KT 9999 NCD 01/00 Q1022",
      "taf": ""
    },
    {
      "icao": "EPGD",
      "alert": "OK",
      "vis_m": 9999,
      "fzfg": false,
      "metar_trigger": false,
      "taf_trigger": false,
      "metar": "METAR EPGD 090400Z 23005KT CAVOK 05/M02 Q1028",
      "taf": "TAF EPGD 082330Z 0900/0924 18007KT CAVOK"
    },
    {
      "icao": "EPKK",
      "alert": "OK",
      "vis_m": 9999,
      "fzfg": false,
      "metar_trigger": false,
      "taf_trigger": false,
      "metar": "METAR EPKK 090400Z 03002KT CAVOK M01/M04 Q1029",
      "taf": "TAF EPKK 090230Z 0903/1003 04005KT CAVOK"
    },
    {
      "icao": "EPKT",
      "alert": "OK",
      "vis_m": 9999,
      "fzfg": false,
      "metar_trigger": false,
      "taf_trigger": false,
      "metar": "METAR EPKT 090400Z 03002KT CAVOK M02/M04 Q1028",
      "taf": "TAF EPKT 082330Z 0900/0924 08006KT CAVOK"
    },
    {
      "icao": "EPLB",
      "alert": "OK",
      "vis_m": 5000,
      "fzfg": false,
      "metar_trigger": false,
      "taf_trigger": false,
      "metar": "METAR EPLB 090400Z 06004KT 5000 BR NSC M01/M02 Q1031",
      "taf": "TAF EPLB 082330Z 0900/0924 08002KT 7000 NSC"
    },
    {
      "icao": "EPMO",
      "alert": "OK",
      "vis_m": 8000,
      "fzfg": false,
      "metar_trigger": false,
      "taf_trigger": false,
      "metar": "METAR EPMO 090400Z 09006KT 8000 NSC M01/M02 Q1030",
      "taf": "TAF EPMO 082330Z 0900/0924 10004KT CAVOK"
    },
    {
      "icao": "EPPO",
      "alert": "OK",
      "vis_m": 9999,
      "fzfg": false,
      "metar_trigger": false,
      "taf_trigger": false,
      "metar": "METAR EPPO 090400Z 11006KT CAVOK 02/M03 Q1027",
      "taf": "TAF EPPO 082330Z 0900/0924 11006KT CAVOK"
    },
    {
      "icao": "EPRA",
      "alert": "OK",
      "vis_m": 9999,
      "fzfg": false,
      "metar_trigger": false,
      "taf_trigger": false,
      "metar": "METAR EPRA 090400Z 12007KT CAVOK 03/M01 Q1030",
      "taf": "TAF EPRA 090230Z 0903/0912 14006KT CAVOK"
    },
    {
      "icao": "EPRZ",
      "alert": "OK",
      "vis_m": 9999,
      "fzfg": false,
      "metar_trigger": false,
      "taf_trigger": false,
      "metar": "METAR EPRZ 090400Z 10004KT CAVOK M00/M01 Q1030",
      "taf": "TAF EPRZ 082330Z 0900/0924 07007KT CAVOK"
    },
    {
      "icao": "EPSC",
      "alert": "OK",
      "vis_m": 9999,
      "fzfg": false,
      "metar_trigger": false,
      "taf_trigger": false,
      "metar": "METAR EPSC 090400Z 12008KT CAVOK 04/M02 Q1026",
      "taf": "TAF EPSC 082330Z 0900/0924 15008KT CAVOK"
    },
    {
      "icao": "EPSY",
      "alert": "OK",
      "vis_m": 9999,
      "fzfg": false,
      "metar_trigger": false,
      "taf_trigger": false,
      "metar": "METAR EPSY 090400Z 01001KT CAVOK M04/M05 Q1030",
      "taf": "TAF EPSY 090230Z 0903/0912 VRB02KT CAVOK"
    },
    {
      "icao": "EPWA",
      "alert": "OK",
      "vis_m": 9999,
      "fzfg": false,
      "metar_trigger": false,
      "taf_trigger": false,
      "metar": "METAR EPWA 090400Z 11004KT CAVOK 02/M01 Q1030 NOSIG",
      "taf": "TAF EPWA 090230Z 0903/1003 11004KT CAVOK"
    },
    {
      "icao": "EPWR",
      "alert": "OK",
      "vis_m": 9999,
      "fzfg": false,
      "metar_trigger": false,
      "taf_trigger": false,
      "metar": "METAR EPWR 090400Z 11007KT CAVOK 01/M02 Q1027",
      "taf": "TAF EPWR 090230Z 0903/1003 10006KT CAVOK"
    },
    {
      "icao": "ESGG",
      "alert": "OK",
      "vis_m": 5000,
      "fzfg": false,
      "metar_trigger": false,
      "taf_trigger": false,
      "metar": "METAR ESGG 090350Z 19003KT 5000 BCFG NSC 00/M00 Q1023",
      "taf": "TAF ESGG 090230Z 0903/1003 21007KT 9999 SCT006"
    },
    {
      "icao": "ESKN",
      "alert": "OK",
      "vis_m": 9999,
      "fzfg": false,
      "metar_trigger": false,
      "taf_trigger": false,
      "metar": "METAR ESKN 090350Z 21003KT 170V230 CAVOK 04/02 Q1022",
      "taf": "TAF ESKN 090230Z 0903/1003 VRB03KT CAVOK"
    },
    {
      "icao": "ESMS",
      "alert": "OK",
      "vis_m": 9000,
      "fzfg": false,
      "metar_trigger": false,
      "taf_trigger": false,
      "metar": "METAR ESMS 090350Z 10004KT 9000 NSC 02/M01 Q1025",
      "taf": "TAF ESMS 090227Z 0903/1003 13008KT 7000 NSC"
    },
    {
      "icao": "ESSA",
      "alert": "OK",
      "vis_m": 5000,
      "fzfg": false,
      "metar_trigger": false,
      "taf_trigger": false,
      "metar": "METAR ESSA 090350Z 23006KT 5000 -RA SCT043 BKN057 04/03 Q1021 NOSIG",
      "taf": "TAF ESSA 090230Z 0903/1003 21005KT CAVOK"
    },
    {
      "icao": "EYKA",
      "alert": "OK",
      "vis_m": 9999,
      "fzfg": false,
      "metar_trigger": false,
      "taf_trigger": false,
      "metar": "METAR EYKA 090420Z VRB02KT CAVOK M02/M04 Q1030",
      "taf": "TAF EYKA 082300Z 0900/0924 VRB02KT 9000 NSC"
    },
    {
      "icao": "EYPA",
      "alert": "OK",
      "vis_m": 9999,
      "fzfg": false,
      "metar_trigger": false,
      "taf_trigger": false,
      "metar": "METAR EYPA 090420Z 20008KT CAVOK 04/M02 Q1029",
      "taf": "TAF EYPA 082300Z 0900/0924 VRB04KT 9000 NSC"
    },
    {
      "icao": "EYVI",
      "alert": "OK",
      "vis_m": 9999,
      "fzfg": false,
      "metar_trigger": false,
      "taf_trigger": false,
      "metar": "METAR EYVI 090420Z 17003KT CAVOK M01/M05 Q1031 NOSIG",
      "taf": "TAF EYVI 082300Z 0900/0924 VRB03KT 9000 NSC"
    },
    {
      "icao": "GCFV",
      "alert": "OK",
      "vis_m": 9999,
      "fzfg": false,
      "metar_trigger": false,
      "taf_trigger": false,
      "metar": "METAR GCFV 090400Z AUTO 36016KT 9999 FEW026 BKN046 16/09 Q1021",
      "taf": "TAF GCFV 090200Z 0903/1003 03017KT 9999 SCT025 BKN045 TX20/0914Z TN15/0906Z"
    },
    {
      "icao": "GCLP",
      "alert": "OK",
      "vis_m": 9999,
      "fzfg": false,
      "metar_trigger": false,
      "taf_trigger": false,
      "metar": "METAR GCLP 090400Z 35013KT 9999 FEW030 BKN040 16/10 Q1022 NOSIG",
      "taf": "TAF GCLP 090200Z 0903/1003 01022KT 9999 SCT025 BKN045 TX20/0914Z TN15/0906Z"
    },
    {
      "icao": "GCTS",
      "alert": "OK",
      "vis_m": 9999,
      "fzfg": false,
      "metar_trigger": false,
      "taf_trigger": false,
      "metar": "METAR GCTS 090400Z 03008KT 9999 FEW045 16/06 Q1022 NOSIG",
      "taf": "TAF GCTS 090200Z 0903/1003 04015KT 9999 SCT045 TX21/0914Z TN14/0906Z"
    },
    {
      "icao": "GMAD",
      "alert": "OK",
      "vis_m": 8000,
      "fzfg": false,
      "metar_trigger": false,
      "taf_trigger": false,
      "metar": "METAR GMAD 090400Z 10005KT 8000 NSC 08/06 Q1017 NOSIG",
      "taf": "TAF GMAD 082300Z 0900/1006 12004KT 6000 SCT008 SCT016"
    },
    {
      "icao": "GMMN",
      "alert": "OK",
      "vis_m": 9999,
      "fzfg": false,
      "metar_trigger": false,
      "taf_trigger": false,
      "metar": "METAR GMMN 090400Z 14005KT 9999 SCT016 06/05 Q1022 BECMG 3000 BR BKN010",
      "taf": "TAF GMMN 082300Z 0900/1006 14004KT 8000 BKN016"
    },
    {
      "icao": "GMMX",
      "alert": "OK",
      "vis_m": 6000,
      "fzfg": false,
      "metar_trigger": false,
      "taf_trigger": false,
      "metar": "METAR GMMX 090400Z 08007KT 6000 BKN006 10/09 Q1020 TEMPO 3000 BR",
      "taf": "TAF GMMX 082300Z 0900/1006 06006KT 8000 BKN023"
    },
    {
      "icao": "HEGN",
      "alert": "OK",
      "vis_m": 9999,
      "fzfg": false,
      "metar_trigger": false,
      "taf_trigger": false,
      "metar": "METAR HEGN 090300Z 29011KT CAVOK 14/02 Q1017 NOSIG",
      "taf": "TAF HEGN 082300Z 0900/1006 29008G20KT CAVOK"
    },
    {
      "icao": "HEMA",
      "alert": "OK",
      "vis_m": 9999,
      "fzfg": false,
      "metar_trigger": false,
      "taf_trigger": false,
      "metar": "METAR HEMA 090300Z 32012KT CAVOK 17/03 Q1015 NOSIG",
      "taf": "TAF HEMA 082300Z 0900/1006 31008G20KT CAVOK"
    },
    {
      "icao": "HESH",
      "alert": "OK",
      "vis_m": 9999,
      "fzfg": false,
      "metar_trigger": false,
      "taf_trigger": false,
      "metar": "METAR HESH 090300Z 34010KT CAVOK 16/03 Q1016 NOSIG",
      "taf": "TAF HESH 082300Z 0900/1006 32013KT CAVOK"
    },
    {
      "icao": "HESX",
      "alert": "OK",
      "vis_m": 6000,
      "fzfg": false,
      "metar_trigger": false,
      "taf_trigger": false,
      "metar": "METAR HESX 090300Z 01004KT 6000 08/06 Q1019 NOSIG",
      "taf": "TAF HESX 082300Z 0900/1006 04007KT CAVOK"
    },
    {
      "icao": "LATI",
      "alert": "OK",
      "vis_m": 6000,
      "fzfg": false,
      "metar_trigger": false,
      "taf_trigger": false,
      "metar": "METAR LATI 090420Z VRB02KT 6000 SCT064 OVC088 11/08 Q1025 NOSIG",
      "taf": "TAF LATI 082300Z 0900/0924 VRB05KT 9999 SCT040 BKN080 TX17/0912Z TN10/0905Z"
    },
    {
      "icao": "LBPD",
      "alert": "OK",
      "vis_m": 9999,
      "fzfg": false,
      "metar_trigger": false,
      "taf_trigger": false,
      "metar": "METAR LBPD 090400Z AUTO VRB02KT 9999 OVC190/// 00/M00 Q1033 NOSIG",
      "taf": "TAF LBPD 082300Z 0900/0924 VRB04KT CAVOK"
    },
    {
      "icao": "LBSF",
      "alert": "OK",
      "vis_m": 9999,
      "fzfg": false,
      "metar_trigger": false,
      "taf_trigger": false,
      "metar": "METAR LBSF 090400Z AUTO 12010KT 9999 NCD 00/M02 Q1030 NOSIG",
      "taf": "TAF LBSF 082300Z 0900/0924 10012KT CAVOK"
    },
    {
      "icao": "LBWN",
      "alert": "OK",
      "vis_m": 9999,
      "fzfg": false,
      "metar_trigger": false,
      "taf_trigger": false,
      "metar": "METAR LBWN 090400Z AUTO VRB02KT 9999 BKN026/// 02/02 Q1033 NOSIG",
      "taf": "TAF LBWN 082300Z 0900/0924 02008KT CAVOK"
    },
    {
      "icao": "LCLK",
      "alert": "OK",
      "vis_m": 9999,
      "fzfg": false,
      "metar_trigger": false,
      "taf_trigger": false,
      "metar": "METAR LCLK 090400Z 32006KT 9999 FEW040 07/03 Q1020 NOSIG",
      "taf": "TAF LCLK 082330Z 0900/1000 32006KT 9999 FEW020"
    },
    {
      "icao": "LCPH",
      "alert": "OK",
      "vis_m": 9999,
      "fzfg": false,
      "metar_trigger": false,
      "taf_trigger": false,
      "metar": "METAR LCPH 090400Z 06008KT 010V080 9999 FEW040 07/00 Q1020 NOSIG",
      "taf": "TAF LCPH 082330Z 0900/1000 02007KT 9999 FEW020"
    },
    {
      "icao": "LEAL",
      "alert": "OK",
      "vis_m": 9999,
      "fzfg": false,
      "metar_trigger": false,
      "taf_trigger": false,
      "metar": "METAR LEAL 090400Z 27005KT CAVOK 10/10 Q1021 NOSIG",
      "taf": "TAF LEAL 082300Z 0900/0924 VRB04KT 9999 SCT025 TX17/0913Z TN07/0906Z"
    },
    {
      "icao": "LEBB",
      "alert": "OK",
      "vis_m": 9999,
      "fzfg": false,
      "metar_trigger": false,
      "taf_trigger": false,
      "metar": "METAR LEBB 090400Z VRB01KT CAVOK 08/07 Q1019 NOSIG",
      "taf": "TAF LEBB 082300Z 0900/0924 12006KT CAVOK TX16/0912Z TN06/0907Z"
    },
    {
      "icao": "LEBL",
      "alert": "OK",
      "vis_m": 9999,
      "fzfg": false,
      "metar_trigger": false,
      "taf_trigger": false,
      "metar": "METAR LEBL 090400Z 33008KT 9999 FEW032 09/09 Q1020 NOSIG",
      "taf": "TAF LEBL 082300Z 0900/0924 33006KT 9999 FEW015 TX15/0912Z TN09/0906Z"
    },
    {
      "icao": "LECH",
      "alert": "OK",
      "vis_m": 9000,
      "fzfg": false,
      "metar_trigger": false,
      "taf_trigger": false,
      "metar": "METAR LECH 090400Z AUTO VRB01KT 9000 BKN045 BKN050 08/08 Q1021",
      "taf": ""
    },
    {
      "icao": "LEMD",
      "alert": "OK",
      "vis_m": 9999,
      "fzfg": false,
      "metar_trigger": false,
      "taf_trigger": false,
      "metar": "METAR LEMD 090400Z VRB02KT 9999 SCT015 04/04 Q1020 NOSIG",
      "taf": "TAF LEMD 082300Z 0900/1006 VRB03KT 9999 SCT040 TX13/0915Z TN02/0904Z"
    },
    {
      "icao": "LEMG",
      "alert": "OK",
      "vis_m": 9999,
      "fzfg": false,
      "metar_trigger": false,
      "taf_trigger": false,
      "metar": "METAR LEMG 090400Z 30004KT 9999 FEW008 08/08 Q1022 NOSIG",
      "taf": "TAF LEMG 082300Z 0900/0924 29006KT 9999 FEW030 TX18/0914Z TN08/0907Z"
    },
    {
      "icao": "LEVC",
      "alert": "OK",
      "vis_m": 9999,
      "fzfg": false,
      "metar_trigger": false,
      "taf_trigger": false,
      "metar": "METAR LEVC 090400Z 27004KT 9999 BKN028 11/10 Q1021 NOSIG",
      "taf": "TAF LEVC 082300Z 0900/0924 VRB05KT 9999 SCT025 TX18/0913Z TN06/0906Z"
    },
    {
      "icao": "LEXJ",
      "alert": "OK",
      "vis_m": 9999,
      "fzfg": false,
      "metar_trigger": false,
      "taf_trigger": false,
      "metar": "METAR LEXJ 090400Z AUTO 10001KT 9999 3900E SCT007 06/04 Q1019",
      "taf": "TAF LEXJ 090200Z 0903/1003 22005KT 9999 FEW005 SCT016 TX13/0913Z TN05/0903Z"
    },
    {
      "icao": "LEZG",
      "alert": "OK",
      "vis_m": 9999,
      "fzfg": false,
      "metar_trigger": false,
      "taf_trigger": false,
      "metar": "METAR LEZG 090400Z VRB01KT 9999 FEW035 SCT080 08/08 Q1020 NOSIG",
      "taf": "TAF LEZG 082300Z 0900/0924 VRB04KT 9999 FEW025 SCT040 TX15/0914Z TN06/0906Z"
    },
    {
      "icao": "LEZL",
      "alert": "OK",
      "vis_m": 9000,
      "fzfg": false,
      "metar_trigger": false,
      "taf_trigger": false,
      "metar": "METAR LEZL 090400Z AUTO 00000KT 9000 OVC006 13/12 Q1022",
      "taf": "TAF LEZL 090200Z 0903/1003 VRB03KT 9999 BKN020 TX20/0915Z TN12/0907Z"
    },
    {
      "icao": "LFBD",
      "alert": "OK",
      "vis_m": 9999,
      "fzfg": false,
      "metar_trigger": false,
      "taf_trigger": false,
      "metar": "METAR LFBD 090400Z AUTO 14003KT 9999 SCT049 OVC056 10/09 Q1020 TEMPO 0400 FG VV///",
      "taf": "TAF LFBD 082300Z 0900/1006 VRB03KT 9999 BKN040 TX16/0914Z TN06/0905Z"
    },
    {
      "icao": "LFLL",
      "alert": "OK",
      "vis_m": 9999,
      "fzfg": false,
      "metar_trigger": false,
      "taf_trigger": false,
      "metar": "METAR LFLL 090400Z 14008KT CAVOK 09/06 Q1022 NOSIG",
      "taf": "TAF LFLL 082300Z 0900/1006 16007KT CAVOK"
    },
    {
      "icao": "LFLS",
      "alert": "OK",
      "vis_m": 9999,
      "fzfg": false,
      "metar_trigger": false,
      "taf_trigger": false,
      "metar": "METAR LFLS 090400Z AUTO 08006KT CAVOK 05/05 Q1022 NOSIG",
      "taf": "TAF LFLS 090200Z 0903/1003 09005KT CAVOK"
    },
    {
      "icao": "LFMN",
      "alert": "OK",
      "vis_m": 9999,
      "fzfg": false,
      "metar_trigger": false,
      "taf_trigger": false,
      "metar": "METAR LFMN 090400Z 34008KT 9999 SCT110 10/05 Q1023 NOSIG",
      "taf": "TAF LFMN 090200Z 0903/1009 34008KT CAVOK"
    },
    {
      "icao": "LFOB",
      "alert": "OK",
      "vis_m": 400,
      "fzfg": false,
      "metar_trigger": false,
      "taf_trigger": false,
      "metar": "METAR LFOB 090400Z AUTO 01001KT 0400 0350 R30/0550N R12/0400N FG VV/// 04/04 Q1020 TEMPO 0300 FG",
      "taf": ""
    },
    {
      "icao": "LFPO",
      "alert": "OK",
      "vis_m": 9000,
      "fzfg": false,
      "metar_trigger": false,
      "taf_trigger": false,
      "metar": "METAR LFPO 090400Z AUTO 00000KT 9000 0400 R02/P2000 R25/P2000 R07/P2000 R24/P2000 R06/0550N BCFG NSC 08/07 Q1020 TEMPO 0700 FG VV///",
      "taf": "TAF LFPO 082300Z 0900/1006 VRB03KT CAVOK"
    },
    {
      "icao": "LFSB",
      "alert": "OK",
      "vis_m": 9999,
      "fzfg": false,
      "metar_trigger": false,
      "taf_trigger": false,
      "metar": "METAR LFSB 090400Z AUTO 19003KT CAVOK 06/05 Q1022 TEMPO 4000 BR",
      "taf": "TAF LFSB 082300Z 0900/0924 VRB03KT CAVOK"
    },
    {
      "icao": "LGAV",
      "alert": "OK",
      "vis_m": 9999,
      "fzfg": false,
      "metar_trigger": false,
      "taf_trigger": false,
      "metar": "METAR LGAV 090350Z 36014KT 9999 FEW030 09/02 Q1026 NOSIG",
      "taf": "TAF LGAV 082300Z 0900/0924 02013KT 9999 SCT025"
    },
    {
      "icao": "LGTS",
      "alert": "OK",
      "vis_m": 9999,
      "fzfg": false,
      "metar_trigger": false,
      "taf_trigger": false,
      "metar": "METAR LGTS 090350Z 10006KT 9999 SCT020 06/05 Q1029 NOSIG",
      "taf": "TAF LGTS 082300Z 0900/0924 14005KT 9999 FEW012 BKN030"
    },
    {
      "icao": "LHBP",
      "alert": "OK",
      "vis_m": 9999,
      "fzfg": false,
      "metar_trigger": false,
      "taf_trigger": false,
      "metar": "METAR LHBP 090400Z 07003KT CAVOK M00/M04 Q1029 NOSIG",
      "taf": "TAF LHBP 082315Z 0900/0924 07006KT CAVOK"
    },
    {
      "icao": "LHDC",
      "alert": "OK",
      "vis_m": 9999,
      "fzfg": false,
      "metar_trigger": false,
      "taf_trigger": false,
      "metar": "METAR LHDC 090345Z AUTO 15002KT CAVOK 04/M01 Q1030",
      "taf": "TAF LHDC 090215Z 0903/0912 06006KT CAVOK"
    },
    {
      "icao": "LIBD",
      "alert": "OK",
      "vis_m": 9999,
      "fzfg": false,
      "metar_trigger": false,
      "taf_trigger": false,
      "metar": "METAR LIBD 090350Z AUTO 28004KT 9999 OVC073/// 11/10 Q1024",
      "taf": "TAF LIBD 082300Z 0900/0924 VRB05KT 8000 SCT020"
    },
    {
      "icao": "LIBG",
      "alert": "OK",
      "vis_m": null,
      "fzfg": false,
      "metar_trigger": false,
      "taf_trigger": false,
      "metar": "",
      "taf": "TAF LIBG 081700Z 0818/0903 VRB03KT 7000 SCT015"
    },
    {
      "icao": "LIBP",
      "alert": "OK",
      "vis_m": 4800,
      "fzfg": false,
      "metar_trigger": false,
      "taf_trigger": false,
      "metar": "METAR LIBP 090350Z AUTO 24002KT 4800 BR BKN015/// BKN043/// BKN084/// 10/10 Q1025",
      "taf": "TAF LIBP 082300Z 0900/0924 VRB04KT 8000 SCT030"
    },
    {
      "icao": "LIBR",
      "alert": "OK",
      "vis_m": 9999,
      "fzfg": false,
      "metar_trigger": false,
      "taf_trigger": false,
      "metar": "METAR LIBR 090350Z 29005KT CAVOK 12/11 Q1024",
      "taf": "TAF LIBR 082300Z 0900/0924 VRB06KT 8000 SCT018"
    },
    {
      "icao": "LICA",
      "alert": "OK",
      "vis_m": 9999,
      "fzfg": false,
      "metar_trigger": false,
      "taf_trigger": false,
      "metar": "METAR LICA 090350Z AUTO 05008KT 9999 NCD 11/09 Q1023",
      "taf": "TAF LICA 082300Z 0900/0924 07012KT 9999 SCT025"
    },
    {
      "icao": "LICC",
      "alert": "OK",
      "vis_m": 3000,
      "fzfg": false,
      "metar_trigger": false,
      "taf_trigger": false,
      "metar": "METAR LICC 090350Z 25003KT 3000 BR BKN100 10/08 Q1023",
      "taf": "TAF LICC 082300Z 0900/0924 VRB05KT 3000 BR SCT020"
    },
    {
      "icao": "LICJ",
      "alert": "OK",
      "vis_m": 9999,
      "fzfg": false,
      "metar_trigger": false,
      "taf_trigger": false,
      "metar": "METAR LICJ 090350Z 19004KT CAVOK 11/09 Q1022",
      "taf": "TAF LICJ 082300Z 0900/0924 VRB05KT 9999 FEW030"
    },
    {
      "icao": "LIMC",
      "alert": "OK",
      "vis_m": 9999,
      "fzfg": false,
      "metar_trigger": false,
      "taf_trigger": false,
      "metar": "METAR LIMC 090350Z 03003KT 9999 SCT080 05/03 Q1025 NOSIG",
      "taf": "TAF LIMC 082300Z 0900/1006 VRB05KT 9999 SCT060"
    },
    {
      "icao": "LIME",
      "alert": "OK",
      "vis_m": 9999,
      "fzfg": false,
      "metar_trigger": false,
      "taf_trigger": false,
      "metar": "METAR LIME 090350Z 01003KT 9999 BKN095 08/05 Q1025 NOSIG",
      "taf": "TAF LIME 082300Z 0900/0924 VRB05KT 9999 FEW080"
    },
    {
      "icao": "LIMF",
      "alert": "OK",
      "vis_m": 9999,
      "fzfg": false,
      "metar_trigger": false,
      "taf_trigger": false,
      "metar": "METAR LIMF 090350Z VRB02KT 9999 SCT110 06/02 Q1025",
      "taf": "TAF LIMF 082300Z 0900/0924 VRB04KT CAVOK"
    },
    {
      "icao": "LIMJ",
      "alert": "OK",
      "vis_m": 9999,
      "fzfg": false,
      "metar_trigger": false,
      "taf_trigger": false,
      "metar": "METAR LIMJ 090350Z AUTO 04010KT 9999 OVC100/// 14/05 Q1024",
      "taf": "TAF LIMJ 082300Z 0900/0924 VRB05KT 9999 SCT030"
    },
    {
      "icao": "LIPE",
      "alert": "OK",
      "vis_m": 5000,
      "fzfg": false,
      "metar_trigger": false,
      "taf_trigger": false,
      "metar": "METAR LIPE 090350Z 20006KT 5000 BR NSC 06/05 Q1025",
      "taf": "TAF LIPE 082300Z 0900/0924 VRB04KT 3000 BR BKN003"
    },
    {
      "icao": "LIPH",
      "alert": "OK",
      "vis_m": 9999,
      "fzfg": false,
      "metar_trigger": false,
      "taf_trigger": false,
      "metar": "METAR LIPH 090350Z AUTO 36002KT 9999 OVC230/// 05/04 Q1025",
      "taf": "TAF LIPH 082300Z 0900/0924 VRB04KT 8000 FEW050"
    },
    {
      "icao": "LIPQ",
      "alert": "OK",
      "vis_m": 6000,
      "fzfg": false,
      "metar_trigger": false,
      "taf_trigger": false,
      "metar": "METAR LIPQ 090350Z AUTO 04003KT 020V080 6000 FEW080/// BKN230/// 08/07 Q1024",
      "taf": "TAF LIPQ 082300Z 0900/0924 VRB04KT 7000 SCT060"
    },
    {
      "icao": "LIPR",
      "alert": "OK",
      "vis_m": 3300,
      "fzfg": false,
      "metar_trigger": false,
      "taf_trigger": false,
      "metar": "METAR LIPR 090350Z AUTO 21003KT 3300 BR NCD 03/03 Q1025",
      "taf": "TAF LIPR 082300Z 0900/0924 VRB04KT 2500 BR NSC"
    },
    {
      "icao": "LIPX",
      "alert": "OK",
      "vis_m": 7000,
      "fzfg": false,
      "metar_trigger": false,
      "taf_trigger": false,
      "metar": "METAR LIPX 090350Z 35003KT 7000 NSC 05/04 Q1025",
      "taf": "TAF LIPX 082300Z 0900/0924 VRB05KT CAVOK"
    },
    {
      "icao": "LIPY",
      "alert": "OK",
      "vis_m": 3300,
      "fzfg": false,
      "metar_trigger": false,
      "taf_trigger": false,
      "metar": "METAR LIPY 090350Z AUTO 22005KT 3300 BR OVC004/// 09/09 Q1025",
      "taf": "TAF LIPY 082300Z 0900/0924 VRB05KT 2000 BR FEW020"
    },
    {
      "icao": "LIPZ",
      "alert": "OK",
      "vis_m": 9999,
      "fzfg": false,
      "metar_trigger": false,
      "taf_trigger": false,
      "metar": "METAR LIPZ 090350Z 34004KT CAVOK 07/04 Q1025 NOSIG",
      "taf": "TAF LIPZ 082300Z 0900/1006 VRB04KT CAVOK"
    },
    {
      "icao": "LIRF",
      "alert": "OK",
      "vis_m": 9999,
      "fzfg": false,
      "metar_trigger": false,
      "taf_trigger": false,
      "metar": "METAR LIRF 090350Z VRB01KT CAVOK 09/08 Q1024 NOSIG",
      "taf": "TAF LIRF 082300Z 0900/1006 07005KT 9999 SCT050"
    },
    {
      "icao": "LIRN",
      "alert": "OK",
      "vis_m": 9999,
      "fzfg": false,
      "metar_trigger": false,
      "taf_trigger": false,
      "metar": "METAR LIRN 090350Z 31002KT CAVOK 09/07 Q1023 NOSIG",
      "taf": "TAF LIRN 082300Z 0900/0924 VRB05KT 9999 SCT060"
    },
    {
      "icao": "LIRP",
      "alert": "OK",
      "vis_m": 3000,
      "fzfg": false,
      "metar_trigger": false,
      "taf_trigger": false,
      "metar": "METAR LIRP 090345Z 10004KT 3000 BR NSC 08/08 Q1024 TEMPO 1500",
      "taf": "TAF LIRP 082300Z 0900/0924 11003KT 5000 MIFG NSC"
    },
    {
      "icao": "LIRZ",
      "alert": "OK",
      "vis_m": 9000,
      "fzfg": false,
      "metar_trigger": false,
      "taf_trigger": false,
      "metar": "METAR LIRZ 090350Z AUTO 10002KT 9000 0050S R01/0275N VV001 04/04 Q1024",
      "taf": "TAF LIRZ 082300Z 0900/0924 VRB05KT 8000 NSC"
    },
    {
      "icao": "LJLJ",
      "alert": "OK",
      "vis_m": 9999,
      "fzfg": false,
      "metar_trigger": false,
      "taf_trigger": false,
      "metar": "METAR LJLJ 090400Z 26002KT CAVOK 00/M01 Q1026 NOSIG",
      "taf": "TAF LJLJ 082300Z 0900/1000 30003KT 9999 FEW070"
    },
    {
      "icao": "LKMT",
      "alert": "OK",
      "vis_m": 9999,
      "fzfg": false,
      "metar_trigger": false,
      "taf_trigger": false,
      "metar": "METAR LKMT 090400Z 23003KT CAVOK M01/M02 Q1028 NOSIG",
      "taf": "TAF LKMT 082300Z 0900/0924 VRB02KT CAVOK"
    },
    {
      "icao": "LKPR",
      "alert": "OK",
      "vis_m": 9999,
      "fzfg": false,
      "metar_trigger": false,
      "taf_trigger": false,
      "metar": "METAR LKPR 090400Z VRB02KT CAVOK 02/M02 Q1023 NOSIG",
      "taf": "TAF LKPR 090200Z 0903/1009 11006KT CAVOK"
    },
    {
      "icao": "LLBG",
      "alert": "OK",
      "vis_m": 9999,
      "fzfg": false,
      "metar_trigger": false,
      "taf_trigger": false,
      "metar": "METAR LLBG 090420Z VRB03KT CAVOK 08/02 Q1020 NOSIG",
      "taf": "TAF LLBG 082307Z 0900/0924 VRB03KT 9999 SCT050 TX19/0911Z TN06/0903Z"
    },
    {
      "icao": "LMML",
      "alert": "OK",
      "vis_m": 9999,
      "fzfg": false,
      "metar_trigger": false,
      "taf_trigger": false,
      "metar": "METAR LMML 090415Z 07012KT 9999 BKN011 14/12 Q1021 NOSIG",
      "taf": "TAF LMML 082300Z 0900/0924 09015KT 9999 SCT012"
    },
    {
      "icao": "LOWW",
      "alert": "OK",
      "vis_m": 9999,
      "fzfg": false,
      "metar_trigger": false,
      "taf_trigger": false,
      "metar": "METAR LOWW 090350Z 13011KT CAVOK 07/M01 Q1026 NOSIG",
      "taf": "TAF LOWW 090215Z 0903/1009 13005KT CAVOK TX16/0914Z TN05/0905Z"
    },
    {
      "icao": "LPFR",
      "alert": "OK",
      "vis_m": 9999,
      "fzfg": false,
      "metar_trigger": false,
      "taf_trigger": false,
      "metar": "METAR LPFR 090400Z 27004KT 9999 SCT042 10/09 Q1022",
      "taf": "TAF LPFR 082300Z 0900/0924 35005KT CAVOK"
    },
    {
      "icao": "LPMA",
      "alert": "OK",
      "vis_m": 9999,
      "fzfg": false,
      "metar_trigger": false,
      "taf_trigger": false,
      "metar": "METAR LPMA 090400Z 35008KT 300V020 9999 BKN015 SCT030 14/04 Q1027",
      "taf": "TAF LPMA 082300Z 0900/0924 01010KT 9999 BKN015"
    },
    {
      "icao": "LPPR",
      "alert": "OK",
      "vis_m": 9999,
      "fzfg": false,
      "metar_trigger": false,
      "taf_trigger": false,
      "metar": "METAR LPPR 090400Z 19005KT 9999 -RA FEW018 SCT030 10/08 Q1021",
      "taf": "TAF LPPR 082300Z 0900/0924 20007KT 9999 SCT015 BKN030"
    },
    {
      "icao": "LPPS",
      "alert": "OK",
      "vis_m": 9999,
      "fzfg": false,
      "metar_trigger": false,
      "taf_trigger": false,
      "metar": "METAR LPPS 090400Z 04008KT 350V070 9999 SCT014 SCT030 14/05 Q1027",
      "taf": "TAF LPPS 082300Z 0900/1006 01010KT 9999 SCT015 BKN030"
    },
    {
      "icao": "LPPT",
      "alert": "OK",
      "vis_m": 9999,
      "fzfg": false,
      "metar_trigger": false,
      "taf_trigger": false,
      "metar": "METAR LPPT 090400Z 25004KT 9999 FEW020 10/07 Q1023",
      "taf": "TAF LPPT 082300Z 0900/1006 32007KT 9999 SCT015 BKN035"
    },
    {
      "icao": "LQBK",
      "alert": "OK",
      "vis_m": 9999,
      "fzfg": false,
      "metar_trigger": false,
      "taf_trigger": false,
      "metar": "METAR LQBK 090400Z 11002KT CAVOK 01/M02 Q1026 NOSIG",
      "taf": "TAF LQBK 082300Z 0900/0924 16005KT CAVOK TX17/0914Z TN00/0905Z"
    },
    {
      "icao": "LQSA",
      "alert": "OK",
      "vis_m": 9999,
      "fzfg": false,
      "metar_trigger": false,
      "taf_trigger": false,
      "metar": "METAR LQSA 090400Z VRB01KT CAVOK 01/01 Q1026",
      "taf": "TAF LQSA 082300Z 0900/0924 VRB02KT 9999 FEW055 TX17/0914Z TN03/0905Z"
    },
    {
      "icao": "LQTZ",
      "alert": "OK",
      "vis_m": 7000,
      "fzfg": false,
      "metar_trigger": false,
      "taf_trigger": false,
      "metar": "METAR LQTZ 090400Z 06001KT 7000 NSC M01/M01 Q1026",
      "taf": "TAF LQTZ 082300Z 0900/0924 VRB02KT CAVOK TX17/0914Z TNM01/0905Z"
    },
    {
      "icao": "LRBC",
      "alert": "OK",
      "vis_m": 9999,
      "fzfg": false,
      "metar_trigger": false,
      "taf_trigger": false,
      "metar": "METAR LRBC 090400Z 01003KT CAVOK M03/M04 Q1034",
      "taf": "TAF LRBC 090200Z 0903/0912 VRB04KT CAVOK"
    },
    {
      "icao": "LRBS",
      "alert": "OK",
      "vis_m": 9999,
      "fzfg": false,
      "metar_trigger": false,
      "taf_trigger": false,
      "metar": "METAR LRBS 090400Z 00000KT CAVOK M00/M01 Q1034 NOSIG",
      "taf": "TAF LRBS 082300Z 0900/0924 VRB04KT CAVOK"
    },
    {
      "icao": "LRBV",
      "alert": "OK",
      "vis_m": 9999,
      "fzfg": false,
      "metar_trigger": false,
      "taf_trigger": false,
      "metar": "METAR LRBV 090400Z AUTO VRB03KT 9999 NCD M03/M05 Q1032",
      "taf": "TAF LRBV 090200Z 0903/0912 VRB04KT CAVOK"
    },
    {
      "icao": "LRCL",
      "alert": "OK",
      "vis_m": 9999,
      "fzfg": false,
      "metar_trigger": false,
      "taf_trigger": false,
      "metar": "METAR LRCL 090400Z 09005KT CAVOK M01/M05 Q1032",
      "taf": "TAF LRCL 090200Z 0903/0912 VRB04KT CAVOK"
    },
    {
      "icao": "LRCV",
      "alert": "OK",
      "vis_m": 9999,
      "fzfg": false,
      "metar_trigger": false,
      "taf_trigger": false,
      "metar": "METAR LRCV 090400Z 03004KT CAVOK 01/00 Q1033",
      "taf": "TAF LRCV 090200Z 0903/0912 06008KT CAVOK"
    },
    {
      "icao": "LRIA",
      "alert": "OK",
      "vis_m": 9999,
      "fzfg": false,
      "metar_trigger": false,
      "taf_trigger": false,
      "metar": "METAR LRIA 090400Z 27002KT CAVOK 01/M02 Q1034",
      "taf": "TAF LRIA 090200Z 0903/0912 VRB04KT CAVOK"
    },
    {
      "icao": "LROP",
      "alert": "OK",
      "vis_m": 8000,
      "fzfg": false,
      "metar_trigger": false,
      "taf_trigger": false,
      "metar": "METAR LROP 090400Z 02003KT 8000 NSC 01/M00 Q1033 NOSIG",
      "taf": "TAF LROP 082300Z 0900/0924 VRB04KT CAVOK"
    },
    {
      "icao": "LRSB",
      "alert": "OK",
      "vis_m": 9999,
      "fzfg": false,
      "metar_trigger": false,
      "taf_trigger": false,
      "metar": "METAR LRSB 090400Z 25002KT CAVOK M01/M02 Q1031",
      "taf": "TAF LRSB 082300Z 0900/0924 VRB04KT CAVOK"
    },
    {
      "icao": "LRSM",
      "alert": "OK",
      "vis_m": 9999,
      "fzfg": false,
      "metar_trigger": false,
      "taf_trigger": false,
      "metar": "METAR LRSM 090400Z AUTO 05003KT 020V140 9999 NCD 06/M04 Q1031",
      "taf": "TAF LRSM 090200Z 0903/0912 13008KT CAVOK"
    },
    {
      "icao": "LRSV",
      "alert": "OK",
      "vis_m": 9999,
      "fzfg": false,
      "metar_trigger": false,
      "taf_trigger": false,
      "metar": "METAR LRSV 090400Z 23002KT CAVOK 01/M03 Q1032",
      "taf": "TAF LRSV 090200Z 0903/0912 VRB04KT CAVOK"
    },
    {
      "icao": "LRTM",
      "alert": "OK",
      "vis_m": 9999,
      "fzfg": false,
      "metar_trigger": false,
      "taf_trigger": false,
      "metar": "METAR LRTM 090400Z AUTO 09006KT 9999 NCD M02/M05 Q1032",
      "taf": "TAF LRTM 090200Z 0903/0912 VRB04KT CAVOK"
    },
    {
      "icao": "LRTR",
      "alert": "OK",
      "vis_m": 9999,
      "fzfg": false,
      "metar_trigger": false,
      "taf_trigger": false,
      "metar": "METAR LRTR 090400Z 09005KT CAVOK 02/01 Q1029",
      "taf": "TAF LRTR 082300Z 0900/0924 09010KT CAVOK"
    },
    {
      "icao": "LTAC",
      "alert": "OK",
      "vis_m": 9999,
      "fzfg": false,
      "metar_trigger": false,
      "taf_trigger": false,
      "metar": "METAR LTAC 090350Z 05009KT CAVOK M04/M07 Q1027 NOSIG RMK RWY21C 05005KT RWY03L 05007KT RWY21R 04006KT RWY03R 02009KT RWY21L 03007KT",
      "taf": "TAF LTAC 082240Z 0900/0924 03008KT CAVOK"
    },
    {
      "icao": "LTFM",
      "alert": "OK",
      "vis_m": 9999,
      "fzfg": false,
      "metar_trigger": false,
      "taf_trigger": false,
      "metar": "METAR LTFM 090350Z 06014KT 9999 BKN025 06/02 Q1031 NOSIG RMK RWY17L 07016KT RWY34L 06011KT RWY16R 06015KT RWY36 06013KT RWY18 07014KT",
      "taf": "TAF LTFM 082240Z 0900/1006 05015KT 9999 BKN028"
    },
    {
      "icao": "LUKK",
      "alert": "OK",
      "vis_m": 9999,
      "fzfg": false,
      "metar_trigger": false,
      "taf_trigger": false,
      "metar": "METAR LUKK 090400Z VRB02KT CAVOK M01/M02 Q1034 NOSIG",
      "taf": "TAF LUKK 082318Z 0900/0924 VRB04KT CAVOK"
    },
    {
      "icao": "LWOH",
      "alert": "OK",
      "vis_m": null,
      "fzfg": false,
      "metar_trigger": false,
      "taf_trigger": false,
      "metar": "",
      "taf": "TAF LWOH 090230Z 0903/1003 VRB02KT 9999 SCT040 BKN090"
    },
    {
      "icao": "LWSK",
      "alert": "OK",
      "vis_m": 9999,
      "fzfg": false,
      "metar_trigger": false,
      "taf_trigger": false,
      "metar": "METAR LWSK 090420Z 11003KT 9999 SCT023 BKN060 09/07 Q1028 NOSIG",
      "taf": "TAF LWSK 090230Z 0903/1003 VRB02KT 9999 SCT050 BKN080"
    },
    {
      "icao": "LYBE",
      "alert": "OK",
      "vis_m": 9999,
      "fzfg": false,
      "metar_trigger": false,
      "taf_trigger": false,
      "metar": "METAR LYBE 090400Z 12017KT CAVOK 07/M01 Q1028 NOSIG",
      "taf": "TAF LYBE 082300Z 0900/0924 12015KT CAVOK TX16/0913Z TN06/0905Z"
    },
    {
      "icao": "LYNI",
      "alert": "OK",
      "vis_m": 9999,
      "fzfg": false,
      "metar_trigger": false,
      "taf_trigger": false,
      "metar": "METAR LYNI 090400Z VRB01KT CAVOK 06/M01 Q1029 NOSIG",
      "taf": "TAF LYNI 082300Z 0900/0924 07010KT CAVOK TX16/0913Z TN05/0905Z"
    },
    {
      "icao": "LYPG",
      "alert": "OK",
      "vis_m": 9999,
      "fzfg": false,
      "metar_trigger": false,
      "taf_trigger": false,
      "metar": "METAR LYPG 090400Z 01002KT 9999 FEW080 08/06 Q1025 NOSIG",
      "taf": "TAF LYPG 082300Z 0900/0924 36005KT 9999 FEW040 SCT090 TX18/0913Z TN07/0905Z"
    },
    {
      "icao": "LZIB",
      "alert": "OK",
      "vis_m": 9999,
      "fzfg": false,
      "metar_trigger": false,
      "taf_trigger": false,
      "metar": "METAR LZIB 090400Z 36006KT 340V040 CAVOK 05/M03 Q1028 NOSIG",
      "taf": "TAF LZIB 082315Z 0900/1000 10005KT CAVOK"
    },
    {
      "icao": "LZKZ",
      "alert": "OK",
      "vis_m": 9999,
      "fzfg": false,
      "metar_trigger": false,
      "taf_trigger": false,
      "metar": "METAR LZKZ 090400Z 35009KT CAVOK 03/M03 Q1030 NOSIG",
      "taf": "TAF LZKZ 082315Z 0900/1000 35006KT CAVOK"
    },
    {
      "icao": "LZTT",
      "alert": "OK",
      "vis_m": 9999,
      "fzfg": false,
      "metar_trigger": false,
      "taf_trigger": false,
      "metar": "METAR LZTT 090400Z 32003KT CAVOK M04/M07 Q1029",
      "taf": "TAF LZTT 082315Z 0900/1000 VRB02KT CAVOK"
    },
    {
      "icao": "OEJN",
      "alert": "OK",
      "vis_m": 9999,
      "fzfg": false,
      "metar_trigger": false,
      "taf_trigger": false,
      "metar": "METAR OEJN 090400Z 03003KT CAVOK 20/13 Q1013 NOSIG",
      "taf": "TAF OEJN 082300Z 0900/1006 02005KT 7000 FEW030"
    },
    {
      "icao": "OEMA",
      "alert": "OK",
      "vis_m": 9999,
      "fzfg": false,
      "metar_trigger": false,
      "taf_trigger": false,
      "metar": "METAR OEMA 090400Z 02007KT CAVOK 16/M04 Q1017 NOSIG",
      "taf": "TAF OEMA 082300Z 0900/1006 09014KT 7000 NSC"
    },
    {
      "icao": "OJAI",
      "alert": "OK",
      "vis_m": 4000,
      "fzfg": false,
      "metar_trigger": false,
      "taf_trigger": false,
      "metar": "METAR OJAI 090400Z 33003KT 4000 BR NSC M01/M03 Q1020 NOSIG",
      "taf": "TAF OJAI 082300Z 0900/1006 30010KT 5000 HZ NSC"
    },
    {
      "icao": "OMAA",
      "alert": "OK",
      "vis_m": null,
      "fzfg": false,
      "metar_trigger": false,
      "taf_trigger": false,
      "metar": "",
      "taf": ""
    },
    {
      "icao": "OMDB",
      "alert": "OK",
      "vis_m": null,
      "fzfg": false,
      "metar_trigger": false,
      "taf_trigger": false,
      "metar": "",
      "taf": ""
    },
    {
      "icao": "UAAA",
      "alert": "OK",
      "vis_m": 5000,
      "fzfg": false,
      "metar_trigger": false,
      "taf_trigger": false,
      "metar": "METAR UAAA 090400Z VRB01MPS 5000 BR FU SCT100 BKN200 06/03 Q1012 NOSIG",
      "taf": "TAF UAAA 082302Z 0900/0924 34003MPS 3100 BR FU SCT050 BKN100 TX16/0909Z TN02/0902Z"
    },
    {
      "icao": "UBBB",
      "alert": "OK",
      "vis_m": 9999,
      "fzfg": false,
      "metar_trigger": false,
      "taf_trigger": false,
      "metar": "METAR UBBB 090400Z 31008KT CAVOK 05/02 Q1025 NOSIG",
      "taf": "TAF UBBB 082301Z 0900/0924 35005KT 9999 BKN035 TX08/0910Z TN04/0901Z"
    },
    {
      "icao": "UDSG",
      "alert": "OK",
      "vis_m": 9999,
      "fzfg": false,
      "metar_trigger": false,
      "taf_trigger": false,
      "metar": "METAR UDSG 090400Z 35007KT 9999 FEW049 M05/M11 Q1022 NOSIG",
      "taf": "TAF UDSG 082258Z 0900/0924 VRB06KT 9999 BKN040"
    },
    {
      "icao": "UDYZ",
      "alert": "OK",
      "vis_m": 9999,
      "fzfg": false,
      "metar_trigger": false,
      "taf_trigger": false,
      "metar": "METAR UDYZ 090400Z 08006KT 9999 FEW046 M01/M06 Q1022 NOSIG",
      "taf": ""
    },
    {
      "icao": "UGKO",
      "alert": "OK",
      "vis_m": 9999,
      "fzfg": false,
      "metar_trigger": false,
      "taf_trigger": false,
      "metar": "METAR UGKO 090400Z VRB02KT 9999 BKN016 OVC065 02/02 Q1030 NOSIG",
      "taf": "TAF UGKO 082300Z 0900/0924 25010KT 9999 SCT024 BKN050 TX08/0911Z TN02/0903Z"
    }
  ]
}