{
  "ts_utc": "2026-02-09T06:17:49Z",
  "threshold_m": 150,
  "source": "stations_override.txt (ICAO list) + aviationweather.gov (METAR/TAF raw)",
  "station_count": 159,
  "stations": [
    {
      "icao": "BIKF",
      "alert": "OK",
      "vis_m": 9999,
      "fzfg": false,
      "metar_trigger": false,
      "taf_trigger": false,
      "metar": "METAR BIKF 090600Z 02014KT CAVOK 01/M02 Q1007",
      "taf": "TAF BIKF 090455Z 0906/1006 04014KT CAVOK TX03/0915Z TNM01/0909Z"
    },
    {
      "icao": "BKPR",
      "alert": "OK",
      "vis_m": 1000,
      "fzfg": false,
      "metar_trigger": false,
      "taf_trigger": false,
      "metar": "METAR BKPR 090600Z 28002KT 1000 R17/1300U R35/1900N BR SCT007 BKN030 03/03 Q1008 TEMPO 0700 BCFG",
      "taf": "TAF BKPR 090530Z 0906/1006 05008KT 3000 BR SCT020 BKN040"
    },
    {
      "icao": "EBCI",
      "alert": "OK",
      "vis_m": 9999,
      "fzfg": false,
      "metar_trigger": false,
      "taf_trigger": false,
      "metar": "METAR EBCI 090550Z 17008KT 9999 BKN009 04/02 Q1005 NOSIG",
      "taf": "TAF EBCI 090518Z 0906/1012 16005KT 9999 BKN009"
    },
    {
      "icao": "EDDB",
      "alert": "OK",
      "vis_m": 4000,
      "fzfg": false,
      "metar_trigger": false,
      "taf_trigger": false,
      "metar": "METAR EDDB 090550Z AUTO 10006KT 4000 BR OVC004 M00/M01 Q1012 TEMPO OVC005",
      "taf": "TAF EDDB 090500Z 0906/1006 10007KT 3500 BR OVC003"
    },
    {
      "icao": "EDDH",
      "alert": "OK",
      "vis_m": 6000,
      "fzfg": false,
      "metar_trigger": false,
      "taf_trigger": false,
      "metar": "METAR EDDH 090550Z AUTO 11007KT 6000 -SN OVC008 00/M01 Q1011 TEMPO 4500 -FZDZ",
      "taf": "TAF EDDH 090500Z 0906/1012 11008KT 9999 BKN013"
    },
    {
      "icao": "EDDK",
      "alert": "OK",
      "vis_m": 9999,
      "fzfg": false,
      "metar_trigger": false,
      "taf_trigger": false,
      "metar": "METAR EDDK 090550Z AUTO 10007KT 070V130 9999 SCT006 01/00 Q1007 TEMPO BKN006",
      "taf": "TAF EDDK 090500Z 0906/1012 13009KT 9999 FEW025"
    },
    {
      "icao": "EDDN",
      "alert": "OK",
      "vis_m": 9999,
      "fzfg": false,
      "metar_trigger": false,
      "taf_trigger": false,
      "metar": "METAR EDDN 090550Z AUTO 10004KT 9999 OVC010 03/01 Q1008 TEMPO OVC008",
      "taf": ""
    },
    {
      "icao": "EDDS",
      "alert": "OK",
      "vis_m": 9999,
      "fzfg": false,
      "metar_trigger": false,
      "taf_trigger": false,
      "metar": "METAR EDDS 090550Z AUTO 07004KT 050V110 9999 OVC017 02/01 Q1006 NOSIG",
      "taf": "TAF EDDS 090500Z 0906/1006 10004KT 9999 OVC015"
    },
    {
      "icao": "EDFH",
      "alert": "OK",
      "vis_m": 400,
      "fzfg": false,
      "metar_trigger": false,
      "taf_trigger": false,
      "metar": "METAR EDFH 090550Z 13008KT 0400 R21/0450N FG VV/// 00/00 Q1006",
      "taf": "TAF EDFH 090500Z 0906/1006 14011KT 0600 FG OVC001"
    },
    {
      "icao": "EDJA",
      "alert": "OK",
      "vis_m": 5000,
      "fzfg": false,
      "metar_trigger": false,
      "taf_trigger": false,
      "metar": "METAR EDJA 090550Z VRB02KT 5000 BR FEW002 OVC008 01/01 Q1006",
      "taf": "TAF EDJA 090500Z 0906/0915 VRB03KT 5000 BR SCT002 BKN005"
    },
    {
      "icao": "EDLW",
      "alert": "OK",
      "vis_m": 9999,
      "fzfg": false,
      "metar_trigger": false,
      "taf_trigger": false,
      "metar": "METAR EDLW 090550Z 00000KT CAVOK M02/M02 Q1007",
      "taf": "TAF EDLW 090500Z 0906/1006 07004KT 9999 FEW035"
    },
    {
      "icao": "EDNY",
      "alert": "OK",
      "vis_m": 9999,
      "fzfg": false,
      "metar_trigger": false,
      "taf_trigger": false,
      "metar": "METAR EDNY 090550Z VRB02KT 9999 FEW009 SCT011 OVC023 04/02 Q1006",
      "taf": "TAF EDNY 090500Z 0906/0915 VRB03KT 9999 SCT008 OVC020"
    },
    {
      "icao": "EDSB",
      "alert": "OK",
      "vis_m": 3900,
      "fzfg": false,
      "metar_trigger": false,
      "taf_trigger": false,
      "metar": "METAR EDSB 090550Z 01005KT 3900 BR BKN002 OVC004 03/03 Q1007",
      "taf": "TAF EDSB 090500Z 0906/1006 03004KT 3000 BR BKN002"
    },
    {
      "icao": "EETN",
      "alert": "OK",
      "vis_m": 9999,
      "fzfg": false,
      "metar_trigger": false,
      "taf_trigger": false,
      "metar": "METAR EETN 090550Z 21011KT 9999 BKN005 OVC015 M12/M13 Q1018",
      "taf": "TAF EETN 090530Z 0906/1006 22012KT 9999 BKN005 OVC012"
    },
    {
      "icao": "EFTU",
      "alert": "OK",
      "vis_m": 9999,
      "fzfg": false,
      "metar_trigger": false,
      "taf_trigger": false,
      "metar": "METAR EFTU 090550Z AUTO 26010KT 9999 BKN015 M06/M09 Q1015",
      "taf": "TAF EFTU 090522Z 0906/1006 24009KT 9999 BKN012"
    },
    {
      "icao": "EGBB",
      "alert": "OK",
      "vis_m": 5000,
      "fzfg": false,
      "metar_trigger": false,
      "taf_trigger": false,
      "metar": "METAR EGBB 090550Z 15011KT 5000 -RA SCT009 BKN041 07/06 Q1000",
      "taf": "TAF EGBB 090454Z 0906/1006 15008KT 9999 SCT010"
    },
    {
      "icao": "EGGP",
      "alert": "OK",
      "vis_m": 9999,
      "fzfg": false,
      "metar_trigger": false,
      "taf_trigger": false,
      "metar": "METAR EGGP 090550Z 14010KT 9999 FEW032 BKN046 07/06 Q0998",
      "taf": "TAF EGGP 090452Z 0906/1006 14008KT 9999 FEW010 SCT045"
    },
    {
      "icao": "EGGW",
      "alert": "OK",
      "vis_m": 7000,
      "fzfg": false,
      "metar_trigger": false,
      "taf_trigger": false,
      "metar": "METAR EGGW 090550Z AUTO 15005KT 7000 FEW002 SCT025 06/05 Q1001",
      "taf": "TAF EGGW 090458Z 0906/1006 15007KT 9999 SCT005"
    },
    {
      "icao": "EGKK",
      "alert": "OK",
      "vis_m": 9999,
      "fzfg": false,
      "metar_trigger": false,
      "taf_trigger": false,
      "metar": "METAR EGKK 090550Z 13007KT 9999 FEW006 07/07 Q1001",
      "taf": "TAF EGKK 090456Z 0906/1012 15006KT 9999 SCT015"
    },
    {
      "icao": "EGNM",
      "alert": "OK",
      "vis_m": 3000,
      "fzfg": false,
      "metar_trigger": false,
      "taf_trigger": false,
      "metar": "METAR EGNM 090550Z 13007KT 3000 BR OVC003 06/06 Q0999",
      "taf": "TAF EGNM 082255Z 0900/0924 16005KT 9999 SCT003"
    },
    {
      "icao": "EGPD",
      "alert": "OK",
      "vis_m": 3900,
      "fzfg": false,
      "metar_trigger": false,
      "taf_trigger": false,
      "metar": "METAR EGPD 090550Z AUTO 14010KT 3900 RADZ OVC005/// //////TCU 07/06 Q0999 TEMPO BKN004",
      "taf": "TAF EGPD 090455Z 0906/1006 15009KT 9999 SCT002 BKN006"
    },
    {
      "icao": "EGPF",
      "alert": "OK",
      "vis_m": 700,
      "fzfg": false,
      "metar_trigger": false,
      "taf_trigger": false,
      "metar": "METAR EGPF 090550Z VRB01KT 0700 R05/0450D -RA FG FEW018 SCT023 BKN029 04/04 Q0998",
      "taf": ""
    },
    {
      "icao": "EHBK",
      "alert": "OK",
      "vis_m": 9999,
      "fzfg": false,
      "metar_trigger": false,
      "taf_trigger": false,
      "metar": "METAR EHBK 090555Z AUTO 10005KT 9999 NSC M00/M01 Q1006 NOSIG",
      "taf": "TAF EHBK 090455Z 0906/1012 11005KT CAVOK"
    },
    {
      "icao": "EHEH",
      "alert": "OK",
      "vis_m": 3400,
      "fzfg": false,
      "metar_trigger": false,
      "taf_trigger": false,
      "metar": "METAR EHEH 090555Z AUTO 11004KT 090V150 3400 R21/P3000N BR OVC013 01/00 Q1006 YLO NOSIG RMK TREND REMOTE BY EHWX",
      "taf": "TAF EHEH 090531Z 0906/1012 12002KT 3000 BR BKN003"
    },
    {
      "icao": "EKBI",
      "alert": "OK",
      "vis_m": 7000,
      "fzfg": false,
      "metar_trigger": false,
      "taf_trigger": false,
      "metar": "METAR EKBI 090550Z 09008KT 7000 BKN006 M01/M01 Q1013",
      "taf": "TAF EKBI 090527Z 0906/1006 09008KT 9999 BKN008"
    },
    {
      "icao": "EKCH",
      "alert": "OK",
      "vis_m": 9999,
      "fzfg": false,
      "metar_trigger": false,
      "taf_trigger": false,
      "metar": "METAR EKCH 090552Z 10010KT 9999 BKN008 M01/M03 Q1015 TEMPO BKN010",
      "taf": "TAF EKCH 090527Z 0906/1006 09010KT 9999 BKN009"
    },
    {
      "icao": "ENAL",
      "alert": "OK",
      "vis_m": 9999,
      "fzfg": false,
      "metar_trigger": false,
      "taf_trigger": false,
      "metar": "METAR ENAL 090550Z 15006KT 120V220 9999 BKN032 02/M05 Q1013",
      "taf": "TAF ENAL 090500Z 0906/0915 15008KT 9999 SCT030"
    },
    {
      "icao": "ENBR",
      "alert": "OK",
      "vis_m": 9999,
      "fzfg": false,
      "metar_trigger": false,
      "taf_trigger": false,
      "metar": "METAR ENBR 090550Z 00000KT CAVOK M01/M10 Q1013 NOSIG RMK WIND 1200FT 12010KT",
      "taf": "TAF ENBR 090500Z 0906/1006 VRB03KT CAVOK"
    },
    {
      "icao": "ENGM",
      "alert": "OK",
      "vis_m": 9999,
      "fzfg": false,
      "metar_trigger": false,
      "taf_trigger": false,
      "metar": "METAR ENGM 090550Z VRB02KT 9999 OVC020 M10/M11 Q1017 NOSIG",
      "taf": "TAF ENGM 090500Z 0906/1006 01005KT 9999 -SN BKN020"
    },
    {
      "icao": "ENHD",
      "alert": "OK",
      "vis_m": 9999,
      "fzfg": false,
      "metar_trigger": false,
      "taf_trigger": false,
      "metar": "METAR ENHD 090550Z 11014KT 9999 BKN025 01/M06 Q1012",
      "taf": "TAF ENHD 090500Z 0906/0915 11012KT 9999 BKN025"
    },
    {
      "icao": "ENTC",
      "alert": "OK",
      "vis_m": 9999,
      "fzfg": false,
      "metar_trigger": false,
      "taf_trigger": false,
      "metar": "METAR ENTC 090550Z 07003KT 9999 -SHSN SCT007 BKN020 M02/M04 Q1010 RMK WIND 2600FT 01019KT",
      "taf": "TAF ENTC 090500Z 0906/1006 03005KT 9999 FEW015 BKN035"
    },
    {
      "icao": "ENTO",
      "alert": "OK",
      "vis_m": 9999,
      "fzfg": false,
      "metar_trigger": false,
      "taf_trigger": false,
      "metar": "METAR ENTO 090550Z 01004KT 9999 OVC007 M08/M10 Q1018 NOSIG",
      "taf": "TAF ENTO 090500Z 0906/1006 01006KT 9999 BKN020"
    },
    {
      "icao": "ENVA",
      "alert": "OK",
      "vis_m": 9999,
      "fzfg": false,
      "metar_trigger": false,
      "taf_trigger": false,
      "metar": "METAR ENVA 090550Z VRB01KT 9999 BKN028 M07/M11 Q1014 NOSIG RMK WIND 670FT 17004KT",
      "taf": "TAF ENVA 090500Z 0906/1006 10005KT 9999 FEW020 BKN040"
    },
    {
      "icao": "ENZV",
      "alert": "OK",
      "vis_m": 9999,
      "fzfg": false,
      "metar_trigger": false,
      "taf_trigger": false,
      "metar": "METAR ENZV 090550Z 13009KT 9999 SCT028 01/M05 Q1013 NOSIG",
      "taf": "TAF ENZV 090500Z 0906/1006 12010KT 9999 SCT030"
    },
    {
      "icao": "EPGD",
      "alert": "OK",
      "vis_m": 1300,
      "fzfg": false,
      "metar_trigger": false,
      "taf_trigger": false,
      "metar": "METAR EPGD 090600Z 13006KT 1300 R29/P2000N -SG BR OVC002 M10/M11 Q1017",
      "taf": "TAF EPGD 090530Z 0906/1006 12008KT 8000 BKN005"
    },
    {
      "icao": "EPKK",
      "alert": "OK",
      "vis_m": 9000,
      "fzfg": false,
      "metar_trigger": false,
      "taf_trigger": false,
      "metar": "METAR EPKK 090600Z 07013KT 9000 OVC009 M03/M05 Q1014",
      "taf": "TAF EPKK 090530Z 0906/1006 07012KT 9999 OVC008"
    },
    {
      "icao": "EPKT",
      "alert": "OK",
      "vis_m": 9999,
      "fzfg": false,
      "metar_trigger": false,
      "taf_trigger": false,
      "metar": "METAR EPKT 090600Z 09013KT 9999 OVC009 M03/M05 Q1013",
      "taf": "TAF EPKT 090530Z 0906/1006 08012KT 9999 OVC008"
    },
    {
      "icao": "EPLB",
      "alert": "OK",
      "vis_m": 9999,
      "fzfg": false,
      "metar_trigger": false,
      "taf_trigger": false,
      "metar": "METAR EPLB 090600Z 11012KT 9999 -SN OVC011 M09/M10 Q1019",
      "taf": "TAF EPLB 090530Z 0906/1006 12012KT 9999 BKN007 OVC012"
    },
    {
      "icao": "EPMO",
      "alert": "OK",
      "vis_m": 9999,
      "fzfg": false,
      "metar_trigger": false,
      "taf_trigger": false,
      "metar": "METAR EPMO 090600Z 08010KT 9999 OVC008 M09/M10 Q1019",
      "taf": "TAF EPMO 090530Z 0906/1006 08012KT 9999 BKN009 OVC014"
    },
    {
      "icao": "EPPO",
      "alert": "OK",
      "vis_m": 9999,
      "fzfg": false,
      "metar_trigger": false,
      "taf_trigger": false,
      "metar": "METAR EPPO 090600Z 11010KT 9999 OVC011 M02/M04 Q1015",
      "taf": ""
    },
    {
      "icao": "EPRA",
      "alert": "OK",
      "vis_m": 9999,
      "fzfg": false,
      "metar_trigger": false,
      "taf_trigger": false,
      "metar": "METAR EPRA 090600Z 11012KT 9999 OVC009 M06/M08 Q1017",
      "taf": "TAF EPRA 090530Z 0906/0915 13012KT 9999 OVC010"
    },
    {
      "icao": "EPRZ",
      "alert": "OK",
      "vis_m": 9999,
      "fzfg": false,
      "metar_trigger": false,
      "taf_trigger": false,
      "metar": "METAR EPRZ 090600Z 07017KT 9999 OVC008 M05/M07 Q1016",
      "taf": "TAF EPRZ 090530Z 0906/1006 07015KT 9999 OVC009"
    },
    {
      "icao": "EPSC",
      "alert": "OK",
      "vis_m": 9999,
      "fzfg": false,
      "metar_trigger": false,
      "taf_trigger": false,
      "metar": "METAR EPSC 090600Z 10010KT 9999 OVC012 M02/M04 Q1014",
      "taf": "TAF EPSC 090530Z 0906/1006 11010KT 9999 BKN014"
    },
    {
      "icao": "EPSY",
      "alert": "OK",
      "vis_m": 9000,
      "fzfg": false,
      "metar_trigger": false,
      "taf_trigger": false,
      "metar": "METAR EPSY 090600Z 13006KT 080V170 9000 BKN002 OVC005 M13/M14 Q1020",
      "taf": "TAF EPSY 090530Z 0906/0915 12006KT 9999 BKN006"
    },
    {
      "icao": "EPWA",
      "alert": "OK",
      "vis_m": 9999,
      "fzfg": false,
      "metar_trigger": false,
      "taf_trigger": false,
      "metar": "METAR EPWA 090600Z 09013KT 9999 OVC009 M08/M10 Q1019 NOSIG",
      "taf": "TAF EPWA 090530Z 0906/1006 10010KT 9999 BKN008 OVC013"
    },
    {
      "icao": "EPWR",
      "alert": "OK",
      "vis_m": 8000,
      "fzfg": false,
      "metar_trigger": false,
      "taf_trigger": false,
      "metar": "METAR EPWR 090600Z 10009KT 8000 OVC009 M01/M02 Q1013",
      "taf": "TAF EPWR 090530Z 0906/1006 08010KT 8000 OVC008"
    },
    {
      "icao": "ESGG",
      "alert": "OK",
      "vis_m": 9999,
      "fzfg": false,
      "metar_trigger": false,
      "taf_trigger": false,
      "metar": "METAR ESGG 090550Z 10007KT 9999 FEW041 M08/M10 Q1016",
      "taf": "TAF ESGG 090530Z 0906/1006 11007KT 9999 SCT040"
    },
    {
      "icao": "ESKN",
      "alert": "OK",
      "vis_m": 9999,
      "fzfg": false,
      "metar_trigger": false,
      "taf_trigger": false,
      "metar": "METAR ESKN 090550Z VRB02KT CAVOK M14/M16 Q1018",
      "taf": "TAF ESKN 090530Z 0906/1006 30003KT CAVOK"
    },
    {
      "icao": "ESMS",
      "alert": "OK",
      "vis_m": 9999,
      "fzfg": false,
      "metar_trigger": false,
      "taf_trigger": false,
      "metar": "METAR ESMS 090550Z 09010KT 9999 OVC009 M02/M03 Q1015",
      "taf": "TAF ESMS 090527Z 0906/1006 10010KT 9999 OVC008"
    },
    {
      "icao": "ESSA",
      "alert": "OK",
      "vis_m": 9999,
      "fzfg": false,
      "metar_trigger": false,
      "taf_trigger": false,
      "metar": "METAR ESSA 090550Z 23003KT 9999 BKN018 M11/M13 Q1018 TEMPO BCFG",
      "taf": "TAF ESSA 090530Z 0906/1006 24003KT 9999 FEW003 BKN020"
    },
    {
      "icao": "EYKA",
      "alert": "OK",
      "vis_m": 9999,
      "fzfg": false,
      "metar_trigger": false,
      "taf_trigger": false,
      "metar": "METAR EYKA 090550Z 08003KT CAVOK M20/M23 Q1022",
      "taf": "TAF EYKA 090508Z 0906/1006 VRB04KT 8000 NSC"
    },
    {
      "icao": "EYPA",
      "alert": "OK",
      "vis_m": 9999,
      "fzfg": false,
      "metar_trigger": false,
      "taf_trigger": false,
      "metar": "METAR EYPA 090550Z 15005KT CAVOK M16/M18 Q1021",
      "taf": "TAF EYPA 090508Z 0906/1006 VRB04KT 8000 SCT015"
    },
    {
      "icao": "EYVI",
      "alert": "OK",
      "vis_m": 9999,
      "fzfg": false,
      "metar_trigger": false,
      "taf_trigger": false,
      "metar": "METAR EYVI 090550Z 16003KT 9999 BKN003 M17/M19 Q1021 NOSIG",
      "taf": "TAF EYVI 090503Z 0906/1006 VRB03KT 9000 BKN002"
    },
    {
      "icao": "GCFV",
      "alert": "OK",
      "vis_m": 9999,
      "fzfg": false,
      "metar_trigger": false,
      "taf_trigger": false,
      "metar": "METAR GCFV 090600Z 34008KT 9999 FEW030 17/13 Q1023",
      "taf": "TAF GCFV 090200Z 0903/1003 31005KT 9999 FEW025 TX22/0914Z TN16/0906Z"
    },
    {
      "icao": "GCLP",
      "alert": "OK",
      "vis_m": 9999,
      "fzfg": false,
      "metar_trigger": false,
      "taf_trigger": false,
      "metar": "METAR GCLP 090600Z 36009KT 9999 SCT030 17/11 Q1023 NOSIG",
      "taf": "TAF GCLP 090200Z 0903/1003 34008KT 9999 FEW030 TX22/0914Z TN16/0906Z"
    },
    {
      "icao": "GCTS",
      "alert": "OK",
      "vis_m": 9999,
      "fzfg": false,
      "metar_trigger": false,
      "taf_trigger": false,
      "metar": "METAR GCTS 090600Z COR 02005KT 340V070 9999 FEW035 15/08 Q1024 NOSIG",
      "taf": "TAF GCTS 090200Z 0903/1003 36005KT 9999 FEW035 TX22/0914Z TN14/0906Z"
    },
    {
      "icao": "GMAD",
      "alert": "OK",
      "vis_m": 1500,
      "fzfg": false,
      "metar_trigger": false,
      "taf_trigger": false,
      "metar": "METAR GMAD 090600Z 04004KT 1500 R27/1700N BR SCT003 11/09 Q1020 NOSIG",
      "taf": "TAF GMAD 090500Z 0906/1012 22004KT 2000 BR BKN008"
    },
    {
      "icao": "GMMN",
      "alert": "OK",
      "vis_m": 5000,
      "fzfg": false,
      "metar_trigger": false,
      "taf_trigger": false,
      "metar": "METAR GMMN 090600Z 22011KT 5000 -RA BKN006 SCT016 14/13 Q1020 TEMPO 2000 DZ",
      "taf": "TAF GMMN 090500Z 0906/1012 22015KT 5000 -DZ BKN006"
    },
    {
      "icao": "GMMX",
      "alert": "OK",
      "vis_m": 8000,
      "fzfg": false,
      "metar_trigger": false,
      "taf_trigger": false,
      "metar": "METAR GMMX 090600Z VRB02KT 8000 BKN020 14/12 Q1022 NOSIG",
      "taf": "TAF GMMX 090500Z 0906/1012 22006KT 8000 SCT020 SCT080"
    },
    {
      "icao": "HEGN",
      "alert": "OK",
      "vis_m": 9999,
      "fzfg": false,
      "metar_trigger": false,
      "taf_trigger": false,
      "metar": "METAR HEGN 090500Z 24004KT CAVOK 15/02 Q1014 NOSIG",
      "taf": "TAF HEGN 090500Z 0906/1012 33008KT CAVOK"
    },
    {
      "icao": "HEMA",
      "alert": "OK",
      "vis_m": 9999,
      "fzfg": false,
      "metar_trigger": false,
      "taf_trigger": false,
      "metar": "METAR HEMA 090500Z 25008KT CAVOK 19/M03 Q1013 NOSIG",
      "taf": "TAF HEMA 090500Z 0906/1012 32008KT CAVOK"
    },
    {
      "icao": "HESH",
      "alert": "OK",
      "vis_m": 6000,
      "fzfg": false,
      "metar_trigger": false,
      "taf_trigger": false,
      "metar": "METAR HESH 090500Z 00000KT 6000 NSC 20/17 Q1014 NOSIG",
      "taf": "TAF HESH 090500Z 0906/1012 36008KT 6000 NSC"
    },
    {
      "icao": "HESX",
      "alert": "OK",
      "vis_m": 9999,
      "fzfg": false,
      "metar_trigger": false,
      "taf_trigger": false,
      "metar": "METAR HESX 090500Z 00000KT 9999 SCT030 14/06 Q1011 NOSIG",
      "taf": "TAF HESX 090500Z 0906/1012 27008KT 6000 NSC"
    },
    {
      "icao": "LATI",
      "alert": "OK",
      "vis_m": null,
      "fzfg": false,
      "metar_trigger": false,
      "taf_trigger": false,
      "metar": "",
      "taf": "TAF LATI 090500Z 0906/1006 VRB05KT 9999 SCT040 BKN080 TX13/0912Z TN07/1005Z"
    },
    {
      "icao": "LBPD",
      "alert": "OK",
      "vis_m": 7000,
      "fzfg": false,
      "metar_trigger": false,
      "taf_trigger": false,
      "metar": "METAR LBPD 090600Z AUTO 10004KT 7000 BKN069/// OVC087/// 05/05 Q1010 TEMPO 2000 BR",
      "taf": "TAF LBPD 090500Z 0906/1006 VRB03KT 9999 SCT050"
    },
    {
      "icao": "LBSF",
      "alert": "OK",
      "vis_m": 2200,
      "fzfg": true,
      "metar_trigger": false,
      "taf_trigger": false,
      "metar": "METAR LBSF 090600Z VRB02KT 2200 BR NSC M01/M02 Q1010 TEMPO 0800 FZFG",
      "taf": "TAF LBSF 090500Z 0906/1006 VRB03KT 4000 BR BKN012"
    },
    {
      "icao": "LBWN",
      "alert": "OK",
      "vis_m": 4400,
      "fzfg": false,
      "metar_trigger": false,
      "taf_trigger": false,
      "metar": "METAR LBWN 090600Z 07009KT 030V100 4400 -DZ BR BKN009 OVC014 02/02 Q1014 REDZ TEMPO 3000 DZ BR BKN005",
      "taf": "TAF LBWN 090500Z 0906/1006 05012KT 9999 BKN005 OVC020"
    },
    {
      "icao": "LCLK",
      "alert": "OK",
      "vis_m": 9999,
      "fzfg": false,
      "metar_trigger": false,
      "taf_trigger": false,
      "metar": "METAR LCLK 090600Z 16004KT 140V200 9999 FEW030 15/13 Q1009 NOSIG",
      "taf": "TAF LCLK 090530Z 0906/1006 28006KT 9999 FEW025"
    },
    {
      "icao": "LCPH",
      "alert": "OK",
      "vis_m": 9999,
      "fzfg": false,
      "metar_trigger": false,
      "taf_trigger": false,
      "metar": "METAR LCPH 090600Z 08003KT 9999 SCT020 14/12 Q1010 NOSIG",
      "taf": "TAF LCPH 090530Z 0906/1006 02007KT 9999 SCT013"
    },
    {
      "icao": "LEAL",
      "alert": "OK",
      "vis_m": 9999,
      "fzfg": false,
      "metar_trigger": false,
      "taf_trigger": false,
      "metar": "METAR LEAL 090600Z 31005KT 9999 OVC054 10/09 Q1011 NOSIG",
      "taf": "TAF LEAL 090500Z 0906/1006 26005KT 9999 FEW040 TX21/0914Z TN06/0906Z"
    },
    {
      "icao": "LEBB",
      "alert": "OK",
      "vis_m": 9999,
      "fzfg": false,
      "metar_trigger": false,
      "taf_trigger": false,
      "metar": "METAR LEBB 090600Z 19006KT 120V250 9999 BKN060 12/05 Q1004 NOSIG",
      "taf": "TAF LEBB 090500Z 0906/1006 20008KT 9999 FEW040 SCT060 TX16/0913Z TN11/0906Z"
    },
    {
      "icao": "LEBL",
      "alert": "OK",
      "vis_m": 9999,
      "fzfg": false,
      "metar_trigger": false,
      "taf_trigger": false,
      "metar": "METAR LEBL 090600Z 32007KT 9999 FEW040 08/05 Q1008 NOSIG",
      "taf": "TAF LEBL 090500Z 0906/1006 34008KT 9999 FEW025 TX14/0913Z TN07/0906Z"
    },
    {
      "icao": "LECH",
      "alert": "OK",
      "vis_m": 7000,
      "fzfg": false,
      "metar_trigger": false,
      "taf_trigger": false,
      "metar": "METAR LECH 090600Z AUTO 19006KT 160V230 7000 OVC060 07/01 Q1008",
      "taf": ""
    },
    {
      "icao": "LEMD",
      "alert": "OK",
      "vis_m": 4000,
      "fzfg": false,
      "metar_trigger": false,
      "taf_trigger": false,
      "metar": "METAR LEMD 090600Z 19003KT 150V210 4000 DZ BR FEW002 SCT003 BKN005 06/06 Q1009 NOSIG",
      "taf": "TAF LEMD 090500Z 0906/1012 22010KT 9999 SCT030 TX13/0915Z TN05/0906Z"
    },
    {
      "icao": "LEMG",
      "alert": "OK",
      "vis_m": 9999,
      "fzfg": false,
      "metar_trigger": false,
      "taf_trigger": false,
      "metar": "METAR LEMG 090600Z 31006KT 9999 SCT010 BKN040 10/09 Q1013 NOSIG",
      "taf": "TAF LEMG 090500Z 0906/1006 VRB03KT 9999 BKN030 TX22/0914Z TN13/0907Z"
    },
    {
      "icao": "LEVC",
      "alert": "OK",
      "vis_m": 9999,
      "fzfg": false,
      "metar_trigger": false,
      "taf_trigger": false,
      "metar": "METAR LEVC 090600Z 21005KT 9999 -RA BKN060 10/07 Q1009 NOSIG",
      "taf": "TAF LEVC 090500Z 0906/1006 25006KT 9999 FEW040 TX20/0914Z TN07/0906Z"
    },
    {
      "icao": "LEXJ",
      "alert": "OK",
      "vis_m": 9999,
      "fzfg": false,
      "metar_trigger": false,
      "taf_trigger": false,
      "metar": "METAR LEXJ 090600Z 22007KT 170V280 9999 OVC060 13/04 Q1002",
      "taf": "TAF LEXJ 090200Z 0903/1003 20009KT 9999 SCT060 TX16/0913Z TN09/0903Z"
    },
    {
      "icao": "LEZG",
      "alert": "OK",
      "vis_m": 9999,
      "fzfg": false,
      "metar_trigger": false,
      "taf_trigger": false,
      "metar": "METAR LEZG 090600Z 18003KT 9999 SCT040 BKN065 07/06 Q1008 NOSIG",
      "taf": "TAF LEZG 090500Z 0906/1006 23010KT 9999 FEW020 TX16/0915Z TN05/0906Z"
    },
    {
      "icao": "LEZL",
      "alert": "OK",
      "vis_m": 9999,
      "fzfg": false,
      "metar_trigger": false,
      "taf_trigger": false,
      "metar": "METAR LEZL 090600Z 25005KT 9999 OVC007 16/15 Q1013 NOSIG",
      "taf": "TAF LEZL 090200Z 0903/1003 24010KT 9999 FEW015 TX20/0915Z TN12/0907Z"
    },
    {
      "icao": "LFBD",
      "alert": "OK",
      "vis_m": 9999,
      "fzfg": false,
      "metar_trigger": false,
      "taf_trigger": false,
      "metar": "METAR LFBD 090600Z AUTO 13005KT CAVOK 07/07 Q1004 NOSIG",
      "taf": "TAF LFBD 090500Z 0906/1012 VRB03KT 9999 SCT040 TX12/0914Z TN06/0906Z"
    },
    {
      "icao": "LFLL",
      "alert": "OK",
      "vis_m": 9000,
      "fzfg": false,
      "metar_trigger": false,
      "taf_trigger": false,
      "metar": "METAR LFLL 090600Z 14006KT 9000 4200N BR NSC 02/01 Q1006 TEMPO 0500 BCFG",
      "taf": "TAF LFLL 090500Z 0906/1012 14007KT CAVOK"
    },
    {
      "icao": "LFLS",
      "alert": "OK",
      "vis_m": 9000,
      "fzfg": false,
      "metar_trigger": false,
      "taf_trigger": false,
      "metar": "METAR LFLS 090600Z AUTO 09008KT 9000 NSC M00/M01 Q1006 NOSIG",
      "taf": "TAF LFLS 090200Z 0903/1003 08006KT CAVOK"
    },
    {
      "icao": "LFMN",
      "alert": "OK",
      "vis_m": 9999,
      "fzfg": false,
      "metar_trigger": false,
      "taf_trigger": false,
      "metar": "METAR LFMN 090600Z 33009KT 9999 FEW033 BKN100 09/06 Q1006 NOSIG",
      "taf": "TAF LFMN 090200Z 0903/1009 33010KT 9999 BKN080"
    },
    {
      "icao": "LFOB",
      "alert": "OK",
      "vis_m": 2100,
      "fzfg": false,
      "metar_trigger": false,
      "taf_trigger": false,
      "metar": "METAR LFOB 090600Z AUTO 12008KT 2100 BR OVC001 04/04 Q1004 TEMPO 0800 FG VV///",
      "taf": "TAF LFOB 090500Z 0906/1006 13010KT 3000 BR OVC003"
    },
    {
      "icao": "LFPO",
      "alert": "OK",
      "vis_m": 2000,
      "fzfg": false,
      "metar_trigger": false,
      "taf_trigger": false,
      "metar": "METAR LFPO 090600Z 12005KT 2000 BR SCT001 OVC002 04/04 Q1004 NOSIG",
      "taf": "TAF LFPO 090500Z 0906/1012 13005KT 2000 BR OVC002"
    },
    {
      "icao": "LFSB",
      "alert": "OK",
      "vis_m": 7000,
      "fzfg": false,
      "metar_trigger": false,
      "taf_trigger": false,
      "metar": "METAR LFSB 090600Z AUTO 00000KT 7000 OVC005 03/03 Q1006 TEMPO 0300 FG VV///",
      "taf": "TAF LFSB 090500Z 0906/1006 VRB03KT 7000 BKN010"
    },
    {
      "icao": "LGAV",
      "alert": "OK",
      "vis_m": 9999,
      "fzfg": false,
      "metar_trigger": false,
      "taf_trigger": false,
      "metar": "METAR LGAV 090550Z VRB02KT 9999 FEW020 BKN060 09/06 Q1008 NOSIG",
      "taf": "TAF LGAV 090500Z 0906/1006 27006KT 9999 SCT025 SCT070"
    },
    {
      "icao": "LGTS",
      "alert": "OK",
      "vis_m": 9999,
      "fzfg": false,
      "metar_trigger": false,
      "taf_trigger": false,
      "metar": "METAR LGTS 090550Z 11004KT 9999 FEW012 SCT025 08/06 Q1008 NOSIG",
      "taf": "TAF LGTS 090500Z 0906/1006 VRB03KT 9999 FEW010 BKN025"
    },
    {
      "icao": "LHBP",
      "alert": "OK",
      "vis_m": 7000,
      "fzfg": false,
      "metar_trigger": false,
      "taf_trigger": false,
      "metar": "METAR LHBP 090600Z 09003KT 060V130 7000 FEW007 OVC013 04/03 Q1011 NOSIG",
      "taf": ""
    },
    {
      "icao": "LHDC",
      "alert": "OK",
      "vis_m": 9999,
      "fzfg": false,
      "metar_trigger": false,
      "taf_trigger": false,
      "metar": "METAR LHDC 090545Z AUTO 04007KT 9999 OVC015 03/01 Q1011 NOSIG",
      "taf": "TAF LHDC 090515Z 0906/0915 04008KT 9999 OVC018"
    },
    {
      "icao": "LIBD",
      "alert": "OK",
      "vis_m": 9999,
      "fzfg": false,
      "metar_trigger": false,
      "taf_trigger": false,
      "metar": "METAR LIBD 090550Z VRB02KT 9999 -DZ SCT045 09/09 Q1004",
      "taf": "TAF LIBD 090500Z 0906/1006 VRB05KT 9999 SCT040"
    },
    {
      "icao": "LIBG",
      "alert": "OK",
      "vis_m": null,
      "fzfg": false,
      "metar_trigger": false,
      "taf_trigger": false,
      "metar": "",
      "taf": ""
    },
    {
      "icao": "LIBP",
      "alert": "OK",
      "vis_m": 8000,
      "fzfg": false,
      "metar_trigger": false,
      "taf_trigger": false,
      "metar": "METAR LIBP 090550Z AUTO VRB02KT 8000 BKN018/// OVC082/// 08/08 Q1005",
      "taf": "TAF LIBP 090500Z 0906/1006 VRB05KT 8000 BKN020"
    },
    {
      "icao": "LIBR",
      "alert": "OK",
      "vis_m": 9000,
      "fzfg": false,
      "metar_trigger": false,
      "taf_trigger": false,
      "metar": "METAR LIBR 090550Z 26007KT 9000 NSC 10/09 Q1004",
      "taf": "TAF LIBR 090500Z 0906/1006 15012KT 9999 SCT040"
    },
    {
      "icao": "LICA",
      "alert": "OK",
      "vis_m": 9999,
      "fzfg": false,
      "metar_trigger": false,
      "taf_trigger": false,
      "metar": "METAR LICA 090550Z AUTO 05004KT 9999 -RA BKN055/// 10/09 Q1005",
      "taf": "TAF LICA 090500Z 0906/1006 07006KT 9999 BKN045"
    },
    {
      "icao": "LICC",
      "alert": "OK",
      "vis_m": 9999,
      "fzfg": false,
      "metar_trigger": false,
      "taf_trigger": false,
      "metar": "METAR LICC 090550Z 26008KT 9999 FEW070 08/05 Q1006",
      "taf": "TAF LICC 090500Z 0906/1006 26015KT 9999 SCT040"
    },
    {
      "icao": "LICJ",
      "alert": "OK",
      "vis_m": 7000,
      "fzfg": false,
      "metar_trigger": false,
      "taf_trigger": false,
      "metar": "METAR LICJ 090550Z 19012KT 7000 DZRA BKN030 11/08 Q1004",
      "taf": "TAF LICJ 090500Z 0906/1006 20015KT 9999 FEW020 SCT040"
    },
    {
      "icao": "LIMC",
      "alert": "OK",
      "vis_m": 8000,
      "fzfg": false,
      "metar_trigger": false,
      "taf_trigger": false,
      "metar": "METAR LIMC 090550Z 01006KT 8000 NSC 05/05 Q1006 NOSIG",
      "taf": "TAF LIMC 090500Z 0906/1012 VRB04KT 7000 SCT040"
    },
    {
      "icao": "LIME",
      "alert": "OK",
      "vis_m": 9999,
      "fzfg": false,
      "metar_trigger": false,
      "taf_trigger": false,
      "metar": "METAR LIME 090550Z 01004KT 9999 SCT070 06/05 Q1007 NOSIG",
      "taf": "TAF LIME 090500Z 0906/1006 VRB04KT 7000 SCT040"
    },
    {
      "icao": "LIMF",
      "alert": "OK",
      "vis_m": 8000,
      "fzfg": false,
      "metar_trigger": false,
      "taf_trigger": false,
      "metar": "METAR LIMF 090550Z 30004KT 8000 BKN040 07/05 Q1007",
      "taf": "TAF LIMF 090500Z 0906/1006 VRB04KT 7000 BKN030"
    },
    {
      "icao": "LIMJ",
      "alert": "OK",
      "vis_m": 9999,
      "fzfg": false,
      "metar_trigger": false,
      "taf_trigger": false,
      "metar": "METAR LIMJ 090550Z AUTO 04013KT 9999 OVC170/// 10/06 Q1005",
      "taf": "TAF LIMJ 090500Z 0906/1006 02012KT 9999 BKN040"
    },
    {
      "icao": "LIPE",
      "alert": "OK",
      "vis_m": 200,
      "fzfg": false,
      "metar_trigger": false,
      "taf_trigger": false,
      "metar": "METAR LIPE 090550Z 29003KT 0200 R12/0750N R30/0650D -DZ FG VV001 08/08 Q1006",
      "taf": "TAF LIPE 090500Z 0906/1006 VRB05KT 0300 FG SCT010"
    },
    {
      "icao": "LIPH",
      "alert": "OK",
      "vis_m": 9999,
      "fzfg": false,
      "metar_trigger": false,
      "taf_trigger": false,
      "metar": "METAR LIPH 090550Z AUTO 36003KT 9999 FEW071/// OVC100/// 07/06 Q1006",
      "taf": "TAF LIPH 090500Z 0906/1006 VRB05KT 7000 SCT060"
    },
    {
      "icao": "LIPQ",
      "alert": "OK",
      "vis_m": 9999,
      "fzfg": false,
      "metar_trigger": false,
      "taf_trigger": false,
      "metar": "METAR LIPQ 090550Z AUTO VRB02KT 9999 BKN074/// 06/05 Q1007",
      "taf": "TAF LIPQ 090500Z 0906/1006 03006KT 9999 BKN050"
    },
    {
      "icao": "LIPR",
      "alert": "OK",
      "vis_m": 1100,
      "fzfg": false,
      "metar_trigger": false,
      "taf_trigger": false,
      "metar": "METAR LIPR 090550Z AUTO 24003KT 1100 R30/P2000N -RA BR OVC006/// 08/08 Q1006",
      "taf": "TAF LIPR 090500Z 0906/1006 30006KT 6000 SCT010 SCT040"
    },
    {
      "icao": "LIPX",
      "alert": "OK",
      "vis_m": 9999,
      "fzfg": false,
      "metar_trigger": false,
      "taf_trigger": false,
      "metar": "METAR LIPX 090550Z VRB02KT 9999 BKN080 05/05 Q1007",
      "taf": "TAF LIPX 090500Z 0906/1006 VRB04KT 8000 BKN040"
    },
    {
      "icao": "LIPY",
      "alert": "OK",
      "vis_m": 7000,
      "fzfg": false,
      "metar_trigger": false,
      "taf_trigger": false,
      "metar": "METAR LIPY 090550Z AUTO 20003KT 7000 OVC098/// 09/08 Q1006",
      "taf": "TAF LIPY 090500Z 0906/1006 30006KT 7000 SCT060"
    },
    {
      "icao": "LIPZ",
      "alert": "OK",
      "vis_m": 9999,
      "fzfg": false,
      "metar_trigger": false,
      "taf_trigger": false,
      "metar": "METAR LIPZ 090550Z 06003KT 030V090 9999 BKN071 07/05 Q1007 NOSIG",
      "taf": "TAF LIPZ 090500Z 0906/1012 05006KT 9999 SCT060"
    },
    {
      "icao": "LIRF",
      "alert": "OK",
      "vis_m": 9999,
      "fzfg": false,
      "metar_trigger": false,
      "taf_trigger": false,
      "metar": "METAR LIRF 090550Z 04005KT 9999 FEW030 08/07 Q1003 NOSIG",
      "taf": "TAF LIRF 090500Z 0906/1012 08010KT 9999 SCT020 BKN040"
    },
    {
      "icao": "LIRN",
      "alert": "OK",
      "vis_m": 9999,
      "fzfg": false,
      "metar_trigger": false,
      "taf_trigger": false,
      "metar": "METAR LIRN 090550Z 04005KT 9999 -DZ BKN030 09/08 Q1004 NOSIG",
      "taf": "TAF LIRN 090500Z 0906/1006 VRB05KT 9999 BKN040"
    },
    {
      "icao": "LIRP",
      "alert": "OK",
      "vis_m": 9999,
      "fzfg": false,
      "metar_trigger": false,
      "taf_trigger": false,
      "metar": "METAR LIRP 090545Z 24002KT 9999 SCT040 SCT060 07/07 Q1005 NOSIG",
      "taf": "TAF LIRP 082300Z 0900/0924 06005KT 9999 SCT020 SCT050"
    },
    {
      "icao": "LIRZ",
      "alert": "OK",
      "vis_m": 9999,
      "fzfg": false,
      "metar_trigger": false,
      "taf_trigger": false,
      "metar": "METAR LIRZ 090550Z AUTO 35005KT 9999 OVC042/// 08/06 Q1004",
      "taf": "TAF LIRZ 090500Z 0906/1006 VRB05KT 9999 BKN045"
    },
    {
      "icao": "LJLJ",
      "alert": "OK",
      "vis_m": 7000,
      "fzfg": false,
      "metar_trigger": false,
      "taf_trigger": false,
      "metar": "METAR LJLJ 090600Z VRB01KT 7000 FEW002 SCT013 OVC047 04/04 Q1008 NOSIG",
      "taf": "TAF LJLJ 090500Z 0906/1006 VRB02KT 8000 SCT020 BKN040"
    },
    {
      "icao": "LKMT",
      "alert": "OK",
      "vis_m": 1400,
      "fzfg": false,
      "metar_trigger": false,
      "taf_trigger": false,
      "metar": "METAR LKMT 090600Z 03009KT 1400 R22/P2000N R04/P2000N -SN BR BKN005 OVC009 M02/M02 Q1012 NOSIG",
      "taf": "TAF LKMT 090500Z 0906/1006 02008KT 3000 -SN BR OVC006"
    },
    {
      "icao": "LKPR",
      "alert": "OK",
      "vis_m": 2000,
      "fzfg": false,
      "metar_trigger": false,
      "taf_trigger": false,
      "metar": "METAR LKPR 090600Z VRB02KT 2000 BR OVC002 M00/M00 Q1010 TEMPO 1200 BR",
      "taf": "TAF LKPR 090500Z 0906/1012 07004KT 1200 BCFG BKN003"
    },
    {
      "icao": "LLBG",
      "alert": "OK",
      "vis_m": 9999,
      "fzfg": false,
      "metar_trigger": false,
      "taf_trigger": false,
      "metar": "METAR LLBG 090550Z 08004KT CAVOK 17/08 Q1011 NOSIG",
      "taf": "TAF LLBG 090500Z 0906/1006 16005KT CAVOK"
    },
    {
      "icao": "LMML",
      "alert": "OK",
      "vis_m": 9999,
      "fzfg": false,
      "metar_trigger": false,
      "taf_trigger": false,
      "metar": "METAR LMML 090615Z 25005KT 9999 FEW020 11/08 Q1007 NOSIG",
      "taf": "TAF LMML 090500Z 0906/1006 29010KT 9999 FEW020"
    },
    {
      "icao": "LOWW",
      "alert": "OK",
      "vis_m": 9999,
      "fzfg": false,
      "metar_trigger": false,
      "taf_trigger": false,
      "metar": "METAR LOWW 090550Z 01003KT 9999 FEW026 BKN032 02/00 Q1010 NOSIG",
      "taf": "TAF LOWW 090515Z 0906/1012 03005KT 9999 FEW010 BKN030 TX04/1012Z TN01/0907Z"
    },
    {
      "icao": "LPFR",
      "alert": "OK",
      "vis_m": 9999,
      "fzfg": false,
      "metar_trigger": false,
      "taf_trigger": false,
      "metar": "METAR LPFR 090600Z 26014KT 9999 SCT003 BKN010 15/15 Q1014",
      "taf": "TAF LPFR 090500Z 0906/1006 24013KT 8000 SCT006 BKN012"
    },
    {
      "icao": "LPMA",
      "alert": "OK",
      "vis_m": 9999,
      "fzfg": false,
      "metar_trigger": false,
      "taf_trigger": false,
      "metar": "METAR LPMA 090600Z VRB02KT 9999 FEW015 17/12 Q1022",
      "taf": "TAF LPMA 090500Z 0906/1006 VRB05KT 9999 SCT015"
    },
    {
      "icao": "LPPR",
      "alert": "OK",
      "vis_m": 4600,
      "fzfg": false,
      "metar_trigger": false,
      "taf_trigger": false,
      "metar": "METAR LPPR 090600Z 20009KT 4600 -RADZ BR BKN003 FEW018CB 14/13 Q1008",
      "taf": "TAF LPPR 090500Z 0906/1006 23010KT 8000 -RA SCT004 SCT008"
    },
    {
      "icao": "LPPS",
      "alert": "OK",
      "vis_m": 9999,
      "fzfg": false,
      "metar_trigger": false,
      "taf_trigger": false,
      "metar": "METAR LPPS 090600Z 28014KT 9999 SCT010 17/16 Q1022",
      "taf": "TAF LPPS 090500Z 0906/1012 27010KT 9999 SCT012"
    },
    {
      "icao": "LPPT",
      "alert": "OK",
      "vis_m": 9999,
      "fzfg": false,
      "metar_trigger": false,
      "taf_trigger": false,
      "metar": "METAR LPPT 090600Z 27008KT 230V310 9999 SCT006 BKN012 15/14 Q1012",
      "taf": "TAF LPPT 090500Z 0906/1012 26008KT 8000 -RA SCT005 SCT010"
    },
    {
      "icao": "LQBK",
      "alert": "OK",
      "vis_m": 7000,
      "fzfg": false,
      "metar_trigger": false,
      "taf_trigger": false,
      "metar": "METAR LQBK 090600Z COR 32004KT 7000 -RA FEW015 OVC025 06/06 Q1008 NOSIG",
      "taf": "TAF LQBK 090500Z 0906/1006 06005KT 7000 SCT010 BKN025 TX10/0914Z TN04/1005Z"
    },
    {
      "icao": "LQSA",
      "alert": "OK",
      "vis_m": 7000,
      "fzfg": false,
      "metar_trigger": false,
      "taf_trigger": false,
      "metar": "METAR LQSA 090600Z 13002KT 7000 BKN005 BKN025 05/05 Q1007 NOSIG",
      "taf": "TAF LQSA 090500Z 0906/1006 VRB02KT 8000 BKN005 TX09/0913Z TN03/1005Z"
    },
    {
      "icao": "LQTZ",
      "alert": "OK",
      "vis_m": 400,
      "fzfg": false,
      "metar_trigger": false,
      "taf_trigger": false,
      "metar": "METAR LQTZ 090600Z 00000KT 0400 R09/0400N FG OVC002 06/06 Q1008",
      "taf": "TAF LQTZ 090500Z 0906/1006 04005KT 9999 BKN020 TX10/0913Z TN03/1005Z"
    },
    {
      "icao": "LRBC",
      "alert": "OK",
      "vis_m": 4000,
      "fzfg": false,
      "metar_trigger": false,
      "taf_trigger": false,
      "metar": "METAR LRBC 090600Z 35007KT 4000 -SN BR SCT007 SCT024 BKN039 M04/M05 Q1018",
      "taf": "TAF LRBC 090500Z 0906/0915 34010KT 5000 -SN BR BKN010 BKN030"
    },
    {
      "icao": "LRBS",
      "alert": "OK",
      "vis_m": 8000,
      "fzfg": false,
      "metar_trigger": false,
      "taf_trigger": false,
      "metar": "METAR LRBS 090600Z 07015KT 8000 -SN BKN010 BKN017 OVC036 M00/M02 Q1016 NOSIG",
      "taf": "TAF LRBS 090500Z 0906/1006 08016KT 9999 BKN010 BKN025"
    },
    {
      "icao": "LRBV",
      "alert": "OK",
      "vis_m": 4000,
      "fzfg": false,
      "metar_trigger": false,
      "taf_trigger": false,
      "metar": "METAR LRBV 090600Z 09010KT 4000 SN FEW007 OVC015 M01/M03 Q1011",
      "taf": ""
    },
    {
      "icao": "LRCL",
      "alert": "OK",
      "vis_m": 7000,
      "fzfg": false,
      "metar_trigger": false,
      "taf_trigger": false,
      "metar": "METAR LRCL 090600Z 04006KT 7000 OVC003 04/03 Q1010",
      "taf": "TAF LRCL 090500Z 0906/0915 VRB04KT 5000 -RA BR OVC010"
    },
    {
      "icao": "LRCV",
      "alert": "OK",
      "vis_m": 5000,
      "fzfg": false,
      "metar_trigger": false,
      "taf_trigger": false,
      "metar": "METAR LRCV 090600Z 10013KT 5000 BR OVC009 01/01 Q1013",
      "taf": "TAF LRCV 090500Z 0906/0915 10014KT 5000 BR OVC010"
    },
    {
      "icao": "LRIA",
      "alert": "OK",
      "vis_m": 9999,
      "fzfg": false,
      "metar_trigger": false,
      "taf_trigger": false,
      "metar": "METAR LRIA 090600Z 01009KT 9999 OVC013 M05/M08 Q1019",
      "taf": "TAF LRIA 090500Z 0906/0915 01009KT 9999 BKN010 OVC015"
    },
    {
      "icao": "LROP",
      "alert": "OK",
      "vis_m": 8000,
      "fzfg": false,
      "metar_trigger": false,
      "taf_trigger": false,
      "metar": "METAR LROP 090600Z 08018KT 8000 -SN OVC011 M00/M03 Q1016 NOSIG",
      "taf": "TAF LROP 090500Z 0906/1006 08016KT 9999 BKN010 BKN025"
    },
    {
      "icao": "LRSB",
      "alert": "OK",
      "vis_m": 9999,
      "fzfg": false,
      "metar_trigger": false,
      "taf_trigger": false,
      "metar": "METAR LRSB 090600Z 15002KT 9999 BKN053 03/03 Q1009",
      "taf": "TAF LRSB 090500Z 0906/1006 VRB04KT 9999 BKN050"
    },
    {
      "icao": "LRSM",
      "alert": "OK",
      "vis_m": 1000,
      "fzfg": false,
      "metar_trigger": false,
      "taf_trigger": false,
      "metar": "METAR LRSM 090600Z 00000KT 1000 R19/P2000N BR SCT001 BKN004 05/04 Q1011",
      "taf": "TAF LRSM 090500Z 0906/0915 VRB04KT 1500 BR BKN002"
    },
    {
      "icao": "LRSV",
      "alert": "OK",
      "vis_m": 8000,
      "fzfg": false,
      "metar_trigger": false,
      "taf_trigger": false,
      "metar": "METAR LRSV 090600Z 04005KT 8000 BKN009 BKN025 M07/M07 Q1017",
      "taf": "TAF LRSV 090500Z 0906/0915 06006KT 9999 BKN010 OVC025"
    },
    {
      "icao": "LRTM",
      "alert": "OK",
      "vis_m": 2000,
      "fzfg": false,
      "metar_trigger": false,
      "taf_trigger": false,
      "metar": "METAR LRTM 090600Z 00000KT 2000 -DZRA BR FEW005 BKN012 BKN024 04/03 Q1010",
      "taf": "TAF LRTM 090500Z 0906/0915 VRB04KT 5000 BR OVC010"
    },
    {
      "icao": "LRTR",
      "alert": "OK",
      "vis_m": 900,
      "fzfg": false,
      "metar_trigger": false,
      "taf_trigger": false,
      "metar": "METAR LRTR 090600Z 08003KT 0900 R11/1600U PRFG BR FEW004 00/00 Q1010",
      "taf": "TAF LRTR 090500Z 0906/1006 10005KT 1500 BR SCT035"
    },
    {
      "icao": "LTAC",
      "alert": "OK",
      "vis_m": 9999,
      "fzfg": false,
      "metar_trigger": false,
      "taf_trigger": false,
      "metar": "METAR LTAC 090550Z 26003KT 9999 BKN035 BKN100 05/03 Q1010 NOSIG RMK RWY21C 25007KT RWY03L 27003KT 230V290 RWY21R 25007KT RWY03R 21004KT RWY21L 23003KT 170V250",
      "taf": "TAF LTAC 090440Z 0906/1006 VRB02KT 9999 SCT035 BKN090"
    },
    {
      "icao": "LTFM",
      "alert": "OK",
      "vis_m": 4000,
      "fzfg": false,
      "metar_trigger": false,
      "taf_trigger": false,
      "metar": "METAR LTFM 090550Z 07008KT 4000 0900NW R35R/P1500N R17L/P1500D R34L/P1500D R36/P1500N BR BKN002 BKN020 08/07 Q1011 NOSIG RMK RWY17L 06007KT RWY34L 06009KT RWY16R 06009KT RWY36 07007KT 030V090 RWY18 07007KT",
      "taf": ""
    },
    {
      "icao": "LUKK",
      "alert": "OK",
      "vis_m": 9999,
      "fzfg": false,
      "metar_trigger": false,
      "taf_trigger": false,
      "metar": "METAR LUKK 090600Z 05012KT 9999 OVC018 M08/M11 Q1019 NOSIG",
      "taf": "TAF LUKK 090513Z 0906/1006 04010KT 9999 BKN012"
    },
    {
      "icao": "LWOH",
      "alert": "OK",
      "vis_m": null,
      "fzfg": false,
      "metar_trigger": false,
      "taf_trigger": false,
      "metar": "",
      "taf": ""
    },
    {
      "icao": "LWSK",
      "alert": "OK",
      "vis_m": null,
      "fzfg": false,
      "metar_trigger": false,
      "taf_trigger": false,
      "metar": "",
      "taf": "TAF LWSK 090530Z 0906/1006 VRB02KT 9999 SCT030"
    },
    {
      "icao": "LYBE",
      "alert": "OK",
      "vis_m": 3000,
      "fzfg": false,
      "metar_trigger": false,
      "taf_trigger": false,
      "metar": "METAR LYBE 090600Z 05005KT 3000 BR NSC 04/03 Q1009 TEMPO 0600 FG",
      "taf": "TAF LYBE 090500Z 0906/1006 05004KT 4000 BR NSC TX10/0913Z TNM01/1006Z"
    },
    {
      "icao": "LYNI",
      "alert": "OK",
      "vis_m": 9999,
      "fzfg": false,
      "metar_trigger": false,
      "taf_trigger": false,
      "metar": "METAR LYNI 090600Z 32003KT 270V010 9999 FEW020 BKN050 04/04 Q1009 NOSIG",
      "taf": "TAF LYNI 090500Z 0906/1006 32004KT 9999 SCT040 TX08/0912Z TNM01/1005Z"
    },
    {
      "icao": "LYPG",
      "alert": "OK",
      "vis_m": 5000,
      "fzfg": false,
      "metar_trigger": false,
      "taf_trigger": false,
      "metar": "METAR LYPG 090600Z 12004KT 5000 BR FEW006 SCT027 OVC080 09/09 Q1008 TEMPO 3000 BR",
      "taf": "TAF LYPG 090500Z 0906/1006 16005KT 9999 FEW023 SCT033 BKN070 TX11/0912Z TN07/1005Z"
    },
    {
      "icao": "LZIB",
      "alert": "OK",
      "vis_m": 9999,
      "fzfg": false,
      "metar_trigger": false,
      "taf_trigger": false,
      "metar": "METAR LZIB 090600Z VRB02KT 9999 FEW010 BKN031 03/02 Q1010 NOSIG",
      "taf": "TAF LZIB 090515Z 0906/1006 VRB02KT 9999 FEW020 BKN035"
    },
    {
      "icao": "LZKZ",
      "alert": "OK",
      "vis_m": 9999,
      "fzfg": false,
      "metar_trigger": false,
      "taf_trigger": false,
      "metar": "METAR LZKZ 090600Z 01014KT CAVOK M00/M04 Q1011 NOSIG",
      "taf": "TAF LZKZ 090515Z 0906/1006 01012KT 9999 BKN035"
    },
    {
      "icao": "LZTT",
      "alert": "OK",
      "vis_m": 7000,
      "fzfg": false,
      "metar_trigger": false,
      "taf_trigger": false,
      "metar": "METAR LZTT 090600Z 06007KT 7000 OVC004 M03/M04 Q1010 NOSIG",
      "taf": "TAF LZTT 090515Z 0906/1006 08005KT 9999 FEW006 OVC016"
    },
    {
      "icao": "OEJN",
      "alert": "OK",
      "vis_m": 9999,
      "fzfg": false,
      "metar_trigger": false,
      "taf_trigger": false,
      "metar": "METAR OEJN 090600Z 35002KT CAVOK 26/05 Q1014 NOSIG",
      "taf": "TAF OEJN 090500Z 0906/1012 30010KT CAVOK"
    },
    {
      "icao": "OEMA",
      "alert": "OK",
      "vis_m": 9999,
      "fzfg": false,
      "metar_trigger": false,
      "taf_trigger": false,
      "metar": "METAR OEMA 090600Z VRB01KT CAVOK 19/M02 Q1019 NOSIG",
      "taf": "TAF OEMA 090500Z 0906/1012 25007KT CAVOK"
    },
    {
      "icao": "OJAI",
      "alert": "OK",
      "vis_m": 4000,
      "fzfg": false,
      "metar_trigger": false,
      "taf_trigger": false,
      "metar": "METAR OJAI 090600Z 24012KT 4000 HZ NSC 16/05 Q1013 NOSIG",
      "taf": "TAF OJAI 090500Z 0906/1012 22012KT 4000 DU NSC"
    },
    {
      "icao": "OMAA",
      "alert": "OK",
      "vis_m": 9999,
      "fzfg": false,
      "metar_trigger": false,
      "taf_trigger": false,
      "metar": "METAR OMAA 090600Z 34003KT CAVOK 25/10 Q1016 NOSIG",
      "taf": "TAF OMAA 090500Z 0906/1012 VRB02KT 8000 NSC"
    },
    {
      "icao": "OMDB",
      "alert": "OK",
      "vis_m": 9999,
      "fzfg": false,
      "metar_trigger": false,
      "taf_trigger": false,
      "metar": "METAR OMDB 090600Z 20004KT 130V250 CAVOK 25/11 Q1016 NOSIG",
      "taf": "TAF OMDB 090500Z 0906/1012 17005KT CAVOK"
    },
    {
      "icao": "UAAA",
      "alert": "OK",
      "vis_m": 5000,
      "fzfg": false,
      "metar_trigger": false,
      "taf_trigger": false,
      "metar": "METAR UAAA 090600Z 27002MPS 220V320 5000 BR BKN100 OVC200 00/M04 Q1005 NOSIG",
      "taf": "TAF UAAA 090502Z 0906/1006 02003G08MPS 6000 SCT050 BKN100 TX04/0909Z TNM05/1002Z"
    },
    {
      "icao": "UBBB",
      "alert": "OK",
      "vis_m": 9999,
      "fzfg": false,
      "metar_trigger": false,
      "taf_trigger": false,
      "metar": "METAR UBBB 090600Z 36006KT 9999 BKN013 07/04 Q1006 NOSIG",
      "taf": "TAF UBBB 090524Z 0906/1006 34008KT 9999 BKN012 BKN025 TX07/0910Z TN02/1002Z"
    },
    {
      "icao": "UDSG",
      "alert": "OK",
      "vis_m": 1000,
      "fzfg": false,
      "metar_trigger": false,
      "taf_trigger": false,
      "metar": "METAR UDSG 090600Z 31003KT 1000 R02/1000N SN BR OVC005 00/00 Q1006 NOSIG",
      "taf": "TAF UDSG 090500Z 0906/1006 VRB06KT 2000 BR OVC020"
    },
    {
      "icao": "UDYZ",
      "alert": "OK",
      "vis_m": 3700,
      "fzfg": false,
      "metar_trigger": false,
      "taf_trigger": false,
      "metar": "METAR UDYZ 090600Z 22004KT 3700 -RA BR SCT005 OVC022 05/03 Q1006 NOSIG",
      "taf": "TAF UDYZ 090500Z 0906/1006 VRB04KT 3500 BR BKN020"
    },
    {
      "icao": "UGKO",
      "alert": "OK",
      "vis_m": 9999,
      "fzfg": false,
      "metar_trigger": false,
      "taf_trigger": false,
      "metar": "METAR UGKO 090600Z 24009KT 9999 BKN014 OVC032 07/07 Q1008 NOSIG",
      "taf": ""
    }
  ]
}