{
  "ts_utc": "2025-12-28T17:14:18Z",
  "threshold_m": 150,
  "source": "stations_override.txt (ICAO list) + aviationweather.gov (METAR/TAF raw)",
  "station_count": 159,
  "stations": [
    {
      "icao": "BIKF",
      "alert": "OK",
      "vis_m": 9999,
      "fzfg": false,
      "metar_trigger": false,
      "taf_trigger": false,
      "metar": "METAR BIKF 281700Z 26008KT 9999 FEW007 BKN018 06/06 Q1036",
      "taf": "TAF BIKF 281649Z 2818/2918 25008KT 8000 -DZRA SCT007 BKN015 TX06/2818Z TN03/2908Z"
    },
    {
      "icao": "BKPR",
      "alert": "OK",
      "vis_m": 9999,
      "fzfg": false,
      "metar_trigger": false,
      "taf_trigger": false,
      "metar": "METAR BKPR 281700Z 35011KT CAVOK M00/M05 Q1019 NOSIG",
      "taf": "TAF BKPR 281130Z 2812/2912 01012KT CAVOK"
    },
    {
      "icao": "EBCI",
      "alert": "OK",
      "vis_m": 9999,
      "fzfg": false,
      "metar_trigger": false,
      "taf_trigger": false,
      "metar": "METAR EBCI 281650Z 04009KT CAVOK 01/M01 Q1028 NOSIG",
      "taf": "TAF EBCI 281100Z 2812/2918 06006KT CAVOK"
    },
    {
      "icao": "EDDB",
      "alert": "OK",
      "vis_m": 9999,
      "fzfg": false,
      "metar_trigger": false,
      "taf_trigger": false,
      "metar": "METAR EDDB 281650Z AUTO 27006KT CAVOK M03/M03 Q1027 NOSIG",
      "taf": "TAF EDDB 281100Z 2812/2912 28007KT CAVOK"
    },
    {
      "icao": "EDDH",
      "alert": "OK",
      "vis_m": 9999,
      "fzfg": false,
      "metar_trigger": false,
      "taf_trigger": false,
      "metar": "METAR EDDH 281650Z AUTO 26006KT 230V290 9999 BKN004 01/00 Q1028 BECMG 0500 FG OVC001",
      "taf": "TAF EDDH 281100Z 2812/2918 25002KT CAVOK"
    },
    {
      "icao": "EDDK",
      "alert": "OK",
      "vis_m": 9999,
      "fzfg": false,
      "metar_trigger": false,
      "taf_trigger": false,
      "metar": "METAR EDDK 281650Z AUTO VRB02KT CAVOK M01/M02 Q1029 TEMPO 2000 BCFG",
      "taf": ""
    },
    {
      "icao": "EDDN",
      "alert": "OK",
      "vis_m": 9999,
      "fzfg": false,
      "metar_trigger": false,
      "taf_trigger": false,
      "metar": "METAR EDDN 281650Z AUTO 01003KT CAVOK M02/M04 Q1027 NOSIG",
      "taf": "TAF EDDN 281100Z 2812/2912 VRB03KT CAVOK"
    },
    {
      "icao": "EDDS",
      "alert": "OK",
      "vis_m": 9999,
      "fzfg": false,
      "metar_trigger": false,
      "taf_trigger": false,
      "metar": "METAR EDDS 281650Z AUTO VRB01KT CAVOK M00/M03 Q1025 NOSIG",
      "taf": "TAF EDDS 281100Z 2812/2912 06005KT CAVOK"
    },
    {
      "icao": "EDFH",
      "alert": "OK",
      "vis_m": 9999,
      "fzfg": false,
      "metar_trigger": false,
      "taf_trigger": false,
      "metar": "METAR EDFH 281650Z 08010KT CAVOK M01/M04 Q1026",
      "taf": "TAF EDFH 281100Z 2812/2912 09008KT CAVOK"
    },
    {
      "icao": "EDJA",
      "alert": "OK",
      "vis_m": 9999,
      "fzfg": false,
      "metar_trigger": false,
      "taf_trigger": false,
      "metar": "METAR EDJA 281650Z 06010KT 9999 BKN006 M03/M04 Q1025",
      "taf": ""
    },
    {
      "icao": "EDLW",
      "alert": "OK",
      "vis_m": 300,
      "fzfg": true,
      "metar_trigger": false,
      "taf_trigger": false,
      "metar": "METAR EDLW 281650Z 01003KT 0300 R06/0400N FZFG VV/// M03/M03 Q1030",
      "taf": ""
    },
    {
      "icao": "EDNY",
      "alert": "OK",
      "vis_m": 9999,
      "fzfg": false,
      "metar_trigger": false,
      "taf_trigger": false,
      "metar": "METAR EDNY 281650Z AUTO 03006KT 9999 // BKN015/// M01/M03 Q1025",
      "taf": "TAF EDNY 281400Z 2815/2824 04008KT CAVOK"
    },
    {
      "icao": "EDSB",
      "alert": "OK",
      "vis_m": 9999,
      "fzfg": false,
      "metar_trigger": false,
      "taf_trigger": false,
      "metar": "METAR EDSB 281650Z 04019KT CAVOK 03/M01 Q1026",
      "taf": "TAF EDSB 281100Z 2812/2912 VRB03KT CAVOK"
    },
    {
      "icao": "EETN",
      "alert": "OK",
      "vis_m": 9000,
      "fzfg": false,
      "metar_trigger": false,
      "taf_trigger": false,
      "metar": "METAR EETN 281650Z 29005KT 9000 -SHSN FEW022CB BKN039 00/M04 Q1006 NOSIG",
      "taf": "TAF EETN 281130Z 2812/2912 33016KT 9999 FEW030"
    },
    {
      "icao": "EFTU",
      "alert": "OK",
      "vis_m": 9999,
      "fzfg": false,
      "metar_trigger": false,
      "taf_trigger": false,
      "metar": "METAR EFTU 281650Z AUTO 27008KT 9999 BKN028 01/M01 Q1004",
      "taf": "TAF EFTU 281426Z 2815/2915 30008KT 9999 BKN025"
    },
    {
      "icao": "EGBB",
      "alert": "OK",
      "vis_m": 9999,
      "fzfg": false,
      "metar_trigger": false,
      "taf_trigger": false,
      "metar": "METAR EGBB 281620Z 05007KT 9999 OVC014 05/02 Q1032",
      "taf": "TAF EGBB 281657Z 2818/2918 07008KT 9999 BKN018"
    },
    {
      "icao": "EGGP",
      "alert": "OK",
      "vis_m": 9999,
      "fzfg": false,
      "metar_trigger": false,
      "taf_trigger": false,
      "metar": "METAR EGGP 281650Z 08006KT 9999 BKN022 05/01 Q1033",
      "taf": "TAF EGGP 281654Z 2818/2918 08008KT 9999 BKN020"
    },
    {
      "icao": "EGGW",
      "alert": "OK",
      "vis_m": 9999,
      "fzfg": false,
      "metar_trigger": false,
      "taf_trigger": false,
      "metar": "METAR EGGW 281650Z AUTO 06012KT 9999 OVC014 05/02 Q1030",
      "taf": "TAF EGGW 281655Z 2818/2918 06010KT 9999 SCT016"
    },
    {
      "icao": "EGKK",
      "alert": "OK",
      "vis_m": 9999,
      "fzfg": false,
      "metar_trigger": false,
      "taf_trigger": false,
      "metar": "METAR EGKK 281650Z 05012KT 020V090 9999 BKN021 07/03 Q1030",
      "taf": "TAF EGKK 281701Z 2818/2924 04009KT 9999 BKN022"
    },
    {
      "icao": "EGNM",
      "alert": "OK",
      "vis_m": 9999,
      "fzfg": false,
      "metar_trigger": false,
      "taf_trigger": false,
      "metar": "METAR EGNM 281650Z 07006KT 030V090 9999 OVC016 05/02 Q1033",
      "taf": "TAF EGNM 281655Z 2818/2918 04007KT 9999 BKN018"
    },
    {
      "icao": "EGPD",
      "alert": "OK",
      "vis_m": 9999,
      "fzfg": false,
      "metar_trigger": false,
      "taf_trigger": false,
      "metar": "METAR EGPD 281650Z COR AUTO 27005KT 9999 OVC018 03/M00 Q1035 NOSIG",
      "taf": "TAF EGPD 281655Z 2818/2918 29005KT 9999 SCT018"
    },
    {
      "icao": "EGPF",
      "alert": "OK",
      "vis_m": 9999,
      "fzfg": false,
      "metar_trigger": false,
      "taf_trigger": false,
      "metar": "METAR EGPF 281650Z AUTO 05006KT 9999 OVC021 05/02 Q1035",
      "taf": "TAF EGPF 281656Z 2818/2918 05004KT 9999 SCT025"
    },
    {
      "icao": "EHBK",
      "alert": "OK",
      "vis_m": 9999,
      "fzfg": false,
      "metar_trigger": false,
      "taf_trigger": false,
      "metar": "METAR EHBK 281655Z AUTO 04006KT 9999 NCD M01/M02 Q1029 NOSIG",
      "taf": "TAF EHBK 281119Z 2812/2918 05008KT CAVOK"
    },
    {
      "icao": "EHEH",
      "alert": "OK",
      "vis_m": 9999,
      "fzfg": false,
      "metar_trigger": false,
      "taf_trigger": false,
      "metar": "METAR EHEH 281655Z AUTO 05004KT 340V090 9999 NCD 01/M01 Q1030 BLU NOSIG RMK TREND REMOTE BY EHWX",
      "taf": "TAF EHEH 281146Z 2812/2918 06007KT CAVOK"
    },
    {
      "icao": "EKBI",
      "alert": "OK",
      "vis_m": 9999,
      "fzfg": false,
      "metar_trigger": false,
      "taf_trigger": false,
      "metar": "METAR EKBI 281650Z AUTO 27010KT 9999 FEW015/// 03/02 Q1024",
      "taf": "TAF EKBI 281427Z 2815/2915 24010KT CAVOK"
    },
    {
      "icao": "EKCH",
      "alert": "OK",
      "vis_m": 9999,
      "fzfg": false,
      "metar_trigger": false,
      "taf_trigger": false,
      "metar": "METAR EKCH 281650Z AUTO 26013KT 9999 OVC017/// 04/M00 Q1021 NOSIG",
      "taf": "TAF EKCH 281427Z 2815/2915 27012KT CAVOK"
    },
    {
      "icao": "ENAL",
      "alert": "OK",
      "vis_m": 9999,
      "fzfg": false,
      "metar_trigger": false,
      "taf_trigger": false,
      "metar": "METAR ENAL 281650Z 31014KT 9999 -RA FEW004 SCT019 BKN036 06/04 Q1023",
      "taf": ""
    },
    {
      "icao": "ENBR",
      "alert": "OK",
      "vis_m": 9999,
      "fzfg": false,
      "metar_trigger": false,
      "taf_trigger": false,
      "metar": "METAR ENBR 281650Z 11003KT 050V140 9999 SCT020 BKN030 02/01 Q1027 TEMPO 4000 -SHRASN VV012 RMK WIND 1200FT 30009KT",
      "taf": "TAF ENBR 281100Z 2812/2912 VRB05KT 9999 -SHRA FEW015TCU BKN030"
    },
    {
      "icao": "ENGM",
      "alert": "OK",
      "vis_m": 9999,
      "fzfg": false,
      "metar_trigger": false,
      "taf_trigger": false,
      "metar": "METAR ENGM 281650Z 24004KT CAVOK M06/M08 Q1017 NOSIG",
      "taf": "TAF ENGM 281100Z 2812/2912 VRB03KT CAVOK"
    },
    {
      "icao": "ENHD",
      "alert": "OK",
      "vis_m": 9999,
      "fzfg": false,
      "metar_trigger": false,
      "taf_trigger": false,
      "metar": "METAR ENHD 281650Z VRB02KT 9999 SCT022 BKN030 03/01 Q1028",
      "taf": "TAF ENHD 281400Z 2815/2823 36015KT 9999 SCT040"
    },
    {
      "icao": "ENTC",
      "alert": "OK",
      "vis_m": 9999,
      "fzfg": false,
      "metar_trigger": false,
      "taf_trigger": false,
      "metar": "METAR ENTC 281650Z 35017G28KT 9999 -SHSN FEW015 BKN024 M03/M04 Q0995 TEMPO 35015KT 0800 SHSN VV008 RMK WIND 2600FT /////KT",
      "taf": ""
    },
    {
      "icao": "ENTO",
      "alert": "OK",
      "vis_m": 9999,
      "fzfg": false,
      "metar_trigger": false,
      "taf_trigger": false,
      "metar": "METAR ENTO 281650Z VRB02KT CAVOK 01/M08 Q1019 NOSIG",
      "taf": "TAF ENTO 281100Z 2812/2912 24008KT CAVOK"
    },
    {
      "icao": "ENVA",
      "alert": "OK",
      "vis_m": 9999,
      "fzfg": false,
      "metar_trigger": false,
      "taf_trigger": false,
      "metar": "METAR ENVA 281650Z 30026G37KT 9999 -DZRA FEW021CB BKN028 05/02 Q1013 RMK WIND 670FT 31041KT",
      "taf": ""
    },
    {
      "icao": "ENZV",
      "alert": "OK",
      "vis_m": 9999,
      "fzfg": false,
      "metar_trigger": false,
      "taf_trigger": false,
      "metar": "METAR ENZV 281650Z 34007KT CAVOK 03/M00 Q1028 NOSIG",
      "taf": "TAF ENZV 281100Z 2812/2912 35008KT CAVOK"
    },
    {
      "icao": "EPGD",
      "alert": "OK",
      "vis_m": 9999,
      "fzfg": false,
      "metar_trigger": false,
      "taf_trigger": false,
      "metar": "METAR EPGD 281700Z 30012KT CAVOK M00/M03 Q1019",
      "taf": "TAF EPGD 281130Z 2812/2912 34018KT 9999 BKN025"
    },
    {
      "icao": "EPKK",
      "alert": "OK",
      "vis_m": 9999,
      "fzfg": false,
      "metar_trigger": false,
      "taf_trigger": false,
      "metar": "METAR EPKK 281700Z 26012KT 9999 BKN024 OVC029 M00/M04 Q1021",
      "taf": "TAF EPKK 281430Z 2815/2915 27014KT 9999 SCT027 OVC035"
    },
    {
      "icao": "EPKT",
      "alert": "OK",
      "vis_m": 9999,
      "fzfg": false,
      "metar_trigger": false,
      "taf_trigger": false,
      "metar": "METAR EPKT 281700Z 28011KT 9999 BKN016 OVC019 M01/M03 Q1021",
      "taf": "TAF EPKT 281130Z 2812/2912 29012KT 9999 BKN036"
    },
    {
      "icao": "EPLB",
      "alert": "OK",
      "vis_m": 9999,
      "fzfg": false,
      "metar_trigger": false,
      "taf_trigger": false,
      "metar": "METAR EPLB 281700Z 30017KT 9999 SCT035 OVC045 01/M03 Q1013",
      "taf": "TAF EPLB 281130Z 2812/2912 30015KT 9999 BKN024"
    },
    {
      "icao": "EPMO",
      "alert": "OK",
      "vis_m": 9999,
      "fzfg": false,
      "metar_trigger": false,
      "taf_trigger": false,
      "metar": "METAR EPMO 281700Z 29016KT 9999 BKN031 02/M02 Q1017",
      "taf": "TAF EPMO 281130Z 2812/2912 30015KT 9999 BKN035"
    },
    {
      "icao": "EPPO",
      "alert": "OK",
      "vis_m": 9999,
      "fzfg": false,
      "metar_trigger": false,
      "taf_trigger": false,
      "metar": "METAR EPPO 281700Z 29010KT CAVOK M00/M03 Q1023",
      "taf": "TAF EPPO 281130Z 2812/2912 31010KT CAVOK"
    },
    {
      "icao": "EPRA",
      "alert": "OK",
      "vis_m": 9999,
      "fzfg": false,
      "metar_trigger": false,
      "taf_trigger": false,
      "metar": "METAR EPRA 281700Z 31019G32KT 9999 BKN032 01/M04 Q1016",
      "taf": "TAF EPRA 281430Z 2815/2824 29014KT 9999 BKN040"
    },
    {
      "icao": "EPRZ",
      "alert": "OK",
      "vis_m": 9999,
      "fzfg": false,
      "metar_trigger": false,
      "taf_trigger": false,
      "metar": "METAR EPRZ 281700Z 29019KT 9999 BKN036 01/M05 Q1016",
      "taf": "TAF EPRZ 281130Z 2812/2912 28014KT 9999 BKN020"
    },
    {
      "icao": "EPSC",
      "alert": "OK",
      "vis_m": 9999,
      "fzfg": false,
      "metar_trigger": false,
      "taf_trigger": false,
      "metar": "METAR EPSC 281700Z 22003KT CAVOK M02/M03 Q1024",
      "taf": "TAF EPSC 281130Z 2812/2912 27008KT CAVOK"
    },
    {
      "icao": "EPSY",
      "alert": "OK",
      "vis_m": 9999,
      "fzfg": false,
      "metar_trigger": false,
      "taf_trigger": false,
      "metar": "METAR EPSY 281700Z 32014KT 290V010 9999 BKN022 02/M03 Q1015",
      "taf": "TAF EPSY 281430Z 2815/2824 32012KT 9999 BKN030"
    },
    {
      "icao": "EPWA",
      "alert": "OK",
      "vis_m": 9999,
      "fzfg": false,
      "metar_trigger": false,
      "taf_trigger": false,
      "metar": "METAR EPWA 281700Z 29017KT 9999 BKN031 02/M02 Q1017 NOSIG",
      "taf": "TAF EPWA 281430Z 2815/2915 30013KT 9999 BKN043"
    },
    {
      "icao": "EPWR",
      "alert": "OK",
      "vis_m": 9999,
      "fzfg": false,
      "metar_trigger": false,
      "taf_trigger": false,
      "metar": "METAR EPWR 281700Z 28012KT 9999 FEW030 M00/M02 Q1024",
      "taf": "TAF EPWR 281430Z 2815/2915 29012KT CAVOK"
    },
    {
      "icao": "ESGG",
      "alert": "OK",
      "vis_m": 9000,
      "fzfg": false,
      "metar_trigger": false,
      "taf_trigger": false,
      "metar": "METAR ESGG 281650Z VRB04KT 9000 SCT007 02/02 Q1018",
      "taf": ""
    },
    {
      "icao": "ESKN",
      "alert": "OK",
      "vis_m": 9999,
      "fzfg": false,
      "metar_trigger": false,
      "taf_trigger": false,
      "metar": "METAR ESKN 281650Z 27010KT CAVOK 01/M05 Q1014",
      "taf": "TAF ESKN 281430Z 2815/2915 27012KT CAVOK"
    },
    {
      "icao": "ESMS",
      "alert": "OK",
      "vis_m": 9999,
      "fzfg": false,
      "metar_trigger": false,
      "taf_trigger": false,
      "metar": "METAR ESMS 281650Z 26011KT CAVOK 02/M03 Q1020",
      "taf": "TAF ESMS 281427Z 2815/2915 29010KT CAVOK"
    },
    {
      "icao": "ESSA",
      "alert": "OK",
      "vis_m": 9999,
      "fzfg": false,
      "metar_trigger": false,
      "taf_trigger": false,
      "metar": "METAR ESSA 281650Z 27010KT CAVOK 00/M06 Q1011 NOSIG",
      "taf": "TAF ESSA 281430Z 2815/2915 25008KT CAVOK"
    },
    {
      "icao": "EYKA",
      "alert": "OK",
      "vis_m": 9999,
      "fzfg": false,
      "metar_trigger": false,
      "taf_trigger": false,
      "metar": "METAR EYKA 281650Z 31007G17KT 210V010 CAVOK 00/M07 Q1010",
      "taf": "TAF EYKA 281701Z 2818/2918 30010KT 9000 SCT030"
    },
    {
      "icao": "EYPA",
      "alert": "OK",
      "vis_m": 9999,
      "fzfg": false,
      "metar_trigger": false,
      "taf_trigger": false,
      "metar": "METAR EYPA 281650Z VRB07G19KT 9999 -SHRA FEW015 SCT022CB 03/00 Q1014",
      "taf": "TAF EYPA 281701Z 2818/2918 31010KT 9000 SCT025"
    },
    {
      "icao": "EYVI",
      "alert": "OK",
      "vis_m": 9999,
      "fzfg": false,
      "metar_trigger": false,
      "taf_trigger": false,
      "metar": "METAR EYVI 281650Z 33012KT 9999 BKN033 M01/M06 Q1006 NOSIG",
      "taf": "TAF EYVI 281701Z 2818/2918 31012KT 9000 BKN030"
    },
    {
      "icao": "GCFV",
      "alert": "OK",
      "vis_m": 9999,
      "fzfg": false,
      "metar_trigger": false,
      "taf_trigger": false,
      "metar": "METAR GCFV 281700Z 34009KT 310V010 9999 FEW030 SCT040 20/09 Q1018",
      "taf": "TAF GCFV 281400Z 2815/2915 32008KT 9999 FEW030 TX21/2914Z TN14/2906Z"
    },
    {
      "icao": "GCLP",
      "alert": "OK",
      "vis_m": 9999,
      "fzfg": false,
      "metar_trigger": false,
      "taf_trigger": false,
      "metar": "METAR GCLP 281700Z 14004KT 080V200 9999 SCT035 BKN045 20/14 Q1018 NOSIG",
      "taf": "TAF GCLP 281400Z 2815/2915 35006KT 9999 BKN030 TX21/2914Z TN15/2906Z"
    },
    {
      "icao": "GCTS",
      "alert": "OK",
      "vis_m": 9999,
      "fzfg": false,
      "metar_trigger": false,
      "taf_trigger": false,
      "metar": "METAR GCTS 281700Z VRB02KT 9999 BKN040 19/12 Q1018 NOSIG",
      "taf": "TAF GCTS 281400Z 2815/2915 13005KT 9999 BKN030 TX23/2914Z TN16/2906Z"
    },
    {
      "icao": "GMAD",
      "alert": "OK",
      "vis_m": 9999,
      "fzfg": false,
      "metar_trigger": false,
      "taf_trigger": false,
      "metar": "METAR GMAD 281700Z 26010KT 9999 SCT016 SCT100 16/11 Q1016 NOSIG",
      "taf": "TAF GMAD 281100Z 2812/2918 26008KT 6000 BKN020TCU BKN080"
    },
    {
      "icao": "GMMN",
      "alert": "OK",
      "vis_m": 2000,
      "fzfg": false,
      "metar_trigger": false,
      "taf_trigger": false,
      "metar": "SPECI GMMN 281704Z 24018KT 2000 RA BKN016 BKN020TCU 13/11 Q1011 NOSIG",
      "taf": "TAF GMMN 281100Z 2812/2918 22018KT 9999 SCT026"
    },
    {
      "icao": "GMMX",
      "alert": "OK",
      "vis_m": 9999,
      "fzfg": false,
      "metar_trigger": false,
      "taf_trigger": false,
      "metar": "METAR GMMX 281700Z 30010KT 270V330 9999 FEW013 BKN026 12/09 Q1015 NOSIG",
      "taf": "TAF GMMX 281100Z 2812/2918 24010KT 6000 SCT013 BKN020"
    },
    {
      "icao": "HEGN",
      "alert": "OK",
      "vis_m": 9999,
      "fzfg": false,
      "metar_trigger": false,
      "taf_trigger": false,
      "metar": "METAR HEGN 281700Z 28006KT CAVOK 19/08 Q1014 NOSIG",
      "taf": "TAF HEGN 281700Z 2818/2924 28010KT CAVOK"
    },
    {
      "icao": "HEMA",
      "alert": "OK",
      "vis_m": 9999,
      "fzfg": false,
      "metar_trigger": false,
      "taf_trigger": false,
      "metar": "METAR HEMA 281700Z 06004KT CAVOK 21/07 Q1012 NOSIG",
      "taf": "TAF HEMA 281700Z 2818/2924 29010KT CAVOK"
    },
    {
      "icao": "HESH",
      "alert": "OK",
      "vis_m": 9999,
      "fzfg": false,
      "metar_trigger": false,
      "taf_trigger": false,
      "metar": "METAR HESH 281700Z 07005KT CAVOK 20/09 Q1012 NOSIG",
      "taf": "TAF HESH 281700Z 2818/2924 35008KT CAVOK"
    },
    {
      "icao": "HESX",
      "alert": "OK",
      "vis_m": 9999,
      "fzfg": false,
      "metar_trigger": false,
      "taf_trigger": false,
      "metar": "METAR HESX 281700Z 30011KT CAVOK 15/06 Q1013 NOSIG",
      "taf": "TAF HESX 281700Z 2818/2924 30010KT 9999 SCT025"
    },
    {
      "icao": "LATI",
      "alert": "OK",
      "vis_m": 9999,
      "fzfg": false,
      "metar_trigger": false,
      "taf_trigger": false,
      "metar": "METAR LATI 281650Z VRB04KT CAVOK 07/01 Q1015 NOSIG",
      "taf": "TAF LATI 281700Z 2818/2918 VRB05KT CAVOK TX15/2912Z TNM01/2905Z"
    },
    {
      "icao": "LBPD",
      "alert": "OK",
      "vis_m": 9999,
      "fzfg": false,
      "metar_trigger": false,
      "taf_trigger": false,
      "metar": "METAR LBPD 281700Z AUTO 28021G31KT 9999 NCD 03/M05 Q1014 NOSIG",
      "taf": "TAF LBPD 281100Z 2812/2912 30028G40KT 9999 BKN050"
    },
    {
      "icao": "LBSF",
      "alert": "OK",
      "vis_m": 9999,
      "fzfg": false,
      "metar_trigger": false,
      "taf_trigger": false,
      "metar": "METAR LBSF 281700Z AUTO 28018KT 9999 FEW033/// 00/M06 Q1016 WS ALL RWY NOSIG",
      "taf": "TAF LBSF 281100Z 2812/2912 29030G42KT 9999 BKN030"
    },
    {
      "icao": "LBWN",
      "alert": "OK",
      "vis_m": 9999,
      "fzfg": false,
      "metar_trigger": false,
      "taf_trigger": false,
      "metar": "METAR LBWN 281700Z AUTO 28019G29KT 9999 NSC 03/M02 Q1010 NOSIG",
      "taf": "TAF LBWN 281100Z 2812/2912 27014KT 9999 SCT025 SCT045"
    },
    {
      "icao": "LCLK",
      "alert": "OK",
      "vis_m": 9999,
      "fzfg": false,
      "metar_trigger": false,
      "taf_trigger": false,
      "metar": "METAR LCLK 281700Z VRB01KT CAVOK 10/04 Q1007 NOSIG",
      "taf": "TAF LCLK 281130Z 2812/2912 21012KT 9999 FEW030 SCT060"
    },
    {
      "icao": "LCPH",
      "alert": "OK",
      "vis_m": 9999,
      "fzfg": false,
      "metar_trigger": false,
      "taf_trigger": false,
      "metar": "METAR LCPH 281700Z 30007KT 250V020 9999 SCT040 BKN050 15/07 Q1008 NOSIG",
      "taf": "TAF LCPH 281130Z 2812/2912 30014KT 9999 FEW030 SCT060"
    },
    {
      "icao": "LEAL",
      "alert": "OK",
      "vis_m": 9999,
      "fzfg": false,
      "metar_trigger": false,
      "taf_trigger": false,
      "metar": "METAR LEAL 281700Z 07013KT 9999 FEW015 BKN025 16/15 Q1014 NOSIG",
      "taf": "TAF LEAL 281100Z 2812/2912 06014KT 9999 BKN020 TX17/2813Z TN08/2906Z"
    },
    {
      "icao": "LEBB",
      "alert": "OK",
      "vis_m": 9999,
      "fzfg": false,
      "metar_trigger": false,
      "taf_trigger": false,
      "metar": "METAR LEBB 281700Z 11005KT 050V140 CAVOK 13/08 Q1018 NOSIG",
      "taf": "TAF LEBB 281100Z 2812/2912 11008KT 9999 FEW040 TX15/2814Z TN04/2908Z"
    },
    {
      "icao": "LEBL",
      "alert": "OK",
      "vis_m": 9999,
      "fzfg": false,
      "metar_trigger": false,
      "taf_trigger": false,
      "metar": "METAR LEBL 281700Z 07008KT 040V100 9999 FEW014 SCT024 14/12 Q1018 NOSIG",
      "taf": "TAF LEBL 281100Z 2812/2912 07012KT 9999 FEW020 TX15/2812Z TN08/2907Z"
    },
    {
      "icao": "LECH",
      "alert": "OK",
      "vis_m": 9999,
      "fzfg": false,
      "metar_trigger": false,
      "taf_trigger": false,
      "metar": "METAR LECH 281700Z AUTO 03009KT 360V060 9999 BKN014 BKN056 10/09 Q1018",
      "taf": ""
    },
    {
      "icao": "LEMD",
      "alert": "OK",
      "vis_m": 9999,
      "fzfg": false,
      "metar_trigger": false,
      "taf_trigger": false,
      "metar": "METAR LEMD 281700Z VRB02KT 9999 SCT050 BKN066 10/03 Q1015 NOSIG",
      "taf": ""
    },
    {
      "icao": "LEMG",
      "alert": "OK",
      "vis_m": 9999,
      "fzfg": false,
      "metar_trigger": false,
      "taf_trigger": false,
      "metar": "METAR LEMG 281700Z 28005KT 9999 FEW080 12/10 Q1012 NOSIG",
      "taf": ""
    },
    {
      "icao": "LEVC",
      "alert": "OK",
      "vis_m": 4000,
      "fzfg": false,
      "metar_trigger": false,
      "taf_trigger": false,
      "metar": "METAR LEVC 281700Z 32011KT 4000 SHRA TS FEW015 SCT036CB BKN044 09/09 Q1017 NOSIG",
      "taf": "TAF LEVC 281100Z 2812/2912 05010KT 9999 FEW015 SCT020 BKN025 TX14/2813Z TN06/2906Z"
    },
    {
      "icao": "LEXJ",
      "alert": "OK",
      "vis_m": 9999,
      "fzfg": false,
      "metar_trigger": false,
      "taf_trigger": false,
      "metar": "METAR LEXJ 281700Z 04003KT 010V100 CAVOK 12/10 Q1018",
      "taf": "TAF LEXJ 281400Z 2815/2915 20009KT CAVOK TX17/2815Z TN07/2906Z"
    },
    {
      "icao": "LEZG",
      "alert": "OK",
      "vis_m": 9999,
      "fzfg": false,
      "metar_trigger": false,
      "taf_trigger": false,
      "metar": "METAR LEZG 281700Z 01004KT 9999 FEW065 11/10 Q1018 NOSIG",
      "taf": "TAF LEZG 281100Z 2812/2912 28006KT 9999 BKN030 OVC050 TX10/2814Z TN06/2906Z"
    },
    {
      "icao": "LEZL",
      "alert": "OK",
      "vis_m": 9999,
      "fzfg": false,
      "metar_trigger": false,
      "taf_trigger": false,
      "metar": "METAR LEZL 281700Z 05004KT CAVOK 14/09 Q1012 NOSIG",
      "taf": "TAF LEZL 281400Z 2815/2915 05006KT 9999 FEW030 TX17/2815Z TN05/2906Z"
    },
    {
      "icao": "LFBD",
      "alert": "OK",
      "vis_m": 9999,
      "fzfg": false,
      "metar_trigger": false,
      "taf_trigger": false,
      "metar": "METAR LFBD 281700Z AUTO 35005KT 330V040 CAVOK 09/03 Q1020 NOSIG",
      "taf": "TAF LFBD 281100Z 2812/2918 04005KT CAVOK TX11/2815Z TN01/2906Z"
    },
    {
      "icao": "LFLL",
      "alert": "OK",
      "vis_m": 9000,
      "fzfg": false,
      "metar_trigger": false,
      "taf_trigger": false,
      "metar": "METAR LFLL 281700Z 32003KT 9000 FEW003 OVC004 M01/M02 Q1023 NOSIG",
      "taf": "TAF LFLL 281100Z 2812/2918 VRB03KT 6000 OVC006"
    },
    {
      "icao": "LFLS",
      "alert": "OK",
      "vis_m": 9000,
      "fzfg": false,
      "metar_trigger": false,
      "taf_trigger": false,
      "metar": "METAR LFLS 281700Z AUTO 01006KT 9000 NSC M00/M01 Q1021 NOSIG",
      "taf": "TAF LFLS 281400Z 2815/2915 03007KT CAVOK"
    },
    {
      "icao": "LFMN",
      "alert": "OK",
      "vis_m": 9999,
      "fzfg": false,
      "metar_trigger": false,
      "taf_trigger": false,
      "metar": "METAR LFMN 281700Z 06010KT CAVOK 11/05 Q1019 NOSIG",
      "taf": "TAF LFMN 281400Z 2815/2921 09008KT CAVOK"
    },
    {
      "icao": "LFOB",
      "alert": "OK",
      "vis_m": 9999,
      "fzfg": false,
      "metar_trigger": false,
      "taf_trigger": false,
      "metar": "METAR LFOB 281700Z AUTO 03005KT 9999 OVC015 01/M01 Q1027",
      "taf": ""
    },
    {
      "icao": "LFPO",
      "alert": "OK",
      "vis_m": 9999,
      "fzfg": false,
      "metar_trigger": false,
      "taf_trigger": false,
      "metar": "METAR LFPO 281700Z AUTO 04011KT 9999 OVC011 01/M01 Q1027",
      "taf": ""
    },
    {
      "icao": "LFSB",
      "alert": "OK",
      "vis_m": 6000,
      "fzfg": false,
      "metar_trigger": false,
      "taf_trigger": false,
      "metar": "METAR LFSB 281700Z AUTO VRB03KT 6000 OVC004 M01/M02 Q1025 TEMPO 3000 BR",
      "taf": "TAF LFSB 281100Z 2812/2912 34006KT 6000 BKN015"
    },
    {
      "icao": "LGAV",
      "alert": "OK",
      "vis_m": 9999,
      "fzfg": false,
      "metar_trigger": false,
      "taf_trigger": false,
      "metar": "METAR LGAV 281650Z 32006KT CAVOK 12/M01 Q1011 NOSIG",
      "taf": "TAF LGAV 281700Z 2818/2918 34012KT 9999 FEW020"
    },
    {
      "icao": "LGTS",
      "alert": "OK",
      "vis_m": 9999,
      "fzfg": false,
      "metar_trigger": false,
      "taf_trigger": false,
      "metar": "METAR LGTS 281650Z 23034KT 9999 FEW025 08/M04 Q1013 NOSIG",
      "taf": "TAF LGTS 281700Z 2818/2918 33015G25KT 9999 FEW030"
    },
    {
      "icao": "LHBP",
      "alert": "OK",
      "vis_m": 9999,
      "fzfg": false,
      "metar_trigger": false,
      "taf_trigger": false,
      "metar": "METAR LHBP 281700Z 31016KT CAVOK 02/M06 Q1021 NOSIG",
      "taf": "TAF LHBP 281115Z 2812/2912 31020G30KT 9999 FEW040"
    },
    {
      "icao": "LHDC",
      "alert": "OK",
      "vis_m": 9999,
      "fzfg": false,
      "metar_trigger": false,
      "taf_trigger": false,
      "metar": "METAR LHDC 281645Z AUTO VRB01KT CAVOK 02/M05 Q1019",
      "taf": "TAF LHDC 281115Z 2812/2821 30014KT CAVOK"
    },
    {
      "icao": "LIBD",
      "alert": "OK",
      "vis_m": 9999,
      "fzfg": false,
      "metar_trigger": false,
      "taf_trigger": false,
      "metar": "METAR LIBD 281650Z 27007KT CAVOK 10/06 Q1017",
      "taf": "TAF LIBD 281100Z 2812/2912 28012KT CAVOK"
    },
    {
      "icao": "LIBG",
      "alert": "OK",
      "vis_m": 9999,
      "fzfg": false,
      "metar_trigger": false,
      "taf_trigger": false,
      "metar": "METAR LIBG 281650Z 34009KT CAVOK 12/10 Q1017",
      "taf": "TAF LIBG 281400Z 2815/2824 35013KT CAVOK"
    },
    {
      "icao": "LIBP",
      "alert": "OK",
      "vis_m": 9999,
      "fzfg": false,
      "metar_trigger": false,
      "taf_trigger": false,
      "metar": "METAR LIBP 281650Z AUTO VRB02KT 9999 NCD 08/06 Q1021",
      "taf": "TAF LIBP 281100Z 2812/2912 VRB05KT CAVOK"
    },
    {
      "icao": "LIBR",
      "alert": "OK",
      "vis_m": 9999,
      "fzfg": false,
      "metar_trigger": false,
      "taf_trigger": false,
      "metar": "METAR LIBR 281650Z 33017KT 9999 FEW015 14/10 Q1016",
      "taf": "TAF LIBR 281100Z 2812/2912 33013KT 9999 FEW025"
    },
    {
      "icao": "LICA",
      "alert": "OK",
      "vis_m": 9999,
      "fzfg": false,
      "metar_trigger": false,
      "taf_trigger": false,
      "metar": "METAR LICA 281650Z AUTO 28007KT 9999 FEW037/// 11/08 Q1018",
      "taf": "TAF LICA 281100Z 2812/2912 27010KT CAVOK"
    },
    {
      "icao": "LICC",
      "alert": "OK",
      "vis_m": 9999,
      "fzfg": false,
      "metar_trigger": false,
      "taf_trigger": false,
      "metar": "METAR LICC 281650Z VRB02KT CAVOK 14/11 Q1017",
      "taf": "TAF LICC 281100Z 2812/2912 VRB06KT 9999 FEW030"
    },
    {
      "icao": "LICJ",
      "alert": "OK",
      "vis_m": 9999,
      "fzfg": false,
      "metar_trigger": false,
      "taf_trigger": false,
      "metar": "METAR LICJ 281650Z AUTO 06008KT 9999 NCD 13/08 Q1019",
      "taf": "TAF LICJ 281100Z 2812/2912 04010KT CAVOK"
    },
    {
      "icao": "LIMC",
      "alert": "OK",
      "vis_m": 9999,
      "fzfg": false,
      "metar_trigger": false,
      "taf_trigger": false,
      "metar": "METAR LIMC 281650Z 10003KT CAVOK 06/M00 Q1021 NOSIG",
      "taf": "TAF LIMC 281100Z 2812/2918 VRB05KT CAVOK"
    },
    {
      "icao": "LIME",
      "alert": "OK",
      "vis_m": 9999,
      "fzfg": false,
      "metar_trigger": false,
      "taf_trigger": false,
      "metar": "METAR LIME 281650Z 02004KT CAVOK 07/M00 Q1020 NOSIG",
      "taf": "TAF LIME 281100Z 2812/2912 VRB05KT CAVOK"
    },
    {
      "icao": "LIMF",
      "alert": "OK",
      "vis_m": 9999,
      "fzfg": false,
      "metar_trigger": false,
      "taf_trigger": false,
      "metar": "METAR LIMF 281650Z 06003KT CAVOK 07/M00 Q1020",
      "taf": "TAF LIMF 281100Z 2812/2912 VRB05KT CAVOK"
    },
    {
      "icao": "LIMJ",
      "alert": "OK",
      "vis_m": 9999,
      "fzfg": false,
      "metar_trigger": false,
      "taf_trigger": false,
      "metar": "METAR LIMJ 281650Z 02005KT 9999 SCT020 11/09 Q1020",
      "taf": "TAF LIMJ 281100Z 2812/2912 03012KT CAVOK"
    },
    {
      "icao": "LIPE",
      "alert": "OK",
      "vis_m": 9999,
      "fzfg": false,
      "metar_trigger": false,
      "taf_trigger": false,
      "metar": "METAR LIPE 281650Z 05003KT CAVOK 06/04 Q1021",
      "taf": "TAF LIPE 281100Z 2812/2912 VRB06KT CAVOK"
    },
    {
      "icao": "LIPH",
      "alert": "OK",
      "vis_m": 9999,
      "fzfg": false,
      "metar_trigger": false,
      "taf_trigger": false,
      "metar": "METAR LIPH 281650Z 02003KT CAVOK 08/02 Q1022",
      "taf": "TAF LIPH 281100Z 2812/2912 VRB05KT CAVOK"
    },
    {
      "icao": "LIPQ",
      "alert": "OK",
      "vis_m": 9999,
      "fzfg": false,
      "metar_trigger": false,
      "taf_trigger": false,
      "metar": "METAR LIPQ 281650Z AUTO 10004KT 9999 NCD 05/M01 Q1022",
      "taf": "TAF LIPQ 281100Z 2812/2912 VRB05KT CAVOK"
    },
    {
      "icao": "LIPR",
      "alert": "OK",
      "vis_m": 9999,
      "fzfg": false,
      "metar_trigger": false,
      "taf_trigger": false,
      "metar": "METAR LIPR 281650Z VRB01KT CAVOK 05/03 Q1021",
      "taf": "TAF LIPR 281100Z 2812/2912 VRB06KT CAVOK"
    },
    {
      "icao": "LIPX",
      "alert": "OK",
      "vis_m": 9999,
      "fzfg": false,
      "metar_trigger": false,
      "taf_trigger": false,
      "metar": "METAR LIPX 281650Z 18003KT CAVOK 05/03 Q1021",
      "taf": "TAF LIPX 281100Z 2812/2912 VRB06KT CAVOK"
    },
    {
      "icao": "LIPY",
      "alert": "OK",
      "vis_m": 9999,
      "fzfg": false,
      "metar_trigger": false,
      "taf_trigger": false,
      "metar": "METAR LIPY 281650Z AUTO VRB01KT 9999 NCD 07/05 Q1021",
      "taf": "TAF LIPY 281100Z 2812/2912 VRB05KT CAVOK"
    },
    {
      "icao": "LIPZ",
      "alert": "OK",
      "vis_m": 9999,
      "fzfg": false,
      "metar_trigger": false,
      "taf_trigger": false,
      "metar": "METAR LIPZ 281650Z 04007KT CAVOK 06/03 Q1022 NOSIG",
      "taf": "TAF LIPZ 281100Z 2812/2918 VRB05KT CAVOK"
    },
    {
      "icao": "LIRF",
      "alert": "OK",
      "vis_m": 9999,
      "fzfg": false,
      "metar_trigger": false,
      "taf_trigger": false,
      "metar": "METAR LIRF 281650Z VRB01KT CAVOK 09/08 Q1019 NOSIG",
      "taf": "TAF LIRF 281100Z 2812/2918 02005KT CAVOK"
    },
    {
      "icao": "LIRN",
      "alert": "OK",
      "vis_m": 9999,
      "fzfg": false,
      "metar_trigger": false,
      "taf_trigger": false,
      "metar": "METAR LIRN 281650Z 34004KT 300V020 CAVOK 10/05 Q1018 NOSIG",
      "taf": "TAF LIRN 281100Z 2812/2912 VRB05KT CAVOK"
    },
    {
      "icao": "LIRP",
      "alert": "OK",
      "vis_m": 9999,
      "fzfg": false,
      "metar_trigger": false,
      "taf_trigger": false,
      "metar": "METAR LIRP 281645Z 06002KT CAVOK 09/04 Q1019 NOSIG",
      "taf": "TAF LIRP 281100Z 2812/2912 12005KT CAVOK"
    },
    {
      "icao": "LIRZ",
      "alert": "OK",
      "vis_m": 9999,
      "fzfg": false,
      "metar_trigger": false,
      "taf_trigger": false,
      "metar": "METAR LIRZ 281650Z AUTO 02004KT 9999 NCD 03/02 Q1020",
      "taf": "TAF LIRZ 281100Z 2812/2912 VRB05KT CAVOK"
    },
    {
      "icao": "LJLJ",
      "alert": "OK",
      "vis_m": 7000,
      "fzfg": false,
      "metar_trigger": false,
      "taf_trigger": false,
      "metar": "METAR LJLJ 281700Z 28003KT 250V330 7000 FEW003 OVC015 00/M00 Q1025 NOSIG",
      "taf": "TAF LJLJ 281700Z 2818/2918 VRB02KT 7000 FEW003 OVC012"
    },
    {
      "icao": "LKMT",
      "alert": "OK",
      "vis_m": 9999,
      "fzfg": false,
      "metar_trigger": false,
      "taf_trigger": false,
      "metar": "METAR LKMT 281700Z 36005KT 9999 BKN027 01/M04 Q1024 NOSIG",
      "taf": "TAF LKMT 281100Z 2812/2912 35010KT 9999 BKN043"
    },
    {
      "icao": "LKPR",
      "alert": "OK",
      "vis_m": 9999,
      "fzfg": false,
      "metar_trigger": false,
      "taf_trigger": false,
      "metar": "METAR LKPR 281700Z 27005KT CAVOK M02/M05 Q1026 NOSIG",
      "taf": "TAF LKPR 281400Z 2815/2921 28008KT CAVOK"
    },
    {
      "icao": "LLBG",
      "alert": "OK",
      "vis_m": 9999,
      "fzfg": false,
      "metar_trigger": false,
      "taf_trigger": false,
      "metar": "METAR LLBG 281650Z 26011KT 9999 FEW045 16/08 Q1011 NOSIG RMK SCT070",
      "taf": "TAF LLBG 281705Z 2818/2918 22012KT 9999 SCT035"
    },
    {
      "icao": "LMML",
      "alert": "OK",
      "vis_m": 9999,
      "fzfg": false,
      "metar_trigger": false,
      "taf_trigger": false,
      "metar": "METAR LMML 281645Z 31003KT 270V350 9999 FEW030 13/10 Q1018 NOSIG",
      "taf": "TAF LMML 281700Z 2818/2918 29007KT 9999 SCT019"
    },
    {
      "icao": "LOWW",
      "alert": "OK",
      "vis_m": 9999,
      "fzfg": false,
      "metar_trigger": false,
      "taf_trigger": false,
      "metar": "METAR LOWW 281650Z 33011KT CAVOK 02/M04 Q1026 NOSIG",
      "taf": "TAF LOWW 281415Z 2815/2921 32013KT 9999 FEW035 TX03/2815Z TNM04/2905Z"
    },
    {
      "icao": "LPFR",
      "alert": "OK",
      "vis_m": 4000,
      "fzfg": false,
      "metar_trigger": false,
      "taf_trigger": false,
      "metar": "METAR LPFR 281700Z 07008KT 4000 SHRA SCT012 FEW018CB SCT028 11/10 Q1011",
      "taf": ""
    },
    {
      "icao": "LPMA",
      "alert": "OK",
      "vis_m": 9999,
      "fzfg": false,
      "metar_trigger": false,
      "taf_trigger": false,
      "metar": "METAR LPMA 281700Z 33006KT 270V030 9999 SCT016 17/09 Q1018",
      "taf": ""
    },
    {
      "icao": "LPPR",
      "alert": "OK",
      "vis_m": 9999,
      "fzfg": false,
      "metar_trigger": false,
      "taf_trigger": false,
      "metar": "METAR LPPR 281700Z 01005KT 300V060 CAVOK 13/08 Q1015",
      "taf": "TAF LPPR 281100Z 2812/2912 08005KT CAVOK"
    },
    {
      "icao": "LPPS",
      "alert": "OK",
      "vis_m": 9999,
      "fzfg": false,
      "metar_trigger": false,
      "taf_trigger": false,
      "metar": "METAR LPPS 281700Z 35007KT 320V030 9999 SCT015 17/10 Q1018",
      "taf": "TAF LPPS 281100Z 2812/2918 34013KT 9999 SCT015"
    },
    {
      "icao": "LPPT",
      "alert": "OK",
      "vis_m": 9999,
      "fzfg": false,
      "metar_trigger": false,
      "taf_trigger": false,
      "metar": "METAR LPPT 281700Z 03007KT 010V070 9999 FEW028 13/08 Q1013",
      "taf": "TAF LPPT 281100Z 2812/2918 06015KT 9999 FEW020"
    },
    {
      "icao": "LQBK",
      "alert": "OK",
      "vis_m": 9999,
      "fzfg": false,
      "metar_trigger": false,
      "taf_trigger": false,
      "metar": "METAR LQBK 281700Z 33004KT CAVOK M01/M03 Q1025 NOSIG",
      "taf": "TAF LQBK 281700Z 2818/2918 18005KT CAVOK TX04/2913Z TNM05/2905Z"
    },
    {
      "icao": "LQSA",
      "alert": "OK",
      "vis_m": 9999,
      "fzfg": false,
      "metar_trigger": false,
      "taf_trigger": false,
      "metar": "METAR LQSA 281700Z 00000KT CAVOK M01/M05 Q1023 NOSIG",
      "taf": "TAF LQSA 281700Z 2818/2918 VRB02KT CAVOK TX04/2913Z TNM07/2905Z"
    },
    {
      "icao": "LQTZ",
      "alert": "OK",
      "vis_m": 9999,
      "fzfg": false,
      "metar_trigger": false,
      "taf_trigger": false,
      "metar": "METAR LQTZ 281700Z 29003KT 9999 SCT035 01/M03 Q1023",
      "taf": "TAF LQTZ 281700Z 2818/2918 35005KT 9999 SCT035 TX05/2913Z TNM05/2905Z"
    },
    {
      "icao": "LRBC",
      "alert": "OK",
      "vis_m": 9999,
      "fzfg": false,
      "metar_trigger": false,
      "taf_trigger": false,
      "metar": "METAR LRBC 281700Z 32014KT 9999 OVC065 03/M03 Q1008",
      "taf": "TAF LRBC 281400Z 2815/2824 31018KT 9999 BKN050"
    },
    {
      "icao": "LRBS",
      "alert": "OK",
      "vis_m": 9999,
      "fzfg": false,
      "metar_trigger": false,
      "taf_trigger": false,
      "metar": "METAR LRBS 281700Z 29005KT 250V350 CAVOK 03/M06 Q1012 NOSIG",
      "taf": "TAF LRBS 281100Z 2812/2912 26010KT CAVOK"
    },
    {
      "icao": "LRBV",
      "alert": "OK",
      "vis_m": 9999,
      "fzfg": false,
      "metar_trigger": false,
      "taf_trigger": false,
      "metar": "METAR LRBV 281700Z 30024G40KT 9999 OVC031 M00/M06 Q1010",
      "taf": "TAF LRBV 281400Z 2815/2824 29018KT 5000 -SN BLSN BKN030"
    },
    {
      "icao": "LRCL",
      "alert": "OK",
      "vis_m": 9999,
      "fzfg": false,
      "metar_trigger": false,
      "taf_trigger": false,
      "metar": "METAR LRCL 281700Z 30020KT 9999 BKN049 01/M05 Q1015",
      "taf": "TAF LRCL 281400Z 2815/2824 30018KT 9999 BKN050"
    },
    {
      "icao": "LRCV",
      "alert": "OK",
      "vis_m": 9999,
      "fzfg": false,
      "metar_trigger": false,
      "taf_trigger": false,
      "metar": "METAR LRCV 281700Z 29012KT CAVOK 01/M04 Q1015",
      "taf": "TAF LRCV 281400Z 2815/2824 33012KT CAVOK"
    },
    {
      "icao": "LRIA",
      "alert": "OK",
      "vis_m": 9999,
      "fzfg": false,
      "metar_trigger": false,
      "taf_trigger": false,
      "metar": "METAR LRIA 281700Z 30017KT 270V330 9999 -SN FEW010 OVC027 01/M01 Q1006",
      "taf": "TAF LRIA 281400Z 2815/2824 31020KT 8000 -SN SCT015 BKN033"
    },
    {
      "icao": "LROP",
      "alert": "OK",
      "vis_m": 9999,
      "fzfg": false,
      "metar_trigger": false,
      "taf_trigger": false,
      "metar": "METAR LROP 281700Z 29005KT CAVOK 02/M07 Q1012 NOSIG",
      "taf": "TAF LROP 281100Z 2812/2912 27011KT CAVOK"
    },
    {
      "icao": "LRSB",
      "alert": "OK",
      "vis_m": 9999,
      "fzfg": false,
      "metar_trigger": false,
      "taf_trigger": false,
      "metar": "METAR LRSB 281700Z 29021G31KT 9999 SCT036 OVC050 02/M07 Q1014 NOSIG",
      "taf": ""
    },
    {
      "icao": "LRSM",
      "alert": "OK",
      "vis_m": 9999,
      "fzfg": false,
      "metar_trigger": false,
      "taf_trigger": false,
      "metar": "METAR LRSM 281700Z AUTO 30010KT 9999 OVC043/// 02/M04 Q1017",
      "taf": "TAF LRSM 281100Z 2812/2821 31015KT 9999 BKN030"
    },
    {
      "icao": "LRSV",
      "alert": "OK",
      "vis_m": 7000,
      "fzfg": false,
      "metar_trigger": false,
      "taf_trigger": false,
      "metar": "METAR LRSV 281700Z 31020KT 7000 -SN DRSN BKN023 M01/M03 Q1006",
      "taf": ""
    },
    {
      "icao": "LRTM",
      "alert": "OK",
      "vis_m": 9999,
      "fzfg": false,
      "metar_trigger": false,
      "taf_trigger": false,
      "metar": "METAR LRTM 281700Z 29019G31KT 9999 BKN033 01/M05 Q1014",
      "taf": "TAF LRTM 281400Z 2815/2824 28018KT 9999 BKN035"
    },
    {
      "icao": "LRTR",
      "alert": "OK",
      "vis_m": 9999,
      "fzfg": false,
      "metar_trigger": false,
      "taf_trigger": false,
      "metar": "METAR LRTR 281700Z 28007KT CAVOK M01/M03 Q1020 NOSIG",
      "taf": "TAF LRTR 281100Z 2812/2912 31012KT CAVOK"
    },
    {
      "icao": "LTAC",
      "alert": "OK",
      "vis_m": 9999,
      "fzfg": false,
      "metar_trigger": false,
      "taf_trigger": false,
      "metar": "METAR LTAC 281650Z 29010KT 9999 FEW015 BKN030 BKN080 00/M03 Q1003 NOSIG RMK RWY21C 27014KT RWY03L 28010KT RWY21R 26010KT RWY03R 26009KT RWY21L 27011KT",
      "taf": "TAF LTAC 281640Z 2818/2918 26012KT 9999 SCT030 BKN080"
    },
    {
      "icao": "LTFM",
      "alert": "OK",
      "vis_m": 9999,
      "fzfg": false,
      "metar_trigger": false,
      "taf_trigger": false,
      "metar": "METAR LTFM 281650Z 30011KT 9999 SCT028 04/M01 Q1011 NOSIG RMK RWY17L 31014KT RWY34L 29007G19KT 240V310 RWY16R 29010KT RWY36 29011KT 240V320 RWY18 32015KT",
      "taf": "TAF LTFM 281640Z 2818/2924 30012KT 9999 SCT035"
    },
    {
      "icao": "LUKK",
      "alert": "OK",
      "vis_m": 9999,
      "fzfg": false,
      "metar_trigger": false,
      "taf_trigger": false,
      "metar": "METAR LUKK 281700Z 34017KT 300V360 9999 SCT025 BKN040 02/M02 Q1003 TEMPO 33024G38KT 3000 SHSN BKN010 SCT025CB",
      "taf": "TAF LUKK 281708Z 2818/2918 32018G28KT 9999 BKN020"
    },
    {
      "icao": "LWOH",
      "alert": "OK",
      "vis_m": 9999,
      "fzfg": false,
      "metar_trigger": false,
      "taf_trigger": false,
      "metar": "METAR LWOH 281650Z 31013KT CAVOK 04/M03 Q1015",
      "taf": "TAF LWOH 281430Z 2815/2915 34015KT CAVOK"
    },
    {
      "icao": "LWSK",
      "alert": "OK",
      "vis_m": 9999,
      "fzfg": false,
      "metar_trigger": false,
      "taf_trigger": false,
      "metar": "METAR LWSK 281650Z 34006KT 270V040 CAVOK 03/M07 Q1020 NOSIG",
      "taf": "TAF LWSK 281430Z 2815/2915 36016KT CAVOK"
    },
    {
      "icao": "LYBE",
      "alert": "OK",
      "vis_m": 9999,
      "fzfg": false,
      "metar_trigger": false,
      "taf_trigger": false,
      "metar": "METAR LYBE 281700Z 30010KT 9999 BKN043 03/M03 Q1023 NOSIG",
      "taf": "TAF LYBE 281100Z 2812/2912 29013KT 9999 SCT030 TX06/2912Z TNM03/2906Z"
    },
    {
      "icao": "LYNI",
      "alert": "OK",
      "vis_m": 9999,
      "fzfg": false,
      "metar_trigger": false,
      "taf_trigger": false,
      "metar": "METAR LYNI 281700Z VRB04KT 9999 BKN033 02/M03 Q1021 NOSIG",
      "taf": "TAF LYNI 281100Z 2812/2912 29016KT 9999 BKN030 TX06/2912Z TNM03/2906Z"
    },
    {
      "icao": "LYPG",
      "alert": "OK",
      "vis_m": 9999,
      "fzfg": false,
      "metar_trigger": false,
      "taf_trigger": false,
      "metar": "METAR LYPG 281700Z 36016G26KT CAVOK 09/M09 Q1017 NOSIG",
      "taf": "TAF LYPG 281100Z 2812/2912 35009KT CAVOK TX13/2813Z TN01/2906Z"
    },
    {
      "icao": "LZIB",
      "alert": "OK",
      "vis_m": 9999,
      "fzfg": false,
      "metar_trigger": false,
      "taf_trigger": false,
      "metar": "METAR LZIB 281700Z 34013KT 310V020 9999 FEW032 02/M04 Q1024 NOSIG",
      "taf": ""
    },
    {
      "icao": "LZKZ",
      "alert": "OK",
      "vis_m": 9999,
      "fzfg": false,
      "metar_trigger": false,
      "taf_trigger": false,
      "metar": "METAR LZKZ 281700Z 32007KT 9999 SCT044 02/M08 Q1018 NOSIG",
      "taf": ""
    },
    {
      "icao": "LZTT",
      "alert": "OK",
      "vis_m": 9999,
      "fzfg": false,
      "metar_trigger": false,
      "taf_trigger": false,
      "metar": "METAR LZTT 281700Z 27019KT CAVOK M02/M10 Q1015 NOSIG",
      "taf": ""
    },
    {
      "icao": "OEJN",
      "alert": "OK",
      "vis_m": 9999,
      "fzfg": false,
      "metar_trigger": false,
      "taf_trigger": false,
      "metar": "METAR OEJN 281700Z 35010KT CAVOK 24/17 Q1012 NOSIG",
      "taf": "TAF OEJN 281700Z 2818/2924 04008KT 7000 NSC"
    },
    {
      "icao": "OEMA",
      "alert": "OK",
      "vis_m": 9999,
      "fzfg": false,
      "metar_trigger": false,
      "taf_trigger": false,
      "metar": "METAR OEMA 281700Z 25008KT CAVOK 21/04 Q1015 NOSIG",
      "taf": "TAF OEMA 281700Z 2818/2924 26008KT 7000 NSC"
    },
    {
      "icao": "OJAI",
      "alert": "OK",
      "vis_m": 3500,
      "fzfg": false,
      "metar_trigger": false,
      "taf_trigger": false,
      "metar": "METAR OJAI 281700Z 27016KT 3500 BR SCT030 BKN035 09/07 Q1011 NOSIG",
      "taf": "TAF OJAI 281700Z 2818/2924 29018G36KT 3000 RA BR SCT025TCU BKN030"
    },
    {
      "icao": "OMAA",
      "alert": "OK",
      "vis_m": 9999,
      "fzfg": false,
      "metar_trigger": false,
      "taf_trigger": false,
      "metar": "METAR OMAA 281700Z 12006KT CAVOK 24/13 Q1012 NOSIG",
      "taf": "TAF OMAA 281700Z 2818/3000 15005KT 8000 NSC"
    },
    {
      "icao": "OMDB",
      "alert": "OK",
      "vis_m": 9999,
      "fzfg": false,
      "metar_trigger": false,
      "taf_trigger": false,
      "metar": "METAR OMDB 281700Z VRB02KT CAVOK 25/13 Q1012 NOSIG",
      "taf": "TAF OMDB 281700Z 2818/3000 16008KT 8000 NSC"
    },
    {
      "icao": "UAAA",
      "alert": "OK",
      "vis_m": 1900,
      "fzfg": false,
      "metar_trigger": false,
      "taf_trigger": false,
      "metar": "METAR UAAA 281700Z 27002MPS 220V320 1900 R05R/P2000D BR SCT200 M02/M04 Q1015 NOSIG",
      "taf": "TAF UAAA 281109Z 2812/2912 20003MPS 1200 BR FU SCT050 BKN100 TX02/2909Z TNM03/2901Z"
    },
    {
      "icao": "UBBB",
      "alert": "OK",
      "vis_m": 9999,
      "fzfg": false,
      "metar_trigger": false,
      "taf_trigger": false,
      "metar": "METAR UBBB 281700Z 28008KT 9999 SCT021 05/03 Q1002 NOSIG",
      "taf": "TAF UBBB 281712Z 2818/2918 28010KT 9999 SCT012 BKN020 TX09/2910Z TN02/2902Z"
    },
    {
      "icao": "UDSG",
      "alert": "OK",
      "vis_m": 9999,
      "fzfg": false,
      "metar_trigger": false,
      "taf_trigger": false,
      "metar": "METAR UDSG 281700Z 05003KT 9999 NSC M15/M19 Q1001 NOSIG",
      "taf": "TAF UDSG 281100Z 2812/2912 VRB06KT 9999 SCT040"
    },
    {
      "icao": "UDYZ",
      "alert": "OK",
      "vis_m": 9999,
      "fzfg": false,
      "metar_trigger": false,
      "taf_trigger": false,
      "metar": "METAR UDYZ 281700Z 08005KT 9999 NSC M05/M08 Q1003 NOSIG",
      "taf": "TAF UDYZ 281100Z 2812/2912 VRB04KT 6000 FEW040"
    },
    {
      "icao": "UGKO",
      "alert": "OK",
      "vis_m": 9999,
      "fzfg": false,
      "metar_trigger": false,
      "taf_trigger": false,
      "metar": "METAR UGKO 281700Z 08007KT 9999 BKN049 00/00 Q1002 NOSIG",
      "taf": "TAF UGKO 281700Z 2818/2918 08007KT 9999 SCT015 OVC045 TX02/2911Z TNM01/2904Z"
    }
  ]
}