{
  "ts_utc": "2026-02-18T06:16:07Z",
  "threshold_m": 150,
  "source": "stations_override.txt (ICAO list) + aviationweather.gov (METAR/TAF raw)",
  "station_count": 159,
  "stations": [
    {
      "icao": "BIKF",
      "alert": "OK",
      "vis_m": 9999,
      "fzfg": false,
      "metar_trigger": false,
      "taf_trigger": false,
      "metar": "METAR BIKF 180600Z 06018KT 9999 FEW033 OVC052 M02/M08 Q1006",
      "taf": "TAF BIKF 180426Z 1806/1906 06015KT 9999 FEW030 BKN050 TXM02/1815Z TNM04/1824Z"
    },
    {
      "icao": "BKPR",
      "alert": "OK",
      "vis_m": 9999,
      "fzfg": false,
      "metar_trigger": false,
      "taf_trigger": false,
      "metar": "METAR BKPR 180600Z 31013KT 9999 BKN040 03/M03 Q1009 NOSIG",
      "taf": "TAF BKPR 180530Z 1806/1906 32015KT 9999 SCT040"
    },
    {
      "icao": "EBCI",
      "alert": "OK",
      "vis_m": 9000,
      "fzfg": false,
      "metar_trigger": false,
      "taf_trigger": false,
      "metar": "METAR EBCI 180550Z 14004KT 110V180 9000 NSC 00/M02 Q1012 NOSIG",
      "taf": "TAF EBCI 180501Z 1806/1912 10008KT CAVOK"
    },
    {
      "icao": "EDDB",
      "alert": "OK",
      "vis_m": 7000,
      "fzfg": false,
      "metar_trigger": false,
      "taf_trigger": false,
      "metar": "METAR EDDB 180550Z AUTO 04005KT 7000 FEW009 OVC015 M02/M04 Q1011 TEMPO 4000 -SN",
      "taf": "TAF EDDB 180500Z 1806/1906 03005KT 9999 BKN012"
    },
    {
      "icao": "EDDH",
      "alert": "OK",
      "vis_m": 7000,
      "fzfg": false,
      "metar_trigger": false,
      "taf_trigger": false,
      "metar": "METAR EDDH 180550Z AUTO 35004KT 7000 FEW014 SCT019 BKN024 M04/M05 Q1013 TEMPO BKN014",
      "taf": "TAF EDDH 180500Z 1806/1912 VRB03KT 7000 BKN009"
    },
    {
      "icao": "EDDK",
      "alert": "OK",
      "vis_m": 9999,
      "fzfg": false,
      "metar_trigger": false,
      "taf_trigger": false,
      "metar": "METAR EDDK 180550Z AUTO 35004KT 320V020 9999 FEW019 OVC027 02/M01 Q1014 NOSIG",
      "taf": "TAF EDDK 180500Z 1806/1912 33006KT 9999 BKN020"
    },
    {
      "icao": "EDDN",
      "alert": "OK",
      "vis_m": 9999,
      "fzfg": false,
      "metar_trigger": false,
      "taf_trigger": false,
      "metar": "METAR EDDN 180550Z AUTO 23008KT 210V270 CAVOK 01/M02 Q1013 NOSIG",
      "taf": "TAF EDDN 180500Z 1806/1906 25008KT 9999 FEW020 BKN035"
    },
    {
      "icao": "EDDS",
      "alert": "OK",
      "vis_m": 9999,
      "fzfg": false,
      "metar_trigger": false,
      "taf_trigger": false,
      "metar": "METAR EDDS 180550Z AUTO 11001KT CAVOK M02/M03 Q1013",
      "taf": "TAF EDDS 180500Z 1806/1906 VRB03KT 9999 SCT040"
    },
    {
      "icao": "EDFH",
      "alert": "OK",
      "vis_m": 9999,
      "fzfg": false,
      "metar_trigger": false,
      "taf_trigger": false,
      "metar": "METAR EDFH 180550Z 26004KT 9999 FEW010 M02/M02 Q1012",
      "taf": "TAF EDFH 180500Z 1806/1906 20004KT 9999 SCT007 BKN020"
    },
    {
      "icao": "EDJA",
      "alert": "OK",
      "vis_m": 9999,
      "fzfg": false,
      "metar_trigger": false,
      "taf_trigger": false,
      "metar": "METAR EDJA 180550Z 20005KT CAVOK M03/M04 Q1013",
      "taf": "TAF EDJA 180500Z 1806/1815 24006KT 9999 OVC050"
    },
    {
      "icao": "EDLW",
      "alert": "OK",
      "vis_m": 9999,
      "fzfg": false,
      "metar_trigger": false,
      "taf_trigger": false,
      "metar": "METAR EDLW 180550Z 31004KT 270V350 9999 FEW009 OVC011 01/M01 Q1013",
      "taf": "TAF EDLW 180500Z 1806/1906 32006KT 9999 BKN010"
    },
    {
      "icao": "EDNY",
      "alert": "OK",
      "vis_m": 9999,
      "fzfg": false,
      "metar_trigger": false,
      "taf_trigger": false,
      "metar": "METAR EDNY 180550Z 00000KT 9999 FEW037 SCT060 M02/M03 Q1014",
      "taf": "TAF EDNY 180500Z 1806/1815 VRB02KT 9999 OVC055"
    },
    {
      "icao": "EDSB",
      "alert": "OK",
      "vis_m": 9999,
      "fzfg": false,
      "metar_trigger": false,
      "taf_trigger": false,
      "metar": "METAR EDSB 180550Z VRB01KT CAVOK M01/M02 Q1015",
      "taf": "TAF EDSB 180500Z 1806/1906 VRB03KT 9999 SCT040"
    },
    {
      "icao": "EETN",
      "alert": "OK",
      "vis_m": 9999,
      "fzfg": false,
      "metar_trigger": false,
      "taf_trigger": false,
      "metar": "METAR EETN 180550Z 12005KT CAVOK M16/M17 Q1016 NOSIG",
      "taf": "TAF EETN 180530Z 1806/1906 13010KT CAVOK"
    },
    {
      "icao": "EFTU",
      "alert": "OK",
      "vis_m": 9999,
      "fzfg": false,
      "metar_trigger": false,
      "taf_trigger": false,
      "metar": "METAR EFTU 180550Z AUTO 12006KT 9999 4400 -SHSN OVC004 M12/M13 Q1014",
      "taf": "TAF EFTU 180532Z 1806/1906 09003KT 9999 BKN006"
    },
    {
      "icao": "EGBB",
      "alert": "OK",
      "vis_m": 9999,
      "fzfg": false,
      "metar_trigger": false,
      "taf_trigger": false,
      "metar": "METAR EGBB 180550Z COR 12012KT CAVOK 02/M01 Q1008",
      "taf": "TAF EGBB 180503Z 1806/1906 10010KT 9999 FEW030"
    },
    {
      "icao": "EGGP",
      "alert": "OK",
      "vis_m": 9999,
      "fzfg": false,
      "metar_trigger": false,
      "taf_trigger": false,
      "metar": "METAR EGGP 180550Z 13018KT CAVOK 02/M02 Q1007",
      "taf": "TAF EGGP 180504Z 1806/1906 11012KT 9999 FEW040"
    },
    {
      "icao": "EGGW",
      "alert": "OK",
      "vis_m": 9999,
      "fzfg": false,
      "metar_trigger": false,
      "taf_trigger": false,
      "metar": "METAR EGGW 180550Z AUTO 11009KT 9999 NCD 01/M01 Q1008",
      "taf": ""
    },
    {
      "icao": "EGKK",
      "alert": "OK",
      "vis_m": 9999,
      "fzfg": false,
      "metar_trigger": false,
      "taf_trigger": false,
      "metar": "METAR EGKK 180550Z 10010KT 070V140 9999 SCT025 04/M00 Q1008",
      "taf": "TAF EGKK 180503Z 1806/1912 09008KT 9999 FEW035"
    },
    {
      "icao": "EGNM",
      "alert": "OK",
      "vis_m": 9999,
      "fzfg": false,
      "metar_trigger": false,
      "taf_trigger": false,
      "metar": "METAR EGNM 180550Z 11011KT 9999 BKN006 M00/M01 Q1009",
      "taf": ""
    },
    {
      "icao": "EGPD",
      "alert": "OK",
      "vis_m": 9999,
      "fzfg": false,
      "metar_trigger": false,
      "taf_trigger": false,
      "metar": "METAR EGPD 180550Z COR AUTO VRB01KT 9999 BKN034 M04/M05 Q1011 NOSIG",
      "taf": "TAF EGPD 180459Z 1806/1906 29005KT 9999 FEW040"
    },
    {
      "icao": "EGPF",
      "alert": "OK",
      "vis_m": 9999,
      "fzfg": false,
      "metar_trigger": false,
      "taf_trigger": false,
      "metar": "METAR EGPF 180550Z AUTO 07010KT 9999 NCD 01/M04 Q1008",
      "taf": "TAF EGPF 180458Z 1806/1906 10006KT CAVOK"
    },
    {
      "icao": "EHBK",
      "alert": "OK",
      "vis_m": 6000,
      "fzfg": false,
      "metar_trigger": false,
      "taf_trigger": false,
      "metar": "METAR EHBK 180555Z AUTO VRB02KT 6000 NSC M01/M01 Q1013 TEMPO 1200 MIFG",
      "taf": "TAF EHBK 180502Z 1806/1912 24005KT 2000 MIFG BR SCT020"
    },
    {
      "icao": "EHEH",
      "alert": "OK",
      "vis_m": 9999,
      "fzfg": false,
      "metar_trigger": false,
      "taf_trigger": false,
      "metar": "METAR EHEH 180555Z AUTO 04001KT 9999 OVC023 01/M01 Q1014 WHT NOSIG RMK TREND REMOTE BY EHWX",
      "taf": "TAF EHEH 180514Z 1806/1912 06004KT 9999 BKN025"
    },
    {
      "icao": "EKBI",
      "alert": "OK",
      "vis_m": 9999,
      "fzfg": false,
      "metar_trigger": false,
      "taf_trigger": false,
      "metar": "METAR EKBI 180550Z AUTO 23001KT 9999 BKN047/// M09/M10 Q1013",
      "taf": "TAF EKBI 180527Z 1806/1906 01005KT 9999 BKN030"
    },
    {
      "icao": "EKCH",
      "alert": "OK",
      "vis_m": 9999,
      "fzfg": false,
      "metar_trigger": false,
      "taf_trigger": false,
      "metar": "METAR EKCH 180603Z 29004KT 9999 FEW040 M09/M11 Q1013 NOSIG",
      "taf": "TAF EKCH 180527Z 1806/1906 33007KT 9999 BKN030"
    },
    {
      "icao": "ENAL",
      "alert": "OK",
      "vis_m": 9999,
      "fzfg": false,
      "metar_trigger": false,
      "taf_trigger": false,
      "metar": "METAR ENAL 180550Z 22009G26KT 180V300 9999 VCSH SCT020 BKN052 00/M03 Q1007",
      "taf": "TAF ENAL 180500Z 1806/1815 21010KT 9999 -SHSN FEW015 SCT035"
    },
    {
      "icao": "ENBR",
      "alert": "OK",
      "vis_m": 9999,
      "fzfg": false,
      "metar_trigger": false,
      "taf_trigger": false,
      "metar": "METAR ENBR 180550Z 17008KT 9999 -SN FEW003 BKN006 M01/M01 Q1009 BECMG SCT015 BKN025 RMK WIND 1200FT 21008KT",
      "taf": "TAF ENBR 180500Z 1806/1906 15008KT 9999 -SHSN FEW010 BKN020"
    },
    {
      "icao": "ENGM",
      "alert": "OK",
      "vis_m": 9999,
      "fzfg": false,
      "metar_trigger": false,
      "taf_trigger": false,
      "metar": "METAR ENGM 180550Z 00000KT 9999 -SN FEW049 M11/M12 Q1009 NOSIG",
      "taf": "TAF ENGM 180500Z 1806/1906 VRB03KT 9999 FEW010"
    },
    {
      "icao": "ENHD",
      "alert": "OK",
      "vis_m": 9999,
      "fzfg": false,
      "metar_trigger": false,
      "taf_trigger": false,
      "metar": "METAR ENHD 180550Z 12007KT 9999 -SN FEW002 BKN011 M00/M01 Q1010",
      "taf": "TAF ENHD 180500Z 1806/1815 16008KT 9999 -SHSN FEW012 BKN020"
    },
    {
      "icao": "ENTC",
      "alert": "OK",
      "vis_m": 9999,
      "fzfg": false,
      "metar_trigger": false,
      "taf_trigger": false,
      "metar": "METAR ENTC 180550Z 20010KT 9999 -SN BKN031 M05/M08 Q1003 RMK WIND 2600FT 10008KT",
      "taf": "TAF ENTC 180500Z 1806/1906 21008KT 9999 FEW020 BKN035"
    },
    {
      "icao": "ENTO",
      "alert": "OK",
      "vis_m": 9999,
      "fzfg": false,
      "metar_trigger": false,
      "taf_trigger": false,
      "metar": "METAR ENTO 180550Z 30003KT CAVOK M12/M13 Q1011",
      "taf": "TAF ENTO 180500Z 1806/1906 34005KT CAVOK"
    },
    {
      "icao": "ENVA",
      "alert": "OK",
      "vis_m": 9999,
      "fzfg": false,
      "metar_trigger": false,
      "taf_trigger": false,
      "metar": "METAR ENVA 180550Z 13008KT 9999 SCT053 M09/M10 Q1007 NOSIG RMK WIND 670FT 15013KT",
      "taf": "TAF ENVA 180500Z 1806/1906 10007KT 9999 FEW030 BKN050"
    },
    {
      "icao": "ENZV",
      "alert": "OK",
      "vis_m": 9999,
      "fzfg": false,
      "metar_trigger": false,
      "taf_trigger": false,
      "metar": "METAR ENZV 180550Z 14008KT 9999 FEW035 M04/M06 Q1012 TEMPO 2000 -SHSN VV012",
      "taf": "TAF ENZV 180500Z 1806/1906 15008KT 9999 -SHSN FEW012 BKN025"
    },
    {
      "icao": "EPGD",
      "alert": "OK",
      "vis_m": 9999,
      "fzfg": false,
      "metar_trigger": false,
      "taf_trigger": false,
      "metar": "METAR EPGD 180600Z 27008KT 230V290 9999 BKN010 M09/M10 Q1008",
      "taf": "TAF EPGD 180530Z 1806/1906 28010KT 9999 BKN020"
    },
    {
      "icao": "EPKK",
      "alert": "OK",
      "vis_m": 2000,
      "fzfg": false,
      "metar_trigger": false,
      "taf_trigger": false,
      "metar": "METAR EPKK 180600Z 26004KT 2000 -SN BR OVC020 M00/M01 Q1008",
      "taf": "TAF EPKK 180530Z 1806/1906 VRB02KT 3000 BR BKN020"
    },
    {
      "icao": "EPKT",
      "alert": "OK",
      "vis_m": 2400,
      "fzfg": false,
      "metar_trigger": false,
      "taf_trigger": false,
      "metar": "METAR EPKT 180600Z 23008KT 2400 -SN BR FEW005 BKN010 M00/M01 Q1008",
      "taf": "TAF EPKT 180530Z 1806/1906 22007KT 3000 SN BR BKN015"
    },
    {
      "icao": "EPLB",
      "alert": "OK",
      "vis_m": 9999,
      "fzfg": false,
      "metar_trigger": false,
      "taf_trigger": false,
      "metar": "METAR EPLB 180600Z 14002KT 9999 OVC010 M05/M07 Q1010",
      "taf": "TAF EPLB 180530Z 1806/1906 VRB03KT 9999 BKN011 OVC015"
    },
    {
      "icao": "EPMO",
      "alert": "OK",
      "vis_m": 2700,
      "fzfg": false,
      "metar_trigger": false,
      "taf_trigger": false,
      "metar": "METAR EPMO 180600Z 21003KT 170V250 2700 BR OVC014 M04/M04 Q1009",
      "taf": "TAF EPMO 180530Z 1806/1906 VRB02KT 5000 BR BKN015"
    },
    {
      "icao": "EPPO",
      "alert": "OK",
      "vis_m": 5000,
      "fzfg": false,
      "metar_trigger": false,
      "taf_trigger": false,
      "metar": "METAR EPPO 180600Z 34004KT 5000 BR FEW013 M04/M07 Q1010",
      "taf": "TAF EPPO 180530Z 1806/1906 33007KT 4000 BR BKN030"
    },
    {
      "icao": "EPRA",
      "alert": "OK",
      "vis_m": 6000,
      "fzfg": false,
      "metar_trigger": false,
      "taf_trigger": false,
      "metar": "METAR EPRA 180600Z 16006KT 6000 BKN025 M02/M04 Q1008",
      "taf": "TAF EPRA 180530Z 1806/1815 15005KT 6000 BKN020"
    },
    {
      "icao": "EPRZ",
      "alert": "OK",
      "vis_m": 4000,
      "fzfg": false,
      "metar_trigger": false,
      "taf_trigger": false,
      "metar": "METAR EPRZ 180600Z 10005KT 4000 -SN BR OVC004 M03/M04 Q1009",
      "taf": "TAF EPRZ 180530Z 1806/1906 09004KT 3000 -SN BR BKN004"
    },
    {
      "icao": "EPSC",
      "alert": "OK",
      "vis_m": 5000,
      "fzfg": false,
      "metar_trigger": false,
      "taf_trigger": false,
      "metar": "METAR EPSC 180600Z 23001KT 5000 BR FEW018 BKN037 M07/M07 Q1011",
      "taf": "TAF EPSC 180530Z 1806/1906 VRB03KT 7000 SCT030"
    },
    {
      "icao": "EPSY",
      "alert": "OK",
      "vis_m": 1700,
      "fzfg": false,
      "metar_trigger": false,
      "taf_trigger": false,
      "metar": "METAR EPSY 180600Z 19003KT 1700 BR OVC002 M05/M06 Q1008",
      "taf": "TAF EPSY 180530Z 1806/1815 17003KT 1800 BR OVC003"
    },
    {
      "icao": "EPWA",
      "alert": "OK",
      "vis_m": 4500,
      "fzfg": false,
      "metar_trigger": false,
      "taf_trigger": false,
      "metar": "METAR EPWA 180600Z 15003KT 4500 BR BKN025 M03/M04 Q1009 TEMPO BKN014",
      "taf": "TAF EPWA 180530Z 1806/1906 VRB02KT 5000 BR BKN030"
    },
    {
      "icao": "EPWR",
      "alert": "OK",
      "vis_m": 6000,
      "fzfg": false,
      "metar_trigger": false,
      "taf_trigger": false,
      "metar": "METAR EPWR 180600Z 30006KT 6000 -SN SCT004 BKN009 00/00 Q1009",
      "taf": "TAF EPWR 180530Z 1806/1906 30010KT 8000 SCT008 BKN012"
    },
    {
      "icao": "ESGG",
      "alert": "OK",
      "vis_m": 9999,
      "fzfg": false,
      "metar_trigger": false,
      "taf_trigger": false,
      "metar": "METAR ESGG 180550Z 02002KT CAVOK M12/M13 Q1010",
      "taf": "TAF ESGG 180530Z 1806/1906 VRB03KT CAVOK"
    },
    {
      "icao": "ESKN",
      "alert": "OK",
      "vis_m": 9999,
      "fzfg": false,
      "metar_trigger": false,
      "taf_trigger": false,
      "metar": "METAR ESKN 180550Z VRB02KT 9999 SCT034 M10/M11 Q1011",
      "taf": "TAF ESKN 180530Z 1806/1906 03005KT 9999 BKN030"
    },
    {
      "icao": "ESMS",
      "alert": "OK",
      "vis_m": 9999,
      "fzfg": false,
      "metar_trigger": false,
      "taf_trigger": false,
      "metar": "METAR ESMS 180550Z 33005KT CAVOK M10/M12 Q1011",
      "taf": "TAF ESMS 180527Z 1806/1906 34005KT 9999 SCT020"
    },
    {
      "icao": "ESSA",
      "alert": "OK",
      "vis_m": 9999,
      "fzfg": false,
      "metar_trigger": false,
      "taf_trigger": false,
      "metar": "METAR ESSA 180550Z 07005KT 9999 BKN026 M13/M15 Q1012 NOSIG",
      "taf": "TAF ESSA 180530Z 1806/1906 07005KT 9999 SCT025"
    },
    {
      "icao": "EYKA",
      "alert": "OK",
      "vis_m": 4000,
      "fzfg": false,
      "metar_trigger": false,
      "taf_trigger": false,
      "metar": "METAR EYKA 180550Z 13007KT 4000 -SN OVC031 M09/M11 Q1011",
      "taf": "TAF EYKA 180500Z 1806/1906 14010KT 3000 SN BR BKN020"
    },
    {
      "icao": "EYPA",
      "alert": "OK",
      "vis_m": 4300,
      "fzfg": false,
      "metar_trigger": false,
      "taf_trigger": false,
      "metar": "METAR EYPA 180550Z 11007KT 4300 -SN BKN043 M09/M11 Q1009",
      "taf": "TAF EYPA 180500Z 1806/1906 VRB05KT 5000 SN BR SCT015 BKN030"
    },
    {
      "icao": "EYVI",
      "alert": "OK",
      "vis_m": 9999,
      "fzfg": false,
      "metar_trigger": false,
      "taf_trigger": false,
      "metar": "METAR EYVI 180550Z 14009KT CAVOK M11/M16 Q1012 NOSIG",
      "taf": "TAF EYVI 180500Z 1806/1906 14012KT 9000 OVC025"
    },
    {
      "icao": "GCFV",
      "alert": "OK",
      "vis_m": 9999,
      "fzfg": false,
      "metar_trigger": false,
      "taf_trigger": false,
      "metar": "METAR GCFV 180600Z 35009KT 9999 BKN017 16/12 Q1022",
      "taf": "TAF GCFV 180200Z 1803/1903 32006KT 9999 FEW020 TX20/1814Z TN14/1806Z"
    },
    {
      "icao": "GCLP",
      "alert": "OK",
      "vis_m": 9999,
      "fzfg": false,
      "metar_trigger": false,
      "taf_trigger": false,
      "metar": "METAR GCLP 180600Z 01016KT CAVOK 16/13 Q1021 NOSIG",
      "taf": "TAF GCLP 180200Z 1803/1903 01016KT 9999 SCT020 TX20/1814Z TN14/1806Z"
    },
    {
      "icao": "GCTS",
      "alert": "OK",
      "vis_m": 9999,
      "fzfg": false,
      "metar_trigger": false,
      "taf_trigger": false,
      "metar": "METAR GCTS 180600Z 06009KT CAVOK 15/12 Q1022 NOSIG",
      "taf": "TAF GCTS 180200Z 1803/1903 04007KT CAVOK TX23/1814Z TN14/1806Z"
    },
    {
      "icao": "GMAD",
      "alert": "OK",
      "vis_m": 9999,
      "fzfg": false,
      "metar_trigger": false,
      "taf_trigger": false,
      "metar": "METAR GMAD 180600Z 11003KT CAVOK 08/07 Q1020 NOSIG",
      "taf": "TAF GMAD 180500Z 1806/1912 09007KT CAVOK"
    },
    {
      "icao": "GMMN",
      "alert": "OK",
      "vis_m": 1200,
      "fzfg": false,
      "metar_trigger": false,
      "taf_trigger": false,
      "metar": "METAR GMMN 180600Z 08005KT 060V120 1200 R35L/0900N BR BKN001 11/11 Q1022 NOSIG",
      "taf": "TAF GMMN 180500Z 1806/1912 10005KT 0500 FG BKN001"
    },
    {
      "icao": "GMMX",
      "alert": "OK",
      "vis_m": 9999,
      "fzfg": false,
      "metar_trigger": false,
      "taf_trigger": false,
      "metar": "METAR GMMX 180600Z 09004KT CAVOK 10/07 Q1022 NOSIG",
      "taf": "TAF GMMX 180500Z 1806/1912 06006KT CAVOK"
    },
    {
      "icao": "HEGN",
      "alert": "OK",
      "vis_m": 9999,
      "fzfg": false,
      "metar_trigger": false,
      "taf_trigger": false,
      "metar": "METAR HEGN 180500Z 32012KT CAVOK 16/00 Q1015 NOSIG",
      "taf": "TAF HEGN 180500Z 1806/1912 32012G22KT CAVOK"
    },
    {
      "icao": "HEMA",
      "alert": "OK",
      "vis_m": 9999,
      "fzfg": false,
      "metar_trigger": false,
      "taf_trigger": false,
      "metar": "METAR HEMA 180500Z 32013KT CAVOK 20/11 Q1013 NOSIG",
      "taf": "TAF HEMA 180500Z 1806/1912 35012G22KT CAVOK"
    },
    {
      "icao": "HESH",
      "alert": "OK",
      "vis_m": 9999,
      "fzfg": false,
      "metar_trigger": false,
      "taf_trigger": false,
      "metar": "METAR HESH 180500Z 34009KT CAVOK 18/11 Q1012 NOSIG",
      "taf": "TAF HESH 180500Z 1806/1912 35015KT CAVOK"
    },
    {
      "icao": "HESX",
      "alert": "OK",
      "vis_m": 9999,
      "fzfg": false,
      "metar_trigger": false,
      "taf_trigger": false,
      "metar": "METAR HESX 180500Z 21010KT CAVOK 12/02 Q1014 NOSIG",
      "taf": "TAF HESX 180500Z 1806/1912 23010G20KT 9999 FEW030"
    },
    {
      "icao": "LATI",
      "alert": "OK",
      "vis_m": 9999,
      "fzfg": false,
      "metar_trigger": false,
      "taf_trigger": false,
      "metar": "METAR LATI 180550Z 32007KT CAVOK 04/M02 Q1011 NOSIG",
      "taf": "TAF LATI 180500Z 1806/1906 VRB05KT CAVOK TX14/1812Z TN02/1905Z"
    },
    {
      "icao": "LBPD",
      "alert": "OK",
      "vis_m": 9999,
      "fzfg": false,
      "metar_trigger": false,
      "taf_trigger": false,
      "metar": "METAR LBPD 180600Z AUTO 28026G36KT 9999 OVC070/// 05/M01 Q1000 TEMPO RA",
      "taf": "TAF LBPD 180500Z 1806/1906 28026G38KT 9999 SCT030 OVC060"
    },
    {
      "icao": "LBSF",
      "alert": "OK",
      "vis_m": 9999,
      "fzfg": false,
      "metar_trigger": false,
      "taf_trigger": false,
      "metar": "METAR LBSF 180600Z 29018KT 9999 FEW024 BKN045 01/M03 Q1005 TEMPO 28020G30KT",
      "taf": "TAF LBSF 180500Z 1806/1906 28020G30KT 9999 BKN012 OVC030"
    },
    {
      "icao": "LBWN",
      "alert": "OK",
      "vis_m": 4100,
      "fzfg": false,
      "metar_trigger": false,
      "taf_trigger": false,
      "metar": "METAR LBWN 180600Z 33020G36KT 260V360 4100 -SN FEW017 OVC040 M01/M03 Q0997 TEMPO 2500 SN SCT020",
      "taf": "TAF LBWN 180500Z 1806/1906 34030G46KT 2000 SNRA SCT005 BKN015 OVC030"
    },
    {
      "icao": "LCLK",
      "alert": "OK",
      "vis_m": 3000,
      "fzfg": false,
      "metar_trigger": false,
      "taf_trigger": false,
      "metar": "METAR LCLK 180600Z 23019KT 3000 -TSRA FEW001 FEW020CB BKN040 14/13 Q1006 RERA BECMG 5000 -TSRA RMK CB TO W",
      "taf": "TAF LCLK 180530Z 1806/1906 21022KT 8000 FEW025 FEW030TCU SCT035"
    },
    {
      "icao": "LCPH",
      "alert": "OK",
      "vis_m": 7000,
      "fzfg": false,
      "metar_trigger": false,
      "taf_trigger": false,
      "metar": "METAR LCPH 180600Z 26016G26KT 240V300 7000 -SHRA FEW025TCU SCT040 BKN060 15/10 Q1006 RERA TEMPO 4000 SHRA",
      "taf": "TAF LCPH 180530Z 1806/1906 26026KT 8000 SCT020 FEW025TCU BKN035"
    },
    {
      "icao": "LEAL",
      "alert": "OK",
      "vis_m": 9999,
      "fzfg": false,
      "metar_trigger": false,
      "taf_trigger": false,
      "metar": "METAR LEAL 180600Z 30008KT CAVOK 15/08 Q1018 NOSIG",
      "taf": "TAF LEAL 180500Z 1806/1906 30009KT CAVOK TX21/1813Z TN12/1806Z"
    },
    {
      "icao": "LEBB",
      "alert": "OK",
      "vis_m": 9999,
      "fzfg": false,
      "metar_trigger": false,
      "taf_trigger": false,
      "metar": "METAR LEBB 180600Z VRB02KT CAVOK 11/07 Q1013 NOSIG",
      "taf": "TAF LEBB 180500Z 1806/1906 20009KT 9999 SCT040 TX16/1814Z TN06/1906Z"
    },
    {
      "icao": "LEBL",
      "alert": "OK",
      "vis_m": 7000,
      "fzfg": false,
      "metar_trigger": false,
      "taf_trigger": false,
      "metar": "METAR LEBL 180600Z 33007KT 7000 FEW010 09/08 Q1017 NOSIG",
      "taf": "TAF LEBL 180500Z 1806/1906 34006KT 9999 FEW015 TX17/1813Z TN08/1806Z"
    },
    {
      "icao": "LECH",
      "alert": "OK",
      "vis_m": 9999,
      "fzfg": false,
      "metar_trigger": false,
      "taf_trigger": false,
      "metar": "METAR LECH 180600Z AUTO 20004KT CAVOK 08/05 Q1017",
      "taf": ""
    },
    {
      "icao": "LEMD",
      "alert": "OK",
      "vis_m": 9999,
      "fzfg": false,
      "metar_trigger": false,
      "taf_trigger": false,
      "metar": "METAR LEMD 180600Z 22006KT 190V280 9999 BKN010 09/08 Q1019 NOSIG",
      "taf": "TAF LEMD 180500Z 1806/1912 22012KT 9999 SCT025 TX12/1815Z TN03/1906Z"
    },
    {
      "icao": "LEMG",
      "alert": "OK",
      "vis_m": 9999,
      "fzfg": false,
      "metar_trigger": false,
      "taf_trigger": false,
      "metar": "METAR LEMG 180600Z 31008KT CAVOK 09/07 Q1019 NOSIG",
      "taf": "TAF LEMG 180500Z 1806/1906 26010KT CAVOK TX23/1814Z TN11/1807Z"
    },
    {
      "icao": "LEVC",
      "alert": "OK",
      "vis_m": 9999,
      "fzfg": false,
      "metar_trigger": false,
      "taf_trigger": false,
      "metar": "METAR LEVC 180600Z 26009KT CAVOK 12/08 Q1017 NOSIG",
      "taf": "TAF LEVC 180500Z 1806/1906 26007KT CAVOK TX23/1814Z TN11/1806Z"
    },
    {
      "icao": "LEXJ",
      "alert": "OK",
      "vis_m": 9999,
      "fzfg": false,
      "metar_trigger": false,
      "taf_trigger": false,
      "metar": "METAR LEXJ 180600Z 19005KT 140V250 CAVOK 11/07 Q1012",
      "taf": "TAF LEXJ 180200Z 1803/1903 22009KT 9999 BKN030 TX17/1813Z TN10/1804Z"
    },
    {
      "icao": "LEZG",
      "alert": "OK",
      "vis_m": 9999,
      "fzfg": false,
      "metar_trigger": false,
      "taf_trigger": false,
      "metar": "METAR LEZG 180600Z 10005KT 070V150 CAVOK 06/06 Q1016 NOSIG",
      "taf": ""
    },
    {
      "icao": "LEZL",
      "alert": "OK",
      "vis_m": 200,
      "fzfg": false,
      "metar_trigger": false,
      "taf_trigger": false,
      "metar": "METAR LEZL 180600Z VRB02KT 0200 R27/0450N R09/0550N FG VV001 11/11 Q1022 NOSIG",
      "taf": ""
    },
    {
      "icao": "LFBD",
      "alert": "OK",
      "vis_m": 9999,
      "fzfg": false,
      "metar_trigger": false,
      "taf_trigger": false,
      "metar": "METAR LFBD 180600Z AUTO 21007KT 9999 FEW039 11/08 Q1013 NOSIG",
      "taf": "TAF LFBD 180500Z 1806/1912 22008KT 9999 BKN040 TX16/1815Z TN09/1903Z"
    },
    {
      "icao": "LFLL",
      "alert": "OK",
      "vis_m": 9999,
      "fzfg": false,
      "metar_trigger": false,
      "taf_trigger": false,
      "metar": "METAR LFLL 180600Z 14008KT 9999 OVC036 06/04 Q1013 NOSIG",
      "taf": "TAF LFLL 180500Z 1806/1912 17008KT 9999 OVC045"
    },
    {
      "icao": "LFLS",
      "alert": "OK",
      "vis_m": 9999,
      "fzfg": false,
      "metar_trigger": false,
      "taf_trigger": false,
      "metar": "METAR LFLS 180600Z AUTO 07006KT 9999 OVC041 04/04 Q1014 NOSIG",
      "taf": "TAF LFLS 180200Z 1803/1903 09005KT CAVOK"
    },
    {
      "icao": "LFMN",
      "alert": "OK",
      "vis_m": 9999,
      "fzfg": false,
      "metar_trigger": false,
      "taf_trigger": false,
      "metar": "METAR LFMN 180600Z 34009KT CAVOK 09/M04 Q1011 NOSIG",
      "taf": "TAF LFMN 180200Z 1803/1909 33012KT CAVOK"
    },
    {
      "icao": "LFOB",
      "alert": "OK",
      "vis_m": 6000,
      "fzfg": false,
      "metar_trigger": false,
      "taf_trigger": false,
      "metar": "METAR LFOB 180600Z AUTO 09012KT 6000 -SN OVC003 00/00 Q1009 TEMPO 1000 SN",
      "taf": "TAF LFOB 180500Z 1806/1906 10012KT 7000 OVC007"
    },
    {
      "icao": "LFPO",
      "alert": "OK",
      "vis_m": 4000,
      "fzfg": false,
      "metar_trigger": false,
      "taf_trigger": false,
      "metar": "METAR LFPO 180600Z 08012KT 4000 -RA BKN007 OVC020 03/03 Q1008 TEMPO 4500 RA",
      "taf": "TAF LFPO 180500Z 1806/1912 10010KT 9999 BKN007"
    },
    {
      "icao": "LFSB",
      "alert": "OK",
      "vis_m": 9999,
      "fzfg": false,
      "metar_trigger": false,
      "taf_trigger": false,
      "metar": "METAR LFSB 180600Z AUTO 18003KT CAVOK 00/M01 Q1014 TEMPO 4000 -RA BKN009",
      "taf": "TAF LFSB 180500Z 1806/1906 17004KT 9999 FEW010 BKN070"
    },
    {
      "icao": "LGAV",
      "alert": "OK",
      "vis_m": 9999,
      "fzfg": false,
      "metar_trigger": false,
      "taf_trigger": false,
      "metar": "METAR LGAV 180550Z 32010G20KT 290V020 9999 FEW025 SCT070 10/M04 Q1004 NOSIG",
      "taf": "TAF LGAV 180500Z 1806/1906 30015KT 9999 SCT020 SCT070"
    },
    {
      "icao": "LGTS",
      "alert": "OK",
      "vis_m": 9999,
      "fzfg": false,
      "metar_trigger": false,
      "taf_trigger": false,
      "metar": "METAR LGTS 180550Z 32035G46KT 9999 FEW020 09/00 Q1003 NOSIG",
      "taf": "TAF LGTS 180500Z 1806/1906 33025G35KT 9999 FEW030"
    },
    {
      "icao": "LHBP",
      "alert": "OK",
      "vis_m": 9999,
      "fzfg": false,
      "metar_trigger": false,
      "taf_trigger": false,
      "metar": "METAR LHBP 180600Z 32009KT 9999 SCT017 SCT071 01/M01 Q1011 NOSIG",
      "taf": "TAF LHBP 180515Z 1806/1906 32009KT CAVOK"
    },
    {
      "icao": "LHDC",
      "alert": "OK",
      "vis_m": 8000,
      "fzfg": false,
      "metar_trigger": false,
      "taf_trigger": false,
      "metar": "METAR LHDC 180545Z AUTO 30003KT 270V330 8000 NSC M02/M03 Q1009 NOSIG",
      "taf": "TAF LHDC 180515Z 1806/1815 32005KT CAVOK"
    },
    {
      "icao": "LIBD",
      "alert": "OK",
      "vis_m": 9999,
      "fzfg": false,
      "metar_trigger": false,
      "taf_trigger": false,
      "metar": "METAR LIBD 180550Z 25009KT CAVOK 05/03 Q1013",
      "taf": "TAF LIBD 180500Z 1806/1906 29010KT CAVOK"
    },
    {
      "icao": "LIBG",
      "alert": "OK",
      "vis_m": null,
      "fzfg": false,
      "metar_trigger": false,
      "taf_trigger": false,
      "metar": "",
      "taf": ""
    },
    {
      "icao": "LIBP",
      "alert": "OK",
      "vis_m": 9999,
      "fzfg": false,
      "metar_trigger": false,
      "taf_trigger": false,
      "metar": "METAR LIBP 180550Z AUTO 24005KT 9999 NCD 03/M01 Q1013",
      "taf": "TAF LIBP 180500Z 1806/1906 24006KT CAVOK"
    },
    {
      "icao": "LIBR",
      "alert": "OK",
      "vis_m": 9999,
      "fzfg": false,
      "metar_trigger": false,
      "taf_trigger": false,
      "metar": "METAR LIBR 180550Z 34011KT CAVOK 11/01 Q1012",
      "taf": "TAF LIBR 180500Z 1806/1906 32016KT CAVOK"
    },
    {
      "icao": "LICA",
      "alert": "OK",
      "vis_m": 9999,
      "fzfg": false,
      "metar_trigger": false,
      "taf_trigger": false,
      "metar": "METAR LICA 180550Z AUTO 09006KT 9999 NCD 02/01 Q1015",
      "taf": "TAF LICA 180500Z 1806/1906 VRB05KT 9999 FEW025"
    },
    {
      "icao": "LICC",
      "alert": "OK",
      "vis_m": 9999,
      "fzfg": false,
      "metar_trigger": false,
      "taf_trigger": false,
      "metar": "METAR LICC 180550Z 27009KT CAVOK 08/04 Q1016",
      "taf": "TAF LICC 180500Z 1806/1906 26013KT CAVOK"
    },
    {
      "icao": "LICJ",
      "alert": "OK",
      "vis_m": 9999,
      "fzfg": false,
      "metar_trigger": false,
      "taf_trigger": false,
      "metar": "METAR LICJ 180550Z 28010KT 9999 FEW035 14/07 Q1017",
      "taf": "TAF LICJ 180500Z 1806/1906 32012KT 9999 SCT035"
    },
    {
      "icao": "LIMC",
      "alert": "OK",
      "vis_m": 9999,
      "fzfg": false,
      "metar_trigger": false,
      "taf_trigger": false,
      "metar": "METAR LIMC 180550Z 36007KT CAVOK 01/M03 Q1012 NOSIG",
      "taf": "TAF LIMC 180500Z 1806/1912 VRB06KT CAVOK"
    },
    {
      "icao": "LIME",
      "alert": "OK",
      "vis_m": 9999,
      "fzfg": false,
      "metar_trigger": false,
      "taf_trigger": false,
      "metar": "METAR LIME 180550Z AUTO VRB02KT 9999 NCD 02/M06 Q1012",
      "taf": "TAF LIME 180500Z 1806/1906 VRB05KT CAVOK"
    },
    {
      "icao": "LIMF",
      "alert": "OK",
      "vis_m": 9999,
      "fzfg": false,
      "metar_trigger": false,
      "taf_trigger": false,
      "metar": "METAR LIMF 180550Z 31004KT CAVOK 04/M08 Q1012",
      "taf": "TAF LIMF 180500Z 1806/1906 VRB04KT CAVOK"
    },
    {
      "icao": "LIMJ",
      "alert": "OK",
      "vis_m": 9999,
      "fzfg": false,
      "metar_trigger": false,
      "taf_trigger": false,
      "metar": "METAR LIMJ 180550Z VRB01KT CAVOK 07/M04 Q1012",
      "taf": "TAF LIMJ 180500Z 1806/1906 02008KT CAVOK"
    },
    {
      "icao": "LIPE",
      "alert": "OK",
      "vis_m": 9999,
      "fzfg": false,
      "metar_trigger": false,
      "taf_trigger": false,
      "metar": "METAR LIPE 180550Z 19008KT CAVOK 04/M03 Q1012",
      "taf": "TAF LIPE 180500Z 1806/1906 VRB05KT CAVOK"
    },
    {
      "icao": "LIPH",
      "alert": "OK",
      "vis_m": 9999,
      "fzfg": false,
      "metar_trigger": false,
      "taf_trigger": false,
      "metar": "METAR LIPH 180550Z AUTO 01002KT 9999 NCD 01/M01 Q1012",
      "taf": "TAF LIPH 180500Z 1806/1906 VRB05KT CAVOK"
    },
    {
      "icao": "LIPQ",
      "alert": "OK",
      "vis_m": 9999,
      "fzfg": false,
      "metar_trigger": false,
      "taf_trigger": false,
      "metar": "METAR LIPQ 180550Z AUTO 02003KT 9999 NCD M01/M03 Q1013",
      "taf": "TAF LIPQ 180500Z 1806/1906 VRB05KT CAVOK"
    },
    {
      "icao": "LIPR",
      "alert": "OK",
      "vis_m": 9999,
      "fzfg": false,
      "metar_trigger": false,
      "taf_trigger": false,
      "metar": "METAR LIPR 180550Z AUTO VRB02KT 9999 NCD 03/M03 Q1012",
      "taf": "TAF LIPR 180500Z 1806/1906 VRB05KT CAVOK"
    },
    {
      "icao": "LIPX",
      "alert": "OK",
      "vis_m": 9999,
      "fzfg": false,
      "metar_trigger": false,
      "taf_trigger": false,
      "metar": "METAR LIPX 180550Z VRB02KT CAVOK 00/M05 Q1012",
      "taf": "TAF LIPX 180500Z 1806/1906 04010KT CAVOK"
    },
    {
      "icao": "LIPY",
      "alert": "OK",
      "vis_m": 9999,
      "fzfg": false,
      "metar_trigger": false,
      "taf_trigger": false,
      "metar": "METAR LIPY 180550Z AUTO 18003KT 9999 NCD 03/M01 Q1013",
      "taf": "TAF LIPY 180500Z 1806/1906 VRB05KT CAVOK"
    },
    {
      "icao": "LIPZ",
      "alert": "OK",
      "vis_m": 9999,
      "fzfg": false,
      "metar_trigger": false,
      "taf_trigger": false,
      "metar": "METAR LIPZ 180550Z 35005KT CAVOK 03/01 Q1012 NOSIG",
      "taf": "TAF LIPZ 180500Z 1806/1912 04006KT CAVOK"
    },
    {
      "icao": "LIRF",
      "alert": "OK",
      "vis_m": 9999,
      "fzfg": false,
      "metar_trigger": false,
      "taf_trigger": false,
      "metar": "METAR LIRF 180550Z 07006KT CAVOK 03/02 Q1014 NOSIG",
      "taf": "TAF LIRF 180500Z 1806/1912 08007KT 9999 SCT025"
    },
    {
      "icao": "LIRN",
      "alert": "OK",
      "vis_m": 9999,
      "fzfg": false,
      "metar_trigger": false,
      "taf_trigger": false,
      "metar": "METAR LIRN 180550Z 02003KT CAVOK 04/00 Q1015 NOSIG",
      "taf": "TAF LIRN 180500Z 1806/1906 VRB04KT 9999 FEW030"
    },
    {
      "icao": "LIRP",
      "alert": "OK",
      "vis_m": 9999,
      "fzfg": false,
      "metar_trigger": false,
      "taf_trigger": false,
      "metar": "METAR LIRP 180545Z COR 12004KT 9999 SCT025 04/04 Q1013 NOSIG",
      "taf": "TAF LIRP 180500Z 1806/1906 12005KT CAVOK"
    },
    {
      "icao": "LIRZ",
      "alert": "OK",
      "vis_m": 9999,
      "fzfg": false,
      "metar_trigger": false,
      "taf_trigger": false,
      "metar": "METAR LIRZ 180550Z AUTO 28002KT 9999 BKN037/// 02/01 Q1014",
      "taf": "TAF LIRZ 180500Z 1806/1906 VRB05KT 9999 SCT035"
    },
    {
      "icao": "LJLJ",
      "alert": "OK",
      "vis_m": 9999,
      "fzfg": false,
      "metar_trigger": false,
      "taf_trigger": false,
      "metar": "METAR LJLJ 180600Z VRB02KT CAVOK M05/M06 Q1013 NOSIG",
      "taf": "TAF LJLJ 180500Z 1806/1906 VRB02KT CAVOK"
    },
    {
      "icao": "LKMT",
      "alert": "OK",
      "vis_m": 9999,
      "fzfg": false,
      "metar_trigger": false,
      "taf_trigger": false,
      "metar": "METAR LKMT 180600Z 23012KT CAVOK 01/M01 Q1009 NOSIG",
      "taf": "TAF LKMT 180500Z 1806/1906 22012KT 9999 SCT016 BKN030"
    },
    {
      "icao": "LKPR",
      "alert": "OK",
      "vis_m": 9999,
      "fzfg": false,
      "metar_trigger": false,
      "taf_trigger": false,
      "metar": "METAR LKPR 180600Z 25013KT 9999 -SN FEW014 00/M01 Q1010 NOSIG",
      "taf": "TAF LKPR 180500Z 1806/1912 26010KT 9999 BKN025"
    },
    {
      "icao": "LLBG",
      "alert": "OK",
      "vis_m": 9999,
      "fzfg": false,
      "metar_trigger": false,
      "taf_trigger": false,
      "metar": "METAR LLBG 180550Z 18011KT CAVOK 16/07 Q1014 NOSIG",
      "taf": "TAF LLBG 180512Z 1806/1906 17008KT CAVOK"
    },
    {
      "icao": "LMML",
      "alert": "OK",
      "vis_m": 9999,
      "fzfg": false,
      "metar_trigger": false,
      "taf_trigger": false,
      "metar": "METAR LMML 180545Z 28009KT 9999 FEW037 11/07 Q1018 NOSIG",
      "taf": "TAF LMML 180500Z 1806/1906 29015KT 9999 FEW020"
    },
    {
      "icao": "LOWW",
      "alert": "OK",
      "vis_m": 9999,
      "fzfg": false,
      "metar_trigger": false,
      "taf_trigger": false,
      "metar": "METAR LOWW 180550Z 28012KT 9999 FEW050 03/M02 Q1013 NOSIG",
      "taf": "TAF LOWW 180515Z 1806/1912 28010KT 9999 FEW050 TX06/1811Z TNM02/1902Z"
    },
    {
      "icao": "LPFR",
      "alert": "OK",
      "vis_m": 9999,
      "fzfg": false,
      "metar_trigger": false,
      "taf_trigger": false,
      "metar": "METAR LPFR 180600Z 31005KT 9999 FEW015 BKN022 12/08 Q1022",
      "taf": "TAF LPFR 180500Z 1806/1906 31007KT 9999 SCT012 BKN020"
    },
    {
      "icao": "LPMA",
      "alert": "OK",
      "vis_m": 9999,
      "fzfg": false,
      "metar_trigger": false,
      "taf_trigger": false,
      "metar": "METAR LPMA 180600Z 25003KT 220V280 9999 SCT014 13/09 Q1024",
      "taf": "TAF LPMA 180500Z 1806/1906 VRB05KT 9999 SCT014"
    },
    {
      "icao": "LPPR",
      "alert": "OK",
      "vis_m": 6000,
      "fzfg": false,
      "metar_trigger": false,
      "taf_trigger": false,
      "metar": "METAR LPPR 180600Z 17017KT 6000 -RADZ BKN007 BKN020 11/11 Q1017",
      "taf": "TAF LPPR 180500Z 1806/1906 19015KT 8000 SCT006 BKN012"
    },
    {
      "icao": "LPPS",
      "alert": "OK",
      "vis_m": 9999,
      "fzfg": false,
      "metar_trigger": false,
      "taf_trigger": false,
      "metar": "METAR LPPS 180600Z 29004KT 260V350 9999 FEW014 13/11 Q1024",
      "taf": "TAF LPPS 180500Z 1806/1912 33005KT 9999 SCT015"
    },
    {
      "icao": "LPPT",
      "alert": "OK",
      "vis_m": 9999,
      "fzfg": false,
      "metar_trigger": false,
      "taf_trigger": false,
      "metar": "METAR LPPT 180600Z 23005KT 9999 SCT045 11/09 Q1021",
      "taf": "TAF LPPT 180500Z 1806/1912 22005KT 9999 BKN020"
    },
    {
      "icao": "LQBK",
      "alert": "OK",
      "vis_m": 9999,
      "fzfg": false,
      "metar_trigger": false,
      "taf_trigger": false,
      "metar": "METAR LQBK 180600Z 14006KT CAVOK 01/M00 Q1014 NOSIG",
      "taf": "TAF LQBK 180500Z 1806/1906 16005KT CAVOK TX08/1813Z TN00/1824Z"
    },
    {
      "icao": "LQSA",
      "alert": "OK",
      "vis_m": 9999,
      "fzfg": false,
      "metar_trigger": false,
      "taf_trigger": false,
      "metar": "METAR LQSA 180600Z 29002KT 9999 FEW040 M02/M02 Q1013 NOSIG",
      "taf": "TAF LQSA 180500Z 1806/1906 VRB02KT 9999 SCT045 TX06/1813Z TNM02/1902Z"
    },
    {
      "icao": "LQTZ",
      "alert": "OK",
      "vis_m": 800,
      "fzfg": true,
      "metar_trigger": false,
      "taf_trigger": false,
      "metar": "METAR LQTZ 180600Z VRB02KT 0800 R09/0900U FZFG BKN001 M00/M00 Q1014",
      "taf": "TAF LQTZ 180500Z 1806/1906 28005KT 3000 BR SCT035 TX08/1814Z TNM01/1824Z"
    },
    {
      "icao": "LRBC",
      "alert": "OK",
      "vis_m": 2500,
      "fzfg": false,
      "metar_trigger": false,
      "taf_trigger": false,
      "metar": "METAR LRBC 180600Z 36008KT 2500 -SN BR OVC006 M05/M06 Q1008",
      "taf": "TAF LRBC 180500Z 1806/1815 35012KT 5000 -SN BKN010 OVC025"
    },
    {
      "icao": "LRBS",
      "alert": "OK",
      "vis_m": 1200,
      "fzfg": false,
      "metar_trigger": false,
      "taf_trigger": false,
      "metar": "METAR LRBS 180600Z VRB02KT 1200 R07/1900N -SN BR SCT003 BKN005 OVC008 00/M00 Q1004 NOSIG",
      "taf": "TAF LRBS 180500Z 1806/1906 VRB04KT 3000 -SN BR BKN005 OVC015"
    },
    {
      "icao": "LRBV",
      "alert": "OK",
      "vis_m": 1300,
      "fzfg": false,
      "metar_trigger": false,
      "taf_trigger": false,
      "metar": "METAR LRBV 180600Z VRB02KT 1300 R21/P2000D -SN BR BKN004 OVC018 M02/M03 Q1004",
      "taf": "TAF LRBV 180500Z 1806/1815 VRB04KT 5000 -SN BR OVC020"
    },
    {
      "icao": "LRCL",
      "alert": "OK",
      "vis_m": 9999,
      "fzfg": false,
      "metar_trigger": false,
      "taf_trigger": false,
      "metar": "METAR LRCL 180600Z 33005KT 290V360 9999 FEW058 00/M02 Q1007",
      "taf": "TAF LRCL 180500Z 1806/1815 VRB04KT 9999 BKN035"
    },
    {
      "icao": "LRCV",
      "alert": "OK",
      "vis_m": 9999,
      "fzfg": false,
      "metar_trigger": false,
      "taf_trigger": false,
      "metar": "METAR LRCV 180600Z 27007KT CAVOK 01/01 Q1004",
      "taf": "TAF LRCV 180500Z 1806/1815 25006KT 9999 BKN040"
    },
    {
      "icao": "LRIA",
      "alert": "OK",
      "vis_m": 1200,
      "fzfg": false,
      "metar_trigger": false,
      "taf_trigger": false,
      "metar": "METAR LRIA 180600Z 32008KT 290V350 1200 R32/1800N -SN BR BKN006 OVC017 M06/M07 Q1008",
      "taf": "TAF LRIA 180500Z 1806/1815 35012KT 3000 -SN BKN015 OVC025"
    },
    {
      "icao": "LROP",
      "alert": "OK",
      "vis_m": 1000,
      "fzfg": false,
      "metar_trigger": false,
      "taf_trigger": false,
      "metar": "METAR LROP 180600Z 00000KT 1000 R08R/1800U SN BKN004 OVC012 00/00 Q1003 BECMG 3000 BKN010",
      "taf": "TAF LROP 180500Z 1806/1906 VRB04KT 3000 -SN BR BKN005 OVC015"
    },
    {
      "icao": "LRSB",
      "alert": "OK",
      "vis_m": 3000,
      "fzfg": false,
      "metar_trigger": false,
      "taf_trigger": false,
      "metar": "METAR LRSB 180600Z VRB01KT 3000 -SN BR SCT004 BKN018 M00/M00 Q1006",
      "taf": "TAF LRSB 180500Z 1806/1906 VRB04KT 3000 -SN BR BKN005 OVC010"
    },
    {
      "icao": "LRSM",
      "alert": "OK",
      "vis_m": 7000,
      "fzfg": false,
      "metar_trigger": false,
      "taf_trigger": false,
      "metar": "METAR LRSM 180600Z 25005KT 7000 NSC M03/M04 Q1008",
      "taf": "TAF LRSM 180500Z 1806/1815 VRB04KT CAVOK"
    },
    {
      "icao": "LRSV",
      "alert": "OK",
      "vis_m": 2000,
      "fzfg": false,
      "metar_trigger": false,
      "taf_trigger": false,
      "metar": "METAR LRSV 180600Z 31007KT 2000 -SN BR BKN040 M06/M07 Q1007",
      "taf": "TAF LRSV 180500Z 1806/1815 34008KT 3000 -SN BR BKN025"
    },
    {
      "icao": "LRTM",
      "alert": "OK",
      "vis_m": 6000,
      "fzfg": false,
      "metar_trigger": false,
      "taf_trigger": false,
      "metar": "METAR LRTM 180600Z 01001KT 6000 -SN SCT010 BKN026 M00/M01 Q1006",
      "taf": "TAF LRTM 180500Z 1806/1815 VRB04KT 3000 -SN BR BKN015 BKN020"
    },
    {
      "icao": "LRTR",
      "alert": "OK",
      "vis_m": 4000,
      "fzfg": false,
      "metar_trigger": false,
      "taf_trigger": false,
      "metar": "METAR LRTR 180600Z 30004KT 270V340 4000 BR NSC M02/M02 Q1011 BECMG 5000",
      "taf": "TAF LRTR 180500Z 1806/1906 VRB04KT 3000 BR NSC"
    },
    {
      "icao": "LTAC",
      "alert": "OK",
      "vis_m": 9999,
      "fzfg": false,
      "metar_trigger": false,
      "taf_trigger": false,
      "metar": "SPECI LTAC 180607Z 20006KT 9999 FEW015 BKN030 BKN080 05/04 Q0996 RESHRA NOSIG",
      "taf": "TAF LTAC 180440Z 1806/1906 20012KT 9999 SCT040 BKN100"
    },
    {
      "icao": "LTFM",
      "alert": "OK",
      "vis_m": 7000,
      "fzfg": false,
      "metar_trigger": false,
      "taf_trigger": false,
      "metar": "METAR LTFM 180550Z 32017KT 7000 -SHRA BKN006 BKN028 04/02 Q0996 NOSIG RMK RWY17L 30016KT RWY34L 31014KT RWY16R 31012KT RWY36 31016KT RWY18 31017KT",
      "taf": "TAF LTFM 180440Z 1806/1912 24012KT 8000 -SHRA SCT008 BKN028"
    },
    {
      "icao": "LUKK",
      "alert": "OK",
      "vis_m": 9999,
      "fzfg": false,
      "metar_trigger": false,
      "taf_trigger": false,
      "metar": "METAR LUKK 180600Z 01015KT 9999 -SN OVC014 M04/M07 Q1005 TEMPO 35015G25KT 5000 SN OVC008",
      "taf": "TAF LUKK 180517Z 1806/1906 36014KT 9999 OVC010"
    },
    {
      "icao": "LWOH",
      "alert": "OK",
      "vis_m": null,
      "fzfg": false,
      "metar_trigger": false,
      "taf_trigger": false,
      "metar": "",
      "taf": "TAF LWOH 180535Z 1806/1906 34010KT 9999 SCT040"
    },
    {
      "icao": "LWSK",
      "alert": "OK",
      "vis_m": 9999,
      "fzfg": false,
      "metar_trigger": false,
      "taf_trigger": false,
      "metar": "METAR LWSK 180550Z 29013G23KT 9999 BKN055 06/M02 Q1008 NOSIG",
      "taf": "TAF LWSK 180535Z 1806/1906 33012KT 9999 SCT040"
    },
    {
      "icao": "LYBE",
      "alert": "OK",
      "vis_m": 9999,
      "fzfg": false,
      "metar_trigger": false,
      "taf_trigger": false,
      "metar": "METAR LYBE 180600Z 28013KT 9999 FEW023 01/M01 Q1013 NOSIG",
      "taf": "TAF LYBE 180500Z 1806/1906 30012KT 9999 SCT025 TX09/1813Z TN00/1806Z"
    },
    {
      "icao": "LYNI",
      "alert": "OK",
      "vis_m": 9999,
      "fzfg": false,
      "metar_trigger": false,
      "taf_trigger": false,
      "metar": "METAR LYNI 180600Z 33012KT 9999 BKN020 BKN030 03/01 Q1010 NOSIG",
      "taf": "TAF LYNI 180500Z 1806/1906 32016KT 9999 BKN015 BKN030 TX07/1813Z TNM01/1905Z"
    },
    {
      "icao": "LYPG",
      "alert": "OK",
      "vis_m": 9999,
      "fzfg": false,
      "metar_trigger": false,
      "taf_trigger": false,
      "metar": "METAR LYPG 180600Z 33004KT 9999 FEW040 03/M04 Q1012 NOSIG",
      "taf": "TAF LYPG 180500Z 1806/1906 32010KT CAVOK TX13/1812Z TN02/1905Z"
    },
    {
      "icao": "LZIB",
      "alert": "OK",
      "vis_m": 9999,
      "fzfg": false,
      "metar_trigger": false,
      "taf_trigger": false,
      "metar": "METAR LZIB 180600Z 29014KT 9999 FEW012 03/M00 Q1012 NOSIG",
      "taf": "TAF LZIB 180515Z 1806/1906 28009KT 9999 SCT030"
    },
    {
      "icao": "LZKZ",
      "alert": "OK",
      "vis_m": 9999,
      "fzfg": false,
      "metar_trigger": false,
      "taf_trigger": false,
      "metar": "METAR LZKZ 180600Z 00000KT CAVOK 01/M02 Q1009 NOSIG",
      "taf": "TAF LZKZ 180515Z 1806/1906 22005KT CAVOK"
    },
    {
      "icao": "LZTT",
      "alert": "OK",
      "vis_m": 9999,
      "fzfg": false,
      "metar_trigger": false,
      "taf_trigger": false,
      "metar": "METAR LZTT 180600Z VRB03KT 9999 FEW016 M04/M06 Q1007 NOSIG",
      "taf": "TAF LZTT 180515Z 1806/1906 26005KT 9999 FEW020"
    },
    {
      "icao": "OEJN",
      "alert": "OK",
      "vis_m": 9999,
      "fzfg": false,
      "metar_trigger": false,
      "taf_trigger": false,
      "metar": "METAR OEJN 180600Z 32007KT CAVOK 28/14 Q1011 NOSIG",
      "taf": "TAF OEJN 180500Z 1806/1912 32015KT CAVOK"
    },
    {
      "icao": "OEMA",
      "alert": "OK",
      "vis_m": 9999,
      "fzfg": false,
      "metar_trigger": false,
      "taf_trigger": false,
      "metar": "METAR OEMA 180600Z 35002KT CAVOK 23/02 Q1017 NOSIG",
      "taf": "TAF OEMA 180500Z 1806/1912 VRB03KT CAVOK"
    },
    {
      "icao": "OJAI",
      "alert": "OK",
      "vis_m": 3000,
      "fzfg": false,
      "metar_trigger": false,
      "taf_trigger": false,
      "metar": "METAR OJAI 180600Z 00000KT 3000 BR NSC 07/06 Q1016 NOSIG",
      "taf": "TAF OJAI 180446Z 1806/1912 25010KT 4000 HZ NSC"
    },
    {
      "icao": "OMAA",
      "alert": "OK",
      "vis_m": 9999,
      "fzfg": false,
      "metar_trigger": false,
      "taf_trigger": false,
      "metar": "METAR OMAA 180600Z 09006KT 040V130 CAVOK 23/06 Q1017 NOSIG",
      "taf": "TAF OMAA 180500Z 1806/1912 10006KT 8000 NSC"
    },
    {
      "icao": "OMDB",
      "alert": "OK",
      "vis_m": 9999,
      "fzfg": false,
      "metar_trigger": false,
      "taf_trigger": false,
      "metar": "METAR OMDB 180600Z 07004KT CAVOK 27/04 Q1018 NOSIG",
      "taf": "TAF OMDB 180500Z 1806/1912 08005KT CAVOK"
    },
    {
      "icao": "UAAA",
      "alert": "OK",
      "vis_m": 2300,
      "fzfg": false,
      "metar_trigger": false,
      "taf_trigger": false,
      "metar": "METAR UAAA 180600Z VRB01MPS 2300 BR BKN200 06/06 Q1020 NOSIG",
      "taf": "TAF UAAA 180505Z 1806/1906 06003MPS 3100 BR SCT020 BKN050 TX12/1809Z TN02/1903Z"
    },
    {
      "icao": "UBBB",
      "alert": "OK",
      "vis_m": 9999,
      "fzfg": false,
      "metar_trigger": false,
      "taf_trigger": false,
      "metar": "METAR UBBB 180600Z 31015KT 9999 BKN009 08/06 Q1010 NOSIG",
      "taf": "TAF UBBB 180455Z 1806/1906 32010KT 8000 BKN009 TX09/1810Z TN04/1800Z"
    },
    {
      "icao": "UDSG",
      "alert": "OK",
      "vis_m": 9999,
      "fzfg": false,
      "metar_trigger": false,
      "taf_trigger": false,
      "metar": "METAR UDSG 180600Z 11001KT 9999 BKN040 04/00 Q1015 NOSIG",
      "taf": "TAF UDSG 180500Z 1806/1906 VRB06KT 9999 BKN040"
    },
    {
      "icao": "UDYZ",
      "alert": "OK",
      "vis_m": 9999,
      "fzfg": false,
      "metar_trigger": false,
      "taf_trigger": false,
      "metar": "METAR UDYZ 180600Z 32003KT 9999 SCT046 09/04 Q1014 NOSIG",
      "taf": "TAF UDYZ 180500Z 1806/1906 24006KT 9999 SCT040"
    },
    {
      "icao": "UGKO",
      "alert": "OK",
      "vis_m": 9999,
      "fzfg": false,
      "metar_trigger": false,
      "taf_trigger": false,
      "metar": "METAR UGKO 180600Z 06006KT CAVOK 15/03 Q1004 NOSIG",
      "taf": "TAF UGKO 180500Z 1806/1906 09010KT CAVOK TX24/1812Z TN09/1904Z"
    }
  ]
}