{
  "ts_utc": "2025-12-20T14:50:45Z",
  "threshold_m": 150,
  "source": "stations_override.txt (ICAO list) + aviationweather.gov (METAR/TAF raw)",
  "station_count": 114,
  "stations": [
    {
      "icao": "BIKF",
      "alert": "OK",
      "vis_m": 9999,
      "fzfg": false,
      "metar_trigger": false,
      "taf_trigger": false,
      "metar": "METAR BIKF 201430Z 17007KT 9999 BKN017 BKN046 06/04 Q0990",
      "taf": "TAF BIKF 201348Z 2015/2115 12020G30KT 9999 -RA BKN015 OVC025 TX09/2015Z TN04/2019Z"
    },
    {
      "icao": "BKPR",
      "alert": "OK",
      "vis_m": 100,
      "fzfg": false,
      "metar_trigger": false,
      "taf_trigger": false,
      "metar": "METAR BKPR 201430Z VRB02KT 0100 R17/0250N R35/0225N FG VV001 01/01 Q1018 NOSIG",
      "taf": ""
    },
    {
      "icao": "EBBR",
      "alert": "OK",
      "vis_m": 9999,
      "fzfg": false,
      "metar_trigger": false,
      "taf_trigger": false,
      "metar": "METAR EBBR 201420Z 08004KT CAVOK 06/05 Q1013 NOSIG",
      "taf": "TAF EBBR 201103Z 2012/2118 08005KT 6000 FEW018"
    },
    {
      "icao": "EBCI",
      "alert": "OK",
      "vis_m": 6000,
      "fzfg": false,
      "metar_trigger": false,
      "taf_trigger": false,
      "metar": "METAR EBCI 201420Z 08006KT 6000 -RA BKN020 07/06 Q1013 TEMPO 4000 -RADZ BKN012",
      "taf": "TAF EBCI 201103Z 2012/2118 11004KT 8000 FEW018"
    },
    {
      "icao": "EDDB",
      "alert": "OK",
      "vis_m": 9999,
      "fzfg": false,
      "metar_trigger": false,
      "taf_trigger": false,
      "metar": "METAR EDDB 201420Z COR AUTO VRB02KT 9999 1500 BR FEW009 07/06 Q1019 TEMPO 4000 BR BKN009",
      "taf": "TAF EDDB 201100Z 2012/2112 VRB02KT CAVOK"
    },
    {
      "icao": "EDDH",
      "alert": "OK",
      "vis_m": 350,
      "fzfg": false,
      "metar_trigger": false,
      "taf_trigger": false,
      "metar": "METAR EDDH 201420Z AUTO 12004KT 080V150 0350 0200 R23/0450N R15/0450N FG VV003 04/04 Q1018 TEMPO 0300 VV000",
      "taf": "TAF EDDH 201124Z 2012/2118 VRB03KT 0500 FG VV003"
    },
    {
      "icao": "EDDK",
      "alert": "OK",
      "vis_m": 9999,
      "fzfg": false,
      "metar_trigger": false,
      "taf_trigger": false,
      "metar": "METAR EDDK 201420Z AUTO 10003KT 060V140 9999 OVC022 09/08 Q1015 TEMPO BKN010",
      "taf": "TAF EDDK 201100Z 2012/2118 11007KT 9999 BKN020"
    },
    {
      "icao": "EDDN",
      "alert": "OK",
      "vis_m": 9999,
      "fzfg": false,
      "metar_trigger": false,
      "taf_trigger": false,
      "metar": "METAR EDDN 201420Z AUTO 31003KT CAVOK 08/04 Q1017 NOSIG",
      "taf": ""
    },
    {
      "icao": "EDFH",
      "alert": "OK",
      "vis_m": 400,
      "fzfg": false,
      "metar_trigger": false,
      "taf_trigger": false,
      "metar": "METAR EDFH 201420Z 14009KT 0400 R21/0750N FG BKN001 07/07 Q1014",
      "taf": "TAF EDFH 201100Z 2012/2112 12007KT 0800 FG BKN003"
    },
    {
      "icao": "EDJA",
      "alert": "OK",
      "vis_m": 9999,
      "fzfg": false,
      "metar_trigger": false,
      "taf_trigger": false,
      "metar": "METAR EDJA 201420Z 29005KT CAVOK 05/03 Q1015",
      "taf": "TAF EDJA 201400Z 2015/2024 04003KT CAVOK"
    },
    {
      "icao": "EDLW",
      "alert": "OK",
      "vis_m": 9999,
      "fzfg": false,
      "metar_trigger": false,
      "taf_trigger": false,
      "metar": "METAR EDLW 201420Z 03004KT CAVOK 06/05 Q1015",
      "taf": "TAF EDLW 201100Z 2012/2112 VRB03KT 9999 BKN030"
    },
    {
      "icao": "EDSB",
      "alert": "OK",
      "vis_m": 9999,
      "fzfg": false,
      "metar_trigger": false,
      "taf_trigger": false,
      "metar": "METAR EDSB 201420Z 34002KT CAVOK 10/08 Q1015",
      "taf": "TAF EDSB 201100Z 2012/2112 VRB03KT 9999 SCT004 BKN045"
    },
    {
      "icao": "EETN",
      "alert": "OK",
      "vis_m": 9999,
      "fzfg": false,
      "metar_trigger": false,
      "taf_trigger": false,
      "metar": "METAR EETN 201420Z 22011KT 9999 BKN011 FEW019CB 06/05 Q1007 TEMPO 5000 SHRA",
      "taf": "TAF EETN 201130Z 2012/2112 22012KT 9999 BKN012 BKN035"
    },
    {
      "icao": "EFHK",
      "alert": "OK",
      "vis_m": 9999,
      "fzfg": false,
      "metar_trigger": false,
      "taf_trigger": false,
      "metar": "METAR EFHK 201420Z 20009KT 9999 -RA FEW009 BKN013 BKN030 06/05 Q1005 TEMPO SCT012 BKN025",
      "taf": "TAF EFHK 201433Z 2015/2115 23009KT 9999 SCT010 BKN018"
    },
    {
      "icao": "EFTU",
      "alert": "OK",
      "vis_m": 9999,
      "fzfg": false,
      "metar_trigger": false,
      "taf_trigger": false,
      "metar": "METAR EFTU 201420Z AUTO 25009KT 9999 -SHRA OVC009 06/05 Q1004",
      "taf": "TAF EFTU 201433Z 2015/2115 25010KT 9999 -RA SCT010 BKN015"
    },
    {
      "icao": "EGGW",
      "alert": "OK",
      "vis_m": 9999,
      "fzfg": false,
      "metar_trigger": false,
      "taf_trigger": false,
      "metar": "METAR EGGW 201420Z AUTO 13010KT 9999 BKN019 BKN024 08/05 Q1010",
      "taf": "TAF EGGW 201104Z 2012/2112 13007KT 9999 FEW025"
    },
    {
      "icao": "EGKK",
      "alert": "OK",
      "vis_m": 9999,
      "fzfg": false,
      "metar_trigger": false,
      "taf_trigger": false,
      "metar": "METAR EGKK 201420Z 12007KT 9999 FEW022 09/06 Q1010",
      "taf": "TAF EGKK 201055Z 2012/2118 13007KT 9999 FEW025"
    },
    {
      "icao": "EHEH",
      "alert": "OK",
      "vis_m": 9999,
      "fzfg": false,
      "metar_trigger": false,
      "taf_trigger": false,
      "metar": "METAR EHEH 201425Z AUTO 07006KT 020V140 9999 SCT019 OVC100 07/05 Q1014 BLU NOSIG RMK TREND REMOTE BY EHWX",
      "taf": "TAF EHEH 201114Z 2012/2118 08007KT CAVOK"
    },
    {
      "icao": "EKBI",
      "alert": "OK",
      "vis_m": 9999,
      "fzfg": false,
      "metar_trigger": false,
      "taf_trigger": false,
      "metar": "METAR EKBI 201420Z AUTO 20005KT 9999 BKN009/// 08/07 Q1017",
      "taf": "TAF EKBI 201427Z 2015/2115 20005KT 9999 SCT010"
    },
    {
      "icao": "EKCH",
      "alert": "OK",
      "vis_m": 9999,
      "fzfg": false,
      "metar_trigger": false,
      "taf_trigger": false,
      "metar": "METAR EKCH 201420Z AUTO 23009KT 9999 BKN016/// 07/05 Q1018 TEMPO BKN012",
      "taf": "TAF EKCH 201427Z 2015/2115 24010KT 9999 SCT010 BKN018"
    },
    {
      "icao": "ENTO",
      "alert": "OK",
      "vis_m": 9999,
      "fzfg": false,
      "metar_trigger": false,
      "taf_trigger": false,
      "metar": "METAR ENTO 201420Z 23003KT CAVOK 06/02 Q1011 NOSIG",
      "taf": "TAF ENTO 201100Z 2012/2112 24010KT CAVOK"
    },
    {
      "icao": "EPGD",
      "alert": "OK",
      "vis_m": 9999,
      "fzfg": false,
      "metar_trigger": false,
      "taf_trigger": false,
      "metar": "METAR EPGD 201400Z 27010KT 9999 BKN014 06/03 Q1018",
      "taf": "TAF EPGD 201130Z 2012/2112 29012KT 9999 BKN015"
    },
    {
      "icao": "EPKK",
      "alert": "OK",
      "vis_m": 700,
      "fzfg": false,
      "metar_trigger": false,
      "taf_trigger": false,
      "metar": "METAR EPKK 201400Z 20003KT 0700 R25/1100N FG SCT001 OVC002 03/03 Q1020",
      "taf": "TAF EPKK 201430Z 2015/2115 19002KT 0600 FG SCT001 OVC002"
    },
    {
      "icao": "EPKT",
      "alert": "OK",
      "vis_m": 3100,
      "fzfg": false,
      "metar_trigger": false,
      "taf_trigger": false,
      "metar": "METAR EPKT 201400Z 21004KT 3100 BR OVC002 04/04 Q1020",
      "taf": "TAF EPKT 201130Z 2012/2112 18005KT 0300 FG OVC001"
    },
    {
      "icao": "EPWA",
      "alert": "OK",
      "vis_m": 5000,
      "fzfg": false,
      "metar_trigger": false,
      "taf_trigger": false,
      "metar": "METAR EPWA 201400Z 23003KT 190V260 5000 BR BKN006 05/05 Q1019 BECMG 4000 BR BKN004",
      "taf": "TAF EPWA 201430Z 2015/2115 VRB03KT 6000 OVC006"
    },
    {
      "icao": "EPWR",
      "alert": "OK",
      "vis_m": 4400,
      "fzfg": false,
      "metar_trigger": false,
      "taf_trigger": false,
      "metar": "METAR EPWR 201430Z 14004KT 4400 BR BKN003 OVC008 05/04 Q1020",
      "taf": "TAF EPWR 201430Z 2015/2115 VRB02KT 3000 BR OVC003"
    },
    {
      "icao": "ESGG",
      "alert": "OK",
      "vis_m": 9999,
      "fzfg": false,
      "metar_trigger": false,
      "taf_trigger": false,
      "metar": "METAR ESGG 201420Z 26010KT 240V310 9999 OVC011 07/05 Q1014",
      "taf": "TAF ESGG 201430Z 2015/2115 26012KT 9999 BKN012"
    },
    {
      "icao": "ESKN",
      "alert": "OK",
      "vis_m": 9999,
      "fzfg": false,
      "metar_trigger": false,
      "taf_trigger": false,
      "metar": "METAR ESKN 201420Z 25011KT 9999 FEW026 BKN035 07/06 Q1009",
      "taf": "TAF ESKN 201430Z 2015/2115 26010KT 9999 BKN040"
    },
    {
      "icao": "ESMX",
      "alert": "OK",
      "vis_m": 9999,
      "fzfg": false,
      "metar_trigger": false,
      "taf_trigger": false,
      "metar": "METAR ESMX 201420Z AUTO 26008KT 210V300 9999 SCT014/// BKN020/// OVC026/// 07/05 Q1014",
      "taf": "TAF ESMX 201130Z 2012/2015 23011KT 9999 OVC035"
    },
    {
      "icao": "EVRA",
      "alert": "OK",
      "vis_m": 9999,
      "fzfg": false,
      "metar_trigger": false,
      "taf_trigger": false,
      "metar": "METAR EVRA 201420Z 19007KT 9999 FEW016 04/03 Q1013 NOSIG",
      "taf": "TAF EVRA 201409Z 2015/2115 21007KT 9000 BKN015"
    },
    {
      "icao": "EYKA",
      "alert": "OK",
      "vis_m": 5000,
      "fzfg": false,
      "metar_trigger": false,
      "taf_trigger": false,
      "metar": "METAR EYKA 201420Z 24006KT 5000 BR OVC003 04/04 Q1017",
      "taf": ""
    },
    {
      "icao": "EYVI",
      "alert": "OK",
      "vis_m": 650,
      "fzfg": false,
      "metar_trigger": false,
      "taf_trigger": false,
      "metar": "METAR EYVI 201420Z 20005KT 0650 R01/1500U FG VV001 02/01 Q1017 TEMPO 1500 RA BR",
      "taf": "TAF EYVI 201100Z 2012/2112 21010KT 0600 DZ FG OVC002"
    },
    {
      "icao": "GCLP",
      "alert": "OK",
      "vis_m": 9999,
      "fzfg": false,
      "metar_trigger": false,
      "taf_trigger": false,
      "metar": "METAR GCLP 201430Z 02018KT 9999 FEW035 SCT045 21/11 Q1022 NOSIG",
      "taf": "TAF GCLP 201400Z 2015/2115 02019KT 9999 SCT035 TX21/2114Z TN15/2106Z"
    },
    {
      "icao": "GCTS",
      "alert": "OK",
      "vis_m": 9999,
      "fzfg": false,
      "metar_trigger": false,
      "taf_trigger": false,
      "metar": "METAR GCTS 201430Z 09021KT 9999 SCT035 21/11 Q1022 NOSIG",
      "taf": "TAF GCTS 201400Z 2015/2115 08019KT 9999 SCT035 TX22/2114Z TN15/2106Z"
    },
    {
      "icao": "HECA",
      "alert": "OK",
      "vis_m": 9999,
      "fzfg": false,
      "metar_trigger": false,
      "taf_trigger": false,
      "metar": "METAR HECA 201430Z 04009KT CAVOK 21/03 Q1015 NOSIG",
      "taf": "TAF HECA 201100Z 2012/2118 08010KT 9999 SCT020"
    },
    {
      "icao": "HEGN",
      "alert": "OK",
      "vis_m": 9999,
      "fzfg": false,
      "metar_trigger": false,
      "taf_trigger": false,
      "metar": "METAR HEGN 201400Z 09004KT CAVOK 22/13 Q1016 NOSIG",
      "taf": "TAF HEGN 201100Z 2012/2118 35010KT CAVOK"
    },
    {
      "icao": "HESH",
      "alert": "OK",
      "vis_m": 9999,
      "fzfg": false,
      "metar_trigger": false,
      "taf_trigger": false,
      "metar": "METAR HESH 201400Z 03008KT CAVOK 21/09 Q1016 NOSIG",
      "taf": "TAF HESH 201100Z 2012/2118 02010KT CAVOK"
    },
    {
      "icao": "HESX",
      "alert": "OK",
      "vis_m": 9999,
      "fzfg": false,
      "metar_trigger": false,
      "taf_trigger": false,
      "metar": "METAR HESX 201400Z 11005KT CAVOK 19/07 Q1017 NOSIG",
      "taf": "TAF HESX 201100Z 2012/2118 05008KT 9999 SCT020"
    },
    {
      "icao": "LATI",
      "alert": "OK",
      "vis_m": 9999,
      "fzfg": false,
      "metar_trigger": false,
      "taf_trigger": false,
      "metar": "METAR LATI 201450Z 29004KT 250V330 CAVOK 15/08 Q1015 NOSIG",
      "taf": "TAF LATI 201100Z 2012/2112 VRB05KT CAVOK TX17/2012Z TN02/2105Z"
    },
    {
      "icao": "LBSF",
      "alert": "OK",
      "vis_m": 9999,
      "fzfg": false,
      "metar_trigger": false,
      "taf_trigger": false,
      "metar": "METAR LBSF 201430Z 04003KT 9999 FEW032 09/02 Q1018 NOSIG",
      "taf": "TAF LBSF 201100Z 2012/2112 10010KT 7000 SCT030"
    },
    {
      "icao": "LBWN",
      "alert": "OK",
      "vis_m": 3900,
      "fzfg": false,
      "metar_trigger": false,
      "taf_trigger": false,
      "metar": "METAR LBWN 201430Z AUTO VRB02KT 3900 -SHRA SCT008/// BKN021/// OVC028/// 08/08 Q1020 TEMPO 5000 BR",
      "taf": ""
    },
    {
      "icao": "LCLK",
      "alert": "OK",
      "vis_m": 9999,
      "fzfg": false,
      "metar_trigger": false,
      "taf_trigger": false,
      "metar": "METAR LCLK 201430Z 20003KT 9999 FEW025 19/12 Q1017 NOSIG",
      "taf": "TAF LCLK 201130Z 2012/2112 19010KT 9999 FEW030"
    },
    {
      "icao": "LDDU",
      "alert": "OK",
      "vis_m": 9999,
      "fzfg": false,
      "metar_trigger": false,
      "taf_trigger": false,
      "metar": "METAR LDDU 201430Z VRB02KT 9999 FEW033 14/09 Q1015 NOSIG",
      "taf": "TAF LDDU 201125Z 2012/2112 19006KT 9999 FEW040 TX16/2012Z TN09/2103Z"
    },
    {
      "icao": "LDSP",
      "alert": "OK",
      "vis_m": 9999,
      "fzfg": false,
      "metar_trigger": false,
      "taf_trigger": false,
      "metar": "METAR LDSP 201430Z 23006KT CAVOK 15/09 Q1015 NOSIG",
      "taf": "TAF LDSP 201125Z 2012/2112 32005KT CAVOK TX17/2012Z TN07/2106Z"
    },
    {
      "icao": "LDZA",
      "alert": "OK",
      "vis_m": 3500,
      "fzfg": false,
      "metar_trigger": false,
      "taf_trigger": false,
      "metar": "METAR LDZA 201430Z VRB02KT 3500 BR OVC003 03/02 Q1021 TEMPO 1500 BCFG",
      "taf": "TAF LDZA 201125Z 2012/2112 VRB02KT 0600 FG VV002 TX04/2111Z TN02/2012Z"
    },
    {
      "icao": "LEAL",
      "alert": "OK",
      "vis_m": 9999,
      "fzfg": false,
      "metar_trigger": false,
      "taf_trigger": false,
      "metar": "METAR LEAL 201430Z 21006KT 170V250 9999 FEW035 19/09 Q1012 NOSIG",
      "taf": "TAF LEAL 201100Z 2012/2112 22008KT 9999 FEW015 TX17/2012Z TN08/2106Z"
    },
    {
      "icao": "LEBL",
      "alert": "OK",
      "vis_m": 5000,
      "fzfg": false,
      "metar_trigger": false,
      "taf_trigger": false,
      "metar": "METAR LEBL 201430Z 33010KT 5000 -RA FEW010 SCT034 BKN040 12/12 Q1013 RERA NOSIG",
      "taf": "TAF LEBL 201100Z 2012/2112 33009KT 8000 FEW030 BKN040 TX12/2012Z TN09/2106Z"
    },
    {
      "icao": "LECH",
      "alert": "OK",
      "vis_m": 9999,
      "fzfg": false,
      "metar_trigger": false,
      "taf_trigger": false,
      "metar": "METAR LECH 201430Z AUTO 12006KT CAVOK 13/08 Q1013",
      "taf": ""
    },
    {
      "icao": "LEMD",
      "alert": "OK",
      "vis_m": 9000,
      "fzfg": false,
      "metar_trigger": false,
      "taf_trigger": false,
      "metar": "METAR LEMD 201430Z 20005KT 9000 FEW012 SCT020 BKN040 09/09 Q1013 NOSIG",
      "taf": "TAF LEMD 201100Z 2012/2118 VRB04KT 9999 SCT045 TX11/2014Z TN05/2107Z"
    },
    {
      "icao": "LEMG",
      "alert": "OK",
      "vis_m": 9999,
      "fzfg": false,
      "metar_trigger": false,
      "taf_trigger": false,
      "metar": "METAR LEMG 201430Z 30013KT 9999 SCT060 15/08 Q1016 NOSIG",
      "taf": "TAF LEMG 201100Z 2012/2112 30009KT 9999 FEW030 TX16/2014Z TN08/2106Z"
    },
    {
      "icao": "LERS",
      "alert": "OK",
      "vis_m": 9999,
      "fzfg": false,
      "metar_trigger": false,
      "taf_trigger": false,
      "metar": "METAR LERS 201430Z 08004KT 020V140 CAVOK 16/09 Q1012",
      "taf": "TAF LERS 201400Z 2015/2115 VRB04KT 9999 FEW040 TX15/2112Z TN06/2106Z"
    },
    {
      "icao": "LEVC",
      "alert": "OK",
      "vis_m": 9999,
      "fzfg": false,
      "metar_trigger": false,
      "taf_trigger": false,
      "metar": "METAR LEVC 201430Z VRB02KT CAVOK 17/08 Q1013 NOSIG",
      "taf": "TAF LEVC 201100Z 2012/2112 VRB04KT 9999 FEW015 TX17/2012Z TN06/2107Z"
    },
    {
      "icao": "LFLL",
      "alert": "OK",
      "vis_m": 9999,
      "fzfg": false,
      "metar_trigger": false,
      "taf_trigger": false,
      "metar": "METAR LFLL 201430Z 14005KT 120V180 9999 FEW026 BKN120 13/10 Q1013 NOSIG",
      "taf": "TAF LFLL 201100Z 2012/2118 16008KT CAVOK"
    },
    {
      "icao": "LFMN",
      "alert": "OK",
      "vis_m": 9999,
      "fzfg": false,
      "metar_trigger": false,
      "taf_trigger": false,
      "metar": "METAR LFMN 201430Z VRB02KT 9999 SCT040 SCT066 BKN100 16/10 Q1015 NOSIG",
      "taf": "TAF LFMN 201400Z 2015/2121 VRB03KT 9999 BKN040"
    },
    {
      "icao": "LFOB",
      "alert": "OK",
      "vis_m": 8000,
      "fzfg": false,
      "metar_trigger": false,
      "taf_trigger": false,
      "metar": "METAR LFOB 201430Z AUTO 10007KT 8000 -DZ OVC004 08/08 Q1011 TEMPO 2000 -DZRA",
      "taf": "TAF LFOB 201100Z 2012/2112 11008KT 9999 OVC015"
    },
    {
      "icao": "LFPO",
      "alert": "OK",
      "vis_m": 4000,
      "fzfg": false,
      "metar_trigger": false,
      "taf_trigger": false,
      "metar": "METAR LFPO 201430Z 14005KT 4000 -DZRA OVC004 09/09 Q1011 TEMPO 6000 -RADZ BKN005",
      "taf": "TAF LFPO 201100Z 2012/2118 10005KT 9999 BKN008"
    },
    {
      "icao": "LFSB",
      "alert": "OK",
      "vis_m": 9999,
      "fzfg": false,
      "metar_trigger": false,
      "taf_trigger": false,
      "metar": "METAR LFSB 201430Z AUTO VRB03KT CAVOK 12/04 Q1015 NOSIG",
      "taf": "TAF LFSB 201100Z 2012/2112 15005KT CAVOK"
    },
    {
      "icao": "LGAV",
      "alert": "OK",
      "vis_m": 9999,
      "fzfg": false,
      "metar_trigger": false,
      "taf_trigger": false,
      "metar": "METAR LGAV 201420Z 01004KT 330V050 9999 FEW025 14/09 Q1017 NOSIG",
      "taf": "TAF LGAV 201100Z 2012/2112 02012KT 9999 SCT020 BKN070"
    },
    {
      "icao": "LGIR",
      "alert": "OK",
      "vis_m": 9999,
      "fzfg": false,
      "metar_trigger": false,
      "taf_trigger": false,
      "metar": "METAR LGIR 201350Z 06006KT 9999 FEW018 SCT080 16/12 Q1015 NOSIG",
      "taf": "TAF LGIR 201100Z 2012/2112 09010KT 9999 SCT020 BKN080"
    },
    {
      "icao": "LGKR",
      "alert": "OK",
      "vis_m": 9999,
      "fzfg": false,
      "metar_trigger": false,
      "taf_trigger": false,
      "metar": "METAR LGKR 201420Z 00000KT 9999 FEW018 15/11 Q1015 NOSIG",
      "taf": "TAF LGKR 201100Z 2012/2112 VRB05KT 9999 SCT020"
    },
    {
      "icao": "LGRP",
      "alert": "OK",
      "vis_m": 9999,
      "fzfg": false,
      "metar_trigger": false,
      "taf_trigger": false,
      "metar": "METAR LGRP 201420Z 10004KT 080V140 9999 SCT020 16/12 Q1014 NOSIG",
      "taf": "TAF LGRP 201100Z 2012/2112 VRB05KT 9999 SCT020"
    },
    {
      "icao": "LGTS",
      "alert": "OK",
      "vis_m": 9999,
      "fzfg": false,
      "metar_trigger": false,
      "taf_trigger": false,
      "metar": "METAR LGTS 201420Z VRB02KT 9999 FEW010 12/07 Q1018 NOSIG",
      "taf": "TAF LGTS 201100Z 2012/2112 VRB03KT 9999 FEW020"
    },
    {
      "icao": "LGZA",
      "alert": "OK",
      "vis_m": 9999,
      "fzfg": false,
      "metar_trigger": false,
      "taf_trigger": false,
      "metar": "METAR LGZA 201350Z 34004KT 9999 FEW020 BKN080 15/11 Q1015",
      "taf": "TAF LGZA 201400Z 2015/2024 08010KT 9999 SCT020 BKN070"
    },
    {
      "icao": "LHBP",
      "alert": "OK",
      "vis_m": 9999,
      "fzfg": false,
      "metar_trigger": false,
      "taf_trigger": false,
      "metar": "METAR LHBP 201430Z VRB02KT 9999 OVC012 06/04 Q1020 NOSIG",
      "taf": "TAF LHBP 201115Z 2012/2112 VRB03KT 9000 OVC016"
    },
    {
      "icao": "LHDC",
      "alert": "OK",
      "vis_m": 350,
      "fzfg": false,
      "metar_trigger": false,
      "taf_trigger": false,
      "metar": "METAR LHDC 201415Z AUTO VRB02KT 0350 -DZ FG VV002 06/06 Q1020 NOSIG",
      "taf": "TAF LHDC 201415Z 2015/2024 VRB02KT 0300 FG VV001"
    },
    {
      "icao": "LIBD",
      "alert": "OK",
      "vis_m": 9999,
      "fzfg": false,
      "metar_trigger": false,
      "taf_trigger": false,
      "metar": "METAR LIBD 201420Z 30005KT 270V330 9999 BKN035 14/11 Q1016",
      "taf": "TAF LIBD 201100Z 2012/2112 VRB04KT 9999 SCT040"
    },
    {
      "icao": "LICC",
      "alert": "OK",
      "vis_m": 9999,
      "fzfg": false,
      "metar_trigger": false,
      "taf_trigger": false,
      "metar": "METAR LICC 201420Z 05008KT 010V080 9999 SCT050 16/16 Q1013",
      "taf": "TAF LICC 201100Z 2012/2112 08008KT 9999 SCT015 BKN040"
    },
    {
      "icao": "LICJ",
      "alert": "OK",
      "vis_m": 9999,
      "fzfg": false,
      "metar_trigger": false,
      "taf_trigger": false,
      "metar": "METAR LICJ 201420Z AUTO 05009KT 9999 NCD 17/11 Q1012",
      "taf": "TAF LICJ 201100Z 2012/2112 VRB05KT 9999 SCT040"
    },
    {
      "icao": "LIEO",
      "alert": "OK",
      "vis_m": 9999,
      "fzfg": false,
      "metar_trigger": false,
      "taf_trigger": false,
      "metar": "METAR LIEO 201420Z 06007KT 030V090 9999 SCT020 16/14 Q1014",
      "taf": "TAF LIEO 201100Z 2012/2112 06010KT 9999 SCT012"
    },
    {
      "icao": "LIMC",
      "alert": "OK",
      "vis_m": 6000,
      "fzfg": false,
      "metar_trigger": false,
      "taf_trigger": false,
      "metar": "METAR LIMC 201420Z 29003KT 250V320 6000 SCT010 10/08 Q1018 NOSIG",
      "taf": "TAF LIMC 201100Z 2012/2118 VRB03KT 4000 -RA BR SCT012"
    },
    {
      "icao": "LIME",
      "alert": "OK",
      "vis_m": 9000,
      "fzfg": false,
      "metar_trigger": false,
      "taf_trigger": false,
      "metar": "METAR LIME 201420Z 26005KT 9000 SCT010 BKN070 10/07 Q1018 NOSIG",
      "taf": "TAF LIME 201100Z 2012/2112 VRB03KT 7000 BKN070"
    },
    {
      "icao": "LIPH",
      "alert": "OK",
      "vis_m": 9999,
      "fzfg": false,
      "metar_trigger": false,
      "taf_trigger": false,
      "metar": "METAR LIPH 201420Z 25003KT CAVOK 11/07 Q1018",
      "taf": "TAF LIPH 201100Z 2012/2112 VRB04KT CAVOK"
    },
    {
      "icao": "LIPQ",
      "alert": "OK",
      "vis_m": 9999,
      "fzfg": false,
      "metar_trigger": false,
      "taf_trigger": false,
      "metar": "METAR LIPQ 201420Z AUTO 01003KT 9999 NCD 12/08 Q1017",
      "taf": "TAF LIPQ 201100Z 2012/2112 VRB04KT CAVOK"
    },
    {
      "icao": "LIPX",
      "alert": "OK",
      "vis_m": 9999,
      "fzfg": false,
      "metar_trigger": false,
      "taf_trigger": false,
      "metar": "METAR LIPX 201420Z 26003KT 9999 FEW070 10/07 Q1018",
      "taf": "TAF LIPX 201100Z 2012/2112 VRB03KT 6000 BKN060"
    },
    {
      "icao": "LIPY",
      "alert": "OK",
      "vis_m": 9999,
      "fzfg": false,
      "metar_trigger": false,
      "taf_trigger": false,
      "metar": "METAR LIPY 201420Z AUTO VRB02KT 9999 OVC008/// 11/10 Q1018",
      "taf": "TAF LIPY 201100Z 2012/2112 VRB05KT 8000 OVC013"
    },
    {
      "icao": "LIPZ",
      "alert": "OK",
      "vis_m": 9999,
      "fzfg": false,
      "metar_trigger": false,
      "taf_trigger": false,
      "metar": "METAR LIPZ 201420Z 21004KT 9999 FEW025 10/08 Q1018 NOSIG",
      "taf": "TAF LIPZ 201100Z 2012/2118 VRB04KT CAVOK"
    },
    {
      "icao": "LIRA",
      "alert": "OK",
      "vis_m": 9999,
      "fzfg": false,
      "metar_trigger": false,
      "taf_trigger": false,
      "metar": "METAR LIRA 201420Z 36003KT 300V050 CAVOK 16/06 Q1015",
      "taf": "TAF LIRA 201100Z 2012/2112 VRB05KT CAVOK"
    },
    {
      "icao": "LIRN",
      "alert": "OK",
      "vis_m": 9999,
      "fzfg": false,
      "metar_trigger": false,
      "taf_trigger": false,
      "metar": "METAR LIRN 201420Z 05006KT CAVOK 17/07 Q1014 NOSIG",
      "taf": "TAF LIRN 201100Z 2012/2112 05007KT CAVOK"
    },
    {
      "icao": "LLBG",
      "alert": "OK",
      "vis_m": 9999,
      "fzfg": false,
      "metar_trigger": false,
      "taf_trigger": false,
      "metar": "METAR LLBG 201420Z 36006KT CAVOK 20/10 Q1017 NOSIG",
      "taf": "TAF LLBG 201103Z 2012/2112 33006KT 9999 SCT040"
    },
    {
      "icao": "LMML",
      "alert": "OK",
      "vis_m": 9999,
      "fzfg": false,
      "metar_trigger": false,
      "taf_trigger": false,
      "metar": "METAR LMML 201445Z 11006KT 080V140 9999 FEW018 15/13 Q1012 NOSIG",
      "taf": "TAF LMML 201100Z 2012/2112 09010KT 9999 SCT015"
    },
    {
      "icao": "LOWW",
      "alert": "OK",
      "vis_m": 2100,
      "fzfg": false,
      "metar_trigger": false,
      "taf_trigger": false,
      "metar": "METAR LOWW 201420Z 14004KT 100V170 2100 1300S R16/P1500D R29/P1500D -DZ BR SCT001 BKN002 02/02 Q1020 TEMPO 3000 BR",
      "taf": "TAF LOWW 201415Z 2015/2121 14005KT 2000 BR SCT001 BKN002 TX03/2121Z TN02/2101Z"
    },
    {
      "icao": "LPFR",
      "alert": "OK",
      "vis_m": 9999,
      "fzfg": false,
      "metar_trigger": false,
      "taf_trigger": false,
      "metar": "METAR LPFR 201430Z 25014KT 9999 FEW018 15/10 Q1018",
      "taf": "TAF LPFR 201100Z 2012/2112 VRB02KT 9999 SCT030"
    },
    {
      "icao": "LPPR",
      "alert": "OK",
      "vis_m": 9999,
      "fzfg": false,
      "metar_trigger": false,
      "taf_trigger": false,
      "metar": "METAR LPPR 201430Z 23004KT 160V330 9999 -SHRA FEW005 BKN015 11/10 Q1012",
      "taf": "TAF LPPR 201100Z 2012/2112 21010KT 9999 SCT030"
    },
    {
      "icao": "LPPT",
      "alert": "OK",
      "vis_m": 9999,
      "fzfg": false,
      "metar_trigger": false,
      "taf_trigger": false,
      "metar": "METAR LPPT 201430Z 29006KT 250V320 9999 FEW012 SCT028 BKN032 13/12 Q1015 RESHRA",
      "taf": "TAF LPPT 201100Z 2012/2118 23010KT 9999 BKN030"
    },
    {
      "icao": "LQSA",
      "alert": "OK",
      "vis_m": 3500,
      "fzfg": false,
      "metar_trigger": false,
      "taf_trigger": false,
      "metar": "METAR LQSA 201430Z VRB02KT 3500 BR BKN004 03/03 Q1019 NOSIG",
      "taf": "TAF LQSA 201100Z 2012/2112 VRB02KT 2000 BR BKN004 BKN020 TX05/2013Z TNM01/2105Z"
    },
    {
      "icao": "LQTZ",
      "alert": "OK",
      "vis_m": 100,
      "fzfg": false,
      "metar_trigger": false,
      "taf_trigger": false,
      "metar": "METAR LQTZ 201430Z 25002KT 0100 R09/0250N FG VV002 04/04 Q1019",
      "taf": ""
    },
    {
      "icao": "LRCL",
      "alert": "OK",
      "vis_m": 9999,
      "fzfg": false,
      "metar_trigger": false,
      "taf_trigger": false,
      "metar": "METAR LRCL 201430Z 04003KT CAVOK 06/04 Q1020",
      "taf": "TAF LRCL 201400Z 2015/2024 08007KT CAVOK"
    },
    {
      "icao": "LRCV",
      "alert": "OK",
      "vis_m": 9999,
      "fzfg": false,
      "metar_trigger": false,
      "taf_trigger": false,
      "metar": "METAR LRCV 201430Z 10006KT 9999 FEW037 06/04 Q1021",
      "taf": "TAF LRCV 201400Z 2015/2024 10007KT CAVOK"
    },
    {
      "icao": "LRIA",
      "alert": "OK",
      "vis_m": 900,
      "fzfg": true,
      "metar_trigger": false,
      "taf_trigger": false,
      "metar": "METAR LRIA 201430Z 15006KT 0900 R14/1400U FG OVC001 01/01 Q1023",
      "taf": "TAF LRIA 201400Z 2015/2024 12006KT 0150 FZFG VV001"
    },
    {
      "icao": "LROP",
      "alert": "OK",
      "vis_m": 3000,
      "fzfg": false,
      "metar_trigger": false,
      "taf_trigger": false,
      "metar": "METAR LROP 201430Z 03005KT 3000 BR BKN003 OVC006 04/04 Q1022 NOSIG",
      "taf": "TAF LROP 201100Z 2012/2112 VRB04KT 0800 FG OVC002"
    },
    {
      "icao": "LRSB",
      "alert": "OK",
      "vis_m": 9999,
      "fzfg": false,
      "metar_trigger": false,
      "taf_trigger": false,
      "metar": "METAR LRSB 201430Z 25003KT CAVOK 03/02 Q1019 NOSIG",
      "taf": "TAF LRSB 201100Z 2012/2112 VRB04KT CAVOK"
    },
    {
      "icao": "LRTR",
      "alert": "OK",
      "vis_m": 9999,
      "fzfg": false,
      "metar_trigger": false,
      "taf_trigger": false,
      "metar": "METAR LRTR 201430Z 31005KT CAVOK 10/06 Q1020 NOSIG",
      "taf": "TAF LRTR 201100Z 2012/2112 10005KT CAVOK"
    },
    {
      "icao": "LTAF",
      "alert": "OK",
      "vis_m": 9999,
      "fzfg": false,
      "metar_trigger": false,
      "taf_trigger": false,
      "metar": "METAR LTAF 201420Z 17003KT CAVOK 17/09 Q1018 NOSIG RMK RWY23 19003KT 140V220 4CI200",
      "taf": "TAF LTAF 201040Z 2012/2112 01008KT CAVOK"
    },
    {
      "icao": "LTAI",
      "alert": "OK",
      "vis_m": 9999,
      "fzfg": false,
      "metar_trigger": false,
      "taf_trigger": false,
      "metar": "METAR LTAI 201420Z VRB01KT 9999 FEW025 BKN080 16/09 Q1017 NOSIG RMK RWY18C 00000KT RWY36R 00000KT RWY18L 00000KT",
      "taf": "TAF LTAI 201040Z 2012/2112 12008KT 9999 SCT030 BKN100"
    },
    {
      "icao": "LTFM",
      "alert": "OK",
      "vis_m": 9999,
      "fzfg": false,
      "metar_trigger": false,
      "taf_trigger": false,
      "metar": "METAR LTFM 201420Z 04013KT 9999 BKN026 12/08 Q1019 NOSIG RMK RWY17L 04012KT RWY34L 04010KT RWY16R 03011KT RWY36 04013KT RWY18 04013KT",
      "taf": "TAF LTFM 201040Z 2012/2118 04012KT 9999 BKN026"
    },
    {
      "icao": "LUBL",
      "alert": "OK",
      "vis_m": null,
      "fzfg": false,
      "metar_trigger": false,
      "taf_trigger": false,
      "metar": "",
      "taf": ""
    },
    {
      "icao": "LUKK",
      "alert": "OK",
      "vis_m": 4100,
      "fzfg": false,
      "metar_trigger": false,
      "taf_trigger": false,
      "metar": "METAR LUKK 201430Z VRB02KT 4100 BR OVC002 01/01 Q1023 NOSIG",
      "taf": "TAF LUKK 201122Z 2012/2112 VRB05KT 3000 BR OVC004"
    },
    {
      "icao": "LWSK",
      "alert": "OK",
      "vis_m": 100,
      "fzfg": false,
      "metar_trigger": false,
      "taf_trigger": false,
      "metar": "METAR LWSK 201450Z VRB01KT 0100 R34/0275N FG VV002 01/00 Q1019 NOSIG",
      "taf": "TAF LWSK 201425Z 2015/2115 VRB02KT 0300 FG VV002"
    },
    {
      "icao": "LYBE",
      "alert": "OK",
      "vis_m": 200,
      "fzfg": false,
      "metar_trigger": false,
      "taf_trigger": false,
      "metar": "METAR LYBE 201430Z 25004KT 210V270 0200 R12L/0250N R30R/0250N FG VV002 04/04 Q1020 NOSIG",
      "taf": "TAF LYBE 201100Z 2012/2112 26004KT 1500 BR NSC TX05/2013Z TN03/2106Z"
    },
    {
      "icao": "LZIB",
      "alert": "OK",
      "vis_m": 8000,
      "fzfg": false,
      "metar_trigger": false,
      "taf_trigger": false,
      "metar": "METAR LZIB 201430Z VRB02KT 8000 FEW004 OVC005 04/03 Q1020 NOSIG",
      "taf": "TAF LZIB 201115Z 2012/2112 22004KT 4000 BR BKN008 OVC014"
    },
    {
      "icao": "LZKZ",
      "alert": "OK",
      "vis_m": 9999,
      "fzfg": false,
      "metar_trigger": false,
      "taf_trigger": false,
      "metar": "METAR LZKZ 201430Z 00000KT 9999 FEW013 SCT029 07/06 Q1019 NOSIG",
      "taf": ""
    },
    {
      "icao": "LZTT",
      "alert": "OK",
      "vis_m": 1500,
      "fzfg": false,
      "metar_trigger": false,
      "taf_trigger": false,
      "metar": "METAR LZTT 201430Z VRB02KT 1500 BR OVC002 02/01 Q1019 NOSIG",
      "taf": ""
    },
    {
      "icao": "OEJN",
      "alert": "OK",
      "vis_m": 9999,
      "fzfg": false,
      "metar_trigger": false,
      "taf_trigger": false,
      "metar": "METAR OEJN 201400Z 36006KT CAVOK 30/01 Q1011 NOSIG",
      "taf": "TAF OEJN 201100Z 2012/2118 09014KT 7000 NSC"
    },
    {
      "icao": "OEMA",
      "alert": "OK",
      "vis_m": 9999,
      "fzfg": false,
      "metar_trigger": false,
      "taf_trigger": false,
      "metar": "METAR OEMA 201400Z 09005KT CAVOK 20/M11 Q1019 NOSIG",
      "taf": "TAF OEMA 201100Z 2012/2118 10008KT CAVOK"
    },
    {
      "icao": "OERK",
      "alert": "OK",
      "vis_m": 9999,
      "fzfg": false,
      "metar_trigger": false,
      "taf_trigger": false,
      "metar": "METAR OERK 201400Z 32008KT CAVOK 15/M02 Q1019 NOSIG",
      "taf": "TAF OERK 201100Z 2012/2118 33014KT 7000 NSC"
    },
    {
      "icao": "OJAI",
      "alert": "OK",
      "vis_m": 5000,
      "fzfg": false,
      "metar_trigger": false,
      "taf_trigger": false,
      "metar": "METAR OJAI 201400Z 12008KT 5000 HZ NSC 14/06 Q1019 NOSIG",
      "taf": "TAF OJAI 201100Z 2012/2118 13010KT 5000 HZ FEW035"
    },
    {
      "icao": "OKBK",
      "alert": "OK",
      "vis_m": null,
      "fzfg": false,
      "metar_trigger": false,
      "taf_trigger": false,
      "metar": "",
      "taf": ""
    },
    {
      "icao": "OMAA",
      "alert": "OK",
      "vis_m": 9999,
      "fzfg": false,
      "metar_trigger": false,
      "taf_trigger": false,
      "metar": "METAR OMAA 201400Z 25007KT 9999 FEW045 19/07 Q1016 NOSIG",
      "taf": "TAF OMAA 201100Z 2012/2118 27012KT 9999 FEW040"
    },
    {
      "icao": "UAAA",
      "alert": "OK",
      "vis_m": 3200,
      "fzfg": false,
      "metar_trigger": false,
      "taf_trigger": false,
      "metar": "METAR UAAA 201430Z 16001MPS 3200 BR BKN100 M02/M04 Q1013 NOSIG",
      "taf": "TAF UAAA 201105Z 2012/2112 32003MPS 1200 BR FU SCT005 BKN011 OVC050 TXM01/2100Z TNM05/2102Z"
    },
    {
      "icao": "UCFM",
      "alert": "OK",
      "vis_m": 800,
      "fzfg": true,
      "metar_trigger": false,
      "taf_trigger": false,
      "metar": "METAR UCFM 201430Z 11002MPS 0800 0650E R07/P1500N FZFG NSC M02/M03 Q1015 NOSIG",
      "taf": "TAF UCFM 201046Z 2012/2112 25003MPS 1000 BR BKN003"
    },
    {
      "icao": "UDYZ",
      "alert": "OK",
      "vis_m": 7000,
      "fzfg": false,
      "metar_trigger": false,
      "taf_trigger": false,
      "metar": "METAR UDYZ 201430Z 26001KT 7000 NSC 01/M05 Q1024 NOSIG",
      "taf": "TAF UDYZ 201100Z 2012/2112 VRB04KT 6000 NSC"
    },
    {
      "icao": "UGTB",
      "alert": "OK",
      "vis_m": 9999,
      "fzfg": false,
      "metar_trigger": false,
      "taf_trigger": false,
      "metar": "METAR UGTB 201430Z 08004KT CAVOK 03/M03 Q1023 NOSIG",
      "taf": "TAF UGTB 201100Z 2012/2112 VRB02KT CAVOK TX09/2012Z TNM03/2102Z"
    },
    {
      "icao": "UKKK",
      "alert": "OK",
      "vis_m": null,
      "fzfg": false,
      "metar_trigger": false,
      "taf_trigger": false,
      "metar": "",
      "taf": ""
    },
    {
      "icao": "UTTT",
      "alert": "OK",
      "vis_m": null,
      "fzfg": false,
      "metar_trigger": false,
      "taf_trigger": false,
      "metar": "",
      "taf": ""
    }
  ]
}