{
  "ts_utc": "2026-01-13T16:29:21Z",
  "threshold_m": 150,
  "source": "stations_override.txt (ICAO list) + aviationweather.gov (METAR/TAF raw)",
  "station_count": 159,
  "stations": [
    {
      "icao": "BIKF",
      "alert": "OK",
      "vis_m": 9999,
      "fzfg": false,
      "metar_trigger": false,
      "taf_trigger": false,
      "metar": "METAR BIKF 131600Z 36016KT 9999 BKN039 M02/M10 Q0998",
      "taf": "TAF BIKF 131347Z 1315/1415 35015G25KT 9999 FEW030 TX00/1415Z TNM04/1404Z"
    },
    {
      "icao": "BKPR",
      "alert": "OK",
      "vis_m": null,
      "fzfg": false,
      "metar_trigger": false,
      "taf_trigger": false,
      "metar": "",
      "taf": "TAF BKPR 131130Z 1312/1412 VRB03KT 9999 BKN060"
    },
    {
      "icao": "EBCI",
      "alert": "OK",
      "vis_m": 9999,
      "fzfg": false,
      "metar_trigger": false,
      "taf_trigger": false,
      "metar": "METAR EBCI 131620Z 18011KT CAVOK 09/05 Q1008 NOSIG",
      "taf": "TAF EBCI 131100Z 1312/1418 19010KT 9999 SCT020"
    },
    {
      "icao": "EDDB",
      "alert": "OK",
      "vis_m": 1200,
      "fzfg": false,
      "metar_trigger": false,
      "taf_trigger": false,
      "metar": "METAR EDDB 131620Z AUTO 13004KT 1200 0650 R24R/2000N R24L/P2000N BCFG BKN001 BKN041 03/03 Q1013 BECMG 2000 BR BKN002",
      "taf": "TAF EDDB 131100Z 1312/1412 17005KT 0800 FG BKN002"
    },
    {
      "icao": "EDDH",
      "alert": "OK",
      "vis_m": 5000,
      "fzfg": false,
      "metar_trigger": false,
      "taf_trigger": false,
      "metar": "METAR EDDH 131620Z AUTO 14008KT 5000 0700 R23/P2000N R15/0900N BCFG BKN003 OVC037 05/05 Q1009 TEMPO 4900 BR SCT004 OVC035",
      "taf": ""
    },
    {
      "icao": "EDDK",
      "alert": "OK",
      "vis_m": 9999,
      "fzfg": false,
      "metar_trigger": false,
      "taf_trigger": false,
      "metar": "METAR EDDK 131620Z AUTO 13007KT CAVOK 08/05 Q1010 NOSIG",
      "taf": "TAF EDDK 131100Z 1312/1418 15007KT 9999 BKN025"
    },
    {
      "icao": "EDDN",
      "alert": "OK",
      "vis_m": 9999,
      "fzfg": false,
      "metar_trigger": false,
      "taf_trigger": false,
      "metar": "METAR EDDN 131620Z AUTO 11007KT 9999 FEW014 05/04 Q1014 NOSIG",
      "taf": "TAF EDDN 131100Z 1312/1412 14005KT 9000 SCT010 BKN015"
    },
    {
      "icao": "EDDS",
      "alert": "OK",
      "vis_m": 9999,
      "fzfg": false,
      "metar_trigger": false,
      "taf_trigger": false,
      "metar": "METAR EDDS 131620Z AUTO 15002KT CAVOK 08/04 Q1012 NOSIG",
      "taf": "TAF EDDS 131100Z 1312/1412 17004KT 9999 FEW040"
    },
    {
      "icao": "EDFH",
      "alert": "OK",
      "vis_m": 9999,
      "fzfg": false,
      "metar_trigger": false,
      "taf_trigger": false,
      "metar": "METAR EDFH 131620Z 19009KT CAVOK 07/05 Q1010",
      "taf": "TAF EDFH 131100Z 1312/1412 18008KT 9999 SCT020 BKN045"
    },
    {
      "icao": "EDJA",
      "alert": "OK",
      "vis_m": 9999,
      "fzfg": false,
      "metar_trigger": false,
      "taf_trigger": false,
      "metar": "METAR EDJA 131620Z 23005KT CAVOK 04/00 Q1014",
      "taf": "TAF EDJA 131400Z 1315/1324 18004KT CAVOK"
    },
    {
      "icao": "EDLW",
      "alert": "OK",
      "vis_m": 9999,
      "fzfg": false,
      "metar_trigger": false,
      "taf_trigger": false,
      "metar": "METAR EDLW 131620Z 16007KT CAVOK 09/05 Q1008",
      "taf": "TAF EDLW 131100Z 1312/1412 20011KT 9999 BKN020"
    },
    {
      "icao": "EDNY",
      "alert": "OK",
      "vis_m": 9999,
      "fzfg": false,
      "metar_trigger": false,
      "taf_trigger": false,
      "metar": "METAR EDNY 131620Z VRB01KT CAVOK 04/03 Q1015",
      "taf": "TAF EDNY 131400Z 1315/1324 VRB03KT CAVOK"
    },
    {
      "icao": "EDSB",
      "alert": "OK",
      "vis_m": 9999,
      "fzfg": false,
      "metar_trigger": false,
      "taf_trigger": false,
      "metar": "METAR EDSB 131620Z 00000KT CAVOK 09/05 Q1012",
      "taf": "TAF EDSB 131100Z 1312/1412 21004KT CAVOK"
    },
    {
      "icao": "EETN",
      "alert": "OK",
      "vis_m": 9999,
      "fzfg": false,
      "metar_trigger": false,
      "taf_trigger": false,
      "metar": "METAR EETN 131620Z 13003KT 9999 BKN020 M11/M13 Q1022 TEMPO BKN010",
      "taf": "TAF EETN 131130Z 1312/1412 11007KT 9999 FEW009 BKN014"
    },
    {
      "icao": "EFTU",
      "alert": "OK",
      "vis_m": 9999,
      "fzfg": false,
      "metar_trigger": false,
      "taf_trigger": false,
      "metar": "METAR EFTU 131620Z AUTO 10007KT 9999 OVC015 M06/M09 Q1021",
      "taf": "TAF EFTU 131426Z 1315/1415 10008KT 9999 OVC012"
    },
    {
      "icao": "EGBB",
      "alert": "OK",
      "vis_m": 9999,
      "fzfg": false,
      "metar_trigger": false,
      "taf_trigger": false,
      "metar": "METAR EGBB 131620Z 32010KT 9999 BKN014 07/05 Q1004",
      "taf": "TAF EGBB 131055Z 1312/1412 17010KT 9999 BKN007"
    },
    {
      "icao": "EGGP",
      "alert": "OK",
      "vis_m": 9999,
      "fzfg": false,
      "metar_trigger": false,
      "taf_trigger": false,
      "metar": "METAR EGGP 131620Z 28007KT 9999 FEW033 04/02 Q1004",
      "taf": "TAF EGGP 131057Z 1312/1412 28010KT 9999 SCT030"
    },
    {
      "icao": "EGGW",
      "alert": "OK",
      "vis_m": 9999,
      "fzfg": false,
      "metar_trigger": false,
      "taf_trigger": false,
      "metar": "METAR EGGW 131620Z AUTO 20003KT 9999 FEW004 OVC044 08/08 Q1003",
      "taf": ""
    },
    {
      "icao": "EGKK",
      "alert": "OK",
      "vis_m": 9000,
      "fzfg": false,
      "metar_trigger": false,
      "taf_trigger": false,
      "metar": "METAR EGKK 131620Z 20007KT 170V240 9000 -RA BKN005 10/10 Q1004",
      "taf": ""
    },
    {
      "icao": "EGNM",
      "alert": "OK",
      "vis_m": 9999,
      "fzfg": false,
      "metar_trigger": false,
      "taf_trigger": false,
      "metar": "METAR EGNM 131620Z 28014KT 9999 SCT024 04/02 Q1002",
      "taf": "TAF EGNM 131057Z 1312/1412 20007KT 9999 SCT025"
    },
    {
      "icao": "EGPD",
      "alert": "OK",
      "vis_m": 9999,
      "fzfg": false,
      "metar_trigger": false,
      "taf_trigger": false,
      "metar": "METAR EGPD 131620Z COR AUTO 25006KT 230V320 9999 NCD 03/01 Q0997 NOSIG",
      "taf": "TAF EGPD 131055Z 1312/1412 30005KT 9999 FEW005 SCT025"
    },
    {
      "icao": "EGPF",
      "alert": "OK",
      "vis_m": 9999,
      "fzfg": false,
      "metar_trigger": false,
      "taf_trigger": false,
      "metar": "METAR EGPF 131620Z AUTO VRB02KT 9999 //////TCU 03/01 Q1001",
      "taf": "TAF EGPF 131057Z 1312/1412 25009KT 9999 FEW015 SCT025"
    },
    {
      "icao": "EHBK",
      "alert": "OK",
      "vis_m": 9999,
      "fzfg": false,
      "metar_trigger": false,
      "taf_trigger": false,
      "metar": "METAR EHBK 131625Z AUTO 19011KT 9999 NSC 10/06 Q1008 NOSIG",
      "taf": "TAF EHBK 131124Z 1312/1418 20013KT 9999 BKN018"
    },
    {
      "icao": "EHEH",
      "alert": "OK",
      "vis_m": 9999,
      "fzfg": false,
      "metar_trigger": false,
      "taf_trigger": false,
      "metar": "METAR EHEH 131555Z AUTO 18008KT 9999 FEW081 BKN096 OVC100 10/07 Q1007 BLU NOSIG",
      "taf": "TAF EHEH 131140Z 1312/1418 18009KT 9999 BKN018"
    },
    {
      "icao": "EKBI",
      "alert": "OK",
      "vis_m": 250,
      "fzfg": false,
      "metar_trigger": false,
      "taf_trigger": false,
      "metar": "METAR EKBI 131620Z AUTO 15006KT 0250 R09/0750N R27/0750N FG OVC002/// 03/03 Q1007",
      "taf": "TAF EKBI 131427Z 1315/1415 15007KT 0200 FG VV002"
    },
    {
      "icao": "EKCH",
      "alert": "OK",
      "vis_m": 1200,
      "fzfg": false,
      "metar_trigger": false,
      "taf_trigger": false,
      "metar": "METAR EKCH 131621Z 15009KT 1200 R22L/P1500N R04L/P1500N R12/P1500N BR VV002 03/03 Q1011 TEMPO 0800",
      "taf": "TAF EKCH 131427Z 1315/1415 15012KT 4000 BR OVC002"
    },
    {
      "icao": "ENAL",
      "alert": "OK",
      "vis_m": 9999,
      "fzfg": false,
      "metar_trigger": false,
      "taf_trigger": false,
      "metar": "METAR ENAL 131620Z 13015KT 9999 BKN050 06/M03 Q0999",
      "taf": "TAF ENAL 131400Z 1315/1324 14015KT 9999 BKN045"
    },
    {
      "icao": "ENBR",
      "alert": "OK",
      "vis_m": 9999,
      "fzfg": false,
      "metar_trigger": false,
      "taf_trigger": false,
      "metar": "METAR ENBR 131620Z 12011KT 9999 -RA BKN035 04/M00 Q0999 NOSIG RMK WIND 1200FT 13023KT",
      "taf": "TAF ENBR 131100Z 1312/1412 13015KT 9999 -RA BKN035"
    },
    {
      "icao": "ENGM",
      "alert": "OK",
      "vis_m": 9999,
      "fzfg": false,
      "metar_trigger": false,
      "taf_trigger": false,
      "metar": "METAR ENGM 131620Z 04003KT 9999 -SN OVC007 M04/M05 Q1010 TEMPO 4000 -SN SCT005 BKN012",
      "taf": ""
    },
    {
      "icao": "ENHD",
      "alert": "OK",
      "vis_m": 9999,
      "fzfg": false,
      "metar_trigger": false,
      "taf_trigger": false,
      "metar": "METAR ENHD 131620Z 11021KT 9999 -RA OVC039 03/01 Q0999",
      "taf": ""
    },
    {
      "icao": "ENTC",
      "alert": "OK",
      "vis_m": 9999,
      "fzfg": false,
      "metar_trigger": false,
      "taf_trigger": false,
      "metar": "METAR ENTC 131620Z 19018KT CAVOK M06/M12 Q1010 NOSIG RMK WIND 2600FT 17017KT",
      "taf": "TAF ENTC 131100Z 1312/1412 19010KT CAVOK"
    },
    {
      "icao": "ENTO",
      "alert": "OK",
      "vis_m": 1600,
      "fzfg": false,
      "metar_trigger": false,
      "taf_trigger": false,
      "metar": "METAR ENTO 131620Z 01005KT 1600 -SN VV004 M03/M03 Q1009 TEMPO 3000",
      "taf": ""
    },
    {
      "icao": "ENVA",
      "alert": "OK",
      "vis_m": 9999,
      "fzfg": false,
      "metar_trigger": false,
      "taf_trigger": false,
      "metar": "METAR ENVA 131620Z 14009KT 070V180 CAVOK 00/M07 Q1005 TEMPO 15018G30KT RMK WIND 670FT 16018KT",
      "taf": "TAF ENVA 131100Z 1312/1412 11009KT CAVOK"
    },
    {
      "icao": "ENZV",
      "alert": "OK",
      "vis_m": 9999,
      "fzfg": false,
      "metar_trigger": false,
      "taf_trigger": false,
      "metar": "METAR ENZV 131620Z 11014KT 9999 -RA FEW038 04/01 Q0999 TEMPO 14018G28KT",
      "taf": ""
    },
    {
      "icao": "EPGD",
      "alert": "OK",
      "vis_m": 6000,
      "fzfg": false,
      "metar_trigger": false,
      "taf_trigger": false,
      "metar": "METAR EPGD 131600Z 13008KT 6000 FEW042 M05/M06 Q1017",
      "taf": "TAF EPGD 131130Z 1312/1412 17010KT 9999 BKN030"
    },
    {
      "icao": "EPKK",
      "alert": "OK",
      "vis_m": 1500,
      "fzfg": false,
      "metar_trigger": false,
      "taf_trigger": false,
      "metar": "METAR EPKK 131600Z 27002KT 1500 BR OVC003 M04/M04 Q1017 REFZDZ",
      "taf": "TAF EPKK 131430Z 1315/1415 VRB02KT 2000 -RASN BR OVC008"
    },
    {
      "icao": "EPKT",
      "alert": "OK",
      "vis_m": 750,
      "fzfg": true,
      "metar_trigger": false,
      "taf_trigger": false,
      "metar": "METAR EPKT 131600Z 28001KT 0750 R26/1900N -SN FZFG BKN002 OVC003 M02/M02 Q1016 REFZDZ",
      "taf": ""
    },
    {
      "icao": "EPLB",
      "alert": "OK",
      "vis_m": 6000,
      "fzfg": false,
      "metar_trigger": false,
      "taf_trigger": false,
      "metar": "METAR EPLB 131600Z 00000KT 6000 NSC M10/M11 Q1018",
      "taf": "TAF EPLB 131130Z 1312/1412 VRB04KT 7000 NSC"
    },
    {
      "icao": "EPMO",
      "alert": "OK",
      "vis_m": 5000,
      "fzfg": false,
      "metar_trigger": false,
      "taf_trigger": false,
      "metar": "METAR EPMO 131600Z 09005KT 5000 BR NSC M06/M07 Q1018",
      "taf": "TAF EPMO 131130Z 1312/1412 12007KT 3500 BR NSC"
    },
    {
      "icao": "EPPO",
      "alert": "OK",
      "vis_m": 2300,
      "fzfg": false,
      "metar_trigger": false,
      "taf_trigger": false,
      "metar": "METAR EPPO 131600Z 13007KT 2300 -SN BR OVC016 M02/M04 Q1016",
      "taf": "TAF EPPO 131130Z 1312/1412 13005KT 6000 BKN017"
    },
    {
      "icao": "EPRA",
      "alert": "OK",
      "vis_m": 5000,
      "fzfg": false,
      "metar_trigger": false,
      "taf_trigger": false,
      "metar": "METAR EPRA 131600Z 13003KT 090V150 5000 BR NSC M09/M10 Q1018",
      "taf": "TAF EPRA 131430Z 1315/1324 12004KT 8000 NSC"
    },
    {
      "icao": "EPRZ",
      "alert": "OK",
      "vis_m": 9999,
      "fzfg": false,
      "metar_trigger": false,
      "taf_trigger": false,
      "metar": "METAR EPRZ 131600Z 22006KT 9999 OVC043 M05/M08 Q1017",
      "taf": ""
    },
    {
      "icao": "EPSC",
      "alert": "OK",
      "vis_m": 1700,
      "fzfg": false,
      "metar_trigger": false,
      "taf_trigger": false,
      "metar": "METAR EPSC 131600Z 15009KT 1700 BR OVC002 M01/M01 Q1014",
      "taf": "TAF EPSC 131130Z 1312/1412 14010KT 3000 BR OVC003"
    },
    {
      "icao": "EPSY",
      "alert": "OK",
      "vis_m": 2800,
      "fzfg": false,
      "metar_trigger": false,
      "taf_trigger": false,
      "metar": "METAR EPSY 131600Z 00000KT 2800 MIFG BR NSC M10/M11 Q1019",
      "taf": ""
    },
    {
      "icao": "EPWA",
      "alert": "OK",
      "vis_m": 9000,
      "fzfg": false,
      "metar_trigger": false,
      "taf_trigger": false,
      "metar": "METAR EPWA 131600Z 10005KT 9000 NSC M04/M07 Q1018 NOSIG",
      "taf": "TAF EPWA 131430Z 1315/1415 12008KT 7000 NSC"
    },
    {
      "icao": "EPWR",
      "alert": "OK",
      "vis_m": 5000,
      "fzfg": false,
      "metar_trigger": false,
      "taf_trigger": false,
      "metar": "METAR EPWR 131600Z 19004KT 170V230 5000 BR OVC006 01/M00 Q1017",
      "taf": "TAF EPWR 131430Z 1315/1415 VRB02KT 6000 SCT007 BKN012"
    },
    {
      "icao": "ESGG",
      "alert": "OK",
      "vis_m": 4500,
      "fzfg": false,
      "metar_trigger": false,
      "taf_trigger": false,
      "metar": "METAR ESGG 131620Z 15009KT 4500 -FZDZ BR OVC004 M00/M01 Q1008",
      "taf": "TAF ESGG 131430Z 1315/1415 13009KT 8000 -SN OVC002"
    },
    {
      "icao": "ESKN",
      "alert": "OK",
      "vis_m": 9999,
      "fzfg": false,
      "metar_trigger": false,
      "taf_trigger": false,
      "metar": "METAR ESKN 131620Z 10005KT 9999 FEW041 BKN051 M01/M01 Q1015",
      "taf": "TAF ESKN 131430Z 1315/1415 11007KT 9999 BKN018"
    },
    {
      "icao": "ESMS",
      "alert": "OK",
      "vis_m": 150,
      "fzfg": false,
      "metar_trigger": false,
      "taf_trigger": false,
      "metar": "METAR ESMS 131620Z 14007KT 0150 R17/0750N R35/0700N FG VV002 01/01 Q1011",
      "taf": ""
    },
    {
      "icao": "ESSA",
      "alert": "OK",
      "vis_m": 9999,
      "fzfg": false,
      "metar_trigger": false,
      "taf_trigger": false,
      "metar": "METAR ESSA 131620Z 11007KT 9999 -SN FEW019 BKN047 M02/M03 Q1016 TEMPO BKN012",
      "taf": "TAF ESSA 131430Z 1315/1415 09006KT 9999 -SN BKN015"
    },
    {
      "icao": "EYKA",
      "alert": "OK",
      "vis_m": 5000,
      "fzfg": false,
      "metar_trigger": false,
      "taf_trigger": false,
      "metar": "METAR EYKA 131620Z 09002KT 5000 -SN BR NSC M10/M12 Q1020",
      "taf": "TAF EYKA 131100Z 1312/1412 VRB04KT 5000 BR SCT010 BKN015"
    },
    {
      "icao": "EYPA",
      "alert": "OK",
      "vis_m": 9999,
      "fzfg": false,
      "metar_trigger": false,
      "taf_trigger": false,
      "metar": "METAR EYPA 131620Z VRB02KT CAVOK M12/M13 Q1020",
      "taf": "TAF EYPA 131100Z 1312/1412 VRB04KT 5000 BR FEW005"
    },
    {
      "icao": "EYVI",
      "alert": "OK",
      "vis_m": 4800,
      "fzfg": false,
      "metar_trigger": false,
      "taf_trigger": false,
      "metar": "METAR EYVI 131620Z VRB02KT 4800 BR BKN007 M10/M12 Q1019 TEMPO OVC005",
      "taf": "TAF EYVI 131100Z 1312/1412 VRB04KT 5000 BR SCT005 BKN020"
    },
    {
      "icao": "GCFV",
      "alert": "OK",
      "vis_m": 9999,
      "fzfg": false,
      "metar_trigger": false,
      "taf_trigger": false,
      "metar": "METAR GCFV 131600Z 32014KT 9999 FEW015 SCT028 BKN035 19/10 Q1017",
      "taf": "TAF GCFV 131400Z 1315/1415 33016KT 9999 SCT020 TX19/1414Z TN12/1406Z"
    },
    {
      "icao": "GCLP",
      "alert": "OK",
      "vis_m": 9999,
      "fzfg": false,
      "metar_trigger": false,
      "taf_trigger": false,
      "metar": "METAR GCLP 131600Z 34019KT 310V020 9999 FEW025 SCT050 19/12 Q1017 NOSIG",
      "taf": "TAF GCLP 131400Z 1315/1415 36017KT 9999 FEW025 TX20/1414Z TN16/1406Z"
    },
    {
      "icao": "GCTS",
      "alert": "OK",
      "vis_m": 9999,
      "fzfg": false,
      "metar_trigger": false,
      "taf_trigger": false,
      "metar": "METAR GCTS 131600Z 16006KT 120V200 9999 FEW025 SCT048 19/14 Q1018 NOSIG",
      "taf": "TAF GCTS 131400Z 1315/1415 09010KT 9999 SCT040 TX22/1414Z TN13/1406Z"
    },
    {
      "icao": "GMAD",
      "alert": "OK",
      "vis_m": 6000,
      "fzfg": false,
      "metar_trigger": false,
      "taf_trigger": false,
      "metar": "METAR GMAD 131600Z 29015KT 6000 SCT026 BKN080 17/09 Q1015 NOSIG",
      "taf": "TAF GMAD 131100Z 1312/1418 24014KT 8000 SCT016 BKN080"
    },
    {
      "icao": "GMMN",
      "alert": "OK",
      "vis_m": 9999,
      "fzfg": false,
      "metar_trigger": false,
      "taf_trigger": false,
      "metar": "METAR GMMN 131600Z 29004KT 9999 SCT030 SCT100 15/11 Q1016 NOSIG",
      "taf": "TAF GMMN 131100Z 1312/1418 22010KT 9999 SCT016 BKN100"
    },
    {
      "icao": "GMMX",
      "alert": "OK",
      "vis_m": 9999,
      "fzfg": false,
      "metar_trigger": false,
      "taf_trigger": false,
      "metar": "METAR GMMX 131600Z 30013KT 260V330 9999 SCT016 BKN080 16/08 Q1016 NOSIG",
      "taf": "TAF GMMX 131100Z 1312/1418 12006KT 8000 NSC"
    },
    {
      "icao": "HEGN",
      "alert": "OK",
      "vis_m": 9999,
      "fzfg": false,
      "metar_trigger": false,
      "taf_trigger": false,
      "metar": "METAR HEGN 131500Z 35013KT CAVOK 18/05 Q1020 NOSIG",
      "taf": ""
    },
    {
      "icao": "HEMA",
      "alert": "OK",
      "vis_m": 9999,
      "fzfg": false,
      "metar_trigger": false,
      "taf_trigger": false,
      "metar": "METAR HEMA 131500Z 35006KT CAVOK 19/04 Q1019 NOSIG",
      "taf": "TAF HEMA 131100Z 1312/1418 32010G20KT 9999 FEW025"
    },
    {
      "icao": "HESH",
      "alert": "OK",
      "vis_m": 9999,
      "fzfg": false,
      "metar_trigger": false,
      "taf_trigger": false,
      "metar": "METAR HESH 131500Z 00000KT CAVOK 19/04 Q1019 NOSIG",
      "taf": ""
    },
    {
      "icao": "HESX",
      "alert": "OK",
      "vis_m": 9999,
      "fzfg": false,
      "metar_trigger": false,
      "taf_trigger": false,
      "metar": "METAR HESX 131500Z 32013KT 9999 SCT025 14/04 Q1021 NOSIG",
      "taf": "TAF HESX 131100Z 1312/1418 26013G25KT 6000 SCT020 BKN100"
    },
    {
      "icao": "LATI",
      "alert": "OK",
      "vis_m": 9999,
      "fzfg": false,
      "metar_trigger": false,
      "taf_trigger": false,
      "metar": "METAR LATI 131620Z 14005KT 9999 SCT035 BKN060 07/01 Q1026 NOSIG",
      "taf": "TAF LATI 131100Z 1312/1412 VRB05KT 9999 SCT040 BKN070 TX10/1312Z TN03/1405Z"
    },
    {
      "icao": "LBPD",
      "alert": "OK",
      "vis_m": 9999,
      "fzfg": false,
      "metar_trigger": false,
      "taf_trigger": false,
      "metar": "METAR LBPD 131600Z AUTO 06001KT 9999 BKN053/// OVC062/// 01/M08 Q1021 NOSIG",
      "taf": "TAF LBPD 131100Z 1312/1412 VRB03KT 9999 SCT050 BKN070"
    },
    {
      "icao": "LBSF",
      "alert": "OK",
      "vis_m": 9999,
      "fzfg": false,
      "metar_trigger": false,
      "taf_trigger": false,
      "metar": "METAR LBSF 131600Z AUTO 13003KT 9999 BKN048/// BKN069/// BKN079/// M01/M05 Q1020 NOSIG",
      "taf": "TAF LBSF 131100Z 1312/1412 VRB03KT 9999 SCT050 BKN070"
    },
    {
      "icao": "LBWN",
      "alert": "OK",
      "vis_m": 9999,
      "fzfg": false,
      "metar_trigger": false,
      "taf_trigger": false,
      "metar": "METAR LBWN 131600Z VRB02KT 9999 FEW047 00/M06 Q1021 NOSIG",
      "taf": "TAF LBWN 131100Z 1312/1412 VRB04KT 9999 SCT050"
    },
    {
      "icao": "LCLK",
      "alert": "OK",
      "vis_m": 9999,
      "fzfg": false,
      "metar_trigger": false,
      "taf_trigger": false,
      "metar": "METAR LCLK 131600Z 01007KT 9999 FEW020 SCT030 10/06 Q1013 NOSIG",
      "taf": "TAF LCLK 131130Z 1312/1412 30018KT 9999 FEW020CB SCT040"
    },
    {
      "icao": "LCPH",
      "alert": "OK",
      "vis_m": 9999,
      "fzfg": false,
      "metar_trigger": false,
      "taf_trigger": false,
      "metar": "METAR LCPH 131600Z 33012KT 9999 FEW025 SCT045 12/01 Q1014 NOSIG",
      "taf": "TAF LCPH 131130Z 1312/1412 30023G33KT 9999 FEW025CB SCT040"
    },
    {
      "icao": "LEAL",
      "alert": "OK",
      "vis_m": 8000,
      "fzfg": false,
      "metar_trigger": false,
      "taf_trigger": false,
      "metar": "METAR LEAL 131600Z 19004KT 150V250 8000 FEW005 14/12 Q1016 NOSIG",
      "taf": ""
    },
    {
      "icao": "LEBB",
      "alert": "OK",
      "vis_m": 9999,
      "fzfg": false,
      "metar_trigger": false,
      "taf_trigger": false,
      "metar": "METAR LEBB 131600Z 15010KT 110V180 9999 FEW070 17/05 Q1009 NOSIG",
      "taf": "TAF LEBB 131100Z 1312/1412 15009KT CAVOK TX16/1316Z TN09/1408Z"
    },
    {
      "icao": "LEBL",
      "alert": "OK",
      "vis_m": 9999,
      "fzfg": false,
      "metar_trigger": false,
      "taf_trigger": false,
      "metar": "METAR LEBL 131600Z 22005KT 9999 FEW015 15/11 Q1016 NOSIG",
      "taf": "TAF LEBL 131100Z 1312/1412 23008KT 9999 SCT020 TX16/1312Z TN07/1406Z"
    },
    {
      "icao": "LECH",
      "alert": "OK",
      "vis_m": 9000,
      "fzfg": false,
      "metar_trigger": false,
      "taf_trigger": false,
      "metar": "METAR LECH 131600Z AUTO 10006KT 9000 NCD 12/09 Q1015",
      "taf": ""
    },
    {
      "icao": "LEMD",
      "alert": "OK",
      "vis_m": 9999,
      "fzfg": false,
      "metar_trigger": false,
      "taf_trigger": false,
      "metar": "METAR LEMD 131600Z 18006KT 130V220 9999 BKN045 12/01 Q1013 NOSIG",
      "taf": "TAF LEMD 131100Z 1312/1418 VRB03KT 9999 SCT030 TX12/1314Z TN00/1407Z"
    },
    {
      "icao": "LEMG",
      "alert": "OK",
      "vis_m": 9999,
      "fzfg": false,
      "metar_trigger": false,
      "taf_trigger": false,
      "metar": "METAR LEMG 131600Z 11003KT 9999 FEW030 13/10 Q1016 NOSIG",
      "taf": "TAF LEMG 131100Z 1312/1412 13009KT 9999 FEW020 TX16/1314Z TN10/1407Z"
    },
    {
      "icao": "LEVC",
      "alert": "OK",
      "vis_m": 9999,
      "fzfg": false,
      "metar_trigger": false,
      "taf_trigger": false,
      "metar": "METAR LEVC 131600Z 14005KT CAVOK 13/09 Q1015 NOSIG",
      "taf": "TAF LEVC 131100Z 1312/1412 VRB04KT CAVOK TX16/1314Z TN04/1406Z"
    },
    {
      "icao": "LEXJ",
      "alert": "OK",
      "vis_m": 9999,
      "fzfg": false,
      "metar_trigger": false,
      "taf_trigger": false,
      "metar": "METAR LEXJ 131600Z 20016G29KT 160V240 9999 SCT080 17/05 Q1007",
      "taf": "TAF LEXJ 131400Z 1315/1415 19009KT CAVOK TX17/1316Z TN11/1408Z"
    },
    {
      "icao": "LEZG",
      "alert": "OK",
      "vis_m": 9999,
      "fzfg": false,
      "metar_trigger": false,
      "taf_trigger": false,
      "metar": "METAR LEZG 131600Z 09006KT CAVOK 11/08 Q1014 NOSIG",
      "taf": ""
    },
    {
      "icao": "LEZL",
      "alert": "OK",
      "vis_m": 9999,
      "fzfg": false,
      "metar_trigger": false,
      "taf_trigger": false,
      "metar": "METAR LEZL 131600Z 22011KT 170V260 9999 FEW025 16/13 Q1014 NOSIG",
      "taf": ""
    },
    {
      "icao": "LFBD",
      "alert": "OK",
      "vis_m": 9999,
      "fzfg": false,
      "metar_trigger": false,
      "taf_trigger": false,
      "metar": "METAR LFBD 131600Z AUTO 15009KT CAVOK 12/08 Q1010 NOSIG",
      "taf": "TAF LFBD 131100Z 1312/1418 15010KT CAVOK TX14/1314Z TN06/1407Z"
    },
    {
      "icao": "LFLL",
      "alert": "OK",
      "vis_m": 9999,
      "fzfg": false,
      "metar_trigger": false,
      "taf_trigger": false,
      "metar": "METAR LFLL 131600Z 18015KT 9999 FEW033 BKN260 13/07 Q1015 NOSIG",
      "taf": "TAF LFLL 131100Z 1312/1418 17015KT 9999 FEW035"
    },
    {
      "icao": "LFLS",
      "alert": "OK",
      "vis_m": 9999,
      "fzfg": false,
      "metar_trigger": false,
      "taf_trigger": false,
      "metar": "METAR LFLS 131600Z AUTO 25008KT 200V260 CAVOK 10/06 Q1015 NOSIG",
      "taf": "TAF LFLS 131400Z 1315/1415 24008KT 9999 FEW052"
    },
    {
      "icao": "LFMN",
      "alert": "OK",
      "vis_m": 9999,
      "fzfg": false,
      "metar_trigger": false,
      "taf_trigger": false,
      "metar": "METAR LFMN 131600Z 23006KT 9999 FEW033 SCT100 BKN260 14/09 Q1021 NOSIG",
      "taf": "TAF LFMN 131400Z 1315/1421 25008KT 9999 SCT030 BKN040"
    },
    {
      "icao": "LFOB",
      "alert": "OK",
      "vis_m": 9999,
      "fzfg": false,
      "metar_trigger": false,
      "taf_trigger": false,
      "metar": "METAR LFOB 131600Z AUTO 18007KT CAVOK 11/06 Q1008 NOSIG",
      "taf": "TAF LFOB 131100Z 1312/1412 18008KT CAVOK"
    },
    {
      "icao": "LFPO",
      "alert": "OK",
      "vis_m": 9999,
      "fzfg": false,
      "metar_trigger": false,
      "taf_trigger": false,
      "metar": "METAR LFPO 131600Z VRB01KT CAVOK 11/06 Q1009 NOSIG",
      "taf": "TAF LFPO 131100Z 1312/1418 19008KT CAVOK"
    },
    {
      "icao": "LFSB",
      "alert": "OK",
      "vis_m": 9999,
      "fzfg": false,
      "metar_trigger": false,
      "taf_trigger": false,
      "metar": "METAR LFSB 131600Z AUTO 15006KT CAVOK 07/03 Q1014 NOSIG",
      "taf": "TAF LFSB 131100Z 1312/1412 17005KT CAVOK"
    },
    {
      "icao": "LGAV",
      "alert": "OK",
      "vis_m": 9999,
      "fzfg": false,
      "metar_trigger": false,
      "taf_trigger": false,
      "metar": "METAR LGAV 131620Z VRB02KT 9999 FEW025 07/M00 Q1024 NOSIG",
      "taf": "TAF LGAV 131100Z 1312/1412 VRB05KT 9999 FEW025"
    },
    {
      "icao": "LGTS",
      "alert": "OK",
      "vis_m": 9999,
      "fzfg": false,
      "metar_trigger": false,
      "taf_trigger": false,
      "metar": "METAR LGTS 131620Z VRB03KT 9999 FEW025 04/M06 Q1023 NOSIG",
      "taf": "TAF LGTS 131100Z 1312/1412 VRB03KT 9999 FEW025"
    },
    {
      "icao": "LHBP",
      "alert": "OK",
      "vis_m": 9000,
      "fzfg": false,
      "metar_trigger": false,
      "taf_trigger": false,
      "metar": "METAR LHBP 131600Z 05005KT 9000 OVC011 M05/M08 Q1019 BECMG OVC009",
      "taf": ""
    },
    {
      "icao": "LHDC",
      "alert": "OK",
      "vis_m": 9000,
      "fzfg": false,
      "metar_trigger": false,
      "taf_trigger": false,
      "metar": "METAR LHDC 131545Z AUTO 05006KT 9000 OVC011 M04/M06 Q1019 NOSIG",
      "taf": "TAF LHDC 131415Z 1315/1324 06005KT 8000 BKN010 OVC025"
    },
    {
      "icao": "LIBD",
      "alert": "OK",
      "vis_m": 9999,
      "fzfg": false,
      "metar_trigger": false,
      "taf_trigger": false,
      "metar": "METAR LIBD 131620Z 14004KT 050V150 9999 SCT048 11/06 Q1024",
      "taf": "TAF LIBD 131100Z 1312/1412 23007KT CAVOK"
    },
    {
      "icao": "LIBG",
      "alert": "OK",
      "vis_m": 9999,
      "fzfg": false,
      "metar_trigger": false,
      "taf_trigger": false,
      "metar": "METAR LIBG 131550Z 06003KT CAVOK 09/06 Q1025",
      "taf": "TAF LIBG 131400Z 1315/1324 VRB05KT 9999 FEW040"
    },
    {
      "icao": "LIBP",
      "alert": "OK",
      "vis_m": 9999,
      "fzfg": false,
      "metar_trigger": false,
      "taf_trigger": false,
      "metar": "METAR LIBP 131620Z AUTO VRB02KT 9999 NCD 10/06 Q1023",
      "taf": "TAF LIBP 131100Z 1312/1412 VRB06KT CAVOK"
    },
    {
      "icao": "LIBR",
      "alert": "OK",
      "vis_m": 9999,
      "fzfg": false,
      "metar_trigger": false,
      "taf_trigger": false,
      "metar": "METAR LIBR 131620Z 19004KT CAVOK 10/04 Q1025",
      "taf": "TAF LIBR 131100Z 1312/1412 22008KT CAVOK"
    },
    {
      "icao": "LICA",
      "alert": "OK",
      "vis_m": 9999,
      "fzfg": false,
      "metar_trigger": false,
      "taf_trigger": false,
      "metar": "METAR LICA 131620Z AUTO 24005KT 9999 NCD 11/06 Q1026",
      "taf": "TAF LICA 131100Z 1312/1412 26010KT 9999 SCT030"
    },
    {
      "icao": "LICC",
      "alert": "OK",
      "vis_m": 9999,
      "fzfg": false,
      "metar_trigger": false,
      "taf_trigger": false,
      "metar": "METAR LICC 131620Z 25008KT CAVOK 13/08 Q1025",
      "taf": "TAF LICC 131100Z 1312/1412 26010KT CAVOK"
    },
    {
      "icao": "LICJ",
      "alert": "OK",
      "vis_m": 9999,
      "fzfg": false,
      "metar_trigger": false,
      "taf_trigger": false,
      "metar": "METAR LICJ 131620Z 18007KT 150V240 CAVOK 14/06 Q1024",
      "taf": "TAF LICJ 131100Z 1312/1412 18010KT 9999 FEW030"
    },
    {
      "icao": "LIMC",
      "alert": "OK",
      "vis_m": 9999,
      "fzfg": false,
      "metar_trigger": false,
      "taf_trigger": false,
      "metar": "METAR LIMC 131620Z 20003KT 150V250 9999 BKN045 06/M02 Q1022 NOSIG",
      "taf": "TAF LIMC 131100Z 1312/1418 VRB05KT 9999 BKN040"
    },
    {
      "icao": "LIME",
      "alert": "OK",
      "vis_m": 5000,
      "fzfg": false,
      "metar_trigger": false,
      "taf_trigger": false,
      "metar": "METAR LIME 131620Z 17002KT 5000 BR OVC040 05/01 Q1022 NOSIG",
      "taf": "TAF LIME 131100Z 1312/1412 VRB04KT 9999 SCT035"
    },
    {
      "icao": "LIMF",
      "alert": "OK",
      "vis_m": 9999,
      "fzfg": false,
      "metar_trigger": false,
      "taf_trigger": false,
      "metar": "METAR LIMF 131620Z 20004KT CAVOK 06/M04 Q1021",
      "taf": "TAF LIMF 131100Z 1312/1412 VRB03KT CAVOK"
    },
    {
      "icao": "LIMJ",
      "alert": "OK",
      "vis_m": 9999,
      "fzfg": false,
      "metar_trigger": false,
      "taf_trigger": false,
      "metar": "METAR LIMJ 131620Z 36003KT 9999 BKN016 BKN045 12/11 Q1021",
      "taf": "TAF LIMJ 131100Z 1312/1412 VRB05KT 9999 BKN020"
    },
    {
      "icao": "LIPE",
      "alert": "OK",
      "vis_m": 9999,
      "fzfg": false,
      "metar_trigger": false,
      "taf_trigger": false,
      "metar": "METAR LIPE 131620Z 01003KT 9999 SCT050 BKN065 05/01 Q1023",
      "taf": "TAF LIPE 131100Z 1312/1412 VRB04KT 9999 SCT040"
    },
    {
      "icao": "LIPH",
      "alert": "OK",
      "vis_m": 9000,
      "fzfg": false,
      "metar_trigger": false,
      "taf_trigger": false,
      "metar": "METAR LIPH 131620Z VRB02KT 9000 FEW040 05/01 Q1023",
      "taf": "TAF LIPH 131100Z 1312/1412 VRB04KT 9999 SCT040"
    },
    {
      "icao": "LIPQ",
      "alert": "OK",
      "vis_m": 9999,
      "fzfg": false,
      "metar_trigger": false,
      "taf_trigger": false,
      "metar": "METAR LIPQ 131620Z AUTO 01002KT 9999 OVC039/// 07/04 Q1022",
      "taf": "TAF LIPQ 131100Z 1312/1412 VRB04KT 9999 SCT040"
    },
    {
      "icao": "LIPR",
      "alert": "OK",
      "vis_m": 9999,
      "fzfg": false,
      "metar_trigger": false,
      "taf_trigger": false,
      "metar": "METAR LIPR 131620Z 30005KT 9999 BKN050 06/03 Q1022",
      "taf": "TAF LIPR 131100Z 1312/1412 VRB05KT 9999 FEW040"
    },
    {
      "icao": "LIPX",
      "alert": "OK",
      "vis_m": 9999,
      "fzfg": false,
      "metar_trigger": false,
      "taf_trigger": false,
      "metar": "METAR LIPX 131620Z 18002KT 9999 OVC040 05/M00 Q1022",
      "taf": "TAF LIPX 131100Z 1312/1412 VRB04KT 9999 BKN040"
    },
    {
      "icao": "LIPY",
      "alert": "OK",
      "vis_m": 9999,
      "fzfg": false,
      "metar_trigger": false,
      "taf_trigger": false,
      "metar": "METAR LIPY 131620Z AUTO 19004KT 160V230 9999 OVC065/// 11/06 Q1022",
      "taf": "TAF LIPY 131100Z 1312/1412 19007KT 9999 FEW050"
    },
    {
      "icao": "LIPZ",
      "alert": "OK",
      "vis_m": 9000,
      "fzfg": false,
      "metar_trigger": false,
      "taf_trigger": false,
      "metar": "METAR LIPZ 131620Z 21002KT 9000 BKN040 05/01 Q1023 NOSIG",
      "taf": "TAF LIPZ 131100Z 1312/1418 VRB05KT 9999 SCT040"
    },
    {
      "icao": "LIRF",
      "alert": "OK",
      "vis_m": 9999,
      "fzfg": false,
      "metar_trigger": false,
      "taf_trigger": false,
      "metar": "METAR LIRF 131620Z 14005KT 9999 FEW030 13/07 Q1024 NOSIG",
      "taf": "TAF LIRF 131100Z 1312/1418 16010KT 9999 SCT030"
    },
    {
      "icao": "LIRN",
      "alert": "OK",
      "vis_m": 9999,
      "fzfg": false,
      "metar_trigger": false,
      "taf_trigger": false,
      "metar": "METAR LIRN 131620Z 22004KT 9999 SCT040 12/06 Q1025 NOSIG",
      "taf": "TAF LIRN 131100Z 1312/1412 VRB05KT 9999 BKN030"
    },
    {
      "icao": "LIRP",
      "alert": "OK",
      "vis_m": 9999,
      "fzfg": false,
      "metar_trigger": false,
      "taf_trigger": false,
      "metar": "METAR LIRP 131615Z 07004KT 9999 SCT028 BKN060 11/11 Q1022 NOSIG",
      "taf": "TAF LIRP 131100Z 1312/1412 VRB03KT 9999 SCT030 BKN060"
    },
    {
      "icao": "LIRZ",
      "alert": "OK",
      "vis_m": 9999,
      "fzfg": false,
      "metar_trigger": false,
      "taf_trigger": false,
      "metar": "METAR LIRZ 131620Z AUTO 17003KT 150V210 9999 OVC038/// 11/07 Q1023",
      "taf": "TAF LIRZ 131100Z 1312/1412 VRB04KT 9999 SCT040"
    },
    {
      "icao": "LJLJ",
      "alert": "OK",
      "vis_m": 9999,
      "fzfg": false,
      "metar_trigger": false,
      "taf_trigger": false,
      "metar": "METAR LJLJ 131600Z 26002KT 9999 MIFG BKN030 BKN150 01/00 Q1020 NOSIG",
      "taf": "TAF LJLJ 131100Z 1312/1412 30007KT 9999 SCT025"
    },
    {
      "icao": "LKMT",
      "alert": "OK",
      "vis_m": 4000,
      "fzfg": false,
      "metar_trigger": false,
      "taf_trigger": false,
      "metar": "METAR LKMT 131600Z 23014KT 4000 BR SCT005 OVC015 M01/M01 Q1018 TEMPO BKN004",
      "taf": "TAF LKMT 131100Z 1312/1412 23010KT 9999 BKN012 OVC025"
    },
    {
      "icao": "LKPR",
      "alert": "OK",
      "vis_m": 8000,
      "fzfg": false,
      "metar_trigger": false,
      "taf_trigger": false,
      "metar": "METAR LKPR 131600Z 16005KT 8000 FEW007 BKN038 02/02 Q1015 NOSIG",
      "taf": "TAF LKPR 131400Z 1315/1421 21004KT 7000 SCT008 BKN017"
    },
    {
      "icao": "LLBG",
      "alert": "OK",
      "vis_m": 9999,
      "fzfg": false,
      "metar_trigger": false,
      "taf_trigger": false,
      "metar": "METAR LLBG 131620Z 28027G38KT 9999 DZ FEW020 BKN033 13/07 Q1017 TEMPO 27025G35KT 7000 RA FEW020TCU",
      "taf": "TAF LLBG 131110Z 1312/1412 27018G28KT 9999 SCT040"
    },
    {
      "icao": "LMML",
      "alert": "OK",
      "vis_m": 9999,
      "fzfg": false,
      "metar_trigger": false,
      "taf_trigger": false,
      "metar": "METAR LMML 131615Z 20006KT 9999 FEW030 14/08 Q1026 NOSIG",
      "taf": "TAF LMML 131100Z 1312/1412 24008KT 9999 SCT028"
    },
    {
      "icao": "LOWW",
      "alert": "OK",
      "vis_m": 4700,
      "fzfg": false,
      "metar_trigger": false,
      "taf_trigger": false,
      "metar": "METAR LOWW 131620Z VRB02KT 4700 BR FEW020 BKN026 M00/M01 Q1019 NOSIG",
      "taf": "TAF LOWW 131415Z 1315/1421 14005KT 6000 FEW020 BKN040 TXM00/1315Z TNM02/1418Z"
    },
    {
      "icao": "LPFR",
      "alert": "OK",
      "vis_m": 9999,
      "fzfg": false,
      "metar_trigger": false,
      "taf_trigger": false,
      "metar": "METAR LPFR 131600Z 25011KT 9999 FEW015 FEW018CB 16/13 Q1013",
      "taf": "TAF LPFR 131100Z 1312/1412 21017KT 9999 SCT020"
    },
    {
      "icao": "LPMA",
      "alert": "OK",
      "vis_m": 9999,
      "fzfg": false,
      "metar_trigger": false,
      "taf_trigger": false,
      "metar": "METAR LPMA 131600Z VRB04KT 9999 BKN015 FEW018CB 16/10 Q1019",
      "taf": "TAF LPMA 131100Z 1312/1412 34010KT 9999 SCT015"
    },
    {
      "icao": "LPPR",
      "alert": "OK",
      "vis_m": 9999,
      "fzfg": false,
      "metar_trigger": false,
      "taf_trigger": false,
      "metar": "METAR LPPR 131600Z 20010KT 170V230 9999 SCT018 14/11 Q1008",
      "taf": "TAF LPPR 131100Z 1312/1412 18012KT 9999 SCT015 BKN030"
    },
    {
      "icao": "LPPS",
      "alert": "OK",
      "vis_m": 9999,
      "fzfg": false,
      "metar_trigger": false,
      "taf_trigger": false,
      "metar": "METAR LPPS 131600Z 34018KT 9999 SCT015 SCT040 17/10 Q1018",
      "taf": "TAF LPPS 131100Z 1312/1418 34015KT 9999 SCT015"
    },
    {
      "icao": "LPPT",
      "alert": "OK",
      "vis_m": 9999,
      "fzfg": false,
      "metar_trigger": false,
      "taf_trigger": false,
      "metar": "METAR LPPT 131600Z 26010KT 230V290 9999 FEW016 SCT025 14/10 Q1011",
      "taf": "TAF LPPT 131100Z 1312/1418 25010KT 9999 SCT020 BKN045"
    },
    {
      "icao": "LQBK",
      "alert": "OK",
      "vis_m": 9999,
      "fzfg": false,
      "metar_trigger": false,
      "taf_trigger": false,
      "metar": "METAR LQBK 131600Z 00000KT CAVOK 04/01 Q1020 NOSIG",
      "taf": "TAF LQBK 131100Z 1312/1412 15007KT CAVOK TX14/1313Z TN00/1406Z"
    },
    {
      "icao": "LQSA",
      "alert": "OK",
      "vis_m": 9999,
      "fzfg": false,
      "metar_trigger": false,
      "taf_trigger": false,
      "metar": "METAR LQSA 131600Z 01006KT 310V050 CAVOK 06/02 Q1021 NOSIG",
      "taf": "TAF LQSA 131100Z 1312/1412 VRB02KT 8000 NSC TX04/1314Z TNM03/1406Z"
    },
    {
      "icao": "LQTZ",
      "alert": "OK",
      "vis_m": 9999,
      "fzfg": false,
      "metar_trigger": false,
      "taf_trigger": false,
      "metar": "METAR LQTZ 131600Z VRB02KT CAVOK 04/02 Q1019",
      "taf": "TAF LQTZ 131100Z 1312/1412 VRB02KT CAVOK TX04/1313Z TNM02/1405Z"
    },
    {
      "icao": "LRBC",
      "alert": "OK",
      "vis_m": 9999,
      "fzfg": false,
      "metar_trigger": false,
      "taf_trigger": false,
      "metar": "METAR LRBC 131600Z 16008KT CAVOK 00/M06 Q1017",
      "taf": "TAF LRBC 131400Z 1315/1324 15010KT CAVOK"
    },
    {
      "icao": "LRBS",
      "alert": "OK",
      "vis_m": 9999,
      "fzfg": false,
      "metar_trigger": false,
      "taf_trigger": false,
      "metar": "METAR LRBS 131600Z 22007KT CAVOK M04/M10 Q1020 NOSIG",
      "taf": "TAF LRBS 131100Z 1312/1412 25006KT CAVOK"
    },
    {
      "icao": "LRBV",
      "alert": "OK",
      "vis_m": 2400,
      "fzfg": false,
      "metar_trigger": false,
      "taf_trigger": false,
      "metar": "METAR LRBV 131600Z 07004KT 2400 -SN BR VV018 M06/M07 Q1016",
      "taf": "TAF LRBV 131400Z 1315/1324 VRB04KT 5000 -SN BR BKN015 OVC045"
    },
    {
      "icao": "LRCL",
      "alert": "OK",
      "vis_m": 9999,
      "fzfg": false,
      "metar_trigger": false,
      "taf_trigger": false,
      "metar": "METAR LRCL 131600Z 07003KT 9999 -SN BKN037 OVC062 M08/M10 Q1019",
      "taf": "TAF LRCL 131400Z 1315/1324 08007KT 5000 -SN BR SCT010 BKN045"
    },
    {
      "icao": "LRCV",
      "alert": "OK",
      "vis_m": 7000,
      "fzfg": false,
      "metar_trigger": false,
      "taf_trigger": false,
      "metar": "METAR LRCV 131600Z VRB02KT 7000 -SN OVC022 M04/M05 Q1020",
      "taf": "TAF LRCV 131400Z 1315/1324 VRB04KT 5000 -SN BR BKN035"
    },
    {
      "icao": "LRIA",
      "alert": "OK",
      "vis_m": 9999,
      "fzfg": false,
      "metar_trigger": false,
      "taf_trigger": false,
      "metar": "METAR LRIA 131600Z 10009KT CAVOK M05/M06 Q1018",
      "taf": "TAF LRIA 131400Z 1315/1324 10006KT CAVOK"
    },
    {
      "icao": "LROP",
      "alert": "OK",
      "vis_m": 9999,
      "fzfg": false,
      "metar_trigger": false,
      "taf_trigger": false,
      "metar": "METAR LROP 131600Z 22007KT CAVOK M04/M11 Q1020 NOSIG",
      "taf": "TAF LROP 131100Z 1312/1412 25006KT CAVOK"
    },
    {
      "icao": "LRSB",
      "alert": "OK",
      "vis_m": 4000,
      "fzfg": false,
      "metar_trigger": false,
      "taf_trigger": false,
      "metar": "METAR LRSB 131600Z 25003KT 4000 -SN SCT010 OVC045 M06/M07 Q1016",
      "taf": "TAF LRSB 131100Z 1312/1412 VRB04KT 9999 -SN OVC035"
    },
    {
      "icao": "LRSM",
      "alert": "OK",
      "vis_m": 9999,
      "fzfg": false,
      "metar_trigger": false,
      "taf_trigger": false,
      "metar": "METAR LRSM 131600Z 31002KT 9999 OVC027 M05/M07 Q1020",
      "taf": "TAF LRSM 131400Z 1315/1324 12007KT 9999 OVC030"
    },
    {
      "icao": "LRSV",
      "alert": "OK",
      "vis_m": 9999,
      "fzfg": false,
      "metar_trigger": false,
      "taf_trigger": false,
      "metar": "METAR LRSV 131600Z 02003KT CAVOK M06/M08 Q1016",
      "taf": "TAF LRSV 131400Z 1315/1324 VRB04KT CAVOK"
    },
    {
      "icao": "LRTM",
      "alert": "OK",
      "vis_m": 3300,
      "fzfg": false,
      "metar_trigger": false,
      "taf_trigger": false,
      "metar": "METAR LRTM 131600Z 11001KT 3300 -SN BR SCT016 BKN024 BKN034 M07/M08 Q1018",
      "taf": "TAF LRTM 131400Z 1315/1324 VRB02KT 1000 -SN BR BKN010 OVC025"
    },
    {
      "icao": "LRTR",
      "alert": "OK",
      "vis_m": 7000,
      "fzfg": false,
      "metar_trigger": false,
      "taf_trigger": false,
      "metar": "METAR LRTR 131600Z 12003KT 7000 SCT024 M01/M01 Q1019 BECMG 5000 BR",
      "taf": "TAF LRTR 131100Z 1312/1412 11010KT 3000 SN BKN005 OVC030"
    },
    {
      "icao": "LTAC",
      "alert": "OK",
      "vis_m": 9999,
      "fzfg": false,
      "metar_trigger": false,
      "taf_trigger": false,
      "metar": "METAR LTAC 131620Z 34003KT 290V030 9999 FEW040 M03/M07 Q1018 NOSIG RMK RWY21C 01003KT RWY03L VRB02KT RWY21R 01003KT RWY03R VRB02KT RWY21L 36003KT",
      "taf": "TAF LTAC 131040Z 1312/1412 VRB02KT 9999 SCT035 BKN100"
    },
    {
      "icao": "LTFM",
      "alert": "OK",
      "vis_m": 9999,
      "fzfg": false,
      "metar_trigger": false,
      "taf_trigger": false,
      "metar": "METAR LTFM 131620Z 21006KT 9999 FEW040 01/M04 Q1023 NOSIG RMK RWY17L 21007KT RWY34L 20006KT RWY16R 22006KT RWY36 22006KT RWY18 22009KT",
      "taf": "TAF LTFM 131040Z 1312/1418 30010KT 9999 BKN028"
    },
    {
      "icao": "LUKK",
      "alert": "OK",
      "vis_m": 9999,
      "fzfg": false,
      "metar_trigger": false,
      "taf_trigger": false,
      "metar": "METAR LUKK 131600Z 17005KT CAVOK M07/M09 Q1019 NOSIG",
      "taf": "TAF LUKK 131115Z 1312/1412 VRB05KT CAVOK"
    },
    {
      "icao": "LWOH",
      "alert": "OK",
      "vis_m": 9999,
      "fzfg": false,
      "metar_trigger": false,
      "taf_trigger": false,
      "metar": "METAR LWOH 131620Z 04004KT 9999 BKN035 02/M00 Q1023",
      "taf": "TAF LWOH 131440Z 1315/1415 VRB03KT 9999 FEW040"
    },
    {
      "icao": "LWSK",
      "alert": "OK",
      "vis_m": 9999,
      "fzfg": false,
      "metar_trigger": false,
      "taf_trigger": false,
      "metar": "METAR LWSK 131620Z 07002KT 9999 FEW050 01/M05 Q1023 NOSIG",
      "taf": "TAF LWSK 131440Z 1315/1415 VRB02KT 9999 FEW070"
    },
    {
      "icao": "LYBE",
      "alert": "OK",
      "vis_m": 8000,
      "fzfg": false,
      "metar_trigger": false,
      "taf_trigger": false,
      "metar": "METAR LYBE 131600Z 19004KT 8000 NSC 04/M01 Q1020 NOSIG",
      "taf": "TAF LYBE 131100Z 1312/1412 VRB02KT 9999 SCT040 TX05/1412Z TN00/1405Z"
    },
    {
      "icao": "LYNI",
      "alert": "OK",
      "vis_m": 9999,
      "fzfg": false,
      "metar_trigger": false,
      "taf_trigger": false,
      "metar": "METAR LYNI 131600Z 09002KT 9999 SCT060 BKN073 01/M02 Q1022 NOSIG",
      "taf": "TAF LYNI 131100Z 1312/1412 24004KT 9999 SCT043 BKN070 TX03/1412Z TNM01/1315Z"
    },
    {
      "icao": "LYPG",
      "alert": "OK",
      "vis_m": 9999,
      "fzfg": false,
      "metar_trigger": false,
      "taf_trigger": false,
      "metar": "METAR LYPG 131600Z VRB01KT 9999 -RA BKN033 OVC070 04/M02 Q1027 NOSIG",
      "taf": "TAF LYPG 131100Z 1312/1412 16006KT 9999 FEW027 BKN040 BKN080 TX09/1412Z TN01/1406Z"
    },
    {
      "icao": "LZIB",
      "alert": "OK",
      "vis_m": 6000,
      "fzfg": false,
      "metar_trigger": false,
      "taf_trigger": false,
      "metar": "METAR LZIB 131600Z 07003KT 6000 SCT006 BKN032 OVC048 M03/M03 Q1019 NOSIG",
      "taf": ""
    },
    {
      "icao": "LZKZ",
      "alert": "OK",
      "vis_m": 9999,
      "fzfg": false,
      "metar_trigger": false,
      "taf_trigger": false,
      "metar": "METAR LZKZ 131600Z 33002KT 9999 SCT020 BKN040 M06/M09 Q1019 NOSIG",
      "taf": "TAF LZKZ 131115Z 1312/1412 VRB02KT 6000 -SN OVC017"
    },
    {
      "icao": "LZTT",
      "alert": "OK",
      "vis_m": 7000,
      "fzfg": false,
      "metar_trigger": false,
      "taf_trigger": false,
      "metar": "METAR LZTT 131600Z 08003KT 7000 -SN BKN010 OVC013 M07/M09 Q1014 NOSIG",
      "taf": "TAF LZTT 131115Z 1312/1412 VRB02KT 6000 -SN SCT012 BKN020"
    },
    {
      "icao": "OEJN",
      "alert": "OK",
      "vis_m": 9999,
      "fzfg": false,
      "metar_trigger": false,
      "taf_trigger": false,
      "metar": "METAR OEJN 131600Z 35013KT 9999 FEW035 25/17 Q1016 NOSIG",
      "taf": "TAF OEJN 131100Z 1312/1418 35010KT 7000 SCT040"
    },
    {
      "icao": "OEMA",
      "alert": "OK",
      "vis_m": 9999,
      "fzfg": false,
      "metar_trigger": false,
      "taf_trigger": false,
      "metar": "METAR OEMA 131600Z 25010KT CAVOK 24/03 Q1018 NOSIG",
      "taf": "TAF OEMA 131100Z 1312/1418 33010KT 7000 FEW040"
    },
    {
      "icao": "OJAI",
      "alert": "OK",
      "vis_m": 3000,
      "fzfg": false,
      "metar_trigger": false,
      "taf_trigger": false,
      "metar": "METAR OJAI 131600Z 24022KT 3000 RA SCT025 BKN030 07/05 Q1016 NOSIG",
      "taf": "TAF OJAI 131051Z 1312/1418 24020KT 1500 RA BR FEW025TCU SCT035"
    },
    {
      "icao": "OMAA",
      "alert": "OK",
      "vis_m": 9999,
      "fzfg": false,
      "metar_trigger": false,
      "taf_trigger": false,
      "metar": "METAR OMAA 131600Z 36005KT CAVOK 21/14 Q1020 NOSIG",
      "taf": "TAF OMAA 131100Z 1312/1418 34010KT 8000 NSC"
    },
    {
      "icao": "OMDB",
      "alert": "OK",
      "vis_m": null,
      "fzfg": false,
      "metar_trigger": false,
      "taf_trigger": false,
      "metar": "",
      "taf": "TAF OMDB 131100Z 1312/1418 32010KT 8000 NSC"
    },
    {
      "icao": "UAAA",
      "alert": "OK",
      "vis_m": 200,
      "fzfg": false,
      "metar_trigger": false,
      "taf_trigger": false,
      "metar": "METAR UAAA 131600Z 00000MPS 0200 R23L/0700N FG VV002 00/M00 Q1021 NOSIG RMK QBB060",
      "taf": ""
    },
    {
      "icao": "UBBB",
      "alert": "OK",
      "vis_m": 9999,
      "fzfg": false,
      "metar_trigger": false,
      "taf_trigger": false,
      "metar": "METAR UBBB 131600Z 35014KT 9999 -SHRA SCT011 BKN045CB OVC045 07/06 Q1010 NOSIG",
      "taf": "TAF UBBB 131057Z 1312/1412 35014KT 9999 BKN020 TX08/1312Z TN03/1401Z"
    },
    {
      "icao": "UDSG",
      "alert": "OK",
      "vis_m": 9999,
      "fzfg": false,
      "metar_trigger": false,
      "taf_trigger": false,
      "metar": "METAR UDSG 131600Z 35013KT 9999 -SN OVC033 M01/M06 Q1006 NOSIG",
      "taf": "TAF UDSG 131100Z 1312/1412 VRB06KT 5000 BR BKN030"
    },
    {
      "icao": "UDYZ",
      "alert": "OK",
      "vis_m": 7000,
      "fzfg": false,
      "metar_trigger": false,
      "taf_trigger": false,
      "metar": "METAR UDYZ 131600Z VRB01KT 7000 BKN043 04/M00 Q1005 NOSIG",
      "taf": "TAF UDYZ 131100Z 1312/1412 23006KT 9999 SCT040"
    },
    {
      "icao": "UGKO",
      "alert": "OK",
      "vis_m": 9999,
      "fzfg": false,
      "metar_trigger": false,
      "taf_trigger": false,
      "metar": "METAR UGKO 131600Z 26010KT 9999 -RA SCT014 BKN017 OVC035 03/02 Q1018 NOSIG",
      "taf": "TAF UGKO 131100Z 1312/1412 25007KT 9999 OVC045 TX06/1411Z TN01/1403Z"
    }
  ]
}