{
  "ts_utc": "2025-12-20T17:24:08Z",
  "threshold_m": 150,
  "source": "stations_override.txt (ICAO list) + aviationweather.gov (METAR/TAF raw)",
  "station_count": 114,
  "stations": [
    {
      "icao": "BIKF",
      "alert": "OK",
      "vis_m": 9999,
      "fzfg": false,
      "metar_trigger": false,
      "taf_trigger": false,
      "metar": "METAR BIKF 201700Z 12007KT 9999 SCT020 BKN210 05/03 Q0995",
      "taf": "TAF BIKF 201645Z 2018/2118 06008KT 9999 SCT010 BKN025 TX09/2112Z TN04/2019Z"
    },
    {
      "icao": "BKPR",
      "alert": "OK",
      "vis_m": null,
      "fzfg": false,
      "metar_trigger": false,
      "taf_trigger": false,
      "metar": "",
      "taf": ""
    },
    {
      "icao": "EBBR",
      "alert": "OK",
      "vis_m": 9999,
      "fzfg": false,
      "metar_trigger": false,
      "taf_trigger": false,
      "metar": "METAR EBBR 201650Z COR 11005KT 9999 BKN014 07/06 Q1012 NOSIG",
      "taf": "TAF EBBR 201103Z 2012/2118 08005KT 6000 FEW018"
    },
    {
      "icao": "EBCI",
      "alert": "OK",
      "vis_m": 3500,
      "fzfg": false,
      "metar_trigger": false,
      "taf_trigger": false,
      "metar": "METAR EBCI 201650Z 12005KT 3500 -RADZ SCT002 BKN009 07/06 Q1012 TEMPO BKN004",
      "taf": "TAF EBCI 201103Z 2012/2118 11004KT 8000 FEW018"
    },
    {
      "icao": "EDDB",
      "alert": "OK",
      "vis_m": 1000,
      "fzfg": false,
      "metar_trigger": false,
      "taf_trigger": false,
      "metar": "METAR EDDB 201650Z AUTO 06005KT 040V110 1000 0700 R06L/0900N R06R/P2000N BCFG FEW001 BKN006 05/05 Q1019 TEMPO 2000 BR BKN003",
      "taf": ""
    },
    {
      "icao": "EDDH",
      "alert": "OK",
      "vis_m": 600,
      "fzfg": false,
      "metar_trigger": false,
      "taf_trigger": false,
      "metar": "METAR EDDH 201650Z AUTO 09004KT 060V120 0600 0300 R23/0800N R15/0800N FG VV003 04/04 Q1018 TEMPO 0500 OVC001",
      "taf": "TAF EDDH 201124Z 2012/2118 VRB03KT 0500 FG VV003"
    },
    {
      "icao": "EDDK",
      "alert": "OK",
      "vis_m": 9999,
      "fzfg": false,
      "metar_trigger": false,
      "taf_trigger": false,
      "metar": "METAR EDDK 201650Z AUTO 11005KT 9999 BKN016 BKN049 09/08 Q1014 TEMPO BKN013",
      "taf": "TAF EDDK 201100Z 2012/2118 11007KT 9999 BKN020"
    },
    {
      "icao": "EDDN",
      "alert": "OK",
      "vis_m": 9999,
      "fzfg": false,
      "metar_trigger": false,
      "taf_trigger": false,
      "metar": "METAR EDDN 201650Z AUTO 11007KT CAVOK 06/03 Q1016 NOSIG",
      "taf": ""
    },
    {
      "icao": "EDFH",
      "alert": "OK",
      "vis_m": 300,
      "fzfg": false,
      "metar_trigger": false,
      "taf_trigger": false,
      "metar": "METAR EDFH 201650Z 15012KT 0300 R21/0400N FG VV/// 07/07 Q1013",
      "taf": "TAF EDFH 201100Z 2012/2112 12007KT 0800 FG BKN003"
    },
    {
      "icao": "EDJA",
      "alert": "OK",
      "vis_m": 6000,
      "fzfg": false,
      "metar_trigger": false,
      "taf_trigger": false,
      "metar": "METAR EDJA 201650Z 04003KT 6000 NSC 02/01 Q1015",
      "taf": "TAF EDJA 201400Z 2015/2024 04003KT CAVOK"
    },
    {
      "icao": "EDLW",
      "alert": "OK",
      "vis_m": 9999,
      "fzfg": false,
      "metar_trigger": false,
      "taf_trigger": false,
      "metar": "METAR EDLW 201650Z 04005KT 9999 FEW030 BKN039 OVC044 07/06 Q1014",
      "taf": "TAF EDLW 201100Z 2012/2112 VRB03KT 9999 BKN030"
    },
    {
      "icao": "EDSB",
      "alert": "OK",
      "vis_m": 7000,
      "fzfg": false,
      "metar_trigger": false,
      "taf_trigger": false,
      "metar": "METAR EDSB 201650Z 01003KT 330V050 7000 NSC 08/08 Q1014",
      "taf": "TAF EDSB 201100Z 2012/2112 VRB03KT 9999 SCT004 BKN045"
    },
    {
      "icao": "EETN",
      "alert": "OK",
      "vis_m": 9999,
      "fzfg": false,
      "metar_trigger": false,
      "taf_trigger": false,
      "metar": "METAR EETN 201720Z 24012KT 9999 BKN009 FEW018CB 06/05 Q1006 NOSIG",
      "taf": "TAF EETN 201130Z 2012/2112 22012KT 9999 BKN012 BKN035"
    },
    {
      "icao": "EFHK",
      "alert": "OK",
      "vis_m": 9999,
      "fzfg": false,
      "metar_trigger": false,
      "taf_trigger": false,
      "metar": "METAR EFHK 201720Z 23008KT 9999 FEW008 BKN012 06/05 Q1004 NOSIG",
      "taf": "TAF EFHK 201433Z 2015/2115 23009KT 9999 SCT010 BKN018"
    },
    {
      "icao": "EFTU",
      "alert": "OK",
      "vis_m": 9999,
      "fzfg": false,
      "metar_trigger": false,
      "taf_trigger": false,
      "metar": "METAR EFTU 201720Z AUTO 25011KT 9999 OVC031 06/05 Q1004",
      "taf": "TAF EFTU 201433Z 2015/2115 25010KT 9999 -RA SCT010 BKN015"
    },
    {
      "icao": "EGGW",
      "alert": "OK",
      "vis_m": 9999,
      "fzfg": false,
      "metar_trigger": false,
      "taf_trigger": false,
      "metar": "METAR EGGW 201650Z AUTO 12005KT 9999 FEW028 05/04 Q1009",
      "taf": "TAF EGGW 201701Z 2018/2118 12007KT 9999 FEW028"
    },
    {
      "icao": "EGKK",
      "alert": "OK",
      "vis_m": 9999,
      "fzfg": false,
      "metar_trigger": false,
      "taf_trigger": false,
      "metar": "METAR EGKK 201650Z 07005KT 9999 BKN014 08/07 Q1009",
      "taf": "TAF EGKK 201658Z 2018/2124 10005KT 9999 SCT020"
    },
    {
      "icao": "EHEH",
      "alert": "OK",
      "vis_m": 9999,
      "fzfg": false,
      "metar_trigger": false,
      "taf_trigger": false,
      "metar": "METAR EHEH 201655Z AUTO 07005KT 040V210 9999 FEW011 OVC077 07/06 Q1013 BLU NOSIG RMK TREND REMOTE BY EHWX",
      "taf": "TAF EHEH 201114Z 2012/2118 08007KT CAVOK"
    },
    {
      "icao": "EKBI",
      "alert": "OK",
      "vis_m": 9999,
      "fzfg": false,
      "metar_trigger": false,
      "taf_trigger": false,
      "metar": "METAR EKBI 201650Z AUTO 18001KT 9999 BKN009/// 07/06 Q1018",
      "taf": "TAF EKBI 201427Z 2015/2115 20005KT 9999 SCT010"
    },
    {
      "icao": "EKCH",
      "alert": "OK",
      "vis_m": 9999,
      "fzfg": false,
      "metar_trigger": false,
      "taf_trigger": false,
      "metar": "METAR EKCH 201650Z AUTO 22004KT 9999 FEW007/// BKN021/// 04/04 Q1019 TEMPO BKN004",
      "taf": "TAF EKCH 201427Z 2015/2115 24010KT 9999 SCT010 BKN018"
    },
    {
      "icao": "ENTO",
      "alert": "OK",
      "vis_m": 9999,
      "fzfg": false,
      "metar_trigger": false,
      "taf_trigger": false,
      "metar": "METAR ENTO 201650Z VRB05KT CAVOK 05/01 Q1013 NOSIG",
      "taf": "TAF ENTO 201100Z 2012/2112 24010KT CAVOK"
    },
    {
      "icao": "EPGD",
      "alert": "OK",
      "vis_m": 9999,
      "fzfg": false,
      "metar_trigger": false,
      "taf_trigger": false,
      "metar": "METAR EPGD 201700Z 30005KT 9999 BKN011 05/03 Q1019",
      "taf": "TAF EPGD 201130Z 2012/2112 29012KT 9999 BKN015"
    },
    {
      "icao": "EPKK",
      "alert": "OK",
      "vis_m": 550,
      "fzfg": false,
      "metar_trigger": false,
      "taf_trigger": false,
      "metar": "METAR EPKK 201700Z 23003KT 0550 R25/1300U FG SCT001 OVC002 02/02 Q1020",
      "taf": "TAF EPKK 201430Z 2015/2115 19002KT 0600 FG SCT001 OVC002"
    },
    {
      "icao": "EPKT",
      "alert": "OK",
      "vis_m": 2100,
      "fzfg": false,
      "metar_trigger": false,
      "taf_trigger": false,
      "metar": "METAR EPKT 201700Z 15003KT 2100 BR OVC003 04/04 Q1019",
      "taf": "TAF EPKT 201130Z 2012/2112 18005KT 0300 FG OVC001"
    },
    {
      "icao": "EPWA",
      "alert": "OK",
      "vis_m": 1200,
      "fzfg": false,
      "metar_trigger": false,
      "taf_trigger": false,
      "metar": "METAR EPWA 201700Z 26004KT 1200 1000SE R33/1200N BR OVC002 05/05 Q1019 BECMG 0400 FG OVC001",
      "taf": "TAF EPWA 201430Z 2015/2115 VRB03KT 6000 OVC006"
    },
    {
      "icao": "EPWR",
      "alert": "OK",
      "vis_m": 4000,
      "fzfg": false,
      "metar_trigger": false,
      "taf_trigger": false,
      "metar": "METAR EPWR 201700Z 06003KT 4000 BR FEW002 BKN006 04/04 Q1020",
      "taf": ""
    },
    {
      "icao": "ESGG",
      "alert": "OK",
      "vis_m": 9999,
      "fzfg": false,
      "metar_trigger": false,
      "taf_trigger": false,
      "metar": "METAR ESGG 201650Z 24007KT 9999 BKN011 07/05 Q1015",
      "taf": ""
    },
    {
      "icao": "ESKN",
      "alert": "OK",
      "vis_m": 9999,
      "fzfg": false,
      "metar_trigger": false,
      "taf_trigger": false,
      "metar": "METAR ESKN 201650Z 26014KT CAVOK 07/05 Q1010",
      "taf": "TAF ESKN 201430Z 2015/2115 26010KT 9999 BKN040"
    },
    {
      "icao": "ESMX",
      "alert": "OK",
      "vis_m": 9000,
      "fzfg": false,
      "metar_trigger": false,
      "taf_trigger": false,
      "metar": "METAR ESMX 201650Z AUTO 26005KT 230V290 9000 FEW007/// SCT010/// BKN012/// 07/06 Q1015",
      "taf": "TAF ESMX 201130Z 2012/2015 23011KT 9999 OVC035"
    },
    {
      "icao": "EVRA",
      "alert": "OK",
      "vis_m": 9999,
      "fzfg": false,
      "metar_trigger": false,
      "taf_trigger": false,
      "metar": "METAR EVRA 201720Z 22005KT 9999 SCT019 BKN041 05/04 Q1013 NOSIG",
      "taf": "TAF EVRA 201701Z 2018/2118 21007KT 9999 BKN015"
    },
    {
      "icao": "EYKA",
      "alert": "OK",
      "vis_m": 3400,
      "fzfg": false,
      "metar_trigger": false,
      "taf_trigger": false,
      "metar": "METAR EYKA 201720Z 23004KT 200V280 3400 BR BKN005 OVC016 04/04 Q1017",
      "taf": "TAF EYKA 201700Z 2018/2118 VRB04KT 9000 SCT010 OVC015"
    },
    {
      "icao": "EYVI",
      "alert": "OK",
      "vis_m": 300,
      "fzfg": false,
      "metar_trigger": false,
      "taf_trigger": false,
      "metar": "METAR EYVI 201720Z 20005KT 0300 R01/1000N FG VV001 02/02 Q1017 NOSIG",
      "taf": "TAF EYVI 201707Z 2018/2118 VRB04KT 1500 BR OVC002"
    },
    {
      "icao": "GCLP",
      "alert": "OK",
      "vis_m": 9999,
      "fzfg": false,
      "metar_trigger": false,
      "taf_trigger": false,
      "metar": "METAR GCLP 201700Z 02016KT 9999 FEW035 BKN040 19/12 Q1021 NOSIG",
      "taf": "TAF GCLP 201400Z 2015/2115 02019KT 9999 SCT035 TX21/2114Z TN15/2106Z"
    },
    {
      "icao": "GCTS",
      "alert": "OK",
      "vis_m": 9999,
      "fzfg": false,
      "metar_trigger": false,
      "taf_trigger": false,
      "metar": "METAR GCTS 201700Z 08017KT 9999 BKN035 20/11 Q1022 NOSIG",
      "taf": "TAF GCTS 201400Z 2015/2115 08019KT 9999 SCT035 TX22/2114Z TN15/2106Z"
    },
    {
      "icao": "HECA",
      "alert": "OK",
      "vis_m": 9999,
      "fzfg": false,
      "metar_trigger": false,
      "taf_trigger": false,
      "metar": "METAR HECA 201700Z 07006KT CAVOK 16/03 Q1015 NOSIG",
      "taf": "TAF HECA 201700Z 2018/2124 08009KT CAVOK"
    },
    {
      "icao": "HEGN",
      "alert": "OK",
      "vis_m": 9999,
      "fzfg": false,
      "metar_trigger": false,
      "taf_trigger": false,
      "metar": "METAR HEGN 201600Z 11002KT CAVOK 20/13 Q1016 NOSIG",
      "taf": "TAF HEGN 201700Z 2018/2124 27008KT CAVOK"
    },
    {
      "icao": "HESH",
      "alert": "OK",
      "vis_m": 9999,
      "fzfg": false,
      "metar_trigger": false,
      "taf_trigger": false,
      "metar": "METAR HESH 201600Z 01005KT CAVOK 20/09 Q1016 NOSIG",
      "taf": "TAF HESH 201700Z 2018/2124 35008KT CAVOK"
    },
    {
      "icao": "HESX",
      "alert": "OK",
      "vis_m": 9999,
      "fzfg": false,
      "metar_trigger": false,
      "taf_trigger": false,
      "metar": "METAR HESX 201600Z 05005KT CAVOK 17/07 Q1016 NOSIG",
      "taf": "TAF HESX 201700Z 2018/2124 09009KT CAVOK"
    },
    {
      "icao": "LATI",
      "alert": "OK",
      "vis_m": 9999,
      "fzfg": false,
      "metar_trigger": false,
      "taf_trigger": false,
      "metar": "METAR LATI 201720Z 15004KT CAVOK 07/05 Q1015 NOSIG",
      "taf": "TAF LATI 201700Z 2018/2118 VRB05KT CAVOK TX17/2112Z TN01/2105Z"
    },
    {
      "icao": "LBSF",
      "alert": "OK",
      "vis_m": 9999,
      "fzfg": false,
      "metar_trigger": false,
      "taf_trigger": false,
      "metar": "METAR LBSF 201700Z AUTO 10009KT 9999 FEW015/// 04/02 Q1018 NOSIG",
      "taf": "TAF LBSF 201700Z 2018/2118 10010KT 9999 SCT030"
    },
    {
      "icao": "LBWN",
      "alert": "OK",
      "vis_m": 9000,
      "fzfg": false,
      "metar_trigger": false,
      "taf_trigger": false,
      "metar": "METAR LBWN 201700Z AUTO 02004KT 320V100 9000 OVC008/// 07/07 Q1020 NOSIG",
      "taf": "TAF LBWN 201700Z 2018/2118 02010KT 7000 BKN008 OVC018"
    },
    {
      "icao": "LCLK",
      "alert": "OK",
      "vis_m": 9999,
      "fzfg": false,
      "metar_trigger": false,
      "taf_trigger": false,
      "metar": "METAR LCLK 201700Z 32004KT 9999 FEW035 14/11 Q1017 NOSIG",
      "taf": "TAF LCLK 201130Z 2012/2112 19010KT 9999 FEW030"
    },
    {
      "icao": "LDDU",
      "alert": "OK",
      "vis_m": 9999,
      "fzfg": false,
      "metar_trigger": false,
      "taf_trigger": false,
      "metar": "METAR LDDU 201700Z 06002KT CAVOK 10/08 Q1015 NOSIG",
      "taf": "TAF LDDU 201125Z 2012/2112 19006KT 9999 FEW040 TX16/2012Z TN09/2103Z"
    },
    {
      "icao": "LDSP",
      "alert": "OK",
      "vis_m": 9999,
      "fzfg": false,
      "metar_trigger": false,
      "taf_trigger": false,
      "metar": "METAR LDSP 201700Z 00000KT CAVOK 09/06 Q1015 NOSIG",
      "taf": "TAF LDSP 201125Z 2012/2112 32005KT CAVOK TX17/2012Z TN07/2106Z"
    },
    {
      "icao": "LDZA",
      "alert": "OK",
      "vis_m": 1200,
      "fzfg": false,
      "metar_trigger": false,
      "taf_trigger": false,
      "metar": "METAR LDZA 201700Z VRB02KT 1200 R04/2000N R22/1600N PRFG OVC003 03/02 Q1020 TEMPO 0600 FG",
      "taf": "TAF LDZA 201125Z 2012/2112 VRB02KT 0600 FG VV002 TX04/2111Z TN02/2012Z"
    },
    {
      "icao": "LEAL",
      "alert": "OK",
      "vis_m": 9999,
      "fzfg": false,
      "metar_trigger": false,
      "taf_trigger": false,
      "metar": "METAR LEAL 201700Z 19005KT 150V230 CAVOK 16/12 Q1012 NOSIG",
      "taf": "TAF LEAL 201100Z 2012/2112 22008KT 9999 FEW015 TX17/2012Z TN08/2106Z"
    },
    {
      "icao": "LEBL",
      "alert": "OK",
      "vis_m": 9000,
      "fzfg": false,
      "metar_trigger": false,
      "taf_trigger": false,
      "metar": "METAR LEBL 201700Z 33008KT 280V360 9000 -RA SCT030 BKN035 13/12 Q1012 NOSIG",
      "taf": "TAF LEBL 201100Z 2012/2112 33009KT 8000 FEW030 BKN040 TX12/2012Z TN09/2106Z"
    },
    {
      "icao": "LECH",
      "alert": "OK",
      "vis_m": 9999,
      "fzfg": false,
      "metar_trigger": false,
      "taf_trigger": false,
      "metar": "METAR LECH 201700Z AUTO 10003KT CAVOK 11/09 Q1012",
      "taf": ""
    },
    {
      "icao": "LEMD",
      "alert": "OK",
      "vis_m": 9000,
      "fzfg": false,
      "metar_trigger": false,
      "taf_trigger": false,
      "metar": "METAR LEMD 201700Z 20007KT 9000 FEW020 OVC060 09/07 Q1012 NOSIG",
      "taf": "TAF LEMD 201100Z 2012/2118 VRB04KT 9999 SCT045 TX11/2014Z TN05/2107Z"
    },
    {
      "icao": "LEMG",
      "alert": "OK",
      "vis_m": 9999,
      "fzfg": false,
      "metar_trigger": false,
      "taf_trigger": false,
      "metar": "METAR LEMG 201700Z 29008KT 9999 FEW060 12/04 Q1017 NOSIG",
      "taf": "TAF LEMG 201100Z 2012/2112 30009KT 9999 FEW030 TX16/2014Z TN08/2106Z"
    },
    {
      "icao": "LERS",
      "alert": "OK",
      "vis_m": 9999,
      "fzfg": false,
      "metar_trigger": false,
      "taf_trigger": false,
      "metar": "METAR LERS 201700Z 00000KT 9999 FEW040 11/09 Q1012",
      "taf": "TAF LERS 201400Z 2015/2115 VRB04KT 9999 FEW040 TX15/2112Z TN06/2106Z"
    },
    {
      "icao": "LEVC",
      "alert": "OK",
      "vis_m": 9999,
      "fzfg": false,
      "metar_trigger": false,
      "taf_trigger": false,
      "metar": "METAR LEVC 201700Z 15004KT CAVOK 13/09 Q1012 NOSIG",
      "taf": "TAF LEVC 201100Z 2012/2112 VRB04KT 9999 FEW015 TX17/2012Z TN06/2107Z"
    },
    {
      "icao": "LFLL",
      "alert": "OK",
      "vis_m": 9999,
      "fzfg": false,
      "metar_trigger": false,
      "taf_trigger": false,
      "metar": "METAR LFLL 201700Z 13006KT CAVOK 12/09 Q1013 NOSIG",
      "taf": "TAF LFLL 201700Z 2018/2124 14006KT CAVOK"
    },
    {
      "icao": "LFMN",
      "alert": "OK",
      "vis_m": 9999,
      "fzfg": false,
      "metar_trigger": false,
      "taf_trigger": false,
      "metar": "METAR LFMN 201700Z 33006KT 9999 BKN043 BKN080 14/10 Q1015 NOSIG",
      "taf": "TAF LFMN 201400Z 2015/2121 VRB03KT 9999 BKN040"
    },
    {
      "icao": "LFOB",
      "alert": "OK",
      "vis_m": 3800,
      "fzfg": false,
      "metar_trigger": false,
      "taf_trigger": false,
      "metar": "METAR LFOB 201700Z AUTO 11006KT 3800 -RADZ BR OVC001 08/08 Q1010 TEMPO 2000 -DZRA OVC002",
      "taf": "TAF LFOB 201100Z 2012/2112 11008KT 9999 OVC015"
    },
    {
      "icao": "LFPO",
      "alert": "OK",
      "vis_m": 7000,
      "fzfg": false,
      "metar_trigger": false,
      "taf_trigger": false,
      "metar": "METAR LFPO 201700Z 16006KT 7000 OVC008 10/09 Q1010 TEMPO BKN011",
      "taf": ""
    },
    {
      "icao": "LFSB",
      "alert": "OK",
      "vis_m": 9999,
      "fzfg": false,
      "metar_trigger": false,
      "taf_trigger": false,
      "metar": "METAR LFSB 201700Z AUTO 14004KT CAVOK 08/04 Q1014 NOSIG",
      "taf": "TAF LFSB 201700Z 2018/2118 VRB03KT CAVOK"
    },
    {
      "icao": "LGAV",
      "alert": "OK",
      "vis_m": 9999,
      "fzfg": false,
      "metar_trigger": false,
      "taf_trigger": false,
      "metar": "METAR LGAV 201650Z 01004KT 9999 SCT025 14/08 Q1016 NOSIG",
      "taf": "TAF LGAV 201700Z 2018/2118 02010KT 9999 SCT020 BKN070"
    },
    {
      "icao": "LGIR",
      "alert": "OK",
      "vis_m": 9999,
      "fzfg": false,
      "metar_trigger": false,
      "taf_trigger": false,
      "metar": "METAR LGIR 201650Z 20004KT 9999 FEW018 BKN080 15/12 Q1015 NOSIG",
      "taf": "TAF LGIR 201700Z 2018/2118 18008KT 9999 SCT020 BKN080"
    },
    {
      "icao": "LGKR",
      "alert": "OK",
      "vis_m": 9999,
      "fzfg": false,
      "metar_trigger": false,
      "taf_trigger": false,
      "metar": "METAR LGKR 201650Z 00000KT 9999 FEW018 13/11 Q1015 NOSIG",
      "taf": "TAF LGKR 201700Z 2018/2118 VRB05KT 9999 SCT020"
    },
    {
      "icao": "LGRP",
      "alert": "OK",
      "vis_m": 9999,
      "fzfg": false,
      "metar_trigger": false,
      "taf_trigger": false,
      "metar": "METAR LGRP 201650Z VRB01KT 9999 SCT020 16/12 Q1014 NOSIG",
      "taf": "TAF LGRP 201700Z 2018/2118 VRB05KT 9999 SCT020"
    },
    {
      "icao": "LGTS",
      "alert": "OK",
      "vis_m": 8000,
      "fzfg": false,
      "metar_trigger": false,
      "taf_trigger": false,
      "metar": "METAR LGTS 201650Z VRB03KT 8000 FEW010 08/07 Q1018 NOSIG",
      "taf": "TAF LGTS 201700Z 2018/2118 VRB03KT 8000 FEW010"
    },
    {
      "icao": "LGZA",
      "alert": "OK",
      "vis_m": 9000,
      "fzfg": false,
      "metar_trigger": false,
      "taf_trigger": false,
      "metar": "METAR LGZA 201650Z 00000KT 9000 -RA FEW020 BKN080 13/12 Q1015",
      "taf": "TAF LGZA 201700Z 2018/2103 VRB03KT 9999 SCT020 BKN070"
    },
    {
      "icao": "LHBP",
      "alert": "OK",
      "vis_m": 9999,
      "fzfg": false,
      "metar_trigger": false,
      "taf_trigger": false,
      "metar": "METAR LHBP 201700Z VRB02KT 9999 OVC011 06/04 Q1020 NOSIG",
      "taf": "TAF LHBP 201115Z 2012/2112 VRB03KT 9000 OVC016"
    },
    {
      "icao": "LHDC",
      "alert": "OK",
      "vis_m": 3700,
      "fzfg": false,
      "metar_trigger": false,
      "taf_trigger": false,
      "metar": "METAR LHDC 201645Z AUTO 25004KT 220V280 3700 BR BKN002 06/06 Q1020 NOSIG",
      "taf": "TAF LHDC 201415Z 2015/2024 VRB02KT 0300 FG VV001"
    },
    {
      "icao": "LIBD",
      "alert": "OK",
      "vis_m": 9999,
      "fzfg": false,
      "metar_trigger": false,
      "taf_trigger": false,
      "metar": "METAR LIBD 201650Z 29005KT CAVOK 11/11 Q1016",
      "taf": "TAF LIBD 201700Z 2018/2118 VRB04KT 9999 SCT040"
    },
    {
      "icao": "LICC",
      "alert": "OK",
      "vis_m": 9999,
      "fzfg": false,
      "metar_trigger": false,
      "taf_trigger": false,
      "metar": "METAR LICC 201650Z 04007KT 9999 FEW030 SCT070 15/14 Q1013",
      "taf": "TAF LICC 201700Z 2018/2118 05008KT 9999 SCT010 BKN040"
    },
    {
      "icao": "LICJ",
      "alert": "OK",
      "vis_m": 9999,
      "fzfg": false,
      "metar_trigger": false,
      "taf_trigger": false,
      "metar": "METAR LICJ 201650Z AUTO 10005KT 9999 SCT078/// SCT087/// 15/11 Q1012",
      "taf": "TAF LICJ 201700Z 2018/2118 VRB06KT 9999 SCT040"
    },
    {
      "icao": "LIEO",
      "alert": "OK",
      "vis_m": 9999,
      "fzfg": false,
      "metar_trigger": false,
      "taf_trigger": false,
      "metar": "METAR LIEO 201650Z 02003KT 9999 SCT020 13/12 Q1014",
      "taf": "TAF LIEO 201700Z 2018/2118 VRB05KT 9999 BKN020"
    },
    {
      "icao": "LIMC",
      "alert": "OK",
      "vis_m": 4000,
      "fzfg": false,
      "metar_trigger": false,
      "taf_trigger": false,
      "metar": "METAR LIMC 201650Z 23003KT 4000 BR NSC 09/07 Q1017 NOSIG",
      "taf": "TAF LIMC 201700Z 2018/2124 VRB03KT 4000 BR SCT012 BKN070"
    },
    {
      "icao": "LIME",
      "alert": "OK",
      "vis_m": 6000,
      "fzfg": false,
      "metar_trigger": false,
      "taf_trigger": false,
      "metar": "METAR LIME 201650Z 20002KT 6000 SCT010 SCT060 08/07 Q1017 NOSIG",
      "taf": "TAF LIME 201700Z 2018/2118 VRB03KT 7000 SCT010 BKN070"
    },
    {
      "icao": "LIPH",
      "alert": "OK",
      "vis_m": 9999,
      "fzfg": false,
      "metar_trigger": false,
      "taf_trigger": false,
      "metar": "METAR LIPH 201620Z 22002KT CAVOK 08/07 Q1017",
      "taf": "TAF LIPH 201700Z 2018/2118 VRB04KT 8000 FEW030"
    },
    {
      "icao": "LIPQ",
      "alert": "OK",
      "vis_m": 9999,
      "fzfg": false,
      "metar_trigger": false,
      "taf_trigger": false,
      "metar": "METAR LIPQ 201650Z AUTO 35003KT 9999 BKN230/// 08/07 Q1017",
      "taf": "TAF LIPQ 201700Z 2018/2118 VRB04KT CAVOK"
    },
    {
      "icao": "LIPX",
      "alert": "OK",
      "vis_m": 9999,
      "fzfg": false,
      "metar_trigger": false,
      "taf_trigger": false,
      "metar": "METAR LIPX 201650Z 26003KT 240V300 9999 FEW006 SCT070 08/07 Q1017",
      "taf": "TAF LIPX 201700Z 2018/2118 VRB03KT 6000 BKN060"
    },
    {
      "icao": "LIPY",
      "alert": "OK",
      "vis_m": 7000,
      "fzfg": false,
      "metar_trigger": false,
      "taf_trigger": false,
      "metar": "METAR LIPY 201650Z AUTO VRB02KT 7000 OVC007/// 11/10 Q1017",
      "taf": "TAF LIPY 201700Z 2018/2118 VRB05KT 8000 OVC013"
    },
    {
      "icao": "LIPZ",
      "alert": "OK",
      "vis_m": 9999,
      "fzfg": false,
      "metar_trigger": false,
      "taf_trigger": false,
      "metar": "METAR LIPZ 201650Z 30003KT 260V320 CAVOK 10/07 Q1017 NOSIG",
      "taf": "TAF LIPZ 201700Z 2018/2124 VRB04KT 8000 FEW020"
    },
    {
      "icao": "LIRA",
      "alert": "OK",
      "vis_m": 9999,
      "fzfg": false,
      "metar_trigger": false,
      "taf_trigger": false,
      "metar": "METAR LIRA 201650Z 11002KT CAVOK 13/07 Q1015",
      "taf": "TAF LIRA 201700Z 2018/2118 05005KT CAVOK"
    },
    {
      "icao": "LIRN",
      "alert": "OK",
      "vis_m": 9999,
      "fzfg": false,
      "metar_trigger": false,
      "taf_trigger": false,
      "metar": "METAR LIRN 201650Z VRB03KT CAVOK 14/07 Q1014 NOSIG",
      "taf": "TAF LIRN 201700Z 2018/2118 05007KT CAVOK"
    },
    {
      "icao": "LLBG",
      "alert": "OK",
      "vis_m": 9999,
      "fzfg": false,
      "metar_trigger": false,
      "taf_trigger": false,
      "metar": "METAR LLBG 201720Z VRB03KT CAVOK 16/10 Q1017 NOSIG",
      "taf": "TAF LLBG 201703Z 2018/2118 VRB03KT CAVOK"
    },
    {
      "icao": "LMML",
      "alert": "OK",
      "vis_m": 9999,
      "fzfg": false,
      "metar_trigger": false,
      "taf_trigger": false,
      "metar": "METAR LMML 201715Z 13004KT 9999 FEW020 14/12 Q1012 NOSIG",
      "taf": "TAF LMML 201700Z 2018/2118 VRB07KT 9999 SCT014"
    },
    {
      "icao": "LOWW",
      "alert": "OK",
      "vis_m": 2900,
      "fzfg": false,
      "metar_trigger": false,
      "taf_trigger": false,
      "metar": "METAR LOWW 201650Z 16003KT 120V190 2900 -DZ BR FEW000 BKN002 02/02 Q1020 TEMPO 1400 BR",
      "taf": "TAF LOWW 201415Z 2015/2121 14005KT 2000 BR SCT001 BKN002 TX03/2121Z TN02/2101Z"
    },
    {
      "icao": "LPFR",
      "alert": "OK",
      "vis_m": 9999,
      "fzfg": false,
      "metar_trigger": false,
      "taf_trigger": false,
      "metar": "METAR LPFR 201700Z 25011KT 9999 FEW018 15/11 Q1017",
      "taf": "TAF LPFR 201700Z 2018/2118 26012KT 9999 BKN018"
    },
    {
      "icao": "LPPR",
      "alert": "OK",
      "vis_m": 9999,
      "fzfg": false,
      "metar_trigger": false,
      "taf_trigger": false,
      "metar": "METAR LPPR 201700Z 19004KT 9999 FEW015 SCT045 11/07 Q1011",
      "taf": "TAF LPPR 201700Z 2018/2118 24013KT 9999 SCT030"
    },
    {
      "icao": "LPPT",
      "alert": "OK",
      "vis_m": 9999,
      "fzfg": false,
      "metar_trigger": false,
      "taf_trigger": false,
      "metar": "METAR LPPT 201700Z 26008KT 230V290 9999 FEW015 BKN034 12/10 Q1014",
      "taf": "TAF LPPT 201700Z 2018/2124 25008KT 9999 SCT025"
    },
    {
      "icao": "LQSA",
      "alert": "OK",
      "vis_m": 3500,
      "fzfg": false,
      "metar_trigger": false,
      "taf_trigger": false,
      "metar": "METAR LQSA 201700Z VRB03KT 3500 BR OVC003 03/03 Q1019 NOSIG",
      "taf": "TAF LQSA 201700Z 2018/2118 VRB02KT 3000 BR BKN003 TX04/2113Z TNM01/2105Z"
    },
    {
      "icao": "LQTZ",
      "alert": "OK",
      "vis_m": 100,
      "fzfg": false,
      "metar_trigger": false,
      "taf_trigger": false,
      "metar": "METAR LQTZ 201700Z 10002KT 0100 R09/0300N FG VV002 03/03 Q1020",
      "taf": "TAF LQTZ 201700Z 2018/2118 VRB02KT 0400 FG VV002 TX05/2113Z TNM01/2105Z"
    },
    {
      "icao": "LRCL",
      "alert": "OK",
      "vis_m": 9999,
      "fzfg": false,
      "metar_trigger": false,
      "taf_trigger": false,
      "metar": "METAR LRCL 201700Z 00000KT CAVOK 05/04 Q1020",
      "taf": "TAF LRCL 201400Z 2015/2024 08007KT CAVOK"
    },
    {
      "icao": "LRCV",
      "alert": "OK",
      "vis_m": 300,
      "fzfg": false,
      "metar_trigger": false,
      "taf_trigger": false,
      "metar": "METAR LRCV 201700Z 14005KT 0300 R26/0600N FG VV001 03/03 Q1021",
      "taf": ""
    },
    {
      "icao": "LRIA",
      "alert": "OK",
      "vis_m": 3800,
      "fzfg": false,
      "metar_trigger": false,
      "taf_trigger": false,
      "metar": "METAR LRIA 201700Z VRB02KT 3800 BR OVC002 01/01 Q1022",
      "taf": ""
    },
    {
      "icao": "LROP",
      "alert": "OK",
      "vis_m": 400,
      "fzfg": false,
      "metar_trigger": false,
      "taf_trigger": false,
      "metar": "METAR LROP 201700Z 08006KT 0400 R08R/1100N R08L/0700N FG OVC001 04/04 Q1022 BECMG 0300 FG",
      "taf": "TAF LROP 201100Z 2012/2112 VRB04KT 0800 FG OVC002"
    },
    {
      "icao": "LRSB",
      "alert": "OK",
      "vis_m": 6000,
      "fzfg": false,
      "metar_trigger": false,
      "taf_trigger": false,
      "metar": "METAR LRSB 201700Z VRB01KT 6000 NSC 02/01 Q1019 BECMG 5000 BR",
      "taf": "TAF LRSB 201100Z 2012/2112 VRB04KT CAVOK"
    },
    {
      "icao": "LRTR",
      "alert": "OK",
      "vis_m": 2500,
      "fzfg": false,
      "metar_trigger": false,
      "taf_trigger": false,
      "metar": "METAR LRTR 201700Z 01006KT 2500 BR NSC 05/05 Q1019 BECMG 1500 BR",
      "taf": ""
    },
    {
      "icao": "LTAF",
      "alert": "OK",
      "vis_m": 3500,
      "fzfg": false,
      "metar_trigger": false,
      "taf_trigger": false,
      "metar": "METAR LTAF 201650Z 10003KT 050V140 3500 BR NSC 13/09 Q1019 BECMG TL1750 9999 NSW RMK RWY23 VRB01KT 4CI200",
      "taf": "TAF LTAF 201640Z 2018/2118 VRB02KT CAVOK"
    },
    {
      "icao": "LTAI",
      "alert": "OK",
      "vis_m": 6000,
      "fzfg": false,
      "metar_trigger": false,
      "taf_trigger": false,
      "metar": "METAR LTAI 201650Z 30005KT 6000 SCT025 BKN080 15/10 Q1018 NOSIG RMK RWY18C 34005KT RWY36R 33004KT RWY18L 34004KT",
      "taf": "TAF LTAI 201640Z 2018/2118 34009KT 9999 SCT030 BKN100"
    },
    {
      "icao": "LTFM",
      "alert": "OK",
      "vis_m": 9999,
      "fzfg": false,
      "metar_trigger": false,
      "taf_trigger": false,
      "metar": "METAR LTFM 201650Z 03011KT 9999 BKN026 12/09 Q1018 NOSIG RMK RWY17L 03010KT RWY34L 02010KT RWY16R 03011KT RWY36 03012KT RWY18 04010KT",
      "taf": "TAF LTFM 201640Z 2018/2124 05012KT 9999 SCT016 BKN022"
    },
    {
      "icao": "LUBL",
      "alert": "OK",
      "vis_m": null,
      "fzfg": false,
      "metar_trigger": false,
      "taf_trigger": false,
      "metar": "",
      "taf": ""
    },
    {
      "icao": "LUKK",
      "alert": "OK",
      "vis_m": 1400,
      "fzfg": false,
      "metar_trigger": false,
      "taf_trigger": false,
      "metar": "METAR LUKK 201700Z 11005KT 1400 1000SW R08/1200U BR OVC001 00/00 Q1023 TEMPO 0400 FG",
      "taf": "TAF LUKK 201718Z 2018/2118 VRB05KT 1500 BR OVC002"
    },
    {
      "icao": "LWSK",
      "alert": "OK",
      "vis_m": 150,
      "fzfg": false,
      "metar_trigger": false,
      "taf_trigger": false,
      "metar": "METAR LWSK 201720Z VRB01KT 0150 R34/0400N FG VV002 00/M00 Q1019 NOSIG",
      "taf": "TAF LWSK 201425Z 2015/2115 VRB02KT 0300 FG VV002"
    },
    {
      "icao": "LYBE",
      "alert": "OK",
      "vis_m": 350,
      "fzfg": false,
      "metar_trigger": false,
      "taf_trigger": false,
      "metar": "METAR LYBE 201700Z 28003KT 230V310 0350 R12L/0450N R30R/0375N FG VV002 05/05 Q1020 NOSIG",
      "taf": "TAF LYBE 201700Z 2018/2118 27004KT 0300 FG VV001 TX05/2113Z TN02/2106Z"
    },
    {
      "icao": "LZIB",
      "alert": "OK",
      "vis_m": 5000,
      "fzfg": false,
      "metar_trigger": false,
      "taf_trigger": false,
      "metar": "METAR LZIB 201700Z VRB02KT 5000 BR FEW002 OVC003 04/03 Q1020 BECMG 2800 BR OVC002",
      "taf": ""
    },
    {
      "icao": "LZKZ",
      "alert": "OK",
      "vis_m": 6000,
      "fzfg": false,
      "metar_trigger": false,
      "taf_trigger": false,
      "metar": "METAR LZKZ 201700Z 33004KT 6000 BCFG FEW013 BKN026 05/04 Q1019 BECMG 1400 BR",
      "taf": "TAF LZKZ 201715Z 2018/2118 VRB02KT 5000 SCT011 BKN030"
    },
    {
      "icao": "LZTT",
      "alert": "OK",
      "vis_m": 150,
      "fzfg": false,
      "metar_trigger": false,
      "taf_trigger": false,
      "metar": "METAR LZTT 201700Z VRB02KT 0150 R27/0600N FG OVC001 01/00 Q1019 TEMPO 0100 FG",
      "taf": "TAF LZTT 201715Z 2018/2118 VRB02KT 2500 BR OVC006"
    },
    {
      "icao": "OEJN",
      "alert": "OK",
      "vis_m": 9999,
      "fzfg": false,
      "metar_trigger": false,
      "taf_trigger": false,
      "metar": "METAR OEJN 201700Z 33009KT CAVOK 25/06 Q1012 NOSIG",
      "taf": "TAF OEJN 201700Z 2018/2124 VRB03KT CAVOK"
    },
    {
      "icao": "OEMA",
      "alert": "OK",
      "vis_m": 9999,
      "fzfg": false,
      "metar_trigger": false,
      "taf_trigger": false,
      "metar": "METAR OEMA 201700Z 04005KT CAVOK 16/M08 Q1020 NOSIG",
      "taf": "TAF OEMA 201700Z 2018/2124 VRB03KT CAVOK"
    },
    {
      "icao": "OERK",
      "alert": "OK",
      "vis_m": 9999,
      "fzfg": false,
      "metar_trigger": false,
      "taf_trigger": false,
      "metar": "METAR OERK 201700Z 30006KT CAVOK 12/03 Q1020 NOSIG",
      "taf": "TAF OERK 201700Z 2018/2124 VRB03KT 7000 NSC"
    },
    {
      "icao": "OJAI",
      "alert": "OK",
      "vis_m": 4000,
      "fzfg": false,
      "metar_trigger": false,
      "taf_trigger": false,
      "metar": "METAR OJAI 201700Z 12004KT 4000 BR NSC 10/07 Q1021 NOSIG",
      "taf": ""
    },
    {
      "icao": "OKBK",
      "alert": "OK",
      "vis_m": null,
      "fzfg": false,
      "metar_trigger": false,
      "taf_trigger": false,
      "metar": "",
      "taf": ""
    },
    {
      "icao": "OMAA",
      "alert": "OK",
      "vis_m": 9999,
      "fzfg": false,
      "metar_trigger": false,
      "taf_trigger": false,
      "metar": "METAR OMAA 201700Z 21003KT CAVOK 18/05 Q1018 NOSIG",
      "taf": "TAF OMAA 201700Z 2018/2200 23005KT 9999 FEW040"
    },
    {
      "icao": "UAAA",
      "alert": "OK",
      "vis_m": 4400,
      "fzfg": false,
      "metar_trigger": false,
      "taf_trigger": false,
      "metar": "METAR UAAA 201700Z VRB01MPS 4400 BR SCT050 BKN100 M02/M04 Q1015 NOSIG",
      "taf": "TAF UAAA 201702Z 2018/2118 23003MPS 3100 BR BKN015CB OVC050 TX00/2107Z TNM03/2101Z"
    },
    {
      "icao": "UCFM",
      "alert": "OK",
      "vis_m": 800,
      "fzfg": true,
      "metar_trigger": false,
      "taf_trigger": false,
      "metar": "METAR UCFM 201700Z 20003MPS 0800 0550E R07/P1500N FZFG NSC M01/M02 Q1016 NOSIG",
      "taf": ""
    },
    {
      "icao": "UDYZ",
      "alert": "OK",
      "vis_m": 3800,
      "fzfg": false,
      "metar_trigger": false,
      "taf_trigger": false,
      "metar": "METAR UDYZ 201700Z 35002KT 3800 BR NSC M02/M05 Q1024 NOSIG",
      "taf": "TAF UDYZ 201700Z 2018/2118 VRB06KT 3500 BR NSC"
    },
    {
      "icao": "UGTB",
      "alert": "OK",
      "vis_m": 9999,
      "fzfg": false,
      "metar_trigger": false,
      "taf_trigger": false,
      "metar": "METAR UGTB 201700Z 04003KT CAVOK M00/M03 Q1024 NOSIG",
      "taf": "TAF UGTB 201700Z 2018/2118 34007KT CAVOK TX06/2112Z TNM03/2102Z"
    },
    {
      "icao": "UKKK",
      "alert": "OK",
      "vis_m": null,
      "fzfg": false,
      "metar_trigger": false,
      "taf_trigger": false,
      "metar": "",
      "taf": ""
    },
    {
      "icao": "UTTT",
      "alert": "OK",
      "vis_m": null,
      "fzfg": false,
      "metar_trigger": false,
      "taf_trigger": false,
      "metar": "",
      "taf": ""
    }
  ]
}