{
  "ts_utc": "2026-05-02T08:09:26Z",
  "threshold_m": 150,
  "source": "stations_override.txt (ICAO list) + aviationweather.gov (METAR/TAF raw)",
  "station_count": 159,
  "stations": [
    {
      "icao": "BIKF",
      "alert": "OK",
      "vis_m": 9999,
      "fzfg": false,
      "metar_trigger": false,
      "taf_trigger": false,
      "metar": "METAR BIKF 020800Z 23010KT 9999 FEW032 SCT280 03/M04 Q1020",
      "taf": "TAF BIKF 020759Z 0209/0309 23008KT 9999 SCT017 BKN027 TX07/0216Z TN02/0209Z"
    },
    {
      "icao": "BKPR",
      "alert": "OK",
      "vis_m": 9999,
      "fzfg": false,
      "metar_trigger": false,
      "taf_trigger": false,
      "metar": "METAR BKPR 020800Z 36007KT 9999 FEW030 11/01 Q1023 NOSIG",
      "taf": "TAF BKPR 020530Z 0206/0306 01008KT 9999 FEW050"
    },
    {
      "icao": "EBCI",
      "alert": "OK",
      "vis_m": 9999,
      "fzfg": false,
      "metar_trigger": false,
      "taf_trigger": false,
      "metar": "METAR EBCI 020750Z 19007KT 170V230 CAVOK 18/11 Q1019 NOSIG",
      "taf": "TAF EBCI 020509Z 0206/0312 22006KT CAVOK"
    },
    {
      "icao": "EDDB",
      "alert": "OK",
      "vis_m": 9999,
      "fzfg": false,
      "metar_trigger": false,
      "taf_trigger": false,
      "metar": "METAR EDDB 020750Z AUTO 21007KT 170V230 CAVOK 19/08 Q1023 NOSIG",
      "taf": "TAF EDDB 020500Z 0206/0306 VRB03KT CAVOK"
    },
    {
      "icao": "EDDH",
      "alert": "OK",
      "vis_m": 9999,
      "fzfg": false,
      "metar_trigger": false,
      "taf_trigger": false,
      "metar": "METAR EDDH 020750Z AUTO 16008KT CAVOK 20/09 Q1019 NOSIG",
      "taf": "TAF EDDH 020500Z 0206/0312 14006KT CAVOK"
    },
    {
      "icao": "EDDK",
      "alert": "OK",
      "vis_m": 9999,
      "fzfg": false,
      "metar_trigger": false,
      "taf_trigger": false,
      "metar": "METAR EDDK 020750Z AUTO 14006KT 110V170 CAVOK 18/06 Q1020 NOSIG",
      "taf": "TAF EDDK 020500Z 0206/0312 11004KT CAVOK"
    },
    {
      "icao": "EDDN",
      "alert": "OK",
      "vis_m": 9999,
      "fzfg": false,
      "metar_trigger": false,
      "taf_trigger": false,
      "metar": "METAR EDDN 020750Z AUTO 15004KT 100V190 CAVOK 17/05 Q1023 NOSIG",
      "taf": "TAF EDDN 020500Z 0206/0306 VRB03KT CAVOK"
    },
    {
      "icao": "EDDS",
      "alert": "OK",
      "vis_m": 9999,
      "fzfg": false,
      "metar_trigger": false,
      "taf_trigger": false,
      "metar": "METAR EDDS 020750Z AUTO VRB03KT CAVOK 17/04 Q1022 NOSIG",
      "taf": "TAF EDDS 020500Z 0206/0306 VRB03KT CAVOK"
    },
    {
      "icao": "EDFH",
      "alert": "OK",
      "vis_m": 9999,
      "fzfg": false,
      "metar_trigger": false,
      "taf_trigger": false,
      "metar": "METAR EDFH 020750Z 14008KT CAVOK 16/06 Q1021",
      "taf": "TAF EDFH 020500Z 0206/0306 14009KT CAVOK"
    },
    {
      "icao": "EDJA",
      "alert": "OK",
      "vis_m": 9999,
      "fzfg": false,
      "metar_trigger": false,
      "taf_trigger": false,
      "metar": "METAR EDJA 020750Z 23007KT CAVOK 16/05 Q1023",
      "taf": "TAF EDJA 020500Z 0206/0215 VRB03KT CAVOK"
    },
    {
      "icao": "EDLW",
      "alert": "OK",
      "vis_m": 9999,
      "fzfg": false,
      "metar_trigger": false,
      "taf_trigger": false,
      "metar": "METAR EDLW 020750Z COR 18011KT CAVOK 20/06 Q1019",
      "taf": "TAF EDLW 020500Z 0206/0306 16007KT CAVOK"
    },
    {
      "icao": "EDNY",
      "alert": "OK",
      "vis_m": 9999,
      "fzfg": false,
      "metar_trigger": false,
      "taf_trigger": false,
      "metar": "METAR EDNY 020750Z 00000KT CAVOK 15/05 Q1024",
      "taf": "TAF EDNY 020500Z 0206/0215 VRB03KT CAVOK"
    },
    {
      "icao": "EDSB",
      "alert": "OK",
      "vis_m": 9999,
      "fzfg": false,
      "metar_trigger": false,
      "taf_trigger": false,
      "metar": "METAR EDSB 020750Z VRB02KT CAVOK 16/07 Q1022",
      "taf": "TAF EDSB 020500Z 0206/0306 VRB03KT CAVOK"
    },
    {
      "icao": "EETN",
      "alert": "OK",
      "vis_m": 9999,
      "fzfg": false,
      "metar_trigger": false,
      "taf_trigger": false,
      "metar": "METAR EETN 020750Z 25012KT 220V280 CAVOK 15/04 Q1013 NOSIG",
      "taf": "TAF EETN 020530Z 0206/0306 26013KT CAVOK"
    },
    {
      "icao": "EFTU",
      "alert": "OK",
      "vis_m": 9999,
      "fzfg": false,
      "metar_trigger": false,
      "taf_trigger": false,
      "metar": "METAR EFTU 020750Z AUTO 25011KT CAVOK 16/03 Q1011",
      "taf": "TAF EFTU 020531Z 0206/0306 26010KT CAVOK"
    },
    {
      "icao": "EGBB",
      "alert": "OK",
      "vis_m": 9999,
      "fzfg": false,
      "metar_trigger": false,
      "taf_trigger": false,
      "metar": "METAR EGBB 020750Z 26004KT 210V310 CAVOK 12/08 Q1018",
      "taf": "TAF EGBB 020454Z 0206/0306 23003KT 6000 FEW040"
    },
    {
      "icao": "EGGP",
      "alert": "OK",
      "vis_m": 9999,
      "fzfg": false,
      "metar_trigger": false,
      "taf_trigger": false,
      "metar": "METAR EGGP 020750Z 13003KT 090V190 CAVOK 10/09 Q1017",
      "taf": "TAF EGGP 020458Z 0206/0306 VRB03KT 9999 SCT040"
    },
    {
      "icao": "EGGW",
      "alert": "OK",
      "vis_m": 9999,
      "fzfg": false,
      "metar_trigger": false,
      "taf_trigger": false,
      "metar": "METAR EGGW 020750Z AUTO 21004KT 160V220 9999 NCD 12/10 Q1018",
      "taf": "TAF EGGW 020457Z 0206/0306 23004KT 9999 FEW045"
    },
    {
      "icao": "EGKK",
      "alert": "OK",
      "vis_m": 6000,
      "fzfg": false,
      "metar_trigger": false,
      "taf_trigger": false,
      "metar": "METAR EGKK 020750Z 17003KT 110V240 6000 BKN006 12/10 Q1018",
      "taf": ""
    },
    {
      "icao": "EGNM",
      "alert": "OK",
      "vis_m": 9999,
      "fzfg": false,
      "metar_trigger": false,
      "taf_trigger": false,
      "metar": "METAR EGNM 020750Z 27014KT 9999 SCT013 11/07 Q1016",
      "taf": ""
    },
    {
      "icao": "EGPD",
      "alert": "OK",
      "vis_m": 9999,
      "fzfg": false,
      "metar_trigger": false,
      "taf_trigger": false,
      "metar": "METAR EGPD 020750Z COR AUTO 36004KT 310V050 9999 NCD 13/09 Q1013 NOSIG",
      "taf": "TAF EGPD 020454Z 0206/0306 27005KT CAVOK"
    },
    {
      "icao": "EGPF",
      "alert": "OK",
      "vis_m": 9000,
      "fzfg": false,
      "metar_trigger": false,
      "taf_trigger": false,
      "metar": "METAR EGPF 020750Z AUTO 25004KT 9000 BKN016 BKN031 11/10 Q1014",
      "taf": "TAF EGPF 020456Z 0206/0306 02004KT 9999 BKN030"
    },
    {
      "icao": "EHBK",
      "alert": "OK",
      "vis_m": 9999,
      "fzfg": false,
      "metar_trigger": false,
      "taf_trigger": false,
      "metar": "METAR EHBK 020755Z AUTO 21008KT 9999 NSC 17/09 Q1019 NOSIG",
      "taf": "TAF EHBK 020513Z 0206/0312 19004KT CAVOK"
    },
    {
      "icao": "EHEH",
      "alert": "OK",
      "vis_m": 9999,
      "fzfg": false,
      "metar_trigger": false,
      "taf_trigger": false,
      "metar": "METAR EHEH 020755Z AUTO 19004KT 130V260 9999 BKN290 18/08 Q1019 BLU NOSIG RMK TREND REMOTE BY EHWX",
      "taf": "TAF EHEH 020510Z 0206/0312 19005KT CAVOK"
    },
    {
      "icao": "EKBI",
      "alert": "OK",
      "vis_m": 9999,
      "fzfg": false,
      "metar_trigger": false,
      "taf_trigger": false,
      "metar": "METAR EKBI 020750Z AUTO 21008KT 180V240 9999 NCD 18/06 Q1017",
      "taf": "TAF EKBI 020527Z 0206/0306 14006KT CAVOK"
    },
    {
      "icao": "EKCH",
      "alert": "OK",
      "vis_m": 9999,
      "fzfg": false,
      "metar_trigger": false,
      "taf_trigger": false,
      "metar": "METAR EKCH 020750Z AUTO 19012KT 9999 NCD 14/07 Q1019 NOSIG",
      "taf": "TAF EKCH 020527Z 0206/0306 19010KT CAVOK"
    },
    {
      "icao": "ENAL",
      "alert": "OK",
      "vis_m": 9999,
      "fzfg": false,
      "metar_trigger": false,
      "taf_trigger": false,
      "metar": "METAR ENAL 020750Z 35007KT 310V010 9999 -RA SCT010 BKN017 05/04 Q1013 REDZRA",
      "taf": "TAF ENAL 020500Z 0206/0215 25015KT 9999 -RA FEW010 BKN025"
    },
    {
      "icao": "ENBR",
      "alert": "OK",
      "vis_m": 9999,
      "fzfg": false,
      "metar_trigger": false,
      "taf_trigger": false,
      "metar": "METAR ENBR 020750Z 18006KT 9999 -SHRA FEW040 BKN049 07/05 Q1013 NOSIG RMK WIND 1200FT 17018KT",
      "taf": "TAF ENBR 020500Z 0206/0306 17010KT 9999 -RA FEW020 BKN045"
    },
    {
      "icao": "ENGM",
      "alert": "OK",
      "vis_m": 9999,
      "fzfg": false,
      "metar_trigger": false,
      "taf_trigger": false,
      "metar": "METAR ENGM 020750Z 19010KT CAVOK 14/00 Q1011 NOSIG",
      "taf": "TAF ENGM 020500Z 0206/0306 18008KT CAVOK"
    },
    {
      "icao": "ENHD",
      "alert": "OK",
      "vis_m": 9999,
      "fzfg": false,
      "metar_trigger": false,
      "taf_trigger": false,
      "metar": "METAR ENHD 020750Z AUTO 20006KT 9999 -RA NCD 10/05 Q1014",
      "taf": "TAF ENHD 020500Z 0206/0215 16010KT 9999 -RA FEW020 BKN045"
    },
    {
      "icao": "ENTC",
      "alert": "OK",
      "vis_m": 9999,
      "fzfg": false,
      "metar_trigger": false,
      "taf_trigger": false,
      "metar": "METAR ENTC 020750Z 23023KT 9999 -RA FEW008 SCT027 BKN038 03/01 Q0991 TEMPO 24025G38KT 4000 SHRASN BKN012 SCT020CB RMK WIND 2600FT 20031KT",
      "taf": ""
    },
    {
      "icao": "ENTO",
      "alert": "OK",
      "vis_m": 9999,
      "fzfg": false,
      "metar_trigger": false,
      "taf_trigger": false,
      "metar": "METAR ENTO 020750Z 21011KT CAVOK 15/03 Q1013 NOSIG",
      "taf": "TAF ENTO 020500Z 0206/0306 21010KT CAVOK"
    },
    {
      "icao": "ENVA",
      "alert": "OK",
      "vis_m": 9999,
      "fzfg": false,
      "metar_trigger": false,
      "taf_trigger": false,
      "metar": "METAR ENVA 020750Z 29010KT 9999 -RA FEW007 BKN011 BKN013 08/07 Q1010 TEMPO RA RMK WIND 670FT 29011KT",
      "taf": "TAF ENVA 020500Z 0206/0306 VRB04KT 9999 -RA FEW015 BKN025"
    },
    {
      "icao": "ENZV",
      "alert": "OK",
      "vis_m": 9999,
      "fzfg": false,
      "metar_trigger": false,
      "taf_trigger": false,
      "metar": "METAR ENZV 020750Z 22002KT 9999 -RA NSC 11/04 Q1013 TEMPO SHRA BKN014CB",
      "taf": "TAF ENZV 020500Z 0206/0306 17008KT CAVOK"
    },
    {
      "icao": "EPGD",
      "alert": "OK",
      "vis_m": 9999,
      "fzfg": false,
      "metar_trigger": false,
      "taf_trigger": false,
      "metar": "METAR EPGD 020800Z 27006KT CAVOK 19/02 Q1023",
      "taf": "TAF EPGD 020530Z 0206/0306 25005KT CAVOK"
    },
    {
      "icao": "EPKK",
      "alert": "OK",
      "vis_m": 9999,
      "fzfg": false,
      "metar_trigger": false,
      "taf_trigger": false,
      "metar": "METAR EPKK 020800Z VRB02KT CAVOK 15/05 Q1025",
      "taf": "TAF EPKK 020530Z 0206/0306 VRB02KT CAVOK"
    },
    {
      "icao": "EPKT",
      "alert": "OK",
      "vis_m": 9999,
      "fzfg": false,
      "metar_trigger": false,
      "taf_trigger": false,
      "metar": "METAR EPKT 020800Z VRB04KT CAVOK 18/03 Q1025",
      "taf": "TAF EPKT 020530Z 0206/0306 07005KT CAVOK"
    },
    {
      "icao": "EPLB",
      "alert": "OK",
      "vis_m": 9999,
      "fzfg": false,
      "metar_trigger": false,
      "taf_trigger": false,
      "metar": "METAR EPLB 020800Z 22003KT CAVOK 16/05 Q1026",
      "taf": "TAF EPLB 020530Z 0206/0306 VRB05KT CAVOK"
    },
    {
      "icao": "EPMO",
      "alert": "OK",
      "vis_m": 9999,
      "fzfg": false,
      "metar_trigger": false,
      "taf_trigger": false,
      "metar": "METAR EPMO 020800Z 23008KT 200V270 CAVOK 19/05 Q1024",
      "taf": "TAF EPMO 020530Z 0206/0306 VRB03KT CAVOK"
    },
    {
      "icao": "EPPO",
      "alert": "OK",
      "vis_m": 9999,
      "fzfg": false,
      "metar_trigger": false,
      "taf_trigger": false,
      "metar": "METAR EPPO 020800Z 25003KT 190V290 CAVOK 20/07 Q1024",
      "taf": "TAF EPPO 020530Z 0206/0306 VRB02KT CAVOK"
    },
    {
      "icao": "EPRA",
      "alert": "OK",
      "vis_m": 9999,
      "fzfg": false,
      "metar_trigger": false,
      "taf_trigger": false,
      "metar": "METAR EPRA 020800Z 30004KT 230V010 CAVOK 19/04 Q1025",
      "taf": "TAF EPRA 020530Z 0206/0215 25008KT CAVOK"
    },
    {
      "icao": "EPRZ",
      "alert": "OK",
      "vis_m": 9999,
      "fzfg": false,
      "metar_trigger": false,
      "taf_trigger": false,
      "metar": "METAR EPRZ 020800Z 08005KT 030V120 9999 FEW043 15/03 Q1026",
      "taf": "TAF EPRZ 020530Z 0206/0306 02004KT CAVOK"
    },
    {
      "icao": "EPSC",
      "alert": "OK",
      "vis_m": 9999,
      "fzfg": false,
      "metar_trigger": false,
      "taf_trigger": false,
      "metar": "METAR EPSC 020800Z 15007KT CAVOK 20/04 Q1023",
      "taf": "TAF EPSC 020530Z 0206/0306 12005KT CAVOK"
    },
    {
      "icao": "EPSY",
      "alert": "OK",
      "vis_m": 9999,
      "fzfg": false,
      "metar_trigger": false,
      "taf_trigger": false,
      "metar": "METAR EPSY 020800Z 31006KT 260V340 CAVOK 21/02 Q1023",
      "taf": "TAF EPSY 020530Z 0206/0215 VRB02KT CAVOK"
    },
    {
      "icao": "EPWA",
      "alert": "OK",
      "vis_m": 9999,
      "fzfg": false,
      "metar_trigger": false,
      "taf_trigger": false,
      "metar": "METAR EPWA 020800Z 25006KT 210V300 CAVOK 20/05 Q1024 NOSIG",
      "taf": "TAF EPWA 020530Z 0206/0306 VRB03KT CAVOK"
    },
    {
      "icao": "EPWR",
      "alert": "OK",
      "vis_m": 9999,
      "fzfg": false,
      "metar_trigger": false,
      "taf_trigger": false,
      "metar": "METAR EPWR 020800Z 15003KT 070V220 CAVOK 20/06 Q1025",
      "taf": "TAF EPWR 020530Z 0206/0306 VRB02KT CAVOK"
    },
    {
      "icao": "ESGG",
      "alert": "OK",
      "vis_m": 9999,
      "fzfg": false,
      "metar_trigger": false,
      "taf_trigger": false,
      "metar": "METAR ESGG 020750Z 21014KT CAVOK 16/07 Q1016",
      "taf": "TAF ESGG 020530Z 0206/0306 18008KT CAVOK"
    },
    {
      "icao": "ESKN",
      "alert": "OK",
      "vis_m": 9999,
      "fzfg": false,
      "metar_trigger": false,
      "taf_trigger": false,
      "metar": "METAR ESKN 020750Z 26015KT CAVOK 19/04 Q1015",
      "taf": "TAF ESKN 020530Z 0206/0306 25010KT CAVOK"
    },
    {
      "icao": "ESMS",
      "alert": "OK",
      "vis_m": 9999,
      "fzfg": false,
      "metar_trigger": false,
      "taf_trigger": false,
      "metar": "METAR ESMS 020750Z 19011KT CAVOK 18/07 Q1020",
      "taf": "TAF ESMS 020527Z 0206/0306 19010KT CAVOK"
    },
    {
      "icao": "ESSA",
      "alert": "OK",
      "vis_m": 9999,
      "fzfg": false,
      "metar_trigger": false,
      "taf_trigger": false,
      "metar": "METAR ESSA 020750Z 26017KT CAVOK 16/M00 Q1013 NOSIG",
      "taf": "TAF ESSA 020530Z 0206/0306 25012KT CAVOK"
    },
    {
      "icao": "EYKA",
      "alert": "OK",
      "vis_m": 9999,
      "fzfg": false,
      "metar_trigger": false,
      "taf_trigger": false,
      "metar": "METAR EYKA 020750Z 25007KT 200V290 CAVOK 18/04 Q1020",
      "taf": "TAF EYKA 020500Z 0206/0306 VRB03KT CAVOK"
    },
    {
      "icao": "EYPA",
      "alert": "OK",
      "vis_m": 9999,
      "fzfg": false,
      "metar_trigger": false,
      "taf_trigger": false,
      "metar": "METAR EYPA 020750Z 30003KT 210V350 CAVOK 13/05 Q1021",
      "taf": "TAF EYPA 020500Z 0206/0306 VRB03KT CAVOK"
    },
    {
      "icao": "EYVI",
      "alert": "OK",
      "vis_m": 9999,
      "fzfg": false,
      "metar_trigger": false,
      "taf_trigger": false,
      "metar": "METAR EYVI 020750Z 24008KT CAVOK 17/03 Q1021 NOSIG",
      "taf": "TAF EYVI 020500Z 0206/0306 26010KT CAVOK"
    },
    {
      "icao": "GCFV",
      "alert": "OK",
      "vis_m": 9999,
      "fzfg": false,
      "metar_trigger": false,
      "taf_trigger": false,
      "metar": "METAR GCFV 020800Z 36010KT 9999 FEW020 20/14 Q1019",
      "taf": "TAF GCFV 020200Z 0203/0303 04010KT 9999 FEW020 TX22/0214Z TN16/0206Z"
    },
    {
      "icao": "GCLP",
      "alert": "OK",
      "vis_m": 9999,
      "fzfg": false,
      "metar_trigger": false,
      "taf_trigger": false,
      "metar": "METAR GCLP 020800Z 35012KT 9999 SCT020 20/15 Q1019 NOSIG",
      "taf": "TAF GCLP 020200Z 0203/0303 36010KT 9999 FEW025 TX23/0214Z TN16/0206Z"
    },
    {
      "icao": "GCTS",
      "alert": "OK",
      "vis_m": 9999,
      "fzfg": false,
      "metar_trigger": false,
      "taf_trigger": false,
      "metar": "METAR GCTS 020800Z 07006KT 9999 SCT022 19/13 Q1019 BECMG 10016KT",
      "taf": "TAF GCTS 020200Z 0203/0303 04006KT 9999 FEW030 TX24/0214Z TN15/0206Z"
    },
    {
      "icao": "GMAD",
      "alert": "OK",
      "vis_m": 8000,
      "fzfg": false,
      "metar_trigger": false,
      "taf_trigger": false,
      "metar": "METAR GMAD 020800Z 00000KT 8000 SCT010 BKN016 18/14 Q1017 NOSIG",
      "taf": "TAF GMAD 020500Z 0206/0312 08006KT CAVOK"
    },
    {
      "icao": "GMMN",
      "alert": "OK",
      "vis_m": 9999,
      "fzfg": false,
      "metar_trigger": false,
      "taf_trigger": false,
      "metar": "METAR GMMN 020800Z 01005KT 320V050 9999 BKN015 17/14 Q1018 NOSIG",
      "taf": "TAF GMMN 020500Z 0206/0312 02006KT 9999 BKN012"
    },
    {
      "icao": "GMMX",
      "alert": "OK",
      "vis_m": 8000,
      "fzfg": false,
      "metar_trigger": false,
      "taf_trigger": false,
      "metar": "METAR GMMX 020800Z 27007KT 8000 NSC 16/13 Q1018 NOSIG",
      "taf": "TAF GMMX 020500Z 0206/0312 06006KT 8000 SCT026"
    },
    {
      "icao": "HEGN",
      "alert": "OK",
      "vis_m": 9999,
      "fzfg": false,
      "metar_trigger": false,
      "taf_trigger": false,
      "metar": "METAR HEGN 020700Z 05005KT CAVOK 28/10 Q1011 NOSIG",
      "taf": "TAF HEGN 020500Z 0206/0312 12015KT CAVOK"
    },
    {
      "icao": "HEMA",
      "alert": "OK",
      "vis_m": 9999,
      "fzfg": false,
      "metar_trigger": false,
      "taf_trigger": false,
      "metar": "METAR HEMA 020700Z 34006KT CAVOK 29/02 Q1011 NOSIG",
      "taf": "TAF HEMA 020500Z 0206/0312 13015KT CAVOK"
    },
    {
      "icao": "HESH",
      "alert": "OK",
      "vis_m": 9999,
      "fzfg": false,
      "metar_trigger": false,
      "taf_trigger": false,
      "metar": "METAR HESH 020700Z 36012KT CAVOK 27/13 Q1011 NOSIG",
      "taf": "TAF HESH 020500Z 0206/0312 16011KT CAVOK"
    },
    {
      "icao": "HESX",
      "alert": "OK",
      "vis_m": 9999,
      "fzfg": false,
      "metar_trigger": false,
      "taf_trigger": false,
      "metar": "METAR HESX 020700Z 13010KT CAVOK 25/06 Q1009 NOSIG",
      "taf": "TAF HESX 020500Z 0206/0312 02010KT CAVOK"
    },
    {
      "icao": "LATI",
      "alert": "OK",
      "vis_m": 9999,
      "fzfg": false,
      "metar_trigger": false,
      "taf_trigger": false,
      "metar": "METAR LATI 020750Z VRB03KT CAVOK 16/M05 Q1020 NOSIG",
      "taf": "TAF LATI 020500Z 0206/0306 VRB05KT CAVOK TX22/0212Z TN05/0304Z"
    },
    {
      "icao": "LBPD",
      "alert": "OK",
      "vis_m": 9999,
      "fzfg": false,
      "metar_trigger": false,
      "taf_trigger": false,
      "metar": "METAR LBPD 020800Z AUTO VRB04KT 9999 SCT075/// BKN097/// 11/M01 Q1023 NOSIG",
      "taf": "TAF LBPD 020500Z 0206/0306 30010KT 9999 BKN060"
    },
    {
      "icao": "LBSF",
      "alert": "OK",
      "vis_m": 9999,
      "fzfg": false,
      "metar_trigger": false,
      "taf_trigger": false,
      "metar": "METAR LBSF 020800Z 18003KT 090V260 9999 FEW033 SCT059 08/M01 Q1023 NOSIG",
      "taf": "TAF LBSF 020500Z 0206/0306 VRB03KT 9999 FEW030 BKN050"
    },
    {
      "icao": "LBWN",
      "alert": "OK",
      "vis_m": 9999,
      "fzfg": false,
      "metar_trigger": false,
      "taf_trigger": false,
      "metar": "METAR LBWN 020800Z 04008KT 320V090 9999 FEW036 13/M02 Q1022 NOSIG",
      "taf": "TAF LBWN 020500Z 0206/0306 33010KT 9999 SCT045"
    },
    {
      "icao": "LCLK",
      "alert": "OK",
      "vis_m": 9999,
      "fzfg": false,
      "metar_trigger": false,
      "taf_trigger": false,
      "metar": "METAR LCLK 020800Z 22011KT 9999 FEW012 21/17 Q1011 NOSIG",
      "taf": "TAF LCLK 020530Z 0206/0306 15005KT 9999 FEW020"
    },
    {
      "icao": "LCPH",
      "alert": "OK",
      "vis_m": 9999,
      "fzfg": false,
      "metar_trigger": false,
      "taf_trigger": false,
      "metar": "METAR LCPH 020800Z VRB02KT 9999 FEW020 20/15 Q1011 NOSIG",
      "taf": "TAF LCPH 020530Z 0206/0306 04005KT 9999 FEW020"
    },
    {
      "icao": "LEAL",
      "alert": "OK",
      "vis_m": 9999,
      "fzfg": false,
      "metar_trigger": false,
      "taf_trigger": false,
      "metar": "METAR LEAL 020800Z 07009KT 040V100 9999 FEW016 SCT032 BKN049 21/16 Q1021 NOSIG",
      "taf": "TAF LEAL 020500Z 0206/0306 03006KT 9999 SCT025 SCT030 TX22/0213Z TN15/0206Z"
    },
    {
      "icao": "LEBB",
      "alert": "OK",
      "vis_m": 9999,
      "fzfg": false,
      "metar_trigger": false,
      "taf_trigger": false,
      "metar": "METAR LEBB 020800Z 12006KT 080V160 9999 FEW030 20/14 Q1017 NOSIG",
      "taf": "TAF LEBB 020500Z 0206/0306 14009KT 9999 FEW035 TX24/0213Z TN12/0306Z"
    },
    {
      "icao": "LEBL",
      "alert": "OK",
      "vis_m": 8000,
      "fzfg": false,
      "metar_trigger": false,
      "taf_trigger": false,
      "metar": "METAR LEBL 020800Z 06007KT 8000 FEW011 BKN050 18/15 Q1023 NOSIG",
      "taf": "TAF LEBL 020500Z 0206/0306 07008KT 9999 SCT020 TX21/0212Z TN17/0206Z"
    },
    {
      "icao": "LECH",
      "alert": "OK",
      "vis_m": 7000,
      "fzfg": false,
      "metar_trigger": false,
      "taf_trigger": false,
      "metar": "METAR LECH 020800Z AUTO 12005KT 060V190 7000 RA BKN004 OVC014 16/15 Q1022",
      "taf": "TAF LECH 020500Z 0206/0306 VRB04KT 9999 SCT015 BKN025 TX21/0212Z TN12/0206Z"
    },
    {
      "icao": "LEMD",
      "alert": "OK",
      "vis_m": 5000,
      "fzfg": false,
      "metar_trigger": false,
      "taf_trigger": false,
      "metar": "METAR LEMD 020800Z VRB02KT 5000 SHRA SCT020 SCT030TCU BKN055 14/14 Q1019 NOSIG",
      "taf": ""
    },
    {
      "icao": "LEMG",
      "alert": "OK",
      "vis_m": 9000,
      "fzfg": false,
      "metar_trigger": false,
      "taf_trigger": false,
      "metar": "METAR LEMG 020800Z 15008KT 120V190 9000 FEW015 BKN030 18/16 Q1019 NOSIG",
      "taf": "TAF LEMG 020500Z 0206/0306 14010KT 9999 SCT020 TX23/0214Z TN14/0206Z"
    },
    {
      "icao": "LEVC",
      "alert": "OK",
      "vis_m": 9000,
      "fzfg": false,
      "metar_trigger": false,
      "taf_trigger": false,
      "metar": "METAR LEVC 020800Z 04003KT 9000 FEW015 BKN027 OVC055 20/15 Q1021 NOSIG",
      "taf": "TAF LEVC 020500Z 0206/0306 02005KT 9999 SCT020 SCT030 TX22/0213Z TN16/0206Z"
    },
    {
      "icao": "LEXJ",
      "alert": "OK",
      "vis_m": 9000,
      "fzfg": false,
      "metar_trigger": false,
      "taf_trigger": false,
      "metar": "METAR LEXJ 020800Z 28005KT 9000 4000SE -TSRA BKN012 SCT030CB BKN075 16/15 Q1017 RESHRA",
      "taf": ""
    },
    {
      "icao": "LEZG",
      "alert": "OK",
      "vis_m": 9999,
      "fzfg": false,
      "metar_trigger": false,
      "taf_trigger": false,
      "metar": "METAR LEZG 020800Z 12012KT 9999 BKN020 18/13 Q1020 NOSIG",
      "taf": "TAF LEZG 020500Z 0206/0306 12011KT 9999 SCT020 SCT040 TX21/0214Z TN14/0206Z"
    },
    {
      "icao": "LEZL",
      "alert": "OK",
      "vis_m": 9999,
      "fzfg": false,
      "metar_trigger": false,
      "taf_trigger": false,
      "metar": "METAR LEZL 020800Z 34003KT 290V030 9999 BKN040 19/13 Q1018 NOSIG",
      "taf": "TAF LEZL 020200Z 0203/0303 VRB03KT 9999 FEW025 TX28/0215Z TN13/0206Z"
    },
    {
      "icao": "LFBD",
      "alert": "OK",
      "vis_m": 9999,
      "fzfg": false,
      "metar_trigger": false,
      "taf_trigger": false,
      "metar": "METAR LFBD 020800Z AUTO 15006KT 9999 ///CB 16/12 Q1017 TEMPO 2000 TSRA",
      "taf": ""
    },
    {
      "icao": "LFLL",
      "alert": "OK",
      "vis_m": 9999,
      "fzfg": false,
      "metar_trigger": false,
      "taf_trigger": false,
      "metar": "METAR LFLL 020800Z 18016KT CAVOK 18/07 Q1022 NOSIG",
      "taf": "TAF LFLL 020500Z 0206/0312 18010KT CAVOK"
    },
    {
      "icao": "LFLS",
      "alert": "OK",
      "vis_m": 9999,
      "fzfg": false,
      "metar_trigger": false,
      "taf_trigger": false,
      "metar": "METAR LFLS 020800Z AUTO 24004KT 190V320 CAVOK 17/08 Q1023 NOSIG",
      "taf": "TAF LFLS 020200Z 0203/0303 09007KT CAVOK"
    },
    {
      "icao": "LFMN",
      "alert": "OK",
      "vis_m": 9999,
      "fzfg": false,
      "metar_trigger": false,
      "taf_trigger": false,
      "metar": "METAR LFMN 020800Z 06005KT 030V090 CAVOK 20/03 Q1026 NOSIG",
      "taf": "TAF LFMN 020200Z 0203/0309 33006KT CAVOK"
    },
    {
      "icao": "LFOB",
      "alert": "OK",
      "vis_m": 900,
      "fzfg": false,
      "metar_trigger": false,
      "taf_trigger": false,
      "metar": "METAR LFOB 020800Z AUTO VRB02KT 0900 R30/1300U R12/1400D FG VV/// 15/15 Q1019 BECMG 9999 NSW SCT030",
      "taf": "TAF LFOB 020500Z 0206/0306 VRB02KT 3000 BR BKN004"
    },
    {
      "icao": "LFPO",
      "alert": "OK",
      "vis_m": 9999,
      "fzfg": false,
      "metar_trigger": false,
      "taf_trigger": false,
      "metar": "METAR LFPO 020800Z VRB02KT CAVOK 18/15 Q1019 NOSIG",
      "taf": "TAF LFPO 020500Z 0206/0312 18005KT 9000 NSC"
    },
    {
      "icao": "LFSB",
      "alert": "OK",
      "vis_m": 9999,
      "fzfg": false,
      "metar_trigger": false,
      "taf_trigger": false,
      "metar": "METAR LFSB 020800Z AUTO 15006KT CAVOK 18/06 Q1023 NOSIG",
      "taf": "TAF LFSB 020500Z 0206/0306 17004KT CAVOK"
    },
    {
      "icao": "LGAV",
      "alert": "OK",
      "vis_m": 9999,
      "fzfg": false,
      "metar_trigger": false,
      "taf_trigger": false,
      "metar": "METAR LGAV 020750Z 03016KT 9999 SCT020 12/01 Q1018 NOSIG",
      "taf": "TAF LGAV 020500Z 0206/0306 01017KT 9999 SCT020 BKN060"
    },
    {
      "icao": "LGTS",
      "alert": "OK",
      "vis_m": 9999,
      "fzfg": false,
      "metar_trigger": false,
      "taf_trigger": false,
      "metar": "METAR LGTS 020750Z 32010KT 9999 SCT016 13/05 Q1022 NOSIG",
      "taf": "TAF LGTS 020500Z 0206/0306 VRB03KT 9999 BKN035"
    },
    {
      "icao": "LHBP",
      "alert": "OK",
      "vis_m": 9999,
      "fzfg": false,
      "metar_trigger": false,
      "taf_trigger": false,
      "metar": "METAR LHBP 020800Z 35007KT 320V020 CAVOK 19/02 Q1024 NOSIG",
      "taf": "TAF LHBP 020515Z 0206/0306 VRB03KT CAVOK"
    },
    {
      "icao": "LHDC",
      "alert": "OK",
      "vis_m": 9999,
      "fzfg": false,
      "metar_trigger": false,
      "taf_trigger": false,
      "metar": "METAR LHDC 020745Z AUTO 04009KT 340V080 CAVOK 17/03 Q1023 NOSIG",
      "taf": "TAF LHDC 020515Z 0206/0215 VRB03KT CAVOK"
    },
    {
      "icao": "LIBD",
      "alert": "OK",
      "vis_m": 9999,
      "fzfg": false,
      "metar_trigger": false,
      "taf_trigger": false,
      "metar": "METAR LIBD 020750Z 01011KT 340V050 9999 FEW045 18/04 Q1022",
      "taf": "TAF LIBD 020500Z 0206/0306 VRB05KT CAVOK"
    },
    {
      "icao": "LIBG",
      "alert": "OK",
      "vis_m": 9999,
      "fzfg": false,
      "metar_trigger": false,
      "taf_trigger": false,
      "metar": "METAR LIBG 020750Z 03017G27KT 9999 FEW035 17/04 Q1021",
      "taf": "TAF LIBG 020632Z 0207/0215 03013KT CAVOK"
    },
    {
      "icao": "LIBP",
      "alert": "OK",
      "vis_m": 9999,
      "fzfg": false,
      "metar_trigger": false,
      "taf_trigger": false,
      "metar": "METAR LIBP 020750Z AUTO 34005KT 280V090 9999 NCD 18/07 Q1025",
      "taf": "TAF LIBP 020500Z 0206/0306 24007KT 9999 FEW050"
    },
    {
      "icao": "LIBR",
      "alert": "OK",
      "vis_m": 9999,
      "fzfg": false,
      "metar_trigger": false,
      "taf_trigger": false,
      "metar": "METAR LIBR 020750Z 03015KT 9999 FEW048 17/06 Q1021",
      "taf": "TAF LIBR 020500Z 0206/0306 06018KT CAVOK"
    },
    {
      "icao": "LICA",
      "alert": "OK",
      "vis_m": 9999,
      "fzfg": false,
      "metar_trigger": false,
      "taf_trigger": false,
      "metar": "METAR LICA 020750Z AUTO 25006KT 210V280 9999 FEW078/// 17/02 Q1021",
      "taf": "TAF LICA 020500Z 0206/0306 VRB05KT CAVOK"
    },
    {
      "icao": "LICC",
      "alert": "OK",
      "vis_m": 9999,
      "fzfg": false,
      "metar_trigger": false,
      "taf_trigger": false,
      "metar": "METAR LICC 020750Z 24008KT CAVOK 18/13 Q1020",
      "taf": "TAF LICC 020500Z 0206/0306 24005KT CAVOK"
    },
    {
      "icao": "LICJ",
      "alert": "OK",
      "vis_m": 9999,
      "fzfg": false,
      "metar_trigger": false,
      "taf_trigger": false,
      "metar": "METAR LICJ 020750Z 05016KT CAVOK 18/05 Q1022",
      "taf": "TAF LICJ 020500Z 0206/0306 04016KT CAVOK"
    },
    {
      "icao": "LIMC",
      "alert": "OK",
      "vis_m": 9999,
      "fzfg": false,
      "metar_trigger": false,
      "taf_trigger": false,
      "metar": "METAR LIMC 020750Z VRB02KT CAVOK 17/06 Q1027 NOSIG",
      "taf": "TAF LIMC 020500Z 0206/0312 VRB05KT CAVOK"
    },
    {
      "icao": "LIME",
      "alert": "OK",
      "vis_m": 9999,
      "fzfg": false,
      "metar_trigger": false,
      "taf_trigger": false,
      "metar": "METAR LIME 020750Z VRB02KT CAVOK 17/05 Q1026 NOSIG",
      "taf": "TAF LIME 020500Z 0206/0306 VRB05KT CAVOK"
    },
    {
      "icao": "LIMF",
      "alert": "OK",
      "vis_m": 9999,
      "fzfg": false,
      "metar_trigger": false,
      "taf_trigger": false,
      "metar": "METAR LIMF 020750Z 11003KT 040V150 CAVOK 15/08 Q1027",
      "taf": "TAF LIMF 020500Z 0206/0306 VRB05KT CAVOK"
    },
    {
      "icao": "LIMJ",
      "alert": "OK",
      "vis_m": 9999,
      "fzfg": false,
      "metar_trigger": false,
      "taf_trigger": false,
      "metar": "METAR LIMJ 020750Z 24003KT CAVOK 18/09 Q1026",
      "taf": "TAF LIMJ 020500Z 0206/0306 VRB05KT CAVOK"
    },
    {
      "icao": "LIPE",
      "alert": "OK",
      "vis_m": 9999,
      "fzfg": false,
      "metar_trigger": false,
      "taf_trigger": false,
      "metar": "METAR LIPE 020750Z 23003KT 110V280 CAVOK 16/03 Q1026",
      "taf": "TAF LIPE 020500Z 0206/0306 VRB05KT CAVOK"
    },
    {
      "icao": "LIPH",
      "alert": "OK",
      "vis_m": 9999,
      "fzfg": false,
      "metar_trigger": false,
      "taf_trigger": false,
      "metar": "METAR LIPH 020750Z VRB02KT CAVOK 19/05 Q1025",
      "taf": "TAF LIPH 020500Z 0206/0306 VRB05KT CAVOK"
    },
    {
      "icao": "LIPQ",
      "alert": "OK",
      "vis_m": 9999,
      "fzfg": false,
      "metar_trigger": false,
      "taf_trigger": false,
      "metar": "METAR LIPQ 020750Z AUTO VRB02KT 9999 NCD 19/05 Q1025",
      "taf": "TAF LIPQ 020500Z 0206/0306 VRB05KT CAVOK"
    },
    {
      "icao": "LIPR",
      "alert": "OK",
      "vis_m": 9999,
      "fzfg": false,
      "metar_trigger": false,
      "taf_trigger": false,
      "metar": "METAR LIPR 020750Z 31006KT 280V340 CAVOK 17/02 Q1026",
      "taf": "TAF LIPR 020500Z 0206/0306 VRB05KT CAVOK"
    },
    {
      "icao": "LIPX",
      "alert": "OK",
      "vis_m": 9999,
      "fzfg": false,
      "metar_trigger": false,
      "taf_trigger": false,
      "metar": "METAR LIPX 020750Z 28004KT 200V330 CAVOK 19/06 Q1026",
      "taf": "TAF LIPX 020500Z 0206/0306 VRB05KT 9999 FEW060"
    },
    {
      "icao": "LIPY",
      "alert": "OK",
      "vis_m": 9999,
      "fzfg": false,
      "metar_trigger": false,
      "taf_trigger": false,
      "metar": "METAR LIPY 020750Z AUTO 34007KT 300V010 9999 NCD 17/09 Q1026",
      "taf": "TAF LIPY 020500Z 0206/0306 VRB05KT CAVOK"
    },
    {
      "icao": "LIPZ",
      "alert": "OK",
      "vis_m": 9999,
      "fzfg": false,
      "metar_trigger": false,
      "taf_trigger": false,
      "metar": "METAR LIPZ 020750Z 07003KT 030V120 CAVOK 16/06 Q1026 NOSIG",
      "taf": "TAF LIPZ 020500Z 0206/0312 VRB05KT CAVOK"
    },
    {
      "icao": "LIRF",
      "alert": "OK",
      "vis_m": 9999,
      "fzfg": false,
      "metar_trigger": false,
      "taf_trigger": false,
      "metar": "METAR LIRF 020750Z 04007KT 360V070 CAVOK 17/02 Q1024 NOSIG",
      "taf": "TAF LIRF 020500Z 0206/0312 02008KT CAVOK"
    },
    {
      "icao": "LIRN",
      "alert": "OK",
      "vis_m": 9999,
      "fzfg": false,
      "metar_trigger": false,
      "taf_trigger": false,
      "metar": "METAR LIRN 020750Z 07008KT 020V110 CAVOK 17/04 Q1023 NOSIG",
      "taf": "TAF LIRN 020500Z 0206/0306 01005KT CAVOK"
    },
    {
      "icao": "LIRP",
      "alert": "OK",
      "vis_m": 9999,
      "fzfg": false,
      "metar_trigger": false,
      "taf_trigger": false,
      "metar": "METAR LIRP 020745Z VRB02KT CAVOK 16/03 Q1026 NOSIG",
      "taf": "TAF LIRP 020500Z 0206/0306 10005KT CAVOK"
    },
    {
      "icao": "LIRZ",
      "alert": "OK",
      "vis_m": 9999,
      "fzfg": false,
      "metar_trigger": false,
      "taf_trigger": false,
      "metar": "METAR LIRZ 020750Z AUTO 02006KT 340V090 9999 NCD 17/04 Q1025",
      "taf": "TAF LIRZ 020500Z 0206/0306 VRB05KT CAVOK"
    },
    {
      "icao": "LJLJ",
      "alert": "OK",
      "vis_m": 9999,
      "fzfg": false,
      "metar_trigger": false,
      "taf_trigger": false,
      "metar": "METAR LJLJ 020800Z VRB02KT CAVOK 14/06 Q1025 NOSIG",
      "taf": "TAF LJLJ 020500Z 0206/0306 VRB02KT CAVOK"
    },
    {
      "icao": "LKMT",
      "alert": "OK",
      "vis_m": 9999,
      "fzfg": false,
      "metar_trigger": false,
      "taf_trigger": false,
      "metar": "METAR LKMT 020800Z 04003KT 330V100 CAVOK 16/06 Q1025 NOSIG",
      "taf": "TAF LKMT 020500Z 0206/0306 03008KT CAVOK"
    },
    {
      "icao": "LKPR",
      "alert": "OK",
      "vis_m": 9999,
      "fzfg": false,
      "metar_trigger": false,
      "taf_trigger": false,
      "metar": "METAR LKPR 020800Z 09003KT 350V160 CAVOK 18/04 Q1025 NOSIG",
      "taf": "TAF LKPR 020500Z 0206/0312 VRB02KT CAVOK"
    },
    {
      "icao": "LLBG",
      "alert": "OK",
      "vis_m": 9999,
      "fzfg": false,
      "metar_trigger": false,
      "taf_trigger": false,
      "metar": "METAR LLBG 020750Z VRB03KT CAVOK 26/00 Q1011 NOSIG",
      "taf": "TAF LLBG 020505Z 0206/0306 VRB03KT CAVOK TX30/0212Z TN14/0304Z"
    },
    {
      "icao": "LMML",
      "alert": "OK",
      "vis_m": 9999,
      "fzfg": false,
      "metar_trigger": false,
      "taf_trigger": false,
      "metar": "METAR LMML 020745Z 35010KT 320V020 9999 FEW034 19/09 Q1020 NOSIG",
      "taf": "TAF LMML 020500Z 0206/0306 04010KT 9999 FEW030"
    },
    {
      "icao": "LOWW",
      "alert": "OK",
      "vis_m": 9999,
      "fzfg": false,
      "metar_trigger": false,
      "taf_trigger": false,
      "metar": "METAR LOWW 020750Z 35005KT 310V050 CAVOK 17/06 Q1025 NOSIG",
      "taf": "TAF LOWW 020515Z 0206/0312 01008KT CAVOK TX24/0214Z TN10/0302Z"
    },
    {
      "icao": "LPFR",
      "alert": "OK",
      "vis_m": 9999,
      "fzfg": false,
      "metar_trigger": false,
      "taf_trigger": false,
      "metar": "METAR LPFR 020800Z 04005KT 340V060 9999 FEW025 17/11 Q1017",
      "taf": "TAF LPFR 020500Z 0206/0306 VRB02KT CAVOK"
    },
    {
      "icao": "LPMA",
      "alert": "OK",
      "vis_m": 9999,
      "fzfg": false,
      "metar_trigger": false,
      "taf_trigger": false,
      "metar": "METAR LPMA 020800Z VRB02KT 9999 FEW015 18/12 Q1020",
      "taf": "TAF LPMA 020500Z 0206/0306 VRB05KT 9999 SCT015"
    },
    {
      "icao": "LPPR",
      "alert": "OK",
      "vis_m": 9999,
      "fzfg": false,
      "metar_trigger": false,
      "taf_trigger": false,
      "metar": "METAR LPPR 020800Z 11005KT 070V130 9999 -RA FEW012 BKN040 14/12 Q1016",
      "taf": "TAF LPPR 020500Z 0206/0306 12005KT 9999 SCT035"
    },
    {
      "icao": "LPPS",
      "alert": "OK",
      "vis_m": 9999,
      "fzfg": false,
      "metar_trigger": false,
      "taf_trigger": false,
      "metar": "METAR LPPS 020800Z 29007KT 260V320 9999 SCT012 18/15 Q1019",
      "taf": "TAF LPPS 020500Z 0206/0312 28008KT 9999 SCT015"
    },
    {
      "icao": "LPPT",
      "alert": "OK",
      "vis_m": 9999,
      "fzfg": false,
      "metar_trigger": false,
      "taf_trigger": false,
      "metar": "METAR LPPT 020800Z 18009KT 140V210 9999 FEW014 17/13 Q1017",
      "taf": "TAF LPPT 020500Z 0206/0312 VRB02KT 9999 SCT035"
    },
    {
      "icao": "LQBK",
      "alert": "OK",
      "vis_m": 9999,
      "fzfg": false,
      "metar_trigger": false,
      "taf_trigger": false,
      "metar": "METAR LQBK 020800Z VRB02KT CAVOK 17/04 Q1025 NOSIG",
      "taf": "TAF LQBK 020500Z 0206/0306 VRB02KT CAVOK TX19/0213Z TN09/0304Z"
    },
    {
      "icao": "LQSA",
      "alert": "OK",
      "vis_m": 9999,
      "fzfg": false,
      "metar_trigger": false,
      "taf_trigger": false,
      "metar": "METAR LQSA 020800Z VRB01KT CAVOK 11/01 Q1024 NOSIG",
      "taf": "TAF LQSA 020500Z 0206/0306 31005KT CAVOK TX18/0214Z TN04/0304Z"
    },
    {
      "icao": "LQTZ",
      "alert": "OK",
      "vis_m": 9999,
      "fzfg": false,
      "metar_trigger": false,
      "taf_trigger": false,
      "metar": "METAR LQTZ 020800Z 27005KT 240V320 CAVOK 14/05 Q1025",
      "taf": "TAF LQTZ 020500Z 0206/0306 VRB02KT 9999 SCT050 TX17/0213Z TN06/0304Z"
    },
    {
      "icao": "LRBC",
      "alert": "OK",
      "vis_m": 9999,
      "fzfg": false,
      "metar_trigger": false,
      "taf_trigger": false,
      "metar": "METAR LRBC 020800Z 34009KT 9999 FEW025 SCT055 11/06 Q1024",
      "taf": "TAF LRBC 020500Z 0206/0215 01008KT 9999 BKN060"
    },
    {
      "icao": "LRBS",
      "alert": "OK",
      "vis_m": 9999,
      "fzfg": false,
      "metar_trigger": false,
      "taf_trigger": false,
      "metar": "METAR LRBS 020800Z 07011KT 030V100 9999 SCT037 13/04 Q1023 NOSIG",
      "taf": "TAF LRBS 020500Z 0206/0306 VRB04KT 9999 SCT035"
    },
    {
      "icao": "LRBV",
      "alert": "OK",
      "vis_m": 9999,
      "fzfg": false,
      "metar_trigger": false,
      "taf_trigger": false,
      "metar": "METAR LRBV 020800Z 09010KT 9999 FEW030 FEW045CB BKN053 09/00 Q1023",
      "taf": "TAF LRBV 020500Z 0206/0215 VRB03KT 9999 SCT060"
    },
    {
      "icao": "LRCL",
      "alert": "OK",
      "vis_m": 9999,
      "fzfg": false,
      "metar_trigger": false,
      "taf_trigger": false,
      "metar": "METAR LRCL 020800Z 12003KT 030V160 9999 FEW053 12/01 Q1024",
      "taf": "TAF LRCL 020500Z 0206/0215 VRB04KT CAVOK"
    },
    {
      "icao": "LRCV",
      "alert": "OK",
      "vis_m": 9999,
      "fzfg": false,
      "metar_trigger": false,
      "taf_trigger": false,
      "metar": "METAR LRCV 020800Z 23004KT 130V280 CAVOK 13/04 Q1023",
      "taf": "TAF LRCV 020500Z 0206/0215 VRB03KT CAVOK"
    },
    {
      "icao": "LRIA",
      "alert": "OK",
      "vis_m": 9999,
      "fzfg": false,
      "metar_trigger": false,
      "taf_trigger": false,
      "metar": "METAR LRIA 020800Z 13004KT 080V190 CAVOK 12/02 Q1024",
      "taf": "TAF LRIA 020500Z 0206/0215 VRB04KT CAVOK"
    },
    {
      "icao": "LROP",
      "alert": "OK",
      "vis_m": 9999,
      "fzfg": false,
      "metar_trigger": false,
      "taf_trigger": false,
      "metar": "METAR LROP 020800Z 06007KT 030V090 9999 SCT038 12/03 Q1023 NOSIG",
      "taf": "TAF LROP 020500Z 0206/0306 VRB04KT 9999 SCT035"
    },
    {
      "icao": "LRSB",
      "alert": "OK",
      "vis_m": 9999,
      "fzfg": false,
      "metar_trigger": false,
      "taf_trigger": false,
      "metar": "METAR LRSB 020800Z 36003KT 310V030 9999 SCT065 SCT080 09/M00 Q1023",
      "taf": "TAF LRSB 020500Z 0206/0306 VRB04KT 9999 SCT065"
    },
    {
      "icao": "LRSM",
      "alert": "OK",
      "vis_m": 9999,
      "fzfg": false,
      "metar_trigger": false,
      "taf_trigger": false,
      "metar": "METAR LRSM 020800Z 09006KT 060V130 CAVOK 15/02 Q1024",
      "taf": "TAF LRSM 020500Z 0206/0215 VRB04KT CAVOK"
    },
    {
      "icao": "LRSV",
      "alert": "OK",
      "vis_m": 9999,
      "fzfg": false,
      "metar_trigger": false,
      "taf_trigger": false,
      "metar": "METAR LRSV 020800Z 02006KT 350V060 9999 BKN025 10/04 Q1024",
      "taf": "TAF LRSV 020500Z 0206/0215 34008KT 9999 BKN040"
    },
    {
      "icao": "LRTM",
      "alert": "OK",
      "vis_m": 9999,
      "fzfg": false,
      "metar_trigger": false,
      "taf_trigger": false,
      "metar": "METAR LRTM 020800Z 26003KT 210V310 CAVOK 12/03 Q1024",
      "taf": "TAF LRTM 020500Z 0206/0215 VRB03KT CAVOK"
    },
    {
      "icao": "LRTR",
      "alert": "OK",
      "vis_m": 9999,
      "fzfg": false,
      "metar_trigger": false,
      "taf_trigger": false,
      "metar": "METAR LRTR 020800Z VRB03KT 9999 FEW045 15/03 Q1023 NOSIG",
      "taf": "TAF LRTR 020500Z 0206/0306 09006KT CAVOK"
    },
    {
      "icao": "LTAC",
      "alert": "OK",
      "vis_m": 9999,
      "fzfg": false,
      "metar_trigger": false,
      "taf_trigger": false,
      "metar": "METAR LTAC 020750Z 08016KT 9999 FEW017 BKN021 BKN080 07/01 Q1014 NOSIG RMK RWY21C 06015KT RWY03L 07014KT RWY21R 05016KT RWY03R 06017KT RWY21L 08018KT",
      "taf": "TAF LTAC 020440Z 0206/0306 04012KT 9999 SCT035 BKN090"
    },
    {
      "icao": "LTFM",
      "alert": "OK",
      "vis_m": 9999,
      "fzfg": false,
      "metar_trigger": false,
      "taf_trigger": false,
      "metar": "METAR LTFM 020750Z 04020KT 9999 SCT030 SCT090 11/02 Q1020 NOSIG RMK RWY17L 04017KT RWY34L 04018KT RWY16R 04017KT RWY36 04018KT RWY18 04016KT",
      "taf": "TAF LTFM 020440Z 0206/0312 04017KT 9999 SCT032 BKN090"
    },
    {
      "icao": "LUKK",
      "alert": "OK",
      "vis_m": 9999,
      "fzfg": false,
      "metar_trigger": false,
      "taf_trigger": false,
      "metar": "METAR LUKK 020800Z 06012KT 030V100 CAVOK 13/M05 Q1024 NOSIG",
      "taf": "TAF LUKK 020507Z 0206/0306 VRB05KT 9999 SCT040"
    },
    {
      "icao": "LWOH",
      "alert": "OK",
      "vis_m": 9999,
      "fzfg": false,
      "metar_trigger": false,
      "taf_trigger": false,
      "metar": "METAR LWOH 020750Z 35006KT 300V070 9999 FEW050 10/M04 Q1021",
      "taf": "TAF LWOH 020530Z 0206/0306 01010KT CAVOK"
    },
    {
      "icao": "LWSK",
      "alert": "OK",
      "vis_m": 9999,
      "fzfg": false,
      "metar_trigger": false,
      "taf_trigger": false,
      "metar": "METAR LWSK 020750Z VRB02KT CAVOK 12/01 Q1023 NOSIG",
      "taf": "TAF LWSK 020530Z 0206/0306 VRB02KT CAVOK"
    },
    {
      "icao": "LYBE",
      "alert": "OK",
      "vis_m": 9999,
      "fzfg": false,
      "metar_trigger": false,
      "taf_trigger": false,
      "metar": "METAR LYBE 020800Z VRB03KT CAVOK 15/03 Q1024 BECMG FM0900 01013KT",
      "taf": "TAF LYBE 020500Z 0206/0306 22004KT CAVOK TX20/0213Z TN06/0206Z"
    },
    {
      "icao": "LYNI",
      "alert": "OK",
      "vis_m": 9999,
      "fzfg": false,
      "metar_trigger": false,
      "taf_trigger": false,
      "metar": "METAR LYNI 020800Z 31006KT 260V360 9999 FEW033 13/03 Q1023 BECMG FM0900 02012KT",
      "taf": "TAF LYNI 020500Z 0206/0306 09004KT 9999 SCT080 TX17/0213Z TN05/0304Z"
    },
    {
      "icao": "LYPG",
      "alert": "OK",
      "vis_m": 9999,
      "fzfg": false,
      "metar_trigger": false,
      "taf_trigger": false,
      "metar": "METAR LYPG 020800Z 12006KT 080V160 9999 FEW050 17/M00 Q1021 NOSIG",
      "taf": "TAF LYPG 020500Z 0206/0306 36008KT 9999 FEW050 TX21/0214Z TN10/0304Z"
    },
    {
      "icao": "LZIB",
      "alert": "OK",
      "vis_m": 9999,
      "fzfg": false,
      "metar_trigger": false,
      "taf_trigger": false,
      "metar": "METAR LZIB 020800Z VRB02KT CAVOK 18/05 Q1024 NOSIG",
      "taf": "TAF LZIB 020515Z 0206/0306 VRB02KT CAVOK"
    },
    {
      "icao": "LZKZ",
      "alert": "OK",
      "vis_m": 9999,
      "fzfg": false,
      "metar_trigger": false,
      "taf_trigger": false,
      "metar": "METAR LZKZ 020800Z 04007KT 360V120 CAVOK 16/03 Q1024 NOSIG",
      "taf": "TAF LZKZ 020515Z 0206/0306 36006KT CAVOK"
    },
    {
      "icao": "LZTT",
      "alert": "OK",
      "vis_m": 9999,
      "fzfg": false,
      "metar_trigger": false,
      "taf_trigger": false,
      "metar": "METAR LZTT 020800Z VRB04KT 9999 FEW046 15/04 Q1024 TEMPO 08012KT",
      "taf": "TAF LZTT 020515Z 0206/0306 31005KT 9999 FEW050"
    },
    {
      "icao": "OEJN",
      "alert": "OK",
      "vis_m": 9999,
      "fzfg": false,
      "metar_trigger": false,
      "taf_trigger": false,
      "metar": "METAR OEJN 020800Z 36008KT CAVOK 35/03 Q1010 NOSIG",
      "taf": "TAF OEJN 020500Z 0206/0312 32015KT CAVOK"
    },
    {
      "icao": "OEMA",
      "alert": "OK",
      "vis_m": 9999,
      "fzfg": false,
      "metar_trigger": false,
      "taf_trigger": false,
      "metar": "METAR OEMA 020800Z VRB03KT CAVOK 32/M04 Q1015 NOSIG",
      "taf": "TAF OEMA 020500Z 0206/0312 30012KT CAVOK"
    },
    {
      "icao": "OJAI",
      "alert": "OK",
      "vis_m": 5000,
      "fzfg": false,
      "metar_trigger": false,
      "taf_trigger": false,
      "metar": "METAR OJAI 020800Z 09004KT 5000 HZ NSC 23/M04 Q1014 NOSIG",
      "taf": "TAF OJAI 020447Z 0206/0312 30012KT 5000 HZ NSC"
    },
    {
      "icao": "OMAA",
      "alert": "OK",
      "vis_m": 9999,
      "fzfg": false,
      "metar_trigger": false,
      "taf_trigger": false,
      "metar": "METAR OMAA 020800Z 34011KT CAVOK 37/07 Q1008 NOSIG",
      "taf": "TAF OMAA 020500Z 0206/0312 33011KT CAVOK"
    },
    {
      "icao": "OMDB",
      "alert": "OK",
      "vis_m": 9999,
      "fzfg": false,
      "metar_trigger": false,
      "taf_trigger": false,
      "metar": "METAR OMDB 020800Z 33008KT CAVOK 37/12 Q1008 NOSIG",
      "taf": "TAF OMDB 020500Z 0206/0312 22005KT CAVOK"
    },
    {
      "icao": "UAAA",
      "alert": "OK",
      "vis_m": 9999,
      "fzfg": false,
      "metar_trigger": false,
      "taf_trigger": false,
      "metar": "METAR UAAA 020800Z 04004MPS 360V060 9999 FEW050CB SCT100 BKN200 27/10 Q1012 NOSIG",
      "taf": "TAF UAAA 020505Z 0206/0306 04004G09MPS 9999 SCT050CB BKN100 TX28/0209Z TN15/0301Z"
    },
    {
      "icao": "UBBB",
      "alert": "OK",
      "vis_m": 9999,
      "fzfg": false,
      "metar_trigger": false,
      "taf_trigger": false,
      "metar": "METAR UBBB 020800Z 22010KT 180V250 9999 FEW025 18/12 Q1013 NOSIG",
      "taf": "TAF UBBB 020501Z 0206/0306 19014KT 9999 SCT020 TX19/0209Z TN11/0301Z"
    },
    {
      "icao": "UDSG",
      "alert": "OK",
      "vis_m": 9999,
      "fzfg": false,
      "metar_trigger": false,
      "taf_trigger": false,
      "metar": "METAR UDSG 020800Z 23004KT 180V290 9999 SCT026CB BKN040 12/07 Q1016 NOSIG",
      "taf": "TAF UDSG 020458Z 0206/0306 06006KT 9999 BKN040"
    },
    {
      "icao": "UDYZ",
      "alert": "OK",
      "vis_m": 9999,
      "fzfg": false,
      "metar_trigger": false,
      "taf_trigger": false,
      "metar": "METAR UDYZ 020800Z 24005KT 210V320 9999 FEW043CB 19/05 Q1014 NOSIG",
      "taf": "TAF UDYZ 020500Z 0206/0306 22006KT 9999 FEW040"
    },
    {
      "icao": "UGKO",
      "alert": "OK",
      "vis_m": 9999,
      "fzfg": false,
      "metar_trigger": false,
      "taf_trigger": false,
      "metar": "METAR UGKO 020800Z 29004KT 220V360 9999 BKN013 OVC050 13/10 Q1017 NOSIG",
      "taf": "TAF UGKO 020500Z 0206/0306 26007KT 9999 SCT020 BKN050 TX14/0211Z TN08/0302Z"
    }
  ]
}