{
  "ts_utc": "2026-03-27T15:31:32Z",
  "threshold_m": 150,
  "source": "stations_override.txt (ICAO list) + aviationweather.gov (METAR/TAF raw)",
  "station_count": 159,
  "stations": [
    {
      "icao": "BIKF",
      "alert": "OK",
      "vis_m": 9999,
      "fzfg": false,
      "metar_trigger": false,
      "taf_trigger": false,
      "metar": "METAR BIKF 271500Z 34029G39KT 9999 FEW016 SCT038 BKN085 00/M03 Q0992",
      "taf": "TAF BIKF 271338Z 2715/2815 02022G32KT 9999 -SHRASN SCT014 BKN020 TX02/2715Z TNM08/2808Z"
    },
    {
      "icao": "BKPR",
      "alert": "OK",
      "vis_m": 9999,
      "fzfg": false,
      "metar_trigger": false,
      "taf_trigger": false,
      "metar": "METAR BKPR 271530Z VRB01KT 9999 FEW040 10/02 Q0998 NOSIG",
      "taf": "TAF BKPR 271130Z 2712/2812 03008KT 9999 SCT012 BKN030"
    },
    {
      "icao": "EBCI",
      "alert": "OK",
      "vis_m": 9999,
      "fzfg": false,
      "metar_trigger": false,
      "taf_trigger": false,
      "metar": "METAR EBCI 271520Z 20011KT 9999 FEW045 08/M03 Q1022 NOSIG",
      "taf": "TAF EBCI 271110Z 2712/2818 20011KT CAVOK"
    },
    {
      "icao": "EDDB",
      "alert": "OK",
      "vis_m": 9999,
      "fzfg": false,
      "metar_trigger": false,
      "taf_trigger": false,
      "metar": "METAR EDDB 271520Z AUTO 29008KT CAVOK 08/M02 Q1020 NOSIG",
      "taf": "TAF EDDB 271100Z 2712/2812 28007KT 9999 SCT030"
    },
    {
      "icao": "EDDH",
      "alert": "OK",
      "vis_m": 9999,
      "fzfg": false,
      "metar_trigger": false,
      "taf_trigger": false,
      "metar": "METAR EDDH 271520Z AUTO 23009KT 200V280 CAVOK 09/M02 Q1020 NOSIG",
      "taf": "TAF EDDH 271100Z 2712/2818 25009KT 9999 SCT030"
    },
    {
      "icao": "EDDK",
      "alert": "OK",
      "vis_m": 9999,
      "fzfg": false,
      "metar_trigger": false,
      "taf_trigger": false,
      "metar": "METAR EDDK 271520Z AUTO 22008KT 150V250 9999 FEW049 09/M03 Q1022 NOSIG",
      "taf": "TAF EDDK 271100Z 2712/2818 17004KT 9999 SCT040"
    },
    {
      "icao": "EDDN",
      "alert": "OK",
      "vis_m": 9999,
      "fzfg": false,
      "metar_trigger": false,
      "taf_trigger": false,
      "metar": "METAR EDDN 271520Z AUTO 32008KT 280V360 CAVOK 07/M06 Q1021 NOSIG",
      "taf": "TAF EDDN 271100Z 2712/2812 31007KT 9999 SCT045"
    },
    {
      "icao": "EDDS",
      "alert": "OK",
      "vis_m": 9999,
      "fzfg": false,
      "metar_trigger": false,
      "taf_trigger": false,
      "metar": "METAR EDDS 271520Z AUTO VRB04KT CAVOK 06/M07 Q1021 NOSIG",
      "taf": "TAF EDDS 271100Z 2712/2812 VRB03KT 9999 SCT030"
    },
    {
      "icao": "EDFH",
      "alert": "OK",
      "vis_m": 9999,
      "fzfg": false,
      "metar_trigger": false,
      "taf_trigger": false,
      "metar": "METAR EDFH 271520Z VRB02KT 9999 FEW039 05/M04 Q1021",
      "taf": "TAF EDFH 271100Z 2712/2812 05005KT 9999 BKN025"
    },
    {
      "icao": "EDJA",
      "alert": "OK",
      "vis_m": 9999,
      "fzfg": false,
      "metar_trigger": false,
      "taf_trigger": false,
      "metar": "METAR EDJA 271520Z 04005KT 360V070 9999 FEW050 03/M06 Q1020",
      "taf": "TAF EDJA 271400Z 2715/2724 03006KT 9999 BKN040"
    },
    {
      "icao": "EDLW",
      "alert": "OK",
      "vis_m": 9999,
      "fzfg": false,
      "metar_trigger": false,
      "taf_trigger": false,
      "metar": "METAR EDLW 271520Z 22008KT 190V270 CAVOK 09/M02 Q1021",
      "taf": "TAF EDLW 271100Z 2712/2812 25007KT 9999 SCT040"
    },
    {
      "icao": "EDNY",
      "alert": "OK",
      "vis_m": 9999,
      "fzfg": false,
      "metar_trigger": false,
      "taf_trigger": false,
      "metar": "METAR EDNY 271520Z COR 02007KT 340V060 CAVOK 05/M04 Q1021",
      "taf": "TAF EDNY 271400Z 2715/2724 04007KT 9999 SCT050"
    },
    {
      "icao": "EDSB",
      "alert": "OK",
      "vis_m": 9999,
      "fzfg": false,
      "metar_trigger": false,
      "taf_trigger": false,
      "metar": "METAR EDSB 271520Z VRB04KT CAVOK 08/M05 Q1023",
      "taf": "TAF EDSB 271100Z 2712/2812 01005KT 9999 SCT040"
    },
    {
      "icao": "EETN",
      "alert": "OK",
      "vis_m": 9999,
      "fzfg": false,
      "metar_trigger": false,
      "taf_trigger": false,
      "metar": "METAR EETN 271520Z 26009KT CAVOK 11/M02 Q1014 NOSIG",
      "taf": "TAF EETN 271130Z 2712/2812 28012KT 9999 SCT040"
    },
    {
      "icao": "EFTU",
      "alert": "OK",
      "vis_m": 9999,
      "fzfg": false,
      "metar_trigger": false,
      "taf_trigger": false,
      "metar": "METAR EFTU 271520Z AUTO 25009KT CAVOK 07/M01 Q1013",
      "taf": "TAF EFTU 271424Z 2715/2815 26010KT CAVOK"
    },
    {
      "icao": "EGBB",
      "alert": "OK",
      "vis_m": 9000,
      "fzfg": false,
      "metar_trigger": false,
      "taf_trigger": false,
      "metar": "METAR EGBB 271520Z 32008KT 9000 BKN010 09/07 Q1017",
      "taf": ""
    },
    {
      "icao": "EGGP",
      "alert": "OK",
      "vis_m": 9999,
      "fzfg": false,
      "metar_trigger": false,
      "taf_trigger": false,
      "metar": "METAR EGGP 271520Z 29015KT 9999 FEW032 SCT040 11/02 Q1017",
      "taf": ""
    },
    {
      "icao": "EGGW",
      "alert": "OK",
      "vis_m": 9999,
      "fzfg": false,
      "metar_trigger": false,
      "taf_trigger": false,
      "metar": "METAR EGGW 271520Z AUTO 23011KT 9999 -RA OVC012 11/09 Q1016",
      "taf": "TAF EGGW 271100Z 2712/2812 22010KT 9999 SCT008 BKN012"
    },
    {
      "icao": "EGKK",
      "alert": "OK",
      "vis_m": 9000,
      "fzfg": false,
      "metar_trigger": false,
      "taf_trigger": false,
      "metar": "METAR EGKK 271520Z 22010KT 9000 -RA BKN008 11/10 Q1018",
      "taf": ""
    },
    {
      "icao": "EGNM",
      "alert": "OK",
      "vis_m": 9999,
      "fzfg": false,
      "metar_trigger": false,
      "taf_trigger": false,
      "metar": "METAR EGNM 271520Z 28016KT 9999 SCT038 10/01 Q1015",
      "taf": "TAF EGNM 271056Z 2712/2812 28012KT 9999 SCT025"
    },
    {
      "icao": "EGPD",
      "alert": "OK",
      "vis_m": 9999,
      "fzfg": false,
      "metar_trigger": false,
      "taf_trigger": false,
      "metar": "METAR EGPD 271520Z COR AUTO 25005KT 190V310 9999 NCD 11/M01 Q1008 NOSIG",
      "taf": "TAF EGPD 271101Z 2712/2812 25009KT 9999 FEW025"
    },
    {
      "icao": "EGPF",
      "alert": "OK",
      "vis_m": 9999,
      "fzfg": false,
      "metar_trigger": false,
      "taf_trigger": false,
      "metar": "METAR EGPF 271520Z AUTO 25018KT 9999 FEW029/// //////TCU 08/03 Q1013",
      "taf": ""
    },
    {
      "icao": "EHBK",
      "alert": "OK",
      "vis_m": 9999,
      "fzfg": false,
      "metar_trigger": false,
      "taf_trigger": false,
      "metar": "METAR EHBK 271525Z AUTO 23009KT 190V280 9999 NSC 09/M01 Q1021 NOSIG",
      "taf": "TAF EHBK 271118Z 2712/2818 22008KT 9999 FEW025"
    },
    {
      "icao": "EHEH",
      "alert": "OK",
      "vis_m": 9999,
      "fzfg": false,
      "metar_trigger": false,
      "taf_trigger": false,
      "metar": "METAR EHEH 271525Z AUTO 20012KT 160V230 9999 SCT043 OVC047 10/M01 Q1021 BLU NOSIG RMK TREND REMOTE BY EHWX",
      "taf": "TAF EHEH 271104Z 2712/2818 21007KT CAVOK"
    },
    {
      "icao": "EKBI",
      "alert": "OK",
      "vis_m": 9999,
      "fzfg": false,
      "metar_trigger": false,
      "taf_trigger": false,
      "metar": "METAR EKBI 271520Z AUTO 21011KT 180V240 9999 FEW034/// 08/00 Q1017",
      "taf": "TAF EKBI 271427Z 2715/2815 22012KT 9999 SCT035"
    },
    {
      "icao": "EKCH",
      "alert": "OK",
      "vis_m": 9999,
      "fzfg": false,
      "metar_trigger": false,
      "taf_trigger": false,
      "metar": "METAR EKCH 271520Z AUTO 24012KT 220V280 9999 BKN042/// 08/M02 Q1018 NOSIG",
      "taf": "TAF EKCH 271427Z 2715/2815 26010KT 9999 BKN030"
    },
    {
      "icao": "ENAL",
      "alert": "OK",
      "vis_m": 9999,
      "fzfg": false,
      "metar_trigger": false,
      "taf_trigger": false,
      "metar": "METAR ENAL 271520Z 20010KT 9999 FEW043 BKN057 06/02 Q1001",
      "taf": "TAF ENAL 271400Z 2715/2724 20012KT 9999 -SHRA FEW025TCU BKN040"
    },
    {
      "icao": "ENBR",
      "alert": "OK",
      "vis_m": 9999,
      "fzfg": false,
      "metar_trigger": false,
      "taf_trigger": false,
      "metar": "METAR ENBR 271520Z 14014KT 9999 -RA FEW003 BKN007 03/02 Q1005 TEMPO 4000 -RA BR BKN004 RMK WIND 1200FT 16016KT",
      "taf": "TAF ENBR 271100Z 2712/2812 14015KT 9999 -RA FEW008 BKN012"
    },
    {
      "icao": "ENGM",
      "alert": "OK",
      "vis_m": 9999,
      "fzfg": false,
      "metar_trigger": false,
      "taf_trigger": false,
      "metar": "METAR ENGM 271520Z 20018KT CAVOK 06/M07 Q1008 NOSIG",
      "taf": "TAF ENGM 271100Z 2712/2812 20015KT CAVOK"
    },
    {
      "icao": "ENHD",
      "alert": "OK",
      "vis_m": 9999,
      "fzfg": false,
      "metar_trigger": false,
      "taf_trigger": false,
      "metar": "METAR ENHD 271520Z 18004KT 9999 -RA FEW023 BKN028 BKN033 06/05 Q1007",
      "taf": "TAF ENHD 271400Z 2715/2723 18012KT 7000 RA BKN006"
    },
    {
      "icao": "ENTC",
      "alert": "OK",
      "vis_m": 9999,
      "fzfg": false,
      "metar_trigger": false,
      "taf_trigger": false,
      "metar": "METAR ENTC 271520Z 29007KT 9999 FEW040 01/M06 Q1005 NOSIG RMK WIND 2600FT 23006KT",
      "taf": "TAF ENTC 271100Z 2712/2812 33009KT 9999 FEW020 SCT040"
    },
    {
      "icao": "ENTO",
      "alert": "OK",
      "vis_m": 9999,
      "fzfg": false,
      "metar_trigger": false,
      "taf_trigger": false,
      "metar": "METAR ENTO 271520Z 21016KT 9999 FEW037 06/02 Q1010 BECMG BKN014",
      "taf": "TAF ENTO 271100Z 2712/2812 20015KT CAVOK"
    },
    {
      "icao": "ENVA",
      "alert": "OK",
      "vis_m": 9999,
      "fzfg": false,
      "metar_trigger": false,
      "taf_trigger": false,
      "metar": "METAR ENVA 271520Z 14012KT 9999 -RA FEW029 SCT041 06/M01 Q1003 NOSIG RMK WIND 670FT 16015KT",
      "taf": "TAF ENVA 271100Z 2712/2812 10006KT 9999 FEW050"
    },
    {
      "icao": "ENZV",
      "alert": "OK",
      "vis_m": 9000,
      "fzfg": false,
      "metar_trigger": false,
      "taf_trigger": false,
      "metar": "METAR ENZV 271520Z 20008KT 170V230 9000 RA OVC023CB 06/05 Q1007 TEMPO 4000 RADZ BR BKN008",
      "taf": ""
    },
    {
      "icao": "EPGD",
      "alert": "OK",
      "vis_m": 9999,
      "fzfg": false,
      "metar_trigger": false,
      "taf_trigger": false,
      "metar": "METAR EPGD 271500Z 05009KT 9999 FEW033 05/00 Q1019",
      "taf": "TAF EPGD 271130Z 2712/2812 27006KT CAVOK"
    },
    {
      "icao": "EPKK",
      "alert": "OK",
      "vis_m": 7000,
      "fzfg": false,
      "metar_trigger": false,
      "taf_trigger": false,
      "metar": "METAR EPKK 271500Z 31003KT 300V360 7000 -RA FEW008 SCT015 OVC024 03/01 Q1015",
      "taf": "TAF EPKK 271430Z 2715/2815 28002KT 9999 -RA OVC025"
    },
    {
      "icao": "EPKT",
      "alert": "OK",
      "vis_m": 9999,
      "fzfg": false,
      "metar_trigger": false,
      "taf_trigger": false,
      "metar": "METAR EPKT 271500Z 35015KT 9999 FEW017 BKN036 04/M03 Q1016",
      "taf": "TAF EPKT 271130Z 2712/2812 01010KT 9999 OVC044"
    },
    {
      "icao": "EPLB",
      "alert": "OK",
      "vis_m": 9999,
      "fzfg": false,
      "metar_trigger": false,
      "taf_trigger": false,
      "metar": "METAR EPLB 271500Z 35007KT CAVOK 08/03 Q1013",
      "taf": "TAF EPLB 271130Z 2712/2812 36010KT CAVOK"
    },
    {
      "icao": "EPMO",
      "alert": "OK",
      "vis_m": 9999,
      "fzfg": false,
      "metar_trigger": false,
      "taf_trigger": false,
      "metar": "METAR EPMO 271500Z 35008KT 330V030 9999 FEW037 09/M02 Q1016",
      "taf": "TAF EPMO 271130Z 2712/2812 01010KT CAVOK"
    },
    {
      "icao": "EPPO",
      "alert": "OK",
      "vis_m": 9999,
      "fzfg": false,
      "metar_trigger": false,
      "taf_trigger": false,
      "metar": "METAR EPPO 271500Z 32008KT 290V350 CAVOK 10/M08 Q1019",
      "taf": "TAF EPPO 271130Z 2712/2812 28010KT 9999 FEW035"
    },
    {
      "icao": "EPRA",
      "alert": "OK",
      "vis_m": 9999,
      "fzfg": false,
      "metar_trigger": false,
      "taf_trigger": false,
      "metar": "METAR EPRA 271500Z 35008KT CAVOK 08/00 Q1015",
      "taf": "TAF EPRA 271430Z 2715/2724 01010KT CAVOK"
    },
    {
      "icao": "EPRZ",
      "alert": "OK",
      "vis_m": 9999,
      "fzfg": false,
      "metar_trigger": false,
      "taf_trigger": false,
      "metar": "METAR EPRZ 271500Z 34011KT 9999 SCT020 07/03 Q1011",
      "taf": "TAF EPRZ 271130Z 2712/2812 01010KT 9999 OVC012"
    },
    {
      "icao": "EPSC",
      "alert": "OK",
      "vis_m": 9999,
      "fzfg": false,
      "metar_trigger": false,
      "taf_trigger": false,
      "metar": "METAR EPSC 271500Z 29007KT 9999 FEW036 OVC047 08/M01 Q1020",
      "taf": "TAF EPSC 271130Z 2712/2812 24010KT 9999 BKN025"
    },
    {
      "icao": "EPSY",
      "alert": "OK",
      "vis_m": 9999,
      "fzfg": false,
      "metar_trigger": false,
      "taf_trigger": false,
      "metar": "METAR EPSY 271500Z 36011KT 330V040 CAVOK 10/M03 Q1017",
      "taf": "TAF EPSY 271430Z 2715/2724 36008KT CAVOK"
    },
    {
      "icao": "EPWA",
      "alert": "OK",
      "vis_m": 9999,
      "fzfg": false,
      "metar_trigger": false,
      "taf_trigger": false,
      "metar": "METAR EPWA 271500Z 35013KT CAVOK 10/M02 Q1016 NOSIG",
      "taf": "TAF EPWA 271430Z 2715/2815 01010KT CAVOK"
    },
    {
      "icao": "EPWR",
      "alert": "OK",
      "vis_m": 9999,
      "fzfg": false,
      "metar_trigger": false,
      "taf_trigger": false,
      "metar": "METAR EPWR 271500Z 35012KT 320V020 CAVOK 09/M05 Q1018",
      "taf": "TAF EPWR 271430Z 2715/2815 34012KT CAVOK"
    },
    {
      "icao": "ESGG",
      "alert": "OK",
      "vis_m": 9999,
      "fzfg": false,
      "metar_trigger": false,
      "taf_trigger": false,
      "metar": "METAR ESGG 271520Z 22011KT 9999 FEW027 06/M01 Q1015",
      "taf": "TAF ESGG 271430Z 2715/2815 25010KT 9999 SCT025"
    },
    {
      "icao": "ESKN",
      "alert": "OK",
      "vis_m": 9999,
      "fzfg": false,
      "metar_trigger": false,
      "taf_trigger": false,
      "metar": "METAR ESKN 271520Z 16010KT CAVOK 10/M02 Q1013",
      "taf": ""
    },
    {
      "icao": "ESMS",
      "alert": "OK",
      "vis_m": 9999,
      "fzfg": false,
      "metar_trigger": false,
      "taf_trigger": false,
      "metar": "METAR ESMS 271520Z 25010KT 9999 SCT034 08/00 Q1017",
      "taf": "TAF ESMS 271427Z 2715/2815 29010KT 9999 SCT035"
    },
    {
      "icao": "ESSA",
      "alert": "OK",
      "vis_m": 9999,
      "fzfg": false,
      "metar_trigger": false,
      "taf_trigger": false,
      "metar": "METAR ESSA 271520Z 25012KT CAVOK 10/M04 Q1012 NOSIG",
      "taf": "TAF ESSA 271430Z 2715/2815 24012KT CAVOK"
    },
    {
      "icao": "EYKA",
      "alert": "OK",
      "vis_m": 9999,
      "fzfg": false,
      "metar_trigger": false,
      "taf_trigger": false,
      "metar": "METAR EYKA 271520Z 33004KT 290V010 CAVOK 11/M02 Q1017",
      "taf": "TAF EYKA 271102Z 2712/2812 VRB04KT 9000 NSC"
    },
    {
      "icao": "EYPA",
      "alert": "OK",
      "vis_m": 9999,
      "fzfg": false,
      "metar_trigger": false,
      "taf_trigger": false,
      "metar": "METAR EYPA 271520Z VRB03KT 9999 OVC004 04/02 Q1019",
      "taf": ""
    },
    {
      "icao": "EYVI",
      "alert": "OK",
      "vis_m": 9999,
      "fzfg": false,
      "metar_trigger": false,
      "taf_trigger": false,
      "metar": "METAR EYVI 271520Z 34009KT CAVOK 11/M00 Q1015 NOSIG",
      "taf": "TAF EYVI 271100Z 2712/2812 01008KT 9000 NSC"
    },
    {
      "icao": "GCFV",
      "alert": "OK",
      "vis_m": 9999,
      "fzfg": false,
      "metar_trigger": false,
      "taf_trigger": false,
      "metar": "METAR GCFV 271500Z 33014KT 290V010 9999 BKN040 21/11 Q1014",
      "taf": "TAF GCFV 271400Z 2715/2815 33014KT 9999 SCT035 TX22/2814Z TN16/2806Z"
    },
    {
      "icao": "GCLP",
      "alert": "OK",
      "vis_m": 9999,
      "fzfg": false,
      "metar_trigger": false,
      "taf_trigger": false,
      "metar": "METAR GCLP 271500Z 02015KT 350V050 9999 FEW025 22/10 Q1015 NOSIG",
      "taf": "TAF GCLP 271400Z 2715/2815 01020KT 9999 SCT035 TX22/2814Z TN16/2806Z"
    },
    {
      "icao": "GCTS",
      "alert": "OK",
      "vis_m": 9999,
      "fzfg": false,
      "metar_trigger": false,
      "taf_trigger": false,
      "metar": "METAR GCTS 271500Z 10018KT 060V120 9999 BKN040 21/10 Q1016 NOSIG",
      "taf": "TAF GCTS 271400Z 2715/2815 19007KT 9999 BKN040 TX23/2814Z TN16/2806Z"
    },
    {
      "icao": "GMAD",
      "alert": "OK",
      "vis_m": 6000,
      "fzfg": false,
      "metar_trigger": false,
      "taf_trigger": false,
      "metar": "METAR GMAD 271430Z 25013KT 6000 BKN023 20/13 Q1010 NOSIG",
      "taf": "TAF GMAD 271100Z 2712/2818 27010KT 8000 BKN016"
    },
    {
      "icao": "GMMN",
      "alert": "OK",
      "vis_m": 9999,
      "fzfg": false,
      "metar_trigger": false,
      "taf_trigger": false,
      "metar": "METAR GMMN 271430Z 33009KT 300V020 9999 SCT020 21/16 Q1010 NOSIG",
      "taf": "TAF GMMN 271100Z 2712/2818 35005KT 9999 BKN020"
    },
    {
      "icao": "GMMX",
      "alert": "OK",
      "vis_m": 8000,
      "fzfg": false,
      "metar_trigger": false,
      "taf_trigger": false,
      "metar": "METAR GMMX 271430Z 36004KT 8000 BKN026 21/14 Q1010 NOSIG",
      "taf": "TAF GMMX 271100Z 2712/2818 24006KT 8000 BKN020"
    },
    {
      "icao": "HEGN",
      "alert": "OK",
      "vis_m": 9999,
      "fzfg": false,
      "metar_trigger": false,
      "taf_trigger": false,
      "metar": "METAR HEGN 271500Z 11006KT CAVOK 22/10 Q1014 NOSIG",
      "taf": "TAF HEGN 271100Z 2712/2818 04010KT 9999 SCT025"
    },
    {
      "icao": "HEMA",
      "alert": "OK",
      "vis_m": 9999,
      "fzfg": false,
      "metar_trigger": false,
      "taf_trigger": false,
      "metar": "METAR HEMA 271500Z 12010KT CAVOK 22/09 Q1014 NOSIG",
      "taf": "TAF HEMA 271100Z 2712/2818 02012KT CAVOK"
    },
    {
      "icao": "HESH",
      "alert": "OK",
      "vis_m": 9999,
      "fzfg": false,
      "metar_trigger": false,
      "taf_trigger": false,
      "metar": "METAR HESH 271500Z 07004KT 9999 SCT020 24/06 Q1014 NOSIG",
      "taf": "TAF HESH 271100Z 2712/2818 12008KT CAVOK"
    },
    {
      "icao": "HESX",
      "alert": "OK",
      "vis_m": 9999,
      "fzfg": false,
      "metar_trigger": false,
      "taf_trigger": false,
      "metar": "METAR HESX 271500Z 27011KT CAVOK 22/01 Q1013 NOSIG",
      "taf": "TAF HESX 271100Z 2712/2818 25009KT 9999 SCT025"
    },
    {
      "icao": "LATI",
      "alert": "OK",
      "vis_m": 9999,
      "fzfg": false,
      "metar_trigger": false,
      "taf_trigger": false,
      "metar": "METAR LATI 271520Z 04005KT 340V080 9999 FEW025CB SCT039 BKN057 10/08 Q0999 NOSIG",
      "taf": "TAF LATI 271100Z 2712/2812 16010KT 9999 SCT040 BKN070 TX16/2712Z TN04/2804Z"
    },
    {
      "icao": "LBPD",
      "alert": "OK",
      "vis_m": 9000,
      "fzfg": false,
      "metar_trigger": false,
      "taf_trigger": false,
      "metar": "METAR LBPD 271530Z AUTO 28019KT 9000 SCT067/// 11/09 Q0999 NOSIG",
      "taf": "TAF LBPD 271100Z 2712/2812 11016KT 9999 SCT030 BKN050"
    },
    {
      "icao": "LBSF",
      "alert": "OK",
      "vis_m": 9999,
      "fzfg": false,
      "metar_trigger": false,
      "taf_trigger": false,
      "metar": "METAR LBSF 271530Z 24003KT 190V300 9999 SCT008 BKN011 BKN032 04/03 Q1000 NOSIG",
      "taf": "TAF LBSF 271100Z 2712/2812 30012KT 5000 RA BKN025 OVC040"
    },
    {
      "icao": "LBWN",
      "alert": "OK",
      "vis_m": 9999,
      "fzfg": false,
      "metar_trigger": false,
      "taf_trigger": false,
      "metar": "METAR LBWN 271530Z 11013KT 9999 FEW009 BKN011 10/08 Q1004 NOSIG",
      "taf": "TAF LBWN 271100Z 2712/2812 11018KT 9999 SCT010 OVC013"
    },
    {
      "icao": "LCLK",
      "alert": "OK",
      "vis_m": 9999,
      "fzfg": false,
      "metar_trigger": false,
      "taf_trigger": false,
      "metar": "METAR LCLK 271500Z 23012KT 9999 FEW020 19/13 Q1010 NOSIG",
      "taf": "TAF LCLK 271130Z 2712/2812 22020KT 9999 FEW020 SCT035"
    },
    {
      "icao": "LCPH",
      "alert": "OK",
      "vis_m": 9999,
      "fzfg": false,
      "metar_trigger": false,
      "taf_trigger": false,
      "metar": "METAR LCPH 271500Z 26009KT 250V320 9999 FEW030 SCT040 18/11 Q1011 NOSIG",
      "taf": "TAF LCPH 271130Z 2712/2812 29019KT 9999 FEW020 SCT040"
    },
    {
      "icao": "LEAL",
      "alert": "OK",
      "vis_m": 9999,
      "fzfg": false,
      "metar_trigger": false,
      "taf_trigger": false,
      "metar": "METAR LEAL 271500Z 08009KT 060V130 9999 SCT025 SCT047 15/08 Q1016 NOSIG",
      "taf": "TAF LEAL 271100Z 2712/2812 11009KT 9999 FEW025 TX16/2712Z TN07/2806Z"
    },
    {
      "icao": "LEBB",
      "alert": "OK",
      "vis_m": 9999,
      "fzfg": false,
      "metar_trigger": false,
      "taf_trigger": false,
      "metar": "METAR LEBB 271500Z 36007KT 330V040 9999 FEW035 SCT050 13/06 Q1025 NOSIG",
      "taf": "TAF LEBB 271100Z 2712/2812 35009KT 9999 FEW020 SCT035 TX13/2714Z TN05/2724Z"
    },
    {
      "icao": "LEBL",
      "alert": "OK",
      "vis_m": 9999,
      "fzfg": false,
      "metar_trigger": false,
      "taf_trigger": false,
      "metar": "METAR LEBL 271500Z 17010KT 130V200 9999 FEW018 14/06 Q1015 NOSIG",
      "taf": "TAF LEBL 271100Z 2712/2812 16008KT 9999 FEW020 TX17/2712Z TN08/2806Z"
    },
    {
      "icao": "LECH",
      "alert": "OK",
      "vis_m": 9999,
      "fzfg": false,
      "metar_trigger": false,
      "taf_trigger": false,
      "metar": "METAR LECH 271500Z AUTO 11007KT 050V160 CAVOK 15/02 Q1014",
      "taf": "TAF LECH 271100Z 2712/2812 33009KT 9999 FEW030 TX19/2713Z TN03/2806Z"
    },
    {
      "icao": "LEMD",
      "alert": "OK",
      "vis_m": 9999,
      "fzfg": false,
      "metar_trigger": false,
      "taf_trigger": false,
      "metar": "METAR LEMD 271500Z 02013KT 340V080 CAVOK 18/M01 Q1016 NOSIG",
      "taf": "TAF LEMD 271100Z 2712/2818 03008KT CAVOK TX19/2716Z TN01/2807Z"
    },
    {
      "icao": "LEMG",
      "alert": "OK",
      "vis_m": 9999,
      "fzfg": false,
      "metar_trigger": false,
      "taf_trigger": false,
      "metar": "METAR LEMG 271500Z 13008KT 090V160 9999 FEW025 17/10 Q1015 NOSIG",
      "taf": "TAF LEMG 271100Z 2712/2812 12010KT 9999 FEW040 TX20/2713Z TN13/2806Z"
    },
    {
      "icao": "LEVC",
      "alert": "OK",
      "vis_m": 9999,
      "fzfg": false,
      "metar_trigger": false,
      "taf_trigger": false,
      "metar": "METAR LEVC 271500Z 12012KT 100V160 CAVOK 16/05 Q1015 NOSIG",
      "taf": "TAF LEVC 271100Z 2712/2812 30005KT 9999 FEW025 TX18/2713Z TN06/2806Z"
    },
    {
      "icao": "LEXJ",
      "alert": "OK",
      "vis_m": 9999,
      "fzfg": false,
      "metar_trigger": false,
      "taf_trigger": false,
      "metar": "METAR LEXJ 271500Z 05003KT 350V100 9999 BKN034 12/06 Q1026",
      "taf": "TAF LEXJ 271400Z 2715/2815 04006KT 9999 BKN030 TX12/2812Z TN09/2805Z"
    },
    {
      "icao": "LEZG",
      "alert": "OK",
      "vis_m": 9999,
      "fzfg": false,
      "metar_trigger": false,
      "taf_trigger": false,
      "metar": "METAR LEZG 271500Z 31024KT CAVOK 16/M00 Q1017 NOSIG",
      "taf": "TAF LEZG 271100Z 2712/2812 30020KT 9999 FEW045 TX17/2714Z TN06/2806Z"
    },
    {
      "icao": "LEZL",
      "alert": "OK",
      "vis_m": 9999,
      "fzfg": false,
      "metar_trigger": false,
      "taf_trigger": false,
      "metar": "METAR LEZL 271500Z 06007KT 030V110 CAVOK 22/05 Q1013 NOSIG",
      "taf": "TAF LEZL 271400Z 2715/2815 05010KT CAVOK TX28/2715Z TN09/2807Z"
    },
    {
      "icao": "LFBD",
      "alert": "OK",
      "vis_m": 9999,
      "fzfg": false,
      "metar_trigger": false,
      "taf_trigger": false,
      "metar": "METAR LFBD 271500Z AUTO 36007KT 260V060 CAVOK 14/M07 Q1024 NOSIG",
      "taf": "TAF LFBD 271100Z 2712/2818 02007KT CAVOK TX13/2715Z TN03/2805Z"
    },
    {
      "icao": "LFLL",
      "alert": "OK",
      "vis_m": 9999,
      "fzfg": false,
      "metar_trigger": false,
      "taf_trigger": false,
      "metar": "METAR LFLL 271500Z 35022KT CAVOK 08/M05 Q1020 NOSIG",
      "taf": "TAF LFLL 271100Z 2712/2818 36020KT 9999 FEW035"
    },
    {
      "icao": "LFLS",
      "alert": "OK",
      "vis_m": 9999,
      "fzfg": false,
      "metar_trigger": false,
      "taf_trigger": false,
      "metar": "METAR LFLS 271500Z AUTO 34017KT 320V020 9999 BKN058 BKN068 07/M03 Q1018 TEMPO 35015G25KT",
      "taf": "TAF LFLS 271400Z 2715/2815 34010KT 9999 BKN055"
    },
    {
      "icao": "LFMN",
      "alert": "OK",
      "vis_m": 9999,
      "fzfg": false,
      "metar_trigger": false,
      "taf_trigger": false,
      "metar": "METAR LFMN 271500Z 21016KT CAVOK 15/04 Q1009 NOSIG",
      "taf": "TAF LFMN 271400Z 2715/2821 21015KT CAVOK"
    },
    {
      "icao": "LFOB",
      "alert": "OK",
      "vis_m": 9999,
      "fzfg": false,
      "metar_trigger": false,
      "taf_trigger": false,
      "metar": "METAR LFOB 271500Z AUTO 21009KT 9999 OVC040 10/04 Q1022 NOSIG",
      "taf": "TAF LFOB 271100Z 2712/2812 22007KT CAVOK"
    },
    {
      "icao": "LFPO",
      "alert": "OK",
      "vis_m": 9999,
      "fzfg": false,
      "metar_trigger": false,
      "taf_trigger": false,
      "metar": "METAR LFPO 271500Z 24007KT 210V270 9999 BKN041 10/01 Q1023 NOSIG",
      "taf": "TAF LFPO 271100Z 2712/2818 18005KT CAVOK"
    },
    {
      "icao": "LFSB",
      "alert": "OK",
      "vis_m": 9999,
      "fzfg": false,
      "metar_trigger": false,
      "taf_trigger": false,
      "metar": "METAR LFSB 271500Z AUTO 03005KT 330V070 9999 FEW047 SCT058 OVC068 07/M06 Q1022 NOSIG",
      "taf": "TAF LFSB 271100Z 2712/2812 35010KT 9999 FEW040 BKN060"
    },
    {
      "icao": "LGAV",
      "alert": "OK",
      "vis_m": 9999,
      "fzfg": false,
      "metar_trigger": false,
      "taf_trigger": false,
      "metar": "METAR LGAV 271520Z 21009KT 9999 SCT025 BKN070 12/09 Q1002 NOSIG",
      "taf": ""
    },
    {
      "icao": "LGTS",
      "alert": "OK",
      "vis_m": 9999,
      "fzfg": false,
      "metar_trigger": false,
      "taf_trigger": false,
      "metar": "METAR LGTS 271520Z 16012KT 9999 SCT018TCU SCT025 15/05 Q0998 NOSIG",
      "taf": "TAF LGTS 271100Z 2712/2812 18015KT 9999 BKN030"
    },
    {
      "icao": "LHBP",
      "alert": "OK",
      "vis_m": 9999,
      "fzfg": false,
      "metar_trigger": false,
      "taf_trigger": false,
      "metar": "METAR LHBP 271500Z 36014KT 9999 -SHRA NSC 11/02 Q1005 NOSIG",
      "taf": "TAF LHBP 271115Z 2712/2812 02018G28KT CAVOK"
    },
    {
      "icao": "LHDC",
      "alert": "OK",
      "vis_m": 9999,
      "fzfg": false,
      "metar_trigger": false,
      "taf_trigger": false,
      "metar": "METAR LHDC 271445Z AUTO 02018KT 350V060 CAVOK 13/04 Q1003 NOSIG",
      "taf": "TAF LHDC 271415Z 2715/2724 02022G32KT CAVOK"
    },
    {
      "icao": "LIBD",
      "alert": "OK",
      "vis_m": 9999,
      "fzfg": false,
      "metar_trigger": false,
      "taf_trigger": false,
      "metar": "METAR LIBD 271520Z 29012KT 9999 -RA SCT010 BKN020 08/06 Q0999 RERA",
      "taf": "TAF LIBD 271100Z 2712/2812 29015KT 9999 FEW020"
    },
    {
      "icao": "LIBG",
      "alert": "OK",
      "vis_m": 9999,
      "fzfg": false,
      "metar_trigger": false,
      "taf_trigger": false,
      "metar": "METAR LIBG 271450Z 32007KT 260V360 9999 BKN030 11/05 Q0999",
      "taf": "TAF LIBG 271400Z 2715/2724 30010KT 9999 SCT030"
    },
    {
      "icao": "LIBP",
      "alert": "OK",
      "vis_m": 4600,
      "fzfg": false,
      "metar_trigger": false,
      "taf_trigger": false,
      "metar": "METAR LIBP 271520Z AUTO 32012KT 4600 +RA BKN024/// 07/05 Q1006",
      "taf": "TAF LIBP 271100Z 2712/2812 33015KT 9999 BKN020"
    },
    {
      "icao": "LIBR",
      "alert": "OK",
      "vis_m": 9999,
      "fzfg": false,
      "metar_trigger": false,
      "taf_trigger": false,
      "metar": "METAR LIBR 271520Z 31011KT 9999 VCSH BKN030 11/05 Q0999",
      "taf": "TAF LIBR 271100Z 2712/2812 33015KT 9999 BKN030"
    },
    {
      "icao": "LICA",
      "alert": "OK",
      "vis_m": 9999,
      "fzfg": false,
      "metar_trigger": false,
      "taf_trigger": false,
      "metar": "METAR LICA 271520Z AUTO 23015KT 9999 SCT037/// BKN082/// BKN100/// 11/06 Q1002",
      "taf": ""
    },
    {
      "icao": "LICC",
      "alert": "OK",
      "vis_m": 9999,
      "fzfg": false,
      "metar_trigger": false,
      "taf_trigger": false,
      "metar": "METAR LICC 271520Z 29016KT 9999 FEW020 SCT060 16/11 Q1002",
      "taf": "TAF LICC 271100Z 2712/2812 28020G30KT CAVOK"
    },
    {
      "icao": "LICJ",
      "alert": "OK",
      "vis_m": 9999,
      "fzfg": false,
      "metar_trigger": false,
      "taf_trigger": false,
      "metar": "METAR LICJ 271520Z 31017KT 9999 SCT040 BKN060 13/05 Q1005",
      "taf": "TAF LICJ 271100Z 2712/2812 30020G30KT 9999 SCT030"
    },
    {
      "icao": "LIMC",
      "alert": "OK",
      "vis_m": 9999,
      "fzfg": false,
      "metar_trigger": false,
      "taf_trigger": false,
      "metar": "METAR LIMC 271520Z 01009KT 320V060 CAVOK 15/M11 Q1009 NOSIG",
      "taf": "TAF LIMC 271100Z 2712/2818 35013KT CAVOK"
    },
    {
      "icao": "LIME",
      "alert": "OK",
      "vis_m": 9999,
      "fzfg": false,
      "metar_trigger": false,
      "taf_trigger": false,
      "metar": "METAR LIME 271520Z 26007KT 220V280 9999 FEW090 15/M08 Q1008 NOSIG",
      "taf": "TAF LIME 271100Z 2712/2812 25010KT CAVOK"
    },
    {
      "icao": "LIMF",
      "alert": "OK",
      "vis_m": 9999,
      "fzfg": false,
      "metar_trigger": false,
      "taf_trigger": false,
      "metar": "METAR LIMF 271520Z VRB02KT CAVOK 15/M08 Q1009",
      "taf": "TAF LIMF 271100Z 2712/2812 VRB05KT CAVOK"
    },
    {
      "icao": "LIMJ",
      "alert": "OK",
      "vis_m": 9999,
      "fzfg": false,
      "metar_trigger": false,
      "taf_trigger": false,
      "metar": "METAR LIMJ 271520Z 35016KT 320V020 CAVOK 17/M10 Q1008",
      "taf": "TAF LIMJ 271100Z 2712/2812 35020G30KT CAVOK"
    },
    {
      "icao": "LIPE",
      "alert": "OK",
      "vis_m": 9999,
      "fzfg": false,
      "metar_trigger": false,
      "taf_trigger": false,
      "metar": "METAR LIPE 271520Z 28007KT CAVOK 13/01 Q1008",
      "taf": "TAF LIPE 271100Z 2712/2812 28010KT 9999 SCT070"
    },
    {
      "icao": "LIPH",
      "alert": "OK",
      "vis_m": 9999,
      "fzfg": false,
      "metar_trigger": false,
      "taf_trigger": false,
      "metar": "METAR LIPH 271520Z 23006KT CAVOK 15/02 Q1006",
      "taf": "TAF LIPH 271100Z 2712/2812 27012KT 9999 BKN070"
    },
    {
      "icao": "LIPQ",
      "alert": "OK",
      "vis_m": 9999,
      "fzfg": false,
      "metar_trigger": false,
      "taf_trigger": false,
      "metar": "METAR LIPQ 271520Z AUTO VRB02KT 9999 NCD 17/M02 Q1006",
      "taf": "TAF LIPQ 271100Z 2712/2812 33010KT 9999 SCT070"
    },
    {
      "icao": "LIPR",
      "alert": "OK",
      "vis_m": 9999,
      "fzfg": false,
      "metar_trigger": false,
      "taf_trigger": false,
      "metar": "METAR LIPR 271520Z VRB02KT 9999 SCT070 09/03 Q1008",
      "taf": "TAF LIPR 271100Z 2712/2812 02016KT 9999 BKN030"
    },
    {
      "icao": "LIPX",
      "alert": "OK",
      "vis_m": 9999,
      "fzfg": false,
      "metar_trigger": false,
      "taf_trigger": false,
      "metar": "METAR LIPX 271520Z 33011KT 300V360 CAVOK 16/M06 Q1007",
      "taf": "TAF LIPX 271100Z 2712/2812 32010KT CAVOK"
    },
    {
      "icao": "LIPY",
      "alert": "OK",
      "vis_m": 9999,
      "fzfg": false,
      "metar_trigger": false,
      "taf_trigger": false,
      "metar": "METAR LIPY 271520Z AUTO 36009KT 9999 -RA OVC032/// 08/05 Q1008",
      "taf": "TAF LIPY 271100Z 2712/2812 01020G30KT 9999 FEW020 OVC030"
    },
    {
      "icao": "LIPZ",
      "alert": "OK",
      "vis_m": 9999,
      "fzfg": false,
      "metar_trigger": false,
      "taf_trigger": false,
      "metar": "METAR LIPZ 271520Z 28007KT 250V310 CAVOK 16/M02 Q1006 NOSIG",
      "taf": "TAF LIPZ 271100Z 2712/2818 30010KT 9999 FEW050 BKN070"
    },
    {
      "icao": "LIRF",
      "alert": "OK",
      "vis_m": 9999,
      "fzfg": false,
      "metar_trigger": false,
      "taf_trigger": false,
      "metar": "METAR LIRF 271520Z 36022KT CAVOK 12/02 Q1003 NOSIG",
      "taf": "TAF LIRF 271100Z 2712/2818 01023G35KT CAVOK"
    },
    {
      "icao": "LIRN",
      "alert": "OK",
      "vis_m": 9999,
      "fzfg": false,
      "metar_trigger": false,
      "taf_trigger": false,
      "metar": "METAR LIRN 271520Z 03008KT 9999 BKN060 13/M00 Q1002 TEMPO SHRA",
      "taf": "TAF LIRN 271100Z 2712/2812 VRB06KT 9999 SCT050"
    },
    {
      "icao": "LIRP",
      "alert": "OK",
      "vis_m": 9999,
      "fzfg": false,
      "metar_trigger": false,
      "taf_trigger": false,
      "metar": "METAR LIRP 271515Z 29005KT 9999 BKN080 14/M06 Q1008 NOSIG",
      "taf": "TAF LIRP 271100Z 2712/2812 09010KT CAVOK"
    },
    {
      "icao": "LIRZ",
      "alert": "OK",
      "vis_m": 9999,
      "fzfg": false,
      "metar_trigger": false,
      "taf_trigger": false,
      "metar": "METAR LIRZ 271520Z AUTO 33007KT 310V010 9999 BKN027/// 07/03 Q1007",
      "taf": "TAF LIRZ 271100Z 2712/2812 35012KT 9999 FEW020"
    },
    {
      "icao": "LJLJ",
      "alert": "OK",
      "vis_m": 9999,
      "fzfg": false,
      "metar_trigger": false,
      "taf_trigger": false,
      "metar": "METAR LJLJ 271500Z 33013KT 300V360 9999 FEW060 SCT220 10/M06 Q1007 WS ALL RWY NOSIG",
      "taf": "TAF LJLJ 271100Z 2712/2812 33015G30KT 9999 FEW060 SCT090"
    },
    {
      "icao": "LKMT",
      "alert": "OK",
      "vis_m": 9999,
      "fzfg": false,
      "metar_trigger": false,
      "taf_trigger": false,
      "metar": "METAR LKMT 271500Z 03016KT 9999 -RA FEW024 OVC042 03/01 Q1016 NOSIG",
      "taf": "TAF LKMT 271100Z 2712/2812 01015KT 9999 BKN030"
    },
    {
      "icao": "LKPR",
      "alert": "OK",
      "vis_m": 9999,
      "fzfg": false,
      "metar_trigger": false,
      "taf_trigger": false,
      "metar": "METAR LKPR 271500Z 30013KT 290V350 CAVOK 06/M05 Q1019 NOSIG",
      "taf": "TAF LKPR 271400Z 2715/2821 31008KT CAVOK"
    },
    {
      "icao": "LLBG",
      "alert": "OK",
      "vis_m": 9999,
      "fzfg": false,
      "metar_trigger": false,
      "taf_trigger": false,
      "metar": "METAR LLBG 271520Z 24008KT 9999 SCT025 17/12 Q1014 NOSIG",
      "taf": "TAF LLBG 271105Z 2712/2812 25015KT 9999 SCT030 TX18/2712Z TN09/2803Z"
    },
    {
      "icao": "LMML",
      "alert": "OK",
      "vis_m": 9999,
      "fzfg": false,
      "metar_trigger": false,
      "taf_trigger": false,
      "metar": "METAR LMML 271515Z 28020KT 9999 FEW028 13/07 Q1006 NOSIG",
      "taf": "TAF LMML 271100Z 2712/2812 29020G30KT 9999 SCT025"
    },
    {
      "icao": "LOWW",
      "alert": "OK",
      "vis_m": 9999,
      "fzfg": false,
      "metar_trigger": false,
      "taf_trigger": false,
      "metar": "METAR LOWW 271520Z 35020KT 9999 -RA FEW024 SCT028 BKN042 05/01 Q1015 TEMPO 35020G30KT",
      "taf": "TAF LOWW 271415Z 2715/2821 33018KT 9999 FEW020 BKN030 TX09/2815Z TN03/2806Z"
    },
    {
      "icao": "LPFR",
      "alert": "OK",
      "vis_m": 9999,
      "fzfg": false,
      "metar_trigger": false,
      "taf_trigger": false,
      "metar": "METAR LPFR 271500Z 16007KT 130V190 CAVOK 19/10 Q1014",
      "taf": "TAF LPFR 271100Z 2712/2812 12012KT CAVOK"
    },
    {
      "icao": "LPMA",
      "alert": "OK",
      "vis_m": 9999,
      "fzfg": false,
      "metar_trigger": false,
      "taf_trigger": false,
      "metar": "METAR LPMA 271500Z 01017KT 330V040 9999 FEW016 19/09 Q1017",
      "taf": "TAF LPMA 271100Z 2712/2812 01015KT 9999 SCT015"
    },
    {
      "icao": "LPPR",
      "alert": "OK",
      "vis_m": 9999,
      "fzfg": false,
      "metar_trigger": false,
      "taf_trigger": false,
      "metar": "METAR LPPR 271500Z 32008KT 290V360 CAVOK 17/09 Q1019",
      "taf": "TAF LPPR 271100Z 2712/2812 10008KT CAVOK"
    },
    {
      "icao": "LPPS",
      "alert": "OK",
      "vis_m": 9999,
      "fzfg": false,
      "metar_trigger": false,
      "taf_trigger": false,
      "metar": "METAR LPPS 271500Z 01013KT 9999 SCT015 BKN030 17/12 Q1018",
      "taf": "TAF LPPS 271100Z 2712/2818 01015KT 9999 SCT015 SCT030"
    },
    {
      "icao": "LPPT",
      "alert": "OK",
      "vis_m": 9999,
      "fzfg": false,
      "metar_trigger": false,
      "taf_trigger": false,
      "metar": "METAR LPPT 271500Z 06010G25KT 280V090 CAVOK 20/06 Q1016",
      "taf": "TAF LPPT 271100Z 2712/2818 05012KT CAVOK"
    },
    {
      "icao": "LQBK",
      "alert": "OK",
      "vis_m": 9999,
      "fzfg": false,
      "metar_trigger": false,
      "taf_trigger": false,
      "metar": "METAR LQBK 271500Z 29012KT 9999 RA FEW009 BKN017 OVC030 04/02 Q1005 NOSIG",
      "taf": ""
    },
    {
      "icao": "LQSA",
      "alert": "OK",
      "vis_m": 9999,
      "fzfg": false,
      "metar_trigger": false,
      "taf_trigger": false,
      "metar": "METAR LQSA 271500Z 01004KT 330V040 9999 SCT010 BKN035 03/01 Q1003 NOSIG",
      "taf": "TAF LQSA 271100Z 2712/2812 28005KT 8000 FEW005 SCT020 BKN035 TX03/2713Z TN00/2806Z"
    },
    {
      "icao": "LQTZ",
      "alert": "OK",
      "vis_m": 2000,
      "fzfg": false,
      "metar_trigger": false,
      "taf_trigger": false,
      "metar": "METAR LQTZ 271500Z 34006KT 2000 -SN BR BKN016 01/01 Q1004",
      "taf": "TAF LQTZ 271100Z 2712/2812 29007KT 7000 RA SCT010 BKN015 OVC020 TX03/2812Z TN00/2805Z"
    },
    {
      "icao": "LRBC",
      "alert": "OK",
      "vis_m": 9999,
      "fzfg": false,
      "metar_trigger": false,
      "taf_trigger": false,
      "metar": "METAR LRBC 271500Z 33008KT 9999 OVC036 09/04 Q1009",
      "taf": "TAF LRBC 271400Z 2715/2724 VRB04KT 9999 OVC035"
    },
    {
      "icao": "LRBS",
      "alert": "OK",
      "vis_m": 9999,
      "fzfg": false,
      "metar_trigger": false,
      "taf_trigger": false,
      "metar": "METAR LRBS 271500Z 05018G28KT 9999 BKN032 11/05 Q1003 NOSIG",
      "taf": "TAF LRBS 271100Z 2712/2812 08020KT 9999 BKN035"
    },
    {
      "icao": "LRBV",
      "alert": "OK",
      "vis_m": 9999,
      "fzfg": false,
      "metar_trigger": false,
      "taf_trigger": false,
      "metar": "METAR LRBV 271500Z 12019KT 9999 FEW077 12/M02 Q1002",
      "taf": "TAF LRBV 271400Z 2715/2724 11020KT CAVOK"
    },
    {
      "icao": "LRCL",
      "alert": "OK",
      "vis_m": 9999,
      "fzfg": false,
      "metar_trigger": false,
      "taf_trigger": false,
      "metar": "METAR LRCL 271500Z 12013KT 9999 FEW069 15/00 Q1001",
      "taf": "TAF LRCL 271400Z 2715/2724 11012KT CAVOK"
    },
    {
      "icao": "LRCV",
      "alert": "OK",
      "vis_m": 9999,
      "fzfg": false,
      "metar_trigger": false,
      "taf_trigger": false,
      "metar": "METAR LRCV 271500Z 07019KT 9999 -RA OVC031 10/08 Q0999 RERA",
      "taf": "TAF LRCV 271400Z 2715/2724 07020KT 9999 BKN045"
    },
    {
      "icao": "LRIA",
      "alert": "OK",
      "vis_m": 9999,
      "fzfg": false,
      "metar_trigger": false,
      "taf_trigger": false,
      "metar": "METAR LRIA 271500Z VRB02KT 9999 FEW039 11/03 Q1009",
      "taf": "TAF LRIA 271400Z 2715/2724 14006KT 9999 BKN035"
    },
    {
      "icao": "LROP",
      "alert": "OK",
      "vis_m": 9999,
      "fzfg": false,
      "metar_trigger": false,
      "taf_trigger": false,
      "metar": "METAR LROP 271500Z 06024KT 9999 OVC032 11/02 Q1003 NOSIG",
      "taf": "TAF LROP 271100Z 2712/2812 08020KT 9999 BKN035"
    },
    {
      "icao": "LRSB",
      "alert": "OK",
      "vis_m": 9999,
      "fzfg": false,
      "metar_trigger": false,
      "taf_trigger": false,
      "metar": "METAR LRSB 271500Z 07004KT 9999 FEW060 BKN070 13/00 Q1001",
      "taf": "TAF LRSB 271100Z 2712/2812 VRB04KT 9999 BKN070"
    },
    {
      "icao": "LRSM",
      "alert": "OK",
      "vis_m": 9999,
      "fzfg": false,
      "metar_trigger": false,
      "taf_trigger": false,
      "metar": "METAR LRSM 271500Z 07014KT CAVOK 15/01 Q1003",
      "taf": "TAF LRSM 271400Z 2715/2724 08014KT CAVOK"
    },
    {
      "icao": "LRSV",
      "alert": "OK",
      "vis_m": 9999,
      "fzfg": false,
      "metar_trigger": false,
      "taf_trigger": false,
      "metar": "METAR LRSV 271500Z 15005KT 110V170 9999 OVC018 06/02 Q1009",
      "taf": "TAF LRSV 271400Z 2715/2724 14010KT 9999 OVC015"
    },
    {
      "icao": "LRTM",
      "alert": "OK",
      "vis_m": 9999,
      "fzfg": false,
      "metar_trigger": false,
      "taf_trigger": false,
      "metar": "METAR LRTM 271500Z 11011KT 9999 FEW030 15/00 Q1002",
      "taf": "TAF LRTM 271400Z 2715/2724 11014KT CAVOK"
    },
    {
      "icao": "LRTR",
      "alert": "OK",
      "vis_m": 9999,
      "fzfg": false,
      "metar_trigger": false,
      "taf_trigger": false,
      "metar": "METAR LRTR 271500Z 22007KT CAVOK 11/07 Q1001",
      "taf": "TAF LRTR 271100Z 2712/2812 VRB04KT 9999 BKN045"
    },
    {
      "icao": "LTAC",
      "alert": "OK",
      "vis_m": 9999,
      "fzfg": false,
      "metar_trigger": false,
      "taf_trigger": false,
      "metar": "METAR LTAC 271520Z 26005KT 230V290 9999 FEW040 14/02 Q1007 NOSIG RMK RWY21C 21004KT 170V250 RWY03L 26005KT RWY21R 21005KT 170V230 RWY03R 24004KT 180V300 RWY21L VRB02KT",
      "taf": "TAF LTAC 271040Z 2712/2812 VRB02KT 9999 FEW040"
    },
    {
      "icao": "LTFM",
      "alert": "OK",
      "vis_m": 9999,
      "fzfg": false,
      "metar_trigger": false,
      "taf_trigger": false,
      "metar": "METAR LTFM 271520Z 17008KT 9999 -SHRA BKN040 BKN080 17/06 Q1004 NOSIG RMK RWY17L 08008KT 040V120 RWY34L 16007KT 120V180 RWY16R 06008KT 020V080 RWY36 16010KT RWY18 09006KT",
      "taf": "TAF LTFM 271040Z 2712/2818 19014KT 9999 SCT040 BKN100"
    },
    {
      "icao": "LUKK",
      "alert": "OK",
      "vis_m": 9999,
      "fzfg": false,
      "metar_trigger": false,
      "taf_trigger": false,
      "metar": "METAR LUKK 271500Z 10005KT CAVOK 15/05 Q1008 NOSIG",
      "taf": "TAF LUKK 271118Z 2712/2812 VRB06KT 9999 SCT040"
    },
    {
      "icao": "LWOH",
      "alert": "OK",
      "vis_m": 9999,
      "fzfg": false,
      "metar_trigger": false,
      "taf_trigger": false,
      "metar": "METAR LWOH 271520Z 28007KT 240V310 9999 FEW030TCU SCT040 BKN080 07/03 Q0999",
      "taf": "TAF LWOH 271430Z 2715/2815 17008KT 9999 SCT040 BKN080"
    },
    {
      "icao": "LWSK",
      "alert": "OK",
      "vis_m": 9999,
      "fzfg": false,
      "metar_trigger": false,
      "taf_trigger": false,
      "metar": "METAR LWSK 271520Z VRB03KT 9999 SCT020 BKN040 BKN070 09/05 Q1000 NOSIG",
      "taf": "TAF LWSK 271430Z 2715/2815 06005KT 9999 BKN040 BKN070"
    },
    {
      "icao": "LYBE",
      "alert": "OK",
      "vis_m": 8000,
      "fzfg": false,
      "metar_trigger": false,
      "taf_trigger": false,
      "metar": "METAR LYBE 271500Z 22006KT 8000 -RA SCT007 BKN023 07/06 Q1002 NOSIG",
      "taf": "TAF LYBE 271100Z 2712/2812 11008KT 9999 SCT015 BKN040 TX10/2712Z TN05/2805Z"
    },
    {
      "icao": "LYNI",
      "alert": "OK",
      "vis_m": 9999,
      "fzfg": false,
      "metar_trigger": false,
      "taf_trigger": false,
      "metar": "METAR LYNI 271500Z 09010KT 9999 FEW030 BKN077 10/05 Q1000 NOSIG",
      "taf": "TAF LYNI 271100Z 2712/2812 04007KT 9999 FEW013 BKN040 TX10/2712Z TN05/2806Z"
    },
    {
      "icao": "LYPG",
      "alert": "OK",
      "vis_m": 9999,
      "fzfg": false,
      "metar_trigger": false,
      "taf_trigger": false,
      "metar": "METAR LYPG 271500Z 23005KT 200V270 9999 SCT040 13/04 Q0999 NOSIG",
      "taf": "TAF LYPG 271100Z 2712/2812 18007KT 9999 SCT034 SCT080 TX14/2812Z TN05/2805Z"
    },
    {
      "icao": "LZIB",
      "alert": "OK",
      "vis_m": 9999,
      "fzfg": false,
      "metar_trigger": false,
      "taf_trigger": false,
      "metar": "METAR LZIB 271500Z 35018KT 9999 -RA SCT025 BKN040 05/01 Q1012 NOSIG",
      "taf": "TAF LZIB 271115Z 2712/2812 35018KT 9999 FEW016 SCT035"
    },
    {
      "icao": "LZKZ",
      "alert": "OK",
      "vis_m": 9999,
      "fzfg": false,
      "metar_trigger": false,
      "taf_trigger": false,
      "metar": "METAR LZKZ 271500Z 36025G35KT 9999 BKN028 06/02 Q1008 NOSIG",
      "taf": "TAF LZKZ 271115Z 2712/2812 01022KT 9999 FEW020 SCT030"
    },
    {
      "icao": "LZTT",
      "alert": "OK",
      "vis_m": 9999,
      "fzfg": false,
      "metar_trigger": false,
      "taf_trigger": false,
      "metar": "METAR LZTT 271500Z 06019KT 9999 -RA FEW026 OVC050 04/M01 Q1008 NOSIG",
      "taf": "TAF LZTT 271115Z 2712/2812 06007KT 9999 FEW006 BKN033"
    },
    {
      "icao": "OEJN",
      "alert": "OK",
      "vis_m": 9999,
      "fzfg": false,
      "metar_trigger": false,
      "taf_trigger": false,
      "metar": "METAR OEJN 271500Z 32015KT CAVOK 26/07 Q1013 NOSIG",
      "taf": "TAF OEJN 271100Z 2712/2818 33012KT 7000 NSC"
    },
    {
      "icao": "OEMA",
      "alert": "OK",
      "vis_m": 9999,
      "fzfg": false,
      "metar_trigger": false,
      "taf_trigger": false,
      "metar": "METAR OEMA 271500Z 28006KT CAVOK 23/01 Q1016 NOSIG",
      "taf": "TAF OEMA 271100Z 2712/2818 33006KT CAVOK"
    },
    {
      "icao": "OJAI",
      "alert": "OK",
      "vis_m": 3500,
      "fzfg": false,
      "metar_trigger": false,
      "taf_trigger": false,
      "metar": "METAR OJAI 271500Z 26016KT 3500 BLDU SCT030 13/09 Q1015 NOSIG",
      "taf": "TAF OJAI 271027Z 2712/2818 26014KT 4000 BR SCT025 SCT030"
    },
    {
      "icao": "OMAA",
      "alert": "OK",
      "vis_m": null,
      "fzfg": false,
      "metar_trigger": false,
      "taf_trigger": false,
      "metar": "",
      "taf": ""
    },
    {
      "icao": "OMDB",
      "alert": "OK",
      "vis_m": null,
      "fzfg": false,
      "metar_trigger": false,
      "taf_trigger": false,
      "metar": "",
      "taf": ""
    },
    {
      "icao": "UAAA",
      "alert": "OK",
      "vis_m": 5000,
      "fzfg": false,
      "metar_trigger": false,
      "taf_trigger": false,
      "metar": "METAR UAAA 271500Z 14002MPS 5000 FU NSC 14/M00 Q1015 NOSIG",
      "taf": "TAF UAAA 271105Z 2712/2812 23003MPS 9999 NSC TX19/2810Z TN05/2801Z"
    },
    {
      "icao": "UBBB",
      "alert": "OK",
      "vis_m": 9999,
      "fzfg": false,
      "metar_trigger": false,
      "taf_trigger": false,
      "metar": "METAR UBBB 271500Z 31024G34KT 9999 -SHRA SCT009 BKN045CB OVC045 13/12 Q1000 NOSIG",
      "taf": "TAF UBBB 271051Z 2712/2812 30016KT 6000 -SHRA BKN006 SCT030CB OVC030 TX11/2713Z TN10/2802Z"
    },
    {
      "icao": "UDSG",
      "alert": "OK",
      "vis_m": 9999,
      "fzfg": false,
      "metar_trigger": false,
      "taf_trigger": false,
      "metar": "METAR UDSG 271500Z 28002KT 9999 SCT033CB OVC046 07/04 Q1005 NOSIG",
      "taf": "TAF UDSG 271058Z 2712/2812 06006KT 9999 BKN040"
    },
    {
      "icao": "UDYZ",
      "alert": "OK",
      "vis_m": 9999,
      "fzfg": false,
      "metar_trigger": false,
      "taf_trigger": false,
      "metar": "METAR UDYZ 271500Z 36005KT 9999 -SHRA OVC040CB 10/06 Q1003 NOSIG",
      "taf": "TAF UDYZ 271100Z 2712/2812 16006KT 9999 BKN040"
    },
    {
      "icao": "UGKO",
      "alert": "OK",
      "vis_m": 9999,
      "fzfg": false,
      "metar_trigger": false,
      "taf_trigger": false,
      "metar": "METAR UGKO 271500Z 25008KT 9999 SCT029 OVC035 10/08 Q1009 NOSIG",
      "taf": "TAF UGKO 271100Z 2712/2812 26006KT 9999 SCT022 OVC050 TX19/2811Z TN07/2803Z"
    }
  ]
}