{
  "ts_utc": "2026-06-19T06:58:06Z",
  "threshold_m": 150,
  "source": "stations_override.txt (ICAO list) + aviationweather.gov (METAR/TAF raw)",
  "station_count": 159,
  "stations": [
    {
      "icao": "BIKF",
      "alert": "OK",
      "vis_m": 9999,
      "fzfg": false,
      "metar_trigger": false,
      "taf_trigger": false,
      "metar": "METAR BIKF 190630Z 03012KT CAVOK 09/04 Q1000",
      "taf": "TAF BIKF 190449Z 1906/2006 04013KT 9999 SCT040 TX15/1915Z TN08/2006Z"
    },
    {
      "icao": "BKPR",
      "alert": "OK",
      "vis_m": null,
      "fzfg": false,
      "metar_trigger": false,
      "taf_trigger": false,
      "metar": "",
      "taf": "TAF BKPR 190530Z 1906/2006 01008KT 9999 FEW050"
    },
    {
      "icao": "EBCI",
      "alert": "OK",
      "vis_m": 9999,
      "fzfg": false,
      "metar_trigger": false,
      "taf_trigger": false,
      "metar": "METAR EBCI 190650Z 18006KT CAVOK 24/17 Q1015 NOSIG",
      "taf": "TAF EBCI 190510Z 1906/2012 20006KT CAVOK"
    },
    {
      "icao": "EDDB",
      "alert": "OK",
      "vis_m": 9999,
      "fzfg": false,
      "metar_trigger": false,
      "taf_trigger": false,
      "metar": "METAR EDDB 190650Z AUTO 13004KT 070V180 CAVOK 27/19 Q1018 NOSIG",
      "taf": "TAF EDDB 190500Z 1906/2006 14005KT CAVOK"
    },
    {
      "icao": "EDDH",
      "alert": "OK",
      "vis_m": 9999,
      "fzfg": false,
      "metar_trigger": false,
      "taf_trigger": false,
      "metar": "METAR EDDH 190650Z AUTO 09010KT 9999 +SHRA FEW028 FEW///CB 19/18 Q1015 RETS BECMG 09005KT NSW",
      "taf": "TAF EDDH 190500Z 1906/2012 11004KT CAVOK"
    },
    {
      "icao": "EDDK",
      "alert": "OK",
      "vis_m": 9999,
      "fzfg": false,
      "metar_trigger": false,
      "taf_trigger": false,
      "metar": "METAR EDDK 190650Z AUTO 11004KT 060V140 9999 -SHRA FEW///TCU 24/18 Q1016 NOSIG",
      "taf": "TAF EDDK 190500Z 1906/2012 11004KT CAVOK"
    },
    {
      "icao": "EDDN",
      "alert": "OK",
      "vis_m": 9999,
      "fzfg": false,
      "metar_trigger": false,
      "taf_trigger": false,
      "metar": "METAR EDDN 190650Z AUTO 14006KT 100V170 CAVOK 27/16 Q1019 NOSIG",
      "taf": "TAF EDDN 190500Z 1906/2006 15006KT CAVOK"
    },
    {
      "icao": "EDDS",
      "alert": "OK",
      "vis_m": 9999,
      "fzfg": false,
      "metar_trigger": false,
      "taf_trigger": false,
      "metar": "METAR EDDS 190650Z AUTO VRB01KT CAVOK 28/16 Q1019 NOSIG",
      "taf": "TAF EDDS 190500Z 1906/2006 VRB03KT CAVOK"
    },
    {
      "icao": "EDFH",
      "alert": "OK",
      "vis_m": 9999,
      "fzfg": false,
      "metar_trigger": false,
      "taf_trigger": false,
      "metar": "METAR EDFH 190650Z 14009KT CAVOK 25/15 Q1019",
      "taf": "TAF EDFH 190500Z 1906/2006 13006KT CAVOK"
    },
    {
      "icao": "EDJA",
      "alert": "OK",
      "vis_m": 9999,
      "fzfg": false,
      "metar_trigger": false,
      "taf_trigger": false,
      "metar": "METAR EDJA 190650Z 21005KT CAVOK 24/15 Q1021",
      "taf": "TAF EDJA 190500Z 1906/1915 22004KT CAVOK"
    },
    {
      "icao": "EDLW",
      "alert": "OK",
      "vis_m": 9999,
      "fzfg": false,
      "metar_trigger": false,
      "taf_trigger": false,
      "metar": "METAR EDLW 190650Z 07004KT 030V110 CAVOK 24/17 Q1016",
      "taf": "TAF EDLW 190500Z 1906/2006 VRB03KT CAVOK"
    },
    {
      "icao": "EDNY",
      "alert": "OK",
      "vis_m": 9999,
      "fzfg": false,
      "metar_trigger": false,
      "taf_trigger": false,
      "metar": "METAR EDNY 190650Z 07003KT 040V100 CAVOK 23/18 Q1020",
      "taf": "TAF EDNY 190500Z 1906/1915 VRB03KT CAVOK"
    },
    {
      "icao": "EDSB",
      "alert": "OK",
      "vis_m": 9999,
      "fzfg": false,
      "metar_trigger": false,
      "taf_trigger": false,
      "metar": "METAR EDSB 190650Z 18004KT 150V210 CAVOK 26/18 Q1018",
      "taf": "TAF EDSB 190500Z 1906/2006 VRB03KT CAVOK"
    },
    {
      "icao": "EETN",
      "alert": "OK",
      "vis_m": 9999,
      "fzfg": false,
      "metar_trigger": false,
      "taf_trigger": false,
      "metar": "METAR EETN 190650Z 33006KT 290V360 CAVOK 17/12 Q1014 NOSIG",
      "taf": "TAF EETN 190530Z 1906/2006 32010KT CAVOK"
    },
    {
      "icao": "EFTU",
      "alert": "OK",
      "vis_m": 9999,
      "fzfg": false,
      "metar_trigger": false,
      "taf_trigger": false,
      "metar": "METAR EFTU 190650Z AUTO 33004KT 280V070 CAVOK 19/11 Q1014",
      "taf": "TAF EFTU 190527Z 1906/2006 33003KT CAVOK"
    },
    {
      "icao": "EGBB",
      "alert": "OK",
      "vis_m": 9999,
      "fzfg": false,
      "metar_trigger": false,
      "taf_trigger": false,
      "metar": "METAR EGBB 190650Z 22007KT 180V260 9999 BKN013 18/14 Q1011",
      "taf": "TAF EGBB 190458Z 1906/2006 19005KT 9000 FEW045"
    },
    {
      "icao": "EGGP",
      "alert": "OK",
      "vis_m": 9999,
      "fzfg": false,
      "metar_trigger": false,
      "taf_trigger": false,
      "metar": "METAR EGGP 190650Z 16008KT 140V210 9999 SCT027 19/15 Q1009",
      "taf": "TAF EGGP 190455Z 1906/2006 16007KT 9999 FEW025"
    },
    {
      "icao": "EGGW",
      "alert": "OK",
      "vis_m": 9999,
      "fzfg": false,
      "metar_trigger": false,
      "taf_trigger": false,
      "metar": "METAR EGGW 190650Z AUTO 25006KT 9999 NCD 20/15 Q1012",
      "taf": "TAF EGGW 190457Z 1906/2006 23008KT 9999 FEW030"
    },
    {
      "icao": "EGKK",
      "alert": "OK",
      "vis_m": 9999,
      "fzfg": false,
      "metar_trigger": false,
      "taf_trigger": false,
      "metar": "METAR EGKK 190650Z 29003KT 240V330 CAVOK 20/17 Q1012",
      "taf": ""
    },
    {
      "icao": "EGNM",
      "alert": "OK",
      "vis_m": 9999,
      "fzfg": false,
      "metar_trigger": false,
      "taf_trigger": false,
      "metar": "METAR EGNM 190650Z 22008KT 9999 SCT015 17/14 Q1010",
      "taf": "TAF EGNM 190454Z 1906/2006 20009KT 9999 FEW025"
    },
    {
      "icao": "EGPD",
      "alert": "OK",
      "vis_m": 9999,
      "fzfg": false,
      "metar_trigger": false,
      "taf_trigger": false,
      "metar": "METAR EGPD 190650Z 16007KT 120V190 9999 SCT013 SCT020 17/14 Q1004",
      "taf": "TAF EGPD 190459Z 1906/2006 17010KT 9999 SCT012 BKN020"
    },
    {
      "icao": "EGPF",
      "alert": "OK",
      "vis_m": 8000,
      "fzfg": false,
      "metar_trigger": false,
      "taf_trigger": false,
      "metar": "METAR EGPF 190650Z AUTO 19015G25KT 8000 -RA OVC010 16/15 Q1004",
      "taf": "TAF EGPF 190450Z 1906/2006 18005KT 9999 SCT010 BKN025"
    },
    {
      "icao": "EHBK",
      "alert": "OK",
      "vis_m": 9999,
      "fzfg": false,
      "metar_trigger": false,
      "taf_trigger": false,
      "metar": "METAR EHBK 190625Z AUTO 14003KT 9999 NCD 23/19 Q1015 NOSIG",
      "taf": "TAF EHBK 190511Z 1906/2012 22004KT 9999 FEW045"
    },
    {
      "icao": "EHEH",
      "alert": "OK",
      "vis_m": 9999,
      "fzfg": false,
      "metar_trigger": false,
      "taf_trigger": false,
      "metar": "METAR EHEH 190625Z AUTO 12005KT 050V160 9999 OVC078 23/19 Q1014 BLU NOSIG RMK TREND REMOTE BY EHWX",
      "taf": "TAF EHEH 190506Z 1906/2012 VRB02KT CAVOK"
    },
    {
      "icao": "EKBI",
      "alert": "OK",
      "vis_m": 9999,
      "fzfg": false,
      "metar_trigger": false,
      "taf_trigger": false,
      "metar": "METAR EKBI 190650Z AUTO 19006KT 160V240 9999 NCD 22/17 Q1016",
      "taf": "TAF EKBI 190527Z 1906/2006 VRB02KT 9999 SCT020"
    },
    {
      "icao": "EKCH",
      "alert": "OK",
      "vis_m": 9999,
      "fzfg": false,
      "metar_trigger": false,
      "taf_trigger": false,
      "metar": "METAR EKCH 190650Z AUTO 15007KT 9999 FEW130/// BKN150/// 18/15 Q1018 NOSIG",
      "taf": "TAF EKCH 190527Z 1906/2006 15010KT 9999 SCT040"
    },
    {
      "icao": "ENAL",
      "alert": "OK",
      "vis_m": 9999,
      "fzfg": false,
      "metar_trigger": false,
      "taf_trigger": false,
      "metar": "METAR ENAL 190650Z 01005KT 330V040 9999 BKN044 13/12 Q1009",
      "taf": "TAF ENAL 190500Z 1906/1915 11005KT 9999 FEW020 BKN045"
    },
    {
      "icao": "ENBR",
      "alert": "OK",
      "vis_m": 4000,
      "fzfg": false,
      "metar_trigger": false,
      "taf_trigger": false,
      "metar": "METAR ENBR 190650Z 13009KT 4000 DZ SCT005 BKN009 13/13 Q1010 TEMPO SHRA BR BKN004 SCT015CB RMK WIND 1200FT 14015KT",
      "taf": "TAF ENBR 190500Z 1906/2006 16012KT 9999 -SHRA FEW003 SCT006 BKN020"
    },
    {
      "icao": "ENGM",
      "alert": "OK",
      "vis_m": 9999,
      "fzfg": false,
      "metar_trigger": false,
      "taf_trigger": false,
      "metar": "METAR ENGM 190650Z 18010KT 9999 BKN048 16/13 Q1013 NOSIG",
      "taf": "TAF ENGM 190500Z 1906/2006 20008KT 9999 BKN050"
    },
    {
      "icao": "ENHD",
      "alert": "OK",
      "vis_m": 6000,
      "fzfg": false,
      "metar_trigger": false,
      "taf_trigger": false,
      "metar": "METAR ENHD 190650Z 16013KT 6000 -SHRA BKN003 BKN004 BKN006 15/14 Q1011 REDZRA",
      "taf": "TAF ENHD 190500Z 1906/1915 14012KT 9999 -RA FEW005 SCT010 BKN018"
    },
    {
      "icao": "ENTC",
      "alert": "OK",
      "vis_m": 9999,
      "fzfg": false,
      "metar_trigger": false,
      "taf_trigger": false,
      "metar": "METAR ENTC 190650Z 23003KT CAVOK 09/04 Q1010 NOSIG RMK WIND 2600FT 21007KT",
      "taf": "TAF ENTC 190500Z 1906/2006 05003KT CAVOK"
    },
    {
      "icao": "ENTO",
      "alert": "OK",
      "vis_m": 9999,
      "fzfg": false,
      "metar_trigger": false,
      "taf_trigger": false,
      "metar": "METAR ENTO 190650Z 18010KT 9999 FEW037 BKN045 16/13 Q1014 NOSIG",
      "taf": "TAF ENTO 190500Z 1906/2006 22008KT 9999 BKN030"
    },
    {
      "icao": "ENVA",
      "alert": "OK",
      "vis_m": 9999,
      "fzfg": false,
      "metar_trigger": false,
      "taf_trigger": false,
      "metar": "METAR ENVA 190650Z VRB01KT CAVOK 17/12 Q1011 NOSIG RMK WIND 670FT 01002KT",
      "taf": "TAF ENVA 190500Z 1906/2006 10008KT 9999 FEW010 BKN050"
    },
    {
      "icao": "ENZV",
      "alert": "OK",
      "vis_m": 9999,
      "fzfg": false,
      "metar_trigger": false,
      "taf_trigger": false,
      "metar": "METAR ENZV 190650Z 17012KT 9999 OVC010 17/15 Q1011 TEMPO SCT010 BKN020",
      "taf": "TAF ENZV 190500Z 1906/2006 17015KT 8000 -SHRA FEW006 SCT012 BKN020"
    },
    {
      "icao": "EPGD",
      "alert": "OK",
      "vis_m": 9999,
      "fzfg": false,
      "metar_trigger": false,
      "taf_trigger": false,
      "metar": "METAR EPGD 190630Z 27005KT 230V300 CAVOK 20/15 Q1020",
      "taf": "TAF EPGD 190530Z 1906/2006 VRB03KT CAVOK"
    },
    {
      "icao": "EPKK",
      "alert": "OK",
      "vis_m": 9999,
      "fzfg": false,
      "metar_trigger": false,
      "taf_trigger": false,
      "metar": "METAR EPKK 190630Z 20004KT 160V230 9999 FEW063 23/17 Q1021",
      "taf": "TAF EPKK 190530Z 1906/2006 23003KT CAVOK"
    },
    {
      "icao": "EPKT",
      "alert": "OK",
      "vis_m": 9999,
      "fzfg": false,
      "metar_trigger": false,
      "taf_trigger": false,
      "metar": "METAR EPKT 190630Z VRB02KT CAVOK 23/16 Q1021",
      "taf": "TAF EPKT 190530Z 1906/2006 VRB02KT 9999 SCT050"
    },
    {
      "icao": "EPLB",
      "alert": "OK",
      "vis_m": 9999,
      "fzfg": false,
      "metar_trigger": false,
      "taf_trigger": false,
      "metar": "METAR EPLB 190630Z VRB02KT 9999 SCT025 22/16 Q1020",
      "taf": "TAF EPLB 190530Z 1906/2006 VRB03KT 9999 SCT040"
    },
    {
      "icao": "EPMO",
      "alert": "OK",
      "vis_m": 9999,
      "fzfg": false,
      "metar_trigger": false,
      "taf_trigger": false,
      "metar": "METAR EPMO 190630Z COR 09004KT 050V150 9999 FEW019 20/16 Q1021",
      "taf": "TAF EPMO 190530Z 1906/2006 33006KT CAVOK"
    },
    {
      "icao": "EPPO",
      "alert": "OK",
      "vis_m": 9999,
      "fzfg": false,
      "metar_trigger": false,
      "taf_trigger": false,
      "metar": "METAR EPPO 190630Z 13009KT CAVOK 23/18 Q1020",
      "taf": "TAF EPPO 190530Z 1906/2006 VRB02KT CAVOK"
    },
    {
      "icao": "EPRA",
      "alert": "OK",
      "vis_m": 9999,
      "fzfg": false,
      "metar_trigger": false,
      "taf_trigger": false,
      "metar": "METAR EPRA 190630Z 35006KT 300V020 CAVOK 22/16 Q1021",
      "taf": "TAF EPRA 190530Z 1906/1915 31008KT CAVOK"
    },
    {
      "icao": "EPRZ",
      "alert": "OK",
      "vis_m": 9999,
      "fzfg": false,
      "metar_trigger": false,
      "taf_trigger": false,
      "metar": "METAR EPRZ 190630Z 20004KT 170V240 9999 FEW040 21/17 Q1021",
      "taf": "TAF EPRZ 190530Z 1906/2006 VRB02KT 9999 SCT045"
    },
    {
      "icao": "EPSC",
      "alert": "OK",
      "vis_m": 9999,
      "fzfg": false,
      "metar_trigger": false,
      "taf_trigger": false,
      "metar": "METAR EPSC 190630Z 14006KT 120V180 CAVOK 22/17 Q1019",
      "taf": "TAF EPSC 190530Z 1906/2006 13008KT CAVOK"
    },
    {
      "icao": "EPSY",
      "alert": "OK",
      "vis_m": 9999,
      "fzfg": false,
      "metar_trigger": false,
      "taf_trigger": false,
      "metar": "METAR EPSY 190630Z 25005KT 200V290 9999 FEW039 19/12 Q1020",
      "taf": "TAF EPSY 190530Z 1906/1915 VRB02KT CAVOK"
    },
    {
      "icao": "EPWA",
      "alert": "OK",
      "vis_m": 9999,
      "fzfg": false,
      "metar_trigger": false,
      "taf_trigger": false,
      "metar": "METAR EPWA 190630Z 33005KT 300V010 CAVOK 19/16 Q1021 NOSIG",
      "taf": "TAF EPWA 190530Z 1906/2006 32005KT CAVOK"
    },
    {
      "icao": "EPWR",
      "alert": "OK",
      "vis_m": 9999,
      "fzfg": false,
      "metar_trigger": false,
      "taf_trigger": false,
      "metar": "METAR EPWR 190630Z VRB01KT CAVOK 25/18 Q1020",
      "taf": "TAF EPWR 190530Z 1906/2006 15004KT CAVOK"
    },
    {
      "icao": "ESGG",
      "alert": "OK",
      "vis_m": 9999,
      "fzfg": false,
      "metar_trigger": false,
      "taf_trigger": false,
      "metar": "METAR ESGG 190650Z 17006KT CAVOK 19/12 Q1017",
      "taf": "TAF ESGG 190530Z 1906/2006 15005KT CAVOK"
    },
    {
      "icao": "ESKN",
      "alert": "OK",
      "vis_m": 9999,
      "fzfg": false,
      "metar_trigger": false,
      "taf_trigger": false,
      "metar": "METAR ESKN 190650Z 26004KT 220V290 CAVOK 18/13 Q1016",
      "taf": "TAF ESKN 190530Z 1906/2006 27006KT CAVOK"
    },
    {
      "icao": "ESMS",
      "alert": "OK",
      "vis_m": 9999,
      "fzfg": false,
      "metar_trigger": false,
      "taf_trigger": false,
      "metar": "METAR ESMS 190650Z 18005KT CAVOK 20/17 Q1018",
      "taf": "TAF ESMS 190527Z 1906/2006 VRB02KT 9999 FEW035"
    },
    {
      "icao": "ESSA",
      "alert": "OK",
      "vis_m": 9999,
      "fzfg": false,
      "metar_trigger": false,
      "taf_trigger": false,
      "metar": "METAR ESSA 190650Z 16006KT CAVOK 18/09 Q1015 NOSIG",
      "taf": "TAF ESSA 190530Z 1906/2006 16005KT CAVOK"
    },
    {
      "icao": "EYKA",
      "alert": "OK",
      "vis_m": 9999,
      "fzfg": false,
      "metar_trigger": false,
      "taf_trigger": false,
      "metar": "METAR EYKA 190650Z 28008KT CAVOK 17/14 Q1019",
      "taf": "TAF EYKA 190500Z 1906/2006 27010KT 9000 BKN045"
    },
    {
      "icao": "EYPA",
      "alert": "OK",
      "vis_m": 9999,
      "fzfg": false,
      "metar_trigger": false,
      "taf_trigger": false,
      "metar": "METAR EYPA 190650Z VRB04KT CAVOK 18/15 Q1018",
      "taf": "TAF EYPA 190500Z 1906/2006 VRB03KT 9000 NSC"
    },
    {
      "icao": "EYVI",
      "alert": "OK",
      "vis_m": 9999,
      "fzfg": false,
      "metar_trigger": false,
      "taf_trigger": false,
      "metar": "METAR EYVI 190650Z 29005KT 240V360 9999 BKN014 17/13 Q1019 NOSIG",
      "taf": "TAF EYVI 190500Z 1906/2006 28010KT 9000 BKN045"
    },
    {
      "icao": "GCFV",
      "alert": "OK",
      "vis_m": 9999,
      "fzfg": false,
      "metar_trigger": false,
      "taf_trigger": false,
      "metar": "METAR GCFV 190630Z 35007KT 9999 FEW022 19/14 Q1016",
      "taf": "TAF GCFV 190200Z 1903/2003 36010KT 9999 BKN020 TX28/1914Z TN20/1906Z"
    },
    {
      "icao": "GCLP",
      "alert": "OK",
      "vis_m": 9999,
      "fzfg": false,
      "metar_trigger": false,
      "taf_trigger": false,
      "metar": "METAR GCLP 190630Z 36010KT 9999 FEW025 20/15 Q1017 NOSIG",
      "taf": "TAF GCLP 190200Z 1903/2003 02022KT 9999 SCT025 TX26/1914Z TN20/1906Z"
    },
    {
      "icao": "GCTS",
      "alert": "OK",
      "vis_m": 9999,
      "fzfg": false,
      "metar_trigger": false,
      "taf_trigger": false,
      "metar": "METAR GCTS 190630Z 08005KT 9999 BKN020 20/16 Q1017 NOSIG",
      "taf": "TAF GCTS 190200Z 1903/2003 06005KT 9999 SCT020 TX27/1914Z TN21/1906Z"
    },
    {
      "icao": "GMAD",
      "alert": "OK",
      "vis_m": 8000,
      "fzfg": false,
      "metar_trigger": false,
      "taf_trigger": false,
      "metar": "METAR GMAD 190630Z 22006KT 8000 SCT010 BKN026 20/16 Q1013 NOSIG",
      "taf": "TAF GMAD 190500Z 1906/2012 07004KT 8000 BKN010"
    },
    {
      "icao": "GMMN",
      "alert": "OK",
      "vis_m": 9999,
      "fzfg": false,
      "metar_trigger": false,
      "taf_trigger": false,
      "metar": "METAR GMMN 190630Z 21006KT 9999 OVC016 21/16 Q1013 NOSIG",
      "taf": "TAF GMMN 190500Z 1906/2012 22004KT 9999 OVC015"
    },
    {
      "icao": "GMMX",
      "alert": "OK",
      "vis_m": 8000,
      "fzfg": false,
      "metar_trigger": false,
      "taf_trigger": false,
      "metar": "METAR GMMX 190630Z 26005KT 230V300 8000 SCT013 18/15 Q1015 NOSIG",
      "taf": "TAF GMMX 190500Z 1906/2012 28006KT CAVOK"
    },
    {
      "icao": "HEGN",
      "alert": "OK",
      "vis_m": 9999,
      "fzfg": false,
      "metar_trigger": false,
      "taf_trigger": false,
      "metar": "METAR HEGN 190600Z 33016KT CAVOK 32/12 Q1009 NOSIG",
      "taf": "TAF HEGN 190500Z 1906/2012 34018KT CAVOK"
    },
    {
      "icao": "HEMA",
      "alert": "OK",
      "vis_m": 9999,
      "fzfg": false,
      "metar_trigger": false,
      "taf_trigger": false,
      "metar": "METAR HEMA 190600Z 34025KT CAVOK 32/10 Q1008 NOSIG",
      "taf": "TAF HEMA 190500Z 1906/2012 36018KT CAVOK"
    },
    {
      "icao": "HESH",
      "alert": "OK",
      "vis_m": 9999,
      "fzfg": false,
      "metar_trigger": false,
      "taf_trigger": false,
      "metar": "METAR HESH 190600Z 36016KT CAVOK 31/17 Q1008 NOSIG",
      "taf": "TAF HESH 190500Z 1906/2012 02015KT CAVOK"
    },
    {
      "icao": "HESX",
      "alert": "OK",
      "vis_m": 9999,
      "fzfg": false,
      "metar_trigger": false,
      "taf_trigger": false,
      "metar": "METAR HESX 190600Z 33005KT CAVOK 24/17 Q1011 NOSIG",
      "taf": "TAF HESX 190500Z 1906/2012 31006KT 9999 FEW025"
    },
    {
      "icao": "LATI",
      "alert": "OK",
      "vis_m": 9999,
      "fzfg": false,
      "metar_trigger": false,
      "taf_trigger": false,
      "metar": "METAR LATI 190650Z VRB02KT CAVOK 27/13 Q1017 NOSIG",
      "taf": "TAF LATI 190500Z 1906/2006 VRB03KT CAVOK TX35/1912Z TN17/2004Z"
    },
    {
      "icao": "LBPD",
      "alert": "OK",
      "vis_m": 9999,
      "fzfg": false,
      "metar_trigger": false,
      "taf_trigger": false,
      "metar": "METAR LBPD 190630Z AUTO 32004KT 280V360 9999 NCD 21/16 Q1020 NOSIG",
      "taf": "TAF LBPD 190500Z 1906/2006 VRB03KT 9999 SCT060"
    },
    {
      "icao": "LBSF",
      "alert": "OK",
      "vis_m": 9999,
      "fzfg": false,
      "metar_trigger": false,
      "taf_trigger": false,
      "metar": "METAR LBSF 190630Z VRB02KT 9999 FEW084 20/12 Q1021 NOSIG",
      "taf": "TAF LBSF 190500Z 1906/2006 VRB03KT 9999 SCT060"
    },
    {
      "icao": "LBWN",
      "alert": "OK",
      "vis_m": 9999,
      "fzfg": false,
      "metar_trigger": false,
      "taf_trigger": false,
      "metar": "METAR LBWN 190630Z 03008KT 010V070 CAVOK 23/13 Q1018 NOSIG",
      "taf": "TAF LBWN 190500Z 1906/2006 02010KT CAVOK"
    },
    {
      "icao": "LCLK",
      "alert": "OK",
      "vis_m": 9999,
      "fzfg": false,
      "metar_trigger": false,
      "taf_trigger": false,
      "metar": "METAR LCLK 190630Z 20011KT 160V220 9999 FEW012 27/21 Q1008 NOSIG",
      "taf": "TAF LCLK 190530Z 1906/2006 23008KT CAVOK"
    },
    {
      "icao": "LCPH",
      "alert": "OK",
      "vis_m": 9999,
      "fzfg": false,
      "metar_trigger": false,
      "taf_trigger": false,
      "metar": "METAR LCPH 190630Z 15006KT 090V160 9999 FEW018 BKN048 26/20 Q1009 NOSIG",
      "taf": "TAF LCPH 190530Z 1906/2006 05008KT 9999 SCT020"
    },
    {
      "icao": "LEAL",
      "alert": "OK",
      "vis_m": 9999,
      "fzfg": false,
      "metar_trigger": false,
      "taf_trigger": false,
      "metar": "METAR LEAL 190630Z VRB02KT CAVOK 26/15 Q1014 NOSIG",
      "taf": "TAF LEAL 190500Z 1906/2006 VRB04KT CAVOK TX32/1912Z TN23/2005Z"
    },
    {
      "icao": "LEBB",
      "alert": "OK",
      "vis_m": 9999,
      "fzfg": false,
      "metar_trigger": false,
      "taf_trigger": false,
      "metar": "METAR LEBB 190630Z 00000KT 9999 BKN013 22/20 Q1015 NOSIG",
      "taf": "TAF LEBB 190500Z 1906/2006 30009KT 9000 FEW015 BKN025 TX31/1912Z TN18/2003Z"
    },
    {
      "icao": "LEBL",
      "alert": "OK",
      "vis_m": 9999,
      "fzfg": false,
      "metar_trigger": false,
      "taf_trigger": false,
      "metar": "METAR LEBL 190630Z 33005KT CAVOK 24/12 Q1017 NOSIG",
      "taf": "TAF LEBL 190500Z 1906/2006 07010KT 9999 FEW010 TX28/1912Z TN22/1906Z"
    },
    {
      "icao": "LECH",
      "alert": "OK",
      "vis_m": 9000,
      "fzfg": false,
      "metar_trigger": false,
      "taf_trigger": false,
      "metar": "METAR LECH 190630Z AUTO 35003KT 300V030 9000 NCD 20/15 Q1018",
      "taf": "TAF LECH 190500Z 1906/2006 VRB04KT CAVOK TX31/1912Z TN23/2005Z"
    },
    {
      "icao": "LEMD",
      "alert": "OK",
      "vis_m": 9999,
      "fzfg": false,
      "metar_trigger": false,
      "taf_trigger": false,
      "metar": "METAR LEMD 190630Z 35004KT CAVOK 22/09 Q1017 NOSIG",
      "taf": "TAF LEMD 190500Z 1906/2012 VRB04KT CAVOK TX36/1916Z TN19/2005Z"
    },
    {
      "icao": "LEMG",
      "alert": "OK",
      "vis_m": 9999,
      "fzfg": false,
      "metar_trigger": false,
      "taf_trigger": false,
      "metar": "METAR LEMG 190630Z 26004KT 220V290 CAVOK 22/16 Q1014 NOSIG",
      "taf": "TAF LEMG 190500Z 1906/2006 29005KT CAVOK TX31/1914Z TN21/1906Z"
    },
    {
      "icao": "LEVC",
      "alert": "OK",
      "vis_m": 9999,
      "fzfg": false,
      "metar_trigger": false,
      "taf_trigger": false,
      "metar": "METAR LEVC 190630Z 33006KT CAVOK 22/18 Q1016 NOSIG",
      "taf": "TAF LEVC 190500Z 1906/2006 VRB04KT 9999 FEW015 TX31/1912Z TN21/2005Z"
    },
    {
      "icao": "LEXJ",
      "alert": "OK",
      "vis_m": 5000,
      "fzfg": false,
      "metar_trigger": false,
      "taf_trigger": false,
      "metar": "METAR LEXJ 190630Z 00000KT 5000 BR SCT006 OVC015 20/19 Q1014",
      "taf": "TAF LEXJ 190200Z 1903/2003 28009KT 9000 BKN016 TX25/1912Z TN18/1905Z"
    },
    {
      "icao": "LEZG",
      "alert": "OK",
      "vis_m": 9999,
      "fzfg": false,
      "metar_trigger": false,
      "taf_trigger": false,
      "metar": "METAR LEZG 190630Z 12010KT 090V150 CAVOK 24/10 Q1017 NOSIG",
      "taf": "TAF LEZG 190500Z 1906/2006 12012KT CAVOK TX37/1915Z TN23/2005Z"
    },
    {
      "icao": "LEZL",
      "alert": "OK",
      "vis_m": 9999,
      "fzfg": false,
      "metar_trigger": false,
      "taf_trigger": false,
      "metar": "METAR LEZL 190630Z 00000KT CAVOK 26/15 Q1013 NOSIG",
      "taf": "TAF LEZL 190200Z 1903/2003 VRB03KT CAVOK TX39/1915Z TN22/1906Z"
    },
    {
      "icao": "LFBD",
      "alert": "OK",
      "vis_m": 9999,
      "fzfg": false,
      "metar_trigger": false,
      "taf_trigger": false,
      "metar": "METAR LFBD 190630Z AUTO 21007KT 180V240 9999 FEW007 22/19 Q1014 NOSIG",
      "taf": ""
    },
    {
      "icao": "LFLL",
      "alert": "OK",
      "vis_m": 9999,
      "fzfg": false,
      "metar_trigger": false,
      "taf_trigger": false,
      "metar": "METAR LFLL 190630Z 14005KT 120V180 CAVOK 26/11 Q1019 NOSIG",
      "taf": "TAF LFLL 190500Z 1906/2012 17010KT CAVOK"
    },
    {
      "icao": "LFLS",
      "alert": "OK",
      "vis_m": 9999,
      "fzfg": false,
      "metar_trigger": false,
      "taf_trigger": false,
      "metar": "METAR LFLS 190630Z AUTO 08008KT CAVOK 23/15 Q1020 BECMG 22010KT",
      "taf": "TAF LFLS 190200Z 1903/2003 09005KT CAVOK"
    },
    {
      "icao": "LFMN",
      "alert": "OK",
      "vis_m": 9999,
      "fzfg": false,
      "metar_trigger": false,
      "taf_trigger": false,
      "metar": "METAR LFMN 190630Z 35005KT 320V020 CAVOK 27/15 Q1019 NOSIG",
      "taf": "TAF LFMN 190200Z 1903/2009 VRB03KT CAVOK"
    },
    {
      "icao": "LFOB",
      "alert": "OK",
      "vis_m": 9999,
      "fzfg": false,
      "metar_trigger": false,
      "taf_trigger": false,
      "metar": "METAR LFOB 190630Z AUTO 13006KT CAVOK 23/19 Q1014 NOSIG",
      "taf": "TAF LFOB 190500Z 1906/2006 VRB05KT CAVOK"
    },
    {
      "icao": "LFPO",
      "alert": "OK",
      "vis_m": 9999,
      "fzfg": false,
      "metar_trigger": false,
      "taf_trigger": false,
      "metar": "METAR LFPO 190630Z 16005KT CAVOK 24/18 Q1014 NOSIG",
      "taf": ""
    },
    {
      "icao": "LFSB",
      "alert": "OK",
      "vis_m": 9999,
      "fzfg": false,
      "metar_trigger": false,
      "taf_trigger": false,
      "metar": "METAR LFSB 190630Z AUTO 16005KT 120V190 CAVOK 25/15 Q1019 NOSIG",
      "taf": ""
    },
    {
      "icao": "LGAV",
      "alert": "OK",
      "vis_m": 9999,
      "fzfg": false,
      "metar_trigger": false,
      "taf_trigger": false,
      "metar": "METAR LGAV 190620Z 03010KT 9999 FEW025 26/12 Q1016 NOSIG",
      "taf": "TAF LGAV 190500Z 1906/2006 03015KT 9999 FEW025"
    },
    {
      "icao": "LGTS",
      "alert": "OK",
      "vis_m": 9999,
      "fzfg": false,
      "metar_trigger": false,
      "taf_trigger": false,
      "metar": "METAR LGTS 190650Z 29004KT 9999 FEW025 26/17 Q1019 NOSIG",
      "taf": "TAF LGTS 190500Z 1906/2006 VRB03KT 9999 FEW030"
    },
    {
      "icao": "LHBP",
      "alert": "OK",
      "vis_m": 9999,
      "fzfg": false,
      "metar_trigger": false,
      "taf_trigger": false,
      "metar": "METAR LHBP 190630Z VRB01KT CAVOK 25/14 Q1021 NOSIG",
      "taf": "TAF LHBP 190515Z 1906/2006 VRB04KT CAVOK"
    },
    {
      "icao": "LHDC",
      "alert": "OK",
      "vis_m": 9999,
      "fzfg": false,
      "metar_trigger": false,
      "taf_trigger": false,
      "metar": "METAR LHDC 190615Z AUTO 01003KT 320V120 CAVOK 25/14 Q1021 NOSIG",
      "taf": "TAF LHDC 190515Z 1906/1915 VRB03KT CAVOK"
    },
    {
      "icao": "LIBD",
      "alert": "OK",
      "vis_m": 9999,
      "fzfg": false,
      "metar_trigger": false,
      "taf_trigger": false,
      "metar": "METAR LIBD 190650Z AUTO 32007KT 280V360 9999 BKN080/// 27/14 Q1019",
      "taf": "TAF LIBD 190500Z 1906/2006 28006KT CAVOK"
    },
    {
      "icao": "LIBG",
      "alert": "OK",
      "vis_m": 9999,
      "fzfg": false,
      "metar_trigger": false,
      "taf_trigger": false,
      "metar": "METAR LIBG 190650Z AUTO 03006KT 360V060 9999 NCD 29/14 Q1017",
      "taf": "TAF LIBG 190500Z 1906/2006 02013KT CAVOK"
    },
    {
      "icao": "LIBP",
      "alert": "OK",
      "vis_m": 9999,
      "fzfg": false,
      "metar_trigger": false,
      "taf_trigger": false,
      "metar": "METAR LIBP 190650Z AUTO 23004KT 200V270 9999 NCD 27/14 Q1019",
      "taf": "TAF LIBP 190500Z 1906/2006 VRB05KT CAVOK"
    },
    {
      "icao": "LIBR",
      "alert": "OK",
      "vis_m": 9999,
      "fzfg": false,
      "metar_trigger": false,
      "taf_trigger": false,
      "metar": "METAR LIBR 190650Z 32011KT CAVOK 25/21 Q1017",
      "taf": "TAF LIBR 190500Z 1906/2006 33012KT CAVOK"
    },
    {
      "icao": "LICA",
      "alert": "OK",
      "vis_m": 9999,
      "fzfg": false,
      "metar_trigger": false,
      "taf_trigger": false,
      "metar": "METAR LICA 190650Z AUTO 23004KT 190V280 9999 FEW014/// 26/21 Q1019",
      "taf": "TAF LICA 190500Z 1906/2006 VRB04KT CAVOK"
    },
    {
      "icao": "LICC",
      "alert": "OK",
      "vis_m": 9999,
      "fzfg": false,
      "metar_trigger": false,
      "taf_trigger": false,
      "metar": "METAR LICC 190650Z VRB02KT CAVOK 28/21 Q1018",
      "taf": "TAF LICC 190500Z 1906/2006 VRB05KT CAVOK"
    },
    {
      "icao": "LICJ",
      "alert": "OK",
      "vis_m": 9999,
      "fzfg": false,
      "metar_trigger": false,
      "taf_trigger": false,
      "metar": "METAR LICJ 190650Z 26004KT CAVOK 24/21 Q1018",
      "taf": "TAF LICJ 190500Z 1906/2006 VRB05KT CAVOK"
    },
    {
      "icao": "LIMC",
      "alert": "OK",
      "vis_m": 9999,
      "fzfg": false,
      "metar_trigger": false,
      "taf_trigger": false,
      "metar": "METAR LIMC 190650Z 01005KT CAVOK 27/19 Q1021 NOSIG",
      "taf": "TAF LIMC 190500Z 1906/2012 VRB05KT CAVOK"
    },
    {
      "icao": "LIME",
      "alert": "OK",
      "vis_m": 9999,
      "fzfg": false,
      "metar_trigger": false,
      "taf_trigger": false,
      "metar": "METAR LIME 190650Z 03003KT 350V060 9999 FEW100 27/18 Q1020 NOSIG",
      "taf": "TAF LIME 190500Z 1906/2006 VRB05KT CAVOK"
    },
    {
      "icao": "LIMF",
      "alert": "OK",
      "vis_m": 9999,
      "fzfg": false,
      "metar_trigger": false,
      "taf_trigger": false,
      "metar": "METAR LIMF 190650Z 07004KT 360V100 CAVOK 27/18 Q1021",
      "taf": "TAF LIMF 190500Z 1906/2006 VRB05KT CAVOK"
    },
    {
      "icao": "LIMJ",
      "alert": "OK",
      "vis_m": 9999,
      "fzfg": false,
      "metar_trigger": false,
      "taf_trigger": false,
      "metar": "METAR LIMJ 190650Z VRB02KT CAVOK 25/16 Q1019",
      "taf": "TAF LIMJ 190500Z 1906/2006 VRB05KT CAVOK"
    },
    {
      "icao": "LIPE",
      "alert": "OK",
      "vis_m": 9999,
      "fzfg": false,
      "metar_trigger": false,
      "taf_trigger": false,
      "metar": "METAR LIPE 190650Z VRB01KT CAVOK 28/17 Q1019",
      "taf": "TAF LIPE 190500Z 1906/2006 VRB05KT CAVOK"
    },
    {
      "icao": "LIPH",
      "alert": "OK",
      "vis_m": 9999,
      "fzfg": false,
      "metar_trigger": false,
      "taf_trigger": false,
      "metar": "METAR LIPH 190650Z 10003KT 050V190 CAVOK 28/20 Q1019",
      "taf": "TAF LIPH 190500Z 1906/2006 VRB05KT CAVOK"
    },
    {
      "icao": "LIPQ",
      "alert": "OK",
      "vis_m": 9999,
      "fzfg": false,
      "metar_trigger": false,
      "taf_trigger": false,
      "metar": "METAR LIPQ 190650Z 10003KT 050V190 CAVOK 28/18 Q1019",
      "taf": "TAF LIPQ 190500Z 1906/2006 VRB05KT CAVOK"
    },
    {
      "icao": "LIPR",
      "alert": "OK",
      "vis_m": 9999,
      "fzfg": false,
      "metar_trigger": false,
      "taf_trigger": false,
      "metar": "METAR LIPR 190650Z 04004KT 010V070 CAVOK 25/21 Q1019",
      "taf": "TAF LIPR 190500Z 1906/2006 VRB05KT CAVOK"
    },
    {
      "icao": "LIPX",
      "alert": "OK",
      "vis_m": 9999,
      "fzfg": false,
      "metar_trigger": false,
      "taf_trigger": false,
      "metar": "METAR LIPX 190650Z VRB02KT CAVOK 28/20 Q1020",
      "taf": "TAF LIPX 190500Z 1906/2006 VRB05KT CAVOK"
    },
    {
      "icao": "LIPY",
      "alert": "OK",
      "vis_m": 9999,
      "fzfg": false,
      "metar_trigger": false,
      "taf_trigger": false,
      "metar": "METAR LIPY 190650Z AUTO VRB01KT 9999 NCD 29/15 Q1019",
      "taf": "TAF LIPY 190500Z 1906/2006 VRB05KT CAVOK"
    },
    {
      "icao": "LIPZ",
      "alert": "OK",
      "vis_m": 9999,
      "fzfg": false,
      "metar_trigger": false,
      "taf_trigger": false,
      "metar": "METAR LIPZ 190650Z 08005KT 040V110 CAVOK 26/20 Q1019 NOSIG",
      "taf": "TAF LIPZ 190500Z 1906/2012 VRB05KT CAVOK"
    },
    {
      "icao": "LIRF",
      "alert": "OK",
      "vis_m": 9999,
      "fzfg": false,
      "metar_trigger": false,
      "taf_trigger": false,
      "metar": "METAR LIRF 190650Z 02004KT 330V050 CAVOK 28/18 Q1018 NOSIG",
      "taf": "TAF LIRF 190500Z 1906/2012 VRB04KT CAVOK"
    },
    {
      "icao": "LIRN",
      "alert": "OK",
      "vis_m": 9999,
      "fzfg": false,
      "metar_trigger": false,
      "taf_trigger": false,
      "metar": "METAR LIRN 190650Z VRB02KT CAVOK 29/12 Q1019 NOSIG",
      "taf": "TAF LIRN 190500Z 1906/2006 VRB05KT CAVOK"
    },
    {
      "icao": "LIRP",
      "alert": "OK",
      "vis_m": 9999,
      "fzfg": false,
      "metar_trigger": false,
      "taf_trigger": false,
      "metar": "METAR LIRP 190645Z 10004KT CAVOK 23/16 Q1019 NOSIG",
      "taf": "TAF LIRP 190500Z 1906/2006 VRB03KT CAVOK"
    },
    {
      "icao": "LIRZ",
      "alert": "OK",
      "vis_m": 9999,
      "fzfg": false,
      "metar_trigger": false,
      "taf_trigger": false,
      "metar": "METAR LIRZ 190650Z AUTO VRB02KT 9999 NCD 26/17 Q1020",
      "taf": "TAF LIRZ 190500Z 1906/2006 VRB05KT CAVOK"
    },
    {
      "icao": "LJLJ",
      "alert": "OK",
      "vis_m": 9999,
      "fzfg": false,
      "metar_trigger": false,
      "taf_trigger": false,
      "metar": "METAR LJLJ 190630Z 34004KT 320V060 9999 FEW003 22/18 Q1022 NOSIG",
      "taf": "TAF LJLJ 190500Z 1906/2006 34004KT CAVOK"
    },
    {
      "icao": "LKMT",
      "alert": "OK",
      "vis_m": 9999,
      "fzfg": false,
      "metar_trigger": false,
      "taf_trigger": false,
      "metar": "METAR LKMT 190630Z 22005KT CAVOK 22/17 Q1021 NOSIG",
      "taf": "TAF LKMT 190500Z 1906/2006 20005KT CAVOK"
    },
    {
      "icao": "LKPR",
      "alert": "OK",
      "vis_m": 9999,
      "fzfg": false,
      "metar_trigger": false,
      "taf_trigger": false,
      "metar": "METAR LKPR 190630Z 15006KT CAVOK 24/17 Q1020 NOSIG",
      "taf": "TAF LKPR 190500Z 1906/2012 17006KT CAVOK"
    },
    {
      "icao": "LLBG",
      "alert": "OK",
      "vis_m": 9999,
      "fzfg": false,
      "metar_trigger": false,
      "taf_trigger": false,
      "metar": "METAR LLBG 190650Z VRB03KT 9999 FEW030 27/16 Q1010 NOSIG",
      "taf": "TAF LLBG 190502Z 1906/2006 VRB03KT 9999 FEW025 TX30/1911Z TN19/2004Z"
    },
    {
      "icao": "LMML",
      "alert": "OK",
      "vis_m": 9999,
      "fzfg": false,
      "metar_trigger": false,
      "taf_trigger": false,
      "metar": "METAR LMML 190645Z 35004KT 310V050 9999 FEW012 28/17 Q1018 NOSIG",
      "taf": "TAF LMML 190500Z 1906/2006 30006KT 9999 FEW018"
    },
    {
      "icao": "LOWW",
      "alert": "OK",
      "vis_m": 9999,
      "fzfg": false,
      "metar_trigger": false,
      "taf_trigger": false,
      "metar": "METAR LOWW 190650Z 13006KT 100V160 CAVOK 25/16 Q1021 NOSIG",
      "taf": "TAF LOWW 190515Z 1906/2012 VRB03KT CAVOK TX34/2012Z TN20/2003Z"
    },
    {
      "icao": "LPFR",
      "alert": "OK",
      "vis_m": 9999,
      "fzfg": false,
      "metar_trigger": false,
      "taf_trigger": false,
      "metar": "METAR LPFR 190630Z 05004KT 020V190 CAVOK 23/14 Q1013",
      "taf": "TAF LPFR 190500Z 1906/2006 VRB02KT CAVOK"
    },
    {
      "icao": "LPMA",
      "alert": "OK",
      "vis_m": 9999,
      "fzfg": false,
      "metar_trigger": false,
      "taf_trigger": false,
      "metar": "METAR LPMA 190630Z 30005KT 9999 FEW015 SCT025 20/15 Q1018",
      "taf": "TAF LPMA 190500Z 1906/2006 VRB05KT 9999 SCT015 BKN030"
    },
    {
      "icao": "LPPR",
      "alert": "OK",
      "vis_m": 7000,
      "fzfg": false,
      "metar_trigger": false,
      "taf_trigger": false,
      "metar": "METAR LPPR 190630Z 35005KT 330V040 7000 SCT002 BKN004 16/15 Q1015",
      "taf": "TAF LPPR 190500Z 1906/2006 VRB02KT 6000 SCT004 SCT008"
    },
    {
      "icao": "LPPS",
      "alert": "OK",
      "vis_m": 9999,
      "fzfg": false,
      "metar_trigger": false,
      "taf_trigger": false,
      "metar": "METAR LPPS 190630Z 32006KT 9999 SCT012 BKN030 20/18 Q1018",
      "taf": "TAF LPPS 190500Z 1906/2012 32008KT 9999 SCT015"
    },
    {
      "icao": "LPPT",
      "alert": "OK",
      "vis_m": 9999,
      "fzfg": false,
      "metar_trigger": false,
      "taf_trigger": false,
      "metar": "METAR LPPT 190630Z 31009KT 9999 FEW008 17/14 Q1015",
      "taf": "TAF LPPT 190500Z 1906/2012 35007KT 9999 SCT012"
    },
    {
      "icao": "LQBK",
      "alert": "OK",
      "vis_m": 9999,
      "fzfg": false,
      "metar_trigger": false,
      "taf_trigger": false,
      "metar": "METAR LQBK 190630Z VRB01KT CAVOK 24/18 Q1021 NOSIG",
      "taf": "TAF LQBK 190500Z 1906/2006 15005KT CAVOK TX32/1914Z TN18/2003Z"
    },
    {
      "icao": "LQSA",
      "alert": "OK",
      "vis_m": 9999,
      "fzfg": false,
      "metar_trigger": false,
      "taf_trigger": false,
      "metar": "METAR LQSA 190630Z 00000KT 9999 FEW055 18/15 Q1023 NOSIG",
      "taf": "TAF LQSA 190500Z 1906/2006 VRB02KT CAVOK TX29/1914Z TN16/2003Z"
    },
    {
      "icao": "LQTZ",
      "alert": "OK",
      "vis_m": 9999,
      "fzfg": false,
      "metar_trigger": false,
      "taf_trigger": false,
      "metar": "METAR LQTZ 190630Z VRB01KT CAVOK 23/19 Q1022",
      "taf": "TAF LQTZ 190500Z 1906/2006 06006KT CAVOK TX29/1914Z TN16/2003Z"
    },
    {
      "icao": "LRBC",
      "alert": "OK",
      "vis_m": 9999,
      "fzfg": false,
      "metar_trigger": false,
      "taf_trigger": false,
      "metar": "METAR LRBC 190630Z VRB01KT CAVOK 21/15 Q1021",
      "taf": "TAF LRBC 190500Z 1906/1915 VRB04KT CAVOK"
    },
    {
      "icao": "LRBS",
      "alert": "OK",
      "vis_m": 9999,
      "fzfg": false,
      "metar_trigger": false,
      "taf_trigger": false,
      "metar": "METAR LRBS 190630Z 05006KT 310V090 CAVOK 23/12 Q1020 NOSIG",
      "taf": "TAF LRBS 190500Z 1906/2006 36004KT CAVOK"
    },
    {
      "icao": "LRBV",
      "alert": "OK",
      "vis_m": 9999,
      "fzfg": false,
      "metar_trigger": false,
      "taf_trigger": false,
      "metar": "METAR LRBV 190630Z 07002KT CAVOK 17/10 Q1023",
      "taf": "TAF LRBV 190500Z 1906/1915 VRB04KT 9999 SCT050"
    },
    {
      "icao": "LRCL",
      "alert": "OK",
      "vis_m": 9999,
      "fzfg": false,
      "metar_trigger": false,
      "taf_trigger": false,
      "metar": "METAR LRCL 190630Z VRB02KT CAVOK 20/12 Q1022",
      "taf": "TAF LRCL 190500Z 1906/1915 VRB04KT CAVOK"
    },
    {
      "icao": "LRCV",
      "alert": "OK",
      "vis_m": 9999,
      "fzfg": false,
      "metar_trigger": false,
      "taf_trigger": false,
      "metar": "METAR LRCV 190630Z 10009KT CAVOK 23/12 Q1021",
      "taf": "TAF LRCV 190500Z 1906/1915 09010KT CAVOK"
    },
    {
      "icao": "LRIA",
      "alert": "OK",
      "vis_m": 9999,
      "fzfg": false,
      "metar_trigger": false,
      "taf_trigger": false,
      "metar": "METAR LRIA 190630Z 27004KT 210V320 CAVOK 21/12 Q1020",
      "taf": "TAF LRIA 190500Z 1906/1915 VRB04KT CAVOK"
    },
    {
      "icao": "LROP",
      "alert": "OK",
      "vis_m": 9999,
      "fzfg": false,
      "metar_trigger": false,
      "taf_trigger": false,
      "metar": "METAR LROP 190630Z 07006KT 050V110 CAVOK 24/13 Q1021 NOSIG",
      "taf": "TAF LROP 190500Z 1906/2006 36004KT CAVOK"
    },
    {
      "icao": "LRSB",
      "alert": "OK",
      "vis_m": 9999,
      "fzfg": false,
      "metar_trigger": false,
      "taf_trigger": false,
      "metar": "METAR LRSB 190630Z VRB03KT CAVOK 21/11 Q1022",
      "taf": "TAF LRSB 190500Z 1906/2006 VRB04KT CAVOK"
    },
    {
      "icao": "LRSM",
      "alert": "OK",
      "vis_m": 9999,
      "fzfg": false,
      "metar_trigger": false,
      "taf_trigger": false,
      "metar": "METAR LRSM 190630Z VRB01KT CAVOK 20/15 Q1021",
      "taf": "TAF LRSM 190500Z 1906/1915 VRB04KT CAVOK"
    },
    {
      "icao": "LRSV",
      "alert": "OK",
      "vis_m": 9999,
      "fzfg": false,
      "metar_trigger": false,
      "taf_trigger": false,
      "metar": "METAR LRSV 190630Z 32008KT CAVOK 21/12 Q1021",
      "taf": "TAF LRSV 190500Z 1906/1915 30008KT CAVOK"
    },
    {
      "icao": "LRTM",
      "alert": "OK",
      "vis_m": 9999,
      "fzfg": false,
      "metar_trigger": false,
      "taf_trigger": false,
      "metar": "METAR LRTM 190630Z VRB02KT CAVOK 18/13 Q1022",
      "taf": "TAF LRTM 190500Z 1906/1915 VRB04KT CAVOK"
    },
    {
      "icao": "LRTR",
      "alert": "OK",
      "vis_m": 9999,
      "fzfg": false,
      "metar_trigger": false,
      "taf_trigger": false,
      "metar": "METAR LRTR 190630Z 09004KT 040V150 CAVOK 23/13 Q1021 NOSIG",
      "taf": "TAF LRTR 190500Z 1906/2006 VRB04KT CAVOK"
    },
    {
      "icao": "LTAC",
      "alert": "OK",
      "vis_m": 9999,
      "fzfg": false,
      "metar_trigger": false,
      "taf_trigger": false,
      "metar": "METAR LTAC 190650Z 01008KT 9999 -SHRA BKN030 BKN080 14/11 Q1015 NOSIG RMK RWY21C 36005KT 310V040 RWY03L 36008KT 340V040 RWY21R 35004KT 300V050 RWY03R 35007KT RWY21L 36006KT 330V040",
      "taf": "TAF LTAC 190440Z 1906/2006 03008KT 9999 SCT040 SCT100"
    },
    {
      "icao": "LTFM",
      "alert": "OK",
      "vis_m": 9999,
      "fzfg": false,
      "metar_trigger": false,
      "taf_trigger": false,
      "metar": "METAR LTFM 190650Z 03022KT 9999 BKN018 BKN180 22/16 Q1017 NOSIG RMK RWY17L 03019KT RWY34L 02020KT RWY16R 03019KT RWY36 03021KT RWY18 05019KT",
      "taf": ""
    },
    {
      "icao": "LUKK",
      "alert": "OK",
      "vis_m": 9999,
      "fzfg": false,
      "metar_trigger": false,
      "taf_trigger": false,
      "metar": "METAR LUKK 190630Z 01005KT 320V050 CAVOK 22/11 Q1020 NOSIG",
      "taf": "TAF LUKK 190508Z 1906/2006 35006KT CAVOK"
    },
    {
      "icao": "LWOH",
      "alert": "OK",
      "vis_m": 9999,
      "fzfg": false,
      "metar_trigger": false,
      "taf_trigger": false,
      "metar": "METAR LWOH 190650Z 34008KT 290V030 9999 FEW040 23/13 Q1022",
      "taf": "TAF LWOH 190510Z 1906/2006 35008KT 9999 FEW040"
    },
    {
      "icao": "LWSK",
      "alert": "OK",
      "vis_m": 9999,
      "fzfg": false,
      "metar_trigger": false,
      "taf_trigger": false,
      "metar": "METAR LWSK 190650Z 30005KT 220V350 9999 FEW040 25/14 Q1020 NOSIG",
      "taf": "TAF LWSK 190510Z 1906/2006 VRB02KT CAVOK"
    },
    {
      "icao": "LYBE",
      "alert": "OK",
      "vis_m": 9999,
      "fzfg": false,
      "metar_trigger": false,
      "taf_trigger": false,
      "metar": "METAR LYBE 190630Z 29003KT CAVOK 22/17 Q1021 NOSIG",
      "taf": "TAF LYBE 190500Z 1906/2006 34006KT CAVOK TX31/1913Z TN19/2003Z"
    },
    {
      "icao": "LYNI",
      "alert": "OK",
      "vis_m": 9999,
      "fzfg": false,
      "metar_trigger": false,
      "taf_trigger": false,
      "metar": "METAR LYNI 190630Z VRB01KT CAVOK 21/15 Q1021 NOSIG",
      "taf": "TAF LYNI 190500Z 1906/2006 30004KT CAVOK TX31/1914Z TN15/2003Z"
    },
    {
      "icao": "LYPG",
      "alert": "OK",
      "vis_m": 9999,
      "fzfg": false,
      "metar_trigger": false,
      "taf_trigger": false,
      "metar": "METAR LYPG 190630Z 06003KT 350V130 CAVOK 29/14 Q1018 NOSIG",
      "taf": "TAF LYPG 190500Z 1906/2006 35014KT CAVOK TX33/1914Z TN23/2003Z"
    },
    {
      "icao": "LZIB",
      "alert": "OK",
      "vis_m": 9999,
      "fzfg": false,
      "metar_trigger": false,
      "taf_trigger": false,
      "metar": "METAR LZIB 190630Z 05003KT 010V080 CAVOK 24/16 Q1021 NOSIG",
      "taf": "TAF LZIB 190515Z 1906/2006 06005KT CAVOK"
    },
    {
      "icao": "LZKZ",
      "alert": "OK",
      "vis_m": 9999,
      "fzfg": false,
      "metar_trigger": false,
      "taf_trigger": false,
      "metar": "METAR LZKZ 190630Z 00000KT CAVOK 21/16 Q1021 NOSIG",
      "taf": "TAF LZKZ 190515Z 1906/2006 VRB02KT CAVOK"
    },
    {
      "icao": "LZTT",
      "alert": "OK",
      "vis_m": 9999,
      "fzfg": false,
      "metar_trigger": false,
      "taf_trigger": false,
      "metar": "METAR LZTT 190630Z 27004KT 240V320 9999 FEW046 SCT063 20/14 Q1023 NOSIG",
      "taf": "TAF LZTT 190515Z 1906/2006 28006KT 9999 SCT060"
    },
    {
      "icao": "OEJN",
      "alert": "OK",
      "vis_m": 9999,
      "fzfg": false,
      "metar_trigger": false,
      "taf_trigger": false,
      "metar": "METAR OEJN 190600Z 33014KT CAVOK 33/20 Q1005 NOSIG",
      "taf": "TAF OEJN 190600Z 1906/2012 33017KT 7000 NSC"
    },
    {
      "icao": "OEMA",
      "alert": "OK",
      "vis_m": 9999,
      "fzfg": false,
      "metar_trigger": false,
      "taf_trigger": false,
      "metar": "METAR OEMA 190600Z 04005KT CAVOK 36/M05 Q1011 NOSIG",
      "taf": "TAF OEMA 190600Z 1906/2012 29010KT CAVOK"
    },
    {
      "icao": "OJAI",
      "alert": "OK",
      "vis_m": 5000,
      "fzfg": false,
      "metar_trigger": false,
      "taf_trigger": false,
      "metar": "METAR OJAI 190600Z 27009KT 5000 HZ NSC 23/06 Q1014 NOSIG",
      "taf": "TAF OJAI 190500Z 1906/2012 29008KT 5000 HZ NSC"
    },
    {
      "icao": "OMAA",
      "alert": "OK",
      "vis_m": 9999,
      "fzfg": false,
      "metar_trigger": false,
      "taf_trigger": false,
      "metar": "METAR OMAA 190630Z 16004KT 090V200 CAVOK 40/08 Q1003 NOSIG",
      "taf": "TAF OMAA 190500Z 1906/2012 14005KT 8000 NSC"
    },
    {
      "icao": "OMDB",
      "alert": "OK",
      "vis_m": 9999,
      "fzfg": false,
      "metar_trigger": false,
      "taf_trigger": false,
      "metar": "METAR OMDB 190630Z 15004KT 060V220 CAVOK 42/06 Q1003 BECMG 33010KT",
      "taf": "TAF OMDB 190500Z 1906/2012 06005KT CAVOK"
    },
    {
      "icao": "UAAA",
      "alert": "OK",
      "vis_m": 9999,
      "fzfg": false,
      "metar_trigger": false,
      "taf_trigger": false,
      "metar": "METAR UAAA 190630Z 30003MPS 230V040 9999 SCT050CB BKN100 30/12 Q1011 NOSIG",
      "taf": "TAF UAAA 190502Z 1906/2006 23003G08MPS 9999 SCT050CB BKN100 TX33/1910Z TN22/2001Z"
    },
    {
      "icao": "UBBB",
      "alert": "OK",
      "vis_m": 9999,
      "fzfg": false,
      "metar_trigger": false,
      "taf_trigger": false,
      "metar": "METAR UBBB 190630Z 16004KT 100V220 CAVOK 33/11 Q1011 NOSIG",
      "taf": "TAF UBBB 190501Z 1906/2006 16006KT CAVOK TX34/1910Z TN22/2000Z"
    },
    {
      "icao": "UDSG",
      "alert": "OK",
      "vis_m": 9999,
      "fzfg": false,
      "metar_trigger": false,
      "taf_trigger": false,
      "metar": "METAR UDSG 190630Z 27002KT 9999 FEW049 19/14 Q1019 NOSIG",
      "taf": "TAF UDSG 190458Z 1906/2006 06006KT 9999 SCT050"
    },
    {
      "icao": "UDYZ",
      "alert": "OK",
      "vis_m": 9999,
      "fzfg": false,
      "metar_trigger": false,
      "taf_trigger": false,
      "metar": "METAR UDYZ 190630Z 14004KT 100V180 9999 FEW043CB 28/12 Q1014 NOSIG",
      "taf": "TAF UDYZ 190500Z 1906/2006 16006KT 9999 FEW040"
    },
    {
      "icao": "UGKO",
      "alert": "OK",
      "vis_m": 9999,
      "fzfg": false,
      "metar_trigger": false,
      "taf_trigger": false,
      "metar": "METAR UGKO 190630Z 33003KT 260V050 9999 BKN024 24/17 Q1011 NOSIG",
      "taf": "TAF UGKO 190500Z 1906/2006 26007KT 9999 SCT020 BKN050 TX28/1910Z TN19/2001Z"
    }
  ]
}