{
  "ts_utc": "2026-01-30T22:25:42Z",
  "threshold_m": 150,
  "source": "stations_override.txt (ICAO list) + aviationweather.gov (METAR/TAF raw)",
  "station_count": 159,
  "stations": [
    {
      "icao": "BIKF",
      "alert": "OK",
      "vis_m": 9999,
      "fzfg": false,
      "metar_trigger": false,
      "taf_trigger": false,
      "metar": "METAR BIKF 302200Z 05005KT CAVOK 01/01 Q1001",
      "taf": "TAF BIKF 301923Z 3021/3121 02008KT 9999 SCT040 TX03/3115Z TNM02/3023Z"
    },
    {
      "icao": "BKPR",
      "alert": "OK",
      "vis_m": 4000,
      "fzfg": false,
      "metar_trigger": false,
      "taf_trigger": false,
      "metar": "METAR BKPR 302200Z VRB01KT 4000 BR FEW008 SCT045 03/03 Q1001 TEMPO 1500 BR",
      "taf": ""
    },
    {
      "icao": "EBCI",
      "alert": "OK",
      "vis_m": 9999,
      "fzfg": false,
      "metar_trigger": false,
      "taf_trigger": false,
      "metar": "METAR EBCI 302150Z 17009KT 9999 BKN018 07/05 Q0994 NOSIG",
      "taf": "TAF EBCI 301720Z 3018/3124 16007KT 9999 BKN008"
    },
    {
      "icao": "EDDB",
      "alert": "OK",
      "vis_m": 6000,
      "fzfg": false,
      "metar_trigger": false,
      "taf_trigger": false,
      "metar": "METAR EDDB 302220Z AUTO 09011KT 6000 -SN SCT011 BKN015 BKN028 M02/M04 Q1007 TEMPO 4000 -SN BKN009",
      "taf": "TAF EDDB 301700Z 3018/3118 08012KT 6000 SCT004 OVC009"
    },
    {
      "icao": "EDDH",
      "alert": "OK",
      "vis_m": 9000,
      "fzfg": false,
      "metar_trigger": false,
      "taf_trigger": false,
      "metar": "METAR EDDH 302220Z AUTO 11013KT 9000 OVC009 M01/M03 Q1005 TEMPO BKN010",
      "taf": "TAF EDDH 301700Z 3018/3124 10012KT 9000 OVC012"
    },
    {
      "icao": "EDDK",
      "alert": "OK",
      "vis_m": 9999,
      "fzfg": false,
      "metar_trigger": false,
      "taf_trigger": false,
      "metar": "METAR EDDK 302220Z AUTO 13010KT 9999 FEW012 SCT028 BKN045 03/01 Q0999 NOSIG",
      "taf": "TAF EDDK 301700Z 3018/3124 12009KT 9999 OVC014"
    },
    {
      "icao": "EDDN",
      "alert": "OK",
      "vis_m": 9999,
      "fzfg": false,
      "metar_trigger": false,
      "taf_trigger": false,
      "metar": "METAR EDDN 302220Z AUTO 11008KT 9999 OVC020 01/M01 Q1001",
      "taf": ""
    },
    {
      "icao": "EDDS",
      "alert": "OK",
      "vis_m": 3200,
      "fzfg": false,
      "metar_trigger": false,
      "taf_trigger": false,
      "metar": "METAR EDDS 302220Z AUTO 10001KT 3200 BR BKN020 OVC036 02/02 Q0999 TEMPO 1200 BR",
      "taf": "TAF EDDS 301700Z 3018/3118 12004KT 9999 BKN015"
    },
    {
      "icao": "EDFH",
      "alert": "OK",
      "vis_m": 400,
      "fzfg": false,
      "metar_trigger": false,
      "taf_trigger": false,
      "metar": "METAR EDFH 302150Z 15011KT 0400 R21/0450N FG VV/// 01/00 Q0997",
      "taf": "TAF EDFH 301700Z 3018/3118 14011KT 0600 FG VV002"
    },
    {
      "icao": "EDJA",
      "alert": "OK",
      "vis_m": 9999,
      "fzfg": false,
      "metar_trigger": false,
      "taf_trigger": false,
      "metar": "METAR EDJA 302150Z 20006KT 9999 FEW035 SCT046 01/00 Q0999",
      "taf": "TAF EDJA 301700Z 3018/3103 17004KT 9999 BKN020"
    },
    {
      "icao": "EDLW",
      "alert": "OK",
      "vis_m": 9999,
      "fzfg": false,
      "metar_trigger": false,
      "taf_trigger": false,
      "metar": "METAR EDLW 302150Z 11005KT 070V140 9999 BKN033 03/M00 Q0998",
      "taf": "TAF EDLW 301700Z 3018/3118 11007KT CAVOK"
    },
    {
      "icao": "EDNY",
      "alert": "OK",
      "vis_m": 500,
      "fzfg": false,
      "metar_trigger": false,
      "taf_trigger": false,
      "metar": "METAR EDNY 302150Z AUTO VRB02KT 0500 R24/1500U // SCT003/// M01/M01 Q1000",
      "taf": "TAF EDNY 301700Z 3018/3103 VRB02KT 6000 SCT008 BKN015"
    },
    {
      "icao": "EDSB",
      "alert": "OK",
      "vis_m": 4000,
      "fzfg": false,
      "metar_trigger": false,
      "taf_trigger": false,
      "metar": "METAR EDSB 302150Z 04003KT 4000 BR SCT038 OVC045 02/02 Q0999",
      "taf": ""
    },
    {
      "icao": "EETN",
      "alert": "OK",
      "vis_m": 4700,
      "fzfg": false,
      "metar_trigger": false,
      "taf_trigger": false,
      "metar": "METAR EETN 302220Z 08002KT 4700 -SN BR FEW002 OVC015 M19/M20 Q1029",
      "taf": ""
    },
    {
      "icao": "EFTU",
      "alert": "OK",
      "vis_m": 9999,
      "fzfg": false,
      "metar_trigger": false,
      "taf_trigger": false,
      "metar": "METAR EFTU 302220Z AUTO 08004KT CAVOK M17/M19 Q1029",
      "taf": "TAF EFTU 302022Z 3021/3121 08003KT CAVOK"
    },
    {
      "icao": "EGBB",
      "alert": "OK",
      "vis_m": 9999,
      "fzfg": false,
      "metar_trigger": false,
      "taf_trigger": false,
      "metar": "METAR EGBB 302150Z 16014KT 9999 FEW015 BKN025 08/05 Q0983",
      "taf": "TAF EGBB 301704Z 3018/3118 12010KT 9999 SCT025"
    },
    {
      "icao": "EGGP",
      "alert": "OK",
      "vis_m": 9000,
      "fzfg": false,
      "metar_trigger": false,
      "taf_trigger": false,
      "metar": "METAR EGGP 302150Z 08012KT 9000 -RA FEW019 BKN024 07/05 Q0983",
      "taf": ""
    },
    {
      "icao": "EGGW",
      "alert": "OK",
      "vis_m": 9999,
      "fzfg": false,
      "metar_trigger": false,
      "taf_trigger": false,
      "metar": "METAR EGGW 302150Z AUTO 17007KT 150V210 9999 SCT032 06/04 Q0986",
      "taf": ""
    },
    {
      "icao": "EGKK",
      "alert": "OK",
      "vis_m": 9999,
      "fzfg": false,
      "metar_trigger": false,
      "taf_trigger": false,
      "metar": "METAR EGKK 302150Z 17004KT 140V200 9999 FEW025 07/05 Q0987",
      "taf": ""
    },
    {
      "icao": "EGNM",
      "alert": "OK",
      "vis_m": 7000,
      "fzfg": false,
      "metar_trigger": false,
      "taf_trigger": false,
      "metar": "METAR EGNM 302150Z 09014KT 7000 OVC007 05/05 Q0986",
      "taf": ""
    },
    {
      "icao": "EGPD",
      "alert": "OK",
      "vis_m": 4900,
      "fzfg": false,
      "metar_trigger": false,
      "taf_trigger": false,
      "metar": "METAR EGPD 302150Z AUTO 12011KT 080V150 4900 RA BKN009/// BKN013/// OVC023/// //////TCU 04/03 Q0996",
      "taf": ""
    },
    {
      "icao": "EGPF",
      "alert": "OK",
      "vis_m": 9999,
      "fzfg": false,
      "metar_trigger": false,
      "taf_trigger": false,
      "metar": "METAR EGPF 302150Z AUTO 06013KT 9999 OVC013 05/03 Q0990",
      "taf": "TAF EGPF 301658Z 3018/3118 08012KT 9999 FEW018 SCT030"
    },
    {
      "icao": "EHBK",
      "alert": "OK",
      "vis_m": 9999,
      "fzfg": false,
      "metar_trigger": false,
      "taf_trigger": false,
      "metar": "METAR EHBK 302155Z AUTO 14007KT 9999 NSC 04/03 Q0996",
      "taf": "TAF EHBK 301708Z 3018/3124 15007KT 9999 BKN016"
    },
    {
      "icao": "EHEH",
      "alert": "OK",
      "vis_m": null,
      "fzfg": false,
      "metar_trigger": false,
      "taf_trigger": false,
      "metar": "",
      "taf": "TAF EHEH 301800Z 3019/0101 12007KT 9999 SCT016 BKN040"
    },
    {
      "icao": "EKBI",
      "alert": "OK",
      "vis_m": 9999,
      "fzfg": false,
      "metar_trigger": false,
      "taf_trigger": false,
      "metar": "METAR EKBI 302220Z AUTO 10016G26KT 9999 SCT018/// OVC040/// M00/M03 Q1007",
      "taf": "TAF EKBI 302027Z 3021/3121 10018KT 9999 BKN015"
    },
    {
      "icao": "EKCH",
      "alert": "OK",
      "vis_m": 9999,
      "fzfg": false,
      "metar_trigger": false,
      "taf_trigger": false,
      "metar": "METAR EKCH 302220Z AUTO 09018KT 9999 FEW016/// OVC044/// M00/M03 Q1012 TEMPO 09020G30KT",
      "taf": "TAF EKCH 302027Z 3021/3121 09018KT 9999 -SN BKN015"
    },
    {
      "icao": "ENAL",
      "alert": "OK",
      "vis_m": 9999,
      "fzfg": false,
      "metar_trigger": false,
      "taf_trigger": false,
      "metar": "METAR ENAL 302150Z 15009KT CAVOK M01/M11 Q1012",
      "taf": "TAF ENAL 302000Z 3021/3106 14012KT CAVOK"
    },
    {
      "icao": "ENBR",
      "alert": "OK",
      "vis_m": 9999,
      "fzfg": false,
      "metar_trigger": false,
      "taf_trigger": false,
      "metar": "METAR ENBR 302150Z 05004KT CAVOK M04/M15 Q1011 RMK WIND 1200FT 11006KT",
      "taf": "TAF ENBR 301700Z 3018/3118 VRB03KT CAVOK"
    },
    {
      "icao": "ENGM",
      "alert": "OK",
      "vis_m": 9999,
      "fzfg": false,
      "metar_trigger": false,
      "taf_trigger": false,
      "metar": "METAR ENGM 302150Z 06006KT 9999 -SHSN OVC034 M07/M10 Q1020 NOSIG",
      "taf": "TAF ENGM 301700Z 3018/3118 03008KT 9999 -SN FEW020 BKN030"
    },
    {
      "icao": "ENHD",
      "alert": "OK",
      "vis_m": 9999,
      "fzfg": false,
      "metar_trigger": false,
      "taf_trigger": false,
      "metar": "METAR ENHD 302150Z AUTO 09021KT 9999 NCD M02/M12 Q1010",
      "taf": "TAF ENHD 301400Z 3015/3023 10015KT CAVOK"
    },
    {
      "icao": "ENTC",
      "alert": "OK",
      "vis_m": 9999,
      "fzfg": false,
      "metar_trigger": false,
      "taf_trigger": false,
      "metar": "METAR ENTC 302150Z 14003KT 100V190 CAVOK M08/M14 Q1020 RMK WIND 2600FT 17026KT",
      "taf": "TAF ENTC 301700Z 3018/3118 19014KT CAVOK"
    },
    {
      "icao": "ENTO",
      "alert": "OK",
      "vis_m": 9999,
      "fzfg": false,
      "metar_trigger": false,
      "taf_trigger": false,
      "metar": "METAR ENTO 302150Z AUTO 08006KT 050V120 9999 -SN SCT027/// OVC034/// M04/M09 Q1018 RESN",
      "taf": "TAF ENTO 301700Z 3018/3118 07010KT 9999 -SN FEW020 BKN030"
    },
    {
      "icao": "ENVA",
      "alert": "OK",
      "vis_m": 9999,
      "fzfg": false,
      "metar_trigger": false,
      "taf_trigger": false,
      "metar": "METAR ENVA 302150Z 13014KT 090V160 CAVOK M05/M14 Q1016 RMK WIND 670FT 16026KT",
      "taf": "TAF ENVA 301700Z 3018/3118 12010KT CAVOK"
    },
    {
      "icao": "ENZV",
      "alert": "OK",
      "vis_m": 9999,
      "fzfg": false,
      "metar_trigger": false,
      "taf_trigger": false,
      "metar": "METAR ENZV 302150Z 09014KT 9999 SCT047 M01/M11 Q1010",
      "taf": "TAF ENZV 301700Z 3018/3118 10015KT 9999 BKN045"
    },
    {
      "icao": "EPGD",
      "alert": "OK",
      "vis_m": 9999,
      "fzfg": false,
      "metar_trigger": false,
      "taf_trigger": false,
      "metar": "METAR EPGD 302200Z 09010KT CAVOK M12/M15 Q1016",
      "taf": "TAF EPGD 301730Z 3018/3118 10012KT CAVOK"
    },
    {
      "icao": "EPKK",
      "alert": "OK",
      "vis_m": 2600,
      "fzfg": false,
      "metar_trigger": false,
      "taf_trigger": false,
      "metar": "METAR EPKK 302200Z 06023KT 2600 -FZDZ BR OVC005 M03/M04 Q1007",
      "taf": "TAF EPKK 302030Z 3021/3121 06015KT 3000 BR OVC006"
    },
    {
      "icao": "EPKT",
      "alert": "OK",
      "vis_m": 6000,
      "fzfg": false,
      "metar_trigger": false,
      "taf_trigger": false,
      "metar": "METAR EPKT 302200Z 08014KT 6000 -FZDZ OVC005 M03/M04 Q1006",
      "taf": "TAF EPKT 301730Z 3018/3118 06012KT 9999 OVC010"
    },
    {
      "icao": "EPLB",
      "alert": "OK",
      "vis_m": 9999,
      "fzfg": false,
      "metar_trigger": false,
      "taf_trigger": false,
      "metar": "METAR EPLB 302200Z 06014KT 9999 OVC011 M11/M13 Q1012",
      "taf": "TAF EPLB 301730Z 3018/3118 08011KT 9999 BKN012"
    },
    {
      "icao": "EPMO",
      "alert": "OK",
      "vis_m": 9999,
      "fzfg": false,
      "metar_trigger": false,
      "taf_trigger": false,
      "metar": "METAR EPMO 302200Z 07015KT CAVOK M12/M14 Q1014",
      "taf": "TAF EPMO 301730Z 3018/3118 07013KT 9999 FEW013"
    },
    {
      "icao": "EPPO",
      "alert": "OK",
      "vis_m": 9999,
      "fzfg": false,
      "metar_trigger": false,
      "taf_trigger": false,
      "metar": "METAR EPPO 302200Z 10013KT 9999 OVC012 M06/M08 Q1010",
      "taf": "TAF EPPO 301730Z 3018/3118 09010KT 9999 BKN015"
    },
    {
      "icao": "EPRA",
      "alert": "OK",
      "vis_m": 9999,
      "fzfg": false,
      "metar_trigger": false,
      "taf_trigger": false,
      "metar": "METAR EPRA 302200Z 07015KT 9999 OVC013 M09/M12 Q1011",
      "taf": "TAF EPRA 302030Z 3021/3106 07012KT 9999 OVC012"
    },
    {
      "icao": "EPRZ",
      "alert": "OK",
      "vis_m": 9999,
      "fzfg": false,
      "metar_trigger": false,
      "taf_trigger": false,
      "metar": "METAR EPRZ 302200Z 06013KT 9999 OVC010 M04/M06 Q1008",
      "taf": "TAF EPRZ 301730Z 3018/3118 06012KT 8000 OVC006"
    },
    {
      "icao": "EPSC",
      "alert": "OK",
      "vis_m": 9000,
      "fzfg": false,
      "metar_trigger": false,
      "taf_trigger": false,
      "metar": "METAR EPSC 302200Z 08011KT 9000 BKN009 OVC011 M05/M06 Q1010",
      "taf": "TAF EPSC 301730Z 3018/3118 08012KT 9999 BKN008 BKN012"
    },
    {
      "icao": "EPSY",
      "alert": "OK",
      "vis_m": 9999,
      "fzfg": false,
      "metar_trigger": false,
      "taf_trigger": false,
      "metar": "METAR EPSY 302200Z 07005KT 030V110 CAVOK M13/M15 Q1016",
      "taf": "TAF EPSY 302030Z 3021/3106 07006KT CAVOK"
    },
    {
      "icao": "EPWA",
      "alert": "OK",
      "vis_m": 9999,
      "fzfg": false,
      "metar_trigger": false,
      "taf_trigger": false,
      "metar": "METAR EPWA 302200Z 07013KT 9999 FEW011 M11/M13 Q1014 NOSIG",
      "taf": "TAF EPWA 302030Z 3021/3121 08011KT CAVOK"
    },
    {
      "icao": "EPWR",
      "alert": "OK",
      "vis_m": 8000,
      "fzfg": false,
      "metar_trigger": false,
      "taf_trigger": false,
      "metar": "METAR EPWR 302200Z 09013KT 8000 -SN BKN012 M02/M05 Q1008",
      "taf": "TAF EPWR 302030Z 3021/3121 07012KT 9999 OVC020"
    },
    {
      "icao": "ESGG",
      "alert": "OK",
      "vis_m": 9999,
      "fzfg": false,
      "metar_trigger": false,
      "taf_trigger": false,
      "metar": "METAR ESGG 302150Z 10009KT 9999 OVC029 M04/M10 Q1015",
      "taf": "TAF ESGG 302030Z 3021/3121 10010KT 9999 BKN030"
    },
    {
      "icao": "ESKN",
      "alert": "OK",
      "vis_m": 9999,
      "fzfg": false,
      "metar_trigger": false,
      "taf_trigger": false,
      "metar": "METAR ESKN 302150Z 12011KT 080V150 9999 SCT034 M03/M10 Q1023",
      "taf": "TAF ESKN 302030Z 3021/3121 12010KT 9999 BKN030"
    },
    {
      "icao": "ESMS",
      "alert": "OK",
      "vis_m": 9999,
      "fzfg": false,
      "metar_trigger": false,
      "taf_trigger": false,
      "metar": "METAR ESMS 302150Z 10017KT 9999 OVC012 M01/M03 Q1011",
      "taf": "TAF ESMS 302027Z 3021/3121 09018KT 9999 OVC012"
    },
    {
      "icao": "ESSA",
      "alert": "OK",
      "vis_m": 9999,
      "fzfg": false,
      "metar_trigger": false,
      "taf_trigger": false,
      "metar": "METAR ESSA 302150Z 07008KT 9999 FEW035 M06/M11 Q1025 NOSIG",
      "taf": "TAF ESSA 302030Z 3021/3121 08009KT 9999 BKN030"
    },
    {
      "icao": "EYKA",
      "alert": "OK",
      "vis_m": 9999,
      "fzfg": false,
      "metar_trigger": false,
      "taf_trigger": false,
      "metar": "METAR EYKA 302220Z 08005KT CAVOK M17/M19 Q1022",
      "taf": "TAF EYKA 301706Z 3018/3118 05005KT 9000 NSC"
    },
    {
      "icao": "EYPA",
      "alert": "OK",
      "vis_m": 9999,
      "fzfg": false,
      "metar_trigger": false,
      "taf_trigger": false,
      "metar": "METAR EYPA 302220Z 10009KT CAVOK M14/M20 Q1023",
      "taf": "TAF EYPA 301705Z 3018/3118 09008KT 9000 NSC"
    },
    {
      "icao": "EYVI",
      "alert": "OK",
      "vis_m": 9999,
      "fzfg": false,
      "metar_trigger": false,
      "taf_trigger": false,
      "metar": "METAR EYVI 302220Z 05007KT CAVOK M16/M19 Q1020 NOSIG",
      "taf": "TAF EYVI 301706Z 3018/3118 06008KT 9000 NSC"
    },
    {
      "icao": "GCFV",
      "alert": "OK",
      "vis_m": 9999,
      "fzfg": false,
      "metar_trigger": false,
      "taf_trigger": false,
      "metar": "METAR GCFV 302200Z 35011KT 9999 BKN025 19/13 Q1025",
      "taf": "TAF GCFV 302000Z 3021/3121 01014KT 9999 BKN022 TX23/3114Z TN18/3106Z"
    },
    {
      "icao": "GCLP",
      "alert": "OK",
      "vis_m": 9999,
      "fzfg": false,
      "metar_trigger": false,
      "taf_trigger": false,
      "metar": "METAR GCLP 302200Z 01016KT 9999 FEW025 19/14 Q1024 NOSIG",
      "taf": "TAF GCLP 302000Z 3021/3121 36018KT 9999 BKN025 TX22/3114Z TN17/3106Z"
    },
    {
      "icao": "GCTS",
      "alert": "OK",
      "vis_m": 9999,
      "fzfg": false,
      "metar_trigger": false,
      "taf_trigger": false,
      "metar": "METAR GCTS 302200Z VRB01KT 9999 FEW025 19/14 Q1025 NOSIG",
      "taf": "TAF GCTS 302000Z 3021/3121 03007KT 9999 SCT020 TX23/3114Z TN14/3106Z"
    },
    {
      "icao": "GMAD",
      "alert": "OK",
      "vis_m": 8000,
      "fzfg": false,
      "metar_trigger": false,
      "taf_trigger": false,
      "metar": "METAR GMAD 302200Z 00000KT 8000 FEW020 16/16 Q1022 NOSIG",
      "taf": "TAF GMAD 301700Z 3018/3124 20008KT 8000 SCT016"
    },
    {
      "icao": "GMMN",
      "alert": "OK",
      "vis_m": 8000,
      "fzfg": false,
      "metar_trigger": false,
      "taf_trigger": false,
      "metar": "METAR GMMN 302200Z 24008KT 8000 -DZ BKN004 16/14 Q1023 NOSIG",
      "taf": "TAF GMMN 301700Z 3018/3124 24010KT 9999 BKN016"
    },
    {
      "icao": "GMMX",
      "alert": "OK",
      "vis_m": 9999,
      "fzfg": false,
      "metar_trigger": false,
      "taf_trigger": false,
      "metar": "METAR GMMX 302200Z VRB02KT 9999 BKN020 16/13 Q1024 NOSIG",
      "taf": "TAF GMMX 301700Z 3018/3124 28006KT 9999 BKN020"
    },
    {
      "icao": "HEGN",
      "alert": "OK",
      "vis_m": 9999,
      "fzfg": false,
      "metar_trigger": false,
      "taf_trigger": false,
      "metar": "METAR HEGN 302200Z 00000KT CAVOK 15/09 Q1015 NOSIG",
      "taf": "TAF HEGN 301700Z 3018/3124 13008KT CAVOK"
    },
    {
      "icao": "HEMA",
      "alert": "OK",
      "vis_m": 9999,
      "fzfg": false,
      "metar_trigger": false,
      "taf_trigger": false,
      "metar": "METAR HEMA 302200Z 24006KT CAVOK 15/06 Q1015 NOSIG",
      "taf": "TAF HEMA 301700Z 3018/3124 07008KT CAVOK"
    },
    {
      "icao": "HESH",
      "alert": "OK",
      "vis_m": 9999,
      "fzfg": false,
      "metar_trigger": false,
      "taf_trigger": false,
      "metar": "METAR HESH 302200Z 28003KT CAVOK 17/12 Q1015 NOSIG",
      "taf": "TAF HESH 301700Z 3018/3124 30008KT CAVOK"
    },
    {
      "icao": "HESX",
      "alert": "OK",
      "vis_m": 9999,
      "fzfg": false,
      "metar_trigger": false,
      "taf_trigger": false,
      "metar": "METAR HESX 302200Z 21004KT CAVOK 16/02 Q1014 NOSIG",
      "taf": "TAF HESX 301700Z 3018/3124 28012KT 7000 NSC"
    },
    {
      "icao": "LATI",
      "alert": "OK",
      "vis_m": 9999,
      "fzfg": false,
      "metar_trigger": false,
      "taf_trigger": false,
      "metar": "METAR LATI 302220Z 18004KT 9999 SCT046 07/04 Q1002 NOSIG",
      "taf": "TAF LATI 301700Z 3018/3118 VRB05KT 9999 RA FEW030CB BKN050 TX14/3112Z TN05/3105Z"
    },
    {
      "icao": "LBPD",
      "alert": "OK",
      "vis_m": 9999,
      "fzfg": false,
      "metar_trigger": false,
      "taf_trigger": false,
      "metar": "METAR LBPD 302200Z AUTO 00000KT 9999 BKN063/// OVC099/// 06/06 Q1003",
      "taf": "TAF LBPD 301700Z 3018/3118 27010KT 9999 SCT030 BKN050"
    },
    {
      "icao": "LBSF",
      "alert": "OK",
      "vis_m": 8000,
      "fzfg": false,
      "metar_trigger": false,
      "taf_trigger": false,
      "metar": "METAR LBSF 302200Z AUTO 08004KT 8000 OVC089/// 02/01 Q1002 TEMPO 5000 BR",
      "taf": "TAF LBSF 301700Z 3018/3118 28010KT 9999 SCT030 BKN050"
    },
    {
      "icao": "LBWN",
      "alert": "OK",
      "vis_m": 9999,
      "fzfg": false,
      "metar_trigger": false,
      "taf_trigger": false,
      "metar": "METAR LBWN 302200Z AUTO 29005KT 250V330 9999 FEW014/// 03/02 Q1004 NOSIG",
      "taf": "TAF LBWN 301700Z 3018/3118 28010KT 9999 BKN020 OVC030"
    },
    {
      "icao": "LCLK",
      "alert": "OK",
      "vis_m": 9999,
      "fzfg": false,
      "metar_trigger": false,
      "taf_trigger": false,
      "metar": "METAR LCLK 302200Z 23012KT CAVOK 16/12 Q1010 NOSIG",
      "taf": "TAF LCLK 301730Z 3018/3118 22009KT 9999 FEW030"
    },
    {
      "icao": "LCPH",
      "alert": "OK",
      "vis_m": 9999,
      "fzfg": false,
      "metar_trigger": false,
      "taf_trigger": false,
      "metar": "METAR LCPH 302200Z 26010KT 250V320 9999 FEW029 17/11 Q1010 NOSIG",
      "taf": "TAF LCPH 301730Z 3018/3118 27018KT 9999 FEW025"
    },
    {
      "icao": "LEAL",
      "alert": "OK",
      "vis_m": 9999,
      "fzfg": false,
      "metar_trigger": false,
      "taf_trigger": false,
      "metar": "METAR LEAL 302200Z 29009KT CAVOK 14/06 Q1004 NOSIG",
      "taf": "TAF LEAL 301700Z 3018/3118 26009KT CAVOK TX18/3114Z TN11/3106Z"
    },
    {
      "icao": "LEBB",
      "alert": "OK",
      "vis_m": 9999,
      "fzfg": false,
      "metar_trigger": false,
      "taf_trigger": false,
      "metar": "METAR LEBB 302200Z 26004KT 200V310 9999 -RA FEW025 SCT037 BKN055 08/05 Q1000 RERA NOSIG",
      "taf": "TAF LEBB 301700Z 3018/3118 28009KT 9999 FEW035 TX13/3114Z TN07/3022Z"
    },
    {
      "icao": "LEBL",
      "alert": "OK",
      "vis_m": 9999,
      "fzfg": false,
      "metar_trigger": false,
      "taf_trigger": false,
      "metar": "METAR LEBL 302200Z 32007KT 280V350 9999 -RA BKN050 12/07 Q0999 NOSIG",
      "taf": "TAF LEBL 301700Z 3018/3118 32009KT 9999 FEW050 TX15/3112Z TN09/3106Z"
    },
    {
      "icao": "LECH",
      "alert": "OK",
      "vis_m": 9000,
      "fzfg": false,
      "metar_trigger": false,
      "taf_trigger": false,
      "metar": "METAR LECH 302200Z AUTO 06009KT 9000 FEW048 SCT070 09/05 Q1000",
      "taf": ""
    },
    {
      "icao": "LEMD",
      "alert": "OK",
      "vis_m": 9999,
      "fzfg": false,
      "metar_trigger": false,
      "taf_trigger": false,
      "metar": "METAR LEMD 302200Z 26019G31KT 220V290 9999 SCT045 SCT060 07/02 Q1004 NOSIG",
      "taf": ""
    },
    {
      "icao": "LEMG",
      "alert": "OK",
      "vis_m": 9999,
      "fzfg": false,
      "metar_trigger": false,
      "taf_trigger": false,
      "metar": "METAR LEMG 302200Z 29013G24KT 250V330 9999 FEW060 17/06 Q1013 NOSIG",
      "taf": ""
    },
    {
      "icao": "LEVC",
      "alert": "OK",
      "vis_m": 9999,
      "fzfg": false,
      "metar_trigger": false,
      "taf_trigger": false,
      "metar": "METAR LEVC 302200Z 26009KT 230V290 9999 FEW063 13/07 Q1001 NOSIG",
      "taf": ""
    },
    {
      "icao": "LEXJ",
      "alert": "OK",
      "vis_m": 8000,
      "fzfg": false,
      "metar_trigger": false,
      "taf_trigger": false,
      "metar": "METAR LEXJ 302200Z 29026G39KT 260V320 8000 SCT045 10/03 Q1000",
      "taf": "TAF LEXJ 302000Z 3021/3121 27009KT 9999 SCT040 TX13/3114Z TN08/3105Z"
    },
    {
      "icao": "LEZG",
      "alert": "OK",
      "vis_m": 9999,
      "fzfg": false,
      "metar_trigger": false,
      "taf_trigger": false,
      "metar": "METAR LEZG 302200Z 24013KT 9999 FEW060 11/04 Q0999 NOSIG",
      "taf": ""
    },
    {
      "icao": "LEZL",
      "alert": "OK",
      "vis_m": 9999,
      "fzfg": false,
      "metar_trigger": false,
      "taf_trigger": false,
      "metar": "METAR LEZL 302200Z 25012KT 220V280 9999 FEW040 15/11 Q1014 NOSIG",
      "taf": "TAF LEZL 302000Z 3021/3121 24015KT 9999 BKN020 TX17/3115Z TN10/3107Z"
    },
    {
      "icao": "LFBD",
      "alert": "OK",
      "vis_m": 9999,
      "fzfg": false,
      "metar_trigger": false,
      "taf_trigger": false,
      "metar": "METAR LFBD 302200Z AUTO 20008KT 9999 FEW021/// SCT029/// BKN037/// ///CB 08/07 Q0996 TEMPO 24015G30KT 3000 SHRA BKN010",
      "taf": ""
    },
    {
      "icao": "LFLL",
      "alert": "OK",
      "vis_m": 9999,
      "fzfg": false,
      "metar_trigger": false,
      "taf_trigger": false,
      "metar": "METAR LFLL 302200Z 13008KT CAVOK 05/03 Q0998 NOSIG",
      "taf": "TAF LFLL 301700Z 3018/3124 16008KT CAVOK"
    },
    {
      "icao": "LFLS",
      "alert": "OK",
      "vis_m": 9999,
      "fzfg": false,
      "metar_trigger": false,
      "taf_trigger": false,
      "metar": "METAR LFLS 302200Z AUTO 08009KT CAVOK 03/02 Q0998",
      "taf": "TAF LFLS 301400Z 3015/3115 09008KT 9999 SCT040"
    },
    {
      "icao": "LFMN",
      "alert": "OK",
      "vis_m": 9999,
      "fzfg": false,
      "metar_trigger": false,
      "taf_trigger": false,
      "metar": "METAR LFMN 302200Z 33008KT CAVOK 08/05 Q1000 NOSIG",
      "taf": "TAF LFMN 302000Z 3021/0103 33010KT 9999 FEW050"
    },
    {
      "icao": "LFOB",
      "alert": "OK",
      "vis_m": 9999,
      "fzfg": false,
      "metar_trigger": false,
      "taf_trigger": false,
      "metar": "METAR LFOB 302200Z AUTO 17010KT 9999 FEW011 SCT048 BKN056 08/07 Q0991 NOSIG",
      "taf": "TAF LFOB 301700Z 3018/3118 13010KT 9999 BKN020 OVC045"
    },
    {
      "icao": "LFPO",
      "alert": "OK",
      "vis_m": 9999,
      "fzfg": false,
      "metar_trigger": false,
      "taf_trigger": false,
      "metar": "METAR LFPO 302200Z 19008KT 160V220 9999 SCT015 BKN028 09/07 Q0993 NOSIG",
      "taf": ""
    },
    {
      "icao": "LFSB",
      "alert": "OK",
      "vis_m": 9999,
      "fzfg": false,
      "metar_trigger": false,
      "taf_trigger": false,
      "metar": "METAR LFSB 302200Z AUTO 19004KT CAVOK 02/01 Q0999 NOSIG",
      "taf": ""
    },
    {
      "icao": "LGAV",
      "alert": "OK",
      "vis_m": 9999,
      "fzfg": false,
      "metar_trigger": false,
      "taf_trigger": false,
      "metar": "METAR LGAV 302150Z VRB01KT 9999 FEW025 11/07 Q1002 NOSIG",
      "taf": "TAF LGAV 301700Z 3018/3118 VRB05KT 9999 FEW020"
    },
    {
      "icao": "LGTS",
      "alert": "OK",
      "vis_m": 9999,
      "fzfg": false,
      "metar_trigger": false,
      "taf_trigger": false,
      "metar": "METAR LGTS 302150Z 08004KT 9999 FEW025 07/06 Q1001 NOSIG",
      "taf": "TAF LGTS 301700Z 3018/3118 34008KT 9999 SCT025"
    },
    {
      "icao": "LHBP",
      "alert": "OK",
      "vis_m": 6000,
      "fzfg": false,
      "metar_trigger": false,
      "taf_trigger": false,
      "metar": "METAR LHBP 302200Z 34003KT 6000 -RA FEW004 OVC014 03/02 Q1003 NOSIG",
      "taf": "TAF LHBP 301715Z 3018/3118 33005KT 5000 -RADZ BR SCT004 OVC015"
    },
    {
      "icao": "LHDC",
      "alert": "OK",
      "vis_m": 3700,
      "fzfg": false,
      "metar_trigger": false,
      "taf_trigger": false,
      "metar": "METAR LHDC 302145Z AUTO 07003KT 3700 -DZ BR BKN004 OVC012 04/04 Q1003",
      "taf": "TAF LHDC 301415Z 3015/3024 03008KT 7000 -DZ OVC012"
    },
    {
      "icao": "LIBD",
      "alert": "OK",
      "vis_m": 9999,
      "fzfg": false,
      "metar_trigger": false,
      "taf_trigger": false,
      "metar": "METAR LIBD 302150Z 23006KT CAVOK 04/03 Q1002",
      "taf": "TAF LIBD 301700Z 3018/3118 VRB05KT CAVOK"
    },
    {
      "icao": "LIBG",
      "alert": "OK",
      "vis_m": null,
      "fzfg": false,
      "metar_trigger": false,
      "taf_trigger": false,
      "metar": "",
      "taf": "TAF LIBG 301700Z 3018/3103 VRB05KT CAVOK"
    },
    {
      "icao": "LIBP",
      "alert": "OK",
      "vis_m": 4600,
      "fzfg": false,
      "metar_trigger": false,
      "taf_trigger": false,
      "metar": "METAR LIBP 302150Z AUTO VRB02KT 4600 BR SCT160/// BKN210/// 05/05 Q1002",
      "taf": "TAF LIBP 301700Z 3018/3118 VRB05KT 7000 FEW050"
    },
    {
      "icao": "LIBR",
      "alert": "OK",
      "vis_m": 9999,
      "fzfg": false,
      "metar_trigger": false,
      "taf_trigger": false,
      "metar": "METAR LIBR 302150Z 26007KT CAVOK 07/05 Q1002",
      "taf": "TAF LIBR 301700Z 3018/3118 VRB05KT CAVOK"
    },
    {
      "icao": "LICA",
      "alert": "OK",
      "vis_m": 9999,
      "fzfg": false,
      "metar_trigger": false,
      "taf_trigger": false,
      "metar": "METAR LICA 302150Z AUTO 25003KT 9999 BKN039/// 11/08 Q1003",
      "taf": "TAF LICA 301700Z 3018/3118 26010KT 8000 SCT015"
    },
    {
      "icao": "LICC",
      "alert": "OK",
      "vis_m": 9999,
      "fzfg": false,
      "metar_trigger": false,
      "taf_trigger": false,
      "metar": "METAR LICC 302150Z 26010KT CAVOK 11/07 Q1003",
      "taf": "TAF LICC 301700Z 3018/3118 27010KT 9999 SCT020"
    },
    {
      "icao": "LICJ",
      "alert": "OK",
      "vis_m": 9999,
      "fzfg": false,
      "metar_trigger": false,
      "taf_trigger": false,
      "metar": "METAR LICJ 302150Z 28014KT 9999 FEW030 15/10 Q1005",
      "taf": "TAF LICJ 301700Z 3018/3118 27018KT 9999 FEW025"
    },
    {
      "icao": "LIMC",
      "alert": "OK",
      "vis_m": 4000,
      "fzfg": false,
      "metar_trigger": false,
      "taf_trigger": false,
      "metar": "METAR LIMC 302150Z 02002KT 4000 BR BKN007 05/04 Q1002 NOSIG",
      "taf": "TAF LIMC 301700Z 3018/3124 VRB05KT 8000 BKN020"
    },
    {
      "icao": "LIME",
      "alert": "OK",
      "vis_m": 2000,
      "fzfg": false,
      "metar_trigger": false,
      "taf_trigger": false,
      "metar": "METAR LIME 302150Z 09002KT 2000 BR NSC 04/04 Q1001 NOSIG",
      "taf": "TAF LIME 301700Z 3018/3118 VRB04KT 4000 BR SCT015"
    },
    {
      "icao": "LIMF",
      "alert": "OK",
      "vis_m": 100,
      "fzfg": false,
      "metar_trigger": false,
      "taf_trigger": false,
      "metar": "METAR LIMF 302150Z 21003KT 190V250 0100 R36/0325N FG VV001 02/01 Q1001",
      "taf": "TAF LIMF 301700Z 3018/3118 VRB04KT 4000 BR NSC"
    },
    {
      "icao": "LIMJ",
      "alert": "OK",
      "vis_m": 9999,
      "fzfg": false,
      "metar_trigger": false,
      "taf_trigger": false,
      "metar": "METAR LIMJ 302150Z 04008KT 9999 BKN050 09/04 Q1000",
      "taf": "TAF LIMJ 301700Z 3018/3118 04010KT 9999 SCT030"
    },
    {
      "icao": "LIPE",
      "alert": "OK",
      "vis_m": 300,
      "fzfg": false,
      "metar_trigger": false,
      "taf_trigger": false,
      "metar": "METAR LIPE 302150Z 33003KT 0300 R12/1000N R30/0750N FG BKN001 05/05 Q1002",
      "taf": ""
    },
    {
      "icao": "LIPH",
      "alert": "OK",
      "vis_m": 100,
      "fzfg": false,
      "metar_trigger": false,
      "taf_trigger": false,
      "metar": "METAR LIPH 302150Z 21005KT 0100 R07/0350N FG VV001 04/04 Q1002",
      "taf": ""
    },
    {
      "icao": "LIPQ",
      "alert": "OK",
      "vis_m": 6000,
      "fzfg": false,
      "metar_trigger": false,
      "taf_trigger": false,
      "metar": "METAR LIPQ 302150Z AUTO VRB01KT 6000 OVC042/// 06/06 Q1002",
      "taf": "TAF LIPQ 301700Z 3018/3118 VRB04KT 9999 SCT030"
    },
    {
      "icao": "LIPR",
      "alert": "OK",
      "vis_m": 2500,
      "fzfg": false,
      "metar_trigger": false,
      "taf_trigger": false,
      "metar": "METAR LIPR 302150Z 29002KT 2500 BR BKN003 04/04 Q1002",
      "taf": "TAF LIPR 301700Z 3018/3118 VRB05KT 1400 BR BKN012"
    },
    {
      "icao": "LIPX",
      "alert": "OK",
      "vis_m": 800,
      "fzfg": false,
      "metar_trigger": false,
      "taf_trigger": false,
      "metar": "METAR LIPX 302150Z VRB01KT 0800 R04/1800D FG OVC002 05/05 Q1002",
      "taf": "TAF LIPX 301700Z 3018/3118 VRB05KT 0300 FG OVC003"
    },
    {
      "icao": "LIPY",
      "alert": "OK",
      "vis_m": 6000,
      "fzfg": false,
      "metar_trigger": false,
      "taf_trigger": false,
      "metar": "METAR LIPY 302150Z AUTO VRB01KT 6000 OVC006/// 07/06 Q1002",
      "taf": "TAF LIPY 301700Z 3018/3118 VRB05KT 4000 BR BKN010"
    },
    {
      "icao": "LIPZ",
      "alert": "OK",
      "vis_m": 400,
      "fzfg": false,
      "metar_trigger": false,
      "taf_trigger": false,
      "metar": "METAR LIPZ 302150Z 27005KT 240V300 0400 R04R/1300D FG VV002 05/05 Q1002 NOSIG",
      "taf": "TAF LIPZ 301700Z 3018/3124 VRB04KT 3000 BR BKN020"
    },
    {
      "icao": "LIRF",
      "alert": "OK",
      "vis_m": 9999,
      "fzfg": false,
      "metar_trigger": false,
      "taf_trigger": false,
      "metar": "METAR LIRF 302150Z 10005KT 9999 FEW025 10/07 Q1002 NOSIG",
      "taf": "TAF LIRF 301700Z 3018/3124 07007KT 9999 FEW020"
    },
    {
      "icao": "LIRN",
      "alert": "OK",
      "vis_m": 6000,
      "fzfg": false,
      "metar_trigger": false,
      "taf_trigger": false,
      "metar": "METAR LIRN 302150Z 05004KT 6000 -DZ FEW020 SCT050 09/08 Q1002 NOSIG",
      "taf": "TAF LIRN 301700Z 3018/3118 VRB06KT 8000 FEW020"
    },
    {
      "icao": "LIRP",
      "alert": "OK",
      "vis_m": 9999,
      "fzfg": false,
      "metar_trigger": false,
      "taf_trigger": false,
      "metar": "METAR LIRP 302145Z 09007KT 9999 SCT025 BKN060 10/10 Q1000 NOSIG",
      "taf": "TAF LIRP 301700Z 3018/3118 12008KT 9999 FEW015 SCT030 BKN050"
    },
    {
      "icao": "LIRZ",
      "alert": "OK",
      "vis_m": 9999,
      "fzfg": false,
      "metar_trigger": false,
      "taf_trigger": false,
      "metar": "METAR LIRZ 302150Z AUTO 02002KT 9999 FEW043/// SCT061/// BKN096/// 07/06 Q1001",
      "taf": "TAF LIRZ 301700Z 3018/3118 VRB05KT 9999 FEW050"
    },
    {
      "icao": "LJLJ",
      "alert": "OK",
      "vis_m": 9999,
      "fzfg": false,
      "metar_trigger": false,
      "taf_trigger": false,
      "metar": "METAR LJLJ 302200Z 29004KT 9999 FEW020 BKN033 03/02 Q1002 NOSIG",
      "taf": "TAF LJLJ 301700Z 3018/3118 VRB02KT 9999 BKN020"
    },
    {
      "icao": "LKMT",
      "alert": "OK",
      "vis_m": 4500,
      "fzfg": false,
      "metar_trigger": false,
      "taf_trigger": false,
      "metar": "METAR LKMT 302200Z 04007KT 4500 BR FEW004 OVC006 M01/M01 Q1004 NOSIG",
      "taf": "TAF LKMT 301700Z 3018/3118 02010KT 8000 OVC012"
    },
    {
      "icao": "LKPR",
      "alert": "OK",
      "vis_m": 2800,
      "fzfg": false,
      "metar_trigger": false,
      "taf_trigger": false,
      "metar": "METAR LKPR 302200Z 09006KT 040V100 2800 BR SCT002 OVC003 M01/M01 Q1003 BECMG 1500 BR OVC002",
      "taf": "TAF LKPR 302000Z 3021/0103 07004KT 3000 BR BKN002 OVC005"
    },
    {
      "icao": "LLBG",
      "alert": "OK",
      "vis_m": 9999,
      "fzfg": false,
      "metar_trigger": false,
      "taf_trigger": false,
      "metar": "METAR LLBG 302220Z VRB02KT 9999 FEW030 14/10 Q1014 NOSIG",
      "taf": "TAF LLBG 301702Z 3018/3118 VRB03KT CAVOK"
    },
    {
      "icao": "LMML",
      "alert": "OK",
      "vis_m": 9999,
      "fzfg": false,
      "metar_trigger": false,
      "taf_trigger": false,
      "metar": "METAR LMML 302215Z 28022KT 9999 FEW024 14/10 Q1007 NOSIG",
      "taf": "TAF LMML 301700Z 3018/3118 28018G28KT 9999 FEW015"
    },
    {
      "icao": "LOWW",
      "alert": "OK",
      "vis_m": 9999,
      "fzfg": false,
      "metar_trigger": false,
      "taf_trigger": false,
      "metar": "METAR LOWW 302150Z 33004KT 9999 FEW034 OVC036 00/M01 Q1004 NOSIG",
      "taf": "TAF LOWW 302015Z 3021/0103 35005KT 8000 FEW010 OVC020 TX02/3113Z TNM00/3106Z"
    },
    {
      "icao": "LPFR",
      "alert": "OK",
      "vis_m": 9999,
      "fzfg": false,
      "metar_trigger": false,
      "taf_trigger": false,
      "metar": "METAR LPFR 302200Z 27017KT 9999 FEW020 SCT030 15/12 Q1016",
      "taf": "TAF LPFR 301700Z 3018/3118 27017KT 9999 SCT012"
    },
    {
      "icao": "LPMA",
      "alert": "OK",
      "vis_m": 9999,
      "fzfg": false,
      "metar_trigger": false,
      "taf_trigger": false,
      "metar": "METAR LPMA 302200Z VRB02KT 9999 SCT015 19/16 Q1025",
      "taf": "TAF LPMA 301700Z 3018/3118 VRB05KT 9999 SCT015"
    },
    {
      "icao": "LPPR",
      "alert": "OK",
      "vis_m": 9999,
      "fzfg": false,
      "metar_trigger": false,
      "taf_trigger": false,
      "metar": "METAR LPPR 302200Z 30013G23KT 9999 FEW020CB BKN038 12/05 Q1010 WS R35",
      "taf": ""
    },
    {
      "icao": "LPPS",
      "alert": "OK",
      "vis_m": 7000,
      "fzfg": false,
      "metar_trigger": false,
      "taf_trigger": false,
      "metar": "METAR LPPS 302200Z 31010KT 7000 SCT006 BKN030 17/17 Q1025",
      "taf": "TAF LPPS 301700Z 3018/3124 30010KT 9999 SCT013 BKN030"
    },
    {
      "icao": "LPPT",
      "alert": "OK",
      "vis_m": 9999,
      "fzfg": false,
      "metar_trigger": false,
      "taf_trigger": false,
      "metar": "METAR LPPT 302200Z 30010KT 270V330 9999 FEW016 SCT034 13/09 Q1015 WS R20",
      "taf": "TAF LPPT 301700Z 3018/3124 26015KT 9999 FEW008 SCT020"
    },
    {
      "icao": "LQBK",
      "alert": "OK",
      "vis_m": 9999,
      "fzfg": false,
      "metar_trigger": false,
      "taf_trigger": false,
      "metar": "METAR LQBK 302200Z 33003KT CAVOK 04/03 Q1003 NOSIG",
      "taf": "TAF LQBK 301700Z 3018/3118 07004KT CAVOK TX08/3113Z TN02/3105Z"
    },
    {
      "icao": "LQSA",
      "alert": "OK",
      "vis_m": 8000,
      "fzfg": false,
      "metar_trigger": false,
      "taf_trigger": false,
      "metar": "METAR LQSA 302200Z 16002KT 8000 FEW015 BKN030 04/04 Q1001 NOSIG",
      "taf": "TAF LQSA 301700Z 3018/3118 VRB02KT 9999 SCT012 BKN040 TX06/3113Z TN01/3106Z"
    },
    {
      "icao": "LQTZ",
      "alert": "OK",
      "vis_m": 8000,
      "fzfg": false,
      "metar_trigger": false,
      "taf_trigger": false,
      "metar": "METAR LQTZ 302200Z 11003KT 8000 BKN026 04/04 Q1003",
      "taf": "TAF LQTZ 301700Z 3018/3118 VRB02KT 9999 BKN030 TX06/3113Z TN02/3105Z"
    },
    {
      "icao": "LRBC",
      "alert": "OK",
      "vis_m": 9999,
      "fzfg": false,
      "metar_trigger": false,
      "taf_trigger": false,
      "metar": "METAR LRBC 302200Z 36013KT 9999 -SN BKN009 OVC034 M01/M03 Q1005",
      "taf": "TAF LRBC 302000Z 3021/3106 35012KT 9999 BKN010 OVC030"
    },
    {
      "icao": "LRBS",
      "alert": "OK",
      "vis_m": 1500,
      "fzfg": false,
      "metar_trigger": false,
      "taf_trigger": false,
      "metar": "METAR LRBS 302200Z 12009KT 090V150 1500 -DZ BR OVC003 03/02 Q1004 NOSIG",
      "taf": ""
    },
    {
      "icao": "LRBV",
      "alert": "OK",
      "vis_m": 9999,
      "fzfg": false,
      "metar_trigger": false,
      "taf_trigger": false,
      "metar": "METAR LRBV 302200Z AUTO VRB02KT 9999 OVC031/// 01/00 Q1002",
      "taf": "TAF LRBV 302000Z 3021/3106 VRB04KT 9999 SCT020 OVC035"
    },
    {
      "icao": "LRCL",
      "alert": "OK",
      "vis_m": 2000,
      "fzfg": false,
      "metar_trigger": false,
      "taf_trigger": false,
      "metar": "METAR LRCL 302200Z VRB02KT 2000 -DZRA BR SCT010 OVC015 03/02 Q1002",
      "taf": "TAF LRCL 302000Z 3021/3106 VRB04KT 1500 -DZRA BR BKN015 OVC030"
    },
    {
      "icao": "LRCV",
      "alert": "OK",
      "vis_m": 5000,
      "fzfg": false,
      "metar_trigger": false,
      "taf_trigger": false,
      "metar": "METAR LRCV 302200Z 27004KT 5000 BR FEW042 03/03 Q1002",
      "taf": "TAF LRCV 302000Z 3021/3106 VRB04KT 3000 BR NSC"
    },
    {
      "icao": "LRIA",
      "alert": "OK",
      "vis_m": 9999,
      "fzfg": false,
      "metar_trigger": false,
      "taf_trigger": false,
      "metar": "METAR LRIA 302200Z 34013KT 9999 SCT010 OVC012 M03/M06 Q1006",
      "taf": "TAF LRIA 302000Z 3021/3106 34012KT 9999 BKN010 OVC030"
    },
    {
      "icao": "LROP",
      "alert": "OK",
      "vis_m": 4000,
      "fzfg": false,
      "metar_trigger": false,
      "taf_trigger": false,
      "metar": "METAR LROP 302200Z 15009KT 4000 BR OVC003 03/03 Q1004 NOSIG",
      "taf": ""
    },
    {
      "icao": "LRSB",
      "alert": "OK",
      "vis_m": 3500,
      "fzfg": false,
      "metar_trigger": false,
      "taf_trigger": false,
      "metar": "METAR LRSB 302200Z VRB01KT 3500 -RA BR OVC015 04/04 Q1001",
      "taf": "TAF LRSB 301700Z 3018/3118 VRB04KT 7000 -RA BKN015 OVC030"
    },
    {
      "icao": "LRSM",
      "alert": "OK",
      "vis_m": 6000,
      "fzfg": false,
      "metar_trigger": false,
      "taf_trigger": false,
      "metar": "METAR LRSM 302200Z AUTO 03001KT 6000 -SHRA FEW025/// BKN040/// OVC047/// 04/03 Q1003",
      "taf": "TAF LRSM 301400Z 3015/3024 VRB04KT 9999 OVC025"
    },
    {
      "icao": "LRSV",
      "alert": "OK",
      "vis_m": 6000,
      "fzfg": false,
      "metar_trigger": false,
      "taf_trigger": false,
      "metar": "METAR LRSV 302200Z 36011KT 6000 -SN BKN008 BKN025 M05/M06 Q1005",
      "taf": "TAF LRSV 302000Z 3021/3106 35010KT 7000 -SN BKN010 OVC030"
    },
    {
      "icao": "LRTM",
      "alert": "OK",
      "vis_m": 2100,
      "fzfg": false,
      "metar_trigger": false,
      "taf_trigger": false,
      "metar": "METAR LRTM 302200Z AUTO 08003KT 2100 -RA BR SCT020/// OVC024/// 02/02 Q1002",
      "taf": ""
    },
    {
      "icao": "LRTR",
      "alert": "OK",
      "vis_m": 4500,
      "fzfg": false,
      "metar_trigger": false,
      "taf_trigger": false,
      "metar": "METAR LRTR 302200Z 28003KT 4500 -RADZ BR BKN008 OVC040 03/03 Q1003 BECMG 3000 RADZ BR",
      "taf": "TAF LRTR 301700Z 3018/3118 VRB04KT 3000 -DZ BR SCT003 OVC005"
    },
    {
      "icao": "LTAC",
      "alert": "OK",
      "vis_m": 9999,
      "fzfg": false,
      "metar_trigger": false,
      "taf_trigger": false,
      "metar": "METAR LTAC 302150Z 22005KT 9999 SCT040 BKN090 06/03 Q1004 NOSIG RMK RWY21C 22010KT RWY03L 23006KT RWY21R 21010KT RWY03R 19006KT 170V230 RWY21L 19008KT",
      "taf": "TAF LTAC 301640Z 3018/3118 VRB02KT 9999 SCT040 SCT100"
    },
    {
      "icao": "LTFM",
      "alert": "OK",
      "vis_m": 9999,
      "fzfg": false,
      "metar_trigger": false,
      "taf_trigger": false,
      "metar": "METAR LTFM 302150Z 29004KT 250V350 9999 SCT022 BKN070 06/04 Q1005 NOSIG RMK RWY17L 28004KT RWY34L 29004KT RWY16R 28004KT RWY36 29004KT 250V320 RWY18 30005KT 280V030",
      "taf": "TAF LTFM 301640Z 3018/3124 32012KT 9999 BKN012 BKN025"
    },
    {
      "icao": "LUKK",
      "alert": "OK",
      "vis_m": 8000,
      "fzfg": false,
      "metar_trigger": false,
      "taf_trigger": false,
      "metar": "METAR LUKK 302200Z 01010KT 8000 -SN FEW011 OVC028 M04/M06 Q1004 NOSIG",
      "taf": "TAF LUKK 301726Z 3018/3118 36014KT 5000 -SN BKN010"
    },
    {
      "icao": "LWOH",
      "alert": "OK",
      "vis_m": null,
      "fzfg": false,
      "metar_trigger": false,
      "taf_trigger": false,
      "metar": "",
      "taf": "TAF LWOH 302010Z 3021/3121 VRB02KT 9999 FEW040"
    },
    {
      "icao": "LWSK",
      "alert": "OK",
      "vis_m": 9999,
      "fzfg": false,
      "metar_trigger": false,
      "taf_trigger": false,
      "metar": "METAR LWSK 302220Z VRB01KT 9999 SCT035 03/02 Q1002 NOSIG",
      "taf": "TAF LWSK 302010Z 3021/3121 VRB02KT 9999 FEW040"
    },
    {
      "icao": "LYBE",
      "alert": "OK",
      "vis_m": 7000,
      "fzfg": false,
      "metar_trigger": false,
      "taf_trigger": false,
      "metar": "METAR LYBE 302200Z 03002KT 7000 OVC012 05/04 Q1004 NOSIG",
      "taf": "TAF LYBE 301700Z 3018/3118 04005KT 9999 BKN012 BKN023 TX07/3113Z TN03/3106Z"
    },
    {
      "icao": "LYNI",
      "alert": "OK",
      "vis_m": 9999,
      "fzfg": false,
      "metar_trigger": false,
      "taf_trigger": false,
      "metar": "METAR LYNI 302200Z 33004KT 310V030 9999 FEW015 BKN027 06/05 Q1003 NOSIG",
      "taf": "TAF LYNI 301700Z 3018/3118 VRB02KT 9999 SCT015 BKN040 TX08/3113Z TN02/3106Z"
    },
    {
      "icao": "LYPG",
      "alert": "OK",
      "vis_m": 9999,
      "fzfg": false,
      "metar_trigger": false,
      "taf_trigger": false,
      "metar": "METAR LYPG 302200Z VRB01KT 9999 FEW015 SCT040 BKN070 08/07 Q1002 NOSIG",
      "taf": "TAF LYPG 301700Z 3018/3118 35005KT 9999 FEW010 SCT050 TX13/3112Z TN05/3106Z"
    },
    {
      "icao": "LZIB",
      "alert": "OK",
      "vis_m": 8000,
      "fzfg": false,
      "metar_trigger": false,
      "taf_trigger": false,
      "metar": "METAR LZIB 302200Z 25004KT 8000 FEW012 01/M00 Q1004 NOSIG",
      "taf": "TAF LZIB 301715Z 3018/3118 30005KT 7000 FEW010 SCT040"
    },
    {
      "icao": "LZKZ",
      "alert": "OK",
      "vis_m": 9999,
      "fzfg": false,
      "metar_trigger": false,
      "taf_trigger": false,
      "metar": "METAR LZKZ 302200Z 36013KT 9999 OVC024 02/M02 Q1004 NOSIG",
      "taf": "TAF LZKZ 301715Z 3018/3118 01013KT 9999 FEW020 BKN030"
    },
    {
      "icao": "LZTT",
      "alert": "OK",
      "vis_m": 9999,
      "fzfg": false,
      "metar_trigger": false,
      "taf_trigger": false,
      "metar": "METAR LZTT 302200Z 05007KT 9999 SCT006 OVC015 M02/M03 Q1002",
      "taf": ""
    },
    {
      "icao": "OEJN",
      "alert": "OK",
      "vis_m": 9999,
      "fzfg": false,
      "metar_trigger": false,
      "taf_trigger": false,
      "metar": "METAR OEJN 302200Z 35003KT CAVOK 23/16 Q1014 NOSIG",
      "taf": "TAF OEJN 301700Z 3018/3124 36006KT CAVOK"
    },
    {
      "icao": "OEMA",
      "alert": "OK",
      "vis_m": 9999,
      "fzfg": false,
      "metar_trigger": false,
      "taf_trigger": false,
      "metar": "METAR OEMA 302200Z 02004KT CAVOK 21/06 Q1018 NOSIG",
      "taf": "TAF OEMA 301700Z 3018/3124 27006KT CAVOK"
    },
    {
      "icao": "OJAI",
      "alert": "OK",
      "vis_m": 4000,
      "fzfg": false,
      "metar_trigger": false,
      "taf_trigger": false,
      "metar": "METAR OJAI 302200Z 21006KT 4000 HZ NSC 09/04 Q1015 NOSIG",
      "taf": "TAF OJAI 301617Z 3018/3124 23006KT 5000 HZ NSC"
    },
    {
      "icao": "OMAA",
      "alert": "OK",
      "vis_m": 9999,
      "fzfg": false,
      "metar_trigger": false,
      "taf_trigger": false,
      "metar": "METAR OMAA 302200Z 21005KT CAVOK 17/10 Q1017 NOSIG",
      "taf": "TAF OMAA 301700Z 3018/0100 27010KT 8000 FEW030"
    },
    {
      "icao": "OMDB",
      "alert": "OK",
      "vis_m": 9999,
      "fzfg": false,
      "metar_trigger": false,
      "taf_trigger": false,
      "metar": "METAR OMDB 302200Z 19005KT 9999 SCT030 18/13 Q1017 WS ALL RWY NOSIG",
      "taf": "TAF OMDB 301700Z 3018/0100 28010KT 8000 NSC"
    },
    {
      "icao": "UAAA",
      "alert": "OK",
      "vis_m": 450,
      "fzfg": true,
      "metar_trigger": false,
      "taf_trigger": false,
      "metar": "METAR UAAA 302200Z VRB01MPS 0450 R23L/1300 FZFG VV002 M04/M05 Q1018 NOSIG RMK QBB070",
      "taf": "TAF UAAA 301702Z 3018/3118 22003MPS 1000 BR FU OVC004 TX01/3109Z TNM06/3102Z"
    },
    {
      "icao": "UBBB",
      "alert": "OK",
      "vis_m": 2500,
      "fzfg": false,
      "metar_trigger": false,
      "taf_trigger": false,
      "metar": "METAR UBBB 302200Z 18020KT 2500 BR OVC002 08/08 Q1007 NOSIG",
      "taf": ""
    },
    {
      "icao": "UDSG",
      "alert": "OK",
      "vis_m": 4600,
      "fzfg": false,
      "metar_trigger": false,
      "taf_trigger": false,
      "metar": "METAR UDSG 302200Z 05002KT 4600 BR OVC023 M06/M06 Q1014 NOSIG",
      "taf": "TAF UDSG 301658Z 3018/3118 VRB06KT 2000 BR OVC020"
    },
    {
      "icao": "UDYZ",
      "alert": "OK",
      "vis_m": 2500,
      "fzfg": false,
      "metar_trigger": false,
      "taf_trigger": false,
      "metar": "METAR UDYZ 302200Z 22001KT 2500 BR BKN015 M02/M04 Q1016 NOSIG",
      "taf": "TAF UDYZ 301700Z 3018/3118 VRB04KT 2300 BR BKN015"
    },
    {
      "icao": "UGKO",
      "alert": "OK",
      "vis_m": 9999,
      "fzfg": false,
      "metar_trigger": false,
      "taf_trigger": false,
      "metar": "METAR UGKO 302200Z 13004KT 100V160 9999 BKN098 13/M01 Q1005 NOSIG",
      "taf": "TAF UGKO 301700Z 3018/3118 08007KT CAVOK TX15/3112Z TN10/3118Z"
    }
  ]
}