{
  "ts_utc": "2025-12-29T21:31:53Z",
  "threshold_m": 150,
  "source": "stations_override.txt (ICAO list) + aviationweather.gov (METAR/TAF raw)",
  "station_count": 159,
  "stations": [
    {
      "icao": "BIKF",
      "alert": "OK",
      "vis_m": 9999,
      "fzfg": false,
      "metar_trigger": false,
      "taf_trigger": false,
      "metar": "METAR BIKF 292100Z 30009KT 9999 FEW016 BKN027 04/03 Q1039",
      "taf": "TAF BIKF 291939Z 2921/3021 27005KT 6000 DZ BR SCT007 BKN014 TX05/3006Z TN03/3000Z"
    },
    {
      "icao": "BKPR",
      "alert": "OK",
      "vis_m": 9999,
      "fzfg": false,
      "metar_trigger": false,
      "taf_trigger": false,
      "metar": "METAR BKPR 292130Z 02003KT 350V070 CAVOK M04/M06 Q1015 NOSIG",
      "taf": "TAF BKPR 291730Z 2918/3018 18007KT CAVOK"
    },
    {
      "icao": "EBCI",
      "alert": "OK",
      "vis_m": 3500,
      "fzfg": false,
      "metar_trigger": false,
      "taf_trigger": false,
      "metar": "METAR EBCI 292120Z 33004KT 3500 BR FEW004 SCT007 BKN015 02/01 Q1026 TEMPO 2500 BKN006",
      "taf": "TAF EBCI 291706Z 2918/3024 01005KT 6000 BKN025"
    },
    {
      "icao": "EDDB",
      "alert": "OK",
      "vis_m": 9999,
      "fzfg": false,
      "metar_trigger": false,
      "taf_trigger": false,
      "metar": "METAR EDDB 292120Z AUTO 34008KT CAVOK 02/M01 Q1017 NOSIG",
      "taf": "TAF EDDB 291700Z 2918/3018 31010KT 9999 BKN015"
    },
    {
      "icao": "EDDH",
      "alert": "OK",
      "vis_m": 9999,
      "fzfg": false,
      "metar_trigger": false,
      "taf_trigger": false,
      "metar": "METAR EDDH 292120Z AUTO 27002KT CAVOK M00/M01 Q1021 NOSIG",
      "taf": "TAF EDDH 291700Z 2918/3024 31011KT CAVOK"
    },
    {
      "icao": "EDDK",
      "alert": "OK",
      "vis_m": 1100,
      "fzfg": false,
      "metar_trigger": false,
      "taf_trigger": false,
      "metar": "METAR EDDK 292120Z AUTO 34003KT 290V360 1100 0750 R31R/1300D R06/P2000N BCFG OVC001 01/01 Q1024 NOSIG",
      "taf": ""
    },
    {
      "icao": "EDDN",
      "alert": "OK",
      "vis_m": 7000,
      "fzfg": false,
      "metar_trigger": false,
      "taf_trigger": false,
      "metar": "METAR EDDN 292120Z AUTO 25004KT 230V290 7000 -SN BKN006 M00/M01 Q1020",
      "taf": "TAF EDDN 291700Z 2918/3018 28006KT 9999 SCT008 BKN020"
    },
    {
      "icao": "EDDS",
      "alert": "OK",
      "vis_m": 9999,
      "fzfg": false,
      "metar_trigger": false,
      "taf_trigger": false,
      "metar": "METAR EDDS 292120Z AUTO 28004KT 240V310 9999 -SN BKN018 M01/M04 Q1022",
      "taf": "TAF EDDS 291700Z 2918/3018 33004KT 9999 OVC020"
    },
    {
      "icao": "EDFH",
      "alert": "OK",
      "vis_m": 7000,
      "fzfg": false,
      "metar_trigger": false,
      "taf_trigger": false,
      "metar": "METAR EDFH 292120Z 28005KT 7000 OVC001 M00/M01 Q1022",
      "taf": ""
    },
    {
      "icao": "EDJA",
      "alert": "OK",
      "vis_m": 5000,
      "fzfg": false,
      "metar_trigger": false,
      "taf_trigger": false,
      "metar": "METAR EDJA 292120Z 28004KT 240V340 5000 BR OVC004 M04/M05 Q1020",
      "taf": "TAF EDJA 291700Z 2918/3003 23006KT 6000 OVC003"
    },
    {
      "icao": "EDLW",
      "alert": "OK",
      "vis_m": 600,
      "fzfg": false,
      "metar_trigger": false,
      "taf_trigger": false,
      "metar": "METAR EDLW 292120Z 28004KT 250V310 0600 R24/0650D FG VV/// 03/02 Q1023",
      "taf": "TAF EDLW 291700Z 2918/3018 30004KT 6000 OVC015"
    },
    {
      "icao": "EDNY",
      "alert": "OK",
      "vis_m": 9999,
      "fzfg": false,
      "metar_trigger": false,
      "taf_trigger": false,
      "metar": "METAR EDNY 292120Z AUTO VRB02KT 9999 OVC014/// M02/M04 Q1022",
      "taf": "TAF EDNY 291700Z 2918/3003 VRB02KT 9999 OVC012"
    },
    {
      "icao": "EDSB",
      "alert": "OK",
      "vis_m": 2900,
      "fzfg": false,
      "metar_trigger": false,
      "taf_trigger": false,
      "metar": "METAR EDSB 292120Z 17004KT 2900 BR SCT002 OVC030 M03/M03 Q1024",
      "taf": ""
    },
    {
      "icao": "EETN",
      "alert": "OK",
      "vis_m": 5000,
      "fzfg": false,
      "metar_trigger": false,
      "taf_trigger": false,
      "metar": "METAR EETN 292120Z 35014G25KT 5000 1200E R26/P2000N SHSN DRSN SCT018CB OVC025 M03/M05 Q0993 TEMPO 1300 +SHSN",
      "taf": ""
    },
    {
      "icao": "EFTU",
      "alert": "OK",
      "vis_m": 9999,
      "fzfg": false,
      "metar_trigger": false,
      "taf_trigger": false,
      "metar": "METAR EFTU 292120Z AUTO 34013G24KT 300V020 9999 FEW031 M03/M09 Q0998",
      "taf": "TAF EFTU 292023Z 2921/3021 34012KT CAVOK"
    },
    {
      "icao": "EGBB",
      "alert": "OK",
      "vis_m": 3000,
      "fzfg": false,
      "metar_trigger": false,
      "taf_trigger": false,
      "metar": "METAR EGBB 292120Z 01006KT 3000 RADZ BKN006 BKN009 05/04 Q1031",
      "taf": "TAF EGBB 291654Z 2918/3018 04006KT 9999 BKN022"
    },
    {
      "icao": "EGGP",
      "alert": "OK",
      "vis_m": 9999,
      "fzfg": false,
      "metar_trigger": false,
      "taf_trigger": false,
      "metar": "METAR EGGP 292120Z 34005KT 320V060 9999 -DZ FEW023 BKN030 04/02 Q1033",
      "taf": ""
    },
    {
      "icao": "EGGW",
      "alert": "OK",
      "vis_m": 3200,
      "fzfg": false,
      "metar_trigger": false,
      "taf_trigger": false,
      "metar": "METAR EGGW 292120Z AUTO 01007KT 3200 -RADZ OVC003 05/04 Q1029 RERA",
      "taf": ""
    },
    {
      "icao": "EGKK",
      "alert": "OK",
      "vis_m": 9999,
      "fzfg": false,
      "metar_trigger": false,
      "taf_trigger": false,
      "metar": "METAR EGKK 292120Z 03007KT 9999 BKN021 06/03 Q1029",
      "taf": "TAF EGKK 291652Z 2918/3024 04009KT 9999 SCT025"
    },
    {
      "icao": "EGNM",
      "alert": "OK",
      "vis_m": 9999,
      "fzfg": false,
      "metar_trigger": false,
      "taf_trigger": false,
      "metar": "METAR EGNM 292120Z 02004KT 330V040 9999 FEW017 SCT033 04/03 Q1032",
      "taf": "TAF EGNM 291656Z 2918/3018 01006KT 9999 BKN018"
    },
    {
      "icao": "EGPD",
      "alert": "OK",
      "vis_m": 9999,
      "fzfg": false,
      "metar_trigger": false,
      "taf_trigger": false,
      "metar": "METAR EGPD 292120Z COR AUTO 33007KT 9999 BKN043 02/M01 Q1036 NOSIG",
      "taf": ""
    },
    {
      "icao": "EGPF",
      "alert": "OK",
      "vis_m": 9999,
      "fzfg": false,
      "metar_trigger": false,
      "taf_trigger": false,
      "metar": "METAR EGPF 292120Z AUTO VRB01KT 9999 SCT040 M00/M01 Q1036",
      "taf": "TAF EGPF 291654Z 2918/3018 05004KT 9999 BKN030"
    },
    {
      "icao": "EHBK",
      "alert": "OK",
      "vis_m": 900,
      "fzfg": false,
      "metar_trigger": false,
      "taf_trigger": false,
      "metar": "METAR EHBK 292125Z AUTO VRB02KT 0900 R21/1300N FG VV000 02/02 Q1025 NOSIG",
      "taf": "TAF EHBK 291718Z 2918/3024 26003KT 0700 FG BKN000"
    },
    {
      "icao": "EHEH",
      "alert": "OK",
      "vis_m": 1400,
      "fzfg": false,
      "metar_trigger": false,
      "taf_trigger": false,
      "metar": "METAR EHEH 292125Z AUTO 32004KT 290V010 1400 R03/2300N BR FEW001 SCT033 OVC038 03/03 Q1026 AMB BECMG 3000 RMK TREND REMOTE BY EHWX",
      "taf": "TAF EHEH 291722Z 2918/3024 26005KT 9999 FEW018 BKN025"
    },
    {
      "icao": "EKBI",
      "alert": "OK",
      "vis_m": 9999,
      "fzfg": false,
      "metar_trigger": false,
      "taf_trigger": false,
      "metar": "METAR EKBI 292120Z AUTO 34006KT 9999 BKN069/// M00/M05 Q1022",
      "taf": "TAF EKBI 292027Z 2921/3021 33008KT 9999 SCT040"
    },
    {
      "icao": "EKCH",
      "alert": "OK",
      "vis_m": 9999,
      "fzfg": false,
      "metar_trigger": false,
      "taf_trigger": false,
      "metar": "METAR EKCH 292120Z AUTO 32008KT 280V340 9999 SCT058/// 02/M08 Q1018 NOSIG",
      "taf": ""
    },
    {
      "icao": "ENAL",
      "alert": "OK",
      "vis_m": 9999,
      "fzfg": false,
      "metar_trigger": false,
      "taf_trigger": false,
      "metar": "METAR ENAL 292120Z AUTO 01018KT 9999 FEW026/// SCT052/// 02/M04 Q1028",
      "taf": "TAF ENAL 292000Z 2921/3006 34015KT 9999 FEW004 SCT020CB"
    },
    {
      "icao": "ENBR",
      "alert": "OK",
      "vis_m": 9999,
      "fzfg": false,
      "metar_trigger": false,
      "taf_trigger": false,
      "metar": "METAR ENBR 292120Z 36004KT 330V030 9999 FEW040 M00/M04 Q1028 RMK WIND 1200FT 35014KT",
      "taf": "TAF ENBR 291700Z 2918/3018 34012KT 9999 FEW035"
    },
    {
      "icao": "ENGM",
      "alert": "OK",
      "vis_m": 9999,
      "fzfg": false,
      "metar_trigger": false,
      "taf_trigger": false,
      "metar": "METAR ENGM 292120Z 36010KT CAVOK M01/M11 Q1019 NOSIG",
      "taf": "TAF ENGM 291700Z 2918/3018 34010KT CAVOK"
    },
    {
      "icao": "ENHD",
      "alert": "OK",
      "vis_m": 9999,
      "fzfg": false,
      "metar_trigger": false,
      "taf_trigger": false,
      "metar": "METAR ENHD 292120Z 36023KT 9999 FEW035 02/M04 Q1028",
      "taf": "TAF ENHD 291400Z 2915/2923 35025KT 9999 SCT040"
    },
    {
      "icao": "ENTC",
      "alert": "OK",
      "vis_m": 800,
      "fzfg": false,
      "metar_trigger": false,
      "taf_trigger": false,
      "metar": "METAR ENTC 292120Z 01013KT 0800 R36/1800N R18/1700D SN VV009 M05/M06 Q1013 TEMPO 6000 -SHSN FEW020CB BKN030 RMK WIND 2600FT 01024KT",
      "taf": ""
    },
    {
      "icao": "ENTO",
      "alert": "OK",
      "vis_m": 9999,
      "fzfg": false,
      "metar_trigger": false,
      "taf_trigger": false,
      "metar": "METAR ENTO 292120Z 34010KT CAVOK M01/M11 Q1020 NOSIG",
      "taf": "TAF ENTO 291700Z 2918/3018 33010KT CAVOK"
    },
    {
      "icao": "ENVA",
      "alert": "OK",
      "vis_m": 5000,
      "fzfg": false,
      "metar_trigger": false,
      "taf_trigger": false,
      "metar": "METAR ENVA 292120Z 28013KT 5000 -SHSN VV020 M00/M02 Q1020 RMK WIND 670FT 30020G32KT",
      "taf": "TAF ENVA 291700Z 2918/3018 31009KT 9999 SCT015CB BKN025"
    },
    {
      "icao": "ENZV",
      "alert": "OK",
      "vis_m": 9999,
      "fzfg": false,
      "metar_trigger": false,
      "taf_trigger": false,
      "metar": "METAR ENZV 292120Z 36011KT CAVOK 01/M04 Q1028",
      "taf": "TAF ENZV 291700Z 2918/3018 35018KT CAVOK"
    },
    {
      "icao": "EPGD",
      "alert": "OK",
      "vis_m": 9999,
      "fzfg": false,
      "metar_trigger": false,
      "taf_trigger": false,
      "metar": "METAR EPGD 292100Z 30012KT CAVOK M01/M09 Q1007",
      "taf": "TAF EPGD 291730Z 2918/3018 33015KT CAVOK"
    },
    {
      "icao": "EPKK",
      "alert": "OK",
      "vis_m": 9999,
      "fzfg": false,
      "metar_trigger": false,
      "taf_trigger": false,
      "metar": "METAR EPKK 292100Z 26015KT 9999 -SN SCT021 OVC024 M00/M04 Q1010",
      "taf": "TAF EPKK 292030Z 2921/3021 25012KT 9999 -SN BKN017"
    },
    {
      "icao": "EPKT",
      "alert": "OK",
      "vis_m": 9999,
      "fzfg": false,
      "metar_trigger": false,
      "taf_trigger": false,
      "metar": "METAR EPKT 292100Z 27011KT 9999 -SN OVC013 00/M02 Q1010",
      "taf": ""
    },
    {
      "icao": "EPLB",
      "alert": "OK",
      "vis_m": 4500,
      "fzfg": false,
      "metar_trigger": false,
      "taf_trigger": false,
      "metar": "METAR EPLB 292100Z 30010KT 4500 SHSN FEW009 BKN014CB BKN027 00/M01 Q1005",
      "taf": ""
    },
    {
      "icao": "EPMO",
      "alert": "OK",
      "vis_m": 9999,
      "fzfg": false,
      "metar_trigger": false,
      "taf_trigger": false,
      "metar": "METAR EPMO 292100Z 31009KT CAVOK M01/M04 Q1007",
      "taf": "TAF EPMO 291730Z 2918/3018 28013KT 9999 SCT030"
    },
    {
      "icao": "EPPO",
      "alert": "OK",
      "vis_m": 9999,
      "fzfg": false,
      "metar_trigger": false,
      "taf_trigger": false,
      "metar": "METAR EPPO 292100Z 32010KT 9999 BKN045 01/M01 Q1012",
      "taf": "TAF EPPO 291730Z 2918/3018 32010KT 9999 BKN012"
    },
    {
      "icao": "EPRA",
      "alert": "OK",
      "vis_m": 5000,
      "fzfg": false,
      "metar_trigger": false,
      "taf_trigger": false,
      "metar": "METAR EPRA 292100Z 29013KT 5000 -SHSN FEW006 BKN016CB 00/M01 Q1006",
      "taf": "TAF EPRA 292030Z 2921/3006 28012KT 9999 BKN017 OVC040"
    },
    {
      "icao": "EPRZ",
      "alert": "OK",
      "vis_m": 9999,
      "fzfg": false,
      "metar_trigger": false,
      "taf_trigger": false,
      "metar": "METAR EPRZ 292100Z 27011KT 9999 -SN OVC013 00/M03 Q1008",
      "taf": "TAF EPRZ 291730Z 2918/3018 27014KT 9999 BKN013"
    },
    {
      "icao": "EPSC",
      "alert": "OK",
      "vis_m": 9999,
      "fzfg": false,
      "metar_trigger": false,
      "taf_trigger": false,
      "metar": "METAR EPSC 292100Z 30009KT CAVOK M01/M08 Q1015",
      "taf": "TAF EPSC 291730Z 2918/3018 33010KT CAVOK"
    },
    {
      "icao": "EPSY",
      "alert": "OK",
      "vis_m": 9999,
      "fzfg": false,
      "metar_trigger": false,
      "taf_trigger": false,
      "metar": "METAR EPSY 292100Z COR 28009KT 240V350 9999 -SHSN FEW030 SCT043CB M02/M05 Q1005",
      "taf": "TAF EPSY 292030Z 2921/3006 31012KT 9999 SCT030"
    },
    {
      "icao": "EPWA",
      "alert": "OK",
      "vis_m": 9999,
      "fzfg": false,
      "metar_trigger": false,
      "taf_trigger": false,
      "metar": "METAR EPWA 292100Z 31016KT 9999 BKN030 01/M05 Q1007 NOSIG",
      "taf": "TAF EPWA 292030Z 2921/3021 30013KT 9999 SCT025"
    },
    {
      "icao": "EPWR",
      "alert": "OK",
      "vis_m": 9999,
      "fzfg": false,
      "metar_trigger": false,
      "taf_trigger": false,
      "metar": "METAR EPWR 292100Z 28013KT 9999 -RA SCT005 BKN008 01/01 Q1012",
      "taf": "TAF EPWR 292030Z 2921/3021 29012KT 9999 BKN012"
    },
    {
      "icao": "ESGG",
      "alert": "OK",
      "vis_m": 9999,
      "fzfg": false,
      "metar_trigger": false,
      "taf_trigger": false,
      "metar": "METAR ESGG 292120Z 34010KT CAVOK M01/M11 Q1017",
      "taf": "TAF ESGG 292030Z 2921/3021 34012KT CAVOK"
    },
    {
      "icao": "ESKN",
      "alert": "OK",
      "vis_m": 9999,
      "fzfg": false,
      "metar_trigger": false,
      "taf_trigger": false,
      "metar": "METAR ESKN 292120Z 32013KT CAVOK M02/M11 Q1010",
      "taf": "TAF ESKN 292030Z 2921/3021 33015G28KT CAVOK"
    },
    {
      "icao": "ESMS",
      "alert": "OK",
      "vis_m": 9999,
      "fzfg": false,
      "metar_trigger": false,
      "taf_trigger": false,
      "metar": "METAR ESMS 292120Z 32012KT CAVOK M01/M08 Q1016",
      "taf": "TAF ESMS 292027Z 2921/3021 32012KT CAVOK"
    },
    {
      "icao": "ESSA",
      "alert": "OK",
      "vis_m": 9999,
      "fzfg": false,
      "metar_trigger": false,
      "taf_trigger": false,
      "metar": "METAR ESSA 292120Z 31012KT CAVOK M04/M12 Q1008 NOSIG",
      "taf": "TAF ESSA 292030Z 2921/3021 34015G25KT CAVOK"
    },
    {
      "icao": "EYKA",
      "alert": "OK",
      "vis_m": 9999,
      "fzfg": false,
      "metar_trigger": false,
      "taf_trigger": false,
      "metar": "METAR EYKA 292120Z 29011KT 260V340 9999 FEW021 M03/M07 Q0999",
      "taf": "TAF EYKA 291728Z 2918/3018 30011KT 9000 SCT025"
    },
    {
      "icao": "EYPA",
      "alert": "OK",
      "vis_m": 9999,
      "fzfg": false,
      "metar_trigger": false,
      "taf_trigger": false,
      "metar": "METAR EYPA 292120Z 03008KT 9999 FEW017CB BKN039 M02/M04 Q1002",
      "taf": "TAF EYPA 291726Z 2918/3018 34012G23KT 5000 SHSNRA SCT020CB BKN030"
    },
    {
      "icao": "EYVI",
      "alert": "OK",
      "vis_m": 9999,
      "fzfg": false,
      "metar_trigger": false,
      "taf_trigger": false,
      "metar": "METAR EYVI 292120Z 30012KT 260V330 9999 BKN018 M04/M07 Q0997 TEMPO 0800 +SHSN BKN002 SCT015CB",
      "taf": ""
    },
    {
      "icao": "GCFV",
      "alert": "OK",
      "vis_m": 9999,
      "fzfg": false,
      "metar_trigger": false,
      "taf_trigger": false,
      "metar": "METAR GCFV 292100Z 29005KT 9999 FEW030 16/11 Q1021",
      "taf": "TAF GCFV 292000Z 2921/3021 29004KT 9999 FEW035 TX21/3014Z TN14/3006Z"
    },
    {
      "icao": "GCLP",
      "alert": "OK",
      "vis_m": 9999,
      "fzfg": false,
      "metar_trigger": false,
      "taf_trigger": false,
      "metar": "METAR GCLP 292100Z 19002KT 9999 FEW024 BKN035 18/14 Q1021 NOSIG",
      "taf": "TAF GCLP 292000Z 2921/3021 30004KT 9999 SCT030 TX22/3014Z TN15/3006Z"
    },
    {
      "icao": "GCTS",
      "alert": "OK",
      "vis_m": 9999,
      "fzfg": false,
      "metar_trigger": false,
      "taf_trigger": false,
      "metar": "METAR GCTS 292100Z 21003KT 9999 SCT027 18/13 Q1021 NOSIG",
      "taf": "TAF GCTS 292000Z 2921/3021 35003KT 9999 SCT030 TX24/3014Z TN16/3006Z"
    },
    {
      "icao": "GMAD",
      "alert": "OK",
      "vis_m": 9999,
      "fzfg": false,
      "metar_trigger": false,
      "taf_trigger": false,
      "metar": "METAR GMAD 292100Z 22003KT 9999 FEW026 12/12 Q1020 NOSIG",
      "taf": "TAF GMAD 291700Z 2918/3024 18005KT 8000 SCT020 SCT080"
    },
    {
      "icao": "GMMN",
      "alert": "OK",
      "vis_m": 9999,
      "fzfg": false,
      "metar_trigger": false,
      "taf_trigger": false,
      "metar": "METAR GMMN 292100Z 13005KT 9999 FEW016 11/09 Q1021 NOSIG",
      "taf": "TAF GMMN 291700Z 2918/3024 30006KT 9999 SCT020"
    },
    {
      "icao": "GMMX",
      "alert": "OK",
      "vis_m": 9999,
      "fzfg": false,
      "metar_trigger": false,
      "taf_trigger": false,
      "metar": "METAR GMMX 292100Z 11003KT 9999 SCT020 SCT090 10/08 Q1021 NOSIG",
      "taf": "TAF GMMX 291700Z 2918/3024 24012KT 8000 SCT020"
    },
    {
      "icao": "HEGN",
      "alert": "OK",
      "vis_m": 9999,
      "fzfg": false,
      "metar_trigger": false,
      "taf_trigger": false,
      "metar": "METAR HEGN 292100Z 27007KT CAVOK 15/05 Q1020 NOSIG",
      "taf": "TAF HEGN 291700Z 2918/3024 34010KT CAVOK"
    },
    {
      "icao": "HEMA",
      "alert": "OK",
      "vis_m": 9999,
      "fzfg": false,
      "metar_trigger": false,
      "taf_trigger": false,
      "metar": "METAR HEMA 292100Z 27008KT CAVOK 17/10 Q1016 NOSIG",
      "taf": "TAF HEMA 291700Z 2918/3024 34010KT CAVOK"
    },
    {
      "icao": "HESH",
      "alert": "OK",
      "vis_m": 9999,
      "fzfg": false,
      "metar_trigger": false,
      "taf_trigger": false,
      "metar": "METAR HESH 292100Z 26004KT CAVOK 18/04 Q1018 NOSIG",
      "taf": "TAF HESH 291700Z 2918/3024 35010KT CAVOK"
    },
    {
      "icao": "HESX",
      "alert": "OK",
      "vis_m": 9999,
      "fzfg": false,
      "metar_trigger": false,
      "taf_trigger": false,
      "metar": "METAR HESX 292100Z 06003KT CAVOK 13/10 Q1020 NOSIG",
      "taf": "TAF HESX 291736Z 2918/3024 31009KT 9999 FEW025"
    },
    {
      "icao": "LATI",
      "alert": "OK",
      "vis_m": 9999,
      "fzfg": false,
      "metar_trigger": false,
      "taf_trigger": false,
      "metar": "METAR LATI 292120Z 18004KT CAVOK M00/M04 Q1017 NOSIG",
      "taf": "TAF LATI 291700Z 2918/3018 VRB04KT CAVOK TX16/3012Z TNM03/3005Z"
    },
    {
      "icao": "LBPD",
      "alert": "OK",
      "vis_m": 9999,
      "fzfg": false,
      "metar_trigger": false,
      "taf_trigger": false,
      "metar": "METAR LBPD 292130Z AUTO 18006KT 9999 FEW240/// 02/M07 Q1012",
      "taf": "TAF LBPD 291700Z 2918/3018 VRB03KT CAVOK"
    },
    {
      "icao": "LBSF",
      "alert": "OK",
      "vis_m": 9999,
      "fzfg": false,
      "metar_trigger": false,
      "taf_trigger": false,
      "metar": "METAR LBSF 292130Z AUTO VRB02KT 9999 NCD M03/M07 Q1013 NOSIG",
      "taf": "TAF LBSF 291700Z 2918/3018 VRB03KT CAVOK"
    },
    {
      "icao": "LBWN",
      "alert": "OK",
      "vis_m": 9999,
      "fzfg": false,
      "metar_trigger": false,
      "taf_trigger": false,
      "metar": "METAR LBWN 292130Z AUTO 32005KT 9999 NCD 01/M06 Q1010 NOSIG",
      "taf": "TAF LBWN 291700Z 2918/3018 29008KT CAVOK"
    },
    {
      "icao": "LCLK",
      "alert": "OK",
      "vis_m": 9999,
      "fzfg": false,
      "metar_trigger": false,
      "taf_trigger": false,
      "metar": "METAR LCLK 292100Z 36008KT CAVOK 09/03 Q1017 NOSIG",
      "taf": "TAF LCLK 291730Z 2918/3018 32007KT 9999 FEW025"
    },
    {
      "icao": "LCPH",
      "alert": "OK",
      "vis_m": 9999,
      "fzfg": false,
      "metar_trigger": false,
      "taf_trigger": false,
      "metar": "METAR LCPH 292100Z 02006KT CAVOK 09/02 Q1016 NOSIG",
      "taf": "TAF LCPH 291730Z 2918/3018 34010KT 9999 FEW020"
    },
    {
      "icao": "LEAL",
      "alert": "OK",
      "vis_m": 9999,
      "fzfg": false,
      "metar_trigger": false,
      "taf_trigger": false,
      "metar": "METAR LEAL 292100Z 26004KT CAVOK 09/09 Q1020 NOSIG",
      "taf": "TAF LEAL 291700Z 2918/3018 29005KT 9999 FEW030 TX18/3013Z TN07/3006Z"
    },
    {
      "icao": "LEBB",
      "alert": "OK",
      "vis_m": 9999,
      "fzfg": false,
      "metar_trigger": false,
      "taf_trigger": false,
      "metar": "METAR LEBB 292100Z 09003KT 060V120 9999 FEW022 SCT060 07/06 Q1021 NOSIG",
      "taf": "TAF LEBB 291700Z 2918/3018 21005KT 9999 BKN020 TX12/3014Z TN06/2921Z"
    },
    {
      "icao": "LEBL",
      "alert": "OK",
      "vis_m": 9999,
      "fzfg": false,
      "metar_trigger": false,
      "taf_trigger": false,
      "metar": "METAR LEBL 292100Z 29004KT 240V330 CAVOK 10/10 Q1019 NOSIG",
      "taf": "TAF LEBL 291700Z 2918/3018 34006KT 9999 SCT030 TX15/3012Z TN07/3007Z"
    },
    {
      "icao": "LECH",
      "alert": "OK",
      "vis_m": 7000,
      "fzfg": false,
      "metar_trigger": false,
      "taf_trigger": false,
      "metar": "METAR LECH 292100Z AUTO 22004KT 7000 NSC 07/07 Q1019",
      "taf": ""
    },
    {
      "icao": "LEMD",
      "alert": "OK",
      "vis_m": 9999,
      "fzfg": false,
      "metar_trigger": false,
      "taf_trigger": false,
      "metar": "METAR LEMD 292100Z VRB02KT 9999 FEW055 04/03 Q1020 NOSIG",
      "taf": "TAF LEMD 291700Z 2918/3024 VRB04KT 9999 SCT045 TX11/3015Z TNM01/3007Z"
    },
    {
      "icao": "LEMG",
      "alert": "OK",
      "vis_m": 9999,
      "fzfg": false,
      "metar_trigger": false,
      "taf_trigger": false,
      "metar": "METAR LEMG 292100Z 31003KT 9999 FEW060 SCT080 10/09 Q1021 NOSIG",
      "taf": "TAF LEMG 291700Z 2918/3018 29008KT 9999 SCT070 TX18/3014Z TN06/3006Z"
    },
    {
      "icao": "LEVC",
      "alert": "OK",
      "vis_m": 9999,
      "fzfg": false,
      "metar_trigger": false,
      "taf_trigger": false,
      "metar": "METAR LEVC 292100Z 32004KT 290V010 CAVOK 09/08 Q1020 NOSIG",
      "taf": "TAF LEVC 291700Z 2918/3018 VRB04KT 9999 FEW020 TX17/3013Z TN05/3006Z"
    },
    {
      "icao": "LEXJ",
      "alert": "OK",
      "vis_m": 8000,
      "fzfg": false,
      "metar_trigger": false,
      "taf_trigger": false,
      "metar": "METAR LEXJ 292100Z 22004KT 160V300 8000 FEW024 09/07 Q1021",
      "taf": ""
    },
    {
      "icao": "LEZG",
      "alert": "OK",
      "vis_m": 7000,
      "fzfg": false,
      "metar_trigger": false,
      "taf_trigger": false,
      "metar": "METAR LEZG 292100Z 29005KT 270V340 7000 BKN008 07/07 Q1020 NOSIG",
      "taf": "TAF LEZG 291700Z 2918/3018 29008KT 9999 SCT010 TX13/3014Z TN04/3006Z"
    },
    {
      "icao": "LEZL",
      "alert": "OK",
      "vis_m": 9999,
      "fzfg": false,
      "metar_trigger": false,
      "taf_trigger": false,
      "metar": "METAR LEZL 292100Z 21004KT CAVOK 12/10 Q1021 NOSIG",
      "taf": "TAF LEZL 292000Z 2921/3021 VRB03KT CAVOK TX16/3015Z TN06/3006Z"
    },
    {
      "icao": "LFBD",
      "alert": "OK",
      "vis_m": 4400,
      "fzfg": false,
      "metar_trigger": false,
      "taf_trigger": false,
      "metar": "METAR LFBD 292100Z AUTO 30005KT 4400 BR NSC 01/01 Q1021 TEMPO 0500 FG VV///",
      "taf": ""
    },
    {
      "icao": "LFLL",
      "alert": "OK",
      "vis_m": 6000,
      "fzfg": false,
      "metar_trigger": false,
      "taf_trigger": false,
      "metar": "METAR LFLL 292100Z 34007KT 6000 OVC005 M01/M02 Q1021 TEMPO 4000 BR BKN004",
      "taf": "TAF LFLL 291700Z 2918/3024 36006KT 7000 OVC007"
    },
    {
      "icao": "LFLS",
      "alert": "OK",
      "vis_m": 2500,
      "fzfg": false,
      "metar_trigger": false,
      "taf_trigger": false,
      "metar": "METAR LFLS 292100Z AUTO VRB02KT 2500 1300 R09/P2400 R27/1600U BR OVC002 M01/M01 Q1020",
      "taf": ""
    },
    {
      "icao": "LFMN",
      "alert": "OK",
      "vis_m": 9999,
      "fzfg": false,
      "metar_trigger": false,
      "taf_trigger": false,
      "metar": "METAR LFMN 292100Z 33011KT CAVOK 07/00 Q1016 NOSIG",
      "taf": "TAF LFMN 292000Z 2921/3103 33010KT CAVOK"
    },
    {
      "icao": "LFOB",
      "alert": "OK",
      "vis_m": 9999,
      "fzfg": false,
      "metar_trigger": false,
      "taf_trigger": false,
      "metar": "METAR LFOB 292100Z AUTO 02005KT 340V050 9999 OVC021 03/01 Q1027",
      "taf": ""
    },
    {
      "icao": "LFPO",
      "alert": "OK",
      "vis_m": 9999,
      "fzfg": false,
      "metar_trigger": false,
      "taf_trigger": false,
      "metar": "METAR LFPO 292100Z 04010KT 9999 BKN017 02/M01 Q1026 NOSIG",
      "taf": "TAF LFPO 291700Z 2918/3024 01010KT CAVOK"
    },
    {
      "icao": "LFSB",
      "alert": "OK",
      "vis_m": 3700,
      "fzfg": true,
      "metar_trigger": false,
      "taf_trigger": false,
      "metar": "METAR LFSB 292100Z AUTO 34004KT 3700 BR OVC002 M03/M03 Q1023 TEMPO 0500 FZFG VV///",
      "taf": "TAF LFSB 291700Z 2918/3018 33004KT 4000 BR OVC005"
    },
    {
      "icao": "LGAV",
      "alert": "OK",
      "vis_m": 9999,
      "fzfg": false,
      "metar_trigger": false,
      "taf_trigger": false,
      "metar": "METAR LGAV 292120Z 01003KT 9999 SCT020 05/02 Q1018 NOSIG",
      "taf": "TAF LGAV 291700Z 2918/3018 23008KT 9999 FEW025"
    },
    {
      "icao": "LGTS",
      "alert": "OK",
      "vis_m": 9999,
      "fzfg": false,
      "metar_trigger": false,
      "taf_trigger": false,
      "metar": "METAR LGTS 292120Z 12005KT 9999 FEW012 01/M03 Q1016 NOSIG",
      "taf": ""
    },
    {
      "icao": "LHBP",
      "alert": "OK",
      "vis_m": 9999,
      "fzfg": false,
      "metar_trigger": false,
      "taf_trigger": false,
      "metar": "METAR LHBP 292100Z 30008KT 270V350 CAVOK M01/M05 Q1012 NOSIG",
      "taf": "TAF LHBP 291715Z 2918/3018 29012KT CAVOK"
    },
    {
      "icao": "LHDC",
      "alert": "OK",
      "vis_m": 6000,
      "fzfg": false,
      "metar_trigger": false,
      "taf_trigger": false,
      "metar": "METAR LHDC 292045Z AUTO 06005KT 6000 NCD M06/M07 Q1011 NOSIG",
      "taf": "TAF LHDC 291715Z 2918/3003 14006KT CAVOK"
    },
    {
      "icao": "LIBD",
      "alert": "OK",
      "vis_m": 9999,
      "fzfg": false,
      "metar_trigger": false,
      "taf_trigger": false,
      "metar": "METAR LIBD 292120Z 20007KT CAVOK 05/03 Q1016",
      "taf": "TAF LIBD 291700Z 2918/3018 20006KT CAVOK"
    },
    {
      "icao": "LIBG",
      "alert": "OK",
      "vis_m": null,
      "fzfg": false,
      "metar_trigger": false,
      "taf_trigger": false,
      "metar": "",
      "taf": "TAF LIBG 291700Z 2918/3003 VRB05KT CAVOK"
    },
    {
      "icao": "LIBP",
      "alert": "OK",
      "vis_m": 9999,
      "fzfg": false,
      "metar_trigger": false,
      "taf_trigger": false,
      "metar": "METAR LIBP 292120Z AUTO 22005KT 9999 NCD 01/00 Q1016",
      "taf": "TAF LIBP 291700Z 2918/3018 VRB05KT 9999 FEW030"
    },
    {
      "icao": "LIBR",
      "alert": "OK",
      "vis_m": 9999,
      "fzfg": false,
      "metar_trigger": false,
      "taf_trigger": false,
      "metar": "METAR LIBR 292120Z 24007KT CAVOK 06/05 Q1016",
      "taf": "TAF LIBR 291700Z 2918/3018 23006KT 9999 FEW025"
    },
    {
      "icao": "LICA",
      "alert": "OK",
      "vis_m": 9999,
      "fzfg": false,
      "metar_trigger": false,
      "taf_trigger": false,
      "metar": "METAR LICA 292120Z AUTO 07006KT 9999 FEW035/// 07/05 Q1017",
      "taf": "TAF LICA 291700Z 2918/3018 07006KT 9999 SCT030"
    },
    {
      "icao": "LICC",
      "alert": "OK",
      "vis_m": 9999,
      "fzfg": false,
      "metar_trigger": false,
      "taf_trigger": false,
      "metar": "METAR LICC 292120Z 23005KT 9999 SCT070 08/05 Q1018",
      "taf": "TAF LICC 291700Z 2918/3018 VRB05KT 9999 SCT030"
    },
    {
      "icao": "LICJ",
      "alert": "OK",
      "vis_m": 9999,
      "fzfg": false,
      "metar_trigger": false,
      "taf_trigger": false,
      "metar": "METAR LICJ 292120Z 18005KT CAVOK 11/08 Q1017",
      "taf": "TAF LICJ 291700Z 2918/3018 17006KT 9999 SCT020"
    },
    {
      "icao": "LIMC",
      "alert": "OK",
      "vis_m": 9999,
      "fzfg": false,
      "metar_trigger": false,
      "taf_trigger": false,
      "metar": "METAR LIMC 292120Z 01004KT CAVOK M01/M02 Q1014 NOSIG",
      "taf": "TAF LIMC 291700Z 2918/3024 VRB04KT CAVOK"
    },
    {
      "icao": "LIME",
      "alert": "OK",
      "vis_m": 9999,
      "fzfg": false,
      "metar_trigger": false,
      "taf_trigger": false,
      "metar": "METAR LIME 292120Z 01004KT CAVOK 02/M01 Q1014 NOSIG",
      "taf": "TAF LIME 291700Z 2918/3018 VRB04KT CAVOK"
    },
    {
      "icao": "LIMF",
      "alert": "OK",
      "vis_m": 9999,
      "fzfg": false,
      "metar_trigger": false,
      "taf_trigger": false,
      "metar": "METAR LIMF 292120Z 29004KT CAVOK 03/M03 Q1014",
      "taf": "TAF LIMF 291700Z 2918/3018 VRB05KT CAVOK"
    },
    {
      "icao": "LIMJ",
      "alert": "OK",
      "vis_m": 9999,
      "fzfg": false,
      "metar_trigger": false,
      "taf_trigger": false,
      "metar": "METAR LIMJ 292120Z 08007KT 9999 SCT032 10/05 Q1016",
      "taf": "TAF LIMJ 291700Z 2918/3018 13006KT 9999 FEW020"
    },
    {
      "icao": "LIPE",
      "alert": "OK",
      "vis_m": 9999,
      "fzfg": false,
      "metar_trigger": false,
      "taf_trigger": false,
      "metar": "METAR LIPE 292120Z 19003KT 150V230 CAVOK 03/M01 Q1015",
      "taf": "TAF LIPE 291700Z 2918/3018 VRB06KT 8000 NSC"
    },
    {
      "icao": "LIPH",
      "alert": "OK",
      "vis_m": 500,
      "fzfg": true,
      "metar_trigger": false,
      "taf_trigger": false,
      "metar": "METAR LIPH 292120Z VRB01KT 0500 R07/0350N FZFG BKN001 M02/M02 Q1015",
      "taf": "TAF LIPH 291700Z 2918/3018 VRB05KT 0300 FG BKN002"
    },
    {
      "icao": "LIPQ",
      "alert": "OK",
      "vis_m": 5000,
      "fzfg": false,
      "metar_trigger": false,
      "taf_trigger": false,
      "metar": "METAR LIPQ 292120Z AUTO VRB02KT 5000 BR BKN016/// 03/02 Q1015",
      "taf": "TAF LIPQ 291700Z 2918/3018 VRB05KT CAVOK"
    },
    {
      "icao": "LIPR",
      "alert": "OK",
      "vis_m": 3000,
      "fzfg": false,
      "metar_trigger": false,
      "taf_trigger": false,
      "metar": "METAR LIPR 292120Z 21003KT 3000 BR NSC M00/M00 Q1015",
      "taf": "TAF LIPR 291700Z 2918/3018 VRB05KT 3000 BR FEW020"
    },
    {
      "icao": "LIPX",
      "alert": "OK",
      "vis_m": 1000,
      "fzfg": false,
      "metar_trigger": false,
      "taf_trigger": false,
      "metar": "METAR LIPX 292120Z VRB01KT 1000 0400NE R04/1900U BCFG NSC M01/M02 Q1015",
      "taf": "TAF LIPX 291700Z 2918/3018 VRB05KT 1400 BCFG NSC"
    },
    {
      "icao": "LIPY",
      "alert": "OK",
      "vis_m": 1100,
      "fzfg": false,
      "metar_trigger": false,
      "taf_trigger": false,
      "metar": "METAR LIPY 292120Z AUTO VRB01KT 1100 R22/P2000N BR NCD 04/04 Q1015",
      "taf": "TAF LIPY 291700Z 2918/3018 VRB05KT 9999 FEW030"
    },
    {
      "icao": "LIPZ",
      "alert": "CRITICAL",
      "vis_m": 50,
      "fzfg": true,
      "metar_trigger": true,
      "taf_trigger": false,
      "metar": "METAR LIPZ 292120Z VRB02KT 0050 R04R/0350N FZFG VV001 M01/M01 Q1015 NOSIG",
      "taf": ""
    },
    {
      "icao": "LIRF",
      "alert": "OK",
      "vis_m": 9999,
      "fzfg": false,
      "metar_trigger": false,
      "taf_trigger": false,
      "metar": "METAR LIRF 292120Z 08007KT 9999 SCT030 07/06 Q1017 NOSIG",
      "taf": "TAF LIRF 291700Z 2918/3024 07007KT 9999 SCT025"
    },
    {
      "icao": "LIRN",
      "alert": "OK",
      "vis_m": 9999,
      "fzfg": false,
      "metar_trigger": false,
      "taf_trigger": false,
      "metar": "METAR LIRN 292120Z AUTO VRB02KT 9999 FEW033/// 07/03 Q1017",
      "taf": "TAF LIRN 291700Z 2918/3018 VRB05KT 9999 FEW025"
    },
    {
      "icao": "LIRP",
      "alert": "OK",
      "vis_m": 9999,
      "fzfg": false,
      "metar_trigger": false,
      "taf_trigger": false,
      "metar": "METAR LIRP 292115Z VRB01KT 9999 SCT030 SCT040 05/03 Q1016 NOSIG",
      "taf": "TAF LIRP 291700Z 2918/3018 14005KT 9999 SCT020 SCT040"
    },
    {
      "icao": "LIRZ",
      "alert": "OK",
      "vis_m": 9999,
      "fzfg": false,
      "metar_trigger": false,
      "taf_trigger": false,
      "metar": "METAR LIRZ 292120Z AUTO 02006KT 9999 NCD M01/M02 Q1017",
      "taf": "TAF LIRZ 291700Z 2918/3018 VRB03KT 9999 FEW030"
    },
    {
      "icao": "LJLJ",
      "alert": "OK",
      "vis_m": 9999,
      "fzfg": false,
      "metar_trigger": false,
      "taf_trigger": false,
      "metar": "METAR LJLJ 292100Z 30003KT 9999 MIFG FEW002 M04/M05 Q1013 NOSIG",
      "taf": "TAF LJLJ 291700Z 2918/3018 30002KT CAVOK"
    },
    {
      "icao": "LKMT",
      "alert": "OK",
      "vis_m": 9999,
      "fzfg": false,
      "metar_trigger": false,
      "taf_trigger": false,
      "metar": "METAR LKMT 292100Z 23009KT 9999 OVC035 M01/M03 Q1012 NOSIG",
      "taf": "TAF LKMT 291700Z 2918/3018 23008KT 9999 OVC030"
    },
    {
      "icao": "LKPR",
      "alert": "OK",
      "vis_m": 9999,
      "fzfg": false,
      "metar_trigger": false,
      "taf_trigger": false,
      "metar": "METAR LKPR 292100Z 22009KT 9999 FEW025 BKN047 00/M02 Q1014 NOSIG",
      "taf": "TAF LKPR 292000Z 2921/3103 26010KT 9999 BKN025"
    },
    {
      "icao": "LLBG",
      "alert": "OK",
      "vis_m": 9999,
      "fzfg": false,
      "metar_trigger": false,
      "taf_trigger": false,
      "metar": "METAR LLBG 292120Z 26007KT 9999 FEW045 15/07 Q1017 NOSIG",
      "taf": "TAF LLBG 291707Z 2918/3018 27008KT 9999 SCT040"
    },
    {
      "icao": "LMML",
      "alert": "OK",
      "vis_m": 9999,
      "fzfg": false,
      "metar_trigger": false,
      "taf_trigger": false,
      "metar": "METAR LMML 292115Z 23004KT 110V260 9999 -RA FEW015CB 13/11 Q1017 TEMPO 8000 TSRA",
      "taf": ""
    },
    {
      "icao": "LOWW",
      "alert": "OK",
      "vis_m": 9999,
      "fzfg": false,
      "metar_trigger": false,
      "taf_trigger": false,
      "metar": "METAR LOWW 292120Z 31011KT 9999 BKN032 M00/M05 Q1016 NOSIG",
      "taf": "TAF LOWW 292015Z 2921/3103 30013KT CAVOK TX02/3012Z TNM02/3102Z"
    },
    {
      "icao": "LPFR",
      "alert": "OK",
      "vis_m": 9999,
      "fzfg": false,
      "metar_trigger": false,
      "taf_trigger": false,
      "metar": "METAR LPFR 292100Z VRB05KT CAVOK 10/09 Q1021",
      "taf": "TAF LPFR 291700Z 2918/3018 VRB05KT 9999 FEW018"
    },
    {
      "icao": "LPMA",
      "alert": "OK",
      "vis_m": 9999,
      "fzfg": false,
      "metar_trigger": false,
      "taf_trigger": false,
      "metar": "METAR LPMA 292100Z 22015KT 9999 -SHRA SCT015 17/15 Q1017",
      "taf": "TAF LPMA 291700Z 2918/3018 21015KT 9999 SCT015 BKN030"
    },
    {
      "icao": "LPPR",
      "alert": "OK",
      "vis_m": 7000,
      "fzfg": false,
      "metar_trigger": false,
      "taf_trigger": false,
      "metar": "METAR LPPR 292100Z VRB02KT 7000 3400N NSC 07/06 Q1021",
      "taf": "TAF LPPR 291700Z 2918/3018 VRB02KT CAVOK"
    },
    {
      "icao": "LPPS",
      "alert": "OK",
      "vis_m": 9999,
      "fzfg": false,
      "metar_trigger": false,
      "taf_trigger": false,
      "metar": "METAR LPPS 292100Z 22013KT 9999 FEW008 SCT012 BKN030 18/15 Q1018",
      "taf": "TAF LPPS 291700Z 2918/3024 20017KT 9999 SCT012 BKN030"
    },
    {
      "icao": "LPPT",
      "alert": "OK",
      "vis_m": 9999,
      "fzfg": false,
      "metar_trigger": false,
      "taf_trigger": false,
      "metar": "METAR LPPT 292100Z 32005KT CAVOK 11/07 Q1020",
      "taf": "TAF LPPT 291700Z 2918/3024 VRB02KT CAVOK"
    },
    {
      "icao": "LQBK",
      "alert": "OK",
      "vis_m": 9999,
      "fzfg": false,
      "metar_trigger": false,
      "taf_trigger": false,
      "metar": "METAR LQBK 292100Z 34003KT CAVOK M04/M04 Q1014 NOSIG",
      "taf": "TAF LQBK 291700Z 2918/3018 22004KT CAVOK TX03/3013Z TNM05/3006Z"
    },
    {
      "icao": "LQSA",
      "alert": "OK",
      "vis_m": 6000,
      "fzfg": false,
      "metar_trigger": false,
      "taf_trigger": false,
      "metar": "METAR LQSA 292100Z 00000KT 6000 NSC M05/M05 Q1015 NOSIG",
      "taf": "TAF LQSA 291700Z 2918/3018 VRB02KT CAVOK TX03/3013Z TNM06/3006Z"
    },
    {
      "icao": "LQTZ",
      "alert": "OK",
      "vis_m": 5000,
      "fzfg": false,
      "metar_trigger": false,
      "taf_trigger": false,
      "metar": "METAR LQTZ 292100Z 24002KT 5000 BR NSC M04/M04 Q1013",
      "taf": "TAF LQTZ 291700Z 2918/3018 VRB02KT CAVOK TX02/3013Z TNM04/3005Z"
    },
    {
      "icao": "LRBC",
      "alert": "OK",
      "vis_m": 9999,
      "fzfg": false,
      "metar_trigger": false,
      "taf_trigger": false,
      "metar": "METAR LRBC 292100Z 29003KT CAVOK M03/M06 Q1008",
      "taf": "TAF LRBC 292000Z 2921/3006 34008KT CAVOK"
    },
    {
      "icao": "LRBS",
      "alert": "OK",
      "vis_m": 9999,
      "fzfg": false,
      "metar_trigger": false,
      "taf_trigger": false,
      "metar": "METAR LRBS 292100Z COR 27005KT CAVOK M01/M03 Q1009 NOSIG",
      "taf": "TAF LRBS 291700Z 2918/3018 VRB04KT CAVOK"
    },
    {
      "icao": "LRBV",
      "alert": "OK",
      "vis_m": 9999,
      "fzfg": false,
      "metar_trigger": false,
      "taf_trigger": false,
      "metar": "METAR LRBV 292100Z 19002KT 9999 FEW031 M04/M08 Q1010",
      "taf": "TAF LRBV 292000Z 2921/3006 27008KT 9999 SCT030"
    },
    {
      "icao": "LRCL",
      "alert": "OK",
      "vis_m": 9999,
      "fzfg": false,
      "metar_trigger": false,
      "taf_trigger": false,
      "metar": "METAR LRCL 292100Z 08003KT CAVOK M05/M07 Q1011",
      "taf": "TAF LRCL 292000Z 2921/3006 VRB04KT CAVOK"
    },
    {
      "icao": "LRCV",
      "alert": "OK",
      "vis_m": 9999,
      "fzfg": false,
      "metar_trigger": false,
      "taf_trigger": false,
      "metar": "METAR LRCV 292100Z 31009KT CAVOK 01/M07 Q1009",
      "taf": "TAF LRCV 292000Z 2921/3006 28015KT CAVOK"
    },
    {
      "icao": "LRIA",
      "alert": "OK",
      "vis_m": 9999,
      "fzfg": false,
      "metar_trigger": false,
      "taf_trigger": false,
      "metar": "METAR LRIA 292100Z 22007KT CAVOK M01/M06 Q1007",
      "taf": "TAF LRIA 292000Z 2921/3006 25006KT CAVOK"
    },
    {
      "icao": "LROP",
      "alert": "OK",
      "vis_m": 9999,
      "fzfg": false,
      "metar_trigger": false,
      "taf_trigger": false,
      "metar": "METAR LROP 292100Z 25003KT CAVOK M03/M05 Q1009 NOSIG",
      "taf": "TAF LROP 291700Z 2918/3018 VRB04KT CAVOK"
    },
    {
      "icao": "LRSB",
      "alert": "OK",
      "vis_m": 9999,
      "fzfg": false,
      "metar_trigger": false,
      "taf_trigger": false,
      "metar": "METAR LRSB 292100Z 16004KT CAVOK M06/M07 Q1010 NOSIG",
      "taf": "TAF LRSB 291700Z 2918/3018 29012KT CAVOK"
    },
    {
      "icao": "LRSM",
      "alert": "OK",
      "vis_m": 9999,
      "fzfg": false,
      "metar_trigger": false,
      "taf_trigger": false,
      "metar": "METAR LRSM 292100Z AUTO 09003KT 9999 OVC041/// M02/M04 Q1011",
      "taf": "TAF LRSM 291400Z 2915/2924 25014KT 9999 BKN015"
    },
    {
      "icao": "LRSV",
      "alert": "OK",
      "vis_m": 9999,
      "fzfg": false,
      "metar_trigger": false,
      "taf_trigger": false,
      "metar": "METAR LRSV 292100Z 25005KT 230V290 9999 BKN035 M02/M07 Q1005",
      "taf": "TAF LRSV 292000Z 2921/3006 29006KT 9999 BKN035"
    },
    {
      "icao": "LRTM",
      "alert": "OK",
      "vis_m": 9999,
      "fzfg": false,
      "metar_trigger": false,
      "taf_trigger": false,
      "metar": "METAR LRTM 292100Z AUTO 27002KT 9999 R25////// FEW220/// M06/M08 Q1011",
      "taf": "TAF LRTM 291400Z 2915/2924 22010KT CAVOK"
    },
    {
      "icao": "LRTR",
      "alert": "OK",
      "vis_m": 9999,
      "fzfg": false,
      "metar_trigger": false,
      "taf_trigger": false,
      "metar": "METAR LRTR 292100Z VRB02KT CAVOK M03/M04 Q1012 NOSIG",
      "taf": "TAF LRTR 291700Z 2918/3018 VRB04KT CAVOK"
    },
    {
      "icao": "LTAC",
      "alert": "OK",
      "vis_m": 9999,
      "fzfg": false,
      "metar_trigger": false,
      "taf_trigger": false,
      "metar": "METAR LTAC 292120Z 25010KT 9999 SCT040 M04/M07 Q1013 NOSIG",
      "taf": "TAF LTAC 291640Z 2918/3018 24009KT 9999 SCT040 SCT100"
    },
    {
      "icao": "LTFM",
      "alert": "OK",
      "vis_m": 9999,
      "fzfg": false,
      "metar_trigger": false,
      "taf_trigger": false,
      "metar": "METAR LTFM 292120Z 21013KT CAVOK 04/01 Q1014 NOSIG",
      "taf": "TAF LTFM 291640Z 2918/3024 22012KT CAVOK"
    },
    {
      "icao": "LUKK",
      "alert": "OK",
      "vis_m": 9999,
      "fzfg": false,
      "metar_trigger": false,
      "taf_trigger": false,
      "metar": "METAR LUKK 292100Z 25008KT CAVOK M03/M06 Q1007 NOSIG",
      "taf": "TAF LUKK 291722Z 2918/3018 30010KT CAVOK"
    },
    {
      "icao": "LWOH",
      "alert": "OK",
      "vis_m": null,
      "fzfg": false,
      "metar_trigger": false,
      "taf_trigger": false,
      "metar": "",
      "taf": "TAF LWOH 292030Z 2921/3021 34006KT CAVOK"
    },
    {
      "icao": "LWSK",
      "alert": "OK",
      "vis_m": 9999,
      "fzfg": false,
      "metar_trigger": false,
      "taf_trigger": false,
      "metar": "METAR LWSK 292120Z VRB02KT CAVOK M05/M07 Q1016 NOSIG",
      "taf": "TAF LWSK 292030Z 2921/3021 VRB02KT CAVOK"
    },
    {
      "icao": "LYBE",
      "alert": "OK",
      "vis_m": 9999,
      "fzfg": false,
      "metar_trigger": false,
      "taf_trigger": false,
      "metar": "METAR LYBE 292100Z 18004KT CAVOK 00/M06 Q1013 NOSIG",
      "taf": "TAF LYBE 291700Z 2918/3018 24004KT CAVOK TX03/3013Z TNM04/3006Z"
    },
    {
      "icao": "LYNI",
      "alert": "OK",
      "vis_m": 7000,
      "fzfg": false,
      "metar_trigger": false,
      "taf_trigger": false,
      "metar": "METAR LYNI 292100Z 09005KT 7000 NSC M01/M05 Q1015 NOSIG",
      "taf": "TAF LYNI 291700Z 2918/3018 10004KT CAVOK TX04/3013Z TNM05/3006Z"
    },
    {
      "icao": "LYPG",
      "alert": "OK",
      "vis_m": 9999,
      "fzfg": false,
      "metar_trigger": false,
      "taf_trigger": false,
      "metar": "METAR LYPG 292100Z 02003KT CAVOK 01/M04 Q1017 NOSIG",
      "taf": "TAF LYPG 291700Z 2918/3018 36006KT CAVOK TX09/3013Z TNM02/3005Z"
    },
    {
      "icao": "LZIB",
      "alert": "OK",
      "vis_m": 9999,
      "fzfg": false,
      "metar_trigger": false,
      "taf_trigger": false,
      "metar": "METAR LZIB 292100Z 30016KT 9999 BKN035 01/M05 Q1015 NOSIG",
      "taf": ""
    },
    {
      "icao": "LZKZ",
      "alert": "OK",
      "vis_m": 9999,
      "fzfg": false,
      "metar_trigger": false,
      "taf_trigger": false,
      "metar": "METAR LZKZ 292100Z 24004KT 9999 FEW040 M04/M06 Q1010 NOSIG",
      "taf": "TAF LZKZ 291715Z 2918/3018 VRB02KT CAVOK"
    },
    {
      "icao": "LZTT",
      "alert": "OK",
      "vis_m": 9999,
      "fzfg": false,
      "metar_trigger": false,
      "taf_trigger": false,
      "metar": "METAR LZTT 292100Z 32004KT 260V040 9999 OVC018 M03/M06 Q1007",
      "taf": ""
    },
    {
      "icao": "OEJN",
      "alert": "OK",
      "vis_m": 9999,
      "fzfg": false,
      "metar_trigger": false,
      "taf_trigger": false,
      "metar": "METAR OEJN 292100Z 01002KT CAVOK 21/17 Q1017 NOSIG",
      "taf": "TAF OEJN 291700Z 2918/3024 05008KT 7000 NSC"
    },
    {
      "icao": "OEMA",
      "alert": "OK",
      "vis_m": 9999,
      "fzfg": false,
      "metar_trigger": false,
      "taf_trigger": false,
      "metar": "METAR OEMA 292100Z 27008KT CAVOK 19/M02 Q1020 NOSIG",
      "taf": "TAF OEMA 291700Z 2918/3024 30005KT CAVOK"
    },
    {
      "icao": "OJAI",
      "alert": "OK",
      "vis_m": 3000,
      "fzfg": false,
      "metar_trigger": false,
      "taf_trigger": false,
      "metar": "METAR OJAI 292100Z 27018KT 3000 BR SCT025 09/07 Q1017 NOSIG",
      "taf": "TAF OJAI 291639Z 2918/3024 27015G25KT 3000 BR SCT030"
    },
    {
      "icao": "OMAA",
      "alert": "OK",
      "vis_m": 9999,
      "fzfg": false,
      "metar_trigger": false,
      "taf_trigger": false,
      "metar": "METAR OMAA 292100Z 32008KT CAVOK 22/14 Q1013 NOSIG",
      "taf": "TAF OMAA 291700Z 2918/3100 34007KT 8000 NSC"
    },
    {
      "icao": "OMDB",
      "alert": "OK",
      "vis_m": 9999,
      "fzfg": false,
      "metar_trigger": false,
      "taf_trigger": false,
      "metar": "METAR OMDB 292130Z 29012KT CAVOK 23/11 Q1013 NOSIG",
      "taf": "TAF OMDB 291700Z 2918/3100 29013KT 8000 NSC"
    },
    {
      "icao": "UAAA",
      "alert": "OK",
      "vis_m": 1600,
      "fzfg": false,
      "metar_trigger": false,
      "taf_trigger": false,
      "metar": "METAR UAAA 292100Z 17002MPS 1600 R05R/P2000N BR SCT100 M03/M05 Q1006 NOSIG",
      "taf": "TAF UAAA 291702Z 2918/3018 14003MPS 1200 BR FU FEW050 SCT100 TX07/3009Z TNM04/3001Z"
    },
    {
      "icao": "UBBB",
      "alert": "OK",
      "vis_m": 9999,
      "fzfg": false,
      "metar_trigger": false,
      "taf_trigger": false,
      "metar": "METAR UBBB 292100Z 17006KT CAVOK 03/02 Q1001 NOSIG",
      "taf": "TAF UBBB 291706Z 2918/3018 22005KT 9999 SCT015 TX08/3006Z TN02/3002Z"
    },
    {
      "icao": "UDSG",
      "alert": "OK",
      "vis_m": 8000,
      "fzfg": false,
      "metar_trigger": false,
      "taf_trigger": false,
      "metar": "METAR UDSG 292100Z 16001KT 8000 OVC033 M09/M10 Q1004 NOSIG",
      "taf": "TAF UDSG 291658Z 2918/3018 VRB06KT 5000 BR BKN030"
    },
    {
      "icao": "UDYZ",
      "alert": "OK",
      "vis_m": 2200,
      "fzfg": false,
      "metar_trigger": false,
      "taf_trigger": false,
      "metar": "METAR UDYZ 292100Z 05002KT 2200 R08/P2000N BR BKN020 M06/M07 Q1006 NOSIG",
      "taf": ""
    },
    {
      "icao": "UGKO",
      "alert": "OK",
      "vis_m": 1900,
      "fzfg": false,
      "metar_trigger": false,
      "taf_trigger": false,
      "metar": "METAR UGKO 292100Z 28008KT 260V330 1900 SHSN SCT017 BKN033CB OVC037 00/M00 Q1007 NOSIG",
      "taf": "TAF UGKO 291700Z 2918/3018 24010KT 7000 -SNRA SCT015 OVC035 TX02/3006Z TNM00/3001Z"
    }
  ]
}