{
  "ts_utc": "2026-03-31T04:09:00Z",
  "threshold_m": 150,
  "source": "stations_override.txt (ICAO list) + aviationweather.gov (METAR/TAF raw)",
  "station_count": 159,
  "stations": [
    {
      "icao": "BIKF",
      "alert": "OK",
      "vis_m": 5000,
      "fzfg": false,
      "metar_trigger": false,
      "taf_trigger": false,
      "metar": "METAR BIKF 310400Z 36017KT 5000 -SN BKN005 OVC030 M00/M00 Q0994",
      "taf": ""
    },
    {
      "icao": "BKPR",
      "alert": "OK",
      "vis_m": 9999,
      "fzfg": false,
      "metar_trigger": false,
      "taf_trigger": false,
      "metar": "METAR BKPR 310400Z 35007KT 9999 FEW013 BKN030 03/02 Q1009 NOSIG",
      "taf": "TAF BKPR 302330Z 3100/3124 36010KT 9999 SCT020 BKN040"
    },
    {
      "icao": "EBCI",
      "alert": "OK",
      "vis_m": 9999,
      "fzfg": false,
      "metar_trigger": false,
      "taf_trigger": false,
      "metar": "METAR EBCI 310350Z 25004KT CAVOK 02/M01 Q1027 NOSIG",
      "taf": "TAF EBCI 302300Z 3100/0106 30005KT 9999 FEW025"
    },
    {
      "icao": "EDDB",
      "alert": "OK",
      "vis_m": 9999,
      "fzfg": false,
      "metar_trigger": false,
      "taf_trigger": false,
      "metar": "METAR EDDB 310350Z AUTO 30007KT 9999 OVC040 04/03 Q1019 NOSIG",
      "taf": "TAF EDDB 302300Z 3100/3124 29007KT 9999 FEW030"
    },
    {
      "icao": "EDDH",
      "alert": "OK",
      "vis_m": 9999,
      "fzfg": false,
      "metar_trigger": false,
      "taf_trigger": false,
      "metar": "METAR EDDH 310350Z AUTO 26006KT 230V290 9999 FEW016 BKN033 BKN042 06/04 Q1020 TEMPO BKN014",
      "taf": "TAF EDDH 302300Z 3100/0106 28008KT 9999 BKN015"
    },
    {
      "icao": "EDDK",
      "alert": "OK",
      "vis_m": 9999,
      "fzfg": false,
      "metar_trigger": false,
      "taf_trigger": false,
      "metar": "METAR EDDK 310350Z AUTO VRB02KT 9999 BKN042 03/02 Q1026 NOSIG",
      "taf": "TAF EDDK 302300Z 3100/0106 32004KT 9999 SCT025"
    },
    {
      "icao": "EDDN",
      "alert": "OK",
      "vis_m": 9999,
      "fzfg": false,
      "metar_trigger": false,
      "taf_trigger": false,
      "metar": "METAR EDDN 310350Z AUTO 32006KT 9999 BKN045 01/M01 Q1021",
      "taf": ""
    },
    {
      "icao": "EDDS",
      "alert": "OK",
      "vis_m": 9999,
      "fzfg": false,
      "metar_trigger": false,
      "taf_trigger": false,
      "metar": "METAR EDDS 310350Z AUTO 32008KT 9999 FEW009 BKN029 BKN043 02/01 Q1022",
      "taf": "TAF EDDS 302300Z 3100/3124 31007KT 9999 BKN015"
    },
    {
      "icao": "EDFH",
      "alert": "OK",
      "vis_m": 9999,
      "fzfg": false,
      "metar_trigger": false,
      "taf_trigger": false,
      "metar": "METAR EDFH 310350Z 29008KT 9999 FEW003 SCT007 01/00 Q1024",
      "taf": "TAF EDFH 302300Z 3100/3124 31007KT 9999 SCT015 BKN025"
    },
    {
      "icao": "EDJA",
      "alert": "OK",
      "vis_m": 9999,
      "fzfg": false,
      "metar_trigger": false,
      "taf_trigger": false,
      "metar": "METAR EDJA 310350Z 36006KT 9999 -SN SCT018 BKN023 OVC032 00/M01 Q1020",
      "taf": "TAF EDJA 310200Z 3103/3112 30007KT 8000 FEW002 BKN012"
    },
    {
      "icao": "EDLW",
      "alert": "OK",
      "vis_m": 9999,
      "fzfg": false,
      "metar_trigger": false,
      "taf_trigger": false,
      "metar": "METAR EDLW 310350Z 25004KT 9999 SCT041 OVC048 03/02 Q1024",
      "taf": "TAF EDLW 310330Z 3104/3124 26005KT 9999 BKN035"
    },
    {
      "icao": "EDNY",
      "alert": "OK",
      "vis_m": 8000,
      "fzfg": false,
      "metar_trigger": false,
      "taf_trigger": false,
      "metar": "METAR EDNY 310350Z VRB01KT 8000 -RA FEW010 SCT012 OVC020 00/00 Q1022",
      "taf": "TAF EDNY 310200Z 3103/3112 36005KT 9999 SCT010 BKN020"
    },
    {
      "icao": "EDSB",
      "alert": "OK",
      "vis_m": 9999,
      "fzfg": false,
      "metar_trigger": false,
      "taf_trigger": false,
      "metar": "METAR EDSB 310350Z 10003KT 9999 FEW029 OVC047 02/01 Q1025",
      "taf": "TAF EDSB 302300Z 3100/3124 VRB03KT 9999 BKN035"
    },
    {
      "icao": "EETN",
      "alert": "OK",
      "vis_m": 5000,
      "fzfg": false,
      "metar_trigger": false,
      "taf_trigger": false,
      "metar": "METAR EETN 310350Z 00000KT 5000 NSC 03/02 Q1012 NOSIG",
      "taf": "TAF EETN 302330Z 3100/3124 VRB02KT 9999 BKN040"
    },
    {
      "icao": "EFTU",
      "alert": "OK",
      "vis_m": 9999,
      "fzfg": false,
      "metar_trigger": false,
      "taf_trigger": false,
      "metar": "METAR EFTU 310350Z AUTO 12005KT 9999 BKN002 OVC046 M02/M02 Q1011",
      "taf": "TAF EFTU 310235Z 3103/0103 11007KT 8000 BKN005"
    },
    {
      "icao": "EGBB",
      "alert": "OK",
      "vis_m": 9999,
      "fzfg": false,
      "metar_trigger": false,
      "taf_trigger": false,
      "metar": "METAR EGBB 310350Z 18004KT 9999 BKN017 09/05 Q1029",
      "taf": "TAF EGBB 302253Z 3100/3124 28009KT 9999 SCT040"
    },
    {
      "icao": "EGGP",
      "alert": "OK",
      "vis_m": 9999,
      "fzfg": false,
      "metar_trigger": false,
      "taf_trigger": false,
      "metar": "METAR EGGP 310350Z AUTO 29013KT 9999 OVC009/// 10/09 Q1028",
      "taf": "TAF EGGP 302255Z 3100/3124 27009KT 9999 SCT025"
    },
    {
      "icao": "EGGW",
      "alert": "OK",
      "vis_m": 9999,
      "fzfg": false,
      "metar_trigger": false,
      "taf_trigger": false,
      "metar": "METAR EGGW 310350Z AUTO 27009KT 9999 BKN018 OVC038 07/04 Q1028",
      "taf": "TAF EGGW 302252Z 3100/3124 29008KT 9999 SCT040"
    },
    {
      "icao": "EGKK",
      "alert": "OK",
      "vis_m": 9999,
      "fzfg": false,
      "metar_trigger": false,
      "taf_trigger": false,
      "metar": "METAR EGKK 310350Z 29006KT 9999 SCT034 BKN041 09/04 Q1030",
      "taf": "TAF EGKK 302304Z 3100/0106 30006KT 9999 SCT030"
    },
    {
      "icao": "EGNM",
      "alert": "OK",
      "vis_m": 9999,
      "fzfg": false,
      "metar_trigger": false,
      "taf_trigger": false,
      "metar": "METAR EGNM 310350Z 29009KT 240V320 9999 SCT010 BKN012 08/07 Q1026",
      "taf": "TAF EGNM 302256Z 3100/3124 28009KT 9999 SCT025"
    },
    {
      "icao": "EGPD",
      "alert": "OK",
      "vis_m": 9999,
      "fzfg": false,
      "metar_trigger": false,
      "taf_trigger": false,
      "metar": "METAR EGPD 310350Z COR AUTO 20003KT 9999 OVC028 07/03 Q1022 NOSIG",
      "taf": "TAF EGPD 302254Z 3100/3124 26010KT 9999 SCT025"
    },
    {
      "icao": "EGPF",
      "alert": "OK",
      "vis_m": 9999,
      "fzfg": false,
      "metar_trigger": false,
      "taf_trigger": false,
      "metar": "METAR EGPF 310350Z AUTO 26009KT 9999 BKN011 OVC018 10/09 Q1025",
      "taf": "TAF EGPF 302309Z 3100/3124 23012KT 9999 BKN012"
    },
    {
      "icao": "EHBK",
      "alert": "OK",
      "vis_m": 9999,
      "fzfg": false,
      "metar_trigger": false,
      "taf_trigger": false,
      "metar": "METAR EHBK 310355Z AUTO 22006KT 9999 NCD 00/M01 Q1026 NOSIG",
      "taf": "TAF EHBK 302310Z 3100/0106 29005KT 9999 SCT030"
    },
    {
      "icao": "EHEH",
      "alert": "OK",
      "vis_m": 9999,
      "fzfg": false,
      "metar_trigger": false,
      "taf_trigger": false,
      "metar": "METAR EHEH 310355Z AUTO 22003KT 9999 SCT082 M01/M01 Q1026 BLU",
      "taf": ""
    },
    {
      "icao": "EKBI",
      "alert": "OK",
      "vis_m": 9999,
      "fzfg": false,
      "metar_trigger": false,
      "taf_trigger": false,
      "metar": "METAR EKBI 310350Z AUTO 28016KT 9999 BKN014/// 06/04 Q1016",
      "taf": "TAF EKBI 310227Z 3103/0103 30012KT 9999 BKN012"
    },
    {
      "icao": "EKCH",
      "alert": "OK",
      "vis_m": 9999,
      "fzfg": false,
      "metar_trigger": false,
      "taf_trigger": false,
      "metar": "METAR EKCH 310350Z AUTO 23012KT 9999 BKN039/// BKN150/// 05/03 Q1015 NOSIG",
      "taf": ""
    },
    {
      "icao": "ENAL",
      "alert": "OK",
      "vis_m": 9999,
      "fzfg": false,
      "metar_trigger": false,
      "taf_trigger": false,
      "metar": "METAR ENAL 310320Z AUTO 25008KT 9999 SCT033/// BKN050/// 05/03 Q1011",
      "taf": "TAF ENAL 310200Z 3103/3112 22012KT 9999 BKN030"
    },
    {
      "icao": "ENBR",
      "alert": "OK",
      "vis_m": 9999,
      "fzfg": false,
      "metar_trigger": false,
      "taf_trigger": false,
      "metar": "METAR ENBR 310350Z 34007KT 9999 OVC034 05/02 Q1014 RMK WIND 1200FT 33019KT",
      "taf": "TAF ENBR 302300Z 3100/3124 32012KT 9999 -SHRA SCT015 BKN030"
    },
    {
      "icao": "ENGM",
      "alert": "OK",
      "vis_m": 9999,
      "fzfg": false,
      "metar_trigger": false,
      "taf_trigger": false,
      "metar": "METAR ENGM 310350Z 05004KT 9999 1100NE BCFG FEW004 M03/M03 Q1008 TEMPO 3000",
      "taf": "TAF ENGM 302300Z 3100/3124 35003KT 9999 FEW030"
    },
    {
      "icao": "ENHD",
      "alert": "OK",
      "vis_m": 9999,
      "fzfg": false,
      "metar_trigger": false,
      "taf_trigger": false,
      "metar": "METAR ENHD 310350Z AUTO 31010KT 9999 OVC030/// 06/04 Q1016",
      "taf": "TAF ENHD 310200Z 3103/3112 31015KT 9999 -SHRA FEW009 BKN030"
    },
    {
      "icao": "ENTC",
      "alert": "OK",
      "vis_m": 9999,
      "fzfg": false,
      "metar_trigger": false,
      "taf_trigger": false,
      "metar": "METAR ENTC 310350Z 19011KT 9999 -RA BKN020 01/M00 Q1003 RMK WIND 2600FT 17018KT",
      "taf": ""
    },
    {
      "icao": "ENTO",
      "alert": "OK",
      "vis_m": 9999,
      "fzfg": false,
      "metar_trigger": false,
      "taf_trigger": false,
      "metar": "METAR ENTO 310350Z 34005KT CAVOK 03/M03 Q1008",
      "taf": "TAF ENTO 302300Z 3100/3124 29005KT 9999 FEW030"
    },
    {
      "icao": "ENVA",
      "alert": "OK",
      "vis_m": 9999,
      "fzfg": false,
      "metar_trigger": false,
      "taf_trigger": false,
      "metar": "METAR ENVA 310350Z 09006KT 9999 FEW022 SCT027 M01/M03 Q1010 RMK WIND 670FT 21004KT",
      "taf": ""
    },
    {
      "icao": "ENZV",
      "alert": "OK",
      "vis_m": 9999,
      "fzfg": false,
      "metar_trigger": false,
      "taf_trigger": false,
      "metar": "METAR ENZV 310350Z 32013KT 9999 BKN037 06/03 Q1015",
      "taf": "TAF ENZV 302300Z 3100/3124 29012KT 9999 BKN025"
    },
    {
      "icao": "EPGD",
      "alert": "OK",
      "vis_m": 9999,
      "fzfg": false,
      "metar_trigger": false,
      "taf_trigger": false,
      "metar": "METAR EPGD 310400Z 27007KT 9999 FEW004 00/M00 Q1015",
      "taf": ""
    },
    {
      "icao": "EPKK",
      "alert": "OK",
      "vis_m": 7000,
      "fzfg": false,
      "metar_trigger": false,
      "taf_trigger": false,
      "metar": "METAR EPKK 310400Z 32004KT 7000 -RA BKN012 04/02 Q1013",
      "taf": "TAF EPKK 310230Z 3103/0103 VRB02KT 5000 -RA FEW006 BKN011"
    },
    {
      "icao": "EPKT",
      "alert": "OK",
      "vis_m": 5000,
      "fzfg": false,
      "metar_trigger": false,
      "taf_trigger": false,
      "metar": "METAR EPKT 310400Z 34008KT 5000 -RA BR FEW005 BKN006 OVC010 03/02 Q1013",
      "taf": "TAF EPKT 302330Z 3100/3124 VRB02KT 5000 -RA BR OVC023"
    },
    {
      "icao": "EPLB",
      "alert": "OK",
      "vis_m": 9999,
      "fzfg": false,
      "metar_trigger": false,
      "taf_trigger": false,
      "metar": "METAR EPLB 310400Z 33008KT CAVOK 06/01 Q1009",
      "taf": "TAF EPLB 302330Z 3100/3124 32008KT CAVOK"
    },
    {
      "icao": "EPMO",
      "alert": "OK",
      "vis_m": 9999,
      "fzfg": false,
      "metar_trigger": false,
      "taf_trigger": false,
      "metar": "METAR EPMO 310400Z 32007KT CAVOK 05/01 Q1013",
      "taf": "TAF EPMO 302330Z 3100/3124 33010KT CAVOK"
    },
    {
      "icao": "EPPO",
      "alert": "OK",
      "vis_m": 9999,
      "fzfg": false,
      "metar_trigger": false,
      "taf_trigger": false,
      "metar": "METAR EPPO 310400Z 31004KT 9999 BKN003 01/00 Q1017",
      "taf": ""
    },
    {
      "icao": "EPRA",
      "alert": "OK",
      "vis_m": 9999,
      "fzfg": false,
      "metar_trigger": false,
      "taf_trigger": false,
      "metar": "METAR EPRA 310400Z 34007KT 9999 BKN044 06/M01 Q1011",
      "taf": "TAF EPRA 310230Z 3103/3112 33008KT 9999 BKN040"
    },
    {
      "icao": "EPRZ",
      "alert": "OK",
      "vis_m": 9999,
      "fzfg": false,
      "metar_trigger": false,
      "taf_trigger": false,
      "metar": "METAR EPRZ 310400Z 28010KT 9999 BKN046 05/02 Q1009",
      "taf": "TAF EPRZ 302330Z 3100/3124 29007KT CAVOK"
    },
    {
      "icao": "EPSC",
      "alert": "OK",
      "vis_m": 9999,
      "fzfg": false,
      "metar_trigger": false,
      "taf_trigger": false,
      "metar": "METAR EPSC 310400Z 25002KT 9999 FEW009 OVC042 01/01 Q1017",
      "taf": ""
    },
    {
      "icao": "EPSY",
      "alert": "OK",
      "vis_m": 9999,
      "fzfg": false,
      "metar_trigger": false,
      "taf_trigger": false,
      "metar": "METAR EPSY 310400Z 34008KT CAVOK 03/01 Q1013",
      "taf": "TAF EPSY 310230Z 3103/3112 34008KT CAVOK"
    },
    {
      "icao": "EPWA",
      "alert": "OK",
      "vis_m": 9999,
      "fzfg": false,
      "metar_trigger": false,
      "taf_trigger": false,
      "metar": "METAR EPWA 310400Z 33009KT CAVOK 07/M01 Q1012 NOSIG",
      "taf": "TAF EPWA 310230Z 3103/0103 34010KT CAVOK"
    },
    {
      "icao": "EPWR",
      "alert": "OK",
      "vis_m": 9999,
      "fzfg": false,
      "metar_trigger": false,
      "taf_trigger": false,
      "metar": "METAR EPWR 310400Z 32012KT 9999 SCT012 BKN033 04/03 Q1016",
      "taf": "TAF EPWR 310230Z 3103/0103 32010KT 9999 BKN025"
    },
    {
      "icao": "ESGG",
      "alert": "OK",
      "vis_m": 9999,
      "fzfg": false,
      "metar_trigger": false,
      "taf_trigger": false,
      "metar": "METAR ESGG 310350Z 26007KT 9999 BKN007 04/03 Q1009",
      "taf": "TAF ESGG 310230Z 3103/0103 23009KT 8000 OVC008"
    },
    {
      "icao": "ESKN",
      "alert": "OK",
      "vis_m": 9999,
      "fzfg": false,
      "metar_trigger": false,
      "taf_trigger": false,
      "metar": "METAR ESKN 310350Z 21004KT 9999 MIFG NSC M00/M00 Q1009",
      "taf": "TAF ESKN 310230Z 3103/0103 23007KT 9000 NSC"
    },
    {
      "icao": "ESMS",
      "alert": "OK",
      "vis_m": 8000,
      "fzfg": false,
      "metar_trigger": false,
      "taf_trigger": false,
      "metar": "METAR ESMS 310350Z 24010KT 8000 SCT027 OVC038 04/04 Q1014",
      "taf": "TAF ESMS 310227Z 3103/0103 29010KT 9999 BKN015"
    },
    {
      "icao": "ESSA",
      "alert": "OK",
      "vis_m": 9999,
      "fzfg": false,
      "metar_trigger": false,
      "taf_trigger": false,
      "metar": "METAR ESSA 310350Z 16006KT 9999 BKN006 02/01 Q1009 NOSIG",
      "taf": ""
    },
    {
      "icao": "EYKA",
      "alert": "OK",
      "vis_m": 9999,
      "fzfg": false,
      "metar_trigger": false,
      "taf_trigger": false,
      "metar": "METAR EYKA 310350Z 35004KT 310V040 CAVOK 06/01 Q1011",
      "taf": "TAF EYKA 302300Z 3100/3124 VRB04KT 9000 SCT040"
    },
    {
      "icao": "EYPA",
      "alert": "OK",
      "vis_m": 9999,
      "fzfg": false,
      "metar_trigger": false,
      "taf_trigger": false,
      "metar": "METAR EYPA 310350Z VRB01KT 9999 FEW009 M01/M01 Q1014",
      "taf": "TAF EYPA 302300Z 3100/3124 VRB04KT 5000 BR SCT005"
    },
    {
      "icao": "EYVI",
      "alert": "OK",
      "vis_m": 9999,
      "fzfg": false,
      "metar_trigger": false,
      "taf_trigger": false,
      "metar": "METAR EYVI 310350Z 35011KT 9999 -RA NSC 07/02 Q1009 NOSIG",
      "taf": "TAF EYVI 302300Z 3100/3124 VRB04KT 9000 SCT045"
    },
    {
      "icao": "GCFV",
      "alert": "OK",
      "vis_m": 6000,
      "fzfg": false,
      "metar_trigger": false,
      "taf_trigger": false,
      "metar": "METAR GCFV 310400Z AUTO 04011KT 6000 OVC046 18/15 Q1017",
      "taf": "TAF GCFV 310200Z 3103/0103 05010KT 8000 NSC TX24/3114Z TN18/3106Z"
    },
    {
      "icao": "GCLP",
      "alert": "OK",
      "vis_m": 8000,
      "fzfg": false,
      "metar_trigger": false,
      "taf_trigger": false,
      "metar": "METAR GCLP 310400Z 35014KT 8000 FEW035 17/12 Q1017 NOSIG",
      "taf": "TAF GCLP 310200Z 3103/0103 35013KT 9999 FEW030 TX24/3114Z TN17/3106Z"
    },
    {
      "icao": "GCTS",
      "alert": "OK",
      "vis_m": 9999,
      "fzfg": false,
      "metar_trigger": false,
      "taf_trigger": false,
      "metar": "METAR GCTS 310400Z 06017KT 9999 FEW030 17/10 Q1016 NOSIG",
      "taf": "TAF GCTS 310200Z 3103/0103 04015KT CAVOK TX26/3114Z TN17/3106Z"
    },
    {
      "icao": "GMAD",
      "alert": "OK",
      "vis_m": 6000,
      "fzfg": false,
      "metar_trigger": false,
      "taf_trigger": false,
      "metar": "METAR GMAD 310400Z 09004KT 6000 NSC 14/12 Q1018 NOSIG",
      "taf": "TAF GMAD 302300Z 3100/0106 20006KT 6000 NSC"
    },
    {
      "icao": "GMMN",
      "alert": "OK",
      "vis_m": 9999,
      "fzfg": false,
      "metar_trigger": false,
      "taf_trigger": false,
      "metar": "METAR GMMN 310400Z 04008KT CAVOK 09/04 Q1021 NOSIG",
      "taf": "TAF GMMN 302300Z 3100/0106 06010KT CAVOK"
    },
    {
      "icao": "GMMX",
      "alert": "OK",
      "vis_m": 9999,
      "fzfg": false,
      "metar_trigger": false,
      "taf_trigger": false,
      "metar": "METAR GMMX 310400Z 09006KT CAVOK 09/05 Q1019 NOSIG",
      "taf": "TAF GMMX 302300Z 3100/0106 08006KT 8000 NSC"
    },
    {
      "icao": "HEGN",
      "alert": "OK",
      "vis_m": 9999,
      "fzfg": false,
      "metar_trigger": false,
      "taf_trigger": false,
      "metar": "METAR HEGN 310300Z 30007KT CAVOK 17/00 Q1011 NOSIG",
      "taf": "TAF HEGN 302309Z 3100/0106 28010KT CAVOK"
    },
    {
      "icao": "HEMA",
      "alert": "OK",
      "vis_m": 9999,
      "fzfg": false,
      "metar_trigger": false,
      "taf_trigger": false,
      "metar": "METAR HEMA 310300Z 29010KT CAVOK 19/03 Q1011 NOSIG",
      "taf": "TAF HEMA 302308Z 3100/0106 30011KT CAVOK"
    },
    {
      "icao": "HESH",
      "alert": "OK",
      "vis_m": 9999,
      "fzfg": false,
      "metar_trigger": false,
      "taf_trigger": false,
      "metar": "METAR HESH 310300Z 34010KT CAVOK 19/10 Q1011 NOSIG",
      "taf": "TAF HESH 302309Z 3100/0106 30009KT CAVOK"
    },
    {
      "icao": "HESX",
      "alert": "OK",
      "vis_m": 9999,
      "fzfg": false,
      "metar_trigger": false,
      "taf_trigger": false,
      "metar": "METAR HESX 310300Z 06006KT CAVOK 12/09 Q1012 NOSIG",
      "taf": "TAF HESX 302308Z 3100/0106 03009KT CAVOK"
    },
    {
      "icao": "LATI",
      "alert": "OK",
      "vis_m": 9999,
      "fzfg": false,
      "metar_trigger": false,
      "taf_trigger": false,
      "metar": "METAR LATI 310350Z 14002KT 9999 FEW110 06/03 Q1006 NOSIG",
      "taf": "TAF LATI 302300Z 3100/3124 VRB05KT CAVOK TX17/3111Z TN04/3104Z"
    },
    {
      "icao": "LBPD",
      "alert": "OK",
      "vis_m": 9999,
      "fzfg": false,
      "metar_trigger": false,
      "taf_trigger": false,
      "metar": "METAR LBPD 310400Z AUTO 29016KT 9999 FEW064/// OVC110/// 07/03 Q1007 NOSIG",
      "taf": "TAF LBPD 302300Z 3100/3124 28012KT 9999 BKN050"
    },
    {
      "icao": "LBSF",
      "alert": "OK",
      "vis_m": 9999,
      "fzfg": false,
      "metar_trigger": false,
      "taf_trigger": false,
      "metar": "METAR LBSF 310400Z 28008KT 9999 SCT032 03/00 Q1008 NOSIG",
      "taf": "TAF LBSF 302300Z 3100/3124 28012KT 9999 SCT015 BKN030 OVC060"
    },
    {
      "icao": "LBWN",
      "alert": "OK",
      "vis_m": 9999,
      "fzfg": false,
      "metar_trigger": false,
      "taf_trigger": false,
      "metar": "METAR LBWN 310400Z AUTO 29009KT 9999 NSC 09/06 Q1006 NOSIG",
      "taf": "TAF LBWN 302300Z 3100/3124 28010KT 9999 SCT030 BKN045"
    },
    {
      "icao": "LCLK",
      "alert": "OK",
      "vis_m": 9999,
      "fzfg": false,
      "metar_trigger": false,
      "taf_trigger": false,
      "metar": "METAR LCLK 310400Z 30004KT 9999 FEW035 08/07 Q1011 NOSIG",
      "taf": "TAF LCLK 302330Z 3100/0100 28005KT CAVOK"
    },
    {
      "icao": "LCPH",
      "alert": "OK",
      "vis_m": 9999,
      "fzfg": false,
      "metar_trigger": false,
      "taf_trigger": false,
      "metar": "METAR LCPH 310400Z 02004KT 010V080 9999 FEW030 11/08 Q1011 NOSIG",
      "taf": "TAF LCPH 302330Z 3100/0100 05006KT 9999 FEW030 SCT045"
    },
    {
      "icao": "LEAL",
      "alert": "OK",
      "vis_m": 9999,
      "fzfg": false,
      "metar_trigger": false,
      "taf_trigger": false,
      "metar": "METAR LEAL 310400Z 26005KT CAVOK 10/06 Q1019 NOSIG",
      "taf": "TAF LEAL 302300Z 3100/3124 VRB05KT CAVOK TX20/3112Z TN09/3105Z"
    },
    {
      "icao": "LEBB",
      "alert": "OK",
      "vis_m": 9999,
      "fzfg": false,
      "metar_trigger": false,
      "taf_trigger": false,
      "metar": "METAR LEBB 310400Z 31006KT 9999 BKN044 OVC050 12/09 Q1032 NOSIG",
      "taf": "TAF LEBB 302300Z 3100/3124 32009KT 9999 FEW015 BKN025 TX13/3114Z TN10/3108Z"
    },
    {
      "icao": "LEBL",
      "alert": "OK",
      "vis_m": 9999,
      "fzfg": false,
      "metar_trigger": false,
      "taf_trigger": false,
      "metar": "METAR LEBL 310400Z 33008KT CAVOK 11/06 Q1017 NOSIG",
      "taf": "TAF LEBL 302300Z 3100/3124 VRB04KT CAVOK TX17/3112Z TN09/3106Z"
    },
    {
      "icao": "LECH",
      "alert": "OK",
      "vis_m": 9999,
      "fzfg": false,
      "metar_trigger": false,
      "taf_trigger": false,
      "metar": "METAR LECH 310400Z AUTO 33025G41KT 280V020 CAVOK 13/01 Q1017",
      "taf": "TAF LECH 302300Z 3100/3124 33025KT CAVOK TX21/3113Z TN11/3105Z"
    },
    {
      "icao": "LEMD",
      "alert": "OK",
      "vis_m": 9999,
      "fzfg": false,
      "metar_trigger": false,
      "taf_trigger": false,
      "metar": "METAR LEMD 310400Z 36010KT 310V050 CAVOK 10/03 Q1025 NOSIG",
      "taf": "TAF LEMD 302300Z 3100/0106 36010KT CAVOK TX20/3115Z TN07/3106Z"
    },
    {
      "icao": "LEMG",
      "alert": "OK",
      "vis_m": 9999,
      "fzfg": false,
      "metar_trigger": false,
      "taf_trigger": false,
      "metar": "METAR LEMG 310400Z 30008KT CAVOK 07/01 Q1022 NOSIG",
      "taf": "TAF LEMG 302300Z 3100/3124 29008KT CAVOK TX23/3113Z TN10/3107Z"
    },
    {
      "icao": "LEVC",
      "alert": "OK",
      "vis_m": 9999,
      "fzfg": false,
      "metar_trigger": false,
      "taf_trigger": false,
      "metar": "METAR LEVC 310400Z 27007KT CAVOK 10/04 Q1019 NOSIG",
      "taf": "TAF LEVC 302300Z 3100/3124 32007KT CAVOK TX24/3112Z TN11/3105Z"
    },
    {
      "icao": "LEXJ",
      "alert": "OK",
      "vis_m": 5000,
      "fzfg": false,
      "metar_trigger": false,
      "taf_trigger": false,
      "metar": "METAR LEXJ 310400Z 30003KT 280V360 5000 -DZ BKN020 OVC042 11/09 Q1033",
      "taf": ""
    },
    {
      "icao": "LEZG",
      "alert": "OK",
      "vis_m": 9999,
      "fzfg": false,
      "metar_trigger": false,
      "taf_trigger": false,
      "metar": "METAR LEZG 310400Z 29028G39KT 260V320 CAVOK 11/04 Q1024 NOSIG",
      "taf": "TAF LEZG 302300Z 3100/3124 32020KT 9999 FEW045 TX17/3114Z TN09/3105Z"
    },
    {
      "icao": "LEZL",
      "alert": "OK",
      "vis_m": 9999,
      "fzfg": false,
      "metar_trigger": false,
      "taf_trigger": false,
      "metar": "METAR LEZL 310400Z 13003KT 100V160 CAVOK 08/06 Q1024 NOSIG",
      "taf": "TAF LEZL 310200Z 3103/0103 VRB02KT CAVOK TX29/3115Z TN10/3107Z"
    },
    {
      "icao": "LFBD",
      "alert": "OK",
      "vis_m": 9999,
      "fzfg": false,
      "metar_trigger": false,
      "taf_trigger": false,
      "metar": "METAR LFBD 310400Z AUTO 35004KT CAVOK 06/04 Q1031 TEMPO BKN010",
      "taf": "TAF LFBD 302300Z 3100/0106 35008KT 9999 SCT040 TX15/3114Z TN04/3106Z"
    },
    {
      "icao": "LFLL",
      "alert": "OK",
      "vis_m": 9999,
      "fzfg": false,
      "metar_trigger": false,
      "taf_trigger": false,
      "metar": "METAR LFLL 310400Z 34016KT 9999 FEW014 SCT055 04/02 Q1024 NOSIG",
      "taf": "TAF LFLL 302300Z 3100/0106 35010KT 9999 BKN040"
    },
    {
      "icao": "LFLS",
      "alert": "OK",
      "vis_m": 9999,
      "fzfg": false,
      "metar_trigger": false,
      "taf_trigger": false,
      "metar": "METAR LFLS 310400Z AUTO 36012G23KT 320V030 9999 BKN017 04/01 Q1023 TEMPO BKN009",
      "taf": "TAF LFLS 310200Z 3103/0103 35014KT 9999 SCT030"
    },
    {
      "icao": "LFMN",
      "alert": "OK",
      "vis_m": 9999,
      "fzfg": false,
      "metar_trigger": false,
      "taf_trigger": false,
      "metar": "METAR LFMN 310400Z 33006KT CAVOK 09/M03 Q1012 NOSIG",
      "taf": "TAF LFMN 310200Z 3103/0109 33010KT CAVOK"
    },
    {
      "icao": "LFOB",
      "alert": "OK",
      "vis_m": 9999,
      "fzfg": false,
      "metar_trigger": false,
      "taf_trigger": false,
      "metar": "METAR LFOB 310400Z AUTO 29005KT CAVOK 05/04 Q1029 TEMPO 4000 BR",
      "taf": "TAF LFOB 302300Z 3100/3124 31005KT 9999 BKN030"
    },
    {
      "icao": "LFPO",
      "alert": "OK",
      "vis_m": 9999,
      "fzfg": false,
      "metar_trigger": false,
      "taf_trigger": false,
      "metar": "METAR LFPO 310400Z 28004KT 9999 FEW040 BKN120 06/03 Q1029 NOSIG",
      "taf": "TAF LFPO 302300Z 3100/0106 32006KT CAVOK"
    },
    {
      "icao": "LFSB",
      "alert": "OK",
      "vis_m": 9999,
      "fzfg": false,
      "metar_trigger": false,
      "taf_trigger": false,
      "metar": "METAR LFSB 310400Z AUTO 34005KT 9999 BKN026 BKN035 OVC062 04/01 Q1024 NOSIG",
      "taf": "TAF LFSB 302300Z 3100/3124 31005KT 9999 OVC030"
    },
    {
      "icao": "LGAV",
      "alert": "OK",
      "vis_m": 9999,
      "fzfg": false,
      "metar_trigger": false,
      "taf_trigger": false,
      "metar": "METAR LGAV 310350Z VRB01KT 9999 SCT018 SCT060 08/06 Q1006 NOSIG",
      "taf": "TAF LGAV 302300Z 3100/3124 VRB05KT 9999 FEW025"
    },
    {
      "icao": "LGTS",
      "alert": "OK",
      "vis_m": 9999,
      "fzfg": false,
      "metar_trigger": false,
      "taf_trigger": false,
      "metar": "METAR LGTS 310350Z VRB03KT 9999 SCT025 10/07 Q1006 NOSIG",
      "taf": "TAF LGTS 302300Z 3100/3124 VRB03KT 9999 FEW025"
    },
    {
      "icao": "LHBP",
      "alert": "OK",
      "vis_m": 9999,
      "fzfg": false,
      "metar_trigger": false,
      "taf_trigger": false,
      "metar": "METAR LHBP 310400Z 33006KT 9999 BKN017 05/03 Q1009 NOSIG",
      "taf": "TAF LHBP 302315Z 3100/3124 33008KT 9999 -RA SCT020 OVC040"
    },
    {
      "icao": "LHDC",
      "alert": "OK",
      "vis_m": 8000,
      "fzfg": false,
      "metar_trigger": false,
      "taf_trigger": false,
      "metar": "METAR LHDC 310345Z AUTO 02004KT 8000 OVC008 06/05 Q1008 NOSIG",
      "taf": "TAF LHDC 310215Z 3103/3112 03008KT 9999 OVC020"
    },
    {
      "icao": "LIBD",
      "alert": "OK",
      "vis_m": 9999,
      "fzfg": false,
      "metar_trigger": false,
      "taf_trigger": false,
      "metar": "METAR LIBD 310350Z 29004KT 9999 RA BKN010 08/08 Q1005",
      "taf": "TAF LIBD 302300Z 3100/3124 34008KT 9999 SCT030"
    },
    {
      "icao": "LIBG",
      "alert": "OK",
      "vis_m": null,
      "fzfg": false,
      "metar_trigger": false,
      "taf_trigger": false,
      "metar": "",
      "taf": ""
    },
    {
      "icao": "LIBP",
      "alert": "OK",
      "vis_m": 5000,
      "fzfg": false,
      "metar_trigger": false,
      "taf_trigger": false,
      "metar": "METAR LIBP 310350Z AUTO 02014KT 320V050 5000 +RA OVC025/// 07/06 Q1008",
      "taf": "TAF LIBP 302300Z 3100/3124 VRB05KT 9999 SCT030"
    },
    {
      "icao": "LIBR",
      "alert": "OK",
      "vis_m": 5000,
      "fzfg": false,
      "metar_trigger": false,
      "taf_trigger": false,
      "metar": "METAR LIBR 310350Z 35004KT 5000 TSRA FEW025CB BKN035 10/09 Q1005",
      "taf": "TAF LIBR 302300Z 3100/3124 VRB05KT 9999 BKN030"
    },
    {
      "icao": "LICA",
      "alert": "OK",
      "vis_m": 9999,
      "fzfg": false,
      "metar_trigger": false,
      "taf_trigger": false,
      "metar": "METAR LICA 310350Z AUTO 06005KT 9999 BKN031/// 10/09 Q1004",
      "taf": "TAF LICA 302300Z 3100/3124 VRB05KT 9999 SCT020"
    },
    {
      "icao": "LICC",
      "alert": "OK",
      "vis_m": 9999,
      "fzfg": false,
      "metar_trigger": false,
      "taf_trigger": false,
      "metar": "METAR LICC 310350Z 27010KT 9999 -RA SCT025 10/07 Q1004",
      "taf": "TAF LICC 302300Z 3100/3124 26005KT 9999 SCT040"
    },
    {
      "icao": "LICJ",
      "alert": "OK",
      "vis_m": 9999,
      "fzfg": false,
      "metar_trigger": false,
      "taf_trigger": false,
      "metar": "METAR LICJ 310350Z 18006KT 150V220 9999 -RA SCT035 12/08 Q1001",
      "taf": ""
    },
    {
      "icao": "LIMC",
      "alert": "OK",
      "vis_m": 9999,
      "fzfg": false,
      "metar_trigger": false,
      "taf_trigger": false,
      "metar": "METAR LIMC 310350Z 02006KT 330V060 CAVOK 08/M03 Q1014 NOSIG",
      "taf": "TAF LIMC 302300Z 3100/0106 01011KT CAVOK"
    },
    {
      "icao": "LIME",
      "alert": "OK",
      "vis_m": 9999,
      "fzfg": false,
      "metar_trigger": false,
      "taf_trigger": false,
      "metar": "METAR LIME 310350Z 02010KT CAVOK 08/M10 Q1013 NOSIG",
      "taf": "TAF LIME 302300Z 3100/3124 32006KT 9999 SCT040"
    },
    {
      "icao": "LIMF",
      "alert": "OK",
      "vis_m": 9999,
      "fzfg": false,
      "metar_trigger": false,
      "taf_trigger": false,
      "metar": "METAR LIMF 310350Z 27006KT CAVOK 04/M03 Q1014",
      "taf": "TAF LIMF 302300Z 3100/3124 VRB05KT CAVOK"
    },
    {
      "icao": "LIMJ",
      "alert": "OK",
      "vis_m": 9999,
      "fzfg": false,
      "metar_trigger": false,
      "taf_trigger": false,
      "metar": "METAR LIMJ 310350Z 01012KT CAVOK 11/M08 Q1012",
      "taf": "TAF LIMJ 302300Z 3100/3124 02016KT 9999 FEW050"
    },
    {
      "icao": "LIPE",
      "alert": "OK",
      "vis_m": 9999,
      "fzfg": false,
      "metar_trigger": false,
      "taf_trigger": false,
      "metar": "METAR LIPE 310350Z 30005KT 280V340 9999 SCT073 07/02 Q1012",
      "taf": ""
    },
    {
      "icao": "LIPH",
      "alert": "OK",
      "vis_m": 9999,
      "fzfg": false,
      "metar_trigger": false,
      "taf_trigger": false,
      "metar": "METAR LIPH 310350Z AUTO 35001KT 9999 NCD 02/02 Q1012",
      "taf": "TAF LIPH 302300Z 3100/3124 VRB06KT 9999 SCT040"
    },
    {
      "icao": "LIPQ",
      "alert": "OK",
      "vis_m": 9999,
      "fzfg": false,
      "metar_trigger": false,
      "taf_trigger": false,
      "metar": "METAR LIPQ 310350Z AUTO 02003KT 360V060 9999 NCD 01/M00 Q1012",
      "taf": "TAF LIPQ 302300Z 3100/3124 VRB06KT 9999 SCT050"
    },
    {
      "icao": "LIPR",
      "alert": "OK",
      "vis_m": 9999,
      "fzfg": false,
      "metar_trigger": false,
      "taf_trigger": false,
      "metar": "METAR LIPR 310350Z AUTO 05009KT 020V080 9999 SCT073/// BKN110/// 10/03 Q1010",
      "taf": "TAF LIPR 302300Z 3100/3124 03007KT 9999 BKN070"
    },
    {
      "icao": "LIPX",
      "alert": "OK",
      "vis_m": 9999,
      "fzfg": false,
      "metar_trigger": false,
      "taf_trigger": false,
      "metar": "METAR LIPX 310350Z 33011KT CAVOK 10/M10 Q1012",
      "taf": "TAF LIPX 302300Z 3100/3124 VRB05KT CAVOK"
    },
    {
      "icao": "LIPY",
      "alert": "OK",
      "vis_m": 9999,
      "fzfg": false,
      "metar_trigger": false,
      "taf_trigger": false,
      "metar": "METAR LIPY 310350Z AUTO 04017KT 9999 OVC150/// 11/03 Q1009",
      "taf": "TAF LIPY 302300Z 3100/3124 03015KT 9999 SCT040"
    },
    {
      "icao": "LIPZ",
      "alert": "OK",
      "vis_m": 9999,
      "fzfg": false,
      "metar_trigger": false,
      "taf_trigger": false,
      "metar": "METAR LIPZ 310350Z 33004KT CAVOK 04/02 Q1012 NOSIG",
      "taf": "TAF LIPZ 302300Z 3100/0106 03008KT 9999 SCT040"
    },
    {
      "icao": "LIRF",
      "alert": "OK",
      "vis_m": 9999,
      "fzfg": false,
      "metar_trigger": false,
      "taf_trigger": false,
      "metar": "METAR LIRF 310350Z 01013KT 9999 RA FEW010 SCT030 08/05 Q1004 NOSIG",
      "taf": "TAF LIRF 302300Z 3100/0106 01015KT 9999 SCT040"
    },
    {
      "icao": "LIRN",
      "alert": "OK",
      "vis_m": 9999,
      "fzfg": false,
      "metar_trigger": false,
      "taf_trigger": false,
      "metar": "METAR LIRN 310350Z 02009KT 9999 -RA BKN040 07/05 Q1003 NOSIG",
      "taf": "TAF LIRN 302300Z 3100/3124 04005KT 9999 SCT040"
    },
    {
      "icao": "LIRP",
      "alert": "OK",
      "vis_m": 9999,
      "fzfg": false,
      "metar_trigger": false,
      "taf_trigger": false,
      "metar": "METAR LIRP 310345Z 05010KT 9999 -RA SCT040 BKN060 08/02 Q1011 NOSIG",
      "taf": "TAF LIRP 302300Z 3100/3124 11005KT 9999 SCT080"
    },
    {
      "icao": "LIRZ",
      "alert": "OK",
      "vis_m": 9999,
      "fzfg": false,
      "metar_trigger": false,
      "taf_trigger": false,
      "metar": "METAR LIRZ 310350Z AUTO 01003KT 310V060 9999 BKN046/// BKN130/// 07/02 Q1007",
      "taf": "TAF LIRZ 302300Z 3100/3124 03010KT 9999 SCT030"
    },
    {
      "icao": "LJLJ",
      "alert": "OK",
      "vis_m": 400,
      "fzfg": true,
      "metar_trigger": false,
      "taf_trigger": false,
      "metar": "METAR LJLJ 310400Z VRB02KT 0400 R30/1500D FZFG VV001 M00/M01 Q1012 NOSIG",
      "taf": "TAF LJLJ 302300Z 3100/0100 12004KT 9999 FEW030 SCT080"
    },
    {
      "icao": "LKMT",
      "alert": "OK",
      "vis_m": 5000,
      "fzfg": false,
      "metar_trigger": false,
      "taf_trigger": false,
      "metar": "METAR LKMT 310400Z 01009KT 5000 -RA BR OVC008 03/03 Q1014 NOSIG",
      "taf": "TAF LKMT 302300Z 3100/3124 02008KT 9999 -RA BKN017 OVC035"
    },
    {
      "icao": "LKPR",
      "alert": "OK",
      "vis_m": 9999,
      "fzfg": false,
      "metar_trigger": false,
      "taf_trigger": false,
      "metar": "METAR LKPR 310400Z 34009KT 9999 SCT013 BKN020 03/01 Q1018 NOSIG",
      "taf": "TAF LKPR 310200Z 3103/0109 30010KT 9999 SCT018 BKN030"
    },
    {
      "icao": "LLBG",
      "alert": "OK",
      "vis_m": 9999,
      "fzfg": false,
      "metar_trigger": false,
      "taf_trigger": false,
      "metar": "METAR LLBG 310350Z VRB03KT 9999 FEW028 13/10 Q1013 TEMPO RA RMK BKN062",
      "taf": "TAF LLBG 302249Z 3100/3124 VRB04KT 9999 SCT035 TX21/3112Z TN11/3103Z"
    },
    {
      "icao": "LMML",
      "alert": "OK",
      "vis_m": 9999,
      "fzfg": false,
      "metar_trigger": false,
      "taf_trigger": false,
      "metar": "METAR LMML 310345Z 22009KT 9999 SCT023TCU 11/09 Q1007 NOSIG",
      "taf": "TAF LMML 302300Z 3100/3124 26010KT 9999 SCT022"
    },
    {
      "icao": "LOWW",
      "alert": "OK",
      "vis_m": 9999,
      "fzfg": false,
      "metar_trigger": false,
      "taf_trigger": false,
      "metar": "METAR LOWW 310350Z 33014KT 9999 -RA FEW015 SCT030 BKN042 04/02 Q1014 NOSIG",
      "taf": "TAF LOWW 310215Z 3103/0109 31015KT CAVOK TX08/0109Z TN04/0104Z"
    },
    {
      "icao": "LPFR",
      "alert": "OK",
      "vis_m": 9999,
      "fzfg": false,
      "metar_trigger": false,
      "taf_trigger": false,
      "metar": "METAR LPFR 310400Z 27005KT CAVOK 11/07 Q1024",
      "taf": "TAF LPFR 302200Z 3100/3124 29005KT CAVOK"
    },
    {
      "icao": "LPMA",
      "alert": "OK",
      "vis_m": 9999,
      "fzfg": false,
      "metar_trigger": false,
      "taf_trigger": false,
      "metar": "METAR LPMA 310400Z 01016KT 340V040 9999 SCT015 15/09 Q1023",
      "taf": "TAF LPMA 302200Z 3100/3124 01015KT 9999 SCT015"
    },
    {
      "icao": "LPPR",
      "alert": "OK",
      "vis_m": 9999,
      "fzfg": false,
      "metar_trigger": false,
      "taf_trigger": false,
      "metar": "METAR LPPR 310400Z 36005KT CAVOK 12/08 Q1029",
      "taf": "TAF LPPR 302200Z 3100/3124 05005KT CAVOK"
    },
    {
      "icao": "LPPS",
      "alert": "OK",
      "vis_m": 9999,
      "fzfg": false,
      "metar_trigger": false,
      "taf_trigger": false,
      "metar": "METAR LPPS 310400Z 07016KT 9999 SCT015 15/10 Q1023",
      "taf": "TAF LPPS 302200Z 3100/0106 08015KT 9999 SCT015"
    },
    {
      "icao": "LPPT",
      "alert": "OK",
      "vis_m": 9999,
      "fzfg": false,
      "metar_trigger": false,
      "taf_trigger": false,
      "metar": "METAR LPPT 310400Z 36006KT CAVOK 15/05 Q1026",
      "taf": "TAF LPPT 302200Z 3100/0106 34008KT CAVOK"
    },
    {
      "icao": "LQBK",
      "alert": "OK",
      "vis_m": 9999,
      "fzfg": false,
      "metar_trigger": false,
      "taf_trigger": false,
      "metar": "METAR LQBK 310400Z 15003KT 120V190 9999 -RA BKN035 04/02 Q1012 NOSIG",
      "taf": "TAF LQBK 302300Z 3100/3124 20005KT 9999 SCT015 OVC030 TX06/3114Z TN03/3104Z"
    },
    {
      "icao": "LQSA",
      "alert": "OK",
      "vis_m": 7000,
      "fzfg": false,
      "metar_trigger": false,
      "taf_trigger": false,
      "metar": "METAR LQSA 310400Z 00000KT 7000 -SN BKN010 OVC025 02/01 Q1010 NOSIG",
      "taf": "TAF LQSA 302300Z 3100/3124 32005KT 9999 SCT020 BKN040 TX06/3113Z TN01/3105Z"
    },
    {
      "icao": "LQTZ",
      "alert": "OK",
      "vis_m": 550,
      "fzfg": false,
      "metar_trigger": false,
      "taf_trigger": false,
      "metar": "METAR LQTZ 310400Z VRB02KT 0550 R09/0600N FG SCT002 BKN006 OVC012 01/01 Q1012",
      "taf": "TAF LQTZ 302300Z 3100/3124 28005KT 9999 SCT012 BKN025 TX07/3113Z TN00/3105Z"
    },
    {
      "icao": "LRBC",
      "alert": "OK",
      "vis_m": 9999,
      "fzfg": false,
      "metar_trigger": false,
      "taf_trigger": false,
      "metar": "METAR LRBC 310400Z 32005KT 9999 -RA BKN039 08/06 Q1004",
      "taf": "TAF LRBC 310200Z 3103/3112 34010KT 5000 -RA BR OVC030"
    },
    {
      "icao": "LRBS",
      "alert": "OK",
      "vis_m": 9999,
      "fzfg": false,
      "metar_trigger": false,
      "taf_trigger": false,
      "metar": "METAR LRBS 310400Z 25008KT 9999 BKN008 BKN045 06/05 Q1005 NOSIG",
      "taf": "TAF LRBS 302300Z 3100/3124 24008KT 9999 BKN015 OVC035"
    },
    {
      "icao": "LRBV",
      "alert": "OK",
      "vis_m": 9999,
      "fzfg": false,
      "metar_trigger": false,
      "taf_trigger": false,
      "metar": "METAR LRBV 310400Z 30008KT 9999 -RADZ BKN008 BKN015 05/04 Q1006",
      "taf": "TAF LRBV 310200Z 3103/3112 28010KT 9999 SCT015 BKN040"
    },
    {
      "icao": "LRCL",
      "alert": "OK",
      "vis_m": 9999,
      "fzfg": false,
      "metar_trigger": false,
      "taf_trigger": false,
      "metar": "METAR LRCL 310400Z VRB01KT 9999 -RA BKN013 OVC034 07/06 Q1006",
      "taf": "TAF LRCL 310200Z 3103/3112 31007KT 9999 SCT015 BKN035"
    },
    {
      "icao": "LRCV",
      "alert": "OK",
      "vis_m": 9999,
      "fzfg": false,
      "metar_trigger": false,
      "taf_trigger": false,
      "metar": "METAR LRCV 310400Z 25013KT 9999 FEW045 04/03 Q1006",
      "taf": "TAF LRCV 310200Z 3103/3112 26012KT 9999 SCT025 SCT040"
    },
    {
      "icao": "LRIA",
      "alert": "OK",
      "vis_m": 5000,
      "fzfg": false,
      "metar_trigger": false,
      "taf_trigger": false,
      "metar": "METAR LRIA 310400Z 30011KT 5000 -RA BR OVC008 08/07 Q1004",
      "taf": "TAF LRIA 310200Z 3103/3112 32012KT 5000 -RA BR BKN015 OVC040"
    },
    {
      "icao": "LROP",
      "alert": "OK",
      "vis_m": 9000,
      "fzfg": false,
      "metar_trigger": false,
      "taf_trigger": false,
      "metar": "METAR LROP 310400Z 23007KT 9000 BKN009 OVC012 06/06 Q1006 NOSIG",
      "taf": "TAF LROP 302300Z 3100/3124 24008KT 9999 BKN015 OVC035"
    },
    {
      "icao": "LRSB",
      "alert": "OK",
      "vis_m": 9999,
      "fzfg": false,
      "metar_trigger": false,
      "taf_trigger": false,
      "metar": "METAR LRSB 310400Z 32010KT 9999 FEW010 OVC033 06/04 Q1006",
      "taf": "TAF LRSB 302300Z 3100/3124 31006KT 5000 -RA BR BKN015 BKN050"
    },
    {
      "icao": "LRSM",
      "alert": "OK",
      "vis_m": 5000,
      "fzfg": false,
      "metar_trigger": false,
      "taf_trigger": false,
      "metar": "METAR LRSM 310400Z 26006KT 5000 -RA BR SCT004 OVC007 06/05 Q1008",
      "taf": "TAF LRSM 310200Z 3103/3112 24007KT 3000 -RADZ BR BKN005 OVC020"
    },
    {
      "icao": "LRSV",
      "alert": "OK",
      "vis_m": 7000,
      "fzfg": false,
      "metar_trigger": false,
      "taf_trigger": false,
      "metar": "METAR LRSV 310400Z 30014KT 7000 -RA BKN008 OVC035 06/05 Q1004",
      "taf": "TAF LRSV 310200Z 3103/3112 32012KT 5000 -RA BR BKN020 OVC035"
    },
    {
      "icao": "LRTM",
      "alert": "OK",
      "vis_m": 9999,
      "fzfg": false,
      "metar_trigger": false,
      "taf_trigger": false,
      "metar": "METAR LRTM 310400Z 23009KT 9999 -RA FEW009 BKN013 OVC022 07/06 Q1006",
      "taf": "TAF LRTM 310200Z 3103/3112 24007KT 5000 -RA BR SCT015 BKN030"
    },
    {
      "icao": "LRTR",
      "alert": "OK",
      "vis_m": 9999,
      "fzfg": false,
      "metar_trigger": false,
      "taf_trigger": false,
      "metar": "METAR LRTR 310400Z 26004KT 9999 BKN017 BKN028 OVC049 04/04 Q1009",
      "taf": "TAF LRTR 302300Z 3100/3124 29010KT 9999 BKN010"
    },
    {
      "icao": "LTAC",
      "alert": "OK",
      "vis_m": 9999,
      "fzfg": false,
      "metar_trigger": false,
      "taf_trigger": false,
      "metar": "METAR LTAC 310350Z 20005KT 9999 BKN014 06/04 Q1009 NOSIG RMK RWY21C 20007KT RWY03L 20004KT RWY21R 20008KT RWY03R 18005KT RWY21L 20007KT",
      "taf": "TAF LTAC 302240Z 3100/3124 VRB02KT 9999 BKN014"
    },
    {
      "icao": "LTFM",
      "alert": "OK",
      "vis_m": 9999,
      "fzfg": false,
      "metar_trigger": false,
      "taf_trigger": false,
      "metar": "METAR LTFM 310350Z 20010KT 9999 SCT040 BKN090 10/08 Q1007 NOSIG RMK RWY17L 19009KT RWY34L 20011KT RWY16R 20007KT RWY36 20010KT RWY18 20012KT",
      "taf": "TAF LTFM 302240Z 3100/0106 21010KT 9999 SCT035 BKN090"
    },
    {
      "icao": "LUKK",
      "alert": "OK",
      "vis_m": 8000,
      "fzfg": false,
      "metar_trigger": false,
      "taf_trigger": false,
      "metar": "METAR LUKK 310400Z 32006KT 8000 -RA SCT007 OVC029 08/07 Q1002 TEMPO BKN006",
      "taf": "TAF LUKK 302332Z 3100/3124 33008KT 8000 SCT008 BKN014"
    },
    {
      "icao": "LWOH",
      "alert": "OK",
      "vis_m": null,
      "fzfg": false,
      "metar_trigger": false,
      "taf_trigger": false,
      "metar": "",
      "taf": "TAF LWOH 310350Z 3103/0103 VRB03KT 9999 FEW045 SCT090"
    },
    {
      "icao": "LWSK",
      "alert": "OK",
      "vis_m": 9999,
      "fzfg": false,
      "metar_trigger": false,
      "taf_trigger": false,
      "metar": "METAR LWSK 310350Z 01009KT 9999 BKN020 OVC050 07/02 Q1008 NOSIG",
      "taf": "TAF LWSK 310350Z 3103/0103 01010KT 9999 BKN020 OVC050"
    },
    {
      "icao": "LYBE",
      "alert": "OK",
      "vis_m": 9999,
      "fzfg": false,
      "metar_trigger": false,
      "taf_trigger": false,
      "metar": "METAR LYBE 310400Z 27009KT 9999 BKN027 04/03 Q1011 NOSIG",
      "taf": "TAF LYBE 302300Z 3100/3124 27010KT 9999 SCT014 BKN030 TX09/3113Z TN03/3105Z"
    },
    {
      "icao": "LYNI",
      "alert": "OK",
      "vis_m": 9999,
      "fzfg": false,
      "metar_trigger": false,
      "taf_trigger": false,
      "metar": "METAR LYNI 310400Z 31005KT 280V340 9999 BKN013 OVC023 04/04 Q1010 NOSIG",
      "taf": "TAF LYNI 302300Z 3100/3124 32010KT 9999 SCT017 BKN023 TX10/3112Z TN04/3106Z"
    },
    {
      "icao": "LYPG",
      "alert": "OK",
      "vis_m": 9999,
      "fzfg": false,
      "metar_trigger": false,
      "taf_trigger": false,
      "metar": "METAR LYPG 310400Z 34003KT 9999 FEW034 BKN080 08/06 Q1006 NOSIG",
      "taf": "TAF LYPG 302300Z 3100/3124 01006KT 9999 FEW050 BKN080 TX14/3114Z TN07/3102Z"
    },
    {
      "icao": "LZIB",
      "alert": "OK",
      "vis_m": 9999,
      "fzfg": false,
      "metar_trigger": false,
      "taf_trigger": false,
      "metar": "METAR LZIB 310400Z 32013KT 9999 -RA FEW010 SCT031 05/02 Q1013 NOSIG",
      "taf": "TAF LZIB 302315Z 3100/0100 30009KT 9999 SCT040"
    },
    {
      "icao": "LZKZ",
      "alert": "OK",
      "vis_m": 9999,
      "fzfg": false,
      "metar_trigger": false,
      "taf_trigger": false,
      "metar": "METAR LZKZ 310400Z 01013KT 9999 -RA OVC030 04/02 Q1008 NOSIG",
      "taf": "TAF LZKZ 302315Z 3100/0100 01016KT 9999 BKN040"
    },
    {
      "icao": "LZTT",
      "alert": "OK",
      "vis_m": 2000,
      "fzfg": false,
      "metar_trigger": false,
      "taf_trigger": false,
      "metar": "METAR LZTT 310400Z 26005KT 230V300 2000 -SN BKN004 OVC012 00/00 Q1009",
      "taf": "TAF LZTT 302315Z 3100/0100 VRB02KT 7000 BKN016"
    },
    {
      "icao": "OEJN",
      "alert": "OK",
      "vis_m": 9999,
      "fzfg": false,
      "metar_trigger": false,
      "taf_trigger": false,
      "metar": "METAR OEJN 310400Z 00000KT CAVOK 23/18 Q1009 NOSIG",
      "taf": "TAF OEJN 302300Z 3100/0106 01005KT CAVOK"
    },
    {
      "icao": "OEMA",
      "alert": "OK",
      "vis_m": 9999,
      "fzfg": false,
      "metar_trigger": false,
      "taf_trigger": false,
      "metar": "METAR OEMA 310400Z 34003KT CAVOK 21/04 Q1013 NOSIG",
      "taf": "TAF OEMA 302300Z 3100/0106 28005KT 9999 FEW045"
    },
    {
      "icao": "OJAI",
      "alert": "OK",
      "vis_m": 3500,
      "fzfg": false,
      "metar_trigger": false,
      "taf_trigger": false,
      "metar": "METAR OJAI 310400Z 00000KT 3500 BR SCT035 05/05 Q1014 NOSIG",
      "taf": "TAF OJAI 302252Z 3100/0106 VRB02KT 3000 BR NSC"
    },
    {
      "icao": "OMAA",
      "alert": "OK",
      "vis_m": null,
      "fzfg": false,
      "metar_trigger": false,
      "taf_trigger": false,
      "metar": "",
      "taf": ""
    },
    {
      "icao": "OMDB",
      "alert": "OK",
      "vis_m": null,
      "fzfg": false,
      "metar_trigger": false,
      "taf_trigger": false,
      "metar": "",
      "taf": ""
    },
    {
      "icao": "UAAA",
      "alert": "OK",
      "vis_m": 9999,
      "fzfg": false,
      "metar_trigger": false,
      "taf_trigger": false,
      "metar": "METAR UAAA 310400Z VRB01MPS 9999 FEW100 BKN200 19/M01 Q1011 NOSIG",
      "taf": "TAF UAAA 302301Z 3100/3124 20003MPS 9999 SCT100 TX23/3110Z TN06/3101Z"
    },
    {
      "icao": "UBBB",
      "alert": "OK",
      "vis_m": 3000,
      "fzfg": false,
      "metar_trigger": false,
      "taf_trigger": false,
      "metar": "METAR UBBB 310400Z 18004KT 3000 BR BKN002 10/10 Q1002 NOSIG",
      "taf": ""
    },
    {
      "icao": "UDSG",
      "alert": "OK",
      "vis_m": 9999,
      "fzfg": false,
      "metar_trigger": false,
      "taf_trigger": false,
      "metar": "METAR UDSG 310400Z 06007KT 9999 BKN049 02/M00 Q1008 NOSIG",
      "taf": "TAF UDSG 302300Z 3100/3124 21006KT 9999 SCT040"
    },
    {
      "icao": "UDYZ",
      "alert": "OK",
      "vis_m": 9999,
      "fzfg": false,
      "metar_trigger": false,
      "taf_trigger": false,
      "metar": "METAR UDYZ 310400Z 26004KT 9999 SCT046 08/04 Q1006 NOSIG",
      "taf": "TAF UDYZ 302300Z 3100/3124 22006KT 9999 SCT040"
    },
    {
      "icao": "UGKO",
      "alert": "OK",
      "vis_m": 150,
      "fzfg": false,
      "metar_trigger": false,
      "taf_trigger": false,
      "metar": "METAR UGKO 310400Z VRB02KT 0150 R07/0400N FG VV003 06/06 Q1008 NOSIG",
      "taf": "TAF UGKO 302300Z 3100/3124 26007KT CAVOK TX17/3111Z TN07/3103Z"
    }
  ]
}