{
  "ts_utc": "2025-12-27T15:01:21Z",
  "threshold_m": 150,
  "source": "stations_override.txt (ICAO list) + aviationweather.gov (METAR/TAF raw)",
  "station_count": 159,
  "stations": [
    {
      "icao": "BIKF",
      "alert": "OK",
      "vis_m": 9999,
      "fzfg": false,
      "metar_trigger": false,
      "taf_trigger": false,
      "metar": "METAR BIKF 271430Z 18013KT 9999 -RA BKN029 05/04 Q1042",
      "taf": "TAF BIKF 271330Z 2715/2815 18015KT 9999 SCT015 OVC024 TX07/2721Z TN06/2815Z"
    },
    {
      "icao": "BKPR",
      "alert": "OK",
      "vis_m": 9999,
      "fzfg": false,
      "metar_trigger": false,
      "taf_trigger": false,
      "metar": "METAR BKPR 271500Z 35007KT CAVOK 03/00 Q1023 NOSIG",
      "taf": "TAF BKPR 271130Z 2712/2812 35008KT 9999 FEW030"
    },
    {
      "icao": "EBCI",
      "alert": "OK",
      "vis_m": 9999,
      "fzfg": false,
      "metar_trigger": false,
      "taf_trigger": false,
      "metar": "METAR EBCI 271450Z 04011KT CAVOK 02/M06 Q1030 NOSIG",
      "taf": "TAF EBCI 271100Z 2712/2818 05008KT CAVOK"
    },
    {
      "icao": "EDDB",
      "alert": "OK",
      "vis_m": 3200,
      "fzfg": false,
      "metar_trigger": false,
      "taf_trigger": false,
      "metar": "METAR EDDB 271450Z AUTO 27008KT 3200 BR OVC002 00/00 Q1026 REDZ TEMPO 2500 BR",
      "taf": "TAF EDDB 271100Z 2712/2812 26010KT 5000 BR BKN005"
    },
    {
      "icao": "EDDH",
      "alert": "OK",
      "vis_m": 9999,
      "fzfg": false,
      "metar_trigger": false,
      "taf_trigger": false,
      "metar": "METAR EDDH 271450Z AUTO 31011KT 9999 BKN019 07/04 Q1028 NOSIG",
      "taf": "TAF EDDH 271100Z 2712/2818 27004KT 8000 OVC008"
    },
    {
      "icao": "EDDK",
      "alert": "OK",
      "vis_m": 9999,
      "fzfg": false,
      "metar_trigger": false,
      "taf_trigger": false,
      "metar": "METAR EDDK 271450Z AUTO 33003KT 260V360 CAVOK 01/M02 Q1031 NOSIG",
      "taf": "TAF EDDK 271100Z 2712/2818 VRB03KT CAVOK"
    },
    {
      "icao": "EDDN",
      "alert": "OK",
      "vis_m": 9999,
      "fzfg": false,
      "metar_trigger": false,
      "taf_trigger": false,
      "metar": "METAR EDDN 271450Z AUTO 27003KT CAVOK 05/M05 Q1028 NOSIG",
      "taf": "TAF EDDN 271100Z 2712/2812 VRB02KT CAVOK"
    },
    {
      "icao": "EDDS",
      "alert": "OK",
      "vis_m": 9999,
      "fzfg": false,
      "metar_trigger": false,
      "taf_trigger": false,
      "metar": "METAR EDDS 271450Z AUTO 14004KT CAVOK 02/M02 Q1027 NOSIG",
      "taf": "TAF EDDS 271100Z 2712/2812 04003KT CAVOK"
    },
    {
      "icao": "EDFH",
      "alert": "OK",
      "vis_m": 9999,
      "fzfg": false,
      "metar_trigger": false,
      "taf_trigger": false,
      "metar": "METAR EDFH 271450Z 06003KT CAVOK 04/M08 Q1028",
      "taf": "TAF EDFH 271100Z 2712/2812 07007KT CAVOK"
    },
    {
      "icao": "EDJA",
      "alert": "OK",
      "vis_m": 1500,
      "fzfg": false,
      "metar_trigger": false,
      "taf_trigger": false,
      "metar": "METAR EDJA 271450Z VRB02KT 1500 BR SCT002 BKN004 OVC011 M03/M03 Q1027",
      "taf": "TAF EDJA 271400Z 2715/2724 VRB03KT 3500 BR OVC002"
    },
    {
      "icao": "EDLW",
      "alert": "OK",
      "vis_m": 9999,
      "fzfg": false,
      "metar_trigger": false,
      "taf_trigger": false,
      "metar": "METAR EDLW 271450Z 10003KT 050V140 9999 OVC007 01/M02 Q1032",
      "taf": "TAF EDLW 271100Z 2712/2812 VRB03KT CAVOK"
    },
    {
      "icao": "EDNY",
      "alert": "OK",
      "vis_m": 9999,
      "fzfg": false,
      "metar_trigger": false,
      "taf_trigger": false,
      "metar": "METAR EDNY 271450Z VRB02KT 9999 OVC010 M01/M03 Q1029",
      "taf": "TAF EDNY 271400Z 2715/2724 05003KT 9999 OVC010"
    },
    {
      "icao": "EDSB",
      "alert": "OK",
      "vis_m": 9999,
      "fzfg": false,
      "metar_trigger": false,
      "taf_trigger": false,
      "metar": "METAR EDSB 271450Z 20005KT CAVOK 03/M01 Q1029",
      "taf": "TAF EDSB 271100Z 2712/2812 VRB03KT 9000 FEW010"
    },
    {
      "icao": "EETN",
      "alert": "OK",
      "vis_m": 9999,
      "fzfg": false,
      "metar_trigger": false,
      "taf_trigger": false,
      "metar": "METAR EETN 271450Z 31016G26KT 9999 BKN034 03/M03 Q0996 TEMPO 30020G32KT",
      "taf": "TAF EETN 271130Z 2712/2812 30016G28KT 9999 SCT025"
    },
    {
      "icao": "EFTU",
      "alert": "OK",
      "vis_m": 9999,
      "fzfg": false,
      "metar_trigger": false,
      "taf_trigger": false,
      "metar": "METAR EFTU 271450Z AUTO 32012G27KT 280V010 9999 -SHRA OVC034 03/M01 Q0998",
      "taf": "TAF EFTU 271447Z 2715/2815 31020G40KT 9999 BKN015"
    },
    {
      "icao": "EGBB",
      "alert": "OK",
      "vis_m": 9999,
      "fzfg": false,
      "metar_trigger": false,
      "taf_trigger": false,
      "metar": "METAR EGBB 271450Z 05010KT 010V080 9999 BKN006 06/05 Q1036",
      "taf": ""
    },
    {
      "icao": "EGGP",
      "alert": "OK",
      "vis_m": 9999,
      "fzfg": false,
      "metar_trigger": false,
      "taf_trigger": false,
      "metar": "METAR EGGP 271450Z 05013KT 9999 SCT025 SCT035 07/02 Q1038",
      "taf": "TAF EGGP 271100Z 2712/2812 04008KT 9999 SCT018"
    },
    {
      "icao": "EGGW",
      "alert": "OK",
      "vis_m": 9999,
      "fzfg": false,
      "metar_trigger": false,
      "taf_trigger": false,
      "metar": "METAR EGGW 271450Z AUTO 04012KT 9999 BKN012 OVC016 05/04 Q1034",
      "taf": ""
    },
    {
      "icao": "EGKK",
      "alert": "OK",
      "vis_m": 9999,
      "fzfg": false,
      "metar_trigger": false,
      "taf_trigger": false,
      "metar": "METAR EGKK 271450Z 05016KT 9999 SCT018 08/05 Q1032",
      "taf": "TAF EGKK 271055Z 2712/2818 05012KT 9999 SCT018"
    },
    {
      "icao": "EGNM",
      "alert": "OK",
      "vis_m": 9999,
      "fzfg": false,
      "metar_trigger": false,
      "taf_trigger": false,
      "metar": "METAR EGNM 271450Z 03005KT 010V070 9999 FEW008 BKN016 06/04 Q1038",
      "taf": "TAF EGNM 271100Z 2712/2812 04008KT 9999 BKN018"
    },
    {
      "icao": "EGPD",
      "alert": "OK",
      "vis_m": 9999,
      "fzfg": false,
      "metar_trigger": false,
      "taf_trigger": false,
      "metar": "METAR EGPD 271450Z COR AUTO 01006KT 340V040 9999 OVC028 07/03 Q1042 NOSIG",
      "taf": "TAF EGPD 271056Z 2712/2812 33006KT 9999 SCT015"
    },
    {
      "icao": "EGPF",
      "alert": "OK",
      "vis_m": 9999,
      "fzfg": false,
      "metar_trigger": false,
      "taf_trigger": false,
      "metar": "METAR EGPF 271450Z AUTO 06005KT 9999 OVC019 06/04 Q1042",
      "taf": "TAF EGPF 271055Z 2712/2812 06006KT 9999 SCT025"
    },
    {
      "icao": "EHBK",
      "alert": "OK",
      "vis_m": 9999,
      "fzfg": false,
      "metar_trigger": false,
      "taf_trigger": false,
      "metar": "METAR EHBK 271455Z AUTO 02011KT 9999 NSC 02/M06 Q1031 NOSIG",
      "taf": "TAF EHBK 271122Z 2712/2818 04008KT CAVOK"
    },
    {
      "icao": "EHEH",
      "alert": "OK",
      "vis_m": 3200,
      "fzfg": false,
      "metar_trigger": false,
      "taf_trigger": false,
      "metar": "METAR EHEH 271425Z AUTO 03008KT 3200 R03/P3000U BR OVC002 02/02 Q1033 AMB TEMPO 2500 BR SCT002 BKN003 RMK TREND REMOTE BY EHWX",
      "taf": "TAF EHEH 271129Z 2712/2818 05007KT CAVOK"
    },
    {
      "icao": "EKBI",
      "alert": "OK",
      "vis_m": 9999,
      "fzfg": false,
      "metar_trigger": false,
      "taf_trigger": false,
      "metar": "METAR EKBI 271450Z AUTO 32007KT 9999 NCD 05/02 Q1029",
      "taf": "TAF EKBI 271427Z 2715/2815 31008KT CAVOK"
    },
    {
      "icao": "EKCH",
      "alert": "OK",
      "vis_m": 9999,
      "fzfg": false,
      "metar_trigger": false,
      "taf_trigger": false,
      "metar": "METAR EKCH 271450Z AUTO 34013KT 9999 NCD 07/M02 Q1025 NOSIG",
      "taf": "TAF EKCH 271427Z 2715/2815 34015KT CAVOK"
    },
    {
      "icao": "ENAL",
      "alert": "OK",
      "vis_m": 9999,
      "fzfg": false,
      "metar_trigger": false,
      "taf_trigger": false,
      "metar": "METAR ENAL 271450Z 01013KT 9999 VCSH FEW019 SCT032 BKN042 03/M01 Q1039",
      "taf": "TAF ENAL 271400Z 2715/2724 36012KT 9999 FEW018 BKN035"
    },
    {
      "icao": "ENBR",
      "alert": "OK",
      "vis_m": 9999,
      "fzfg": false,
      "metar_trigger": false,
      "taf_trigger": false,
      "metar": "METAR ENBR 271450Z 33015KT 9999 BKN040 04/M02 Q1035 TEMPO 33018G28KT RMK WIND 1200FT 34027KT",
      "taf": "TAF ENBR 271100Z 2712/2812 34018KT 9999 FEW040"
    },
    {
      "icao": "ENGM",
      "alert": "OK",
      "vis_m": 9999,
      "fzfg": false,
      "metar_trigger": false,
      "taf_trigger": false,
      "metar": "METAR ENGM 271450Z 33005KT 270V020 CAVOK 03/M10 Q1025 TEMPO 34015G25KT",
      "taf": "TAF ENGM 271100Z 2712/2812 34015G28KT CAVOK"
    },
    {
      "icao": "ENHD",
      "alert": "OK",
      "vis_m": 9999,
      "fzfg": false,
      "metar_trigger": false,
      "taf_trigger": false,
      "metar": "METAR ENHD 271450Z 36025KT 9999 FEW038 06/M01 Q1035",
      "taf": "TAF ENHD 271400Z 2715/2723 01028G38KT 9999 SCT035"
    },
    {
      "icao": "ENTC",
      "alert": "OK",
      "vis_m": 9999,
      "fzfg": false,
      "metar_trigger": false,
      "taf_trigger": false,
      "metar": "METAR ENTC 271450Z 35021G34KT 9999 BKN030 M03/M06 Q1013 TEMPO 35018KT 0500 +SHSN VV004 RMK WIND 2600FT 34048G60KT",
      "taf": "TAF ENTC 271100Z 2712/2812 36018KT 9999 SCT018CB BKN025"
    },
    {
      "icao": "ENTO",
      "alert": "OK",
      "vis_m": 9999,
      "fzfg": false,
      "metar_trigger": false,
      "taf_trigger": false,
      "metar": "METAR ENTO 271450Z 28007KT CAVOK 04/M05 Q1027 NOSIG",
      "taf": "TAF ENTO 271100Z 2712/2812 32008KT CAVOK"
    },
    {
      "icao": "ENVA",
      "alert": "OK",
      "vis_m": 9000,
      "fzfg": false,
      "metar_trigger": false,
      "taf_trigger": false,
      "metar": "METAR ENVA 271450Z 29024KT 9000 -SHSN FEW009 SCT015CB BKN023 02/M00 Q1031 RMK WIND 670FT 31039G50KT",
      "taf": ""
    },
    {
      "icao": "ENZV",
      "alert": "OK",
      "vis_m": 9999,
      "fzfg": false,
      "metar_trigger": false,
      "taf_trigger": false,
      "metar": "METAR ENZV 271450Z 34021KT CAVOK 05/M02 Q1034 NOSIG",
      "taf": "TAF ENZV 271100Z 2712/2812 34025KT 9999 FEW008"
    },
    {
      "icao": "EPGD",
      "alert": "OK",
      "vis_m": 9999,
      "fzfg": false,
      "metar_trigger": false,
      "taf_trigger": false,
      "metar": "METAR EPGD 271430Z 30015KT 9999 SCT012 04/02 Q1015",
      "taf": ""
    },
    {
      "icao": "EPKK",
      "alert": "OK",
      "vis_m": 2000,
      "fzfg": false,
      "metar_trigger": false,
      "taf_trigger": false,
      "metar": "METAR EPKK 271430Z 24014KT 2000 BR OVC002 M02/M02 Q1020",
      "taf": "TAF EPKK 271430Z 2715/2815 25015KT 2000 BR OVC003"
    },
    {
      "icao": "EPKT",
      "alert": "OK",
      "vis_m": 3000,
      "fzfg": false,
      "metar_trigger": false,
      "taf_trigger": false,
      "metar": "METAR EPKT 271430Z 25014KT 3000 BR OVC002 M02/M02 Q1020",
      "taf": ""
    },
    {
      "icao": "EPLB",
      "alert": "OK",
      "vis_m": 1600,
      "fzfg": false,
      "metar_trigger": false,
      "taf_trigger": false,
      "metar": "METAR EPLB 271430Z 26016KT 1600 -FZDZ BR OVC002 M01/M01 Q1013",
      "taf": "TAF EPLB 271130Z 2712/2812 28013KT 3000 -DZ BR OVC003"
    },
    {
      "icao": "EPMO",
      "alert": "OK",
      "vis_m": 1800,
      "fzfg": false,
      "metar_trigger": false,
      "taf_trigger": false,
      "metar": "METAR EPMO 271430Z 28020KT 1800 -FZDZ BR OVC002 M00/M00 Q1015",
      "taf": "TAF EPMO 271130Z 2712/2812 27015KT 2000 -DZ BR OVC002"
    },
    {
      "icao": "EPPO",
      "alert": "OK",
      "vis_m": 7000,
      "fzfg": false,
      "metar_trigger": false,
      "taf_trigger": false,
      "metar": "METAR EPPO 271430Z 29015KT 7000 OVC002 M00/M01 Q1021",
      "taf": ""
    },
    {
      "icao": "EPRA",
      "alert": "OK",
      "vis_m": 3500,
      "fzfg": false,
      "metar_trigger": false,
      "taf_trigger": false,
      "metar": "METAR EPRA 271430Z 28017KT 3500 BR OVC003 M01/M01 Q1015",
      "taf": "TAF EPRA 271430Z 2715/2724 27014KT 4000 BR OVC003"
    },
    {
      "icao": "EPRZ",
      "alert": "OK",
      "vis_m": 1400,
      "fzfg": false,
      "metar_trigger": false,
      "taf_trigger": false,
      "metar": "METAR EPRZ 271430Z 25019KT 1400 R27/P2000N BR OVC002 M01/M01 Q1017",
      "taf": ""
    },
    {
      "icao": "EPSC",
      "alert": "OK",
      "vis_m": 6000,
      "fzfg": false,
      "metar_trigger": false,
      "taf_trigger": false,
      "metar": "METAR EPSC 271430Z 27007KT 6000 OVC001 03/03 Q1022",
      "taf": ""
    },
    {
      "icao": "EPSY",
      "alert": "OK",
      "vis_m": 8000,
      "fzfg": false,
      "metar_trigger": false,
      "taf_trigger": false,
      "metar": "METAR EPSY 271430Z 27012KT 220V310 8000 BKN003 OVC010 02/01 Q1011",
      "taf": "TAF EPSY 271430Z 2715/2724 31012KT 8000 BKN007"
    },
    {
      "icao": "EPWA",
      "alert": "OK",
      "vis_m": 1200,
      "fzfg": false,
      "metar_trigger": false,
      "taf_trigger": false,
      "metar": "METAR EPWA 271430Z 27020G31KT 1200 1100SE R33/1400D -FZDZ BR OVC001 M01/M01 Q1015 REFZDZ BECMG 2000 BR OVC002",
      "taf": "TAF EPWA 271430Z 2715/2815 26015KT 2000 BR OVC002"
    },
    {
      "icao": "EPWR",
      "alert": "OK",
      "vis_m": 9999,
      "fzfg": false,
      "metar_trigger": false,
      "taf_trigger": false,
      "metar": "METAR EPWR 271430Z 28017KT CAVOK 01/M03 Q1022",
      "taf": "TAF EPWR 271430Z 2715/2815 29015KT CAVOK"
    },
    {
      "icao": "ESGG",
      "alert": "OK",
      "vis_m": 9999,
      "fzfg": false,
      "metar_trigger": false,
      "taf_trigger": false,
      "metar": "METAR ESGG 271450Z 36010KT CAVOK 04/M05 Q1025",
      "taf": "TAF ESGG 271430Z 2715/2815 36012KT CAVOK"
    },
    {
      "icao": "ESKN",
      "alert": "OK",
      "vis_m": 9999,
      "fzfg": false,
      "metar_trigger": false,
      "taf_trigger": false,
      "metar": "METAR ESKN 271450Z 28017KT CAVOK 03/M05 Q1015",
      "taf": "TAF ESKN 271430Z 2715/2815 33018G32KT CAVOK"
    },
    {
      "icao": "ESMS",
      "alert": "OK",
      "vis_m": 9999,
      "fzfg": false,
      "metar_trigger": false,
      "taf_trigger": false,
      "metar": "METAR ESMS 271450Z 35010KT CAVOK 05/01 Q1023",
      "taf": "TAF ESMS 271427Z 2715/2815 33012KT CAVOK"
    },
    {
      "icao": "ESSA",
      "alert": "OK",
      "vis_m": 9999,
      "fzfg": false,
      "metar_trigger": false,
      "taf_trigger": false,
      "metar": "METAR ESSA 271450Z 31023G37KT CAVOK 04/M08 Q1011 NOSIG",
      "taf": "TAF ESSA 271430Z 2715/2815 33015G25KT CAVOK"
    },
    {
      "icao": "EYKA",
      "alert": "OK",
      "vis_m": 9999,
      "fzfg": false,
      "metar_trigger": false,
      "taf_trigger": false,
      "metar": "METAR EYKA 271450Z 30009KT 260V350 9999 FEW029 05/01 Q1003",
      "taf": "TAF EYKA 271114Z 2712/2812 30015KT 9000 BKN030"
    },
    {
      "icao": "EYPA",
      "alert": "OK",
      "vis_m": 9999,
      "fzfg": false,
      "metar_trigger": false,
      "taf_trigger": false,
      "metar": "METAR EYPA 271450Z 35011G27KT 300V070 9999 FEW045 06/M02 Q1009",
      "taf": "TAF EYPA 271106Z 2712/2812 33012G23KT 9000 SCT030"
    },
    {
      "icao": "EYVI",
      "alert": "OK",
      "vis_m": 9999,
      "fzfg": false,
      "metar_trigger": false,
      "taf_trigger": false,
      "metar": "METAR EYVI 271450Z 30011KT 270V340 9999 -RA OVC010 04/03 Q1001 BECMG BKN015",
      "taf": "TAF EYVI 271110Z 2712/2812 26016G26KT 9000 OVC002"
    },
    {
      "icao": "GCFV",
      "alert": "OK",
      "vis_m": 9999,
      "fzfg": false,
      "metar_trigger": false,
      "taf_trigger": false,
      "metar": "METAR GCFV 271430Z 27016KT 240V300 9999 FEW030 SCT040 22/11 Q1016",
      "taf": "TAF GCFV 271400Z 2715/2815 28015KT 9999 SCT040 TX22/2814Z TN13/2806Z"
    },
    {
      "icao": "GCLP",
      "alert": "OK",
      "vis_m": 9999,
      "fzfg": false,
      "metar_trigger": false,
      "taf_trigger": false,
      "metar": "METAR GCLP 271430Z 08009KT 9999 BKN045 21/12 Q1018 NOSIG",
      "taf": "TAF GCLP 271400Z 2715/2815 14007KT 9999 SCT040 TX22/2814Z TN14/2806Z"
    },
    {
      "icao": "GCTS",
      "alert": "OK",
      "vis_m": 9999,
      "fzfg": false,
      "metar_trigger": false,
      "taf_trigger": false,
      "metar": "METAR GCTS 271430Z 26014G25KT 190V300 9999 SCT040 22/11 Q1017 WS R07 NOSIG",
      "taf": "TAF GCTS 271400Z 2715/2815 VRB07KT 9999 FEW040 TX24/2814Z TN14/2806Z"
    },
    {
      "icao": "GMAD",
      "alert": "OK",
      "vis_m": 6000,
      "fzfg": false,
      "metar_trigger": false,
      "taf_trigger": false,
      "metar": "METAR GMAD 271430Z 27008KT 6000 BKN020TCU BKN080 15/15 Q1014 RE-SHRA NOSIG",
      "taf": "TAF GMAD 271100Z 2712/2818 05004KT 6000 BKN020TCU BKN080"
    },
    {
      "icao": "GMMN",
      "alert": "OK",
      "vis_m": 9999,
      "fzfg": false,
      "metar_trigger": false,
      "taf_trigger": false,
      "metar": "METAR GMMN 271430Z 26016KT 9999 SCT013TCU BKN020 16/12 Q1010 NOSIG",
      "taf": "TAF GMMN 271100Z 2712/2818 20018KT 9999 SCT008 SCT013TCU BKN020"
    },
    {
      "icao": "GMMX",
      "alert": "OK",
      "vis_m": 2500,
      "fzfg": false,
      "metar_trigger": false,
      "taf_trigger": false,
      "metar": "SPECI GMMX 271443Z 25012KT 220V280 2500 RA SCT010 BKN016 11/10 Q1013 TEMPO 1200 SHRA SCT006 BKN013 FEW018CB",
      "taf": ""
    },
    {
      "icao": "HEGN",
      "alert": "OK",
      "vis_m": 9999,
      "fzfg": false,
      "metar_trigger": false,
      "taf_trigger": false,
      "metar": "METAR HEGN 271400Z 35017KT CAVOK 23/07 Q1011 NOSIG",
      "taf": "TAF HEGN 271100Z 2712/2818 34016KT CAVOK"
    },
    {
      "icao": "HEMA",
      "alert": "OK",
      "vis_m": 9999,
      "fzfg": false,
      "metar_trigger": false,
      "taf_trigger": false,
      "metar": "METAR HEMA 271400Z 01009KT CAVOK 22/11 Q1011 NOSIG",
      "taf": "TAF HEMA 271100Z 2712/2818 35016KT CAVOK"
    },
    {
      "icao": "HESH",
      "alert": "OK",
      "vis_m": 9999,
      "fzfg": false,
      "metar_trigger": false,
      "taf_trigger": false,
      "metar": "METAR HESH 271400Z 03006KT CAVOK 23/09 Q1010 NOSIG",
      "taf": "TAF HESH 271100Z 2712/2818 36014KT CAVOK"
    },
    {
      "icao": "HESX",
      "alert": "OK",
      "vis_m": 9999,
      "fzfg": false,
      "metar_trigger": false,
      "taf_trigger": false,
      "metar": "METAR HESX 271400Z 28010KT 9999 SCT020 20/08 Q1012 NOSIG",
      "taf": "TAF HESX 271103Z 2712/2818 28012KT 9999 FEW025"
    },
    {
      "icao": "LATI",
      "alert": "OK",
      "vis_m": 9999,
      "fzfg": false,
      "metar_trigger": false,
      "taf_trigger": false,
      "metar": "METAR LATI 271450Z 29004KT 260V320 CAVOK 13/M03 Q1019 NOSIG",
      "taf": "TAF LATI 271100Z 2712/2812 VRB05KT CAVOK TX16/2712Z TNM01/2805Z"
    },
    {
      "icao": "LBPD",
      "alert": "OK",
      "vis_m": 9999,
      "fzfg": false,
      "metar_trigger": false,
      "taf_trigger": false,
      "metar": "METAR LBPD 271430Z AUTO 29016KT 9999 NCD 06/M01 Q1019 NOSIG",
      "taf": "TAF LBPD 271100Z 2712/2812 29018KT 9999 SCT020"
    },
    {
      "icao": "LBSF",
      "alert": "OK",
      "vis_m": 9999,
      "fzfg": false,
      "metar_trigger": false,
      "taf_trigger": false,
      "metar": "METAR LBSF 271430Z 29013KT 9999 BKN018 01/M03 Q1022 NOSIG",
      "taf": "TAF LBSF 271100Z 2712/2812 29018KT 9999 BKN015"
    },
    {
      "icao": "LBWN",
      "alert": "OK",
      "vis_m": 9999,
      "fzfg": false,
      "metar_trigger": false,
      "taf_trigger": false,
      "metar": "METAR LBWN 271430Z AUTO 27010KT 9999 NCD 02/M02 Q1019 NOSIG",
      "taf": "TAF LBWN 271100Z 2712/2812 32012KT 9999 SCT030"
    },
    {
      "icao": "LCLK",
      "alert": "OK",
      "vis_m": 9999,
      "fzfg": false,
      "metar_trigger": false,
      "taf_trigger": false,
      "metar": "METAR LCLK 271430Z 33012KT 9999 FEW020 FEW030TCU SCT050 17/08 Q1005 NOSIG",
      "taf": "TAF LCLK 271130Z 2712/2812 31009KT 9999 FEW025"
    },
    {
      "icao": "LCPH",
      "alert": "OK",
      "vis_m": 9999,
      "fzfg": false,
      "metar_trigger": false,
      "taf_trigger": false,
      "metar": "METAR LCPH 271430Z 34010KT 9999 FEW030 SCT050 16/06 Q1006 NOSIG",
      "taf": "TAF LCPH 271130Z 2712/2812 30014KT 9999 FEW020 SCT035"
    },
    {
      "icao": "LEAL",
      "alert": "OK",
      "vis_m": 9999,
      "fzfg": false,
      "metar_trigger": false,
      "taf_trigger": false,
      "metar": "METAR LEAL 271430Z 12003KT 080V160 9999 FEW019 16/09 Q1015 NOSIG",
      "taf": "TAF LEAL 271100Z 2712/2812 31005KT 9999 SCT030 TX15/2713Z TN11/2806Z"
    },
    {
      "icao": "LEBB",
      "alert": "OK",
      "vis_m": 9999,
      "fzfg": false,
      "metar_trigger": false,
      "taf_trigger": false,
      "metar": "METAR LEBB 271430Z VRB02KT CAVOK 14/10 Q1017 NOSIG",
      "taf": "TAF LEBB 271100Z 2712/2812 11005KT 9999 FEW040 TX14/2715Z TN04/2806Z"
    },
    {
      "icao": "LEBL",
      "alert": "OK",
      "vis_m": 5000,
      "fzfg": false,
      "metar_trigger": false,
      "taf_trigger": false,
      "metar": "METAR LEBL 271430Z 04015KT 5000 -RA SCT016 BKN025 OVC041 11/11 Q1017 BECMG NSW",
      "taf": "TAF LEBL 271100Z 2712/2812 07012KT 9999 SCT014 TX14/2712Z TN11/2807Z"
    },
    {
      "icao": "LECH",
      "alert": "OK",
      "vis_m": 9000,
      "fzfg": false,
      "metar_trigger": false,
      "taf_trigger": false,
      "metar": "METAR LECH 271430Z AUTO 02010KT 350V050 9000 -RA SCT024 BKN033 BKN043 09/09 Q1016",
      "taf": ""
    },
    {
      "icao": "LEMD",
      "alert": "OK",
      "vis_m": 9999,
      "fzfg": false,
      "metar_trigger": false,
      "taf_trigger": false,
      "metar": "METAR LEMD 271430Z 13003KT 080V160 9999 SCT039 BKN050 10/04 Q1014 NOSIG",
      "taf": "TAF LEMD 271100Z 2712/2818 VRB03KT CAVOK TX12/2715Z TN00/2806Z"
    },
    {
      "icao": "LEMG",
      "alert": "OK",
      "vis_m": 9000,
      "fzfg": false,
      "metar_trigger": false,
      "taf_trigger": false,
      "metar": "METAR LEMG 271430Z 10023KT 9000 -RA SCT018 BKN066 14/11 Q1010 NOSIG",
      "taf": "TAF LEMG 271100Z 2712/2812 11020KT 9999 FEW045 TX15/2714Z TN12/2806Z"
    },
    {
      "icao": "LEVC",
      "alert": "OK",
      "vis_m": 9999,
      "fzfg": false,
      "metar_trigger": false,
      "taf_trigger": false,
      "metar": "METAR LEVC 271430Z 02005KT 350V100 9999 FEW015 BKN020 14/10 Q1015 NOSIG",
      "taf": "TAF LEVC 271100Z 2712/2812 30005KT 9999 FEW015 BKN030 TX14/2713Z TN09/2806Z"
    },
    {
      "icao": "LEXJ",
      "alert": "OK",
      "vis_m": 9999,
      "fzfg": false,
      "metar_trigger": false,
      "taf_trigger": false,
      "metar": "METAR LEXJ 271430Z 08006KT 020V120 CAVOK 14/09 Q1016",
      "taf": "TAF LEXJ 271400Z 2715/2815 10009KT 9999 FEW060 TX15/2814Z TN07/2809Z"
    },
    {
      "icao": "LEZG",
      "alert": "OK",
      "vis_m": 9999,
      "fzfg": false,
      "metar_trigger": false,
      "taf_trigger": false,
      "metar": "METAR LEZG 271430Z 24003KT 210V280 9999 2000SW FEW007 SCT060 10/09 Q1018 NOSIG",
      "taf": "TAF LEZG 271100Z 2712/2812 VRB05KT 9999 FEW010 BKN015 TX11/2714Z TN05/2806Z"
    },
    {
      "icao": "LEZL",
      "alert": "OK",
      "vis_m": 9999,
      "fzfg": false,
      "metar_trigger": false,
      "taf_trigger": false,
      "metar": "METAR LEZL 271430Z 05005KT 9999 FEW036 11/09 Q1009 NOSIG",
      "taf": "TAF LEZL 271400Z 2715/2815 09008KT CAVOK TX16/2715Z TN08/2806Z"
    },
    {
      "icao": "LFBD",
      "alert": "OK",
      "vis_m": 9999,
      "fzfg": false,
      "metar_trigger": false,
      "taf_trigger": false,
      "metar": "METAR LFBD 271430Z AUTO 09009KT 9999 OVC030 12/04 Q1020 NOSIG",
      "taf": "TAF LFBD 271100Z 2712/2818 06010KT CAVOK TX13/2714Z TN03/2805Z"
    },
    {
      "icao": "LFLL",
      "alert": "OK",
      "vis_m": 6000,
      "fzfg": false,
      "metar_trigger": false,
      "taf_trigger": false,
      "metar": "METAR LFLL 271430Z 01005KT 330V050 6000 BKN006 02/01 Q1027 NOSIG",
      "taf": "TAF LFLL 271100Z 2712/2818 36004KT 7000 BKN007"
    },
    {
      "icao": "LFLS",
      "alert": "OK",
      "vis_m": 9999,
      "fzfg": false,
      "metar_trigger": false,
      "taf_trigger": false,
      "metar": "METAR LFLS 271430Z AUTO 09008KT CAVOK 06/01 Q1025 NOSIG",
      "taf": "TAF LFLS 271400Z 2715/2815 VRB02KT CAVOK"
    },
    {
      "icao": "LFMN",
      "alert": "OK",
      "vis_m": 9999,
      "fzfg": false,
      "metar_trigger": false,
      "taf_trigger": false,
      "metar": "METAR LFMN 271430Z 25005KT CAVOK 16/06 Q1023 NOSIG",
      "taf": "TAF LFMN 271400Z 2715/2821 25005KT CAVOK"
    },
    {
      "icao": "LFOB",
      "alert": "OK",
      "vis_m": 9999,
      "fzfg": false,
      "metar_trigger": false,
      "taf_trigger": false,
      "metar": "METAR LFOB 271430Z AUTO 05007KT 040V140 CAVOK 04/M01 Q1029 NOSIG",
      "taf": "TAF LFOB 271100Z 2712/2812 01006KT 8000 NSC"
    },
    {
      "icao": "LFPO",
      "alert": "OK",
      "vis_m": 9999,
      "fzfg": false,
      "metar_trigger": false,
      "taf_trigger": false,
      "metar": "METAR LFPO 271430Z AUTO 07006KT 050V110 9999 FEW012 01/M01 Q1029",
      "taf": "TAF LFPO 270500Z 2706/2812 03008KT CAVOK"
    },
    {
      "icao": "LFSB",
      "alert": "OK",
      "vis_m": 9999,
      "fzfg": false,
      "metar_trigger": false,
      "taf_trigger": false,
      "metar": "METAR LFSB 271430Z AUTO 08006KT CAVOK 03/M02 Q1029 NOSIG",
      "taf": "TAF LFSB 271100Z 2712/2812 11008KT 9999 FEW016"
    },
    {
      "icao": "LGAV",
      "alert": "OK",
      "vis_m": 9999,
      "fzfg": false,
      "metar_trigger": false,
      "taf_trigger": false,
      "metar": "METAR LGAV 271450Z 36006KT 9999 -RA FEW020 BKN035 09/08 Q1020 NOSIG",
      "taf": "TAF LGAV 271100Z 2712/2812 02013KT 9999 FEW020 BKN030"
    },
    {
      "icao": "LGTS",
      "alert": "OK",
      "vis_m": 9999,
      "fzfg": false,
      "metar_trigger": false,
      "taf_trigger": false,
      "metar": "METAR LGTS 271450Z 32012KT CAVOK 10/01 Q1021 NOSIG",
      "taf": "TAF LGTS 271100Z 2712/2812 33015KT 9999 FEW025"
    },
    {
      "icao": "LHBP",
      "alert": "OK",
      "vis_m": 9999,
      "fzfg": false,
      "metar_trigger": false,
      "taf_trigger": false,
      "metar": "METAR LHBP 271430Z 25007KT CAVOK 03/M03 Q1022 NOSIG",
      "taf": "TAF LHBP 271115Z 2712/2812 24007KT CAVOK"
    },
    {
      "icao": "LHDC",
      "alert": "OK",
      "vis_m": 9999,
      "fzfg": false,
      "metar_trigger": false,
      "taf_trigger": false,
      "metar": "METAR LHDC 271415Z AUTO 21010KT CAVOK 03/00 Q1023",
      "taf": "TAF LHDC 270815Z 2709/2718 22005KT CAVOK"
    },
    {
      "icao": "LIBD",
      "alert": "OK",
      "vis_m": 9999,
      "fzfg": false,
      "metar_trigger": false,
      "taf_trigger": false,
      "metar": "METAR LIBD 271450Z 33010KT 290V360 9999 SCT025 13/07 Q1022",
      "taf": "TAF LIBD 271100Z 2712/2812 32013KT 9999 SCT020"
    },
    {
      "icao": "LIBG",
      "alert": "OK",
      "vis_m": 9999,
      "fzfg": false,
      "metar_trigger": false,
      "taf_trigger": false,
      "metar": "METAR LIBG 271350Z 34011G21KT 300V360 CAVOK 14/08 Q1020",
      "taf": "TAF LIBG 271400Z 2715/2724 35016KT 9999 FEW025"
    },
    {
      "icao": "LIBP",
      "alert": "OK",
      "vis_m": 9999,
      "fzfg": false,
      "metar_trigger": false,
      "taf_trigger": false,
      "metar": "METAR LIBP 271450Z AUTO 29003KT 9999 BKN029/// 10/04 Q1025",
      "taf": "TAF LIBP 271100Z 2712/2812 VRB05KT 9999 BKN030"
    },
    {
      "icao": "LIBR",
      "alert": "OK",
      "vis_m": 9999,
      "fzfg": false,
      "metar_trigger": false,
      "taf_trigger": false,
      "metar": "METAR LIBR 271450Z 34015KT CAVOK 14/05 Q1020",
      "taf": "TAF LIBR 271100Z 2712/2812 35015KT 9999 SCT030"
    },
    {
      "icao": "LICA",
      "alert": "OK",
      "vis_m": 9999,
      "fzfg": false,
      "metar_trigger": false,
      "taf_trigger": false,
      "metar": "METAR LICA 271450Z AUTO 23003KT 9999 NCD 16/07 Q1019",
      "taf": "TAF LICA 271100Z 2712/2812 04010KT CAVOK"
    },
    {
      "icao": "LICC",
      "alert": "OK",
      "vis_m": 9999,
      "fzfg": false,
      "metar_trigger": false,
      "taf_trigger": false,
      "metar": "METAR LICC 271450Z 08012KT 9999 FEW025 BKN070 15/13 Q1020",
      "taf": "TAF LICC 271100Z 2712/2812 07016KT 9999 SCT040"
    },
    {
      "icao": "LICJ",
      "alert": "OK",
      "vis_m": 9999,
      "fzfg": false,
      "metar_trigger": false,
      "taf_trigger": false,
      "metar": "METAR LICJ 271450Z 06013KT CAVOK 16/11 Q1018",
      "taf": "TAF LICJ 271100Z 2712/2812 05012KT 9999 FEW040"
    },
    {
      "icao": "LIMC",
      "alert": "OK",
      "vis_m": 9999,
      "fzfg": false,
      "metar_trigger": false,
      "taf_trigger": false,
      "metar": "METAR LIMC 271450Z 22004KT 190V250 CAVOK 10/04 Q1026 NOSIG",
      "taf": "TAF LIMC 271100Z 2712/2818 VRB05KT CAVOK"
    },
    {
      "icao": "LIME",
      "alert": "OK",
      "vis_m": 9999,
      "fzfg": false,
      "metar_trigger": false,
      "taf_trigger": false,
      "metar": "METAR LIME 271450Z AUTO 26005KT 9999 NCD 10/03 Q1025",
      "taf": "TAF LIME 271100Z 2712/2812 VRB05KT CAVOK"
    },
    {
      "icao": "LIMF",
      "alert": "OK",
      "vis_m": 9999,
      "fzfg": false,
      "metar_trigger": false,
      "taf_trigger": false,
      "metar": "METAR LIMF 271450Z 10003KT CAVOK 11/03 Q1025",
      "taf": "TAF LIMF 271100Z 2712/2812 VRB06KT CAVOK"
    },
    {
      "icao": "LIMJ",
      "alert": "OK",
      "vis_m": 9999,
      "fzfg": false,
      "metar_trigger": false,
      "taf_trigger": false,
      "metar": "METAR LIMJ 271450Z 04016KT CAVOK 14/00 Q1023",
      "taf": "TAF LIMJ 271100Z 2712/2812 03015KT CAVOK"
    },
    {
      "icao": "LIPE",
      "alert": "OK",
      "vis_m": 9999,
      "fzfg": false,
      "metar_trigger": false,
      "taf_trigger": false,
      "metar": "METAR LIPE 271450Z 28009KT CAVOK 09/04 Q1025",
      "taf": "TAF LIPE 271100Z 2712/2812 27010KT CAVOK"
    },
    {
      "icao": "LIPH",
      "alert": "OK",
      "vis_m": 9999,
      "fzfg": false,
      "metar_trigger": false,
      "taf_trigger": false,
      "metar": "METAR LIPH 271450Z 23007KT CAVOK 10/03 Q1024",
      "taf": "TAF LIPH 271100Z 2712/2812 VRB03KT CAVOK"
    },
    {
      "icao": "LIPQ",
      "alert": "OK",
      "vis_m": 9999,
      "fzfg": false,
      "metar_trigger": false,
      "taf_trigger": false,
      "metar": "METAR LIPQ 271450Z AUTO 31004KT 9999 NCD 12/01 Q1024",
      "taf": "TAF LIPQ 271100Z 2712/2812 VRB04KT CAVOK"
    },
    {
      "icao": "LIPR",
      "alert": "OK",
      "vis_m": 9999,
      "fzfg": false,
      "metar_trigger": false,
      "taf_trigger": false,
      "metar": "METAR LIPR 271450Z 31012KT CAVOK 10/02 Q1025",
      "taf": "TAF LIPR 271100Z 2712/2812 31012KT CAVOK"
    },
    {
      "icao": "LIPX",
      "alert": "OK",
      "vis_m": 9999,
      "fzfg": false,
      "metar_trigger": false,
      "taf_trigger": false,
      "metar": "METAR LIPX 271450Z 27006KT 220V310 CAVOK 10/03 Q1025",
      "taf": "TAF LIPX 271100Z 2712/2812 VRB06KT CAVOK"
    },
    {
      "icao": "LIPY",
      "alert": "OK",
      "vis_m": 9999,
      "fzfg": false,
      "metar_trigger": false,
      "taf_trigger": false,
      "metar": "METAR LIPY 271450Z AUTO 31008KT 9999 NCD 09/04 Q1025",
      "taf": "TAF LIPY 271100Z 2712/2812 31010KT 9999 SCT030"
    },
    {
      "icao": "LIPZ",
      "alert": "OK",
      "vis_m": 9999,
      "fzfg": false,
      "metar_trigger": false,
      "taf_trigger": false,
      "metar": "METAR LIPZ 271450Z 23006KT CAVOK 10/04 Q1024 NOSIG",
      "taf": "TAF LIPZ 271100Z 2712/2818 VRB05KT CAVOK"
    },
    {
      "icao": "LIRF",
      "alert": "OK",
      "vis_m": 9999,
      "fzfg": false,
      "metar_trigger": false,
      "taf_trigger": false,
      "metar": "METAR LIRF 271450Z 31004KT CAVOK 14/06 Q1022 NOSIG",
      "taf": "TAF LIRF 271100Z 2712/2818 05010KT CAVOK"
    },
    {
      "icao": "LIRN",
      "alert": "OK",
      "vis_m": 9999,
      "fzfg": false,
      "metar_trigger": false,
      "taf_trigger": false,
      "metar": "METAR LIRN 271450Z 07006KT CAVOK 14/03 Q1021 NOSIG",
      "taf": "TAF LIRN 271100Z 2712/2812 03011KT CAVOK"
    },
    {
      "icao": "LIRP",
      "alert": "OK",
      "vis_m": 9999,
      "fzfg": false,
      "metar_trigger": false,
      "taf_trigger": false,
      "metar": "METAR LIRP 271445Z VRB02KT CAVOK 13/02 Q1023 NOSIG",
      "taf": "TAF LIRP 271100Z 2712/2812 09008KT CAVOK"
    },
    {
      "icao": "LIRZ",
      "alert": "OK",
      "vis_m": 9999,
      "fzfg": false,
      "metar_trigger": false,
      "taf_trigger": false,
      "metar": "METAR LIRZ 271450Z AUTO 02009KT 9999 NCD 11/03 Q1022",
      "taf": "TAF LIRZ 271100Z 2712/2812 01010KT 9999 FEW030"
    },
    {
      "icao": "LJLJ",
      "alert": "OK",
      "vis_m": 400,
      "fzfg": true,
      "metar_trigger": false,
      "taf_trigger": false,
      "metar": "METAR LJLJ 271430Z VRB02KT 0400 R30/0450N FZFG VV002 M01/M01 Q1025 NOSIG",
      "taf": "TAF LJLJ 271100Z 2712/2812 30002KT 0400 FZFG VV002"
    },
    {
      "icao": "LKMT",
      "alert": "OK",
      "vis_m": 9999,
      "fzfg": false,
      "metar_trigger": false,
      "taf_trigger": false,
      "metar": "METAR LKMT 271430Z 23007KT CAVOK M01/M03 Q1023 NOSIG",
      "taf": "TAF LKMT 271100Z 2712/2812 23008KT 6000 OVC007"
    },
    {
      "icao": "LKPR",
      "alert": "OK",
      "vis_m": 9999,
      "fzfg": false,
      "metar_trigger": false,
      "taf_trigger": false,
      "metar": "METAR LKPR 271430Z 22007KT CAVOK 03/M03 Q1025 NOSIG",
      "taf": "TAF LKPR 271400Z 2715/2821 23010KT CAVOK"
    },
    {
      "icao": "LLBG",
      "alert": "OK",
      "vis_m": 3000,
      "fzfg": false,
      "metar_trigger": false,
      "taf_trigger": false,
      "metar": "METAR LLBG 271450Z 20010KT 3000 +SHRA FEW025TCU BKN030 15/13 Q1009 TEMPO 5000 TSRA FEW025CB",
      "taf": "TAF LLBG 271111Z 2712/2812 22012KT 9999 SCT030 BKN040"
    },
    {
      "icao": "LMML",
      "alert": "OK",
      "vis_m": 9999,
      "fzfg": false,
      "metar_trigger": false,
      "taf_trigger": false,
      "metar": "METAR LMML 271445Z 07014KT 9999 VCSH SCT014TCU 16/13 Q1017 NOSIG",
      "taf": "TAF LMML 271100Z 2712/2812 07017KT 9999 SCT020"
    },
    {
      "icao": "LOWW",
      "alert": "OK",
      "vis_m": 9999,
      "fzfg": false,
      "metar_trigger": false,
      "taf_trigger": false,
      "metar": "METAR LOWW 271450Z 34004KT CAVOK 03/M03 Q1025 NOSIG",
      "taf": "TAF LOWW 271415Z 2715/2821 35007KT CAVOK TX04/2812Z TN00/2821Z"
    },
    {
      "icao": "LPFR",
      "alert": "OK",
      "vis_m": 6000,
      "fzfg": false,
      "metar_trigger": false,
      "taf_trigger": false,
      "metar": "METAR LPFR 271430Z 06016KT 6000 -RA FEW014 FEW018CB BKN020 12/10 Q1003",
      "taf": "TAF LPFR 271100Z 2712/2812 09017KT 9999 SCT015 BKN030"
    },
    {
      "icao": "LPMA",
      "alert": "OK",
      "vis_m": 9999,
      "fzfg": false,
      "metar_trigger": false,
      "taf_trigger": false,
      "metar": "METAR LPMA 271430Z 34011KT 280V030 9999 -SHRA SCT016 FEW018TCU 18/07 Q1015",
      "taf": "TAF LPMA 271100Z 2712/2812 32010KT 9999 SCT015"
    },
    {
      "icao": "LPPR",
      "alert": "OK",
      "vis_m": 9999,
      "fzfg": false,
      "metar_trigger": false,
      "taf_trigger": false,
      "metar": "METAR LPPR 271430Z 09009KT 050V130 CAVOK 13/01 Q1011",
      "taf": "TAF LPPR 271100Z 2712/2812 08010KT CAVOK"
    },
    {
      "icao": "LPPS",
      "alert": "OK",
      "vis_m": 9999,
      "fzfg": false,
      "metar_trigger": false,
      "taf_trigger": false,
      "metar": "METAR LPPS 271430Z 31018KT 9999 FEW015 FEW018TCU 17/09 Q1014",
      "taf": "TAF LPPS 271100Z 2712/2818 30017KT 9999 SCT015"
    },
    {
      "icao": "LPPT",
      "alert": "OK",
      "vis_m": 9999,
      "fzfg": false,
      "metar_trigger": false,
      "taf_trigger": false,
      "metar": "METAR LPPT 271430Z 05013KT 020V080 9999 BKN032 10/06 Q1007",
      "taf": "TAF LPPT 271100Z 2712/2818 05013KT 9999 FEW030"
    },
    {
      "icao": "LQBK",
      "alert": "OK",
      "vis_m": 9999,
      "fzfg": false,
      "metar_trigger": false,
      "taf_trigger": false,
      "metar": "METAR LQBK 271430Z VRB02KT CAVOK 07/01 Q1026 NOSIG",
      "taf": "TAF LQBK 271100Z 2712/2812 VRB03KT CAVOK TX08/2713Z TNM03/2805Z"
    },
    {
      "icao": "LQSA",
      "alert": "OK",
      "vis_m": 9999,
      "fzfg": false,
      "metar_trigger": false,
      "taf_trigger": false,
      "metar": "METAR LQSA 271430Z VRB02KT 9999 FEW022 BKN035 01/M01 Q1025 NOSIG",
      "taf": "TAF LQSA 271100Z 2712/2812 VRB02KT 9999 FEW025 BKN030 TX04/2713Z TNM04/2805Z"
    },
    {
      "icao": "LQTZ",
      "alert": "OK",
      "vis_m": 9999,
      "fzfg": false,
      "metar_trigger": false,
      "taf_trigger": false,
      "metar": "METAR LQTZ 271430Z 32004KT 280V360 CAVOK 06/M01 Q1025",
      "taf": "TAF LQTZ 271100Z 2712/2812 30005KT CAVOK TX06/2713Z TNM04/2805Z"
    },
    {
      "icao": "LRBC",
      "alert": "OK",
      "vis_m": 9999,
      "fzfg": false,
      "metar_trigger": false,
      "taf_trigger": false,
      "metar": "METAR LRBC 271430Z 10002KT CAVOK 02/M02 Q1016",
      "taf": "TAF LRBC 271400Z 2715/2724 VRB04KT 9999 SCT025"
    },
    {
      "icao": "LRBS",
      "alert": "OK",
      "vis_m": 600,
      "fzfg": true,
      "metar_trigger": false,
      "taf_trigger": false,
      "metar": "METAR LRBS 271430Z 25004KT 200V270 0600 R07/1400U FZFG OVC001 M01/M02 Q1020 NOSIG",
      "taf": "TAF LRBS 271100Z 2712/2812 25008KT 0800 FZFG OVC002"
    },
    {
      "icao": "LRBV",
      "alert": "OK",
      "vis_m": 9999,
      "fzfg": false,
      "metar_trigger": false,
      "taf_trigger": false,
      "metar": "METAR LRBV 271430Z 30006KT 250V330 9999 BKN026 00/M04 Q1020",
      "taf": "TAF LRBV 271400Z 2715/2724 28009KT 9999 BKN020"
    },
    {
      "icao": "LRCL",
      "alert": "OK",
      "vis_m": 9999,
      "fzfg": false,
      "metar_trigger": false,
      "taf_trigger": false,
      "metar": "METAR LRCL 271430Z 01004KT CAVOK 03/M03 Q1021",
      "taf": "TAF LRCL 271400Z 2715/2724 30008KT 9999 SCT030"
    },
    {
      "icao": "LRCV",
      "alert": "OK",
      "vis_m": 9999,
      "fzfg": false,
      "metar_trigger": false,
      "taf_trigger": false,
      "metar": "METAR LRCV 271430Z 27010KT CAVOK 02/M01 Q1019",
      "taf": "TAF LRCV 271400Z 2715/2724 26010KT CAVOK"
    },
    {
      "icao": "LRIA",
      "alert": "OK",
      "vis_m": 9999,
      "fzfg": false,
      "metar_trigger": false,
      "taf_trigger": false,
      "metar": "METAR LRIA 271430Z 30008KT 270V330 9999 OVC013 01/M01 Q1016",
      "taf": "TAF LRIA 271400Z 2715/2724 32012KT 9999 BKN015"
    },
    {
      "icao": "LROP",
      "alert": "OK",
      "vis_m": 500,
      "fzfg": true,
      "metar_trigger": false,
      "taf_trigger": false,
      "metar": "METAR LROP 271430Z 23005KT 200V270 0500 R08R/1300U R08L/0800N FZFG OVC001 M01/M01 Q1020 TEMPO 0800",
      "taf": "TAF LROP 271100Z 2712/2812 25008KT 0600 FZFG OVC002"
    },
    {
      "icao": "LRSB",
      "alert": "OK",
      "vis_m": 9999,
      "fzfg": false,
      "metar_trigger": false,
      "taf_trigger": false,
      "metar": "METAR LRSB 271430Z 31005KT CAVOK 00/M03 Q1021",
      "taf": "TAF LRSB 271100Z 2712/2812 VRB04KT 9999 SCT020"
    },
    {
      "icao": "LRSM",
      "alert": "OK",
      "vis_m": 9999,
      "fzfg": false,
      "metar_trigger": false,
      "taf_trigger": false,
      "metar": "METAR LRSM 271430Z AUTO 24007KT 9999 FEW220/// 02/M01 Q1022",
      "taf": ""
    },
    {
      "icao": "LRSV",
      "alert": "OK",
      "vis_m": 9999,
      "fzfg": false,
      "metar_trigger": false,
      "taf_trigger": false,
      "metar": "METAR LRSV 271430Z 32007KT CAVOK M00/M02 Q1014",
      "taf": "TAF LRSV 271400Z 2715/2724 VRB03KT CAVOK"
    },
    {
      "icao": "LRTM",
      "alert": "OK",
      "vis_m": 9999,
      "fzfg": false,
      "metar_trigger": false,
      "taf_trigger": false,
      "metar": "METAR LRTM 271430Z 05004KT 9999 SCT023 BKN036 00/M03 Q1022",
      "taf": "TAF LRTM 271400Z 2715/2724 31006KT 9999 SCT020 BKN035"
    },
    {
      "icao": "LRTR",
      "alert": "OK",
      "vis_m": 8000,
      "fzfg": false,
      "metar_trigger": false,
      "taf_trigger": false,
      "metar": "METAR LRTR 271430Z 23006KT 200V260 8000 SCT005 BKN010 01/00 Q1025",
      "taf": "TAF LRTR 271100Z 2712/2812 30006KT 9999 BKN010"
    },
    {
      "icao": "LTAC",
      "alert": "OK",
      "vis_m": 9999,
      "fzfg": false,
      "metar_trigger": false,
      "taf_trigger": false,
      "metar": "METAR LTAC 271450Z 35007KT 9999 SCT040 BKN100 00/M06 Q1010 NOSIG",
      "taf": "TAF LTAC 271040Z 2712/2812 32012KT 9999 SCT040 BKN100"
    },
    {
      "icao": "LTFM",
      "alert": "OK",
      "vis_m": 9999,
      "fzfg": false,
      "metar_trigger": false,
      "taf_trigger": false,
      "metar": "METAR LTFM 271450Z 34018KT 9999 BKN025 05/M02 Q1019 NOSIG",
      "taf": "TAF LTFM 271040Z 2712/2818 35020G30KT 9999 BKN025"
    },
    {
      "icao": "LUKK",
      "alert": "OK",
      "vis_m": 9999,
      "fzfg": false,
      "metar_trigger": false,
      "taf_trigger": false,
      "metar": "METAR LUKK 271430Z 31011KT 9999 FEW018 SCT024 OVC029 02/M01 Q1015 NOSIG",
      "taf": "TAF LUKK 271109Z 2712/2812 33014KT 9999 SCT015 OVC020"
    },
    {
      "icao": "LWOH",
      "alert": "OK",
      "vis_m": 9999,
      "fzfg": false,
      "metar_trigger": false,
      "taf_trigger": false,
      "metar": "METAR LWOH 271450Z 29005KT 250V350 CAVOK 09/M02 Q1020",
      "taf": "TAF LWOH 271438Z 2715/2815 32008KT CAVOK"
    },
    {
      "icao": "LWSK",
      "alert": "OK",
      "vis_m": 9999,
      "fzfg": false,
      "metar_trigger": false,
      "taf_trigger": false,
      "metar": "METAR LWSK 271450Z 02012KT CAVOK 05/M01 Q1023 NOSIG",
      "taf": "TAF LWSK 271438Z 2715/2815 02012KT CAVOK"
    },
    {
      "icao": "LYBE",
      "alert": "OK",
      "vis_m": 9999,
      "fzfg": false,
      "metar_trigger": false,
      "taf_trigger": false,
      "metar": "METAR LYBE 271430Z COR 27005KT CAVOK 03/M00 Q1026 NOSIG",
      "taf": "TAF LYBE 271100Z 2712/2812 30008KT 9999 BKN015 TX04/2812Z TNM01/2803Z"
    },
    {
      "icao": "LYNI",
      "alert": "OK",
      "vis_m": 9999,
      "fzfg": false,
      "metar_trigger": false,
      "taf_trigger": false,
      "metar": "METAR LYNI 271430Z 33009KT 310V010 9999 FEW013 BKN017 02/M01 Q1025 NOSIG",
      "taf": "TAF LYNI 271100Z 2712/2812 31008KT 9999 BKN012 TX02/2712Z TNM01/2802Z"
    },
    {
      "icao": "LYPG",
      "alert": "OK",
      "vis_m": 9999,
      "fzfg": false,
      "metar_trigger": false,
      "taf_trigger": false,
      "metar": "METAR LYPG 271430Z 12004KT CAVOK 11/00 Q1020 NOSIG",
      "taf": "TAF LYPG 271100Z 2712/2812 16007KT CAVOK TX15/2713Z TN02/2801Z"
    },
    {
      "icao": "LZIB",
      "alert": "OK",
      "vis_m": 9999,
      "fzfg": false,
      "metar_trigger": false,
      "taf_trigger": false,
      "metar": "METAR LZIB 271430Z 24007KT CAVOK 04/M03 Q1024 NOSIG",
      "taf": "TAF LZIB 271115Z 2712/2812 30011KT CAVOK"
    },
    {
      "icao": "LZKZ",
      "alert": "OK",
      "vis_m": 9999,
      "fzfg": false,
      "metar_trigger": false,
      "taf_trigger": false,
      "metar": "METAR LZKZ 271430Z 17003KT CAVOK 02/M02 Q1020 NOSIG",
      "taf": "TAF LZKZ 271115Z 2712/2812 VRB02KT CAVOK"
    },
    {
      "icao": "LZTT",
      "alert": "OK",
      "vis_m": 9999,
      "fzfg": false,
      "metar_trigger": false,
      "taf_trigger": false,
      "metar": "METAR LZTT 271430Z VRB02KT CAVOK 01/M03 Q1018 NOSIG",
      "taf": "TAF LZTT 271115Z 2712/2812 26010KT CAVOK"
    },
    {
      "icao": "OEJN",
      "alert": "OK",
      "vis_m": 9999,
      "fzfg": false,
      "metar_trigger": false,
      "taf_trigger": false,
      "metar": "METAR OEJN 271400Z 29007KT CAVOK 27/18 Q1010 NOSIG",
      "taf": "TAF OEJN 271100Z 2712/2818 30010KT 9999 SCT040"
    },
    {
      "icao": "OEMA",
      "alert": "OK",
      "vis_m": 9999,
      "fzfg": false,
      "metar_trigger": false,
      "taf_trigger": false,
      "metar": "METAR OEMA 271400Z 21015KT CAVOK 25/02 Q1011 NOSIG",
      "taf": "TAF OEMA 271100Z 2712/2818 27014KT 7000 SCT045"
    },
    {
      "icao": "OJAI",
      "alert": "OK",
      "vis_m": 4000,
      "fzfg": false,
      "metar_trigger": false,
      "taf_trigger": false,
      "metar": "METAR OJAI 271400Z 23016KT 4000 BLDU SCT025 FEW030 12/09 Q1010 NOSIG",
      "taf": "TAF OJAI 271100Z 2712/2818 25018KT 3000 RA BR SCT025TCU BKN030"
    },
    {
      "icao": "OMAA",
      "alert": "OK",
      "vis_m": 9999,
      "fzfg": false,
      "metar_trigger": false,
      "taf_trigger": false,
      "metar": "METAR OMAA 271400Z 33007KT CAVOK 23/15 Q1013 NOSIG",
      "taf": "TAF OMAA 271100Z 2712/2818 34008KT 8000 FEW040"
    },
    {
      "icao": "OMDB",
      "alert": "OK",
      "vis_m": 9000,
      "fzfg": false,
      "metar_trigger": false,
      "taf_trigger": false,
      "metar": "METAR OMDB 271430Z 34005KT 300V040 9000 NSC 24/16 Q1014 NOSIG",
      "taf": "TAF OMDB 271100Z 2712/2818 32010KT 8000 FEW040"
    },
    {
      "icao": "UAAA",
      "alert": "OK",
      "vis_m": 2700,
      "fzfg": false,
      "metar_trigger": false,
      "taf_trigger": false,
      "metar": "METAR UAAA 271430Z VRB01MPS 2700 BR BKN007 OVC100 M00/M02 Q1019 NOSIG",
      "taf": "TAF UAAA 271102Z 2712/2812 20003MPS 1500 BR FU BKN011 OVC030 TX00/2809Z TNM05/2801Z"
    },
    {
      "icao": "UBBB",
      "alert": "OK",
      "vis_m": 9999,
      "fzfg": false,
      "metar_trigger": false,
      "taf_trigger": false,
      "metar": "METAR UBBB 271430Z 19010KT 9999 SCT009 09/07 Q1002 NOSIG",
      "taf": "TAF UBBB 271036Z 2712/2812 20020G30KT 9999 SCT025 TX09/2711Z TN04/2802Z"
    },
    {
      "icao": "UDSG",
      "alert": "OK",
      "vis_m": 1500,
      "fzfg": false,
      "metar_trigger": false,
      "taf_trigger": false,
      "metar": "METAR UDSG 271430Z 34007KT 1500 R02/1500D SN BR OVC010 M03/M04 Q1002 NOSIG",
      "taf": "TAF UDSG 271100Z 2712/2812 VRB06KT 3000 BR BKN020"
    },
    {
      "icao": "UDYZ",
      "alert": "OK",
      "vis_m": 8000,
      "fzfg": false,
      "metar_trigger": false,
      "taf_trigger": false,
      "metar": "METAR UDYZ 271430Z 29002KT 8000 BKN046 05/00 Q1000 NOSIG",
      "taf": "TAF UDYZ 271100Z 2712/2812 VRB06KT 3500 BR SCT040"
    },
    {
      "icao": "UGKO",
      "alert": "OK",
      "vis_m": 7000,
      "fzfg": false,
      "metar_trigger": false,
      "taf_trigger": false,
      "metar": "METAR UGKO 271430Z 25003KT 210V290 7000 RA SCT030 OVC056 03/02 Q1009 NOSIG",
      "taf": "TAF UGKO 271100Z 2712/2812 24007KT 9999 SCT015 OVC050 TX04/2811Z TNM01/2804Z"
    }
  ]
}