{
  "ts_utc": "2026-04-26T23:56:22Z",
  "threshold_m": 150,
  "source": "stations_override.txt (ICAO list) + aviationweather.gov (METAR/TAF raw)",
  "station_count": 159,
  "stations": [
    {
      "icao": "BIKF",
      "alert": "OK",
      "vis_m": 9999,
      "fzfg": false,
      "metar_trigger": false,
      "taf_trigger": false,
      "metar": "METAR BIKF 262330Z 16016KT 9999 -DZ BKN003 OVC008 08/08 Q1009",
      "taf": "TAF BIKF 262226Z 2700/2800 14022KT 9999 BKN020 TX08/2706Z TN07/2700Z"
    },
    {
      "icao": "BKPR",
      "alert": "OK",
      "vis_m": null,
      "fzfg": false,
      "metar_trigger": false,
      "taf_trigger": false,
      "metar": "",
      "taf": "TAF BKPR 262330Z 2700/2724 36007KT CAVOK"
    },
    {
      "icao": "EBCI",
      "alert": "OK",
      "vis_m": 9999,
      "fzfg": false,
      "metar_trigger": false,
      "taf_trigger": false,
      "metar": "METAR EBCI 262350Z 05005KT CAVOK 08/01 Q1024 NOSIG",
      "taf": "TAF EBCI 262310Z 2700/2806 05004KT CAVOK"
    },
    {
      "icao": "EDDB",
      "alert": "OK",
      "vis_m": 9999,
      "fzfg": false,
      "metar_trigger": false,
      "taf_trigger": false,
      "metar": "METAR EDDB 262350Z AUTO VRB01KT CAVOK 04/M02 Q1024 NOSIG",
      "taf": "TAF EDDB 262300Z 2700/2724 VRB02KT CAVOK"
    },
    {
      "icao": "EDDH",
      "alert": "OK",
      "vis_m": 9999,
      "fzfg": false,
      "metar_trigger": false,
      "taf_trigger": false,
      "metar": "METAR EDDH 262350Z AUTO 32003KT CAVOK 02/01 Q1025 NOSIG",
      "taf": "TAF EDDH 262300Z 2700/2806 VRB03KT CAVOK"
    },
    {
      "icao": "EDDK",
      "alert": "OK",
      "vis_m": 9999,
      "fzfg": false,
      "metar_trigger": false,
      "taf_trigger": false,
      "metar": "METAR EDDK 262350Z AUTO 00000KT CAVOK 05/00 Q1024 NOSIG",
      "taf": "TAF EDDK 262300Z 2700/2806 VRB02KT CAVOK"
    },
    {
      "icao": "EDDN",
      "alert": "OK",
      "vis_m": 9999,
      "fzfg": false,
      "metar_trigger": false,
      "taf_trigger": false,
      "metar": "METAR EDDN 262350Z AUTO VRB01KT CAVOK 03/M01 Q1023",
      "taf": "TAF EDDN 262300Z 2700/2724 VRB03KT CAVOK"
    },
    {
      "icao": "EDDS",
      "alert": "OK",
      "vis_m": 9999,
      "fzfg": false,
      "metar_trigger": false,
      "taf_trigger": false,
      "metar": "METAR EDDS 262350Z AUTO 31003KT CAVOK 07/01 Q1022",
      "taf": "TAF EDDS 262300Z 2700/2724 VRB02KT CAVOK"
    },
    {
      "icao": "EDFH",
      "alert": "OK",
      "vis_m": 9999,
      "fzfg": false,
      "metar_trigger": false,
      "taf_trigger": false,
      "metar": "METAR EDFH 262350Z 10003KT CAVOK 07/M01 Q1023",
      "taf": "TAF EDFH 262300Z 2700/2724 08005KT CAVOK"
    },
    {
      "icao": "EDJA",
      "alert": "OK",
      "vis_m": 9999,
      "fzfg": false,
      "metar_trigger": false,
      "taf_trigger": false,
      "metar": "METAR EDJA 262350Z AUTO VRB02KT 9999 // NCD 04/01 Q1022",
      "taf": "TAF EDJA 261700Z 2618/2703 03007KT CAVOK"
    },
    {
      "icao": "EDLW",
      "alert": "OK",
      "vis_m": 9999,
      "fzfg": false,
      "metar_trigger": false,
      "taf_trigger": false,
      "metar": "METAR EDLW 262350Z AUTO 14005KT 9999 // NCD 06/01 Q1024",
      "taf": "TAF EDLW 261700Z 2618/2718 06004KT CAVOK"
    },
    {
      "icao": "EDNY",
      "alert": "OK",
      "vis_m": 9999,
      "fzfg": false,
      "metar_trigger": false,
      "taf_trigger": false,
      "metar": "METAR EDNY 262350Z AUTO 06004KT 9999 // NCD 07/02 Q1021",
      "taf": "TAF EDNY 261700Z 2618/2703 03006KT CAVOK"
    },
    {
      "icao": "EDSB",
      "alert": "OK",
      "vis_m": 9999,
      "fzfg": false,
      "metar_trigger": false,
      "taf_trigger": false,
      "metar": "METAR EDSB 262350Z AUTO 01008KT 9999 // NCD 10/01 Q1021",
      "taf": "TAF EDSB 262300Z 2700/2724 02004KT CAVOK"
    },
    {
      "icao": "EETN",
      "alert": "OK",
      "vis_m": 9999,
      "fzfg": false,
      "metar_trigger": false,
      "taf_trigger": false,
      "metar": "METAR EETN 262350Z 33012KT CAVOK 03/M02 Q1010",
      "taf": "TAF EETN 262330Z 2700/2724 33012KT 9999 FEW040"
    },
    {
      "icao": "EFTU",
      "alert": "OK",
      "vis_m": 9999,
      "fzfg": false,
      "metar_trigger": false,
      "taf_trigger": false,
      "metar": "METAR EFTU 262350Z AUTO 34006KT 300V010 CAVOK M00/M02 Q1014",
      "taf": "TAF EFTU 262325Z 2700/2724 34005KT CAVOK"
    },
    {
      "icao": "EGBB",
      "alert": "OK",
      "vis_m": 9999,
      "fzfg": false,
      "metar_trigger": false,
      "taf_trigger": false,
      "metar": "METAR EGBB 262350Z 17003KT CAVOK 13/06 Q1025",
      "taf": "TAF EGBB 262257Z 2700/2724 14006KT 9999 FEW045"
    },
    {
      "icao": "EGGP",
      "alert": "OK",
      "vis_m": 9000,
      "fzfg": false,
      "metar_trigger": false,
      "taf_trigger": false,
      "metar": "METAR EGGP 262350Z 29004KT 9000 NSC 10/08 Q1025",
      "taf": "TAF EGGP 262257Z 2700/2724 33005KT CAVOK"
    },
    {
      "icao": "EGGW",
      "alert": "OK",
      "vis_m": 9999,
      "fzfg": false,
      "metar_trigger": false,
      "taf_trigger": false,
      "metar": "METAR EGGW 262350Z AUTO 15003KT 120V190 9999 NCD 08/06 Q1025",
      "taf": "TAF EGGW 262257Z 2700/2724 15005KT CAVOK"
    },
    {
      "icao": "EGKK",
      "alert": "OK",
      "vis_m": 9999,
      "fzfg": false,
      "metar_trigger": false,
      "taf_trigger": false,
      "metar": "METAR EGKK 262350Z 07005KT CAVOK 08/06 Q1025",
      "taf": "TAF EGKK 262255Z 2700/2806 05007KT 9999 FEW045"
    },
    {
      "icao": "EGNM",
      "alert": "OK",
      "vis_m": 9999,
      "fzfg": false,
      "metar_trigger": false,
      "taf_trigger": false,
      "metar": "METAR EGNM 262350Z 28004KT CAVOK 12/07 Q1024",
      "taf": "TAF EGNM 262307Z 2700/2724 VRB04KT CAVOK"
    },
    {
      "icao": "EGPD",
      "alert": "OK",
      "vis_m": 9999,
      "fzfg": false,
      "metar_trigger": false,
      "taf_trigger": false,
      "metar": "METAR EGPD 262350Z COR AUTO 31004KT 9999 OVC043 11/07 Q1023 NOSIG",
      "taf": "TAF EGPD 262257Z 2700/2724 VRB03KT 9999 FEW045"
    },
    {
      "icao": "EGPF",
      "alert": "OK",
      "vis_m": 9999,
      "fzfg": false,
      "metar_trigger": false,
      "taf_trigger": false,
      "metar": "METAR EGPF 262350Z AUTO 26005KT 9999 NCD 07/06 Q1025",
      "taf": "TAF EGPF 262302Z 2700/2724 24004KT 9999 FEW030"
    },
    {
      "icao": "EHBK",
      "alert": "OK",
      "vis_m": 9999,
      "fzfg": false,
      "metar_trigger": false,
      "taf_trigger": false,
      "metar": "METAR EHBK 262325Z AUTO 07005KT 9999 NSC 08/01 Q1023",
      "taf": "TAF EHBK 262305Z 2700/2806 05006KT CAVOK"
    },
    {
      "icao": "EHEH",
      "alert": "OK",
      "vis_m": 9999,
      "fzfg": false,
      "metar_trigger": false,
      "taf_trigger": false,
      "metar": "METAR EHEH 262325Z AUTO 02004KT 9999 BKN200 05/02 Q1024 BLU",
      "taf": "TAF EHEH 261710Z 2618/2724 04006KT CAVOK"
    },
    {
      "icao": "EKBI",
      "alert": "OK",
      "vis_m": 9999,
      "fzfg": false,
      "metar_trigger": false,
      "taf_trigger": false,
      "metar": "METAR EKBI 262350Z AUTO 29004KT 9999 FEW023/// 00/M01 Q1025",
      "taf": "TAF EKBI 262327Z 2700/2724 29010KT 9999 FEW045"
    },
    {
      "icao": "EKCH",
      "alert": "OK",
      "vis_m": 9999,
      "fzfg": false,
      "metar_trigger": false,
      "taf_trigger": false,
      "metar": "METAR EKCH 262350Z AUTO 06005KT 9999 NCD 05/00 Q1024 NOSIG",
      "taf": "TAF EKCH 262327Z 2700/2724 05006KT CAVOK"
    },
    {
      "icao": "ENAL",
      "alert": "OK",
      "vis_m": 9999,
      "fzfg": false,
      "metar_trigger": false,
      "taf_trigger": false,
      "metar": "METAR ENAL 262350Z AUTO 10007KT 070V140 9999 NCD 01/M01 Q1027",
      "taf": "TAF ENAL 262300Z 2700/2709 08007KT 9999 SCT050"
    },
    {
      "icao": "ENBR",
      "alert": "OK",
      "vis_m": 9999,
      "fzfg": false,
      "metar_trigger": false,
      "taf_trigger": false,
      "metar": "METAR ENBR 262320Z AUTO 36005KT 9999 NCD 02/M02 Q1025 RMK WIND 1200FT 01006KT",
      "taf": "TAF ENBR 262300Z 2700/2724 VRB03KT CAVOK"
    },
    {
      "icao": "ENGM",
      "alert": "OK",
      "vis_m": 9999,
      "fzfg": false,
      "metar_trigger": false,
      "taf_trigger": false,
      "metar": "METAR ENGM 262350Z 01006KT 330V030 CAVOK 02/M07 Q1025",
      "taf": "TAF ENGM 262300Z 2700/2724 01006KT CAVOK"
    },
    {
      "icao": "ENHD",
      "alert": "OK",
      "vis_m": 9999,
      "fzfg": false,
      "metar_trigger": false,
      "taf_trigger": false,
      "metar": "METAR ENHD 262350Z AUTO 36006KT 9999 NCD 04/00 Q1025",
      "taf": "TAF ENHD 261400Z 2615/2622 33015KT CAVOK"
    },
    {
      "icao": "ENTC",
      "alert": "OK",
      "vis_m": 9999,
      "fzfg": false,
      "metar_trigger": false,
      "taf_trigger": false,
      "metar": "METAR ENTC 262350Z AUTO 16005KT 130V190 9999 -SN OVC034/// 00/M03 Q1017 RMK WIND 2600FT 31016KT",
      "taf": "TAF ENTC 262300Z 2700/2724 16006KT 9999 FEW015 BKN035"
    },
    {
      "icao": "ENTO",
      "alert": "OK",
      "vis_m": 9999,
      "fzfg": false,
      "metar_trigger": false,
      "taf_trigger": false,
      "metar": "METAR ENTO 262350Z AUTO 01004KT 9999 NCD 02/M01 Q1024",
      "taf": "TAF ENTO 262300Z 2700/2724 01005KT CAVOK"
    },
    {
      "icao": "ENVA",
      "alert": "OK",
      "vis_m": 9999,
      "fzfg": false,
      "metar_trigger": false,
      "taf_trigger": false,
      "metar": "METAR ENVA 262320Z AUTO 25013KT 9999 FEW011/// SCT015/// BKN019/// 02/01 Q1026 RMK WIND 670FT 26014KT",
      "taf": "TAF ENVA 262300Z 2700/2724 28012KT 9999 FEW025TCU BKN040"
    },
    {
      "icao": "ENZV",
      "alert": "OK",
      "vis_m": 9999,
      "fzfg": false,
      "metar_trigger": false,
      "taf_trigger": false,
      "metar": "METAR ENZV 262320Z AUTO 34004KT 9999 NCD 05/00 Q1025",
      "taf": "TAF ENZV 262300Z 2700/2724 36005KT CAVOK"
    },
    {
      "icao": "EPGD",
      "alert": "OK",
      "vis_m": 9999,
      "fzfg": false,
      "metar_trigger": false,
      "taf_trigger": false,
      "metar": "METAR EPGD 262330Z 27011KT CAVOK 04/M03 Q1021",
      "taf": "TAF EPGD 262330Z 2700/2724 27008KT CAVOK"
    },
    {
      "icao": "EPKK",
      "alert": "OK",
      "vis_m": 9999,
      "fzfg": false,
      "metar_trigger": false,
      "taf_trigger": false,
      "metar": "METAR EPKK 262330Z 21002KT CAVOK 01/M04 Q1024",
      "taf": "TAF EPKK 262330Z 2700/2724 VRB02KT CAVOK"
    },
    {
      "icao": "EPKT",
      "alert": "OK",
      "vis_m": 9999,
      "fzfg": false,
      "metar_trigger": false,
      "taf_trigger": false,
      "metar": "METAR EPKT 262330Z 00000KT CAVOK M03/M07 Q1024",
      "taf": "TAF EPKT 262330Z 2700/2724 VRB02KT CAVOK"
    },
    {
      "icao": "EPLB",
      "alert": "OK",
      "vis_m": 9999,
      "fzfg": false,
      "metar_trigger": false,
      "taf_trigger": false,
      "metar": "METAR EPLB 262330Z 30004KT CAVOK M01/M09 Q1023",
      "taf": "TAF EPLB 262330Z 2700/2724 24005KT CAVOK"
    },
    {
      "icao": "EPMO",
      "alert": "OK",
      "vis_m": 9999,
      "fzfg": false,
      "metar_trigger": false,
      "taf_trigger": false,
      "metar": "METAR EPMO 262330Z 23003KT CAVOK M00/M07 Q1023",
      "taf": "TAF EPMO 262330Z 2700/2724 24005KT CAVOK"
    },
    {
      "icao": "EPPO",
      "alert": "OK",
      "vis_m": 9999,
      "fzfg": false,
      "metar_trigger": false,
      "taf_trigger": false,
      "metar": "METAR EPPO 262330Z 23002KT CAVOK 03/M04 Q1024",
      "taf": "TAF EPPO 262330Z 2700/2724 26002KT CAVOK"
    },
    {
      "icao": "EPRA",
      "alert": "OK",
      "vis_m": 9999,
      "fzfg": false,
      "metar_trigger": false,
      "taf_trigger": false,
      "metar": "METAR EPRA 262330Z 27004KT CAVOK 01/M08 Q1023",
      "taf": "TAF EPRA 262330Z 2700/2709 24005KT CAVOK"
    },
    {
      "icao": "EPRZ",
      "alert": "OK",
      "vis_m": 9999,
      "fzfg": false,
      "metar_trigger": false,
      "taf_trigger": false,
      "metar": "METAR EPRZ 262330Z 24005KT CAVOK M00/M05 Q1023",
      "taf": "TAF EPRZ 262330Z 2700/2724 VRB02KT CAVOK"
    },
    {
      "icao": "EPSC",
      "alert": "OK",
      "vis_m": 9999,
      "fzfg": false,
      "metar_trigger": false,
      "taf_trigger": false,
      "metar": "METAR EPSC 262330Z 12003KT CAVOK M01/M06 Q1024",
      "taf": "TAF EPSC 262330Z 2700/2724 VRB03KT CAVOK"
    },
    {
      "icao": "EPSY",
      "alert": "OK",
      "vis_m": 9999,
      "fzfg": false,
      "metar_trigger": false,
      "taf_trigger": false,
      "metar": "METAR EPSY 262330Z 25005KT CAVOK M02/M07 Q1021",
      "taf": "TAF EPSY 262330Z 2700/2709 27006KT CAVOK"
    },
    {
      "icao": "EPWA",
      "alert": "OK",
      "vis_m": 9999,
      "fzfg": false,
      "metar_trigger": false,
      "taf_trigger": false,
      "metar": "METAR EPWA 262330Z VRB02KT CAVOK M00/M07 Q1023 NOSIG",
      "taf": "TAF EPWA 262330Z 2700/2724 23005KT CAVOK"
    },
    {
      "icao": "EPWR",
      "alert": "OK",
      "vis_m": 9999,
      "fzfg": false,
      "metar_trigger": false,
      "taf_trigger": false,
      "metar": "METAR EPWR 262330Z VRB02KT CAVOK 01/M02 Q1024",
      "taf": "TAF EPWR 262330Z 2700/2724 VRB02KT CAVOK"
    },
    {
      "icao": "ESGG",
      "alert": "OK",
      "vis_m": 9999,
      "fzfg": false,
      "metar_trigger": false,
      "taf_trigger": false,
      "metar": "METAR ESGG 262350Z 32003KT CAVOK 03/M04 Q1023",
      "taf": "TAF ESGG 262330Z 2700/2724 VRB02KT CAVOK"
    },
    {
      "icao": "ESKN",
      "alert": "OK",
      "vis_m": 9999,
      "fzfg": false,
      "metar_trigger": false,
      "taf_trigger": false,
      "metar": "METAR ESKN 262350Z 33007KT CAVOK 04/M07 Q1020",
      "taf": "TAF ESKN 262330Z 2700/2724 33008KT CAVOK"
    },
    {
      "icao": "ESMS",
      "alert": "OK",
      "vis_m": 9999,
      "fzfg": false,
      "metar_trigger": false,
      "taf_trigger": false,
      "metar": "METAR ESMS 262350Z 08002KT CAVOK 01/M02 Q1023",
      "taf": "TAF ESMS 262327Z 2700/2724 32012KT CAVOK"
    },
    {
      "icao": "ESSA",
      "alert": "OK",
      "vis_m": 9999,
      "fzfg": false,
      "metar_trigger": false,
      "taf_trigger": false,
      "metar": "METAR ESSA 262350Z 32008KT CAVOK 02/M08 Q1019 NOSIG",
      "taf": "TAF ESSA 262330Z 2700/2724 32008KT CAVOK"
    },
    {
      "icao": "EYKA",
      "alert": "OK",
      "vis_m": 9999,
      "fzfg": false,
      "metar_trigger": false,
      "taf_trigger": false,
      "metar": "METAR EYKA 262350Z AUTO 30009KT 270V330 9999 BKN070/// 02/M03 Q1016",
      "taf": "TAF EYKA 262300Z 2700/2724 29010KT 9000 NSC"
    },
    {
      "icao": "EYPA",
      "alert": "OK",
      "vis_m": 9999,
      "fzfg": false,
      "metar_trigger": false,
      "taf_trigger": false,
      "metar": "METAR EYPA 262350Z 31004KT 230V040 CAVOK 05/01 Q1017",
      "taf": "TAF EYPA 262300Z 2700/2724 VRB03KT 9000 NSC"
    },
    {
      "icao": "EYVI",
      "alert": "OK",
      "vis_m": 9999,
      "fzfg": false,
      "metar_trigger": false,
      "taf_trigger": false,
      "metar": "METAR EYVI 262350Z 30010KT 260V330 CAVOK 01/M04 Q1014 NOSIG",
      "taf": "TAF EYVI 262300Z 2700/2724 30012KT 9000 NSC"
    },
    {
      "icao": "GCFV",
      "alert": "OK",
      "vis_m": 9999,
      "fzfg": false,
      "metar_trigger": false,
      "taf_trigger": false,
      "metar": "METAR GCFV 262330Z AUTO 34010KT 320V020 9999 FEW023 BKN033 19/14 Q1015",
      "taf": "TAF GCFV 262000Z 2621/2721 35009KT 9999 FEW025 BKN035 TX23/2714Z TN18/2706Z"
    },
    {
      "icao": "GCLP",
      "alert": "OK",
      "vis_m": 9999,
      "fzfg": false,
      "metar_trigger": false,
      "taf_trigger": false,
      "metar": "METAR GCLP 262330Z 35009KT 320V030 9999 SCT020 19/14 Q1016 NOSIG",
      "taf": "TAF GCLP 262000Z 2621/2721 36015KT 9999 FEW027 TX24/2714Z TN17/2706Z"
    },
    {
      "icao": "GCTS",
      "alert": "OK",
      "vis_m": 9999,
      "fzfg": false,
      "metar_trigger": false,
      "taf_trigger": false,
      "metar": "METAR GCTS 262330Z 01005KT 9999 FEW035 17/13 Q1017 NOSIG",
      "taf": "TAF GCTS 262000Z 2621/2721 04010KT 9999 FEW035 BKN040 TX23/2714Z TN16/2706Z"
    },
    {
      "icao": "GMAD",
      "alert": "OK",
      "vis_m": 6000,
      "fzfg": false,
      "metar_trigger": false,
      "taf_trigger": false,
      "metar": "METAR GMAD 262330Z 20004KT 160V220 6000 SCT010 BKN016 18/15 Q1010 NOSIG",
      "taf": ""
    },
    {
      "icao": "GMMN",
      "alert": "OK",
      "vis_m": 9999,
      "fzfg": false,
      "metar_trigger": false,
      "taf_trigger": false,
      "metar": "METAR GMMN 262330Z 36007KT CAVOK 17/13 Q1011 NOSIG",
      "taf": "TAF GMMN 262300Z 2700/2806 01003KT CAVOK"
    },
    {
      "icao": "GMMX",
      "alert": "OK",
      "vis_m": 8000,
      "fzfg": false,
      "metar_trigger": false,
      "taf_trigger": false,
      "metar": "METAR GMMX 262330Z VRB01KT 8000 SCT026 22/14 Q1010 NOSIG",
      "taf": "TAF GMMX 262300Z 2700/2806 06006KT 8000 SCT026"
    },
    {
      "icao": "HEGN",
      "alert": "OK",
      "vis_m": 9999,
      "fzfg": false,
      "metar_trigger": false,
      "taf_trigger": false,
      "metar": "METAR HEGN 262300Z 32018KT CAVOK 25/02 Q1011 NOSIG",
      "taf": "TAF HEGN 262300Z 2700/2806 34015G25KT CAVOK"
    },
    {
      "icao": "HEMA",
      "alert": "OK",
      "vis_m": 9999,
      "fzfg": false,
      "metar_trigger": false,
      "taf_trigger": false,
      "metar": "METAR HEMA 262300Z 32014KT CAVOK 24/15 Q1010 NOSIG",
      "taf": "TAF HEMA 262300Z 2700/2806 30015G25KT CAVOK"
    },
    {
      "icao": "HESH",
      "alert": "OK",
      "vis_m": 9999,
      "fzfg": false,
      "metar_trigger": false,
      "taf_trigger": false,
      "metar": "METAR HESH 262300Z 30004KT CAVOK 28/04 Q1010 NOSIG",
      "taf": "TAF HESH 262300Z 2700/2806 29012KT CAVOK"
    },
    {
      "icao": "HESX",
      "alert": "OK",
      "vis_m": 9999,
      "fzfg": false,
      "metar_trigger": false,
      "taf_trigger": false,
      "metar": "METAR HESX 262300Z 27003KT CAVOK 17/10 Q1013 NOSIG",
      "taf": "TAF HESX 262300Z 2700/2806 30006KT CAVOK"
    },
    {
      "icao": "LATI",
      "alert": "OK",
      "vis_m": 9999,
      "fzfg": false,
      "metar_trigger": false,
      "taf_trigger": false,
      "metar": "METAR LATI 262350Z 14002KT CAVOK 11/08 Q1018 NOSIG",
      "taf": "TAF LATI 262300Z 2700/2724 VRB05KT CAVOK TX29/2712Z TN09/2704Z"
    },
    {
      "icao": "LBPD",
      "alert": "OK",
      "vis_m": 9999,
      "fzfg": false,
      "metar_trigger": false,
      "taf_trigger": false,
      "metar": "METAR LBPD 262330Z AUTO 29010KT 9999 NCD 16/M01 Q1018",
      "taf": "TAF LBPD 262300Z 2700/2724 29010KT CAVOK"
    },
    {
      "icao": "LBSF",
      "alert": "OK",
      "vis_m": 9999,
      "fzfg": false,
      "metar_trigger": false,
      "taf_trigger": false,
      "metar": "METAR LBSF 262330Z AUTO 33004KT 300V360 9999 NCD 10/M06 Q1021 NOSIG",
      "taf": "TAF LBSF 262300Z 2700/2724 VRB04KT CAVOK"
    },
    {
      "icao": "LBWN",
      "alert": "OK",
      "vis_m": 9999,
      "fzfg": false,
      "metar_trigger": false,
      "taf_trigger": false,
      "metar": "METAR LBWN 262330Z AUTO 07004KT 010V180 9999 NCD 10/00 Q1021 NOSIG",
      "taf": "TAF LBWN 262300Z 2700/2724 05010KT 9999 SCT045"
    },
    {
      "icao": "LCLK",
      "alert": "OK",
      "vis_m": 9999,
      "fzfg": false,
      "metar_trigger": false,
      "taf_trigger": false,
      "metar": "METAR LCLK 262330Z VRB03KT 9999 FEW008 16/15 Q1011 NOSIG",
      "taf": "TAF LCLK 262330Z 2700/2800 25007KT 9999 FEW009"
    },
    {
      "icao": "LCPH",
      "alert": "OK",
      "vis_m": 9999,
      "fzfg": false,
      "metar_trigger": false,
      "taf_trigger": false,
      "metar": "METAR LCPH 262330Z AUTO 31007KT 9999 SCT016 BKN022 18/15 Q1011 NOSIG",
      "taf": "TAF LCPH 262330Z 2700/2800 32008KT 9999 FEW010 SCT015"
    },
    {
      "icao": "LEAL",
      "alert": "OK",
      "vis_m": 9999,
      "fzfg": false,
      "metar_trigger": false,
      "taf_trigger": false,
      "metar": "METAR LEAL 262330Z 34004KT CAVOK 15/12 Q1019 NOSIG",
      "taf": "TAF LEAL 262300Z 2700/2724 VRB04KT CAVOK TX22/2712Z TN10/2706Z"
    },
    {
      "icao": "LEBB",
      "alert": "OK",
      "vis_m": 9999,
      "fzfg": false,
      "metar_trigger": false,
      "taf_trigger": false,
      "metar": "METAR LEBB 262330Z AUTO VRB02KT 9999 OVC016 16/13 Q1021",
      "taf": "TAF LEBB 262300Z 2700/2724 VRB03KT 9999 SCT020 TX19/2715Z TN13/2706Z"
    },
    {
      "icao": "LEBL",
      "alert": "OK",
      "vis_m": 9999,
      "fzfg": false,
      "metar_trigger": false,
      "taf_trigger": false,
      "metar": "METAR LEBL 262330Z 27004KT CAVOK 17/15 Q1019 NOSIG",
      "taf": "TAF LEBL 262300Z 2700/2724 VRB04KT CAVOK TX22/2712Z TN14/2705Z"
    },
    {
      "icao": "LECH",
      "alert": "OK",
      "vis_m": 9999,
      "fzfg": false,
      "metar_trigger": false,
      "taf_trigger": false,
      "metar": "METAR LECH 262330Z AUTO 16002KT CAVOK 12/09 Q1020",
      "taf": "TAF LECH 262300Z 2700/2724 VRB03KT CAVOK TX24/2713Z TN10/2706Z"
    },
    {
      "icao": "LEMD",
      "alert": "OK",
      "vis_m": 9999,
      "fzfg": false,
      "metar_trigger": false,
      "taf_trigger": false,
      "metar": "METAR LEMD 262330Z VRB02KT CAVOK 17/08 Q1019 NOSIG",
      "taf": "TAF LEMD 262300Z 2700/2806 VRB04KT CAVOK TX28/2715Z TN11/2706Z"
    },
    {
      "icao": "LEMG",
      "alert": "OK",
      "vis_m": 9999,
      "fzfg": false,
      "metar_trigger": false,
      "taf_trigger": false,
      "metar": "METAR LEMG 262330Z 11005KT 080V140 9999 BKN025 17/14 Q1018 NOSIG",
      "taf": "TAF LEMG 262300Z 2700/2724 13005KT 9999 SCT025 TX23/2715Z TN14/2706Z"
    },
    {
      "icao": "LEVC",
      "alert": "OK",
      "vis_m": 9999,
      "fzfg": false,
      "metar_trigger": false,
      "taf_trigger": false,
      "metar": "METAR LEVC 262330Z VRB02KT CAVOK 13/11 Q1020 NOSIG",
      "taf": "TAF LEVC 262300Z 2700/2724 VRB03KT CAVOK TX24/2712Z TN10/2706Z"
    },
    {
      "icao": "LEXJ",
      "alert": "OK",
      "vis_m": 9000,
      "fzfg": false,
      "metar_trigger": false,
      "taf_trigger": false,
      "metar": "METAR LEXJ 262330Z AUTO VRB02KT 9000 OVC010 14/12 Q1021",
      "taf": "TAF LEXJ 262000Z 2621/2721 VRB03KT 9999 SCT010 BKN016 TX16/2713Z TN13/2707Z"
    },
    {
      "icao": "LEZG",
      "alert": "OK",
      "vis_m": 9999,
      "fzfg": false,
      "metar_trigger": false,
      "taf_trigger": false,
      "metar": "METAR LEZG 262330Z VRB01KT CAVOK 18/08 Q1018 NOSIG",
      "taf": "TAF LEZG 262300Z 2700/2724 VRB04KT CAVOK TX29/2715Z TN14/2706Z"
    },
    {
      "icao": "LEZL",
      "alert": "OK",
      "vis_m": 9000,
      "fzfg": false,
      "metar_trigger": false,
      "taf_trigger": false,
      "metar": "METAR LEZL 262330Z AUTO 18004KT 140V210 9000 NSC 19/13 Q1015",
      "taf": "TAF LEZL 262000Z 2621/2721 VRB03KT CAVOK TX28/2715Z TN16/2706Z"
    },
    {
      "icao": "LFBD",
      "alert": "OK",
      "vis_m": 9999,
      "fzfg": false,
      "metar_trigger": false,
      "taf_trigger": false,
      "metar": "METAR LFBD 262330Z AUTO 31003KT CAVOK 13/11 Q1020 TEMPO 3000 BR BKN005",
      "taf": "TAF LFBD 262300Z 2700/2806 32005KT CAVOK TX27/2714Z TN14/2706Z"
    },
    {
      "icao": "LFLL",
      "alert": "OK",
      "vis_m": 9999,
      "fzfg": false,
      "metar_trigger": false,
      "taf_trigger": false,
      "metar": "METAR LFLL 262330Z 25003KT CAVOK 14/06 Q1019 NOSIG",
      "taf": "TAF LFLL 262300Z 2700/2806 35004KT CAVOK"
    },
    {
      "icao": "LFLS",
      "alert": "OK",
      "vis_m": 9999,
      "fzfg": false,
      "metar_trigger": false,
      "taf_trigger": false,
      "metar": "METAR LFLS 262330Z AUTO 11005KT CAVOK 07/05 Q1020",
      "taf": "TAF LFLS 261400Z 2615/2715 36007KT CAVOK"
    },
    {
      "icao": "LFMN",
      "alert": "OK",
      "vis_m": 9999,
      "fzfg": false,
      "metar_trigger": false,
      "taf_trigger": false,
      "metar": "METAR LFMN 262330Z 30003KT CAVOK 14/12 Q1019 NOSIG",
      "taf": "TAF LFMN 262000Z 2621/2803 VRB03KT 9999 SCT025"
    },
    {
      "icao": "LFOB",
      "alert": "OK",
      "vis_m": 9999,
      "fzfg": false,
      "metar_trigger": false,
      "taf_trigger": false,
      "metar": "METAR LFOB 262330Z AUTO 31003KT 280V340 CAVOK 08/05 Q1023 NOSIG",
      "taf": "TAF LFOB 262300Z 2700/2724 03006KT CAVOK"
    },
    {
      "icao": "LFPO",
      "alert": "OK",
      "vis_m": 9999,
      "fzfg": false,
      "metar_trigger": false,
      "taf_trigger": false,
      "metar": "METAR LFPO 262330Z 01005KT CAVOK 14/05 Q1022 NOSIG",
      "taf": "TAF LFPO 262300Z 2700/2806 03005KT CAVOK"
    },
    {
      "icao": "LFSB",
      "alert": "OK",
      "vis_m": 9999,
      "fzfg": false,
      "metar_trigger": false,
      "taf_trigger": false,
      "metar": "METAR LFSB 262330Z AUTO 32003KT CAVOK 08/02 Q1021 NOSIG",
      "taf": "TAF LFSB 262300Z 2700/2724 VRB03KT CAVOK"
    },
    {
      "icao": "LGAV",
      "alert": "OK",
      "vis_m": 9999,
      "fzfg": false,
      "metar_trigger": false,
      "taf_trigger": false,
      "metar": "METAR LGAV 262350Z 29002KT CAVOK 13/04 Q1016 NOSIG",
      "taf": "TAF LGAV 262300Z 2700/2724 VRB03KT 9999 FEW030"
    },
    {
      "icao": "LGTS",
      "alert": "OK",
      "vis_m": 9999,
      "fzfg": false,
      "metar_trigger": false,
      "taf_trigger": false,
      "metar": "METAR LGTS 262350Z 08003KT CAVOK 11/09 Q1016 NOSIG",
      "taf": "TAF LGTS 262300Z 2700/2724 34015KT 9999 FEW030"
    },
    {
      "icao": "LHBP",
      "alert": "OK",
      "vis_m": 9999,
      "fzfg": false,
      "metar_trigger": false,
      "taf_trigger": false,
      "metar": "METAR LHBP 262330Z 00000KT CAVOK 04/M03 Q1024 NOSIG",
      "taf": "TAF LHBP 262315Z 2700/2724 04004KT CAVOK"
    },
    {
      "icao": "LHDC",
      "alert": "OK",
      "vis_m": 9999,
      "fzfg": false,
      "metar_trigger": false,
      "taf_trigger": false,
      "metar": "METAR LHDC 262315Z AUTO 09003KT CAVOK 04/M04 Q1024",
      "taf": "TAF LHDC 261715Z 2618/2703 03010KT CAVOK"
    },
    {
      "icao": "LIBD",
      "alert": "OK",
      "vis_m": 9999,
      "fzfg": false,
      "metar_trigger": false,
      "taf_trigger": false,
      "metar": "METAR LIBD 262350Z 22005KT CAVOK 09/06 Q1018",
      "taf": "TAF LIBD 262300Z 2700/2724 23005KT CAVOK"
    },
    {
      "icao": "LIBG",
      "alert": "OK",
      "vis_m": null,
      "fzfg": false,
      "metar_trigger": false,
      "taf_trigger": false,
      "metar": "",
      "taf": "TAF LIBG 261400Z 2615/2624 VRB05KT CAVOK"
    },
    {
      "icao": "LIBP",
      "alert": "OK",
      "vis_m": 9999,
      "fzfg": false,
      "metar_trigger": false,
      "taf_trigger": false,
      "metar": "METAR LIBP 262350Z AUTO 22005KT 9999 NCD 09/08 Q1018",
      "taf": "TAF LIBP 262300Z 2700/2724 23005KT CAVOK"
    },
    {
      "icao": "LIBR",
      "alert": "OK",
      "vis_m": 9999,
      "fzfg": false,
      "metar_trigger": false,
      "taf_trigger": false,
      "metar": "METAR LIBR 262350Z 26006KT CAVOK 12/07 Q1018",
      "taf": "TAF LIBR 262300Z 2700/2724 27005KT CAVOK"
    },
    {
      "icao": "LICA",
      "alert": "OK",
      "vis_m": 9999,
      "fzfg": false,
      "metar_trigger": false,
      "taf_trigger": false,
      "metar": "METAR LICA 262350Z AUTO VRB02KT 9999 NCD 11/10 Q1020",
      "taf": "TAF LICA 262300Z 2700/2724 VRB05KT 9999 FEW020"
    },
    {
      "icao": "LICC",
      "alert": "OK",
      "vis_m": 9999,
      "fzfg": false,
      "metar_trigger": false,
      "taf_trigger": false,
      "metar": "METAR LICC 262350Z 25003KT CAVOK 11/07 Q1019",
      "taf": "TAF LICC 262300Z 2700/2724 25007KT CAVOK"
    },
    {
      "icao": "LICJ",
      "alert": "OK",
      "vis_m": 9999,
      "fzfg": false,
      "metar_trigger": false,
      "taf_trigger": false,
      "metar": "METAR LICJ 262350Z 20006KT CAVOK 13/08 Q1019",
      "taf": "TAF LICJ 262300Z 2700/2724 VRB05KT CAVOK"
    },
    {
      "icao": "LIMC",
      "alert": "OK",
      "vis_m": 9999,
      "fzfg": false,
      "metar_trigger": false,
      "taf_trigger": false,
      "metar": "METAR LIMC 262350Z VRB01KT CAVOK 13/12 Q1018 NOSIG",
      "taf": "TAF LIMC 262300Z 2700/2806 VRB05KT CAVOK"
    },
    {
      "icao": "LIME",
      "alert": "OK",
      "vis_m": 9999,
      "fzfg": false,
      "metar_trigger": false,
      "taf_trigger": false,
      "metar": "METAR LIME 262350Z 36005KT CAVOK 16/09 Q1018 NOSIG",
      "taf": "TAF LIME 262300Z 2700/2724 VRB05KT CAVOK"
    },
    {
      "icao": "LIMF",
      "alert": "OK",
      "vis_m": 9999,
      "fzfg": false,
      "metar_trigger": false,
      "taf_trigger": false,
      "metar": "METAR LIMF 262350Z VRB01KT CAVOK 15/10 Q1018",
      "taf": "TAF LIMF 262300Z 2700/2724 VRB04KT CAVOK"
    },
    {
      "icao": "LIMJ",
      "alert": "OK",
      "vis_m": 9999,
      "fzfg": false,
      "metar_trigger": false,
      "taf_trigger": false,
      "metar": "METAR LIMJ 262350Z 36002KT CAVOK 14/12 Q1019",
      "taf": "TAF LIMJ 262300Z 2700/2724 03005KT 9999 FEW015"
    },
    {
      "icao": "LIPE",
      "alert": "OK",
      "vis_m": 9999,
      "fzfg": false,
      "metar_trigger": false,
      "taf_trigger": false,
      "metar": "METAR LIPE 262350Z AUTO 20008KT 9999 NCD 17/07 Q1017",
      "taf": "TAF LIPE 262300Z 2700/2724 VRB05KT CAVOK"
    },
    {
      "icao": "LIPH",
      "alert": "OK",
      "vis_m": 9999,
      "fzfg": false,
      "metar_trigger": false,
      "taf_trigger": false,
      "metar": "METAR LIPH 262350Z AUTO 02003KT 330V060 9999 FEW200/// 15/11 Q1018",
      "taf": "TAF LIPH 262300Z 2700/2724 VRB06KT CAVOK"
    },
    {
      "icao": "LIPQ",
      "alert": "OK",
      "vis_m": 9999,
      "fzfg": false,
      "metar_trigger": false,
      "taf_trigger": false,
      "metar": "METAR LIPQ 262350Z AUTO 09006KT 050V110 9999 BKN200/// 18/04 Q1018",
      "taf": "TAF LIPQ 262300Z 2700/2724 08012KT CAVOK"
    },
    {
      "icao": "LIPR",
      "alert": "OK",
      "vis_m": 9999,
      "fzfg": false,
      "metar_trigger": false,
      "taf_trigger": false,
      "metar": "METAR LIPR 262350Z AUTO VRB02KT 9999 NCD 12/10 Q1018",
      "taf": "TAF LIPR 262300Z 2700/2724 VRB05KT CAVOK"
    },
    {
      "icao": "LIPX",
      "alert": "OK",
      "vis_m": 9999,
      "fzfg": false,
      "metar_trigger": false,
      "taf_trigger": false,
      "metar": "METAR LIPX 262350Z 35004KT CAVOK 15/11 Q1017",
      "taf": "TAF LIPX 262300Z 2700/2724 VRB05KT CAVOK"
    },
    {
      "icao": "LIPY",
      "alert": "OK",
      "vis_m": 9999,
      "fzfg": false,
      "metar_trigger": false,
      "taf_trigger": false,
      "metar": "METAR LIPY 262350Z AUTO 18003KT 9999 NCD 13/10 Q1018",
      "taf": "TAF LIPY 262300Z 2700/2724 VRB05KT CAVOK"
    },
    {
      "icao": "LIPZ",
      "alert": "OK",
      "vis_m": 9999,
      "fzfg": false,
      "metar_trigger": false,
      "taf_trigger": false,
      "metar": "METAR LIPZ 262350Z 34003KT CAVOK 15/13 Q1018 NOSIG",
      "taf": "TAF LIPZ 262300Z 2700/2806 05010KT CAVOK"
    },
    {
      "icao": "LIRF",
      "alert": "OK",
      "vis_m": 9999,
      "fzfg": false,
      "metar_trigger": false,
      "taf_trigger": false,
      "metar": "METAR LIRF 262350Z 08004KT 9999 MIFG FEW010 12/11 Q1019 BECMG 3000 BCFG",
      "taf": "TAF LIRF 262300Z 2700/2806 VRB05KT CAVOK"
    },
    {
      "icao": "LIRN",
      "alert": "OK",
      "vis_m": 9999,
      "fzfg": false,
      "metar_trigger": false,
      "taf_trigger": false,
      "metar": "METAR LIRN 262350Z 24001KT CAVOK 13/07 Q1020 NOSIG",
      "taf": "TAF LIRN 262300Z 2700/2724 VRB05KT CAVOK"
    },
    {
      "icao": "LIRP",
      "alert": "OK",
      "vis_m": 9999,
      "fzfg": false,
      "metar_trigger": false,
      "taf_trigger": false,
      "metar": "METAR LIRP 262345Z 13003KT CAVOK 09/08 Q1020 NOSIG",
      "taf": "TAF LIRP 262300Z 2700/2724 30003KT CAVOK"
    },
    {
      "icao": "LIRZ",
      "alert": "OK",
      "vis_m": 9999,
      "fzfg": false,
      "metar_trigger": false,
      "taf_trigger": false,
      "metar": "METAR LIRZ 262350Z AUTO 02005KT 9999 NCD 08/07 Q1020",
      "taf": "TAF LIRZ 262300Z 2700/2724 VRB05KT CAVOK"
    },
    {
      "icao": "LJLJ",
      "alert": "OK",
      "vis_m": 9999,
      "fzfg": false,
      "metar_trigger": false,
      "taf_trigger": false,
      "metar": "METAR LJLJ 262330Z VRB01KT 9999 FEW075 SCT200 10/01 Q1023 NOSIG",
      "taf": "TAF LJLJ 262300Z 2700/2800 12004KT 9999 FEW080"
    },
    {
      "icao": "LKMT",
      "alert": "OK",
      "vis_m": 9999,
      "fzfg": false,
      "metar_trigger": false,
      "taf_trigger": false,
      "metar": "METAR LKMT 262330Z 22002KT CAVOK 02/M03 Q1024 NOSIG",
      "taf": "TAF LKMT 262300Z 2700/2724 VRB02KT CAVOK"
    },
    {
      "icao": "LKPR",
      "alert": "OK",
      "vis_m": 9999,
      "fzfg": false,
      "metar_trigger": false,
      "taf_trigger": false,
      "metar": "METAR LKPR 262330Z VRB02KT CAVOK 04/M03 Q1024 NOSIG",
      "taf": "TAF LKPR 262300Z 2700/2806 05004KT CAVOK"
    },
    {
      "icao": "LLBG",
      "alert": "OK",
      "vis_m": 9999,
      "fzfg": false,
      "metar_trigger": false,
      "taf_trigger": false,
      "metar": "METAR LLBG 262350Z VRB02KT CAVOK 16/13 Q1012 NOSIG",
      "taf": "TAF LLBG 262303Z 2700/2724 VRB04KT 7000 FEW015 TX22/2711Z TN15/2703Z"
    },
    {
      "icao": "LMML",
      "alert": "OK",
      "vis_m": 9999,
      "fzfg": false,
      "metar_trigger": false,
      "taf_trigger": false,
      "metar": "METAR LMML 262345Z 29002KT CAVOK 13/10 Q1019 NOSIG",
      "taf": "TAF LMML 262300Z 2700/2724 VRB05KT CAVOK"
    },
    {
      "icao": "LOWW",
      "alert": "OK",
      "vis_m": 9999,
      "fzfg": false,
      "metar_trigger": false,
      "taf_trigger": false,
      "metar": "METAR LOWW 262350Z 14002KT CAVOK 07/00 Q1024 NOSIG",
      "taf": "TAF LOWW 262315Z 2700/2806 VRB04KT CAVOK TX19/2715Z TN05/2704Z"
    },
    {
      "icao": "LPFR",
      "alert": "OK",
      "vis_m": 9999,
      "fzfg": false,
      "metar_trigger": false,
      "taf_trigger": false,
      "metar": "METAR LPFR 262330Z 03005KT CAVOK 18/16 Q1015",
      "taf": "TAF LPFR 262300Z 2700/2724 VRB02KT CAVOK"
    },
    {
      "icao": "LPMA",
      "alert": "OK",
      "vis_m": 9999,
      "fzfg": false,
      "metar_trigger": false,
      "taf_trigger": false,
      "metar": "METAR LPMA 262330Z 35010G20KT 280V030 9999 SCT015 17/11 Q1019",
      "taf": "TAF LPMA 262300Z 2700/2724 01013KT 9999 SCT015"
    },
    {
      "icao": "LPPR",
      "alert": "OK",
      "vis_m": 9999,
      "fzfg": false,
      "metar_trigger": false,
      "taf_trigger": false,
      "metar": "METAR LPPR 262330Z VRB02KT CAVOK 14/14 Q1016",
      "taf": "TAF LPPR 262300Z 2700/2724 VRB02KT CAVOK"
    },
    {
      "icao": "LPPS",
      "alert": "OK",
      "vis_m": 9999,
      "fzfg": false,
      "metar_trigger": false,
      "taf_trigger": false,
      "metar": "METAR LPPS 262330Z 01011KT 9999 SCT015 BKN030 16/12 Q1019",
      "taf": "TAF LPPS 262300Z 2700/2806 01013KT 9999 FEW015 BKN030"
    },
    {
      "icao": "LPPT",
      "alert": "OK",
      "vis_m": 9999,
      "fzfg": false,
      "metar_trigger": false,
      "taf_trigger": false,
      "metar": "METAR LPPT 262330Z 32010KT CAVOK 19/13 Q1015",
      "taf": "TAF LPPT 262300Z 2700/2806 33012KT CAVOK"
    },
    {
      "icao": "LQBK",
      "alert": "OK",
      "vis_m": 9999,
      "fzfg": false,
      "metar_trigger": false,
      "taf_trigger": false,
      "metar": "METAR LQBK 262330Z 28005KT CAVOK 06/02 Q1023 NOSIG",
      "taf": "TAF LQBK 262300Z 2700/2724 03005KT CAVOK TX24/2714Z TN06/2704Z"
    },
    {
      "icao": "LQSA",
      "alert": "OK",
      "vis_m": 9999,
      "fzfg": false,
      "metar_trigger": false,
      "taf_trigger": false,
      "metar": "METAR LQSA 262330Z 13005KT CAVOK 07/03 Q1022",
      "taf": "TAF LQSA 262300Z 2700/2724 VRB02KT CAVOK TX23/2714Z TN04/2704Z"
    },
    {
      "icao": "LQTZ",
      "alert": "OK",
      "vis_m": 9999,
      "fzfg": false,
      "metar_trigger": false,
      "taf_trigger": false,
      "metar": "METAR LQTZ 262330Z 00000KT CAVOK 04/03 Q1023",
      "taf": "TAF LQTZ 262300Z 2700/2724 10005KT CAVOK TX22/2713Z TN02/2704Z"
    },
    {
      "icao": "LRBC",
      "alert": "OK",
      "vis_m": 9999,
      "fzfg": false,
      "metar_trigger": false,
      "taf_trigger": false,
      "metar": "METAR LRBC 262330Z 36005KT CAVOK 04/M04 Q1023",
      "taf": "TAF LRBC 262300Z 2700/2709 34008KT CAVOK"
    },
    {
      "icao": "LRBS",
      "alert": "OK",
      "vis_m": 9999,
      "fzfg": false,
      "metar_trigger": false,
      "taf_trigger": false,
      "metar": "METAR LRBS 262330Z 09011KT CAVOK 08/M04 Q1022 NOSIG",
      "taf": "TAF LRBS 262300Z 2700/2724 08012KT CAVOK"
    },
    {
      "icao": "LRBV",
      "alert": "OK",
      "vis_m": 9999,
      "fzfg": false,
      "metar_trigger": false,
      "taf_trigger": false,
      "metar": "METAR LRBV 262330Z AUTO VRB03KT 9999 NCD 07/M06 Q1022",
      "taf": "TAF LRBV 261700Z 2618/2703 31015KT CAVOK"
    },
    {
      "icao": "LRCL",
      "alert": "OK",
      "vis_m": 9999,
      "fzfg": false,
      "metar_trigger": false,
      "taf_trigger": false,
      "metar": "METAR LRCL 262330Z 27005KT CAVOK 02/M05 Q1023",
      "taf": "TAF LRCL 262300Z 2700/2709 26006KT CAVOK"
    },
    {
      "icao": "LRCV",
      "alert": "OK",
      "vis_m": 9999,
      "fzfg": false,
      "metar_trigger": false,
      "taf_trigger": false,
      "metar": "METAR LRCV 262330Z 10011KT CAVOK 08/M00 Q1022",
      "taf": "TAF LRCV 262300Z 2700/2709 08012KT CAVOK"
    },
    {
      "icao": "LRIA",
      "alert": "OK",
      "vis_m": 9999,
      "fzfg": false,
      "metar_trigger": false,
      "taf_trigger": false,
      "metar": "METAR LRIA 262330Z COR 30007KT CAVOK 03/M05 Q1022",
      "taf": "TAF LRIA 262300Z 2700/2709 30010KT CAVOK"
    },
    {
      "icao": "LROP",
      "alert": "OK",
      "vis_m": 9999,
      "fzfg": false,
      "metar_trigger": false,
      "taf_trigger": false,
      "metar": "METAR LROP 262330Z 11010KT CAVOK 08/M05 Q1022 NOSIG",
      "taf": "TAF LROP 262300Z 2700/2724 10012KT CAVOK"
    },
    {
      "icao": "LRSB",
      "alert": "OK",
      "vis_m": 9999,
      "fzfg": false,
      "metar_trigger": false,
      "taf_trigger": false,
      "metar": "METAR LRSB 262330Z 27009KT CAVOK 02/M03 Q1023",
      "taf": "TAF LRSB 262300Z 2700/2724 27010KT CAVOK"
    },
    {
      "icao": "LRSM",
      "alert": "OK",
      "vis_m": null,
      "fzfg": false,
      "metar_trigger": false,
      "taf_trigger": false,
      "metar": "",
      "taf": ""
    },
    {
      "icao": "LRSV",
      "alert": "OK",
      "vis_m": 9999,
      "fzfg": false,
      "metar_trigger": false,
      "taf_trigger": false,
      "metar": "METAR LRSV 262330Z 32005KT CAVOK 01/M04 Q1021",
      "taf": "TAF LRSV 262300Z 2700/2709 32008KT CAVOK"
    },
    {
      "icao": "LRTM",
      "alert": "OK",
      "vis_m": 9999,
      "fzfg": false,
      "metar_trigger": false,
      "taf_trigger": false,
      "metar": "METAR LRTM 262330Z 24007KT CAVOK 03/M04 Q1023",
      "taf": "TAF LRTM 262300Z 2700/2709 25006KT CAVOK"
    },
    {
      "icao": "LRTR",
      "alert": "OK",
      "vis_m": 9999,
      "fzfg": false,
      "metar_trigger": false,
      "taf_trigger": false,
      "metar": "METAR LRTR 262330Z 02007KT CAVOK 05/M02 Q1022",
      "taf": "TAF LRTR 262300Z 2700/2724 04008KT CAVOK"
    },
    {
      "icao": "LTAC",
      "alert": "OK",
      "vis_m": 9999,
      "fzfg": false,
      "metar_trigger": false,
      "taf_trigger": false,
      "metar": "METAR LTAC 262350Z VRB02KT CAVOK 07/04 Q1016 NOSIG",
      "taf": "TAF LTAC 262240Z 2700/2724 VRB02KT CAVOK"
    },
    {
      "icao": "LTFM",
      "alert": "OK",
      "vis_m": 9999,
      "fzfg": false,
      "metar_trigger": false,
      "taf_trigger": false,
      "metar": "METAR LTFM 262350Z 03020KT 9999 FEW024 12/07 Q1019 NOSIG",
      "taf": "TAF LTFM 262240Z 2700/2806 05018G28KT 9999 FEW012 SCT025"
    },
    {
      "icao": "LUKK",
      "alert": "OK",
      "vis_m": 9999,
      "fzfg": false,
      "metar_trigger": false,
      "taf_trigger": false,
      "metar": "METAR LUKK 262330Z 34012KT 300V020 CAVOK 05/M07 Q1021 NOSIG",
      "taf": "TAF LUKK 262319Z 2700/2724 33014KT CAVOK"
    },
    {
      "icao": "LWOH",
      "alert": "OK",
      "vis_m": null,
      "fzfg": false,
      "metar_trigger": false,
      "taf_trigger": false,
      "metar": "",
      "taf": "TAF LWOH 262040Z 2621/2721 VRB02KT 9999 FEW045"
    },
    {
      "icao": "LWSK",
      "alert": "OK",
      "vis_m": 9999,
      "fzfg": false,
      "metar_trigger": false,
      "taf_trigger": false,
      "metar": "METAR LWSK 262350Z 03007KT CAVOK 13/M00 Q1021 NOSIG",
      "taf": "TAF LWSK 262040Z 2621/2721 01010KT CAVOK"
    },
    {
      "icao": "LYBE",
      "alert": "OK",
      "vis_m": 9999,
      "fzfg": false,
      "metar_trigger": false,
      "taf_trigger": false,
      "metar": "METAR LYBE 262330Z 19004KT 150V250 CAVOK 08/M01 Q1023 NOSIG",
      "taf": "TAF LYBE 262300Z 2700/2724 35005KT CAVOK TX20/2713Z TN05/2704Z"
    },
    {
      "icao": "LYNI",
      "alert": "OK",
      "vis_m": 9999,
      "fzfg": false,
      "metar_trigger": false,
      "taf_trigger": false,
      "metar": "METAR LYNI 262330Z 36005KT CAVOK 09/M02 Q1022 NOSIG",
      "taf": "TAF LYNI 262300Z 2700/2724 04004KT CAVOK TX22/2713Z TN04/2704Z"
    },
    {
      "icao": "LYPG",
      "alert": "OK",
      "vis_m": 9999,
      "fzfg": false,
      "metar_trigger": false,
      "taf_trigger": false,
      "metar": "METAR LYPG 262330Z 04003KT CAVOK 14/12 Q1018 NOSIG",
      "taf": "TAF LYPG 262300Z 2700/2724 36005KT CAVOK TX27/2713Z TN12/2704Z"
    },
    {
      "icao": "LZIB",
      "alert": "OK",
      "vis_m": 9999,
      "fzfg": false,
      "metar_trigger": false,
      "taf_trigger": false,
      "metar": "METAR LZIB 262330Z 03004KT CAVOK 07/M00 Q1024 NOSIG",
      "taf": "TAF LZIB 262315Z 2700/2800 03004KT CAVOK"
    },
    {
      "icao": "LZKZ",
      "alert": "OK",
      "vis_m": 9999,
      "fzfg": false,
      "metar_trigger": false,
      "taf_trigger": false,
      "metar": "METAR LZKZ 262330Z 02004KT CAVOK 01/M04 Q1024 NOSIG",
      "taf": "TAF LZKZ 262315Z 2700/2800 34004KT CAVOK"
    },
    {
      "icao": "LZTT",
      "alert": "OK",
      "vis_m": 9999,
      "fzfg": false,
      "metar_trigger": false,
      "taf_trigger": false,
      "metar": "METAR LZTT 262330Z 29004KT CAVOK M00/M06 Q1023",
      "taf": "TAF LZTT 262315Z 2700/2800 VRB02KT CAVOK"
    },
    {
      "icao": "OEJN",
      "alert": "OK",
      "vis_m": 9999,
      "fzfg": false,
      "metar_trigger": false,
      "taf_trigger": false,
      "metar": "METAR OEJN 262300Z VRB03KT 9999 FEW040 31/13 Q1007 NOSIG",
      "taf": "TAF OEJN 262300Z 2700/2806 VRB03KT 9999 FEW040"
    },
    {
      "icao": "OEMA",
      "alert": "OK",
      "vis_m": 9999,
      "fzfg": false,
      "metar_trigger": false,
      "taf_trigger": false,
      "metar": "METAR OEMA 262300Z 27006KT CAVOK 29/M03 Q1013 NOSIG",
      "taf": "TAF OEMA 262300Z 2700/2806 VRB03KT CAVOK"
    },
    {
      "icao": "OJAI",
      "alert": "OK",
      "vis_m": 4000,
      "fzfg": false,
      "metar_trigger": false,
      "taf_trigger": false,
      "metar": "METAR OJAI 262300Z 33004KT 4000 DU NSC 13/09 Q1015 NOSIG",
      "taf": "TAF OJAI 262300Z 2700/2806 28012KT 5000 HZ FEW030"
    },
    {
      "icao": "OMAA",
      "alert": "OK",
      "vis_m": 9999,
      "fzfg": false,
      "metar_trigger": false,
      "taf_trigger": false,
      "metar": "METAR OMAA 262330Z 30006KT CAVOK 29/17 Q1007 NOSIG",
      "taf": "TAF OMAA 262300Z 2700/2806 28004KT 8000 NSC"
    },
    {
      "icao": "OMDB",
      "alert": "OK",
      "vis_m": 9999,
      "fzfg": false,
      "metar_trigger": false,
      "taf_trigger": false,
      "metar": "METAR OMDB 262300Z 26006KT 220V320 CAVOK 30/18 Q1006 NOSIG",
      "taf": "TAF OMDB 262300Z 2700/2806 21005KT CAVOK"
    },
    {
      "icao": "UAAA",
      "alert": "OK",
      "vis_m": 9999,
      "fzfg": false,
      "metar_trigger": false,
      "taf_trigger": false,
      "metar": "METAR UAAA 262330Z 24003MPS 9999 FEW100 BKN200 15/09 Q1019 NOSIG",
      "taf": "TAF UAAA 262304Z 2700/2724 04005MPS 9999 SCT050CB BKN100 TX22/2709Z TN14/2701Z"
    },
    {
      "icao": "UBBB",
      "alert": "OK",
      "vis_m": 9999,
      "fzfg": false,
      "metar_trigger": false,
      "taf_trigger": false,
      "metar": "METAR UBBB 262330Z 19014KT 9999 SCT007 13/12 Q1010 NOSIG",
      "taf": "TAF UBBB 262303Z 2700/2724 17014KT 9999 SCT012 TX18/2708Z TN10/2701Z"
    },
    {
      "icao": "UDSG",
      "alert": "OK",
      "vis_m": 9999,
      "fzfg": false,
      "metar_trigger": false,
      "taf_trigger": false,
      "metar": "METAR UDSG 262330Z 14004KT 9999 FEW049 04/04 Q1016 NOSIG",
      "taf": "TAF UDSG 262300Z 2700/2724 VRB06KT 9999 SCT040"
    },
    {
      "icao": "UDYZ",
      "alert": "OK",
      "vis_m": 9999,
      "fzfg": false,
      "metar_trigger": false,
      "taf_trigger": false,
      "metar": "METAR UDYZ 262330Z 18001KT 9999 SCT043CB 14/09 Q1013 NOSIG",
      "taf": "TAF UDYZ 262300Z 2700/2724 18006KT 9999 BKN040"
    },
    {
      "icao": "UGKO",
      "alert": "OK",
      "vis_m": 9999,
      "fzfg": false,
      "metar_trigger": false,
      "taf_trigger": false,
      "metar": "METAR UGKO 262330Z 16003KT 9999 SCT080 12/09 Q1011 NOSIG",
      "taf": "TAF UGKO 262300Z 2700/2724 26007KT 9999 BKN095 TX19/2711Z TN12/2702Z"
    }
  ]
}