{
  "ts_utc": "2026-01-29T06:02:06Z",
  "threshold_m": 150,
  "source": "stations_override.txt (ICAO list) + aviationweather.gov (METAR/TAF raw)",
  "station_count": 159,
  "stations": [
    {
      "icao": "BIKF",
      "alert": "OK",
      "vis_m": 9999,
      "fzfg": false,
      "metar_trigger": false,
      "taf_trigger": false,
      "metar": "METAR BIKF 290530Z 06013KT CAVOK 04/M05 Q0998",
      "taf": "TAF BIKF 290449Z 2906/3006 04012KT 9999 FEW025 TX05/2915Z TN01/3006Z"
    },
    {
      "icao": "BKPR",
      "alert": "OK",
      "vis_m": 9999,
      "fzfg": false,
      "metar_trigger": false,
      "taf_trigger": false,
      "metar": "METAR BKPR 290600Z 03004KT 9999 BKN080 03/03 Q0997 NOSIG",
      "taf": "TAF BKPR 282330Z 2900/2924 20008KT 9999 BKN040"
    },
    {
      "icao": "EBCI",
      "alert": "OK",
      "vis_m": 1100,
      "fzfg": false,
      "metar_trigger": false,
      "taf_trigger": false,
      "metar": "METAR EBCI 290550Z 05004KT 020V080 1100 R24/P2000N -DZ BR OVC001 01/01 Q0998 TEMPO 0700 -DZ FG",
      "taf": "TAF EBCI 290505Z 2906/3012 02003KT 2500 -SG BR BKN003"
    },
    {
      "icao": "EDDB",
      "alert": "OK",
      "vis_m": 9999,
      "fzfg": false,
      "metar_trigger": false,
      "taf_trigger": false,
      "metar": "METAR EDDB 290550Z AUTO 08011KT 9999 OVC010 M01/M03 Q1002 TEMPO BKN009",
      "taf": "TAF EDDB 290500Z 2906/3006 07010KT 9999 OVC012"
    },
    {
      "icao": "EDDH",
      "alert": "OK",
      "vis_m": 9999,
      "fzfg": false,
      "metar_trigger": false,
      "taf_trigger": false,
      "metar": "METAR EDDH 290550Z AUTO 08010KT 9999 BKN015 OVC021 00/M02 Q1003 TEMPO BKN014",
      "taf": "TAF EDDH 290500Z 2906/3012 08010KT 9999 OVC015"
    },
    {
      "icao": "EDDK",
      "alert": "OK",
      "vis_m": 4300,
      "fzfg": false,
      "metar_trigger": false,
      "taf_trigger": false,
      "metar": "METAR EDDK 290550Z AUTO 00000KT 4300 -SN BR BKN003 OVC014 00/M00 Q0998 BECMG 5000",
      "taf": "TAF EDDK 290500Z 2906/3012 12003KT 6000 OVC006"
    },
    {
      "icao": "EDDN",
      "alert": "OK",
      "vis_m": 3500,
      "fzfg": false,
      "metar_trigger": false,
      "taf_trigger": false,
      "metar": "METAR EDDN 290550Z AUTO 36003KT 3500 -SN BR FEW005 BKN011 BKN018 00/M00 Q0995 RESN TEMPO 2000 BKN004",
      "taf": "TAF EDDN 290500Z 2906/3006 VRB02KT 3500 -SN BR BKN005"
    },
    {
      "icao": "EDDS",
      "alert": "OK",
      "vis_m": 5000,
      "fzfg": false,
      "metar_trigger": false,
      "taf_trigger": false,
      "metar": "METAR EDDS 290550Z AUTO 32004KT 300V020 5000 BR SCT004 BKN019 OVC025 01/01 Q0995 REDZ TEMPO 2000 RASN BKN004",
      "taf": "TAF EDDS 290500Z 2906/3006 VRB03KT 6000 SCT002 BKN010"
    },
    {
      "icao": "EDFH",
      "alert": "OK",
      "vis_m": 6000,
      "fzfg": false,
      "metar_trigger": false,
      "taf_trigger": false,
      "metar": "METAR EDFH 290550Z 15006KT 6000 -SN BKN001 OVC006 M00/M00 Q0995",
      "taf": "TAF EDFH 290500Z 2906/3006 16005KT 3000 BR SCT001 BKN005"
    },
    {
      "icao": "EDJA",
      "alert": "OK",
      "vis_m": 6000,
      "fzfg": false,
      "metar_trigger": false,
      "taf_trigger": false,
      "metar": "METAR EDJA 290550Z 23007KT 6000 -SNRA BKN005 OVC029 00/M00 Q0994",
      "taf": "TAF EDJA 290500Z 2906/2915 25007KT 2500 -SN SCT002 BKN004"
    },
    {
      "icao": "EDLW",
      "alert": "OK",
      "vis_m": 3800,
      "fzfg": false,
      "metar_trigger": false,
      "taf_trigger": false,
      "metar": "METAR EDLW 290550Z 04006KT 3800 -SN BR OVC004 M01/M01 Q0997",
      "taf": "TAF EDLW 290500Z 2906/3006 07006KT 6000 OVC007"
    },
    {
      "icao": "EDNY",
      "alert": "OK",
      "vis_m": 8000,
      "fzfg": false,
      "metar_trigger": false,
      "taf_trigger": false,
      "metar": "METAR EDNY 290550Z 24008KT 8000 -RA BKN008 OVC014 02/01 Q0996",
      "taf": "TAF EDNY 290500Z 2906/2915 VRB03KT 9999 OVC010"
    },
    {
      "icao": "EDSB",
      "alert": "OK",
      "vis_m": 4700,
      "fzfg": false,
      "metar_trigger": false,
      "taf_trigger": false,
      "metar": "METAR EDSB 290550Z VRB02KT 4700 -DZ BR OVC011 02/02 Q0997",
      "taf": "TAF EDSB 290500Z 2906/3006 VRB03KT 6000 SCT003 BKN015"
    },
    {
      "icao": "EETN",
      "alert": "OK",
      "vis_m": 9999,
      "fzfg": false,
      "metar_trigger": false,
      "taf_trigger": false,
      "metar": "METAR EETN 290550Z 09007KT CAVOK M13/M14 Q1018 NOSIG",
      "taf": "TAF EETN 290530Z 2906/3006 09010KT 9999 SCT012"
    },
    {
      "icao": "EFTU",
      "alert": "OK",
      "vis_m": 9999,
      "fzfg": false,
      "metar_trigger": false,
      "taf_trigger": false,
      "metar": "METAR EFTU 290550Z AUTO 07006KT 9999 -SHSN OVC014 M12/M14 Q1019",
      "taf": "TAF EFTU 290536Z 2906/3006 07006KT 9999 BKN012"
    },
    {
      "icao": "EGBB",
      "alert": "OK",
      "vis_m": 200,
      "fzfg": true,
      "metar_trigger": false,
      "taf_trigger": false,
      "metar": "METAR EGBB 290550Z 12007KT 0200 R15/0650N FG OVC002 02/02 Q0997",
      "taf": "TAF EGBB 290454Z 2906/3006 14008KT 0300 FG FZFG VV///"
    },
    {
      "icao": "EGGP",
      "alert": "OK",
      "vis_m": 5000,
      "fzfg": false,
      "metar_trigger": false,
      "taf_trigger": false,
      "metar": "METAR EGGP 290550Z 15007KT 110V170 5000 BR BKN008 04/03 Q0996",
      "taf": "TAF EGGP 290455Z 2906/3006 14007KT 9999 SCT020"
    },
    {
      "icao": "EGGW",
      "alert": "OK",
      "vis_m": 150,
      "fzfg": false,
      "metar_trigger": false,
      "taf_trigger": false,
      "metar": "METAR EGGW 290550Z AUTO 12007KT 0150 R25/0600N FG OVC002 04/03 Q0997",
      "taf": "TAF EGGW 290500Z 2906/3006 12005KT 2000 BR DZ MIFG BKN002"
    },
    {
      "icao": "EGKK",
      "alert": "OK",
      "vis_m": 400,
      "fzfg": true,
      "metar_trigger": false,
      "taf_trigger": false,
      "metar": "METAR EGKK 290550Z 07005KT 0400 R26L/0900U FG OVC002 01/01 Q0997",
      "taf": "TAF EGKK 290451Z 2906/3012 09003KT 0300 FZFG VV///"
    },
    {
      "icao": "EGNM",
      "alert": "OK",
      "vis_m": 300,
      "fzfg": false,
      "metar_trigger": false,
      "taf_trigger": false,
      "metar": "METAR EGNM 290550Z 10010KT 0300 R14/0550N FG VV/// 03/03 Q0997",
      "taf": "TAF EGNM 290456Z 2906/3006 11008KT 0200 FG BKN001"
    },
    {
      "icao": "EGPD",
      "alert": "OK",
      "vis_m": 9999,
      "fzfg": false,
      "metar_trigger": false,
      "taf_trigger": false,
      "metar": "METAR EGPD 290550Z AUTO 14014KT 9999 -RA SCT014/// BKN018/// OVC034/// //////TCU 05/03 Q1000 TEMPO BKN012",
      "taf": "TAF EGPD 290454Z 2906/3006 13012KT 9999 SCT015 BKN030"
    },
    {
      "icao": "EGPF",
      "alert": "OK",
      "vis_m": 9000,
      "fzfg": false,
      "metar_trigger": false,
      "taf_trigger": false,
      "metar": "METAR EGPF 290550Z AUTO 13003KT 080V160 9000 NCD 03/02 Q0997",
      "taf": "TAF EGPF 290501Z 2906/3006 09007KT 9999 FEW018 SCT040"
    },
    {
      "icao": "EHBK",
      "alert": "OK",
      "vis_m": 4400,
      "fzfg": false,
      "metar_trigger": false,
      "taf_trigger": false,
      "metar": "METAR EHBK 290555Z AUTO 28003KT 240V310 4400 BR OVC006/// 00/M01 Q0998 NOSIG",
      "taf": "TAF EHBK 290509Z 2906/3012 30003KT 3000 BR BKN004"
    },
    {
      "icao": "EHEH",
      "alert": "OK",
      "vis_m": null,
      "fzfg": false,
      "metar_trigger": false,
      "taf_trigger": false,
      "metar": "",
      "taf": "TAF EHEH 282326Z 2900/3006 03006KT 7000 BKN008 OVC012"
    },
    {
      "icao": "EKBI",
      "alert": "OK",
      "vis_m": 9999,
      "fzfg": false,
      "metar_trigger": false,
      "taf_trigger": false,
      "metar": "METAR EKBI 290550Z 07015KT 9999 BKN019 M02/M05 Q1007",
      "taf": "TAF EKBI 290527Z 2906/3006 08015KT 9999 BKN020"
    },
    {
      "icao": "EKCH",
      "alert": "OK",
      "vis_m": 9999,
      "fzfg": false,
      "metar_trigger": false,
      "taf_trigger": false,
      "metar": "METAR EKCH 290550Z AUTO 05015KT 9999 OVC024/// M02/M06 Q1009 NOSIG",
      "taf": "TAF EKCH 290527Z 2906/3006 05015KT 9999 BKN018"
    },
    {
      "icao": "ENAL",
      "alert": "OK",
      "vis_m": 9999,
      "fzfg": false,
      "metar_trigger": false,
      "taf_trigger": false,
      "metar": "METAR ENAL 290550Z 15012KT 9999 BKN035 M01/M07 Q1011",
      "taf": "TAF ENAL 290500Z 2906/2915 14008KT 9999 BKN030"
    },
    {
      "icao": "ENBR",
      "alert": "OK",
      "vis_m": 9999,
      "fzfg": false,
      "metar_trigger": false,
      "taf_trigger": false,
      "metar": "METAR ENBR 290550Z 13004KT 9999 SCT035 M04/M07 Q1011 NOSIG RMK WIND 1200FT 17008KT",
      "taf": "TAF ENBR 290500Z 2906/3006 VRB03KT 9999 SCT030"
    },
    {
      "icao": "ENGM",
      "alert": "OK",
      "vis_m": 9999,
      "fzfg": false,
      "metar_trigger": false,
      "taf_trigger": false,
      "metar": "METAR ENGM 290550Z 01005KT 9999 SCT030 M12/M15 Q1015 NOSIG",
      "taf": "TAF ENGM 290500Z 2906/3006 02007KT 9999 BKN030"
    },
    {
      "icao": "ENHD",
      "alert": "OK",
      "vis_m": 9999,
      "fzfg": false,
      "metar_trigger": false,
      "taf_trigger": false,
      "metar": "METAR ENHD 290550Z 10006KT CAVOK M05/M13 Q1012",
      "taf": "TAF ENHD 290500Z 2906/2915 10008KT CAVOK"
    },
    {
      "icao": "ENTC",
      "alert": "OK",
      "vis_m": 9999,
      "fzfg": false,
      "metar_trigger": false,
      "taf_trigger": false,
      "metar": "METAR ENTC 290550Z 23006KT 180V260 9999 BKN007 M07/M08 Q1020 RMK WIND 2600FT 15004KT",
      "taf": "TAF ENTC 290500Z 2906/3006 22005KT 9999 FEW007 SCT025"
    },
    {
      "icao": "ENTO",
      "alert": "OK",
      "vis_m": 9999,
      "fzfg": false,
      "metar_trigger": false,
      "taf_trigger": false,
      "metar": "METAR ENTO 290550Z 01008KT 9999 OVC015 M09/M11 Q1016 NOSIG",
      "taf": "TAF ENTO 290500Z 2906/3006 02008KT 9999 -SN BKN025"
    },
    {
      "icao": "ENVA",
      "alert": "OK",
      "vis_m": 9999,
      "fzfg": false,
      "metar_trigger": false,
      "taf_trigger": false,
      "metar": "METAR ENVA 290550Z 08005KT CAVOK M17/M20 Q1016 NOSIG RMK WIND 670FT 10003KT",
      "taf": "TAF ENVA 290500Z 2906/3006 10008KT CAVOK"
    },
    {
      "icao": "ENZV",
      "alert": "OK",
      "vis_m": 9999,
      "fzfg": false,
      "metar_trigger": false,
      "taf_trigger": false,
      "metar": "METAR ENZV 290550Z VRB02KT CAVOK M09/M13 Q1012 NOSIG",
      "taf": ""
    },
    {
      "icao": "EPGD",
      "alert": "OK",
      "vis_m": 9999,
      "fzfg": false,
      "metar_trigger": false,
      "taf_trigger": false,
      "metar": "METAR EPGD 290530Z 07011KT 020V080 9999 OVC004 M07/M08 Q1007",
      "taf": "TAF EPGD 290530Z 2906/3006 08010KT 9999 OVC007"
    },
    {
      "icao": "EPKK",
      "alert": "OK",
      "vis_m": 5000,
      "fzfg": false,
      "metar_trigger": false,
      "taf_trigger": false,
      "metar": "METAR EPKK 290530Z 07013KT 5000 -SG BR OVC007 M01/M02 Q0999",
      "taf": ""
    },
    {
      "icao": "EPKT",
      "alert": "OK",
      "vis_m": 8000,
      "fzfg": false,
      "metar_trigger": false,
      "taf_trigger": false,
      "metar": "METAR EPKT 290530Z 06008KT 8000 OVC006 M01/M02 Q0999",
      "taf": "TAF EPKT 290530Z 2906/3006 06010KT 9999 -SN OVC008"
    },
    {
      "icao": "EPLB",
      "alert": "OK",
      "vis_m": 7000,
      "fzfg": false,
      "metar_trigger": false,
      "taf_trigger": false,
      "metar": "METAR EPLB 290530Z 03006KT 7000 BKN006 OVC021 M00/M01 Q1001",
      "taf": "TAF EPLB 290530Z 2906/3006 02007KT 7000 BKN018"
    },
    {
      "icao": "EPMO",
      "alert": "OK",
      "vis_m": 6000,
      "fzfg": false,
      "metar_trigger": false,
      "taf_trigger": false,
      "metar": "METAR EPMO 290530Z 03008KT 6000 BKN008 BKN020 M05/M05 Q1003",
      "taf": "TAF EPMO 290530Z 2906/3006 04010KT 7000 SCT008 BKN020"
    },
    {
      "icao": "EPPO",
      "alert": "OK",
      "vis_m": 6000,
      "fzfg": false,
      "metar_trigger": false,
      "taf_trigger": false,
      "metar": "METAR EPPO 290530Z 06009KT 6000 OVC007 M03/M05 Q1003",
      "taf": "TAF EPPO 290530Z 2906/3006 04010KT 7000 OVC008"
    },
    {
      "icao": "EPRA",
      "alert": "OK",
      "vis_m": 7000,
      "fzfg": false,
      "metar_trigger": false,
      "taf_trigger": false,
      "metar": "METAR EPRA 290530Z 06005KT 7000 BKN005 M01/M01 Q1002",
      "taf": "TAF EPRA 290530Z 2906/2915 06008KT 8000 OVC007"
    },
    {
      "icao": "EPRZ",
      "alert": "OK",
      "vis_m": 6000,
      "fzfg": false,
      "metar_trigger": false,
      "taf_trigger": false,
      "metar": "METAR EPRZ 290530Z 04008KT 6000 OVC003 M01/M01 Q1000",
      "taf": "TAF EPRZ 290530Z 2906/3006 04008KT 7000 OVC003"
    },
    {
      "icao": "EPSC",
      "alert": "OK",
      "vis_m": 8000,
      "fzfg": false,
      "metar_trigger": false,
      "taf_trigger": false,
      "metar": "METAR EPSC 290530Z 06006KT 030V090 8000 OVC005 M03/M03 Q1005",
      "taf": "TAF EPSC 290530Z 2906/3006 08010KT 9999 OVC007"
    },
    {
      "icao": "EPSY",
      "alert": "OK",
      "vis_m": 7000,
      "fzfg": false,
      "metar_trigger": false,
      "taf_trigger": false,
      "metar": "METAR EPSY 290530Z 03009KT 7000 OVC006 M08/M09 Q1005",
      "taf": "TAF EPSY 290530Z 2906/2915 02010KT 7000 OVC006"
    },
    {
      "icao": "EPWA",
      "alert": "OK",
      "vis_m": 8000,
      "fzfg": false,
      "metar_trigger": false,
      "taf_trigger": false,
      "metar": "METAR EPWA 290530Z 03007KT 8000 BKN007 M03/M04 Q1003 NOSIG",
      "taf": "TAF EPWA 290530Z 2906/3006 03008KT 8000 OVC007"
    },
    {
      "icao": "EPWR",
      "alert": "OK",
      "vis_m": 9999,
      "fzfg": false,
      "metar_trigger": false,
      "taf_trigger": false,
      "metar": "METAR EPWR 290530Z 06005KT 9999 OVC013 M01/M03 Q1001",
      "taf": "TAF EPWR 290530Z 2906/3006 05009KT 9999 OVC013"
    },
    {
      "icao": "ESGG",
      "alert": "OK",
      "vis_m": 9999,
      "fzfg": false,
      "metar_trigger": false,
      "taf_trigger": false,
      "metar": "METAR ESGG 290550Z 04009KT 9999 OVC027 M05/M07 Q1011",
      "taf": "TAF ESGG 290530Z 2906/3006 04007KT 9999 OVC030"
    },
    {
      "icao": "ESKN",
      "alert": "OK",
      "vis_m": 9999,
      "fzfg": false,
      "metar_trigger": false,
      "taf_trigger": false,
      "metar": "METAR ESKN 290550Z 02008KT 9999 BKN030 M06/M08 Q1015",
      "taf": "TAF ESKN 290530Z 2906/3006 02007KT 9999 BKN035"
    },
    {
      "icao": "ESMS",
      "alert": "OK",
      "vis_m": 9999,
      "fzfg": false,
      "metar_trigger": false,
      "taf_trigger": false,
      "metar": "METAR ESMS 290550Z 08013KT 9999 OVC023 M02/M06 Q1008",
      "taf": "TAF ESMS 290527Z 2906/3006 05012KT 9999 OVC020"
    },
    {
      "icao": "ESSA",
      "alert": "OK",
      "vis_m": 9999,
      "fzfg": false,
      "metar_trigger": false,
      "taf_trigger": false,
      "metar": "METAR ESSA 290550Z 02008KT 9999 BKN020 M07/M08 Q1017 NOSIG",
      "taf": "TAF ESSA 290530Z 2906/3006 03008KT 9999 BKN015"
    },
    {
      "icao": "EYKA",
      "alert": "OK",
      "vis_m": 9999,
      "fzfg": false,
      "metar_trigger": false,
      "taf_trigger": false,
      "metar": "METAR EYKA 290550Z 03006KT 340V060 9999 OVC017 M09/M11 Q1007",
      "taf": "TAF EYKA 290509Z 2906/3006 03010KT 9000 OVC015"
    },
    {
      "icao": "EYPA",
      "alert": "OK",
      "vis_m": 9999,
      "fzfg": false,
      "metar_trigger": false,
      "taf_trigger": false,
      "metar": "METAR EYPA 290550Z 06009KT 9999 -SN OVC020 M10/M13 Q1011",
      "taf": "TAF EYPA 290509Z 2906/3006 05013KT 9000 OVC015"
    },
    {
      "icao": "EYVI",
      "alert": "OK",
      "vis_m": 9999,
      "fzfg": false,
      "metar_trigger": false,
      "taf_trigger": false,
      "metar": "METAR EYVI 290550Z 05010KT 9999 OVC005 M09/M10 Q1005 NOSIG",
      "taf": "TAF EYVI 290507Z 2906/3006 06012KT 7000 OVC005"
    },
    {
      "icao": "GCFV",
      "alert": "OK",
      "vis_m": 9999,
      "fzfg": false,
      "metar_trigger": false,
      "taf_trigger": false,
      "metar": "METAR GCFV 290530Z AUTO 29006KT 270V330 9999 OVC032 18/14 Q1022",
      "taf": "TAF GCFV 290200Z 2903/3003 32003KT 9999 FEW020 BKN025 TX23/2914Z TN14/2906Z"
    },
    {
      "icao": "GCLP",
      "alert": "OK",
      "vis_m": 9999,
      "fzfg": false,
      "metar_trigger": false,
      "taf_trigger": false,
      "metar": "METAR GCLP 290530Z 36008KT 9999 BKN035 18/12 Q1023 NOSIG",
      "taf": "TAF GCLP 290200Z 2903/3003 33003KT 9999 FEW020 BKN030 TX22/2914Z TN15/2906Z"
    },
    {
      "icao": "GCTS",
      "alert": "OK",
      "vis_m": 9999,
      "fzfg": false,
      "metar_trigger": false,
      "taf_trigger": false,
      "metar": "METAR GCTS 290530Z 00000KT 9999 FEW010 BKN030 19/16 Q1023 NOSIG",
      "taf": "TAF GCTS 290200Z 2903/3003 28003KT 9999 BKN030 TX23/2914Z TN16/2906Z"
    },
    {
      "icao": "GMAD",
      "alert": "OK",
      "vis_m": 6000,
      "fzfg": false,
      "metar_trigger": false,
      "taf_trigger": false,
      "metar": "METAR GMAD 290500Z 21004KT 6000 BKN006 15/15 Q1021 NOSIG",
      "taf": "TAF GMAD 290500Z 2906/3012 06008KT 6000 BKN006"
    },
    {
      "icao": "GMMN",
      "alert": "OK",
      "vis_m": 5000,
      "fzfg": false,
      "metar_trigger": false,
      "taf_trigger": false,
      "metar": "SPECI GMMN 290542Z 22012KT 5000 BKN006 BKN016 15/13 Q1020 NOSIG",
      "taf": "TAF GMMN 290500Z 2906/3012 22015KT 8000 BKN008 BKN016"
    },
    {
      "icao": "GMMX",
      "alert": "OK",
      "vis_m": 8000,
      "fzfg": false,
      "metar_trigger": false,
      "taf_trigger": false,
      "metar": "METAR GMMX 290530Z 27003KT 8000 FEW020 SCT080 14/12 Q1021 NOSIG",
      "taf": "TAF GMMX 290500Z 2906/3012 06006KT 8000 SCT020 SCT080"
    },
    {
      "icao": "HEGN",
      "alert": "OK",
      "vis_m": 9999,
      "fzfg": false,
      "metar_trigger": false,
      "taf_trigger": false,
      "metar": "METAR HEGN 290500Z 26006KT CAVOK 11/03 Q1021 NOSIG",
      "taf": "TAF HEGN 290500Z 2906/3012 30008KT 6000 NSC"
    },
    {
      "icao": "HEMA",
      "alert": "OK",
      "vis_m": 4000,
      "fzfg": false,
      "metar_trigger": false,
      "taf_trigger": false,
      "metar": "METAR HEMA 290500Z 28010KT 4000 DU NSC 17/02 Q1020 NOSIG",
      "taf": "TAF HEMA 290500Z 2906/3012 31008KT 6000 NSC"
    },
    {
      "icao": "HESH",
      "alert": "OK",
      "vis_m": 9999,
      "fzfg": false,
      "metar_trigger": false,
      "taf_trigger": false,
      "metar": "METAR HESH 290500Z 33007KT CAVOK 17/05 Q1020 NOSIG",
      "taf": "TAF HESH 290500Z 2906/3012 22008KT 6000 NSC"
    },
    {
      "icao": "HESX",
      "alert": "OK",
      "vis_m": 9999,
      "fzfg": false,
      "metar_trigger": false,
      "taf_trigger": false,
      "metar": "METAR HESX 290500Z 19005KT CAVOK 08/03 Q1020 NOSIG",
      "taf": "TAF HESX 290500Z 2906/3012 19012KT 9999 SCT025"
    },
    {
      "icao": "LATI",
      "alert": "OK",
      "vis_m": 9999,
      "fzfg": false,
      "metar_trigger": false,
      "taf_trigger": false,
      "metar": "METAR LATI 290550Z 08006KT 9999 SCT030 OVC070 10/06 Q0995 NOSIG",
      "taf": "TAF LATI 290500Z 2906/3006 VRB05KT 9999 SCT030 BKN060 TX13/2912Z TN09/3005Z"
    },
    {
      "icao": "LBPD",
      "alert": "OK",
      "vis_m": 7000,
      "fzfg": false,
      "metar_trigger": false,
      "taf_trigger": false,
      "metar": "METAR LBPD 290600Z AUTO VRB02KT 7000 BKN082/// OVC110/// 04/04 Q1000 NOSIG",
      "taf": "TAF LBPD 290500Z 2906/3006 VRB04KT 9999 BKN040"
    },
    {
      "icao": "LBSF",
      "alert": "OK",
      "vis_m": 9999,
      "fzfg": false,
      "metar_trigger": false,
      "taf_trigger": false,
      "metar": "METAR LBSF 290600Z 03004KT 340V110 9999 BKN083 03/02 Q0998 NOSIG",
      "taf": "TAF LBSF 290500Z 2906/3006 12010KT 9999 SCT040 BKN070"
    },
    {
      "icao": "LBWN",
      "alert": "OK",
      "vis_m": 9999,
      "fzfg": false,
      "metar_trigger": false,
      "taf_trigger": false,
      "metar": "METAR LBWN 290600Z AUTO 06003KT 030V150 9999 NCD 06/06 Q1000 NOSIG",
      "taf": "TAF LBWN 290500Z 2906/3006 09010KT 9999 SCT020 BKN045"
    },
    {
      "icao": "LCLK",
      "alert": "OK",
      "vis_m": 9999,
      "fzfg": false,
      "metar_trigger": false,
      "taf_trigger": false,
      "metar": "METAR LCLK 290530Z 27003KT 9999 FEW020TCU 11/09 Q1016 NOSIG",
      "taf": "TAF LCLK 290530Z 2906/3006 26010KT 9999 FEW030 SCT040"
    },
    {
      "icao": "LCPH",
      "alert": "OK",
      "vis_m": 9999,
      "fzfg": false,
      "metar_trigger": false,
      "taf_trigger": false,
      "metar": "METAR LCPH 290530Z 08007KT 010V080 9999 FEW030 SCT040 11/09 Q1016 NOSIG",
      "taf": "TAF LCPH 290530Z 2906/3006 07007KT 9999 FEW030 SCT040"
    },
    {
      "icao": "LEAL",
      "alert": "OK",
      "vis_m": 9999,
      "fzfg": false,
      "metar_trigger": false,
      "taf_trigger": false,
      "metar": "METAR LEAL 290530Z VRB02KT 9999 OVC062 12/07 Q1004 NOSIG",
      "taf": "TAF LEAL 290500Z 2906/3006 VRB04KT 9999 FEW040 TX22/2914Z TN11/2906Z"
    },
    {
      "icao": "LEBB",
      "alert": "OK",
      "vis_m": 9999,
      "fzfg": false,
      "metar_trigger": false,
      "taf_trigger": false,
      "metar": "METAR LEBB 290530Z 16005KT 100V210 9999 FEW070 10/05 Q0997 NOSIG",
      "taf": "TAF LEBB 290500Z 2906/3006 22009KT 9999 FEW030 TX16/2914Z TN08/3002Z"
    },
    {
      "icao": "LEBL",
      "alert": "OK",
      "vis_m": 9999,
      "fzfg": false,
      "metar_trigger": false,
      "taf_trigger": false,
      "metar": "METAR LEBL 290530Z 30008KT 9999 FEW030 08/04 Q1001 NOSIG",
      "taf": "TAF LEBL 290500Z 2906/3006 VRB04KT 9999 FEW020 TX14/2912Z TN07/2906Z"
    },
    {
      "icao": "LECH",
      "alert": "OK",
      "vis_m": 9999,
      "fzfg": false,
      "metar_trigger": false,
      "taf_trigger": false,
      "metar": "METAR LECH 290530Z AUTO 00000KT CAVOK 06/03 Q1002",
      "taf": ""
    },
    {
      "icao": "LEMD",
      "alert": "OK",
      "vis_m": 8000,
      "fzfg": false,
      "metar_trigger": false,
      "taf_trigger": false,
      "metar": "METAR LEMD 290530Z 36003KT 330V070 8000 -RA OVC005 05/05 Q1002 NOSIG",
      "taf": "TAF LEMD 290500Z 2906/3012 VRB04KT 9999 SCT020 TX14/2915Z TN06/3007Z"
    },
    {
      "icao": "LEMG",
      "alert": "OK",
      "vis_m": 9999,
      "fzfg": false,
      "metar_trigger": false,
      "taf_trigger": false,
      "metar": "METAR LEMG 290530Z 27004KT 230V310 9999 FEW025 SCT055 BKN065 14/12 Q1010 NOSIG",
      "taf": "TAF LEMG 290500Z 2906/3006 29006KT 9999 FEW020 BKN025 TX19/2914Z TN11/3006Z"
    },
    {
      "icao": "LEVC",
      "alert": "OK",
      "vis_m": 9999,
      "fzfg": false,
      "metar_trigger": false,
      "taf_trigger": false,
      "metar": "METAR LEVC 290530Z 28004KT 9999 BKN036 10/06 Q1003 NOSIG",
      "taf": "TAF LEVC 290500Z 2906/3006 VRB04KT 9999 FEW030 TX21/2914Z TN10/2906Z"
    },
    {
      "icao": "LEXJ",
      "alert": "OK",
      "vis_m": 9999,
      "fzfg": false,
      "metar_trigger": false,
      "taf_trigger": false,
      "metar": "METAR LEXJ 290530Z 22011KT 170V250 9999 BKN065 12/04 Q0995",
      "taf": "TAF LEXJ 290200Z 2903/3003 22009KT 9999 FEW040 TX16/2914Z TN09/2905Z"
    },
    {
      "icao": "LEZG",
      "alert": "OK",
      "vis_m": 9999,
      "fzfg": false,
      "metar_trigger": false,
      "taf_trigger": false,
      "metar": "METAR LEZG 290530Z 07004KT 040V100 9999 BKN055 07/07 Q1002 NOSIG",
      "taf": "TAF LEZG 290500Z 2906/3006 10006KT 9999 FEW040 TX14/2913Z TN06/2906Z"
    },
    {
      "icao": "LEZL",
      "alert": "OK",
      "vis_m": 9999,
      "fzfg": false,
      "metar_trigger": false,
      "taf_trigger": false,
      "metar": "METAR LEZL 290530Z 23014KT 9999 BKN010 BKN040 17/16 Q1010 NOSIG",
      "taf": "TAF LEZL 290200Z 2903/3003 24012KT 8000 FEW010 BKN016 TX18/2915Z TN14/2907Z"
    },
    {
      "icao": "LFBD",
      "alert": "OK",
      "vis_m": 9999,
      "fzfg": false,
      "metar_trigger": false,
      "taf_trigger": false,
      "metar": "METAR LFBD 290530Z AUTO 15003KT CAVOK 05/05 Q0997 NOSIG",
      "taf": "TAF LFBD 290500Z 2906/3012 VRB03KT CAVOK TX12/2915Z TN05/2906Z"
    },
    {
      "icao": "LFLL",
      "alert": "OK",
      "vis_m": 9999,
      "fzfg": false,
      "metar_trigger": false,
      "taf_trigger": false,
      "metar": "METAR LFLL 290530Z 12005KT CAVOK 04/03 Q0999 TEMPO 4000 BR",
      "taf": "TAF LFLL 290500Z 2906/3012 VRB02KT 9999 FEW013 SCT050"
    },
    {
      "icao": "LFLS",
      "alert": "OK",
      "vis_m": 9000,
      "fzfg": true,
      "metar_trigger": false,
      "taf_trigger": false,
      "metar": "METAR LFLS 290530Z AUTO 07006KT 9000 SCT002 SCT013 BKN034 02/02 Q0998 TEMPO 0400 FZFG VV///",
      "taf": "TAF LFLS 290200Z 2903/3003 09005KT 7000 OVC009"
    },
    {
      "icao": "LFMN",
      "alert": "OK",
      "vis_m": 9999,
      "fzfg": false,
      "metar_trigger": false,
      "taf_trigger": false,
      "metar": "METAR LFMN 290530Z 34008KT CAVOK 06/03 Q0992 NOSIG",
      "taf": "TAF LFMN 290200Z 2903/3009 33010KT CAVOK"
    },
    {
      "icao": "LFOB",
      "alert": "OK",
      "vis_m": 500,
      "fzfg": true,
      "metar_trigger": false,
      "taf_trigger": false,
      "metar": "METAR LFOB 290530Z AUTO 08003KT 0500 0400 R30/0500N R12/0550N FG VV/// 00/00 Q0998 TEMPO 0400 FZFG",
      "taf": "TAF LFOB 290500Z 2906/3006 15005KT 3000 BR OVC003"
    },
    {
      "icao": "LFPO",
      "alert": "OK",
      "vis_m": 200,
      "fzfg": false,
      "metar_trigger": false,
      "taf_trigger": false,
      "metar": "METAR LFPO 290530Z 17005KT 150V220 0200 R02/0500D R25/0500D R07/0500D R24/0550N R06/0450N FG VV/// M00/M00 Q0998 NOSIG",
      "taf": "TAF LFPO 290500Z 2906/3012 16005KT 0800 FG VV///"
    },
    {
      "icao": "LFSB",
      "alert": "OK",
      "vis_m": 9999,
      "fzfg": false,
      "metar_trigger": false,
      "taf_trigger": false,
      "metar": "METAR LFSB 290530Z AUTO VRB02KT 9999 BKN011 BKN023 OVC049 03/02 Q0997 BECMG FEW010 BKN030",
      "taf": "TAF LFSB 290500Z 2906/3006 VRB03KT 9999 BKN009 OVC025"
    },
    {
      "icao": "LGAV",
      "alert": "OK",
      "vis_m": 9999,
      "fzfg": false,
      "metar_trigger": false,
      "taf_trigger": false,
      "metar": "METAR LGAV 290550Z 20014G27KT 9999 SCT015 BKN060 16/10 Q1001 NOSIG",
      "taf": "TAF LGAV 290500Z 2906/3006 19018KT 9999 SCT018 SCT070"
    },
    {
      "icao": "LGTS",
      "alert": "OK",
      "vis_m": 6000,
      "fzfg": false,
      "metar_trigger": false,
      "taf_trigger": false,
      "metar": "METAR LGTS 290550Z 00000KT 6000 -RA SCT008 BKN025 08/08 Q0999 NOSIG",
      "taf": "TAF LGTS 290500Z 2906/3006 34010KT 9999 FEW010 BKN025"
    },
    {
      "icao": "LHBP",
      "alert": "OK",
      "vis_m": 9999,
      "fzfg": false,
      "metar_trigger": false,
      "taf_trigger": false,
      "metar": "METAR LHBP 290530Z 07009KT 9999 FEW007 OVC017 04/03 Q0995 TEMPO BKN007 OVC020",
      "taf": "TAF LHBP 290515Z 2906/3006 06009KT 8000 -RA FEW007 OVC025"
    },
    {
      "icao": "LHDC",
      "alert": "OK",
      "vis_m": 9999,
      "fzfg": false,
      "metar_trigger": false,
      "taf_trigger": false,
      "metar": "METAR LHDC 290515Z AUTO 07006KT 9999 BKN018 OVC041 04/03 Q0996 NOSIG",
      "taf": "TAF LHDC 290515Z 2906/2915 05008KT 9999 -RA OVC045"
    },
    {
      "icao": "LIBD",
      "alert": "OK",
      "vis_m": 9999,
      "fzfg": false,
      "metar_trigger": false,
      "taf_trigger": false,
      "metar": "METAR LIBD 290550Z 27004KT 9999 RA SCT045 09/07 Q0994",
      "taf": "TAF LIBD 290500Z 2906/3006 VRB05KT 9999 FEW020 SCT050"
    },
    {
      "icao": "LIBG",
      "alert": "OK",
      "vis_m": null,
      "fzfg": false,
      "metar_trigger": false,
      "taf_trigger": false,
      "metar": "",
      "taf": ""
    },
    {
      "icao": "LIBP",
      "alert": "OK",
      "vis_m": 9999,
      "fzfg": false,
      "metar_trigger": false,
      "taf_trigger": false,
      "metar": "METAR LIBP 290550Z AUTO 24004KT 9999 BKN098/// 09/04 Q0994",
      "taf": "TAF LIBP 290500Z 2906/3006 VRB05KT 9999 SCT060"
    },
    {
      "icao": "LIBR",
      "alert": "OK",
      "vis_m": 9999,
      "fzfg": false,
      "metar_trigger": false,
      "taf_trigger": false,
      "metar": "METAR LIBR 290550Z 17003KT 9999 FEW045 10/08 Q0993",
      "taf": "TAF LIBR 290500Z 2906/3006 17008KT 9999 SCT020"
    },
    {
      "icao": "LICA",
      "alert": "OK",
      "vis_m": 9999,
      "fzfg": false,
      "metar_trigger": false,
      "taf_trigger": false,
      "metar": "METAR LICA 290550Z AUTO 05003KT 030V100 9999 -RA OVC060/// 10/09 Q0993",
      "taf": "TAF LICA 290500Z 2906/3006 07010KT 9999 SCT040"
    },
    {
      "icao": "LICC",
      "alert": "OK",
      "vis_m": 9999,
      "fzfg": false,
      "metar_trigger": false,
      "taf_trigger": false,
      "metar": "METAR LICC 290550Z 26017G28KT 9999 -RA SCT030 BKN060 12/09 Q0993",
      "taf": "TAF LICC 290500Z 2906/3006 26020G32KT 9999 SCT030"
    },
    {
      "icao": "LICJ",
      "alert": "OK",
      "vis_m": 9999,
      "fzfg": false,
      "metar_trigger": false,
      "taf_trigger": false,
      "metar": "METAR LICJ 290550Z 29027KT 9999 -RA SCT016 BKN030 15/12 Q0995",
      "taf": "TAF LICJ 290500Z 2906/3006 29026G36KT 9999 SCT040"
    },
    {
      "icao": "LIMC",
      "alert": "OK",
      "vis_m": 700,
      "fzfg": false,
      "metar_trigger": false,
      "taf_trigger": false,
      "metar": "METAR LIMC 290550Z 18001KT 0700 R35R/0650N R17L/0600U R35L/0325N FG NSC 03/03 Q0992 NOSIG",
      "taf": "TAF LIMC 290500Z 2906/3012 VRB05KT 6000 BKN020"
    },
    {
      "icao": "LIME",
      "alert": "OK",
      "vis_m": 1500,
      "fzfg": false,
      "metar_trigger": false,
      "taf_trigger": false,
      "metar": "METAR LIME 290550Z VRB02KT 1500 BR BKN002 05/05 Q0992 NOSIG",
      "taf": "TAF LIME 290500Z 2906/3006 VRB04KT 6000 SCT010 BKN025"
    },
    {
      "icao": "LIMF",
      "alert": "OK",
      "vis_m": 300,
      "fzfg": false,
      "metar_trigger": false,
      "taf_trigger": false,
      "metar": "METAR LIMF 290550Z 29004KT 0300 R36/0700D FG SCT001 01/00 Q0992",
      "taf": ""
    },
    {
      "icao": "LIMJ",
      "alert": "OK",
      "vis_m": 9999,
      "fzfg": false,
      "metar_trigger": false,
      "taf_trigger": false,
      "metar": "METAR LIMJ 290550Z 04008KT 9999 FEW040 SCT060 08/03 Q0992",
      "taf": "TAF LIMJ 290500Z 2906/3006 04008KT 9999 SCT040"
    },
    {
      "icao": "LIPE",
      "alert": "OK",
      "vis_m": 2500,
      "fzfg": false,
      "metar_trigger": false,
      "taf_trigger": false,
      "metar": "METAR LIPE 290550Z VRB01KT 2500 BR NSC 03/03 Q0993",
      "taf": "TAF LIPE 290500Z 2906/3006 VRB05KT 4000 BR SCT020"
    },
    {
      "icao": "LIPH",
      "alert": "OK",
      "vis_m": 650,
      "fzfg": false,
      "metar_trigger": false,
      "taf_trigger": false,
      "metar": "METAR LIPH 290550Z AUTO VRB02KT 0650 R07/1600D FG OVC002/// 05/05 Q0993",
      "taf": "TAF LIPH 290500Z 2906/3006 VRB05KT 0800 FG BKN002"
    },
    {
      "icao": "LIPQ",
      "alert": "OK",
      "vis_m": 9999,
      "fzfg": false,
      "metar_trigger": false,
      "taf_trigger": false,
      "metar": "METAR LIPQ 290550Z AUTO 22003KT 9999 BKN010/// 08/07 Q0994",
      "taf": "TAF LIPQ 290500Z 2906/3006 VRB05KT 2000 BR OVC005"
    },
    {
      "icao": "LIPR",
      "alert": "OK",
      "vis_m": 100,
      "fzfg": false,
      "metar_trigger": false,
      "taf_trigger": false,
      "metar": "METAR LIPR 290550Z AUTO VRB01KT 0100 R30/0500N FG VV002 04/04 Q0994",
      "taf": "TAF LIPR 290500Z 2906/3006 VRB05KT 3000 BR FEW005"
    },
    {
      "icao": "LIPX",
      "alert": "OK",
      "vis_m": 200,
      "fzfg": false,
      "metar_trigger": false,
      "taf_trigger": false,
      "metar": "METAR LIPX 290550Z VRB02KT 0200 R04/1800D FG VV003 05/05 Q0993",
      "taf": "TAF LIPX 290500Z 2906/3006 24006KT 6000 SCT020"
    },
    {
      "icao": "LIPY",
      "alert": "OK",
      "vis_m": 9999,
      "fzfg": false,
      "metar_trigger": false,
      "taf_trigger": false,
      "metar": "METAR LIPY 290550Z AUTO 19004KT 130V250 9999 -RA OVC057/// 07/05 Q0994",
      "taf": "TAF LIPY 290500Z 2906/3006 VRB05KT 9999 FEW030 BKN070"
    },
    {
      "icao": "LIPZ",
      "alert": "OK",
      "vis_m": 300,
      "fzfg": false,
      "metar_trigger": false,
      "taf_trigger": false,
      "metar": "METAR LIPZ 290550Z VRB02KT 0300 R04R/1900U FG BKN002 05/05 Q0993 NOSIG",
      "taf": "TAF LIPZ 290500Z 2906/3012 24006KT 0400 FG OVC001"
    },
    {
      "icao": "LIRF",
      "alert": "OK",
      "vis_m": 7000,
      "fzfg": false,
      "metar_trigger": false,
      "taf_trigger": false,
      "metar": "METAR LIRF 290550Z VRB05KT 7000 SHRA SCT025 BKN040 09/08 Q0994 NOSIG",
      "taf": "TAF LIRF 290500Z 2906/3012 07007KT 9999 SCT030"
    },
    {
      "icao": "LIRN",
      "alert": "OK",
      "vis_m": 8000,
      "fzfg": false,
      "metar_trigger": false,
      "taf_trigger": false,
      "metar": "METAR LIRN 290550Z 36006KT 340V050 8000 -DZ SCT050 09/08 Q0994 NOSIG",
      "taf": "TAF LIRN 290500Z 2906/3006 04008KT 9999 SCT030"
    },
    {
      "icao": "LIRP",
      "alert": "OK",
      "vis_m": 9999,
      "fzfg": false,
      "metar_trigger": false,
      "taf_trigger": false,
      "metar": "METAR LIRP 290545Z 10005KT 9999 SCT030 SCT040 08/08 Q0992 NOSIG",
      "taf": "TAF LIRP 290500Z 2906/3006 12007KT 9999 SCT020 SCT050"
    },
    {
      "icao": "LIRZ",
      "alert": "OK",
      "vis_m": 9999,
      "fzfg": false,
      "metar_trigger": false,
      "taf_trigger": false,
      "metar": "METAR LIRZ 290550Z AUTO VRB02KT 9999 -RA BKN015/// BKN029/// BKN044/// 07/06 Q0995",
      "taf": "TAF LIRZ 290500Z 2906/3006 VRB05KT 7000 BKN025"
    },
    {
      "icao": "LJLJ",
      "alert": "OK",
      "vis_m": 5000,
      "fzfg": false,
      "metar_trigger": false,
      "taf_trigger": false,
      "metar": "METAR LJLJ 290530Z 33002KT 5000 BR FEW003 BKN025 BKN040 03/03 Q0993 NOSIG",
      "taf": "TAF LJLJ 290500Z 2906/3006 29005KT 7000 FEW005 BKN025"
    },
    {
      "icao": "LKMT",
      "alert": "OK",
      "vis_m": 4000,
      "fzfg": false,
      "metar_trigger": false,
      "taf_trigger": false,
      "metar": "METAR LKMT 290530Z 04010KT 4000 -SN BR OVC003 00/M00 Q0998 NOSIG",
      "taf": "TAF LKMT 290500Z 2906/3006 03009KT 4000 -SN BR SCT003 OVC005"
    },
    {
      "icao": "LKPR",
      "alert": "OK",
      "vis_m": 2700,
      "fzfg": false,
      "metar_trigger": false,
      "taf_trigger": false,
      "metar": "METAR LKPR 290530Z 05009KT 2700 SG BR OVC002 M01/M01 Q0996 NOSIG",
      "taf": "TAF LKPR 290500Z 2906/3012 06009KT 3000 -SG BR OVC004"
    },
    {
      "icao": "LLBG",
      "alert": "OK",
      "vis_m": 9999,
      "fzfg": false,
      "metar_trigger": false,
      "taf_trigger": false,
      "metar": "METAR LLBG 290550Z 18010KT 9999 FEW035 13/11 Q1019 TEMPO 7000 RA FEW025TCU",
      "taf": "TAF LLBG 290500Z 2906/3006 18010KT 9999 SCT035"
    },
    {
      "icao": "LMML",
      "alert": "OK",
      "vis_m": 9999,
      "fzfg": false,
      "metar_trigger": false,
      "taf_trigger": false,
      "metar": "METAR LMML 290545Z 26027G42KT 9999 -RA FEW020 BKN040 15/09 Q1000 NOSIG",
      "taf": "TAF LMML 290500Z 2906/3006 28030G40KT 9999 FEW020"
    },
    {
      "icao": "LOWW",
      "alert": "OK",
      "vis_m": 5000,
      "fzfg": false,
      "metar_trigger": false,
      "taf_trigger": false,
      "metar": "METAR LOWW 290550Z VRB01KT 5000 0800W R29/P1500U R34/P1500D -RA BCFG FEW004 BKN006 03/02 Q0995 TEMPO 1200 RA BKN004 BECMG FM0700 34007KT",
      "taf": "TAF LOWW 290515Z 2906/3012 34007KT 4000 -RA OVC005 TX03/3012Z TN01/3006Z"
    },
    {
      "icao": "LPFR",
      "alert": "OK",
      "vis_m": 7000,
      "fzfg": false,
      "metar_trigger": false,
      "taf_trigger": false,
      "metar": "METAR LPFR 290530Z 24015KT 7000 SCT006 BKN012 16/15 Q1012",
      "taf": "TAF LPFR 290500Z 2906/3006 25018KT 8000 SCT008 BKN015"
    },
    {
      "icao": "LPMA",
      "alert": "OK",
      "vis_m": 9999,
      "fzfg": false,
      "metar_trigger": false,
      "taf_trigger": false,
      "metar": "METAR LPMA 290530Z 34006KT 9999 FEW015 16/13 Q1020",
      "taf": "TAF LPMA 290500Z 2906/3006 VRB05KT 9999 SCT015"
    },
    {
      "icao": "LPPR",
      "alert": "OK",
      "vis_m": 3100,
      "fzfg": false,
      "metar_trigger": false,
      "taf_trigger": false,
      "metar": "METAR LPPR 290530Z 23008KT 200V260 3100 RADZ BR SCT004 BKN006 FEW015CB 15/14 Q1002",
      "taf": "TAF LPPR 290500Z 2906/3006 21008KT 4000 -RADZ BR SCT004 BKN008"
    },
    {
      "icao": "LPPS",
      "alert": "OK",
      "vis_m": 9999,
      "fzfg": false,
      "metar_trigger": false,
      "taf_trigger": false,
      "metar": "METAR LPPS 290530Z 28014KT 9999 FEW014 BKN030 18/15 Q1020",
      "taf": "TAF LPPS 290500Z 2906/3012 27015KT 9999 SCT012 SCT030"
    },
    {
      "icao": "LPPT",
      "alert": "OK",
      "vis_m": 4000,
      "fzfg": false,
      "metar_trigger": false,
      "taf_trigger": false,
      "metar": "METAR LPPT 290530Z 24014KT 4000 -DZ BR BKN004 15/15 Q1007",
      "taf": "TAF LPPT 290500Z 2906/3012 23015KT 6000 -RA SCT004 BKN008"
    },
    {
      "icao": "LQBK",
      "alert": "OK",
      "vis_m": 600,
      "fzfg": false,
      "metar_trigger": false,
      "taf_trigger": false,
      "metar": "METAR LQBK 290530Z VRB01KT 0600 R16/0550N FG NSC 02/02 Q0993 NOSIG",
      "taf": "TAF LQBK 290500Z 2906/3006 16005KT 9999 SCT045 TX10/2913Z TN02/2906Z"
    },
    {
      "icao": "LQSA",
      "alert": "OK",
      "vis_m": 9999,
      "fzfg": false,
      "metar_trigger": false,
      "taf_trigger": false,
      "metar": "METAR LQSA 290530Z VRB02KT 9999 SCT055 01/01 Q0994 NOSIG",
      "taf": ""
    },
    {
      "icao": "LQTZ",
      "alert": "OK",
      "vis_m": 9999,
      "fzfg": false,
      "metar_trigger": false,
      "taf_trigger": false,
      "metar": "METAR LQTZ 290530Z VRB02KT CAVOK 04/04 Q0994",
      "taf": "TAF LQTZ 290500Z 2906/3006 27005KT 9999 SCT050 TX13/2913Z TN02/2906Z"
    },
    {
      "icao": "LRBC",
      "alert": "OK",
      "vis_m": 8000,
      "fzfg": false,
      "metar_trigger": false,
      "taf_trigger": false,
      "metar": "METAR LRBC 290530Z 34006KT 8000 OVC005 01/01 Q0998",
      "taf": "TAF LRBC 290500Z 2906/2915 VRB04KT 7000 OVC005"
    },
    {
      "icao": "LRBS",
      "alert": "OK",
      "vis_m": 7000,
      "fzfg": false,
      "metar_trigger": false,
      "taf_trigger": false,
      "metar": "METAR LRBS 290530Z 19002KT 7000 MIFG NSC 02/02 Q0999 TEMPO 3000 BR",
      "taf": "TAF LRBS 290500Z 2906/3006 VRB04KT 5000 BR NSC"
    },
    {
      "icao": "LRBV",
      "alert": "OK",
      "vis_m": 9999,
      "fzfg": false,
      "metar_trigger": false,
      "taf_trigger": false,
      "metar": "METAR LRBV 290530Z VRB02KT 9999 FEW023 SCT056 BKN067 02/00 Q0996",
      "taf": "TAF LRBV 290500Z 2906/2915 20010KT 9999 BKN050"
    },
    {
      "icao": "LRCL",
      "alert": "OK",
      "vis_m": 4000,
      "fzfg": false,
      "metar_trigger": false,
      "taf_trigger": false,
      "metar": "METAR LRCL 290530Z 00000KT 4000 -RA BR OVC041 01/01 Q0996",
      "taf": "TAF LRCL 290500Z 2906/2915 VRB04KT 3000 -RA BR BKN040"
    },
    {
      "icao": "LRCV",
      "alert": "OK",
      "vis_m": 5000,
      "fzfg": false,
      "metar_trigger": false,
      "taf_trigger": false,
      "metar": "METAR LRCV 290530Z 09003KT 5000 BR BKN049 02/02 Q0998",
      "taf": "TAF LRCV 290500Z 2906/2915 08007KT 5000 BR OVC045"
    },
    {
      "icao": "LRIA",
      "alert": "OK",
      "vis_m": 200,
      "fzfg": false,
      "metar_trigger": false,
      "taf_trigger": false,
      "metar": "METAR LRIA 290530Z 30003KT 260V320 0200 R14/0650N FG VV001 01/01 Q0998",
      "taf": "TAF LRIA 290500Z 2906/2915 30007KT 0150 FG VV001"
    },
    {
      "icao": "LROP",
      "alert": "OK",
      "vis_m": 4000,
      "fzfg": false,
      "metar_trigger": false,
      "taf_trigger": false,
      "metar": "METAR LROP 290530Z 21003KT 4000 BR NSC 01/01 Q0998 TEMPO 3000 BR",
      "taf": "TAF LROP 290500Z 2906/3006 VRB04KT 5000 BR NSC"
    },
    {
      "icao": "LRSB",
      "alert": "OK",
      "vis_m": 9999,
      "fzfg": false,
      "metar_trigger": false,
      "taf_trigger": false,
      "metar": "METAR LRSB 290530Z 28004KT 240V300 9999 SCT050 BKN070 02/02 Q0996 NOSIG",
      "taf": "TAF LRSB 290500Z 2906/3006 VRB04KT 9999 SCT035 BKN060"
    },
    {
      "icao": "LRSM",
      "alert": "OK",
      "vis_m": 9999,
      "fzfg": false,
      "metar_trigger": false,
      "taf_trigger": false,
      "metar": "METAR LRSM 290530Z 08002KT CAVOK 04/02 Q0996",
      "taf": "TAF LRSM 290500Z 2906/2915 10006KT 9999 BKN040"
    },
    {
      "icao": "LRSV",
      "alert": "OK",
      "vis_m": 5000,
      "fzfg": false,
      "metar_trigger": false,
      "taf_trigger": false,
      "metar": "METAR LRSV 290530Z 33008KT 5000 BR SCT005 M01/M01 Q0997",
      "taf": "TAF LRSV 290500Z 2906/2915 32007KT 5000 BR SCT005 BKN045"
    },
    {
      "icao": "LRTM",
      "alert": "OK",
      "vis_m": 1300,
      "fzfg": false,
      "metar_trigger": false,
      "taf_trigger": false,
      "metar": "METAR LRTM 290530Z 26003KT 1300 R07/1500N BR BKN001 OVC003 00/00 Q0997",
      "taf": "TAF LRTM 290500Z 2906/2915 VRB04KT 1500 BR BKN002 OVC005"
    },
    {
      "icao": "LRTR",
      "alert": "OK",
      "vis_m": 9999,
      "fzfg": false,
      "metar_trigger": false,
      "taf_trigger": false,
      "metar": "METAR LRTR 290530Z 10010KT 9999 -RA OVC035 06/06 Q0995 NOSIG",
      "taf": "TAF LRTR 290500Z 2906/3006 11010KT 9999 -RA OVC040"
    },
    {
      "icao": "LTAC",
      "alert": "OK",
      "vis_m": 1200,
      "fzfg": false,
      "metar_trigger": false,
      "taf_trigger": false,
      "metar": "METAR LTAC 290550Z 03004KT 1200 R03C/P1500N R21C/P1500U R03L/1000U R03R/0450N BCFG SCT001 SCT180 01/00 Q1011 BECMG 2000 BR RMK RWY21C VRB01KT RWY03L 02002KT RWY21R VRB01KT RWY03R 00000KT RWY21L 02001KT",
      "taf": "TAF LTAC 290440Z 2906/3006 VRB02KT 2000 BCFG BKN010"
    },
    {
      "icao": "LTFM",
      "alert": "OK",
      "vis_m": 9999,
      "fzfg": false,
      "metar_trigger": false,
      "taf_trigger": false,
      "metar": "METAR LTFM 290550Z 21022KT 9999 FEW035 BKN100 14/07 Q1003 NOSIG RMK RWY17L 21022KT RWY34L 20020KT RWY16R 20018KT RWY36 21018KT RWY18 21024KT",
      "taf": "TAF LTFM 290440Z 2906/3012 21020G33KT 9999 SCT035 BKN100"
    },
    {
      "icao": "LUKK",
      "alert": "OK",
      "vis_m": 350,
      "fzfg": false,
      "metar_trigger": false,
      "taf_trigger": false,
      "metar": "METAR LUKK 290530Z 34002KT 0350 R08/0450N FG VV001 02/02 Q0999 TEMPO 0200 FG",
      "taf": "TAF LUKK 290516Z 2906/3006 VRB05KT 0500 FG VV002"
    },
    {
      "icao": "LWOH",
      "alert": "OK",
      "vis_m": null,
      "fzfg": false,
      "metar_trigger": false,
      "taf_trigger": false,
      "metar": "",
      "taf": ""
    },
    {
      "icao": "LWSK",
      "alert": "OK",
      "vis_m": 3000,
      "fzfg": false,
      "metar_trigger": false,
      "taf_trigger": false,
      "metar": "METAR LWSK 290550Z 17003KT 3000 BR FEW023 BKN080 01/01 Q0999 NOSIG",
      "taf": ""
    },
    {
      "icao": "LYBE",
      "alert": "OK",
      "vis_m": 9999,
      "fzfg": false,
      "metar_trigger": false,
      "taf_trigger": false,
      "metar": "METAR LYBE 290530Z 15009KT CAVOK 08/05 Q0994 NOSIG",
      "taf": "TAF LYBE 290500Z 2906/3006 16005KT CAVOK TX14/2913Z TN04/3006Z"
    },
    {
      "icao": "LYNI",
      "alert": "OK",
      "vis_m": 9999,
      "fzfg": false,
      "metar_trigger": false,
      "taf_trigger": false,
      "metar": "METAR LYNI 290530Z VRB02KT CAVOK 06/03 Q0997 NOSIG",
      "taf": "TAF LYNI 290500Z 2906/3006 09005KT 9999 SCT060 TX13/2913Z TN04/3006Z"
    },
    {
      "icao": "LYPG",
      "alert": "OK",
      "vis_m": 9999,
      "fzfg": false,
      "metar_trigger": false,
      "taf_trigger": false,
      "metar": "METAR LYPG 290530Z 33004KT 9999 BKN070 06/06 Q0996 NOSIG",
      "taf": "TAF LYPG 290500Z 2906/3006 36005KT 9999 SCT040 TX13/2913Z TN06/3005Z"
    },
    {
      "icao": "LZIB",
      "alert": "OK",
      "vis_m": 6000,
      "fzfg": false,
      "metar_trigger": false,
      "taf_trigger": false,
      "metar": "METAR LZIB 290530Z 03007KT 6000 -RA SCT006 BKN007 OVC024 04/03 Q0995 NOSIG",
      "taf": "TAF LZIB 290515Z 2906/3006 03009KT 6000 -RA SCT004 OVC010"
    },
    {
      "icao": "LZKZ",
      "alert": "OK",
      "vis_m": 9999,
      "fzfg": false,
      "metar_trigger": false,
      "taf_trigger": false,
      "metar": "METAR LZKZ 290530Z 01010KT 9999 FEW014 BKN042 02/01 Q0997 NOSIG",
      "taf": "TAF LZKZ 290515Z 2906/3006 01015KT 9999 SCT013 OVC020"
    },
    {
      "icao": "LZTT",
      "alert": "OK",
      "vis_m": 6000,
      "fzfg": false,
      "metar_trigger": false,
      "taf_trigger": false,
      "metar": "METAR LZTT 290530Z 07005KT 6000 -SN FEW005 BKN010 OVC016 M01/M01 Q0996",
      "taf": "TAF LZTT 290515Z 2906/3006 07007KT 6000 -SN SCT010 BKN018"
    },
    {
      "icao": "OEJN",
      "alert": "OK",
      "vis_m": 9999,
      "fzfg": false,
      "metar_trigger": false,
      "taf_trigger": false,
      "metar": "METAR OEJN 290600Z 01009KT CAVOK 23/11 Q1018 NOSIG",
      "taf": "TAF OEJN 290500Z 2906/3012 33013KT CAVOK"
    },
    {
      "icao": "OEMA",
      "alert": "OK",
      "vis_m": 9999,
      "fzfg": false,
      "metar_trigger": false,
      "taf_trigger": false,
      "metar": "METAR OEMA 290600Z 02004KT CAVOK 16/M01 Q1024 NOSIG",
      "taf": "TAF OEMA 290500Z 2906/3012 09010KT CAVOK"
    },
    {
      "icao": "OJAI",
      "alert": "OK",
      "vis_m": 4000,
      "fzfg": false,
      "metar_trigger": false,
      "taf_trigger": false,
      "metar": "METAR OJAI 290500Z 25010KT 4000 BR FEW030 08/07 Q1020 NOSIG",
      "taf": "TAF OJAI 290500Z 2906/3012 24014KT 3000 BR SCT025TCU BKN030"
    },
    {
      "icao": "OMAA",
      "alert": "OK",
      "vis_m": 9999,
      "fzfg": false,
      "metar_trigger": false,
      "taf_trigger": false,
      "metar": "METAR OMAA 290600Z 17010KT CAVOK 21/12 Q1018 NOSIG",
      "taf": "TAF OMAA 290500Z 2906/3012 19007KT 8000 NSC"
    },
    {
      "icao": "OMDB",
      "alert": "OK",
      "vis_m": 9999,
      "fzfg": false,
      "metar_trigger": false,
      "taf_trigger": false,
      "metar": "METAR OMDB 290600Z 20008KT 170V250 CAVOK 22/12 Q1019 NOSIG",
      "taf": "TAF OMDB 290500Z 2906/3012 21008KT 8000 NSC"
    },
    {
      "icao": "UAAA",
      "alert": "OK",
      "vis_m": 1900,
      "fzfg": false,
      "metar_trigger": false,
      "taf_trigger": false,
      "metar": "METAR UAAA 290530Z 00000MPS 1900 R23L/1900U BR OVC005 M02/M03 Q1030 NOSIG RMK QBB170",
      "taf": "TAF UAAA 290504Z 2906/3006 04003MPS 2000 BR BKN004 OVC011 TXM01/2908Z TNM05/3002Z"
    },
    {
      "icao": "UBBB",
      "alert": "OK",
      "vis_m": 9999,
      "fzfg": false,
      "metar_trigger": false,
      "taf_trigger": false,
      "metar": "METAR UBBB 290600Z 16006KT 9999 -RA BKN014 OVC035 06/04 Q1014 NOSIG",
      "taf": "TAF UBBB 290500Z 2906/3006 14006KT 9999 BKN012 BKN025 TX09/2911Z TN04/3001Z"
    },
    {
      "icao": "UDSG",
      "alert": "OK",
      "vis_m": 4700,
      "fzfg": false,
      "metar_trigger": false,
      "taf_trigger": false,
      "metar": "METAR UDSG 290530Z 05004KT 4700 BR NSC M16/M17 Q1015 NOSIG",
      "taf": "TAF UDSG 290500Z 2906/3006 VRB06KT 5000 BR SCT030"
    },
    {
      "icao": "UDYZ",
      "alert": "OK",
      "vis_m": 2200,
      "fzfg": false,
      "metar_trigger": false,
      "taf_trigger": false,
      "metar": "METAR UDYZ 290530Z 25001KT 2200 R08/1800N BR BKN013 M06/M07 Q1018 NOSIG",
      "taf": "TAF UDYZ 290500Z 2906/3006 24006KT 2000 BR BKN015"
    },
    {
      "icao": "UGKO",
      "alert": "OK",
      "vis_m": 9999,
      "fzfg": false,
      "metar_trigger": false,
      "taf_trigger": false,
      "metar": "METAR UGKO 290530Z 12005KT CAVOK 04/M01 Q1012 NOSIG",
      "taf": "TAF UGKO 290500Z 2906/3006 09007KT CAVOK TX16/2911Z TN05/2906Z"
    }
  ]
}