{
  "ts_utc": "2026-02-19T22:58:49Z",
  "threshold_m": 150,
  "source": "stations_override.txt (ICAO list) + aviationweather.gov (METAR/TAF raw)",
  "station_count": 159,
  "stations": [
    {
      "icao": "BIKF",
      "alert": "OK",
      "vis_m": 9999,
      "fzfg": false,
      "metar_trigger": false,
      "taf_trigger": false,
      "metar": "METAR BIKF 192230Z 06013KT CAVOK M03/M07 Q1008",
      "taf": "TAF BIKF 192249Z 2000/2100 07010KT CAVOK TX02/2015Z TNM05/2100Z"
    },
    {
      "icao": "BKPR",
      "alert": "OK",
      "vis_m": null,
      "fzfg": false,
      "metar_trigger": false,
      "taf_trigger": false,
      "metar": "",
      "taf": "TAF BKPR 191730Z 1918/2018 18006KT 9999 BKN050"
    },
    {
      "icao": "EBCI",
      "alert": "OK",
      "vis_m": 9999,
      "fzfg": false,
      "metar_trigger": false,
      "taf_trigger": false,
      "metar": "METAR EBCI 192250Z 16002KT 9999 BKN014 BKN042 05/03 Q1011 NOSIG",
      "taf": "TAF EBCI 191718Z 1918/2024 VRB04KT 9999 SCT015 BKN020"
    },
    {
      "icao": "EDDB",
      "alert": "OK",
      "vis_m": 9999,
      "fzfg": false,
      "metar_trigger": false,
      "taf_trigger": false,
      "metar": "METAR EDDB 192250Z AUTO 07001KT CAVOK M08/M08 Q1020 NOSIG",
      "taf": "TAF EDDB 191700Z 1918/2018 06008KT CAVOK"
    },
    {
      "icao": "EDDH",
      "alert": "OK",
      "vis_m": 9999,
      "fzfg": false,
      "metar_trigger": false,
      "taf_trigger": false,
      "metar": "METAR EDDH 192250Z AUTO 10007KT CAVOK M04/M07 Q1019 NOSIG",
      "taf": "TAF EDDH 191700Z 1918/2024 09009KT CAVOK"
    },
    {
      "icao": "EDDK",
      "alert": "OK",
      "vis_m": 9999,
      "fzfg": false,
      "metar_trigger": false,
      "taf_trigger": false,
      "metar": "METAR EDDK 192250Z AUTO 10006KT 070V140 CAVOK 02/M02 Q1013 NOSIG",
      "taf": "TAF EDDK 191700Z 1918/2024 11007KT 9999 BKN030"
    },
    {
      "icao": "EDDN",
      "alert": "OK",
      "vis_m": 9999,
      "fzfg": false,
      "metar_trigger": false,
      "taf_trigger": false,
      "metar": "METAR EDDN 192250Z AUTO 01003KT 340V050 CAVOK 01/M02 Q1011",
      "taf": ""
    },
    {
      "icao": "EDDS",
      "alert": "OK",
      "vis_m": 5000,
      "fzfg": false,
      "metar_trigger": false,
      "taf_trigger": false,
      "metar": "METAR EDDS 192250Z AUTO 03006KT 5000 -SN BR BKN007 01/01 Q1009",
      "taf": ""
    },
    {
      "icao": "EDFH",
      "alert": "OK",
      "vis_m": 9999,
      "fzfg": false,
      "metar_trigger": false,
      "taf_trigger": false,
      "metar": "METAR EDFH 192250Z 11012KT 9999 BKN011 00/M01 Q1010",
      "taf": ""
    },
    {
      "icao": "EDJA",
      "alert": "OK",
      "vis_m": 2500,
      "fzfg": false,
      "metar_trigger": false,
      "taf_trigger": false,
      "metar": "METAR EDJA 192250Z AUTO 05004KT 2500 // BKN003/// OVC021/// M00/M01 Q1007",
      "taf": "TAF EDJA 191700Z 1918/2003 04006KT 6000 SCT004 BKN025"
    },
    {
      "icao": "EDLW",
      "alert": "OK",
      "vis_m": 9999,
      "fzfg": false,
      "metar_trigger": false,
      "taf_trigger": false,
      "metar": "METAR EDLW 192250Z AUTO 05009KT 9999 // NCD M01/M03 Q1013",
      "taf": "TAF EDLW 191700Z 1918/2018 08011KT 9999 SCT030"
    },
    {
      "icao": "EDNY",
      "alert": "OK",
      "vis_m": 9999,
      "fzfg": false,
      "metar_trigger": false,
      "taf_trigger": false,
      "metar": "METAR EDNY 192250Z AUTO 03005KT 340V100 9999 // SCT007/// OVC011/// 03/02 Q1008",
      "taf": ""
    },
    {
      "icao": "EDSB",
      "alert": "OK",
      "vis_m": 9999,
      "fzfg": false,
      "metar_trigger": false,
      "taf_trigger": false,
      "metar": "METAR EDSB 192250Z AUTO 02013KT 9999 // SCT009/// OVC023/// 03/02 Q1010",
      "taf": "TAF EDSB 191700Z 1918/2018 02008KT 9999 SCT020 BKN035"
    },
    {
      "icao": "EETN",
      "alert": "OK",
      "vis_m": 9999,
      "fzfg": false,
      "metar_trigger": false,
      "taf_trigger": false,
      "metar": "METAR EETN 192250Z 32007KT 9999 OVC009 M09/M11 Q1012",
      "taf": "TAF EETN 191730Z 1918/2018 01008KT 9999 OVC010"
    },
    {
      "icao": "EFTU",
      "alert": "OK",
      "vis_m": 9999,
      "fzfg": false,
      "metar_trigger": false,
      "taf_trigger": false,
      "metar": "METAR EFTU 192250Z AUTO 33003KT 290V360 CAVOK M16/M18 Q1014",
      "taf": "TAF EFTU 192022Z 1921/2021 33002KT CAVOK"
    },
    {
      "icao": "EGBB",
      "alert": "OK",
      "vis_m": 9999,
      "fzfg": false,
      "metar_trigger": false,
      "taf_trigger": false,
      "metar": "METAR EGBB 192250Z 24003KT 9999 BKN025 04/02 Q1013",
      "taf": ""
    },
    {
      "icao": "EGGP",
      "alert": "OK",
      "vis_m": 8000,
      "fzfg": false,
      "metar_trigger": false,
      "taf_trigger": false,
      "metar": "METAR EGGP 192250Z 20003KT 170V230 8000 VCSH SCT016 OVC019 04/03 Q1013",
      "taf": ""
    },
    {
      "icao": "EGGW",
      "alert": "OK",
      "vis_m": 7000,
      "fzfg": false,
      "metar_trigger": false,
      "taf_trigger": false,
      "metar": "METAR EGGW 192250Z AUTO 29008KT 7000 OVC020 04/03 Q1013",
      "taf": ""
    },
    {
      "icao": "EGKK",
      "alert": "OK",
      "vis_m": 9999,
      "fzfg": false,
      "metar_trigger": false,
      "taf_trigger": false,
      "metar": "METAR EGKK 192250Z 30007KT 9999 BKN026 05/03 Q1014",
      "taf": "TAF EGKK 191655Z 1918/2024 33008KT 9999 SCT010 BKN018"
    },
    {
      "icao": "EGNM",
      "alert": "OK",
      "vis_m": 6000,
      "fzfg": false,
      "metar_trigger": false,
      "taf_trigger": false,
      "metar": "METAR EGNM 192150Z 27006KT 6000 SCT010 BKN025 03/02 Q1010",
      "taf": "TAF EGNM 191703Z 1918/2018 VRB02KT 3000 -DZ BKN003"
    },
    {
      "icao": "EGPD",
      "alert": "OK",
      "vis_m": 7000,
      "fzfg": false,
      "metar_trigger": false,
      "taf_trigger": false,
      "metar": "METAR EGPD 192250Z COR AUTO 19012KT 7000 -RA SCT033 SCT042 05/02 Q1007 NOSIG",
      "taf": ""
    },
    {
      "icao": "EGPF",
      "alert": "OK",
      "vis_m": 5000,
      "fzfg": false,
      "metar_trigger": false,
      "taf_trigger": false,
      "metar": "METAR EGPF 192250Z AUTO 06003KT 5000 BR BKN007 BKN029 04/03 Q1008",
      "taf": ""
    },
    {
      "icao": "EHBK",
      "alert": "OK",
      "vis_m": 9999,
      "fzfg": false,
      "metar_trigger": false,
      "taf_trigger": false,
      "metar": "METAR EHBK 192255Z AUTO 05004KT 030V090 9999 BKN031 BKN039 BKN046 03/01 Q1011",
      "taf": "TAF EHBK 191723Z 1918/2024 09012KT 9999 OVC030"
    },
    {
      "icao": "EHEH",
      "alert": "OK",
      "vis_m": 9999,
      "fzfg": false,
      "metar_trigger": false,
      "taf_trigger": false,
      "metar": "METAR EHEH 192225Z AUTO 10003KT 070V160 9999 NCD 03/00 Q1011 BLU",
      "taf": "TAF EHEH 191713Z 1918/2024 09008KT CAVOK"
    },
    {
      "icao": "EKBI",
      "alert": "OK",
      "vis_m": 9999,
      "fzfg": false,
      "metar_trigger": false,
      "taf_trigger": false,
      "metar": "METAR EKBI 192250Z AUTO 10007KT 9999 NCD M05/M07 Q1019",
      "taf": "TAF EKBI 192027Z 1921/2021 08008KT CAVOK"
    },
    {
      "icao": "EKCH",
      "alert": "OK",
      "vis_m": 9999,
      "fzfg": false,
      "metar_trigger": false,
      "taf_trigger": false,
      "metar": "METAR EKCH 192250Z AUTO 07002KT 9999 NCD M07/M08 Q1022 NOSIG",
      "taf": "TAF EKCH 192027Z 1921/2021 02008KT CAVOK"
    },
    {
      "icao": "ENAL",
      "alert": "OK",
      "vis_m": 9999,
      "fzfg": false,
      "metar_trigger": false,
      "taf_trigger": false,
      "metar": "METAR ENAL 192250Z 20016KT CAVOK 04/M08 Q1007",
      "taf": "TAF ENAL 192000Z 1921/2006 20012KT CAVOK"
    },
    {
      "icao": "ENBR",
      "alert": "OK",
      "vis_m": 9999,
      "fzfg": false,
      "metar_trigger": false,
      "taf_trigger": false,
      "metar": "METAR ENBR 192250Z 15015KT CAVOK 01/M07 Q1013 RMK WIND 1200FT 16028KT",
      "taf": "TAF ENBR 191700Z 1918/2018 16010KT CAVOK"
    },
    {
      "icao": "ENGM",
      "alert": "OK",
      "vis_m": 9999,
      "fzfg": false,
      "metar_trigger": false,
      "taf_trigger": false,
      "metar": "METAR ENGM 192250Z 00000KT 9999 FEW002 M14/M16 Q1016",
      "taf": "TAF ENGM 191700Z 1918/2018 17005KT 9999 FEW010"
    },
    {
      "icao": "ENHD",
      "alert": "OK",
      "vis_m": 9999,
      "fzfg": false,
      "metar_trigger": false,
      "taf_trigger": false,
      "metar": "METAR ENHD 192250Z AUTO 15017KT 9999 NCD 01/M04 Q1014",
      "taf": "TAF ENHD 191400Z 1915/1923 17015KT CAVOK"
    },
    {
      "icao": "ENTC",
      "alert": "OK",
      "vis_m": 9999,
      "fzfg": false,
      "metar_trigger": false,
      "taf_trigger": false,
      "metar": "METAR ENTC 192250Z 23006KT 170V280 CAVOK M07/M11 Q1008 RMK WIND 2600FT 14016KT",
      "taf": "TAF ENTC 191700Z 1918/2018 22009KT 9999 SCT050"
    },
    {
      "icao": "ENTO",
      "alert": "OK",
      "vis_m": 9999,
      "fzfg": false,
      "metar_trigger": false,
      "taf_trigger": false,
      "metar": "METAR ENTO 192250Z AUTO 21009KT 9999 NCD M05/M06 Q1018",
      "taf": "TAF ENTO 191700Z 1918/2018 22005KT 9999 FEW010"
    },
    {
      "icao": "ENVA",
      "alert": "OK",
      "vis_m": 9999,
      "fzfg": false,
      "metar_trigger": false,
      "taf_trigger": false,
      "metar": "METAR ENVA 192250Z 06003KT CAVOK 01/M09 Q1008 RMK WIND 670FT 19020KT",
      "taf": "TAF ENVA 191700Z 1918/2018 17009KT 9999 FEW025 BKN040"
    },
    {
      "icao": "ENZV",
      "alert": "OK",
      "vis_m": 9999,
      "fzfg": false,
      "metar_trigger": false,
      "taf_trigger": false,
      "metar": "METAR ENZV 192250Z 15015KT CAVOK 01/M09 Q1015",
      "taf": "TAF ENZV 191700Z 1918/2018 15008KT CAVOK"
    },
    {
      "icao": "EPGD",
      "alert": "OK",
      "vis_m": 9999,
      "fzfg": false,
      "metar_trigger": false,
      "taf_trigger": false,
      "metar": "METAR EPGD 192230Z 28005KT 9999 SCT027 M08/M10 Q1018",
      "taf": "TAF EPGD 191730Z 1918/2018 30010KT 9999 BKN035"
    },
    {
      "icao": "EPKK",
      "alert": "OK",
      "vis_m": 9999,
      "fzfg": false,
      "metar_trigger": false,
      "taf_trigger": false,
      "metar": "METAR EPKK 192230Z 05010KT 9999 OVC024 M04/M09 Q1015",
      "taf": "TAF EPKK 192030Z 1921/2021 06008KT 8000 OVC022"
    },
    {
      "icao": "EPKT",
      "alert": "OK",
      "vis_m": 9999,
      "fzfg": false,
      "metar_trigger": false,
      "taf_trigger": false,
      "metar": "METAR EPKT 192230Z 04008KT CAVOK M06/M09 Q1015",
      "taf": "TAF EPKT 191730Z 1918/2018 07007KT CAVOK"
    },
    {
      "icao": "EPLB",
      "alert": "OK",
      "vis_m": 2500,
      "fzfg": false,
      "metar_trigger": false,
      "taf_trigger": false,
      "metar": "METAR EPLB 192230Z 28002KT 2500 0700W PRFG BR NSC M13/M14 Q1017",
      "taf": ""
    },
    {
      "icao": "EPMO",
      "alert": "OK",
      "vis_m": 9999,
      "fzfg": false,
      "metar_trigger": false,
      "taf_trigger": false,
      "metar": "METAR EPMO 192230Z 31004KT CAVOK M06/M07 Q1018",
      "taf": ""
    },
    {
      "icao": "EPPO",
      "alert": "OK",
      "vis_m": 9999,
      "fzfg": false,
      "metar_trigger": false,
      "taf_trigger": false,
      "metar": "METAR EPPO 192230Z 04006KT CAVOK M05/M08 Q1019",
      "taf": "TAF EPPO 191730Z 1918/2018 06010KT 9999 SCT030"
    },
    {
      "icao": "EPRA",
      "alert": "OK",
      "vis_m": 6000,
      "fzfg": false,
      "metar_trigger": false,
      "taf_trigger": false,
      "metar": "METAR EPRA 192230Z 25003KT 6000 NSC M11/M13 Q1017",
      "taf": "TAF EPRA 192030Z 1921/2006 VRB03KT 8000 NSC"
    },
    {
      "icao": "EPRZ",
      "alert": "OK",
      "vis_m": 9999,
      "fzfg": false,
      "metar_trigger": false,
      "taf_trigger": false,
      "metar": "METAR EPRZ 192230Z 02005KT 9999 BKN033 M04/M08 Q1016",
      "taf": "TAF EPRZ 191730Z 1918/2018 06005KT 9999 OVC024"
    },
    {
      "icao": "EPSC",
      "alert": "OK",
      "vis_m": 9999,
      "fzfg": false,
      "metar_trigger": false,
      "taf_trigger": false,
      "metar": "METAR EPSC 192230Z VRB01KT CAVOK M09/M10 Q1020",
      "taf": "TAF EPSC 191730Z 1918/2018 VRB03KT CAVOK"
    },
    {
      "icao": "EPSY",
      "alert": "OK",
      "vis_m": 9999,
      "fzfg": false,
      "metar_trigger": false,
      "taf_trigger": false,
      "metar": "METAR EPSY 192230Z 26004KT 9999 FEW016 M05/M07 Q1017",
      "taf": "TAF EPSY 192030Z 1921/2006 28005KT 9999 BKN025"
    },
    {
      "icao": "EPWA",
      "alert": "OK",
      "vis_m": 8000,
      "fzfg": false,
      "metar_trigger": false,
      "taf_trigger": false,
      "metar": "METAR EPWA 192230Z 26002KT 8000 NSC M08/M09 Q1017 BECMG 3000 BR",
      "taf": "TAF EPWA 192030Z 1921/2021 29004KT CAVOK"
    },
    {
      "icao": "EPWR",
      "alert": "OK",
      "vis_m": 7000,
      "fzfg": false,
      "metar_trigger": false,
      "taf_trigger": false,
      "metar": "METAR EPWR 192230Z 36004KT 7000 NSC M07/M09 Q1018",
      "taf": "TAF EPWR 192030Z 1921/2021 04005KT CAVOK"
    },
    {
      "icao": "ESGG",
      "alert": "OK",
      "vis_m": 4100,
      "fzfg": false,
      "metar_trigger": false,
      "taf_trigger": false,
      "metar": "METAR ESGG 192250Z 21005KT 4100 BR NSC M11/M12 Q1019",
      "taf": ""
    },
    {
      "icao": "ESKN",
      "alert": "OK",
      "vis_m": 9999,
      "fzfg": false,
      "metar_trigger": false,
      "taf_trigger": false,
      "metar": "METAR ESKN 192250Z 28003KT CAVOK M12/M13 Q1018",
      "taf": "TAF ESKN 192030Z 1921/2021 28004KT CAVOK"
    },
    {
      "icao": "ESMS",
      "alert": "OK",
      "vis_m": 9999,
      "fzfg": false,
      "metar_trigger": false,
      "taf_trigger": false,
      "metar": "METAR ESMS 192250Z 00000KT CAVOK M12/M13 Q1021",
      "taf": "TAF ESMS 192027Z 1921/2021 04006KT CAVOK"
    },
    {
      "icao": "ESSA",
      "alert": "OK",
      "vis_m": 9999,
      "fzfg": false,
      "metar_trigger": false,
      "taf_trigger": false,
      "metar": "METAR ESSA 192250Z VRB03KT CAVOK M12/M14 Q1017 NOSIG",
      "taf": "TAF ESSA 192030Z 1921/2021 VRB03KT CAVOK"
    },
    {
      "icao": "EYKA",
      "alert": "OK",
      "vis_m": 6000,
      "fzfg": false,
      "metar_trigger": false,
      "taf_trigger": false,
      "metar": "METAR EYKA 192250Z VRB01KT 6000 -SN OVC039 M09/M10 Q1014",
      "taf": "TAF EYKA 191705Z 1918/2018 VRB04KT 9000 BKN020"
    },
    {
      "icao": "EYPA",
      "alert": "OK",
      "vis_m": 9999,
      "fzfg": false,
      "metar_trigger": false,
      "taf_trigger": false,
      "metar": "METAR EYPA 192250Z 01007KT 330V030 9999 -SN FEW024 SCT029 OVC045 M05/M08 Q1017",
      "taf": "TAF EYPA 191705Z 1918/2018 VRB04KT 9000 BKN035"
    },
    {
      "icao": "EYVI",
      "alert": "OK",
      "vis_m": 7000,
      "fzfg": false,
      "metar_trigger": false,
      "taf_trigger": false,
      "metar": "METAR EYVI 192250Z 32004KT 7000 -SN OVC027 M09/M11 Q1013 TEMPO 3000 SN",
      "taf": "TAF EYVI 191705Z 1918/2018 VRB04KT 9000 BKN020"
    },
    {
      "icao": "GCFV",
      "alert": "OK",
      "vis_m": 9999,
      "fzfg": false,
      "metar_trigger": false,
      "taf_trigger": false,
      "metar": "METAR GCFV 192230Z 02017KT 9999 BKN020 17/13 Q1023",
      "taf": "TAF GCFV 192000Z 1921/2021 04018KT 9999 SCT015 TX21/2014Z TN16/2006Z"
    },
    {
      "icao": "GCLP",
      "alert": "OK",
      "vis_m": 9999,
      "fzfg": false,
      "metar_trigger": false,
      "taf_trigger": false,
      "metar": "METAR GCLP 192230Z 02020KT 9999 BKN020 18/13 Q1023 NOSIG",
      "taf": "TAF GCLP 192000Z 1921/2021 02020KT 9999 SCT020 TX20/2014Z TN16/2006Z"
    },
    {
      "icao": "GCTS",
      "alert": "OK",
      "vis_m": 9999,
      "fzfg": false,
      "metar_trigger": false,
      "taf_trigger": false,
      "metar": "METAR GCTS 192230Z 05014KT 9999 FEW020 17/11 Q1023 NOSIG",
      "taf": "TAF GCTS 192000Z 1921/2021 08019KT 9999 FEW020 TX23/2014Z TN16/2006Z"
    },
    {
      "icao": "GMAD",
      "alert": "OK",
      "vis_m": 8000,
      "fzfg": false,
      "metar_trigger": false,
      "taf_trigger": false,
      "metar": "METAR GMAD 192230Z 08005KT 8000 NSC 09/08 Q1021 NOSIG",
      "taf": "TAF GMAD 191700Z 1918/2024 20008KT 8000 NSC"
    },
    {
      "icao": "GMMN",
      "alert": "OK",
      "vis_m": 9999,
      "fzfg": false,
      "metar_trigger": false,
      "taf_trigger": false,
      "metar": "METAR GMMN 192230Z 05009KT 9999 FEW020 10/08 Q1026 NOSIG",
      "taf": "TAF GMMN 191700Z 1918/2024 02014KT 9999 FEW020"
    },
    {
      "icao": "GMMX",
      "alert": "OK",
      "vis_m": 9999,
      "fzfg": false,
      "metar_trigger": false,
      "taf_trigger": false,
      "metar": "METAR GMMX 192230Z 06003KT CAVOK 13/10 Q1023 NOSIG",
      "taf": "TAF GMMX 191700Z 1918/2024 06006KT CAVOK"
    },
    {
      "icao": "HEGN",
      "alert": "OK",
      "vis_m": 9999,
      "fzfg": false,
      "metar_trigger": false,
      "taf_trigger": false,
      "metar": "METAR HEGN 192200Z 29010KT CAVOK 16/04 Q1018 NOSIG",
      "taf": "TAF HEGN 191700Z 1918/2024 29015KT CAVOK"
    },
    {
      "icao": "HEMA",
      "alert": "OK",
      "vis_m": 9999,
      "fzfg": false,
      "metar_trigger": false,
      "taf_trigger": false,
      "metar": "METAR HEMA 192200Z 28009KT CAVOK 18/09 Q1017 NOSIG",
      "taf": "TAF HEMA 191700Z 1918/2024 30015KT CAVOK"
    },
    {
      "icao": "HESH",
      "alert": "OK",
      "vis_m": 9999,
      "fzfg": false,
      "metar_trigger": false,
      "taf_trigger": false,
      "metar": "METAR HESH 192200Z 34012KT CAVOK 20/10 Q1018 NOSIG",
      "taf": "TAF HESH 191700Z 1918/2024 35012KT CAVOK"
    },
    {
      "icao": "HESX",
      "alert": "OK",
      "vis_m": 9999,
      "fzfg": false,
      "metar_trigger": false,
      "taf_trigger": false,
      "metar": "METAR HESX 192200Z 05009KT CAVOK 11/08 Q1022 NOSIG",
      "taf": "TAF HESX 191700Z 1918/2024 02007KT CAVOK"
    },
    {
      "icao": "LATI",
      "alert": "OK",
      "vis_m": 9999,
      "fzfg": false,
      "metar_trigger": false,
      "taf_trigger": false,
      "metar": "METAR LATI 192250Z 13011KT 9999 FEW053 SCT066 14/04 Q1010 NOSIG",
      "taf": ""
    },
    {
      "icao": "LBPD",
      "alert": "OK",
      "vis_m": 9999,
      "fzfg": false,
      "metar_trigger": false,
      "taf_trigger": false,
      "metar": "METAR LBPD 192230Z AUTO VRB02KT 9999 BKN230/// 02/00 Q1016",
      "taf": "TAF LBPD 191700Z 1918/2018 VRB03KT 9999 SCT080"
    },
    {
      "icao": "LBSF",
      "alert": "OK",
      "vis_m": 9999,
      "fzfg": false,
      "metar_trigger": false,
      "taf_trigger": false,
      "metar": "METAR LBSF 192230Z AUTO 09010KT 9999 NSC 05/M03 Q1014 NOSIG",
      "taf": "TAF LBSF 191700Z 1918/2018 11010KT 9999 SCT070"
    },
    {
      "icao": "LBWN",
      "alert": "OK",
      "vis_m": 9999,
      "fzfg": false,
      "metar_trigger": false,
      "taf_trigger": false,
      "metar": "METAR LBWN 192230Z AUTO 12007KT 9999 NSC 05/00 Q1016 NOSIG",
      "taf": "TAF LBWN 191700Z 1918/2018 09008KT 9999 SCT045"
    },
    {
      "icao": "LCLK",
      "alert": "OK",
      "vis_m": 9999,
      "fzfg": false,
      "metar_trigger": false,
      "taf_trigger": false,
      "metar": "METAR LCLK 192230Z 34004KT 300V030 9999 SCT035 BKN045 14/10 Q1023 NOSIG",
      "taf": "TAF LCLK 191730Z 1918/2018 06010KT 9999 FEW025"
    },
    {
      "icao": "LCPH",
      "alert": "OK",
      "vis_m": 9999,
      "fzfg": false,
      "metar_trigger": false,
      "taf_trigger": false,
      "metar": "METAR LCPH 192230Z 05007KT 010V080 9999 FEW050 11/06 Q1023 NOSIG",
      "taf": "TAF LCPH 191730Z 1918/2018 04008KT 9999 FEW025"
    },
    {
      "icao": "LEAL",
      "alert": "OK",
      "vis_m": 9999,
      "fzfg": false,
      "metar_trigger": false,
      "taf_trigger": false,
      "metar": "METAR LEAL 192230Z 25008KT CAVOK 13/M01 Q1025 NOSIG",
      "taf": "TAF LEAL 191700Z 1918/2018 30015KT 9999 FEW030 TX18/2013Z TN09/2006Z"
    },
    {
      "icao": "LEBB",
      "alert": "OK",
      "vis_m": 9000,
      "fzfg": false,
      "metar_trigger": false,
      "taf_trigger": false,
      "metar": "METAR LEBB 192230Z 27005KT 230V320 9000 -RA SCT021 BKN035 09/08 Q1028 RERA TEMPO RA",
      "taf": "TAF LEBB 191700Z 1918/2018 30009KT 9999 FEW020 BKN025 TX14/2013Z TN07/2005Z"
    },
    {
      "icao": "LEBL",
      "alert": "OK",
      "vis_m": 9999,
      "fzfg": false,
      "metar_trigger": false,
      "taf_trigger": false,
      "metar": "METAR LEBL 192230Z 29007KT 9999 FEW040 11/01 Q1016 NOSIG",
      "taf": "TAF LEBL 191700Z 1918/2018 29012KT CAVOK TX18/2013Z TN09/2006Z"
    },
    {
      "icao": "LECH",
      "alert": "OK",
      "vis_m": 9999,
      "fzfg": false,
      "metar_trigger": false,
      "taf_trigger": false,
      "metar": "METAR LECH 192230Z AUTO 29017G27KT 260V340 CAVOK 11/M03 Q1022",
      "taf": ""
    },
    {
      "icao": "LEMD",
      "alert": "OK",
      "vis_m": 9999,
      "fzfg": false,
      "metar_trigger": false,
      "taf_trigger": false,
      "metar": "METAR LEMD 192230Z VRB01KT CAVOK 03/M01 Q1026 NOSIG",
      "taf": "TAF LEMD 191700Z 1918/2024 28010KT CAVOK TX14/2015Z TNM00/2006Z"
    },
    {
      "icao": "LEMG",
      "alert": "OK",
      "vis_m": 9999,
      "fzfg": false,
      "metar_trigger": false,
      "taf_trigger": false,
      "metar": "METAR LEMG 192230Z 28010KT CAVOK 12/04 Q1026 NOSIG",
      "taf": "TAF LEMG 191700Z 1918/2018 29012KT CAVOK TX18/2014Z TN11/2007Z"
    },
    {
      "icao": "LEVC",
      "alert": "OK",
      "vis_m": 9999,
      "fzfg": false,
      "metar_trigger": false,
      "taf_trigger": false,
      "metar": "METAR LEVC 192230Z 26014KT CAVOK 11/M01 Q1023 NOSIG",
      "taf": "TAF LEVC 191700Z 1918/2018 28013KT 9999 FEW035 TX21/2014Z TN08/2006Z"
    },
    {
      "icao": "LEXJ",
      "alert": "OK",
      "vis_m": 9999,
      "fzfg": false,
      "metar_trigger": false,
      "taf_trigger": false,
      "metar": "METAR LEXJ 192230Z AUTO 26006KT 9999 3300E BKN028 BKN036 09/06 Q1028",
      "taf": "TAF LEXJ 192000Z 1921/2021 28012KT 9999 SCT020 BKN030 TX15/2013Z TN08/2004Z"
    },
    {
      "icao": "LEZG",
      "alert": "OK",
      "vis_m": 9999,
      "fzfg": false,
      "metar_trigger": false,
      "taf_trigger": false,
      "metar": "METAR LEZG 192230Z 24008KT 210V270 9999 SCT045 SCT075 09/03 Q1026 NOSIG",
      "taf": "TAF LEZG 191700Z 1918/2018 30015KT 9999 FEW040 TX13/2014Z TN07/2006Z"
    },
    {
      "icao": "LEZL",
      "alert": "OK",
      "vis_m": 9999,
      "fzfg": false,
      "metar_trigger": false,
      "taf_trigger": false,
      "metar": "METAR LEZL 192230Z 32001KT CAVOK 11/06 Q1028 NOSIG",
      "taf": "TAF LEZL 192000Z 1921/2021 04004KT CAVOK TX19/2015Z TN06/2007Z"
    },
    {
      "icao": "LFBD",
      "alert": "OK",
      "vis_m": 7000,
      "fzfg": false,
      "metar_trigger": false,
      "taf_trigger": false,
      "metar": "METAR LFBD 192230Z AUTO 29010KT 7000 -RA SCT016 BKN029 BKN041 10/08 Q1022 TEMPO 3000 SHRA BKN020TCU BECMG 29015G25KT",
      "taf": "TAF LFBD 191700Z 1918/2024 29015G25KT 9999 BKN030 TX13/2013Z TN07/2006Z"
    },
    {
      "icao": "LFLL",
      "alert": "OK",
      "vis_m": 8000,
      "fzfg": false,
      "metar_trigger": false,
      "taf_trigger": false,
      "metar": "METAR LFLL 192230Z VRB08KT 8000 SHRA SCT020TCU BKN023 08/06 Q1011 TEMPO 4000",
      "taf": "TAF LFLL 191700Z 1918/2024 30012KT 9999 OVC030"
    },
    {
      "icao": "LFLS",
      "alert": "OK",
      "vis_m": 7000,
      "fzfg": false,
      "metar_trigger": false,
      "taf_trigger": false,
      "metar": "METAR LFLS 192230Z AUTO 25008KT 7000 -RA FEW009/// OVC015/// //////TCU 06/06 Q1011",
      "taf": "TAF LFLS 191400Z 1915/2015 20010KT 9999 BKN035"
    },
    {
      "icao": "LFMN",
      "alert": "OK",
      "vis_m": 9999,
      "fzfg": false,
      "metar_trigger": false,
      "taf_trigger": false,
      "metar": "METAR LFMN 192230Z 36006KT 300V050 CAVOK 12/06 Q1003 BECMG 33015KT",
      "taf": "TAF LFMN 192000Z 1921/2103 25020KT CAVOK"
    },
    {
      "icao": "LFOB",
      "alert": "OK",
      "vis_m": 9999,
      "fzfg": false,
      "metar_trigger": false,
      "taf_trigger": false,
      "metar": "METAR LFOB 192230Z AUTO 30010KT 9999 SCT014 OVC022 07/05 Q1013 TEMPO 4000 -RA OVC008",
      "taf": ""
    },
    {
      "icao": "LFPO",
      "alert": "OK",
      "vis_m": 9999,
      "fzfg": false,
      "metar_trigger": false,
      "taf_trigger": false,
      "metar": "METAR LFPO 192230Z 31009KT 9999 FEW015 BKN038 08/05 Q1013 TEMPO BKN012",
      "taf": "TAF LFPO 191700Z 1918/2024 30010KT 9999 BKN015"
    },
    {
      "icao": "LFSB",
      "alert": "OK",
      "vis_m": 9999,
      "fzfg": false,
      "metar_trigger": false,
      "taf_trigger": false,
      "metar": "METAR LFSB 192230Z AUTO VRB01KT 9999 FEW014/// BKN029/// OVC034/// //////TCU 06/05 Q1009 TEMPO OVC008",
      "taf": ""
    },
    {
      "icao": "LGAV",
      "alert": "OK",
      "vis_m": 9999,
      "fzfg": false,
      "metar_trigger": false,
      "taf_trigger": false,
      "metar": "METAR LGAV 192250Z 25002KT 9999 FEW030 07/04 Q1019 NOSIG",
      "taf": "TAF LGAV 191700Z 1918/2018 20010KT 9999 FEW025"
    },
    {
      "icao": "LGTS",
      "alert": "OK",
      "vis_m": 9999,
      "fzfg": false,
      "metar_trigger": false,
      "taf_trigger": false,
      "metar": "METAR LGTS 192220Z VRB03KT 9999 FEW020 11/05 Q1016 NOSIG",
      "taf": "TAF LGTS 191700Z 1918/2018 14013KT 9999 FEW030"
    },
    {
      "icao": "LHBP",
      "alert": "OK",
      "vis_m": 9999,
      "fzfg": false,
      "metar_trigger": false,
      "taf_trigger": false,
      "metar": "METAR LHBP 192230Z 06008KT 010V100 9999 BKN007 02/01 Q1008 NOSIG",
      "taf": "TAF LHBP 191715Z 1918/2018 06009KT 9999 FEW010 BKN060"
    },
    {
      "icao": "LHDC",
      "alert": "OK",
      "vis_m": 9999,
      "fzfg": false,
      "metar_trigger": false,
      "taf_trigger": false,
      "metar": "METAR LHDC 192215Z AUTO 05012KT CAVOK 03/01 Q1010",
      "taf": "TAF LHDC 191415Z 1915/1924 10009KT 9999 RA OVC025"
    },
    {
      "icao": "LIBD",
      "alert": "OK",
      "vis_m": 9999,
      "fzfg": false,
      "metar_trigger": false,
      "taf_trigger": false,
      "metar": "METAR LIBD 192250Z 23006KT CAVOK 13/08 Q1004",
      "taf": "TAF LIBD 191700Z 1918/2018 15015KT 9999 SCT040"
    },
    {
      "icao": "LIBG",
      "alert": "OK",
      "vis_m": null,
      "fzfg": false,
      "metar_trigger": false,
      "taf_trigger": false,
      "metar": "",
      "taf": "TAF LIBG 191700Z 1918/2003 17015G30KT 9999 SCT020"
    },
    {
      "icao": "LIBP",
      "alert": "OK",
      "vis_m": 9999,
      "fzfg": false,
      "metar_trigger": false,
      "taf_trigger": false,
      "metar": "METAR LIBP 192250Z AUTO 27004KT 220V310 9999 BKN140/// 10/06 Q1002",
      "taf": "TAF LIBP 191700Z 1918/2018 VRB05KT 9999 SCT030 SCT060"
    },
    {
      "icao": "LIBR",
      "alert": "OK",
      "vis_m": 9999,
      "fzfg": false,
      "metar_trigger": false,
      "taf_trigger": false,
      "metar": "METAR LIBR 192250Z 18012KT 9999 BKN015 15/12 Q1007",
      "taf": "TAF LIBR 191700Z 1918/2018 17020G30KT 9999 SCT025"
    },
    {
      "icao": "LICA",
      "alert": "OK",
      "vis_m": 9000,
      "fzfg": false,
      "metar_trigger": false,
      "taf_trigger": false,
      "metar": "METAR LICA 192250Z AUTO 24011KT 9000 -RA FEW026/// OVC050/// 13/10 Q1012",
      "taf": "TAF LICA 191700Z 1918/2018 25010KT 9999 SCT030"
    },
    {
      "icao": "LICC",
      "alert": "OK",
      "vis_m": 9999,
      "fzfg": false,
      "metar_trigger": false,
      "taf_trigger": false,
      "metar": "METAR LICC 192250Z 25018KT 9999 BKN070 13/09 Q1013",
      "taf": "TAF LICC 191700Z 1918/2018 26011KT 9999 FEW040"
    },
    {
      "icao": "LICJ",
      "alert": "OK",
      "vis_m": 9999,
      "fzfg": false,
      "metar_trigger": false,
      "taf_trigger": false,
      "metar": "METAR LICJ 192250Z 27021KT 9999 SCT035 SCT060 14/08 Q1013",
      "taf": "TAF LICJ 191700Z 1918/2018 27020G30KT 9999 SCT035"
    },
    {
      "icao": "LIMC",
      "alert": "OK",
      "vis_m": 9999,
      "fzfg": false,
      "metar_trigger": false,
      "taf_trigger": false,
      "metar": "METAR LIMC 192250Z 35007KT CAVOK 03/03 Q1002 NOSIG",
      "taf": "TAF LIMC 191700Z 1918/2024 33007KT 9999 BKN025"
    },
    {
      "icao": "LIME",
      "alert": "OK",
      "vis_m": 9999,
      "fzfg": false,
      "metar_trigger": false,
      "taf_trigger": false,
      "metar": "METAR LIME 192250Z VRB02KT CAVOK 04/04 Q1002 NOSIG",
      "taf": "TAF LIME 191700Z 1918/2018 VRB05KT 8000 BKN020"
    },
    {
      "icao": "LIMF",
      "alert": "OK",
      "vis_m": 9999,
      "fzfg": false,
      "metar_trigger": false,
      "taf_trigger": false,
      "metar": "METAR LIMF 192250Z VRB02KT CAVOK 04/01 Q1003",
      "taf": "TAF LIMF 191700Z 1918/2018 VRB05KT 8000 FEW040"
    },
    {
      "icao": "LIMJ",
      "alert": "OK",
      "vis_m": 9999,
      "fzfg": false,
      "metar_trigger": false,
      "taf_trigger": false,
      "metar": "METAR LIMJ 192250Z 05007KT CAVOK 09/05 Q1003",
      "taf": "TAF LIMJ 191700Z 1918/2018 VRB05KT 9999 SCT030"
    },
    {
      "icao": "LIPE",
      "alert": "OK",
      "vis_m": 9999,
      "fzfg": false,
      "metar_trigger": false,
      "taf_trigger": false,
      "metar": "METAR LIPE 192250Z 25004KT CAVOK 05/03 Q1003",
      "taf": "TAF LIPE 191700Z 1918/2018 VRB05KT 9999 SCT040"
    },
    {
      "icao": "LIPH",
      "alert": "OK",
      "vis_m": 9999,
      "fzfg": false,
      "metar_trigger": false,
      "taf_trigger": false,
      "metar": "METAR LIPH 192250Z AUTO VRB01KT 9999 OVC012/// 06/05 Q1002",
      "taf": "TAF LIPH 191700Z 1918/2018 VRB05KT 7000 SCT020"
    },
    {
      "icao": "LIPQ",
      "alert": "OK",
      "vis_m": 8000,
      "fzfg": false,
      "metar_trigger": false,
      "taf_trigger": false,
      "metar": "METAR LIPQ 192250Z AUTO 02005KT 8000 OVC054/// 08/08 Q1002",
      "taf": ""
    },
    {
      "icao": "LIPR",
      "alert": "OK",
      "vis_m": 2600,
      "fzfg": false,
      "metar_trigger": false,
      "taf_trigger": false,
      "metar": "METAR LIPR 192250Z AUTO 18002KT 2600 BR BKN100/// 04/04 Q1002",
      "taf": "TAF LIPR 191700Z 1918/2018 VRB05KT 9999 FEW015 SCT040"
    },
    {
      "icao": "LIPX",
      "alert": "OK",
      "vis_m": 9999,
      "fzfg": false,
      "metar_trigger": false,
      "taf_trigger": false,
      "metar": "METAR LIPX 192250Z VRB02KT 9999 BKN090 06/04 Q1002",
      "taf": "TAF LIPX 191700Z 1918/2018 26012KT 8000 BKN020"
    },
    {
      "icao": "LIPY",
      "alert": "OK",
      "vis_m": 9999,
      "fzfg": false,
      "metar_trigger": false,
      "taf_trigger": false,
      "metar": "METAR LIPY 192250Z AUTO 16003KT 120V190 9999 FEW087/// BKN210/// 08/07 Q1002",
      "taf": "TAF LIPY 191700Z 1918/2018 VRB05KT 9999 SCT040"
    },
    {
      "icao": "LIPZ",
      "alert": "OK",
      "vis_m": 9999,
      "fzfg": false,
      "metar_trigger": false,
      "taf_trigger": false,
      "metar": "METAR LIPZ 192250Z 32003KT 280V340 9999 FEW015 SCT070 06/04 Q1002 NOSIG",
      "taf": "TAF LIPZ 191700Z 1918/2024 23012KT 7000 FEW015 SCT030"
    },
    {
      "icao": "LIRF",
      "alert": "OK",
      "vis_m": 9999,
      "fzfg": false,
      "metar_trigger": false,
      "taf_trigger": false,
      "metar": "METAR LIRF 192250Z VRB02KT 9999 SCT035 SCT050 10/08 Q1005 NOSIG",
      "taf": "TAF LIRF 191700Z 1918/2024 33012KT 9999 FEW025"
    },
    {
      "icao": "LIRN",
      "alert": "OK",
      "vis_m": 9999,
      "fzfg": false,
      "metar_trigger": false,
      "taf_trigger": false,
      "metar": "METAR LIRN 192250Z 22007G19KT 170V280 9999 RA SCT040 12/08 Q1006 NOSIG",
      "taf": "TAF LIRN 191700Z 1918/2018 26018KT 9999 SCT030"
    },
    {
      "icao": "LIRP",
      "alert": "OK",
      "vis_m": 9999,
      "fzfg": false,
      "metar_trigger": false,
      "taf_trigger": false,
      "metar": "METAR LIRP 192245Z 11004KT CAVOK 07/07 Q1002 NOSIG",
      "taf": "TAF LIRP 191700Z 1918/2018 27007KT 9999 BKN030"
    },
    {
      "icao": "LIRZ",
      "alert": "OK",
      "vis_m": 9999,
      "fzfg": false,
      "metar_trigger": false,
      "taf_trigger": false,
      "metar": "METAR LIRZ 192250Z AUTO VRB02KT 9999 -RA OVC027/// 08/07 Q1004",
      "taf": "TAF LIRZ 191700Z 1918/2018 19013KT 9999 SCT035"
    },
    {
      "icao": "LJLJ",
      "alert": "OK",
      "vis_m": 5000,
      "fzfg": false,
      "metar_trigger": false,
      "taf_trigger": false,
      "metar": "METAR LJLJ 192230Z 16002KT 5000 -RA BR FEW003 OVC020 04/03 Q1002 NOSIG",
      "taf": "TAF LJLJ 191700Z 1918/2018 VRB02KT 4000 RA BR SCT002 BKN020 OVC035"
    },
    {
      "icao": "LKMT",
      "alert": "OK",
      "vis_m": 6000,
      "fzfg": false,
      "metar_trigger": false,
      "taf_trigger": false,
      "metar": "METAR LKMT 192230Z 02012KT 6000 OVC019 M02/M04 Q1014 NOSIG",
      "taf": "TAF LKMT 191700Z 1918/2018 03008KT 4000 BR SCT010 OVC040"
    },
    {
      "icao": "LKPR",
      "alert": "OK",
      "vis_m": 9999,
      "fzfg": false,
      "metar_trigger": false,
      "taf_trigger": false,
      "metar": "METAR LKPR 192230Z 05010KT CAVOK M04/M06 Q1012 NOSIG",
      "taf": "TAF LKPR 192000Z 1921/2103 06009KT 7000 NSC"
    },
    {
      "icao": "LLBG",
      "alert": "OK",
      "vis_m": 9999,
      "fzfg": false,
      "metar_trigger": false,
      "taf_trigger": false,
      "metar": "METAR LLBG 192250Z VRB02KT CAVOK 11/07 Q1023 NOSIG",
      "taf": "TAF LLBG 191702Z 1918/2018 VRB04KT CAVOK"
    },
    {
      "icao": "LMML",
      "alert": "OK",
      "vis_m": 9999,
      "fzfg": false,
      "metar_trigger": false,
      "taf_trigger": false,
      "metar": "METAR LMML 192245Z 31021KT 9999 FEW020 14/07 Q1016 NOSIG",
      "taf": "TAF LMML 191700Z 1918/2018 21015KT 9999 FEW015"
    },
    {
      "icao": "LOWW",
      "alert": "OK",
      "vis_m": 2200,
      "fzfg": false,
      "metar_trigger": false,
      "taf_trigger": false,
      "metar": "METAR LOWW 192250Z 36006KT 2200 1400E R29/P1500U SN FEW001 BKN002 M00/M00 Q1009 TEMPO 3200 -SN",
      "taf": "TAF LOWW 192015Z 1921/2103 02007KT 3500 SN BKN002 OVC005 TXM01/1921Z TNM07/2103Z"
    },
    {
      "icao": "LPFR",
      "alert": "OK",
      "vis_m": 9999,
      "fzfg": false,
      "metar_trigger": false,
      "taf_trigger": false,
      "metar": "METAR LPFR 192230Z 33006KT CAVOK 10/06 Q1029",
      "taf": "TAF LPFR 191700Z 1918/2018 36010KT CAVOK"
    },
    {
      "icao": "LPMA",
      "alert": "OK",
      "vis_m": 9999,
      "fzfg": false,
      "metar_trigger": false,
      "taf_trigger": false,
      "metar": "METAR LPMA 192230Z 03012KT 330V060 9999 BKN016 16/09 Q1028",
      "taf": "TAF LPMA 191700Z 1918/2018 04010KT 9999 SCT016"
    },
    {
      "icao": "LPPR",
      "alert": "OK",
      "vis_m": 9999,
      "fzfg": false,
      "metar_trigger": false,
      "taf_trigger": false,
      "metar": "METAR LPPR 192230Z 11003KT 350V160 CAVOK 07/06 Q1030",
      "taf": "TAF LPPR 191700Z 1918/2018 35010KT 9999 SCT035"
    },
    {
      "icao": "LPPS",
      "alert": "OK",
      "vis_m": 9999,
      "fzfg": false,
      "metar_trigger": false,
      "taf_trigger": false,
      "metar": "METAR LPPS 192230Z 06009KT 030V110 9999 SCT015 BKN030 16/10 Q1028",
      "taf": "TAF LPPS 191700Z 1918/2024 09010KT 9999 SCT015"
    },
    {
      "icao": "LPPT",
      "alert": "OK",
      "vis_m": 9999,
      "fzfg": false,
      "metar_trigger": false,
      "taf_trigger": false,
      "metar": "METAR LPPT 192230Z 32006KT CAVOK 09/06 Q1030",
      "taf": "TAF LPPT 191700Z 1918/2024 34010KT CAVOK"
    },
    {
      "icao": "LQBK",
      "alert": "OK",
      "vis_m": 9999,
      "fzfg": false,
      "metar_trigger": false,
      "taf_trigger": false,
      "metar": "METAR LQBK 192230Z VRB02KT CAVOK 10/05 Q1001 BECMG 30012KT 4000 RA",
      "taf": "TAF LQBK 191700Z 1918/2018 11008KT CAVOK TX11/1918Z TN01/2018Z"
    },
    {
      "icao": "LQSA",
      "alert": "OK",
      "vis_m": 9999,
      "fzfg": false,
      "metar_trigger": false,
      "taf_trigger": false,
      "metar": "METAR LQSA 192230Z 13015G25KT 090V180 9999 -RA FEW030 BKN045 11/06 Q1002 TEMPO 3000 TSRA FEW008 FEW030CB BKN040",
      "taf": "TAF LQSA 191700Z 1918/2018 14013KT 9999 SCT030 BKN045 TX10/1918Z TN04/2006Z"
    },
    {
      "icao": "LQTZ",
      "alert": "OK",
      "vis_m": 9999,
      "fzfg": false,
      "metar_trigger": false,
      "taf_trigger": false,
      "metar": "METAR LQTZ 192230Z 10011KT 9999 SCT059 11/03 Q1002",
      "taf": "TAF LQTZ 191700Z 1918/2018 09006KT CAVOK TX12/1918Z TN05/2018Z"
    },
    {
      "icao": "LRBC",
      "alert": "OK",
      "vis_m": 9999,
      "fzfg": false,
      "metar_trigger": false,
      "taf_trigger": false,
      "metar": "METAR LRBC 192230Z 17008KT 9999 NSC M01/M02 Q1013",
      "taf": "TAF LRBC 192000Z 1921/2006 17011KT 7000 SCT005"
    },
    {
      "icao": "LRBS",
      "alert": "OK",
      "vis_m": 9999,
      "fzfg": false,
      "metar_trigger": false,
      "taf_trigger": false,
      "metar": "METAR LRBS 192230Z 05003KT 020V080 CAVOK 00/M03 Q1014 NOSIG",
      "taf": "TAF LRBS 191700Z 1918/2018 VRB03KT CAVOK"
    },
    {
      "icao": "LRBV",
      "alert": "OK",
      "vis_m": 9999,
      "fzfg": false,
      "metar_trigger": false,
      "taf_trigger": false,
      "metar": "METAR LRBV 192230Z AUTO 12011KT 9999 FEW210/// M01/M05 Q1011",
      "taf": "TAF LRBV 192000Z 1921/2006 12006KT CAVOK"
    },
    {
      "icao": "LRCL",
      "alert": "OK",
      "vis_m": 9999,
      "fzfg": false,
      "metar_trigger": false,
      "taf_trigger": false,
      "metar": "METAR LRCL 192230Z 10006KT 9999 OVC071 03/M02 Q1011",
      "taf": "TAF LRCL 192000Z 1921/2006 06005KT 9999 OVC065"
    },
    {
      "icao": "LRCV",
      "alert": "OK",
      "vis_m": 9999,
      "fzfg": false,
      "metar_trigger": false,
      "taf_trigger": false,
      "metar": "METAR LRCV 192230Z 08009KT CAVOK 02/M01 Q1013",
      "taf": "TAF LRCV 192000Z 1921/2006 09010KT CAVOK"
    },
    {
      "icao": "LRIA",
      "alert": "OK",
      "vis_m": 9999,
      "fzfg": false,
      "metar_trigger": false,
      "taf_trigger": false,
      "metar": "METAR LRIA 192230Z 12008KT CAVOK 01/M02 Q1014",
      "taf": "TAF LRIA 192000Z 1921/2006 10010KT CAVOK"
    },
    {
      "icao": "LROP",
      "alert": "OK",
      "vis_m": 6000,
      "fzfg": false,
      "metar_trigger": false,
      "taf_trigger": false,
      "metar": "METAR LROP 192230Z 06003KT 6000 NSC M00/M03 Q1014 NOSIG",
      "taf": "TAF LROP 191700Z 1918/2018 VRB03KT CAVOK"
    },
    {
      "icao": "LRSB",
      "alert": "OK",
      "vis_m": 9999,
      "fzfg": false,
      "metar_trigger": false,
      "taf_trigger": false,
      "metar": "METAR LRSB 192230Z 23003KT CAVOK 01/M00 Q1010",
      "taf": "TAF LRSB 191700Z 1918/2018 VRB04KT CAVOK"
    },
    {
      "icao": "LRSM",
      "alert": "OK",
      "vis_m": 9999,
      "fzfg": false,
      "metar_trigger": false,
      "taf_trigger": false,
      "metar": "METAR LRSM 192230Z AUTO 07009KT 9999 -SHRA BKN050/// OVC065/// 04/01 Q1011",
      "taf": "TAF LRSM 191400Z 1915/1924 14006KT 9999 BKN035"
    },
    {
      "icao": "LRSV",
      "alert": "OK",
      "vis_m": 9999,
      "fzfg": false,
      "metar_trigger": false,
      "taf_trigger": false,
      "metar": "METAR LRSV 192230Z 21006KT CAVOK M01/M03 Q1011",
      "taf": "TAF LRSV 192000Z 1921/2006 VRB04KT 7000 SCT010"
    },
    {
      "icao": "LRTM",
      "alert": "OK",
      "vis_m": 9999,
      "fzfg": false,
      "metar_trigger": false,
      "taf_trigger": false,
      "metar": "METAR LRTM 192230Z AUTO 07007KT 9999 NCD 02/M01 Q1011",
      "taf": "TAF LRTM 191400Z 1915/1924 08007KT CAVOK"
    },
    {
      "icao": "LRTR",
      "alert": "OK",
      "vis_m": 9999,
      "fzfg": false,
      "metar_trigger": false,
      "taf_trigger": false,
      "metar": "METAR LRTR 192230Z 09010KT CAVOK 07/03 Q1007 NOSIG",
      "taf": "TAF LRTR 191700Z 1918/2018 12010KT CAVOK"
    },
    {
      "icao": "LTAC",
      "alert": "OK",
      "vis_m": 9999,
      "fzfg": false,
      "metar_trigger": false,
      "taf_trigger": false,
      "metar": "METAR LTAC 192250Z VRB01KT CAVOK M02/M04 Q1023 NOSIG",
      "taf": "TAF LTAC 191640Z 1918/2018 VRB02KT CAVOK"
    },
    {
      "icao": "LTFM",
      "alert": "OK",
      "vis_m": 9999,
      "fzfg": false,
      "metar_trigger": false,
      "taf_trigger": false,
      "metar": "METAR LTFM 192250Z 20014KT CAVOK 08/04 Q1019 NOSIG",
      "taf": "TAF LTFM 191640Z 1918/2024 20012KT CAVOK"
    },
    {
      "icao": "LUKK",
      "alert": "OK",
      "vis_m": 9999,
      "fzfg": false,
      "metar_trigger": false,
      "taf_trigger": false,
      "metar": "METAR LUKK 192230Z 16008KT CAVOK 00/M04 Q1015 NOSIG",
      "taf": "TAF LUKK 191723Z 1918/2018 16006KT 9999 SCT025"
    },
    {
      "icao": "LWOH",
      "alert": "OK",
      "vis_m": null,
      "fzfg": false,
      "metar_trigger": false,
      "taf_trigger": false,
      "metar": "",
      "taf": "TAF LWOH 192045Z 1921/2021 18012KT 9999 BKN040"
    },
    {
      "icao": "LWSK",
      "alert": "OK",
      "vis_m": 9999,
      "fzfg": false,
      "metar_trigger": false,
      "taf_trigger": false,
      "metar": "METAR LWSK 192250Z 14011KT 120V190 9999 BKN075 09/03 Q1013 NOSIG",
      "taf": "TAF LWSK 192045Z 1921/2021 15012KT 9999 BKN070"
    },
    {
      "icao": "LYBE",
      "alert": "OK",
      "vis_m": 9999,
      "fzfg": false,
      "metar_trigger": false,
      "taf_trigger": false,
      "metar": "METAR LYBE 192230Z 13016KT CAVOK 11/01 Q1006 NOSIG",
      "taf": "TAF LYBE 191700Z 1918/2018 12015KT CAVOK TX10/1918Z TN06/2005Z"
    },
    {
      "icao": "LYNI",
      "alert": "OK",
      "vis_m": 9999,
      "fzfg": false,
      "metar_trigger": false,
      "taf_trigger": false,
      "metar": "METAR LYNI 192230Z 16007KT 120V210 CAVOK 10/01 Q1010 NOSIG",
      "taf": "TAF LYNI 191700Z 1918/2018 15005KT CAVOK TX08/2012Z TN04/2004Z"
    },
    {
      "icao": "LYPG",
      "alert": "OK",
      "vis_m": 9999,
      "fzfg": false,
      "metar_trigger": false,
      "taf_trigger": false,
      "metar": "METAR LYPG 192230Z 13023KT 110V170 9999 FEW026 SCT043 OVC073 14/07 Q1008 NOSIG",
      "taf": "TAF LYPG 191700Z 1918/2018 16008KT 9999 FEW025 SCT040 OVC070 TX12/1922Z TN07/2006Z"
    },
    {
      "icao": "LZIB",
      "alert": "OK",
      "vis_m": 8000,
      "fzfg": false,
      "metar_trigger": false,
      "taf_trigger": false,
      "metar": "METAR LZIB 192230Z 02012KT 8000 -RASN FEW004 SCT007 BKN014 01/01 Q1009 NOSIG",
      "taf": "TAF LZIB 191715Z 1918/2018 05011KT 4000 -SN SCT003 BKN010"
    },
    {
      "icao": "LZKZ",
      "alert": "OK",
      "vis_m": 7000,
      "fzfg": false,
      "metar_trigger": false,
      "taf_trigger": false,
      "metar": "METAR LZKZ 192230Z 01012KT 7000 -SN FEW023 BKN032 01/M00 Q1012 NOSIG",
      "taf": "TAF LZKZ 191715Z 1918/2018 02008KT 6000 SCT004 BKN020"
    },
    {
      "icao": "LZTT",
      "alert": "OK",
      "vis_m": 5000,
      "fzfg": false,
      "metar_trigger": false,
      "taf_trigger": false,
      "metar": "METAR LZTT 192230Z 05010KT 5000 BR FEW005 OVC016 M02/M03 Q1010",
      "taf": ""
    },
    {
      "icao": "OEJN",
      "alert": "OK",
      "vis_m": 9999,
      "fzfg": false,
      "metar_trigger": false,
      "taf_trigger": false,
      "metar": "METAR OEJN 192200Z 36004KT CAVOK 24/18 Q1013 NOSIG",
      "taf": "TAF OEJN 191700Z 1918/2024 36006KT CAVOK"
    },
    {
      "icao": "OEMA",
      "alert": "OK",
      "vis_m": 8000,
      "fzfg": false,
      "metar_trigger": false,
      "taf_trigger": false,
      "metar": "METAR OEMA 192200Z 06004KT 8000 NSC 25/00 Q1019 NOSIG",
      "taf": "TAF OEMA 191700Z 1918/2024 30006KT CAVOK"
    },
    {
      "icao": "OJAI",
      "alert": "OK",
      "vis_m": 5000,
      "fzfg": false,
      "metar_trigger": false,
      "taf_trigger": false,
      "metar": "METAR OJAI 192200Z 04004KT 5000 HZ NSC 05/02 Q1023 NOSIG",
      "taf": "TAF OJAI 191700Z 1918/2024 VRB02KT 5000 HZ BKN030"
    },
    {
      "icao": "OMAA",
      "alert": "OK",
      "vis_m": 9999,
      "fzfg": false,
      "metar_trigger": false,
      "taf_trigger": false,
      "metar": "METAR OMAA 192230Z 05005KT 030V100 CAVOK 20/14 Q1016 NOSIG",
      "taf": "TAF OMAA 191700Z 1918/2100 04007KT 8000 NSC"
    },
    {
      "icao": "OMDB",
      "alert": "OK",
      "vis_m": 9999,
      "fzfg": false,
      "metar_trigger": false,
      "taf_trigger": false,
      "metar": "METAR OMDB 192230Z 07004KT 030V120 CAVOK 23/12 Q1016 NOSIG",
      "taf": "TAF OMDB 191700Z 1918/2100 08005KT CAVOK"
    },
    {
      "icao": "UAAA",
      "alert": "OK",
      "vis_m": 9999,
      "fzfg": false,
      "metar_trigger": false,
      "taf_trigger": false,
      "metar": "METAR UAAA 192230Z 25001MPS 9999 BKN100 09/03 Q1021 NOSIG",
      "taf": "TAF UAAA 191704Z 1918/2018 21003MPS 6000 SCT050CB BKN100 TX12/2009Z TN03/2003Z"
    },
    {
      "icao": "UBBB",
      "alert": "OK",
      "vis_m": 9999,
      "fzfg": false,
      "metar_trigger": false,
      "taf_trigger": false,
      "metar": "METAR UBBB 192230Z 31022G32KT CAVOK 09/05 Q1021 NOSIG",
      "taf": "TAF UBBB 191701Z 1918/2018 32020G30KT 9999 SCT020 TX10/2010Z TN06/2002Z"
    },
    {
      "icao": "UDSG",
      "alert": "OK",
      "vis_m": 9999,
      "fzfg": false,
      "metar_trigger": false,
      "taf_trigger": false,
      "metar": "METAR UDSG 192230Z 12004KT 090V160 9999 SCT049 M05/M07 Q1024 NOSIG",
      "taf": "TAF UDSG 191658Z 1918/2018 VRB06KT 9999 SCT040"
    },
    {
      "icao": "UDYZ",
      "alert": "OK",
      "vis_m": 9999,
      "fzfg": false,
      "metar_trigger": false,
      "taf_trigger": false,
      "metar": "METAR UDYZ 192230Z 23008KT 9999 SCT043CB 03/M05 Q1023 NOSIG",
      "taf": "TAF UDYZ 191700Z 1918/2018 22006KT 9999 SCT040"
    },
    {
      "icao": "UGKO",
      "alert": "OK",
      "vis_m": 9999,
      "fzfg": false,
      "metar_trigger": false,
      "taf_trigger": false,
      "metar": "METAR UGKO 192230Z 06004KT 9999 BKN077 03/03 Q1028 NOSIG",
      "taf": "TAF UGKO 191700Z 1918/2018 25007KT 9000 OVC050 TX17/2011Z TN01/2003Z"
    }
  ]
}