{
  "ts_utc": "2026-01-16T13:02:27Z",
  "threshold_m": 150,
  "source": "stations_override.txt (ICAO list) + aviationweather.gov (METAR/TAF raw)",
  "station_count": 159,
  "stations": [
    {
      "icao": "BIKF",
      "alert": "OK",
      "vis_m": 9999,
      "fzfg": false,
      "metar_trigger": false,
      "taf_trigger": false,
      "metar": "METAR BIKF 161230Z 01011KT 9999 SCT025 02/M01 Q1003",
      "taf": "TAF BIKF 161032Z 1612/1712 02015KT 9999 SCT020 BKN030 TX02/1612Z TNM03/1706Z"
    },
    {
      "icao": "BKPR",
      "alert": "OK",
      "vis_m": 9999,
      "fzfg": false,
      "metar_trigger": false,
      "taf_trigger": false,
      "metar": "METAR BKPR 161300Z VRB01KT 9999 FEW040 SCT080 08/05 Q1022 NOSIG",
      "taf": "TAF BKPR 161130Z 1612/1712 VRB05KT 8000 BKN060"
    },
    {
      "icao": "EBCI",
      "alert": "OK",
      "vis_m": 9999,
      "fzfg": false,
      "metar_trigger": false,
      "taf_trigger": false,
      "metar": "METAR EBCI 161250Z 21008KT 9999 SCT018 BKN030 10/06 Q1013 NOSIG",
      "taf": "TAF EBCI 161109Z 1612/1718 19007KT 9999 FEW020 SCT030"
    },
    {
      "icao": "EDDB",
      "alert": "OK",
      "vis_m": 9999,
      "fzfg": false,
      "metar_trigger": false,
      "taf_trigger": false,
      "metar": "METAR EDDB 161250Z AUTO 15007KT 130V200 CAVOK 08/05 Q1018 NOSIG",
      "taf": "TAF EDDB 161100Z 1612/1712 12007KT CAVOK"
    },
    {
      "icao": "EDDH",
      "alert": "OK",
      "vis_m": 9999,
      "fzfg": false,
      "metar_trigger": false,
      "taf_trigger": false,
      "metar": "METAR EDDH 161250Z AUTO 21011KT 9999 FEW036 11/06 Q1014 NOSIG",
      "taf": "TAF EDDH 161100Z 1612/1718 19009KT 9999 BKN030"
    },
    {
      "icao": "EDDK",
      "alert": "OK",
      "vis_m": 9999,
      "fzfg": false,
      "metar_trigger": false,
      "taf_trigger": false,
      "metar": "METAR EDDK 161250Z AUTO 17005KT 9999 -RA BKN027 11/08 Q1014 RESHRA TEMPO RA",
      "taf": "TAF EDDK 161100Z 1612/1718 13007KT 9999 BKN040"
    },
    {
      "icao": "EDDN",
      "alert": "OK",
      "vis_m": 9999,
      "fzfg": false,
      "metar_trigger": false,
      "taf_trigger": false,
      "metar": "METAR EDDN 161250Z AUTO 14005KT CAVOK 10/03 Q1018 NOSIG",
      "taf": "TAF EDDN 161100Z 1612/1712 12006KT CAVOK"
    },
    {
      "icao": "EDDS",
      "alert": "OK",
      "vis_m": 9999,
      "fzfg": false,
      "metar_trigger": false,
      "taf_trigger": false,
      "metar": "METAR EDDS 161250Z AUTO 08003KT CAVOK 10/04 Q1016 NOSIG",
      "taf": "TAF EDDS 161100Z 1612/1712 VRB03KT CAVOK"
    },
    {
      "icao": "EDFH",
      "alert": "OK",
      "vis_m": 9999,
      "fzfg": false,
      "metar_trigger": false,
      "taf_trigger": false,
      "metar": "METAR EDFH 161250Z 20011KT 9999 SCT020 09/05 Q1014",
      "taf": "TAF EDFH 161100Z 1612/1712 16011KT 9999 SCT030"
    },
    {
      "icao": "EDJA",
      "alert": "OK",
      "vis_m": 9999,
      "fzfg": false,
      "metar_trigger": false,
      "taf_trigger": false,
      "metar": "METAR EDJA 161250Z 34003KT CAVOK 10/02 Q1017",
      "taf": "TAF EDJA 161100Z 1612/1621 05005KT CAVOK"
    },
    {
      "icao": "EDLW",
      "alert": "OK",
      "vis_m": 9999,
      "fzfg": false,
      "metar_trigger": false,
      "taf_trigger": false,
      "metar": "METAR EDLW 161250Z 19010KT 9999 BKN027 12/06 Q1013",
      "taf": "TAF EDLW 161100Z 1612/1712 19008KT 9999 SCT040"
    },
    {
      "icao": "EDNY",
      "alert": "OK",
      "vis_m": 9000,
      "fzfg": false,
      "metar_trigger": false,
      "taf_trigger": false,
      "metar": "METAR EDNY 161250Z 00000KT 9000 NSC 05/03 Q1018",
      "taf": ""
    },
    {
      "icao": "EDSB",
      "alert": "OK",
      "vis_m": 9999,
      "fzfg": false,
      "metar_trigger": false,
      "taf_trigger": false,
      "metar": "METAR EDSB 161250Z 00000KT CAVOK 12/05 Q1016",
      "taf": "TAF EDSB 161100Z 1612/1712 VRB03KT CAVOK"
    },
    {
      "icao": "EETN",
      "alert": "OK",
      "vis_m": 9999,
      "fzfg": false,
      "metar_trigger": false,
      "taf_trigger": false,
      "metar": "METAR EETN 161250Z 15006KT 9999 FEW012 BKN026 M07/M09 Q1030 NOSIG",
      "taf": "TAF EETN 161130Z 1612/1712 17012KT 9999 OVC025"
    },
    {
      "icao": "EFTU",
      "alert": "OK",
      "vis_m": 9999,
      "fzfg": false,
      "metar_trigger": false,
      "taf_trigger": false,
      "metar": "METAR EFTU 161250Z AUTO 18011KT 140V210 9999 OVC013 M00/M02 Q1026",
      "taf": "TAF EFTU 161131Z 1612/1712 18010KT 9999 BKN016"
    },
    {
      "icao": "EGBB",
      "alert": "OK",
      "vis_m": 9999,
      "fzfg": false,
      "metar_trigger": false,
      "taf_trigger": false,
      "metar": "METAR EGBB 161250Z 14008KT 9999 BKN006 06/05 Q1006",
      "taf": "TAF EGBB 161057Z 1612/1712 14008KT 4000 BR BKN003"
    },
    {
      "icao": "EGGP",
      "alert": "OK",
      "vis_m": 9999,
      "fzfg": false,
      "metar_trigger": false,
      "taf_trigger": false,
      "metar": "METAR EGGP 161250Z 15010KT 120V180 9999 SCT014 07/04 Q1004",
      "taf": "TAF EGGP 161055Z 1612/1712 15009KT 9999 FEW025"
    },
    {
      "icao": "EGGW",
      "alert": "OK",
      "vis_m": 9999,
      "fzfg": false,
      "metar_trigger": false,
      "taf_trigger": false,
      "metar": "METAR EGGW 161250Z AUTO 18005KT 150V230 9999 SCT012 BKN017 08/07 Q1007",
      "taf": "TAF EGGW 161056Z 1612/1712 20010KT 9999 SCT015"
    },
    {
      "icao": "EGKK",
      "alert": "OK",
      "vis_m": 9999,
      "fzfg": false,
      "metar_trigger": false,
      "taf_trigger": false,
      "metar": "METAR EGKK 161250Z 20007KT 170V240 9999 SCT015 09/07 Q1008",
      "taf": "TAF EGKK 161059Z 1612/1718 16008KT 9999 SCT045"
    },
    {
      "icao": "EGNM",
      "alert": "OK",
      "vis_m": 9999,
      "fzfg": false,
      "metar_trigger": false,
      "taf_trigger": false,
      "metar": "METAR EGNM 161250Z 15006KT 110V170 9999 SCT013 07/04 Q1005",
      "taf": "TAF EGNM 161124Z 1612/1712 15005KT 9999 SCT015"
    },
    {
      "icao": "EGPD",
      "alert": "OK",
      "vis_m": 9999,
      "fzfg": false,
      "metar_trigger": false,
      "taf_trigger": false,
      "metar": "METAR EGPD 161250Z COR AUTO VRB01KT 9999 NCD 00/M01 Q1004 NOSIG",
      "taf": "TAF EGPD 161100Z 1612/1712 VRB03KT 9999 FEW040"
    },
    {
      "icao": "EGPF",
      "alert": "OK",
      "vis_m": 9999,
      "fzfg": false,
      "metar_trigger": false,
      "taf_trigger": false,
      "metar": "METAR EGPF 161250Z AUTO 06008KT 9999 FEW019 SCT039 04/03 Q1002",
      "taf": "TAF EGPF 161101Z 1612/1712 07009KT 9999 SCT025"
    },
    {
      "icao": "EHBK",
      "alert": "OK",
      "vis_m": 9999,
      "fzfg": false,
      "metar_trigger": false,
      "taf_trigger": false,
      "metar": "METAR EHBK 161255Z AUTO 25007KT 220V280 9999 FEW003/// BKN016/// BKN021/// 10/09 Q1013 REDZ NOSIG",
      "taf": "TAF EHBK 161109Z 1612/1718 18008KT 9999 BKN020"
    },
    {
      "icao": "EHEH",
      "alert": "OK",
      "vis_m": 9999,
      "fzfg": false,
      "metar_trigger": false,
      "taf_trigger": false,
      "metar": "METAR EHEH 161225Z AUTO 20006KT 180V240 9999 FEW018 SCT022 OVC038 11/07 Q1012 BLU NOSIG RMK TREND REMOTE BY EHWX",
      "taf": "TAF EHEH 161112Z 1612/1718 19003KT CAVOK"
    },
    {
      "icao": "EKBI",
      "alert": "OK",
      "vis_m": 6000,
      "fzfg": false,
      "metar_trigger": false,
      "taf_trigger": false,
      "metar": "METAR EKBI 161250Z AUTO 21011KT 180V250 6000 -RA OVC009/// 06/05 Q1011",
      "taf": "TAF EKBI 161205Z 1612/1712 20012KT 8000 BKN015"
    },
    {
      "icao": "EKCH",
      "alert": "OK",
      "vis_m": 9999,
      "fzfg": false,
      "metar_trigger": false,
      "taf_trigger": false,
      "metar": "METAR EKCH 161250Z AUTO 17014KT 9999 FEW029/// OVC049/// 05/03 Q1015 NOSIG",
      "taf": "TAF EKCH 161127Z 1612/1712 16015KT 9999 SCT020"
    },
    {
      "icao": "ENAL",
      "alert": "OK",
      "vis_m": 9999,
      "fzfg": false,
      "metar_trigger": false,
      "taf_trigger": false,
      "metar": "METAR ENAL 161250Z 14009KT 9999 SCT060 07/M01 Q1003",
      "taf": ""
    },
    {
      "icao": "ENBR",
      "alert": "OK",
      "vis_m": 9000,
      "fzfg": false,
      "metar_trigger": false,
      "taf_trigger": false,
      "metar": "METAR ENBR 161250Z 36003KT 330V050 9000 RA FEW003 BKN020 04/04 Q1001 TEMPO 4000 -RA BKN012 RMK WIND 1200FT 09005KT",
      "taf": "TAF ENBR 161100Z 1612/1712 35005KT 9999 -RA SCT015 BKN030"
    },
    {
      "icao": "ENGM",
      "alert": "OK",
      "vis_m": 4500,
      "fzfg": false,
      "metar_trigger": false,
      "taf_trigger": false,
      "metar": "METAR ENGM 161250Z VRB01KT 4500 -RASN OVC003 01/00 Q1008 TEMPO RA BR BKN005",
      "taf": ""
    },
    {
      "icao": "ENHD",
      "alert": "OK",
      "vis_m": 7000,
      "fzfg": false,
      "metar_trigger": false,
      "taf_trigger": false,
      "metar": "METAR ENHD 161250Z 05007KT 7000 RA OVC032 05/04 Q1000",
      "taf": "TAF ENHD 161100Z 1612/1621 09008KT 9999 -RA SCT015 BKN025"
    },
    {
      "icao": "ENTC",
      "alert": "OK",
      "vis_m": 9999,
      "fzfg": false,
      "metar_trigger": false,
      "taf_trigger": false,
      "metar": "METAR ENTC 161250Z 24007KT CAVOK M02/M06 Q1012 NOSIG RMK WIND 2600FT 21005KT",
      "taf": "TAF ENTC 161100Z 1612/1712 22012KT CAVOK"
    },
    {
      "icao": "ENTO",
      "alert": "OK",
      "vis_m": 2200,
      "fzfg": false,
      "metar_trigger": false,
      "taf_trigger": false,
      "metar": "METAR ENTO 161250Z 17017KT 2200 +RA OVC002 04/04 Q1007 TEMPO 17017G27KT 4000 RA BR",
      "taf": "TAF ENTO 161100Z 1612/1712 17015KT 6000 -RA SCT003 BKN006"
    },
    {
      "icao": "ENVA",
      "alert": "OK",
      "vis_m": 9999,
      "fzfg": false,
      "metar_trigger": false,
      "taf_trigger": false,
      "metar": "METAR ENVA 161250Z 09011KT 9999 BKN050 04/M00 Q1007 NOSIG RMK WIND 670FT 11008KT",
      "taf": "TAF ENVA 161100Z 1612/1712 12008KT CAVOK"
    },
    {
      "icao": "ENZV",
      "alert": "OK",
      "vis_m": 5000,
      "fzfg": false,
      "metar_trigger": false,
      "taf_trigger": false,
      "metar": "METAR ENZV 161250Z 13009KT 5000 RADZ VV013 06/05 Q0999 REDZRA TEMPO 4000 RA BR BKN008",
      "taf": "TAF ENZV 161100Z 1612/1712 12012KT 9999 -RA SCT010 BKN015"
    },
    {
      "icao": "EPGD",
      "alert": "OK",
      "vis_m": 550,
      "fzfg": true,
      "metar_trigger": false,
      "taf_trigger": false,
      "metar": "METAR EPGD 161230Z 15010KT 0550 R29/0650N FZFG OVC001 M02/M02 Q1023",
      "taf": "TAF EPGD 161130Z 1612/1712 16010KT 0600 FZFG OVC002"
    },
    {
      "icao": "EPKK",
      "alert": "OK",
      "vis_m": 9999,
      "fzfg": false,
      "metar_trigger": false,
      "taf_trigger": false,
      "metar": "METAR EPKK 161230Z 07010KT CAVOK 02/M01 Q1023",
      "taf": "TAF EPKK 161130Z 1612/1712 07010KT CAVOK"
    },
    {
      "icao": "EPKT",
      "alert": "OK",
      "vis_m": 9999,
      "fzfg": false,
      "metar_trigger": false,
      "taf_trigger": false,
      "metar": "METAR EPKT 161230Z VRB01KT CAVOK 05/01 Q1023",
      "taf": "TAF EPKT 161130Z 1612/1712 13005KT CAVOK"
    },
    {
      "icao": "EPLB",
      "alert": "OK",
      "vis_m": 8000,
      "fzfg": false,
      "metar_trigger": false,
      "taf_trigger": false,
      "metar": "METAR EPLB 161230Z 09008KT 8000 NSC M06/M09 Q1028",
      "taf": "TAF EPLB 161130Z 1612/1712 11008KT 7000 NSC"
    },
    {
      "icao": "EPMO",
      "alert": "OK",
      "vis_m": 5000,
      "fzfg": false,
      "metar_trigger": false,
      "taf_trigger": false,
      "metar": "METAR EPMO 161230Z 12006KT 5000 BR BKN011 M02/M03 Q1027",
      "taf": "TAF EPMO 161130Z 1612/1712 11010KT 3000 BR BKN010"
    },
    {
      "icao": "EPPO",
      "alert": "OK",
      "vis_m": 8000,
      "fzfg": false,
      "metar_trigger": false,
      "taf_trigger": false,
      "metar": "METAR EPPO 161230Z 12011KT 8000 NSC 05/02 Q1021",
      "taf": "TAF EPPO 161130Z 1612/1712 13008KT CAVOK"
    },
    {
      "icao": "EPRA",
      "alert": "OK",
      "vis_m": 6000,
      "fzfg": false,
      "metar_trigger": false,
      "taf_trigger": false,
      "metar": "METAR EPRA 161230Z 11010KT 6000 OVC006 M02/M04 Q1026",
      "taf": "TAF EPRA 161130Z 1612/1621 12010KT 8000 OVC006"
    },
    {
      "icao": "EPRZ",
      "alert": "OK",
      "vis_m": 4000,
      "fzfg": false,
      "metar_trigger": false,
      "taf_trigger": false,
      "metar": "METAR EPRZ 161230Z 09012KT 4000 BR OVC004 M03/M04 Q1026",
      "taf": "TAF EPRZ 161130Z 1612/1712 08013KT 3000 BR OVC003"
    },
    {
      "icao": "EPSC",
      "alert": "OK",
      "vis_m": 3200,
      "fzfg": false,
      "metar_trigger": false,
      "taf_trigger": false,
      "metar": "METAR EPSC 161230Z 14014KT 3200 BR OVC003 03/02 Q1019",
      "taf": "TAF EPSC 161130Z 1612/1712 14014KT 3500 BR OVC002"
    },
    {
      "icao": "EPSY",
      "alert": "OK",
      "vis_m": 6000,
      "fzfg": false,
      "metar_trigger": false,
      "taf_trigger": false,
      "metar": "METAR EPSY 161230Z 14009KT 080V180 6000 BKN009 M04/M06 Q1027",
      "taf": "TAF EPSY 161130Z 1612/1621 14008KT 7000 BKN010"
    },
    {
      "icao": "EPWA",
      "alert": "OK",
      "vis_m": 8000,
      "fzfg": false,
      "metar_trigger": false,
      "taf_trigger": false,
      "metar": "METAR EPWA 161230Z 13011KT 8000 BKN012 M03/M05 Q1027 TEMPO BKN022",
      "taf": "TAF EPWA 161130Z 1612/1712 12010KT 7000 SCT010 BKN024"
    },
    {
      "icao": "EPWR",
      "alert": "OK",
      "vis_m": 9999,
      "fzfg": false,
      "metar_trigger": false,
      "taf_trigger": false,
      "metar": "METAR EPWR 161230Z 12011KT CAVOK 05/02 Q1021",
      "taf": "TAF EPWR 161130Z 1612/1712 13006KT CAVOK"
    },
    {
      "icao": "ESGG",
      "alert": "OK",
      "vis_m": 7000,
      "fzfg": false,
      "metar_trigger": false,
      "taf_trigger": false,
      "metar": "METAR ESGG 161250Z 16010KT 7000 OVC007 04/04 Q1011",
      "taf": "TAF ESGG 161130Z 1612/1712 16010KT 9000 BKN002"
    },
    {
      "icao": "ESKN",
      "alert": "OK",
      "vis_m": 3000,
      "fzfg": false,
      "metar_trigger": false,
      "taf_trigger": false,
      "metar": "METAR ESKN 161250Z 15016KT 110V180 3000 BR OVC003 03/03 Q1018",
      "taf": "TAF ESKN 161130Z 1612/1712 17015G25KT 5000 OVC003"
    },
    {
      "icao": "ESMS",
      "alert": "OK",
      "vis_m": 3700,
      "fzfg": false,
      "metar_trigger": false,
      "taf_trigger": false,
      "metar": "METAR ESMS 161250Z 15010KT 3700 BR OVC004 04/04 Q1015",
      "taf": "TAF ESMS 161127Z 1612/1712 15010KT 2000 BR BKN003"
    },
    {
      "icao": "ESSA",
      "alert": "OK",
      "vis_m": 5000,
      "fzfg": false,
      "metar_trigger": false,
      "taf_trigger": false,
      "metar": "METAR ESSA 161250Z 16012KT 5000 -DZ OVC006 02/01 Q1018 NOSIG",
      "taf": "TAF ESSA 161130Z 1612/1712 17015KT 9999 OVC004"
    },
    {
      "icao": "EYKA",
      "alert": "OK",
      "vis_m": 9999,
      "fzfg": false,
      "metar_trigger": false,
      "taf_trigger": false,
      "metar": "METAR EYKA 161250Z 17008KT 120V250 CAVOK M11/M15 Q1032",
      "taf": "TAF EYKA 161100Z 1612/1712 VRB04KT 7000 NSC"
    },
    {
      "icao": "EYPA",
      "alert": "OK",
      "vis_m": 9999,
      "fzfg": false,
      "metar_trigger": false,
      "taf_trigger": false,
      "metar": "METAR EYPA 161250Z 15015KT CAVOK M04/M07 Q1027",
      "taf": "TAF EYPA 161100Z 1612/1712 14012KT 6000 SCT010 BKN015"
    },
    {
      "icao": "EYVI",
      "alert": "OK",
      "vis_m": 9999,
      "fzfg": false,
      "metar_trigger": false,
      "taf_trigger": false,
      "metar": "METAR EYVI 161250Z 14008KT CAVOK M12/M16 Q1032 NOSIG",
      "taf": "TAF EYVI 161101Z 1612/1712 16010KT 7000 NSC"
    },
    {
      "icao": "GCFV",
      "alert": "OK",
      "vis_m": 9999,
      "fzfg": false,
      "metar_trigger": false,
      "taf_trigger": false,
      "metar": "METAR GCFV 161230Z 02007KT 290V070 9999 BKN035 20/10 Q1024",
      "taf": "TAF GCFV 160800Z 1609/1709 03007KT 9999 SCT035 TX22/1614Z TN14/1706Z"
    },
    {
      "icao": "GCLP",
      "alert": "OK",
      "vis_m": 9999,
      "fzfg": false,
      "metar_trigger": false,
      "taf_trigger": false,
      "metar": "METAR GCLP 161230Z 01018KT 9999 FEW025 SCT035 19/14 Q1025 NOSIG",
      "taf": "TAF GCLP 160800Z 1609/1709 01019KT 9999 SCT035 TX22/1614Z TN15/1706Z"
    },
    {
      "icao": "GCTS",
      "alert": "OK",
      "vis_m": 9999,
      "fzfg": false,
      "metar_trigger": false,
      "taf_trigger": false,
      "metar": "METAR GCTS 161230Z COR 23006KT 170V280 9999 FEW035 20/11 Q1025 NOSIG",
      "taf": "TAF GCTS 160800Z 1609/1709 27010KT 9999 SCT035 TX22/1614Z TN14/1706Z"
    },
    {
      "icao": "GMAD",
      "alert": "OK",
      "vis_m": 9999,
      "fzfg": false,
      "metar_trigger": false,
      "taf_trigger": false,
      "metar": "METAR GMAD 161230Z 23005KT 190V260 9999 FEW020 17/13 Q1022 NOSIG",
      "taf": "TAF GMAD 161100Z 1612/1718 09003KT CAVOK"
    },
    {
      "icao": "GMMN",
      "alert": "OK",
      "vis_m": 3000,
      "fzfg": false,
      "metar_trigger": false,
      "taf_trigger": false,
      "metar": "METAR GMMN 161230Z 23014KT 200V260 3000 -RA BKN004 BKN020 13/11 Q1020 NOSIG",
      "taf": "TAF GMMN 161100Z 1612/1718 210015KT 8000 SCT010 BKN020"
    },
    {
      "icao": "GMMX",
      "alert": "OK",
      "vis_m": 9999,
      "fzfg": false,
      "metar_trigger": false,
      "taf_trigger": false,
      "metar": "METAR GMMX 161230Z 27009KT 240V320 9999 FEW026 SCT200 15/09 Q1021 NOSIG",
      "taf": "TAF GMMX 161100Z 1612/1712 06006KT 8000 SCT026"
    },
    {
      "icao": "HEGN",
      "alert": "OK",
      "vis_m": 9999,
      "fzfg": false,
      "metar_trigger": false,
      "taf_trigger": false,
      "metar": "METAR HEGN 161200Z 01004KT CAVOK 21/07 Q1018 NOSIG",
      "taf": "TAF HEGN 161100Z 1612/1718 01012KT CAVOK"
    },
    {
      "icao": "HEMA",
      "alert": "OK",
      "vis_m": 9999,
      "fzfg": false,
      "metar_trigger": false,
      "taf_trigger": false,
      "metar": "METAR HEMA 161200Z 35017KT 9999 SCT020 22/11 Q1017 NOSIG",
      "taf": "TAF HEMA 161100Z 1612/1718 36015KT 9999 FEW025"
    },
    {
      "icao": "HESH",
      "alert": "OK",
      "vis_m": null,
      "fzfg": false,
      "metar_trigger": false,
      "taf_trigger": false,
      "metar": "",
      "taf": "TAF HESH 161100Z 1612/1718 03010KT CAVOK"
    },
    {
      "icao": "HESX",
      "alert": "OK",
      "vis_m": 9999,
      "fzfg": false,
      "metar_trigger": false,
      "taf_trigger": false,
      "metar": "METAR HESX 161200Z 04010KT 9999 SCT030 18/08 Q1021 NOSIG",
      "taf": "TAF HESX 161100Z 1612/1718 01006KT 9999 SCT025"
    },
    {
      "icao": "LATI",
      "alert": "OK",
      "vis_m": 9999,
      "fzfg": false,
      "metar_trigger": false,
      "taf_trigger": false,
      "metar": "METAR LATI 161250Z 31004KT 280V010 9999 BKN051 BKN082 17/05 Q1021 NOSIG",
      "taf": "TAF LATI 161100Z 1612/1712 VRB05KT 9999 FEW050 BKN080 TX16/1612Z TN05/1705Z"
    },
    {
      "icao": "LBPD",
      "alert": "OK",
      "vis_m": 7000,
      "fzfg": false,
      "metar_trigger": false,
      "taf_trigger": false,
      "metar": "METAR LBPD 161230Z AUTO 10011KT 7000 OVC006/// 06/06 Q1024 NOSIG",
      "taf": "TAF LBPD 161100Z 1612/1712 10010KT 9999 BKN070"
    },
    {
      "icao": "LBSF",
      "alert": "OK",
      "vis_m": 9999,
      "fzfg": false,
      "metar_trigger": false,
      "taf_trigger": false,
      "metar": "METAR LBSF 161230Z 05004KT 9999 BKN059 BKN073 08/02 Q1022 NOSIG",
      "taf": "TAF LBSF 161100Z 1612/1712 10010KT 9999 BKN060"
    },
    {
      "icao": "LBWN",
      "alert": "OK",
      "vis_m": 9999,
      "fzfg": false,
      "metar_trigger": false,
      "taf_trigger": false,
      "metar": "METAR LBWN 161230Z 05008KT 9999 OVC046 M02/M06 Q1029 NOSIG",
      "taf": "TAF LBWN 161100Z 1612/1712 02010KT 9999 SCT020 OVC040"
    },
    {
      "icao": "LCLK",
      "alert": "OK",
      "vis_m": 9999,
      "fzfg": false,
      "metar_trigger": false,
      "taf_trigger": false,
      "metar": "METAR LCLK 161230Z 17004KT 130V190 9999 FEW030 18/09 Q1020 NOSIG",
      "taf": "TAF LCLK 161130Z 1612/1712 18010KT 9999 FEW025"
    },
    {
      "icao": "LCPH",
      "alert": "OK",
      "vis_m": 9999,
      "fzfg": false,
      "metar_trigger": false,
      "taf_trigger": false,
      "metar": "METAR LCPH 161230Z 26006KT 240V320 9999 FEW025 17/10 Q1020 NOSIG",
      "taf": "TAF LCPH 161130Z 1612/1712 21010KT 9999 FEW025"
    },
    {
      "icao": "LEAL",
      "alert": "OK",
      "vis_m": 9999,
      "fzfg": false,
      "metar_trigger": false,
      "taf_trigger": false,
      "metar": "METAR LEAL 161230Z VRB02KT 9999 FEW045 18/07 Q1014 NOSIG",
      "taf": "TAF LEAL 161100Z 1612/1712 VRB04KT 9999 FEW020 TX16/1613Z TN07/1706Z"
    },
    {
      "icao": "LEBB",
      "alert": "OK",
      "vis_m": 9999,
      "fzfg": false,
      "metar_trigger": false,
      "taf_trigger": false,
      "metar": "METAR LEBB 161230Z 18007KT 140V240 CAVOK 14/05 Q1010 NOSIG",
      "taf": "TAF LEBB 161100Z 1612/1712 12006KT 9999 FEW045 TX14/1613Z TN06/1707Z"
    },
    {
      "icao": "LEBL",
      "alert": "OK",
      "vis_m": 9999,
      "fzfg": false,
      "metar_trigger": false,
      "taf_trigger": false,
      "metar": "METAR LEBL 161230Z 33004KT 260V030 9999 FEW030 SCT060 14/06 Q1014 NOSIG",
      "taf": "TAF LEBL 161100Z 1612/1712 VRB04KT 9999 FEW015 SCT050 TX12/1612Z TN09/1706Z"
    },
    {
      "icao": "LECH",
      "alert": "OK",
      "vis_m": 9999,
      "fzfg": false,
      "metar_trigger": false,
      "taf_trigger": false,
      "metar": "METAR LECH 161230Z AUTO 14003KT 070V210 9999 FEW023 BKN060 12/06 Q1013",
      "taf": ""
    },
    {
      "icao": "LEMD",
      "alert": "OK",
      "vis_m": 9999,
      "fzfg": false,
      "metar_trigger": false,
      "taf_trigger": false,
      "metar": "METAR LEMD 161230Z 23006KT 180V290 9999 SCT020 BKN060 10/08 Q1011 NOSIG",
      "taf": "TAF LEMD 161100Z 1612/1718 VRB04KT 9999 SCT025 TX11/1614Z TN02/1708Z"
    },
    {
      "icao": "LEMG",
      "alert": "OK",
      "vis_m": 9999,
      "fzfg": false,
      "metar_trigger": false,
      "taf_trigger": false,
      "metar": "METAR LEMG 161230Z VRB01KT 9999 FEW020 16/12 Q1015 NOSIG",
      "taf": "TAF LEMG 161100Z 1612/1712 31006KT 9999 FEW030 SCT050 TX17/1614Z TN07/1707Z"
    },
    {
      "icao": "LEVC",
      "alert": "OK",
      "vis_m": 9999,
      "fzfg": false,
      "metar_trigger": false,
      "taf_trigger": false,
      "metar": "METAR LEVC 161230Z VRB02KT 9999 FEW030 BKN045 15/07 Q1013 NOSIG",
      "taf": "TAF LEVC 161100Z 1612/1712 VRB04KT 9999 FEW030 TX15/1612Z TN04/1706Z"
    },
    {
      "icao": "LEXJ",
      "alert": "OK",
      "vis_m": 9999,
      "fzfg": false,
      "metar_trigger": false,
      "taf_trigger": false,
      "metar": "METAR LEXJ 161230Z 20006KT 140V250 CAVOK 14/04 Q1009",
      "taf": "TAF LEXJ 160800Z 1609/1709 20009KT 9999 FEW045 TX15/1614Z TN06/1704Z"
    },
    {
      "icao": "LEZG",
      "alert": "OK",
      "vis_m": 5000,
      "fzfg": false,
      "metar_trigger": false,
      "taf_trigger": false,
      "metar": "METAR LEZG 161230Z 10007KT 5000 DZ BR FEW030 SCT040 OVC050 09/08 Q1013 NOSIG",
      "taf": "TAF LEZG 161100Z 1612/1712 09005KT 9999 FEW060 TX10/1614Z TN04/1706Z"
    },
    {
      "icao": "LEZL",
      "alert": "OK",
      "vis_m": 9999,
      "fzfg": false,
      "metar_trigger": false,
      "taf_trigger": false,
      "metar": "METAR LEZL 161230Z 28008KT 250V320 CAVOK 16/08 Q1015 NOSIG",
      "taf": ""
    },
    {
      "icao": "LFBD",
      "alert": "OK",
      "vis_m": 9999,
      "fzfg": false,
      "metar_trigger": false,
      "taf_trigger": false,
      "metar": "METAR LFBD 161230Z AUTO 12006KT 9999 FEW007/// BKN027/// OVC043/// ///TCU 09/08 Q1011 TEMPO SHRA BKN012 BKN030TCU",
      "taf": "TAF LFBD 161100Z 1612/1718 14006KT 9999 BKN030 TX11/1615Z TN05/1704Z"
    },
    {
      "icao": "LFLL",
      "alert": "OK",
      "vis_m": 9999,
      "fzfg": false,
      "metar_trigger": false,
      "taf_trigger": false,
      "metar": "METAR LFLL 161230Z 12006KT CAVOK 14/05 Q1013 NOSIG",
      "taf": "TAF LFLL 161100Z 1612/1718 14006KT CAVOK"
    },
    {
      "icao": "LFLS",
      "alert": "OK",
      "vis_m": 9999,
      "fzfg": false,
      "metar_trigger": false,
      "taf_trigger": false,
      "metar": "METAR LFLS 161230Z AUTO 18015KT CAVOK 15/01 Q1013 BECMG VRB03KT",
      "taf": "TAF LFLS 160800Z 1609/1709 VRB03KT CAVOK"
    },
    {
      "icao": "LFMN",
      "alert": "OK",
      "vis_m": 9999,
      "fzfg": false,
      "metar_trigger": false,
      "taf_trigger": false,
      "metar": "METAR LFMN 161230Z 32010KT 9999 FEW033 OVC093 13/04 Q1018 NOSIG",
      "taf": "TAF LFMN 160800Z 1609/1715 33010KT 9999 FEW025 BKN100"
    },
    {
      "icao": "LFOB",
      "alert": "OK",
      "vis_m": 9999,
      "fzfg": false,
      "metar_trigger": false,
      "taf_trigger": false,
      "metar": "METAR LFOB 161230Z AUTO 20010KT 170V240 9999 BKN019 BKN220 10/06 Q1012 TEMPO BKN008",
      "taf": "TAF LFOB 161100Z 1612/1712 VRB03KT 9999 BKN020"
    },
    {
      "icao": "LFPO",
      "alert": "OK",
      "vis_m": 9999,
      "fzfg": false,
      "metar_trigger": false,
      "taf_trigger": false,
      "metar": "METAR LFPO 161230Z AUTO 20008KT 180V240 9999 FEW018 OVC031 11/07 Q1012",
      "taf": "TAF LFPO 160500Z 1606/1712 21010KT 9999 SCT012 BKN020"
    },
    {
      "icao": "LFSB",
      "alert": "OK",
      "vis_m": 9999,
      "fzfg": false,
      "metar_trigger": false,
      "taf_trigger": false,
      "metar": "METAR LFSB 161230Z AUTO 12010KT CAVOK 11/03 Q1016 NOSIG",
      "taf": "TAF LFSB 161100Z 1612/1712 15008KT CAVOK"
    },
    {
      "icao": "LGAV",
      "alert": "OK",
      "vis_m": 9999,
      "fzfg": false,
      "metar_trigger": false,
      "taf_trigger": false,
      "metar": "METAR LGAV 161250Z 08003KT 9999 FEW025 BKN040 14/08 Q1022 NOSIG",
      "taf": "TAF LGAV 161100Z 1612/1712 VRB03KT 9999 FEW030"
    },
    {
      "icao": "LGTS",
      "alert": "OK",
      "vis_m": 9999,
      "fzfg": false,
      "metar_trigger": false,
      "taf_trigger": false,
      "metar": "METAR LGTS 161250Z 26004KT 9999 FEW020 13/05 Q1021 NOSIG",
      "taf": "TAF LGTS 161100Z 1612/1712 VRB03KT 9999 FEW030"
    },
    {
      "icao": "LHBP",
      "alert": "OK",
      "vis_m": 1200,
      "fzfg": false,
      "metar_trigger": false,
      "taf_trigger": false,
      "metar": "METAR LHBP 161230Z 05005KT 1200 R13R/1700N R13L/1300U BR OVC002 02/01 Q1024 NOSIG",
      "taf": "TAF LHBP 161115Z 1612/1712 08005KT 3000 BR SCT004 OVC010"
    },
    {
      "icao": "LHDC",
      "alert": "OK",
      "vis_m": 9000,
      "fzfg": false,
      "metar_trigger": false,
      "taf_trigger": false,
      "metar": "METAR LHDC 161215Z AUTO 07005KT 9000 -SHRA FEW012 OVC029 04/02 Q1024 NOSIG",
      "taf": "TAF LHDC 161115Z 1612/1621 06006KT 6000 OVC025"
    },
    {
      "icao": "LIBD",
      "alert": "OK",
      "vis_m": 9999,
      "fzfg": false,
      "metar_trigger": false,
      "taf_trigger": false,
      "metar": "METAR LIBD 161250Z 34005KT 300V020 CAVOK 12/08 Q1020",
      "taf": "TAF LIBD 161100Z 1612/1712 VRB05KT 9999 FEW030"
    },
    {
      "icao": "LIBG",
      "alert": "OK",
      "vis_m": 9999,
      "fzfg": false,
      "metar_trigger": false,
      "taf_trigger": false,
      "metar": "METAR LIBG 161150Z VRB02KT CAVOK 15/15 Q1020",
      "taf": "TAF LIBG 161100Z 1612/1621 VRB05KT 8000 FEW025"
    },
    {
      "icao": "LIBP",
      "alert": "OK",
      "vis_m": 9999,
      "fzfg": false,
      "metar_trigger": false,
      "taf_trigger": false,
      "metar": "METAR LIBP 161250Z AUTO 06008KT 9999 NCD 12/06 Q1021",
      "taf": "TAF LIBP 161100Z 1612/1712 VRB05KT CAVOK"
    },
    {
      "icao": "LIBR",
      "alert": "OK",
      "vis_m": 9999,
      "fzfg": false,
      "metar_trigger": false,
      "taf_trigger": false,
      "metar": "METAR LIBR 161250Z 02007KT CAVOK 13/10 Q1020",
      "taf": "TAF LIBR 161100Z 1612/1712 VRB05KT 9999 FEW025"
    },
    {
      "icao": "LICA",
      "alert": "OK",
      "vis_m": 9999,
      "fzfg": false,
      "metar_trigger": false,
      "taf_trigger": false,
      "metar": "METAR LICA 161250Z AUTO 07016KT 9999 NCD 16/12 Q1018",
      "taf": "TAF LICA 161100Z 1612/1712 08012KT CAVOK"
    },
    {
      "icao": "LICC",
      "alert": "OK",
      "vis_m": 8000,
      "fzfg": false,
      "metar_trigger": false,
      "taf_trigger": false,
      "metar": "METAR LICC 161250Z 17002KT 8000 BKN030 15/12 Q1018",
      "taf": "TAF LICC 161100Z 1612/1712 VRB05KT 9999 SCT020"
    },
    {
      "icao": "LICJ",
      "alert": "OK",
      "vis_m": 9999,
      "fzfg": false,
      "metar_trigger": false,
      "taf_trigger": false,
      "metar": "METAR LICJ 161250Z 19005KT 080V230 CAVOK 15/10 Q1016",
      "taf": "TAF LICJ 161100Z 1612/1712 VRB06KT CAVOK"
    },
    {
      "icao": "LIMC",
      "alert": "OK",
      "vis_m": 2000,
      "fzfg": false,
      "metar_trigger": false,
      "taf_trigger": false,
      "metar": "METAR LIMC 161250Z 23004KT 2000 BCFG OVC002 07/06 Q1021 NOSIG",
      "taf": "TAF LIMC 161100Z 1612/1718 VRB05KT 2000 -RA BR BKN003"
    },
    {
      "icao": "LIME",
      "alert": "OK",
      "vis_m": 1100,
      "fzfg": false,
      "metar_trigger": false,
      "taf_trigger": false,
      "metar": "METAR LIME 161250Z 21005KT 1100 R28/1500D BR NSC 07/07 Q1021 TEMPO 0800 BCFG",
      "taf": ""
    },
    {
      "icao": "LIMF",
      "alert": "OK",
      "vis_m": 7000,
      "fzfg": false,
      "metar_trigger": false,
      "taf_trigger": false,
      "metar": "METAR LIMF 161250Z VRB02KT 7000 SCT070 BKN120 09/03 Q1021",
      "taf": "TAF LIMF 161100Z 1612/1712 VRB03KT 6000 SCT020 BKN060"
    },
    {
      "icao": "LIMJ",
      "alert": "OK",
      "vis_m": 9999,
      "fzfg": false,
      "metar_trigger": false,
      "taf_trigger": false,
      "metar": "METAR LIMJ 161250Z 04014KT 9999 -RA SCT022 BKN030 10/07 Q1019",
      "taf": "TAF LIMJ 161100Z 1612/1712 04014KT 9999 BKN030"
    },
    {
      "icao": "LIPE",
      "alert": "OK",
      "vis_m": 2000,
      "fzfg": false,
      "metar_trigger": false,
      "taf_trigger": false,
      "metar": "METAR LIPE 161250Z 29005KT 2000 BR SCT007 BKN010 08/06 Q1021",
      "taf": "TAF LIPE 161100Z 1612/1712 VRB04KT 2000 BR BKN020"
    },
    {
      "icao": "LIPH",
      "alert": "OK",
      "vis_m": 9999,
      "fzfg": false,
      "metar_trigger": false,
      "taf_trigger": false,
      "metar": "METAR LIPH 161250Z VRB02KT CAVOK 11/05 Q1021",
      "taf": "TAF LIPH 161100Z 1612/1712 VRB04KT 7000 SCT040"
    },
    {
      "icao": "LIPQ",
      "alert": "OK",
      "vis_m": 4600,
      "fzfg": false,
      "metar_trigger": false,
      "taf_trigger": false,
      "metar": "METAR LIPQ 161250Z AUTO 18003KT 4600 BR OVC010/// 10/08 Q1022",
      "taf": "TAF LIPQ 161100Z 1612/1712 VRB04KT 8000 BKN020"
    },
    {
      "icao": "LIPR",
      "alert": "OK",
      "vis_m": 3500,
      "fzfg": false,
      "metar_trigger": false,
      "taf_trigger": false,
      "metar": "METAR LIPR 161250Z VRB01KT 3500 BR BKN006 07/06 Q1022",
      "taf": "TAF LIPR 161100Z 1612/1712 VRB04KT 2000 BR BKN020"
    },
    {
      "icao": "LIPX",
      "alert": "OK",
      "vis_m": 5000,
      "fzfg": false,
      "metar_trigger": false,
      "taf_trigger": false,
      "metar": "METAR LIPX 161250Z VRB02KT 5000 BR BKN070 09/06 Q1021",
      "taf": "TAF LIPX 161100Z 1612/1712 VRB04KT 3000 BR SCT040"
    },
    {
      "icao": "LIPY",
      "alert": "OK",
      "vis_m": 4400,
      "fzfg": false,
      "metar_trigger": false,
      "taf_trigger": false,
      "metar": "METAR LIPY 161250Z AUTO 35004KT 320V040 4400 R22/1400U BR OVC005/// 09/09 Q1021",
      "taf": "TAF LIPY 161100Z 1612/1712 VRB05KT 0200 FG OVC002"
    },
    {
      "icao": "LIPZ",
      "alert": "OK",
      "vis_m": 5000,
      "fzfg": false,
      "metar_trigger": false,
      "taf_trigger": false,
      "metar": "METAR LIPZ 161250Z VRB02KT 5000 BR FEW016 SCT045 08/05 Q1022 NOSIG",
      "taf": "TAF LIPZ 161100Z 1612/1718 VRB04KT 6000 SCT030"
    },
    {
      "icao": "LIRF",
      "alert": "OK",
      "vis_m": 9999,
      "fzfg": false,
      "metar_trigger": false,
      "taf_trigger": false,
      "metar": "METAR LIRF 161250Z 05006KT CAVOK 14/07 Q1018 NOSIG",
      "taf": "TAF LIRF 161100Z 1612/1718 06007KT CAVOK"
    },
    {
      "icao": "LIRN",
      "alert": "OK",
      "vis_m": 9999,
      "fzfg": false,
      "metar_trigger": false,
      "taf_trigger": false,
      "metar": "METAR LIRN 161250Z VRB03KT CAVOK 16/03 Q1018 NOSIG",
      "taf": "TAF LIRN 161100Z 1612/1712 VRB05KT CAVOK"
    },
    {
      "icao": "LIRP",
      "alert": "OK",
      "vis_m": 9999,
      "fzfg": false,
      "metar_trigger": false,
      "taf_trigger": false,
      "metar": "METAR LIRP 161245Z 12006KT 9999 BKN060 14/10 Q1019 NOSIG",
      "taf": "TAF LIRP 161100Z 1612/1712 12010KT 9999 BKN030"
    },
    {
      "icao": "LIRZ",
      "alert": "OK",
      "vis_m": 9999,
      "fzfg": false,
      "metar_trigger": false,
      "taf_trigger": false,
      "metar": "METAR LIRZ 161250Z AUTO VRB01KT 9999 NCD 11/08 Q1019",
      "taf": "TAF LIRZ 161100Z 1612/1712 VRB04KT CAVOK"
    },
    {
      "icao": "LJLJ",
      "alert": "OK",
      "vis_m": 9999,
      "fzfg": false,
      "metar_trigger": false,
      "taf_trigger": false,
      "metar": "METAR LJLJ 161230Z 32002KT 9999 FEW040 BKN050 05/03 Q1020 NOSIG",
      "taf": "TAF LJLJ 161100Z 1612/1712 30004KT 9999 FEW040 BKN050"
    },
    {
      "icao": "LKMT",
      "alert": "OK",
      "vis_m": 7000,
      "fzfg": false,
      "metar_trigger": false,
      "taf_trigger": false,
      "metar": "METAR LKMT 161230Z 19006KT 7000 FEW016 OVC020 03/02 Q1023 NOSIG",
      "taf": "TAF LKMT 161100Z 1612/1712 22006KT 5000 BR SCT010 OVC015"
    },
    {
      "icao": "LKPR",
      "alert": "OK",
      "vis_m": 6000,
      "fzfg": false,
      "metar_trigger": false,
      "taf_trigger": false,
      "metar": "METAR LKPR 161230Z 10005KT 070V130 6000 SCT005 OVC006 00/00 Q1021 NOSIG",
      "taf": "TAF LKPR 161100Z 1612/1718 11005KT 4000 BR BKN004"
    },
    {
      "icao": "LLBG",
      "alert": "OK",
      "vis_m": 9999,
      "fzfg": false,
      "metar_trigger": false,
      "taf_trigger": false,
      "metar": "METAR LLBG 161250Z 02007KT 9999 BKN043 18/08 Q1020 NOSIG",
      "taf": "TAF LLBG 161107Z 1612/1712 32008KT 9999 FEW045"
    },
    {
      "icao": "LMML",
      "alert": "OK",
      "vis_m": 9999,
      "fzfg": false,
      "metar_trigger": false,
      "taf_trigger": false,
      "metar": "METAR LMML 161245Z 18005KT 160V230 9999 -RA FEW020 16/14 Q1016 TEMPO 8000 RA",
      "taf": ""
    },
    {
      "icao": "LOWW",
      "alert": "OK",
      "vis_m": 3000,
      "fzfg": false,
      "metar_trigger": false,
      "taf_trigger": false,
      "metar": "METAR LOWW 161250Z 15008KT 3000 BR FEW002 OVC004 M00/M01 Q1023 NOSIG",
      "taf": "TAF LOWW 161115Z 1612/1718 14008KT 0500 FG OVC002 TX02/1710Z TNM00/1612Z"
    },
    {
      "icao": "LPFR",
      "alert": "OK",
      "vis_m": 9999,
      "fzfg": false,
      "metar_trigger": false,
      "taf_trigger": false,
      "metar": "METAR LPFR 161230Z 19005KT 9999 -SHRA FEW020 FEW025CB 14/11 Q1016",
      "taf": "TAF LPFR 161100Z 1612/1712 28010KT 9999 SCT035"
    },
    {
      "icao": "LPMA",
      "alert": "OK",
      "vis_m": 9999,
      "fzfg": false,
      "metar_trigger": false,
      "taf_trigger": false,
      "metar": "METAR LPMA 161230Z 34008G19KT 280V060 9999 FEW015 18/09 Q1026",
      "taf": "TAF LPMA 161100Z 1612/1712 34015KT 9999 SCT015"
    },
    {
      "icao": "LPPR",
      "alert": "OK",
      "vis_m": 8000,
      "fzfg": false,
      "metar_trigger": false,
      "taf_trigger": false,
      "metar": "METAR LPPR 161230Z VRB02KT 8000 -SHRA FEW018CB BKN040 10/08 Q1012",
      "taf": "TAF LPPR 161100Z 1612/1712 32010KT 9999 FEW018TCU SCT035"
    },
    {
      "icao": "LPPS",
      "alert": "OK",
      "vis_m": 9999,
      "fzfg": false,
      "metar_trigger": false,
      "taf_trigger": false,
      "metar": "METAR LPPS 161230Z 33017KT 9999 SCT014 18/11 Q1026",
      "taf": "TAF LPPS 161100Z 1612/1718 33015KT 9999 SCT014 SCT030"
    },
    {
      "icao": "LPPT",
      "alert": "OK",
      "vis_m": 9999,
      "fzfg": false,
      "metar_trigger": false,
      "taf_trigger": false,
      "metar": "METAR LPPT 161230Z VRB02KT 9999 FEW018 10/09 Q1014",
      "taf": "TAF LPPT 161100Z 1612/1718 30010KT 9999 FEW018 SCT035"
    },
    {
      "icao": "LQBK",
      "alert": "OK",
      "vis_m": 9999,
      "fzfg": false,
      "metar_trigger": false,
      "taf_trigger": false,
      "metar": "METAR LQBK 161230Z 32002KT CAVOK 08/04 Q1022 NOSIG",
      "taf": "TAF LQBK 161100Z 1612/1712 04005KT CAVOK TX10/1614Z TNM00/1706Z"
    },
    {
      "icao": "LQSA",
      "alert": "OK",
      "vis_m": 7000,
      "fzfg": false,
      "metar_trigger": false,
      "taf_trigger": false,
      "metar": "METAR LQSA 161230Z VRB01KT 7000 FEW045 07/01 Q1022 NOSIG",
      "taf": "TAF LQSA 161100Z 1612/1712 VRB02KT 6000 FEW008 TX06/1614Z TNM01/1705Z"
    },
    {
      "icao": "LQTZ",
      "alert": "OK",
      "vis_m": 7000,
      "fzfg": false,
      "metar_trigger": false,
      "taf_trigger": false,
      "metar": "METAR LQTZ 161230Z VRB01KT 7000 FEW055 10/03 Q1022",
      "taf": "TAF LQTZ 161100Z 1612/1712 12005KT 6000 SCT065 TX08/1613Z TNM02/1705Z"
    },
    {
      "icao": "LRBC",
      "alert": "OK",
      "vis_m": 9999,
      "fzfg": false,
      "metar_trigger": false,
      "taf_trigger": false,
      "metar": "METAR LRBC 161230Z 36006KT 320V040 CAVOK M03/M11 Q1033",
      "taf": "TAF LRBC 161100Z 1612/1621 01006KT CAVOK"
    },
    {
      "icao": "LRBS",
      "alert": "OK",
      "vis_m": 9999,
      "fzfg": false,
      "metar_trigger": false,
      "taf_trigger": false,
      "metar": "METAR LRBS 161230Z 06012KT 030V090 CAVOK M03/M07 Q1031 NOSIG",
      "taf": "TAF LRBS 161100Z 1612/1712 07015KT CAVOK"
    },
    {
      "icao": "LRBV",
      "alert": "OK",
      "vis_m": 9999,
      "fzfg": false,
      "metar_trigger": false,
      "taf_trigger": false,
      "metar": "METAR LRBV 161230Z 09011KT 9999 BKN030 BKN039 M01/M06 Q1026",
      "taf": "TAF LRBV 161100Z 1612/1621 10010KT 5000 BR SCT020 BKN035"
    },
    {
      "icao": "LRCL",
      "alert": "OK",
      "vis_m": 8000,
      "fzfg": false,
      "metar_trigger": false,
      "taf_trigger": false,
      "metar": "METAR LRCL 161230Z 07006KT 8000 SCT011 OVC020 02/00 Q1026",
      "taf": "TAF LRCL 161100Z 1612/1621 VRB04KT 5000 BR BKN010"
    },
    {
      "icao": "LRCV",
      "alert": "OK",
      "vis_m": 2000,
      "fzfg": false,
      "metar_trigger": false,
      "taf_trigger": false,
      "metar": "METAR LRCV 161230Z 07016KT 2000 -SN BR SCT006 OVC016 M03/M05 Q1030 RESN",
      "taf": "TAF LRCV 161100Z 1612/1621 07016KT 3000 -SN BR BKN010 OVC030"
    },
    {
      "icao": "LRIA",
      "alert": "OK",
      "vis_m": 9999,
      "fzfg": false,
      "metar_trigger": false,
      "taf_trigger": false,
      "metar": "METAR LRIA 161230Z 32006KT CAVOK M09/M14 Q1034",
      "taf": "TAF LRIA 161100Z 1612/1621 33005KT CAVOK"
    },
    {
      "icao": "LROP",
      "alert": "OK",
      "vis_m": 9999,
      "fzfg": false,
      "metar_trigger": false,
      "taf_trigger": false,
      "metar": "METAR LROP 161230Z 07014KT CAVOK M03/M09 Q1031 NOSIG",
      "taf": "TAF LROP 161100Z 1612/1712 07015KT CAVOK"
    },
    {
      "icao": "LRSB",
      "alert": "OK",
      "vis_m": 7000,
      "fzfg": false,
      "metar_trigger": false,
      "taf_trigger": false,
      "metar": "METAR LRSB 161230Z 10008KT 7000 -SNRA SCT007 OVC014 02/01 Q1025 NOSIG",
      "taf": "TAF LRSB 161100Z 1612/1712 10010KT 9999 -RA BKN010 OVC025"
    },
    {
      "icao": "LRSM",
      "alert": "OK",
      "vis_m": 9999,
      "fzfg": false,
      "metar_trigger": false,
      "taf_trigger": false,
      "metar": "METAR LRSM 161230Z 11006KT CAVOK 05/M01 Q1025",
      "taf": "TAF LRSM 161100Z 1612/1621 10006KT CAVOK"
    },
    {
      "icao": "LRSV",
      "alert": "OK",
      "vis_m": 8000,
      "fzfg": false,
      "metar_trigger": false,
      "taf_trigger": false,
      "metar": "METAR LRSV 161230Z COR 08004KT 8000 NSC M09/M11 Q1031",
      "taf": "TAF LRSV 161100Z 1612/1621 08004KT 7000 NSC"
    },
    {
      "icao": "LRTM",
      "alert": "OK",
      "vis_m": 8000,
      "fzfg": false,
      "metar_trigger": false,
      "taf_trigger": false,
      "metar": "METAR LRTM 161230Z 07001KT 8000 SCT023 BKN032 02/M02 Q1026",
      "taf": "TAF LRTM 161100Z 1612/1621 VRB04KT 9999 SCT020"
    },
    {
      "icao": "LRTR",
      "alert": "OK",
      "vis_m": 7000,
      "fzfg": false,
      "metar_trigger": false,
      "taf_trigger": false,
      "metar": "METAR LRTR 161230Z 12007KT 7000 BKN026 03/03 Q1024",
      "taf": "TAF LRTR 161100Z 1612/1712 11008KT 5000 BR BKN040"
    },
    {
      "icao": "LTAC",
      "alert": "OK",
      "vis_m": 9999,
      "fzfg": false,
      "metar_trigger": false,
      "taf_trigger": false,
      "metar": "METAR LTAC 161250Z 25010KT 9999 SCT010 BKN025 BKN080 05/02 Q1019 NOSIG RMK RWY21C 25011KT RWY03L 25009KT RWY21R 24011KT RWY03R 23008KT RWY21L 25012KT",
      "taf": "TAF LTAC 161040Z 1612/1712 24008KT 8000 -RA SCT010 BKN025 BKN080"
    },
    {
      "icao": "LTFM",
      "alert": "OK",
      "vis_m": 8000,
      "fzfg": false,
      "metar_trigger": false,
      "taf_trigger": false,
      "metar": "METAR LTFM 161250Z 04018KT 8000 -SHRA SCT007 BKN022 05/04 Q1025 NOSIG RMK RWY17L 04017KT RWY34L 03016KT RWY16R 04016KT RWY36 04019KT RWY18 05015KT",
      "taf": "TAF LTFM 161040Z 1612/1718 04017KT 9999 -SHRA SCT007 BKN022"
    },
    {
      "icao": "LUKK",
      "alert": "OK",
      "vis_m": 9999,
      "fzfg": false,
      "metar_trigger": false,
      "taf_trigger": false,
      "metar": "METAR LUKK 161230Z 35009KT 310V010 CAVOK M06/M12 Q1032 NOSIG",
      "taf": "TAF LUKK 161121Z 1612/1712 36008KT CAVOK"
    },
    {
      "icao": "LWOH",
      "alert": "OK",
      "vis_m": 9999,
      "fzfg": false,
      "metar_trigger": false,
      "taf_trigger": false,
      "metar": "METAR LWOH 161250Z VRB02KT 9999 BKN050 08/04 Q1022",
      "taf": "TAF LWOH 161120Z 1612/1712 VRB02KT 9999 SCT050"
    },
    {
      "icao": "LWSK",
      "alert": "OK",
      "vis_m": 9999,
      "fzfg": false,
      "metar_trigger": false,
      "taf_trigger": false,
      "metar": "METAR LWSK 161250Z VRB01KT 9999 FEW042 BKN085 09/03 Q1023 NOSIG",
      "taf": "TAF LWSK 161120Z 1612/1712 VRB02KT 9999 SCT050 BKN090"
    },
    {
      "icao": "LYBE",
      "alert": "OK",
      "vis_m": 8000,
      "fzfg": false,
      "metar_trigger": false,
      "taf_trigger": false,
      "metar": "METAR LYBE 161230Z 09007KT 8000 NSC 06/03 Q1023 BECMG 15012KT",
      "taf": "TAF LYBE 161100Z 1612/1712 06004KT CAVOK TX06/1612Z TNM00/1706Z"
    },
    {
      "icao": "LYNI",
      "alert": "OK",
      "vis_m": 9999,
      "fzfg": false,
      "metar_trigger": false,
      "taf_trigger": false,
      "metar": "METAR LYNI 161230Z 06013KT 9999 FEW017 07/02 Q1024 NOSIG",
      "taf": "TAF LYNI 161100Z 1612/1712 05012KT 9999 FEW015 SCT040 TX09/1612Z TNM01/1706Z"
    },
    {
      "icao": "LYPG",
      "alert": "OK",
      "vis_m": 9999,
      "fzfg": false,
      "metar_trigger": false,
      "taf_trigger": false,
      "metar": "METAR LYPG 161230Z VRB01KT 9999 FEW024 14/08 Q1022 NOSIG",
      "taf": "TAF LYPG 161100Z 1612/1712 16005KT 9999 FEW030 SCT080 TX15/1613Z TN02/1705Z"
    },
    {
      "icao": "LZIB",
      "alert": "OK",
      "vis_m": 700,
      "fzfg": false,
      "metar_trigger": false,
      "taf_trigger": false,
      "metar": "METAR LZIB 161230Z 05006KT 0700 R31/1100D R22/1200N -DZ FG BKN001 OVC002 01/00 Q1024 TEMPO 0600 FG BKN001 OVC002",
      "taf": "TAF LZIB 161115Z 1612/1712 05005KT 2500 BR BKN014"
    },
    {
      "icao": "LZKZ",
      "alert": "OK",
      "vis_m": 9999,
      "fzfg": false,
      "metar_trigger": false,
      "taf_trigger": false,
      "metar": "METAR LZKZ 161230Z 36005KT 9999 OVC022 03/M00 Q1025 NOSIG",
      "taf": "TAF LZKZ 161115Z 1612/1712 01005KT 9999 BKN015 OVC020"
    },
    {
      "icao": "LZTT",
      "alert": "OK",
      "vis_m": 700,
      "fzfg": false,
      "metar_trigger": false,
      "taf_trigger": false,
      "metar": "METAR LZTT 161230Z VRB02KT 0700 R27/1100D FG OVC003 01/00 Q1022 TEMPO 2000 BR BKN006",
      "taf": "TAF LZTT 161115Z 1612/1712 VRB02KT 2500 BR OVC006"
    },
    {
      "icao": "OEJN",
      "alert": "OK",
      "vis_m": 9999,
      "fzfg": false,
      "metar_trigger": false,
      "taf_trigger": false,
      "metar": "METAR OEJN 161200Z 27009KT CAVOK 30/07 Q1011 NOSIG",
      "taf": "TAF OEJN 161100Z 1612/1718 30010KT 7000 FEW040"
    },
    {
      "icao": "OEMA",
      "alert": "OK",
      "vis_m": 9999,
      "fzfg": false,
      "metar_trigger": false,
      "taf_trigger": false,
      "metar": "METAR OEMA 161200Z 11005KT CAVOK 21/01 Q1019 NOSIG",
      "taf": "TAF OEMA 161100Z 1612/1718 10012KT 7000 NSC"
    },
    {
      "icao": "OJAI",
      "alert": "OK",
      "vis_m": 5000,
      "fzfg": false,
      "metar_trigger": false,
      "taf_trigger": false,
      "metar": "METAR OJAI 161200Z 15003KT 5000 HZ SCT025 13/05 Q1022 NOSIG",
      "taf": "TAF OJAI 161041Z 1612/1718 17008KT 5000 HZ FEW035"
    },
    {
      "icao": "OMAA",
      "alert": "OK",
      "vis_m": 9999,
      "fzfg": false,
      "metar_trigger": false,
      "taf_trigger": false,
      "metar": "METAR OMAA 161200Z 31016KT 9999 FEW040 21/10 Q1017 NOSIG",
      "taf": "TAF OMAA 161100Z 1612/1718 32014KT 8000 FEW030"
    },
    {
      "icao": "OMDB",
      "alert": "OK",
      "vis_m": 9999,
      "fzfg": false,
      "metar_trigger": false,
      "taf_trigger": false,
      "metar": "METAR OMDB 161230Z 28016KT 250V310 9999 BKN040 22/10 Q1017 TEMPO 29020G30KT",
      "taf": "TAF OMDB 161100Z 1612/1718 29014KT 8000 FEW030"
    },
    {
      "icao": "UAAA",
      "alert": "OK",
      "vis_m": 1600,
      "fzfg": false,
      "metar_trigger": false,
      "taf_trigger": false,
      "metar": "METAR UAAA 161230Z 26005MPS 1600 R23L/P2000 SN BR BKN007 OVC029 M13/M15 Q1019 NOSIG",
      "taf": "TAF UAAA 161102Z 1612/1712 28003G08MPS 3100 -SHSN BR BKN011CB OVC030 TXM16/1708Z TNM18/1703Z"
    },
    {
      "icao": "UBBB",
      "alert": "OK",
      "vis_m": 9999,
      "fzfg": false,
      "metar_trigger": false,
      "taf_trigger": false,
      "metar": "METAR UBBB 161230Z 19010KT CAVOK 07/01 Q1020 NOSIG",
      "taf": "TAF UBBB 161056Z 1612/1712 19014KT 9999 FEW025 TX08/1612Z TN01/1702Z"
    },
    {
      "icao": "UDSG",
      "alert": "OK",
      "vis_m": 9999,
      "fzfg": false,
      "metar_trigger": false,
      "taf_trigger": false,
      "metar": "METAR UDSG 161230Z 23002KT 9999 BKN049 M08/M14 Q1020 NOSIG",
      "taf": "TAF UDSG 161100Z 1612/1712 VRB06KT 9999 BKN050"
    },
    {
      "icao": "UDYZ",
      "alert": "OK",
      "vis_m": 9999,
      "fzfg": false,
      "metar_trigger": false,
      "taf_trigger": false,
      "metar": "METAR UDYZ 161230Z VRB02KT 9999 FEW046 00/M11 Q1022 NOSIG",
      "taf": "TAF UDYZ 161100Z 1612/1712 VRB04KT 9999 FEW040"
    },
    {
      "icao": "UGKO",
      "alert": "OK",
      "vis_m": 9999,
      "fzfg": false,
      "metar_trigger": false,
      "taf_trigger": false,
      "metar": "METAR UGKO 161230Z 10005KT 9999 -RA OVC028 01/00 Q1022 NOSIG",
      "taf": "TAF UGKO 161100Z 1612/1712 09007KT 9000 SCT012 OVC040 TX02/1612Z TN00/1706Z"
    }
  ]
}