{
  "ts_utc": "2026-01-14T21:27:38Z",
  "threshold_m": 150,
  "source": "stations_override.txt (ICAO list) + aviationweather.gov (METAR/TAF raw)",
  "station_count": 159,
  "stations": [
    {
      "icao": "BIKF",
      "alert": "OK",
      "vis_m": 9999,
      "fzfg": false,
      "metar_trigger": false,
      "taf_trigger": false,
      "metar": "METAR BIKF 142100Z 02011KT 9999 SCT043 BKN096 OVC180 01/M03 Q0986",
      "taf": "TAF BIKF 141930Z 1421/1521 06015KT 9999 SCT035 TX02/1502Z TNM01/1510Z"
    },
    {
      "icao": "BKPR",
      "alert": "OK",
      "vis_m": null,
      "fzfg": false,
      "metar_trigger": false,
      "taf_trigger": false,
      "metar": "",
      "taf": "TAF BKPR 141730Z 1418/1518 VRB03KT 9999 SCT060"
    },
    {
      "icao": "EBCI",
      "alert": "OK",
      "vis_m": 9999,
      "fzfg": false,
      "metar_trigger": false,
      "taf_trigger": false,
      "metar": "METAR EBCI 142120Z 17009KT CAVOK 09/07 Q1012 NOSIG",
      "taf": "TAF EBCI 141715Z 1418/1524 21008KT 4000 BR FEW008 BKN012"
    },
    {
      "icao": "EDDB",
      "alert": "OK",
      "vis_m": 550,
      "fzfg": true,
      "metar_trigger": false,
      "taf_trigger": false,
      "metar": "METAR EDDB 142120Z AUTO VRB02KT 0550 0350 R24R/1300D R24L/0700D FZFG SCT002 SCT009 M00/M00 Q1017 TEMPO 0300 FZFG OVC001",
      "taf": ""
    },
    {
      "icao": "EDDH",
      "alert": "OK",
      "vis_m": 9999,
      "fzfg": false,
      "metar_trigger": false,
      "taf_trigger": false,
      "metar": "METAR EDDH 142120Z AUTO 17005KT 9999 BKN020 01/01 Q1015 TEMPO 4000 BR",
      "taf": "TAF EDDH 141700Z 1418/1524 21004KT 9999 FEW025"
    },
    {
      "icao": "EDDK",
      "alert": "OK",
      "vis_m": 9999,
      "fzfg": false,
      "metar_trigger": false,
      "taf_trigger": false,
      "metar": "METAR EDDK 142120Z AUTO 13006KT 100V160 CAVOK 09/08 Q1014 NOSIG",
      "taf": "TAF EDDK 141700Z 1418/1524 13005KT 9999 SCT007 BKN015"
    },
    {
      "icao": "EDDN",
      "alert": "OK",
      "vis_m": 9999,
      "fzfg": false,
      "metar_trigger": false,
      "taf_trigger": false,
      "metar": "METAR EDDN 142120Z AUTO 12006KT 9999 OVC032 05/04 Q1017",
      "taf": "TAF EDDN 141700Z 1418/1518 13006KT 9999 BKN040"
    },
    {
      "icao": "EDDS",
      "alert": "OK",
      "vis_m": 9999,
      "fzfg": false,
      "metar_trigger": false,
      "taf_trigger": false,
      "metar": "METAR EDDS 142120Z AUTO VRB02KT CAVOK 06/03 Q1016",
      "taf": "TAF EDDS 141700Z 1418/1518 VRB03KT CAVOK"
    },
    {
      "icao": "EDFH",
      "alert": "OK",
      "vis_m": 9999,
      "fzfg": false,
      "metar_trigger": false,
      "taf_trigger": false,
      "metar": "METAR EDFH 142120Z 22008KT CAVOK 07/06 Q1015",
      "taf": "TAF EDFH 141700Z 1418/1518 20007KT 9999 BKN015"
    },
    {
      "icao": "EDJA",
      "alert": "OK",
      "vis_m": 9999,
      "fzfg": false,
      "metar_trigger": false,
      "taf_trigger": false,
      "metar": "METAR EDJA 142120Z AUTO VRB01KT 9999 // BKN180/// 01/M01 Q1017",
      "taf": "TAF EDJA 141700Z 1418/1503 20004KT CAVOK"
    },
    {
      "icao": "EDLW",
      "alert": "OK",
      "vis_m": 9999,
      "fzfg": false,
      "metar_trigger": false,
      "taf_trigger": false,
      "metar": "METAR EDLW 142120Z 15006KT 9999 SCT012 BKN015 OVC019 08/07 Q1013",
      "taf": ""
    },
    {
      "icao": "EDNY",
      "alert": "OK",
      "vis_m": 5000,
      "fzfg": false,
      "metar_trigger": false,
      "taf_trigger": false,
      "metar": "METAR EDNY 142120Z AUTO 00000KT 5000 2000 BKN180/// OVC220/// M01/M01 Q1018",
      "taf": ""
    },
    {
      "icao": "EDSB",
      "alert": "OK",
      "vis_m": 9999,
      "fzfg": false,
      "metar_trigger": false,
      "taf_trigger": false,
      "metar": "METAR EDSB 142120Z 21004KT CAVOK 08/05 Q1017",
      "taf": "TAF EDSB 141700Z 1418/1518 21005KT 9999 SCT035"
    },
    {
      "icao": "EETN",
      "alert": "OK",
      "vis_m": 9999,
      "fzfg": false,
      "metar_trigger": false,
      "taf_trigger": false,
      "metar": "METAR EETN 142120Z 14010KT 9999 -SN OVC007 M11/M12 Q1019 TEMPO BKN005",
      "taf": ""
    },
    {
      "icao": "EFTU",
      "alert": "OK",
      "vis_m": 9999,
      "fzfg": false,
      "metar_trigger": false,
      "taf_trigger": false,
      "metar": "METAR EFTU 142120Z AUTO 14015KT 9999 -SHSN OVC011 M05/M08 Q1014",
      "taf": "TAF EFTU 142037Z 1421/1521 15014KT 9999 OVC012"
    },
    {
      "icao": "EGBB",
      "alert": "OK",
      "vis_m": 2500,
      "fzfg": false,
      "metar_trigger": false,
      "taf_trigger": false,
      "metar": "METAR EGBB 142120Z 16007KT 2500 RADZ OVC003 05/04 Q1004 REDZ",
      "taf": "TAF EGBB 141654Z 1418/1518 18005KT 9999 FEW045"
    },
    {
      "icao": "EGGP",
      "alert": "OK",
      "vis_m": 9999,
      "fzfg": false,
      "metar_trigger": false,
      "taf_trigger": false,
      "metar": "METAR EGGP 142120Z 15008KT CAVOK 03/01 Q1002",
      "taf": "TAF EGGP 141657Z 1418/1518 16008KT 9999 SCT035"
    },
    {
      "icao": "EGGW",
      "alert": "OK",
      "vis_m": 800,
      "fzfg": false,
      "metar_trigger": false,
      "taf_trigger": false,
      "metar": "METAR EGGW 142120Z AUTO 18008KT 150V230 0800 R25/P1500N FG OVC001 07/07 Q1005",
      "taf": "TAF EGGW 141655Z 1418/1518 15006KT 9999 BKN020"
    },
    {
      "icao": "EGKK",
      "alert": "OK",
      "vis_m": 9999,
      "fzfg": false,
      "metar_trigger": false,
      "taf_trigger": false,
      "metar": "METAR EGKK 142120Z 19009KT 9999 -RA FEW018 BKN032 10/09 Q1007",
      "taf": ""
    },
    {
      "icao": "EGNM",
      "alert": "OK",
      "vis_m": 9999,
      "fzfg": false,
      "metar_trigger": false,
      "taf_trigger": false,
      "metar": "METAR EGNM 142120Z 16007KT 9999 SCT027 01/M00 Q1002",
      "taf": ""
    },
    {
      "icao": "EGPD",
      "alert": "OK",
      "vis_m": 9999,
      "fzfg": false,
      "metar_trigger": false,
      "taf_trigger": false,
      "metar": "METAR EGPD 142120Z 18018KT 9999 BKN013 06/03 Q0997",
      "taf": "TAF EGPD 141655Z 1418/1518 18012KT 9999 BKN020"
    },
    {
      "icao": "EGPF",
      "alert": "OK",
      "vis_m": 9000,
      "fzfg": false,
      "metar_trigger": false,
      "taf_trigger": false,
      "metar": "METAR EGPF 142120Z AUTO 14010KT 110V180 9000 -RA BKN014/// OVC042/// //////TCU 06/04 Q0996",
      "taf": "TAF EGPF 141655Z 1418/1518 18012KT 9999 FEW018 BKN030"
    },
    {
      "icao": "EHBK",
      "alert": "OK",
      "vis_m": 9999,
      "fzfg": false,
      "metar_trigger": false,
      "taf_trigger": false,
      "metar": "METAR EHBK 142055Z AUTO 19009KT 9999 NSC 09/08 Q1013 NOSIG",
      "taf": "TAF EHBK 141719Z 1418/1524 18008KT 2000 BR BKN002"
    },
    {
      "icao": "EHEH",
      "alert": "OK",
      "vis_m": 3100,
      "fzfg": false,
      "metar_trigger": false,
      "taf_trigger": false,
      "metar": "METAR EHEH 142055Z AUTO 16005KT 120V220 3100 R21/P3000N BR BKN014 OVC077 08/08 Q1012 YLO TEMPO 2000 BR -DZ FEW001 BKN002 OVC003 RMK TREND REMOTE BY EHWX",
      "taf": "TAF EHEH 141753Z 1418/1524 15005KT 3000 BR SCT003 OVC004"
    },
    {
      "icao": "EKBI",
      "alert": "OK",
      "vis_m": 9999,
      "fzfg": false,
      "metar_trigger": false,
      "taf_trigger": false,
      "metar": "METAR EKBI 142120Z AUTO 18005KT 9999 SCT025/// SCT032/// 02/01 Q1012",
      "taf": "TAF EKBI 142027Z 1421/1521 19005KT 9999 SCT020"
    },
    {
      "icao": "EKCH",
      "alert": "OK",
      "vis_m": 9999,
      "fzfg": false,
      "metar_trigger": false,
      "taf_trigger": false,
      "metar": "METAR EKCH 142120Z AUTO 23007KT 9999 NCD 00/M00 Q1013 NOSIG",
      "taf": "TAF EKCH 142027Z 1421/1521 22008KT CAVOK"
    },
    {
      "icao": "ENAL",
      "alert": "OK",
      "vis_m": 9999,
      "fzfg": false,
      "metar_trigger": false,
      "taf_trigger": false,
      "metar": "METAR ENAL 142120Z 21011KT 9999 FEW036 SCT045 BKN054 05/M00 Q0999",
      "taf": "TAF ENAL 142000Z 1421/1506 19015KT 9999 BKN035"
    },
    {
      "icao": "ENBR",
      "alert": "OK",
      "vis_m": 9999,
      "fzfg": false,
      "metar_trigger": false,
      "taf_trigger": false,
      "metar": "METAR ENBR 142120Z 13010KT 9999 VCSH FEW023 SCT043 03/02 Q1003 RMK WIND 1200FT 15014KT",
      "taf": "TAF ENBR 141700Z 1418/1518 13008KT 9999 -SHRA FEW015TCU BKN020"
    },
    {
      "icao": "ENGM",
      "alert": "OK",
      "vis_m": 9999,
      "fzfg": false,
      "metar_trigger": false,
      "taf_trigger": false,
      "metar": "METAR ENGM 142120Z VRB01KT 9999 VCFG FEW002 M06/M07 Q1004 NOSIG",
      "taf": "TAF ENGM 141700Z 1418/1518 VRB03KT 9999 FEW015 BKN040"
    },
    {
      "icao": "ENHD",
      "alert": "OK",
      "vis_m": 9999,
      "fzfg": false,
      "metar_trigger": false,
      "taf_trigger": false,
      "metar": "METAR ENHD 142120Z 13011KT 9999 SCT024 04/03 Q1004",
      "taf": "TAF ENHD 141400Z 1415/1423 24012KT 9999 -SHRA FEW020TCU BKN030"
    },
    {
      "icao": "ENTC",
      "alert": "OK",
      "vis_m": 9999,
      "fzfg": false,
      "metar_trigger": false,
      "taf_trigger": false,
      "metar": "METAR ENTC 142120Z 19017KT CAVOK M04/M10 Q1006 NOSIG RMK WIND 2600FT 18009KT",
      "taf": "TAF ENTC 141700Z 1418/1518 19016KT 9999 BKN040"
    },
    {
      "icao": "ENTO",
      "alert": "OK",
      "vis_m": 9999,
      "fzfg": false,
      "metar_trigger": false,
      "taf_trigger": false,
      "metar": "METAR ENTO 142120Z AUTO 29003KT 9999 NCD M03/M03 Q1005",
      "taf": "TAF ENTO 141700Z 1418/1518 25008KT CAVOK"
    },
    {
      "icao": "ENVA",
      "alert": "OK",
      "vis_m": 9999,
      "fzfg": false,
      "metar_trigger": false,
      "taf_trigger": false,
      "metar": "METAR ENVA 142120Z 10004KT CAVOK 01/M05 Q1001 RMK WIND 670FT 15010KT",
      "taf": "TAF ENVA 141700Z 1418/1518 11008KT 9999 FEW050"
    },
    {
      "icao": "ENZV",
      "alert": "OK",
      "vis_m": 9999,
      "fzfg": false,
      "metar_trigger": false,
      "taf_trigger": false,
      "metar": "METAR ENZV 142120Z 14007KT 9999 FEW030 SCT045 03/01 Q1005",
      "taf": "TAF ENZV 141700Z 1418/1518 13008KT 9999 FEW012 BKN025"
    },
    {
      "icao": "EPGD",
      "alert": "OK",
      "vis_m": 9999,
      "fzfg": false,
      "metar_trigger": false,
      "taf_trigger": false,
      "metar": "METAR EPGD 142100Z 28009KT 9999 FEW007 BKN019 02/01 Q1012",
      "taf": "TAF EPGD 141730Z 1418/1518 19006KT 6000 -SG OVC006"
    },
    {
      "icao": "EPKK",
      "alert": "OK",
      "vis_m": 8000,
      "fzfg": false,
      "metar_trigger": false,
      "taf_trigger": false,
      "metar": "METAR EPKK 142100Z 25014KT 8000 -DZRA FEW009 BKN012 02/01 Q1016",
      "taf": "TAF EPKK 142030Z 1421/1521 21010KT 6000 BKN020"
    },
    {
      "icao": "EPKT",
      "alert": "OK",
      "vis_m": 2500,
      "fzfg": false,
      "metar_trigger": false,
      "taf_trigger": false,
      "metar": "METAR EPKT 142100Z 23009KT 2500 -RADZ BR OVC003 01/00 Q1016",
      "taf": "TAF EPKT 141730Z 1418/1518 23010KT 8000 -RA FEW008 BKN040"
    },
    {
      "icao": "EPLB",
      "alert": "OK",
      "vis_m": 3800,
      "fzfg": false,
      "metar_trigger": false,
      "taf_trigger": false,
      "metar": "METAR EPLB 142100Z 12006KT 3800 -SN BR BKN008 OVC016 M05/M05 Q1015",
      "taf": "TAF EPLB 141730Z 1418/1518 12008KT 2000 -SN BR BKN012 OVC020"
    },
    {
      "icao": "EPMO",
      "alert": "OK",
      "vis_m": 1300,
      "fzfg": false,
      "metar_trigger": false,
      "taf_trigger": false,
      "metar": "METAR EPMO 142100Z 11004KT 1300 R08/1300N -FZDZ BR OVC003 M01/M01 Q1013",
      "taf": "TAF EPMO 141730Z 1418/1518 11007KT 3500 -FZRA BR OVC005"
    },
    {
      "icao": "EPPO",
      "alert": "OK",
      "vis_m": 9999,
      "fzfg": false,
      "metar_trigger": false,
      "taf_trigger": false,
      "metar": "METAR EPPO 142100Z 28004KT 9999 FEW010 BKN028 02/01 Q1016",
      "taf": ""
    },
    {
      "icao": "EPRA",
      "alert": "OK",
      "vis_m": 2500,
      "fzfg": false,
      "metar_trigger": false,
      "taf_trigger": false,
      "metar": "METAR EPRA 142100Z 20004KT 2500 -DZ BR OVC004 00/M00 Q1014",
      "taf": "TAF EPRA 142030Z 1421/1506 24006KT 2500 -DZ BR BKN005 OVC010"
    },
    {
      "icao": "EPRZ",
      "alert": "OK",
      "vis_m": 9999,
      "fzfg": false,
      "metar_trigger": false,
      "taf_trigger": false,
      "metar": "METAR EPRZ 142100Z 22007KT 9999 -FZRA OVC016 M00/M02 Q1015",
      "taf": "TAF EPRZ 141730Z 1418/1518 19010KT 9999 OVC030"
    },
    {
      "icao": "EPSC",
      "alert": "OK",
      "vis_m": 1400,
      "fzfg": false,
      "metar_trigger": false,
      "taf_trigger": false,
      "metar": "METAR EPSC 142100Z 17002KT 1400 R31/1800U MIFG BR NSC M01/M01 Q1015",
      "taf": "TAF EPSC 141730Z 1418/1518 25005KT 9999 SCT030"
    },
    {
      "icao": "EPSY",
      "alert": "OK",
      "vis_m": 4900,
      "fzfg": false,
      "metar_trigger": false,
      "taf_trigger": false,
      "metar": "METAR EPSY 142100Z 13003KT 090V170 4900 -SN BR OVC011 M06/M07 Q1014",
      "taf": "TAF EPSY 142030Z 1421/1506 15006KT 5000 -SN BR BKN012"
    },
    {
      "icao": "EPWA",
      "alert": "OK",
      "vis_m": 2600,
      "fzfg": false,
      "metar_trigger": false,
      "taf_trigger": false,
      "metar": "METAR EPWA 142100Z 13007KT 2600 -FZDZ BR OVC003 M01/M01 Q1013 TEMPO 1300 BKN002",
      "taf": "TAF EPWA 142030Z 1421/1521 14010KT 4000 -FZRA BR BKN005"
    },
    {
      "icao": "EPWR",
      "alert": "OK",
      "vis_m": 9999,
      "fzfg": false,
      "metar_trigger": false,
      "taf_trigger": false,
      "metar": "METAR EPWR 142100Z 29006KT 9999 SCT023 BKN038 04/03 Q1017",
      "taf": "TAF EPWR 142030Z 1421/1521 28010KT 9999 BKN008"
    },
    {
      "icao": "ESGG",
      "alert": "OK",
      "vis_m": 9999,
      "fzfg": false,
      "metar_trigger": false,
      "taf_trigger": false,
      "metar": "METAR ESGG 142120Z 21007KT 9999 BKN006 01/00 Q1008",
      "taf": ""
    },
    {
      "icao": "ESKN",
      "alert": "OK",
      "vis_m": 9999,
      "fzfg": false,
      "metar_trigger": false,
      "taf_trigger": false,
      "metar": "METAR ESKN 142120Z 22006KT 9999 OVC022 01/01 Q1006",
      "taf": "TAF ESKN 142030Z 1421/1521 23006KT 9999 BKN015"
    },
    {
      "icao": "ESMS",
      "alert": "OK",
      "vis_m": 9999,
      "fzfg": false,
      "metar_trigger": false,
      "taf_trigger": false,
      "metar": "METAR ESMS 142120Z 24008KT CAVOK 01/01 Q1012",
      "taf": "TAF ESMS 142027Z 1421/1521 24008KT CAVOK"
    },
    {
      "icao": "ESSA",
      "alert": "OK",
      "vis_m": 6000,
      "fzfg": false,
      "metar_trigger": false,
      "taf_trigger": false,
      "metar": "METAR ESSA 142120Z 17008KT 6000 -RA OVC003 00/M00 Q1005 TEMPO 4000",
      "taf": "TAF ESSA 142030Z 1421/1521 14012KT 9999 -SNRA BKN003"
    },
    {
      "icao": "EYKA",
      "alert": "OK",
      "vis_m": 8000,
      "fzfg": false,
      "metar_trigger": false,
      "taf_trigger": false,
      "metar": "METAR EYKA 142120Z 14009KT 8000 NSC M11/M13 Q1018",
      "taf": "TAF EYKA 141715Z 1418/1518 15012KT 9000 SCT010"
    },
    {
      "icao": "EYPA",
      "alert": "OK",
      "vis_m": 3500,
      "fzfg": false,
      "metar_trigger": false,
      "taf_trigger": false,
      "metar": "METAR EYPA 142120Z 15011KT 3500 SN BLSN FEW018 SCT032 BKN039 M07/M09 Q1014",
      "taf": "TAF EYPA 141715Z 1418/1518 15015KT 5000 SN BKN020"
    },
    {
      "icao": "EYVI",
      "alert": "OK",
      "vis_m": 9000,
      "fzfg": false,
      "metar_trigger": false,
      "taf_trigger": false,
      "metar": "METAR EYVI 142120Z 14009KT 9000 NSC M13/M15 Q1019 NOSIG",
      "taf": "TAF EYVI 141715Z 1418/1518 16011KT 9000 BKN010"
    },
    {
      "icao": "GCFV",
      "alert": "OK",
      "vis_m": 9999,
      "fzfg": false,
      "metar_trigger": false,
      "taf_trigger": false,
      "metar": "METAR GCFV 142100Z 35010KT 9999 FEW030 16/11 Q1023",
      "taf": "TAF GCFV 142000Z 1421/1521 34008KT 9999 SCT035 TX20/1514Z TN14/1506Z"
    },
    {
      "icao": "GCLP",
      "alert": "OK",
      "vis_m": 9999,
      "fzfg": false,
      "metar_trigger": false,
      "taf_trigger": false,
      "metar": "METAR GCLP 142100Z 35012KT 9999 BKN028 17/11 Q1024 NOSIG",
      "taf": "TAF GCLP 142000Z 1421/1521 36015KT 9999 SCT035 TX20/1514Z TN15/1506Z"
    },
    {
      "icao": "GCTS",
      "alert": "OK",
      "vis_m": 9999,
      "fzfg": false,
      "metar_trigger": false,
      "taf_trigger": false,
      "metar": "METAR GCTS 142100Z 06015KT 9999 FEW045 17/10 Q1024 NOSIG",
      "taf": "TAF GCTS 142000Z 1421/1521 03007KT 9999 FEW040 TX22/1514Z TN14/1506Z"
    },
    {
      "icao": "GMAD",
      "alert": "OK",
      "vis_m": 9999,
      "fzfg": false,
      "metar_trigger": false,
      "taf_trigger": false,
      "metar": "METAR GMAD 142100Z 17009KT 9999 FEW026 14/12 Q1019 NOSIG",
      "taf": "TAF GMAD 141700Z 1418/1524 28012KT 8000 FEW020"
    },
    {
      "icao": "GMMN",
      "alert": "OK",
      "vis_m": 9999,
      "fzfg": false,
      "metar_trigger": false,
      "taf_trigger": false,
      "metar": "METAR GMMN 142100Z 20004KT 9999 SCT020 09/08 Q1022 NOSIG",
      "taf": "TAF GMMN 141700Z 1418/1524 30008KT 9999 SCT025"
    },
    {
      "icao": "GMMX",
      "alert": "OK",
      "vis_m": 9999,
      "fzfg": false,
      "metar_trigger": false,
      "taf_trigger": false,
      "metar": "METAR GMMX 142100Z 12006KT 9999 BKN026 SCT090 11/09 Q1022 NOSIG",
      "taf": "TAF GMMX 141700Z 1418/1524 24008KT 8000 SCT026 SCT090"
    },
    {
      "icao": "HEGN",
      "alert": "OK",
      "vis_m": 9999,
      "fzfg": false,
      "metar_trigger": false,
      "taf_trigger": false,
      "metar": "METAR HEGN 142100Z 28009KT CAVOK 13/05 Q1023 NOSIG",
      "taf": "TAF HEGN 141700Z 1418/1524 31010G20KT 6000 FEW025"
    },
    {
      "icao": "HEMA",
      "alert": "OK",
      "vis_m": 9999,
      "fzfg": false,
      "metar_trigger": false,
      "taf_trigger": false,
      "metar": "METAR HEMA 142100Z 30015KT CAVOK 16/05 Q1021 NOSIG",
      "taf": "TAF HEMA 141700Z 1418/1524 33010G20KT 8000 SCT025"
    },
    {
      "icao": "HESH",
      "alert": "OK",
      "vis_m": 9999,
      "fzfg": false,
      "metar_trigger": false,
      "taf_trigger": false,
      "metar": "METAR HESH 142100Z 36014KT CAVOK 16/03 Q1023 NOSIG",
      "taf": "TAF HESH 141700Z 1418/1524 36010KT CAVOK"
    },
    {
      "icao": "HESX",
      "alert": "OK",
      "vis_m": 9999,
      "fzfg": false,
      "metar_trigger": false,
      "taf_trigger": false,
      "metar": "METAR HESX 142100Z 31003KT CAVOK 10/07 Q1026 NOSIG",
      "taf": "TAF HESX 141704Z 1418/1524 34008KT 9999 SCT030"
    },
    {
      "icao": "LATI",
      "alert": "OK",
      "vis_m": 7000,
      "fzfg": false,
      "metar_trigger": false,
      "taf_trigger": false,
      "metar": "METAR LATI 142120Z 17004KT 7000 NSC 06/04 Q1026 NOSIG",
      "taf": "TAF LATI 141700Z 1418/1518 VRB05KT 9999 BKN070 TX16/1512Z TN05/1505Z"
    },
    {
      "icao": "LBPD",
      "alert": "OK",
      "vis_m": 9999,
      "fzfg": false,
      "metar_trigger": false,
      "taf_trigger": false,
      "metar": "METAR LBPD 142100Z AUTO 00000KT 9999 OVC060/// 00/00 Q1023",
      "taf": "TAF LBPD 141700Z 1418/1518 VRB03KT 9999 SCT060"
    },
    {
      "icao": "LBSF",
      "alert": "OK",
      "vis_m": 7000,
      "fzfg": false,
      "metar_trigger": false,
      "taf_trigger": false,
      "metar": "METAR LBSF 142100Z AUTO 18004KT 160V240 7000 OVC060/// M00/M01 Q1023 TEMPO 2000 BR",
      "taf": "TAF LBSF 141700Z 1418/1518 VRB03KT 9999 SCT040"
    },
    {
      "icao": "LBWN",
      "alert": "OK",
      "vis_m": 8000,
      "fzfg": false,
      "metar_trigger": false,
      "taf_trigger": false,
      "metar": "METAR LBWN 142100Z AUTO 31002KT 8000 BKN040/// OVC046/// 03/03 Q1022 NOSIG",
      "taf": "TAF LBWN 141700Z 1418/1518 VRB03KT 9999 BKN020"
    },
    {
      "icao": "LCLK",
      "alert": "OK",
      "vis_m": 9999,
      "fzfg": false,
      "metar_trigger": false,
      "taf_trigger": false,
      "metar": "METAR LCLK 142100Z 31007KT CAVOK 07/03 Q1023 NOSIG",
      "taf": "TAF LCLK 141730Z 1418/1518 33009KT 9999 FEW025"
    },
    {
      "icao": "LCPH",
      "alert": "OK",
      "vis_m": 9999,
      "fzfg": false,
      "metar_trigger": false,
      "taf_trigger": false,
      "metar": "METAR LCPH 142100Z 08005KT 010V080 9999 SCT050 08/02 Q1023 NOSIG",
      "taf": "TAF LCPH 141730Z 1418/1518 03007KT 9999 FEW020"
    },
    {
      "icao": "LEAL",
      "alert": "OK",
      "vis_m": 9999,
      "fzfg": false,
      "metar_trigger": false,
      "taf_trigger": false,
      "metar": "METAR LEAL 142100Z 27004KT CAVOK 11/09 Q1019 NOSIG",
      "taf": "TAF LEAL 141700Z 1418/1518 VRB04KT CAVOK TX17/1513Z TN07/1506Z"
    },
    {
      "icao": "LEBB",
      "alert": "OK",
      "vis_m": 9999,
      "fzfg": false,
      "metar_trigger": false,
      "taf_trigger": false,
      "metar": "METAR LEBB 142100Z 09005KT 020V120 9999 FEW024 08/08 Q1018 NOSIG",
      "taf": "TAF LEBB 141700Z 1418/1518 20007KT 9999 FEW030 TX12/1512Z TN07/1424Z"
    },
    {
      "icao": "LEBL",
      "alert": "OK",
      "vis_m": 8000,
      "fzfg": false,
      "metar_trigger": false,
      "taf_trigger": false,
      "metar": "METAR LEBL 142100Z 31005KT 8000 FEW015 10/10 Q1018 NOSIG",
      "taf": "TAF LEBL 141700Z 1418/1518 20006KT 9999 FEW015 TX15/1512Z TN05/1506Z"
    },
    {
      "icao": "LECH",
      "alert": "OK",
      "vis_m": 8000,
      "fzfg": false,
      "metar_trigger": false,
      "taf_trigger": false,
      "metar": "METAR LECH 142100Z AUTO VRB01KT 8000 BKN066 07/06 Q1019",
      "taf": ""
    },
    {
      "icao": "LEMD",
      "alert": "OK",
      "vis_m": 9999,
      "fzfg": false,
      "metar_trigger": false,
      "taf_trigger": false,
      "metar": "METAR LEMD 142100Z 36002KT CAVOK 04/04 Q1021 NOSIG",
      "taf": "TAF LEMD 141700Z 1418/1524 VRB03KT 9999 SCT030 TX08/1515Z TN01/1506Z"
    },
    {
      "icao": "LEMG",
      "alert": "OK",
      "vis_m": 9999,
      "fzfg": false,
      "metar_trigger": false,
      "taf_trigger": false,
      "metar": "METAR LEMG 142100Z 30007KT CAVOK 10/08 Q1020 NOSIG",
      "taf": "TAF LEMG 141700Z 1418/1518 29006KT 9999 FEW030 TX18/1514Z TN07/1507Z"
    },
    {
      "icao": "LEVC",
      "alert": "OK",
      "vis_m": 6000,
      "fzfg": false,
      "metar_trigger": false,
      "taf_trigger": false,
      "metar": "METAR LEVC 142100Z VRB01KT 6000 NSC 10/09 Q1019 NOSIG",
      "taf": "TAF LEVC 141700Z 1418/1518 VRB04KT CAVOK TX18/1512Z TN05/1506Z"
    },
    {
      "icao": "LEXJ",
      "alert": "OK",
      "vis_m": 9999,
      "fzfg": false,
      "metar_trigger": false,
      "taf_trigger": false,
      "metar": "METAR LEXJ 142100Z 00000KT 9999 SCT022 09/08 Q1018",
      "taf": ""
    },
    {
      "icao": "LEZG",
      "alert": "OK",
      "vis_m": 9999,
      "fzfg": false,
      "metar_trigger": false,
      "taf_trigger": false,
      "metar": "METAR LEZG 142100Z VRB02KT CAVOK 06/06 Q1019 NOSIG",
      "taf": "TAF LEZG 141700Z 1418/1518 10005KT CAVOK TX13/1515Z TN03/1506Z"
    },
    {
      "icao": "LEZL",
      "alert": "OK",
      "vis_m": 9999,
      "fzfg": false,
      "metar_trigger": false,
      "taf_trigger": false,
      "metar": "METAR LEZL 142100Z 00000KT 9999 FEW040 10/10 Q1021 NOSIG",
      "taf": "TAF LEZL 142000Z 1421/1521 VRB02KT 9999 FEW030 TX14/1515Z TN06/1507Z"
    },
    {
      "icao": "LFBD",
      "alert": "OK",
      "vis_m": 9999,
      "fzfg": false,
      "metar_trigger": false,
      "taf_trigger": false,
      "metar": "METAR LFBD 142100Z AUTO 22005KT 9999 4700 NSC 09/08 Q1018 BECMG 1500 BR BKN002",
      "taf": "TAF LFBD 141700Z 1418/1524 18005KT CAVOK TX13/1514Z TN05/1506Z"
    },
    {
      "icao": "LFLL",
      "alert": "OK",
      "vis_m": 9999,
      "fzfg": false,
      "metar_trigger": false,
      "taf_trigger": false,
      "metar": "METAR LFLL 142100Z 15010KT 9999 BKN050 BKN160 10/06 Q1019 NOSIG",
      "taf": "TAF LFLL 141700Z 1418/1524 18012KT CAVOK"
    },
    {
      "icao": "LFLS",
      "alert": "OK",
      "vis_m": 9999,
      "fzfg": false,
      "metar_trigger": false,
      "taf_trigger": false,
      "metar": "METAR LFLS 142100Z AUTO 09006KT CAVOK 05/03 Q1019",
      "taf": ""
    },
    {
      "icao": "LFMN",
      "alert": "OK",
      "vis_m": 9999,
      "fzfg": false,
      "metar_trigger": false,
      "taf_trigger": false,
      "metar": "METAR LFMN 142100Z 33009KT CAVOK 09/07 Q1022 NOSIG",
      "taf": "TAF LFMN 142000Z 1421/1603 34010KT CAVOK"
    },
    {
      "icao": "LFOB",
      "alert": "OK",
      "vis_m": 9999,
      "fzfg": false,
      "metar_trigger": false,
      "taf_trigger": false,
      "metar": "METAR LFOB 142100Z AUTO 20009KT 9999 FEW018 SCT058 BKN068 11/08 Q1012 TEMPO OVC008",
      "taf": "TAF LFOB 141700Z 1418/1518 18006KT 9999 BKN020"
    },
    {
      "icao": "LFPO",
      "alert": "OK",
      "vis_m": 9999,
      "fzfg": false,
      "metar_trigger": false,
      "taf_trigger": false,
      "metar": "METAR LFPO 142100Z 20005KT 9999 FEW016 SCT060 BKN093 11/08 Q1013 NOSIG",
      "taf": "TAF LFPO 141700Z 1418/1524 19005KT 9999 BKN017"
    },
    {
      "icao": "LFSB",
      "alert": "OK",
      "vis_m": 9999,
      "fzfg": false,
      "metar_trigger": false,
      "taf_trigger": false,
      "metar": "METAR LFSB 142100Z AUTO 18005KT CAVOK 05/03 Q1018 NOSIG",
      "taf": "TAF LFSB 141700Z 1418/1518 18005KT 9999 FEW045 BKN100"
    },
    {
      "icao": "LGAV",
      "alert": "OK",
      "vis_m": 9999,
      "fzfg": false,
      "metar_trigger": false,
      "taf_trigger": false,
      "metar": "METAR LGAV 142120Z 28003KT 9999 SCT035 03/01 Q1025 NOSIG",
      "taf": "TAF LGAV 141700Z 1418/1518 VRB05KT 9999 FEW025"
    },
    {
      "icao": "LGTS",
      "alert": "OK",
      "vis_m": 9999,
      "fzfg": false,
      "metar_trigger": false,
      "taf_trigger": false,
      "metar": "METAR LGTS 142120Z 11005KT CAVOK 03/01 Q1025 NOSIG",
      "taf": "TAF LGTS 141700Z 1418/1518 VRB03KT 9999 FEW030"
    },
    {
      "icao": "LHBP",
      "alert": "OK",
      "vis_m": 1000,
      "fzfg": true,
      "metar_trigger": false,
      "taf_trigger": false,
      "metar": "METAR LHBP 142100Z 23003KT 1000 R31L/P2000N R31R/1700N BCFG BR OVC002 M03/M04 Q1021 TEMPO 0300 FZFG VV001",
      "taf": "TAF LHBP 141715Z 1418/1518 VRB03KT 5000 BR OVC005"
    },
    {
      "icao": "LHDC",
      "alert": "OK",
      "vis_m": 450,
      "fzfg": true,
      "metar_trigger": false,
      "taf_trigger": false,
      "metar": "METAR LHDC 142045Z AUTO VRB03KT 0450 R04/0500N FZFG VV002 M01/M02 Q1020",
      "taf": ""
    },
    {
      "icao": "LIBD",
      "alert": "OK",
      "vis_m": 9999,
      "fzfg": false,
      "metar_trigger": false,
      "taf_trigger": false,
      "metar": "METAR LIBD 142120Z 21008KT CAVOK 08/07 Q1024",
      "taf": "TAF LIBD 141700Z 1418/1518 VRB06KT 9999 FEW040"
    },
    {
      "icao": "LIBG",
      "alert": "OK",
      "vis_m": null,
      "fzfg": false,
      "metar_trigger": false,
      "taf_trigger": false,
      "metar": "",
      "taf": "TAF LIBG 141700Z 1418/1503 16007KT 9999 FEW030"
    },
    {
      "icao": "LIBP",
      "alert": "OK",
      "vis_m": 9999,
      "fzfg": false,
      "metar_trigger": false,
      "taf_trigger": false,
      "metar": "METAR LIBP 142120Z AUTO 22005KT 9999 NCD 04/04 Q1025",
      "taf": "TAF LIBP 141700Z 1418/1518 VRB05KT CAVOK"
    },
    {
      "icao": "LIBR",
      "alert": "OK",
      "vis_m": 9999,
      "fzfg": false,
      "metar_trigger": false,
      "taf_trigger": false,
      "metar": "METAR LIBR 142120Z 17001KT CAVOK 08/06 Q1025",
      "taf": "TAF LIBR 141700Z 1418/1518 VRB06KT 9999 FEW030"
    },
    {
      "icao": "LICA",
      "alert": "OK",
      "vis_m": 9999,
      "fzfg": false,
      "metar_trigger": false,
      "taf_trigger": false,
      "metar": "METAR LICA 142120Z AUTO 07006KT 9999 NCD 05/04 Q1025",
      "taf": "TAF LICA 141700Z 1418/1518 VRB05KT CAVOK"
    },
    {
      "icao": "LICC",
      "alert": "OK",
      "vis_m": 9999,
      "fzfg": false,
      "metar_trigger": false,
      "taf_trigger": false,
      "metar": "METAR LICC 142120Z 24006KT CAVOK 08/04 Q1025",
      "taf": "TAF LICC 141700Z 1418/1518 25011KT 9999 FEW040"
    },
    {
      "icao": "LICJ",
      "alert": "OK",
      "vis_m": 9999,
      "fzfg": false,
      "metar_trigger": false,
      "taf_trigger": false,
      "metar": "METAR LICJ 142120Z 18005KT CAVOK 10/07 Q1023",
      "taf": "TAF LICJ 141700Z 1418/1518 06008KT CAVOK"
    },
    {
      "icao": "LIMC",
      "alert": "OK",
      "vis_m": 9999,
      "fzfg": false,
      "metar_trigger": false,
      "taf_trigger": false,
      "metar": "METAR LIMC 142120Z 36003KT 9999 BKN040 06/03 Q1023 NOSIG",
      "taf": "TAF LIMC 141700Z 1418/1524 VRB05KT 8000 BKN040"
    },
    {
      "icao": "LIME",
      "alert": "OK",
      "vis_m": 2500,
      "fzfg": false,
      "metar_trigger": false,
      "taf_trigger": false,
      "metar": "METAR LIME 142120Z 13003KT 2500 BR FEW004 BKN040 05/05 Q1023 NOSIG",
      "taf": "TAF LIME 141700Z 1418/1518 VRB04KT 4000 BR FEW005 BKN040"
    },
    {
      "icao": "LIMF",
      "alert": "OK",
      "vis_m": 9999,
      "fzfg": false,
      "metar_trigger": false,
      "taf_trigger": false,
      "metar": "METAR LIMF 142120Z 27003KT CAVOK 04/M01 Q1023",
      "taf": "TAF LIMF 141700Z 1418/1518 VRB03KT 8000 SCT050"
    },
    {
      "icao": "LIMJ",
      "alert": "OK",
      "vis_m": 9999,
      "fzfg": false,
      "metar_trigger": false,
      "taf_trigger": false,
      "metar": "METAR LIMJ 142120Z 11012KT 9999 SCT022 SCT045 14/11 Q1022",
      "taf": "TAF LIMJ 141700Z 1418/1518 12010KT 9999 BKN020"
    },
    {
      "icao": "LIPE",
      "alert": "OK",
      "vis_m": 4000,
      "fzfg": false,
      "metar_trigger": false,
      "taf_trigger": false,
      "metar": "METAR LIPE 142120Z VRB02KT 4000 BR NSC 03/03 Q1024",
      "taf": "TAF LIPE 141700Z 1418/1518 VRB04KT 8000 BKN035"
    },
    {
      "icao": "LIPH",
      "alert": "OK",
      "vis_m": 6000,
      "fzfg": false,
      "metar_trigger": false,
      "taf_trigger": false,
      "metar": "METAR LIPH 142120Z 35001KT 6000 BKN060 02/01 Q1024",
      "taf": "TAF LIPH 141700Z 1418/1518 VRB04KT 8000 BKN020"
    },
    {
      "icao": "LIPQ",
      "alert": "OK",
      "vis_m": 4800,
      "fzfg": false,
      "metar_trigger": false,
      "taf_trigger": false,
      "metar": "METAR LIPQ 142120Z AUTO VRB01KT 4800 BR OVC027/// 06/05 Q1024",
      "taf": "TAF LIPQ 141700Z 1418/1518 VRB04KT 6000 BKN020"
    },
    {
      "icao": "LIPR",
      "alert": "OK",
      "vis_m": 4000,
      "fzfg": false,
      "metar_trigger": false,
      "taf_trigger": false,
      "metar": "METAR LIPR 142120Z 27003KT 4000 BR BKN060 06/04 Q1024",
      "taf": "TAF LIPR 141700Z 1418/1518 VRB05KT 6000 BKN035"
    },
    {
      "icao": "LIPX",
      "alert": "OK",
      "vis_m": 4000,
      "fzfg": false,
      "metar_trigger": false,
      "taf_trigger": false,
      "metar": "METAR LIPX 142120Z 00000KT 4000 BR FEW010 OVC060 05/05 Q1024",
      "taf": "TAF LIPX 141700Z 1418/1518 VRB04KT 3000 BR FEW010 BKN050"
    },
    {
      "icao": "LIPY",
      "alert": "OK",
      "vis_m": 5000,
      "fzfg": false,
      "metar_trigger": false,
      "taf_trigger": false,
      "metar": "METAR LIPY 142120Z AUTO VRB02KT 5000 BR OVC055/// 08/06 Q1024",
      "taf": "TAF LIPY 141700Z 1418/1518 VRB05KT 8000 BKN040"
    },
    {
      "icao": "LIPZ",
      "alert": "OK",
      "vis_m": 7000,
      "fzfg": false,
      "metar_trigger": false,
      "taf_trigger": false,
      "metar": "METAR LIPZ 142120Z VRB02KT 7000 BKN060 05/03 Q1024 NOSIG",
      "taf": "TAF LIPZ 141700Z 1418/1524 VRB04KT 7000 BKN030"
    },
    {
      "icao": "LIRF",
      "alert": "OK",
      "vis_m": 9999,
      "fzfg": false,
      "metar_trigger": false,
      "taf_trigger": false,
      "metar": "METAR LIRF 142120Z 12006KT 9999 SCT045 14/10 Q1023 NOSIG",
      "taf": "TAF LIRF 141700Z 1418/1524 15012KT 9999 SCT040"
    },
    {
      "icao": "LIRN",
      "alert": "OK",
      "vis_m": 9999,
      "fzfg": false,
      "metar_trigger": false,
      "taf_trigger": false,
      "metar": "METAR LIRN 142120Z VRB01KT 9999 FEW050 06/04 Q1024 NOSIG",
      "taf": "TAF LIRN 141700Z 1418/1518 VRB05KT 9999 SCT040"
    },
    {
      "icao": "LIRP",
      "alert": "OK",
      "vis_m": 9999,
      "fzfg": false,
      "metar_trigger": false,
      "taf_trigger": false,
      "metar": "METAR LIRP 142115Z 12006KT 9999 FEW030 BKN050 11/10 Q1023 NOSIG",
      "taf": "TAF LIRP 141700Z 1418/1518 12005KT 9999 SCT030 BKN060"
    },
    {
      "icao": "LIRZ",
      "alert": "OK",
      "vis_m": 9999,
      "fzfg": false,
      "metar_trigger": false,
      "taf_trigger": false,
      "metar": "METAR LIRZ 142120Z AUTO 32002KT 9999 OVC046/// 10/07 Q1023",
      "taf": "TAF LIRZ 141700Z 1418/1518 VRB05KT 9999 BKN040"
    },
    {
      "icao": "LJLJ",
      "alert": "OK",
      "vis_m": 9999,
      "fzfg": false,
      "metar_trigger": false,
      "taf_trigger": false,
      "metar": "METAR LJLJ 142100Z 30007KT 9999 FEW001 M01/M01 Q1022 NOSIG",
      "taf": "TAF LJLJ 141700Z 1418/1518 30003KT 9999 FEW025"
    },
    {
      "icao": "LKMT",
      "alert": "OK",
      "vis_m": 8000,
      "fzfg": false,
      "metar_trigger": false,
      "taf_trigger": false,
      "metar": "METAR LKMT 142100Z 23017KT 8000 OVC030 M01/M02 Q1019 NOSIG",
      "taf": "TAF LKMT 141700Z 1418/1518 23014KT 6000 BKN010 OVC018"
    },
    {
      "icao": "LKPR",
      "alert": "OK",
      "vis_m": 9999,
      "fzfg": false,
      "metar_trigger": false,
      "taf_trigger": false,
      "metar": "METAR LKPR 142100Z 20009KT 9999 OVC027 03/02 Q1017 NOSIG",
      "taf": "TAF LKPR 142000Z 1421/1603 20008KT 9999 SCT012 BKN027"
    },
    {
      "icao": "LLBG",
      "alert": "OK",
      "vis_m": 9999,
      "fzfg": false,
      "metar_trigger": false,
      "taf_trigger": false,
      "metar": "METAR LLBG 142120Z 03005KT 320V060 9999 FEW050 13/06 Q1023 NOSIG",
      "taf": "TAF LLBG 141705Z 1418/1518 30006KT 9999 SCT045"
    },
    {
      "icao": "LMML",
      "alert": "OK",
      "vis_m": 9999,
      "fzfg": false,
      "metar_trigger": false,
      "taf_trigger": false,
      "metar": "METAR LMML 142115Z 15010KT 9999 SCT024 15/10 Q1024 NOSIG",
      "taf": "TAF LMML 141700Z 1418/1518 17010KT 9999 SCT025"
    },
    {
      "icao": "LOWW",
      "alert": "OK",
      "vis_m": 1300,
      "fzfg": true,
      "metar_trigger": false,
      "taf_trigger": false,
      "metar": "METAR LOWW 142120Z 13004KT 1300 0500S R16/1500N R29/P1500D BCFG VV002 M02/M03 Q1020 BECMG 0500 FZFG VV001",
      "taf": ""
    },
    {
      "icao": "LPFR",
      "alert": "OK",
      "vis_m": 9999,
      "fzfg": false,
      "metar_trigger": false,
      "taf_trigger": false,
      "metar": "METAR LPFR 142100Z 02003KT 9999 FEW030 12/10 Q1021",
      "taf": "TAF LPFR 141700Z 1418/1518 27007KT 9999 SCT020"
    },
    {
      "icao": "LPMA",
      "alert": "OK",
      "vis_m": 9999,
      "fzfg": false,
      "metar_trigger": false,
      "taf_trigger": false,
      "metar": "METAR LPMA 142100Z 29006KT 9999 SCT015 15/07 Q1026",
      "taf": "TAF LPMA 141700Z 1418/1518 34008KT 9999 SCT015"
    },
    {
      "icao": "LPPR",
      "alert": "OK",
      "vis_m": 9000,
      "fzfg": false,
      "metar_trigger": false,
      "taf_trigger": false,
      "metar": "METAR LPPR 142100Z 00000KT 9000 FEW027 SCT038 09/08 Q1021",
      "taf": "TAF LPPR 141700Z 1418/1518 32007KT 9999 FEW020"
    },
    {
      "icao": "LPPS",
      "alert": "OK",
      "vis_m": 9999,
      "fzfg": false,
      "metar_trigger": false,
      "taf_trigger": false,
      "metar": "METAR LPPS 142100Z 36006KT 320V020 9999 SCT015 SCT030 15/08 Q1026",
      "taf": "TAF LPPS 141700Z 1418/1524 36012KT 9999 SCT015"
    },
    {
      "icao": "LPPT",
      "alert": "OK",
      "vis_m": 9999,
      "fzfg": false,
      "metar_trigger": false,
      "taf_trigger": false,
      "metar": "METAR LPPT 142100Z 00000KT 9999 FEW040 10/09 Q1021",
      "taf": "TAF LPPT 141700Z 1418/1524 31008KT 9999 FEW015 SCT030"
    },
    {
      "icao": "LQBK",
      "alert": "OK",
      "vis_m": 9999,
      "fzfg": false,
      "metar_trigger": false,
      "taf_trigger": false,
      "metar": "METAR LQBK 142100Z 13004KT 110V200 CAVOK 02/01 Q1022 NOSIG",
      "taf": "TAF LQBK 141700Z 1418/1518 21007KT CAVOK TX10/1513Z TN02/1503Z"
    },
    {
      "icao": "LQSA",
      "alert": "OK",
      "vis_m": 5000,
      "fzfg": false,
      "metar_trigger": false,
      "taf_trigger": false,
      "metar": "METAR LQSA 142100Z VRB02KT 5000 BR NSC 01/01 Q1023 NOSIG",
      "taf": "TAF LQSA 141700Z 1418/1518 VRB02KT 9999 FEW045 TX05/1514Z TNM04/1506Z"
    },
    {
      "icao": "LQTZ",
      "alert": "OK",
      "vis_m": 9999,
      "fzfg": false,
      "metar_trigger": false,
      "taf_trigger": false,
      "metar": "METAR LQTZ 142100Z 11002KT 9999 BKN064 03/02 Q1022",
      "taf": ""
    },
    {
      "icao": "LRBC",
      "alert": "OK",
      "vis_m": 7000,
      "fzfg": false,
      "metar_trigger": false,
      "taf_trigger": false,
      "metar": "METAR LRBC 142100Z 17009KT 7000 BKN049 M02/M05 Q1018",
      "taf": "TAF LRBC 142000Z 1421/1506 17010KT 9999 SCT045 BKN060"
    },
    {
      "icao": "LRBS",
      "alert": "OK",
      "vis_m": 5000,
      "fzfg": false,
      "metar_trigger": false,
      "taf_trigger": false,
      "metar": "METAR LRBS 142100Z 23005KT 5000 BR NSC M04/M06 Q1021 NOSIG",
      "taf": "TAF LRBS 141700Z 1418/1518 VRB04KT 7000 NSC"
    },
    {
      "icao": "LRBV",
      "alert": "OK",
      "vis_m": 3500,
      "fzfg": false,
      "metar_trigger": false,
      "taf_trigger": false,
      "metar": "METAR LRBV 142100Z VRB02KT 3500 BR SCT003 BKN011 BKN022 M01/M02 Q1019 REFZRADZ",
      "taf": "TAF LRBV 142000Z 1421/1506 VRB04KT 3000 BR BKN015 OVC020"
    },
    {
      "icao": "LRCL",
      "alert": "OK",
      "vis_m": 6000,
      "fzfg": false,
      "metar_trigger": false,
      "taf_trigger": false,
      "metar": "METAR LRCL 142100Z 07003KT 6000 OVC005 M02/M04 Q1020",
      "taf": "TAF LRCL 142000Z 1421/1506 09006KT 5000 BR BKN005 OVC020"
    },
    {
      "icao": "LRCV",
      "alert": "OK",
      "vis_m": 300,
      "fzfg": true,
      "metar_trigger": false,
      "taf_trigger": false,
      "metar": "METAR LRCV 142100Z 24003KT 0300 R26/0200N FZFG VV001 M03/M03 Q1022",
      "taf": "TAF LRCV 142000Z 1421/1506 25006KT 0600 FZFG OVC002"
    },
    {
      "icao": "LRIA",
      "alert": "OK",
      "vis_m": 3500,
      "fzfg": false,
      "metar_trigger": false,
      "taf_trigger": false,
      "metar": "METAR LRIA 142100Z 10008KT 3500 -SN OVC036 M05/M06 Q1020",
      "taf": "TAF LRIA 142000Z 1421/1506 08006KT CAVOK"
    },
    {
      "icao": "LROP",
      "alert": "OK",
      "vis_m": 5000,
      "fzfg": false,
      "metar_trigger": false,
      "taf_trigger": false,
      "metar": "METAR LROP 142100Z 23005KT 5000 BR NSC M04/M07 Q1021 NOSIG",
      "taf": "TAF LROP 141700Z 1418/1518 VRB04KT 7000 NSC"
    },
    {
      "icao": "LRSB",
      "alert": "OK",
      "vis_m": 5000,
      "fzfg": false,
      "metar_trigger": false,
      "taf_trigger": false,
      "metar": "METAR LRSB 142100Z 10004KT 5000 BR FEW010 OVC035 M00/M00 Q1018",
      "taf": "TAF LRSB 141700Z 1418/1518 VRB04KT 5000 BR SCT015 OVC025"
    },
    {
      "icao": "LRSM",
      "alert": "OK",
      "vis_m": 2200,
      "fzfg": false,
      "metar_trigger": false,
      "taf_trigger": false,
      "metar": "METAR LRSM 142100Z AUTO VRB01KT 2200 -RASN OVC004/// M00/M01 Q1020",
      "taf": ""
    },
    {
      "icao": "LRSV",
      "alert": "OK",
      "vis_m": 3000,
      "fzfg": false,
      "metar_trigger": false,
      "taf_trigger": false,
      "metar": "METAR LRSV 142100Z 08007KT 3000 SN OVC036 M07/M08 Q1016",
      "taf": "TAF LRSV 142000Z 1421/1506 08007KT 5000 -SN BKN035"
    },
    {
      "icao": "LRTM",
      "alert": "OK",
      "vis_m": 5000,
      "fzfg": false,
      "metar_trigger": false,
      "taf_trigger": false,
      "metar": "METAR LRTM 142100Z AUTO 07004KT 5000 BR BKN008/// OVC010/// M01/M03 Q1019",
      "taf": "TAF LRTM 141400Z 1415/1424 VRB03KT 9999 BKN015 BKN025"
    },
    {
      "icao": "LRTR",
      "alert": "OK",
      "vis_m": 3500,
      "fzfg": false,
      "metar_trigger": false,
      "taf_trigger": false,
      "metar": "METAR LRTR 142100Z 10004KT 3500 BR OVC037 01/01 Q1021 BECMG 3000 BR",
      "taf": "TAF LRTR 141700Z 1418/1518 11006KT 5000 BR BKN040"
    },
    {
      "icao": "LTAC",
      "alert": "OK",
      "vis_m": 9999,
      "fzfg": false,
      "metar_trigger": false,
      "taf_trigger": false,
      "metar": "METAR LTAC 142120Z VRB02KT 9999 SCT011 BKN035 M03/M05 Q1023 NOSIG",
      "taf": "TAF LTAC 141640Z 1418/1518 VRB02KT 9999 SCT040 SCT100"
    },
    {
      "icao": "LTFM",
      "alert": "OK",
      "vis_m": 9999,
      "fzfg": false,
      "metar_trigger": false,
      "taf_trigger": false,
      "metar": "METAR LTFM 142120Z 21010KT 9999 BKN040 07/04 Q1024 RESHRA NOSIG",
      "taf": "TAF LTFM 141640Z 1418/1524 VRB02KT 9999 FEW025 BKN040"
    },
    {
      "icao": "LUKK",
      "alert": "OK",
      "vis_m": 5000,
      "fzfg": false,
      "metar_trigger": false,
      "taf_trigger": false,
      "metar": "METAR LUKK 142100Z 07003KT 5000 BR NSC M09/M10 Q1021 NOSIG",
      "taf": "TAF LUKK 141731Z 1418/1518 VRB05KT 8000 NSC"
    },
    {
      "icao": "LWOH",
      "alert": "OK",
      "vis_m": null,
      "fzfg": false,
      "metar_trigger": false,
      "taf_trigger": false,
      "metar": "",
      "taf": "TAF LWOH 142030Z 1421/1521 VRB02KT 9999 SCT040"
    },
    {
      "icao": "LWSK",
      "alert": "OK",
      "vis_m": 9999,
      "fzfg": false,
      "metar_trigger": false,
      "taf_trigger": false,
      "metar": "METAR LWSK 142123Z COR 00000KT 9999 FEW060 M02/M03 Q1025 NOSIG",
      "taf": "TAF LWSK 142030Z 1421/1521 VRB02KT CAVOK"
    },
    {
      "icao": "LYBE",
      "alert": "OK",
      "vis_m": 9999,
      "fzfg": false,
      "metar_trigger": false,
      "taf_trigger": false,
      "metar": "METAR LYBE 142100Z 20005KT CAVOK 06/02 Q1021 NOSIG",
      "taf": "TAF LYBE 141700Z 1418/1518 20006KT 8000 NSC TX08/1513Z TN03/1506Z"
    },
    {
      "icao": "LYNI",
      "alert": "OK",
      "vis_m": 3500,
      "fzfg": false,
      "metar_trigger": false,
      "taf_trigger": false,
      "metar": "METAR LYNI 142100Z 10004KT 3500 BR BKN063 04/03 Q1024 NOSIG",
      "taf": "TAF LYNI 141700Z 1418/1518 10004KT 5000 BR SCT050 TX08/1513Z TN01/1506Z"
    },
    {
      "icao": "LYPG",
      "alert": "OK",
      "vis_m": 9999,
      "fzfg": false,
      "metar_trigger": false,
      "taf_trigger": false,
      "metar": "METAR LYPG 142100Z 03002KT 9999 SCT033 BKN070 07/05 Q1026 NOSIG",
      "taf": "TAF LYPG 141700Z 1418/1518 VRB02KT 7000 FEW030 SCT070 TX12/1513Z TN02/1505Z"
    },
    {
      "icao": "LZIB",
      "alert": "OK",
      "vis_m": 1400,
      "fzfg": true,
      "metar_trigger": false,
      "taf_trigger": false,
      "metar": "METAR LZIB 142100Z 06003KT 1400 0900SE R31/1200U R22/P2000N BR BCFG OVC002 M03/M03 Q1021 TEMPO 900 FZFG VV001",
      "taf": ""
    },
    {
      "icao": "LZKZ",
      "alert": "OK",
      "vis_m": 2800,
      "fzfg": false,
      "metar_trigger": false,
      "taf_trigger": false,
      "metar": "METAR LZKZ 142100Z VRB03KT 2800 -SG BR SCT003 OVC006 M04/M05 Q1019 TEMPO 1000 -SG BR OVC002",
      "taf": ""
    },
    {
      "icao": "LZTT",
      "alert": "OK",
      "vis_m": 7000,
      "fzfg": false,
      "metar_trigger": false,
      "taf_trigger": false,
      "metar": "METAR LZTT 142100Z VRB02KT 7000 OVC007 M05/M06 Q1016",
      "taf": "TAF LZTT 141715Z 1418/1518 VRB02KT 7000 OVC008"
    },
    {
      "icao": "OEJN",
      "alert": "OK",
      "vis_m": 9999,
      "fzfg": false,
      "metar_trigger": false,
      "taf_trigger": false,
      "metar": "METAR OEJN 142100Z 33009KT 9999 FEW040 22/11 Q1017 NOSIG",
      "taf": "TAF OEJN 141700Z 1418/1524 34010KT 8000 FEW040"
    },
    {
      "icao": "OEMA",
      "alert": "OK",
      "vis_m": 9999,
      "fzfg": false,
      "metar_trigger": false,
      "taf_trigger": false,
      "metar": "METAR OEMA 142100Z 31006KT CAVOK 16/M05 Q1020 NOSIG",
      "taf": "TAF OEMA 141700Z 1418/1524 33008KT CAVOK"
    },
    {
      "icao": "OJAI",
      "alert": "OK",
      "vis_m": 4000,
      "fzfg": false,
      "metar_trigger": false,
      "taf_trigger": false,
      "metar": "METAR OJAI 142100Z 24006KT 4000 BR NSC 06/04 Q1023 NOSIG",
      "taf": "TAF OJAI 141700Z 1418/1524 27012KT 4000 BR FEW025TCU BKN030"
    },
    {
      "icao": "OMAA",
      "alert": "OK",
      "vis_m": 9999,
      "fzfg": false,
      "metar_trigger": false,
      "taf_trigger": false,
      "metar": "METAR OMAA 142100Z 10006KT CAVOK 18/09 Q1016 NOSIG",
      "taf": "TAF OMAA 141700Z 1418/1600 08005KT 8000 NSC"
    },
    {
      "icao": "OMDB",
      "alert": "OK",
      "vis_m": 9999,
      "fzfg": false,
      "metar_trigger": false,
      "taf_trigger": false,
      "metar": "METAR OMDB 142100Z VRB02KT CAVOK 20/10 Q1016 NOSIG",
      "taf": "TAF OMDB 141700Z 1418/1600 12005KT 8000 NSC"
    },
    {
      "icao": "UAAA",
      "alert": "OK",
      "vis_m": 900,
      "fzfg": true,
      "metar_trigger": false,
      "taf_trigger": false,
      "metar": "METAR UAAA 142100Z 34002MPS 260V360 0900 R23L/P2000 FZFG VV002 M07/M08 Q1020 NOSIG RMK QBB060",
      "taf": "TAF UAAA 141701Z 1418/1518 30003MPS 1100 BR FU BKN005 OVC020 TXM02/1509Z TNM07/1503Z"
    },
    {
      "icao": "UBBB",
      "alert": "OK",
      "vis_m": 9999,
      "fzfg": false,
      "metar_trigger": false,
      "taf_trigger": false,
      "metar": "METAR UBBB 142100Z 33016KT 9999 BKN047 04/M02 Q1022 NOSIG",
      "taf": "TAF UBBB 141701Z 1418/1518 31014KT 9999 BKN025 TX06/1510Z TN02/1501Z"
    },
    {
      "icao": "UDSG",
      "alert": "OK",
      "vis_m": 9999,
      "fzfg": false,
      "metar_trigger": false,
      "taf_trigger": false,
      "metar": "METAR UDSG 142100Z 25002KT 9999 FEW049 M10/M14 Q1017 NOSIG",
      "taf": "TAF UDSG 141658Z 1418/1518 VRB06KT 9999 SCT040"
    },
    {
      "icao": "UDYZ",
      "alert": "OK",
      "vis_m": 9999,
      "fzfg": false,
      "metar_trigger": false,
      "taf_trigger": false,
      "metar": "METAR UDYZ 142100Z 11002KT 9999 SCT046 M02/M06 Q1018 NOSIG",
      "taf": "TAF UDYZ 141700Z 1418/1518 VRB06KT 9999 FEW040"
    },
    {
      "icao": "UGKO",
      "alert": "OK",
      "vis_m": 9999,
      "fzfg": false,
      "metar_trigger": false,
      "taf_trigger": false,
      "metar": "METAR UGKO 142100Z 07002KT CAVOK M02/M03 Q1024 NOSIG",
      "taf": "TAF UGKO 141700Z 1418/1518 08007KT 9999 BKN050 TX06/1511Z TNM02/1501Z"
    }
  ]
}