{
  "ts_utc": "2026-02-27T07:09:24Z",
  "threshold_m": 150,
  "source": "stations_override.txt (ICAO list) + aviationweather.gov (METAR/TAF raw)",
  "station_count": 159,
  "stations": [
    {
      "icao": "BIKF",
      "alert": "OK",
      "vis_m": 9999,
      "fzfg": false,
      "metar_trigger": false,
      "taf_trigger": false,
      "metar": "METAR BIKF 270700Z 24016KT 9999 VCSH FEW017CB SCT035 BKN070 M05/M11 Q0987",
      "taf": "TAF BIKF 270409Z 2706/2806 25022G32KT 9999 -SHSN SCT015 BKN025 TX00/2716Z TNM04/2706Z"
    },
    {
      "icao": "BKPR",
      "alert": "OK",
      "vis_m": 6000,
      "fzfg": false,
      "metar_trigger": false,
      "taf_trigger": false,
      "metar": "METAR BKPR 270700Z VRB01KT 6000 NSC M01/M02 Q1028 TEMPO 4000 BR",
      "taf": "TAF BKPR 270530Z 2706/2806 VRB03KT 3000 BR FEW030"
    },
    {
      "icao": "EBCI",
      "alert": "OK",
      "vis_m": 9999,
      "fzfg": false,
      "metar_trigger": false,
      "taf_trigger": false,
      "metar": "METAR EBCI 270650Z 18010KT CAVOK 10/07 Q1015 NOSIG",
      "taf": "TAF EBCI 270511Z 2706/2812 20011KT 9999 FEW012 SCT020"
    },
    {
      "icao": "EDDB",
      "alert": "OK",
      "vis_m": 9999,
      "fzfg": false,
      "metar_trigger": false,
      "taf_trigger": false,
      "metar": "METAR EDDB 270650Z AUTO 20005KT CAVOK 06/06 Q1020 NOSIG",
      "taf": "TAF EDDB 270500Z 2706/2806 18006KT CAVOK"
    },
    {
      "icao": "EDDH",
      "alert": "OK",
      "vis_m": 9999,
      "fzfg": false,
      "metar_trigger": false,
      "taf_trigger": false,
      "metar": "METAR EDDH 270650Z AUTO 21011KT 9999 FEW031 10/08 Q1015 NOSIG",
      "taf": "TAF EDDH 270500Z 2706/2812 18007KT 9999 FEW025"
    },
    {
      "icao": "EDDK",
      "alert": "OK",
      "vis_m": 9999,
      "fzfg": false,
      "metar_trigger": false,
      "taf_trigger": false,
      "metar": "METAR EDDK 270650Z AUTO 12007KT CAVOK 10/08 Q1018 NOSIG",
      "taf": "TAF EDDK 270506Z 2706/2812 14006KT CAVOK"
    },
    {
      "icao": "EDDN",
      "alert": "OK",
      "vis_m": 7000,
      "fzfg": false,
      "metar_trigger": false,
      "taf_trigger": false,
      "metar": "METAR EDDN 270650Z AUTO 13005KT 7000 NCD 02/02 Q1023 NOSIG",
      "taf": ""
    },
    {
      "icao": "EDDS",
      "alert": "OK",
      "vis_m": 9999,
      "fzfg": false,
      "metar_trigger": false,
      "taf_trigger": false,
      "metar": "METAR EDDS 270650Z AUTO 04001KT CAVOK 02/02 Q1021 TEMPO 3000 BCFG",
      "taf": "TAF EDDS 270500Z 2706/2806 VRB02KT CAVOK"
    },
    {
      "icao": "EDFH",
      "alert": "OK",
      "vis_m": 350,
      "fzfg": false,
      "metar_trigger": false,
      "taf_trigger": false,
      "metar": "METAR EDFH 270650Z 13006KT 0350 R21/0350N BCFG NSC 05/05 Q1019",
      "taf": ""
    },
    {
      "icao": "EDJA",
      "alert": "OK",
      "vis_m": 9999,
      "fzfg": false,
      "metar_trigger": false,
      "taf_trigger": false,
      "metar": "METAR EDJA 270650Z 19003KT CAVOK 02/M01 Q1023",
      "taf": "TAF EDJA 270500Z 2706/2715 22004KT CAVOK"
    },
    {
      "icao": "EDLW",
      "alert": "OK",
      "vis_m": 9999,
      "fzfg": false,
      "metar_trigger": false,
      "taf_trigger": false,
      "metar": "METAR EDLW 270650Z 17008KT CAVOK 11/07 Q1016",
      "taf": "TAF EDLW 270500Z 2706/2806 19011KT CAVOK"
    },
    {
      "icao": "EDNY",
      "alert": "OK",
      "vis_m": 9999,
      "fzfg": false,
      "metar_trigger": false,
      "taf_trigger": false,
      "metar": "METAR EDNY 270650Z 07002KT CAVOK 00/00 Q1024",
      "taf": "TAF EDNY 270500Z 2706/2715 VRB02KT 7000 NSC"
    },
    {
      "icao": "EDSB",
      "alert": "OK",
      "vis_m": 5000,
      "fzfg": false,
      "metar_trigger": false,
      "taf_trigger": false,
      "metar": "METAR EDSB 270650Z VRB02KT 5000 BCFG FEW003 SCT005 04/03 Q1021",
      "taf": "TAF EDSB 270500Z 2706/2806 VRB02KT CAVOK"
    },
    {
      "icao": "EETN",
      "alert": "OK",
      "vis_m": 1000,
      "fzfg": false,
      "metar_trigger": false,
      "taf_trigger": false,
      "metar": "METAR EETN 270650Z 21011KT 1000 R26/1600N BR OVC002 02/02 Q1010 TEMPO 0500 FG",
      "taf": "TAF EETN 270530Z 2706/2806 21012KT 1500 DZ BR OVC003"
    },
    {
      "icao": "EFTU",
      "alert": "OK",
      "vis_m": 1100,
      "fzfg": false,
      "metar_trigger": false,
      "taf_trigger": false,
      "metar": "METAR EFTU 270650Z AUTO 22007KT 1100 R26/1600N -SHRA OVC001 03/03 Q1006",
      "taf": "TAF EFTU 270536Z 2706/2806 22010KT 1400 DZ BR OVC001"
    },
    {
      "icao": "EGBB",
      "alert": "OK",
      "vis_m": 3000,
      "fzfg": false,
      "metar_trigger": false,
      "taf_trigger": false,
      "metar": "METAR EGBB 270650Z 18004KT 140V200 3000 -RA OVC005 09/09 Q1005 RERA",
      "taf": ""
    },
    {
      "icao": "EGGP",
      "alert": "OK",
      "vis_m": 6000,
      "fzfg": false,
      "metar_trigger": false,
      "taf_trigger": false,
      "metar": "METAR EGGP 270650Z 04003KT 360V080 6000 -RA FEW020 OVC024 07/06 Q1007",
      "taf": "TAF EGGP 270458Z 2706/2806 19006KT 9999 SCT030"
    },
    {
      "icao": "EGGW",
      "alert": "OK",
      "vis_m": 5000,
      "fzfg": false,
      "metar_trigger": false,
      "taf_trigger": false,
      "metar": "METAR EGGW 270650Z AUTO 19008KT 150V220 5000 BR OVC004 09/09 Q1008",
      "taf": "TAF EGGW 270455Z 2706/2806 20012KT 9999 BKN012"
    },
    {
      "icao": "EGKK",
      "alert": "OK",
      "vis_m": 4900,
      "fzfg": false,
      "metar_trigger": false,
      "taf_trigger": false,
      "metar": "METAR EGKK 270650Z 20010KT 170V240 4900 -RADZ SCT007 BKN009 10/09 Q1009",
      "taf": "TAF EGKK 270458Z 2706/2812 21015G25KT 9999 BKN012"
    },
    {
      "icao": "EGNM",
      "alert": "OK",
      "vis_m": 9999,
      "fzfg": false,
      "metar_trigger": false,
      "taf_trigger": false,
      "metar": "METAR EGNM 270650Z 29004KT 9999 FEW043 07/05 Q1006",
      "taf": "TAF EGNM 270458Z 2706/2806 24005KT 9999 BKN020"
    },
    {
      "icao": "EGPD",
      "alert": "OK",
      "vis_m": 9999,
      "fzfg": false,
      "metar_trigger": false,
      "taf_trigger": false,
      "metar": "METAR EGPD 270650Z COR AUTO 24008KT 9999 NCD 06/02 Q1002 NOSIG",
      "taf": "TAF EGPD 270456Z 2706/2806 22006KT 9999 FEW040"
    },
    {
      "icao": "EGPF",
      "alert": "OK",
      "vis_m": 9999,
      "fzfg": false,
      "metar_trigger": false,
      "taf_trigger": false,
      "metar": "METAR EGPF 270650Z AUTO 23005KT 9999 //////TCU 05/03 Q1005",
      "taf": "TAF EGPF 270458Z 2706/2806 24005KT 9999 SCT035"
    },
    {
      "icao": "EHBK",
      "alert": "OK",
      "vis_m": 9999,
      "fzfg": false,
      "metar_trigger": false,
      "taf_trigger": false,
      "metar": "METAR EHBK 270655Z AUTO 18007KT 9999 NCD 10/08 Q1016 NOSIG",
      "taf": "TAF EHBK 270518Z 2706/2812 21014KT CAVOK"
    },
    {
      "icao": "EHEH",
      "alert": "OK",
      "vis_m": 9999,
      "fzfg": false,
      "metar_trigger": false,
      "taf_trigger": false,
      "metar": "METAR EHEH 270655Z AUTO 18006KT 160V230 9999 NCD 10/08 Q1015 BLU NOSIG RMK TREND REMOTE BY EHWX",
      "taf": "TAF EHEH 270531Z 2706/2812 18005KT CAVOK"
    },
    {
      "icao": "EKBI",
      "alert": "OK",
      "vis_m": 3900,
      "fzfg": false,
      "metar_trigger": false,
      "taf_trigger": false,
      "metar": "METAR EKBI 270650Z AUTO 22013KT 3900 -RA OVC003/// 07/07 Q1010",
      "taf": "TAF EKBI 270527Z 2706/2806 20012KT 8000 -RADZ BKN008"
    },
    {
      "icao": "EKCH",
      "alert": "OK",
      "vis_m": 4000,
      "fzfg": false,
      "metar_trigger": false,
      "taf_trigger": false,
      "metar": "METAR EKCH 270650Z 20008KT 4000 BR BKN014 06/05 Q1013 TEMPO BKN016",
      "taf": "TAF EKCH 270527Z 2706/2806 21010KT 8000 BKN015"
    },
    {
      "icao": "ENAL",
      "alert": "OK",
      "vis_m": 9999,
      "fzfg": false,
      "metar_trigger": false,
      "taf_trigger": false,
      "metar": "METAR ENAL 270650Z 22015KT 9999 SCT032 BKN045 07/04 Q0994",
      "taf": "TAF ENAL 270500Z 2706/2715 20008KT 9999 FEW012 BKN030"
    },
    {
      "icao": "ENBR",
      "alert": "OK",
      "vis_m": 9999,
      "fzfg": false,
      "metar_trigger": false,
      "taf_trigger": false,
      "metar": "METAR ENBR 270650Z 15011KT 110V170 9999 BKN006 06/05 Q1000 NOSIG RMK WIND 1200FT 22017KT",
      "taf": "TAF ENBR 270500Z 2706/2806 18015KT 9999 SCT005 BKN010"
    },
    {
      "icao": "ENGM",
      "alert": "OK",
      "vis_m": 500,
      "fzfg": false,
      "metar_trigger": false,
      "taf_trigger": false,
      "metar": "METAR ENGM 270650Z 20006KT 0500 R19R/0650D R01R/0550N R19L/0600N R01L/0550N -DZ FG VV002 01/01 Q1002 NOSIG",
      "taf": "TAF ENGM 270500Z 2706/2806 17010KT 0300 FG VV001"
    },
    {
      "icao": "ENHD",
      "alert": "OK",
      "vis_m": 6000,
      "fzfg": false,
      "metar_trigger": false,
      "taf_trigger": false,
      "metar": "METAR ENHD 270650Z 19012KT 6000 SCT004 07/06 Q1002",
      "taf": "TAF ENHD 270500Z 2706/2715 20012KT 9999 SCT005 BKN010"
    },
    {
      "icao": "ENTC",
      "alert": "OK",
      "vis_m": 9999,
      "fzfg": false,
      "metar_trigger": false,
      "taf_trigger": false,
      "metar": "METAR ENTC 270650Z 18012KT CAVOK M01/M07 Q0997 NOSIG RMK WIND 2600FT 18023KT",
      "taf": "TAF ENTC 270500Z 2706/2806 18008KT 9999 SCT040"
    },
    {
      "icao": "ENTO",
      "alert": "OK",
      "vis_m": 100,
      "fzfg": false,
      "metar_trigger": false,
      "taf_trigger": false,
      "metar": "METAR ENTO 270650Z 18011KT 0100 R18/0375N R36/0450N FG VV001 02/02 Q1003 NOSIG",
      "taf": "TAF ENTO 270500Z 2706/2806 20010KT 0100 FG VV001"
    },
    {
      "icao": "ENVA",
      "alert": "OK",
      "vis_m": 9999,
      "fzfg": false,
      "metar_trigger": false,
      "taf_trigger": false,
      "metar": "METAR ENVA 270650Z 26004KT 9999 FEW030 01/00 Q0994 NOSIG RMK WIND 670FT 19001KT",
      "taf": "TAF ENVA 270500Z 2706/2806 09005KT 9999 FEW030 BKN040"
    },
    {
      "icao": "ENZV",
      "alert": "OK",
      "vis_m": 9999,
      "fzfg": false,
      "metar_trigger": false,
      "taf_trigger": false,
      "metar": "METAR ENZV 270650Z 19008KT 9999 VCSH FEW007 SCT009 BKN039 06/06 Q1003 TEMPO BKN009",
      "taf": ""
    },
    {
      "icao": "EPGD",
      "alert": "OK",
      "vis_m": 9999,
      "fzfg": false,
      "metar_trigger": false,
      "taf_trigger": false,
      "metar": "METAR EPGD 270700Z 22006KT CAVOK 04/03 Q1018",
      "taf": "TAF EPGD 270530Z 2706/2806 22008KT CAVOK"
    },
    {
      "icao": "EPKK",
      "alert": "OK",
      "vis_m": 9000,
      "fzfg": false,
      "metar_trigger": false,
      "taf_trigger": false,
      "metar": "METAR EPKK 270700Z VRB01KT 9000 NSC 00/M02 Q1025",
      "taf": "TAF EPKK 270530Z 2706/2806 VRB02KT CAVOK"
    },
    {
      "icao": "EPKT",
      "alert": "OK",
      "vis_m": 9999,
      "fzfg": false,
      "metar_trigger": false,
      "taf_trigger": false,
      "metar": "METAR EPKT 270700Z 20008KT CAVOK 04/M00 Q1024",
      "taf": "TAF EPKT 270530Z 2706/2806 20010KT CAVOK"
    },
    {
      "icao": "EPLB",
      "alert": "OK",
      "vis_m": 9999,
      "fzfg": false,
      "metar_trigger": false,
      "taf_trigger": false,
      "metar": "METAR EPLB 270700Z 23004KT 200V260 CAVOK 01/M02 Q1026",
      "taf": "TAF EPLB 270530Z 2706/2806 13005KT CAVOK"
    },
    {
      "icao": "EPMO",
      "alert": "OK",
      "vis_m": 9999,
      "fzfg": false,
      "metar_trigger": false,
      "taf_trigger": false,
      "metar": "METAR EPMO 270700Z 15006KT CAVOK 01/M01 Q1023",
      "taf": "TAF EPMO 270530Z 2706/2806 14006KT CAVOK"
    },
    {
      "icao": "EPPO",
      "alert": "OK",
      "vis_m": 9999,
      "fzfg": false,
      "metar_trigger": false,
      "taf_trigger": false,
      "metar": "METAR EPPO 270700Z 19005KT CAVOK 04/02 Q1021",
      "taf": "TAF EPPO 270530Z 2706/2806 19006KT CAVOK"
    },
    {
      "icao": "EPRA",
      "alert": "OK",
      "vis_m": 9999,
      "fzfg": false,
      "metar_trigger": false,
      "taf_trigger": false,
      "metar": "METAR EPRA 270700Z 17007KT 110V190 CAVOK 00/M02 Q1024",
      "taf": "TAF EPRA 270530Z 2706/2715 17008KT CAVOK"
    },
    {
      "icao": "EPRZ",
      "alert": "OK",
      "vis_m": 9999,
      "fzfg": false,
      "metar_trigger": false,
      "taf_trigger": false,
      "metar": "METAR EPRZ 270700Z 09001KT CAVOK 01/M02 Q1026",
      "taf": "TAF EPRZ 270530Z 2706/2806 VRB02KT CAVOK"
    },
    {
      "icao": "EPSC",
      "alert": "OK",
      "vis_m": 350,
      "fzfg": false,
      "metar_trigger": false,
      "taf_trigger": false,
      "metar": "METAR EPSC 270700Z 14005KT 0350 R31/0450N FG FEW001 03/03 Q1018",
      "taf": ""
    },
    {
      "icao": "EPSY",
      "alert": "OK",
      "vis_m": 9999,
      "fzfg": false,
      "metar_trigger": false,
      "taf_trigger": false,
      "metar": "METAR EPSY 270700Z 19008KT CAVOK 00/M02 Q1021",
      "taf": "TAF EPSY 270530Z 2706/2715 18006KT CAVOK"
    },
    {
      "icao": "EPWA",
      "alert": "OK",
      "vis_m": 9999,
      "fzfg": false,
      "metar_trigger": false,
      "taf_trigger": false,
      "metar": "METAR EPWA 270700Z 16008KT CAVOK 00/M01 Q1023 NOSIG",
      "taf": "TAF EPWA 270530Z 2706/2806 14005KT CAVOK"
    },
    {
      "icao": "EPWR",
      "alert": "OK",
      "vis_m": 8000,
      "fzfg": false,
      "metar_trigger": false,
      "taf_trigger": false,
      "metar": "METAR EPWR 270700Z 11003KT 8000 NSC 02/01 Q1023",
      "taf": "TAF EPWR 270530Z 2706/2806 15004KT CAVOK"
    },
    {
      "icao": "ESGG",
      "alert": "OK",
      "vis_m": 250,
      "fzfg": false,
      "metar_trigger": false,
      "taf_trigger": false,
      "metar": "METAR ESGG 270650Z 20010KT 0250 R03/0800N R21/1000N FG VV003 04/04 Q1008",
      "taf": "TAF ESGG 270530Z 2706/2806 21013KT 0150 FG VV002"
    },
    {
      "icao": "ESKN",
      "alert": "OK",
      "vis_m": 9999,
      "fzfg": false,
      "metar_trigger": false,
      "taf_trigger": false,
      "metar": "METAR ESKN 270650Z 24010KT 9999 BKN014 07/06 Q1007",
      "taf": "TAF ESKN 270530Z 2706/2806 22009KT 9999 OVC015"
    },
    {
      "icao": "ESMS",
      "alert": "OK",
      "vis_m": 3900,
      "fzfg": false,
      "metar_trigger": false,
      "taf_trigger": false,
      "metar": "METAR ESMS 270650Z 20010KT 3900 BR OVC016 06/06 Q1013",
      "taf": "TAF ESMS 270527Z 2706/2806 20010KT 8000 BKN015"
    },
    {
      "icao": "ESSA",
      "alert": "OK",
      "vis_m": 9999,
      "fzfg": false,
      "metar_trigger": false,
      "taf_trigger": false,
      "metar": "METAR ESSA 270650Z 22012KT 9999 BKN010 06/05 Q1005 TEMPO BKN009",
      "taf": "TAF ESSA 270530Z 2706/2806 22009KT 9999 OVC008"
    },
    {
      "icao": "EYKA",
      "alert": "OK",
      "vis_m": 9999,
      "fzfg": false,
      "metar_trigger": false,
      "taf_trigger": false,
      "metar": "METAR EYKA 270650Z 18006KT 130V230 CAVOK 00/M03 Q1022",
      "taf": "TAF EYKA 270506Z 2706/2806 18010KT 9000 NSC"
    },
    {
      "icao": "EYPA",
      "alert": "OK",
      "vis_m": 9999,
      "fzfg": false,
      "metar_trigger": false,
      "taf_trigger": false,
      "metar": "METAR EYPA 270650Z 19015KT 9999 SCT036 03/M00 Q1017",
      "taf": "TAF EYPA 270506Z 2706/2806 19013KT 8000 SCT015 BKN030"
    },
    {
      "icao": "EYVI",
      "alert": "OK",
      "vis_m": 9999,
      "fzfg": false,
      "metar_trigger": false,
      "taf_trigger": false,
      "metar": "METAR EYVI 270650Z 18015KT CAVOK M02/M05 Q1023 NOSIG",
      "taf": "TAF EYVI 270503Z 2706/2806 18013KT 9000 NSC"
    },
    {
      "icao": "GCFV",
      "alert": "OK",
      "vis_m": 5000,
      "fzfg": false,
      "metar_trigger": false,
      "taf_trigger": false,
      "metar": "METAR GCFV 270700Z 33018KT 5000 HZ BKN035 20/11 Q1015",
      "taf": "TAF GCFV 270200Z 2703/2803 36012KT 9999 FEW020 TX24/2714Z TN15/2706Z"
    },
    {
      "icao": "GCLP",
      "alert": "OK",
      "vis_m": 9999,
      "fzfg": false,
      "metar_trigger": false,
      "taf_trigger": false,
      "metar": "METAR GCLP 270700Z 01027G39KT 9999 BKN016 19/16 Q1017 NOSIG",
      "taf": "TAF GCLP 270200Z 2703/2803 36025KT 9999 SCT020 TX22/2714Z TN16/2706Z"
    },
    {
      "icao": "GCTS",
      "alert": "OK",
      "vis_m": 6000,
      "fzfg": false,
      "metar_trigger": false,
      "taf_trigger": false,
      "metar": "METAR GCTS 270700Z 08008KT 020V110 6000 BKN040 21/05 Q1018 NOSIG",
      "taf": ""
    },
    {
      "icao": "GMAD",
      "alert": "OK",
      "vis_m": 6000,
      "fzfg": false,
      "metar_trigger": false,
      "taf_trigger": false,
      "metar": "METAR GMAD 270700Z 06015KT 6000 NSC 23/M05 Q1016 NOSIG",
      "taf": "TAF GMAD 270500Z 2706/2812 10010KT 6000 NSC"
    },
    {
      "icao": "GMMN",
      "alert": "OK",
      "vis_m": 5000,
      "fzfg": false,
      "metar_trigger": false,
      "taf_trigger": false,
      "metar": "METAR GMMN 270700Z VRB02KT 5000 0400N PRFG BKN001 09/08 Q1020 BECMG 0400 FG",
      "taf": "TAF GMMN 270500Z 2706/2812 VRB02KT 5000 NSC"
    },
    {
      "icao": "GMMX",
      "alert": "OK",
      "vis_m": 8000,
      "fzfg": false,
      "metar_trigger": false,
      "taf_trigger": false,
      "metar": "METAR GMMX 270700Z VRB02KT 8000 SCT080 SCT200 14/03 Q1019 NOSIG",
      "taf": "TAF GMMX 270500Z 2706/2812 06006KT 8000 SCT090"
    },
    {
      "icao": "HEGN",
      "alert": "OK",
      "vis_m": 9999,
      "fzfg": false,
      "metar_trigger": false,
      "taf_trigger": false,
      "metar": "METAR HEGN 270600Z 30016KT CAVOK 15/06 Q1017 NOSIG",
      "taf": "TAF HEGN 270500Z 2706/2812 35018KT CAVOK"
    },
    {
      "icao": "HEMA",
      "alert": "OK",
      "vis_m": 9999,
      "fzfg": false,
      "metar_trigger": false,
      "taf_trigger": false,
      "metar": "METAR HEMA 270600Z 31014KT CAVOK 18/09 Q1015 NOSIG",
      "taf": "TAF HEMA 270500Z 2706/2812 36018KT CAVOK"
    },
    {
      "icao": "HESH",
      "alert": "OK",
      "vis_m": 9999,
      "fzfg": false,
      "metar_trigger": false,
      "taf_trigger": false,
      "metar": "METAR HESH 270600Z 35016KT CAVOK 17/03 Q1015 NOSIG",
      "taf": "TAF HESH 270500Z 2706/2812 03015KT CAVOK"
    },
    {
      "icao": "HESX",
      "alert": "OK",
      "vis_m": 9999,
      "fzfg": false,
      "metar_trigger": false,
      "taf_trigger": false,
      "metar": "METAR HESX 270600Z 28004KT CAVOK 09/05 Q1018 NOSIG",
      "taf": "TAF HESX 270500Z 2706/2812 29005KT 9999 FEW020"
    },
    {
      "icao": "LATI",
      "alert": "OK",
      "vis_m": 9999,
      "fzfg": false,
      "metar_trigger": false,
      "taf_trigger": false,
      "metar": "METAR LATI 270650Z 16003KT CAVOK 06/01 Q1027 NOSIG",
      "taf": "TAF LATI 270500Z 2706/2806 VRB05KT CAVOK TX19/2712Z TN03/2805Z"
    },
    {
      "icao": "LBPD",
      "alert": "OK",
      "vis_m": 9999,
      "fzfg": false,
      "metar_trigger": false,
      "taf_trigger": false,
      "metar": "METAR LBPD 270700Z AUTO 28005KT 9999 NCD 03/01 Q1030 NOSIG",
      "taf": "TAF LBPD 270500Z 2706/2806 VRB04KT 9999 SCT050"
    },
    {
      "icao": "LBSF",
      "alert": "OK",
      "vis_m": 9000,
      "fzfg": false,
      "metar_trigger": false,
      "taf_trigger": false,
      "metar": "METAR LBSF 270700Z VRB02KT 9000 NSC M00/M02 Q1028 NOSIG",
      "taf": "TAF LBSF 270500Z 2706/2806 VRB04KT CAVOK"
    },
    {
      "icao": "LBWN",
      "alert": "OK",
      "vis_m": 9999,
      "fzfg": false,
      "metar_trigger": false,
      "taf_trigger": false,
      "metar": "METAR LBWN 270700Z 29003KT 270V330 9999 SCT015 OVC026 M00/M01 Q1031 NOSIG",
      "taf": "TAF LBWN 270500Z 2706/2806 VRB04KT 9999 SCT040"
    },
    {
      "icao": "LCLK",
      "alert": "OK",
      "vis_m": 9999,
      "fzfg": false,
      "metar_trigger": false,
      "taf_trigger": false,
      "metar": "METAR LCLK 270700Z 36022KT 9999 FEW020 13/00 Q1016 NOSIG",
      "taf": "TAF LCLK 270530Z 2706/2806 35016KT 9999 FEW025"
    },
    {
      "icao": "LCPH",
      "alert": "OK",
      "vis_m": 9999,
      "fzfg": false,
      "metar_trigger": false,
      "taf_trigger": false,
      "metar": "METAR LCPH 270700Z 04005KT 010V080 9999 FEW030 14/M02 Q1017 NOSIG",
      "taf": "TAF LCPH 270530Z 2706/2806 02009KT 9999 FEW030"
    },
    {
      "icao": "LEAL",
      "alert": "OK",
      "vis_m": 9999,
      "fzfg": false,
      "metar_trigger": false,
      "taf_trigger": false,
      "metar": "METAR LEAL 270700Z 27004KT CAVOK 09/09 Q1025 NOSIG",
      "taf": "TAF LEAL 270500Z 2706/2806 VRB04KT CAVOK TX19/2712Z TN06/2706Z"
    },
    {
      "icao": "LEBB",
      "alert": "OK",
      "vis_m": 9999,
      "fzfg": false,
      "metar_trigger": false,
      "taf_trigger": false,
      "metar": "METAR LEBB 270700Z VRB02KT 9999 FEW005 11/08 Q1019 TEMPO BKN005",
      "taf": ""
    },
    {
      "icao": "LEBL",
      "alert": "OK",
      "vis_m": 3000,
      "fzfg": false,
      "metar_trigger": false,
      "taf_trigger": false,
      "metar": "METAR LEBL 270700Z 33003KT 260V360 3000 BR BKN003 09/09 Q1025 NOSIG",
      "taf": "TAF LEBL 270500Z 2706/2806 VRB03KT 9999 FEW015 TX17/2713Z TN07/2706Z"
    },
    {
      "icao": "LECH",
      "alert": "OK",
      "vis_m": 8000,
      "fzfg": false,
      "metar_trigger": false,
      "taf_trigger": false,
      "metar": "METAR LECH 270700Z AUTO 17002KT 8000 NCD 05/03 Q1025",
      "taf": ""
    },
    {
      "icao": "LEMD",
      "alert": "OK",
      "vis_m": 9999,
      "fzfg": false,
      "metar_trigger": false,
      "taf_trigger": false,
      "metar": "METAR LEMD 270700Z 01003KT 340V040 CAVOK 03/01 Q1024 NOSIG",
      "taf": "TAF LEMD 270500Z 2706/2812 VRB04KT CAVOK TX20/2715Z TN02/2706Z"
    },
    {
      "icao": "LEMG",
      "alert": "OK",
      "vis_m": 8000,
      "fzfg": false,
      "metar_trigger": false,
      "taf_trigger": false,
      "metar": "METAR LEMG 270700Z 28005KT 8000 BKN022 09/08 Q1024 NOSIG",
      "taf": "TAF LEMG 270500Z 2706/2806 29004KT 9999 FEW010 BKN020 TX20/2714Z TN08/2707Z"
    },
    {
      "icao": "LEVC",
      "alert": "OK",
      "vis_m": 9999,
      "fzfg": false,
      "metar_trigger": false,
      "taf_trigger": false,
      "metar": "METAR LEVC 270700Z 29002KT CAVOK 04/03 Q1025 NOSIG",
      "taf": "TAF LEVC 270500Z 2706/2806 VRB04KT CAVOK TX20/2712Z TN05/2706Z"
    },
    {
      "icao": "LEXJ",
      "alert": "OK",
      "vis_m": 1200,
      "fzfg": false,
      "metar_trigger": false,
      "taf_trigger": false,
      "metar": "METAR LEXJ 270700Z 25004KT 210V270 1200 R29///// R11/P2000 BR OVC006 09/08 Q1021",
      "taf": ""
    },
    {
      "icao": "LEZG",
      "alert": "OK",
      "vis_m": 5000,
      "fzfg": false,
      "metar_trigger": false,
      "taf_trigger": false,
      "metar": "METAR LEZG 270700Z VRB02KT 5000 2000W BR NSC 07/07 Q1024 NOSIG",
      "taf": "TAF LEZG 270500Z 2706/2806 11009KT CAVOK TX20/2715Z TN06/2706Z"
    },
    {
      "icao": "LEZL",
      "alert": "OK",
      "vis_m": 9999,
      "fzfg": false,
      "metar_trigger": false,
      "taf_trigger": false,
      "metar": "METAR LEZL 270700Z 02007KT CAVOK 09/08 Q1023 NOSIG",
      "taf": "TAF LEZL 270200Z 2703/2803 05006KT CAVOK TX24/2715Z TN10/2707Z"
    },
    {
      "icao": "LFBD",
      "alert": "OK",
      "vis_m": 6000,
      "fzfg": false,
      "metar_trigger": false,
      "taf_trigger": false,
      "metar": "METAR LFBD 270700Z AUTO 25004KT 230V320 6000 FEW005 08/08 Q1020 TEMPO VV/// BECMG 4000 BR",
      "taf": "TAF LFBD 270500Z 2706/2812 15005KT 4000 BR BKN004 TX18/2712Z TN08/2706Z"
    },
    {
      "icao": "LFLL",
      "alert": "OK",
      "vis_m": 9999,
      "fzfg": false,
      "metar_trigger": false,
      "taf_trigger": false,
      "metar": "METAR LFLL 270700Z 15010KT 120V180 CAVOK 10/07 Q1023 NOSIG",
      "taf": "TAF LFLL 270500Z 2706/2812 17008KT CAVOK"
    },
    {
      "icao": "LFLS",
      "alert": "OK",
      "vis_m": 9999,
      "fzfg": false,
      "metar_trigger": false,
      "taf_trigger": false,
      "metar": "METAR LFLS 270700Z AUTO 06004KT 050V170 9999 FEW018 05/04 Q1024 TEMPO 3000 MIFG",
      "taf": "TAF LFLS 270200Z 2703/2803 09005KT CAVOK"
    },
    {
      "icao": "LFMN",
      "alert": "OK",
      "vis_m": 9999,
      "fzfg": false,
      "metar_trigger": false,
      "taf_trigger": false,
      "metar": "METAR LFMN 270700Z 34008KT 9999 OVC033 12/07 Q1026 NOSIG",
      "taf": "TAF LFMN 270200Z 2703/2809 33005KT 9999 BKN025"
    },
    {
      "icao": "LFOB",
      "alert": "OK",
      "vis_m": 8000,
      "fzfg": false,
      "metar_trigger": false,
      "taf_trigger": false,
      "metar": "METAR LFOB 270700Z AUTO 13003KT 8000 NSC 08/08 Q1015 TEMPO 4000 BR BKN007 BECMG 20010KT",
      "taf": "TAF LFOB 270500Z 2706/2806 20010KT 8000 NSC"
    },
    {
      "icao": "LFPO",
      "alert": "OK",
      "vis_m": 9999,
      "fzfg": false,
      "metar_trigger": false,
      "taf_trigger": false,
      "metar": "METAR LFPO 270700Z 19005KT CAVOK 09/08 Q1017 NOSIG",
      "taf": "TAF LFPO 270500Z 2706/2812 20004KT CAVOK"
    },
    {
      "icao": "LFSB",
      "alert": "OK",
      "vis_m": 9999,
      "fzfg": false,
      "metar_trigger": false,
      "taf_trigger": false,
      "metar": "METAR LFSB 270700Z AUTO 18006KT CAVOK 07/05 Q1022 NOSIG",
      "taf": "TAF LFSB 270500Z 2706/2806 17005KT CAVOK"
    },
    {
      "icao": "LGAV",
      "alert": "OK",
      "vis_m": 9999,
      "fzfg": false,
      "metar_trigger": false,
      "taf_trigger": false,
      "metar": "METAR LGAV 270650Z 01006KT 9999 FEW025 SCT040 10/02 Q1029 NOSIG",
      "taf": "TAF LGAV 270500Z 2706/2806 03016KT 9999 BKN025"
    },
    {
      "icao": "LGTS",
      "alert": "OK",
      "vis_m": 9999,
      "fzfg": false,
      "metar_trigger": false,
      "taf_trigger": false,
      "metar": "METAR LGTS 270650Z VRB03KT 9999 SCT025 08/05 Q1029 NOSIG",
      "taf": "TAF LGTS 270500Z 2706/2806 14010KT 9999 SCT030"
    },
    {
      "icao": "LHBP",
      "alert": "OK",
      "vis_m": 9999,
      "fzfg": false,
      "metar_trigger": false,
      "taf_trigger": false,
      "metar": "METAR LHBP 270700Z VRB01KT CAVOK 01/M02 Q1029 NOSIG",
      "taf": "TAF LHBP 270515Z 2706/2806 VRB03KT CAVOK"
    },
    {
      "icao": "LHDC",
      "alert": "OK",
      "vis_m": 9999,
      "fzfg": false,
      "metar_trigger": false,
      "taf_trigger": false,
      "metar": "METAR LHDC 270645Z AUTO VRB02KT CAVOK M02/M04 Q1029 NOSIG",
      "taf": "TAF LHDC 270515Z 2706/2715 VRB03KT CAVOK"
    },
    {
      "icao": "LIBD",
      "alert": "OK",
      "vis_m": 9999,
      "fzfg": false,
      "metar_trigger": false,
      "taf_trigger": false,
      "metar": "METAR LIBD 270650Z 22004KT CAVOK 08/07 Q1026",
      "taf": "TAF LIBD 270500Z 2706/2806 VRB05KT CAVOK"
    },
    {
      "icao": "LIBG",
      "alert": "OK",
      "vis_m": null,
      "fzfg": false,
      "metar_trigger": false,
      "taf_trigger": false,
      "metar": "",
      "taf": ""
    },
    {
      "icao": "LIBP",
      "alert": "OK",
      "vis_m": 6000,
      "fzfg": false,
      "metar_trigger": false,
      "taf_trigger": false,
      "metar": "METAR LIBP 270650Z AUTO 21003KT 6000 NCD 06/06 Q1027",
      "taf": "TAF LIBP 270500Z 2706/2806 VRB05KT CAVOK"
    },
    {
      "icao": "LIBR",
      "alert": "OK",
      "vis_m": 7000,
      "fzfg": false,
      "metar_trigger": false,
      "taf_trigger": false,
      "metar": "METAR LIBR 270650Z 25005KT 7000 SCT015 10/09 Q1026",
      "taf": "TAF LIBR 270500Z 2706/2806 VRB05KT 9999 SCT010"
    },
    {
      "icao": "LICA",
      "alert": "OK",
      "vis_m": 9999,
      "fzfg": false,
      "metar_trigger": false,
      "taf_trigger": false,
      "metar": "METAR LICA 270650Z AUTO 08005KT 9999 NCD 09/08 Q1027",
      "taf": "TAF LICA 270500Z 2706/2806 VRB05KT 9999 SCT020"
    },
    {
      "icao": "LICC",
      "alert": "OK",
      "vis_m": 7000,
      "fzfg": false,
      "metar_trigger": false,
      "taf_trigger": false,
      "metar": "METAR LICC 270650Z 25005KT 7000 NSC 09/07 Q1027",
      "taf": "TAF LICC 270500Z 2706/2806 VRB05KT 4000 BR FEW020"
    },
    {
      "icao": "LICJ",
      "alert": "OK",
      "vis_m": 9999,
      "fzfg": false,
      "metar_trigger": false,
      "taf_trigger": false,
      "metar": "METAR LICJ 270650Z 15003KT 9999 BKN012 12/10 Q1027",
      "taf": "TAF LICJ 270500Z 2706/2806 VRB05KT CAVOK"
    },
    {
      "icao": "LIMC",
      "alert": "OK",
      "vis_m": 9000,
      "fzfg": false,
      "metar_trigger": false,
      "taf_trigger": false,
      "metar": "METAR LIMC 270650Z 01005KT 9000 BKN030 07/06 Q1026 NOSIG",
      "taf": "TAF LIMC 270500Z 2706/2812 VRB04KT 7000 NSC"
    },
    {
      "icao": "LIME",
      "alert": "OK",
      "vis_m": 8000,
      "fzfg": false,
      "metar_trigger": false,
      "taf_trigger": false,
      "metar": "METAR LIME 270650Z 01004KT 8000 FEW100 07/05 Q1026 NOSIG",
      "taf": "TAF LIME 270500Z 2706/2806 VRB05KT 8000 FEW030"
    },
    {
      "icao": "LIMF",
      "alert": "OK",
      "vis_m": 6000,
      "fzfg": false,
      "metar_trigger": false,
      "taf_trigger": false,
      "metar": "METAR LIMF 270650Z 30004KT 6000 NSC 06/01 Q1026",
      "taf": "TAF LIMF 270500Z 2706/2806 VRB04KT 6000 NSC"
    },
    {
      "icao": "LIMJ",
      "alert": "OK",
      "vis_m": 9999,
      "fzfg": false,
      "metar_trigger": false,
      "taf_trigger": false,
      "metar": "METAR LIMJ 270650Z 08004KT 040V130 9999 FEW010 BKN035 13/11 Q1026",
      "taf": "TAF LIMJ 270500Z 2706/2806 VRB05KT 9999 SCT030"
    },
    {
      "icao": "LIPE",
      "alert": "OK",
      "vis_m": 4000,
      "fzfg": false,
      "metar_trigger": false,
      "taf_trigger": false,
      "metar": "METAR LIPE 270650Z 21004KT 190V260 4000 BR NSC 07/06 Q1026",
      "taf": "TAF LIPE 270500Z 2706/2806 VRB04KT 4000 BR NSC"
    },
    {
      "icao": "LIPH",
      "alert": "OK",
      "vis_m": 50,
      "fzfg": false,
      "metar_trigger": false,
      "taf_trigger": false,
      "metar": "METAR LIPH 270650Z VRB01KT 0050 R07/0225N FG VV001 04/04 Q1026",
      "taf": "TAF LIPH 270500Z 2706/2806 VRB04KT 0100 FG OVC001"
    },
    {
      "icao": "LIPQ",
      "alert": "OK",
      "vis_m": 4400,
      "fzfg": false,
      "metar_trigger": false,
      "taf_trigger": false,
      "metar": "METAR LIPQ 270650Z AUTO 01002KT 4400 BR BKN003/// 04/04 Q1026",
      "taf": "TAF LIPQ 270500Z 2706/2806 VRB04KT 0150 FG OVC001"
    },
    {
      "icao": "LIPR",
      "alert": "OK",
      "vis_m": 2000,
      "fzfg": false,
      "metar_trigger": false,
      "taf_trigger": false,
      "metar": "METAR LIPR 270650Z 22001KT 2000 BR NSC 05/04 Q1026",
      "taf": "TAF LIPR 270500Z 2706/2806 VRB04KT 0300 FG BKN001"
    },
    {
      "icao": "LIPX",
      "alert": "OK",
      "vis_m": 4000,
      "fzfg": false,
      "metar_trigger": false,
      "taf_trigger": false,
      "metar": "METAR LIPX 270650Z VRB02KT 4000 BR NSC 04/03 Q1026",
      "taf": "TAF LIPX 270500Z 2706/2806 VRB05KT 6000 NSC"
    },
    {
      "icao": "LIPY",
      "alert": "OK",
      "vis_m": 3800,
      "fzfg": false,
      "metar_trigger": false,
      "taf_trigger": false,
      "metar": "METAR LIPY 270650Z AUTO 22003KT 3800 BR NCD 06/06 Q1026",
      "taf": "TAF LIPY 270500Z 2706/2806 VRB04KT 7000 NSC"
    },
    {
      "icao": "LIPZ",
      "alert": "OK",
      "vis_m": 50,
      "fzfg": false,
      "metar_trigger": false,
      "taf_trigger": false,
      "metar": "METAR LIPZ 270650Z VRB02KT 0050 R04R/0275N FG VV001 04/04 Q1026 NOSIG",
      "taf": "TAF LIPZ 270500Z 2706/2812 VRB04KT 0100 FG OVC001"
    },
    {
      "icao": "LIRF",
      "alert": "OK",
      "vis_m": 100,
      "fzfg": false,
      "metar_trigger": false,
      "taf_trigger": false,
      "metar": "METAR LIRF 270650Z 07004KT 0100 R16L/0400N R16R/0250N R25/0275N R34R/0275N FG NSC 08/08 Q1027 NOSIG",
      "taf": "TAF LIRF 270500Z 2706/2812 VRB05KT 0300 FG FEW030"
    },
    {
      "icao": "LIRN",
      "alert": "OK",
      "vis_m": 2000,
      "fzfg": false,
      "metar_trigger": false,
      "taf_trigger": false,
      "metar": "METAR LIRN 270650Z 08003KT 050V110 2000 BR FEW020 12/11 Q1027 NOSIG",
      "taf": "TAF LIRN 270500Z 2706/2806 VRB05KT 6000 NSC"
    },
    {
      "icao": "LIRP",
      "alert": "OK",
      "vis_m": 5000,
      "fzfg": false,
      "metar_trigger": false,
      "taf_trigger": false,
      "metar": "METAR LIRP 270645Z VRB02KT 5000 BR BKN020 09/09 Q1027 TEMPO 3000",
      "taf": "TAF LIRP 270500Z 2706/2806 VRB02KT 6000 BKN020"
    },
    {
      "icao": "LIRZ",
      "alert": "OK",
      "vis_m": 9999,
      "fzfg": false,
      "metar_trigger": false,
      "taf_trigger": false,
      "metar": "METAR LIRZ 270650Z AUTO VRB01KT 9999 NCD 05/05 Q1027",
      "taf": "TAF LIRZ 270500Z 2706/2806 VRB05KT 3000 BR NSC"
    },
    {
      "icao": "LJLJ",
      "alert": "OK",
      "vis_m": 9999,
      "fzfg": false,
      "metar_trigger": false,
      "taf_trigger": false,
      "metar": "METAR LJLJ 270700Z 00000KT 9999 MIFG SCT001 M00/M00 Q1026 NOSIG",
      "taf": "TAF LJLJ 270500Z 2706/2806 VRB02KT CAVOK"
    },
    {
      "icao": "LKMT",
      "alert": "OK",
      "vis_m": 9999,
      "fzfg": false,
      "metar_trigger": false,
      "taf_trigger": false,
      "metar": "METAR LKMT 270700Z 23013KT CAVOK 03/M00 Q1025 NOSIG",
      "taf": "TAF LKMT 270500Z 2706/2806 22012KT CAVOK"
    },
    {
      "icao": "LKPR",
      "alert": "OK",
      "vis_m": 300,
      "fzfg": false,
      "metar_trigger": false,
      "taf_trigger": false,
      "metar": "METAR LKPR 270700Z VRB02KT 0300 R24/0700U R30/0275N FG VV001 02/02 Q1024 NOSIG",
      "taf": "TAF LKPR 270500Z 2706/2812 VRB02KT 0300 FG BKN001"
    },
    {
      "icao": "LLBG",
      "alert": "OK",
      "vis_m": 9999,
      "fzfg": false,
      "metar_trigger": false,
      "taf_trigger": false,
      "metar": "METAR LLBG 270650Z VRB01KT 9999 FEW045 14/07 Q1016 NOSIG",
      "taf": "TAF LLBG 270505Z 2706/2806 VRB03KT 9999 SCT035 TX17/2711Z TN06/2804Z"
    },
    {
      "icao": "LMML",
      "alert": "OK",
      "vis_m": 9999,
      "fzfg": false,
      "metar_trigger": false,
      "taf_trigger": false,
      "metar": "METAR LMML 270645Z 24001KT 9999 FEW011 12/12 Q1027 NOSIG",
      "taf": "TAF LMML 270500Z 2706/2806 VRB05KT 9999 FEW015"
    },
    {
      "icao": "LOWW",
      "alert": "OK",
      "vis_m": 9999,
      "fzfg": false,
      "metar_trigger": false,
      "taf_trigger": false,
      "metar": "METAR LOWW 270650Z 16005KT CAVOK 01/M01 Q1027 NOSIG",
      "taf": "TAF LOWW 270515Z 2706/2812 15005KT CAVOK TX12/2812Z TNM00/2706Z"
    },
    {
      "icao": "LPFR",
      "alert": "OK",
      "vis_m": 9999,
      "fzfg": false,
      "metar_trigger": false,
      "taf_trigger": false,
      "metar": "METAR LPFR 270700Z 35003KT 300V030 CAVOK 10/08 Q1023",
      "taf": "TAF LPFR 270500Z 2706/2806 03005KT CAVOK"
    },
    {
      "icao": "LPMA",
      "alert": "OK",
      "vis_m": 9999,
      "fzfg": false,
      "metar_trigger": false,
      "taf_trigger": false,
      "metar": "METAR LPMA 270700Z 35024G34KT 310V020 9999 BKN015 16/10 Q1025",
      "taf": "TAF LPMA 270500Z 2706/2806 01015KT 9999 SCT015"
    },
    {
      "icao": "LPPR",
      "alert": "OK",
      "vis_m": 6000,
      "fzfg": false,
      "metar_trigger": false,
      "taf_trigger": false,
      "metar": "METAR LPPR 270700Z 12008KT 6000 -RA FEW004 SCT011 BKN025 11/10 Q1024",
      "taf": "TAF LPPR 270500Z 2706/2806 14008KT 9999 SCT008 BKN015"
    },
    {
      "icao": "LPPS",
      "alert": "OK",
      "vis_m": 9999,
      "fzfg": false,
      "metar_trigger": false,
      "taf_trigger": false,
      "metar": "METAR LPPS 270700Z 36016KT 9999 BKN013 15/12 Q1026",
      "taf": "TAF LPPS 270500Z 2706/2812 02015KT 9999 SCT015"
    },
    {
      "icao": "LPPT",
      "alert": "OK",
      "vis_m": 9999,
      "fzfg": false,
      "metar_trigger": false,
      "taf_trigger": false,
      "metar": "METAR LPPT 270700Z 32004KT 290V360 9999 FEW010 11/10 Q1024",
      "taf": "TAF LPPT 270500Z 2706/2812 32007KT 9999 FEW012"
    },
    {
      "icao": "LQBK",
      "alert": "OK",
      "vis_m": 9999,
      "fzfg": false,
      "metar_trigger": false,
      "taf_trigger": false,
      "metar": "METAR LQBK 270700Z 15002KT CAVOK 01/00 Q1028 NOSIG",
      "taf": "TAF LQBK 270500Z 2706/2806 17005KT CAVOK TX16/2714Z TNM02/2706Z"
    },
    {
      "icao": "LQSA",
      "alert": "OK",
      "vis_m": 9999,
      "fzfg": false,
      "metar_trigger": false,
      "taf_trigger": false,
      "metar": "METAR LQSA 270700Z 14002KT CAVOK 00/00 Q1028 NOSIG",
      "taf": "TAF LQSA 270500Z 2706/2806 VRB02KT CAVOK TX18/2714Z TNM02/2706Z"
    },
    {
      "icao": "LQTZ",
      "alert": "OK",
      "vis_m": 4000,
      "fzfg": false,
      "metar_trigger": false,
      "taf_trigger": false,
      "metar": "METAR LQTZ 270700Z 00000KT 4000 BR NSC 00/00 Q1028",
      "taf": "TAF LQTZ 270500Z 2706/2806 VRB02KT CAVOK TX16/2714Z TNM03/2706Z"
    },
    {
      "icao": "LRBC",
      "alert": "OK",
      "vis_m": 9999,
      "fzfg": false,
      "metar_trigger": false,
      "taf_trigger": false,
      "metar": "METAR LRBC 270700Z 06003KT 360V100 9999 OVC016 00/M03 Q1031",
      "taf": "TAF LRBC 270500Z 2706/2715 VRB04KT 9999 BKN015"
    },
    {
      "icao": "LRBS",
      "alert": "OK",
      "vis_m": 9999,
      "fzfg": false,
      "metar_trigger": false,
      "taf_trigger": false,
      "metar": "METAR LRBS 270700Z 07006KT CAVOK M01/M02 Q1032 NOSIG",
      "taf": "TAF LRBS 270500Z 2706/2806 VRB04KT CAVOK"
    },
    {
      "icao": "LRBV",
      "alert": "OK",
      "vis_m": 9999,
      "fzfg": false,
      "metar_trigger": false,
      "taf_trigger": false,
      "metar": "METAR LRBV 270700Z 00000KT CAVOK M04/M06 Q1029",
      "taf": "TAF LRBV 270500Z 2706/2715 VRB04KT CAVOK"
    },
    {
      "icao": "LRCL",
      "alert": "OK",
      "vis_m": 9999,
      "fzfg": false,
      "metar_trigger": false,
      "taf_trigger": false,
      "metar": "METAR LRCL 270700Z 00000KT CAVOK M03/M05 Q1029",
      "taf": "TAF LRCL 270500Z 2706/2715 VRB04KT CAVOK"
    },
    {
      "icao": "LRCV",
      "alert": "OK",
      "vis_m": 9999,
      "fzfg": false,
      "metar_trigger": false,
      "taf_trigger": false,
      "metar": "METAR LRCV 270700Z 06005KT 9999 SCT034 M00/M01 Q1030",
      "taf": "TAF LRCV 270500Z 2706/2715 VRB04KT CAVOK"
    },
    {
      "icao": "LRIA",
      "alert": "OK",
      "vis_m": 9999,
      "fzfg": false,
      "metar_trigger": false,
      "taf_trigger": false,
      "metar": "METAR LRIA 270700Z 11005KT 060V140 9999 OVC013 M02/M05 Q1032",
      "taf": "TAF LRIA 270500Z 2706/2715 VRB04KT 9999 BKN010"
    },
    {
      "icao": "LROP",
      "alert": "OK",
      "vis_m": 4000,
      "fzfg": false,
      "metar_trigger": false,
      "taf_trigger": false,
      "metar": "METAR LROP 270700Z 07004KT 4000 HZ NSC M01/M05 Q1032 NOSIG",
      "taf": "TAF LROP 270500Z 2706/2806 VRB04KT 3000 BR NSC"
    },
    {
      "icao": "LRSB",
      "alert": "OK",
      "vis_m": 9999,
      "fzfg": false,
      "metar_trigger": false,
      "taf_trigger": false,
      "metar": "METAR LRSB 270700Z 11005KT CAVOK M01/M03 Q1029",
      "taf": "TAF LRSB 270500Z 2706/2806 VRB04KT CAVOK"
    },
    {
      "icao": "LRSM",
      "alert": "OK",
      "vis_m": 9999,
      "fzfg": false,
      "metar_trigger": false,
      "taf_trigger": false,
      "metar": "METAR LRSM 270700Z 00000KT CAVOK 01/M02 Q1030",
      "taf": "TAF LRSM 270500Z 2706/2715 VRB04KT CAVOK"
    },
    {
      "icao": "LRSV",
      "alert": "OK",
      "vis_m": 8000,
      "fzfg": false,
      "metar_trigger": false,
      "taf_trigger": false,
      "metar": "METAR LRSV 270700Z 15008KT 120V180 8000 BKN005 M02/M03 Q1029",
      "taf": "TAF LRSV 270500Z 2706/2715 VRB04KT 9999 BKN010"
    },
    {
      "icao": "LRTM",
      "alert": "OK",
      "vis_m": 9999,
      "fzfg": false,
      "metar_trigger": false,
      "taf_trigger": false,
      "metar": "METAR LRTM 270700Z COR 07004KT CAVOK M02/M04 Q1030",
      "taf": "TAF LRTM 270500Z 2706/2715 VRB04KT CAVOK"
    },
    {
      "icao": "LRTR",
      "alert": "OK",
      "vis_m": 9999,
      "fzfg": false,
      "metar_trigger": false,
      "taf_trigger": false,
      "metar": "METAR LRTR 270700Z 09003KT CAVOK 01/00 Q1029",
      "taf": "TAF LRTR 270500Z 2706/2806 09006KT CAVOK"
    },
    {
      "icao": "LTAC",
      "alert": "OK",
      "vis_m": 9999,
      "fzfg": false,
      "metar_trigger": false,
      "taf_trigger": false,
      "metar": "METAR LTAC 270650Z 33011KT 310V010 9999 BKN040 02/M07 Q1019 NOSIG RMK RWY21C 30005KT 260V060 RWY03L 33010KT 290V360 RWY21R 29005KT 230V340 RWY03R 30009KT RWY21L 30007KT 260V340",
      "taf": "TAF LTAC 270440Z 2706/2806 VRB02KT 9999 BKN040"
    },
    {
      "icao": "LTFM",
      "alert": "OK",
      "vis_m": 9999,
      "fzfg": false,
      "metar_trigger": false,
      "taf_trigger": false,
      "metar": "METAR LTFM 270650Z 35015KT 9999 -DZ SCT018 BKN026 04/00 Q1029 NOSIG RMK RWY17L 35014KT RWY34L 35013KT RWY16R 35011KT RWY36 36014KT RWY18 36015KT",
      "taf": ""
    },
    {
      "icao": "LUKK",
      "alert": "OK",
      "vis_m": 9999,
      "fzfg": false,
      "metar_trigger": false,
      "taf_trigger": false,
      "metar": "METAR LUKK 270700Z 36007KT 9999 -SN OVC013 M02/M04 Q1032 NOSIG",
      "taf": "TAF LUKK 270520Z 2706/2806 VRB06KT 9999 BKN014"
    },
    {
      "icao": "LWOH",
      "alert": "OK",
      "vis_m": 9999,
      "fzfg": false,
      "metar_trigger": false,
      "taf_trigger": false,
      "metar": "METAR LWOH 270650Z 34003KT 280V020 CAVOK 02/M01 Q1027",
      "taf": "TAF LWOH 270530Z 2706/2806 VRB02KT CAVOK"
    },
    {
      "icao": "LWSK",
      "alert": "OK",
      "vis_m": 9999,
      "fzfg": false,
      "metar_trigger": false,
      "taf_trigger": false,
      "metar": "METAR LWSK 270650Z VRB01KT CAVOK 01/M03 Q1029 NOSIG",
      "taf": "TAF LWSK 270530Z 2706/2806 VRB02KT CAVOK"
    },
    {
      "icao": "LYBE",
      "alert": "OK",
      "vis_m": 9999,
      "fzfg": false,
      "metar_trigger": false,
      "taf_trigger": false,
      "metar": "METAR LYBE 270700Z VRB01KT CAVOK 03/00 Q1028 NOSIG",
      "taf": "TAF LYBE 270500Z 2706/2806 09005KT CAVOK TX14/2713Z TNM00/2706Z"
    },
    {
      "icao": "LYNI",
      "alert": "OK",
      "vis_m": 9999,
      "fzfg": false,
      "metar_trigger": false,
      "taf_trigger": false,
      "metar": "METAR LYNI 270700Z VRB01KT CAVOK 01/M01 Q1029 NOSIG",
      "taf": "TAF LYNI 270500Z 2706/2806 07005KT CAVOK TX14/2714Z TNM01/2706Z"
    },
    {
      "icao": "LYPG",
      "alert": "OK",
      "vis_m": 9999,
      "fzfg": false,
      "metar_trigger": false,
      "taf_trigger": false,
      "metar": "METAR LYPG 270700Z VRB02KT CAVOK 07/01 Q1027 NOSIG",
      "taf": "TAF LYPG 270500Z 2706/2806 16005KT CAVOK TX19/2712Z TN04/2706Z"
    },
    {
      "icao": "LZIB",
      "alert": "OK",
      "vis_m": 9999,
      "fzfg": false,
      "metar_trigger": false,
      "taf_trigger": false,
      "metar": "METAR LZIB 270700Z 03007KT CAVOK 02/M01 Q1027 NOSIG",
      "taf": "TAF LZIB 270515Z 2706/2806 06008KT CAVOK"
    },
    {
      "icao": "LZKZ",
      "alert": "OK",
      "vis_m": 9999,
      "fzfg": false,
      "metar_trigger": false,
      "taf_trigger": false,
      "metar": "METAR LZKZ 270700Z 00000KT CAVOK M00/M03 Q1028 NOSIG",
      "taf": "TAF LZKZ 270515Z 2706/2806 VRB02KT CAVOK"
    },
    {
      "icao": "LZTT",
      "alert": "OK",
      "vis_m": 9999,
      "fzfg": false,
      "metar_trigger": false,
      "taf_trigger": false,
      "metar": "METAR LZTT 270700Z 00000KT CAVOK M02/M04 Q1026 NOSIG",
      "taf": "TAF LZTT 270515Z 2706/2806 20004KT CAVOK"
    },
    {
      "icao": "OEJN",
      "alert": "OK",
      "vis_m": 9999,
      "fzfg": false,
      "metar_trigger": false,
      "taf_trigger": false,
      "metar": "METAR OEJN 270700Z 35005KT 9999 SCT040 26/13 Q1012 NOSIG",
      "taf": "TAF OEJN 270500Z 2706/2812 30016KT 7000 SCT040"
    },
    {
      "icao": "OEMA",
      "alert": "OK",
      "vis_m": 9999,
      "fzfg": false,
      "metar_trigger": false,
      "taf_trigger": false,
      "metar": "METAR OEMA 270700Z VRB02KT CAVOK 23/01 Q1015 NOSIG",
      "taf": "TAF OEMA 270500Z 2706/2812 27010KT 9999 FEW040"
    },
    {
      "icao": "OJAI",
      "alert": "OK",
      "vis_m": 4000,
      "fzfg": false,
      "metar_trigger": false,
      "taf_trigger": false,
      "metar": "METAR OJAI 270700Z 32009KT 4000 HZ FEW020 SCT035 08/04 Q1015 NOSIG",
      "taf": "TAF OJAI 270500Z 2706/2812 28018KT 3000 -RA BLDU SCT025"
    },
    {
      "icao": "OMAA",
      "alert": "OK",
      "vis_m": 9999,
      "fzfg": false,
      "metar_trigger": false,
      "taf_trigger": false,
      "metar": "METAR OMAA 270700Z 28006KT 250V320 CAVOK 23/13 Q1013 NOSIG",
      "taf": "TAF OMAA 270500Z 2706/2812 26007KT 8000 NSC"
    },
    {
      "icao": "OMDB",
      "alert": "OK",
      "vis_m": 9999,
      "fzfg": false,
      "metar_trigger": false,
      "taf_trigger": false,
      "metar": "METAR OMDB 270700Z 27006KT 210V300 CAVOK 24/13 Q1012 NOSIG",
      "taf": "TAF OMDB 270500Z 2706/2812 21008KT 8000 NSC"
    },
    {
      "icao": "UAAA",
      "alert": "OK",
      "vis_m": 5000,
      "fzfg": false,
      "metar_trigger": false,
      "taf_trigger": false,
      "metar": "METAR UAAA 270700Z 04004MPS 5000 BR FU FEW050 BKN100 01/M02 Q1016 NOSIG",
      "taf": "TAF UAAA 270505Z 2706/2806 34003MPS 5000 BR FU SCT050 BKN100 TX02/2708Z TNM10/2802Z"
    },
    {
      "icao": "UBBB",
      "alert": "OK",
      "vis_m": 9999,
      "fzfg": false,
      "metar_trigger": false,
      "taf_trigger": false,
      "metar": "METAR UBBB 270700Z 05016KT 9999 OVC014 06/03 Q1018 NOSIG",
      "taf": "TAF UBBB 270501Z 2706/2806 05014KT 9999 BKN013 OVC025 TX07/2710Z TN04/2801Z"
    },
    {
      "icao": "UDSG",
      "alert": "OK",
      "vis_m": 6000,
      "fzfg": false,
      "metar_trigger": false,
      "taf_trigger": false,
      "metar": "METAR UDSG 270630Z 07023G38KT 6000 DRSN OVC023 M00/M01 Q1004 NOSIG",
      "taf": "TAF UDSG 270458Z 2706/2806 VRB06KT 9999 BKN040"
    },
    {
      "icao": "UDYZ",
      "alert": "OK",
      "vis_m": 7000,
      "fzfg": false,
      "metar_trigger": false,
      "taf_trigger": false,
      "metar": "METAR UDYZ 270700Z 16002KT 7000 -SHRA FEW005 OVC026CB 03/02 Q1005 NOSIG",
      "taf": "TAF UDYZ 270500Z 2706/2806 16006KT 6000 BKN030"
    },
    {
      "icao": "UGKO",
      "alert": "OK",
      "vis_m": 8000,
      "fzfg": false,
      "metar_trigger": false,
      "taf_trigger": false,
      "metar": "METAR UGKO 270700Z 09005KT 8000 -RA SCT011 OVC057 01/01 Q1014 NOSIG",
      "taf": "TAF UGKO 270500Z 2706/2806 08007KT 9999 -RA SCT020 OVC040 TX03/2712Z TN01/2706Z"
    }
  ]
}