{
  "ts_utc": "2025-12-21T20:58:18Z",
  "threshold_m": 150,
  "source": "stations_override.txt (ICAO list) + aviationweather.gov (METAR/TAF raw)",
  "station_count": 114,
  "stations": [
    {
      "icao": "BIKF",
      "alert": "OK",
      "vis_m": 9999,
      "fzfg": false,
      "metar_trigger": false,
      "taf_trigger": false,
      "metar": "METAR BIKF 212030Z 13022KT 9999 BKN017 BKN044 08/06 Q1005",
      "taf": "TAF BIKF 211959Z 2121/2221 13022G32KT 9999 SCT010 BKN020 TX08/2121Z TN03/2221Z"
    },
    {
      "icao": "BKPR",
      "alert": "OK",
      "vis_m": null,
      "fzfg": false,
      "metar_trigger": false,
      "taf_trigger": false,
      "metar": "",
      "taf": "TAF BKPR 211730Z 2118/2218 VRB03KT 3000 BR BKN010"
    },
    {
      "icao": "EBBR",
      "alert": "OK",
      "vis_m": 9999,
      "fzfg": false,
      "metar_trigger": false,
      "taf_trigger": false,
      "metar": "METAR EBBR 212050Z 07003KT 030V100 CAVOK 06/03 Q1007 NOSIG",
      "taf": "TAF EBBR 211700Z 2118/2224 10007KT CAVOK"
    },
    {
      "icao": "EBCI",
      "alert": "OK",
      "vis_m": 9999,
      "fzfg": false,
      "metar_trigger": false,
      "taf_trigger": false,
      "metar": "METAR EBCI 212050Z VRB02KT CAVOK 07/05 Q1006 NOSIG",
      "taf": "TAF EBCI 211700Z 2118/2224 11007KT CAVOK"
    },
    {
      "icao": "EDDB",
      "alert": "OK",
      "vis_m": 8000,
      "fzfg": false,
      "metar_trigger": false,
      "taf_trigger": false,
      "metar": "METAR EDDB 212050Z AUTO 09008KT 8000 OVC004 05/05 Q1019 TEMPO 4000 BR OVC005",
      "taf": "TAF EDDB 211700Z 2118/2218 08010KT 6000 OVC004"
    },
    {
      "icao": "EDDH",
      "alert": "OK",
      "vis_m": 5000,
      "fzfg": false,
      "metar_trigger": false,
      "taf_trigger": false,
      "metar": "METAR EDDH 212050Z AUTO 10012KT 5000 BR OVC002 05/05 Q1017 TEMPO 4000",
      "taf": "TAF EDDH 211700Z 2118/2224 09011KT 8000 OVC004"
    },
    {
      "icao": "EDDK",
      "alert": "OK",
      "vis_m": 9999,
      "fzfg": false,
      "metar_trigger": false,
      "taf_trigger": false,
      "metar": "METAR EDDK 212050Z AUTO 14003KT 050V160 CAVOK 05/02 Q1009 NOSIG",
      "taf": "TAF EDDK 211700Z 2118/2224 11006KT CAVOK"
    },
    {
      "icao": "EDDN",
      "alert": "OK",
      "vis_m": 9999,
      "fzfg": false,
      "metar_trigger": false,
      "taf_trigger": false,
      "metar": "METAR EDDN 212050Z AUTO 10009KT CAVOK 01/M01 Q1012 NOSIG",
      "taf": "TAF EDDN 211700Z 2118/2218 12007KT CAVOK"
    },
    {
      "icao": "EDFH",
      "alert": "OK",
      "vis_m": 9999,
      "fzfg": false,
      "metar_trigger": false,
      "taf_trigger": false,
      "metar": "METAR EDFH 212050Z 13011KT CAVOK 03/00 Q1007",
      "taf": "TAF EDFH 211700Z 2118/2218 12010KT CAVOK"
    },
    {
      "icao": "EDJA",
      "alert": "OK",
      "vis_m": 900,
      "fzfg": true,
      "metar_trigger": false,
      "taf_trigger": false,
      "metar": "METAR EDJA 212050Z 06005KT 040V110 0900 R06/P2000N FZFG BKN002 OVC005 M01/M02 Q1009",
      "taf": "TAF EDJA 211700Z 2118/2203 06004KT 4000 BR OVC002"
    },
    {
      "icao": "EDLW",
      "alert": "OK",
      "vis_m": 9999,
      "fzfg": false,
      "metar_trigger": false,
      "taf_trigger": false,
      "metar": "METAR EDLW 212050Z 04008KT CAVOK 06/04 Q1010",
      "taf": "TAF EDLW 211700Z 2118/2218 07007KT CAVOK"
    },
    {
      "icao": "EDSB",
      "alert": "OK",
      "vis_m": 9000,
      "fzfg": false,
      "metar_trigger": false,
      "taf_trigger": false,
      "metar": "METAR EDSB 212050Z 02003KT 350V070 9000 FEW012 01/M01 Q1008",
      "taf": "TAF EDSB 211700Z 2118/2218 02009KT CAVOK"
    },
    {
      "icao": "EETN",
      "alert": "OK",
      "vis_m": 9999,
      "fzfg": false,
      "metar_trigger": false,
      "taf_trigger": false,
      "metar": "METAR EETN 212050Z 34007KT 9999 BKN013 03/01 Q1016 TEMPO BKN010",
      "taf": "TAF EETN 211730Z 2118/2218 34012KT 9999 SCT015 BKN020"
    },
    {
      "icao": "EFHK",
      "alert": "OK",
      "vis_m": 9999,
      "fzfg": false,
      "metar_trigger": false,
      "taf_trigger": false,
      "metar": "METAR EFHK 212050Z 32010KT 9999 FEW012 BKN013 02/M00 Q1015 NOSIG",
      "taf": "TAF EFHK 212031Z 2121/2221 32009KT 9999 BKN012"
    },
    {
      "icao": "EFTU",
      "alert": "OK",
      "vis_m": 9999,
      "fzfg": false,
      "metar_trigger": false,
      "taf_trigger": false,
      "metar": "METAR EFTU 212050Z AUTO 30005KT CAVOK 01/00 Q1018",
      "taf": "TAF EFTU 212031Z 2121/2221 31008KT CAVOK"
    },
    {
      "icao": "EGGW",
      "alert": "OK",
      "vis_m": 3900,
      "fzfg": false,
      "metar_trigger": false,
      "taf_trigger": false,
      "metar": "METAR EGGW 212050Z AUTO 10009KT 3900 -RADZ OVC003 10/09 Q1006",
      "taf": "TAF EGGW 211659Z 2118/2218 10008KT 9999 BKN005"
    },
    {
      "icao": "EGKK",
      "alert": "OK",
      "vis_m": 9000,
      "fzfg": false,
      "metar_trigger": false,
      "taf_trigger": false,
      "metar": "METAR EGKK 212050Z 07010G20KT 9000 -RA SCT009 BKN014 10/10 Q1004",
      "taf": ""
    },
    {
      "icao": "EHEH",
      "alert": "OK",
      "vis_m": 9999,
      "fzfg": false,
      "metar_trigger": false,
      "taf_trigger": false,
      "metar": "METAR EHEH 212025Z AUTO 06008KT 360V110 9999 OVC310 08/05 Q1008 BLU NOSIG RMK TREND REMOTE BY EHWX",
      "taf": "TAF EHEH 211740Z 2118/2224 09006KT CAVOK"
    },
    {
      "icao": "EKBI",
      "alert": "OK",
      "vis_m": 9999,
      "fzfg": false,
      "metar_trigger": false,
      "taf_trigger": false,
      "metar": "METAR EKBI 212050Z AUTO 09012KT 9999 BKN011/// BKN069/// 05/03 Q1020",
      "taf": "TAF EKBI 212027Z 2121/2221 10012KT 9999 BKN008"
    },
    {
      "icao": "EKCH",
      "alert": "OK",
      "vis_m": 9999,
      "fzfg": false,
      "metar_trigger": false,
      "taf_trigger": false,
      "metar": "METAR EKCH 212050Z AUTO 08009KT 9999 OVC018/// 05/03 Q1023 NOSIG",
      "taf": "TAF EKCH 212027Z 2121/2221 11007KT 9999 BKN016"
    },
    {
      "icao": "ENTO",
      "alert": "OK",
      "vis_m": 9999,
      "fzfg": false,
      "metar_trigger": false,
      "taf_trigger": false,
      "metar": "METAR ENTO 212050Z 36007KT CAVOK M01/M03 Q1024 NOSIG",
      "taf": "TAF ENTO 211700Z 2118/2218 36008KT CAVOK"
    },
    {
      "icao": "EPGD",
      "alert": "OK",
      "vis_m": 9999,
      "fzfg": false,
      "metar_trigger": false,
      "taf_trigger": false,
      "metar": "METAR EPGD 212030Z 29002KT 9999 BKN017 03/01 Q1022",
      "taf": "TAF EPGD 211730Z 2118/2218 28005KT 9999 BKN020"
    },
    {
      "icao": "EPKK",
      "alert": "OK",
      "vis_m": 4500,
      "fzfg": false,
      "metar_trigger": false,
      "taf_trigger": false,
      "metar": "METAR EPKK 212030Z 07006KT 4500 BR OVC003 04/03 Q1020",
      "taf": "TAF EPKK 212030Z 2121/2221 06007KT 5000 -DZ BR OVC003"
    },
    {
      "icao": "EPKT",
      "alert": "OK",
      "vis_m": 5000,
      "fzfg": false,
      "metar_trigger": false,
      "taf_trigger": false,
      "metar": "METAR EPKT 212030Z 08007KT 5000 BR OVC003 04/04 Q1019",
      "taf": "TAF EPKT 211730Z 2118/2218 09007KT 6000 OVC003"
    },
    {
      "icao": "EPWA",
      "alert": "OK",
      "vis_m": 9999,
      "fzfg": false,
      "metar_trigger": false,
      "taf_trigger": false,
      "metar": "METAR EPWA 212030Z 11004KT 060V130 9999 BKN019 03/M01 Q1022 NOSIG",
      "taf": "TAF EPWA 212030Z 2121/2221 VRB03KT 9999 BKN019"
    },
    {
      "icao": "EPWR",
      "alert": "OK",
      "vis_m": 6000,
      "fzfg": false,
      "metar_trigger": false,
      "taf_trigger": false,
      "metar": "METAR EPWR 212030Z 09007KT 6000 OVC003 05/05 Q1019",
      "taf": "TAF EPWR 212030Z 2121/2221 09009KT 6000 OVC004"
    },
    {
      "icao": "ESGG",
      "alert": "OK",
      "vis_m": 300,
      "fzfg": true,
      "metar_trigger": false,
      "taf_trigger": false,
      "metar": "METAR ESGG 212050Z 07004KT 0300 R03/P2000N R21/1000D FZFG VV002 M00/M00 Q1023",
      "taf": ""
    },
    {
      "icao": "ESKN",
      "alert": "OK",
      "vis_m": 9999,
      "fzfg": false,
      "metar_trigger": false,
      "taf_trigger": false,
      "metar": "METAR ESKN 212050Z 29005KT CAVOK M05/M05 Q1023",
      "taf": "TAF ESKN 212030Z 2121/2221 30005KT CAVOK"
    },
    {
      "icao": "ESMX",
      "alert": "OK",
      "vis_m": 300,
      "fzfg": false,
      "metar_trigger": false,
      "taf_trigger": false,
      "metar": "METAR ESMX 212050Z 01004KT 0300 R01/0650U R19/0650N -FZDZ VV002 M01/M01 Q1023",
      "taf": ""
    },
    {
      "icao": "EVRA",
      "alert": "OK",
      "vis_m": 9999,
      "fzfg": false,
      "metar_trigger": false,
      "taf_trigger": false,
      "metar": "METAR EVRA 212050Z 34010KT 9999 SCT014 BKN016 06/03 Q1017 NOSIG",
      "taf": "TAF EVRA 212025Z 2121/2221 30010KT 9999 BKN015"
    },
    {
      "icao": "EYKA",
      "alert": "OK",
      "vis_m": 9999,
      "fzfg": false,
      "metar_trigger": false,
      "taf_trigger": false,
      "metar": "METAR EYKA 212050Z 28007KT 9999 FEW021 OVC028 04/03 Q1019",
      "taf": "TAF EYKA 211700Z 2118/2218 28008KT 8000 OVC025"
    },
    {
      "icao": "EYVI",
      "alert": "OK",
      "vis_m": 9999,
      "fzfg": false,
      "metar_trigger": false,
      "taf_trigger": false,
      "metar": "METAR EYVI 212050Z 30006KT 260V330 9999 -RA BKN011 04/02 Q1017 NOSIG",
      "taf": "TAF EYVI 211700Z 2118/2218 29008KT 8000 SCT010 OVC025"
    },
    {
      "icao": "GCLP",
      "alert": "OK",
      "vis_m": 9999,
      "fzfg": false,
      "metar_trigger": false,
      "taf_trigger": false,
      "metar": "METAR GCLP 212030Z VRB08KT 9999 SCT030 17/12 Q1019 NOSIG",
      "taf": "TAF GCLP 212000Z 2121/2221 34008KT 9999 SCT025 BKN050 TX20/2214Z TN15/2206Z"
    },
    {
      "icao": "GCTS",
      "alert": "OK",
      "vis_m": 9999,
      "fzfg": false,
      "metar_trigger": false,
      "taf_trigger": false,
      "metar": "METAR GCTS 212030Z VRB01KT 9999 FEW030 18/10 Q1020 NOSIG",
      "taf": "TAF GCTS 212000Z 2121/2221 19005KT 9999 SCT035 TX24/2214Z TN16/2206Z"
    },
    {
      "icao": "HECA",
      "alert": "OK",
      "vis_m": 6000,
      "fzfg": false,
      "metar_trigger": false,
      "taf_trigger": false,
      "metar": "METAR HECA 212030Z 15009KT 6000 NSC 17/02 Q1013 NOSIG",
      "taf": "TAF HECA 211700Z 2118/2224 19008KT CAVOK"
    },
    {
      "icao": "HEGN",
      "alert": "OK",
      "vis_m": 9999,
      "fzfg": false,
      "metar_trigger": false,
      "taf_trigger": false,
      "metar": "METAR HEGN 212000Z 20003KT CAVOK 18/10 Q1014 NOSIG",
      "taf": "TAF HEGN 211700Z 2118/2224 24008KT CAVOK"
    },
    {
      "icao": "HESH",
      "alert": "OK",
      "vis_m": 9999,
      "fzfg": false,
      "metar_trigger": false,
      "taf_trigger": false,
      "metar": "METAR HESH 212000Z 30003KT CAVOK 18/11 Q1014 NOSIG",
      "taf": "TAF HESH 211700Z 2118/2224 29008KT CAVOK"
    },
    {
      "icao": "HESX",
      "alert": "OK",
      "vis_m": 9999,
      "fzfg": false,
      "metar_trigger": false,
      "taf_trigger": false,
      "metar": "METAR HESX 212000Z 16004KT CAVOK 14/04 Q1013 NOSIG",
      "taf": "TAF HESX 211700Z 2118/2224 20008KT CAVOK"
    },
    {
      "icao": "LATI",
      "alert": "OK",
      "vis_m": 8000,
      "fzfg": false,
      "metar_trigger": false,
      "taf_trigger": false,
      "metar": "METAR LATI 212050Z 17004KT 8000 NSC 05/02 Q1016 NOSIG",
      "taf": "TAF LATI 211700Z 2118/2218 VRB05KT CAVOK TX17/2212Z TN01/2205Z"
    },
    {
      "icao": "LBSF",
      "alert": "OK",
      "vis_m": 9999,
      "fzfg": false,
      "metar_trigger": false,
      "taf_trigger": false,
      "metar": "METAR LBSF 212030Z AUTO 21003KT 9999 NCD 00/M01 Q1019 NOSIG",
      "taf": "TAF LBSF 211700Z 2118/2218 VRB04KT 8000 SCT030"
    },
    {
      "icao": "LBWN",
      "alert": "OK",
      "vis_m": 9999,
      "fzfg": false,
      "metar_trigger": false,
      "taf_trigger": false,
      "metar": "METAR LBWN 212030Z AUTO 35005KT 310V030 9999 FEW017/// SCT029/// OVC033/// 07/06 Q1020 NOSIG",
      "taf": "TAF LBWN 211700Z 2118/2218 35008KT 7000 BKN010 OVC030"
    },
    {
      "icao": "LCLK",
      "alert": "OK",
      "vis_m": 9999,
      "fzfg": false,
      "metar_trigger": false,
      "taf_trigger": false,
      "metar": "METAR LCLK 212030Z 32008KT 9999 FEW003 SCT040 16/13 Q1014 NOSIG",
      "taf": "TAF LCLK 211730Z 2118/2218 01009KT 9999 FEW020 SCT030"
    },
    {
      "icao": "LDDU",
      "alert": "OK",
      "vis_m": 9999,
      "fzfg": false,
      "metar_trigger": false,
      "taf_trigger": false,
      "metar": "METAR LDDU 212030Z 06004KT CAVOK 08/06 Q1015 NOSIG",
      "taf": "TAF LDDU 211725Z 2118/2218 VRB02KT CAVOK TX15/2211Z TN08/2203Z"
    },
    {
      "icao": "LDSP",
      "alert": "OK",
      "vis_m": 9999,
      "fzfg": false,
      "metar_trigger": false,
      "taf_trigger": false,
      "metar": "METAR LDSP 212030Z 35004KT CAVOK 09/06 Q1015 NOSIG",
      "taf": "TAF LDSP 211725Z 2118/2218 VRB02KT CAVOK TX16/2212Z TN07/2205Z"
    },
    {
      "icao": "LDZA",
      "alert": "OK",
      "vis_m": 7000,
      "fzfg": false,
      "metar_trigger": false,
      "taf_trigger": false,
      "metar": "METAR LDZA 212030Z 05004KT 020V080 7000 OVC015 04/03 Q1020 TEMPO 3000 BR OVC012",
      "taf": "TAF LDZA 211725Z 2118/2218 VRB02KT 6000 OVC015 TX06/2213Z TN03/2118Z"
    },
    {
      "icao": "LEAL",
      "alert": "OK",
      "vis_m": 9999,
      "fzfg": false,
      "metar_trigger": false,
      "taf_trigger": false,
      "metar": "METAR LEAL 212030Z VRB01KT 9999 -RA FEW026 BKN053 10/08 Q1006 NOSIG",
      "taf": "TAF LEAL 211700Z 2118/2218 25008KT 9999 FEW020 BKN040 TX13/2213Z TN07/2207Z"
    },
    {
      "icao": "LEBL",
      "alert": "OK",
      "vis_m": 9999,
      "fzfg": false,
      "metar_trigger": false,
      "taf_trigger": false,
      "metar": "METAR LEBL 212030Z 34005KT 290V010 9999 FEW033 12/10 Q1004 NOSIG",
      "taf": "TAF LEBL 211700Z 2118/2218 VRB04KT 9999 SCT040 TX14/2118Z TN09/2206Z"
    },
    {
      "icao": "LECH",
      "alert": "OK",
      "vis_m": 9999,
      "fzfg": false,
      "metar_trigger": false,
      "taf_trigger": false,
      "metar": "METAR LECH 212030Z AUTO 16003KT CAVOK 08/02 Q1004",
      "taf": ""
    },
    {
      "icao": "LEMD",
      "alert": "OK",
      "vis_m": 9999,
      "fzfg": false,
      "metar_trigger": false,
      "taf_trigger": false,
      "metar": "METAR LEMD 212030Z VRB02KT CAVOK 02/00 Q1005 NOSIG",
      "taf": "TAF LEMD 211700Z 2118/2224 VRB04KT 9999 SCT030 TX07/2215Z TNM01/2207Z"
    },
    {
      "icao": "LEMG",
      "alert": "OK",
      "vis_m": 9999,
      "fzfg": false,
      "metar_trigger": false,
      "taf_trigger": false,
      "metar": "METAR LEMG 212030Z 28007KT 9999 FEW070 09/06 Q1008 NOSIG",
      "taf": "TAF LEMG 211700Z 2118/2218 30008KT 9999 FEW012 SCT060 TX14/2214Z TN07/2206Z"
    },
    {
      "icao": "LERS",
      "alert": "OK",
      "vis_m": 9999,
      "fzfg": false,
      "metar_trigger": false,
      "taf_trigger": false,
      "metar": "METAR LERS 212030Z 03007KT 9999 FEW020 10/08 Q1003",
      "taf": "TAF LERS 212000Z 2121/2221 VRB04KT 9999 SCT025 TX12/2213Z TN06/2206Z"
    },
    {
      "icao": "LEVC",
      "alert": "OK",
      "vis_m": 9999,
      "fzfg": false,
      "metar_trigger": false,
      "taf_trigger": false,
      "metar": "METAR LEVC 212030Z 24004KT 200V270 CAVOK 10/04 Q1005 NOSIG",
      "taf": "TAF LEVC 211700Z 2118/2218 27008KT 9999 FEW040 TX12/2213Z TN05/2207Z"
    },
    {
      "icao": "LFLL",
      "alert": "OK",
      "vis_m": 9000,
      "fzfg": false,
      "metar_trigger": false,
      "taf_trigger": false,
      "metar": "METAR LFLL 212030Z 13010KT 9000 -RA NSC 09/07 Q1006 TEMPO 4500 -RA",
      "taf": "TAF LFLL 211700Z 2118/2224 12006KT CAVOK"
    },
    {
      "icao": "LFMN",
      "alert": "OK",
      "vis_m": 9999,
      "fzfg": false,
      "metar_trigger": false,
      "taf_trigger": false,
      "metar": "METAR LFMN 212030Z 09023KT 9999 -RA BKN058 15/08 Q1011 NOSIG",
      "taf": "TAF LFMN 212000Z 2121/2303 08015KT 9999 BKN040"
    },
    {
      "icao": "LFOB",
      "alert": "OK",
      "vis_m": 9999,
      "fzfg": false,
      "metar_trigger": false,
      "taf_trigger": false,
      "metar": "METAR LFOB 212030Z AUTO 10011KT 9999 -RA NSC 10/09 Q1005 NOSIG",
      "taf": ""
    },
    {
      "icao": "LFPO",
      "alert": "OK",
      "vis_m": 9999,
      "fzfg": false,
      "metar_trigger": false,
      "taf_trigger": false,
      "metar": "METAR LFPO 212030Z AUTO 08012KT 9999 FEW048 OVC062 10/09 Q1003 TEMPO 4500 -RA",
      "taf": "TAF LFPO 211700Z 2118/2224 11010KT 9999 NSC"
    },
    {
      "icao": "LFSB",
      "alert": "OK",
      "vis_m": 9999,
      "fzfg": false,
      "metar_trigger": false,
      "taf_trigger": false,
      "metar": "METAR LFSB 212030Z AUTO 10010KT CAVOK 03/01 Q1008 TEMPO 34004KT 3000 BR BKN003",
      "taf": "TAF LFSB 211710Z 2118/2218 VRB03KT 8000 SCT006"
    },
    {
      "icao": "LGAV",
      "alert": "OK",
      "vis_m": 9999,
      "fzfg": false,
      "metar_trigger": false,
      "taf_trigger": false,
      "metar": "METAR LGAV 212050Z 36007KT 9999 SCT035 13/08 Q1016 NOSIG",
      "taf": "TAF LGAV 211700Z 2118/2218 36010KT 9999 SCT025 SCT070"
    },
    {
      "icao": "LGIR",
      "alert": "OK",
      "vis_m": 9999,
      "fzfg": false,
      "metar_trigger": false,
      "taf_trigger": false,
      "metar": "METAR LGIR 212050Z 18006KT 9999 FEW020 12/10 Q1014 NOSIG",
      "taf": "TAF LGIR 211700Z 2118/2218 VRB05KT 9999 SCT020 SCT080"
    },
    {
      "icao": "LGKR",
      "alert": "OK",
      "vis_m": 9999,
      "fzfg": false,
      "metar_trigger": false,
      "taf_trigger": false,
      "metar": "METAR LGKR 212050Z 00000KT 9999 FEW010 09/08 Q1014 NOSIG",
      "taf": "TAF LGKR 211700Z 2118/2218 VRB03KT 9999 FEW010 SCT020"
    },
    {
      "icao": "LGRP",
      "alert": "OK",
      "vis_m": 9999,
      "fzfg": false,
      "metar_trigger": false,
      "taf_trigger": false,
      "metar": "METAR LGRP 212050Z 11004KT 040V160 9999 FEW012 SCT020 17/12 Q1013 NOSIG",
      "taf": "TAF LGRP 211700Z 2118/2218 14010KT 9999 FEW012 BKN020"
    },
    {
      "icao": "LGTS",
      "alert": "OK",
      "vis_m": 9000,
      "fzfg": false,
      "metar_trigger": false,
      "taf_trigger": false,
      "metar": "METAR LGTS 212050Z 11005KT 9000 FEW012 06/06 Q1018 NOSIG",
      "taf": "TAF LGTS 211700Z 2118/2218 VRB03KT 9999 FEW025"
    },
    {
      "icao": "LGZA",
      "alert": "OK",
      "vis_m": null,
      "fzfg": false,
      "metar_trigger": false,
      "taf_trigger": false,
      "metar": "",
      "taf": "TAF LGZA 212000Z 2121/2206 08010KT 9000 FEW020 BKN080"
    },
    {
      "icao": "LHBP",
      "alert": "OK",
      "vis_m": 7000,
      "fzfg": false,
      "metar_trigger": false,
      "taf_trigger": false,
      "metar": "METAR LHBP 212030Z VRB02KT 7000 -DZ OVC004 04/03 Q1021 NOSIG",
      "taf": "TAF LHBP 211715Z 2118/2218 10005KT 6000 OVC006"
    },
    {
      "icao": "LHDC",
      "alert": "OK",
      "vis_m": 3300,
      "fzfg": false,
      "metar_trigger": false,
      "taf_trigger": false,
      "metar": "METAR LHDC 212015Z AUTO 31001KT 3300 BR BKN011 BKN062 03/03 Q1021 NOSIG",
      "taf": ""
    },
    {
      "icao": "LIBD",
      "alert": "OK",
      "vis_m": 9000,
      "fzfg": false,
      "metar_trigger": false,
      "taf_trigger": false,
      "metar": "METAR LIBD 212050Z 23005KT 9000 NSC 07/07 Q1015",
      "taf": "TAF LIBD 211700Z 2118/2218 VRB05KT 9999 FEW030"
    },
    {
      "icao": "LICC",
      "alert": "OK",
      "vis_m": 9999,
      "fzfg": false,
      "metar_trigger": false,
      "taf_trigger": false,
      "metar": "METAR LICC 212050Z 04012KT 9999 RA BKN070 14/13 Q1011",
      "taf": "TAF LICC 211700Z 2118/2218 07012KT 8000 RA BKN040"
    },
    {
      "icao": "LICJ",
      "alert": "OK",
      "vis_m": 9999,
      "fzfg": false,
      "metar_trigger": false,
      "taf_trigger": false,
      "metar": "METAR LICJ 212050Z 13002KT 9999 FEW045 14/12 Q1009",
      "taf": "TAF LICJ 211700Z 2118/2218 20010KT 9999 SCT040"
    },
    {
      "icao": "LIEO",
      "alert": "OK",
      "vis_m": 9999,
      "fzfg": false,
      "metar_trigger": false,
      "taf_trigger": false,
      "metar": "METAR LIEO 212050Z 24004KT 9999 FEW050 12/12 Q1010",
      "taf": "TAF LIEO 211700Z 2118/2218 VRB05KT 8000 BKN020"
    },
    {
      "icao": "LIMC",
      "alert": "OK",
      "vis_m": 9999,
      "fzfg": false,
      "metar_trigger": false,
      "taf_trigger": false,
      "metar": "METAR LIMC 212050Z 01005KT 9999 BKN035 08/06 Q1016 NOSIG",
      "taf": "TAF LIMC 211700Z 2118/2224 VRB03KT 8000 BKN040"
    },
    {
      "icao": "LIME",
      "alert": "OK",
      "vis_m": 9999,
      "fzfg": false,
      "metar_trigger": false,
      "taf_trigger": false,
      "metar": "METAR LIME 212050Z VRB02KT 9999 BKN035 08/05 Q1016 NOSIG",
      "taf": "TAF LIME 211700Z 2118/2218 VRB03KT 8000 SCT030"
    },
    {
      "icao": "LIPH",
      "alert": "OK",
      "vis_m": 9999,
      "fzfg": false,
      "metar_trigger": false,
      "taf_trigger": false,
      "metar": "METAR LIPH 212050Z 02005KT CAVOK 06/03 Q1016",
      "taf": "TAF LIPH 211700Z 2118/2218 VRB04KT 9999 FEW030"
    },
    {
      "icao": "LIPQ",
      "alert": "OK",
      "vis_m": 9999,
      "fzfg": false,
      "metar_trigger": false,
      "taf_trigger": false,
      "metar": "METAR LIPQ 212050Z AUTO VRB02KT 9999 NCD 03/02 Q1016",
      "taf": "TAF LIPQ 211700Z 2118/2218 12007KT CAVOK"
    },
    {
      "icao": "LIPX",
      "alert": "OK",
      "vis_m": 9999,
      "fzfg": false,
      "metar_trigger": false,
      "taf_trigger": false,
      "metar": "METAR LIPX 212050Z 32004KT 9999 FEW040 04/02 Q1016",
      "taf": "TAF LIPX 211700Z 2118/2218 VRB03KT 8000 NSC"
    },
    {
      "icao": "LIPY",
      "alert": "OK",
      "vis_m": 2900,
      "fzfg": false,
      "metar_trigger": false,
      "taf_trigger": false,
      "metar": "METAR LIPY 212050Z AUTO 17002KT 2900 BR OVC074/// 10/09 Q1015",
      "taf": "TAF LIPY 211700Z 2118/2218 VRB05KT 3000 BR BKN010"
    },
    {
      "icao": "LIPZ",
      "alert": "OK",
      "vis_m": 9999,
      "fzfg": false,
      "metar_trigger": false,
      "taf_trigger": false,
      "metar": "METAR LIPZ 212050Z 03007KT CAVOK 06/03 Q1016 NOSIG",
      "taf": "TAF LIPZ 211700Z 2118/2224 03005KT 9999 FEW030"
    },
    {
      "icao": "LIRA",
      "alert": "OK",
      "vis_m": 9999,
      "fzfg": false,
      "metar_trigger": false,
      "taf_trigger": false,
      "metar": "METAR LIRA 212050Z VRB02KT CAVOK 09/07 Q1012",
      "taf": "TAF LIRA 211700Z 2118/2218 04005KT 9999 FEW060"
    },
    {
      "icao": "LIRN",
      "alert": "OK",
      "vis_m": 9999,
      "fzfg": false,
      "metar_trigger": false,
      "taf_trigger": false,
      "metar": "METAR LIRN 212050Z VRB06KT 9999 FEW080 13/07 Q1012 NOSIG",
      "taf": "TAF LIRN 211700Z 2118/2218 05006KT 9999 SCT060"
    },
    {
      "icao": "LLBG",
      "alert": "OK",
      "vis_m": 9999,
      "fzfg": false,
      "metar_trigger": false,
      "taf_trigger": false,
      "metar": "METAR LLBG 212050Z VRB02KT CAVOK 14/06 Q1014 NOSIG",
      "taf": "TAF LLBG 211716Z 2118/2218 VRB03KT CAVOK"
    },
    {
      "icao": "LMML",
      "alert": "OK",
      "vis_m": 9999,
      "fzfg": false,
      "metar_trigger": false,
      "taf_trigger": false,
      "metar": "METAR LMML 212045Z 15004KT 9999 -RA FEW017 SCT049 14/13 Q1010 NOSIG",
      "taf": "TAF LMML 211700Z 2118/2218 VRB05KT 9999 SCT020"
    },
    {
      "icao": "LOWW",
      "alert": "OK",
      "vis_m": 6000,
      "fzfg": false,
      "metar_trigger": false,
      "taf_trigger": false,
      "metar": "METAR LOWW 212050Z 13012KT 6000 FEW001 BKN002 02/02 Q1019 TEMPO 4000 BR",
      "taf": "TAF LOWW 212015Z 2121/2303 14013KT 6000 OVC003 TX04/2213Z TN03/2121Z"
    },
    {
      "icao": "LPFR",
      "alert": "OK",
      "vis_m": 9999,
      "fzfg": false,
      "metar_trigger": false,
      "taf_trigger": false,
      "metar": "METAR LPFR 212030Z 28011KT 9999 FEW015 11/05 Q1010",
      "taf": "TAF LPFR 211700Z 2118/2218 31010KT 9999 FEW015 SCT030"
    },
    {
      "icao": "LPPR",
      "alert": "OK",
      "vis_m": 9999,
      "fzfg": false,
      "metar_trigger": false,
      "taf_trigger": false,
      "metar": "METAR LPPR 212030Z 16010KT 9999 FEW022 SCT028 BKN036 07/05 Q1008",
      "taf": "TAF LPPR 211700Z 2118/2218 15007KT 9999 FEW012 SCT035"
    },
    {
      "icao": "LPPT",
      "alert": "OK",
      "vis_m": 9999,
      "fzfg": false,
      "metar_trigger": false,
      "taf_trigger": false,
      "metar": "METAR LPPT 212030Z 24007KT 9999 FEW015 FEW020TCU 07/06 Q1010",
      "taf": "TAF LPPT 211700Z 2118/2224 29007KT 9999 SCT035"
    },
    {
      "icao": "LQSA",
      "alert": "OK",
      "vis_m": 9999,
      "fzfg": false,
      "metar_trigger": false,
      "taf_trigger": false,
      "metar": "METAR LQSA 212030Z 11003KT 9999 BKN012 OVC025 02/01 Q1018 NOSIG",
      "taf": ""
    },
    {
      "icao": "LQTZ",
      "alert": "OK",
      "vis_m": 6000,
      "fzfg": false,
      "metar_trigger": false,
      "taf_trigger": false,
      "metar": "METAR LQTZ 212030Z 11002KT 6000 OVC015 05/05 Q1019",
      "taf": "TAF LQTZ 211700Z 2118/2218 VRB02KT 7000 OVC015 TX05/2213Z TN02/2205Z"
    },
    {
      "icao": "LRCL",
      "alert": "OK",
      "vis_m": 5000,
      "fzfg": false,
      "metar_trigger": false,
      "taf_trigger": false,
      "metar": "METAR LRCL 212030Z 00000KT 5000 BR BKN006 OVC025 05/04 Q1020",
      "taf": "TAF LRCL 212000Z 2121/2206 VRB04KT 5000 BR BKN010 OVC030"
    },
    {
      "icao": "LRCV",
      "alert": "OK",
      "vis_m": 2000,
      "fzfg": false,
      "metar_trigger": false,
      "taf_trigger": false,
      "metar": "METAR LRCV 212030Z VRB01KT 2000 0800W R26/P2000 BR BCFG OVC006 05/04 Q1021",
      "taf": "TAF LRCV 212000Z 2121/2206 VRB04KT 1500 BR OVC005"
    },
    {
      "icao": "LRIA",
      "alert": "OK",
      "vis_m": 3200,
      "fzfg": false,
      "metar_trigger": false,
      "taf_trigger": false,
      "metar": "METAR LRIA 212030Z 32005KT 290V350 3200 BR OVC002 01/01 Q1022",
      "taf": "TAF LRIA 212000Z 2121/2206 30005KT 5000 BR OVC002"
    },
    {
      "icao": "LROP",
      "alert": "OK",
      "vis_m": 6000,
      "fzfg": false,
      "metar_trigger": false,
      "taf_trigger": false,
      "metar": "METAR LROP 212030Z 32003KT 260V360 6000 OVC015 06/05 Q1021 NOSIG",
      "taf": "TAF LROP 211700Z 2118/2218 VRB04KT 5000 BR SCT005 OVC015"
    },
    {
      "icao": "LRSB",
      "alert": "OK",
      "vis_m": 150,
      "fzfg": true,
      "metar_trigger": false,
      "taf_trigger": false,
      "metar": "METAR LRSB 212030Z 22002KT 0150 R27/0400N FZFG BKN002 M01/M01 Q1020 NOSIG",
      "taf": ""
    },
    {
      "icao": "LRTR",
      "alert": "OK",
      "vis_m": 3000,
      "fzfg": false,
      "metar_trigger": false,
      "taf_trigger": false,
      "metar": "METAR LRTR 212030Z 03004KT 3000 BR OVC003 04/04 Q1021 BECMG 1500 BR OVC002",
      "taf": "TAF LRTR 211700Z 2118/2218 VRB04KT 5000 BR OVC005"
    },
    {
      "icao": "LTAF",
      "alert": "OK",
      "vis_m": 9999,
      "fzfg": false,
      "metar_trigger": false,
      "taf_trigger": false,
      "metar": "METAR LTAF 212020Z 02007KT CAVOK 11/02 Q1017 NOSIG RMK RWY23 03006KT 4CI200",
      "taf": "TAF LTAF 211640Z 2118/2218 03009KT CAVOK"
    },
    {
      "icao": "LTAI",
      "alert": "OK",
      "vis_m": 9999,
      "fzfg": false,
      "metar_trigger": false,
      "taf_trigger": false,
      "metar": "METAR LTAI 212020Z 34007KT 9999 SCT030 BKN080 13/08 Q1015 NOSIG RMK RWY18C 33006KT RWY36R 34007KT RWY18L 33003KT",
      "taf": "TAF LTAI 211640Z 2118/2218 34009KT 9999 SCT030 BKN100"
    },
    {
      "icao": "LTFM",
      "alert": "OK",
      "vis_m": 4000,
      "fzfg": false,
      "metar_trigger": false,
      "taf_trigger": false,
      "metar": "METAR LTFM 212020Z COR 36009KT 310V070 4000 +SHRA BKN006 BKN022 11/10 Q1017 BECMG TL2050 9999 NSW RMK RWY17L 04008KT 340V060 RWY34L 03009KT 350V050 RWY16R 01004KT 280V080 RWY36 VRB04KT RWY18 09009KT",
      "taf": "TAF LTFM 211640Z 2118/2224 05008KT 9999 SCT015 BKN028"
    },
    {
      "icao": "LUBL",
      "alert": "OK",
      "vis_m": null,
      "fzfg": false,
      "metar_trigger": false,
      "taf_trigger": false,
      "metar": "",
      "taf": ""
    },
    {
      "icao": "LUKK",
      "alert": "OK",
      "vis_m": 8000,
      "fzfg": false,
      "metar_trigger": false,
      "taf_trigger": false,
      "metar": "METAR LUKK 212030Z 35007KT 320V040 8000 -DZ OVC003 01/01 Q1021 NOSIG",
      "taf": "TAF LUKK 211722Z 2118/2218 VRB04KT 3000 BR OVC003"
    },
    {
      "icao": "LWSK",
      "alert": "OK",
      "vis_m": 800,
      "fzfg": false,
      "metar_trigger": false,
      "taf_trigger": false,
      "metar": "METAR LWSK 212050Z VRB01KT 0800 R34/1300N FG VV002 02/01 Q1020 NOSIG",
      "taf": "TAF LWSK 212040Z 2121/2221 VRB02KT 0600 FG VV002"
    },
    {
      "icao": "LYBE",
      "alert": "OK",
      "vis_m": 2000,
      "fzfg": false,
      "metar_trigger": false,
      "taf_trigger": false,
      "metar": "METAR LYBE 212030Z 00000KT 2000 BR OVC002 04/04 Q1021 TEMPO 1000",
      "taf": "TAF LYBE 211700Z 2118/2218 07006KT 5000 BR OVC005 TX08/2213Z TN02/2206Z"
    },
    {
      "icao": "LZIB",
      "alert": "OK",
      "vis_m": 3200,
      "fzfg": false,
      "metar_trigger": false,
      "taf_trigger": false,
      "metar": "METAR LZIB 212030Z 11005KT 3200 -DZ BR BKN002 OVC003 03/03 Q1020 TEMPO 2500 BR",
      "taf": "TAF LZIB 211715Z 2118/2218 12004KT 6000 OVC005"
    },
    {
      "icao": "LZKZ",
      "alert": "OK",
      "vis_m": 6000,
      "fzfg": false,
      "metar_trigger": false,
      "taf_trigger": false,
      "metar": "METAR LZKZ 212030Z 00000KT 6000 SCT011 OVC031 04/04 Q1020 NOSIG",
      "taf": ""
    },
    {
      "icao": "LZTT",
      "alert": "OK",
      "vis_m": 350,
      "fzfg": false,
      "metar_trigger": false,
      "taf_trigger": false,
      "metar": "METAR LZTT 212030Z 28003KT 0350 R27/1800D FG OVC002 01/01 Q1019",
      "taf": ""
    },
    {
      "icao": "OEJN",
      "alert": "OK",
      "vis_m": 9999,
      "fzfg": false,
      "metar_trigger": false,
      "taf_trigger": false,
      "metar": "METAR OEJN 212000Z 05003KT CAVOK 25/19 Q1012 NOSIG",
      "taf": "TAF OEJN 211700Z 2118/2224 VRB03KT 9999 FEW040"
    },
    {
      "icao": "OEMA",
      "alert": "OK",
      "vis_m": 9999,
      "fzfg": false,
      "metar_trigger": false,
      "taf_trigger": false,
      "metar": "METAR OEMA 212000Z 33005KT CAVOK 16/M04 Q1018 NOSIG",
      "taf": "TAF OEMA 211700Z 2118/2224 07006KT CAVOK"
    },
    {
      "icao": "OERK",
      "alert": "OK",
      "vis_m": 9999,
      "fzfg": false,
      "metar_trigger": false,
      "taf_trigger": false,
      "metar": "METAR OERK 212000Z 11002KT CAVOK 08/04 Q1022 NOSIG",
      "taf": "TAF OERK 211700Z 2118/2224 10005KT 7000 NSC"
    },
    {
      "icao": "OJAI",
      "alert": "OK",
      "vis_m": 5000,
      "fzfg": false,
      "metar_trigger": false,
      "taf_trigger": false,
      "metar": "METAR OJAI 212000Z 06007KT 5000 HZ NSC 08/02 Q1017 NOSIG",
      "taf": "TAF OJAI 211700Z 2118/2224 12010KT 5000 HZ NSC"
    },
    {
      "icao": "OKBK",
      "alert": "OK",
      "vis_m": null,
      "fzfg": false,
      "metar_trigger": false,
      "taf_trigger": false,
      "metar": "",
      "taf": ""
    },
    {
      "icao": "OMAA",
      "alert": "OK",
      "vis_m": 9999,
      "fzfg": false,
      "metar_trigger": false,
      "taf_trigger": false,
      "metar": "METAR OMAA 212000Z 01004KT 360V060 CAVOK 19/12 Q1019 NOSIG",
      "taf": "TAF OMAA 211700Z 2118/2300 05005KT 8000 NSC"
    },
    {
      "icao": "UAAA",
      "alert": "OK",
      "vis_m": 500,
      "fzfg": true,
      "metar_trigger": false,
      "taf_trigger": false,
      "metar": "SPECI UAAA 212054Z 35002MPS 0500 R23L/1400 FZFG BKN001 OVC020 M02/M03 Q1030 NOSIG RMK QBB050",
      "taf": "TAF UAAA 211702Z 2118/2218 16003MPS 1100 BR FU BKN004 OVC011 TXM00/2207Z TNM06/2201Z"
    },
    {
      "icao": "UCFM",
      "alert": "CRITICAL",
      "vis_m": 50,
      "fzfg": true,
      "metar_trigger": true,
      "taf_trigger": false,
      "metar": "METAR UCFM 212030Z VRB01MPS 0050 R25/0150N FZFG VV001 M03/M03 Q1030 NOSIG",
      "taf": "TAF UCFM 211655Z 2118/2218 12003MPS 0300 FZFG VV001"
    },
    {
      "icao": "UDYZ",
      "alert": "OK",
      "vis_m": 3000,
      "fzfg": false,
      "metar_trigger": false,
      "taf_trigger": false,
      "metar": "METAR UDYZ 212030Z 01002KT 3000 BR NSC M02/M05 Q1023 NOSIG",
      "taf": "TAF UDYZ 211700Z 2118/2218 VRB04KT 3000 BR FEW040"
    },
    {
      "icao": "UGTB",
      "alert": "OK",
      "vis_m": 8000,
      "fzfg": false,
      "metar_trigger": false,
      "taf_trigger": false,
      "metar": "METAR UGTB 212030Z 00000KT 8000 OVC024 02/M00 Q1023 NOSIG",
      "taf": "TAF UGTB 211700Z 2118/2218 VRB02KT 5000 OVC024 TX09/2212Z TNM02/2203Z"
    },
    {
      "icao": "UKKK",
      "alert": "OK",
      "vis_m": null,
      "fzfg": false,
      "metar_trigger": false,
      "taf_trigger": false,
      "metar": "",
      "taf": ""
    },
    {
      "icao": "UTTT",
      "alert": "OK",
      "vis_m": null,
      "fzfg": false,
      "metar_trigger": false,
      "taf_trigger": false,
      "metar": "",
      "taf": ""
    }
  ]
}