{
  "ts_utc": "2026-05-25T04:55:41Z",
  "threshold_m": 150,
  "source": "stations_override.txt (ICAO list) + aviationweather.gov (METAR/TAF raw)",
  "station_count": 159,
  "stations": [
    {
      "icao": "BIKF",
      "alert": "OK",
      "vis_m": 9999,
      "fzfg": false,
      "metar_trigger": false,
      "taf_trigger": false,
      "metar": "METAR BIKF 250430Z 13007KT 9999 FEW018 SCT042 06/05 Q1004",
      "taf": "TAF BIKF 250436Z 2506/2606 10010KT 9999 -SHRA SCT015TCU BKN025 TX10/2516Z TN06/2506Z"
    },
    {
      "icao": "BKPR",
      "alert": "OK",
      "vis_m": 9999,
      "fzfg": false,
      "metar_trigger": false,
      "taf_trigger": false,
      "metar": "METAR BKPR 250430Z 05001KT CAVOK 12/10 Q1027 NOSIG",
      "taf": "TAF BKPR 242330Z 2500/2524 02006KT 9999 SCT080"
    },
    {
      "icao": "EBCI",
      "alert": "OK",
      "vis_m": 9999,
      "fzfg": false,
      "metar_trigger": false,
      "taf_trigger": false,
      "metar": "METAR EBCI 250420Z VRB01KT CAVOK 16/12 Q1031 NOSIG",
      "taf": "TAF EBCI 242300Z 2500/2606 13003KT CAVOK"
    },
    {
      "icao": "EDDB",
      "alert": "OK",
      "vis_m": 9999,
      "fzfg": false,
      "metar_trigger": false,
      "taf_trigger": false,
      "metar": "METAR EDDB 250450Z AUTO 25003KT CAVOK 15/11 Q1032 NOSIG",
      "taf": "TAF EDDB 242300Z 2500/2524 29005KT CAVOK"
    },
    {
      "icao": "EDDH",
      "alert": "OK",
      "vis_m": 9999,
      "fzfg": false,
      "metar_trigger": false,
      "taf_trigger": false,
      "metar": "METAR EDDH 250450Z AUTO VRB02KT CAVOK 13/12 Q1032 NOSIG",
      "taf": "TAF EDDH 242300Z 2500/2606 30003KT CAVOK"
    },
    {
      "icao": "EDDK",
      "alert": "OK",
      "vis_m": 9999,
      "fzfg": false,
      "metar_trigger": false,
      "taf_trigger": false,
      "metar": "METAR EDDK 250450Z AUTO VRB01KT CAVOK 13/11 Q1032 NOSIG",
      "taf": "TAF EDDK 242300Z 2500/2606 VRB03KT CAVOK"
    },
    {
      "icao": "EDDN",
      "alert": "OK",
      "vis_m": 9999,
      "fzfg": false,
      "metar_trigger": false,
      "taf_trigger": false,
      "metar": "METAR EDDN 250450Z AUTO VRB02KT CAVOK 16/12 Q1031 NOSIG",
      "taf": "TAF EDDN 242300Z 2500/2524 VRB03KT CAVOK"
    },
    {
      "icao": "EDDS",
      "alert": "OK",
      "vis_m": 9999,
      "fzfg": false,
      "metar_trigger": false,
      "taf_trigger": false,
      "metar": "METAR EDDS 250450Z AUTO 29001KT CAVOK 17/14 Q1031 NOSIG",
      "taf": "TAF EDDS 242300Z 2500/2524 VRB02KT CAVOK"
    },
    {
      "icao": "EDFH",
      "alert": "OK",
      "vis_m": 9999,
      "fzfg": false,
      "metar_trigger": false,
      "taf_trigger": false,
      "metar": "METAR EDFH 250420Z 11006KT CAVOK 16/11 Q1032",
      "taf": "TAF EDFH 242300Z 2500/2524 10004KT CAVOK"
    },
    {
      "icao": "EDJA",
      "alert": "OK",
      "vis_m": 9999,
      "fzfg": false,
      "metar_trigger": false,
      "taf_trigger": false,
      "metar": "METAR EDJA 250420Z 00000KT CAVOK 12/11 Q1031",
      "taf": "TAF EDJA 250200Z 2503/2512 VRB03KT CAVOK"
    },
    {
      "icao": "EDLW",
      "alert": "OK",
      "vis_m": 9999,
      "fzfg": false,
      "metar_trigger": false,
      "taf_trigger": false,
      "metar": "METAR EDLW 250420Z 10004KT CAVOK 14/11 Q1032",
      "taf": "TAF EDLW 250330Z 2504/2524 VRB03KT CAVOK"
    },
    {
      "icao": "EDNY",
      "alert": "OK",
      "vis_m": 9999,
      "fzfg": false,
      "metar_trigger": false,
      "taf_trigger": false,
      "metar": "METAR EDNY 250420Z AUTO 04004KT 9999 NCD 17/12 Q1030",
      "taf": "TAF EDNY 250200Z 2503/2512 05005KT CAVOK"
    },
    {
      "icao": "EDSB",
      "alert": "OK",
      "vis_m": 9999,
      "fzfg": false,
      "metar_trigger": false,
      "taf_trigger": false,
      "metar": "METAR EDSB 250420Z 03006KT CAVOK 16/13 Q1030",
      "taf": "TAF EDSB 242300Z 2500/2524 02005KT CAVOK"
    },
    {
      "icao": "EETN",
      "alert": "OK",
      "vis_m": 9999,
      "fzfg": false,
      "metar_trigger": false,
      "taf_trigger": false,
      "metar": "METAR EETN 250450Z 27006KT CAVOK 14/10 Q1015 NOSIG",
      "taf": "TAF EETN 242330Z 2500/2524 26010KT CAVOK"
    },
    {
      "icao": "EFTU",
      "alert": "OK",
      "vis_m": 9999,
      "fzfg": false,
      "metar_trigger": false,
      "taf_trigger": false,
      "metar": "METAR EFTU 250450Z AUTO 33007KT 290V010 CAVOK 11/05 Q1016",
      "taf": "TAF EFTU 250224Z 2503/2603 32008KT CAVOK"
    },
    {
      "icao": "EGBB",
      "alert": "OK",
      "vis_m": 9999,
      "fzfg": false,
      "metar_trigger": false,
      "taf_trigger": false,
      "metar": "METAR EGBB 250450Z VRB01KT CAVOK 12/11 Q1030",
      "taf": "TAF EGBB 242300Z 2500/2524 VRB02KT CAVOK"
    },
    {
      "icao": "EGGP",
      "alert": "OK",
      "vis_m": 9999,
      "fzfg": false,
      "metar_trigger": false,
      "taf_trigger": false,
      "metar": "METAR EGGP 250450Z 05003KT CAVOK 13/11 Q1030",
      "taf": "TAF EGGP 242301Z 2500/2524 17005KT CAVOK"
    },
    {
      "icao": "EGGW",
      "alert": "OK",
      "vis_m": 9999,
      "fzfg": false,
      "metar_trigger": false,
      "taf_trigger": false,
      "metar": "METAR EGGW 250450Z AUTO 16003KT 9999 NCD 15/13 Q1031",
      "taf": "TAF EGGW 242257Z 2500/2524 12005KT CAVOK"
    },
    {
      "icao": "EGKK",
      "alert": "OK",
      "vis_m": 9999,
      "fzfg": false,
      "metar_trigger": false,
      "taf_trigger": false,
      "metar": "METAR EGKK 250450Z 06002KT CAVOK 15/14 Q1030",
      "taf": "TAF EGKK 242254Z 2500/2606 VRB03KT CAVOK"
    },
    {
      "icao": "EGNM",
      "alert": "OK",
      "vis_m": 9999,
      "fzfg": false,
      "metar_trigger": false,
      "taf_trigger": false,
      "metar": "METAR EGNM 250450Z 24004KT CAVOK 14/09 Q1030",
      "taf": "TAF EGNM 242300Z 2500/2524 19006KT CAVOK"
    },
    {
      "icao": "EGPD",
      "alert": "OK",
      "vis_m": 9999,
      "fzfg": false,
      "metar_trigger": false,
      "taf_trigger": false,
      "metar": "METAR EGPD 250450Z COR AUTO 22005KT 9999 NCD 15/10 Q1026 NOSIG",
      "taf": "TAF EGPD 242256Z 2500/2524 17005KT 9999 FEW040"
    },
    {
      "icao": "EGPF",
      "alert": "OK",
      "vis_m": 9999,
      "fzfg": false,
      "metar_trigger": false,
      "taf_trigger": false,
      "metar": "METAR EGPF 250450Z AUTO VRB02KT 9999 NCD 08/08 Q1029",
      "taf": "TAF EGPF 242257Z 2500/2524 20005KT 9999 SCT030"
    },
    {
      "icao": "EHBK",
      "alert": "OK",
      "vis_m": 9999,
      "fzfg": false,
      "metar_trigger": false,
      "taf_trigger": false,
      "metar": "METAR EHBK 250425Z AUTO VRB01KT 9999 NSC 15/11 Q1031 NOSIG",
      "taf": "TAF EHBK 242306Z 2500/2606 06005KT CAVOK"
    },
    {
      "icao": "EHEH",
      "alert": "OK",
      "vis_m": 9999,
      "fzfg": false,
      "metar_trigger": false,
      "taf_trigger": false,
      "metar": "METAR EHEH 250425Z AUTO 03002KT 9999 ////// 11/11 Q1031 BLU",
      "taf": "TAF EHEH 242351Z 2500/2606 VRB02KT CAVOK"
    },
    {
      "icao": "EKBI",
      "alert": "OK",
      "vis_m": 9999,
      "fzfg": false,
      "metar_trigger": false,
      "taf_trigger": false,
      "metar": "METAR EKBI 250450Z AUTO 24003KT 9999 NCD 11/11 Q1031",
      "taf": "TAF EKBI 250227Z 2503/2603 28006KT 1200 BR BKN002"
    },
    {
      "icao": "EKCH",
      "alert": "OK",
      "vis_m": 9999,
      "fzfg": false,
      "metar_trigger": false,
      "taf_trigger": false,
      "metar": "METAR EKCH 250450Z AUTO 28008KT 9999 NCD 15/11 Q1030 NOSIG",
      "taf": "TAF EKCH 250227Z 2503/2603 28010KT CAVOK"
    },
    {
      "icao": "ENAL",
      "alert": "OK",
      "vis_m": 9999,
      "fzfg": false,
      "metar_trigger": false,
      "taf_trigger": false,
      "metar": "METAR ENAL 250420Z 22010KT 9999 -RA SCT031 BKN040 10/06 Q1023",
      "taf": "TAF ENAL 250200Z 2503/2512 22012KT 9999 FEW030 BKN060"
    },
    {
      "icao": "ENBR",
      "alert": "OK",
      "vis_m": 9999,
      "fzfg": false,
      "metar_trigger": false,
      "taf_trigger": false,
      "metar": "METAR ENBR 250420Z 15007KT 9999 FEW006 SCT011 BKN018 09/09 Q1025 TEMPO 4000 RADZ BR BKN006 RMK WIND 1200FT 16015KT",
      "taf": ""
    },
    {
      "icao": "ENGM",
      "alert": "OK",
      "vis_m": 9999,
      "fzfg": false,
      "metar_trigger": false,
      "taf_trigger": false,
      "metar": "METAR ENGM 250420Z 25004KT 210V290 CAVOK 13/04 Q1023 NOSIG",
      "taf": "TAF ENGM 242300Z 2500/2524 24008KT CAVOK"
    },
    {
      "icao": "ENHD",
      "alert": "OK",
      "vis_m": 5000,
      "fzfg": false,
      "metar_trigger": false,
      "taf_trigger": false,
      "metar": "METAR ENHD 250420Z 11007KT 5000 -DZ BR OVC027 11/10 Q1026",
      "taf": "TAF ENHD 250200Z 2503/2512 16008KT 9999 FEW010 BKN030"
    },
    {
      "icao": "ENTC",
      "alert": "OK",
      "vis_m": 9999,
      "fzfg": false,
      "metar_trigger": false,
      "taf_trigger": false,
      "metar": "METAR ENTC 250420Z 18010KT 9999 -RA BKN013 OVC018 08/07 Q1007 RMK WIND 2600FT 19008KT",
      "taf": "TAF ENTC 242300Z 2500/2524 02008KT 9999 -RA SCT015 BKN018"
    },
    {
      "icao": "ENTO",
      "alert": "OK",
      "vis_m": 9999,
      "fzfg": false,
      "metar_trigger": false,
      "taf_trigger": false,
      "metar": "METAR ENTO 250420Z 24008KT CAVOK 14/08 Q1025 NOSIG",
      "taf": "TAF ENTO 242300Z 2500/2524 26008KT CAVOK"
    },
    {
      "icao": "ENVA",
      "alert": "OK",
      "vis_m": 9999,
      "fzfg": false,
      "metar_trigger": false,
      "taf_trigger": false,
      "metar": "METAR ENVA 250420Z 24009KT 9999 SCT025 BKN040 10/06 Q1022 NOSIG RMK WIND 670FT 26011KT",
      "taf": "TAF ENVA 242300Z 2500/2524 25012KT 9999 SCT025 BKN040"
    },
    {
      "icao": "ENZV",
      "alert": "OK",
      "vis_m": 9999,
      "fzfg": false,
      "metar_trigger": false,
      "taf_trigger": false,
      "metar": "METAR ENZV 250420Z 16003KT 9999 BKN044 12/10 Q1027 NOSIG",
      "taf": ""
    },
    {
      "icao": "EPGD",
      "alert": "OK",
      "vis_m": 9999,
      "fzfg": false,
      "metar_trigger": false,
      "taf_trigger": false,
      "metar": "METAR EPGD 250430Z 28011KT CAVOK 13/09 Q1028",
      "taf": "TAF EPGD 242330Z 2500/2524 29008KT CAVOK"
    },
    {
      "icao": "EPKK",
      "alert": "OK",
      "vis_m": 9999,
      "fzfg": false,
      "metar_trigger": false,
      "taf_trigger": false,
      "metar": "METAR EPKK 250430Z 28004KT CAVOK 16/11 Q1029",
      "taf": "TAF EPKK 250230Z 2503/2603 23004KT CAVOK"
    },
    {
      "icao": "EPKT",
      "alert": "OK",
      "vis_m": 9999,
      "fzfg": false,
      "metar_trigger": false,
      "taf_trigger": false,
      "metar": "METAR EPKT 250430Z 31004KT CAVOK 13/09 Q1030",
      "taf": ""
    },
    {
      "icao": "EPLB",
      "alert": "OK",
      "vis_m": 9999,
      "fzfg": false,
      "metar_trigger": false,
      "taf_trigger": false,
      "metar": "METAR EPLB 250430Z 31006KT CAVOK 13/09 Q1027",
      "taf": "TAF EPLB 242330Z 2500/2524 33008KT CAVOK"
    },
    {
      "icao": "EPMO",
      "alert": "OK",
      "vis_m": 9999,
      "fzfg": false,
      "metar_trigger": false,
      "taf_trigger": false,
      "metar": "METAR EPMO 250430Z 29006KT CAVOK 14/10 Q1027",
      "taf": "TAF EPMO 242330Z 2500/2524 36005KT CAVOK"
    },
    {
      "icao": "EPPO",
      "alert": "OK",
      "vis_m": 9999,
      "fzfg": false,
      "metar_trigger": false,
      "taf_trigger": false,
      "metar": "METAR EPPO 250430Z 31007KT CAVOK 13/10 Q1031",
      "taf": "TAF EPPO 242330Z 2500/2524 30008KT CAVOK"
    },
    {
      "icao": "EPRA",
      "alert": "OK",
      "vis_m": 9999,
      "fzfg": false,
      "metar_trigger": false,
      "taf_trigger": false,
      "metar": "METAR EPRA 250430Z 32006KT CAVOK 14/09 Q1028",
      "taf": "TAF EPRA 250230Z 2503/2512 31006KT CAVOK"
    },
    {
      "icao": "EPRZ",
      "alert": "OK",
      "vis_m": 9999,
      "fzfg": false,
      "metar_trigger": false,
      "taf_trigger": false,
      "metar": "METAR EPRZ 250430Z 32006KT 9999 FEW033 17/14 Q1026",
      "taf": "TAF EPRZ 242330Z 2500/2524 26005KT CAVOK"
    },
    {
      "icao": "EPSC",
      "alert": "OK",
      "vis_m": 9999,
      "fzfg": false,
      "metar_trigger": false,
      "taf_trigger": false,
      "metar": "METAR EPSC 250430Z VRB02KT CAVOK 12/11 Q1031",
      "taf": "TAF EPSC 242330Z 2500/2524 29005KT CAVOK"
    },
    {
      "icao": "EPSY",
      "alert": "OK",
      "vis_m": 9999,
      "fzfg": false,
      "metar_trigger": false,
      "taf_trigger": false,
      "metar": "METAR EPSY 250430Z 27004KT 220V300 CAVOK 12/09 Q1026",
      "taf": "TAF EPSY 250230Z 2503/2512 29008KT CAVOK"
    },
    {
      "icao": "EPWA",
      "alert": "OK",
      "vis_m": 9999,
      "fzfg": false,
      "metar_trigger": false,
      "taf_trigger": false,
      "metar": "METAR EPWA 250430Z 30010KT CAVOK 14/09 Q1027 NOSIG",
      "taf": "TAF EPWA 250230Z 2503/2603 35005KT CAVOK"
    },
    {
      "icao": "EPWR",
      "alert": "OK",
      "vis_m": 9999,
      "fzfg": false,
      "metar_trigger": false,
      "taf_trigger": false,
      "metar": "METAR EPWR 250430Z 28008KT CAVOK 14/10 Q1031",
      "taf": "TAF EPWR 250230Z 2503/2603 30008KT CAVOK"
    },
    {
      "icao": "ESGG",
      "alert": "OK",
      "vis_m": 9999,
      "fzfg": false,
      "metar_trigger": false,
      "taf_trigger": false,
      "metar": "METAR ESGG 250450Z 25007KT CAVOK 12/10 Q1027",
      "taf": "TAF ESGG 250230Z 2503/2603 27010KT CAVOK"
    },
    {
      "icao": "ESKN",
      "alert": "OK",
      "vis_m": 9999,
      "fzfg": false,
      "metar_trigger": false,
      "taf_trigger": false,
      "metar": "METAR ESKN 250450Z 28011KT CAVOK 15/10 Q1021",
      "taf": "TAF ESKN 250230Z 2503/2603 26010KT CAVOK"
    },
    {
      "icao": "ESMS",
      "alert": "OK",
      "vis_m": 9999,
      "fzfg": false,
      "metar_trigger": false,
      "taf_trigger": false,
      "metar": "METAR ESMS 250450Z 31006KT CAVOK 14/12 Q1029",
      "taf": "TAF ESMS 250227Z 2503/2603 28010KT CAVOK"
    },
    {
      "icao": "ESSA",
      "alert": "OK",
      "vis_m": 9999,
      "fzfg": false,
      "metar_trigger": false,
      "taf_trigger": false,
      "metar": "METAR ESSA 250450Z 36007KT 9999 BKN048 12/05 Q1021 NOSIG",
      "taf": "TAF ESSA 250230Z 2503/2603 27010KT CAVOK"
    },
    {
      "icao": "EYKA",
      "alert": "OK",
      "vis_m": 9999,
      "fzfg": false,
      "metar_trigger": false,
      "taf_trigger": false,
      "metar": "METAR EYKA 250450Z 27006KT CAVOK 12/10 Q1023",
      "taf": "TAF EYKA 242300Z 2500/2524 28008KT 9000 NSC"
    },
    {
      "icao": "EYPA",
      "alert": "OK",
      "vis_m": 9999,
      "fzfg": false,
      "metar_trigger": false,
      "taf_trigger": false,
      "metar": "METAR EYPA 250450Z VRB02KT CAVOK 14/11 Q1023",
      "taf": "TAF EYPA 242300Z 2500/2524 VRB03KT 9000 NSC"
    },
    {
      "icao": "EYVI",
      "alert": "OK",
      "vis_m": 9999,
      "fzfg": false,
      "metar_trigger": false,
      "taf_trigger": false,
      "metar": "METAR EYVI 250450Z 30004KT 260V350 CAVOK 12/10 Q1023 NOSIG",
      "taf": "TAF EYVI 242300Z 2500/2524 28008KT 9000 NSC"
    },
    {
      "icao": "GCFV",
      "alert": "OK",
      "vis_m": 9000,
      "fzfg": false,
      "metar_trigger": false,
      "taf_trigger": false,
      "metar": "METAR GCFV 250430Z AUTO 36004KT 9000 NSC 19/17 Q1016",
      "taf": "TAF GCFV 250200Z 2503/2603 32009KT 9999 FEW010 TX32/2514Z TN22/2506Z"
    },
    {
      "icao": "GCLP",
      "alert": "OK",
      "vis_m": 9999,
      "fzfg": false,
      "metar_trigger": false,
      "taf_trigger": false,
      "metar": "METAR GCLP 250430Z 01011KT 9999 FEW025 19/17 Q1016 NOSIG",
      "taf": "TAF GCLP 250200Z 2503/2603 02017KT 9999 FEW020 TX29/2514Z TN20/2506Z"
    },
    {
      "icao": "GCTS",
      "alert": "OK",
      "vis_m": 9999,
      "fzfg": false,
      "metar_trigger": false,
      "taf_trigger": false,
      "metar": "METAR GCTS 250430Z 06005KT 020V110 9999 FEW015 20/17 Q1018 NOSIG",
      "taf": "TAF GCTS 250200Z 2503/2603 03005KT 9999 FEW015 TX29/2514Z TN21/2506Z"
    },
    {
      "icao": "GMAD",
      "alert": "OK",
      "vis_m": 9999,
      "fzfg": false,
      "metar_trigger": false,
      "taf_trigger": false,
      "metar": "METAR GMAD 250430Z 05004KT CAVOK 19/13 Q1014 NOSIG",
      "taf": "TAF GMAD 242300Z 2500/2606 08006KT 6000 SCT010 SCT016"
    },
    {
      "icao": "GMMN",
      "alert": "OK",
      "vis_m": 9999,
      "fzfg": false,
      "metar_trigger": false,
      "taf_trigger": false,
      "metar": "METAR GMMN 250430Z VRB02KT CAVOK 19/12 Q1017 NOSIG",
      "taf": "TAF GMMN 242300Z 2500/2606 13002KT CAVOK"
    },
    {
      "icao": "GMMX",
      "alert": "OK",
      "vis_m": 8000,
      "fzfg": false,
      "metar_trigger": false,
      "taf_trigger": false,
      "metar": "METAR GMMX 250430Z 11005KT 8000 SCT030 23/09 Q1018 NOSIG",
      "taf": "TAF GMMX 242300Z 2500/2606 06006KT 8000 SCT030"
    },
    {
      "icao": "HEGN",
      "alert": "OK",
      "vis_m": 9999,
      "fzfg": false,
      "metar_trigger": false,
      "taf_trigger": false,
      "metar": "METAR HEGN 250400Z 30017KT CAVOK 27/12 Q1015 NOSIG",
      "taf": ""
    },
    {
      "icao": "HEMA",
      "alert": "OK",
      "vis_m": 9999,
      "fzfg": false,
      "metar_trigger": false,
      "taf_trigger": false,
      "metar": "METAR HEMA 250400Z 32016KT CAVOK 27/09 Q1013 NOSIG",
      "taf": ""
    },
    {
      "icao": "HESH",
      "alert": "OK",
      "vis_m": 9999,
      "fzfg": false,
      "metar_trigger": false,
      "taf_trigger": false,
      "metar": "METAR HESH 250400Z 35016KT CAVOK 26/11 Q1013 NOSIG",
      "taf": ""
    },
    {
      "icao": "HESX",
      "alert": "OK",
      "vis_m": 9999,
      "fzfg": false,
      "metar_trigger": false,
      "taf_trigger": false,
      "metar": "METAR HESX 250400Z 01005KT CAVOK 17/12 Q1017 NOSIG",
      "taf": ""
    },
    {
      "icao": "LATI",
      "alert": "OK",
      "vis_m": 9999,
      "fzfg": false,
      "metar_trigger": false,
      "taf_trigger": false,
      "metar": "METAR LATI 250450Z VRB02KT CAVOK 17/13 Q1024 NOSIG",
      "taf": "TAF LATI 242300Z 2500/2524 VRB05KT CAVOK TX31/2512Z TN14/2504Z"
    },
    {
      "icao": "LBPD",
      "alert": "OK",
      "vis_m": 9999,
      "fzfg": false,
      "metar_trigger": false,
      "taf_trigger": false,
      "metar": "METAR LBPD 250430Z AUTO 00000KT 9999 FEW098/// 15/15 Q1024 NOSIG",
      "taf": "TAF LBPD 242300Z 2500/2524 VRB03KT 9999 SCT035 BKN050"
    },
    {
      "icao": "LBSF",
      "alert": "OK",
      "vis_m": 8000,
      "fzfg": false,
      "metar_trigger": false,
      "taf_trigger": false,
      "metar": "METAR LBSF 250430Z VRB01KT 8000 FEW010 BKN069 14/12 Q1026 TEMPO 5000 BR SCT008",
      "taf": "TAF LBSF 242300Z 2500/2524 VRB03KT 9999 SCT040"
    },
    {
      "icao": "LBWN",
      "alert": "OK",
      "vis_m": 9999,
      "fzfg": false,
      "metar_trigger": false,
      "taf_trigger": false,
      "metar": "METAR LBWN 250430Z AUTO VRB02KT 9999 NCD 18/11 Q1022 NOSIG",
      "taf": "TAF LBWN 242300Z 2500/2524 36012KT 9999 SCT040"
    },
    {
      "icao": "LCLK",
      "alert": "OK",
      "vis_m": 9999,
      "fzfg": false,
      "metar_trigger": false,
      "taf_trigger": false,
      "metar": "METAR LCLK 250430Z 28003KT 250V320 9999 FEW030 21/18 Q1017 NOSIG",
      "taf": "TAF LCLK 242330Z 2500/2600 09007KT 9999 FEW020 SCT050"
    },
    {
      "icao": "LCPH",
      "alert": "OK",
      "vis_m": 9999,
      "fzfg": false,
      "metar_trigger": false,
      "taf_trigger": false,
      "metar": "METAR LCPH 250430Z 02004KT 010V080 9999 FEW025 20/14 Q1017 NOSIG",
      "taf": "TAF LCPH 242330Z 2500/2600 05007KT 9999 SCT015"
    },
    {
      "icao": "LEAL",
      "alert": "OK",
      "vis_m": 9999,
      "fzfg": false,
      "metar_trigger": false,
      "taf_trigger": false,
      "metar": "METAR LEAL 250430Z 33004KT 290V040 CAVOK 20/11 Q1026 NOSIG",
      "taf": "TAF LEAL 242300Z 2500/2524 VRB04KT CAVOK TX28/2512Z TN15/2505Z"
    },
    {
      "icao": "LEBB",
      "alert": "OK",
      "vis_m": 9999,
      "fzfg": false,
      "metar_trigger": false,
      "taf_trigger": false,
      "metar": "METAR LEBB 250430Z 05007KT 010V070 CAVOK 26/05 Q1023 NOSIG",
      "taf": "TAF LEBB 242300Z 2500/2524 13009KT CAVOK TX35/2514Z TN18/2505Z"
    },
    {
      "icao": "LEBL",
      "alert": "OK",
      "vis_m": 9999,
      "fzfg": false,
      "metar_trigger": false,
      "taf_trigger": false,
      "metar": "METAR LEBL 250430Z 34006KT CAVOK 19/12 Q1026 NOSIG",
      "taf": "TAF LEBL 242300Z 2500/2524 VRB03KT CAVOK TX26/2512Z TN18/2505Z"
    },
    {
      "icao": "LECH",
      "alert": "OK",
      "vis_m": 9999,
      "fzfg": false,
      "metar_trigger": false,
      "taf_trigger": false,
      "metar": "METAR LECH 250430Z AUTO 00000KT CAVOK 13/09 Q1028",
      "taf": "TAF LECH 242300Z 2500/2524 VRB04KT CAVOK TX31/2513Z TN13/2505Z"
    },
    {
      "icao": "LEMD",
      "alert": "OK",
      "vis_m": 9999,
      "fzfg": false,
      "metar_trigger": false,
      "taf_trigger": false,
      "metar": "METAR LEMD 250430Z 34003KT 290V010 CAVOK 14/08 Q1027 NOSIG",
      "taf": "TAF LEMD 242300Z 2500/2606 VRB04KT CAVOK TX33/2516Z TN14/2505Z"
    },
    {
      "icao": "LEMG",
      "alert": "OK",
      "vis_m": 9999,
      "fzfg": false,
      "metar_trigger": false,
      "taf_trigger": false,
      "metar": "METAR LEMG 250430Z 28007KT CAVOK 16/09 Q1025 NOSIG",
      "taf": "TAF LEMG 242300Z 2500/2524 29005KT CAVOK TX27/2514Z TN15/2506Z"
    },
    {
      "icao": "LEVC",
      "alert": "OK",
      "vis_m": 9999,
      "fzfg": false,
      "metar_trigger": false,
      "taf_trigger": false,
      "metar": "METAR LEVC 250430Z 30003KT CAVOK 14/10 Q1026 NOSIG",
      "taf": "TAF LEVC 242300Z 2500/2524 VRB04KT CAVOK TX29/2512Z TN16/2505Z"
    },
    {
      "icao": "LEXJ",
      "alert": "OK",
      "vis_m": 9999,
      "fzfg": false,
      "metar_trigger": false,
      "taf_trigger": false,
      "metar": "METAR LEXJ 250430Z 00000KT 9999 4200NE NSC 17/17 Q1021",
      "taf": "TAF LEXJ 250200Z 2503/2603 18005KT CAVOK TX34/2515Z TN17/2504Z"
    },
    {
      "icao": "LEZG",
      "alert": "OK",
      "vis_m": 9999,
      "fzfg": false,
      "metar_trigger": false,
      "taf_trigger": false,
      "metar": "METAR LEZG 250430Z VRB01KT CAVOK 16/09 Q1027 NOSIG",
      "taf": "TAF LEZG 242300Z 2500/2524 11007KT CAVOK TX34/2515Z TN18/2505Z"
    },
    {
      "icao": "LEZL",
      "alert": "OK",
      "vis_m": 9999,
      "fzfg": false,
      "metar_trigger": false,
      "taf_trigger": false,
      "metar": "METAR LEZL 250430Z 06007KT CAVOK 22/08 Q1020 NOSIG",
      "taf": "TAF LEZL 250200Z 2503/2603 04010KT CAVOK TX36/2515Z TN19/2506Z"
    },
    {
      "icao": "LFBD",
      "alert": "OK",
      "vis_m": 9999,
      "fzfg": false,
      "metar_trigger": false,
      "taf_trigger": false,
      "metar": "METAR LFBD 250430Z AUTO 15003KT CAVOK 20/15 Q1025 NOSIG",
      "taf": "TAF LFBD 242300Z 2500/2606 11005KT CAVOK TX36/2515Z TN20/2605Z"
    },
    {
      "icao": "LFLL",
      "alert": "OK",
      "vis_m": 9999,
      "fzfg": false,
      "metar_trigger": false,
      "taf_trigger": false,
      "metar": "METAR LFLL 250430Z 15001KT CAVOK 19/16 Q1028 NOSIG",
      "taf": "TAF LFLL 242300Z 2500/2606 18004KT CAVOK"
    },
    {
      "icao": "LFLS",
      "alert": "OK",
      "vis_m": 9999,
      "fzfg": false,
      "metar_trigger": false,
      "taf_trigger": false,
      "metar": "METAR LFLS 250430Z AUTO 09007KT CAVOK 15/14 Q1029 NOSIG",
      "taf": "TAF LFLS 250200Z 2503/2603 09007KT CAVOK"
    },
    {
      "icao": "LFMN",
      "alert": "OK",
      "vis_m": 9999,
      "fzfg": false,
      "metar_trigger": false,
      "taf_trigger": false,
      "metar": "METAR LFMN 250430Z 34009KT CAVOK 22/11 Q1027 NOSIG",
      "taf": "TAF LFMN 250200Z 2503/2609 33010KT CAVOK"
    },
    {
      "icao": "LFOB",
      "alert": "OK",
      "vis_m": 9999,
      "fzfg": false,
      "metar_trigger": false,
      "taf_trigger": false,
      "metar": "METAR LFOB 250430Z AUTO 28003KT CAVOK 14/14 Q1030 NOSIG",
      "taf": "TAF LFOB 242300Z 2500/2524 06005KT CAVOK"
    },
    {
      "icao": "LFPO",
      "alert": "OK",
      "vis_m": 9999,
      "fzfg": false,
      "metar_trigger": false,
      "taf_trigger": false,
      "metar": "METAR LFPO 250430Z AUTO 02005KT 350V050 CAVOK 20/16 Q1029 NOSIG",
      "taf": "TAF LFPO 242300Z 2500/2606 04006KT CAVOK"
    },
    {
      "icao": "LFSB",
      "alert": "OK",
      "vis_m": 9999,
      "fzfg": false,
      "metar_trigger": false,
      "taf_trigger": false,
      "metar": "METAR LFSB 250430Z AUTO VRB01KT CAVOK 14/13 Q1030 NOSIG",
      "taf": "TAF LFSB 242300Z 2500/2524 VRB03KT CAVOK"
    },
    {
      "icao": "LGAV",
      "alert": "OK",
      "vis_m": 9999,
      "fzfg": false,
      "metar_trigger": false,
      "taf_trigger": false,
      "metar": "METAR LGAV 250420Z 01006KT 340V060 9999 FEW020 21/13 Q1022 NOSIG",
      "taf": "TAF LGAV 242300Z 2500/2524 02014KT 9999 FEW020 SCT070"
    },
    {
      "icao": "LGTS",
      "alert": "OK",
      "vis_m": 9999,
      "fzfg": false,
      "metar_trigger": false,
      "taf_trigger": false,
      "metar": "METAR LGTS 250420Z 00000KT 9999 FEW025 16/16 Q1024 NOSIG",
      "taf": "TAF LGTS 242300Z 2500/2524 33010KT 9999 SCT025"
    },
    {
      "icao": "LHBP",
      "alert": "OK",
      "vis_m": 9999,
      "fzfg": false,
      "metar_trigger": false,
      "taf_trigger": false,
      "metar": "METAR LHBP 250430Z 34004KT CAVOK 20/13 Q1026 NOSIG",
      "taf": "TAF LHBP 242315Z 2500/2524 VRB03KT CAVOK"
    },
    {
      "icao": "LHDC",
      "alert": "OK",
      "vis_m": 9999,
      "fzfg": false,
      "metar_trigger": false,
      "taf_trigger": false,
      "metar": "METAR LHDC 250415Z AUTO 00000KT CAVOK 19/11 Q1025 NOSIG",
      "taf": "TAF LHDC 250215Z 2503/2512 VRB03KT CAVOK"
    },
    {
      "icao": "LIBD",
      "alert": "OK",
      "vis_m": 9999,
      "fzfg": false,
      "metar_trigger": false,
      "taf_trigger": false,
      "metar": "METAR LIBD 250420Z 26005KT CAVOK 18/11 Q1024",
      "taf": "TAF LIBD 242300Z 2500/2524 33013KT CAVOK"
    },
    {
      "icao": "LIBG",
      "alert": "OK",
      "vis_m": 9999,
      "fzfg": false,
      "metar_trigger": false,
      "taf_trigger": false,
      "metar": "METAR LIBG 250420Z AUTO 11003KT 030V150 9999 NCD 15/12 Q1024",
      "taf": "TAF LIBG 242300Z 2500/2524 VRB05KT CAVOK"
    },
    {
      "icao": "LIBP",
      "alert": "OK",
      "vis_m": 9999,
      "fzfg": false,
      "metar_trigger": false,
      "taf_trigger": false,
      "metar": "METAR LIBP 250420Z AUTO 24004KT 9999 NCD 16/11 Q1027",
      "taf": "TAF LIBP 242300Z 2500/2524 VRB05KT CAVOK"
    },
    {
      "icao": "LIBR",
      "alert": "OK",
      "vis_m": 9999,
      "fzfg": false,
      "metar_trigger": false,
      "taf_trigger": false,
      "metar": "METAR LIBR 250420Z 35007KT CAVOK 19/15 Q1024",
      "taf": "TAF LIBR 242300Z 2500/2524 33013KT CAVOK"
    },
    {
      "icao": "LICA",
      "alert": "OK",
      "vis_m": 9999,
      "fzfg": false,
      "metar_trigger": false,
      "taf_trigger": false,
      "metar": "METAR LICA 250420Z AUTO 08004KT 9999 NCD 14/13 Q1025",
      "taf": "TAF LICA 242300Z 2500/2524 VRB05KT 9999 SCT070"
    },
    {
      "icao": "LICC",
      "alert": "OK",
      "vis_m": 9999,
      "fzfg": false,
      "metar_trigger": false,
      "taf_trigger": false,
      "metar": "METAR LICC 250420Z 24004KT CAVOK 16/09 Q1024",
      "taf": "TAF LICC 242300Z 2500/2524 27006KT 9999 FEW070"
    },
    {
      "icao": "LICJ",
      "alert": "OK",
      "vis_m": 9999,
      "fzfg": false,
      "metar_trigger": false,
      "taf_trigger": false,
      "metar": "METAR LICJ 250420Z VRB02KT CAVOK 18/14 Q1024",
      "taf": "TAF LICJ 242300Z 2500/2524 VRB05KT CAVOK"
    },
    {
      "icao": "LIMC",
      "alert": "OK",
      "vis_m": 9999,
      "fzfg": false,
      "metar_trigger": false,
      "taf_trigger": false,
      "metar": "METAR LIMC 250420Z 02005KT CAVOK 19/15 Q1029 NOSIG",
      "taf": "TAF LIMC 242300Z 2500/2606 VRB05KT CAVOK"
    },
    {
      "icao": "LIME",
      "alert": "OK",
      "vis_m": 9999,
      "fzfg": false,
      "metar_trigger": false,
      "taf_trigger": false,
      "metar": "METAR LIME 250420Z 03003KT 360V080 CAVOK 20/15 Q1028 NOSIG",
      "taf": "TAF LIME 242300Z 2500/2524 VRB05KT 9999 FEW055"
    },
    {
      "icao": "LIMF",
      "alert": "OK",
      "vis_m": 9999,
      "fzfg": false,
      "metar_trigger": false,
      "taf_trigger": false,
      "metar": "METAR LIMF 250420Z 31003KT CAVOK 20/14 Q1029",
      "taf": "TAF LIMF 242300Z 2500/2524 VRB04KT 9999 FEW040"
    },
    {
      "icao": "LIMJ",
      "alert": "OK",
      "vis_m": 9999,
      "fzfg": false,
      "metar_trigger": false,
      "taf_trigger": false,
      "metar": "METAR LIMJ 250420Z AUTO VRB01KT 9999 NCD 22/11 Q1027",
      "taf": "TAF LIMJ 242300Z 2500/2524 VRB05KT 9999 FEW030"
    },
    {
      "icao": "LIPE",
      "alert": "OK",
      "vis_m": 9999,
      "fzfg": false,
      "metar_trigger": false,
      "taf_trigger": false,
      "metar": "METAR LIPE 250420Z 21007KT CAVOK 18/12 Q1027",
      "taf": "TAF LIPE 242300Z 2500/2524 VRB05KT CAVOK"
    },
    {
      "icao": "LIPH",
      "alert": "OK",
      "vis_m": 9999,
      "fzfg": false,
      "metar_trigger": false,
      "taf_trigger": false,
      "metar": "METAR LIPH 250420Z AUTO VRB02KT 9999 NCD 21/16 Q1027",
      "taf": "TAF LIPH 242300Z 2500/2524 VRB05KT CAVOK"
    },
    {
      "icao": "LIPQ",
      "alert": "OK",
      "vis_m": 9999,
      "fzfg": false,
      "metar_trigger": false,
      "taf_trigger": false,
      "metar": "METAR LIPQ 250420Z AUTO VRB02KT 9999 FEW072/// BKN099/// 21/17 Q1027",
      "taf": "TAF LIPQ 242300Z 2500/2524 VRB05KT CAVOK"
    },
    {
      "icao": "LIPR",
      "alert": "OK",
      "vis_m": 9999,
      "fzfg": false,
      "metar_trigger": false,
      "taf_trigger": false,
      "metar": "METAR LIPR 250420Z AUTO VRB01KT 9999 NCD 16/12 Q1027",
      "taf": "TAF LIPR 242300Z 2500/2524 VRB05KT CAVOK"
    },
    {
      "icao": "LIPX",
      "alert": "OK",
      "vis_m": 9999,
      "fzfg": false,
      "metar_trigger": false,
      "taf_trigger": false,
      "metar": "METAR LIPX 250420Z VRB01KT 9999 FEW090 19/16 Q1027",
      "taf": "TAF LIPX 242300Z 2500/2524 VRB05KT 9999 FEW050"
    },
    {
      "icao": "LIPY",
      "alert": "OK",
      "vis_m": 9999,
      "fzfg": false,
      "metar_trigger": false,
      "taf_trigger": false,
      "metar": "METAR LIPY 250420Z AUTO 19004KT 140V220 9999 NCD 15/12 Q1027",
      "taf": "TAF LIPY 242300Z 2500/2524 VRB05KT CAVOK"
    },
    {
      "icao": "LIPZ",
      "alert": "OK",
      "vis_m": 9999,
      "fzfg": false,
      "metar_trigger": false,
      "taf_trigger": false,
      "metar": "METAR LIPZ 250420Z 04006KT CAVOK 18/16 Q1027 NOSIG",
      "taf": "TAF LIPZ 242300Z 2500/2606 VRB05KT CAVOK"
    },
    {
      "icao": "LIRF",
      "alert": "OK",
      "vis_m": 9999,
      "fzfg": false,
      "metar_trigger": false,
      "taf_trigger": false,
      "metar": "METAR LIRF 250420Z 04003KT 360V080 CAVOK 16/11 Q1025 NOSIG",
      "taf": "TAF LIRF 242300Z 2500/2606 VRB05KT CAVOK"
    },
    {
      "icao": "LIRN",
      "alert": "OK",
      "vis_m": 9999,
      "fzfg": false,
      "metar_trigger": false,
      "taf_trigger": false,
      "metar": "METAR LIRN 250420Z 31003KT 270V360 CAVOK 20/09 Q1025 NOSIG",
      "taf": "TAF LIRN 242300Z 2500/2524 VRB05KT CAVOK"
    },
    {
      "icao": "LIRP",
      "alert": "OK",
      "vis_m": 9999,
      "fzfg": false,
      "metar_trigger": false,
      "taf_trigger": false,
      "metar": "METAR LIRP 250415Z 12004KT CAVOK 13/11 Q1027 NOSIG",
      "taf": "TAF LIRP 242300Z 2500/2524 12003KT CAVOK"
    },
    {
      "icao": "LIRZ",
      "alert": "OK",
      "vis_m": 9999,
      "fzfg": false,
      "metar_trigger": false,
      "taf_trigger": false,
      "metar": "METAR LIRZ 250420Z AUTO VRB02KT 9999 NCD 12/10 Q1028",
      "taf": "TAF LIRZ 242300Z 2500/2524 VRB05KT CAVOK"
    },
    {
      "icao": "LJLJ",
      "alert": "OK",
      "vis_m": 9999,
      "fzfg": false,
      "metar_trigger": false,
      "taf_trigger": false,
      "metar": "METAR LJLJ 250430Z VRB01KT 9999 FEW085 SCT120 16/14 Q1030 NOSIG",
      "taf": "TAF LJLJ 242300Z 2500/2600 30003KT 9999 FEW060"
    },
    {
      "icao": "LKMT",
      "alert": "OK",
      "vis_m": 9999,
      "fzfg": false,
      "metar_trigger": false,
      "taf_trigger": false,
      "metar": "METAR LKMT 250430Z 01007KT 9999 FEW022 SCT038 16/14 Q1030 NOSIG",
      "taf": "TAF LKMT 242300Z 2500/2524 VRB02KT CAVOK"
    },
    {
      "icao": "LKPR",
      "alert": "OK",
      "vis_m": 9999,
      "fzfg": false,
      "metar_trigger": false,
      "taf_trigger": false,
      "metar": "METAR LKPR 250430Z 33007KT CAVOK 16/13 Q1032 NOSIG",
      "taf": "TAF LKPR 250200Z 2503/2609 33008KT CAVOK"
    },
    {
      "icao": "LLBG",
      "alert": "OK",
      "vis_m": 9999,
      "fzfg": false,
      "metar_trigger": false,
      "taf_trigger": false,
      "metar": "METAR LLBG 250450Z VRB02KT 9999 FEW019 BKN024 20/15 Q1018 NOSIG",
      "taf": "TAF LLBG 242303Z 2500/2524 VRB03KT CAVOK TX26/2512Z TN17/2503Z"
    },
    {
      "icao": "LMML",
      "alert": "OK",
      "vis_m": 9999,
      "fzfg": false,
      "metar_trigger": false,
      "taf_trigger": false,
      "metar": "METAR LMML 250445Z 34005KT 320V020 CAVOK 20/14 Q1024 NOSIG",
      "taf": "TAF LMML 242300Z 2500/2524 VRB06KT 9999 FEW045"
    },
    {
      "icao": "LOWW",
      "alert": "OK",
      "vis_m": 9999,
      "fzfg": false,
      "metar_trigger": false,
      "taf_trigger": false,
      "metar": "METAR LOWW 250420Z 04002KT CAVOK 16/13 Q1028 NOSIG",
      "taf": "TAF LOWW 250215Z 2503/2609 VRB03KT CAVOK TX29/2513Z TN16/2604Z"
    },
    {
      "icao": "LPFR",
      "alert": "OK",
      "vis_m": 9999,
      "fzfg": false,
      "metar_trigger": false,
      "taf_trigger": false,
      "metar": "METAR LPFR 250430Z 07007KT CAVOK 21/11 Q1020",
      "taf": "TAF LPFR 242300Z 2500/2524 06010KT CAVOK"
    },
    {
      "icao": "LPMA",
      "alert": "OK",
      "vis_m": 9999,
      "fzfg": false,
      "metar_trigger": false,
      "taf_trigger": false,
      "metar": "METAR LPMA 250430Z 03007KT 350V060 9999 SCT015 18/15 Q1019",
      "taf": "TAF LPMA 242300Z 2500/2524 02015KT 9999 SCT015"
    },
    {
      "icao": "LPPR",
      "alert": "OK",
      "vis_m": 7000,
      "fzfg": false,
      "metar_trigger": false,
      "taf_trigger": false,
      "metar": "METAR LPPR 250430Z VRB01KT 7000 BKN002 17/16 Q1021",
      "taf": "TAF LPPR 242300Z 2500/2524 VRB02KT 9999 SCT008"
    },
    {
      "icao": "LPPS",
      "alert": "OK",
      "vis_m": 9999,
      "fzfg": false,
      "metar_trigger": false,
      "taf_trigger": false,
      "metar": "METAR LPPS 250430Z 06006KT 020V090 9999 SCT014 BKN030 18/15 Q1020",
      "taf": "TAF LPPS 242300Z 2500/2606 05010KT 9999 SCT015 BKN030"
    },
    {
      "icao": "LPPT",
      "alert": "OK",
      "vis_m": 9999,
      "fzfg": false,
      "metar_trigger": false,
      "taf_trigger": false,
      "metar": "METAR LPPT 250430Z 03003KT 290V080 9999 FEW006 16/15 Q1021",
      "taf": "TAF LPPT 242300Z 2500/2606 VRB02KT CAVOK"
    },
    {
      "icao": "LQBK",
      "alert": "OK",
      "vis_m": 9999,
      "fzfg": false,
      "metar_trigger": false,
      "taf_trigger": false,
      "metar": "METAR LQBK 250430Z 17003KT CAVOK 14/12 Q1028 NOSIG",
      "taf": "TAF LQBK 242300Z 2500/2524 16005KT CAVOK TX28/2513Z TN12/2504Z"
    },
    {
      "icao": "LQSA",
      "alert": "OK",
      "vis_m": 9999,
      "fzfg": false,
      "metar_trigger": false,
      "taf_trigger": false,
      "metar": "METAR LQSA 250430Z VRB01KT CAVOK 11/09 Q1029 NOSIG",
      "taf": "TAF LQSA 242300Z 2500/2524 33005KT 9999 FEW060 TX27/2514Z TN10/2504Z"
    },
    {
      "icao": "LQTZ",
      "alert": "OK",
      "vis_m": 9999,
      "fzfg": false,
      "metar_trigger": false,
      "taf_trigger": false,
      "metar": "METAR LQTZ 250430Z 00000KT CAVOK 11/11 Q1028",
      "taf": "TAF LQTZ 242300Z 2500/2524 27005KT CAVOK TX28/2514Z TN12/2504Z"
    },
    {
      "icao": "LRBC",
      "alert": "OK",
      "vis_m": 9999,
      "fzfg": false,
      "metar_trigger": false,
      "taf_trigger": false,
      "metar": "METAR LRBC 250430Z 03003KT 350V060 9999 FEW068 16/12 Q1023",
      "taf": "TAF LRBC 250200Z 2503/2512 VRB04KT CAVOK"
    },
    {
      "icao": "LRBS",
      "alert": "OK",
      "vis_m": 9999,
      "fzfg": false,
      "metar_trigger": false,
      "taf_trigger": false,
      "metar": "METAR LRBS 250430Z 29003KT 250V320 CAVOK 17/14 Q1023 NOSIG",
      "taf": "TAF LRBS 242300Z 2500/2524 VRB04KT CAVOK"
    },
    {
      "icao": "LRBV",
      "alert": "OK",
      "vis_m": 9999,
      "fzfg": false,
      "metar_trigger": false,
      "taf_trigger": false,
      "metar": "METAR LRBV 250430Z VRB02KT CAVOK 12/10 Q1026",
      "taf": "TAF LRBV 250200Z 2503/2512 VRB04KT CAVOK"
    },
    {
      "icao": "LRCL",
      "alert": "OK",
      "vis_m": 9999,
      "fzfg": false,
      "metar_trigger": false,
      "taf_trigger": false,
      "metar": "METAR LRCL 250430Z 27005KT 230V310 CAVOK 15/10 Q1025",
      "taf": "TAF LRCL 250200Z 2503/2512 VRB04KT CAVOK"
    },
    {
      "icao": "LRCV",
      "alert": "OK",
      "vis_m": 9999,
      "fzfg": false,
      "metar_trigger": false,
      "taf_trigger": false,
      "metar": "METAR LRCV 250430Z 03004KT CAVOK 15/15 Q1025",
      "taf": "TAF LRCV 250200Z 2503/2512 VRB04KT CAVOK"
    },
    {
      "icao": "LRIA",
      "alert": "OK",
      "vis_m": 9999,
      "fzfg": false,
      "metar_trigger": false,
      "taf_trigger": false,
      "metar": "METAR LRIA 250430Z 25004KT CAVOK 16/11 Q1022",
      "taf": "TAF LRIA 250200Z 2503/2512 VRB04KT CAVOK"
    },
    {
      "icao": "LROP",
      "alert": "OK",
      "vis_m": 9999,
      "fzfg": false,
      "metar_trigger": false,
      "taf_trigger": false,
      "metar": "METAR LROP 250430Z 30004KT CAVOK 17/15 Q1023 NOSIG",
      "taf": "TAF LROP 242300Z 2500/2524 VRB04KT CAVOK"
    },
    {
      "icao": "LRSB",
      "alert": "OK",
      "vis_m": 9999,
      "fzfg": false,
      "metar_trigger": false,
      "taf_trigger": false,
      "metar": "METAR LRSB 250430Z VRB02KT CAVOK 15/11 Q1026",
      "taf": "TAF LRSB 242300Z 2500/2524 VRB04KT CAVOK"
    },
    {
      "icao": "LRSM",
      "alert": "OK",
      "vis_m": 9999,
      "fzfg": false,
      "metar_trigger": false,
      "taf_trigger": false,
      "metar": "METAR LRSM 250430Z COR 25003KT CAVOK 16/12 Q1025",
      "taf": "TAF LRSM 250200Z 2503/2512 VRB04KT CAVOK"
    },
    {
      "icao": "LRSV",
      "alert": "OK",
      "vis_m": 9999,
      "fzfg": false,
      "metar_trigger": false,
      "taf_trigger": false,
      "metar": "METAR LRSV 250430Z 29008KT CAVOK 18/11 Q1023",
      "taf": "TAF LRSV 250200Z 2503/2512 30010KT CAVOK"
    },
    {
      "icao": "LRTM",
      "alert": "OK",
      "vis_m": 9999,
      "fzfg": false,
      "metar_trigger": false,
      "taf_trigger": false,
      "metar": "METAR LRTM 250430Z 03001KT CAVOK 12/11 Q1026",
      "taf": "TAF LRTM 250200Z 2503/2512 VRB04KT CAVOK"
    },
    {
      "icao": "LRTR",
      "alert": "OK",
      "vis_m": 9999,
      "fzfg": false,
      "metar_trigger": false,
      "taf_trigger": false,
      "metar": "METAR LRTR 250430Z 07003KT CAVOK 14/11 Q1025",
      "taf": "TAF LRTR 242300Z 2500/2524 VRB04KT CAVOK"
    },
    {
      "icao": "LTAC",
      "alert": "OK",
      "vis_m": 9999,
      "fzfg": false,
      "metar_trigger": false,
      "taf_trigger": false,
      "metar": "METAR LTAC 250420Z 05003KT 340V080 9999 SCT040 SCT100 13/11 Q1021 NOSIG RMK RWY21C 05003KT RWY03L VRB02KT RWY21R 04003KT 360V090 RWY03R 00000KT RWY21L VRB02KT",
      "taf": "TAF LTAC 242240Z 2500/2524 VRB02KT 9999 SCT040 SCT100"
    },
    {
      "icao": "LTFM",
      "alert": "OK",
      "vis_m": 9999,
      "fzfg": false,
      "metar_trigger": false,
      "taf_trigger": false,
      "metar": "METAR LTFM 250420Z 33011KT 9999 FEW040 BKN080 18/13 Q1022 NOSIG RMK RWY17L 31009KT RWY34L 31011KT RWY16R 31008KT 270V340 RWY36 32010KT 280V340 RWY18 33012KT",
      "taf": "TAF LTFM 242240Z 2500/2606 35010KT 9999 FEW040"
    },
    {
      "icao": "LUKK",
      "alert": "OK",
      "vis_m": 9999,
      "fzfg": false,
      "metar_trigger": false,
      "taf_trigger": false,
      "metar": "METAR LUKK 250430Z VRB01KT CAVOK 16/12 Q1021 NOSIG",
      "taf": "TAF LUKK 242301Z 2500/2524 30006KT CAVOK"
    },
    {
      "icao": "LWOH",
      "alert": "OK",
      "vis_m": null,
      "fzfg": false,
      "metar_trigger": false,
      "taf_trigger": false,
      "metar": "",
      "taf": "TAF LWOH 250230Z 2503/2603 32006KT CAVOK"
    },
    {
      "icao": "LWSK",
      "alert": "OK",
      "vis_m": 9999,
      "fzfg": false,
      "metar_trigger": false,
      "taf_trigger": false,
      "metar": "METAR LWSK 250450Z VRB02KT 9999 SCT060 BKN090 15/13 Q1026 NOSIG",
      "taf": "TAF LWSK 250230Z 2503/2603 VRB02KT 9999 FEW050 SCT100"
    },
    {
      "icao": "LYBE",
      "alert": "OK",
      "vis_m": 9999,
      "fzfg": false,
      "metar_trigger": false,
      "taf_trigger": false,
      "metar": "METAR LYBE 250430Z 23006KT 190V250 CAVOK 16/12 Q1026 NOSIG",
      "taf": "TAF LYBE 242300Z 2500/2524 24005KT CAVOK TX30/2513Z TN13/2504Z"
    },
    {
      "icao": "LYNI",
      "alert": "OK",
      "vis_m": 9999,
      "fzfg": false,
      "metar_trigger": false,
      "taf_trigger": false,
      "metar": "METAR LYNI 250430Z VRB01KT 9999 BKN090 14/13 Q1026 NOSIG",
      "taf": "TAF LYNI 242300Z 2500/2524 09004KT 9999 SCT070 TX29/2513Z TN13/2504Z"
    },
    {
      "icao": "LYPG",
      "alert": "OK",
      "vis_m": 9999,
      "fzfg": false,
      "metar_trigger": false,
      "taf_trigger": false,
      "metar": "METAR LYPG 250430Z VRB01KT CAVOK 21/10 Q1024 NOSIG",
      "taf": "TAF LYPG 242300Z 2500/2524 34007KT CAVOK TX31/2514Z TN21/2504Z"
    },
    {
      "icao": "LZIB",
      "alert": "OK",
      "vis_m": 9999,
      "fzfg": false,
      "metar_trigger": false,
      "taf_trigger": false,
      "metar": "METAR LZIB 250430Z 22003KT CAVOK 19/14 Q1027 NOSIG",
      "taf": "TAF LZIB 242315Z 2500/2600 31004KT CAVOK"
    },
    {
      "icao": "LZKZ",
      "alert": "OK",
      "vis_m": 9999,
      "fzfg": false,
      "metar_trigger": false,
      "taf_trigger": false,
      "metar": "METAR LZKZ 250430Z 06003KT CAVOK 18/14 Q1026 NOSIG",
      "taf": "TAF LZKZ 242315Z 2500/2600 VRB02KT CAVOK"
    },
    {
      "icao": "LZTT",
      "alert": "OK",
      "vis_m": 9999,
      "fzfg": false,
      "metar_trigger": false,
      "taf_trigger": false,
      "metar": "METAR LZTT 250430Z VRB04KT 9999 FEW050 15/11 Q1028",
      "taf": "TAF LZTT 242315Z 2500/2600 VRB02KT 9999 FEW050"
    },
    {
      "icao": "OEJN",
      "alert": "OK",
      "vis_m": 9999,
      "fzfg": false,
      "metar_trigger": false,
      "taf_trigger": false,
      "metar": "METAR OEJN 250400Z 34010KT CAVOK 28/20 Q1009 NOSIG",
      "taf": "TAF OEJN 242300Z 2500/2606 36010KT 9999 FEW040"
    },
    {
      "icao": "OEMA",
      "alert": "OK",
      "vis_m": 6000,
      "fzfg": false,
      "metar_trigger": false,
      "taf_trigger": false,
      "metar": "METAR OEMA 250400Z 03011KT 6000 NSC 31/00 Q1016 NOSIG",
      "taf": "TAF OEMA 242300Z 2500/2606 09006KT 7000 FEW040"
    },
    {
      "icao": "OJAI",
      "alert": "OK",
      "vis_m": 5000,
      "fzfg": false,
      "metar_trigger": false,
      "taf_trigger": false,
      "metar": "METAR OJAI 250400Z 25003KT 5000 HZ NSC 13/04 Q1020 NOSIG",
      "taf": "TAF OJAI 242300Z 2500/2606 28012KT 5000 HZ FEW035"
    },
    {
      "icao": "OMAA",
      "alert": "OK",
      "vis_m": 9999,
      "fzfg": false,
      "metar_trigger": false,
      "taf_trigger": false,
      "metar": "METAR OMAA 250430Z 13010KT CAVOK 32/22 Q1008 NOSIG",
      "taf": "TAF OMAA 242300Z 2500/2606 VRB02KT 8000 NSC"
    },
    {
      "icao": "OMDB",
      "alert": "OK",
      "vis_m": 9999,
      "fzfg": false,
      "metar_trigger": false,
      "taf_trigger": false,
      "metar": "METAR OMDB 250430Z 12005KT 080V150 CAVOK 35/17 Q1008 NOSIG",
      "taf": ""
    },
    {
      "icao": "UAAA",
      "alert": "OK",
      "vis_m": 9999,
      "fzfg": false,
      "metar_trigger": false,
      "taf_trigger": false,
      "metar": "METAR UAAA 250430Z 04002MPS 340V120 9999 NSC 22/00 Q1018 NOSIG",
      "taf": "TAF UAAA 242302Z 2500/2524 34003MPS 9999 FEW050CB SCT100 TX25/2510Z TN09/2501Z"
    },
    {
      "icao": "UBBB",
      "alert": "OK",
      "vis_m": 9999,
      "fzfg": false,
      "metar_trigger": false,
      "taf_trigger": false,
      "metar": "METAR UBBB 250430Z 30010KT CAVOK 22/15 Q1009 NOSIG",
      "taf": "TAF UBBB 242304Z 2500/2524 VRB04KT 9999 SCT040CB BKN040 TX22/2510Z TN16/2501Z"
    },
    {
      "icao": "UDSG",
      "alert": "OK",
      "vis_m": 9999,
      "fzfg": false,
      "metar_trigger": false,
      "taf_trigger": false,
      "metar": "METAR UDSG 250430Z 13001KT 9999 FEW020CB BKN049 09/08 Q1019 NOSIG",
      "taf": "TAF UDSG 242300Z 2500/2524 24006KT 9999 SCT040"
    },
    {
      "icao": "UDYZ",
      "alert": "OK",
      "vis_m": 6000,
      "fzfg": false,
      "metar_trigger": false,
      "taf_trigger": false,
      "metar": "METAR UDYZ 250430Z VRB01KT 6000 SCT046 12/11 Q1017 NOSIG",
      "taf": "TAF UDYZ 242300Z 2500/2524 22004KT 9999 SCT040"
    },
    {
      "icao": "UGKO",
      "alert": "OK",
      "vis_m": 9999,
      "fzfg": false,
      "metar_trigger": false,
      "taf_trigger": false,
      "metar": "METAR UGKO 250430Z 25013KT 9999 SCT018 BKN024 16/15 Q1015 NOSIG",
      "taf": "TAF UGKO 242300Z 2500/2524 27010KT 9999 -RA SCT020 BKN040 TX19/2512Z TN14/2502Z"
    }
  ]
}