{
  "ts_utc": "2026-03-19T05:05:50Z",
  "threshold_m": 150,
  "source": "stations_override.txt (ICAO list) + aviationweather.gov (METAR/TAF raw)",
  "station_count": 159,
  "stations": [
    {
      "icao": "BIKF",
      "alert": "OK",
      "vis_m": 9999,
      "fzfg": false,
      "metar_trigger": false,
      "taf_trigger": false,
      "metar": "METAR BIKF 190430Z 18029G39KT 9999 -RA OVC010 05/03 Q1002",
      "taf": "TAF BIKF 190452Z 1906/2006 18032G42KT 7000 RA BKN010 OVC020 TX07/1912Z TNM01/2003Z"
    },
    {
      "icao": "BKPR",
      "alert": "OK",
      "vis_m": 9999,
      "fzfg": false,
      "metar_trigger": false,
      "taf_trigger": false,
      "metar": "METAR BKPR 190500Z 02009KT 9999 BKN040 05/M00 Q1015 NOSIG",
      "taf": "TAF BKPR 182330Z 1900/1924 03008KT 9999 BKN040"
    },
    {
      "icao": "EBCI",
      "alert": "OK",
      "vis_m": 9999,
      "fzfg": false,
      "metar_trigger": false,
      "taf_trigger": false,
      "metar": "METAR EBCI 190450Z 09003KT CAVOK 04/01 Q1025 NOSIG",
      "taf": "TAF EBCI 182300Z 1900/2006 06006KT CAVOK"
    },
    {
      "icao": "EDDB",
      "alert": "OK",
      "vis_m": 9000,
      "fzfg": false,
      "metar_trigger": false,
      "taf_trigger": false,
      "metar": "METAR EDDB 190450Z AUTO 06002KT 9000 NSC 00/M00 Q1028 NOSIG",
      "taf": "TAF EDDB 182300Z 1900/1924 07004KT CAVOK"
    },
    {
      "icao": "EDDH",
      "alert": "OK",
      "vis_m": 9999,
      "fzfg": false,
      "metar_trigger": false,
      "taf_trigger": false,
      "metar": "METAR EDDH 190450Z AUTO 06003KT 9999 1600 BR NCD 01/00 Q1028 TEMPO 4000 BCFG",
      "taf": "TAF EDDH 182300Z 1900/2006 VRB02KT CAVOK"
    },
    {
      "icao": "EDDK",
      "alert": "OK",
      "vis_m": 9999,
      "fzfg": false,
      "metar_trigger": false,
      "taf_trigger": false,
      "metar": "METAR EDDK 190450Z AUTO VRB02KT CAVOK 03/01 Q1026 NOSIG",
      "taf": "TAF EDDK 182300Z 1900/2006 09006KT CAVOK"
    },
    {
      "icao": "EDDN",
      "alert": "OK",
      "vis_m": 9999,
      "fzfg": false,
      "metar_trigger": false,
      "taf_trigger": false,
      "metar": "METAR EDDN 190450Z AUTO 04005KT CAVOK 00/M02 Q1024",
      "taf": "TAF EDDN 182300Z 1900/1924 09004KT CAVOK"
    },
    {
      "icao": "EDDS",
      "alert": "OK",
      "vis_m": 9999,
      "fzfg": false,
      "metar_trigger": false,
      "taf_trigger": false,
      "metar": "METAR EDDS 190450Z AUTO VRB04KT CAVOK 03/M01 Q1021",
      "taf": "TAF EDDS 182300Z 1900/1924 05007KT CAVOK"
    },
    {
      "icao": "EDFH",
      "alert": "OK",
      "vis_m": 9999,
      "fzfg": false,
      "metar_trigger": false,
      "taf_trigger": false,
      "metar": "METAR EDFH 190450Z 10003KT 060V180 CAVOK 03/M00 Q1024",
      "taf": "TAF EDFH 182300Z 1900/1924 09008KT CAVOK"
    },
    {
      "icao": "EDJA",
      "alert": "OK",
      "vis_m": 5000,
      "fzfg": false,
      "metar_trigger": false,
      "taf_trigger": false,
      "metar": "METAR EDJA 190450Z 07003KT 020V120 5000 BR NSC M00/M01 Q1020",
      "taf": "TAF EDJA 190200Z 1903/1912 06007KT 6000 NSC"
    },
    {
      "icao": "EDLW",
      "alert": "OK",
      "vis_m": 9999,
      "fzfg": false,
      "metar_trigger": false,
      "taf_trigger": false,
      "metar": "METAR EDLW 190450Z 11005KT CAVOK 04/01 Q1026",
      "taf": ""
    },
    {
      "icao": "EDNY",
      "alert": "OK",
      "vis_m": 9999,
      "fzfg": false,
      "metar_trigger": false,
      "taf_trigger": false,
      "metar": "METAR EDNY 190450Z 04006KT CAVOK 03/01 Q1021",
      "taf": "TAF EDNY 190200Z 1903/1912 04009KT CAVOK"
    },
    {
      "icao": "EDSB",
      "alert": "OK",
      "vis_m": 9999,
      "fzfg": false,
      "metar_trigger": false,
      "taf_trigger": false,
      "metar": "METAR EDSB 190450Z 02013KT CAVOK 07/02 Q1022",
      "taf": "TAF EDSB 182300Z 1900/1924 03012KT CAVOK"
    },
    {
      "icao": "EETN",
      "alert": "OK",
      "vis_m": 9999,
      "fzfg": false,
      "metar_trigger": false,
      "taf_trigger": false,
      "metar": "METAR EETN 190450Z 22008KT 9999 OVC040 01/M00 Q1021 NOSIG",
      "taf": "TAF EETN 182330Z 1900/1924 20012KT 9999 SCT005 BKN030"
    },
    {
      "icao": "EFTU",
      "alert": "OK",
      "vis_m": 9999,
      "fzfg": false,
      "metar_trigger": false,
      "taf_trigger": false,
      "metar": "METAR EFTU 190450Z AUTO 25005KT 9999 OVC017 04/02 Q1019",
      "taf": "TAF EFTU 190233Z 1903/2003 23008KT 9999 OVC020"
    },
    {
      "icao": "EGBB",
      "alert": "OK",
      "vis_m": 9999,
      "fzfg": false,
      "metar_trigger": false,
      "taf_trigger": false,
      "metar": "METAR EGBB 190450Z 32002KT CAVOK 01/M00 Q1027",
      "taf": "TAF EGBB 182256Z 1900/1924 10006KT CAVOK"
    },
    {
      "icao": "EGGP",
      "alert": "OK",
      "vis_m": 9999,
      "fzfg": false,
      "metar_trigger": false,
      "taf_trigger": false,
      "metar": "METAR EGGP 190450Z 09006KT CAVOK 06/03 Q1027",
      "taf": "TAF EGGP 182302Z 1900/1924 16004KT CAVOK"
    },
    {
      "icao": "EGGW",
      "alert": "OK",
      "vis_m": 9999,
      "fzfg": false,
      "metar_trigger": false,
      "taf_trigger": false,
      "metar": "METAR EGGW 190450Z AUTO 02006KT 9999 NCD 03/01 Q1026",
      "taf": ""
    },
    {
      "icao": "EGKK",
      "alert": "OK",
      "vis_m": 9999,
      "fzfg": false,
      "metar_trigger": false,
      "taf_trigger": false,
      "metar": "METAR EGKK 190420Z 28003KT CAVOK 01/00 Q1025",
      "taf": "TAF EGKK 182254Z 1900/2006 05006KT CAVOK"
    },
    {
      "icao": "EGNM",
      "alert": "OK",
      "vis_m": 9999,
      "fzfg": false,
      "metar_trigger": false,
      "taf_trigger": false,
      "metar": "METAR EGNM 190450Z 02006KT CAVOK 07/05 Q1027",
      "taf": "TAF EGNM 182302Z 1900/1924 VRB03KT 9999 FEW030"
    },
    {
      "icao": "EGPD",
      "alert": "OK",
      "vis_m": 9999,
      "fzfg": false,
      "metar_trigger": false,
      "taf_trigger": false,
      "metar": "METAR EGPD 190450Z COR AUTO 32002KT 9999 NCD 06/03 Q1030 NOSIG",
      "taf": "TAF EGPD 182256Z 1900/1924 29004KT 9999 FEW040"
    },
    {
      "icao": "EGPF",
      "alert": "OK",
      "vis_m": 9999,
      "fzfg": false,
      "metar_trigger": false,
      "taf_trigger": false,
      "metar": "METAR EGPF 190450Z AUTO 34003KT 9999 NCD 06/05 Q1029",
      "taf": "TAF EGPF 182300Z 1900/1924 VRB03KT 9999 SCT040"
    },
    {
      "icao": "EHBK",
      "alert": "OK",
      "vis_m": 9999,
      "fzfg": false,
      "metar_trigger": false,
      "taf_trigger": false,
      "metar": "METAR EHBK 190455Z AUTO 08004KT 9999 NCD 04/01 Q1025 NOSIG",
      "taf": "TAF EHBK 182310Z 1900/2006 07007KT CAVOK"
    },
    {
      "icao": "EHEH",
      "alert": "OK",
      "vis_m": 9999,
      "fzfg": false,
      "metar_trigger": false,
      "taf_trigger": false,
      "metar": "METAR EHEH 190425Z AUTO 06002KT 9999 NCD 01/00 Q1026 BLU",
      "taf": "TAF EHEH 182329Z 1900/2006 08005KT CAVOK"
    },
    {
      "icao": "EKBI",
      "alert": "OK",
      "vis_m": 9999,
      "fzfg": false,
      "metar_trigger": false,
      "taf_trigger": false,
      "metar": "METAR EKBI 190450Z AUTO 13001KT 9999 NCD M00/M02 Q1028",
      "taf": "TAF EKBI 190227Z 1903/2003 19005KT CAVOK"
    },
    {
      "icao": "EKCH",
      "alert": "OK",
      "vis_m": 9999,
      "fzfg": false,
      "metar_trigger": false,
      "taf_trigger": false,
      "metar": "METAR EKCH 190450Z AUTO 26002KT 9999 BKN051/// 02/M00 Q1028 NOSIG",
      "taf": ""
    },
    {
      "icao": "ENAL",
      "alert": "OK",
      "vis_m": 9999,
      "fzfg": false,
      "metar_trigger": false,
      "taf_trigger": false,
      "metar": "METAR ENAL 190450Z 25010KT 9999 FEW022 BKN029 06/05 Q1023",
      "taf": "TAF ENAL 190200Z 1903/1912 26012KT 9999 SCT038"
    },
    {
      "icao": "ENBR",
      "alert": "OK",
      "vis_m": 8000,
      "fzfg": false,
      "metar_trigger": false,
      "taf_trigger": false,
      "metar": "METAR ENBR 190450Z 16007KT 8000 VV003 05/05 Q1026 RMK WIND 1200FT 25010KT",
      "taf": "TAF ENBR 182300Z 1900/1924 18008KT 9000 BKN006"
    },
    {
      "icao": "ENGM",
      "alert": "OK",
      "vis_m": 500,
      "fzfg": false,
      "metar_trigger": false,
      "taf_trigger": false,
      "metar": "METAR ENGM 190450Z 22005KT 0500 0350W R19R/0450N R01R/0700D R19L/0600N R01L/0450N FG VV001 01/01 Q1021 TEMPO 0800 VV002",
      "taf": ""
    },
    {
      "icao": "ENHD",
      "alert": "OK",
      "vis_m": 300,
      "fzfg": false,
      "metar_trigger": false,
      "taf_trigger": false,
      "metar": "METAR ENHD 190450Z AUTO 11004KT 0300 R13/1000U R31/0900N FG VV003 04/04 Q1027",
      "taf": "TAF ENHD 190200Z 1903/1912 14005KT 0300 FG VV002"
    },
    {
      "icao": "ENTC",
      "alert": "OK",
      "vis_m": 9999,
      "fzfg": false,
      "metar_trigger": false,
      "taf_trigger": false,
      "metar": "METAR ENTC 190450Z 20019KT 9999 -RA BKN028 BKN035 03/01 Q0991 RMK WIND 2600FT 26038G52KT",
      "taf": "TAF ENTC 182300Z 1900/1924 22018KT 9999 BKN020"
    },
    {
      "icao": "ENTO",
      "alert": "OK",
      "vis_m": 9999,
      "fzfg": false,
      "metar_trigger": false,
      "taf_trigger": false,
      "metar": "METAR ENTO 190450Z 02004KT 9999 4000N R18/1400D R36/P2000N BCFG SCT001 02/02 Q1023",
      "taf": ""
    },
    {
      "icao": "ENVA",
      "alert": "OK",
      "vis_m": 9999,
      "fzfg": false,
      "metar_trigger": false,
      "taf_trigger": false,
      "metar": "METAR ENVA 190450Z 26017KT 9999 BKN026 OVC032 06/03 Q1020 RMK WIND 670FT 27017G29KT",
      "taf": "TAF ENVA 182300Z 1900/1924 28018KT 9999 BKN040"
    },
    {
      "icao": "ENZV",
      "alert": "OK",
      "vis_m": 150,
      "fzfg": false,
      "metar_trigger": false,
      "taf_trigger": false,
      "metar": "METAR ENZV 190450Z 31001KT 0150 R18/0800N R36/0700N R10/0550N FG VV002 05/05 Q1027",
      "taf": "TAF ENZV 182300Z 1900/1924 19008KT 6000 SCT004 BKN012"
    },
    {
      "icao": "EPGD",
      "alert": "OK",
      "vis_m": 6000,
      "fzfg": false,
      "metar_trigger": false,
      "taf_trigger": false,
      "metar": "METAR EPGD 190430Z 29001KT 6000 NSC M01/M02 Q1027",
      "taf": ""
    },
    {
      "icao": "EPKK",
      "alert": "OK",
      "vis_m": 9999,
      "fzfg": false,
      "metar_trigger": false,
      "taf_trigger": false,
      "metar": "METAR EPKK 190430Z 00000KT CAVOK M01/M04 Q1025",
      "taf": "TAF EPKK 190230Z 1903/2003 06005KT CAVOK"
    },
    {
      "icao": "EPKT",
      "alert": "OK",
      "vis_m": 7000,
      "fzfg": false,
      "metar_trigger": false,
      "taf_trigger": false,
      "metar": "METAR EPKT 190430Z 06001KT 7000 NSC M04/M05 Q1025",
      "taf": "TAF EPKT 182330Z 1900/1924 06005KT CAVOK"
    },
    {
      "icao": "EPLB",
      "alert": "OK",
      "vis_m": 9000,
      "fzfg": false,
      "metar_trigger": false,
      "taf_trigger": false,
      "metar": "METAR EPLB 190430Z 28003KT 9000 NSC M01/M02 Q1026",
      "taf": "TAF EPLB 182330Z 1900/1924 VRB02KT CAVOK"
    },
    {
      "icao": "EPMO",
      "alert": "OK",
      "vis_m": 9000,
      "fzfg": false,
      "metar_trigger": false,
      "taf_trigger": false,
      "metar": "METAR EPMO 190430Z 02003KT 9000 NSC 00/M01 Q1027",
      "taf": "TAF EPMO 182330Z 1900/1924 03004KT 8000 NSC"
    },
    {
      "icao": "EPPO",
      "alert": "OK",
      "vis_m": 3500,
      "fzfg": false,
      "metar_trigger": false,
      "taf_trigger": false,
      "metar": "METAR EPPO 190430Z 34002KT 3500 BR NSC 01/M00 Q1027",
      "taf": "TAF EPPO 182330Z 1900/1924 04004KT CAVOK"
    },
    {
      "icao": "EPRA",
      "alert": "OK",
      "vis_m": 8000,
      "fzfg": false,
      "metar_trigger": false,
      "taf_trigger": false,
      "metar": "METAR EPRA 190430Z VRB02KT 8000 NSC 02/M00 Q1026",
      "taf": "TAF EPRA 190230Z 1903/1912 VRB02KT CAVOK"
    },
    {
      "icao": "EPRZ",
      "alert": "OK",
      "vis_m": 9999,
      "fzfg": false,
      "metar_trigger": false,
      "taf_trigger": false,
      "metar": "METAR EPRZ 190430Z 31004KT CAVOK M01/M03 Q1025",
      "taf": "TAF EPRZ 182330Z 1900/1924 06006KT 9999 BKN050"
    },
    {
      "icao": "EPSC",
      "alert": "OK",
      "vis_m": 9999,
      "fzfg": false,
      "metar_trigger": false,
      "taf_trigger": false,
      "metar": "METAR EPSC 190430Z 14002KT 9999 MIFG NSC M02/M03 Q1028",
      "taf": "TAF EPSC 182330Z 1900/1924 VRB02KT CAVOK"
    },
    {
      "icao": "EPSY",
      "alert": "OK",
      "vis_m": 4500,
      "fzfg": false,
      "metar_trigger": false,
      "taf_trigger": false,
      "metar": "METAR EPSY 190430Z 00000KT 4500 BR NSC M05/M06 Q1027",
      "taf": "TAF EPSY 190230Z 1903/1912 VRB02KT CAVOK"
    },
    {
      "icao": "EPWA",
      "alert": "OK",
      "vis_m": 9999,
      "fzfg": false,
      "metar_trigger": false,
      "taf_trigger": false,
      "metar": "METAR EPWA 190430Z 07003KT 040V130 9999 FEW043 04/02 Q1027 NOSIG",
      "taf": "TAF EPWA 190230Z 1903/2003 02003KT CAVOK"
    },
    {
      "icao": "EPWR",
      "alert": "OK",
      "vis_m": 4000,
      "fzfg": false,
      "metar_trigger": false,
      "taf_trigger": false,
      "metar": "METAR EPWR 190430Z 29002KT 4000 MIFG BR NSC M01/M01 Q1027",
      "taf": "TAF EPWR 190230Z 1903/2003 VRB02KT CAVOK"
    },
    {
      "icao": "ESGG",
      "alert": "OK",
      "vis_m": 9999,
      "fzfg": false,
      "metar_trigger": false,
      "taf_trigger": false,
      "metar": "METAR ESGG 190450Z 24007KT 9999 OVC009 05/03 Q1024",
      "taf": ""
    },
    {
      "icao": "ESKN",
      "alert": "OK",
      "vis_m": 9999,
      "fzfg": false,
      "metar_trigger": false,
      "taf_trigger": false,
      "metar": "METAR ESKN 190450Z 27008KT 9999 BKN014 07/04 Q1021",
      "taf": "TAF ESKN 190230Z 1903/2003 24014KT 9999 BKN025"
    },
    {
      "icao": "ESMS",
      "alert": "OK",
      "vis_m": 9999,
      "fzfg": false,
      "metar_trigger": false,
      "taf_trigger": false,
      "metar": "METAR ESMS 190450Z 29003KT CAVOK 02/01 Q1027",
      "taf": "TAF ESMS 190227Z 1903/2003 19005KT CAVOK"
    },
    {
      "icao": "ESSA",
      "alert": "OK",
      "vis_m": 9999,
      "fzfg": false,
      "metar_trigger": false,
      "taf_trigger": false,
      "metar": "METAR ESSA 190450Z 26010KT 9999 BKN016 06/04 Q1020 TEMPO BKN014",
      "taf": "TAF ESSA 190230Z 1903/2003 26014KT 9999 BKN015"
    },
    {
      "icao": "EYKA",
      "alert": "OK",
      "vis_m": 3500,
      "fzfg": false,
      "metar_trigger": false,
      "taf_trigger": false,
      "metar": "METAR EYKA 190450Z 00000KT 3500 0450W R26/0600D BR BCFG SCT002 M02/M02 Q1027",
      "taf": ""
    },
    {
      "icao": "EYPA",
      "alert": "OK",
      "vis_m": 9999,
      "fzfg": true,
      "metar_trigger": false,
      "taf_trigger": false,
      "metar": "METAR EYPA 190450Z 17004KT 9999 BKN002 OVC093 M02/M03 Q1027",
      "taf": "TAF EYPA 182300Z 1900/1924 VRB03KT 0700 FZFG VV001"
    },
    {
      "icao": "EYVI",
      "alert": "OK",
      "vis_m": 4200,
      "fzfg": false,
      "metar_trigger": false,
      "taf_trigger": false,
      "metar": "METAR EYVI 190450Z 35002KT 4200 BR NSC M00/M01 Q1026 TEMPO 3000 BR",
      "taf": ""
    },
    {
      "icao": "GCFV",
      "alert": "OK",
      "vis_m": 9999,
      "fzfg": false,
      "metar_trigger": false,
      "taf_trigger": false,
      "metar": "METAR GCFV 190430Z AUTO 22006KT CAVOK 14/11 Q1002",
      "taf": "TAF GCFV 190200Z 1903/2003 24008KT 9999 SCT035 TX22/1914Z TN15/1906Z"
    },
    {
      "icao": "GCLP",
      "alert": "OK",
      "vis_m": 9999,
      "fzfg": false,
      "metar_trigger": false,
      "taf_trigger": false,
      "metar": "METAR GCLP 190430Z 21008KT 9999 FEW035 15/08 Q1002 NOSIG",
      "taf": "TAF GCLP 190200Z 1903/2003 24006KT 9999 FEW035 TX22/1914Z TN15/1906Z"
    },
    {
      "icao": "GCTS",
      "alert": "OK",
      "vis_m": 9999,
      "fzfg": false,
      "metar_trigger": false,
      "taf_trigger": false,
      "metar": "METAR GCTS 190430Z 31014KT 9999 SCT038 SCT055 15/08 Q1002 NOSIG",
      "taf": "TAF GCTS 190200Z 1903/2003 28018KT 9999 SCT030 TX23/1914Z TN15/1906Z"
    },
    {
      "icao": "GMAD",
      "alert": "OK",
      "vis_m": 8000,
      "fzfg": false,
      "metar_trigger": false,
      "taf_trigger": false,
      "metar": "METAR GMAD 190430Z 07006KT 8000 SCT020 SCT083 14/13 Q1004 NOSIG",
      "taf": "TAF GMAD 182300Z 1900/2006 12004KT 8000 SCT020 SCT080"
    },
    {
      "icao": "GMMN",
      "alert": "OK",
      "vis_m": 9999,
      "fzfg": false,
      "metar_trigger": false,
      "taf_trigger": false,
      "metar": "METAR GMMN 190430Z 18004KT 9999 FEW008 SCT100 12/10 Q1004 NOSIG",
      "taf": "TAF GMMN 182300Z 1900/2006 18004KT 9999 SCT020"
    },
    {
      "icao": "GMMX",
      "alert": "OK",
      "vis_m": 8000,
      "fzfg": false,
      "metar_trigger": false,
      "taf_trigger": false,
      "metar": "METAR GMMX 190430Z 08005KT 050V110 8000 FEW023 14/10 Q1003 NOSIG",
      "taf": "TAF GMMX 182300Z 1900/2006 04006KT 8000 SCT080"
    },
    {
      "icao": "HEGN",
      "alert": "OK",
      "vis_m": 6000,
      "fzfg": false,
      "metar_trigger": false,
      "taf_trigger": false,
      "metar": "METAR HEGN 190400Z 31013KT 6000 NSC 20/M02 Q1003",
      "taf": "TAF HEGN 190500Z 1906/2012 29015G25KT 6000 SCT025"
    },
    {
      "icao": "HEMA",
      "alert": "OK",
      "vis_m": 9999,
      "fzfg": false,
      "metar_trigger": false,
      "taf_trigger": false,
      "metar": "METAR HEMA 190400Z 28012KT CAVOK 23/M06 Q1004",
      "taf": "TAF HEMA 190500Z 1906/2012 28015G25KT 6000 SCT025"
    },
    {
      "icao": "HESH",
      "alert": "OK",
      "vis_m": 9999,
      "fzfg": false,
      "metar_trigger": false,
      "taf_trigger": false,
      "metar": "METAR HESH 190400Z 24006KT CAVOK 22/M01 Q1002",
      "taf": "TAF HESH 190500Z 1906/2012 28010G20KT 6000 SCT025"
    },
    {
      "icao": "HESX",
      "alert": "OK",
      "vis_m": 9999,
      "fzfg": false,
      "metar_trigger": false,
      "taf_trigger": false,
      "metar": "METAR HESX 190400Z 24008KT CAVOK 12/04 Q1002",
      "taf": "TAF HESX 190500Z 1906/2012 21011KT 9999 SCT025 BKN070"
    },
    {
      "icao": "LATI",
      "alert": "OK",
      "vis_m": 6000,
      "fzfg": false,
      "metar_trigger": false,
      "taf_trigger": false,
      "metar": "METAR LATI 190450Z VRB02KT 6000 SCT080 BKN120 08/05 Q1010 NOSIG",
      "taf": "TAF LATI 182300Z 1900/1924 VRB05KT 9999 FEW040 BKN080 TX16/1912Z TN06/1924Z"
    },
    {
      "icao": "LBPD",
      "alert": "OK",
      "vis_m": 650,
      "fzfg": false,
      "metar_trigger": false,
      "taf_trigger": false,
      "metar": "METAR LBPD 190430Z AUTO 26003KT 0650 0400SW R30/1100D -SHRA FG BKN003/// BKN110/// 04/04 Q1018 TEMPO 0600 FG SCT001",
      "taf": "TAF LBPD 182300Z 1900/1924 VRB04KT 9999 SCT030 OVC050"
    },
    {
      "icao": "LBSF",
      "alert": "OK",
      "vis_m": 8000,
      "fzfg": false,
      "metar_trigger": false,
      "taf_trigger": false,
      "metar": "METAR LBSF 190430Z 10007KT 8000 BKN032 BKN040 02/01 Q1017 NOSIG",
      "taf": "TAF LBSF 182300Z 1900/1924 12010KT 9999 SCT030 OVC050"
    },
    {
      "icao": "LBWN",
      "alert": "OK",
      "vis_m": 9999,
      "fzfg": false,
      "metar_trigger": false,
      "taf_trigger": false,
      "metar": "METAR LBWN 190430Z AUTO 02011KT 9999 NSC 04/01 Q1018 NOSIG",
      "taf": "TAF LBWN 182300Z 1900/1924 04010KT 9999 SCT040"
    },
    {
      "icao": "LCLK",
      "alert": "OK",
      "vis_m": 9999,
      "fzfg": false,
      "metar_trigger": false,
      "taf_trigger": false,
      "metar": "METAR LCLK 190430Z 35006KT 9999 FEW020TCU SCT060 15/14 Q0999 NOSIG",
      "taf": "TAF LCLK 182330Z 1900/2000 15010KT 8000 FEW030 SCT060"
    },
    {
      "icao": "LCPH",
      "alert": "OK",
      "vis_m": 9999,
      "fzfg": false,
      "metar_trigger": false,
      "taf_trigger": false,
      "metar": "METAR LCPH 190430Z 00000KT 9999 FEW030CB SCT040 BKN050 15/10 Q0998 NOSIG",
      "taf": "TAF LCPH 182330Z 1900/2000 07009KT 9999 FEW030 SCT070"
    },
    {
      "icao": "LEAL",
      "alert": "OK",
      "vis_m": 9999,
      "fzfg": false,
      "metar_trigger": false,
      "taf_trigger": false,
      "metar": "METAR LEAL 190430Z 05008KT CAVOK 15/09 Q1012 NOSIG",
      "taf": "TAF LEAL 182300Z 1900/1924 07010KT 9999 SCT020 TX19/1912Z TN11/1907Z"
    },
    {
      "icao": "LEBB",
      "alert": "OK",
      "vis_m": 9999,
      "fzfg": false,
      "metar_trigger": false,
      "taf_trigger": false,
      "metar": "METAR LEBB 190430Z 11008KT 070V170 CAVOK 14/06 Q1010 NOSIG",
      "taf": "TAF LEBB 182300Z 1900/1924 14009KT CAVOK TX20/1914Z TN08/1906Z"
    },
    {
      "icao": "LEBL",
      "alert": "OK",
      "vis_m": 9999,
      "fzfg": false,
      "metar_trigger": false,
      "taf_trigger": false,
      "metar": "METAR LEBL 190430Z 07014KT 9999 BKN025 BKN030 BKN043 13/08 Q1016 NOSIG",
      "taf": "TAF LEBL 182300Z 1900/1924 07012KT 9999 FEW020 TX16/1912Z TN10/1906Z"
    },
    {
      "icao": "LECH",
      "alert": "OK",
      "vis_m": 6000,
      "fzfg": false,
      "metar_trigger": false,
      "taf_trigger": false,
      "metar": "METAR LECH 190430Z AUTO 03004KT 340V060 6000 RA SCT005 BKN009 OVC014 10/09 Q1015",
      "taf": "TAF LECH 182300Z 1900/1924 04009KT 9999 FEW010 BKN020 TX16/1912Z TN06/1907Z"
    },
    {
      "icao": "LEMD",
      "alert": "OK",
      "vis_m": 9999,
      "fzfg": false,
      "metar_trigger": false,
      "taf_trigger": false,
      "metar": "METAR LEMD 190430Z 34003KT 310V020 CAVOK 04/01 Q1011 NOSIG",
      "taf": "TAF LEMD 182300Z 1900/2006 VRB04KT CAVOK TX21/1915Z TN06/1907Z"
    },
    {
      "icao": "LEMG",
      "alert": "OK",
      "vis_m": 9999,
      "fzfg": false,
      "metar_trigger": false,
      "taf_trigger": false,
      "metar": "METAR LEMG 190430Z 29008KT CAVOK 10/09 Q1007 NOSIG",
      "taf": "TAF LEMG 182300Z 1900/1924 VRB03KT CAVOK TX20/1913Z TN10/1906Z"
    },
    {
      "icao": "LEVC",
      "alert": "OK",
      "vis_m": 9999,
      "fzfg": false,
      "metar_trigger": false,
      "taf_trigger": false,
      "metar": "METAR LEVC 190430Z 32004KT 290V020 9999 BKN020 10/08 Q1014 NOSIG",
      "taf": "TAF LEVC 182300Z 1900/1924 02006KT 9999 SCT015 TX17/1912Z TN10/1907Z"
    },
    {
      "icao": "LEXJ",
      "alert": "OK",
      "vis_m": 6000,
      "fzfg": false,
      "metar_trigger": false,
      "taf_trigger": false,
      "metar": "METAR LEXJ 190430Z VRB01KT 6000 NSC 06/04 Q1008",
      "taf": "TAF LEXJ 190200Z 1903/2003 VRB03KT CAVOK TX21/1913Z TN09/1907Z"
    },
    {
      "icao": "LEZG",
      "alert": "OK",
      "vis_m": 9999,
      "fzfg": false,
      "metar_trigger": false,
      "taf_trigger": false,
      "metar": "METAR LEZG 190430Z 10009KT 9999 BKN020 OVC030 11/08 Q1014 NOSIG",
      "taf": "TAF LEZG 182300Z 1900/1924 10012KT 9999 BKN020 TX18/1914Z TN08/1907Z"
    },
    {
      "icao": "LEZL",
      "alert": "OK",
      "vis_m": 9000,
      "fzfg": false,
      "metar_trigger": false,
      "taf_trigger": false,
      "metar": "METAR LEZL 190430Z 06006KT 020V100 9000 NSC 15/08 Q1004 NOSIG",
      "taf": "TAF LEZL 190200Z 1903/2003 08009KT 9999 FEW035 TX24/1915Z TN13/1907Z"
    },
    {
      "icao": "LFBD",
      "alert": "OK",
      "vis_m": 9999,
      "fzfg": false,
      "metar_trigger": false,
      "taf_trigger": false,
      "metar": "METAR LFBD 190430Z AUTO 09013KT CAVOK 10/02 Q1013 NOSIG",
      "taf": "TAF LFBD 182300Z 1900/2006 12012KT CAVOK TX18/1914Z TN04/2006Z"
    },
    {
      "icao": "LFLL",
      "alert": "OK",
      "vis_m": 9999,
      "fzfg": false,
      "metar_trigger": false,
      "taf_trigger": false,
      "metar": "METAR LFLL 190430Z 18002KT CAVOK 04/02 Q1019 NOSIG",
      "taf": "TAF LFLL 182300Z 1900/2006 VRB03KT CAVOK"
    },
    {
      "icao": "LFLS",
      "alert": "OK",
      "vis_m": 9999,
      "fzfg": false,
      "metar_trigger": false,
      "taf_trigger": false,
      "metar": "METAR LFLS 190430Z AUTO 09008KT CAVOK 01/00 Q1019 NOSIG",
      "taf": "TAF LFLS 190200Z 1903/2003 09006KT CAVOK"
    },
    {
      "icao": "LFMN",
      "alert": "OK",
      "vis_m": 9999,
      "fzfg": false,
      "metar_trigger": false,
      "taf_trigger": false,
      "metar": "METAR LFMN 190430Z 33013KT CAVOK 08/M00 Q1017 NOSIG",
      "taf": "TAF LFMN 190200Z 1903/2009 34010KT CAVOK"
    },
    {
      "icao": "LFOB",
      "alert": "OK",
      "vis_m": 9999,
      "fzfg": false,
      "metar_trigger": false,
      "taf_trigger": false,
      "metar": "METAR LFOB 190430Z AUTO 17003KT 090V230 CAVOK 03/01 Q1022 NOSIG",
      "taf": "TAF LFOB 182300Z 1900/1924 08010KT CAVOK"
    },
    {
      "icao": "LFPO",
      "alert": "OK",
      "vis_m": 9999,
      "fzfg": false,
      "metar_trigger": false,
      "taf_trigger": false,
      "metar": "METAR LFPO 190430Z 06006KT CAVOK 06/02 Q1021 NOSIG",
      "taf": "TAF LFPO 182300Z 1900/2006 07008KT CAVOK"
    },
    {
      "icao": "LFSB",
      "alert": "OK",
      "vis_m": 8000,
      "fzfg": false,
      "metar_trigger": false,
      "taf_trigger": false,
      "metar": "METAR LFSB 190430Z AUTO VRB02KT 8000 NSC M00/M01 Q1021 TEMPO 3000 BCFG",
      "taf": "TAF LFSB 182300Z 1900/1924 VRB04KT CAVOK"
    },
    {
      "icao": "LGAV",
      "alert": "OK",
      "vis_m": 9999,
      "fzfg": false,
      "metar_trigger": false,
      "taf_trigger": false,
      "metar": "METAR LGAV 190450Z 01017G27KT 9999 BKN025 11/04 Q1010 NOSIG",
      "taf": "TAF LGAV 182300Z 1900/1924 36016KT 9999 FEW018 SCT025 BKN070"
    },
    {
      "icao": "LGTS",
      "alert": "OK",
      "vis_m": 9999,
      "fzfg": false,
      "metar_trigger": false,
      "taf_trigger": false,
      "metar": "METAR LGTS 190450Z VRB03KT 9999 FEW030 08/03 Q1014 NOSIG",
      "taf": "TAF LGTS 182300Z 1900/1924 VRB03KT 9999 BKN030"
    },
    {
      "icao": "LHBP",
      "alert": "OK",
      "vis_m": 9999,
      "fzfg": false,
      "metar_trigger": false,
      "taf_trigger": false,
      "metar": "METAR LHBP 190430Z 34005KT CAVOK 04/M03 Q1022 NOSIG",
      "taf": "TAF LHBP 182315Z 1900/1924 03006KT CAVOK"
    },
    {
      "icao": "LHDC",
      "alert": "OK",
      "vis_m": 9999,
      "fzfg": false,
      "metar_trigger": false,
      "taf_trigger": false,
      "metar": "METAR LHDC 190415Z AUTO 04008KT CAVOK 03/M03 Q1022",
      "taf": ""
    },
    {
      "icao": "LIBD",
      "alert": "OK",
      "vis_m": 9999,
      "fzfg": false,
      "metar_trigger": false,
      "taf_trigger": false,
      "metar": "METAR LIBD 190450Z 28005KT 9999 -RA BKN015 08/07 Q1009",
      "taf": "TAF LIBD 182300Z 1900/1924 VRB06KT 9999 SCT030"
    },
    {
      "icao": "LIBG",
      "alert": "OK",
      "vis_m": null,
      "fzfg": false,
      "metar_trigger": false,
      "taf_trigger": false,
      "metar": "",
      "taf": ""
    },
    {
      "icao": "LIBP",
      "alert": "OK",
      "vis_m": 9999,
      "fzfg": false,
      "metar_trigger": false,
      "taf_trigger": false,
      "metar": "METAR LIBP 190450Z AUTO 20006KT 9999 OVC041/// 08/08 Q1014",
      "taf": "TAF LIBP 182300Z 1900/1924 VRB05KT 9999 BKN020"
    },
    {
      "icao": "LIBR",
      "alert": "OK",
      "vis_m": 5000,
      "fzfg": false,
      "metar_trigger": false,
      "taf_trigger": false,
      "metar": "METAR LIBR 190450Z 28007KT 5000 RA BKN015 10/09 Q1009",
      "taf": "TAF LIBR 182300Z 1900/1924 VRB05KT 9999 BKN020"
    },
    {
      "icao": "LICA",
      "alert": "OK",
      "vis_m": 9999,
      "fzfg": false,
      "metar_trigger": false,
      "taf_trigger": false,
      "metar": "METAR LICA 190450Z AUTO 09005KT 9999 NCD 04/04 Q1009",
      "taf": "TAF LICA 182300Z 1900/1924 08006KT 8000 SCT050"
    },
    {
      "icao": "LICC",
      "alert": "OK",
      "vis_m": 9999,
      "fzfg": false,
      "metar_trigger": false,
      "taf_trigger": false,
      "metar": "METAR LICC 190450Z 22004KT CAVOK 06/05 Q1009",
      "taf": "TAF LICC 182300Z 1900/1924 25006KT 9999 SCT035"
    },
    {
      "icao": "LICJ",
      "alert": "OK",
      "vis_m": 9999,
      "fzfg": false,
      "metar_trigger": false,
      "taf_trigger": false,
      "metar": "METAR LICJ 190450Z 06007KT 020V100 9999 -RA SCT025 10/07 Q1010",
      "taf": "TAF LICJ 182300Z 1900/1924 VRB05KT 9999 SCT030"
    },
    {
      "icao": "LIMC",
      "alert": "OK",
      "vis_m": 9999,
      "fzfg": false,
      "metar_trigger": false,
      "taf_trigger": false,
      "metar": "METAR LIMC 190450Z 34005KT CAVOK 03/01 Q1020 NOSIG",
      "taf": "TAF LIMC 182300Z 1900/2006 35010KT 9999 FEW050"
    },
    {
      "icao": "LIME",
      "alert": "OK",
      "vis_m": 9999,
      "fzfg": false,
      "metar_trigger": false,
      "taf_trigger": false,
      "metar": "METAR LIME 190450Z 02006KT 9999 FEW060 06/00 Q1020 NOSIG",
      "taf": "TAF LIME 182300Z 1900/1924 01006KT 9999 FEW050"
    },
    {
      "icao": "LIMF",
      "alert": "OK",
      "vis_m": 9999,
      "fzfg": false,
      "metar_trigger": false,
      "taf_trigger": false,
      "metar": "METAR LIMF 190450Z VRB02KT 9999 SCT090 05/M02 Q1020",
      "taf": "TAF LIMF 182300Z 1900/1924 32010KT 9999 BKN060"
    },
    {
      "icao": "LIMJ",
      "alert": "OK",
      "vis_m": 9999,
      "fzfg": false,
      "metar_trigger": false,
      "taf_trigger": false,
      "metar": "METAR LIMJ 190450Z 06009KT CAVOK 11/M00 Q1018",
      "taf": "TAF LIMJ 182300Z 1900/1924 02016KT 9999 SCT060"
    },
    {
      "icao": "LIPE",
      "alert": "OK",
      "vis_m": 9999,
      "fzfg": false,
      "metar_trigger": false,
      "taf_trigger": false,
      "metar": "METAR LIPE 190450Z 27008KT CAVOK 05/01 Q1019",
      "taf": "TAF LIPE 182300Z 1900/1924 VRB05KT 9999 SCT050"
    },
    {
      "icao": "LIPH",
      "alert": "OK",
      "vis_m": 9999,
      "fzfg": false,
      "metar_trigger": false,
      "taf_trigger": false,
      "metar": "METAR LIPH 190450Z AUTO VRB01KT 9999 NCD 06/M00 Q1019",
      "taf": "TAF LIPH 182300Z 1900/1924 08010KT 9999 SCT060"
    },
    {
      "icao": "LIPQ",
      "alert": "OK",
      "vis_m": 9999,
      "fzfg": false,
      "metar_trigger": false,
      "taf_trigger": false,
      "metar": "METAR LIPQ 190450Z AUTO 08004KT 9999 NCD 10/M02 Q1019",
      "taf": "TAF LIPQ 182300Z 1900/1924 07012KT 9999 FEW060 SCT090"
    },
    {
      "icao": "LIPR",
      "alert": "OK",
      "vis_m": 9999,
      "fzfg": false,
      "metar_trigger": false,
      "taf_trigger": false,
      "metar": "METAR LIPR 190450Z AUTO 05011KT 9999 NCD 12/04 Q1016",
      "taf": "TAF LIPR 182300Z 1900/1924 04013KT 9999 BKN050"
    },
    {
      "icao": "LIPX",
      "alert": "OK",
      "vis_m": 9999,
      "fzfg": false,
      "metar_trigger": false,
      "taf_trigger": false,
      "metar": "METAR LIPX 190450Z AUTO 01003KT 310V100 9999 NCD 06/M02 Q1019",
      "taf": "TAF LIPX 182300Z 1900/1924 VRB05KT CAVOK"
    },
    {
      "icao": "LIPY",
      "alert": "OK",
      "vis_m": 9999,
      "fzfg": false,
      "metar_trigger": false,
      "taf_trigger": false,
      "metar": "METAR LIPY 190450Z AUTO 15003KT 080V210 9999 NCD 05/04 Q1015",
      "taf": "TAF LIPY 182300Z 1900/1924 03013KT 9999 BKN040"
    },
    {
      "icao": "LIPZ",
      "alert": "OK",
      "vis_m": 9999,
      "fzfg": false,
      "metar_trigger": false,
      "taf_trigger": false,
      "metar": "METAR LIPZ 190450Z 03007KT CAVOK 07/M01 Q1019 NOSIG",
      "taf": "TAF LIPZ 182300Z 1900/2006 02007KT 9999 SCT060"
    },
    {
      "icao": "LIRF",
      "alert": "OK",
      "vis_m": 9999,
      "fzfg": false,
      "metar_trigger": false,
      "taf_trigger": false,
      "metar": "METAR LIRF 190450Z 32005KT CAVOK 07/03 Q1012 NOSIG",
      "taf": "TAF LIRF 182300Z 1900/2006 VRB05KT 9999 FEW050"
    },
    {
      "icao": "LIRN",
      "alert": "OK",
      "vis_m": 9999,
      "fzfg": false,
      "metar_trigger": false,
      "taf_trigger": false,
      "metar": "METAR LIRN 190450Z 31003KT 9999 -RA FEW020 SCT040 08/06 Q1011 NOSIG",
      "taf": "TAF LIRN 182300Z 1900/1924 03008KT 9999 SCT035"
    },
    {
      "icao": "LIRP",
      "alert": "OK",
      "vis_m": 9999,
      "fzfg": false,
      "metar_trigger": false,
      "taf_trigger": false,
      "metar": "METAR LIRP 190445Z 05006KT CAVOK 11/M00 Q1016 NOSIG",
      "taf": "TAF LIRP 182300Z 1900/1924 04015KT 9999 SCT050"
    },
    {
      "icao": "LIRZ",
      "alert": "OK",
      "vis_m": 9999,
      "fzfg": false,
      "metar_trigger": false,
      "taf_trigger": false,
      "metar": "METAR LIRZ 190450Z AUTO 32003KT 290V010 9999 NCD 06/01 Q1014",
      "taf": "TAF LIRZ 182300Z 1900/1924 02010KT 9999 SCT030"
    },
    {
      "icao": "LJLJ",
      "alert": "OK",
      "vis_m": 9999,
      "fzfg": false,
      "metar_trigger": false,
      "taf_trigger": false,
      "metar": "METAR LJLJ 190430Z 09006KT 9999 FEW070 06/M03 Q1020 NOSIG",
      "taf": "TAF LJLJ 182300Z 1900/2000 06008KT 9999 FEW075"
    },
    {
      "icao": "LKMT",
      "alert": "OK",
      "vis_m": 9999,
      "fzfg": false,
      "metar_trigger": false,
      "taf_trigger": false,
      "metar": "METAR LKMT 190430Z 27001KT CAVOK M01/M03 Q1025 NOSIG",
      "taf": "TAF LKMT 182300Z 1900/1924 04006KT CAVOK"
    },
    {
      "icao": "LKPR",
      "alert": "OK",
      "vis_m": 9999,
      "fzfg": false,
      "metar_trigger": false,
      "taf_trigger": false,
      "metar": "METAR LKPR 190430Z 00000KT CAVOK 02/01 Q1025 NOSIG",
      "taf": "TAF LKPR 190200Z 1903/2009 VRB02KT CAVOK"
    },
    {
      "icao": "LLBG",
      "alert": "OK",
      "vis_m": 9999,
      "fzfg": false,
      "metar_trigger": false,
      "taf_trigger": false,
      "metar": "METAR LLBG 190450Z 19006KT CAVOK 19/11 Q1000 NOSIG RMK SCT110",
      "taf": "TAF LLBG 182302Z 1900/1924 17007KT CAVOK TX21/1910Z TN17/1904Z"
    },
    {
      "icao": "LMML",
      "alert": "OK",
      "vis_m": 9999,
      "fzfg": false,
      "metar_trigger": false,
      "taf_trigger": false,
      "metar": "METAR LMML 190445Z VRB02KT 9999 FEW038 11/10 Q1010 NOSIG",
      "taf": "TAF LMML 182300Z 1900/1924 26008KT 9999 SCT018"
    },
    {
      "icao": "LOWW",
      "alert": "OK",
      "vis_m": 9999,
      "fzfg": false,
      "metar_trigger": false,
      "taf_trigger": false,
      "metar": "METAR LOWW 190450Z 16002KT CAVOK 00/M04 Q1024 NOSIG",
      "taf": "TAF LOWW 190215Z 1903/2009 35006KT CAVOK TX14/1914Z TN01/1904Z"
    },
    {
      "icao": "LPFR",
      "alert": "OK",
      "vis_m": 9999,
      "fzfg": false,
      "metar_trigger": false,
      "taf_trigger": false,
      "metar": "METAR LPFR 190430Z 09010KT 9999 FEW015 FEW020CB BKN035 15/14 Q1003 RERA",
      "taf": "TAF LPFR 182300Z 1900/1924 10010KT 9999 SCT020"
    },
    {
      "icao": "LPMA",
      "alert": "OK",
      "vis_m": 9999,
      "fzfg": false,
      "metar_trigger": false,
      "taf_trigger": false,
      "metar": "METAR LPMA 190430Z 22008KT 9999 SCT013 FEW018CB 10/06 Q0996",
      "taf": "TAF LPMA 182300Z 1900/1924 VRB05KT 9999 SCT015"
    },
    {
      "icao": "LPPR",
      "alert": "OK",
      "vis_m": 9999,
      "fzfg": false,
      "metar_trigger": false,
      "taf_trigger": false,
      "metar": "METAR LPPR 190430Z 09010KT CAVOK 17/07 Q1003",
      "taf": "TAF LPPR 182300Z 1900/1924 09010KT 9999 SCT030"
    },
    {
      "icao": "LPPS",
      "alert": "OK",
      "vis_m": 9999,
      "fzfg": false,
      "metar_trigger": false,
      "taf_trigger": false,
      "metar": "METAR LPPS 190430Z 22016KT 9999 FEW014 12/05 Q0995",
      "taf": "TAF LPPS 182300Z 1900/2006 27013KT 9999 SCT015 SCT030"
    },
    {
      "icao": "LPPT",
      "alert": "OK",
      "vis_m": 9000,
      "fzfg": false,
      "metar_trigger": false,
      "taf_trigger": false,
      "metar": "METAR LPPT 190430Z 15013KT 9000 -RA FEW012 BKN020 14/12 Q1003",
      "taf": "TAF LPPT 182300Z 1900/2006 11013KT 9999 SCT030"
    },
    {
      "icao": "LQBK",
      "alert": "OK",
      "vis_m": 9999,
      "fzfg": false,
      "metar_trigger": false,
      "taf_trigger": false,
      "metar": "METAR LQBK 190430Z VRB01KT CAVOK 01/M02 Q1019 NOSIG",
      "taf": "TAF LQBK 182300Z 1900/1924 34005KT CAVOK TX13/1913Z TN01/1905Z"
    },
    {
      "icao": "LQSA",
      "alert": "OK",
      "vis_m": 9999,
      "fzfg": false,
      "metar_trigger": false,
      "taf_trigger": false,
      "metar": "METAR LQSA 190430Z 00000KT 9999 SCT040 02/01 Q1016",
      "taf": "TAF LQSA 182300Z 1900/1924 27005KT 9999 SCT060 TX08/1914Z TNM02/1905Z"
    },
    {
      "icao": "LQTZ",
      "alert": "OK",
      "vis_m": 9999,
      "fzfg": false,
      "metar_trigger": false,
      "taf_trigger": false,
      "metar": "METAR LQTZ 190430Z VRB02KT CAVOK 01/M01 Q1018",
      "taf": "TAF LQTZ 182300Z 1900/1924 11005KT CAVOK TX12/1913Z TN00/1905Z"
    },
    {
      "icao": "LRBC",
      "alert": "OK",
      "vis_m": 9999,
      "fzfg": false,
      "metar_trigger": false,
      "taf_trigger": false,
      "metar": "METAR LRBC 190430Z 35009KT 9999 OVC031 04/00 Q1022",
      "taf": "TAF LRBC 190200Z 1903/1912 34011KT 9999 OVC025"
    },
    {
      "icao": "LRBS",
      "alert": "OK",
      "vis_m": 9999,
      "fzfg": false,
      "metar_trigger": false,
      "taf_trigger": false,
      "metar": "METAR LRBS 190430Z 04008KT 010V070 9999 SCT037 05/01 Q1021 NOSIG",
      "taf": "TAF LRBS 182300Z 1900/1924 05009KT CAVOK"
    },
    {
      "icao": "LRBV",
      "alert": "OK",
      "vis_m": 9999,
      "fzfg": false,
      "metar_trigger": false,
      "taf_trigger": false,
      "metar": "METAR LRBV 190430Z AUTO 12006KT 9999 OVC053/// 02/M02 Q1020",
      "taf": "TAF LRBV 190200Z 1903/1912 VRB04KT 9999 BKN040"
    },
    {
      "icao": "LRCL",
      "alert": "OK",
      "vis_m": 9999,
      "fzfg": false,
      "metar_trigger": false,
      "taf_trigger": false,
      "metar": "METAR LRCL 190430Z VRB02KT 9999 SCT062 05/M03 Q1021",
      "taf": "TAF LRCL 190200Z 1903/1912 VRB04KT 9999 SCT060"
    },
    {
      "icao": "LRCV",
      "alert": "OK",
      "vis_m": 9999,
      "fzfg": false,
      "metar_trigger": false,
      "taf_trigger": false,
      "metar": "METAR LRCV 190430Z 04004KT CAVOK 04/02 Q1020",
      "taf": "TAF LRCV 190200Z 1903/1912 06008KT CAVOK"
    },
    {
      "icao": "LRIA",
      "alert": "OK",
      "vis_m": 9999,
      "fzfg": false,
      "metar_trigger": false,
      "taf_trigger": false,
      "metar": "METAR LRIA 190430Z VRB02KT 9999 SCT041 02/00 Q1022",
      "taf": "TAF LRIA 190200Z 1903/1912 36007KT 9999 OVC025"
    },
    {
      "icao": "LROP",
      "alert": "OK",
      "vis_m": 9999,
      "fzfg": false,
      "metar_trigger": false,
      "taf_trigger": false,
      "metar": "METAR LROP 190430Z 06012KT 9999 BKN043 05/M01 Q1021 NOSIG",
      "taf": "TAF LROP 182300Z 1900/1924 05009KT CAVOK"
    },
    {
      "icao": "LRSB",
      "alert": "OK",
      "vis_m": 9999,
      "fzfg": false,
      "metar_trigger": false,
      "taf_trigger": false,
      "metar": "METAR LRSB 190430Z 22003KT 9999 FEW050 BKN068 03/M01 Q1020",
      "taf": "TAF LRSB 182300Z 1900/1924 10008KT 9999 BKN060"
    },
    {
      "icao": "LRSM",
      "alert": "OK",
      "vis_m": 9999,
      "fzfg": false,
      "metar_trigger": false,
      "taf_trigger": false,
      "metar": "METAR LRSM 190430Z AUTO 05003KT 9999 BKN070/// 03/M01 Q1022",
      "taf": "TAF LRSM 190200Z 1903/1912 VRB04KT CAVOK"
    },
    {
      "icao": "LRSV",
      "alert": "OK",
      "vis_m": 9999,
      "fzfg": false,
      "metar_trigger": false,
      "taf_trigger": false,
      "metar": "METAR LRSV 190430Z 33009KT 9999 BKN020 02/00 Q1022",
      "taf": "TAF LRSV 190200Z 1903/1912 33006KT 9999 BKN025"
    },
    {
      "icao": "LRTM",
      "alert": "OK",
      "vis_m": 9999,
      "fzfg": false,
      "metar_trigger": false,
      "taf_trigger": false,
      "metar": "METAR LRTM 190430Z AUTO VRB02KT 9999 NCD 04/M02 Q1021",
      "taf": "TAF LRTM 190200Z 1903/1912 VRB04KT CAVOK"
    },
    {
      "icao": "LRTR",
      "alert": "OK",
      "vis_m": 9999,
      "fzfg": false,
      "metar_trigger": false,
      "taf_trigger": false,
      "metar": "METAR LRTR 190430Z 11005KT CAVOK 02/M01 Q1020",
      "taf": "TAF LRTR 182300Z 1900/1924 VRB04KT CAVOK"
    },
    {
      "icao": "LTAC",
      "alert": "OK",
      "vis_m": 9999,
      "fzfg": false,
      "metar_trigger": false,
      "taf_trigger": false,
      "metar": "METAR LTAC 190450Z 06007KT 310V110 9999 SCT040 BKN080 10/02 Q1006 NOSIG RMK RWY21C 08014KT RWY03L 05006KT 340V100 RWY21R 06013KT RWY03R 06004KT 360V100 RWY21L 07014KT",
      "taf": "TAF LTAC 182240Z 1900/1924 03008KT 9999 SCT040 BKN080"
    },
    {
      "icao": "LTFM",
      "alert": "OK",
      "vis_m": 9999,
      "fzfg": false,
      "metar_trigger": false,
      "taf_trigger": false,
      "metar": "METAR LTFM 190450Z 04020KT 9999 FEW014 BKN035 BKN120 08/05 Q1014 NOSIG RMK RWY17L 04018KT RWY34L 03017KT RWY16R 04018KT RWY36 04020KT RWY18 05018KT",
      "taf": "TAF LTFM 182240Z 1900/2006 04018G28KT 9999 SCT014 BKN028"
    },
    {
      "icao": "LUKK",
      "alert": "OK",
      "vis_m": 9999,
      "fzfg": false,
      "metar_trigger": false,
      "taf_trigger": false,
      "metar": "METAR LUKK 190430Z 36006KT 9999 OVC042 03/01 Q1022 NOSIG",
      "taf": "TAF LUKK 182313Z 1900/1924 03009KT 9999 BKN025"
    },
    {
      "icao": "LWOH",
      "alert": "OK",
      "vis_m": null,
      "fzfg": false,
      "metar_trigger": false,
      "taf_trigger": false,
      "metar": "",
      "taf": "TAF LWOH 190210Z 1903/2003 36010KT 9999 BKN040 BKN080"
    },
    {
      "icao": "LWSK",
      "alert": "OK",
      "vis_m": 9999,
      "fzfg": false,
      "metar_trigger": false,
      "taf_trigger": false,
      "metar": "METAR LWSK 190420Z 01004KT 9999 OVC062 07/01 Q1015 NOSIG",
      "taf": "TAF LWSK 190210Z 1903/2003 VRB02KT 9999 BKN050"
    },
    {
      "icao": "LYBE",
      "alert": "OK",
      "vis_m": 9999,
      "fzfg": false,
      "metar_trigger": false,
      "taf_trigger": false,
      "metar": "METAR LYBE 190430Z 05006KT 020V090 CAVOK 06/M01 Q1019 NOSIG",
      "taf": "TAF LYBE 182300Z 1900/1924 06008KT CAVOK TX13/1913Z TN04/1905Z"
    },
    {
      "icao": "LYNI",
      "alert": "OK",
      "vis_m": 9999,
      "fzfg": false,
      "metar_trigger": false,
      "taf_trigger": false,
      "metar": "METAR LYNI 190430Z 03006KT CAVOK 07/M02 Q1017 NOSIG",
      "taf": "TAF LYNI 182300Z 1900/1924 10005KT 9999 SCT080 TX14/1913Z TN03/1905Z"
    },
    {
      "icao": "LYPG",
      "alert": "OK",
      "vis_m": 9999,
      "fzfg": false,
      "metar_trigger": false,
      "taf_trigger": false,
      "metar": "METAR LYPG 190430Z 01009KT 340V040 9999 BKN080 11/M00 Q1011 NOSIG",
      "taf": "TAF LYPG 182300Z 1900/1924 36010KT 9999 FEW050 BKN090 TX16/1913Z TN10/1905Z"
    },
    {
      "icao": "LZIB",
      "alert": "OK",
      "vis_m": 9999,
      "fzfg": false,
      "metar_trigger": false,
      "taf_trigger": false,
      "metar": "METAR LZIB 190430Z 34003KT CAVOK 03/M02 Q1024 NOSIG",
      "taf": "TAF LZIB 182315Z 1900/2000 05007KT CAVOK"
    },
    {
      "icao": "LZKZ",
      "alert": "OK",
      "vis_m": 9999,
      "fzfg": false,
      "metar_trigger": false,
      "taf_trigger": false,
      "metar": "METAR LZKZ 190430Z 01011KT CAVOK 08/M01 Q1023 NOSIG",
      "taf": "TAF LZKZ 182315Z 1900/2000 01012KT CAVOK"
    },
    {
      "icao": "LZTT",
      "alert": "OK",
      "vis_m": 9999,
      "fzfg": false,
      "metar_trigger": false,
      "taf_trigger": false,
      "metar": "METAR LZTT 190430Z 06007KT 9999 BKN043 02/M04 Q1023",
      "taf": "TAF LZTT 182315Z 1900/2000 08006KT 9999 FEW045"
    },
    {
      "icao": "OEJN",
      "alert": "OK",
      "vis_m": 9999,
      "fzfg": false,
      "metar_trigger": false,
      "taf_trigger": false,
      "metar": "METAR OEJN 190400Z 31013KT 9999 TS FEW030CB BKN040 28/19 Q1005 NOSIG",
      "taf": "TAF OEJN 182300Z 1900/2006 15012KT 7000 SCT040"
    },
    {
      "icao": "OEMA",
      "alert": "OK",
      "vis_m": 9999,
      "fzfg": false,
      "metar_trigger": false,
      "taf_trigger": false,
      "metar": "METAR OEMA 190400Z VRB02KT 9999 SCT040 19/16 Q1009 NOSIG",
      "taf": "TAF OEMA 182300Z 1900/2006 08010KT 7000 SCT040"
    },
    {
      "icao": "OJAI",
      "alert": "OK",
      "vis_m": 4000,
      "fzfg": false,
      "metar_trigger": false,
      "taf_trigger": false,
      "metar": "METAR OJAI 190400Z 34005KT 4000 -TSRA FEW020CB BKN030 11/09 Q1001 NOSIG",
      "taf": "TAF OJAI 182300Z 1900/2006 13018KT 4000 RA BR FEW020CB SCT025TCU"
    },
    {
      "icao": "OMAA",
      "alert": "OK",
      "vis_m": null,
      "fzfg": false,
      "metar_trigger": false,
      "taf_trigger": false,
      "metar": "",
      "taf": ""
    },
    {
      "icao": "OMDB",
      "alert": "OK",
      "vis_m": null,
      "fzfg": false,
      "metar_trigger": false,
      "taf_trigger": false,
      "metar": "",
      "taf": ""
    },
    {
      "icao": "UAAA",
      "alert": "OK",
      "vis_m": 9000,
      "fzfg": false,
      "metar_trigger": false,
      "taf_trigger": false,
      "metar": "METAR UAAA 190430Z 02002MPS 310V090 9000 SCT200 07/M02 Q1019 NOSIG",
      "taf": "TAF UAAA 182302Z 1900/1924 16003MPS 9999 NSC TX14/1909Z TNM03/1901Z"
    },
    {
      "icao": "UBBB",
      "alert": "OK",
      "vis_m": 9999,
      "fzfg": false,
      "metar_trigger": false,
      "taf_trigger": false,
      "metar": "METAR UBBB 190430Z 20010KT 9999 BKN017 11/07 Q1020 NOSIG",
      "taf": "TAF UBBB 182307Z 1900/1924 18006KT 9999 SCT030 TX14/1910Z TN05/1901Z"
    },
    {
      "icao": "UDSG",
      "alert": "OK",
      "vis_m": 9999,
      "fzfg": false,
      "metar_trigger": false,
      "taf_trigger": false,
      "metar": "METAR UDSG 190430Z 20002KT 9999 NSC M03/M04 Q1018 NOSIG",
      "taf": "TAF UDSG 182300Z 1900/1924 VRB06KT 9999 FEW050"
    },
    {
      "icao": "UDYZ",
      "alert": "OK",
      "vis_m": 9999,
      "fzfg": false,
      "metar_trigger": false,
      "taf_trigger": false,
      "metar": "METAR UDYZ 190430Z 12001KT 9999 NSC 04/00 Q1017 NOSIG",
      "taf": "TAF UDYZ 182300Z 1900/1924 VRB06KT 9999 FEW050"
    },
    {
      "icao": "UGKO",
      "alert": "OK",
      "vis_m": 9999,
      "fzfg": false,
      "metar_trigger": false,
      "taf_trigger": false,
      "metar": "METAR UGKO 190430Z 08025KT CAVOK 13/04 Q1011 NOSIG",
      "taf": "TAF UGKO 182300Z 1900/1924 08027G39KT CAVOK TX21/1911Z TN13/1903Z"
    }
  ]
}