{
  "ts_utc": "2026-05-17T11:45:19Z",
  "threshold_m": 150,
  "source": "stations_override.txt (ICAO list) + aviationweather.gov (METAR/TAF raw)",
  "station_count": 159,
  "stations": [
    {
      "icao": "BIKF",
      "alert": "OK",
      "vis_m": 9999,
      "fzfg": false,
      "metar_trigger": false,
      "taf_trigger": false,
      "metar": "METAR BIKF 171130Z 13013KT 9999 BKN029 BKN061 08/02 Q1007",
      "taf": "TAF BIKF 171026Z 1712/1812 13013KT 9999 SCT050 TX09/1714Z TN03/1804Z"
    },
    {
      "icao": "BKPR",
      "alert": "OK",
      "vis_m": 9999,
      "fzfg": false,
      "metar_trigger": false,
      "taf_trigger": false,
      "metar": "METAR BKPR 171130Z 32012KT 9999 BKN040 14/06 Q1009 NOSIG",
      "taf": "TAF BKPR 171130Z 1712/1812 32008KT 9999 SCT030 BKN050"
    },
    {
      "icao": "EBCI",
      "alert": "OK",
      "vis_m": 9999,
      "fzfg": false,
      "metar_trigger": false,
      "taf_trigger": false,
      "metar": "METAR EBCI 171120Z 21010KT 9999 FEW013 BKN020 BKN030 13/09 Q1013 NOSIG",
      "taf": "TAF EBCI 171100Z 1712/1818 20008KT 9999 FEW020TCU SCT030"
    },
    {
      "icao": "EDDB",
      "alert": "OK",
      "vis_m": 9999,
      "fzfg": false,
      "metar_trigger": false,
      "taf_trigger": false,
      "metar": "METAR EDDB 171120Z AUTO 22007KT 180V250 CAVOK 17/03 Q1015 NOSIG",
      "taf": "TAF EDDB 171100Z 1712/1812 21008KT CAVOK"
    },
    {
      "icao": "EDDH",
      "alert": "OK",
      "vis_m": 9999,
      "fzfg": false,
      "metar_trigger": false,
      "taf_trigger": false,
      "metar": "METAR EDDH 171120Z AUTO 17012KT 9999 SCT048 16/06 Q1013 NOSIG",
      "taf": "TAF EDDH 171100Z 1712/1818 20010KT 9999 SCT045"
    },
    {
      "icao": "EDDK",
      "alert": "OK",
      "vis_m": 9999,
      "fzfg": false,
      "metar_trigger": false,
      "taf_trigger": false,
      "metar": "METAR EDDK 171120Z AUTO 15009KT 120V180 9999 BKN048 14/08 Q1014 TEMPO RA",
      "taf": "TAF EDDK 171100Z 1712/1818 16009KT 9999 BKN030"
    },
    {
      "icao": "EDDN",
      "alert": "OK",
      "vis_m": 9999,
      "fzfg": false,
      "metar_trigger": false,
      "taf_trigger": false,
      "metar": "METAR EDDN 171120Z AUTO 27005KT 220V340 CAVOK 15/03 Q1015 TEMPO 25010KT SHRA SCT045TCU",
      "taf": "TAF EDDN 171100Z 1712/1812 28005KT CAVOK"
    },
    {
      "icao": "EDDS",
      "alert": "OK",
      "vis_m": 9999,
      "fzfg": false,
      "metar_trigger": false,
      "taf_trigger": false,
      "metar": "METAR EDDS 171120Z AUTO 08004KT 350V130 CAVOK 16/03 Q1015 NOSIG",
      "taf": "TAF EDDS 171100Z 1712/1812 28004KT 9999 SCT045"
    },
    {
      "icao": "EDFH",
      "alert": "OK",
      "vis_m": 9999,
      "fzfg": false,
      "metar_trigger": false,
      "taf_trigger": false,
      "metar": "METAR EDFH 171120Z VRB04KT 9999 FEW029 BKN034 13/05 Q1014",
      "taf": "TAF EDFH 171100Z 1712/1812 23008KT 9999 SCT020 BKN030"
    },
    {
      "icao": "EDJA",
      "alert": "OK",
      "vis_m": 9999,
      "fzfg": false,
      "metar_trigger": false,
      "taf_trigger": false,
      "metar": "METAR EDJA 171120Z VRB02KT CAVOK 13/03 Q1016",
      "taf": "TAF EDJA 171100Z 1712/1721 24005KT 9999 SCT045"
    },
    {
      "icao": "EDLW",
      "alert": "OK",
      "vis_m": 9999,
      "fzfg": false,
      "metar_trigger": false,
      "taf_trigger": false,
      "metar": "METAR EDLW 171120Z 20010KT 9999 FEW024 SCT045 14/09 Q1013",
      "taf": "TAF EDLW 171100Z 1712/1812 20010KT 9999 BKN040"
    },
    {
      "icao": "EDNY",
      "alert": "OK",
      "vis_m": 9999,
      "fzfg": false,
      "metar_trigger": false,
      "taf_trigger": false,
      "metar": "METAR EDNY 171120Z 21005KT CAVOK 15/02 Q1016",
      "taf": "TAF EDNY 171100Z 1712/1721 22005KT CAVOK"
    },
    {
      "icao": "EDSB",
      "alert": "OK",
      "vis_m": 9999,
      "fzfg": false,
      "metar_trigger": false,
      "taf_trigger": false,
      "metar": "METAR EDSB 171120Z 21007KT 170V290 CAVOK 17/04 Q1015",
      "taf": "TAF EDSB 171100Z 1712/1812 23005KT 9999 FEW045"
    },
    {
      "icao": "EETN",
      "alert": "OK",
      "vis_m": 9999,
      "fzfg": false,
      "metar_trigger": false,
      "taf_trigger": false,
      "metar": "METAR EETN 171120Z 33007KT 300V010 CAVOK 10/07 Q1016 NOSIG",
      "taf": "TAF EETN 171130Z 1712/1812 33010KT CAVOK"
    },
    {
      "icao": "EFTU",
      "alert": "OK",
      "vis_m": 9999,
      "fzfg": false,
      "metar_trigger": false,
      "taf_trigger": false,
      "metar": "METAR EFTU 171120Z AUTO 19008KT 160V240 9999 BKN013 10/06 Q1015",
      "taf": "TAF EFTU 171124Z 1712/1812 19010KT 9999 BKN013"
    },
    {
      "icao": "EGBB",
      "alert": "OK",
      "vis_m": 9999,
      "fzfg": false,
      "metar_trigger": false,
      "taf_trigger": false,
      "metar": "METAR EGBB 171120Z 24008KT 160V290 9999 VCSH SCT036CB 13/05 Q1009",
      "taf": ""
    },
    {
      "icao": "EGGP",
      "alert": "OK",
      "vis_m": 9999,
      "fzfg": false,
      "metar_trigger": false,
      "taf_trigger": false,
      "metar": "METAR EGGP 171120Z 29009KT 250V330 9999 FEW024 BKN039 13/06 Q1008",
      "taf": "TAF EGGP 171102Z 1712/1812 26012KT 9999 SCT020"
    },
    {
      "icao": "EGGW",
      "alert": "OK",
      "vis_m": 9999,
      "fzfg": false,
      "metar_trigger": false,
      "taf_trigger": false,
      "metar": "METAR EGGW 171120Z AUTO 27013KT 9999 FEW037 14/05 Q1010",
      "taf": "TAF EGGW 171104Z 1712/1812 27012KT 9999 SCT030"
    },
    {
      "icao": "EGKK",
      "alert": "OK",
      "vis_m": 9999,
      "fzfg": false,
      "metar_trigger": false,
      "taf_trigger": false,
      "metar": "METAR EGKK 171120Z 24010KT 210V270 9999 FEW032 15/05 Q1011",
      "taf": "TAF EGKK 171055Z 1712/1818 24008KT 9999 SCT035"
    },
    {
      "icao": "EGNM",
      "alert": "OK",
      "vis_m": 9999,
      "fzfg": false,
      "metar_trigger": false,
      "taf_trigger": false,
      "metar": "METAR EGNM 171120Z 25011KT 9999 -SHRA SCT020TCU 08/05 Q1008",
      "taf": "TAF EGNM 171101Z 1712/1812 26012KT 9999 SCT035"
    },
    {
      "icao": "EGPD",
      "alert": "OK",
      "vis_m": 9999,
      "fzfg": false,
      "metar_trigger": false,
      "taf_trigger": false,
      "metar": "METAR EGPD 171120Z 26005KT 220V310 9999 VCSH SCT023 13/04 Q1001",
      "taf": "TAF EGPD 171057Z 1712/1812 21005KT 9999 FEW009 SCT030"
    },
    {
      "icao": "EGPF",
      "alert": "OK",
      "vis_m": 9999,
      "fzfg": false,
      "metar_trigger": false,
      "taf_trigger": false,
      "metar": "METAR EGPF 171120Z AUTO 22015KT 9999 SCT024/// //////CB 12/08 Q1004",
      "taf": "TAF EGPF 171056Z 1712/1812 23007KT 9999 SCT030"
    },
    {
      "icao": "EHBK",
      "alert": "OK",
      "vis_m": 9999,
      "fzfg": false,
      "metar_trigger": false,
      "taf_trigger": false,
      "metar": "METAR EHBK 171125Z AUTO 22013KT 180V250 9999 BKN021 BKN024 OVC033 15/10 Q1012 NOSIG",
      "taf": "TAF EHBK 171119Z 1712/1818 21010KT 9999 BKN025"
    },
    {
      "icao": "EHEH",
      "alert": "OK",
      "vis_m": 9999,
      "fzfg": false,
      "metar_trigger": false,
      "taf_trigger": false,
      "metar": "METAR EHEH 171125Z AUTO 20010KT 160V250 9999 SCT017 OVC022 14/09 Q1012 WHT BECMG SCT016 BKN020",
      "taf": "TAF EHEH 170511Z 1706/1812 19008KT 9999 SCT020 FEW040 BKN050"
    },
    {
      "icao": "EKBI",
      "alert": "OK",
      "vis_m": 9999,
      "fzfg": false,
      "metar_trigger": false,
      "taf_trigger": false,
      "metar": "METAR EKBI 171120Z AUTO 16009KT 120V200 9999 BKN065/// 12/03 Q1012",
      "taf": "TAF EKBI 171133Z 1712/1812 17010KT 9999 BKN030"
    },
    {
      "icao": "EKCH",
      "alert": "OK",
      "vis_m": 9999,
      "fzfg": false,
      "metar_trigger": false,
      "taf_trigger": false,
      "metar": "METAR EKCH 171120Z AUTO 16014KT 9999 FEW076/// 13/06 Q1015 NOSIG",
      "taf": "TAF EKCH 171127Z 1712/1812 15014KT 9999 FEW030"
    },
    {
      "icao": "ENAL",
      "alert": "OK",
      "vis_m": 9999,
      "fzfg": false,
      "metar_trigger": false,
      "taf_trigger": false,
      "metar": "METAR ENAL 171120Z 27013KT CAVOK 13/04 Q1005",
      "taf": "TAF ENAL 171100Z 1712/1721 25015KT CAVOK"
    },
    {
      "icao": "ENBR",
      "alert": "OK",
      "vis_m": 9999,
      "fzfg": false,
      "metar_trigger": false,
      "taf_trigger": false,
      "metar": "METAR ENBR 171120Z 16013KT 9999 FEW015CB SCT030 10/06 Q1007 NOSIG RMK WIND 1200FT 14016KT",
      "taf": "TAF ENBR 171100Z 1712/1812 17012KT 9999 FEW020 BKN045"
    },
    {
      "icao": "ENGM",
      "alert": "OK",
      "vis_m": 9999,
      "fzfg": false,
      "metar_trigger": false,
      "taf_trigger": false,
      "metar": "METAR ENGM 171120Z 17011KT 9999 VCSH SCT035 14/04 Q1007 TEMPO SCT025TCU",
      "taf": ""
    },
    {
      "icao": "ENHD",
      "alert": "OK",
      "vis_m": 9999,
      "fzfg": false,
      "metar_trigger": false,
      "taf_trigger": false,
      "metar": "METAR ENHD 171120Z 21012KT 9999 SCT039 10/04 Q1007",
      "taf": "TAF ENHD 171100Z 1712/1721 17012KT 9999 SCT040"
    },
    {
      "icao": "ENTC",
      "alert": "OK",
      "vis_m": 9999,
      "fzfg": false,
      "metar_trigger": false,
      "taf_trigger": false,
      "metar": "METAR ENTC 171120Z 04012KT 010V070 9999 SCT024 09/02 Q1009 NOSIG RMK WIND 2600FT 09007KT",
      "taf": "TAF ENTC 171100Z 1712/1812 02014KT 9999 SCT020"
    },
    {
      "icao": "ENTO",
      "alert": "OK",
      "vis_m": 9999,
      "fzfg": false,
      "metar_trigger": false,
      "taf_trigger": false,
      "metar": "METAR ENTO 171120Z 20014KT 9999 FEW022 12/07 Q1009 NOSIG",
      "taf": "TAF ENTO 171100Z 1712/1812 20012KT 9999 FEW020"
    },
    {
      "icao": "ENVA",
      "alert": "OK",
      "vis_m": 9999,
      "fzfg": false,
      "metar_trigger": false,
      "taf_trigger": false,
      "metar": "METAR ENVA 171120Z 32002KT 9999 FEW091TCU 14/06 Q1004 TEMPO SHRA BKN025CB RMK WIND 670FT 29009KT",
      "taf": "TAF ENVA 171100Z 1712/1812 27010KT CAVOK"
    },
    {
      "icao": "ENZV",
      "alert": "OK",
      "vis_m": 9999,
      "fzfg": false,
      "metar_trigger": false,
      "taf_trigger": false,
      "metar": "METAR ENZV 171120Z 18012KT 9999 SCT032 SCT040 12/04 Q1008 NOSIG",
      "taf": "TAF ENZV 171100Z 1712/1812 16012KT 9999 FEW020 SCT040"
    },
    {
      "icao": "EPGD",
      "alert": "OK",
      "vis_m": 9999,
      "fzfg": false,
      "metar_trigger": false,
      "taf_trigger": false,
      "metar": "METAR EPGD 171130Z 06013KT CAVOK 12/03 Q1016",
      "taf": "TAF EPGD 171130Z 1712/1812 04010KT 9999 SCT048"
    },
    {
      "icao": "EPKK",
      "alert": "OK",
      "vis_m": 9999,
      "fzfg": false,
      "metar_trigger": false,
      "taf_trigger": false,
      "metar": "METAR EPKK 171130Z 28007KT 9999 FEW012 OVC026 10/07 Q1013",
      "taf": "TAF EPKK 171130Z 1712/1812 28007KT 9999 OVC030"
    },
    {
      "icao": "EPKT",
      "alert": "OK",
      "vis_m": 9999,
      "fzfg": false,
      "metar_trigger": false,
      "taf_trigger": false,
      "metar": "METAR EPKT 171130Z 32007KT 9999 -RA FEW028 12/06 Q1014",
      "taf": "TAF EPKT 171130Z 1712/1812 32007KT 9999 -RA BKN045"
    },
    {
      "icao": "EPLB",
      "alert": "OK",
      "vis_m": 9999,
      "fzfg": false,
      "metar_trigger": false,
      "taf_trigger": false,
      "metar": "METAR EPLB 171130Z 35008KT 9999 BKN009 BKN020 15/13 Q1011",
      "taf": "TAF EPLB 171130Z 1712/1812 35010KT 9999 OVC008"
    },
    {
      "icao": "EPMO",
      "alert": "OK",
      "vis_m": 9999,
      "fzfg": false,
      "metar_trigger": false,
      "taf_trigger": false,
      "metar": "METAR EPMO 171130Z 01012KT 9999 SCT027 BKN039 13/06 Q1014",
      "taf": "TAF EPMO 171130Z 1712/1812 36010KT 9999 BKN025"
    },
    {
      "icao": "EPPO",
      "alert": "OK",
      "vis_m": 9999,
      "fzfg": false,
      "metar_trigger": false,
      "taf_trigger": false,
      "metar": "METAR EPPO 171130Z 33005KT 290V020 CAVOK 17/01 Q1015",
      "taf": "TAF EPPO 171130Z 1712/1812 30006KT CAVOK"
    },
    {
      "icao": "EPRA",
      "alert": "OK",
      "vis_m": 9999,
      "fzfg": false,
      "metar_trigger": false,
      "taf_trigger": false,
      "metar": "METAR EPRA 171130Z 35009KT 9999 BKN008 OVC015 12/10 Q1012",
      "taf": "TAF EPRA 171130Z 1712/1721 35010KT 9999 BKN010 OVC020"
    },
    {
      "icao": "EPRZ",
      "alert": "OK",
      "vis_m": 7000,
      "fzfg": false,
      "metar_trigger": false,
      "taf_trigger": false,
      "metar": "METAR EPRZ 171130Z 33007KT 7000 -DZ OVC004 13/12 Q1011",
      "taf": "TAF EPRZ 171130Z 1712/1812 32008KT 7000 OVC004"
    },
    {
      "icao": "EPSC",
      "alert": "OK",
      "vis_m": 9999,
      "fzfg": false,
      "metar_trigger": false,
      "taf_trigger": false,
      "metar": "METAR EPSC 171130Z VRB01KT CAVOK 14/05 Q1016",
      "taf": "TAF EPSC 171130Z 1712/1812 VRB03KT CAVOK"
    },
    {
      "icao": "EPSY",
      "alert": "OK",
      "vis_m": 9999,
      "fzfg": false,
      "metar_trigger": false,
      "taf_trigger": false,
      "metar": "METAR EPSY 171130Z 02013KT CAVOK 14/04 Q1015",
      "taf": "TAF EPSY 171130Z 1712/1721 02013KT 9999 BKN040"
    },
    {
      "icao": "EPWA",
      "alert": "OK",
      "vis_m": 9999,
      "fzfg": false,
      "metar_trigger": false,
      "taf_trigger": false,
      "metar": "METAR EPWA 171130Z 36015KT 9999 BKN023 13/07 Q1013 NOSIG",
      "taf": "TAF EPWA 171130Z 1712/1812 36012KT 9999 BKN025"
    },
    {
      "icao": "EPWR",
      "alert": "OK",
      "vis_m": 9999,
      "fzfg": false,
      "metar_trigger": false,
      "taf_trigger": false,
      "metar": "METAR EPWR 171130Z 31006KT 280V030 9999 FEW044 15/03 Q1016",
      "taf": "TAF EPWR 171130Z 1712/1812 32008KT 9999 FEW040"
    },
    {
      "icao": "ESGG",
      "alert": "OK",
      "vis_m": 9999,
      "fzfg": false,
      "metar_trigger": false,
      "taf_trigger": false,
      "metar": "METAR ESGG 171120Z 23012KT 9999 BKN028 OVC039 10/04 Q1012",
      "taf": "TAF ESGG 171130Z 1712/1812 22012KT 9999 BKN030"
    },
    {
      "icao": "ESKN",
      "alert": "OK",
      "vis_m": 9999,
      "fzfg": false,
      "metar_trigger": false,
      "taf_trigger": false,
      "metar": "METAR ESKN 171120Z 23012KT 200V270 9999 FEW042CB SCT060 14/05 Q1012",
      "taf": "TAF ESKN 171130Z 1712/1812 22010KT 9999 SCT045"
    },
    {
      "icao": "ESMS",
      "alert": "OK",
      "vis_m": 9999,
      "fzfg": false,
      "metar_trigger": false,
      "taf_trigger": false,
      "metar": "METAR ESMS 171120Z 20011KT 160V230 CAVOK 13/04 Q1015",
      "taf": "TAF ESMS 171127Z 1712/1812 18012KT 9999 FEW035"
    },
    {
      "icao": "ESSA",
      "alert": "OK",
      "vis_m": 9999,
      "fzfg": false,
      "metar_trigger": false,
      "taf_trigger": false,
      "metar": "METAR ESSA 171120Z 24014KT 9999 FEW038 BKN064 13/04 Q1012 TEMPO FEW035TCU",
      "taf": "TAF ESSA 171130Z 1712/1812 24014KT 9999 SCT030"
    },
    {
      "icao": "EYKA",
      "alert": "OK",
      "vis_m": 9999,
      "fzfg": false,
      "metar_trigger": false,
      "taf_trigger": false,
      "metar": "METAR EYKA 171120Z 36006KT 340V040 9999 OVC017 14/11 Q1014",
      "taf": "TAF EYKA 171100Z 1712/1812 36010KT 9000 BKN025"
    },
    {
      "icao": "EYPA",
      "alert": "OK",
      "vis_m": 9999,
      "fzfg": false,
      "metar_trigger": false,
      "taf_trigger": false,
      "metar": "METAR EYPA 171120Z 32004KT 240V010 CAVOK 12/05 Q1017",
      "taf": "TAF EYPA 171100Z 1712/1812 VRB03KT 9000 NSC"
    },
    {
      "icao": "EYVI",
      "alert": "OK",
      "vis_m": 9999,
      "fzfg": false,
      "metar_trigger": false,
      "taf_trigger": false,
      "metar": "METAR EYVI 171120Z 35010KT 310V020 9999 SCT026 20/14 Q1012 NOSIG",
      "taf": "TAF EYVI 171100Z 1712/1812 36008KT 9000 BKN030"
    },
    {
      "icao": "GCFV",
      "alert": "OK",
      "vis_m": 9999,
      "fzfg": false,
      "metar_trigger": false,
      "taf_trigger": false,
      "metar": "METAR GCFV 171130Z 02016KT 9999 FEW035 BKN040 22/12 Q1021",
      "taf": "TAF GCFV 170800Z 1709/1809 02015KT 9999 SCT035 TX23/1714Z TN17/1806Z"
    },
    {
      "icao": "GCLP",
      "alert": "OK",
      "vis_m": 9999,
      "fzfg": false,
      "metar_trigger": false,
      "taf_trigger": false,
      "metar": "METAR GCLP 171130Z 01025KT 9999 FEW040 23/10 Q1022 NOSIG",
      "taf": "TAF GCLP 170800Z 1709/1809 01021KT 9999 FEW030 TX23/1714Z TN17/1806Z"
    },
    {
      "icao": "GCTS",
      "alert": "OK",
      "vis_m": 9999,
      "fzfg": false,
      "metar_trigger": false,
      "taf_trigger": false,
      "metar": "METAR GCTS 171130Z 08021KT 050V120 9999 FEW040 24/10 Q1022 NOSIG",
      "taf": "TAF GCTS 170800Z 1709/1809 09017KT 9999 BKN035 TX24/1714Z TN16/1806Z"
    },
    {
      "icao": "GMAD",
      "alert": "OK",
      "vis_m": 9999,
      "fzfg": false,
      "metar_trigger": false,
      "taf_trigger": false,
      "metar": "METAR GMAD 171130Z 21008KT 9999 FEW020 23/12 Q1016 NOSIG",
      "taf": "TAF GMAD 171100Z 1712/1818 27010KT CAVOK"
    },
    {
      "icao": "GMMN",
      "alert": "OK",
      "vis_m": 9999,
      "fzfg": false,
      "metar_trigger": false,
      "taf_trigger": false,
      "metar": "METAR GMMN 171130Z 33011KT 310V010 9999 BKN020 20/15 Q1019 NOSIG",
      "taf": "TAF GMMN 171100Z 1712/1818 34011KT 9999 SCT020 SCT040"
    },
    {
      "icao": "GMMX",
      "alert": "OK",
      "vis_m": 8000,
      "fzfg": false,
      "metar_trigger": false,
      "taf_trigger": false,
      "metar": "METAR GMMX 171130Z VRB03KT 8000 SCT020 BKN080 21/12 Q1018 NOSIG",
      "taf": "TAF GMMX 171100Z 1712/1818 06006KT 8000 SCT026 SCT080"
    },
    {
      "icao": "HEGN",
      "alert": "OK",
      "vis_m": 9999,
      "fzfg": false,
      "metar_trigger": false,
      "taf_trigger": false,
      "metar": "METAR HEGN 171100Z 10005KT CAVOK 32/11 Q1010 NOSIG",
      "taf": "TAF HEGN 171100Z 1712/1818 03014KT CAVOK"
    },
    {
      "icao": "HEMA",
      "alert": "OK",
      "vis_m": 9999,
      "fzfg": false,
      "metar_trigger": false,
      "taf_trigger": false,
      "metar": "METAR HEMA 171100Z 36016KT CAVOK 33/08 Q1011 NOSIG",
      "taf": "TAF HEMA 171100Z 1712/1818 01012G22KT CAVOK"
    },
    {
      "icao": "HESH",
      "alert": "OK",
      "vis_m": 9999,
      "fzfg": false,
      "metar_trigger": false,
      "taf_trigger": false,
      "metar": "METAR HESH 171100Z 01007KT CAVOK 34/08 Q1010 NOSIG",
      "taf": "TAF HESH 171100Z 1712/1818 02014KT CAVOK"
    },
    {
      "icao": "HESX",
      "alert": "OK",
      "vis_m": 9999,
      "fzfg": false,
      "metar_trigger": false,
      "taf_trigger": false,
      "metar": "METAR HESX 171100Z 20010KT CAVOK 38/08 Q1008 NOSIG",
      "taf": "TAF HESX 171100Z 1712/1818 20012KT CAVOK"
    },
    {
      "icao": "LATI",
      "alert": "OK",
      "vis_m": 9999,
      "fzfg": false,
      "metar_trigger": false,
      "taf_trigger": false,
      "metar": "METAR LATI 171120Z 23008KT 190V260 9999 SCT043 19/06 Q1011 NOSIG",
      "taf": "TAF LATI 171100Z 1712/1812 28010KT 9999 FEW040 TX27/1812Z TN10/1804Z"
    },
    {
      "icao": "LBPD",
      "alert": "OK",
      "vis_m": 9999,
      "fzfg": false,
      "metar_trigger": false,
      "taf_trigger": false,
      "metar": "METAR LBPD 171130Z AUTO 28020KT 9999 SCT035/// BKN100/// BKN140/// 18/07 Q1005 TEMPO 29020G30KT",
      "taf": "TAF LBPD 171100Z 1712/1812 29020KT 9999 SCT050"
    },
    {
      "icao": "LBSF",
      "alert": "OK",
      "vis_m": 9999,
      "fzfg": false,
      "metar_trigger": false,
      "taf_trigger": false,
      "metar": "METAR LBSF 171130Z 30012KT 9999 -RA FEW048 OVC057 11/08 Q1008 TEMPO 5000 RA SCT012 BKN020",
      "taf": "TAF LBSF 171100Z 1712/1812 29012KT 9999 SCT015 BKN025 OVC040"
    },
    {
      "icao": "LBWN",
      "alert": "OK",
      "vis_m": 9999,
      "fzfg": false,
      "metar_trigger": false,
      "taf_trigger": false,
      "metar": "METAR LBWN 171130Z AUTO 34012KT 300V020 9999 -SHRA SCT030 //////CB 17/12 Q1003 TEMPO 4000 TSRA",
      "taf": "TAF LBWN 171100Z 1712/1812 33013KT 9999 SCT020 BKN045"
    },
    {
      "icao": "LCLK",
      "alert": "OK",
      "vis_m": 9999,
      "fzfg": false,
      "metar_trigger": false,
      "taf_trigger": false,
      "metar": "METAR LCLK 171130Z 21026KT 9999 FEW012 25/19 Q1006 NOSIG",
      "taf": "TAF LCLK 171130Z 1712/1812 20020KT 9999 FEW015"
    },
    {
      "icao": "LCPH",
      "alert": "OK",
      "vis_m": 9999,
      "fzfg": false,
      "metar_trigger": false,
      "taf_trigger": false,
      "metar": "METAR LCPH 171130Z 14012KT 090V160 CAVOK 23/17 Q1008 NOSIG",
      "taf": "TAF LCPH 171130Z 1712/1812 13015KT 9999 FEW012"
    },
    {
      "icao": "LEAL",
      "alert": "OK",
      "vis_m": 9999,
      "fzfg": false,
      "metar_trigger": false,
      "taf_trigger": false,
      "metar": "METAR LEAL 171130Z 17007KT 110V250 9999 FEW028 22/13 Q1017 NOSIG",
      "taf": "TAF LEAL 171100Z 1712/1812 17012KT 9999 FEW030 TX23/1812Z TN14/1805Z"
    },
    {
      "icao": "LEBB",
      "alert": "OK",
      "vis_m": 9999,
      "fzfg": false,
      "metar_trigger": false,
      "taf_trigger": false,
      "metar": "METAR LEBB 171130Z 31010KT 9999 FEW016 SCT032 BKN055 16/12 Q1019 TEMPO 3000 RA",
      "taf": "TAF LEBB 171100Z 1712/1812 31009KT 9999 SCT040 TX17/1712Z TN10/1805Z"
    },
    {
      "icao": "LEBL",
      "alert": "OK",
      "vis_m": 9999,
      "fzfg": false,
      "metar_trigger": false,
      "taf_trigger": false,
      "metar": "METAR LEBL 171130Z 08011KT 9999 FEW048 19/12 Q1017 NOSIG",
      "taf": "TAF LEBL 171100Z 1712/1812 12007KT 9999 FEW020 TX21/1712Z TN15/1806Z"
    },
    {
      "icao": "LECH",
      "alert": "OK",
      "vis_m": 9999,
      "fzfg": false,
      "metar_trigger": false,
      "taf_trigger": false,
      "metar": "METAR LECH 171130Z AUTO 15013KT 110V170 CAVOK 18/09 Q1017",
      "taf": "TAF LECH 171100Z 1712/1812 14008KT 9999 FEW040 TX18/1812Z TN04/1805Z"
    },
    {
      "icao": "LEMD",
      "alert": "OK",
      "vis_m": 9999,
      "fzfg": false,
      "metar_trigger": false,
      "taf_trigger": false,
      "metar": "METAR LEMD 171130Z 11003KT CAVOK 20/06 Q1016 NOSIG",
      "taf": "TAF LEMD 171100Z 1712/1818 VRB04KT CAVOK TX23/1715Z TN07/1805Z"
    },
    {
      "icao": "LEMG",
      "alert": "OK",
      "vis_m": 9999,
      "fzfg": false,
      "metar_trigger": false,
      "taf_trigger": false,
      "metar": "METAR LEMG 171130Z 13012KT 080V150 9999 FEW075 20/13 Q1017 NOSIG",
      "taf": "TAF LEMG 171100Z 1712/1812 13011KT 9999 FEW050 TX22/1714Z TN12/1806Z"
    },
    {
      "icao": "LEVC",
      "alert": "OK",
      "vis_m": 9999,
      "fzfg": false,
      "metar_trigger": false,
      "taf_trigger": false,
      "metar": "METAR LEVC 171130Z 14006KT 080V220 9999 FEW040 21/09 Q1016 NOSIG",
      "taf": "TAF LEVC 171100Z 1712/1812 10010KT 9999 FEW060 TX24/1712Z TN13/1805Z"
    },
    {
      "icao": "LEXJ",
      "alert": "OK",
      "vis_m": 9999,
      "fzfg": false,
      "metar_trigger": false,
      "taf_trigger": false,
      "metar": "METAR LEXJ 171130Z 29006KT 250V320 9999 FEW018 OVC032 14/11 Q1019",
      "taf": "TAF LEXJ 170800Z 1709/1809 23005KT 9999 FEW020 SCT035 TX18/1712Z TN10/1805Z"
    },
    {
      "icao": "LEZG",
      "alert": "OK",
      "vis_m": 9999,
      "fzfg": false,
      "metar_trigger": false,
      "taf_trigger": false,
      "metar": "METAR LEZG 171130Z 31004KT 250V020 CAVOK 19/07 Q1016 NOSIG",
      "taf": "TAF LEZG 171100Z 1712/1812 28010KT 9999 FEW060 TX25/1715Z TN10/1805Z"
    },
    {
      "icao": "LEZL",
      "alert": "OK",
      "vis_m": 9999,
      "fzfg": false,
      "metar_trigger": false,
      "taf_trigger": false,
      "metar": "METAR LEZL 171130Z 22010KT 170V270 CAVOK 25/07 Q1016 NOSIG",
      "taf": "TAF LEZL 170800Z 1709/1809 VRB03KT CAVOK TX29/1715Z TN13/1806Z"
    },
    {
      "icao": "LFBD",
      "alert": "OK",
      "vis_m": 9999,
      "fzfg": false,
      "metar_trigger": false,
      "taf_trigger": false,
      "metar": "METAR LFBD 171130Z AUTO 27013KT 240V310 9999 SCT024/// BKN058/// BKN072/// ///CB 18/13 Q1016 BECMG BKN030",
      "taf": "TAF LFBD 171100Z 1712/1818 30010KT 9999 BKN030 TX18/1713Z TN09/1806Z"
    },
    {
      "icao": "LFLL",
      "alert": "OK",
      "vis_m": 9999,
      "fzfg": false,
      "metar_trigger": false,
      "taf_trigger": false,
      "metar": "METAR LFLL 171130Z 36004KT 300V080 9999 FEW041 BKN260 16/03 Q1016 NOSIG",
      "taf": "TAF LFLL 171100Z 1712/1818 VRB05KT CAVOK"
    },
    {
      "icao": "LFLS",
      "alert": "OK",
      "vis_m": 9999,
      "fzfg": false,
      "metar_trigger": false,
      "taf_trigger": false,
      "metar": "METAR LFLS 171130Z AUTO VRB03KT CAVOK 16/04 Q1016 NOSIG",
      "taf": "TAF LFLS 170800Z 1709/1809 10007KT 9999 FEW060 BKN200"
    },
    {
      "icao": "LFMN",
      "alert": "OK",
      "vis_m": 9999,
      "fzfg": false,
      "metar_trigger": false,
      "taf_trigger": false,
      "metar": "METAR LFMN 171130Z 13007KT CAVOK 19/11 Q1014 NOSIG",
      "taf": "TAF LFMN 170800Z 1709/1815 11010KT CAVOK"
    },
    {
      "icao": "LFOB",
      "alert": "OK",
      "vis_m": 9999,
      "fzfg": false,
      "metar_trigger": false,
      "taf_trigger": false,
      "metar": "METAR LFOB 171130Z AUTO 20007KT 9999 SCT020/// BKN029/// BKN043/// ///TCU 14/11 Q1012 TEMPO 2000 -TSRA BKN014 BKN020CB",
      "taf": "TAF LFOB 171100Z 1712/1812 22007KT 9999 BKN018 BKN030"
    },
    {
      "icao": "LFPO",
      "alert": "OK",
      "vis_m": 9999,
      "fzfg": false,
      "metar_trigger": false,
      "taf_trigger": false,
      "metar": "METAR LFPO 171130Z AUTO 20007KT 9999 FEW019 SCT039 BKN046 14/11 Q1013 TEMPO 4000 SHRA SCT020CB",
      "taf": "TAF LFPO 171100Z 1712/1818 23008KT 9999 BKN030"
    },
    {
      "icao": "LFSB",
      "alert": "OK",
      "vis_m": 9999,
      "fzfg": false,
      "metar_trigger": false,
      "taf_trigger": false,
      "metar": "METAR LFSB 171130Z AUTO VRB03KT 9999 FEW052 17/05 Q1015 NOSIG",
      "taf": "TAF LFSB 171104Z 1712/1812 26005KT 9999 FEW050 BKN150"
    },
    {
      "icao": "LGAV",
      "alert": "OK",
      "vis_m": 9999,
      "fzfg": false,
      "metar_trigger": false,
      "taf_trigger": false,
      "metar": "METAR LGAV 171120Z 20006KT 130V240 9999 FEW030 24/02 Q1007 NOSIG",
      "taf": "TAF LGAV 171100Z 1712/1812 06010KT 9999 FEW030"
    },
    {
      "icao": "LGTS",
      "alert": "OK",
      "vis_m": 9999,
      "fzfg": false,
      "metar_trigger": false,
      "taf_trigger": false,
      "metar": "METAR LGTS 171120Z 25006KT 9999 SCT020 24/08 Q1005 NOSIG",
      "taf": "TAF LGTS 171100Z 1712/1812 33015KT 9999 FEW030"
    },
    {
      "icao": "LHBP",
      "alert": "OK",
      "vis_m": 9999,
      "fzfg": false,
      "metar_trigger": false,
      "taf_trigger": false,
      "metar": "METAR LHBP 171130Z 32013KT 9999 FEW006 BKN044 12/10 Q1009 NOSIG",
      "taf": "TAF LHBP 171115Z 1712/1812 32013KT 9999 FEW012 BKN045"
    },
    {
      "icao": "LHDC",
      "alert": "OK",
      "vis_m": 9999,
      "fzfg": false,
      "metar_trigger": false,
      "taf_trigger": false,
      "metar": "METAR LHDC 171115Z AUTO 01009KT 330V050 CAVOK 22/12 Q1005 TEMPO VRB20G30KT 4000 SHRA TSRA BKN025CB",
      "taf": "TAF LHDC 171115Z 1712/1721 36012KT 9999 SCT035"
    },
    {
      "icao": "LIBD",
      "alert": "OK",
      "vis_m": 9999,
      "fzfg": false,
      "metar_trigger": false,
      "taf_trigger": false,
      "metar": "METAR LIBD 171120Z AUTO 34010KT 300V020 9999 NCD 19/11 Q1013",
      "taf": "TAF LIBD 171100Z 1712/1812 34013KT 9999 SCT040"
    },
    {
      "icao": "LIBG",
      "alert": "OK",
      "vis_m": 9999,
      "fzfg": false,
      "metar_trigger": false,
      "taf_trigger": false,
      "metar": "METAR LIBG 171050Z 32013KT 290V350 9999 FEW040 21/09 Q1012",
      "taf": "TAF LIBG 171100Z 1712/1721 33012KT CAVOK"
    },
    {
      "icao": "LIBP",
      "alert": "OK",
      "vis_m": 9999,
      "fzfg": false,
      "metar_trigger": false,
      "taf_trigger": false,
      "metar": "METAR LIBP 171120Z AUTO 08008KT 050V110 9999 NCD 21/04 Q1014",
      "taf": "TAF LIBP 171100Z 1712/1812 07010KT CAVOK"
    },
    {
      "icao": "LIBR",
      "alert": "OK",
      "vis_m": 9999,
      "fzfg": false,
      "metar_trigger": false,
      "taf_trigger": false,
      "metar": "METAR LIBR 171120Z 32018KT 300V360 9999 FEW035 19/09 Q1012",
      "taf": "TAF LIBR 171100Z 1712/1812 33016KT 9999 FEW030"
    },
    {
      "icao": "LICA",
      "alert": "OK",
      "vis_m": 9999,
      "fzfg": false,
      "metar_trigger": false,
      "taf_trigger": false,
      "metar": "METAR LICA 171120Z AUTO 27013KT 9999 NCD 19/10 Q1014",
      "taf": "TAF LICA 171100Z 1712/1812 27015KT 9999 SCT040"
    },
    {
      "icao": "LICC",
      "alert": "OK",
      "vis_m": 9999,
      "fzfg": false,
      "metar_trigger": false,
      "taf_trigger": false,
      "metar": "METAR LICC 171120Z 07014KT 9999 SCT060 20/11 Q1013",
      "taf": "TAF LICC 171100Z 1712/1812 08013KT 9999 SCT040"
    },
    {
      "icao": "LICJ",
      "alert": "OK",
      "vis_m": 9999,
      "fzfg": false,
      "metar_trigger": false,
      "taf_trigger": false,
      "metar": "METAR LICJ 171120Z 33007KT 9999 FEW050 19/09 Q1015",
      "taf": "TAF LICJ 171100Z 1712/1812 33014KT 9999 FEW040"
    },
    {
      "icao": "LIMC",
      "alert": "OK",
      "vis_m": 9999,
      "fzfg": false,
      "metar_trigger": false,
      "taf_trigger": false,
      "metar": "METAR LIMC 171120Z 20005KT 130V250 CAVOK 19/01 Q1014 NOSIG",
      "taf": "TAF LIMC 171100Z 1712/1818 VRB05KT CAVOK"
    },
    {
      "icao": "LIME",
      "alert": "OK",
      "vis_m": 9999,
      "fzfg": false,
      "metar_trigger": false,
      "taf_trigger": false,
      "metar": "METAR LIME 171120Z 19005KT 120V270 CAVOK 19/01 Q1014 NOSIG",
      "taf": "TAF LIME 171100Z 1712/1812 VRB05KT 9999 FEW090"
    },
    {
      "icao": "LIMF",
      "alert": "OK",
      "vis_m": 9999,
      "fzfg": false,
      "metar_trigger": false,
      "taf_trigger": false,
      "metar": "METAR LIMF 171120Z 14005KT 060V210 CAVOK 19/M01 Q1013",
      "taf": "TAF LIMF 171100Z 1712/1812 VRB05KT CAVOK"
    },
    {
      "icao": "LIMJ",
      "alert": "OK",
      "vis_m": 9999,
      "fzfg": false,
      "metar_trigger": false,
      "taf_trigger": false,
      "metar": "METAR LIMJ 171120Z 15007KT 9999 FEW030 18/13 Q1014",
      "taf": "TAF LIMJ 171100Z 1712/1812 19010KT 9999 FEW020"
    },
    {
      "icao": "LIPE",
      "alert": "OK",
      "vis_m": 9999,
      "fzfg": false,
      "metar_trigger": false,
      "taf_trigger": false,
      "metar": "METAR LIPE 171120Z VRB04KT CAVOK 21/07 Q1013",
      "taf": "TAF LIPE 171100Z 1712/1812 VRB05KT 9999 FEW050"
    },
    {
      "icao": "LIPH",
      "alert": "OK",
      "vis_m": 9999,
      "fzfg": false,
      "metar_trigger": false,
      "taf_trigger": false,
      "metar": "METAR LIPH 171120Z 20004KT 140V270 9999 SCT030 20/10 Q1013",
      "taf": "TAF LIPH 171100Z 1712/1812 13007KT 9999 SCT040"
    },
    {
      "icao": "LIPQ",
      "alert": "OK",
      "vis_m": 9999,
      "fzfg": false,
      "metar_trigger": false,
      "taf_trigger": false,
      "metar": "METAR LIPQ 171120Z AUTO 22009KT 180V250 9999 NCD 20/06 Q1013",
      "taf": "TAF LIPQ 171100Z 1712/1812 20010KT 9999 FEW050"
    },
    {
      "icao": "LIPR",
      "alert": "OK",
      "vis_m": 9999,
      "fzfg": false,
      "metar_trigger": false,
      "taf_trigger": false,
      "metar": "METAR LIPR 171120Z 07008KT 040V110 CAVOK 18/08 Q1013",
      "taf": "TAF LIPR 171100Z 1712/1812 09010KT 9999 FEW040"
    },
    {
      "icao": "LIPX",
      "alert": "OK",
      "vis_m": 9999,
      "fzfg": false,
      "metar_trigger": false,
      "taf_trigger": false,
      "metar": "METAR LIPX 171120Z VRB04KT CAVOK 21/05 Q1013",
      "taf": "TAF LIPX 171100Z 1712/1812 VRB05KT CAVOK"
    },
    {
      "icao": "LIPY",
      "alert": "OK",
      "vis_m": 9999,
      "fzfg": false,
      "metar_trigger": false,
      "taf_trigger": false,
      "metar": "METAR LIPY 171120Z AUTO 06008KT 9999 NCD 21/08 Q1013",
      "taf": "TAF LIPY 171100Z 1712/1812 07010KT CAVOK"
    },
    {
      "icao": "LIPZ",
      "alert": "OK",
      "vis_m": 9999,
      "fzfg": false,
      "metar_trigger": false,
      "taf_trigger": false,
      "metar": "METAR LIPZ 171120Z 14006KT 120V180 9999 FEW020 19/06 Q1014 NOSIG",
      "taf": "TAF LIPZ 171100Z 1712/1818 14010KT CAVOK"
    },
    {
      "icao": "LIRF",
      "alert": "OK",
      "vis_m": 9999,
      "fzfg": false,
      "metar_trigger": false,
      "taf_trigger": false,
      "metar": "METAR LIRF 171120Z 20008KT 170V250 CAVOK 20/09 Q1014 NOSIG",
      "taf": "TAF LIRF 171100Z 1712/1818 26012KT CAVOK"
    },
    {
      "icao": "LIRN",
      "alert": "OK",
      "vis_m": 9999,
      "fzfg": false,
      "metar_trigger": false,
      "taf_trigger": false,
      "metar": "METAR LIRN 171120Z VRB03KT 9999 FEW050 21/08 Q1014 NOSIG",
      "taf": "TAF LIRN 171100Z 1712/1812 22012KT CAVOK"
    },
    {
      "icao": "LIRP",
      "alert": "OK",
      "vis_m": 9999,
      "fzfg": false,
      "metar_trigger": false,
      "taf_trigger": false,
      "metar": "METAR LIRP 171115Z 28008KT 9999 FEW030 20/10 Q1014 NOSIG",
      "taf": "TAF LIRP 171100Z 1712/1812 VRB03KT 9999 FEW030"
    },
    {
      "icao": "LIRZ",
      "alert": "OK",
      "vis_m": 9999,
      "fzfg": false,
      "metar_trigger": false,
      "taf_trigger": false,
      "metar": "METAR LIRZ 171120Z AUTO 22006KT 180V260 9999 NCD 20/07 Q1014",
      "taf": "TAF LIRZ 171100Z 1712/1812 VRB05KT 9999 SCT040"
    },
    {
      "icao": "LJLJ",
      "alert": "OK",
      "vis_m": 9999,
      "fzfg": false,
      "metar_trigger": false,
      "taf_trigger": false,
      "metar": "METAR LJLJ 171130Z 04005KT 340V090 9999 SCT070 BKN085 18/03 Q1013 NOSIG",
      "taf": "TAF LJLJ 171100Z 1712/1812 VRB02KT 9999 FEW065"
    },
    {
      "icao": "LKMT",
      "alert": "OK",
      "vis_m": 9999,
      "fzfg": false,
      "metar_trigger": false,
      "taf_trigger": false,
      "metar": "METAR LKMT 171130Z 01007KT 330V030 9999 -RA FEW020 OVC039 09/07 Q1016 NOSIG",
      "taf": "TAF LKMT 171100Z 1712/1812 36008KT 9999 -RA OVC035"
    },
    {
      "icao": "LKPR",
      "alert": "OK",
      "vis_m": 9999,
      "fzfg": false,
      "metar_trigger": false,
      "taf_trigger": false,
      "metar": "METAR LKPR 171130Z 31005KT 270V030 CAVOK 15/01 Q1015 NOSIG",
      "taf": "TAF LKPR 171100Z 1712/1818 27005KT CAVOK"
    },
    {
      "icao": "LLBG",
      "alert": "OK",
      "vis_m": 9999,
      "fzfg": false,
      "metar_trigger": false,
      "taf_trigger": false,
      "metar": "METAR LLBG 171120Z 30008KT 270V330 CAVOK 32/06 Q1009 NOSIG",
      "taf": "TAF LLBG 171100Z 1712/1812 31010KT CAVOK TX36/1712Z TN22/1803Z"
    },
    {
      "icao": "LMML",
      "alert": "OK",
      "vis_m": 9999,
      "fzfg": false,
      "metar_trigger": false,
      "taf_trigger": false,
      "metar": "METAR LMML 171115Z 31005KT 260V350 9999 FEW020 19/09 Q1014 NOSIG",
      "taf": "TAF LMML 171100Z 1712/1812 34008KT 9999 FEW018"
    },
    {
      "icao": "LOWW",
      "alert": "OK",
      "vis_m": 9999,
      "fzfg": false,
      "metar_trigger": false,
      "taf_trigger": false,
      "metar": "METAR LOWW 171120Z 33015KT 300V360 CAVOK 16/05 Q1014 NOSIG",
      "taf": "TAF LOWW 171115Z 1712/1818 32012KT 9999 FEW020 BKN050 TX19/1814Z TN06/1803Z"
    },
    {
      "icao": "LPFR",
      "alert": "OK",
      "vis_m": 9999,
      "fzfg": false,
      "metar_trigger": false,
      "taf_trigger": false,
      "metar": "METAR LPFR 171130Z 24015KT 9999 FEW035 18/10 Q1018",
      "taf": "TAF LPFR 171100Z 1712/1812 32010KT CAVOK"
    },
    {
      "icao": "LPMA",
      "alert": "OK",
      "vis_m": 9999,
      "fzfg": false,
      "metar_trigger": false,
      "taf_trigger": false,
      "metar": "METAR LPMA 171130Z 02009KT 300V060 9999 BKN015 19/11 Q1025",
      "taf": "TAF LPMA 171100Z 1712/1812 01010KT 9999 SCT015"
    },
    {
      "icao": "LPPR",
      "alert": "OK",
      "vis_m": 9999,
      "fzfg": false,
      "metar_trigger": false,
      "taf_trigger": false,
      "metar": "METAR LPPR 171130Z 30008KT 9999 FEW020 16/12 Q1018",
      "taf": "TAF LPPR 171100Z 1712/1812 30008KT 9999 SCT025"
    },
    {
      "icao": "LPPS",
      "alert": "OK",
      "vis_m": 9999,
      "fzfg": false,
      "metar_trigger": false,
      "taf_trigger": false,
      "metar": "METAR LPPS 171130Z 02011KT 9999 FEW015 BKN030 18/08 Q1025",
      "taf": "TAF LPPS 171100Z 1712/1818 01013KT 9999 FEW015 BKN030"
    },
    {
      "icao": "LPPT",
      "alert": "OK",
      "vis_m": 9999,
      "fzfg": false,
      "metar_trigger": false,
      "taf_trigger": false,
      "metar": "METAR LPPT 171130Z 32012KT 290V350 9999 SCT026 18/12 Q1018",
      "taf": "TAF LPPT 171100Z 1712/1818 31010KT 9999 SCT025"
    },
    {
      "icao": "LQBK",
      "alert": "OK",
      "vis_m": 9999,
      "fzfg": false,
      "metar_trigger": false,
      "taf_trigger": false,
      "metar": "METAR LQBK 171130Z 31014G25KT 280V350 CAVOK 17/05 Q1013 NOSIG",
      "taf": "TAF LQBK 171100Z 1712/1812 28007KT CAVOK TX18/1812Z TN05/1804Z"
    },
    {
      "icao": "LQSA",
      "alert": "OK",
      "vis_m": 9999,
      "fzfg": false,
      "metar_trigger": false,
      "taf_trigger": false,
      "metar": "METAR LQSA 171130Z 30008KT 270V330 9999 BKN025 10/06 Q1013 NOSIG",
      "taf": "TAF LQSA 171100Z 1712/1812 32005KT 9999 BKN030 TX20/1812Z TN03/1804Z"
    },
    {
      "icao": "LQTZ",
      "alert": "OK",
      "vis_m": 9999,
      "fzfg": false,
      "metar_trigger": false,
      "taf_trigger": false,
      "metar": "METAR LQTZ 171130Z 28005KT 250V310 9999 -RA BKN027 OVC032 11/11 Q1012",
      "taf": "TAF LQTZ 171100Z 1712/1812 27008KT 9999 SCT020 BKN035 TX16/1812Z TN03/1804Z"
    },
    {
      "icao": "LRBC",
      "alert": "OK",
      "vis_m": 9999,
      "fzfg": false,
      "metar_trigger": false,
      "taf_trigger": false,
      "metar": "METAR LRBC 171130Z 11006KT 020V140 9999 FEW045 20/09 Q1006",
      "taf": "TAF LRBC 171100Z 1712/1721 VRB04KT 9999 SCT040"
    },
    {
      "icao": "LRBS",
      "alert": "OK",
      "vis_m": 9999,
      "fzfg": false,
      "metar_trigger": false,
      "taf_trigger": false,
      "metar": "METAR LRBS 171130Z 09010KT 9999 -RA SCT009 BKN030 14/12 Q1006 NOSIG",
      "taf": "TAF LRBS 171100Z 1712/1812 06012KT 9999 BKN010 BKN045"
    },
    {
      "icao": "LRBV",
      "alert": "OK",
      "vis_m": 9999,
      "fzfg": false,
      "metar_trigger": false,
      "taf_trigger": false,
      "metar": "METAR LRBV 171130Z 08010KT 9999 SCT031 BKN063 15/08 Q1006",
      "taf": "TAF LRBV 171100Z 1712/1721 08010KT 9999 SCT035 BKN065"
    },
    {
      "icao": "LRCL",
      "alert": "OK",
      "vis_m": 9999,
      "fzfg": false,
      "metar_trigger": false,
      "taf_trigger": false,
      "metar": "METAR LRCL 171130Z 11007KT 080V170 9999 SCT056 20/09 Q1005",
      "taf": "TAF LRCL 171100Z 1712/1721 12012KT 9999 BKN055"
    },
    {
      "icao": "LRCV",
      "alert": "OK",
      "vis_m": 9999,
      "fzfg": false,
      "metar_trigger": false,
      "taf_trigger": false,
      "metar": "METAR LRCV 171130Z 26007KT 9999 BKN014 OVC031 15/12 Q1005",
      "taf": "TAF LRCV 171100Z 1712/1721 27012KT 9999 BKN015 OVC025"
    },
    {
      "icao": "LRIA",
      "alert": "OK",
      "vis_m": 9999,
      "fzfg": false,
      "metar_trigger": false,
      "taf_trigger": false,
      "metar": "METAR LRIA 171130Z VRB05KT CAVOK 21/04 Q1007",
      "taf": "TAF LRIA 171100Z 1712/1721 09006KT CAVOK"
    },
    {
      "icao": "LROP",
      "alert": "OK",
      "vis_m": 9999,
      "fzfg": false,
      "metar_trigger": false,
      "taf_trigger": false,
      "metar": "METAR LROP 171130Z 09009KT 9999 -RA NSC 14/11 Q1006 NOSIG",
      "taf": "TAF LROP 171100Z 1712/1812 08014KT 9999 BKN010 BKN045"
    },
    {
      "icao": "LRSB",
      "alert": "OK",
      "vis_m": 9999,
      "fzfg": false,
      "metar_trigger": false,
      "taf_trigger": false,
      "metar": "METAR LRSB 171130Z 11012KT 090V150 9999 FEW038TCU BKN050 18/12 Q1004",
      "taf": "TAF LRSB 171100Z 1712/1812 VRB04KT 9999 BKN045"
    },
    {
      "icao": "LRSM",
      "alert": "OK",
      "vis_m": 9999,
      "fzfg": false,
      "metar_trigger": false,
      "taf_trigger": false,
      "metar": "METAR LRSM 171130Z AUTO 25004KT 190V330 9999 NCD 24/10 Q1004",
      "taf": ""
    },
    {
      "icao": "LRSV",
      "alert": "OK",
      "vis_m": 9999,
      "fzfg": false,
      "metar_trigger": false,
      "taf_trigger": false,
      "metar": "METAR LRSV 171130Z 02008KT 350V060 9999 SCT041 18/07 Q1008",
      "taf": "TAF LRSV 171100Z 1712/1721 01007KT 9999 SCT040"
    },
    {
      "icao": "LRTM",
      "alert": "OK",
      "vis_m": 9999,
      "fzfg": false,
      "metar_trigger": false,
      "taf_trigger": false,
      "metar": "METAR LRTM 171130Z 09011KT CAVOK 21/11 Q1005",
      "taf": "TAF LRTM 171100Z 1712/1721 09016KT 9999 SCT045"
    },
    {
      "icao": "LRTR",
      "alert": "OK",
      "vis_m": 9999,
      "fzfg": false,
      "metar_trigger": false,
      "taf_trigger": false,
      "metar": "METAR LRTR 171130Z 30006KT 270V340 9999 BKN012 OVC045 18/15 Q1006",
      "taf": ""
    },
    {
      "icao": "LTAC",
      "alert": "OK",
      "vis_m": 9999,
      "fzfg": false,
      "metar_trigger": false,
      "taf_trigger": false,
      "metar": "SPECI LTAC 171138Z 14004KT 080V180 9999 -TSRA SCT025CB BKN030 18/10 Q1004 TEMPO 26020G30KT 4000 TSRA",
      "taf": "TAF LTAC 171040Z 1712/1812 VRB02KT 9999 SCT040 SCT100"
    },
    {
      "icao": "LTFM",
      "alert": "OK",
      "vis_m": 9999,
      "fzfg": false,
      "metar_trigger": false,
      "taf_trigger": false,
      "metar": "METAR LTFM 171120Z 36009KT 9999 FEW017TCU SCT026 17/12 Q1003 NOSIG RMK RWY17L 35009KT 310V020 RWY34L 34012KT RWY16R 35009KT 320V020 RWY36 35009KT 310V020 RWY18 34008KT 300V360",
      "taf": "TAF LTFM 171040Z 1712/1818 35015KT 9999 SCT028"
    },
    {
      "icao": "LUKK",
      "alert": "OK",
      "vis_m": 9999,
      "fzfg": false,
      "metar_trigger": false,
      "taf_trigger": false,
      "metar": "METAR LUKK 171130Z 07006KT 020V150 CAVOK 22/08 Q1006 NOSIG",
      "taf": "TAF LUKK 171102Z 1712/1812 02009KT CAVOK"
    },
    {
      "icao": "LWOH",
      "alert": "OK",
      "vis_m": 9999,
      "fzfg": false,
      "metar_trigger": false,
      "taf_trigger": false,
      "metar": "METAR LWOH 171120Z 20007KT 160V250 9999 BKN045 14/08 Q1009",
      "taf": "TAF LWOH 171110Z 1712/1812 18012KT 9999 FEW020 BKN045"
    },
    {
      "icao": "LWSK",
      "alert": "OK",
      "vis_m": 9999,
      "fzfg": false,
      "metar_trigger": false,
      "taf_trigger": false,
      "metar": "METAR LWSK 171120Z 02011KT 350V060 9999 SCT060 20/09 Q1007 NOSIG",
      "taf": "TAF LWSK 171110Z 1712/1812 02010KT 9999 BKN070"
    },
    {
      "icao": "LYBE",
      "alert": "OK",
      "vis_m": 9999,
      "fzfg": false,
      "metar_trigger": false,
      "taf_trigger": false,
      "metar": "METAR LYBE 171130Z 28015KT 9999 BKN006 11/10 Q1009 NOSIG",
      "taf": "TAF LYBE 171100Z 1712/1812 28016KT 9999 BKN010 BKN025 TX20/1812Z TN07/1804Z"
    },
    {
      "icao": "LYNI",
      "alert": "OK",
      "vis_m": 9999,
      "fzfg": false,
      "metar_trigger": false,
      "taf_trigger": false,
      "metar": "METAR LYNI 171130Z 30010KT 270V340 9999 -RA SCT015 OVC027 12/11 Q1009 NOSIG",
      "taf": "TAF LYNI 171100Z 1712/1812 33012KT 9999 SCT015 BKN027 TX21/1812Z TN09/1804Z"
    },
    {
      "icao": "LYPG",
      "alert": "OK",
      "vis_m": 9999,
      "fzfg": false,
      "metar_trigger": false,
      "taf_trigger": false,
      "metar": "METAR LYPG 171130Z 18008KT 140V240 9999 FEW030 BKN070 20/10 Q1009 NOSIG",
      "taf": "TAF LYPG 171100Z 1712/1812 18008KT 9999 FEW030 SCT040 TX22/1713Z TN13/1804Z"
    },
    {
      "icao": "LZIB",
      "alert": "OK",
      "vis_m": 9999,
      "fzfg": false,
      "metar_trigger": false,
      "taf_trigger": false,
      "metar": "METAR LZIB 171130Z 35014KT 9999 -RA FEW045 14/07 Q1014 NOSIG",
      "taf": "TAF LZIB 171115Z 1712/1812 35014KT 9999 FEW045"
    },
    {
      "icao": "LZKZ",
      "alert": "OK",
      "vis_m": 9999,
      "fzfg": false,
      "metar_trigger": false,
      "taf_trigger": false,
      "metar": "METAR LZKZ 171130Z 36026KT CAVOK 16/09 Q1008 NOSIG",
      "taf": "TAF LZKZ 171115Z 1712/1812 36018KT 9999 FEW045"
    },
    {
      "icao": "LZTT",
      "alert": "OK",
      "vis_m": 9999,
      "fzfg": false,
      "metar_trigger": false,
      "taf_trigger": false,
      "metar": "METAR LZTT 171130Z 27009KT 9999 FEW014 OVC035 09/05 Q1011 NOSIG",
      "taf": "TAF LZTT 171115Z 1712/1812 06009KT 9999 FEW010 BKN040"
    },
    {
      "icao": "OEJN",
      "alert": "OK",
      "vis_m": 9999,
      "fzfg": false,
      "metar_trigger": false,
      "taf_trigger": false,
      "metar": "METAR OEJN 171100Z 31015KT CAVOK 36/17 Q1005 NOSIG",
      "taf": "TAF OEJN 171100Z 1712/1818 30014KT CAVOK"
    },
    {
      "icao": "OEMA",
      "alert": "OK",
      "vis_m": 9999,
      "fzfg": false,
      "metar_trigger": false,
      "taf_trigger": false,
      "metar": "METAR OEMA 171100Z 04006KT CAVOK 38/M04 Q1013 NOSIG",
      "taf": "TAF OEMA 171100Z 1712/1818 02012KT CAVOK"
    },
    {
      "icao": "OJAI",
      "alert": "OK",
      "vis_m": 4000,
      "fzfg": false,
      "metar_trigger": false,
      "taf_trigger": false,
      "metar": "METAR OJAI 171100Z 23007KT 4000 DU NSC 30/06 Q1014 NOSIG",
      "taf": "TAF OJAI 171100Z 1712/1818 25012KT 4000 DU NSC"
    },
    {
      "icao": "OMAA",
      "alert": "OK",
      "vis_m": 9999,
      "fzfg": false,
      "metar_trigger": false,
      "taf_trigger": false,
      "metar": "METAR OMAA 171130Z 33017KT CAVOK 36/17 Q1002 NOSIG",
      "taf": "TAF OMAA 171100Z 1712/1818 32015KT 8000 NSC"
    },
    {
      "icao": "OMDB",
      "alert": "OK",
      "vis_m": 9999,
      "fzfg": false,
      "metar_trigger": false,
      "taf_trigger": false,
      "metar": "METAR OMDB 171130Z 32011KT CAVOK 37/20 Q1002 NOSIG",
      "taf": "TAF OMDB 171100Z 1712/1818 34012KT 8000 NSC"
    },
    {
      "icao": "UAAA",
      "alert": "OK",
      "vis_m": 9999,
      "fzfg": false,
      "metar_trigger": false,
      "taf_trigger": false,
      "metar": "METAR UAAA 171130Z 05003MPS 9999 SCT050CB BKN100 25/02 Q1011 NOSIG",
      "taf": "TAF UAAA 171106Z 1712/1812 21003MPS 9999 FEW050 SCT100 TX26/1810Z TN08/1801Z"
    },
    {
      "icao": "UBBB",
      "alert": "OK",
      "vis_m": 9999,
      "fzfg": false,
      "metar_trigger": false,
      "taf_trigger": false,
      "metar": "METAR UBBB 171130Z 31020G30KT 9999 -SHRA SCT007 SCT035CB OVC035 15/14 Q1001 NOSIG",
      "taf": "TAF UBBB 171050Z 1712/1812 31016G26KT 8000 SCT010 SCT030CB BKN030 TX17/1710Z TN15/1801Z"
    },
    {
      "icao": "UDSG",
      "alert": "OK",
      "vis_m": 9999,
      "fzfg": false,
      "metar_trigger": false,
      "taf_trigger": false,
      "metar": "METAR UDSG 171130Z 21009KT 9999 SCT046CB 18/06 Q1007 NOSIG",
      "taf": "TAF UDSG 171100Z 1712/1812 24006KT 9999 SCT040"
    },
    {
      "icao": "UDYZ",
      "alert": "OK",
      "vis_m": 9999,
      "fzfg": false,
      "metar_trigger": false,
      "taf_trigger": false,
      "metar": "METAR UDYZ 171130Z 23007KT 210V280 9999 FEW046 22/06 Q1004 NOSIG",
      "taf": "TAF UDYZ 171100Z 1712/1812 23006KT 9999 SCT040"
    },
    {
      "icao": "UGKO",
      "alert": "OK",
      "vis_m": 9999,
      "fzfg": false,
      "metar_trigger": false,
      "taf_trigger": false,
      "metar": "METAR UGKO 171130Z 28008KT 250V320 CAVOK 23/09 Q1004 NOSIG",
      "taf": "TAF UGKO 171100Z 1712/1812 26007KT CAVOK TX24/1712Z TN10/1802Z"
    }
  ]
}