{
  "ts_utc": "2026-01-15T15:27:11Z",
  "threshold_m": 150,
  "source": "stations_override.txt (ICAO list) + aviationweather.gov (METAR/TAF raw)",
  "station_count": 159,
  "stations": [
    {
      "icao": "BIKF",
      "alert": "OK",
      "vis_m": 9999,
      "fzfg": false,
      "metar_trigger": false,
      "taf_trigger": false,
      "metar": "METAR BIKF 151500Z 03013KT CAVOK 01/M04 Q0988",
      "taf": "TAF BIKF 151330Z 1515/1615 02018KT 9999 FEW025 SCT045 TX02/1606Z TN00/1515Z"
    },
    {
      "icao": "BKPR",
      "alert": "OK",
      "vis_m": null,
      "fzfg": false,
      "metar_trigger": false,
      "taf_trigger": false,
      "metar": "",
      "taf": "TAF BKPR 151130Z 1512/1612 30006KT 9999 BKN060"
    },
    {
      "icao": "EBCI",
      "alert": "OK",
      "vis_m": 9999,
      "fzfg": false,
      "metar_trigger": false,
      "taf_trigger": false,
      "metar": "METAR EBCI 151520Z 17009KT 140V200 9999 FEW022 10/06 Q1007 NOSIG",
      "taf": "TAF EBCI 151110Z 1512/1618 19012KT 9999 SCT020"
    },
    {
      "icao": "EDDB",
      "alert": "OK",
      "vis_m": 4600,
      "fzfg": false,
      "metar_trigger": false,
      "taf_trigger": false,
      "metar": "METAR EDDB 151520Z AUTO 14006KT 4600 BR FEW002 BKN018 05/05 Q1015 TEMPO 5000",
      "taf": ""
    },
    {
      "icao": "EDDH",
      "alert": "OK",
      "vis_m": 9999,
      "fzfg": false,
      "metar_trigger": false,
      "taf_trigger": false,
      "metar": "METAR EDDH 151520Z AUTO 14008KT 9999 OVC021 07/06 Q1010 NOSIG",
      "taf": "TAF EDDH 151100Z 1512/1618 15008KT 9999 SCT020"
    },
    {
      "icao": "EDDK",
      "alert": "OK",
      "vis_m": 9999,
      "fzfg": false,
      "metar_trigger": false,
      "taf_trigger": false,
      "metar": "METAR EDDK 151520Z AUTO 15008KT 9999 OVC046 10/07 Q1011 NOSIG",
      "taf": "TAF EDDK 151100Z 1512/1618 15009KT 9999 BKN030"
    },
    {
      "icao": "EDDN",
      "alert": "OK",
      "vis_m": 9999,
      "fzfg": false,
      "metar_trigger": false,
      "taf_trigger": false,
      "metar": "METAR EDDN 151520Z AUTO 09004KT CAVOK 09/06 Q1015 NOSIG",
      "taf": "TAF EDDN 151100Z 1512/1612 12007KT 9999 FEW030 BKN040"
    },
    {
      "icao": "EDDS",
      "alert": "OK",
      "vis_m": 9999,
      "fzfg": false,
      "metar_trigger": false,
      "taf_trigger": false,
      "metar": "METAR EDDS 151520Z AUTO VRB02KT CAVOK 12/05 Q1012 NOSIG",
      "taf": "TAF EDDS 151100Z 1512/1612 VRB03KT CAVOK"
    },
    {
      "icao": "EDFH",
      "alert": "OK",
      "vis_m": 9999,
      "fzfg": false,
      "metar_trigger": false,
      "taf_trigger": false,
      "metar": "METAR EDFH 151520Z 19010KT 9999 FEW026 SCT030 08/04 Q1011",
      "taf": "TAF EDFH 151100Z 1512/1612 19012KT 9999 BKN030"
    },
    {
      "icao": "EDJA",
      "alert": "OK",
      "vis_m": 9999,
      "fzfg": false,
      "metar_trigger": false,
      "taf_trigger": false,
      "metar": "METAR EDJA 151520Z 02001KT CAVOK 08/03 Q1014",
      "taf": "TAF EDJA 151400Z 1515/1524 22005KT CAVOK"
    },
    {
      "icao": "EDLW",
      "alert": "OK",
      "vis_m": 9999,
      "fzfg": false,
      "metar_trigger": false,
      "taf_trigger": false,
      "metar": "METAR EDLW 151520Z 18012KT 9999 FEW024 SCT039 OVC044 10/07 Q1010",
      "taf": "TAF EDLW 151100Z 1512/1612 18013KT 9999 SCT035"
    },
    {
      "icao": "EDNY",
      "alert": "OK",
      "vis_m": 9999,
      "fzfg": false,
      "metar_trigger": false,
      "taf_trigger": false,
      "metar": "METAR EDNY 151520Z 05004KT CAVOK 10/04 Q1014",
      "taf": "TAF EDNY 151400Z 1515/1524 VRB02KT CAVOK"
    },
    {
      "icao": "EDSB",
      "alert": "OK",
      "vis_m": 9999,
      "fzfg": false,
      "metar_trigger": false,
      "taf_trigger": false,
      "metar": "METAR EDSB 151450Z 21004KT CAVOK 14/06 Q1012",
      "taf": "TAF EDSB 151100Z 1512/1612 19010KT CAVOK"
    },
    {
      "icao": "EETN",
      "alert": "OK",
      "vis_m": 4700,
      "fzfg": false,
      "metar_trigger": false,
      "taf_trigger": false,
      "metar": "METAR EETN 151520Z 18014KT 4700 SN DRSN SCT007 BKN029 OVC036 M09/M10 Q1020 TEMPO 2000",
      "taf": "TAF EETN 151130Z 1512/1612 17012KT 9999 BKN007 BKN035"
    },
    {
      "icao": "EFTU",
      "alert": "OK",
      "vis_m": 9999,
      "fzfg": false,
      "metar_trigger": false,
      "taf_trigger": false,
      "metar": "METAR EFTU 151520Z AUTO 17005KT 9999 SCT002 OVC022 00/M00 Q1016",
      "taf": "TAF EFTU 151437Z 1515/1615 16006KT 9000 SCT006 BKN015"
    },
    {
      "icao": "EGBB",
      "alert": "OK",
      "vis_m": 4400,
      "fzfg": false,
      "metar_trigger": false,
      "taf_trigger": false,
      "metar": "METAR EGBB 151520Z 01004KT 340V050 4400 RADZ BR SCT004 BKN009 07/06 Q0997 REDZ",
      "taf": ""
    },
    {
      "icao": "EGGP",
      "alert": "OK",
      "vis_m": 9999,
      "fzfg": false,
      "metar_trigger": false,
      "taf_trigger": false,
      "metar": "METAR EGGP 151520Z 06004KT CAVOK 05/03 Q0998",
      "taf": ""
    },
    {
      "icao": "EGGW",
      "alert": "OK",
      "vis_m": 9999,
      "fzfg": false,
      "metar_trigger": false,
      "taf_trigger": false,
      "metar": "METAR EGGW 151520Z AUTO 13010KT 9999 -RA BKN003/// BKN006/// BKN012/// //////TCU 07/07 Q0997",
      "taf": "TAF EGGW 151102Z 1512/1612 16010KT 9999 SCT004 BKN020"
    },
    {
      "icao": "EGKK",
      "alert": "OK",
      "vis_m": 9999,
      "fzfg": false,
      "metar_trigger": false,
      "taf_trigger": false,
      "metar": "METAR EGKK 151520Z 17011KT 130V200 9999 -RA SCT009 BKN011 09/08 Q0998",
      "taf": "TAF EGKK 151056Z 1512/1618 17012KT 9999 BKN015"
    },
    {
      "icao": "EGNM",
      "alert": "OK",
      "vis_m": 9999,
      "fzfg": false,
      "metar_trigger": false,
      "taf_trigger": false,
      "metar": "METAR EGNM 151520Z 12004KT 9999 FEW013 05/03 Q0998",
      "taf": "TAF EGNM 151056Z 1512/1612 17010KT 9999 FEW012"
    },
    {
      "icao": "EGPD",
      "alert": "OK",
      "vis_m": 9999,
      "fzfg": false,
      "metar_trigger": false,
      "taf_trigger": false,
      "metar": "METAR EGPD 151520Z COR AUTO 19011KT 9999 NCD 05/02 Q0995 NOSIG",
      "taf": "TAF EGPD 151102Z 1512/1612 20008KT 9999 FEW015"
    },
    {
      "icao": "EGPF",
      "alert": "OK",
      "vis_m": 9999,
      "fzfg": false,
      "metar_trigger": false,
      "taf_trigger": false,
      "metar": "METAR EGPF 151520Z AUTO 20010KT 9999 NCD 06/03 Q0996",
      "taf": "TAF EGPF 151054Z 1512/1612 21014KT 9999 FEW045"
    },
    {
      "icao": "EHBK",
      "alert": "OK",
      "vis_m": 9999,
      "fzfg": false,
      "metar_trigger": false,
      "taf_trigger": false,
      "metar": "METAR EHBK 151455Z AUTO 19009KT 9999 SCT046/// 09/07 Q1009 REDZ NOSIG",
      "taf": "TAF EHBK 151054Z 1512/1618 20012KT 9999 BKN020"
    },
    {
      "icao": "EHEH",
      "alert": "OK",
      "vis_m": 9999,
      "fzfg": false,
      "metar_trigger": false,
      "taf_trigger": false,
      "metar": "METAR EHEH 151455Z AUTO 17006KT 150V230 9999 BKN040 OVC045 11/06 Q1008 BLU NOSIG",
      "taf": "TAF EHEH 151106Z 1512/1618 19010KT 9999 BKN020"
    },
    {
      "icao": "EKBI",
      "alert": "OK",
      "vis_m": 1100,
      "fzfg": false,
      "metar_trigger": false,
      "taf_trigger": false,
      "metar": "METAR EKBI 151520Z AUTO 13005KT 1100 R09/P1500N R27/P1500U -RA BCFG OVC002/// 05/05 Q1008",
      "taf": "TAF EKBI 151427Z 1515/1615 14010KT 1000 -RADZ BR OVC002"
    },
    {
      "icao": "EKCH",
      "alert": "OK",
      "vis_m": 8000,
      "fzfg": false,
      "metar_trigger": false,
      "taf_trigger": false,
      "metar": "METAR EKCH 151520Z 15012KT 8000 OVC003 03/03 Q1012 TEMPO 2000",
      "taf": ""
    },
    {
      "icao": "ENAL",
      "alert": "OK",
      "vis_m": 9999,
      "fzfg": false,
      "metar_trigger": false,
      "taf_trigger": false,
      "metar": "METAR ENAL 151520Z 12013KT CAVOK 07/M03 Q0996",
      "taf": "TAF ENAL 151400Z 1515/1524 12008KT 9999 SCT060"
    },
    {
      "icao": "ENBR",
      "alert": "OK",
      "vis_m": 9999,
      "fzfg": false,
      "metar_trigger": false,
      "taf_trigger": false,
      "metar": "METAR ENBR 151520Z 14019KT 9999 -SHRA FEW007 SCT020CB BKN025 05/02 Q0998 RMK WIND 1200FT 14031KT",
      "taf": "TAF ENBR 151100Z 1512/1612 14012KT 9999 -SHRA FEW020 BKN040"
    },
    {
      "icao": "ENGM",
      "alert": "OK",
      "vis_m": 2100,
      "fzfg": true,
      "metar_trigger": false,
      "taf_trigger": false,
      "metar": "METAR ENGM 151520Z VRB03KT 2100 1200E -SN BR BKN005 M05/M06 Q1007 TEMPO 0800 FZFG VV003",
      "taf": ""
    },
    {
      "icao": "ENHD",
      "alert": "OK",
      "vis_m": 9999,
      "fzfg": false,
      "metar_trigger": false,
      "taf_trigger": false,
      "metar": "METAR ENHD 151520Z 12020KT 9999 -RA SCT015 BKN019 BKN028 05/03 Q0999",
      "taf": "TAF ENHD 151400Z 1515/1523 13018KT 9999 -RA FEW015 BKN030"
    },
    {
      "icao": "ENTC",
      "alert": "OK",
      "vis_m": 9999,
      "fzfg": false,
      "metar_trigger": false,
      "taf_trigger": false,
      "metar": "METAR ENTC 151520Z 20014KT 9999 BKN060 M01/M08 Q1007 NOSIG RMK WIND 2600FT 17011KT",
      "taf": "TAF ENTC 151100Z 1512/1612 20008KT CAVOK"
    },
    {
      "icao": "ENTO",
      "alert": "OK",
      "vis_m": 1900,
      "fzfg": false,
      "metar_trigger": false,
      "taf_trigger": false,
      "metar": "METAR ENTO 151520Z 14007KT 1900 -RASN BR VV004 00/00 Q1007 TEMPO 3000 -RASN BKN008",
      "taf": ""
    },
    {
      "icao": "ENVA",
      "alert": "OK",
      "vis_m": 9999,
      "fzfg": false,
      "metar_trigger": false,
      "taf_trigger": false,
      "metar": "METAR ENVA 151450Z 08005KT 030V130 CAVOK M00/M06 Q1002 NOSIG RMK WIND 670FT 11009KT",
      "taf": "TAF ENVA 151100Z 1512/1612 09008KT CAVOK"
    },
    {
      "icao": "ENZV",
      "alert": "OK",
      "vis_m": 9999,
      "fzfg": false,
      "metar_trigger": false,
      "taf_trigger": false,
      "metar": "METAR ENZV 151520Z 14014KT 9999 VCSH SCT023CB BKN038 05/02 Q1000 TEMPO 15020G35KT",
      "taf": "TAF ENZV 151100Z 1512/1612 13015KT 9999 -SHRA FEW015 BKN030"
    },
    {
      "icao": "EPGD",
      "alert": "OK",
      "vis_m": 9999,
      "fzfg": false,
      "metar_trigger": false,
      "taf_trigger": false,
      "metar": "METAR EPGD 151500Z 15006KT CAVOK 01/M00 Q1019",
      "taf": "TAF EPGD 151130Z 1512/1612 16010KT 8000 NSC"
    },
    {
      "icao": "EPKK",
      "alert": "OK",
      "vis_m": 9000,
      "fzfg": false,
      "metar_trigger": false,
      "taf_trigger": false,
      "metar": "METAR EPKK 151500Z 06007KT 9000 BKN049 02/M00 Q1019",
      "taf": "TAF EPKK 151430Z 1515/1615 07005KT 9000 SCT042"
    },
    {
      "icao": "EPKT",
      "alert": "OK",
      "vis_m": 7000,
      "fzfg": false,
      "metar_trigger": false,
      "taf_trigger": false,
      "metar": "METAR EPKT 151500Z 15005KT 7000 OVC012 03/01 Q1019",
      "taf": "TAF EPKT 151130Z 1512/1612 15004KT 7000 NSC"
    },
    {
      "icao": "EPLB",
      "alert": "OK",
      "vis_m": 3100,
      "fzfg": false,
      "metar_trigger": false,
      "taf_trigger": false,
      "metar": "METAR EPLB 151500Z 09004KT 3100 BR FEW004 OVC006 M03/M03 Q1022",
      "taf": ""
    },
    {
      "icao": "EPMO",
      "alert": "OK",
      "vis_m": 750,
      "fzfg": true,
      "metar_trigger": false,
      "taf_trigger": false,
      "metar": "METAR EPMO 151500Z 08005KT 0750 R08/0650N FZFG NSC M01/M01 Q1021",
      "taf": ""
    },
    {
      "icao": "EPPO",
      "alert": "OK",
      "vis_m": 3400,
      "fzfg": false,
      "metar_trigger": false,
      "taf_trigger": false,
      "metar": "METAR EPPO 151500Z 12007KT 3400 BR OVC002 01/01 Q1018",
      "taf": ""
    },
    {
      "icao": "EPRA",
      "alert": "OK",
      "vis_m": 9999,
      "fzfg": false,
      "metar_trigger": false,
      "taf_trigger": false,
      "metar": "METAR EPRA 151500Z 10003KT 9999 BKN026 01/M01 Q1021",
      "taf": "TAF EPRA 151430Z 1515/1524 11005KT 9999 BKN025"
    },
    {
      "icao": "EPRZ",
      "alert": "OK",
      "vis_m": 9999,
      "fzfg": false,
      "metar_trigger": false,
      "taf_trigger": false,
      "metar": "METAR EPRZ 151500Z 12001KT 9999 OVC013 02/00 Q1021",
      "taf": "TAF EPRZ 151130Z 1512/1612 VRB02KT 9999 OVC009"
    },
    {
      "icao": "EPSC",
      "alert": "OK",
      "vis_m": 9999,
      "fzfg": false,
      "metar_trigger": false,
      "taf_trigger": false,
      "metar": "METAR EPSC 151500Z 13010KT 9999 OVC007 02/01 Q1015",
      "taf": "TAF EPSC 151130Z 1512/1612 14010KT 8000 OVC012"
    },
    {
      "icao": "EPSY",
      "alert": "OK",
      "vis_m": 3200,
      "fzfg": false,
      "metar_trigger": false,
      "taf_trigger": false,
      "metar": "METAR EPSY 151500Z VRB02KT 3200 BR SCT007 BKN032 M04/M05 Q1021",
      "taf": "TAF EPSY 151430Z 1515/1524 14006KT 6000 BKN035"
    },
    {
      "icao": "EPWA",
      "alert": "OK",
      "vis_m": 2300,
      "fzfg": false,
      "metar_trigger": false,
      "taf_trigger": false,
      "metar": "METAR EPWA 151500Z 10005KT 070V130 2300 BR SCT002 BKN030 01/00 Q1021 TEMPO BKN003",
      "taf": "TAF EPWA 151430Z 1515/1615 13007KT 2000 BR SCT003 BKN020"
    },
    {
      "icao": "EPWR",
      "alert": "OK",
      "vis_m": 4000,
      "fzfg": false,
      "metar_trigger": false,
      "taf_trigger": false,
      "metar": "METAR EPWR 151500Z 11005KT 4000 BR BKN034 03/02 Q1017",
      "taf": "TAF EPWR 151430Z 1515/1615 12010KT 5000 BR OVC035"
    },
    {
      "icao": "ESGG",
      "alert": "OK",
      "vis_m": 3800,
      "fzfg": false,
      "metar_trigger": false,
      "taf_trigger": false,
      "metar": "METAR ESGG 151520Z 14013KT 3800 -DZ OVC003 01/01 Q1009",
      "taf": ""
    },
    {
      "icao": "ESKN",
      "alert": "OK",
      "vis_m": 9999,
      "fzfg": false,
      "metar_trigger": false,
      "taf_trigger": false,
      "metar": "METAR ESKN 151520Z 20008KT 9999 BKN004 01/01 Q1015",
      "taf": "TAF ESKN 151430Z 1515/1615 19006KT 9999 OVC012"
    },
    {
      "icao": "ESMS",
      "alert": "OK",
      "vis_m": 2900,
      "fzfg": false,
      "metar_trigger": false,
      "taf_trigger": false,
      "metar": "METAR ESMS 151520Z 13011KT 2900 BR OVC002 02/02 Q1012",
      "taf": "TAF ESMS 151427Z 1515/1615 16010KT 2000 -RADZ BR BKN002"
    },
    {
      "icao": "ESSA",
      "alert": "OK",
      "vis_m": 9999,
      "fzfg": false,
      "metar_trigger": false,
      "taf_trigger": false,
      "metar": "METAR ESSA 151520Z 19007KT 9999 BKN004 01/01 Q1014 TEMPO BKN006",
      "taf": "TAF ESSA 151430Z 1515/1615 19008KT 9999 SCT006 BKN015"
    },
    {
      "icao": "EYKA",
      "alert": "OK",
      "vis_m": 9999,
      "fzfg": false,
      "metar_trigger": false,
      "taf_trigger": false,
      "metar": "METAR EYKA 151520Z 14007KT 9999 OVC033 M09/M12 Q1024",
      "taf": "TAF EYKA 151100Z 1512/1612 VRB04KT 8000 SCT015 BKN020"
    },
    {
      "icao": "EYPA",
      "alert": "OK",
      "vis_m": 6000,
      "fzfg": false,
      "metar_trigger": false,
      "taf_trigger": false,
      "metar": "METAR EYPA 151520Z 15009KT 6000 -SN OVC006 M04/M06 Q1021",
      "taf": "TAF EYPA 151109Z 1512/1612 15009KT 5000 BR SCT005 BKN015"
    },
    {
      "icao": "EYVI",
      "alert": "OK",
      "vis_m": 9999,
      "fzfg": false,
      "metar_trigger": false,
      "taf_trigger": false,
      "metar": "METAR EYVI 151520Z 15008KT 9999 OVC007 M12/M15 Q1024 TEMPO BKN005",
      "taf": ""
    },
    {
      "icao": "GCFV",
      "alert": "OK",
      "vis_m": 9999,
      "fzfg": false,
      "metar_trigger": false,
      "taf_trigger": false,
      "metar": "METAR GCFV 151500Z 04011KT 9999 SCT035 19/10 Q1023",
      "taf": "TAF GCFV 151400Z 1515/1615 04010KT 9999 SCT030 TX22/1614Z TN14/1606Z"
    },
    {
      "icao": "GCLP",
      "alert": "OK",
      "vis_m": 9999,
      "fzfg": false,
      "metar_trigger": false,
      "taf_trigger": false,
      "metar": "METAR GCLP 151500Z 02019KT 9999 SCT040 20/09 Q1023 NOSIG",
      "taf": "TAF GCLP 151400Z 1515/1615 02016KT 9999 SCT030 TX22/1614Z TN15/1606Z"
    },
    {
      "icao": "GCTS",
      "alert": "OK",
      "vis_m": 9999,
      "fzfg": false,
      "metar_trigger": false,
      "taf_trigger": false,
      "metar": "METAR GCTS 151500Z 09020KT 9999 BKN040 20/09 Q1023 NOSIG",
      "taf": "TAF GCTS 151400Z 1515/1615 08016KT 9999 BKN030 TX22/1614Z TN13/1606Z"
    },
    {
      "icao": "GMAD",
      "alert": "OK",
      "vis_m": 9999,
      "fzfg": false,
      "metar_trigger": false,
      "taf_trigger": false,
      "metar": "METAR GMAD 151500Z 24006KT 210V270 9999 SCT030 19/13 Q1020 NOSIG",
      "taf": "TAF GMAD 151100Z 1512/1618 27010KT 8000 FEW030"
    },
    {
      "icao": "GMMN",
      "alert": "OK",
      "vis_m": 9999,
      "fzfg": false,
      "metar_trigger": false,
      "taf_trigger": false,
      "metar": "METAR GMMN 151500Z 25006KT 9999 BKN020 17/10 Q1022 NOSIG",
      "taf": "TAF GMMN 151100Z 1512/1618 26006KT 9999 FEW020"
    },
    {
      "icao": "GMMX",
      "alert": "OK",
      "vis_m": 9999,
      "fzfg": false,
      "metar_trigger": false,
      "taf_trigger": false,
      "metar": "METAR GMMX 151500Z 33003KT 250V020 9999 FEW030 17/09 Q1021 NOSIG",
      "taf": "TAF GMMX 151100Z 1512/1618 06006KT 8000 SCT026"
    },
    {
      "icao": "HEGN",
      "alert": "OK",
      "vis_m": 9999,
      "fzfg": false,
      "metar_trigger": false,
      "taf_trigger": false,
      "metar": "METAR HEGN 151400Z 36009KT CAVOK 19/08 Q1021 NOSIG",
      "taf": "TAF HEGN 151100Z 1512/1618 35010G20KT CAVOK"
    },
    {
      "icao": "HEMA",
      "alert": "OK",
      "vis_m": 9999,
      "fzfg": false,
      "metar_trigger": false,
      "taf_trigger": false,
      "metar": "METAR HEMA 151400Z 33018KT 9999 SCT020 SCT025 19/10 Q1019 NOSIG",
      "taf": "TAF HEMA 151100Z 1512/1618 36015G25KT 6000 SCT025"
    },
    {
      "icao": "HESH",
      "alert": "OK",
      "vis_m": 9999,
      "fzfg": false,
      "metar_trigger": false,
      "taf_trigger": false,
      "metar": "METAR HESH 151400Z 32012KT CAVOK 19/08 Q1021 NOSIG",
      "taf": "TAF HESH 151100Z 1512/1618 02010G20KT CAVOK"
    },
    {
      "icao": "HESX",
      "alert": "OK",
      "vis_m": 9999,
      "fzfg": false,
      "metar_trigger": false,
      "taf_trigger": false,
      "metar": "METAR HESX 151400Z 25007KT 9999 SCT030 17/07 Q1023 NOSIG",
      "taf": "TAF HESX 151101Z 1512/1618 35010KT 9999 FEW020 BKN070"
    },
    {
      "icao": "LATI",
      "alert": "OK",
      "vis_m": 9999,
      "fzfg": false,
      "metar_trigger": false,
      "taf_trigger": false,
      "metar": "METAR LATI 151520Z 00000KT 9999 FEW060 BKN085 14/04 Q1024 NOSIG",
      "taf": "TAF LATI 151100Z 1512/1612 VRB05KT CAVOK TX16/1512Z TN03/1605Z"
    },
    {
      "icao": "LBPD",
      "alert": "OK",
      "vis_m": 9999,
      "fzfg": false,
      "metar_trigger": false,
      "taf_trigger": false,
      "metar": "METAR LBPD 151500Z AUTO 31008KT 9999 NCD 11/03 Q1021 NOSIG",
      "taf": "TAF LBPD 151100Z 1512/1612 28010KT 9999 BKN070"
    },
    {
      "icao": "LBSF",
      "alert": "OK",
      "vis_m": 9999,
      "fzfg": false,
      "metar_trigger": false,
      "taf_trigger": false,
      "metar": "METAR LBSF 151500Z 30008KT CAVOK 10/02 Q1022 NOSIG",
      "taf": "TAF LBSF 151100Z 1512/1612 31010KT 9999 SCT060"
    },
    {
      "icao": "LBWN",
      "alert": "OK",
      "vis_m": 9999,
      "fzfg": false,
      "metar_trigger": false,
      "taf_trigger": false,
      "metar": "METAR LBWN 151500Z AUTO 02007KT 9999 NSC 08/04 Q1021 NOSIG",
      "taf": "TAF LBWN 151100Z 1512/1612 28012KT 9999 SCT040"
    },
    {
      "icao": "LCLK",
      "alert": "OK",
      "vis_m": 9999,
      "fzfg": false,
      "metar_trigger": false,
      "taf_trigger": false,
      "metar": "METAR LCLK 151500Z 19003KT 9999 FEW040 BKN050 14/07 Q1023 NOSIG",
      "taf": "TAF LCLK 151130Z 1512/1612 11010KT 9999 FEW040"
    },
    {
      "icao": "LCPH",
      "alert": "OK",
      "vis_m": 9999,
      "fzfg": false,
      "metar_trigger": false,
      "taf_trigger": false,
      "metar": "METAR LCPH 151500Z 00000KT 9999 FEW020 15/07 Q1023 NOSIG",
      "taf": "TAF LCPH 151130Z 1512/1612 23010KT 9999 FEW035 SCT045"
    },
    {
      "icao": "LEAL",
      "alert": "OK",
      "vis_m": 9999,
      "fzfg": false,
      "metar_trigger": false,
      "taf_trigger": false,
      "metar": "METAR LEAL 151500Z 19006KT 150V230 CAVOK 18/09 Q1017 NOSIG",
      "taf": "TAF LEAL 151100Z 1512/1612 VRB04KT CAVOK TX17/1513Z TN07/1606Z"
    },
    {
      "icao": "LEBB",
      "alert": "OK",
      "vis_m": 9999,
      "fzfg": false,
      "metar_trigger": false,
      "taf_trigger": false,
      "metar": "METAR LEBB 151500Z 17011G22KT 120V220 9999 -RA SCT070 13/06 Q1009 NOSIG",
      "taf": "TAF LEBB 151100Z 1512/1612 20009KT 9999 FEW025 SCT060 TX16/1512Z TN05/1607Z"
    },
    {
      "icao": "LEBL",
      "alert": "OK",
      "vis_m": 9999,
      "fzfg": false,
      "metar_trigger": false,
      "taf_trigger": false,
      "metar": "METAR LEBL 151500Z 22012KT CAVOK 14/09 Q1015 NOSIG",
      "taf": "TAF LEBL 151100Z 1512/1612 21010KT 9999 FEW015 TX15/1512Z TN06/1606Z"
    },
    {
      "icao": "LECH",
      "alert": "OK",
      "vis_m": 9000,
      "fzfg": false,
      "metar_trigger": false,
      "taf_trigger": false,
      "metar": "METAR LECH 151500Z AUTO 12008KT 9000 NCD 13/07 Q1015",
      "taf": ""
    },
    {
      "icao": "LEMD",
      "alert": "OK",
      "vis_m": 9999,
      "fzfg": false,
      "metar_trigger": false,
      "taf_trigger": false,
      "metar": "METAR LEMD 151500Z 21010KT 9999 SCT025 SCT035 BKN048 09/04 Q1016 NOSIG",
      "taf": ""
    },
    {
      "icao": "LEMG",
      "alert": "OK",
      "vis_m": 9999,
      "fzfg": false,
      "metar_trigger": false,
      "taf_trigger": false,
      "metar": "METAR LEMG 151500Z 29008KT 9999 FEW050 BKN070 16/07 Q1019 NOSIG",
      "taf": "TAF LEMG 151100Z 1512/1612 29006KT 9999 SCT040 TX18/1514Z TN11/1607Z"
    },
    {
      "icao": "LEVC",
      "alert": "OK",
      "vis_m": 9999,
      "fzfg": false,
      "metar_trigger": false,
      "taf_trigger": false,
      "metar": "METAR LEVC 151500Z 23011KT 9999 FEW040 18/05 Q1016 NOSIG",
      "taf": "TAF LEVC 151100Z 1512/1612 26005KT CAVOK TX18/1512Z TN06/1606Z"
    },
    {
      "icao": "LEXJ",
      "alert": "OK",
      "vis_m": 9000,
      "fzfg": false,
      "metar_trigger": false,
      "taf_trigger": false,
      "metar": "METAR LEXJ 151500Z 20019G34KT 130V260 9000 -RA FEW050 BKN068 14/04 Q1007",
      "taf": "TAF LEXJ 151400Z 1515/1615 21009KT 9999 SCT040 BKN070 TX16/1615Z TN07/1608Z"
    },
    {
      "icao": "LEZG",
      "alert": "OK",
      "vis_m": 9999,
      "fzfg": false,
      "metar_trigger": false,
      "taf_trigger": false,
      "metar": "METAR LEZG 151500Z 12007KT 090V150 9999 FEW060 13/05 Q1015 NOSIG",
      "taf": ""
    },
    {
      "icao": "LEZL",
      "alert": "OK",
      "vis_m": 9000,
      "fzfg": false,
      "metar_trigger": false,
      "taf_trigger": false,
      "metar": "METAR LEZL 151500Z 00000KT 9000 SCT049 12/10 Q1019 NOSIG",
      "taf": "TAF LEZL 151400Z 1515/1615 VRB03KT 9999 BKN007 TX14/1515Z TN08/1607Z"
    },
    {
      "icao": "LFBD",
      "alert": "OK",
      "vis_m": 9999,
      "fzfg": false,
      "metar_trigger": false,
      "taf_trigger": false,
      "metar": "METAR LFBD 151500Z AUTO 22011KT CAVOK 14/06 Q1009 TEMPO 15010KT",
      "taf": ""
    },
    {
      "icao": "LFLL",
      "alert": "OK",
      "vis_m": 9999,
      "fzfg": false,
      "metar_trigger": false,
      "taf_trigger": false,
      "metar": "METAR LFLL 151500Z 18013KT CAVOK 13/05 Q1012 NOSIG",
      "taf": "TAF LFLL 151100Z 1512/1618 18015G25KT CAVOK"
    },
    {
      "icao": "LFLS",
      "alert": "OK",
      "vis_m": 9999,
      "fzfg": false,
      "metar_trigger": false,
      "taf_trigger": false,
      "metar": "METAR LFLS 151500Z AUTO 22013KT 190V250 CAVOK 12/06 Q1013 NOSIG",
      "taf": "TAF LFLS 151400Z 1515/1615 20010KT CAVOK"
    },
    {
      "icao": "LFMN",
      "alert": "OK",
      "vis_m": 9999,
      "fzfg": false,
      "metar_trigger": false,
      "taf_trigger": false,
      "metar": "METAR LFMN 151500Z 13008KT 9999 SCT023 15/10 Q1019 NOSIG",
      "taf": "TAF LFMN 151400Z 1515/1621 11009KT 9999 SCT024"
    },
    {
      "icao": "LFOB",
      "alert": "OK",
      "vis_m": 9999,
      "fzfg": false,
      "metar_trigger": false,
      "taf_trigger": false,
      "metar": "METAR LFOB 151500Z AUTO 15009KT 9999 BKN039 OVC046 11/08 Q1005 NOSIG",
      "taf": ""
    },
    {
      "icao": "LFPO",
      "alert": "OK",
      "vis_m": 9999,
      "fzfg": false,
      "metar_trigger": false,
      "taf_trigger": false,
      "metar": "METAR LFPO 151500Z 19014KT 9999 SCT041 BKN260 13/06 Q1006 NOSIG",
      "taf": "TAF LFPO 151100Z 1512/1618 18010KT 9999 BKN012"
    },
    {
      "icao": "LFSB",
      "alert": "OK",
      "vis_m": 9999,
      "fzfg": false,
      "metar_trigger": false,
      "taf_trigger": false,
      "metar": "METAR LFSB 151500Z AUTO 11009KT CAVOK 13/05 Q1012 NOSIG",
      "taf": "TAF LFSB 151100Z 1512/1612 15008KT CAVOK"
    },
    {
      "icao": "LGAV",
      "alert": "OK",
      "vis_m": 9999,
      "fzfg": false,
      "metar_trigger": false,
      "taf_trigger": false,
      "metar": "METAR LGAV 151450Z 08005KT 9999 FEW030 14/06 Q1023 NOSIG",
      "taf": "TAF LGAV 151100Z 1512/1612 VRB05KT 9999 FEW016 SCT025"
    },
    {
      "icao": "LGTS",
      "alert": "OK",
      "vis_m": 9999,
      "fzfg": false,
      "metar_trigger": false,
      "taf_trigger": false,
      "metar": "METAR LGTS 151520Z VRB02KT CAVOK 12/06 Q1023 NOSIG",
      "taf": "TAF LGTS 151100Z 1512/1612 VRB03KT 9999 FEW030"
    },
    {
      "icao": "LHBP",
      "alert": "OK",
      "vis_m": 5000,
      "fzfg": false,
      "metar_trigger": false,
      "taf_trigger": false,
      "metar": "METAR LHBP 151500Z 12006KT 5000 BR FEW008 BKN100 M02/M03 Q1022 NOSIG",
      "taf": "TAF LHBP 151115Z 1512/1612 09005KT 2500 BR OVC005"
    },
    {
      "icao": "LHDC",
      "alert": "OK",
      "vis_m": 2700,
      "fzfg": false,
      "metar_trigger": false,
      "taf_trigger": false,
      "metar": "METAR LHDC 151445Z AUTO 08005KT 2700 BR SCT009 SCT018 BKN046 01/00 Q1023 NOSIG",
      "taf": "TAF LHDC 151415Z 1515/1524 VRB03KT 5000 BR SCT004 OVC040"
    },
    {
      "icao": "LIBD",
      "alert": "OK",
      "vis_m": 9999,
      "fzfg": false,
      "metar_trigger": false,
      "taf_trigger": false,
      "metar": "METAR LIBD 151450Z 08003KT CAVOK 12/09 Q1022",
      "taf": "TAF LIBD 151100Z 1512/1612 VRB06KT 9999 FEW030"
    },
    {
      "icao": "LIBG",
      "alert": "OK",
      "vis_m": 9999,
      "fzfg": false,
      "metar_trigger": false,
      "taf_trigger": false,
      "metar": "METAR LIBG 151450Z 18003KT 9999 FEW020 14/12 Q1022",
      "taf": "TAF LIBG 151400Z 1515/1524 VRB05KT 8000 FEW025"
    },
    {
      "icao": "LIBP",
      "alert": "OK",
      "vis_m": 9999,
      "fzfg": false,
      "metar_trigger": false,
      "taf_trigger": false,
      "metar": "METAR LIBP 151450Z AUTO 09003KT 9999 NCD 14/06 Q1021",
      "taf": "TAF LIBP 151100Z 1512/1612 VRB05KT CAVOK"
    },
    {
      "icao": "LIBR",
      "alert": "OK",
      "vis_m": 9999,
      "fzfg": false,
      "metar_trigger": false,
      "taf_trigger": false,
      "metar": "METAR LIBR 151450Z 21008KT CAVOK 14/09 Q1022",
      "taf": "TAF LIBR 151100Z 1512/1612 VRB06KT 9999 FEW025"
    },
    {
      "icao": "LICA",
      "alert": "OK",
      "vis_m": 9999,
      "fzfg": false,
      "metar_trigger": false,
      "taf_trigger": false,
      "metar": "METAR LICA 151450Z AUTO 26006KT 9999 NCD 15/10 Q1022",
      "taf": "TAF LICA 151100Z 1512/1612 08010KT CAVOK"
    },
    {
      "icao": "LICC",
      "alert": "OK",
      "vis_m": 9999,
      "fzfg": false,
      "metar_trigger": false,
      "taf_trigger": false,
      "metar": "METAR LICC 151450Z 13005KT 9999 SCT040 16/12 Q1022",
      "taf": "TAF LICC 151100Z 1512/1612 VRB05KT 9999 SCT040"
    },
    {
      "icao": "LICJ",
      "alert": "OK",
      "vis_m": 9999,
      "fzfg": false,
      "metar_trigger": false,
      "taf_trigger": false,
      "metar": "METAR LICJ 151450Z 07009KT CAVOK 16/11 Q1020",
      "taf": "TAF LICJ 151100Z 1512/1612 05010KT CAVOK"
    },
    {
      "icao": "LIMC",
      "alert": "OK",
      "vis_m": 3000,
      "fzfg": false,
      "metar_trigger": false,
      "taf_trigger": false,
      "metar": "METAR LIMC 151450Z VRB01KT 3000 -DZ BR OVC005 07/06 Q1021 NOSIG",
      "taf": "TAF LIMC 151100Z 1512/1618 VRB05KT 0800 -RA FG BKN003"
    },
    {
      "icao": "LIME",
      "alert": "OK",
      "vis_m": 2500,
      "fzfg": false,
      "metar_trigger": false,
      "taf_trigger": false,
      "metar": "METAR LIME 151450Z 10002KT 2500 BR BKN010 06/04 Q1021 NOSIG",
      "taf": "TAF LIME 151100Z 1512/1612 VRB04KT 3000 BR SCT010 BKN040"
    },
    {
      "icao": "LIMF",
      "alert": "OK",
      "vis_m": 6000,
      "fzfg": false,
      "metar_trigger": false,
      "taf_trigger": false,
      "metar": "METAR LIMF 151450Z 02004KT 6000 BKN020 OVC050 07/01 Q1021",
      "taf": "TAF LIMF 151100Z 1512/1612 VRB03KT 8000 SCT050"
    },
    {
      "icao": "LIMJ",
      "alert": "OK",
      "vis_m": 9999,
      "fzfg": false,
      "metar_trigger": false,
      "taf_trigger": false,
      "metar": "METAR LIMJ 151450Z 10004KT 040V140 9999 SCT015 SCT025 14/08 Q1019",
      "taf": "TAF LIMJ 151100Z 1512/1612 04008KT 9999 SCT020 SCT050"
    },
    {
      "icao": "LIPE",
      "alert": "OK",
      "vis_m": 3000,
      "fzfg": false,
      "metar_trigger": false,
      "taf_trigger": false,
      "metar": "METAR LIPE 151450Z 17002KT 3000 -DZ BR FEW015 BKN050 07/05 Q1021",
      "taf": "TAF LIPE 151100Z 1512/1612 VRB04KT 3000 BR BKN040"
    },
    {
      "icao": "LIPH",
      "alert": "OK",
      "vis_m": 9999,
      "fzfg": false,
      "metar_trigger": false,
      "taf_trigger": false,
      "metar": "METAR LIPH 151450Z VRB01KT 9999 SCT080 09/05 Q1021",
      "taf": "TAF LIPH 151100Z 1512/1612 VRB04KT 6000 SCT040"
    },
    {
      "icao": "LIPQ",
      "alert": "OK",
      "vis_m": 7000,
      "fzfg": false,
      "metar_trigger": false,
      "taf_trigger": false,
      "metar": "METAR LIPQ 151450Z AUTO 11002KT 7000 FEW014/// OVC042/// 10/07 Q1021",
      "taf": "TAF LIPQ 151100Z 1512/1612 VRB04KT 7000 BKN035"
    },
    {
      "icao": "LIPR",
      "alert": "OK",
      "vis_m": 4000,
      "fzfg": false,
      "metar_trigger": false,
      "taf_trigger": false,
      "metar": "METAR LIPR 151450Z VRB02KT 4000 BR BKN007 08/06 Q1021",
      "taf": "TAF LIPR 151100Z 1512/1612 VRB04KT 3000 BR SCT020"
    },
    {
      "icao": "LIPX",
      "alert": "OK",
      "vis_m": 6000,
      "fzfg": false,
      "metar_trigger": false,
      "taf_trigger": false,
      "metar": "METAR LIPX 151450Z VRB01KT 6000 SCT045 BKN080 09/04 Q1021",
      "taf": "TAF LIPX 151100Z 1512/1612 VRB04KT 6000 BKN050"
    },
    {
      "icao": "LIPY",
      "alert": "OK",
      "vis_m": 4600,
      "fzfg": false,
      "metar_trigger": false,
      "taf_trigger": false,
      "metar": "METAR LIPY 151450Z AUTO 35005KT 320V060 4600 BR OVC082/// 10/08 Q1021",
      "taf": "TAF LIPY 151100Z 1512/1612 VRB05KT 7000 SCT060"
    },
    {
      "icao": "LIPZ",
      "alert": "OK",
      "vis_m": 9000,
      "fzfg": false,
      "metar_trigger": false,
      "taf_trigger": false,
      "metar": "METAR LIPZ 151450Z VRB02KT 9000 SCT070 07/04 Q1021 NOSIG",
      "taf": "TAF LIPZ 151100Z 1512/1618 VRB04KT 6000 SCT040"
    },
    {
      "icao": "LIRF",
      "alert": "OK",
      "vis_m": 9999,
      "fzfg": false,
      "metar_trigger": false,
      "taf_trigger": false,
      "metar": "METAR LIRF 151450Z 15012KT 9999 FEW025 15/11 Q1021 NOSIG",
      "taf": "TAF LIRF 151100Z 1512/1618 15012KT 9999 SCT030"
    },
    {
      "icao": "LIRN",
      "alert": "OK",
      "vis_m": 9999,
      "fzfg": false,
      "metar_trigger": false,
      "taf_trigger": false,
      "metar": "METAR LIRN 151450Z VRB02KT CAVOK 15/07 Q1022 NOSIG",
      "taf": "TAF LIRN 151100Z 1512/1612 VRB05KT CAVOK"
    },
    {
      "icao": "LIRP",
      "alert": "OK",
      "vis_m": 9999,
      "fzfg": false,
      "metar_trigger": false,
      "taf_trigger": false,
      "metar": "METAR LIRP 151445Z 12006KT 9999 FEW020 BKN025 13/10 Q1019 NOSIG",
      "taf": "TAF LIRP 151100Z 1512/1612 12005KT 9999 SCT020 SCT040"
    },
    {
      "icao": "LIRZ",
      "alert": "OK",
      "vis_m": 9999,
      "fzfg": false,
      "metar_trigger": false,
      "taf_trigger": false,
      "metar": "METAR LIRZ 151450Z AUTO 16004KT 9999 BKN071/// 14/07 Q1021",
      "taf": "TAF LIRZ 151100Z 1512/1612 VRB05KT 9999 SCT040"
    },
    {
      "icao": "LJLJ",
      "alert": "OK",
      "vis_m": 9999,
      "fzfg": false,
      "metar_trigger": false,
      "taf_trigger": false,
      "metar": "METAR LJLJ 151500Z VRB01KT 9999 FEW030 BKN050 02/01 Q1019 NOSIG",
      "taf": "TAF LJLJ 151100Z 1512/1612 30003KT 9999 FEW040 BKN060"
    },
    {
      "icao": "LKMT",
      "alert": "OK",
      "vis_m": 4500,
      "fzfg": false,
      "metar_trigger": false,
      "taf_trigger": false,
      "metar": "METAR LKMT 151500Z 21007KT 4500 BR BKN042 01/00 Q1019 NOSIG",
      "taf": "TAF LKMT 151100Z 1512/1612 22008KT 6000 BKN025"
    },
    {
      "icao": "LKPR",
      "alert": "OK",
      "vis_m": 800,
      "fzfg": false,
      "metar_trigger": false,
      "taf_trigger": false,
      "metar": "METAR LKPR 151500Z 05003KT 0800 R24/0450D R30/1200U BCFG FEW002 SCT025 04/04 Q1017 BECMG 0500 FG BKN002",
      "taf": "TAF LKPR 151400Z 1515/1621 12004KT 2500 BR BKN020"
    },
    {
      "icao": "LLBG",
      "alert": "OK",
      "vis_m": 9999,
      "fzfg": false,
      "metar_trigger": false,
      "taf_trigger": false,
      "metar": "METAR LLBG 151520Z 34004KT CAVOK 16/07 Q1024 NOSIG RMK FEW055",
      "taf": "TAF LLBG 151112Z 1512/1612 32010KT 9999 FEW040"
    },
    {
      "icao": "LMML",
      "alert": "OK",
      "vis_m": 9999,
      "fzfg": false,
      "metar_trigger": false,
      "taf_trigger": false,
      "metar": "METAR LMML 151515Z 13012KT 9999 FEW019 16/13 Q1021 NOSIG",
      "taf": "TAF LMML 151100Z 1512/1612 15012KT 9999 FEW018"
    },
    {
      "icao": "LOWW",
      "alert": "OK",
      "vis_m": 3600,
      "fzfg": false,
      "metar_trigger": false,
      "taf_trigger": false,
      "metar": "METAR LOWW 151520Z 14006KT 3600 BR FEW004 BKN005 M01/M02 Q1020 TEMPO 2000 BR BKN003",
      "taf": "TAF LOWW 151415Z 1515/1621 15005KT 3000 BR BKN005 TX01/1621Z TNM02/1520Z"
    },
    {
      "icao": "LPFR",
      "alert": "OK",
      "vis_m": 9999,
      "fzfg": false,
      "metar_trigger": false,
      "taf_trigger": false,
      "metar": "METAR LPFR 151500Z 20004KT 9999 FEW016 SCT048 15/11 Q1019",
      "taf": "TAF LPFR 151100Z 1512/1612 27005KT 9999 FEW015"
    },
    {
      "icao": "LPMA",
      "alert": "OK",
      "vis_m": 9999,
      "fzfg": false,
      "metar_trigger": false,
      "taf_trigger": false,
      "metar": "METAR LPMA 151500Z 15003KT 100V200 9999 FEW015 BKN025 17/11 Q1024",
      "taf": "TAF LPMA 151100Z 1512/1612 VRB05KT 9999 SCT015"
    },
    {
      "icao": "LPPR",
      "alert": "OK",
      "vis_m": 2600,
      "fzfg": false,
      "metar_trigger": false,
      "taf_trigger": false,
      "metar": "METAR LPPR 151500Z 19004KT 150V250 2600 -RADZ BR SCT004 BKN015 FEW017TCU 11/11 Q1012 RERA",
      "taf": "TAF LPPR 151100Z 1512/1612 17020KT 8000 -RA SCT008 BKN015"
    },
    {
      "icao": "LPPS",
      "alert": "OK",
      "vis_m": 9999,
      "fzfg": false,
      "metar_trigger": false,
      "taf_trigger": false,
      "metar": "METAR LPPS 151500Z 27014KT 9999 FEW015 17/13 Q1024",
      "taf": "TAF LPPS 151100Z 1512/1618 30010KT 9999 SCT015 BKN030"
    },
    {
      "icao": "LPPT",
      "alert": "OK",
      "vis_m": 1500,
      "fzfg": false,
      "metar_trigger": false,
      "taf_trigger": false,
      "metar": "METAR LPPT 151500Z 21015KT 1500 R20/1300N RADZ BR BKN004 13/12 Q1015",
      "taf": "TAF LPPT 151100Z 1512/1618 22015KT 9999 FEW025 BKN035"
    },
    {
      "icao": "LQBK",
      "alert": "OK",
      "vis_m": 9999,
      "fzfg": false,
      "metar_trigger": false,
      "taf_trigger": false,
      "metar": "METAR LQBK 151500Z VRB02KT CAVOK 08/04 Q1021 NOSIG",
      "taf": "TAF LQBK 151100Z 1512/1612 22005KT CAVOK TX08/1513Z TN02/1605Z"
    },
    {
      "icao": "LQSA",
      "alert": "OK",
      "vis_m": 9999,
      "fzfg": false,
      "metar_trigger": false,
      "taf_trigger": false,
      "metar": "METAR LQSA 151500Z 12003KT 090V160 9999 BKN045 04/02 Q1022 NOSIG",
      "taf": "TAF LQSA 151100Z 1512/1612 VRB02KT 8000 FEW012 SCT050 TX08/1514Z TN00/1605Z"
    },
    {
      "icao": "LQTZ",
      "alert": "OK",
      "vis_m": 7000,
      "fzfg": false,
      "metar_trigger": false,
      "taf_trigger": false,
      "metar": "METAR LQTZ 151500Z VRB02KT 7000 BKN065 06/03 Q1021",
      "taf": "TAF LQTZ 151100Z 1512/1612 VRB02KT 7000 BKN045 TX07/1513Z TN00/1605Z"
    },
    {
      "icao": "LRBC",
      "alert": "OK",
      "vis_m": 8000,
      "fzfg": false,
      "metar_trigger": false,
      "taf_trigger": false,
      "metar": "METAR LRBC 151500Z 03003KT 8000 OVC014 M02/M06 Q1023",
      "taf": "TAF LRBC 151400Z 1515/1524 36006KT 8000 OVC015"
    },
    {
      "icao": "LRBS",
      "alert": "OK",
      "vis_m": 5000,
      "fzfg": false,
      "metar_trigger": false,
      "taf_trigger": false,
      "metar": "METAR LRBS 151500Z 06006KT 5000 BR NSC 00/M02 Q1022 NOSIG",
      "taf": ""
    },
    {
      "icao": "LRBV",
      "alert": "OK",
      "vis_m": 3000,
      "fzfg": false,
      "metar_trigger": false,
      "taf_trigger": false,
      "metar": "METAR LRBV 151500Z 33004KT 3000 -DZRA BR FEW003 BKN020 OVC030 01/01 Q1021 RERA",
      "taf": ""
    },
    {
      "icao": "LRCL",
      "alert": "OK",
      "vis_m": 2000,
      "fzfg": false,
      "metar_trigger": false,
      "taf_trigger": false,
      "metar": "METAR LRCL 151500Z 06002KT 2000 BR OVC015 01/M01 Q1023",
      "taf": "TAF LRCL 151400Z 1515/1524 VRB04KT 3000 BR OVC015"
    },
    {
      "icao": "LRCV",
      "alert": "OK",
      "vis_m": 9999,
      "fzfg": false,
      "metar_trigger": false,
      "taf_trigger": false,
      "metar": "METAR LRCV 151500Z 28011KT CAVOK 09/04 Q1020",
      "taf": "TAF LRCV 151400Z 1515/1524 29012KT CAVOK"
    },
    {
      "icao": "LRIA",
      "alert": "OK",
      "vis_m": 9999,
      "fzfg": false,
      "metar_trigger": false,
      "taf_trigger": false,
      "metar": "METAR LRIA 151500Z 36006KT 9999 BKN008 M04/M06 Q1024",
      "taf": "TAF LRIA 151400Z 1515/1524 VRB04KT 7000 BKN010"
    },
    {
      "icao": "LROP",
      "alert": "OK",
      "vis_m": 4800,
      "fzfg": false,
      "metar_trigger": false,
      "taf_trigger": false,
      "metar": "METAR LROP 151500Z 08007KT 4800 BR NSC 00/M02 Q1022 NOSIG",
      "taf": ""
    },
    {
      "icao": "LRSB",
      "alert": "OK",
      "vis_m": 2000,
      "fzfg": false,
      "metar_trigger": false,
      "taf_trigger": false,
      "metar": "METAR LRSB 151500Z VRB03KT 2000 -RADZ BR FEW005 OVC010 02/02 Q1021",
      "taf": "TAF LRSB 151100Z 1512/1612 VRB04KT 5000 BR BKN010 OVC020"
    },
    {
      "icao": "LRSM",
      "alert": "OK",
      "vis_m": 3500,
      "fzfg": false,
      "metar_trigger": false,
      "taf_trigger": false,
      "metar": "METAR LRSM 151500Z 08004KT 3500 BR BKN005 00/M01 Q1023",
      "taf": "TAF LRSM 151400Z 1515/1524 VRB04KT 5000 BR BKN005"
    },
    {
      "icao": "LRSV",
      "alert": "OK",
      "vis_m": 2000,
      "fzfg": false,
      "metar_trigger": false,
      "taf_trigger": false,
      "metar": "METAR LRSV 151500Z 07003KT 2000 BR OVC003 M06/M06 Q1021",
      "taf": "TAF LRSV 151400Z 1515/1524 VRB04KT 1500 BR OVC005"
    },
    {
      "icao": "LRTM",
      "alert": "OK",
      "vis_m": 2300,
      "fzfg": false,
      "metar_trigger": false,
      "taf_trigger": false,
      "metar": "METAR LRTM 151500Z 21003KT 2300 BR SCT008 BKN018 OVC033 00/M00 Q1023",
      "taf": "TAF LRTM 151400Z 1515/1524 VRB04KT 3000 BR SCT010 BKN030"
    },
    {
      "icao": "LRTR",
      "alert": "OK",
      "vis_m": 6000,
      "fzfg": false,
      "metar_trigger": false,
      "taf_trigger": false,
      "metar": "METAR LRTR 151500Z 10005KT 6000 NSC 02/02 Q1022",
      "taf": "TAF LRTR 151100Z 1512/1612 VRB04KT 5000 BR BKN020"
    },
    {
      "icao": "LTAC",
      "alert": "OK",
      "vis_m": 9999,
      "fzfg": false,
      "metar_trigger": false,
      "taf_trigger": false,
      "metar": "METAR LTAC 151520Z 25009KT 9999 SCT035 BKN090 02/M01 Q1021 NOSIG",
      "taf": "TAF LTAC 151040Z 1512/1612 22008KT 9999 SCT010 SCT040 BKN100"
    },
    {
      "icao": "LTFM",
      "alert": "OK",
      "vis_m": 9999,
      "fzfg": false,
      "metar_trigger": false,
      "taf_trigger": false,
      "metar": "METAR LTFM 151520Z 22014KT 9999 FEW025 BKN070 10/07 Q1022 NOSIG",
      "taf": "TAF LTFM 151040Z 1512/1618 23017G27KT 9999 FEW025 BKN070"
    },
    {
      "icao": "LUKK",
      "alert": "OK",
      "vis_m": 9999,
      "fzfg": false,
      "metar_trigger": false,
      "taf_trigger": false,
      "metar": "METAR LUKK 151500Z 05008KT 9999 BKN023 OVC045 M07/M10 Q1024 NOSIG",
      "taf": "TAF LUKK 151105Z 1512/1612 03008KT 9999 BKN012"
    },
    {
      "icao": "LWOH",
      "alert": "OK",
      "vis_m": 9999,
      "fzfg": false,
      "metar_trigger": false,
      "taf_trigger": false,
      "metar": "METAR LWOH 151450Z 14006KT 9999 FEW040 09/04 Q1023",
      "taf": "TAF LWOH 151420Z 1515/1615 VRB02KT 9999 FEW040"
    },
    {
      "icao": "LWSK",
      "alert": "OK",
      "vis_m": 9999,
      "fzfg": false,
      "metar_trigger": false,
      "taf_trigger": false,
      "metar": "METAR LWSK 151520Z 25002KT CAVOK 08/02 Q1024 NOSIG",
      "taf": "TAF LWSK 151420Z 1515/1615 VRB02KT CAVOK"
    },
    {
      "icao": "LYBE",
      "alert": "OK",
      "vis_m": 4000,
      "fzfg": false,
      "metar_trigger": false,
      "taf_trigger": false,
      "metar": "METAR LYBE 151500Z 04004KT 4000 BR NSC 07/02 Q1022 NOSIG",
      "taf": "TAF LYBE 151100Z 1512/1612 18005KT 9999 SCT045 TX08/1513Z TN02/1606Z"
    },
    {
      "icao": "LYNI",
      "alert": "OK",
      "vis_m": 9999,
      "fzfg": false,
      "metar_trigger": false,
      "taf_trigger": false,
      "metar": "METAR LYNI 151500Z 13002KT 9999 FEW050 BKN070 10/05 Q1023 NOSIG",
      "taf": "TAF LYNI 151100Z 1512/1612 11004KT 9999 SCT060 TX10/1513Z TN00/1606Z"
    },
    {
      "icao": "LYPG",
      "alert": "OK",
      "vis_m": 9999,
      "fzfg": false,
      "metar_trigger": false,
      "taf_trigger": false,
      "metar": "METAR LYPG 151500Z VRB01KT 9999 SCT070 12/06 Q1024 NOSIG",
      "taf": "TAF LYPG 151100Z 1512/1612 17005KT 9999 FEW040 BKN080 TX13/1513Z TN05/1605Z"
    },
    {
      "icao": "LZIB",
      "alert": "OK",
      "vis_m": 2400,
      "fzfg": false,
      "metar_trigger": false,
      "taf_trigger": false,
      "metar": "METAR LZIB 151500Z 05004KT 2400 BR SCT005 M01/M01 Q1021 TEMPO 1500 BR BKN002",
      "taf": ""
    },
    {
      "icao": "LZKZ",
      "alert": "OK",
      "vis_m": 6000,
      "fzfg": false,
      "metar_trigger": false,
      "taf_trigger": false,
      "metar": "METAR LZKZ 151500Z 15003KT 6000 SCT017 BKN030 M00/M02 Q1022 NOSIG",
      "taf": "TAF LZKZ 151115Z 1512/1612 VRB02KT 9999 SCT010 BKN025"
    },
    {
      "icao": "LZTT",
      "alert": "OK",
      "vis_m": 9999,
      "fzfg": false,
      "metar_trigger": false,
      "taf_trigger": false,
      "metar": "METAR LZTT 151500Z 06001KT 9999 FEW010 OVC023 01/M01 Q1019 NOSIG",
      "taf": "TAF LZTT 151115Z 1512/1612 VRB02KT 9999 FEW009 SCT014 BKN025"
    },
    {
      "icao": "OEJN",
      "alert": "OK",
      "vis_m": 9999,
      "fzfg": false,
      "metar_trigger": false,
      "taf_trigger": false,
      "metar": "METAR OEJN 151500Z 33012KT 9999 FEW040 26/08 Q1014 NOSIG",
      "taf": "TAF OEJN 151100Z 1512/1618 33014KT 9999 FEW040"
    },
    {
      "icao": "OEMA",
      "alert": "OK",
      "vis_m": 9999,
      "fzfg": false,
      "metar_trigger": false,
      "taf_trigger": false,
      "metar": "METAR OEMA 151500Z 06006KT CAVOK 22/M05 Q1020 NOSIG",
      "taf": "TAF OEMA 151100Z 1512/1618 08012KT 7000 NSC"
    },
    {
      "icao": "OJAI",
      "alert": "OK",
      "vis_m": 5000,
      "fzfg": false,
      "metar_trigger": false,
      "taf_trigger": false,
      "metar": "METAR OJAI 151500Z 27008KT 5000 HZ FEW030 09/04 Q1024 NOSIG",
      "taf": "TAF OJAI 151100Z 1512/1618 29008KT 5000 HZ FEW030"
    },
    {
      "icao": "OMAA",
      "alert": "OK",
      "vis_m": 9999,
      "fzfg": false,
      "metar_trigger": false,
      "taf_trigger": false,
      "metar": "METAR OMAA 151500Z 30004KT CAVOK 22/16 Q1017 NOSIG",
      "taf": "TAF OMAA 151100Z 1512/1618 32015KT 8000 FEW045"
    },
    {
      "icao": "OMDB",
      "alert": "OK",
      "vis_m": 9999,
      "fzfg": false,
      "metar_trigger": false,
      "taf_trigger": false,
      "metar": "METAR OMDB 151500Z 21006KT CAVOK 23/15 Q1016 NOSIG",
      "taf": ""
    },
    {
      "icao": "UAAA",
      "alert": "OK",
      "vis_m": 5000,
      "fzfg": false,
      "metar_trigger": false,
      "taf_trigger": false,
      "metar": "METAR UAAA 151500Z 31002MPS 5000 BR OVC007 M07/M08 Q1021 NOSIG",
      "taf": "TAF UAAA 151110Z 1512/1612 34003G08MPS 1600 BR FU BKN011CB OVC020 TXM07/1608Z TNM10/1603Z"
    },
    {
      "icao": "UBBB",
      "alert": "OK",
      "vis_m": 9999,
      "fzfg": false,
      "metar_trigger": false,
      "taf_trigger": false,
      "metar": "METAR UBBB 151500Z 34002KT CAVOK 02/M03 Q1024 NOSIG",
      "taf": "TAF UBBB 151051Z 1512/1612 01010KT 9999 SCT030 TX05/1512Z TN01/1601Z"
    },
    {
      "icao": "UDSG",
      "alert": "OK",
      "vis_m": 9999,
      "fzfg": false,
      "metar_trigger": false,
      "taf_trigger": false,
      "metar": "METAR UDSG 151500Z 08004KT 9999 NSC M16/M20 Q1019 NOSIG",
      "taf": "TAF UDSG 151058Z 1512/1612 VRB06KT 9999 FEW040"
    },
    {
      "icao": "UDYZ",
      "alert": "OK",
      "vis_m": 9999,
      "fzfg": false,
      "metar_trigger": false,
      "taf_trigger": false,
      "metar": "METAR UDYZ 151500Z 22006KT 9999 FEW046 M01/M10 Q1020 NOSIG",
      "taf": "TAF UDYZ 151100Z 1512/1612 VRB06KT 6000 FEW040"
    },
    {
      "icao": "UGKO",
      "alert": "OK",
      "vis_m": 9999,
      "fzfg": false,
      "metar_trigger": false,
      "taf_trigger": false,
      "metar": "METAR UGKO 151500Z 10005KT CAVOK 01/M01 Q1023 NOSIG",
      "taf": "TAF UGKO 151100Z 1512/1612 VRB02KT 9999 SCT020 BKN050 TX05/1512Z TNM01/1601Z"
    }
  ]
}