{
  "ts_utc": "2026-03-14T19:37:11Z",
  "threshold_m": 150,
  "source": "stations_override.txt (ICAO list) + aviationweather.gov (METAR/TAF raw)",
  "station_count": 159,
  "stations": [
    {
      "icao": "BIKF",
      "alert": "OK",
      "vis_m": 9999,
      "fzfg": false,
      "metar_trigger": false,
      "taf_trigger": false,
      "metar": "METAR BIKF 141930Z 08017KT 9999 FEW030 BKN093 01/M02 Q0979",
      "taf": "TAF BIKF 141925Z 1421/1521 09020KT 9999 BKN030 TX03/1514Z TN01/1421Z"
    },
    {
      "icao": "BKPR",
      "alert": "OK",
      "vis_m": 9999,
      "fzfg": false,
      "metar_trigger": false,
      "taf_trigger": false,
      "metar": "METAR BKPR 141930Z VRB02KT CAVOK 09/02 Q1007 NOSIG",
      "taf": "TAF BKPR 141730Z 1418/1518 VRB05KT CAVOK"
    },
    {
      "icao": "EBCI",
      "alert": "OK",
      "vis_m": 9999,
      "fzfg": false,
      "metar_trigger": false,
      "taf_trigger": false,
      "metar": "METAR EBCI 141920Z VRB02KT 9999 FEW020 BKN030 04/01 Q1008 NOSIG",
      "taf": "TAF EBCI 141709Z 1418/1524 30010KT 9999 SCT020"
    },
    {
      "icao": "EDDB",
      "alert": "OK",
      "vis_m": 9999,
      "fzfg": false,
      "metar_trigger": false,
      "taf_trigger": false,
      "metar": "METAR EDDB 141920Z AUTO 29006KT 9999 SCT012 06/04 Q1003 BECMG BKN012",
      "taf": "TAF EDDB 141700Z 1418/1518 31007KT 9999 BKN025"
    },
    {
      "icao": "EDDH",
      "alert": "OK",
      "vis_m": 9999,
      "fzfg": false,
      "metar_trigger": false,
      "taf_trigger": false,
      "metar": "METAR EDDH 141920Z AUTO 31001KT 9999 -DZ BKN021 04/04 Q1005 NOSIG",
      "taf": "TAF EDDH 141700Z 1418/1524 30003KT 9999 SCT015 BKN030"
    },
    {
      "icao": "EDDK",
      "alert": "OK",
      "vis_m": 9999,
      "fzfg": false,
      "metar_trigger": false,
      "taf_trigger": false,
      "metar": "METAR EDDK 141920Z AUTO 33004KT 9999 FEW018 BKN035 BKN046 03/02 Q1007 NOSIG",
      "taf": "TAF EDDK 141700Z 1418/1524 28006KT 9999 SCT012 BKN015"
    },
    {
      "icao": "EDDN",
      "alert": "OK",
      "vis_m": 9999,
      "fzfg": false,
      "metar_trigger": false,
      "taf_trigger": false,
      "metar": "METAR EDDN 141920Z AUTO 28007KT 9999 SCT044 05/01 Q1004 NOSIG",
      "taf": "TAF EDDN 141700Z 1418/1518 28010KT 9999 FEW008 BKN020"
    },
    {
      "icao": "EDDS",
      "alert": "OK",
      "vis_m": 9999,
      "fzfg": false,
      "metar_trigger": false,
      "taf_trigger": false,
      "metar": "METAR EDDS 141920Z AUTO 28006KT CAVOK 04/M00 Q1005 NOSIG",
      "taf": "TAF EDDS 141700Z 1418/1518 26005KT 9999 BKN020"
    },
    {
      "icao": "EDFH",
      "alert": "OK",
      "vis_m": 9999,
      "fzfg": false,
      "metar_trigger": false,
      "taf_trigger": false,
      "metar": "METAR EDFH 141920Z 28006KT 9999 FEW006 SCT009 BKN016 02/01 Q1005",
      "taf": "TAF EDFH 141700Z 1418/1518 28010KT 9999 BKN010"
    },
    {
      "icao": "EDJA",
      "alert": "OK",
      "vis_m": 9999,
      "fzfg": false,
      "metar_trigger": false,
      "taf_trigger": false,
      "metar": "METAR EDJA 141920Z 22006KT 9999 -SN SCT004 BKN007 OVC028 01/01 Q1005",
      "taf": "TAF EDJA 141700Z 1418/1503 29005KT 9999 SCT004 OVC015"
    },
    {
      "icao": "EDLW",
      "alert": "OK",
      "vis_m": 7000,
      "fzfg": false,
      "metar_trigger": false,
      "taf_trigger": false,
      "metar": "METAR EDLW 141920Z 27004KT 7000 BKN005 OVC013 04/03 Q1006",
      "taf": "TAF EDLW 141700Z 1418/1518 28005KT 9999 BKN007"
    },
    {
      "icao": "EDNY",
      "alert": "OK",
      "vis_m": 9999,
      "fzfg": false,
      "metar_trigger": false,
      "taf_trigger": false,
      "metar": "METAR EDNY 141920Z 25004KT 9999 -RA BKN006 BKN008 OVC058 02/01 Q1006",
      "taf": "TAF EDNY 141700Z 1418/1503 25005KT 9999 SCT008 OVC025"
    },
    {
      "icao": "EDSB",
      "alert": "OK",
      "vis_m": 9999,
      "fzfg": false,
      "metar_trigger": false,
      "taf_trigger": false,
      "metar": "METAR EDSB 141920Z 25004KT 220V280 CAVOK 05/01 Q1007",
      "taf": "TAF EDSB 141700Z 1418/1518 21005KT 9999 SCT030"
    },
    {
      "icao": "EETN",
      "alert": "OK",
      "vis_m": 9999,
      "fzfg": false,
      "metar_trigger": false,
      "taf_trigger": false,
      "metar": "METAR EETN 141920Z 17011KT CAVOK 11/02 Q1008 NOSIG",
      "taf": "TAF EETN 141730Z 1418/1518 18012KT CAVOK"
    },
    {
      "icao": "EFTU",
      "alert": "OK",
      "vis_m": 9999,
      "fzfg": false,
      "metar_trigger": false,
      "taf_trigger": false,
      "metar": "METAR EFTU 141920Z AUTO 19008KT CAVOK 07/03 Q1004",
      "taf": "TAF EFTU 141730Z 1418/1518 16009KT CAVOK"
    },
    {
      "icao": "EGBB",
      "alert": "OK",
      "vis_m": 9999,
      "fzfg": false,
      "metar_trigger": false,
      "taf_trigger": false,
      "metar": "METAR EGBB 141920Z 29002KT CAVOK 07/M01 Q1009",
      "taf": "TAF EGBB 141701Z 1418/1518 30008KT 9999 FEW045"
    },
    {
      "icao": "EGGP",
      "alert": "OK",
      "vis_m": 9999,
      "fzfg": false,
      "metar_trigger": false,
      "taf_trigger": false,
      "metar": "METAR EGGP 141920Z 24004KT 9999 FEW043 05/02 Q1009",
      "taf": "TAF EGGP 141658Z 1418/1518 29010KT 9999 FEW025"
    },
    {
      "icao": "EGGW",
      "alert": "OK",
      "vis_m": 9999,
      "fzfg": false,
      "metar_trigger": false,
      "taf_trigger": false,
      "metar": "METAR EGGW 141920Z AUTO 27005KT 9999 NCD 05/M03 Q1009",
      "taf": "TAF EGGW 141701Z 1418/1518 32011KT 9999 SCT040"
    },
    {
      "icao": "EGKK",
      "alert": "OK",
      "vis_m": 9999,
      "fzfg": false,
      "metar_trigger": false,
      "taf_trigger": false,
      "metar": "METAR EGKK 141920Z VRB02KT CAVOK 06/M01 Q1009",
      "taf": "TAF EGKK 141658Z 1418/1524 32010KT 9999 FEW040"
    },
    {
      "icao": "EGNM",
      "alert": "OK",
      "vis_m": 9999,
      "fzfg": false,
      "metar_trigger": false,
      "taf_trigger": false,
      "metar": "METAR EGNM 141920Z 25009KT CAVOK 05/01 Q1007",
      "taf": "TAF EGNM 141657Z 1418/1518 27012KT 9999 FEW040"
    },
    {
      "icao": "EGPD",
      "alert": "OK",
      "vis_m": 9999,
      "fzfg": false,
      "metar_trigger": false,
      "taf_trigger": false,
      "metar": "METAR EGPD 141920Z COR AUTO 23004KT 190V290 9999 NCD 05/M01 Q1003 NOSIG",
      "taf": "TAF EGPD 141657Z 1418/1518 22006KT 9999 FEW045"
    },
    {
      "icao": "EGPF",
      "alert": "OK",
      "vis_m": 9999,
      "fzfg": false,
      "metar_trigger": false,
      "taf_trigger": false,
      "metar": "METAR EGPF 141920Z AUTO 19005KT 9999 NCD 04/02 Q1005",
      "taf": "TAF EGPF 141658Z 1418/1518 24009KT 9999 SCT025"
    },
    {
      "icao": "EHBK",
      "alert": "OK",
      "vis_m": 9999,
      "fzfg": false,
      "metar_trigger": false,
      "taf_trigger": false,
      "metar": "METAR EHBK 141925Z AUTO 26004KT 220V300 9999 OVC013/// 04/03 Q1007 TEMPO -SHRA FEW020CB",
      "taf": "TAF EHBK 141711Z 1418/1524 25004KT 9999 SCT025"
    },
    {
      "icao": "EHEH",
      "alert": "OK",
      "vis_m": 9999,
      "fzfg": false,
      "metar_trigger": false,
      "taf_trigger": false,
      "metar": "METAR EHEH 141925Z AUTO 19003KT 9999 FEW015CB SCT032 BKN044 02/02 Q1007 BLU TEMPO 4000 SHRAGS FEW010 SCT018CB RMK TREND REMOTE BY EHWX",
      "taf": "TAF EHEH 141756Z 1418/1524 25003KT 9999 FEW020 BKN030"
    },
    {
      "icao": "EKBI",
      "alert": "OK",
      "vis_m": 9999,
      "fzfg": false,
      "metar_trigger": false,
      "taf_trigger": false,
      "metar": "METAR EKBI 141920Z AUTO 21004KT 9999 BKN006/// 04/03 Q1005",
      "taf": "TAF EKBI 141727Z 1418/1518 24006KT 9000 SCT015"
    },
    {
      "icao": "EKCH",
      "alert": "OK",
      "vis_m": 9999,
      "fzfg": false,
      "metar_trigger": false,
      "taf_trigger": false,
      "metar": "METAR EKCH 141920Z AUTO 28002KT 9999 OVC083/// 04/03 Q1005 NOSIG",
      "taf": "TAF EKCH 141727Z 1418/1518 02007KT 9999 SCT015"
    },
    {
      "icao": "ENAL",
      "alert": "OK",
      "vis_m": 9999,
      "fzfg": false,
      "metar_trigger": false,
      "taf_trigger": false,
      "metar": "METAR ENAL 141920Z 22014KT 9999 -RA FEW018 SCT032 BKN059 05/02 Q0997",
      "taf": "TAF ENAL 141700Z 1418/1503 21015KT 9999 FEW030 BKN050"
    },
    {
      "icao": "ENBR",
      "alert": "OK",
      "vis_m": 9999,
      "fzfg": false,
      "metar_trigger": false,
      "taf_trigger": false,
      "metar": "METAR ENBR 141920Z 18010KT 9999 -DZ SCT018 04/01 Q1000 TEMPO SHRA BKN012 SCT020CB RMK WIND 1200FT 22013KT",
      "taf": "TAF ENBR 141700Z 1418/1518 16012KT 9999 FEW010 BKN020"
    },
    {
      "icao": "ENGM",
      "alert": "OK",
      "vis_m": 9999,
      "fzfg": false,
      "metar_trigger": false,
      "taf_trigger": false,
      "metar": "METAR ENGM 141920Z 20006KT 9999 BKN010 02/01 Q1001 TEMPO BKN008",
      "taf": "TAF ENGM 141700Z 1418/1518 18008KT 9999 BKN015"
    },
    {
      "icao": "ENHD",
      "alert": "OK",
      "vis_m": 9999,
      "fzfg": false,
      "metar_trigger": false,
      "taf_trigger": false,
      "metar": "METAR ENHD 141920Z 18006KT 9999 FEW018 04/03 Q1002",
      "taf": "TAF ENHD 141400Z 1415/1423 20008KT 9999 FEW015 BKN030"
    },
    {
      "icao": "ENTC",
      "alert": "OK",
      "vis_m": 9999,
      "fzfg": false,
      "metar_trigger": false,
      "taf_trigger": false,
      "metar": "METAR ENTC 141920Z 19004KT 9999 SCT054 04/M00 Q0994 RMK WIND 2600FT 18023KT",
      "taf": "TAF ENTC 141700Z 1418/1518 22009KT 9999 FEW040"
    },
    {
      "icao": "ENTO",
      "alert": "OK",
      "vis_m": 300,
      "fzfg": false,
      "metar_trigger": false,
      "taf_trigger": false,
      "metar": "METAR ENTO 141920Z 18004KT 0300 R18/1100D R36/1400D FG VV003 03/03 Q1002 NOSIG",
      "taf": "TAF ENTO 141700Z 1418/1518 20008KT 0400 FG VV001"
    },
    {
      "icao": "ENVA",
      "alert": "OK",
      "vis_m": 9999,
      "fzfg": false,
      "metar_trigger": false,
      "taf_trigger": false,
      "metar": "METAR ENVA 141920Z 08004KT 360V150 CAVOK 06/M03 Q0996 RMK WIND 670FT 17010KT",
      "taf": "TAF ENVA 141700Z 1418/1518 11005KT CAVOK"
    },
    {
      "icao": "ENZV",
      "alert": "OK",
      "vis_m": 9000,
      "fzfg": false,
      "metar_trigger": false,
      "taf_trigger": false,
      "metar": "METAR ENZV 141920Z 19005KT 9000 FEW046CB 04/03 Q1002 NOSIG",
      "taf": ""
    },
    {
      "icao": "EPGD",
      "alert": "OK",
      "vis_m": 9999,
      "fzfg": false,
      "metar_trigger": false,
      "taf_trigger": false,
      "metar": "METAR EPGD 141930Z 14006KT CAVOK 12/02 Q1003",
      "taf": "TAF EPGD 141730Z 1418/1518 16010KT CAVOK"
    },
    {
      "icao": "EPKK",
      "alert": "OK",
      "vis_m": 9999,
      "fzfg": false,
      "metar_trigger": false,
      "taf_trigger": false,
      "metar": "METAR EPKK 141930Z 16005KT CAVOK 11/M04 Q1006",
      "taf": "TAF EPKK 141730Z 1418/1518 16005KT CAVOK"
    },
    {
      "icao": "EPKT",
      "alert": "OK",
      "vis_m": 9999,
      "fzfg": false,
      "metar_trigger": false,
      "taf_trigger": false,
      "metar": "METAR EPKT 141930Z 15010KT CAVOK 11/M01 Q1005",
      "taf": "TAF EPKT 141730Z 1418/1518 15009KT CAVOK"
    },
    {
      "icao": "EPLB",
      "alert": "OK",
      "vis_m": 9999,
      "fzfg": false,
      "metar_trigger": false,
      "taf_trigger": false,
      "metar": "METAR EPLB 141930Z 13013KT CAVOK 09/M01 Q1009",
      "taf": "TAF EPLB 141730Z 1418/1518 13010KT CAVOK"
    },
    {
      "icao": "EPMO",
      "alert": "OK",
      "vis_m": 9999,
      "fzfg": false,
      "metar_trigger": false,
      "taf_trigger": false,
      "metar": "METAR EPMO 141930Z 11007KT CAVOK 12/M00 Q1006",
      "taf": "TAF EPMO 141730Z 1418/1518 12010KT CAVOK"
    },
    {
      "icao": "EPPO",
      "alert": "OK",
      "vis_m": 9999,
      "fzfg": false,
      "metar_trigger": false,
      "taf_trigger": false,
      "metar": "METAR EPPO 141930Z 15008KT CAVOK 14/01 Q1001",
      "taf": "TAF EPPO 141730Z 1418/1518 16010KT CAVOK"
    },
    {
      "icao": "EPRA",
      "alert": "OK",
      "vis_m": 9999,
      "fzfg": false,
      "metar_trigger": false,
      "taf_trigger": false,
      "metar": "METAR EPRA 141930Z 15007KT CAVOK 10/M02 Q1007",
      "taf": "TAF EPRA 141730Z 1418/1503 17010KT CAVOK"
    },
    {
      "icao": "EPRZ",
      "alert": "OK",
      "vis_m": 9999,
      "fzfg": false,
      "metar_trigger": false,
      "taf_trigger": false,
      "metar": "METAR EPRZ 141930Z 08010KT CAVOK 09/M03 Q1008",
      "taf": "TAF EPRZ 141730Z 1418/1518 10005KT CAVOK"
    },
    {
      "icao": "EPSC",
      "alert": "OK",
      "vis_m": 9999,
      "fzfg": false,
      "metar_trigger": false,
      "taf_trigger": false,
      "metar": "METAR EPSC 141930Z 34009KT 320V020 9999 -SHRA FEW003 BKN004 SCT007CB 04/03 Q1002",
      "taf": ""
    },
    {
      "icao": "EPSY",
      "alert": "OK",
      "vis_m": 9999,
      "fzfg": false,
      "metar_trigger": false,
      "taf_trigger": false,
      "metar": "METAR EPSY 141930Z 14007KT 100V180 CAVOK 12/M00 Q1007",
      "taf": "TAF EPSY 141730Z 1418/1503 14008KT CAVOK"
    },
    {
      "icao": "EPWA",
      "alert": "OK",
      "vis_m": 9999,
      "fzfg": false,
      "metar_trigger": false,
      "taf_trigger": false,
      "metar": "METAR EPWA 141930Z 12011KT CAVOK 12/01 Q1006 NOSIG",
      "taf": "TAF EPWA 141730Z 1418/1518 14010KT CAVOK"
    },
    {
      "icao": "EPWR",
      "alert": "OK",
      "vis_m": 9999,
      "fzfg": false,
      "metar_trigger": false,
      "taf_trigger": false,
      "metar": "METAR EPWR 141930Z 13012KT CAVOK 13/03 Q1001",
      "taf": "TAF EPWR 141730Z 1418/1518 15011KT CAVOK"
    },
    {
      "icao": "ESGG",
      "alert": "OK",
      "vis_m": 5000,
      "fzfg": false,
      "metar_trigger": false,
      "taf_trigger": false,
      "metar": "METAR ESGG 141920Z 21008KT 5000 BR OVC003 02/02 Q1004",
      "taf": "TAF ESGG 141730Z 1418/1518 22006KT 9999 SCT005"
    },
    {
      "icao": "ESKN",
      "alert": "OK",
      "vis_m": 5000,
      "fzfg": false,
      "metar_trigger": false,
      "taf_trigger": false,
      "metar": "METAR ESKN 141920Z 29004KT 5000 -RA BKN003 02/02 Q1003",
      "taf": "TAF ESKN 141730Z 1418/1518 33006KT 6000 -RA BKN008"
    },
    {
      "icao": "ESMS",
      "alert": "OK",
      "vis_m": 9999,
      "fzfg": false,
      "metar_trigger": false,
      "taf_trigger": false,
      "metar": "METAR ESMS 141920Z 34005KT CAVOK 04/03 Q1004",
      "taf": "TAF ESMS 141727Z 1418/1518 35012KT 9999 SCT020"
    },
    {
      "icao": "ESSA",
      "alert": "OK",
      "vis_m": 9999,
      "fzfg": false,
      "metar_trigger": false,
      "taf_trigger": false,
      "metar": "METAR ESSA 141920Z 35005KT 9999 BKN004 02/02 Q1002 NOSIG",
      "taf": "TAF ESSA 141730Z 1418/1518 32007KT 9000 -RA OVC003"
    },
    {
      "icao": "EYKA",
      "alert": "OK",
      "vis_m": 9999,
      "fzfg": false,
      "metar_trigger": false,
      "taf_trigger": false,
      "metar": "METAR EYKA 141920Z 14011KT 110V170 CAVOK 11/M03 Q1011",
      "taf": "TAF EYKA 141707Z 1418/1518 14008KT 9000 NSC"
    },
    {
      "icao": "EYPA",
      "alert": "OK",
      "vis_m": 9999,
      "fzfg": false,
      "metar_trigger": false,
      "taf_trigger": false,
      "metar": "METAR EYPA 141920Z 15011KT CAVOK 12/02 Q1006",
      "taf": "TAF EYPA 141706Z 1418/1518 15008KT 9000 SCT030"
    },
    {
      "icao": "EYVI",
      "alert": "OK",
      "vis_m": 9999,
      "fzfg": false,
      "metar_trigger": false,
      "taf_trigger": false,
      "metar": "METAR EYVI 141920Z 15012KT CAVOK 08/M04 Q1013 NOSIG",
      "taf": "TAF EYVI 141707Z 1418/1518 15011KT 9000 NSC"
    },
    {
      "icao": "GCFV",
      "alert": "OK",
      "vis_m": 9999,
      "fzfg": false,
      "metar_trigger": false,
      "taf_trigger": false,
      "metar": "METAR GCFV 141930Z 03019KT 9999 FEW020 17/12 Q1018",
      "taf": "TAF GCFV 141400Z 1415/1515 04016KT 9999 FEW025 TX20/1514Z TN16/1506Z"
    },
    {
      "icao": "GCLP",
      "alert": "OK",
      "vis_m": 9999,
      "fzfg": false,
      "metar_trigger": false,
      "taf_trigger": false,
      "metar": "METAR GCLP 141930Z 01020KT 9999 FEW025 SCT035 18/11 Q1019 NOSIG",
      "taf": "TAF GCLP 141400Z 1415/1515 01021KT 9999 SCT025 TX20/1514Z TN16/1506Z"
    },
    {
      "icao": "GCTS",
      "alert": "OK",
      "vis_m": 9999,
      "fzfg": false,
      "metar_trigger": false,
      "taf_trigger": false,
      "metar": "METAR GCTS 141930Z 07023KT 9999 FEW035 18/11 Q1018 NOSIG",
      "taf": "TAF GCTS 141400Z 1415/1515 07028KT 9999 FEW025 TX23/1514Z TN16/1506Z"
    },
    {
      "icao": "GMAD",
      "alert": "OK",
      "vis_m": 8000,
      "fzfg": false,
      "metar_trigger": false,
      "taf_trigger": false,
      "metar": "METAR GMAD 141930Z 19012KT 8000 NSC 15/13 Q1014 NOSIG",
      "taf": "TAF GMAD 141700Z 1418/1524 22011KT 6000 NSC"
    },
    {
      "icao": "GMMN",
      "alert": "OK",
      "vis_m": 9999,
      "fzfg": false,
      "metar_trigger": false,
      "taf_trigger": false,
      "metar": "METAR GMMN 141930Z 32008KT 9999 BKN030 13/11 Q1019 NOSIG",
      "taf": "TAF GMMN 141700Z 1418/1524 33006KT 9999 BKN030"
    },
    {
      "icao": "GMMX",
      "alert": "OK",
      "vis_m": 8000,
      "fzfg": false,
      "metar_trigger": false,
      "taf_trigger": false,
      "metar": "METAR GMMX 141930Z 15004KT 8000 FEW026 16/10 Q1018 NOSIG",
      "taf": "TAF GMMX 141700Z 1418/1524 06006KT 8000 SCT023"
    },
    {
      "icao": "HEGN",
      "alert": "OK",
      "vis_m": 4000,
      "fzfg": false,
      "metar_trigger": false,
      "taf_trigger": false,
      "metar": "METAR HEGN 141900Z 33010KT 4000 SA SCT020 BKN025 23/15 Q1003 NOSIG",
      "taf": "TAF HEGN 141706Z 1418/1524 33015G25KT 6000 SCT025"
    },
    {
      "icao": "HEMA",
      "alert": "OK",
      "vis_m": 9999,
      "fzfg": false,
      "metar_trigger": false,
      "taf_trigger": false,
      "metar": "METAR HEMA 141900Z 15004KT CAVOK 25/21 Q1001 NOSIG",
      "taf": "TAF HEMA 141706Z 1418/1524 32015G25KT 6000 SCT025"
    },
    {
      "icao": "HESH",
      "alert": "OK",
      "vis_m": 9999,
      "fzfg": false,
      "metar_trigger": false,
      "taf_trigger": false,
      "metar": "METAR HESH 141900Z 16003KT CAVOK 24/19 Q1003 NOSIG",
      "taf": "TAF HESH 141706Z 1418/1524 35015G25KT 6000 SCT025"
    },
    {
      "icao": "HESX",
      "alert": "OK",
      "vis_m": 9999,
      "fzfg": false,
      "metar_trigger": false,
      "taf_trigger": false,
      "metar": "METAR HESX 141900Z 28010KT CAVOK 14/10 Q1006 NOSIG",
      "taf": "TAF HESX 141706Z 1418/1524 20020G30KT 6000 BKN025"
    },
    {
      "icao": "LATI",
      "alert": "OK",
      "vis_m": 9999,
      "fzfg": false,
      "metar_trigger": false,
      "taf_trigger": false,
      "metar": "METAR LATI 141920Z 15004KT CAVOK 11/05 Q1008 NOSIG",
      "taf": "TAF LATI 141700Z 1418/1518 VRB04KT CAVOK TX20/1512Z TN03/1504Z"
    },
    {
      "icao": "LBPD",
      "alert": "OK",
      "vis_m": 9999,
      "fzfg": false,
      "metar_trigger": false,
      "taf_trigger": false,
      "metar": "METAR LBPD 141930Z AUTO 09008KT 9999 NCD 05/00 Q1012 NOSIG",
      "taf": "TAF LBPD 141700Z 1418/1518 10010KT CAVOK"
    },
    {
      "icao": "LBSF",
      "alert": "OK",
      "vis_m": 9999,
      "fzfg": false,
      "metar_trigger": false,
      "taf_trigger": false,
      "metar": "METAR LBSF 141930Z AUTO 10010KT 9999 NCD 06/M02 Q1010 NOSIG",
      "taf": "TAF LBSF 141700Z 1418/1518 10010KT CAVOK"
    },
    {
      "icao": "LBWN",
      "alert": "OK",
      "vis_m": 9999,
      "fzfg": false,
      "metar_trigger": false,
      "taf_trigger": false,
      "metar": "METAR LBWN 141930Z AUTO 09006KT 060V130 9999 NSC 06/03 Q1013 NOSIG",
      "taf": "TAF LBWN 141700Z 1418/1518 06008KT 9999 SCT015"
    },
    {
      "icao": "LCLK",
      "alert": "OK",
      "vis_m": 9999,
      "fzfg": false,
      "metar_trigger": false,
      "taf_trigger": false,
      "metar": "METAR LCLK 141900Z 04020KT 9999 FEW006 SCT020 BKN050 17/15 Q1000 NOSIG",
      "taf": "TAF LCLK 141730Z 1418/1518 05022KT 9999 SCT025"
    },
    {
      "icao": "LCPH",
      "alert": "OK",
      "vis_m": 9999,
      "fzfg": false,
      "metar_trigger": false,
      "taf_trigger": false,
      "metar": "METAR LCPH 141900Z 09016KT 9999 FEW060 SCT080 18/10 Q0997 NOSIG",
      "taf": "TAF LCPH 141730Z 1418/1518 06020KT 9999 SCT025"
    },
    {
      "icao": "LEAL",
      "alert": "OK",
      "vis_m": 9999,
      "fzfg": false,
      "metar_trigger": false,
      "taf_trigger": false,
      "metar": "METAR LEAL 141930Z 33004KT CAVOK 17/05 Q1007 NOSIG",
      "taf": "TAF LEAL 141700Z 1418/1518 30015KT 9999 FEW020 TX20/1512Z TN08/1506Z"
    },
    {
      "icao": "LEBB",
      "alert": "OK",
      "vis_m": 9999,
      "fzfg": false,
      "metar_trigger": false,
      "taf_trigger": false,
      "metar": "METAR LEBB 141930Z VRB01KT 9999 SCT016 BKN032 BKN056 08/07 Q1013 NOSIG",
      "taf": "TAF LEBB 141700Z 1418/1518 28009KT 9999 SCT015 BKN025 TX12/1512Z TN08/1506Z"
    },
    {
      "icao": "LEBL",
      "alert": "OK",
      "vis_m": 9999,
      "fzfg": false,
      "metar_trigger": false,
      "taf_trigger": false,
      "metar": "METAR LEBL 141930Z VRB02KT 9999 FEW025TCU SCT043 08/07 Q1005 NOSIG",
      "taf": "TAF LEBL 141700Z 1418/1518 VRB05KT 9999 SCT015 BKN035 TX17/1513Z TN07/1506Z"
    },
    {
      "icao": "LECH",
      "alert": "OK",
      "vis_m": 9999,
      "fzfg": false,
      "metar_trigger": false,
      "taf_trigger": false,
      "metar": "METAR LECH 141930Z AUTO 29011KT 250V320 CAVOK 10/02 Q1007",
      "taf": ""
    },
    {
      "icao": "LEMD",
      "alert": "OK",
      "vis_m": 9999,
      "fzfg": false,
      "metar_trigger": false,
      "taf_trigger": false,
      "metar": "METAR LEMD 141930Z 27011KT 9999 FEW050 BKN060 BKN067 12/04 Q1008 NOSIG",
      "taf": "TAF LEMD 141700Z 1418/1524 28010KT 9999 SCT050 TX15/1515Z TN07/1507Z"
    },
    {
      "icao": "LEMG",
      "alert": "OK",
      "vis_m": 9999,
      "fzfg": false,
      "metar_trigger": false,
      "taf_trigger": false,
      "metar": "METAR LEMG 141930Z 29011KT 260V320 9999 BKN046 18/09 Q1012 NOSIG",
      "taf": "TAF LEMG 141700Z 1418/1518 29010KT 9999 FEW030 SCT040 TX18/1515Z TN11/1507Z"
    },
    {
      "icao": "LEVC",
      "alert": "OK",
      "vis_m": 9999,
      "fzfg": false,
      "metar_trigger": false,
      "taf_trigger": false,
      "metar": "METAR LEVC 141930Z 04004KT 330V110 9999 FEW062 15/07 Q1007 NOSIG",
      "taf": "TAF LEVC 141700Z 1418/1518 VRB04KT 9999 FEW030 BKN060 TX18/1512Z TN08/1506Z"
    },
    {
      "icao": "LEXJ",
      "alert": "OK",
      "vis_m": 9999,
      "fzfg": false,
      "metar_trigger": false,
      "taf_trigger": false,
      "metar": "METAR LEXJ 141930Z 33005KT 280V020 9999 SCT015 BKN025 08/06 Q1014",
      "taf": "TAF LEXJ 141400Z 1415/1515 29009KT 9999 SCT015 BKN025 TX13/1513Z TN09/1505Z"
    },
    {
      "icao": "LEZG",
      "alert": "OK",
      "vis_m": 9999,
      "fzfg": false,
      "metar_trigger": false,
      "taf_trigger": false,
      "metar": "METAR LEZG 141930Z 28015KT 9999 FEW020 BKN070 08/04 Q1010 NOSIG",
      "taf": "TAF LEZG 141700Z 1418/1518 30015KT 9999 FEW050 SCT070 TX13/1514Z TN06/1506Z"
    },
    {
      "icao": "LEZL",
      "alert": "OK",
      "vis_m": 9999,
      "fzfg": false,
      "metar_trigger": false,
      "taf_trigger": false,
      "metar": "METAR LEZL 141930Z 28015KT 9999 BKN040 18/11 Q1014 NOSIG",
      "taf": "TAF LEZL 141400Z 1415/1515 30012KT 9999 SCT035 TX21/1415Z TN10/1507Z"
    },
    {
      "icao": "LFBD",
      "alert": "OK",
      "vis_m": 9999,
      "fzfg": false,
      "metar_trigger": false,
      "taf_trigger": false,
      "metar": "METAR LFBD 141930Z AUTO 30005KT CAVOK 07/04 Q1011 TEMPO 4000 -SHRA BKN020TCU",
      "taf": "TAF LFBD 141700Z 1418/1524 29005KT CAVOK TX14/1514Z TN02/1506Z"
    },
    {
      "icao": "LFLL",
      "alert": "OK",
      "vis_m": 9999,
      "fzfg": false,
      "metar_trigger": false,
      "taf_trigger": false,
      "metar": "METAR LFLL 141930Z 33010KT 9999 FEW026 BKN120 04/02 Q1007 NOSIG",
      "taf": "TAF LFLL 141700Z 1418/1524 36010KT 9999 BKN030"
    },
    {
      "icao": "LFLS",
      "alert": "OK",
      "vis_m": 9999,
      "fzfg": false,
      "metar_trigger": false,
      "taf_trigger": false,
      "metar": "METAR LFLS 141930Z AUTO 34014KT 9999 FEW012 OVC096 03/01 Q1005 TEMPO BKN013",
      "taf": ""
    },
    {
      "icao": "LFMN",
      "alert": "OK",
      "vis_m": 9999,
      "fzfg": false,
      "metar_trigger": false,
      "taf_trigger": false,
      "metar": "METAR LFMN 141930Z 34007KT 9999 VCSH FEW020 FEW040TCU SCT050 BKN160 10/08 Q0995 NOSIG",
      "taf": "TAF LFMN 141400Z 1415/1521 33011KT 9999 FEW012 BKN040"
    },
    {
      "icao": "LFOB",
      "alert": "OK",
      "vis_m": 9999,
      "fzfg": false,
      "metar_trigger": false,
      "taf_trigger": false,
      "metar": "METAR LFOB 141930Z AUTO 32006KT CAVOK 02/M00 Q1010 NOSIG",
      "taf": ""
    },
    {
      "icao": "LFPO",
      "alert": "OK",
      "vis_m": 9999,
      "fzfg": false,
      "metar_trigger": false,
      "taf_trigger": false,
      "metar": "METAR LFPO 141930Z 33004KT CAVOK 06/00 Q1009 NOSIG",
      "taf": "TAF LFPO 141700Z 1418/1524 30005KT CAVOK"
    },
    {
      "icao": "LFSB",
      "alert": "OK",
      "vis_m": 9999,
      "fzfg": false,
      "metar_trigger": false,
      "taf_trigger": false,
      "metar": "METAR LFSB 141930Z AUTO VRB02KT CAVOK 04/02 Q1007 NOSIG",
      "taf": "TAF LFSB 141700Z 1418/1518 17003KT CAVOK"
    },
    {
      "icao": "LGAV",
      "alert": "OK",
      "vis_m": 9999,
      "fzfg": false,
      "metar_trigger": false,
      "taf_trigger": false,
      "metar": "METAR LGAV 141920Z VRB01KT 9999 FEW030 09/02 Q1010 NOSIG",
      "taf": "TAF LGAV 141700Z 1418/1518 01008KT 9999 SCT030"
    },
    {
      "icao": "LGTS",
      "alert": "OK",
      "vis_m": 9999,
      "fzfg": false,
      "metar_trigger": false,
      "taf_trigger": false,
      "metar": "METAR LGTS 141920Z 11006KT 9999 FEW020 08/05 Q1010 NOSIG",
      "taf": "TAF LGTS 141700Z 1418/1518 VRB03KT 9999 FEW030"
    },
    {
      "icao": "LHBP",
      "alert": "OK",
      "vis_m": 9999,
      "fzfg": false,
      "metar_trigger": false,
      "taf_trigger": false,
      "metar": "METAR LHBP 141930Z 12009KT CAVOK 10/02 Q1006 NOSIG",
      "taf": "TAF LHBP 141715Z 1418/1518 12011KT CAVOK"
    },
    {
      "icao": "LHDC",
      "alert": "OK",
      "vis_m": 9999,
      "fzfg": false,
      "metar_trigger": false,
      "taf_trigger": false,
      "metar": "METAR LHDC 141915Z AUTO 06004KT CAVOK 07/M03 Q1008",
      "taf": "TAF LHDC 141415Z 1415/1424 13006KT CAVOK"
    },
    {
      "icao": "LIBD",
      "alert": "OK",
      "vis_m": 9999,
      "fzfg": false,
      "metar_trigger": false,
      "taf_trigger": false,
      "metar": "METAR LIBD 141920Z 16004KT 130V200 CAVOK 13/10 Q1006",
      "taf": "TAF LIBD 141700Z 1418/1518 16010KT 9999 SCT030"
    },
    {
      "icao": "LIBG",
      "alert": "OK",
      "vis_m": 9999,
      "fzfg": false,
      "metar_trigger": false,
      "taf_trigger": false,
      "metar": "METAR LIBG 141850Z 09002KT CAVOK 11/09 Q1007",
      "taf": "TAF LIBG 141700Z 1418/1503 VRB05KT 9999 SCT020"
    },
    {
      "icao": "LIBP",
      "alert": "OK",
      "vis_m": 9999,
      "fzfg": false,
      "metar_trigger": false,
      "taf_trigger": false,
      "metar": "METAR LIBP 141920Z AUTO 15003KT 090V210 9999 FEW240/// 13/04 Q1002",
      "taf": "TAF LIBP 141700Z 1418/1518 24007KT 9999 FEW060"
    },
    {
      "icao": "LIBR",
      "alert": "OK",
      "vis_m": 9999,
      "fzfg": false,
      "metar_trigger": false,
      "taf_trigger": false,
      "metar": "METAR LIBR 141920Z 18005KT CAVOK 13/10 Q1007",
      "taf": "TAF LIBR 141700Z 1418/1518 20008KT 9999 SCT030"
    },
    {
      "icao": "LICA",
      "alert": "OK",
      "vis_m": 9999,
      "fzfg": false,
      "metar_trigger": false,
      "taf_trigger": false,
      "metar": "METAR LICA 141920Z AUTO 08006KT 9999 FEW057/// 10/09 Q1007",
      "taf": "TAF LICA 141700Z 1418/1518 08014KT 9999 BKN040"
    },
    {
      "icao": "LICC",
      "alert": "OK",
      "vis_m": 9999,
      "fzfg": false,
      "metar_trigger": false,
      "taf_trigger": false,
      "metar": "METAR LICC 141920Z 28008KT 9999 BKN030 14/11 Q1007",
      "taf": "TAF LICC 141700Z 1418/1518 13010KT 9999 SCT030"
    },
    {
      "icao": "LICJ",
      "alert": "OK",
      "vis_m": 9999,
      "fzfg": false,
      "metar_trigger": false,
      "taf_trigger": false,
      "metar": "METAR LICJ 141920Z 16008KT 9999 SCT040 13/08 Q1005",
      "taf": "TAF LICJ 141700Z 1418/1518 06008KT 9999 FEW040"
    },
    {
      "icao": "LIMC",
      "alert": "OK",
      "vis_m": 4000,
      "fzfg": false,
      "metar_trigger": false,
      "taf_trigger": false,
      "metar": "METAR LIMC 141920Z 36013KT 330V030 4000 RA BR SCT008 OVC030 06/05 Q0998 WS IN CLIMB-OUT RWY 35L NOSIG",
      "taf": "TAF LIMC 141700Z 1418/1524 10010KT 4000 RA BKN030"
    },
    {
      "icao": "LIME",
      "alert": "OK",
      "vis_m": 9999,
      "fzfg": false,
      "metar_trigger": false,
      "taf_trigger": false,
      "metar": "METAR LIME 141920Z 08010KT 040V100 9999 -RA SCT035 BKN045 10/07 Q0999 NOSIG",
      "taf": "TAF LIME 141700Z 1418/1518 08010KT 7000 RA BKN040"
    },
    {
      "icao": "LIMF",
      "alert": "OK",
      "vis_m": 8000,
      "fzfg": false,
      "metar_trigger": false,
      "taf_trigger": false,
      "metar": "METAR LIMF 141920Z 36008KT 8000 -RA SCT012 OVC030 07/05 Q0997 RERA",
      "taf": "TAF LIMF 141700Z 1418/1518 34006KT 4000 RA FEW010 BKN030"
    },
    {
      "icao": "LIMJ",
      "alert": "OK",
      "vis_m": 7000,
      "fzfg": false,
      "metar_trigger": false,
      "taf_trigger": false,
      "metar": "METAR LIMJ 141920Z 13014KT 7000 RA FEW009 SCT018 BKN026 12/11 Q0997",
      "taf": "TAF LIMJ 141700Z 1418/1518 17016G30KT 9999 RA BKN020"
    },
    {
      "icao": "LIPE",
      "alert": "OK",
      "vis_m": 9999,
      "fzfg": false,
      "metar_trigger": false,
      "taf_trigger": false,
      "metar": "METAR LIPE 141920Z 13008KT 9999 SCT074 14/06 Q1000",
      "taf": "TAF LIPE 141700Z 1418/1518 09007KT 9999 FEW060"
    },
    {
      "icao": "LIPH",
      "alert": "OK",
      "vis_m": 9999,
      "fzfg": false,
      "metar_trigger": false,
      "taf_trigger": false,
      "metar": "METAR LIPH 141920Z 11008KT 080V140 9999 SCT015 13/11 Q1002",
      "taf": "TAF LIPH 141700Z 1418/1518 06010KT 9000 SCT040"
    },
    {
      "icao": "LIPQ",
      "alert": "OK",
      "vis_m": 9999,
      "fzfg": false,
      "metar_trigger": false,
      "taf_trigger": false,
      "metar": "METAR LIPQ 141920Z AUTO 04003KT 9999 FEW034/// OVC093/// 12/10 Q1004",
      "taf": "TAF LIPQ 141700Z 1418/1518 VRB05KT 9999 SCT040"
    },
    {
      "icao": "LIPR",
      "alert": "OK",
      "vis_m": 9999,
      "fzfg": false,
      "metar_trigger": false,
      "taf_trigger": false,
      "metar": "METAR LIPR 141920Z 16005KT 9999 FEW060 13/08 Q1001",
      "taf": "TAF LIPR 141700Z 1418/1518 14007KT 9999 SCT040"
    },
    {
      "icao": "LIPX",
      "alert": "OK",
      "vis_m": 9999,
      "fzfg": false,
      "metar_trigger": false,
      "taf_trigger": false,
      "metar": "METAR LIPX 141920Z 08008KT 050V110 9999 -RA BKN015 12/10 Q1001",
      "taf": "TAF LIPX 141700Z 1418/1518 09012KT 8000 BKN060"
    },
    {
      "icao": "LIPY",
      "alert": "OK",
      "vis_m": 9999,
      "fzfg": false,
      "metar_trigger": false,
      "taf_trigger": false,
      "metar": "METAR LIPY 141920Z AUTO 15004KT 050V210 9999 SCT190/// 14/10 Q1002",
      "taf": "TAF LIPY 141700Z 1418/1518 VRB05KT 9999 SCT060"
    },
    {
      "icao": "LIPZ",
      "alert": "OK",
      "vis_m": 9999,
      "fzfg": false,
      "metar_trigger": false,
      "taf_trigger": false,
      "metar": "METAR LIPZ 141920Z 13012KT 9999 SCT070 13/11 Q1002 NOSIG",
      "taf": "TAF LIPZ 141700Z 1418/1524 15013KT 9999 SCT040"
    },
    {
      "icao": "LIRF",
      "alert": "OK",
      "vis_m": 9999,
      "fzfg": false,
      "metar_trigger": false,
      "taf_trigger": false,
      "metar": "METAR LIRF 141920Z 14011KT 9999 FEW035 13/08 Q1003 NOSIG",
      "taf": "TAF LIRF 141700Z 1418/1524 14013KT 9999 BKN025"
    },
    {
      "icao": "LIRN",
      "alert": "OK",
      "vis_m": 9999,
      "fzfg": false,
      "metar_trigger": false,
      "taf_trigger": false,
      "metar": "METAR LIRN 141920Z 18003KT 130V230 9999 BKN050 13/09 Q1005 NOSIG",
      "taf": "TAF LIRN 141700Z 1418/1518 21010KT 9999 BKN030"
    },
    {
      "icao": "LIRP",
      "alert": "OK",
      "vis_m": 9999,
      "fzfg": false,
      "metar_trigger": false,
      "taf_trigger": false,
      "metar": "METAR LIRP 141915Z 12009KT 9999 SCT030 13/09 Q0998 NOSIG",
      "taf": "TAF LIRP 141700Z 1418/1518 10012KT 9999 SCT020 SCT050"
    },
    {
      "icao": "LIRZ",
      "alert": "OK",
      "vis_m": 9999,
      "fzfg": false,
      "metar_trigger": false,
      "taf_trigger": false,
      "metar": "METAR LIRZ 141920Z AUTO 21010KT 9999 BKN038/// 12/07 Q1002",
      "taf": "TAF LIRZ 141700Z 1418/1518 19010KT 9999 BKN030"
    },
    {
      "icao": "LJLJ",
      "alert": "OK",
      "vis_m": 9999,
      "fzfg": false,
      "metar_trigger": false,
      "taf_trigger": false,
      "metar": "METAR LJLJ 141930Z VRB02KT 9999 MIFG FEW001 SCT075 BKN240 06/06 Q1004 NOSIG",
      "taf": "TAF LJLJ 141700Z 1418/1518 VRB02KT 9999 BKN030"
    },
    {
      "icao": "LKMT",
      "alert": "OK",
      "vis_m": 9999,
      "fzfg": false,
      "metar_trigger": false,
      "taf_trigger": false,
      "metar": "METAR LKMT 141930Z 15005KT 120V180 CAVOK 13/00 Q1003 NOSIG",
      "taf": "TAF LKMT 141700Z 1418/1518 18014KT CAVOK"
    },
    {
      "icao": "LKPR",
      "alert": "OK",
      "vis_m": 9999,
      "fzfg": false,
      "metar_trigger": false,
      "taf_trigger": false,
      "metar": "METAR LKPR 141930Z 31009KT CAVOK 08/05 Q1000 NOSIG",
      "taf": "TAF LKPR 141700Z 1418/1524 32010KT CAVOK"
    },
    {
      "icao": "LLBG",
      "alert": "OK",
      "vis_m": 4500,
      "fzfg": false,
      "metar_trigger": false,
      "taf_trigger": false,
      "metar": "METAR LLBG 141920Z 22010KT 4500 DU NSC 20/12 Q1005 TEMPO 3000 DU",
      "taf": ""
    },
    {
      "icao": "LMML",
      "alert": "OK",
      "vis_m": 9999,
      "fzfg": false,
      "metar_trigger": false,
      "taf_trigger": false,
      "metar": "METAR LMML 141915Z 22004KT 9999 FEW019 12/10 Q1008 NOSIG",
      "taf": "TAF LMML 141700Z 1418/1518 23010KT 9999 FEW018"
    },
    {
      "icao": "LOWW",
      "alert": "OK",
      "vis_m": 9999,
      "fzfg": false,
      "metar_trigger": false,
      "taf_trigger": false,
      "metar": "METAR LOWW 141920Z 16015KT CAVOK 12/04 Q1002 NOSIG",
      "taf": ""
    },
    {
      "icao": "LPFR",
      "alert": "OK",
      "vis_m": 9999,
      "fzfg": false,
      "metar_trigger": false,
      "taf_trigger": false,
      "metar": "METAR LPFR 141930Z 27015KT 9999 FEW018 BKN022 15/12 Q1017",
      "taf": "TAF LPFR 141700Z 1418/1518 30015KT 9999 SCT030"
    },
    {
      "icao": "LPMA",
      "alert": "OK",
      "vis_m": 9999,
      "fzfg": false,
      "metar_trigger": false,
      "taf_trigger": false,
      "metar": "METAR LPMA 141930Z 02012KT 330V040 9999 BKN014 16/12 Q1023",
      "taf": "TAF LPMA 141700Z 1418/1518 01012KT 9999 SCT015"
    },
    {
      "icao": "LPPR",
      "alert": "OK",
      "vis_m": 9999,
      "fzfg": false,
      "metar_trigger": false,
      "taf_trigger": false,
      "metar": "METAR LPPR 141930Z 34011KT 310V030 9999 BKN007 BKN012 13/11 Q1015",
      "taf": "TAF LPPR 141700Z 1418/1518 31012KT 2000 -DZRA BR SCT002 BKN004"
    },
    {
      "icao": "LPPS",
      "alert": "OK",
      "vis_m": 9999,
      "fzfg": false,
      "metar_trigger": false,
      "taf_trigger": false,
      "metar": "METAR LPPS 141930Z 04006KT 360V080 9999 FEW014 SCT030 15/11 Q1023",
      "taf": "TAF LPPS 141700Z 1418/1524 02012KT 9999 SCT015 BKN030"
    },
    {
      "icao": "LPPT",
      "alert": "OK",
      "vis_m": 9999,
      "fzfg": false,
      "metar_trigger": false,
      "taf_trigger": false,
      "metar": "METAR LPPT 141930Z 33007KT 9999 FEW006 BKN010 14/13 Q1016",
      "taf": "TAF LPPT 141700Z 1418/1524 29010KT 9999 SCT008 SCT015"
    },
    {
      "icao": "LQBK",
      "alert": "OK",
      "vis_m": 9999,
      "fzfg": false,
      "metar_trigger": false,
      "taf_trigger": false,
      "metar": "METAR LQBK 141930Z 16004KT 120V190 CAVOK 12/02 Q1004 NOSIG",
      "taf": "TAF LQBK 141700Z 1418/1518 15005KT CAVOK TX20/1513Z TN04/1505Z"
    },
    {
      "icao": "LQSA",
      "alert": "OK",
      "vis_m": 9999,
      "fzfg": false,
      "metar_trigger": false,
      "taf_trigger": false,
      "metar": "METAR LQSA 141930Z 11006KT CAVOK 10/01 Q1006 NOSIG",
      "taf": "TAF LQSA 141700Z 1418/1518 16005KT CAVOK TX16/1514Z TN00/1505Z"
    },
    {
      "icao": "LQTZ",
      "alert": "OK",
      "vis_m": 9999,
      "fzfg": false,
      "metar_trigger": false,
      "taf_trigger": false,
      "metar": "METAR LQTZ 141930Z VRB02KT CAVOK 11/00 Q1005",
      "taf": "TAF LQTZ 141700Z 1418/1518 VRB02KT CAVOK TX20/1513Z TN00/1505Z"
    },
    {
      "icao": "LRBC",
      "alert": "OK",
      "vis_m": 9999,
      "fzfg": false,
      "metar_trigger": false,
      "taf_trigger": false,
      "metar": "METAR LRBC 141930Z 36002KT CAVOK 02/01 Q1016",
      "taf": "TAF LRBC 141700Z 1418/1503 VRB04KT CAVOK"
    },
    {
      "icao": "LRBS",
      "alert": "OK",
      "vis_m": 9999,
      "fzfg": false,
      "metar_trigger": false,
      "taf_trigger": false,
      "metar": "METAR LRBS 141930Z 06005KT CAVOK 05/03 Q1014 NOSIG",
      "taf": "TAF LRBS 141700Z 1418/1518 06008KT CAVOK"
    },
    {
      "icao": "LRBV",
      "alert": "OK",
      "vis_m": 9999,
      "fzfg": false,
      "metar_trigger": false,
      "taf_trigger": false,
      "metar": "METAR LRBV 141930Z 13006KT 070V210 CAVOK 05/M07 Q1012",
      "taf": "TAF LRBV 141700Z 1418/1503 10007KT CAVOK"
    },
    {
      "icao": "LRCL",
      "alert": "OK",
      "vis_m": 9999,
      "fzfg": false,
      "metar_trigger": false,
      "taf_trigger": false,
      "metar": "METAR LRCL 141930Z AUTO 05004KT 020V090 9999 NCD 09/M08 Q1010",
      "taf": "TAF LRCL 141700Z 1418/1503 13006KT CAVOK"
    },
    {
      "icao": "LRCV",
      "alert": "OK",
      "vis_m": 9999,
      "fzfg": false,
      "metar_trigger": false,
      "taf_trigger": false,
      "metar": "METAR LRCV 141930Z 05010KT CAVOK 04/02 Q1013",
      "taf": "TAF LRCV 141700Z 1418/1503 07012KT CAVOK"
    },
    {
      "icao": "LRIA",
      "alert": "OK",
      "vis_m": 9999,
      "fzfg": false,
      "metar_trigger": false,
      "taf_trigger": false,
      "metar": "METAR LRIA 141930Z 10002KT CAVOK 05/01 Q1016",
      "taf": "TAF LRIA 141700Z 1418/1503 VRB04KT CAVOK"
    },
    {
      "icao": "LROP",
      "alert": "OK",
      "vis_m": 9999,
      "fzfg": false,
      "metar_trigger": false,
      "taf_trigger": false,
      "metar": "METAR LROP 141930Z 08006KT CAVOK 05/01 Q1014 NOSIG",
      "taf": "TAF LROP 141700Z 1418/1518 06008KT CAVOK"
    },
    {
      "icao": "LRSB",
      "alert": "OK",
      "vis_m": 9999,
      "fzfg": false,
      "metar_trigger": false,
      "taf_trigger": false,
      "metar": "METAR LRSB 141930Z 16011KT CAVOK 09/M08 Q1010",
      "taf": "TAF LRSB 141700Z 1418/1518 18012KT CAVOK"
    },
    {
      "icao": "LRSM",
      "alert": "OK",
      "vis_m": 9999,
      "fzfg": false,
      "metar_trigger": false,
      "taf_trigger": false,
      "metar": "METAR LRSM 141930Z AUTO 10004KT 9999 NCD 06/M05 Q1008",
      "taf": ""
    },
    {
      "icao": "LRSV",
      "alert": "OK",
      "vis_m": 9999,
      "fzfg": false,
      "metar_trigger": false,
      "taf_trigger": false,
      "metar": "METAR LRSV 141930Z 15014KT CAVOK 03/01 Q1014",
      "taf": "TAF LRSV 141700Z 1418/1503 14010KT CAVOK"
    },
    {
      "icao": "LRTM",
      "alert": "OK",
      "vis_m": 9999,
      "fzfg": false,
      "metar_trigger": false,
      "taf_trigger": false,
      "metar": "METAR LRTM 141930Z AUTO 11009KT 9999 NCD 08/M06 Q1011",
      "taf": "TAF LRTM 141400Z 1415/1424 12006KT CAVOK"
    },
    {
      "icao": "LRTR",
      "alert": "OK",
      "vis_m": 9999,
      "fzfg": false,
      "metar_trigger": false,
      "taf_trigger": false,
      "metar": "METAR LRTR 141930Z 12006KT CAVOK 07/M01 Q1008",
      "taf": "TAF LRTR 141700Z 1418/1518 17010KT CAVOK"
    },
    {
      "icao": "LTAC",
      "alert": "OK",
      "vis_m": 9999,
      "fzfg": false,
      "metar_trigger": false,
      "taf_trigger": false,
      "metar": "METAR LTAC 141920Z 04005KT CAVOK 04/M07 Q1007 NOSIG RMK RWY21C VRB01KT RWY03L 04005KT RWY21R VRB02KT RWY03R 01004KT RWY21L 04003KT 360V060",
      "taf": "TAF LTAC 141640Z 1418/1518 VRB02KT CAVOK"
    },
    {
      "icao": "LTFM",
      "alert": "OK",
      "vis_m": 9999,
      "fzfg": false,
      "metar_trigger": false,
      "taf_trigger": false,
      "metar": "METAR LTFM 141920Z 04013KT 9999 BKN023 08/04 Q1010 NOSIG RMK RWY17L 04011KT RWY34L 03012KT RWY16R 04011KT RWY36 04012KT RWY18 05011KT",
      "taf": "TAF LTFM 141640Z 1418/1524 04012KT 9999 BKN023"
    },
    {
      "icao": "LUKK",
      "alert": "OK",
      "vis_m": 9999,
      "fzfg": false,
      "metar_trigger": false,
      "taf_trigger": false,
      "metar": "METAR LUKK 141930Z 08004KT CAVOK 06/M00 Q1017 NOSIG",
      "taf": "TAF LUKK 141703Z 1418/1518 VRB05KT CAVOK"
    },
    {
      "icao": "LWOH",
      "alert": "OK",
      "vis_m": 9999,
      "fzfg": false,
      "metar_trigger": false,
      "taf_trigger": false,
      "metar": "METAR LWOH 141920Z 16005KT 110V190 9999 FEW040 08/02 Q1008",
      "taf": "TAF LWOH 141715Z 1418/1518 VRB02KT FEW040"
    },
    {
      "icao": "LWSK",
      "alert": "OK",
      "vis_m": 9999,
      "fzfg": false,
      "metar_trigger": false,
      "taf_trigger": false,
      "metar": "METAR LWSK 141920Z 10003KT 050V120 CAVOK 11/02 Q1008 NOSIG",
      "taf": ""
    },
    {
      "icao": "LYBE",
      "alert": "OK",
      "vis_m": 9999,
      "fzfg": false,
      "metar_trigger": false,
      "taf_trigger": false,
      "metar": "METAR LYBE 141930Z 12021KT CAVOK 11/M01 Q1007 NOSIG",
      "taf": "TAF LYBE 141700Z 1418/1518 12016KT CAVOK TX18/1513Z TN07/1505Z"
    },
    {
      "icao": "LYNI",
      "alert": "OK",
      "vis_m": 9999,
      "fzfg": false,
      "metar_trigger": false,
      "taf_trigger": false,
      "metar": "METAR LYNI 141930Z 36004KT 330V070 CAVOK 11/00 Q1008 NOSIG",
      "taf": "TAF LYNI 141700Z 1418/1518 04005KT CAVOK TX18/1513Z TN03/1505Z"
    },
    {
      "icao": "LYPG",
      "alert": "OK",
      "vis_m": 9999,
      "fzfg": false,
      "metar_trigger": false,
      "taf_trigger": false,
      "metar": "METAR LYPG 141930Z 27003KT 220V300 CAVOK 11/06 Q1008 NOSIG",
      "taf": "TAF LYPG 141700Z 1418/1518 02005KT CAVOK TX21/1514Z TN06/1505Z"
    },
    {
      "icao": "LZIB",
      "alert": "OK",
      "vis_m": 9999,
      "fzfg": false,
      "metar_trigger": false,
      "taf_trigger": false,
      "metar": "METAR LZIB 141930Z 15007KT CAVOK 12/03 Q1003 NOSIG",
      "taf": "TAF LZIB 141715Z 1418/1518 16008KT CAVOK"
    },
    {
      "icao": "LZKZ",
      "alert": "OK",
      "vis_m": 9999,
      "fzfg": false,
      "metar_trigger": false,
      "taf_trigger": false,
      "metar": "METAR LZKZ 141930Z 00000KT CAVOK 07/M02 Q1008 NOSIG",
      "taf": "TAF LZKZ 141715Z 1418/1518 VRB02KT CAVOK"
    },
    {
      "icao": "LZTT",
      "alert": "OK",
      "vis_m": 9999,
      "fzfg": false,
      "metar_trigger": false,
      "taf_trigger": false,
      "metar": "METAR LZTT 141930Z 26007KT CAVOK 05/M04 Q1008",
      "taf": "TAF LZTT 141715Z 1418/1518 27005KT CAVOK"
    },
    {
      "icao": "OEJN",
      "alert": "OK",
      "vis_m": 9999,
      "fzfg": false,
      "metar_trigger": false,
      "taf_trigger": false,
      "metar": "METAR OEJN 141900Z 17006KT CAVOK 28/19 Q1007 NOSIG",
      "taf": "TAF OEJN 141700Z 1418/1524 18008KT 7000 NSC"
    },
    {
      "icao": "OEMA",
      "alert": "OK",
      "vis_m": 9999,
      "fzfg": false,
      "metar_trigger": false,
      "taf_trigger": false,
      "metar": "METAR OEMA 141900Z 20010KT CAVOK 29/13 Q1012 NOSIG",
      "taf": "TAF OEMA 141700Z 1418/1524 22005KT CAVOK"
    },
    {
      "icao": "OJAI",
      "alert": "OK",
      "vis_m": 4000,
      "fzfg": false,
      "metar_trigger": false,
      "taf_trigger": false,
      "metar": "METAR OJAI 141900Z 02010KT 4000 -TSRA FEW015 SCT030 13/09 Q1006 NOSIG",
      "taf": "TAF OJAI 141700Z 1418/1524 21012KT 3500 -RA FEW035TCU SCT045"
    },
    {
      "icao": "OMAA",
      "alert": "OK",
      "vis_m": null,
      "fzfg": false,
      "metar_trigger": false,
      "taf_trigger": false,
      "metar": "",
      "taf": ""
    },
    {
      "icao": "OMDB",
      "alert": "OK",
      "vis_m": null,
      "fzfg": false,
      "metar_trigger": false,
      "taf_trigger": false,
      "metar": "",
      "taf": ""
    },
    {
      "icao": "UAAA",
      "alert": "OK",
      "vis_m": 5000,
      "fzfg": false,
      "metar_trigger": false,
      "taf_trigger": false,
      "metar": "METAR UAAA 141930Z 21002MPS 5000 BR FU FEW200 M01/M04 Q1023 NOSIG",
      "taf": "TAF UAAA 141700Z 1418/1518 22003MPS 3100 BR FU SCT100 TX06/1509Z TNM06/1501Z"
    },
    {
      "icao": "UBBB",
      "alert": "OK",
      "vis_m": 9999,
      "fzfg": false,
      "metar_trigger": false,
      "taf_trigger": false,
      "metar": "METAR UBBB 141930Z 17006KT CAVOK 08/06 Q1023 NOSIG",
      "taf": "TAF UBBB 141710Z 1418/1518 15008KT 9999 BKN030 TX12/1510Z TN04/1502Z"
    },
    {
      "icao": "UDSG",
      "alert": "OK",
      "vis_m": 350,
      "fzfg": false,
      "metar_trigger": false,
      "taf_trigger": false,
      "metar": "METAR UDSG 141930Z 23003KT 0350 R02/1000U SN FG SCT006 OVC020 00/00 Q1016 NOSIG",
      "taf": "TAF UDSG 141700Z 1418/1518 VRB06KT 1000 BR OVC010"
    },
    {
      "icao": "UDYZ",
      "alert": "OK",
      "vis_m": 9999,
      "fzfg": false,
      "metar_trigger": false,
      "taf_trigger": false,
      "metar": "METAR UDYZ 141930Z 03005KT 9999 -SHRA OVC027CB 07/04 Q1016 NOSIG",
      "taf": "TAF UDYZ 141700Z 1418/1518 04006KT 6000 BKN040"
    },
    {
      "icao": "UGKO",
      "alert": "OK",
      "vis_m": 9999,
      "fzfg": false,
      "metar_trigger": false,
      "taf_trigger": false,
      "metar": "METAR UGKO 141930Z 08036G46KT CAVOK 12/00 Q1012 NOSIG",
      "taf": "TAF UGKO 141700Z 1418/1518 08031G45KT 9999 BKN080 TX14/1511Z TN10/1503Z"
    }
  ]
}