{
  "ts_utc": "2026-04-06T01:06:41Z",
  "threshold_m": 150,
  "source": "stations_override.txt (ICAO list) + aviationweather.gov (METAR/TAF raw)",
  "station_count": 159,
  "stations": [
    {
      "icao": "BIKF",
      "alert": "OK",
      "vis_m": 8000,
      "fzfg": false,
      "metar_trigger": false,
      "taf_trigger": false,
      "metar": "METAR BIKF 060100Z 09012KT 8000 SN BKN009 BKN023 OVC070 01/M00 Q1008",
      "taf": "TAF BIKF 052217Z 0600/0700 07006KT 9999 FEW030 TX06/0624Z TNM01/0600Z"
    },
    {
      "icao": "BKPR",
      "alert": "OK",
      "vis_m": 9999,
      "fzfg": false,
      "metar_trigger": false,
      "taf_trigger": false,
      "metar": "METAR BKPR 060100Z 32002KT CAVOK 05/04 Q1024 NOSIG",
      "taf": "TAF BKPR 052330Z 0600/0624 34006KT 9999 FEW040"
    },
    {
      "icao": "EBCI",
      "alert": "OK",
      "vis_m": 9999,
      "fzfg": false,
      "metar_trigger": false,
      "taf_trigger": false,
      "metar": "METAR EBCI 060050Z 21004KT CAVOK 05/02 Q1026 NOSIG",
      "taf": "TAF EBCI 052315Z 0600/0706 23010KT CAVOK"
    },
    {
      "icao": "EDDB",
      "alert": "OK",
      "vis_m": 9999,
      "fzfg": false,
      "metar_trigger": false,
      "taf_trigger": false,
      "metar": "METAR EDDB 060050Z AUTO 27015KT CAVOK 07/04 Q1018 NOSIG",
      "taf": "TAF EDDB 052300Z 0600/0624 27015KT 9999 FEW035"
    },
    {
      "icao": "EDDH",
      "alert": "OK",
      "vis_m": 9999,
      "fzfg": false,
      "metar_trigger": false,
      "taf_trigger": false,
      "metar": "METAR EDDH 060050Z AUTO 26009KT 230V300 9999 -SHRA SCT035 SCT042 BKN049 FEW///TCU 06/03 Q1019 TEMPO 26015G25KT SHRA SCT030CB",
      "taf": "TAF EDDH 052300Z 0600/0706 26011KT 9999 SCT030"
    },
    {
      "icao": "EDDK",
      "alert": "OK",
      "vis_m": 9999,
      "fzfg": false,
      "metar_trigger": false,
      "taf_trigger": false,
      "metar": "METAR EDDK 060050Z AUTO 29007KT 260V330 9999 FEW028 07/03 Q1026 NOSIG",
      "taf": "TAF EDDK 052300Z 0600/0706 VRB03KT CAVOK"
    },
    {
      "icao": "EDDN",
      "alert": "OK",
      "vis_m": 9999,
      "fzfg": false,
      "metar_trigger": false,
      "taf_trigger": false,
      "metar": "METAR EDDN 060050Z AUTO 32007KT 9999 SCT044 10/03 Q1024",
      "taf": "TAF EDDN 052300Z 0600/0624 29007KT CAVOK"
    },
    {
      "icao": "EDDS",
      "alert": "OK",
      "vis_m": 9999,
      "fzfg": false,
      "metar_trigger": false,
      "taf_trigger": false,
      "metar": "METAR EDDS 060050Z AUTO 30008KT 9999 FEW030 11/05 Q1025",
      "taf": "TAF EDDS 052300Z 0600/0624 29005KT CAVOK"
    },
    {
      "icao": "EDFH",
      "alert": "OK",
      "vis_m": 9999,
      "fzfg": false,
      "metar_trigger": false,
      "taf_trigger": false,
      "metar": "METAR EDFH 060050Z 28006KT CAVOK 04/M00 Q1025",
      "taf": "TAF EDFH 052300Z 0600/0624 28005KT CAVOK"
    },
    {
      "icao": "EDJA",
      "alert": "OK",
      "vis_m": 9999,
      "fzfg": false,
      "metar_trigger": false,
      "taf_trigger": false,
      "metar": "METAR EDJA 060050Z AUTO 21007KT 9999 // BKN066/// BKN079/// BKN130/// 09/07 Q1025",
      "taf": "TAF EDJA 051700Z 0518/0603 25010KT CAVOK"
    },
    {
      "icao": "EDLW",
      "alert": "OK",
      "vis_m": 9999,
      "fzfg": false,
      "metar_trigger": false,
      "taf_trigger": false,
      "metar": "METAR EDLW 060050Z AUTO 23007KT 9999 // FEW061/// 05/02 Q1024",
      "taf": "TAF EDLW 051700Z 0518/0618 24008KT 9999 SCT035"
    },
    {
      "icao": "EDNY",
      "alert": "OK",
      "vis_m": 9999,
      "fzfg": false,
      "metar_trigger": false,
      "taf_trigger": false,
      "metar": "METAR EDNY 060050Z AUTO 22006KT 9999 // BKN074/// OVC150/// 11/09 Q1026",
      "taf": "TAF EDNY 051700Z 0518/0603 25008KT CAVOK"
    },
    {
      "icao": "EDSB",
      "alert": "OK",
      "vis_m": 9999,
      "fzfg": false,
      "metar_trigger": false,
      "taf_trigger": false,
      "metar": "METAR EDSB 060050Z AUTO 23003KT 9999 // FEW058/// 10/05 Q1026",
      "taf": "TAF EDSB 052300Z 0600/0624 VRB03KT CAVOK"
    },
    {
      "icao": "EETN",
      "alert": "OK",
      "vis_m": 9999,
      "fzfg": false,
      "metar_trigger": false,
      "taf_trigger": false,
      "metar": "METAR EETN 060050Z 19010KT CAVOK 03/00 Q0993",
      "taf": "TAF EETN 051730Z 0518/0618 19012KT 9999 SCT015 OVC035"
    },
    {
      "icao": "EFTU",
      "alert": "OK",
      "vis_m": 9999,
      "fzfg": false,
      "metar_trigger": false,
      "taf_trigger": false,
      "metar": "METAR EFTU 060050Z AUTO 21014KT 9999 -RA OVC017 04/01 Q0986",
      "taf": "TAF EFTU 052334Z 0600/0624 20015G27KT 9999 BKN025"
    },
    {
      "icao": "EGBB",
      "alert": "OK",
      "vis_m": 9999,
      "fzfg": false,
      "metar_trigger": false,
      "taf_trigger": false,
      "metar": "METAR EGBB 060050Z 16005KT CAVOK 01/M01 Q1025",
      "taf": "TAF EGBB 052255Z 0600/0624 23003KT 9999 FEW030"
    },
    {
      "icao": "EGGP",
      "alert": "OK",
      "vis_m": 9999,
      "fzfg": false,
      "metar_trigger": false,
      "taf_trigger": false,
      "metar": "METAR EGGP 060050Z 13003KT CAVOK 03/01 Q1024",
      "taf": "TAF EGGP 052256Z 0600/0624 VRB03KT 9999 FEW040"
    },
    {
      "icao": "EGGW",
      "alert": "OK",
      "vis_m": 9999,
      "fzfg": false,
      "metar_trigger": false,
      "taf_trigger": false,
      "metar": "METAR EGGW 060050Z AUTO 27009KT 9999 NCD 04/01 Q1025",
      "taf": "TAF EGGW 052255Z 0600/0624 25005KT 9999 FEW035"
    },
    {
      "icao": "EGKK",
      "alert": "OK",
      "vis_m": 9999,
      "fzfg": false,
      "metar_trigger": false,
      "taf_trigger": false,
      "metar": "METAR EGKK 060050Z VRB01KT CAVOK 03/M01 Q1026",
      "taf": "TAF EGKK 052300Z 0600/0706 VRB03KT 9999 FEW045"
    },
    {
      "icao": "EGNM",
      "alert": "OK",
      "vis_m": 9999,
      "fzfg": false,
      "metar_trigger": false,
      "taf_trigger": false,
      "metar": "METAR EGNM 060050Z 24004KT 9999 FEW047 03/00 Q1023",
      "taf": "TAF EGNM 052255Z 0600/0624 23010KT 9999 FEW035"
    },
    {
      "icao": "EGPD",
      "alert": "OK",
      "vis_m": 9999,
      "fzfg": false,
      "metar_trigger": false,
      "taf_trigger": false,
      "metar": "METAR EGPD 060050Z COR AUTO 26008KT 9999 NCD 03/M02 Q1017 NOSIG",
      "taf": "TAF EGPD 052253Z 0600/0624 24008KT CAVOK"
    },
    {
      "icao": "EGPF",
      "alert": "OK",
      "vis_m": 9999,
      "fzfg": false,
      "metar_trigger": false,
      "taf_trigger": false,
      "metar": "METAR EGPF 060050Z AUTO VRB02KT 9999 NCD 01/M00 Q1021",
      "taf": "TAF EGPF 052256Z 0600/0624 VRB03KT 9999 FEW030"
    },
    {
      "icao": "EHBK",
      "alert": "OK",
      "vis_m": 9999,
      "fzfg": false,
      "metar_trigger": false,
      "taf_trigger": false,
      "metar": "METAR EHBK 060055Z AUTO 22007KT 9999 NSC 04/02 Q1025",
      "taf": "TAF EHBK 052252Z 0600/0706 22005KT CAVOK"
    },
    {
      "icao": "EHEH",
      "alert": "OK",
      "vis_m": 9999,
      "fzfg": false,
      "metar_trigger": false,
      "taf_trigger": false,
      "metar": "METAR EHEH 060055Z AUTO 24002KT 9999 OVC360 04/03 Q1025 BLU",
      "taf": "TAF EHEH 052322Z 0600/0706 23003KT 9999 CAVOK"
    },
    {
      "icao": "EKBI",
      "alert": "OK",
      "vis_m": 9999,
      "fzfg": false,
      "metar_trigger": false,
      "taf_trigger": false,
      "metar": "METAR EKBI 060050Z AUTO 27017KT 9999 BKN020/// BKN150/// 04/01 Q1013 REDZ",
      "taf": "TAF EKBI 052327Z 0600/0624 25018KT 9999 BKN035"
    },
    {
      "icao": "EKCH",
      "alert": "OK",
      "vis_m": 9999,
      "fzfg": false,
      "metar_trigger": false,
      "taf_trigger": false,
      "metar": "METAR EKCH 060050Z 27016KT 9999 SCT030CB 05/02 Q1010 BECMG NSW SCT030",
      "taf": ""
    },
    {
      "icao": "ENAL",
      "alert": "OK",
      "vis_m": 9999,
      "fzfg": false,
      "metar_trigger": false,
      "taf_trigger": false,
      "metar": "METAR ENAL 060050Z AUTO 26010KT 9999 FEW032/// SCT051/// 04/02 Q0997 RERA",
      "taf": "TAF ENAL 052300Z 0600/0609 27015KT 9999 FEW015 BKN030"
    },
    {
      "icao": "ENBR",
      "alert": "OK",
      "vis_m": 9999,
      "fzfg": false,
      "metar_trigger": false,
      "taf_trigger": false,
      "metar": "METAR ENBR 060050Z 26012KT 220V320 CAVOK 05/00 Q1003 RMK WIND 1200FT 29026G36KT",
      "taf": "TAF ENBR 052300Z 0600/0624 27012KT 9999 FEW015 SCT030"
    },
    {
      "icao": "ENGM",
      "alert": "OK",
      "vis_m": 9999,
      "fzfg": false,
      "metar_trigger": false,
      "taf_trigger": false,
      "metar": "METAR ENGM 060050Z 25007KT 210V290 CAVOK 03/M06 Q0994",
      "taf": "TAF ENGM 052300Z 0600/0624 26008KT CAVOK"
    },
    {
      "icao": "ENHD",
      "alert": "OK",
      "vis_m": 9999,
      "fzfg": false,
      "metar_trigger": false,
      "taf_trigger": false,
      "metar": "METAR ENHD 060050Z AUTO 27025KT 9999 FEW023/// 05/02 Q1006 RERA",
      "taf": ""
    },
    {
      "icao": "ENTC",
      "alert": "OK",
      "vis_m": 9999,
      "fzfg": false,
      "metar_trigger": false,
      "taf_trigger": false,
      "metar": "METAR ENTC 060050Z AUTO 06003KT 020V080 9999 NCD M01/M05 Q0997 RMK WIND 2600FT 17012KT",
      "taf": "TAF ENTC 052300Z 0600/0624 VRB03KT CAVOK"
    },
    {
      "icao": "ENTO",
      "alert": "OK",
      "vis_m": 9999,
      "fzfg": false,
      "metar_trigger": false,
      "taf_trigger": false,
      "metar": "METAR ENTO 060050Z AUTO 25008KT 230V290 9999 NCD 04/M03 Q0999",
      "taf": "TAF ENTO 052300Z 0600/0624 26010KT CAVOK"
    },
    {
      "icao": "ENVA",
      "alert": "OK",
      "vis_m": 9999,
      "fzfg": false,
      "metar_trigger": false,
      "taf_trigger": false,
      "metar": "METAR ENVA 060050Z 30012KT 9999 -RA FEW007 SCT009 OVC012 02/01 Q0991 RMK WIND 670FT 29016KT",
      "taf": "TAF ENVA 052300Z 0600/0624 28012KT 9999 SCT010 BKN020"
    },
    {
      "icao": "ENZV",
      "alert": "OK",
      "vis_m": 9999,
      "fzfg": false,
      "metar_trigger": false,
      "taf_trigger": false,
      "metar": "METAR ENZV 060050Z 28020KT 9999 FEW020 06/02 Q1006",
      "taf": "TAF ENZV 052300Z 0600/0624 29018KT 9999 FEW020 SCT035"
    },
    {
      "icao": "EPGD",
      "alert": "OK",
      "vis_m": 9999,
      "fzfg": false,
      "metar_trigger": false,
      "taf_trigger": false,
      "metar": "METAR EPGD 060100Z 26019KT 9999 FEW026 05/00 Q1010",
      "taf": "TAF EPGD 052330Z 0600/0624 27012KT 9999 BKN035"
    },
    {
      "icao": "EPKK",
      "alert": "OK",
      "vis_m": 9999,
      "fzfg": false,
      "metar_trigger": false,
      "taf_trigger": false,
      "metar": "METAR EPKK 060100Z 33009KT 290V360 9999 SCT020 BKN034 12/07 Q1018",
      "taf": "TAF EPKK 052330Z 0600/0624 34008KT 9999 BKN040"
    },
    {
      "icao": "EPKT",
      "alert": "OK",
      "vis_m": 9999,
      "fzfg": false,
      "metar_trigger": false,
      "taf_trigger": false,
      "metar": "METAR EPKT 060100Z 27007KT 9999 -RA FEW024 BKN047 09/06 Q1017",
      "taf": "TAF EPKT 052330Z 0600/0624 33010KT 9999 BKN025"
    },
    {
      "icao": "EPLB",
      "alert": "OK",
      "vis_m": 9999,
      "fzfg": false,
      "metar_trigger": false,
      "taf_trigger": false,
      "metar": "METAR EPLB 060100Z COR 33008KT CAVOK 08/07 Q1014",
      "taf": "TAF EPLB 052330Z 0600/0624 25005KT CAVOK"
    },
    {
      "icao": "EPMO",
      "alert": "OK",
      "vis_m": 9999,
      "fzfg": false,
      "metar_trigger": false,
      "taf_trigger": false,
      "metar": "METAR EPMO 060100Z 21009KT 9999 -SHRA SCT021 BKN034CB 07/06 Q1013",
      "taf": "TAF EPMO 052330Z 0600/0624 VRB04KT CAVOK"
    },
    {
      "icao": "EPPO",
      "alert": "OK",
      "vis_m": 9999,
      "fzfg": false,
      "metar_trigger": false,
      "taf_trigger": false,
      "metar": "METAR EPPO 060100Z 27015KT 9999 FEW049CB 08/05 Q1015",
      "taf": "TAF EPPO 052330Z 0600/0624 26010KT 9999 SCT030"
    },
    {
      "icao": "EPRA",
      "alert": "OK",
      "vis_m": 9999,
      "fzfg": false,
      "metar_trigger": false,
      "taf_trigger": false,
      "metar": "METAR EPRA 060100Z 26006KT 9999 -SHRA BKN040CB 08/06 Q1015",
      "taf": "TAF EPRA 052330Z 0600/0609 31010KT 9999 BKN040"
    },
    {
      "icao": "EPRZ",
      "alert": "OK",
      "vis_m": 9999,
      "fzfg": false,
      "metar_trigger": false,
      "taf_trigger": false,
      "metar": "METAR EPRZ 060100Z 32011KT CAVOK 13/07 Q1015",
      "taf": "TAF EPRZ 052330Z 0600/0624 28014KT CAVOK"
    },
    {
      "icao": "EPSC",
      "alert": "OK",
      "vis_m": 9999,
      "fzfg": false,
      "metar_trigger": false,
      "taf_trigger": false,
      "metar": "METAR EPSC 060100Z 26010KT 9999 SCT035 07/01 Q1015",
      "taf": "TAF EPSC 052330Z 0600/0624 27012KT 9999 BKN045"
    },
    {
      "icao": "EPSY",
      "alert": "OK",
      "vis_m": 9999,
      "fzfg": false,
      "metar_trigger": false,
      "taf_trigger": false,
      "metar": "METAR EPSY 060100Z 19006KT 9999 SCT033 06/05 Q1011",
      "taf": "TAF EPSY 052330Z 0600/0609 20006KT CAVOK"
    },
    {
      "icao": "EPWA",
      "alert": "OK",
      "vis_m": 9999,
      "fzfg": false,
      "metar_trigger": false,
      "taf_trigger": false,
      "metar": "METAR EPWA 060100Z 21005KT 9999 BKN034 08/06 Q1014 NOSIG",
      "taf": "TAF EPWA 052330Z 0600/0624 VRB04KT CAVOK"
    },
    {
      "icao": "EPWR",
      "alert": "OK",
      "vis_m": 9999,
      "fzfg": false,
      "metar_trigger": false,
      "taf_trigger": false,
      "metar": "METAR EPWR 060100Z 29017KT CAVOK 11/04 Q1018",
      "taf": "TAF EPWR 052330Z 0600/0624 27012KT CAVOK"
    },
    {
      "icao": "ESGG",
      "alert": "OK",
      "vis_m": 9999,
      "fzfg": false,
      "metar_trigger": false,
      "taf_trigger": false,
      "metar": "METAR ESGG 060050Z 27021G33KT 9999 SCT018 04/M00 Q1002",
      "taf": "TAF ESGG 052330Z 0600/0624 25022G38KT 9999 BKN020"
    },
    {
      "icao": "ESKN",
      "alert": "OK",
      "vis_m": 9999,
      "fzfg": false,
      "metar_trigger": false,
      "taf_trigger": false,
      "metar": "METAR ESKN 060050Z 26026G43KT 9999 BKN025 04/01 Q0989",
      "taf": "TAF ESKN 052330Z 0600/0624 22017G35KT 9999 FEW011 SCT014 BKN020"
    },
    {
      "icao": "ESMS",
      "alert": "OK",
      "vis_m": 4000,
      "fzfg": false,
      "metar_trigger": false,
      "taf_trigger": false,
      "metar": "METAR ESMS 060050Z 26018KT 4000 RA FEW016 SCT031 05/02 Q1009",
      "taf": ""
    },
    {
      "icao": "ESSA",
      "alert": "OK",
      "vis_m": 9999,
      "fzfg": false,
      "metar_trigger": false,
      "taf_trigger": false,
      "metar": "METAR ESSA 060050Z 25020KT 9999 BKN014 03/01 Q0985 TEMPO BKN016",
      "taf": "TAF ESSA 052330Z 0600/0624 22020G32KT 9999 -RA BKN015"
    },
    {
      "icao": "EYKA",
      "alert": "OK",
      "vis_m": 9999,
      "fzfg": false,
      "metar_trigger": false,
      "taf_trigger": false,
      "metar": "METAR EYKA 060050Z 27017KT CAVOK 06/01 Q1008",
      "taf": "TAF EYKA 052301Z 0600/0624 25011KT 9000 NSC"
    },
    {
      "icao": "EYPA",
      "alert": "OK",
      "vis_m": 9999,
      "fzfg": false,
      "metar_trigger": false,
      "taf_trigger": false,
      "metar": "METAR EYPA 060050Z 24010KT 190V280 CAVOK 04/02 Q1004",
      "taf": "TAF EYPA 052301Z 0600/0624 27012G22KT 9000 NSC"
    },
    {
      "icao": "EYVI",
      "alert": "OK",
      "vis_m": 9999,
      "fzfg": false,
      "metar_trigger": false,
      "taf_trigger": false,
      "metar": "METAR EYVI 060050Z 26011KT CAVOK 06/02 Q1008 NOSIG",
      "taf": "TAF EYVI 052300Z 0600/0624 24010KT 9000 SCT020"
    },
    {
      "icao": "GCFV",
      "alert": "OK",
      "vis_m": 9999,
      "fzfg": false,
      "metar_trigger": false,
      "taf_trigger": false,
      "metar": "METAR GCFV 060100Z AUTO 35006KT CAVOK 21/10 Q1012",
      "taf": ""
    },
    {
      "icao": "GCLP",
      "alert": "OK",
      "vis_m": 9999,
      "fzfg": false,
      "metar_trigger": false,
      "taf_trigger": false,
      "metar": "METAR GCLP 060100Z 36012KT CAVOK 19/12 Q1013 NOSIG",
      "taf": "TAF GCLP 052000Z 0521/0621 03015KT CAVOK TX23/0614Z TN17/0606Z"
    },
    {
      "icao": "GCTS",
      "alert": "OK",
      "vis_m": 9999,
      "fzfg": false,
      "metar_trigger": false,
      "taf_trigger": false,
      "metar": "METAR GCTS 060100Z 29007KT CAVOK 18/15 Q1015 NOSIG",
      "taf": "TAF GCTS 052000Z 0521/0621 10013KT CAVOK TX23/0614Z TN16/0606Z"
    },
    {
      "icao": "GMAD",
      "alert": "OK",
      "vis_m": 9999,
      "fzfg": false,
      "metar_trigger": false,
      "taf_trigger": false,
      "metar": "METAR GMAD 060100Z 05016KT 9999 SCT030 BKN080 23/12 Q1016 NOSIG",
      "taf": "TAF GMAD 052300Z 0600/0706 08006KT 8000 SCT026 BKN080"
    },
    {
      "icao": "GMMN",
      "alert": "OK",
      "vis_m": 9999,
      "fzfg": false,
      "metar_trigger": false,
      "taf_trigger": false,
      "metar": "METAR GMMN 060100Z 26008KT 230V290 CAVOK 18/11 Q1018 NOSIG",
      "taf": "TAF GMMN 052300Z 0600/0706 14008KT CAVOK"
    },
    {
      "icao": "GMMX",
      "alert": "OK",
      "vis_m": 8000,
      "fzfg": false,
      "metar_trigger": false,
      "taf_trigger": false,
      "metar": "METAR GMMX 060100Z 11006KT 8000 BKN100 19/09 Q1018 NOSIG",
      "taf": "TAF GMMX 052300Z 0600/0706 36006KT 8000 SCT100"
    },
    {
      "icao": "HEGN",
      "alert": "OK",
      "vis_m": 9999,
      "fzfg": false,
      "metar_trigger": false,
      "taf_trigger": false,
      "metar": "METAR HEGN 060000Z 27005KT CAVOK 19/M03 Q1017 NOSIG",
      "taf": "TAF HEGN 052300Z 0600/0706 28006G18KT CAVOK"
    },
    {
      "icao": "HEMA",
      "alert": "OK",
      "vis_m": 9999,
      "fzfg": false,
      "metar_trigger": false,
      "taf_trigger": false,
      "metar": "METAR HEMA 060000Z 31011KT CAVOK 23/02 Q1017 NOSIG",
      "taf": "TAF HEMA 052300Z 0600/0706 30008G20KT CAVOK"
    },
    {
      "icao": "HESH",
      "alert": "OK",
      "vis_m": 9999,
      "fzfg": false,
      "metar_trigger": false,
      "taf_trigger": false,
      "metar": "METAR HESH 060000Z 27003KT CAVOK 19/02 Q1017 NOSIG",
      "taf": "TAF HESH 052300Z 0600/0706 32006G18KT CAVOK"
    },
    {
      "icao": "HESX",
      "alert": "OK",
      "vis_m": 9999,
      "fzfg": false,
      "metar_trigger": false,
      "taf_trigger": false,
      "metar": "METAR HESX 060000Z 35004KT CAVOK 13/11 Q1019 NOSIG",
      "taf": "TAF HESX 052300Z 0600/0706 33008KT CAVOK"
    },
    {
      "icao": "LATI",
      "alert": "OK",
      "vis_m": 9999,
      "fzfg": false,
      "metar_trigger": false,
      "taf_trigger": false,
      "metar": "METAR LATI 060050Z 15004KT CAVOK 07/04 Q1024 NOSIG",
      "taf": "TAF LATI 052300Z 0600/0624 VRB03KT CAVOK TX24/0611Z TN06/0604Z"
    },
    {
      "icao": "LBPD",
      "alert": "OK",
      "vis_m": 9999,
      "fzfg": false,
      "metar_trigger": false,
      "taf_trigger": false,
      "metar": "METAR LBPD 060100Z AUTO 26005KT 9999 SCT078/// 09/05 Q1022",
      "taf": "TAF LBPD 052300Z 0600/0624 VRB03KT 9999 SCT060"
    },
    {
      "icao": "LBSF",
      "alert": "OK",
      "vis_m": 9999,
      "fzfg": false,
      "metar_trigger": false,
      "taf_trigger": false,
      "metar": "METAR LBSF 060100Z AUTO 13003KT 9999 NCD 04/03 Q1023 NOSIG",
      "taf": "TAF LBSF 052300Z 0600/0624 VRB03KT 9999 SCT070"
    },
    {
      "icao": "LBWN",
      "alert": "OK",
      "vis_m": 9999,
      "fzfg": false,
      "metar_trigger": false,
      "taf_trigger": false,
      "metar": "METAR LBWN 060100Z AUTO 36004KT 9999 NCD 06/02 Q1021 NOSIG",
      "taf": "TAF LBWN 052300Z 0600/0624 VRB03KT CAVOK"
    },
    {
      "icao": "LCLK",
      "alert": "OK",
      "vis_m": 9999,
      "fzfg": false,
      "metar_trigger": false,
      "taf_trigger": false,
      "metar": "METAR LCLK 060100Z 30006KT CAVOK 11/11 Q1017 NOSIG",
      "taf": "TAF LCLK 052330Z 0600/0700 29006KT 9999 FEW025"
    },
    {
      "icao": "LCPH",
      "alert": "OK",
      "vis_m": 9999,
      "fzfg": false,
      "metar_trigger": false,
      "taf_trigger": false,
      "metar": "METAR LCPH 060100Z AUTO 01006KT 9999 NCD 12/10 Q1017 NOSIG",
      "taf": "TAF LCPH 052330Z 0600/0700 35008KT 9999 FEW025 FEW030TCU SCT040"
    },
    {
      "icao": "LEAL",
      "alert": "OK",
      "vis_m": 9999,
      "fzfg": false,
      "metar_trigger": false,
      "taf_trigger": false,
      "metar": "METAR LEAL 060100Z 01006KT CAVOK 15/07 Q1025 NOSIG",
      "taf": "TAF LEAL 052300Z 0600/0624 01005KT CAVOK TX21/0612Z TN11/0606Z"
    },
    {
      "icao": "LEBB",
      "alert": "OK",
      "vis_m": 9999,
      "fzfg": false,
      "metar_trigger": false,
      "taf_trigger": false,
      "metar": "METAR LEBB 060100Z AUTO 08003KT CAVOK 10/10 Q1023",
      "taf": "TAF LEBB 052300Z 0600/0624 13008KT 9999 SCT020 TX28/0615Z TN09/0603Z"
    },
    {
      "icao": "LEBL",
      "alert": "OK",
      "vis_m": 9999,
      "fzfg": false,
      "metar_trigger": false,
      "taf_trigger": false,
      "metar": "METAR LEBL 060100Z 29003KT CAVOK 13/06 Q1026 NOSIG",
      "taf": ""
    },
    {
      "icao": "LECH",
      "alert": "OK",
      "vis_m": 9999,
      "fzfg": false,
      "metar_trigger": false,
      "taf_trigger": false,
      "metar": "METAR LECH 060100Z AUTO 19005KT CAVOK 11/05 Q1026",
      "taf": "TAF LECH 052300Z 0600/0624 VRB03KT 9999 FEW020 TX23/0614Z TN10/0606Z"
    },
    {
      "icao": "LEMD",
      "alert": "OK",
      "vis_m": 9999,
      "fzfg": false,
      "metar_trigger": false,
      "taf_trigger": false,
      "metar": "METAR LEMD 060100Z 36004KT CAVOK 12/04 Q1024 NOSIG",
      "taf": "TAF LEMD 052300Z 0600/0706 VRB04KT CAVOK TX27/0616Z TN09/0606Z"
    },
    {
      "icao": "LEMG",
      "alert": "OK",
      "vis_m": 9999,
      "fzfg": false,
      "metar_trigger": false,
      "taf_trigger": false,
      "metar": "METAR LEMG 060100Z 30008KT CAVOK 10/04 Q1024 NOSIG",
      "taf": "TAF LEMG 052300Z 0600/0624 28006KT CAVOK TX22/0614Z TN10/0606Z"
    },
    {
      "icao": "LEVC",
      "alert": "OK",
      "vis_m": 9999,
      "fzfg": false,
      "metar_trigger": false,
      "taf_trigger": false,
      "metar": "METAR LEVC 060100Z 33006KT CAVOK 12/07 Q1026 NOSIG",
      "taf": "TAF LEVC 052300Z 0600/0624 VRB03KT 9999 FEW015 TX22/0614Z TN10/0606Z"
    },
    {
      "icao": "LEXJ",
      "alert": "OK",
      "vis_m": 4300,
      "fzfg": false,
      "metar_trigger": false,
      "taf_trigger": false,
      "metar": "METAR LEXJ 060100Z AUTO 17002KT 4300 BR NSC 10/09 Q1022",
      "taf": "TAF LEXJ 052000Z 0521/0621 04006KT 9999 SCT020 TX30/0614Z TN10/0606Z"
    },
    {
      "icao": "LEZG",
      "alert": "OK",
      "vis_m": 9999,
      "fzfg": false,
      "metar_trigger": false,
      "taf_trigger": false,
      "metar": "METAR LEZG 060100Z 08005KT CAVOK 14/08 Q1024 NOSIG",
      "taf": "TAF LEZG 052300Z 0600/0624 09006KT CAVOK TX29/0614Z TN12/0606Z"
    },
    {
      "icao": "LEZL",
      "alert": "OK",
      "vis_m": 9999,
      "fzfg": false,
      "metar_trigger": false,
      "taf_trigger": false,
      "metar": "METAR LEZL 060100Z AUTO 04003KT 320V080 CAVOK 14/04 Q1020",
      "taf": "TAF LEZL 052000Z 0521/0621 06008KT CAVOK TX29/0615Z TN12/0606Z"
    },
    {
      "icao": "LFBD",
      "alert": "OK",
      "vis_m": 9999,
      "fzfg": false,
      "metar_trigger": false,
      "taf_trigger": false,
      "metar": "METAR LFBD 060100Z AUTO 04007KT CAVOK 12/10 Q1024 NOSIG",
      "taf": "TAF LFBD 052300Z 0600/0706 03005KT CAVOK TX29/0614Z TN10/0606Z"
    },
    {
      "icao": "LFLL",
      "alert": "OK",
      "vis_m": 9999,
      "fzfg": false,
      "metar_trigger": false,
      "taf_trigger": false,
      "metar": "METAR LFLL 060100Z 22003KT CAVOK 13/06 Q1026 NOSIG",
      "taf": "TAF LFLL 052300Z 0600/0706 VRB02KT CAVOK"
    },
    {
      "icao": "LFLS",
      "alert": "OK",
      "vis_m": 9999,
      "fzfg": false,
      "metar_trigger": false,
      "taf_trigger": false,
      "metar": "METAR LFLS 060100Z AUTO 11004KT 070V160 CAVOK 08/06 Q1026",
      "taf": ""
    },
    {
      "icao": "LFMN",
      "alert": "OK",
      "vis_m": 9999,
      "fzfg": false,
      "metar_trigger": false,
      "taf_trigger": false,
      "metar": "METAR LFMN 060100Z 32007KT CAVOK 12/09 Q1025 TEMPO BKN010",
      "taf": "TAF LFMN 052000Z 0521/0703 33010KT CAVOK"
    },
    {
      "icao": "LFOB",
      "alert": "OK",
      "vis_m": 9999,
      "fzfg": false,
      "metar_trigger": false,
      "taf_trigger": false,
      "metar": "METAR LFOB 060100Z AUTO 31002KT CAVOK 01/00 Q1027 NOSIG",
      "taf": "TAF LFOB 052300Z 0600/0624 VRB03KT 9999 SCT030"
    },
    {
      "icao": "LFPO",
      "alert": "OK",
      "vis_m": 9999,
      "fzfg": false,
      "metar_trigger": false,
      "taf_trigger": false,
      "metar": "METAR LFPO 060100Z AUTO VRB01KT CAVOK 06/04 Q1027 NOSIG",
      "taf": "TAF LFPO 052300Z 0600/0706 VRB03KT CAVOK"
    },
    {
      "icao": "LFSB",
      "alert": "OK",
      "vis_m": 9999,
      "fzfg": false,
      "metar_trigger": false,
      "taf_trigger": false,
      "metar": "METAR LFSB 060100Z AUTO 31003KT CAVOK 11/08 Q1026 NOSIG",
      "taf": "TAF LFSB 052300Z 0600/0624 29008KT CAVOK"
    },
    {
      "icao": "LGAV",
      "alert": "OK",
      "vis_m": 9999,
      "fzfg": false,
      "metar_trigger": false,
      "taf_trigger": false,
      "metar": "METAR LGAV 060050Z 33006KT 9999 FEW025 13/05 Q1022 NOSIG",
      "taf": "TAF LGAV 052300Z 0600/0624 36015KT 9999 FEW020"
    },
    {
      "icao": "LGTS",
      "alert": "OK",
      "vis_m": 9999,
      "fzfg": false,
      "metar_trigger": false,
      "taf_trigger": false,
      "metar": "METAR LGTS 060050Z 10005KT 9999 FEW025 10/07 Q1022 NOSIG",
      "taf": "TAF LGTS 052300Z 0600/0624 VRB03KT 9999 FEW025"
    },
    {
      "icao": "LHBP",
      "alert": "OK",
      "vis_m": 9999,
      "fzfg": false,
      "metar_trigger": false,
      "taf_trigger": false,
      "metar": "METAR LHBP 060100Z VRB01KT CAVOK 12/08 Q1020 NOSIG",
      "taf": "TAF LHBP 052315Z 0600/0624 16004KT CAVOK"
    },
    {
      "icao": "LHDC",
      "alert": "OK",
      "vis_m": 9999,
      "fzfg": false,
      "metar_trigger": false,
      "taf_trigger": false,
      "metar": "METAR LHDC 060045Z AUTO 19008KT CAVOK 10/06 Q1020",
      "taf": "TAF LHDC 051715Z 0518/0603 21012KT CAVOK"
    },
    {
      "icao": "LIBD",
      "alert": "OK",
      "vis_m": 9999,
      "fzfg": false,
      "metar_trigger": false,
      "taf_trigger": false,
      "metar": "METAR LIBD 060050Z 22006KT CAVOK 08/06 Q1024",
      "taf": "TAF LIBD 052300Z 0600/0624 23006KT CAVOK"
    },
    {
      "icao": "LIBG",
      "alert": "OK",
      "vis_m": null,
      "fzfg": false,
      "metar_trigger": false,
      "taf_trigger": false,
      "metar": "",
      "taf": ""
    },
    {
      "icao": "LIBP",
      "alert": "OK",
      "vis_m": 9999,
      "fzfg": false,
      "metar_trigger": false,
      "taf_trigger": false,
      "metar": "METAR LIBP 060050Z AUTO 22006KT 9999 NCD 07/06 Q1023",
      "taf": "TAF LIBP 052300Z 0600/0624 23006KT CAVOK"
    },
    {
      "icao": "LIBR",
      "alert": "OK",
      "vis_m": 9999,
      "fzfg": false,
      "metar_trigger": false,
      "taf_trigger": false,
      "metar": "METAR LIBR 060050Z 25008KT CAVOK 08/05 Q1024",
      "taf": "TAF LIBR 052300Z 0600/0624 29006KT CAVOK"
    },
    {
      "icao": "LICA",
      "alert": "OK",
      "vis_m": 9999,
      "fzfg": false,
      "metar_trigger": false,
      "taf_trigger": false,
      "metar": "METAR LICA 060050Z AUTO 19003KT 9999 SCT014/// 11/10 Q1026",
      "taf": "TAF LICA 052300Z 0600/0624 VRB05KT 9999 SCT013"
    },
    {
      "icao": "LICC",
      "alert": "OK",
      "vis_m": 9999,
      "fzfg": false,
      "metar_trigger": false,
      "taf_trigger": false,
      "metar": "METAR LICC 060050Z 26005KT CAVOK 09/06 Q1025",
      "taf": "TAF LICC 052300Z 0600/0624 26007KT 8000 FEW060"
    },
    {
      "icao": "LICJ",
      "alert": "OK",
      "vis_m": 9999,
      "fzfg": false,
      "metar_trigger": false,
      "taf_trigger": false,
      "metar": "METAR LICJ 060050Z 11004KT CAVOK 11/09 Q1026",
      "taf": "TAF LICJ 052300Z 0600/0624 VRB04KT CAVOK"
    },
    {
      "icao": "LIMC",
      "alert": "OK",
      "vis_m": 9999,
      "fzfg": false,
      "metar_trigger": false,
      "taf_trigger": false,
      "metar": "METAR LIMC 060050Z VRB01KT CAVOK 10/07 Q1023 NOSIG",
      "taf": "TAF LIMC 052300Z 0600/0706 18006KT CAVOK"
    },
    {
      "icao": "LIME",
      "alert": "OK",
      "vis_m": 9999,
      "fzfg": false,
      "metar_trigger": false,
      "taf_trigger": false,
      "metar": "METAR LIME 060050Z 02004KT CAVOK 13/06 Q1023 NOSIG",
      "taf": "TAF LIME 052300Z 0600/0624 VRB05KT CAVOK"
    },
    {
      "icao": "LIMF",
      "alert": "OK",
      "vis_m": 9999,
      "fzfg": false,
      "metar_trigger": false,
      "taf_trigger": false,
      "metar": "METAR LIMF 060050Z 27004KT CAVOK 15/05 Q1023",
      "taf": "TAF LIMF 052300Z 0600/0624 VRB05KT CAVOK"
    },
    {
      "icao": "LIMJ",
      "alert": "OK",
      "vis_m": 9999,
      "fzfg": false,
      "metar_trigger": false,
      "taf_trigger": false,
      "metar": "METAR LIMJ 060050Z 09003KT 060V120 9999 BKN025 15/11 Q1025",
      "taf": "TAF LIMJ 052300Z 0600/0624 VRB05KT 9999 BKN015"
    },
    {
      "icao": "LIPE",
      "alert": "OK",
      "vis_m": 9999,
      "fzfg": false,
      "metar_trigger": false,
      "taf_trigger": false,
      "metar": "METAR LIPE 060050Z 19007KT CAVOK 15/02 Q1022",
      "taf": "TAF LIPE 052300Z 0600/0624 VRB05KT CAVOK"
    },
    {
      "icao": "LIPH",
      "alert": "OK",
      "vis_m": 9999,
      "fzfg": false,
      "metar_trigger": false,
      "taf_trigger": false,
      "metar": "METAR LIPH 060050Z AUTO VRB02KT 9999 BKN180/// BKN220/// 11/06 Q1023",
      "taf": "TAF LIPH 052300Z 0600/0624 VRB05KT CAVOK"
    },
    {
      "icao": "LIPQ",
      "alert": "OK",
      "vis_m": 9999,
      "fzfg": false,
      "metar_trigger": false,
      "taf_trigger": false,
      "metar": "METAR LIPQ 060050Z AUTO 07002KT 9999 BKN200/// 07/05 Q1023",
      "taf": "TAF LIPQ 052300Z 0600/0624 VRB05KT CAVOK"
    },
    {
      "icao": "LIPR",
      "alert": "OK",
      "vis_m": 9999,
      "fzfg": false,
      "metar_trigger": false,
      "taf_trigger": false,
      "metar": "METAR LIPR 060050Z AUTO 19004KT 9999 NCD 07/05 Q1022",
      "taf": "TAF LIPR 052300Z 0600/0624 VRB05KT CAVOK"
    },
    {
      "icao": "LIPX",
      "alert": "OK",
      "vis_m": 9999,
      "fzfg": false,
      "metar_trigger": false,
      "taf_trigger": false,
      "metar": "METAR LIPX 060050Z 36003KT CAVOK 11/06 Q1022",
      "taf": "TAF LIPX 052300Z 0600/0624 VRB05KT CAVOK"
    },
    {
      "icao": "LIPY",
      "alert": "OK",
      "vis_m": 9999,
      "fzfg": false,
      "metar_trigger": false,
      "taf_trigger": false,
      "metar": "METAR LIPY 060050Z AUTO 20003KT 9999 NCD 11/06 Q1022",
      "taf": "TAF LIPY 052300Z 0600/0624 24006KT CAVOK"
    },
    {
      "icao": "LIPZ",
      "alert": "OK",
      "vis_m": 9999,
      "fzfg": false,
      "metar_trigger": false,
      "taf_trigger": false,
      "metar": "METAR LIPZ 060050Z 08004KT CAVOK 11/10 Q1023 NOSIG",
      "taf": "TAF LIPZ 052300Z 0600/0706 VRB05KT CAVOK"
    },
    {
      "icao": "LIRF",
      "alert": "OK",
      "vis_m": 50,
      "fzfg": false,
      "metar_trigger": false,
      "taf_trigger": false,
      "metar": "METAR LIRF 060050Z 33003KT 0050 R16L/0650U R16R/0650N R25/0325N R34R/0400N FG VV001 10/10 Q1025 NOSIG",
      "taf": ""
    },
    {
      "icao": "LIRN",
      "alert": "OK",
      "vis_m": 9999,
      "fzfg": false,
      "metar_trigger": false,
      "taf_trigger": false,
      "metar": "METAR LIRN 060050Z 24003KT 180V250 CAVOK 11/06 Q1025 NOSIG",
      "taf": "TAF LIRN 052300Z 0600/0624 VRB05KT CAVOK"
    },
    {
      "icao": "LIRP",
      "alert": "OK",
      "vis_m": 6000,
      "fzfg": false,
      "metar_trigger": false,
      "taf_trigger": false,
      "metar": "METAR LIRP 060045Z 12003KT 6000 2000NE MIFG SCT010 07/07 Q1026 TEMPO 4000 BR",
      "taf": "TAF LIRP 052300Z 0600/0624 VRB03KT CAVOK"
    },
    {
      "icao": "LIRZ",
      "alert": "OK",
      "vis_m": 9999,
      "fzfg": false,
      "metar_trigger": false,
      "taf_trigger": false,
      "metar": "METAR LIRZ 060050Z AUTO 03004KT 9999 NCD 04/02 Q1026",
      "taf": "TAF LIRZ 052300Z 0600/0624 VRB04KT CAVOK"
    },
    {
      "icao": "LJLJ",
      "alert": "OK",
      "vis_m": 9999,
      "fzfg": false,
      "metar_trigger": false,
      "taf_trigger": false,
      "metar": "METAR LJLJ 060100Z 28003KT 240V300 CAVOK 05/02 Q1023 NOSIG",
      "taf": "TAF LJLJ 052300Z 0600/0700 30003KT CAVOK"
    },
    {
      "icao": "LKMT",
      "alert": "OK",
      "vis_m": 9999,
      "fzfg": false,
      "metar_trigger": false,
      "taf_trigger": false,
      "metar": "METAR LKMT 060100Z 03007KT CAVOK 10/07 Q1019 NOSIG",
      "taf": "TAF LKMT 052300Z 0600/0624 21008KT CAVOK"
    },
    {
      "icao": "LKPR",
      "alert": "OK",
      "vis_m": 9999,
      "fzfg": false,
      "metar_trigger": false,
      "taf_trigger": false,
      "metar": "METAR LKPR 060100Z 31012KT 9999 SCT035 10/03 Q1021 NOSIG",
      "taf": "TAF LKPR 052300Z 0600/0706 28014KT 9999 BKN045"
    },
    {
      "icao": "LLBG",
      "alert": "OK",
      "vis_m": 9999,
      "fzfg": false,
      "metar_trigger": false,
      "taf_trigger": false,
      "metar": "METAR LLBG 060050Z VRB02KT CAVOK 12/09 Q1017 NOSIG",
      "taf": "TAF LLBG 052300Z 0600/0624 VRB03KT CAVOK TX20/0611Z TN10/0604Z"
    },
    {
      "icao": "LMML",
      "alert": "OK",
      "vis_m": 9999,
      "fzfg": false,
      "metar_trigger": false,
      "taf_trigger": false,
      "metar": "METAR LMML 060045Z 28005KT CAVOK 13/09 Q1025 NOSIG",
      "taf": "TAF LMML 052300Z 0600/0624 29008KT 9999 FEW015"
    },
    {
      "icao": "LOWW",
      "alert": "OK",
      "vis_m": 9999,
      "fzfg": false,
      "metar_trigger": false,
      "taf_trigger": false,
      "metar": "METAR LOWW 060050Z 28013KT CAVOK 17/07 Q1020 NOSIG",
      "taf": "TAF LOWW 052315Z 0600/0706 30012KT 9999 FEW050 TX16/0613Z TN06/0704Z"
    },
    {
      "icao": "LPFR",
      "alert": "OK",
      "vis_m": 9999,
      "fzfg": false,
      "metar_trigger": false,
      "taf_trigger": false,
      "metar": "METAR LPFR 060100Z 07012KT CAVOK 18/08 Q1018",
      "taf": "TAF LPFR 052300Z 0600/0624 08010KT CAVOK"
    },
    {
      "icao": "LPMA",
      "alert": "OK",
      "vis_m": 9999,
      "fzfg": false,
      "metar_trigger": false,
      "taf_trigger": false,
      "metar": "METAR LPMA 060100Z 00000KT 9999 FEW013 16/13 Q1015",
      "taf": "TAF LPMA 052300Z 0600/0624 VRB05KT 9999 SCT015"
    },
    {
      "icao": "LPPR",
      "alert": "OK",
      "vis_m": 9999,
      "fzfg": false,
      "metar_trigger": false,
      "taf_trigger": false,
      "metar": "METAR LPPR 060100Z 07005KT CAVOK 15/08 Q1018",
      "taf": "TAF LPPR 052300Z 0600/0624 09007KT CAVOK"
    },
    {
      "icao": "LPPS",
      "alert": "OK",
      "vis_m": 9999,
      "fzfg": false,
      "metar_trigger": false,
      "taf_trigger": false,
      "metar": "METAR LPPS 060100Z 29003KT 9999 SCT012 15/14 Q1015",
      "taf": "TAF LPPS 052300Z 0600/0706 VRB05KT 9999 SCT015"
    },
    {
      "icao": "LPPT",
      "alert": "OK",
      "vis_m": 9999,
      "fzfg": false,
      "metar_trigger": false,
      "taf_trigger": false,
      "metar": "METAR LPPT 060100Z 33003KT CAVOK 15/08 Q1018",
      "taf": "TAF LPPT 052300Z 0600/0706 VRB02KT CAVOK"
    },
    {
      "icao": "LQBK",
      "alert": "OK",
      "vis_m": 9999,
      "fzfg": false,
      "metar_trigger": false,
      "taf_trigger": false,
      "metar": "METAR LQBK 060100Z 13007KT CAVOK 09/03 Q1021 NOSIG",
      "taf": "TAF LQBK 052300Z 0600/0624 16007KT CAVOK TX22/0614Z TN09/0605Z"
    },
    {
      "icao": "LQSA",
      "alert": "OK",
      "vis_m": 9999,
      "fzfg": false,
      "metar_trigger": false,
      "taf_trigger": false,
      "metar": "METAR LQSA 060100Z VRB02KT CAVOK 03/02 Q1024",
      "taf": "TAF LQSA 052300Z 0600/0624 VRB02KT CAVOK TX22/0614Z TN05/0604Z"
    },
    {
      "icao": "LQTZ",
      "alert": "OK",
      "vis_m": 9999,
      "fzfg": false,
      "metar_trigger": false,
      "taf_trigger": false,
      "metar": "METAR LQTZ 060100Z VRB01KT CAVOK 04/04 Q1023",
      "taf": "TAF LQTZ 052300Z 0600/0624 VRB02KT CAVOK TX20/0613Z TN04/0605Z"
    },
    {
      "icao": "LRBC",
      "alert": "OK",
      "vis_m": 9999,
      "fzfg": false,
      "metar_trigger": false,
      "taf_trigger": false,
      "metar": "METAR LRBC 060100Z VRB01KT CAVOK 06/04 Q1019",
      "taf": "TAF LRBC 052300Z 0600/0609 VRB04KT CAVOK"
    },
    {
      "icao": "LRBS",
      "alert": "OK",
      "vis_m": 9999,
      "fzfg": false,
      "metar_trigger": false,
      "taf_trigger": false,
      "metar": "METAR LRBS 060100Z 27003KT CAVOK 09/07 Q1021 NOSIG",
      "taf": "TAF LRBS 052300Z 0600/0624 VRB04KT CAVOK"
    },
    {
      "icao": "LRBV",
      "alert": "OK",
      "vis_m": 9999,
      "fzfg": false,
      "metar_trigger": false,
      "taf_trigger": false,
      "metar": "METAR LRBV 060100Z AUTO 24005KT 9999 NCD 05/03 Q1022",
      "taf": "TAF LRBV 051700Z 0518/0603 23006KT CAVOK"
    },
    {
      "icao": "LRCL",
      "alert": "OK",
      "vis_m": 9999,
      "fzfg": false,
      "metar_trigger": false,
      "taf_trigger": false,
      "metar": "METAR LRCL 060100Z 27005KT CAVOK 05/03 Q1022",
      "taf": "TAF LRCL 052300Z 0600/0609 VRB04KT CAVOK"
    },
    {
      "icao": "LRCV",
      "alert": "OK",
      "vis_m": 9999,
      "fzfg": false,
      "metar_trigger": false,
      "taf_trigger": false,
      "metar": "METAR LRCV 060100Z 25005KT CAVOK 09/07 Q1021",
      "taf": "TAF LRCV 052300Z 0600/0609 27006KT CAVOK"
    },
    {
      "icao": "LRIA",
      "alert": "OK",
      "vis_m": 9999,
      "fzfg": false,
      "metar_trigger": false,
      "taf_trigger": false,
      "metar": "METAR LRIA 060100Z 22003KT CAVOK 11/05 Q1018",
      "taf": "TAF LRIA 052300Z 0600/0609 VRB04KT CAVOK"
    },
    {
      "icao": "LROP",
      "alert": "OK",
      "vis_m": 9999,
      "fzfg": false,
      "metar_trigger": false,
      "taf_trigger": false,
      "metar": "METAR LROP 060100Z 22007KT CAVOK 09/07 Q1021 NOSIG",
      "taf": "TAF LROP 052300Z 0600/0624 VRB04KT CAVOK"
    },
    {
      "icao": "LRSB",
      "alert": "OK",
      "vis_m": 9999,
      "fzfg": false,
      "metar_trigger": false,
      "taf_trigger": false,
      "metar": "METAR LRSB 060100Z 11003KT CAVOK 06/04 Q1022",
      "taf": "TAF LRSB 052300Z 0600/0624 VRB04KT CAVOK"
    },
    {
      "icao": "LRSM",
      "alert": "OK",
      "vis_m": 9999,
      "fzfg": false,
      "metar_trigger": false,
      "taf_trigger": false,
      "metar": "METAR LRSM 060100Z AUTO 20008KT 9999 FEW095/// 09/05 Q1020",
      "taf": ""
    },
    {
      "icao": "LRSV",
      "alert": "OK",
      "vis_m": 9999,
      "fzfg": false,
      "metar_trigger": false,
      "taf_trigger": false,
      "metar": "METAR LRSV 060100Z AUTO 25015KT 9999 NCD 12/03 Q1017",
      "taf": "TAF LRSV 052300Z 0600/0609 26014KT CAVOK"
    },
    {
      "icao": "LRTM",
      "alert": "OK",
      "vis_m": 9000,
      "fzfg": false,
      "metar_trigger": false,
      "taf_trigger": false,
      "metar": "METAR LRTM 060100Z 34001KT 9000 MIFG NSC 03/03 Q1022",
      "taf": "TAF LRTM 052300Z 0600/0609 VRB04KT CAVOK"
    },
    {
      "icao": "LRTR",
      "alert": "OK",
      "vis_m": 5000,
      "fzfg": false,
      "metar_trigger": false,
      "taf_trigger": false,
      "metar": "METAR LRTR 060100Z 08005KT 5000 BR NSC 04/04 Q1022 TEMPO 5000 BR",
      "taf": "TAF LRTR 052300Z 0600/0624 11006KT CAVOK"
    },
    {
      "icao": "LTAC",
      "alert": "OK",
      "vis_m": 9999,
      "fzfg": false,
      "metar_trigger": false,
      "taf_trigger": false,
      "metar": "METAR LTAC 060050Z VRB02KT 9999 FEW040 04/01 Q1020 NOSIG RMK RWY21C 01007KT RWY03L VRB01KT RWY21R 01008KT RWY03R VRB02KT RWY21L 02006KT",
      "taf": "TAF LTAC 052240Z 0600/0624 02009KT 9999 SCT040"
    },
    {
      "icao": "LTFM",
      "alert": "OK",
      "vis_m": 6000,
      "fzfg": false,
      "metar_trigger": false,
      "taf_trigger": false,
      "metar": "METAR LTFM 060050Z VRB03KT 6000 FEW003 08/06 Q1022 NOSIG RMK RWY17L VRB01KT RWY34L 20003KT RWY16R 16002KT RWY36 VRB02KT RWY18 VRB01KT",
      "taf": "TAF LTFM 052240Z 0600/0706 VRB02KT 4000 BR NSC"
    },
    {
      "icao": "LUKK",
      "alert": "OK",
      "vis_m": 9999,
      "fzfg": false,
      "metar_trigger": false,
      "taf_trigger": false,
      "metar": "METAR LUKK 060100Z 26004KT CAVOK 07/03 Q1018 NOSIG",
      "taf": "TAF LUKK 052316Z 0600/0624 24006KT CAVOK"
    },
    {
      "icao": "LWOH",
      "alert": "OK",
      "vis_m": null,
      "fzfg": false,
      "metar_trigger": false,
      "taf_trigger": false,
      "metar": "",
      "taf": "TAF LWOH 052030Z 0521/0621 33005KT 9999 SCT040"
    },
    {
      "icao": "LWSK",
      "alert": "OK",
      "vis_m": 9999,
      "fzfg": false,
      "metar_trigger": false,
      "taf_trigger": false,
      "metar": "METAR LWSK 060050Z VRB02KT CAVOK 05/03 Q1024 NOSIG",
      "taf": "TAF LWSK 052030Z 0521/0621 VRB02KT CAVOK"
    },
    {
      "icao": "LYBE",
      "alert": "OK",
      "vis_m": 9999,
      "fzfg": false,
      "metar_trigger": false,
      "taf_trigger": false,
      "metar": "METAR LYBE 060100Z 17006KT CAVOK 11/06 Q1022 NOSIG",
      "taf": "TAF LYBE 052300Z 0600/0624 16005KT CAVOK TX22/0613Z TN07/0605Z"
    },
    {
      "icao": "LYNI",
      "alert": "OK",
      "vis_m": 9999,
      "fzfg": false,
      "metar_trigger": false,
      "taf_trigger": false,
      "metar": "METAR LYNI 060100Z 09003KT CAVOK 07/06 Q1024 NOSIG",
      "taf": "TAF LYNI 052300Z 0600/0624 32005KT CAVOK TX21/0613Z TN05/0605Z"
    },
    {
      "icao": "LYPG",
      "alert": "OK",
      "vis_m": 9999,
      "fzfg": false,
      "metar_trigger": false,
      "taf_trigger": false,
      "metar": "METAR LYPG 060100Z 33004KT CAVOK 10/04 Q1023 NOSIG",
      "taf": "TAF LYPG 052300Z 0600/0624 32005KT CAVOK TX23/0612Z TN07/0604Z"
    },
    {
      "icao": "LZIB",
      "alert": "OK",
      "vis_m": 9999,
      "fzfg": false,
      "metar_trigger": false,
      "taf_trigger": false,
      "metar": "METAR LZIB 060100Z 27011KT CAVOK 18/07 Q1019 NOSIG",
      "taf": "TAF LZIB 052315Z 0600/0700 30010KT CAVOK"
    },
    {
      "icao": "LZKZ",
      "alert": "OK",
      "vis_m": 9999,
      "fzfg": false,
      "metar_trigger": false,
      "taf_trigger": false,
      "metar": "METAR LZKZ 060100Z 21010KT CAVOK 12/07 Q1017 NOSIG",
      "taf": "TAF LZKZ 052315Z 0600/0700 VRB02KT CAVOK"
    },
    {
      "icao": "LZTT",
      "alert": "OK",
      "vis_m": 9999,
      "fzfg": false,
      "metar_trigger": false,
      "taf_trigger": false,
      "metar": "METAR LZTT 060100Z 22008KT 9999 FEW063 11/04 Q1017",
      "taf": "TAF LZTT 052315Z 0600/0700 26009KT 9999 FEW053 SCT080"
    },
    {
      "icao": "OEJN",
      "alert": "OK",
      "vis_m": 9999,
      "fzfg": false,
      "metar_trigger": false,
      "taf_trigger": false,
      "metar": "METAR OEJN 060100Z 33006KT CAVOK 24/17 Q1012 NOSIG",
      "taf": "TAF OEJN 052300Z 0600/0706 36005KT 7000 FEW040"
    },
    {
      "icao": "OEMA",
      "alert": "OK",
      "vis_m": 9000,
      "fzfg": false,
      "metar_trigger": false,
      "taf_trigger": false,
      "metar": "METAR OEMA 060100Z 04015KT 9000 BKN045 24/M03 Q1017 NOSIG",
      "taf": "TAF OEMA 052300Z 0600/0706 VRB03KT 9999 SCT040"
    },
    {
      "icao": "OJAI",
      "alert": "OK",
      "vis_m": 4000,
      "fzfg": false,
      "metar_trigger": false,
      "taf_trigger": false,
      "metar": "METAR OJAI 060000Z 03004KT 4000 BR NSC 07/05 Q1019 NOSIG",
      "taf": "TAF OJAI 052300Z 0600/0706 28012KT 4000 BR FEW025TCU SCT030"
    },
    {
      "icao": "OMAA",
      "alert": "OK",
      "vis_m": null,
      "fzfg": false,
      "metar_trigger": false,
      "taf_trigger": false,
      "metar": "",
      "taf": ""
    },
    {
      "icao": "OMDB",
      "alert": "OK",
      "vis_m": null,
      "fzfg": false,
      "metar_trigger": false,
      "taf_trigger": false,
      "metar": "",
      "taf": ""
    },
    {
      "icao": "UAAA",
      "alert": "OK",
      "vis_m": 9999,
      "fzfg": false,
      "metar_trigger": false,
      "taf_trigger": false,
      "metar": "METAR UAAA 060100Z 29003MPS 270V350 9999 SCT050 BKN200 11/08 Q1010 NOSIG",
      "taf": "TAF UAAA 052301Z 0600/0624 04003MPS 9999 FEW050CB SCT100 TX24/0610Z TN12/0601Z"
    },
    {
      "icao": "UBBB",
      "alert": "OK",
      "vis_m": 9999,
      "fzfg": false,
      "metar_trigger": false,
      "taf_trigger": false,
      "metar": "METAR UBBB 060100Z 30030G41KT 9999 -SHRA BKN008 BKN025CB OVC025 12/11 Q1008 WS R35 NOSIG",
      "taf": "TAF UBBB 052306Z 0600/0624 30026G36KT 9999 SCT010 SCT040CB OVC040 TX13/0612Z TN10/0601Z"
    },
    {
      "icao": "UDSG",
      "alert": "OK",
      "vis_m": 9999,
      "fzfg": false,
      "metar_trigger": false,
      "taf_trigger": false,
      "metar": "METAR UDSG 060100Z 27006KT 9999 NSC 01/M03 Q1016 NOSIG",
      "taf": "TAF UDSG 052258Z 0600/0624 VRB06KT 9999 SCT040"
    },
    {
      "icao": "UDYZ",
      "alert": "OK",
      "vis_m": 9999,
      "fzfg": false,
      "metar_trigger": false,
      "taf_trigger": false,
      "metar": "METAR UDYZ 060100Z VRB01KT 9999 FEW046 05/01 Q1014 NOSIG",
      "taf": "TAF UDYZ 052300Z 0600/0624 20006KT 9999 FEW040"
    },
    {
      "icao": "UGKO",
      "alert": "OK",
      "vis_m": 9999,
      "fzfg": false,
      "metar_trigger": false,
      "taf_trigger": false,
      "metar": "METAR UGKO 060100Z 28007KT 9999 SCT032 BKN041 10/09 Q1018 NOSIG",
      "taf": "TAF UGKO 052300Z 0600/0624 25007KT 9999 SCT020 OVC050 TX13/0611Z TN09/0603Z"
    }
  ]
}