{
  "ts_utc": "2026-06-04T00:20:44Z",
  "threshold_m": 150,
  "source": "stations_override.txt (ICAO list) + aviationweather.gov (METAR/TAF raw)",
  "station_count": 159,
  "stations": [
    {
      "icao": "BIKF",
      "alert": "OK",
      "vis_m": 3000,
      "fzfg": false,
      "metar_trigger": false,
      "taf_trigger": false,
      "metar": "METAR BIKF 040000Z 32003KT 3000 R19/P1500N BCFG BKN001 OVC048 08/08 Q0993",
      "taf": "TAF BIKF 032213Z 0400/0500 28005KT 9999 -DZ SCT015 BKN025 TX12/0418Z TN08/0405Z"
    },
    {
      "icao": "BKPR",
      "alert": "OK",
      "vis_m": 9999,
      "fzfg": false,
      "metar_trigger": false,
      "taf_trigger": false,
      "metar": "METAR BKPR 040000Z 09007KT 060V140 9999 BKN090 16/11 Q1011 NOSIG",
      "taf": "TAF BKPR 032330Z 0400/0424 VRB05KT 9999 BKN070"
    },
    {
      "icao": "EBCI",
      "alert": "OK",
      "vis_m": 9999,
      "fzfg": false,
      "metar_trigger": false,
      "taf_trigger": false,
      "metar": "METAR EBCI 032350Z 20007KT 9999 FEW008 BKN040 13/12 Q1004 NOSIG",
      "taf": "TAF EBCI 032315Z 0400/0506 22009KT 9999 SCT020"
    },
    {
      "icao": "EDDB",
      "alert": "OK",
      "vis_m": 9999,
      "fzfg": false,
      "metar_trigger": false,
      "taf_trigger": false,
      "metar": "METAR EDDB 032350Z AUTO 19006KT CAVOK 14/11 Q1007 NOSIG",
      "taf": "TAF EDDB 032300Z 0400/0424 18005KT CAVOK"
    },
    {
      "icao": "EDDH",
      "alert": "OK",
      "vis_m": 9999,
      "fzfg": false,
      "metar_trigger": false,
      "taf_trigger": false,
      "metar": "METAR EDDH 032350Z AUTO 16009KT CAVOK 17/11 Q1003 TEMPO FM0030 20015G25KT 4000 SHRA BKN030CB",
      "taf": "TAF EDDH 032300Z 0400/0506 17008KT CAVOK"
    },
    {
      "icao": "EDDK",
      "alert": "OK",
      "vis_m": 9999,
      "fzfg": false,
      "metar_trigger": false,
      "taf_trigger": false,
      "metar": "METAR EDDK 032350Z AUTO 18010KT 9999 BKN033 BKN040 16/13 Q1005 RESHRA NOSIG",
      "taf": "TAF EDDK 032300Z 0400/0506 19008KT 9999 BKN030"
    },
    {
      "icao": "EDDN",
      "alert": "OK",
      "vis_m": 9999,
      "fzfg": false,
      "metar_trigger": false,
      "taf_trigger": false,
      "metar": "METAR EDDN 032350Z AUTO 13005KT 090V180 CAVOK 12/09 Q1011",
      "taf": "TAF EDDN 032300Z 0400/0424 16005KT CAVOK"
    },
    {
      "icao": "EDDS",
      "alert": "OK",
      "vis_m": 9999,
      "fzfg": false,
      "metar_trigger": false,
      "taf_trigger": false,
      "metar": "METAR EDDS 032350Z AUTO VRB02KT CAVOK 15/09 Q1010",
      "taf": "TAF EDDS 032300Z 0400/0424 VRB02KT CAVOK"
    },
    {
      "icao": "EDFH",
      "alert": "OK",
      "vis_m": 9999,
      "fzfg": false,
      "metar_trigger": false,
      "taf_trigger": false,
      "metar": "METAR EDFH 032350Z 21017KT 9999 -RA FEW007 BKN018 14/12 Q1007",
      "taf": "TAF EDFH 032300Z 0400/0424 21015G25KT 9999 BKN020"
    },
    {
      "icao": "EDJA",
      "alert": "OK",
      "vis_m": 9999,
      "fzfg": false,
      "metar_trigger": false,
      "taf_trigger": false,
      "metar": "METAR EDJA 032350Z AUTO 19007KT 9999 // BKN190/// 11/09 Q1011",
      "taf": "TAF EDJA 031700Z 0318/0403 22010KT 9999 FEW025"
    },
    {
      "icao": "EDLW",
      "alert": "OK",
      "vis_m": 9999,
      "fzfg": false,
      "metar_trigger": false,
      "taf_trigger": false,
      "metar": "METAR EDLW 032350Z AUTO 18014KT 9999 // FEW019/// OVC032/// 15/13 Q1003",
      "taf": "TAF EDLW 031700Z 0318/0418 21011KT 9999 BKN030"
    },
    {
      "icao": "EDNY",
      "alert": "OK",
      "vis_m": 9999,
      "fzfg": false,
      "metar_trigger": false,
      "taf_trigger": false,
      "metar": "METAR EDNY 032350Z AUTO 10003KT 060V140 9999 // BKN200/// 13/10 Q1012",
      "taf": "TAF EDNY 031700Z 0318/0403 22009KT CAVOK"
    },
    {
      "icao": "EDSB",
      "alert": "OK",
      "vis_m": 9999,
      "fzfg": false,
      "metar_trigger": false,
      "taf_trigger": false,
      "metar": "METAR EDSB 032350Z AUTO 20010KT 9999 // OVC051/// 18/10 Q1009",
      "taf": "TAF EDSB 032300Z 0400/0424 21010KT 9999 BKN040"
    },
    {
      "icao": "EETN",
      "alert": "OK",
      "vis_m": 9999,
      "fzfg": false,
      "metar_trigger": false,
      "taf_trigger": false,
      "metar": "METAR EETN 032350Z 09002KT CAVOK 15/13 Q1012",
      "taf": "TAF EETN 032330Z 0400/0424 15007KT CAVOK"
    },
    {
      "icao": "EFTU",
      "alert": "OK",
      "vis_m": 9999,
      "fzfg": false,
      "metar_trigger": false,
      "taf_trigger": false,
      "metar": "METAR EFTU 032350Z AUTO 13006KT CAVOK 14/10 Q1011",
      "taf": "TAF EFTU 032335Z 0400/0424 13005KT CAVOK"
    },
    {
      "icao": "EGBB",
      "alert": "OK",
      "vis_m": 9000,
      "fzfg": false,
      "metar_trigger": false,
      "taf_trigger": false,
      "metar": "METAR EGBB 032350Z 20009KT 170V250 9000 FEW033 13/10 Q0993 RERA",
      "taf": "TAF EGBB 032257Z 0400/0424 20008KT 9999 FEW020"
    },
    {
      "icao": "EGGP",
      "alert": "OK",
      "vis_m": 9999,
      "fzfg": false,
      "metar_trigger": false,
      "taf_trigger": false,
      "metar": "METAR EGGP 032350Z 21008KT 9999 SCT035 BKN043 13/09 Q0990",
      "taf": "TAF EGGP 032254Z 0400/0424 20015G25KT 9999 FEW015 SCT035"
    },
    {
      "icao": "EGGW",
      "alert": "OK",
      "vis_m": 9999,
      "fzfg": false,
      "metar_trigger": false,
      "taf_trigger": false,
      "metar": "METAR EGGW 032350Z AUTO 22013KT 9999 FEW019 OVC034 13/10 Q0996",
      "taf": "TAF EGGW 032257Z 0400/0424 22012KT 9999 SCT020"
    },
    {
      "icao": "EGKK",
      "alert": "OK",
      "vis_m": 9999,
      "fzfg": false,
      "metar_trigger": false,
      "taf_trigger": false,
      "metar": "METAR EGKK 032350Z 22011KT 190V250 9999 SCT020 SCT030 14/11 Q0998",
      "taf": "TAF EGKK 032257Z 0400/0506 22014KT 9999 SCT025"
    },
    {
      "icao": "EGNM",
      "alert": "OK",
      "vis_m": 9999,
      "fzfg": false,
      "metar_trigger": false,
      "taf_trigger": false,
      "metar": "METAR EGNM 032350Z 21011KT 9999 BKN020 12/08 Q0989",
      "taf": "TAF EGNM 032258Z 0400/0424 21013KT 9999 FEW012 SCT025"
    },
    {
      "icao": "EGPD",
      "alert": "OK",
      "vis_m": 9999,
      "fzfg": false,
      "metar_trigger": false,
      "taf_trigger": false,
      "metar": "METAR EGPD 032350Z COR AUTO 16006KT 9999 NCD 10/09 Q0983 NOSIG",
      "taf": "TAF EGPD 032253Z 0400/0424 17005KT 9999 FEW025"
    },
    {
      "icao": "EGPF",
      "alert": "OK",
      "vis_m": 9999,
      "fzfg": false,
      "metar_trigger": false,
      "taf_trigger": false,
      "metar": "METAR EGPF 032350Z AUTO 17005KT 9999 -RA BKN013 12/11 Q0983",
      "taf": "TAF EGPF 032311Z 0400/0424 21005KT 9999 BKN025"
    },
    {
      "icao": "EHBK",
      "alert": "OK",
      "vis_m": 9999,
      "fzfg": false,
      "metar_trigger": false,
      "taf_trigger": false,
      "metar": "METAR EHBK 032355Z AUTO 25011G21KT 200V300 9999 DZRA FEW008 SCT014 OVC031 14/12 Q1004 REDZ",
      "taf": "TAF EHBK 032319Z 0400/0506 23012KT 9999 BKN025"
    },
    {
      "icao": "EHEH",
      "alert": "OK",
      "vis_m": 9999,
      "fzfg": false,
      "metar_trigger": false,
      "taf_trigger": false,
      "metar": "METAR EHEH 032325Z AUTO 20011KT 9999 FEW013 FEW015CB SCT044 OVC050 14/13 Q1002 REDZ BLU",
      "taf": "TAF EHEH 032359Z 0400/0506 21012KT 9999 SCT020 BKN045"
    },
    {
      "icao": "EKBI",
      "alert": "OK",
      "vis_m": 9999,
      "fzfg": false,
      "metar_trigger": false,
      "taf_trigger": false,
      "metar": "METAR EKBI 032350Z AUTO 14007KT 110V170 9999 -RA SCT035/// OVC076/// 14/13 Q1000",
      "taf": "TAF EKBI 032327Z 0400/0424 20010KT 9999 SCT025"
    },
    {
      "icao": "EKCH",
      "alert": "OK",
      "vis_m": 9999,
      "fzfg": false,
      "metar_trigger": false,
      "taf_trigger": false,
      "metar": "METAR EKCH 032350Z AUTO 15008KT 9999 NCD 15/14 Q1004 NOSIG",
      "taf": "TAF EKCH 032327Z 0400/0424 18010KT 9999 SCT025"
    },
    {
      "icao": "ENAL",
      "alert": "OK",
      "vis_m": 9999,
      "fzfg": false,
      "metar_trigger": false,
      "taf_trigger": false,
      "metar": "METAR ENAL 032350Z AUTO 06004KT 010V090 9999 -RA FEW043/// 13/11 Q0995",
      "taf": "TAF ENAL 032300Z 0400/0409 14008KT 9999 FEW055"
    },
    {
      "icao": "ENBR",
      "alert": "OK",
      "vis_m": 9999,
      "fzfg": false,
      "metar_trigger": false,
      "taf_trigger": false,
      "metar": "METAR ENBR 032350Z AUTO 09003KT 060V120 9999 SCT048/// 11/10 Q0994 RMK WIND 1200FT 14013KT",
      "taf": "TAF ENBR 032300Z 0400/0424 16008KT 9999 FEW010"
    },
    {
      "icao": "ENGM",
      "alert": "OK",
      "vis_m": 8000,
      "fzfg": false,
      "metar_trigger": false,
      "taf_trigger": false,
      "metar": "METAR ENGM 032350Z 18006KT 8000 -RA BKN003 14/13 Q1001",
      "taf": "TAF ENGM 032300Z 0400/0424 17008KT 9999 -SHRA BKN006"
    },
    {
      "icao": "ENHD",
      "alert": "OK",
      "vis_m": 9999,
      "fzfg": false,
      "metar_trigger": false,
      "taf_trigger": false,
      "metar": "METAR ENHD 032350Z AUTO 13012KT 9999 NCD 13/11 Q0994",
      "taf": "TAF ENHD 031400Z 0315/0322 14012KT 9999 -SHRA FEW015 BKN025"
    },
    {
      "icao": "ENTC",
      "alert": "OK",
      "vis_m": 9999,
      "fzfg": false,
      "metar_trigger": false,
      "taf_trigger": false,
      "metar": "METAR ENTC 032350Z AUTO 29003KT 240V030 9999 NCD 13/07 Q1005 RMK WIND 2600FT 18020KT",
      "taf": "TAF ENTC 032300Z 0400/0424 04004KT CAVOK"
    },
    {
      "icao": "ENTO",
      "alert": "OK",
      "vis_m": 9999,
      "fzfg": false,
      "metar_trigger": false,
      "taf_trigger": false,
      "metar": "METAR ENTO 032350Z AUTO 17009KT 9999 -RA FEW004/// SCT008/// 13/13 Q1000",
      "taf": "TAF ENTO 032300Z 0400/0424 18010KT 9999 BKN004"
    },
    {
      "icao": "ENVA",
      "alert": "OK",
      "vis_m": 9999,
      "fzfg": false,
      "metar_trigger": false,
      "taf_trigger": false,
      "metar": "METAR ENVA 032350Z AUTO 10008KT 070V140 9999 NCD 20/11 Q0999 RMK WIND 670FT 13012G22KT",
      "taf": "TAF ENVA 032300Z 0400/0424 12008KT CAVOK"
    },
    {
      "icao": "ENZV",
      "alert": "OK",
      "vis_m": 9999,
      "fzfg": false,
      "metar_trigger": false,
      "taf_trigger": false,
      "metar": "METAR ENZV 032350Z 14015KT CAVOK 14/10 Q0994",
      "taf": "TAF ENZV 032300Z 0400/0424 14012KT 9999 -SHRA SCT006 BKN018"
    },
    {
      "icao": "EPGD",
      "alert": "OK",
      "vis_m": 9999,
      "fzfg": false,
      "metar_trigger": false,
      "taf_trigger": false,
      "metar": "METAR EPGD 040000Z 13007KT CAVOK 17/11 Q1007",
      "taf": "TAF EPGD 032330Z 0400/0424 14006KT CAVOK"
    },
    {
      "icao": "EPKK",
      "alert": "OK",
      "vis_m": 3000,
      "fzfg": false,
      "metar_trigger": false,
      "taf_trigger": false,
      "metar": "METAR EPKK 040000Z 24007KT 3000 BR BKN003 14/14 Q1010",
      "taf": "TAF EPKK 032330Z 0400/0424 25005KT 9999 BKN004"
    },
    {
      "icao": "EPKT",
      "alert": "OK",
      "vis_m": 9000,
      "fzfg": false,
      "metar_trigger": false,
      "taf_trigger": false,
      "metar": "METAR EPKT 040000Z 26005KT 9000 -RA FEW003 BKN006 13/13 Q1010",
      "taf": "TAF EPKT 032330Z 0400/0424 27007KT 9999 -RA SCT010 BKN015"
    },
    {
      "icao": "EPLB",
      "alert": "OK",
      "vis_m": 6000,
      "fzfg": false,
      "metar_trigger": false,
      "taf_trigger": false,
      "metar": "METAR EPLB 040000Z 07006KT 6000 NSC 12/12 Q1009",
      "taf": "TAF EPLB 032330Z 0400/0424 07006KT CAVOK"
    },
    {
      "icao": "EPMO",
      "alert": "OK",
      "vis_m": 9999,
      "fzfg": false,
      "metar_trigger": false,
      "taf_trigger": false,
      "metar": "METAR EPMO 040000Z 11007KT 080V140 CAVOK 16/13 Q1008",
      "taf": "TAF EPMO 032330Z 0400/0424 10010KT CAVOK"
    },
    {
      "icao": "EPPO",
      "alert": "OK",
      "vis_m": 9999,
      "fzfg": false,
      "metar_trigger": false,
      "taf_trigger": false,
      "metar": "METAR EPPO 040000Z 20003KT CAVOK 14/14 Q1009",
      "taf": "TAF EPPO 032330Z 0400/0424 VRB02KT CAVOK"
    },
    {
      "icao": "EPRA",
      "alert": "OK",
      "vis_m": 9999,
      "fzfg": false,
      "metar_trigger": false,
      "taf_trigger": false,
      "metar": "METAR EPRA 040000Z 14003KT 110V180 CAVOK 16/13 Q1009",
      "taf": "TAF EPRA 032330Z 0400/0409 11008KT 9999 BKN040"
    },
    {
      "icao": "EPRZ",
      "alert": "OK",
      "vis_m": 9999,
      "fzfg": false,
      "metar_trigger": false,
      "taf_trigger": false,
      "metar": "METAR EPRZ 040000Z 22005KT CAVOK 15/15 Q1009",
      "taf": "TAF EPRZ 032330Z 0400/0424 27004KT 5000 BR NSC"
    },
    {
      "icao": "EPSC",
      "alert": "OK",
      "vis_m": 5000,
      "fzfg": false,
      "metar_trigger": false,
      "taf_trigger": false,
      "metar": "METAR EPSC 040000Z 12008KT 5000 BR NSC 13/13 Q1007",
      "taf": "TAF EPSC 032330Z 0400/0424 13004KT 7000 NSC"
    },
    {
      "icao": "EPSY",
      "alert": "OK",
      "vis_m": 9999,
      "fzfg": false,
      "metar_trigger": false,
      "taf_trigger": false,
      "metar": "METAR EPSY 040000Z 13005KT 090V170 CAVOK 13/11 Q1009",
      "taf": "TAF EPSY 032330Z 0400/0409 14006KT CAVOK"
    },
    {
      "icao": "EPWA",
      "alert": "OK",
      "vis_m": 9999,
      "fzfg": false,
      "metar_trigger": false,
      "taf_trigger": false,
      "metar": "METAR EPWA 040000Z 13008KT CAVOK 16/13 Q1009 NOSIG",
      "taf": "TAF EPWA 032330Z 0400/0424 10010KT CAVOK"
    },
    {
      "icao": "EPWR",
      "alert": "OK",
      "vis_m": 9999,
      "fzfg": false,
      "metar_trigger": false,
      "taf_trigger": false,
      "metar": "METAR EPWR 040000Z 21005KT CAVOK 14/13 Q1010",
      "taf": "TAF EPWR 032330Z 0400/0424 24005KT 9999 OVC045"
    },
    {
      "icao": "ESGG",
      "alert": "OK",
      "vis_m": 9999,
      "fzfg": false,
      "metar_trigger": false,
      "taf_trigger": false,
      "metar": "METAR ESGG 032350Z 16009KT 9999 OVC005 14/13 Q1003",
      "taf": "TAF ESGG 032330Z 0400/0424 16007KT 9999 SCT006 BKN016"
    },
    {
      "icao": "ESKN",
      "alert": "OK",
      "vis_m": 9999,
      "fzfg": false,
      "metar_trigger": false,
      "taf_trigger": false,
      "metar": "METAR ESKN 032350Z 12009KT CAVOK 15/12 Q1007",
      "taf": "TAF ESKN 032330Z 0400/0424 13007KT CAVOK"
    },
    {
      "icao": "ESMS",
      "alert": "OK",
      "vis_m": 4000,
      "fzfg": false,
      "metar_trigger": false,
      "taf_trigger": false,
      "metar": "METAR ESMS 032350Z 13006KT 4000 BR NSC 13/13 Q1005",
      "taf": "TAF ESMS 032327Z 0400/0424 18008KT 9999 SCT025"
    },
    {
      "icao": "ESSA",
      "alert": "OK",
      "vis_m": 9999,
      "fzfg": false,
      "metar_trigger": false,
      "taf_trigger": false,
      "metar": "METAR ESSA 032350Z 14009KT CAVOK 13/11 Q1007 NOSIG",
      "taf": "TAF ESSA 032330Z 0400/0424 14008KT CAVOK"
    },
    {
      "icao": "EYKA",
      "alert": "OK",
      "vis_m": 9999,
      "fzfg": false,
      "metar_trigger": false,
      "taf_trigger": false,
      "metar": "METAR EYKA 032350Z AUTO 12006KT 9999 FEW040/// 12/09 Q1012",
      "taf": "TAF EYKA 032302Z 0400/0424 13008KT 9000 SCT040"
    },
    {
      "icao": "EYPA",
      "alert": "OK",
      "vis_m": 9999,
      "fzfg": false,
      "metar_trigger": false,
      "taf_trigger": false,
      "metar": "METAR EYPA 032350Z 13005KT CAVOK 15/10 Q1010",
      "taf": "TAF EYPA 032301Z 0400/0424 13010KT 9000 SCT020"
    },
    {
      "icao": "EYVI",
      "alert": "OK",
      "vis_m": 9999,
      "fzfg": false,
      "metar_trigger": false,
      "taf_trigger": false,
      "metar": "METAR EYVI 032350Z 13006KT CAVOK 11/08 Q1013 NOSIG",
      "taf": "TAF EYVI 032304Z 0400/0424 14010KT 9000 SCT045"
    },
    {
      "icao": "GCFV",
      "alert": "OK",
      "vis_m": 9999,
      "fzfg": false,
      "metar_trigger": false,
      "taf_trigger": false,
      "metar": "METAR GCFV 040000Z AUTO 36016KT 9999 FEW020 20/16 Q1020",
      "taf": "TAF GCFV 032000Z 0321/0421 36014KT 9999 SCT018 TX26/0414Z TN19/0406Z"
    },
    {
      "icao": "GCLP",
      "alert": "OK",
      "vis_m": 9999,
      "fzfg": false,
      "metar_trigger": false,
      "taf_trigger": false,
      "metar": "METAR GCLP 040000Z 01022KT 9999 FEW025 20/15 Q1020 NOSIG",
      "taf": "TAF GCLP 032000Z 0321/0421 36022KT 9999 SCT020 TX26/0414Z TN20/0406Z"
    },
    {
      "icao": "GCTS",
      "alert": "OK",
      "vis_m": 9999,
      "fzfg": false,
      "metar_trigger": false,
      "taf_trigger": false,
      "metar": "METAR GCTS 040000Z VRB01KT 9999 FEW020 20/15 Q1021 NOSIG",
      "taf": "TAF GCTS 032000Z 0321/0421 03007KT 9999 FEW020 TX28/0414Z TN19/0406Z"
    },
    {
      "icao": "GMAD",
      "alert": "OK",
      "vis_m": 8000,
      "fzfg": false,
      "metar_trigger": false,
      "taf_trigger": false,
      "metar": "METAR GMAD 040000Z 18003KT 8000 NSC 18/16 Q1015 NOSIG",
      "taf": "TAF GMAD 032300Z 0400/0506 18006KT 8000 SCT016"
    },
    {
      "icao": "GMMN",
      "alert": "OK",
      "vis_m": 9999,
      "fzfg": false,
      "metar_trigger": false,
      "taf_trigger": false,
      "metar": "METAR GMMN 040000Z 35005KT 9999 FEW020 17/14 Q1019 NOSIG",
      "taf": "TAF GMMN 032300Z 0400/0506 02004KT 9999 FEW020"
    },
    {
      "icao": "GMMX",
      "alert": "OK",
      "vis_m": 9999,
      "fzfg": false,
      "metar_trigger": false,
      "taf_trigger": false,
      "metar": "METAR GMMX 040000Z 03005KT CAVOK 23/14 Q1018 NOSIG",
      "taf": "TAF GMMX 032300Z 0400/0506 06006KT 8000 NSC"
    },
    {
      "icao": "HEGN",
      "alert": "OK",
      "vis_m": 9999,
      "fzfg": false,
      "metar_trigger": false,
      "taf_trigger": false,
      "metar": "METAR HEGN 032300Z 35006KT CAVOK 31/11 Q1010 NOSIG",
      "taf": "TAF HEGN 032300Z 0400/0506 30010KT CAVOK"
    },
    {
      "icao": "HEMA",
      "alert": "OK",
      "vis_m": 9999,
      "fzfg": false,
      "metar_trigger": false,
      "taf_trigger": false,
      "metar": "METAR HEMA 032300Z 30008KT CAVOK 32/05 Q1010 NOSIG",
      "taf": "TAF HEMA 032300Z 0400/0506 31010KT CAVOK"
    },
    {
      "icao": "HESH",
      "alert": "OK",
      "vis_m": 9999,
      "fzfg": false,
      "metar_trigger": false,
      "taf_trigger": false,
      "metar": "METAR HESH 032300Z 34010KT CAVOK 32/09 Q1011 NOSIG",
      "taf": "TAF HESH 032300Z 0400/0506 01010KT CAVOK"
    },
    {
      "icao": "HESX",
      "alert": "OK",
      "vis_m": 9999,
      "fzfg": false,
      "metar_trigger": false,
      "taf_trigger": false,
      "metar": "METAR HESX 032300Z 06008KT CAVOK 23/12 Q1013 NOSIG",
      "taf": "TAF HESX 032300Z 0400/0506 02010KT CAVOK"
    },
    {
      "icao": "LATI",
      "alert": "OK",
      "vis_m": 6000,
      "fzfg": false,
      "metar_trigger": false,
      "taf_trigger": false,
      "metar": "METAR LATI 040020Z 10004KT 060V140 6000 VCTS +RA FEW008 SCT021CB OVC055 16/16 Q1009 RESHRA NOSIG",
      "taf": ""
    },
    {
      "icao": "LBPD",
      "alert": "OK",
      "vis_m": 9999,
      "fzfg": false,
      "metar_trigger": false,
      "taf_trigger": false,
      "metar": "METAR LBPD 040000Z AUTO VRB05KT 9999 FEW160/// 18/15 Q1009",
      "taf": "TAF LBPD 032300Z 0400/0424 VRB04KT 9999 SCT060"
    },
    {
      "icao": "LBSF",
      "alert": "OK",
      "vis_m": 9999,
      "fzfg": false,
      "metar_trigger": false,
      "taf_trigger": false,
      "metar": "METAR LBSF 040000Z AUTO VRB02KT 9999 BKN059/// 17/15 Q1010 NOSIG",
      "taf": "TAF LBSF 032300Z 0400/0424 VRB04KT 9999 SCT050"
    },
    {
      "icao": "LBWN",
      "alert": "OK",
      "vis_m": 9999,
      "fzfg": false,
      "metar_trigger": false,
      "taf_trigger": false,
      "metar": "METAR LBWN 040000Z AUTO VRB02KT 9999 NCD 17/17 Q1009 NOSIG",
      "taf": "TAF LBWN 032300Z 0400/0424 VRB04KT 3000 BR BKN008"
    },
    {
      "icao": "LCLK",
      "alert": "OK",
      "vis_m": 9999,
      "fzfg": false,
      "metar_trigger": false,
      "taf_trigger": false,
      "metar": "METAR LCLK 040000Z 03009KT CAVOK 22/15 Q1013 NOSIG",
      "taf": "TAF LCLK 032330Z 0400/0500 33009KT CAVOK"
    },
    {
      "icao": "LCPH",
      "alert": "OK",
      "vis_m": 9999,
      "fzfg": false,
      "metar_trigger": false,
      "taf_trigger": false,
      "metar": "METAR LCPH 040000Z AUTO 02006KT 9999 NCD 19/06 Q1013",
      "taf": "TAF LCPH 032330Z 0400/0500 35009KT CAVOK"
    },
    {
      "icao": "LEAL",
      "alert": "OK",
      "vis_m": 9999,
      "fzfg": false,
      "metar_trigger": false,
      "taf_trigger": false,
      "metar": "METAR LEAL 040000Z VRB02KT 9999 BKN012 23/20 Q1016 NOSIG",
      "taf": "TAF LEAL 032300Z 0400/0424 VRB04KT 9999 FEW020 TX29/0412Z TN20/0405Z"
    },
    {
      "icao": "LEBB",
      "alert": "OK",
      "vis_m": 9999,
      "fzfg": false,
      "metar_trigger": false,
      "taf_trigger": false,
      "metar": "METAR LEBB 040000Z AUTO 08003KT 9999 OVC043 20/15 Q1014",
      "taf": "TAF LEBB 032300Z 0400/0424 33008KT 9999 BKN030 TX17/0414Z TN16/0406Z"
    },
    {
      "icao": "LEBL",
      "alert": "OK",
      "vis_m": 9999,
      "fzfg": false,
      "metar_trigger": false,
      "taf_trigger": false,
      "metar": "METAR LEBL 040000Z 22010KT 9999 BKN023 22/19 Q1015 NOSIG",
      "taf": "TAF LEBL 032300Z 0400/0424 21010KT 9999 SCT020 TX25/0412Z TN17/0406Z"
    },
    {
      "icao": "LECH",
      "alert": "OK",
      "vis_m": 7000,
      "fzfg": false,
      "metar_trigger": false,
      "taf_trigger": false,
      "metar": "METAR LECH 040000Z AUTO 25005KT 7000 OVC013 19/17 Q1016",
      "taf": "TAF LECH 032300Z 0400/0424 VRB04KT CAVOK TX30/0413Z TN15/0406Z"
    },
    {
      "icao": "LEMD",
      "alert": "OK",
      "vis_m": 9999,
      "fzfg": false,
      "metar_trigger": false,
      "taf_trigger": false,
      "metar": "METAR LEMD 040000Z VRB01KT CAVOK 22/10 Q1015 NOSIG",
      "taf": "TAF LEMD 032300Z 0400/0506 VRB04KT CAVOK TX30/0414Z TN15/0405Z"
    },
    {
      "icao": "LEMG",
      "alert": "OK",
      "vis_m": 9999,
      "fzfg": false,
      "metar_trigger": false,
      "taf_trigger": false,
      "metar": "METAR LEMG 040000Z 00000KT CAVOK 21/18 Q1016 NOSIG",
      "taf": "TAF LEMG 032300Z 0400/0424 VRB02KT 9999 FEW030 TX34/0414Z TN19/0406Z"
    },
    {
      "icao": "LEVC",
      "alert": "OK",
      "vis_m": 9999,
      "fzfg": false,
      "metar_trigger": false,
      "taf_trigger": false,
      "metar": "METAR LEVC 040000Z 34005KT 320V020 CAVOK 21/18 Q1015 NOSIG",
      "taf": "TAF LEVC 032300Z 0400/0424 VRB04KT 9999 FEW020 TX34/0412Z TN18/0405Z"
    },
    {
      "icao": "LEXJ",
      "alert": "OK",
      "vis_m": 7000,
      "fzfg": false,
      "metar_trigger": false,
      "taf_trigger": false,
      "metar": "METAR LEXJ 040000Z AUTO 33006KT 280V050 7000 BKN009 BKN019 OVC032 18/17 Q1015",
      "taf": "TAF LEXJ 032000Z 0321/0421 29009KT 9999 BKN035 TX19/0414Z TN16/0405Z"
    },
    {
      "icao": "LEZG",
      "alert": "OK",
      "vis_m": 9999,
      "fzfg": false,
      "metar_trigger": false,
      "taf_trigger": false,
      "metar": "METAR LEZG 040000Z 00000KT CAVOK 21/13 Q1013 NOSIG",
      "taf": "TAF LEZG 032300Z 0400/0424 30009KT CAVOK TX29/0415Z TN15/0406Z"
    },
    {
      "icao": "LEZL",
      "alert": "OK",
      "vis_m": 9999,
      "fzfg": false,
      "metar_trigger": false,
      "taf_trigger": false,
      "metar": "METAR LEZL 040000Z AUTO 22009KT CAVOK 23/16 Q1016",
      "taf": "TAF LEZL 032000Z 0321/0421 22010KT CAVOK TX35/0415Z TN18/0407Z"
    },
    {
      "icao": "LFBD",
      "alert": "OK",
      "vis_m": 9999,
      "fzfg": false,
      "metar_trigger": false,
      "taf_trigger": false,
      "metar": "METAR LFBD 040000Z AUTO 22007KT 9999 FEW019 SCT029 OVC054 17/15 Q1013 TEMPO 3000 -RA BKN010",
      "taf": "TAF LFBD 032300Z 0400/0506 24010KT 9999 BKN020 TX20/0414Z TN11/0505Z"
    },
    {
      "icao": "LFLL",
      "alert": "OK",
      "vis_m": 9999,
      "fzfg": false,
      "metar_trigger": false,
      "taf_trigger": false,
      "metar": "METAR LFLL 040000Z 19003KT 160V220 CAVOK 17/10 Q1013 NOSIG",
      "taf": "TAF LFLL 032300Z 0400/0506 16005KT CAVOK"
    },
    {
      "icao": "LFLS",
      "alert": "OK",
      "vis_m": 9999,
      "fzfg": false,
      "metar_trigger": false,
      "taf_trigger": false,
      "metar": "METAR LFLS 040000Z AUTO 08005KT CAVOK 10/08 Q1013",
      "taf": ""
    },
    {
      "icao": "LFMN",
      "alert": "OK",
      "vis_m": 9999,
      "fzfg": false,
      "metar_trigger": false,
      "taf_trigger": false,
      "metar": "METAR LFMN 040000Z VRB03KT CAVOK 19/12 Q1010 NOSIG",
      "taf": "TAF LFMN 032000Z 0321/0503 07008KT CAVOK"
    },
    {
      "icao": "LFOB",
      "alert": "OK",
      "vis_m": 9999,
      "fzfg": false,
      "metar_trigger": false,
      "taf_trigger": false,
      "metar": "METAR LFOB 040000Z AUTO 22010KT 190V250 CAVOK 15/11 Q1004 TEMPO VRB25G35KT 1200 SHRA BKN009 BKN012CB BKN020",
      "taf": "TAF LFOB 032300Z 0400/0424 20012KT 9999 BKN020 OVC030"
    },
    {
      "icao": "LFPO",
      "alert": "OK",
      "vis_m": 9999,
      "fzfg": false,
      "metar_trigger": false,
      "taf_trigger": false,
      "metar": "METAR LFPO 040000Z AUTO 23008KT 9999 FEW047 BKN200 15/12 Q1006 NOSIG",
      "taf": "TAF LFPO 032300Z 0400/0506 22012KT 9999 BKN020"
    },
    {
      "icao": "LFSB",
      "alert": "OK",
      "vis_m": 9999,
      "fzfg": false,
      "metar_trigger": false,
      "taf_trigger": false,
      "metar": "METAR LFSB 040000Z AUTO 15003KT 9999 SCT054 BKN100 BKN240 13/10 Q1011 NOSIG",
      "taf": "TAF LFSB 032300Z 0400/0424 17004KT CAVOK"
    },
    {
      "icao": "LGAV",
      "alert": "OK",
      "vis_m": 9999,
      "fzfg": false,
      "metar_trigger": false,
      "taf_trigger": false,
      "metar": "METAR LGAV 032350Z 00000KT 9999 FEW030 20/15 Q1011 NOSIG",
      "taf": "TAF LGAV 032300Z 0400/0424 VRB05KT 9999 FEW025"
    },
    {
      "icao": "LGTS",
      "alert": "OK",
      "vis_m": 9999,
      "fzfg": false,
      "metar_trigger": false,
      "taf_trigger": false,
      "metar": "METAR LGTS 032350Z VRB03KT 9999 FEW020 20/15 Q1009 NOSIG",
      "taf": "TAF LGTS 032300Z 0400/0424 VRB03KT 9999 SCT030"
    },
    {
      "icao": "LHBP",
      "alert": "OK",
      "vis_m": 9999,
      "fzfg": false,
      "metar_trigger": false,
      "taf_trigger": false,
      "metar": "METAR LHBP 040000Z 31007KT 9999 VCSH FEW055TCU BKN065 16/14 Q1008 NOSIG",
      "taf": "TAF LHBP 032315Z 0400/0424 31007KT CAVOK"
    },
    {
      "icao": "LHDC",
      "alert": "OK",
      "vis_m": 9999,
      "fzfg": false,
      "metar_trigger": false,
      "taf_trigger": false,
      "metar": "METAR LHDC 032345Z AUTO 29003KT 240V330 CAVOK 19/15 Q1007",
      "taf": "TAF LHDC 031415Z 0315/0324 17009KT CAVOK"
    },
    {
      "icao": "LIBD",
      "alert": "OK",
      "vis_m": 9999,
      "fzfg": false,
      "metar_trigger": false,
      "taf_trigger": false,
      "metar": "METAR LIBD 032350Z 25005KT 9999 FEW015 18/17 Q1010",
      "taf": "TAF LIBD 032300Z 0400/0424 28009KT 9999 SCT015"
    },
    {
      "icao": "LIBG",
      "alert": "OK",
      "vis_m": 9999,
      "fzfg": false,
      "metar_trigger": false,
      "taf_trigger": false,
      "metar": "METAR LIBG 032350Z AUTO 24003KT 9999 NCD 20/16 Q1009",
      "taf": "TAF LIBG 032300Z 0400/0424 VRB05KT 9999 FEW030"
    },
    {
      "icao": "LIBP",
      "alert": "OK",
      "vis_m": 9999,
      "fzfg": false,
      "metar_trigger": false,
      "taf_trigger": false,
      "metar": "METAR LIBP 032350Z AUTO 24005KT 210V310 9999 NCD 16/16 Q1012",
      "taf": "TAF LIBP 032300Z 0400/0424 VRB05KT 9999 FEW020"
    },
    {
      "icao": "LIBR",
      "alert": "OK",
      "vis_m": 9999,
      "fzfg": false,
      "metar_trigger": false,
      "taf_trigger": false,
      "metar": "METAR LIBR 032350Z 30010KT CAVOK 21/19 Q1008",
      "taf": "TAF LIBR 032300Z 0400/0424 34013KT 9999 SCT010"
    },
    {
      "icao": "LICA",
      "alert": "OK",
      "vis_m": 9999,
      "fzfg": false,
      "metar_trigger": false,
      "taf_trigger": false,
      "metar": "METAR LICA 032350Z AUTO 28011KT 9999 NCD 23/17 Q1011",
      "taf": "TAF LICA 032300Z 0400/0424 27012KT 9999 FEW020"
    },
    {
      "icao": "LICC",
      "alert": "OK",
      "vis_m": 9999,
      "fzfg": false,
      "metar_trigger": false,
      "taf_trigger": false,
      "metar": "METAR LICC 032350Z 25003KT CAVOK 22/12 Q1011",
      "taf": "TAF LICC 032300Z 0400/0424 VRB05KT 9999 SCT040"
    },
    {
      "icao": "LICJ",
      "alert": "OK",
      "vis_m": 9999,
      "fzfg": false,
      "metar_trigger": false,
      "taf_trigger": false,
      "metar": "METAR LICJ 032350Z VRB02KT CAVOK 22/17 Q1012",
      "taf": "TAF LICJ 032300Z 0400/0424 VRB05KT CAVOK"
    },
    {
      "icao": "LIMC",
      "alert": "OK",
      "vis_m": 9999,
      "fzfg": false,
      "metar_trigger": false,
      "taf_trigger": false,
      "metar": "METAR LIMC 032350Z 10013KT CAVOK 19/14 Q1011 NOSIG",
      "taf": "TAF LIMC 032300Z 0400/0506 VRB05KT 9999 FEW020"
    },
    {
      "icao": "LIME",
      "alert": "OK",
      "vis_m": 9999,
      "fzfg": false,
      "metar_trigger": false,
      "taf_trigger": false,
      "metar": "METAR LIME 032350Z 01003KT 330V030 CAVOK 18/13 Q1012 NOSIG",
      "taf": "TAF LIME 032300Z 0400/0424 12008KT 9999 FEW030"
    },
    {
      "icao": "LIMF",
      "alert": "OK",
      "vis_m": 9999,
      "fzfg": false,
      "metar_trigger": false,
      "taf_trigger": false,
      "metar": "METAR LIMF 032350Z 33006KT CAVOK 21/12 Q1011",
      "taf": "TAF LIMF 032300Z 0400/0424 VRB05KT 9999 FEW030"
    },
    {
      "icao": "LIMJ",
      "alert": "OK",
      "vis_m": 9999,
      "fzfg": false,
      "metar_trigger": false,
      "taf_trigger": false,
      "metar": "METAR LIMJ 032350Z AUTO 06004KT 030V090 9999 SCT020/// BKN230/// 20/15 Q1011",
      "taf": "TAF LIMJ 032300Z 0400/0424 VRB05KT 9999 FEW040"
    },
    {
      "icao": "LIPE",
      "alert": "OK",
      "vis_m": 9999,
      "fzfg": false,
      "metar_trigger": false,
      "taf_trigger": false,
      "metar": "METAR LIPE 032350Z 10005KT CAVOK 17/14 Q1010",
      "taf": "TAF LIPE 032300Z 0400/0424 VRB04KT CAVOK"
    },
    {
      "icao": "LIPH",
      "alert": "OK",
      "vis_m": 9999,
      "fzfg": false,
      "metar_trigger": false,
      "taf_trigger": false,
      "metar": "METAR LIPH 032350Z AUTO VRB01KT 9999 BKN052/// 19/16 Q1012",
      "taf": "TAF LIPH 032300Z 0400/0424 VRB05KT 9999 FEW020 SCT050"
    },
    {
      "icao": "LIPQ",
      "alert": "OK",
      "vis_m": 1700,
      "fzfg": false,
      "metar_trigger": false,
      "taf_trigger": false,
      "metar": "METAR LIPQ 032350Z AUTO VRB01KT 1700 BR NCD 12/12 Q1012",
      "taf": "TAF LIPQ 032300Z 0400/0424 VRB05KT 9999 SCT040"
    },
    {
      "icao": "LIPR",
      "alert": "OK",
      "vis_m": 9999,
      "fzfg": false,
      "metar_trigger": false,
      "taf_trigger": false,
      "metar": "METAR LIPR 032350Z AUTO 14004KT 9999 NCD 16/14 Q1012",
      "taf": "TAF LIPR 032300Z 0400/0424 VRB05KT CAVOK"
    },
    {
      "icao": "LIPX",
      "alert": "OK",
      "vis_m": 9999,
      "fzfg": false,
      "metar_trigger": false,
      "taf_trigger": false,
      "metar": "METAR LIPX 032350Z 05005KT 9999 BKN050 18/14 Q1012",
      "taf": "TAF LIPX 032300Z 0400/0424 VRB05KT 9999 FEW040"
    },
    {
      "icao": "LIPY",
      "alert": "OK",
      "vis_m": 9999,
      "fzfg": false,
      "metar_trigger": false,
      "taf_trigger": false,
      "metar": "METAR LIPY 032350Z AUTO 20003KT 9999 NCD 15/14 Q1012",
      "taf": "TAF LIPY 032300Z 0400/0424 VRB05KT 9999 FEW030"
    },
    {
      "icao": "LIPZ",
      "alert": "OK",
      "vis_m": 9999,
      "fzfg": false,
      "metar_trigger": false,
      "taf_trigger": false,
      "metar": "METAR LIPZ 032350Z 18003KT 9999 BKN060 20/14 Q1012 NOSIG",
      "taf": "TAF LIPZ 032300Z 0400/0506 VRB05KT 9999 FEW020 SCT050"
    },
    {
      "icao": "LIRF",
      "alert": "OK",
      "vis_m": 9999,
      "fzfg": false,
      "metar_trigger": false,
      "taf_trigger": false,
      "metar": "METAR LIRF 032350Z VRB01KT CAVOK 20/17 Q1011 NOSIG",
      "taf": "TAF LIRF 032300Z 0400/0506 VRB05KT CAVOK"
    },
    {
      "icao": "LIRN",
      "alert": "OK",
      "vis_m": 9999,
      "fzfg": false,
      "metar_trigger": false,
      "taf_trigger": false,
      "metar": "METAR LIRN 032350Z 20002KT CAVOK 20/12 Q1012 NOSIG",
      "taf": "TAF LIRN 032300Z 0400/0424 VRB05KT 9999 SCT040"
    },
    {
      "icao": "LIRP",
      "alert": "OK",
      "vis_m": 7000,
      "fzfg": false,
      "metar_trigger": false,
      "taf_trigger": false,
      "metar": "METAR LIRP 032345Z 04002KT 7000 NSC 17/16 Q1012 NOSIG",
      "taf": "TAF LIRP 032300Z 0400/0424 VRB03KT CAVOK"
    },
    {
      "icao": "LIRZ",
      "alert": "OK",
      "vis_m": 9999,
      "fzfg": false,
      "metar_trigger": false,
      "taf_trigger": false,
      "metar": "METAR LIRZ 032350Z AUTO 01005KT 9999 BKN041/// 15/14 Q1012",
      "taf": "TAF LIRZ 032300Z 0400/0424 VRB05KT 9999 SCT030"
    },
    {
      "icao": "LJLJ",
      "alert": "OK",
      "vis_m": 9999,
      "fzfg": false,
      "metar_trigger": false,
      "taf_trigger": false,
      "metar": "METAR LJLJ 040000Z 25003KT 9999 FEW040 10/09 Q1013 NOSIG",
      "taf": "TAF LJLJ 032300Z 0400/0500 30003KT 9999 FEW033"
    },
    {
      "icao": "LKMT",
      "alert": "OK",
      "vis_m": 9999,
      "fzfg": false,
      "metar_trigger": false,
      "taf_trigger": false,
      "metar": "METAR LKMT 040000Z 09003KT 9999 -RA FEW017 SCT045 14/13 Q1011 NOSIG",
      "taf": "TAF LKMT 032300Z 0400/0424 22006KT 9999 BKN023"
    },
    {
      "icao": "LKPR",
      "alert": "OK",
      "vis_m": 9999,
      "fzfg": false,
      "metar_trigger": false,
      "taf_trigger": false,
      "metar": "METAR LKPR 040000Z 23008KT CAVOK 11/08 Q1011 NOSIG",
      "taf": "TAF LKPR 032300Z 0400/0506 24009KT CAVOK"
    },
    {
      "icao": "LLBG",
      "alert": "OK",
      "vis_m": 9999,
      "fzfg": false,
      "metar_trigger": false,
      "taf_trigger": false,
      "metar": "METAR LLBG 032350Z 06004KT CAVOK 21/15 Q1013 NOSIG",
      "taf": "TAF LLBG 032306Z 0400/0424 VRB04KT CAVOK TX33/0411Z TN20/0403Z"
    },
    {
      "icao": "LMML",
      "alert": "OK",
      "vis_m": 9999,
      "fzfg": false,
      "metar_trigger": false,
      "taf_trigger": false,
      "metar": "METAR LMML 040015Z 23005KT CAVOK 21/19 Q1013 NOSIG",
      "taf": "TAF LMML 032300Z 0400/0424 28009KT CAVOK"
    },
    {
      "icao": "LOWW",
      "alert": "OK",
      "vis_m": 9999,
      "fzfg": false,
      "metar_trigger": false,
      "taf_trigger": false,
      "metar": "METAR LOWW 032350Z 31011KT 9999 FEW042 BKN044 16/11 Q1011 NOSIG",
      "taf": "TAF LOWW 032315Z 0400/0506 30008KT CAVOK TX25/0413Z TN14/0403Z"
    },
    {
      "icao": "LPFR",
      "alert": "OK",
      "vis_m": 9999,
      "fzfg": false,
      "metar_trigger": false,
      "taf_trigger": false,
      "metar": "METAR LPFR 040000Z 30004KT 250V330 CAVOK 21/15 Q1017",
      "taf": "TAF LPFR 032300Z 0400/0424 31013KT CAVOK"
    },
    {
      "icao": "LPMA",
      "alert": "OK",
      "vis_m": 9999,
      "fzfg": false,
      "metar_trigger": false,
      "taf_trigger": false,
      "metar": "METAR LPMA 040000Z VRB09KT 9999 FEW015 22/15 Q1025",
      "taf": "TAF LPMA 032300Z 0400/0424 36013KT 9999 SCT015"
    },
    {
      "icao": "LPPR",
      "alert": "OK",
      "vis_m": 9999,
      "fzfg": false,
      "metar_trigger": false,
      "taf_trigger": false,
      "metar": "METAR LPPR 040000Z 32004KT 280V340 9999 FEW005 BKN030 16/15 Q1019",
      "taf": "TAF LPPR 032300Z 0400/0424 33007KT 9999 SCT012 BKN030"
    },
    {
      "icao": "LPPS",
      "alert": "OK",
      "vis_m": null,
      "fzfg": false,
      "metar_trigger": false,
      "taf_trigger": false,
      "metar": "",
      "taf": ""
    },
    {
      "icao": "LPPT",
      "alert": "OK",
      "vis_m": 9999,
      "fzfg": false,
      "metar_trigger": false,
      "taf_trigger": false,
      "metar": "METAR LPPT 040000Z 30008KT 260V340 9999 FEW012 BKN018 18/15 Q1020",
      "taf": "TAF LPPT 032333Z 0400/0506 31008KT 9999 BKN015"
    },
    {
      "icao": "LQBK",
      "alert": "OK",
      "vis_m": 9999,
      "fzfg": false,
      "metar_trigger": false,
      "taf_trigger": false,
      "metar": "METAR LQBK 040000Z VRB02KT 9999 BKN043 14/11 Q1012 NOSIG",
      "taf": "TAF LQBK 032300Z 0400/0424 32005KT 9999 SCT040 TX25/0414Z TN11/0404Z"
    },
    {
      "icao": "LQSA",
      "alert": "OK",
      "vis_m": 9999,
      "fzfg": false,
      "metar_trigger": false,
      "taf_trigger": false,
      "metar": "METAR LQSA 040000Z VRB02KT 9999 SCT012 BKN045 12/11 Q1012",
      "taf": "TAF LQSA 032300Z 0400/0424 16006KT 9999 SCT055 TX22/0413Z TN11/0404Z"
    },
    {
      "icao": "LQTZ",
      "alert": "OK",
      "vis_m": 9999,
      "fzfg": false,
      "metar_trigger": false,
      "taf_trigger": false,
      "metar": "METAR LQTZ 040000Z 29009KT 9999 -RA BKN005 OVC017 14/14 Q1011",
      "taf": "TAF LQTZ 032300Z 0400/0424 30005KT 9999 SCT020 BKN050 TX24/0414Z TN13/0403Z"
    },
    {
      "icao": "LRBC",
      "alert": "OK",
      "vis_m": 8000,
      "fzfg": false,
      "metar_trigger": false,
      "taf_trigger": false,
      "metar": "METAR LRBC 040000Z 12002KT 8000 BKN012 16/16 Q1010",
      "taf": "TAF LRBC 032300Z 0400/0409 VRB04KT 5000 BR BKN010"
    },
    {
      "icao": "LRBS",
      "alert": "OK",
      "vis_m": 9999,
      "fzfg": false,
      "metar_trigger": false,
      "taf_trigger": false,
      "metar": "METAR LRBS 040000Z 03003KT CAVOK 16/14 Q1008 NOSIG",
      "taf": "TAF LRBS 032300Z 0400/0424 06007KT 5000 BR NSC"
    },
    {
      "icao": "LRBV",
      "alert": "OK",
      "vis_m": 9999,
      "fzfg": false,
      "metar_trigger": false,
      "taf_trigger": false,
      "metar": "METAR LRBV 040000Z AUTO VRB03KT 9999 NCD 13/11 Q1010",
      "taf": "TAF LRBV 031700Z 0318/0403 VRB04KT 9999 SCT045"
    },
    {
      "icao": "LRCL",
      "alert": "OK",
      "vis_m": 9999,
      "fzfg": false,
      "metar_trigger": false,
      "taf_trigger": false,
      "metar": "METAR LRCL 040000Z 00000KT CAVOK 12/11 Q1009",
      "taf": "TAF LRCL 032300Z 0400/0409 VRB04KT CAVOK"
    },
    {
      "icao": "LRCV",
      "alert": "OK",
      "vis_m": 9999,
      "fzfg": false,
      "metar_trigger": false,
      "taf_trigger": false,
      "metar": "METAR LRCV 040000Z 04011KT 9999 -TSRA SCT015 BKN040CB 17/17 Q1009 RETSRA",
      "taf": "TAF LRCV 032300Z 0400/0409 VRB04KT CAVOK"
    },
    {
      "icao": "LRIA",
      "alert": "OK",
      "vis_m": 9999,
      "fzfg": false,
      "metar_trigger": false,
      "taf_trigger": false,
      "metar": "METAR LRIA 040000Z 10008KT 9999 BKN011 16/15 Q1011",
      "taf": "TAF LRIA 032300Z 0400/0409 10010KT 9999 SCT010"
    },
    {
      "icao": "LROP",
      "alert": "OK",
      "vis_m": 9999,
      "fzfg": false,
      "metar_trigger": false,
      "taf_trigger": false,
      "metar": "METAR LROP 040000Z 01006KT CAVOK 18/16 Q1009 NOSIG",
      "taf": "TAF LROP 032300Z 0400/0424 06007KT 5000 BR NSC"
    },
    {
      "icao": "LRSB",
      "alert": "OK",
      "vis_m": 9999,
      "fzfg": false,
      "metar_trigger": false,
      "taf_trigger": false,
      "metar": "METAR LRSB 040000Z VRB02KT CAVOK 14/12 Q1009",
      "taf": "TAF LRSB 032300Z 0400/0424 VRB04KT CAVOK"
    },
    {
      "icao": "LRSM",
      "alert": "OK",
      "vis_m": 9999,
      "fzfg": false,
      "metar_trigger": false,
      "taf_trigger": false,
      "metar": "METAR LRSM 040000Z AUTO 10005KT 9999 FEW130/// 16/12 Q1008",
      "taf": "TAF LRSM 031700Z 0318/0403 11007KT CAVOK"
    },
    {
      "icao": "LRSV",
      "alert": "OK",
      "vis_m": 200,
      "fzfg": false,
      "metar_trigger": false,
      "taf_trigger": false,
      "metar": "METAR LRSV 040000Z 07005KT 0200 R34/0400N FG VV001 16/16 Q1010",
      "taf": "TAF LRSV 032300Z 0400/0409 VRB04KT 0300 FG OVC001"
    },
    {
      "icao": "LRTM",
      "alert": "OK",
      "vis_m": 9999,
      "fzfg": false,
      "metar_trigger": false,
      "taf_trigger": false,
      "metar": "METAR LRTM 040000Z 08005KT CAVOK 13/13 Q1009",
      "taf": "TAF LRTM 032300Z 0400/0409 VRB04KT CAVOK"
    },
    {
      "icao": "LRTR",
      "alert": "OK",
      "vis_m": 6000,
      "fzfg": false,
      "metar_trigger": false,
      "taf_trigger": false,
      "metar": "METAR LRTR 040000Z 18003KT 6000 -RA BKN045 18/18 Q1008 RERA NOSIG",
      "taf": "TAF LRTR 032300Z 0400/0424 VRB04KT 9999 SCT015 BKN040"
    },
    {
      "icao": "LTAC",
      "alert": "OK",
      "vis_m": 9999,
      "fzfg": false,
      "metar_trigger": false,
      "taf_trigger": false,
      "metar": "METAR LTAC 032350Z 01005KT CAVOK 13/10 Q1017 NOSIG RMK RWY21C VRB02KT RWY03L 01004KT RWY21R VRB01KT RWY03R VRB02KT RWY21L VRB02KT",
      "taf": "TAF LTAC 032240Z 0400/0424 VRB02KT CAVOK"
    },
    {
      "icao": "LTFM",
      "alert": "OK",
      "vis_m": 9999,
      "fzfg": false,
      "metar_trigger": false,
      "taf_trigger": false,
      "metar": "METAR LTFM 032350Z 21007KT 120V230 CAVOK 21/13 Q1010 NOSIG RMK RWY17L 22009G28KT RWY34L 22007KT RWY16R 25006KT RWY36 22005KT RWY18 22006KT",
      "taf": "TAF LTFM 032240Z 0400/0506 20012KT CAVOK"
    },
    {
      "icao": "LUKK",
      "alert": "OK",
      "vis_m": 8000,
      "fzfg": false,
      "metar_trigger": false,
      "taf_trigger": false,
      "metar": "METAR LUKK 040000Z 13004KT 8000 BKN007 BKN030 15/15 Q1012 NOSIG",
      "taf": "TAF LUKK 032319Z 0400/0424 VRB05KT 5000 BR BKN007"
    },
    {
      "icao": "LWOH",
      "alert": "OK",
      "vis_m": null,
      "fzfg": false,
      "metar_trigger": false,
      "taf_trigger": false,
      "metar": "",
      "taf": "TAF LWOH 032330Z 0400/0424 36010KT 9999 SCT040"
    },
    {
      "icao": "LWSK",
      "alert": "OK",
      "vis_m": 9999,
      "fzfg": false,
      "metar_trigger": false,
      "taf_trigger": false,
      "metar": "METAR LWSK 040020Z COR 02004KT 350V060 9999 -RA BKN040 OVC080 16/14 Q1011 RETSRA NOSIG",
      "taf": ""
    },
    {
      "icao": "LYBE",
      "alert": "OK",
      "vis_m": 9999,
      "fzfg": false,
      "metar_trigger": false,
      "taf_trigger": false,
      "metar": "METAR LYBE 040000Z 25008KT 9999 BKN006 16/15 Q1009 NOSIG",
      "taf": "TAF LYBE 032300Z 0400/0424 27012KT 9999 SCT012 BKN025 TX24/0413Z TN16/0403Z"
    },
    {
      "icao": "LYNI",
      "alert": "OK",
      "vis_m": 9999,
      "fzfg": false,
      "metar_trigger": false,
      "taf_trigger": false,
      "metar": "METAR LYNI 040000Z 14003KT 140V220 9999 BKN030 17/16 Q1010 NOSIG",
      "taf": "TAF LYNI 032300Z 0400/0424 32008KT 9999 SCT040 TX22/0413Z TN16/0405Z"
    },
    {
      "icao": "LYPG",
      "alert": "OK",
      "vis_m": 9999,
      "fzfg": false,
      "metar_trigger": false,
      "taf_trigger": false,
      "metar": "METAR LYPG 040000Z 30003KT 280V350 9999 -RA SCT027 BKN034 16/16 Q1011 NOSIG",
      "taf": "TAF LYPG 032300Z 0400/0424 36005KT 9999 SCT020 BKN040 TX26/0413Z TN14/0402Z"
    },
    {
      "icao": "LZIB",
      "alert": "OK",
      "vis_m": 9999,
      "fzfg": false,
      "metar_trigger": false,
      "taf_trigger": false,
      "metar": "METAR LZIB 040000Z 31005KT 9999 -RA FEW040 15/12 Q1011 NOSIG",
      "taf": "TAF LZIB 032315Z 0400/0500 31006KT 9999 FEW025"
    },
    {
      "icao": "LZKZ",
      "alert": "OK",
      "vis_m": 9999,
      "fzfg": false,
      "metar_trigger": false,
      "taf_trigger": false,
      "metar": "METAR LZKZ 040000Z 04006KT CAVOK 18/15 Q1008 NOSIG",
      "taf": "TAF LZKZ 032315Z 0400/0500 VRB02KT 9999 SCT045"
    },
    {
      "icao": "LZTT",
      "alert": "OK",
      "vis_m": 9999,
      "fzfg": false,
      "metar_trigger": false,
      "taf_trigger": false,
      "metar": "METAR LZTT 040000Z 05002KT 9999 FEW004 SCT033 BKN070 13/13 Q1010",
      "taf": "TAF LZTT 032315Z 0400/0500 VRB02KT 9999 SCT033 BKN050"
    },
    {
      "icao": "OEJN",
      "alert": "OK",
      "vis_m": 9999,
      "fzfg": false,
      "metar_trigger": false,
      "taf_trigger": false,
      "metar": "METAR OEJN 040000Z 00000KT CAVOK 29/22 Q1006 NOSIG",
      "taf": "TAF OEJN 032300Z 0400/0506 VRB03KT CAVOK"
    },
    {
      "icao": "OEMA",
      "alert": "OK",
      "vis_m": 9999,
      "fzfg": false,
      "metar_trigger": false,
      "taf_trigger": false,
      "metar": "METAR OEMA 040000Z 04003KT CAVOK 34/M04 Q1013 NOSIG",
      "taf": "TAF OEMA 032300Z 0400/0506 VRB03KT CAVOK"
    },
    {
      "icao": "OJAI",
      "alert": "OK",
      "vis_m": 5000,
      "fzfg": false,
      "metar_trigger": false,
      "taf_trigger": false,
      "metar": "METAR OJAI 040000Z 00000KT 5000 HZ NSC 17/02 Q1017 NOSIG",
      "taf": "TAF OJAI 032300Z 0400/0506 29012KT 5000 HZ NSC"
    },
    {
      "icao": "OMAA",
      "alert": "OK",
      "vis_m": 9999,
      "fzfg": false,
      "metar_trigger": false,
      "taf_trigger": false,
      "metar": "METAR OMAA 040000Z 22006KT CAVOK 30/22 Q1000 NOSIG",
      "taf": "TAF OMAA 032300Z 0400/0506 24007KT 8000 NSC"
    },
    {
      "icao": "OMDB",
      "alert": "OK",
      "vis_m": 9999,
      "fzfg": false,
      "metar_trigger": false,
      "taf_trigger": false,
      "metar": "METAR OMDB 040000Z 18006KT 140V210 CAVOK 30/22 Q1000 NOSIG",
      "taf": "TAF OMDB 032300Z 0400/0506 19007KT 8000 NSC"
    },
    {
      "icao": "UAAA",
      "alert": "OK",
      "vis_m": 9999,
      "fzfg": false,
      "metar_trigger": false,
      "taf_trigger": false,
      "metar": "METAR UAAA 040000Z 17002MPS 9999 FEW050CB BKN100 21/10 Q1013 NOSIG",
      "taf": "TAF UAAA 032302Z 0400/0424 34003G08MPS 9999 SCT050CB BKN100 TX30/0409Z TN18/0401Z"
    },
    {
      "icao": "UBBB",
      "alert": "OK",
      "vis_m": 9999,
      "fzfg": false,
      "metar_trigger": false,
      "taf_trigger": false,
      "metar": "METAR UBBB 040000Z 16006KT CAVOK 16/14 Q1015 NOSIG",
      "taf": "TAF UBBB 032302Z 0400/0424 VRB04KT CAVOK TX24/0410Z TN15/0400Z"
    },
    {
      "icao": "UDSG",
      "alert": "OK",
      "vis_m": 9999,
      "fzfg": false,
      "metar_trigger": false,
      "taf_trigger": false,
      "metar": "METAR UDSG 040000Z 01003KT 320V070 9999 BKN049CB 09/07 Q1019 NOSIG",
      "taf": "TAF UDSG 032258Z 0400/0424 06006KT 9999 SCT040"
    },
    {
      "icao": "UDYZ",
      "alert": "OK",
      "vis_m": 9999,
      "fzfg": false,
      "metar_trigger": false,
      "taf_trigger": false,
      "metar": "METAR UDYZ 040000Z 07003KT 9999 FEW043CB 16/09 Q1015 NOSIG",
      "taf": "TAF UDYZ 032300Z 0400/0424 16006KT 9999 FEW040"
    },
    {
      "icao": "UGKO",
      "alert": "OK",
      "vis_m": 9999,
      "fzfg": false,
      "metar_trigger": false,
      "taf_trigger": false,
      "metar": "METAR UGKO 040000Z AUTO 08003KT CAVOK 12/11 Q1013 NOSIG",
      "taf": "TAF UGKO 032300Z 0400/0424 09007KT CAVOK TX29/0411Z TN10/0402Z"
    }
  ]
}