{
  "ts_utc": "2026-02-16T11:07:15Z",
  "threshold_m": 150,
  "source": "stations_override.txt (ICAO list) + aviationweather.gov (METAR/TAF raw)",
  "station_count": 159,
  "stations": [
    {
      "icao": "BIKF",
      "alert": "OK",
      "vis_m": 9999,
      "fzfg": false,
      "metar_trigger": false,
      "taf_trigger": false,
      "metar": "METAR BIKF 161100Z 01008KT CAVOK M03/M08 Q1011",
      "taf": "TAF BIKF 161030Z 1612/1712 02010KT CAVOK TXM01/1615Z TNM07/1704Z"
    },
    {
      "icao": "BKPR",
      "alert": "OK",
      "vis_m": 9999,
      "fzfg": false,
      "metar_trigger": false,
      "taf_trigger": false,
      "metar": "METAR BKPR 161100Z 12004KT 9999 SCT020 BKN040 04/01 Q1006 NOSIG",
      "taf": "TAF BKPR 160530Z 1606/1706 19006KT 9999 SCT040"
    },
    {
      "icao": "EBCI",
      "alert": "OK",
      "vis_m": 9999,
      "fzfg": false,
      "metar_trigger": false,
      "taf_trigger": false,
      "metar": "METAR EBCI 161050Z 20008KT 9999 FEW010 SCT028TCU BKN035 02/01 Q0996 NOSIG",
      "taf": "TAF EBCI 160500Z 1606/1712 24010KT 9999 FEW013 BKN025"
    },
    {
      "icao": "EDDB",
      "alert": "OK",
      "vis_m": 7000,
      "fzfg": false,
      "metar_trigger": false,
      "taf_trigger": false,
      "metar": "METAR EDDB 161050Z AUTO 12011KT 7000 -SN SCT018 BKN031 BKN040 M04/M07 Q0998 TEMPO 2500 -SN BR BKN013",
      "taf": "TAF EDDB 160500Z 1606/1706 13011KT CAVOK"
    },
    {
      "icao": "EDDH",
      "alert": "OK",
      "vis_m": 3800,
      "fzfg": false,
      "metar_trigger": false,
      "taf_trigger": false,
      "metar": "METAR EDDH 161050Z AUTO 13012KT 3800 -SN BR SCT012 BKN026 BKN036 M03/M05 Q0995 TEMPO 6000 BKN012",
      "taf": "TAF EDDH 160500Z 1606/1712 12013KT 6000 BKN015"
    },
    {
      "icao": "EDDK",
      "alert": "OK",
      "vis_m": 9999,
      "fzfg": false,
      "metar_trigger": false,
      "taf_trigger": false,
      "metar": "METAR EDDK 161050Z AUTO 25008KT 9999 VCSH BKN021 BKN028 BKN039 FEW///TCU 07/05 Q0995 RESHRA TEMPO SHRA",
      "taf": "TAF EDDK 160500Z 1606/1712 24008KT 9999 BKN012"
    },
    {
      "icao": "EDDN",
      "alert": "OK",
      "vis_m": 9999,
      "fzfg": false,
      "metar_trigger": false,
      "taf_trigger": false,
      "metar": "METAR EDDN 161050Z AUTO 24009KT 9999 BKN020 OVC029 05/02 Q0997 NOSIG",
      "taf": "TAF EDDN 160500Z 1606/1706 14006KT 9999 FEW012 BKN025"
    },
    {
      "icao": "EDDS",
      "alert": "OK",
      "vis_m": 9999,
      "fzfg": false,
      "metar_trigger": false,
      "taf_trigger": false,
      "metar": "METAR EDDS 161050Z AUTO 24010KT 180V300 9999 SCT042 08/02 Q0998 NOSIG",
      "taf": "TAF EDDS 160500Z 1606/1706 24008KT 9999 BKN025"
    },
    {
      "icao": "EDFH",
      "alert": "OK",
      "vis_m": 9999,
      "fzfg": false,
      "metar_trigger": false,
      "taf_trigger": false,
      "metar": "METAR EDFH 161050Z 26011KT 9999 BKN009 OVC015 04/02 Q0996",
      "taf": "TAF EDFH 160500Z 1606/1706 26013KT 6000 BKN005"
    },
    {
      "icao": "EDJA",
      "alert": "OK",
      "vis_m": 9999,
      "fzfg": false,
      "metar_trigger": false,
      "taf_trigger": false,
      "metar": "METAR EDJA 161050Z 23016G28KT 9999 SCT016 05/02 Q1000",
      "taf": "TAF EDJA 160800Z 1609/1618 23015G25KT 9999 FEW012 BKN035"
    },
    {
      "icao": "EDLW",
      "alert": "OK",
      "vis_m": 9999,
      "fzfg": false,
      "metar_trigger": false,
      "taf_trigger": false,
      "metar": "METAR EDLW 161050Z 23011KT 9999 FEW009 SCT013 06/04 Q0993",
      "taf": ""
    },
    {
      "icao": "EDNY",
      "alert": "OK",
      "vis_m": 9999,
      "fzfg": false,
      "metar_trigger": false,
      "taf_trigger": false,
      "metar": "METAR EDNY 161050Z 23011KT 9999 FEW052 06/04 Q1002",
      "taf": "TAF EDNY 160800Z 1609/1618 24010KT 9999 SCT015 BKN030"
    },
    {
      "icao": "EDSB",
      "alert": "OK",
      "vis_m": 9999,
      "fzfg": false,
      "metar_trigger": false,
      "taf_trigger": false,
      "metar": "METAR EDSB 161050Z 20013KT 9999 BKN032 08/03 Q1000",
      "taf": "TAF EDSB 160500Z 1606/1706 21011KT 9999 BKN020"
    },
    {
      "icao": "EETN",
      "alert": "OK",
      "vis_m": 9999,
      "fzfg": false,
      "metar_trigger": false,
      "taf_trigger": false,
      "metar": "METAR EETN 161050Z 08004KT 9999 OVC021 M05/M09 Q1012 NOSIG",
      "taf": "TAF EETN 160530Z 1606/1706 VRB02KT 9999 BKN025"
    },
    {
      "icao": "EFTU",
      "alert": "OK",
      "vis_m": 9999,
      "fzfg": false,
      "metar_trigger": false,
      "taf_trigger": false,
      "metar": "METAR EFTU 161050Z AUTO 11005KT 9999 -SHSN OVC005 M08/M09 Q1012",
      "taf": ""
    },
    {
      "icao": "EGBB",
      "alert": "OK",
      "vis_m": 9999,
      "fzfg": false,
      "metar_trigger": false,
      "taf_trigger": false,
      "metar": "METAR EGBB 161050Z 26011KT 9999 -RA BKN020 06/03 Q0994",
      "taf": "TAF EGBB 161058Z 1612/1712 27011KT 9999 SCT025"
    },
    {
      "icao": "EGGP",
      "alert": "OK",
      "vis_m": 9999,
      "fzfg": false,
      "metar_trigger": false,
      "taf_trigger": false,
      "metar": "METAR EGGP 161050Z 28015KT 9999 VCSH SCT014 BKN025 06/04 Q0994",
      "taf": "TAF EGGP 161055Z 1612/1712 26014KT 9999 FEW025"
    },
    {
      "icao": "EGGW",
      "alert": "OK",
      "vis_m": 9999,
      "fzfg": false,
      "metar_trigger": false,
      "taf_trigger": false,
      "metar": "METAR EGGW 161050Z AUTO 27017KT 9999 FEW025 07/03 Q0995",
      "taf": "TAF EGGW 161105Z 1612/1712 27018KT 9999 SCT025"
    },
    {
      "icao": "EGKK",
      "alert": "OK",
      "vis_m": 9999,
      "fzfg": false,
      "metar_trigger": false,
      "taf_trigger": false,
      "metar": "METAR EGKK 161050Z 27013KT 9999 SCT028 08/03 Q0997",
      "taf": "TAF EGKK 161052Z 1612/1718 27014KT 9999 FEW040"
    },
    {
      "icao": "EGNM",
      "alert": "OK",
      "vis_m": 9999,
      "fzfg": false,
      "metar_trigger": false,
      "taf_trigger": false,
      "metar": "METAR EGNM 161050Z 28016KT 9999 FEW010 SCT020 05/03 Q0991",
      "taf": "TAF EGNM 161055Z 1612/1712 29014KT 9999 SCT020"
    },
    {
      "icao": "EGPD",
      "alert": "OK",
      "vis_m": 9999,
      "fzfg": false,
      "metar_trigger": false,
      "taf_trigger": false,
      "metar": "METAR EGPD 161050Z COR AUTO 30009KT 260V340 9999 NCD 05/02 Q0988 NOSIG",
      "taf": "TAF EGPD 161102Z 1612/1712 30012KT 9999 FEW030"
    },
    {
      "icao": "EGPF",
      "alert": "OK",
      "vis_m": 9999,
      "fzfg": false,
      "metar_trigger": false,
      "taf_trigger": false,
      "metar": "METAR EGPF 161050Z AUTO 26006KT 240V300 9999 SCT019 BKN024 OVC032 07/04 Q0991",
      "taf": "TAF EGPF 161056Z 1612/1712 26005KT 9999 FEW015 SCT024"
    },
    {
      "icao": "EHBK",
      "alert": "OK",
      "vis_m": 9999,
      "fzfg": false,
      "metar_trigger": false,
      "taf_trigger": false,
      "metar": "METAR EHBK 161055Z AUTO 23012KT 9999 BKN016 OVC020 06/04 Q0995 TEMPO BKN014",
      "taf": ""
    },
    {
      "icao": "EHEH",
      "alert": "OK",
      "vis_m": 9000,
      "fzfg": false,
      "metar_trigger": false,
      "taf_trigger": false,
      "metar": "METAR EHEH 161055Z AUTO 23008KT 180V270 9000 -SHRA FEW008 SCT019 BKN023 06/05 Q0994 REDZ WHT BECMG SCT012 BKN015 RMK TREND REMOTE BY EHWX",
      "taf": "TAF EHEH 160556Z 1606/1712 24008KT 6000 BKN006"
    },
    {
      "icao": "EKBI",
      "alert": "OK",
      "vis_m": 9999,
      "fzfg": false,
      "metar_trigger": false,
      "taf_trigger": false,
      "metar": "METAR EKBI 161050Z 11015KT 9999 -SN DRSN BKN014 M04/M07 Q0996",
      "taf": "TAF EKBI 160827Z 1609/1709 13015KT 9999 -SN BKN018"
    },
    {
      "icao": "EKCH",
      "alert": "OK",
      "vis_m": 9999,
      "fzfg": false,
      "metar_trigger": false,
      "taf_trigger": false,
      "metar": "METAR EKCH 161050Z AUTO 12023KT 9999 NCD M03/M10 Q1002 TEMPO 12023G33KT",
      "taf": "TAF EKCH 160827Z 1609/1709 12020KT CAVOK"
    },
    {
      "icao": "ENAL",
      "alert": "OK",
      "vis_m": 9999,
      "fzfg": false,
      "metar_trigger": false,
      "taf_trigger": false,
      "metar": "METAR ENAL 161050Z 19011KT CAVOK 04/M07 Q0992",
      "taf": "TAF ENAL 160800Z 1609/1618 18012KT CAVOK"
    },
    {
      "icao": "ENBR",
      "alert": "OK",
      "vis_m": 9999,
      "fzfg": false,
      "metar_trigger": false,
      "taf_trigger": false,
      "metar": "METAR ENBR 161050Z 12013KT CAVOK 01/M10 Q0994 TEMPO 13015G25KT RMK WIND 1200FT 13024KT",
      "taf": "TAF ENBR 160500Z 1606/1706 14012KT CAVOK"
    },
    {
      "icao": "ENGM",
      "alert": "OK",
      "vis_m": 9999,
      "fzfg": false,
      "metar_trigger": false,
      "taf_trigger": false,
      "metar": "METAR ENGM 161050Z 14007KT 9999 -SN OVC020 M06/M09 Q1003 NOSIG",
      "taf": "TAF ENGM 160500Z 1606/1706 16008KT 9999 -SN BKN020"
    },
    {
      "icao": "ENHD",
      "alert": "OK",
      "vis_m": 9999,
      "fzfg": false,
      "metar_trigger": false,
      "taf_trigger": false,
      "metar": "METAR ENHD 161050Z 12022KT CAVOK 01/M07 Q0993",
      "taf": "TAF ENHD 160800Z 1609/1618 11020KT 9999 SCT040"
    },
    {
      "icao": "ENTC",
      "alert": "OK",
      "vis_m": 9999,
      "fzfg": false,
      "metar_trigger": false,
      "taf_trigger": false,
      "metar": "METAR ENTC 161050Z 10003KT 060V140 CAVOK M04/M06 Q0994 NOSIG RMK WIND 2600FT 16012KT",
      "taf": "TAF ENTC 160500Z 1606/1706 02006KT 9999 SCT015 BKN025"
    },
    {
      "icao": "ENTO",
      "alert": "OK",
      "vis_m": 9999,
      "fzfg": false,
      "metar_trigger": false,
      "taf_trigger": false,
      "metar": "METAR ENTO 161050Z 12007KT 090V150 9999 SCT019 BKN027 M05/M09 Q1003 NOSIG",
      "taf": "TAF ENTO 160500Z 1606/1706 12007KT 9999 OVC018"
    },
    {
      "icao": "ENVA",
      "alert": "OK",
      "vis_m": 9999,
      "fzfg": false,
      "metar_trigger": false,
      "taf_trigger": false,
      "metar": "METAR ENVA 161050Z 16015G25KT 130V190 CAVOK M00/M10 Q0995 TEMPO 17015G25KT RMK WIND 670FT 17021G32KT",
      "taf": "TAF ENVA 160500Z 1606/1706 14009KT CAVOK"
    },
    {
      "icao": "ENZV",
      "alert": "OK",
      "vis_m": 9999,
      "fzfg": false,
      "metar_trigger": false,
      "taf_trigger": false,
      "metar": "METAR ENZV 161050Z 12022KT 080V140 CAVOK 01/M08 Q0993 TEMPO 13022G32KT",
      "taf": "TAF ENZV 160500Z 1606/1706 14015KT 9999 SCT035"
    },
    {
      "icao": "EPGD",
      "alert": "OK",
      "vis_m": 9999,
      "fzfg": false,
      "metar_trigger": false,
      "taf_trigger": false,
      "metar": "METAR EPGD 161100Z 13013KT CAVOK M10/M19 Q1007",
      "taf": "TAF EPGD 160530Z 1606/1706 11012KT CAVOK"
    },
    {
      "icao": "EPKK",
      "alert": "OK",
      "vis_m": 9999,
      "fzfg": false,
      "metar_trigger": false,
      "taf_trigger": false,
      "metar": "METAR EPKK 161100Z 07009KT 9999 FEW013 M05/M09 Q1003",
      "taf": "TAF EPKK 160830Z 1609/1709 08012KT 9999 OVC011"
    },
    {
      "icao": "EPKT",
      "alert": "OK",
      "vis_m": 9999,
      "fzfg": false,
      "metar_trigger": false,
      "taf_trigger": false,
      "metar": "METAR EPKT 161100Z 10011KT CAVOK M06/M09 Q1002",
      "taf": ""
    },
    {
      "icao": "EPLB",
      "alert": "OK",
      "vis_m": 9999,
      "fzfg": false,
      "metar_trigger": false,
      "taf_trigger": false,
      "metar": "METAR EPLB 161100Z 06005KT CAVOK M11/M14 Q1006",
      "taf": "TAF EPLB 160530Z 1606/1706 10010KT CAVOK"
    },
    {
      "icao": "EPMO",
      "alert": "OK",
      "vis_m": 9999,
      "fzfg": false,
      "metar_trigger": false,
      "taf_trigger": false,
      "metar": "METAR EPMO 161100Z 07010KT CAVOK M08/M12 Q1007",
      "taf": "TAF EPMO 160530Z 1606/1706 09010KT CAVOK"
    },
    {
      "icao": "EPPO",
      "alert": "OK",
      "vis_m": 9999,
      "fzfg": false,
      "metar_trigger": false,
      "taf_trigger": false,
      "metar": "METAR EPPO 161100Z 11017KT 9999 FEW019 M05/M10 Q1002",
      "taf": "TAF EPPO 160530Z 1606/1706 11010KT CAVOK"
    },
    {
      "icao": "EPRA",
      "alert": "OK",
      "vis_m": 9999,
      "fzfg": false,
      "metar_trigger": false,
      "taf_trigger": false,
      "metar": "METAR EPRA 161100Z 09009KT CAVOK M08/M13 Q1005",
      "taf": "TAF EPRA 160830Z 1609/1618 13008KT CAVOK"
    },
    {
      "icao": "EPRZ",
      "alert": "OK",
      "vis_m": 9999,
      "fzfg": false,
      "metar_trigger": false,
      "taf_trigger": false,
      "metar": "METAR EPRZ 161100Z 08011KT CAVOK M07/M11 Q1005",
      "taf": ""
    },
    {
      "icao": "EPSC",
      "alert": "OK",
      "vis_m": 9999,
      "fzfg": false,
      "metar_trigger": false,
      "taf_trigger": false,
      "metar": "METAR EPSC 161100Z 11014KT CAVOK M05/M12 Q1001",
      "taf": "TAF EPSC 160530Z 1606/1706 13015KT CAVOK"
    },
    {
      "icao": "EPSY",
      "alert": "OK",
      "vis_m": 9999,
      "fzfg": false,
      "metar_trigger": false,
      "taf_trigger": false,
      "metar": "METAR EPSY 161100Z 10009KT 060V160 CAVOK M08/M18 Q1008",
      "taf": "TAF EPSY 160830Z 1609/1618 07006KT CAVOK"
    },
    {
      "icao": "EPWA",
      "alert": "OK",
      "vis_m": 9999,
      "fzfg": false,
      "metar_trigger": false,
      "taf_trigger": false,
      "metar": "METAR EPWA 161100Z 10009KT CAVOK M07/M13 Q1007 NOSIG",
      "taf": "TAF EPWA 160830Z 1609/1709 10010KT CAVOK"
    },
    {
      "icao": "EPWR",
      "alert": "OK",
      "vis_m": 9999,
      "fzfg": false,
      "metar_trigger": false,
      "taf_trigger": false,
      "metar": "METAR EPWR 161100Z 12015KT 9999 BKN019 BKN028 M04/M08 Q1000",
      "taf": "TAF EPWR 160830Z 1609/1709 14015KT 9999 BKN020"
    },
    {
      "icao": "ESGG",
      "alert": "OK",
      "vis_m": 9999,
      "fzfg": false,
      "metar_trigger": false,
      "taf_trigger": false,
      "metar": "METAR ESGG 161050Z 13013KT CAVOK M04/M12 Q1002",
      "taf": "TAF ESGG 160830Z 1609/1709 15014G25KT CAVOK"
    },
    {
      "icao": "ESKN",
      "alert": "OK",
      "vis_m": 9999,
      "fzfg": false,
      "metar_trigger": false,
      "taf_trigger": false,
      "metar": "METAR ESKN 161050Z 15007KT CAVOK M02/M07 Q1009",
      "taf": "TAF ESKN 160830Z 1609/1709 VRB03KT CAVOK"
    },
    {
      "icao": "ESMS",
      "alert": "OK",
      "vis_m": 9999,
      "fzfg": false,
      "metar_trigger": false,
      "taf_trigger": false,
      "metar": "METAR ESMS 161050Z 12019G30KT CAVOK M03/M12 Q1002",
      "taf": "TAF ESMS 160827Z 1609/1709 13015KT CAVOK"
    },
    {
      "icao": "ESSA",
      "alert": "OK",
      "vis_m": 9999,
      "fzfg": false,
      "metar_trigger": false,
      "taf_trigger": false,
      "metar": "METAR ESSA 161050Z 17008KT CAVOK M04/M09 Q1010 NOSIG",
      "taf": "TAF ESSA 160830Z 1609/1709 16005KT CAVOK"
    },
    {
      "icao": "EYKA",
      "alert": "OK",
      "vis_m": 9999,
      "fzfg": false,
      "metar_trigger": false,
      "taf_trigger": false,
      "metar": "METAR EYKA 161050Z 34010KT CAVOK M08/M13 Q1010",
      "taf": "TAF EYKA 161101Z 1612/1712 09010KT 9000 NSC"
    },
    {
      "icao": "EYPA",
      "alert": "OK",
      "vis_m": 9999,
      "fzfg": false,
      "metar_trigger": false,
      "taf_trigger": false,
      "metar": "METAR EYPA 161050Z 13004KT 100V170 CAVOK M05/M13 Q1012",
      "taf": "TAF EYPA 161101Z 1612/1712 VRB04KT 9000 NSC"
    },
    {
      "icao": "EYVI",
      "alert": "OK",
      "vis_m": 9999,
      "fzfg": false,
      "metar_trigger": false,
      "taf_trigger": false,
      "metar": "METAR EYVI 161050Z 03004KT 360V080 CAVOK M09/M21 Q1009 NOSIG",
      "taf": "TAF EYVI 161100Z 1612/1712 VRB04KT 8000 NSC"
    },
    {
      "icao": "GCFV",
      "alert": "OK",
      "vis_m": 9999,
      "fzfg": false,
      "metar_trigger": false,
      "taf_trigger": false,
      "metar": "METAR GCFV 161100Z 04006KT 010V070 9999 FEW010 BKN030 19/16 Q1030",
      "taf": "TAF GCFV 160800Z 1609/1709 07010KT 7000 NSC TX25/1614Z TN17/1706Z"
    },
    {
      "icao": "GCLP",
      "alert": "OK",
      "vis_m": 7000,
      "fzfg": false,
      "metar_trigger": false,
      "taf_trigger": false,
      "metar": "METAR GCLP 161100Z 17006KT 140V210 7000 NSC 20/14 Q1029 TEMPO 4500 HZ",
      "taf": "TAF GCLP 160800Z 1609/1709 16008KT 7000 NSC TX26/1614Z TN16/1706Z"
    },
    {
      "icao": "GCTS",
      "alert": "OK",
      "vis_m": 3000,
      "fzfg": false,
      "metar_trigger": false,
      "taf_trigger": false,
      "metar": "METAR GCTS 161100Z 10010KT 070V140 3000 HZ NSC 24/01 Q1029 TEMPO 5000",
      "taf": "TAF GCTS 160800Z 1609/1709 09014KT 7000 NSC TX27/1614Z TN18/1706Z"
    },
    {
      "icao": "GMAD",
      "alert": "OK",
      "vis_m": 9999,
      "fzfg": false,
      "metar_trigger": false,
      "taf_trigger": false,
      "metar": "METAR GMAD 161100Z 07006KT CAVOK 23/08 Q1028 NOSIG",
      "taf": "TAF GMAD 160500Z 1606/1712 06008KT CAVOK"
    },
    {
      "icao": "GMMN",
      "alert": "OK",
      "vis_m": 9999,
      "fzfg": false,
      "metar_trigger": false,
      "taf_trigger": false,
      "metar": "METAR GMMN 161100Z 04011KT CAVOK 15/11 Q1032 NOSIG",
      "taf": "TAF GMMN 160500Z 1606/1712 06008KT CAVOK"
    },
    {
      "icao": "GMMX",
      "alert": "OK",
      "vis_m": 9999,
      "fzfg": false,
      "metar_trigger": false,
      "taf_trigger": false,
      "metar": "METAR GMMX 161100Z 06005KT 030V100 CAVOK 17/08 Q1030 NOSIG",
      "taf": "TAF GMMX 160500Z 1606/1712 06006KT 8000 NSC"
    },
    {
      "icao": "HEGN",
      "alert": "OK",
      "vis_m": 9999,
      "fzfg": false,
      "metar_trigger": false,
      "taf_trigger": false,
      "metar": "METAR HEGN 161000Z 12005KT CAVOK 28/07 Q1013 NOSIG",
      "taf": "TAF HEGN 161100Z 1612/1718 12010KT CAVOK"
    },
    {
      "icao": "HEMA",
      "alert": "OK",
      "vis_m": 9999,
      "fzfg": false,
      "metar_trigger": false,
      "taf_trigger": false,
      "metar": "METAR HEMA 161000Z 01012KT CAVOK 28/10 Q1012 NOSIG",
      "taf": "TAF HEMA 161100Z 1612/1718 02012KT CAVOK"
    },
    {
      "icao": "HESH",
      "alert": "OK",
      "vis_m": 8000,
      "fzfg": false,
      "metar_trigger": false,
      "taf_trigger": false,
      "metar": "METAR HESH 161000Z 02006KT 8000 NSC 30/08 Q1013 NOSIG",
      "taf": "TAF HESH 161100Z 1612/1718 17012KT 6000 NSC"
    },
    {
      "icao": "HESX",
      "alert": "OK",
      "vis_m": 9999,
      "fzfg": false,
      "metar_trigger": false,
      "taf_trigger": false,
      "metar": "METAR HESX 161000Z 18011KT CAVOK 29/M07 Q1013 NOSIG",
      "taf": "TAF HESX 161100Z 1612/1718 18012KT CAVOK"
    },
    {
      "icao": "LATI",
      "alert": "OK",
      "vis_m": 9999,
      "fzfg": false,
      "metar_trigger": false,
      "taf_trigger": false,
      "metar": "METAR LATI 161050Z 16004KT 120V190 9999 FEW033 SCT062 BKN140 14/05 Q1008 NOSIG",
      "taf": "TAF LATI 161100Z 1612/1712 22008KT 9999 SCT050 BKN090 TX15/1612Z TN08/1704Z"
    },
    {
      "icao": "LBPD",
      "alert": "OK",
      "vis_m": 9999,
      "fzfg": false,
      "metar_trigger": false,
      "taf_trigger": false,
      "metar": "METAR LBPD 161100Z AUTO 13005KT 080V180 9999 FEW033/// BKN100/// 10/06 Q1005 NOSIG",
      "taf": "TAF LBPD 160500Z 1606/1706 29010KT 9999 BKN040"
    },
    {
      "icao": "LBSF",
      "alert": "OK",
      "vis_m": 9999,
      "fzfg": false,
      "metar_trigger": false,
      "taf_trigger": false,
      "metar": "METAR LBSF 161100Z VRB03KT 9999 SCT019 BKN049 04/M01 Q1006 NOSIG",
      "taf": "TAF LBSF 160500Z 1606/1706 29010KT 9999 BKN040"
    },
    {
      "icao": "LBWN",
      "alert": "OK",
      "vis_m": 9999,
      "fzfg": false,
      "metar_trigger": false,
      "taf_trigger": false,
      "metar": "METAR LBWN 161100Z VRB02KT 9999 -RA OVC032 06/02 Q1007 RERA NOSIG",
      "taf": "TAF LBWN 160500Z 1606/1706 30010KT 9999 SCT045"
    },
    {
      "icao": "LCLK",
      "alert": "OK",
      "vis_m": 5000,
      "fzfg": false,
      "metar_trigger": false,
      "taf_trigger": false,
      "metar": "METAR LCLK 161100Z 08008KT 5000 DU NSC 22/16 Q1013 NOSIG",
      "taf": "TAF LCLK 160530Z 1606/1706 35007KT 9999 FEW025"
    },
    {
      "icao": "LCPH",
      "alert": "OK",
      "vis_m": 5000,
      "fzfg": false,
      "metar_trigger": false,
      "taf_trigger": false,
      "metar": "METAR LCPH 161100Z 15015KT 5000 DU NSC 22/10 Q1012 NOSIG",
      "taf": "TAF LCPH 160530Z 1606/1706 08009KT 9999 FEW020"
    },
    {
      "icao": "LEAL",
      "alert": "OK",
      "vis_m": 9999,
      "fzfg": false,
      "metar_trigger": false,
      "taf_trigger": false,
      "metar": "METAR LEAL 161100Z 28025G35KT 9999 FEW015 19/07 Q1021 NOSIG",
      "taf": "TAF LEAL 160500Z 1606/1706 29012KT CAVOK TX22/1613Z TN13/1606Z"
    },
    {
      "icao": "LEBB",
      "alert": "OK",
      "vis_m": 2000,
      "fzfg": false,
      "metar_trigger": false,
      "taf_trigger": false,
      "metar": "METAR LEBB 161100Z 31004KT 260V340 2000 RA FEW007 BKN014 OVC019 12/12 Q1019 NOSIG",
      "taf": "TAF LEBB 160500Z 1606/1706 20008KT 9999 FEW015 BKN025 TX14/1609Z TN10/1706Z"
    },
    {
      "icao": "LEBL",
      "alert": "OK",
      "vis_m": 9999,
      "fzfg": false,
      "metar_trigger": false,
      "taf_trigger": false,
      "metar": "METAR LEBL 161100Z 28018KT 240V310 9999 SCT030 19/09 Q1014 NOSIG",
      "taf": "TAF LEBL 160500Z 1606/1706 23012KT 9999 FEW035 TX21/1613Z TN13/1606Z"
    },
    {
      "icao": "LECH",
      "alert": "OK",
      "vis_m": 9000,
      "fzfg": false,
      "metar_trigger": false,
      "taf_trigger": false,
      "metar": "METAR LECH 161100Z AUTO 23009KT 200V270 9000 NCD 19/06 Q1017",
      "taf": ""
    },
    {
      "icao": "LEMD",
      "alert": "OK",
      "vis_m": 9999,
      "fzfg": false,
      "metar_trigger": false,
      "taf_trigger": false,
      "metar": "METAR LEMD 161100Z 23013KT 9999 FEW050 12/08 Q1024 NOSIG",
      "taf": ""
    },
    {
      "icao": "LEMG",
      "alert": "OK",
      "vis_m": 9999,
      "fzfg": false,
      "metar_trigger": false,
      "taf_trigger": false,
      "metar": "METAR LEMG 161100Z 31020G35KT 9999 FEW040 16/07 Q1029 NOSIG",
      "taf": "TAF LEMG 160500Z 1606/1706 30012KT 9999 SCT040 TX19/1614Z TN12/1607Z"
    },
    {
      "icao": "LEVC",
      "alert": "OK",
      "vis_m": 9999,
      "fzfg": false,
      "metar_trigger": false,
      "taf_trigger": false,
      "metar": "METAR LEVC 161100Z 26028G39KT CAVOK 18/07 Q1019 NOSIG",
      "taf": "TAF LEVC 160500Z 1606/1706 27014KT CAVOK TX23/1614Z TN13/1606Z"
    },
    {
      "icao": "LEXJ",
      "alert": "OK",
      "vis_m": 900,
      "fzfg": false,
      "metar_trigger": false,
      "taf_trigger": false,
      "metar": "METAR LEXJ 161100Z 27004KT 230V350 0900 R29/1800D R11/P2000 RA FG OVC008 12/11 Q1019",
      "taf": "TAF LEXJ 160800Z 1609/1709 24009KT 9999 SCT005 BKN016 TX14/1613Z TN11/1706Z"
    },
    {
      "icao": "LEZG",
      "alert": "OK",
      "vis_m": 9999,
      "fzfg": false,
      "metar_trigger": false,
      "taf_trigger": false,
      "metar": "METAR LEZG 161100Z 32010KT 280V360 9999 BKN080 18/08 Q1019 NOSIG",
      "taf": ""
    },
    {
      "icao": "LEZL",
      "alert": "OK",
      "vis_m": 9999,
      "fzfg": false,
      "metar_trigger": false,
      "taf_trigger": false,
      "metar": "METAR LEZL 161100Z 25007KT 220V280 9999 FEW015 BKN035 16/09 Q1032 NOSIG",
      "taf": "TAF LEZL 160800Z 1609/1709 27006KT 9999 SCT040 TX19/1615Z TN08/1707Z"
    },
    {
      "icao": "LFBD",
      "alert": "OK",
      "vis_m": 9999,
      "fzfg": false,
      "metar_trigger": false,
      "taf_trigger": false,
      "metar": "METAR LFBD 161100Z AUTO 29016KT 9999 BKN022 BKN027 BKN034 13/09 Q1014 TEMPO 29020G30KT 4000 SHRA BKN006 BKN015TCU",
      "taf": "TAF LFBD 160500Z 1606/1712 27015KT 9999 BKN012 TX14/1614Z TN12/1621Z"
    },
    {
      "icao": "LFLL",
      "alert": "OK",
      "vis_m": 9999,
      "fzfg": false,
      "metar_trigger": false,
      "taf_trigger": false,
      "metar": "METAR LFLL 161100Z 12004KT 080V150 9999 -SHRA FEW004 FEW030CB BKN040 07/06 Q1007 NOSIG",
      "taf": "TAF LFLL 160500Z 1606/1712 20010KT 9999 BKN040"
    },
    {
      "icao": "LFLS",
      "alert": "OK",
      "vis_m": 9999,
      "fzfg": false,
      "metar_trigger": false,
      "taf_trigger": false,
      "metar": "METAR LFLS 161100Z AUTO VRB02KT 9999 -RA FEW017/// SCT029/// BKN039/// ///TCU 08/06 Q1007 TEMPO VRB15G30KT 4000 SHRA",
      "taf": "TAF LFLS 160800Z 1609/1709 VRB05KT 9000 -RA SCT015 OVC040"
    },
    {
      "icao": "LFMN",
      "alert": "OK",
      "vis_m": 9999,
      "fzfg": false,
      "metar_trigger": false,
      "taf_trigger": false,
      "metar": "METAR LFMN 161100Z 28020KT 9999 FEW093 BKN200 17/05 Q1003 NOSIG",
      "taf": "TAF LFMN 160800Z 1609/1715 26020KT CAVOK"
    },
    {
      "icao": "LFOB",
      "alert": "OK",
      "vis_m": 9999,
      "fzfg": false,
      "metar_trigger": false,
      "taf_trigger": false,
      "metar": "METAR LFOB 161100Z AUTO 27018KT 9999 SCT025 SCT050 BKN070 09/05 Q0999 TEMPO 27018G35KT 3500 SHRA SCT014 SCT020CB SCT030TCU",
      "taf": "TAF LFOB 160500Z 1606/1706 24010G20KT 9999 BKN030"
    },
    {
      "icao": "LFPO",
      "alert": "OK",
      "vis_m": 9999,
      "fzfg": false,
      "metar_trigger": false,
      "taf_trigger": false,
      "metar": "METAR LFPO 161100Z 27017KT 240V310 9999 SCT026 09/04 Q1002 TEMPO 27015G30KT",
      "taf": "TAF LFPO 160500Z 1606/1712 26010KT CAVOK"
    },
    {
      "icao": "LFSB",
      "alert": "OK",
      "vis_m": 9999,
      "fzfg": false,
      "metar_trigger": false,
      "taf_trigger": false,
      "metar": "METAR LFSB 161100Z AUTO 23012KT 180V260 9999 BKN029/// BKN058/// BKN110/// 09/04 Q1001 TEMPO 4500 SHRA FEW025CB BECMG 25015G25KT",
      "taf": "TAF LFSB 160500Z 1606/1706 25015G25KT 9999 FEW030 BKN045"
    },
    {
      "icao": "LGAV",
      "alert": "OK",
      "vis_m": 9999,
      "fzfg": false,
      "metar_trigger": false,
      "taf_trigger": false,
      "metar": "METAR LGAV 161050Z 20015KT 9999 SCT018 SCT070 16/11 Q1006 NOSIG",
      "taf": "TAF LGAV 160500Z 1606/1706 24010KT 9999 FEW018 SCT025"
    },
    {
      "icao": "LGTS",
      "alert": "OK",
      "vis_m": 9999,
      "fzfg": false,
      "metar_trigger": false,
      "taf_trigger": false,
      "metar": "METAR LGTS 161050Z 29005KT 9999 FEW025 14/08 Q1005 NOSIG",
      "taf": "TAF LGTS 160500Z 1606/1706 VRB03KT 9999 FEW025"
    },
    {
      "icao": "LHBP",
      "alert": "OK",
      "vis_m": 9999,
      "fzfg": false,
      "metar_trigger": false,
      "taf_trigger": false,
      "metar": "METAR LHBP 161100Z 13007KT 090V160 9999 SCT029 OVC060 M01/M07 Q1005 NOSIG",
      "taf": "TAF LHBP 160515Z 1606/1706 12005KT CAVOK"
    },
    {
      "icao": "LHDC",
      "alert": "OK",
      "vis_m": 9999,
      "fzfg": false,
      "metar_trigger": false,
      "taf_trigger": false,
      "metar": "METAR LHDC 161045Z AUTO 18004KT 130V250 9999 FEW019 M00/M05 Q1007 NOSIG",
      "taf": "TAF LHDC 160815Z 1609/1618 10006KT CAVOK"
    },
    {
      "icao": "LIBD",
      "alert": "OK",
      "vis_m": 9999,
      "fzfg": false,
      "metar_trigger": false,
      "taf_trigger": false,
      "metar": "METAR LIBD 161050Z 16005KT CAVOK 13/07 Q1007",
      "taf": "TAF LIBD 160500Z 1606/1706 VRB05KT 9999 SCT030"
    },
    {
      "icao": "LIBG",
      "alert": "OK",
      "vis_m": 9999,
      "fzfg": false,
      "metar_trigger": false,
      "taf_trigger": false,
      "metar": "METAR LIBG 161050Z 17004KT CAVOK 12/07 Q1008",
      "taf": "TAF LIBG 160800Z 1609/1618 VRB05KT 9999 FEW020"
    },
    {
      "icao": "LIBP",
      "alert": "OK",
      "vis_m": 9999,
      "fzfg": false,
      "metar_trigger": false,
      "taf_trigger": false,
      "metar": "METAR LIBP 161050Z AUTO 23004KT 9999 BKN150/// BKN240/// 13/07 Q1004",
      "taf": "TAF LIBP 160500Z 1606/1706 VRB05KT 9999 FEW030 SCT060"
    },
    {
      "icao": "LIBR",
      "alert": "OK",
      "vis_m": 9999,
      "fzfg": false,
      "metar_trigger": false,
      "taf_trigger": false,
      "metar": "METAR LIBR 161050Z 19003KT 150V220 CAVOK 12/06 Q1008",
      "taf": "TAF LIBR 160500Z 1606/1706 29013KT 9999 SCT030"
    },
    {
      "icao": "LICA",
      "alert": "OK",
      "vis_m": 9999,
      "fzfg": false,
      "metar_trigger": false,
      "taf_trigger": false,
      "metar": "METAR LICA 161050Z AUTO 28013KT 9999 SCT026/// BKN059/// 14/11 Q1010",
      "taf": "TAF LICA 160500Z 1606/1706 28015KT 9999 FEW030"
    },
    {
      "icao": "LICC",
      "alert": "OK",
      "vis_m": 9999,
      "fzfg": false,
      "metar_trigger": false,
      "taf_trigger": false,
      "metar": "METAR LICC 161050Z 26014KT 9999 SCT090 15/12 Q1011",
      "taf": "TAF LICC 160500Z 1606/1706 27016KT 9999 SCT020"
    },
    {
      "icao": "LICJ",
      "alert": "OK",
      "vis_m": 9999,
      "fzfg": false,
      "metar_trigger": false,
      "taf_trigger": false,
      "metar": "METAR LICJ 161050Z 26020KT 9999 SCT025 15/10 Q1012",
      "taf": "TAF LICJ 160500Z 1606/1706 28017KT 9999 SCT030"
    },
    {
      "icao": "LIMC",
      "alert": "OK",
      "vis_m": 9999,
      "fzfg": false,
      "metar_trigger": false,
      "taf_trigger": false,
      "metar": "METAR LIMC 161050Z 04004KT 350V080 CAVOK 09/02 Q1002 NOSIG",
      "taf": "TAF LIMC 160500Z 1606/1712 VRB05KT CAVOK"
    },
    {
      "icao": "LIME",
      "alert": "OK",
      "vis_m": 9999,
      "fzfg": false,
      "metar_trigger": false,
      "taf_trigger": false,
      "metar": "METAR LIME 161050Z AUTO VRB02KT 9999 NCD 08/02 Q1002",
      "taf": "TAF LIME 160500Z 1606/1706 VRB05KT CAVOK"
    },
    {
      "icao": "LIMF",
      "alert": "OK",
      "vis_m": null,
      "fzfg": false,
      "metar_trigger": false,
      "taf_trigger": false,
      "metar": "METAR LIMF 161050Z AUTO 05004KT 010V100 //// // NCD 08/01 Q1002",
      "taf": "TAF LIMF 160500Z 1606/1706 VRB05KT CAVOK"
    },
    {
      "icao": "LIMJ",
      "alert": "OK",
      "vis_m": 9999,
      "fzfg": false,
      "metar_trigger": false,
      "taf_trigger": false,
      "metar": "METAR LIMJ 161050Z VRB02KT 9999 FEW022 SCT030 14/08 Q1002",
      "taf": "TAF LIMJ 160500Z 1606/1706 VRB05KT CAVOK"
    },
    {
      "icao": "LIPE",
      "alert": "OK",
      "vis_m": 9999,
      "fzfg": false,
      "metar_trigger": false,
      "taf_trigger": false,
      "metar": "METAR LIPE 161050Z 36005KT 310V030 CAVOK 10/06 Q1002",
      "taf": "TAF LIPE 160500Z 1606/1706 VRB05KT 6000 FEW060"
    },
    {
      "icao": "LIPH",
      "alert": "OK",
      "vis_m": 9999,
      "fzfg": false,
      "metar_trigger": false,
      "taf_trigger": false,
      "metar": "METAR LIPH 161050Z 07008KT 9999 SCT030 09/02 Q1002",
      "taf": "TAF LIPH 160500Z 1606/1706 VRB05KT 9999 FEW020 SCT060"
    },
    {
      "icao": "LIPQ",
      "alert": "OK",
      "vis_m": 9999,
      "fzfg": false,
      "metar_trigger": false,
      "taf_trigger": false,
      "metar": "METAR LIPQ 161050Z AUTO VRB02KT 9999 BKN028/// BKN080/// 10/01 Q1002",
      "taf": "TAF LIPQ 160500Z 1606/1706 07007KT 9999 FEW060"
    },
    {
      "icao": "LIPR",
      "alert": "OK",
      "vis_m": 9999,
      "fzfg": false,
      "metar_trigger": false,
      "taf_trigger": false,
      "metar": "METAR LIPR 161050Z 19012KT 9999 SCT050 15/07 Q1002",
      "taf": "TAF LIPR 160500Z 1606/1706 15007KT CAVOK"
    },
    {
      "icao": "LIPX",
      "alert": "OK",
      "vis_m": 9999,
      "fzfg": false,
      "metar_trigger": false,
      "taf_trigger": false,
      "metar": "METAR LIPX 161050Z VRB02KT CAVOK 09/03 Q1003",
      "taf": "TAF LIPX 160500Z 1606/1706 VRB05KT CAVOK"
    },
    {
      "icao": "LIPY",
      "alert": "OK",
      "vis_m": 9999,
      "fzfg": false,
      "metar_trigger": false,
      "taf_trigger": false,
      "metar": "METAR LIPY 161050Z AUTO 19007KT 160V220 9999 FEW049/// BKN140/// 15/06 Q1003",
      "taf": "TAF LIPY 160500Z 1606/1706 VRB05KT 9999 FEW020"
    },
    {
      "icao": "LIPZ",
      "alert": "OK",
      "vis_m": 9999,
      "fzfg": false,
      "metar_trigger": false,
      "taf_trigger": false,
      "metar": "METAR LIPZ 161050Z 05010KT 9999 FEW035 10/02 Q1002 NOSIG",
      "taf": "TAF LIPZ 160500Z 1606/1712 VRB05KT 9999 FEW060"
    },
    {
      "icao": "LIRF",
      "alert": "OK",
      "vis_m": 9999,
      "fzfg": false,
      "metar_trigger": false,
      "taf_trigger": false,
      "metar": "METAR LIRF 161050Z 15012KT 9999 FEW020 15/10 Q1006 NOSIG",
      "taf": "TAF LIRF 160500Z 1606/1712 VRB05KT CAVOK"
    },
    {
      "icao": "LIRN",
      "alert": "OK",
      "vis_m": 9999,
      "fzfg": false,
      "metar_trigger": false,
      "taf_trigger": false,
      "metar": "METAR LIRN 161050Z 18008KT 140V220 9999 SCT020 13/09 Q1007 NOSIG",
      "taf": "TAF LIRN 160500Z 1606/1706 VRB05KT CAVOK"
    },
    {
      "icao": "LIRP",
      "alert": "OK",
      "vis_m": 9999,
      "fzfg": false,
      "metar_trigger": false,
      "taf_trigger": false,
      "metar": "METAR LIRP 161045Z 23012KT 9999 SCT025 BKN040 14/12 Q1003 NOSIG",
      "taf": "TAF LIRP 160500Z 1606/1706 VRB03KT 9999 BKN030"
    },
    {
      "icao": "LIRZ",
      "alert": "OK",
      "vis_m": 9999,
      "fzfg": false,
      "metar_trigger": false,
      "taf_trigger": false,
      "metar": "METAR LIRZ 161050Z AUTO 30003KT 9999 OVC047/// 08/05 Q1005",
      "taf": "TAF LIRZ 160500Z 1606/1706 VRB05KT CAVOK"
    },
    {
      "icao": "LJLJ",
      "alert": "OK",
      "vis_m": 9999,
      "fzfg": false,
      "metar_trigger": false,
      "taf_trigger": false,
      "metar": "METAR LJLJ 161100Z 24001KT 9999 SCT033 BKN045 04/M02 Q1001 NOSIG",
      "taf": "TAF LJLJ 161100Z 1612/1712 VRB02KT 9999 SCT033 BKN040"
    },
    {
      "icao": "LKMT",
      "alert": "OK",
      "vis_m": 6000,
      "fzfg": false,
      "metar_trigger": false,
      "taf_trigger": false,
      "metar": "METAR LKMT 161100Z 04004KT 010V070 6000 OVC026 M06/M09 Q1001 NOSIG",
      "taf": "TAF LKMT 160500Z 1606/1706 VRB02KT CAVOK"
    },
    {
      "icao": "LKPR",
      "alert": "OK",
      "vis_m": 9999,
      "fzfg": false,
      "metar_trigger": false,
      "taf_trigger": false,
      "metar": "METAR LKPR 161100Z 16003KT 9999 OVC013 M03/M05 Q0996 TEMPO 3000 SN",
      "taf": "TAF LKPR 160800Z 1609/1715 14007KT 6000 -SN OVC011"
    },
    {
      "icao": "LLBG",
      "alert": "OK",
      "vis_m": 8000,
      "fzfg": false,
      "metar_trigger": false,
      "taf_trigger": false,
      "metar": "METAR LLBG 161050Z 29006KT 8000 NSC 29/07 Q1011 BECMG 6000 NSC",
      "taf": "TAF LLBG 160502Z 1606/1706 VRB04KT 8000 NSC"
    },
    {
      "icao": "LMML",
      "alert": "OK",
      "vis_m": 9999,
      "fzfg": false,
      "metar_trigger": false,
      "taf_trigger": false,
      "metar": "METAR LMML 161045Z 28017KT 9999 FEW017 SCT049 13/12 Q1015 NOSIG",
      "taf": ""
    },
    {
      "icao": "LOWW",
      "alert": "OK",
      "vis_m": 2500,
      "fzfg": false,
      "metar_trigger": false,
      "taf_trigger": false,
      "metar": "METAR LOWW 161050Z 15010KT 2500 -SN VV009 M00/M05 Q1001 TEMPO 1200 SN VV006",
      "taf": "TAF LOWW 160815Z 1609/1715 13012KT 9999 BKN030 TX04/1714Z TNM03/1609Z"
    },
    {
      "icao": "LPFR",
      "alert": "OK",
      "vis_m": 9999,
      "fzfg": false,
      "metar_trigger": false,
      "taf_trigger": false,
      "metar": "METAR LPFR 161100Z 28005KT 9999 BKN030 15/10 Q1033",
      "taf": "TAF LPFR 160500Z 1606/1706 VRB05KT 9999 BKN030"
    },
    {
      "icao": "LPMA",
      "alert": "OK",
      "vis_m": 9999,
      "fzfg": false,
      "metar_trigger": false,
      "taf_trigger": false,
      "metar": "METAR LPMA 161100Z 03006KT 360V070 9999 BKN014 18/13 Q1032",
      "taf": ""
    },
    {
      "icao": "LPPR",
      "alert": "OK",
      "vis_m": 7000,
      "fzfg": false,
      "metar_trigger": false,
      "taf_trigger": false,
      "metar": "METAR LPPR 161100Z 25007KT 210V300 7000 SCT003 BKN005 14/13 Q1028",
      "taf": ""
    },
    {
      "icao": "LPPS",
      "alert": "OK",
      "vis_m": 9999,
      "fzfg": false,
      "metar_trigger": false,
      "taf_trigger": false,
      "metar": "METAR LPPS 161100Z 11014KT 9999 BKN014 17/13 Q1032",
      "taf": ""
    },
    {
      "icao": "LPPT",
      "alert": "OK",
      "vis_m": 9999,
      "fzfg": false,
      "metar_trigger": false,
      "taf_trigger": false,
      "metar": "METAR LPPT 161100Z 27008KT 240V300 9999 FEW012 BKN032 15/10 Q1032",
      "taf": "TAF LPPT 160500Z 1606/1712 26010KT 9999 SCT020"
    },
    {
      "icao": "LQBK",
      "alert": "OK",
      "vis_m": 9999,
      "fzfg": false,
      "metar_trigger": false,
      "taf_trigger": false,
      "metar": "METAR LQBK 161100Z 13003KT 090V210 CAVOK 02/M01 Q1004 NOSIG",
      "taf": "TAF LQBK 161100Z 1612/1712 14004KT 9999 SCT040 TX04/1613Z TN00/1706Z"
    },
    {
      "icao": "LQSA",
      "alert": "OK",
      "vis_m": 9999,
      "fzfg": false,
      "metar_trigger": false,
      "taf_trigger": false,
      "metar": "METAR LQSA 161100Z VRB03KT CAVOK 05/01 Q1004 NOSIG",
      "taf": "TAF LQSA 161100Z 1612/1712 VRB02KT 9999 SCT035 TX07/1614Z TNM01/1706Z"
    },
    {
      "icao": "LQTZ",
      "alert": "OK",
      "vis_m": 9999,
      "fzfg": false,
      "metar_trigger": false,
      "taf_trigger": false,
      "metar": "METAR LQTZ 161100Z 13003KT 080V210 CAVOK 04/01 Q1004",
      "taf": "TAF LQTZ 161100Z 1612/1712 09005KT 9999 SCT055 TX07/1614Z TN00/1706Z"
    },
    {
      "icao": "LRBC",
      "alert": "OK",
      "vis_m": 9999,
      "fzfg": false,
      "metar_trigger": false,
      "taf_trigger": false,
      "metar": "METAR LRBC 161100Z VRB01KT 9999 FEW046 02/M05 Q1007",
      "taf": "TAF LRBC 160800Z 1609/1618 01008KT 9999 BKN050"
    },
    {
      "icao": "LRBS",
      "alert": "OK",
      "vis_m": 9999,
      "fzfg": false,
      "metar_trigger": false,
      "taf_trigger": false,
      "metar": "METAR LRBS 161100Z 09005KT 9999 OVC010 04/01 Q1007 NOSIG",
      "taf": ""
    },
    {
      "icao": "LRBV",
      "alert": "OK",
      "vis_m": 9999,
      "fzfg": false,
      "metar_trigger": false,
      "taf_trigger": false,
      "metar": "METAR LRBV 161100Z 27003KT 220V340 9999 SCT021 BKN029 02/M03 Q1005",
      "taf": "TAF LRBV 160800Z 1609/1618 VRB04KT 9999 BKN035"
    },
    {
      "icao": "LRCL",
      "alert": "OK",
      "vis_m": 9999,
      "fzfg": false,
      "metar_trigger": false,
      "taf_trigger": false,
      "metar": "METAR LRCL 161100Z 11004KT 060V160 9999 BKN015 M01/M05 Q1006",
      "taf": "TAF LRCL 160800Z 1609/1618 VRB04KT 9999 OVC015"
    },
    {
      "icao": "LRCV",
      "alert": "OK",
      "vis_m": 9999,
      "fzfg": false,
      "metar_trigger": false,
      "taf_trigger": false,
      "metar": "METAR LRCV 161100Z 29009KT CAVOK 07/M00 Q1006",
      "taf": "TAF LRCV 160800Z 1609/1618 27012KT CAVOK"
    },
    {
      "icao": "LRIA",
      "alert": "OK",
      "vis_m": 9999,
      "fzfg": false,
      "metar_trigger": false,
      "taf_trigger": false,
      "metar": "METAR LRIA 161100Z 32005KT 290V360 9999 FEW019 M03/M08 Q1008",
      "taf": "TAF LRIA 160800Z 1609/1618 30010KT 9999 BKN045"
    },
    {
      "icao": "LROP",
      "alert": "OK",
      "vis_m": 6000,
      "fzfg": false,
      "metar_trigger": false,
      "taf_trigger": false,
      "metar": "METAR LROP 161100Z 04009KT 6000 BKN005 OVC007 02/01 Q1007 NOSIG",
      "taf": ""
    },
    {
      "icao": "LRSB",
      "alert": "OK",
      "vis_m": 9999,
      "fzfg": false,
      "metar_trigger": false,
      "taf_trigger": false,
      "metar": "METAR LRSB 161100Z VRB01KT 9999 SCT016 03/M02 Q1005",
      "taf": ""
    },
    {
      "icao": "LRSM",
      "alert": "OK",
      "vis_m": 9999,
      "fzfg": false,
      "metar_trigger": false,
      "taf_trigger": false,
      "metar": "METAR LRSM 161100Z 18004KT 150V240 CAVOK M00/M06 Q1007",
      "taf": "TAF LRSM 160800Z 1609/1618 VRB04KT CAVOK"
    },
    {
      "icao": "LRSV",
      "alert": "OK",
      "vis_m": 9999,
      "fzfg": false,
      "metar_trigger": false,
      "taf_trigger": false,
      "metar": "METAR LRSV 161100Z VRB02KT 9999 SCT015 M04/M07 Q1005",
      "taf": "TAF LRSV 160800Z 1609/1618 32005KT 9999 BKN035"
    },
    {
      "icao": "LRTM",
      "alert": "OK",
      "vis_m": 9999,
      "fzfg": false,
      "metar_trigger": false,
      "taf_trigger": false,
      "metar": "METAR LRTM 161100Z 10003KT 360V170 9999 BKN015 BKN032 01/M03 Q1006",
      "taf": "TAF LRTM 160800Z 1609/1618 VRB04KT 9999 BKN015 BKN035"
    },
    {
      "icao": "LRTR",
      "alert": "OK",
      "vis_m": 9999,
      "fzfg": false,
      "metar_trigger": false,
      "taf_trigger": false,
      "metar": "METAR LRTR 161100Z 20006KT 160V230 9999 BKN020 02/M02 Q1007 NOSIG",
      "taf": "TAF LRTR 160500Z 1606/1706 VRB04KT 9999 BKN015 BKN040"
    },
    {
      "icao": "LTAC",
      "alert": "OK",
      "vis_m": 9999,
      "fzfg": false,
      "metar_trigger": false,
      "taf_trigger": false,
      "metar": "METAR LTAC 161050Z 22017KT 9999 FEW040 BKN180 15/M02 Q1011 NOSIG RMK RWY21C 22016KT RWY03L 21016KT RWY21R 21015KT RWY03R 22015KT RWY21L 22018KT",
      "taf": "TAF LTAC 161040Z 1612/1712 21012KT 9999 SCT035 BKN100"
    },
    {
      "icao": "LTFM",
      "alert": "OK",
      "vis_m": 9999,
      "fzfg": false,
      "metar_trigger": false,
      "taf_trigger": false,
      "metar": "METAR LTFM 161050Z 21015KT 9999 FEW032 17/07 Q1006 NOSIG RMK RWY17L 21014KT RWY34L 21015KT RWY16R 22013KT 180V240 RWY36 22014KT RWY18 21014KT",
      "taf": "TAF LTFM 161040Z 1612/1718 24012KT CAVOK"
    },
    {
      "icao": "LUKK",
      "alert": "OK",
      "vis_m": 9999,
      "fzfg": false,
      "metar_trigger": false,
      "taf_trigger": false,
      "metar": "METAR LUKK 161100Z 30005KT 260V350 9999 SCT021 M02/M06 Q1007 NOSIG",
      "taf": "TAF LUKK 160507Z 1606/1706 32010KT 9999 BKN025"
    },
    {
      "icao": "LWOH",
      "alert": "OK",
      "vis_m": 9999,
      "fzfg": false,
      "metar_trigger": false,
      "taf_trigger": false,
      "metar": "METAR LWOH 161050Z 18011KT 9999 FEW020 SCT040 11/05 Q1007",
      "taf": "TAF LWOH 160830Z 1609/1709 20008KT 9999 SCT010 BKN040"
    },
    {
      "icao": "LWSK",
      "alert": "OK",
      "vis_m": 9999,
      "fzfg": false,
      "metar_trigger": false,
      "taf_trigger": false,
      "metar": "METAR LWSK 161050Z VRB02KT 9999 FEW015 SCT029 09/03 Q1007 NOSIG",
      "taf": "TAF LWSK 160830Z 1609/1709 VRB02KT 9999 FEW015 BKN035"
    },
    {
      "icao": "LYBE",
      "alert": "OK",
      "vis_m": 9999,
      "fzfg": false,
      "metar_trigger": false,
      "taf_trigger": false,
      "metar": "METAR LYBE 161100Z 14008KT CAVOK 04/M00 Q1006 NOSIG",
      "taf": "TAF LYBE 160500Z 1606/1706 14007KT 9999 SCT020 TX07/1613Z TNM03/1606Z"
    },
    {
      "icao": "LYNI",
      "alert": "OK",
      "vis_m": 9999,
      "fzfg": false,
      "metar_trigger": false,
      "taf_trigger": false,
      "metar": "METAR LYNI 161100Z 21004KT 120V270 9999 FEW020 SCT073 08/01 Q1007 NOSIG",
      "taf": "TAF LYNI 160500Z 1606/1706 19004KT 9999 SCT025 TX08/1613Z TN00/1606Z"
    },
    {
      "icao": "LYPG",
      "alert": "OK",
      "vis_m": 9999,
      "fzfg": false,
      "metar_trigger": false,
      "taf_trigger": false,
      "metar": "METAR LYPG 161100Z 11008KT 080V150 9999 FEW040 12/05 Q1008 NOSIG",
      "taf": "TAF LYPG 160500Z 1606/1706 36005KT 9999 SCT040 SCT070 TX13/1612Z TN05/1606Z"
    },
    {
      "icao": "LZIB",
      "alert": "OK",
      "vis_m": 4200,
      "fzfg": false,
      "metar_trigger": false,
      "taf_trigger": false,
      "metar": "METAR LZIB 161100Z 07007KT 4200 -SN FEW009 BKN011 OVC031 M03/M04 Q1003 TEMPO 4000 SN BKN009",
      "taf": ""
    },
    {
      "icao": "LZKZ",
      "alert": "OK",
      "vis_m": 9999,
      "fzfg": false,
      "metar_trigger": false,
      "taf_trigger": false,
      "metar": "METAR LZKZ 161100Z 18008KT 9999 SCT018 OVC033 M03/M06 Q1005 NOSIG",
      "taf": ""
    },
    {
      "icao": "LZTT",
      "alert": "OK",
      "vis_m": 9999,
      "fzfg": false,
      "metar_trigger": false,
      "taf_trigger": false,
      "metar": "METAR LZTT 161100Z VRB02KT 9999 FEW020 SCT067 M03/M08 Q1000 NOSIG",
      "taf": ""
    },
    {
      "icao": "OEJN",
      "alert": "OK",
      "vis_m": 7000,
      "fzfg": false,
      "metar_trigger": false,
      "taf_trigger": false,
      "metar": "METAR OEJN 161100Z 23010KT 7000 NSC 31/19 Q1011 NOSIG",
      "taf": "TAF OEJN 160500Z 1606/1712 25010KT CAVOK"
    },
    {
      "icao": "OEMA",
      "alert": "OK",
      "vis_m": 5000,
      "fzfg": false,
      "metar_trigger": false,
      "taf_trigger": false,
      "metar": "METAR OEMA 161100Z 11009KT 5000 DU NSC 29/M02 Q1019 NOSIG",
      "taf": "TAF OEMA 160500Z 1606/1712 09010KT 7000 NSC"
    },
    {
      "icao": "OJAI",
      "alert": "OK",
      "vis_m": 3000,
      "fzfg": false,
      "metar_trigger": false,
      "taf_trigger": false,
      "metar": "METAR OJAI 161100Z 06010KT 3000 DU NSC 23/00 Q1018 NOSIG",
      "taf": "TAF OJAI 160500Z 1606/1712 13010KT 3000 DU NSC"
    },
    {
      "icao": "OMAA",
      "alert": "OK",
      "vis_m": 9999,
      "fzfg": false,
      "metar_trigger": false,
      "taf_trigger": false,
      "metar": "METAR OMAA 161100Z 30016KT 9999 SCT035 24/16 Q1012 NOSIG",
      "taf": "TAF OMAA 160500Z 1606/1712 30014KT 7000 NSC"
    },
    {
      "icao": "OMDB",
      "alert": "OK",
      "vis_m": 7000,
      "fzfg": false,
      "metar_trigger": false,
      "taf_trigger": false,
      "metar": "METAR OMDB 161100Z 31009KT 270V340 7000 NSC 27/15 Q1010 NOSIG",
      "taf": "TAF OMDB 161100Z 1612/1718 33012KT 7000 NSC"
    },
    {
      "icao": "UAAA",
      "alert": "OK",
      "vis_m": 5000,
      "fzfg": false,
      "metar_trigger": false,
      "taf_trigger": false,
      "metar": "METAR UAAA 161100Z 00000MPS 5000 FU SCT050CB BKN100 08/02 Q1016 NOSIG",
      "taf": "TAF UAAA 160510Z 1606/1706 03002MPS 6000 SCT030 BKN050 TX07/1609Z TNM01/1702Z"
    },
    {
      "icao": "UBBB",
      "alert": "OK",
      "vis_m": 9999,
      "fzfg": false,
      "metar_trigger": false,
      "taf_trigger": false,
      "metar": "METAR UBBB 161100Z 19026G38KT 9999 FEW011 13/09 Q1014 NOSIG",
      "taf": "TAF UBBB 161052Z 1612/1712 17020G30KT 9999 SCT030 TX12/1612Z TN06/1701Z"
    },
    {
      "icao": "UDSG",
      "alert": "OK",
      "vis_m": 9999,
      "fzfg": false,
      "metar_trigger": false,
      "taf_trigger": false,
      "metar": "METAR UDSG 161100Z 19001KT 9999 NSC 04/M02 Q1024 NOSIG",
      "taf": "TAF UDSG 160458Z 1606/1706 VRB06KT 9999 FEW040"
    },
    {
      "icao": "UDYZ",
      "alert": "OK",
      "vis_m": 9999,
      "fzfg": false,
      "metar_trigger": false,
      "taf_trigger": false,
      "metar": "METAR UDYZ 161100Z VRB02KT 9999 NSC 13/01 Q1022 NOSIG",
      "taf": "TAF UDYZ 160500Z 1606/1706 VRB06KT 9999 NSC"
    },
    {
      "icao": "UGKO",
      "alert": "OK",
      "vis_m": 9999,
      "fzfg": false,
      "metar_trigger": false,
      "taf_trigger": false,
      "metar": "METAR UGKO 161100Z 09019KT CAVOK 23/04 Q1011 NOSIG",
      "taf": "TAF UGKO 161100Z 1612/1712 08017KT CAVOK TX23/1612Z TN13/1703Z"
    }
  ]
}