{
  "ts_utc": "2026-02-25T23:18:33Z",
  "threshold_m": 150,
  "source": "stations_override.txt (ICAO list) + aviationweather.gov (METAR/TAF raw)",
  "station_count": 159,
  "stations": [
    {
      "icao": "BIKF",
      "alert": "OK",
      "vis_m": 9999,
      "fzfg": false,
      "metar_trigger": false,
      "taf_trigger": false,
      "metar": "METAR BIKF 252300Z 15022KT 9999 FEW040 BKN050 02/M02 Q0986",
      "taf": "TAF BIKF 252219Z 2600/2700 16025G38KT 9999 -SHRA SCT015 BKN025 TX05/2606Z TNM03/2624Z"
    },
    {
      "icao": "BKPR",
      "alert": "OK",
      "vis_m": 9999,
      "fzfg": false,
      "metar_trigger": false,
      "taf_trigger": false,
      "metar": "METAR BKPR 252300Z 30007KT CAVOK 04/M01 Q1025 NOSIG",
      "taf": ""
    },
    {
      "icao": "EBCI",
      "alert": "OK",
      "vis_m": 9999,
      "fzfg": false,
      "metar_trigger": false,
      "taf_trigger": false,
      "metar": "METAR EBCI 252250Z 17009KT CAVOK 11/09 Q1020 NOSIG",
      "taf": "TAF EBCI 251700Z 2518/2624 18007KT CAVOK"
    },
    {
      "icao": "EDDB",
      "alert": "OK",
      "vis_m": 9999,
      "fzfg": false,
      "metar_trigger": false,
      "taf_trigger": false,
      "metar": "METAR EDDB 252250Z AUTO 13007KT CAVOK 03/02 Q1024 NOSIG",
      "taf": "TAF EDDB 251700Z 2518/2618 11006KT CAVOK"
    },
    {
      "icao": "EDDH",
      "alert": "OK",
      "vis_m": 9999,
      "fzfg": false,
      "metar_trigger": false,
      "taf_trigger": false,
      "metar": "METAR EDDH 252250Z AUTO 15007KT CAVOK 09/07 Q1019 NOSIG",
      "taf": "TAF EDDH 251700Z 2518/2624 15007KT CAVOK"
    },
    {
      "icao": "EDDK",
      "alert": "OK",
      "vis_m": 9999,
      "fzfg": false,
      "metar_trigger": false,
      "taf_trigger": false,
      "metar": "METAR EDDK 252250Z AUTO 13009KT CAVOK 11/08 Q1021 NOSIG",
      "taf": "TAF EDDK 251700Z 2518/2624 12008KT CAVOK"
    },
    {
      "icao": "EDDN",
      "alert": "OK",
      "vis_m": 9999,
      "fzfg": false,
      "metar_trigger": false,
      "taf_trigger": false,
      "metar": "METAR EDDN 252250Z AUTO 15006KT 9999 OVC005 06/05 Q1025",
      "taf": ""
    },
    {
      "icao": "EDDS",
      "alert": "OK",
      "vis_m": 9999,
      "fzfg": false,
      "metar_trigger": false,
      "taf_trigger": false,
      "metar": "METAR EDDS 252250Z AUTO 12002KT 9999 1100 R25/P2000N BR NSC 05/04 Q1023",
      "taf": "TAF EDDS 251700Z 2518/2618 VRB03KT CAVOK"
    },
    {
      "icao": "EDFH",
      "alert": "OK",
      "vis_m": 500,
      "fzfg": false,
      "metar_trigger": false,
      "taf_trigger": false,
      "metar": "METAR EDFH 252250Z 15008KT 0500 R21/P2000N FG NSC 06/06 Q1022",
      "taf": "TAF EDFH 251700Z 2518/2618 14010KT CAVOK"
    },
    {
      "icao": "EDJA",
      "alert": "OK",
      "vis_m": null,
      "fzfg": false,
      "metar_trigger": false,
      "taf_trigger": false,
      "metar": "",
      "taf": ""
    },
    {
      "icao": "EDLW",
      "alert": "OK",
      "vis_m": 9999,
      "fzfg": false,
      "metar_trigger": false,
      "taf_trigger": false,
      "metar": "METAR EDLW 252250Z AUTO 16011KT 9999 // NCD 12/07 Q1020",
      "taf": "TAF EDLW 251700Z 2518/2618 16008KT CAVOK"
    },
    {
      "icao": "EDNY",
      "alert": "OK",
      "vis_m": 500,
      "fzfg": false,
      "metar_trigger": false,
      "taf_trigger": false,
      "metar": "METAR EDNY 252250Z AUTO 04003KT 0500 0450 R06/0600U VV/// 05/05 Q1024",
      "taf": "TAF EDNY 251700Z 2518/2603 VRB02KT CAVOK"
    },
    {
      "icao": "EDSB",
      "alert": "OK",
      "vis_m": 550,
      "fzfg": false,
      "metar_trigger": false,
      "taf_trigger": false,
      "metar": "METAR EDSB 252250Z AUTO 19003KT 160V230 0550 0500 R21/0700U VV/// 07/07 Q1023",
      "taf": ""
    },
    {
      "icao": "EETN",
      "alert": "OK",
      "vis_m": 9999,
      "fzfg": false,
      "metar_trigger": false,
      "taf_trigger": false,
      "metar": "METAR EETN 252250Z 18007KT CAVOK M03/M09 Q1026",
      "taf": "TAF EETN 251730Z 2518/2618 18010KT CAVOK"
    },
    {
      "icao": "EFTU",
      "alert": "OK",
      "vis_m": 4900,
      "fzfg": false,
      "metar_trigger": false,
      "taf_trigger": false,
      "metar": "METAR EFTU 252250Z AUTO 20013KT 170V230 4900 -FZRASN OVC009 M01/M03 Q1021",
      "taf": "TAF EFTU 252036Z 2521/2621 19012G22KT 9999 BKN040"
    },
    {
      "icao": "EGBB",
      "alert": "OK",
      "vis_m": 9999,
      "fzfg": false,
      "metar_trigger": false,
      "taf_trigger": false,
      "metar": "METAR EGBB 252250Z 21008KT 180V240 9999 SCT016 12/09 Q1014",
      "taf": "TAF EGBB 252259Z 2600/2624 20010KT 9999 SCT016"
    },
    {
      "icao": "EGGP",
      "alert": "OK",
      "vis_m": 9999,
      "fzfg": false,
      "metar_trigger": false,
      "taf_trigger": false,
      "metar": "METAR EGGP 252250Z 21009KT 9999 FEW034 SCT042 10/09 Q1012",
      "taf": "TAF EGGP 252255Z 2600/2624 22012KT 9999 SCT025"
    },
    {
      "icao": "EGGW",
      "alert": "OK",
      "vis_m": 9999,
      "fzfg": false,
      "metar_trigger": false,
      "taf_trigger": false,
      "metar": "METAR EGGW 252250Z AUTO 21008KT 9999 NCD 10/08 Q1016",
      "taf": "TAF EGGW 252257Z 2600/2624 22009KT 9999 SCT018"
    },
    {
      "icao": "EGKK",
      "alert": "OK",
      "vis_m": 9999,
      "fzfg": false,
      "metar_trigger": false,
      "taf_trigger": false,
      "metar": "METAR EGKK 252250Z 22002KT CAVOK 09/08 Q1018",
      "taf": "TAF EGKK 252257Z 2600/2706 21004KT CAVOK"
    },
    {
      "icao": "EGNM",
      "alert": "OK",
      "vis_m": null,
      "fzfg": false,
      "metar_trigger": false,
      "taf_trigger": false,
      "metar": "",
      "taf": "TAF EGNM 251656Z 2518/2618 21011KT 9999 SCT020"
    },
    {
      "icao": "EGPD",
      "alert": "OK",
      "vis_m": 9999,
      "fzfg": false,
      "metar_trigger": false,
      "taf_trigger": false,
      "metar": "METAR EGPD 252250Z COR AUTO 16003KT 9999 NCD 08/07 Q1004 NOSIG",
      "taf": "TAF EGPD 252255Z 2600/2624 19009KT 9999 FEW018"
    },
    {
      "icao": "EGPF",
      "alert": "OK",
      "vis_m": 8000,
      "fzfg": false,
      "metar_trigger": false,
      "taf_trigger": false,
      "metar": "METAR EGPF 252250Z AUTO 22007KT 8000 BKN005 OVC045 10/09 Q1006",
      "taf": "TAF EGPF 252256Z 2600/2624 20007KT 9999 SCT025"
    },
    {
      "icao": "EHBK",
      "alert": "OK",
      "vis_m": 9999,
      "fzfg": false,
      "metar_trigger": false,
      "taf_trigger": false,
      "metar": "METAR EHBK 252255Z AUTO 18008KT 9999 NCD 11/09 Q1019",
      "taf": "TAF EHBK 251720Z 2518/2624 15005KT CAVOK"
    },
    {
      "icao": "EHEH",
      "alert": "OK",
      "vis_m": 9999,
      "fzfg": false,
      "metar_trigger": false,
      "taf_trigger": false,
      "metar": "METAR EHEH 252255Z AUTO 18006KT 9999 NCD 12/09 Q1019 BLU",
      "taf": "TAF EHEH 251757Z 2518/2624 16005KT CAVOK"
    },
    {
      "icao": "EKBI",
      "alert": "OK",
      "vis_m": 5000,
      "fzfg": false,
      "metar_trigger": false,
      "taf_trigger": false,
      "metar": "METAR EKBI 252250Z AUTO 15007KT 5000 BR NCD 05/05 Q1016",
      "taf": "TAF EKBI 252027Z 2521/2621 13008KT 7000 BKN020"
    },
    {
      "icao": "EKCH",
      "alert": "OK",
      "vis_m": 1200,
      "fzfg": false,
      "metar_trigger": false,
      "taf_trigger": false,
      "metar": "METAR EKCH 252250Z 16012KT 1200 R22L/P1500N R04L/P1500N R12/P1500N BR VV002 01/01 Q1021 BECMG 7000 NSW BKN008",
      "taf": ""
    },
    {
      "icao": "ENAL",
      "alert": "OK",
      "vis_m": 9999,
      "fzfg": false,
      "metar_trigger": false,
      "taf_trigger": false,
      "metar": "METAR ENAL 252250Z 13007KT 9999 -RA BKN042 05/04 Q1002",
      "taf": "TAF ENAL 252000Z 2521/2606 14007KT 9999 -RA FEW020 BKN030"
    },
    {
      "icao": "ENBR",
      "alert": "OK",
      "vis_m": 9999,
      "fzfg": false,
      "metar_trigger": false,
      "taf_trigger": false,
      "metar": "METAR ENBR 252250Z 14016KT 9999 -RA FEW005 SCT007 BKN009 06/05 Q1005 RMK WIND 1200FT 15025KT",
      "taf": "TAF ENBR 251700Z 2518/2618 16018KT 8000 -RADZ SCT004 BKN008"
    },
    {
      "icao": "ENGM",
      "alert": "OK",
      "vis_m": 6000,
      "fzfg": false,
      "metar_trigger": false,
      "taf_trigger": false,
      "metar": "METAR ENGM 252250Z 19008KT 6000 -FZDZ SCT003 BKN005 00/M01 Q1011",
      "taf": ""
    },
    {
      "icao": "ENHD",
      "alert": "OK",
      "vis_m": 2300,
      "fzfg": false,
      "metar_trigger": false,
      "taf_trigger": false,
      "metar": "METAR ENHD 252250Z 15016KT 2300 +RA SCT002 OVC003 06/05 Q1007 REDZRA",
      "taf": "TAF ENHD 251400Z 2515/2523 16018KT 9999 SCT006 BKN012"
    },
    {
      "icao": "ENTC",
      "alert": "OK",
      "vis_m": 9999,
      "fzfg": false,
      "metar_trigger": false,
      "taf_trigger": false,
      "metar": "METAR ENTC 252250Z 19019KT 9999 SCT035 BKN043 M04/M12 Q1004 RMK WIND 2600FT 17026KT",
      "taf": "TAF ENTC 251700Z 2518/2618 20025KT CAVOK"
    },
    {
      "icao": "ENTO",
      "alert": "OK",
      "vis_m": 800,
      "fzfg": false,
      "metar_trigger": false,
      "taf_trigger": false,
      "metar": "METAR ENTO 252250Z AUTO 19011KT 0800 R18/P2000N R36/P2000N +DZ VV003 01/01 Q1012 REDZRA",
      "taf": ""
    },
    {
      "icao": "ENVA",
      "alert": "OK",
      "vis_m": 9999,
      "fzfg": false,
      "metar_trigger": false,
      "taf_trigger": false,
      "metar": "METAR ENVA 252250Z 09005KT 060V130 9999 -RA OVC025 03/01 Q1006 RMK WIND 670FT 15016KT",
      "taf": "TAF ENVA 251700Z 2518/2618 09007KT 9999 -DZRA FEW020 BKN040"
    },
    {
      "icao": "ENZV",
      "alert": "OK",
      "vis_m": 8000,
      "fzfg": false,
      "metar_trigger": false,
      "taf_trigger": false,
      "metar": "METAR ENZV 252250Z 16012KT 8000 RA BKN006 BKN008 OVC015 06/05 Q1008",
      "taf": ""
    },
    {
      "icao": "EPGD",
      "alert": "OK",
      "vis_m": 9999,
      "fzfg": false,
      "metar_trigger": false,
      "taf_trigger": false,
      "metar": "METAR EPGD 252300Z 17005KT CAVOK M01/M04 Q1027",
      "taf": "TAF EPGD 251730Z 2518/2618 VRB02KT CAVOK"
    },
    {
      "icao": "EPKK",
      "alert": "OK",
      "vis_m": 9999,
      "fzfg": false,
      "metar_trigger": false,
      "taf_trigger": false,
      "metar": "METAR EPKK 252300Z VRB01KT CAVOK M03/M04 Q1029",
      "taf": "TAF EPKK 252030Z 2521/2621 VRB02KT CAVOK"
    },
    {
      "icao": "EPKT",
      "alert": "OK",
      "vis_m": 7000,
      "fzfg": false,
      "metar_trigger": false,
      "taf_trigger": false,
      "metar": "METAR EPKT 252300Z 06002KT 7000 NSC M04/M05 Q1028",
      "taf": ""
    },
    {
      "icao": "EPLB",
      "alert": "OK",
      "vis_m": 9999,
      "fzfg": false,
      "metar_trigger": false,
      "taf_trigger": false,
      "metar": "METAR EPLB 252300Z 28002KT 9999 OVC023 M01/M04 Q1030",
      "taf": "TAF EPLB 251730Z 2518/2618 02010KT 9999 BKN020"
    },
    {
      "icao": "EPMO",
      "alert": "OK",
      "vis_m": 9999,
      "fzfg": false,
      "metar_trigger": false,
      "taf_trigger": false,
      "metar": "METAR EPMO 252300Z 14004KT 090V220 9999 BKN018 M01/M04 Q1030",
      "taf": "TAF EPMO 251730Z 2518/2618 03004KT 9999 SCT025"
    },
    {
      "icao": "EPPO",
      "alert": "OK",
      "vis_m": 9999,
      "fzfg": false,
      "metar_trigger": false,
      "taf_trigger": false,
      "metar": "METAR EPPO 252300Z 14008KT CAVOK M01/M03 Q1027",
      "taf": "TAF EPPO 251730Z 2518/2618 14005KT CAVOK"
    },
    {
      "icao": "EPRA",
      "alert": "OK",
      "vis_m": 9999,
      "fzfg": false,
      "metar_trigger": false,
      "taf_trigger": false,
      "metar": "METAR EPRA 252300Z 10003KT 9999 FEW035 M02/M05 Q1029",
      "taf": "TAF EPRA 252030Z 2521/2606 08005KT 9999 BKN035"
    },
    {
      "icao": "EPRZ",
      "alert": "OK",
      "vis_m": 9999,
      "fzfg": false,
      "metar_trigger": false,
      "taf_trigger": false,
      "metar": "METAR EPRZ 252300Z 08007KT 9999 OVC028 M00/M04 Q1029",
      "taf": "TAF EPRZ 251730Z 2518/2618 36010KT 9999 BKN040"
    },
    {
      "icao": "EPSC",
      "alert": "OK",
      "vis_m": 9999,
      "fzfg": false,
      "metar_trigger": false,
      "taf_trigger": false,
      "metar": "METAR EPSC 252300Z 13012KT CAVOK 01/M01 Q1025",
      "taf": "TAF EPSC 251730Z 2518/2618 13006KT CAVOK"
    },
    {
      "icao": "EPSY",
      "alert": "OK",
      "vis_m": 7000,
      "fzfg": false,
      "metar_trigger": false,
      "taf_trigger": false,
      "metar": "METAR EPSY 252300Z 00000KT 7000 NSC M06/M06 Q1029",
      "taf": "TAF EPSY 252030Z 2521/2606 17005KT 9999 BKN025"
    },
    {
      "icao": "EPWA",
      "alert": "OK",
      "vis_m": 9999,
      "fzfg": false,
      "metar_trigger": false,
      "taf_trigger": false,
      "metar": "METAR EPWA 252300Z 12004KT 080V160 9999 BKN020 M01/M04 Q1029 NOSIG",
      "taf": "TAF EPWA 252030Z 2521/2621 VRB03KT 9999 BKN021"
    },
    {
      "icao": "EPWR",
      "alert": "OK",
      "vis_m": 9000,
      "fzfg": false,
      "metar_trigger": false,
      "taf_trigger": false,
      "metar": "METAR EPWR 252300Z 12006KT 9000 NSC M00/M01 Q1028",
      "taf": "TAF EPWR 252030Z 2521/2621 13005KT CAVOK"
    },
    {
      "icao": "ESGG",
      "alert": "OK",
      "vis_m": 9999,
      "fzfg": false,
      "metar_trigger": false,
      "taf_trigger": false,
      "metar": "METAR ESGG 252250Z 18013KT 9999 OVC004 02/02 Q1017",
      "taf": ""
    },
    {
      "icao": "ESKN",
      "alert": "OK",
      "vis_m": 9999,
      "fzfg": false,
      "metar_trigger": false,
      "taf_trigger": false,
      "metar": "METAR ESKN 252250Z 18007KT 150V220 9999 OVC014 01/M02 Q1018",
      "taf": ""
    },
    {
      "icao": "ESMS",
      "alert": "OK",
      "vis_m": 250,
      "fzfg": false,
      "metar_trigger": false,
      "taf_trigger": false,
      "metar": "METAR ESMS 252250Z 15010KT 0250 R17/1500D R35/0900N FG OVC002 01/01 Q1021",
      "taf": ""
    },
    {
      "icao": "ESSA",
      "alert": "OK",
      "vis_m": null,
      "fzfg": false,
      "metar_trigger": false,
      "taf_trigger": false,
      "metar": "",
      "taf": "TAF ESSA 252030Z 2521/2621 18015KT 9999 -SN SCT014 BKN015"
    },
    {
      "icao": "EYKA",
      "alert": "OK",
      "vis_m": 9999,
      "fzfg": false,
      "metar_trigger": false,
      "taf_trigger": false,
      "metar": "METAR EYKA 252250Z VRB02KT 9999 OVC015 M02/M05 Q1030",
      "taf": "TAF EYKA 252300Z 2600/2624 VRB03KT 9000 OVC015"
    },
    {
      "icao": "EYPA",
      "alert": "OK",
      "vis_m": 9999,
      "fzfg": false,
      "metar_trigger": false,
      "taf_trigger": false,
      "metar": "METAR EYPA 252250Z 15006KT CAVOK M04/M06 Q1028",
      "taf": "TAF EYPA 252300Z 2600/2624 17010KT 9000 NSC"
    },
    {
      "icao": "EYVI",
      "alert": "OK",
      "vis_m": 9999,
      "fzfg": false,
      "metar_trigger": false,
      "taf_trigger": false,
      "metar": "METAR EYVI 252250Z 04003KT 010V070 9999 OVC025 M03/M05 Q1028 NOSIG",
      "taf": "TAF EYVI 252300Z 2600/2624 VRB03KT 9000 OVC020"
    },
    {
      "icao": "GCFV",
      "alert": "OK",
      "vis_m": 9999,
      "fzfg": false,
      "metar_trigger": false,
      "taf_trigger": false,
      "metar": "METAR GCFV 252300Z 34012KT 9999 SCT045 16/12 Q1018",
      "taf": "TAF GCFV 252000Z 2521/2621 33015KT 9999 SCT020 TX20/2614Z TN13/2606Z"
    },
    {
      "icao": "GCLP",
      "alert": "OK",
      "vis_m": 9999,
      "fzfg": false,
      "metar_trigger": false,
      "taf_trigger": false,
      "metar": "METAR GCLP 252300Z 36010KT 330V030 9999 FEW025 BKN060 17/13 Q1018 NOSIG",
      "taf": "TAF GCLP 252000Z 2521/2621 36022KT 9999 SCT020 TX19/2614Z TN13/2606Z"
    },
    {
      "icao": "GCTS",
      "alert": "OK",
      "vis_m": 9999,
      "fzfg": false,
      "metar_trigger": false,
      "taf_trigger": false,
      "metar": "METAR GCTS 252300Z 20005KT 160V240 9999 BKN045 19/12 Q1018 NOSIG",
      "taf": "TAF GCTS 252000Z 2521/2621 VRB08KT 9999 FEW020 TX22/2614Z TN14/2606Z"
    },
    {
      "icao": "GMAD",
      "alert": "OK",
      "vis_m": 9999,
      "fzfg": false,
      "metar_trigger": false,
      "taf_trigger": false,
      "metar": "METAR GMAD 252300Z 14004KT 110V180 9999 SCT020 16/15 Q1015 NOSIG",
      "taf": "TAF GMAD 252300Z 2600/2706 18006KT 9999 SCT020 BKN080"
    },
    {
      "icao": "GMMN",
      "alert": "OK",
      "vis_m": 9999,
      "fzfg": false,
      "metar_trigger": false,
      "taf_trigger": false,
      "metar": "METAR GMMN 252300Z 29007KT CAVOK 12/11 Q1018 NOSIG",
      "taf": "TAF GMMN 252300Z 2600/2706 29007KT CAVOK"
    },
    {
      "icao": "GMMX",
      "alert": "OK",
      "vis_m": 9999,
      "fzfg": false,
      "metar_trigger": false,
      "taf_trigger": false,
      "metar": "METAR GMMX 252300Z 08006KT 9999 SCT026 SCT080 15/09 Q1016 NOSIG",
      "taf": "TAF GMMX 252300Z 2600/2706 06006KT 8000 SCT026 SCT100"
    },
    {
      "icao": "HEGN",
      "alert": "OK",
      "vis_m": 9999,
      "fzfg": false,
      "metar_trigger": false,
      "taf_trigger": false,
      "metar": "METAR HEGN 252300Z 28007KT CAVOK 16/04 Q1018 NOSIG",
      "taf": "TAF HEGN 252300Z 2600/2706 29010KT CAVOK"
    },
    {
      "icao": "HEMA",
      "alert": "OK",
      "vis_m": 9999,
      "fzfg": false,
      "metar_trigger": false,
      "taf_trigger": false,
      "metar": "METAR HEMA 252300Z 31010KT CAVOK 17/10 Q1017 NOSIG",
      "taf": "TAF HEMA 252300Z 2600/2706 26010KT CAVOK"
    },
    {
      "icao": "HESH",
      "alert": "OK",
      "vis_m": 9999,
      "fzfg": false,
      "metar_trigger": false,
      "taf_trigger": false,
      "metar": "METAR HESH 252300Z 34006KT CAVOK 18/08 Q1017 NOSIG",
      "taf": "TAF HESH 252300Z 2600/2706 34008KT CAVOK"
    },
    {
      "icao": "HESX",
      "alert": "OK",
      "vis_m": 9999,
      "fzfg": false,
      "metar_trigger": false,
      "taf_trigger": false,
      "metar": "METAR HESX 252300Z 36002KT CAVOK 11/07 Q1020 NOSIG",
      "taf": "TAF HESX 252300Z 2600/2706 28008KT 7000 NSC"
    },
    {
      "icao": "LATI",
      "alert": "OK",
      "vis_m": null,
      "fzfg": false,
      "metar_trigger": false,
      "taf_trigger": false,
      "metar": "",
      "taf": "TAF LATI 252300Z 2600/2624 VRB03KT CAVOK TX19/2612Z TN04/2605Z"
    },
    {
      "icao": "LBPD",
      "alert": "OK",
      "vis_m": 9999,
      "fzfg": false,
      "metar_trigger": false,
      "taf_trigger": false,
      "metar": "METAR LBPD 252300Z AUTO 30013KT 9999 -SHRA OVC070/// 08/00 Q1022",
      "taf": "TAF LBPD 252300Z 2600/2624 28014KT 9999 SCT040 BKN070"
    },
    {
      "icao": "LBSF",
      "alert": "OK",
      "vis_m": 9999,
      "fzfg": false,
      "metar_trigger": false,
      "taf_trigger": false,
      "metar": "METAR LBSF 252300Z AUTO 29006KT 9999 SCT051/// OVC063/// 05/M00 Q1023 NOSIG",
      "taf": "TAF LBSF 252300Z 2600/2624 30010KT 9999 SCT030 BKN050"
    },
    {
      "icao": "LBWN",
      "alert": "OK",
      "vis_m": 9999,
      "fzfg": false,
      "metar_trigger": false,
      "taf_trigger": false,
      "metar": "METAR LBWN 252300Z AUTO 02003KT 9999 -SHRA BKN049/// 04/04 Q1022 NOSIG",
      "taf": "TAF LBWN 252300Z 2600/2624 02012KT 9999 SCT030 BKN050"
    },
    {
      "icao": "LCLK",
      "alert": "OK",
      "vis_m": 9999,
      "fzfg": false,
      "metar_trigger": false,
      "taf_trigger": false,
      "metar": "METAR LCLK 252300Z 36008KT 9999 FEW030 SCT045 13/11 Q1012 NOSIG",
      "taf": "TAF LCLK 251730Z 2518/2618 23018KT 9999 FEW020TCU SCT050"
    },
    {
      "icao": "LCPH",
      "alert": "OK",
      "vis_m": 9999,
      "fzfg": false,
      "metar_trigger": false,
      "taf_trigger": false,
      "metar": "METAR LCPH 252300Z 33006KT 9999 FEW040 12/08 Q1013 NOSIG",
      "taf": "TAF LCPH 251730Z 2518/2618 26018KT 9999 FEW018 BKN040"
    },
    {
      "icao": "LEAL",
      "alert": "OK",
      "vis_m": 9999,
      "fzfg": false,
      "metar_trigger": false,
      "taf_trigger": false,
      "metar": "METAR LEAL 252300Z 29002KT CAVOK 11/10 Q1023 NOSIG",
      "taf": "TAF LEAL 251700Z 2518/2618 08010KT 9999 FEW015 TX21/2612Z TN07/2605Z"
    },
    {
      "icao": "LEBB",
      "alert": "OK",
      "vis_m": 9999,
      "fzfg": false,
      "metar_trigger": false,
      "taf_trigger": false,
      "metar": "METAR LEBB 252300Z AUTO 12003KT CAVOK 10/08 Q1024",
      "taf": "TAF LEBB 251700Z 2518/2618 13008KT CAVOK TX23/2614Z TN07/2606Z"
    },
    {
      "icao": "LEBL",
      "alert": "OK",
      "vis_m": 8000,
      "fzfg": false,
      "metar_trigger": false,
      "taf_trigger": false,
      "metar": "METAR LEBL 252300Z 02006KT 8000 BKN014 12/10 Q1025 NOSIG",
      "taf": ""
    },
    {
      "icao": "LECH",
      "alert": "OK",
      "vis_m": 3500,
      "fzfg": false,
      "metar_trigger": false,
      "taf_trigger": false,
      "metar": "METAR LECH 252300Z AUTO 00000KT 3500 BR NCD 07/06 Q1025",
      "taf": ""
    },
    {
      "icao": "LEMD",
      "alert": "OK",
      "vis_m": 9999,
      "fzfg": false,
      "metar_trigger": false,
      "taf_trigger": false,
      "metar": "METAR LEMD 252300Z 01003KT CAVOK 08/04 Q1022 NOSIG",
      "taf": "TAF LEMD 251700Z 2518/2624 VRB04KT CAVOK TX21/2615Z TN04/2607Z"
    },
    {
      "icao": "LEMG",
      "alert": "OK",
      "vis_m": 8000,
      "fzfg": false,
      "metar_trigger": false,
      "taf_trigger": false,
      "metar": "METAR LEMG 252300Z 28004KT 8000 FEW005 10/10 Q1021 NOSIG",
      "taf": "TAF LEMG 251700Z 2518/2618 13010KT 9999 FEW015 TX20/2614Z TN08/2607Z"
    },
    {
      "icao": "LEVC",
      "alert": "OK",
      "vis_m": 9999,
      "fzfg": false,
      "metar_trigger": false,
      "taf_trigger": false,
      "metar": "METAR LEVC 252300Z 04003KT 360V090 9999 OVC016 13/11 Q1025 NOSIG",
      "taf": "TAF LEVC 251700Z 2518/2618 07010KT 9999 FEW015 TX21/2612Z TN06/2605Z"
    },
    {
      "icao": "LEXJ",
      "alert": "OK",
      "vis_m": 9999,
      "fzfg": false,
      "metar_trigger": false,
      "taf_trigger": false,
      "metar": "METAR LEXJ 252300Z AUTO 00000KT CAVOK 10/08 Q1023",
      "taf": "TAF LEXJ 252000Z 2521/2621 22009KT CAVOK TX17/2614Z TN08/2606Z"
    },
    {
      "icao": "LEZG",
      "alert": "OK",
      "vis_m": 9999,
      "fzfg": false,
      "metar_trigger": false,
      "taf_trigger": false,
      "metar": "METAR LEZG 252300Z 11005KT CAVOK 11/08 Q1023 NOSIG",
      "taf": "TAF LEZG 251700Z 2518/2618 11010KT CAVOK TX20/2615Z TN05/2606Z"
    },
    {
      "icao": "LEZL",
      "alert": "OK",
      "vis_m": 9999,
      "fzfg": false,
      "metar_trigger": false,
      "taf_trigger": false,
      "metar": "METAR LEZL 252300Z 04002KT CAVOK 14/12 Q1019 NOSIG",
      "taf": "TAF LEZL 252000Z 2521/2621 VRB02KT CAVOK TX24/2615Z TN09/2607Z"
    },
    {
      "icao": "LFBD",
      "alert": "OK",
      "vis_m": 9999,
      "fzfg": false,
      "metar_trigger": false,
      "taf_trigger": false,
      "metar": "METAR LFBD 252300Z AUTO 15008KT CAVOK 12/08 Q1023 BECMG 4000 BR",
      "taf": "TAF LFBD 251700Z 2518/2624 12010KT CAVOK TX20/2615Z TN07/2606Z"
    },
    {
      "icao": "LFLL",
      "alert": "OK",
      "vis_m": 9999,
      "fzfg": false,
      "metar_trigger": false,
      "taf_trigger": false,
      "metar": "METAR LFLL 252300Z 17011KT CAVOK 12/07 Q1024 NOSIG",
      "taf": "TAF LFLL 251700Z 2518/2624 17010KT CAVOK"
    },
    {
      "icao": "LFLS",
      "alert": "OK",
      "vis_m": 9999,
      "fzfg": false,
      "metar_trigger": false,
      "taf_trigger": false,
      "metar": "METAR LFLS 252300Z AUTO 09004KT 070V190 CAVOK 04/03 Q1025",
      "taf": "TAF LFLS 251400Z 2515/2615 20010KT CAVOK"
    },
    {
      "icao": "LFMN",
      "alert": "OK",
      "vis_m": 9999,
      "fzfg": false,
      "metar_trigger": false,
      "taf_trigger": false,
      "metar": "METAR LFMN 252300Z 33008KT CAVOK 11/09 Q1026 NOSIG",
      "taf": "TAF LFMN 252000Z 2521/2703 34010KT 9999 FEW030"
    },
    {
      "icao": "LFOB",
      "alert": "OK",
      "vis_m": 9999,
      "fzfg": false,
      "metar_trigger": false,
      "taf_trigger": false,
      "metar": "METAR LFOB 252300Z AUTO 10003KT CAVOK 08/07 Q1019 TEMPO 0900 FG VV///",
      "taf": ""
    },
    {
      "icao": "LFPO",
      "alert": "OK",
      "vis_m": 9999,
      "fzfg": false,
      "metar_trigger": false,
      "taf_trigger": false,
      "metar": "METAR LFPO 252300Z 21001KT CAVOK 13/08 Q1020 NOSIG",
      "taf": "TAF LFPO 251700Z 2518/2624 17005KT CAVOK"
    },
    {
      "icao": "LFSB",
      "alert": "OK",
      "vis_m": 400,
      "fzfg": false,
      "metar_trigger": false,
      "taf_trigger": false,
      "metar": "METAR LFSB 252300Z AUTO 32004KT 0400 0350 R15/0400N R33/0550N FG VV/// 06/06 Q1023 TEMPO 0300 FG",
      "taf": ""
    },
    {
      "icao": "LGAV",
      "alert": "OK",
      "vis_m": 9999,
      "fzfg": false,
      "metar_trigger": false,
      "taf_trigger": false,
      "metar": "METAR LGAV 252250Z 26003KT 9999 FEW025 04/M00 Q1023 NOSIG",
      "taf": "TAF LGAV 252300Z 2600/2624 28010KT 9999 FEW025"
    },
    {
      "icao": "LGTS",
      "alert": "OK",
      "vis_m": 9999,
      "fzfg": false,
      "metar_trigger": false,
      "taf_trigger": false,
      "metar": "METAR LGTS 252250Z VRB02KT 9999 FEW030 09/01 Q1022 NOSIG",
      "taf": "TAF LGTS 252300Z 2600/2624 34015KT 9999 FEW030"
    },
    {
      "icao": "LHBP",
      "alert": "OK",
      "vis_m": 9999,
      "fzfg": false,
      "metar_trigger": false,
      "taf_trigger": false,
      "metar": "METAR LHBP 252300Z 11008KT 9999 BKN034 03/M01 Q1028 NOSIG",
      "taf": "TAF LHBP 251715Z 2518/2618 33007KT CAVOK"
    },
    {
      "icao": "LHDC",
      "alert": "OK",
      "vis_m": 9999,
      "fzfg": false,
      "metar_trigger": false,
      "taf_trigger": false,
      "metar": "METAR LHDC 252245Z AUTO 04011KT CAVOK 01/M02 Q1027",
      "taf": "TAF LHDC 251415Z 2515/2524 22007KT CAVOK"
    },
    {
      "icao": "LIBD",
      "alert": "OK",
      "vis_m": 9999,
      "fzfg": false,
      "metar_trigger": false,
      "taf_trigger": false,
      "metar": "METAR LIBD 252250Z 22006KT CAVOK 05/04 Q1025",
      "taf": "TAF LIBD 251700Z 2518/2618 25006KT CAVOK"
    },
    {
      "icao": "LIBG",
      "alert": "OK",
      "vis_m": null,
      "fzfg": false,
      "metar_trigger": false,
      "taf_trigger": false,
      "metar": "",
      "taf": "TAF LIBG 251700Z 2518/2603 35006KT CAVOK"
    },
    {
      "icao": "LIBP",
      "alert": "OK",
      "vis_m": 6000,
      "fzfg": false,
      "metar_trigger": false,
      "taf_trigger": false,
      "metar": "METAR LIBP 252250Z AUTO 22004KT 6000 NCD 06/06 Q1027",
      "taf": "TAF LIBP 251700Z 2518/2618 VRB05KT CAVOK"
    },
    {
      "icao": "LIBR",
      "alert": "OK",
      "vis_m": 9999,
      "fzfg": false,
      "metar_trigger": false,
      "taf_trigger": false,
      "metar": "METAR LIBR 252250Z 30006KT CAVOK 09/06 Q1025",
      "taf": "TAF LIBR 251700Z 2518/2618 35010KT CAVOK"
    },
    {
      "icao": "LICA",
      "alert": "OK",
      "vis_m": 9999,
      "fzfg": false,
      "metar_trigger": false,
      "taf_trigger": false,
      "metar": "METAR LICA 252250Z AUTO 08005KT 9999 BKN026/// 08/07 Q1026",
      "taf": "TAF LICA 251700Z 2518/2618 VRB05KT 9999 FEW030"
    },
    {
      "icao": "LICC",
      "alert": "OK",
      "vis_m": 9999,
      "fzfg": false,
      "metar_trigger": false,
      "taf_trigger": false,
      "metar": "METAR LICC 252250Z 24004KT 190V270 9999 FEW035 13/10 Q1025",
      "taf": "TAF LICC 251700Z 2518/2618 VRB05KT CAVOK"
    },
    {
      "icao": "LICJ",
      "alert": "OK",
      "vis_m": 9999,
      "fzfg": false,
      "metar_trigger": false,
      "taf_trigger": false,
      "metar": "METAR LICJ 252250Z 19005KT CAVOK 11/09 Q1025",
      "taf": "TAF LICJ 251700Z 2518/2618 08010KT CAVOK"
    },
    {
      "icao": "LIMC",
      "alert": "OK",
      "vis_m": 9999,
      "fzfg": false,
      "metar_trigger": false,
      "taf_trigger": false,
      "metar": "METAR LIMC 252250Z 02004KT CAVOK 03/02 Q1027 NOSIG",
      "taf": "TAF LIMC 251700Z 2518/2624 VRB04KT 7000 BKN030"
    },
    {
      "icao": "LIME",
      "alert": "OK",
      "vis_m": 7000,
      "fzfg": false,
      "metar_trigger": false,
      "taf_trigger": false,
      "metar": "METAR LIME 252250Z 01003KT 7000 FEW035 07/06 Q1026 NOSIG",
      "taf": "TAF LIME 251700Z 2518/2618 VRB05KT 8000 SCT035"
    },
    {
      "icao": "LIMF",
      "alert": "OK",
      "vis_m": 9999,
      "fzfg": false,
      "metar_trigger": false,
      "taf_trigger": false,
      "metar": "METAR LIMF 252250Z 30007KT CAVOK 08/04 Q1027",
      "taf": "TAF LIMF 251700Z 2518/2618 VRB04KT 5000 BR BKN025"
    },
    {
      "icao": "LIMJ",
      "alert": "OK",
      "vis_m": 9999,
      "fzfg": false,
      "metar_trigger": false,
      "taf_trigger": false,
      "metar": "METAR LIMJ 252250Z 04012KT CAVOK 13/07 Q1026",
      "taf": "TAF LIMJ 251700Z 2518/2618 04012KT 9999 FEW030"
    },
    {
      "icao": "LIPE",
      "alert": "OK",
      "vis_m": 5000,
      "fzfg": false,
      "metar_trigger": false,
      "taf_trigger": false,
      "metar": "METAR LIPE 252250Z 28004KT 5000 BR BKN025 12/10 Q1027",
      "taf": "TAF LIPE 251700Z 2518/2618 VRB03KT 6000 BKN040"
    },
    {
      "icao": "LIPH",
      "alert": "OK",
      "vis_m": 7000,
      "fzfg": false,
      "metar_trigger": false,
      "taf_trigger": false,
      "metar": "METAR LIPH 252250Z AUTO 06002KT 7000 NCD 06/06 Q1026",
      "taf": "TAF LIPH 251700Z 2518/2618 VRB04KT CAVOK"
    },
    {
      "icao": "LIPQ",
      "alert": "OK",
      "vis_m": 9999,
      "fzfg": false,
      "metar_trigger": false,
      "taf_trigger": false,
      "metar": "METAR LIPQ 252250Z AUTO 10003KT 9999 NCD 05/05 Q1027",
      "taf": ""
    },
    {
      "icao": "LIPR",
      "alert": "OK",
      "vis_m": 7000,
      "fzfg": false,
      "metar_trigger": false,
      "taf_trigger": false,
      "metar": "METAR LIPR 252250Z AUTO 22001KT 7000 OVC040/// 12/10 Q1027",
      "taf": "TAF LIPR 251700Z 2518/2618 VRB04KT 4000 BR BKN030"
    },
    {
      "icao": "LIPX",
      "alert": "OK",
      "vis_m": 6000,
      "fzfg": false,
      "metar_trigger": false,
      "taf_trigger": false,
      "metar": "METAR LIPX 252250Z 26003KT 6000 NSC 07/06 Q1026",
      "taf": "TAF LIPX 251700Z 2518/2618 VRB05KT 8000 BKN035"
    },
    {
      "icao": "LIPY",
      "alert": "OK",
      "vis_m": 3600,
      "fzfg": false,
      "metar_trigger": false,
      "taf_trigger": false,
      "metar": "METAR LIPY 252250Z AUTO 18002KT 3600 BR SCT041/// 09/08 Q1027",
      "taf": ""
    },
    {
      "icao": "LIPZ",
      "alert": "OK",
      "vis_m": 5000,
      "fzfg": false,
      "metar_trigger": false,
      "taf_trigger": false,
      "metar": "METAR LIPZ 252250Z 22004KT 5000 R04R/1300D BR MIFG NSC 08/08 Q1026 BECMG 2000 BCFG",
      "taf": "TAF LIPZ 251700Z 2518/2624 VRB04KT CAVOK"
    },
    {
      "icao": "LIRF",
      "alert": "OK",
      "vis_m": 9999,
      "fzfg": false,
      "metar_trigger": false,
      "taf_trigger": false,
      "metar": "METAR LIRF 252250Z 36002KT 9999 MIFG NSC 08/08 Q1025 NOSIG",
      "taf": "TAF LIRF 251700Z 2518/2624 VRB05KT 9999 FEW030"
    },
    {
      "icao": "LIRN",
      "alert": "OK",
      "vis_m": 9999,
      "fzfg": false,
      "metar_trigger": false,
      "taf_trigger": false,
      "metar": "METAR LIRN 252250Z 26003KT CAVOK 09/07 Q1025 NOSIG",
      "taf": "TAF LIRN 251700Z 2518/2618 VRB05KT CAVOK"
    },
    {
      "icao": "LIRP",
      "alert": "OK",
      "vis_m": 500,
      "fzfg": false,
      "metar_trigger": false,
      "taf_trigger": false,
      "metar": "METAR LIRP 252245Z 15002KT 0500 R04R/0600 FG NSC 08/08 Q1026 NOSIG",
      "taf": "TAF LIRP 251700Z 2518/2618 27006KT 9999 MIFG FEW030"
    },
    {
      "icao": "LIRZ",
      "alert": "OK",
      "vis_m": 9999,
      "fzfg": false,
      "metar_trigger": false,
      "taf_trigger": false,
      "metar": "METAR LIRZ 252250Z AUTO VRB01KT 9999 NCD 07/06 Q1026",
      "taf": "TAF LIRZ 251700Z 2518/2618 VRB05KT 8000 FEW030"
    },
    {
      "icao": "LJLJ",
      "alert": "OK",
      "vis_m": 9999,
      "fzfg": false,
      "metar_trigger": false,
      "taf_trigger": false,
      "metar": "METAR LJLJ 252300Z 01001KT CAVOK 02/01 Q1026 NOSIG",
      "taf": "TAF LJLJ 252300Z 2600/2700 VRB02KT CAVOK"
    },
    {
      "icao": "LKMT",
      "alert": "OK",
      "vis_m": 9999,
      "fzfg": false,
      "metar_trigger": false,
      "taf_trigger": false,
      "metar": "METAR LKMT 252300Z 01003KT 9999 SCT018 BKN023 02/01 Q1028 NOSIG",
      "taf": "TAF LKMT 251700Z 2518/2618 02007KT CAVOK"
    },
    {
      "icao": "LKPR",
      "alert": "OK",
      "vis_m": 9999,
      "fzfg": false,
      "metar_trigger": false,
      "taf_trigger": false,
      "metar": "METAR LKPR 252300Z 15004KT CAVOK 02/02 Q1025 NOSIG",
      "taf": "TAF LKPR 252000Z 2521/2703 17005KT CAVOK"
    },
    {
      "icao": "LLBG",
      "alert": "OK",
      "vis_m": 9999,
      "fzfg": false,
      "metar_trigger": false,
      "taf_trigger": false,
      "metar": "METAR LLBG 252250Z 17004KT CAVOK 13/08 Q1017 NOSIG",
      "taf": "TAF LLBG 252306Z 2600/2624 19008KT 9999 SCT040 TX18/2612Z TN12/2604Z"
    },
    {
      "icao": "LMML",
      "alert": "OK",
      "vis_m": 9999,
      "fzfg": false,
      "metar_trigger": false,
      "taf_trigger": false,
      "metar": "METAR LMML 252315Z 08004KT 9999 SCT013 13/11 Q1025 BECMG BKN013",
      "taf": "TAF LMML 252300Z 2600/2624 VRB06KT 9999 SCT015"
    },
    {
      "icao": "LOWW",
      "alert": "OK",
      "vis_m": 9999,
      "fzfg": false,
      "metar_trigger": false,
      "taf_trigger": false,
      "metar": "METAR LOWW 252250Z VRB01KT CAVOK 04/03 Q1027 NOSIG",
      "taf": "TAF LOWW 252315Z 2600/2706 VRB04KT CAVOK TX09/2614Z TNM00/2705Z"
    },
    {
      "icao": "LPFR",
      "alert": "OK",
      "vis_m": 9999,
      "fzfg": false,
      "metar_trigger": false,
      "taf_trigger": false,
      "metar": "METAR LPFR 252300Z 06008KT 9999 FEW010 SCT014 15/13 Q1019",
      "taf": "TAF LPFR 252300Z 2600/2624 07007KT CAVOK"
    },
    {
      "icao": "LPMA",
      "alert": "OK",
      "vis_m": 9999,
      "fzfg": false,
      "metar_trigger": false,
      "taf_trigger": false,
      "metar": "METAR LPMA 252300Z 36018G28KT 330V040 9999 FEW015 15/09 Q1022",
      "taf": "TAF LPMA 252300Z 2600/2624 01017G27KT 9999 SCT015"
    },
    {
      "icao": "LPPR",
      "alert": "OK",
      "vis_m": 6000,
      "fzfg": false,
      "metar_trigger": false,
      "taf_trigger": false,
      "metar": "METAR LPPR 252300Z 03003KT 360V060 6000 NSC 11/10 Q1022",
      "taf": "TAF LPPR 252300Z 2600/2624 VRB02KT 5000 BR NSC"
    },
    {
      "icao": "LPPS",
      "alert": "OK",
      "vis_m": 9999,
      "fzfg": false,
      "metar_trigger": false,
      "taf_trigger": false,
      "metar": "METAR LPPS 252300Z 01015KT 9999 SCT014 15/10 Q1022",
      "taf": "TAF LPPS 252300Z 2600/2706 01015KT 9999 SCT015 SCT030"
    },
    {
      "icao": "LPPT",
      "alert": "OK",
      "vis_m": 9999,
      "fzfg": false,
      "metar_trigger": false,
      "taf_trigger": false,
      "metar": "METAR LPPT 252300Z 32009KT 9999 FEW008 13/12 Q1020",
      "taf": "TAF LPPT 252300Z 2600/2706 35008KT CAVOK"
    },
    {
      "icao": "LQBK",
      "alert": "OK",
      "vis_m": 9999,
      "fzfg": false,
      "metar_trigger": false,
      "taf_trigger": false,
      "metar": "METAR LQBK 252300Z 14004KT CAVOK 03/01 Q1027 NOSIG",
      "taf": "TAF LQBK 252300Z 2600/2624 16005KT CAVOK TX15/2613Z TN01/2606Z"
    },
    {
      "icao": "LQSA",
      "alert": "OK",
      "vis_m": 9999,
      "fzfg": false,
      "metar_trigger": false,
      "taf_trigger": false,
      "metar": "METAR LQSA 252300Z VRB01KT CAVOK 00/00 Q1027",
      "taf": "TAF LQSA 252300Z 2600/2624 VRB02KT CAVOK TX15/2614Z TNM01/2605Z"
    },
    {
      "icao": "LQTZ",
      "alert": "OK",
      "vis_m": 9999,
      "fzfg": false,
      "metar_trigger": false,
      "taf_trigger": false,
      "metar": "METAR LQTZ 252300Z 00000KT CAVOK 00/00 Q1027",
      "taf": "TAF LQTZ 252300Z 2600/2624 VRB02KT CAVOK TX14/2614Z TNM01/2606Z"
    },
    {
      "icao": "LRBC",
      "alert": "OK",
      "vis_m": 9999,
      "fzfg": false,
      "metar_trigger": false,
      "taf_trigger": false,
      "metar": "METAR LRBC 252300Z 33011KT 9999 BKN023 BKN042 OVC053 01/M01 Q1026",
      "taf": "TAF LRBC 252000Z 2521/2606 34012KT 9999 BKN030"
    },
    {
      "icao": "LRBS",
      "alert": "OK",
      "vis_m": 9999,
      "fzfg": false,
      "metar_trigger": false,
      "taf_trigger": false,
      "metar": "METAR LRBS 252300Z 08009KT CAVOK 01/M00 Q1024 NOSIG",
      "taf": "TAF LRBS 251700Z 2518/2618 07010KT CAVOK"
    },
    {
      "icao": "LRBV",
      "alert": "OK",
      "vis_m": 1300,
      "fzfg": false,
      "metar_trigger": false,
      "taf_trigger": false,
      "metar": "METAR LRBV 252300Z AUTO 09011KT 050V120 1300 1100 R21/1900N +FZUP BKN003/// OVC005/// M01/M02 Q1023 RERASN RESN REUP",
      "taf": "TAF LRBV 252000Z 2521/2606 27008KT 9999 BKN020 BKN040"
    },
    {
      "icao": "LRCL",
      "alert": "OK",
      "vis_m": 9999,
      "fzfg": false,
      "metar_trigger": false,
      "taf_trigger": false,
      "metar": "METAR LRCL 252300Z 34006KT 310V020 CAVOK M00/M03 Q1025",
      "taf": "TAF LRCL 252000Z 2521/2606 28008KT 9999 BKN040"
    },
    {
      "icao": "LRCV",
      "alert": "OK",
      "vis_m": 9999,
      "fzfg": false,
      "metar_trigger": false,
      "taf_trigger": false,
      "metar": "METAR LRCV 252300Z 03004KT CAVOK 02/01 Q1023",
      "taf": "TAF LRCV 252000Z 2521/2606 26008KT CAVOK"
    },
    {
      "icao": "LRIA",
      "alert": "OK",
      "vis_m": 9999,
      "fzfg": false,
      "metar_trigger": false,
      "taf_trigger": false,
      "metar": "METAR LRIA 252300Z 31008KT CAVOK 00/M02 Q1026",
      "taf": "TAF LRIA 252000Z 2521/2606 32013KT 9999 BKN030"
    },
    {
      "icao": "LROP",
      "alert": "OK",
      "vis_m": 7000,
      "fzfg": false,
      "metar_trigger": false,
      "taf_trigger": false,
      "metar": "METAR LROP 252300Z 08011KT 7000 NSC 01/M00 Q1024 NOSIG",
      "taf": "TAF LROP 251700Z 2518/2618 07010KT CAVOK"
    },
    {
      "icao": "LRSB",
      "alert": "OK",
      "vis_m": 9999,
      "fzfg": false,
      "metar_trigger": false,
      "taf_trigger": false,
      "metar": "METAR LRSB 252300Z 33006KT 9999 BKN045 02/M01 Q1024",
      "taf": "TAF LRSB 251700Z 2518/2618 VRB04KT 9999 BKN045"
    },
    {
      "icao": "LRSM",
      "alert": "OK",
      "vis_m": 9999,
      "fzfg": false,
      "metar_trigger": false,
      "taf_trigger": false,
      "metar": "METAR LRSM 252300Z AUTO 01007KT 9999 NCD 00/M04 Q1028",
      "taf": "TAF LRSM 251400Z 2515/2524 25010KT 9999 BKN045"
    },
    {
      "icao": "LRSV",
      "alert": "OK",
      "vis_m": 9999,
      "fzfg": false,
      "metar_trigger": false,
      "taf_trigger": false,
      "metar": "METAR LRSV 252300Z 31012KT 9999 BKN021 M02/M04 Q1025",
      "taf": "TAF LRSV 252000Z 2521/2606 32014KT 9999 BKN030"
    },
    {
      "icao": "LRTM",
      "alert": "OK",
      "vis_m": 9999,
      "fzfg": false,
      "metar_trigger": false,
      "taf_trigger": false,
      "metar": "METAR LRTM 252300Z AUTO 33012KT 9999 BKN045/// 01/M02 Q1024",
      "taf": "TAF LRTM 251400Z 2515/2524 29010KT 9999 BKN040"
    },
    {
      "icao": "LRTR",
      "alert": "OK",
      "vis_m": 9999,
      "fzfg": false,
      "metar_trigger": false,
      "taf_trigger": false,
      "metar": "METAR LRTR 252300Z 02009KT CAVOK 04/03 Q1026",
      "taf": "TAF LRTR 251700Z 2518/2618 VRB03KT 9999 BKN045"
    },
    {
      "icao": "LTAC",
      "alert": "OK",
      "vis_m": 9999,
      "fzfg": false,
      "metar_trigger": false,
      "taf_trigger": false,
      "metar": "METAR LTAC 252250Z 35005KT 320V030 9999 SCT040 M00/M05 Q1015 NOSIG RMK RWY21C 34002KT RWY03L 36004KT 310V050 RWY21R VRB02KT RWY03R 35004KT RWY21L 33004KT",
      "taf": "TAF LTAC 252240Z 2600/2624 VRB02KT 9999 SCT040"
    },
    {
      "icao": "LTFM",
      "alert": "OK",
      "vis_m": 9999,
      "fzfg": false,
      "metar_trigger": false,
      "taf_trigger": false,
      "metar": "METAR LTFM 252250Z 36006KT 9999 -SHRA FEW012 FEW020TCU BKN025 05/03 Q1022 NOSIG RMK RWY17L 35004KT 310V010 RWY34L 36007KT RWY16R 33003KT 250V360 RWY36 36007KT RWY18 35006KT 310V020",
      "taf": "TAF LTFM 252240Z 2600/2706 01015KT 9999 -SHRASN SCT012 BKN025"
    },
    {
      "icao": "LUKK",
      "alert": "OK",
      "vis_m": 9999,
      "fzfg": false,
      "metar_trigger": false,
      "taf_trigger": false,
      "metar": "METAR LUKK 252300Z 33010KT CAVOK M00/M04 Q1024 NOSIG",
      "taf": "TAF LUKK 251721Z 2518/2618 36008KT 9999 SCT025"
    },
    {
      "icao": "LWOH",
      "alert": "OK",
      "vis_m": null,
      "fzfg": false,
      "metar_trigger": false,
      "taf_trigger": false,
      "metar": "",
      "taf": "TAF LWOH 252030Z 2521/2621 VRB03KT CAVOK"
    },
    {
      "icao": "LWSK",
      "alert": "OK",
      "vis_m": 9999,
      "fzfg": false,
      "metar_trigger": false,
      "taf_trigger": false,
      "metar": "METAR LWSK 252250Z 07004KT 030V100 CAVOK 05/M00 Q1025 NOSIG",
      "taf": "TAF LWSK 252030Z 2521/2621 16006KT CAVOK"
    },
    {
      "icao": "LYBE",
      "alert": "OK",
      "vis_m": 9999,
      "fzfg": false,
      "metar_trigger": false,
      "taf_trigger": false,
      "metar": "METAR LYBE 252300Z 26006KT CAVOK 05/03 Q1026 NOSIG",
      "taf": "TAF LYBE 251700Z 2518/2618 31006KT 9999 BKN040 TX10/2613Z TN00/2606Z"
    },
    {
      "icao": "LYNI",
      "alert": "OK",
      "vis_m": 9999,
      "fzfg": false,
      "metar_trigger": false,
      "taf_trigger": false,
      "metar": "METAR LYNI 252300Z 09003KT 9999 BKN037 04/02 Q1025 NOSIG",
      "taf": "TAF LYNI 251700Z 2518/2618 03005KT 9999 BKN033 TX10/2613Z TN02/2606Z"
    },
    {
      "icao": "LYPG",
      "alert": "OK",
      "vis_m": 9999,
      "fzfg": false,
      "metar_trigger": false,
      "taf_trigger": false,
      "metar": "METAR LYPG 252300Z 35008KT CAVOK 08/M02 Q1024 NOSIG",
      "taf": "TAF LYPG 251700Z 2518/2618 VRB02KT CAVOK TX19/2613Z TN07/2521Z"
    },
    {
      "icao": "LZIB",
      "alert": "OK",
      "vis_m": 9999,
      "fzfg": false,
      "metar_trigger": false,
      "taf_trigger": false,
      "metar": "METAR LZIB 252300Z 04002KT CAVOK 03/02 Q1027 NOSIG",
      "taf": "TAF LZIB 252315Z 2600/2700 05006KT 9999 FEW035"
    },
    {
      "icao": "LZKZ",
      "alert": "OK",
      "vis_m": 9999,
      "fzfg": false,
      "metar_trigger": false,
      "taf_trigger": false,
      "metar": "METAR LZKZ 252300Z 03006KT CAVOK M01/M05 Q1028 NOSIG",
      "taf": "TAF LZKZ 252315Z 2600/2700 02007KT CAVOK"
    },
    {
      "icao": "LZTT",
      "alert": "OK",
      "vis_m": 9999,
      "fzfg": false,
      "metar_trigger": false,
      "taf_trigger": false,
      "metar": "METAR LZTT 252300Z 11004KT 9999 BKN013 BKN033 M02/M04 Q1026",
      "taf": "TAF LZTT 252315Z 2600/2700 VRB02KT 9999 BKN035"
    },
    {
      "icao": "OEJN",
      "alert": "OK",
      "vis_m": 9999,
      "fzfg": false,
      "metar_trigger": false,
      "taf_trigger": false,
      "metar": "METAR OEJN 252300Z 34007KT CAVOK 24/14 Q1013 NOSIG",
      "taf": "TAF OEJN 252300Z 2600/2706 VRB03KT CAVOK"
    },
    {
      "icao": "OEMA",
      "alert": "OK",
      "vis_m": 9999,
      "fzfg": false,
      "metar_trigger": false,
      "taf_trigger": false,
      "metar": "METAR OEMA 252300Z 33003KT CAVOK 18/M05 Q1018 NOSIG",
      "taf": "TAF OEMA 252300Z 2600/2706 VRB03KT 7000 NSC"
    },
    {
      "icao": "OJAI",
      "alert": "OK",
      "vis_m": 4000,
      "fzfg": false,
      "metar_trigger": false,
      "taf_trigger": false,
      "metar": "METAR OJAI 252200Z 24003KT 4000 HZ NSC 06/01 Q1018 NOSIG",
      "taf": "TAF OJAI 252300Z 2600/2706 28012KT 5000 HZ SCT030"
    },
    {
      "icao": "OMAA",
      "alert": "OK",
      "vis_m": 7000,
      "fzfg": false,
      "metar_trigger": false,
      "taf_trigger": false,
      "metar": "METAR OMAA 252300Z 33008KT 300V010 7000 SCT015 22/19 Q1013 TEMPO BKN015",
      "taf": "TAF OMAA 252300Z 2600/2706 VRB02KT 7000 FEW015"
    },
    {
      "icao": "OMDB",
      "alert": "OK",
      "vis_m": 4000,
      "fzfg": false,
      "metar_trigger": false,
      "taf_trigger": false,
      "metar": "METAR OMDB 252300Z 18006KT 140V200 4000 HZ SCT018 22/19 Q1013 BECMG 3000 BR",
      "taf": "TAF OMDB 251700Z 2518/2700 20005KT 7000 NSC"
    },
    {
      "icao": "UAAA",
      "alert": "OK",
      "vis_m": 9999,
      "fzfg": false,
      "metar_trigger": false,
      "taf_trigger": false,
      "metar": "METAR UAAA 252300Z VRB01MPS 9999 OVC010 M04/M05 Q1010 NOSIG",
      "taf": "TAF UAAA 251706Z 2518/2618 32002MPS 3100 BR BKN015CB OVC030 TX01/2608Z TNM07/2602Z"
    },
    {
      "icao": "UBBB",
      "alert": "OK",
      "vis_m": 9999,
      "fzfg": false,
      "metar_trigger": false,
      "taf_trigger": false,
      "metar": "METAR UBBB 252300Z 13004KT 9999 BKN012 OVC024 06/05 Q1017 NOSIG",
      "taf": "TAF UBBB 252300Z 2600/2624 VRB04KT 9999 BKN012 OVC020 TX11/2610Z TN04/2601Z"
    },
    {
      "icao": "UDSG",
      "alert": "OK",
      "vis_m": 4600,
      "fzfg": false,
      "metar_trigger": false,
      "taf_trigger": false,
      "metar": "METAR UDSG 252300Z 05006KT 360V070 4600 -SN BR OVC026 00/00 Q1014 NOSIG",
      "taf": "TAF UDSG 251658Z 2518/2618 VRB06KT 5000 BR BKN030"
    },
    {
      "icao": "UDYZ",
      "alert": "OK",
      "vis_m": 9999,
      "fzfg": false,
      "metar_trigger": false,
      "taf_trigger": false,
      "metar": "METAR UDYZ 252300Z 03006KT 9999 FEW046 05/M03 Q1014 NOSIG",
      "taf": "TAF UDYZ 251700Z 2518/2618 04006KT 9999 FEW040"
    },
    {
      "icao": "UGKO",
      "alert": "OK",
      "vis_m": 9999,
      "fzfg": false,
      "metar_trigger": false,
      "taf_trigger": false,
      "metar": "METAR UGKO 252300Z AUTO 27005KT 9999 -RA FEW007/// SCT035/// 07/06 Q1016 NOSIG",
      "taf": "TAF UGKO 252300Z 2600/2624 27007KT 9999 SCT023 OVC050 TX07/2600Z TN03/2624Z"
    }
  ]
}