{
  "ts_utc": "2026-03-01T07:00:57Z",
  "threshold_m": 150,
  "source": "stations_override.txt (ICAO list) + aviationweather.gov (METAR/TAF raw)",
  "station_count": 159,
  "stations": [
    {
      "icao": "BIKF",
      "alert": "OK",
      "vis_m": 9999,
      "fzfg": false,
      "metar_trigger": false,
      "taf_trigger": false,
      "metar": "METAR BIKF 010630Z 36011KT 9999 BKN018 M01/M03 Q1000",
      "taf": "TAF BIKF 010459Z 0106/0206 36015KT 9999 FEW020 BKN040 TXM01/0114Z TNM03/0200Z"
    },
    {
      "icao": "BKPR",
      "alert": "OK",
      "vis_m": 5000,
      "fzfg": false,
      "metar_trigger": false,
      "taf_trigger": false,
      "metar": "METAR BKPR 010700Z VRB01KT 5000 BR BKN005 00/M01 Q1027 NOSIG",
      "taf": ""
    },
    {
      "icao": "EBCI",
      "alert": "OK",
      "vis_m": 9999,
      "fzfg": false,
      "metar_trigger": false,
      "taf_trigger": false,
      "metar": "METAR EBCI 010650Z 18009KT CAVOK 05/02 Q1023 NOSIG",
      "taf": "TAF EBCI 010515Z 0106/0212 22008KT CAVOK"
    },
    {
      "icao": "EDDB",
      "alert": "OK",
      "vis_m": 9999,
      "fzfg": false,
      "metar_trigger": false,
      "taf_trigger": false,
      "metar": "METAR EDDB 010650Z AUTO 26008KT 9999 FEW025 05/02 Q1024 NOSIG",
      "taf": "TAF EDDB 010500Z 0106/0206 25009KT 9999 SCT030"
    },
    {
      "icao": "EDDH",
      "alert": "OK",
      "vis_m": 9999,
      "fzfg": false,
      "metar_trigger": false,
      "taf_trigger": false,
      "metar": "METAR EDDH 010650Z AUTO 21006KT CAVOK 04/02 Q1022 NOSIG",
      "taf": "TAF EDDH 010500Z 0106/0212 23005KT 9999 FEW020"
    },
    {
      "icao": "EDDK",
      "alert": "OK",
      "vis_m": 9999,
      "fzfg": false,
      "metar_trigger": false,
      "taf_trigger": false,
      "metar": "METAR EDDK 010650Z AUTO VRB02KT CAVOK 03/01 Q1025 NOSIG",
      "taf": "TAF EDDK 010500Z 0106/0212 15004KT CAVOK"
    },
    {
      "icao": "EDDN",
      "alert": "OK",
      "vis_m": 9999,
      "fzfg": false,
      "metar_trigger": false,
      "taf_trigger": false,
      "metar": "METAR EDDN 010650Z AUTO VRB01KT 9999 SCT041 BKN048 06/04 Q1026 NOSIG",
      "taf": "TAF EDDN 010500Z 0106/0206 14003KT 9999 FEW040"
    },
    {
      "icao": "EDDS",
      "alert": "OK",
      "vis_m": 9999,
      "fzfg": false,
      "metar_trigger": false,
      "taf_trigger": false,
      "metar": "METAR EDDS 010650Z AUTO VRB01KT 9999 SHRA FEW///CB 06/05 Q1025 TEMPO NSW",
      "taf": "TAF EDDS 010500Z 0106/0206 VRB03KT 9999 SCT030"
    },
    {
      "icao": "EDFH",
      "alert": "OK",
      "vis_m": 9999,
      "fzfg": false,
      "metar_trigger": false,
      "taf_trigger": false,
      "metar": "METAR EDFH 010650Z 18006KT CAVOK 02/00 Q1024",
      "taf": "TAF EDFH 010500Z 0106/0206 20006KT 9999 FEW040"
    },
    {
      "icao": "EDJA",
      "alert": "OK",
      "vis_m": 9999,
      "fzfg": false,
      "metar_trigger": false,
      "taf_trigger": false,
      "metar": "METAR EDJA 010650Z 06003KT 020V080 9999 BKN023 OVC027 06/03 Q1025",
      "taf": "TAF EDJA 010500Z 0106/0115 VRB03KT 9999 BKN020"
    },
    {
      "icao": "EDLW",
      "alert": "OK",
      "vis_m": 9999,
      "fzfg": false,
      "metar_trigger": false,
      "taf_trigger": false,
      "metar": "METAR EDLW 010650Z 17009KT CAVOK 04/01 Q1023",
      "taf": "TAF EDLW 010500Z 0106/0206 18009KT CAVOK"
    },
    {
      "icao": "EDNY",
      "alert": "OK",
      "vis_m": 9999,
      "fzfg": false,
      "metar_trigger": false,
      "taf_trigger": false,
      "metar": "METAR EDNY 010650Z AUTO 05003KT 360V090 9999 // FEW029/// OVC039/// 07/04 Q1026",
      "taf": "TAF EDNY 010500Z 0106/0115 VRB02KT 9999 OVC040"
    },
    {
      "icao": "EDSB",
      "alert": "OK",
      "vis_m": 9999,
      "fzfg": false,
      "metar_trigger": false,
      "taf_trigger": false,
      "metar": "METAR EDSB 010650Z 00000KT 9999 BCFG BKN046 03/03 Q1026",
      "taf": "TAF EDSB 010500Z 0106/0206 VRB03KT CAVOK"
    },
    {
      "icao": "EETN",
      "alert": "OK",
      "vis_m": 1800,
      "fzfg": false,
      "metar_trigger": false,
      "taf_trigger": false,
      "metar": "METAR EETN 010650Z 15006KT 1800 BR OVC001 02/02 Q1012 TEMPO 0700 FG",
      "taf": "TAF EETN 010530Z 0106/0206 15007KT 2000 BR OVC003"
    },
    {
      "icao": "EFTU",
      "alert": "OK",
      "vis_m": 7000,
      "fzfg": false,
      "metar_trigger": false,
      "taf_trigger": false,
      "metar": "METAR EFTU 010650Z AUTO 13008KT 7000 SHRA OVC003 //////CB 00/00 Q1010",
      "taf": ""
    },
    {
      "icao": "EGBB",
      "alert": "OK",
      "vis_m": 9999,
      "fzfg": false,
      "metar_trigger": false,
      "taf_trigger": false,
      "metar": "METAR EGBB 010650Z 18007KT 9999 SCT013 08/06 Q1012",
      "taf": "TAF EGBB 010458Z 0106/0206 18009KT 9999 SCT025"
    },
    {
      "icao": "EGGP",
      "alert": "OK",
      "vis_m": 9999,
      "fzfg": false,
      "metar_trigger": false,
      "taf_trigger": false,
      "metar": "METAR EGGP 010650Z 15008KT 9999 FEW023 06/05 Q1010",
      "taf": "TAF EGGP 010503Z 0106/0206 17009KT 9999 SCT030"
    },
    {
      "icao": "EGGW",
      "alert": "OK",
      "vis_m": 7000,
      "fzfg": false,
      "metar_trigger": false,
      "taf_trigger": false,
      "metar": "METAR EGGW 010650Z AUTO 17008KT 7000 -RA BKN005 OVC009 07/06 Q1014",
      "taf": "TAF EGGW 010502Z 0106/0206 19012KT 9999 SCT030"
    },
    {
      "icao": "EGKK",
      "alert": "OK",
      "vis_m": 5000,
      "fzfg": false,
      "metar_trigger": false,
      "taf_trigger": false,
      "metar": "METAR EGKK 010650Z 19009KT 160V220 5000 -RA BKN006 08/08 Q1016",
      "taf": "TAF EGKK 010455Z 0106/0212 19009KT 9999 SCT028"
    },
    {
      "icao": "EGNM",
      "alert": "OK",
      "vis_m": 6000,
      "fzfg": false,
      "metar_trigger": false,
      "taf_trigger": false,
      "metar": "METAR EGNM 010650Z 15006KT 6000 -SHRA SCT004 BKN012 04/04 Q1010",
      "taf": ""
    },
    {
      "icao": "EGPD",
      "alert": "OK",
      "vis_m": 5000,
      "fzfg": false,
      "metar_trigger": false,
      "taf_trigger": false,
      "metar": "METAR EGPD 010650Z AUTO 16014KT 5000 -RADZ BKN010 BKN022 OVC039 05/04 Q1006 TEMPO BKN009",
      "taf": "TAF EGPD 010455Z 0106/0206 16010KT 9999 SCT012"
    },
    {
      "icao": "EGPF",
      "alert": "OK",
      "vis_m": 9999,
      "fzfg": false,
      "metar_trigger": false,
      "taf_trigger": false,
      "metar": "METAR EGPF 010650Z AUTO 17011KT 140V200 9999 -RA FEW039 SCT048 07/05 Q1005",
      "taf": "TAF EGPF 010458Z 0106/0206 15006KT 9999 SCT022"
    },
    {
      "icao": "EHBK",
      "alert": "OK",
      "vis_m": 9999,
      "fzfg": false,
      "metar_trigger": false,
      "taf_trigger": false,
      "metar": "METAR EHBK 010655Z AUTO 18009KT 9999 NCD 05/02 Q1023 NOSIG",
      "taf": "TAF EHBK 010506Z 0106/0212 18006KT CAVOK"
    },
    {
      "icao": "EHEH",
      "alert": "OK",
      "vis_m": 9999,
      "fzfg": false,
      "metar_trigger": false,
      "taf_trigger": false,
      "metar": "METAR EHEH 010625Z AUTO 16004KT 9999 SCT091 OVC097 04/02 Q1022 BLU NOSIG RMK TREND REMOTE BY EHWX",
      "taf": "TAF EHEH 010538Z 0106/0212 17005KT CAVOK"
    },
    {
      "icao": "EKBI",
      "alert": "OK",
      "vis_m": 9999,
      "fzfg": false,
      "metar_trigger": false,
      "taf_trigger": false,
      "metar": "METAR EKBI 010650Z AUTO 24010KT 9999 NCD 02/02 Q1017",
      "taf": "TAF EKBI 010528Z 0106/0206 24010KT 9999 BKN020"
    },
    {
      "icao": "EKCH",
      "alert": "OK",
      "vis_m": 9999,
      "fzfg": false,
      "metar_trigger": false,
      "taf_trigger": false,
      "metar": "METAR EKCH 010650Z AUTO 25014KT 9999 OVC022/// 04/01 Q1018 NOSIG",
      "taf": "TAF EKCH 010528Z 0106/0206 24012KT 9999 BKN040"
    },
    {
      "icao": "ENAL",
      "alert": "OK",
      "vis_m": 9999,
      "fzfg": false,
      "metar_trigger": false,
      "taf_trigger": false,
      "metar": "METAR ENAL 010650Z 17005KT CAVOK M02/M04 Q1010",
      "taf": "TAF ENAL 010500Z 0106/0115 15005KT CAVOK"
    },
    {
      "icao": "ENBR",
      "alert": "OK",
      "vis_m": 9999,
      "fzfg": false,
      "metar_trigger": false,
      "taf_trigger": false,
      "metar": "METAR ENBR 010650Z 14003KT CAVOK M03/M05 Q1010 NOSIG RMK WIND 1200FT 28005KT",
      "taf": "TAF ENBR 010500Z 0106/0206 VRB03KT CAVOK"
    },
    {
      "icao": "ENGM",
      "alert": "OK",
      "vis_m": 9000,
      "fzfg": false,
      "metar_trigger": false,
      "taf_trigger": false,
      "metar": "METAR ENGM 010650Z 36003KT 9000 -RASN FEW012 BKN014 00/M01 Q1006 BECMG BKN018",
      "taf": ""
    },
    {
      "icao": "ENHD",
      "alert": "OK",
      "vis_m": 9999,
      "fzfg": false,
      "metar_trigger": false,
      "taf_trigger": false,
      "metar": "METAR ENHD 010650Z AUTO 21004KT 9999 SCT022/// BKN029/// BKN038/// 02/01 Q1011",
      "taf": "TAF ENHD 010500Z 0106/0115 VRB04KT 9999 SCT020"
    },
    {
      "icao": "ENTC",
      "alert": "OK",
      "vis_m": 9999,
      "fzfg": false,
      "metar_trigger": false,
      "taf_trigger": false,
      "metar": "METAR ENTC 010650Z 21018KT 9999 BKN051 03/M02 Q1004 RMK WIND 2600FT 21023KT",
      "taf": "TAF ENTC 010500Z 0106/0206 20018KT 9999 SCT025 BKN050"
    },
    {
      "icao": "ENTO",
      "alert": "OK",
      "vis_m": 9999,
      "fzfg": false,
      "metar_trigger": false,
      "taf_trigger": false,
      "metar": "METAR ENTO 010650Z 29005KT 9999 SCT015 OVC033 01/01 Q1007",
      "taf": ""
    },
    {
      "icao": "ENVA",
      "alert": "OK",
      "vis_m": 9999,
      "fzfg": false,
      "metar_trigger": false,
      "taf_trigger": false,
      "metar": "METAR ENVA 010650Z 08003KT CAVOK M06/M08 Q1011 NOSIG RMK WIND 670FT 08007KT",
      "taf": "TAF ENVA 010500Z 0106/0206 12005KT CAVOK"
    },
    {
      "icao": "ENZV",
      "alert": "OK",
      "vis_m": 9999,
      "fzfg": false,
      "metar_trigger": false,
      "taf_trigger": false,
      "metar": "METAR ENZV 010650Z 17003KT 9999 FEW018 BKN024 OVC045 01/00 Q1012 NOSIG",
      "taf": "TAF ENZV 010500Z 0106/0206 VRB03KT 9999 FEW015 BKN040"
    },
    {
      "icao": "EPGD",
      "alert": "OK",
      "vis_m": 9999,
      "fzfg": false,
      "metar_trigger": false,
      "taf_trigger": false,
      "metar": "METAR EPGD 010630Z 25010KT CAVOK 07/03 Q1018",
      "taf": "TAF EPGD 010530Z 0106/0206 27010KT CAVOK"
    },
    {
      "icao": "EPKK",
      "alert": "OK",
      "vis_m": 6000,
      "fzfg": false,
      "metar_trigger": false,
      "taf_trigger": false,
      "metar": "METAR EPKK 010630Z 22002KT 6000 BKN048 01/M00 Q1024",
      "taf": "TAF EPKK 010530Z 0106/0206 23004KT 7000 SCT040"
    },
    {
      "icao": "EPKT",
      "alert": "OK",
      "vis_m": 9999,
      "fzfg": false,
      "metar_trigger": false,
      "taf_trigger": false,
      "metar": "METAR EPKT 010630Z 22004KT CAVOK 06/01 Q1024",
      "taf": "TAF EPKT 010530Z 0106/0206 24006KT 9999 SCT045"
    },
    {
      "icao": "EPLB",
      "alert": "OK",
      "vis_m": 9999,
      "fzfg": false,
      "metar_trigger": false,
      "taf_trigger": false,
      "metar": "METAR EPLB 010630Z 23010KT CAVOK 04/01 Q1022",
      "taf": "TAF EPLB 010530Z 0106/0206 26010KT CAVOK"
    },
    {
      "icao": "EPMO",
      "alert": "OK",
      "vis_m": 8000,
      "fzfg": false,
      "metar_trigger": false,
      "taf_trigger": false,
      "metar": "METAR EPMO 010630Z 24008KT 8000 FEW046 03/02 Q1021",
      "taf": "TAF EPMO 010530Z 0106/0206 20005KT CAVOK"
    },
    {
      "icao": "EPPO",
      "alert": "OK",
      "vis_m": 9999,
      "fzfg": false,
      "metar_trigger": false,
      "taf_trigger": false,
      "metar": "METAR EPPO 010630Z 26008KT CAVOK 07/03 Q1022",
      "taf": "TAF EPPO 010530Z 0106/0206 26010KT CAVOK"
    },
    {
      "icao": "EPRA",
      "alert": "OK",
      "vis_m": 9999,
      "fzfg": false,
      "metar_trigger": false,
      "taf_trigger": false,
      "metar": "METAR EPRA 010630Z 24009KT CAVOK 05/01 Q1022",
      "taf": "TAF EPRA 010530Z 0106/0115 24008KT CAVOK"
    },
    {
      "icao": "EPRZ",
      "alert": "OK",
      "vis_m": 9999,
      "fzfg": false,
      "metar_trigger": false,
      "taf_trigger": false,
      "metar": "METAR EPRZ 010630Z 20005KT CAVOK 06/M00 Q1024",
      "taf": "TAF EPRZ 010530Z 0106/0206 22007KT CAVOK"
    },
    {
      "icao": "EPSC",
      "alert": "OK",
      "vis_m": 9999,
      "fzfg": false,
      "metar_trigger": false,
      "taf_trigger": false,
      "metar": "METAR EPSC 010630Z 26011KT 240V300 9999 OVC027 07/01 Q1021",
      "taf": "TAF EPSC 010530Z 0106/0206 27010KT 9999 BKN030"
    },
    {
      "icao": "EPSY",
      "alert": "OK",
      "vis_m": 500,
      "fzfg": true,
      "metar_trigger": false,
      "taf_trigger": false,
      "metar": "METAR EPSY 010630Z 19003KT 0500 R01/1600N FZFG NSC M02/M02 Q1019",
      "taf": "TAF EPSY 010530Z 0106/0115 20004KT 0800 FZFG NSC"
    },
    {
      "icao": "EPWA",
      "alert": "OK",
      "vis_m": 9999,
      "fzfg": false,
      "metar_trigger": false,
      "taf_trigger": false,
      "metar": "METAR EPWA 010630Z 00000KT CAVOK 02/02 Q1021 NOSIG",
      "taf": "TAF EPWA 010530Z 0106/0206 16005KT CAVOK"
    },
    {
      "icao": "EPWR",
      "alert": "OK",
      "vis_m": 9999,
      "fzfg": false,
      "metar_trigger": false,
      "taf_trigger": false,
      "metar": "METAR EPWR 010630Z 23006KT CAVOK 05/03 Q1024",
      "taf": "TAF EPWR 010530Z 0106/0206 27010KT CAVOK"
    },
    {
      "icao": "ESGG",
      "alert": "OK",
      "vis_m": 200,
      "fzfg": false,
      "metar_trigger": false,
      "taf_trigger": false,
      "metar": "METAR ESGG 010650Z 23012KT 0200 R03/0600N R21/1200U FG VV002 03/02 Q1009",
      "taf": ""
    },
    {
      "icao": "ESKN",
      "alert": "OK",
      "vis_m": 3000,
      "fzfg": false,
      "metar_trigger": false,
      "taf_trigger": false,
      "metar": "METAR ESKN 010650Z 17006KT 3000 BR OVC003 03/03 Q1008",
      "taf": "TAF ESKN 010530Z 0106/0206 15006KT 9999 BKN003"
    },
    {
      "icao": "ESMS",
      "alert": "OK",
      "vis_m": 9999,
      "fzfg": false,
      "metar_trigger": false,
      "taf_trigger": false,
      "metar": "METAR ESMS 010650Z 25013KT 9999 FEW011 OVC020 03/02 Q1017",
      "taf": "TAF ESMS 010528Z 0106/0206 25012KT 3000 -RA BR BKN003"
    },
    {
      "icao": "ESSA",
      "alert": "OK",
      "vis_m": 650,
      "fzfg": false,
      "metar_trigger": false,
      "taf_trigger": false,
      "metar": "METAR ESSA 010650Z 17006KT 0650 R01L/1600D R19R/P2000N R01R/1500N R19L/P2000N -RA FG VV002 01/01 Q1007 TEMPO 1500 BR BKN005",
      "taf": ""
    },
    {
      "icao": "EYKA",
      "alert": "OK",
      "vis_m": 7000,
      "fzfg": false,
      "metar_trigger": false,
      "taf_trigger": false,
      "metar": "METAR EYKA 010650Z 19004KT 150V250 7000 NSC 03/01 Q1017",
      "taf": "TAF EYKA 010500Z 0106/0206 VRB04KT 5000 BR SCT002"
    },
    {
      "icao": "EYPA",
      "alert": "OK",
      "vis_m": 5000,
      "fzfg": false,
      "metar_trigger": false,
      "taf_trigger": false,
      "metar": "METAR EYPA 010650Z 18009KT 5000 BR FEW040 04/02 Q1015",
      "taf": "TAF EYPA 010500Z 0106/0206 VRB05KT 5000 BR SCT002 BKN015"
    },
    {
      "icao": "EYVI",
      "alert": "OK",
      "vis_m": 7000,
      "fzfg": false,
      "metar_trigger": false,
      "taf_trigger": false,
      "metar": "METAR EYVI 010650Z 18009KT 7000 NSC 01/M00 Q1018 NOSIG",
      "taf": "TAF EYVI 010500Z 0106/0206 18008KT 5000 BR NSC"
    },
    {
      "icao": "GCFV",
      "alert": "OK",
      "vis_m": 9999,
      "fzfg": false,
      "metar_trigger": false,
      "taf_trigger": false,
      "metar": "METAR GCFV 010630Z 35017KT 9999 FEW030 BKN035 16/10 Q1017",
      "taf": "TAF GCFV 010200Z 0103/0203 02014KT 9999 BKN025 TX21/0114Z TN15/0106Z"
    },
    {
      "icao": "GCLP",
      "alert": "OK",
      "vis_m": 9999,
      "fzfg": false,
      "metar_trigger": false,
      "taf_trigger": false,
      "metar": "METAR GCLP 010630Z 35024KT 9999 FEW030 16/10 Q1017 NOSIG",
      "taf": "TAF GCLP 010200Z 0103/0203 01020KT 9999 FEW030 BKN040 TX21/0114Z TN16/0106Z"
    },
    {
      "icao": "GCTS",
      "alert": "OK",
      "vis_m": 9999,
      "fzfg": false,
      "metar_trigger": false,
      "taf_trigger": false,
      "metar": "METAR GCTS 010630Z 06007KT 9999 FEW030 16/08 Q1018 NOSIG",
      "taf": "TAF GCTS 010200Z 0103/0203 06018KT 9999 SCT035 TX22/0114Z TN17/0106Z"
    },
    {
      "icao": "GMAD",
      "alert": "OK",
      "vis_m": 6000,
      "fzfg": false,
      "metar_trigger": false,
      "taf_trigger": false,
      "metar": "METAR GMAD 010630Z 17007KT 6000 NSC 15/13 Q1012 NOSIG",
      "taf": "TAF GMAD 010500Z 0106/0212 06005KT 6000 NSC"
    },
    {
      "icao": "GMMN",
      "alert": "OK",
      "vis_m": 4000,
      "fzfg": false,
      "metar_trigger": false,
      "taf_trigger": false,
      "metar": "METAR GMMN 010630Z VRB02KT 4000 BR BKN010 13/12 Q1017 TEMPO 2000 BR",
      "taf": "TAF GMMN 010500Z 0106/0212 02006KT 4000 BR BKN013"
    },
    {
      "icao": "GMMX",
      "alert": "OK",
      "vis_m": 7000,
      "fzfg": false,
      "metar_trigger": false,
      "taf_trigger": false,
      "metar": "METAR GMMX 010630Z 06003KT 030V090 7000 BKN010 12/11 Q1016 TEMPO 3000 BR OVC006",
      "taf": "TAF GMMX 010500Z 0106/0212 04006KT 7000 BKN013"
    },
    {
      "icao": "HEGN",
      "alert": "OK",
      "vis_m": 9999,
      "fzfg": false,
      "metar_trigger": false,
      "taf_trigger": false,
      "metar": "METAR HEGN 010600Z 30014KT CAVOK 15/03 Q1017 NOSIG",
      "taf": "TAF HEGN 010500Z 0106/0212 34018KT CAVOK"
    },
    {
      "icao": "HEMA",
      "alert": "OK",
      "vis_m": 9999,
      "fzfg": false,
      "metar_trigger": false,
      "taf_trigger": false,
      "metar": "METAR HEMA 010600Z 32015KT CAVOK 17/01 Q1016 NOSIG",
      "taf": "TAF HEMA 010500Z 0106/0212 33015KT CAVOK"
    },
    {
      "icao": "HESH",
      "alert": "OK",
      "vis_m": 9999,
      "fzfg": false,
      "metar_trigger": false,
      "taf_trigger": false,
      "metar": "METAR HESH 010600Z 35008KT CAVOK 17/M01 Q1016 NOSIG",
      "taf": "TAF HESH 010500Z 0106/0212 03015KT CAVOK"
    },
    {
      "icao": "HESX",
      "alert": "OK",
      "vis_m": 9999,
      "fzfg": false,
      "metar_trigger": false,
      "taf_trigger": false,
      "metar": "METAR HESX 010600Z 30002KT 9999 FEW030 10/04 Q1020 NOSIG",
      "taf": "TAF HESX 010500Z 0106/0212 34010KT 9999 FEW025"
    },
    {
      "icao": "LATI",
      "alert": "OK",
      "vis_m": 9999,
      "fzfg": false,
      "metar_trigger": false,
      "taf_trigger": false,
      "metar": "METAR LATI 010650Z VRB03KT CAVOK 08/05 Q1027 NOSIG",
      "taf": "TAF LATI 010500Z 0106/0206 VRB03KT CAVOK TX18/0112Z TN04/0204Z"
    },
    {
      "icao": "LBPD",
      "alert": "OK",
      "vis_m": 250,
      "fzfg": true,
      "metar_trigger": false,
      "taf_trigger": false,
      "metar": "METAR LBPD 010630Z AUTO 12005KT 0250 R30/0350N FZFG VV002 M01/M01 Q1030 TEMPO 0600 FZFG",
      "taf": "TAF LBPD 010500Z 0106/0206 VRB04KT 0200 FZFG OVC001"
    },
    {
      "icao": "LBSF",
      "alert": "OK",
      "vis_m": 9999,
      "fzfg": false,
      "metar_trigger": false,
      "taf_trigger": false,
      "metar": "METAR LBSF 010630Z VRB02KT CAVOK M01/M05 Q1028 NOSIG",
      "taf": "TAF LBSF 010500Z 0106/0206 VRB04KT CAVOK"
    },
    {
      "icao": "LBWN",
      "alert": "OK",
      "vis_m": 9999,
      "fzfg": false,
      "metar_trigger": false,
      "taf_trigger": false,
      "metar": "METAR LBWN 010630Z 24005KT 9999 OVC012 02/M01 Q1030 TEMPO 5000 BR",
      "taf": "TAF LBWN 010500Z 0106/0206 VRB03KT 9999 OVC012"
    },
    {
      "icao": "LCLK",
      "alert": "OK",
      "vis_m": 9999,
      "fzfg": false,
      "metar_trigger": false,
      "taf_trigger": false,
      "metar": "METAR LCLK 010630Z 33008KT 9999 FEW050 14/07 Q1020 NOSIG",
      "taf": "TAF LCLK 010530Z 0106/0206 34006KT 9999 FEW025"
    },
    {
      "icao": "LCPH",
      "alert": "OK",
      "vis_m": 9999,
      "fzfg": false,
      "metar_trigger": false,
      "taf_trigger": false,
      "metar": "METAR LCPH 010630Z 05004KT 010V080 9999 FEW025 SCT080 14/02 Q1020 NOSIG",
      "taf": "TAF LCPH 010530Z 0106/0206 07008KT 9999 FEW020"
    },
    {
      "icao": "LEAL",
      "alert": "OK",
      "vis_m": 9999,
      "fzfg": false,
      "metar_trigger": false,
      "taf_trigger": false,
      "metar": "METAR LEAL 010630Z 28003KT 240V330 CAVOK 10/07 Q1024 NOSIG",
      "taf": "TAF LEAL 010500Z 0106/0206 32005KT 9999 BKN030 TX17/0112Z TN07/0107Z"
    },
    {
      "icao": "LEBB",
      "alert": "OK",
      "vis_m": 9999,
      "fzfg": false,
      "metar_trigger": false,
      "taf_trigger": false,
      "metar": "METAR LEBB 010630Z 09004KT 070V130 CAVOK 02/02 Q1025 NOSIG",
      "taf": "TAF LEBB 010500Z 0106/0206 12009KT CAVOK TX19/0115Z TN03/0106Z"
    },
    {
      "icao": "LEBL",
      "alert": "OK",
      "vis_m": 9999,
      "fzfg": false,
      "metar_trigger": false,
      "taf_trigger": false,
      "metar": "METAR LEBL 010630Z VRB02KT 9999 BKN050 12/10 Q1025 NOSIG",
      "taf": ""
    },
    {
      "icao": "LECH",
      "alert": "OK",
      "vis_m": 9000,
      "fzfg": false,
      "metar_trigger": false,
      "taf_trigger": false,
      "metar": "METAR LECH 010630Z AUTO 04003KT 9000 SCT055 07/06 Q1025",
      "taf": ""
    },
    {
      "icao": "LEMD",
      "alert": "OK",
      "vis_m": 9999,
      "fzfg": false,
      "metar_trigger": false,
      "taf_trigger": false,
      "metar": "METAR LEMD 010630Z 35002KT 9999 SCT025 BKN030 06/06 Q1024 NOSIG",
      "taf": "TAF LEMD 010500Z 0106/0212 VRB04KT 9999 SCT035 TX16/0115Z TN02/0106Z"
    },
    {
      "icao": "LEMG",
      "alert": "OK",
      "vis_m": 9999,
      "fzfg": false,
      "metar_trigger": false,
      "taf_trigger": false,
      "metar": "METAR LEMG 010630Z 11009KT 080V140 9999 FEW020 OVC050 14/10 Q1023 NOSIG",
      "taf": "TAF LEMG 010500Z 0106/0206 12012KT 9999 BKN030 TX17/0114Z TN13/0106Z"
    },
    {
      "icao": "LEVC",
      "alert": "OK",
      "vis_m": 9999,
      "fzfg": false,
      "metar_trigger": false,
      "taf_trigger": false,
      "metar": "METAR LEVC 010630Z VRB02KT 9999 FEW028 BKN054 09/08 Q1025 NOSIG",
      "taf": "TAF LEVC 010500Z 0106/0206 33005KT 9999 BKN030 TX17/0112Z TN06/0107Z"
    },
    {
      "icao": "LEXJ",
      "alert": "OK",
      "vis_m": 9999,
      "fzfg": false,
      "metar_trigger": false,
      "taf_trigger": false,
      "metar": "METAR LEXJ 010630Z VRB02KT CAVOK 03/02 Q1024",
      "taf": "TAF LEXJ 010200Z 0103/0203 20006KT CAVOK TX20/0115Z TN04/0103Z"
    },
    {
      "icao": "LEZG",
      "alert": "OK",
      "vis_m": 9999,
      "fzfg": false,
      "metar_trigger": false,
      "taf_trigger": false,
      "metar": "METAR LEZG 010630Z 00000KT CAVOK 03/03 Q1026 NOSIG",
      "taf": "TAF LEZG 010500Z 0106/0206 27008KT 9999 SCT060 TX17/0115Z TN03/0106Z"
    },
    {
      "icao": "LEZL",
      "alert": "OK",
      "vis_m": 9999,
      "fzfg": false,
      "metar_trigger": false,
      "taf_trigger": false,
      "metar": "METAR LEZL 010630Z 04005KT 9999 BKN039 11/11 Q1022 NOSIG",
      "taf": "TAF LEZL 010200Z 0103/0203 VRB03KT CAVOK TX22/0115Z TN09/0107Z"
    },
    {
      "icao": "LFBD",
      "alert": "OK",
      "vis_m": 9999,
      "fzfg": false,
      "metar_trigger": false,
      "taf_trigger": false,
      "metar": "METAR LFBD 010630Z AUTO 16003KT 9999 2000 NSC 03/02 Q1026 TEMPO 1500 MIFG",
      "taf": "TAF LFBD 010500Z 0106/0212 VRB03KT CAVOK TX16/0114Z TN03/0106Z"
    },
    {
      "icao": "LFLL",
      "alert": "OK",
      "vis_m": 700,
      "fzfg": false,
      "metar_trigger": false,
      "taf_trigger": false,
      "metar": "METAR LFLL 010630Z 22002KT 0700 R35L/1600D R17R/0400D R35R/0550D R17L/1000D FG VV/// 05/05 Q1026 TEMPO 0200 FG VV///",
      "taf": "TAF LFLL 010500Z 0106/0212 VRB02KT 3000 MIFG NSC"
    },
    {
      "icao": "LFLS",
      "alert": "OK",
      "vis_m": 9999,
      "fzfg": false,
      "metar_trigger": false,
      "taf_trigger": false,
      "metar": "METAR LFLS 010630Z AUTO VRB01KT CAVOK 04/03 Q1025 NOSIG",
      "taf": "TAF LFLS 010200Z 0103/0203 VRB03KT CAVOK"
    },
    {
      "icao": "LFMN",
      "alert": "OK",
      "vis_m": 9999,
      "fzfg": false,
      "metar_trigger": false,
      "taf_trigger": false,
      "metar": "METAR LFMN 010630Z 32007KT 9999 BKN022 BKN070 OVC170 11/09 Q1024 NOSIG",
      "taf": "TAF LFMN 010200Z 0103/0209 34006KT 9999 FEW018 BKN050 BKN160"
    },
    {
      "icao": "LFOB",
      "alert": "OK",
      "vis_m": 9999,
      "fzfg": false,
      "metar_trigger": false,
      "taf_trigger": false,
      "metar": "METAR LFOB 010630Z AUTO 17003KT 9999 FEW008 02/02 Q1023 TEMPO SCT004 OVC006",
      "taf": "TAF LFOB 010500Z 0106/0206 VRB03KT CAVOK"
    },
    {
      "icao": "LFPO",
      "alert": "OK",
      "vis_m": 9999,
      "fzfg": false,
      "metar_trigger": false,
      "taf_trigger": false,
      "metar": "METAR LFPO 010630Z 19006KT CAVOK 04/03 Q1024 NOSIG",
      "taf": "TAF LFPO 010500Z 0106/0212 19006KT CAVOK"
    },
    {
      "icao": "LFSB",
      "alert": "OK",
      "vis_m": 9999,
      "fzfg": false,
      "metar_trigger": false,
      "taf_trigger": false,
      "metar": "METAR LFSB 010630Z AUTO 18003KT CAVOK 06/05 Q1026 NOSIG",
      "taf": "TAF LFSB 010500Z 0106/0206 VRB03KT 9999 FEW035 BKN090"
    },
    {
      "icao": "LGAV",
      "alert": "OK",
      "vis_m": 9999,
      "fzfg": false,
      "metar_trigger": false,
      "taf_trigger": false,
      "metar": "METAR LGAV 010650Z 02010KT 9999 SCT025 SCT035 10/03 Q1027 NOSIG",
      "taf": "TAF LGAV 010500Z 0106/0206 36015KT 9999 FEW018 SCT025"
    },
    {
      "icao": "LGTS",
      "alert": "OK",
      "vis_m": 9999,
      "fzfg": false,
      "metar_trigger": false,
      "taf_trigger": false,
      "metar": "METAR LGTS 010650Z VRB02KT 9999 FEW012 OVC020 07/06 Q1030 NOSIG",
      "taf": ""
    },
    {
      "icao": "LHBP",
      "alert": "OK",
      "vis_m": 9000,
      "fzfg": false,
      "metar_trigger": false,
      "taf_trigger": false,
      "metar": "METAR LHBP 010630Z 02003KT 330V030 9000 MIFG NSC M01/M02 Q1027 NOSIG",
      "taf": "TAF LHBP 010515Z 0106/0206 VRB03KT CAVOK"
    },
    {
      "icao": "LHDC",
      "alert": "OK",
      "vis_m": 3300,
      "fzfg": false,
      "metar_trigger": false,
      "taf_trigger": false,
      "metar": "METAR LHDC 010615Z AUTO VRB01KT 3300 BR NCD M02/M03 Q1027 NOSIG",
      "taf": "TAF LHDC 010515Z 0106/0115 VRB03KT 5000 BR NSC"
    },
    {
      "icao": "LIBD",
      "alert": "OK",
      "vis_m": 9999,
      "fzfg": false,
      "metar_trigger": false,
      "taf_trigger": false,
      "metar": "METAR LIBD 010650Z VRB02KT 9999 BKN040 09/08 Q1026",
      "taf": "TAF LIBD 010500Z 0106/0206 VRB05KT 7000 BKN025"
    },
    {
      "icao": "LIBG",
      "alert": "OK",
      "vis_m": null,
      "fzfg": false,
      "metar_trigger": false,
      "taf_trigger": false,
      "metar": "",
      "taf": ""
    },
    {
      "icao": "LIBP",
      "alert": "OK",
      "vis_m": 4000,
      "fzfg": false,
      "metar_trigger": false,
      "taf_trigger": false,
      "metar": "METAR LIBP 010650Z 20003KT 4000 BR OVC025 11/11 Q1026",
      "taf": "TAF LIBP 010500Z 0106/0206 VRB05KT 6000 SCT030"
    },
    {
      "icao": "LIBR",
      "alert": "OK",
      "vis_m": 9999,
      "fzfg": false,
      "metar_trigger": false,
      "taf_trigger": false,
      "metar": "METAR LIBR 010650Z 06001KT 9999 SCT035 12/10 Q1026",
      "taf": "TAF LIBR 010500Z 0106/0206 VRB05KT 9999 BKN020"
    },
    {
      "icao": "LICA",
      "alert": "OK",
      "vis_m": 9999,
      "fzfg": false,
      "metar_trigger": false,
      "taf_trigger": false,
      "metar": "METAR LICA 010650Z 05010KT CAVOK 11/10 Q1025",
      "taf": "TAF LICA 010500Z 0106/0206 08010KT 9999 FEW020"
    },
    {
      "icao": "LICC",
      "alert": "OK",
      "vis_m": 3000,
      "fzfg": false,
      "metar_trigger": false,
      "taf_trigger": false,
      "metar": "METAR LICC 010650Z 24006KT 210V270 3000 BR BKN025 11/10 Q1026",
      "taf": "TAF LICC 010500Z 0106/0206 VRB05KT 4000 BR FEW025"
    },
    {
      "icao": "LICJ",
      "alert": "OK",
      "vis_m": 9999,
      "fzfg": false,
      "metar_trigger": false,
      "taf_trigger": false,
      "metar": "METAR LICJ 010650Z VRB02KT CAVOK 11/10 Q1024",
      "taf": "TAF LICJ 010500Z 0106/0206 VRB05KT 9999 FEW015"
    },
    {
      "icao": "LIMC",
      "alert": "OK",
      "vis_m": 4000,
      "fzfg": false,
      "metar_trigger": false,
      "taf_trigger": false,
      "metar": "METAR LIMC 010650Z VRB02KT 4000 BR SCT030 BKN070 09/08 Q1025 NOSIG",
      "taf": "TAF LIMC 010500Z 0106/0212 VRB04KT 9999 SCT030"
    },
    {
      "icao": "LIME",
      "alert": "OK",
      "vis_m": 600,
      "fzfg": false,
      "metar_trigger": false,
      "taf_trigger": false,
      "metar": "METAR LIME 010650Z 13006KT 100V170 0600 R28/0900U FG VV001 09/09 Q1025 NOSIG",
      "taf": ""
    },
    {
      "icao": "LIMF",
      "alert": "OK",
      "vis_m": 5000,
      "fzfg": false,
      "metar_trigger": false,
      "taf_trigger": false,
      "metar": "METAR LIMF 010650Z 32002KT 5000 BR BKN065 10/07 Q1024",
      "taf": "TAF LIMF 010500Z 0106/0206 VRB04KT 6000 BKN030"
    },
    {
      "icao": "LIMJ",
      "alert": "OK",
      "vis_m": 9999,
      "fzfg": false,
      "metar_trigger": false,
      "taf_trigger": false,
      "metar": "METAR LIMJ 010650Z 02004KT 9999 FEW015 BKN070 13/09 Q1024",
      "taf": "TAF LIMJ 010500Z 0106/0206 VRB05KT 9999 SCT020 BKN030"
    },
    {
      "icao": "LIPE",
      "alert": "OK",
      "vis_m": 8000,
      "fzfg": false,
      "metar_trigger": false,
      "taf_trigger": false,
      "metar": "METAR LIPE 010650Z 13002KT 8000 FEW010 BKN070 08/06 Q1025",
      "taf": "TAF LIPE 010500Z 0106/0206 VRB04KT 3000 BR FEW050"
    },
    {
      "icao": "LIPH",
      "alert": "OK",
      "vis_m": 1200,
      "fzfg": false,
      "metar_trigger": false,
      "taf_trigger": false,
      "metar": "METAR LIPH 010650Z 05003KT 010V070 1200 R07/P2000N BR OVC005 09/09 Q1026",
      "taf": "TAF LIPH 010500Z 0106/0206 VRB04KT 3000 BR BKN003"
    },
    {
      "icao": "LIPQ",
      "alert": "OK",
      "vis_m": 1500,
      "fzfg": false,
      "metar_trigger": false,
      "taf_trigger": false,
      "metar": "METAR LIPQ 010650Z 13004KT 1500 BR BKN005 08/08 Q1026",
      "taf": "TAF LIPQ 010500Z 0106/0206 VRB04KT 1500 BR OVC002"
    },
    {
      "icao": "LIPR",
      "alert": "OK",
      "vis_m": 2500,
      "fzfg": false,
      "metar_trigger": false,
      "taf_trigger": false,
      "metar": "METAR LIPR 010650Z VRB02KT 2500 BR BKN030 08/08 Q1025",
      "taf": "TAF LIPR 010500Z 0106/0206 VRB04KT 0500 FG OVC003"
    },
    {
      "icao": "LIPX",
      "alert": "OK",
      "vis_m": 600,
      "fzfg": false,
      "metar_trigger": false,
      "taf_trigger": false,
      "metar": "METAR LIPX 010650Z 12006KT 0600 R04/1400U FG OVC002 10/10 Q1025",
      "taf": "TAF LIPX 010500Z 0106/0206 VRB05KT 3000 BR SCT030"
    },
    {
      "icao": "LIPY",
      "alert": "OK",
      "vis_m": 1500,
      "fzfg": false,
      "metar_trigger": false,
      "taf_trigger": false,
      "metar": "METAR LIPY 010650Z 22003KT 1500 BR OVC030 08/08 Q1026",
      "taf": "TAF LIPY 010500Z 0106/0206 VRB04KT 0200 FG BKN002"
    },
    {
      "icao": "LIPZ",
      "alert": "OK",
      "vis_m": 450,
      "fzfg": false,
      "metar_trigger": false,
      "taf_trigger": false,
      "metar": "METAR LIPZ 010650Z 04004KT 0450 R04R/0900U FG VV002 09/09 Q1026 NOSIG",
      "taf": "TAF LIPZ 010500Z 0106/0212 VRB04KT 0300 FG OVC001"
    },
    {
      "icao": "LIRF",
      "alert": "OK",
      "vis_m": 9000,
      "fzfg": false,
      "metar_trigger": false,
      "taf_trigger": false,
      "metar": "METAR LIRF 010650Z 06003KT 9000 BKN050 10/08 Q1025 NOSIG",
      "taf": "TAF LIRF 010500Z 0106/0212 VRB05KT 9999 SCT040"
    },
    {
      "icao": "LIRN",
      "alert": "OK",
      "vis_m": 5000,
      "fzfg": false,
      "metar_trigger": false,
      "taf_trigger": false,
      "metar": "METAR LIRN 010650Z 04003KT 5000 BR BKN040 11/08 Q1025 NOSIG",
      "taf": "TAF LIRN 010500Z 0106/0206 VRB05KT 9999 SCT030"
    },
    {
      "icao": "LIRP",
      "alert": "OK",
      "vis_m": 8000,
      "fzfg": false,
      "metar_trigger": false,
      "taf_trigger": false,
      "metar": "METAR LIRP 010645Z 12004KT 8000 SCT040 08/08 Q1025 TEMPO 3000",
      "taf": "TAF LIRP 010500Z 0106/0206 12002KT 9999 BKN040"
    },
    {
      "icao": "LIRZ",
      "alert": "OK",
      "vis_m": 9999,
      "fzfg": false,
      "metar_trigger": false,
      "taf_trigger": false,
      "metar": "METAR LIRZ 010650Z 02004KT CAVOK 06/05 Q1025",
      "taf": "TAF LIRZ 010500Z 0106/0206 VRB05KT 9999 FEW035"
    },
    {
      "icao": "LJLJ",
      "alert": "OK",
      "vis_m": 9999,
      "fzfg": false,
      "metar_trigger": false,
      "taf_trigger": false,
      "metar": "METAR LJLJ 010630Z COR 28002KT 9999 FEW003 M01/M01 Q1025 NOSIG",
      "taf": "TAF LJLJ 010500Z 0106/0206 VRB02KT 9999 FEW060"
    },
    {
      "icao": "LKMT",
      "alert": "OK",
      "vis_m": 9999,
      "fzfg": false,
      "metar_trigger": false,
      "taf_trigger": false,
      "metar": "METAR LKMT 010630Z 23005KT CAVOK 05/01 Q1025 NOSIG",
      "taf": "TAF LKMT 010500Z 0106/0206 23008KT 9999 SCT040"
    },
    {
      "icao": "LKPR",
      "alert": "OK",
      "vis_m": 9999,
      "fzfg": false,
      "metar_trigger": false,
      "taf_trigger": false,
      "metar": "METAR LKPR 010630Z 20007KT CAVOK 04/03 Q1025 NOSIG",
      "taf": "TAF LKPR 010500Z 0106/0212 22006KT CAVOK"
    },
    {
      "icao": "LLBG",
      "alert": "OK",
      "vis_m": 9999,
      "fzfg": false,
      "metar_trigger": false,
      "taf_trigger": false,
      "metar": "METAR LLBG 010650Z VRB02KT CAVOK 12/05 Q1019 NOSIG RMK BKN085",
      "taf": "TAF LLBG 010411Z 0106/0206 VRB04KT CAVOK TX17/0112Z TN06/0204Z"
    },
    {
      "icao": "LMML",
      "alert": "OK",
      "vis_m": 9999,
      "fzfg": false,
      "metar_trigger": false,
      "taf_trigger": false,
      "metar": "METAR LMML 010645Z 08003KT 040V120 9999 MIFG FEW017 13/13 Q1025 NOSIG",
      "taf": "TAF LMML 010500Z 0106/0206 11005KT 9999 SCT015"
    },
    {
      "icao": "LOWW",
      "alert": "OK",
      "vis_m": 9999,
      "fzfg": false,
      "metar_trigger": false,
      "taf_trigger": false,
      "metar": "METAR LOWW 010650Z 19005KT CAVOK 04/01 Q1026 NOSIG",
      "taf": "TAF LOWW 010521Z 0106/0212 VRB03KT 9999 SCT040 BKN050 TX12/0114Z TN02/0106Z"
    },
    {
      "icao": "LPFR",
      "alert": "OK",
      "vis_m": 9999,
      "fzfg": false,
      "metar_trigger": false,
      "taf_trigger": false,
      "metar": "METAR LPFR 010630Z 03008KT CAVOK 11/09 Q1021",
      "taf": "TAF LPFR 010500Z 0106/0206 04007KT CAVOK"
    },
    {
      "icao": "LPMA",
      "alert": "OK",
      "vis_m": 9999,
      "fzfg": false,
      "metar_trigger": false,
      "taf_trigger": false,
      "metar": "METAR LPMA 010630Z 34009KT 310V010 9999 BKN015 15/07 Q1023",
      "taf": "TAF LPMA 010500Z 0106/0206 01013KT 9999 SCT015"
    },
    {
      "icao": "LPPR",
      "alert": "OK",
      "vis_m": 9999,
      "fzfg": false,
      "metar_trigger": false,
      "taf_trigger": false,
      "metar": "METAR LPPR 010630Z 04003KT 350V110 CAVOK 08/04 Q1022",
      "taf": "TAF LPPR 010500Z 0106/0206 VRB02KT CAVOK"
    },
    {
      "icao": "LPPS",
      "alert": "OK",
      "vis_m": 9999,
      "fzfg": false,
      "metar_trigger": false,
      "taf_trigger": false,
      "metar": "METAR LPPS 010630Z 35011KT 9999 FEW015 BKN030 15/07 Q1023",
      "taf": "TAF LPPS 010500Z 0106/0212 03013KT 9999 SCT014 BKN030"
    },
    {
      "icao": "LPPT",
      "alert": "OK",
      "vis_m": 9999,
      "fzfg": false,
      "metar_trigger": false,
      "taf_trigger": false,
      "metar": "METAR LPPT 010630Z 08003KT CAVOK 08/06 Q1021",
      "taf": "TAF LPPT 010500Z 0106/0212 32008KT CAVOK"
    },
    {
      "icao": "LQBK",
      "alert": "OK",
      "vis_m": 9999,
      "fzfg": false,
      "metar_trigger": false,
      "taf_trigger": false,
      "metar": "METAR LQBK 010630Z 14004KT CAVOK 01/00 Q1025 NOSIG",
      "taf": "TAF LQBK 010500Z 0106/0206 15005KT CAVOK TX17/0114Z TNM00/0106Z"
    },
    {
      "icao": "LQSA",
      "alert": "OK",
      "vis_m": 9999,
      "fzfg": false,
      "metar_trigger": false,
      "taf_trigger": false,
      "metar": "METAR LQSA 010630Z 00000KT CAVOK 01/00 Q1026 NOSIG",
      "taf": "TAF LQSA 010500Z 0106/0206 VRB02KT CAVOK TX19/0114Z TNM01/0205Z"
    },
    {
      "icao": "LQTZ",
      "alert": "OK",
      "vis_m": 6000,
      "fzfg": false,
      "metar_trigger": false,
      "taf_trigger": false,
      "metar": "METAR LQTZ 010630Z VRB02KT 6000 NSC M01/M01 Q1025",
      "taf": "TAF LQTZ 010500Z 0106/0206 06005KT CAVOK TX18/0114Z TNM02/0106Z"
    },
    {
      "icao": "LRBC",
      "alert": "OK",
      "vis_m": 200,
      "fzfg": true,
      "metar_trigger": false,
      "taf_trigger": false,
      "metar": "METAR LRBC 010630Z 15011KT 0200 R16/0550N FZFG VV002 M02/M02 Q1028",
      "taf": ""
    },
    {
      "icao": "LRBS",
      "alert": "OK",
      "vis_m": 700,
      "fzfg": true,
      "metar_trigger": false,
      "taf_trigger": false,
      "metar": "METAR LRBS 010630Z 25007KT 0700 R07/1000D FZFG OVC001 M02/M03 Q1030 BECMG 1500 BR BKN002",
      "taf": "TAF LRBS 010500Z 0106/0206 25006KT 0600 FZFG VV001"
    },
    {
      "icao": "LRBV",
      "alert": "OK",
      "vis_m": 9999,
      "fzfg": false,
      "metar_trigger": false,
      "taf_trigger": false,
      "metar": "METAR LRBV 010630Z 13002KT CAVOK M01/M03 Q1027",
      "taf": "TAF LRBV 010500Z 0106/0115 VRB04KT CAVOK"
    },
    {
      "icao": "LRCL",
      "alert": "OK",
      "vis_m": 9999,
      "fzfg": false,
      "metar_trigger": false,
      "taf_trigger": false,
      "metar": "METAR LRCL 010630Z 00000KT CAVOK M02/M04 Q1027",
      "taf": "TAF LRCL 010500Z 0106/0115 VRB04KT CAVOK"
    },
    {
      "icao": "LRCV",
      "alert": "OK",
      "vis_m": 400,
      "fzfg": true,
      "metar_trigger": false,
      "taf_trigger": false,
      "metar": "METAR LRCV 010630Z 27003KT 230V310 0400 R26/1100U FZFG OVC001 M02/M02 Q1030",
      "taf": "TAF LRCV 010500Z 0106/0115 VRB04KT 0600 FZFG OVC001"
    },
    {
      "icao": "LRIA",
      "alert": "OK",
      "vis_m": 9000,
      "fzfg": false,
      "metar_trigger": false,
      "taf_trigger": false,
      "metar": "METAR LRIA 010630Z 14004KT 9000 BKN003 M02/M03 Q1028",
      "taf": "TAF LRIA 010500Z 0106/0115 12008KT 3000 BR BKN001"
    },
    {
      "icao": "LROP",
      "alert": "OK",
      "vis_m": 500,
      "fzfg": true,
      "metar_trigger": false,
      "taf_trigger": false,
      "metar": "METAR LROP 010630Z 23007KT 0500 R08R/1100U R08L/1000U FZFG OVC001 M02/M02 Q1030 BECMG 1500 BKN002",
      "taf": "TAF LROP 010500Z 0106/0206 25006KT 0600 FZFG VV001"
    },
    {
      "icao": "LRSB",
      "alert": "OK",
      "vis_m": 9999,
      "fzfg": false,
      "metar_trigger": false,
      "taf_trigger": false,
      "metar": "METAR LRSB 010630Z VRB01KT CAVOK 01/M02 Q1027",
      "taf": "TAF LRSB 010500Z 0106/0206 VRB04KT CAVOK"
    },
    {
      "icao": "LRSM",
      "alert": "OK",
      "vis_m": 9999,
      "fzfg": false,
      "metar_trigger": false,
      "taf_trigger": false,
      "metar": "METAR LRSM 010630Z 13003KT CAVOK 00/M01 Q1027",
      "taf": "TAF LRSM 010500Z 0106/0115 VRB04KT CAVOK"
    },
    {
      "icao": "LRSV",
      "alert": "CRITICAL",
      "vis_m": 100,
      "fzfg": true,
      "metar_trigger": true,
      "taf_trigger": false,
      "metar": "METAR LRSV 010630Z 19004KT 0100 R34/0250N FZFG VV001 M03/M04 Q1025",
      "taf": "TAF LRSV 010500Z 0106/0115 VRB04KT 0200 FZFG VV001"
    },
    {
      "icao": "LRTM",
      "alert": "OK",
      "vis_m": 8000,
      "fzfg": false,
      "metar_trigger": false,
      "taf_trigger": false,
      "metar": "METAR LRTM 010630Z 07003KT 8000 FEW011 M01/M03 Q1028",
      "taf": "TAF LRTM 010500Z 0106/0115 VRB04KT CAVOK"
    },
    {
      "icao": "LRTR",
      "alert": "OK",
      "vis_m": 9999,
      "fzfg": false,
      "metar_trigger": false,
      "taf_trigger": false,
      "metar": "METAR LRTR 010630Z 10008KT CAVOK 03/M00 Q1026",
      "taf": "TAF LRTR 010500Z 0106/0206 09006KT CAVOK"
    },
    {
      "icao": "LTAC",
      "alert": "OK",
      "vis_m": 9999,
      "fzfg": false,
      "metar_trigger": false,
      "taf_trigger": false,
      "metar": "METAR LTAC 010650Z 06006KT 9999 SCT040 02/M05 Q1024 NOSIG RMK RWY21C 03005KT 350V070 RWY03L 05006KT 010V070 RWY21R 04005KT 360V070 RWY03R 03004KT 350V060 RWY21L 04005KT 360V060",
      "taf": "TAF LTAC 010440Z 0106/0206 01008KT 9999 SCT040"
    },
    {
      "icao": "LTFM",
      "alert": "OK",
      "vis_m": 9999,
      "fzfg": false,
      "metar_trigger": false,
      "taf_trigger": false,
      "metar": "METAR LTFM 010650Z 03011KT 9999 FEW016 BKN024 06/03 Q1029 NOSIG RMK RWY17L 03010KT RWY34L 03009KT RWY16R 02012KT RWY36 04010KT RWY18 04009KT",
      "taf": "TAF LTFM 010440Z 0106/0212 04010KT 9999 FEW016 BKN024"
    },
    {
      "icao": "LUKK",
      "alert": "OK",
      "vis_m": 9999,
      "fzfg": false,
      "metar_trigger": false,
      "taf_trigger": false,
      "metar": "METAR LUKK 010630Z VRB03KT CAVOK M01/M02 Q1029 NOSIG",
      "taf": "TAF LUKK 010521Z 0106/0206 VRB06KT CAVOK"
    },
    {
      "icao": "LWOH",
      "alert": "OK",
      "vis_m": 9999,
      "fzfg": false,
      "metar_trigger": false,
      "taf_trigger": false,
      "metar": "METAR LWOH 010650Z 30003KT 270V330 9999 FEW008 03/01 Q1027",
      "taf": "TAF LWOH 010530Z 0106/0206 VRB02KT CAVOK"
    },
    {
      "icao": "LWSK",
      "alert": "OK",
      "vis_m": 9999,
      "fzfg": false,
      "metar_trigger": false,
      "taf_trigger": false,
      "metar": "METAR LWSK 010650Z VRB01KT 9999 OVC010 03/01 Q1029 NOSIG",
      "taf": ""
    },
    {
      "icao": "LYBE",
      "alert": "OK",
      "vis_m": 9999,
      "fzfg": false,
      "metar_trigger": false,
      "taf_trigger": false,
      "metar": "METAR LYBE 010630Z 10004KT CAVOK 02/M02 Q1026 NOSIG",
      "taf": "TAF LYBE 010500Z 0106/0206 09006KT CAVOK TX15/0113Z TNM00/0106Z"
    },
    {
      "icao": "LYNI",
      "alert": "OK",
      "vis_m": 9999,
      "fzfg": false,
      "metar_trigger": false,
      "taf_trigger": false,
      "metar": "METAR LYNI 010630Z 19004KT 140V230 CAVOK 01/M00 Q1028 NOSIG",
      "taf": "TAF LYNI 010500Z 0106/0206 12005KT CAVOK TX16/0113Z TNM02/0205Z"
    },
    {
      "icao": "LYPG",
      "alert": "OK",
      "vis_m": 9999,
      "fzfg": false,
      "metar_trigger": false,
      "taf_trigger": false,
      "metar": "METAR LYPG 010630Z VRB01KT CAVOK 06/04 Q1027 NOSIG",
      "taf": "TAF LYPG 010500Z 0106/0206 16005KT CAVOK TX18/0113Z TN03/0205Z"
    },
    {
      "icao": "LZIB",
      "alert": "OK",
      "vis_m": 9999,
      "fzfg": false,
      "metar_trigger": false,
      "taf_trigger": false,
      "metar": "METAR LZIB 010630Z 04006KT CAVOK 02/M00 Q1026 NOSIG",
      "taf": "TAF LZIB 010515Z 0106/0206 03007KT CAVOK"
    },
    {
      "icao": "LZKZ",
      "alert": "OK",
      "vis_m": 9999,
      "fzfg": false,
      "metar_trigger": false,
      "taf_trigger": false,
      "metar": "METAR LZKZ 010630Z 00000KT CAVOK 00/M02 Q1026 NOSIG",
      "taf": "TAF LZKZ 010515Z 0106/0206 VRB02KT CAVOK"
    },
    {
      "icao": "LZTT",
      "alert": "OK",
      "vis_m": 9999,
      "fzfg": false,
      "metar_trigger": false,
      "taf_trigger": false,
      "metar": "METAR LZTT 010630Z VRB02KT CAVOK M02/M02 Q1025 NOSIG",
      "taf": "TAF LZTT 010515Z 0106/0206 VRB02KT CAVOK"
    },
    {
      "icao": "OEJN",
      "alert": "OK",
      "vis_m": 9999,
      "fzfg": false,
      "metar_trigger": false,
      "taf_trigger": false,
      "metar": "METAR OEJN 010600Z 01011KT 9999 FEW040 24/08 Q1013 NOSIG",
      "taf": "TAF OEJN 010500Z 0106/0212 33012KT CAVOK"
    },
    {
      "icao": "OEMA",
      "alert": "OK",
      "vis_m": 9999,
      "fzfg": false,
      "metar_trigger": false,
      "taf_trigger": false,
      "metar": "METAR OEMA 010600Z 31006KT CAVOK 18/05 Q1016 NOSIG",
      "taf": "TAF OEMA 010500Z 0106/0212 27010KT CAVOK"
    },
    {
      "icao": "OJAI",
      "alert": "OK",
      "vis_m": 4000,
      "fzfg": false,
      "metar_trigger": false,
      "taf_trigger": false,
      "metar": "METAR OJAI 010600Z 00000KT 4000 HZ NSC 04/M01 Q1019 NOSIG",
      "taf": "TAF OJAI 010500Z 0106/0212 31010KT 5000 HZ FEW030"
    },
    {
      "icao": "OMAA",
      "alert": "OK",
      "vis_m": 9999,
      "fzfg": false,
      "metar_trigger": false,
      "taf_trigger": false,
      "metar": "METAR OMAA 010630Z AUTO 13008KT CAVOK 32/00 Q1011 NOSIG",
      "taf": "TAF OMAA 010500Z 0106/0212 09005KT CAVOK"
    },
    {
      "icao": "OMDB",
      "alert": "OK",
      "vis_m": 9999,
      "fzfg": false,
      "metar_trigger": false,
      "taf_trigger": false,
      "metar": "METAR OMDB 010630Z 09004KT 020V130 CAVOK 30/M00 Q1011 NOSIG",
      "taf": "TAF OMDB 010500Z 0106/0212 09005KT 8000 NSC"
    },
    {
      "icao": "UAAA",
      "alert": "OK",
      "vis_m": 9999,
      "fzfg": false,
      "metar_trigger": false,
      "taf_trigger": false,
      "metar": "METAR UAAA 010630Z 02004MPS 340V050 9999 BKN033 BKN100 M06/M11 Q1025 NOSIG",
      "taf": "TAF UAAA 010501Z 0106/0206 04003G08MPS 9999 SCT050 BKN100 TXM05/0109Z TNM10/0202Z"
    },
    {
      "icao": "UBBB",
      "alert": "OK",
      "vis_m": 9999,
      "fzfg": false,
      "metar_trigger": false,
      "taf_trigger": false,
      "metar": "METAR UBBB 010630Z 32018KT 9999 BKN022 05/M01 Q1023 NOSIG",
      "taf": ""
    },
    {
      "icao": "UDSG",
      "alert": "OK",
      "vis_m": 9999,
      "fzfg": false,
      "metar_trigger": false,
      "taf_trigger": false,
      "metar": "METAR UDSG 010630Z 08002KT 9999 SCT033 M05/M07 Q1018 NOSIG",
      "taf": "TAF UDSG 010458Z 0106/0206 VRB06KT 5000 BR BKN030"
    },
    {
      "icao": "UDYZ",
      "alert": "OK",
      "vis_m": 9999,
      "fzfg": false,
      "metar_trigger": false,
      "taf_trigger": false,
      "metar": "METAR UDYZ 010630Z VRB01KT 9999 SCT016 02/M02 Q1019 NOSIG",
      "taf": "TAF UDYZ 010500Z 0106/0206 VRB06KT 2300 BR SCT020"
    },
    {
      "icao": "UGKO",
      "alert": "OK",
      "vis_m": 9999,
      "fzfg": false,
      "metar_trigger": false,
      "taf_trigger": false,
      "metar": "METAR UGKO 010630Z 29008KT 9999 -RA SCT019 OVC031 05/04 Q1022 NOSIG",
      "taf": "TAF UGKO 010500Z 0106/0206 26010KT 9999 SCT020 OVC030 TX07/0112Z TN04/0202Z"
    }
  ]
}