{
  "ts_utc": "2026-03-16T23:18:24Z",
  "threshold_m": 150,
  "source": "stations_override.txt (ICAO list) + aviationweather.gov (METAR/TAF raw)",
  "station_count": 159,
  "stations": [
    {
      "icao": "BIKF",
      "alert": "OK",
      "vis_m": 9999,
      "fzfg": false,
      "metar_trigger": false,
      "taf_trigger": false,
      "metar": "METAR BIKF 162300Z 02022KT CAVOK 01/M02 Q0976",
      "taf": "TAF BIKF 162235Z 1700/1800 03023G36KT 9999 FEW035 TX02/1714Z TN00/1712Z"
    },
    {
      "icao": "BKPR",
      "alert": "OK",
      "vis_m": 9999,
      "fzfg": false,
      "metar_trigger": false,
      "taf_trigger": false,
      "metar": "METAR BKPR 162300Z 34004KT CAVOK 06/01 Q1015 NOSIG",
      "taf": ""
    },
    {
      "icao": "EBCI",
      "alert": "OK",
      "vis_m": 8000,
      "fzfg": false,
      "metar_trigger": false,
      "taf_trigger": false,
      "metar": "METAR EBCI 162250Z 22009KT 8000 -RA BKN020 08/06 Q1021 NOSIG",
      "taf": "TAF EBCI 161708Z 1618/1724 23007KT 9999 FEW040"
    },
    {
      "icao": "EDDB",
      "alert": "OK",
      "vis_m": 9999,
      "fzfg": false,
      "metar_trigger": false,
      "taf_trigger": false,
      "metar": "METAR EDDB 162250Z AUTO 28008KT CAVOK 01/01 Q1019 NOSIG",
      "taf": "TAF EDDB 161700Z 1618/1718 27007KT 9999 FEW020"
    },
    {
      "icao": "EDDH",
      "alert": "OK",
      "vis_m": 9999,
      "fzfg": false,
      "metar_trigger": false,
      "taf_trigger": false,
      "metar": "METAR EDDH 162250Z AUTO 22003KT CAVOK 01/M00 Q1018 NOSIG",
      "taf": "TAF EDDH 161700Z 1618/1724 29009KT 9999 SCT030"
    },
    {
      "icao": "EDDK",
      "alert": "OK",
      "vis_m": 9999,
      "fzfg": false,
      "metar_trigger": false,
      "taf_trigger": false,
      "metar": "METAR EDDK 162250Z AUTO 14006KT 9999 BKN045 06/03 Q1021 NOSIG",
      "taf": "TAF EDDK 161700Z 1618/1724 26007KT 9999 BKN030"
    },
    {
      "icao": "EDDN",
      "alert": "OK",
      "vis_m": 9999,
      "fzfg": false,
      "metar_trigger": false,
      "taf_trigger": false,
      "metar": "METAR EDDN 162250Z AUTO 12004KT 100V160 CAVOK 01/00 Q1022",
      "taf": "TAF EDDN 161700Z 1618/1718 25006KT 9999 SCT020"
    },
    {
      "icao": "EDDS",
      "alert": "OK",
      "vis_m": 9999,
      "fzfg": false,
      "metar_trigger": false,
      "taf_trigger": false,
      "metar": "METAR EDDS 162250Z AUTO 26003KT 9999 FEW041 04/02 Q1022",
      "taf": "TAF EDDS 161700Z 1618/1718 26006KT 9999 SCT040"
    },
    {
      "icao": "EDFH",
      "alert": "OK",
      "vis_m": 9999,
      "fzfg": false,
      "metar_trigger": false,
      "taf_trigger": false,
      "metar": "METAR EDFH 162250Z 24006KT 9999 FEW017 BKN033 05/03 Q1020",
      "taf": "TAF EDFH 161700Z 1618/1718 26006KT 9999 SCT030"
    },
    {
      "icao": "EDJA",
      "alert": "OK",
      "vis_m": 9999,
      "fzfg": false,
      "metar_trigger": false,
      "taf_trigger": false,
      "metar": "METAR EDJA 162250Z AUTO 23007KT 9999 // BKN026/// OVC059/// 04/02 Q1022",
      "taf": "TAF EDJA 161700Z 1618/1703 24015G25KT 9999 BKN040"
    },
    {
      "icao": "EDLW",
      "alert": "OK",
      "vis_m": 9999,
      "fzfg": false,
      "metar_trigger": false,
      "taf_trigger": false,
      "metar": "METAR EDLW 162250Z AUTO 18008KT 9999 // OVC160/// 04/01 Q1019",
      "taf": "TAF EDLW 161700Z 1618/1718 25008KT 9999 BKN020"
    },
    {
      "icao": "EDNY",
      "alert": "OK",
      "vis_m": 9999,
      "fzfg": false,
      "metar_trigger": false,
      "taf_trigger": false,
      "metar": "METAR EDNY 162250Z AUTO 19003KT 9999 // SCT060/// SCT077/// OVC095/// 05/02 Q1023",
      "taf": "TAF EDNY 161700Z 1618/1703 25010KT 9999 SCT050"
    },
    {
      "icao": "EDSB",
      "alert": "OK",
      "vis_m": 9999,
      "fzfg": false,
      "metar_trigger": false,
      "taf_trigger": false,
      "metar": "METAR EDSB 162250Z AUTO 21006KT 9999 FEW037/// SCT046/// OVC071/// 07/04 Q1022",
      "taf": "TAF EDSB 161700Z 1618/1718 21005KT 9999 SCT045"
    },
    {
      "icao": "EETN",
      "alert": "OK",
      "vis_m": 1200,
      "fzfg": false,
      "metar_trigger": false,
      "taf_trigger": false,
      "metar": "METAR EETN 162250Z 11004KT 1200 R08/P2000N BR OVC002 03/03 Q1016",
      "taf": ""
    },
    {
      "icao": "EFTU",
      "alert": "OK",
      "vis_m": 8000,
      "fzfg": false,
      "metar_trigger": false,
      "taf_trigger": false,
      "metar": "METAR EFTU 162250Z AUTO 14005KT 8000 -RA OVC003 02/01 Q1016",
      "taf": ""
    },
    {
      "icao": "EGBB",
      "alert": "OK",
      "vis_m": 9999,
      "fzfg": false,
      "metar_trigger": false,
      "taf_trigger": false,
      "metar": "METAR EGBB 162250Z 20010KT 9999 SCT010 10/08 Q1013",
      "taf": "TAF EGBB 162303Z 1700/1724 20010KT 9999 FEW014 BKN020"
    },
    {
      "icao": "EGGP",
      "alert": "OK",
      "vis_m": 9999,
      "fzfg": false,
      "metar_trigger": false,
      "taf_trigger": false,
      "metar": "METAR EGGP 162250Z 17008KT 9999 BKN022 BKN027 10/08 Q1011",
      "taf": "TAF EGGP 162259Z 1700/1724 18010KT 9999 SCT020"
    },
    {
      "icao": "EGGW",
      "alert": "OK",
      "vis_m": 9999,
      "fzfg": false,
      "metar_trigger": false,
      "taf_trigger": false,
      "metar": "METAR EGGW 162250Z AUTO 23010KT 9999 OVC011 09/07 Q1016",
      "taf": "TAF EGGW 162302Z 1700/1724 22012KT 9999 BKN012"
    },
    {
      "icao": "EGKK",
      "alert": "OK",
      "vis_m": 9999,
      "fzfg": false,
      "metar_trigger": false,
      "taf_trigger": false,
      "metar": "METAR EGKK 162250Z 21007KT 170V250 9999 BKN010 10/09 Q1018",
      "taf": "TAF EGKK 162254Z 1700/1806 20012KT 9999 SCT025"
    },
    {
      "icao": "EGNM",
      "alert": "OK",
      "vis_m": 9999,
      "fzfg": false,
      "metar_trigger": false,
      "taf_trigger": false,
      "metar": "METAR EGNM 162150Z 23012KT 9999 SCT007 BKN010 09/08 Q1010",
      "taf": "TAF EGNM 162303Z 1700/1724 23010KT 9999 BKN010"
    },
    {
      "icao": "EGPD",
      "alert": "OK",
      "vis_m": 9999,
      "fzfg": false,
      "metar_trigger": false,
      "taf_trigger": false,
      "metar": "METAR EGPD 162250Z AUTO 19013KT 9999 BKN012 09/07 Q1000 TEMPO BKN015",
      "taf": "TAF EGPD 162259Z 1700/1724 19012KT 9999 SCT012"
    },
    {
      "icao": "EGPF",
      "alert": "OK",
      "vis_m": 9999,
      "fzfg": false,
      "metar_trigger": false,
      "taf_trigger": false,
      "metar": "METAR EGPF 162250Z AUTO 21022KT 9999 BKN048 11/09 Q1002",
      "taf": "TAF EGPF 162256Z 1700/1724 21013KT 9999 FEW020 BKN025"
    },
    {
      "icao": "EHBK",
      "alert": "OK",
      "vis_m": 9999,
      "fzfg": false,
      "metar_trigger": false,
      "taf_trigger": false,
      "metar": "METAR EHBK 162255Z AUTO 21007KT 9999 OVC026/// 07/05 Q1020 NOSIG",
      "taf": "TAF EHBK 161716Z 1618/1724 22005KT 9999 SCT030"
    },
    {
      "icao": "EHEH",
      "alert": "OK",
      "vis_m": 9999,
      "fzfg": false,
      "metar_trigger": false,
      "taf_trigger": false,
      "metar": "METAR EHEH 162255Z AUTO 20004KT 9999 OVC023 06/04 Q1019 WHT",
      "taf": "TAF EHEH 161747Z 1618/1724 21005KT CAVOK"
    },
    {
      "icao": "EKBI",
      "alert": "OK",
      "vis_m": 9999,
      "fzfg": false,
      "metar_trigger": false,
      "taf_trigger": false,
      "metar": "METAR EKBI 162250Z AUTO 18004KT 9999 SCT020/// M00/M00 Q1015",
      "taf": "TAF EKBI 162027Z 1621/1721 23005KT 9999 SCT020"
    },
    {
      "icao": "EKCH",
      "alert": "OK",
      "vis_m": 9999,
      "fzfg": false,
      "metar_trigger": false,
      "taf_trigger": false,
      "metar": "METAR EKCH 162250Z AUTO 28007KT 9999 SCT042/// 03/01 Q1016 NOSIG",
      "taf": "TAF EKCH 162027Z 1621/1721 27008KT 9999 FEW030"
    },
    {
      "icao": "ENAL",
      "alert": "OK",
      "vis_m": 9999,
      "fzfg": false,
      "metar_trigger": false,
      "taf_trigger": false,
      "metar": "METAR ENAL 162250Z 20016KT 170V230 9999 BKN056 07/M00 Q1001",
      "taf": "TAF ENAL 162000Z 1621/1706 20015KT 9999 FEW050"
    },
    {
      "icao": "ENBR",
      "alert": "OK",
      "vis_m": 9999,
      "fzfg": false,
      "metar_trigger": false,
      "taf_trigger": false,
      "metar": "METAR ENBR 162250Z 14013KT 9999 SCT024 BKN034 04/01 Q1006 RMK WIND 1200FT 15023KT",
      "taf": "TAF ENBR 161700Z 1618/1718 18015KT 9999 SCT025 BKN035"
    },
    {
      "icao": "ENGM",
      "alert": "OK",
      "vis_m": 9999,
      "fzfg": false,
      "metar_trigger": false,
      "taf_trigger": false,
      "metar": "METAR ENGM 162250Z 22007KT 9999 BKN011 02/00 Q1009",
      "taf": ""
    },
    {
      "icao": "ENHD",
      "alert": "OK",
      "vis_m": 9999,
      "fzfg": false,
      "metar_trigger": false,
      "taf_trigger": false,
      "metar": "METAR ENHD 162250Z AUTO 16014KT 9999 BKN011/// BKN014/// OVC030/// 06/04 Q1008",
      "taf": "TAF ENHD 161400Z 1615/1623 18012KT 9999 FEW012 SCT030"
    },
    {
      "icao": "ENTC",
      "alert": "OK",
      "vis_m": 9999,
      "fzfg": false,
      "metar_trigger": false,
      "taf_trigger": false,
      "metar": "METAR ENTC 162250Z 20014KT 9999 BKN055 02/M03 Q1003 RMK WIND 2600FT 19009KT",
      "taf": "TAF ENTC 161700Z 1618/1718 20008KT 9999 SCT045"
    },
    {
      "icao": "ENTO",
      "alert": "OK",
      "vis_m": 9999,
      "fzfg": false,
      "metar_trigger": false,
      "taf_trigger": false,
      "metar": "METAR ENTO 162250Z AUTO 24003KT 9999 NCD 01/01 Q1010",
      "taf": ""
    },
    {
      "icao": "ENVA",
      "alert": "OK",
      "vis_m": 9999,
      "fzfg": false,
      "metar_trigger": false,
      "taf_trigger": false,
      "metar": "METAR ENVA 162250Z 05005KT 010V080 CAVOK 04/M02 Q1003 RMK WIND 670FT 18016KT",
      "taf": "TAF ENVA 161700Z 1618/1718 13007KT CAVOK"
    },
    {
      "icao": "ENZV",
      "alert": "OK",
      "vis_m": 9999,
      "fzfg": false,
      "metar_trigger": false,
      "taf_trigger": false,
      "metar": "METAR ENZV 162250Z 16012KT 9999 FEW015 SCT020 BKN033 06/03 Q1009",
      "taf": "TAF ENZV 161700Z 1618/1718 17012KT 9999 SCT020"
    },
    {
      "icao": "EPGD",
      "alert": "OK",
      "vis_m": 9999,
      "fzfg": false,
      "metar_trigger": false,
      "taf_trigger": false,
      "metar": "METAR EPGD 162300Z 24005KT 200V260 9999 BKN011 04/03 Q1014",
      "taf": "TAF EPGD 161730Z 1618/1718 18004KT 9999 -RA BKN020"
    },
    {
      "icao": "EPKK",
      "alert": "OK",
      "vis_m": 9999,
      "fzfg": false,
      "metar_trigger": false,
      "taf_trigger": false,
      "metar": "METAR EPKK 162300Z 26003KT 9999 BKN041 05/02 Q1017",
      "taf": "TAF EPKK 162030Z 1621/1721 VRB02KT CAVOK"
    },
    {
      "icao": "EPKT",
      "alert": "OK",
      "vis_m": 9999,
      "fzfg": false,
      "metar_trigger": false,
      "taf_trigger": false,
      "metar": "METAR EPKT 162300Z 28003KT 9999 SCT046 03/01 Q1017",
      "taf": ""
    },
    {
      "icao": "EPLB",
      "alert": "OK",
      "vis_m": 9999,
      "fzfg": false,
      "metar_trigger": false,
      "taf_trigger": false,
      "metar": "METAR EPLB 162300Z 30005KT CAVOK 04/03 Q1016",
      "taf": "TAF EPLB 161730Z 1618/1718 25012KT CAVOK"
    },
    {
      "icao": "EPMO",
      "alert": "OK",
      "vis_m": 3200,
      "fzfg": false,
      "metar_trigger": false,
      "taf_trigger": false,
      "metar": "METAR EPMO 162300Z 21004KT 3200 MIFG BR FEW029 05/04 Q1017",
      "taf": ""
    },
    {
      "icao": "EPPO",
      "alert": "OK",
      "vis_m": 9999,
      "fzfg": false,
      "metar_trigger": false,
      "taf_trigger": false,
      "metar": "METAR EPPO 162300Z 29007KT 9999 FEW011 04/03 Q1017",
      "taf": "TAF EPPO 161730Z 1618/1718 22008KT 9999 SCT030"
    },
    {
      "icao": "EPRA",
      "alert": "OK",
      "vis_m": 9999,
      "fzfg": false,
      "metar_trigger": false,
      "taf_trigger": false,
      "metar": "METAR EPRA 162300Z 25004KT CAVOK 05/02 Q1017",
      "taf": "TAF EPRA 162030Z 1621/1706 27006KT 9999 SCT040"
    },
    {
      "icao": "EPRZ",
      "alert": "OK",
      "vis_m": 9999,
      "fzfg": false,
      "metar_trigger": false,
      "taf_trigger": false,
      "metar": "METAR EPRZ 162300Z 25011KT 9999 SCT028 BKN040 07/04 Q1017",
      "taf": "TAF EPRZ 161730Z 1618/1718 30007KT CAVOK"
    },
    {
      "icao": "EPSC",
      "alert": "OK",
      "vis_m": 9999,
      "fzfg": false,
      "metar_trigger": false,
      "taf_trigger": false,
      "metar": "METAR EPSC 162300Z 25006KT 9999 FEW034 BKN046 04/02 Q1017",
      "taf": "TAF EPSC 161730Z 1618/1718 26010KT 9999 BKN020"
    },
    {
      "icao": "EPSY",
      "alert": "OK",
      "vis_m": 4000,
      "fzfg": false,
      "metar_trigger": false,
      "taf_trigger": false,
      "metar": "METAR EPSY 162300Z 20004KT 4000 BR BKN035 04/04 Q1016",
      "taf": "TAF EPSY 162030Z 1621/1706 23006KT 5000 -RA BR BKN040"
    },
    {
      "icao": "EPWA",
      "alert": "OK",
      "vis_m": 9999,
      "fzfg": false,
      "metar_trigger": false,
      "taf_trigger": false,
      "metar": "METAR EPWA 162300Z 16002KT 9999 MIFG FEW040 04/04 Q1017 TEMPO 1500 BR",
      "taf": "TAF EPWA 162030Z 1621/1721 VRB02KT 9999 SCT035"
    },
    {
      "icao": "EPWR",
      "alert": "OK",
      "vis_m": 9999,
      "fzfg": false,
      "metar_trigger": false,
      "taf_trigger": false,
      "metar": "METAR EPWR 162300Z 28007KT 9999 -SHRA FEW015CB BKN018 05/03 Q1018",
      "taf": "TAF EPWR 162030Z 1621/1721 26004KT 9999 BKN045"
    },
    {
      "icao": "ESGG",
      "alert": "OK",
      "vis_m": 250,
      "fzfg": false,
      "metar_trigger": false,
      "taf_trigger": false,
      "metar": "METAR ESGG 162250Z 20005KT 170V240 0250 R03/1000N R21/1100N FG VV002 02/02 Q1013",
      "taf": ""
    },
    {
      "icao": "ESKN",
      "alert": "OK",
      "vis_m": 6000,
      "fzfg": false,
      "metar_trigger": false,
      "taf_trigger": false,
      "metar": "METAR ESKN 162250Z 17005KT 140V200 6000 BKN003 03/03 Q1013",
      "taf": "TAF ESKN 162030Z 1621/1721 17008KT 5000 OVC002"
    },
    {
      "icao": "ESMS",
      "alert": "OK",
      "vis_m": 5000,
      "fzfg": false,
      "metar_trigger": false,
      "taf_trigger": false,
      "metar": "METAR ESMS 162250Z 28003KT 5000 BR SCT045 02/02 Q1015",
      "taf": ""
    },
    {
      "icao": "ESSA",
      "alert": "OK",
      "vis_m": 9999,
      "fzfg": false,
      "metar_trigger": false,
      "taf_trigger": false,
      "metar": "METAR ESSA 162250Z 17007KT 9999 BKN009 03/01 Q1013 NOSIG",
      "taf": "TAF ESSA 162030Z 1621/1721 17008KT 9999 SCT015"
    },
    {
      "icao": "EYKA",
      "alert": "OK",
      "vis_m": 9999,
      "fzfg": false,
      "metar_trigger": false,
      "taf_trigger": false,
      "metar": "METAR EYKA 162250Z 13004KT CAVOK 04/M02 Q1015",
      "taf": "TAF EYKA 162300Z 1700/1724 VRB05KT 9000 NSC"
    },
    {
      "icao": "EYPA",
      "alert": "OK",
      "vis_m": 4600,
      "fzfg": false,
      "metar_trigger": false,
      "taf_trigger": false,
      "metar": "METAR EYPA 162250Z VRB01KT 4600 BR BKN010 OVC021 04/04 Q1015",
      "taf": "TAF EYPA 162308Z 1700/1724 VRB04KT 3000 BR SCT005 BKN010"
    },
    {
      "icao": "EYVI",
      "alert": "OK",
      "vis_m": 9999,
      "fzfg": false,
      "metar_trigger": false,
      "taf_trigger": false,
      "metar": "METAR EYVI 162250Z 14007KT CAVOK 05/M03 Q1016 NOSIG",
      "taf": "TAF EYVI 162300Z 1700/1724 14008KT 9000 NSC"
    },
    {
      "icao": "GCFV",
      "alert": "OK",
      "vis_m": 9999,
      "fzfg": false,
      "metar_trigger": false,
      "taf_trigger": false,
      "metar": "METAR GCFV 162300Z 03008KT 9999 BKN015 17/14 Q1013",
      "taf": "TAF GCFV 162000Z 1621/1721 02007KT 9999 FEW020 TX22/1714Z TN16/1706Z"
    },
    {
      "icao": "GCLP",
      "alert": "OK",
      "vis_m": 9999,
      "fzfg": false,
      "metar_trigger": false,
      "taf_trigger": false,
      "metar": "METAR GCLP 162300Z 00000KT CAVOK 16/12 Q1013 NOSIG",
      "taf": "TAF GCLP 162000Z 1621/1721 34007KT 9999 FEW025 TX23/1714Z TN16/1706Z"
    },
    {
      "icao": "GCTS",
      "alert": "OK",
      "vis_m": 9999,
      "fzfg": false,
      "metar_trigger": false,
      "taf_trigger": false,
      "metar": "METAR GCTS 162300Z VRB02KT 9999 BKN020 18/13 Q1014 NOSIG",
      "taf": "TAF GCTS 162000Z 1621/1721 06004KT 9999 BKN020 TX23/1714Z TN16/1706Z"
    },
    {
      "icao": "GMAD",
      "alert": "OK",
      "vis_m": 8000,
      "fzfg": false,
      "metar_trigger": false,
      "taf_trigger": false,
      "metar": "METAR GMAD 162300Z 07005KT 8000 NSC 14/11 Q1012 NOSIG",
      "taf": "TAF GMAD 162300Z 1700/1806 06008KT 8000 BKN013 BKN080"
    },
    {
      "icao": "GMMN",
      "alert": "OK",
      "vis_m": 9999,
      "fzfg": false,
      "metar_trigger": false,
      "taf_trigger": false,
      "metar": "METAR GMMN 162300Z 19006KT CAVOK 12/11 Q1013 NOSIG",
      "taf": ""
    },
    {
      "icao": "GMMX",
      "alert": "OK",
      "vis_m": 9999,
      "fzfg": false,
      "metar_trigger": false,
      "taf_trigger": false,
      "metar": "METAR GMMX 162300Z 24003KT 210V270 CAVOK 16/12 Q1013 NOSIG",
      "taf": ""
    },
    {
      "icao": "HEGN",
      "alert": "OK",
      "vis_m": 9999,
      "fzfg": false,
      "metar_trigger": false,
      "taf_trigger": false,
      "metar": "METAR HEGN 162300Z 28006KT CAVOK 15/M02 Q1011 NOSIG",
      "taf": "TAF HEGN 162300Z 1700/1806 29012KT CAVOK"
    },
    {
      "icao": "HEMA",
      "alert": "OK",
      "vis_m": 9999,
      "fzfg": false,
      "metar_trigger": false,
      "taf_trigger": false,
      "metar": "METAR HEMA 162300Z 31010KT CAVOK 18/02 Q1012 NOSIG",
      "taf": "TAF HEMA 162300Z 1700/1806 30012KT CAVOK"
    },
    {
      "icao": "HESH",
      "alert": "OK",
      "vis_m": 9999,
      "fzfg": false,
      "metar_trigger": false,
      "taf_trigger": false,
      "metar": "METAR HESH 162300Z 33004KT CAVOK 19/03 Q1012 NOSIG",
      "taf": "TAF HESH 162300Z 1700/1806 35010KT CAVOK"
    },
    {
      "icao": "HESX",
      "alert": "OK",
      "vis_m": 9999,
      "fzfg": false,
      "metar_trigger": false,
      "taf_trigger": false,
      "metar": "METAR HESX 162300Z 06009KT CAVOK 13/07 Q1013 NOSIG",
      "taf": "TAF HESX 162300Z 1700/1806 06009KT CAVOK"
    },
    {
      "icao": "LATI",
      "alert": "OK",
      "vis_m": null,
      "fzfg": false,
      "metar_trigger": false,
      "taf_trigger": false,
      "metar": "",
      "taf": "TAF LATI 162300Z 1700/1724 VRB05KT 9999 BKN090 TX17/1712Z TN08/1704Z"
    },
    {
      "icao": "LBPD",
      "alert": "OK",
      "vis_m": 9999,
      "fzfg": false,
      "metar_trigger": false,
      "taf_trigger": false,
      "metar": "METAR LBPD 162300Z AUTO 13003KT 9999 NCD 04/01 Q1018",
      "taf": "TAF LBPD 162300Z 1700/1724 VRB03KT 9999 BKN050"
    },
    {
      "icao": "LBSF",
      "alert": "OK",
      "vis_m": 9999,
      "fzfg": false,
      "metar_trigger": false,
      "taf_trigger": false,
      "metar": "METAR LBSF 162300Z AUTO 10007KT 9999 NCD 03/M02 Q1017 NOSIG",
      "taf": "TAF LBSF 162300Z 1700/1724 11010KT 9999 BKN050"
    },
    {
      "icao": "LBWN",
      "alert": "OK",
      "vis_m": 9999,
      "fzfg": false,
      "metar_trigger": false,
      "taf_trigger": false,
      "metar": "METAR LBWN 162300Z AUTO 00000KT 9999 NSC 05/01 Q1018 NOSIG",
      "taf": "TAF LBWN 162300Z 1700/1724 VRB03KT 9999 SCT045"
    },
    {
      "icao": "LCLK",
      "alert": "OK",
      "vis_m": 9999,
      "fzfg": false,
      "metar_trigger": false,
      "taf_trigger": false,
      "metar": "METAR LCLK 162300Z 30004KT 9999 FEW050 10/09 Q1014 NOSIG",
      "taf": "TAF LCLK 161730Z 1618/1718 28006KT 9999 FEW025 SCT035"
    },
    {
      "icao": "LCPH",
      "alert": "OK",
      "vis_m": 9999,
      "fzfg": false,
      "metar_trigger": false,
      "taf_trigger": false,
      "metar": "METAR LCPH 162300Z 08007KT 9999 SCT034 10/07 Q1014 NOSIG",
      "taf": "TAF LCPH 161730Z 1618/1718 02008KT 9999 SCT028"
    },
    {
      "icao": "LEAL",
      "alert": "OK",
      "vis_m": 9999,
      "fzfg": false,
      "metar_trigger": false,
      "taf_trigger": false,
      "metar": "METAR LEAL 162300Z 29003KT 270V350 CAVOK 10/09 Q1021 NOSIG",
      "taf": "TAF LEAL 161700Z 1618/1718 VRB04KT CAVOK TX19/1712Z TN07/1706Z"
    },
    {
      "icao": "LEBB",
      "alert": "OK",
      "vis_m": 9999,
      "fzfg": false,
      "metar_trigger": false,
      "taf_trigger": false,
      "metar": "METAR LEBB 162300Z AUTO VRB02KT CAVOK 09/08 Q1021",
      "taf": "TAF LEBB 161700Z 1618/1718 11005KT 9999 FEW030 TX26/1714Z TN06/1706Z"
    },
    {
      "icao": "LEBL",
      "alert": "OK",
      "vis_m": 9999,
      "fzfg": false,
      "metar_trigger": false,
      "taf_trigger": false,
      "metar": "METAR LEBL 162300Z 30003KT CAVOK 11/08 Q1019 NOSIG",
      "taf": "TAF LEBL 161700Z 1618/1718 22008KT CAVOK TX17/1713Z TN08/1706Z"
    },
    {
      "icao": "LECH",
      "alert": "OK",
      "vis_m": 9999,
      "fzfg": false,
      "metar_trigger": false,
      "taf_trigger": false,
      "metar": "METAR LECH 162300Z AUTO 24004KT 190V320 CAVOK 08/03 Q1020",
      "taf": ""
    },
    {
      "icao": "LEMD",
      "alert": "OK",
      "vis_m": 9999,
      "fzfg": false,
      "metar_trigger": false,
      "taf_trigger": false,
      "metar": "METAR LEMD 162300Z 35002KT CAVOK 08/04 Q1020 NOSIG",
      "taf": "TAF LEMD 161700Z 1618/1724 VRB04KT CAVOK TX22/1715Z TN02/1706Z"
    },
    {
      "icao": "LEMG",
      "alert": "OK",
      "vis_m": 9999,
      "fzfg": false,
      "metar_trigger": false,
      "taf_trigger": false,
      "metar": "METAR LEMG 162300Z 13001KT 9999 FEW015 12/09 Q1021 NOSIG",
      "taf": "TAF LEMG 161700Z 1618/1718 13012KT CAVOK TX19/1714Z TN10/1707Z"
    },
    {
      "icao": "LEVC",
      "alert": "OK",
      "vis_m": 9999,
      "fzfg": false,
      "metar_trigger": false,
      "taf_trigger": false,
      "metar": "METAR LEVC 162300Z 25003KT CAVOK 08/06 Q1020 NOSIG",
      "taf": "TAF LEVC 161700Z 1618/1718 VRB04KT CAVOK TX22/1712Z TN07/1705Z"
    },
    {
      "icao": "LEXJ",
      "alert": "OK",
      "vis_m": 9999,
      "fzfg": false,
      "metar_trigger": false,
      "taf_trigger": false,
      "metar": "METAR LEXJ 162300Z AUTO 11005KT CAVOK 08/06 Q1019",
      "taf": "TAF LEXJ 162000Z 1621/1721 08010KT CAVOK TX21/1713Z TN07/1706Z"
    },
    {
      "icao": "LEZG",
      "alert": "OK",
      "vis_m": 9999,
      "fzfg": false,
      "metar_trigger": false,
      "taf_trigger": false,
      "metar": "METAR LEZG 162300Z 28008KT CAVOK 11/07 Q1020 NOSIG",
      "taf": "TAF LEZG 161700Z 1618/1718 30012KT CAVOK TX21/1714Z TN05/1706Z"
    },
    {
      "icao": "LEZL",
      "alert": "OK",
      "vis_m": 9999,
      "fzfg": false,
      "metar_trigger": false,
      "taf_trigger": false,
      "metar": "METAR LEZL 162300Z 04006KT CAVOK 12/06 Q1017 NOSIG",
      "taf": "TAF LEZL 162000Z 1621/1721 06010KT CAVOK TX25/1715Z TN10/1707Z"
    },
    {
      "icao": "LFBD",
      "alert": "OK",
      "vis_m": 9999,
      "fzfg": false,
      "metar_trigger": false,
      "taf_trigger": false,
      "metar": "METAR LFBD 162300Z AUTO 10002KT CAVOK 06/05 Q1023 TEMPO 1500 MIFG",
      "taf": "TAF LFBD 161700Z 1618/1724 VRB03KT 9999 BKN040 TX19/1715Z TN05/1706Z"
    },
    {
      "icao": "LFLL",
      "alert": "OK",
      "vis_m": 9999,
      "fzfg": false,
      "metar_trigger": false,
      "taf_trigger": false,
      "metar": "METAR LFLL 162300Z 30006KT CAVOK 06/05 Q1023 NOSIG",
      "taf": "TAF LFLL 161700Z 1618/1724 35008KT 9999 BKN050"
    },
    {
      "icao": "LFLS",
      "alert": "OK",
      "vis_m": 9999,
      "fzfg": false,
      "metar_trigger": false,
      "taf_trigger": false,
      "metar": "METAR LFLS 162300Z AUTO VRB02KT CAVOK 04/03 Q1022",
      "taf": "TAF LFLS 161400Z 1615/1715 35008KT 9999 BKN045"
    },
    {
      "icao": "LFMN",
      "alert": "OK",
      "vis_m": 9999,
      "fzfg": false,
      "metar_trigger": false,
      "taf_trigger": false,
      "metar": "METAR LFMN 162300Z 34008KT CAVOK 13/06 Q1014 NOSIG",
      "taf": "TAF LFMN 162000Z 1621/1803 33010KT CAVOK"
    },
    {
      "icao": "LFOB",
      "alert": "OK",
      "vis_m": 9999,
      "fzfg": false,
      "metar_trigger": false,
      "taf_trigger": false,
      "metar": "METAR LFOB 162300Z AUTO 22006KT 9999 OVC035 09/06 Q1021 NOSIG",
      "taf": "TAF LFOB 161700Z 1618/1718 26010KT CAVOK"
    },
    {
      "icao": "LFPO",
      "alert": "OK",
      "vis_m": 9999,
      "fzfg": false,
      "metar_trigger": false,
      "taf_trigger": false,
      "metar": "METAR LFPO 162300Z VRB02KT 9999 SCT046 10/05 Q1022 NOSIG",
      "taf": "TAF LFPO 161700Z 1618/1724 25008KT 9999 OVC040"
    },
    {
      "icao": "LFSB",
      "alert": "OK",
      "vis_m": 9999,
      "fzfg": false,
      "metar_trigger": false,
      "taf_trigger": false,
      "metar": "METAR LFSB 162300Z AUTO 00000KT CAVOK 04/03 Q1023 NOSIG",
      "taf": ""
    },
    {
      "icao": "LGAV",
      "alert": "OK",
      "vis_m": 9999,
      "fzfg": false,
      "metar_trigger": false,
      "taf_trigger": false,
      "metar": "METAR LGAV 162250Z 35004KT 9999 FEW020 06/04 Q1016 NOSIG",
      "taf": "TAF LGAV 162300Z 1700/1724 03012KT 9999 FEW020"
    },
    {
      "icao": "LGTS",
      "alert": "OK",
      "vis_m": 9999,
      "fzfg": false,
      "metar_trigger": false,
      "taf_trigger": false,
      "metar": "METAR LGTS 162250Z 09005KT 9999 FEW025 06/06 Q1017 NOSIG",
      "taf": "TAF LGTS 162300Z 1700/1724 VRB03KT 9999 SCT025"
    },
    {
      "icao": "LHBP",
      "alert": "OK",
      "vis_m": 9999,
      "fzfg": false,
      "metar_trigger": false,
      "taf_trigger": false,
      "metar": "METAR LHBP 162300Z 28003KT 240V310 CAVOK 06/01 Q1018 NOSIG",
      "taf": "TAF LHBP 161715Z 1618/1718 31007KT CAVOK"
    },
    {
      "icao": "LHDC",
      "alert": "OK",
      "vis_m": 9999,
      "fzfg": false,
      "metar_trigger": false,
      "taf_trigger": false,
      "metar": "METAR LHDC 162245Z AUTO 17003KT CAVOK 03/M02 Q1017",
      "taf": "TAF LHDC 161715Z 1618/1703 18004KT CAVOK"
    },
    {
      "icao": "LIBD",
      "alert": "OK",
      "vis_m": 9999,
      "fzfg": false,
      "metar_trigger": false,
      "taf_trigger": false,
      "metar": "METAR LIBD 162250Z 29003KT 9999 -RA BKN045 11/11 Q1014",
      "taf": "TAF LIBD 161700Z 1618/1718 VRB05KT 9999 BKN030"
    },
    {
      "icao": "LIBG",
      "alert": "OK",
      "vis_m": null,
      "fzfg": false,
      "metar_trigger": false,
      "taf_trigger": false,
      "metar": "",
      "taf": "TAF LIBG 161700Z 1618/1703 05010KT 9999 BKN030"
    },
    {
      "icao": "LIBP",
      "alert": "OK",
      "vis_m": 4300,
      "fzfg": false,
      "metar_trigger": false,
      "taf_trigger": false,
      "metar": "METAR LIBP 162250Z AUTO 22003KT 4300 BR NCD 10/10 Q1015",
      "taf": "TAF LIBP 161700Z 1618/1718 VRB05KT 9999 SCT040"
    },
    {
      "icao": "LIBR",
      "alert": "OK",
      "vis_m": 9999,
      "fzfg": false,
      "metar_trigger": false,
      "taf_trigger": false,
      "metar": "METAR LIBR 162250Z 03009KT 9999 -RA FEW045 14/11 Q1013",
      "taf": "TAF LIBR 161700Z 1618/1718 VRB05KT 9999 SCT030"
    },
    {
      "icao": "LICA",
      "alert": "OK",
      "vis_m": 9999,
      "fzfg": false,
      "metar_trigger": false,
      "taf_trigger": false,
      "metar": "METAR LICA 162250Z AUTO 07011KT 9999 -RA SCT035/// BKN110/// 14/12 Q1009",
      "taf": "TAF LICA 161700Z 1618/1718 08022G32KT 9999 BKN040"
    },
    {
      "icao": "LICC",
      "alert": "OK",
      "vis_m": 8000,
      "fzfg": false,
      "metar_trigger": false,
      "taf_trigger": false,
      "metar": "METAR LICC 162250Z 06012KT 8000 FEW015 SCT030 OVC080 15/13 Q1006",
      "taf": "TAF LICC 161700Z 1618/1718 06018G30KT 9999 SCT025"
    },
    {
      "icao": "LICJ",
      "alert": "OK",
      "vis_m": 9999,
      "fzfg": false,
      "metar_trigger": false,
      "taf_trigger": false,
      "metar": "METAR LICJ 162250Z 05015KT 9999 -RA SCT020 15/13 Q1006",
      "taf": "TAF LICJ 161700Z 1618/1718 04018G28KT 9999 SCT030"
    },
    {
      "icao": "LIMC",
      "alert": "OK",
      "vis_m": 9999,
      "fzfg": false,
      "metar_trigger": false,
      "taf_trigger": false,
      "metar": "METAR LIMC 162250Z 35006KT 320V040 CAVOK 13/M07 Q1015 NOSIG",
      "taf": "TAF LIMC 161700Z 1618/1724 VRB05KT CAVOK"
    },
    {
      "icao": "LIME",
      "alert": "OK",
      "vis_m": 9999,
      "fzfg": false,
      "metar_trigger": false,
      "taf_trigger": false,
      "metar": "METAR LIME 162250Z 34005KT 310V010 CAVOK 11/M04 Q1015 NOSIG",
      "taf": "TAF LIME 161700Z 1618/1718 VRB05KT CAVOK"
    },
    {
      "icao": "LIMF",
      "alert": "OK",
      "vis_m": 9999,
      "fzfg": false,
      "metar_trigger": false,
      "taf_trigger": false,
      "metar": "METAR LIMF 162250Z 29006KT CAVOK 09/01 Q1016",
      "taf": "TAF LIMF 161700Z 1618/1718 VRB05KT CAVOK"
    },
    {
      "icao": "LIMJ",
      "alert": "OK",
      "vis_m": 9999,
      "fzfg": false,
      "metar_trigger": false,
      "taf_trigger": false,
      "metar": "METAR LIMJ 162250Z VRB02KT CAVOK 12/06 Q1014",
      "taf": "TAF LIMJ 161700Z 1618/1718 04014KT CAVOK"
    },
    {
      "icao": "LIPE",
      "alert": "OK",
      "vis_m": 9999,
      "fzfg": false,
      "metar_trigger": false,
      "taf_trigger": false,
      "metar": "METAR LIPE 162250Z 20009KT CAVOK 11/06 Q1014",
      "taf": "TAF LIPE 161700Z 1618/1718 30008KT CAVOK"
    },
    {
      "icao": "LIPH",
      "alert": "OK",
      "vis_m": 9999,
      "fzfg": false,
      "metar_trigger": false,
      "taf_trigger": false,
      "metar": "METAR LIPH 162250Z AUTO 05008KT 9999 BKN049/// BKN061/// 12/08 Q1016",
      "taf": "TAF LIPH 161700Z 1618/1718 VRB05KT CAVOK"
    },
    {
      "icao": "LIPQ",
      "alert": "OK",
      "vis_m": 9999,
      "fzfg": false,
      "metar_trigger": false,
      "taf_trigger": false,
      "metar": "METAR LIPQ 162250Z AUTO 09011KT 9999 SCT120/// BKN210/// 11/05 Q1017",
      "taf": "TAF LIPQ 161700Z 1618/1718 19007KT 9999 FEW060"
    },
    {
      "icao": "LIPR",
      "alert": "OK",
      "vis_m": 9999,
      "fzfg": false,
      "metar_trigger": false,
      "taf_trigger": false,
      "metar": "METAR LIPR 162250Z AUTO 20002KT 9999 NCD 07/05 Q1014",
      "taf": "TAF LIPR 161700Z 1618/1718 VRB05KT CAVOK"
    },
    {
      "icao": "LIPX",
      "alert": "OK",
      "vis_m": 9999,
      "fzfg": false,
      "metar_trigger": false,
      "taf_trigger": false,
      "metar": "METAR LIPX 162250Z VRB02KT CAVOK 08/06 Q1014",
      "taf": "TAF LIPX 161700Z 1618/1718 VRB05KT CAVOK"
    },
    {
      "icao": "LIPY",
      "alert": "OK",
      "vis_m": 9000,
      "fzfg": false,
      "metar_trigger": false,
      "taf_trigger": false,
      "metar": "METAR LIPY 162250Z AUTO 23003KT 9000 NCD 08/07 Q1015",
      "taf": "TAF LIPY 161700Z 1618/1718 VRB05KT 9999 FEW050"
    },
    {
      "icao": "LIPZ",
      "alert": "OK",
      "vis_m": 9999,
      "fzfg": false,
      "metar_trigger": false,
      "taf_trigger": false,
      "metar": "METAR LIPZ 162250Z 06009KT 020V080 9999 SCT050 12/08 Q1016 NOSIG",
      "taf": "TAF LIPZ 161700Z 1618/1724 16007KT CAVOK"
    },
    {
      "icao": "LIRF",
      "alert": "OK",
      "vis_m": 9999,
      "fzfg": false,
      "metar_trigger": false,
      "taf_trigger": false,
      "metar": "METAR LIRF 162250Z VRB01KT CAVOK 11/10 Q1012 NOSIG",
      "taf": "TAF LIRF 161700Z 1618/1724 05006KT 9999 SCT030"
    },
    {
      "icao": "LIRN",
      "alert": "OK",
      "vis_m": 9999,
      "fzfg": false,
      "metar_trigger": false,
      "taf_trigger": false,
      "metar": "METAR LIRN 162250Z 02007KT 9999 FEW080 14/09 Q1012 NOSIG",
      "taf": "TAF LIRN 161700Z 1618/1718 04014KT 9999 SCT040"
    },
    {
      "icao": "LIRP",
      "alert": "OK",
      "vis_m": 9999,
      "fzfg": false,
      "metar_trigger": false,
      "taf_trigger": false,
      "metar": "METAR LIRP 162245Z 08005KT CAVOK 10/08 Q1013 NOSIG",
      "taf": "TAF LIRP 161700Z 1618/1718 33009KT CAVOK"
    },
    {
      "icao": "LIRZ",
      "alert": "OK",
      "vis_m": 9999,
      "fzfg": false,
      "metar_trigger": false,
      "taf_trigger": false,
      "metar": "METAR LIRZ 162250Z AUTO 36007KT 9999 NCD 09/05 Q1013",
      "taf": "TAF LIRZ 161700Z 1618/1718 02013KT 9999 FEW030"
    },
    {
      "icao": "LJLJ",
      "alert": "OK",
      "vis_m": 500,
      "fzfg": false,
      "metar_trigger": false,
      "taf_trigger": false,
      "metar": "METAR LJLJ 162300Z 07002KT 0500 R30/0900U FG SCT001 SCT088 04/04 Q1019 NOSIG",
      "taf": "TAF LJLJ 162300Z 1700/1800 VRB02KT 9999 FEW003"
    },
    {
      "icao": "LKMT",
      "alert": "OK",
      "vis_m": 9999,
      "fzfg": false,
      "metar_trigger": false,
      "taf_trigger": false,
      "metar": "METAR LKMT 162300Z 20004KT CAVOK 04/02 Q1018 NOSIG",
      "taf": "TAF LKMT 161700Z 1618/1718 23008KT 9999 FEW012 BKN030"
    },
    {
      "icao": "LKPR",
      "alert": "OK",
      "vis_m": 9999,
      "fzfg": false,
      "metar_trigger": false,
      "taf_trigger": false,
      "metar": "METAR LKPR 162300Z 21008KT CAVOK 01/M00 Q1020 NOSIG",
      "taf": "TAF LKPR 162300Z 1700/1806 22008KT CAVOK"
    },
    {
      "icao": "LLBG",
      "alert": "OK",
      "vis_m": 9999,
      "fzfg": false,
      "metar_trigger": false,
      "taf_trigger": false,
      "metar": "METAR LLBG 162250Z VRB02KT CAVOK 12/10 Q1015 NOSIG",
      "taf": "TAF LLBG 161706Z 1618/1718 VRB04KT CAVOK TX23/1711Z TN08/1703Z"
    },
    {
      "icao": "LMML",
      "alert": "OK",
      "vis_m": 9999,
      "fzfg": false,
      "metar_trigger": false,
      "taf_trigger": false,
      "metar": "METAR LMML 162315Z 06008KT 9999 SCT025 12/08 Q1003 NOSIG",
      "taf": "TAF LMML 162300Z 1700/1724 07015KT 9999 SCT018"
    },
    {
      "icao": "LOWW",
      "alert": "OK",
      "vis_m": 9999,
      "fzfg": false,
      "metar_trigger": false,
      "taf_trigger": false,
      "metar": "METAR LOWW 162250Z 29013KT CAVOK 07/02 Q1020 NOSIG",
      "taf": "TAF LOWW 162315Z 1700/1806 29010KT 9999 FEW050 TX09/1713Z TN03/1804Z"
    },
    {
      "icao": "LPFR",
      "alert": "OK",
      "vis_m": 9999,
      "fzfg": false,
      "metar_trigger": false,
      "taf_trigger": false,
      "metar": "METAR LPFR 162300Z 08008KT CAVOK 16/09 Q1015",
      "taf": "TAF LPFR 162300Z 1700/1724 07008KT CAVOK"
    },
    {
      "icao": "LPMA",
      "alert": "OK",
      "vis_m": 9999,
      "fzfg": false,
      "metar_trigger": false,
      "taf_trigger": false,
      "metar": "METAR LPMA 162300Z 00000KT 9999 BKN014 15/11 Q1013",
      "taf": "TAF LPMA 162300Z 1700/1724 VRB05KT 9999 SCT015 BKN030"
    },
    {
      "icao": "LPPR",
      "alert": "OK",
      "vis_m": 9999,
      "fzfg": false,
      "metar_trigger": false,
      "taf_trigger": false,
      "metar": "METAR LPPR 162300Z 10007KT CAVOK 14/09 Q1016",
      "taf": "TAF LPPR 162300Z 1700/1724 09008KT CAVOK"
    },
    {
      "icao": "LPPS",
      "alert": "OK",
      "vis_m": 9999,
      "fzfg": false,
      "metar_trigger": false,
      "taf_trigger": false,
      "metar": "METAR LPPS 162300Z 00000KT 9999 SCT015 BKN030 16/12 Q1013",
      "taf": "TAF LPPS 162300Z 1700/1806 VRB05KT 9999 SCT015 BKN030"
    },
    {
      "icao": "LPPT",
      "alert": "OK",
      "vis_m": 9999,
      "fzfg": false,
      "metar_trigger": false,
      "taf_trigger": false,
      "metar": "METAR LPPT 162300Z 06005G18KT 020V110 CAVOK 17/06 Q1016",
      "taf": "TAF LPPT 162300Z 1700/1806 06010KT CAVOK"
    },
    {
      "icao": "LQBK",
      "alert": "OK",
      "vis_m": 9999,
      "fzfg": false,
      "metar_trigger": false,
      "taf_trigger": false,
      "metar": "METAR LQBK 162300Z 29007KT CAVOK 07/01 Q1018 NOSIG",
      "taf": "TAF LQBK 162300Z 1700/1724 30007KT 9999 SCT040 TX07/1714Z TN03/1724Z"
    },
    {
      "icao": "LQSA",
      "alert": "OK",
      "vis_m": 9999,
      "fzfg": false,
      "metar_trigger": false,
      "taf_trigger": false,
      "metar": "METAR LQSA 162300Z 32003KT CAVOK 08/M02 Q1016",
      "taf": "TAF LQSA 162300Z 1700/1724 30006KT CAVOK TX09/1711Z TN00/1724Z"
    },
    {
      "icao": "LQTZ",
      "alert": "OK",
      "vis_m": 9999,
      "fzfg": false,
      "metar_trigger": false,
      "taf_trigger": false,
      "metar": "METAR LQTZ 162300Z 26003KT CAVOK 02/M02 Q1017",
      "taf": "TAF LQTZ 162300Z 1700/1724 27005KT CAVOK TX08/1710Z TN00/1705Z"
    },
    {
      "icao": "LRBC",
      "alert": "OK",
      "vis_m": 9999,
      "fzfg": false,
      "metar_trigger": false,
      "taf_trigger": false,
      "metar": "METAR LRBC 162300Z VRB02KT CAVOK 01/M02 Q1018",
      "taf": "TAF LRBC 162000Z 1621/1706 VRB04KT CAVOK"
    },
    {
      "icao": "LRBS",
      "alert": "OK",
      "vis_m": 9999,
      "fzfg": false,
      "metar_trigger": false,
      "taf_trigger": false,
      "metar": "METAR LRBS 162300Z 27002KT CAVOK 03/00 Q1019 NOSIG",
      "taf": "TAF LRBS 161700Z 1618/1718 VRB04KT CAVOK"
    },
    {
      "icao": "LRBV",
      "alert": "OK",
      "vis_m": 9999,
      "fzfg": false,
      "metar_trigger": false,
      "taf_trigger": false,
      "metar": "METAR LRBV 162300Z AUTO VRB01KT 9999 NCD 02/M03 Q1017",
      "taf": ""
    },
    {
      "icao": "LRCL",
      "alert": "OK",
      "vis_m": 9999,
      "fzfg": false,
      "metar_trigger": false,
      "taf_trigger": false,
      "metar": "METAR LRCL 162300Z 26003KT CAVOK 01/M04 Q1017",
      "taf": "TAF LRCL 162000Z 1621/1706 VRB04KT CAVOK"
    },
    {
      "icao": "LRCV",
      "alert": "OK",
      "vis_m": 9999,
      "fzfg": false,
      "metar_trigger": false,
      "taf_trigger": false,
      "metar": "METAR LRCV 162300Z 07003KT CAVOK 02/01 Q1018",
      "taf": "TAF LRCV 162000Z 1621/1706 VRB04KT CAVOK"
    },
    {
      "icao": "LRIA",
      "alert": "OK",
      "vis_m": 9999,
      "fzfg": false,
      "metar_trigger": false,
      "taf_trigger": false,
      "metar": "METAR LRIA 162300Z VRB02KT CAVOK 04/M03 Q1018",
      "taf": "TAF LRIA 162000Z 1621/1706 VRB04KT CAVOK"
    },
    {
      "icao": "LROP",
      "alert": "OK",
      "vis_m": 9999,
      "fzfg": false,
      "metar_trigger": false,
      "taf_trigger": false,
      "metar": "METAR LROP 162300Z 27004KT CAVOK 03/M02 Q1019 NOSIG",
      "taf": "TAF LROP 161700Z 1618/1718 VRB04KT CAVOK"
    },
    {
      "icao": "LRSB",
      "alert": "OK",
      "vis_m": 9999,
      "fzfg": false,
      "metar_trigger": false,
      "taf_trigger": false,
      "metar": "METAR LRSB 162300Z 28003KT CAVOK M01/M03 Q1017",
      "taf": "TAF LRSB 161700Z 1618/1718 VRB04KT CAVOK"
    },
    {
      "icao": "LRSM",
      "alert": "OK",
      "vis_m": 9999,
      "fzfg": false,
      "metar_trigger": false,
      "taf_trigger": false,
      "metar": "METAR LRSM 162300Z AUTO 00000KT 9999 NCD 01/M02 Q1017",
      "taf": "TAF LRSM 161400Z 1615/1624 VRB04KT CAVOK"
    },
    {
      "icao": "LRSV",
      "alert": "OK",
      "vis_m": 9999,
      "fzfg": false,
      "metar_trigger": false,
      "taf_trigger": false,
      "metar": "METAR LRSV 162300Z 18007KT CAVOK 03/M02 Q1016",
      "taf": "TAF LRSV 162000Z 1621/1706 16008KT CAVOK"
    },
    {
      "icao": "LRTM",
      "alert": "OK",
      "vis_m": 9999,
      "fzfg": false,
      "metar_trigger": false,
      "taf_trigger": false,
      "metar": "METAR LRTM 162300Z AUTO 09004KT 9999 NCD M00/M04 Q1017",
      "taf": "TAF LRTM 161400Z 1615/1624 VRB04KT CAVOK"
    },
    {
      "icao": "LRTR",
      "alert": "OK",
      "vis_m": 9999,
      "fzfg": false,
      "metar_trigger": false,
      "taf_trigger": false,
      "metar": "METAR LRTR 162300Z 19006KT CAVOK 09/M01 Q1017 NOSIG",
      "taf": "TAF LRTR 161700Z 1618/1718 VRB04KT CAVOK"
    },
    {
      "icao": "LTAC",
      "alert": "OK",
      "vis_m": 9999,
      "fzfg": false,
      "metar_trigger": false,
      "taf_trigger": false,
      "metar": "METAR LTAC 162250Z 00000KT CAVOK 02/M03 Q1014 NOSIG RMK RWY21C 14005KT RWY03L 00000KT RWY21R 13004KT RWY03R 13002KT RWY21L 14004KT",
      "taf": "TAF LTAC 162240Z 1700/1724 VRB02KT CAVOK"
    },
    {
      "icao": "LTFM",
      "alert": "OK",
      "vis_m": 1600,
      "fzfg": false,
      "metar_trigger": false,
      "taf_trigger": false,
      "metar": "METAR LTFM 162250Z 36004KT 290V030 1600 0600NW R35R/P1500N R17L/0650D R34L/1400D R16R/0450D BCFG SCT006 06/05 Q1018 NOSIG RMK RWY17L 31003KT RWY34L 35004KT RWY16R VRB04KT RWY36 36003KT RWY18 36002KT",
      "taf": "TAF LTFM 162240Z 1700/1806 03005KT 4800 BR BKN011"
    },
    {
      "icao": "LUKK",
      "alert": "OK",
      "vis_m": 9999,
      "fzfg": false,
      "metar_trigger": false,
      "taf_trigger": false,
      "metar": "METAR LUKK 162300Z 36004KT CAVOK 06/00 Q1018 NOSIG",
      "taf": "TAF LUKK 162306Z 1700/1724 VRB05KT CAVOK"
    },
    {
      "icao": "LWOH",
      "alert": "OK",
      "vis_m": null,
      "fzfg": false,
      "metar_trigger": false,
      "taf_trigger": false,
      "metar": "",
      "taf": "TAF LWOH 162030Z 1621/1721 VRB02KT 9999 SCT040 BKN090"
    },
    {
      "icao": "LWSK",
      "alert": "OK",
      "vis_m": null,
      "fzfg": false,
      "metar_trigger": false,
      "taf_trigger": false,
      "metar": "",
      "taf": "TAF LWSK 162030Z 1621/1721 VRB02KT CAVOK"
    },
    {
      "icao": "LYBE",
      "alert": "OK",
      "vis_m": 9999,
      "fzfg": false,
      "metar_trigger": false,
      "taf_trigger": false,
      "metar": "METAR LYBE 162300Z 05003KT CAVOK 05/M01 Q1017 NOSIG",
      "taf": "TAF LYBE 161700Z 1618/1718 08005KT CAVOK TX13/1713Z TN02/1705Z"
    },
    {
      "icao": "LYNI",
      "alert": "OK",
      "vis_m": 9999,
      "fzfg": false,
      "metar_trigger": false,
      "taf_trigger": false,
      "metar": "METAR LYNI 162300Z 32005KT CAVOK 06/M00 Q1017 NOSIG",
      "taf": "TAF LYNI 161700Z 1618/1718 35004KT CAVOK TX13/1714Z TN01/1705Z"
    },
    {
      "icao": "LYPG",
      "alert": "OK",
      "vis_m": 9999,
      "fzfg": false,
      "metar_trigger": false,
      "taf_trigger": false,
      "metar": "METAR LYPG 162300Z 35003KT 9999 SCT090 11/06 Q1014 NOSIG",
      "taf": "TAF LYPG 161700Z 1618/1718 36005KT 9999 FEW040 SCT080 TX15/1618Z TN10/1622Z"
    },
    {
      "icao": "LZIB",
      "alert": "OK",
      "vis_m": 9999,
      "fzfg": false,
      "metar_trigger": false,
      "taf_trigger": false,
      "metar": "METAR LZIB 162300Z 29006KT 250V320 9999 SCT036 07/01 Q1019 NOSIG",
      "taf": "TAF LZIB 162315Z 1700/1800 32009KT CAVOK"
    },
    {
      "icao": "LZKZ",
      "alert": "OK",
      "vis_m": 9999,
      "fzfg": false,
      "metar_trigger": false,
      "taf_trigger": false,
      "metar": "METAR LZKZ 162300Z VRB02KT CAVOK 05/M00 Q1016 NOSIG",
      "taf": "TAF LZKZ 162315Z 1700/1800 02011KT CAVOK"
    },
    {
      "icao": "LZTT",
      "alert": "OK",
      "vis_m": 9999,
      "fzfg": false,
      "metar_trigger": false,
      "taf_trigger": false,
      "metar": "METAR LZTT 162300Z 08003KT 9999 OVC023 03/01 Q1016",
      "taf": "TAF LZTT 162315Z 1700/1800 10004KT 9999 FEW010 OVC020"
    },
    {
      "icao": "OEJN",
      "alert": "OK",
      "vis_m": 9999,
      "fzfg": false,
      "metar_trigger": false,
      "taf_trigger": false,
      "metar": "METAR OEJN 162300Z 35006KT CAVOK 24/18 Q1009 NOSIG",
      "taf": "TAF OEJN 162300Z 1700/1806 VRB03KT 7000 NSC"
    },
    {
      "icao": "OEMA",
      "alert": "OK",
      "vis_m": 9999,
      "fzfg": false,
      "metar_trigger": false,
      "taf_trigger": false,
      "metar": "METAR OEMA 162300Z 20016KT 9999 FEW045 29/04 Q1011 NOSIG",
      "taf": "TAF OEMA 162300Z 1700/1806 02006KT 9999 SCT045"
    },
    {
      "icao": "OJAI",
      "alert": "OK",
      "vis_m": 4000,
      "fzfg": false,
      "metar_trigger": false,
      "taf_trigger": false,
      "metar": "METAR OJAI 162300Z 33004KT 4000 BR NSC 08/07 Q1016 NOSIG",
      "taf": "TAF OJAI 162300Z 1700/1806 VRB02KT 4000 BR NSC"
    },
    {
      "icao": "OMAA",
      "alert": "OK",
      "vis_m": null,
      "fzfg": false,
      "metar_trigger": false,
      "taf_trigger": false,
      "metar": "",
      "taf": ""
    },
    {
      "icao": "OMDB",
      "alert": "OK",
      "vis_m": null,
      "fzfg": false,
      "metar_trigger": false,
      "taf_trigger": false,
      "metar": "",
      "taf": ""
    },
    {
      "icao": "UAAA",
      "alert": "OK",
      "vis_m": 9999,
      "fzfg": false,
      "metar_trigger": false,
      "taf_trigger": false,
      "metar": "METAR UAAA 162300Z 20001MPS 9999 BKN200 M01/M03 Q1017 NOSIG",
      "taf": "TAF UAAA 161703Z 1618/1718 22002MPS 9999 SCT100 TX09/1709Z TNM02/1701Z"
    },
    {
      "icao": "UBBB",
      "alert": "OK",
      "vis_m": 9999,
      "fzfg": false,
      "metar_trigger": false,
      "taf_trigger": false,
      "metar": "METAR UBBB 162300Z 32014KT 9999 FEW015 08/05 Q1010 NOSIG",
      "taf": "TAF UBBB 162305Z 1700/1724 32014KT 9999 BKN040 TX10/1710Z TN06/1701Z"
    },
    {
      "icao": "UDSG",
      "alert": "OK",
      "vis_m": 9999,
      "fzfg": false,
      "metar_trigger": false,
      "taf_trigger": false,
      "metar": "METAR UDSG 162300Z 12005KT 9999 SCT046 01/M01 Q1013 NOSIG",
      "taf": "TAF UDSG 161658Z 1618/1718 VRB06KT 9999 BKN030"
    },
    {
      "icao": "UDYZ",
      "alert": "OK",
      "vis_m": 9999,
      "fzfg": false,
      "metar_trigger": false,
      "taf_trigger": false,
      "metar": "METAR UDYZ 162300Z VRB01KT 9999 NSC 05/02 Q1011 NOSIG",
      "taf": "TAF UDYZ 161700Z 1618/1718 04006KT 9999 SCT040"
    },
    {
      "icao": "UGKO",
      "alert": "OK",
      "vis_m": 9999,
      "fzfg": false,
      "metar_trigger": false,
      "taf_trigger": false,
      "metar": "METAR UGKO 162300Z COR 26004KT 9999 SCT012 OVC023 08/07 Q1016 NOSIG",
      "taf": "TAF UGKO 162300Z 1700/1724 25007KT 9999 SCT023 BKN050 TX12/1711Z TN07/1703Z"
    }
  ]
}