{
  "ts_utc": "2026-01-12T23:55:11Z",
  "threshold_m": 150,
  "source": "stations_override.txt (ICAO list) + aviationweather.gov (METAR/TAF raw)",
  "station_count": 159,
  "stations": [
    {
      "icao": "BIKF",
      "alert": "OK",
      "vis_m": 9999,
      "fzfg": false,
      "metar_trigger": false,
      "taf_trigger": false,
      "metar": "METAR BIKF 122330Z 36025KT 9999 VCSH SCT027TCU BKN063 M02/M08 Q0997",
      "taf": "TAF BIKF 122217Z 1300/1400 01027G37KT 9999 BKN025 TXM02/1300Z TNM03/1317Z"
    },
    {
      "icao": "BKPR",
      "alert": "OK",
      "vis_m": 9999,
      "fzfg": false,
      "metar_trigger": false,
      "taf_trigger": false,
      "metar": "METAR BKPR 122330Z 34005KT CAVOK M09/M11 Q1022 NOSIG",
      "taf": "TAF BKPR 122330Z 1300/1324 VRB05KT CAVOK"
    },
    {
      "icao": "EBCI",
      "alert": "OK",
      "vis_m": 9999,
      "fzfg": false,
      "metar_trigger": false,
      "taf_trigger": false,
      "metar": "METAR EBCI 122320Z COR 20008KT 9999 BKN012 09/07 Q1010 NOSIG",
      "taf": "TAF EBCI 122318Z 1300/1406 20009KT 9999 SCT012 BKN020"
    },
    {
      "icao": "EDDB",
      "alert": "OK",
      "vis_m": 5000,
      "fzfg": false,
      "metar_trigger": false,
      "taf_trigger": false,
      "metar": "METAR EDDB 122350Z AUTO 15008KT 5000 -FZRA BR FEW013 BKN037 BKN046 FEW///TCU M01/M01 Q1010 TEMPO 4000 FZRA BR BKN009",
      "taf": "TAF EDDB 122300Z 1300/1324 14005KT 7000 SCT004 BKN015"
    },
    {
      "icao": "EDDH",
      "alert": "OK",
      "vis_m": 5000,
      "fzfg": false,
      "metar_trigger": false,
      "taf_trigger": false,
      "metar": "METAR EDDH 122350Z AUTO 17004KT 5000 SHRA BR OVC002 FEW///TCU 01/01 Q1007 TEMPO 2500 BR OVC005",
      "taf": "TAF EDDH 122300Z 1300/1406 19005KT 6000 BKN007"
    },
    {
      "icao": "EDDK",
      "alert": "OK",
      "vis_m": 9999,
      "fzfg": false,
      "metar_trigger": false,
      "taf_trigger": false,
      "metar": "METAR EDDK 122350Z AUTO 22007KT 9999 BKN023 OVC028 09/06 Q1010 NOSIG",
      "taf": "TAF EDDK 122300Z 1300/1406 15007KT 9999 BKN020"
    },
    {
      "icao": "EDDN",
      "alert": "OK",
      "vis_m": 6000,
      "fzfg": false,
      "metar_trigger": false,
      "taf_trigger": false,
      "metar": "METAR EDDN 122350Z AUTO 11006KT 6000 -RA NSC 03/02 Q1012",
      "taf": "TAF EDDN 122300Z 1300/1324 13005KT 6000 SCT006 BKN025"
    },
    {
      "icao": "EDDS",
      "alert": "OK",
      "vis_m": 9999,
      "fzfg": false,
      "metar_trigger": false,
      "taf_trigger": false,
      "metar": "METAR EDDS 122350Z AUTO 22005KT 150V260 CAVOK 07/04 Q1012",
      "taf": "TAF EDDS 122300Z 1300/1324 VRB03KT CAVOK"
    },
    {
      "icao": "EDFH",
      "alert": "OK",
      "vis_m": 7000,
      "fzfg": false,
      "metar_trigger": false,
      "taf_trigger": false,
      "metar": "METAR EDFH 122320Z 25012KT 7000 -RA BKN005 07/06 Q1011",
      "taf": "TAF EDFH 122300Z 1300/1324 23010KT 9999 SCT010"
    },
    {
      "icao": "EDJA",
      "alert": "OK",
      "vis_m": 9999,
      "fzfg": false,
      "metar_trigger": false,
      "taf_trigger": false,
      "metar": "METAR EDJA 122320Z AUTO 21009KT 9999 // BKN110/// 03/02 Q1014",
      "taf": "TAF EDJA 121700Z 1218/1303 22011KT 9999 FEW020 OVC035"
    },
    {
      "icao": "EDLW",
      "alert": "OK",
      "vis_m": 9999,
      "fzfg": false,
      "metar_trigger": false,
      "taf_trigger": false,
      "metar": "METAR EDLW 122320Z AUTO 21012KT 9999 // SCT010/// OVC013/// 08/07 Q1008",
      "taf": "TAF EDLW 121700Z 1218/1318 19010KT 9999 BKN020"
    },
    {
      "icao": "EDNY",
      "alert": "OK",
      "vis_m": 3100,
      "fzfg": false,
      "metar_trigger": false,
      "taf_trigger": false,
      "metar": "METAR EDNY 122320Z AUTO VRB01KT 3100 1400 R06/P2000N BKN160/// 00/00 Q1016",
      "taf": "TAF EDNY 121700Z 1218/1303 VRB03KT 9999 OVC035"
    },
    {
      "icao": "EDSB",
      "alert": "OK",
      "vis_m": 9999,
      "fzfg": false,
      "metar_trigger": false,
      "taf_trigger": false,
      "metar": "METAR EDSB 122320Z AUTO 20011KT 9999 FEW098/// BKN130/// 08/04 Q1013",
      "taf": "TAF EDSB 122300Z 1300/1324 21009KT CAVOK"
    },
    {
      "icao": "EETN",
      "alert": "OK",
      "vis_m": 9999,
      "fzfg": false,
      "metar_trigger": false,
      "taf_trigger": false,
      "metar": "METAR EETN 122350Z 09011KT CAVOK M06/M08 Q1018",
      "taf": "TAF EETN 122330Z 1300/1324 10010KT 9999 SCT015 BKN040"
    },
    {
      "icao": "EFTU",
      "alert": "OK",
      "vis_m": 9999,
      "fzfg": false,
      "metar_trigger": false,
      "taf_trigger": false,
      "metar": "METAR EFTU 122350Z AUTO 07003KT CAVOK M09/M10 Q1019",
      "taf": "TAF EFTU 122325Z 1300/1324 08003KT 9999 FEW012"
    },
    {
      "icao": "EGBB",
      "alert": "OK",
      "vis_m": 9999,
      "fzfg": false,
      "metar_trigger": false,
      "taf_trigger": false,
      "metar": "METAR EGBB 122320Z 20007KT 160V240 CAVOK 08/07 Q1002",
      "taf": "TAF EGBB 122256Z 1300/1324 18008KT 9999 SCT040"
    },
    {
      "icao": "EGGP",
      "alert": "OK",
      "vis_m": 9999,
      "fzfg": false,
      "metar_trigger": false,
      "taf_trigger": false,
      "metar": "METAR EGGP 122320Z 14009KT 9999 SCT029 BKN034 08/06 Q0999",
      "taf": "TAF EGGP 122258Z 1300/1324 13010KT 9999 BKN030"
    },
    {
      "icao": "EGGW",
      "alert": "OK",
      "vis_m": 9999,
      "fzfg": false,
      "metar_trigger": false,
      "taf_trigger": false,
      "metar": "METAR EGGW 122320Z AUTO 21007KT 9999 FEW012 08/07 Q1004",
      "taf": "TAF EGGW 122256Z 1300/1324 20007KT 9999 SCT012"
    },
    {
      "icao": "EGKK",
      "alert": "OK",
      "vis_m": 9999,
      "fzfg": false,
      "metar_trigger": false,
      "taf_trigger": false,
      "metar": "METAR EGKK 122320Z 20008KT 9999 BKN006 10/10 Q1005",
      "taf": "TAF EGKK 122304Z 1300/1406 20010KT 9999 SCT008"
    },
    {
      "icao": "EGNM",
      "alert": "OK",
      "vis_m": null,
      "fzfg": false,
      "metar_trigger": false,
      "taf_trigger": false,
      "metar": "",
      "taf": "TAF EGNM 121702Z 1218/1318 21009KT 9999 SCT025"
    },
    {
      "icao": "EGPD",
      "alert": "OK",
      "vis_m": 9999,
      "fzfg": false,
      "metar_trigger": false,
      "taf_trigger": false,
      "metar": "METAR EGPD 122320Z 22004KT 9999 -RA BKN040 06/05 Q0993 TEMPO 4000 RA",
      "taf": "TAF EGPD 122257Z 1300/1324 VRB03KT 9999 SCT035"
    },
    {
      "icao": "EGPF",
      "alert": "OK",
      "vis_m": 5000,
      "fzfg": false,
      "metar_trigger": false,
      "taf_trigger": false,
      "metar": "METAR EGPF 122320Z AUTO 29002KT 5000 -DZ BKN013/// OVC025/// //////TCU 06/06 Q0994 RERA REDZ",
      "taf": "TAF EGPF 122258Z 1300/1324 VRB03KT 9999 FEW015 SCT025"
    },
    {
      "icao": "EHBK",
      "alert": "OK",
      "vis_m": 9999,
      "fzfg": false,
      "metar_trigger": false,
      "taf_trigger": false,
      "metar": "METAR EHBK 122325Z AUTO 22012KT 9999 SCT017/// 09/07 Q1009",
      "taf": "TAF EHBK 122313Z 1300/1406 21008KT 9999 BKN018"
    },
    {
      "icao": "EHEH",
      "alert": "OK",
      "vis_m": 9999,
      "fzfg": false,
      "metar_trigger": false,
      "taf_trigger": false,
      "metar": "METAR EHEH 122325Z AUTO 20008KT 9999 FEW011/// BKN028/// 08/07 Q1008 BLU",
      "taf": ""
    },
    {
      "icao": "EKBI",
      "alert": "OK",
      "vis_m": 2900,
      "fzfg": false,
      "metar_trigger": false,
      "taf_trigger": false,
      "metar": "METAR EKBI 122350Z AUTO 13007KT 110V170 2900 BR OVC003/// 00/00 Q1005 REDZ",
      "taf": "TAF EKBI 122332Z 1300/1324 15010KT 4000 RA BR OVC006"
    },
    {
      "icao": "EKCH",
      "alert": "OK",
      "vis_m": 6000,
      "fzfg": false,
      "metar_trigger": false,
      "taf_trigger": false,
      "metar": "METAR EKCH 122350Z 14014KT 6000 -SN OVC006 00/M00 Q1009 TEMPO LIGHT FREEZING RAIN TEMPO 4000 -SNRA BKN004",
      "taf": "TAF EKCH 122327Z 1300/1324 13019KT 6000 -SN OVC004"
    },
    {
      "icao": "ENAL",
      "alert": "OK",
      "vis_m": 9999,
      "fzfg": false,
      "metar_trigger": false,
      "taf_trigger": false,
      "metar": "METAR ENAL 122320Z AUTO 13012KT 9999 SCT059/// 07/M03 Q0995",
      "taf": "TAF ENAL 122300Z 1300/1309 14015KT CAVOK"
    },
    {
      "icao": "ENBR",
      "alert": "OK",
      "vis_m": 9999,
      "fzfg": false,
      "metar_trigger": false,
      "taf_trigger": false,
      "metar": "METAR ENBR 122320Z 12014KT 9999 -SHRA FEW021 SCT027 OVC035 03/M00 Q0998 RMK WIND 1200FT 13031KT",
      "taf": "TAF ENBR 122300Z 1300/1324 13015KT 9999 BKN035"
    },
    {
      "icao": "ENGM",
      "alert": "OK",
      "vis_m": 9999,
      "fzfg": false,
      "metar_trigger": false,
      "taf_trigger": false,
      "metar": "METAR ENGM 122320Z 03004KT 9999 OVC010 M08/M09 Q1012",
      "taf": "TAF ENGM 122300Z 1300/1324 02008KT 9999 -SN BKN012"
    },
    {
      "icao": "ENHD",
      "alert": "OK",
      "vis_m": 9999,
      "fzfg": false,
      "metar_trigger": false,
      "taf_trigger": false,
      "metar": "METAR ENHD 122320Z AUTO 11025KT 9999 R13///// R31/P2000N FEW041/// 03/M04 Q0999",
      "taf": "TAF ENHD 121400Z 1215/1223 13025KT 9999 BKN040"
    },
    {
      "icao": "ENTC",
      "alert": "OK",
      "vis_m": 9999,
      "fzfg": false,
      "metar_trigger": false,
      "taf_trigger": false,
      "metar": "METAR ENTC 122320Z 20022KT CAVOK M01/M12 Q1011 RMK WIND 2600FT 18048KT",
      "taf": "TAF ENTC 122300Z 1300/1324 20025KT CAVOK"
    },
    {
      "icao": "ENTO",
      "alert": "OK",
      "vis_m": 1500,
      "fzfg": false,
      "metar_trigger": false,
      "taf_trigger": false,
      "metar": "METAR ENTO 122320Z AUTO 03006KT 010V070 1500 -SN VV014 M04/M05 Q1011",
      "taf": "TAF ENTO 122300Z 1300/1324 36010KT 8000 -SN SCT008 BKN015"
    },
    {
      "icao": "ENVA",
      "alert": "OK",
      "vis_m": 9999,
      "fzfg": false,
      "metar_trigger": false,
      "taf_trigger": false,
      "metar": "METAR ENVA 122320Z 14022G33KT CAVOK M01/M09 Q1004 RMK WIND 670FT 17033G47KT",
      "taf": "TAF ENVA 122300Z 1300/1324 13015G28KT CAVOK"
    },
    {
      "icao": "ENZV",
      "alert": "OK",
      "vis_m": 9999,
      "fzfg": false,
      "metar_trigger": false,
      "taf_trigger": false,
      "metar": "METAR ENZV 122320Z 13015KT 9999 SCT041 04/M04 Q0999",
      "taf": "TAF ENZV 122300Z 1300/1324 13020KT 9999 SCT040"
    },
    {
      "icao": "EPGD",
      "alert": "OK",
      "vis_m": 9999,
      "fzfg": false,
      "metar_trigger": false,
      "taf_trigger": false,
      "metar": "METAR EPGD 122330Z 20004KT CAVOK M05/M07 Q1014",
      "taf": "TAF EPGD 122330Z 1300/1324 19005KT CAVOK"
    },
    {
      "icao": "EPKK",
      "alert": "OK",
      "vis_m": 6000,
      "fzfg": false,
      "metar_trigger": false,
      "taf_trigger": false,
      "metar": "METAR EPKK 122330Z 03004KT 6000 NSC M10/M12 Q1016",
      "taf": "TAF EPKK 122330Z 1300/1324 07002KT 5000 BR NSC"
    },
    {
      "icao": "EPKT",
      "alert": "OK",
      "vis_m": 9999,
      "fzfg": false,
      "metar_trigger": false,
      "taf_trigger": false,
      "metar": "METAR EPKT 122330Z 14007KT CAVOK M08/M11 Q1014",
      "taf": "TAF EPKT 122330Z 1300/1324 15005KT 9000 NSC"
    },
    {
      "icao": "EPLB",
      "alert": "OK",
      "vis_m": 2000,
      "fzfg": false,
      "metar_trigger": false,
      "taf_trigger": false,
      "metar": "METAR EPLB 122330Z 06002KT 2000 BR BKN007 OVC018 M09/M10 Q1017",
      "taf": "TAF EPLB 122330Z 1300/1324 VRB02KT 3000 BR OVC020"
    },
    {
      "icao": "EPMO",
      "alert": "OK",
      "vis_m": 5000,
      "fzfg": false,
      "metar_trigger": false,
      "taf_trigger": false,
      "metar": "METAR EPMO 122330Z 16004KT 5000 BR NSC M07/M07 Q1016",
      "taf": "TAF EPMO 122330Z 1300/1324 18005KT 6000 BKN036"
    },
    {
      "icao": "EPPO",
      "alert": "OK",
      "vis_m": 9999,
      "fzfg": false,
      "metar_trigger": false,
      "taf_trigger": false,
      "metar": "METAR EPPO 122330Z 13007KT CAVOK M04/M09 Q1013",
      "taf": "TAF EPPO 122330Z 1300/1324 14007KT CAVOK"
    },
    {
      "icao": "EPRA",
      "alert": "OK",
      "vis_m": 9999,
      "fzfg": false,
      "metar_trigger": false,
      "taf_trigger": false,
      "metar": "METAR EPRA 122330Z 19005KT 9999 BKN022 M07/M08 Q1017",
      "taf": "TAF EPRA 122330Z 1300/1309 16006KT 8000 BKN030"
    },
    {
      "icao": "EPRZ",
      "alert": "OK",
      "vis_m": 9999,
      "fzfg": false,
      "metar_trigger": false,
      "taf_trigger": false,
      "metar": "METAR EPRZ 122330Z 21005KT CAVOK M08/M10 Q1017",
      "taf": "TAF EPRZ 122330Z 1300/1324 22008KT CAVOK"
    },
    {
      "icao": "EPSC",
      "alert": "OK",
      "vis_m": 9999,
      "fzfg": false,
      "metar_trigger": false,
      "taf_trigger": false,
      "metar": "METAR EPSC 122330Z 13012KT 9999 OVC010 M03/M08 Q1011",
      "taf": "TAF EPSC 122330Z 1300/1324 13012KT 9999 OVC013"
    },
    {
      "icao": "EPSY",
      "alert": "OK",
      "vis_m": 500,
      "fzfg": true,
      "metar_trigger": false,
      "taf_trigger": false,
      "metar": "METAR EPSY 122330Z 00000KT 0500 R01/0650U FZFG BKN001 M12/M14 Q1016",
      "taf": "TAF EPSY 122330Z 1300/1309 15005KT 0500 FZFG OVC001"
    },
    {
      "icao": "EPWA",
      "alert": "OK",
      "vis_m": 7000,
      "fzfg": false,
      "metar_trigger": false,
      "taf_trigger": false,
      "metar": "METAR EPWA 122330Z 11004KT 070V190 7000 SCT023 M08/M09 Q1017 NOSIG",
      "taf": "TAF EPWA 122330Z 1300/1324 17007KT 7000 SCT021"
    },
    {
      "icao": "EPWR",
      "alert": "OK",
      "vis_m": 9999,
      "fzfg": false,
      "metar_trigger": false,
      "taf_trigger": false,
      "metar": "METAR EPWR 122330Z 13008KT 9999 FEW017 BKN030 M03/M05 Q1013",
      "taf": "TAF EPWR 122330Z 1300/1324 14010KT 9999 BKN020"
    },
    {
      "icao": "ESGG",
      "alert": "OK",
      "vis_m": 9999,
      "fzfg": false,
      "metar_trigger": false,
      "taf_trigger": false,
      "metar": "METAR ESGG 122320Z 11009KT 9999 -SN OVC026 M04/M05 Q1009",
      "taf": ""
    },
    {
      "icao": "ESKN",
      "alert": "OK",
      "vis_m": 9999,
      "fzfg": false,
      "metar_trigger": false,
      "taf_trigger": false,
      "metar": "METAR ESKN 122320Z 07005KT 9999 FEW023 SCT030 OVC041 M02/M05 Q1015",
      "taf": "TAF ESKN 122330Z 1300/1324 09006KT 9999 SCT007 BKN030"
    },
    {
      "icao": "ESMS",
      "alert": "OK",
      "vis_m": 3000,
      "fzfg": false,
      "metar_trigger": false,
      "taf_trigger": false,
      "metar": "METAR ESMS 122320Z 14010KT 3000 -SN FEW007 SCT012 OVC020 M01/M01 Q1009",
      "taf": "TAF ESMS 122329Z 1300/1324 13011KT 9999 OVC020"
    },
    {
      "icao": "ESSA",
      "alert": "OK",
      "vis_m": 9999,
      "fzfg": false,
      "metar_trigger": false,
      "taf_trigger": false,
      "metar": "METAR ESSA 122320Z 07006KT 9999 OVC043 M04/M06 Q1016 NOSIG",
      "taf": "TAF ESSA 122330Z 1300/1324 09006KT 9999 BKN020"
    },
    {
      "icao": "EYKA",
      "alert": "OK",
      "vis_m": 3200,
      "fzfg": false,
      "metar_trigger": false,
      "taf_trigger": false,
      "metar": "METAR EYKA 122350Z 28004KT 240V310 3200 BR OVC002 M15/M17 Q1018",
      "taf": "TAF EYKA 122303Z 1300/1324 VRB03KT 3000 BR BKN003"
    },
    {
      "icao": "EYPA",
      "alert": "OK",
      "vis_m": 9999,
      "fzfg": false,
      "metar_trigger": false,
      "taf_trigger": false,
      "metar": "METAR EYPA 122350Z AUTO 12006KT 9999 OVC004/// M09/M10 Q1017",
      "taf": "TAF EYPA 122303Z 1300/1324 VRB05KT 6000 OVC005"
    },
    {
      "icao": "EYVI",
      "alert": "OK",
      "vis_m": 8000,
      "fzfg": false,
      "metar_trigger": false,
      "taf_trigger": false,
      "metar": "METAR EYVI 122350Z 29004KT 250V310 8000 -SN OVC005 M12/M14 Q1015 NOSIG",
      "taf": "TAF EYVI 122303Z 1300/1324 VRB05KT 5000 BR BKN005"
    },
    {
      "icao": "GCFV",
      "alert": "OK",
      "vis_m": 9999,
      "fzfg": false,
      "metar_trigger": false,
      "taf_trigger": false,
      "metar": "METAR GCFV 122330Z AUTO 24003KT 200V300 CAVOK 14/07 Q1020",
      "taf": "TAF GCFV 122000Z 1221/1321 27006KT 9999 SCT020 TX21/1314Z TN12/1306Z"
    },
    {
      "icao": "GCLP",
      "alert": "OK",
      "vis_m": 9999,
      "fzfg": false,
      "metar_trigger": false,
      "taf_trigger": false,
      "metar": "METAR GCLP 122330Z 31005KT CAVOK 15/12 Q1020 NOSIG",
      "taf": "TAF GCLP 122000Z 1221/1321 28005KT 9999 FEW025 TX21/1314Z TN14/1306Z"
    },
    {
      "icao": "GCTS",
      "alert": "OK",
      "vis_m": 9999,
      "fzfg": false,
      "metar_trigger": false,
      "taf_trigger": false,
      "metar": "METAR GCTS 122330Z 02005KT 9999 FEW030 15/10 Q1021 NOSIG",
      "taf": "TAF GCTS 122000Z 1221/1321 34007KT 9999 FEW030 TX23/1314Z TN14/1306Z"
    },
    {
      "icao": "GMAD",
      "alert": "OK",
      "vis_m": 9999,
      "fzfg": false,
      "metar_trigger": false,
      "taf_trigger": false,
      "metar": "METAR GMAD 122330Z 04006KT CAVOK 09/06 Q1020 NOSIG",
      "taf": "TAF GMAD 122300Z 1300/1406 07006KT CAVOK"
    },
    {
      "icao": "GMMN",
      "alert": "OK",
      "vis_m": 9999,
      "fzfg": false,
      "metar_trigger": false,
      "taf_trigger": false,
      "metar": "METAR GMMN 122330Z 16008KT CAVOK 06/04 Q1019 NOSIG",
      "taf": "TAF GMMN 122300Z 1300/1406 17005KT CAVOK"
    },
    {
      "icao": "GMMX",
      "alert": "OK",
      "vis_m": 9999,
      "fzfg": false,
      "metar_trigger": false,
      "taf_trigger": false,
      "metar": "METAR GMMX 122330Z 10003KT CAVOK 11/07 Q1020 NOSIG",
      "taf": "TAF GMMX 122300Z 1300/1406 14006KT 8000 NSC"
    },
    {
      "icao": "HEGN",
      "alert": "OK",
      "vis_m": 9999,
      "fzfg": false,
      "metar_trigger": false,
      "taf_trigger": false,
      "metar": "METAR HEGN 122300Z 31010KT CAVOK 16/02 Q1019 NOSIG",
      "taf": "TAF HEGN 122300Z 1300/1406 29015G25KT 6000 SCT025"
    },
    {
      "icao": "HEMA",
      "alert": "OK",
      "vis_m": 9999,
      "fzfg": false,
      "metar_trigger": false,
      "taf_trigger": false,
      "metar": "METAR HEMA 122300Z 27010KT CAVOK 17/03 Q1017 NOSIG",
      "taf": "TAF HEMA 122300Z 1300/1406 30010G20KT 9999 FEW025"
    },
    {
      "icao": "HESH",
      "alert": "OK",
      "vis_m": 6000,
      "fzfg": false,
      "metar_trigger": false,
      "taf_trigger": false,
      "metar": "METAR HESH 122300Z 26018KT 6000 NSC 17/03 Q1015 NOSIG",
      "taf": "TAF HESH 122300Z 1300/1406 34010G20KT 9999 SCT025"
    },
    {
      "icao": "HESX",
      "alert": "OK",
      "vis_m": 9999,
      "fzfg": false,
      "metar_trigger": false,
      "taf_trigger": false,
      "metar": "METAR HESX 122300Z 23008KT CAVOK 10/03 Q1018 NOSIG",
      "taf": "TAF HESX 122300Z 1300/1406 24012G22KT 6000 FEW025 SCT100"
    },
    {
      "icao": "LATI",
      "alert": "OK",
      "vis_m": 9999,
      "fzfg": false,
      "metar_trigger": false,
      "taf_trigger": false,
      "metar": "METAR LATI 122350Z 16004KT 9999 SCT053 BKN096 M01/M06 Q1025 NOSIG",
      "taf": "TAF LATI 122300Z 1300/1324 VRB05KT 9999 SCT040 BKN070 TX10/1312Z TNM01/1300Z"
    },
    {
      "icao": "LBPD",
      "alert": "OK",
      "vis_m": 9999,
      "fzfg": false,
      "metar_trigger": false,
      "taf_trigger": false,
      "metar": "METAR LBPD 122330Z AUTO 32007KT 280V340 9999 NCD M03/M13 Q1022",
      "taf": "TAF LBPD 122300Z 1300/1324 29010KT 9999 SCT050"
    },
    {
      "icao": "LBSF",
      "alert": "OK",
      "vis_m": 9999,
      "fzfg": false,
      "metar_trigger": false,
      "taf_trigger": false,
      "metar": "METAR LBSF 122330Z AUTO 23005KT 9999 NCD M10/M13 Q1021 NOSIG",
      "taf": "TAF LBSF 122300Z 1300/1324 VRB03KT 9999 SCT050 BKN070"
    },
    {
      "icao": "LBWN",
      "alert": "OK",
      "vis_m": 9999,
      "fzfg": false,
      "metar_trigger": false,
      "taf_trigger": false,
      "metar": "METAR LBWN 122330Z AUTO 24004KT 9999 NCD M06/M09 Q1021 NOSIG",
      "taf": "TAF LBWN 122300Z 1300/1324 27010KT 9999 SCT050"
    },
    {
      "icao": "LCLK",
      "alert": "OK",
      "vis_m": 9999,
      "fzfg": false,
      "metar_trigger": false,
      "taf_trigger": false,
      "metar": "METAR LCLK 122330Z 22006KT 9999 FEW020CB 10/07 Q1006 NOSIG RMK CB N-NE",
      "taf": "TAF LCLK 122330Z 1300/1400 25008KT 9999 FEW020CB SCT040"
    },
    {
      "icao": "LCPH",
      "alert": "OK",
      "vis_m": 9999,
      "fzfg": false,
      "metar_trigger": false,
      "taf_trigger": false,
      "metar": "METAR LCPH 122330Z 30019KT 250V320 9999 SCT040 14/07 Q1007 NOSIG",
      "taf": "TAF LCPH 122330Z 1300/1400 30023KT 9999 -SHRA FEW025CB SCT040"
    },
    {
      "icao": "LEAL",
      "alert": "OK",
      "vis_m": 5000,
      "fzfg": false,
      "metar_trigger": false,
      "taf_trigger": false,
      "metar": "METAR LEAL 122330Z 30003KT 5000 BR NSC 08/08 Q1020 NOSIG",
      "taf": "TAF LEAL 122300Z 1300/1324 VRB04KT CAVOK TX16/1313Z TN06/1306Z"
    },
    {
      "icao": "LEBB",
      "alert": "OK",
      "vis_m": 9999,
      "fzfg": false,
      "metar_trigger": false,
      "taf_trigger": false,
      "metar": "METAR LEBB 122330Z AUTO 13011KT 090V170 CAVOK 16/05 Q1012",
      "taf": "TAF LEBB 122300Z 1300/1324 17009KT CAVOK TX16/1300Z TN11/1308Z"
    },
    {
      "icao": "LEBL",
      "alert": "OK",
      "vis_m": 7000,
      "fzfg": false,
      "metar_trigger": false,
      "taf_trigger": false,
      "metar": "METAR LEBL 122330Z 32005KT 7000 FEW017 BKN023 09/08 Q1019 NOSIG",
      "taf": "TAF LEBL 122300Z 1300/1324 34007KT 9999 SCT015 TX16/1312Z TN07/1306Z"
    },
    {
      "icao": "LECH",
      "alert": "OK",
      "vis_m": 3100,
      "fzfg": false,
      "metar_trigger": false,
      "taf_trigger": false,
      "metar": "METAR LECH 122330Z AUTO VRB02KT 3100 BR NCD 05/05 Q1019",
      "taf": ""
    },
    {
      "icao": "LEMD",
      "alert": "OK",
      "vis_m": 8000,
      "fzfg": false,
      "metar_trigger": false,
      "taf_trigger": false,
      "metar": "METAR LEMD 122330Z 00000KT 8000 NSC 03/03 Q1018 NOSIG",
      "taf": "TAF LEMD 122300Z 1300/1406 VRB03KT CAVOK TX12/1314Z TN01/1306Z"
    },
    {
      "icao": "LEMG",
      "alert": "OK",
      "vis_m": 9999,
      "fzfg": false,
      "metar_trigger": false,
      "taf_trigger": false,
      "metar": "METAR LEMG 122330Z 30002KT 9999 FEW012 06/05 Q1020 NOSIG",
      "taf": "TAF LEMG 122300Z 1300/1324 29005KT 9999 FEW020 TX16/1314Z TN05/1307Z"
    },
    {
      "icao": "LEVC",
      "alert": "OK",
      "vis_m": 9999,
      "fzfg": false,
      "metar_trigger": false,
      "taf_trigger": false,
      "metar": "METAR LEVC 122330Z VRB01KT CAVOK 06/05 Q1019 NOSIG",
      "taf": "TAF LEVC 122300Z 1300/1324 VRB04KT CAVOK TX17/1314Z TN04/1306Z"
    },
    {
      "icao": "LEXJ",
      "alert": "OK",
      "vis_m": 9999,
      "fzfg": false,
      "metar_trigger": false,
      "taf_trigger": false,
      "metar": "METAR LEXJ 122330Z AUTO 20013G25KT 9999 3900E NSC 16/05 Q1010",
      "taf": ""
    },
    {
      "icao": "LEZG",
      "alert": "OK",
      "vis_m": 9999,
      "fzfg": false,
      "metar_trigger": false,
      "taf_trigger": false,
      "metar": "METAR LEZG 122330Z 09004KT CAVOK 06/05 Q1018 NOSIG",
      "taf": "TAF LEZG 122300Z 1300/1324 VRB04KT CAVOK TX13/1315Z TN05/1306Z"
    },
    {
      "icao": "LEZL",
      "alert": "OK",
      "vis_m": 9000,
      "fzfg": false,
      "metar_trigger": false,
      "taf_trigger": false,
      "metar": "METAR LEZL 122330Z VRB01KT 9000 SCT020 SCT030 BKN040 12/11 Q1018 NOSIG",
      "taf": "TAF LEZL 122000Z 1221/1321 23006KT 9999 SCT030 TX18/1315Z TN10/1307Z"
    },
    {
      "icao": "LFBD",
      "alert": "OK",
      "vis_m": 9999,
      "fzfg": false,
      "metar_trigger": false,
      "taf_trigger": false,
      "metar": "METAR LFBD 122330Z AUTO 15010KT CAVOK 07/05 Q1013 NOSIG",
      "taf": "TAF LFBD 122300Z 1300/1406 14010KT CAVOK TX14/1314Z TN04/1304Z"
    },
    {
      "icao": "LFLL",
      "alert": "OK",
      "vis_m": 9999,
      "fzfg": false,
      "metar_trigger": false,
      "taf_trigger": false,
      "metar": "METAR LFLL 122330Z 16011KT CAVOK 09/06 Q1017 TEMPO 18015G27KT",
      "taf": "TAF LFLL 122300Z 1300/1406 17015KT CAVOK"
    },
    {
      "icao": "LFLS",
      "alert": "OK",
      "vis_m": 9999,
      "fzfg": false,
      "metar_trigger": false,
      "taf_trigger": false,
      "metar": "METAR LFLS 122330Z AUTO VRB03KT CAVOK 02/01 Q1019",
      "taf": "TAF LFLS 121925Z 1219/1315 VRB03KT CAVOK"
    },
    {
      "icao": "LFMN",
      "alert": "OK",
      "vis_m": 9999,
      "fzfg": false,
      "metar_trigger": false,
      "taf_trigger": false,
      "metar": "METAR LFMN 122330Z 32013KT CAVOK 07/M02 Q1022 NOSIG",
      "taf": "TAF LFMN 122000Z 1221/1403 32010KT 9999 FEW030"
    },
    {
      "icao": "LFOB",
      "alert": "OK",
      "vis_m": 9999,
      "fzfg": false,
      "metar_trigger": false,
      "taf_trigger": false,
      "metar": "METAR LFOB 122330Z AUTO 19005KT 150V220 9999 BKN010 OVC027 10/09 Q1010 TEMPO 4000 SHRA BKN008 BKN013TCU OVC020",
      "taf": "TAF LFOB 122300Z 1300/1324 20011KT 9999 BKN025"
    },
    {
      "icao": "LFPO",
      "alert": "OK",
      "vis_m": 9999,
      "fzfg": false,
      "metar_trigger": false,
      "taf_trigger": false,
      "metar": "METAR LFPO 122330Z 20008KT 9999 BKN023 BKN053 10/08 Q1011 NOSIG",
      "taf": "TAF LFPO 122300Z 1300/1406 20009KT 9999 BKN035"
    },
    {
      "icao": "LFSB",
      "alert": "OK",
      "vis_m": 9999,
      "fzfg": false,
      "metar_trigger": false,
      "taf_trigger": false,
      "metar": "METAR LFSB 122330Z AUTO 15006KT CAVOK 01/00 Q1016 TEMPO 4500 BR",
      "taf": "TAF LFSB 122300Z 1300/1324 18004KT CAVOK"
    },
    {
      "icao": "LGAV",
      "alert": "OK",
      "vis_m": 9999,
      "fzfg": false,
      "metar_trigger": false,
      "taf_trigger": false,
      "metar": "METAR LGAV 122320Z 30009KT 260V340 9999 FEW025 04/M09 Q1022 NOSIG",
      "taf": "TAF LGAV 122300Z 1300/1324 VRB05KT 9999 FEW025"
    },
    {
      "icao": "LGTS",
      "alert": "OK",
      "vis_m": 9999,
      "fzfg": false,
      "metar_trigger": false,
      "taf_trigger": false,
      "metar": "METAR LGTS 122320Z 30011KT CAVOK 02/M06 Q1024 NOSIG",
      "taf": "TAF LGTS 122300Z 1300/1324 34015KT 9999 FEW025"
    },
    {
      "icao": "LHBP",
      "alert": "OK",
      "vis_m": 9999,
      "fzfg": false,
      "metar_trigger": false,
      "taf_trigger": false,
      "metar": "METAR LHBP 122330Z 13008KT CAVOK M05/M09 Q1020 NOSIG",
      "taf": "TAF LHBP 122315Z 1300/1324 VRB03KT CAVOK"
    },
    {
      "icao": "LHDC",
      "alert": "OK",
      "vis_m": 9999,
      "fzfg": false,
      "metar_trigger": false,
      "taf_trigger": false,
      "metar": "METAR LHDC 122315Z AUTO 16004KT 130V190 CAVOK M11/M14 Q1021",
      "taf": ""
    },
    {
      "icao": "LIBD",
      "alert": "OK",
      "vis_m": 9999,
      "fzfg": false,
      "metar_trigger": false,
      "taf_trigger": false,
      "metar": "METAR LIBD 122320Z 24008KT CAVOK 04/M03 Q1024",
      "taf": "TAF LIBD 122300Z 1300/1324 23007KT CAVOK"
    },
    {
      "icao": "LIBG",
      "alert": "OK",
      "vis_m": null,
      "fzfg": false,
      "metar_trigger": false,
      "taf_trigger": false,
      "metar": "",
      "taf": "TAF LIBG 121700Z 1218/1303 VRB05KT 9999 FEW040"
    },
    {
      "icao": "LIBP",
      "alert": "OK",
      "vis_m": 9999,
      "fzfg": false,
      "metar_trigger": false,
      "taf_trigger": false,
      "metar": "METAR LIBP 122320Z AUTO 25006KT 9999 NCD 09/01 Q1023",
      "taf": "TAF LIBP 122300Z 1300/1324 23007KT CAVOK"
    },
    {
      "icao": "LIBR",
      "alert": "OK",
      "vis_m": 9999,
      "fzfg": false,
      "metar_trigger": false,
      "taf_trigger": false,
      "metar": "METAR LIBR 122320Z 24008KT CAVOK 01/M02 Q1025",
      "taf": "TAF LIBR 122300Z 1300/1324 22008KT CAVOK"
    },
    {
      "icao": "LICA",
      "alert": "OK",
      "vis_m": 9999,
      "fzfg": false,
      "metar_trigger": false,
      "taf_trigger": false,
      "metar": "METAR LICA 122320Z AUTO 08004KT 9999 SCT043/// 02/00 Q1027",
      "taf": "TAF LICA 122300Z 1300/1324 28010KT CAVOK"
    },
    {
      "icao": "LICC",
      "alert": "OK",
      "vis_m": 9999,
      "fzfg": false,
      "metar_trigger": false,
      "taf_trigger": false,
      "metar": "METAR LICC 122320Z 25007KT CAVOK 02/M02 Q1028",
      "taf": "TAF LICC 122300Z 1300/1324 26008KT CAVOK"
    },
    {
      "icao": "LICJ",
      "alert": "OK",
      "vis_m": 9999,
      "fzfg": false,
      "metar_trigger": false,
      "taf_trigger": false,
      "metar": "METAR LICJ 122320Z 17008KT CAVOK 09/02 Q1027",
      "taf": "TAF LICJ 122300Z 1300/1324 19010KT CAVOK"
    },
    {
      "icao": "LIMC",
      "alert": "OK",
      "vis_m": 9999,
      "fzfg": false,
      "metar_trigger": false,
      "taf_trigger": false,
      "metar": "METAR LIMC 122320Z 01006KT 9999 BKN050 02/M03 Q1021 NOSIG",
      "taf": "TAF LIMC 122300Z 1300/1406 VRB05KT 9999 SCT045"
    },
    {
      "icao": "LIME",
      "alert": "OK",
      "vis_m": 9999,
      "fzfg": false,
      "metar_trigger": false,
      "taf_trigger": false,
      "metar": "METAR LIME 122320Z 36008KT 9999 FEW050 06/M04 Q1020 NOSIG",
      "taf": "TAF LIME 122300Z 1300/1324 VRB04KT 9999 SCT035"
    },
    {
      "icao": "LIMF",
      "alert": "OK",
      "vis_m": 9999,
      "fzfg": false,
      "metar_trigger": false,
      "taf_trigger": false,
      "metar": "METAR LIMF 122320Z 23003KT 200V260 CAVOK 00/M06 Q1021",
      "taf": "TAF LIMF 122300Z 1300/1324 VRB03KT CAVOK"
    },
    {
      "icao": "LIMJ",
      "alert": "OK",
      "vis_m": 7000,
      "fzfg": false,
      "metar_trigger": false,
      "taf_trigger": false,
      "metar": "METAR LIMJ 122320Z 17012KT 7000 -RA SCT019 SCT025 13/11 Q1021",
      "taf": "TAF LIMJ 122300Z 1300/1324 18013KT 9999 BKN020"
    },
    {
      "icao": "LIPE",
      "alert": "OK",
      "vis_m": 9999,
      "fzfg": false,
      "metar_trigger": false,
      "taf_trigger": false,
      "metar": "METAR LIPE 122320Z AUTO 19001KT 9999 BKN210/// 01/M02 Q1022",
      "taf": "TAF LIPE 122300Z 1300/1324 VRB04KT 9999 SCT040"
    },
    {
      "icao": "LIPH",
      "alert": "OK",
      "vis_m": 9000,
      "fzfg": false,
      "metar_trigger": false,
      "taf_trigger": false,
      "metar": "METAR LIPH 122320Z AUTO VRB01KT 9000 SCT180/// BKN240/// 00/M01 Q1022",
      "taf": "TAF LIPH 122300Z 1300/1324 VRB04KT 9999 SCT040"
    },
    {
      "icao": "LIPQ",
      "alert": "OK",
      "vis_m": 6000,
      "fzfg": false,
      "metar_trigger": false,
      "taf_trigger": false,
      "metar": "METAR LIPQ 122320Z AUTO 04002KT 6000 FEW170/// M01/M01 Q1022",
      "taf": "TAF LIPQ 122300Z 1300/1324 VRB04KT 9999 SCT040"
    },
    {
      "icao": "LIPR",
      "alert": "OK",
      "vis_m": 9999,
      "fzfg": false,
      "metar_trigger": false,
      "taf_trigger": false,
      "metar": "METAR LIPR 122320Z AUTO 24002KT 9999 SCT050/// M01/M01 Q1022",
      "taf": "TAF LIPR 122300Z 1300/1324 VRB05KT 9999 FEW040"
    },
    {
      "icao": "LIPX",
      "alert": "OK",
      "vis_m": 9999,
      "fzfg": false,
      "metar_trigger": false,
      "taf_trigger": false,
      "metar": "METAR LIPX 122320Z VRB02KT 9999 FEW045 M02/M03 Q1022",
      "taf": "TAF LIPX 122300Z 1300/1324 VRB03KT 9999 SCT040"
    },
    {
      "icao": "LIPY",
      "alert": "OK",
      "vis_m": 9999,
      "fzfg": false,
      "metar_trigger": false,
      "taf_trigger": false,
      "metar": "METAR LIPY 122320Z AUTO VRB02KT 9999 BKN220/// 03/01 Q1023",
      "taf": "TAF LIPY 122300Z 1300/1324 19007KT 9999 FEW050"
    },
    {
      "icao": "LIPZ",
      "alert": "OK",
      "vis_m": 9999,
      "fzfg": false,
      "metar_trigger": false,
      "taf_trigger": false,
      "metar": "METAR LIPZ 122320Z 25002KT CAVOK 01/M01 Q1022 NOSIG",
      "taf": "TAF LIPZ 122300Z 1300/1406 VRB05KT 9999 SCT040"
    },
    {
      "icao": "LIRF",
      "alert": "OK",
      "vis_m": 9999,
      "fzfg": false,
      "metar_trigger": false,
      "taf_trigger": false,
      "metar": "METAR LIRF 122320Z 09006KT 9999 BKN050 07/01 Q1026 NOSIG",
      "taf": "TAF LIRF 122300Z 1300/1406 09008KT 9999 SCT050"
    },
    {
      "icao": "LIRN",
      "alert": "OK",
      "vis_m": 9999,
      "fzfg": false,
      "metar_trigger": false,
      "taf_trigger": false,
      "metar": "METAR LIRN 122320Z 03002KT CAVOK 05/00 Q1026 NOSIG",
      "taf": "TAF LIRN 122300Z 1300/1324 VRB05KT 9999 SCT040"
    },
    {
      "icao": "LIRP",
      "alert": "OK",
      "vis_m": 9999,
      "fzfg": false,
      "metar_trigger": false,
      "taf_trigger": false,
      "metar": "METAR LIRP 122315Z VRB02KT 9999 FEW020 SCT025 07/07 Q1024 NOSIG",
      "taf": "TAF LIRP 122300Z 1300/1324 14005KT 9999 SCT020 BKN040"
    },
    {
      "icao": "LIRZ",
      "alert": "OK",
      "vis_m": 9999,
      "fzfg": false,
      "metar_trigger": false,
      "taf_trigger": false,
      "metar": "METAR LIRZ 122320Z AUTO 29003KT 9999 OVC051/// 06/01 Q1025",
      "taf": "TAF LIRZ 122300Z 1300/1324 VRB04KT 9999 SCT050"
    },
    {
      "icao": "LJLJ",
      "alert": "OK",
      "vis_m": 9999,
      "fzfg": false,
      "metar_trigger": false,
      "taf_trigger": false,
      "metar": "METAR LJLJ 122330Z 28003KT 9999 BKN100 M04/M05 Q1019 NOSIG",
      "taf": "TAF LJLJ 122300Z 1300/1400 VRB02KT 9999 FEW070"
    },
    {
      "icao": "LKMT",
      "alert": "OK",
      "vis_m": 9999,
      "fzfg": false,
      "metar_trigger": false,
      "taf_trigger": false,
      "metar": "METAR LKMT 122330Z 25010KT 9999 BKN045 M05/M08 Q1015 NOSIG",
      "taf": "TAF LKMT 122300Z 1300/1324 23010KT 9999 BKN020 OVC035"
    },
    {
      "icao": "LKPR",
      "alert": "OK",
      "vis_m": 2600,
      "fzfg": false,
      "metar_trigger": false,
      "taf_trigger": false,
      "metar": "METAR LKPR 122330Z 33003KT 2600 -FZRA BR BKN003 OVC005 M05/M06 Q1012 NOSIG",
      "taf": "TAF LKPR 122300Z 1300/1406 32004KT 7000 BKN008 OVC020"
    },
    {
      "icao": "LLBG",
      "alert": "OK",
      "vis_m": 9999,
      "fzfg": false,
      "metar_trigger": false,
      "taf_trigger": false,
      "metar": "METAR LLBG 122350Z 18011KT 9999 SCT035 BKN050 13/08 Q1012 TEMPO 27020G35KT 3000 TSRA FEW020CB",
      "taf": "TAF LLBG 122306Z 1300/1324 25015G25KT 9999 SCT030 BKN040"
    },
    {
      "icao": "LMML",
      "alert": "OK",
      "vis_m": 9999,
      "fzfg": false,
      "metar_trigger": false,
      "taf_trigger": false,
      "metar": "METAR LMML 122345Z 25004KT CAVOK 07/03 Q1028 NOSIG",
      "taf": "TAF LMML 122300Z 1300/1324 26006KT 9999 FEW025"
    },
    {
      "icao": "LOWW",
      "alert": "OK",
      "vis_m": 3500,
      "fzfg": false,
      "metar_trigger": false,
      "taf_trigger": false,
      "metar": "METAR LOWW 122320Z 13006KT 3500 SN FEW004 SCT007 BKN009 M04/M05 Q1017 BECMG -FZRA",
      "taf": "TAF LOWW 122315Z 1300/1406 15008KT 7000 -FZRA FEW009 BKN020 TX02/1315Z TNM04/1300Z"
    },
    {
      "icao": "LPFR",
      "alert": "OK",
      "vis_m": 9999,
      "fzfg": false,
      "metar_trigger": false,
      "taf_trigger": false,
      "metar": "METAR LPFR 122330Z 19013KT 9999 SCT020 BKN040 16/11 Q1015",
      "taf": "TAF LPFR 122300Z 1300/1324 19015KT 9999 SCT020 BKN040"
    },
    {
      "icao": "LPMA",
      "alert": "OK",
      "vis_m": 9999,
      "fzfg": false,
      "metar_trigger": false,
      "taf_trigger": false,
      "metar": "METAR LPMA 122330Z 33010KT 270V040 9999 SCT015 16/11 Q1015",
      "taf": "TAF LPMA 122300Z 1300/1324 32010KT 9999 SCT015"
    },
    {
      "icao": "LPPR",
      "alert": "OK",
      "vis_m": 9999,
      "fzfg": false,
      "metar_trigger": false,
      "taf_trigger": false,
      "metar": "METAR LPPR 122330Z 16023KT 9999 -RA FEW020 BKN035 13/09 Q1009",
      "taf": "TAF LPPR 122300Z 1300/1324 17018KT 6000 -RA SCT008 BKN018"
    },
    {
      "icao": "LPPS",
      "alert": "OK",
      "vis_m": 9999,
      "fzfg": false,
      "metar_trigger": false,
      "taf_trigger": false,
      "metar": "METAR LPPS 122330Z 31016KT 9999 FEW014 BKN030 16/12 Q1016",
      "taf": "TAF LPPS 122300Z 1300/1406 31015KT 9999 SCT015"
    },
    {
      "icao": "LPPT",
      "alert": "OK",
      "vis_m": 9999,
      "fzfg": false,
      "metar_trigger": false,
      "taf_trigger": false,
      "metar": "METAR LPPT 122330Z 17014G24KT 9999 VCSH FEW016 BKN025 14/11 Q1011",
      "taf": "TAF LPPT 122300Z 1300/1406 18015KT 9999 SCT020 BKN035"
    },
    {
      "icao": "LQBK",
      "alert": "OK",
      "vis_m": 9999,
      "fzfg": false,
      "metar_trigger": false,
      "taf_trigger": false,
      "metar": "METAR LQBK 122330Z VRB02KT CAVOK M05/M06 Q1019 NOSIG",
      "taf": "TAF LQBK 122300Z 1300/1324 15005KT CAVOK TX06/1313Z TNM06/1303Z"
    },
    {
      "icao": "LQSA",
      "alert": "OK",
      "vis_m": 5000,
      "fzfg": false,
      "metar_trigger": false,
      "taf_trigger": false,
      "metar": "METAR LQSA 122330Z VRB01KT 5000 BR NSC M07/M07 Q1021",
      "taf": "TAF LQSA 122300Z 1300/1324 VRB02KT 6000 NSC TX04/1314Z TNM08/1300Z"
    },
    {
      "icao": "LQTZ",
      "alert": "OK",
      "vis_m": 4800,
      "fzfg": false,
      "metar_trigger": false,
      "taf_trigger": false,
      "metar": "METAR LQTZ 122330Z 20001KT 4800 BR SCT065 M06/M07 Q1020",
      "taf": "TAF LQTZ 122300Z 1300/1324 09005KT CAVOK TX06/1313Z TNM06/1300Z"
    },
    {
      "icao": "LRBC",
      "alert": "OK",
      "vis_m": 9999,
      "fzfg": false,
      "metar_trigger": false,
      "taf_trigger": false,
      "metar": "METAR LRBC 122330Z 34004KT 9999 BKN068 M05/M09 Q1020",
      "taf": "TAF LRBC 122300Z 1300/1309 VRB04KT 9999 BKN045"
    },
    {
      "icao": "LRBS",
      "alert": "OK",
      "vis_m": 8000,
      "fzfg": false,
      "metar_trigger": false,
      "taf_trigger": false,
      "metar": "METAR LRBS 122330Z 28003KT 8000 NSC M09/M10 Q1021 BECMG 5000 BR",
      "taf": "TAF LRBS 122300Z 1300/1324 VRB04KT 5000 BR NSC"
    },
    {
      "icao": "LRBV",
      "alert": "OK",
      "vis_m": 9999,
      "fzfg": false,
      "metar_trigger": false,
      "taf_trigger": false,
      "metar": "METAR LRBV 122330Z AUTO VRB02KT 9999 FEW070/// M12/M14 Q1019",
      "taf": "TAF LRBV 122000Z 1221/1306 30008KT 9999 SCT015 BKN035"
    },
    {
      "icao": "LRCL",
      "alert": "OK",
      "vis_m": 3000,
      "fzfg": false,
      "metar_trigger": false,
      "taf_trigger": false,
      "metar": "METAR LRCL 122330Z VRB02KT 3000 BR BKN010 M12/M13 Q1020",
      "taf": "TAF LRCL 122300Z 1300/1309 VRB02KT 3000 BR BKN010"
    },
    {
      "icao": "LRCV",
      "alert": "OK",
      "vis_m": 9999,
      "fzfg": false,
      "metar_trigger": false,
      "taf_trigger": false,
      "metar": "METAR LRCV 122330Z 31005KT CAVOK M08/M11 Q1021",
      "taf": "TAF LRCV 122300Z 1300/1309 VRB04KT CAVOK"
    },
    {
      "icao": "LRIA",
      "alert": "OK",
      "vis_m": 9999,
      "fzfg": false,
      "metar_trigger": false,
      "taf_trigger": false,
      "metar": "METAR LRIA 122330Z 29004KT 9999 -SN BKN043 M06/M09 Q1020",
      "taf": "TAF LRIA 122300Z 1300/1309 32008KT 9999 BKN040"
    },
    {
      "icao": "LROP",
      "alert": "OK",
      "vis_m": 5000,
      "fzfg": false,
      "metar_trigger": false,
      "taf_trigger": false,
      "metar": "METAR LROP 122330Z 24003KT 5000 BR NSC M10/M12 Q1021 TEMPO 3000 BR",
      "taf": "TAF LROP 122300Z 1300/1324 VRB04KT 5000 BR NSC"
    },
    {
      "icao": "LRSB",
      "alert": "OK",
      "vis_m": 9000,
      "fzfg": false,
      "metar_trigger": false,
      "taf_trigger": false,
      "metar": "METAR LRSB 122330Z VRB02KT 9000 NSC M15/M17 Q1019",
      "taf": "TAF LRSB 122300Z 1300/1324 VRB04KT 9999 SCT050"
    },
    {
      "icao": "LRSM",
      "alert": "OK",
      "vis_m": 8000,
      "fzfg": false,
      "metar_trigger": false,
      "taf_trigger": false,
      "metar": "METAR LRSM 122330Z AUTO 10005KT 8000 NCD M15/M16 Q1022",
      "taf": "TAF LRSM 121400Z 1215/1224 25007KT 9999 SCT045"
    },
    {
      "icao": "LRSV",
      "alert": "OK",
      "vis_m": 8000,
      "fzfg": false,
      "metar_trigger": false,
      "taf_trigger": false,
      "metar": "METAR LRSV 122330Z 00000KT 8000 -SN OVC048 M07/M09 Q1017",
      "taf": "TAF LRSV 122300Z 1300/1309 33006KT 9999 BKN040"
    },
    {
      "icao": "LRTM",
      "alert": "OK",
      "vis_m": 9999,
      "fzfg": false,
      "metar_trigger": false,
      "taf_trigger": false,
      "metar": "METAR LRTM 122330Z AUTO 08004KT 9999 BKN070/// M11/M13 Q1021",
      "taf": "TAF LRTM 121400Z 1215/1224 VRB04KT 9999 BKN040"
    },
    {
      "icao": "LRTR",
      "alert": "OK",
      "vis_m": 9999,
      "fzfg": false,
      "metar_trigger": false,
      "taf_trigger": false,
      "metar": "METAR LRTR 122330Z 10008KT CAVOK M13/M14 Q1022",
      "taf": "TAF LRTR 122300Z 1300/1324 10010KT 9999 BKN020 OVC040"
    },
    {
      "icao": "LTAC",
      "alert": "OK",
      "vis_m": 9999,
      "fzfg": false,
      "metar_trigger": false,
      "taf_trigger": false,
      "metar": "METAR LTAC 122320Z 35006KT 310V030 9999 SCT036 BKN100 M02/M06 Q1010 NOSIG",
      "taf": "TAF LTAC 122240Z 1300/1324 02008KT 9999 SCT040 BKN100"
    },
    {
      "icao": "LTFM",
      "alert": "OK",
      "vis_m": 9999,
      "fzfg": false,
      "metar_trigger": false,
      "taf_trigger": false,
      "metar": "METAR LTFM 122320Z 33015KT 9999 BKN032 BKN070 01/M06 Q1020 RESHSN NOSIG",
      "taf": "TAF LTFM 122240Z 1300/1406 34012KT 9999 -SHSN BKN032 BKN080"
    },
    {
      "icao": "LUKK",
      "alert": "OK",
      "vis_m": 9999,
      "fzfg": false,
      "metar_trigger": false,
      "taf_trigger": false,
      "metar": "METAR LUKK 122330Z 33009KT CAVOK M06/M11 Q1019 NOSIG",
      "taf": "TAF LUKK 122316Z 1300/1324 30009KT CAVOK"
    },
    {
      "icao": "LWOH",
      "alert": "OK",
      "vis_m": null,
      "fzfg": false,
      "metar_trigger": false,
      "taf_trigger": false,
      "metar": "",
      "taf": "TAF LWOH 122030Z 1218/1318 33005KT 9999 FEW035"
    },
    {
      "icao": "LWSK",
      "alert": "OK",
      "vis_m": 9999,
      "fzfg": false,
      "metar_trigger": false,
      "taf_trigger": false,
      "metar": "METAR LWSK 122350Z 12003KT CAVOK M09/M11 Q1024 NOSIG",
      "taf": "TAF LWSK 122030Z 1218/1318 VRB02KT 9999 FEW060"
    },
    {
      "icao": "LYBE",
      "alert": "OK",
      "vis_m": 9999,
      "fzfg": false,
      "metar_trigger": false,
      "taf_trigger": false,
      "metar": "METAR LYBE 122330Z 11002KT CAVOK M03/M08 Q1021 NOSIG",
      "taf": "TAF LYBE 122300Z 1300/1324 12005KT 9999 SCT040 TX03/1313Z TNM03/1224Z"
    },
    {
      "icao": "LYNI",
      "alert": "OK",
      "vis_m": 9999,
      "fzfg": false,
      "metar_trigger": false,
      "taf_trigger": false,
      "metar": "METAR LYNI 122330Z 10004KT 9999 BKN090 M06/M08 Q1023 NOSIG",
      "taf": "TAF LYNI 122300Z 1300/1324 10003KT 9999 BKN080 TX01/1313Z TNM05/1300Z"
    },
    {
      "icao": "LYPG",
      "alert": "OK",
      "vis_m": 9999,
      "fzfg": false,
      "metar_trigger": false,
      "taf_trigger": false,
      "metar": "METAR LYPG 122330Z 33005KT 9999 SCT080 M00/M07 Q1026 NOSIG",
      "taf": "TAF LYPG 122300Z 1300/1324 36005KT 9999 SCT050 BKN080 TX05/1313Z TNM02/1303Z"
    },
    {
      "icao": "LZIB",
      "alert": "OK",
      "vis_m": 3500,
      "fzfg": false,
      "metar_trigger": false,
      "taf_trigger": false,
      "metar": "METAR LZIB 122330Z 06006KT 3500 -FZDZRA BR SCT004 BKN007 OVC015 M04/M05 Q1018 NOSIG",
      "taf": "TAF LZIB 122315Z 1300/1400 09004KT 6000 -FZRA SCT013 OVC016"
    },
    {
      "icao": "LZKZ",
      "alert": "OK",
      "vis_m": 9999,
      "fzfg": false,
      "metar_trigger": false,
      "taf_trigger": false,
      "metar": "METAR LZKZ 122330Z 33002KT CAVOK M12/M14 Q1019 NOSIG",
      "taf": "TAF LZKZ 122315Z 1300/1400 VRB02KT CAVOK"
    },
    {
      "icao": "LZTT",
      "alert": "OK",
      "vis_m": 9999,
      "fzfg": false,
      "metar_trigger": false,
      "taf_trigger": false,
      "metar": "METAR LZTT 122330Z 24003KT CAVOK M14/M17 Q1014",
      "taf": "TAF LZTT 122315Z 1300/1400 VRB02KT 9999 SCT050"
    },
    {
      "icao": "OEJN",
      "alert": "OK",
      "vis_m": 9999,
      "fzfg": false,
      "metar_trigger": false,
      "taf_trigger": false,
      "metar": "METAR OEJN 122300Z 36004KT CAVOK 24/18 Q1015 NOSIG",
      "taf": "TAF OEJN 122300Z 1300/1406 02005KT 7000 SCT040"
    },
    {
      "icao": "OEMA",
      "alert": "OK",
      "vis_m": 9999,
      "fzfg": false,
      "metar_trigger": false,
      "taf_trigger": false,
      "metar": "METAR OEMA 122300Z 25007KT CAVOK 22/14 Q1018 NOSIG",
      "taf": "TAF OEMA 122300Z 1300/1406 25005KT 7000 FEW040"
    },
    {
      "icao": "OJAI",
      "alert": "OK",
      "vis_m": null,
      "fzfg": false,
      "metar_trigger": false,
      "taf_trigger": false,
      "metar": "",
      "taf": "TAF OJAI 122258Z 1300/1406 25014KT 2000 RA FEW025TCU SCT035"
    },
    {
      "icao": "OMAA",
      "alert": "OK",
      "vis_m": 4500,
      "fzfg": false,
      "metar_trigger": false,
      "taf_trigger": false,
      "metar": "METAR OMAA 122300Z 11005KT 4500 HZ NSC 17/13 Q1020 TEMPO 3000",
      "taf": "TAF OMAA 122300Z 1300/1406 VRB02KT 8000 NSC"
    },
    {
      "icao": "OMDB",
      "alert": "OK",
      "vis_m": 7000,
      "fzfg": false,
      "metar_trigger": false,
      "taf_trigger": false,
      "metar": "METAR OMDB 122300Z 18003KT 140V200 7000 NSC 19/14 Q1020 NOSIG",
      "taf": "TAF OMDB 122300Z 1300/1406 12005KT 7000 NSC"
    },
    {
      "icao": "UAAA",
      "alert": "OK",
      "vis_m": 1500,
      "fzfg": false,
      "metar_trigger": false,
      "taf_trigger": false,
      "metar": "SPECI UAAA 122347Z 02004MPS 360V060 1500 R23L/P2000 BR SCT003 BKN200 M01/M02 Q1030 NOSIG RMK QBB110",
      "taf": "TAF UAAA 122301Z 1300/1324 05003MPS 3100 BR SCT050CB BKN100 TX06/1309Z TNM02/1301Z"
    },
    {
      "icao": "UBBB",
      "alert": "OK",
      "vis_m": 9999,
      "fzfg": false,
      "metar_trigger": false,
      "taf_trigger": false,
      "metar": "METAR UBBB 122330Z 33010KT 9999 BKN011 07/05 Q1011 NOSIG",
      "taf": "TAF UBBB 122309Z 1300/1324 33014KT 9999 SCT014 BKN020 TX09/1310Z TN06/1301Z"
    },
    {
      "icao": "UDSG",
      "alert": "OK",
      "vis_m": 9999,
      "fzfg": false,
      "metar_trigger": false,
      "taf_trigger": false,
      "metar": "METAR UDSG 122330Z 31003KT 250V010 9999 BKN049 M03/M06 Q1010 NOSIG",
      "taf": "TAF UDSG 122300Z 1300/1324 VRB06KT 9999 BKN030"
    },
    {
      "icao": "UDYZ",
      "alert": "OK",
      "vis_m": 9999,
      "fzfg": false,
      "metar_trigger": false,
      "taf_trigger": false,
      "metar": "METAR UDYZ 122330Z VRB02KT 9999 FEW046 04/M03 Q1010 NOSIG",
      "taf": "TAF UDYZ 122300Z 1300/1324 18006KT 2000 BR FEW040"
    },
    {
      "icao": "UGKO",
      "alert": "OK",
      "vis_m": 9999,
      "fzfg": false,
      "metar_trigger": false,
      "taf_trigger": false,
      "metar": "METAR UGKO 122330Z 32003KT 9999 SCT009 BKN024 08/07 Q1009 NOSIG",
      "taf": "TAF UGKO 122300Z 1300/1324 26007KT 9999 SCT015 OVC040 TX08/1300Z TN06/1304Z"
    }
  ]
}