{
  "ts_utc": "2026-02-10T14:04:52Z",
  "threshold_m": 150,
  "source": "stations_override.txt (ICAO list) + aviationweather.gov (METAR/TAF raw)",
  "station_count": 159,
  "stations": [
    {
      "icao": "BIKF",
      "alert": "OK",
      "vis_m": 9999,
      "fzfg": false,
      "metar_trigger": false,
      "taf_trigger": false,
      "metar": "METAR BIKF 101400Z 04010KT CAVOK 04/M01 Q1006",
      "taf": "TAF BIKF 101347Z 1015/1115 05012KT CAVOK TX02/1018Z TNM03/1110Z"
    },
    {
      "icao": "BKPR",
      "alert": "OK",
      "vis_m": 9999,
      "fzfg": false,
      "metar_trigger": false,
      "taf_trigger": false,
      "metar": "METAR BKPR 101400Z 02002KT 9999 SCT015 BKN025 06/04 Q1007 NOSIG",
      "taf": "TAF BKPR 101130Z 1012/1112 15008KT 9999 BKN010 BKN025"
    },
    {
      "icao": "EBCI",
      "alert": "OK",
      "vis_m": 9999,
      "fzfg": false,
      "metar_trigger": false,
      "taf_trigger": false,
      "metar": "METAR EBCI 101350Z 19010KT 9999 -SHRA SCT009 BKN011 10/08 Q0990 TEMPO 4000 SHRA",
      "taf": "TAF EBCI 101100Z 1012/1118 19009KT 9999 BKN007"
    },
    {
      "icao": "EDDB",
      "alert": "OK",
      "vis_m": 9999,
      "fzfg": false,
      "metar_trigger": false,
      "taf_trigger": false,
      "metar": "METAR EDDB 101350Z AUTO 14010KT 9999 BKN020 04/M00 Q0998 NOSIG",
      "taf": "TAF EDDB 101100Z 1012/1112 13006KT 8000 BKN025"
    },
    {
      "icao": "EDDH",
      "alert": "OK",
      "vis_m": 9999,
      "fzfg": false,
      "metar_trigger": false,
      "taf_trigger": false,
      "metar": "METAR EDDH 101350Z AUTO 12009KT 090V150 9999 FEW016 04/01 Q0995 NOSIG",
      "taf": "TAF EDDH 101100Z 1012/1118 11011KT 9999 BKN030"
    },
    {
      "icao": "EDDK",
      "alert": "OK",
      "vis_m": 9999,
      "fzfg": false,
      "metar_trigger": false,
      "taf_trigger": false,
      "metar": "METAR EDDK 101350Z AUTO 15011KT 110V180 9999 BKN021 09/05 Q0993 NOSIG",
      "taf": "TAF EDDK 101100Z 1012/1118 12010KT 9999 BKN020"
    },
    {
      "icao": "EDDN",
      "alert": "OK",
      "vis_m": 9999,
      "fzfg": false,
      "metar_trigger": false,
      "taf_trigger": false,
      "metar": "METAR EDDN 101350Z AUTO 13009KT 9999 SCT047 06/01 Q0997 NOSIG",
      "taf": "TAF EDDN 101100Z 1012/1112 14008KT 9999 BKN040"
    },
    {
      "icao": "EDDS",
      "alert": "OK",
      "vis_m": 9999,
      "fzfg": false,
      "metar_trigger": false,
      "taf_trigger": false,
      "metar": "METAR EDDS 101350Z AUTO 22006KT 160V260 9999 FEW019 SCT028 OVC039 09/03 Q0996 TEMPO RA",
      "taf": "TAF EDDS 101100Z 1012/1112 09005KT 9999 BKN030"
    },
    {
      "icao": "EDFH",
      "alert": "OK",
      "vis_m": 8000,
      "fzfg": false,
      "metar_trigger": false,
      "taf_trigger": false,
      "metar": "METAR EDFH 101350Z 17008KT 8000 FEW002 SCT004 BKN007 06/05 Q0993",
      "taf": "TAF EDFH 101100Z 1012/1112 17012KT 6000 BKN008"
    },
    {
      "icao": "EDJA",
      "alert": "OK",
      "vis_m": 9999,
      "fzfg": false,
      "metar_trigger": false,
      "taf_trigger": false,
      "metar": "METAR EDJA 101350Z 22009KT 9999 BKN036 OVC045 06/01 Q0998",
      "taf": "TAF EDJA 101100Z 1012/1021 21006KT 9999 BKN045"
    },
    {
      "icao": "EDLW",
      "alert": "OK",
      "vis_m": 9999,
      "fzfg": false,
      "metar_trigger": false,
      "taf_trigger": false,
      "metar": "METAR EDLW 101350Z COR 18011KT 9999 09/04 Q0992",
      "taf": "TAF EDLW 101100Z 1012/1112 15008KT 9999 BKN025"
    },
    {
      "icao": "EDNY",
      "alert": "OK",
      "vis_m": 8000,
      "fzfg": false,
      "metar_trigger": false,
      "taf_trigger": false,
      "metar": "METAR EDNY 101350Z VRB02KT 8000 FEW008 SCT046 05/04 Q0999",
      "taf": "TAF EDNY 101100Z 1012/1021 VRB02KT 4000 BR BKN004"
    },
    {
      "icao": "EDSB",
      "alert": "OK",
      "vis_m": 9999,
      "fzfg": false,
      "metar_trigger": false,
      "taf_trigger": false,
      "metar": "METAR EDSB 101350Z 19013KT 9999 -RA OVC034 10/07 Q0996",
      "taf": "TAF EDSB 101100Z 1012/1112 VRB03KT 9999 OVC035"
    },
    {
      "icao": "EETN",
      "alert": "OK",
      "vis_m": 9000,
      "fzfg": false,
      "metar_trigger": false,
      "taf_trigger": false,
      "metar": "METAR EETN 101350Z 19007KT 9000 -SN SCT009 OVC024 M07/M08 Q1004 TEMPO BKN007",
      "taf": "TAF EETN 101130Z 1012/1112 19008KT 9999 SCT008 BKN020"
    },
    {
      "icao": "EFTU",
      "alert": "OK",
      "vis_m": 9999,
      "fzfg": false,
      "metar_trigger": false,
      "taf_trigger": false,
      "metar": "METAR EFTU 101350Z AUTO 24005KT 200V280 9999 OVC016 M06/M10 Q1003",
      "taf": "TAF EFTU 101135Z 1012/1112 22004KT 9999 BKN013"
    },
    {
      "icao": "EGBB",
      "alert": "OK",
      "vis_m": 6000,
      "fzfg": false,
      "metar_trigger": false,
      "taf_trigger": false,
      "metar": "METAR EGBB 101350Z 14006KT 6000 -RA SCT006 BKN010 09/08 Q0985",
      "taf": ""
    },
    {
      "icao": "EGGP",
      "alert": "OK",
      "vis_m": 9999,
      "fzfg": false,
      "metar_trigger": false,
      "taf_trigger": false,
      "metar": "METAR EGGP 101350Z 11010KT 9999 SCT011 OVC014 08/06 Q0984",
      "taf": "TAF EGGP 101056Z 1012/1112 12010KT 9999 BKN010"
    },
    {
      "icao": "EGGW",
      "alert": "OK",
      "vis_m": 9999,
      "fzfg": false,
      "metar_trigger": false,
      "taf_trigger": false,
      "metar": "METAR EGGW 101350Z AUTO 20005KT 160V230 9999 SCT006 BKN010 09/09 Q0985",
      "taf": "TAF EGGW 101101Z 1012/1112 17005KT 3000 BR BKN004"
    },
    {
      "icao": "EGKK",
      "alert": "OK",
      "vis_m": 6000,
      "fzfg": false,
      "metar_trigger": false,
      "taf_trigger": false,
      "metar": "METAR EGKK 101350Z 20008KT 140V230 6000 -RADZ SCT006 BKN013 10/09 Q0986",
      "taf": ""
    },
    {
      "icao": "EGNM",
      "alert": "OK",
      "vis_m": 100,
      "fzfg": false,
      "metar_trigger": false,
      "taf_trigger": false,
      "metar": "METAR EGNM 101350Z 09008KT 0100 R14/0325N -RA FG VV/// 05/05 Q0986",
      "taf": "TAF EGNM 101056Z 1012/1112 10010KT 0300 -RADZ FG VV///"
    },
    {
      "icao": "EGPD",
      "alert": "OK",
      "vis_m": 9999,
      "fzfg": false,
      "metar_trigger": false,
      "taf_trigger": false,
      "metar": "METAR EGPD 101350Z AUTO 12011KT 9999 SCT014 BKN022 OVC026 05/03 Q0992 TEMPO BKN014",
      "taf": "TAF EGPD 101054Z 1012/1112 12012KT 9999 SCT015 BKN030"
    },
    {
      "icao": "EGPF",
      "alert": "OK",
      "vis_m": 9999,
      "fzfg": false,
      "metar_trigger": false,
      "taf_trigger": false,
      "metar": "METAR EGPF 101350Z AUTO 07013KT 9999 BKN020 OVC039 07/05 Q0987",
      "taf": "TAF EGPF 101103Z 1012/1112 06011KT 9999 SCT020"
    },
    {
      "icao": "EHBK",
      "alert": "OK",
      "vis_m": 9999,
      "fzfg": false,
      "metar_trigger": false,
      "taf_trigger": false,
      "metar": "METAR EHBK 101355Z AUTO 21010KT 180V240 9999 FEW021 BKN024 OVC028 10/07 Q0991 NOSIG",
      "taf": "TAF EHBK 101121Z 1012/1118 19010KT 9999 BKN016"
    },
    {
      "icao": "EHEH",
      "alert": "OK",
      "vis_m": 9999,
      "fzfg": false,
      "metar_trigger": false,
      "taf_trigger": false,
      "metar": "METAR EHEH 101355Z AUTO 15005KT 090V220 9999 FEW013 OVC019 09/08 Q0990 WHT TEMPO 3000 RADZ BKN005",
      "taf": "TAF EHEH 101125Z 1012/1118 14006KT 5000 BR BKN006 OVC012"
    },
    {
      "icao": "EKBI",
      "alert": "OK",
      "vis_m": 3300,
      "fzfg": false,
      "metar_trigger": false,
      "taf_trigger": false,
      "metar": "METAR EKBI 101350Z AUTO 08008KT 3300 BR OVC002/// M00/M00 Q0997",
      "taf": "TAF EKBI 101127Z 1012/1112 09010KT 2500 BR BKN003"
    },
    {
      "icao": "EKCH",
      "alert": "OK",
      "vis_m": 5000,
      "fzfg": false,
      "metar_trigger": false,
      "taf_trigger": false,
      "metar": "METAR EKCH 101350Z 12010KT 5000 OVC005 M00/M01 Q1001 TEMPO 4000 BR",
      "taf": "TAF EKCH 101127Z 1012/1112 12008KT 3000 BR BKN006"
    },
    {
      "icao": "ENAL",
      "alert": "OK",
      "vis_m": 9999,
      "fzfg": false,
      "metar_trigger": false,
      "taf_trigger": false,
      "metar": "METAR ENAL 101350Z VRB03G14KT 9999 VCSH BKN045 04/M03 Q1001",
      "taf": "TAF ENAL 101100Z 1012/1021 15005KT 9999 FEW020 BKN040"
    },
    {
      "icao": "ENBR",
      "alert": "OK",
      "vis_m": 9999,
      "fzfg": false,
      "metar_trigger": false,
      "taf_trigger": false,
      "metar": "METAR ENBR 101350Z VRB01KT CAVOK 02/M06 Q1000 NOSIG RMK WIND 1200FT 04003KT",
      "taf": "TAF ENBR 101100Z 1012/1112 VRB03KT CAVOK"
    },
    {
      "icao": "ENGM",
      "alert": "OK",
      "vis_m": 9999,
      "fzfg": false,
      "metar_trigger": false,
      "taf_trigger": false,
      "metar": "METAR ENGM 101350Z VRB02KT 9999 FEW004 OVC008 M10/M12 Q1002 NOSIG",
      "taf": "TAF ENGM 101100Z 1012/1112 VRB03KT 9999 BKN004"
    },
    {
      "icao": "ENHD",
      "alert": "OK",
      "vis_m": 9999,
      "fzfg": false,
      "metar_trigger": false,
      "taf_trigger": false,
      "metar": "METAR ENHD 101350Z 12005KT 9999 FEW039 03/M06 Q1000",
      "taf": "TAF ENHD 101100Z 1012/1021 09008KT 9999 SCT040"
    },
    {
      "icao": "ENTC",
      "alert": "OK",
      "vis_m": 9999,
      "fzfg": false,
      "metar_trigger": false,
      "taf_trigger": false,
      "metar": "METAR ENTC 101350Z 21008KT 9999 FEW010 SCT040 M06/M08 Q1004 NOSIG RMK WIND 2600FT 02010KT",
      "taf": "TAF ENTC 101100Z 1012/1112 20008KT 9999 FEW020 SCT030"
    },
    {
      "icao": "ENTO",
      "alert": "OK",
      "vis_m": 9999,
      "fzfg": false,
      "metar_trigger": false,
      "taf_trigger": false,
      "metar": "METAR ENTO 101350Z 01006KT CAVOK M09/M13 Q1002 NOSIG",
      "taf": "TAF ENTO 101100Z 1012/1112 02005KT 9999 SCT010 SCT025"
    },
    {
      "icao": "ENVA",
      "alert": "OK",
      "vis_m": 9999,
      "fzfg": false,
      "metar_trigger": false,
      "taf_trigger": false,
      "metar": "METAR ENVA 101350Z 07002KT 9999 VCSH FEW004 BKN049 M02/M02 Q1002 NOSIG RMK WIND 670FT 31004KT",
      "taf": ""
    },
    {
      "icao": "ENZV",
      "alert": "OK",
      "vis_m": 9999,
      "fzfg": false,
      "metar_trigger": false,
      "taf_trigger": false,
      "metar": "METAR ENZV 101350Z 13009KT CAVOK 02/M09 Q1000 NOSIG",
      "taf": "TAF ENZV 101100Z 1012/1112 10008KT CAVOK"
    },
    {
      "icao": "EPGD",
      "alert": "OK",
      "vis_m": 4000,
      "fzfg": false,
      "metar_trigger": false,
      "taf_trigger": false,
      "metar": "METAR EPGD 101400Z 16006KT 4000 BR BKN007 M05/M05 Q1002",
      "taf": "TAF EPGD 101130Z 1012/1112 16004KT 6000 OVC006"
    },
    {
      "icao": "EPKK",
      "alert": "OK",
      "vis_m": 9999,
      "fzfg": false,
      "metar_trigger": false,
      "taf_trigger": false,
      "metar": "METAR EPKK 101400Z 04005KT 350V050 9999 BKN046 06/00 Q1002",
      "taf": "TAF EPKK 101130Z 1012/1112 06006KT 7000 SCT040"
    },
    {
      "icao": "EPKT",
      "alert": "OK",
      "vis_m": 9999,
      "fzfg": false,
      "metar_trigger": false,
      "taf_trigger": false,
      "metar": "METAR EPKT 101400Z 16005KT 9999 BKN029 05/02 Q1001",
      "taf": "TAF EPKT 101130Z 1012/1112 20008KT 8000 BKN030"
    },
    {
      "icao": "EPLB",
      "alert": "OK",
      "vis_m": 9999,
      "fzfg": false,
      "metar_trigger": false,
      "taf_trigger": false,
      "metar": "METAR EPLB 101400Z 13004KT 9999 -PL FEW027 SCT045 M00/M03 Q1005",
      "taf": ""
    },
    {
      "icao": "EPMO",
      "alert": "OK",
      "vis_m": 6000,
      "fzfg": false,
      "metar_trigger": false,
      "taf_trigger": false,
      "metar": "METAR EPMO 101400Z 10007KT 080V140 6000 OVC007 M03/M04 Q1003",
      "taf": "TAF EPMO 101130Z 1012/1112 12008KT 9999 BKN020"
    },
    {
      "icao": "EPPO",
      "alert": "OK",
      "vis_m": 4700,
      "fzfg": false,
      "metar_trigger": false,
      "taf_trigger": false,
      "metar": "METAR EPPO 101400Z 10006KT 4700 BR SCT008 OVC043 01/M01 Q1001",
      "taf": "TAF EPPO 101130Z 1012/1112 14008KT 6000 OVC040"
    },
    {
      "icao": "EPRA",
      "alert": "OK",
      "vis_m": 9999,
      "fzfg": false,
      "metar_trigger": false,
      "taf_trigger": false,
      "metar": "METAR EPRA 101400Z 14005KT 9999 BKN039 M00/M02 Q1003",
      "taf": "TAF EPRA 101130Z 1012/1021 14006KT 9999 BKN030"
    },
    {
      "icao": "EPRZ",
      "alert": "OK",
      "vis_m": 9999,
      "fzfg": false,
      "metar_trigger": false,
      "taf_trigger": false,
      "metar": "METAR EPRZ 101400Z 18011KT CAVOK 01/M02 Q1004",
      "taf": "TAF EPRZ 101130Z 1012/1112 08007KT CAVOK"
    },
    {
      "icao": "EPSC",
      "alert": "OK",
      "vis_m": 7000,
      "fzfg": false,
      "metar_trigger": false,
      "taf_trigger": false,
      "metar": "METAR EPSC 101400Z 12005KT 7000 OVC027 00/M02 Q1000",
      "taf": "TAF EPSC 101130Z 1012/1112 13008KT 8000 BKN030"
    },
    {
      "icao": "EPSY",
      "alert": "OK",
      "vis_m": 1800,
      "fzfg": false,
      "metar_trigger": false,
      "taf_trigger": false,
      "metar": "METAR EPSY 101400Z 14005KT 1800 BR OVC002 M06/M07 Q1003",
      "taf": ""
    },
    {
      "icao": "EPWA",
      "alert": "OK",
      "vis_m": 7000,
      "fzfg": false,
      "metar_trigger": false,
      "taf_trigger": false,
      "metar": "METAR EPWA 101400Z 13010KT 7000 -FZRA FEW009 BKN020 M03/M04 Q1003 TEMPO FZRA BKN009",
      "taf": "TAF EPWA 101130Z 1012/1112 13008KT 9999 BKN020"
    },
    {
      "icao": "EPWR",
      "alert": "OK",
      "vis_m": 9999,
      "fzfg": false,
      "metar_trigger": false,
      "taf_trigger": false,
      "metar": "METAR EPWR 101400Z 16009KT 9999 BKN029 06/02 Q1000",
      "taf": "TAF EPWR 101130Z 1012/1112 12007KT 6000 BKN033"
    },
    {
      "icao": "ESGG",
      "alert": "OK",
      "vis_m": 9000,
      "fzfg": false,
      "metar_trigger": false,
      "taf_trigger": false,
      "metar": "METAR ESGG 101350Z 09005KT 9000 OVC006 M03/M05 Q1000",
      "taf": "TAF ESGG 101130Z 1012/1112 10005KT 9999 SCT008 BKN018"
    },
    {
      "icao": "ESKN",
      "alert": "OK",
      "vis_m": 9999,
      "fzfg": false,
      "metar_trigger": false,
      "taf_trigger": false,
      "metar": "METAR ESKN 101350Z 29006KT 9999 FEW020 M06/M10 Q1002",
      "taf": "TAF ESKN 101130Z 1012/1112 26005KT 9999 BKN016"
    },
    {
      "icao": "ESMS",
      "alert": "OK",
      "vis_m": 2900,
      "fzfg": false,
      "metar_trigger": false,
      "taf_trigger": false,
      "metar": "METAR ESMS 101350Z 11007KT 2900 BR OVC003 M01/M01 Q1000",
      "taf": "TAF ESMS 101150Z 1012/1112 15008KT 5000 BR BKN006"
    },
    {
      "icao": "ESSA",
      "alert": "OK",
      "vis_m": 9999,
      "fzfg": false,
      "metar_trigger": false,
      "taf_trigger": false,
      "metar": "METAR ESSA 101350Z 25006KT 220V280 9999 -SHSN BKN012 M09/M12 Q1002 TEMPO BKN010",
      "taf": "TAF ESSA 101130Z 1012/1112 24005KT 9999 OVC011"
    },
    {
      "icao": "EYKA",
      "alert": "OK",
      "vis_m": 7000,
      "fzfg": false,
      "metar_trigger": false,
      "taf_trigger": false,
      "metar": "METAR EYKA 101350Z 22004KT 190V280 7000 -SN OVC007 M11/M12 Q1005",
      "taf": "TAF EYKA 101118Z 1012/1112 VRB03KT 5000 BR OVC005"
    },
    {
      "icao": "EYPA",
      "alert": "OK",
      "vis_m": 8000,
      "fzfg": false,
      "metar_trigger": false,
      "taf_trigger": false,
      "metar": "METAR EYPA 101350Z 15005KT 8000 OVC006 M10/M12 Q1004",
      "taf": "TAF EYPA 101117Z 1012/1112 15008KT 6000 OVC005"
    },
    {
      "icao": "EYVI",
      "alert": "OK",
      "vis_m": 9999,
      "fzfg": false,
      "metar_trigger": false,
      "taf_trigger": false,
      "metar": "METAR EYVI 101350Z 20009KT 9999 OVC012 M09/M12 Q1004 TEMPO OVC010",
      "taf": "TAF EYVI 101125Z 1012/1112 19008KT 5000 BR BKN010"
    },
    {
      "icao": "GCFV",
      "alert": "OK",
      "vis_m": 9999,
      "fzfg": false,
      "metar_trigger": false,
      "taf_trigger": false,
      "metar": "METAR GCFV 101330Z 06012KT 9999 FEW015 20/17 Q1023",
      "taf": "TAF GCFV 100800Z 1009/1109 04014KT 9999 SCT020 TX23/1014Z TN16/1106Z"
    },
    {
      "icao": "GCLP",
      "alert": "OK",
      "vis_m": 9999,
      "fzfg": false,
      "metar_trigger": false,
      "taf_trigger": false,
      "metar": "METAR GCLP 101330Z 03023KT 9999 SCT030 22/16 Q1023 NOSIG",
      "taf": "TAF GCLP 100800Z 1009/1109 02019KT 9999 FEW025 TX22/1014Z TN17/1106Z"
    },
    {
      "icao": "GCTS",
      "alert": "OK",
      "vis_m": 9999,
      "fzfg": false,
      "metar_trigger": false,
      "taf_trigger": false,
      "metar": "METAR GCTS 101330Z 10014KT 070V130 9999 FEW025 23/15 Q1024 NOSIG",
      "taf": "TAF GCTS 100800Z 1009/1109 06004KT 9999 FEW035 TX22/1014Z TN17/1106Z"
    },
    {
      "icao": "GMAD",
      "alert": "OK",
      "vis_m": 8000,
      "fzfg": false,
      "metar_trigger": false,
      "taf_trigger": false,
      "metar": "METAR GMAD 101400Z 26009KT 8000 SCT016 21/19 Q1020 NOSIG",
      "taf": "TAF GMAD 101100Z 1012/1118 28011KT 8000 BKN016"
    },
    {
      "icao": "GMMN",
      "alert": "OK",
      "vis_m": 5000,
      "fzfg": false,
      "metar_trigger": false,
      "taf_trigger": false,
      "metar": "METAR GMMN 101400Z 31008KT 280V350 5000 SCT010 20/17 Q1023 NOSIG",
      "taf": "TAF GMMN 101100Z 1012/1118 30007KT 9999 SCT016"
    },
    {
      "icao": "GMMX",
      "alert": "OK",
      "vis_m": 9999,
      "fzfg": false,
      "metar_trigger": false,
      "taf_trigger": false,
      "metar": "METAR GMMX 101400Z 03008KT 340V070 CAVOK 24/14 Q1022 NOSIG",
      "taf": "TAF GMMX 101100Z 1012/1118 24008KT 8000 SCT026"
    },
    {
      "icao": "HEGN",
      "alert": "OK",
      "vis_m": 9999,
      "fzfg": false,
      "metar_trigger": false,
      "taf_trigger": false,
      "metar": "METAR HEGN 101300Z 12006KT CAVOK 25/20 Q1011 NOSIG",
      "taf": "TAF HEGN 101100Z 1012/1118 34008KT 6000 SCT025"
    },
    {
      "icao": "HEMA",
      "alert": "OK",
      "vis_m": 9999,
      "fzfg": false,
      "metar_trigger": false,
      "taf_trigger": false,
      "metar": "METAR HEMA 101300Z 12011KT CAVOK 27/15 Q1010 NOSIG",
      "taf": "TAF HEMA 101100Z 1012/1118 09012KT CAVOK"
    },
    {
      "icao": "HESH",
      "alert": "OK",
      "vis_m": 9999,
      "fzfg": false,
      "metar_trigger": false,
      "taf_trigger": false,
      "metar": "METAR HESH 101300Z 15008KT 9999 SCT020 26/19 Q1012 NOSIG",
      "taf": "TAF HESH 101100Z 1012/1118 02008KT CAVOK"
    },
    {
      "icao": "HESX",
      "alert": "OK",
      "vis_m": 9999,
      "fzfg": false,
      "metar_trigger": false,
      "taf_trigger": false,
      "metar": "METAR HESX 101300Z 25007KT CAVOK 25/03 Q1011 NOSIG",
      "taf": "TAF HESX 101100Z 1012/1118 25008KT CAVOK"
    },
    {
      "icao": "LATI",
      "alert": "OK",
      "vis_m": 9999,
      "fzfg": false,
      "metar_trigger": false,
      "taf_trigger": false,
      "metar": "METAR LATI 101350Z 24010KT 9999 SCT046 BKN066 14/06 Q1007 NOSIG",
      "taf": "TAF LATI 101100Z 1012/1112 VRB05KT 9999 SCT040 BKN080 TX16/1012Z TN09/1105Z"
    },
    {
      "icao": "LBPD",
      "alert": "OK",
      "vis_m": 9999,
      "fzfg": false,
      "metar_trigger": false,
      "taf_trigger": false,
      "metar": "METAR LBPD 101400Z AUTO 15005KT 100V180 9999 BKN060/// 02/00 Q1013 NOSIG",
      "taf": "TAF LBPD 101100Z 1012/1112 11010KT 9999 BKN020 OVC035"
    },
    {
      "icao": "LBSF",
      "alert": "OK",
      "vis_m": 9999,
      "fzfg": false,
      "metar_trigger": false,
      "taf_trigger": false,
      "metar": "METAR LBSF 101400Z 11015KT 9999 SCT027 BKN080 01/M03 Q1010 NOSIG",
      "taf": "TAF LBSF 101100Z 1012/1112 11014KT 9999 BKN015 OVC025"
    },
    {
      "icao": "LBWN",
      "alert": "OK",
      "vis_m": 9999,
      "fzfg": false,
      "metar_trigger": false,
      "taf_trigger": false,
      "metar": "METAR LBWN 101400Z 05008KT 030V090 9999 OVC028 04/01 Q1013 NOSIG",
      "taf": "TAF LBWN 101100Z 1012/1112 04012KT 9999 SCT015 OVC030"
    },
    {
      "icao": "LCLK",
      "alert": "OK",
      "vis_m": 9999,
      "fzfg": false,
      "metar_trigger": false,
      "taf_trigger": false,
      "metar": "METAR LCLK 101400Z 23013KT 9999 SCT025 BKN045 17/14 Q1008 NOSIG",
      "taf": "TAF LCLK 101130Z 1012/1112 22020KT 9999 FEW025 SCT040"
    },
    {
      "icao": "LCPH",
      "alert": "OK",
      "vis_m": 9999,
      "fzfg": false,
      "metar_trigger": false,
      "taf_trigger": false,
      "metar": "METAR LCPH 101400Z 28012KT 250V320 9999 FEW025 18/12 Q1009 NOSIG",
      "taf": "TAF LCPH 101130Z 1012/1112 26016KT 9999 FEW025 SCT040"
    },
    {
      "icao": "LEAL",
      "alert": "OK",
      "vis_m": 9999,
      "fzfg": false,
      "metar_trigger": false,
      "taf_trigger": false,
      "metar": "METAR LEAL 101330Z 24013KT 9999 FEW050 BKN068 24/12 Q1010 NOSIG",
      "taf": "TAF LEAL 101100Z 1012/1112 25012KT 9999 SCT045 TX23/1012Z TN15/1106Z"
    },
    {
      "icao": "LEBB",
      "alert": "OK",
      "vis_m": 3000,
      "fzfg": false,
      "metar_trigger": false,
      "taf_trigger": false,
      "metar": "SPECI LEBB 101343Z 25004KT 180V300 3000 RA FEW013 SCT037 BKN056 16/15 Q1002 NOSIG",
      "taf": ""
    },
    {
      "icao": "LEBL",
      "alert": "OK",
      "vis_m": 9999,
      "fzfg": false,
      "metar_trigger": false,
      "taf_trigger": false,
      "metar": "METAR LEBL 101330Z 25011KT 9999 FEW043 BKN050 18/13 Q1004 NOSIG",
      "taf": "TAF LEBL 101100Z 1012/1112 22012KT 9999 FEW020 TX20/1012Z TN14/1106Z"
    },
    {
      "icao": "LECH",
      "alert": "OK",
      "vis_m": 9999,
      "fzfg": false,
      "metar_trigger": false,
      "taf_trigger": false,
      "metar": "METAR LECH 101330Z AUTO 24007KT 210V270 CAVOK 22/09 Q1006",
      "taf": ""
    },
    {
      "icao": "LEMD",
      "alert": "OK",
      "vis_m": 9999,
      "fzfg": false,
      "metar_trigger": false,
      "taf_trigger": false,
      "metar": "METAR LEMD 101330Z 21008KT 9999 SCT012 BKN070 14/14 Q1012 RERA NOSIG",
      "taf": "TAF LEMD 101100Z 1012/1118 24015KT 9999 SCT015 TX15/1015Z TN10/1107Z"
    },
    {
      "icao": "LEMG",
      "alert": "OK",
      "vis_m": 9999,
      "fzfg": false,
      "metar_trigger": false,
      "taf_trigger": false,
      "metar": "METAR LEMG 101330Z 16003KT 120V200 9999 FEW025 SCT045 BKN055 21/16 Q1017 NOSIG",
      "taf": "TAF LEMG 101100Z 1012/1112 28007KT 9999 SCT020 TX22/1014Z TN16/1107Z"
    },
    {
      "icao": "LEVC",
      "alert": "OK",
      "vis_m": 9999,
      "fzfg": false,
      "metar_trigger": false,
      "taf_trigger": false,
      "metar": "METAR LEVC 101330Z 27012KT 9999 SCT050 22/12 Q1008 NOSIG",
      "taf": "TAF LEVC 101100Z 1012/1112 26015KT 9999 FEW045 TX24/1014Z TN17/1106Z"
    },
    {
      "icao": "LEXJ",
      "alert": "OK",
      "vis_m": 9999,
      "fzfg": false,
      "metar_trigger": false,
      "taf_trigger": false,
      "metar": "METAR LEXJ 101330Z 22007KT 170V250 9999 -RA FEW030 BKN052 16/14 Q1001",
      "taf": ""
    },
    {
      "icao": "LEZG",
      "alert": "OK",
      "vis_m": 9999,
      "fzfg": false,
      "metar_trigger": false,
      "taf_trigger": false,
      "metar": "METAR LEZG 101330Z 25016KT 9999 FEW040 19/12 Q1004 NOSIG",
      "taf": "TAF LEZG 101100Z 1012/1112 25018KT 9999 SCT070 TX20/1012Z TN13/1108Z"
    },
    {
      "icao": "LEZL",
      "alert": "OK",
      "vis_m": 9999,
      "fzfg": false,
      "metar_trigger": false,
      "taf_trigger": false,
      "metar": "METAR LEZL 101330Z 24010KT 9999 BKN012 BKN020 18/17 Q1018 NOSIG",
      "taf": ""
    },
    {
      "icao": "LFBD",
      "alert": "OK",
      "vis_m": 9999,
      "fzfg": false,
      "metar_trigger": false,
      "taf_trigger": false,
      "metar": "METAR LFBD 101400Z AUTO 27018KT 9999 OVC007 14/14 Q0998 TEMPO 23015G25KT 2500 RA BKN005 BKN020TCU",
      "taf": "TAF LFBD 101100Z 1012/1118 23010KT 7000 BKN015 TX14/1014Z TN11/1106Z"
    },
    {
      "icao": "LFLL",
      "alert": "OK",
      "vis_m": 9999,
      "fzfg": false,
      "metar_trigger": false,
      "taf_trigger": false,
      "metar": "METAR LFLL 101400Z 19022KT 9999 -RA FEW018 BKN076 10/08 Q0999 TEMPO 18025G35KT 4000 RA",
      "taf": "TAF LFLL 101100Z 1012/1118 18020KT CAVOK"
    },
    {
      "icao": "LFLS",
      "alert": "OK",
      "vis_m": 9999,
      "fzfg": false,
      "metar_trigger": false,
      "taf_trigger": false,
      "metar": "METAR LFLS 101400Z AUTO 17012KT 150V210 9999 -RA FEW022/// OVC052/// ///TCU 09/06 Q1000 TEMPO 22018G30KT 4000 RA BKN014",
      "taf": "TAF LFLS 100800Z 1009/1109 22012KT 9999 BKN040"
    },
    {
      "icao": "LFMN",
      "alert": "OK",
      "vis_m": 9999,
      "fzfg": false,
      "metar_trigger": false,
      "taf_trigger": false,
      "metar": "METAR LFMN 101400Z 25008KT 9999 SCT023 BKN033 11/10 Q1004 NOSIG",
      "taf": ""
    },
    {
      "icao": "LFOB",
      "alert": "OK",
      "vis_m": 9999,
      "fzfg": false,
      "metar_trigger": false,
      "taf_trigger": false,
      "metar": "METAR LFOB 101400Z AUTO 19008KT 160V220 9999 OVC013 11/09 Q0989 NOSIG",
      "taf": "TAF LFOB 101100Z 1012/1112 20012KT 9999 BKN020 OVC030"
    },
    {
      "icao": "LFPO",
      "alert": "OK",
      "vis_m": 9999,
      "fzfg": false,
      "metar_trigger": false,
      "taf_trigger": false,
      "metar": "METAR LFPO 101400Z 19009KT 160V220 9999 BKN015 OVC020 12/09 Q0991 TEMPO BKN010",
      "taf": "TAF LFPO 101100Z 1012/1118 21010KT 9999 BKN012"
    },
    {
      "icao": "LFSB",
      "alert": "OK",
      "vis_m": 9999,
      "fzfg": false,
      "metar_trigger": false,
      "taf_trigger": false,
      "metar": "METAR LFSB 101400Z AUTO 12006KT 9999 OVC040 09/05 Q0997 TEMPO 4500 -SHRA FEW040TCU",
      "taf": "TAF LFSB 101100Z 1012/1112 09005KT 9999 OVC035 OVC045"
    },
    {
      "icao": "LGAV",
      "alert": "OK",
      "vis_m": 9999,
      "fzfg": false,
      "metar_trigger": false,
      "taf_trigger": false,
      "metar": "METAR LGAV 101320Z 01013KT 9999 FEW020 SCT040 12/07 Q1009 NOSIG",
      "taf": "TAF LGAV 101100Z 1012/1112 03012KT 9999 SCT025 SCT070"
    },
    {
      "icao": "LGTS",
      "alert": "OK",
      "vis_m": 9999,
      "fzfg": false,
      "metar_trigger": false,
      "taf_trigger": false,
      "metar": "METAR LGTS 101350Z 27004KT 9999 FEW010 SCT030 10/06 Q1011 NOSIG",
      "taf": "TAF LGTS 101100Z 1012/1112 VRB03KT 9999 FEW010 BKN025"
    },
    {
      "icao": "LHBP",
      "alert": "OK",
      "vis_m": 9999,
      "fzfg": false,
      "metar_trigger": false,
      "taf_trigger": false,
      "metar": "METAR LHBP 101400Z 15010KT 9999 OVC020 03/M01 Q1007 NOSIG",
      "taf": "TAF LHBP 101115Z 1012/1112 15012KT 9999 BKN019"
    },
    {
      "icao": "LHDC",
      "alert": "OK",
      "vis_m": 9999,
      "fzfg": false,
      "metar_trigger": false,
      "taf_trigger": false,
      "metar": "METAR LHDC 101345Z AUTO 21005KT 180V250 9999 BKN012 BKN029 BKN033 04/02 Q1009 NOSIG",
      "taf": "TAF LHDC 101115Z 1012/1021 21006KT 9999 BKN025 OVC040"
    },
    {
      "icao": "LIBD",
      "alert": "OK",
      "vis_m": 9999,
      "fzfg": false,
      "metar_trigger": false,
      "taf_trigger": false,
      "metar": "METAR LIBD 101350Z VRB02KT CAVOK 14/07 Q1005",
      "taf": "TAF LIBD 101100Z 1012/1112 VRB05KT 9999 SCT040"
    },
    {
      "icao": "LIBG",
      "alert": "OK",
      "vis_m": 9999,
      "fzfg": false,
      "metar_trigger": false,
      "taf_trigger": false,
      "metar": "METAR LIBG 101250Z 23007KT 190V280 CAVOK 16/08 Q1006",
      "taf": "TAF LIBG 101100Z 1012/1021 18010KT 9999 FEW040"
    },
    {
      "icao": "LIBP",
      "alert": "OK",
      "vis_m": 9999,
      "fzfg": false,
      "metar_trigger": false,
      "taf_trigger": false,
      "metar": "METAR LIBP 101350Z AUTO 04007KT 9999 FEW074/// BKN096/// 12/09 Q1005",
      "taf": "TAF LIBP 101100Z 1012/1112 VRB05KT 9999 BKN020"
    },
    {
      "icao": "LIBR",
      "alert": "OK",
      "vis_m": 9999,
      "fzfg": false,
      "metar_trigger": false,
      "taf_trigger": false,
      "metar": "METAR LIBR 101350Z 24009KT 9999 SCT040 16/07 Q1006",
      "taf": "TAF LIBR 101100Z 1012/1112 VRB05KT 9999 SCT020"
    },
    {
      "icao": "LICA",
      "alert": "OK",
      "vis_m": 9999,
      "fzfg": false,
      "metar_trigger": false,
      "taf_trigger": false,
      "metar": "METAR LICA 101350Z AUTO 28005KT 9999 BKN018/// BKN046/// BKN071/// 14/11 Q1008",
      "taf": "TAF LICA 101100Z 1012/1112 26012KT 9999 BKN040"
    },
    {
      "icao": "LICC",
      "alert": "OK",
      "vis_m": 9999,
      "fzfg": false,
      "metar_trigger": false,
      "taf_trigger": false,
      "metar": "METAR LICC 101350Z 26013KT 9999 SCT040 17/13 Q1008",
      "taf": "TAF LICC 101100Z 1012/1112 26013KT 9999 SCT030"
    },
    {
      "icao": "LICJ",
      "alert": "OK",
      "vis_m": 9999,
      "fzfg": false,
      "metar_trigger": false,
      "taf_trigger": false,
      "metar": "METAR LICJ 101350Z 22012KT 9999 -RA BKN025 15/10 Q1008",
      "taf": "TAF LICJ 101100Z 1012/1112 21015KT 9999 SCT025"
    },
    {
      "icao": "LIMC",
      "alert": "OK",
      "vis_m": 8000,
      "fzfg": false,
      "metar_trigger": false,
      "taf_trigger": false,
      "metar": "METAR LIMC 101350Z 34004KT 300V360 8000 BKN015 09/07 Q1004 NOSIG",
      "taf": "TAF LIMC 101100Z 1012/1118 VRB04KT 7000 SCT010 BKN020"
    },
    {
      "icao": "LIME",
      "alert": "OK",
      "vis_m": 9999,
      "fzfg": false,
      "metar_trigger": false,
      "taf_trigger": false,
      "metar": "METAR LIME 101350Z VRB03KT 9999 SCT020 SCT070 10/05 Q1004 NOSIG",
      "taf": "TAF LIME 101100Z 1012/1112 VRB04KT 8000 BKN025"
    },
    {
      "icao": "LIMF",
      "alert": "OK",
      "vis_m": 6000,
      "fzfg": false,
      "metar_trigger": false,
      "taf_trigger": false,
      "metar": "METAR LIMF 101350Z VRB01KT 6000 FEW015 SCT070 10/06 Q1004",
      "taf": "TAF LIMF 101100Z 1012/1112 VRB04KT 7000 BKN020"
    },
    {
      "icao": "LIMJ",
      "alert": "OK",
      "vis_m": 9999,
      "fzfg": false,
      "metar_trigger": false,
      "taf_trigger": false,
      "metar": "METAR LIMJ 101350Z 21011KT 9999 -RA BKN018 BKN050 12/10 Q1004",
      "taf": "TAF LIMJ 101100Z 1012/1112 13007KT 9999 BKN014"
    },
    {
      "icao": "LIPE",
      "alert": "OK",
      "vis_m": 6000,
      "fzfg": false,
      "metar_trigger": false,
      "taf_trigger": false,
      "metar": "METAR LIPE 101350Z 06004KT 010V080 6000 -DZ FEW030 BKN050 11/08 Q1004",
      "taf": "TAF LIPE 101100Z 1012/1112 VRB05KT 7000 SCT020"
    },
    {
      "icao": "LIPH",
      "alert": "OK",
      "vis_m": 9999,
      "fzfg": false,
      "metar_trigger": false,
      "taf_trigger": false,
      "metar": "METAR LIPH 101350Z 22004KT 150V270 9999 FEW030 SCT060 12/05 Q1004",
      "taf": "TAF LIPH 101100Z 1012/1112 VRB05KT 7000 BKN040"
    },
    {
      "icao": "LIPQ",
      "alert": "OK",
      "vis_m": 9999,
      "fzfg": false,
      "metar_trigger": false,
      "taf_trigger": false,
      "metar": "METAR LIPQ 101350Z AUTO 20005KT 9999 FEW022/// BKN060/// 12/07 Q1004",
      "taf": "TAF LIPQ 101100Z 1012/1112 VRB05KT 9999 BKN040"
    },
    {
      "icao": "LIPR",
      "alert": "OK",
      "vis_m": 9999,
      "fzfg": false,
      "metar_trigger": false,
      "taf_trigger": false,
      "metar": "METAR LIPR 101350Z 09005KT 050V110 9999 SCT050 10/08 Q1004",
      "taf": "TAF LIPR 101100Z 1012/1112 VRB05KT 6000 SCT010 BKN020"
    },
    {
      "icao": "LIPX",
      "alert": "OK",
      "vis_m": 9999,
      "fzfg": false,
      "metar_trigger": false,
      "taf_trigger": false,
      "metar": "METAR LIPX 101350Z 19003KT 110V250 9999 FEW018 BKN080 11/07 Q1004",
      "taf": "TAF LIPX 101100Z 1012/1112 VRB04KT 8000 BKN050"
    },
    {
      "icao": "LIPY",
      "alert": "OK",
      "vis_m": 9999,
      "fzfg": false,
      "metar_trigger": false,
      "taf_trigger": false,
      "metar": "METAR LIPY 101350Z AUTO 05007KT 9999 NCD 13/09 Q1004",
      "taf": "TAF LIPY 101100Z 1012/1112 VRB05KT 7000 FEW020 SCT040"
    },
    {
      "icao": "LIPZ",
      "alert": "OK",
      "vis_m": 9999,
      "fzfg": false,
      "metar_trigger": false,
      "taf_trigger": false,
      "metar": "METAR LIPZ 101350Z 17004KT 130V210 9999 FEW040 11/06 Q1004 NOSIG",
      "taf": "TAF LIPZ 101100Z 1012/1118 VRB05KT 9999 BKN050"
    },
    {
      "icao": "LIRF",
      "alert": "OK",
      "vis_m": 9999,
      "fzfg": false,
      "metar_trigger": false,
      "taf_trigger": false,
      "metar": "METAR LIRF 101350Z 23006KT 9999 FEW020 14/09 Q1006 NOSIG",
      "taf": "TAF LIRF 101100Z 1012/1118 22010KT 9999 FEW050"
    },
    {
      "icao": "LIRN",
      "alert": "OK",
      "vis_m": 5000,
      "fzfg": false,
      "metar_trigger": false,
      "taf_trigger": false,
      "metar": "METAR LIRN 101350Z 27004KT 5000 RA FEW010 BKN030 12/10 Q1006 NOSIG",
      "taf": "TAF LIRN 101100Z 1012/1112 20010KT 9999 SCT040"
    },
    {
      "icao": "LIRP",
      "alert": "OK",
      "vis_m": 9999,
      "fzfg": false,
      "metar_trigger": false,
      "taf_trigger": false,
      "metar": "METAR LIRP 101345Z 30008KT 9999 BKN060 14/09 Q1005 NOSIG",
      "taf": "TAF LIRP 101100Z 1012/1112 VRB03KT 9999 SCT015 BKN025"
    },
    {
      "icao": "LIRZ",
      "alert": "OK",
      "vis_m": 9999,
      "fzfg": false,
      "metar_trigger": false,
      "taf_trigger": false,
      "metar": "METAR LIRZ 101350Z AUTO VRB02KT 9999 FEW029/// 14/07 Q1005",
      "taf": "TAF LIRZ 101100Z 1012/1112 VRB05KT 7000 BKN010"
    },
    {
      "icao": "LJLJ",
      "alert": "OK",
      "vis_m": 9999,
      "fzfg": false,
      "metar_trigger": false,
      "taf_trigger": false,
      "metar": "METAR LJLJ 101330Z VRB02KT 9999 FEW007 BKN023 BKN050 08/04 Q1003 NOSIG",
      "taf": "TAF LJLJ 101100Z 1012/1112 VRB02KT 9999 BKN025"
    },
    {
      "icao": "LKMT",
      "alert": "OK",
      "vis_m": 9999,
      "fzfg": false,
      "metar_trigger": false,
      "taf_trigger": false,
      "metar": "METAR LKMT 101400Z 21016KT 9999 FEW029 SCT039 06/01 Q1002 NOSIG",
      "taf": "TAF LKMT 101100Z 1012/1112 21012KT 9999 SCT025"
    },
    {
      "icao": "LKPR",
      "alert": "OK",
      "vis_m": 9999,
      "fzfg": false,
      "metar_trigger": false,
      "taf_trigger": false,
      "metar": "METAR LKPR 101400Z 07003KT 360V140 9999 FEW020 05/M00 Q0999 NOSIG",
      "taf": "TAF LKPR 101100Z 1012/1118 17006KT 9999 OVC020"
    },
    {
      "icao": "LLBG",
      "alert": "OK",
      "vis_m": 9999,
      "fzfg": false,
      "metar_trigger": false,
      "taf_trigger": false,
      "metar": "METAR LLBG 101350Z 25011KT 9999 FEW025 19/12 Q1012 NOSIG",
      "taf": "TAF LLBG 101105Z 1012/1112 25014KT 9999 SCT035"
    },
    {
      "icao": "LMML",
      "alert": "OK",
      "vis_m": 9999,
      "fzfg": false,
      "metar_trigger": false,
      "taf_trigger": false,
      "metar": "METAR LMML 101345Z 23012KT 9999 FEW028 15/10 Q1010 NOSIG",
      "taf": "TAF LMML 101100Z 1012/1112 28013KT 9999 SCT020"
    },
    {
      "icao": "LOWW",
      "alert": "OK",
      "vis_m": 9999,
      "fzfg": false,
      "metar_trigger": false,
      "taf_trigger": false,
      "metar": "METAR LOWW 101350Z 14017KT 9999 FEW011 BKN012 04/01 Q1003 NOSIG",
      "taf": "TAF LOWW 101115Z 1012/1118 13015KT 9999 BKN010 TX07/1114Z TN03/1105Z"
    },
    {
      "icao": "LPFR",
      "alert": "OK",
      "vis_m": 2500,
      "fzfg": false,
      "metar_trigger": false,
      "taf_trigger": false,
      "metar": "METAR LPFR 101330Z 25014KT 2500 -DZ BR BKN002 16/16 Q1020",
      "taf": "TAF LPFR 101100Z 1012/1112 25012KT 8000 SCT004 BKN008"
    },
    {
      "icao": "LPMA",
      "alert": "OK",
      "vis_m": 9999,
      "fzfg": false,
      "metar_trigger": false,
      "taf_trigger": false,
      "metar": "METAR LPMA 101330Z 15005KT 090V230 9999 FEW015 20/14 Q1024",
      "taf": "TAF LPMA 101100Z 1012/1112 VRB05KT 9999 SCT015"
    },
    {
      "icao": "LPPR",
      "alert": "OK",
      "vis_m": 1200,
      "fzfg": false,
      "metar_trigger": false,
      "taf_trigger": false,
      "metar": "METAR LPPR 101330Z 23011KT 1200 R17/1200N -DZ BCFG BKN002 BKN004 15/15 Q1011",
      "taf": "TAF LPPR 101100Z 1012/1112 22010KT 6000 SCT004 BKN008"
    },
    {
      "icao": "LPPS",
      "alert": "OK",
      "vis_m": 9999,
      "fzfg": false,
      "metar_trigger": false,
      "taf_trigger": false,
      "metar": "METAR LPPS 101330Z 26009KT 220V290 9999 FEW010 19/16 Q1024",
      "taf": "TAF LPPS 101100Z 1012/1118 27008KT 9999 SCT012"
    },
    {
      "icao": "LPPT",
      "alert": "OK",
      "vis_m": 2500,
      "fzfg": false,
      "metar_trigger": false,
      "taf_trigger": false,
      "metar": "METAR LPPT 101330Z 24016KT 2500 DZRA BR FEW003 BKN005 16/16 Q1016",
      "taf": "TAF LPPT 101100Z 1012/1118 23013KT 6000 SCT004 BKN008"
    },
    {
      "icao": "LQBK",
      "alert": "OK",
      "vis_m": 9999,
      "fzfg": false,
      "metar_trigger": false,
      "taf_trigger": false,
      "metar": "METAR LQBK 101400Z VRB01KT 9999 FEW045 07/03 Q1005 NOSIG",
      "taf": ""
    },
    {
      "icao": "LQSA",
      "alert": "OK",
      "vis_m": 9999,
      "fzfg": false,
      "metar_trigger": false,
      "taf_trigger": false,
      "metar": "METAR LQSA 101400Z VRB02KT 9999 SCT040 BKN055 11/04 Q1003 NOSIG",
      "taf": "TAF LQSA 101100Z 1012/1112 VRB02KT 9999 SCT035 TX09/1013Z TN03/1105Z"
    },
    {
      "icao": "LQTZ",
      "alert": "OK",
      "vis_m": 9999,
      "fzfg": false,
      "metar_trigger": false,
      "taf_trigger": false,
      "metar": "METAR LQTZ 101400Z VRB02KT 9999 FEW040 BKN060 10/05 Q1004",
      "taf": ""
    },
    {
      "icao": "LRBC",
      "alert": "OK",
      "vis_m": 9999,
      "fzfg": false,
      "metar_trigger": false,
      "taf_trigger": false,
      "metar": "METAR LRBC 101330Z 15019KT CAVOK M00/M05 Q1012",
      "taf": "TAF LRBC 101100Z 1012/1021 16015KT 9999 SCT025"
    },
    {
      "icao": "LRBS",
      "alert": "OK",
      "vis_m": 9999,
      "fzfg": false,
      "metar_trigger": false,
      "taf_trigger": false,
      "metar": "METAR LRBS 101330Z 03007KT 360V150 9999 OVC020 01/M04 Q1015 NOSIG",
      "taf": "TAF LRBS 101100Z 1012/1112 VRB04KT 9999 SCT040"
    },
    {
      "icao": "LRBV",
      "alert": "OK",
      "vis_m": 9999,
      "fzfg": false,
      "metar_trigger": false,
      "taf_trigger": false,
      "metar": "METAR LRBV 101330Z VRB05KT 9999 OVC084 03/M04 Q1008",
      "taf": "TAF LRBV 101100Z 1012/1021 19012KT CAVOK"
    },
    {
      "icao": "LRCL",
      "alert": "OK",
      "vis_m": 9999,
      "fzfg": false,
      "metar_trigger": false,
      "taf_trigger": false,
      "metar": "METAR LRCL 101330Z 10008KT 9999 BKN028 03/M01 Q1008",
      "taf": "TAF LRCL 101100Z 1012/1021 14010KT 9999 OVC035"
    },
    {
      "icao": "LRCV",
      "alert": "OK",
      "vis_m": 2900,
      "fzfg": false,
      "metar_trigger": false,
      "taf_trigger": false,
      "metar": "METAR LRCV 101330Z 08010KT 2900 SN BR SCT007 BKN012 OVC032 M01/M02 Q1013",
      "taf": "TAF LRCV 101100Z 1012/1021 10012KT 3000 -SN BR BKN010 OVC030"
    },
    {
      "icao": "LRIA",
      "alert": "OK",
      "vis_m": 9999,
      "fzfg": false,
      "metar_trigger": false,
      "taf_trigger": false,
      "metar": "METAR LRIA 101330Z 14013KT 9999 BKN023 M00/M05 Q1013",
      "taf": "TAF LRIA 101100Z 1012/1021 14014KT 9999 SCT020"
    },
    {
      "icao": "LROP",
      "alert": "OK",
      "vis_m": 9999,
      "fzfg": false,
      "metar_trigger": false,
      "taf_trigger": false,
      "metar": "METAR LROP 101330Z 03008KT 9999 -SN OVC022 00/M05 Q1015 NOSIG",
      "taf": "TAF LROP 101100Z 1012/1112 VRB04KT 9999 SCT040"
    },
    {
      "icao": "LRSB",
      "alert": "OK",
      "vis_m": 9999,
      "fzfg": false,
      "metar_trigger": false,
      "taf_trigger": false,
      "metar": "METAR LRSB 101330Z 16006KT 120V200 9999 FEW030 SCT050 BKN075 03/M04 Q1007",
      "taf": "TAF LRSB 101100Z 1012/1112 14016KT 9999 BKN050"
    },
    {
      "icao": "LRSM",
      "alert": "OK",
      "vis_m": 9999,
      "fzfg": false,
      "metar_trigger": false,
      "taf_trigger": false,
      "metar": "METAR LRSM 101330Z 35002KT 9999 OVC023 05/M01 Q1009",
      "taf": "TAF LRSM 101100Z 1012/1021 14006KT 9999 SCT010 OVC025"
    },
    {
      "icao": "LRSV",
      "alert": "OK",
      "vis_m": 9999,
      "fzfg": false,
      "metar_trigger": false,
      "taf_trigger": false,
      "metar": "METAR LRSV 101330Z 17013KT CAVOK M03/M06 Q1009",
      "taf": "TAF LRSV 101100Z 1012/1021 16012KT CAVOK"
    },
    {
      "icao": "LRTM",
      "alert": "OK",
      "vis_m": 9999,
      "fzfg": false,
      "metar_trigger": false,
      "taf_trigger": false,
      "metar": "METAR LRTM 101330Z 17003KT 110V200 9999 BKN040 FEW047CB 05/M04 Q1009",
      "taf": "TAF LRTM 101100Z 1012/1021 10005KT 9999 SCT040"
    },
    {
      "icao": "LRTR",
      "alert": "OK",
      "vis_m": 9999,
      "fzfg": false,
      "metar_trigger": false,
      "taf_trigger": false,
      "metar": "METAR LRTR 101330Z 15010KT 9999 FEW016 OVC034 05/M01 Q1008",
      "taf": "TAF LRTR 101100Z 1012/1112 16008KT 9999 OVC040"
    },
    {
      "icao": "LTAC",
      "alert": "OK",
      "vis_m": 9999,
      "fzfg": false,
      "metar_trigger": false,
      "taf_trigger": false,
      "metar": "METAR LTAC 101350Z 05013KT 9999 -SHRA FEW015 BKN035 BKN100 05/02 Q1006 NOSIG RMK RWY21C 04012KT RWY03L 04012KT RWY21R 03011KT RWY03R 05009KT RWY21L 03011KT",
      "taf": "TAF LTAC 101040Z 1012/1112 VRB02KT 9999 SCT040 BKN100"
    },
    {
      "icao": "LTFM",
      "alert": "OK",
      "vis_m": 9999,
      "fzfg": false,
      "metar_trigger": false,
      "taf_trigger": false,
      "metar": "METAR LTFM 101350Z 05020KT 9999 BKN012 BKN025 06/03 Q1010 NOSIG RMK RWY17L 05019KT RWY34L 04017KT RWY16R 05019KT RWY36 05019KT RWY18 06018KT",
      "taf": "TAF LTFM 101040Z 1012/1118 05015KT 9999 SCT012 BKN025"
    },
    {
      "icao": "LUKK",
      "alert": "OK",
      "vis_m": 9999,
      "fzfg": false,
      "metar_trigger": false,
      "taf_trigger": false,
      "metar": "METAR LUKK 101400Z 15013KT 9999 FEW013 SCT032 M02/M05 Q1015 NOSIG",
      "taf": "TAF LUKK 101103Z 1012/1112 15009KT 9999 BKN020"
    },
    {
      "icao": "LWOH",
      "alert": "OK",
      "vis_m": 9999,
      "fzfg": false,
      "metar_trigger": false,
      "taf_trigger": false,
      "metar": "METAR LWOH 101350Z 21004KT 140V250 9999 SCT040 BKN090 10/03 Q1006",
      "taf": "TAF LWOH 101115Z 1012/1112 17008KT 9999 SCT030 BKN090"
    },
    {
      "icao": "LWSK",
      "alert": "OK",
      "vis_m": 9999,
      "fzfg": false,
      "metar_trigger": false,
      "taf_trigger": false,
      "metar": "METAR LWSK 101350Z 26003KT 210V300 9999 BKN033 OVC050 10/05 Q1008 NOSIG",
      "taf": "TAF LWSK 101115Z 1012/1112 VRB02KT 9999 BKN020 OVC050"
    },
    {
      "icao": "LYBE",
      "alert": "OK",
      "vis_m": 9999,
      "fzfg": false,
      "metar_trigger": false,
      "taf_trigger": false,
      "metar": "METAR LYBE 101400Z 12015KT CAVOK 04/M02 Q1007 NOSIG",
      "taf": "TAF LYBE 101100Z 1012/1112 13019KT CAVOK TX14/1112Z TN00/1105Z"
    },
    {
      "icao": "LYNI",
      "alert": "OK",
      "vis_m": 9999,
      "fzfg": false,
      "metar_trigger": false,
      "taf_trigger": false,
      "metar": "METAR LYNI 101400Z 06005KT 020V090 9999 BKN033 OVC090 04/M02 Q1009 NOSIG",
      "taf": "TAF LYNI 101100Z 1012/1112 08012KT 9999 SCT017 BKN030 OVC080 TX12/1012Z TN01/1105Z"
    },
    {
      "icao": "LYPG",
      "alert": "OK",
      "vis_m": 6000,
      "fzfg": false,
      "metar_trigger": false,
      "taf_trigger": false,
      "metar": "METAR LYPG 101400Z 33003KT 6000 RA SCT007 BKN033 OVC070 10/09 Q1007 TEMPO 5000",
      "taf": "TAF LYPG 101100Z 1012/1112 17006KT 8000 FEW007 BKN040 BKN070 TX12/1013Z TN08/1106Z"
    },
    {
      "icao": "LZIB",
      "alert": "OK",
      "vis_m": 9999,
      "fzfg": false,
      "metar_trigger": false,
      "taf_trigger": false,
      "metar": "METAR LZIB 101400Z 10011KT 9999 FEW015 OVC017 04/01 Q1004 NOSIG",
      "taf": "TAF LZIB 101115Z 1012/1112 12010KT 9999 SCT013 OVC020"
    },
    {
      "icao": "LZKZ",
      "alert": "OK",
      "vis_m": 9999,
      "fzfg": false,
      "metar_trigger": false,
      "taf_trigger": false,
      "metar": "METAR LZKZ 101400Z 19010KT 9999 OVC016 03/01 Q1007 NOSIG",
      "taf": ""
    },
    {
      "icao": "LZTT",
      "alert": "OK",
      "vis_m": 9999,
      "fzfg": false,
      "metar_trigger": false,
      "taf_trigger": false,
      "metar": "METAR LZTT 101400Z 27009KT 9999 BKN026 04/M02 Q1003 NOSIG",
      "taf": "TAF LZTT 101115Z 1012/1112 25006KT 9999 FEW013 SCT035"
    },
    {
      "icao": "OEJN",
      "alert": "OK",
      "vis_m": 9999,
      "fzfg": false,
      "metar_trigger": false,
      "taf_trigger": false,
      "metar": "METAR OEJN 101400Z 24006KT CAVOK 30/15 Q1011 NOSIG",
      "taf": "TAF OEJN 101100Z 1012/1118 23010KT CAVOK"
    },
    {
      "icao": "OEMA",
      "alert": "OK",
      "vis_m": 9999,
      "fzfg": false,
      "metar_trigger": false,
      "taf_trigger": false,
      "metar": "METAR OEMA 101400Z 22011KT CAVOK 32/00 Q1014 NOSIG",
      "taf": "TAF OEMA 101100Z 1012/1118 24010KT CAVOK"
    },
    {
      "icao": "OJAI",
      "alert": "OK",
      "vis_m": 4500,
      "fzfg": false,
      "metar_trigger": false,
      "taf_trigger": false,
      "metar": "METAR OJAI 101300Z 27021KT 4500 BLDU NSC 17/08 Q1012 NOSIG",
      "taf": "TAF OJAI 101100Z 1012/1118 26012KT 4000 HZ NSC"
    },
    {
      "icao": "OMAA",
      "alert": "OK",
      "vis_m": 9999,
      "fzfg": false,
      "metar_trigger": false,
      "taf_trigger": false,
      "metar": "METAR OMAA 101400Z 32009KT CAVOK 25/14 Q1015 NOSIG",
      "taf": "TAF OMAA 101100Z 1012/1118 33011KT 8000 NSC"
    },
    {
      "icao": "OMDB",
      "alert": "OK",
      "vis_m": 9999,
      "fzfg": false,
      "metar_trigger": false,
      "taf_trigger": false,
      "metar": "METAR OMDB 101400Z 27007KT 220V290 CAVOK 25/17 Q1015 NOSIG",
      "taf": "TAF OMDB 101100Z 1012/1118 27010KT 8000 NSC"
    },
    {
      "icao": "UAAA",
      "alert": "OK",
      "vis_m": 9999,
      "fzfg": false,
      "metar_trigger": false,
      "taf_trigger": false,
      "metar": "METAR UAAA 101330Z 04003MPS 9999 SCT050 BKN100 07/00 Q1013 NOSIG",
      "taf": "TAF UAAA 101103Z 1012/1112 10003MPS 3100 BR FU SCT030CB BKN100 TX08/1109Z TNM02/1102Z"
    },
    {
      "icao": "UBBB",
      "alert": "OK",
      "vis_m": 9999,
      "fzfg": false,
      "metar_trigger": false,
      "taf_trigger": false,
      "metar": "METAR UBBB 101400Z 36018KT 9999 -SN OVC027 01/M04 Q1022 NOSIG",
      "taf": "TAF UBBB 101038Z 1012/1112 34024G34KT 9999 SCT012 BKN025 TX01/1012Z TN00/1100Z"
    },
    {
      "icao": "UDSG",
      "alert": "OK",
      "vis_m": 9999,
      "fzfg": false,
      "metar_trigger": false,
      "taf_trigger": false,
      "metar": "METAR UDSG 101330Z 28004KT 9999 OVC040 M00/M03 Q1011 NOSIG",
      "taf": "TAF UDSG 101100Z 1012/1112 VRB06KT 9999 BKN040"
    },
    {
      "icao": "UDYZ",
      "alert": "OK",
      "vis_m": 6000,
      "fzfg": false,
      "metar_trigger": false,
      "taf_trigger": false,
      "metar": "METAR UDYZ 101330Z 24004KT 6000 -RA SCT007 OVC017 03/01 Q1012 NOSIG",
      "taf": "TAF UDYZ 101100Z 1012/1112 23006KT 6000 BKN020"
    },
    {
      "icao": "UGKO",
      "alert": "OK",
      "vis_m": 9999,
      "fzfg": false,
      "metar_trigger": false,
      "taf_trigger": false,
      "metar": "METAR UGKO 101330Z 09004KT CAVOK 06/02 Q1015 NOSIG",
      "taf": "TAF UGKO 101100Z 1012/1112 08010KT CAVOK TX09/1111Z TN03/1020Z"
    }
  ]
}