{
  "ts_utc": "2026-02-05T06:38:37Z",
  "threshold_m": 150,
  "source": "stations_override.txt (ICAO list) + aviationweather.gov (METAR/TAF raw)",
  "station_count": 159,
  "stations": [
    {
      "icao": "BIKF",
      "alert": "OK",
      "vis_m": 9999,
      "fzfg": false,
      "metar_trigger": false,
      "taf_trigger": false,
      "metar": "METAR BIKF 050630Z 07010KT CAVOK M01/M05 Q1006",
      "taf": "TAF BIKF 050433Z 0506/0606 07015KT CAVOK TX03/0515Z TNM02/0603Z"
    },
    {
      "icao": "BKPR",
      "alert": "OK",
      "vis_m": 9999,
      "fzfg": false,
      "metar_trigger": false,
      "taf_trigger": false,
      "metar": "METAR BKPR 050630Z 09002KT 9999 SCT060 06/05 Q0998 NOSIG",
      "taf": "TAF BKPR 050530Z 0506/0606 19006KT 9999 BKN060"
    },
    {
      "icao": "EBCI",
      "alert": "OK",
      "vis_m": 9999,
      "fzfg": false,
      "metar_trigger": false,
      "taf_trigger": false,
      "metar": "METAR EBCI 050620Z 14006KT 110V170 9999 -RA FEW030 03/01 Q0988 NOSIG",
      "taf": "TAF EBCI 050515Z 0506/0612 15008KT CAVOK"
    },
    {
      "icao": "EDDB",
      "alert": "OK",
      "vis_m": 6000,
      "fzfg": false,
      "metar_trigger": false,
      "taf_trigger": false,
      "metar": "METAR EDDB 050620Z COR AUTO 08010KT 6000 -FZRA OVC007 M04/M05 Q0998 TEMPO 4000",
      "taf": "TAF EDDB 050500Z 0506/0606 07011KT 6000 OVC008"
    },
    {
      "icao": "EDDH",
      "alert": "OK",
      "vis_m": 4000,
      "fzfg": false,
      "metar_trigger": false,
      "taf_trigger": false,
      "metar": "METAR EDDH 050620Z AUTO 08010KT 4000 SN BR FEW005 OVC010 M03/M04 Q0999 TEMPO 2000 -SN OVC008",
      "taf": "TAF EDDH 050500Z 0506/0612 08010KT 7000 OVC008"
    },
    {
      "icao": "EDDK",
      "alert": "OK",
      "vis_m": 9999,
      "fzfg": false,
      "metar_trigger": false,
      "taf_trigger": false,
      "metar": "METAR EDDK 050620Z AUTO 12010KT 090V160 9999 OVC015 03/M00 Q0992 TEMPO BKN013",
      "taf": "TAF EDDK 050500Z 0506/0612 11008KT 9999 BKN030"
    },
    {
      "icao": "EDDN",
      "alert": "OK",
      "vis_m": 9999,
      "fzfg": false,
      "metar_trigger": false,
      "taf_trigger": false,
      "metar": "METAR EDDN 050620Z AUTO VRB01KT 9999 OVC007 01/M00 Q0993 NOSIG",
      "taf": ""
    },
    {
      "icao": "EDDS",
      "alert": "OK",
      "vis_m": 4100,
      "fzfg": false,
      "metar_trigger": false,
      "taf_trigger": false,
      "metar": "METAR EDDS 050620Z AUTO 20003KT 160V250 4100 BR OVC002 M02/M02 Q0992 TEMPO 2000",
      "taf": "TAF EDDS 050500Z 0506/0606 VRB02KT 3000 BR SCT005"
    },
    {
      "icao": "EDFH",
      "alert": "OK",
      "vis_m": 600,
      "fzfg": true,
      "metar_trigger": false,
      "taf_trigger": false,
      "metar": "METAR EDFH 050620Z 14015KT 0600 R21/1500U FZFG OVC001 M00/M00 Q0990",
      "taf": "TAF EDFH 050500Z 0506/0606 14014KT 6000 OVC004"
    },
    {
      "icao": "EDJA",
      "alert": "OK",
      "vis_m": 3100,
      "fzfg": false,
      "metar_trigger": false,
      "taf_trigger": false,
      "metar": "METAR EDJA 050620Z 24007KT 3100 BR OVC002 M01/M02 Q0992",
      "taf": "TAF EDJA 050500Z 0506/0515 23005KT 4000 BR BKN002"
    },
    {
      "icao": "EDLW",
      "alert": "OK",
      "vis_m": 6000,
      "fzfg": false,
      "metar_trigger": false,
      "taf_trigger": false,
      "metar": "METAR EDLW 050620Z 04008KT 6000 SCT013 OVC015 00/M01 Q0992",
      "taf": "TAF EDLW 050500Z 0506/0606 08008KT 8000 BKN030"
    },
    {
      "icao": "EDNY",
      "alert": "OK",
      "vis_m": 8000,
      "fzfg": false,
      "metar_trigger": false,
      "taf_trigger": false,
      "metar": "METAR EDNY 050620Z VRB01KT 8000 OVC008 01/00 Q0994",
      "taf": "TAF EDNY 050500Z 0506/0515 VRB02KT 6000 OVC008"
    },
    {
      "icao": "EDSB",
      "alert": "OK",
      "vis_m": 8000,
      "fzfg": false,
      "metar_trigger": false,
      "taf_trigger": false,
      "metar": "METAR EDSB 050620Z 18003KT 8000 OVC006 02/01 Q0993",
      "taf": "TAF EDSB 050500Z 0506/0606 02004KT 9000 OVC006"
    },
    {
      "icao": "EETN",
      "alert": "OK",
      "vis_m": 9999,
      "fzfg": false,
      "metar_trigger": false,
      "taf_trigger": false,
      "metar": "METAR EETN 050620Z 12006KT 9999 OVC004 M16/M18 Q1022 NOSIG",
      "taf": "TAF EETN 050530Z 0506/0606 10008KT 9999 OVC007"
    },
    {
      "icao": "EFTU",
      "alert": "OK",
      "vis_m": 9999,
      "fzfg": false,
      "metar_trigger": false,
      "taf_trigger": false,
      "metar": "METAR EFTU 050620Z AUTO 04004KT 9999 -SHSN OVC005 M15/M16 Q1021",
      "taf": "TAF EFTU 050537Z 0506/0606 07005KT 9999 -SN OVC005"
    },
    {
      "icao": "EGBB",
      "alert": "OK",
      "vis_m": 6000,
      "fzfg": false,
      "metar_trigger": false,
      "taf_trigger": false,
      "metar": "METAR EGBB 050620Z 08015KT 6000 RA OVC010 06/04 Q0983",
      "taf": "TAF EGBB 050456Z 0506/0606 09012KT 9999 -RA BKN012"
    },
    {
      "icao": "EGGP",
      "alert": "OK",
      "vis_m": 9999,
      "fzfg": false,
      "metar_trigger": false,
      "taf_trigger": false,
      "metar": "METAR EGGP 050620Z 09018KT 9999 BKN019 05/02 Q0984",
      "taf": "TAF EGGP 050455Z 0506/0606 09020G30KT 9999 SCT017"
    },
    {
      "icao": "EGGW",
      "alert": "OK",
      "vis_m": 4200,
      "fzfg": false,
      "metar_trigger": false,
      "taf_trigger": false,
      "metar": "METAR EGGW 050620Z AUTO 10015KT 4200 -RA OVC005 05/04 Q0983",
      "taf": ""
    },
    {
      "icao": "EGKK",
      "alert": "OK",
      "vis_m": 9999,
      "fzfg": false,
      "metar_trigger": false,
      "taf_trigger": false,
      "metar": "METAR EGKK 050620Z 10010KT 9999 -RA SCT006 BKN009 07/06 Q0982",
      "taf": "TAF EGKK 050456Z 0506/0612 09009KT 9999 BKN010"
    },
    {
      "icao": "EGNM",
      "alert": "OK",
      "vis_m": 9000,
      "fzfg": false,
      "metar_trigger": false,
      "taf_trigger": false,
      "metar": "METAR EGNM 050620Z 09016G27KT 9000 SCT005 BKN007 04/03 Q0988",
      "taf": "TAF EGNM 050524Z 0506/0606 07009KT 4000 -DZ BR SCT004 BKN006"
    },
    {
      "icao": "EGPD",
      "alert": "OK",
      "vis_m": 9999,
      "fzfg": false,
      "metar_trigger": false,
      "taf_trigger": false,
      "metar": "METAR EGPD 050620Z AUTO 11017KT 9999 BKN010/// OVC017/// //////TCU 05/03 Q0998 TEMPO BKN006",
      "taf": "TAF EGPD 050500Z 0506/0606 12015KT 9999 BKN016"
    },
    {
      "icao": "EGPF",
      "alert": "OK",
      "vis_m": 9999,
      "fzfg": false,
      "metar_trigger": false,
      "taf_trigger": false,
      "metar": "METAR EGPF 050620Z AUTO 07015KT 9999 OVC013 05/03 Q0992",
      "taf": "TAF EGPF 050455Z 0506/0606 06010KT 9999 SCT025"
    },
    {
      "icao": "EHBK",
      "alert": "OK",
      "vis_m": 9000,
      "fzfg": false,
      "metar_trigger": false,
      "taf_trigger": false,
      "metar": "METAR EHBK 050625Z AUTO 09007KT 9000 NSC 01/00 Q0990 TEMPO 8000",
      "taf": "TAF EHBK 050506Z 0506/0612 08008KT 8000 NSC"
    },
    {
      "icao": "EHEH",
      "alert": "OK",
      "vis_m": null,
      "fzfg": false,
      "metar_trigger": false,
      "taf_trigger": false,
      "metar": "",
      "taf": "TAF EHEH 050557Z 0506/0612 08010KT 6000 BR BKN016"
    },
    {
      "icao": "EKBI",
      "alert": "OK",
      "vis_m": 9999,
      "fzfg": false,
      "metar_trigger": false,
      "taf_trigger": false,
      "metar": "METAR EKBI 050620Z AUTO 07021G31KT 9999 OVC010/// M03/M05 Q1004",
      "taf": "TAF EKBI 050527Z 0506/0606 07016KT 9999 BKN012"
    },
    {
      "icao": "EKCH",
      "alert": "OK",
      "vis_m": 9999,
      "fzfg": false,
      "metar_trigger": false,
      "taf_trigger": false,
      "metar": "METAR EKCH 050620Z 05016KT 9999 BKN009 M02/M04 Q1006 TEMPO 07017G27KT BKN012",
      "taf": "TAF EKCH 050527Z 0506/0606 07016KT 9999 BKN012"
    },
    {
      "icao": "ENAL",
      "alert": "OK",
      "vis_m": 9999,
      "fzfg": false,
      "metar_trigger": false,
      "taf_trigger": false,
      "metar": "METAR ENAL 050620Z 14008KT CAVOK M01/M11 Q1011",
      "taf": "TAF ENAL 050500Z 0506/0515 14009KT CAVOK"
    },
    {
      "icao": "ENBR",
      "alert": "OK",
      "vis_m": 9999,
      "fzfg": false,
      "metar_trigger": false,
      "taf_trigger": false,
      "metar": "METAR ENBR 050620Z 04002KT CAVOK M06/M14 Q1010 NOSIG RMK WIND 1200FT 17004KT",
      "taf": "TAF ENBR 050500Z 0506/0606 06005KT CAVOK"
    },
    {
      "icao": "ENGM",
      "alert": "OK",
      "vis_m": 9999,
      "fzfg": false,
      "metar_trigger": false,
      "taf_trigger": false,
      "metar": "METAR ENGM 050620Z 01005KT 9999 -SN BKN028 M10/M14 Q1017 NOSIG",
      "taf": "TAF ENGM 050500Z 0506/0606 02008KT 9999 -SN BKN025"
    },
    {
      "icao": "ENHD",
      "alert": "OK",
      "vis_m": 9999,
      "fzfg": false,
      "metar_trigger": false,
      "taf_trigger": false,
      "metar": "METAR ENHD 050620Z 07006KT CAVOK M04/M12 Q1010",
      "taf": "TAF ENHD 050500Z 0506/0515 08008KT CAVOK"
    },
    {
      "icao": "ENTC",
      "alert": "OK",
      "vis_m": 9999,
      "fzfg": false,
      "metar_trigger": false,
      "taf_trigger": false,
      "metar": "METAR ENTC 050620Z VRB03KT 9999 FEW028 BKN041 01/M02 Q1014 NOSIG RMK WIND 2600FT 32018KT",
      "taf": "TAF ENTC 050500Z 0506/0606 19005KT 9999 SCT020 BKN030"
    },
    {
      "icao": "ENTO",
      "alert": "OK",
      "vis_m": 9999,
      "fzfg": false,
      "metar_trigger": false,
      "taf_trigger": false,
      "metar": "METAR ENTO 050620Z 03012KT 9999 -SN OVC023 M07/M11 Q1016 NOSIG",
      "taf": "TAF ENTO 050500Z 0506/0606 03012KT 9999 BKN025"
    },
    {
      "icao": "ENVA",
      "alert": "OK",
      "vis_m": 9999,
      "fzfg": false,
      "metar_trigger": false,
      "taf_trigger": false,
      "metar": "METAR ENVA 050620Z 10007KT CAVOK M11/M18 Q1015 NOSIG RMK WIND 670FT 12011KT",
      "taf": "TAF ENVA 050500Z 0506/0606 10008KT CAVOK"
    },
    {
      "icao": "ENZV",
      "alert": "OK",
      "vis_m": 9999,
      "fzfg": false,
      "metar_trigger": false,
      "taf_trigger": false,
      "metar": "METAR ENZV 050620Z 09010KT CAVOK M03/M13 Q1010 NOSIG",
      "taf": "TAF ENZV 050500Z 0506/0606 10010KT CAVOK"
    },
    {
      "icao": "EPGD",
      "alert": "OK",
      "vis_m": 9999,
      "fzfg": false,
      "metar_trigger": false,
      "taf_trigger": false,
      "metar": "METAR EPGD 050630Z 10009KT 9999 OVC007 M08/M10 Q1007",
      "taf": "TAF EPGD 050530Z 0506/0606 09010KT 9000 OVC007"
    },
    {
      "icao": "EPKK",
      "alert": "OK",
      "vis_m": 3700,
      "fzfg": false,
      "metar_trigger": false,
      "taf_trigger": false,
      "metar": "METAR EPKK 050630Z 05007KT 3700 BR OVC004 M01/M02 Q1000",
      "taf": "TAF EPKK 050530Z 0506/0606 06008KT 4000 BR BKN005"
    },
    {
      "icao": "EPKT",
      "alert": "OK",
      "vis_m": 1500,
      "fzfg": false,
      "metar_trigger": false,
      "taf_trigger": false,
      "metar": "METAR EPKT 050630Z 07006KT 1500 BR OVC002 M01/M01 Q0999",
      "taf": "TAF EPKT 050530Z 0506/0606 07005KT 1200 BR BKN002"
    },
    {
      "icao": "EPLB",
      "alert": "OK",
      "vis_m": 1200,
      "fzfg": false,
      "metar_trigger": false,
      "taf_trigger": false,
      "metar": "METAR EPLB 050630Z 11012KT 1200 R25/P2000N BR OVC002 M02/M02 Q1005",
      "taf": "TAF EPLB 050530Z 0506/0606 10012KT 6000 OVC006"
    },
    {
      "icao": "EPMO",
      "alert": "OK",
      "vis_m": 4900,
      "fzfg": false,
      "metar_trigger": false,
      "taf_trigger": false,
      "metar": "METAR EPMO 050630Z 08013KT 4900 -FZRA BR OVC007 M05/M06 Q1004",
      "taf": "TAF EPMO 050530Z 0506/0606 08010KT 6000 BKN007 OVC012"
    },
    {
      "icao": "EPPO",
      "alert": "OK",
      "vis_m": 5000,
      "fzfg": false,
      "metar_trigger": false,
      "taf_trigger": false,
      "metar": "METAR EPPO 050630Z 09011KT 5000 -FZRA -SN BR OVC007 M05/M06 Q1001",
      "taf": "TAF EPPO 050530Z 0506/0606 09010KT 4000 BR OVC008"
    },
    {
      "icao": "EPRA",
      "alert": "OK",
      "vis_m": 3500,
      "fzfg": false,
      "metar_trigger": false,
      "taf_trigger": false,
      "metar": "METAR EPRA 050630Z 10011KT 3500 BR OVC003 M02/M03 Q1003",
      "taf": "TAF EPRA 050530Z 0506/0515 10010KT 5000 BR OVC005"
    },
    {
      "icao": "EPRZ",
      "alert": "OK",
      "vis_m": 5000,
      "fzfg": false,
      "metar_trigger": false,
      "taf_trigger": false,
      "metar": "METAR EPRZ 050630Z 09014KT 5000 BR OVC004 01/00 Q1002",
      "taf": "TAF EPRZ 050530Z 0506/0606 08012KT 4000 BR OVC004"
    },
    {
      "icao": "EPSC",
      "alert": "OK",
      "vis_m": 9999,
      "fzfg": false,
      "metar_trigger": false,
      "taf_trigger": false,
      "metar": "METAR EPSC 050630Z 07008KT 040V100 9999 -PL BKN011 BKN024 M05/M08 Q1002",
      "taf": "TAF EPSC 050530Z 0506/0606 08008KT 7000 -SN BKN020"
    },
    {
      "icao": "EPSY",
      "alert": "OK",
      "vis_m": 6000,
      "fzfg": false,
      "metar_trigger": false,
      "taf_trigger": false,
      "metar": "METAR EPSY 050630Z 08005KT 040V140 6000 OVC004 M08/M09 Q1007",
      "taf": "TAF EPSY 050530Z 0506/0515 09008KT 8000 BKN008 OVC011"
    },
    {
      "icao": "EPWA",
      "alert": "OK",
      "vis_m": 9000,
      "fzfg": false,
      "metar_trigger": false,
      "taf_trigger": false,
      "metar": "METAR EPWA 050630Z 08009KT 9000 BKN007 M04/M05 Q1004 TEMPO 4000 -FZDZ",
      "taf": "TAF EPWA 050530Z 0506/0606 09010KT 6000 BKN007 OVC012"
    },
    {
      "icao": "EPWR",
      "alert": "OK",
      "vis_m": 5000,
      "fzfg": false,
      "metar_trigger": false,
      "taf_trigger": false,
      "metar": "METAR EPWR 050630Z 09008KT 5000 BR BKN006 M02/M03 Q1000",
      "taf": "TAF EPWR 050530Z 0506/0606 10006KT 6000 BKN008"
    },
    {
      "icao": "ESGG",
      "alert": "OK",
      "vis_m": 9999,
      "fzfg": false,
      "metar_trigger": false,
      "taf_trigger": false,
      "metar": "METAR ESGG 050620Z 07012KT 9999 BKN017 M05/M09 Q1010",
      "taf": "TAF ESGG 050530Z 0506/0606 08013KT 9999 OVC020"
    },
    {
      "icao": "ESKN",
      "alert": "OK",
      "vis_m": 9999,
      "fzfg": false,
      "metar_trigger": false,
      "taf_trigger": false,
      "metar": "METAR ESKN 050620Z AUTO 05008KT 9999 OVC015/// M05/M08 Q1016",
      "taf": "TAF ESKN 050530Z 0506/0606 03007KT 9999 OVC020"
    },
    {
      "icao": "ESMS",
      "alert": "OK",
      "vis_m": 7000,
      "fzfg": false,
      "metar_trigger": false,
      "taf_trigger": false,
      "metar": "METAR ESMS 050620Z 08024G35KT 7000 BKN006 M01/M02 Q1005",
      "taf": "TAF ESMS 050527Z 0506/0606 08018KT 7000 BKN006"
    },
    {
      "icao": "ESSA",
      "alert": "OK",
      "vis_m": 9999,
      "fzfg": false,
      "metar_trigger": false,
      "taf_trigger": false,
      "metar": "METAR ESSA 050620Z 10008KT 9999 BKN015 M06/M09 Q1018 NOSIG",
      "taf": "TAF ESSA 050530Z 0506/0606 07008KT 9999 -SN BKN015"
    },
    {
      "icao": "EYKA",
      "alert": "OK",
      "vis_m": 9999,
      "fzfg": false,
      "metar_trigger": false,
      "taf_trigger": false,
      "metar": "METAR EYKA 050620Z 09007KT 9999 -SN OVC033 M10/M13 Q1013",
      "taf": "TAF EYKA 050500Z 0506/0606 10009KT 8000 BKN030"
    },
    {
      "icao": "EYPA",
      "alert": "OK",
      "vis_m": 9999,
      "fzfg": false,
      "metar_trigger": false,
      "taf_trigger": false,
      "metar": "METAR EYPA 050620Z 09008KT 060V120 CAVOK M12/M16 Q1012",
      "taf": "TAF EYPA 050500Z 0506/0606 09010KT 8000 NSC"
    },
    {
      "icao": "EYVI",
      "alert": "OK",
      "vis_m": 6000,
      "fzfg": false,
      "metar_trigger": false,
      "taf_trigger": false,
      "metar": "METAR EYVI 050620Z 11007KT 6000 -SN OVC031 M11/M13 Q1013 NOSIG",
      "taf": "TAF EYVI 050505Z 0506/0606 10010KT 9000 OVC025"
    },
    {
      "icao": "GCFV",
      "alert": "OK",
      "vis_m": 9999,
      "fzfg": false,
      "metar_trigger": false,
      "taf_trigger": false,
      "metar": "METAR GCFV 050630Z 25006KT 9999 SCT025 17/13 Q1015",
      "taf": "TAF GCFV 050200Z 0503/0603 25005KT 9999 SCT025 TX22/0514Z TN14/0506Z"
    },
    {
      "icao": "GCLP",
      "alert": "OK",
      "vis_m": 9999,
      "fzfg": false,
      "metar_trigger": false,
      "taf_trigger": false,
      "metar": "METAR GCLP 050630Z 31005KT 9999 FEW017 17/14 Q1014 NOSIG",
      "taf": "TAF GCLP 050200Z 0503/0603 32005KT 9999 SCT025 TX22/0514Z TN15/0506Z"
    },
    {
      "icao": "GCTS",
      "alert": "OK",
      "vis_m": 9999,
      "fzfg": false,
      "metar_trigger": false,
      "taf_trigger": false,
      "metar": "METAR GCTS 050630Z 28008KT 9999 SCT020 18/14 Q1014 NOSIG",
      "taf": "TAF GCTS 050200Z 0503/0603 23012KT 9999 FEW025 TX25/0514Z TN16/0506Z"
    },
    {
      "icao": "GMAD",
      "alert": "OK",
      "vis_m": 200,
      "fzfg": false,
      "metar_trigger": false,
      "taf_trigger": false,
      "metar": "METAR GMAD 050630Z 00000KT 0200 R27/0350N FG OVC001 13/11 Q1015 BECMG 2000 BR OVC003",
      "taf": "TAF GMAD 050500Z 0506/0612 12004KT 0800 FG OVC003"
    },
    {
      "icao": "GMMN",
      "alert": "OK",
      "vis_m": 9999,
      "fzfg": false,
      "metar_trigger": false,
      "taf_trigger": false,
      "metar": "METAR GMMN 050630Z 22019KT 9999 BKN006 14/13 Q1010 NOSIG",
      "taf": "TAF GMMN 050500Z 0506/0612 22017KT 9999 BKN008 SCT016"
    },
    {
      "icao": "GMMX",
      "alert": "OK",
      "vis_m": 800,
      "fzfg": false,
      "metar_trigger": false,
      "taf_trigger": false,
      "metar": "METAR GMMX 050630Z 09005KT 0800 FG BKN010 11/10 Q1012 BECMG 3000 BKN015",
      "taf": "TAF GMMX 050500Z 0506/0612 06006KT 3000 BR OVC004"
    },
    {
      "icao": "HEGN",
      "alert": "OK",
      "vis_m": 9999,
      "fzfg": false,
      "metar_trigger": false,
      "taf_trigger": false,
      "metar": "METAR HEGN 050600Z 28006KT CAVOK 16/04 Q1015 NOSIG",
      "taf": "TAF HEGN 050500Z 0506/0612 34009KT CAVOK"
    },
    {
      "icao": "HEMA",
      "alert": "OK",
      "vis_m": 9999,
      "fzfg": false,
      "metar_trigger": false,
      "taf_trigger": false,
      "metar": "METAR HEMA 050600Z 28007KT CAVOK 18/10 Q1015 NOSIG",
      "taf": "TAF HEMA 050500Z 0506/0612 33014KT CAVOK"
    },
    {
      "icao": "HESH",
      "alert": "OK",
      "vis_m": 9999,
      "fzfg": false,
      "metar_trigger": false,
      "taf_trigger": false,
      "metar": "METAR HESH 050600Z 33006KT CAVOK 19/09 Q1015 NOSIG",
      "taf": "TAF HESH 050500Z 0506/0612 36009KT CAVOK"
    },
    {
      "icao": "HESX",
      "alert": "OK",
      "vis_m": 6000,
      "fzfg": false,
      "metar_trigger": false,
      "taf_trigger": false,
      "metar": "METAR HESX 050600Z 14006KT 6000 NSC 10/08 Q1014 NOSIG",
      "taf": "TAF HESX 050500Z 0506/0612 08007KT CAVOK"
    },
    {
      "icao": "LATI",
      "alert": "OK",
      "vis_m": 9999,
      "fzfg": false,
      "metar_trigger": false,
      "taf_trigger": false,
      "metar": "METAR LATI 050620Z 13009KT 9999 SCT050 OVC085 10/06 Q0998 NOSIG",
      "taf": "TAF LATI 050500Z 0506/0606 15010KT 9999 SCT040 BKN080 TX15/0511Z TN08/0523Z"
    },
    {
      "icao": "LBPD",
      "alert": "OK",
      "vis_m": 2000,
      "fzfg": false,
      "metar_trigger": false,
      "taf_trigger": false,
      "metar": "METAR LBPD 050630Z AUTO 28005KT 2000 -RASN BKN003/// BKN010/// OVC013/// 00/00 Q1004 TEMPO 2000 RA BR BKN003 OVC005",
      "taf": "TAF LBPD 050500Z 0506/0606 VRB03KT 2000 RA BR SCT003 BKN007 OVC012"
    },
    {
      "icao": "LBSF",
      "alert": "OK",
      "vis_m": 9999,
      "fzfg": false,
      "metar_trigger": false,
      "taf_trigger": false,
      "metar": "METAR LBSF 050630Z 09011KT 9999 SCT012 BKN014 BKN020 03/01 Q1001 TEMPO RA",
      "taf": "TAF LBSF 050500Z 0506/0606 10012KT 9999 SCT012 BKN025 OVC040"
    },
    {
      "icao": "LBWN",
      "alert": "OK",
      "vis_m": 9999,
      "fzfg": false,
      "metar_trigger": false,
      "taf_trigger": false,
      "metar": "METAR LBWN 050630Z 12013KT 9999 -RA FEW007 SCT009 OVC045 08/08 Q1007 NOSIG",
      "taf": "TAF LBWN 050500Z 0506/0606 09010KT 9999 BKN008 OVC040"
    },
    {
      "icao": "LCLK",
      "alert": "OK",
      "vis_m": 9999,
      "fzfg": false,
      "metar_trigger": false,
      "taf_trigger": false,
      "metar": "METAR LCLK 050630Z 34004KT 9999 FEW025 15/11 Q1017 NOSIG",
      "taf": "TAF LCLK 050530Z 0506/0606 32006KT 9999 FEW025"
    },
    {
      "icao": "LCPH",
      "alert": "OK",
      "vis_m": 9999,
      "fzfg": false,
      "metar_trigger": false,
      "taf_trigger": false,
      "metar": "METAR LCPH 050630Z 08007KT 9999 SCT030 13/07 Q1016 NOSIG",
      "taf": "TAF LCPH 050530Z 0506/0606 04007KT 9999 FEW020"
    },
    {
      "icao": "LEAL",
      "alert": "OK",
      "vis_m": 9999,
      "fzfg": false,
      "metar_trigger": false,
      "taf_trigger": false,
      "metar": "METAR LEAL 050630Z 27005KT 210V280 CAVOK 10/10 Q0997 NOSIG",
      "taf": "TAF LEAL 050500Z 0506/0606 25007KT 9999 FEW020 TX24/0514Z TN09/0606Z"
    },
    {
      "icao": "LEBB",
      "alert": "OK",
      "vis_m": 9999,
      "fzfg": false,
      "metar_trigger": false,
      "taf_trigger": false,
      "metar": "METAR LEBB 050630Z 15009KT 120V190 CAVOK 13/07 Q0985 NOSIG",
      "taf": "TAF LEBB 050500Z 0506/0606 20009KT 9999 FEW040 TX19/0514Z TN11/0506Z"
    },
    {
      "icao": "LEBL",
      "alert": "OK",
      "vis_m": 9999,
      "fzfg": false,
      "metar_trigger": false,
      "taf_trigger": false,
      "metar": "METAR LEBL 050630Z 32008G19KT 290V030 9999 FEW010 SCT060 09/06 Q0993 NOSIG",
      "taf": "TAF LEBL 050500Z 0506/0606 VRB04KT 9999 FEW020 SCT050 TX16/0514Z TN08/0506Z"
    },
    {
      "icao": "LECH",
      "alert": "OK",
      "vis_m": 9999,
      "fzfg": false,
      "metar_trigger": false,
      "taf_trigger": false,
      "metar": "METAR LECH 050630Z AUTO 20003KT 170V230 9999 BKN060 09/06 Q0994",
      "taf": ""
    },
    {
      "icao": "LEMD",
      "alert": "OK",
      "vis_m": 2000,
      "fzfg": false,
      "metar_trigger": false,
      "taf_trigger": false,
      "metar": "METAR LEMD 050630Z VRB02KT 2000 0700E RA BR FEW002 OVC005 07/07 Q0990 NOSIG",
      "taf": "TAF LEMD 050500Z 0506/0612 VRB04KT 9999 SCT020 TX13/0513Z TN06/0607Z"
    },
    {
      "icao": "LEMG",
      "alert": "OK",
      "vis_m": 9999,
      "fzfg": false,
      "metar_trigger": false,
      "taf_trigger": false,
      "metar": "METAR LEMG 050630Z 25015G27KT 200V280 9999 FEW030 SCT050 19/12 Q1001 NOSIG",
      "taf": "TAF LEMG 050500Z 0506/0606 VRB03KT 9999 SCT040 TX18/0514Z TN13/0507Z"
    },
    {
      "icao": "LEVC",
      "alert": "OK",
      "vis_m": 9999,
      "fzfg": false,
      "metar_trigger": false,
      "taf_trigger": false,
      "metar": "METAR LEVC 050630Z 35002KT 9999 FEW020 SCT040 11/08 Q0995 NOSIG",
      "taf": ""
    },
    {
      "icao": "LEXJ",
      "alert": "OK",
      "vis_m": 9999,
      "fzfg": false,
      "metar_trigger": false,
      "taf_trigger": false,
      "metar": "METAR LEXJ 050630Z 20016G29KT 150V260 9999 -RA FEW025 BKN070 13/06 Q0982",
      "taf": "TAF LEXJ 050200Z 0503/0603 20009KT CAVOK TX19/0513Z TN11/0522Z"
    },
    {
      "icao": "LEZG",
      "alert": "OK",
      "vis_m": 9999,
      "fzfg": false,
      "metar_trigger": false,
      "taf_trigger": false,
      "metar": "METAR LEZG 050630Z 11007KT 9999 -RA BKN070 OVC080 08/08 Q0992 NOSIG",
      "taf": "TAF LEZG 050500Z 0506/0606 10009KT 9999 FEW020 TX17/0514Z TN03/0606Z"
    },
    {
      "icao": "LEZL",
      "alert": "OK",
      "vis_m": 9999,
      "fzfg": false,
      "metar_trigger": false,
      "taf_trigger": false,
      "metar": "METAR LEZL 050630Z 22023KT 9999 BKN015 OVC020 17/15 Q0999 NOSIG",
      "taf": "TAF LEZL 050200Z 0503/0603 23022KT 9999 BKN020 TX20/0515Z TN13/0507Z"
    },
    {
      "icao": "LFBD",
      "alert": "OK",
      "vis_m": 9999,
      "fzfg": false,
      "metar_trigger": false,
      "taf_trigger": false,
      "metar": "METAR LFBD 050630Z AUTO 17008KT CAVOK 09/06 Q0986 NOSIG",
      "taf": "TAF LFBD 050500Z 0506/0612 14005KT CAVOK TX12/0515Z TN07/0506Z"
    },
    {
      "icao": "LFLL",
      "alert": "OK",
      "vis_m": 9999,
      "fzfg": false,
      "metar_trigger": false,
      "taf_trigger": false,
      "metar": "METAR LFLL 050630Z 14007KT CAVOK 06/05 Q0992 NOSIG",
      "taf": "TAF LFLL 050500Z 0506/0612 17012KT CAVOK"
    },
    {
      "icao": "LFLS",
      "alert": "OK",
      "vis_m": 4900,
      "fzfg": false,
      "metar_trigger": false,
      "taf_trigger": false,
      "metar": "METAR LFLS 050630Z AUTO 22004KT 4900 BR NSC 03/03 Q0992 TEMPO 2000 MIFG",
      "taf": ""
    },
    {
      "icao": "LFMN",
      "alert": "OK",
      "vis_m": 9999,
      "fzfg": false,
      "metar_trigger": false,
      "taf_trigger": false,
      "metar": "METAR LFMN 050630Z 32009KT 9999 FEW016 06/03 Q0993 NOSIG",
      "taf": "TAF LFMN 050200Z 0503/0609 33010KT CAVOK"
    },
    {
      "icao": "LFOB",
      "alert": "OK",
      "vis_m": 9999,
      "fzfg": false,
      "metar_trigger": false,
      "taf_trigger": false,
      "metar": "METAR LFOB 050630Z AUTO 13009KT 9999 BKN005/// OVC009/// ///TCU 07/07 Q0984 TEMPO 4000 RA BKN004 OVC008",
      "taf": "TAF LFOB 050500Z 0506/0606 14010KT 9999 BKN009 OVC014"
    },
    {
      "icao": "LFPO",
      "alert": "OK",
      "vis_m": 9999,
      "fzfg": false,
      "metar_trigger": false,
      "taf_trigger": false,
      "metar": "METAR LFPO 050630Z 16007KT 130V190 9999 -RA OVC006 08/07 Q0985 NOSIG",
      "taf": "TAF LFPO 050500Z 0506/0612 16009KT 9999 BKN013"
    },
    {
      "icao": "LFSB",
      "alert": "OK",
      "vis_m": 5000,
      "fzfg": false,
      "metar_trigger": false,
      "taf_trigger": false,
      "metar": "METAR LFSB 050630Z AUTO 14003KT 5000 BR FEW054 BKN070 M01/M01 Q0993 NOSIG",
      "taf": ""
    },
    {
      "icao": "LGAV",
      "alert": "OK",
      "vis_m": 7000,
      "fzfg": false,
      "metar_trigger": false,
      "taf_trigger": false,
      "metar": "METAR LGAV 050620Z 19015KT 7000 -RA FEW025 SCT040 BKN070 14/10 Q1002 NOSIG",
      "taf": "TAF LGAV 050500Z 0506/0606 19020KT 9999 FEW020 SCT035"
    },
    {
      "icao": "LGTS",
      "alert": "OK",
      "vis_m": 9999,
      "fzfg": false,
      "metar_trigger": false,
      "taf_trigger": false,
      "metar": "METAR LGTS 050620Z 10005KT 9999 FEW015 SCT030 12/11 Q0999 NOSIG",
      "taf": "TAF LGTS 050500Z 0506/0606 VRB03KT 9999 FEW010 BKN030"
    },
    {
      "icao": "LHBP",
      "alert": "OK",
      "vis_m": 9999,
      "fzfg": false,
      "metar_trigger": false,
      "taf_trigger": false,
      "metar": "METAR LHBP 050630Z 09008KT 9999 -RA OVC043 06/04 Q0997 NOSIG",
      "taf": "TAF LHBP 050515Z 0506/0606 08012KT 9999 BKN045"
    },
    {
      "icao": "LHDC",
      "alert": "OK",
      "vis_m": 9999,
      "fzfg": false,
      "metar_trigger": false,
      "taf_trigger": false,
      "metar": "METAR LHDC 050615Z AUTO 06009KT 9999 -SHRA NSC 05/04 Q0998 NOSIG",
      "taf": "TAF LHDC 050515Z 0506/0515 06008KT CAVOK"
    },
    {
      "icao": "LIBD",
      "alert": "OK",
      "vis_m": 9999,
      "fzfg": false,
      "metar_trigger": false,
      "taf_trigger": false,
      "metar": "METAR LIBD 050620Z 20007KT CAVOK 10/06 Q0994",
      "taf": "TAF LIBD 050500Z 0506/0606 17012KT 8000 SCT030"
    },
    {
      "icao": "LIBG",
      "alert": "OK",
      "vis_m": null,
      "fzfg": false,
      "metar_trigger": false,
      "taf_trigger": false,
      "metar": "",
      "taf": ""
    },
    {
      "icao": "LIBP",
      "alert": "OK",
      "vis_m": 6000,
      "fzfg": false,
      "metar_trigger": false,
      "taf_trigger": false,
      "metar": "METAR LIBP 050620Z AUTO VRB01KT 6000 OVC003/// 10/10 Q0993",
      "taf": "TAF LIBP 050500Z 0506/0606 VRB05KT 9999 BKN030"
    },
    {
      "icao": "LIBR",
      "alert": "OK",
      "vis_m": 9999,
      "fzfg": false,
      "metar_trigger": false,
      "taf_trigger": false,
      "metar": "METAR LIBR 050620Z 19007KT CAVOK 11/08 Q0996",
      "taf": "TAF LIBR 050500Z 0506/0606 20012KT 8000 SCT025"
    },
    {
      "icao": "LICA",
      "alert": "OK",
      "vis_m": 9999,
      "fzfg": false,
      "metar_trigger": false,
      "taf_trigger": false,
      "metar": "METAR LICA 050620Z AUTO 08006KT 9999 BKN043/// 09/09 Q0997",
      "taf": "TAF LICA 050500Z 0506/0606 VRB05KT 9999 BKN030"
    },
    {
      "icao": "LICC",
      "alert": "OK",
      "vis_m": 9999,
      "fzfg": false,
      "metar_trigger": false,
      "taf_trigger": false,
      "metar": "METAR LICC 050620Z 27011KT 9999 FEW040 12/09 Q0998",
      "taf": "TAF LICC 050500Z 0506/0606 23012KT 9999 SCT030 BKN050"
    },
    {
      "icao": "LICJ",
      "alert": "OK",
      "vis_m": 9999,
      "fzfg": false,
      "metar_trigger": false,
      "taf_trigger": false,
      "metar": "METAR LICJ 050620Z 22016KT 9999 FEW030 SCT042 15/11 Q0998",
      "taf": "TAF LICJ 050500Z 0506/0606 21016KT 9999 SCT030"
    },
    {
      "icao": "LIMC",
      "alert": "OK",
      "vis_m": 7000,
      "fzfg": false,
      "metar_trigger": false,
      "taf_trigger": false,
      "metar": "METAR LIMC 050620Z VRB01KT 7000 3000S R35R/0650D R17L/0700D R35L/1600U BCFG NSC 01/01 Q0993 NOSIG",
      "taf": "TAF LIMC 050500Z 0506/0612 VRB05KT 3000 BR BKN030"
    },
    {
      "icao": "LIME",
      "alert": "OK",
      "vis_m": 400,
      "fzfg": false,
      "metar_trigger": false,
      "taf_trigger": false,
      "metar": "METAR LIME 050620Z 23004KT 0400 R28/0500N FG VV001 04/04 Q0993 NOSIG",
      "taf": "TAF LIME 050500Z 0506/0606 VRB05KT 6000 BKN030"
    },
    {
      "icao": "LIMF",
      "alert": "OK",
      "vis_m": 9999,
      "fzfg": false,
      "metar_trigger": false,
      "taf_trigger": false,
      "metar": "METAR LIMF 050620Z VRB01KT CAVOK M00/M02 Q0993",
      "taf": "TAF LIMF 050500Z 0506/0606 VRB05KT 9999 BKN030"
    },
    {
      "icao": "LIMJ",
      "alert": "OK",
      "vis_m": 9999,
      "fzfg": false,
      "metar_trigger": false,
      "taf_trigger": false,
      "metar": "METAR LIMJ 050620Z 02005KT CAVOK 07/03 Q0994",
      "taf": "TAF LIMJ 050500Z 0506/0606 03014KT 9999 SCT050"
    },
    {
      "icao": "LIPE",
      "alert": "OK",
      "vis_m": 9999,
      "fzfg": false,
      "metar_trigger": false,
      "taf_trigger": false,
      "metar": "METAR LIPE 050620Z 26007KT 9999 BKN015 07/05 Q0993",
      "taf": "TAF LIPE 050500Z 0506/0606 27008KT 7000 BKN020"
    },
    {
      "icao": "LIPH",
      "alert": "OK",
      "vis_m": 6000,
      "fzfg": false,
      "metar_trigger": false,
      "taf_trigger": false,
      "metar": "METAR LIPH 050620Z 28004KT 250V310 6000 -RA SCT030 BKN060 07/07 Q0991",
      "taf": "TAF LIPH 050500Z 0506/0606 30010KT 8000 BKN020"
    },
    {
      "icao": "LIPQ",
      "alert": "OK",
      "vis_m": 9999,
      "fzfg": false,
      "metar_trigger": false,
      "taf_trigger": false,
      "metar": "METAR LIPQ 050620Z AUTO 12007KT 100V160 9999 -RA OVC023/// 08/06 Q0990",
      "taf": "TAF LIPQ 050500Z 0506/0606 04010KT 8000 BKN040"
    },
    {
      "icao": "LIPR",
      "alert": "OK",
      "vis_m": 9999,
      "fzfg": false,
      "metar_trigger": false,
      "taf_trigger": false,
      "metar": "METAR LIPR 050620Z 29008KT 9999 BKN035 08/06 Q0993",
      "taf": "TAF LIPR 050500Z 0506/0606 28013KT 7000 BKN030"
    },
    {
      "icao": "LIPX",
      "alert": "OK",
      "vis_m": 3000,
      "fzfg": false,
      "metar_trigger": false,
      "taf_trigger": false,
      "metar": "METAR LIPX 050620Z 28005KT 3000 BR FEW002 BKN030 06/06 Q0993",
      "taf": "TAF LIPX 050500Z 0506/0606 27006KT 6000 BKN020"
    },
    {
      "icao": "LIPY",
      "alert": "OK",
      "vis_m": 9999,
      "fzfg": false,
      "metar_trigger": false,
      "taf_trigger": false,
      "metar": "METAR LIPY 050620Z AUTO 13002KT 9999 -RA OVC020/// 08/08 Q0993",
      "taf": "TAF LIPY 050500Z 0506/0606 VRB05KT 9999 BKN020"
    },
    {
      "icao": "LIPZ",
      "alert": "OK",
      "vis_m": 9999,
      "fzfg": false,
      "metar_trigger": false,
      "taf_trigger": false,
      "metar": "METAR LIPZ 050620Z 30007KT 270V010 9999 -RA BKN020 08/07 Q0991 NOSIG",
      "taf": "TAF LIPZ 050500Z 0506/0612 30010KT 7000 BKN050"
    },
    {
      "icao": "LIRF",
      "alert": "OK",
      "vis_m": 8000,
      "fzfg": false,
      "metar_trigger": false,
      "taf_trigger": false,
      "metar": "METAR LIRF 050620Z VRB02KT 8000 1500NE R16L/1000U R16R/0700D R25/0650D R34R/0600N MIFG NSC 06/06 Q0995 NOSIG",
      "taf": "TAF LIRF 050500Z 0506/0612 VRB05KT 9999 SCT040"
    },
    {
      "icao": "LIRN",
      "alert": "OK",
      "vis_m": 9999,
      "fzfg": false,
      "metar_trigger": false,
      "taf_trigger": false,
      "metar": "METAR LIRN 050620Z VRB02KT 9999 FEW020 BKN050 10/09 Q0995 RERA NOSIG",
      "taf": "TAF LIRN 050500Z 0506/0606 24010KT 9999 BKN030"
    },
    {
      "icao": "LIRP",
      "alert": "OK",
      "vis_m": 9999,
      "fzfg": false,
      "metar_trigger": false,
      "taf_trigger": false,
      "metar": "METAR LIRP 050615Z VRB01KT 9999 BKN030 SCT070 07/07 Q0993 NOSIG",
      "taf": "TAF LIRP 050500Z 0506/0606 30012KT 9999 SCT025"
    },
    {
      "icao": "LIRZ",
      "alert": "OK",
      "vis_m": 9999,
      "fzfg": false,
      "metar_trigger": false,
      "taf_trigger": false,
      "metar": "METAR LIRZ 050620Z AUTO 18003KT 150V210 9999 -DZ OVC008/// 08/08 Q0994 REDZ RERA",
      "taf": "TAF LIRZ 050500Z 0506/0606 22006KT 6000 SCT040"
    },
    {
      "icao": "LJLJ",
      "alert": "OK",
      "vis_m": 4000,
      "fzfg": false,
      "metar_trigger": false,
      "taf_trigger": false,
      "metar": "METAR LJLJ 050630Z 30001KT 4000 -RA BR FEW002 OVC010 04/03 Q0993 NOSIG",
      "taf": "TAF LJLJ 050500Z 0506/0606 30004KT 8000 -RA BKN010 OVC040"
    },
    {
      "icao": "LKMT",
      "alert": "OK",
      "vis_m": 2000,
      "fzfg": false,
      "metar_trigger": false,
      "taf_trigger": false,
      "metar": "METAR LKMT 050630Z 02003KT 2000 BR FEW008 M02/M03 Q0998 NOSIG",
      "taf": "TAF LKMT 050500Z 0506/0606 02004KT 4500 BR NSC"
    },
    {
      "icao": "LKPR",
      "alert": "OK",
      "vis_m": 1500,
      "fzfg": false,
      "metar_trigger": false,
      "taf_trigger": false,
      "metar": "METAR LKPR 050630Z 05006KT 1500 BR BCFG FEW002 OVC003 01/01 Q0994 TEMPO 0700 FG VV002",
      "taf": "TAF LKPR 050500Z 0506/0612 10008KT 1200 BR OVC002"
    },
    {
      "icao": "LLBG",
      "alert": "OK",
      "vis_m": 9999,
      "fzfg": false,
      "metar_trigger": false,
      "taf_trigger": false,
      "metar": "METAR LLBG 050620Z VRB02KT CAVOK 12/07 Q1016 NOSIG",
      "taf": "TAF LLBG 050503Z 0506/0606 VRB03KT CAVOK"
    },
    {
      "icao": "LMML",
      "alert": "OK",
      "vis_m": 7000,
      "fzfg": false,
      "metar_trigger": false,
      "taf_trigger": false,
      "metar": "METAR LMML 050615Z 24010KT 7000 NSC 14/12 Q1001 TEMPO 9000",
      "taf": "TAF LMML 050500Z 0506/0606 25012KT 8000 FEW015"
    },
    {
      "icao": "LOWW",
      "alert": "OK",
      "vis_m": 9999,
      "fzfg": false,
      "metar_trigger": false,
      "taf_trigger": false,
      "metar": "METAR LOWW 050620Z 05003KT 9999 FEW010 BKN012 04/03 Q0996 NOSIG",
      "taf": "TAF LOWW 050515Z 0506/0612 12005KT 8000 FEW009 OVC011 TX04/0513Z TN02/0605Z"
    },
    {
      "icao": "LPFR",
      "alert": "OK",
      "vis_m": 6000,
      "fzfg": false,
      "metar_trigger": false,
      "taf_trigger": false,
      "metar": "METAR LPFR 050630Z 22026KT 6000 -RA BKN015 16/15 Q0998",
      "taf": "TAF LPFR 050500Z 0506/0606 23017KT 8000 SCT012 BKN025"
    },
    {
      "icao": "LPMA",
      "alert": "OK",
      "vis_m": 9999,
      "fzfg": false,
      "metar_trigger": false,
      "taf_trigger": false,
      "metar": "METAR LPMA 050630Z VRB07KT 9999 BKN015 18/14 Q1006",
      "taf": "TAF LPMA 050500Z 0506/0606 24012KT 9999 SCT015"
    },
    {
      "icao": "LPPR",
      "alert": "OK",
      "vis_m": 9999,
      "fzfg": false,
      "metar_trigger": false,
      "taf_trigger": false,
      "metar": "METAR LPPR 050630Z 22015G25KT 9999 FEW010 BKN013 14/13 Q0984",
      "taf": "TAF LPPR 050500Z 0506/0606 22017KT 4000 RADZ BR BKN008"
    },
    {
      "icao": "LPPS",
      "alert": "OK",
      "vis_m": 9999,
      "fzfg": false,
      "metar_trigger": false,
      "taf_trigger": false,
      "metar": "METAR LPPS 050630Z 27021KT 9999 SCT014 18/15 Q1007",
      "taf": "TAF LPPS 050500Z 0506/0612 26017KT 9999 SCT015"
    },
    {
      "icao": "LPPT",
      "alert": "OK",
      "vis_m": 9999,
      "fzfg": false,
      "metar_trigger": false,
      "taf_trigger": false,
      "metar": "METAR LPPT 050630Z 23019G30KT 9999 FEW008 SCT030 14/13 Q0992 WS R20",
      "taf": "TAF LPPT 050500Z 0506/0612 25017KT 3000 RADZ BR BKN004"
    },
    {
      "icao": "LQBK",
      "alert": "OK",
      "vis_m": 9999,
      "fzfg": false,
      "metar_trigger": false,
      "taf_trigger": false,
      "metar": "METAR LQBK 050630Z 00000KT 9999 -RA BKN043 04/04 Q0993 NOSIG",
      "taf": "TAF LQBK 050500Z 0506/0606 08005KT 9999 SCT045 TX10/0513Z TN03/0605Z"
    },
    {
      "icao": "LQSA",
      "alert": "OK",
      "vis_m": 9999,
      "fzfg": false,
      "metar_trigger": false,
      "taf_trigger": false,
      "metar": "METAR LQSA 050630Z VRB03KT 9999 SCT055 07/06 Q0993 NOSIG",
      "taf": "TAF LQSA 050500Z 0506/0606 12006KT 9999 FEW030 BKN055 TX10/0513Z TN01/0605Z"
    },
    {
      "icao": "LQTZ",
      "alert": "OK",
      "vis_m": 9999,
      "fzfg": false,
      "metar_trigger": false,
      "taf_trigger": false,
      "metar": "METAR LQTZ 050630Z 14003KT 9999 FEW050 08/04 Q0993",
      "taf": "TAF LQTZ 050500Z 0506/0606 10005KT 9999 SCT050 TX15/0514Z TN03/0605Z"
    },
    {
      "icao": "LRBC",
      "alert": "OK",
      "vis_m": 1000,
      "fzfg": false,
      "metar_trigger": false,
      "taf_trigger": false,
      "metar": "METAR LRBC 050630Z 17012KT 1000 R16/1500D -RADZ BR VV002 03/03 Q1008",
      "taf": "TAF LRBC 050500Z 0506/0515 16012KT 5000 -RADZ BR OVC002"
    },
    {
      "icao": "LRBS",
      "alert": "OK",
      "vis_m": 9000,
      "fzfg": false,
      "metar_trigger": false,
      "taf_trigger": false,
      "metar": "METAR LRBS 050630Z 06009KT 030V090 9000 SCT040 03/03 Q1005 NOSIG",
      "taf": "TAF LRBS 050500Z 0506/0606 05012KT 5000 -RA BR BKN010 BKN040"
    },
    {
      "icao": "LRBV",
      "alert": "OK",
      "vis_m": 9999,
      "fzfg": false,
      "metar_trigger": false,
      "taf_trigger": false,
      "metar": "METAR LRBV 050630Z 14003KT 090V200 9999 FEW045 SCT061 01/00 Q1002",
      "taf": "TAF LRBV 050500Z 0506/0515 VRB04KT 9999 BKN040"
    },
    {
      "icao": "LRCL",
      "alert": "OK",
      "vis_m": 9999,
      "fzfg": false,
      "metar_trigger": false,
      "taf_trigger": false,
      "metar": "METAR LRCL 050630Z 08006KT 9999 SCT069 05/02 Q1001",
      "taf": "TAF LRCL 050500Z 0506/0515 09008KT 9999 BKN045"
    },
    {
      "icao": "LRCV",
      "alert": "OK",
      "vis_m": 300,
      "fzfg": false,
      "metar_trigger": false,
      "taf_trigger": false,
      "metar": "METAR LRCV 050630Z 10013KT 0300 R26/0600N FG VV002 02/02 Q1003",
      "taf": "TAF LRCV 050500Z 0506/0515 10010KT 0350 FG OVC001"
    },
    {
      "icao": "LRIA",
      "alert": "OK",
      "vis_m": 9999,
      "fzfg": false,
      "metar_trigger": false,
      "taf_trigger": false,
      "metar": "METAR LRIA 050630Z 12017KT 9999 3000N -DZ BCFG BKN003 OVC006 03/02 Q1009",
      "taf": "TAF LRIA 050500Z 0506/0515 12016KT 9999 OVC010"
    },
    {
      "icao": "LROP",
      "alert": "OK",
      "vis_m": 7000,
      "fzfg": false,
      "metar_trigger": false,
      "taf_trigger": false,
      "metar": "METAR LROP 050630Z 06012KT 7000 FEW005 BKN040 04/03 Q1005 NOSIG",
      "taf": "TAF LROP 050500Z 0506/0606 05012KT 5000 -RA BR BKN010 BKN040"
    },
    {
      "icao": "LRSB",
      "alert": "OK",
      "vis_m": 9999,
      "fzfg": false,
      "metar_trigger": false,
      "taf_trigger": false,
      "metar": "METAR LRSB 050630Z 13012G22KT CAVOK 08/04 Q1000",
      "taf": "TAF LRSB 050500Z 0506/0606 13012KT CAVOK"
    },
    {
      "icao": "LRSM",
      "alert": "OK",
      "vis_m": 9999,
      "fzfg": false,
      "metar_trigger": false,
      "taf_trigger": false,
      "metar": "METAR LRSM 050630Z 13008KT CAVOK 08/03 Q1000",
      "taf": "TAF LRSM 050500Z 0506/0515 12008KT 9999 BKN045"
    },
    {
      "icao": "LRSV",
      "alert": "OK",
      "vis_m": 200,
      "fzfg": false,
      "metar_trigger": false,
      "taf_trigger": false,
      "metar": "METAR LRSV 050630Z 14016KT 0200 R34/0450N -DZ FG VV002 01/01 Q1005",
      "taf": "TAF LRSV 050500Z 0506/0515 14016KT 0600 -DZ FG OVC002"
    },
    {
      "icao": "LRTM",
      "alert": "OK",
      "vis_m": 9999,
      "fzfg": false,
      "metar_trigger": false,
      "taf_trigger": false,
      "metar": "METAR LRTM 050630Z 07005KT 9999 -RA FEW019 04/02 Q1001",
      "taf": "TAF LRTM 050500Z 0506/0515 09008KT 9999 BKN045"
    },
    {
      "icao": "LRTR",
      "alert": "OK",
      "vis_m": 9999,
      "fzfg": false,
      "metar_trigger": false,
      "taf_trigger": false,
      "metar": "METAR LRTR 050630Z 10011KT 9999 FEW046 07/04 Q0997 NOSIG",
      "taf": "TAF LRTR 050500Z 0506/0606 10010KT CAVOK"
    },
    {
      "icao": "LTAC",
      "alert": "OK",
      "vis_m": 9999,
      "fzfg": false,
      "metar_trigger": false,
      "taf_trigger": false,
      "metar": "METAR LTAC 050620Z VRB02KT 9999 FEW040 SCT120 01/M02 Q1015 NOSIG",
      "taf": "TAF LTAC 050440Z 0506/0606 VRB02KT 9999 FEW040 BKN100"
    },
    {
      "icao": "LTFM",
      "alert": "OK",
      "vis_m": 9999,
      "fzfg": false,
      "metar_trigger": false,
      "taf_trigger": false,
      "metar": "METAR LTFM 050620Z 17009KT CAVOK 09/04 Q1008 NOSIG",
      "taf": "TAF LTFM 050440Z 0506/0612 16010KT CAVOK"
    },
    {
      "icao": "LUKK",
      "alert": "OK",
      "vis_m": 7000,
      "fzfg": false,
      "metar_trigger": false,
      "taf_trigger": false,
      "metar": "METAR LUKK 050630Z 11012KT 7000 OVC004 M02/M02 Q1013 REFZDZ NOSIG",
      "taf": "TAF LUKK 050526Z 0506/0606 11014KT 3000 -FZDZ BR OVC003"
    },
    {
      "icao": "LWOH",
      "alert": "OK",
      "vis_m": 9999,
      "fzfg": false,
      "metar_trigger": false,
      "taf_trigger": false,
      "metar": "METAR LWOH 050620Z 11002KT 9999 -RA SCT020 OVC030 06/05 Q0999",
      "taf": "TAF LWOH 050540Z 0506/0606 VRB03KT 9999 SCT020 BKN040"
    },
    {
      "icao": "LWSK",
      "alert": "OK",
      "vis_m": 4000,
      "fzfg": false,
      "metar_trigger": false,
      "taf_trigger": false,
      "metar": "METAR LWSK 050620Z 32002KT 4000 BR FEW012 SCT080 06/05 Q0999 NOSIG",
      "taf": ""
    },
    {
      "icao": "LYBE",
      "alert": "OK",
      "vis_m": 9999,
      "fzfg": false,
      "metar_trigger": false,
      "taf_trigger": false,
      "metar": "METAR LYBE 050630Z 14017KT CAVOK 07/01 Q0996 NOSIG",
      "taf": "TAF LYBE 050500Z 0506/0606 14014KT CAVOK TX13/0513Z TN04/0606Z"
    },
    {
      "icao": "LYNI",
      "alert": "OK",
      "vis_m": 9999,
      "fzfg": false,
      "metar_trigger": false,
      "taf_trigger": false,
      "metar": "METAR LYNI 050630Z 10019KT 9999 FEW033 BKN047 07/03 Q0998 NOSIG",
      "taf": "TAF LYNI 050500Z 0506/0606 07010KT 9999 BKN050 TX12/0513Z TN01/0606Z"
    },
    {
      "icao": "LYPG",
      "alert": "OK",
      "vis_m": 9999,
      "fzfg": false,
      "metar_trigger": false,
      "taf_trigger": false,
      "metar": "METAR LYPG 050630Z 12012KT 9999 -RA FEW007 SCT040 BKN080 10/08 Q0997 NOSIG",
      "taf": "TAF LYPG 050500Z 0506/0606 16005KT 9999 FEW010 BKN040 OVC070 TX11/0512Z TN08/0605Z"
    },
    {
      "icao": "LZIB",
      "alert": "OK",
      "vis_m": 9999,
      "fzfg": false,
      "metar_trigger": false,
      "taf_trigger": false,
      "metar": "METAR LZIB 050630Z 04006KT 9999 -RA FEW011 BKN035 04/03 Q0996 NOSIG",
      "taf": "TAF LZIB 050515Z 0506/0606 04010KT 9999 FEW010 BKN018"
    },
    {
      "icao": "LZKZ",
      "alert": "OK",
      "vis_m": 9999,
      "fzfg": false,
      "metar_trigger": false,
      "taf_trigger": false,
      "metar": "METAR LZKZ 050630Z 01007KT CAVOK 02/01 Q1000 NOSIG",
      "taf": "TAF LZKZ 050515Z 0506/0606 01009KT 9999 FEW017 BKN025"
    },
    {
      "icao": "LZTT",
      "alert": "OK",
      "vis_m": 9999,
      "fzfg": false,
      "metar_trigger": false,
      "taf_trigger": false,
      "metar": "METAR LZTT 050630Z 16002KT 9999 4000SE BCFG FEW003 BKN040 01/00 Q0999 NOSIG",
      "taf": "TAF LZTT 050515Z 0506/0606 VRB02KT 9999 FEW005 BKN020 OVC033"
    },
    {
      "icao": "OEJN",
      "alert": "OK",
      "vis_m": 9999,
      "fzfg": false,
      "metar_trigger": false,
      "taf_trigger": false,
      "metar": "METAR OEJN 050600Z 36004KT CAVOK 25/14 Q1012 NOSIG",
      "taf": "TAF OEJN 050500Z 0506/0612 36008KT CAVOK"
    },
    {
      "icao": "OEMA",
      "alert": "OK",
      "vis_m": 9999,
      "fzfg": false,
      "metar_trigger": false,
      "taf_trigger": false,
      "metar": "METAR OEMA 050600Z 07008KT CAVOK 19/M01 Q1020 NOSIG",
      "taf": "TAF OEMA 050500Z 0506/0612 12010KT 7000 FEW045"
    },
    {
      "icao": "OJAI",
      "alert": "OK",
      "vis_m": null,
      "fzfg": false,
      "metar_trigger": false,
      "taf_trigger": false,
      "metar": "",
      "taf": "TAF OJAI 050500Z 0506/0612 14010KT 4000 BR NSC"
    },
    {
      "icao": "OMAA",
      "alert": "OK",
      "vis_m": 8000,
      "fzfg": false,
      "metar_trigger": false,
      "taf_trigger": false,
      "metar": "METAR OMAA 050630Z 33007KT 8000 SCT019 23/17 Q1020 NOSIG",
      "taf": "TAF OMAA 050500Z 0506/0612 29010KT 8000 FEW020"
    },
    {
      "icao": "OMDB",
      "alert": "OK",
      "vis_m": 7000,
      "fzfg": false,
      "metar_trigger": false,
      "taf_trigger": false,
      "metar": "METAR OMDB 050630Z 29005KT 230V340 7000 NSC 23/17 Q1020 NOSIG",
      "taf": "TAF OMDB 050500Z 0506/0612 21007KT 8000 NSC"
    },
    {
      "icao": "UAAA",
      "alert": "OK",
      "vis_m": 5000,
      "fzfg": false,
      "metar_trigger": false,
      "taf_trigger": false,
      "metar": "METAR UAAA 050630Z 22002MPS 180V280 5000 BR SCT100 BKN200 03/M02 Q1014 NOSIG",
      "taf": "TAF UAAA 050503Z 0506/0606 04003G08MPS 3100 BR FU SCT050 BKN100 TX06/0508Z TNM02/0524Z"
    },
    {
      "icao": "UBBB",
      "alert": "OK",
      "vis_m": 9999,
      "fzfg": false,
      "metar_trigger": false,
      "taf_trigger": false,
      "metar": "METAR UBBB 050630Z 32014KT 9999 SCT020 01/M02 Q1029 NOSIG",
      "taf": "TAF UBBB 050500Z 0506/0606 34014KT 9999 SCT012 BKN025 TX03/0510Z TN02/0602Z"
    },
    {
      "icao": "UDSG",
      "alert": "OK",
      "vis_m": 9999,
      "fzfg": false,
      "metar_trigger": false,
      "taf_trigger": false,
      "metar": "METAR UDSG 050630Z 23003KT 9999 NSC M11/M15 Q1023 NOSIG",
      "taf": "TAF UDSG 050458Z 0506/0606 VRB06KT 9999 SCT040"
    },
    {
      "icao": "UDYZ",
      "alert": "OK",
      "vis_m": 9999,
      "fzfg": false,
      "metar_trigger": false,
      "taf_trigger": false,
      "metar": "METAR UDYZ 050630Z VRB01KT 9999 NSC M01/M06 Q1024 NOSIG",
      "taf": "TAF UDYZ 050500Z 0506/0606 VRB04KT 9999 FEW040"
    },
    {
      "icao": "UGKO",
      "alert": "OK",
      "vis_m": 9999,
      "fzfg": false,
      "metar_trigger": false,
      "taf_trigger": false,
      "metar": "METAR UGKO 050630Z 09018KT CAVOK 05/M02 Q1019 NOSIG",
      "taf": "TAF UGKO 050500Z 0506/0606 08020G37KT CAVOK TX13/0511Z TN02/0506Z"
    }
  ]
}