{
  "ts_utc": "2026-03-05T06:29:15Z",
  "threshold_m": 150,
  "source": "stations_override.txt (ICAO list) + aviationweather.gov (METAR/TAF raw)",
  "station_count": 159,
  "stations": [
    {
      "icao": "BIKF",
      "alert": "OK",
      "vis_m": 9999,
      "fzfg": false,
      "metar_trigger": false,
      "taf_trigger": false,
      "metar": "METAR BIKF 050600Z 17009KT 9999 SCT025TCU BKN130 M02/M04 Q0996",
      "taf": "TAF BIKF 050414Z 0506/0606 22012KT 9999 -SHSN FEW014CB BKN025 TX04/0604Z TNM01/0507Z"
    },
    {
      "icao": "BKPR",
      "alert": "OK",
      "vis_m": null,
      "fzfg": false,
      "metar_trigger": false,
      "taf_trigger": false,
      "metar": "",
      "taf": "TAF BKPR 050530Z 0506/0606 35008KT 9999 BKN040"
    },
    {
      "icao": "EBCI",
      "alert": "OK",
      "vis_m": 9999,
      "fzfg": false,
      "metar_trigger": false,
      "taf_trigger": false,
      "metar": "METAR EBCI 050620Z 16006KT 130V220 CAVOK 08/02 Q1020 NOSIG",
      "taf": "TAF EBCI 050500Z 0506/0612 15007KT CAVOK"
    },
    {
      "icao": "EDDB",
      "alert": "OK",
      "vis_m": 9999,
      "fzfg": false,
      "metar_trigger": false,
      "taf_trigger": false,
      "metar": "METAR EDDB 050620Z AUTO 08004KT CAVOK M02/M04 Q1028 NOSIG",
      "taf": "TAF EDDB 050500Z 0506/0606 11005KT CAVOK"
    },
    {
      "icao": "EDDH",
      "alert": "OK",
      "vis_m": 9999,
      "fzfg": false,
      "metar_trigger": false,
      "taf_trigger": false,
      "metar": "METAR EDDH 050620Z AUTO 13006KT CAVOK 02/M02 Q1025 NOSIG",
      "taf": "TAF EDDH 050500Z 0506/0612 12006KT CAVOK"
    },
    {
      "icao": "EDDK",
      "alert": "OK",
      "vis_m": 9999,
      "fzfg": false,
      "metar_trigger": false,
      "taf_trigger": false,
      "metar": "METAR EDDK 050620Z AUTO 09006KT 050V110 CAVOK 07/03 Q1022 NOSIG",
      "taf": "TAF EDDK 050500Z 0506/0612 11005KT CAVOK"
    },
    {
      "icao": "EDDN",
      "alert": "OK",
      "vis_m": 3600,
      "fzfg": false,
      "metar_trigger": false,
      "taf_trigger": false,
      "metar": "METAR EDDN 050620Z AUTO 18002KT 3600 BR NCD M01/M01 Q1025 BECMG 9999",
      "taf": "TAF EDDN 050500Z 0506/0606 10004KT CAVOK"
    },
    {
      "icao": "EDDS",
      "alert": "OK",
      "vis_m": 9000,
      "fzfg": false,
      "metar_trigger": false,
      "taf_trigger": false,
      "metar": "METAR EDDS 050620Z AUTO 05002KT 9000 NCD 02/00 Q1022 NOSIG",
      "taf": "TAF EDDS 050500Z 0506/0606 VRB03KT CAVOK"
    },
    {
      "icao": "EDFH",
      "alert": "OK",
      "vis_m": 9999,
      "fzfg": false,
      "metar_trigger": false,
      "taf_trigger": false,
      "metar": "METAR EDFH 050620Z 14011KT CAVOK 05/01 Q1021",
      "taf": "TAF EDFH 050500Z 0506/0606 13010KT CAVOK"
    },
    {
      "icao": "EDJA",
      "alert": "OK",
      "vis_m": 250,
      "fzfg": true,
      "metar_trigger": false,
      "taf_trigger": false,
      "metar": "METAR EDJA 050620Z 04004KT 010V070 0250 R06/0275N FZFG VV/// M02/M02 Q1023",
      "taf": "TAF EDJA 050500Z 0506/0515 04005KT 0200 FZFG VV001"
    },
    {
      "icao": "EDLW",
      "alert": "OK",
      "vis_m": 9999,
      "fzfg": false,
      "metar_trigger": false,
      "taf_trigger": false,
      "metar": "METAR EDLW 050620Z 00000KT CAVOK 06/03 Q1022",
      "taf": "TAF EDLW 050500Z 0506/0606 13006KT CAVOK"
    },
    {
      "icao": "EDNY",
      "alert": "OK",
      "vis_m": 700,
      "fzfg": false,
      "metar_trigger": false,
      "taf_trigger": false,
      "metar": "METAR EDNY 050620Z 03005KT 0700 R06/0900U FG VV/// 00/M00 Q1023",
      "taf": ""
    },
    {
      "icao": "EDSB",
      "alert": "OK",
      "vis_m": 9999,
      "fzfg": false,
      "metar_trigger": false,
      "taf_trigger": false,
      "metar": "METAR EDSB 050620Z 00000KT 9999 BCFG NSC M00/M01 Q1022",
      "taf": "TAF EDSB 050500Z 0506/0606 05004KT CAVOK"
    },
    {
      "icao": "EETN",
      "alert": "OK",
      "vis_m": 9999,
      "fzfg": false,
      "metar_trigger": false,
      "taf_trigger": false,
      "metar": "METAR EETN 050620Z 30011KT CAVOK 02/M01 Q1015 NOSIG",
      "taf": "TAF EETN 050530Z 0506/0606 31012KT CAVOK"
    },
    {
      "icao": "EFTU",
      "alert": "OK",
      "vis_m": 9999,
      "fzfg": false,
      "metar_trigger": false,
      "taf_trigger": false,
      "metar": "METAR EFTU 050620Z AUTO 31005KT CAVOK 01/M00 Q1017",
      "taf": "TAF EFTU 050523Z 0506/0606 31007KT CAVOK"
    },
    {
      "icao": "EGBB",
      "alert": "OK",
      "vis_m": 3500,
      "fzfg": false,
      "metar_trigger": false,
      "taf_trigger": false,
      "metar": "METAR EGBB 050620Z 15004KT 3500 BR NSC 03/03 Q1015",
      "taf": "TAF EGBB 050455Z 0506/0606 14006KT 4000 BR FEW020"
    },
    {
      "icao": "EGGP",
      "alert": "OK",
      "vis_m": 3000,
      "fzfg": false,
      "metar_trigger": false,
      "taf_trigger": false,
      "metar": "METAR EGGP 050620Z 10006KT 3000 BR NSC 05/04 Q1015",
      "taf": "TAF EGGP 050456Z 0506/0606 12006KT 2500 BR FEW040"
    },
    {
      "icao": "EGGW",
      "alert": "OK",
      "vis_m": 1800,
      "fzfg": false,
      "metar_trigger": false,
      "taf_trigger": false,
      "metar": "METAR EGGW 050620Z AUTO 13005KT 1800 BR NCD 04/04 Q1016",
      "taf": "TAF EGGW 050454Z 0506/0606 13005KT 2000 BR FEW040"
    },
    {
      "icao": "EGKK",
      "alert": "OK",
      "vis_m": 3000,
      "fzfg": false,
      "metar_trigger": false,
      "taf_trigger": false,
      "metar": "METAR EGKK 050620Z 07003KT 3000 BR VCFG NSC 04/04 Q1016",
      "taf": "TAF EGKK 050454Z 0506/0612 09005KT 2000 BR FEW045"
    },
    {
      "icao": "EGNM",
      "alert": "OK",
      "vis_m": 200,
      "fzfg": false,
      "metar_trigger": false,
      "taf_trigger": false,
      "metar": "METAR EGNM 050620Z 13003KT 090V160 0200 R14/0275N FG VV/// 05/05 Q1015",
      "taf": "TAF EGNM 050458Z 0506/0606 14006KT 0300 FG VV///"
    },
    {
      "icao": "EGPD",
      "alert": "OK",
      "vis_m": 6000,
      "fzfg": false,
      "metar_trigger": false,
      "taf_trigger": false,
      "metar": "METAR EGPD 050620Z AUTO 18012KT 6000 SCT007 07/06 Q1012 TEMPO BKN007",
      "taf": "TAF EGPD 050459Z 0506/0606 17009KT 9999 FEW020"
    },
    {
      "icao": "EGPF",
      "alert": "OK",
      "vis_m": 7000,
      "fzfg": false,
      "metar_trigger": false,
      "taf_trigger": false,
      "metar": "METAR EGPF 050620Z AUTO 18005KT 140V220 7000 OVC016 10/08 Q1011",
      "taf": "TAF EGPF 050457Z 0506/0606 16007KT 9999 SCT025"
    },
    {
      "icao": "EHBK",
      "alert": "OK",
      "vis_m": 9999,
      "fzfg": false,
      "metar_trigger": false,
      "taf_trigger": false,
      "metar": "METAR EHBK 050625Z AUTO 09008KT 9999 NCD 05/03 Q1021 NOSIG",
      "taf": "TAF EHBK 050504Z 0506/0612 10005KT CAVOK"
    },
    {
      "icao": "EHEH",
      "alert": "OK",
      "vis_m": 9999,
      "fzfg": false,
      "metar_trigger": false,
      "taf_trigger": false,
      "metar": "METAR EHEH 050555Z AUTO 12007KT 9999 NCD 06/03 Q1021 BLU NOSIG RMK TREND REMOTE BY EHWX",
      "taf": "TAF EHEH 050501Z 0506/0612 13006KT CAVOK"
    },
    {
      "icao": "EKBI",
      "alert": "OK",
      "vis_m": 9999,
      "fzfg": false,
      "metar_trigger": false,
      "taf_trigger": false,
      "metar": "METAR EKBI 050620Z AUTO 11006KT 9999 NCD 01/M01 Q1025",
      "taf": "TAF EKBI 050527Z 0506/0606 11005KT CAVOK"
    },
    {
      "icao": "EKCH",
      "alert": "OK",
      "vis_m": 6000,
      "fzfg": false,
      "metar_trigger": false,
      "taf_trigger": false,
      "metar": "METAR EKCH 050620Z 24003KT 6000 0800SW R22L/0375N R04L/0450N R12/0750N BCFG NSC M03/M03 Q1027 TEMPO 1000",
      "taf": "TAF EKCH 050527Z 0506/0606 22006KT 9999 FEW030"
    },
    {
      "icao": "ENAL",
      "alert": "OK",
      "vis_m": 9999,
      "fzfg": false,
      "metar_trigger": false,
      "taf_trigger": false,
      "metar": "METAR ENAL 050620Z 21007KT 9999 BKN051 09/03 Q1016",
      "taf": "TAF ENAL 050500Z 0506/0515 19008KT 9999 SCT040"
    },
    {
      "icao": "ENBR",
      "alert": "OK",
      "vis_m": 9999,
      "fzfg": false,
      "metar_trigger": false,
      "taf_trigger": false,
      "metar": "METAR ENBR 050620Z 14011KT CAVOK 04/M04 Q1020 NOSIG RMK WIND 1200FT 14024KT",
      "taf": "TAF ENBR 050500Z 0506/0606 15012KT 9999 FEW040"
    },
    {
      "icao": "ENGM",
      "alert": "OK",
      "vis_m": 9999,
      "fzfg": false,
      "metar_trigger": false,
      "taf_trigger": false,
      "metar": "METAR ENGM 050620Z VRB01KT CAVOK M05/M07 Q1021 NOSIG",
      "taf": "TAF ENGM 050500Z 0506/0606 VRB03KT CAVOK"
    },
    {
      "icao": "ENHD",
      "alert": "OK",
      "vis_m": 9999,
      "fzfg": false,
      "metar_trigger": false,
      "taf_trigger": false,
      "metar": "METAR ENHD 050620Z 13015KT CAVOK 03/M02 Q1021",
      "taf": "TAF ENHD 050500Z 0506/0515 13015KT CAVOK"
    },
    {
      "icao": "ENTC",
      "alert": "OK",
      "vis_m": 9999,
      "fzfg": false,
      "metar_trigger": false,
      "taf_trigger": false,
      "metar": "METAR ENTC 050620Z 02002KT 9999 -DZRA BKN014 BKN028 02/00 Q1010 TEMPO BKN015 RMK WIND 2600FT 30014KT",
      "taf": "TAF ENTC 050500Z 0506/0606 22005KT 9999 SCT015 BKN020"
    },
    {
      "icao": "ENTO",
      "alert": "OK",
      "vis_m": 9999,
      "fzfg": false,
      "metar_trigger": false,
      "taf_trigger": false,
      "metar": "METAR ENTO 050620Z 32002KT CAVOK M02/M05 Q1022 NOSIG",
      "taf": "TAF ENTO 050500Z 0506/0606 28005KT CAVOK"
    },
    {
      "icao": "ENVA",
      "alert": "OK",
      "vis_m": 9999,
      "fzfg": false,
      "metar_trigger": false,
      "taf_trigger": false,
      "metar": "METAR ENVA 050620Z VRB02KT 9999 -RA SCT020 BKN043 01/01 Q1019 NOSIG RMK WIND 670FT 15003KT",
      "taf": "TAF ENVA 050500Z 0506/0606 11008KT 9999 -RADZ BKN030"
    },
    {
      "icao": "ENZV",
      "alert": "OK",
      "vis_m": 9999,
      "fzfg": false,
      "metar_trigger": false,
      "taf_trigger": false,
      "metar": "METAR ENZV 050620Z 13010KT CAVOK 04/M04 Q1022 NOSIG",
      "taf": "TAF ENZV 050500Z 0506/0606 14012KT CAVOK"
    },
    {
      "icao": "EPGD",
      "alert": "OK",
      "vis_m": 2700,
      "fzfg": false,
      "metar_trigger": false,
      "taf_trigger": false,
      "metar": "METAR EPGD 050530Z 27011KT 2700 BR OVC002 01/00 Q1025",
      "taf": "TAF EPGD 050530Z 0506/0606 28008KT 3000 BR BKN003"
    },
    {
      "icao": "EPKK",
      "alert": "OK",
      "vis_m": 8000,
      "fzfg": false,
      "metar_trigger": false,
      "taf_trigger": false,
      "metar": "METAR EPKK 050530Z 23001KT 8000 MIFG NSC M02/M03 Q1027",
      "taf": "TAF EPKK 050530Z 0506/0606 23003KT CAVOK"
    },
    {
      "icao": "EPKT",
      "alert": "OK",
      "vis_m": 5000,
      "fzfg": false,
      "metar_trigger": false,
      "taf_trigger": false,
      "metar": "METAR EPKT 050530Z VRB01KT 5000 MIFG BR NSC M04/M04 Q1027",
      "taf": "TAF EPKT 050530Z 0506/0606 25003KT 2000 BR NSC"
    },
    {
      "icao": "EPLB",
      "alert": "OK",
      "vis_m": 8000,
      "fzfg": false,
      "metar_trigger": false,
      "taf_trigger": false,
      "metar": "METAR EPLB 050530Z 29007KT 8000 NSC M01/M02 Q1025",
      "taf": "TAF EPLB 050530Z 0506/0606 28010KT CAVOK"
    },
    {
      "icao": "EPMO",
      "alert": "OK",
      "vis_m": 9999,
      "fzfg": false,
      "metar_trigger": false,
      "taf_trigger": false,
      "metar": "METAR EPMO 050530Z 25006KT CAVOK M01/M02 Q1025",
      "taf": "TAF EPMO 050530Z 0506/0606 28007KT CAVOK"
    },
    {
      "icao": "EPPO",
      "alert": "OK",
      "vis_m": 9999,
      "fzfg": false,
      "metar_trigger": false,
      "taf_trigger": false,
      "metar": "METAR EPPO 050530Z 22001KT CAVOK M03/M04 Q1028",
      "taf": "TAF EPPO 050530Z 0506/0606 VRB02KT CAVOK"
    },
    {
      "icao": "EPRA",
      "alert": "OK",
      "vis_m": 9999,
      "fzfg": false,
      "metar_trigger": false,
      "taf_trigger": false,
      "metar": "METAR EPRA 050530Z 27006KT CAVOK M01/M03 Q1026",
      "taf": "TAF EPRA 050530Z 0506/0515 28008KT CAVOK"
    },
    {
      "icao": "EPRZ",
      "alert": "OK",
      "vis_m": 9999,
      "fzfg": false,
      "metar_trigger": false,
      "taf_trigger": false,
      "metar": "METAR EPRZ 050530Z 26007KT CAVOK M01/M02 Q1026",
      "taf": "TAF EPRZ 050530Z 0506/0606 27005KT CAVOK"
    },
    {
      "icao": "EPSC",
      "alert": "OK",
      "vis_m": 9999,
      "fzfg": false,
      "metar_trigger": false,
      "taf_trigger": false,
      "metar": "METAR EPSC 050530Z 06001KT CAVOK M04/M05 Q1028",
      "taf": "TAF EPSC 050530Z 0506/0606 VRB02KT CAVOK"
    },
    {
      "icao": "EPSY",
      "alert": "OK",
      "vis_m": 8000,
      "fzfg": false,
      "metar_trigger": false,
      "taf_trigger": false,
      "metar": "METAR EPSY 050530Z VRB02KT 8000 NSC M02/M02 Q1024",
      "taf": "TAF EPSY 050530Z 0506/0515 28005KT CAVOK"
    },
    {
      "icao": "EPWA",
      "alert": "OK",
      "vis_m": 9999,
      "fzfg": false,
      "metar_trigger": false,
      "taf_trigger": false,
      "metar": "METAR EPWA 050530Z 26004KT 9999 MIFG NSC M01/M02 Q1026 NOSIG",
      "taf": "TAF EPWA 050530Z 0506/0606 28006KT CAVOK"
    },
    {
      "icao": "EPWR",
      "alert": "OK",
      "vis_m": 8000,
      "fzfg": false,
      "metar_trigger": false,
      "taf_trigger": false,
      "metar": "METAR EPWR 050600Z 24001KT 8000 MIFG NSC M03/M04 Q1028",
      "taf": "TAF EPWR 050530Z 0506/0606 VRB02KT CAVOK"
    },
    {
      "icao": "ESGG",
      "alert": "OK",
      "vis_m": 9999,
      "fzfg": false,
      "metar_trigger": false,
      "taf_trigger": false,
      "metar": "METAR ESGG 050620Z 22006KT CAVOK M01/M02 Q1024",
      "taf": "TAF ESGG 050530Z 0506/0606 21006KT CAVOK"
    },
    {
      "icao": "ESKN",
      "alert": "OK",
      "vis_m": 9999,
      "fzfg": false,
      "metar_trigger": false,
      "taf_trigger": false,
      "metar": "METAR ESKN 050620Z 28005KT CAVOK M02/M02 Q1022",
      "taf": "TAF ESKN 050530Z 0506/0606 27007KT CAVOK"
    },
    {
      "icao": "ESMS",
      "alert": "WARNING",
      "vis_m": 200,
      "fzfg": true,
      "metar_trigger": false,
      "taf_trigger": true,
      "metar": "METAR ESMS 050620Z 06001KT 0200 R17/0700U R35/0600N FZFG NSC M04/M04 Q1026",
      "taf": "TAF ESMS 050527Z 0506/0606 30003KT 0100 FZFG NSC"
    },
    {
      "icao": "ESSA",
      "alert": "OK",
      "vis_m": 9999,
      "fzfg": false,
      "metar_trigger": false,
      "taf_trigger": false,
      "metar": "METAR ESSA 050620Z 25006KT CAVOK M00/M02 Q1021 NOSIG",
      "taf": "TAF ESSA 050530Z 0506/0606 26007KT CAVOK"
    },
    {
      "icao": "EYKA",
      "alert": "OK",
      "vis_m": 9999,
      "fzfg": false,
      "metar_trigger": false,
      "taf_trigger": false,
      "metar": "METAR EYKA 050620Z 28006KT 250V310 CAVOK M01/M02 Q1020",
      "taf": "TAF EYKA 050500Z 0506/0606 29010KT 8000 NSC"
    },
    {
      "icao": "EYPA",
      "alert": "OK",
      "vis_m": 9999,
      "fzfg": false,
      "metar_trigger": false,
      "taf_trigger": false,
      "metar": "METAR EYPA 050620Z VRB03KT CAVOK 02/00 Q1022",
      "taf": ""
    },
    {
      "icao": "EYVI",
      "alert": "OK",
      "vis_m": 9999,
      "fzfg": false,
      "metar_trigger": false,
      "taf_trigger": false,
      "metar": "METAR EYVI 050620Z 30009KT 9999 BKN005 M01/M02 Q1018 NOSIG",
      "taf": "TAF EYVI 050500Z 0506/0606 VRB05KT 9000 NSC"
    },
    {
      "icao": "GCFV",
      "alert": "OK",
      "vis_m": 9999,
      "fzfg": false,
      "metar_trigger": false,
      "taf_trigger": false,
      "metar": "METAR GCFV 050600Z 32008KT 9999 FEW040 16/12 Q1021",
      "taf": "TAF GCFV 050200Z 0503/0603 35005KT 9999 SCT030 TX20/0514Z TN15/0506Z"
    },
    {
      "icao": "GCLP",
      "alert": "OK",
      "vis_m": 9999,
      "fzfg": false,
      "metar_trigger": false,
      "taf_trigger": false,
      "metar": "METAR GCLP 050600Z 36012KT 9999 FEW025 16/13 Q1021 NOSIG",
      "taf": "TAF GCLP 050200Z 0503/0603 36013KT 9999 SCT025 TX21/0514Z TN15/0506Z"
    },
    {
      "icao": "GCTS",
      "alert": "OK",
      "vis_m": 9999,
      "fzfg": false,
      "metar_trigger": false,
      "taf_trigger": false,
      "metar": "METAR GCTS 050600Z 01006KT 9999 FEW030 16/09 Q1022 NOSIG",
      "taf": "TAF GCTS 050200Z 0503/0603 03009KT 9999 SCT025 TX22/0514Z TN15/0506Z"
    },
    {
      "icao": "GMAD",
      "alert": "OK",
      "vis_m": 8000,
      "fzfg": false,
      "metar_trigger": false,
      "taf_trigger": false,
      "metar": "METAR GMAD 050600Z 26010KT 8000 NSC 13/12 Q1016 NOSIG",
      "taf": "TAF GMAD 050500Z 0506/0612 25009KT 6000 FEW023 BKN100"
    },
    {
      "icao": "GMMN",
      "alert": "OK",
      "vis_m": 500,
      "fzfg": false,
      "metar_trigger": false,
      "taf_trigger": false,
      "metar": "METAR GMMN 050530Z 20006KT 0500 FG BKN001 07/06 Q1017 NOSIG",
      "taf": "TAF GMMN 050500Z 0506/0612 20004KT 0800 FG BKN001"
    },
    {
      "icao": "GMMX",
      "alert": "OK",
      "vis_m": 6000,
      "fzfg": false,
      "metar_trigger": false,
      "taf_trigger": false,
      "metar": "METAR GMMX 050530Z 24006KT 6000 OVC004 12/11 Q1017 TEMPO 1500 RA",
      "taf": "TAF GMMX 050500Z 0506/0612 28006KT 6000 OVC004"
    },
    {
      "icao": "HEGN",
      "alert": "OK",
      "vis_m": 9999,
      "fzfg": false,
      "metar_trigger": false,
      "taf_trigger": false,
      "metar": "METAR HEGN 050600Z 30012KT CAVOK 17/06 Q1021 NOSIG",
      "taf": "TAF HEGN 050500Z 0506/0612 32016KT CAVOK"
    },
    {
      "icao": "HEMA",
      "alert": "OK",
      "vis_m": null,
      "fzfg": false,
      "metar_trigger": false,
      "taf_trigger": false,
      "metar": "",
      "taf": "TAF HEMA 050500Z 0506/0612 33008G20KT CAVOK"
    },
    {
      "icao": "HESH",
      "alert": "OK",
      "vis_m": 9999,
      "fzfg": false,
      "metar_trigger": false,
      "taf_trigger": false,
      "metar": "METAR HESH 050600Z 35014KT CAVOK 19/05 Q1021 NOSIG",
      "taf": "TAF HESH 050500Z 0506/0612 34013KT CAVOK"
    },
    {
      "icao": "HESX",
      "alert": "OK",
      "vis_m": 3000,
      "fzfg": false,
      "metar_trigger": false,
      "taf_trigger": false,
      "metar": "METAR HESX 050600Z 32002KT 3000 BR NSC 10/08 Q1023 NOSIG",
      "taf": "TAF HESX 050500Z 0506/0612 02009KT 9999 FEW020"
    },
    {
      "icao": "LATI",
      "alert": "OK",
      "vis_m": 4700,
      "fzfg": false,
      "metar_trigger": false,
      "taf_trigger": false,
      "metar": "METAR LATI 050620Z 11003KT 4700 -RA BR FEW013 BKN068 10/07 Q1026 BECMG 9999 NSW",
      "taf": "TAF LATI 050500Z 0506/0606 VRB05KT 9999 BKN080 TX16/0512Z TN04/0604Z"
    },
    {
      "icao": "LBPD",
      "alert": "OK",
      "vis_m": 9999,
      "fzfg": false,
      "metar_trigger": false,
      "taf_trigger": false,
      "metar": "METAR LBPD 050600Z AUTO 00000KT 9999 BKN071/// OVC110/// 06/05 Q1023 NOSIG",
      "taf": "TAF LBPD 050500Z 0506/0606 VRB03KT 9999 BKN070"
    },
    {
      "icao": "LBSF",
      "alert": "OK",
      "vis_m": 4200,
      "fzfg": false,
      "metar_trigger": false,
      "taf_trigger": false,
      "metar": "METAR LBSF 050600Z 07001KT 4200 -RA BR FEW018 BKN031 OVC040 04/03 Q1024 TEMPO 3000 RA",
      "taf": "TAF LBSF 050500Z 0506/0606 VRB03KT 9999 SCT030 OVC050"
    },
    {
      "icao": "LBWN",
      "alert": "OK",
      "vis_m": 2000,
      "fzfg": false,
      "metar_trigger": false,
      "taf_trigger": false,
      "metar": "METAR LBWN 050600Z 28003KT 2000 BR NSC 04/04 Q1022 TEMPO 1500 BR",
      "taf": "TAF LBWN 050500Z 0506/0606 VRB04KT 9999 SCT040"
    },
    {
      "icao": "LCLK",
      "alert": "OK",
      "vis_m": 9999,
      "fzfg": false,
      "metar_trigger": false,
      "taf_trigger": false,
      "metar": "METAR LCLK 050600Z 31005KT 9999 FEW030 14/06 Q1023 NOSIG",
      "taf": "TAF LCLK 050530Z 0506/0606 32008KT 9999 FEW040"
    },
    {
      "icao": "LCPH",
      "alert": "OK",
      "vis_m": 9999,
      "fzfg": false,
      "metar_trigger": false,
      "taf_trigger": false,
      "metar": "METAR LCPH 050600Z 16004KT CAVOK 14/01 Q1023 NOSIG",
      "taf": "TAF LCPH 050530Z 0506/0606 05008KT 9999 FEW030"
    },
    {
      "icao": "LEAL",
      "alert": "OK",
      "vis_m": 9999,
      "fzfg": false,
      "metar_trigger": false,
      "taf_trigger": false,
      "metar": "METAR LEAL 050600Z 28006KT CAVOK 14/10 Q1010 NOSIG",
      "taf": "TAF LEAL 050500Z 0506/0606 VRB04KT 9999 SCT030 TX17/0513Z TN10/0506Z"
    },
    {
      "icao": "LEBB",
      "alert": "OK",
      "vis_m": 9999,
      "fzfg": false,
      "metar_trigger": false,
      "taf_trigger": false,
      "metar": "METAR LEBB 050600Z 12004KT 080V170 CAVOK 15/09 Q1014 NOSIG",
      "taf": "TAF LEBB 050500Z 0506/0606 13009KT CAVOK TX20/0515Z TN11/0606Z"
    },
    {
      "icao": "LEBL",
      "alert": "OK",
      "vis_m": 6000,
      "fzfg": false,
      "metar_trigger": false,
      "taf_trigger": false,
      "metar": "METAR LEBL 050600Z 04015G25KT 6000 BKN018 BKN024 15/11 Q1015 NOSIG",
      "taf": "TAF LEBL 050500Z 0506/0606 07015KT 9999 SCT020 TX15/0512Z TN13/0506Z"
    },
    {
      "icao": "LECH",
      "alert": "OK",
      "vis_m": 4900,
      "fzfg": false,
      "metar_trigger": false,
      "taf_trigger": false,
      "metar": "METAR LECH 050600Z AUTO 03008KT 350V060 4900 -RA BR BKN005 OVC010 11/11 Q1014 RERA",
      "taf": ""
    },
    {
      "icao": "LEMD",
      "alert": "OK",
      "vis_m": 9999,
      "fzfg": false,
      "metar_trigger": false,
      "taf_trigger": false,
      "metar": "METAR LEMD 050600Z 36003KT 330V050 9999 BKN076 09/08 Q1015 NOSIG",
      "taf": "TAF LEMD 050500Z 0506/0612 VRB04KT 9999 FEW060 TX16/0514Z TN08/0507Z"
    },
    {
      "icao": "LEMG",
      "alert": "OK",
      "vis_m": 9999,
      "fzfg": false,
      "metar_trigger": false,
      "taf_trigger": false,
      "metar": "METAR LEMG 050600Z 31007KT CAVOK 05/04 Q1014 NOSIG",
      "taf": "TAF LEMG 050500Z 0506/0606 30012KT CAVOK TX19/0514Z TN09/0507Z"
    },
    {
      "icao": "LEVC",
      "alert": "OK",
      "vis_m": 6000,
      "fzfg": false,
      "metar_trigger": false,
      "taf_trigger": false,
      "metar": "SPECI LEVC 050610Z 04008KT 340V090 6000 RA BKN008 FEW020TCU 13/12 Q1013 NOSIG",
      "taf": "TAF LEVC 050500Z 0506/0606 04010KT 9999 OVC020 TX14/0513Z TN11/0506Z"
    },
    {
      "icao": "LEXJ",
      "alert": "OK",
      "vis_m": 3000,
      "fzfg": false,
      "metar_trigger": false,
      "taf_trigger": false,
      "metar": "METAR LEXJ 050600Z 29013KT 3000 BR BKN004 10/08 Q1013",
      "taf": ""
    },
    {
      "icao": "LEZG",
      "alert": "OK",
      "vis_m": 9000,
      "fzfg": false,
      "metar_trigger": false,
      "taf_trigger": false,
      "metar": "METAR LEZG 050600Z 09003KT 9000 OVC060 11/11 Q1016 NOSIG",
      "taf": "TAF LEZG 050500Z 0506/0606 VRB04KT 9999 BKN030 TX15/0514Z TN10/0506Z"
    },
    {
      "icao": "LEZL",
      "alert": "OK",
      "vis_m": 9000,
      "fzfg": false,
      "metar_trigger": false,
      "taf_trigger": false,
      "metar": "METAR LEZL 050600Z 10003KT 9000 SCT025 BKN030 09/09 Q1015 NOSIG",
      "taf": "TAF LEZL 050200Z 0503/0603 22005KT 9999 FEW015 SCT040 TX18/0515Z TN09/0507Z"
    },
    {
      "icao": "LFBD",
      "alert": "OK",
      "vis_m": 9999,
      "fzfg": false,
      "metar_trigger": false,
      "taf_trigger": false,
      "metar": "METAR LFBD 050600Z AUTO 15011KT CAVOK 11/09 Q1015 NOSIG",
      "taf": "TAF LFBD 050500Z 0506/0612 13010KT CAVOK TX20/0514Z TN09/0606Z"
    },
    {
      "icao": "LFLL",
      "alert": "OK",
      "vis_m": 9999,
      "fzfg": false,
      "metar_trigger": false,
      "taf_trigger": false,
      "metar": "METAR LFLL 050600Z 15008KT CAVOK 09/04 Q1019 NOSIG",
      "taf": "TAF LFLL 050500Z 0506/0612 15006KT CAVOK"
    },
    {
      "icao": "LFLS",
      "alert": "OK",
      "vis_m": 9999,
      "fzfg": false,
      "metar_trigger": false,
      "taf_trigger": false,
      "metar": "METAR LFLS 050600Z AUTO 09010KT CAVOK 06/03 Q1020 NOSIG",
      "taf": "TAF LFLS 050200Z 0503/0603 09008KT CAVOK"
    },
    {
      "icao": "LFMN",
      "alert": "OK",
      "vis_m": 9999,
      "fzfg": false,
      "metar_trigger": false,
      "taf_trigger": false,
      "metar": "METAR LFMN 050600Z 34010KT 9999 FEW110 OVC230 12/04 Q1021 NOSIG",
      "taf": "TAF LFMN 050200Z 0503/0609 33010KT CAVOK"
    },
    {
      "icao": "LFOB",
      "alert": "OK",
      "vis_m": 9999,
      "fzfg": false,
      "metar_trigger": false,
      "taf_trigger": false,
      "metar": "METAR LFOB 050600Z AUTO 06004KT CAVOK 02/01 Q1018 NOSIG",
      "taf": ""
    },
    {
      "icao": "LFPO",
      "alert": "OK",
      "vis_m": 9999,
      "fzfg": false,
      "metar_trigger": false,
      "taf_trigger": false,
      "metar": "METAR LFPO 050600Z 00000KT CAVOK 06/03 Q1018 NOSIG",
      "taf": "TAF LFPO 050500Z 0506/0612 VRB03KT CAVOK"
    },
    {
      "icao": "LFSB",
      "alert": "OK",
      "vis_m": 9999,
      "fzfg": false,
      "metar_trigger": false,
      "taf_trigger": false,
      "metar": "METAR LFSB 050600Z AUTO 00000KT CAVOK 01/M00 Q1022 NOSIG",
      "taf": "TAF LFSB 050500Z 0506/0606 10004KT CAVOK"
    },
    {
      "icao": "LGAV",
      "alert": "OK",
      "vis_m": 9999,
      "fzfg": false,
      "metar_trigger": false,
      "taf_trigger": false,
      "metar": "METAR LGAV 050620Z 00000KT CAVOK 08/03 Q1025 NOSIG",
      "taf": "TAF LGAV 050500Z 0506/0606 VRB03KT 9999 FEW020"
    },
    {
      "icao": "LGTS",
      "alert": "OK",
      "vis_m": 9999,
      "fzfg": false,
      "metar_trigger": false,
      "taf_trigger": false,
      "metar": "METAR LGTS 050620Z VRB03KT 9999 FEW025 07/06 Q1025 NOSIG",
      "taf": ""
    },
    {
      "icao": "LHBP",
      "alert": "OK",
      "vis_m": 6000,
      "fzfg": false,
      "metar_trigger": false,
      "taf_trigger": false,
      "metar": "METAR LHBP 050600Z 34004KT 6000 NSC 04/03 Q1025 TEMPO TL0700 4000 BR",
      "taf": "TAF LHBP 050515Z 0506/0606 34005KT 4000 BR NSC"
    },
    {
      "icao": "LHDC",
      "alert": "OK",
      "vis_m": 6000,
      "fzfg": false,
      "metar_trigger": false,
      "taf_trigger": false,
      "metar": "METAR LHDC 050515Z AUTO 00000KT 6000 NSC 03/02 Q1024 NOSIG",
      "taf": "TAF LHDC 050515Z 0506/0515 03003KT CAVOK"
    },
    {
      "icao": "LIBD",
      "alert": "OK",
      "vis_m": 2000,
      "fzfg": false,
      "metar_trigger": false,
      "taf_trigger": false,
      "metar": "METAR LIBD 050620Z 27004KT 2000 BR FEW005 BKN010 12/11 Q1026",
      "taf": "TAF LIBD 050500Z 0506/0606 VRB05KT 6000 SCT015"
    },
    {
      "icao": "LIBG",
      "alert": "OK",
      "vis_m": null,
      "fzfg": false,
      "metar_trigger": false,
      "taf_trigger": false,
      "metar": "",
      "taf": ""
    },
    {
      "icao": "LIBP",
      "alert": "OK",
      "vis_m": 2900,
      "fzfg": false,
      "metar_trigger": false,
      "taf_trigger": false,
      "metar": "METAR LIBP 050620Z AUTO 20002KT 2900 BR OVC024/// 11/11 Q1027",
      "taf": "TAF LIBP 050500Z 0506/0606 VRB05KT 3000 BR BKN015"
    },
    {
      "icao": "LIBR",
      "alert": "OK",
      "vis_m": 3000,
      "fzfg": false,
      "metar_trigger": false,
      "taf_trigger": false,
      "metar": "METAR LIBR 050620Z 24004KT 3000 BR FEW010 10/10 Q1025",
      "taf": "TAF LIBR 050500Z 0506/0606 VRB05KT 4000 BR SCT020"
    },
    {
      "icao": "LICA",
      "alert": "OK",
      "vis_m": 9999,
      "fzfg": false,
      "metar_trigger": false,
      "taf_trigger": false,
      "metar": "METAR LICA 050620Z AUTO 05012KT 9999 NCD 13/10 Q1024",
      "taf": "TAF LICA 050500Z 0506/0606 06013KT CAVOK"
    },
    {
      "icao": "LICC",
      "alert": "OK",
      "vis_m": 7000,
      "fzfg": false,
      "metar_trigger": false,
      "taf_trigger": false,
      "metar": "METAR LICC 050620Z 25004KT 7000 FEW020 BKN030 09/07 Q1025",
      "taf": "TAF LICC 050500Z 0506/0606 VRB05KT 9999 SCT020"
    },
    {
      "icao": "LICJ",
      "alert": "OK",
      "vis_m": 9999,
      "fzfg": false,
      "metar_trigger": false,
      "taf_trigger": false,
      "metar": "METAR LICJ 050620Z VRB01KT CAVOK 12/09 Q1022",
      "taf": "TAF LICJ 050500Z 0506/0606 VRB05KT 9999 SCT030"
    },
    {
      "icao": "LIMC",
      "alert": "OK",
      "vis_m": 900,
      "fzfg": false,
      "metar_trigger": false,
      "taf_trigger": false,
      "metar": "METAR LIMC 050620Z VRB02KT 0900 R35R/2000D R17L/P2000N R35L/P2000N FG BKN003 08/08 Q1027 NOSIG",
      "taf": "TAF LIMC 050500Z 0506/0612 VRB05KT 7000 SCT030"
    },
    {
      "icao": "LIME",
      "alert": "OK",
      "vis_m": 100,
      "fzfg": false,
      "metar_trigger": false,
      "taf_trigger": false,
      "metar": "METAR LIME 050620Z 10004KT 0100 R28/0250N FG VV001 08/08 Q1027 NOSIG",
      "taf": "TAF LIME 050500Z 0506/0606 VRB05KT 7000 SCT025"
    },
    {
      "icao": "LIMF",
      "alert": "OK",
      "vis_m": 8000,
      "fzfg": false,
      "metar_trigger": false,
      "taf_trigger": false,
      "metar": "METAR LIMF 050620Z VRB01KT 8000 BKN030 10/05 Q1026",
      "taf": "TAF LIMF 050500Z 0506/0606 VRB04KT 7000 SCT030"
    },
    {
      "icao": "LIMJ",
      "alert": "OK",
      "vis_m": 9999,
      "fzfg": false,
      "metar_trigger": false,
      "taf_trigger": false,
      "metar": "METAR LIMJ 050620Z 03018KT CAVOK 12/07 Q1024",
      "taf": "TAF LIMJ 050500Z 0506/0606 36013KT 9999 FEW040"
    },
    {
      "icao": "LIPE",
      "alert": "OK",
      "vis_m": 3000,
      "fzfg": false,
      "metar_trigger": false,
      "taf_trigger": false,
      "metar": "METAR LIPE 050620Z 02004KT 3000 BR BKN018 08/07 Q1027",
      "taf": "TAF LIPE 050500Z 0506/0606 VRB04KT 6000 SCT015"
    },
    {
      "icao": "LIPH",
      "alert": "OK",
      "vis_m": 1000,
      "fzfg": false,
      "metar_trigger": false,
      "taf_trigger": false,
      "metar": "METAR LIPH 050620Z 23004KT 1000 R07/P2000N BR BKN015 09/09 Q1027",
      "taf": "TAF LIPH 050500Z 0506/0606 VRB04KT 2000 BR BKN016"
    },
    {
      "icao": "LIPQ",
      "alert": "OK",
      "vis_m": 2000,
      "fzfg": false,
      "metar_trigger": false,
      "taf_trigger": false,
      "metar": "METAR LIPQ 050620Z AUTO 10003KT 2000 BR OVC003/// 07/07 Q1027",
      "taf": "TAF LIPQ 050500Z 0506/0606 VRB05KT 2000 BR SCT015"
    },
    {
      "icao": "LIPR",
      "alert": "OK",
      "vis_m": 4000,
      "fzfg": false,
      "metar_trigger": false,
      "taf_trigger": false,
      "metar": "METAR LIPR 050620Z 30004KT 4000 BR BKN015 BKN020 10/09 Q1027",
      "taf": "TAF LIPR 050500Z 0506/0606 VRB05KT 6000 BKN014"
    },
    {
      "icao": "LIPX",
      "alert": "OK",
      "vis_m": 1800,
      "fzfg": false,
      "metar_trigger": false,
      "taf_trigger": false,
      "metar": "METAR LIPX 050620Z 21002KT 1800 BR BKN010 08/08 Q1028",
      "taf": "TAF LIPX 050500Z 0506/0606 VRB05KT 5000 BR FEW020"
    },
    {
      "icao": "LIPY",
      "alert": "OK",
      "vis_m": 5000,
      "fzfg": false,
      "metar_trigger": false,
      "taf_trigger": false,
      "metar": "METAR LIPY 050620Z AUTO 23002KT 5000 BR SCT011/// OVC032/// 11/11 Q1027",
      "taf": "TAF LIPY 050500Z 0506/0606 VRB05KT 7000 SCT015"
    },
    {
      "icao": "LIPZ",
      "alert": "OK",
      "vis_m": 4000,
      "fzfg": false,
      "metar_trigger": false,
      "taf_trigger": false,
      "metar": "METAR LIPZ 050620Z 30004KT 270V040 4000 BR BKN015 08/08 Q1027 BECMG 2000 BR",
      "taf": ""
    },
    {
      "icao": "LIRF",
      "alert": "OK",
      "vis_m": 6000,
      "fzfg": false,
      "metar_trigger": false,
      "taf_trigger": false,
      "metar": "METAR LIRF 050620Z 08005KT 6000 NSC 10/09 Q1024 NOSIG",
      "taf": "TAF LIRF 050500Z 0506/0612 05006KT 9000 NSC"
    },
    {
      "icao": "LIRN",
      "alert": "OK",
      "vis_m": 5000,
      "fzfg": false,
      "metar_trigger": false,
      "taf_trigger": false,
      "metar": "METAR LIRN 050620Z VRB01KT 5000 BR NSC 11/09 Q1024 NOSIG",
      "taf": "TAF LIRN 050500Z 0506/0606 VRB05KT 7000 NSC"
    },
    {
      "icao": "LIRP",
      "alert": "OK",
      "vis_m": 9999,
      "fzfg": false,
      "metar_trigger": false,
      "taf_trigger": false,
      "metar": "METAR LIRP 050615Z 10006KT CAVOK 08/08 Q1024 NOSIG",
      "taf": "TAF LIRP 050500Z 0506/0606 12005KT CAVOK"
    },
    {
      "icao": "LIRZ",
      "alert": "OK",
      "vis_m": 9999,
      "fzfg": false,
      "metar_trigger": false,
      "taf_trigger": false,
      "metar": "METAR LIRZ 050620Z AUTO 09003KT 9999 NCD 05/05 Q1025",
      "taf": "TAF LIRZ 050500Z 0506/0606 VRB05KT 9999 FEW060"
    },
    {
      "icao": "LJLJ",
      "alert": "OK",
      "vis_m": 9999,
      "fzfg": false,
      "metar_trigger": false,
      "taf_trigger": false,
      "metar": "METAR LJLJ 050600Z VRB02KT CAVOK M01/M02 Q1026 NOSIG",
      "taf": "TAF LJLJ 050500Z 0506/0606 VRB02KT CAVOK"
    },
    {
      "icao": "LKMT",
      "alert": "OK",
      "vis_m": 8000,
      "fzfg": false,
      "metar_trigger": false,
      "taf_trigger": false,
      "metar": "METAR LKMT 050600Z VRB01KT 8000 NSC M01/M01 Q1028 NOSIG",
      "taf": "TAF LKMT 050500Z 0506/0606 03003KT CAVOK"
    },
    {
      "icao": "LKPR",
      "alert": "OK",
      "vis_m": 7000,
      "fzfg": false,
      "metar_trigger": false,
      "taf_trigger": false,
      "metar": "METAR LKPR 050600Z VRB01KT 7000 NSC 01/M00 Q1027 NOSIG",
      "taf": "TAF LKPR 050500Z 0506/0612 VRB02KT 8000 NSC"
    },
    {
      "icao": "LLBG",
      "alert": "OK",
      "vis_m": 9999,
      "fzfg": false,
      "metar_trigger": false,
      "taf_trigger": false,
      "metar": "METAR LLBG 050620Z VRB02KT CAVOK 15/10 Q1023 NOSIG",
      "taf": "TAF LLBG 050501Z 0506/0606 VRB03KT 9999 FEW045 TX21/0512Z TN08/0604Z"
    },
    {
      "icao": "LMML",
      "alert": "OK",
      "vis_m": 9999,
      "fzfg": false,
      "metar_trigger": false,
      "taf_trigger": false,
      "metar": "METAR LMML 050615Z 11009KT 9999 FEW016 14/12 Q1023 NOSIG",
      "taf": "TAF LMML 050500Z 0506/0606 13015KT 9999 FEW017"
    },
    {
      "icao": "LOWW",
      "alert": "OK",
      "vis_m": 9000,
      "fzfg": false,
      "metar_trigger": false,
      "taf_trigger": false,
      "metar": "METAR LOWW 050620Z 32005KT 9000 NSC 04/02 Q1027 TEMPO 4000 BR",
      "taf": ""
    },
    {
      "icao": "LPFR",
      "alert": "OK",
      "vis_m": 9999,
      "fzfg": false,
      "metar_trigger": false,
      "taf_trigger": false,
      "metar": "METAR LPFR 050600Z 35004KT 9999 FEW015 SCT048 12/11 Q1014",
      "taf": "TAF LPFR 050500Z 0506/0606 30007KT 9999 SCT012"
    },
    {
      "icao": "LPMA",
      "alert": "OK",
      "vis_m": 9999,
      "fzfg": false,
      "metar_trigger": false,
      "taf_trigger": false,
      "metar": "METAR LPMA 050600Z 27003KT 230V310 9999 FEW015 14/09 Q1023",
      "taf": "TAF LPMA 050500Z 0506/0606 VRB05KT 9999 SCT015"
    },
    {
      "icao": "LPPR",
      "alert": "OK",
      "vis_m": 9999,
      "fzfg": false,
      "metar_trigger": false,
      "taf_trigger": false,
      "metar": "METAR LPPR 050600Z 32003KT 9999 BKN012 BKN015 12/10 Q1015",
      "taf": "TAF LPPR 050500Z 0506/0606 VRB02KT 9999 SCT012"
    },
    {
      "icao": "LPPS",
      "alert": "OK",
      "vis_m": 8000,
      "fzfg": false,
      "metar_trigger": false,
      "taf_trigger": false,
      "metar": "METAR LPPS 050600Z 34012KT 8000 -RADZ SCT008 BKN025 14/14 Q1023",
      "taf": "TAF LPPS 050500Z 0506/0612 33008KT 9999 SCT010 BKN030"
    },
    {
      "icao": "LPPT",
      "alert": "OK",
      "vis_m": 9999,
      "fzfg": false,
      "metar_trigger": false,
      "taf_trigger": false,
      "metar": "METAR LPPT 050600Z 32009KT 290V350 9999 BKN012 12/10 Q1015",
      "taf": "TAF LPPT 050500Z 0506/0612 31012KT 9999 FEW012"
    },
    {
      "icao": "LQBK",
      "alert": "OK",
      "vis_m": 9999,
      "fzfg": false,
      "metar_trigger": false,
      "taf_trigger": false,
      "metar": "METAR LQBK 050600Z 15006KT CAVOK 04/02 Q1026 NOSIG",
      "taf": "TAF LQBK 050500Z 0506/0606 29005KT CAVOK TX16/0514Z TN02/0605Z"
    },
    {
      "icao": "LQSA",
      "alert": "OK",
      "vis_m": 8000,
      "fzfg": false,
      "metar_trigger": false,
      "taf_trigger": false,
      "metar": "METAR LQSA 050600Z 31002KT 8000 1000N R11/1100U BCFG SCT008 SCT045 04/04 Q1026 BECMG 2000 BR BKN003",
      "taf": "TAF LQSA 050500Z 0506/0606 30006KT 2000 BR BKN004 TX14/0514Z TNM01/0605Z"
    },
    {
      "icao": "LQTZ",
      "alert": "OK",
      "vis_m": 7000,
      "fzfg": false,
      "metar_trigger": false,
      "taf_trigger": false,
      "metar": "METAR LQTZ 050600Z 00000KT 7000 BKN042 05/05 Q1026",
      "taf": "TAF LQTZ 050500Z 0506/0606 VRB02KT 9999 SCT050 TX14/0514Z TN01/0605Z"
    },
    {
      "icao": "LRBC",
      "alert": "OK",
      "vis_m": 9999,
      "fzfg": false,
      "metar_trigger": false,
      "taf_trigger": false,
      "metar": "METAR LRBC 050600Z 30004KT 240V360 CAVOK 03/01 Q1023",
      "taf": "TAF LRBC 050500Z 0506/0515 36008KT CAVOK"
    },
    {
      "icao": "LRBS",
      "alert": "OK",
      "vis_m": 4000,
      "fzfg": false,
      "metar_trigger": false,
      "taf_trigger": false,
      "metar": "METAR LRBS 050600Z 28004KT 250V350 4000 BR NSC 06/04 Q1022 NOSIG",
      "taf": "TAF LRBS 050500Z 0506/0606 VRB04KT 3000 BR NSC"
    },
    {
      "icao": "LRBV",
      "alert": "OK",
      "vis_m": 8000,
      "fzfg": false,
      "metar_trigger": false,
      "taf_trigger": false,
      "metar": "METAR LRBV 050600Z 02004KT 8000 FEW058 SCT075 02/01 Q1023",
      "taf": "TAF LRBV 050500Z 0506/0515 VRB04KT 9999 SCT045"
    },
    {
      "icao": "LRCL",
      "alert": "OK",
      "vis_m": 9999,
      "fzfg": false,
      "metar_trigger": false,
      "taf_trigger": false,
      "metar": "METAR LRCL 050600Z VRB01KT 9999 FEW047 05/01 Q1023",
      "taf": "TAF LRCL 050500Z 0506/0515 VRB04KT CAVOK"
    },
    {
      "icao": "LRCV",
      "alert": "OK",
      "vis_m": 2500,
      "fzfg": false,
      "metar_trigger": false,
      "taf_trigger": false,
      "metar": "METAR LRCV 050600Z 32004KT 2500 BR NSC 04/04 Q1023",
      "taf": "TAF LRCV 050500Z 0506/0515 31006KT 1500 BR NSC"
    },
    {
      "icao": "LRIA",
      "alert": "OK",
      "vis_m": 9999,
      "fzfg": false,
      "metar_trigger": false,
      "taf_trigger": false,
      "metar": "METAR LRIA 050600Z 29010KT 260V320 CAVOK 05/01 Q1023",
      "taf": "TAF LRIA 050500Z 0506/0515 31008KT CAVOK"
    },
    {
      "icao": "LROP",
      "alert": "OK",
      "vis_m": 4000,
      "fzfg": false,
      "metar_trigger": false,
      "taf_trigger": false,
      "metar": "METAR LROP 050600Z 30004KT 280V340 4000 BR NSC 04/04 Q1022 NOSIG",
      "taf": "TAF LROP 050500Z 0506/0606 VRB04KT 3000 BR NSC"
    },
    {
      "icao": "LRSB",
      "alert": "OK",
      "vis_m": 9999,
      "fzfg": false,
      "metar_trigger": false,
      "taf_trigger": false,
      "metar": "METAR LRSB 050600Z 28003KT 9999 FEW043 BKN060 06/02 Q1024 NOSIG",
      "taf": "TAF LRSB 050500Z 0506/0606 VRB04KT 9999 SCT060 BKN080"
    },
    {
      "icao": "LRSM",
      "alert": "OK",
      "vis_m": 9999,
      "fzfg": false,
      "metar_trigger": false,
      "taf_trigger": false,
      "metar": "METAR LRSM 050600Z 24004KT CAVOK 05/03 Q1024",
      "taf": "TAF LRSM 050500Z 0506/0515 VRB04KT 9999 SCT045"
    },
    {
      "icao": "LRSV",
      "alert": "OK",
      "vis_m": 9999,
      "fzfg": false,
      "metar_trigger": false,
      "taf_trigger": false,
      "metar": "METAR LRSV 050600Z 30006KT 280V340 CAVOK 04/M01 Q1022",
      "taf": "TAF LRSV 050500Z 0506/0515 32012KT 9999 SCT040"
    },
    {
      "icao": "LRTM",
      "alert": "OK",
      "vis_m": 6000,
      "fzfg": false,
      "metar_trigger": false,
      "taf_trigger": false,
      "metar": "METAR LRTM 050600Z 09003KT 6000 FEW005 02/00 Q1024",
      "taf": "TAF LRTM 050500Z 0506/0515 VRB04KT CAVOK"
    },
    {
      "icao": "LRTR",
      "alert": "OK",
      "vis_m": 9999,
      "fzfg": false,
      "metar_trigger": false,
      "taf_trigger": false,
      "metar": "METAR LRTR 050600Z 08003KT CAVOK 03/03 Q1025 NOSIG",
      "taf": "TAF LRTR 050500Z 0506/0606 VRB04KT 9999 SCT045"
    },
    {
      "icao": "LTAC",
      "alert": "OK",
      "vis_m": 9999,
      "fzfg": false,
      "metar_trigger": false,
      "taf_trigger": false,
      "metar": "METAR LTAC 050620Z VRB02KT CAVOK M01/M07 Q1025 NOSIG RMK RWY21C 00000KT RWY03L VRB02KT RWY21R 00000KT RWY03R VRB01KT RWY21L VRB02KT",
      "taf": "TAF LTAC 050440Z 0506/0606 VRB02KT CAVOK"
    },
    {
      "icao": "LTFM",
      "alert": "OK",
      "vis_m": 7000,
      "fzfg": false,
      "metar_trigger": false,
      "taf_trigger": false,
      "metar": "METAR LTFM 050620Z 19007KT 7000 NSC 06/04 Q1024 NOSIG RMK RWY17L 20007KT RWY34L 19005KT RWY16R 00000KT RWY36 20007KT RWY18 20010KT",
      "taf": "TAF LTFM 050440Z 0506/0612 20010KT CAVOK"
    },
    {
      "icao": "LUKK",
      "alert": "OK",
      "vis_m": 9999,
      "fzfg": false,
      "metar_trigger": false,
      "taf_trigger": false,
      "metar": "METAR LUKK 050600Z 36006KT CAVOK 05/01 Q1021 NOSIG",
      "taf": "TAF LUKK 050518Z 0506/0606 33012KT CAVOK"
    },
    {
      "icao": "LWOH",
      "alert": "OK",
      "vis_m": 9999,
      "fzfg": false,
      "metar_trigger": false,
      "taf_trigger": false,
      "metar": "METAR LWOH 050620Z 31003KT 270V010 9999 BKN050 05/03 Q1025",
      "taf": "TAF LWOH 050530Z 0506/0606 VRB02KT 9999 FEW040 BKN060"
    },
    {
      "icao": "LWSK",
      "alert": "OK",
      "vis_m": 9999,
      "fzfg": false,
      "metar_trigger": false,
      "taf_trigger": false,
      "metar": "METAR LWSK 050620Z 17003KT 130V200 9999 BKN060 07/06 Q1025 NOSIG",
      "taf": "TAF LWSK 050530Z 0506/0606 VRB02KT 9999 SCT050 BKN070"
    },
    {
      "icao": "LYBE",
      "alert": "OK",
      "vis_m": 5000,
      "fzfg": false,
      "metar_trigger": false,
      "taf_trigger": false,
      "metar": "METAR LYBE 050600Z 22003KT 160V260 5000 BR SCT043 07/04 Q1025 BECMG 8000 NSW",
      "taf": "TAF LYBE 050500Z 0506/0606 29007KT 9999 SCT040 TX15/0513Z TN02/0606Z"
    },
    {
      "icao": "LYNI",
      "alert": "OK",
      "vis_m": 3000,
      "fzfg": false,
      "metar_trigger": false,
      "taf_trigger": false,
      "metar": "METAR LYNI 050600Z 00000KT 3000 BR BKN004 OVC013 08/08 Q1025 BECMG 5000 BKN010 BKN030",
      "taf": ""
    },
    {
      "icao": "LYPG",
      "alert": "OK",
      "vis_m": 6000,
      "fzfg": false,
      "metar_trigger": false,
      "taf_trigger": false,
      "metar": "METAR LYPG 050600Z 23002KT 6000 FEW050 BKN070 10/09 Q1025 NOSIG",
      "taf": "TAF LYPG 050500Z 0506/0606 VRB02KT 9999 FEW030 SCT040 TX17/0514Z TN06/0605Z"
    },
    {
      "icao": "LZIB",
      "alert": "OK",
      "vis_m": 2800,
      "fzfg": false,
      "metar_trigger": false,
      "taf_trigger": false,
      "metar": "METAR LZIB 050600Z 22004KT 2800 0600N R31/1300U R22/0400N BR BCFG NSC 03/02 Q1026 NOSIG",
      "taf": ""
    },
    {
      "icao": "LZKZ",
      "alert": "OK",
      "vis_m": 9999,
      "fzfg": false,
      "metar_trigger": false,
      "taf_trigger": false,
      "metar": "METAR LZKZ 050600Z 05004KT 020V080 CAVOK 05/M00 Q1025 NOSIG",
      "taf": "TAF LZKZ 050515Z 0506/0606 03008KT CAVOK"
    },
    {
      "icao": "LZTT",
      "alert": "OK",
      "vis_m": 9999,
      "fzfg": false,
      "metar_trigger": false,
      "taf_trigger": false,
      "metar": "METAR LZTT 050600Z 30003KT 9999 FEW012 M03/M04 Q1024 NOSIG",
      "taf": "TAF LZTT 050515Z 0506/0606 VRB02KT 9999 SCT025"
    },
    {
      "icao": "OEJN",
      "alert": "OK",
      "vis_m": 9999,
      "fzfg": false,
      "metar_trigger": false,
      "taf_trigger": false,
      "metar": "METAR OEJN 050600Z 03007KT CAVOK 26/M04 Q1014 NOSIG",
      "taf": "TAF OEJN 050500Z 0506/0612 05010KT 7000 FEW040"
    },
    {
      "icao": "OEMA",
      "alert": "OK",
      "vis_m": 9999,
      "fzfg": false,
      "metar_trigger": false,
      "taf_trigger": false,
      "metar": "METAR OEMA 050600Z 07009KT CAVOK 17/M07 Q1023 NOSIG",
      "taf": "TAF OEMA 050500Z 0506/0612 08012KT CAVOK"
    },
    {
      "icao": "OJAI",
      "alert": "OK",
      "vis_m": 5000,
      "fzfg": false,
      "metar_trigger": false,
      "taf_trigger": false,
      "metar": "METAR OJAI 050600Z 26006KT 5000 HZ FEW030 11/05 Q1023 NOSIG",
      "taf": "TAF OJAI 050500Z 0506/0612 29012KT 5000 HZ SCT030"
    },
    {
      "icao": "OMAA",
      "alert": "OK",
      "vis_m": 9999,
      "fzfg": false,
      "metar_trigger": false,
      "taf_trigger": false,
      "metar": "METAR OMAA 050500Z 31011KT 9999 FEW018 23/19 Q1017 NOSIG",
      "taf": "TAF OMAA 050500Z 0506/0612 33012KT 8000 FEW025"
    },
    {
      "icao": "OMDB",
      "alert": "OK",
      "vis_m": null,
      "fzfg": false,
      "metar_trigger": false,
      "taf_trigger": false,
      "metar": "",
      "taf": "TAF OMDB 050500Z 0506/0612 29013KT 8000 FEW020"
    },
    {
      "icao": "UAAA",
      "alert": "OK",
      "vis_m": 9999,
      "fzfg": false,
      "metar_trigger": false,
      "taf_trigger": false,
      "metar": "METAR UAAA 050600Z VRB01MPS 9999 OVC017 05/02 Q1017 NOSIG",
      "taf": "TAF UAAA 050500Z 0506/0606 03003G08MPS 5000 BR SCT030CB BKN100 TX06/0509Z TNM01/0601Z"
    },
    {
      "icao": "UBBB",
      "alert": "OK",
      "vis_m": 9999,
      "fzfg": false,
      "metar_trigger": false,
      "taf_trigger": false,
      "metar": "METAR UBBB 050600Z 35006KT CAVOK 08/02 Q1025 NOSIG",
      "taf": "TAF UBBB 050501Z 0506/0606 34008KT 9999 BKN030 TX10/0510Z TN04/0603Z"
    },
    {
      "icao": "UDSG",
      "alert": "OK",
      "vis_m": 9999,
      "fzfg": false,
      "metar_trigger": false,
      "taf_trigger": false,
      "metar": "METAR UDSG 050600Z 04002KT 9999 NSC M10/M13 Q1023 NOSIG",
      "taf": "TAF UDSG 050500Z 0506/0606 VRB06KT 9999 FEW050"
    },
    {
      "icao": "UDYZ",
      "alert": "OK",
      "vis_m": 9999,
      "fzfg": false,
      "metar_trigger": false,
      "taf_trigger": false,
      "metar": "METAR UDYZ 050600Z 12003KT 9999 NSC 01/M05 Q1023 NOSIG",
      "taf": "TAF UDYZ 050500Z 0506/0606 16004KT 9999 FEW040"
    },
    {
      "icao": "UGKO",
      "alert": "OK",
      "vis_m": 9999,
      "fzfg": false,
      "metar_trigger": false,
      "taf_trigger": false,
      "metar": "METAR UGKO 050600Z VRB02KT 9999 BKN063 04/03 Q1028 NOSIG",
      "taf": "TAF UGKO 050500Z 0506/0606 08007KT 9999 SCT030 BKN050 TX10/0511Z TN02/0603Z"
    }
  ]
}