{
  "ts_utc": "2026-01-31T21:22:50Z",
  "threshold_m": 150,
  "source": "stations_override.txt (ICAO list) + aviationweather.gov (METAR/TAF raw)",
  "station_count": 159,
  "stations": [
    {
      "icao": "BIKF",
      "alert": "OK",
      "vis_m": 9999,
      "fzfg": false,
      "metar_trigger": false,
      "taf_trigger": false,
      "metar": "METAR BIKF 312100Z 05007KT CAVOK 00/M02 Q1000",
      "taf": "TAF BIKF 311920Z 3121/0121 08013KT 9999 SCT035 TX04/0115Z TNM00/3121Z"
    },
    {
      "icao": "BKPR",
      "alert": "OK",
      "vis_m": 9999,
      "fzfg": false,
      "metar_trigger": false,
      "taf_trigger": false,
      "metar": "METAR BKPR 312100Z 35007KT 9999 FEW020 BKN075 04/03 Q1006 NOSIG",
      "taf": "TAF BKPR 311730Z 3118/0118 01010KT 9999 BKN040"
    },
    {
      "icao": "EBCI",
      "alert": "OK",
      "vis_m": 9999,
      "fzfg": false,
      "metar_trigger": false,
      "taf_trigger": false,
      "metar": "METAR EBCI 312050Z 18007KT 9999 FEW022 05/03 Q1005 NOSIG",
      "taf": "TAF EBCI 311720Z 3118/0124 19005KT 9999 SCT038"
    },
    {
      "icao": "EDDB",
      "alert": "OK",
      "vis_m": 9999,
      "fzfg": false,
      "metar_trigger": false,
      "taf_trigger": false,
      "metar": "METAR EDDB 312050Z AUTO 10012KT 9999 BKN024 OVC032 M06/M10 Q1015 NOSIG",
      "taf": "TAF EDDB 311700Z 3118/0118 08010KT 9999 BKN020"
    },
    {
      "icao": "EDDH",
      "alert": "OK",
      "vis_m": 9999,
      "fzfg": false,
      "metar_trigger": false,
      "taf_trigger": false,
      "metar": "METAR EDDH 312050Z AUTO 11013KT 9999 -SN BKN014 BKN033 M04/M07 Q1013 NOSIG",
      "taf": "TAF EDDH 311700Z 3118/0124 11011KT 9999 OVC014"
    },
    {
      "icao": "EDDK",
      "alert": "OK",
      "vis_m": 9999,
      "fzfg": false,
      "metar_trigger": false,
      "taf_trigger": false,
      "metar": "METAR EDDK 312050Z AUTO 13008KT 9999 FEW027 05/02 Q1007 NOSIG",
      "taf": "TAF EDDK 311700Z 3118/0124 12008KT 9999 SCT020 BKN045"
    },
    {
      "icao": "EDDN",
      "alert": "OK",
      "vis_m": 9999,
      "fzfg": false,
      "metar_trigger": false,
      "taf_trigger": false,
      "metar": "METAR EDDN 312050Z AUTO 10004KT 9999 FEW016 OVC030 01/M01 Q1009 TEMPO BKN014",
      "taf": "TAF EDDN 311700Z 3118/0118 12004KT 9999 OVC025"
    },
    {
      "icao": "EDDS",
      "alert": "OK",
      "vis_m": 7000,
      "fzfg": false,
      "metar_trigger": false,
      "taf_trigger": false,
      "metar": "METAR EDDS 312050Z AUTO VRB02KT 7000 SCT004 BKN008 01/00 Q1007 TEMPO 4000 BR BKN004",
      "taf": ""
    },
    {
      "icao": "EDFH",
      "alert": "OK",
      "vis_m": 300,
      "fzfg": false,
      "metar_trigger": false,
      "taf_trigger": false,
      "metar": "METAR EDFH 312050Z 13010KT 0300 R21/0300N FG VV/// 02/02 Q1006",
      "taf": "TAF EDFH 311700Z 3118/0118 14011KT 0300 FG OVC003"
    },
    {
      "icao": "EDJA",
      "alert": "OK",
      "vis_m": 4400,
      "fzfg": false,
      "metar_trigger": false,
      "taf_trigger": false,
      "metar": "METAR EDJA 312050Z 14003KT 110V170 4400 BR BKN002 OVC008 M00/M01 Q1007",
      "taf": "TAF EDJA 311700Z 3118/0103 VRB03KT 2000 BR BKN004"
    },
    {
      "icao": "EDLW",
      "alert": "OK",
      "vis_m": 9999,
      "fzfg": false,
      "metar_trigger": false,
      "taf_trigger": false,
      "metar": "METAR EDLW 312050Z 15005KT 9999 FEW023 SCT027 05/02 Q1006",
      "taf": "TAF EDLW 311700Z 3118/0118 12005KT 9999 BKN025"
    },
    {
      "icao": "EDNY",
      "alert": "OK",
      "vis_m": 9999,
      "fzfg": false,
      "metar_trigger": false,
      "taf_trigger": false,
      "metar": "METAR EDNY 312050Z AUTO 05002KT 9999 // SCT008/// OVC010/// 02/01 Q1009",
      "taf": "TAF EDNY 311700Z 3118/0103 03004KT 9999 OVC007"
    },
    {
      "icao": "EDSB",
      "alert": "OK",
      "vis_m": 5000,
      "fzfg": false,
      "metar_trigger": false,
      "taf_trigger": false,
      "metar": "METAR EDSB 312050Z 02003KT 5000 BR NSC 03/02 Q1008",
      "taf": "TAF EDSB 311700Z 3118/0118 VRB03KT 9999 FEW015"
    },
    {
      "icao": "EETN",
      "alert": "OK",
      "vis_m": 9000,
      "fzfg": false,
      "metar_trigger": false,
      "taf_trigger": false,
      "metar": "METAR EETN 312120Z 09006KT 9000 FEW002 M17/M19 Q1033 NOSIG",
      "taf": ""
    },
    {
      "icao": "EFTU",
      "alert": "OK",
      "vis_m": 9999,
      "fzfg": false,
      "metar_trigger": false,
      "taf_trigger": false,
      "metar": "METAR EFTU 312120Z AUTO 09005KT 9999 -SHSN BKN022 M17/M19 Q1033",
      "taf": "TAF EFTU 312027Z 3121/0121 09005KT CAVOK"
    },
    {
      "icao": "EGBB",
      "alert": "OK",
      "vis_m": 9999,
      "fzfg": false,
      "metar_trigger": false,
      "taf_trigger": false,
      "metar": "METAR EGBB 312050Z 17005KT 9999 BKN033 07/06 Q0999",
      "taf": "TAF EGBB 311658Z 3118/0118 17010KT 9999 FEW030"
    },
    {
      "icao": "EGGP",
      "alert": "OK",
      "vis_m": 9999,
      "fzfg": false,
      "metar_trigger": false,
      "taf_trigger": false,
      "metar": "METAR EGGP 312050Z 18003KT 9999 -RA FEW023 BKN039 06/05 Q0998",
      "taf": "TAF EGGP 311704Z 3118/0118 16012KT 9999 BKN020"
    },
    {
      "icao": "EGGW",
      "alert": "OK",
      "vis_m": 9999,
      "fzfg": false,
      "metar_trigger": false,
      "taf_trigger": false,
      "metar": "METAR EGGW 312050Z AUTO 17007KT 9999 BKN009 BKN014 07/05 Q1001",
      "taf": "TAF EGGW 311707Z 3118/0118 17008KT 9999 FEW008 SCT045"
    },
    {
      "icao": "EGKK",
      "alert": "OK",
      "vis_m": 9999,
      "fzfg": false,
      "metar_trigger": false,
      "taf_trigger": false,
      "metar": "METAR EGKK 312050Z 16006KT 9999 FEW019 SCT030 07/06 Q1002",
      "taf": "TAF EGKK 311656Z 3118/0124 18008KT 9999 FEW015 SCT030"
    },
    {
      "icao": "EGNM",
      "alert": "OK",
      "vis_m": 9999,
      "fzfg": false,
      "metar_trigger": false,
      "taf_trigger": false,
      "metar": "METAR EGNM 312050Z 14008KT 9999 -RADZ SCT004 OVC007 05/05 Q0998",
      "taf": "TAF EGNM 311705Z 3118/0118 14010KT 9999 SCT015"
    },
    {
      "icao": "EGPD",
      "alert": "OK",
      "vis_m": 9999,
      "fzfg": false,
      "metar_trigger": false,
      "taf_trigger": false,
      "metar": "METAR EGPD 312050Z AUTO 13011KT 090V160 9999 BKN008 BKN013 OVC032 07/05 Q1000 TEMPO BKN006",
      "taf": ""
    },
    {
      "icao": "EGPF",
      "alert": "OK",
      "vis_m": 9999,
      "fzfg": false,
      "metar_trigger": false,
      "taf_trigger": false,
      "metar": "METAR EGPF 312050Z AUTO 08010KT 9999 BKN025 07/04 Q0997",
      "taf": "TAF EGPF 311700Z 3118/0118 08010KT 9999 BKN018"
    },
    {
      "icao": "EHBK",
      "alert": "OK",
      "vis_m": 9999,
      "fzfg": false,
      "metar_trigger": false,
      "taf_trigger": false,
      "metar": "METAR EHBK 312055Z AUTO 17007KT 9999 NSC 06/04 Q1006 NOSIG",
      "taf": "TAF EHBK 311719Z 3118/0124 15005KT 9999 BKN045"
    },
    {
      "icao": "EHEH",
      "alert": "OK",
      "vis_m": null,
      "fzfg": false,
      "metar_trigger": false,
      "taf_trigger": false,
      "metar": "",
      "taf": "TAF EHEH 311739Z 3118/0124 13003KT 9999 FEW014 BKN040"
    },
    {
      "icao": "EKBI",
      "alert": "OK",
      "vis_m": 9999,
      "fzfg": false,
      "metar_trigger": false,
      "taf_trigger": false,
      "metar": "METAR EKBI 312050Z AUTO 10014KT 070V130 9999 OVC015/// M02/M05 Q1014",
      "taf": "TAF EKBI 312027Z 3121/0121 10018KT 9999 BKN018"
    },
    {
      "icao": "EKCH",
      "alert": "OK",
      "vis_m": 9999,
      "fzfg": false,
      "metar_trigger": false,
      "taf_trigger": false,
      "metar": "METAR EKCH 312050Z AUTO 11020G31KT 9999 SCT130/// M02/M10 Q1019 TEMPO 11020G30KT",
      "taf": "TAF EKCH 312027Z 3121/0121 11020KT 9999 SCT020"
    },
    {
      "icao": "ENAL",
      "alert": "OK",
      "vis_m": 9999,
      "fzfg": false,
      "metar_trigger": false,
      "taf_trigger": false,
      "metar": "METAR ENAL 312050Z 14014KT CAVOK 00/M11 Q1015",
      "taf": "TAF ENAL 312000Z 3121/0106 14012KT 9999 SCT050"
    },
    {
      "icao": "ENBR",
      "alert": "OK",
      "vis_m": 9999,
      "fzfg": false,
      "metar_trigger": false,
      "taf_trigger": false,
      "metar": "METAR ENBR 312050Z 10005KT 070V130 CAVOK M01/M11 Q1015 RMK WIND 1200FT 12010KT",
      "taf": "TAF ENBR 311700Z 3118/0118 09005KT CAVOK"
    },
    {
      "icao": "ENGM",
      "alert": "OK",
      "vis_m": 9999,
      "fzfg": false,
      "metar_trigger": false,
      "taf_trigger": false,
      "metar": "METAR ENGM 312050Z 01003KT CAVOK M12/M13 Q1024 NOSIG",
      "taf": "TAF ENGM 311700Z 3118/0118 03005KT CAVOK"
    },
    {
      "icao": "ENHD",
      "alert": "OK",
      "vis_m": 9999,
      "fzfg": false,
      "metar_trigger": false,
      "taf_trigger": false,
      "metar": "METAR ENHD 312050Z 11016KT CAVOK M00/M10 Q1015",
      "taf": "TAF ENHD 311400Z 3115/3123 09018KT 9999 SCT045"
    },
    {
      "icao": "ENTC",
      "alert": "OK",
      "vis_m": 9999,
      "fzfg": false,
      "metar_trigger": false,
      "taf_trigger": false,
      "metar": "METAR ENTC 312050Z 19014KT 9999 BKN052 M07/M14 Q1017 RMK WIND 2600FT 19017KT",
      "taf": "TAF ENTC 311700Z 3118/0118 20018KT 9999 BKN050"
    },
    {
      "icao": "ENTO",
      "alert": "OK",
      "vis_m": 9999,
      "fzfg": false,
      "metar_trigger": false,
      "taf_trigger": false,
      "metar": "METAR ENTO 312050Z 13009KT 100V160 9999 NCD M03/M11 Q1023 NOSIG",
      "taf": "TAF ENTO 311700Z 3118/0118 09005KT CAVOK"
    },
    {
      "icao": "ENVA",
      "alert": "OK",
      "vis_m": 9999,
      "fzfg": false,
      "metar_trigger": false,
      "taf_trigger": false,
      "metar": "METAR ENVA 312050Z 15014KT CAVOK M04/M12 Q1019 RMK WIND 670FT 17026G38KT",
      "taf": "TAF ENVA 311700Z 3118/0118 14012KT CAVOK"
    },
    {
      "icao": "ENZV",
      "alert": "OK",
      "vis_m": 9999,
      "fzfg": false,
      "metar_trigger": false,
      "taf_trigger": false,
      "metar": "METAR ENZV 312050Z 12014KT CAVOK M00/M09 Q1015 TEMPO 12018G28KT",
      "taf": "TAF ENZV 311700Z 3118/0118 10012KT CAVOK"
    },
    {
      "icao": "EPGD",
      "alert": "OK",
      "vis_m": 9999,
      "fzfg": false,
      "metar_trigger": false,
      "taf_trigger": false,
      "metar": "METAR EPGD 312100Z 11010KT CAVOK M13/M18 Q1023",
      "taf": "TAF EPGD 311730Z 3118/0118 09010KT CAVOK"
    },
    {
      "icao": "EPKK",
      "alert": "OK",
      "vis_m": 9999,
      "fzfg": false,
      "metar_trigger": false,
      "taf_trigger": false,
      "metar": "METAR EPKK 312100Z 06016KT 9999 -SN SCT015 OVC030 M10/M13 Q1015",
      "taf": "TAF EPKK 312030Z 3121/0121 07016KT 9999 OVC030"
    },
    {
      "icao": "EPKT",
      "alert": "OK",
      "vis_m": 9999,
      "fzfg": false,
      "metar_trigger": false,
      "taf_trigger": false,
      "metar": "METAR EPKT 312100Z 07011KT 9999 -SN FEW009 SCT026 M11/M14 Q1014",
      "taf": "TAF EPKT 311730Z 3118/0118 07010KT 9999 SCT025"
    },
    {
      "icao": "EPLB",
      "alert": "OK",
      "vis_m": 9999,
      "fzfg": false,
      "metar_trigger": false,
      "taf_trigger": false,
      "metar": "METAR EPLB 312100Z 07007KT CAVOK M15/M18 Q1020",
      "taf": "TAF EPLB 311730Z 3118/0118 06008KT CAVOK"
    },
    {
      "icao": "EPMO",
      "alert": "OK",
      "vis_m": 9999,
      "fzfg": false,
      "metar_trigger": false,
      "taf_trigger": false,
      "metar": "METAR EPMO 312100Z 07012KT CAVOK M13/M17 Q1021",
      "taf": "TAF EPMO 311730Z 3118/0118 07012KT CAVOK"
    },
    {
      "icao": "EPPO",
      "alert": "OK",
      "vis_m": 9999,
      "fzfg": false,
      "metar_trigger": false,
      "taf_trigger": false,
      "metar": "METAR EPPO 312100Z 11014KT CAVOK M09/M16 Q1018",
      "taf": "TAF EPPO 311730Z 3118/0118 09012KT CAVOK"
    },
    {
      "icao": "EPRA",
      "alert": "OK",
      "vis_m": 9999,
      "fzfg": false,
      "metar_trigger": false,
      "taf_trigger": false,
      "metar": "METAR EPRA 312100Z 08007KT CAVOK M15/M19 Q1019",
      "taf": "TAF EPRA 312030Z 3121/0106 08008KT CAVOK"
    },
    {
      "icao": "EPRZ",
      "alert": "OK",
      "vis_m": 9999,
      "fzfg": false,
      "metar_trigger": false,
      "taf_trigger": false,
      "metar": "METAR EPRZ 312100Z 07015KT 9999 -SN BKN014 M11/M14 Q1017",
      "taf": ""
    },
    {
      "icao": "EPSC",
      "alert": "OK",
      "vis_m": 9999,
      "fzfg": false,
      "metar_trigger": false,
      "taf_trigger": false,
      "metar": "METAR EPSC 312100Z 09011KT CAVOK M10/M14 Q1019",
      "taf": "TAF EPSC 311730Z 3118/0118 09010KT CAVOK"
    },
    {
      "icao": "EPSY",
      "alert": "OK",
      "vis_m": 9999,
      "fzfg": false,
      "metar_trigger": false,
      "taf_trigger": false,
      "metar": "METAR EPSY 312100Z 05005KT 010V090 CAVOK M14/M17 Q1023",
      "taf": "TAF EPSY 312030Z 3121/0106 06005KT CAVOK"
    },
    {
      "icao": "EPWA",
      "alert": "OK",
      "vis_m": 9999,
      "fzfg": false,
      "metar_trigger": false,
      "taf_trigger": false,
      "metar": "METAR EPWA 312100Z 08010KT CAVOK M12/M16 Q1021 NOSIG",
      "taf": "TAF EPWA 312030Z 3121/0121 08010KT CAVOK"
    },
    {
      "icao": "EPWR",
      "alert": "OK",
      "vis_m": 9999,
      "fzfg": false,
      "metar_trigger": false,
      "taf_trigger": false,
      "metar": "METAR EPWR 312100Z 09011KT CAVOK M08/M12 Q1016",
      "taf": "TAF EPWR 312030Z 3121/0121 09013KT 9999 BKN040"
    },
    {
      "icao": "ESGG",
      "alert": "OK",
      "vis_m": 9999,
      "fzfg": false,
      "metar_trigger": false,
      "taf_trigger": false,
      "metar": "METAR ESGG 312050Z 10013KT CAVOK M05/M11 Q1021",
      "taf": "TAF ESGG 312030Z 3121/0121 12014KT CAVOK"
    },
    {
      "icao": "ESKN",
      "alert": "OK",
      "vis_m": 9999,
      "fzfg": false,
      "metar_trigger": false,
      "taf_trigger": false,
      "metar": "METAR ESKN 312050Z 09012KT 9999 BKN024 M04/M08 Q1028",
      "taf": "TAF ESKN 312030Z 3121/0121 10012KT 9999 BKN025"
    },
    {
      "icao": "ESMS",
      "alert": "OK",
      "vis_m": 9999,
      "fzfg": false,
      "metar_trigger": false,
      "taf_trigger": false,
      "metar": "METAR ESMS 312050Z 11017KT 9999 DRSN NSC M03/M11 Q1019",
      "taf": "TAF ESMS 312027Z 3121/0121 10018KT 9999 FEW020"
    },
    {
      "icao": "ESSA",
      "alert": "OK",
      "vis_m": 9999,
      "fzfg": false,
      "metar_trigger": false,
      "taf_trigger": false,
      "metar": "METAR ESSA 312050Z 08004KT 9999 BKN031 M06/M10 Q1029 NOSIG",
      "taf": "TAF ESSA 312030Z 3121/0121 13008KT 9999 BKN025"
    },
    {
      "icao": "EYKA",
      "alert": "OK",
      "vis_m": 9999,
      "fzfg": false,
      "metar_trigger": false,
      "taf_trigger": false,
      "metar": "METAR EYKA 312120Z VRB02KT CAVOK M19/M21 Q1028",
      "taf": "TAF EYKA 311702Z 3118/0118 VRB04KT 8000 NSC"
    },
    {
      "icao": "EYPA",
      "alert": "OK",
      "vis_m": 9999,
      "fzfg": false,
      "metar_trigger": false,
      "taf_trigger": false,
      "metar": "METAR EYPA 312120Z 10009KT CAVOK M16/M19 Q1028",
      "taf": ""
    },
    {
      "icao": "EYVI",
      "alert": "OK",
      "vis_m": 9999,
      "fzfg": false,
      "metar_trigger": false,
      "taf_trigger": false,
      "metar": "METAR EYVI 312120Z 36005KT CAVOK M19/M21 Q1025 NOSIG",
      "taf": "TAF EYVI 311703Z 3118/0118 VRB04KT 8000 NSC"
    },
    {
      "icao": "GCFV",
      "alert": "OK",
      "vis_m": 9999,
      "fzfg": false,
      "metar_trigger": false,
      "taf_trigger": false,
      "metar": "METAR GCFV 312100Z 34009KT 9999 FEW020 18/14 Q1022",
      "taf": "TAF GCFV 312000Z 3121/0121 33006KT 9999 FEW015 TX22/0114Z TN15/0106Z"
    },
    {
      "icao": "GCLP",
      "alert": "OK",
      "vis_m": 9999,
      "fzfg": false,
      "metar_trigger": false,
      "taf_trigger": false,
      "metar": "METAR GCLP 312100Z 36017KT 9999 FEW020 19/10 Q1022 NOSIG",
      "taf": "TAF GCLP 312000Z 3121/0121 36014KT 9999 SCT015 TX21/0114Z TN16/0106Z"
    },
    {
      "icao": "GCTS",
      "alert": "OK",
      "vis_m": 9999,
      "fzfg": false,
      "metar_trigger": false,
      "taf_trigger": false,
      "metar": "METAR GCTS 312100Z 06010KT 9999 BKN020 20/15 Q1023 NOSIG",
      "taf": "TAF GCTS 312000Z 3121/0121 36005KT 9999 SCT020 TX23/0114Z TN15/0106Z"
    },
    {
      "icao": "GMAD",
      "alert": "OK",
      "vis_m": 5000,
      "fzfg": false,
      "metar_trigger": false,
      "taf_trigger": false,
      "metar": "METAR GMAD 312100Z 16008KT 5000 BKN006 SCT200 16/16 Q1020 NOSIG",
      "taf": "TAF GMAD 311700Z 3118/0124 22006KT 8000 SCT020"
    },
    {
      "icao": "GMMN",
      "alert": "OK",
      "vis_m": 9999,
      "fzfg": false,
      "metar_trigger": false,
      "taf_trigger": false,
      "metar": "METAR GMMN 312100Z 03005KT 9999 FEW006 13/11 Q1023 NOSIG",
      "taf": "TAF GMMN 311700Z 3118/0124 36006KT 9999 SCT026"
    },
    {
      "icao": "GMMX",
      "alert": "OK",
      "vis_m": 9999,
      "fzfg": false,
      "metar_trigger": false,
      "taf_trigger": false,
      "metar": "METAR GMMX 312100Z 08005KT CAVOK 15/13 Q1022 NOSIG",
      "taf": "TAF GMMX 311700Z 3118/0124 06006KT 8000 SCT023"
    },
    {
      "icao": "HEGN",
      "alert": "OK",
      "vis_m": 9999,
      "fzfg": false,
      "metar_trigger": false,
      "taf_trigger": false,
      "metar": "METAR HEGN 312100Z 09003KT CAVOK 19/07 Q1015 NOSIG",
      "taf": "TAF HEGN 311700Z 3118/0124 13008KT CAVOK"
    },
    {
      "icao": "HEMA",
      "alert": "OK",
      "vis_m": 9999,
      "fzfg": false,
      "metar_trigger": false,
      "taf_trigger": false,
      "metar": "METAR HEMA 312100Z 22004KT CAVOK 18/09 Q1015 NOSIG",
      "taf": "TAF HEMA 311700Z 3118/0124 10008KT CAVOK"
    },
    {
      "icao": "HESH",
      "alert": "OK",
      "vis_m": 9999,
      "fzfg": false,
      "metar_trigger": false,
      "taf_trigger": false,
      "metar": "METAR HESH 312100Z 24002KT CAVOK 19/15 Q1015 NOSIG",
      "taf": "TAF HESH 311700Z 3118/0124 12008KT CAVOK"
    },
    {
      "icao": "HESX",
      "alert": "OK",
      "vis_m": 9999,
      "fzfg": false,
      "metar_trigger": false,
      "taf_trigger": false,
      "metar": "METAR HESX 312100Z 18009KT CAVOK 20/02 Q1012 NOSIG",
      "taf": "TAF HESX 311700Z 3118/0124 20014KT 6000 NSC"
    },
    {
      "icao": "LATI",
      "alert": "OK",
      "vis_m": 9999,
      "fzfg": false,
      "metar_trigger": false,
      "taf_trigger": false,
      "metar": "METAR LATI 312120Z 00000KT CAVOK 05/03 Q1002 NOSIG",
      "taf": "TAF LATI 311700Z 3118/0118 VRB05KT CAVOK TX14/0112Z TN05/0102Z"
    },
    {
      "icao": "LBPD",
      "alert": "OK",
      "vis_m": 9999,
      "fzfg": false,
      "metar_trigger": false,
      "taf_trigger": false,
      "metar": "METAR LBPD 312100Z AUTO 09008KT 9999 OVC015/// 06/06 Q1009",
      "taf": "TAF LBPD 311700Z 3118/0118 VRB03KT 7000 SCT005 OVC015"
    },
    {
      "icao": "LBSF",
      "alert": "OK",
      "vis_m": 9999,
      "fzfg": false,
      "metar_trigger": false,
      "taf_trigger": false,
      "metar": "METAR LBSF 312100Z AUTO 10013KT 9999 -SHRA SCT014/// BKN022/// OVC052/// 05/03 Q1007 TEMPO RA",
      "taf": "TAF LBSF 311700Z 3118/0118 07010KT 9999 SCT010 BKN020 OVC040"
    },
    {
      "icao": "LBWN",
      "alert": "OK",
      "vis_m": 9999,
      "fzfg": false,
      "metar_trigger": false,
      "taf_trigger": false,
      "metar": "METAR LBWN 312100Z AUTO 01007KT 9999 OVC018/// 00/M02 Q1012 NOSIG",
      "taf": "TAF LBWN 311700Z 3118/0118 02010KT 8000 BKN020 OVC035"
    },
    {
      "icao": "LCLK",
      "alert": "OK",
      "vis_m": 7000,
      "fzfg": false,
      "metar_trigger": false,
      "taf_trigger": false,
      "metar": "METAR LCLK 312100Z 22005KT 7000 NSC 16/15 Q1010 TEMPO 3000 DU",
      "taf": "TAF LCLK 311730Z 3118/0118 19010KT 6000 DU FEW025"
    },
    {
      "icao": "LCPH",
      "alert": "OK",
      "vis_m": 9000,
      "fzfg": false,
      "metar_trigger": false,
      "taf_trigger": false,
      "metar": "METAR LCPH 312100Z 35002KT 9000 BKN030 16/14 Q1011 NOSIG",
      "taf": "TAF LCPH 311730Z 3118/0118 08007KT 6000 DU FEW009 SCT012"
    },
    {
      "icao": "LEAL",
      "alert": "OK",
      "vis_m": 9999,
      "fzfg": false,
      "metar_trigger": false,
      "taf_trigger": false,
      "metar": "METAR LEAL 312100Z 29011KT 9999 FEW015 SCT050 14/03 Q1017 NOSIG",
      "taf": "TAF LEAL 311700Z 3118/0118 30017KT 9999 FEW030 TX16/0113Z TN10/0106Z"
    },
    {
      "icao": "LEBB",
      "alert": "OK",
      "vis_m": 9999,
      "fzfg": false,
      "metar_trigger": false,
      "taf_trigger": false,
      "metar": "METAR LEBB 312100Z 10005KT 070V130 CAVOK 08/07 Q1015 NOSIG",
      "taf": "TAF LEBB 311700Z 3118/0118 13008KT 9999 BKN040 TX13/0115Z TN07/0106Z"
    },
    {
      "icao": "LEBL",
      "alert": "OK",
      "vis_m": 9999,
      "fzfg": false,
      "metar_trigger": false,
      "taf_trigger": false,
      "metar": "METAR LEBL 312100Z 32014KT CAVOK 12/04 Q1010 NOSIG",
      "taf": "TAF LEBL 311700Z 3118/0118 32009KT CAVOK TX14/0112Z TN07/0106Z"
    },
    {
      "icao": "LECH",
      "alert": "OK",
      "vis_m": 9999,
      "fzfg": false,
      "metar_trigger": false,
      "taf_trigger": false,
      "metar": "METAR LECH 312100Z AUTO 31020G32KT 280V340 CAVOK 13/M02 Q1012",
      "taf": ""
    },
    {
      "icao": "LEMD",
      "alert": "OK",
      "vis_m": 9999,
      "fzfg": false,
      "metar_trigger": false,
      "taf_trigger": false,
      "metar": "METAR LEMD 312100Z 23007KT CAVOK 08/02 Q1017 NOSIG",
      "taf": "TAF LEMD 311700Z 3118/0124 28010KT CAVOK TX09/3118Z TN02/0104Z"
    },
    {
      "icao": "LEMG",
      "alert": "OK",
      "vis_m": 9999,
      "fzfg": false,
      "metar_trigger": false,
      "taf_trigger": false,
      "metar": "METAR LEMG 312100Z 29012KT CAVOK 12/06 Q1020 NOSIG",
      "taf": "TAF LEMG 311700Z 3118/0118 28006KT 9999 FEW045 TX19/0115Z TN12/0106Z"
    },
    {
      "icao": "LEVC",
      "alert": "OK",
      "vis_m": 9999,
      "fzfg": false,
      "metar_trigger": false,
      "taf_trigger": false,
      "metar": "METAR LEVC 312100Z 27011KT CAVOK 11/02 Q1015 NOSIG",
      "taf": "TAF LEVC 311700Z 3118/0118 28016KT CAVOK TX18/0113Z TN10/0106Z"
    },
    {
      "icao": "LEXJ",
      "alert": "OK",
      "vis_m": 8000,
      "fzfg": false,
      "metar_trigger": false,
      "taf_trigger": false,
      "metar": "METAR LEXJ 312100Z 22006KT 8000 NSC 11/06 Q1014",
      "taf": "TAF LEXJ 312000Z 3121/0121 22007KT 9999 SCT040 TX14/0115Z TN10/0103Z"
    },
    {
      "icao": "LEZG",
      "alert": "OK",
      "vis_m": 9999,
      "fzfg": false,
      "metar_trigger": false,
      "taf_trigger": false,
      "metar": "METAR LEZG 312100Z 27006KT 9999 BKN050 OVC060 09/05 Q1015 NOSIG",
      "taf": "TAF LEZG 311700Z 3118/0118 27009KT 9999 FEW050 TX14/0114Z TN06/0106Z"
    },
    {
      "icao": "LEZL",
      "alert": "OK",
      "vis_m": 9999,
      "fzfg": false,
      "metar_trigger": false,
      "taf_trigger": false,
      "metar": "METAR LEZL 312100Z 21004KT 9999 SCT044 13/10 Q1021 NOSIG",
      "taf": "TAF LEZL 312000Z 3121/0121 VRB02KT CAVOK TX17/0115Z TN10/0107Z"
    },
    {
      "icao": "LFBD",
      "alert": "OK",
      "vis_m": 8000,
      "fzfg": false,
      "metar_trigger": false,
      "taf_trigger": false,
      "metar": "METAR LFBD 312100Z AUTO 30014KT 8000 -RA FEW017/// SCT026/// BKN049/// ///TCU 10/09 Q1011 TEMPO 27015G25KT 3000 SHRA BKN010 BKN020TCU SCT030CB",
      "taf": ""
    },
    {
      "icao": "LFLL",
      "alert": "OK",
      "vis_m": 9999,
      "fzfg": false,
      "metar_trigger": false,
      "taf_trigger": false,
      "metar": "METAR LFLL 312100Z 16005KT 9999 FEW023 SCT053 BKN070 06/04 Q1007 NOSIG",
      "taf": "TAF LFLL 311700Z 3118/0124 16005KT 9999 BKN045"
    },
    {
      "icao": "LFLS",
      "alert": "OK",
      "vis_m": 9999,
      "fzfg": false,
      "metar_trigger": false,
      "taf_trigger": false,
      "metar": "METAR LFLS 312100Z AUTO 12005KT CAVOK 05/03 Q1007",
      "taf": "TAF LFLS 311400Z 3115/0115 08005KT 9999 BKN040"
    },
    {
      "icao": "LFMN",
      "alert": "OK",
      "vis_m": 9999,
      "fzfg": false,
      "metar_trigger": false,
      "taf_trigger": false,
      "metar": "METAR LFMN 312100Z 33007KT CAVOK 08/04 Q1005 NOSIG",
      "taf": "TAF LFMN 312000Z 3121/0203 33010KT CAVOK"
    },
    {
      "icao": "LFOB",
      "alert": "OK",
      "vis_m": 8000,
      "fzfg": false,
      "metar_trigger": false,
      "taf_trigger": false,
      "metar": "METAR LFOB 312100Z AUTO 16004KT 8000 FEW008 SCT012 OVC036 07/06 Q1005 NOSIG",
      "taf": "TAF LFOB 311700Z 3118/0118 16005KT 8000 SCT015"
    },
    {
      "icao": "LFPO",
      "alert": "OK",
      "vis_m": 9999,
      "fzfg": false,
      "metar_trigger": false,
      "taf_trigger": false,
      "metar": "METAR LFPO 312100Z AUTO 19005KT 9999 BKN034/// BKN054/// BKN082/// ///TCU 07/06 Q1006",
      "taf": "TAF LFPO 311700Z 3118/0124 16004KT 9999 SCT020 BKN030"
    },
    {
      "icao": "LFSB",
      "alert": "OK",
      "vis_m": 9999,
      "fzfg": false,
      "metar_trigger": false,
      "taf_trigger": false,
      "metar": "METAR LFSB 312100Z AUTO 12009KT CAVOK 04/02 Q1008 NOSIG",
      "taf": "TAF LFSB 311700Z 3118/0118 14005KT 9999 FEW015 BKN065"
    },
    {
      "icao": "LGAV",
      "alert": "OK",
      "vis_m": 9999,
      "fzfg": false,
      "metar_trigger": false,
      "taf_trigger": false,
      "metar": "METAR LGAV 312050Z 10004KT 9999 SCT025 11/09 Q1006 NOSIG",
      "taf": "TAF LGAV 311700Z 3118/0118 04008KT 9999 SCT020 BKN070"
    },
    {
      "icao": "LGTS",
      "alert": "OK",
      "vis_m": 9999,
      "fzfg": false,
      "metar_trigger": false,
      "taf_trigger": false,
      "metar": "METAR LGTS 312050Z 12005KT 9999 FEW015TCU SCT025 11/07 Q1006 NOSIG",
      "taf": ""
    },
    {
      "icao": "LHBP",
      "alert": "OK",
      "vis_m": 8000,
      "fzfg": false,
      "metar_trigger": false,
      "taf_trigger": false,
      "metar": "METAR LHBP 312100Z 10005KT 080V140 8000 -SN BKN006 OVC025 01/00 Q1010 NOSIG",
      "taf": "TAF LHBP 311715Z 3118/0118 08007KT 9999 FEW015 BKN030"
    },
    {
      "icao": "LHDC",
      "alert": "OK",
      "vis_m": 9999,
      "fzfg": false,
      "metar_trigger": false,
      "taf_trigger": false,
      "metar": "METAR LHDC 312045Z AUTO 04010KT 9999 -SHSN OVC016 M01/M03 Q1010",
      "taf": "TAF LHDC 311415Z 3115/3124 04008KT 9000 -RASN SCT004 OVC015"
    },
    {
      "icao": "LIBD",
      "alert": "OK",
      "vis_m": 9999,
      "fzfg": false,
      "metar_trigger": false,
      "taf_trigger": false,
      "metar": "METAR LIBD 312050Z 13003KT 9999 FEW040 09/08 Q1001",
      "taf": "TAF LIBD 311700Z 3118/0118 09010KT 9999 SCT030"
    },
    {
      "icao": "LIBG",
      "alert": "OK",
      "vis_m": null,
      "fzfg": false,
      "metar_trigger": false,
      "taf_trigger": false,
      "metar": "",
      "taf": "TAF LIBG 311700Z 3118/0103 06005KT 9999 SCT030"
    },
    {
      "icao": "LIBP",
      "alert": "OK",
      "vis_m": 9999,
      "fzfg": false,
      "metar_trigger": false,
      "taf_trigger": false,
      "metar": "METAR LIBP 312050Z AUTO 27003KT 230V300 9999 FEW012/// BKN032/// 09/08 Q1004",
      "taf": "TAF LIBP 311700Z 3118/0118 VRB05KT 9999 SCT020 SCT040"
    },
    {
      "icao": "LIBR",
      "alert": "OK",
      "vis_m": 9999,
      "fzfg": false,
      "metar_trigger": false,
      "taf_trigger": false,
      "metar": "METAR LIBR 312050Z 10008KT 9999 FEW030 13/08 Q1000",
      "taf": "TAF LIBR 311700Z 3118/0118 12010KT 9999 SCT020"
    },
    {
      "icao": "LICA",
      "alert": "OK",
      "vis_m": 9999,
      "fzfg": false,
      "metar_trigger": false,
      "taf_trigger": false,
      "metar": "METAR LICA 312050Z AUTO 08012KT 9999 OVC071/// 11/08 Q0994",
      "taf": ""
    },
    {
      "icao": "LICC",
      "alert": "OK",
      "vis_m": 9999,
      "fzfg": false,
      "metar_trigger": false,
      "taf_trigger": false,
      "metar": "METAR LICC 312050Z 25009KT 9999 -DZ SCT030 BKN090 09/06 Q0995",
      "taf": "TAF LICC 311700Z 3118/0118 28013KT 9999 FEW030"
    },
    {
      "icao": "LICJ",
      "alert": "OK",
      "vis_m": 9999,
      "fzfg": false,
      "metar_trigger": false,
      "taf_trigger": false,
      "metar": "METAR LICJ 312050Z 08006KT 9999 -RA FEW007 SCT038 10/08 Q0996",
      "taf": "TAF LICJ 311700Z 3118/0118 VRB05KT 9999 SCT030"
    },
    {
      "icao": "LIMC",
      "alert": "OK",
      "vis_m": 2000,
      "fzfg": false,
      "metar_trigger": false,
      "taf_trigger": false,
      "metar": "METAR LIMC 312050Z VRB01KT 2000 R35R/1300D R17L/1000U R35L/1100D BCFG NSC 01/01 Q1006 NOSIG",
      "taf": "TAF LIMC 311700Z 3118/0124 VRB05KT 5000 BR FEW020"
    },
    {
      "icao": "LIME",
      "alert": "OK",
      "vis_m": 5000,
      "fzfg": false,
      "metar_trigger": false,
      "taf_trigger": false,
      "metar": "METAR LIME 312050Z AUTO VRB01KT 5000 BR NCD 04/04 Q1006",
      "taf": "TAF LIME 311700Z 3118/0118 VRB05KT 6000 FEW020"
    },
    {
      "icao": "LIMF",
      "alert": "OK",
      "vis_m": 9999,
      "fzfg": false,
      "metar_trigger": false,
      "taf_trigger": false,
      "metar": "METAR LIMF 312050Z VRB02KT CAVOK 04/M00 Q1006",
      "taf": "TAF LIMF 311700Z 3118/0118 VRB04KT 8000 FEW030"
    },
    {
      "icao": "LIMJ",
      "alert": "OK",
      "vis_m": 9999,
      "fzfg": false,
      "metar_trigger": false,
      "taf_trigger": false,
      "metar": "METAR LIMJ 312050Z 03015KT CAVOK 08/03 Q1005",
      "taf": "TAF LIMJ 311700Z 3118/0118 04016KT 9999 FEW050"
    },
    {
      "icao": "LIPE",
      "alert": "OK",
      "vis_m": 7000,
      "fzfg": false,
      "metar_trigger": false,
      "taf_trigger": false,
      "metar": "METAR LIPE 312050Z 22005KT 7000 OVC021 06/04 Q1007",
      "taf": "TAF LIPE 311700Z 3118/0118 VRB04KT 4000 BR BKN014"
    },
    {
      "icao": "LIPH",
      "alert": "OK",
      "vis_m": 9000,
      "fzfg": false,
      "metar_trigger": false,
      "taf_trigger": false,
      "metar": "METAR LIPH 312050Z VRB02KT 9000 MIFG NSC 05/05 Q1006",
      "taf": "TAF LIPH 311700Z 3118/0118 VRB04KT 9999 FEW040"
    },
    {
      "icao": "LIPQ",
      "alert": "OK",
      "vis_m": 9999,
      "fzfg": false,
      "metar_trigger": false,
      "taf_trigger": false,
      "metar": "METAR LIPQ 312050Z AUTO 01005KT 9999 NCD 05/01 Q1006",
      "taf": "TAF LIPQ 311700Z 3118/0118 08005KT CAVOK"
    },
    {
      "icao": "LIPR",
      "alert": "OK",
      "vis_m": 4000,
      "fzfg": false,
      "metar_trigger": false,
      "taf_trigger": false,
      "metar": "METAR LIPR 312050Z 30010KT 4000 BR BKN015 06/05 Q1006",
      "taf": "TAF LIPR 311700Z 3118/0118 30008KT 7000 FEW005 SCT020"
    },
    {
      "icao": "LIPX",
      "alert": "OK",
      "vis_m": 7000,
      "fzfg": false,
      "metar_trigger": false,
      "taf_trigger": false,
      "metar": "METAR LIPX 312050Z 24003KT 200V280 7000 NSC 03/03 Q1006",
      "taf": "TAF LIPX 311700Z 3118/0118 VRB05KT 4000 BR SCT020"
    },
    {
      "icao": "LIPY",
      "alert": "OK",
      "vis_m": 9999,
      "fzfg": false,
      "metar_trigger": false,
      "taf_trigger": false,
      "metar": "METAR LIPY 312050Z AUTO 27003KT 230V300 9999 OVC007/// 07/07 Q1006",
      "taf": "TAF LIPY 311700Z 3118/0118 33008KT 7000 SCT005 BKN030"
    },
    {
      "icao": "LIPZ",
      "alert": "OK",
      "vis_m": 7000,
      "fzfg": false,
      "metar_trigger": false,
      "taf_trigger": false,
      "metar": "METAR LIPZ 312050Z VRB02KT 7000 NSC 05/05 Q1006 NOSIG",
      "taf": "TAF LIPZ 311700Z 3118/0124 VRB05KT 9999 FEW040"
    },
    {
      "icao": "LIRF",
      "alert": "OK",
      "vis_m": 9999,
      "fzfg": false,
      "metar_trigger": false,
      "taf_trigger": false,
      "metar": "METAR LIRF 312050Z 01005KT CAVOK 09/05 Q1001 NOSIG",
      "taf": "TAF LIRF 311700Z 3118/0124 02010KT CAVOK"
    },
    {
      "icao": "LIRN",
      "alert": "OK",
      "vis_m": 9999,
      "fzfg": false,
      "metar_trigger": false,
      "taf_trigger": false,
      "metar": "METAR LIRN 312050Z 02012KT 9999 FEW050 11/05 Q0999 NOSIG",
      "taf": "TAF LIRN 311700Z 3118/0118 03012KT 8000 FEW030"
    },
    {
      "icao": "LIRP",
      "alert": "OK",
      "vis_m": 9999,
      "fzfg": false,
      "metar_trigger": false,
      "taf_trigger": false,
      "metar": "METAR LIRP 312045Z 15005KT CAVOK 07/05 Q1004 NOSIG",
      "taf": "TAF LIRP 311700Z 3118/0118 14005KT 9999 FEW060"
    },
    {
      "icao": "LIRZ",
      "alert": "OK",
      "vis_m": 9999,
      "fzfg": false,
      "metar_trigger": false,
      "taf_trigger": false,
      "metar": "METAR LIRZ 312050Z AUTO 03013KT 9999 NCD 07/05 Q1003",
      "taf": "TAF LIRZ 311700Z 3118/0118 03012KT CAVOK"
    },
    {
      "icao": "LJLJ",
      "alert": "OK",
      "vis_m": 9999,
      "fzfg": false,
      "metar_trigger": false,
      "taf_trigger": false,
      "metar": "METAR LJLJ 312100Z 28002KT 9999 FEW003 OVC038 03/02 Q1007 NOSIG",
      "taf": "TAF LJLJ 311700Z 3118/0118 VRB02KT 9999 FEW017 OVC035"
    },
    {
      "icao": "LKMT",
      "alert": "OK",
      "vis_m": 9999,
      "fzfg": false,
      "metar_trigger": false,
      "taf_trigger": false,
      "metar": "METAR LKMT 312100Z 05010KT 9999 OVC017 M08/M10 Q1013 NOSIG",
      "taf": "TAF LKMT 311700Z 3118/0118 03010KT 8000 SCT011 BKN014 OVC018"
    },
    {
      "icao": "LKPR",
      "alert": "OK",
      "vis_m": 9999,
      "fzfg": false,
      "metar_trigger": false,
      "taf_trigger": false,
      "metar": "METAR LKPR 312100Z 07005KT 9999 FEW010 OVC028 M02/M03 Q1010 NOSIG",
      "taf": "TAF LKPR 312000Z 3121/0203 06006KT 6000 SCT008 BKN012 OVC030"
    },
    {
      "icao": "LLBG",
      "alert": "OK",
      "vis_m": 9999,
      "fzfg": false,
      "metar_trigger": false,
      "taf_trigger": false,
      "metar": "METAR LLBG 312120Z VRB01KT CAVOK 17/07 Q1013 NOSIG",
      "taf": "TAF LLBG 311703Z 3118/0118 VRB04KT CAVOK"
    },
    {
      "icao": "LMML",
      "alert": "OK",
      "vis_m": 9999,
      "fzfg": false,
      "metar_trigger": false,
      "taf_trigger": false,
      "metar": "METAR LMML 312115Z 25019G29KT 9999 -SHRA FEW020 12/08 Q0998 NOSIG",
      "taf": "TAF LMML 311700Z 3118/0118 27018KT 9999 FEW018"
    },
    {
      "icao": "LOWW",
      "alert": "OK",
      "vis_m": 7000,
      "fzfg": false,
      "metar_trigger": false,
      "taf_trigger": false,
      "metar": "METAR LOWW 312050Z 01006KT 7000 BKN007 M01/M03 Q1010 NOSIG",
      "taf": "TAF LOWW 312015Z 3121/0203 35005KT 5000 BR BKN006 TXM01/3121Z TNM02/0107Z"
    },
    {
      "icao": "LPFR",
      "alert": "OK",
      "vis_m": 9999,
      "fzfg": false,
      "metar_trigger": false,
      "taf_trigger": false,
      "metar": "METAR LPFR 312100Z 25006KT 9999 FEW025 14/12 Q1021",
      "taf": "TAF LPFR 311700Z 3118/0118 25010KT 9999 SCT030"
    },
    {
      "icao": "LPMA",
      "alert": "OK",
      "vis_m": 9999,
      "fzfg": false,
      "metar_trigger": false,
      "taf_trigger": false,
      "metar": "METAR LPMA 312100Z VRB01KT 9999 SCT013 18/16 Q1024",
      "taf": "TAF LPMA 311700Z 3118/0118 VRB05KT 9999 SCT015"
    },
    {
      "icao": "LPPR",
      "alert": "OK",
      "vis_m": 9999,
      "fzfg": false,
      "metar_trigger": false,
      "taf_trigger": false,
      "metar": "METAR LPPR 312100Z 16009KT 9999 FEW020 BKN030 12/10 Q1017",
      "taf": "TAF LPPR 311700Z 3118/0118 20007KT 9999 SCT035"
    },
    {
      "icao": "LPPS",
      "alert": "OK",
      "vis_m": 9999,
      "fzfg": false,
      "metar_trigger": false,
      "taf_trigger": false,
      "metar": "METAR LPPS 312100Z 30006KT 9999 SCT008 SCT030 17/16 Q1024",
      "taf": "TAF LPPS 311700Z 3118/0124 29008KT 9999 SCT012"
    },
    {
      "icao": "LPPT",
      "alert": "OK",
      "vis_m": 5000,
      "fzfg": false,
      "metar_trigger": false,
      "taf_trigger": false,
      "metar": "METAR LPPT 312100Z 20009KT 5000 -DZRA BR SCT006 SCT010 BKN014 13/12 Q1019",
      "taf": "TAF LPPT 311700Z 3118/0124 23008KT 9999 SCT018 BKN030"
    },
    {
      "icao": "LQBK",
      "alert": "OK",
      "vis_m": 9999,
      "fzfg": false,
      "metar_trigger": false,
      "taf_trigger": false,
      "metar": "METAR LQBK 312100Z 08003KT 050V110 9999 OVC030 05/02 Q1008 NOSIG",
      "taf": "TAF LQBK 311700Z 3118/0118 06005KT 9999 SCT013 BKN030 TX04/0113Z TN01/0105Z"
    },
    {
      "icao": "LQSA",
      "alert": "OK",
      "vis_m": 7000,
      "fzfg": false,
      "metar_trigger": false,
      "taf_trigger": false,
      "metar": "METAR LQSA 312100Z 27006KT 7000 -RA BKN020 OVC035 04/03 Q1005 NOSIG",
      "taf": "TAF LQSA 311700Z 3118/0118 29006KT 9999 BKN045 TX05/0113Z TN01/0105Z"
    },
    {
      "icao": "LQTZ",
      "alert": "OK",
      "vis_m": 6000,
      "fzfg": false,
      "metar_trigger": false,
      "taf_trigger": false,
      "metar": "METAR LQTZ 312100Z 08001KT 6000 -RA OVC014 05/05 Q1007",
      "taf": "TAF LQTZ 311700Z 3118/0118 10005KT 9999 SCT015 BKN025 TX04/0113Z TN01/0105Z"
    },
    {
      "icao": "LRBC",
      "alert": "OK",
      "vis_m": 9999,
      "fzfg": false,
      "metar_trigger": false,
      "taf_trigger": false,
      "metar": "METAR LRBC 312100Z 36012KT 9999 BKN017 M06/M09 Q1015",
      "taf": "TAF LRBC 312000Z 3121/0106 35012KT 9999 BKN030"
    },
    {
      "icao": "LRBS",
      "alert": "OK",
      "vis_m": 9999,
      "fzfg": false,
      "metar_trigger": false,
      "taf_trigger": false,
      "metar": "METAR LRBS 312100Z 08013KT 9999 OVC040 M01/M04 Q1013 NOSIG",
      "taf": "TAF LRBS 311700Z 3118/0118 06010KT 9999 BKN040"
    },
    {
      "icao": "LRBV",
      "alert": "OK",
      "vis_m": 9999,
      "fzfg": false,
      "metar_trigger": false,
      "taf_trigger": false,
      "metar": "METAR LRBV 312100Z 09003KT 9999 BKN016 OVC022 M01/M04 Q1008",
      "taf": "TAF LRBV 312000Z 3121/0106 09005KT 9999 OVC015"
    },
    {
      "icao": "LRCL",
      "alert": "OK",
      "vis_m": 9999,
      "fzfg": false,
      "metar_trigger": false,
      "taf_trigger": false,
      "metar": "METAR LRCL 312100Z 09001KT 9999 OVC008 02/01 Q1009",
      "taf": "TAF LRCL 312000Z 3121/0106 VRB04KT 9999 OVC010"
    },
    {
      "icao": "LRCV",
      "alert": "OK",
      "vis_m": 6000,
      "fzfg": false,
      "metar_trigger": false,
      "taf_trigger": false,
      "metar": "METAR LRCV 312100Z 10009KT 6000 -SN OVC007 01/00 Q1011",
      "taf": "TAF LRCV 312000Z 3121/0106 09010KT 7000 BKN010 OVC025"
    },
    {
      "icao": "LRIA",
      "alert": "OK",
      "vis_m": 9999,
      "fzfg": false,
      "metar_trigger": false,
      "taf_trigger": false,
      "metar": "METAR LRIA 312100Z 34015KT 9999 OVC015 M08/M12 Q1016",
      "taf": "TAF LRIA 312000Z 3121/0106 33012KT 9999 OVC015"
    },
    {
      "icao": "LROP",
      "alert": "OK",
      "vis_m": 9999,
      "fzfg": false,
      "metar_trigger": false,
      "taf_trigger": false,
      "metar": "METAR LROP 312100Z 09014KT 9999 OVC042 M01/M05 Q1012 NOSIG",
      "taf": "TAF LROP 311700Z 3118/0118 07012KT 9999 BKN040"
    },
    {
      "icao": "LRSB",
      "alert": "OK",
      "vis_m": 8000,
      "fzfg": false,
      "metar_trigger": false,
      "taf_trigger": false,
      "metar": "METAR LRSB 312100Z 30002KT 8000 -RA BKN016 OVC022 03/02 Q1008",
      "taf": "TAF LRSB 311700Z 3118/0118 VRB04KT 9999 BKN035 OVC050"
    },
    {
      "icao": "LRSM",
      "alert": "OK",
      "vis_m": 9999,
      "fzfg": false,
      "metar_trigger": false,
      "taf_trigger": false,
      "metar": "METAR LRSM 312100Z AUTO 31005KT 9999 FEW034/// BKN040/// OVC046/// 01/M01 Q1010",
      "taf": ""
    },
    {
      "icao": "LRSV",
      "alert": "OK",
      "vis_m": 9999,
      "fzfg": false,
      "metar_trigger": false,
      "taf_trigger": false,
      "metar": "METAR LRSV 312100Z 35012KT 9999 -SN BKN008 M11/M12 Q1014",
      "taf": "TAF LRSV 312000Z 3121/0106 35012KT 9999 BKN010 OVC035"
    },
    {
      "icao": "LRTM",
      "alert": "OK",
      "vis_m": 9999,
      "fzfg": false,
      "metar_trigger": false,
      "taf_trigger": false,
      "metar": "METAR LRTM 312100Z AUTO 06006KT 9999 OVC013/// 02/02 Q1009",
      "taf": "TAF LRTM 312000Z 3121/0106 VRB04KT 3000 BR OVC010"
    },
    {
      "icao": "LRTR",
      "alert": "OK",
      "vis_m": 7000,
      "fzfg": false,
      "metar_trigger": false,
      "taf_trigger": false,
      "metar": "METAR LRTR 312100Z 07004KT 7000 FEW020 OVC033 03/03 Q1009 TEMPO 5000 BR",
      "taf": "TAF LRTR 311700Z 3118/0118 VRB04KT 9999 BKN015 OVC025"
    },
    {
      "icao": "LTAC",
      "alert": "OK",
      "vis_m": 9999,
      "fzfg": false,
      "metar_trigger": false,
      "taf_trigger": false,
      "metar": "METAR LTAC 312050Z 21007KT 9999 BKN035 BKN080 05/03 Q1007 NOSIG RMK RWY21C 20010KT RWY03L 20007KT RWY21R 19011KT RWY03R VRB01KT RWY21L 21009KT",
      "taf": "TAF LTAC 311640Z 3118/0118 VRB02KT 9999 SCT035 BKN090"
    },
    {
      "icao": "LTFM",
      "alert": "OK",
      "vis_m": 8000,
      "fzfg": false,
      "metar_trigger": false,
      "taf_trigger": false,
      "metar": "METAR LTFM 312050Z 04010KT 8000 -SHRA BKN008 BKN025 05/03 Q1010 NOSIG RMK RWY17L 04010KT RWY34L 03008KT RWY16R 03010KT RWY36 03010KT RWY18 04009KT",
      "taf": "TAF LTFM 311640Z 3118/0124 03015KT 8000 -SHRA BKN011 BKN025"
    },
    {
      "icao": "LUKK",
      "alert": "OK",
      "vis_m": 9999,
      "fzfg": false,
      "metar_trigger": false,
      "taf_trigger": false,
      "metar": "METAR LUKK 312100Z 01013KT 9999 FEW017 BKN024 M08/M12 Q1014 NOSIG",
      "taf": "TAF LUKK 311716Z 3118/0118 36012KT 9999 BKN015"
    },
    {
      "icao": "LWOH",
      "alert": "OK",
      "vis_m": null,
      "fzfg": false,
      "metar_trigger": false,
      "taf_trigger": false,
      "metar": "",
      "taf": "TAF LWOH 312030Z 3121/0121 34008KT 9999 SCT033 BKN070"
    },
    {
      "icao": "LWSK",
      "alert": "OK",
      "vis_m": 9999,
      "fzfg": false,
      "metar_trigger": false,
      "taf_trigger": false,
      "metar": "METAR LWSK 312120Z VRB02KT 9999 BKN090 05/03 Q1006 NOSIG",
      "taf": "TAF LWSK 312030Z 3121/0121 04006KT 9999 BKN080"
    },
    {
      "icao": "LYBE",
      "alert": "OK",
      "vis_m": 7000,
      "fzfg": false,
      "metar_trigger": false,
      "taf_trigger": false,
      "metar": "METAR LYBE 312100Z 04004KT 7000 SCT045 04/03 Q1009 NOSIG",
      "taf": "TAF LYBE 311700Z 3118/0118 04005KT 9999 BKN030 TX05/0113Z TN02/0118Z"
    },
    {
      "icao": "LYNI",
      "alert": "OK",
      "vis_m": 9999,
      "fzfg": false,
      "metar_trigger": false,
      "taf_trigger": false,
      "metar": "METAR LYNI 312100Z VRB02KT 9999 SCT023 BKN040 06/03 Q1007 NOSIG",
      "taf": "TAF LYNI 311700Z 3118/0118 34006KT 9999 FEW015 BKN030 TX06/3118Z TNM01/0118Z"
    },
    {
      "icao": "LYPG",
      "alert": "OK",
      "vis_m": 9999,
      "fzfg": false,
      "metar_trigger": false,
      "taf_trigger": false,
      "metar": "METAR LYPG 312100Z 34005KT CAVOK 05/04 Q1004 NOSIG",
      "taf": "TAF LYPG 311700Z 3118/0118 36005KT 9999 FEW020 SCT050 TX10/0112Z TN05/0105Z"
    },
    {
      "icao": "LZIB",
      "alert": "OK",
      "vis_m": 6000,
      "fzfg": false,
      "metar_trigger": false,
      "taf_trigger": false,
      "metar": "METAR LZIB 312100Z 27004KT 6000 FEW005 SCT013 BKN037 02/01 Q1010 TEMPO BKN008",
      "taf": "TAF LZIB 311715Z 3118/0118 VRB02KT 7000 OVC009"
    },
    {
      "icao": "LZKZ",
      "alert": "OK",
      "vis_m": 9999,
      "fzfg": false,
      "metar_trigger": false,
      "taf_trigger": false,
      "metar": "METAR LZKZ 312100Z 01019KT 9999 BKN037 M05/M10 Q1011 NOSIG",
      "taf": "TAF LZKZ 311715Z 3118/0118 01013KT 9999 BKN032"
    },
    {
      "icao": "LZTT",
      "alert": "OK",
      "vis_m": 6000,
      "fzfg": false,
      "metar_trigger": false,
      "taf_trigger": false,
      "metar": "METAR LZTT 312100Z 05006KT 6000 BKN003 OVC009 M09/M11 Q1009",
      "taf": ""
    },
    {
      "icao": "OEJN",
      "alert": "OK",
      "vis_m": 9999,
      "fzfg": false,
      "metar_trigger": false,
      "taf_trigger": false,
      "metar": "METAR OEJN 312100Z 35003KT CAVOK 24/18 Q1013 NOSIG",
      "taf": "TAF OEJN 311700Z 3118/0124 02006KT 9999 FEW040"
    },
    {
      "icao": "OEMA",
      "alert": "OK",
      "vis_m": 9999,
      "fzfg": false,
      "metar_trigger": false,
      "taf_trigger": false,
      "metar": "METAR OEMA 312100Z 31006KT CAVOK 22/10 Q1018 NOSIG",
      "taf": "TAF OEMA 311700Z 3118/0124 31006KT 9999 FEW045"
    },
    {
      "icao": "OJAI",
      "alert": "OK",
      "vis_m": 5000,
      "fzfg": false,
      "metar_trigger": false,
      "taf_trigger": false,
      "metar": "METAR OJAI 312100Z 11004KT 5000 HZ NSC 11/04 Q1017 NOSIG",
      "taf": "TAF OJAI 311700Z 3118/0124 20010KT 5000 HZ NSC"
    },
    {
      "icao": "OMAA",
      "alert": "OK",
      "vis_m": 9999,
      "fzfg": false,
      "metar_trigger": false,
      "taf_trigger": false,
      "metar": "METAR OMAA 312100Z VRB02KT CAVOK 18/13 Q1017 NOSIG",
      "taf": "TAF OMAA 311700Z 3118/0200 VRB02KT 8000 NSC"
    },
    {
      "icao": "OMDB",
      "alert": "OK",
      "vis_m": 9999,
      "fzfg": false,
      "metar_trigger": false,
      "taf_trigger": false,
      "metar": "METAR OMDB 312100Z 24004KT 210V280 CAVOK 20/14 Q1017 NOSIG",
      "taf": "TAF OMDB 311700Z 3118/0200 21005KT 8000 NSC"
    },
    {
      "icao": "UAAA",
      "alert": "OK",
      "vis_m": 1600,
      "fzfg": false,
      "metar_trigger": false,
      "taf_trigger": false,
      "metar": "METAR UAAA 312100Z 15002MPS 1600 R23L/P2000D BR SCT200 M05/M07 Q1019 NOSIG",
      "taf": "TAF UAAA 311701Z 3118/0118 22003MPS 2000 BR FU SCT011 BKN050 TX04/0109Z TNM05/0102Z"
    },
    {
      "icao": "UBBB",
      "alert": "OK",
      "vis_m": 7000,
      "fzfg": false,
      "metar_trigger": false,
      "taf_trigger": false,
      "metar": "METAR UBBB 312100Z 31008KT 7000 BKN008 05/04 Q1006 NOSIG",
      "taf": "TAF UBBB 311655Z 3118/0118 32005KT 2000 BR BKN007 TX10/0110Z TN02/0100Z"
    },
    {
      "icao": "UDSG",
      "alert": "OK",
      "vis_m": 1600,
      "fzfg": false,
      "metar_trigger": false,
      "taf_trigger": false,
      "metar": "METAR UDSG 312100Z 06001KT 1600 R02/P2000U BR OVC016 M03/M03 Q1013 NOSIG",
      "taf": "TAF UDSG 311658Z 3118/0118 VRB04KT 1500 BR OVC010"
    },
    {
      "icao": "UDYZ",
      "alert": "OK",
      "vis_m": 800,
      "fzfg": true,
      "metar_trigger": false,
      "taf_trigger": false,
      "metar": "METAR UDYZ 312100Z VRB02KT 0800 0400E R08/P2000D FZFG VV011 M03/M03 Q1015 NOSIG",
      "taf": "TAF UDYZ 311700Z 3118/0118 VRB04KT 1000 BR SCT007 BKN010"
    },
    {
      "icao": "UGKO",
      "alert": "OK",
      "vis_m": 9999,
      "fzfg": false,
      "metar_trigger": false,
      "taf_trigger": false,
      "metar": "METAR UGKO 312100Z COR 09011KT 9999 BKN095 10/05 Q1005 NOSIG",
      "taf": "TAF UGKO 311700Z 3118/0118 08007KT 9999 BKN050 TX11/0111Z TN08/0103Z"
    }
  ]
}