{
  "ts_utc": "2025-12-22T13:21:15Z",
  "threshold_m": 150,
  "source": "stations_override.txt (ICAO list) + aviationweather.gov (METAR/TAF raw)",
  "station_count": 159,
  "stations": [
    {
      "icao": "BIKF",
      "alert": "OK",
      "vis_m": 8000,
      "fzfg": false,
      "metar_trigger": false,
      "taf_trigger": false,
      "metar": "METAR BIKF 221300Z 12029G40KT 8000 -RA BKN015 08/06 Q0996",
      "taf": "TAF BIKF 221043Z 2212/2312 13028G40KT 9999 -SHRA SCT015 BKN025 TX08/2216Z TN02/2306Z"
    },
    {
      "icao": "BKPR",
      "alert": "OK",
      "vis_m": 8000,
      "fzfg": false,
      "metar_trigger": false,
      "taf_trigger": false,
      "metar": "METAR BKPR 221300Z 29005KT 8000 BKN008 03/02 Q1018 NOSIG",
      "taf": "TAF BKPR 221130Z 2212/2312 VRB03KT 6000 SCT010 BKB020"
    },
    {
      "icao": "EBCI",
      "alert": "OK",
      "vis_m": 9999,
      "fzfg": false,
      "metar_trigger": false,
      "taf_trigger": false,
      "metar": "METAR EBCI 221250Z VRB01KT CAVOK 10/04 Q1009 NOSIG",
      "taf": "TAF EBCI 221106Z 2212/2318 VRB03KT CAVOK"
    },
    {
      "icao": "EDDB",
      "alert": "OK",
      "vis_m": 6000,
      "fzfg": false,
      "metar_trigger": false,
      "taf_trigger": false,
      "metar": "METAR EDDB 221250Z AUTO 09010KT 6000 OVC004 03/02 Q1018 BECMG BKN006",
      "taf": "TAF EDDB 221100Z 2212/2312 07011KT 8000 BKN003"
    },
    {
      "icao": "EDDH",
      "alert": "OK",
      "vis_m": 9999,
      "fzfg": false,
      "metar_trigger": false,
      "taf_trigger": false,
      "metar": "METAR EDDH 221250Z AUTO 08010KT 050V110 9999 OVC004 03/03 Q1018 TEMPO OVC005",
      "taf": "TAF EDDH 221100Z 2212/2318 09011KT 7000 OVC003"
    },
    {
      "icao": "EDDK",
      "alert": "OK",
      "vis_m": 9999,
      "fzfg": false,
      "metar_trigger": false,
      "taf_trigger": false,
      "metar": "METAR EDDK 221250Z AUTO 14011KT 9999 OVC017 05/01 Q1012 NOSIG",
      "taf": "TAF EDDK 221100Z 2212/2318 11007KT 9999 BKN020"
    },
    {
      "icao": "EDDN",
      "alert": "OK",
      "vis_m": 9999,
      "fzfg": false,
      "metar_trigger": false,
      "taf_trigger": false,
      "metar": "METAR EDDN 221250Z AUTO 10008KT 9999 OVC016 04/00 Q1011 NOSIG",
      "taf": "TAF EDDN 221100Z 2212/2312 10008KT 9999 BKN015"
    },
    {
      "icao": "EDDS",
      "alert": "OK",
      "vis_m": 9999,
      "fzfg": false,
      "metar_trigger": false,
      "taf_trigger": false,
      "metar": "METAR EDDS 221250Z AUTO 07004KT 030V090 9999 BKN008 02/M00 Q1009 TEMPO SCT008",
      "taf": "TAF EDDS 221100Z 2212/2312 06004KT 9999 FEW005"
    },
    {
      "icao": "EDFH",
      "alert": "OK",
      "vis_m": 8000,
      "fzfg": false,
      "metar_trigger": false,
      "taf_trigger": false,
      "metar": "METAR EDFH 221250Z 11008KT 8000 SCT002 OVC004 01/M00 Q1009",
      "taf": "TAF EDFH 221100Z 2212/2312 13011KT 8000 OVC002"
    },
    {
      "icao": "EDJA",
      "alert": "OK",
      "vis_m": 5000,
      "fzfg": false,
      "metar_trigger": false,
      "taf_trigger": false,
      "metar": "METAR EDJA 221250Z COR 05005KT 5000 OVC002 M01/M02 Q1009",
      "taf": "TAF EDJA 221100Z 2212/2221 07005KT 7000 OVC003"
    },
    {
      "icao": "EDLW",
      "alert": "OK",
      "vis_m": 9999,
      "fzfg": false,
      "metar_trigger": false,
      "taf_trigger": false,
      "metar": "METAR EDLW 221250Z 05011KT CAVOK 06/02 Q1011",
      "taf": "TAF EDLW 221100Z 2212/2312 07008KT 9999 SCT020"
    },
    {
      "icao": "EDNY",
      "alert": "OK",
      "vis_m": 9999,
      "fzfg": false,
      "metar_trigger": false,
      "taf_trigger": false,
      "metar": "METAR EDNY 221250Z 03008KT 360V060 9999 SCT011 02/M00 Q1009",
      "taf": "TAF EDNY 221100Z 2212/2221 03005KT 9999 OVC007"
    },
    {
      "icao": "EDSB",
      "alert": "OK",
      "vis_m": 9000,
      "fzfg": false,
      "metar_trigger": false,
      "taf_trigger": false,
      "metar": "METAR EDSB 221250Z 02009KT 9000 BKN015 04/01 Q1010",
      "taf": "TAF EDSB 221100Z 2212/2312 03004KT 8000 SCT010"
    },
    {
      "icao": "EETN",
      "alert": "OK",
      "vis_m": 1400,
      "fzfg": false,
      "metar_trigger": false,
      "taf_trigger": false,
      "metar": "METAR EETN 221320Z 07005KT 1400 R08/P2000N SHSN BR SCT005 BKN010 SCT015CB 00/M00 Q1023 TEMPO 3000",
      "taf": "TAF EETN 221130Z 2212/2312 36005KT 9999 SCT008 FEW015CB BKN025"
    },
    {
      "icao": "EFTU",
      "alert": "OK",
      "vis_m": 9999,
      "fzfg": false,
      "metar_trigger": false,
      "taf_trigger": false,
      "metar": "METAR EFTU 221250Z AUTO 35005KT 320V030 9999 OVC003 M00/M01 Q1024",
      "taf": "TAF EFTU 221128Z 2212/2312 34004KT 9999 SCT004 BKN020"
    },
    {
      "icao": "EGBB",
      "alert": "OK",
      "vis_m": 4500,
      "fzfg": false,
      "metar_trigger": false,
      "taf_trigger": false,
      "metar": "METAR EGBB 221250Z 08005KT 4500 HZ OVC007 09/08 Q1008",
      "taf": "TAF EGBB 221104Z 2212/2312 09006KT 9999 BKN012"
    },
    {
      "icao": "EGGP",
      "alert": "OK",
      "vis_m": 9999,
      "fzfg": false,
      "metar_trigger": false,
      "taf_trigger": false,
      "metar": "METAR EGGP 221250Z 10006KT 9999 6000SW SCT018 BKN024 09/06 Q1008",
      "taf": "TAF EGGP 221058Z 2212/2312 08008KT 9999 FEW010 BKN030"
    },
    {
      "icao": "EGGW",
      "alert": "OK",
      "vis_m": 6000,
      "fzfg": false,
      "metar_trigger": false,
      "taf_trigger": false,
      "metar": "METAR EGGW 221250Z AUTO 08005KT 6000 NCD 09/08 Q1008",
      "taf": "TAF EGGW 221057Z 2212/2312 10008KT 9999 FEW003 SCT020"
    },
    {
      "icao": "EGKK",
      "alert": "OK",
      "vis_m": 9999,
      "fzfg": false,
      "metar_trigger": false,
      "taf_trigger": false,
      "metar": "METAR EGKK 221250Z VRB02KT 9999 BKN011 11/09 Q1008",
      "taf": ""
    },
    {
      "icao": "EGNM",
      "alert": "OK",
      "vis_m": 3500,
      "fzfg": false,
      "metar_trigger": false,
      "taf_trigger": false,
      "metar": "METAR EGNM 221250Z 08007KT 3500 BR FEW004 BKN006 07/06 Q1009",
      "taf": "TAF EGNM 221057Z 2212/2312 07006KT 6000 SCT004 BKN007"
    },
    {
      "icao": "EGPD",
      "alert": "OK",
      "vis_m": 9999,
      "fzfg": false,
      "metar_trigger": false,
      "taf_trigger": false,
      "metar": "METAR EGPD 221250Z COR AUTO 13008KT 9999 BKN008 OVC012 09/07 Q1013 NOSIG",
      "taf": "TAF EGPD 221057Z 2212/2312 14010KT 9999 SCT007 BKN012"
    },
    {
      "icao": "EGPF",
      "alert": "OK",
      "vis_m": 9999,
      "fzfg": false,
      "metar_trigger": false,
      "taf_trigger": false,
      "metar": "METAR EGPF 221250Z AUTO 06009KT 9999 BKN025 09/08 Q1010",
      "taf": "TAF EGPF 221057Z 2212/2312 07008KT 9999 FEW012 SCT025"
    },
    {
      "icao": "EHBK",
      "alert": "OK",
      "vis_m": 9999,
      "fzfg": false,
      "metar_trigger": false,
      "taf_trigger": false,
      "metar": "METAR EHBK 221255Z AUTO 08008KT 040V100 9999 NSC 06/03 Q1010 NOSIG",
      "taf": "TAF EHBK 221111Z 2212/2318 07007KT CAVOK"
    },
    {
      "icao": "EHEH",
      "alert": "OK",
      "vis_m": 9999,
      "fzfg": false,
      "metar_trigger": false,
      "taf_trigger": false,
      "metar": "SPECI EHEH 221313Z AUTO 10008KT 070V140 9999 OVC140 07/02 Q1010 BLU NOSIG",
      "taf": "TAF EHEH 221105Z 2212/2318 08007KT CAVOK"
    },
    {
      "icao": "EKBI",
      "alert": "OK",
      "vis_m": 9999,
      "fzfg": false,
      "metar_trigger": false,
      "taf_trigger": false,
      "metar": "METAR EKBI 221250Z AUTO 09014KT 9999 BKN016/// 05/02 Q1020",
      "taf": "TAF EKBI 221127Z 2212/2312 10012KT 9999 BKN015"
    },
    {
      "icao": "EKCH",
      "alert": "OK",
      "vis_m": 9999,
      "fzfg": false,
      "metar_trigger": false,
      "taf_trigger": false,
      "metar": "METAR EKCH 221250Z AUTO 11011KT 9999 OVC021/// 06/01 Q1023 NOSIG",
      "taf": "TAF EKCH 221127Z 2212/2312 10012KT 9999 BKN020"
    },
    {
      "icao": "ENAL",
      "alert": "OK",
      "vis_m": 9999,
      "fzfg": false,
      "metar_trigger": false,
      "taf_trigger": false,
      "metar": "METAR ENAL 221250Z 08005KT CAVOK 03/M01 Q1024",
      "taf": "TAF ENAL 221100Z 2212/2221 15008KT CAVOK"
    },
    {
      "icao": "ENBR",
      "alert": "OK",
      "vis_m": 9999,
      "fzfg": false,
      "metar_trigger": false,
      "taf_trigger": false,
      "metar": "METAR ENBR 221250Z 02003KT CAVOK 01/M01 Q1022 NOSIG RMK WIND 1200FT 11009KT",
      "taf": "TAF ENBR 221100Z 2212/2312 VRB03KT CAVOK"
    },
    {
      "icao": "ENGM",
      "alert": "OK",
      "vis_m": 9999,
      "fzfg": false,
      "metar_trigger": false,
      "taf_trigger": false,
      "metar": "METAR ENGM 221250Z VRB02KT CAVOK M04/M05 Q1026 NOSIG",
      "taf": "TAF ENGM 221100Z 2212/2312 36005KT 9999 FEW002"
    },
    {
      "icao": "ENHD",
      "alert": "OK",
      "vis_m": 9999,
      "fzfg": false,
      "metar_trigger": false,
      "taf_trigger": false,
      "metar": "METAR ENHD 221250Z 10006KT CAVOK 06/01 Q1021",
      "taf": "TAF ENHD 221100Z 2212/2221 09008KT CAVOK"
    },
    {
      "icao": "ENTC",
      "alert": "OK",
      "vis_m": 9999,
      "fzfg": false,
      "metar_trigger": false,
      "taf_trigger": false,
      "metar": "METAR ENTC 221250Z 23007KT 9999 -SHRA SCT007 BKN016 02/01 Q1026 TEMPO BKN009 RMK WIND 2600FT 25016KT",
      "taf": "TAF ENTC 221100Z 2212/2312 22010KT 9999 -DZRA FEW006 BKN014"
    },
    {
      "icao": "ENTO",
      "alert": "OK",
      "vis_m": 9999,
      "fzfg": false,
      "metar_trigger": false,
      "taf_trigger": false,
      "metar": "METAR ENTO 221250Z 01008KT CAVOK M01/M03 Q1025 NOSIG",
      "taf": "TAF ENTO 221100Z 2212/2312 01008KT CAVOK"
    },
    {
      "icao": "ENVA",
      "alert": "OK",
      "vis_m": 9999,
      "fzfg": false,
      "metar_trigger": false,
      "taf_trigger": false,
      "metar": "METAR ENVA 221250Z 07003KT 030V090 CAVOK M02/M03 Q1026 NOSIG RMK WIND 670FT 13005KT",
      "taf": "TAF ENVA 221100Z 2212/2312 10005KT 9999 FEW001"
    },
    {
      "icao": "ENZV",
      "alert": "OK",
      "vis_m": 9999,
      "fzfg": false,
      "metar_trigger": false,
      "taf_trigger": false,
      "metar": "METAR ENZV 221250Z 00000KT CAVOK 06/01 Q1021 NOSIG",
      "taf": "TAF ENZV 221100Z 2212/2312 14005KT CAVOK"
    },
    {
      "icao": "EPGD",
      "alert": "OK",
      "vis_m": 9999,
      "fzfg": false,
      "metar_trigger": false,
      "taf_trigger": false,
      "metar": "METAR EPGD 221300Z 15006KT 9999 BKN025 04/01 Q1023",
      "taf": "TAF EPGD 221130Z 2212/2312 VRB03KT 9999 BKN020"
    },
    {
      "icao": "EPKK",
      "alert": "OK",
      "vis_m": 5000,
      "fzfg": false,
      "metar_trigger": false,
      "taf_trigger": false,
      "metar": "METAR EPKK 221300Z 06010KT 5000 BR OVC004 02/02 Q1019",
      "taf": "TAF EPKK 221130Z 2212/2312 06010KT 4000 BR OVC003"
    },
    {
      "icao": "EPKT",
      "alert": "OK",
      "vis_m": 4800,
      "fzfg": false,
      "metar_trigger": false,
      "taf_trigger": false,
      "metar": "METAR EPKT 221300Z 07006KT 4800 BR OVC003 03/02 Q1019",
      "taf": ""
    },
    {
      "icao": "EPLB",
      "alert": "OK",
      "vis_m": 9999,
      "fzfg": false,
      "metar_trigger": false,
      "taf_trigger": false,
      "metar": "METAR EPLB 221300Z 15003KT 9999 OVC021 03/M00 Q1022",
      "taf": "TAF EPLB 221130Z 2212/2312 16005KT 9999 OVC022"
    },
    {
      "icao": "EPMO",
      "alert": "OK",
      "vis_m": 9999,
      "fzfg": false,
      "metar_trigger": false,
      "taf_trigger": false,
      "metar": "METAR EPMO 221300Z 09007KT 9999 BKN018 03/M00 Q1022",
      "taf": "TAF EPMO 221130Z 2212/2312 09005KT 9999 BKN020"
    },
    {
      "icao": "EPPO",
      "alert": "OK",
      "vis_m": 7000,
      "fzfg": false,
      "metar_trigger": false,
      "taf_trigger": false,
      "metar": "METAR EPPO 221300Z 10010KT 7000 OVC007 00/M01 Q1021",
      "taf": "TAF EPPO 221130Z 2212/2312 09010KT 9999 OVC009"
    },
    {
      "icao": "EPRA",
      "alert": "OK",
      "vis_m": 9999,
      "fzfg": false,
      "metar_trigger": false,
      "taf_trigger": false,
      "metar": "METAR EPRA 221300Z 12007KT 080V150 9999 OVC015 01/M02 Q1022",
      "taf": "TAF EPRA 221130Z 2212/2221 14008KT 9999 OVC018"
    },
    {
      "icao": "EPRZ",
      "alert": "OK",
      "vis_m": 9999,
      "fzfg": false,
      "metar_trigger": false,
      "taf_trigger": false,
      "metar": "METAR EPRZ 221300Z 09010KT 9999 OVC011 03/01 Q1021",
      "taf": "TAF EPRZ 221130Z 2212/2312 08010KT 9999 OVC015"
    },
    {
      "icao": "EPSC",
      "alert": "OK",
      "vis_m": 9999,
      "fzfg": false,
      "metar_trigger": false,
      "taf_trigger": false,
      "metar": "METAR EPSC 221300Z 09007KT 060V120 9999 BKN016 03/M01 Q1021",
      "taf": "TAF EPSC 221130Z 2212/2312 10010KT 9999 OVC012"
    },
    {
      "icao": "EPSY",
      "alert": "OK",
      "vis_m": 9999,
      "fzfg": false,
      "metar_trigger": false,
      "taf_trigger": false,
      "metar": "METAR EPSY 221300Z VRB03KT 9999 OVC024 05/00 Q1023",
      "taf": "TAF EPSY 221130Z 2212/2221 VRB02KT 9999 BKN025"
    },
    {
      "icao": "EPWA",
      "alert": "OK",
      "vis_m": 9999,
      "fzfg": false,
      "metar_trigger": false,
      "taf_trigger": false,
      "metar": "METAR EPWA 221300Z 11008KT 9999 BKN020 03/M01 Q1022 NOSIG",
      "taf": "TAF EPWA 221130Z 2212/2312 11006KT 9999 BKN022"
    },
    {
      "icao": "EPWR",
      "alert": "OK",
      "vis_m": 5000,
      "fzfg": false,
      "metar_trigger": false,
      "taf_trigger": false,
      "metar": "METAR EPWR 221300Z 11009KT 5000 BR OVC005 05/04 Q1018",
      "taf": "TAF EPWR 221130Z 2212/2312 09009KT 6000 OVC005"
    },
    {
      "icao": "ESGG",
      "alert": "OK",
      "vis_m": 9999,
      "fzfg": false,
      "metar_trigger": false,
      "taf_trigger": false,
      "metar": "METAR ESGG 221250Z 07004KT CAVOK 02/M00 Q1024",
      "taf": "TAF ESGG 221130Z 2212/2312 09006KT CAVOK"
    },
    {
      "icao": "ESKN",
      "alert": "OK",
      "vis_m": 9999,
      "fzfg": false,
      "metar_trigger": false,
      "taf_trigger": false,
      "metar": "METAR ESKN 221250Z 34005KT CAVOK M02/M02 Q1025",
      "taf": "TAF ESKN 221130Z 2212/2312 VRB03KT CAVOK"
    },
    {
      "icao": "ESMS",
      "alert": "OK",
      "vis_m": 9999,
      "fzfg": false,
      "metar_trigger": false,
      "taf_trigger": false,
      "metar": "METAR ESMS 221250Z 10009KT 9999 BKN022 06/02 Q1022",
      "taf": "TAF ESMS 221127Z 2212/2312 09010KT 9999 OVC015"
    },
    {
      "icao": "ESSA",
      "alert": "OK",
      "vis_m": 9999,
      "fzfg": false,
      "metar_trigger": false,
      "taf_trigger": false,
      "metar": "METAR ESSA 221250Z 35004KT 320V030 9999 BKN015 M00/M01 Q1025 NOSIG",
      "taf": "TAF ESSA 221130Z 2212/2312 33005KT 9999 SCT010"
    },
    {
      "icao": "EYKA",
      "alert": "OK",
      "vis_m": 9999,
      "fzfg": false,
      "metar_trigger": false,
      "taf_trigger": false,
      "metar": "METAR EYKA 221320Z 30004KT 250V010 9999 OVC016 03/00 Q1023",
      "taf": "TAF EYKA 221100Z 2212/2312 VRB04KT 9000 SCT010 OVC020"
    },
    {
      "icao": "EYPA",
      "alert": "OK",
      "vis_m": 9999,
      "fzfg": false,
      "metar_trigger": false,
      "taf_trigger": false,
      "metar": "METAR EYPA 221320Z 02002KT 9999 BKN028CB BKN038 05/02 Q1023",
      "taf": "TAF EYPA 221100Z 2212/2312 VRB04KT 9000 OVC020"
    },
    {
      "icao": "EYVI",
      "alert": "OK",
      "vis_m": 9999,
      "fzfg": false,
      "metar_trigger": false,
      "taf_trigger": false,
      "metar": "METAR EYVI 221250Z 31006KT 270V330 9999 BKN007 02/01 Q1021 TEMPO BKN005",
      "taf": "TAF EYVI 221115Z 2212/2312 31005KT 9000 OVC015"
    },
    {
      "icao": "GCFV",
      "alert": "OK",
      "vis_m": 9999,
      "fzfg": false,
      "metar_trigger": false,
      "taf_trigger": false,
      "metar": "METAR GCFV 221300Z 02013KT 9999 FEW025 SCT045 19/12 Q1020",
      "taf": "TAF GCFV 220800Z 2209/2309 02015KT 9999 SCT035 TX21/2214Z TN15/2306Z"
    },
    {
      "icao": "GCLP",
      "alert": "OK",
      "vis_m": 9000,
      "fzfg": false,
      "metar_trigger": false,
      "taf_trigger": false,
      "metar": "METAR GCLP 221300Z 03022KT 9000 -RA FEW015 BKN020 17/15 Q1020 RERA NOSIG",
      "taf": "TAF GCLP 220800Z 2209/2309 02017KT 9999 SCT020 BKN035 TX20/2214Z TN16/2306Z"
    },
    {
      "icao": "GCTS",
      "alert": "OK",
      "vis_m": 9999,
      "fzfg": false,
      "metar_trigger": false,
      "taf_trigger": false,
      "metar": "METAR GCTS 221300Z 07016KT 9999 SCT040 20/13 Q1020 NOSIG",
      "taf": "TAF GCTS 220800Z 2209/2309 06015KT 9999 SCT040 TX24/2214Z TN15/2306Z"
    },
    {
      "icao": "GMAD",
      "alert": "OK",
      "vis_m": 9999,
      "fzfg": false,
      "metar_trigger": false,
      "taf_trigger": false,
      "metar": "METAR GMAD 221300Z 23021KT 9999 FEW026 20/09 Q1014 NOSIG",
      "taf": "TAF GMAD 221100Z 2212/2318 23013KT 9999 FEW026"
    },
    {
      "icao": "GMMN",
      "alert": "OK",
      "vis_m": 9999,
      "fzfg": false,
      "metar_trigger": false,
      "taf_trigger": false,
      "metar": "METAR GMMN 221300Z 29012KT 9999 BKN030 16/11 Q1017 NOSIG",
      "taf": "TAF GMMN 221100Z 2212/2318 24008KT 9999 BKN030"
    },
    {
      "icao": "GMMX",
      "alert": "OK",
      "vis_m": 8000,
      "fzfg": false,
      "metar_trigger": false,
      "taf_trigger": false,
      "metar": "METAR GMMX 221230Z 26005KT 230V310 8000 SCT016 BKN020 14/08 Q1018 NOSIG",
      "taf": "TAF GMMX 221100Z 2212/2318 24005KT 8000 SCT020"
    },
    {
      "icao": "HEGN",
      "alert": "OK",
      "vis_m": 9999,
      "fzfg": false,
      "metar_trigger": false,
      "taf_trigger": false,
      "metar": "METAR HEGN 221300Z 08005KT CAVOK 24/15 Q1013 NOSIG",
      "taf": "TAF HEGN 221100Z 2212/2318 13008KT CAVOK"
    },
    {
      "icao": "HEMA",
      "alert": "OK",
      "vis_m": 9999,
      "fzfg": false,
      "metar_trigger": false,
      "taf_trigger": false,
      "metar": "METAR HEMA 221300Z 05008KT CAVOK 24/14 Q1012 NOSIG",
      "taf": "TAF HEMA 221100Z 2212/2318 06008KT CAVOK"
    },
    {
      "icao": "HESH",
      "alert": "OK",
      "vis_m": 9999,
      "fzfg": false,
      "metar_trigger": false,
      "taf_trigger": false,
      "metar": "METAR HESH 221300Z 10004KT CAVOK 24/13 Q1013 NOSIG",
      "taf": "TAF HESH 221100Z 2212/2318 20008KT CAVOK"
    },
    {
      "icao": "HESX",
      "alert": "OK",
      "vis_m": 9999,
      "fzfg": false,
      "metar_trigger": false,
      "taf_trigger": false,
      "metar": "METAR HESX 221300Z 25011KT CAVOK 21/00 Q1013 NOSIG",
      "taf": "TAF HESX 221100Z 2212/2318 23012KT CAVOK"
    },
    {
      "icao": "LATI",
      "alert": "OK",
      "vis_m": 9999,
      "fzfg": false,
      "metar_trigger": false,
      "taf_trigger": false,
      "metar": "METAR LATI 221320Z 34006KT CAVOK 17/02 Q1014 NOSIG",
      "taf": "TAF LATI 221100Z 2212/2312 VRB05KT CAVOK TX17/2212Z TN03/2305Z"
    },
    {
      "icao": "LBPD",
      "alert": "OK",
      "vis_m": 7000,
      "fzfg": false,
      "metar_trigger": false,
      "taf_trigger": false,
      "metar": "METAR LBPD 221300Z AUTO 12004KT 7000 SCT016/// OVC019/// 08/08 Q1020 NOSIG",
      "taf": "TAF LBPD 221100Z 2212/2312 VRB04KT 7000 SCT010 BKN030"
    },
    {
      "icao": "LBSF",
      "alert": "OK",
      "vis_m": 6000,
      "fzfg": false,
      "metar_trigger": false,
      "taf_trigger": false,
      "metar": "METAR LBSF 221300Z VRB02KT 6000 SCT042 07/02 Q1018 NOSIG",
      "taf": "TAF LBSF 221100Z 2212/2312 10010KT 6000 FEW010 SCT025"
    },
    {
      "icao": "LBWN",
      "alert": "OK",
      "vis_m": 9999,
      "fzfg": false,
      "metar_trigger": false,
      "taf_trigger": false,
      "metar": "METAR LBWN 221300Z 35009KT 9999 OVC008 05/05 Q1021 NOSIG",
      "taf": "TAF LBWN 221100Z 2212/2312 35010KT 9999 BKN012 OVC020"
    },
    {
      "icao": "LCLK",
      "alert": "OK",
      "vis_m": 9999,
      "fzfg": false,
      "metar_trigger": false,
      "taf_trigger": false,
      "metar": "METAR LCLK 221300Z 04013KT 360V060 9999 SCT020 FEW025TCU SCT045 18/15 Q1014 NOSIG",
      "taf": "TAF LCLK 221130Z 2212/2312 07013KT 9999 FEW025TCU SCT035"
    },
    {
      "icao": "LCPH",
      "alert": "OK",
      "vis_m": 9999,
      "fzfg": false,
      "metar_trigger": false,
      "taf_trigger": false,
      "metar": "METAR LCPH 221300Z 14013KT 090V160 9999 FEW025 SCT035 20/13 Q1013 NOSIG",
      "taf": "TAF LCPH 221130Z 2212/2312 14015KT 9999 FEW025 SCT035"
    },
    {
      "icao": "LEAL",
      "alert": "OK",
      "vis_m": 9999,
      "fzfg": false,
      "metar_trigger": false,
      "taf_trigger": false,
      "metar": "METAR LEAL 221300Z 30012KT 260V330 9999 FEW025 13/02 Q1008 NOSIG",
      "taf": "TAF LEAL 221100Z 2212/2312 30010KT 9999 FEW040 TX14/2213Z TN08/2307Z"
    },
    {
      "icao": "LEBB",
      "alert": "OK",
      "vis_m": 9999,
      "fzfg": false,
      "metar_trigger": false,
      "taf_trigger": false,
      "metar": "METAR LEBB 221300Z 21006KT 170V260 9999 BKN050 OVC060 11/03 Q1006 TEMPO 3000 RA",
      "taf": "TAF LEBB 221100Z 2212/2312 22008KT 9999 BKN035 TX11/2212Z TN06/2307Z"
    },
    {
      "icao": "LEBL",
      "alert": "OK",
      "vis_m": 9999,
      "fzfg": false,
      "metar_trigger": false,
      "taf_trigger": false,
      "metar": "METAR LEBL 221300Z 31011G26KT CAVOK 10/03 Q1004 NOSIG",
      "taf": "TAF LEBL 221100Z 2212/2312 32004KT 9999 FEW020 TX11/2213Z TN07/2306Z"
    },
    {
      "icao": "LECH",
      "alert": "OK",
      "vis_m": 9999,
      "fzfg": false,
      "metar_trigger": false,
      "taf_trigger": false,
      "metar": "METAR LECH 221300Z AUTO 31010KT 260V350 CAVOK 11/M02 Q1005",
      "taf": ""
    },
    {
      "icao": "LEMD",
      "alert": "OK",
      "vis_m": 9999,
      "fzfg": false,
      "metar_trigger": false,
      "taf_trigger": false,
      "metar": "METAR LEMD 221300Z 02003KT 350V050 9999 SCT013 BKN021 03/02 Q1009 NOSIG",
      "taf": "TAF LEMD 221100Z 2212/2318 VRB04KT 9999 SCT020 TX07/2215Z TNM01/2306Z"
    },
    {
      "icao": "LEMG",
      "alert": "OK",
      "vis_m": 9999,
      "fzfg": false,
      "metar_trigger": false,
      "taf_trigger": false,
      "metar": "METAR LEMG 221300Z 31009KT 9999 FEW020 10/04 Q1012 NOSIG",
      "taf": "TAF LEMG 221100Z 2212/2312 31012KT 9999 FEW040 TX12/2214Z TN07/2306Z"
    },
    {
      "icao": "LEVC",
      "alert": "OK",
      "vis_m": 9999,
      "fzfg": false,
      "metar_trigger": false,
      "taf_trigger": false,
      "metar": "METAR LEVC 221300Z 29018KT 260V320 9999 FEW030 12/M00 Q1007 NOSIG",
      "taf": "TAF LEVC 221100Z 2212/2312 27010KT 9999 FEW040 TX13/2213Z TN07/2307Z"
    },
    {
      "icao": "LEXJ",
      "alert": "OK",
      "vis_m": 9999,
      "fzfg": false,
      "metar_trigger": false,
      "taf_trigger": false,
      "metar": "METAR LEXJ 221300Z 24007KT 200V300 9999 FEW050 SCT065 12/03 Q1006",
      "taf": "TAF LEXJ 220800Z 2209/2309 25009KT 9999 SCT040 TX11/2213Z TN07/2307Z"
    },
    {
      "icao": "LEZG",
      "alert": "OK",
      "vis_m": 9999,
      "fzfg": false,
      "metar_trigger": false,
      "taf_trigger": false,
      "metar": "METAR LEZG 221300Z 31009KT 280V350 9999 FEW060 09/01 Q1006 NOSIG",
      "taf": "TAF LEZG 221100Z 2212/2312 30010KT 9999 FEW040 TX09/2214Z TN03/2306Z"
    },
    {
      "icao": "LEZL",
      "alert": "OK",
      "vis_m": 9999,
      "fzfg": false,
      "metar_trigger": false,
      "taf_trigger": false,
      "metar": "METAR LEZL 221300Z 22006KT 190V270 9999 FEW049 11/06 Q1014 NOSIG",
      "taf": "TAF LEZL 220800Z 2209/2309 VRB02KT CAVOK TX15/2215Z TN07/2307Z"
    },
    {
      "icao": "LFBD",
      "alert": "OK",
      "vis_m": 9999,
      "fzfg": false,
      "metar_trigger": false,
      "taf_trigger": false,
      "metar": "METAR LFBD 221300Z AUTO 15010KT CAVOK 08/05 Q1006 NOSIG",
      "taf": "TAF LFBD 221100Z 2212/2318 18010KT 9999 BKN040 TX10/2214Z TN04/2302Z"
    },
    {
      "icao": "LFLL",
      "alert": "OK",
      "vis_m": 7000,
      "fzfg": false,
      "metar_trigger": false,
      "taf_trigger": false,
      "metar": "METAR LFLL 221300Z VRB02KT 7000 -RA FEW006 BKN060 BKN090 09/08 Q1006 NOSIG",
      "taf": "TAF LFLL 221100Z 2212/2318 33004KT 7000 FEW006 BKN100"
    },
    {
      "icao": "LFLS",
      "alert": "OK",
      "vis_m": 9000,
      "fzfg": false,
      "metar_trigger": false,
      "taf_trigger": false,
      "metar": "METAR LFLS 221300Z AUTO 11004KT 9000 -RA BKN062/// BKN078/// OVC098/// ///TCU 08/06 Q1006 TEMPO 4000 RA BKN045",
      "taf": "TAF LFLS 220800Z 2209/2309 08006KT CAVOK"
    },
    {
      "icao": "LFMN",
      "alert": "OK",
      "vis_m": 9999,
      "fzfg": false,
      "metar_trigger": false,
      "taf_trigger": false,
      "metar": "METAR LFMN 221300Z 06017KT 030V090 9999 -RA BKN045 16/07 Q1007 WS ALL RWY NOSIG",
      "taf": "TAF LFMN 220800Z 2209/2315 07016KT 9999 BKN045"
    },
    {
      "icao": "LFOB",
      "alert": "OK",
      "vis_m": 9999,
      "fzfg": false,
      "metar_trigger": false,
      "taf_trigger": false,
      "metar": "METAR LFOB 221300Z AUTO 10007KT 9999 FEW014 SCT160 08/07 Q1008 TEMPO BKN011",
      "taf": "TAF LFOB 221100Z 2212/2312 07006KT CAVOK"
    },
    {
      "icao": "LFPO",
      "alert": "OK",
      "vis_m": 9999,
      "fzfg": false,
      "metar_trigger": false,
      "taf_trigger": false,
      "metar": "METAR LFPO 221300Z 06007KT 9999 FEW010 SCT076 BKN110 09/07 Q1007 NOSIG",
      "taf": "TAF LFPO 221100Z 2212/2318 10004KT 9999 FEW013 SCT110 BKN180"
    },
    {
      "icao": "LFSB",
      "alert": "OK",
      "vis_m": 7000,
      "fzfg": false,
      "metar_trigger": false,
      "taf_trigger": false,
      "metar": "METAR LFSB 221300Z AUTO VRB02KT 7000 BKN004 OVC008 03/03 Q1009 TEMPO 3000 BR",
      "taf": "TAF LFSB 221100Z 2212/2312 35004KT 9999 BKN007"
    },
    {
      "icao": "LGAV",
      "alert": "OK",
      "vis_m": 9999,
      "fzfg": false,
      "metar_trigger": false,
      "taf_trigger": false,
      "metar": "METAR LGAV 221250Z 01013KT 9999 FEW020 SCT040 BKN070 15/09 Q1015 NOSIG",
      "taf": "TAF LGAV 221100Z 2212/2312 04015KT 9999 SCT035 BKN070"
    },
    {
      "icao": "LGTS",
      "alert": "OK",
      "vis_m": 9999,
      "fzfg": false,
      "metar_trigger": false,
      "taf_trigger": false,
      "metar": "METAR LGTS 221250Z 26004KT 9999 FEW018 SCT050 14/08 Q1018 NOSIG",
      "taf": "TAF LGTS 221100Z 2212/2312 VRB03KT 9999 FEW010 SCT025"
    },
    {
      "icao": "LHBP",
      "alert": "OK",
      "vis_m": 7000,
      "fzfg": false,
      "metar_trigger": false,
      "taf_trigger": false,
      "metar": "METAR LHBP 221300Z 13005KT 7000 BKN006 OVC011 04/03 Q1020 NOSIG",
      "taf": "TAF LHBP 221115Z 2212/2312 12007KT 8000 SCT006 OVC015"
    },
    {
      "icao": "LHDC",
      "alert": "OK",
      "vis_m": 1800,
      "fzfg": false,
      "metar_trigger": false,
      "taf_trigger": false,
      "metar": "METAR LHDC 221245Z AUTO 23002KT 1800 -DZ BR OVC006 06/05 Q1020 TEMPO 1200 BCFG BR",
      "taf": "TAF LHDC 221115Z 2212/2221 VRB03KT 2500 BR OVC003"
    },
    {
      "icao": "LIBD",
      "alert": "OK",
      "vis_m": 7000,
      "fzfg": false,
      "metar_trigger": false,
      "taf_trigger": false,
      "metar": "METAR LIBD 221250Z 01003KT 320V050 7000 FEW040 13/12 Q1013",
      "taf": "TAF LIBD 221100Z 2212/2312 11007KT 9999 FEW040"
    },
    {
      "icao": "LIBG",
      "alert": "OK",
      "vis_m": 9999,
      "fzfg": false,
      "metar_trigger": false,
      "taf_trigger": false,
      "metar": "METAR LIBG 221250Z 11006KT 9999 FEW025 17/12 Q1013",
      "taf": "TAF LIBG 221100Z 2212/2221 08007KT 9999 FEW040"
    },
    {
      "icao": "LIBP",
      "alert": "OK",
      "vis_m": 9999,
      "fzfg": false,
      "metar_trigger": false,
      "taf_trigger": false,
      "metar": "METAR LIBP 221250Z AUTO 08005KT 9999 BKN022/// BKN041/// 13/09 Q1013",
      "taf": "TAF LIBP 221100Z 2212/2312 VRB04KT 9999 FEW010 BKN030"
    },
    {
      "icao": "LIBR",
      "alert": "OK",
      "vis_m": 9999,
      "fzfg": false,
      "metar_trigger": false,
      "taf_trigger": false,
      "metar": "METAR LIBR 221250Z 05005KT 9999 SCT045 15/13 Q1014",
      "taf": "TAF LIBR 221100Z 2212/2312 11010KT 9999 SCT020"
    },
    {
      "icao": "LICA",
      "alert": "OK",
      "vis_m": 9999,
      "fzfg": false,
      "metar_trigger": false,
      "taf_trigger": false,
      "metar": "METAR LICA 221250Z AUTO 09014KT 9999 NCD 17/12 Q1011",
      "taf": "TAF LICA 221100Z 2212/2312 08018G28KT 9999 BKN050"
    },
    {
      "icao": "LICC",
      "alert": "OK",
      "vis_m": 9999,
      "fzfg": false,
      "metar_trigger": false,
      "taf_trigger": false,
      "metar": "METAR LICC 221250Z 07004KT 030V100 9999 FEW020 17/16 Q1011",
      "taf": "TAF LICC 221100Z 2212/2312 07012KT 9999 SCT040"
    },
    {
      "icao": "LICJ",
      "alert": "OK",
      "vis_m": 9999,
      "fzfg": false,
      "metar_trigger": false,
      "taf_trigger": false,
      "metar": "METAR LICJ 221250Z 06006KT 9999 SCT040 17/13 Q1010",
      "taf": "TAF LICJ 221100Z 2212/2312 19012KT 9999 SCT040"
    },
    {
      "icao": "LIMC",
      "alert": "OK",
      "vis_m": 9999,
      "fzfg": false,
      "metar_trigger": false,
      "taf_trigger": false,
      "metar": "METAR LIMC 221250Z VRB02KT 9999 BKN055 10/05 Q1014 NOSIG",
      "taf": "TAF LIMC 221100Z 2212/2318 VRB03KT 9999 BKN040"
    },
    {
      "icao": "LIME",
      "alert": "OK",
      "vis_m": 9999,
      "fzfg": false,
      "metar_trigger": false,
      "taf_trigger": false,
      "metar": "METAR LIME 221250Z VRB02KT 9999 FEW060 SCT100 11/05 Q1014 NOSIG",
      "taf": "TAF LIME 221100Z 2212/2312 VRB03KT 8000 SCT050"
    },
    {
      "icao": "LIMF",
      "alert": "OK",
      "vis_m": 4000,
      "fzfg": false,
      "metar_trigger": false,
      "taf_trigger": false,
      "metar": "METAR LIMF 221250Z 35004KT 4000 -RA BR OVC025 08/06 Q1014",
      "taf": "TAF LIMF 221100Z 2212/2312 VRB03KT 8000 SCT030 BKN050"
    },
    {
      "icao": "LIMJ",
      "alert": "OK",
      "vis_m": 9999,
      "fzfg": false,
      "metar_trigger": false,
      "taf_trigger": false,
      "metar": "METAR LIMJ 221250Z 03017KT CAVOK 13/06 Q1011",
      "taf": "TAF LIMJ 221100Z 2212/2312 03015KT 9999 BKN050"
    },
    {
      "icao": "LIPE",
      "alert": "OK",
      "vis_m": 4000,
      "fzfg": false,
      "metar_trigger": false,
      "taf_trigger": false,
      "metar": "METAR LIPE 221250Z 30003KT 280V340 4000 BR SCT005 BKN009 08/07 Q1015",
      "taf": "TAF LIPE 221100Z 2212/2312 VRB04KT 5000 BR BKN020"
    },
    {
      "icao": "LIPH",
      "alert": "OK",
      "vis_m": 9999,
      "fzfg": false,
      "metar_trigger": false,
      "taf_trigger": false,
      "metar": "METAR LIPH 221250Z 04003KT 010V090 9999 BKN060 10/04 Q1015",
      "taf": "TAF LIPH 221100Z 2212/2312 05005KT 9999 FEW050"
    },
    {
      "icao": "LIPQ",
      "alert": "OK",
      "vis_m": 9999,
      "fzfg": false,
      "metar_trigger": false,
      "taf_trigger": false,
      "metar": "METAR LIPQ 221250Z AUTO 05005KT 9999 OVC081/// 12/04 Q1015",
      "taf": "TAF LIPQ 221100Z 2212/2312 07006KT 9999 FEW060"
    },
    {
      "icao": "LIPR",
      "alert": "OK",
      "vis_m": 4000,
      "fzfg": false,
      "metar_trigger": false,
      "taf_trigger": false,
      "metar": "METAR LIPR 221250Z 29006KT 4000 BR BKN010 11/09 Q1014",
      "taf": "TAF LIPR 221100Z 2212/2312 30007KT 3000 BR BKN010"
    },
    {
      "icao": "LIPX",
      "alert": "OK",
      "vis_m": 9999,
      "fzfg": false,
      "metar_trigger": false,
      "taf_trigger": false,
      "metar": "METAR LIPX 221250Z 21003KT 170V240 9999 FEW060 BKN070 10/06 Q1015",
      "taf": "TAF LIPX 221100Z 2212/2312 VRB03KT 9999 BKN040"
    },
    {
      "icao": "LIPY",
      "alert": "OK",
      "vis_m": 9999,
      "fzfg": false,
      "metar_trigger": false,
      "taf_trigger": false,
      "metar": "METAR LIPY 221250Z AUTO 35006KT 9999 FEW010/// 12/11 Q1013",
      "taf": "TAF LIPY 221100Z 2212/2312 VRB05KT 6000 BKN040"
    },
    {
      "icao": "LIPZ",
      "alert": "OK",
      "vis_m": 9999,
      "fzfg": false,
      "metar_trigger": false,
      "taf_trigger": false,
      "metar": "METAR LIPZ 221250Z 02007KT 9999 BKN060 09/05 Q1015 NOSIG",
      "taf": "TAF LIPZ 221100Z 2212/2318 03007KT 9999 SCT050"
    },
    {
      "icao": "LIRF",
      "alert": "OK",
      "vis_m": 9999,
      "fzfg": false,
      "metar_trigger": false,
      "taf_trigger": false,
      "metar": "METAR LIRF 221250Z 07008KT 9999 FEW040 16/08 Q1010 NOSIG",
      "taf": "TAF LIRF 221100Z 2212/2318 06010KT 9999 SCT040"
    },
    {
      "icao": "LIRN",
      "alert": "OK",
      "vis_m": 9999,
      "fzfg": false,
      "metar_trigger": false,
      "taf_trigger": false,
      "metar": "METAR LIRN 221250Z VRB02KT 9999 FEW060 18/07 Q1011 NOSIG",
      "taf": "TAF LIRN 221100Z 2212/2312 05005KT 9999 FEW040"
    },
    {
      "icao": "LIRP",
      "alert": "OK",
      "vis_m": 9999,
      "fzfg": false,
      "metar_trigger": false,
      "taf_trigger": false,
      "metar": "METAR LIRP 221245Z 10010KT 9999 BKN070 15/07 Q1010 NOSIG",
      "taf": "TAF LIRP 221100Z 2212/2312 11007KT 9999 SCT060"
    },
    {
      "icao": "LIRZ",
      "alert": "OK",
      "vis_m": 9999,
      "fzfg": false,
      "metar_trigger": false,
      "taf_trigger": false,
      "metar": "METAR LIRZ 221250Z AUTO VRB01KT 9999 BKN074/// 08/08 Q1011",
      "taf": ""
    },
    {
      "icao": "LJLJ",
      "alert": "OK",
      "vis_m": 9999,
      "fzfg": false,
      "metar_trigger": false,
      "taf_trigger": false,
      "metar": "METAR LJLJ 221300Z 13002KT 9999 FEW007 OVC015 03/01 Q1017 NOSIG",
      "taf": "TAF LJLJ 221100Z 2212/2312 VRB02KT 3500 -DZ BR FEW003 OVC010"
    },
    {
      "icao": "LKMT",
      "alert": "OK",
      "vis_m": 6000,
      "fzfg": false,
      "metar_trigger": false,
      "taf_trigger": false,
      "metar": "METAR LKMT 221300Z 27004KT 240V300 6000 OVC004 02/02 Q1019 NOSIG",
      "taf": "TAF LKMT 221100Z 2212/2312 04004KT 2800 -DZ BR OVC005"
    },
    {
      "icao": "LKPR",
      "alert": "OK",
      "vis_m": 9999,
      "fzfg": false,
      "metar_trigger": false,
      "taf_trigger": false,
      "metar": "METAR LKPR 221300Z 09007KT 9999 -DZ SCT007 BKN010 OVC014 02/02 Q1014 NOSIG",
      "taf": "TAF LKPR 221100Z 2212/2318 11010KT 9999 SCT004 OVC012"
    },
    {
      "icao": "LLBG",
      "alert": "OK",
      "vis_m": 9999,
      "fzfg": false,
      "metar_trigger": false,
      "taf_trigger": false,
      "metar": "METAR LLBG 221250Z 29008KT CAVOK 22/07 Q1013 NOSIG",
      "taf": "TAF LLBG 221106Z 2212/2312 31008KT CAVOK"
    },
    {
      "icao": "LMML",
      "alert": "OK",
      "vis_m": 9999,
      "fzfg": false,
      "metar_trigger": false,
      "taf_trigger": false,
      "metar": "METAR LMML 221315Z VRB02KT 9999 FEW021 18/13 Q1011 NOSIG",
      "taf": "TAF LMML 221100Z 2212/2312 VRB06KT 9999 FEW020"
    },
    {
      "icao": "LOWW",
      "alert": "OK",
      "vis_m": 9999,
      "fzfg": false,
      "metar_trigger": false,
      "taf_trigger": false,
      "metar": "METAR LOWW 221250Z 14017KT 9999 FEW007 SCT012 BKN017 04/02 Q1016 NOSIG",
      "taf": "TAF LOWW 221115Z 2212/2318 15015KT 9000 BKN006 TX04/2301Z TN03/2215Z"
    },
    {
      "icao": "LPFR",
      "alert": "OK",
      "vis_m": 9999,
      "fzfg": false,
      "metar_trigger": false,
      "taf_trigger": false,
      "metar": "METAR LPFR 221300Z 27011KT 9999 FEW025 14/08 Q1014",
      "taf": ""
    },
    {
      "icao": "LPMA",
      "alert": "OK",
      "vis_m": 9999,
      "fzfg": false,
      "metar_trigger": false,
      "taf_trigger": false,
      "metar": "METAR LPMA 221300Z 34009KT 300V020 9999 FEW015 19/10 Q1023",
      "taf": ""
    },
    {
      "icao": "LPPR",
      "alert": "OK",
      "vis_m": 9999,
      "fzfg": false,
      "metar_trigger": false,
      "taf_trigger": false,
      "metar": "METAR LPPR 221300Z 18006KT 9999 VCSH FEW015 FEW018TCU 11/08 Q1012",
      "taf": ""
    },
    {
      "icao": "LPPS",
      "alert": "OK",
      "vis_m": 9999,
      "fzfg": false,
      "metar_trigger": false,
      "taf_trigger": false,
      "metar": "METAR LPPS 221300Z 01011KT 340V040 9999 FEW015 18/11 Q1023",
      "taf": ""
    },
    {
      "icao": "LPPT",
      "alert": "OK",
      "vis_m": 9999,
      "fzfg": false,
      "metar_trigger": false,
      "taf_trigger": false,
      "metar": "METAR LPPT 221300Z 32006KT 280V360 9999 -SHRA SCT022 10/08 Q1014 RESHRA",
      "taf": ""
    },
    {
      "icao": "LQBK",
      "alert": "OK",
      "vis_m": 7000,
      "fzfg": false,
      "metar_trigger": false,
      "taf_trigger": false,
      "metar": "METAR LQBK 221300Z VRB01KT 7000 SCT007 OVC015 05/03 Q1019 NOSIG",
      "taf": "TAF LQBK 221100Z 2212/2312 VRB02KT 7000 BKN005 OVC015 TX06/2213Z TN01/2305Z"
    },
    {
      "icao": "LQSA",
      "alert": "OK",
      "vis_m": 9999,
      "fzfg": false,
      "metar_trigger": false,
      "taf_trigger": false,
      "metar": "METAR LQSA 221300Z 27003KT 240V310 9999 BKN013 02/M00 Q1017 NOSIG",
      "taf": "TAF LQSA 221100Z 2212/2312 VRB02KT 9999 BKN012 TX04/2213Z TNM04/2305Z"
    },
    {
      "icao": "LQTZ",
      "alert": "OK",
      "vis_m": 9999,
      "fzfg": false,
      "metar_trigger": false,
      "taf_trigger": false,
      "metar": "METAR LQTZ 221300Z 01003KT 340V060 9999 SCT019 BKN036 05/03 Q1018",
      "taf": "TAF LQTZ 221100Z 2212/2312 VRB02KT 9999 SCT015 BKN035 TX05/2213Z TNM01/2305Z"
    },
    {
      "icao": "LRBC",
      "alert": "OK",
      "vis_m": 5000,
      "fzfg": false,
      "metar_trigger": false,
      "taf_trigger": false,
      "metar": "METAR LRBC 221300Z 00000KT 5000 BR OVC006 04/04 Q1022",
      "taf": "TAF LRBC 221100Z 2212/2221 VRB04KT 5000 BR OVC005"
    },
    {
      "icao": "LRBS",
      "alert": "OK",
      "vis_m": 9999,
      "fzfg": false,
      "metar_trigger": false,
      "taf_trigger": false,
      "metar": "METAR LRBS 221300Z 05006KT 010V080 9999 OVC007 04/03 Q1022 NOSIG",
      "taf": "TAF LRBS 221100Z 2212/2312 06006KT 9999 BKN005 OVC010"
    },
    {
      "icao": "LRBV",
      "alert": "OK",
      "vis_m": 500,
      "fzfg": true,
      "metar_trigger": false,
      "taf_trigger": false,
      "metar": "METAR LRBV 221300Z VRB02KT 0500 R21/1200U FG VV002 00/00 Q1019",
      "taf": "TAF LRBV 221100Z 2212/2221 VRB04KT 0350 FZFG VV002"
    },
    {
      "icao": "LRCL",
      "alert": "OK",
      "vis_m": 8000,
      "fzfg": false,
      "metar_trigger": false,
      "taf_trigger": false,
      "metar": "METAR LRCL 221300Z VRB01KT 8000 OVC007 03/01 Q1020",
      "taf": "TAF LRCL 221100Z 2212/2221 11006KT 9999 OVC005"
    },
    {
      "icao": "LRCV",
      "alert": "OK",
      "vis_m": 7000,
      "fzfg": false,
      "metar_trigger": false,
      "taf_trigger": false,
      "metar": "METAR LRCV 221300Z COR 08004KT 7000 OVC010 05/04 Q1021",
      "taf": "TAF LRCV 221100Z 2212/2221 09006KT 9999 OVC010"
    },
    {
      "icao": "LRIA",
      "alert": "OK",
      "vis_m": 9999,
      "fzfg": false,
      "metar_trigger": false,
      "taf_trigger": false,
      "metar": "METAR LRIA 221300Z VRB01KT 9999 BKN007 OVC012 04/04 Q1023",
      "taf": "TAF LRIA 221100Z 2212/2221 VRB04KT 5000 BR OVC005"
    },
    {
      "icao": "LROP",
      "alert": "OK",
      "vis_m": 9999,
      "fzfg": false,
      "metar_trigger": false,
      "taf_trigger": false,
      "metar": "METAR LROP 221300Z 05005KT 9999 BKN007 OVC008 04/03 Q1022 NOSIG",
      "taf": "TAF LROP 221100Z 2212/2312 06006KT 9999 BKN005 OVC010"
    },
    {
      "icao": "LRSB",
      "alert": "OK",
      "vis_m": 350,
      "fzfg": true,
      "metar_trigger": false,
      "taf_trigger": false,
      "metar": "METAR LRSB 221300Z 18003KT 140V220 0350 R27/1000D FZFG VV002 M01/M01 Q1019",
      "taf": "TAF LRSB 221100Z 2212/2312 VRB04KT 0350 FZFG VV001"
    },
    {
      "icao": "LRSM",
      "alert": "OK",
      "vis_m": 9999,
      "fzfg": false,
      "metar_trigger": false,
      "taf_trigger": false,
      "metar": "METAR LRSM 221300Z VRB01KT 9999 BKN017 OVC033 07/05 Q1020",
      "taf": "TAF LRSM 221100Z 2212/2221 VRB04KT 5000 BR BKN015"
    },
    {
      "icao": "LRSV",
      "alert": "OK",
      "vis_m": 3000,
      "fzfg": false,
      "metar_trigger": false,
      "taf_trigger": false,
      "metar": "METAR LRSV 221300Z 08005KT 3000 BR OVC003 01/01 Q1021",
      "taf": "TAF LRSV 221100Z 2212/2221 VRB04KT 1500 -DZ BR OVC002"
    },
    {
      "icao": "LRTM",
      "alert": "OK",
      "vis_m": 4000,
      "fzfg": false,
      "metar_trigger": false,
      "taf_trigger": false,
      "metar": "METAR LRTM 221300Z VRB02KT 4000 BR SCT002 BKN004 BKN006 02/02 Q1020",
      "taf": "TAF LRTM 221100Z 2212/2221 VRB04KT 3000 -DZ BR BKN002 OVC005"
    },
    {
      "icao": "LRTR",
      "alert": "OK",
      "vis_m": 9999,
      "fzfg": false,
      "metar_trigger": false,
      "taf_trigger": false,
      "metar": "METAR LRTR 221300Z 08006KT 9999 SCT007 OVC013 05/05 Q1020",
      "taf": "TAF LRTR 221100Z 2212/2312 VRB04KT 9999 BKN005 OVC010"
    },
    {
      "icao": "LTAC",
      "alert": "OK",
      "vis_m": 9999,
      "fzfg": false,
      "metar_trigger": false,
      "taf_trigger": false,
      "metar": "METAR LTAC 221250Z 28004KT 9999 -RA BKN035 BKN080 07/02 Q1016 NOSIG RMK RWY21C 28004KT 240V310 RWY03L 28003KT RWY21R 26003KT 200V360 RWY03R 26004KT RWY21L 27004KT 230V290",
      "taf": "TAF LTAC 221040Z 2212/2312 VRB02KT 9999 SCT040 BKN100"
    },
    {
      "icao": "LTFM",
      "alert": "OK",
      "vis_m": 9999,
      "fzfg": false,
      "metar_trigger": false,
      "taf_trigger": false,
      "metar": "METAR LTFM 221250Z 05019KT 9999 SCT013 BKN022 12/08 Q1018 NOSIG RMK RWY17L 05017KT RWY34L 04016KT RWY16R 05016KT RWY36 05018G29KT RWY18 06017KT",
      "taf": "TAF LTFM 221040Z 2212/2318 03018G28KT 9999 -SHRA SCT014 BKN022"
    },
    {
      "icao": "LUKK",
      "alert": "OK",
      "vis_m": 9999,
      "fzfg": false,
      "metar_trigger": false,
      "taf_trigger": false,
      "metar": "METAR LUKK 221300Z 34004KT 9999 BKN021 OVC025 04/01 Q1022 NOSIG",
      "taf": "TAF LUKK 221118Z 2212/2312 VRB05KT 9999 OVC010"
    },
    {
      "icao": "LWOH",
      "alert": "OK",
      "vis_m": 9999,
      "fzfg": false,
      "metar_trigger": false,
      "taf_trigger": false,
      "metar": "METAR LWOH 221320Z 19003KT 150V260 9999 SCT040 11/05 Q1016",
      "taf": ""
    },
    {
      "icao": "LWSK",
      "alert": "OK",
      "vis_m": 9999,
      "fzfg": false,
      "metar_trigger": false,
      "taf_trigger": false,
      "metar": "METAR LWSK 221320Z VRB02KT 9999 FEW005 OVC010 05/02 Q1019 NOSIG",
      "taf": ""
    },
    {
      "icao": "LYBE",
      "alert": "OK",
      "vis_m": 9999,
      "fzfg": false,
      "metar_trigger": false,
      "taf_trigger": false,
      "metar": "METAR LYBE 221300Z 14010KT 9999 OVC016 06/02 Q1019 NOSIG",
      "taf": "TAF LYBE 221100Z 2212/2312 12008KT 9999 OVC017 TX08/2312Z TN02/2306Z"
    },
    {
      "icao": "LYNI",
      "alert": "OK",
      "vis_m": 9999,
      "fzfg": false,
      "metar_trigger": false,
      "taf_trigger": false,
      "metar": "METAR LYNI 221300Z 20004KT 150V240 9999 FEW017 06/03 Q1019 NOSIG",
      "taf": "TAF LYNI 221100Z 2212/2312 07005KT 9999 SCT023 TX09/2312Z TNM01/2306Z"
    },
    {
      "icao": "LYPG",
      "alert": "OK",
      "vis_m": 9999,
      "fzfg": false,
      "metar_trigger": false,
      "taf_trigger": false,
      "metar": "METAR LYPG 221300Z VRB01KT CAVOK 12/03 Q1016 NOSIG",
      "taf": "TAF LYPG 221100Z 2212/2312 VRB02KT CAVOK TX13/2213Z TN05/2222Z"
    },
    {
      "icao": "LZIB",
      "alert": "OK",
      "vis_m": 8000,
      "fzfg": false,
      "metar_trigger": false,
      "taf_trigger": false,
      "metar": "METAR LZIB 221300Z 12010KT 8000 -DZ BKN006 OVC009 04/03 Q1018 NOSIG",
      "taf": "TAF LZIB 221115Z 2212/2312 12011KT 8000 SCT004 OVC013"
    },
    {
      "icao": "LZKZ",
      "alert": "OK",
      "vis_m": 8000,
      "fzfg": false,
      "metar_trigger": false,
      "taf_trigger": false,
      "metar": "METAR LZKZ 221300Z VRB03KT 8000 SCT008 OVC015 07/04 Q1019 NOSIG",
      "taf": "TAF LZKZ 221115Z 2212/2312 VRB02KT 6000 BKN008"
    },
    {
      "icao": "LZTT",
      "alert": "OK",
      "vis_m": 3500,
      "fzfg": false,
      "metar_trigger": false,
      "taf_trigger": false,
      "metar": "METAR LZTT 221300Z VRB02KT 3500 BR OVC004 02/02 Q1017 NOSIG",
      "taf": "TAF LZTT 221115Z 2212/2312 VRB02KT 4000 BR FEW002 BKN006"
    },
    {
      "icao": "OEJN",
      "alert": "OK",
      "vis_m": 9999,
      "fzfg": false,
      "metar_trigger": false,
      "taf_trigger": false,
      "metar": "METAR OEJN 221300Z 24007KT 9999 FEW040 30/22 Q1011 NOSIG",
      "taf": "TAF OEJN 221100Z 2212/2318 25010KT 9999 SCT040"
    },
    {
      "icao": "OEMA",
      "alert": "OK",
      "vis_m": 9999,
      "fzfg": false,
      "metar_trigger": false,
      "taf_trigger": false,
      "metar": "METAR OEMA 221300Z VRB03KT CAVOK 26/00 Q1016 NOSIG",
      "taf": "TAF OEMA 221100Z 2212/2318 10008KT CAVOK"
    },
    {
      "icao": "OJAI",
      "alert": "OK",
      "vis_m": 5000,
      "fzfg": false,
      "metar_trigger": false,
      "taf_trigger": false,
      "metar": "METAR OJAI 221300Z 08003KT 5000 HZ NSC 17/01 Q1016 NOSIG",
      "taf": "TAF OJAI 221044Z 2212/2318 12010KT 5000 HZ NSC"
    },
    {
      "icao": "OMAA",
      "alert": "OK",
      "vis_m": 9999,
      "fzfg": false,
      "metar_trigger": false,
      "taf_trigger": false,
      "metar": "METAR OMAA 221300Z 33013KT CAVOK 23/10 Q1018 NOSIG",
      "taf": "TAF OMAA 221100Z 2212/2318 01011KT 8000 NSC"
    },
    {
      "icao": "OMDB",
      "alert": "OK",
      "vis_m": 9999,
      "fzfg": false,
      "metar_trigger": false,
      "taf_trigger": false,
      "metar": "METAR OMDB 221300Z 01011KT 350V050 CAVOK 22/08 Q1018 NOSIG",
      "taf": "TAF OMDB 221100Z 2212/2318 35012KT CAVOK"
    },
    {
      "icao": "UAAA",
      "alert": "OK",
      "vis_m": 4200,
      "fzfg": false,
      "metar_trigger": false,
      "taf_trigger": false,
      "metar": "METAR UAAA 221300Z 23003MPS 190V250 4200 BR BKN012 OVC100 M01/M03 Q1029 NOSIG",
      "taf": ""
    },
    {
      "icao": "UBBB",
      "alert": "OK",
      "vis_m": 9999,
      "fzfg": false,
      "metar_trigger": false,
      "taf_trigger": false,
      "metar": "METAR UBBB 221300Z 18006KT CAVOK 09/04 Q1017 NOSIG",
      "taf": "TAF UBBB 221053Z 2212/2312 VRB04KT 9999 SCT030 TX09/2212Z TN04/2302Z"
    },
    {
      "icao": "UDSG",
      "alert": "OK",
      "vis_m": 9999,
      "fzfg": false,
      "metar_trigger": false,
      "taf_trigger": false,
      "metar": "METAR UDSG 221300Z 28004KT 9999 FEW049 04/M04 Q1020 NOSIG",
      "taf": "TAF UDSG 221058Z 2212/2312 VRB06KT 9999 SCT050"
    },
    {
      "icao": "UDYZ",
      "alert": "OK",
      "vis_m": 6000,
      "fzfg": false,
      "metar_trigger": false,
      "taf_trigger": false,
      "metar": "METAR UDYZ 221300Z 00000KT 6000 NSC 06/M04 Q1021 NOSIG",
      "taf": "TAF UDYZ 221100Z 2212/2312 VRB04KT 6000 NSC"
    },
    {
      "icao": "UGKO",
      "alert": "OK",
      "vis_m": 9999,
      "fzfg": false,
      "metar_trigger": false,
      "taf_trigger": false,
      "metar": "METAR UGKO 221300Z VRB02KT 9999 BKN089 11/02 Q1017 NOSIG",
      "taf": "TAF UGKO 221100Z 2212/2312 08007KT 9999 BKN080 TX15/2312Z TN03/2303Z"
    }
  ]
}