{
  "ts_utc": "2026-02-01T11:30:58Z",
  "threshold_m": 150,
  "source": "stations_override.txt (ICAO list) + aviationweather.gov (METAR/TAF raw)",
  "station_count": 159,
  "stations": [
    {
      "icao": "BIKF",
      "alert": "OK",
      "vis_m": 9999,
      "fzfg": false,
      "metar_trigger": false,
      "taf_trigger": false,
      "metar": "METAR BIKF 011100Z 07015KT 9999 SCT040 BKN055 02/M02 Q0998",
      "taf": "TAF BIKF 011050Z 0112/0212 08013KT 9999 FEW040 TX06/0212Z TN01/0112Z"
    },
    {
      "icao": "BKPR",
      "alert": "OK",
      "vis_m": 6000,
      "fzfg": false,
      "metar_trigger": false,
      "taf_trigger": false,
      "metar": "METAR BKPR 011130Z 36015KT 6000 -SN SCT008 BKN025 01/01 Q1004 TEMPO 3000 -SN",
      "taf": "TAF BKPR 011130Z 0112/0212 01008KT 9999 SCT015 BKN030"
    },
    {
      "icao": "EBCI",
      "alert": "OK",
      "vis_m": 9999,
      "fzfg": false,
      "metar_trigger": false,
      "taf_trigger": false,
      "metar": "METAR EBCI 011120Z 17010KT 9999 BKN010 07/05 Q1005 BECMG BKN015",
      "taf": "TAF EBCI 011100Z 0112/0218 16008KT 9999 SCT015 BKN020"
    },
    {
      "icao": "EDDB",
      "alert": "OK",
      "vis_m": 9999,
      "fzfg": false,
      "metar_trigger": false,
      "taf_trigger": false,
      "metar": "METAR EDDB 011120Z AUTO 10011KT 9999 OVC021 OVC037 M08/M12 Q1016 NOSIG",
      "taf": "TAF EDDB 011100Z 0112/0212 09011KT 9999 OVC030"
    },
    {
      "icao": "EDDH",
      "alert": "OK",
      "vis_m": 9999,
      "fzfg": false,
      "metar_trigger": false,
      "taf_trigger": false,
      "metar": "METAR EDDH 011120Z AUTO 11013KT 9999 SCT015 SCT026 OVC035 M05/M09 Q1013 NOSIG",
      "taf": "TAF EDDH 011100Z 0112/0218 10012KT 9999 OVC020"
    },
    {
      "icao": "EDDK",
      "alert": "OK",
      "vis_m": 9999,
      "fzfg": false,
      "metar_trigger": false,
      "taf_trigger": false,
      "metar": "METAR EDDK 011120Z AUTO 12010KT 090V150 9999 FEW013 06/03 Q1007 NOSIG",
      "taf": "TAF EDDK 011100Z 0112/0218 12009KT 9999 SCT015 BKN035"
    },
    {
      "icao": "EDDN",
      "alert": "OK",
      "vis_m": 9999,
      "fzfg": false,
      "metar_trigger": false,
      "taf_trigger": false,
      "metar": "METAR EDDN 011120Z AUTO 13009KT 9999 FEW014 BKN029 02/M01 Q1010 NOSIG",
      "taf": "TAF EDDN 011100Z 0112/0212 12006KT 9999 FEW014 BKN030"
    },
    {
      "icao": "EDDS",
      "alert": "OK",
      "vis_m": 9999,
      "fzfg": false,
      "metar_trigger": false,
      "taf_trigger": false,
      "metar": "METAR EDDS 011120Z AUTO 08002KT CAVOK 04/01 Q1008 NOSIG",
      "taf": "TAF EDDS 011100Z 0112/0212 VRB02KT 9000 SCT015"
    },
    {
      "icao": "EDFH",
      "alert": "OK",
      "vis_m": 200,
      "fzfg": false,
      "metar_trigger": false,
      "taf_trigger": false,
      "metar": "METAR EDFH 011120Z 13010KT 0200 R21/0275N VV/// 03/03 Q1007",
      "taf": "TAF EDFH 011100Z 0112/0212 14011KT 0300 FG OVC001"
    },
    {
      "icao": "EDJA",
      "alert": "OK",
      "vis_m": 9999,
      "fzfg": false,
      "metar_trigger": false,
      "taf_trigger": false,
      "metar": "METAR EDJA 011120Z 18003KT 150V230 9999 FEW009 02/00 Q1009",
      "taf": "TAF EDJA 011100Z 0112/0121 VRB03KT 6000 OVC005"
    },
    {
      "icao": "EDLW",
      "alert": "OK",
      "vis_m": 9999,
      "fzfg": false,
      "metar_trigger": false,
      "taf_trigger": false,
      "metar": "METAR EDLW 011120Z 13013KT CAVOK 06/03 Q1007",
      "taf": "TAF EDLW 011100Z 0112/0212 14007KT 9999 SCT045"
    },
    {
      "icao": "EDNY",
      "alert": "OK",
      "vis_m": 9999,
      "fzfg": false,
      "metar_trigger": false,
      "taf_trigger": false,
      "metar": "METAR EDNY 011120Z VRB02KT 9999 BKN011 03/00 Q1009",
      "taf": "TAF EDNY 011100Z 0112/0121 VRB03KT 9999 OVC009"
    },
    {
      "icao": "EDSB",
      "alert": "OK",
      "vis_m": 9000,
      "fzfg": false,
      "metar_trigger": false,
      "taf_trigger": false,
      "metar": "METAR EDSB 011120Z VRB01KT 9000 FEW007 OVC073 05/04 Q1009",
      "taf": "TAF EDSB 011100Z 0112/0212 VRB02KT 9000 SCT015 BKN030"
    },
    {
      "icao": "EETN",
      "alert": "OK",
      "vis_m": 9999,
      "fzfg": false,
      "metar_trigger": false,
      "taf_trigger": false,
      "metar": "METAR EETN 011120Z 09009KT 9999 -SN BKN012 M13/M14 Q1033 TEMPO 5000 SN",
      "taf": "TAF EETN 010530Z 0106/0206 10006KT 6000 SN SCT015 BKN020"
    },
    {
      "icao": "EFTU",
      "alert": "OK",
      "vis_m": 9999,
      "fzfg": false,
      "metar_trigger": false,
      "taf_trigger": false,
      "metar": "METAR EFTU 011120Z AUTO 08005KT CAVOK M14/M16 Q1034",
      "taf": "TAF EFTU 010836Z 0109/0209 08005KT CAVOK"
    },
    {
      "icao": "EGBB",
      "alert": "OK",
      "vis_m": 7000,
      "fzfg": false,
      "metar_trigger": false,
      "taf_trigger": false,
      "metar": "METAR EGBB 011120Z 19004KT 7000 OVC005 08/07 Q1000",
      "taf": "TAF EGBB 011100Z 0112/0212 18005KT 9999 SCT020"
    },
    {
      "icao": "EGGP",
      "alert": "OK",
      "vis_m": 9999,
      "fzfg": false,
      "metar_trigger": false,
      "taf_trigger": false,
      "metar": "METAR EGGP 011120Z 11004KT 9999 FEW042 06/05 Q0999",
      "taf": "TAF EGGP 011057Z 0112/0212 12004KT 9999 BKN030"
    },
    {
      "icao": "EGGW",
      "alert": "OK",
      "vis_m": 9999,
      "fzfg": false,
      "metar_trigger": false,
      "taf_trigger": false,
      "metar": "METAR EGGW 011120Z AUTO 20005KT 150V230 9999 BKN005 08/07 Q1000",
      "taf": "TAF EGGW 011053Z 0112/0212 VRB05KT 9999 -RA BKN020"
    },
    {
      "icao": "EGKK",
      "alert": "OK",
      "vis_m": 9999,
      "fzfg": false,
      "metar_trigger": false,
      "taf_trigger": false,
      "metar": "METAR EGKK 011120Z 22008KT 9999 -RA SCT009 BKN045 08/08 Q1001",
      "taf": "TAF EGKK 011052Z 0112/0218 18004KT 9999 SCT020"
    },
    {
      "icao": "EGNM",
      "alert": "OK",
      "vis_m": 9999,
      "fzfg": false,
      "metar_trigger": false,
      "taf_trigger": false,
      "metar": "METAR EGNM 011120Z 18004KT 150V220 9999 FEW007 06/05 Q0999",
      "taf": "TAF EGNM 011056Z 0112/0212 21010KT 9999 FEW008 SCT047"
    },
    {
      "icao": "EGPD",
      "alert": "OK",
      "vis_m": 5000,
      "fzfg": false,
      "metar_trigger": false,
      "taf_trigger": false,
      "metar": "METAR EGPD 011120Z 11014KT 080V140 5000 RA BKN005 06/05 Q0999 TEMPO 3000 +RA",
      "taf": ""
    },
    {
      "icao": "EGPF",
      "alert": "OK",
      "vis_m": 9999,
      "fzfg": false,
      "metar_trigger": false,
      "taf_trigger": false,
      "metar": "METAR EGPF 011120Z AUTO VRB01KT 9999 BKN014 07/04 Q0998",
      "taf": "TAF EGPF 011056Z 0112/0212 VRB02KT 9999 BKN025"
    },
    {
      "icao": "EHBK",
      "alert": "OK",
      "vis_m": 9999,
      "fzfg": false,
      "metar_trigger": false,
      "taf_trigger": false,
      "metar": "METAR EHBK 011125Z AUTO 17012KT 130V200 9999 FEW020/// OVC040/// 09/05 Q1006 NOSIG",
      "taf": "TAF EHBK 011117Z 0112/0218 18010KT 9999 BKN040"
    },
    {
      "icao": "EHEH",
      "alert": "OK",
      "vis_m": null,
      "fzfg": false,
      "metar_trigger": false,
      "taf_trigger": false,
      "metar": "",
      "taf": "TAF EHEH 010545Z 0106/0212 14006KT 7000 BR BKN040"
    },
    {
      "icao": "EKBI",
      "alert": "OK",
      "vis_m": 9999,
      "fzfg": false,
      "metar_trigger": false,
      "taf_trigger": false,
      "metar": "METAR EKBI 011120Z AUTO 09016KT 9999 OVC013/// M04/M07 Q1015",
      "taf": "TAF EKBI 011127Z 0112/0212 10015KT 9999 BKN016"
    },
    {
      "icao": "EKCH",
      "alert": "OK",
      "vis_m": 9999,
      "fzfg": false,
      "metar_trigger": false,
      "taf_trigger": false,
      "metar": "METAR EKCH 011120Z AUTO 11024KT 9999 FEW029/// M03/M10 Q1020 TEMPO 11024G34KT",
      "taf": "TAF EKCH 011127Z 0112/0212 11020KT 9999 FEW030"
    },
    {
      "icao": "ENAL",
      "alert": "OK",
      "vis_m": 9999,
      "fzfg": false,
      "metar_trigger": false,
      "taf_trigger": false,
      "metar": "METAR ENAL 011120Z 13012KT CAVOK 02/M10 Q1016",
      "taf": "TAF ENAL 010800Z 0109/0118 13012KT CAVOK"
    },
    {
      "icao": "ENBR",
      "alert": "OK",
      "vis_m": 9999,
      "fzfg": false,
      "metar_trigger": false,
      "taf_trigger": false,
      "metar": "METAR ENBR 011120Z 00000KT CAVOK M02/M10 Q1016 NOSIG RMK WIND 1200FT 11005KT",
      "taf": "TAF ENBR 010500Z 0106/0206 10005KT CAVOK"
    },
    {
      "icao": "ENGM",
      "alert": "OK",
      "vis_m": 9000,
      "fzfg": false,
      "metar_trigger": false,
      "taf_trigger": false,
      "metar": "METAR ENGM 011120Z VRB01KT 9000 -SN BKN038 M07/M10 Q1024 NOSIG",
      "taf": "TAF ENGM 010500Z 0106/0206 03005KT 9999 BKN025"
    },
    {
      "icao": "ENHD",
      "alert": "OK",
      "vis_m": 9999,
      "fzfg": false,
      "metar_trigger": false,
      "taf_trigger": false,
      "metar": "METAR ENHD 011120Z 11021G32KT CAVOK 00/M10 Q1015",
      "taf": "TAF ENHD 010800Z 0109/0118 11018KT CAVOK"
    },
    {
      "icao": "ENTC",
      "alert": "OK",
      "vis_m": 9999,
      "fzfg": false,
      "metar_trigger": false,
      "taf_trigger": false,
      "metar": "METAR ENTC 011120Z 21023KT 9999 -SHSN BKN022 M04/M08 Q1015 TEMPO 4000 -SHSN VV012 RMK WIND 2600FT 19021KT",
      "taf": "TAF ENTC 010500Z 0106/0206 19020KT 9999 FEW030 BKN050"
    },
    {
      "icao": "ENTO",
      "alert": "OK",
      "vis_m": 9999,
      "fzfg": false,
      "metar_trigger": false,
      "taf_trigger": false,
      "metar": "METAR ENTO 011120Z 12006KT 080V140 9999 OVC028 M04/M10 Q1023 NOSIG",
      "taf": "TAF ENTO 010500Z 0106/0206 09005KT 9999 BKN025"
    },
    {
      "icao": "ENVA",
      "alert": "OK",
      "vis_m": 9999,
      "fzfg": false,
      "metar_trigger": false,
      "taf_trigger": false,
      "metar": "METAR ENVA 011120Z 13008KT 100V170 CAVOK M02/M13 Q1019 NOSIG RMK WIND 670FT 16017KT",
      "taf": "TAF ENVA 010500Z 0106/0206 16012KT CAVOK"
    },
    {
      "icao": "ENZV",
      "alert": "OK",
      "vis_m": 9999,
      "fzfg": false,
      "metar_trigger": false,
      "taf_trigger": false,
      "metar": "METAR ENZV 011120Z 12014KT 9999 BKN038 M00/M09 Q1015 TEMPO 15018G28KT",
      "taf": "TAF ENZV 010500Z 0106/0206 12012KT 9999 SCT040"
    },
    {
      "icao": "EPGD",
      "alert": "OK",
      "vis_m": 9999,
      "fzfg": false,
      "metar_trigger": false,
      "taf_trigger": false,
      "metar": "METAR EPGD 011100Z 12012KT CAVOK M11/M17 Q1024",
      "taf": "TAF EPGD 011130Z 0112/0212 11012KT CAVOK"
    },
    {
      "icao": "EPKK",
      "alert": "OK",
      "vis_m": 9999,
      "fzfg": false,
      "metar_trigger": false,
      "taf_trigger": false,
      "metar": "METAR EPKK 011100Z 06011KT 9999 SCT009 BKN019 M11/M15 Q1016",
      "taf": "TAF EPKK 011130Z 0112/0212 06010KT 9999 SCT008 BKN017"
    },
    {
      "icao": "EPKT",
      "alert": "OK",
      "vis_m": 9999,
      "fzfg": false,
      "metar_trigger": false,
      "taf_trigger": false,
      "metar": "METAR EPKT 011100Z 07011KT 9999 BKN024 M09/M14 Q1015",
      "taf": "TAF EPKT 011130Z 0112/0212 08012KT 9999 BKN025"
    },
    {
      "icao": "EPLB",
      "alert": "OK",
      "vis_m": 9999,
      "fzfg": false,
      "metar_trigger": false,
      "taf_trigger": false,
      "metar": "METAR EPLB 011100Z 07009KT CAVOK M14/M16 Q1022",
      "taf": "TAF EPLB 011130Z 0112/0212 08010KT CAVOK"
    },
    {
      "icao": "EPMO",
      "alert": "OK",
      "vis_m": 9999,
      "fzfg": false,
      "metar_trigger": false,
      "taf_trigger": false,
      "metar": "METAR EPMO 011100Z 07011KT CAVOK M12/M16 Q1023",
      "taf": "TAF EPMO 011130Z 0112/0212 08010KT CAVOK"
    },
    {
      "icao": "EPPO",
      "alert": "OK",
      "vis_m": 9999,
      "fzfg": false,
      "metar_trigger": false,
      "taf_trigger": false,
      "metar": "METAR EPPO 011100Z 11011KT CAVOK M08/M16 Q1020",
      "taf": "TAF EPPO 011130Z 0112/0212 11012KT CAVOK"
    },
    {
      "icao": "EPRA",
      "alert": "OK",
      "vis_m": 9999,
      "fzfg": false,
      "metar_trigger": false,
      "taf_trigger": false,
      "metar": "METAR EPRA 011100Z 09013KT CAVOK M12/M18 Q1021",
      "taf": "TAF EPRA 011130Z 0112/0121 08010KT CAVOK"
    },
    {
      "icao": "EPRZ",
      "alert": "OK",
      "vis_m": 9999,
      "fzfg": false,
      "metar_trigger": false,
      "taf_trigger": false,
      "metar": "METAR EPRZ 011100Z 08016KT CAVOK M11/M16 Q1018",
      "taf": "TAF EPRZ 011130Z 0112/0212 07015KT 9999 SCT030"
    },
    {
      "icao": "EPSC",
      "alert": "OK",
      "vis_m": 9999,
      "fzfg": false,
      "metar_trigger": false,
      "taf_trigger": false,
      "metar": "METAR EPSC 011100Z 10013KT CAVOK M09/M14 Q1020",
      "taf": "TAF EPSC 011130Z 0112/0212 10012KT CAVOK"
    },
    {
      "icao": "EPSY",
      "alert": "OK",
      "vis_m": 9999,
      "fzfg": false,
      "metar_trigger": false,
      "taf_trigger": false,
      "metar": "METAR EPSY 011100Z 06005KT 010V110 CAVOK M13/M17 Q1024",
      "taf": "TAF EPSY 011130Z 0112/0121 06006KT CAVOK"
    },
    {
      "icao": "EPWA",
      "alert": "OK",
      "vis_m": 9999,
      "fzfg": false,
      "metar_trigger": false,
      "taf_trigger": false,
      "metar": "METAR EPWA 011100Z 09008KT CAVOK M10/M16 Q1022 NOSIG",
      "taf": "TAF EPWA 011130Z 0112/0212 09010KT CAVOK"
    },
    {
      "icao": "EPWR",
      "alert": "OK",
      "vis_m": 9999,
      "fzfg": false,
      "metar_trigger": false,
      "taf_trigger": false,
      "metar": "METAR EPWR 011100Z 09008KT 9999 FEW020 M07/M13 Q1017",
      "taf": "TAF EPWR 011130Z 0112/0212 09011KT 9999 BKN020"
    },
    {
      "icao": "ESGG",
      "alert": "OK",
      "vis_m": 9999,
      "fzfg": false,
      "metar_trigger": false,
      "taf_trigger": false,
      "metar": "METAR ESGG 011120Z 11011KT CAVOK M04/M12 Q1021",
      "taf": "TAF ESGG 010830Z 0109/0209 11009KT CAVOK"
    },
    {
      "icao": "ESKN",
      "alert": "OK",
      "vis_m": 9999,
      "fzfg": false,
      "metar_trigger": false,
      "taf_trigger": false,
      "metar": "METAR ESKN 011120Z 13012KT 9999 BKN033 M04/M10 Q1028",
      "taf": ""
    },
    {
      "icao": "ESMS",
      "alert": "OK",
      "vis_m": 9999,
      "fzfg": false,
      "metar_trigger": false,
      "taf_trigger": false,
      "metar": "METAR ESMS 011120Z 11019G29KT 9999 FEW028 M04/M10 Q1020",
      "taf": "TAF ESMS 010827Z 0109/0209 11015KT CAVOK"
    },
    {
      "icao": "ESSA",
      "alert": "OK",
      "vis_m": 9999,
      "fzfg": false,
      "metar_trigger": false,
      "taf_trigger": false,
      "metar": "METAR ESSA 011120Z 12011KT 090V160 CAVOK M05/M11 Q1030 NOSIG",
      "taf": "TAF ESSA 010830Z 0109/0209 12010KT 9999 BKN020"
    },
    {
      "icao": "EYKA",
      "alert": "OK",
      "vis_m": 9999,
      "fzfg": false,
      "metar_trigger": false,
      "taf_trigger": false,
      "metar": "METAR EYKA 011120Z 34005KT 300V010 CAVOK M16/M18 Q1028",
      "taf": "TAF EYKA 011100Z 0112/0212 VRB04KT 9000 NSC"
    },
    {
      "icao": "EYPA",
      "alert": "OK",
      "vis_m": 9999,
      "fzfg": false,
      "metar_trigger": false,
      "taf_trigger": false,
      "metar": "METAR EYPA 011120Z 10006KT 050V130 CAVOK M13/M21 Q1029",
      "taf": "TAF EYPA 011100Z 0112/0212 09007KT CAVOK"
    },
    {
      "icao": "EYVI",
      "alert": "OK",
      "vis_m": 9999,
      "fzfg": false,
      "metar_trigger": false,
      "taf_trigger": false,
      "metar": "METAR EYVI 011120Z 03006KT CAVOK M15/M18 Q1025 NOSIG",
      "taf": "TAF EYVI 011100Z 0112/0212 VRB05KT CAVOK"
    },
    {
      "icao": "GCFV",
      "alert": "OK",
      "vis_m": 9999,
      "fzfg": false,
      "metar_trigger": false,
      "taf_trigger": false,
      "metar": "METAR GCFV 011100Z 35012KT 310V030 9999 FEW020 21/08 Q1021",
      "taf": "TAF GCFV 010800Z 0109/0209 33007KT 9999 FEW020 TX22/0114Z TN14/0206Z"
    },
    {
      "icao": "GCLP",
      "alert": "OK",
      "vis_m": 9999,
      "fzfg": false,
      "metar_trigger": false,
      "taf_trigger": false,
      "metar": "METAR GCLP 011100Z 02016KT 340V040 9999 FEW020 21/14 Q1021 NOSIG",
      "taf": "TAF GCLP 010800Z 0109/0209 02018KT 9999 FEW020 TX21/0114Z TN15/0206Z"
    },
    {
      "icao": "GCTS",
      "alert": "OK",
      "vis_m": 9999,
      "fzfg": false,
      "metar_trigger": false,
      "taf_trigger": false,
      "metar": "METAR GCTS 011100Z 19005KT 140V260 9999 FEW022 20/14 Q1022 NOSIG",
      "taf": "TAF GCTS 010800Z 0109/0209 12007KT 9999 FEW025 TX23/0114Z TN14/0206Z"
    },
    {
      "icao": "GMAD",
      "alert": "OK",
      "vis_m": 4000,
      "fzfg": false,
      "metar_trigger": false,
      "taf_trigger": false,
      "metar": "METAR GMAD 011100Z 00000KT 4000 BR OVC006 15/15 Q1019 NOSIG",
      "taf": "TAF GMAD 011100Z 0112/0218 28012KT 6000 SCT006 BKN016"
    },
    {
      "icao": "GMMN",
      "alert": "OK",
      "vis_m": 9999,
      "fzfg": false,
      "metar_trigger": false,
      "taf_trigger": false,
      "metar": "METAR GMMN 011100Z 12005KT 090V170 CAVOK 16/15 Q1020 NOSIG",
      "taf": "TAF GMMN 011100Z 0112/0218 12005KT CAVOK"
    },
    {
      "icao": "GMMX",
      "alert": "OK",
      "vis_m": 9999,
      "fzfg": false,
      "metar_trigger": false,
      "taf_trigger": false,
      "metar": "METAR GMMX 011100Z 01004KT 320V070 CAVOK 18/12 Q1019 NOSIG",
      "taf": "TAF GMMX 010500Z 0106/0212 24006KT SCT023"
    },
    {
      "icao": "HEGN",
      "alert": "OK",
      "vis_m": 9999,
      "fzfg": false,
      "metar_trigger": false,
      "taf_trigger": false,
      "metar": "METAR HEGN 011100Z 10008KT CAVOK 26/15 Q1014 NOSIG",
      "taf": "TAF HEGN 011100Z 0112/0218 130008KT CAVOK"
    },
    {
      "icao": "HEMA",
      "alert": "OK",
      "vis_m": 9999,
      "fzfg": false,
      "metar_trigger": false,
      "taf_trigger": false,
      "metar": "METAR HEMA 011100Z 09006KT CAVOK 26/09 Q1014 NOSIG",
      "taf": "TAF HEMA 011100Z 0112/0218 10008KT CAVOK"
    },
    {
      "icao": "HESH",
      "alert": "OK",
      "vis_m": 9999,
      "fzfg": false,
      "metar_trigger": false,
      "taf_trigger": false,
      "metar": "METAR HESH 011100Z 03007KT CAVOK 27/14 Q1016 NOSIG",
      "taf": "TAF HESH 011100Z 0112/0218 17008KT CAVOK"
    },
    {
      "icao": "HESX",
      "alert": "OK",
      "vis_m": 9999,
      "fzfg": false,
      "metar_trigger": false,
      "taf_trigger": false,
      "metar": "METAR HESX 011100Z 18018KT CAVOK 27/M06 Q1013 NOSIG",
      "taf": "TAF HESX 011100Z 0112/0218 22012G24KT 6000 NSC"
    },
    {
      "icao": "LATI",
      "alert": "OK",
      "vis_m": 9999,
      "fzfg": false,
      "metar_trigger": false,
      "taf_trigger": false,
      "metar": "METAR LATI 011120Z VRB03KT 9999 OVC074 10/06 Q1000 NOSIG",
      "taf": "TAF LATI 011100Z 0112/0212 VRB05KT 9999 BKN060 TX14/0112Z TN03/0205Z"
    },
    {
      "icao": "LBPD",
      "alert": "OK",
      "vis_m": 1400,
      "fzfg": false,
      "metar_trigger": false,
      "taf_trigger": false,
      "metar": "METAR LBPD 011130Z AUTO 10007KT 060V120 1400 R12/1800U SN OVC002/// 00/00 Q1008 NOSIG",
      "taf": "TAF LBPD 011100Z 0112/0212 12014KT 2000 SN SCT002 OVC005"
    },
    {
      "icao": "LBSF",
      "alert": "OK",
      "vis_m": 4000,
      "fzfg": false,
      "metar_trigger": false,
      "taf_trigger": false,
      "metar": "METAR LBSF 011130Z 12015KT 4000 -SN SCT008 BKN012 OVC023 01/M00 Q1007 TEMPO 2000 SN BKN005",
      "taf": "TAF LBSF 011100Z 0112/0212 10012KT 1500 SN BKN004 OVC007"
    },
    {
      "icao": "LBWN",
      "alert": "OK",
      "vis_m": 9999,
      "fzfg": false,
      "metar_trigger": false,
      "taf_trigger": false,
      "metar": "METAR LBWN 011130Z AUTO 04014KT 9999 OVC012/// M02/M03 Q1015 NOSIG",
      "taf": "TAF LBWN 011100Z 0112/0212 03012KT 8000 OVC012"
    },
    {
      "icao": "LCLK",
      "alert": "OK",
      "vis_m": 6000,
      "fzfg": false,
      "metar_trigger": false,
      "taf_trigger": false,
      "metar": "METAR LCLK 011100Z 08004KT 6000 FEW011 BKN015 BKN060 20/16 Q1013 BECMG 5000 DU",
      "taf": "TAF LCLK 010530Z 0106/0206 33006KT 9999 FEW025"
    },
    {
      "icao": "LCPH",
      "alert": "OK",
      "vis_m": 8000,
      "fzfg": false,
      "metar_trigger": false,
      "taf_trigger": false,
      "metar": "METAR LCPH 011100Z 15012KT 090V160 8000 NSC 21/13 Q1011 NOSIG",
      "taf": "TAF LCPH 010530Z 0106/0206 08006KT 9999 SCT020"
    },
    {
      "icao": "LEAL",
      "alert": "OK",
      "vis_m": 9999,
      "fzfg": false,
      "metar_trigger": false,
      "taf_trigger": false,
      "metar": "METAR LEAL 011100Z 31008KT 280V340 CAVOK 16/04 Q1016 NOSIG",
      "taf": "TAF LEAL 011100Z 0112/0212 27012KT 9999 FEW030 TX17/0113Z TN07/0206Z"
    },
    {
      "icao": "LEBB",
      "alert": "OK",
      "vis_m": 9999,
      "fzfg": false,
      "metar_trigger": false,
      "taf_trigger": false,
      "metar": "METAR LEBB 011100Z 13004KT 060V190 9999 BKN042 13/06 Q1010 NOSIG",
      "taf": "TAF LEBB 011100Z 0112/0212 14009KT 9999 BKN040 TX16/0115Z TN10/0119Z"
    },
    {
      "icao": "LEBL",
      "alert": "OK",
      "vis_m": 9999,
      "fzfg": false,
      "metar_trigger": false,
      "taf_trigger": false,
      "metar": "METAR LEBL 011100Z 32010KT 280V350 CAVOK 10/04 Q1012 NOSIG",
      "taf": "TAF LEBL 011100Z 0112/0212 32009KT CAVOK TX15/0112Z TN06/0206Z"
    },
    {
      "icao": "LECH",
      "alert": "OK",
      "vis_m": 9999,
      "fzfg": false,
      "metar_trigger": false,
      "taf_trigger": false,
      "metar": "METAR LECH 011100Z AUTO VRB01KT CAVOK 11/02 Q1013",
      "taf": ""
    },
    {
      "icao": "LEMD",
      "alert": "OK",
      "vis_m": 6000,
      "fzfg": false,
      "metar_trigger": false,
      "taf_trigger": false,
      "metar": "METAR LEMD 011100Z VRB02KT 6000 -RA BKN004 OVC012 05/05 Q1015 NOSIG",
      "taf": "TAF LEMD 011100Z 0112/0218 VRB04KT 9999 BKN014 TX09/0204Z TN06/0206Z"
    },
    {
      "icao": "LEMG",
      "alert": "OK",
      "vis_m": 9999,
      "fzfg": false,
      "metar_trigger": false,
      "taf_trigger": false,
      "metar": "METAR LEMG 011100Z 17006KT 140V200 9999 FEW060 15/07 Q1018 NOSIG",
      "taf": "TAF LEMG 011100Z 0112/0212 14005KT 9999 FEW060 TX19/0115Z TN09/0206Z"
    },
    {
      "icao": "LEVC",
      "alert": "OK",
      "vis_m": 9999,
      "fzfg": false,
      "metar_trigger": false,
      "taf_trigger": false,
      "metar": "METAR LEVC 011100Z 28020KT CAVOK 14/04 Q1014 NOSIG",
      "taf": "TAF LEVC 011100Z 0112/0212 27015KT 9999 FEW030 TX18/0113Z TN10/0206Z"
    },
    {
      "icao": "LEXJ",
      "alert": "OK",
      "vis_m": 9999,
      "fzfg": false,
      "metar_trigger": false,
      "taf_trigger": false,
      "metar": "METAR LEXJ 011100Z 27007KT 9999 BKN040 OVC065 14/07 Q1010",
      "taf": ""
    },
    {
      "icao": "LEZG",
      "alert": "OK",
      "vis_m": 9999,
      "fzfg": false,
      "metar_trigger": false,
      "taf_trigger": false,
      "metar": "METAR LEZG 011100Z VRB01KT 9999 FEW065 09/05 Q1013 NOSIG",
      "taf": "TAF LEZG 011100Z 0112/0212 24007KT 9999 FEW050 TX15/0114Z TN07/0206Z"
    },
    {
      "icao": "LEZL",
      "alert": "OK",
      "vis_m": 3500,
      "fzfg": false,
      "metar_trigger": false,
      "taf_trigger": false,
      "metar": "METAR LEZL 011100Z 22011KT 3500 BR -DZ OVC006 BKN015 16/15 Q1017 NOSIG",
      "taf": ""
    },
    {
      "icao": "LFBD",
      "alert": "OK",
      "vis_m": 9999,
      "fzfg": false,
      "metar_trigger": false,
      "taf_trigger": false,
      "metar": "METAR LFBD 011100Z AUTO 23012KT 9999 BKN006 BKN010 BKN014 10/09 Q1008 TEMPO 22015G25KT 4000 SHRA BKN013TCU",
      "taf": ""
    },
    {
      "icao": "LFLL",
      "alert": "OK",
      "vis_m": 9999,
      "fzfg": false,
      "metar_trigger": false,
      "taf_trigger": false,
      "metar": "METAR LFLL 011100Z 16003KT 110V230 9999 FEW025 BKN260 10/04 Q1008 NOSIG",
      "taf": "TAF LFLL 011100Z 0112/0218 16004KT 9999 BKN046 BKN100"
    },
    {
      "icao": "LFLS",
      "alert": "OK",
      "vis_m": 9999,
      "fzfg": false,
      "metar_trigger": false,
      "taf_trigger": false,
      "metar": "METAR LFLS 011100Z AUTO 08005KT 040V110 CAVOK 09/03 Q1008 NOSIG",
      "taf": "TAF LFLS 010800Z 0109/0209 09008KT CAVOK"
    },
    {
      "icao": "LFMN",
      "alert": "OK",
      "vis_m": 9999,
      "fzfg": false,
      "metar_trigger": false,
      "taf_trigger": false,
      "metar": "METAR LFMN 011100Z 33008KT 9999 SCT056 13/02 Q1007 BECMG 20008KT",
      "taf": "TAF LFMN 010800Z 0109/0215 33010KT 9999 SCT045"
    },
    {
      "icao": "LFOB",
      "alert": "OK",
      "vis_m": 9999,
      "fzfg": false,
      "metar_trigger": false,
      "taf_trigger": false,
      "metar": "METAR LFOB 011100Z AUTO 15005KT 9999 -DZ OVC006 07/07 Q1004 TEMPO 4000 -RA SCT007 BKN012 OVC020",
      "taf": "TAF LFOB 010500Z 0106/0206 17006KT 8000 BKN007 OVC050"
    },
    {
      "icao": "LFPO",
      "alert": "OK",
      "vis_m": 8000,
      "fzfg": false,
      "metar_trigger": false,
      "taf_trigger": false,
      "metar": "METAR LFPO 011100Z 17006KT 8000 -RA BKN004 BKN006 08/08 Q1004 BECMG BKN006",
      "taf": "TAF LFPO 011100Z 0112/0218 18008KT 9999 FEW008 BKN025"
    },
    {
      "icao": "LFSB",
      "alert": "OK",
      "vis_m": 9999,
      "fzfg": false,
      "metar_trigger": false,
      "taf_trigger": false,
      "metar": "METAR LFSB 011100Z AUTO 11006KT CAVOK 07/03 Q1009 NOSIG",
      "taf": "TAF LFSB 011100Z 0112/0212 12008KT 9999 FEW030"
    },
    {
      "icao": "LGAV",
      "alert": "OK",
      "vis_m": 9999,
      "fzfg": false,
      "metar_trigger": false,
      "taf_trigger": false,
      "metar": "METAR LGAV 011120Z 21013KT 9999 FEW025 SCT070 15/08 Q0999 NOSIG",
      "taf": "TAF LGAV 011100Z 0112/0212 20010KT 9999 SCT025 SCT070"
    },
    {
      "icao": "LGTS",
      "alert": "OK",
      "vis_m": 5000,
      "fzfg": false,
      "metar_trigger": false,
      "taf_trigger": false,
      "metar": "METAR LGTS 011120Z 22007KT 190V270 5000 +RA FEW008 FEW015TCU BKN025 07/07 Q1001 WS R10 TEMPO 3000 TSRA",
      "taf": "TAF LGTS 011100Z 0112/0212 34015KT 9999 FEW010 BKN025"
    },
    {
      "icao": "LHBP",
      "alert": "OK",
      "vis_m": 9999,
      "fzfg": false,
      "metar_trigger": false,
      "taf_trigger": false,
      "metar": "METAR LHBP 011100Z 07004KT 010V100 9999 OVC013 00/M03 Q1012 TEMPO SCT014 OVC020",
      "taf": "TAF LHBP 011115Z 0112/0212 08006KT 9999 SCT020 BKN030"
    },
    {
      "icao": "LHDC",
      "alert": "OK",
      "vis_m": 9999,
      "fzfg": false,
      "metar_trigger": false,
      "taf_trigger": false,
      "metar": "METAR LHDC 011045Z AUTO 03008KT 9999 BKN009 OVC034 M01/M04 Q1012 NOSIG",
      "taf": "TAF LHDC 011115Z 0112/0121 03007KT 9999 BKN005 OVC035"
    },
    {
      "icao": "LIBD",
      "alert": "OK",
      "vis_m": 9999,
      "fzfg": false,
      "metar_trigger": false,
      "taf_trigger": false,
      "metar": "METAR LIBD 011120Z 32014KT 9999 SCT040 12/06 Q1002",
      "taf": "TAF LIBD 011100Z 0112/0212 34012KT 9999 SCT030"
    },
    {
      "icao": "LIBG",
      "alert": "OK",
      "vis_m": 7000,
      "fzfg": false,
      "metar_trigger": false,
      "taf_trigger": false,
      "metar": "METAR LIBG 011050Z 34005KT 7000 -RA BKN020 11/09 Q1000",
      "taf": "TAF LIBG 011100Z 0112/0121 03016KT 9999 SCT030"
    },
    {
      "icao": "LIBP",
      "alert": "OK",
      "vis_m": 9999,
      "fzfg": false,
      "metar_trigger": false,
      "taf_trigger": false,
      "metar": "METAR LIBP 011120Z AUTO 35011KT 320V020 9999 FEW031/// 12/04 Q1006",
      "taf": "TAF LIBP 011100Z 0112/0212 33012KT 9999 BKN030"
    },
    {
      "icao": "LIBR",
      "alert": "OK",
      "vis_m": 9999,
      "fzfg": false,
      "metar_trigger": false,
      "taf_trigger": false,
      "metar": "METAR LIBR 011120Z 05013KT 9999 BKN025 12/08 Q1000",
      "taf": "TAF LIBR 011100Z 0112/0212 35016KT 9999 SCT040"
    },
    {
      "icao": "LICA",
      "alert": "OK",
      "vis_m": 9999,
      "fzfg": false,
      "metar_trigger": false,
      "taf_trigger": false,
      "metar": "METAR LICA 011120Z AUTO VRB04KT 9999 BKN056/// 15/05 Q1000",
      "taf": "TAF LICA 011100Z 0112/0212 VRB05KT 9999 BKN030"
    },
    {
      "icao": "LICC",
      "alert": "OK",
      "vis_m": 9999,
      "fzfg": false,
      "metar_trigger": false,
      "taf_trigger": false,
      "metar": "METAR LICC 011120Z VRB03KT 9999 SCT060 15/13 Q1001",
      "taf": "TAF LICC 011100Z 0112/0212 28012KT 9999 SCT040"
    },
    {
      "icao": "LICJ",
      "alert": "OK",
      "vis_m": 9999,
      "fzfg": false,
      "metar_trigger": false,
      "taf_trigger": false,
      "metar": "METAR LICJ 011120Z 33017KT 9999 BKN030 15/09 Q1005",
      "taf": "TAF LICJ 011100Z 0112/0212 35015KT 9999 SCT030"
    },
    {
      "icao": "LIMC",
      "alert": "OK",
      "vis_m": 2000,
      "fzfg": false,
      "metar_trigger": false,
      "taf_trigger": false,
      "metar": "METAR LIMC 011120Z 14004KT 090V230 2000 BR VCFG BKN004 04/04 Q1009 TEMPO 0700 FG",
      "taf": "TAF LIMC 010500Z 0106/0212 VRB05KT 5000 BR FEW020"
    },
    {
      "icao": "LIME",
      "alert": "OK",
      "vis_m": 8000,
      "fzfg": false,
      "metar_trigger": false,
      "taf_trigger": false,
      "metar": "METAR LIME 011120Z 16004KT 120V230 8000 NSC 07/03 Q1008 NOSIG",
      "taf": "TAF LIME 010500Z 0106/0206 VRB05KT 6000 FEW020"
    },
    {
      "icao": "LIMF",
      "alert": "OK",
      "vis_m": 9999,
      "fzfg": false,
      "metar_trigger": false,
      "taf_trigger": false,
      "metar": "METAR LIMF 011120Z 09003KT 030V120 CAVOK 06/01 Q1008",
      "taf": "TAF LIMF 010500Z 0106/0206 VRB04KT CAVOK"
    },
    {
      "icao": "LIMJ",
      "alert": "OK",
      "vis_m": 9999,
      "fzfg": false,
      "metar_trigger": false,
      "taf_trigger": false,
      "metar": "METAR LIMJ 011120Z 04013KT CAVOK 12/03 Q1007",
      "taf": "TAF LIMJ 010500Z 0106/0206 04014KT 9999 FEW050"
    },
    {
      "icao": "LIPE",
      "alert": "OK",
      "vis_m": 5000,
      "fzfg": false,
      "metar_trigger": false,
      "taf_trigger": false,
      "metar": "METAR LIPE 011120Z 30005KT 270V360 5000 BR BKN030 08/05 Q1009",
      "taf": "TAF LIPE 011100Z 0112/0212 VRB05KT 6000 SCT040"
    },
    {
      "icao": "LIPH",
      "alert": "OK",
      "vis_m": 9999,
      "fzfg": false,
      "metar_trigger": false,
      "taf_trigger": false,
      "metar": "METAR LIPH 011120Z 04005KT 360V080 CAVOK 10/01 Q1009",
      "taf": "TAF LIPH 011100Z 0112/0212 VRB04KT 9999 FEW040"
    },
    {
      "icao": "LIPQ",
      "alert": "OK",
      "vis_m": 9999,
      "fzfg": false,
      "metar_trigger": false,
      "taf_trigger": false,
      "metar": "METAR LIPQ 011120Z AUTO 10016KT 9999 NCD 10/00 Q1009",
      "taf": "TAF LIPQ 011100Z 0112/0212 08008KT CAVOK"
    },
    {
      "icao": "LIPR",
      "alert": "OK",
      "vis_m": 9999,
      "fzfg": false,
      "metar_trigger": false,
      "taf_trigger": false,
      "metar": "METAR LIPR 011120Z 31011KT 9999 SCT015 SCT050 09/05 Q1008",
      "taf": "TAF LIPR 011100Z 0112/0212 30010KT 9999 SCT040"
    },
    {
      "icao": "LIPX",
      "alert": "OK",
      "vis_m": 9999,
      "fzfg": false,
      "metar_trigger": false,
      "taf_trigger": false,
      "metar": "METAR LIPX 011050Z VRB01KT 9999 SCT040 07/04 Q1009",
      "taf": "TAF LIPX 010500Z 0106/0206 VRB05KT 0300 FG BKN002"
    },
    {
      "icao": "LIPY",
      "alert": "OK",
      "vis_m": 9999,
      "fzfg": false,
      "metar_trigger": false,
      "taf_trigger": false,
      "metar": "METAR LIPY 011120Z AUTO 31009KT 280V340 9999 OVC046/// 08/05 Q1007",
      "taf": "TAF LIPY 011100Z 0112/0212 32013KT 9999 SCT040"
    },
    {
      "icao": "LIPZ",
      "alert": "OK",
      "vis_m": 9999,
      "fzfg": false,
      "metar_trigger": false,
      "taf_trigger": false,
      "metar": "METAR LIPZ 011120Z 07009KT CAVOK 09/02 Q1009 NOSIG",
      "taf": "TAF LIPZ 011100Z 0112/0218 04008KT 9999 SCT050"
    },
    {
      "icao": "LIRF",
      "alert": "OK",
      "vis_m": 9999,
      "fzfg": false,
      "metar_trigger": false,
      "taf_trigger": false,
      "metar": "METAR LIRF 011120Z 35007KT 320V030 CAVOK 14/05 Q1004 NOSIG",
      "taf": "TAF LIRF 011100Z 0112/0218 33011KT CAVOK"
    },
    {
      "icao": "LIRN",
      "alert": "OK",
      "vis_m": 9999,
      "fzfg": false,
      "metar_trigger": false,
      "taf_trigger": false,
      "metar": "METAR LIRN 011120Z 03010KT 310V060 CAVOK 14/03 Q1003 NOSIG",
      "taf": "TAF LIRN 011100Z 0112/0212 03012KT 9999 FEW030"
    },
    {
      "icao": "LIRP",
      "alert": "OK",
      "vis_m": 9999,
      "fzfg": false,
      "metar_trigger": false,
      "taf_trigger": false,
      "metar": "METAR LIRP 011115Z 12008KT 9999 FEW035 11/05 Q1007 NOSIG",
      "taf": "TAF LIRP 011100Z 0112/0212 12005KT CAVOK"
    },
    {
      "icao": "LIRZ",
      "alert": "OK",
      "vis_m": 9999,
      "fzfg": false,
      "metar_trigger": false,
      "taf_trigger": false,
      "metar": "METAR LIRZ 011120Z AUTO 04015KT 9999 FEW044/// 10/02 Q1006",
      "taf": "TAF LIRZ 011100Z 0112/0212 03014KT CAVOK"
    },
    {
      "icao": "LJLJ",
      "alert": "OK",
      "vis_m": 9999,
      "fzfg": false,
      "metar_trigger": false,
      "taf_trigger": false,
      "metar": "METAR LJLJ 011100Z VRB01KT 9999 SCT020 BKN065 05/00 Q1009 NOSIG",
      "taf": "TAF LJLJ 011100Z 0112/0212 12003KT 9999 SCT020 BKN040"
    },
    {
      "icao": "LKMT",
      "alert": "OK",
      "vis_m": 8000,
      "fzfg": false,
      "metar_trigger": false,
      "taf_trigger": false,
      "metar": "METAR LKMT 011100Z 03007KT 8000 OVC013 M08/M10 Q1015 NOSIG",
      "taf": "TAF LKMT 011100Z 0112/0212 04010KT 8000 OVC015"
    },
    {
      "icao": "LKPR",
      "alert": "OK",
      "vis_m": 6000,
      "fzfg": false,
      "metar_trigger": false,
      "taf_trigger": false,
      "metar": "METAR LKPR 011100Z 06004KT 010V100 6000 FEW008 BKN010 OVC020 M04/M05 Q1012 BECMG BKN008",
      "taf": "TAF LKPR 011100Z 0112/0218 07006KT 6000 SCT010 OVC025"
    },
    {
      "icao": "LLBG",
      "alert": "OK",
      "vis_m": 9999,
      "fzfg": false,
      "metar_trigger": false,
      "taf_trigger": false,
      "metar": "METAR LLBG 011120Z 19011KT CAVOK 29/01 Q1012 NOSIG",
      "taf": "TAF LLBG 011107Z 0112/0212 22008KT CAVOK"
    },
    {
      "icao": "LMML",
      "alert": "OK",
      "vis_m": 9999,
      "fzfg": false,
      "metar_trigger": false,
      "taf_trigger": false,
      "metar": "METAR LMML 011115Z 30023G35KT 9999 FEW027 16/10 Q1004 NOSIG",
      "taf": "TAF LMML 011100Z 0112/0212 31023KT 9999 FEW025"
    },
    {
      "icao": "LOWW",
      "alert": "OK",
      "vis_m": 8000,
      "fzfg": false,
      "metar_trigger": false,
      "taf_trigger": false,
      "metar": "METAR LOWW 011120Z 36007KT 8000 OVC020 M03/M05 Q1013 NOSIG",
      "taf": "TAF LOWW 011115Z 0112/0218 36008KT 8000 BKN020 TX02/0213Z TNM03/0112Z"
    },
    {
      "icao": "LPFR",
      "alert": "OK",
      "vis_m": 9999,
      "fzfg": false,
      "metar_trigger": false,
      "taf_trigger": false,
      "metar": "METAR LPFR 011100Z 24011KT 9999 FEW012 BKN020 16/14 Q1017",
      "taf": "TAF LPFR 011100Z 0112/0212 24012KT 9999 SCT012 BKN020"
    },
    {
      "icao": "LPMA",
      "alert": "OK",
      "vis_m": 9999,
      "fzfg": false,
      "metar_trigger": false,
      "taf_trigger": false,
      "metar": "METAR LPMA 011100Z 21006KT 170V320 9999 SCT015 20/12 Q1021",
      "taf": "TAF LPMA 011100Z 0112/0212 VRB05KT 9999 SCT015"
    },
    {
      "icao": "LPPR",
      "alert": "OK",
      "vis_m": 900,
      "fzfg": false,
      "metar_trigger": false,
      "taf_trigger": false,
      "metar": "METAR LPPR 011100Z 20008KT 0900 0550S R17/1200N -DZ FG BKN002 OVC005 14/14 Q1011",
      "taf": "TAF LPPR 011100Z 0112/0212 19010KT 5000 -RADZ BR SCT004 BKN008"
    },
    {
      "icao": "LPPS",
      "alert": "OK",
      "vis_m": 9999,
      "fzfg": false,
      "metar_trigger": false,
      "taf_trigger": false,
      "metar": "METAR LPPS 011100Z 25007KT 220V290 9999 FEW015 19/13 Q1021",
      "taf": "TAF LPPS 011100Z 0112/0218 27012KT 9999 SCT015"
    },
    {
      "icao": "LPPT",
      "alert": "OK",
      "vis_m": 1800,
      "fzfg": false,
      "metar_trigger": false,
      "taf_trigger": false,
      "metar": "METAR LPPT 011100Z 23010KT 1800 -DZ BR SCT002 BKN003 15/15 Q1014",
      "taf": "TAF LPPT 011100Z 0112/0218 22010KT 5000 -RADZ BR SCT004 BKN008"
    },
    {
      "icao": "LQBK",
      "alert": "OK",
      "vis_m": 9999,
      "fzfg": false,
      "metar_trigger": false,
      "taf_trigger": false,
      "metar": "METAR LQBK 011100Z 36004KT 330V040 9999 SCT015 OVC047 04/02 Q1010 NOSIG",
      "taf": "TAF LQBK 011100Z 0112/0212 33005KT 9999 SCT015 BKN045 TX04/0112Z TN00/0205Z"
    },
    {
      "icao": "LQSA",
      "alert": "OK",
      "vis_m": 9999,
      "fzfg": false,
      "metar_trigger": false,
      "taf_trigger": false,
      "metar": "METAR LQSA 011100Z 29008KT 9999 BKN025 04/03 Q1005 NOSIG",
      "taf": "TAF LQSA 011100Z 0112/0212 28006KT 9999 BKN025 TX05/0113Z TNM01/0205Z"
    },
    {
      "icao": "LQTZ",
      "alert": "OK",
      "vis_m": 9999,
      "fzfg": false,
      "metar_trigger": false,
      "taf_trigger": false,
      "metar": "METAR LQTZ 011100Z VRB03KT 9999 BKN015 OVC025 03/02 Q1009",
      "taf": "TAF LQTZ 011100Z 0112/0212 VRB02KT 9999 SCT015 OVC030 TX04/0114Z TN00/0205Z"
    },
    {
      "icao": "LRBC",
      "alert": "OK",
      "vis_m": 9999,
      "fzfg": false,
      "metar_trigger": false,
      "taf_trigger": false,
      "metar": "METAR LRBC 011100Z 36005KT 9999 FEW020 BKN054 M07/M12 Q1020",
      "taf": "TAF LRBC 011100Z 0112/0121 35008KT 9999 BKN050"
    },
    {
      "icao": "LRBS",
      "alert": "OK",
      "vis_m": 9999,
      "fzfg": false,
      "metar_trigger": false,
      "taf_trigger": false,
      "metar": "METAR LRBS 011100Z 07016KT 9999 SCT020 OVC039 M02/M08 Q1017 NOSIG",
      "taf": "TAF LRBS 011100Z 0112/0212 08018KT 9999 BKN035"
    },
    {
      "icao": "LRBV",
      "alert": "OK",
      "vis_m": 9999,
      "fzfg": false,
      "metar_trigger": false,
      "taf_trigger": false,
      "metar": "METAR LRBV 011100Z 08009KT 040V110 CAVOK 01/M05 Q1011",
      "taf": "TAF LRBV 011100Z 0112/0121 08010KT CAVOK"
    },
    {
      "icao": "LRCL",
      "alert": "OK",
      "vis_m": 9999,
      "fzfg": false,
      "metar_trigger": false,
      "taf_trigger": false,
      "metar": "METAR LRCL 011100Z 12007KT 9999 SCT010 BKN018 OVC027 04/02 Q1011",
      "taf": "TAF LRCL 011100Z 0112/0121 12007KT 9999 BKN020"
    },
    {
      "icao": "LRCV",
      "alert": "OK",
      "vis_m": 9999,
      "fzfg": false,
      "metar_trigger": false,
      "taf_trigger": false,
      "metar": "METAR LRCV 011100Z 09017KT 9999 SCT014 OVC018 M03/M06 Q1015",
      "taf": "TAF LRCV 011100Z 0112/0121 09017KT 9999 OVC020"
    },
    {
      "icao": "LRIA",
      "alert": "OK",
      "vis_m": 9999,
      "fzfg": false,
      "metar_trigger": false,
      "taf_trigger": false,
      "metar": "METAR LRIA 011100Z 36006KT 320V040 CAVOK M07/M14 Q1020",
      "taf": "TAF LRIA 011100Z 0112/0121 02008KT CAVOK"
    },
    {
      "icao": "LROP",
      "alert": "OK",
      "vis_m": 9999,
      "fzfg": false,
      "metar_trigger": false,
      "taf_trigger": false,
      "metar": "METAR LROP 011100Z 08018KT 9999 SCT020 BKN037 M03/M09 Q1017 NOSIG",
      "taf": "TAF LROP 011100Z 0112/0212 08018KT 9999 BKN035"
    },
    {
      "icao": "LRSB",
      "alert": "OK",
      "vis_m": 9999,
      "fzfg": false,
      "metar_trigger": false,
      "taf_trigger": false,
      "metar": "METAR LRSB 011100Z 13007KT 9999 FEW022 06/00 Q1009",
      "taf": "TAF LRSB 011100Z 0112/0212 13010KT 9999 FEW025"
    },
    {
      "icao": "LRSM",
      "alert": "OK",
      "vis_m": 9999,
      "fzfg": false,
      "metar_trigger": false,
      "taf_trigger": false,
      "metar": "METAR LRSM 011100Z 03004KT 350V060 9999 FEW020 BKN037 02/M02 Q1012",
      "taf": "TAF LRSM 011100Z 0112/0121 VRB04KT 9999 BKN025"
    },
    {
      "icao": "LRSV",
      "alert": "OK",
      "vis_m": 9999,
      "fzfg": false,
      "metar_trigger": false,
      "taf_trigger": false,
      "metar": "METAR LRSV 011100Z 03007KT CAVOK M12/M14 Q1017",
      "taf": "TAF LRSV 011100Z 0112/0121 VRB03KT 9999 SCT025"
    },
    {
      "icao": "LRTM",
      "alert": "OK",
      "vis_m": 9999,
      "fzfg": false,
      "metar_trigger": false,
      "taf_trigger": false,
      "metar": "METAR LRTM 011100Z 08005KT 9999 FEW021 05/00 Q1011",
      "taf": "TAF LRTM 011100Z 0112/0121 08006KT 9999 FEW025"
    },
    {
      "icao": "LRTR",
      "alert": "OK",
      "vis_m": 9999,
      "fzfg": false,
      "metar_trigger": false,
      "taf_trigger": false,
      "metar": "METAR LRTR 011100Z VRB01KT 9999 -RA FEW006 SCT010 BKN023 04/03 Q1011",
      "taf": "TAF LRTR 011100Z 0112/0212 VRB04KT 9999 SCT010 BKN025"
    },
    {
      "icao": "LTAC",
      "alert": "OK",
      "vis_m": 9999,
      "fzfg": false,
      "metar_trigger": false,
      "taf_trigger": false,
      "metar": "METAR LTAC 011120Z 19009KT 9999 SCT040 BKN100 11/04 Q1010 NOSIG",
      "taf": "TAF LTAC 011040Z 0112/0212 VRB02KT 9999 SCT040 BKN100"
    },
    {
      "icao": "LTFM",
      "alert": "OK",
      "vis_m": 9999,
      "fzfg": false,
      "metar_trigger": false,
      "taf_trigger": false,
      "metar": "METAR LTFM 011120Z 06023KT 9999 BKN011 BKN025 06/04 Q1010 NOSIG",
      "taf": ""
    },
    {
      "icao": "LUKK",
      "alert": "OK",
      "vis_m": 9999,
      "fzfg": false,
      "metar_trigger": false,
      "taf_trigger": false,
      "metar": "METAR LUKK 011100Z 02011KT CAVOK M08/M13 Q1019 NOSIG",
      "taf": "TAF LUKK 011106Z 0112/0212 03012KT CAVOK"
    },
    {
      "icao": "LWOH",
      "alert": "OK",
      "vis_m": 9999,
      "fzfg": false,
      "metar_trigger": false,
      "taf_trigger": false,
      "metar": "METAR LWOH 011120Z 35010KT 9999 -RA SCT022 OVC035 05/02 Q1001",
      "taf": "TAF LWOH 011130Z 0112/0212 33010KT 9999 RA BKN020 OVC030"
    },
    {
      "icao": "LWSK",
      "alert": "OK",
      "vis_m": 6000,
      "fzfg": false,
      "metar_trigger": false,
      "taf_trigger": false,
      "metar": "METAR LWSK 011120Z VRB01KT 6000 -RA SCT005 BKN017 OVC030 06/05 Q1004 NOSIG",
      "taf": "TAF LWSK 011130Z 0112/0212 VRB02KT 6000 RA SCT005 BKN020 OVC030"
    },
    {
      "icao": "LYBE",
      "alert": "OK",
      "vis_m": 9999,
      "fzfg": false,
      "metar_trigger": false,
      "taf_trigger": false,
      "metar": "METAR LYBE 011100Z 10014KT CAVOK 04/M02 Q1010 NOSIG",
      "taf": "TAF LYBE 011100Z 0112/0212 11015KT 9999 SCT047 TX05/0113Z TNM01/0206Z"
    },
    {
      "icao": "LYNI",
      "alert": "OK",
      "vis_m": 9999,
      "fzfg": false,
      "metar_trigger": false,
      "taf_trigger": false,
      "metar": "METAR LYNI 011100Z 04013KT 020V080 9999 FEW020 BKN040 OVC090 02/M03 Q1008 NOSIG",
      "taf": "TAF LYNI 011100Z 0112/0212 05012KT 9999 BKN040 TX04/0112Z TNM03/0206Z"
    },
    {
      "icao": "LYPG",
      "alert": "OK",
      "vis_m": 9999,
      "fzfg": false,
      "metar_trigger": false,
      "taf_trigger": false,
      "metar": "METAR LYPG 011100Z 12003KT 090V150 9999 SCT050 OVC070 09/06 Q1002 NOSIG",
      "taf": "TAF LYPG 011100Z 0112/0212 18007KT 9999 SCT040 BKN070 TX10/0113Z TN02/0205Z"
    },
    {
      "icao": "LZIB",
      "alert": "OK",
      "vis_m": 8000,
      "fzfg": false,
      "metar_trigger": false,
      "taf_trigger": false,
      "metar": "METAR LZIB 011100Z 26005KT 8000 OVC007 01/M02 Q1012 NOSIG",
      "taf": "TAF LZIB 011115Z 0112/0212 28004KT 7000 BKN004 OVC007"
    },
    {
      "icao": "LZKZ",
      "alert": "OK",
      "vis_m": 9999,
      "fzfg": false,
      "metar_trigger": false,
      "taf_trigger": false,
      "metar": "METAR LZKZ 011100Z 04009KT 9999 SCT021 OVC033 M03/M08 Q1013 NOSIG",
      "taf": "TAF LZKZ 011115Z 0112/0212 01014KT 9999 SCT020 OVC030"
    },
    {
      "icao": "LZTT",
      "alert": "OK",
      "vis_m": 8000,
      "fzfg": false,
      "metar_trigger": false,
      "taf_trigger": false,
      "metar": "METAR LZTT 011100Z VRB01KT 8000 OVC006 M08/M09 Q1011 TEMPO BKN010",
      "taf": "TAF LZTT 011115Z 0112/0212 VRB02KT 6000 OVC009"
    },
    {
      "icao": "OEJN",
      "alert": "OK",
      "vis_m": 9999,
      "fzfg": false,
      "metar_trigger": false,
      "taf_trigger": false,
      "metar": "METAR OEJN 011100Z 27009KT 9999 SCT040 31/16 Q1012 NOSIG",
      "taf": "TAF OEJN 011100Z 0112/0218 28010KT 9999 SCT040"
    },
    {
      "icao": "OEMA",
      "alert": "OK",
      "vis_m": 9999,
      "fzfg": false,
      "metar_trigger": false,
      "taf_trigger": false,
      "metar": "METAR OEMA 011100Z 10008KT CAVOK 30/05 Q1017 NOSIG",
      "taf": "TAF OEMA 011100Z 0112/0218 11010KT 9999 FEW040"
    },
    {
      "icao": "OJAI",
      "alert": "OK",
      "vis_m": 5000,
      "fzfg": false,
      "metar_trigger": false,
      "taf_trigger": false,
      "metar": "METAR OJAI 011100Z 18006KT 5000 HZ NSC 22/02 Q1018 NOSIG",
      "taf": "TAF OJAI 011000Z 0112/0218 24014KT 5000 DU NSC"
    },
    {
      "icao": "OMAA",
      "alert": "OK",
      "vis_m": 9999,
      "fzfg": false,
      "metar_trigger": false,
      "taf_trigger": false,
      "metar": "METAR OMAA 011130Z 34008KT 280V010 CAVOK 25/12 Q1017 NOSIG",
      "taf": "TAF OMAA 011100Z 0112/0218 33009KT 8000 NSC"
    },
    {
      "icao": "OMDB",
      "alert": "OK",
      "vis_m": 9999,
      "fzfg": false,
      "metar_trigger": false,
      "taf_trigger": false,
      "metar": "METAR OMDB 011130Z 32010KT CAVOK 26/08 Q1017 NOSIG",
      "taf": "TAF OMDB 011100Z 0112/0218 30010KT 8000 NSC"
    },
    {
      "icao": "UAAA",
      "alert": "OK",
      "vis_m": 3900,
      "fzfg": false,
      "metar_trigger": false,
      "taf_trigger": false,
      "metar": "METAR UAAA 011100Z 03003MPS 3900 FU SCT200 05/M01 Q1019 NOSIG",
      "taf": "TAF UAAA 011103Z 0112/0212 20003MPS 1500 BR FU SCT011 BKN050 TX04/0209Z TNM04/0202Z"
    },
    {
      "icao": "UBBB",
      "alert": "OK",
      "vis_m": 9999,
      "fzfg": false,
      "metar_trigger": false,
      "taf_trigger": false,
      "metar": "METAR UBBB 011100Z 36008KT 9999 BKN014 08/05 Q1009 NOSIG",
      "taf": "TAF UBBB 011057Z 0112/0212 33008KT 9999 BKN010 BKN020 TX08/0112Z TN04/0200Z"
    },
    {
      "icao": "UDSG",
      "alert": "OK",
      "vis_m": 9000,
      "fzfg": false,
      "metar_trigger": false,
      "taf_trigger": false,
      "metar": "METAR UDSG 011100Z 27001KT 9000 SCT046 05/M00 Q1015 NOSIG",
      "taf": "TAF UDSG 011100Z 0112/0212 VRB06KT 3000 BR BKN020"
    },
    {
      "icao": "UDYZ",
      "alert": "OK",
      "vis_m": 1700,
      "fzfg": false,
      "metar_trigger": false,
      "taf_trigger": false,
      "metar": "METAR UDYZ 011100Z VRB01KT 1700 R08/1500N BR FEW046 03/M00 Q1016 NOSIG",
      "taf": "TAF UDYZ 011100Z 0112/0212 VRB04KT 1500 BR SCT030"
    },
    {
      "icao": "UGKO",
      "alert": "OK",
      "vis_m": 9999,
      "fzfg": false,
      "metar_trigger": false,
      "taf_trigger": false,
      "metar": "METAR UGKO 011100Z VRB01KT 9999 -RA SCT018 OVC037 11/09 Q1013 NOSIG",
      "taf": "TAF UGKO 011100Z 0112/0212 09007KT 9999 SCT020 BKN080 TX14/0211Z TN06/0203Z"
    }
  ]
}