{
  "ts_utc": "2026-04-22T07:19:00Z",
  "threshold_m": 150,
  "source": "stations_override.txt (ICAO list) + aviationweather.gov (METAR/TAF raw)",
  "station_count": 159,
  "stations": [
    {
      "icao": "BIKF",
      "alert": "OK",
      "vis_m": 9999,
      "fzfg": false,
      "metar_trigger": false,
      "taf_trigger": false,
      "metar": "METAR BIKF 220700Z 29008KT 9999 OVC012 05/04 Q1035",
      "taf": "TAF BIKF 220446Z 2206/2306 31005KT 9999 BKN008 TX07/2215Z TN05/2303Z"
    },
    {
      "icao": "BKPR",
      "alert": "OK",
      "vis_m": 9999,
      "fzfg": false,
      "metar_trigger": false,
      "taf_trigger": false,
      "metar": "METAR BKPR 220700Z 01007KT 9999 SCT020 BKN040 08/06 Q1016 NOSIG",
      "taf": "TAF BKPR 220530Z 2206/2306 01010KT 9999 SCT020 BKN040"
    },
    {
      "icao": "EBCI",
      "alert": "OK",
      "vis_m": 9999,
      "fzfg": false,
      "metar_trigger": false,
      "taf_trigger": false,
      "metar": "METAR EBCI 220650Z 06007KT CAVOK 08/01 Q1025 NOSIG",
      "taf": "TAF EBCI 220503Z 2206/2312 08008KT CAVOK"
    },
    {
      "icao": "EDDB",
      "alert": "OK",
      "vis_m": 9999,
      "fzfg": false,
      "metar_trigger": false,
      "taf_trigger": false,
      "metar": "METAR EDDB 220650Z AUTO 30006KT 260V330 CAVOK 09/M01 Q1026 NOSIG",
      "taf": "TAF EDDB 220500Z 2206/2306 32006KT CAVOK"
    },
    {
      "icao": "EDDH",
      "alert": "OK",
      "vis_m": 9999,
      "fzfg": false,
      "metar_trigger": false,
      "taf_trigger": false,
      "metar": "METAR EDDH 220650Z AUTO 31005KT 280V340 CAVOK 09/M00 Q1028 NOSIG",
      "taf": "TAF EDDH 220500Z 2206/2312 VRB03KT CAVOK"
    },
    {
      "icao": "EDDK",
      "alert": "OK",
      "vis_m": 9999,
      "fzfg": false,
      "metar_trigger": false,
      "taf_trigger": false,
      "metar": "METAR EDDK 220650Z AUTO 08006KT 040V110 CAVOK 09/01 Q1026 NOSIG",
      "taf": "TAF EDDK 220500Z 2206/2312 09005KT CAVOK"
    },
    {
      "icao": "EDDN",
      "alert": "OK",
      "vis_m": 9999,
      "fzfg": false,
      "metar_trigger": false,
      "taf_trigger": false,
      "metar": "METAR EDDN 220650Z AUTO VRB02KT CAVOK 08/01 Q1025 BECMG 05005KT",
      "taf": "TAF EDDN 220500Z 2206/2306 04003KT CAVOK"
    },
    {
      "icao": "EDDS",
      "alert": "OK",
      "vis_m": 9999,
      "fzfg": false,
      "metar_trigger": false,
      "taf_trigger": false,
      "metar": "METAR EDDS 220650Z AUTO 06006KT 020V110 CAVOK 07/01 Q1022 NOSIG",
      "taf": "TAF EDDS 220500Z 2206/2306 05004KT CAVOK"
    },
    {
      "icao": "EDFH",
      "alert": "OK",
      "vis_m": 9999,
      "fzfg": false,
      "metar_trigger": false,
      "taf_trigger": false,
      "metar": "METAR EDFH 220650Z 08005KT 010V150 CAVOK 06/M01 Q1024",
      "taf": "TAF EDFH 220500Z 2206/2306 09010KT CAVOK"
    },
    {
      "icao": "EDJA",
      "alert": "OK",
      "vis_m": 9999,
      "fzfg": false,
      "metar_trigger": false,
      "taf_trigger": false,
      "metar": "METAR EDJA 220650Z 07010KT CAVOK 05/01 Q1021",
      "taf": "TAF EDJA 220500Z 2206/2215 05009KT CAVOK"
    },
    {
      "icao": "EDLW",
      "alert": "OK",
      "vis_m": 9999,
      "fzfg": false,
      "metar_trigger": false,
      "taf_trigger": false,
      "metar": "METAR EDLW 220650Z 05003KT 010V080 CAVOK 07/02 Q1027",
      "taf": "TAF EDLW 220500Z 2206/2306 VRB02KT CAVOK"
    },
    {
      "icao": "EDNY",
      "alert": "OK",
      "vis_m": 9999,
      "fzfg": false,
      "metar_trigger": false,
      "taf_trigger": false,
      "metar": "METAR EDNY 220650Z 06010KT CAVOK 07/01 Q1020",
      "taf": "TAF EDNY 220500Z 2206/2215 03007KT CAVOK"
    },
    {
      "icao": "EDSB",
      "alert": "OK",
      "vis_m": 9999,
      "fzfg": false,
      "metar_trigger": false,
      "taf_trigger": false,
      "metar": "METAR EDSB 220650Z 01011KT CAVOK 07/02 Q1022",
      "taf": "TAF EDSB 220500Z 2206/2306 03012KT CAVOK"
    },
    {
      "icao": "EETN",
      "alert": "OK",
      "vis_m": 9999,
      "fzfg": false,
      "metar_trigger": false,
      "taf_trigger": false,
      "metar": "METAR EETN 220650Z 30013KT 280V340 CAVOK 08/00 Q1012 NOSIG",
      "taf": "TAF EETN 220530Z 2206/2306 28010KT CAVOK"
    },
    {
      "icao": "EFTU",
      "alert": "OK",
      "vis_m": 9999,
      "fzfg": false,
      "metar_trigger": false,
      "taf_trigger": false,
      "metar": "METAR EFTU 220650Z AUTO 32009KT 280V350 CAVOK 06/00 Q1014",
      "taf": "TAF EFTU 220527Z 2206/2306 32012KT CAVOK"
    },
    {
      "icao": "EGBB",
      "alert": "OK",
      "vis_m": 9999,
      "fzfg": false,
      "metar_trigger": false,
      "taf_trigger": false,
      "metar": "METAR EGBB 220650Z 07009KT 9999 SCT009 06/04 Q1027",
      "taf": "TAF EGBB 220459Z 2206/2306 07012KT CAVOK"
    },
    {
      "icao": "EGGP",
      "alert": "OK",
      "vis_m": 9999,
      "fzfg": false,
      "metar_trigger": false,
      "taf_trigger": false,
      "metar": "METAR EGGP 220650Z 07011KT CAVOK 06/03 Q1028",
      "taf": "TAF EGGP 220455Z 2206/2306 07012KT CAVOK"
    },
    {
      "icao": "EGGW",
      "alert": "OK",
      "vis_m": 9999,
      "fzfg": false,
      "metar_trigger": false,
      "taf_trigger": false,
      "metar": "METAR EGGW 220650Z AUTO 06008KT 9999 NCD 07/05 Q1026",
      "taf": "TAF EGGW 220455Z 2206/2306 06012KT 3000 BR FEW010"
    },
    {
      "icao": "EGKK",
      "alert": "OK",
      "vis_m": 9999,
      "fzfg": false,
      "metar_trigger": false,
      "taf_trigger": false,
      "metar": "METAR EGKK 220650Z 05006KT CAVOK 08/06 Q1025",
      "taf": "TAF EGKK 220455Z 2206/2312 07011KT 9999 FEW045"
    },
    {
      "icao": "EGNM",
      "alert": "OK",
      "vis_m": 9999,
      "fzfg": false,
      "metar_trigger": false,
      "taf_trigger": false,
      "metar": "METAR EGNM 220650Z 03008KT 9999 BKN009 05/04 Q1029",
      "taf": "TAF EGNM 220455Z 2206/2306 06010KT 9999 FEW020"
    },
    {
      "icao": "EGPD",
      "alert": "OK",
      "vis_m": 9999,
      "fzfg": false,
      "metar_trigger": false,
      "taf_trigger": false,
      "metar": "METAR EGPD 220650Z COR AUTO 02003KT 9999 OVC022 07/03 Q1034 NOSIG",
      "taf": "TAF EGPD 220454Z 2206/2306 04007KT 9999 BKN020"
    },
    {
      "icao": "EGPF",
      "alert": "OK",
      "vis_m": 9999,
      "fzfg": false,
      "metar_trigger": false,
      "taf_trigger": false,
      "metar": "METAR EGPF 220650Z AUTO 07009KT 9999 NCD 07/04 Q1033",
      "taf": "TAF EGPF 220500Z 2206/2306 07004KT 9999 FEW020"
    },
    {
      "icao": "EHBK",
      "alert": "OK",
      "vis_m": 9999,
      "fzfg": false,
      "metar_trigger": false,
      "taf_trigger": false,
      "metar": "METAR EHBK 220655Z AUTO 06007KT 030V090 9999 NCD 08/02 Q1026 NOSIG",
      "taf": "TAF EHBK 220446Z 2206/2312 08010KT CAVOK"
    },
    {
      "icao": "EHEH",
      "alert": "OK",
      "vis_m": 9999,
      "fzfg": false,
      "metar_trigger": false,
      "taf_trigger": false,
      "metar": "METAR EHEH 220655Z AUTO 05005KT 020V080 9999 NCD 09/02 Q1027 BLU NOSIG RMK TREND REMOTE BY EHWX",
      "taf": "TAF EHEH 220508Z 2206/2312 04007KT CAVOK"
    },
    {
      "icao": "EKBI",
      "alert": "OK",
      "vis_m": 3500,
      "fzfg": false,
      "metar_trigger": false,
      "taf_trigger": false,
      "metar": "METAR EKBI 220652Z 30007KT 250V320 3500 R09/1500N R27/P1500N BR BKN002 04/04 Q1028",
      "taf": ""
    },
    {
      "icao": "EKCH",
      "alert": "OK",
      "vis_m": 9999,
      "fzfg": false,
      "metar_trigger": false,
      "taf_trigger": false,
      "metar": "METAR EKCH 220650Z AUTO 32009KT 9999 NCD 12/02 Q1025 NOSIG",
      "taf": "TAF EKCH 220527Z 2206/2306 32012KT CAVOK"
    },
    {
      "icao": "ENAL",
      "alert": "OK",
      "vis_m": 9999,
      "fzfg": false,
      "metar_trigger": false,
      "taf_trigger": false,
      "metar": "METAR ENAL 220650Z 24005KT CAVOK 06/02 Q1032",
      "taf": "TAF ENAL 220500Z 2206/2215 VRB05KT 9999 SCT020"
    },
    {
      "icao": "ENBR",
      "alert": "OK",
      "vis_m": 9999,
      "fzfg": false,
      "metar_trigger": false,
      "taf_trigger": false,
      "metar": "METAR ENBR 220650Z 35003KT 320V020 9999 BKN003 05/05 Q1030 BECMG FEW003 RMK WIND 1200FT 34012KT",
      "taf": "TAF ENBR 220500Z 2206/2306 36005KT 0200 FG VV001"
    },
    {
      "icao": "ENGM",
      "alert": "OK",
      "vis_m": 9999,
      "fzfg": false,
      "metar_trigger": false,
      "taf_trigger": false,
      "metar": "METAR ENGM 220650Z VRB02KT CAVOK 05/M00 Q1025 NOSIG",
      "taf": "TAF ENGM 220500Z 2206/2306 VRB05KT CAVOK"
    },
    {
      "icao": "ENHD",
      "alert": "OK",
      "vis_m": 9999,
      "fzfg": false,
      "metar_trigger": false,
      "taf_trigger": false,
      "metar": "METAR ENHD 220650Z 35009KT 9999 VV004 06/06 Q1029",
      "taf": "TAF ENHD 220500Z 2206/2215 34015KT 9999 BKN003"
    },
    {
      "icao": "ENTC",
      "alert": "OK",
      "vis_m": 9999,
      "fzfg": false,
      "metar_trigger": false,
      "taf_trigger": false,
      "metar": "METAR ENTC 220650Z 36009KT 9999 VCSH FEW021 SCT028 BKN042 03/M00 Q1013 TEMPO FEW020CB RMK WIND 2600FT 34031G43KT",
      "taf": ""
    },
    {
      "icao": "ENTO",
      "alert": "OK",
      "vis_m": 9999,
      "fzfg": false,
      "metar_trigger": false,
      "taf_trigger": false,
      "metar": "METAR ENTO 220650Z 21004KT CAVOK 10/00 Q1026 NOSIG",
      "taf": "TAF ENTO 220500Z 2206/2306 34007KT CAVOK"
    },
    {
      "icao": "ENVA",
      "alert": "OK",
      "vis_m": 9999,
      "fzfg": false,
      "metar_trigger": false,
      "taf_trigger": false,
      "metar": "METAR ENVA 220650Z 27014KT 9999 SCT024 BKN042 07/02 Q1027 BECMG BKN014 RMK WIND 670FT 27010KT",
      "taf": "TAF ENVA 220500Z 2206/2306 27015KT 9999 BKN025"
    },
    {
      "icao": "ENZV",
      "alert": "OK",
      "vis_m": 6000,
      "fzfg": false,
      "metar_trigger": false,
      "taf_trigger": false,
      "metar": "METAR ENZV 220650Z 02005KT 340V040 6000 OVC003 05/05 Q1029 TEMPO 0600 FG",
      "taf": ""
    },
    {
      "icao": "EPGD",
      "alert": "OK",
      "vis_m": 9999,
      "fzfg": false,
      "metar_trigger": false,
      "taf_trigger": false,
      "metar": "METAR EPGD 220700Z 31010KT CAVOK 09/M01 Q1021",
      "taf": "TAF EPGD 220530Z 2206/2306 28008KT CAVOK"
    },
    {
      "icao": "EPKK",
      "alert": "OK",
      "vis_m": 9999,
      "fzfg": false,
      "metar_trigger": false,
      "taf_trigger": false,
      "metar": "METAR EPKK 220700Z 22006KT CAVOK 09/M01 Q1020",
      "taf": "TAF EPKK 220530Z 2206/2306 22003KT CAVOK"
    },
    {
      "icao": "EPKT",
      "alert": "OK",
      "vis_m": 9999,
      "fzfg": false,
      "metar_trigger": false,
      "taf_trigger": false,
      "metar": "METAR EPKT 220700Z 30004KT 250V340 CAVOK 07/M02 Q1021",
      "taf": "TAF EPKT 220530Z 2206/2306 24003KT CAVOK"
    },
    {
      "icao": "EPLB",
      "alert": "OK",
      "vis_m": 9999,
      "fzfg": false,
      "metar_trigger": false,
      "taf_trigger": false,
      "metar": "METAR EPLB 220700Z 29005KT CAVOK 09/M02 Q1018",
      "taf": "TAF EPLB 220530Z 2206/2306 31010KT CAVOK"
    },
    {
      "icao": "EPMO",
      "alert": "OK",
      "vis_m": 9999,
      "fzfg": false,
      "metar_trigger": false,
      "taf_trigger": false,
      "metar": "METAR EPMO 220700Z 34008KT 310V010 CAVOK 07/M01 Q1020",
      "taf": "TAF EPMO 220530Z 2206/2306 32013KT CAVOK"
    },
    {
      "icao": "EPPO",
      "alert": "OK",
      "vis_m": 9999,
      "fzfg": false,
      "metar_trigger": false,
      "taf_trigger": false,
      "metar": "METAR EPPO 220700Z 34007KT CAVOK 08/M04 Q1023",
      "taf": "TAF EPPO 220530Z 2206/2306 33010KT CAVOK"
    },
    {
      "icao": "EPRA",
      "alert": "OK",
      "vis_m": 9999,
      "fzfg": false,
      "metar_trigger": false,
      "taf_trigger": false,
      "metar": "METAR EPRA 220700Z 32007KT 280V360 CAVOK 07/M02 Q1019",
      "taf": "TAF EPRA 220530Z 2206/2215 31010KT CAVOK"
    },
    {
      "icao": "EPRZ",
      "alert": "OK",
      "vis_m": 9999,
      "fzfg": false,
      "metar_trigger": false,
      "taf_trigger": false,
      "metar": "METAR EPRZ 220700Z 24006KT CAVOK 08/M01 Q1018",
      "taf": "TAF EPRZ 220530Z 2206/2306 27008KT CAVOK"
    },
    {
      "icao": "EPSC",
      "alert": "OK",
      "vis_m": 9999,
      "fzfg": false,
      "metar_trigger": false,
      "taf_trigger": false,
      "metar": "METAR EPSC 220700Z 30008KT CAVOK 08/02 Q1024",
      "taf": "TAF EPSC 220530Z 2206/2306 VRB02KT CAVOK"
    },
    {
      "icao": "EPSY",
      "alert": "OK",
      "vis_m": 9999,
      "fzfg": false,
      "metar_trigger": false,
      "taf_trigger": false,
      "metar": "METAR EPSY 220700Z 32009KT 280V350 CAVOK 08/M02 Q1019",
      "taf": "TAF EPSY 220530Z 2206/2215 32010KT CAVOK"
    },
    {
      "icao": "EPWA",
      "alert": "OK",
      "vis_m": 9999,
      "fzfg": false,
      "metar_trigger": false,
      "taf_trigger": false,
      "metar": "METAR EPWA 220700Z 30008KT CAVOK 07/M01 Q1020 NOSIG",
      "taf": "TAF EPWA 220530Z 2206/2306 32010KT CAVOK"
    },
    {
      "icao": "EPWR",
      "alert": "OK",
      "vis_m": 9999,
      "fzfg": false,
      "metar_trigger": false,
      "taf_trigger": false,
      "metar": "METAR EPWR 220700Z 31009KT CAVOK 07/M02 Q1023",
      "taf": "TAF EPWR 220530Z 2206/2306 32008KT CAVOK"
    },
    {
      "icao": "ESGG",
      "alert": "OK",
      "vis_m": 9999,
      "fzfg": false,
      "metar_trigger": false,
      "taf_trigger": false,
      "metar": "METAR ESGG 220650Z 02011KT CAVOK 08/01 Q1025",
      "taf": "TAF ESGG 220530Z 2206/2306 01007KT CAVOK"
    },
    {
      "icao": "ESKN",
      "alert": "OK",
      "vis_m": 9999,
      "fzfg": false,
      "metar_trigger": false,
      "taf_trigger": false,
      "metar": "METAR ESKN 220650Z 32009KT CAVOK 09/01 Q1021",
      "taf": "TAF ESKN 220530Z 2206/2306 33008KT CAVOK"
    },
    {
      "icao": "ESMS",
      "alert": "OK",
      "vis_m": 9999,
      "fzfg": false,
      "metar_trigger": false,
      "taf_trigger": false,
      "metar": "METAR ESMS 220650Z 32009KT CAVOK 09/05 Q1024",
      "taf": "TAF ESMS 220527Z 2206/2306 31007KT CAVOK"
    },
    {
      "icao": "ESSA",
      "alert": "OK",
      "vis_m": 9999,
      "fzfg": false,
      "metar_trigger": false,
      "taf_trigger": false,
      "metar": "METAR ESSA 220650Z 33012KT CAVOK 07/M00 Q1020 NOSIG",
      "taf": "TAF ESSA 220530Z 2206/2306 32010KT CAVOK"
    },
    {
      "icao": "EYKA",
      "alert": "OK",
      "vis_m": 9999,
      "fzfg": false,
      "metar_trigger": false,
      "taf_trigger": false,
      "metar": "METAR EYKA 220650Z 28004KT 250V310 CAVOK 06/M02 Q1016",
      "taf": "TAF EYKA 220500Z 2206/2306 VRB04KT 9000 NSC"
    },
    {
      "icao": "EYPA",
      "alert": "OK",
      "vis_m": 9999,
      "fzfg": false,
      "metar_trigger": false,
      "taf_trigger": false,
      "metar": "METAR EYPA 220650Z 31003KT 260V020 CAVOK 08/02 Q1018",
      "taf": "TAF EYPA 220500Z 2206/2306 VRB04KT 9000 NSC"
    },
    {
      "icao": "EYVI",
      "alert": "OK",
      "vis_m": 9999,
      "fzfg": false,
      "metar_trigger": false,
      "taf_trigger": false,
      "metar": "METAR EYVI 220650Z 29010KT CAVOK 08/M02 Q1015 NOSIG",
      "taf": "TAF EYVI 220500Z 2206/2306 31012KT 9000 NSC"
    },
    {
      "icao": "GCFV",
      "alert": "OK",
      "vis_m": 9999,
      "fzfg": false,
      "metar_trigger": false,
      "taf_trigger": false,
      "metar": "METAR GCFV 220700Z 28006KT 9999 FEW018 16/13 Q1013",
      "taf": "TAF GCFV 220200Z 2203/2303 35007KT 9999 SCT035 TX23/2214Z TN17/2206Z"
    },
    {
      "icao": "GCLP",
      "alert": "OK",
      "vis_m": 9999,
      "fzfg": false,
      "metar_trigger": false,
      "taf_trigger": false,
      "metar": "METAR GCLP 220700Z 32006KT 9999 FEW035 BKN055 17/13 Q1013 NOSIG",
      "taf": "TAF GCLP 220200Z 2203/2303 03007KT 9999 SCT035 TX22/2214Z TN17/2206Z"
    },
    {
      "icao": "GCTS",
      "alert": "OK",
      "vis_m": 9999,
      "fzfg": false,
      "metar_trigger": false,
      "taf_trigger": false,
      "metar": "METAR GCTS 220700Z 06006KT 9999 BKN025 17/13 Q1013 NOSIG",
      "taf": "TAF GCTS 220200Z 2203/2303 07012KT 9999 SCT040 TX23/2214Z TN17/2206Z"
    },
    {
      "icao": "GMAD",
      "alert": "OK",
      "vis_m": 8000,
      "fzfg": false,
      "metar_trigger": false,
      "taf_trigger": false,
      "metar": "METAR GMAD 220700Z 00000KT 8000 FEW026 17/14 Q1011 NOSIG",
      "taf": "TAF GMAD 220500Z 2206/2312 20006KT 8000 BKN020"
    },
    {
      "icao": "GMMN",
      "alert": "OK",
      "vis_m": 5000,
      "fzfg": false,
      "metar_trigger": false,
      "taf_trigger": false,
      "metar": "METAR GMMN 220700Z VRB02KT 5000 SCT004 14/13 Q1013 NOSIG",
      "taf": "TAF GMMN 220500Z 2206/2312 04004KT 9999 FEW014"
    },
    {
      "icao": "GMMX",
      "alert": "OK",
      "vis_m": 9999,
      "fzfg": false,
      "metar_trigger": false,
      "taf_trigger": false,
      "metar": "METAR GMMX 220700Z 11006KT 9999 FEW030 SCT100 17/13 Q1012 NOSIG",
      "taf": "TAF GMMX 220500Z 2206/2312 30007KT 8000 SCT030 SCT110"
    },
    {
      "icao": "HEGN",
      "alert": "OK",
      "vis_m": 9999,
      "fzfg": false,
      "metar_trigger": false,
      "taf_trigger": false,
      "metar": "METAR HEGN 220700Z 35016KT CAVOK 23/07 Q1013 NOSIG",
      "taf": "TAF HEGN 220500Z 2206/2312 32010G20KT CAVOK"
    },
    {
      "icao": "HEMA",
      "alert": "OK",
      "vis_m": 9999,
      "fzfg": false,
      "metar_trigger": false,
      "taf_trigger": false,
      "metar": "METAR HEMA 220700Z 34024KT CAVOK 26/08 Q1011 NOSIG",
      "taf": "TAF HEMA 220500Z 2206/2312 33010G20KT CAVOK"
    },
    {
      "icao": "HESH",
      "alert": "OK",
      "vis_m": 9999,
      "fzfg": false,
      "metar_trigger": false,
      "taf_trigger": false,
      "metar": "METAR HESH 220700Z 36015KT CAVOK 25/13 Q1012 NOSIG",
      "taf": "TAF HESH 220500Z 2206/2312 36010KT CAVOK"
    },
    {
      "icao": "HESX",
      "alert": "OK",
      "vis_m": 9999,
      "fzfg": false,
      "metar_trigger": false,
      "taf_trigger": false,
      "metar": "METAR HESX 220700Z 01006KT CAVOK 18/11 Q1015 NOSIG",
      "taf": "TAF HESX 220500Z 2206/2312 03008KT CAVOK"
    },
    {
      "icao": "LATI",
      "alert": "OK",
      "vis_m": null,
      "fzfg": false,
      "metar_trigger": false,
      "taf_trigger": false,
      "metar": "",
      "taf": "TAF LATI 220500Z 2206/2306 VRB05KT 9999 BKN025 TX20/2212Z TN08/2304Z"
    },
    {
      "icao": "LBPD",
      "alert": "OK",
      "vis_m": 9999,
      "fzfg": false,
      "metar_trigger": false,
      "taf_trigger": false,
      "metar": "METAR LBPD 220700Z AUTO VRB02KT 9999 -RA BKN063/// OVC072/// 10/10 Q1015 TEMPO 5000 RA SCT005 BKN008 BKN020",
      "taf": "TAF LBPD 220500Z 2206/2306 VRB03KT 9999 SCT030 OVC050"
    },
    {
      "icao": "LBSF",
      "alert": "OK",
      "vis_m": 9999,
      "fzfg": false,
      "metar_trigger": false,
      "taf_trigger": false,
      "metar": "METAR LBSF 220700Z 29003KT 260V320 9999 FEW017 SCT063 BKN089 08/05 Q1015 NOSIG",
      "taf": "TAF LBSF 220500Z 2206/2306 VRB03KT 9999 SCT050"
    },
    {
      "icao": "LBWN",
      "alert": "OK",
      "vis_m": 9999,
      "fzfg": false,
      "metar_trigger": false,
      "taf_trigger": false,
      "metar": "METAR LBWN 220700Z 26003KT 9999 -RA SCT027 OVC031 09/09 Q1016 TEMPO RA",
      "taf": "TAF LBWN 220500Z 2206/2306 VRB03KT 9999 SCT020 BKN040"
    },
    {
      "icao": "LCLK",
      "alert": "OK",
      "vis_m": 9999,
      "fzfg": false,
      "metar_trigger": false,
      "taf_trigger": false,
      "metar": "METAR LCLK 220700Z 10006KT 9999 FEW020 21/15 Q1015 NOSIG",
      "taf": "TAF LCLK 220530Z 2206/2306 32006KT 9999 FEW025"
    },
    {
      "icao": "LCPH",
      "alert": "OK",
      "vis_m": 9999,
      "fzfg": false,
      "metar_trigger": false,
      "taf_trigger": false,
      "metar": "METAR LCPH 220700Z 25006KT 9999 FEW020 20/14 Q1015 NOSIG",
      "taf": "TAF LCPH 220530Z 2206/2306 20006KT 9999 FEW025"
    },
    {
      "icao": "LEAL",
      "alert": "OK",
      "vis_m": 9999,
      "fzfg": false,
      "metar_trigger": false,
      "taf_trigger": false,
      "metar": "METAR LEAL 220700Z VRB01KT 9999 FEW002 20/07 Q1012 NOSIG",
      "taf": ""
    },
    {
      "icao": "LEBB",
      "alert": "OK",
      "vis_m": 9999,
      "fzfg": false,
      "metar_trigger": false,
      "taf_trigger": false,
      "metar": "METAR LEBB 220700Z VRB02KT CAVOK 18/14 Q1010 NOSIG",
      "taf": "TAF LEBB 220500Z 2206/2306 34009KT 9999 FEW040 TX20/2213Z TN10/2306Z"
    },
    {
      "icao": "LEBL",
      "alert": "OK",
      "vis_m": 9999,
      "fzfg": false,
      "metar_trigger": false,
      "taf_trigger": false,
      "metar": "METAR LEBL 220700Z 32006G17KT 240V360 9999 FEW004 SCT022 17/10 Q1012 NOSIG",
      "taf": "TAF LEBL 220500Z 2206/2306 VRB03KT 9999 FEW030 TX21/2212Z TN13/2206Z"
    },
    {
      "icao": "LECH",
      "alert": "OK",
      "vis_m": 9000,
      "fzfg": false,
      "metar_trigger": false,
      "taf_trigger": false,
      "metar": "METAR LECH 220700Z AUTO 21003KT 170V230 9000 NSC 15/09 Q1013",
      "taf": "TAF LECH 220500Z 2206/2306 VRB04KT CAVOK TX28/2213Z TN11/2306Z"
    },
    {
      "icao": "LEMD",
      "alert": "OK",
      "vis_m": 9999,
      "fzfg": false,
      "metar_trigger": false,
      "taf_trigger": false,
      "metar": "METAR LEMD 220700Z 17005KT 120V220 CAVOK 15/10 Q1014 NOSIG",
      "taf": ""
    },
    {
      "icao": "LEMG",
      "alert": "OK",
      "vis_m": 9999,
      "fzfg": false,
      "metar_trigger": false,
      "taf_trigger": false,
      "metar": "METAR LEMG 220700Z 27011KT CAVOK 17/11 Q1013 NOSIG",
      "taf": "TAF LEMG 220500Z 2206/2306 29011KT CAVOK TX25/2214Z TN12/2206Z"
    },
    {
      "icao": "LEVC",
      "alert": "OK",
      "vis_m": 9999,
      "fzfg": false,
      "metar_trigger": false,
      "taf_trigger": false,
      "metar": "METAR LEVC 220700Z VRB02KT CAVOK 16/10 Q1012 NOSIG",
      "taf": "TAF LEVC 220500Z 2206/2306 VRB04KT CAVOK TX28/2212Z TN13/2306Z"
    },
    {
      "icao": "LEXJ",
      "alert": "OK",
      "vis_m": 9000,
      "fzfg": false,
      "metar_trigger": false,
      "taf_trigger": false,
      "metar": "METAR LEXJ 220700Z 27007KT 230V300 9000 OVC014 15/13 Q1011",
      "taf": "TAF LEXJ 220200Z 2203/2303 28009KT 9999 SCT040 TX26/2213Z TN15/2206Z"
    },
    {
      "icao": "LEZG",
      "alert": "OK",
      "vis_m": 9999,
      "fzfg": false,
      "metar_trigger": false,
      "taf_trigger": false,
      "metar": "METAR LEZG 220700Z 17003KT 120V200 CAVOK 17/09 Q1012 NOSIG",
      "taf": ""
    },
    {
      "icao": "LEZL",
      "alert": "OK",
      "vis_m": 8000,
      "fzfg": false,
      "metar_trigger": false,
      "taf_trigger": false,
      "metar": "METAR LEZL 220700Z 11003KT 080V150 8000 FEW008 17/16 Q1014 NOSIG",
      "taf": "TAF LEZL 220200Z 2203/2303 23010KT 9999 SCT020 TX25/2215Z TN16/2206Z"
    },
    {
      "icao": "LFBD",
      "alert": "OK",
      "vis_m": 9999,
      "fzfg": false,
      "metar_trigger": false,
      "taf_trigger": false,
      "metar": "METAR LFBD 220700Z AUTO 10007KT 050V120 CAVOK 16/07 Q1010 NOSIG",
      "taf": "TAF LFBD 220500Z 2206/2312 07006KT CAVOK TX26/2214Z TN15/2206Z"
    },
    {
      "icao": "LFLL",
      "alert": "OK",
      "vis_m": 9999,
      "fzfg": false,
      "metar_trigger": false,
      "taf_trigger": false,
      "metar": "METAR LFLL 220700Z VRB03KT CAVOK 08/04 Q1016 NOSIG",
      "taf": "TAF LFLL 220500Z 2206/2312 36003KT CAVOK"
    },
    {
      "icao": "LFLS",
      "alert": "OK",
      "vis_m": 9999,
      "fzfg": false,
      "metar_trigger": false,
      "taf_trigger": false,
      "metar": "METAR LFLS 220700Z AUTO 06003KT 030V120 CAVOK 10/06 Q1015 NOSIG",
      "taf": "TAF LFLS 220200Z 2203/2303 VRB03KT CAVOK"
    },
    {
      "icao": "LFMN",
      "alert": "OK",
      "vis_m": 9999,
      "fzfg": false,
      "metar_trigger": false,
      "taf_trigger": false,
      "metar": "METAR LFMN 220700Z 09015KT 9999 SCT021 BKN043 18/13 Q1015 NOSIG",
      "taf": "TAF LFMN 220200Z 2203/2309 32010KT 9999 FEW012 BKN020"
    },
    {
      "icao": "LFOB",
      "alert": "OK",
      "vis_m": 9999,
      "fzfg": false,
      "metar_trigger": false,
      "taf_trigger": false,
      "metar": "METAR LFOB 220700Z AUTO 07014KT CAVOK 09/02 Q1022 NOSIG",
      "taf": "TAF LFOB 220500Z 2206/2306 06010KT CAVOK"
    },
    {
      "icao": "LFPO",
      "alert": "OK",
      "vis_m": 9999,
      "fzfg": false,
      "metar_trigger": false,
      "taf_trigger": false,
      "metar": "METAR LFPO 220700Z 06012KT CAVOK 10/02 Q1020 NOSIG",
      "taf": "TAF LFPO 220500Z 2206/2312 06010KT CAVOK"
    },
    {
      "icao": "LFSB",
      "alert": "OK",
      "vis_m": 9999,
      "fzfg": false,
      "metar_trigger": false,
      "taf_trigger": false,
      "metar": "METAR LFSB 220700Z AUTO 33006KT CAVOK 07/03 Q1020 NOSIG",
      "taf": "TAF LFSB 220500Z 2206/2306 33005KT CAVOK"
    },
    {
      "icao": "LGAV",
      "alert": "OK",
      "vis_m": 9999,
      "fzfg": false,
      "metar_trigger": false,
      "taf_trigger": false,
      "metar": "METAR LGAV 220650Z VRB03KT 9999 FEW025 19/13 Q1012 NOSIG",
      "taf": "TAF LGAV 220500Z 2206/2306 VRB03KT 9999 FEW020"
    },
    {
      "icao": "LGTS",
      "alert": "OK",
      "vis_m": 8000,
      "fzfg": false,
      "metar_trigger": false,
      "taf_trigger": false,
      "metar": "METAR LGTS 220650Z 35004KT 8000 -DZ FEW004 BKN025 13/12 Q1014 NOSIG",
      "taf": "TAF LGTS 220500Z 2206/2306 34015KT 9999 BKN030"
    },
    {
      "icao": "LHBP",
      "alert": "OK",
      "vis_m": 9999,
      "fzfg": false,
      "metar_trigger": false,
      "taf_trigger": false,
      "metar": "METAR LHBP 220700Z 35007KT 320V020 CAVOK 12/M01 Q1019 NOSIG",
      "taf": "TAF LHBP 220515Z 2206/2306 36005KT CAVOK"
    },
    {
      "icao": "LHDC",
      "alert": "OK",
      "vis_m": 9999,
      "fzfg": false,
      "metar_trigger": false,
      "taf_trigger": false,
      "metar": "METAR LHDC 220645Z AUTO 02008KT 340V060 CAVOK 12/M02 Q1018 NOSIG",
      "taf": "TAF LHDC 220515Z 2206/2215 36004KT CAVOK"
    },
    {
      "icao": "LIBD",
      "alert": "OK",
      "vis_m": 9999,
      "fzfg": false,
      "metar_trigger": false,
      "taf_trigger": false,
      "metar": "METAR LIBD 220650Z 30007KT 260V340 9999 VCSH FEW012 SCT040 15/13 Q1014",
      "taf": "TAF LIBD 220500Z 2206/2306 35013KT 9999 SCT040"
    },
    {
      "icao": "LIBG",
      "alert": "OK",
      "vis_m": 9999,
      "fzfg": false,
      "metar_trigger": false,
      "taf_trigger": false,
      "metar": "METAR LIBG 220650Z 01006KT 330V040 9999 SCT030 18/17 Q1014",
      "taf": "TAF LIBG 220655Z 2207/2215 35016KT 9999 SCT030"
    },
    {
      "icao": "LIBP",
      "alert": "OK",
      "vis_m": 9999,
      "fzfg": false,
      "metar_trigger": false,
      "taf_trigger": false,
      "metar": "METAR LIBP 220650Z AUTO 23003KT 210V280 9999 -RA OVC060/// 13/12 Q1016",
      "taf": "TAF LIBP 220500Z 2206/2306 VRB06KT 9999 SCT030"
    },
    {
      "icao": "LIBR",
      "alert": "OK",
      "vis_m": 9999,
      "fzfg": false,
      "metar_trigger": false,
      "taf_trigger": false,
      "metar": "METAR LIBR 220650Z 02008KT CAVOK 16/11 Q1014",
      "taf": "TAF LIBR 220500Z 2206/2306 34013KT 9999 SCT040"
    },
    {
      "icao": "LICA",
      "alert": "OK",
      "vis_m": 9999,
      "fzfg": false,
      "metar_trigger": false,
      "taf_trigger": false,
      "metar": "METAR LICA 220650Z AUTO 07002KT 9999 BKN013/// 16/14 Q1013",
      "taf": "TAF LICA 220500Z 2206/2306 VRB05KT CAVOK"
    },
    {
      "icao": "LICC",
      "alert": "OK",
      "vis_m": 9999,
      "fzfg": false,
      "metar_trigger": false,
      "taf_trigger": false,
      "metar": "METAR LICC 220650Z 06010KT 9999 BKN012 18/14 Q1013",
      "taf": "TAF LICC 220500Z 2206/2306 VRB05KT CAVOK"
    },
    {
      "icao": "LICJ",
      "alert": "OK",
      "vis_m": 9999,
      "fzfg": false,
      "metar_trigger": false,
      "taf_trigger": false,
      "metar": "METAR LICJ 220650Z 24003KT CAVOK 17/15 Q1012",
      "taf": "TAF LICJ 220500Z 2206/2306 VRB05KT CAVOK"
    },
    {
      "icao": "LIMC",
      "alert": "OK",
      "vis_m": 9999,
      "fzfg": false,
      "metar_trigger": false,
      "taf_trigger": false,
      "metar": "METAR LIMC 220650Z 11004KT 080V140 9999 BKN040 11/08 Q1019 NOSIG",
      "taf": "TAF LIMC 220500Z 2206/2312 06010KT 9999 SCT060"
    },
    {
      "icao": "LIME",
      "alert": "OK",
      "vis_m": 9999,
      "fzfg": false,
      "metar_trigger": false,
      "taf_trigger": false,
      "metar": "METAR LIME 220650Z VRB02KT 9999 BKN055 12/06 Q1019 NOSIG",
      "taf": "TAF LIME 220500Z 2206/2306 VRB05KT 9999 SCT040"
    },
    {
      "icao": "LIMF",
      "alert": "OK",
      "vis_m": 9999,
      "fzfg": false,
      "metar_trigger": false,
      "taf_trigger": false,
      "metar": "METAR LIMF 220650Z 35004KT 9999 OVC025 11/09 Q1019",
      "taf": "TAF LIMF 220500Z 2206/2306 03010KT 9999 SCT050"
    },
    {
      "icao": "LIMJ",
      "alert": "OK",
      "vis_m": 9999,
      "fzfg": false,
      "metar_trigger": false,
      "taf_trigger": false,
      "metar": "METAR LIMJ 220650Z 35004KT 310V090 9999 BKN045 15/11 Q1016",
      "taf": "TAF LIMJ 220500Z 2206/2306 01005KT 9999 SCT060"
    },
    {
      "icao": "LIPE",
      "alert": "OK",
      "vis_m": 9999,
      "fzfg": false,
      "metar_trigger": false,
      "taf_trigger": false,
      "metar": "METAR LIPE 220650Z 08005KT 050V120 9999 FEW050 BKN070 12/08 Q1018",
      "taf": "TAF LIPE 220500Z 2206/2306 VRB06KT 9999 SCT040"
    },
    {
      "icao": "LIPH",
      "alert": "OK",
      "vis_m": 9999,
      "fzfg": false,
      "metar_trigger": false,
      "taf_trigger": false,
      "metar": "METAR LIPH 220650Z 05007KT 010V080 9999 FEW070 13/05 Q1019",
      "taf": "TAF LIPH 220500Z 2206/2306 06008KT 9999 SCT050"
    },
    {
      "icao": "LIPQ",
      "alert": "OK",
      "vis_m": 9999,
      "fzfg": false,
      "metar_trigger": false,
      "taf_trigger": false,
      "metar": "METAR LIPQ 220650Z AUTO 07005KT 9999 FEW100/// 13/00 Q1019",
      "taf": "TAF LIPQ 220500Z 2206/2306 02008KT 9999 SCT050"
    },
    {
      "icao": "LIPR",
      "alert": "OK",
      "vis_m": 9999,
      "fzfg": false,
      "metar_trigger": false,
      "taf_trigger": false,
      "metar": "METAR LIPR 220650Z 07012KT 9999 SCT040 SCT070 14/07 Q1018",
      "taf": "TAF LIPR 220500Z 2206/2306 08017KT 9999 SCT030"
    },
    {
      "icao": "LIPX",
      "alert": "OK",
      "vis_m": 9999,
      "fzfg": false,
      "metar_trigger": false,
      "taf_trigger": false,
      "metar": "METAR LIPX 220650Z AUTO 09007KT 060V130 9999 NCD 14/06 Q1019",
      "taf": "TAF LIPX 220500Z 2206/2306 09012KT 9999 SCT050"
    },
    {
      "icao": "LIPY",
      "alert": "OK",
      "vis_m": 9000,
      "fzfg": false,
      "metar_trigger": false,
      "taf_trigger": false,
      "metar": "METAR LIPY 220650Z AUTO VRB01KT 9000 -RA FEW034/// OVC055/// 12/12 Q1017",
      "taf": "TAF LIPY 220500Z 2206/2306 VRB05KT 9999 SCT040"
    },
    {
      "icao": "LIPZ",
      "alert": "OK",
      "vis_m": 9999,
      "fzfg": false,
      "metar_trigger": false,
      "taf_trigger": false,
      "metar": "METAR LIPZ 220650Z 05011KT CAVOK 13/04 Q1019 NOSIG",
      "taf": "TAF LIPZ 220500Z 2206/2312 02014KT 9999 SCT050"
    },
    {
      "icao": "LIRF",
      "alert": "OK",
      "vis_m": 9999,
      "fzfg": false,
      "metar_trigger": false,
      "taf_trigger": false,
      "metar": "METAR LIRF 220650Z 01007KT 9999 FEW020 SCT040 14/11 Q1014 TEMPO RA",
      "taf": "TAF LIRF 220500Z 2206/2312 04008KT 9999 SCT020"
    },
    {
      "icao": "LIRN",
      "alert": "OK",
      "vis_m": 9999,
      "fzfg": false,
      "metar_trigger": false,
      "taf_trigger": false,
      "metar": "METAR LIRN 220650Z 03006KT 360V070 CAVOK 17/09 Q1013 NOSIG",
      "taf": "TAF LIRN 220500Z 2206/2306 VRB05KT 9999 FEW030"
    },
    {
      "icao": "LIRP",
      "alert": "OK",
      "vis_m": 9999,
      "fzfg": false,
      "metar_trigger": false,
      "taf_trigger": false,
      "metar": "METAR LIRP 220645Z 11008KT 9999 SCT030 BKN080 13/09 Q1016 NOSIG",
      "taf": "TAF LIRP 220500Z 2206/2306 08010KT 9999 OVC060"
    },
    {
      "icao": "LIRZ",
      "alert": "OK",
      "vis_m": 9999,
      "fzfg": false,
      "metar_trigger": false,
      "taf_trigger": false,
      "metar": "METAR LIRZ 220650Z AUTO 01008KT 9999 -RA BKN064/// 12/09 Q1015",
      "taf": "TAF LIRZ 220500Z 2206/2306 03012KT 9999 BKN060"
    },
    {
      "icao": "LJLJ",
      "alert": "OK",
      "vis_m": 9999,
      "fzfg": false,
      "metar_trigger": false,
      "taf_trigger": false,
      "metar": "METAR LJLJ 220700Z VRB01KT 9999 FEW070 08/06 Q1020 NOSIG",
      "taf": "TAF LJLJ 220500Z 2206/2306 VRB00KT 9999 FEW045 SCT080"
    },
    {
      "icao": "LKMT",
      "alert": "OK",
      "vis_m": 9999,
      "fzfg": false,
      "metar_trigger": false,
      "taf_trigger": false,
      "metar": "METAR LKMT 220700Z 01006KT 330V040 CAVOK 07/M01 Q1022 NOSIG",
      "taf": "TAF LKMT 220500Z 2206/2306 VRB02KT CAVOK"
    },
    {
      "icao": "LKPR",
      "alert": "OK",
      "vis_m": 9999,
      "fzfg": false,
      "metar_trigger": false,
      "taf_trigger": false,
      "metar": "METAR LKPR 220700Z 34010KT CAVOK 06/M01 Q1024 NOSIG",
      "taf": "TAF LKPR 220500Z 2206/2312 33007KT CAVOK"
    },
    {
      "icao": "LLBG",
      "alert": "OK",
      "vis_m": 9999,
      "fzfg": false,
      "metar_trigger": false,
      "taf_trigger": false,
      "metar": "METAR LLBG 220650Z 36007KT 320V040 CAVOK 20/07 Q1015 NOSIG",
      "taf": "TAF LLBG 220503Z 2206/2306 VRB03KT CAVOK TX24/2210Z TN11/2303Z"
    },
    {
      "icao": "LMML",
      "alert": "OK",
      "vis_m": 9999,
      "fzfg": false,
      "metar_trigger": false,
      "taf_trigger": false,
      "metar": "METAR LMML 220715Z 22006KT 190V250 CAVOK 25/10 Q1012 NOSIG",
      "taf": "TAF LMML 220500Z 2206/2306 VRB06KT CAVOK"
    },
    {
      "icao": "LOWW",
      "alert": "OK",
      "vis_m": 9999,
      "fzfg": false,
      "metar_trigger": false,
      "taf_trigger": false,
      "metar": "METAR LOWW 220650Z 33010KT CAVOK 08/M00 Q1022 NOSIG",
      "taf": "TAF LOWW 220515Z 2206/2312 34015KT CAVOK TX17/2312Z TN07/2206Z"
    },
    {
      "icao": "LPFR",
      "alert": "OK",
      "vis_m": 9999,
      "fzfg": false,
      "metar_trigger": false,
      "taf_trigger": false,
      "metar": "METAR LPFR 220700Z 30006KT CAVOK 16/12 Q1013",
      "taf": "TAF LPFR 220500Z 2206/2306 31005KT 9999 FEW015 BKN040"
    },
    {
      "icao": "LPMA",
      "alert": "OK",
      "vis_m": 9999,
      "fzfg": false,
      "metar_trigger": false,
      "taf_trigger": false,
      "metar": "METAR LPMA 220700Z 28005KT 9999 SCT015 14/09 Q1013",
      "taf": "TAF LPMA 220500Z 2206/2306 VRB05KT 9999 SCT015"
    },
    {
      "icao": "LPPR",
      "alert": "OK",
      "vis_m": 9999,
      "fzfg": false,
      "metar_trigger": false,
      "taf_trigger": false,
      "metar": "METAR LPPR 220700Z 17007KT 9999 FEW019 SCT025 13/11 Q1013",
      "taf": "TAF LPPR 220500Z 2206/2306 19007KT 9999 SCT017 BKN035"
    },
    {
      "icao": "LPPS",
      "alert": "OK",
      "vis_m": 9999,
      "fzfg": false,
      "metar_trigger": false,
      "taf_trigger": false,
      "metar": "METAR LPPS 220700Z 20003KT 160V240 9999 FEW015 13/08 Q1013",
      "taf": "TAF LPPS 220500Z 2206/2312 22008KT 9999 SCT015"
    },
    {
      "icao": "LPPT",
      "alert": "OK",
      "vis_m": 9999,
      "fzfg": false,
      "metar_trigger": false,
      "taf_trigger": false,
      "metar": "METAR LPPT 220700Z VRB02KT 9999 FEW030 13/10 Q1013",
      "taf": "TAF LPPT 220500Z 2206/2312 VRB02KT 9999 SCT030"
    },
    {
      "icao": "LQBK",
      "alert": "OK",
      "vis_m": 9999,
      "fzfg": false,
      "metar_trigger": false,
      "taf_trigger": false,
      "metar": "METAR LQBK 220700Z 32003KT 270V350 9999 SCT025 BKN035 08/04 Q1020 NOSIG",
      "taf": "TAF LQBK 220500Z 2206/2306 33005KT 9999 SCT045 TX15/2214Z TN02/2304Z"
    },
    {
      "icao": "LQSA",
      "alert": "OK",
      "vis_m": 9999,
      "fzfg": false,
      "metar_trigger": false,
      "taf_trigger": false,
      "metar": "METAR LQSA 220700Z 30005KT 280V340 9999 -RA SCT015 BKN035 08/05 Q1018 NOSIG",
      "taf": "TAF LQSA 220500Z 2206/2306 VRB02KT 9999 FEW025 BKN040 TX12/2214Z TN03/2305Z"
    },
    {
      "icao": "LQTZ",
      "alert": "OK",
      "vis_m": 9999,
      "fzfg": false,
      "metar_trigger": false,
      "taf_trigger": false,
      "metar": "METAR LQTZ 220700Z 26005KT 9999 SCT025 BKN060 08/07 Q1019",
      "taf": "TAF LQTZ 220500Z 2206/2306 03005KT 9999 SCT050 TX14/2213Z TN01/2304Z"
    },
    {
      "icao": "LRBC",
      "alert": "OK",
      "vis_m": 9999,
      "fzfg": false,
      "metar_trigger": false,
      "taf_trigger": false,
      "metar": "METAR LRBC 220700Z 21004KT 140V280 9999 FEW035 10/02 Q1016",
      "taf": "TAF LRBC 220500Z 2206/2215 VRB04KT CAVOK"
    },
    {
      "icao": "LRBS",
      "alert": "OK",
      "vis_m": 9999,
      "fzfg": false,
      "metar_trigger": false,
      "taf_trigger": false,
      "metar": "METAR LRBS 220700Z 07006KT 9999 BKN038 09/04 Q1016 NOSIG",
      "taf": "TAF LRBS 220500Z 2206/2306 05006KT 9999 SCT045"
    },
    {
      "icao": "LRBV",
      "alert": "OK",
      "vis_m": 9999,
      "fzfg": false,
      "metar_trigger": false,
      "taf_trigger": false,
      "metar": "METAR LRBV 220700Z VRB03KT 9999 SCT007 OVC019 04/02 Q1016",
      "taf": "TAF LRBV 220500Z 2206/2215 VRB04KT 9999 BKN025"
    },
    {
      "icao": "LRCL",
      "alert": "OK",
      "vis_m": 9999,
      "fzfg": false,
      "metar_trigger": false,
      "taf_trigger": false,
      "metar": "METAR LRCL 220700Z VRB02KT 9999 FEW027 10/M01 Q1017",
      "taf": "TAF LRCL 220500Z 2206/2215 VRB04KT 9999 SCT045"
    },
    {
      "icao": "LRCV",
      "alert": "OK",
      "vis_m": 9999,
      "fzfg": false,
      "metar_trigger": false,
      "taf_trigger": false,
      "metar": "METAR LRCV 220700Z VRB03KT 9999 SCT015 BKN040 09/05 Q1016",
      "taf": "TAF LRCV 220500Z 2206/2215 VRB04KT 9999 SCT040"
    },
    {
      "icao": "LRIA",
      "alert": "OK",
      "vis_m": 9999,
      "fzfg": false,
      "metar_trigger": false,
      "taf_trigger": false,
      "metar": "METAR LRIA 220700Z 34008KT 300V010 9999 FEW021 08/02 Q1016",
      "taf": "TAF LRIA 220500Z 2206/2215 VRB04KT CAVOK"
    },
    {
      "icao": "LROP",
      "alert": "OK",
      "vis_m": 9999,
      "fzfg": false,
      "metar_trigger": false,
      "taf_trigger": false,
      "metar": "METAR LROP 220700Z 10004KT CAVOK 10/01 Q1016 NOSIG",
      "taf": "TAF LROP 220500Z 2206/2306 05006KT 9999 SCT045"
    },
    {
      "icao": "LRSB",
      "alert": "OK",
      "vis_m": 6000,
      "fzfg": false,
      "metar_trigger": false,
      "taf_trigger": false,
      "metar": "METAR LRSB 220700Z 35008KT 6000 -RA SCT005 BKN017 OVC026 06/05 Q1016 NOSIG",
      "taf": "TAF LRSB 220500Z 2206/2306 33007KT 9999 BKN030"
    },
    {
      "icao": "LRSM",
      "alert": "OK",
      "vis_m": 9999,
      "fzfg": false,
      "metar_trigger": false,
      "taf_trigger": false,
      "metar": "METAR LRSM 220700Z 26003KT 180V310 CAVOK 08/02 Q1018",
      "taf": "TAF LRSM 220500Z 2206/2215 VRB04KT CAVOK"
    },
    {
      "icao": "LRSV",
      "alert": "OK",
      "vis_m": 9999,
      "fzfg": false,
      "metar_trigger": false,
      "taf_trigger": false,
      "metar": "METAR LRSV 220700Z 30007KT 9999 FEW030CB 07/M02 Q1015",
      "taf": "TAF LRSV 220500Z 2206/2215 30008KT CAVOK"
    },
    {
      "icao": "LRTM",
      "alert": "OK",
      "vis_m": 9999,
      "fzfg": false,
      "metar_trigger": false,
      "taf_trigger": false,
      "metar": "METAR LRTM 220700Z 36008KT 320V030 9999 FEW025 09/03 Q1016",
      "taf": "TAF LRTM 220500Z 2206/2215 VRB04KT 9999 SCT040"
    },
    {
      "icao": "LRTR",
      "alert": "OK",
      "vis_m": 9999,
      "fzfg": false,
      "metar_trigger": false,
      "taf_trigger": false,
      "metar": "METAR LRTR 220700Z 35011KT CAVOK 09/03 Q1017",
      "taf": "TAF LRTR 220500Z 2206/2306 35006KT CAVOK"
    },
    {
      "icao": "LTAC",
      "alert": "OK",
      "vis_m": 9999,
      "fzfg": false,
      "metar_trigger": false,
      "taf_trigger": false,
      "metar": "METAR LTAC 220650Z 23012KT 9999 SCT040 BKN100 14/06 Q1012 NOSIG RMK RWY21C 23013KT RWY03L 23011KT RWY21R 22015KT RWY03R 22011KT RWY21L 22014KT",
      "taf": "TAF LTAC 220440Z 2206/2306 23012KT 9999 SCT040 BKN100"
    },
    {
      "icao": "LTFM",
      "alert": "OK",
      "vis_m": 8000,
      "fzfg": false,
      "metar_trigger": false,
      "taf_trigger": false,
      "metar": "METAR LTFM 220650Z 05015KT 8000 -RA BKN008 BKN022 10/08 Q1014 NOSIG RMK RWY17L 04013KT RWY34L 04013KT RWY16R 04013KT RWY36 05014KT RWY18 05012KT",
      "taf": "TAF LTFM 220440Z 2206/2312 05014KT 9999 -RA BKN011 BKN022"
    },
    {
      "icao": "LUKK",
      "alert": "OK",
      "vis_m": 9999,
      "fzfg": false,
      "metar_trigger": false,
      "taf_trigger": false,
      "metar": "METAR LUKK 220700Z 02010KT 9999 FEW030 09/M00 Q1015 NOSIG",
      "taf": "TAF LUKK 220508Z 2206/2306 VRB05KT CAVOK"
    },
    {
      "icao": "LWOH",
      "alert": "OK",
      "vis_m": null,
      "fzfg": false,
      "metar_trigger": false,
      "taf_trigger": false,
      "metar": "",
      "taf": "TAF LWOH 220515Z 2206/2306 34010KT 9999 FEW015 BKN035"
    },
    {
      "icao": "LWSK",
      "alert": "OK",
      "vis_m": null,
      "fzfg": false,
      "metar_trigger": false,
      "taf_trigger": false,
      "metar": "",
      "taf": "TAF LWSK 220515Z 2206/2306 VRB02KT 9999 SCT035 OVC070"
    },
    {
      "icao": "LYBE",
      "alert": "OK",
      "vis_m": 9999,
      "fzfg": false,
      "metar_trigger": false,
      "taf_trigger": false,
      "metar": "METAR LYBE 220700Z 34004KT CAVOK 10/06 Q1019 NOSIG",
      "taf": "TAF LYBE 220500Z 2206/2306 29006KT 9999 SCT040 TX15/2213Z TN03/2304Z"
    },
    {
      "icao": "LYNI",
      "alert": "OK",
      "vis_m": 9999,
      "fzfg": false,
      "metar_trigger": false,
      "taf_trigger": false,
      "metar": "METAR LYNI 220700Z 32008KT 290V010 9999 FEW015 SCT040 BKN085 10/07 Q1017 NOSIG",
      "taf": "TAF LYNI 220500Z 2206/2306 32010KT 9999 BKN030 BKN080 TX15/2213Z TN04/2304Z"
    },
    {
      "icao": "LYPG",
      "alert": "OK",
      "vis_m": 9999,
      "fzfg": false,
      "metar_trigger": false,
      "taf_trigger": false,
      "metar": "METAR LYPG 220700Z 04005KT 020V080 9999 FEW030 15/05 Q1014 NOSIG",
      "taf": "TAF LYPG 220500Z 2206/2306 16005KT 9999 FEW040 SCT080 TX18/2213Z TN09/2304Z"
    },
    {
      "icao": "LZIB",
      "alert": "OK",
      "vis_m": 9999,
      "fzfg": false,
      "metar_trigger": false,
      "taf_trigger": false,
      "metar": "METAR LZIB 220700Z 28005KT 220V330 CAVOK 11/M01 Q1021 NOSIG",
      "taf": "TAF LZIB 220515Z 2206/2306 04005KT CAVOK"
    },
    {
      "icao": "LZKZ",
      "alert": "OK",
      "vis_m": 9999,
      "fzfg": false,
      "metar_trigger": false,
      "taf_trigger": false,
      "metar": "METAR LZKZ 220700Z 01013KT CAVOK 10/M04 Q1018 NOSIG",
      "taf": ""
    },
    {
      "icao": "LZTT",
      "alert": "OK",
      "vis_m": 9999,
      "fzfg": false,
      "metar_trigger": false,
      "taf_trigger": false,
      "metar": "METAR LZTT 220700Z VRB03KT 9999 FEW056 07/M05 Q1018 NOSIG",
      "taf": "TAF LZTT 220515Z 2206/2306 27008KT 9999 SCT050"
    },
    {
      "icao": "OEJN",
      "alert": "OK",
      "vis_m": 9999,
      "fzfg": false,
      "metar_trigger": false,
      "taf_trigger": false,
      "metar": "METAR OEJN 220700Z 34011KT CAVOK 29/15 Q1008 NOSIG",
      "taf": "TAF OEJN 220500Z 2206/2312 34015KT 7000 NSC"
    },
    {
      "icao": "OEMA",
      "alert": "OK",
      "vis_m": 9999,
      "fzfg": false,
      "metar_trigger": false,
      "taf_trigger": false,
      "metar": "METAR OEMA 220700Z 07011KT 9999 SCT040 28/13 Q1013 NOSIG",
      "taf": "TAF OEMA 220500Z 2206/2312 26010KT CAVOK"
    },
    {
      "icao": "OJAI",
      "alert": "OK",
      "vis_m": 4000,
      "fzfg": false,
      "metar_trigger": false,
      "taf_trigger": false,
      "metar": "METAR OJAI 220700Z 16004KT 4000 HZ NSC 16/02 Q1017 NOSIG",
      "taf": "TAF OJAI 220431Z 2206/2312 VRB02KT 5000 HZ NSC"
    },
    {
      "icao": "OMAA",
      "alert": "OK",
      "vis_m": null,
      "fzfg": false,
      "metar_trigger": false,
      "taf_trigger": false,
      "metar": "",
      "taf": ""
    },
    {
      "icao": "OMDB",
      "alert": "OK",
      "vis_m": null,
      "fzfg": false,
      "metar_trigger": false,
      "taf_trigger": false,
      "metar": "",
      "taf": ""
    },
    {
      "icao": "UAAA",
      "alert": "OK",
      "vis_m": 9999,
      "fzfg": false,
      "metar_trigger": false,
      "taf_trigger": false,
      "metar": "METAR UAAA 220700Z 36002MPS 9999 SCT100 BKN200 20/11 Q1008 NOSIG",
      "taf": "TAF UAAA 220501Z 2206/2306 02003G08MPS 9999 SCT050CB OVC100 TX23/2209Z TN12/2301Z"
    },
    {
      "icao": "UBBB",
      "alert": "OK",
      "vis_m": 9999,
      "fzfg": false,
      "metar_trigger": false,
      "taf_trigger": false,
      "metar": "METAR UBBB 220700Z 04006KT 9999 FEW030CB BKN030 13/09 Q1012 NOSIG",
      "taf": "TAF UBBB 220504Z 2206/2306 15006KT 9999 BKN020 TX16/2210Z TN10/2300Z"
    },
    {
      "icao": "UDSG",
      "alert": "OK",
      "vis_m": 9999,
      "fzfg": false,
      "metar_trigger": false,
      "taf_trigger": false,
      "metar": "METAR UDSG 220700Z 28002KT 9999 NSC 09/M02 Q1016 NOSIG",
      "taf": "TAF UDSG 220500Z 2206/2306 24006KT 9999 FEW050"
    },
    {
      "icao": "UDYZ",
      "alert": "OK",
      "vis_m": 9999,
      "fzfg": false,
      "metar_trigger": false,
      "taf_trigger": false,
      "metar": "METAR UDYZ 220700Z 17002KT 9999 FEW046 13/06 Q1015 NOSIG",
      "taf": "TAF UDYZ 220500Z 2206/2306 16006KT 9999 FEW040"
    },
    {
      "icao": "UGKO",
      "alert": "OK",
      "vis_m": 9999,
      "fzfg": false,
      "metar_trigger": false,
      "taf_trigger": false,
      "metar": "METAR UGKO 220700Z 10012KT CAVOK 16/07 Q1010 NOSIG",
      "taf": "TAF UGKO 220500Z 2206/2306 26010KT 9999 SCT023 BKN050 TX22/2211Z TN08/2303Z"
    }
  ]
}