{
  "ts_utc": "2026-07-22T14:17:42Z",
  "threshold_m": 150,
  "source": "stations_override.txt (ICAO list) + aviationweather.gov (METAR/TAF raw)",
  "station_count": 159,
  "stations": [
    {
      "icao": "BIKF",
      "alert": "OK",
      "vis_m": 1000,
      "fzfg": false,
      "metar_trigger": false,
      "taf_trigger": false,
      "metar": "METAR BIKF 221400Z 21015KT 1000 R01/P1500U -DZ BR OVC002 11/11 Q1013",
      "taf": "TAF BIKF 221355Z 2215/2315 20020KT 2500 -RADZ BR BKN003 OVC006 TX12/2315Z TN10/2305Z"
    },
    {
      "icao": "BKPR",
      "alert": "OK",
      "vis_m": 9999,
      "fzfg": false,
      "metar_trigger": false,
      "taf_trigger": false,
      "metar": "METAR BKPR 221400Z 33011KT 9999 FEW040 BKN070 23/11 Q1017 NOSIG",
      "taf": "TAF BKPR 221130Z 2212/2312 35008KT 9999 SCT050"
    },
    {
      "icao": "EBCI",
      "alert": "OK",
      "vis_m": 9999,
      "fzfg": false,
      "metar_trigger": false,
      "taf_trigger": false,
      "metar": "METAR EBCI 221350Z 35008KT 290V020 9999 FEW030 BKN045 20/10 Q1024 NOSIG",
      "taf": "TAF EBCI 221105Z 2212/2318 34010KT 9999 SCT020 BKN045"
    },
    {
      "icao": "EDDB",
      "alert": "OK",
      "vis_m": 9999,
      "fzfg": false,
      "metar_trigger": false,
      "taf_trigger": false,
      "metar": "METAR EDDB 221350Z AUTO 27016G26KT 9999 BKN034 BKN044 18/12 Q1016",
      "taf": "TAF EDDB 221100Z 2212/2312 26013KT 9999 BKN025"
    },
    {
      "icao": "EDDH",
      "alert": "OK",
      "vis_m": 9999,
      "fzfg": false,
      "metar_trigger": false,
      "taf_trigger": false,
      "metar": "METAR EDDH 221350Z AUTO 27014G24KT 230V300 9999 SCT017 BKN029 BKN035 18/13 Q1016 TEMPO 4500 -SHRA BKN015TCU",
      "taf": "TAF EDDH 221100Z 2212/2318 27015KT 9999 SCT014 BKN030"
    },
    {
      "icao": "EDDK",
      "alert": "OK",
      "vis_m": 9999,
      "fzfg": false,
      "metar_trigger": false,
      "taf_trigger": false,
      "metar": "METAR EDDK 221350Z AUTO 28011KT 250V320 9999 BKN039 BKN046 20/11 Q1022 NOSIG",
      "taf": "TAF EDDK 221100Z 2212/2318 31012KT 9999 BKN030"
    },
    {
      "icao": "EDDN",
      "alert": "OK",
      "vis_m": 9999,
      "fzfg": false,
      "metar_trigger": false,
      "taf_trigger": false,
      "metar": "METAR EDDN 221350Z AUTO 30012KT 260V350 CAVOK 24/09 Q1019 NOSIG",
      "taf": "TAF EDDN 221100Z 2212/2312 30010KT CAVOK"
    },
    {
      "icao": "EDDS",
      "alert": "OK",
      "vis_m": 9999,
      "fzfg": false,
      "metar_trigger": false,
      "taf_trigger": false,
      "metar": "METAR EDDS 221350Z AUTO 35009KT 310V040 CAVOK 26/06 Q1020 NOSIG",
      "taf": "TAF EDDS 221100Z 2212/2312 32008KT CAVOK"
    },
    {
      "icao": "EDFH",
      "alert": "OK",
      "vis_m": 9999,
      "fzfg": false,
      "metar_trigger": false,
      "taf_trigger": false,
      "metar": "METAR EDFH 221350Z 33009KT 280V360 9999 SCT039 19/09 Q1023",
      "taf": "TAF EDFH 221100Z 2212/2312 32007KT 9999 FEW045"
    },
    {
      "icao": "EDJA",
      "alert": "OK",
      "vis_m": 9999,
      "fzfg": false,
      "metar_trigger": false,
      "taf_trigger": false,
      "metar": "METAR EDJA 221350Z VRB05KT CAVOK 23/06 Q1021",
      "taf": "TAF EDJA 221100Z 2212/2221 28006KT CAVOK"
    },
    {
      "icao": "EDLW",
      "alert": "OK",
      "vis_m": 9999,
      "fzfg": false,
      "metar_trigger": false,
      "taf_trigger": false,
      "metar": "METAR EDLW 221350Z 25008KT 200V290 9999 FEW023 19/12 Q1021",
      "taf": "TAF EDLW 221100Z 2212/2312 28010KT 9999 BKN040"
    },
    {
      "icao": "EDNY",
      "alert": "OK",
      "vis_m": 9999,
      "fzfg": false,
      "metar_trigger": false,
      "taf_trigger": false,
      "metar": "METAR EDNY 221350Z 19007KT CAVOK 25/08 Q1020",
      "taf": "TAF EDNY 221100Z 2212/2221 24005KT CAVOK"
    },
    {
      "icao": "EDSB",
      "alert": "OK",
      "vis_m": 9999,
      "fzfg": false,
      "metar_trigger": false,
      "taf_trigger": false,
      "metar": "METAR EDSB 221350Z AUTO VRB01KT CAVOK 26/08 Q1020",
      "taf": "TAF EDSB 221157Z 2212/2312 32004KT CAVOK"
    },
    {
      "icao": "EETN",
      "alert": "OK",
      "vis_m": 9999,
      "fzfg": false,
      "metar_trigger": false,
      "taf_trigger": false,
      "metar": "METAR EETN 221350Z 29004KT 9999 FEW035 16/08 Q1007 NOSIG",
      "taf": "TAF EETN 221130Z 2212/2312 30008KT 9999 SCT030"
    },
    {
      "icao": "EFTU",
      "alert": "OK",
      "vis_m": 9999,
      "fzfg": false,
      "metar_trigger": false,
      "taf_trigger": false,
      "metar": "METAR EFTU 221350Z AUTO 29007KT 250V340 9999 OVC039 18/09 Q1007",
      "taf": "TAF EFTU 221128Z 2212/2312 32003KT CAVOK"
    },
    {
      "icao": "EGBB",
      "alert": "OK",
      "vis_m": 9999,
      "fzfg": false,
      "metar_trigger": false,
      "taf_trigger": false,
      "metar": "METAR EGBB 221350Z 04004KT 340V120 9999 BKN030 22/13 Q1026",
      "taf": "TAF EGBB 221102Z 2212/2312 05006KT 9999 SCT025"
    },
    {
      "icao": "EGGP",
      "alert": "OK",
      "vis_m": 9999,
      "fzfg": false,
      "metar_trigger": false,
      "taf_trigger": false,
      "metar": "METAR EGGP 221350Z 26010KT 230V290 9999 BKN025 20/13 Q1027",
      "taf": "TAF EGGP 221100Z 2212/2312 31007KT 9999 SCT020"
    },
    {
      "icao": "EGGW",
      "alert": "OK",
      "vis_m": 9999,
      "fzfg": false,
      "metar_trigger": false,
      "taf_trigger": false,
      "metar": "METAR EGGW 221350Z VRB03KT 9999 BKN045 24/12 Q1025",
      "taf": "TAF EGGW 221051Z 2212/2312 03008KT 9999 FEW045"
    },
    {
      "icao": "EGKK",
      "alert": "OK",
      "vis_m": 9999,
      "fzfg": false,
      "metar_trigger": false,
      "taf_trigger": false,
      "metar": "METAR EGKK 221350Z 19004KT 140V250 9999 BKN036 24/15 Q1024",
      "taf": ""
    },
    {
      "icao": "EGNM",
      "alert": "OK",
      "vis_m": 9999,
      "fzfg": false,
      "metar_trigger": false,
      "taf_trigger": false,
      "metar": "METAR EGNM 221350Z VRB04KT 9999 SCT045 21/10 Q1026",
      "taf": "TAF EGNM 221103Z 2212/2312 05005KT 9999 SCT025"
    },
    {
      "icao": "EGPD",
      "alert": "OK",
      "vis_m": 9999,
      "fzfg": false,
      "metar_trigger": false,
      "taf_trigger": false,
      "metar": "METAR EGPD 221350Z AUTO 33013KT 9999 SCT021 BKN028 20/14 Q1025",
      "taf": "TAF EGPD 221101Z 2212/2312 31012KT 9999 BKN020"
    },
    {
      "icao": "EGPF",
      "alert": "OK",
      "vis_m": 9999,
      "fzfg": false,
      "metar_trigger": false,
      "taf_trigger": false,
      "metar": "METAR EGPF 221350Z AUTO 29012KT 9999 NCD 22/14 Q1026",
      "taf": "TAF EGPF 221058Z 2212/2312 31010KT 9999 FEW035"
    },
    {
      "icao": "EHBK",
      "alert": "OK",
      "vis_m": 9999,
      "fzfg": false,
      "metar_trigger": false,
      "taf_trigger": false,
      "metar": "METAR EHBK 221355Z AUTO 31008KT 250V360 9999 OVC033 20/11 Q1023 NOSIG",
      "taf": "TAF EHBK 221100Z 2212/2318 32008KT 9999 SCT018 BKN040"
    },
    {
      "icao": "EHEH",
      "alert": "OK",
      "vis_m": 9999,
      "fzfg": false,
      "metar_trigger": false,
      "taf_trigger": false,
      "metar": "METAR EHEH 221355Z AUTO 32007KT 9999 FEW020 OVC058 19/14 Q1023 BLU TEMPO 4500 -RADZ FEW008 SCT015 BKN025 RMK TREND REMOTE BY EHWX",
      "taf": ""
    },
    {
      "icao": "EKBI",
      "alert": "OK",
      "vis_m": 9999,
      "fzfg": false,
      "metar_trigger": false,
      "taf_trigger": false,
      "metar": "METAR EKBI 221350Z AUTO 31014G24KT 280V340 9999 BKN040/// BKN097/// 21/11 Q1013",
      "taf": "TAF EKBI 221127Z 2212/2312 29012KT 9999 BKN020"
    },
    {
      "icao": "EKCH",
      "alert": "OK",
      "vis_m": 9999,
      "fzfg": false,
      "metar_trigger": false,
      "taf_trigger": false,
      "metar": "METAR EKCH 221350Z AUTO 25011KT 220V280 9999 BKN031/// 20/13 Q1009 TEMPO SCT020CB",
      "taf": "TAF EKCH 221127Z 2212/2312 27012KT 9999 BKN020"
    },
    {
      "icao": "ENAL",
      "alert": "OK",
      "vis_m": 9999,
      "fzfg": false,
      "metar_trigger": false,
      "taf_trigger": false,
      "metar": "METAR ENAL 221350Z 01008KT 9999 FEW015 BKN061 15/10 Q1020",
      "taf": "TAF ENAL 221100Z 2212/2221 VRB04KT 9999 FEW012 SCT035"
    },
    {
      "icao": "ENBR",
      "alert": "OK",
      "vis_m": 9999,
      "fzfg": false,
      "metar_trigger": false,
      "taf_trigger": false,
      "metar": "METAR ENBR 221350Z 32012KT 9999 FEW025 14/09 Q1017 TEMPO 32015GG25KT RMK WIND 1200FT 33030KT",
      "taf": "TAF ENBR 221100Z 2212/2312 33012KT 9999 FEW025"
    },
    {
      "icao": "ENGM",
      "alert": "OK",
      "vis_m": 9999,
      "fzfg": false,
      "metar_trigger": false,
      "taf_trigger": false,
      "metar": "METAR ENGM 221350Z 04017KT CAVOK 20/04 Q1012 NOSIG",
      "taf": "TAF ENGM 221100Z 2212/2312 01015KT CAVOK"
    },
    {
      "icao": "ENHD",
      "alert": "OK",
      "vis_m": 9999,
      "fzfg": false,
      "metar_trigger": false,
      "taf_trigger": false,
      "metar": "METAR ENHD 221350Z 34021KT 9999 FEW014 14/09 Q1018",
      "taf": "TAF ENHD 221100Z 2212/2221 33020KT 9999 FEW010"
    },
    {
      "icao": "ENTC",
      "alert": "OK",
      "vis_m": 9999,
      "fzfg": false,
      "metar_trigger": false,
      "taf_trigger": false,
      "metar": "METAR ENTC 221350Z 31006KT 290V350 9999 -RA FEW021 SCT034 BKN045 11/07 Q1012 NOSIG RMK WIND 2600FT 33019KT",
      "taf": "TAF ENTC 221100Z 2212/2312 35008KT 9999 -RADZ FEW010 SCT015 BKN020"
    },
    {
      "icao": "ENTO",
      "alert": "OK",
      "vis_m": 9999,
      "fzfg": false,
      "metar_trigger": false,
      "taf_trigger": false,
      "metar": "METAR ENTO 221350Z 03009KT 360V070 CAVOK 22/08 Q1011 NOSIG",
      "taf": "TAF ENTO 221100Z 2212/2312 01008KT CAVOK"
    },
    {
      "icao": "ENVA",
      "alert": "OK",
      "vis_m": 9999,
      "fzfg": false,
      "metar_trigger": false,
      "taf_trigger": false,
      "metar": "METAR ENVA 221350Z 30014KT 9999 FEW016 SCT030TCU BKN045 15/10 Q1017 NOSIG RMK WIND 670FT 30021KT",
      "taf": ""
    },
    {
      "icao": "ENZV",
      "alert": "OK",
      "vis_m": 9999,
      "fzfg": false,
      "metar_trigger": false,
      "taf_trigger": false,
      "metar": "METAR ENZV 221350Z 32022KT 9999 SCT025 15/08 Q1017 NOSIG",
      "taf": "TAF ENZV 221100Z 2212/2312 33020KT 9999 FEW030"
    },
    {
      "icao": "EPGD",
      "alert": "OK",
      "vis_m": 9999,
      "fzfg": false,
      "metar_trigger": false,
      "taf_trigger": false,
      "metar": "METAR EPGD 221400Z 26009KT 210V290 9999 FEW044 21/10 Q1012",
      "taf": "TAF EPGD 221130Z 2212/2312 26010KT 9999 SCT030"
    },
    {
      "icao": "EPKK",
      "alert": "OK",
      "vis_m": 9999,
      "fzfg": false,
      "metar_trigger": false,
      "taf_trigger": false,
      "metar": "METAR EPKK 221400Z 27009KT 230V310 CAVOK 22/04 Q1016",
      "taf": "TAF EPKK 221130Z 2212/2312 26008KT 9999 SCT050"
    },
    {
      "icao": "EPKT",
      "alert": "OK",
      "vis_m": 9999,
      "fzfg": false,
      "metar_trigger": false,
      "taf_trigger": false,
      "metar": "METAR EPKT 221400Z 28005KT 220V320 CAVOK 21/06 Q1016",
      "taf": "TAF EPKT 221130Z 2212/2312 28006KT CAVOK"
    },
    {
      "icao": "EPLB",
      "alert": "OK",
      "vis_m": 9999,
      "fzfg": false,
      "metar_trigger": false,
      "taf_trigger": false,
      "metar": "METAR EPLB 221400Z 29010KT CAVOK 22/08 Q1014",
      "taf": "TAF EPLB 221130Z 2212/2312 30012KT CAVOK"
    },
    {
      "icao": "EPMO",
      "alert": "OK",
      "vis_m": 9999,
      "fzfg": false,
      "metar_trigger": false,
      "taf_trigger": false,
      "metar": "METAR EPMO 221400Z 31005KT 290V360 CAVOK 22/10 Q1013",
      "taf": "TAF EPMO 221130Z 2212/2312 27012KT CAVOK"
    },
    {
      "icao": "EPPO",
      "alert": "OK",
      "vis_m": 9999,
      "fzfg": false,
      "metar_trigger": false,
      "taf_trigger": false,
      "metar": "METAR EPPO 221400Z 28013KT 9999 BKN036 20/10 Q1015",
      "taf": "TAF EPPO 221130Z 2212/2312 28012KT 9999 SCT035"
    },
    {
      "icao": "EPRA",
      "alert": "OK",
      "vis_m": 9999,
      "fzfg": false,
      "metar_trigger": false,
      "taf_trigger": false,
      "metar": "METAR EPRA 221400Z 30007KT 250V340 CAVOK 23/06 Q1015",
      "taf": "TAF EPRA 221130Z 2212/2221 30012KT CAVOK"
    },
    {
      "icao": "EPRZ",
      "alert": "OK",
      "vis_m": 9999,
      "fzfg": false,
      "metar_trigger": false,
      "taf_trigger": false,
      "metar": "METAR EPRZ 221400Z 31006KT 240V330 CAVOK 22/04 Q1015",
      "taf": "TAF EPRZ 221130Z 2212/2312 28008KT CAVOK"
    },
    {
      "icao": "EPSC",
      "alert": "OK",
      "vis_m": 9999,
      "fzfg": false,
      "metar_trigger": false,
      "taf_trigger": false,
      "metar": "METAR EPSC 221400Z 22009KT 9999 FEW008 SCT011 BKN014 17/15 Q1013",
      "taf": "TAF EPSC 221130Z 2212/2312 25010KT 9999 BKN025"
    },
    {
      "icao": "EPSY",
      "alert": "OK",
      "vis_m": 9999,
      "fzfg": false,
      "metar_trigger": false,
      "taf_trigger": false,
      "metar": "METAR EPSY 221400Z 27005KT 220V010 CAVOK 21/09 Q1013",
      "taf": "TAF EPSY 221130Z 2212/2221 30010KT 9999 SCT040"
    },
    {
      "icao": "EPWA",
      "alert": "OK",
      "vis_m": 9999,
      "fzfg": false,
      "metar_trigger": false,
      "taf_trigger": false,
      "metar": "METAR EPWA 221400Z 26009KT CAVOK 21/09 Q1014 NOSIG",
      "taf": "TAF EPWA 221130Z 2212/2312 27012KT CAVOK"
    },
    {
      "icao": "EPWR",
      "alert": "OK",
      "vis_m": 9999,
      "fzfg": false,
      "metar_trigger": false,
      "taf_trigger": false,
      "metar": "METAR EPWR 221400Z 29018KT 250V310 9999 FEW050TCU 23/09 Q1016",
      "taf": "TAF EPWR 221130Z 2212/2312 30013KT CAVOK"
    },
    {
      "icao": "ESGG",
      "alert": "OK",
      "vis_m": 9999,
      "fzfg": false,
      "metar_trigger": false,
      "taf_trigger": false,
      "metar": "METAR ESGG 221350Z 02012KT 9999 SHRA FEW025CB SCT047 17/14 Q1010",
      "taf": "TAF ESGG 221130Z 2212/2312 36015KT 9999 SCT020 BKN040"
    },
    {
      "icao": "ESKN",
      "alert": "OK",
      "vis_m": 9999,
      "fzfg": false,
      "metar_trigger": false,
      "taf_trigger": false,
      "metar": "METAR ESKN 221350Z 30009KT 9999 -DZ SCT018 BKN024 17/13 Q1009",
      "taf": ""
    },
    {
      "icao": "ESMS",
      "alert": "OK",
      "vis_m": 9999,
      "fzfg": false,
      "metar_trigger": false,
      "taf_trigger": false,
      "metar": "METAR ESMS 221350Z 26011KT 9999 FEW025 BKN033 19/13 Q1009",
      "taf": "TAF ESMS 221127Z 2212/2312 25010KT 9999 BKN020"
    },
    {
      "icao": "ESSA",
      "alert": "OK",
      "vis_m": 6000,
      "fzfg": false,
      "metar_trigger": false,
      "taf_trigger": false,
      "metar": "METAR ESSA 221350Z 02013KT 6000 SHRA FEW013 BKN046CB 11/09 Q1009 NOSIG",
      "taf": ""
    },
    {
      "icao": "EYKA",
      "alert": "OK",
      "vis_m": 9999,
      "fzfg": false,
      "metar_trigger": false,
      "taf_trigger": false,
      "metar": "METAR EYKA 221350Z 30009KT CAVOK 18/10 Q1011",
      "taf": "TAF EYKA 221122Z 2212/2312 28008KT 9999 SCT040"
    },
    {
      "icao": "EYPA",
      "alert": "OK",
      "vis_m": 9999,
      "fzfg": false,
      "metar_trigger": false,
      "taf_trigger": false,
      "metar": "METAR EYPA 221350Z 27005KT 210V350 9999 BKN015 BKN021 18/14 Q1011",
      "taf": "TAF EYPA 221106Z 2212/2312 25005KT 9999 SCT030"
    },
    {
      "icao": "EYVI",
      "alert": "OK",
      "vis_m": 9999,
      "fzfg": false,
      "metar_trigger": false,
      "taf_trigger": false,
      "metar": "METAR EYVI 221350Z 29009KT 260V330 9999 FEW034 BKN043 18/09 Q1010 NOSIG",
      "taf": "TAF EYVI 221100Z 2212/2312 30010KT 9000 NSC"
    },
    {
      "icao": "GCFV",
      "alert": "OK",
      "vis_m": 9999,
      "fzfg": false,
      "metar_trigger": false,
      "taf_trigger": false,
      "metar": "METAR GCFV 221400Z 05017KT CAVOK 27/20 Q1017",
      "taf": "TAF GCFV 220800Z 2209/2309 04017KT CAVOK TX27/2214Z TN22/2306Z"
    },
    {
      "icao": "GCLP",
      "alert": "OK",
      "vis_m": 9999,
      "fzfg": false,
      "metar_trigger": false,
      "taf_trigger": false,
      "metar": "METAR GCLP 221400Z 02028KT 9999 FEW034 28/19 Q1017 NOSIG",
      "taf": "TAF GCLP 220800Z 2209/2309 01026KT 9999 FEW025 TX29/2214Z TN22/2306Z"
    },
    {
      "icao": "GCTS",
      "alert": "OK",
      "vis_m": 9999,
      "fzfg": false,
      "metar_trigger": false,
      "taf_trigger": false,
      "metar": "METAR GCTS 221400Z 09019KT 9999 FEW025 28/20 Q1018 WS R07 NOSIG",
      "taf": "TAF GCTS 220800Z 2209/2309 06020KT CAVOK TX29/2214Z TN22/2306Z"
    },
    {
      "icao": "GMAD",
      "alert": "OK",
      "vis_m": 8000,
      "fzfg": false,
      "metar_trigger": false,
      "taf_trigger": false,
      "metar": "METAR GMAD 221400Z 25013KT 8000 NSC 29/18 Q1013 NOSIG",
      "taf": "TAF GMAD 221100Z 2212/2318 25004KT 8000 NSC"
    },
    {
      "icao": "GMMN",
      "alert": "OK",
      "vis_m": 9999,
      "fzfg": false,
      "metar_trigger": false,
      "taf_trigger": false,
      "metar": "METAR GMMN 221400Z 01009KT 330V070 CAVOK 31/21 Q1017 NOSIG",
      "taf": "TAF GMMN 221100Z 2212/2318 36013KT CAVOK"
    },
    {
      "icao": "GMMX",
      "alert": "OK",
      "vis_m": 8000,
      "fzfg": false,
      "metar_trigger": false,
      "taf_trigger": false,
      "metar": "METAR GMMX 221400Z VRB05KT 8000 NSC SCT080 41/19 Q1015 NOSIG",
      "taf": "TAF GMMX 221100Z 2212/2318 28006KT 8000 NSC"
    },
    {
      "icao": "HEGN",
      "alert": "OK",
      "vis_m": 9999,
      "fzfg": false,
      "metar_trigger": false,
      "taf_trigger": false,
      "metar": "METAR HEGN 221400Z 03010KT CAVOK 38/12 Q1004 NOSIG",
      "taf": "TAF HEGN 221100Z 2212/2318 01010G20KT CAVOK"
    },
    {
      "icao": "HEMA",
      "alert": "OK",
      "vis_m": 9999,
      "fzfg": false,
      "metar_trigger": false,
      "taf_trigger": false,
      "metar": "METAR HEMA 221400Z 01015KT CAVOK 36/12 Q1004 NOSIG",
      "taf": "TAF HEMA 221100Z 2212/2318 35010G22KT CAVOK"
    },
    {
      "icao": "HESH",
      "alert": "OK",
      "vis_m": 9999,
      "fzfg": false,
      "metar_trigger": false,
      "taf_trigger": false,
      "metar": "METAR HESH 221400Z 35011KT CAVOK 40/12 Q1004 NOSIG",
      "taf": "TAF HESH 221100Z 2212/2318 02016KT CAVOK"
    },
    {
      "icao": "HESX",
      "alert": "OK",
      "vis_m": 9999,
      "fzfg": false,
      "metar_trigger": false,
      "taf_trigger": false,
      "metar": "METAR HESX 221400Z 32015KT CAVOK 39/16 Q1007 NOSIG",
      "taf": "TAF HESX 221100Z 2212/2318 30010KT CAVOK"
    },
    {
      "icao": "LATI",
      "alert": "OK",
      "vis_m": null,
      "fzfg": false,
      "metar_trigger": false,
      "taf_trigger": false,
      "metar": "",
      "taf": "TAF LATI 221100Z 2212/2312 32012KT CAVOK TX32/2212Z TN21/2304Z"
    },
    {
      "icao": "LBPD",
      "alert": "OK",
      "vis_m": 9999,
      "fzfg": false,
      "metar_trigger": false,
      "taf_trigger": false,
      "metar": "METAR LBPD 221400Z AUTO 30025KT 9999 NCD 30/14 Q1010 NOSIG",
      "taf": "TAF LBPD 221100Z 2212/2312 30014KT 9999 SCT040 BKN050"
    },
    {
      "icao": "LBSF",
      "alert": "OK",
      "vis_m": 9999,
      "fzfg": false,
      "metar_trigger": false,
      "taf_trigger": false,
      "metar": "METAR LBSF 221400Z 28019G29KT 9999 SCT050 24/11 Q1015 NOSIG",
      "taf": "TAF LBSF 221100Z 2212/2312 31012KT 9999 SCT040"
    },
    {
      "icao": "LBWN",
      "alert": "OK",
      "vis_m": 9999,
      "fzfg": false,
      "metar_trigger": false,
      "taf_trigger": false,
      "metar": "METAR LBWN 221400Z AUTO 34005KT 300V020 9999 NSC 20/20 Q1010 NOSIG",
      "taf": "TAF LBWN 221100Z 2212/2312 32014KT 9999 SCT020 BKN040"
    },
    {
      "icao": "LCLK",
      "alert": "OK",
      "vis_m": 9999,
      "fzfg": false,
      "metar_trigger": false,
      "taf_trigger": false,
      "metar": "METAR LCLK 221400Z 21018KT CAVOK 36/24 Q1004 NOSIG",
      "taf": "TAF LCLK 221130Z 2212/2312 21015KT 9999 FEW035"
    },
    {
      "icao": "LCPH",
      "alert": "OK",
      "vis_m": 9999,
      "fzfg": false,
      "metar_trigger": false,
      "taf_trigger": false,
      "metar": "METAR LCPH 221400Z 30006KT 250V330 9999 FEW025 32/25 Q1005 NOSIG",
      "taf": "TAF LCPH 221130Z 2212/2312 29012KT 9999 FEW030"
    },
    {
      "icao": "LEAL",
      "alert": "OK",
      "vis_m": 9999,
      "fzfg": false,
      "metar_trigger": false,
      "taf_trigger": false,
      "metar": "METAR LEAL 221400Z 10006KT 060V150 CAVOK 33/26 Q1016 NOSIG",
      "taf": "TAF LEAL 221100Z 2212/2312 VRB04KT 9999 SCT020 TX34/2213Z TN25/2305Z"
    },
    {
      "icao": "LEBB",
      "alert": "OK",
      "vis_m": 9999,
      "fzfg": false,
      "metar_trigger": false,
      "taf_trigger": false,
      "metar": "METAR LEBB 221400Z 02010KT 330V070 CAVOK 32/13 Q1017 NOSIG",
      "taf": "TAF LEBB 221100Z 2212/2312 07008KT CAVOK TX30/2212Z TN18/2305Z"
    },
    {
      "icao": "LEBL",
      "alert": "OK",
      "vis_m": 9999,
      "fzfg": false,
      "metar_trigger": false,
      "taf_trigger": false,
      "metar": "METAR LEBL 221400Z 12008KT 080V200 CAVOK 29/17 Q1017 NOSIG",
      "taf": "TAF LEBL 221100Z 2212/2312 10009KT 9999 FEW020 TX31/2213Z TN24/2306Z"
    },
    {
      "icao": "LECH",
      "alert": "OK",
      "vis_m": 9999,
      "fzfg": false,
      "metar_trigger": false,
      "taf_trigger": false,
      "metar": "METAR LECH 221400Z AUTO 10010KT 070V150 CAVOK 28/21 Q1019",
      "taf": "TAF LECH 221100Z 2212/2312 12009KT CAVOK TX34/2214Z TN22/2305Z"
    },
    {
      "icao": "LEMD",
      "alert": "OK",
      "vis_m": 9999,
      "fzfg": false,
      "metar_trigger": false,
      "taf_trigger": false,
      "metar": "METAR LEMD 221400Z 25011KT CAVOK 38/05 Q1018 NOSIG",
      "taf": "TAF LEMD 221100Z 2212/2318 23010KT CAVOK TX39/2216Z TN22/2305Z"
    },
    {
      "icao": "LEMG",
      "alert": "OK",
      "vis_m": 9999,
      "fzfg": false,
      "metar_trigger": false,
      "taf_trigger": false,
      "metar": "METAR LEMG 221400Z 12008KT CAVOK 30/17 Q1016 NOSIG",
      "taf": "TAF LEMG 221100Z 2212/2312 13010KT CAVOK TX36/2214Z TN22/2305Z"
    },
    {
      "icao": "LEVC",
      "alert": "OK",
      "vis_m": 9999,
      "fzfg": false,
      "metar_trigger": false,
      "taf_trigger": false,
      "metar": "METAR LEVC 221400Z 07010KT 050V110 CAVOK 32/23 Q1016 NOSIG",
      "taf": "TAF LEVC 221100Z 2212/2312 09010KT 9999 FEW020 TX33/2213Z TN24/2305Z"
    },
    {
      "icao": "LEXJ",
      "alert": "OK",
      "vis_m": 9999,
      "fzfg": false,
      "metar_trigger": false,
      "taf_trigger": false,
      "metar": "METAR LEXJ 221400Z 06009G19KT CAVOK 25/17 Q1018",
      "taf": "TAF LEXJ 220800Z 2209/2309 06009KT CAVOK TX29/2212Z TN18/2306Z"
    },
    {
      "icao": "LEZG",
      "alert": "OK",
      "vis_m": 9999,
      "fzfg": false,
      "metar_trigger": false,
      "taf_trigger": false,
      "metar": "METAR LEZG 221400Z 08007KT 050V120 CAVOK 37/13 Q1015 NOSIG",
      "taf": "TAF LEZG 221100Z 2212/2312 11009KT CAVOK TX40/2215Z TN24/2305Z"
    },
    {
      "icao": "LEZL",
      "alert": "OK",
      "vis_m": 9999,
      "fzfg": false,
      "metar_trigger": false,
      "taf_trigger": false,
      "metar": "METAR LEZL 221400Z 23004KT CAVOK 37/10 Q1015 NOSIG",
      "taf": "TAF LEZL 220800Z 2209/2309 22008KT CAVOK TX40/2215Z TN22/2305Z"
    },
    {
      "icao": "LFBD",
      "alert": "OK",
      "vis_m": 9999,
      "fzfg": false,
      "metar_trigger": false,
      "taf_trigger": false,
      "metar": "METAR LFBD 221400Z AUTO 05010KT 360V170 CAVOK 33/04 Q1018 NOSIG",
      "taf": "TAF LFBD 221100Z 2212/2318 07010KT CAVOK TX35/2215Z TN20/2306Z"
    },
    {
      "icao": "LFLL",
      "alert": "OK",
      "vis_m": 9999,
      "fzfg": false,
      "metar_trigger": false,
      "taf_trigger": false,
      "metar": "METAR LFLL 221400Z 35010KT 330V040 CAVOK 28/04 Q1019 NOSIG",
      "taf": "TAF LFLL 221100Z 2212/2318 36008KT CAVOK"
    },
    {
      "icao": "LFLS",
      "alert": "OK",
      "vis_m": 9999,
      "fzfg": false,
      "metar_trigger": false,
      "taf_trigger": false,
      "metar": "METAR LFLS 221400Z AUTO 32008KT 290V360 CAVOK 28/06 Q1020 NOSIG",
      "taf": "TAF LFLS 220800Z 2209/2309 36008KT CAVOK"
    },
    {
      "icao": "LFMN",
      "alert": "OK",
      "vis_m": 9999,
      "fzfg": false,
      "metar_trigger": false,
      "taf_trigger": false,
      "metar": "METAR LFMN 221400Z 14008KT CAVOK 30/19 Q1016 NOSIG",
      "taf": "TAF LFMN 220800Z 2209/2315 16008KT 9999 FEW040"
    },
    {
      "icao": "LFOB",
      "alert": "OK",
      "vis_m": 9999,
      "fzfg": false,
      "metar_trigger": false,
      "taf_trigger": false,
      "metar": "METAR LFOB 221400Z AUTO 01013KT 340V060 CAVOK 25/10 Q1024 NOSIG",
      "taf": "TAF LFOB 221100Z 2212/2312 03010KT CAVOK"
    },
    {
      "icao": "LFPO",
      "alert": "OK",
      "vis_m": 9999,
      "fzfg": false,
      "metar_trigger": false,
      "taf_trigger": false,
      "metar": "METAR LFPO 221400Z 02010KT 310V060 CAVOK 25/11 Q1023 NOSIG",
      "taf": "TAF LFPO 221100Z 2212/2318 02008KT CAVOK"
    },
    {
      "icao": "LFSB",
      "alert": "OK",
      "vis_m": 9999,
      "fzfg": false,
      "metar_trigger": false,
      "taf_trigger": false,
      "metar": "METAR LFSB 221400Z AUTO VRB07KT CAVOK 28/04 Q1020 NOSIG",
      "taf": "TAF LFSB 221100Z 2212/2312 01007KT CAVOK"
    },
    {
      "icao": "LGAV",
      "alert": "OK",
      "vis_m": 9999,
      "fzfg": false,
      "metar_trigger": false,
      "taf_trigger": false,
      "metar": "METAR LGAV 221350Z 22010KT 190V250 CAVOK 35/16 Q1008 NOSIG",
      "taf": "TAF LGAV 221100Z 2212/2312 14010KT 9999 FEW025"
    },
    {
      "icao": "LGTS",
      "alert": "OK",
      "vis_m": 9999,
      "fzfg": false,
      "metar_trigger": false,
      "taf_trigger": false,
      "metar": "METAR LGTS 221350Z 28008KT 9999 FEW020 35/20 Q1007 NOSIG",
      "taf": "TAF LGTS 221100Z 2212/2312 VRB03KT 9999 FEW030"
    },
    {
      "icao": "LHBP",
      "alert": "OK",
      "vis_m": 9999,
      "fzfg": false,
      "metar_trigger": false,
      "taf_trigger": false,
      "metar": "METAR LHBP 221400Z 33009G19KT 300V360 CAVOK 26/05 Q1016 NOSIG",
      "taf": "TAF LHBP 221115Z 2212/2312 33012KT CAVOK"
    },
    {
      "icao": "LHDC",
      "alert": "OK",
      "vis_m": 9999,
      "fzfg": false,
      "metar_trigger": false,
      "taf_trigger": false,
      "metar": "METAR LHDC 221345Z AUTO 33006KT 250V050 CAVOK 25/07 Q1015 NOSIG",
      "taf": "TAF LHDC 221115Z 2212/2221 02012G22KT CAVOK"
    },
    {
      "icao": "LIBD",
      "alert": "OK",
      "vis_m": 9999,
      "fzfg": false,
      "metar_trigger": false,
      "taf_trigger": false,
      "metar": "METAR LIBD 221350Z 36012KT 320V030 CAVOK 28/19 Q1015",
      "taf": "TAF LIBD 221100Z 2212/2312 35014KT 9999 FEW030"
    },
    {
      "icao": "LIBG",
      "alert": "OK",
      "vis_m": 9999,
      "fzfg": false,
      "metar_trigger": false,
      "taf_trigger": false,
      "metar": "METAR LIBG 221350Z AUTO 35014KT 330V030 9999 NCD 31/17 Q1013",
      "taf": "TAF LIBG 221100Z 2212/2312 02015KT CAVOK"
    },
    {
      "icao": "LIBP",
      "alert": "OK",
      "vis_m": 9999,
      "fzfg": false,
      "metar_trigger": false,
      "taf_trigger": false,
      "metar": "METAR LIBP 221350Z AUTO 07006KT 030V130 9999 BKN070/// 27/17 Q1017",
      "taf": "TAF LIBP 221100Z 2212/2312 05010KT 9999 SCT040"
    },
    {
      "icao": "LIBR",
      "alert": "OK",
      "vis_m": 9999,
      "fzfg": false,
      "metar_trigger": false,
      "taf_trigger": false,
      "metar": "METAR LIBR 221350Z 33017KT CAVOK 28/19 Q1014",
      "taf": "TAF LIBR 221100Z 2212/2312 35016KT 9999 FEW030"
    },
    {
      "icao": "LICA",
      "alert": "OK",
      "vis_m": 9999,
      "fzfg": false,
      "metar_trigger": false,
      "taf_trigger": false,
      "metar": "METAR LICA 221350Z AUTO 22009KT 9999 FEW015/// 32/27 Q1013",
      "taf": "TAF LICA 221100Z 2212/2312 28010KT CAVOK"
    },
    {
      "icao": "LICC",
      "alert": "OK",
      "vis_m": 9000,
      "fzfg": false,
      "metar_trigger": false,
      "taf_trigger": false,
      "metar": "METAR LICC 221350Z 06014KT 9000 NSC 31/19 Q1012",
      "taf": "TAF LICC 221100Z 2212/2312 07015KT 9999 FEW020"
    },
    {
      "icao": "LICJ",
      "alert": "OK",
      "vis_m": 9999,
      "fzfg": false,
      "metar_trigger": false,
      "taf_trigger": false,
      "metar": "METAR LICJ 221350Z 25004KT 220V290 CAVOK 31/26 Q1015",
      "taf": "TAF LICJ 221100Z 2212/2312 28012KT CAVOK"
    },
    {
      "icao": "LIMC",
      "alert": "OK",
      "vis_m": 9999,
      "fzfg": false,
      "metar_trigger": false,
      "taf_trigger": false,
      "metar": "METAR LIMC 221350Z VRB04KT 9999 SCT065 28/13 Q1017 NOSIG",
      "taf": "TAF LIMC 221100Z 2212/2318 VRB05KT 9999 FEW050"
    },
    {
      "icao": "LIME",
      "alert": "OK",
      "vis_m": 9999,
      "fzfg": false,
      "metar_trigger": false,
      "taf_trigger": false,
      "metar": "METAR LIME 221350Z 19004KT 140V270 9999 SCT055 27/14 Q1017 NOSIG",
      "taf": "TAF LIME 221100Z 2212/2312 VRB05KT 9999 SCT040"
    },
    {
      "icao": "LIMF",
      "alert": "OK",
      "vis_m": 9999,
      "fzfg": false,
      "metar_trigger": false,
      "taf_trigger": false,
      "metar": "METAR LIMF 221350Z 13005KT 060V170 9999 FEW050 30/13 Q1017",
      "taf": "TAF LIMF 221100Z 2212/2312 05010KT 9999 SCT030"
    },
    {
      "icao": "LIMJ",
      "alert": "OK",
      "vis_m": 9999,
      "fzfg": false,
      "metar_trigger": false,
      "taf_trigger": false,
      "metar": "METAR LIMJ 221350Z AUTO 03010KT 350V070 9999 NCD 33/11 Q1014",
      "taf": ""
    },
    {
      "icao": "LIPE",
      "alert": "OK",
      "vis_m": 9999,
      "fzfg": false,
      "metar_trigger": false,
      "taf_trigger": false,
      "metar": "METAR LIPE 221350Z 06007KT 360V130 9999 FEW050 29/16 Q1016",
      "taf": "TAF LIPE 221100Z 2212/2312 10010KT 9999 FEW040"
    },
    {
      "icao": "LIPH",
      "alert": "OK",
      "vis_m": 9999,
      "fzfg": false,
      "metar_trigger": false,
      "taf_trigger": false,
      "metar": "METAR LIPH 221350Z 19005KT 140V230 9999 FEW030 29/10 Q1017",
      "taf": "TAF LIPH 221100Z 2212/2312 18010KT CAVOK"
    },
    {
      "icao": "LIPQ",
      "alert": "OK",
      "vis_m": 9999,
      "fzfg": false,
      "metar_trigger": false,
      "taf_trigger": false,
      "metar": "METAR LIPQ 221350Z AUTO 22007KT 160V260 9999 SCT090/// 29/08 Q1016",
      "taf": "TAF LIPQ 221100Z 2212/2312 24010KT CAVOK"
    },
    {
      "icao": "LIPR",
      "alert": "OK",
      "vis_m": 9999,
      "fzfg": false,
      "metar_trigger": false,
      "taf_trigger": false,
      "metar": "METAR LIPR 221350Z 07007KT 030V110 CAVOK 27/18 Q1017",
      "taf": "TAF LIPR 221100Z 2212/2312 07010KT 9999 SCT040"
    },
    {
      "icao": "LIPX",
      "alert": "OK",
      "vis_m": 9999,
      "fzfg": false,
      "metar_trigger": false,
      "taf_trigger": false,
      "metar": "METAR LIPX 221350Z AUTO VRB03KT 9999 SCT065/// 28/13 Q1017",
      "taf": ""
    },
    {
      "icao": "LIPY",
      "alert": "OK",
      "vis_m": 9999,
      "fzfg": false,
      "metar_trigger": false,
      "taf_trigger": false,
      "metar": "METAR LIPY 221350Z AUTO 04009KT 010V080 9999 NCD 28/15 Q1017",
      "taf": "TAF LIPY 221100Z 2212/2312 05010KT 9999 SCT040"
    },
    {
      "icao": "LIPZ",
      "alert": "OK",
      "vis_m": 9999,
      "fzfg": false,
      "metar_trigger": false,
      "taf_trigger": false,
      "metar": "METAR LIPZ 221350Z 15007KT 120V180 CAVOK 28/09 Q1017 NOSIG",
      "taf": "TAF LIPZ 221100Z 2212/2318 15010KT CAVOK"
    },
    {
      "icao": "LIRF",
      "alert": "OK",
      "vis_m": 9999,
      "fzfg": false,
      "metar_trigger": false,
      "taf_trigger": false,
      "metar": "METAR LIRF 221350Z 28015KT CAVOK 32/21 Q1013 NOSIG",
      "taf": "TAF LIRF 221100Z 2212/2318 29015KT 9999 FEW030"
    },
    {
      "icao": "LIRN",
      "alert": "OK",
      "vis_m": 9999,
      "fzfg": false,
      "metar_trigger": false,
      "taf_trigger": false,
      "metar": "METAR LIRN 221350Z 35004KT CAVOK 36/10 Q1013 NOSIG",
      "taf": "TAF LIRN 221100Z 2212/2312 23013KT CAVOK"
    },
    {
      "icao": "LIRP",
      "alert": "OK",
      "vis_m": 9999,
      "fzfg": false,
      "metar_trigger": false,
      "taf_trigger": false,
      "metar": "METAR LIRP 221345Z 35005KT CAVOK 33/14 Q1014 NOSIG",
      "taf": "TAF LIRP 221100Z 2212/2312 29010KT CAVOK"
    },
    {
      "icao": "LIRZ",
      "alert": "OK",
      "vis_m": 9999,
      "fzfg": false,
      "metar_trigger": false,
      "taf_trigger": false,
      "metar": "METAR LIRZ 221350Z AUTO 02013KT 9999 NCD 31/14 Q1015",
      "taf": "TAF LIRZ 221100Z 2212/2312 04014KT 9999 SCT040"
    },
    {
      "icao": "LJLJ",
      "alert": "OK",
      "vis_m": 9999,
      "fzfg": false,
      "metar_trigger": false,
      "taf_trigger": false,
      "metar": "METAR LJLJ 221400Z 10005KT 030V160 9999 FEW080 25/05 Q1018 NOSIG",
      "taf": "TAF LJLJ 221100Z 2212/2312 12006KT 9999 FEW060 SCT090"
    },
    {
      "icao": "LKMT",
      "alert": "OK",
      "vis_m": 9999,
      "fzfg": false,
      "metar_trigger": false,
      "taf_trigger": false,
      "metar": "METAR LKMT 221400Z 21007KT 160V230 CAVOK 22/04 Q1017 NOSIG",
      "taf": "TAF LKMT 221100Z 2212/2312 36006KT CAVOK"
    },
    {
      "icao": "LKPR",
      "alert": "OK",
      "vis_m": 9999,
      "fzfg": false,
      "metar_trigger": false,
      "taf_trigger": false,
      "metar": "METAR LKPR 221400Z 29013KT 260V320 CAVOK 23/08 Q1018 NOSIG",
      "taf": "TAF LKPR 221100Z 2212/2318 28012KT CAVOK"
    },
    {
      "icao": "LLBG",
      "alert": "OK",
      "vis_m": 9999,
      "fzfg": false,
      "metar_trigger": false,
      "taf_trigger": false,
      "metar": "METAR LLBG 221350Z 26008KT 250V310 9999 FEW018 32/23 Q1006 NOSIG",
      "taf": "TAF LLBG 221102Z 2212/2312 28010KT CAVOK TX33/2212Z TN25/2303Z"
    },
    {
      "icao": "LMML",
      "alert": "OK",
      "vis_m": 9999,
      "fzfg": false,
      "metar_trigger": false,
      "taf_trigger": false,
      "metar": "METAR LMML 221415Z 28018KT CAVOK 41/13 Q1013 NOSIG",
      "taf": "TAF LMML 221100Z 2212/2312 29015KT CAVOK"
    },
    {
      "icao": "LOWW",
      "alert": "OK",
      "vis_m": 9999,
      "fzfg": false,
      "metar_trigger": false,
      "taf_trigger": false,
      "metar": "METAR LOWW 221350Z 28010KT 240V300 CAVOK 25/05 Q1018 NOSIG",
      "taf": "TAF LOWW 221415Z 2215/2321 31010KT 9999 FEW050 TX25/2215Z TN15/2303Z"
    },
    {
      "icao": "LPFR",
      "alert": "OK",
      "vis_m": 9999,
      "fzfg": false,
      "metar_trigger": false,
      "taf_trigger": false,
      "metar": "METAR LPFR 221400Z 25009KT CAVOK 26/17 Q1017",
      "taf": "TAF LPFR 221030Z 2212/2312 18010KT CAVOK"
    },
    {
      "icao": "LPMA",
      "alert": "OK",
      "vis_m": 9999,
      "fzfg": false,
      "metar_trigger": false,
      "taf_trigger": false,
      "metar": "METAR LPMA 221400Z 04016KT 9999 FEW016 25/17 Q1022",
      "taf": "TAF LPMA 221030Z 2212/2312 02012KT 9999 SCT015"
    },
    {
      "icao": "LPPR",
      "alert": "OK",
      "vis_m": 9999,
      "fzfg": false,
      "metar_trigger": false,
      "taf_trigger": false,
      "metar": "METAR LPPR 221400Z 24007KT 210V300 9999 FEW018 24/18 Q1018",
      "taf": "TAF LPPR 221030Z 2212/2312 26010KT 9999 SCT020"
    },
    {
      "icao": "LPPS",
      "alert": "OK",
      "vis_m": 9999,
      "fzfg": false,
      "metar_trigger": false,
      "taf_trigger": false,
      "metar": "METAR LPPS 221400Z 02013KT 350V050 9999 SCT015 24/18 Q1022",
      "taf": "TAF LPPS 221030Z 2212/2318 02010KT 9999 SCT015"
    },
    {
      "icao": "LPPT",
      "alert": "OK",
      "vis_m": 9999,
      "fzfg": false,
      "metar_trigger": false,
      "taf_trigger": false,
      "metar": "METAR LPPT 221400Z 31007KT 280V340 9999 FEW045 28/15 Q1018 NOSIG",
      "taf": "TAF LPPT 221030Z 2212/2318 VRB05KT 9999 FEW030"
    },
    {
      "icao": "LQBK",
      "alert": "OK",
      "vis_m": 9999,
      "fzfg": false,
      "metar_trigger": false,
      "taf_trigger": false,
      "metar": "METAR LQBK 221400Z 30007KT 240V010 9999 SCT047 26/07 Q1018 NOSIG",
      "taf": "TAF LQBK 221100Z 2212/2312 29005KT CAVOK TX26/2312Z TN12/2303Z"
    },
    {
      "icao": "LQSA",
      "alert": "OK",
      "vis_m": 9999,
      "fzfg": false,
      "metar_trigger": false,
      "taf_trigger": false,
      "metar": "METAR LQSA 221400Z 36006KT 320V060 9999 SCT065 21/09 Q1018 NOSIG",
      "taf": "TAF LQSA 221100Z 2212/2312 30005KT 9999 SCT060 TX23/2213Z TN11/2304Z"
    },
    {
      "icao": "LQTZ",
      "alert": "OK",
      "vis_m": 9999,
      "fzfg": false,
      "metar_trigger": false,
      "taf_trigger": false,
      "metar": "METAR LQTZ 221400Z 26007KT 230V300 9999 FEW060 24/10 Q1018",
      "taf": "TAF LQTZ 221100Z 2212/2312 24005KT 9999 SCT045 TX24/2214Z TN10/2303Z"
    },
    {
      "icao": "LRBC",
      "alert": "OK",
      "vis_m": 9999,
      "fzfg": false,
      "metar_trigger": false,
      "taf_trigger": false,
      "metar": "METAR LRBC 221400Z 32006KT 9999 FEW035 BKN067 17/15 Q1015",
      "taf": "TAF LRBC 221100Z 2212/2221 32008KT CAVOK"
    },
    {
      "icao": "LRBS",
      "alert": "OK",
      "vis_m": 7000,
      "fzfg": false,
      "metar_trigger": false,
      "taf_trigger": false,
      "metar": "METAR LRBS 221400Z 01004KT 340V050 7000 -RA FEW003 SCT015 BKN033 17/16 Q1013 NOSIG",
      "taf": "TAF LRBS 221100Z 2212/2312 05010KT 9999 BKN010 OVC025"
    },
    {
      "icao": "LRBV",
      "alert": "OK",
      "vis_m": 8000,
      "fzfg": false,
      "metar_trigger": false,
      "taf_trigger": false,
      "metar": "METAR LRBV 221400Z 28008KT 250V310 8000 3500W -SHRA SCT009 SCT029CB OVC036 15/14 Q1015",
      "taf": "TAF LRBV 221100Z 2212/2221 VRB04KT 9999 SCT025 BKN070"
    },
    {
      "icao": "LRCL",
      "alert": "OK",
      "vis_m": 9999,
      "fzfg": false,
      "metar_trigger": false,
      "taf_trigger": false,
      "metar": "METAR LRCL 221400Z VRB04KT 9999 -SHRA FEW020 SCT040CB BKN056 20/12 Q1014",
      "taf": "TAF LRCL 221100Z 2212/2221 VRB04KT 9999 SCT050"
    },
    {
      "icao": "LRCV",
      "alert": "OK",
      "vis_m": 9999,
      "fzfg": false,
      "metar_trigger": false,
      "taf_trigger": false,
      "metar": "METAR LRCV 221400Z VRB02KT 9999 FEW010 SCT012 21/17 Q1015",
      "taf": "TAF LRCV 221100Z 2212/2221 09007KT 9999 SCT015 SCT030CB"
    },
    {
      "icao": "LRIA",
      "alert": "OK",
      "vis_m": 9999,
      "fzfg": false,
      "metar_trigger": false,
      "taf_trigger": false,
      "metar": "METAR LRIA 221400Z 31007KT CAVOK 21/11 Q1014",
      "taf": "TAF LRIA 221100Z 2212/2221 33008KT CAVOK"
    },
    {
      "icao": "LROP",
      "alert": "OK",
      "vis_m": 5000,
      "fzfg": false,
      "metar_trigger": false,
      "taf_trigger": false,
      "metar": "METAR LROP 221400Z VRB02KT 5000 -RA BR SCT006 SCT010 OVC028 17/16 Q1013 BECMG 9999 NSW",
      "taf": "TAF LROP 221100Z 2212/2312 05010KT 9999 BKN010 OVC025"
    },
    {
      "icao": "LRSB",
      "alert": "OK",
      "vis_m": 9999,
      "fzfg": false,
      "metar_trigger": false,
      "taf_trigger": false,
      "metar": "METAR LRSB 221400Z 14004KT 100V160 9999 FEW025 SCT035 OVC070 17/15 Q1016 NOSIG",
      "taf": "TAF LRSB 221100Z 2212/2312 VRB04KT 9999 SCT035 BKN060"
    },
    {
      "icao": "LRSM",
      "alert": "OK",
      "vis_m": 9999,
      "fzfg": false,
      "metar_trigger": false,
      "taf_trigger": false,
      "metar": "METAR LRSM 221400Z 33010KT 280V360 CAVOK 26/06 Q1014",
      "taf": "TAF LRSM 221100Z 2212/2221 36010KT CAVOK"
    },
    {
      "icao": "LRSV",
      "alert": "OK",
      "vis_m": 9999,
      "fzfg": false,
      "metar_trigger": false,
      "taf_trigger": false,
      "metar": "METAR LRSV 221400Z 33007KT 290V010 9999 SCT032 19/12 Q1015",
      "taf": "TAF LRSV 221100Z 2212/2221 33008KT 9999 BKN025"
    },
    {
      "icao": "LRTM",
      "alert": "OK",
      "vis_m": 9999,
      "fzfg": false,
      "metar_trigger": false,
      "taf_trigger": false,
      "metar": "METAR LRTM 221400Z VRB02KT 9999 SCT045 18/14 Q1015",
      "taf": "TAF LRTM 221100Z 2212/2221 VRB04KT 9999 SCT045"
    },
    {
      "icao": "LRTR",
      "alert": "OK",
      "vis_m": 9999,
      "fzfg": false,
      "metar_trigger": false,
      "taf_trigger": false,
      "metar": "METAR LRTR 221400Z 35012KT 9999 FEW040CB 22/11 Q1016",
      "taf": "TAF LRTR 221100Z 2212/2312 30008KT 9999 SCT045"
    },
    {
      "icao": "LTAC",
      "alert": "OK",
      "vis_m": 9999,
      "fzfg": false,
      "metar_trigger": false,
      "taf_trigger": false,
      "metar": "METAR LTAC 221350Z 28006KT 220V340 9999 FEW040 31/06 Q1012 NOSIG RMK RWY21C VRB06KT RWY03L 24006KT 200V280 RWY21R 23007KT 150V290 RWY03R 23010KT RWY21L 22013KT 150V250",
      "taf": "TAF LTAC 221040Z 2212/2312 VRB02KT 9999 FEW040"
    },
    {
      "icao": "LTFM",
      "alert": "OK",
      "vis_m": 9999,
      "fzfg": false,
      "metar_trigger": false,
      "taf_trigger": false,
      "metar": "METAR LTFM 221350Z 23012G22KT 200V260 9999 FEW028 34/13 Q1007 BECMG TL1450 08014KT RMK RWY17L 10008KT 050V150 RWY34L 21010KT 170V250 RWY16R 24009KT 190V260 RWY36 23009KT 180V260 RWY18 10008KT 060V140",
      "taf": "TAF LTFM 221040Z 2212/2318 08014KT CAVOK"
    },
    {
      "icao": "LUKK",
      "alert": "OK",
      "vis_m": 9999,
      "fzfg": false,
      "metar_trigger": false,
      "taf_trigger": false,
      "metar": "METAR LUKK 221400Z 01006KT 9999 -SHRA SCT049CB 23/13 Q1013 TEMPO SCT045CB",
      "taf": "TAF LUKK 221056Z 2212/2312 01008KT CAVOK"
    },
    {
      "icao": "LWOH",
      "alert": "OK",
      "vis_m": 9999,
      "fzfg": false,
      "metar_trigger": false,
      "taf_trigger": false,
      "metar": "METAR LWOH 221350Z 31009KT 280V360 9999 SCT040 29/16 Q1014",
      "taf": "TAF LWOH 221130Z 2212/2312 17008KT 9999 SCT040"
    },
    {
      "icao": "LWSK",
      "alert": "OK",
      "vis_m": 9999,
      "fzfg": false,
      "metar_trigger": false,
      "taf_trigger": false,
      "metar": "METAR LWSK 221350Z 36018G30KT 340V040 9999 SCT050 25/12 Q1014 NOSIG",
      "taf": ""
    },
    {
      "icao": "LYBE",
      "alert": "OK",
      "vis_m": 9999,
      "fzfg": false,
      "metar_trigger": false,
      "taf_trigger": false,
      "metar": "METAR LYBE 221400Z 31013KT 290V350 CAVOK 26/08 Q1016 NOSIG",
      "taf": "TAF LYBE 221100Z 2212/2312 33013KT CAVOK TX26/2214Z TN13/2303Z"
    },
    {
      "icao": "LYNI",
      "alert": "OK",
      "vis_m": 9999,
      "fzfg": false,
      "metar_trigger": false,
      "taf_trigger": false,
      "metar": "METAR LYNI 221400Z 31011KT 270V340 9999 FEW040 24/11 Q1016 NOSIG",
      "taf": "TAF LYNI 221100Z 2212/2312 32015KT 9999 SCT040 TX24/2214Z TN11/2303Z"
    },
    {
      "icao": "LYPG",
      "alert": "OK",
      "vis_m": 9999,
      "fzfg": false,
      "metar_trigger": false,
      "taf_trigger": false,
      "metar": "METAR LYPG 221400Z 01010KT 330V040 9999 FEW034 31/12 Q1012 NOSIG",
      "taf": "TAF LYPG 221100Z 2212/2312 35018KT 9999 SCT050 TX32/2213Z TN22/2303Z"
    },
    {
      "icao": "LZIB",
      "alert": "OK",
      "vis_m": 9999,
      "fzfg": false,
      "metar_trigger": false,
      "taf_trigger": false,
      "metar": "METAR LZIB 221400Z 32008KT CAVOK 25/05 Q1017 NOSIG",
      "taf": "TAF LZIB 221115Z 2212/2312 32014KT CAVOK"
    },
    {
      "icao": "LZKZ",
      "alert": "OK",
      "vis_m": 9999,
      "fzfg": false,
      "metar_trigger": false,
      "taf_trigger": false,
      "metar": "METAR LZKZ 221400Z 02012KT CAVOK 24/06 Q1015 NOSIG",
      "taf": "TAF LZKZ 221115Z 2212/2312 02016KT CAVOK"
    },
    {
      "icao": "LZTT",
      "alert": "OK",
      "vis_m": 9999,
      "fzfg": false,
      "metar_trigger": false,
      "taf_trigger": false,
      "metar": "METAR LZTT 221400Z 28012KT 260V330 9999 SCT063 BKN080 18/06 Q1017 NOSIG",
      "taf": "TAF LZTT 221115Z 2212/2312 29005KT 9999 FEW040 SCT060"
    },
    {
      "icao": "OEJN",
      "alert": "OK",
      "vis_m": 9999,
      "fzfg": false,
      "metar_trigger": false,
      "taf_trigger": false,
      "metar": "METAR OEJN 221400Z 29008KT CAVOK 36/19 Q1004 NOSIG",
      "taf": "TAF OEJN 221100Z 2212/2318 27012KT 7000 FEW040"
    },
    {
      "icao": "OEMA",
      "alert": "OK",
      "vis_m": 9999,
      "fzfg": false,
      "metar_trigger": false,
      "taf_trigger": false,
      "metar": "METAR OEMA 221400Z 30014KT CAVOK 46/M01 Q1006 NOSIG",
      "taf": "TAF OEMA 221100Z 2212/2318 27014KT CAVOK"
    },
    {
      "icao": "OJAI",
      "alert": "OK",
      "vis_m": 5000,
      "fzfg": false,
      "metar_trigger": false,
      "taf_trigger": false,
      "metar": "METAR OJAI 221400Z 28012KT 5000 DU NSC 35/15 Q1012 NOSIG",
      "taf": "TAF OJAI 221100Z 2212/2318 30010KT 5000 HZ NSC"
    },
    {
      "icao": "OMAA",
      "alert": "OK",
      "vis_m": 9999,
      "fzfg": false,
      "metar_trigger": false,
      "taf_trigger": false,
      "metar": "METAR OMAA 221400Z 28011KT CAVOK 39/20 Q0996 NOSIG",
      "taf": "TAF OMAA 221100Z 2212/2318 29014KT 8000 NSC"
    },
    {
      "icao": "OMDB",
      "alert": "OK",
      "vis_m": 9999,
      "fzfg": false,
      "metar_trigger": false,
      "taf_trigger": false,
      "metar": "METAR OMDB 221400Z 27012KT CAVOK 38/24 Q0996 NOSIG",
      "taf": "TAF OMDB 221100Z 2212/2318 27013KT 8000 NSC"
    },
    {
      "icao": "UAAA",
      "alert": "OK",
      "vis_m": 9999,
      "fzfg": false,
      "metar_trigger": false,
      "taf_trigger": false,
      "metar": "METAR UAAA 221400Z 06002MPS 9999 SCT050CB BKN100 26/18 Q1006 NOSIG",
      "taf": "TAF UAAA 221104Z 2212/2312 22003MPS 9999 SCT050CB BKN100 TX31/2309Z TN18/2300Z"
    },
    {
      "icao": "UBBB",
      "alert": "OK",
      "vis_m": 9999,
      "fzfg": false,
      "metar_trigger": false,
      "taf_trigger": false,
      "metar": "METAR UBBB 221400Z 15008KT 120V180 CAVOK 31/14 Q1009 NOSIG",
      "taf": "TAF UBBB 221050Z 2212/2312 17012KT CAVOK TX32/2212Z TN22/2301Z"
    },
    {
      "icao": "UDSG",
      "alert": "OK",
      "vis_m": 9999,
      "fzfg": false,
      "metar_trigger": false,
      "taf_trigger": false,
      "metar": "METAR UDSG 221400Z 07017KT 9999 FEW049CB 26/14 Q1016 NOSIG",
      "taf": ""
    },
    {
      "icao": "UDYZ",
      "alert": "OK",
      "vis_m": 9999,
      "fzfg": false,
      "metar_trigger": false,
      "taf_trigger": false,
      "metar": "METAR UDYZ 221400Z 03014KT 9999 FEW043CB 34/12 Q1008 NOSIG",
      "taf": "TAF UDYZ 221100Z 2212/2312 04006KT 9999 FEW040"
    },
    {
      "icao": "UGKO",
      "alert": "OK",
      "vis_m": 9999,
      "fzfg": false,
      "metar_trigger": false,
      "taf_trigger": false,
      "metar": "METAR UGKO 221400Z 21007KT 9999 OVC059 26/20 Q1010 NOSIG",
      "taf": "TAF UGKO 221100Z 2212/2312 26007KT 9999 SCT023 BKN050 TX30/2311Z TN20/2302Z"
    }
  ]
}