{
  "ts_utc": "2025-12-28T06:53:08Z",
  "threshold_m": 150,
  "source": "stations_override.txt (ICAO list) + aviationweather.gov (METAR/TAF raw)",
  "station_count": 159,
  "stations": [
    {
      "icao": "BIKF",
      "alert": "OK",
      "vis_m": 9999,
      "fzfg": false,
      "metar_trigger": false,
      "taf_trigger": false,
      "metar": "METAR BIKF 280630Z 25010G20KT 9999 -DZ SCT006 OVC032 07/07 Q1035",
      "taf": "TAF BIKF 280454Z 2806/2906 24012KT 9999 BKN015 TX07/2812Z TN03/2904Z"
    },
    {
      "icao": "BKPR",
      "alert": "OK",
      "vis_m": 9999,
      "fzfg": false,
      "metar_trigger": false,
      "taf_trigger": false,
      "metar": "METAR BKPR 280630Z 35005KT 320V040 9999 SCT040 M03/M03 Q1015 NOSIG",
      "taf": "TAF BKPR 280530Z 2806/2906 34009KT 9999 FEW040"
    },
    {
      "icao": "EBCI",
      "alert": "OK",
      "vis_m": 7000,
      "fzfg": false,
      "metar_trigger": false,
      "taf_trigger": false,
      "metar": "METAR EBCI 280620Z 04007KT 7000 BKN017 02/01 Q1030 NOSIG",
      "taf": "TAF EBCI 280520Z 2806/2912 06005KT 3000 BR BKN019"
    },
    {
      "icao": "EDDB",
      "alert": "OK",
      "vis_m": 9999,
      "fzfg": false,
      "metar_trigger": false,
      "taf_trigger": false,
      "metar": "METAR EDDB 280620Z AUTO 30006KT CAVOK M02/M03 Q1029 NOSIG",
      "taf": "TAF EDDB 280500Z 2806/2906 32007KT CAVOK"
    },
    {
      "icao": "EDDH",
      "alert": "OK",
      "vis_m": 700,
      "fzfg": true,
      "metar_trigger": false,
      "taf_trigger": false,
      "metar": "METAR EDDH 280620Z AUTO 33003KT 0700 0600 R23/1200D R33/0900N FZFG BKN001 M04/M05 Q1032 TEMPO 0400",
      "taf": "TAF EDDH 280500Z 2806/2912 VRB03KT 0300 FZFG OVC001"
    },
    {
      "icao": "EDDK",
      "alert": "OK",
      "vis_m": 400,
      "fzfg": true,
      "metar_trigger": false,
      "taf_trigger": false,
      "metar": "METAR EDDK 280620Z AUTO VRB02KT 0400 0300 R13L/0350N R24/0450N FZFG VV003 M03/M03 Q1032 TEMPO 0600",
      "taf": "TAF EDDK 280500Z 2806/2912 VRB03KT 9999 OVC020"
    },
    {
      "icao": "EDDN",
      "alert": "OK",
      "vis_m": 9999,
      "fzfg": false,
      "metar_trigger": false,
      "taf_trigger": false,
      "metar": "METAR EDDN 280620Z AUTO VRB02KT CAVOK M06/M07 Q1029 NOSIG",
      "taf": "TAF EDDN 280500Z 2806/2906 03003KT CAVOK"
    },
    {
      "icao": "EDDS",
      "alert": "OK",
      "vis_m": 9999,
      "fzfg": false,
      "metar_trigger": false,
      "taf_trigger": false,
      "metar": "METAR EDDS 280620Z AUTO VRB02KT CAVOK M07/M08 Q1027 NOSIG",
      "taf": "TAF EDDS 280500Z 2806/2906 VRB03KT CAVOK"
    },
    {
      "icao": "EDFH",
      "alert": "OK",
      "vis_m": 9999,
      "fzfg": false,
      "metar_trigger": false,
      "taf_trigger": false,
      "metar": "METAR EDFH 280620Z 09007KT 9999 BKN011 M00/M02 Q1028",
      "taf": "TAF EDFH 280500Z 2806/2906 09010KT 9999 OVC008"
    },
    {
      "icao": "EDJA",
      "alert": "OK",
      "vis_m": 4900,
      "fzfg": true,
      "metar_trigger": false,
      "taf_trigger": false,
      "metar": "METAR EDJA 280620Z 06007KT 040V100 4900 BR BKN002 OVC004 M06/M07 Q1027",
      "taf": "TAF EDJA 280500Z 2806/2815 04001KT 0300 FZFG BKN001"
    },
    {
      "icao": "EDLW",
      "alert": "OK",
      "vis_m": null,
      "fzfg": false,
      "metar_trigger": false,
      "taf_trigger": false,
      "metar": "METAR EDLW 280620Z 14003KT 600 R24/0550 FG NSC 00/M00 Q1031",
      "taf": ""
    },
    {
      "icao": "EDNY",
      "alert": "OK",
      "vis_m": 9999,
      "fzfg": false,
      "metar_trigger": false,
      "taf_trigger": false,
      "metar": "METAR EDNY 280620Z 05004KT 9999 BKN005 M03/M04 Q1028",
      "taf": "TAF EDNY 280500Z 2806/2815 05003KT 7000 OVC004"
    },
    {
      "icao": "EDSB",
      "alert": "OK",
      "vis_m": 9999,
      "fzfg": false,
      "metar_trigger": false,
      "taf_trigger": false,
      "metar": "METAR EDSB 280620Z 05007KT CAVOK M01/M03 Q1029",
      "taf": "TAF EDSB 280500Z 2806/2906 03010KT CAVOK"
    },
    {
      "icao": "EETN",
      "alert": "OK",
      "vis_m": 9999,
      "fzfg": false,
      "metar_trigger": false,
      "taf_trigger": false,
      "metar": "METAR EETN 280650Z 34015G28KT 9999 BKN038 00/M08 Q1008 TEMPO 34018G30KT",
      "taf": "TAF EETN 280530Z 2806/2906 34020G32KT 9999 BKN030"
    },
    {
      "icao": "EFTU",
      "alert": "OK",
      "vis_m": 9999,
      "fzfg": false,
      "metar_trigger": false,
      "taf_trigger": false,
      "metar": "METAR EFTU 280650Z AUTO 33008KT 280V030 CAVOK M02/M10 Q1013",
      "taf": "TAF EFTU 280524Z 2806/2906 35011KT CAVOK"
    },
    {
      "icao": "EGBB",
      "alert": "OK",
      "vis_m": 9999,
      "fzfg": false,
      "metar_trigger": false,
      "taf_trigger": false,
      "metar": "METAR EGBB 280620Z 07008KT 030V140 9999 BKN021 06/02 Q1035",
      "taf": "TAF EGBB 280453Z 2806/2906 07009KT 9999 BKN020"
    },
    {
      "icao": "EGGP",
      "alert": "OK",
      "vis_m": 9999,
      "fzfg": false,
      "metar_trigger": false,
      "taf_trigger": false,
      "metar": "METAR EGGP 280620Z 10008KT 9999 OVC026 06/00 Q1036",
      "taf": "TAF EGGP 280501Z 2806/2906 09008KT 9999 BKN026"
    },
    {
      "icao": "EGGW",
      "alert": "OK",
      "vis_m": 9999,
      "fzfg": false,
      "metar_trigger": false,
      "taf_trigger": false,
      "metar": "METAR EGGW 280620Z AUTO 06010KT 030V090 9999 OVC017 05/02 Q1033",
      "taf": ""
    },
    {
      "icao": "EGKK",
      "alert": "OK",
      "vis_m": 9999,
      "fzfg": false,
      "metar_trigger": false,
      "taf_trigger": false,
      "metar": "METAR EGKK 280620Z 04010KT 020V090 9999 BKN021 07/04 Q1032",
      "taf": "TAF EGKK 280454Z 2806/2912 04010KT 9999 BKN020"
    },
    {
      "icao": "EGNM",
      "alert": "OK",
      "vis_m": 9999,
      "fzfg": false,
      "metar_trigger": false,
      "taf_trigger": false,
      "metar": "METAR EGNM 280620Z 07006KT 9999 BKN020 05/02 Q1036",
      "taf": "TAF EGNM 280500Z 2806/2906 05008KT 9999 BKN020"
    },
    {
      "icao": "EGPD",
      "alert": "OK",
      "vis_m": 9999,
      "fzfg": false,
      "metar_trigger": false,
      "taf_trigger": false,
      "metar": "METAR EGPD 280620Z COR AUTO 28004KT 250V350 9999 OVC023 04/00 Q1039 NOSIG",
      "taf": "TAF EGPD 280456Z 2806/2906 30004KT 9999 BKN025"
    },
    {
      "icao": "EGPF",
      "alert": "OK",
      "vis_m": 9999,
      "fzfg": false,
      "metar_trigger": false,
      "taf_trigger": false,
      "metar": "METAR EGPF 280620Z AUTO 04004KT 020V100 9999 OVC027 05/02 Q1038",
      "taf": "TAF EGPF 280456Z 2806/2906 05006KT 9999 BKN030"
    },
    {
      "icao": "EHBK",
      "alert": "OK",
      "vis_m": 7000,
      "fzfg": false,
      "metar_trigger": false,
      "taf_trigger": false,
      "metar": "METAR EHBK 280625Z COR AUTO 06006KT 7000 OVC017 02/02 Q1031 BECMG 2500",
      "taf": "TAF EHBK 280517Z 2806/2912 05005KT 4000 BR BKN020"
    },
    {
      "icao": "EHEH",
      "alert": "OK",
      "vis_m": 9999,
      "fzfg": false,
      "metar_trigger": false,
      "taf_trigger": false,
      "metar": "METAR EHEH 280625Z AUTO 06004KT 9999 OVC021 04/01 Q1032 WHT BECMG 3500 BR FEW020 RMK TREND REMOTE BY EHWX",
      "taf": "TAF EHEH 280548Z 2806/2912 06003KT 9999 OVC020"
    },
    {
      "icao": "EKBI",
      "alert": "OK",
      "vis_m": 9999,
      "fzfg": true,
      "metar_trigger": false,
      "taf_trigger": false,
      "metar": "METAR EKBI 280620Z 29001KT 9999 R09/1400U R27/P1500N BCFG NSC M05/M06 Q1032",
      "taf": "TAF EKBI 280527Z 2806/2906 31005KT 0250 FZFG BKN002"
    },
    {
      "icao": "EKCH",
      "alert": "OK",
      "vis_m": 9999,
      "fzfg": false,
      "metar_trigger": false,
      "taf_trigger": false,
      "metar": "METAR EKCH 280620Z AUTO 36015KT 9999 NCD 03/M05 Q1030 NOSIG",
      "taf": "TAF EKCH 280527Z 2806/2906 34015KT CAVOK"
    },
    {
      "icao": "ENAL",
      "alert": "OK",
      "vis_m": 9999,
      "fzfg": false,
      "metar_trigger": false,
      "taf_trigger": false,
      "metar": "METAR ENAL 280620Z COR 24018KT 9999 -DZ BKN035 05/M00 Q1031",
      "taf": "TAF ENAL 280500Z 2806/2815 25018KT 9999 FEW020 BKN035"
    },
    {
      "icao": "ENBR",
      "alert": "OK",
      "vis_m": 9999,
      "fzfg": false,
      "metar_trigger": false,
      "taf_trigger": false,
      "metar": "METAR ENBR 280620Z 01005KT 340V040 9999 BKN029 02/M02 Q1034 NOSIG RMK WIND 1200FT 01011KT",
      "taf": ""
    },
    {
      "icao": "ENGM",
      "alert": "OK",
      "vis_m": 9999,
      "fzfg": false,
      "metar_trigger": false,
      "taf_trigger": false,
      "metar": "METAR ENGM 280620Z VRB02KT CAVOK M03/M08 Q1025 NOSIG",
      "taf": "TAF ENGM 280500Z 2806/2906 VRB03KT CAVOK"
    },
    {
      "icao": "ENHD",
      "alert": "OK",
      "vis_m": 9999,
      "fzfg": false,
      "metar_trigger": false,
      "taf_trigger": false,
      "metar": "METAR ENHD 280620Z AUTO 01020KT 9999 NCD 03/M02 Q1033",
      "taf": "TAF ENHD 280500Z 2806/2815 35018KT CAVOK"
    },
    {
      "icao": "ENTC",
      "alert": "OK",
      "vis_m": 9000,
      "fzfg": false,
      "metar_trigger": false,
      "taf_trigger": false,
      "metar": "METAR ENTC 280620Z 28013KT 9000 -SHSN VV018 01/M02 Q0997 RMK WIND 2600FT 30044KT",
      "taf": ""
    },
    {
      "icao": "ENTO",
      "alert": "OK",
      "vis_m": 9999,
      "fzfg": false,
      "metar_trigger": false,
      "taf_trigger": false,
      "metar": "METAR ENTO 280620Z 24003KT 170V290 CAVOK 00/M08 Q1028 NOSIG",
      "taf": "TAF ENTO 280500Z 2806/2906 28008KT CAVOK"
    },
    {
      "icao": "ENVA",
      "alert": "OK",
      "vis_m": 9999,
      "fzfg": false,
      "metar_trigger": false,
      "taf_trigger": false,
      "metar": "METAR ENVA 280620Z 26026G38KT 9999 SCT029 SCT043 04/00 Q1022 TEMPO 27026KT 4000 SHRA BKN012CB RMK WIND 670FT 26022G37KT",
      "taf": "TAF ENVA 280500Z 2806/2906 27030KT 9999 FEW020TCU BKN030"
    },
    {
      "icao": "ENZV",
      "alert": "OK",
      "vis_m": 9999,
      "fzfg": false,
      "metar_trigger": false,
      "taf_trigger": false,
      "metar": "METAR ENZV 280620Z 05003KT CAVOK 02/M01 Q1032 TEMPO 35010KT",
      "taf": "TAF ENZV 280500Z 2806/2906 35010KT CAVOK"
    },
    {
      "icao": "EPGD",
      "alert": "OK",
      "vis_m": 9999,
      "fzfg": false,
      "metar_trigger": false,
      "taf_trigger": false,
      "metar": "METAR EPGD 280630Z 33013KT 9999 BKN034 03/M04 Q1020",
      "taf": "TAF EPGD 280530Z 2806/2906 34018KT 9999 SCT040"
    },
    {
      "icao": "EPKK",
      "alert": "OK",
      "vis_m": 9999,
      "fzfg": false,
      "metar_trigger": false,
      "taf_trigger": false,
      "metar": "METAR EPKK 280630Z 26013KT 9999 FEW016 BKN049 M00/M02 Q1020",
      "taf": "TAF EPKK 280530Z 2806/2906 28011KT 9999 SCT015 BKN040"
    },
    {
      "icao": "EPKT",
      "alert": "OK",
      "vis_m": 9999,
      "fzfg": false,
      "metar_trigger": false,
      "taf_trigger": false,
      "metar": "METAR EPKT 280630Z 30011KT 9999 OVC046 M01/M03 Q1020",
      "taf": "TAF EPKT 280530Z 2806/2906 32012KT 9999 SCT009 BKN015"
    },
    {
      "icao": "EPLB",
      "alert": "OK",
      "vis_m": 9999,
      "fzfg": false,
      "metar_trigger": false,
      "taf_trigger": false,
      "metar": "METAR EPLB 280630Z 31016KT 9999 FEW030 SCT037 BKN043 01/M02 Q1011",
      "taf": "TAF EPLB 280530Z 2806/2906 30015KT 9999 SCT032"
    },
    {
      "icao": "EPMO",
      "alert": "OK",
      "vis_m": 9999,
      "fzfg": false,
      "metar_trigger": false,
      "taf_trigger": false,
      "metar": "METAR EPMO 280630Z 30012G27KT 9999 OVC040 02/M02 Q1016",
      "taf": "TAF EPMO 280530Z 2806/2906 29014KT 9999 BKN042"
    },
    {
      "icao": "EPPO",
      "alert": "OK",
      "vis_m": 9999,
      "fzfg": false,
      "metar_trigger": false,
      "taf_trigger": false,
      "metar": "METAR EPPO 280630Z 29009KT 9999 SCT041 M01/M04 Q1025",
      "taf": "TAF EPPO 280530Z 2806/2906 31010KT 9999 BKN040"
    },
    {
      "icao": "EPRA",
      "alert": "OK",
      "vis_m": 9999,
      "fzfg": false,
      "metar_trigger": false,
      "taf_trigger": false,
      "metar": "METAR EPRA 280630Z 31018KT 9999 BKN044 01/M03 Q1015",
      "taf": "TAF EPRA 280530Z 2806/2815 30015KT 9999 BKN040"
    },
    {
      "icao": "EPRZ",
      "alert": "OK",
      "vis_m": 9999,
      "fzfg": false,
      "metar_trigger": false,
      "taf_trigger": false,
      "metar": "METAR EPRZ 280630Z 29019KT 9999 FEW020 BKN048 01/M03 Q1015",
      "taf": "TAF EPRZ 280530Z 2806/2906 29017KT 9999 SCT017"
    },
    {
      "icao": "EPSC",
      "alert": "OK",
      "vis_m": 9999,
      "fzfg": false,
      "metar_trigger": false,
      "taf_trigger": false,
      "metar": "METAR EPSC 280630Z 28005KT 9999 SCT034 M02/M04 Q1027",
      "taf": "TAF EPSC 280530Z 2806/2906 29008KT CAVOK"
    },
    {
      "icao": "EPSY",
      "alert": "OK",
      "vis_m": 5000,
      "fzfg": false,
      "metar_trigger": false,
      "taf_trigger": false,
      "metar": "METAR EPSY 280630Z 33014G27KT 300V360 5000 -SHRASN BKN013TCU 02/M02 Q1015",
      "taf": "TAF EPSY 280530Z 2806/2815 33015KT 9999 BKN030"
    },
    {
      "icao": "EPWA",
      "alert": "OK",
      "vis_m": 9999,
      "fzfg": false,
      "metar_trigger": false,
      "taf_trigger": false,
      "metar": "METAR EPWA 280630Z 29015KT 9999 BKN040 02/M02 Q1016 NOSIG",
      "taf": "TAF EPWA 280530Z 2806/2906 29015KT 9999 BKN048"
    },
    {
      "icao": "EPWR",
      "alert": "OK",
      "vis_m": 9999,
      "fzfg": false,
      "metar_trigger": false,
      "taf_trigger": false,
      "metar": "METAR EPWR 280630Z 29012KT 9999 FEW043 M01/M03 Q1025",
      "taf": "TAF EPWR 280530Z 2806/2906 31012KT 9999 SCT040"
    },
    {
      "icao": "ESGG",
      "alert": "OK",
      "vis_m": 9999,
      "fzfg": false,
      "metar_trigger": false,
      "taf_trigger": false,
      "metar": "METAR ESGG 280620Z 26005KT CAVOK M01/M06 Q1028",
      "taf": "TAF ESGG 280530Z 2806/2906 28005KT CAVOK"
    },
    {
      "icao": "ESKN",
      "alert": "OK",
      "vis_m": 9999,
      "fzfg": false,
      "metar_trigger": false,
      "taf_trigger": false,
      "metar": "METAR ESKN 280620Z 32011KT 290V350 CAVOK 00/M06 Q1023",
      "taf": "TAF ESKN 280530Z 2806/2906 32015KT CAVOK"
    },
    {
      "icao": "ESMS",
      "alert": "OK",
      "vis_m": 9999,
      "fzfg": false,
      "metar_trigger": false,
      "taf_trigger": false,
      "metar": "METAR ESMS 280620Z 32007KT CAVOK M01/M05 Q1028",
      "taf": "TAF ESMS 280527Z 2806/2906 34012KT CAVOK"
    },
    {
      "icao": "ESSA",
      "alert": "OK",
      "vis_m": 9999,
      "fzfg": false,
      "metar_trigger": false,
      "taf_trigger": false,
      "metar": "METAR ESSA 280620Z 30009KT CAVOK M01/M07 Q1021 NOSIG",
      "taf": "TAF ESSA 280530Z 2806/2906 31010KT CAVOK"
    },
    {
      "icao": "EYKA",
      "alert": "OK",
      "vis_m": 9999,
      "fzfg": false,
      "metar_trigger": false,
      "taf_trigger": false,
      "metar": "METAR EYKA 280650Z VRB11G24KT 9999 OVC030 02/M03 Q1007",
      "taf": "TAF EYKA 280507Z 2806/2906 32014G24KT 9000 BKN020"
    },
    {
      "icao": "EYPA",
      "alert": "OK",
      "vis_m": 9999,
      "fzfg": false,
      "metar_trigger": false,
      "taf_trigger": false,
      "metar": "METAR EYPA 280650Z 36015G29KT 320V050 9999 BKN041 OVC048 04/M04 Q1014",
      "taf": "TAF EYPA 280509Z 2806/2906 35015G30KT 9000 BKN030"
    },
    {
      "icao": "EYVI",
      "alert": "OK",
      "vis_m": 9999,
      "fzfg": false,
      "metar_trigger": false,
      "taf_trigger": false,
      "metar": "METAR EYVI 280650Z 34020KT 9999 -SHSNRA BKN012CB 00/M02 Q1003 NOSIG",
      "taf": ""
    },
    {
      "icao": "GCFV",
      "alert": "OK",
      "vis_m": 9999,
      "fzfg": false,
      "metar_trigger": false,
      "taf_trigger": false,
      "metar": "METAR GCFV 280630Z VRB03KT 9999 FEW022 SCT045 16/13 Q1018",
      "taf": "TAF GCFV 280200Z 2803/2903 24005KT 9999 SCT030 TX22/2814Z TN13/2806Z"
    },
    {
      "icao": "GCLP",
      "alert": "OK",
      "vis_m": 9999,
      "fzfg": false,
      "metar_trigger": false,
      "taf_trigger": false,
      "metar": "METAR GCLP 280630Z 27003KT 210V340 9999 SCT040 16/10 Q1018 NOSIG",
      "taf": "TAF GCLP 280200Z 2803/2903 27005KT 9999 SCT035 TX22/2814Z TN14/2806Z"
    },
    {
      "icao": "GCTS",
      "alert": "OK",
      "vis_m": 9999,
      "fzfg": false,
      "metar_trigger": false,
      "taf_trigger": false,
      "metar": "METAR GCTS 280630Z 36010KT 9999 SCT040 16/08 Q1018 NOSIG",
      "taf": "TAF GCTS 280200Z 2803/2903 VRB06KT 9999 SCT035 TX23/2814Z TN14/2806Z"
    },
    {
      "icao": "GMAD",
      "alert": "OK",
      "vis_m": 6000,
      "fzfg": false,
      "metar_trigger": false,
      "taf_trigger": false,
      "metar": "METAR GMAD 280630Z 19007KT 6000 BKN020TCU BKN080 12/12 Q1015 RERERA NOSIG",
      "taf": "TAF GMAD 280500Z 2806/2912 22005KT 6000 BKN020 BKN080"
    },
    {
      "icao": "GMMN",
      "alert": "OK",
      "vis_m": 9999,
      "fzfg": false,
      "metar_trigger": false,
      "taf_trigger": false,
      "metar": "METAR GMMN 280630Z 20011KT 9999 BKN016TCU 10/08 Q1010 NOSIG",
      "taf": "TAF GMMN 280500Z 2806/2912 20013KT 9999 BKN016TCU"
    },
    {
      "icao": "GMMX",
      "alert": "OK",
      "vis_m": 6000,
      "fzfg": false,
      "metar_trigger": false,
      "taf_trigger": false,
      "metar": "METAR GMMX 280630Z 24008KT 6000 SCT010 BKN016 11/08 Q1013 TEMPO 3000 RA",
      "taf": "TAF GMMX 280500Z 2806/2912 20006KT 6000 SCT010 BKN016"
    },
    {
      "icao": "HEGN",
      "alert": "OK",
      "vis_m": 9999,
      "fzfg": false,
      "metar_trigger": false,
      "taf_trigger": false,
      "metar": "METAR HEGN 280600Z 30008KT CAVOK 15/03 Q1015 NOSIG",
      "taf": "TAF HEGN 280500Z 2806/2912 34015KT CAVOK"
    },
    {
      "icao": "HEMA",
      "alert": "OK",
      "vis_m": 9999,
      "fzfg": false,
      "metar_trigger": false,
      "taf_trigger": false,
      "metar": "METAR HEMA 280600Z 27005KT CAVOK 19/01 Q1014 NOSIG",
      "taf": "TAF HEMA 280500Z 2806/2912 35014KT CAVOK"
    },
    {
      "icao": "HESH",
      "alert": "OK",
      "vis_m": 9999,
      "fzfg": false,
      "metar_trigger": false,
      "taf_trigger": false,
      "metar": "METAR HESH 280600Z 17003KT CAVOK 20/08 Q1013 NOSIG",
      "taf": "TAF HESH 280500Z 2806/2912 01012KT CAVOK"
    },
    {
      "icao": "HESX",
      "alert": "OK",
      "vis_m": 9999,
      "fzfg": false,
      "metar_trigger": false,
      "taf_trigger": false,
      "metar": "METAR HESX 280600Z 25005KT 9999 FEW020 11/09 Q1014 NOSIG",
      "taf": "TAF HESX 280500Z 2806/2912 26008KT 9999 FEW025"
    },
    {
      "icao": "LATI",
      "alert": "OK",
      "vis_m": 9999,
      "fzfg": false,
      "metar_trigger": false,
      "taf_trigger": false,
      "metar": "METAR LATI 280650Z 16006KT 9999 FEW037 02/M02 Q1016 NOSIG",
      "taf": "TAF LATI 280500Z 2806/2906 VRB05KT 9999 SCT030 TX15/2812Z TNM02/2904Z"
    },
    {
      "icao": "LBPD",
      "alert": "OK",
      "vis_m": 9999,
      "fzfg": false,
      "metar_trigger": false,
      "taf_trigger": false,
      "metar": "METAR LBPD 280630Z AUTO 31017KT 9999 NCD 07/M05 Q1008 NOSIG",
      "taf": "TAF LBPD 280500Z 2806/2906 28018KT 9999 SCT035"
    },
    {
      "icao": "LBSF",
      "alert": "OK",
      "vis_m": 9999,
      "fzfg": false,
      "metar_trigger": false,
      "taf_trigger": false,
      "metar": "METAR LBSF 280630Z 32010KT 280V340 9999 BKN030 OVC036 03/M02 Q1012 NOSIG",
      "taf": "TAF LBSF 280500Z 2806/2906 29016KT 9999 SCT015 BKN030"
    },
    {
      "icao": "LBWN",
      "alert": "OK",
      "vis_m": 9999,
      "fzfg": false,
      "metar_trigger": false,
      "taf_trigger": false,
      "metar": "METAR LBWN 280630Z 30011KT 9999 SCT025 03/M01 Q1006 NOSIG",
      "taf": "TAF LBWN 280500Z 2806/2906 29016G28KT 9999 SCT030"
    },
    {
      "icao": "LCLK",
      "alert": "OK",
      "vis_m": 9999,
      "fzfg": false,
      "metar_trigger": false,
      "taf_trigger": false,
      "metar": "METAR LCLK 280630Z 32006KT 9999 FEW025 SCT050 11/04 Q1010 NOSIG",
      "taf": "TAF LCLK 280530Z 2806/2906 33008KT 9999 FEW030 SCT060"
    },
    {
      "icao": "LCPH",
      "alert": "OK",
      "vis_m": 9999,
      "fzfg": false,
      "metar_trigger": false,
      "taf_trigger": false,
      "metar": "METAR LCPH 280630Z 06004KT 010V080 9999 SCT030 10/03 Q1009 NOSIG",
      "taf": "TAF LCPH 280530Z 2806/2906 02008KT 9999 FEW030 SCT060"
    },
    {
      "icao": "LEAL",
      "alert": "OK",
      "vis_m": 9999,
      "fzfg": false,
      "metar_trigger": false,
      "taf_trigger": false,
      "metar": "METAR LEAL 280630Z 05014KT 020V080 9999 FEW020 FEW025TCU BKN035 15/11 Q1014 NOSIG",
      "taf": "TAF LEAL 280500Z 2806/2906 04010KT 9999 SCT020 TX15/2813Z TN11/2806Z"
    },
    {
      "icao": "LEBB",
      "alert": "OK",
      "vis_m": 9999,
      "fzfg": false,
      "metar_trigger": false,
      "taf_trigger": false,
      "metar": "METAR LEBB 280630Z VRB02KT 9999 SCT046 07/06 Q1018 NOSIG",
      "taf": "TAF LEBB 280500Z 2806/2906 12008KT CAVOK TX14/2814Z TN03/2903Z"
    },
    {
      "icao": "LEBL",
      "alert": "OK",
      "vis_m": 9999,
      "fzfg": false,
      "metar_trigger": false,
      "taf_trigger": false,
      "metar": "METAR LEBL 280630Z 33006KT 9999 FEW032 10/09 Q1019 NOSIG",
      "taf": ""
    },
    {
      "icao": "LECH",
      "alert": "OK",
      "vis_m": 9000,
      "fzfg": false,
      "metar_trigger": false,
      "taf_trigger": false,
      "metar": "METAR LECH 280630Z AUTO 04005KT 9000 SCT011 08/08 Q1017",
      "taf": ""
    },
    {
      "icao": "LEMD",
      "alert": "OK",
      "vis_m": 9999,
      "fzfg": false,
      "metar_trigger": false,
      "taf_trigger": false,
      "metar": "METAR LEMD 280630Z VRB02KT 9999 FEW030 BKN045 07/04 Q1015 NOSIG",
      "taf": "TAF LEMD 280500Z 2806/2912 09006KT 9999 SCT040 BKN045 TX12/2815Z TN03/2906Z"
    },
    {
      "icao": "LEMG",
      "alert": "OK",
      "vis_m": 9999,
      "fzfg": false,
      "metar_trigger": false,
      "taf_trigger": false,
      "metar": "METAR LEMG 280630Z 27005KT 9999 FEW005 SCT024 BKN060 10/09 Q1011 NOSIG",
      "taf": "TAF LEMG 280500Z 2806/2906 VRB03KT 9999 FEW020 TX16/2814Z TN12/2806Z"
    },
    {
      "icao": "LEVC",
      "alert": "OK",
      "vis_m": 9999,
      "fzfg": false,
      "metar_trigger": false,
      "taf_trigger": false,
      "metar": "METAR LEVC 280630Z 29004KT 9999 FEW023 09/08 Q1017 NOSIG",
      "taf": "TAF LEVC 280500Z 2806/2906 02005KT 9999 FEW015 BKN040 TX13/2813Z TN09/2806Z"
    },
    {
      "icao": "LEXJ",
      "alert": "OK",
      "vis_m": 9999,
      "fzfg": false,
      "metar_trigger": false,
      "taf_trigger": false,
      "metar": "METAR LEXJ 280630Z 09003KT 050V120 9999 FEW055 10/06 Q1017",
      "taf": "TAF LEXJ 280200Z 2803/2903 10009KT CAVOK TX15/2814Z TN06/2807Z"
    },
    {
      "icao": "LEZG",
      "alert": "OK",
      "vis_m": 7000,
      "fzfg": false,
      "metar_trigger": false,
      "taf_trigger": false,
      "metar": "METAR LEZG 280630Z 30002KT 7000 -RADZ FEW010 BKN025 08/08 Q1019 NOSIG",
      "taf": "TAF LEZG 280500Z 2806/2906 13006KT 9999 SCT015 BKN025 TX11/2814Z TN05/2806Z"
    },
    {
      "icao": "LEZL",
      "alert": "OK",
      "vis_m": 9999,
      "fzfg": false,
      "metar_trigger": false,
      "taf_trigger": false,
      "metar": "METAR LEZL 280630Z 07005KT 050V110 CAVOK 10/09 Q1010 NOSIG",
      "taf": "TAF LEZL 280200Z 2803/2903 09005KT CAVOK TX17/2815Z TN08/2806Z"
    },
    {
      "icao": "LFBD",
      "alert": "OK",
      "vis_m": 9999,
      "fzfg": false,
      "metar_trigger": false,
      "taf_trigger": false,
      "metar": "METAR LFBD 280630Z AUTO 06004KT CAVOK 05/01 Q1020 NOSIG",
      "taf": "TAF LFBD 280500Z 2806/2912 05005KT CAVOK TX12/2814Z TN01/2905Z"
    },
    {
      "icao": "LFLL",
      "alert": "OK",
      "vis_m": 6000,
      "fzfg": false,
      "metar_trigger": false,
      "taf_trigger": false,
      "metar": "METAR LFLL 280630Z VRB02KT 6000 OVC005 00/M01 Q1025 TEMPO 4000 BR OVC004",
      "taf": "TAF LFLL 280500Z 2806/2912 VRB03KT 6000 OVC006"
    },
    {
      "icao": "LFLS",
      "alert": "OK",
      "vis_m": 8000,
      "fzfg": false,
      "metar_trigger": false,
      "taf_trigger": false,
      "metar": "METAR LFLS 280630Z AUTO 05005KT 8000 SCT009 M02/M03 Q1024 TEMPO 4000 BR BKN004",
      "taf": "TAF LFLS 280200Z 2803/2903 04005KT 6000 SCT008"
    },
    {
      "icao": "LFMN",
      "alert": "OK",
      "vis_m": 9999,
      "fzfg": false,
      "metar_trigger": false,
      "taf_trigger": false,
      "metar": "METAR LFMN 280630Z 32016KT CAVOK 07/M04 Q1019 NOSIG",
      "taf": "TAF LFMN 280200Z 2803/2909 33012KT CAVOK"
    },
    {
      "icao": "LFOB",
      "alert": "OK",
      "vis_m": 9999,
      "fzfg": false,
      "metar_trigger": false,
      "taf_trigger": false,
      "metar": "METAR LFOB 280630Z AUTO 06009KT 9999 OVC008 03/02 Q1030",
      "taf": "TAF LFOB 272300Z 2800/2824 02006KT 8000 NSC"
    },
    {
      "icao": "LFPO",
      "alert": "OK",
      "vis_m": 5000,
      "fzfg": false,
      "metar_trigger": false,
      "taf_trigger": false,
      "metar": "METAR LFPO 280630Z AUTO 03010KT 360V060 5000 BR OVC004 00/M00 Q1029",
      "taf": "TAF LFPO 280500Z 2806/2912 02008KT 6000 BKN006"
    },
    {
      "icao": "LFSB",
      "alert": "OK",
      "vis_m": 6000,
      "fzfg": false,
      "metar_trigger": false,
      "taf_trigger": false,
      "metar": "METAR LFSB 280630Z AUTO 34003KT 6000 OVC012 M01/M02 Q1028 TEMPO BKN009",
      "taf": "TAF LFSB 280500Z 2806/2906 33004KT 7000 BKN015"
    },
    {
      "icao": "LGAV",
      "alert": "OK",
      "vis_m": 9999,
      "fzfg": false,
      "metar_trigger": false,
      "taf_trigger": false,
      "metar": "METAR LGAV 280620Z VRB01KT 9999 FEW025 06/03 Q1013 NOSIG",
      "taf": "TAF LGAV 280500Z 2806/2906 28010KT 9999 FEW020"
    },
    {
      "icao": "LGTS",
      "alert": "OK",
      "vis_m": 9999,
      "fzfg": false,
      "metar_trigger": false,
      "taf_trigger": false,
      "metar": "METAR LGTS 280620Z VRB03KT CAVOK 05/01 Q1013 NOSIG",
      "taf": "TAF LGTS 280500Z 2806/2906 33015KT 9999 FEW030"
    },
    {
      "icao": "LHBP",
      "alert": "OK",
      "vis_m": 9999,
      "fzfg": false,
      "metar_trigger": false,
      "taf_trigger": false,
      "metar": "METAR LHBP 280630Z 30013KT CAVOK 00/M03 Q1020 NOSIG",
      "taf": "TAF LHBP 280515Z 2806/2906 31012G22KT CAVOK"
    },
    {
      "icao": "LHDC",
      "alert": "OK",
      "vis_m": 4400,
      "fzfg": false,
      "metar_trigger": false,
      "taf_trigger": false,
      "metar": "METAR LHDC 280615Z AUTO 22004KT 160V290 4400 BR NSC M03/M04 Q1018 NOSIG",
      "taf": "TAF LHDC 280515Z 2806/2815 29010KT CAVOK"
    },
    {
      "icao": "LIBD",
      "alert": "OK",
      "vis_m": 9999,
      "fzfg": false,
      "metar_trigger": false,
      "taf_trigger": false,
      "metar": "METAR LIBD 280620Z 25007KT CAVOK 06/04 Q1018",
      "taf": "TAF LIBD 280500Z 2806/2906 28010KT 9999 FEW030"
    },
    {
      "icao": "LIBG",
      "alert": "OK",
      "vis_m": null,
      "fzfg": false,
      "metar_trigger": false,
      "taf_trigger": false,
      "metar": "",
      "taf": ""
    },
    {
      "icao": "LIBP",
      "alert": "OK",
      "vis_m": 9999,
      "fzfg": false,
      "metar_trigger": false,
      "taf_trigger": false,
      "metar": "METAR LIBP 280620Z AUTO 27005KT 9999 NCD 02/01 Q1019",
      "taf": "TAF LIBP 280500Z 2806/2906 VRB06KT CAVOK"
    },
    {
      "icao": "LIBR",
      "alert": "OK",
      "vis_m": 9999,
      "fzfg": false,
      "metar_trigger": false,
      "taf_trigger": false,
      "metar": "METAR LIBR 280620Z 30010KT CAVOK 09/07 Q1017",
      "taf": "TAF LIBR 280500Z 2806/2906 33013KT 9999 FEW025"
    },
    {
      "icao": "LICA",
      "alert": "OK",
      "vis_m": 9999,
      "fzfg": false,
      "metar_trigger": false,
      "taf_trigger": false,
      "metar": "METAR LICA 280620Z AUTO 07006KT 9999 NCD 04/03 Q1019",
      "taf": "TAF LICA 280500Z 2806/2906 07008KT CAVOK"
    },
    {
      "icao": "LICC",
      "alert": "OK",
      "vis_m": 9999,
      "fzfg": false,
      "metar_trigger": false,
      "taf_trigger": false,
      "metar": "METAR LICC 280620Z 23007KT CAVOK 06/04 Q1019",
      "taf": "TAF LICC 280500Z 2806/2906 28008KT 9999 FEW030"
    },
    {
      "icao": "LICJ",
      "alert": "OK",
      "vis_m": 9999,
      "fzfg": false,
      "metar_trigger": false,
      "taf_trigger": false,
      "metar": "METAR LICJ 280620Z 17005KT CAVOK 09/08 Q1020",
      "taf": "TAF LICJ 280500Z 2806/2906 VRB05KT 9999 FEW040"
    },
    {
      "icao": "LIMC",
      "alert": "OK",
      "vis_m": 9999,
      "fzfg": false,
      "metar_trigger": false,
      "taf_trigger": false,
      "metar": "METAR LIMC 280620Z 36006KT CAVOK 01/M00 Q1018 NOSIG",
      "taf": "TAF LIMC 280500Z 2806/2912 VRB05KT 6000 FEW030"
    },
    {
      "icao": "LIME",
      "alert": "OK",
      "vis_m": 9999,
      "fzfg": false,
      "metar_trigger": false,
      "taf_trigger": false,
      "metar": "METAR LIME 280620Z 32004KT 260V360 CAVOK 02/M01 Q1018 NOSIG",
      "taf": "TAF LIME 280500Z 2806/2906 VRB05KT CAVOK"
    },
    {
      "icao": "LIMF",
      "alert": "OK",
      "vis_m": 9999,
      "fzfg": false,
      "metar_trigger": false,
      "taf_trigger": false,
      "metar": "METAR LIMF 280620Z VRB01KT CAVOK M01/M04 Q1018",
      "taf": "TAF LIMF 280500Z 2806/2906 VRB06KT CAVOK"
    },
    {
      "icao": "LIMJ",
      "alert": "OK",
      "vis_m": 9999,
      "fzfg": false,
      "metar_trigger": false,
      "taf_trigger": false,
      "metar": "METAR LIMJ 280620Z VRB02KT CAVOK 07/M02 Q1019",
      "taf": "TAF LIMJ 280500Z 2806/2906 03012KT CAVOK"
    },
    {
      "icao": "LIPE",
      "alert": "OK",
      "vis_m": 9999,
      "fzfg": false,
      "metar_trigger": false,
      "taf_trigger": false,
      "metar": "METAR LIPE 280620Z 31003KT 280V340 CAVOK 01/M02 Q1019",
      "taf": "TAF LIPE 280500Z 2806/2906 VRB06KT CAVOK"
    },
    {
      "icao": "LIPH",
      "alert": "OK",
      "vis_m": 9999,
      "fzfg": false,
      "metar_trigger": false,
      "taf_trigger": false,
      "metar": "METAR LIPH 280620Z VRB01KT CAVOK M01/M02 Q1019",
      "taf": "TAF LIPH 280500Z 2806/2906 VRB05KT CAVOK"
    },
    {
      "icao": "LIPQ",
      "alert": "OK",
      "vis_m": 9999,
      "fzfg": false,
      "metar_trigger": false,
      "taf_trigger": false,
      "metar": "METAR LIPQ 280620Z AUTO VRB02KT 9999 NCD M03/M04 Q1019",
      "taf": "TAF LIPQ 280500Z 2806/2906 VRB05KT CAVOK"
    },
    {
      "icao": "LIPR",
      "alert": "OK",
      "vis_m": 9999,
      "fzfg": false,
      "metar_trigger": false,
      "taf_trigger": false,
      "metar": "METAR LIPR 280620Z 21003KT CAVOK M01/M03 Q1019",
      "taf": "TAF LIPR 280500Z 2806/2906 VRB06KT CAVOK"
    },
    {
      "icao": "LIPX",
      "alert": "OK",
      "vis_m": 9999,
      "fzfg": false,
      "metar_trigger": false,
      "taf_trigger": false,
      "metar": "METAR LIPX 280620Z VRB02KT CAVOK M00/M02 Q1018",
      "taf": "TAF LIPX 280500Z 2806/2906 VRB06KT CAVOK"
    },
    {
      "icao": "LIPY",
      "alert": "OK",
      "vis_m": 9999,
      "fzfg": false,
      "metar_trigger": false,
      "taf_trigger": false,
      "metar": "METAR LIPY 280620Z AUTO 21004KT 9999 NCD 02/M01 Q1019",
      "taf": "TAF LIPY 280500Z 2806/2906 VRB05KT CAVOK"
    },
    {
      "icao": "LIPZ",
      "alert": "OK",
      "vis_m": 9999,
      "fzfg": false,
      "metar_trigger": false,
      "taf_trigger": false,
      "metar": "METAR LIPZ 280620Z 03006KT CAVOK 00/M01 Q1019 NOSIG",
      "taf": "TAF LIPZ 280500Z 2806/2912 VRB05KT CAVOK"
    },
    {
      "icao": "LIRF",
      "alert": "OK",
      "vis_m": 9999,
      "fzfg": false,
      "metar_trigger": false,
      "taf_trigger": false,
      "metar": "METAR LIRF 280620Z 09004KT 060V120 CAVOK 02/01 Q1020 NOSIG",
      "taf": "TAF LIRF 280500Z 2806/2912 04008KT CAVOK"
    },
    {
      "icao": "LIRN",
      "alert": "OK",
      "vis_m": 9999,
      "fzfg": false,
      "metar_trigger": false,
      "taf_trigger": false,
      "metar": "METAR LIRN 280620Z 34003KT 210V360 CAVOK 05/01 Q1020 NOSIG",
      "taf": "TAF LIRN 280500Z 2806/2906 02007KT CAVOK"
    },
    {
      "icao": "LIRP",
      "alert": "OK",
      "vis_m": 9999,
      "fzfg": false,
      "metar_trigger": false,
      "taf_trigger": false,
      "metar": "METAR LIRP 280615Z VRB02KT CAVOK M01/M01 Q1020 NOSIG",
      "taf": "TAF LIRP 280500Z 2806/2906 12005KT CAVOK"
    },
    {
      "icao": "LIRZ",
      "alert": "OK",
      "vis_m": 9999,
      "fzfg": false,
      "metar_trigger": false,
      "taf_trigger": false,
      "metar": "METAR LIRZ 280620Z AUTO 15003KT 9999 NCD M02/M03 Q1020",
      "taf": "TAF LIRZ 280500Z 2806/2906 VRB06KT CAVOK"
    },
    {
      "icao": "LJLJ",
      "alert": "OK",
      "vis_m": 400,
      "fzfg": true,
      "metar_trigger": false,
      "taf_trigger": false,
      "metar": "METAR LJLJ 280630Z 12004KT 080V160 0400 R30/1300N FZFG VV001 M03/M03 Q1023 NOSIG",
      "taf": "TAF LJLJ 280500Z 2806/2906 30002KT 0400 FZFG VV002"
    },
    {
      "icao": "LKMT",
      "alert": "OK",
      "vis_m": 9999,
      "fzfg": false,
      "metar_trigger": false,
      "taf_trigger": false,
      "metar": "METAR LKMT 280630Z 34007KT 9999 OVC046 01/M02 Q1023 NOSIG",
      "taf": "TAF LKMT 280500Z 2806/2906 35010KT 9999 BKN040"
    },
    {
      "icao": "LKPR",
      "alert": "OK",
      "vis_m": 9999,
      "fzfg": false,
      "metar_trigger": false,
      "taf_trigger": false,
      "metar": "METAR LKPR 280630Z 28008KT CAVOK M01/M04 Q1027 NOSIG",
      "taf": "TAF LKPR 280500Z 2806/2912 30009KT CAVOK"
    },
    {
      "icao": "LLBG",
      "alert": "OK",
      "vis_m": 9999,
      "fzfg": false,
      "metar_trigger": false,
      "taf_trigger": false,
      "metar": "METAR LLBG 280620Z COR 29016KT 250V320 9999 RA FEW025TCU BKN035 14/10 Q1009 NOSIG",
      "taf": "TAF LLBG 280502Z 2806/2906 27013KT 9999 SCT035"
    },
    {
      "icao": "LMML",
      "alert": "OK",
      "vis_m": 9999,
      "fzfg": false,
      "metar_trigger": false,
      "taf_trigger": false,
      "metar": "METAR LMML 280645Z 07005KT 050V170 9999 FEW025 13/09 Q1019 NOSIG",
      "taf": "TAF LMML 280500Z 2806/2906 07006KT 9999 FEW020"
    },
    {
      "icao": "LOWW",
      "alert": "OK",
      "vis_m": 9999,
      "fzfg": false,
      "metar_trigger": false,
      "taf_trigger": false,
      "metar": "METAR LOWW 280620Z 32014KT 9999 FEW030 BKN036 03/M02 Q1025 NOSIG",
      "taf": "TAF LOWW 280515Z 2806/2912 31015KT 9999 SCT030 TX04/2813Z TNM04/2905Z"
    },
    {
      "icao": "LPFR",
      "alert": "OK",
      "vis_m": 9999,
      "fzfg": false,
      "metar_trigger": false,
      "taf_trigger": false,
      "metar": "METAR LPFR 280630Z 08010G22KT 060V210 9999 FEW012 FEW025CB SCT032 10/08 Q1007",
      "taf": "TAF LPFR 280500Z 2806/2906 07012KT 9999 FEW012 SCT035"
    },
    {
      "icao": "LPMA",
      "alert": "OK",
      "vis_m": 9999,
      "fzfg": false,
      "metar_trigger": false,
      "taf_trigger": false,
      "metar": "METAR LPMA 280630Z 35009KT 310V030 9999 SCT016 15/08 Q1017",
      "taf": "TAF LPMA 280500Z 2806/2906 VRB05KT 9999 SCT015"
    },
    {
      "icao": "LPPR",
      "alert": "OK",
      "vis_m": 9999,
      "fzfg": false,
      "metar_trigger": false,
      "taf_trigger": false,
      "metar": "METAR LPPR 280630Z VRB05KT CAVOK 09/04 Q1013",
      "taf": "TAF LPPR 280500Z 2806/2906 VRB02KT CAVOK"
    },
    {
      "icao": "LPPS",
      "alert": "OK",
      "vis_m": 9999,
      "fzfg": false,
      "metar_trigger": false,
      "taf_trigger": false,
      "metar": "METAR LPPS 280630Z 33014KT 9999 SCT015 15/06 Q1016",
      "taf": "TAF LPPS 280500Z 2806/2912 33013KT 9999 SCT015"
    },
    {
      "icao": "LPPT",
      "alert": "OK",
      "vis_m": 9999,
      "fzfg": false,
      "metar_trigger": false,
      "taf_trigger": false,
      "metar": "METAR LPPT 280630Z 04011KT 9999 FEW008 08/07 Q1009",
      "taf": "TAF LPPT 280500Z 2806/2912 05010KT 9999 FEW015 BKN030"
    },
    {
      "icao": "LQBK",
      "alert": "OK",
      "vis_m": 9999,
      "fzfg": false,
      "metar_trigger": false,
      "taf_trigger": false,
      "metar": "METAR LQBK 280630Z 16006KT CAVOK M02/M02 Q1024 NOSIG",
      "taf": "TAF LQBK 280500Z 2806/2906 30005KT CAVOK TX06/2813Z TNM05/2905Z"
    },
    {
      "icao": "LQSA",
      "alert": "OK",
      "vis_m": 5000,
      "fzfg": false,
      "metar_trigger": false,
      "taf_trigger": false,
      "metar": "METAR LQSA 280630Z 29008KT 5000 BR OVC008 M01/M02 Q1022 NOSIG",
      "taf": "TAF LQSA 280500Z 2806/2906 VRB02KT 9999 OVC008 TX03/2813Z TNM08/2905Z"
    },
    {
      "icao": "LQTZ",
      "alert": "OK",
      "vis_m": 7000,
      "fzfg": false,
      "metar_trigger": false,
      "taf_trigger": false,
      "metar": "METAR LQTZ 280630Z 34004KT 7000 SCT058 M01/M01 Q1023",
      "taf": "TAF LQTZ 280500Z 2806/2906 36005KT 9999 SCT030 TX02/2813Z TNM08/2905Z"
    },
    {
      "icao": "LRBC",
      "alert": "OK",
      "vis_m": 9999,
      "fzfg": false,
      "metar_trigger": false,
      "taf_trigger": false,
      "metar": "METAR LRBC 280630Z 32018KT 9999 BKN053 02/M05 Q1006",
      "taf": "TAF LRBC 280500Z 2806/2815 31020KT 9999 SCT045"
    },
    {
      "icao": "LRBS",
      "alert": "OK",
      "vis_m": 9999,
      "fzfg": false,
      "metar_trigger": false,
      "taf_trigger": false,
      "metar": "METAR LRBS 280630Z VRB03KT CAVOK M02/M03 Q1008 NOSIG",
      "taf": "TAF LRBS 280500Z 2806/2906 27009KT CAVOK"
    },
    {
      "icao": "LRBV",
      "alert": "OK",
      "vis_m": 9999,
      "fzfg": false,
      "metar_trigger": false,
      "taf_trigger": false,
      "metar": "METAR LRBV 280630Z 30013KT 9999 FEW013 BKN017 BKN022 M02/M04 Q1009",
      "taf": "TAF LRBV 280500Z 2806/2815 31018G30KT 9999 -SN BKN015 BKN020"
    },
    {
      "icao": "LRCL",
      "alert": "OK",
      "vis_m": 9999,
      "fzfg": false,
      "metar_trigger": false,
      "taf_trigger": false,
      "metar": "METAR LRCL 280630Z 30015KT 9999 FEW065 M00/M04 Q1013",
      "taf": "TAF LRCL 280500Z 2806/2815 30014KT 9999 BKN025"
    },
    {
      "icao": "LRCV",
      "alert": "OK",
      "vis_m": 9999,
      "fzfg": false,
      "metar_trigger": false,
      "taf_trigger": false,
      "metar": "METAR LRCV 280630Z 29016KT CAVOK 02/M00 Q1009",
      "taf": "TAF LRCV 280500Z 2806/2815 29015KT CAVOK"
    },
    {
      "icao": "LRIA",
      "alert": "OK",
      "vis_m": 9999,
      "fzfg": false,
      "metar_trigger": false,
      "taf_trigger": false,
      "metar": "METAR LRIA 280630Z 29018KT 9999 FEW021 02/M02 Q1005",
      "taf": "TAF LRIA 280500Z 2806/2815 31020KT 9999 BKN035"
    },
    {
      "icao": "LROP",
      "alert": "OK",
      "vis_m": 9999,
      "fzfg": false,
      "metar_trigger": false,
      "taf_trigger": false,
      "metar": "METAR LROP 280630Z 27005KT CAVOK M03/M03 Q1008 NOSIG",
      "taf": "TAF LROP 280500Z 2806/2906 27009KT CAVOK"
    },
    {
      "icao": "LRSB",
      "alert": "OK",
      "vis_m": 9999,
      "fzfg": false,
      "metar_trigger": false,
      "taf_trigger": false,
      "metar": "METAR LRSB 280630Z 32013KT 9999 FEW020 SCT034 M00/M04 Q1012 NOSIG",
      "taf": "TAF LRSB 280500Z 2806/2906 31012KT 9999 SCT010 BKN030"
    },
    {
      "icao": "LRSM",
      "alert": "OK",
      "vis_m": 9999,
      "fzfg": false,
      "metar_trigger": false,
      "taf_trigger": false,
      "metar": "METAR LRSM 280630Z 31014KT CAVOK 01/M03 Q1015",
      "taf": "TAF LRSM 280500Z 2806/2815 31015KT 9999 SCT015 BKN030"
    },
    {
      "icao": "LRSV",
      "alert": "OK",
      "vis_m": 9999,
      "fzfg": false,
      "metar_trigger": false,
      "taf_trigger": false,
      "metar": "METAR LRSV 280630Z 32021KT 9999 -SN DRSN SCT012 BKN025 00/M04 Q1005",
      "taf": "TAF LRSV 280500Z 2806/2815 32020KT 9999 BKN015 OVC025"
    },
    {
      "icao": "LRTM",
      "alert": "OK",
      "vis_m": 9999,
      "fzfg": false,
      "metar_trigger": false,
      "taf_trigger": false,
      "metar": "METAR LRTM 280630Z 29016KT 9999 FEW015 SCT021 M00/M03 Q1012",
      "taf": "TAF LRTM 280500Z 2806/2815 30014KT 9999 SCT010 BKN035"
    },
    {
      "icao": "LRTR",
      "alert": "OK",
      "vis_m": 7000,
      "fzfg": false,
      "metar_trigger": false,
      "taf_trigger": false,
      "metar": "METAR LRTR 280630Z 31008KT 7000 FEW028 M01/M01 Q1019 NOSIG",
      "taf": "TAF LRTR 280500Z 2806/2906 32010KT 9999 SCT025"
    },
    {
      "icao": "LTAC",
      "alert": "OK",
      "vis_m": 9999,
      "fzfg": false,
      "metar_trigger": false,
      "taf_trigger": false,
      "metar": "METAR LTAC 280620Z 25010KT 9999 SCT025 BKN080 M02/M05 Q1007 NOSIG RMK RWY21C 23012KT RWY03L 23010KT RWY21R 22011KT RWY03R 24010KT RWY21L 23012KT",
      "taf": "TAF LTAC 280440Z 2806/2906 VRB02KT 9999 SCT030 BKN080"
    },
    {
      "icao": "LTFM",
      "alert": "OK",
      "vis_m": 9999,
      "fzfg": false,
      "metar_trigger": false,
      "taf_trigger": false,
      "metar": "METAR LTFM 280620Z 22019KT 9999 BKN023 06/03 Q1007 NOSIG RMK RWY17L 21018KT RWY34L 21017KT RWY16R 22018KT RWY36 22017KT RWY18 22020KT",
      "taf": "TAF LTFM 280440Z 2806/2912 22020G30KT 9999 BKN022"
    },
    {
      "icao": "LUKK",
      "alert": "OK",
      "vis_m": 9999,
      "fzfg": false,
      "metar_trigger": false,
      "taf_trigger": false,
      "metar": "METAR LUKK 280630Z 33016G26KT 9999 -SN FEW019 SCT035 BKN047 01/M03 Q1002 TEMPO 34025G40KT",
      "taf": "TAF LUKK 280525Z 2806/2906 31018G28KT 9999 BKN015"
    },
    {
      "icao": "LWOH",
      "alert": "OK",
      "vis_m": 9999,
      "fzfg": false,
      "metar_trigger": false,
      "taf_trigger": false,
      "metar": "METAR LWOH 280650Z VRB02KT CAVOK M04/M06 Q1015",
      "taf": "TAF LWOH 280545Z 2806/2906 32005KT CAVOK"
    },
    {
      "icao": "LWSK",
      "alert": "OK",
      "vis_m": 9999,
      "fzfg": false,
      "metar_trigger": false,
      "taf_trigger": false,
      "metar": "METAR LWSK 280650Z 11003KT 040V140 CAVOK M03/M04 Q1015 NOSIG",
      "taf": "TAF LWSK 280545Z 2806/2906 01005KT CAVOK"
    },
    {
      "icao": "LYBE",
      "alert": "OK",
      "vis_m": 9999,
      "fzfg": false,
      "metar_trigger": false,
      "taf_trigger": false,
      "metar": "METAR LYBE 280630Z 31013KT CAVOK 01/M02 Q1021 NOSIG",
      "taf": "TAF LYBE 280500Z 2806/2906 32015KT 9999 BKN025 TX04/2812Z TNM03/2906Z"
    },
    {
      "icao": "LYNI",
      "alert": "OK",
      "vis_m": 9999,
      "fzfg": false,
      "metar_trigger": false,
      "taf_trigger": false,
      "metar": "METAR LYNI 280630Z 25005KT 160V320 9999 FEW010 SCT023 BKN030 01/M01 Q1016 BECMG 32020G35KT",
      "taf": "TAF LYNI 280500Z 2806/2906 32017KT 9999 BKN030 TX03/2812Z TNM02/2906Z"
    },
    {
      "icao": "LYPG",
      "alert": "OK",
      "vis_m": 9999,
      "fzfg": false,
      "metar_trigger": false,
      "taf_trigger": false,
      "metar": "METAR LYPG 280630Z 30002KT CAVOK M01/M03 Q1017 NOSIG",
      "taf": "TAF LYPG 280500Z 2806/2906 34005KT CAVOK TX13/2813Z TNM00/2806Z"
    },
    {
      "icao": "LZIB",
      "alert": "OK",
      "vis_m": 9999,
      "fzfg": false,
      "metar_trigger": false,
      "taf_trigger": false,
      "metar": "METAR LZIB 280630Z 31015KT 9999 FEW030 SCT048 03/M02 Q1023 WS R31 NOSIG",
      "taf": "TAF LZIB 280515Z 2806/2906 30014KT 9999 FEW045"
    },
    {
      "icao": "LZKZ",
      "alert": "OK",
      "vis_m": 9999,
      "fzfg": false,
      "metar_trigger": false,
      "taf_trigger": false,
      "metar": "METAR LZKZ 280630Z 34020G32KT CAVOK 03/M07 Q1016 NOSIG",
      "taf": "TAF LZKZ 280515Z 2806/2906 35012KT 9999 SCT045"
    },
    {
      "icao": "LZTT",
      "alert": "OK",
      "vis_m": 9999,
      "fzfg": false,
      "metar_trigger": false,
      "taf_trigger": false,
      "metar": "METAR LZTT 280630Z 27011KT 230V300 9999 FEW010 BKN050 M01/M09 Q1015 NOSIG",
      "taf": "TAF LZTT 280515Z 2806/2906 26014KT 9999 BKN050"
    },
    {
      "icao": "OEJN",
      "alert": "OK",
      "vis_m": 9999,
      "fzfg": false,
      "metar_trigger": false,
      "taf_trigger": false,
      "metar": "METAR OEJN 280600Z 03006KT CAVOK 24/17 Q1013 NOSIG",
      "taf": "TAF OEJN 280500Z 2806/2912 36006KT CAVOK"
    },
    {
      "icao": "OEMA",
      "alert": "OK",
      "vis_m": 9999,
      "fzfg": false,
      "metar_trigger": false,
      "taf_trigger": false,
      "metar": "METAR OEMA 280600Z VRB02KT CAVOK 18/01 Q1015 NOSIG",
      "taf": "TAF OEMA 280500Z 2806/2912 28010KT CAVOK"
    },
    {
      "icao": "OJAI",
      "alert": "OK",
      "vis_m": 3000,
      "fzfg": false,
      "metar_trigger": false,
      "taf_trigger": false,
      "metar": "METAR OJAI 280600Z 24014KT 3000 BR FEW025 SCT080 08/07 Q1008 NOSIG",
      "taf": "TAF OJAI 280500Z 2806/2912 29018G30KT 3000 RA BR FEW020TCU BKN025"
    },
    {
      "icao": "OMAA",
      "alert": "OK",
      "vis_m": 9999,
      "fzfg": false,
      "metar_trigger": false,
      "taf_trigger": false,
      "metar": "METAR OMAA 280600Z 13011KT CAVOK 22/11 Q1015 NOSIG",
      "taf": "TAF OMAA 280500Z 2806/2912 16012KT 8000 NSC"
    },
    {
      "icao": "OMDB",
      "alert": "OK",
      "vis_m": 9000,
      "fzfg": false,
      "metar_trigger": false,
      "taf_trigger": false,
      "metar": "METAR OMDB 280630Z 14006KT 9000 NSC 24/13 Q1015 NOSIG",
      "taf": "TAF OMDB 280500Z 2806/2912 18008KT 8000 NSC"
    },
    {
      "icao": "UAAA",
      "alert": "OK",
      "vis_m": 1900,
      "fzfg": false,
      "metar_trigger": false,
      "taf_trigger": false,
      "metar": "METAR UAAA 280630Z VRB01MPS 1900 R23L/1900U BR OVC003 M02/M02 Q1015 NOSIG RMK QBB100",
      "taf": "TAF UAAA 280508Z 2806/2906 28003MPS 3100 BR BKN011 OVC100 TX01/2809Z TNM03/2901Z"
    },
    {
      "icao": "UBBB",
      "alert": "OK",
      "vis_m": 9999,
      "fzfg": false,
      "metar_trigger": false,
      "taf_trigger": false,
      "metar": "METAR UBBB 280630Z 33014KT 9999 -RA SCT013 OVC029 06/04 Q1005 NOSIG",
      "taf": "TAF UBBB 280502Z 2806/2906 33018G28KT 9999 SCT012 BKN020 TX06/2808Z TN02/2902Z"
    },
    {
      "icao": "UDSG",
      "alert": "OK",
      "vis_m": 9999,
      "fzfg": false,
      "metar_trigger": false,
      "taf_trigger": false,
      "metar": "METAR UDSG 280630Z 20001KT 9999 SCT049 M07/M11 Q1002 NOSIG",
      "taf": "TAF UDSG 280500Z 2806/2906 VRB06KT 5000 BR BKN030"
    },
    {
      "icao": "UDYZ",
      "alert": "OK",
      "vis_m": 9999,
      "fzfg": false,
      "metar_trigger": false,
      "taf_trigger": false,
      "metar": "METAR UDYZ 280630Z 00000KT 9999 BKN046 M01/M02 Q1003 NOSIG",
      "taf": "TAF UDYZ 280500Z 2806/2906 24006KT 6000 SCT040"
    },
    {
      "icao": "UGKO",
      "alert": "OK",
      "vis_m": 5000,
      "fzfg": false,
      "metar_trigger": false,
      "taf_trigger": false,
      "metar": "METAR UGKO 280630Z VRB02KT 5000 BR SCT008 BKN011CB OVC042 01/01 Q1007 NOSIG",
      "taf": "TAF UGKO 280500Z 2806/2906 09007KT 9999 SCT015 OVC045 TX04/2811Z TNM01/2904Z"
    }
  ]
}