{
  "ts_utc": "2026-02-27T09:27:20Z",
  "threshold_m": 150,
  "source": "stations_override.txt (ICAO list) + aviationweather.gov (METAR/TAF raw)",
  "station_count": 159,
  "stations": [
    {
      "icao": "BIKF",
      "alert": "OK",
      "vis_m": 9999,
      "fzfg": false,
      "metar_trigger": false,
      "taf_trigger": false,
      "metar": "METAR BIKF 270900Z 26024G34KT 9999 VCSH FEW004CB SCT018 BKN041 M05/M08 Q0988",
      "taf": "TAF BIKF 270754Z 2709/2809 25020G30KT 9999 SCT015 BKN025 TX01/2716Z TNM04/2709Z"
    },
    {
      "icao": "BKPR",
      "alert": "OK",
      "vis_m": null,
      "fzfg": false,
      "metar_trigger": false,
      "taf_trigger": false,
      "metar": "",
      "taf": "TAF BKPR 270530Z 2706/2806 VRB03KT 3000 BR FEW030"
    },
    {
      "icao": "EBCI",
      "alert": "OK",
      "vis_m": 9999,
      "fzfg": false,
      "metar_trigger": false,
      "taf_trigger": false,
      "metar": "METAR EBCI 270920Z 19015KT CAVOK 13/08 Q1015 NOSIG",
      "taf": "TAF EBCI 270511Z 2706/2812 20011KT 9999 FEW012 SCT020"
    },
    {
      "icao": "EDDB",
      "alert": "OK",
      "vis_m": 9999,
      "fzfg": false,
      "metar_trigger": false,
      "taf_trigger": false,
      "metar": "METAR EDDB 270920Z AUTO 19006KT CAVOK 12/09 Q1019 NOSIG",
      "taf": "TAF EDDB 270500Z 2706/2806 18006KT CAVOK"
    },
    {
      "icao": "EDDH",
      "alert": "OK",
      "vis_m": 9999,
      "fzfg": false,
      "metar_trigger": false,
      "taf_trigger": false,
      "metar": "METAR EDDH 270920Z AUTO 22014KT 9999 FEW017 13/09 Q1015 NOSIG",
      "taf": "TAF EDDH 270500Z 2706/2812 18007KT 9999 FEW025"
    },
    {
      "icao": "EDDK",
      "alert": "OK",
      "vis_m": 9999,
      "fzfg": false,
      "metar_trigger": false,
      "taf_trigger": false,
      "metar": "METAR EDDK 270920Z AUTO 12006KT 090V150 CAVOK 14/09 Q1017 NOSIG",
      "taf": "TAF EDDK 270506Z 2706/2812 14006KT CAVOK"
    },
    {
      "icao": "EDDN",
      "alert": "OK",
      "vis_m": 9999,
      "fzfg": false,
      "metar_trigger": false,
      "taf_trigger": false,
      "metar": "METAR EDDN 270920Z AUTO 13008KT CAVOK 09/06 Q1022 NOSIG",
      "taf": ""
    },
    {
      "icao": "EDDS",
      "alert": "OK",
      "vis_m": 9999,
      "fzfg": false,
      "metar_trigger": false,
      "taf_trigger": false,
      "metar": "METAR EDDS 270920Z AUTO VRB01KT CAVOK 12/08 Q1021 NOSIG",
      "taf": "TAF EDDS 270500Z 2706/2806 VRB02KT CAVOK"
    },
    {
      "icao": "EDFH",
      "alert": "OK",
      "vis_m": 9999,
      "fzfg": false,
      "metar_trigger": false,
      "taf_trigger": false,
      "metar": "METAR EDFH 270920Z 22006KT 170V290 CAVOK 13/07 Q1019",
      "taf": ""
    },
    {
      "icao": "EDJA",
      "alert": "OK",
      "vis_m": 9999,
      "fzfg": false,
      "metar_trigger": false,
      "taf_trigger": false,
      "metar": "METAR EDJA 270920Z 20007KT CAVOK 11/03 Q1023",
      "taf": "TAF EDJA 270800Z 2709/2718 21004KT CAVOK"
    },
    {
      "icao": "EDLW",
      "alert": "OK",
      "vis_m": 9999,
      "fzfg": false,
      "metar_trigger": false,
      "taf_trigger": false,
      "metar": "METAR EDLW 270920Z 19013KT CAVOK 15/09 Q1015",
      "taf": "TAF EDLW 270500Z 2706/2806 19011KT CAVOK"
    },
    {
      "icao": "EDNY",
      "alert": "OK",
      "vis_m": 9999,
      "fzfg": false,
      "metar_trigger": false,
      "taf_trigger": false,
      "metar": "METAR EDNY 270920Z VRB01KT CAVOK 11/03 Q1023",
      "taf": "TAF EDNY 270800Z 2709/2718 VRB03KT CAVOK"
    },
    {
      "icao": "EDSB",
      "alert": "OK",
      "vis_m": 9999,
      "fzfg": false,
      "metar_trigger": false,
      "taf_trigger": false,
      "metar": "METAR EDSB 270920Z 22004KT 160V280 CAVOK 11/08 Q1021",
      "taf": "TAF EDSB 270500Z 2706/2806 VRB02KT CAVOK"
    },
    {
      "icao": "EETN",
      "alert": "OK",
      "vis_m": 1100,
      "fzfg": false,
      "metar_trigger": false,
      "taf_trigger": false,
      "metar": "METAR EETN 270920Z 21011KT 1100 R26/1400D BR OVC002 03/03 Q1010 TEMPO 0800 FG",
      "taf": "TAF EETN 270530Z 2706/2806 21012KT 1500 DZ BR OVC003"
    },
    {
      "icao": "EFTU",
      "alert": "OK",
      "vis_m": 3300,
      "fzfg": false,
      "metar_trigger": false,
      "taf_trigger": false,
      "metar": "METAR EFTU 270920Z AUTO 22008KT 3300 -SHRA OVC001 03/03 Q1006",
      "taf": ""
    },
    {
      "icao": "EGBB",
      "alert": "OK",
      "vis_m": 2000,
      "fzfg": false,
      "metar_trigger": false,
      "taf_trigger": false,
      "metar": "METAR EGBB 270920Z 18004KT 140V220 2000 -DZ OVC008 11/10 Q1006",
      "taf": ""
    },
    {
      "icao": "EGGP",
      "alert": "OK",
      "vis_m": 7000,
      "fzfg": false,
      "metar_trigger": false,
      "taf_trigger": false,
      "metar": "METAR EGGP 270920Z VRB02KT 7000 SCT002 BKN006 BKN017 08/07 Q1008",
      "taf": "TAF EGGP 270458Z 2706/2806 19006KT 9999 SCT030"
    },
    {
      "icao": "EGGW",
      "alert": "OK",
      "vis_m": 4000,
      "fzfg": false,
      "metar_trigger": false,
      "taf_trigger": false,
      "metar": "METAR EGGW 270920Z AUTO 19009KT 4000 BR OVC003 10/09 Q1008",
      "taf": "TAF EGGW 270455Z 2706/2806 20012KT 9999 BKN012"
    },
    {
      "icao": "EGKK",
      "alert": "OK",
      "vis_m": 4500,
      "fzfg": false,
      "metar_trigger": false,
      "taf_trigger": false,
      "metar": "METAR EGKK 270920Z 21009KT 4500 -DZ BKN006 11/10 Q1010",
      "taf": "TAF EGKK 270458Z 2706/2812 21015G25KT 9999 BKN012"
    },
    {
      "icao": "EGNM",
      "alert": "OK",
      "vis_m": 9999,
      "fzfg": false,
      "metar_trigger": false,
      "taf_trigger": false,
      "metar": "METAR EGNM 270920Z 29006KT 9999 FEW018 SCT040 08/06 Q1007",
      "taf": "TAF EGNM 270458Z 2706/2806 24005KT 9999 BKN020"
    },
    {
      "icao": "EGPD",
      "alert": "OK",
      "vis_m": 9999,
      "fzfg": false,
      "metar_trigger": false,
      "taf_trigger": false,
      "metar": "METAR EGPD 270920Z COR AUTO 25005KT 190V280 9999 NCD 08/02 Q1005 NOSIG",
      "taf": "TAF EGPD 270456Z 2706/2806 22006KT 9999 FEW040"
    },
    {
      "icao": "EGPF",
      "alert": "OK",
      "vis_m": 9999,
      "fzfg": false,
      "metar_trigger": false,
      "taf_trigger": false,
      "metar": "METAR EGPF 270920Z AUTO 26008KT 9999 NCD 08/06 Q1007",
      "taf": "TAF EGPF 270458Z 2706/2806 24005KT 9999 SCT035"
    },
    {
      "icao": "EHBK",
      "alert": "OK",
      "vis_m": 9999,
      "fzfg": false,
      "metar_trigger": false,
      "taf_trigger": false,
      "metar": "METAR EHBK 270855Z AUTO 19012KT 9999 NCD 14/09 Q1015 NOSIG",
      "taf": "TAF EHBK 270518Z 2706/2812 21014KT CAVOK"
    },
    {
      "icao": "EHEH",
      "alert": "OK",
      "vis_m": 9999,
      "fzfg": false,
      "metar_trigger": false,
      "taf_trigger": false,
      "metar": "METAR EHEH 270855Z AUTO 19008KT 9999 NCD 13/09 Q1014 BLU NOSIG RMK TREND REMOTE BY EHWX",
      "taf": "TAF EHEH 270531Z 2706/2812 18005KT CAVOK"
    },
    {
      "icao": "EKBI",
      "alert": "OK",
      "vis_m": 2700,
      "fzfg": false,
      "metar_trigger": false,
      "taf_trigger": false,
      "metar": "METAR EKBI 270920Z AUTO 22011KT 2700 -RA BR OVC003/// 07/07 Q1010",
      "taf": "TAF EKBI 270827Z 2709/2809 20010KT 6000 -RADZ BKN006"
    },
    {
      "icao": "EKCH",
      "alert": "OK",
      "vis_m": 9000,
      "fzfg": false,
      "metar_trigger": false,
      "taf_trigger": false,
      "metar": "METAR EKCH 270920Z AUTO 19012KT 9000 BKN021/// BKN031/// BKN120/// 06/05 Q1013 TEMPO BKN014",
      "taf": "TAF EKCH 270827Z 2709/2809 21010KT 8000 BKN030"
    },
    {
      "icao": "ENAL",
      "alert": "OK",
      "vis_m": 9999,
      "fzfg": false,
      "metar_trigger": false,
      "taf_trigger": false,
      "metar": "METAR ENAL 270920Z 20013KT 9999 SCT032 BKN045 08/02 Q0995",
      "taf": "TAF ENAL 270800Z 2709/2718 20008KT 9999 SCT030 BKN045"
    },
    {
      "icao": "ENBR",
      "alert": "OK",
      "vis_m": 9999,
      "fzfg": false,
      "metar_trigger": false,
      "taf_trigger": false,
      "metar": "METAR ENBR 270920Z 15012KT 9999 SCT007 BKN011 06/05 Q1002 TEMPO BKN007 RMK WIND 1200FT 19015KT",
      "taf": "TAF ENBR 270500Z 2706/2806 18015KT 9999 SCT005 BKN010"
    },
    {
      "icao": "ENGM",
      "alert": "OK",
      "vis_m": 550,
      "fzfg": false,
      "metar_trigger": false,
      "taf_trigger": false,
      "metar": "METAR ENGM 270920Z 19008KT 0550 R19R/1600D R01R/0400N R19L/0500N R01L/0900U FG VV002 02/01 Q1003 NOSIG",
      "taf": "TAF ENGM 270500Z 2706/2806 17010KT 0300 FG VV001"
    },
    {
      "icao": "ENHD",
      "alert": "OK",
      "vis_m": 8000,
      "fzfg": false,
      "metar_trigger": false,
      "taf_trigger": false,
      "metar": "METAR ENHD 270920Z 19010KT 8000 FEW004 07/06 Q1003",
      "taf": "TAF ENHD 270800Z 2709/2718 18008KT 9999 FEW004 SCT030"
    },
    {
      "icao": "ENTC",
      "alert": "OK",
      "vis_m": 9999,
      "fzfg": false,
      "metar_trigger": false,
      "taf_trigger": false,
      "metar": "METAR ENTC 270920Z 18009KT 9999 SCT046 BKN056 M01/M07 Q0997 NOSIG RMK WIND 2600FT 17020KT",
      "taf": "TAF ENTC 270500Z 2706/2806 18008KT 9999 SCT040"
    },
    {
      "icao": "ENTO",
      "alert": "OK",
      "vis_m": 250,
      "fzfg": false,
      "metar_trigger": false,
      "taf_trigger": false,
      "metar": "METAR ENTO 270920Z 20008KT 0250 R18/0450N R36/0550N FG VV002 03/03 Q1004 NOSIG",
      "taf": "TAF ENTO 270500Z 2706/2806 20010KT 0100 FG VV001"
    },
    {
      "icao": "ENVA",
      "alert": "OK",
      "vis_m": 9999,
      "fzfg": false,
      "metar_trigger": false,
      "taf_trigger": false,
      "metar": "METAR ENVA 270920Z 08004KT 020V120 9999 VCSH FEW040 03/01 Q0996 NOSIG RMK WIND 670FT 18008KT",
      "taf": "TAF ENVA 270500Z 2706/2806 09005KT 9999 FEW030 BKN040"
    },
    {
      "icao": "ENZV",
      "alert": "OK",
      "vis_m": 9999,
      "fzfg": false,
      "metar_trigger": false,
      "taf_trigger": false,
      "metar": "METAR ENZV 270920Z 18008KT 9999 VCSH SCT007 BKN043 07/06 Q1005 NOSIG",
      "taf": ""
    },
    {
      "icao": "EPGD",
      "alert": "OK",
      "vis_m": 9999,
      "fzfg": false,
      "metar_trigger": false,
      "taf_trigger": false,
      "metar": "METAR EPGD 270900Z 23008KT CAVOK 06/04 Q1017",
      "taf": "TAF EPGD 270530Z 2706/2806 22008KT CAVOK"
    },
    {
      "icao": "EPKK",
      "alert": "OK",
      "vis_m": 9999,
      "fzfg": false,
      "metar_trigger": false,
      "taf_trigger": false,
      "metar": "METAR EPKK 270900Z VRB01KT CAVOK 07/M00 Q1025",
      "taf": "TAF EPKK 270830Z 2709/2809 VRB02KT CAVOK"
    },
    {
      "icao": "EPKT",
      "alert": "OK",
      "vis_m": 9999,
      "fzfg": false,
      "metar_trigger": false,
      "taf_trigger": false,
      "metar": "METAR EPKT 270900Z 22009KT CAVOK 08/01 Q1024",
      "taf": "TAF EPKT 270530Z 2706/2806 20010KT CAVOK"
    },
    {
      "icao": "EPLB",
      "alert": "OK",
      "vis_m": 9999,
      "fzfg": false,
      "metar_trigger": false,
      "taf_trigger": false,
      "metar": "METAR EPLB 270900Z 21007KT CAVOK 05/M01 Q1026",
      "taf": "TAF EPLB 270530Z 2706/2806 13005KT CAVOK"
    },
    {
      "icao": "EPMO",
      "alert": "OK",
      "vis_m": 9999,
      "fzfg": false,
      "metar_trigger": false,
      "taf_trigger": false,
      "metar": "METAR EPMO 270900Z 17008KT CAVOK 05/01 Q1022",
      "taf": "TAF EPMO 270530Z 2706/2806 14006KT CAVOK"
    },
    {
      "icao": "EPPO",
      "alert": "OK",
      "vis_m": 9999,
      "fzfg": false,
      "metar_trigger": false,
      "taf_trigger": false,
      "metar": "METAR EPPO 270900Z 20008KT CAVOK 08/04 Q1021",
      "taf": "TAF EPPO 270530Z 2706/2806 19006KT CAVOK"
    },
    {
      "icao": "EPRA",
      "alert": "OK",
      "vis_m": 9999,
      "fzfg": false,
      "metar_trigger": false,
      "taf_trigger": false,
      "metar": "METAR EPRA 270900Z 16009KT CAVOK 06/M00 Q1024",
      "taf": "TAF EPRA 270830Z 2709/2718 17010KT CAVOK"
    },
    {
      "icao": "EPRZ",
      "alert": "OK",
      "vis_m": 9999,
      "fzfg": false,
      "metar_trigger": false,
      "taf_trigger": false,
      "metar": "METAR EPRZ 270900Z 19011KT CAVOK 06/M03 Q1026",
      "taf": "TAF EPRZ 270530Z 2706/2806 VRB02KT CAVOK"
    },
    {
      "icao": "EPSC",
      "alert": "OK",
      "vis_m": 9999,
      "fzfg": false,
      "metar_trigger": false,
      "taf_trigger": false,
      "metar": "METAR EPSC 270900Z 15004KT CAVOK 07/07 Q1018",
      "taf": ""
    },
    {
      "icao": "EPSY",
      "alert": "OK",
      "vis_m": 9999,
      "fzfg": false,
      "metar_trigger": false,
      "taf_trigger": false,
      "metar": "METAR EPSY 270900Z 18007KT CAVOK 03/M01 Q1021",
      "taf": "TAF EPSY 270830Z 2709/2718 19008KT CAVOK"
    },
    {
      "icao": "EPWA",
      "alert": "OK",
      "vis_m": 9999,
      "fzfg": false,
      "metar_trigger": false,
      "taf_trigger": false,
      "metar": "METAR EPWA 270900Z 17007KT CAVOK 05/01 Q1023 NOSIG",
      "taf": "TAF EPWA 270830Z 2709/2809 18008KT CAVOK"
    },
    {
      "icao": "EPWR",
      "alert": "OK",
      "vis_m": 9999,
      "fzfg": false,
      "metar_trigger": false,
      "taf_trigger": false,
      "metar": "METAR EPWR 270900Z 12005KT CAVOK 09/05 Q1022",
      "taf": "TAF EPWR 270830Z 2709/2809 13005KT CAVOK"
    },
    {
      "icao": "ESGG",
      "alert": "OK",
      "vis_m": 4000,
      "fzfg": false,
      "metar_trigger": false,
      "taf_trigger": false,
      "metar": "METAR ESGG 270920Z 20011KT 4000 -RA VV003 04/04 Q1008",
      "taf": "TAF ESGG 270830Z 2709/2809 19010KT 2000 BR OVC003"
    },
    {
      "icao": "ESKN",
      "alert": "OK",
      "vis_m": 9999,
      "fzfg": false,
      "metar_trigger": false,
      "taf_trigger": false,
      "metar": "METAR ESKN 270920Z 22010KT 9999 BKN013 08/06 Q1007",
      "taf": "TAF ESKN 270830Z 2709/2809 22009KT 9999 OVC015"
    },
    {
      "icao": "ESMS",
      "alert": "OK",
      "vis_m": 8000,
      "fzfg": false,
      "metar_trigger": false,
      "taf_trigger": false,
      "metar": "METAR ESMS 270920Z 21013KT 8000 FEW009 SCT022 07/07 Q1013",
      "taf": "TAF ESMS 270827Z 2709/2809 20010KT 8000 BKN015"
    },
    {
      "icao": "ESSA",
      "alert": "OK",
      "vis_m": 9999,
      "fzfg": false,
      "metar_trigger": false,
      "taf_trigger": false,
      "metar": "METAR ESSA 270920Z 23011KT 9999 BKN011 06/05 Q1006 NOSIG",
      "taf": "TAF ESSA 270830Z 2709/2809 22009KT 9999 OVC008"
    },
    {
      "icao": "EYKA",
      "alert": "OK",
      "vis_m": 9999,
      "fzfg": false,
      "metar_trigger": false,
      "taf_trigger": false,
      "metar": "METAR EYKA 270920Z 19007KT 150V240 CAVOK 02/M03 Q1021",
      "taf": "TAF EYKA 270506Z 2706/2806 18010KT 9000 NSC"
    },
    {
      "icao": "EYPA",
      "alert": "OK",
      "vis_m": 9999,
      "fzfg": false,
      "metar_trigger": false,
      "taf_trigger": false,
      "metar": "METAR EYPA 270920Z 18012KT 9999 FEW031 04/00 Q1017",
      "taf": "TAF EYPA 270506Z 2706/2806 19013KT 8000 SCT015 BKN030"
    },
    {
      "icao": "EYVI",
      "alert": "OK",
      "vis_m": 9999,
      "fzfg": false,
      "metar_trigger": false,
      "taf_trigger": false,
      "metar": "METAR EYVI 270920Z 18013KT CAVOK 01/M03 Q1022 NOSIG",
      "taf": "TAF EYVI 270503Z 2706/2806 18013KT 9000 NSC"
    },
    {
      "icao": "GCFV",
      "alert": "OK",
      "vis_m": 8000,
      "fzfg": false,
      "metar_trigger": false,
      "taf_trigger": false,
      "metar": "METAR GCFV 270900Z 36026KT 8000 SCT030 21/11 Q1017",
      "taf": "TAF GCFV 270800Z 2709/2809 01022KT 9999 FEW020 TX24/2714Z TN15/2806Z"
    },
    {
      "icao": "GCLP",
      "alert": "OK",
      "vis_m": 9000,
      "fzfg": false,
      "metar_trigger": false,
      "taf_trigger": false,
      "metar": "METAR GCLP 270900Z 36022G33KT 9000 SCT019 19/15 Q1019 NOSIG",
      "taf": "TAF GCLP 270800Z 2709/2809 36025KT 9999 FEW020 TX22/2714Z TN15/2806Z"
    },
    {
      "icao": "GCTS",
      "alert": "OK",
      "vis_m": 7000,
      "fzfg": false,
      "metar_trigger": false,
      "taf_trigger": false,
      "metar": "METAR GCTS 270900Z 08018KT 7000 NSC 21/12 Q1019 NOSIG",
      "taf": "TAF GCTS 270800Z 2709/2809 08025KT 9999 FEW030 TX27/2714Z TN16/2806Z"
    },
    {
      "icao": "GMAD",
      "alert": "OK",
      "vis_m": 6000,
      "fzfg": false,
      "metar_trigger": false,
      "taf_trigger": false,
      "metar": "METAR GMAD 270900Z 04011KT 6000 NSC 21/M02 Q1017 NOSIG",
      "taf": "TAF GMAD 270500Z 2706/2812 10010KT 6000 NSC"
    },
    {
      "icao": "GMMN",
      "alert": "OK",
      "vis_m": 2000,
      "fzfg": false,
      "metar_trigger": false,
      "taf_trigger": false,
      "metar": "METAR GMMN 270900Z 33005KT 300V010 2000 BR OVC001 15/14 Q1021 BECMG 5000 SCT003",
      "taf": "TAF GMMN 270500Z 2706/2812 VRB02KT 5000 NSC"
    },
    {
      "icao": "GMMX",
      "alert": "OK",
      "vis_m": 8000,
      "fzfg": false,
      "metar_trigger": false,
      "taf_trigger": false,
      "metar": "METAR GMMX 270900Z VRB02KT 8000 BKN080 SCT200 15/07 Q1020 NOSIG",
      "taf": "TAF GMMX 270500Z 2706/2812 06006KT 8000 SCT090"
    },
    {
      "icao": "HEGN",
      "alert": "OK",
      "vis_m": 9999,
      "fzfg": false,
      "metar_trigger": false,
      "taf_trigger": false,
      "metar": "METAR HEGN 270800Z 31018KT CAVOK 18/04 Q1017 NOSIG",
      "taf": "TAF HEGN 270500Z 2706/2812 35018KT CAVOK"
    },
    {
      "icao": "HEMA",
      "alert": "OK",
      "vis_m": 9999,
      "fzfg": false,
      "metar_trigger": false,
      "taf_trigger": false,
      "metar": "METAR HEMA 270800Z 32012KT CAVOK 20/08 Q1016 NOSIG",
      "taf": "TAF HEMA 270500Z 2706/2812 36018KT CAVOK"
    },
    {
      "icao": "HESH",
      "alert": "OK",
      "vis_m": 9999,
      "fzfg": false,
      "metar_trigger": false,
      "taf_trigger": false,
      "metar": "METAR HESH 270800Z 35016KT CAVOK 19/02 Q1015 NOSIG",
      "taf": "TAF HESH 270500Z 2706/2812 03015KT CAVOK"
    },
    {
      "icao": "HESX",
      "alert": "OK",
      "vis_m": 9999,
      "fzfg": false,
      "metar_trigger": false,
      "taf_trigger": false,
      "metar": "METAR HESX 270800Z 28005KT CAVOK 12/06 Q1019 NOSIG",
      "taf": ""
    },
    {
      "icao": "LATI",
      "alert": "OK",
      "vis_m": 9999,
      "fzfg": false,
      "metar_trigger": false,
      "taf_trigger": false,
      "metar": "METAR LATI 270920Z 15003KT 080V210 CAVOK 16/00 Q1027 NOSIG",
      "taf": "TAF LATI 270500Z 2706/2806 VRB05KT CAVOK TX19/2712Z TN03/2805Z"
    },
    {
      "icao": "LBPD",
      "alert": "OK",
      "vis_m": 9999,
      "fzfg": false,
      "metar_trigger": false,
      "taf_trigger": false,
      "metar": "METAR LBPD 270900Z AUTO VRB03KT 9999 FEW020/// 05/M00 Q1030 NOSIG",
      "taf": "TAF LBPD 270500Z 2706/2806 VRB04KT 9999 SCT050"
    },
    {
      "icao": "LBSF",
      "alert": "OK",
      "vis_m": 9999,
      "fzfg": false,
      "metar_trigger": false,
      "taf_trigger": false,
      "metar": "METAR LBSF 270900Z VRB02KT CAVOK 03/M01 Q1028 NOSIG",
      "taf": "TAF LBSF 270500Z 2706/2806 VRB04KT CAVOK"
    },
    {
      "icao": "LBWN",
      "alert": "OK",
      "vis_m": 9999,
      "fzfg": false,
      "metar_trigger": false,
      "taf_trigger": false,
      "metar": "METAR LBWN 270900Z 33009KT 300V020 9999 OVC020 02/M02 Q1031 NOSIG",
      "taf": "TAF LBWN 270500Z 2706/2806 VRB04KT 9999 SCT040"
    },
    {
      "icao": "LCLK",
      "alert": "OK",
      "vis_m": 9999,
      "fzfg": false,
      "metar_trigger": false,
      "taf_trigger": false,
      "metar": "METAR LCLK 270900Z 35020KT 9999 FEW020 14/M01 Q1016 NOSIG",
      "taf": "TAF LCLK 270530Z 2706/2806 35016KT 9999 FEW025"
    },
    {
      "icao": "LCPH",
      "alert": "OK",
      "vis_m": 9999,
      "fzfg": false,
      "metar_trigger": false,
      "taf_trigger": false,
      "metar": "METAR LCPH 270900Z 34008KT 310V020 9999 FEW030 BKN060 15/00 Q1017 NOSIG",
      "taf": "TAF LCPH 270530Z 2706/2806 02009KT 9999 FEW030"
    },
    {
      "icao": "LEAL",
      "alert": "OK",
      "vis_m": 9999,
      "fzfg": false,
      "metar_trigger": false,
      "taf_trigger": false,
      "metar": "METAR LEAL 270900Z 03004KT 350V070 9999 FEW012 14/11 Q1025 NOSIG",
      "taf": "TAF LEAL 270500Z 2706/2806 VRB04KT CAVOK TX19/2712Z TN06/2706Z"
    },
    {
      "icao": "LEBB",
      "alert": "OK",
      "vis_m": 9999,
      "fzfg": false,
      "metar_trigger": false,
      "taf_trigger": false,
      "metar": "METAR LEBB 270900Z 29006KT 250V310 9999 BKN009 13/11 Q1022 TEMPO SCT007",
      "taf": ""
    },
    {
      "icao": "LEBL",
      "alert": "OK",
      "vis_m": 3500,
      "fzfg": false,
      "metar_trigger": false,
      "taf_trigger": false,
      "metar": "METAR LEBL 270900Z 33003KT 270V020 3500 BR BKN007 10/09 Q1025 BECMG 5000 BR BKN015",
      "taf": "TAF LEBL 270500Z 2706/2806 VRB03KT 9999 FEW015 TX17/2713Z TN07/2706Z"
    },
    {
      "icao": "LECH",
      "alert": "OK",
      "vis_m": 9000,
      "fzfg": false,
      "metar_trigger": false,
      "taf_trigger": false,
      "metar": "METAR LECH 270900Z AUTO VRB02KT 9000 NCD 10/05 Q1025",
      "taf": ""
    },
    {
      "icao": "LEMD",
      "alert": "OK",
      "vis_m": 9999,
      "fzfg": false,
      "metar_trigger": false,
      "taf_trigger": false,
      "metar": "METAR LEMD 270900Z VRB02KT CAVOK 08/02 Q1024 NOSIG",
      "taf": "TAF LEMD 270500Z 2706/2812 VRB04KT CAVOK TX20/2715Z TN02/2706Z"
    },
    {
      "icao": "LEMG",
      "alert": "OK",
      "vis_m": 9999,
      "fzfg": false,
      "metar_trigger": false,
      "taf_trigger": false,
      "metar": "METAR LEMG 270900Z 30005KT 9999 BKN027 10/09 Q1025 NOSIG",
      "taf": "TAF LEMG 270500Z 2706/2806 29004KT 9999 FEW010 BKN020 TX20/2714Z TN08/2707Z"
    },
    {
      "icao": "LEVC",
      "alert": "OK",
      "vis_m": 9999,
      "fzfg": false,
      "metar_trigger": false,
      "taf_trigger": false,
      "metar": "METAR LEVC 270900Z 32004KT 280V350 CAVOK 10/05 Q1025 NOSIG",
      "taf": "TAF LEVC 270500Z 2706/2806 VRB04KT CAVOK TX20/2712Z TN05/2706Z"
    },
    {
      "icao": "LEXJ",
      "alert": "OK",
      "vis_m": 4900,
      "fzfg": false,
      "metar_trigger": false,
      "taf_trigger": false,
      "metar": "METAR LEXJ 270900Z 23005KT 200V270 4900 R29///// BR BKN013 10/08 Q1021",
      "taf": "TAF LEXJ 270800Z 2709/2809 22007KT 9999 SCT020 BKN040 TX17/2711Z TN08/2807Z"
    },
    {
      "icao": "LEZG",
      "alert": "OK",
      "vis_m": 9999,
      "fzfg": false,
      "metar_trigger": false,
      "taf_trigger": false,
      "metar": "METAR LEZG 270900Z 10006KT 070V130 CAVOK 10/07 Q1024 NOSIG",
      "taf": "TAF LEZG 270500Z 2706/2806 11009KT CAVOK TX20/2715Z TN06/2706Z"
    },
    {
      "icao": "LEZL",
      "alert": "OK",
      "vis_m": 9999,
      "fzfg": false,
      "metar_trigger": false,
      "taf_trigger": false,
      "metar": "METAR LEZL 270900Z 04006KT CAVOK 13/10 Q1023 NOSIG",
      "taf": "TAF LEZL 270800Z 2709/2809 05005KT CAVOK TX24/2715Z TN10/2807Z"
    },
    {
      "icao": "LFBD",
      "alert": "OK",
      "vis_m": 9999,
      "fzfg": false,
      "metar_trigger": false,
      "taf_trigger": false,
      "metar": "METAR LFBD 270900Z AUTO VRB03KT 3300 0650 R23/1300U R05/0900D R29/1600U BCFG VV/// 11/10 Q1020 BECMG CAVOK",
      "taf": ""
    },
    {
      "icao": "LFLL",
      "alert": "OK",
      "vis_m": 9999,
      "fzfg": false,
      "metar_trigger": false,
      "taf_trigger": false,
      "metar": "METAR LFLL 270900Z 15013KT CAVOK 13/07 Q1023 NOSIG",
      "taf": "TAF LFLL 270500Z 2706/2812 17008KT CAVOK"
    },
    {
      "icao": "LFLS",
      "alert": "OK",
      "vis_m": 9999,
      "fzfg": false,
      "metar_trigger": false,
      "taf_trigger": false,
      "metar": "METAR LFLS 270900Z AUTO 23007KT 200V270 9999 BKN018 11/08 Q1024 NOSIG",
      "taf": "TAF LFLS 270800Z 2709/2809 VRB02KT 9999 FEW020"
    },
    {
      "icao": "LFMN",
      "alert": "OK",
      "vis_m": 9999,
      "fzfg": false,
      "metar_trigger": false,
      "taf_trigger": false,
      "metar": "METAR LFMN 270900Z 33009KT 9999 BKN033 13/07 Q1027 NOSIG",
      "taf": "TAF LFMN 270800Z 2709/2815 34005KT 9999 BKN030"
    },
    {
      "icao": "LFOB",
      "alert": "OK",
      "vis_m": 9999,
      "fzfg": false,
      "metar_trigger": false,
      "taf_trigger": false,
      "metar": "METAR LFOB 270900Z AUTO 21010KT 9999 SCT013 BKN140 OVC160 10/09 Q1016 NOSIG",
      "taf": ""
    },
    {
      "icao": "LFPO",
      "alert": "OK",
      "vis_m": 9999,
      "fzfg": false,
      "metar_trigger": false,
      "taf_trigger": false,
      "metar": "METAR LFPO 270900Z 20008KT 9999 FEW013 SCT130 12/09 Q1017 NOSIG",
      "taf": ""
    },
    {
      "icao": "LFSB",
      "alert": "OK",
      "vis_m": 9999,
      "fzfg": false,
      "metar_trigger": false,
      "taf_trigger": false,
      "metar": "METAR LFSB 270900Z AUTO 17007KT CAVOK 12/07 Q1022 NOSIG",
      "taf": "TAF LFSB 270500Z 2706/2806 17005KT CAVOK"
    },
    {
      "icao": "LGAV",
      "alert": "OK",
      "vis_m": 9999,
      "fzfg": false,
      "metar_trigger": false,
      "taf_trigger": false,
      "metar": "METAR LGAV 270920Z 03010KT 9999 FEW025 SCT040 11/03 Q1028 NOSIG",
      "taf": "TAF LGAV 270500Z 2706/2806 03016KT 9999 BKN025"
    },
    {
      "icao": "LGTS",
      "alert": "OK",
      "vis_m": 9999,
      "fzfg": false,
      "metar_trigger": false,
      "taf_trigger": false,
      "metar": "METAR LGTS 270920Z 29005KT 9999 SCT025 11/06 Q1029 NOSIG",
      "taf": "TAF LGTS 270500Z 2706/2806 14010KT 9999 SCT030"
    },
    {
      "icao": "LHBP",
      "alert": "OK",
      "vis_m": 9999,
      "fzfg": false,
      "metar_trigger": false,
      "taf_trigger": false,
      "metar": "METAR LHBP 270900Z 14005KT 110V180 CAVOK 07/M02 Q1029 NOSIG",
      "taf": "TAF LHBP 270515Z 2706/2806 VRB03KT CAVOK"
    },
    {
      "icao": "LHDC",
      "alert": "OK",
      "vis_m": 9999,
      "fzfg": false,
      "metar_trigger": false,
      "taf_trigger": false,
      "metar": "METAR LHDC 270845Z AUTO 00000KT CAVOK 05/M01 Q1029 NOSIG",
      "taf": "TAF LHDC 270815Z 2709/2718 VRB03KT CAVOK"
    },
    {
      "icao": "LIBD",
      "alert": "OK",
      "vis_m": 9999,
      "fzfg": false,
      "metar_trigger": false,
      "taf_trigger": false,
      "metar": "METAR LIBD 270920Z 01003KT 340V060 CAVOK 15/09 Q1026",
      "taf": "TAF LIBD 270500Z 2706/2806 VRB05KT CAVOK"
    },
    {
      "icao": "LIBG",
      "alert": "OK",
      "vis_m": 9999,
      "fzfg": false,
      "metar_trigger": false,
      "taf_trigger": false,
      "metar": "METAR LIBG 270850Z VRB02KT CAVOK 16/08 Q1026",
      "taf": "TAF LIBG 270800Z 2709/2718 VRB05KT CAVOK"
    },
    {
      "icao": "LIBP",
      "alert": "OK",
      "vis_m": 9999,
      "fzfg": false,
      "metar_trigger": false,
      "taf_trigger": false,
      "metar": "METAR LIBP 270920Z AUTO VRB02KT 9999 NCD 14/09 Q1026",
      "taf": "TAF LIBP 270500Z 2706/2806 VRB05KT CAVOK"
    },
    {
      "icao": "LIBR",
      "alert": "OK",
      "vis_m": 9999,
      "fzfg": false,
      "metar_trigger": false,
      "taf_trigger": false,
      "metar": "METAR LIBR 270920Z 02003KT 340V070 9999 FEW015 15/11 Q1026",
      "taf": "TAF LIBR 270500Z 2706/2806 VRB05KT 9999 SCT010"
    },
    {
      "icao": "LICA",
      "alert": "OK",
      "vis_m": 9999,
      "fzfg": false,
      "metar_trigger": false,
      "taf_trigger": false,
      "metar": "METAR LICA 270920Z AUTO 26006KT 210V270 9999 NCD 15/12 Q1027",
      "taf": "TAF LICA 270500Z 2706/2806 VRB05KT 9999 SCT020"
    },
    {
      "icao": "LICC",
      "alert": "OK",
      "vis_m": 9999,
      "fzfg": false,
      "metar_trigger": false,
      "taf_trigger": false,
      "metar": "METAR LICC 270920Z 23003KT 170V310 CAVOK 17/15 Q1027",
      "taf": "TAF LICC 270500Z 2706/2806 VRB05KT 4000 BR FEW020"
    },
    {
      "icao": "LICJ",
      "alert": "OK",
      "vis_m": 9999,
      "fzfg": false,
      "metar_trigger": false,
      "taf_trigger": false,
      "metar": "METAR LICJ 270920Z 27003KT 9999 BKN014 14/11 Q1027",
      "taf": "TAF LICJ 270500Z 2706/2806 VRB05KT CAVOK"
    },
    {
      "icao": "LIMC",
      "alert": "OK",
      "vis_m": 9000,
      "fzfg": false,
      "metar_trigger": false,
      "taf_trigger": false,
      "metar": "METAR LIMC 270920Z 35003KT 310V030 9000 BKN030 11/08 Q1026 NOSIG",
      "taf": "TAF LIMC 270500Z 2706/2812 VRB04KT 7000 NSC"
    },
    {
      "icao": "LIME",
      "alert": "OK",
      "vis_m": 7000,
      "fzfg": false,
      "metar_trigger": false,
      "taf_trigger": false,
      "metar": "METAR LIME 270920Z VRB01KT 7000 NSC 13/08 Q1026 NOSIG",
      "taf": "TAF LIME 270500Z 2706/2806 VRB05KT 8000 FEW030"
    },
    {
      "icao": "LIMF",
      "alert": "OK",
      "vis_m": 6000,
      "fzfg": false,
      "metar_trigger": false,
      "taf_trigger": false,
      "metar": "METAR LIMF 270920Z VRB02KT 6000 NSC 12/05 Q1026",
      "taf": "TAF LIMF 270500Z 2706/2806 VRB04KT 6000 NSC"
    },
    {
      "icao": "LIMJ",
      "alert": "OK",
      "vis_m": 9999,
      "fzfg": false,
      "metar_trigger": false,
      "taf_trigger": false,
      "metar": "METAR LIMJ 270920Z 09007KT 9999 BKN030 15/11 Q1026",
      "taf": "TAF LIMJ 270500Z 2706/2806 VRB05KT 9999 SCT030"
    },
    {
      "icao": "LIPE",
      "alert": "OK",
      "vis_m": 5000,
      "fzfg": false,
      "metar_trigger": false,
      "taf_trigger": false,
      "metar": "METAR LIPE 270920Z 28004KT 240V320 5000 BR NSC 12/09 Q1026",
      "taf": "TAF LIPE 270500Z 2706/2806 VRB04KT 4000 BR NSC"
    },
    {
      "icao": "LIPH",
      "alert": "OK",
      "vis_m": 100,
      "fzfg": false,
      "metar_trigger": false,
      "taf_trigger": false,
      "metar": "METAR LIPH 270920Z VRB02KT 0100 R07/0300N FG VV001 07/07 Q1026",
      "taf": "TAF LIPH 270500Z 2706/2806 VRB04KT 0100 FG OVC001"
    },
    {
      "icao": "LIPQ",
      "alert": "OK",
      "vis_m": 9999,
      "fzfg": false,
      "metar_trigger": false,
      "taf_trigger": false,
      "metar": "METAR LIPQ 270920Z AUTO VRB02KT 9999 NCD 10/09 Q1026",
      "taf": ""
    },
    {
      "icao": "LIPR",
      "alert": "OK",
      "vis_m": 5000,
      "fzfg": false,
      "metar_trigger": false,
      "taf_trigger": false,
      "metar": "METAR LIPR 270920Z 03003KT 350V070 5000 BR NSC 12/09 Q1026",
      "taf": "TAF LIPR 270500Z 2706/2806 VRB04KT 0300 FG BKN001"
    },
    {
      "icao": "LIPX",
      "alert": "OK",
      "vis_m": 6000,
      "fzfg": false,
      "metar_trigger": false,
      "taf_trigger": false,
      "metar": "METAR LIPX 270920Z VRB02KT 6000 NSC 12/07 Q1026",
      "taf": "TAF LIPX 270500Z 2706/2806 VRB05KT 6000 NSC"
    },
    {
      "icao": "LIPY",
      "alert": "OK",
      "vis_m": 9999,
      "fzfg": false,
      "metar_trigger": false,
      "taf_trigger": false,
      "metar": "METAR LIPY 270920Z AUTO 04006KT 9999 NCD 13/10 Q1026",
      "taf": "TAF LIPY 270500Z 2706/2806 VRB04KT 7000 NSC"
    },
    {
      "icao": "LIPZ",
      "alert": "OK",
      "vis_m": 50,
      "fzfg": false,
      "metar_trigger": false,
      "taf_trigger": false,
      "metar": "METAR LIPZ 270920Z VRB02KT 0050 R04R/0225N FG VV001 06/06 Q1027 NOSIG",
      "taf": "TAF LIPZ 270500Z 2706/2812 VRB04KT 0100 FG OVC001"
    },
    {
      "icao": "LIRF",
      "alert": "OK",
      "vis_m": 3000,
      "fzfg": false,
      "metar_trigger": false,
      "taf_trigger": false,
      "metar": "METAR LIRF 270920Z 07005KT 3000 R16L/1400N R16R/0800N R25/0750N R34R/0700N BR SCT002 SCT030 11/11 Q1027 BECMG 5000 BR",
      "taf": ""
    },
    {
      "icao": "LIRN",
      "alert": "OK",
      "vis_m": 6000,
      "fzfg": false,
      "metar_trigger": false,
      "taf_trigger": false,
      "metar": "METAR LIRN 270920Z 05003KT 350V090 6000 SCT020 14/10 Q1028 NOSIG",
      "taf": "TAF LIRN 270500Z 2706/2806 VRB05KT 6000 NSC"
    },
    {
      "icao": "LIRP",
      "alert": "OK",
      "vis_m": 9999,
      "fzfg": false,
      "metar_trigger": false,
      "taf_trigger": false,
      "metar": "METAR LIRP 270915Z 10006KT 9999 BKN025 SCT060 12/12 Q1027 NOSIG",
      "taf": "TAF LIRP 270500Z 2706/2806 VRB02KT 6000 BKN020"
    },
    {
      "icao": "LIRZ",
      "alert": "OK",
      "vis_m": 9999,
      "fzfg": false,
      "metar_trigger": false,
      "taf_trigger": false,
      "metar": "METAR LIRZ 270920Z AUTO 25003KT 200V310 9999 NCD 11/08 Q1027",
      "taf": "TAF LIRZ 270500Z 2706/2806 VRB05KT 3000 BR NSC"
    },
    {
      "icao": "LJLJ",
      "alert": "OK",
      "vis_m": 9999,
      "fzfg": false,
      "metar_trigger": false,
      "taf_trigger": false,
      "metar": "METAR LJLJ 270900Z 00000KT CAVOK 08/05 Q1026 NOSIG",
      "taf": "TAF LJLJ 270500Z 2706/2806 VRB02KT CAVOK"
    },
    {
      "icao": "LKMT",
      "alert": "OK",
      "vis_m": 9999,
      "fzfg": false,
      "metar_trigger": false,
      "taf_trigger": false,
      "metar": "METAR LKMT 270900Z 24016KT CAVOK 07/02 Q1025 NOSIG",
      "taf": "TAF LKMT 270500Z 2706/2806 22012KT CAVOK"
    },
    {
      "icao": "LKPR",
      "alert": "OK",
      "vis_m": 300,
      "fzfg": false,
      "metar_trigger": false,
      "taf_trigger": false,
      "metar": "METAR LKPR 270900Z VRB02KT 0300 R24/0500U R30/0400N FG VV002 03/03 Q1024 NOSIG",
      "taf": "TAF LKPR 270800Z 2709/2815 VRB02KT 0300 FG BKN002"
    },
    {
      "icao": "LLBG",
      "alert": "OK",
      "vis_m": 9999,
      "fzfg": false,
      "metar_trigger": false,
      "taf_trigger": false,
      "metar": "METAR LLBG 270920Z 30010KT 9999 FEW050 15/01 Q1016 NOSIG RMK SCT060",
      "taf": "TAF LLBG 270505Z 2706/2806 VRB03KT 9999 SCT035 TX17/2711Z TN06/2804Z"
    },
    {
      "icao": "LMML",
      "alert": "OK",
      "vis_m": 9999,
      "fzfg": false,
      "metar_trigger": false,
      "taf_trigger": false,
      "metar": "METAR LMML 270915Z 21005KT 160V230 9999 SCT012 15/12 Q1028 NOSIG",
      "taf": "TAF LMML 270500Z 2706/2806 VRB05KT 9999 FEW015"
    },
    {
      "icao": "LOWW",
      "alert": "OK",
      "vis_m": 9999,
      "fzfg": false,
      "metar_trigger": false,
      "taf_trigger": false,
      "metar": "METAR LOWW 270920Z 13005KT 080V170 9999 NSC 06/01 Q1027 NOSIG",
      "taf": "TAF LOWW 270815Z 2709/2815 14005KT CAVOK TX13/2814Z TN02/2805Z"
    },
    {
      "icao": "LPFR",
      "alert": "OK",
      "vis_m": 9999,
      "fzfg": false,
      "metar_trigger": false,
      "taf_trigger": false,
      "metar": "METAR LPFR 270900Z 03004KT CAVOK 16/11 Q1023",
      "taf": "TAF LPFR 270500Z 2706/2806 03005KT CAVOK"
    },
    {
      "icao": "LPMA",
      "alert": "OK",
      "vis_m": 9999,
      "fzfg": false,
      "metar_trigger": false,
      "taf_trigger": false,
      "metar": "METAR LPMA 270900Z 36029G41KT 9999 FEW015 16/11 Q1025",
      "taf": "TAF LPMA 270500Z 2706/2806 01015KT 9999 SCT015"
    },
    {
      "icao": "LPPR",
      "alert": "OK",
      "vis_m": 3200,
      "fzfg": false,
      "metar_trigger": false,
      "taf_trigger": false,
      "metar": "METAR LPPR 270900Z 14009KT 3200 R17/1100N -DZRA BR BKN004 BKN007 11/10 Q1024",
      "taf": "TAF LPPR 270500Z 2706/2806 14008KT 9999 SCT008 BKN015"
    },
    {
      "icao": "LPPS",
      "alert": "OK",
      "vis_m": 9999,
      "fzfg": false,
      "metar_trigger": false,
      "taf_trigger": false,
      "metar": "METAR LPPS 270900Z 01022KT 9999 SCT015 16/11 Q1027",
      "taf": "TAF LPPS 270500Z 2706/2812 02015KT 9999 SCT015"
    },
    {
      "icao": "LPPT",
      "alert": "OK",
      "vis_m": 9999,
      "fzfg": false,
      "metar_trigger": false,
      "taf_trigger": false,
      "metar": "METAR LPPT 270900Z 35004KT 320V030 9999 FEW012 12/10 Q1025",
      "taf": "TAF LPPT 270500Z 2706/2812 32007KT 9999 FEW012"
    },
    {
      "icao": "LQBK",
      "alert": "OK",
      "vis_m": 9999,
      "fzfg": false,
      "metar_trigger": false,
      "taf_trigger": false,
      "metar": "METAR LQBK 270900Z VRB02KT CAVOK 08/03 Q1027 NOSIG",
      "taf": "TAF LQBK 270500Z 2706/2806 17005KT CAVOK TX16/2714Z TNM02/2706Z"
    },
    {
      "icao": "LQSA",
      "alert": "OK",
      "vis_m": 9999,
      "fzfg": false,
      "metar_trigger": false,
      "taf_trigger": false,
      "metar": "METAR LQSA 270900Z VRB01KT CAVOK 06/02 Q1027 NOSIG",
      "taf": "TAF LQSA 270500Z 2706/2806 VRB02KT CAVOK TX18/2714Z TNM02/2706Z"
    },
    {
      "icao": "LQTZ",
      "alert": "OK",
      "vis_m": 9999,
      "fzfg": false,
      "metar_trigger": false,
      "taf_trigger": false,
      "metar": "METAR LQTZ 270900Z VRB01KT CAVOK 07/02 Q1027",
      "taf": "TAF LQTZ 270500Z 2706/2806 VRB02KT CAVOK TX16/2714Z TNM03/2706Z"
    },
    {
      "icao": "LRBC",
      "alert": "OK",
      "vis_m": 9999,
      "fzfg": false,
      "metar_trigger": false,
      "taf_trigger": false,
      "metar": "METAR LRBC 270900Z 06003KT 020V100 9999 OVC015 00/M03 Q1031",
      "taf": "TAF LRBC 270800Z 2709/2718 10004KT 9999 BKN015"
    },
    {
      "icao": "LRBS",
      "alert": "OK",
      "vis_m": 9999,
      "fzfg": false,
      "metar_trigger": false,
      "taf_trigger": false,
      "metar": "METAR LRBS 270900Z 07006KT 9999 SCT018 03/M02 Q1032 NOSIG",
      "taf": "TAF LRBS 270500Z 2706/2806 VRB04KT CAVOK"
    },
    {
      "icao": "LRBV",
      "alert": "OK",
      "vis_m": 9999,
      "fzfg": false,
      "metar_trigger": false,
      "taf_trigger": false,
      "metar": "METAR LRBV 270900Z VRB02KT CAVOK M01/M05 Q1029",
      "taf": "TAF LRBV 270800Z 2709/2718 VRB04KT CAVOK"
    },
    {
      "icao": "LRCL",
      "alert": "OK",
      "vis_m": 9999,
      "fzfg": false,
      "metar_trigger": false,
      "taf_trigger": false,
      "metar": "METAR LRCL 270900Z 07003KT 020V110 CAVOK 02/M02 Q1029",
      "taf": "TAF LRCL 270800Z 2709/2718 VRB04KT CAVOK"
    },
    {
      "icao": "LRCV",
      "alert": "OK",
      "vis_m": 9999,
      "fzfg": false,
      "metar_trigger": false,
      "taf_trigger": false,
      "metar": "METAR LRCV 270900Z 03005KT 340V090 9999 FEW032 05/M00 Q1030",
      "taf": "TAF LRCV 270800Z 2709/2718 VRB04KT CAVOK"
    },
    {
      "icao": "LRIA",
      "alert": "OK",
      "vis_m": 9999,
      "fzfg": false,
      "metar_trigger": false,
      "taf_trigger": false,
      "metar": "METAR LRIA 270900Z 10005KT 040V120 9999 OVC013 M02/M05 Q1032",
      "taf": "TAF LRIA 270800Z 2709/2718 09005KT 9999 BKN010"
    },
    {
      "icao": "LROP",
      "alert": "OK",
      "vis_m": 9999,
      "fzfg": false,
      "metar_trigger": false,
      "taf_trigger": false,
      "metar": "METAR LROP 270900Z 08007KT CAVOK 02/M04 Q1032 NOSIG",
      "taf": "TAF LROP 270500Z 2706/2806 VRB04KT 3000 BR NSC"
    },
    {
      "icao": "LRSB",
      "alert": "OK",
      "vis_m": 9999,
      "fzfg": false,
      "metar_trigger": false,
      "taf_trigger": false,
      "metar": "METAR LRSB 270900Z 07003KT 030V130 CAVOK 03/M02 Q1028",
      "taf": "TAF LRSB 270500Z 2706/2806 VRB04KT CAVOK"
    },
    {
      "icao": "LRSM",
      "alert": "OK",
      "vis_m": 9999,
      "fzfg": false,
      "metar_trigger": false,
      "taf_trigger": false,
      "metar": "METAR LRSM 270900Z VRB01KT CAVOK 05/M03 Q1029",
      "taf": "TAF LRSM 270800Z 2709/2718 VRB04KT CAVOK"
    },
    {
      "icao": "LRSV",
      "alert": "OK",
      "vis_m": 7000,
      "fzfg": false,
      "metar_trigger": false,
      "taf_trigger": false,
      "metar": "METAR LRSV 270900Z 11006KT 080V140 7000 BKN004 M02/M03 Q1029",
      "taf": "TAF LRSV 270800Z 2709/2718 13008KT 9999 BKN005"
    },
    {
      "icao": "LRTM",
      "alert": "OK",
      "vis_m": 9999,
      "fzfg": false,
      "metar_trigger": false,
      "taf_trigger": false,
      "metar": "METAR LRTM 270900Z 07004KT 010V130 CAVOK 03/M03 Q1030",
      "taf": "TAF LRTM 270800Z 2709/2718 VRB04KT CAVOK"
    },
    {
      "icao": "LRTR",
      "alert": "OK",
      "vis_m": 9999,
      "fzfg": false,
      "metar_trigger": false,
      "taf_trigger": false,
      "metar": "METAR LRTR 270900Z 10007KT CAVOK 05/01 Q1029",
      "taf": "TAF LRTR 270500Z 2706/2806 09006KT CAVOK"
    },
    {
      "icao": "LTAC",
      "alert": "OK",
      "vis_m": 9999,
      "fzfg": false,
      "metar_trigger": false,
      "taf_trigger": false,
      "metar": "METAR LTAC 270920Z 34011KT 9999 BKN040 03/M06 Q1019 NOSIG",
      "taf": "TAF LTAC 270440Z 2706/2806 VRB02KT 9999 BKN040"
    },
    {
      "icao": "LTFM",
      "alert": "OK",
      "vis_m": 9999,
      "fzfg": false,
      "metar_trigger": false,
      "taf_trigger": false,
      "metar": "METAR LTFM 270920Z 36015KT 9999 SCT019 BKN026 04/M00 Q1029 NOSIG",
      "taf": ""
    },
    {
      "icao": "LUKK",
      "alert": "OK",
      "vis_m": 9999,
      "fzfg": false,
      "metar_trigger": false,
      "taf_trigger": false,
      "metar": "METAR LUKK 270900Z 36005KT 340V040 9999 OVC017 00/M03 Q1031 NOSIG",
      "taf": "TAF LUKK 270520Z 2706/2806 VRB06KT 9999 BKN014"
    },
    {
      "icao": "LWOH",
      "alert": "OK",
      "vis_m": 9999,
      "fzfg": false,
      "metar_trigger": false,
      "taf_trigger": false,
      "metar": "METAR LWOH 270920Z 17005KT 140V200 CAVOK 08/02 Q1027",
      "taf": "TAF LWOH 270830Z 2709/2809 VRB02KT CAVOK"
    },
    {
      "icao": "LWSK",
      "alert": "OK",
      "vis_m": 9999,
      "fzfg": false,
      "metar_trigger": false,
      "taf_trigger": false,
      "metar": "METAR LWSK 270850Z VRB02KT CAVOK 07/00 Q1029 NOSIG",
      "taf": "TAF LWSK 270830Z 2709/2809 VRB02KT CAVOK"
    },
    {
      "icao": "LYBE",
      "alert": "OK",
      "vis_m": 9999,
      "fzfg": false,
      "metar_trigger": false,
      "taf_trigger": false,
      "metar": "METAR LYBE 270900Z VRB01KT CAVOK 08/01 Q1028 NOSIG",
      "taf": "TAF LYBE 270500Z 2706/2806 09005KT CAVOK TX14/2713Z TNM00/2706Z"
    },
    {
      "icao": "LYNI",
      "alert": "OK",
      "vis_m": 9999,
      "fzfg": false,
      "metar_trigger": false,
      "taf_trigger": false,
      "metar": "METAR LYNI 270900Z 20004KT 130V270 CAVOK 06/02 Q1029 NOSIG",
      "taf": "TAF LYNI 270500Z 2706/2806 07005KT CAVOK TX14/2714Z TNM01/2706Z"
    },
    {
      "icao": "LYPG",
      "alert": "OK",
      "vis_m": 9999,
      "fzfg": false,
      "metar_trigger": false,
      "taf_trigger": false,
      "metar": "METAR LYPG 270900Z VRB02KT CAVOK 13/03 Q1027 NOSIG",
      "taf": "TAF LYPG 270500Z 2706/2806 16005KT CAVOK TX19/2712Z TN04/2706Z"
    },
    {
      "icao": "LZIB",
      "alert": "OK",
      "vis_m": 9999,
      "fzfg": false,
      "metar_trigger": false,
      "taf_trigger": false,
      "metar": "METAR LZIB 270900Z 07006KT CAVOK 05/M01 Q1028 NOSIG",
      "taf": "TAF LZIB 270515Z 2706/2806 06008KT CAVOK"
    },
    {
      "icao": "LZKZ",
      "alert": "OK",
      "vis_m": 9999,
      "fzfg": false,
      "metar_trigger": false,
      "taf_trigger": false,
      "metar": "METAR LZKZ 270900Z 14003KT 090V190 CAVOK 04/M01 Q1029 NOSIG",
      "taf": "TAF LZKZ 270515Z 2706/2806 VRB02KT CAVOK"
    },
    {
      "icao": "LZTT",
      "alert": "OK",
      "vis_m": 9999,
      "fzfg": false,
      "metar_trigger": false,
      "taf_trigger": false,
      "metar": "METAR LZTT 270900Z VRB02KT CAVOK 03/M01 Q1026 NOSIG",
      "taf": "TAF LZTT 270515Z 2706/2806 20004KT CAVOK"
    },
    {
      "icao": "OEJN",
      "alert": "OK",
      "vis_m": 9999,
      "fzfg": false,
      "metar_trigger": false,
      "taf_trigger": false,
      "metar": "METAR OEJN 270900Z 29010KT 9999 SCT040 27/13 Q1012 NOSIG",
      "taf": "TAF OEJN 270500Z 2706/2812 30016KT 7000 SCT040"
    },
    {
      "icao": "OEMA",
      "alert": "OK",
      "vis_m": 9999,
      "fzfg": false,
      "metar_trigger": false,
      "taf_trigger": false,
      "metar": "METAR OEMA 270900Z VRB03KT CAVOK 25/02 Q1014 NOSIG",
      "taf": "TAF OEMA 270500Z 2706/2812 27010KT 9999 FEW040"
    },
    {
      "icao": "OJAI",
      "alert": "OK",
      "vis_m": 5000,
      "fzfg": false,
      "metar_trigger": false,
      "taf_trigger": false,
      "metar": "METAR OJAI 270900Z 31015KT 5000 BLDU SCT030 10/M00 Q1016 NOSIG",
      "taf": "TAF OJAI 270500Z 2706/2812 28018KT 3000 -RA BLDU SCT025"
    },
    {
      "icao": "OMAA",
      "alert": "OK",
      "vis_m": 9999,
      "fzfg": false,
      "metar_trigger": false,
      "taf_trigger": false,
      "metar": "METAR OMAA 270900Z 31011KT 270V330 CAVOK 25/12 Q1011 NOSIG",
      "taf": "TAF OMAA 270500Z 2706/2812 26007KT 8000 NSC"
    },
    {
      "icao": "OMDB",
      "alert": "OK",
      "vis_m": 9999,
      "fzfg": false,
      "metar_trigger": false,
      "taf_trigger": false,
      "metar": "METAR OMDB 270900Z 27012KT 250V310 9999 FEW035 25/14 Q1011 NOSIG",
      "taf": "TAF OMDB 270500Z 2706/2812 21008KT 8000 NSC"
    },
    {
      "icao": "UAAA",
      "alert": "OK",
      "vis_m": 5000,
      "fzfg": false,
      "metar_trigger": false,
      "taf_trigger": false,
      "metar": "METAR UAAA 270900Z 02003MPS 5000 BR BKN009 M00/M03 Q1017 NOSIG",
      "taf": "TAF UAAA 270505Z 2706/2806 34003MPS 5000 BR FU SCT050 BKN100 TX02/2708Z TNM10/2802Z"
    },
    {
      "icao": "UBBB",
      "alert": "OK",
      "vis_m": 9999,
      "fzfg": false,
      "metar_trigger": false,
      "taf_trigger": false,
      "metar": "METAR UBBB 270900Z 03018KT 9999 OVC012 06/03 Q1017 NOSIG",
      "taf": "TAF UBBB 270501Z 2706/2806 05014KT 9999 BKN013 OVC025 TX07/2710Z TN04/2801Z"
    },
    {
      "icao": "UDSG",
      "alert": "OK",
      "vis_m": 3000,
      "fzfg": false,
      "metar_trigger": false,
      "taf_trigger": false,
      "metar": "METAR UDSG 270900Z 07019KT 3000 BLSN OVC010 00/M02 Q1005 NOSIG",
      "taf": "TAF UDSG 270458Z 2706/2806 VRB06KT 9999 BKN040"
    },
    {
      "icao": "UDYZ",
      "alert": "OK",
      "vis_m": 9000,
      "fzfg": false,
      "metar_trigger": false,
      "taf_trigger": false,
      "metar": "METAR UDYZ 270900Z 02003KT 9000 -SHRASN FEW005 OVC026CB 02/02 Q1006 NOSIG",
      "taf": "TAF UDYZ 270500Z 2706/2806 16006KT 6000 BKN030"
    },
    {
      "icao": "UGKO",
      "alert": "OK",
      "vis_m": 8000,
      "fzfg": false,
      "metar_trigger": false,
      "taf_trigger": false,
      "metar": "METAR UGKO 270900Z 13004KT 8000 -RA SCT004 BKN017 OVC019 02/01 Q1014 NOSIG",
      "taf": "TAF UGKO 270500Z 2706/2806 08007KT 9999 -RA SCT020 OVC040 TX03/2712Z TN01/2706Z"
    }
  ]
}