{
  "ts_utc": "2026-02-17T00:00:29Z",
  "threshold_m": 150,
  "source": "stations_override.txt (ICAO list) + aviationweather.gov (METAR/TAF raw)",
  "station_count": 159,
  "stations": [
    {
      "icao": "BIKF",
      "alert": "OK",
      "vis_m": 9999,
      "fzfg": false,
      "metar_trigger": false,
      "taf_trigger": false,
      "metar": "METAR BIKF 162330Z 07005KT 9999 FEW032 SCT250 M05/M10 Q1013",
      "taf": "TAF BIKF 162234Z 1700/1800 02010KT 9999 FEW025 TXM01/1714Z TNM05/1700Z"
    },
    {
      "icao": "BKPR",
      "alert": "OK",
      "vis_m": null,
      "fzfg": false,
      "metar_trigger": false,
      "taf_trigger": false,
      "metar": "",
      "taf": "TAF BKPR 162330Z 1700/1724 18007KT 9999 BKN040"
    },
    {
      "icao": "EBCI",
      "alert": "OK",
      "vis_m": 9999,
      "fzfg": false,
      "metar_trigger": false,
      "taf_trigger": false,
      "metar": "METAR EBCI 162350Z 27007KT 240V300 9999 -SHRA FEW010 SCT013 BKN017 04/03 Q1003 NOSIG",
      "taf": "TAF EBCI 162301Z 1700/1806 27010KT 9999 FEW012 SCT025"
    },
    {
      "icao": "EDDB",
      "alert": "OK",
      "vis_m": 9000,
      "fzfg": false,
      "metar_trigger": false,
      "taf_trigger": false,
      "metar": "METAR EDDB 162350Z AUTO 08007KT 9000 -SN BKN010 BKN035 BKN042 M03/M05 Q0998 TEMPO 4500 -SN BKN008",
      "taf": "TAF EDDB 162300Z 1700/1724 09005KT 9000 SCT010 BKN025"
    },
    {
      "icao": "EDDH",
      "alert": "OK",
      "vis_m": 8000,
      "fzfg": false,
      "metar_trigger": false,
      "taf_trigger": false,
      "metar": "METAR EDDH 162350Z AUTO 11005KT 8000 FEW008 BKN014 OVC024 M03/M04 Q0998 TEMPO 4500 -SN BKN009",
      "taf": "TAF EDDH 162300Z 1700/1806 11004KT 9999 BKN015"
    },
    {
      "icao": "EDDK",
      "alert": "OK",
      "vis_m": 9999,
      "fzfg": false,
      "metar_trigger": false,
      "taf_trigger": false,
      "metar": "METAR EDDK 162350Z AUTO 28008KT 9999 -SHRA OVC006 FEW///TCU 03/02 Q1000 TEMPO SHRA",
      "taf": "TAF EDDK 162300Z 1700/1806 27007KT 9999 BKN007"
    },
    {
      "icao": "EDDN",
      "alert": "OK",
      "vis_m": 9999,
      "fzfg": false,
      "metar_trigger": false,
      "taf_trigger": false,
      "metar": "METAR EDDN 162350Z AUTO 24008KT 9999 SCT028 BKN049 03/01 Q0999",
      "taf": "TAF EDDN 162300Z 1700/1724 26008KT 9999 FEW020 BKN030"
    },
    {
      "icao": "EDDS",
      "alert": "OK",
      "vis_m": 9999,
      "fzfg": false,
      "metar_trigger": false,
      "taf_trigger": false,
      "metar": "METAR EDDS 162350Z AUTO 20007KT 9999 VCSH SCT034 FEW///TCU 03/01 Q1000",
      "taf": "TAF EDDS 162300Z 1700/1724 24008KT 9999 BKN030"
    },
    {
      "icao": "EDFH",
      "alert": "OK",
      "vis_m": 9999,
      "fzfg": false,
      "metar_trigger": false,
      "taf_trigger": false,
      "metar": "METAR EDFH 162350Z 29014KT 9999 -DZ FEW003 BKN006 02/01 Q0999",
      "taf": "TAF EDFH 162300Z 1700/1724 27013KT 9999 SCT002 BKN005"
    },
    {
      "icao": "EDJA",
      "alert": "OK",
      "vis_m": 9999,
      "fzfg": false,
      "metar_trigger": false,
      "taf_trigger": false,
      "metar": "METAR EDJA 162350Z AUTO 23014G25KT 9999 // SCT006/// OVC052/// 01/00 Q1001",
      "taf": "TAF EDJA 161700Z 1618/1703 24010KT 9999 SCT007 BKN015"
    },
    {
      "icao": "EDLW",
      "alert": "OK",
      "vis_m": 9999,
      "fzfg": false,
      "metar_trigger": false,
      "taf_trigger": false,
      "metar": "METAR EDLW 162350Z AUTO 25007KT 9999 // SCT006/// OVC008/// 04/03 Q0998",
      "taf": "TAF EDLW 161700Z 1618/1718 23009KT 9999 SCT012 BKN020"
    },
    {
      "icao": "EDNY",
      "alert": "OK",
      "vis_m": 9999,
      "fzfg": false,
      "metar_trigger": false,
      "taf_trigger": false,
      "metar": "METAR EDNY 162350Z AUTO 23010KT 9999 // BKN012/// BKN033/// OVC041/// 03/02 Q1003",
      "taf": "TAF EDNY 161700Z 1618/1703 24012KT 9999 SCT012 BKN015"
    },
    {
      "icao": "EDSB",
      "alert": "OK",
      "vis_m": 9999,
      "fzfg": false,
      "metar_trigger": false,
      "taf_trigger": false,
      "metar": "METAR EDSB 162350Z AUTO 24013G27KT 210V290 9999 BKN026/// OVC032/// 07/03 Q1002",
      "taf": "TAF EDSB 162300Z 1700/1724 23008KT 9999 BKN030"
    },
    {
      "icao": "EETN",
      "alert": "OK",
      "vis_m": 9999,
      "fzfg": false,
      "metar_trigger": false,
      "taf_trigger": false,
      "metar": "METAR EETN 162350Z 08004KT CAVOK M12/M13 Q1013",
      "taf": "TAF EETN 162330Z 1700/1724 17006KT 9999 SCT010"
    },
    {
      "icao": "EFTU",
      "alert": "OK",
      "vis_m": 1300,
      "fzfg": false,
      "metar_trigger": false,
      "taf_trigger": false,
      "metar": "METAR EFTU 162350Z AUTO 12003KT 090V180 1300 R08/1900U SHSN OVC002 M12/M13 Q1013",
      "taf": "TAF EFTU 162333Z 1700/1724 11006KT 9000 -SN OVC002"
    },
    {
      "icao": "EGBB",
      "alert": "OK",
      "vis_m": 9999,
      "fzfg": false,
      "metar_trigger": false,
      "taf_trigger": false,
      "metar": "METAR EGBB 162350Z 31014G24KT CAVOK 04/M02 Q1006",
      "taf": "TAF EGBB 162257Z 1700/1724 30011KT 9999 FEW030"
    },
    {
      "icao": "EGGP",
      "alert": "OK",
      "vis_m": 9999,
      "fzfg": false,
      "metar_trigger": false,
      "taf_trigger": false,
      "metar": "METAR EGGP 162350Z 32015KT 300V360 9999 FEW037 04/M04 Q1007",
      "taf": "TAF EGGP 162304Z 1700/1724 32012KT 9999 FEW020"
    },
    {
      "icao": "EGGW",
      "alert": "OK",
      "vis_m": 9999,
      "fzfg": false,
      "metar_trigger": false,
      "taf_trigger": false,
      "metar": "METAR EGGW 162350Z AUTO 30016KT 9999 NCD 04/M00 Q1004",
      "taf": "TAF EGGW 162303Z 1700/1724 30014KT 9999 SCT025"
    },
    {
      "icao": "EGKK",
      "alert": "OK",
      "vis_m": 9999,
      "fzfg": false,
      "metar_trigger": false,
      "taf_trigger": false,
      "metar": "METAR EGKK 162350Z 28007KT 9999 FEW047 06/03 Q1006",
      "taf": "TAF EGKK 162253Z 1700/1806 28008KT 9999 FEW035"
    },
    {
      "icao": "EGNM",
      "alert": "OK",
      "vis_m": null,
      "fzfg": false,
      "metar_trigger": false,
      "taf_trigger": false,
      "metar": "",
      "taf": "TAF EGNM 162305Z 1700/1724 30010KT 9999 SCT025"
    },
    {
      "icao": "EGPD",
      "alert": "OK",
      "vis_m": 9999,
      "fzfg": false,
      "metar_trigger": false,
      "taf_trigger": false,
      "metar": "METAR EGPD 162350Z COR AUTO 33020KT 9999 NCD 03/M01 Q1002 NOSIG",
      "taf": "TAF EGPD 162258Z 1700/1724 32015KT 9999 FEW014"
    },
    {
      "icao": "EGPF",
      "alert": "OK",
      "vis_m": 9999,
      "fzfg": false,
      "metar_trigger": false,
      "taf_trigger": false,
      "metar": "METAR EGPF 162350Z AUTO VRB04KT 9999 BKN041 02/M02 Q1008",
      "taf": "TAF EGPF 162256Z 1700/1724 VRB03KT 9999 FEW040"
    },
    {
      "icao": "EHBK",
      "alert": "OK",
      "vis_m": 9999,
      "fzfg": false,
      "metar_trigger": false,
      "taf_trigger": false,
      "metar": "METAR EHBK 162355Z AUTO 24007KT 210V280 9999 FEW003 02/02 Q1001",
      "taf": "TAF EHBK 162313Z 1700/1806 25008KT 9999 BKN025"
    },
    {
      "icao": "EHEH",
      "alert": "OK",
      "vis_m": 9999,
      "fzfg": false,
      "metar_trigger": false,
      "taf_trigger": false,
      "metar": "SPECI EHEH 162343Z AUTO 23007KT 9999 FEW015 BKN020 BKN047 03/02 Q1000 WHT RMK TREND REMOTE BY EHWX",
      "taf": "TAF EHEH 161815Z 1618/1800 26008KT 9999 SCT016 BKN025"
    },
    {
      "icao": "EKBI",
      "alert": "OK",
      "vis_m": 9999,
      "fzfg": false,
      "metar_trigger": false,
      "taf_trigger": false,
      "metar": "METAR EKBI 162350Z AUTO 11010KT 9999 FEW016/// OVC027/// M04/M07 Q0999",
      "taf": "TAF EKBI 162327Z 1700/1724 11012KT 9999 BKN017"
    },
    {
      "icao": "EKCH",
      "alert": "OK",
      "vis_m": 9999,
      "fzfg": false,
      "metar_trigger": false,
      "taf_trigger": false,
      "metar": "METAR EKCH 162350Z AUTO 11013KT 9999 FEW026/// M03/M08 Q1002 NOSIG",
      "taf": "TAF EKCH 162327Z 1700/1724 11012KT 9999 SCT030"
    },
    {
      "icao": "ENAL",
      "alert": "OK",
      "vis_m": 9999,
      "fzfg": false,
      "metar_trigger": false,
      "taf_trigger": false,
      "metar": "METAR ENAL 162350Z AUTO 21009KT 9999 SCT038/// BKN049/// 02/M06 Q0998",
      "taf": "TAF ENAL 162300Z 1700/1709 20009KT 9999 BKN045"
    },
    {
      "icao": "ENBR",
      "alert": "OK",
      "vis_m": 9999,
      "fzfg": false,
      "metar_trigger": false,
      "taf_trigger": false,
      "metar": "METAR ENBR 162350Z 15007KT 9999 BKN045 M01/M08 Q1000 RMK WIND 1200FT 12009KT",
      "taf": "TAF ENBR 162300Z 1700/1724 12009KT 9999 BKN045"
    },
    {
      "icao": "ENGM",
      "alert": "OK",
      "vis_m": 9999,
      "fzfg": false,
      "metar_trigger": false,
      "taf_trigger": false,
      "metar": "METAR ENGM 162350Z 03004KT CAVOK M11/M13 Q1006",
      "taf": "TAF ENGM 162300Z 1700/1724 03003KT CAVOK"
    },
    {
      "icao": "ENHD",
      "alert": "OK",
      "vis_m": 9999,
      "fzfg": false,
      "metar_trigger": false,
      "taf_trigger": false,
      "metar": "METAR ENHD 162350Z AUTO 11010KT 9999 NCD M00/M08 Q1000",
      "taf": "TAF ENHD 161400Z 1615/1623 11015KT 9999 BKN040"
    },
    {
      "icao": "ENTC",
      "alert": "OK",
      "vis_m": 9999,
      "fzfg": false,
      "metar_trigger": false,
      "taf_trigger": false,
      "metar": "METAR ENTC 162350Z AUTO 23010KT 9999 SCT052/// SCT061/// M04/M09 Q0997 RMK WIND 2600FT 16010KT",
      "taf": "TAF ENTC 162300Z 1700/1724 21012KT 9999 BKN050"
    },
    {
      "icao": "ENTO",
      "alert": "OK",
      "vis_m": 9999,
      "fzfg": false,
      "metar_trigger": false,
      "taf_trigger": false,
      "metar": "METAR ENTO 162350Z AUTO VRB02KT 9999 NCD M07/M11 Q1005",
      "taf": "TAF ENTO 162300Z 1700/1724 01005KT 9999 FEW020"
    },
    {
      "icao": "ENVA",
      "alert": "OK",
      "vis_m": 9999,
      "fzfg": false,
      "metar_trigger": false,
      "taf_trigger": false,
      "metar": "METAR ENVA 162350Z VRB02KT CAVOK M04/M13 Q1000 RMK WIND 670FT 15011G24KT",
      "taf": "TAF ENVA 162300Z 1700/1724 11008KT CAVOK"
    },
    {
      "icao": "ENZV",
      "alert": "OK",
      "vis_m": 9999,
      "fzfg": false,
      "metar_trigger": false,
      "taf_trigger": false,
      "metar": "METAR ENZV 162350Z 10008KT CAVOK M00/M09 Q0999",
      "taf": "TAF ENZV 162300Z 1700/1724 11008KT 9999 SCT045"
    },
    {
      "icao": "EPGD",
      "alert": "OK",
      "vis_m": 9999,
      "fzfg": false,
      "metar_trigger": false,
      "taf_trigger": false,
      "metar": "METAR EPGD 162330Z 09009KT CAVOK M11/M17 Q1004",
      "taf": "TAF EPGD 162330Z 1700/1724 09010KT CAVOK"
    },
    {
      "icao": "EPKK",
      "alert": "OK",
      "vis_m": 3300,
      "fzfg": false,
      "metar_trigger": false,
      "taf_trigger": false,
      "metar": "METAR EPKK 162330Z 04004KT 3300 BR OVC022 M04/M05 Q0999",
      "taf": "TAF EPKK 162330Z 1700/1724 04004KT 5000 BR OVC023"
    },
    {
      "icao": "EPKT",
      "alert": "OK",
      "vis_m": 6000,
      "fzfg": false,
      "metar_trigger": false,
      "taf_trigger": false,
      "metar": "METAR EPKT 162330Z 16007KT 6000 -SN OVC013 M04/M05 Q0998",
      "taf": "TAF EPKT 162330Z 1700/1724 14005KT 5000 BR BKN013 BKN015"
    },
    {
      "icao": "EPLB",
      "alert": "OK",
      "vis_m": 9999,
      "fzfg": false,
      "metar_trigger": false,
      "taf_trigger": false,
      "metar": "METAR EPLB 162330Z 11011KT 9999 OVC034 M08/M12 Q1003",
      "taf": "TAF EPLB 162330Z 1700/1724 10012KT 9999 OVC039"
    },
    {
      "icao": "EPMO",
      "alert": "OK",
      "vis_m": 9999,
      "fzfg": false,
      "metar_trigger": false,
      "taf_trigger": false,
      "metar": "METAR EPMO 162330Z 09012KT 9999 -SN BKN015 OVC021 M07/M11 Q1002",
      "taf": "TAF EPMO 162330Z 1700/1724 10012KT 9999 BKN030"
    },
    {
      "icao": "EPPO",
      "alert": "OK",
      "vis_m": 9999,
      "fzfg": false,
      "metar_trigger": false,
      "taf_trigger": false,
      "metar": "METAR EPPO 162330Z 09009KT 9999 OVC014 M06/M09 Q0999",
      "taf": "TAF EPPO 162330Z 1700/1724 09010KT 9999 BKN014"
    },
    {
      "icao": "EPRA",
      "alert": "OK",
      "vis_m": 8000,
      "fzfg": false,
      "metar_trigger": false,
      "taf_trigger": false,
      "metar": "METAR EPRA 162330Z 10010KT 8000 -SN SCT016 BKN040 M07/M09 Q1001",
      "taf": "TAF EPRA 162330Z 1700/1709 11010KT 6000 -SN BKN025"
    },
    {
      "icao": "EPRZ",
      "alert": "OK",
      "vis_m": 9999,
      "fzfg": false,
      "metar_trigger": false,
      "taf_trigger": false,
      "metar": "METAR EPRZ 162330Z 09010KT 9999 BKN043 M05/M07 Q1001",
      "taf": "TAF EPRZ 162330Z 1700/1724 09010KT 9999 SCT023"
    },
    {
      "icao": "EPSC",
      "alert": "OK",
      "vis_m": 9999,
      "fzfg": false,
      "metar_trigger": false,
      "taf_trigger": false,
      "metar": "METAR EPSC 162330Z 09008KT 9999 FEW048 M06/M12 Q1001",
      "taf": "TAF EPSC 162330Z 1700/1724 10010KT CAVOK"
    },
    {
      "icao": "EPSY",
      "alert": "OK",
      "vis_m": 9999,
      "fzfg": false,
      "metar_trigger": false,
      "taf_trigger": false,
      "metar": "METAR EPSY 162330Z 11006KT 060V160 CAVOK M10/M20 Q1005",
      "taf": "TAF EPSY 162330Z 1700/1709 09008KT CAVOK"
    },
    {
      "icao": "EPWA",
      "alert": "OK",
      "vis_m": 9999,
      "fzfg": false,
      "metar_trigger": false,
      "taf_trigger": false,
      "metar": "METAR EPWA 162330Z 10013KT 9999 -SN BKN026 M07/M10 Q1002 TEMPO 4500 -SN",
      "taf": "TAF EPWA 162330Z 1700/1724 09012KT 9999 BKN030"
    },
    {
      "icao": "EPWR",
      "alert": "OK",
      "vis_m": 6000,
      "fzfg": false,
      "metar_trigger": false,
      "taf_trigger": false,
      "metar": "METAR EPWR 162330Z 09003KT 6000 BKN020 M03/M04 Q0998",
      "taf": "TAF EPWR 162330Z 1700/1724 11003KT 5000 BR OVC020"
    },
    {
      "icao": "ESGG",
      "alert": "OK",
      "vis_m": 9999,
      "fzfg": false,
      "metar_trigger": false,
      "taf_trigger": false,
      "metar": "METAR ESGG 162350Z 12011KT CAVOK M05/M10 Q1003",
      "taf": "TAF ESGG 162330Z 1700/1724 11011KT CAVOK"
    },
    {
      "icao": "ESKN",
      "alert": "OK",
      "vis_m": 9999,
      "fzfg": false,
      "metar_trigger": false,
      "taf_trigger": false,
      "metar": "METAR ESKN 162350Z 14007KT 9999 -SN OVC030 M03/M08 Q1009",
      "taf": "TAF ESKN 162330Z 1700/1724 13008KT 9999 -SN OVC030"
    },
    {
      "icao": "ESMS",
      "alert": "OK",
      "vis_m": 9999,
      "fzfg": false,
      "metar_trigger": false,
      "taf_trigger": false,
      "metar": "METAR ESMS 162350Z AUTO 10009KT 9999 NCD M04/M10 Q1002",
      "taf": "TAF ESMS 162327Z 1700/1724 12012KT CAVOK"
    },
    {
      "icao": "ESSA",
      "alert": "OK",
      "vis_m": 9999,
      "fzfg": false,
      "metar_trigger": false,
      "taf_trigger": false,
      "metar": "METAR ESSA 162350Z 08004KT 9999 BKN034 M08/M10 Q1010 NOSIG",
      "taf": "TAF ESSA 162330Z 1700/1724 09005KT 9999 BKN035"
    },
    {
      "icao": "EYKA",
      "alert": "OK",
      "vis_m": 9999,
      "fzfg": false,
      "metar_trigger": false,
      "taf_trigger": false,
      "metar": "METAR EYKA 162350Z AUTO 07005KT 9999 NCD M18/M22 Q1011",
      "taf": "TAF EYKA 162310Z 1700/1724 08006KT 9000 NSC"
    },
    {
      "icao": "EYPA",
      "alert": "OK",
      "vis_m": 9999,
      "fzfg": false,
      "metar_trigger": false,
      "taf_trigger": false,
      "metar": "METAR EYPA 162350Z AUTO 10009KT 9999 NCD M12/M17 Q1010",
      "taf": "TAF EYPA 162310Z 1700/1724 11009KT 9000 NSC"
    },
    {
      "icao": "EYVI",
      "alert": "OK",
      "vis_m": 9999,
      "fzfg": false,
      "metar_trigger": false,
      "taf_trigger": false,
      "metar": "METAR EYVI 162350Z 09005KT CAVOK M15/M22 Q1010 NOSIG",
      "taf": "TAF EYVI 162310Z 1700/1724 10007KT 9000 NSC"
    },
    {
      "icao": "GCFV",
      "alert": "OK",
      "vis_m": 8000,
      "fzfg": false,
      "metar_trigger": false,
      "taf_trigger": false,
      "metar": "METAR GCFV 162330Z AUTO 33006KT 8000 BKN006 OVC025 16/14 Q1027",
      "taf": "TAF GCFV 162000Z 1621/1721 34005KT 9999 FEW010 TX23/1714Z TN16/1706Z"
    },
    {
      "icao": "GCLP",
      "alert": "OK",
      "vis_m": 8000,
      "fzfg": false,
      "metar_trigger": false,
      "taf_trigger": false,
      "metar": "METAR GCLP 162330Z 35008KT 8000 NSC 17/12 Q1027 NOSIG",
      "taf": "TAF GCLP 162000Z 1621/1721 36005KT 6000 NSC TX24/1714Z TN17/1706Z"
    },
    {
      "icao": "GCTS",
      "alert": "OK",
      "vis_m": 4000,
      "fzfg": false,
      "metar_trigger": false,
      "taf_trigger": false,
      "metar": "METAR GCTS 162330Z 08008KT 4000 HZ NSC 17/03 Q1026 NOSIG",
      "taf": "TAF GCTS 162000Z 1621/1721 05005KT 4000 HZ NSC TX27/1714Z TN18/1706Z"
    },
    {
      "icao": "GMAD",
      "alert": "OK",
      "vis_m": 9999,
      "fzfg": false,
      "metar_trigger": false,
      "taf_trigger": false,
      "metar": "METAR GMAD 162330Z 07005KT CAVOK 10/08 Q1026 NOSIG",
      "taf": "TAF GMAD 162300Z 1700/1806 12004KT CAVOK"
    },
    {
      "icao": "GMMN",
      "alert": "OK",
      "vis_m": 9999,
      "fzfg": false,
      "metar_trigger": false,
      "taf_trigger": false,
      "metar": "METAR GMMN 162330Z 03010KT CAVOK 11/09 Q1029 TEMPO 4000 BR",
      "taf": "TAF GMMN 162300Z 1700/1806 04011KT CAVOK"
    },
    {
      "icao": "GMMX",
      "alert": "OK",
      "vis_m": 9999,
      "fzfg": false,
      "metar_trigger": false,
      "taf_trigger": false,
      "metar": "METAR GMMX 162330Z VRB02KT CAVOK 12/05 Q1027 NOSIG",
      "taf": "TAF GMMX 162300Z 1700/1806 06006KT CAVOK"
    },
    {
      "icao": "HEGN",
      "alert": "OK",
      "vis_m": 6000,
      "fzfg": false,
      "metar_trigger": false,
      "taf_trigger": false,
      "metar": "METAR HEGN 162300Z 29005KT 6000 NSC 19/13 Q1011 NOSIG",
      "taf": "TAF HEGN 162300Z 1700/1806 28012KT 6000 NSC"
    },
    {
      "icao": "HEMA",
      "alert": "OK",
      "vis_m": 9999,
      "fzfg": false,
      "metar_trigger": false,
      "taf_trigger": false,
      "metar": "METAR HEMA 162300Z 25002KT CAVOK 19/17 Q1011 NOSIG",
      "taf": "TAF HEMA 162300Z 1700/1806 29010KT CAVOK"
    },
    {
      "icao": "HESH",
      "alert": "OK",
      "vis_m": 9999,
      "fzfg": false,
      "metar_trigger": false,
      "taf_trigger": false,
      "metar": "METAR HESH 162300Z 34005KT CAVOK 22/02 Q1012 NOSIG",
      "taf": "TAF HESH 162300Z 1700/1806 35010KT CAVOK"
    },
    {
      "icao": "HESX",
      "alert": "OK",
      "vis_m": 9999,
      "fzfg": false,
      "metar_trigger": false,
      "taf_trigger": false,
      "metar": "METAR HESX 162300Z 30009KT 9999 FEW030 BKN100 16/12 Q1014 NOSIG",
      "taf": "TAF HESX 162300Z 1700/1806 18010KT CAVOK"
    },
    {
      "icao": "LATI",
      "alert": "OK",
      "vis_m": 9999,
      "fzfg": false,
      "metar_trigger": false,
      "taf_trigger": false,
      "metar": "METAR LATI 162350Z 15012KT 110V180 9999 -RA BKN040 OVC053 10/06 Q0997 NOSIG",
      "taf": "TAF LATI 162300Z 1700/1724 15012KT 9999 RA SCT030 OVC060 TX13/1712Z TN05/1724Z"
    },
    {
      "icao": "LBPD",
      "alert": "OK",
      "vis_m": 9999,
      "fzfg": false,
      "metar_trigger": false,
      "taf_trigger": false,
      "metar": "METAR LBPD 162330Z AUTO 12006KT 9999 BKN004/// OVC014/// 05/05 Q1002",
      "taf": "TAF LBPD 162300Z 1700/1724 10010KT 6000 SCT003 OVC010"
    },
    {
      "icao": "LBSF",
      "alert": "OK",
      "vis_m": 6000,
      "fzfg": false,
      "metar_trigger": false,
      "taf_trigger": false,
      "metar": "METAR LBSF 162330Z AUTO 04003KT 360V070 6000 FEW051/// BKN063/// 02/01 Q1001 TEMPO 3000 -RA BR",
      "taf": "TAF LBSF 162300Z 1700/1724 10010KT 6000 SCT020 BKN040"
    },
    {
      "icao": "LBWN",
      "alert": "OK",
      "vis_m": 9000,
      "fzfg": false,
      "metar_trigger": false,
      "taf_trigger": false,
      "metar": "METAR LBWN 162330Z AUTO 03003KT 9000 FEW008/// OVC017/// 04/04 Q1003 NOSIG",
      "taf": "TAF LBWN 162300Z 1700/1724 VRB04KT 7000 SCT010 OVC025"
    },
    {
      "icao": "LCLK",
      "alert": "OK",
      "vis_m": 7000,
      "fzfg": false,
      "metar_trigger": false,
      "taf_trigger": false,
      "metar": "METAR LCLK 162330Z VRB02KT 7000 -SHRA FEW050 17/15 Q1009 NOSIG",
      "taf": "TAF LCLK 162330Z 1700/1800 24006KT 7000 FEW025"
    },
    {
      "icao": "LCPH",
      "alert": "OK",
      "vis_m": 9000,
      "fzfg": false,
      "metar_trigger": false,
      "taf_trigger": false,
      "metar": "METAR LCPH 162330Z VRB03KT 9000 SCT020 16/13 Q1009 NOSIG",
      "taf": "TAF LCPH 162330Z 1700/1800 32009KT 7000 FEW020"
    },
    {
      "icao": "LEAL",
      "alert": "OK",
      "vis_m": 9999,
      "fzfg": false,
      "metar_trigger": false,
      "taf_trigger": false,
      "metar": "METAR LEAL 162330Z 19008KT 160V230 9999 FEW045 18/09 Q1021 NOSIG",
      "taf": ""
    },
    {
      "icao": "LEBB",
      "alert": "OK",
      "vis_m": 9000,
      "fzfg": false,
      "metar_trigger": false,
      "taf_trigger": false,
      "metar": "METAR LEBB 162330Z AUTO 24006KT 200V280 9000 -RA FEW007 BKN013 OVC019 11/11 Q1023",
      "taf": "TAF LEBB 162300Z 1700/1724 27007KT 9999 SCT010 BKN020 TX15/1715Z TN10/1706Z"
    },
    {
      "icao": "LEBL",
      "alert": "OK",
      "vis_m": 9999,
      "fzfg": false,
      "metar_trigger": false,
      "taf_trigger": false,
      "metar": "METAR LEBL 162330Z 32009KT 9999 FEW057 15/09 Q1014 NOSIG",
      "taf": "TAF LEBL 162300Z 1700/1724 29008KT 9999 FEW030 TX19/1713Z TN10/1706Z"
    },
    {
      "icao": "LECH",
      "alert": "OK",
      "vis_m": 9000,
      "fzfg": false,
      "metar_trigger": false,
      "taf_trigger": false,
      "metar": "METAR LECH 162330Z AUTO 30012KT 220V350 9000 OVC068 19/06 Q1017",
      "taf": ""
    },
    {
      "icao": "LEMD",
      "alert": "OK",
      "vis_m": 9999,
      "fzfg": false,
      "metar_trigger": false,
      "taf_trigger": false,
      "metar": "METAR LEMD 162330Z 25015KT CAVOK 14/08 Q1023 NOSIG",
      "taf": "TAF LEMD 162300Z 1700/1806 24010KT 9999 SCT025 TX16/1714Z TN07/1707Z"
    },
    {
      "icao": "LEMG",
      "alert": "OK",
      "vis_m": 9999,
      "fzfg": false,
      "metar_trigger": false,
      "taf_trigger": false,
      "metar": "METAR LEMG 162330Z 29014KT 260V320 9999 FEW040 15/09 Q1027 NOSIG",
      "taf": "TAF LEMG 162300Z 1700/1724 29015KT 9999 FEW040 TX24/1714Z TN11/1707Z"
    },
    {
      "icao": "LEVC",
      "alert": "OK",
      "vis_m": 9999,
      "fzfg": false,
      "metar_trigger": false,
      "taf_trigger": false,
      "metar": "METAR LEVC 162330Z 24017KT CAVOK 17/10 Q1019 NOSIG",
      "taf": "TAF LEVC 162300Z 1700/1724 27012KT CAVOK TX24/1714Z TN16/1706Z"
    },
    {
      "icao": "LEXJ",
      "alert": "OK",
      "vis_m": 4000,
      "fzfg": false,
      "metar_trigger": false,
      "taf_trigger": false,
      "metar": "METAR LEXJ 162330Z AUTO 27007KT 4000 -RA BR BKN008 OVC013 11/10 Q1023 RERA",
      "taf": "TAF LEXJ 162000Z 1621/1721 27009KT 9000 SCT020 BKN030 TX15/1714Z TN11/1706Z"
    },
    {
      "icao": "LEZG",
      "alert": "OK",
      "vis_m": 9999,
      "fzfg": false,
      "metar_trigger": false,
      "taf_trigger": false,
      "metar": "METAR LEZG 162330Z 31014KT 9999 FEW050 BKN070 BKN080 12/11 Q1020 REDZ NOSIG",
      "taf": "TAF LEZG 162300Z 1700/1724 29012KT 9999 SCT030 TX18/1714Z TN10/1706Z"
    },
    {
      "icao": "LEZL",
      "alert": "OK",
      "vis_m": 9999,
      "fzfg": false,
      "metar_trigger": false,
      "taf_trigger": false,
      "metar": "METAR LEZL 162330Z 15002KT 9999 BKN030 13/12 Q1029 NOSIG",
      "taf": "TAF LEZL 162000Z 1621/1721 VRB02KT CAVOK TX19/1715Z TN08/1707Z"
    },
    {
      "icao": "LFBD",
      "alert": "OK",
      "vis_m": 9999,
      "fzfg": false,
      "metar_trigger": false,
      "taf_trigger": false,
      "metar": "METAR LFBD 162330Z AUTO 27009KT CAVOK 09/07 Q1019 TEMPO 4000 SHRA BKN008 BKN020TCU",
      "taf": "TAF LFBD 162300Z 1700/1806 27010KT 9999 BKN040 TX12/1712Z TN09/1700Z"
    },
    {
      "icao": "LFLL",
      "alert": "OK",
      "vis_m": 9999,
      "fzfg": false,
      "metar_trigger": false,
      "taf_trigger": false,
      "metar": "METAR LFLL 162330Z 36010KT 320V020 9999 -SHRA FEW025TCU SCT038 BKN053 05/04 Q1011 NOSIG",
      "taf": "TAF LFLL 162300Z 1700/1806 29008KT 9999 SCT030 BKN040"
    },
    {
      "icao": "LFLS",
      "alert": "OK",
      "vis_m": 9999,
      "fzfg": false,
      "metar_trigger": false,
      "taf_trigger": false,
      "metar": "METAR LFLS 162330Z AUTO 25010KT 9999 VCTS FEW035/// SCT043/// BKN056/// ///CB 05/03 Q1010",
      "taf": "TAF LFLS 161400Z 1615/1715 VRB05KT 9999 FEW030TCU BKN050"
    },
    {
      "icao": "LFMN",
      "alert": "OK",
      "vis_m": 9999,
      "fzfg": false,
      "metar_trigger": false,
      "taf_trigger": false,
      "metar": "METAR LFMN 162330Z 29010KT 260V330 CAVOK 12/01 Q1003 TEMPO 28025G35KT",
      "taf": ""
    },
    {
      "icao": "LFOB",
      "alert": "OK",
      "vis_m": 9999,
      "fzfg": false,
      "metar_trigger": false,
      "taf_trigger": false,
      "metar": "METAR LFOB 162330Z AUTO 28011KT 9999 FEW026 SCT039 BKN050 07/05 Q1006 TEMPO 30015G25KT 3500 SHRA SCT014 SCT020CB SCT030TCU",
      "taf": "TAF LFOB 162300Z 1700/1724 30012KT 9999 BKN030"
    },
    {
      "icao": "LFPO",
      "alert": "OK",
      "vis_m": 9999,
      "fzfg": false,
      "metar_trigger": false,
      "taf_trigger": false,
      "metar": "METAR LFPO 162330Z 29013KT 9999 SCT030 07/04 Q1007 TEMPO SCT030TCU",
      "taf": "TAF LFPO 162300Z 1700/1806 28012KT 9999 SCT020"
    },
    {
      "icao": "LFSB",
      "alert": "OK",
      "vis_m": 9999,
      "fzfg": false,
      "metar_trigger": false,
      "taf_trigger": false,
      "metar": "METAR LFSB 162330Z AUTO 25010KT 9999 FEW029 SCT035 OVC058 05/03 Q1005 TEMPO 27015G25KT SHRA SCT030TCU",
      "taf": "TAF LFSB 162300Z 1700/1724 24010KT 9999 FEW030 BKN050"
    },
    {
      "icao": "LGAV",
      "alert": "OK",
      "vis_m": 9999,
      "fzfg": false,
      "metar_trigger": false,
      "taf_trigger": false,
      "metar": "METAR LGAV 162350Z 25006KT 9999 FEW025 SCT070 12/07 Q1004 NOSIG",
      "taf": "TAF LGAV 162300Z 1700/1724 26012KT 9999 SCT025"
    },
    {
      "icao": "LGTS",
      "alert": "OK",
      "vis_m": 9999,
      "fzfg": false,
      "metar_trigger": false,
      "taf_trigger": false,
      "metar": "METAR LGTS 162350Z VRB03KT 9999 FEW025 09/09 Q1000 NOSIG",
      "taf": "TAF LGTS 162300Z 1700/1724 12010KT 9999 FEW012 BKN030"
    },
    {
      "icao": "LHBP",
      "alert": "OK",
      "vis_m": 8000,
      "fzfg": false,
      "metar_trigger": false,
      "taf_trigger": false,
      "metar": "METAR LHBP 162330Z 05003KT 020V080 8000 OVC008 M01/M01 Q1002 NOSIG",
      "taf": "TAF LHBP 162315Z 1700/1724 07005KT 6000 BKN020 BKN200"
    },
    {
      "icao": "LHDC",
      "alert": "OK",
      "vis_m": 5000,
      "fzfg": false,
      "metar_trigger": false,
      "taf_trigger": false,
      "metar": "METAR LHDC 162315Z AUTO VRB02KT 5000 -SN BR SCT026 OVC041 M01/M01 Q1002",
      "taf": "TAF LHDC 161715Z 1618/1703 VRB03KT 9999 BKN025 OVC050"
    },
    {
      "icao": "LIBD",
      "alert": "OK",
      "vis_m": 9999,
      "fzfg": false,
      "metar_trigger": false,
      "taf_trigger": false,
      "metar": "METAR LIBD 162350Z 23012KT 9999 BKN035 10/08 Q0995 RETS",
      "taf": "TAF LIBD 162300Z 1700/1724 22013KT 9999 SCT030"
    },
    {
      "icao": "LIBG",
      "alert": "OK",
      "vis_m": null,
      "fzfg": false,
      "metar_trigger": false,
      "taf_trigger": false,
      "metar": "",
      "taf": "TAF LIBG 161700Z 1618/1703 16014KT 9999 FEW020 SCT040"
    },
    {
      "icao": "LIBP",
      "alert": "OK",
      "vis_m": 9999,
      "fzfg": false,
      "metar_trigger": false,
      "taf_trigger": false,
      "metar": "METAR LIBP 162350Z AUTO 21005KT 9999 BKN064/// BKN170/// 09/08 Q0997",
      "taf": "TAF LIBP 162300Z 1700/1724 28008KT 9999 SCT020"
    },
    {
      "icao": "LIBR",
      "alert": "OK",
      "vis_m": 9999,
      "fzfg": false,
      "metar_trigger": false,
      "taf_trigger": false,
      "metar": "METAR LIBR 162350Z 24020G31KT CAVOK 13/10 Q0995",
      "taf": "TAF LIBR 162300Z 1700/1724 21015KT 9999 SCT030"
    },
    {
      "icao": "LICA",
      "alert": "OK",
      "vis_m": 9999,
      "fzfg": false,
      "metar_trigger": false,
      "taf_trigger": false,
      "metar": "METAR LICA 162350Z AUTO 24026G38KT 9999 VCTS OVC019/// 15/12 Q1003",
      "taf": "TAF LICA 162300Z 1700/1724 28025G38KT 9999 SCT020"
    },
    {
      "icao": "LICC",
      "alert": "OK",
      "vis_m": 9999,
      "fzfg": false,
      "metar_trigger": false,
      "taf_trigger": false,
      "metar": "METAR LICC 162350Z 27011KT CAVOK 13/10 Q1006",
      "taf": "TAF LICC 162300Z 1700/1724 26015KT 9999 SCT030"
    },
    {
      "icao": "LICJ",
      "alert": "OK",
      "vis_m": 9999,
      "fzfg": false,
      "metar_trigger": false,
      "taf_trigger": false,
      "metar": "METAR LICJ 162350Z 26027KT 9999 SCT025 15/12 Q1008",
      "taf": "TAF LICJ 162300Z 1700/1724 25025G35KT 9999 SCT020"
    },
    {
      "icao": "LIMC",
      "alert": "OK",
      "vis_m": 9999,
      "fzfg": false,
      "metar_trigger": false,
      "taf_trigger": false,
      "metar": "METAR LIMC 162350Z 34011KT CAVOK 08/M01 Q1001 NOSIG",
      "taf": "TAF LIMC 162300Z 1700/1806 31013KT 9999 FEW090"
    },
    {
      "icao": "LIME",
      "alert": "OK",
      "vis_m": 9999,
      "fzfg": false,
      "metar_trigger": false,
      "taf_trigger": false,
      "metar": "METAR LIME 162350Z 31003KT 220V010 CAVOK 04/01 Q0999 NOSIG",
      "taf": "TAF LIME 162300Z 1700/1724 02008KT CAVOK"
    },
    {
      "icao": "LIMF",
      "alert": "OK",
      "vis_m": null,
      "fzfg": false,
      "metar_trigger": false,
      "taf_trigger": false,
      "metar": "METAR LIMF 162350Z AUTO 21004KT 190V250 //// // FEW140/// 06/M01 Q1002",
      "taf": "TAF LIMF 162300Z 1700/1724 28012KT 9999 FEW100"
    },
    {
      "icao": "LIMJ",
      "alert": "OK",
      "vis_m": 9999,
      "fzfg": false,
      "metar_trigger": false,
      "taf_trigger": false,
      "metar": "METAR LIMJ 162350Z 05011KT 010V070 CAVOK 12/M01 Q1000",
      "taf": "TAF LIMJ 162300Z 1700/1724 01015KT CAVOK"
    },
    {
      "icao": "LIPE",
      "alert": "OK",
      "vis_m": 9999,
      "fzfg": false,
      "metar_trigger": false,
      "taf_trigger": false,
      "metar": "METAR LIPE 162350Z 22004KT CAVOK 05/05 Q0999",
      "taf": "TAF LIPE 162300Z 1700/1724 28005KT CAVOK"
    },
    {
      "icao": "LIPH",
      "alert": "OK",
      "vis_m": 9999,
      "fzfg": false,
      "metar_trigger": false,
      "taf_trigger": false,
      "metar": "METAR LIPH 162350Z AUTO 28002KT 9999 BKN180/// 04/03 Q0998",
      "taf": "TAF LIPH 162300Z 1700/1724 28005KT CAVOK"
    },
    {
      "icao": "LIPQ",
      "alert": "OK",
      "vis_m": 9999,
      "fzfg": false,
      "metar_trigger": false,
      "taf_trigger": false,
      "metar": "METAR LIPQ 162350Z AUTO 09005KT 050V120 9999 FEW120/// BKN200/// 06/04 Q0997",
      "taf": "TAF LIPQ 162300Z 1700/1724 VRB05KT CAVOK"
    },
    {
      "icao": "LIPR",
      "alert": "OK",
      "vis_m": 450,
      "fzfg": false,
      "metar_trigger": false,
      "taf_trigger": false,
      "metar": "METAR LIPR 162350Z AUTO 34003KT 0450 R30/1800U FG FEW006/// SCT160/// 05/05 Q0998",
      "taf": "TAF LIPR 162300Z 1700/1724 30012KT 9999 FEW030"
    },
    {
      "icao": "LIPX",
      "alert": "OK",
      "vis_m": 9999,
      "fzfg": false,
      "metar_trigger": false,
      "taf_trigger": false,
      "metar": "METAR LIPX 162350Z 28004KT CAVOK 02/00 Q0999",
      "taf": "TAF LIPX 162300Z 1700/1724 27012KT CAVOK"
    },
    {
      "icao": "LIPY",
      "alert": "OK",
      "vis_m": 9999,
      "fzfg": false,
      "metar_trigger": false,
      "taf_trigger": false,
      "metar": "METAR LIPY 162350Z AUTO 21003KT 170V230 9999 NCD 07/06 Q0997",
      "taf": "TAF LIPY 162300Z 1700/1724 31012KT 9999 SCT030"
    },
    {
      "icao": "LIPZ",
      "alert": "OK",
      "vis_m": 9999,
      "fzfg": false,
      "metar_trigger": false,
      "taf_trigger": false,
      "metar": "METAR LIPZ 162350Z 29006KT CAVOK 04/03 Q0998 NOSIG",
      "taf": "TAF LIPZ 162300Z 1700/1806 29006KT CAVOK"
    },
    {
      "icao": "LIRF",
      "alert": "OK",
      "vis_m": 9999,
      "fzfg": false,
      "metar_trigger": false,
      "taf_trigger": false,
      "metar": "METAR LIRF 162350Z 31011KT CAVOK 13/08 Q0998 NOSIG",
      "taf": "TAF LIRF 162300Z 1700/1806 32013KT 9999 SCT020"
    },
    {
      "icao": "LIRN",
      "alert": "OK",
      "vis_m": 9999,
      "fzfg": false,
      "metar_trigger": false,
      "taf_trigger": false,
      "metar": "METAR LIRN 162350Z 26013G23KT 9999 FEW030 13/09 Q0997 NOSIG",
      "taf": "TAF LIRN 162300Z 1700/1724 26013KT 9999 BKN020"
    },
    {
      "icao": "LIRP",
      "alert": "OK",
      "vis_m": 7000,
      "fzfg": false,
      "metar_trigger": false,
      "taf_trigger": false,
      "metar": "METAR LIRP 162345Z VRB02KT 7000 MIFG NSC 07/07 Q0999 NOSIG",
      "taf": "TAF LIRP 162300Z 1700/1724 16005KT 9999 SCT080"
    },
    {
      "icao": "LIRZ",
      "alert": "OK",
      "vis_m": 9999,
      "fzfg": false,
      "metar_trigger": false,
      "taf_trigger": false,
      "metar": "METAR LIRZ 162350Z AUTO VRB02KT 9999 SCT099/// BKN120/// 07/06 Q0998",
      "taf": "TAF LIRZ 162300Z 1700/1724 VRB05KT 9999 SCT025"
    },
    {
      "icao": "LJLJ",
      "alert": "OK",
      "vis_m": 9999,
      "fzfg": false,
      "metar_trigger": false,
      "taf_trigger": false,
      "metar": "METAR LJLJ 162330Z VRB02KT 9999 BKN025 BKN110 00/M00 Q0999 NOSIG",
      "taf": "TAF LJLJ 162300Z 1700/1800 VRB02KT 9999 SCT030"
    },
    {
      "icao": "LKMT",
      "alert": "OK",
      "vis_m": 9999,
      "fzfg": false,
      "metar_trigger": false,
      "taf_trigger": false,
      "metar": "METAR LKMT 162330Z 23012KT CAVOK M01/M03 Q0998 NOSIG",
      "taf": "TAF LKMT 162300Z 1700/1724 22008KT 9999 BKN035"
    },
    {
      "icao": "LKPR",
      "alert": "OK",
      "vis_m": 2000,
      "fzfg": false,
      "metar_trigger": false,
      "taf_trigger": false,
      "metar": "METAR LKPR 162330Z VRB01KT 2000 -SN BR FEW002 BKN004 OVC006 M03/M03 Q0997 NOSIG",
      "taf": "TAF LKPR 162300Z 1700/1806 VRB02KT 2500 -SN BR BKN004"
    },
    {
      "icao": "LLBG",
      "alert": "OK",
      "vis_m": 9000,
      "fzfg": false,
      "metar_trigger": false,
      "taf_trigger": false,
      "metar": "METAR LLBG 162350Z 15007KT 9000 NSC 17/09 Q1012 BECMG 3500 BR BKN010",
      "taf": "TAF LLBG 162304Z 1700/1724 VRB04KT 8000 SCT015"
    },
    {
      "icao": "LMML",
      "alert": "OK",
      "vis_m": 9999,
      "fzfg": false,
      "metar_trigger": false,
      "taf_trigger": false,
      "metar": "METAR LMML 162345Z 26020G30KT 9999 FEW020 SCT023 14/11 Q1011 NOSIG",
      "taf": "TAF LMML 162300Z 1700/1724 28020G30KT 9999 SCT018"
    },
    {
      "icao": "LOWW",
      "alert": "OK",
      "vis_m": 2900,
      "fzfg": false,
      "metar_trigger": false,
      "taf_trigger": false,
      "metar": "METAR LOWW 162350Z 14003KT 080V190 2900 SN FEW003 BKN011 M02/M02 Q1001 TEMPO 6000 -SN -FZRA FEW009 BKN015",
      "taf": "TAF LOWW 162315Z 1700/1806 15008KT 9999 FEW010 BKN030 TX05/1713Z TNM01/1702Z"
    },
    {
      "icao": "LPFR",
      "alert": "OK",
      "vis_m": 9999,
      "fzfg": false,
      "metar_trigger": false,
      "taf_trigger": false,
      "metar": "METAR LPFR 162330Z 35004KT 9999 FEW025 12/09 Q1030",
      "taf": "TAF LPFR 162300Z 1700/1724 VRB02KT 9999 SCT020"
    },
    {
      "icao": "LPMA",
      "alert": "OK",
      "vis_m": 9999,
      "fzfg": false,
      "metar_trigger": false,
      "taf_trigger": false,
      "metar": "METAR LPMA 162330Z VRB02KT 9999 SCT015 16/12 Q1029",
      "taf": "TAF LPMA 162300Z 1700/1724 10008KT 9999 SCT014"
    },
    {
      "icao": "LPPR",
      "alert": "OK",
      "vis_m": 2000,
      "fzfg": false,
      "metar_trigger": false,
      "taf_trigger": false,
      "metar": "METAR LPPR 162330Z 23006KT 200V260 2000 -DZ BR SCT001 BKN002 13/13 Q1028",
      "taf": "TAF LPPR 162300Z 1700/1724 26008KT 6000 SCT003 BKN006"
    },
    {
      "icao": "LPPS",
      "alert": "OK",
      "vis_m": 9999,
      "fzfg": false,
      "metar_trigger": false,
      "taf_trigger": false,
      "metar": "METAR LPPS 162330Z 13011KT 9999 SCT012 16/13 Q1030",
      "taf": "TAF LPPS 162300Z 1700/1806 12010KT 9999 SCT012"
    },
    {
      "icao": "LPPT",
      "alert": "OK",
      "vis_m": 9999,
      "fzfg": false,
      "metar_trigger": false,
      "taf_trigger": false,
      "metar": "METAR LPPT 162330Z 29004KT 250V340 9999 FEW012 BKN014 13/11 Q1031",
      "taf": "TAF LPPT 162300Z 1700/1806 28005KT 9999 BKN012"
    },
    {
      "icao": "LQBK",
      "alert": "OK",
      "vis_m": 3000,
      "fzfg": false,
      "metar_trigger": false,
      "taf_trigger": false,
      "metar": "METAR LQBK 162330Z VRB02KT 3000 -RA BR BKN007 OVC030 03/03 Q0999 NOSIG",
      "taf": ""
    },
    {
      "icao": "LQSA",
      "alert": "OK",
      "vis_m": 9999,
      "fzfg": false,
      "metar_trigger": false,
      "taf_trigger": false,
      "metar": "METAR LQSA 162330Z 31003KT 9999 -RA FEW013 SCT020 BKN030 03/03 Q0995",
      "taf": "TAF LQSA 162300Z 1700/1724 35006KT 4000 -SN BKN012 BKN030 TX03/1713Z TNM03/1724Z"
    },
    {
      "icao": "LQTZ",
      "alert": "OK",
      "vis_m": 4500,
      "fzfg": false,
      "metar_trigger": false,
      "taf_trigger": false,
      "metar": "METAR LQTZ 162330Z VRB02KT 4500 -RA BR BKN007 OVC015 04/04 Q0998",
      "taf": "TAF LQTZ 162300Z 1700/1724 27005KT 5000 -RA BR SCT015 BKN030 TX04/1700Z TNM01/1724Z"
    },
    {
      "icao": "LRBC",
      "alert": "OK",
      "vis_m": 9999,
      "fzfg": false,
      "metar_trigger": false,
      "taf_trigger": false,
      "metar": "METAR LRBC 162330Z 21004KT 9999 OVC011 M01/M02 Q1004",
      "taf": "TAF LRBC 162300Z 1700/1709 VRB04KT 9999 OVC005"
    },
    {
      "icao": "LRBS",
      "alert": "OK",
      "vis_m": 5000,
      "fzfg": false,
      "metar_trigger": false,
      "taf_trigger": false,
      "metar": "METAR LRBS 162330Z 04004KT 360V070 5000 BR OVC005 02/01 Q1005 NOSIG",
      "taf": "TAF LRBS 162300Z 1700/1724 03006KT 5000 BR OVC005"
    },
    {
      "icao": "LRBV",
      "alert": "OK",
      "vis_m": 7000,
      "fzfg": false,
      "metar_trigger": false,
      "taf_trigger": false,
      "metar": "METAR LRBV 162330Z AUTO 10006KT 7000 FEW130/// SCT150/// M02/M03 Q1001",
      "taf": "TAF LRBV 162000Z 1621/1706 VRB04KT CAVOK"
    },
    {
      "icao": "LRCL",
      "alert": "OK",
      "vis_m": 9999,
      "fzfg": false,
      "metar_trigger": false,
      "taf_trigger": false,
      "metar": "METAR LRCL 162330Z 06004KT 9999 FEW045 OVC056 M00/M03 Q1002",
      "taf": "TAF LRCL 162300Z 1700/1709 VRB04KT 9999 BKN065"
    },
    {
      "icao": "LRCV",
      "alert": "OK",
      "vis_m": 1500,
      "fzfg": false,
      "metar_trigger": false,
      "taf_trigger": false,
      "metar": "METAR LRCV 162330Z 08011KT 1500 BR OVC001 01/01 Q1003",
      "taf": "TAF LRCV 162300Z 1700/1709 09012KT 0800 FG OVC001"
    },
    {
      "icao": "LRIA",
      "alert": "OK",
      "vis_m": 9999,
      "fzfg": false,
      "metar_trigger": false,
      "taf_trigger": false,
      "metar": "METAR LRIA 162330Z 09006KT 9999 OVC016 M03/M06 Q1006",
      "taf": "TAF LRIA 162300Z 1700/1709 VRB04KT 9999 OVC015"
    },
    {
      "icao": "LROP",
      "alert": "OK",
      "vis_m": 5000,
      "fzfg": false,
      "metar_trigger": false,
      "taf_trigger": false,
      "metar": "METAR LROP 162330Z 05008KT 5000 BR OVC005 02/01 Q1004 NOSIG",
      "taf": "TAF LROP 162300Z 1700/1724 03006KT 5000 BR OVC005"
    },
    {
      "icao": "LRSB",
      "alert": "OK",
      "vis_m": 9999,
      "fzfg": false,
      "metar_trigger": false,
      "taf_trigger": false,
      "metar": "METAR LRSB 162330Z 33002KT 9999 FEW050 BKN086 00/M01 Q1001",
      "taf": "TAF LRSB 162300Z 1700/1724 VRB04KT 9999 BKN060"
    },
    {
      "icao": "LRSM",
      "alert": "OK",
      "vis_m": 9999,
      "fzfg": false,
      "metar_trigger": false,
      "taf_trigger": false,
      "metar": "METAR LRSM 162330Z AUTO 19004KT 9999 OVC048/// 01/M02 Q1003",
      "taf": "TAF LRSM 161400Z 1615/1624 21008KT 9999 BKN045"
    },
    {
      "icao": "LRSV",
      "alert": "OK",
      "vis_m": 5000,
      "fzfg": false,
      "metar_trigger": false,
      "taf_trigger": false,
      "metar": "METAR LRSV 162330Z 07007KT 5000 BR OVC008 M05/M06 Q1002",
      "taf": "TAF LRSV 162300Z 1700/1709 08006KT 5000 BR OVC010"
    },
    {
      "icao": "LRTM",
      "alert": "OK",
      "vis_m": 9999,
      "fzfg": false,
      "metar_trigger": false,
      "taf_trigger": false,
      "metar": "METAR LRTM 162330Z AUTO 07003KT 030V110 9999 NCD M00/M02 Q1002",
      "taf": "TAF LRTM 162300Z 1700/1709 VRB04KT CAVOK"
    },
    {
      "icao": "LRTR",
      "alert": "OK",
      "vis_m": 9999,
      "fzfg": false,
      "metar_trigger": false,
      "taf_trigger": false,
      "metar": "METAR LRTR 162330Z 09011KT 9999 SCT032 02/02 Q1001",
      "taf": "TAF LRTR 162300Z 1700/1724 09008KT 9999 SCT010 BKN035"
    },
    {
      "icao": "LTAC",
      "alert": "OK",
      "vis_m": 9999,
      "fzfg": false,
      "metar_trigger": false,
      "taf_trigger": false,
      "metar": "METAR LTAC 162350Z VRB02KT 9999 -SHRA BKN035 BKN080 08/05 Q1007 NOSIG RMK RWY21C 27002KT RWY03L VRB01KT RWY21R VRB02KT RWY03R VRB01KT RWY21L VRB01KT",
      "taf": "TAF LTAC 162240Z 1700/1724 21009KT 9999 SCT035 BKN100"
    },
    {
      "icao": "LTFM",
      "alert": "OK",
      "vis_m": 6000,
      "fzfg": false,
      "metar_trigger": false,
      "taf_trigger": false,
      "metar": "METAR LTFM 162350Z 21003KT 130V270 6000 -SHRA FEW002 SCT022 BKN080 08/08 Q1003 NOSIG RMK RWY17L 28004KT 210V300 RWY34L 29005KT 230V320 RWY16R 28002KT RWY36 VRB04KT RWY18 VRB03G15KT",
      "taf": "TAF LTFM 162240Z 1700/1806 32007KT 6000 -SHRA SCT002 BKN020"
    },
    {
      "icao": "LUKK",
      "alert": "OK",
      "vis_m": 9999,
      "fzfg": false,
      "metar_trigger": false,
      "taf_trigger": false,
      "metar": "METAR LUKK 162330Z 08005KT 9999 OVC025 M04/M06 Q1006 NOSIG",
      "taf": "TAF LUKK 162328Z 1700/1724 09006KT 9999 BKN020"
    },
    {
      "icao": "LWOH",
      "alert": "OK",
      "vis_m": null,
      "fzfg": false,
      "metar_trigger": false,
      "taf_trigger": false,
      "metar": "",
      "taf": "TAF LWOH 162330Z 1700/1724 16010KT 9999 BKN035"
    },
    {
      "icao": "LWSK",
      "alert": "OK",
      "vis_m": 9999,
      "fzfg": false,
      "metar_trigger": false,
      "taf_trigger": false,
      "metar": "METAR LWSK 162350Z VRB01KT 9999 BKN090 03/02 Q1000 NOSIG",
      "taf": "TAF LWSK 162330Z 1700/1724 VRB02KT 9999 BKN070"
    },
    {
      "icao": "LYBE",
      "alert": "OK",
      "vis_m": 9999,
      "fzfg": false,
      "metar_trigger": false,
      "taf_trigger": false,
      "metar": "METAR LYBE 162330Z 34004KT 9999 BKN040 04/03 Q1000 NOSIG",
      "taf": "TAF LYBE 162300Z 1700/1724 08006KT 9999 BKN040 TX05/1700Z TN00/1709Z"
    },
    {
      "icao": "LYNI",
      "alert": "OK",
      "vis_m": 9999,
      "fzfg": false,
      "metar_trigger": false,
      "taf_trigger": false,
      "metar": "METAR LYNI 162330Z 10002KT 9999 -RA SCT040 BKN070 07/03 Q0999 NOSIG",
      "taf": "TAF LYNI 162300Z 1700/1724 09004KT 9999 SCT030 OVC060 TX07/1708Z TN01/1718Z"
    },
    {
      "icao": "LYPG",
      "alert": "OK",
      "vis_m": 9999,
      "fzfg": false,
      "metar_trigger": false,
      "taf_trigger": false,
      "metar": "METAR LYPG 162330Z 11013KT 9999 RA FEW030 SCT040 BKN070 10/08 Q0995 RETS NOSIG",
      "taf": "TAF LYPG 162300Z 1700/1724 14009KT 8000 RA BKN030 OVC060 TX11/1712Z TN08/1706Z"
    },
    {
      "icao": "LZIB",
      "alert": "OK",
      "vis_m": 5000,
      "fzfg": false,
      "metar_trigger": false,
      "taf_trigger": false,
      "metar": "METAR LZIB 162330Z 02003KT 5000 -SN BKN005 OVC007 M02/M02 Q1002 TEMPO 2000 SN BR BKN004",
      "taf": "TAF LZIB 162315Z 1700/1800 10008KT 7000 SCT005 OVC012"
    },
    {
      "icao": "LZKZ",
      "alert": "OK",
      "vis_m": 7000,
      "fzfg": false,
      "metar_trigger": false,
      "taf_trigger": false,
      "metar": "METAR LZKZ 162330Z VRB02KT 7000 OVC008 M03/M04 Q1002 NOSIG",
      "taf": "TAF LZKZ 162315Z 1700/1800 VRB02KT 7000 FEW008 BKN016"
    },
    {
      "icao": "LZTT",
      "alert": "OK",
      "vis_m": 9999,
      "fzfg": false,
      "metar_trigger": false,
      "taf_trigger": false,
      "metar": "METAR LZTT 162330Z VRB02KT 9999 FEW026 M09/M10 Q0998",
      "taf": "TAF LZTT 162315Z 1700/1800 VRB02KT 9999 FEW012 SCT030"
    },
    {
      "icao": "OEJN",
      "alert": "OK",
      "vis_m": 9999,
      "fzfg": false,
      "metar_trigger": false,
      "taf_trigger": false,
      "metar": "METAR OEJN 162300Z 00000KT CAVOK 25/19 Q1011 NOSIG",
      "taf": "TAF OEJN 162300Z 1700/1806 VRB03KT 7000 NSC"
    },
    {
      "icao": "OEMA",
      "alert": "OK",
      "vis_m": 9999,
      "fzfg": false,
      "metar_trigger": false,
      "taf_trigger": false,
      "metar": "METAR OEMA 162300Z 03008KT CAVOK 23/M02 Q1017 NOSIG",
      "taf": "TAF OEMA 162300Z 1700/1806 09010KT CAVOK"
    },
    {
      "icao": "OJAI",
      "alert": "OK",
      "vis_m": 4000,
      "fzfg": false,
      "metar_trigger": false,
      "taf_trigger": false,
      "metar": "METAR OJAI 162300Z 04004KT 4000 HZ NSC 13/00 Q1015 NOSIG",
      "taf": "TAF OJAI 162247Z 1700/1806 VRB02KT 5000 HZ NSC"
    },
    {
      "icao": "OMAA",
      "alert": "OK",
      "vis_m": 9999,
      "fzfg": false,
      "metar_trigger": false,
      "taf_trigger": false,
      "metar": "METAR OMAA 162330Z 32006KT 280V010 CAVOK 21/19 Q1013 NOSIG",
      "taf": "TAF OMAA 162300Z 1700/1806 31007KT 8000 NSC"
    },
    {
      "icao": "OMDB",
      "alert": "OK",
      "vis_m": 9999,
      "fzfg": false,
      "metar_trigger": false,
      "taf_trigger": false,
      "metar": "METAR OMDB 162300Z 13006KT CAVOK 21/15 Q1013 NOSIG",
      "taf": "TAF OMDB 162300Z 1700/1806 12005KT 8000 NSC"
    },
    {
      "icao": "UAAA",
      "alert": "OK",
      "vis_m": 2100,
      "fzfg": false,
      "metar_trigger": false,
      "taf_trigger": false,
      "metar": "METAR UAAA 162330Z VRB01MPS 2100 BR OVC032 03/02 Q1021 NOSIG",
      "taf": "TAF UAAA 162301Z 1700/1724 22003MPS 3100 -SHRA BR BKN011CB OVC030 TX09/1709Z TN01/1702Z"
    },
    {
      "icao": "UBBB",
      "alert": "OK",
      "vis_m": 9999,
      "fzfg": false,
      "metar_trigger": false,
      "taf_trigger": false,
      "metar": "METAR UBBB 162330Z 17014KT CAVOK 12/07 Q1009 NOSIG",
      "taf": "TAF UBBB 162301Z 1700/1724 18012KT CAVOK TX16/1710Z TN10/1702Z"
    },
    {
      "icao": "UDSG",
      "alert": "OK",
      "vis_m": 600,
      "fzfg": true,
      "metar_trigger": false,
      "taf_trigger": false,
      "metar": "METAR UDSG 162330Z 01002KT 0600 R02/1400N FZFG VV003 M04/M04 Q1020 NOSIG",
      "taf": "TAF UDSG 162258Z 1700/1724 VRB06KT 2000 BR SCT040"
    },
    {
      "icao": "UDYZ",
      "alert": "OK",
      "vis_m": 2100,
      "fzfg": false,
      "metar_trigger": false,
      "taf_trigger": false,
      "metar": "METAR UDYZ 162330Z 00000KT 2100 0200N BCFG NSC 01/M00 Q1018 NOSIG",
      "taf": "TAF UDYZ 162300Z 1700/1724 VRB04KT 2300 BR FEW040"
    },
    {
      "icao": "UGKO",
      "alert": "OK",
      "vis_m": 9999,
      "fzfg": false,
      "metar_trigger": false,
      "taf_trigger": false,
      "metar": "METAR UGKO 162330Z 08015KT CAVOK 19/00 Q1006 NOSIG",
      "taf": "TAF UGKO 162300Z 1700/1724 08007KT CAVOK TX21/1711Z TN11/1724Z"
    }
  ]
}