{
  "ts_utc": "2026-04-11T13:19:10Z",
  "threshold_m": 150,
  "source": "stations_override.txt (ICAO list) + aviationweather.gov (METAR/TAF raw)",
  "station_count": 159,
  "stations": [
    {
      "icao": "BIKF",
      "alert": "OK",
      "vis_m": 9999,
      "fzfg": false,
      "metar_trigger": false,
      "taf_trigger": false,
      "metar": "METAR BIKF 111300Z 04016KT 360V060 9999 FEW021 03/M03 Q1005",
      "taf": "TAF BIKF 111032Z 1112/1212 02023KT 9999 SCT017 TX03/1115Z TN00/1203Z"
    },
    {
      "icao": "BKPR",
      "alert": "OK",
      "vis_m": 9999,
      "fzfg": false,
      "metar_trigger": false,
      "taf_trigger": false,
      "metar": "METAR BKPR 111300Z 11004KT 040V190 9999 FEW050 15/05 Q1016 NOSIG",
      "taf": "TAF BKPR 111130Z 1112/1212 01007KT 9999 SCT040"
    },
    {
      "icao": "EBCI",
      "alert": "OK",
      "vis_m": 9999,
      "fzfg": false,
      "metar_trigger": false,
      "taf_trigger": false,
      "metar": "METAR EBCI 111250Z 21016KT CAVOK 19/09 Q1007 TEMPO 18015G28KT 3500 MODSHRA SCT014TCU",
      "taf": "TAF EBCI 111106Z 1112/1218 17012KT 9999 FEW040"
    },
    {
      "icao": "EDDB",
      "alert": "OK",
      "vis_m": 9999,
      "fzfg": false,
      "metar_trigger": false,
      "taf_trigger": false,
      "metar": "METAR EDDB 111250Z AUTO 15009KT 110V190 CAVOK 13/M01 Q1018 NOSIG",
      "taf": "TAF EDDB 111100Z 1112/1212 12008KT CAVOK"
    },
    {
      "icao": "EDDH",
      "alert": "OK",
      "vis_m": 9999,
      "fzfg": false,
      "metar_trigger": false,
      "taf_trigger": false,
      "metar": "METAR EDDH 111250Z AUTO 15018KT CAVOK 15/01 Q1014 TEMPO 16015G25KT",
      "taf": "TAF EDDH 111100Z 1112/1218 12012KT 9999 FEW040"
    },
    {
      "icao": "EDDK",
      "alert": "OK",
      "vis_m": 9999,
      "fzfg": false,
      "metar_trigger": false,
      "taf_trigger": false,
      "metar": "METAR EDDK 111250Z AUTO 16016KT CAVOK 19/05 Q1009 TEMPO 14015G25KT",
      "taf": "TAF EDDK 111100Z 1112/1218 14013KT 9999 SCT020 BKN040"
    },
    {
      "icao": "EDDN",
      "alert": "OK",
      "vis_m": 9999,
      "fzfg": false,
      "metar_trigger": false,
      "taf_trigger": false,
      "metar": "METAR EDDN 111250Z AUTO 11009KT CAVOK 15/02 Q1014 NOSIG",
      "taf": "TAF EDDN 111100Z 1112/1212 12009KT CAVOK"
    },
    {
      "icao": "EDDS",
      "alert": "OK",
      "vis_m": 9999,
      "fzfg": false,
      "metar_trigger": false,
      "taf_trigger": false,
      "metar": "METAR EDDS 111250Z AUTO VRB04KT CAVOK 19/09 Q1011 NOSIG",
      "taf": "TAF EDDS 111100Z 1112/1212 10005KT 9999 FEW040"
    },
    {
      "icao": "EDFH",
      "alert": "OK",
      "vis_m": 9999,
      "fzfg": false,
      "metar_trigger": false,
      "taf_trigger": false,
      "metar": "METAR EDFH 111250Z 14015KT CAVOK 17/07 Q1010",
      "taf": "TAF EDFH 111100Z 1112/1212 14010KT 9999 FEW040"
    },
    {
      "icao": "EDJA",
      "alert": "OK",
      "vis_m": 9999,
      "fzfg": false,
      "metar_trigger": false,
      "taf_trigger": false,
      "metar": "METAR EDJA 111250Z VRB02KT CAVOK 17/10 Q1013",
      "taf": "TAF EDJA 111100Z 1112/1121 VRB03KT CAVOK"
    },
    {
      "icao": "EDLW",
      "alert": "OK",
      "vis_m": 9999,
      "fzfg": false,
      "metar_trigger": false,
      "taf_trigger": false,
      "metar": "METAR EDLW 111250Z COR 14010KT 110V190 CAVOK 19/02 Q1009",
      "taf": "TAF EDLW 111100Z 1112/1212 15012KT 9999 SCT020 BKN040"
    },
    {
      "icao": "EDNY",
      "alert": "OK",
      "vis_m": 9999,
      "fzfg": false,
      "metar_trigger": false,
      "taf_trigger": false,
      "metar": "METAR EDNY 111250Z 24004KT CAVOK 17/11 Q1012",
      "taf": "TAF EDNY 111100Z 1112/1121 25005KT CAVOK"
    },
    {
      "icao": "EDSB",
      "alert": "OK",
      "vis_m": 9999,
      "fzfg": false,
      "metar_trigger": false,
      "taf_trigger": false,
      "metar": "METAR EDSB 111250Z 35007KT 320V030 CAVOK 20/11 Q1010",
      "taf": "TAF EDSB 111100Z 1112/1212 34005KT 9999 FEW045"
    },
    {
      "icao": "EETN",
      "alert": "OK",
      "vis_m": 9999,
      "fzfg": false,
      "metar_trigger": false,
      "taf_trigger": false,
      "metar": "METAR EETN 111250Z 04011KT CAVOK 08/M05 Q1023 NOSIG",
      "taf": "TAF EETN 111130Z 1112/1212 05010KT CAVOK"
    },
    {
      "icao": "EFTU",
      "alert": "OK",
      "vis_m": 9999,
      "fzfg": false,
      "metar_trigger": false,
      "taf_trigger": false,
      "metar": "METAR EFTU 111250Z AUTO 11006KT 060V190 CAVOK 12/M11 Q1024",
      "taf": "TAF EFTU 111123Z 1112/1212 14007KT CAVOK"
    },
    {
      "icao": "EGBB",
      "alert": "OK",
      "vis_m": 9999,
      "fzfg": false,
      "metar_trigger": false,
      "taf_trigger": false,
      "metar": "METAR EGBB 111250Z 21013G24KT 170V250 9999 FEW045 10/M02 Q1003",
      "taf": "TAF EGBB 111102Z 1112/1212 23013KT 9999 FEW045"
    },
    {
      "icao": "EGGP",
      "alert": "OK",
      "vis_m": 9999,
      "fzfg": false,
      "metar_trigger": false,
      "taf_trigger": false,
      "metar": "METAR EGGP 111250Z 19010KT 160V220 9999 VCSH SCT037 BKN044 10/02 Q1001",
      "taf": "TAF EGGP 111101Z 1112/1212 22015KT 9999 SCT030"
    },
    {
      "icao": "EGGW",
      "alert": "OK",
      "vis_m": 9999,
      "fzfg": false,
      "metar_trigger": false,
      "taf_trigger": false,
      "metar": "METAR EGGW 111250Z AUTO 24022KT 9999 NCD 11/M03 Q1005",
      "taf": "TAF EGGW 111054Z 1112/1212 28012KT 9999 SCT040"
    },
    {
      "icao": "EGKK",
      "alert": "OK",
      "vis_m": 9999,
      "fzfg": false,
      "metar_trigger": false,
      "taf_trigger": false,
      "metar": "METAR EGKK 111250Z 24012KT 9999 FEW048 12/M01 Q1006",
      "taf": "TAF EGKK 111055Z 1112/1218 28013KT 9999 SCT030"
    },
    {
      "icao": "EGNM",
      "alert": "OK",
      "vis_m": 9999,
      "fzfg": false,
      "metar_trigger": false,
      "taf_trigger": false,
      "metar": "METAR EGNM 111250Z 19011KT 160V220 9999 SCT036 08/01 Q1000",
      "taf": "TAF EGNM 111100Z 1112/1212 24012KT 9999 SCT030"
    },
    {
      "icao": "EGPD",
      "alert": "OK",
      "vis_m": 9999,
      "fzfg": false,
      "metar_trigger": false,
      "taf_trigger": false,
      "metar": "METAR EGPD 111250Z COR AUTO 18020KT 9999 SCT023 SCT032 08/03 Q0994 NOSIG",
      "taf": "TAF EGPD 111058Z 1112/1212 16012KT 9999 SCT020"
    },
    {
      "icao": "EGPF",
      "alert": "OK",
      "vis_m": 9999,
      "fzfg": false,
      "metar_trigger": false,
      "taf_trigger": false,
      "metar": "METAR EGPF 111250Z AUTO 18018KT 9999 OVC033 09/02 Q0993",
      "taf": "TAF EGPF 111053Z 1112/1212 18015G25KT 9999 SCT030"
    },
    {
      "icao": "EHBK",
      "alert": "OK",
      "vis_m": 9999,
      "fzfg": false,
      "metar_trigger": false,
      "taf_trigger": false,
      "metar": "METAR EHBK 111255Z AUTO 16013KT 130V190 9999 NSC 21/07 Q1006 BECMG 21014KT",
      "taf": "TAF EHBK 111101Z 1112/1218 17012KT CAVOK"
    },
    {
      "icao": "EHEH",
      "alert": "OK",
      "vis_m": 9999,
      "fzfg": false,
      "metar_trigger": false,
      "taf_trigger": false,
      "metar": "METAR EHEH 111255Z AUTO 14012KT 110V240 9999 OVC100 21/06 Q1006 BLU NOSIG RMK TREND REMOTE BY EHWX",
      "taf": "TAF EHEH 111120Z 1112/1218 13011KT CAVOK"
    },
    {
      "icao": "EKBI",
      "alert": "OK",
      "vis_m": 9999,
      "fzfg": false,
      "metar_trigger": false,
      "taf_trigger": false,
      "metar": "METAR EKBI 111250Z AUTO 13017KT 100V160 9999 NCD 12/M01 Q1015",
      "taf": "TAF EKBI 111127Z 1112/1212 13012KT 9999 FEW025"
    },
    {
      "icao": "EKCH",
      "alert": "OK",
      "vis_m": 9999,
      "fzfg": false,
      "metar_trigger": false,
      "taf_trigger": false,
      "metar": "METAR EKCH 111250Z AUTO 14015KT 9999 NCD 08/02 Q1021 NOSIG",
      "taf": "TAF EKCH 111127Z 1112/1212 12015KT 9999 SCT030"
    },
    {
      "icao": "ENAL",
      "alert": "OK",
      "vis_m": 9999,
      "fzfg": false,
      "metar_trigger": false,
      "taf_trigger": false,
      "metar": "METAR ENAL 111250Z 15006KT CAVOK 13/M03 Q1013",
      "taf": "TAF ENAL 111100Z 1112/1121 14008KT CAVOK"
    },
    {
      "icao": "ENBR",
      "alert": "OK",
      "vis_m": 9999,
      "fzfg": false,
      "metar_trigger": false,
      "taf_trigger": false,
      "metar": "METAR ENBR 111250Z 12017KT CAVOK 11/M05 Q1011 TEMPO 12018G28KT RMK WIND 1200FT 13029KT",
      "taf": "TAF ENBR 111100Z 1112/1212 14015KT CAVOK"
    },
    {
      "icao": "ENGM",
      "alert": "OK",
      "vis_m": 9999,
      "fzfg": false,
      "metar_trigger": false,
      "taf_trigger": false,
      "metar": "METAR ENGM 111250Z 14008KT 100V160 CAVOK 08/M04 Q1020 NOSIG",
      "taf": "TAF ENGM 111100Z 1112/1212 16012KT 9999 SCT045"
    },
    {
      "icao": "ENHD",
      "alert": "OK",
      "vis_m": 9999,
      "fzfg": false,
      "metar_trigger": false,
      "taf_trigger": false,
      "metar": "METAR ENHD 111250Z 13023G33KT CAVOK 10/00 Q1011",
      "taf": "TAF ENHD 111100Z 1112/1121 14022KT CAVOK"
    },
    {
      "icao": "ENTC",
      "alert": "OK",
      "vis_m": 9999,
      "fzfg": false,
      "metar_trigger": false,
      "taf_trigger": false,
      "metar": "METAR ENTC 111250Z VRB02KT CAVOK 10/M04 Q1022 NOSIG RMK WIND 2600FT 20004KT",
      "taf": "TAF ENTC 111100Z 1112/1212 02006KT CAVOK"
    },
    {
      "icao": "ENTO",
      "alert": "OK",
      "vis_m": 9999,
      "fzfg": false,
      "metar_trigger": false,
      "taf_trigger": false,
      "metar": "METAR ENTO 111250Z 12007KT 9999 SCT023 BKN045 06/01 Q1020 NOSIG",
      "taf": "TAF ENTO 111100Z 1112/1212 15005KT 9999 BKN020"
    },
    {
      "icao": "ENVA",
      "alert": "OK",
      "vis_m": 9999,
      "fzfg": false,
      "metar_trigger": false,
      "taf_trigger": false,
      "metar": "METAR ENVA 111250Z 15016KT CAVOK 11/M03 Q1018 NOSIG RMK WIND 670FT 15024G36KT",
      "taf": "TAF ENVA 111100Z 1112/1212 14015KT CAVOK"
    },
    {
      "icao": "ENZV",
      "alert": "OK",
      "vis_m": 9999,
      "fzfg": false,
      "metar_trigger": false,
      "taf_trigger": false,
      "metar": "METAR ENZV 111250Z 14026KT 9999 FEW036 10/M00 Q1012 NOSIG",
      "taf": "TAF ENZV 111100Z 1112/1212 14020KT 9999 SCT030"
    },
    {
      "icao": "EPGD",
      "alert": "OK",
      "vis_m": 9999,
      "fzfg": false,
      "metar_trigger": false,
      "taf_trigger": false,
      "metar": "METAR EPGD 111300Z 05008KT 9999 FEW030 09/M01 Q1020",
      "taf": "TAF EPGD 111130Z 1112/1212 07009KT CAVOK"
    },
    {
      "icao": "EPKK",
      "alert": "OK",
      "vis_m": 9999,
      "fzfg": false,
      "metar_trigger": false,
      "taf_trigger": false,
      "metar": "METAR EPKK 111300Z 18003KT 120V200 9999 BKN059 09/M05 Q1019",
      "taf": "TAF EPKK 111130Z 1112/1212 VRB02KT 9999 BKN055"
    },
    {
      "icao": "EPKT",
      "alert": "OK",
      "vis_m": 9999,
      "fzfg": false,
      "metar_trigger": false,
      "taf_trigger": false,
      "metar": "METAR EPKT 111300Z 35004KT 310V070 9999 FEW046 08/M06 Q1019",
      "taf": "TAF EPKT 111130Z 1112/1212 35005KT CAVOK"
    },
    {
      "icao": "EPLB",
      "alert": "OK",
      "vis_m": 9999,
      "fzfg": false,
      "metar_trigger": false,
      "taf_trigger": false,
      "metar": "METAR EPLB 111300Z 32006KT 290V350 9999 SCT048 09/M01 Q1017",
      "taf": "TAF EPLB 111130Z 1112/1212 33005KT CAVOK"
    },
    {
      "icao": "EPMO",
      "alert": "OK",
      "vis_m": 9999,
      "fzfg": false,
      "metar_trigger": false,
      "taf_trigger": false,
      "metar": "METAR EPMO 111300Z 28008KT 240V320 CAVOK 11/M01 Q1018",
      "taf": "TAF EPMO 111130Z 1112/1212 34005KT CAVOK"
    },
    {
      "icao": "EPPO",
      "alert": "OK",
      "vis_m": 9999,
      "fzfg": false,
      "metar_trigger": false,
      "taf_trigger": false,
      "metar": "METAR EPPO 111300Z VRB03KT CAVOK 14/M04 Q1019",
      "taf": "TAF EPPO 111130Z 1112/1212 VRB04KT CAVOK"
    },
    {
      "icao": "EPRA",
      "alert": "OK",
      "vis_m": 9999,
      "fzfg": false,
      "metar_trigger": false,
      "taf_trigger": false,
      "metar": "METAR EPRA 111300Z 34009KT CAVOK 08/M04 Q1018",
      "taf": "TAF EPRA 111130Z 1112/1121 35006KT CAVOK"
    },
    {
      "icao": "EPRZ",
      "alert": "OK",
      "vis_m": 9999,
      "fzfg": false,
      "metar_trigger": false,
      "taf_trigger": false,
      "metar": "METAR EPRZ 111300Z 32007KT 290V350 CAVOK 08/M04 Q1018",
      "taf": "TAF EPRZ 111130Z 1112/1212 32010KT CAVOK"
    },
    {
      "icao": "EPSC",
      "alert": "OK",
      "vis_m": 9999,
      "fzfg": false,
      "metar_trigger": false,
      "taf_trigger": false,
      "metar": "METAR EPSC 111300Z 12005KT 040V180 CAVOK 13/M03 Q1019",
      "taf": "TAF EPSC 111130Z 1112/1212 14007KT CAVOK"
    },
    {
      "icao": "EPSY",
      "alert": "OK",
      "vis_m": 9999,
      "fzfg": false,
      "metar_trigger": false,
      "taf_trigger": false,
      "metar": "METAR EPSY 111300Z 02007KT 330V080 CAVOK 11/M06 Q1018",
      "taf": "TAF EPSY 111130Z 1112/1121 02008KT CAVOK"
    },
    {
      "icao": "EPWA",
      "alert": "OK",
      "vis_m": 9999,
      "fzfg": false,
      "metar_trigger": false,
      "taf_trigger": false,
      "metar": "METAR EPWA 111300Z 31006KT 280V060 CAVOK 10/M02 Q1018 NOSIG",
      "taf": "TAF EPWA 111130Z 1112/1212 34005KT CAVOK"
    },
    {
      "icao": "EPWR",
      "alert": "OK",
      "vis_m": 9999,
      "fzfg": false,
      "metar_trigger": false,
      "taf_trigger": false,
      "metar": "METAR EPWR 111300Z 12007KT 050V170 CAVOK 12/M05 Q1019",
      "taf": "TAF EPWR 111130Z 1112/1212 VRB04KT CAVOK"
    },
    {
      "icao": "ESGG",
      "alert": "OK",
      "vis_m": 9999,
      "fzfg": false,
      "metar_trigger": false,
      "taf_trigger": false,
      "metar": "METAR ESGG 111250Z 11006KT 9999 BKN045 09/M01 Q1020",
      "taf": "TAF ESGG 111130Z 1112/1212 13006KT 9999 BKN030"
    },
    {
      "icao": "ESKN",
      "alert": "OK",
      "vis_m": 9999,
      "fzfg": false,
      "metar_trigger": false,
      "taf_trigger": false,
      "metar": "METAR ESKN 111250Z 10011KT 080V140 CAVOK 08/M04 Q1023",
      "taf": "TAF ESKN 111130Z 1112/1212 15009KT CAVOK"
    },
    {
      "icao": "ESMS",
      "alert": "OK",
      "vis_m": 9999,
      "fzfg": false,
      "metar_trigger": false,
      "taf_trigger": false,
      "metar": "METAR ESMS 111250Z 12011KT CAVOK 08/M02 Q1020",
      "taf": "TAF ESMS 111127Z 1112/1212 14010KT 9999 SCT030"
    },
    {
      "icao": "ESSA",
      "alert": "OK",
      "vis_m": 9999,
      "fzfg": false,
      "metar_trigger": false,
      "taf_trigger": false,
      "metar": "METAR ESSA 111250Z 17008KT 140V200 CAVOK 10/M07 Q1023 NOSIG",
      "taf": "TAF ESSA 111130Z 1112/1212 14008KT CAVOK"
    },
    {
      "icao": "EYKA",
      "alert": "OK",
      "vis_m": 9999,
      "fzfg": false,
      "metar_trigger": false,
      "taf_trigger": false,
      "metar": "METAR EYKA 111250Z 35011KT CAVOK 11/M00 Q1018",
      "taf": "TAF EYKA 111105Z 1112/1212 03014KT 9000 BKN035"
    },
    {
      "icao": "EYPA",
      "alert": "OK",
      "vis_m": 9999,
      "fzfg": false,
      "metar_trigger": false,
      "taf_trigger": false,
      "metar": "METAR EYPA 111250Z 33005KT 270V010 CAVOK 09/M04 Q1021",
      "taf": "TAF EYPA 111105Z 1112/1212 VRB04KT 9000 NSC"
    },
    {
      "icao": "EYVI",
      "alert": "OK",
      "vis_m": 9999,
      "fzfg": false,
      "metar_trigger": false,
      "taf_trigger": false,
      "metar": "METAR EYVI 111250Z 07007KT 030V100 9999 SCT041 BKN049 08/00 Q1017 NOSIG",
      "taf": "TAF EYVI 111110Z 1112/1212 04010KT 9000 BKN035"
    },
    {
      "icao": "GCFV",
      "alert": "OK",
      "vis_m": 9999,
      "fzfg": false,
      "metar_trigger": false,
      "taf_trigger": false,
      "metar": "METAR GCFV 111300Z COR 34016KT 9999 -RA FEW025 SCT035 BKN045 20/13 Q1020",
      "taf": "TAF GCFV 110800Z 1109/1209 35014KT 9999 BKN025 TX21/1114Z TN17/1206Z"
    },
    {
      "icao": "GCLP",
      "alert": "OK",
      "vis_m": 9999,
      "fzfg": false,
      "metar_trigger": false,
      "taf_trigger": false,
      "metar": "METAR GCLP 111300Z 35024G34KT 9999 FEW030 SCT038 22/12 Q1021 NOSIG",
      "taf": "TAF GCLP 110800Z 1109/1209 35022KT 9999 BKN030 TX22/1114Z TN16/1206Z"
    },
    {
      "icao": "GCTS",
      "alert": "OK",
      "vis_m": 9999,
      "fzfg": false,
      "metar_trigger": false,
      "taf_trigger": false,
      "metar": "METAR GCTS 111300Z 24010KT 9999 BKN030 21/15 Q1021 NOSIG",
      "taf": "TAF GCTS 110800Z 1109/1209 VRB08KT 9999 SCT030 TX22/1114Z TN15/1206Z"
    },
    {
      "icao": "GMAD",
      "alert": "OK",
      "vis_m": 8000,
      "fzfg": false,
      "metar_trigger": false,
      "taf_trigger": false,
      "metar": "METAR GMAD 111300Z 27015KT 8000 FEW020 22/11 Q1015 NOSIG",
      "taf": "TAF GMAD 111100Z 1112/1218 27012KT 8000 SCT020"
    },
    {
      "icao": "GMMN",
      "alert": "OK",
      "vis_m": 9999,
      "fzfg": false,
      "metar_trigger": false,
      "taf_trigger": false,
      "metar": "METAR GMMN 111300Z 29014KT 250V330 9999 BKN020 19/13 Q1016 NOSIG",
      "taf": "TAF GMMN 111100Z 1112/1218 28010KT 9999 BKN020"
    },
    {
      "icao": "GMMX",
      "alert": "OK",
      "vis_m": 9999,
      "fzfg": false,
      "metar_trigger": false,
      "taf_trigger": false,
      "metar": "METAR GMMX 111300Z 28003KT 220V360 9999 SCT026 SCT080 18/12 Q1017 NOSIG",
      "taf": "TAF GMMX 111100Z 1112/1218 06008KT 8000 SCT026 SCT080"
    },
    {
      "icao": "HEGN",
      "alert": "OK",
      "vis_m": 9999,
      "fzfg": false,
      "metar_trigger": false,
      "taf_trigger": false,
      "metar": "METAR HEGN 111200Z 36014KT CAVOK 28/02 Q1015 NOSIG",
      "taf": "TAF HEGN 111100Z 1112/1218 01015KT CAVOK"
    },
    {
      "icao": "HEMA",
      "alert": "OK",
      "vis_m": 9999,
      "fzfg": false,
      "metar_trigger": false,
      "taf_trigger": false,
      "metar": "METAR HEMA 111200Z 35020KT CAVOK 26/08 Q1014 NOSIG",
      "taf": "TAF HEMA 111100Z 1112/1218 01010G20KT CAVOK"
    },
    {
      "icao": "HESH",
      "alert": "OK",
      "vis_m": 9999,
      "fzfg": false,
      "metar_trigger": false,
      "taf_trigger": false,
      "metar": "METAR HESH 111200Z 06004KT CAVOK 28/07 Q1014 NOSIG",
      "taf": "TAF HESH 111100Z 1112/1218 11010KT CAVOK"
    },
    {
      "icao": "HESX",
      "alert": "OK",
      "vis_m": 9999,
      "fzfg": false,
      "metar_trigger": false,
      "taf_trigger": false,
      "metar": "METAR HESX 111200Z 34002KT CAVOK 23/08 Q1017 NOSIG",
      "taf": "TAF HESX 111100Z 1112/1218 30009KT CAVOK"
    },
    {
      "icao": "LATI",
      "alert": "OK",
      "vis_m": null,
      "fzfg": false,
      "metar_trigger": false,
      "taf_trigger": false,
      "metar": "",
      "taf": "TAF LATI 111100Z 1112/1212 29010KT CAVOK TX25/1212Z TN07/1204Z"
    },
    {
      "icao": "LBPD",
      "alert": "OK",
      "vis_m": 9999,
      "fzfg": false,
      "metar_trigger": false,
      "taf_trigger": false,
      "metar": "METAR LBPD 111300Z AUTO 11004KT 080V140 9999 BKN066/// OVC091/// 09/04 Q1018 NOSIG",
      "taf": "TAF LBPD 111100Z 1112/1212 VRB04KT 9999 BKN060"
    },
    {
      "icao": "LBSF",
      "alert": "OK",
      "vis_m": 9999,
      "fzfg": false,
      "metar_trigger": false,
      "taf_trigger": false,
      "metar": "METAR LBSF 111300Z VRB02KT 9999 FEW020 OVC077 08/04 Q1017 NOSIG",
      "taf": "TAF LBSF 111100Z 1112/1212 29012KT 9999 BKN025"
    },
    {
      "icao": "LBWN",
      "alert": "OK",
      "vis_m": 9999,
      "fzfg": false,
      "metar_trigger": false,
      "taf_trigger": false,
      "metar": "METAR LBWN 111300Z 13012KT 9999 SCT026 10/02 Q1018 TEMPO 5000 RA",
      "taf": "TAF LBWN 111100Z 1112/1212 11012KT 9999 SCT030 SCT045"
    },
    {
      "icao": "LCLK",
      "alert": "OK",
      "vis_m": 9999,
      "fzfg": false,
      "metar_trigger": false,
      "taf_trigger": false,
      "metar": "METAR LCLK 111300Z 20011KT 9999 FEW025 FEW030TCU SCT060 19/14 Q1013 NOSIG",
      "taf": "TAF LCLK 111130Z 1112/1212 22018KT 9999 FEW030"
    },
    {
      "icao": "LCPH",
      "alert": "OK",
      "vis_m": 9999,
      "fzfg": false,
      "metar_trigger": false,
      "taf_trigger": false,
      "metar": "METAR LCPH 111300Z 31012KT 250V320 9999 FEW025 20/12 Q1015 NOSIG",
      "taf": "TAF LCPH 111130Z 1112/1212 29015KT 9999 FEW025"
    },
    {
      "icao": "LEAL",
      "alert": "OK",
      "vis_m": 9999,
      "fzfg": false,
      "metar_trigger": false,
      "taf_trigger": false,
      "metar": "METAR LEAL 111300Z 21006KT 170V240 CAVOK 24/08 Q1007 NOSIG",
      "taf": "TAF LEAL 111100Z 1112/1212 VRB05KT CAVOK TX24/1113Z TN12/1206Z"
    },
    {
      "icao": "LEBB",
      "alert": "OK",
      "vis_m": 7000,
      "fzfg": false,
      "metar_trigger": false,
      "taf_trigger": false,
      "metar": "METAR LEBB 111300Z 32008KT 280V350 7000 SCT014 SCT021 OVC033 11/10 Q1020 TEMPO 3000 RA BKN010",
      "taf": "TAF LEBB 111100Z 1112/1212 30009KT 9999 BKN020 TX13/1112Z TN09/1206Z"
    },
    {
      "icao": "LEBL",
      "alert": "OK",
      "vis_m": 9999,
      "fzfg": false,
      "metar_trigger": false,
      "taf_trigger": false,
      "metar": "METAR LEBL 111300Z 16004KT 120V200 CAVOK 22/09 Q1010 NOSIG",
      "taf": "TAF LEBL 111100Z 1112/1212 16008KT CAVOK TX23/1112Z TN11/1206Z"
    },
    {
      "icao": "LECH",
      "alert": "OK",
      "vis_m": 9999,
      "fzfg": false,
      "metar_trigger": false,
      "taf_trigger": false,
      "metar": "METAR LECH 111300Z AUTO 12005KT 040V160 CAVOK 22/M01 Q1011",
      "taf": "TAF LECH 111100Z 1112/1212 VRB04KT CAVOK TX26/1114Z TN08/1206Z"
    },
    {
      "icao": "LEMD",
      "alert": "OK",
      "vis_m": 9999,
      "fzfg": false,
      "metar_trigger": false,
      "taf_trigger": false,
      "metar": "METAR LEMD 111300Z 22004KT 170V270 CAVOK 21/04 Q1011 NOSIG",
      "taf": "TAF LEMD 111100Z 1112/1218 VRB04KT CAVOK TX25/1115Z TN05/1206Z"
    },
    {
      "icao": "LEMG",
      "alert": "OK",
      "vis_m": 9999,
      "fzfg": false,
      "metar_trigger": false,
      "taf_trigger": false,
      "metar": "METAR LEMG 111300Z 11009KT 040V140 9999 SCT040 21/14 Q1010 NOSIG",
      "taf": "TAF LEMG 111100Z 1112/1212 30009KT 9999 FEW040 TX22/1114Z TN14/1206Z"
    },
    {
      "icao": "LEVC",
      "alert": "OK",
      "vis_m": 9999,
      "fzfg": false,
      "metar_trigger": false,
      "taf_trigger": false,
      "metar": "METAR LEVC 111300Z 07008KT 030V110 CAVOK 23/04 Q1010 NOSIG",
      "taf": "TAF LEVC 111100Z 1112/1212 08009KT CAVOK TX23/1113Z TN11/1206Z"
    },
    {
      "icao": "LEXJ",
      "alert": "OK",
      "vis_m": 9000,
      "fzfg": false,
      "metar_trigger": false,
      "taf_trigger": false,
      "metar": "METAR LEXJ 111300Z 33010KT 290V010 9000 BKN034 OVC044 11/07 Q1020",
      "taf": ""
    },
    {
      "icao": "LEZG",
      "alert": "OK",
      "vis_m": 9999,
      "fzfg": false,
      "metar_trigger": false,
      "taf_trigger": false,
      "metar": "METAR LEZG 111300Z 33012KT CAVOK 23/07 Q1011 NOSIG",
      "taf": "TAF LEZG 111100Z 1112/1212 11007KT CAVOK TX27/1113Z TN07/1206Z"
    },
    {
      "icao": "LEZL",
      "alert": "OK",
      "vis_m": 9999,
      "fzfg": false,
      "metar_trigger": false,
      "taf_trigger": false,
      "metar": "METAR LEZL 111300Z VRB03KT 9999 SCT024 21/16 Q1011 NOSIG",
      "taf": "TAF LEZL 110800Z 1109/1209 24008KT 9999 FEW030 TX25/1114Z TN12/1206Z"
    },
    {
      "icao": "LFBD",
      "alert": "OK",
      "vis_m": 9000,
      "fzfg": false,
      "metar_trigger": false,
      "taf_trigger": false,
      "metar": "METAR LFBD 111300Z AUTO 32017KT 9000 -RADZ BKN008/// BKN013/// OVC044/// ///TCU 12/11 Q1016 TEMPO 4000 RA BKN012 BKN040TCU",
      "taf": ""
    },
    {
      "icao": "LFLL",
      "alert": "OK",
      "vis_m": 9999,
      "fzfg": false,
      "metar_trigger": false,
      "taf_trigger": false,
      "metar": "METAR LFLL 111300Z 30003KT 250V340 9999 VCSH FEW100TCU BKN110 24/09 Q1011 TEMPO VRB15G30KT -SHRA SCT090TCU",
      "taf": "TAF LFLL 111100Z 1112/1218 18010KT CAVOK"
    },
    {
      "icao": "LFLS",
      "alert": "OK",
      "vis_m": 9999,
      "fzfg": false,
      "metar_trigger": false,
      "taf_trigger": false,
      "metar": "METAR LFLS 111300Z AUTO 23009KT 190V280 9999 NSC 24/08 Q1012 TEMPO BKN120TCU",
      "taf": "TAF LFLS 110800Z 1109/1209 20006KT CAVOK"
    },
    {
      "icao": "LFMN",
      "alert": "OK",
      "vis_m": 9999,
      "fzfg": false,
      "metar_trigger": false,
      "taf_trigger": false,
      "metar": "METAR LFMN 111300Z 15005KT 9999 FEW030 19/14 Q1015 NOSIG",
      "taf": "TAF LFMN 110800Z 1109/1215 VRB05KT 9999 BKN020"
    },
    {
      "icao": "LFOB",
      "alert": "OK",
      "vis_m": 9999,
      "fzfg": false,
      "metar_trigger": false,
      "taf_trigger": false,
      "metar": "METAR LFOB 111300Z AUTO 30014KT 9999 BKN013 OVC021 11/09 Q1009 TEMPO 4000 -SHRA BKN012 BKN020 SCT025TCU BECMG 26015G25KT",
      "taf": "TAF LFOB 111100Z 1112/1212 26015G25KT 9999 BKN025"
    },
    {
      "icao": "LFPO",
      "alert": "OK",
      "vis_m": 9999,
      "fzfg": false,
      "metar_trigger": false,
      "taf_trigger": false,
      "metar": "METAR LFPO 111300Z 27009KT 9999 SCT020 BKN066 OVC260 15/10 Q1009 NOSIG",
      "taf": "TAF LFPO 111100Z 1112/1218 24012KT 9999 SCT025"
    },
    {
      "icao": "LFSB",
      "alert": "OK",
      "vis_m": 9999,
      "fzfg": false,
      "metar_trigger": false,
      "taf_trigger": false,
      "metar": "METAR LFSB 111300Z AUTO VRB03KT CAVOK 24/08 Q1010 TEMPO 29015G25KT SHRA SCT060CB",
      "taf": "TAF LFSB 111100Z 1112/1212 26005KT CAVOK"
    },
    {
      "icao": "LGAV",
      "alert": "OK",
      "vis_m": 9999,
      "fzfg": false,
      "metar_trigger": false,
      "taf_trigger": false,
      "metar": "METAR LGAV 111250Z 08006KT 9999 BKN030 16/08 Q1017 NOSIG",
      "taf": "TAF LGAV 111100Z 1112/1212 10010KT 9999 SCT025 SCT070"
    },
    {
      "icao": "LGTS",
      "alert": "OK",
      "vis_m": 9999,
      "fzfg": false,
      "metar_trigger": false,
      "taf_trigger": false,
      "metar": "METAR LGTS 111250Z 30003KT 9999 FEW020 BKN030 14/08 Q1019 NOSIG",
      "taf": "TAF LGTS 111100Z 1112/1212 15013KT 9999 SCT025"
    },
    {
      "icao": "LHBP",
      "alert": "OK",
      "vis_m": 9999,
      "fzfg": false,
      "metar_trigger": false,
      "taf_trigger": false,
      "metar": "METAR LHBP 111300Z 26007KT 220V320 CAVOK 15/M04 Q1017 NOSIG",
      "taf": "TAF LHBP 111115Z 1112/1212 VRB03KT CAVOK"
    },
    {
      "icao": "LHDC",
      "alert": "OK",
      "vis_m": 9999,
      "fzfg": false,
      "metar_trigger": false,
      "taf_trigger": false,
      "metar": "METAR LHDC 111245Z AUTO VRB05KT CAVOK 13/M04 Q1017 NOSIG",
      "taf": "TAF LHDC 111115Z 1112/1121 VRB05KT CAVOK"
    },
    {
      "icao": "LIBD",
      "alert": "OK",
      "vis_m": 9999,
      "fzfg": false,
      "metar_trigger": false,
      "taf_trigger": false,
      "metar": "METAR LIBD 111250Z 03006KT 360V080 CAVOK 18/13 Q1015",
      "taf": "TAF LIBD 111100Z 1112/1212 07010KT 9999 FEW040"
    },
    {
      "icao": "LIBG",
      "alert": "OK",
      "vis_m": 9999,
      "fzfg": false,
      "metar_trigger": false,
      "taf_trigger": false,
      "metar": "METAR LIBG 111250Z 12004KT 040V210 CAVOK 23/14 Q1014",
      "taf": "TAF LIBG 111100Z 1112/1121 20008KT CAVOK"
    },
    {
      "icao": "LIBP",
      "alert": "OK",
      "vis_m": 9999,
      "fzfg": false,
      "metar_trigger": false,
      "taf_trigger": false,
      "metar": "METAR LIBP 111250Z AUTO 10010KT 060V120 9999 NCD 19/14 Q1014",
      "taf": "TAF LIBP 111100Z 1112/1212 09010KT 9999 FEW030"
    },
    {
      "icao": "LIBR",
      "alert": "OK",
      "vis_m": 9999,
      "fzfg": false,
      "metar_trigger": false,
      "taf_trigger": false,
      "metar": "METAR LIBR 111250Z 12008KT CAVOK 19/15 Q1015",
      "taf": "TAF LIBR 111100Z 1112/1212 08010KT 8000 FEW030"
    },
    {
      "icao": "LICA",
      "alert": "OK",
      "vis_m": 9999,
      "fzfg": false,
      "metar_trigger": false,
      "taf_trigger": false,
      "metar": "METAR LICA 111250Z AUTO 23007KT 200V260 9999 NCD 22/09 Q1014",
      "taf": "TAF LICA 111100Z 1112/1212 28012KT CAVOK"
    },
    {
      "icao": "LICC",
      "alert": "OK",
      "vis_m": 9999,
      "fzfg": false,
      "metar_trigger": false,
      "taf_trigger": false,
      "metar": "METAR LICC 111250Z 08007KT 050V110 CAVOK 22/15 Q1014",
      "taf": "TAF LICC 111100Z 1112/1212 10012KT CAVOK"
    },
    {
      "icao": "LICJ",
      "alert": "OK",
      "vis_m": 9999,
      "fzfg": false,
      "metar_trigger": false,
      "taf_trigger": false,
      "metar": "METAR LICJ 111250Z 30008KT CAVOK 20/13 Q1014",
      "taf": "TAF LICJ 111100Z 1112/1212 28010KT CAVOK"
    },
    {
      "icao": "LIMC",
      "alert": "OK",
      "vis_m": 9999,
      "fzfg": false,
      "metar_trigger": false,
      "taf_trigger": false,
      "metar": "METAR LIMC 111250Z 17005KT 090V230 CAVOK 21/04 Q1015 NOSIG",
      "taf": "TAF LIMC 111100Z 1112/1218 VRB05KT 9999 SCT045"
    },
    {
      "icao": "LIME",
      "alert": "OK",
      "vis_m": 9999,
      "fzfg": false,
      "metar_trigger": false,
      "taf_trigger": false,
      "metar": "METAR LIME 111250Z VRB05KT CAVOK 20/06 Q1015 NOSIG",
      "taf": "TAF LIME 111100Z 1112/1212 VRB05KT 9999 SCT040"
    },
    {
      "icao": "LIMF",
      "alert": "OK",
      "vis_m": 9999,
      "fzfg": false,
      "metar_trigger": false,
      "taf_trigger": false,
      "metar": "METAR LIMF 111250Z 06004KT 020V120 9999 FEW045 19/06 Q1015",
      "taf": "TAF LIMF 111100Z 1112/1212 VRB05KT 9999 SCT025"
    },
    {
      "icao": "LIMJ",
      "alert": "OK",
      "vis_m": 9999,
      "fzfg": false,
      "metar_trigger": false,
      "taf_trigger": false,
      "metar": "METAR LIMJ 111250Z 22005KT 9999 FEW045 17/14 Q1015",
      "taf": "TAF LIMJ 111100Z 1112/1212 VRB05KT 9999 FEW030"
    },
    {
      "icao": "LIPE",
      "alert": "OK",
      "vis_m": 9999,
      "fzfg": false,
      "metar_trigger": false,
      "taf_trigger": false,
      "metar": "METAR LIPE 111250Z VRB04KT 9999 SCT030 19/12 Q1015",
      "taf": "TAF LIPE 111100Z 1112/1212 VRB04KT 7000 SCT020"
    },
    {
      "icao": "LIPH",
      "alert": "OK",
      "vis_m": 9999,
      "fzfg": false,
      "metar_trigger": false,
      "taf_trigger": false,
      "metar": "METAR LIPH 111250Z VRB05KT CAVOK 21/07 Q1015",
      "taf": "TAF LIPH 111100Z 1112/1212 VRB05KT 9999 FEW060"
    },
    {
      "icao": "LIPQ",
      "alert": "OK",
      "vis_m": 9999,
      "fzfg": false,
      "metar_trigger": false,
      "taf_trigger": false,
      "metar": "METAR LIPQ 111250Z AUTO 20009KT 9999 NCD 20/03 Q1015",
      "taf": "TAF LIPQ 111100Z 1112/1212 22010KT 9999 FEW060"
    },
    {
      "icao": "LIPR",
      "alert": "OK",
      "vis_m": 9999,
      "fzfg": false,
      "metar_trigger": false,
      "taf_trigger": false,
      "metar": "METAR LIPR 111250Z 07005KT 010V140 9999 SCT010 16/13 Q1015",
      "taf": "TAF LIPR 111100Z 1112/1212 05010KT 8000 SCT014"
    },
    {
      "icao": "LIPX",
      "alert": "OK",
      "vis_m": 9999,
      "fzfg": false,
      "metar_trigger": false,
      "taf_trigger": false,
      "metar": "METAR LIPX 111250Z 11007KT 040V160 CAVOK 21/04 Q1015",
      "taf": "TAF LIPX 111100Z 1112/1212 11010KT CAVOK"
    },
    {
      "icao": "LIPY",
      "alert": "OK",
      "vis_m": 9999,
      "fzfg": false,
      "metar_trigger": false,
      "taf_trigger": false,
      "metar": "METAR LIPY 111250Z AUTO 06010KT 9999 NCD 19/14 Q1014",
      "taf": "TAF LIPY 111100Z 1112/1212 10012KT 9999 FEW030"
    },
    {
      "icao": "LIPZ",
      "alert": "OK",
      "vis_m": 9999,
      "fzfg": false,
      "metar_trigger": false,
      "taf_trigger": false,
      "metar": "METAR LIPZ 111250Z 15007KT CAVOK 18/07 Q1015 NOSIG",
      "taf": "TAF LIPZ 111100Z 1112/1218 15010KT CAVOK"
    },
    {
      "icao": "LIRF",
      "alert": "OK",
      "vis_m": 9999,
      "fzfg": false,
      "metar_trigger": false,
      "taf_trigger": false,
      "metar": "METAR LIRF 111250Z 24010KT CAVOK 20/14 Q1014 NOSIG",
      "taf": "TAF LIRF 111100Z 1112/1218 23010KT CAVOK"
    },
    {
      "icao": "LIRN",
      "alert": "OK",
      "vis_m": 9999,
      "fzfg": false,
      "metar_trigger": false,
      "taf_trigger": false,
      "metar": "METAR LIRN 111250Z 20013KT CAVOK 20/10 Q1014 NOSIG",
      "taf": "TAF LIRN 111100Z 1112/1212 23010KT CAVOK"
    },
    {
      "icao": "LIRP",
      "alert": "OK",
      "vis_m": 9999,
      "fzfg": false,
      "metar_trigger": false,
      "taf_trigger": false,
      "metar": "METAR LIRP 111245Z 26007KT 9999 FEW030 20/13 Q1014 NOSIG",
      "taf": "TAF LIRP 111100Z 1112/1212 27005KT 9999 SCT030"
    },
    {
      "icao": "LIRZ",
      "alert": "OK",
      "vis_m": 9999,
      "fzfg": false,
      "metar_trigger": false,
      "taf_trigger": false,
      "metar": "METAR LIRZ 111250Z AUTO 26007KT 220V310 9999 NCD 23/10 Q1013",
      "taf": "TAF LIRZ 111100Z 1112/1212 VRB05KT CAVOK"
    },
    {
      "icao": "LJLJ",
      "alert": "OK",
      "vis_m": 9999,
      "fzfg": false,
      "metar_trigger": false,
      "taf_trigger": false,
      "metar": "METAR LJLJ 111300Z 09002KT 9999 FEW040 BKN250 15/06 Q1015 NOSIG",
      "taf": "TAF LJLJ 111100Z 1112/1212 10004KT 9999 FEW040"
    },
    {
      "icao": "LKMT",
      "alert": "OK",
      "vis_m": 9999,
      "fzfg": false,
      "metar_trigger": false,
      "taf_trigger": false,
      "metar": "METAR LKMT 111300Z 03010KT CAVOK 10/M04 Q1019 NOSIG",
      "taf": "TAF LKMT 111100Z 1112/1212 04006KT CAVOK"
    },
    {
      "icao": "LKPR",
      "alert": "OK",
      "vis_m": 9999,
      "fzfg": false,
      "metar_trigger": false,
      "taf_trigger": false,
      "metar": "METAR LKPR 111300Z VRB04KT CAVOK 10/M02 Q1017 NOSIG",
      "taf": "TAF LKPR 111100Z 1112/1218 08006KT CAVOK"
    },
    {
      "icao": "LLBG",
      "alert": "OK",
      "vis_m": 9999,
      "fzfg": false,
      "metar_trigger": false,
      "taf_trigger": false,
      "metar": "METAR LLBG 111250Z 27014KT 9999 FEW025 SCT030 21/12 Q1016 NOSIG",
      "taf": "TAF LLBG 111106Z 1112/1212 28012KT 9999 FEW030 TX21/1112Z TN11/1203Z"
    },
    {
      "icao": "LMML",
      "alert": "OK",
      "vis_m": 9999,
      "fzfg": false,
      "metar_trigger": false,
      "taf_trigger": false,
      "metar": "METAR LMML 111315Z 18007KT 150V220 CAVOK 24/04 Q1015 NOSIG",
      "taf": "TAF LMML 111100Z 1112/1212 12008KT CAVOK"
    },
    {
      "icao": "LOWW",
      "alert": "OK",
      "vis_m": 9999,
      "fzfg": false,
      "metar_trigger": false,
      "taf_trigger": false,
      "metar": "METAR LOWW 111250Z VRB05KT 9999 FEW048 13/02 Q1017 NOSIG",
      "taf": "TAF LOWW 111115Z 1112/1218 05005KT 9999 SCT040 TX16/1215Z TN04/1204Z"
    },
    {
      "icao": "LPFR",
      "alert": "OK",
      "vis_m": 9999,
      "fzfg": false,
      "metar_trigger": false,
      "taf_trigger": false,
      "metar": "METAR LPFR 111300Z 17008KT 9999 FEW030 19/15 Q1012",
      "taf": "TAF LPFR 111100Z 1112/1212 24010KT 9999 FEW025"
    },
    {
      "icao": "LPMA",
      "alert": "OK",
      "vis_m": 9999,
      "fzfg": false,
      "metar_trigger": false,
      "taf_trigger": false,
      "metar": "METAR LPMA 111300Z 36016KT 330V030 9999 SCT015 19/11 Q1023",
      "taf": "TAF LPMA 111100Z 1112/1212 36015KT 9999 SCT015"
    },
    {
      "icao": "LPPR",
      "alert": "OK",
      "vis_m": 9999,
      "fzfg": false,
      "metar_trigger": false,
      "taf_trigger": false,
      "metar": "METAR LPPR 111300Z 32017KT 9999 SCT032 15/08 Q1016",
      "taf": "TAF LPPR 111100Z 1112/1212 34018KT 9999 FEW025"
    },
    {
      "icao": "LPPS",
      "alert": "OK",
      "vis_m": 9999,
      "fzfg": false,
      "metar_trigger": false,
      "taf_trigger": false,
      "metar": "METAR LPPS 111300Z 36014KT 9999 FEW015 SCT030 19/13 Q1023",
      "taf": "TAF LPPS 111100Z 1112/1218 01018KT 9999 SCT015 BKN030"
    },
    {
      "icao": "LPPT",
      "alert": "OK",
      "vis_m": 9999,
      "fzfg": false,
      "metar_trigger": false,
      "taf_trigger": false,
      "metar": "METAR LPPT 111300Z 34021G31KT 9999 SCT020 15/10 Q1015 WS R02",
      "taf": "TAF LPPT 111100Z 1112/1218 34018KT 9999 SCT020"
    },
    {
      "icao": "LQBK",
      "alert": "OK",
      "vis_m": 9999,
      "fzfg": false,
      "metar_trigger": false,
      "taf_trigger": false,
      "metar": "METAR LQBK 111300Z 35005KT 270V040 CAVOK 16/04 Q1017",
      "taf": "TAF LQBK 111100Z 1112/1212 06005KT CAVOK TX18/1212Z TN05/1204Z"
    },
    {
      "icao": "LQSA",
      "alert": "OK",
      "vis_m": 9999,
      "fzfg": false,
      "metar_trigger": false,
      "taf_trigger": false,
      "metar": "METAR LQSA 111300Z 33009KT 280V020 CAVOK 17/M00 Q1015 NOSIG",
      "taf": ""
    },
    {
      "icao": "LQTZ",
      "alert": "OK",
      "vis_m": 9999,
      "fzfg": false,
      "metar_trigger": false,
      "taf_trigger": false,
      "metar": "METAR LQTZ 111300Z VRB04KT 9999 FEW050 16/06 Q1016",
      "taf": "TAF LQTZ 111100Z 1112/1212 03007KT 9999 SCT050 TX19/1212Z TN06/1204Z"
    },
    {
      "icao": "LRBC",
      "alert": "OK",
      "vis_m": 9999,
      "fzfg": false,
      "metar_trigger": false,
      "taf_trigger": false,
      "metar": "METAR LRBC 111300Z VRB02KT 9999 OVC066 11/M02 Q1017",
      "taf": "TAF LRBC 111100Z 1112/1121 VRB04KT CAVOK"
    },
    {
      "icao": "LRBS",
      "alert": "OK",
      "vis_m": 9999,
      "fzfg": false,
      "metar_trigger": false,
      "taf_trigger": false,
      "metar": "METAR LRBS 111300Z 24010KT 9999 FEW034 11/03 Q1017 NOSIG",
      "taf": "TAF LRBS 111100Z 1112/1212 VRB04KT CAVOK"
    },
    {
      "icao": "LRBV",
      "alert": "OK",
      "vis_m": 9999,
      "fzfg": false,
      "metar_trigger": false,
      "taf_trigger": false,
      "metar": "METAR LRBV 111300Z VRB03KT 9999 FEW045CB SCT050 BKN080 09/M02 Q1016",
      "taf": "TAF LRBV 111100Z 1112/1121 VRB04KT 9999 BKN050"
    },
    {
      "icao": "LRCL",
      "alert": "OK",
      "vis_m": 9999,
      "fzfg": false,
      "metar_trigger": false,
      "taf_trigger": false,
      "metar": "METAR LRCL 111300Z VRB01KT CAVOK 12/M07 Q1016",
      "taf": "TAF LRCL 111100Z 1112/1121 33006KT 9999 BKN060"
    },
    {
      "icao": "LRCV",
      "alert": "OK",
      "vis_m": 9999,
      "fzfg": false,
      "metar_trigger": false,
      "taf_trigger": false,
      "metar": "METAR LRCV 111300Z 25005KT 220V280 9999 FEW018 SCT038 FEW043CB 11/04 Q1017",
      "taf": "TAF LRCV 111100Z 1112/1121 VRB04KT 9999 BKN040"
    },
    {
      "icao": "LRIA",
      "alert": "OK",
      "vis_m": 9999,
      "fzfg": false,
      "metar_trigger": false,
      "taf_trigger": false,
      "metar": "METAR LRIA 111300Z 34007KT 310V010 CAVOK 11/M03 Q1017",
      "taf": "TAF LRIA 111100Z 1112/1121 VRB04KT CAVOK"
    },
    {
      "icao": "LROP",
      "alert": "OK",
      "vis_m": 9999,
      "fzfg": false,
      "metar_trigger": false,
      "taf_trigger": false,
      "metar": "METAR LROP 111300Z 25011KT CAVOK 12/M00 Q1017 NOSIG",
      "taf": "TAF LROP 111100Z 1112/1212 VRB04KT CAVOK"
    },
    {
      "icao": "LRSB",
      "alert": "OK",
      "vis_m": 9999,
      "fzfg": false,
      "metar_trigger": false,
      "taf_trigger": false,
      "metar": "METAR LRSB 111300Z 33006KT 300V010 9999 SCT063 11/M05 Q1016 NOSIG",
      "taf": "TAF LRSB 111100Z 1112/1212 VRB04KT 9999 SCT060"
    },
    {
      "icao": "LRSM",
      "alert": "OK",
      "vis_m": 9999,
      "fzfg": false,
      "metar_trigger": false,
      "taf_trigger": false,
      "metar": "METAR LRSM 111300Z 25007KT 220V290 CAVOK 14/M05 Q1017",
      "taf": "TAF LRSM 111100Z 1112/1121 34008KT CAVOK"
    },
    {
      "icao": "LRSV",
      "alert": "OK",
      "vis_m": 9999,
      "fzfg": false,
      "metar_trigger": false,
      "taf_trigger": false,
      "metar": "METAR LRSV 111300Z 03009KT 9999 BKN047 08/M03 Q1016",
      "taf": "TAF LRSV 111100Z 1112/1121 VRB04KT 9999 BKN045"
    },
    {
      "icao": "LRTM",
      "alert": "OK",
      "vis_m": 9999,
      "fzfg": false,
      "metar_trigger": false,
      "taf_trigger": false,
      "metar": "METAR LRTM 111300Z VRB04KT CAVOK 11/M03 Q1016",
      "taf": "TAF LRTM 111100Z 1112/1121 VRB04KT CAVOK"
    },
    {
      "icao": "LRTR",
      "alert": "OK",
      "vis_m": 9999,
      "fzfg": false,
      "metar_trigger": false,
      "taf_trigger": false,
      "metar": "METAR LRTR 111300Z VRB04KT CAVOK 13/M01 Q1018 NOSIG",
      "taf": "TAF LRTR 111100Z 1112/1212 VRB04KT CAVOK"
    },
    {
      "icao": "LTAC",
      "alert": "OK",
      "vis_m": 9999,
      "fzfg": false,
      "metar_trigger": false,
      "taf_trigger": false,
      "metar": "METAR LTAC 111250Z VRB03KT 9999 SCT040 08/M05 Q1015 NOSIG RMK RWY21C VRB04KT RWY03L VRB04KT RWY21R VRB03KT RWY03R 22005KT 160V300 RWY21L VRB02KT",
      "taf": "TAF LTAC 111040Z 1112/1212 VRB02KT 9999 SCT040"
    },
    {
      "icao": "LTFM",
      "alert": "OK",
      "vis_m": 9999,
      "fzfg": false,
      "metar_trigger": false,
      "taf_trigger": false,
      "metar": "METAR LTFM 111250Z 07011KT 9999 FEW032 SCT120 11/01 Q1019 NOSIG RMK RWY17L 08012KT RWY34L 07012KT RWY16R 08012KT RWY36 08012KT 030V100 RWY18 08012KT 050V110",
      "taf": "TAF LTFM 111040Z 1112/1218 07012KT 9999 FEW035 BKN100"
    },
    {
      "icao": "LUKK",
      "alert": "OK",
      "vis_m": 9999,
      "fzfg": false,
      "metar_trigger": false,
      "taf_trigger": false,
      "metar": "METAR LUKK 111300Z VRB02KT 9999 BKN049 12/01 Q1017 NOSIG",
      "taf": "TAF LUKK 111101Z 1112/1212 26008KT 9999 SCT040"
    },
    {
      "icao": "LWOH",
      "alert": "OK",
      "vis_m": 9999,
      "fzfg": false,
      "metar_trigger": false,
      "taf_trigger": false,
      "metar": "METAR LWOH 111250Z 17006KT 9999 SCT050 BKN090 13/05 Q1016",
      "taf": "TAF LWOH 111111Z 1112/1212 16005KT 9999 SCT050 SCT080"
    },
    {
      "icao": "LWSK",
      "alert": "OK",
      "vis_m": null,
      "fzfg": false,
      "metar_trigger": false,
      "taf_trigger": false,
      "metar": "",
      "taf": "TAF LWSK 111111Z 1112/1212 VRB03KT 9999 FEW050 SCT080"
    },
    {
      "icao": "LYBE",
      "alert": "OK",
      "vis_m": 9999,
      "fzfg": false,
      "metar_trigger": false,
      "taf_trigger": false,
      "metar": "METAR LYBE 111300Z 29006KT 230V360 9999 SCT045 13/03 Q1018 NOSIG",
      "taf": "TAF LYBE 111100Z 1112/1212 35010KT 9999 BKN040 TX17/1212Z TN03/1204Z"
    },
    {
      "icao": "LYNI",
      "alert": "OK",
      "vis_m": 9999,
      "fzfg": false,
      "metar_trigger": false,
      "taf_trigger": false,
      "metar": "METAR LYNI 111300Z COR 33013KT 300V360 9999 FEW017 SCT030 BKN080 13/04 Q1017 NOSIG",
      "taf": "TAF LYNI 111100Z 1112/1212 34012KT 9999 BKN050 TX16/1212Z TN03/1205Z"
    },
    {
      "icao": "LYPG",
      "alert": "OK",
      "vis_m": 9999,
      "fzfg": false,
      "metar_trigger": false,
      "taf_trigger": false,
      "metar": "METAR LYPG 111300Z 19006KT 140V240 9999 FEW050 21/03 Q1015 NOSIG",
      "taf": "TAF LYPG 111100Z 1112/1212 18007KT 9999 FEW050 TX23/1212Z TN10/1204Z"
    },
    {
      "icao": "LZIB",
      "alert": "OK",
      "vis_m": 9999,
      "fzfg": false,
      "metar_trigger": false,
      "taf_trigger": false,
      "metar": "METAR LZIB 111300Z 18003KT 130V240 CAVOK 14/M01 Q1017 NOSIG",
      "taf": "TAF LZIB 111115Z 1112/1212 04006KT 9999 FEW035"
    },
    {
      "icao": "LZKZ",
      "alert": "OK",
      "vis_m": 9999,
      "fzfg": false,
      "metar_trigger": false,
      "taf_trigger": false,
      "metar": "METAR LZKZ 111300Z 02007KT CAVOK 10/M06 Q1017 NOSIG",
      "taf": "TAF LZKZ 111115Z 1112/1212 01008KT CAVOK"
    },
    {
      "icao": "LZTT",
      "alert": "OK",
      "vis_m": 9999,
      "fzfg": false,
      "metar_trigger": false,
      "taf_trigger": false,
      "metar": "METAR LZTT 111300Z 06009KT 020V120 9999 FEW050 08/M05 Q1016 NOSIG",
      "taf": "TAF LZTT 111115Z 1112/1212 06007KT 9999 FEW050"
    },
    {
      "icao": "OEJN",
      "alert": "OK",
      "vis_m": 9999,
      "fzfg": false,
      "metar_trigger": false,
      "taf_trigger": false,
      "metar": "METAR OEJN 111300Z 32016KT CAVOK 30/11 Q1011 NOSIG",
      "taf": "TAF OEJN 111100Z 1112/1218 32016KT 7000 NSC"
    },
    {
      "icao": "OEMA",
      "alert": "OK",
      "vis_m": 9999,
      "fzfg": false,
      "metar_trigger": false,
      "taf_trigger": false,
      "metar": "METAR OEMA 111300Z 27007G17KT CAVOK 32/M11 Q1012 NOSIG",
      "taf": "TAF OEMA 111100Z 1112/1218 27014KT CAVOK"
    },
    {
      "icao": "OJAI",
      "alert": "OK",
      "vis_m": 5000,
      "fzfg": false,
      "metar_trigger": false,
      "taf_trigger": false,
      "metar": "METAR OJAI 111300Z 25012KT 5000 HZ SCT030 18/04 Q1016 NOSIG",
      "taf": "TAF OJAI 111100Z 1112/1218 26012KT 5000 HZ SCT030"
    },
    {
      "icao": "OMAA",
      "alert": "OK",
      "vis_m": null,
      "fzfg": false,
      "metar_trigger": false,
      "taf_trigger": false,
      "metar": "",
      "taf": ""
    },
    {
      "icao": "OMDB",
      "alert": "OK",
      "vis_m": null,
      "fzfg": false,
      "metar_trigger": false,
      "taf_trigger": false,
      "metar": "",
      "taf": ""
    },
    {
      "icao": "UAAA",
      "alert": "OK",
      "vis_m": 9999,
      "fzfg": false,
      "metar_trigger": false,
      "taf_trigger": false,
      "metar": "METAR UAAA 111300Z 16005MPS 9999 BKN050CB OVC100 14/06 Q1022 NOSIG",
      "taf": "TAF UAAA 111102Z 1112/1212 18002G07MPS 9999 SCT050CB BKN100 TX19/1208Z TN08/1201Z"
    },
    {
      "icao": "UBBB",
      "alert": "OK",
      "vis_m": 9999,
      "fzfg": false,
      "metar_trigger": false,
      "taf_trigger": false,
      "metar": "METAR UBBB 111300Z 36014KT CAVOK 13/08 Q1016 NOSIG",
      "taf": "TAF UBBB 111048Z 1112/1212 34014G24KT CAVOK TX14/1110Z TN07/1201Z"
    },
    {
      "icao": "UDSG",
      "alert": "OK",
      "vis_m": 9999,
      "fzfg": false,
      "metar_trigger": false,
      "taf_trigger": false,
      "metar": "METAR UDSG 111300Z 04005KT 9999 BKN040CB 08/05 Q1014 NOSIG",
      "taf": "TAF UDSG 111100Z 1112/1212 36006KT 9999 BKN030"
    },
    {
      "icao": "UDYZ",
      "alert": "OK",
      "vis_m": 9999,
      "fzfg": false,
      "metar_trigger": false,
      "taf_trigger": false,
      "metar": "METAR UDYZ 111300Z 27012KT 9999 SCT043CB 17/05 Q1010 TEMPO 24020G30KT",
      "taf": "TAF UDYZ 111100Z 1112/1212 24006KT 9999 SCT040"
    },
    {
      "icao": "UGKO",
      "alert": "OK",
      "vis_m": 8000,
      "fzfg": false,
      "metar_trigger": false,
      "taf_trigger": false,
      "metar": "METAR UGKO 111300Z 22009KT 8000 -SHRA SCT027CB BKN035 09/08 Q1017 NOSIG",
      "taf": "TAF UGKO 111100Z 1112/1212 26007KT 9999 SCT020 BKN045 TX12/1211Z TN06/1203Z"
    }
  ]
}