{
  "ts_utc": "2026-04-29T11:15:47Z",
  "threshold_m": 150,
  "source": "stations_override.txt (ICAO list) + aviationweather.gov (METAR/TAF raw)",
  "station_count": 159,
  "stations": [
    {
      "icao": "BIKF",
      "alert": "OK",
      "vis_m": 9999,
      "fzfg": false,
      "metar_trigger": false,
      "taf_trigger": false,
      "metar": "METAR BIKF 291100Z 19023KT 9999 BKN036 BKN049 BKN059 06/01 Q1009",
      "taf": "TAF BIKF 291033Z 2912/3012 21022G32KT 9999 -SHRA BKN025 TX06/2915Z TN04/3005Z"
    },
    {
      "icao": "BKPR",
      "alert": "OK",
      "vis_m": 9999,
      "fzfg": false,
      "metar_trigger": false,
      "taf_trigger": false,
      "metar": "METAR BKPR 291100Z 06004KT 360V130 9999 FEW070 21/08 Q1017 NOSIG",
      "taf": ""
    },
    {
      "icao": "EBCI",
      "alert": "OK",
      "vis_m": 9999,
      "fzfg": false,
      "metar_trigger": false,
      "taf_trigger": false,
      "metar": "METAR EBCI 291050Z 06017KT CAVOK 18/02 Q1022 NOSIG",
      "taf": "TAF EBCI 290503Z 2906/3012 07012KT CAVOK"
    },
    {
      "icao": "EDDB",
      "alert": "OK",
      "vis_m": 9999,
      "fzfg": false,
      "metar_trigger": false,
      "taf_trigger": false,
      "metar": "METAR EDDB 291050Z AUTO 06009KT 360V110 CAVOK 12/M05 Q1030 NOSIG",
      "taf": "TAF EDDB 290500Z 2906/3006 07006KT CAVOK"
    },
    {
      "icao": "EDDH",
      "alert": "OK",
      "vis_m": 9999,
      "fzfg": false,
      "metar_trigger": false,
      "taf_trigger": false,
      "metar": "METAR EDDH 291050Z AUTO 08006KT CAVOK 15/01 Q1030 NOSIG",
      "taf": "TAF EDDH 290500Z 2906/3012 VRB02KT CAVOK"
    },
    {
      "icao": "EDDK",
      "alert": "OK",
      "vis_m": 9999,
      "fzfg": false,
      "metar_trigger": false,
      "taf_trigger": false,
      "metar": "METAR EDDK 291050Z AUTO 07012KT 040V120 CAVOK 18/M02 Q1024 NOSIG",
      "taf": "TAF EDDK 290500Z 2906/3012 VRB03KT CAVOK"
    },
    {
      "icao": "EDDN",
      "alert": "OK",
      "vis_m": 9999,
      "fzfg": false,
      "metar_trigger": false,
      "taf_trigger": false,
      "metar": "METAR EDDN 291050Z AUTO 08012KT 030V110 CAVOK 15/M04 Q1023 NOSIG",
      "taf": "TAF EDDN 290500Z 2906/3006 03004KT CAVOK"
    },
    {
      "icao": "EDDS",
      "alert": "OK",
      "vis_m": 9999,
      "fzfg": false,
      "metar_trigger": false,
      "taf_trigger": false,
      "metar": "METAR EDDS 291050Z AUTO 06009KT 030V120 CAVOK 18/03 Q1020 NOSIG",
      "taf": "TAF EDDS 290500Z 2906/3006 04007KT CAVOK"
    },
    {
      "icao": "EDFH",
      "alert": "OK",
      "vis_m": 9999,
      "fzfg": false,
      "metar_trigger": false,
      "taf_trigger": false,
      "metar": "METAR EDFH 291050Z 08009G19KT 030V150 CAVOK 15/M03 Q1023",
      "taf": "TAF EDFH 290500Z 2906/3006 09006KT CAVOK"
    },
    {
      "icao": "EDJA",
      "alert": "OK",
      "vis_m": 9999,
      "fzfg": false,
      "metar_trigger": false,
      "taf_trigger": false,
      "metar": "METAR EDJA 291050Z 06009KT 020V110 CAVOK 15/01 Q1020",
      "taf": "TAF EDJA 290800Z 2909/2918 05010KT CAVOK"
    },
    {
      "icao": "EDLW",
      "alert": "OK",
      "vis_m": 9999,
      "fzfg": false,
      "metar_trigger": false,
      "taf_trigger": false,
      "metar": "METAR EDLW 291050Z 07014KT 030V090 CAVOK 15/M01 Q1026",
      "taf": "TAF EDLW 290500Z 2906/3006 05007KT CAVOK"
    },
    {
      "icao": "EDNY",
      "alert": "OK",
      "vis_m": 9999,
      "fzfg": false,
      "metar_trigger": false,
      "taf_trigger": false,
      "metar": "METAR EDNY 291050Z 05011KT 020V080 CAVOK 17/06 Q1019",
      "taf": "TAF EDNY 290800Z 2909/2918 03008KT 9999 BKN050"
    },
    {
      "icao": "EDSB",
      "alert": "OK",
      "vis_m": 9999,
      "fzfg": false,
      "metar_trigger": false,
      "taf_trigger": false,
      "metar": "METAR EDSB 291050Z 03015KT 360V060 CAVOK 18/03 Q1020",
      "taf": "TAF EDSB 290500Z 2906/3006 03015G25KT CAVOK"
    },
    {
      "icao": "EETN",
      "alert": "OK",
      "vis_m": 9999,
      "fzfg": false,
      "metar_trigger": false,
      "taf_trigger": false,
      "metar": "METAR EETN 291050Z 29009KT 250V320 CAVOK 05/M07 Q1025 NOSIG",
      "taf": "TAF EETN 290530Z 2906/3006 34010KT 9999 FEW045"
    },
    {
      "icao": "EFTU",
      "alert": "OK",
      "vis_m": 9999,
      "fzfg": false,
      "metar_trigger": false,
      "taf_trigger": false,
      "metar": "METAR EFTU 291050Z AUTO 34009KT 290V040 CAVOK 09/M09 Q1026",
      "taf": "TAF EFTU 290829Z 2909/3009 35011KT CAVOK"
    },
    {
      "icao": "EGBB",
      "alert": "OK",
      "vis_m": 9999,
      "fzfg": false,
      "metar_trigger": false,
      "taf_trigger": false,
      "metar": "METAR EGBB 291050Z 08016KT CAVOK 16/02 Q1026",
      "taf": "TAF EGBB 291058Z 2912/3012 07018G28KT CAVOK"
    },
    {
      "icao": "EGGP",
      "alert": "OK",
      "vis_m": 9999,
      "fzfg": false,
      "metar_trigger": false,
      "taf_trigger": false,
      "metar": "METAR EGGP 291050Z 09015KT CAVOK 15/02 Q1027",
      "taf": "TAF EGGP 291055Z 2912/3012 09015KT CAVOK"
    },
    {
      "icao": "EGGW",
      "alert": "OK",
      "vis_m": 9999,
      "fzfg": false,
      "metar_trigger": false,
      "taf_trigger": false,
      "metar": "METAR EGGW 291050Z AUTO 09016KT 060V120 9999 NCD 16/01 Q1025",
      "taf": "TAF EGGW 291055Z 2912/3012 07018G31KT CAVOK"
    },
    {
      "icao": "EGKK",
      "alert": "OK",
      "vis_m": 9999,
      "fzfg": false,
      "metar_trigger": false,
      "taf_trigger": false,
      "metar": "METAR EGKK 291050Z 06021KT CAVOK 16/03 Q1023",
      "taf": "TAF EGKK 291053Z 2912/3018 07020G30KT CAVOK"
    },
    {
      "icao": "EGNM",
      "alert": "OK",
      "vis_m": 9999,
      "fzfg": false,
      "metar_trigger": false,
      "taf_trigger": false,
      "metar": "METAR EGNM 291050Z 09012G25KT 030V110 CAVOK 13/04 Q1029",
      "taf": "TAF EGNM 291056Z 2912/3012 09012KT CAVOK"
    },
    {
      "icao": "EGPD",
      "alert": "OK",
      "vis_m": 9999,
      "fzfg": false,
      "metar_trigger": false,
      "taf_trigger": false,
      "metar": "METAR EGPD 291050Z COR AUTO 15010KT 9999 NCD 14/06 Q1031 NOSIG",
      "taf": "TAF EGPD 291058Z 2912/3012 16009KT CAVOK"
    },
    {
      "icao": "EGPF",
      "alert": "OK",
      "vis_m": 9999,
      "fzfg": false,
      "metar_trigger": false,
      "taf_trigger": false,
      "metar": "METAR EGPF 291050Z AUTO 08006KT 030V110 9999 NCD 14/05 Q1031",
      "taf": "TAF EGPF 291055Z 2912/3012 08009KT CAVOK"
    },
    {
      "icao": "EHBK",
      "alert": "OK",
      "vis_m": 9999,
      "fzfg": false,
      "metar_trigger": false,
      "taf_trigger": false,
      "metar": "METAR EHBK 291055Z AUTO 08015KT 040V120 9999 NCD 16/00 Q1024 NOSIG",
      "taf": "TAF EHBK 290443Z 2906/3012 06010KT CAVOK"
    },
    {
      "icao": "EHEH",
      "alert": "OK",
      "vis_m": 9999,
      "fzfg": false,
      "metar_trigger": false,
      "taf_trigger": false,
      "metar": "METAR EHEH 291055Z AUTO 06016KT 360V110 9999 NCD 17/M01 Q1025 BLU NOSIG RMK TREND REMOTE BY EHWX",
      "taf": "TAF EHEH 290516Z 2906/3012 06008KT CAVOK"
    },
    {
      "icao": "EKBI",
      "alert": "OK",
      "vis_m": 9999,
      "fzfg": false,
      "metar_trigger": false,
      "taf_trigger": false,
      "metar": "METAR EKBI 291050Z AUTO VRB02KT 9999 NCD 15/M04 Q1031",
      "taf": "TAF EKBI 290827Z 2909/3009 28005KT 9999 FEW020"
    },
    {
      "icao": "EKCH",
      "alert": "OK",
      "vis_m": 9999,
      "fzfg": false,
      "metar_trigger": false,
      "taf_trigger": false,
      "metar": "METAR EKCH 291050Z AUTO 19007KT 9999 NCD 12/02 Q1031 NOSIG",
      "taf": "TAF EKCH 290827Z 2909/3009 12003KT CAVOK"
    },
    {
      "icao": "ENAL",
      "alert": "OK",
      "vis_m": 9999,
      "fzfg": false,
      "metar_trigger": false,
      "taf_trigger": false,
      "metar": "METAR ENAL 291050Z 25021KT 9999 FEW025 11/05 Q1030",
      "taf": "TAF ENAL 290800Z 2909/2918 25015KT 9999 FEW015"
    },
    {
      "icao": "ENBR",
      "alert": "OK",
      "vis_m": 9999,
      "fzfg": false,
      "metar_trigger": false,
      "taf_trigger": false,
      "metar": "METAR ENBR 291050Z 33006KT 9999 FEW020 10/05 Q1032 NOSIG RMK WIND 1200FT 30006KT",
      "taf": "TAF ENBR 290500Z 2906/3006 33007KT 9999 SCT006 BKN012"
    },
    {
      "icao": "ENGM",
      "alert": "OK",
      "vis_m": 9999,
      "fzfg": false,
      "metar_trigger": false,
      "taf_trigger": false,
      "metar": "METAR ENGM 291050Z 18010KT CAVOK 15/M01 Q1028 NOSIG",
      "taf": "TAF ENGM 290500Z 2906/3006 33003KT CAVOK"
    },
    {
      "icao": "ENHD",
      "alert": "OK",
      "vis_m": 9999,
      "fzfg": false,
      "metar_trigger": false,
      "taf_trigger": false,
      "metar": "METAR ENHD 291050Z 34010KT 300V360 9999 FEW011 10/06 Q1032",
      "taf": "TAF ENHD 290800Z 2909/2918 34012KT 9999 BKN008"
    },
    {
      "icao": "ENTC",
      "alert": "OK",
      "vis_m": 9999,
      "fzfg": false,
      "metar_trigger": false,
      "taf_trigger": false,
      "metar": "METAR ENTC 291050Z 20016KT 9999 BKN035 03/M03 Q1017 NOSIG RMK WIND 2600FT 19014KT",
      "taf": "TAF ENTC 290500Z 2906/3006 20010KT 9999 BKN030"
    },
    {
      "icao": "ENTO",
      "alert": "OK",
      "vis_m": 9999,
      "fzfg": false,
      "metar_trigger": false,
      "taf_trigger": false,
      "metar": "METAR ENTO 291050Z 19009KT CAVOK 13/04 Q1030 NOSIG",
      "taf": "TAF ENTO 290500Z 2906/3006 36003KT CAVOK"
    },
    {
      "icao": "ENVA",
      "alert": "OK",
      "vis_m": 9999,
      "fzfg": false,
      "metar_trigger": false,
      "taf_trigger": false,
      "metar": "METAR ENVA 291050Z 28007KT 9999 SCT016 BKN023 09/07 Q1028 TEMPO BKN012 RMK WIND 670FT 24003KT",
      "taf": "TAF ENVA 290500Z 2906/3006 VRB03KT 9999 SCT008 BKN015"
    },
    {
      "icao": "ENZV",
      "alert": "OK",
      "vis_m": 9999,
      "fzfg": false,
      "metar_trigger": false,
      "taf_trigger": false,
      "metar": "METAR ENZV 291050Z 30010KT CAVOK 11/06 Q1032 NOSIG",
      "taf": "TAF ENZV 290500Z 2906/3006 34008KT 9999 SCT004 BKN010"
    },
    {
      "icao": "EPGD",
      "alert": "OK",
      "vis_m": 9999,
      "fzfg": false,
      "metar_trigger": false,
      "taf_trigger": false,
      "metar": "METAR EPGD 291100Z 08012KT 9999 FEW049 07/M04 Q1030",
      "taf": ""
    },
    {
      "icao": "EPKK",
      "alert": "OK",
      "vis_m": 9999,
      "fzfg": false,
      "metar_trigger": false,
      "taf_trigger": false,
      "metar": "METAR EPKK 291100Z 35007KT 260V020 9999 SCT063 09/M08 Q1026",
      "taf": "TAF EPKK 290830Z 2909/3009 04012KT CAVOK"
    },
    {
      "icao": "EPKT",
      "alert": "OK",
      "vis_m": 9999,
      "fzfg": false,
      "metar_trigger": false,
      "taf_trigger": false,
      "metar": "METAR EPKT 291100Z 02011KT 340V100 CAVOK 08/M11 Q1026",
      "taf": "TAF EPKT 290530Z 2906/3006 04010KT CAVOK"
    },
    {
      "icao": "EPLB",
      "alert": "OK",
      "vis_m": 9999,
      "fzfg": false,
      "metar_trigger": false,
      "taf_trigger": false,
      "metar": "METAR EPLB 291100Z 36007KT 310V050 CAVOK 07/M07 Q1025",
      "taf": "TAF EPLB 290530Z 2906/3006 33010KT CAVOK"
    },
    {
      "icao": "EPMO",
      "alert": "OK",
      "vis_m": 9999,
      "fzfg": false,
      "metar_trigger": false,
      "taf_trigger": false,
      "metar": "METAR EPMO 291100Z 34010KT 310V030 9999 SCT048 06/M04 Q1028",
      "taf": "TAF EPMO 290530Z 2906/3006 35010KT CAVOK"
    },
    {
      "icao": "EPPO",
      "alert": "OK",
      "vis_m": 9999,
      "fzfg": false,
      "metar_trigger": false,
      "taf_trigger": false,
      "metar": "METAR EPPO 291100Z 04008KT 360V060 9999 BKN069TCU 09/M08 Q1030",
      "taf": "TAF EPPO 290530Z 2906/3006 01006KT CAVOK"
    },
    {
      "icao": "EPRA",
      "alert": "OK",
      "vis_m": 9999,
      "fzfg": false,
      "metar_trigger": false,
      "taf_trigger": false,
      "metar": "METAR EPRA 291100Z 01013KT 330V030 CAVOK 06/M07 Q1027",
      "taf": "TAF EPRA 290830Z 2909/2918 35010KT 9999 BKN040"
    },
    {
      "icao": "EPRZ",
      "alert": "OK",
      "vis_m": 9999,
      "fzfg": false,
      "metar_trigger": false,
      "taf_trigger": false,
      "metar": "METAR EPRZ 291100Z 32006KT 270V030 CAVOK 09/M08 Q1025",
      "taf": "TAF EPRZ 290530Z 2906/3006 VRB02KT CAVOK"
    },
    {
      "icao": "EPSC",
      "alert": "OK",
      "vis_m": 9999,
      "fzfg": false,
      "metar_trigger": false,
      "taf_trigger": false,
      "metar": "METAR EPSC 291100Z 27007KT 220V290 CAVOK 11/M07 Q1030",
      "taf": ""
    },
    {
      "icao": "EPSY",
      "alert": "OK",
      "vis_m": 9999,
      "fzfg": false,
      "metar_trigger": false,
      "taf_trigger": false,
      "metar": "METAR EPSY 291100Z 02010KT 320V060 9999 SCT043 06/M04 Q1028",
      "taf": "TAF EPSY 290830Z 2909/2918 36010KT 9999 BKN040"
    },
    {
      "icao": "EPWA",
      "alert": "OK",
      "vis_m": 9999,
      "fzfg": false,
      "metar_trigger": false,
      "taf_trigger": false,
      "metar": "METAR EPWA 291100Z 36007KT 320V020 9999 BKN046 06/M05 Q1028 NOSIG",
      "taf": "TAF EPWA 290830Z 2909/3009 36010KT CAVOK"
    },
    {
      "icao": "EPWR",
      "alert": "OK",
      "vis_m": 9999,
      "fzfg": false,
      "metar_trigger": false,
      "taf_trigger": false,
      "metar": "METAR EPWR 291100Z 04012KT 360V060 CAVOK 10/M11 Q1028",
      "taf": "TAF EPWR 290830Z 2909/3009 04010KT CAVOK"
    },
    {
      "icao": "ESGG",
      "alert": "OK",
      "vis_m": 9999,
      "fzfg": false,
      "metar_trigger": false,
      "taf_trigger": false,
      "metar": "METAR ESGG 291050Z 36006KT 290V070 CAVOK 15/M01 Q1029",
      "taf": "TAF ESGG 290830Z 2909/3009 29008KT CAVOK"
    },
    {
      "icao": "ESKN",
      "alert": "OK",
      "vis_m": 9999,
      "fzfg": false,
      "metar_trigger": false,
      "taf_trigger": false,
      "metar": "METAR ESKN 291050Z 14009KT 110V180 CAVOK 11/M04 Q1028",
      "taf": "TAF ESKN 290830Z 2909/3009 24005KT CAVOK"
    },
    {
      "icao": "ESMS",
      "alert": "OK",
      "vis_m": 9999,
      "fzfg": false,
      "metar_trigger": false,
      "taf_trigger": false,
      "metar": "METAR ESMS 291050Z 33009KT 300V020 CAVOK 14/M02 Q1030",
      "taf": "TAF ESMS 290827Z 2909/3009 31004KT CAVOK"
    },
    {
      "icao": "ESSA",
      "alert": "OK",
      "vis_m": 9999,
      "fzfg": false,
      "metar_trigger": false,
      "taf_trigger": false,
      "metar": "METAR ESSA 291050Z 25009KT 200V280 CAVOK 10/M06 Q1028 BECMG 32010KT",
      "taf": "TAF ESSA 290830Z 2909/3009 23008KT CAVOK"
    },
    {
      "icao": "EYKA",
      "alert": "OK",
      "vis_m": 9999,
      "fzfg": false,
      "metar_trigger": false,
      "taf_trigger": false,
      "metar": "METAR EYKA 291050Z 02005KT 310V070 9999 FEW049 07/M06 Q1026",
      "taf": "TAF EYKA 291100Z 2912/3012 33010KT 9000 SCT045"
    },
    {
      "icao": "EYPA",
      "alert": "OK",
      "vis_m": 9999,
      "fzfg": false,
      "metar_trigger": false,
      "taf_trigger": false,
      "metar": "METAR EYPA 291050Z 33007KT 230V030 CAVOK 07/M02 Q1028",
      "taf": "TAF EYPA 291100Z 2912/3012 33010KT 9000 NSC"
    },
    {
      "icao": "EYVI",
      "alert": "OK",
      "vis_m": 9999,
      "fzfg": false,
      "metar_trigger": false,
      "taf_trigger": false,
      "metar": "METAR EYVI 291050Z 34011KT 9999 FEW047 06/M06 Q1025 NOSIG",
      "taf": "TAF EYVI 291100Z 2912/3012 32008KT 9000 NSC"
    },
    {
      "icao": "GCFV",
      "alert": "OK",
      "vis_m": 9999,
      "fzfg": false,
      "metar_trigger": false,
      "taf_trigger": false,
      "metar": "METAR GCFV 291100Z 07004KT 360V120 9999 BKN035 20/13 Q1014",
      "taf": "TAF GCFV 290800Z 2909/3009 08005KT 9999 BKN030 TX21/2914Z TN17/3006Z"
    },
    {
      "icao": "GCLP",
      "alert": "OK",
      "vis_m": 9999,
      "fzfg": false,
      "metar_trigger": false,
      "taf_trigger": false,
      "metar": "METAR GCLP 291100Z 09007KT 9999 FEW025 OVC045 19/14 Q1014 NOSIG",
      "taf": "TAF GCLP 290800Z 2909/3009 04006KT 9999 BKN040 TX23/2914Z TN16/3006Z"
    },
    {
      "icao": "GCTS",
      "alert": "OK",
      "vis_m": 9999,
      "fzfg": false,
      "metar_trigger": false,
      "taf_trigger": false,
      "metar": "METAR GCTS 291100Z 16007KT 140V210 9999 BKN050 20/14 Q1015 NOSIG",
      "taf": "TAF GCTS 290800Z 2909/3009 09005KT 9999 BKN030 TX23/2914Z TN16/3006Z"
    },
    {
      "icao": "GMAD",
      "alert": "OK",
      "vis_m": 9999,
      "fzfg": false,
      "metar_trigger": false,
      "taf_trigger": false,
      "metar": "METAR GMAD 291100Z 30004KT 9999 BKN026 23/14 Q1011 NOSIG",
      "taf": "TAF GMAD 290500Z 2906/3012 18004KT 8000 SCT026"
    },
    {
      "icao": "GMMN",
      "alert": "OK",
      "vis_m": 8000,
      "fzfg": false,
      "metar_trigger": false,
      "taf_trigger": false,
      "metar": "METAR GMMN 291100Z 33004KT 300V360 8000 SCT016 BKN026 19/14 Q1012 NOSIG",
      "taf": "TAF GMMN 291100Z 2912/3018 03007KT 9999 SCT020 SCT040"
    },
    {
      "icao": "GMMX",
      "alert": "OK",
      "vis_m": 8000,
      "fzfg": false,
      "metar_trigger": false,
      "taf_trigger": false,
      "metar": "METAR GMMX 291100Z 02006KT 320V050 8000 SCT016 BKN023 18/15 Q1012 NOSIG",
      "taf": "TAF GMMX 291100Z 2912/3018 04006KT 8000 BKN023"
    },
    {
      "icao": "HEGN",
      "alert": "OK",
      "vis_m": 9999,
      "fzfg": false,
      "metar_trigger": false,
      "taf_trigger": false,
      "metar": "METAR HEGN 291100Z 01015KT CAVOK 31/04 Q1012 NOSIG",
      "taf": "TAF HEGN 291100Z 2912/3018 36008G20KT CAVOK"
    },
    {
      "icao": "HEMA",
      "alert": "OK",
      "vis_m": 9999,
      "fzfg": false,
      "metar_trigger": false,
      "taf_trigger": false,
      "metar": "METAR HEMA 291100Z 36021KT CAVOK 28/10 Q1011 NOSIG",
      "taf": "TAF HEMA 291100Z 2912/3018 35008G20KT CAVOK"
    },
    {
      "icao": "HESH",
      "alert": "OK",
      "vis_m": 9999,
      "fzfg": false,
      "metar_trigger": false,
      "taf_trigger": false,
      "metar": "METAR HESH 291100Z 36011KT CAVOK 29/13 Q1012 NOSIG",
      "taf": "TAF HESH 291100Z 2912/3018 12012KT CAVOK"
    },
    {
      "icao": "HESX",
      "alert": "OK",
      "vis_m": 9999,
      "fzfg": false,
      "metar_trigger": false,
      "taf_trigger": false,
      "metar": "METAR HESX 291100Z 36005KT CAVOK 27/06 Q1015 NOSIG",
      "taf": "TAF HESX 291100Z 2912/3018 30010KT CAVOK"
    },
    {
      "icao": "LATI",
      "alert": "OK",
      "vis_m": 9999,
      "fzfg": false,
      "metar_trigger": false,
      "taf_trigger": false,
      "metar": "METAR LATI 291050Z VRB05KT CAVOK 25/09 Q1016 NOSIG",
      "taf": "TAF LATI 291100Z 2912/3012 28010KT CAVOK TX27/2912Z TN11/3003Z"
    },
    {
      "icao": "LBPD",
      "alert": "OK",
      "vis_m": 9999,
      "fzfg": false,
      "metar_trigger": false,
      "taf_trigger": false,
      "metar": "METAR LBPD 291100Z AUTO VRB06KT 9999 FEW130/// 18/08 Q1018 NOSIG",
      "taf": "TAF LBPD 291100Z 2912/3012 13012KT 9999 SCT060"
    },
    {
      "icao": "LBSF",
      "alert": "OK",
      "vis_m": 9999,
      "fzfg": false,
      "metar_trigger": false,
      "taf_trigger": false,
      "metar": "METAR LBSF 291100Z VRB03KT 9999 SCT055 19/07 Q1016 NOSIG",
      "taf": "TAF LBSF 291100Z 2912/3012 VRB03KT 9999 SCT030 BKN070"
    },
    {
      "icao": "LBWN",
      "alert": "OK",
      "vis_m": 9999,
      "fzfg": false,
      "metar_trigger": false,
      "taf_trigger": false,
      "metar": "METAR LBWN 291100Z 11015KT CAVOK 14/08 Q1019 NOSIG",
      "taf": "TAF LBWN 291100Z 2912/3012 12014KT 9999 SCT040"
    },
    {
      "icao": "LCLK",
      "alert": "OK",
      "vis_m": 9999,
      "fzfg": false,
      "metar_trigger": false,
      "taf_trigger": false,
      "metar": "METAR LCLK 291100Z 20014KT 9999 FEW025 FEW030TCU FEW035CB 25/18 Q1013 NOSIG RMK DISTANT CB TO W",
      "taf": "TAF LCLK 290530Z 2906/3006 02005KT 9999 FEW020"
    },
    {
      "icao": "LCPH",
      "alert": "OK",
      "vis_m": 9999,
      "fzfg": false,
      "metar_trigger": false,
      "taf_trigger": false,
      "metar": "METAR LCPH 291100Z 25008KT 230V300 9999 SCT017 22/16 Q1014 NOSIG",
      "taf": "TAF LCPH 290530Z 2906/3006 02007KT 9999 FEW020"
    },
    {
      "icao": "LEAL",
      "alert": "OK",
      "vis_m": 9999,
      "fzfg": false,
      "metar_trigger": false,
      "taf_trigger": false,
      "metar": "METAR LEAL 291100Z 26005KT 200V300 9999 BKN035 23/13 Q1011 NOSIG",
      "taf": "TAF LEAL 290500Z 2906/3006 VRB05KT CAVOK TX25/2912Z TN13/2906Z"
    },
    {
      "icao": "LEBB",
      "alert": "OK",
      "vis_m": 8000,
      "fzfg": false,
      "metar_trigger": false,
      "taf_trigger": false,
      "metar": "METAR LEBB 291100Z 13007KT 080V170 8000 FEW018 SCT060 19/15 Q1008 NOSIG",
      "taf": ""
    },
    {
      "icao": "LEBL",
      "alert": "OK",
      "vis_m": 9999,
      "fzfg": false,
      "metar_trigger": false,
      "taf_trigger": false,
      "metar": "METAR LEBL 291100Z 09014KT 9999 SCT017 20/16 Q1013 NOSIG",
      "taf": "TAF LEBL 290500Z 2906/3006 07012KT 9999 FEW020 TX21/2912Z TN16/3005Z"
    },
    {
      "icao": "LECH",
      "alert": "OK",
      "vis_m": 9999,
      "fzfg": false,
      "metar_trigger": false,
      "taf_trigger": false,
      "metar": "METAR LECH 291100Z AUTO 08009KT 030V110 9999 BKN034 BKN042 19/13 Q1013",
      "taf": ""
    },
    {
      "icao": "LEMD",
      "alert": "OK",
      "vis_m": 9999,
      "fzfg": false,
      "metar_trigger": false,
      "taf_trigger": false,
      "metar": "METAR LEMD 291100Z 16006KT 9999 SHRA FEW025TCU BKN034 17/13 Q1010 NOSIG",
      "taf": ""
    },
    {
      "icao": "LEMG",
      "alert": "OK",
      "vis_m": 9000,
      "fzfg": false,
      "metar_trigger": false,
      "taf_trigger": false,
      "metar": "METAR LEMG 291100Z 12008KT 9000 BKN013 BKN029 18/15 Q1011 NOSIG",
      "taf": ""
    },
    {
      "icao": "LEVC",
      "alert": "OK",
      "vis_m": 9999,
      "fzfg": false,
      "metar_trigger": false,
      "taf_trigger": false,
      "metar": "METAR LEVC 291100Z 08010KT 050V110 9999 SCT022 BKN035 21/14 Q1012 NOSIG",
      "taf": "TAF LEVC 290500Z 2906/3006 VRB04KT CAVOK TX24/2912Z TN13/2906Z"
    },
    {
      "icao": "LEXJ",
      "alert": "OK",
      "vis_m": 9999,
      "fzfg": false,
      "metar_trigger": false,
      "taf_trigger": false,
      "metar": "METAR LEXJ 291100Z VRB03KT 9999 FEW013 OVC027 15/13 Q1007 RERA",
      "taf": "TAF LEXJ 290800Z 2909/3009 33007KT 9999 SCT010 BKN020 TX19/2914Z TN12/3005Z"
    },
    {
      "icao": "LEZG",
      "alert": "OK",
      "vis_m": 9999,
      "fzfg": false,
      "metar_trigger": false,
      "taf_trigger": false,
      "metar": "METAR LEZG 291100Z 12013KT 080V150 9999 FEW025 20/11 Q1011 NOSIG",
      "taf": "TAF LEZG 290500Z 2906/3006 11010KT 9999 SCT060 TX25/2914Z TN14/2906Z"
    },
    {
      "icao": "LEZL",
      "alert": "OK",
      "vis_m": 9000,
      "fzfg": false,
      "metar_trigger": false,
      "taf_trigger": false,
      "metar": "METAR LEZL 291100Z 23008KT 190V280 9000 BKN010 BKN015 BKN025 18/17 Q1011 NOSIG",
      "taf": "TAF LEZL 290800Z 2909/3009 20008KT 9999 BKN020 TX23/2915Z TN12/3006Z"
    },
    {
      "icao": "LFBD",
      "alert": "OK",
      "vis_m": 9999,
      "fzfg": false,
      "metar_trigger": false,
      "taf_trigger": false,
      "metar": "METAR LFBD 291100Z AUTO 13009KT 9999 BKN020 BKN025 OVC090 18/14 Q1010 TEMPO 4000 -SHRA BKN060TCU",
      "taf": "TAF LFBD 290500Z 2906/3012 07005KT CAVOK TX24/2915Z TN15/2906Z"
    },
    {
      "icao": "LFLL",
      "alert": "OK",
      "vis_m": 9999,
      "fzfg": false,
      "metar_trigger": false,
      "taf_trigger": false,
      "metar": "METAR LFLL 291100Z 10007KT 070V130 9999 FEW033 BKN260 21/12 Q1015 NOSIG",
      "taf": ""
    },
    {
      "icao": "LFLS",
      "alert": "OK",
      "vis_m": 9999,
      "fzfg": false,
      "metar_trigger": false,
      "taf_trigger": false,
      "metar": "METAR LFLS 291100Z AUTO 09005KT 040V130 CAVOK 20/13 Q1015 BECMG FEW055TCU",
      "taf": "TAF LFLS 290800Z 2909/3009 VRB03KT CAVOK"
    },
    {
      "icao": "LFMN",
      "alert": "OK",
      "vis_m": 9999,
      "fzfg": false,
      "metar_trigger": false,
      "taf_trigger": false,
      "metar": "METAR LFMN 291100Z 09010KT CAVOK 20/14 Q1015 NOSIG",
      "taf": "TAF LFMN 290800Z 2909/3015 10010KT CAVOK"
    },
    {
      "icao": "LFOB",
      "alert": "OK",
      "vis_m": 9999,
      "fzfg": false,
      "metar_trigger": false,
      "taf_trigger": false,
      "metar": "METAR LFOB 291100Z AUTO 06013KT 030V090 CAVOK 19/07 Q1019 TEMPO 08015G27KT",
      "taf": "TAF LFOB 290500Z 2906/3006 05012KT CAVOK"
    },
    {
      "icao": "LFPO",
      "alert": "OK",
      "vis_m": 9999,
      "fzfg": false,
      "metar_trigger": false,
      "taf_trigger": false,
      "metar": "METAR LFPO 291100Z 08012KT 050V120 CAVOK 20/06 Q1017 NOSIG",
      "taf": ""
    },
    {
      "icao": "LFSB",
      "alert": "OK",
      "vis_m": 9999,
      "fzfg": false,
      "metar_trigger": false,
      "taf_trigger": false,
      "metar": "METAR LFSB 291100Z AUTO 01005KT 310V060 CAVOK 18/06 Q1018 NOSIG",
      "taf": "TAF LFSB 290500Z 2906/3006 35005KT CAVOK"
    },
    {
      "icao": "LGAV",
      "alert": "OK",
      "vis_m": 9999,
      "fzfg": false,
      "metar_trigger": false,
      "taf_trigger": false,
      "metar": "METAR LGAV 291050Z 10008KT 070V140 9999 FEW030 23/06 Q1017 NOSIG",
      "taf": "TAF LGAV 291100Z 2912/3012 VRB05KT 9999 FEW030"
    },
    {
      "icao": "LGTS",
      "alert": "OK",
      "vis_m": 9999,
      "fzfg": false,
      "metar_trigger": false,
      "taf_trigger": false,
      "metar": "METAR LGTS 291050Z 20008KT 9999 FEW020 21/11 Q1017 NOSIG",
      "taf": "TAF LGTS 291100Z 2912/3012 17010KT 9999 FEW030"
    },
    {
      "icao": "LHBP",
      "alert": "OK",
      "vis_m": 9999,
      "fzfg": false,
      "metar_trigger": false,
      "taf_trigger": false,
      "metar": "METAR LHBP 291100Z 30006KT 220V010 CAVOK 16/M05 Q1022 NOSIG",
      "taf": "TAF LHBP 290515Z 2906/3006 01006KT CAVOK"
    },
    {
      "icao": "LHDC",
      "alert": "OK",
      "vis_m": 9999,
      "fzfg": false,
      "metar_trigger": false,
      "taf_trigger": false,
      "metar": "METAR LHDC 291045Z AUTO 02012KT 320V080 CAVOK 15/M07 Q1021 WS ALL RWY NOSIG",
      "taf": "TAF LHDC 290815Z 2909/2918 02014KT CAVOK"
    },
    {
      "icao": "LIBD",
      "alert": "OK",
      "vis_m": 9999,
      "fzfg": false,
      "metar_trigger": false,
      "taf_trigger": false,
      "metar": "METAR LIBD 291050Z 04007KT 010V080 CAVOK 23/12 Q1015",
      "taf": "TAF LIBD 290500Z 2906/3006 VRB05KT 9999 FEW040"
    },
    {
      "icao": "LIBG",
      "alert": "OK",
      "vis_m": 9999,
      "fzfg": false,
      "metar_trigger": false,
      "taf_trigger": false,
      "metar": "METAR LIBG 291050Z 17005KT CAVOK 24/14 Q1015",
      "taf": "TAF LIBG 290800Z 2909/2918 VRB05KT 9999 FEW030"
    },
    {
      "icao": "LIBP",
      "alert": "OK",
      "vis_m": 9999,
      "fzfg": false,
      "metar_trigger": false,
      "taf_trigger": false,
      "metar": "METAR LIBP 291050Z AUTO 07008KT 9999 NCD 21/15 Q1015",
      "taf": "TAF LIBP 290500Z 2906/3006 VRB05KT CAVOK"
    },
    {
      "icao": "LIBR",
      "alert": "OK",
      "vis_m": 9999,
      "fzfg": false,
      "metar_trigger": false,
      "taf_trigger": false,
      "metar": "METAR LIBR 291050Z 11010KT CAVOK 21/16 Q1016",
      "taf": "TAF LIBR 290500Z 2906/3006 19010KT CAVOK"
    },
    {
      "icao": "LICA",
      "alert": "OK",
      "vis_m": 9999,
      "fzfg": false,
      "metar_trigger": false,
      "taf_trigger": false,
      "metar": "METAR LICA 291050Z AUTO 24008KT 9999 NCD 23/13 Q1016",
      "taf": "TAF LICA 290500Z 2906/3006 VRB05KT 9999 SCT040"
    },
    {
      "icao": "LICC",
      "alert": "OK",
      "vis_m": 9999,
      "fzfg": false,
      "metar_trigger": false,
      "taf_trigger": false,
      "metar": "METAR LICC 291050Z 08011KT CAVOK 23/17 Q1017",
      "taf": "TAF LICC 290500Z 2906/3006 VRB05KT 9999 SCT040"
    },
    {
      "icao": "LICJ",
      "alert": "OK",
      "vis_m": 9999,
      "fzfg": false,
      "metar_trigger": false,
      "taf_trigger": false,
      "metar": "METAR LICJ 291020Z 02004KT CAVOK 19/14 Q1016",
      "taf": "TAF LICJ 290500Z 2906/3006 VRB05KT 9999 SCT040"
    },
    {
      "icao": "LIMC",
      "alert": "OK",
      "vis_m": 9999,
      "fzfg": false,
      "metar_trigger": false,
      "taf_trigger": false,
      "metar": "METAR LIMC 291050Z VRB03KT 9999 SCT040 20/11 Q1017 NOSIG",
      "taf": "TAF LIMC 290500Z 2906/3012 VRB05KT 9999 SCT060 SCT100"
    },
    {
      "icao": "LIME",
      "alert": "OK",
      "vis_m": 9999,
      "fzfg": false,
      "metar_trigger": false,
      "taf_trigger": false,
      "metar": "METAR LIME 291050Z 25005KT 190V310 9999 SCT040 SCT080 21/12 Q1017 NOSIG",
      "taf": "TAF LIME 290500Z 2906/3006 VRB05KT 9999 SCT050"
    },
    {
      "icao": "LIMF",
      "alert": "OK",
      "vis_m": 9999,
      "fzfg": false,
      "metar_trigger": false,
      "taf_trigger": false,
      "metar": "METAR LIMF 291050Z 10003KT 050V150 9999 BKN080 18/11 Q1018",
      "taf": "TAF LIMF 290500Z 2906/3006 VRB05KT 9999 FEW030 SCT090"
    },
    {
      "icao": "LIMJ",
      "alert": "OK",
      "vis_m": 9999,
      "fzfg": false,
      "metar_trigger": false,
      "taf_trigger": false,
      "metar": "METAR LIMJ 291050Z 17004KT CAVOK 19/12 Q1016",
      "taf": "TAF LIMJ 290500Z 2906/3006 VRB06KT CAVOK"
    },
    {
      "icao": "LIPE",
      "alert": "OK",
      "vis_m": 9999,
      "fzfg": false,
      "metar_trigger": false,
      "taf_trigger": false,
      "metar": "METAR LIPE 291050Z VRB04KT 9999 SCT025 21/14 Q1016",
      "taf": "TAF LIPE 290500Z 2906/3006 VRB05KT CAVOK"
    },
    {
      "icao": "LIPH",
      "alert": "OK",
      "vis_m": 9999,
      "fzfg": false,
      "metar_trigger": false,
      "taf_trigger": false,
      "metar": "METAR LIPH 291050Z 06013KT 020V080 CAVOK 21/10 Q1017",
      "taf": ""
    },
    {
      "icao": "LIPQ",
      "alert": "OK",
      "vis_m": 9999,
      "fzfg": false,
      "metar_trigger": false,
      "taf_trigger": false,
      "metar": "METAR LIPQ 291050Z AUTO 06004KT 030V100 9999 -RA OVC074/// 17/10 Q1018",
      "taf": "TAF LIPQ 290500Z 2906/3006 VRB05KT 9999 BKN050"
    },
    {
      "icao": "LIPR",
      "alert": "OK",
      "vis_m": 9999,
      "fzfg": false,
      "metar_trigger": false,
      "taf_trigger": false,
      "metar": "METAR LIPR 291050Z 01009KT 9999 FEW020 20/16 Q1016",
      "taf": "TAF LIPR 290500Z 2906/3006 VRB05KT CAVOK"
    },
    {
      "icao": "LIPX",
      "alert": "OK",
      "vis_m": 9999,
      "fzfg": false,
      "metar_trigger": false,
      "taf_trigger": false,
      "metar": "METAR LIPX 291050Z 10011KT 070V130 9999 SCT090 23/10 Q1016",
      "taf": "TAF LIPX 290500Z 2906/3006 VRB05KT 9999 SCT080"
    },
    {
      "icao": "LIPY",
      "alert": "OK",
      "vis_m": 9999,
      "fzfg": false,
      "metar_trigger": false,
      "taf_trigger": false,
      "metar": "METAR LIPY 291050Z AUTO 05009KT 9999 NCD 20/17 Q1015",
      "taf": "TAF LIPY 290500Z 2906/3006 VRB05KT CAVOK"
    },
    {
      "icao": "LIPZ",
      "alert": "OK",
      "vis_m": 9999,
      "fzfg": false,
      "metar_trigger": false,
      "taf_trigger": false,
      "metar": "METAR LIPZ 291050Z 07014KT 9999 FEW060 20/11 Q1017 NOSIG",
      "taf": "TAF LIPZ 290500Z 2906/3012 06005KT 9999 FEW030"
    },
    {
      "icao": "LIRF",
      "alert": "OK",
      "vis_m": 9999,
      "fzfg": false,
      "metar_trigger": false,
      "taf_trigger": false,
      "metar": "METAR LIRF 291050Z 18005KT CAVOK 23/07 Q1016 NOSIG",
      "taf": ""
    },
    {
      "icao": "LIRN",
      "alert": "OK",
      "vis_m": 9999,
      "fzfg": false,
      "metar_trigger": false,
      "taf_trigger": false,
      "metar": "METAR LIRN 291050Z 18007KT 150V230 CAVOK 24/06 Q1016 NOSIG",
      "taf": "TAF LIRN 290500Z 2906/3006 VRB05KT 9999 SCT030"
    },
    {
      "icao": "LIRP",
      "alert": "OK",
      "vis_m": 9999,
      "fzfg": false,
      "metar_trigger": false,
      "taf_trigger": false,
      "metar": "METAR LIRP 291045Z 12005KT CAVOK 24/00 Q1016 NOSIG",
      "taf": "TAF LIRP 290500Z 2906/3006 11005KT CAVOK"
    },
    {
      "icao": "LIRZ",
      "alert": "OK",
      "vis_m": 9999,
      "fzfg": false,
      "metar_trigger": false,
      "taf_trigger": false,
      "metar": "METAR LIRZ 291050Z AUTO VRB05KT 9999 FEW088/// 23/05 Q1015",
      "taf": "TAF LIRZ 290500Z 2906/3006 VRB05KT CAVOK"
    },
    {
      "icao": "LJLJ",
      "alert": "OK",
      "vis_m": 9999,
      "fzfg": false,
      "metar_trigger": false,
      "taf_trigger": false,
      "metar": "METAR LJLJ 291100Z 14007KT 9999 -RA SCT015 OVC045 10/08 Q1022 NOSIG",
      "taf": "TAF LJLJ 291100Z 2912/3012 13005KT 9999 SCT015 BKN045"
    },
    {
      "icao": "LKMT",
      "alert": "OK",
      "vis_m": 9999,
      "fzfg": false,
      "metar_trigger": false,
      "taf_trigger": false,
      "metar": "METAR LKMT 291103Z 01014KT 340V040 CAVOK 11/M02 Q1025 NOSIG",
      "taf": "TAF LKMT 290500Z 2906/3006 04008KT CAVOK"
    },
    {
      "icao": "LKPR",
      "alert": "OK",
      "vis_m": 9999,
      "fzfg": false,
      "metar_trigger": false,
      "taf_trigger": false,
      "metar": "METAR LKPR 291100Z 36011KT 310V040 CAVOK 12/M04 Q1025 TEMPO 04014G24KT",
      "taf": "TAF LKPR 291100Z 2912/3018 04014KT CAVOK"
    },
    {
      "icao": "LLBG",
      "alert": "OK",
      "vis_m": 9999,
      "fzfg": false,
      "metar_trigger": false,
      "taf_trigger": false,
      "metar": "METAR LLBG 291050Z 28012KT 9999 FEW040 24/14 Q1014 NOSIG",
      "taf": "TAF LLBG 291104Z 2912/3012 30012KT 9999 FEW040 TX24/2912Z TN14/3003Z"
    },
    {
      "icao": "LMML",
      "alert": "OK",
      "vis_m": 9999,
      "fzfg": false,
      "metar_trigger": false,
      "taf_trigger": false,
      "metar": "METAR LMML 291045Z 11015KT CAVOK 23/15 Q1016 NOSIG",
      "taf": "TAF LMML 290500Z 2906/3006 11013KT 9999 FEW025"
    },
    {
      "icao": "LOWW",
      "alert": "OK",
      "vis_m": 9999,
      "fzfg": false,
      "metar_trigger": false,
      "taf_trigger": false,
      "metar": "METAR LOWW 291050Z 02009KT 310V080 CAVOK 15/M03 Q1023 NOSIG",
      "taf": "TAF LOWW 290815Z 2909/3015 02010KT CAVOK TX16/2913Z TN02/3004Z"
    },
    {
      "icao": "LPFR",
      "alert": "OK",
      "vis_m": 9999,
      "fzfg": false,
      "metar_trigger": false,
      "taf_trigger": false,
      "metar": "METAR LPFR 291100Z 24013KT 9999 FEW020 19/11 Q1011",
      "taf": "TAF LPFR 291100Z 2912/3012 26013KT 9999 SCT030"
    },
    {
      "icao": "LPMA",
      "alert": "OK",
      "vis_m": 9999,
      "fzfg": false,
      "metar_trigger": false,
      "taf_trigger": false,
      "metar": "METAR LPMA 291100Z 12003KT 070V170 9999 BKN016 SCT033 18/11 Q1013",
      "taf": "TAF LPMA 291100Z 2912/3012 VRB05KT 9999 SCT015 BKN030"
    },
    {
      "icao": "LPPR",
      "alert": "OK",
      "vis_m": 9999,
      "fzfg": false,
      "metar_trigger": false,
      "taf_trigger": false,
      "metar": "METAR LPPR 291100Z 20005KT 9999 SCT005 BKN008 17/15 Q1007",
      "taf": "TAF LPPR 291100Z 2912/3012 25008KT 9999 SCT015 SCT035"
    },
    {
      "icao": "LPPS",
      "alert": "OK",
      "vis_m": 9999,
      "fzfg": false,
      "metar_trigger": false,
      "taf_trigger": false,
      "metar": "METAR LPPS 291100Z 01005KT 320V060 9999 FEW015 BKN030 18/07 Q1013",
      "taf": "TAF LPPS 291100Z 2912/3018 VRB05KT 9999 SCT015 BKN030"
    },
    {
      "icao": "LPPT",
      "alert": "OK",
      "vis_m": 9999,
      "fzfg": false,
      "metar_trigger": false,
      "taf_trigger": false,
      "metar": "METAR LPPT 291100Z 23010KT 190V290 9999 FEW022 SCT026 18/11 Q1008",
      "taf": "TAF LPPT 291100Z 2912/3018 23012KT 9999 SCT020 SCT040"
    },
    {
      "icao": "LQBK",
      "alert": "OK",
      "vis_m": 9999,
      "fzfg": false,
      "metar_trigger": false,
      "taf_trigger": false,
      "metar": "METAR LQBK 291100Z 21003KT 180V250 9999 -RA NSC 12/08 Q1021 NOSIG",
      "taf": "TAF LQBK 290500Z 2906/3006 35005KT CAVOK TX14/2910Z TN04/3005Z"
    },
    {
      "icao": "LQSA",
      "alert": "OK",
      "vis_m": 9999,
      "fzfg": false,
      "metar_trigger": false,
      "taf_trigger": false,
      "metar": "METAR LQSA 291100Z 34005KT 290V030 9999 FEW065 19/06 Q1017 NOSIG",
      "taf": "TAF LQSA 290500Z 2906/3006 29005KT 9999 SCT050 TX17/2913Z TN05/3004Z"
    },
    {
      "icao": "LQTZ",
      "alert": "OK",
      "vis_m": 9999,
      "fzfg": false,
      "metar_trigger": false,
      "taf_trigger": false,
      "metar": "METAR LQTZ 291100Z 06006KT 030V100 9999 FEW035 SCT050 BKN060 16/04 Q1020",
      "taf": "TAF LQTZ 290500Z 2906/3006 03006KT 9999 SCT060 TX17/2818Z TN02/3005Z"
    },
    {
      "icao": "LRBC",
      "alert": "OK",
      "vis_m": 9999,
      "fzfg": false,
      "metar_trigger": false,
      "taf_trigger": false,
      "metar": "METAR LRBC 291100Z VRB03KT CAVOK 15/M02 Q1020",
      "taf": "TAF LRBC 290800Z 2909/2918 02008KT CAVOK"
    },
    {
      "icao": "LRBS",
      "alert": "OK",
      "vis_m": 9999,
      "fzfg": false,
      "metar_trigger": false,
      "taf_trigger": false,
      "metar": "METAR LRBS 291100Z 05013KT 360V080 CAVOK 14/03 Q1019 NOSIG",
      "taf": "TAF LRBS 290500Z 2906/3006 06014KT CAVOK"
    },
    {
      "icao": "LRBV",
      "alert": "OK",
      "vis_m": 9999,
      "fzfg": false,
      "metar_trigger": false,
      "taf_trigger": false,
      "metar": "METAR LRBV 291100Z VRB02KT 9999 FEW065 SCT071 12/00 Q1018",
      "taf": "TAF LRBV 290800Z 2909/2918 VRB04KT 9999 BKN050"
    },
    {
      "icao": "LRCL",
      "alert": "OK",
      "vis_m": 9999,
      "fzfg": false,
      "metar_trigger": false,
      "taf_trigger": false,
      "metar": "METAR LRCL 291100Z 35009KT 250V030 CAVOK 15/M02 Q1018",
      "taf": "TAF LRCL 290800Z 2909/2918 VRB04KT CAVOK"
    },
    {
      "icao": "LRCV",
      "alert": "OK",
      "vis_m": 9999,
      "fzfg": false,
      "metar_trigger": false,
      "taf_trigger": false,
      "metar": "METAR LRCV 291100Z 13004KT 100V170 CAVOK 15/06 Q1018",
      "taf": "TAF LRCV 290800Z 2909/2918 10010KT CAVOK"
    },
    {
      "icao": "LRIA",
      "alert": "OK",
      "vis_m": 9999,
      "fzfg": false,
      "metar_trigger": false,
      "taf_trigger": false,
      "metar": "METAR LRIA 291100Z 01005KT 330V140 CAVOK 12/M06 Q1022",
      "taf": "TAF LRIA 290800Z 2909/2918 02008KT CAVOK"
    },
    {
      "icao": "LROP",
      "alert": "OK",
      "vis_m": 9999,
      "fzfg": false,
      "metar_trigger": false,
      "taf_trigger": false,
      "metar": "METAR LROP 291100Z 08017KT CAVOK 14/01 Q1019 NOSIG",
      "taf": "TAF LROP 290500Z 2906/3006 07014KT CAVOK"
    },
    {
      "icao": "LRSB",
      "alert": "OK",
      "vis_m": 9999,
      "fzfg": false,
      "metar_trigger": false,
      "taf_trigger": false,
      "metar": "METAR LRSB 291100Z 36004KT 320V050 CAVOK 16/M00 Q1017",
      "taf": "TAF LRSB 290500Z 2906/3006 VRB04KT CAVOK"
    },
    {
      "icao": "LRSM",
      "alert": "OK",
      "vis_m": 9999,
      "fzfg": false,
      "metar_trigger": false,
      "taf_trigger": false,
      "metar": "METAR LRSM 291100Z 33011KT 290V010 CAVOK 16/M09 Q1020",
      "taf": "TAF LRSM 290800Z 2909/2918 05012KT CAVOK"
    },
    {
      "icao": "LRSV",
      "alert": "OK",
      "vis_m": 9999,
      "fzfg": false,
      "metar_trigger": false,
      "taf_trigger": false,
      "metar": "METAR LRSV 291100Z 35005KT 220V020 CAVOK 09/M05 Q1021",
      "taf": "TAF LRSV 290800Z 2909/2918 02006KT CAVOK"
    },
    {
      "icao": "LRTM",
      "alert": "OK",
      "vis_m": 9999,
      "fzfg": false,
      "metar_trigger": false,
      "taf_trigger": false,
      "metar": "METAR LRTM 291100Z 26007KT 210V330 9999 SCT042 17/01 Q1018",
      "taf": "TAF LRTM 290800Z 2909/2918 VRB04KT CAVOK"
    },
    {
      "icao": "LRTR",
      "alert": "OK",
      "vis_m": 9999,
      "fzfg": false,
      "metar_trigger": false,
      "taf_trigger": false,
      "metar": "METAR LRTR 291100Z 35008KT CAVOK 17/M00 Q1019",
      "taf": "TAF LRTR 290500Z 2906/3006 01012KT CAVOK"
    },
    {
      "icao": "LTAC",
      "alert": "OK",
      "vis_m": 9999,
      "fzfg": false,
      "metar_trigger": false,
      "taf_trigger": false,
      "metar": "METAR LTAC 291050Z VRB04KT 9999 FEW040 19/02 Q1015 NOSIG RMK RWY21C 28006KT 240V010 RWY03L VRB03KT RWY21R VRB05KT RWY03R 24009KT 180V300 RWY21L 27008G26KT 220V310",
      "taf": "TAF LTAC 291040Z 2912/3012 VRB02KT 9999 SCT040"
    },
    {
      "icao": "LTFM",
      "alert": "OK",
      "vis_m": 9999,
      "fzfg": false,
      "metar_trigger": false,
      "taf_trigger": false,
      "metar": "METAR LTFM 291050Z 07014KT CAVOK 14/07 Q1019 NOSIG RMK RWY17L 08013KT RWY34L 07012KT RWY16R 08012KT RWY36 07013KT RWY18 08014KT",
      "taf": "TAF LTFM 291040Z 2912/3018 08012KT CAVOK"
    },
    {
      "icao": "LUKK",
      "alert": "OK",
      "vis_m": 9999,
      "fzfg": false,
      "metar_trigger": false,
      "taf_trigger": false,
      "metar": "METAR LUKK 291100Z 04007KT 010V110 CAVOK 13/M05 Q1021 NOSIG",
      "taf": "TAF LUKK 291107Z 2912/3012 36008KT CAVOK"
    },
    {
      "icao": "LWOH",
      "alert": "OK",
      "vis_m": 9999,
      "fzfg": false,
      "metar_trigger": false,
      "taf_trigger": false,
      "metar": "METAR LWOH 291050Z 15006KT 120V180 9999 FEW040 19/09 Q1017",
      "taf": "TAF LWOH 290815Z 2909/3009 16006KT CAVOK"
    },
    {
      "icao": "LWSK",
      "alert": "OK",
      "vis_m": 9999,
      "fzfg": false,
      "metar_trigger": false,
      "taf_trigger": false,
      "metar": "METAR LWSK 291050Z VRB02KT 9999 FEW050 24/09 Q1016 NOSIG",
      "taf": "TAF LWSK 290815Z 2909/3009 VRB02KT CAVOK"
    },
    {
      "icao": "LYBE",
      "alert": "OK",
      "vis_m": 9999,
      "fzfg": false,
      "metar_trigger": false,
      "taf_trigger": false,
      "metar": "METAR LYBE 291100Z 01007KT 340V040 CAVOK 13/05 Q1020 NOSIG",
      "taf": "TAF LYBE 290500Z 2906/3006 34008KT CAVOK TX15/2911Z TN08/3004Z"
    },
    {
      "icao": "LYNI",
      "alert": "OK",
      "vis_m": 9999,
      "fzfg": false,
      "metar_trigger": false,
      "taf_trigger": false,
      "metar": "METAR LYNI 291100Z 32011KT 290V010 9999 FEW050 SCT090 20/04 Q1018 NOSIG",
      "taf": "TAF LYNI 290500Z 2906/3006 34005KT CAVOK TX21/2913Z TN08/3004Z"
    },
    {
      "icao": "LYPG",
      "alert": "OK",
      "vis_m": 9999,
      "fzfg": false,
      "metar_trigger": false,
      "taf_trigger": false,
      "metar": "METAR LYPG 291100Z 15005KT 080V200 9999 FEW050 24/08 Q1016 NOSIG",
      "taf": "TAF LYPG 290500Z 2906/3006 16007KT 9999 FEW050 SCT090 TX25/2914Z TN13/3004Z"
    },
    {
      "icao": "LZIB",
      "alert": "OK",
      "vis_m": 9999,
      "fzfg": false,
      "metar_trigger": false,
      "taf_trigger": false,
      "metar": "METAR LZIB 291100Z 07006KT 020V110 CAVOK 15/M04 Q1022 NOSIG",
      "taf": "TAF LZIB 291115Z 2912/3012 04012KT CAVOK"
    },
    {
      "icao": "LZKZ",
      "alert": "OK",
      "vis_m": 9999,
      "fzfg": false,
      "metar_trigger": false,
      "taf_trigger": false,
      "metar": "METAR LZKZ 291100Z 02018KT CAVOK 11/M05 Q1023 NOSIG",
      "taf": "TAF LZKZ 291115Z 2912/3012 02014KT 9999 FEW045"
    },
    {
      "icao": "LZTT",
      "alert": "OK",
      "vis_m": 9999,
      "fzfg": false,
      "metar_trigger": false,
      "taf_trigger": false,
      "metar": "METAR LZTT 291100Z 06017G29KT 360V090 9999 SCT066 09/M05 Q1020 NOSIG",
      "taf": "TAF LZTT 291115Z 2912/3012 07013KT 9999 FEW060"
    },
    {
      "icao": "OEJN",
      "alert": "OK",
      "vis_m": 9999,
      "fzfg": false,
      "metar_trigger": false,
      "taf_trigger": false,
      "metar": "METAR OEJN 291100Z 33017KT CAVOK 35/06 Q1009 NOSIG",
      "taf": "TAF OEJN 290500Z 2906/3012 02005KT CAVOK"
    },
    {
      "icao": "OEMA",
      "alert": "OK",
      "vis_m": 9999,
      "fzfg": false,
      "metar_trigger": false,
      "taf_trigger": false,
      "metar": "METAR OEMA 291100Z 27008KT CAVOK 32/M03 Q1011 NOSIG",
      "taf": "TAF OEMA 290500Z 2906/3012 VRB03KT 7000 NSC"
    },
    {
      "icao": "OJAI",
      "alert": "OK",
      "vis_m": 5000,
      "fzfg": false,
      "metar_trigger": false,
      "taf_trigger": false,
      "metar": "METAR OJAI 291100Z 27010KT 5000 HZ FEW035 24/05 Q1016 NOSIG",
      "taf": "TAF OJAI 290449Z 2906/3012 VRB02KT 5000 HZ NSC"
    },
    {
      "icao": "OMAA",
      "alert": "OK",
      "vis_m": 9999,
      "fzfg": false,
      "metar_trigger": false,
      "taf_trigger": false,
      "metar": "METAR OMAA 291100Z 33016KT 280V340 CAVOK 40/18 Q1004 NOSIG",
      "taf": "TAF OMAA 291100Z 2912/3018 33013KT 8000 NSC"
    },
    {
      "icao": "OMDB",
      "alert": "OK",
      "vis_m": 9999,
      "fzfg": false,
      "metar_trigger": false,
      "taf_trigger": false,
      "metar": "METAR OMDB 291100Z 32012KT CAVOK 37/14 Q1005 NOSIG",
      "taf": "TAF OMDB 291100Z 2912/3018 31012KT 8000 NSC"
    },
    {
      "icao": "UAAA",
      "alert": "OK",
      "vis_m": 9999,
      "fzfg": false,
      "metar_trigger": false,
      "taf_trigger": false,
      "metar": "METAR UAAA 291100Z 04004MPS 360V070 9999 FEW050CB SCT200 26/11 Q1013 NOSIG",
      "taf": "TAF UAAA 290507Z 2906/3006 07005G10MPS 9999 FEW050CB SCT100 TX25/2909Z TN10/3001Z"
    },
    {
      "icao": "UBBB",
      "alert": "OK",
      "vis_m": 9999,
      "fzfg": false,
      "metar_trigger": false,
      "taf_trigger": false,
      "metar": "METAR UBBB 291100Z 33016KT 9999 FEW035CB OVC035 11/06 Q1016 NOSIG",
      "taf": "TAF UBBB 291055Z 2912/3012 32018G28KT 9999 SCT012 FEW040CB BKN100 TX11/2912Z TN09/3001Z"
    },
    {
      "icao": "UDSG",
      "alert": "OK",
      "vis_m": 9999,
      "fzfg": false,
      "metar_trigger": false,
      "taf_trigger": false,
      "metar": "METAR UDSG 291100Z 33005KT 280V040 9999 FEW043CB 15/M02 Q1014 NOSIG",
      "taf": "TAF UDSG 290458Z 2906/3006 24006KT 9999 FEW050"
    },
    {
      "icao": "UDYZ",
      "alert": "OK",
      "vis_m": 9999,
      "fzfg": false,
      "metar_trigger": false,
      "taf_trigger": false,
      "metar": "METAR UDYZ 291100Z 13007KT 100V180 9999 SCT046 18/07 Q1012 NOSIG",
      "taf": "TAF UDYZ 290500Z 2906/3006 20006KT 9999 SCT040"
    },
    {
      "icao": "UGKO",
      "alert": "OK",
      "vis_m": 9999,
      "fzfg": false,
      "metar_trigger": false,
      "taf_trigger": false,
      "metar": "METAR UGKO 291100Z 26009KT 9999 SCT029 BKN047 16/06 Q1018 NOSIG",
      "taf": "TAF UGKO 291100Z 2912/3012 08007KT CAVOK TX21/3011Z TN04/3002Z"
    }
  ]
}