{
  "ts_utc": "2025-12-20T19:29:19Z",
  "threshold_m": 150,
  "source": "stations_override.txt (ICAO list) + aviationweather.gov (METAR/TAF raw)",
  "station_count": 114,
  "stations": [
    {
      "icao": "BIKF",
      "alert": "OK",
      "vis_m": 9999,
      "fzfg": false,
      "metar_trigger": false,
      "taf_trigger": false,
      "metar": "METAR BIKF 201900Z 07006KT 9999 FEW020 BKN260 04/03 Q0998",
      "taf": "TAF BIKF 201645Z 2018/2118 06008KT 9999 SCT010 BKN025 TX09/2112Z TN04/2019Z"
    },
    {
      "icao": "BKPR",
      "alert": "OK",
      "vis_m": null,
      "fzfg": false,
      "metar_trigger": false,
      "taf_trigger": false,
      "metar": "",
      "taf": "TAF BKPR 201730Z 2018/2118 VRB03KT 0150 FG BKN001"
    },
    {
      "icao": "EBBR",
      "alert": "OK",
      "vis_m": 9999,
      "fzfg": false,
      "metar_trigger": false,
      "taf_trigger": false,
      "metar": "METAR EBBR 201920Z 12005KT 9999 FEW023 07/06 Q1011 NOSIG",
      "taf": "TAF EBBR 201702Z 2018/2124 11005KT 7000 FEW018"
    },
    {
      "icao": "EBCI",
      "alert": "OK",
      "vis_m": 6000,
      "fzfg": false,
      "metar_trigger": false,
      "taf_trigger": false,
      "metar": "METAR EBCI 201920Z 14005KT 6000 FEW009 BKN013 08/08 Q1011 TEMPO 3000 BR BKN009",
      "taf": "TAF EBCI 201702Z 2018/2124 14004KT 8000 FEW018"
    },
    {
      "icao": "EDDB",
      "alert": "OK",
      "vis_m": 600,
      "fzfg": false,
      "metar_trigger": false,
      "taf_trigger": false,
      "metar": "METAR EDDB 201920Z AUTO 06005KT 0600 0450 R06L/0650N R06R/0700N FG VV003 05/05 Q1019 TEMPO 0400 FG OVC001",
      "taf": ""
    },
    {
      "icao": "EDDH",
      "alert": "OK",
      "vis_m": 3100,
      "fzfg": false,
      "metar_trigger": false,
      "taf_trigger": false,
      "metar": "METAR EDDH 201920Z AUTO 09006KT 3100 1200 R23/P2000N R15/P2000N BR OVC001 04/04 Q1018 TEMPO 3000 OVC003",
      "taf": ""
    },
    {
      "icao": "EDDK",
      "alert": "OK",
      "vis_m": 9999,
      "fzfg": false,
      "metar_trigger": false,
      "taf_trigger": false,
      "metar": "METAR EDDK 201920Z AUTO 12007KT 090V150 9999 BKN024 BKN031 10/08 Q1013 NOSIG",
      "taf": "TAF EDDK 201700Z 2018/2124 11007KT 9999 BKN020"
    },
    {
      "icao": "EDDN",
      "alert": "OK",
      "vis_m": 9999,
      "fzfg": false,
      "metar_trigger": false,
      "taf_trigger": false,
      "metar": "METAR EDDN 201920Z AUTO 12007KT CAVOK 05/03 Q1016 NOSIG",
      "taf": "TAF EDDN 201700Z 2018/2118 10006KT CAVOK"
    },
    {
      "icao": "EDFH",
      "alert": "OK",
      "vis_m": 300,
      "fzfg": false,
      "metar_trigger": false,
      "taf_trigger": false,
      "metar": "METAR EDFH 201920Z 14008KT 0300 R21/0450N FG VV/// 07/07 Q1013",
      "taf": "TAF EDFH 201700Z 2018/2118 14012KT 0300 -DZ FG VV000"
    },
    {
      "icao": "EDJA",
      "alert": "OK",
      "vis_m": 1500,
      "fzfg": false,
      "metar_trigger": false,
      "taf_trigger": false,
      "metar": "METAR EDJA 201920Z 01001KT 1500 0700E R24/0900U BCFG NSC M01/M01 Q1015",
      "taf": "TAF EDJA 201700Z 2018/2103 04003KT 6000 NSC"
    },
    {
      "icao": "EDLW",
      "alert": "OK",
      "vis_m": 6000,
      "fzfg": false,
      "metar_trigger": false,
      "taf_trigger": false,
      "metar": "METAR EDLW 201920Z 05002KT 6000 FEW039 BKN044 06/06 Q1013",
      "taf": "TAF EDLW 201700Z 2018/2118 04005KT 9999 BKN030"
    },
    {
      "icao": "EDSB",
      "alert": "OK",
      "vis_m": 7000,
      "fzfg": false,
      "metar_trigger": false,
      "taf_trigger": false,
      "metar": "METAR EDSB 201920Z VRB02KT 7000 BCFG NSC 07/07 Q1014",
      "taf": "TAF EDSB 201700Z 2018/2118 02003KT CAVOK"
    },
    {
      "icao": "EETN",
      "alert": "OK",
      "vis_m": 9999,
      "fzfg": false,
      "metar_trigger": false,
      "taf_trigger": false,
      "metar": "METAR EETN 201920Z 24012KT 9999 BKN008 OVC017 06/06 Q1006 TEMPO 4000 SHRA BKN007 FEW020CB",
      "taf": "TAF EETN 201730Z 2018/2118 22014KT 9999 BKN010 OVC020"
    },
    {
      "icao": "EFHK",
      "alert": "OK",
      "vis_m": 9999,
      "fzfg": false,
      "metar_trigger": false,
      "taf_trigger": false,
      "metar": "METAR EFHK 201920Z 23008KT 9999 SCT013 BKN020 06/04 Q1004 TEMPO BKN010",
      "taf": "TAF EFHK 201736Z 2018/2118 23009KT 9999 SCT010 BKN018"
    },
    {
      "icao": "EFTU",
      "alert": "OK",
      "vis_m": 9999,
      "fzfg": false,
      "metar_trigger": false,
      "taf_trigger": false,
      "metar": "METAR EFTU 201920Z AUTO 26010KT CAVOK 05/03 Q1004",
      "taf": "TAF EFTU 201736Z 2018/2118 25010KT 9999 FEW012 BKN030"
    },
    {
      "icao": "EGGW",
      "alert": "OK",
      "vis_m": 9999,
      "fzfg": false,
      "metar_trigger": false,
      "taf_trigger": false,
      "metar": "METAR EGGW 201920Z AUTO 13009KT 9999 OVC016 06/05 Q1008",
      "taf": "TAF EGGW 201701Z 2018/2118 12007KT 9999 FEW028"
    },
    {
      "icao": "EGKK",
      "alert": "OK",
      "vis_m": 9999,
      "fzfg": false,
      "metar_trigger": false,
      "taf_trigger": false,
      "metar": "METAR EGKK 201920Z 08007KT 9999 BKN011 07/07 Q1008",
      "taf": "TAF EGKK 201658Z 2018/2124 10005KT 9999 SCT020"
    },
    {
      "icao": "EHEH",
      "alert": "OK",
      "vis_m": 9999,
      "fzfg": false,
      "metar_trigger": false,
      "taf_trigger": false,
      "metar": "METAR EHEH 201855Z AUTO 09005KT 050V110 9999 SCT006 OVC007 07/06 Q1013 GRN NOSIG RMK TREND REMOTE BY EHWX",
      "taf": "TAF EHEH 201723Z 2018/2124 11006KT 9999 SCT015 BKN020"
    },
    {
      "icao": "EKBI",
      "alert": "OK",
      "vis_m": 9000,
      "fzfg": false,
      "metar_trigger": false,
      "taf_trigger": false,
      "metar": "METAR EKBI 201920Z AUTO 17003KT 9000 OVC003/// 06/06 Q1018",
      "taf": "TAF EKBI 201727Z 2018/2118 18005KT 9999 BKN009"
    },
    {
      "icao": "EKCH",
      "alert": "OK",
      "vis_m": 9999,
      "fzfg": false,
      "metar_trigger": false,
      "taf_trigger": false,
      "metar": "METAR EKCH 201920Z 25008KT 9999 BKN005 05/04 Q1019 TEMPO BKN004",
      "taf": "TAF EKCH 201736Z 2018/2118 22006KT 9999 BKN020"
    },
    {
      "icao": "ENTO",
      "alert": "OK",
      "vis_m": 9999,
      "fzfg": false,
      "metar_trigger": false,
      "taf_trigger": false,
      "metar": "METAR ENTO 201920Z 36003KT CAVOK 03/01 Q1015 NOSIG",
      "taf": "TAF ENTO 201700Z 2018/2118 VRB03KT CAVOK"
    },
    {
      "icao": "EPGD",
      "alert": "OK",
      "vis_m": 9999,
      "fzfg": false,
      "metar_trigger": false,
      "taf_trigger": false,
      "metar": "METAR EPGD 201900Z 32008KT 9999 BKN013 05/02 Q1019",
      "taf": "TAF EPGD 201730Z 2018/2118 27005KT 9999 BKN011"
    },
    {
      "icao": "EPKK",
      "alert": "OK",
      "vis_m": 3900,
      "fzfg": false,
      "metar_trigger": false,
      "taf_trigger": false,
      "metar": "METAR EPKK 201900Z 25002KT 3900 BR FEW007 OVC015 02/02 Q1019",
      "taf": ""
    },
    {
      "icao": "EPKT",
      "alert": "OK",
      "vis_m": 1300,
      "fzfg": false,
      "metar_trigger": false,
      "taf_trigger": false,
      "metar": "METAR EPKT 201900Z 32002KT 1300 R26/P2000N BR OVC002 04/04 Q1019",
      "taf": "TAF EPKT 201730Z 2018/2118 VRB02KT 2000 BR BKN002"
    },
    {
      "icao": "EPWA",
      "alert": "OK",
      "vis_m": 2600,
      "fzfg": false,
      "metar_trigger": false,
      "taf_trigger": false,
      "metar": "METAR EPWA 201900Z 31006KT 2600 1400NW BR OVC002 04/04 Q1019 TEMPO 0800 FG OVC001",
      "taf": ""
    },
    {
      "icao": "EPWR",
      "alert": "OK",
      "vis_m": 3000,
      "fzfg": false,
      "metar_trigger": false,
      "taf_trigger": false,
      "metar": "METAR EPWR 201900Z 03002KT 3000 BR SCT004 BKN006 BKN030 05/04 Q1019",
      "taf": "TAF EPWR 201730Z 2018/2118 03003KT 4000 BR BKN005"
    },
    {
      "icao": "ESGG",
      "alert": "OK",
      "vis_m": 6000,
      "fzfg": false,
      "metar_trigger": false,
      "taf_trigger": false,
      "metar": "METAR ESGG 201920Z 22006KT 6000 BKN005 OVC008 06/06 Q1016",
      "taf": "TAF ESGG 201730Z 2018/2118 24007KT 9999 BKN010"
    },
    {
      "icao": "ESKN",
      "alert": "OK",
      "vis_m": 9999,
      "fzfg": false,
      "metar_trigger": false,
      "taf_trigger": false,
      "metar": "METAR ESKN 201920Z 27011KT CAVOK 05/04 Q1012",
      "taf": "TAF ESKN 201730Z 2018/2118 26013KT CAVOK"
    },
    {
      "icao": "ESMX",
      "alert": "OK",
      "vis_m": 9999,
      "fzfg": false,
      "metar_trigger": false,
      "taf_trigger": false,
      "metar": "METAR ESMX 201920Z AUTO 27006KT 9999 OVC015/// 07/06 Q1016",
      "taf": "TAF ESMX 201130Z 2012/2015 23011KT 9999 OVC035"
    },
    {
      "icao": "EVRA",
      "alert": "OK",
      "vis_m": 9999,
      "fzfg": false,
      "metar_trigger": false,
      "taf_trigger": false,
      "metar": "METAR EVRA 201920Z 20005KT 9999 SCT018 BKN033 OVC041 06/05 Q1013 NOSIG",
      "taf": "TAF EVRA 201701Z 2018/2118 21007KT 9999 BKN015"
    },
    {
      "icao": "EYKA",
      "alert": "OK",
      "vis_m": 7000,
      "fzfg": false,
      "metar_trigger": false,
      "taf_trigger": false,
      "metar": "METAR EYKA 201920Z 22005KT 190V250 7000 OVC022 05/04 Q1017",
      "taf": "TAF EYKA 201700Z 2018/2118 VRB04KT 9000 SCT010 OVC015"
    },
    {
      "icao": "EYVI",
      "alert": "OK",
      "vis_m": 300,
      "fzfg": false,
      "metar_trigger": false,
      "taf_trigger": false,
      "metar": "METAR EYVI 201920Z 21003KT 0300 R01/0900V1700U FG VV002 02/02 Q1017 NOSIG",
      "taf": ""
    },
    {
      "icao": "GCLP",
      "alert": "OK",
      "vis_m": 9999,
      "fzfg": false,
      "metar_trigger": false,
      "taf_trigger": false,
      "metar": "METAR GCLP 201900Z 01013KT 330V040 9999 FEW035 BKN045 18/11 Q1022 NOSIG",
      "taf": "TAF GCLP 201400Z 2015/2115 02019KT 9999 SCT035 TX21/2114Z TN15/2106Z"
    },
    {
      "icao": "GCTS",
      "alert": "OK",
      "vis_m": 9999,
      "fzfg": false,
      "metar_trigger": false,
      "taf_trigger": false,
      "metar": "METAR GCTS 201900Z 07015KT 9999 BKN035 19/11 Q1022 NOSIG",
      "taf": "TAF GCTS 201400Z 2015/2115 08019KT 9999 SCT035 TX22/2114Z TN15/2106Z"
    },
    {
      "icao": "HECA",
      "alert": "OK",
      "vis_m": null,
      "fzfg": false,
      "metar_trigger": false,
      "taf_trigger": false,
      "metar": "",
      "taf": "TAF HECA 201700Z 2018/2124 08009KT CAVOK"
    },
    {
      "icao": "HEGN",
      "alert": "OK",
      "vis_m": 9999,
      "fzfg": false,
      "metar_trigger": false,
      "taf_trigger": false,
      "metar": "METAR HEGN 201900Z 21003KT CAVOK 17/12 Q1016 NOSIG",
      "taf": "TAF HEGN 201700Z 2018/2124 27008KT CAVOK"
    },
    {
      "icao": "HESH",
      "alert": "OK",
      "vis_m": 9999,
      "fzfg": false,
      "metar_trigger": false,
      "taf_trigger": false,
      "metar": "METAR HESH 201900Z 30006KT CAVOK 16/09 Q1016 NOSIG",
      "taf": "TAF HESH 201700Z 2018/2124 35008KT CAVOK"
    },
    {
      "icao": "HESX",
      "alert": "OK",
      "vis_m": 9999,
      "fzfg": false,
      "metar_trigger": false,
      "taf_trigger": false,
      "metar": "METAR HESX 201900Z 05006KT CAVOK 14/08 Q1015 NOSIG",
      "taf": "TAF HESX 201700Z 2018/2124 09009KT CAVOK"
    },
    {
      "icao": "LATI",
      "alert": "OK",
      "vis_m": 6000,
      "fzfg": false,
      "metar_trigger": false,
      "taf_trigger": false,
      "metar": "METAR LATI 201920Z 14004KT 6000 NSC 06/04 Q1016 NOSIG",
      "taf": "TAF LATI 201700Z 2018/2118 VRB05KT CAVOK TX17/2112Z TN01/2105Z"
    },
    {
      "icao": "LBSF",
      "alert": "OK",
      "vis_m": 9999,
      "fzfg": false,
      "metar_trigger": false,
      "taf_trigger": false,
      "metar": "METAR LBSF 201900Z AUTO 12007KT 9999 NCD 01/M00 Q1019 NOSIG",
      "taf": "TAF LBSF 201700Z 2018/2118 10010KT 9999 SCT030"
    },
    {
      "icao": "LBWN",
      "alert": "OK",
      "vis_m": 9000,
      "fzfg": false,
      "metar_trigger": false,
      "taf_trigger": false,
      "metar": "METAR LBWN 201900Z AUTO VRB02KT 9000 OVC009/// 06/06 Q1020 NOSIG",
      "taf": "TAF LBWN 201700Z 2018/2118 02010KT 7000 BKN008 OVC018"
    },
    {
      "icao": "LCLK",
      "alert": "OK",
      "vis_m": 9999,
      "fzfg": false,
      "metar_trigger": false,
      "taf_trigger": false,
      "metar": "METAR LCLK 201900Z 33004KT 9999 FEW035 13/11 Q1017 NOSIG",
      "taf": "TAF LCLK 201730Z 2018/2118 33006KT 9999 FEW020 SCT030"
    },
    {
      "icao": "LDDU",
      "alert": "OK",
      "vis_m": 9999,
      "fzfg": false,
      "metar_trigger": false,
      "taf_trigger": false,
      "metar": "METAR LDDU 201900Z 05004KT 320V090 CAVOK 13/07 Q1015 NOSIG",
      "taf": "TAF LDDU 201725Z 2018/2118 05006KT 9999 FEW040 TX15/2112Z TN09/2103Z"
    },
    {
      "icao": "LDSP",
      "alert": "OK",
      "vis_m": 9999,
      "fzfg": false,
      "metar_trigger": false,
      "taf_trigger": false,
      "metar": "METAR LDSP 201900Z 34004KT CAVOK 10/07 Q1015 NOSIG",
      "taf": "TAF LDSP 201725Z 2018/2118 34005KT CAVOK TX16/2113Z TN07/2106Z"
    },
    {
      "icao": "LDZA",
      "alert": "OK",
      "vis_m": 400,
      "fzfg": false,
      "metar_trigger": false,
      "taf_trigger": false,
      "metar": "METAR LDZA 201900Z 03004KT 010V070 0400 R04/1200N R22/1700N FG VV002 03/02 Q1020 BECMG 0200 VV001",
      "taf": "TAF LDZA 201725Z 2018/2118 VRB02KT 1200 BCFG OVC003 TX05/2113Z TN02/2105Z"
    },
    {
      "icao": "LEAL",
      "alert": "OK",
      "vis_m": 9999,
      "fzfg": false,
      "metar_trigger": false,
      "taf_trigger": false,
      "metar": "METAR LEAL 201900Z 22003KT 190V280 CAVOK 14/11 Q1013 NOSIG",
      "taf": "TAF LEAL 201700Z 2018/2118 VRB04KT 9999 FEW030 TX15/2112Z TN08/2106Z"
    },
    {
      "icao": "LEBL",
      "alert": "OK",
      "vis_m": 9999,
      "fzfg": false,
      "metar_trigger": false,
      "taf_trigger": false,
      "metar": "METAR LEBL 201900Z 33006KT 9999 -DZ FEW035 SCT055 13/11 Q1011 NOSIG",
      "taf": "TAF LEBL 201700Z 2018/2118 33009KT 6000 SCT030 BKN035 TX16/2112Z TN09/2106Z"
    },
    {
      "icao": "LECH",
      "alert": "OK",
      "vis_m": 8000,
      "fzfg": false,
      "metar_trigger": false,
      "taf_trigger": false,
      "metar": "METAR LECH 201900Z AUTO 00000KT 8000 NSC 10/08 Q1012",
      "taf": ""
    },
    {
      "icao": "LEMD",
      "alert": "OK",
      "vis_m": 9000,
      "fzfg": false,
      "metar_trigger": false,
      "taf_trigger": false,
      "metar": "METAR LEMD 201900Z 22010KT 190V250 9000 FEW025 OVC060 08/07 Q1012 NOSIG",
      "taf": "TAF LEMD 201700Z 2018/2124 20008KT 9999 SCT045 TX08/2114Z TN05/2107Z"
    },
    {
      "icao": "LEMG",
      "alert": "OK",
      "vis_m": 9999,
      "fzfg": false,
      "metar_trigger": false,
      "taf_trigger": false,
      "metar": "METAR LEMG 201900Z VRB01KT 9999 FEW050 10/04 Q1017 NOSIG",
      "taf": "TAF LEMG 201700Z 2018/2118 30006KT 9999 FEW030 TX13/2114Z TN08/2106Z"
    },
    {
      "icao": "LERS",
      "alert": "OK",
      "vis_m": 9999,
      "fzfg": false,
      "metar_trigger": false,
      "taf_trigger": false,
      "metar": "METAR LERS 201900Z 33004KT CAVOK 11/09 Q1012",
      "taf": "TAF LERS 201400Z 2015/2115 VRB04KT 9999 FEW040 TX15/2112Z TN06/2106Z"
    },
    {
      "icao": "LEVC",
      "alert": "OK",
      "vis_m": 9999,
      "fzfg": false,
      "metar_trigger": false,
      "taf_trigger": false,
      "metar": "METAR LEVC 201900Z 13004KT CAVOK 13/09 Q1012 NOSIG",
      "taf": "TAF LEVC 201700Z 2018/2118 VRB04KT 9999 FEW040 TX16/2112Z TN06/2107Z"
    },
    {
      "icao": "LFLL",
      "alert": "OK",
      "vis_m": 9999,
      "fzfg": false,
      "metar_trigger": false,
      "taf_trigger": false,
      "metar": "METAR LFLL 201900Z 13009KT CAVOK 11/08 Q1013 NOSIG",
      "taf": "TAF LFLL 201700Z 2018/2124 14006KT CAVOK"
    },
    {
      "icao": "LFMN",
      "alert": "OK",
      "vis_m": 9999,
      "fzfg": false,
      "metar_trigger": false,
      "taf_trigger": false,
      "metar": "METAR LFMN 201900Z 32008KT 9999 BKN043 BKN063 14/11 Q1014 NOSIG",
      "taf": "TAF LFMN 201400Z 2015/2121 VRB03KT 9999 BKN040"
    },
    {
      "icao": "LFOB",
      "alert": "OK",
      "vis_m": 2200,
      "fzfg": false,
      "metar_trigger": false,
      "taf_trigger": false,
      "metar": "METAR LFOB 201900Z AUTO 11007KT 2200 -RA BR VV/// 09/09 Q1009 TEMPO 0500 FG",
      "taf": "TAF LFOB 201700Z 2018/2118 14005KT 6000 OVC006"
    },
    {
      "icao": "LFPO",
      "alert": "OK",
      "vis_m": 7000,
      "fzfg": false,
      "metar_trigger": false,
      "taf_trigger": false,
      "metar": "METAR LFPO 201900Z 16004KT 7000 BKN006 BKN056 10/10 Q1010 BECMG BKN012",
      "taf": "TAF LFPO 201700Z 2018/2124 16005KT 7000 BKN009"
    },
    {
      "icao": "LFSB",
      "alert": "OK",
      "vis_m": 9999,
      "fzfg": false,
      "metar_trigger": false,
      "taf_trigger": false,
      "metar": "METAR LFSB 201900Z AUTO 17005KT CAVOK 08/04 Q1014 NOSIG",
      "taf": "TAF LFSB 201700Z 2018/2118 VRB03KT CAVOK"
    },
    {
      "icao": "LGAV",
      "alert": "OK",
      "vis_m": 9999,
      "fzfg": false,
      "metar_trigger": false,
      "taf_trigger": false,
      "metar": "METAR LGAV 201920Z 07006KT 9999 SCT025 13/08 Q1016 NOSIG",
      "taf": "TAF LGAV 201700Z 2018/2118 02010KT 9999 SCT020 BKN070"
    },
    {
      "icao": "LGIR",
      "alert": "OK",
      "vis_m": 9999,
      "fzfg": false,
      "metar_trigger": false,
      "taf_trigger": false,
      "metar": "METAR LGIR 201920Z 18004KT 9999 FEW018 SCT025 BKN080 14/12 Q1014 NOSIG",
      "taf": "TAF LGIR 201700Z 2018/2118 18008KT 9999 SCT020 BKN080"
    },
    {
      "icao": "LGKR",
      "alert": "OK",
      "vis_m": 7000,
      "fzfg": false,
      "metar_trigger": false,
      "taf_trigger": false,
      "metar": "METAR LGKR 201920Z 00000KT 7000 SCT008 11/10 Q1015 NOSIG",
      "taf": ""
    },
    {
      "icao": "LGRP",
      "alert": "OK",
      "vis_m": 9999,
      "fzfg": false,
      "metar_trigger": false,
      "taf_trigger": false,
      "metar": "METAR LGRP 201920Z VRB02KT 9999 SCT020 15/11 Q1014 NOSIG",
      "taf": "TAF LGRP 201700Z 2018/2118 VRB05KT 9999 SCT020"
    },
    {
      "icao": "LGTS",
      "alert": "OK",
      "vis_m": 8000,
      "fzfg": false,
      "metar_trigger": false,
      "taf_trigger": false,
      "metar": "METAR LGTS 201920Z VRB03KT 8000 FEW010 08/07 Q1018 NOSIG",
      "taf": "TAF LGTS 201700Z 2018/2118 VRB03KT 8000 FEW010"
    },
    {
      "icao": "LGZA",
      "alert": "OK",
      "vis_m": null,
      "fzfg": false,
      "metar_trigger": false,
      "taf_trigger": false,
      "metar": "",
      "taf": "TAF LGZA 201700Z 2018/2103 VRB03KT 9999 SCT020 BKN070"
    },
    {
      "icao": "LHBP",
      "alert": "OK",
      "vis_m": 9000,
      "fzfg": false,
      "metar_trigger": false,
      "taf_trigger": false,
      "metar": "METAR LHBP 201900Z 34004KT 310V010 9000 OVC010 06/04 Q1020 NOSIG",
      "taf": "TAF LHBP 201715Z 2018/2118 VRB03KT 9000 OVC014"
    },
    {
      "icao": "LHDC",
      "alert": "OK",
      "vis_m": 600,
      "fzfg": false,
      "metar_trigger": false,
      "taf_trigger": false,
      "metar": "METAR LHDC 201845Z AUTO 25005KT 210V270 0600 -DZ FG VV002 05/05 Q1020 NOSIG",
      "taf": "TAF LHDC 201415Z 2015/2024 VRB02KT 0300 FG VV001"
    },
    {
      "icao": "LIBD",
      "alert": "OK",
      "vis_m": 9999,
      "fzfg": false,
      "metar_trigger": false,
      "taf_trigger": false,
      "metar": "METAR LIBD 201920Z 22004KT 9999 SCT020 09/09 Q1016",
      "taf": "TAF LIBD 201700Z 2018/2118 VRB04KT 9999 SCT040"
    },
    {
      "icao": "LICC",
      "alert": "OK",
      "vis_m": 9999,
      "fzfg": false,
      "metar_trigger": false,
      "taf_trigger": false,
      "metar": "METAR LICC 201920Z 04010KT 9999 SCT020 BKN040 15/14 Q1013",
      "taf": "TAF LICC 201700Z 2018/2118 05008KT 9999 SCT010 BKN040"
    },
    {
      "icao": "LICJ",
      "alert": "OK",
      "vis_m": 9999,
      "fzfg": false,
      "metar_trigger": false,
      "taf_trigger": false,
      "metar": "METAR LICJ 201920Z AUTO 20003KT 150V230 9999 OVC076/// 16/12 Q1012",
      "taf": "TAF LICJ 201700Z 2018/2118 VRB06KT 9999 SCT040"
    },
    {
      "icao": "LIEO",
      "alert": "OK",
      "vis_m": 4500,
      "fzfg": false,
      "metar_trigger": false,
      "taf_trigger": false,
      "metar": "METAR LIEO 201920Z VRB02KT 4500 R05/1200N R23/P2000N BR SCT020 10/10 Q1014",
      "taf": ""
    },
    {
      "icao": "LIMC",
      "alert": "OK",
      "vis_m": 3000,
      "fzfg": false,
      "metar_trigger": false,
      "taf_trigger": false,
      "metar": "METAR LIMC 201920Z VRB02KT 3000 R35R/1800D R17L/0550N R35L/P2000N BCFG NSC 07/06 Q1017 NOSIG",
      "taf": "TAF LIMC 201700Z 2018/2124 VRB03KT 4000 BR SCT012 BKN070"
    },
    {
      "icao": "LIME",
      "alert": "OK",
      "vis_m": 7000,
      "fzfg": false,
      "metar_trigger": false,
      "taf_trigger": false,
      "metar": "METAR LIME 201920Z 33002KT 7000 SCT010 06/06 Q1017 NOSIG",
      "taf": "TAF LIME 201700Z 2018/2118 VRB03KT 7000 SCT010 BKN070"
    },
    {
      "icao": "LIPH",
      "alert": "OK",
      "vis_m": 8000,
      "fzfg": false,
      "metar_trigger": false,
      "taf_trigger": false,
      "metar": "METAR LIPH 201920Z 30002KT 8000 MIFG NSC 06/06 Q1017",
      "taf": "TAF LIPH 201700Z 2018/2118 VRB04KT 8000 FEW030"
    },
    {
      "icao": "LIPQ",
      "alert": "OK",
      "vis_m": 9999,
      "fzfg": false,
      "metar_trigger": false,
      "taf_trigger": false,
      "metar": "METAR LIPQ 201920Z AUTO 03003KT 9999 OVC230/// 06/06 Q1017",
      "taf": "TAF LIPQ 201700Z 2018/2118 VRB04KT CAVOK"
    },
    {
      "icao": "LIPX",
      "alert": "OK",
      "vis_m": 3000,
      "fzfg": false,
      "metar_trigger": false,
      "taf_trigger": false,
      "metar": "METAR LIPX 201920Z 31002KT 3000 0400SW BCFG SCT006 05/05 Q1017",
      "taf": "TAF LIPX 201700Z 2018/2118 VRB03KT 6000 BKN060"
    },
    {
      "icao": "LIPY",
      "alert": "OK",
      "vis_m": 5000,
      "fzfg": false,
      "metar_trigger": false,
      "taf_trigger": false,
      "metar": "METAR LIPY 201920Z AUTO 24003KT 5000 BR OVC008/// 11/10 Q1017",
      "taf": "TAF LIPY 201700Z 2018/2118 VRB05KT 8000 OVC013"
    },
    {
      "icao": "LIPZ",
      "alert": "OK",
      "vis_m": 9999,
      "fzfg": false,
      "metar_trigger": false,
      "taf_trigger": false,
      "metar": "METAR LIPZ 201920Z VRB02KT CAVOK 08/06 Q1017 NOSIG",
      "taf": "TAF LIPZ 201700Z 2018/2124 VRB04KT 8000 FEW020"
    },
    {
      "icao": "LIRA",
      "alert": "OK",
      "vis_m": 9999,
      "fzfg": false,
      "metar_trigger": false,
      "taf_trigger": false,
      "metar": "METAR LIRA 201920Z 16002KT CAVOK 11/07 Q1015",
      "taf": "TAF LIRA 201700Z 2018/2118 05005KT CAVOK"
    },
    {
      "icao": "LIRN",
      "alert": "OK",
      "vis_m": 9999,
      "fzfg": false,
      "metar_trigger": false,
      "taf_trigger": false,
      "metar": "METAR LIRN 201920Z 34004KT 250V020 CAVOK 11/07 Q1015 NOSIG",
      "taf": "TAF LIRN 201700Z 2018/2118 05007KT CAVOK"
    },
    {
      "icao": "LLBG",
      "alert": "OK",
      "vis_m": 9999,
      "fzfg": false,
      "metar_trigger": false,
      "taf_trigger": false,
      "metar": "METAR LLBG 201920Z VRB01KT CAVOK 14/09 Q1016 NOSIG",
      "taf": "TAF LLBG 201703Z 2018/2118 VRB03KT CAVOK"
    },
    {
      "icao": "LMML",
      "alert": "OK",
      "vis_m": 9999,
      "fzfg": false,
      "metar_trigger": false,
      "taf_trigger": false,
      "metar": "METAR LMML 201915Z VRB02KT 9999 FEW049 14/12 Q1012 NOSIG",
      "taf": "TAF LMML 201700Z 2018/2118 VRB07KT 9999 SCT014"
    },
    {
      "icao": "LOWW",
      "alert": "OK",
      "vis_m": 4500,
      "fzfg": false,
      "metar_trigger": false,
      "taf_trigger": false,
      "metar": "METAR LOWW 201920Z 15006KT 120V180 4500 -DZ BR FEW001 BKN002 02/02 Q1020 NOSIG",
      "taf": "TAF LOWW 201728Z 2018/2124 14005KT 2000 BR SCT001 OVC002 TX04/2124Z TN02/2102Z"
    },
    {
      "icao": "LPFR",
      "alert": "OK",
      "vis_m": 9999,
      "fzfg": false,
      "metar_trigger": false,
      "taf_trigger": false,
      "metar": "METAR LPFR 201900Z 24012KT 9999 SCT020 15/12 Q1016",
      "taf": "TAF LPFR 201700Z 2018/2118 26012KT 9999 BKN018"
    },
    {
      "icao": "LPPR",
      "alert": "OK",
      "vis_m": 9999,
      "fzfg": false,
      "metar_trigger": false,
      "taf_trigger": false,
      "metar": "METAR LPPR 201900Z 20009KT 9999 -SHRA FEW015 FEW022CB SCT037 12/07 Q1009",
      "taf": "TAF LPPR 201700Z 2018/2118 24013KT 9999 SCT030"
    },
    {
      "icao": "LPPT",
      "alert": "OK",
      "vis_m": 9999,
      "fzfg": false,
      "metar_trigger": false,
      "taf_trigger": false,
      "metar": "METAR LPPT 201900Z 24004KT 9999 FEW012 11/10 Q1013",
      "taf": "TAF LPPT 201700Z 2018/2124 25008KT 9999 SCT025"
    },
    {
      "icao": "LQSA",
      "alert": "OK",
      "vis_m": 3500,
      "fzfg": false,
      "metar_trigger": false,
      "taf_trigger": false,
      "metar": "METAR LQSA 201900Z 21003KT 3500 BR OVC003 03/03 Q1019 NOSIG",
      "taf": "TAF LQSA 201700Z 2018/2118 VRB02KT 3000 BR BKN003 TX04/2113Z TNM01/2105Z"
    },
    {
      "icao": "LQTZ",
      "alert": "OK",
      "vis_m": 300,
      "fzfg": false,
      "metar_trigger": false,
      "taf_trigger": false,
      "metar": "METAR LQTZ 201900Z 00000KT 0300 R09/0325N -DZ FG VV003 04/04 Q1020",
      "taf": "TAF LQTZ 201700Z 2018/2118 VRB02KT 0400 FG VV002 TX05/2113Z TNM01/2105Z"
    },
    {
      "icao": "LRCL",
      "alert": "OK",
      "vis_m": 9999,
      "fzfg": false,
      "metar_trigger": false,
      "taf_trigger": false,
      "metar": "METAR LRCL 201900Z 00000KT CAVOK 04/03 Q1020",
      "taf": "TAF LRCL 201700Z 2018/2103 VRB04KT 7000 NSC"
    },
    {
      "icao": "LRCV",
      "alert": "OK",
      "vis_m": 400,
      "fzfg": false,
      "metar_trigger": false,
      "taf_trigger": false,
      "metar": "METAR LRCV 201900Z 00000KT 0400 R26/0600N FG VV002 03/03 Q1021",
      "taf": "TAF LRCV 201700Z 2018/2103 13006KT 0300 FG VV001"
    },
    {
      "icao": "LRIA",
      "alert": "OK",
      "vis_m": 1000,
      "fzfg": false,
      "metar_trigger": false,
      "taf_trigger": false,
      "metar": "METAR LRIA 201900Z 11003KT 1000 R14/P2000N BR OVC001 01/01 Q1022",
      "taf": "TAF LRIA 201700Z 2018/2103 VRB04KT 3000 BR OVC002"
    },
    {
      "icao": "LROP",
      "alert": "OK",
      "vis_m": 500,
      "fzfg": false,
      "metar_trigger": false,
      "taf_trigger": false,
      "metar": "METAR LROP 201900Z 04005KT 010V070 0500 R08R/1000U R08L/1100U FG OVC001 04/04 Q1022 NOSIG",
      "taf": "TAF LROP 201700Z 2018/2118 VRB04KT 0300 FG OVC002"
    },
    {
      "icao": "LRSB",
      "alert": "OK",
      "vis_m": 5000,
      "fzfg": false,
      "metar_trigger": false,
      "taf_trigger": false,
      "metar": "METAR LRSB 201900Z 27002KT 5000 BR NSC 01/01 Q1019",
      "taf": "TAF LRSB 201700Z 2018/2118 VRB04KT 5000 BR NSC"
    },
    {
      "icao": "LRTR",
      "alert": "OK",
      "vis_m": 300,
      "fzfg": false,
      "metar_trigger": false,
      "taf_trigger": false,
      "metar": "METAR LRTR 201900Z 02006KT 0300 R29/0600N FG VV001 05/05 Q1020",
      "taf": "TAF LRTR 201700Z 2018/2118 10005KT 2000 BR NSC"
    },
    {
      "icao": "LTAF",
      "alert": "OK",
      "vis_m": 6000,
      "fzfg": false,
      "metar_trigger": false,
      "taf_trigger": false,
      "metar": "METAR LTAF 201850Z 04004KT 6000 NSC 10/08 Q1018 NOSIG RMK RWY23 05005KT 4CI200",
      "taf": "TAF LTAF 201640Z 2018/2118 VRB02KT CAVOK"
    },
    {
      "icao": "LTAI",
      "alert": "OK",
      "vis_m": 9999,
      "fzfg": false,
      "metar_trigger": false,
      "taf_trigger": false,
      "metar": "METAR LTAI 201850Z 33007KT 9999 SCT025 BKN080 14/07 Q1018 NOSIG RMK RWY18C 32005KT RWY36R 34006KT RWY18L 35003KT",
      "taf": "TAF LTAI 201640Z 2018/2118 34009KT 9999 SCT030 BKN100"
    },
    {
      "icao": "LTFM",
      "alert": "OK",
      "vis_m": 9999,
      "fzfg": false,
      "metar_trigger": false,
      "taf_trigger": false,
      "metar": "METAR LTFM 201850Z 07010KT 9999 SCT016 BKN022 12/08 Q1018 NOSIG RMK RWY17L 07009KT RWY34L 05007KT RWY16R 06010KT RWY36 06010KT RWY18 08009KT",
      "taf": "TAF LTFM 201640Z 2018/2124 05012KT 9999 SCT016 BKN022"
    },
    {
      "icao": "LUBL",
      "alert": "OK",
      "vis_m": null,
      "fzfg": false,
      "metar_trigger": false,
      "taf_trigger": false,
      "metar": "",
      "taf": ""
    },
    {
      "icao": "LUKK",
      "alert": "OK",
      "vis_m": 1400,
      "fzfg": false,
      "metar_trigger": false,
      "taf_trigger": false,
      "metar": "METAR LUKK 201900Z 11005KT 1400 0650SW R08/0800N BR PRFG OVC001 00/00 Q1022 TEMPO 0400 FG",
      "taf": "TAF LUKK 201718Z 2018/2118 VRB05KT 1500 BR OVC002"
    },
    {
      "icao": "LWSK",
      "alert": "OK",
      "vis_m": 200,
      "fzfg": true,
      "metar_trigger": false,
      "taf_trigger": false,
      "metar": "METAR LWSK 201920Z VRB01KT 0200 R34/0325N FZFG VV002 M00/M01 Q1019 NOSIG",
      "taf": "TAF LWSK 201740Z 2018/2118 VRB02KT 0200 FZFG VV002"
    },
    {
      "icao": "LYBE",
      "alert": "OK",
      "vis_m": 600,
      "fzfg": false,
      "metar_trigger": false,
      "taf_trigger": false,
      "metar": "METAR LYBE 201900Z 27004KT 0600 R12L/0700N R30R/0600N FG VV002 05/05 Q1020 NOSIG",
      "taf": "TAF LYBE 201700Z 2018/2118 27004KT 0300 FG VV001 TX05/2113Z TN02/2106Z"
    },
    {
      "icao": "LZIB",
      "alert": "OK",
      "vis_m": 4000,
      "fzfg": false,
      "metar_trigger": false,
      "taf_trigger": false,
      "metar": "METAR LZIB 201900Z 14003KT 4000 BR BKN002 OVC003 04/03 Q1020 BECMG 2800 BR OVC002",
      "taf": ""
    },
    {
      "icao": "LZKZ",
      "alert": "OK",
      "vis_m": 9999,
      "fzfg": false,
      "metar_trigger": false,
      "taf_trigger": false,
      "metar": "METAR LZKZ 201900Z 02004KT 9999 OVC031 05/04 Q1019 NOSIG",
      "taf": "TAF LZKZ 201715Z 2018/2118 VRB02KT 5000 SCT011 BKN030"
    },
    {
      "icao": "LZTT",
      "alert": "OK",
      "vis_m": 300,
      "fzfg": true,
      "metar_trigger": false,
      "taf_trigger": false,
      "metar": "METAR LZTT 201900Z VRB03KT 0300 R27/P2000N FZFG BKN003 M01/M01 Q1018",
      "taf": ""
    },
    {
      "icao": "OEJN",
      "alert": "OK",
      "vis_m": 9999,
      "fzfg": false,
      "metar_trigger": false,
      "taf_trigger": false,
      "metar": "METAR OEJN 201900Z 36003KT CAVOK 23/01 Q1012 NOSIG",
      "taf": "TAF OEJN 201700Z 2018/2124 VRB03KT CAVOK"
    },
    {
      "icao": "OEMA",
      "alert": "OK",
      "vis_m": 9999,
      "fzfg": false,
      "metar_trigger": false,
      "taf_trigger": false,
      "metar": "METAR OEMA 201900Z 32003KT CAVOK 13/M07 Q1020 NOSIG",
      "taf": "TAF OEMA 201700Z 2018/2124 VRB03KT CAVOK"
    },
    {
      "icao": "OERK",
      "alert": "OK",
      "vis_m": 9999,
      "fzfg": false,
      "metar_trigger": false,
      "taf_trigger": false,
      "metar": "METAR OERK 201900Z 26003KT CAVOK 10/02 Q1021 NOSIG",
      "taf": "TAF OERK 201700Z 2018/2124 VRB03KT 7000 NSC"
    },
    {
      "icao": "OJAI",
      "alert": "OK",
      "vis_m": 4000,
      "fzfg": false,
      "metar_trigger": false,
      "taf_trigger": false,
      "metar": "METAR OJAI 201900Z 10006KT 4000 BR NSC 10/08 Q1021 NOSIG",
      "taf": ""
    },
    {
      "icao": "OKBK",
      "alert": "OK",
      "vis_m": null,
      "fzfg": false,
      "metar_trigger": false,
      "taf_trigger": false,
      "metar": "",
      "taf": ""
    },
    {
      "icao": "OMAA",
      "alert": "OK",
      "vis_m": 9999,
      "fzfg": false,
      "metar_trigger": false,
      "taf_trigger": false,
      "metar": "METAR OMAA 201900Z 19004KT CAVOK 17/07 Q1018 NOSIG",
      "taf": "TAF OMAA 201700Z 2018/2200 23005KT 9999 FEW040"
    },
    {
      "icao": "UAAA",
      "alert": "OK",
      "vis_m": 3700,
      "fzfg": false,
      "metar_trigger": false,
      "taf_trigger": false,
      "metar": "METAR UAAA 201900Z 18001MPS 3700 BR SCT050 OVC100 M01/M03 Q1015 NOSIG",
      "taf": "TAF UAAA 201702Z 2018/2118 23003MPS 3100 BR BKN015CB OVC050 TX00/2107Z TNM03/2101Z"
    },
    {
      "icao": "UCFM",
      "alert": "OK",
      "vis_m": 1500,
      "fzfg": false,
      "metar_trigger": false,
      "taf_trigger": false,
      "metar": "METAR UCFM 201900Z 26003MPS 1500 1000E R25/P1500N -SHSN BR BKN026CB M01/M02 Q1017 TEMPO 1000 SHSN BR BKN015CB",
      "taf": ""
    },
    {
      "icao": "UDYZ",
      "alert": "OK",
      "vis_m": 3300,
      "fzfg": false,
      "metar_trigger": false,
      "taf_trigger": false,
      "metar": "METAR UDYZ 201900Z 07001KT 3300 BR NSC M03/M06 Q1025 NOSIG",
      "taf": "TAF UDYZ 201700Z 2018/2118 VRB06KT 3500 BR NSC"
    },
    {
      "icao": "UGTB",
      "alert": "OK",
      "vis_m": 9999,
      "fzfg": false,
      "metar_trigger": false,
      "taf_trigger": false,
      "metar": "METAR UGTB 201900Z VRB02KT CAVOK M01/M03 Q1025 NOSIG",
      "taf": "TAF UGTB 201700Z 2018/2118 34007KT CAVOK TX06/2112Z TNM03/2102Z"
    },
    {
      "icao": "UKKK",
      "alert": "OK",
      "vis_m": null,
      "fzfg": false,
      "metar_trigger": false,
      "taf_trigger": false,
      "metar": "",
      "taf": ""
    },
    {
      "icao": "UTTT",
      "alert": "OK",
      "vis_m": null,
      "fzfg": false,
      "metar_trigger": false,
      "taf_trigger": false,
      "metar": "",
      "taf": ""
    }
  ]
}