{
  "ts_utc": "2026-02-20T08:57:53Z",
  "threshold_m": 150,
  "source": "stations_override.txt (ICAO list) + aviationweather.gov (METAR/TAF raw)",
  "station_count": 159,
  "stations": [
    {
      "icao": "BIKF",
      "alert": "OK",
      "vis_m": 9999,
      "fzfg": false,
      "metar_trigger": false,
      "taf_trigger": false,
      "metar": "METAR BIKF 200830Z 04008KT CAVOK M03/M07 Q1006",
      "taf": "TAF BIKF 200751Z 2009/2109 06009KT CAVOK TX02/2015Z TNM07/2106Z"
    },
    {
      "icao": "BKPR",
      "alert": "OK",
      "vis_m": null,
      "fzfg": false,
      "metar_trigger": false,
      "taf_trigger": false,
      "metar": "",
      "taf": "TAF BKPR 200530Z 2006/2106 18008KT 9999 FEW015 BKN030"
    },
    {
      "icao": "EBCI",
      "alert": "OK",
      "vis_m": 6000,
      "fzfg": false,
      "metar_trigger": false,
      "taf_trigger": false,
      "metar": "METAR EBCI 200850Z 23010KT 6000 FEW010 BKN020 04/03 Q1020 NOSIG",
      "taf": "TAF EBCI 200500Z 2006/2112 22008KT 9999 SCT006 BKN011"
    },
    {
      "icao": "EDDB",
      "alert": "OK",
      "vis_m": 9999,
      "fzfg": false,
      "metar_trigger": false,
      "taf_trigger": false,
      "metar": "METAR EDDB 200850Z AUTO 14006KT CAVOK M05/M08 Q1026 NOSIG",
      "taf": "TAF EDDB 200500Z 2006/2106 10004KT CAVOK"
    },
    {
      "icao": "EDDH",
      "alert": "OK",
      "vis_m": 9999,
      "fzfg": false,
      "metar_trigger": false,
      "taf_trigger": false,
      "metar": "METAR EDDH 200850Z AUTO 14014KT CAVOK M04/M08 Q1023 NOSIG",
      "taf": "TAF EDDH 200500Z 2006/2112 10008KT CAVOK"
    },
    {
      "icao": "EDDK",
      "alert": "OK",
      "vis_m": 9999,
      "fzfg": false,
      "metar_trigger": false,
      "taf_trigger": false,
      "metar": "METAR EDDK 200850Z AUTO 12007KT 9999 -RA BKN017 01/M02 Q1021 TEMPO BKN014",
      "taf": "TAF EDDK 200500Z 2006/2112 11007KT CAVOK"
    },
    {
      "icao": "EDDN",
      "alert": "OK",
      "vis_m": 9999,
      "fzfg": false,
      "metar_trigger": false,
      "taf_trigger": false,
      "metar": "METAR EDDN 200850Z AUTO 10005KT CAVOK M00/M05 Q1022 NOSIG",
      "taf": "TAF EDDN 200500Z 2006/2106 VRB03KT CAVOK"
    },
    {
      "icao": "EDDS",
      "alert": "OK",
      "vis_m": 9000,
      "fzfg": false,
      "metar_trigger": false,
      "taf_trigger": false,
      "metar": "METAR EDDS 200850Z AUTO VRB02KT 9000 FEW006 OVC017 02/00 Q1020 NOSIG",
      "taf": "TAF EDDS 200500Z 2006/2106 VRB03KT 9999 BKN015"
    },
    {
      "icao": "EDFH",
      "alert": "OK",
      "vis_m": 9000,
      "fzfg": false,
      "metar_trigger": false,
      "taf_trigger": false,
      "metar": "METAR EDFH 200850Z 15008KT 9000 SCT008 OVC011 M00/M02 Q1019",
      "taf": "TAF EDFH 200500Z 2006/2106 15010KT 9999 BKN012"
    },
    {
      "icao": "EDJA",
      "alert": "OK",
      "vis_m": 9999,
      "fzfg": false,
      "metar_trigger": false,
      "taf_trigger": false,
      "metar": "METAR EDJA 200850Z VRB02KT 9999 SCT005 OVC007 02/00 Q1020",
      "taf": "TAF EDJA 200800Z 2009/2018 VRB03KT 7000 OVC006"
    },
    {
      "icao": "EDLW",
      "alert": "OK",
      "vis_m": 9999,
      "fzfg": false,
      "metar_trigger": false,
      "taf_trigger": false,
      "metar": "METAR EDLW 200820Z VRB02KT 9999 FEW022 OVC043 02/M03 Q1019",
      "taf": "TAF EDLW 200500Z 2006/2106 VRB03KT CAVOK"
    },
    {
      "icao": "EDNY",
      "alert": "OK",
      "vis_m": 4000,
      "fzfg": false,
      "metar_trigger": false,
      "taf_trigger": false,
      "metar": "METAR EDNY 200820Z 06003KT 4000 -DZ BR SCT005 BKN028 OVC038 01/01 Q1020",
      "taf": "TAF EDNY 200800Z 2009/2018 VRB03KT 5000 BR FEW008 BKN015"
    },
    {
      "icao": "EDSB",
      "alert": "OK",
      "vis_m": 9000,
      "fzfg": false,
      "metar_trigger": false,
      "taf_trigger": false,
      "metar": "METAR EDSB 200820Z VRB02KT 9000 OVC009 03/01 Q1021",
      "taf": "TAF EDSB 200500Z 2006/2106 02008KT 9999 BKN015"
    },
    {
      "icao": "EETN",
      "alert": "OK",
      "vis_m": 9999,
      "fzfg": false,
      "metar_trigger": false,
      "taf_trigger": false,
      "metar": "METAR EETN 200850Z 29008KT CAVOK M08/M11 Q1016 NOSIG",
      "taf": "TAF EETN 200530Z 2006/2106 27008KT 9999 SCT009 SCT018"
    },
    {
      "icao": "EFTU",
      "alert": "OK",
      "vis_m": 9999,
      "fzfg": false,
      "metar_trigger": false,
      "taf_trigger": false,
      "metar": "METAR EFTU 200850Z AUTO VRB02KT CAVOK M08/M11 Q1015",
      "taf": "TAF EFTU 200832Z 2009/2109 22005KT CAVOK"
    },
    {
      "icao": "EGBB",
      "alert": "OK",
      "vis_m": 9999,
      "fzfg": false,
      "metar_trigger": false,
      "taf_trigger": false,
      "metar": "METAR EGBB 200850Z 20010KT CAVOK 07/04 Q1014",
      "taf": "TAF EGBB 200454Z 2006/2106 21010KT 9999 FEW030"
    },
    {
      "icao": "EGGP",
      "alert": "OK",
      "vis_m": 9999,
      "fzfg": false,
      "metar_trigger": false,
      "taf_trigger": false,
      "metar": "METAR EGGP 200850Z 16009KT 9999 -RA BKN025 BKN032 OVC046 06/03 Q1011",
      "taf": "TAF EGGP 200505Z 2006/2106 19010KT 9999 FEW030"
    },
    {
      "icao": "EGGW",
      "alert": "OK",
      "vis_m": 9999,
      "fzfg": false,
      "metar_trigger": false,
      "taf_trigger": false,
      "metar": "METAR EGGW 200850Z AUTO 20007KT 160V220 9999 NCD 05/04 Q1016",
      "taf": ""
    },
    {
      "icao": "EGKK",
      "alert": "OK",
      "vis_m": 9999,
      "fzfg": false,
      "metar_trigger": false,
      "taf_trigger": false,
      "metar": "METAR EGKK 200850Z 22006KT CAVOK 07/05 Q1019",
      "taf": "TAF EGKK 200457Z 2006/2112 22005KT 9999 SCT030"
    },
    {
      "icao": "EGNM",
      "alert": "OK",
      "vis_m": 9999,
      "fzfg": false,
      "metar_trigger": false,
      "taf_trigger": false,
      "metar": "METAR EGNM 200850Z 20007KT 170V240 9999 VCSH FEW042 05/03 Q1010",
      "taf": "TAF EGNM 200527Z 2006/2106 22012KT 9999 FEW012 SCT020"
    },
    {
      "icao": "EGPD",
      "alert": "OK",
      "vis_m": 9999,
      "fzfg": false,
      "metar_trigger": false,
      "taf_trigger": false,
      "metar": "METAR EGPD 200850Z AUTO 19012KT 9999 -RA SCT015 BKN044 05/03 Q1002 TEMPO BKN014",
      "taf": "TAF EGPD 200459Z 2006/2106 17010KT 9999 SCT020"
    },
    {
      "icao": "EGPF",
      "alert": "OK",
      "vis_m": 9999,
      "fzfg": false,
      "metar_trigger": false,
      "taf_trigger": false,
      "metar": "METAR EGPF 200850Z AUTO 21014KT 9999 -RA BKN012 OVC018 07/05 Q1003",
      "taf": "TAF EGPF 200459Z 2006/2106 21012KT 9999 FEW012 SCT025"
    },
    {
      "icao": "EHBK",
      "alert": "OK",
      "vis_m": 1000,
      "fzfg": false,
      "metar_trigger": false,
      "taf_trigger": false,
      "metar": "METAR EHBK 200825Z AUTO 20006KT 1000 R21/1400D BR OVC001 04/04 Q1019 TEMPO 1700 BKN002",
      "taf": ""
    },
    {
      "icao": "EHEH",
      "alert": "OK",
      "vis_m": 4600,
      "fzfg": false,
      "metar_trigger": false,
      "taf_trigger": false,
      "metar": "SPECI EHEH 200836Z AUTO 22006KT 4600 BR OVC017 05/04 Q1019 GRN BECMG 6000 NSW SCT010 BKN015",
      "taf": "TAF EHEH 200532Z 2006/2112 18004KT 8000 BR BKN010 OVC012"
    },
    {
      "icao": "EKBI",
      "alert": "OK",
      "vis_m": 9999,
      "fzfg": false,
      "metar_trigger": false,
      "taf_trigger": false,
      "metar": "METAR EKBI 200850Z AUTO 14015KT 9999 BKN130/// M02/M08 Q1019",
      "taf": "TAF EKBI 200827Z 2009/2109 16012KT CAVOK"
    },
    {
      "icao": "EKCH",
      "alert": "OK",
      "vis_m": 9999,
      "fzfg": false,
      "metar_trigger": false,
      "taf_trigger": false,
      "metar": "METAR EKCH 200850Z AUTO 18015KT 9999 SCT015/// M01/M05 Q1024 NOSIG",
      "taf": "TAF EKCH 200827Z 2009/2109 18015KT 9999 SCT015"
    },
    {
      "icao": "ENAL",
      "alert": "OK",
      "vis_m": 9999,
      "fzfg": false,
      "metar_trigger": false,
      "taf_trigger": false,
      "metar": "METAR ENAL 200850Z 20018G29KT 170V230 CAVOK 04/M08 Q1000",
      "taf": "TAF ENAL 200800Z 2009/2018 20018KT CAVOK"
    },
    {
      "icao": "ENBR",
      "alert": "OK",
      "vis_m": 9999,
      "fzfg": false,
      "metar_trigger": false,
      "taf_trigger": false,
      "metar": "METAR ENBR 200850Z 16026KT 9999 SCT035 02/M07 Q1007 NOSIG RMK WIND 1200FT 15032G45KT",
      "taf": "TAF ENBR 200500Z 2006/2106 16018KT CAVOK"
    },
    {
      "icao": "ENGM",
      "alert": "OK",
      "vis_m": 9999,
      "fzfg": false,
      "metar_trigger": false,
      "taf_trigger": false,
      "metar": "METAR ENGM 200850Z VRB01KT CAVOK M07/M09 Q1014 NOSIG",
      "taf": "TAF ENGM 200500Z 2006/2106 17005KT 9999 SCT010"
    },
    {
      "icao": "ENHD",
      "alert": "OK",
      "vis_m": 9999,
      "fzfg": false,
      "metar_trigger": false,
      "taf_trigger": false,
      "metar": "METAR ENHD 200850Z 15024G35KT 9999 -SNRA BKN029 02/M04 Q1008",
      "taf": "TAF ENHD 200800Z 2009/2018 15020G30KT 9999 BKN020"
    },
    {
      "icao": "ENTC",
      "alert": "OK",
      "vis_m": 9999,
      "fzfg": false,
      "metar_trigger": false,
      "taf_trigger": false,
      "metar": "METAR ENTC 200850Z 18010KT CAVOK M07/M13 Q1004 NOSIG RMK WIND 2600FT 17026KT",
      "taf": "TAF ENTC 200500Z 2006/2106 20008KT CAVOK"
    },
    {
      "icao": "ENTO",
      "alert": "OK",
      "vis_m": 9999,
      "fzfg": false,
      "metar_trigger": false,
      "taf_trigger": false,
      "metar": "METAR ENTO 200850Z 18007KT CAVOK M03/M04 Q1017 NOSIG",
      "taf": "TAF ENTO 200500Z 2006/2106 22005KT 9999 FEW010"
    },
    {
      "icao": "ENVA",
      "alert": "OK",
      "vis_m": 9999,
      "fzfg": false,
      "metar_trigger": false,
      "taf_trigger": false,
      "metar": "METAR ENVA 200850Z 17017KT CAVOK 04/M12 Q1002 NOSIG RMK WIND 670FT 19021KT",
      "taf": "TAF ENVA 200500Z 2006/2106 17009KT 9999 FEW025 BKN040"
    },
    {
      "icao": "ENZV",
      "alert": "OK",
      "vis_m": 9999,
      "fzfg": false,
      "metar_trigger": false,
      "taf_trigger": false,
      "metar": "METAR ENZV 200850Z 15021KT 9999 -SN SCT027 BKN033 01/M05 Q1009 TEMPO 15022G32KT",
      "taf": "TAF ENZV 200500Z 2006/2106 15018KT CAVOK"
    },
    {
      "icao": "EPGD",
      "alert": "OK",
      "vis_m": 9999,
      "fzfg": false,
      "metar_trigger": false,
      "taf_trigger": false,
      "metar": "METAR EPGD 200830Z 26004KT 9999 BKN030 M05/M08 Q1026",
      "taf": "TAF EPGD 200530Z 2006/2106 VRB03KT 9999 BKN020"
    },
    {
      "icao": "EPKK",
      "alert": "OK",
      "vis_m": 9999,
      "fzfg": false,
      "metar_trigger": false,
      "taf_trigger": false,
      "metar": "METAR EPKK 200830Z 06011KT CAVOK M05/M10 Q1023",
      "taf": "TAF EPKK 200830Z 2009/2109 06009KT CAVOK"
    },
    {
      "icao": "EPKT",
      "alert": "OK",
      "vis_m": 9999,
      "fzfg": false,
      "metar_trigger": false,
      "taf_trigger": false,
      "metar": "METAR EPKT 200830Z 06007KT CAVOK M06/M08 Q1023",
      "taf": "TAF EPKT 200530Z 2006/2106 07005KT CAVOK"
    },
    {
      "icao": "EPLB",
      "alert": "OK",
      "vis_m": 4500,
      "fzfg": false,
      "metar_trigger": false,
      "taf_trigger": false,
      "metar": "METAR EPLB 200830Z 24001KT 4500 BR NSC M08/M08 Q1024",
      "taf": ""
    },
    {
      "icao": "EPMO",
      "alert": "OK",
      "vis_m": 9999,
      "fzfg": false,
      "metar_trigger": false,
      "taf_trigger": false,
      "metar": "METAR EPMO 200830Z VRB01KT CAVOK M02/M02 Q1026",
      "taf": "TAF EPMO 200530Z 2006/2106 31004KT CAVOK"
    },
    {
      "icao": "EPPO",
      "alert": "OK",
      "vis_m": 9999,
      "fzfg": false,
      "metar_trigger": false,
      "taf_trigger": false,
      "metar": "METAR EPPO 200830Z 09007KT CAVOK M03/M09 Q1026",
      "taf": "TAF EPPO 200530Z 2006/2106 06005KT CAVOK"
    },
    {
      "icao": "EPRA",
      "alert": "OK",
      "vis_m": 4000,
      "fzfg": false,
      "metar_trigger": false,
      "taf_trigger": false,
      "metar": "METAR EPRA 200830Z 02005KT 4000 BR SCT003 M06/M08 Q1025",
      "taf": "TAF EPRA 200830Z 2009/2018 01006KT 5000 BR BKN003"
    },
    {
      "icao": "EPRZ",
      "alert": "OK",
      "vis_m": 8000,
      "fzfg": false,
      "metar_trigger": false,
      "taf_trigger": false,
      "metar": "METAR EPRZ 200830Z 12003KT 8000 NSC M05/M10 Q1024",
      "taf": "TAF EPRZ 200530Z 2006/2106 01003KT CAVOK"
    },
    {
      "icao": "EPSC",
      "alert": "OK",
      "vis_m": 9999,
      "fzfg": false,
      "metar_trigger": false,
      "taf_trigger": false,
      "metar": "METAR EPSC 200830Z 13008KT CAVOK M04/M08 Q1026",
      "taf": "TAF EPSC 200530Z 2006/2106 VRB02KT CAVOK"
    },
    {
      "icao": "EPSY",
      "alert": "OK",
      "vis_m": 9999,
      "fzfg": false,
      "metar_trigger": false,
      "taf_trigger": false,
      "metar": "METAR EPSY 200830Z VRB02KT 9999 BKN025 M05/M07 Q1025",
      "taf": "TAF EPSY 200830Z 2009/2018 21004KT 9999 BKN030"
    },
    {
      "icao": "EPWA",
      "alert": "OK",
      "vis_m": 9999,
      "fzfg": false,
      "metar_trigger": false,
      "taf_trigger": false,
      "metar": "METAR EPWA 200830Z 26004KT CAVOK M05/M07 Q1026 NOSIG",
      "taf": "TAF EPWA 200830Z 2009/2109 01003KT CAVOK"
    },
    {
      "icao": "EPWR",
      "alert": "OK",
      "vis_m": 9999,
      "fzfg": false,
      "metar_trigger": false,
      "taf_trigger": false,
      "metar": "METAR EPWR 200830Z 13006KT 090V150 CAVOK M04/M07 Q1025",
      "taf": "TAF EPWR 200830Z 2009/2109 VRB02KT CAVOK"
    },
    {
      "icao": "ESGG",
      "alert": "OK",
      "vis_m": 9999,
      "fzfg": false,
      "metar_trigger": false,
      "taf_trigger": false,
      "metar": "METAR ESGG 200850Z 18007KT 9999 OVC004 M06/M07 Q1020",
      "taf": "TAF ESGG 200830Z 2009/2109 16006KT CAVOK"
    },
    {
      "icao": "ESKN",
      "alert": "OK",
      "vis_m": 9999,
      "fzfg": false,
      "metar_trigger": false,
      "taf_trigger": false,
      "metar": "METAR ESKN 200850Z 25009KT CAVOK M05/M09 Q1019",
      "taf": "TAF ESKN 200830Z 2009/2109 26008KT CAVOK"
    },
    {
      "icao": "ESMS",
      "alert": "OK",
      "vis_m": 9999,
      "fzfg": false,
      "metar_trigger": false,
      "taf_trigger": false,
      "metar": "METAR ESMS 200850Z 19011KT CAVOK M03/M05 Q1024",
      "taf": "TAF ESMS 200827Z 2009/2109 17012KT CAVOK"
    },
    {
      "icao": "ESSA",
      "alert": "OK",
      "vis_m": 9999,
      "fzfg": false,
      "metar_trigger": false,
      "taf_trigger": false,
      "metar": "METAR ESSA 200850Z 24012KT CAVOK M07/M09 Q1017 NOSIG",
      "taf": "TAF ESSA 200830Z 2009/2109 25010KT CAVOK"
    },
    {
      "icao": "EYKA",
      "alert": "OK",
      "vis_m": 9999,
      "fzfg": false,
      "metar_trigger": false,
      "taf_trigger": false,
      "metar": "METAR EYKA 200850Z 27006KT CAVOK M07/M10 Q1023",
      "taf": "TAF EYKA 200501Z 2006/2106 VRB04KT 9000 BKN025"
    },
    {
      "icao": "EYPA",
      "alert": "OK",
      "vis_m": 9999,
      "fzfg": false,
      "metar_trigger": false,
      "taf_trigger": false,
      "metar": "METAR EYPA 200850Z 29004KT 260V340 9999 BKN024 M01/M07 Q1024",
      "taf": "TAF EYPA 200502Z 2006/2106 VRB04KT 9000 BKN025"
    },
    {
      "icao": "EYVI",
      "alert": "OK",
      "vis_m": 9999,
      "fzfg": false,
      "metar_trigger": false,
      "taf_trigger": false,
      "metar": "METAR EYVI 200850Z 29008KT 260V340 9999 FEW011 M08/M11 Q1021 NOSIG",
      "taf": "TAF EYVI 200520Z 2006/2106 33010KT 8000 BKN015"
    },
    {
      "icao": "GCFV",
      "alert": "OK",
      "vis_m": 9999,
      "fzfg": false,
      "metar_trigger": false,
      "taf_trigger": false,
      "metar": "METAR GCFV 200830Z 02014KT 9999 BKN020 17/13 Q1023",
      "taf": "TAF GCFV 200800Z 2009/2109 04013KT 9999 SCT020 TX21/2014Z TN14/2106Z"
    },
    {
      "icao": "GCLP",
      "alert": "OK",
      "vis_m": 9999,
      "fzfg": false,
      "metar_trigger": false,
      "taf_trigger": false,
      "metar": "METAR GCLP 200830Z 02018KT 9999 BKN025 17/12 Q1023 NOSIG",
      "taf": "TAF GCLP 200800Z 2009/2109 02018KT 9999 SCT025 TX20/2014Z TN16/2106Z"
    },
    {
      "icao": "GCTS",
      "alert": "OK",
      "vis_m": 9999,
      "fzfg": false,
      "metar_trigger": false,
      "taf_trigger": false,
      "metar": "METAR GCTS 200830Z 05009KT 9999 FEW020 16/11 Q1023 NOSIG",
      "taf": "TAF GCTS 200800Z 2009/2109 05009KT 9999 FEW020 TX23/2014Z TN16/2106Z"
    },
    {
      "icao": "GMAD",
      "alert": "OK",
      "vis_m": 3000,
      "fzfg": false,
      "metar_trigger": false,
      "taf_trigger": false,
      "metar": "SPECI GMAD 200856Z 04003KT 350V090 3000 R27/1800N BR OVC003 12/12 Q1022 BECMG 5000 SCT006 BKN016",
      "taf": "TAF GMAD 200500Z 2006/2112 06006KT 1500 BR OVC005"
    },
    {
      "icao": "GMMN",
      "alert": "OK",
      "vis_m": 9999,
      "fzfg": false,
      "metar_trigger": false,
      "taf_trigger": false,
      "metar": "METAR GMMN 200830Z 08007KT 9999 FEW020 10/07 Q1026 NOSIG",
      "taf": "TAF GMMN 200500Z 2006/2112 06006KT 9999 FEW020"
    },
    {
      "icao": "GMMX",
      "alert": "OK",
      "vis_m": 8000,
      "fzfg": false,
      "metar_trigger": false,
      "taf_trigger": false,
      "metar": "METAR GMMX 200830Z 10004KT 8000 NSC 11/10 Q1023 NOSIG",
      "taf": "TAF GMMX 200500Z 2006/2112 08006KT CAVOK"
    },
    {
      "icao": "HEGN",
      "alert": "OK",
      "vis_m": 9999,
      "fzfg": false,
      "metar_trigger": false,
      "taf_trigger": false,
      "metar": "METAR HEGN 200800Z 22004KT CAVOK 20/08 Q1020 NOSIG",
      "taf": "TAF HEGN 200500Z 2006/2112 35014KT CAVOK"
    },
    {
      "icao": "HEMA",
      "alert": "OK",
      "vis_m": 9999,
      "fzfg": false,
      "metar_trigger": false,
      "taf_trigger": false,
      "metar": "METAR HEMA 200800Z 33014KT CAVOK 21/07 Q1019 NOSIG",
      "taf": "TAF HEMA 200500Z 2006/2112 34015KT CAVOK"
    },
    {
      "icao": "HESH",
      "alert": "OK",
      "vis_m": 9999,
      "fzfg": false,
      "metar_trigger": false,
      "taf_trigger": false,
      "metar": "METAR HESH 200800Z 34012KT CAVOK 23/11 Q1018 NOSIG",
      "taf": "TAF HESH 200500Z 2006/2112 02012KT CAVOK"
    },
    {
      "icao": "HESX",
      "alert": "OK",
      "vis_m": 9999,
      "fzfg": false,
      "metar_trigger": false,
      "taf_trigger": false,
      "metar": "METAR HESX 200800Z 01007KT CAVOK 15//06 Q1023 NOSIG",
      "taf": "TAF HESX 200500Z 2006/2112 02007KT CAVOK"
    },
    {
      "icao": "LATI",
      "alert": "OK",
      "vis_m": 9999,
      "fzfg": false,
      "metar_trigger": false,
      "taf_trigger": false,
      "metar": "METAR LATI 200850Z 15009KT 9999 -RA SCT027 OVC050 10/06 Q1010 NOSIG",
      "taf": "TAF LATI 200500Z 2006/2106 10010KT 9999 SCT040 BKN060 TX14/2013Z TN07/2104Z"
    },
    {
      "icao": "LBPD",
      "alert": "OK",
      "vis_m": 9999,
      "fzfg": false,
      "metar_trigger": false,
      "taf_trigger": false,
      "metar": "METAR LBPD 200830Z AUTO 09007KT 9999 FEW063/// BKN150/// 06/04 Q1014 NOSIG",
      "taf": "TAF LBPD 200500Z 2006/2106 10010KT 9999 SCT040 BKN060"
    },
    {
      "icao": "LBSF",
      "alert": "OK",
      "vis_m": 9999,
      "fzfg": false,
      "metar_trigger": false,
      "taf_trigger": false,
      "metar": "METAR LBSF 200830Z 29006KT 240V300 9999 SCT066 BKN083 07/01 Q1012 NOSIG",
      "taf": "TAF LBSF 200500Z 2006/2106 11014KT 9999 SCT050 BKN070"
    },
    {
      "icao": "LBWN",
      "alert": "OK",
      "vis_m": 9999,
      "fzfg": false,
      "metar_trigger": false,
      "taf_trigger": false,
      "metar": "METAR LBWN 200830Z 14005KT 9999 FEW026 11/07 Q1014 NOSIG",
      "taf": "TAF LBWN 200500Z 2006/2106 09008KT 9999 SCT050"
    },
    {
      "icao": "LCLK",
      "alert": "OK",
      "vis_m": 9999,
      "fzfg": false,
      "metar_trigger": false,
      "taf_trigger": false,
      "metar": "METAR LCLK 200800Z 05009KT 9999 FEW025 BKN040 18/11 Q1024 NOSIG",
      "taf": "TAF LCLK 200530Z 2006/2106 34006KT 9999 FEW025"
    },
    {
      "icao": "LCPH",
      "alert": "OK",
      "vis_m": 9999,
      "fzfg": false,
      "metar_trigger": false,
      "taf_trigger": false,
      "metar": "METAR LCPH 200800Z 15014KT 090V160 9999 FEW025 19/09 Q1024 NOSIG",
      "taf": "TAF LCPH 200530Z 2006/2106 04008KT 9999 FEW025"
    },
    {
      "icao": "LEAL",
      "alert": "OK",
      "vis_m": 9999,
      "fzfg": false,
      "metar_trigger": false,
      "taf_trigger": false,
      "metar": "METAR LEAL 200830Z 28013KT CAVOK 14/00 Q1026 NOSIG",
      "taf": ""
    },
    {
      "icao": "LEBB",
      "alert": "OK",
      "vis_m": 9999,
      "fzfg": false,
      "metar_trigger": false,
      "taf_trigger": false,
      "metar": "METAR LEBB 200830Z 12003KT 080V140 9999 FEW018 BKN032 BKN046 09/08 Q1032 NOSIG",
      "taf": ""
    },
    {
      "icao": "LEBL",
      "alert": "OK",
      "vis_m": 9999,
      "fzfg": false,
      "metar_trigger": false,
      "taf_trigger": false,
      "metar": "METAR LEBL 200830Z 32012G24KT 280V350 9999 FEW050 11/03 Q1023 NOSIG",
      "taf": ""
    },
    {
      "icao": "LECH",
      "alert": "OK",
      "vis_m": 9999,
      "fzfg": false,
      "metar_trigger": false,
      "taf_trigger": false,
      "metar": "METAR LECH 200830Z AUTO 31006G20KT CAVOK 12/M01 Q1025",
      "taf": ""
    },
    {
      "icao": "LEMD",
      "alert": "OK",
      "vis_m": 9999,
      "fzfg": false,
      "metar_trigger": false,
      "taf_trigger": false,
      "metar": "METAR LEMD 200830Z VRB02KT CAVOK 02/00 Q1030 NOSIG",
      "taf": "TAF LEMD 200500Z 2006/2112 VRB03KT CAVOK TX14/2015Z TNM00/2006Z"
    },
    {
      "icao": "LEMG",
      "alert": "OK",
      "vis_m": 9999,
      "fzfg": false,
      "metar_trigger": false,
      "taf_trigger": false,
      "metar": "METAR LEMG 200830Z 29009KT CAVOK 09/04 Q1028 NOSIG",
      "taf": "TAF LEMG 200500Z 2006/2106 29010KT CAVOK TX18/2014Z TN11/2007Z"
    },
    {
      "icao": "LEVC",
      "alert": "OK",
      "vis_m": 9999,
      "fzfg": false,
      "metar_trigger": false,
      "taf_trigger": false,
      "metar": "METAR LEVC 200830Z 24009KT CAVOK 12/00 Q1026 NOSIG",
      "taf": "TAF LEVC 200500Z 2006/2106 27009KT CAVOK TX21/2014Z TN08/2006Z"
    },
    {
      "icao": "LEXJ",
      "alert": "OK",
      "vis_m": 9999,
      "fzfg": false,
      "metar_trigger": false,
      "taf_trigger": false,
      "metar": "METAR LEXJ 200830Z 23006KT 200V260 9999 OVC055 10/04 Q1031",
      "taf": "TAF LEXJ 200800Z 2009/2109 22009KT 9999 SCT040 TX15/2014Z TN07/2107Z"
    },
    {
      "icao": "LEZG",
      "alert": "OK",
      "vis_m": 9999,
      "fzfg": false,
      "metar_trigger": false,
      "taf_trigger": false,
      "metar": "METAR LEZG 200830Z 28017KT 260V320 9999 SCT035 10/03 Q1029 NOSIG",
      "taf": "TAF LEZG 200500Z 2006/2106 28010KT CAVOK TX13/2014Z TN07/2006Z"
    },
    {
      "icao": "LEZL",
      "alert": "OK",
      "vis_m": 9999,
      "fzfg": false,
      "metar_trigger": false,
      "taf_trigger": false,
      "metar": "METAR LEZL 200830Z 05004KT 020V080 CAVOK 09/06 Q1029 NOSIG",
      "taf": "TAF LEZL 200800Z 2009/2109 06010KT CAVOK TX19/2015Z TN05/2107Z"
    },
    {
      "icao": "LFBD",
      "alert": "OK",
      "vis_m": 9999,
      "fzfg": false,
      "metar_trigger": false,
      "taf_trigger": false,
      "metar": "METAR LFBD 200830Z AUTO 23006KT 9999 SCT046 BKN056 09/08 Q1029 NOSIG",
      "taf": ""
    },
    {
      "icao": "LFLL",
      "alert": "OK",
      "vis_m": 9999,
      "fzfg": false,
      "metar_trigger": false,
      "taf_trigger": false,
      "metar": "METAR LFLL 200830Z 34008KT 9999 BKN038 07/04 Q1024 NOSIG",
      "taf": "TAF LFLL 200500Z 2006/2112 35012KT 9999 BKN030"
    },
    {
      "icao": "LFLS",
      "alert": "OK",
      "vis_m": 9999,
      "fzfg": false,
      "metar_trigger": false,
      "taf_trigger": false,
      "metar": "METAR LFLS 200830Z AUTO 28005KT 250V330 9999 OVC015 06/04 Q1023 TEMPO 4000 -RA BKN012 SCT020TCU",
      "taf": "TAF LFLS 200200Z 2003/2103 33010KT 9999 SCT015 OVC030"
    },
    {
      "icao": "LFMN",
      "alert": "OK",
      "vis_m": 9999,
      "fzfg": false,
      "metar_trigger": false,
      "taf_trigger": false,
      "metar": "METAR LFMN 200830Z 29006KT CAVOK 14/01 Q1009 NOSIG",
      "taf": "TAF LFMN 200800Z 2009/2115 VRB04KT CAVOK"
    },
    {
      "icao": "LFOB",
      "alert": "OK",
      "vis_m": 9999,
      "fzfg": false,
      "metar_trigger": false,
      "taf_trigger": false,
      "metar": "METAR LFOB 200830Z AUTO 22006KT 9999 SCT019 BKN032 BKN130 06/04 Q1022 TEMPO BKN008",
      "taf": "TAF LFOB 200500Z 2006/2106 26009KT 9999 OVC025"
    },
    {
      "icao": "LFPO",
      "alert": "OK",
      "vis_m": 9999,
      "fzfg": false,
      "metar_trigger": false,
      "taf_trigger": false,
      "metar": "METAR LFPO 200830Z 24006KT 9999 BKN021 BKN038 06/04 Q1023 NOSIG",
      "taf": "TAF LFPO 200500Z 2006/2112 26006KT 9999 SCT025"
    },
    {
      "icao": "LFSB",
      "alert": "OK",
      "vis_m": 9000,
      "fzfg": false,
      "metar_trigger": false,
      "taf_trigger": false,
      "metar": "METAR LFSB 200830Z AUTO 35004KT 320V020 9000 BKN007 OVC011 04/03 Q1022 BECMG 26012KT BKN035",
      "taf": ""
    },
    {
      "icao": "LGAV",
      "alert": "OK",
      "vis_m": 9999,
      "fzfg": false,
      "metar_trigger": false,
      "taf_trigger": false,
      "metar": "METAR LGAV 200820Z 20022KT 9999 BKN020 16/10 Q1017 NOSIG",
      "taf": "TAF LGAV 200500Z 2006/2106 21010KT 9999 FEW018 SCT020"
    },
    {
      "icao": "LGTS",
      "alert": "OK",
      "vis_m": 9999,
      "fzfg": false,
      "metar_trigger": false,
      "taf_trigger": false,
      "metar": "METAR LGTS 200850Z 14015KT 9999 FEW015 FEW018TCU BKN035 15/08 Q1011 TEMPO 5000 RA",
      "taf": "TAF LGTS 200500Z 2006/2106 13015KT 9999 SCT025"
    },
    {
      "icao": "LHBP",
      "alert": "OK",
      "vis_m": 9999,
      "fzfg": false,
      "metar_trigger": false,
      "taf_trigger": false,
      "metar": "METAR LHBP 200830Z 05013KT 020V080 CAVOK 05/M02 Q1013 NOSIG",
      "taf": "TAF LHBP 200515Z 2006/2106 05012KT CAVOK"
    },
    {
      "icao": "LHDC",
      "alert": "OK",
      "vis_m": 9999,
      "fzfg": false,
      "metar_trigger": false,
      "taf_trigger": false,
      "metar": "METAR LHDC 200815Z AUTO 03018KT CAVOK 03/M00 Q1014 NOSIG",
      "taf": "TAF LHDC 200815Z 2009/2018 04016G28KT CAVOK"
    },
    {
      "icao": "LIBD",
      "alert": "OK",
      "vis_m": 9999,
      "fzfg": false,
      "metar_trigger": false,
      "taf_trigger": false,
      "metar": "METAR LIBD 200850Z 23007KT CAVOK 14/05 Q1008",
      "taf": "TAF LIBD 200500Z 2006/2106 24012KT 9999 SCT040"
    },
    {
      "icao": "LIBG",
      "alert": "OK",
      "vis_m": 9999,
      "fzfg": false,
      "metar_trigger": false,
      "taf_trigger": false,
      "metar": "METAR LIBG 200750Z 27003KT 220V320 CAVOK 12/07 Q1009",
      "taf": "TAF LIBG 200800Z 2009/2018 23012KT 9999 SCT020"
    },
    {
      "icao": "LIBP",
      "alert": "OK",
      "vis_m": 9999,
      "fzfg": false,
      "metar_trigger": false,
      "taf_trigger": false,
      "metar": "METAR LIBP 200850Z AUTO 36008KT 330V030 9999 FEW013/// OVC080/// 11/08 Q1008",
      "taf": "TAF LIBP 200500Z 2006/2106 23010KT 9999 SCT040"
    },
    {
      "icao": "LIBR",
      "alert": "OK",
      "vis_m": 9999,
      "fzfg": false,
      "metar_trigger": false,
      "taf_trigger": false,
      "metar": "METAR LIBR 200850Z 25014KT CAVOK 14/07 Q1008",
      "taf": "TAF LIBR 200500Z 2006/2106 23012KT 9999 SCT025"
    },
    {
      "icao": "LICA",
      "alert": "OK",
      "vis_m": 9999,
      "fzfg": false,
      "metar_trigger": false,
      "taf_trigger": false,
      "metar": "METAR LICA 200850Z AUTO 30009KT 9999 -RA BKN033/// 11/09 Q1012",
      "taf": "TAF LICA 200500Z 2006/2106 26020G30KT 9999 SCT030 BKN050"
    },
    {
      "icao": "LICC",
      "alert": "OK",
      "vis_m": 9999,
      "fzfg": false,
      "metar_trigger": false,
      "taf_trigger": false,
      "metar": "METAR LICC 200850Z 25015KT CAVOK 15/11 Q1014",
      "taf": "TAF LICC 200500Z 2006/2106 26018G28KT 9999 FEW040"
    },
    {
      "icao": "LICJ",
      "alert": "OK",
      "vis_m": 9000,
      "fzfg": false,
      "metar_trigger": false,
      "taf_trigger": false,
      "metar": "METAR LICJ 200850Z 24022KT 9000 SCT040 BKN060 15/09 Q1013",
      "taf": "TAF LICJ 200500Z 2006/2106 27025G35KT 9999 SCT035"
    },
    {
      "icao": "LIMC",
      "alert": "OK",
      "vis_m": 9999,
      "fzfg": false,
      "metar_trigger": false,
      "taf_trigger": false,
      "metar": "METAR LIMC 200850Z 36005KT 330V030 CAVOK 10/04 Q1009 NOSIG",
      "taf": "TAF LIMC 200500Z 2006/2112 33007KT 9999 BKN025"
    },
    {
      "icao": "LIME",
      "alert": "OK",
      "vis_m": 9999,
      "fzfg": false,
      "metar_trigger": false,
      "taf_trigger": false,
      "metar": "METAR LIME 200850Z VRB02KT CAVOK 09/04 Q1008 NOSIG",
      "taf": "TAF LIME 200500Z 2006/2106 VRB05KT 8000 BKN020"
    },
    {
      "icao": "LIMF",
      "alert": "OK",
      "vis_m": 9999,
      "fzfg": false,
      "metar_trigger": false,
      "taf_trigger": false,
      "metar": "METAR LIMF 200850Z VRB02KT CAVOK 09/03 Q1010",
      "taf": "TAF LIMF 200500Z 2006/2106 VRB05KT 8000 FEW040"
    },
    {
      "icao": "LIMJ",
      "alert": "OK",
      "vis_m": 9999,
      "fzfg": false,
      "metar_trigger": false,
      "taf_trigger": false,
      "metar": "METAR LIMJ 200850Z 05005KT 020V080 CAVOK 15/03 Q1008",
      "taf": "TAF LIMJ 200500Z 2006/2106 VRB05KT 9999 SCT030"
    },
    {
      "icao": "LIPE",
      "alert": "OK",
      "vis_m": 9999,
      "fzfg": false,
      "metar_trigger": false,
      "taf_trigger": false,
      "metar": "METAR LIPE 200850Z 28004KT 240V330 CAVOK 09/05 Q1010",
      "taf": "TAF LIPE 200500Z 2006/2106 29007KT 9999 FEW060"
    },
    {
      "icao": "LIPH",
      "alert": "OK",
      "vis_m": 9999,
      "fzfg": false,
      "metar_trigger": false,
      "taf_trigger": false,
      "metar": "METAR LIPH 200850Z VRB02KT 9999 BKN090 07/05 Q1009",
      "taf": "TAF LIPH 200500Z 2006/2106 VRB05KT 9999 SCT050"
    },
    {
      "icao": "LIPQ",
      "alert": "OK",
      "vis_m": 9999,
      "fzfg": false,
      "metar_trigger": false,
      "taf_trigger": false,
      "metar": "METAR LIPQ 200850Z AUTO 11004KT 9999 -RA OVC056/// 08/07 Q1010",
      "taf": "TAF LIPQ 200500Z 2006/2106 VRB05KT 7000 BKN040"
    },
    {
      "icao": "LIPR",
      "alert": "OK",
      "vis_m": 9999,
      "fzfg": false,
      "metar_trigger": false,
      "taf_trigger": false,
      "metar": "METAR LIPR 200850Z 30010KT 9999 BKN050 08/05 Q1010",
      "taf": "TAF LIPR 200500Z 2006/2106 30012KT 9999 SCT040"
    },
    {
      "icao": "LIPX",
      "alert": "OK",
      "vis_m": 9000,
      "fzfg": false,
      "metar_trigger": false,
      "taf_trigger": false,
      "metar": "METAR LIPX 200850Z 12005KT 9000 BKN060 07/05 Q1009",
      "taf": "TAF LIPX 200500Z 2006/2106 VRB06KT 8000 BKN030"
    },
    {
      "icao": "LIPY",
      "alert": "OK",
      "vis_m": 9999,
      "fzfg": false,
      "metar_trigger": false,
      "taf_trigger": false,
      "metar": "METAR LIPY 200850Z AUTO 28008KT 9999 FEW033/// BKN047/// 09/07 Q1009",
      "taf": "TAF LIPY 200500Z 2006/2106 32012KT 9999 SCT040"
    },
    {
      "icao": "LIPZ",
      "alert": "OK",
      "vis_m": 9999,
      "fzfg": false,
      "metar_trigger": false,
      "taf_trigger": false,
      "metar": "METAR LIPZ 200850Z 34003KT 300V020 CAVOK 08/06 Q1009 NOSIG",
      "taf": "TAF LIPZ 200500Z 2006/2112 VRB05KT 9999 FEW030"
    },
    {
      "icao": "LIRF",
      "alert": "OK",
      "vis_m": 9999,
      "fzfg": false,
      "metar_trigger": false,
      "taf_trigger": false,
      "metar": "METAR LIRF 200850Z VRB02KT CAVOK 12/09 Q1008 NOSIG",
      "taf": "TAF LIRF 200500Z 2006/2112 VRB05KT 9999 FEW025"
    },
    {
      "icao": "LIRN",
      "alert": "OK",
      "vis_m": 9999,
      "fzfg": false,
      "metar_trigger": false,
      "taf_trigger": false,
      "metar": "METAR LIRN 200850Z 20004KT 170V240 9999 FEW015 11/09 Q1009 NOSIG",
      "taf": "TAF LIRN 200500Z 2006/2106 24008KT 9999 SCT030"
    },
    {
      "icao": "LIRP",
      "alert": "OK",
      "vis_m": 9999,
      "fzfg": false,
      "metar_trigger": false,
      "taf_trigger": false,
      "metar": "METAR LIRP 200845Z 10005KT CAVOK 10/10 Q1008 NOSIG",
      "taf": "TAF LIRP 200500Z 2006/2106 11005KT 9999 FEW020 SCT060"
    },
    {
      "icao": "LIRZ",
      "alert": "OK",
      "vis_m": 9999,
      "fzfg": false,
      "metar_trigger": false,
      "taf_trigger": false,
      "metar": "METAR LIRZ 200850Z AUTO VRB02KT 9999 FEW038/// 11/08 Q1008",
      "taf": "TAF LIRZ 200500Z 2006/2106 VRB05KT 9999 SCT035"
    },
    {
      "icao": "LJLJ",
      "alert": "OK",
      "vis_m": 8000,
      "fzfg": false,
      "metar_trigger": false,
      "taf_trigger": false,
      "metar": "METAR LJLJ 200830Z VRB01KT 8000 -SN FEW002 SCT008 BKN025 01/01 Q1011 NOSIG",
      "taf": "TAF LJLJ 200500Z 2006/2106 VRB02KT 7000 -RA OVC020"
    },
    {
      "icao": "LKMT",
      "alert": "OK",
      "vis_m": 9999,
      "fzfg": false,
      "metar_trigger": false,
      "taf_trigger": false,
      "metar": "METAR LKMT 200830Z 05016KT CAVOK M05/M08 Q1021 NOSIG",
      "taf": "TAF LKMT 200500Z 2006/2106 03017KT CAVOK"
    },
    {
      "icao": "LKPR",
      "alert": "OK",
      "vis_m": 9000,
      "fzfg": false,
      "metar_trigger": false,
      "taf_trigger": false,
      "metar": "METAR LKPR 200830Z 34003KT 260V030 9000 NSC M04/M07 Q1022 NOSIG",
      "taf": "TAF LKPR 200800Z 2009/2115 04006KT CAVOK"
    },
    {
      "icao": "LLBG",
      "alert": "OK",
      "vis_m": 9999,
      "fzfg": false,
      "metar_trigger": false,
      "taf_trigger": false,
      "metar": "METAR LLBG 200850Z VRB03KT CAVOK 21/07 Q1021 NOSIG",
      "taf": "TAF LLBG 200503Z 2006/2106 VRB03KT CAVOK"
    },
    {
      "icao": "LMML",
      "alert": "OK",
      "vis_m": 9999,
      "fzfg": false,
      "metar_trigger": false,
      "taf_trigger": false,
      "metar": "METAR LMML 200845Z 27017KT 9999 -SHRA SCT024 15/10 Q1018 NOSIG",
      "taf": "TAF LMML 200500Z 2006/2106 29016KT 9999 FEW025"
    },
    {
      "icao": "LOWW",
      "alert": "OK",
      "vis_m": 3800,
      "fzfg": false,
      "metar_trigger": false,
      "taf_trigger": false,
      "metar": "METAR LOWW 200850Z 33013KT 3800 -SN BR FEW014 SCT017 BKN020 M02/M05 Q1019 BECMG 5000 -SN BR",
      "taf": "TAF LOWW 200815Z 2009/2115 34013KT 4000 -SN SCT005 BKN010 TX03/2115Z TNM06/2105Z"
    },
    {
      "icao": "LPFR",
      "alert": "OK",
      "vis_m": 9999,
      "fzfg": false,
      "metar_trigger": false,
      "taf_trigger": false,
      "metar": "METAR LPFR 200830Z VRB02KT CAVOK 10/05 Q1029",
      "taf": "TAF LPFR 200500Z 2006/2106 VRB02KT CAVOK"
    },
    {
      "icao": "LPMA",
      "alert": "OK",
      "vis_m": 9999,
      "fzfg": false,
      "metar_trigger": false,
      "taf_trigger": false,
      "metar": "METAR LPMA 200830Z 04010KT 9999 BKN025 16/09 Q1027",
      "taf": "TAF LPMA 200500Z 2006/2106 02013KT 9999 SCT015"
    },
    {
      "icao": "LPPR",
      "alert": "OK",
      "vis_m": 9999,
      "fzfg": false,
      "metar_trigger": false,
      "taf_trigger": false,
      "metar": "METAR LPPR 200830Z 10005KT 040V130 9999 FEW025 BKN035 08/06 Q1032",
      "taf": "TAF LPPR 200500Z 2006/2106 09007KT 9999 SCT035"
    },
    {
      "icao": "LPPS",
      "alert": "OK",
      "vis_m": 9999,
      "fzfg": false,
      "metar_trigger": false,
      "taf_trigger": false,
      "metar": "METAR LPPS 200830Z 10010KT 9999 FEW015 BKN030 15/09 Q1027",
      "taf": "TAF LPPS 200500Z 2006/2112 07012KT 9999 FEW015 BKN030"
    },
    {
      "icao": "LPPT",
      "alert": "OK",
      "vis_m": 9999,
      "fzfg": false,
      "metar_trigger": false,
      "taf_trigger": false,
      "metar": "METAR LPPT 200830Z 35008KT CAVOK 09/06 Q1030",
      "taf": "TAF LPPT 200500Z 2006/2112 32005KT CAVOK"
    },
    {
      "icao": "LQBK",
      "alert": "OK",
      "vis_m": 9999,
      "fzfg": false,
      "metar_trigger": false,
      "taf_trigger": false,
      "metar": "METAR LQBK 200830Z VRB03KT 9999 FEW010 SCT017 06/04 Q1008 NOSIG",
      "taf": "TAF LQBK 200500Z 2006/2106 25006KT 9999 SCT015 BKN035 TX08/2012Z TNM03/2106Z"
    },
    {
      "icao": "LQSA",
      "alert": "OK",
      "vis_m": 9999,
      "fzfg": false,
      "metar_trigger": false,
      "taf_trigger": false,
      "metar": "METAR LQSA 200830Z VRB01KT 9999 FEW030 BKN045 09/05 Q1005 NOSIG",
      "taf": "TAF LQSA 200500Z 2006/2106 14008KT 9999 BKN045 TX10/2013Z TN00/2105Z"
    },
    {
      "icao": "LQTZ",
      "alert": "OK",
      "vis_m": 9999,
      "fzfg": false,
      "metar_trigger": false,
      "taf_trigger": false,
      "metar": "METAR LQTZ 200830Z 12006KT 9999 -RA SCT040 OVC055 10/07 Q1005",
      "taf": "TAF LQTZ 200500Z 2006/2106 12006KT 9999 SCT020 BKN050 TX10/2012Z TNM03/2106Z"
    },
    {
      "icao": "LRBC",
      "alert": "OK",
      "vis_m": 8000,
      "fzfg": false,
      "metar_trigger": false,
      "taf_trigger": false,
      "metar": "METAR LRBC 200830Z 34017KT 8000 OVC014 01/M01 Q1019",
      "taf": "TAF LRBC 200800Z 2009/2018 34016KT 9999 OVC010"
    },
    {
      "icao": "LRBS",
      "alert": "OK",
      "vis_m": 9999,
      "fzfg": false,
      "metar_trigger": false,
      "taf_trigger": false,
      "metar": "METAR LRBS 200830Z 05006KT CAVOK 03/M01 Q1015 NOSIG",
      "taf": "TAF LRBS 200500Z 2006/2106 VRB03KT 3000 BR NSC"
    },
    {
      "icao": "LRBV",
      "alert": "OK",
      "vis_m": 9999,
      "fzfg": false,
      "metar_trigger": false,
      "taf_trigger": false,
      "metar": "METAR LRBV 200830Z 16005KT CAVOK M01/M04 Q1013",
      "taf": "TAF LRBV 200800Z 2009/2018 VRB04KT CAVOK"
    },
    {
      "icao": "LRCL",
      "alert": "OK",
      "vis_m": 9999,
      "fzfg": false,
      "metar_trigger": false,
      "taf_trigger": false,
      "metar": "METAR LRCL 200830Z VRB01KT 9999 SCT070 06/M01 Q1013",
      "taf": "TAF LRCL 200800Z 2009/2018 06005KT 9999 BKN050"
    },
    {
      "icao": "LRCV",
      "alert": "OK",
      "vis_m": 9999,
      "fzfg": false,
      "metar_trigger": false,
      "taf_trigger": false,
      "metar": "METAR LRCV 200830Z 09011KT CAVOK 06/00 Q1012",
      "taf": "TAF LRCV 200800Z 2009/2018 08010KT CAVOK"
    },
    {
      "icao": "LRIA",
      "alert": "OK",
      "vis_m": 9999,
      "fzfg": false,
      "metar_trigger": false,
      "taf_trigger": false,
      "metar": "METAR LRIA 200830Z 32013KT 9999 FEW010 01/M02 Q1019",
      "taf": "TAF LRIA 200800Z 2009/2018 31010KT 9999 BKN010"
    },
    {
      "icao": "LROP",
      "alert": "OK",
      "vis_m": 9999,
      "fzfg": false,
      "metar_trigger": false,
      "taf_trigger": false,
      "metar": "METAR LROP 200830Z 06007KT CAVOK 02/M04 Q1015 NOSIG",
      "taf": "TAF LROP 200500Z 2006/2106 VRB03KT 3000 BR NSC"
    },
    {
      "icao": "LRSB",
      "alert": "OK",
      "vis_m": 9999,
      "fzfg": false,
      "metar_trigger": false,
      "taf_trigger": false,
      "metar": "METAR LRSB 200830Z 20003KT 160V250 CAVOK 04/M00 Q1012",
      "taf": "TAF LRSB 200500Z 2006/2106 VRB04KT 9999 BKN060"
    },
    {
      "icao": "LRSM",
      "alert": "OK",
      "vis_m": 9999,
      "fzfg": false,
      "metar_trigger": false,
      "taf_trigger": false,
      "metar": "METAR LRSM 200830Z 03008KT CAVOK 06/03 Q1014",
      "taf": "TAF LRSM 200800Z 2009/2018 03009KT CAVOK"
    },
    {
      "icao": "LRSV",
      "alert": "OK",
      "vis_m": 5000,
      "fzfg": false,
      "metar_trigger": false,
      "taf_trigger": false,
      "metar": "METAR LRSV 200830Z 33012KT 5000 BR BKN004 M02/M03 Q1019",
      "taf": ""
    },
    {
      "icao": "LRTM",
      "alert": "OK",
      "vis_m": 9999,
      "fzfg": false,
      "metar_trigger": false,
      "taf_trigger": false,
      "metar": "METAR LRTM 200830Z 23005KT CAVOK 04/02 Q1013",
      "taf": "TAF LRTM 200800Z 2009/2018 06005KT 9999 BKN050"
    },
    {
      "icao": "LRTR",
      "alert": "OK",
      "vis_m": 9999,
      "fzfg": false,
      "metar_trigger": false,
      "taf_trigger": false,
      "metar": "METAR LRTR 200830Z 07009KT CAVOK 08/03 Q1009 NOSIG",
      "taf": "TAF LRTR 200500Z 2006/2106 08010KT CAVOK"
    },
    {
      "icao": "LTAC",
      "alert": "OK",
      "vis_m": 9999,
      "fzfg": false,
      "metar_trigger": false,
      "taf_trigger": false,
      "metar": "METAR LTAC 200850Z 02003KT 280V090 CAVOK 05/M03 Q1023 NOSIG",
      "taf": "TAF LTAC 200440Z 2006/2106 VRB02KT CAVOK"
    },
    {
      "icao": "LTFM",
      "alert": "OK",
      "vis_m": 9999,
      "fzfg": false,
      "metar_trigger": false,
      "taf_trigger": false,
      "metar": "METAR LTFM 200850Z 21018KT CAVOK 14/03 Q1018 NOSIG",
      "taf": "TAF LTFM 200440Z 2006/2112 19014KT CAVOK"
    },
    {
      "icao": "LUKK",
      "alert": "OK",
      "vis_m": 9999,
      "fzfg": false,
      "metar_trigger": false,
      "taf_trigger": false,
      "metar": "METAR LUKK 200830Z 36006KT 320V030 CAVOK 02/M02 Q1017 NOSIG",
      "taf": "TAF LUKK 200516Z 2006/2106 VRB04KT 9999 BKN010"
    },
    {
      "icao": "LWOH",
      "alert": "OK",
      "vis_m": 9999,
      "fzfg": false,
      "metar_trigger": false,
      "taf_trigger": false,
      "metar": "METAR LWOH 200850Z 08012KT 060V120 9999 -RA SCT020 OVC035 05/03 Q1010",
      "taf": "TAF LWOH 200815Z 2009/2109 12010KT 9999 RA BKN020 OVC030"
    },
    {
      "icao": "LWSK",
      "alert": "OK",
      "vis_m": 9999,
      "fzfg": false,
      "metar_trigger": false,
      "taf_trigger": false,
      "metar": "METAR LWSK 200850Z 14011KT 9999 -RA FEW010 BKN040 OVC068 08/07 Q1011 NOSIG",
      "taf": "TAF LWSK 200825Z 2009/2109 14012KT 9999 RA FEW010 OVC040"
    },
    {
      "icao": "LYBE",
      "alert": "OK",
      "vis_m": 9999,
      "fzfg": false,
      "metar_trigger": false,
      "taf_trigger": false,
      "metar": "METAR LYBE 200830Z 12015KT CAVOK 08/02 Q1007 NOSIG",
      "taf": "TAF LYBE 200500Z 2006/2106 13012KT 9999 SCT040 TX08/2012Z TN01/2106Z"
    },
    {
      "icao": "LYNI",
      "alert": "OK",
      "vis_m": 9999,
      "fzfg": false,
      "metar_trigger": false,
      "taf_trigger": false,
      "metar": "METAR LYNI 200830Z 10018KT 9999 SCT040 BKN090 10/03 Q1008 NOSIG",
      "taf": ""
    },
    {
      "icao": "LYPG",
      "alert": "OK",
      "vis_m": 9999,
      "fzfg": false,
      "metar_trigger": false,
      "taf_trigger": false,
      "metar": "METAR LYPG 200830Z 03004KT 350V060 9999 -RA FEW010 SCT033 OVC070 09/08 Q1009 NOSIG",
      "taf": "TAF LYPG 200500Z 2006/2106 14009KT 9999 FEW020 SCT040 BKN070 TX12/2013Z TN05/2106Z"
    },
    {
      "icao": "LZIB",
      "alert": "OK",
      "vis_m": 3200,
      "fzfg": false,
      "metar_trigger": false,
      "taf_trigger": false,
      "metar": "METAR LZIB 200830Z 29012KT 3200 -SN BR FEW009 OVC042 M01/M02 Q1017 TEMPO 2000 SN BR",
      "taf": "TAF LZIB 200515Z 2006/2106 01008KT 7000 FEW010 BKN030"
    },
    {
      "icao": "LZKZ",
      "alert": "OK",
      "vis_m": 9999,
      "fzfg": false,
      "metar_trigger": false,
      "taf_trigger": false,
      "metar": "METAR LZKZ 200830Z 36026KT CAVOK M01/M07 Q1018 NOSIG",
      "taf": "TAF LZKZ 200515Z 2006/2106 01018KT CAVOK"
    },
    {
      "icao": "LZTT",
      "alert": "OK",
      "vis_m": 9999,
      "fzfg": false,
      "metar_trigger": false,
      "taf_trigger": false,
      "metar": "METAR LZTT 200830Z 10011KT 9999 FEW013 M06/M09 Q1018 NOSIG",
      "taf": "TAF LZTT 200515Z 2006/2106 07012KT 9999 FEW010 BKN022"
    },
    {
      "icao": "OEJN",
      "alert": "OK",
      "vis_m": 9999,
      "fzfg": false,
      "metar_trigger": false,
      "taf_trigger": false,
      "metar": "METAR OEJN 200800Z 33006KT CAVOK 29/18 Q1015 NOSIG",
      "taf": "TAF OEJN 200500Z 2006/2112 28012KT 8000 FEW040"
    },
    {
      "icao": "OEMA",
      "alert": "OK",
      "vis_m": 7000,
      "fzfg": false,
      "metar_trigger": false,
      "taf_trigger": false,
      "metar": "METAR OEMA 200800Z 09010KT 7000 NSC 24/M02 Q1023 NOSIG",
      "taf": "TAF OEMA 200500Z 2006/2112 09014KT 7000 NSC"
    },
    {
      "icao": "OJAI",
      "alert": "OK",
      "vis_m": 4000,
      "fzfg": false,
      "metar_trigger": false,
      "taf_trigger": false,
      "metar": "METAR OJAI 200800Z 09015KT 4000 BLDU NSC 13/04 Q1025 NOSIG",
      "taf": "TAF OJAI 200500Z 2006/2112 VRB02KT 5000 HZ NSC"
    },
    {
      "icao": "OMAA",
      "alert": "OK",
      "vis_m": 9999,
      "fzfg": false,
      "metar_trigger": false,
      "taf_trigger": false,
      "metar": "METAR OMAA 200830Z VRB03KT CAVOK 28/07 Q1018 NOSIG",
      "taf": "TAF OMAA 200500Z 2006/2112 10006KT 8000 NSC"
    },
    {
      "icao": "OMDB",
      "alert": "OK",
      "vis_m": 9999,
      "fzfg": false,
      "metar_trigger": false,
      "taf_trigger": false,
      "metar": "METAR OMDB 200830Z 32006KT 250V030 CAVOK 29/07 Q1019 NOSIG",
      "taf": "TAF OMDB 200500Z 2006/2112 16005KT 8000 NSC"
    },
    {
      "icao": "UAAA",
      "alert": "OK",
      "vis_m": 9999,
      "fzfg": false,
      "metar_trigger": false,
      "taf_trigger": false,
      "metar": "METAR UAAA 200830Z 09003MPS 9999 BKN016 OVC100 10/06 Q1023 NOSIG",
      "taf": "TAF UAAA 200504Z 2006/2106 05003MPS 5000 BR FU SCT020CB BKN100 TX12/2009Z TN01/2103Z"
    },
    {
      "icao": "UBBB",
      "alert": "OK",
      "vis_m": 9999,
      "fzfg": false,
      "metar_trigger": false,
      "taf_trigger": false,
      "metar": "METAR UBBB 200830Z 36010KT 320V020 9999 SCT017 10/05 Q1031 NOSIG",
      "taf": "TAF UBBB 200502Z 2006/2106 36010KT 9999 SCT030 TX12/2010Z TN07/2100Z"
    },
    {
      "icao": "UDSG",
      "alert": "OK",
      "vis_m": 9999,
      "fzfg": false,
      "metar_trigger": false,
      "taf_trigger": false,
      "metar": "METAR UDSG 200830Z 26003KT 230V300 9999 NSC 00/M07 Q1029 NOSIG",
      "taf": "TAF UDSG 200458Z 2006/2106 VRB06KT 9999 FEW040"
    },
    {
      "icao": "UDYZ",
      "alert": "OK",
      "vis_m": 9999,
      "fzfg": false,
      "metar_trigger": false,
      "taf_trigger": false,
      "metar": "METAR UDYZ 200830Z 23003KT 200V270 9999 NSC 08/M05 Q1030 NOSIG",
      "taf": "TAF UDYZ 200500Z 2006/2106 VRB06KT 9999 FEW040"
    },
    {
      "icao": "UGKO",
      "alert": "OK",
      "vis_m": 9999,
      "fzfg": false,
      "metar_trigger": false,
      "taf_trigger": false,
      "metar": "METAR UGKO 200830Z 08017KT CAVOK 10/01 Q1027 NOSIG",
      "taf": "TAF UGKO 200500Z 2006/2106 08017KT CAVOK TX17/2011Z TN06/2006Z"
    }
  ]
}