{
  "ts_utc": "2026-06-07T15:00:54Z",
  "threshold_m": 150,
  "source": "stations_override.txt (ICAO list) + aviationweather.gov (METAR/TAF raw)",
  "station_count": 159,
  "stations": [
    {
      "icao": "BIKF",
      "alert": "OK",
      "vis_m": 9999,
      "fzfg": false,
      "metar_trigger": false,
      "taf_trigger": false,
      "metar": "METAR BIKF 071430Z 36004KT 300V030 9999 SCT033 BKN065 11/04 Q0998",
      "taf": "TAF BIKF 071338Z 0715/0815 36008KT 9999 SCT020 BKN037 TX11/0715Z TN08/0805Z"
    },
    {
      "icao": "BKPR",
      "alert": "OK",
      "vis_m": 9999,
      "fzfg": false,
      "metar_trigger": false,
      "taf_trigger": false,
      "metar": "METAR BKPR 071500Z 01013KT 9999 FEW080 27/14 Q1020 NOSIG",
      "taf": "TAF BKPR 071130Z 0712/0812 36009KT 9999 FEW040"
    },
    {
      "icao": "EBCI",
      "alert": "OK",
      "vis_m": 9999,
      "fzfg": false,
      "metar_trigger": false,
      "taf_trigger": false,
      "metar": "METAR EBCI 071450Z 24009KT 9999 BKN032 16/10 Q1024 NOSIG",
      "taf": "TAF EBCI 071107Z 0712/0818 23005KT 9999 FEW030 SCT045"
    },
    {
      "icao": "EDDB",
      "alert": "OK",
      "vis_m": 9999,
      "fzfg": false,
      "metar_trigger": false,
      "taf_trigger": false,
      "metar": "METAR EDDB 071450Z AUTO 29013KT 260V320 9999 FEW044 22/11 Q1020 TEMPO 27015G25KT",
      "taf": "TAF EDDB 071100Z 0712/0812 26013KT 9999 FEW045"
    },
    {
      "icao": "EDDH",
      "alert": "OK",
      "vis_m": 9999,
      "fzfg": false,
      "metar_trigger": false,
      "taf_trigger": false,
      "metar": "METAR EDDH 071450Z AUTO 24011KT 210V280 9999 -SHRA BKN016 BKN026 BKN039 FEW///TCU 17/14 Q1019 TEMPO 24015G25KT 4500 SHRA BKN012",
      "taf": "TAF EDDH 071100Z 0712/0818 24012KT 9999 SCT030"
    },
    {
      "icao": "EDDK",
      "alert": "OK",
      "vis_m": 9999,
      "fzfg": false,
      "metar_trigger": false,
      "taf_trigger": false,
      "metar": "METAR EDDK 071450Z AUTO 30007KT 230V360 9999 FEW047 20/10 Q1023 NOSIG",
      "taf": "TAF EDDK 071100Z 0712/0818 26009KT 9999 SCT045"
    },
    {
      "icao": "EDDN",
      "alert": "OK",
      "vis_m": 9999,
      "fzfg": false,
      "metar_trigger": false,
      "taf_trigger": false,
      "metar": "METAR EDDN 071450Z AUTO 29010KT 270V330 CAVOK 23/07 Q1023 NOSIG",
      "taf": "TAF EDDN 071100Z 0712/0812 26012KT CAVOK"
    },
    {
      "icao": "EDDS",
      "alert": "OK",
      "vis_m": 9999,
      "fzfg": false,
      "metar_trigger": false,
      "taf_trigger": false,
      "metar": "METAR EDDS 071450Z AUTO 01008KT 330V090 CAVOK 23/08 Q1023 NOSIG",
      "taf": "TAF EDDS 071100Z 0712/0812 26007KT CAVOK"
    },
    {
      "icao": "EDFH",
      "alert": "OK",
      "vis_m": 9999,
      "fzfg": false,
      "metar_trigger": false,
      "taf_trigger": false,
      "metar": "METAR EDFH 071450Z 26009KT 210V310 CAVOK 17/08 Q1024",
      "taf": "TAF EDFH 071100Z 0712/0812 26010KT 9999 SCT030"
    },
    {
      "icao": "EDJA",
      "alert": "OK",
      "vis_m": 9999,
      "fzfg": false,
      "metar_trigger": false,
      "taf_trigger": false,
      "metar": "METAR EDJA 071420Z 29011KT 250V320 9999 SCT054 22/10 Q1022",
      "taf": "TAF EDJA 071400Z 0715/0724 26008KT CAVOK"
    },
    {
      "icao": "EDLW",
      "alert": "OK",
      "vis_m": 9999,
      "fzfg": false,
      "metar_trigger": false,
      "taf_trigger": false,
      "metar": "METAR EDLW 071450Z 23009KT 9999 FEW031 OVC041 17/11 Q1023",
      "taf": "TAF EDLW 071100Z 0712/0812 22013KT 9999 SCT040"
    },
    {
      "icao": "EDNY",
      "alert": "OK",
      "vis_m": 9999,
      "fzfg": false,
      "metar_trigger": false,
      "taf_trigger": false,
      "metar": "METAR EDNY 071450Z 26005KT 9999 FEW055 23/12 Q1023",
      "taf": "TAF EDNY 071400Z 0715/0724 23005KT CAVOK"
    },
    {
      "icao": "EDSB",
      "alert": "OK",
      "vis_m": 9999,
      "fzfg": false,
      "metar_trigger": false,
      "taf_trigger": false,
      "metar": "METAR EDSB 071450Z 29005KT 220V340 CAVOK 24/08 Q1023",
      "taf": "TAF EDSB 071100Z 0712/0812 25006KT CAVOK"
    },
    {
      "icao": "EETN",
      "alert": "OK",
      "vis_m": 9999,
      "fzfg": false,
      "metar_trigger": false,
      "taf_trigger": false,
      "metar": "METAR EETN 071450Z 32010KT CAVOK 19/12 Q1019 NOSIG",
      "taf": "TAF EETN 071130Z 0712/0812 32010KT CAVOK"
    },
    {
      "icao": "EFTU",
      "alert": "OK",
      "vis_m": 9999,
      "fzfg": false,
      "metar_trigger": false,
      "taf_trigger": false,
      "metar": "METAR EFTU 071450Z AUTO 22010KT 190V250 CAVOK 18/07 Q1017",
      "taf": "TAF EFTU 071427Z 0715/0815 23010KT CAVOK"
    },
    {
      "icao": "EGBB",
      "alert": "OK",
      "vis_m": 9999,
      "fzfg": false,
      "metar_trigger": false,
      "taf_trigger": false,
      "metar": "METAR EGBB 071420Z 23009KT 180V280 9999 SCT036 17/09 Q1018",
      "taf": "TAF EGBB 071057Z 0712/0812 20008KT 9999 SCT025"
    },
    {
      "icao": "EGGP",
      "alert": "OK",
      "vis_m": 9999,
      "fzfg": false,
      "metar_trigger": false,
      "taf_trigger": false,
      "metar": "METAR EGGP 071450Z 19006KT 130V230 9999 FEW044 17/09 Q1016",
      "taf": ""
    },
    {
      "icao": "EGGW",
      "alert": "OK",
      "vis_m": 9999,
      "fzfg": false,
      "metar_trigger": false,
      "taf_trigger": false,
      "metar": "METAR EGGW 071450Z AUTO 23013KT 9999 BKN033 18/11 Q1019",
      "taf": "TAF EGGW 071056Z 0712/0812 23010KT 9999 SCT030"
    },
    {
      "icao": "EGKK",
      "alert": "OK",
      "vis_m": 9999,
      "fzfg": false,
      "metar_trigger": false,
      "taf_trigger": false,
      "metar": "METAR EGKK 071450Z 22012KT 9999 SCT026 SCT036 17/11 Q1021",
      "taf": "TAF EGKK 071102Z 0712/0818 22013KT 9999 FEW020 SCT030"
    },
    {
      "icao": "EGNM",
      "alert": "OK",
      "vis_m": 9999,
      "fzfg": false,
      "metar_trigger": false,
      "taf_trigger": false,
      "metar": "METAR EGNM 071450Z 23013KT 190V280 9999 FEW032 18/09 Q1015",
      "taf": "TAF EGNM 071052Z 0712/0812 23014KT 9999 SCT030"
    },
    {
      "icao": "EGPD",
      "alert": "OK",
      "vis_m": 9999,
      "fzfg": false,
      "metar_trigger": false,
      "taf_trigger": false,
      "metar": "METAR EGPD 071450Z COR AUTO 22011KT 180V240 9999 SCT034 17/10 Q1008 NOSIG",
      "taf": "TAF EGPD 071056Z 0712/0812 20010KT 9999 FEW030"
    },
    {
      "icao": "EGPF",
      "alert": "OK",
      "vis_m": 9000,
      "fzfg": false,
      "metar_trigger": false,
      "taf_trigger": false,
      "metar": "METAR EGPF 071450Z AUTO 19010KT 9000 -RA SCT014/// BKN025/// BKN045/// //////TCU 14/13 Q1009",
      "taf": "TAF EGPF 071057Z 0712/0812 21013KT 9999 SCT025"
    },
    {
      "icao": "EHBK",
      "alert": "OK",
      "vis_m": 9999,
      "fzfg": false,
      "metar_trigger": false,
      "taf_trigger": false,
      "metar": "METAR EHBK 071455Z AUTO 24009KT 210V290 9999 SCT037 19/10 Q1023 NOSIG",
      "taf": "TAF EHBK 071103Z 0712/0818 23014KT 9999 BKN030"
    },
    {
      "icao": "EHEH",
      "alert": "OK",
      "vis_m": 9999,
      "fzfg": false,
      "metar_trigger": false,
      "taf_trigger": false,
      "metar": "METAR EHEH 071425Z AUTO 23007KT 190V280 9999 SCT038 OVC043 19/10 Q1022 BLU TEMPO BKN015",
      "taf": "TAF EHEH 071202Z 0712/0818 24010KT 9999 BKN030"
    },
    {
      "icao": "EKBI",
      "alert": "OK",
      "vis_m": 9999,
      "fzfg": false,
      "metar_trigger": false,
      "taf_trigger": false,
      "metar": "METAR EKBI 071450Z AUTO 23010KT 200V270 9999 BKN020/// 17/12 Q1016",
      "taf": "TAF EKBI 071427Z 0715/0815 25010KT 9999 BKN045"
    },
    {
      "icao": "EKCH",
      "alert": "OK",
      "vis_m": 9999,
      "fzfg": false,
      "metar_trigger": false,
      "taf_trigger": false,
      "metar": "METAR EKCH 071450Z 22009KT 9999 SHRA FEW020CB SCT045 BKN055 15/14 Q1017 NOSIG",
      "taf": "TAF EKCH 071427Z 0715/0815 18010KT 9999 FEW025"
    },
    {
      "icao": "ENAL",
      "alert": "OK",
      "vis_m": 9999,
      "fzfg": false,
      "metar_trigger": false,
      "taf_trigger": false,
      "metar": "METAR ENAL 071450Z 31005KT 280V020 CAVOK 16/10 Q1012",
      "taf": "TAF ENAL 071400Z 0715/0724 32005KT 9999 FEW030 SCT060"
    },
    {
      "icao": "ENBR",
      "alert": "OK",
      "vis_m": 9999,
      "fzfg": false,
      "metar_trigger": false,
      "taf_trigger": false,
      "metar": "METAR ENBR 071450Z 20011KT CAVOK 16/11 Q1013 NOSIG RMK WIND 1200FT 20012KT",
      "taf": "TAF ENBR 071100Z 0712/0812 18010KT 9999 FEW040 BKN050"
    },
    {
      "icao": "ENGM",
      "alert": "OK",
      "vis_m": 9999,
      "fzfg": false,
      "metar_trigger": false,
      "taf_trigger": false,
      "metar": "METAR ENGM 071450Z 21011KT 9999 FEW042 20/10 Q1013 NOSIG",
      "taf": "TAF ENGM 071100Z 0712/0812 20008KT 9999 FEW030"
    },
    {
      "icao": "ENHD",
      "alert": "OK",
      "vis_m": 9999,
      "fzfg": false,
      "metar_trigger": false,
      "taf_trigger": false,
      "metar": "METAR ENHD 071450Z 20011KT 9999 SCT007 15/12 Q1013",
      "taf": "TAF ENHD 071400Z 0715/0722 19010KT 9999 FEW035"
    },
    {
      "icao": "ENTC",
      "alert": "OK",
      "vis_m": 9999,
      "fzfg": false,
      "metar_trigger": false,
      "taf_trigger": false,
      "metar": "METAR ENTC 071450Z 02014KT CAVOK 16/10 Q1012 NOSIG RMK WIND 2600FT 12011KT",
      "taf": "TAF ENTC 071100Z 0712/0812 02009KT 9999 SCT060"
    },
    {
      "icao": "ENTO",
      "alert": "OK",
      "vis_m": 9999,
      "fzfg": false,
      "metar_trigger": false,
      "taf_trigger": false,
      "metar": "METAR ENTO 071450Z 18009KT 9999 FEW020 18/14 Q1014 NOSIG",
      "taf": "TAF ENTO 071100Z 0712/0812 19008KT 9999 SCT010 BKN040"
    },
    {
      "icao": "ENVA",
      "alert": "OK",
      "vis_m": 9999,
      "fzfg": false,
      "metar_trigger": false,
      "taf_trigger": false,
      "metar": "METAR ENVA 071450Z 27013KT CAVOK 14/10 Q1011 RMK WIND 670FT 27010KT",
      "taf": "TAF ENVA 071100Z 0712/0812 27012KT CAVOK"
    },
    {
      "icao": "ENZV",
      "alert": "OK",
      "vis_m": 9999,
      "fzfg": false,
      "metar_trigger": false,
      "taf_trigger": false,
      "metar": "METAR ENZV 071450Z 18013KT 9999 FEW022 18/12 Q1013 NOSIG",
      "taf": "TAF ENZV 071100Z 0712/0812 20010KT 9999 FEW030 BKN050"
    },
    {
      "icao": "EPGD",
      "alert": "OK",
      "vis_m": 9999,
      "fzfg": false,
      "metar_trigger": false,
      "taf_trigger": false,
      "metar": "METAR EPGD 071430Z 27019KT 110V280 9999 VCTS SCT037 FEW046CB 20/12 Q1018",
      "taf": "TAF EPGD 071130Z 0712/0812 20010KT CAVOK"
    },
    {
      "icao": "EPKK",
      "alert": "OK",
      "vis_m": 9999,
      "fzfg": false,
      "metar_trigger": false,
      "taf_trigger": false,
      "metar": "METAR EPKK 071430Z 32011KT 9999 SCT052CB 19/13 Q1020",
      "taf": "TAF EPKK 071430Z 0715/0815 32010KT CAVOK"
    },
    {
      "icao": "EPKT",
      "alert": "OK",
      "vis_m": 9999,
      "fzfg": false,
      "metar_trigger": false,
      "taf_trigger": false,
      "metar": "METAR EPKT 071430Z 27018G30KT 9999 SCT041CB 20/13 Q1020",
      "taf": "TAF EPKT 071130Z 0712/0812 24010KT 9999 SCT045"
    },
    {
      "icao": "EPLB",
      "alert": "OK",
      "vis_m": 9999,
      "fzfg": false,
      "metar_trigger": false,
      "taf_trigger": false,
      "metar": "METAR EPLB 071430Z 23014KT 9999 -TSRA SCT060CB 20/12 Q1019",
      "taf": "TAF EPLB 071130Z 0712/0812 VRB05KT CAVOK"
    },
    {
      "icao": "EPMO",
      "alert": "OK",
      "vis_m": 9999,
      "fzfg": false,
      "metar_trigger": false,
      "taf_trigger": false,
      "metar": "METAR EPMO 071430Z 03005KT CAVOK 21/13 Q1018",
      "taf": "TAF EPMO 071130Z 0712/0812 VRB05KT 9999 SCT045"
    },
    {
      "icao": "EPPO",
      "alert": "OK",
      "vis_m": 9999,
      "fzfg": false,
      "metar_trigger": false,
      "taf_trigger": false,
      "metar": "METAR EPPO 071430Z 30004KT 9999 FEW036 17/14 Q1019",
      "taf": "TAF EPPO 071130Z 0712/0812 28010KT 9999 SCT040"
    },
    {
      "icao": "EPRA",
      "alert": "OK",
      "vis_m": 9999,
      "fzfg": false,
      "metar_trigger": false,
      "taf_trigger": false,
      "metar": "METAR EPRA 071430Z 04007KT 010V090 9999 -SHRA SCT045CB 21/11 Q1018",
      "taf": "TAF EPRA 071430Z 0715/0724 VRB03KT CAVOK"
    },
    {
      "icao": "EPRZ",
      "alert": "OK",
      "vis_m": 9999,
      "fzfg": false,
      "metar_trigger": false,
      "taf_trigger": false,
      "metar": "METAR EPRZ 071430Z VRB04KT CAVOK 25/09 Q1018",
      "taf": "TAF EPRZ 071130Z 0712/0812 13004KT CAVOK"
    },
    {
      "icao": "EPSC",
      "alert": "OK",
      "vis_m": 9999,
      "fzfg": false,
      "metar_trigger": false,
      "taf_trigger": false,
      "metar": "METAR EPSC 071430Z 28006KT 9999 FEW002 SCT044CB 18/12 Q1018",
      "taf": "TAF EPSC 071130Z 0712/0812 24008KT CAVOK"
    },
    {
      "icao": "EPSY",
      "alert": "OK",
      "vis_m": 9999,
      "fzfg": false,
      "metar_trigger": false,
      "taf_trigger": false,
      "metar": "METAR EPSY 071430Z 17008KT 130V200 CAVOK 21/11 Q1019",
      "taf": "TAF EPSY 071430Z 0715/0724 VRB05KT CAVOK"
    },
    {
      "icao": "EPWA",
      "alert": "OK",
      "vis_m": 9999,
      "fzfg": false,
      "metar_trigger": false,
      "taf_trigger": false,
      "metar": "METAR EPWA 071430Z 11008KT CAVOK 22/10 Q1018 NOSIG",
      "taf": "TAF EPWA 071430Z 0715/0815 VRB05KT CAVOK"
    },
    {
      "icao": "EPWR",
      "alert": "OK",
      "vis_m": 9999,
      "fzfg": false,
      "metar_trigger": false,
      "taf_trigger": false,
      "metar": "METAR EPWR 071430Z 29018KT CAVOK 24/10 Q1019",
      "taf": "TAF EPWR 071430Z 0715/0815 28015G25KT CAVOK"
    },
    {
      "icao": "ESGG",
      "alert": "OK",
      "vis_m": 9999,
      "fzfg": false,
      "metar_trigger": false,
      "taf_trigger": false,
      "metar": "METAR ESGG 071450Z 21013KT 9999 BKN018CB 17/13 Q1015",
      "taf": "TAF ESGG 071430Z 0715/0815 22014KT 9999 BKN025"
    },
    {
      "icao": "ESKN",
      "alert": "OK",
      "vis_m": 9999,
      "fzfg": false,
      "metar_trigger": false,
      "taf_trigger": false,
      "metar": "METAR ESKN 071450Z 14011KT CAVOK 20/09 Q1016",
      "taf": "TAF ESKN 071430Z 0715/0815 14011KT CAVOK"
    },
    {
      "icao": "ESMS",
      "alert": "OK",
      "vis_m": 9999,
      "fzfg": false,
      "metar_trigger": false,
      "taf_trigger": false,
      "metar": "METAR ESMS 071450Z 20014KT 9999 SCT026CB 19/13 Q1016",
      "taf": "TAF ESMS 071427Z 0715/0815 23008KT 9999 FEW030"
    },
    {
      "icao": "ESSA",
      "alert": "OK",
      "vis_m": 9999,
      "fzfg": false,
      "metar_trigger": false,
      "taf_trigger": false,
      "metar": "METAR ESSA 071450Z 23014KT CAVOK 21/08 Q1015 NOSIG",
      "taf": "TAF ESSA 071430Z 0715/0815 19012KT CAVOK"
    },
    {
      "icao": "EYKA",
      "alert": "OK",
      "vis_m": 9999,
      "fzfg": false,
      "metar_trigger": false,
      "taf_trigger": false,
      "metar": "METAR EYKA 071450Z 35007KT 320V050 CAVOK 24/12 Q1018",
      "taf": "TAF EYKA 071100Z 0712/0812 VRB03KT 9000 NSC"
    },
    {
      "icao": "EYPA",
      "alert": "OK",
      "vis_m": 9999,
      "fzfg": false,
      "metar_trigger": false,
      "taf_trigger": false,
      "metar": "METAR EYPA 071450Z 32003KT 240V010 CAVOK 24/14 Q1017",
      "taf": ""
    },
    {
      "icao": "EYVI",
      "alert": "OK",
      "vis_m": 9999,
      "fzfg": false,
      "metar_trigger": false,
      "taf_trigger": false,
      "metar": "METAR EYVI 071450Z 02006KT 350V070 CAVOK 22/11 Q1018 NOSIG",
      "taf": "TAF EYVI 071100Z 0712/0812 VRB03KT 9000 SCT045"
    },
    {
      "icao": "GCFV",
      "alert": "OK",
      "vis_m": 9999,
      "fzfg": false,
      "metar_trigger": false,
      "taf_trigger": false,
      "metar": "METAR GCFV 071430Z 05019KT 9999 FEW025 23/17 Q1018",
      "taf": "TAF GCFV 071400Z 0715/0815 05017KT 9999 FEW020 TX25/0814Z TN19/0806Z"
    },
    {
      "icao": "GCLP",
      "alert": "OK",
      "vis_m": 9999,
      "fzfg": false,
      "metar_trigger": false,
      "taf_trigger": false,
      "metar": "METAR GCLP 071430Z 01028G39KT 330V040 9999 FEW027 24/17 Q1019 NOSIG",
      "taf": "TAF GCLP 071400Z 0715/0815 01026KT 9999 FEW025 TX25/0814Z TN20/0806Z"
    },
    {
      "icao": "GCTS",
      "alert": "OK",
      "vis_m": 9999,
      "fzfg": false,
      "metar_trigger": false,
      "taf_trigger": false,
      "metar": "METAR GCTS 071430Z 09022KT 9999 FEW025 26/16 Q1019 WS R07 NOSIG",
      "taf": "TAF GCTS 071400Z 0715/0815 09018KT 9999 FEW025 TX27/0814Z TN19/0806Z"
    },
    {
      "icao": "GMAD",
      "alert": "OK",
      "vis_m": 9999,
      "fzfg": false,
      "metar_trigger": false,
      "taf_trigger": false,
      "metar": "METAR GMAD 071430Z 24013KT CAVOK 26/16 Q1014 NOSIG",
      "taf": "TAF GMAD 071100Z 0712/0818 28012KT 8000 NSC"
    },
    {
      "icao": "GMMN",
      "alert": "OK",
      "vis_m": 9999,
      "fzfg": false,
      "metar_trigger": false,
      "taf_trigger": false,
      "metar": "METAR GMMN 071430Z 34012KT CAVOK 28/20 Q1017 NOSIG",
      "taf": "TAF GMMN 071100Z 0712/0818 34010KT CAVOK"
    },
    {
      "icao": "GMMX",
      "alert": "OK",
      "vis_m": 9999,
      "fzfg": false,
      "metar_trigger": false,
      "taf_trigger": false,
      "metar": "METAR GMMX 071430Z VRB04KT CAVOK 35/15 Q1016 NOSIG",
      "taf": "TAF GMMX 071100Z 0712/0818 04006KT 8000 NSC"
    },
    {
      "icao": "HEGN",
      "alert": "OK",
      "vis_m": 9999,
      "fzfg": false,
      "metar_trigger": false,
      "taf_trigger": false,
      "metar": "METAR HEGN 071400Z 36015KT CAVOK 33/11 Q1009 NOSIG",
      "taf": "TAF HEGN 071100Z 0712/0818 35010G20KT CAVOK"
    },
    {
      "icao": "HEMA",
      "alert": "OK",
      "vis_m": 9999,
      "fzfg": false,
      "metar_trigger": false,
      "taf_trigger": false,
      "metar": "METAR HEMA 071400Z 35013KT CAVOK 29/13 Q1010 NOSIG",
      "taf": "TAF HEMA 071100Z 0712/0818 36010G20KT CAVOK"
    },
    {
      "icao": "HESH",
      "alert": "OK",
      "vis_m": 9999,
      "fzfg": false,
      "metar_trigger": false,
      "taf_trigger": false,
      "metar": "METAR HESH 071400Z 01012KT CAVOK 35/10 Q1008 NOSIG",
      "taf": "TAF HESH 071100Z 0712/0818 02010G20KT CAVOK"
    },
    {
      "icao": "HESX",
      "alert": "OK",
      "vis_m": 9999,
      "fzfg": false,
      "metar_trigger": false,
      "taf_trigger": false,
      "metar": "METAR HESX 071400Z 05008KT CAVOK 30/11 Q1014 NOSIG",
      "taf": "TAF HESX 071100Z 0712/0818 34010KT CAVOK"
    },
    {
      "icao": "LATI",
      "alert": "OK",
      "vis_m": 9999,
      "fzfg": false,
      "metar_trigger": false,
      "taf_trigger": false,
      "metar": "METAR LATI 071450Z 31007KT 260V020 CAVOK 28/16 Q1018 NOSIG",
      "taf": "TAF LATI 071100Z 0712/0812 34012KT CAVOK TX32/0812Z TN17/0804Z"
    },
    {
      "icao": "LBPD",
      "alert": "OK",
      "vis_m": 9999,
      "fzfg": false,
      "metar_trigger": false,
      "taf_trigger": false,
      "metar": "METAR LBPD 071430Z AUTO 19006KT 160V220 9999 BKN170/// 25/18 Q1018 NOSIG",
      "taf": "TAF LBPD 071100Z 0712/0812 32010KT 9999 SCT050"
    },
    {
      "icao": "LBSF",
      "alert": "OK",
      "vis_m": 9999,
      "fzfg": false,
      "metar_trigger": false,
      "taf_trigger": false,
      "metar": "METAR LBSF 071430Z 02008KT 330V050 9999 BKN053 26/14 Q1019 NOSIG",
      "taf": "TAF LBSF 071100Z 0712/0812 36010KT 9999 SCT050 SCT070"
    },
    {
      "icao": "LBWN",
      "alert": "OK",
      "vis_m": 9999,
      "fzfg": false,
      "metar_trigger": false,
      "taf_trigger": false,
      "metar": "METAR LBWN 071430Z 12008KT 9999 FEW029 22/18 Q1017 NOSIG",
      "taf": "TAF LBWN 071100Z 0712/0812 13010KT 9999 SCT040"
    },
    {
      "icao": "LCLK",
      "alert": "OK",
      "vis_m": 9999,
      "fzfg": false,
      "metar_trigger": false,
      "taf_trigger": false,
      "metar": "METAR LCLK 071430Z 22015KT 9999 FEW030 28/23 Q1011 NOSIG",
      "taf": "TAF LCLK 071130Z 0712/0812 22017KT 9999 FEW025"
    },
    {
      "icao": "LCPH",
      "alert": "OK",
      "vis_m": 9999,
      "fzfg": false,
      "metar_trigger": false,
      "taf_trigger": false,
      "metar": "METAR LCPH 071430Z 31013KT 250V320 9999 FEW013 26/22 Q1012 NOSIG",
      "taf": "TAF LCPH 071130Z 0712/0812 30015KT 9999 FEW020"
    },
    {
      "icao": "LEAL",
      "alert": "OK",
      "vis_m": 9999,
      "fzfg": false,
      "metar_trigger": false,
      "taf_trigger": false,
      "metar": "METAR LEAL 071430Z 08017G27KT 9999 FEW040 27/17 Q1021 NOSIG",
      "taf": "TAF LEAL 071100Z 0712/0812 08013KT 9999 FEW030 TX28/0712Z TN19/0806Z"
    },
    {
      "icao": "LEBB",
      "alert": "OK",
      "vis_m": 9999,
      "fzfg": false,
      "metar_trigger": false,
      "taf_trigger": false,
      "metar": "METAR LEBB 071430Z VRB06KT 9999 FEW060 26/18 Q1019 NOSIG",
      "taf": "TAF LEBB 071100Z 0712/0812 32008KT 9999 FEW030 TX25/0714Z TN17/0806Z"
    },
    {
      "icao": "LEBL",
      "alert": "OK",
      "vis_m": 9999,
      "fzfg": false,
      "metar_trigger": false,
      "taf_trigger": false,
      "metar": "METAR LEBL 071430Z 16007KT 120V200 9999 FEW012 24/15 Q1022 NOSIG",
      "taf": "TAF LEBL 071100Z 0712/0812 18008KT 9999 FEW020 TX24/0712Z TN18/0806Z"
    },
    {
      "icao": "LECH",
      "alert": "OK",
      "vis_m": 9999,
      "fzfg": false,
      "metar_trigger": false,
      "taf_trigger": false,
      "metar": "METAR LECH 071430Z AUTO 12011KT 090V150 9999 FEW021 22/16 Q1024",
      "taf": "TAF LECH 071100Z 0712/0812 12009KT 9999 FEW020 TX28/0713Z TN16/0806Z"
    },
    {
      "icao": "LEMD",
      "alert": "OK",
      "vis_m": 9999,
      "fzfg": false,
      "metar_trigger": false,
      "taf_trigger": false,
      "metar": "METAR LEMD 071430Z 05002KT 9999 SCT075 31/10 Q1020 NOSIG",
      "taf": "TAF LEMD 071100Z 0712/0818 VRB04KT CAVOK TX33/0716Z TN17/0805Z"
    },
    {
      "icao": "LEMG",
      "alert": "OK",
      "vis_m": 9999,
      "fzfg": false,
      "metar_trigger": false,
      "taf_trigger": false,
      "metar": "METAR LEMG 071430Z 12009KT 080V160 9999 SCT040 25/17 Q1020 NOSIG",
      "taf": "TAF LEMG 071100Z 0712/0812 13010KT 9999 FEW020 TX28/0714Z TN20/0806Z"
    },
    {
      "icao": "LEVC",
      "alert": "OK",
      "vis_m": 9999,
      "fzfg": false,
      "metar_trigger": false,
      "taf_trigger": false,
      "metar": "METAR LEVC 071430Z 09010KT 9999 FEW035 27/16 Q1022 NOSIG",
      "taf": "TAF LEVC 071100Z 0712/0812 10010KT 9999 FEW020 TX26/0712Z TN17/0806Z"
    },
    {
      "icao": "LEXJ",
      "alert": "OK",
      "vis_m": 9999,
      "fzfg": false,
      "metar_trigger": false,
      "taf_trigger": false,
      "metar": "METAR LEXJ 071430Z 05008KT 320V120 9999 SCT029 20/16 Q1020",
      "taf": "TAF LEXJ 071400Z 0715/0815 26005KT 9999 FEW030 TX20/0813Z TN16/0805Z"
    },
    {
      "icao": "LEZG",
      "alert": "OK",
      "vis_m": 9999,
      "fzfg": false,
      "metar_trigger": false,
      "taf_trigger": false,
      "metar": "METAR LEZG 071430Z 10010KT 060V130 CAVOK 32/13 Q1019 NOSIG",
      "taf": "TAF LEZG 071100Z 0712/0812 12010KT 9999 FEW015 TX33/0715Z TN17/0806Z"
    },
    {
      "icao": "LEZL",
      "alert": "OK",
      "vis_m": 9999,
      "fzfg": false,
      "metar_trigger": false,
      "taf_trigger": false,
      "metar": "METAR LEZL 071430Z 23006KT CAVOK 34/13 Q1017 NOSIG",
      "taf": "TAF LEZL 071400Z 0715/0815 VRB03KT CAVOK TX36/0715Z TN19/0806Z"
    },
    {
      "icao": "LFBD",
      "alert": "OK",
      "vis_m": 9999,
      "fzfg": false,
      "metar_trigger": false,
      "taf_trigger": false,
      "metar": "METAR LFBD 071430Z AUTO 12007KT 020V180 CAVOK 26/12 Q1021 NOSIG",
      "taf": "TAF LFBD 071100Z 0712/0818 10005KT CAVOK TX27/0716Z TN16/0805Z"
    },
    {
      "icao": "LFLL",
      "alert": "OK",
      "vis_m": 9999,
      "fzfg": false,
      "metar_trigger": false,
      "taf_trigger": false,
      "metar": "METAR LFLL 071430Z 36004KT 300V060 CAVOK 23/10 Q1023 NOSIG",
      "taf": "TAF LFLL 071100Z 0712/0818 34006KT CAVOK"
    },
    {
      "icao": "LFLS",
      "alert": "OK",
      "vis_m": 9999,
      "fzfg": false,
      "metar_trigger": false,
      "taf_trigger": false,
      "metar": "METAR LFLS 071430Z AUTO 34003KT 340V070 CAVOK 23/11 Q1023 NOSIG",
      "taf": "TAF LFLS 071400Z 0715/0815 01005KT CAVOK"
    },
    {
      "icao": "LFMN",
      "alert": "OK",
      "vis_m": 9999,
      "fzfg": false,
      "metar_trigger": false,
      "taf_trigger": false,
      "metar": "METAR LFMN 071430Z 14006KT 9999 FEW033 BKN260 23/17 Q1021 NOSIG",
      "taf": "TAF LFMN 071400Z 0715/0821 15006KT 9999 FEW023"
    },
    {
      "icao": "LFOB",
      "alert": "OK",
      "vis_m": 9999,
      "fzfg": false,
      "metar_trigger": false,
      "taf_trigger": false,
      "metar": "METAR LFOB 071430Z AUTO 20006KT 130V260 9999 BKN041 21/11 Q1023 NOSIG",
      "taf": "TAF LFOB 071100Z 0712/0812 25007KT 9999 BKN030"
    },
    {
      "icao": "LFPO",
      "alert": "OK",
      "vis_m": 9999,
      "fzfg": false,
      "metar_trigger": false,
      "taf_trigger": false,
      "metar": "METAR LFPO 071430Z VRB04KT 9999 FEW046 SCT260 22/09 Q1023 NOSIG",
      "taf": "TAF LFPO 071100Z 0712/0818 24005KT 9999 BKN035"
    },
    {
      "icao": "LFSB",
      "alert": "OK",
      "vis_m": 9999,
      "fzfg": false,
      "metar_trigger": false,
      "taf_trigger": false,
      "metar": "METAR LFSB 071430Z AUTO 29009KT 260V330 CAVOK 24/10 Q1023 NOSIG",
      "taf": "TAF LFSB 071100Z 0712/0812 28007KT 9999 FEW050"
    },
    {
      "icao": "LGAV",
      "alert": "OK",
      "vis_m": 9999,
      "fzfg": false,
      "metar_trigger": false,
      "taf_trigger": false,
      "metar": "METAR LGAV 071450Z 06008KT 9999 FEW025 29/13 Q1016 NOSIG",
      "taf": "TAF LGAV 071100Z 0712/0812 07010KT 9999 FEW030"
    },
    {
      "icao": "LGTS",
      "alert": "OK",
      "vis_m": 9999,
      "fzfg": false,
      "metar_trigger": false,
      "taf_trigger": false,
      "metar": "METAR LGTS 071450Z 20011KT 9999 FEW025 32/11 Q1015 NOSIG",
      "taf": "TAF LGTS 071100Z 0712/0812 VRB03KT 9999 FEW030"
    },
    {
      "icao": "LHBP",
      "alert": "OK",
      "vis_m": 9999,
      "fzfg": false,
      "metar_trigger": false,
      "taf_trigger": false,
      "metar": "METAR LHBP 071430Z 32013KT CAVOK 29/08 Q1019 NOSIG",
      "taf": "TAF LHBP 071115Z 0712/0812 30010KT CAVOK"
    },
    {
      "icao": "LHDC",
      "alert": "OK",
      "vis_m": 9999,
      "fzfg": false,
      "metar_trigger": false,
      "taf_trigger": false,
      "metar": "METAR LHDC 071415Z AUTO 30007KT 230V020 CAVOK 29/09 Q1018 NOSIG",
      "taf": "TAF LHDC 071415Z 0715/0724 VRB03KT CAVOK"
    },
    {
      "icao": "LIBD",
      "alert": "OK",
      "vis_m": 9999,
      "fzfg": false,
      "metar_trigger": false,
      "taf_trigger": false,
      "metar": "METAR LIBD 071450Z 01008KT 330V050 CAVOK 25/16 Q1020",
      "taf": "TAF LIBD 071100Z 0712/0812 03010KT CAVOK"
    },
    {
      "icao": "LIBG",
      "alert": "OK",
      "vis_m": 9999,
      "fzfg": false,
      "metar_trigger": false,
      "taf_trigger": false,
      "metar": "METAR LIBG 071450Z AUTO 02014KT 9999 NCD 30/12 Q1018",
      "taf": "TAF LIBG 071100Z 0712/0812 35012KT CAVOK"
    },
    {
      "icao": "LIBP",
      "alert": "OK",
      "vis_m": 9999,
      "fzfg": false,
      "metar_trigger": false,
      "taf_trigger": false,
      "metar": "METAR LIBP 071450Z AUTO 08007KT 030V120 9999 NCD 26/16 Q1020",
      "taf": "TAF LIBP 071100Z 0712/0812 05012KT 9999 SCT060"
    },
    {
      "icao": "LIBR",
      "alert": "OK",
      "vis_m": 9999,
      "fzfg": false,
      "metar_trigger": false,
      "taf_trigger": false,
      "metar": "METAR LIBR 071450Z 34012KT CAVOK 24/20 Q1019",
      "taf": "TAF LIBR 071100Z 0712/0812 34013KT CAVOK"
    },
    {
      "icao": "LICA",
      "alert": "OK",
      "vis_m": 9999,
      "fzfg": false,
      "metar_trigger": false,
      "taf_trigger": false,
      "metar": "METAR LICA 071450Z AUTO 25012KT 9999 NCD 25/20 Q1020",
      "taf": "TAF LICA 071100Z 0712/0812 27013KT CAVOK"
    },
    {
      "icao": "LICC",
      "alert": "OK",
      "vis_m": 9999,
      "fzfg": false,
      "metar_trigger": false,
      "taf_trigger": false,
      "metar": "METAR LICC 071450Z 08012KT CAVOK 26/18 Q1019",
      "taf": "TAF LICC 071100Z 0712/0812 08014KT CAVOK"
    },
    {
      "icao": "LICJ",
      "alert": "OK",
      "vis_m": 9999,
      "fzfg": false,
      "metar_trigger": false,
      "taf_trigger": false,
      "metar": "METAR LICJ 071450Z 04016KT CAVOK 25/18 Q1020",
      "taf": "TAF LICJ 071100Z 0712/0812 05013KT CAVOK"
    },
    {
      "icao": "LIMC",
      "alert": "OK",
      "vis_m": 9999,
      "fzfg": false,
      "metar_trigger": false,
      "taf_trigger": false,
      "metar": "METAR LIMC 071450Z VRB04KT 9999 FEW050 27/14 Q1021 NOSIG",
      "taf": "TAF LIMC 071100Z 0712/0818 VRB05KT 9999 SCT060"
    },
    {
      "icao": "LIME",
      "alert": "OK",
      "vis_m": 9999,
      "fzfg": false,
      "metar_trigger": false,
      "taf_trigger": false,
      "metar": "METAR LIME 071450Z 25006KT 190V300 9999 SCT050 27/15 Q1020 NOSIG",
      "taf": "TAF LIME 071100Z 0712/0812 VRB05KT 9999 FEW060"
    },
    {
      "icao": "LIMF",
      "alert": "OK",
      "vis_m": 9999,
      "fzfg": false,
      "metar_trigger": false,
      "taf_trigger": false,
      "metar": "METAR LIMF 071450Z VRB03KT 9999 SCT040 27/16 Q1020",
      "taf": "TAF LIMF 071100Z 0712/0812 VRB05KT 9999 FEW050"
    },
    {
      "icao": "LIMJ",
      "alert": "OK",
      "vis_m": 9999,
      "fzfg": false,
      "metar_trigger": false,
      "taf_trigger": false,
      "metar": "METAR LIMJ 071450Z 21004KT CAVOK 22/16 Q1021",
      "taf": "TAF LIMJ 071100Z 0712/0812 19012KT 9999 FEW030"
    },
    {
      "icao": "LIPE",
      "alert": "OK",
      "vis_m": 9999,
      "fzfg": false,
      "metar_trigger": false,
      "taf_trigger": false,
      "metar": "METAR LIPE 071450Z 06005KT 360V110 CAVOK 30/13 Q1019",
      "taf": "TAF LIPE 071100Z 0712/0812 09012KT CAVOK"
    },
    {
      "icao": "LIPH",
      "alert": "OK",
      "vis_m": 9999,
      "fzfg": false,
      "metar_trigger": false,
      "taf_trigger": false,
      "metar": "METAR LIPH 071450Z 21005KT 180V250 9999 FEW050 29/18 Q1019",
      "taf": "TAF LIPH 071100Z 0712/0812 VRB05KT CAVOK"
    },
    {
      "icao": "LIPQ",
      "alert": "OK",
      "vis_m": 9999,
      "fzfg": false,
      "metar_trigger": false,
      "taf_trigger": false,
      "metar": "METAR LIPQ 071450Z AUTO 25008KT 9999 NCD 29/16 Q1019",
      "taf": "TAF LIPQ 071100Z 0712/0812 22010KT CAVOK"
    },
    {
      "icao": "LIPR",
      "alert": "OK",
      "vis_m": 9999,
      "fzfg": false,
      "metar_trigger": false,
      "taf_trigger": false,
      "metar": "METAR LIPR 071450Z 10007KT 060V120 CAVOK 24/19 Q1020",
      "taf": "TAF LIPR 071100Z 0712/0812 06010KT CAVOK"
    },
    {
      "icao": "LIPX",
      "alert": "OK",
      "vis_m": 9999,
      "fzfg": false,
      "metar_trigger": false,
      "taf_trigger": false,
      "metar": "METAR LIPX 071450Z VRB02KT CAVOK 28/16 Q1020",
      "taf": "TAF LIPX 071100Z 0712/0812 VRB05KT CAVOK"
    },
    {
      "icao": "LIPY",
      "alert": "OK",
      "vis_m": 9999,
      "fzfg": false,
      "metar_trigger": false,
      "taf_trigger": false,
      "metar": "METAR LIPY 071450Z AUTO 05008KT 9999 NCD 25/17 Q1020",
      "taf": "TAF LIPY 071100Z 0712/0812 03010KT CAVOK"
    },
    {
      "icao": "LIPZ",
      "alert": "OK",
      "vis_m": 9999,
      "fzfg": false,
      "metar_trigger": false,
      "taf_trigger": false,
      "metar": "METAR LIPZ 071450Z 16004KT 130V190 CAVOK 27/18 Q1020 NOSIG",
      "taf": "TAF LIPZ 071100Z 0712/0818 15010KT CAVOK"
    },
    {
      "icao": "LIRF",
      "alert": "OK",
      "vis_m": 9999,
      "fzfg": false,
      "metar_trigger": false,
      "taf_trigger": false,
      "metar": "METAR LIRF 071450Z 29013KT CAVOK 26/17 Q1020 NOSIG",
      "taf": "TAF LIRF 071100Z 0712/0818 28012KT CAVOK"
    },
    {
      "icao": "LIRN",
      "alert": "OK",
      "vis_m": 9999,
      "fzfg": false,
      "metar_trigger": false,
      "taf_trigger": false,
      "metar": "METAR LIRN 071450Z 27008KT 180V320 CAVOK 28/14 Q1020 NOSIG",
      "taf": "TAF LIRN 071100Z 0712/0812 26012KT CAVOK"
    },
    {
      "icao": "LIRP",
      "alert": "OK",
      "vis_m": 9999,
      "fzfg": false,
      "metar_trigger": false,
      "taf_trigger": false,
      "metar": "METAR LIRP 071445Z 28010KT CAVOK 25/14 Q1021 NOSIG",
      "taf": "TAF LIRP 071100Z 0712/0812 29010KT 9999 FEW020"
    },
    {
      "icao": "LIRZ",
      "alert": "OK",
      "vis_m": 9999,
      "fzfg": false,
      "metar_trigger": false,
      "taf_trigger": false,
      "metar": "METAR LIRZ 071450Z AUTO 01006KT 290V060 9999 NCD 29/11 Q1020",
      "taf": "TAF LIRZ 071100Z 0712/0812 VRB06KT 9999 FEW050"
    },
    {
      "icao": "LJLJ",
      "alert": "OK",
      "vis_m": 9999,
      "fzfg": false,
      "metar_trigger": false,
      "taf_trigger": false,
      "metar": "METAR LJLJ 071430Z 07008KT 9999 FEW060 BKN120 24/16 Q1021 NOSIG",
      "taf": "TAF LJLJ 071100Z 0712/0812 10005KT 9999 FEW060"
    },
    {
      "icao": "LKMT",
      "alert": "OK",
      "vis_m": 9999,
      "fzfg": false,
      "metar_trigger": false,
      "taf_trigger": false,
      "metar": "METAR LKMT 071430Z 11004KT 020V180 CAVOK 23/13 Q1020 NOSIG",
      "taf": "TAF LKMT 071100Z 0712/0812 33008KT 9999 SCT045"
    },
    {
      "icao": "LKPR",
      "alert": "OK",
      "vis_m": 9999,
      "fzfg": false,
      "metar_trigger": false,
      "taf_trigger": false,
      "metar": "METAR LKPR 071430Z 28011KT CAVOK 21/08 Q1021 NOSIG",
      "taf": "TAF LKPR 071400Z 0715/0821 27012KT CAVOK"
    },
    {
      "icao": "LLBG",
      "alert": "OK",
      "vis_m": 9999,
      "fzfg": false,
      "metar_trigger": false,
      "taf_trigger": false,
      "metar": "METAR LLBG 071450Z 31010KT 9999 FEW020 26/19 Q1013 NOSIG",
      "taf": "TAF LLBG 071108Z 0712/0812 29010KT CAVOK TX29/0712Z TN20/0803Z"
    },
    {
      "icao": "LMML",
      "alert": "OK",
      "vis_m": 9999,
      "fzfg": false,
      "metar_trigger": false,
      "taf_trigger": false,
      "metar": "METAR LMML 071445Z 03009KT 350V060 CAVOK 28/21 Q1019 NOSIG",
      "taf": "TAF LMML 071100Z 0712/0812 08006KT 9999 FEW015"
    },
    {
      "icao": "LOWW",
      "alert": "OK",
      "vis_m": 9999,
      "fzfg": false,
      "metar_trigger": false,
      "taf_trigger": false,
      "metar": "METAR LOWW 071450Z 36009KT 330V030 CAVOK 27/12 Q1021 NOSIG",
      "taf": "TAF LOWW 071415Z 0715/0821 30011KT CAVOK TX27/0814Z TN14/0803Z"
    },
    {
      "icao": "LPFR",
      "alert": "OK",
      "vis_m": 9999,
      "fzfg": false,
      "metar_trigger": false,
      "taf_trigger": false,
      "metar": "METAR LPFR 071430Z 23008KT 9999 FEW020 25/18 Q1019",
      "taf": "TAF LPFR 071100Z 0712/0812 19008KT CAVOK"
    },
    {
      "icao": "LPMA",
      "alert": "OK",
      "vis_m": 9999,
      "fzfg": false,
      "metar_trigger": false,
      "taf_trigger": false,
      "metar": "METAR LPMA 071430Z 03020KT 350V060 9999 SCT018 22/14 Q1024",
      "taf": "TAF LPMA 071100Z 0712/0812 02015KT 9999 SCT015"
    },
    {
      "icao": "LPPR",
      "alert": "OK",
      "vis_m": 9999,
      "fzfg": false,
      "metar_trigger": false,
      "taf_trigger": false,
      "metar": "METAR LPPR 071430Z 32015KT CAVOK 20/13 Q1021",
      "taf": "TAF LPPR 071100Z 0712/0812 32015KT CAVOK"
    },
    {
      "icao": "LPPS",
      "alert": "OK",
      "vis_m": 9999,
      "fzfg": false,
      "metar_trigger": false,
      "taf_trigger": false,
      "metar": "METAR LPPS 071430Z 02014KT 360V060 9999 FEW015 BKN030 20/14 Q1025",
      "taf": "TAF LPPS 071100Z 0712/0818 02015KT 9999 SCT015 BKN030"
    },
    {
      "icao": "LPPT",
      "alert": "OK",
      "vis_m": 9999,
      "fzfg": false,
      "metar_trigger": false,
      "taf_trigger": false,
      "metar": "METAR LPPT 071430Z 32012KT 280V340 CAVOK 25/14 Q1020",
      "taf": "TAF LPPT 071100Z 0712/0818 31012KT CAVOK"
    },
    {
      "icao": "LQBK",
      "alert": "OK",
      "vis_m": 9999,
      "fzfg": false,
      "metar_trigger": false,
      "taf_trigger": false,
      "metar": "METAR LQBK 071430Z VRB03KT 9999 SCT045 28/14 Q1020 NOSIG",
      "taf": "TAF LQBK 071100Z 0712/0812 35005KT 9999 SCT040 TX28/0714Z TN15/0804Z"
    },
    {
      "icao": "LQSA",
      "alert": "OK",
      "vis_m": 9999,
      "fzfg": false,
      "metar_trigger": false,
      "taf_trigger": false,
      "metar": "METAR LQSA 071430Z 30006KT 220V020 9999 SCT060 27/14 Q1020 NOSIG",
      "taf": "TAF LQSA 071100Z 0712/0812 VRB02KT 9999 SCT055 TX28/0714Z TN14/0803Z"
    },
    {
      "icao": "LQTZ",
      "alert": "OK",
      "vis_m": 9999,
      "fzfg": false,
      "metar_trigger": false,
      "taf_trigger": false,
      "metar": "METAR LQTZ 071430Z 04005KT 350V090 9999 SCT045 26/17 Q1020",
      "taf": "TAF LQTZ 071100Z 0712/0812 05006KT 9999 SCT040 TX26/0714Z TN12/0803Z"
    },
    {
      "icao": "LRBC",
      "alert": "OK",
      "vis_m": 9999,
      "fzfg": false,
      "metar_trigger": false,
      "taf_trigger": false,
      "metar": "METAR LRBC 071430Z 28006KT 9999 FEW018 SCT025 FEW038CB 22/18 Q1018",
      "taf": "TAF LRBC 071400Z 0715/0724 34009KT 9999 BKN025"
    },
    {
      "icao": "LRBS",
      "alert": "OK",
      "vis_m": 9999,
      "fzfg": false,
      "metar_trigger": false,
      "taf_trigger": false,
      "metar": "METAR LRBS 071430Z 35006KT 310V040 9999 FEW037 SCT050CB 25/19 Q1017 NOSIG",
      "taf": "TAF LRBS 071100Z 0712/0812 VRB04KT 9999 BKN035"
    },
    {
      "icao": "LRBV",
      "alert": "OK",
      "vis_m": 9999,
      "fzfg": false,
      "metar_trigger": false,
      "taf_trigger": false,
      "metar": "METAR LRBV 071430Z 28010KT 250V310 9999 FEW067 21/13 Q1019",
      "taf": "TAF LRBV 071400Z 0715/0724 30010KT CAVOK"
    },
    {
      "icao": "LRCL",
      "alert": "OK",
      "vis_m": 9999,
      "fzfg": false,
      "metar_trigger": false,
      "taf_trigger": false,
      "metar": "METAR LRCL 071430Z COR 31007KT 250V020 9999 SCT054 27/12 Q1019",
      "taf": "TAF LRCL 071400Z 0715/0724 30010KT 9999 SCT050"
    },
    {
      "icao": "LRCV",
      "alert": "OK",
      "vis_m": 9999,
      "fzfg": false,
      "metar_trigger": false,
      "taf_trigger": false,
      "metar": "METAR LRCV 071430Z 31009KT 280V340 CAVOK 29/14 Q1017",
      "taf": "TAF LRCV 071400Z 0715/0724 31010KT CAVOK"
    },
    {
      "icao": "LRIA",
      "alert": "OK",
      "vis_m": 9999,
      "fzfg": false,
      "metar_trigger": false,
      "taf_trigger": false,
      "metar": "METAR LRIA 071430Z 30007KT 270V330 9999 BKN020 21/15 Q1017",
      "taf": "TAF LRIA 071400Z 0715/0724 32008KT 9999 BKN020"
    },
    {
      "icao": "LROP",
      "alert": "OK",
      "vis_m": 9999,
      "fzfg": false,
      "metar_trigger": false,
      "taf_trigger": false,
      "metar": "METAR LROP 071430Z 33006KT CAVOK 25/20 Q1017 NOSIG",
      "taf": "TAF LROP 071100Z 0712/0812 VRB04KT 9999 BKN035"
    },
    {
      "icao": "LRSB",
      "alert": "OK",
      "vis_m": 9999,
      "fzfg": false,
      "metar_trigger": false,
      "taf_trigger": false,
      "metar": "METAR LRSB 071430Z 27005KT 9999 FEW040CB SCT058 22/14 Q1019",
      "taf": "TAF LRSB 071100Z 0712/0812 VRB04KT 9999 SCT040"
    },
    {
      "icao": "LRSM",
      "alert": "OK",
      "vis_m": 9999,
      "fzfg": false,
      "metar_trigger": false,
      "taf_trigger": false,
      "metar": "METAR LRSM 071430Z AUTO 34010KT 9999 NCD 28/11 Q1018",
      "taf": ""
    },
    {
      "icao": "LRSV",
      "alert": "OK",
      "vis_m": 9999,
      "fzfg": false,
      "metar_trigger": false,
      "taf_trigger": false,
      "metar": "METAR LRSV 071430Z 31011KT 9999 SCT025 19/15 Q1018",
      "taf": "TAF LRSV 071400Z 0715/0724 32014KT 9999 SCT025"
    },
    {
      "icao": "LRTM",
      "alert": "OK",
      "vis_m": 9999,
      "fzfg": false,
      "metar_trigger": false,
      "taf_trigger": false,
      "metar": "METAR LRTM 071430Z 28010KT 9999 FEW045 26/16 Q1018",
      "taf": "TAF LRTM 071400Z 0715/0724 29010KT 9999 SCT040"
    },
    {
      "icao": "LRTR",
      "alert": "OK",
      "vis_m": 9999,
      "fzfg": false,
      "metar_trigger": false,
      "taf_trigger": false,
      "metar": "METAR LRTR 071430Z 27009KT CAVOK 28/11 Q1019 NOSIG",
      "taf": "TAF LRTR 071100Z 0712/0812 VRB04KT CAVOK"
    },
    {
      "icao": "LTAC",
      "alert": "OK",
      "vis_m": 9999,
      "fzfg": false,
      "metar_trigger": false,
      "taf_trigger": false,
      "metar": "METAR LTAC 071450Z 35003KT 280V040 9999 BKN040 27/08 Q1017 NOSIG RMK RWY21C 03007KT RWY03L 02003KT 310V080 RWY21R 03006KT RWY03R 25004KT 210V270 RWY21L 01004KT 320V090",
      "taf": "TAF LTAC 071040Z 0712/0812 03008KT 9999 SCT040"
    },
    {
      "icao": "LTFM",
      "alert": "OK",
      "vis_m": 9999,
      "fzfg": false,
      "metar_trigger": false,
      "taf_trigger": false,
      "metar": "METAR LTFM 071450Z 05013KT CAVOK 23/18 Q1017 NOSIG RMK RWY17L 06012KT RWY34L 04011KT 010V070 RWY16R 04011KT RWY36 05013KT RWY18 06012KT 030V090",
      "taf": "TAF LTFM 071040Z 0712/0818 05012KT CAVOK"
    },
    {
      "icao": "LUKK",
      "alert": "OK",
      "vis_m": 9999,
      "fzfg": false,
      "metar_trigger": false,
      "taf_trigger": false,
      "metar": "METAR LUKK 071430Z 29010KT 9999 BKN024 20/16 Q1017 NOSIG",
      "taf": "TAF LUKK 071114Z 0712/0812 33012KT 9999 SCT030"
    },
    {
      "icao": "LWOH",
      "alert": "OK",
      "vis_m": 9999,
      "fzfg": false,
      "metar_trigger": false,
      "taf_trigger": false,
      "metar": "METAR LWOH 071420Z 17005KT 140V200 9999 FEW040 26/15 Q1020",
      "taf": "TAF LWOH 071440Z 0715/0815 16008KT 9999 FEW040"
    },
    {
      "icao": "LWSK",
      "alert": "OK",
      "vis_m": 9999,
      "fzfg": false,
      "metar_trigger": false,
      "taf_trigger": false,
      "metar": "METAR LWSK 071500Z 03014KT 9999 FEW050 29/15 Q1017 NOSIG",
      "taf": "TAF LWSK 071440Z 0715/0815 36012KT 9999 SCT050"
    },
    {
      "icao": "LYBE",
      "alert": "OK",
      "vis_m": 9999,
      "fzfg": false,
      "metar_trigger": false,
      "taf_trigger": false,
      "metar": "METAR LYBE 071430Z 27006KT 190V330 CAVOK 27/15 Q1020 NOSIG",
      "taf": "TAF LYBE 071100Z 0712/0812 32007KT CAVOK TX29/0812Z TN16/0803Z"
    },
    {
      "icao": "LYNI",
      "alert": "OK",
      "vis_m": 9999,
      "fzfg": false,
      "metar_trigger": false,
      "taf_trigger": false,
      "metar": "METAR LYNI 071430Z 31013KT 280V340 9999 FEW033 27/14 Q1019 NOSIG",
      "taf": "TAF LYNI 071100Z 0712/0812 32011KT 9999 SCT040 TX29/0812Z TN14/0803Z"
    },
    {
      "icao": "LYPG",
      "alert": "OK",
      "vis_m": 9999,
      "fzfg": false,
      "metar_trigger": false,
      "taf_trigger": false,
      "metar": "METAR LYPG 071430Z 15007KT 110V180 9999 FEW034 31/17 Q1016 NOSIG",
      "taf": "TAF LYPG 071100Z 0712/0812 18007KT 9999 FEW040 TX31/0714Z TN19/0803Z"
    },
    {
      "icao": "LZIB",
      "alert": "OK",
      "vis_m": 9999,
      "fzfg": false,
      "metar_trigger": false,
      "taf_trigger": false,
      "metar": "METAR LZIB 071430Z 31012KT CAVOK 26/10 Q1021 NOSIG",
      "taf": "TAF LZIB 071115Z 0712/0812 31009KT CAVOK"
    },
    {
      "icao": "LZKZ",
      "alert": "OK",
      "vis_m": 9999,
      "fzfg": false,
      "metar_trigger": false,
      "taf_trigger": false,
      "metar": "METAR LZKZ 071430Z 21005KT 180V250 CAVOK 21/15 Q1019 NOSIG",
      "taf": "TAF LZKZ 071115Z 0712/0812 19004KT CAVOK"
    },
    {
      "icao": "LZTT",
      "alert": "OK",
      "vis_m": 9999,
      "fzfg": false,
      "metar_trigger": false,
      "taf_trigger": false,
      "metar": "METAR LZTT 071430Z VRB04KT 9999 FEW056 22/08 Q1020 TEMPO SHRA FEW030CB",
      "taf": "TAF LZTT 071115Z 0712/0812 27009KT 9999 FEW030"
    },
    {
      "icao": "OEJN",
      "alert": "OK",
      "vis_m": 9999,
      "fzfg": false,
      "metar_trigger": false,
      "taf_trigger": false,
      "metar": "METAR OEJN 071400Z 32014KT CAVOK 38/13 Q1007 NOSIG",
      "taf": "TAF OEJN 071100Z 0712/0818 33014KT 9999 FEW040"
    },
    {
      "icao": "OEMA",
      "alert": "OK",
      "vis_m": 9999,
      "fzfg": false,
      "metar_trigger": false,
      "taf_trigger": false,
      "metar": "METAR OEMA 071400Z 24013KT CAVOK 42/M05 Q1011 NOSIG",
      "taf": "TAF OEMA 071100Z 0712/0818 30014KT 7000 NSC"
    },
    {
      "icao": "OJAI",
      "alert": "OK",
      "vis_m": 5000,
      "fzfg": false,
      "metar_trigger": false,
      "taf_trigger": false,
      "metar": "METAR OJAI 071400Z 28011KT 5000 HZ NSC 29/05 Q1015 NOSIG",
      "taf": "TAF OJAI 071100Z 0712/0818 29008KT 5000 HZ NSC"
    },
    {
      "icao": "OMAA",
      "alert": "OK",
      "vis_m": 9999,
      "fzfg": false,
      "metar_trigger": false,
      "taf_trigger": false,
      "metar": "METAR OMAA 071430Z 33012KT CAVOK 34/25 Q1003 NOSIG",
      "taf": "TAF OMAA 071100Z 0712/0818 33012KT 8000 NSC"
    },
    {
      "icao": "OMDB",
      "alert": "OK",
      "vis_m": 9999,
      "fzfg": false,
      "metar_trigger": false,
      "taf_trigger": false,
      "metar": "METAR OMDB 071430Z 33007KT 300V020 CAVOK 36/23 Q1003 NOSIG",
      "taf": "TAF OMDB 071100Z 0712/0818 30010KT CAVOK"
    },
    {
      "icao": "UAAA",
      "alert": "OK",
      "vis_m": 9999,
      "fzfg": false,
      "metar_trigger": false,
      "taf_trigger": false,
      "metar": "METAR UAAA 071430Z 12002MPS 9999 FEW100 BKN200 24/12 Q1016 NOSIG",
      "taf": "TAF UAAA 071104Z 0712/0812 16002G07MPS 9999 FEW050CB SCT100 TX28/0809Z TN15/0801Z"
    },
    {
      "icao": "UBBB",
      "alert": "OK",
      "vis_m": 9999,
      "fzfg": false,
      "metar_trigger": false,
      "taf_trigger": false,
      "metar": "METAR UBBB 071430Z 04006KT CAVOK 24/16 Q1015 NOSIG",
      "taf": "TAF UBBB 071055Z 0712/0812 03006KT 9999 SCT030 TX26/0712Z TN17/0800Z"
    },
    {
      "icao": "UDSG",
      "alert": "OK",
      "vis_m": 9999,
      "fzfg": false,
      "metar_trigger": false,
      "taf_trigger": false,
      "metar": "METAR UDSG 071430Z 04007KT 9999 FEW049 22/05 Q1018 NOSIG",
      "taf": "TAF UDSG 071058Z 0712/0812 24006KT 9999 FEW050"
    },
    {
      "icao": "UDYZ",
      "alert": "OK",
      "vis_m": 9999,
      "fzfg": false,
      "metar_trigger": false,
      "taf_trigger": false,
      "metar": "METAR UDYZ 071430Z 22009KT 9999 FEW043CB 28/07 Q1013 NOSIG",
      "taf": ""
    },
    {
      "icao": "UGKO",
      "alert": "OK",
      "vis_m": 9999,
      "fzfg": false,
      "metar_trigger": false,
      "taf_trigger": false,
      "metar": "METAR UGKO 071430Z 27014KT CAVOK 25/15 Q1014 NOSIG",
      "taf": "TAF UGKO 071100Z 0712/0812 25006KT CAVOK TX27/0811Z TN14/0802Z"
    }
  ]
}