{
  "ts_utc": "2026-04-28T23:33:36Z",
  "threshold_m": 150,
  "source": "stations_override.txt (ICAO list) + aviationweather.gov (METAR/TAF raw)",
  "station_count": 159,
  "stations": [
    {
      "icao": "BIKF",
      "alert": "OK",
      "vis_m": 9999,
      "fzfg": false,
      "metar_trigger": false,
      "taf_trigger": false,
      "metar": "METAR BIKF 282300Z 20027G39KT 9999 -DZRA BKN027 BKN044 05/02 Q1009",
      "taf": "TAF BIKF 281657Z 2818/2918 20023G33KT 9999 -SHRA FEW010 BKN025 TX07/2818Z TN05/2906Z"
    },
    {
      "icao": "BKPR",
      "alert": "OK",
      "vis_m": 9999,
      "fzfg": false,
      "metar_trigger": false,
      "taf_trigger": false,
      "metar": "METAR BKPR 282330Z 29006KT CAVOK 12/04 Q1017 NOSIG",
      "taf": "TAF BKPR 281730Z 2818/2918 36008KT 9999 SCT060"
    },
    {
      "icao": "EBCI",
      "alert": "OK",
      "vis_m": 9999,
      "fzfg": false,
      "metar_trigger": false,
      "taf_trigger": false,
      "metar": "METAR EBCI 282320Z 06011KT CAVOK 12/02 Q1021 NOSIG",
      "taf": "TAF EBCI 281700Z 2818/2924 05015G25KT CAVOK"
    },
    {
      "icao": "EDDB",
      "alert": "OK",
      "vis_m": 9999,
      "fzfg": false,
      "metar_trigger": false,
      "taf_trigger": false,
      "metar": "METAR EDDB 282320Z AUTO 04007KT CAVOK 06/M02 Q1027 NOSIG",
      "taf": "TAF EDDB 281700Z 2818/2918 05010KT CAVOK"
    },
    {
      "icao": "EDDH",
      "alert": "OK",
      "vis_m": 9999,
      "fzfg": false,
      "metar_trigger": false,
      "taf_trigger": false,
      "metar": "METAR EDDH 282320Z AUTO 04004KT 010V070 CAVOK 06/M01 Q1029 NOSIG",
      "taf": "TAF EDDH 281700Z 2818/2924 04010KT CAVOK"
    },
    {
      "icao": "EDDK",
      "alert": "OK",
      "vis_m": 9999,
      "fzfg": false,
      "metar_trigger": false,
      "taf_trigger": false,
      "metar": "METAR EDDK 282320Z AUTO 06003KT 030V100 CAVOK 09/M00 Q1023 NOSIG",
      "taf": "TAF EDDK 281700Z 2818/2924 06010KT CAVOK"
    },
    {
      "icao": "EDDN",
      "alert": "OK",
      "vis_m": 9999,
      "fzfg": false,
      "metar_trigger": false,
      "taf_trigger": false,
      "metar": "METAR EDDN 282320Z AUTO 36005KT CAVOK 09/01 Q1021",
      "taf": "TAF EDDN 281700Z 2818/2918 05005KT CAVOK"
    },
    {
      "icao": "EDDS",
      "alert": "OK",
      "vis_m": 9999,
      "fzfg": false,
      "metar_trigger": false,
      "taf_trigger": false,
      "metar": "METAR EDDS 282320Z AUTO 05008KT CAVOK 13/02 Q1018",
      "taf": "TAF EDDS 281700Z 2818/2918 05007KT CAVOK"
    },
    {
      "icao": "EDFH",
      "alert": "OK",
      "vis_m": 9999,
      "fzfg": false,
      "metar_trigger": false,
      "taf_trigger": false,
      "metar": "METAR EDFH 282320Z 08007KT 040V120 CAVOK 08/M00 Q1021",
      "taf": "TAF EDFH 281700Z 2818/2918 08011KT CAVOK"
    },
    {
      "icao": "EDJA",
      "alert": "OK",
      "vis_m": 9999,
      "fzfg": false,
      "metar_trigger": false,
      "taf_trigger": false,
      "metar": "METAR EDJA 282320Z AUTO 05008KT 9999 // SCT120/// OVC150/// 12/01 Q1018",
      "taf": "TAF EDJA 281700Z 2818/2903 05010KT CAVOK"
    },
    {
      "icao": "EDLW",
      "alert": "OK",
      "vis_m": 9999,
      "fzfg": false,
      "metar_trigger": false,
      "taf_trigger": false,
      "metar": "METAR EDLW 282320Z AUTO 07007KT 9999 // NCD 07/M00 Q1024",
      "taf": "TAF EDLW 281700Z 2818/2918 06012KT CAVOK"
    },
    {
      "icao": "EDNY",
      "alert": "OK",
      "vis_m": 9999,
      "fzfg": false,
      "metar_trigger": false,
      "taf_trigger": false,
      "metar": "METAR EDNY 282320Z AUTO 05004KT 9999 // BKN110/// OVC130/// 13/05 Q1017",
      "taf": "TAF EDNY 281700Z 2818/2903 04007KT CAVOK"
    },
    {
      "icao": "EDSB",
      "alert": "OK",
      "vis_m": 9999,
      "fzfg": false,
      "metar_trigger": false,
      "taf_trigger": false,
      "metar": "METAR EDSB 282320Z AUTO 03014KT 9999 // FEW190/// BKN230/// 15/03 Q1018",
      "taf": "TAF EDSB 281700Z 2818/2918 03012KT CAVOK"
    },
    {
      "icao": "EETN",
      "alert": "OK",
      "vis_m": 9999,
      "fzfg": false,
      "metar_trigger": false,
      "taf_trigger": false,
      "metar": "METAR EETN 282250Z 34008KT 310V010 CAVOK 03/M05 Q1022",
      "taf": "TAF EETN 281730Z 2818/2918 36012KT 9999 SCT045"
    },
    {
      "icao": "EFTU",
      "alert": "OK",
      "vis_m": 9999,
      "fzfg": false,
      "metar_trigger": false,
      "taf_trigger": false,
      "metar": "METAR EFTU 282320Z AUTO 32004KT 280V350 CAVOK M02/M08 Q1025",
      "taf": "TAF EFTU 281730Z 2818/2918 02010KT CAVOK"
    },
    {
      "icao": "EGBB",
      "alert": "OK",
      "vis_m": 9999,
      "fzfg": false,
      "metar_trigger": false,
      "taf_trigger": false,
      "metar": "METAR EGBB 282320Z 03008KT CAVOK 07/03 Q1028",
      "taf": "TAF EGBB 281702Z 2818/2918 05013KT 9999 FEW030"
    },
    {
      "icao": "EGGP",
      "alert": "OK",
      "vis_m": 9999,
      "fzfg": false,
      "metar_trigger": false,
      "taf_trigger": false,
      "metar": "METAR EGGP 282320Z 05007KT CAVOK 07/02 Q1029",
      "taf": "TAF EGGP 281702Z 2818/2918 04009KT CAVOK"
    },
    {
      "icao": "EGGW",
      "alert": "OK",
      "vis_m": 9999,
      "fzfg": false,
      "metar_trigger": false,
      "taf_trigger": false,
      "metar": "METAR EGGW 282320Z AUTO 03014KT 9999 NCD 06/02 Q1025",
      "taf": "TAF EGGW 281711Z 2818/2918 03012KT CAVOK"
    },
    {
      "icao": "EGKK",
      "alert": "OK",
      "vis_m": 9999,
      "fzfg": false,
      "metar_trigger": false,
      "taf_trigger": false,
      "metar": "METAR EGKK 282320Z 03011KT CAVOK 08/04 Q1023",
      "taf": "TAF EGKK 281653Z 2818/2924 06013KT CAVOK"
    },
    {
      "icao": "EGNM",
      "alert": "OK",
      "vis_m": 9999,
      "fzfg": false,
      "metar_trigger": false,
      "taf_trigger": false,
      "metar": "METAR EGNM 282320Z 03006KT CAVOK 04/02 Q1030",
      "taf": "TAF EGNM 281703Z 2818/2918 04009KT 9999 FEW030"
    },
    {
      "icao": "EGPD",
      "alert": "OK",
      "vis_m": 9999,
      "fzfg": false,
      "metar_trigger": false,
      "taf_trigger": false,
      "metar": "METAR EGPD 282320Z COR AUTO 17006KT 9999 NCD 04/02 Q1032 NOSIG",
      "taf": "TAF EGPD 281654Z 2818/2918 14005KT 9999 FEW025"
    },
    {
      "icao": "EGPF",
      "alert": "OK",
      "vis_m": 9999,
      "fzfg": false,
      "metar_trigger": false,
      "taf_trigger": false,
      "metar": "METAR EGPF 282320Z AUTO 07005KT 9999 NCD 06/04 Q1032",
      "taf": "TAF EGPF 281656Z 2818/2918 09006KT CAVOK"
    },
    {
      "icao": "EHBK",
      "alert": "OK",
      "vis_m": 9999,
      "fzfg": false,
      "metar_trigger": false,
      "taf_trigger": false,
      "metar": "METAR EHBK 282325Z AUTO 06012KT 9999 NCD 11/M00 Q1022",
      "taf": "TAF EHBK 281659Z 2818/2924 06014KT CAVOK"
    },
    {
      "icao": "EHEH",
      "alert": "OK",
      "vis_m": 9999,
      "fzfg": false,
      "metar_trigger": false,
      "taf_trigger": false,
      "metar": "METAR EHEH 282325Z AUTO 06011KT 030V100 9999 NCD 12/M02 Q1023 BLU",
      "taf": "TAF EHEH 281704Z 2818/2924 06012KT CAVOK"
    },
    {
      "icao": "EKBI",
      "alert": "OK",
      "vis_m": 9999,
      "fzfg": false,
      "metar_trigger": false,
      "taf_trigger": false,
      "metar": "METAR EKBI 282320Z AUTO 03002KT 9999 NCD 04/M02 Q1030",
      "taf": "TAF EKBI 281727Z 2818/2918 02005KT CAVOK"
    },
    {
      "icao": "EKCH",
      "alert": "OK",
      "vis_m": 9999,
      "fzfg": false,
      "metar_trigger": false,
      "taf_trigger": false,
      "metar": "METAR EKCH 282320Z AUTO 04006KT 9999 NCD 05/01 Q1029 NOSIG",
      "taf": "TAF EKCH 281727Z 2818/2918 34015KT CAVOK"
    },
    {
      "icao": "ENAL",
      "alert": "OK",
      "vis_m": 9999,
      "fzfg": false,
      "metar_trigger": false,
      "taf_trigger": false,
      "metar": "METAR ENAL 282320Z AUTO 25009KT 9999 NCD 07/06 Q1030",
      "taf": "TAF ENAL 281700Z 2818/2903 24008KT 9999 FEW010 BKN015"
    },
    {
      "icao": "ENBR",
      "alert": "OK",
      "vis_m": 9999,
      "fzfg": false,
      "metar_trigger": false,
      "taf_trigger": false,
      "metar": "METAR ENBR 282320Z 33007KT 9999 FEW007 BKN010 08/06 Q1031 RMK WIND 1200FT 36010KT",
      "taf": ""
    },
    {
      "icao": "ENGM",
      "alert": "OK",
      "vis_m": 9999,
      "fzfg": false,
      "metar_trigger": false,
      "taf_trigger": false,
      "metar": "METAR ENGM 282320Z 02005KT CAVOK 07/M01 Q1028",
      "taf": "TAF ENGM 281700Z 2818/2918 01005KT CAVOK"
    },
    {
      "icao": "ENHD",
      "alert": "OK",
      "vis_m": 9999,
      "fzfg": false,
      "metar_trigger": false,
      "taf_trigger": false,
      "metar": "METAR ENHD 282320Z AUTO 35014KT 9999 OVC003/// 08/07 Q1031",
      "taf": "TAF ENHD 281400Z 2815/2822 33012KT CAVOK"
    },
    {
      "icao": "ENTC",
      "alert": "OK",
      "vis_m": 9999,
      "fzfg": false,
      "metar_trigger": false,
      "taf_trigger": false,
      "metar": "METAR ENTC 282320Z AUTO VRB02KT 9999 NCD 00/M05 Q1025 RMK WIND 2600FT 18017KT",
      "taf": "TAF ENTC 281700Z 2818/2918 VRB03KT 9999 FEW015 BKN035"
    },
    {
      "icao": "ENTO",
      "alert": "OK",
      "vis_m": 9999,
      "fzfg": false,
      "metar_trigger": false,
      "taf_trigger": false,
      "metar": "METAR ENTO 282320Z AUTO 00000KT 9999 NCD 04/01 Q1029",
      "taf": "TAF ENTO 281700Z 2818/2918 23010KT CAVOK"
    },
    {
      "icao": "ENVA",
      "alert": "OK",
      "vis_m": 9999,
      "fzfg": false,
      "metar_trigger": false,
      "taf_trigger": false,
      "metar": "METAR ENVA 282320Z 08003KT 050V110 9999 -RA BKN012 06/06 Q1029 RMK WIND 670FT 20009KT",
      "taf": "TAF ENVA 281700Z 2818/2918 24010KT CAVOK"
    },
    {
      "icao": "ENZV",
      "alert": "OK",
      "vis_m": 9999,
      "fzfg": false,
      "metar_trigger": false,
      "taf_trigger": false,
      "metar": "METAR ENZV 282320Z 34007KT 9999 BKN007 08/06 Q1030",
      "taf": "TAF ENZV 281700Z 2818/2918 31010KT CAVOK"
    },
    {
      "icao": "EPGD",
      "alert": "OK",
      "vis_m": 9999,
      "fzfg": false,
      "metar_trigger": false,
      "taf_trigger": false,
      "metar": "METAR EPGD 282300Z 31004KT 260V330 CAVOK M00/M01 Q1028",
      "taf": "TAF EPGD 281730Z 2818/2918 01010KT CAVOK"
    },
    {
      "icao": "EPKK",
      "alert": "OK",
      "vis_m": 9999,
      "fzfg": false,
      "metar_trigger": false,
      "taf_trigger": false,
      "metar": "METAR EPKK 282300Z VRB02KT CAVOK 03/M05 Q1024",
      "taf": "TAF EPKK 281730Z 2818/2918 06010KT CAVOK"
    },
    {
      "icao": "EPKT",
      "alert": "OK",
      "vis_m": 9999,
      "fzfg": false,
      "metar_trigger": false,
      "taf_trigger": false,
      "metar": "METAR EPKT 282300Z VRB01KT CAVOK M02/M07 Q1024",
      "taf": "TAF EPKT 281730Z 2818/2918 04008KT CAVOK"
    },
    {
      "icao": "EPLB",
      "alert": "OK",
      "vis_m": 9999,
      "fzfg": false,
      "metar_trigger": false,
      "taf_trigger": false,
      "metar": "METAR EPLB 282300Z 33005KT CAVOK 02/M03 Q1024",
      "taf": "TAF EPLB 281730Z 2818/2918 36010KT CAVOK"
    },
    {
      "icao": "EPMO",
      "alert": "OK",
      "vis_m": 9999,
      "fzfg": false,
      "metar_trigger": false,
      "taf_trigger": false,
      "metar": "METAR EPMO 282300Z 32004KT CAVOK 01/M07 Q1026",
      "taf": "TAF EPMO 281730Z 2818/2918 36010KT CAVOK"
    },
    {
      "icao": "EPPO",
      "alert": "OK",
      "vis_m": 9999,
      "fzfg": false,
      "metar_trigger": false,
      "taf_trigger": false,
      "metar": "METAR EPPO 282300Z 05006KT CAVOK 04/M06 Q1027",
      "taf": "TAF EPPO 281730Z 2818/2918 03006KT CAVOK"
    },
    {
      "icao": "EPRA",
      "alert": "OK",
      "vis_m": 9999,
      "fzfg": false,
      "metar_trigger": false,
      "taf_trigger": false,
      "metar": "METAR EPRA 282300Z 01002KT CAVOK 06/M06 Q1024",
      "taf": "TAF EPRA 281730Z 2818/2903 34006KT CAVOK"
    },
    {
      "icao": "EPRZ",
      "alert": "OK",
      "vis_m": 9999,
      "fzfg": false,
      "metar_trigger": false,
      "taf_trigger": false,
      "metar": "METAR EPRZ 282300Z VRB02KT CAVOK 00/M05 Q1023",
      "taf": "TAF EPRZ 281730Z 2818/2918 36010KT CAVOK"
    },
    {
      "icao": "EPSC",
      "alert": "OK",
      "vis_m": 9999,
      "fzfg": false,
      "metar_trigger": false,
      "taf_trigger": false,
      "metar": "METAR EPSC 282300Z 02004KT CAVOK 03/M03 Q1028",
      "taf": "TAF EPSC 281730Z 2818/2918 01010KT CAVOK"
    },
    {
      "icao": "EPSY",
      "alert": "OK",
      "vis_m": 9999,
      "fzfg": false,
      "metar_trigger": false,
      "taf_trigger": false,
      "metar": "METAR EPSY 282300Z 33008KT CAVOK 00/M04 Q1025",
      "taf": "TAF EPSY 281730Z 2818/2903 36005KT CAVOK"
    },
    {
      "icao": "EPWA",
      "alert": "OK",
      "vis_m": 9999,
      "fzfg": false,
      "metar_trigger": false,
      "taf_trigger": false,
      "metar": "METAR EPWA 282300Z 01007KT CAVOK 04/M07 Q1025 NOSIG",
      "taf": "TAF EPWA 281730Z 2818/2918 35010KT CAVOK"
    },
    {
      "icao": "EPWR",
      "alert": "OK",
      "vis_m": 9999,
      "fzfg": false,
      "metar_trigger": false,
      "taf_trigger": false,
      "metar": "METAR EPWR 282300Z 30002KT CAVOK 03/M04 Q1025",
      "taf": "TAF EPWR 281730Z 2818/2918 04007KT CAVOK"
    },
    {
      "icao": "ESGG",
      "alert": "OK",
      "vis_m": 9999,
      "fzfg": false,
      "metar_trigger": false,
      "taf_trigger": false,
      "metar": "METAR ESGG 282320Z 31003KT CAVOK 04/M01 Q1029",
      "taf": "TAF ESGG 281730Z 2818/2918 03005KT CAVOK"
    },
    {
      "icao": "ESKN",
      "alert": "OK",
      "vis_m": 9999,
      "fzfg": false,
      "metar_trigger": false,
      "taf_trigger": false,
      "metar": "METAR ESKN 282320Z 11003KT CAVOK 03/M00 Q1028",
      "taf": "TAF ESKN 281730Z 2818/2918 34006KT CAVOK"
    },
    {
      "icao": "ESMS",
      "alert": "OK",
      "vis_m": 9999,
      "fzfg": false,
      "metar_trigger": false,
      "taf_trigger": false,
      "metar": "METAR ESMS 282320Z 12005KT CAVOK 04/01 Q1029",
      "taf": "TAF ESMS 281727Z 2818/2918 14006KT CAVOK"
    },
    {
      "icao": "ESSA",
      "alert": "OK",
      "vis_m": 9999,
      "fzfg": false,
      "metar_trigger": false,
      "taf_trigger": false,
      "metar": "METAR ESSA 282320Z 21002KT CAVOK M00/M06 Q1028 NOSIG",
      "taf": "TAF ESSA 281730Z 2818/2918 04010KT CAVOK"
    },
    {
      "icao": "EYKA",
      "alert": "OK",
      "vis_m": 9999,
      "fzfg": false,
      "metar_trigger": false,
      "taf_trigger": false,
      "metar": "METAR EYKA 282320Z AUTO 30003KT 9999 NCD M01/M06 Q1023",
      "taf": "TAF EYKA 281705Z 2818/2918 32007KT 9000 SCT040"
    },
    {
      "icao": "EYPA",
      "alert": "OK",
      "vis_m": 9999,
      "fzfg": false,
      "metar_trigger": false,
      "taf_trigger": false,
      "metar": "METAR EYPA 282320Z AUTO 01004KT 9999 FEW027/// 00/M04 Q1026",
      "taf": "TAF EYPA 281700Z 2818/2918 35006KT 9000 FEW030"
    },
    {
      "icao": "EYVI",
      "alert": "OK",
      "vis_m": 9999,
      "fzfg": false,
      "metar_trigger": false,
      "taf_trigger": false,
      "metar": "METAR EYVI 282250Z 31004KT CAVOK 00/M07 Q1021 NOSIG",
      "taf": "TAF EYVI 281713Z 2818/2918 33008KT 9000 NSC"
    },
    {
      "icao": "GCFV",
      "alert": "OK",
      "vis_m": 9999,
      "fzfg": false,
      "metar_trigger": false,
      "taf_trigger": false,
      "metar": "METAR GCFV 282300Z AUTO 33011KT 9999 OVC028 19/12 Q1015",
      "taf": "TAF GCFV 281400Z 2815/2915 32010KT 9999 BKN025 TX21/2914Z TN17/2906Z"
    },
    {
      "icao": "GCLP",
      "alert": "OK",
      "vis_m": 9999,
      "fzfg": false,
      "metar_trigger": false,
      "taf_trigger": false,
      "metar": "METAR GCLP 282300Z 34007KT 9999 BKN025 19/14 Q1016 NOSIG",
      "taf": "TAF GCLP 281400Z 2815/2915 03017KT 9999 SCT030 TX23/2914Z TN16/2906Z"
    },
    {
      "icao": "GCTS",
      "alert": "OK",
      "vis_m": 9999,
      "fzfg": false,
      "metar_trigger": false,
      "taf_trigger": false,
      "metar": "METAR GCTS 282300Z 10006KT 9999 BKN030 19/14 Q1016 NOSIG",
      "taf": "TAF GCTS 281400Z 2815/2915 09007KT 9999 BKN030 TX23/2914Z TN15/2906Z"
    },
    {
      "icao": "GMAD",
      "alert": "OK",
      "vis_m": 8000,
      "fzfg": false,
      "metar_trigger": false,
      "taf_trigger": false,
      "metar": "METAR GMAD 282300Z 19009KT 8000 BKN026 17/15 Q1011 NOSIG",
      "taf": "TAF GMAD 281700Z 2818/2924 27012KT 8000 BKN026"
    },
    {
      "icao": "GMMN",
      "alert": "OK",
      "vis_m": 9999,
      "fzfg": false,
      "metar_trigger": false,
      "taf_trigger": false,
      "metar": "METAR GMMN 282300Z 31003KT 280V350 9999 BKN020 17/14 Q1012 NOSIG",
      "taf": "TAF GMMN 281700Z 2818/2924 32008KT 9999 BKN016"
    },
    {
      "icao": "GMMX",
      "alert": "OK",
      "vis_m": 8000,
      "fzfg": false,
      "metar_trigger": false,
      "taf_trigger": false,
      "metar": "METAR GMMX 282300Z 26005KT 230V290 8000 SCT016 BKN023 17/13 Q1012 NOSIG",
      "taf": "TAF GMMX 281700Z 2818/2924 28006KT 8000 SCT026 SCT033"
    },
    {
      "icao": "HEGN",
      "alert": "OK",
      "vis_m": 9999,
      "fzfg": false,
      "metar_trigger": false,
      "taf_trigger": false,
      "metar": "METAR HEGN 282300Z 28008KT CAVOK 22/06 Q1012 NOSIG",
      "taf": "TAF HEGN 281700Z 2818/2924 34006G18KT CAVOK"
    },
    {
      "icao": "HEMA",
      "alert": "OK",
      "vis_m": 9999,
      "fzfg": false,
      "metar_trigger": false,
      "taf_trigger": false,
      "metar": "METAR HEMA 282300Z 31006KT CAVOK 22/06 Q1010 NOSIG",
      "taf": "TAF HEMA 281700Z 2818/2924 34006G18KT CAVOK"
    },
    {
      "icao": "HESH",
      "alert": "OK",
      "vis_m": 9999,
      "fzfg": false,
      "metar_trigger": false,
      "taf_trigger": false,
      "metar": "METAR HESH 282300Z 35010KT CAVOK 25/19 Q1011 NOSIG",
      "taf": "TAF HESH 281700Z 2818/2924 36013KT CAVOK"
    },
    {
      "icao": "HESX",
      "alert": "OK",
      "vis_m": 9999,
      "fzfg": false,
      "metar_trigger": false,
      "taf_trigger": false,
      "metar": "METAR HESX 282300Z 06008KT CAVOK 17/09 Q1014 NOSIG",
      "taf": ""
    },
    {
      "icao": "LATI",
      "alert": "OK",
      "vis_m": 9999,
      "fzfg": false,
      "metar_trigger": false,
      "taf_trigger": false,
      "metar": "METAR LATI 282320Z 15003KT CAVOK 13/08 Q1017 NOSIG",
      "taf": "TAF LATI 281700Z 2818/2918 VRB03KT CAVOK TX27/2912Z TN10/2904Z"
    },
    {
      "icao": "LBPD",
      "alert": "OK",
      "vis_m": 9999,
      "fzfg": false,
      "metar_trigger": false,
      "taf_trigger": false,
      "metar": "METAR LBPD 282330Z AUTO 11005KT 9999 NCD 08/04 Q1018",
      "taf": "TAF LBPD 281700Z 2818/2918 09010KT 9999 SCT060"
    },
    {
      "icao": "LBSF",
      "alert": "OK",
      "vis_m": 9999,
      "fzfg": false,
      "metar_trigger": false,
      "taf_trigger": false,
      "metar": "METAR LBSF 282330Z AUTO 12003KT 9999 SCT088/// 10/06 Q1017 NOSIG",
      "taf": "TAF LBSF 281700Z 2818/2918 VRB04KT 9999 SCT060"
    },
    {
      "icao": "LBWN",
      "alert": "OK",
      "vis_m": 9999,
      "fzfg": false,
      "metar_trigger": false,
      "taf_trigger": false,
      "metar": "METAR LBWN 282330Z AUTO 00000KT 9999 NCD 04/04 Q1019 NOSIG",
      "taf": "TAF LBWN 281700Z 2818/2918 12010KT CAVOK"
    },
    {
      "icao": "LCLK",
      "alert": "OK",
      "vis_m": 9999,
      "fzfg": false,
      "metar_trigger": false,
      "taf_trigger": false,
      "metar": "METAR LCLK 282300Z 12003KT CAVOK 17/16 Q1011 NOSIG",
      "taf": "TAF LCLK 281730Z 2818/2918 22010KT 9999 FEW020"
    },
    {
      "icao": "LCPH",
      "alert": "OK",
      "vis_m": 9999,
      "fzfg": false,
      "metar_trigger": false,
      "taf_trigger": false,
      "metar": "METAR LCPH 282300Z AUTO 02005KT 9999 NCD 15/12 Q1012 NOSIG",
      "taf": "TAF LCPH 281730Z 2818/2918 35007KT 9999 FEW020"
    },
    {
      "icao": "LEAL",
      "alert": "OK",
      "vis_m": 9999,
      "fzfg": false,
      "metar_trigger": false,
      "taf_trigger": false,
      "metar": "METAR LEAL 282300Z 32007KT 290V350 CAVOK 18/13 Q1010 NOSIG",
      "taf": "TAF LEAL 281700Z 2818/2918 08009KT CAVOK TX25/2912Z TN13/2906Z"
    },
    {
      "icao": "LEBB",
      "alert": "OK",
      "vis_m": 9999,
      "fzfg": false,
      "metar_trigger": false,
      "taf_trigger": false,
      "metar": "METAR LEBB 282300Z AUTO VRB01KT 9999 FEW011 SCT022 BKN034 16/15 Q1011",
      "taf": "TAF LEBB 281700Z 2818/2918 30007KT 9999 FEW015 SCT025 TX22/2912Z TN13/2906Z"
    },
    {
      "icao": "LEBL",
      "alert": "OK",
      "vis_m": 9999,
      "fzfg": false,
      "metar_trigger": false,
      "taf_trigger": false,
      "metar": "METAR LEBL 282300Z 09007KT 9999 -DZ SCT015 BKN021 18/17 Q1013 NOSIG",
      "taf": "TAF LEBL 281700Z 2818/2918 07009KT 9999 FEW020 TX21/2912Z TN16/2905Z"
    },
    {
      "icao": "LECH",
      "alert": "OK",
      "vis_m": 9999,
      "fzfg": false,
      "metar_trigger": false,
      "taf_trigger": false,
      "metar": "METAR LECH 282300Z AUTO 03003KT CAVOK 14/12 Q1013",
      "taf": "TAF LECH 281700Z 2818/2918 VRB04KT CAVOK TX25/2913Z TN11/2906Z"
    },
    {
      "icao": "LEMD",
      "alert": "OK",
      "vis_m": 9999,
      "fzfg": false,
      "metar_trigger": false,
      "taf_trigger": false,
      "metar": "METAR LEMD 282300Z 17010KT 150V210 9999 FEW070 17/10 Q1010 NOSIG",
      "taf": "TAF LEMD 281700Z 2818/2924 16006KT CAVOK TX20/2915Z TN11/2906Z"
    },
    {
      "icao": "LEMG",
      "alert": "OK",
      "vis_m": 9999,
      "fzfg": false,
      "metar_trigger": false,
      "taf_trigger": false,
      "metar": "METAR LEMG 282300Z 28005KT CAVOK 15/13 Q1011 NOSIG",
      "taf": "TAF LEMG 281700Z 2818/2918 13010KT 9999 FEW025 TX21/2914Z TN16/2906Z"
    },
    {
      "icao": "LEVC",
      "alert": "OK",
      "vis_m": 9999,
      "fzfg": false,
      "metar_trigger": false,
      "taf_trigger": false,
      "metar": "METAR LEVC 282300Z VRB02KT CAVOK 17/13 Q1012 NOSIG",
      "taf": "TAF LEVC 281700Z 2818/2918 VRB04KT CAVOK TX24/2912Z TN12/2906Z"
    },
    {
      "icao": "LEXJ",
      "alert": "OK",
      "vis_m": 9999,
      "fzfg": false,
      "metar_trigger": false,
      "taf_trigger": false,
      "metar": "METAR LEXJ 282300Z AUTO 00000KT 9999 OVC011 16/14 Q1011",
      "taf": ""
    },
    {
      "icao": "LEZG",
      "alert": "OK",
      "vis_m": 9999,
      "fzfg": false,
      "metar_trigger": false,
      "taf_trigger": false,
      "metar": "METAR LEZG 282300Z 09010KT 9999 FEW085 19/08 Q1010 NOSIG",
      "taf": "TAF LEZG 281700Z 2818/2918 11010KT CAVOK TX26/2914Z TN14/2906Z"
    },
    {
      "icao": "LEZL",
      "alert": "OK",
      "vis_m": 9999,
      "fzfg": false,
      "metar_trigger": false,
      "taf_trigger": false,
      "metar": "METAR LEZL 282300Z VRB02KT 9999 FEW020 18/16 Q1010 NOSIG",
      "taf": "TAF LEZL 281400Z 2815/2915 21012KT 9999 SCT040 TX26/2815Z TN15/2906Z"
    },
    {
      "icao": "LFBD",
      "alert": "OK",
      "vis_m": 9999,
      "fzfg": false,
      "metar_trigger": false,
      "taf_trigger": false,
      "metar": "METAR LFBD 282330Z AUTO 13003KT 9999 -RA ///TCU 16/14 Q1011 TEMPO 2500 -TSRA BKN050CB",
      "taf": "TAF LFBD 281700Z 2818/2924 21010KT CAVOK TX25/2916Z TN15/2905Z"
    },
    {
      "icao": "LFLL",
      "alert": "OK",
      "vis_m": 7000,
      "fzfg": false,
      "metar_trigger": false,
      "taf_trigger": false,
      "metar": "METAR LFLL 282330Z 00000KT 7000 R17L/1400U FEW043 BKN073 13/12 Q1015 NOSIG",
      "taf": "TAF LFLL 281700Z 2818/2924 15007KT CAVOK"
    },
    {
      "icao": "LFLS",
      "alert": "OK",
      "vis_m": 9999,
      "fzfg": false,
      "metar_trigger": false,
      "taf_trigger": false,
      "metar": "METAR LFLS 282300Z AUTO 10008KT CAVOK 13/12 Q1015",
      "taf": "TAF LFLS 281400Z 2815/2915 24005KT 9999 FEW035 BKN050"
    },
    {
      "icao": "LFMN",
      "alert": "OK",
      "vis_m": 9999,
      "fzfg": false,
      "metar_trigger": false,
      "taf_trigger": false,
      "metar": "METAR LFMN 282330Z 33004KT CAVOK 15/11 Q1015 NOSIG",
      "taf": "TAF LFMN 281400Z 2815/2921 15010KT 9999 FEW016"
    },
    {
      "icao": "LFOB",
      "alert": "OK",
      "vis_m": 9999,
      "fzfg": false,
      "metar_trigger": false,
      "taf_trigger": false,
      "metar": "METAR LFOB 282300Z AUTO 05012KT CAVOK 14/05 Q1017 NOSIG",
      "taf": "TAF LFOB 281700Z 2818/2918 04014G24KT CAVOK"
    },
    {
      "icao": "LFPO",
      "alert": "OK",
      "vis_m": 9999,
      "fzfg": false,
      "metar_trigger": false,
      "taf_trigger": false,
      "metar": "METAR LFPO 282330Z 05011KT CAVOK 15/06 Q1015 NOSIG",
      "taf": "TAF LFPO 281700Z 2818/2924 05010KT CAVOK"
    },
    {
      "icao": "LFSB",
      "alert": "OK",
      "vis_m": 9999,
      "fzfg": false,
      "metar_trigger": false,
      "taf_trigger": false,
      "metar": "METAR LFSB 282300Z AUTO VRB03KT CAVOK 15/09 Q1016 NOSIG",
      "taf": "TAF LFSB 281700Z 2818/2918 VRB03KT CAVOK"
    },
    {
      "icao": "LGAV",
      "alert": "OK",
      "vis_m": 9999,
      "fzfg": false,
      "metar_trigger": false,
      "taf_trigger": false,
      "metar": "METAR LGAV 282320Z 26004KT CAVOK 11/06 Q1017 NOSIG",
      "taf": "TAF LGAV 281700Z 2818/2918 VRB05KT 9999 FEW030"
    },
    {
      "icao": "LGTS",
      "alert": "OK",
      "vis_m": 9999,
      "fzfg": false,
      "metar_trigger": false,
      "taf_trigger": false,
      "metar": "METAR LGTS 282320Z 11005KT 9999 FEW020 11/11 Q1018 NOSIG",
      "taf": "TAF LGTS 281700Z 2818/2918 VRB03KT 9999 FEW030"
    },
    {
      "icao": "LHBP",
      "alert": "OK",
      "vis_m": 9999,
      "fzfg": false,
      "metar_trigger": false,
      "taf_trigger": false,
      "metar": "METAR LHBP 282330Z 09008G18KT CAVOK 09/M07 Q1020 NOSIG",
      "taf": "TAF LHBP 281715Z 2818/2918 08005KT CAVOK"
    },
    {
      "icao": "LHDC",
      "alert": "OK",
      "vis_m": 9999,
      "fzfg": false,
      "metar_trigger": false,
      "taf_trigger": false,
      "metar": "METAR LHDC 282245Z AUTO 03012KT 350V060 CAVOK 09/M07 Q1020",
      "taf": "TAF LHDC 281415Z 2815/2824 04007KT CAVOK"
    },
    {
      "icao": "LIBD",
      "alert": "OK",
      "vis_m": 9999,
      "fzfg": false,
      "metar_trigger": false,
      "taf_trigger": false,
      "metar": "METAR LIBD 282320Z VRB02KT CAVOK 15/10 Q1015",
      "taf": "TAF LIBD 282300Z 2900/2924 VRB05KT 9999 FEW040"
    },
    {
      "icao": "LIBG",
      "alert": "OK",
      "vis_m": null,
      "fzfg": false,
      "metar_trigger": false,
      "taf_trigger": false,
      "metar": "",
      "taf": "TAF LIBG 281400Z 2815/2824 17010KT 9999 FEW030"
    },
    {
      "icao": "LIBP",
      "alert": "OK",
      "vis_m": 9999,
      "fzfg": false,
      "metar_trigger": false,
      "taf_trigger": false,
      "metar": "METAR LIBP 282320Z AUTO 22003KT 9999 NCD 13/12 Q1015",
      "taf": "TAF LIBP 282300Z 2900/2924 VRB05KT CAVOK"
    },
    {
      "icao": "LIBR",
      "alert": "OK",
      "vis_m": 9999,
      "fzfg": false,
      "metar_trigger": false,
      "taf_trigger": false,
      "metar": "METAR LIBR 282320Z VRB02KT CAVOK 15/15 Q1016",
      "taf": "TAF LIBR 282300Z 2900/2924 19010KT CAVOK"
    },
    {
      "icao": "LICA",
      "alert": "OK",
      "vis_m": 9999,
      "fzfg": false,
      "metar_trigger": false,
      "taf_trigger": false,
      "metar": "METAR LICA 282320Z AUTO 07004KT 9999 NCD 11/09 Q1016",
      "taf": "TAF LICA 282300Z 2900/2924 VRB05KT 9999 SCT040"
    },
    {
      "icao": "LICC",
      "alert": "OK",
      "vis_m": 9999,
      "fzfg": false,
      "metar_trigger": false,
      "taf_trigger": false,
      "metar": "METAR LICC 282320Z 26005KT CAVOK 15/10 Q1017",
      "taf": "TAF LICC 282300Z 2900/2924 VRB05KT 9999 SCT040"
    },
    {
      "icao": "LICJ",
      "alert": "OK",
      "vis_m": 9999,
      "fzfg": false,
      "metar_trigger": false,
      "taf_trigger": false,
      "metar": "METAR LICJ 282320Z VRB02KT CAVOK 17/16 Q1015",
      "taf": "TAF LICJ 282300Z 2900/2924 VRB05KT 9999 SCT040"
    },
    {
      "icao": "LIMC",
      "alert": "OK",
      "vis_m": 9999,
      "fzfg": false,
      "metar_trigger": false,
      "taf_trigger": false,
      "metar": "METAR LIMC 282320Z 01004KT 330V060 9999 -RA BKN060 17/13 Q1016 NOSIG",
      "taf": "TAF LIMC 282300Z 2900/3006 01010KT 9999 SCT040 SCT100"
    },
    {
      "icao": "LIME",
      "alert": "OK",
      "vis_m": 9999,
      "fzfg": false,
      "metar_trigger": false,
      "taf_trigger": false,
      "metar": "METAR LIME 282320Z AUTO 31005KT 290V360 9999 -RA SCT058/// SCT075/// 18/13 Q1016",
      "taf": "TAF LIME 282300Z 2900/2924 VRB05KT 9999 FEW040 SCT060"
    },
    {
      "icao": "LIMF",
      "alert": "OK",
      "vis_m": 8000,
      "fzfg": false,
      "metar_trigger": false,
      "taf_trigger": false,
      "metar": "METAR LIMF 282320Z 33006KT 8000 OVC050 15/14 Q1016",
      "taf": "TAF LIMF 282300Z 2900/2924 VRB05KT 9999 FEW030 BKN080"
    },
    {
      "icao": "LIMJ",
      "alert": "OK",
      "vis_m": 9999,
      "fzfg": false,
      "metar_trigger": false,
      "taf_trigger": false,
      "metar": "METAR LIMJ 282320Z AUTO 36003KT 9999 NCD 15/07 Q1015",
      "taf": "TAF LIMJ 282300Z 2900/2924 03006KT CAVOK"
    },
    {
      "icao": "LIPE",
      "alert": "OK",
      "vis_m": 9999,
      "fzfg": false,
      "metar_trigger": false,
      "taf_trigger": false,
      "metar": "METAR LIPE 282320Z 09005KT CAVOK 15/15 Q1015",
      "taf": "TAF LIPE 282300Z 2900/2924 VRB05KT CAVOK"
    },
    {
      "icao": "LIPH",
      "alert": "OK",
      "vis_m": 9999,
      "fzfg": false,
      "metar_trigger": false,
      "taf_trigger": false,
      "metar": "METAR LIPH 282320Z AUTO 03005KT 360V060 9999 FEW069/// BKN120/// 17/10 Q1016",
      "taf": "TAF LIPH 282300Z 2900/2924 VRB05KT 9999 SCT050"
    },
    {
      "icao": "LIPQ",
      "alert": "OK",
      "vis_m": 9999,
      "fzfg": false,
      "metar_trigger": false,
      "taf_trigger": false,
      "metar": "METAR LIPQ 282320Z AUTO 01006KT 9999 FEW073/// OVC120/// 17/10 Q1016",
      "taf": "TAF LIPQ 282300Z 2900/2924 VRB05KT 9999 BKN050"
    },
    {
      "icao": "LIPR",
      "alert": "OK",
      "vis_m": 9999,
      "fzfg": false,
      "metar_trigger": false,
      "taf_trigger": false,
      "metar": "METAR LIPR 282320Z AUTO VRB02KT 9999 NCD 13/12 Q1014",
      "taf": "TAF LIPR 282300Z 2900/2924 VRB05KT CAVOK"
    },
    {
      "icao": "LIPX",
      "alert": "OK",
      "vis_m": 9999,
      "fzfg": false,
      "metar_trigger": false,
      "taf_trigger": false,
      "metar": "METAR LIPX 282320Z 06005KT CAVOK 18/10 Q1015",
      "taf": "TAF LIPX 282300Z 2900/2924 VRB05KT 9999 SCT070"
    },
    {
      "icao": "LIPY",
      "alert": "OK",
      "vis_m": 9999,
      "fzfg": false,
      "metar_trigger": false,
      "taf_trigger": false,
      "metar": "METAR LIPY 282320Z AUTO 17002KT 9999 NCD 15/13 Q1014",
      "taf": "TAF LIPY 282300Z 2900/2924 VRB05KT CAVOK"
    },
    {
      "icao": "LIPZ",
      "alert": "OK",
      "vis_m": 9999,
      "fzfg": false,
      "metar_trigger": false,
      "taf_trigger": false,
      "metar": "METAR LIPZ 282320Z 04007KT CAVOK 15/11 Q1016 NOSIG",
      "taf": "TAF LIPZ 282300Z 2900/3006 06005KT 9999 FEW030"
    },
    {
      "icao": "LIRF",
      "alert": "OK",
      "vis_m": 9999,
      "fzfg": false,
      "metar_trigger": false,
      "taf_trigger": false,
      "metar": "METAR LIRF 282320Z 30003KT CAVOK 09/08 Q1016 NOSIG",
      "taf": "TAF LIRF 282300Z 2900/3006 VRB05KT 9999 NSC"
    },
    {
      "icao": "LIRN",
      "alert": "OK",
      "vis_m": 9999,
      "fzfg": false,
      "metar_trigger": false,
      "taf_trigger": false,
      "metar": "METAR LIRN 282320Z VRB01KT CAVOK 14/12 Q1016 NOSIG",
      "taf": "TAF LIRN 282300Z 2900/2924 VRB05KT 9999 SCT030"
    },
    {
      "icao": "LIRP",
      "alert": "OK",
      "vis_m": 9999,
      "fzfg": false,
      "metar_trigger": false,
      "taf_trigger": false,
      "metar": "METAR LIRP 282315Z 13004KT CAVOK 10/09 Q1015 NOSIG",
      "taf": "TAF LIRP 282300Z 2900/2924 12005KT CAVOK"
    },
    {
      "icao": "LIRZ",
      "alert": "OK",
      "vis_m": 9999,
      "fzfg": false,
      "metar_trigger": false,
      "taf_trigger": false,
      "metar": "METAR LIRZ 282320Z AUTO 33003KT 250V360 9999 NCD 11/07 Q1016",
      "taf": "TAF LIRZ 282300Z 2900/2924 VRB05KT CAVOK"
    },
    {
      "icao": "LJLJ",
      "alert": "OK",
      "vis_m": 8000,
      "fzfg": false,
      "metar_trigger": false,
      "taf_trigger": false,
      "metar": "METAR LJLJ 282300Z 05002KT 8000 -RA FEW004 SCT033 OVC065 12/11 Q1019 NOSIG",
      "taf": "TAF LJLJ 282300Z 2900/3000 10005KT 9999 FEW004 BKN066"
    },
    {
      "icao": "LKMT",
      "alert": "OK",
      "vis_m": 9999,
      "fzfg": false,
      "metar_trigger": false,
      "taf_trigger": false,
      "metar": "METAR LKMT 282300Z 04005KT CAVOK 03/M05 Q1023 NOSIG",
      "taf": "TAF LKMT 282300Z 2900/2924 04008KT CAVOK"
    },
    {
      "icao": "LKPR",
      "alert": "OK",
      "vis_m": 9999,
      "fzfg": false,
      "metar_trigger": false,
      "taf_trigger": false,
      "metar": "METAR LKPR 282300Z 06006KT CAVOK 06/M06 Q1024 NOSIG",
      "taf": "TAF LKPR 282300Z 2900/3006 04008KT CAVOK"
    },
    {
      "icao": "LLBG",
      "alert": "OK",
      "vis_m": 9999,
      "fzfg": false,
      "metar_trigger": false,
      "taf_trigger": false,
      "metar": "METAR LLBG 282320Z VRB02KT CAVOK 17/13 Q1013 NOSIG",
      "taf": "TAF LLBG 282301Z 2900/2924 VRB04KT 9999 SCT017 TX24/2910Z TN15/2903Z"
    },
    {
      "icao": "LMML",
      "alert": "OK",
      "vis_m": 9999,
      "fzfg": false,
      "metar_trigger": false,
      "taf_trigger": false,
      "metar": "METAR LMML 282315Z 08006KT 050V110 CAVOK 17/14 Q1016 NOSIG",
      "taf": "TAF LMML 282300Z 2900/2924 11012KT CAVOK"
    },
    {
      "icao": "LOWW",
      "alert": "OK",
      "vis_m": 9999,
      "fzfg": false,
      "metar_trigger": false,
      "taf_trigger": false,
      "metar": "METAR LOWW 282320Z 36004KT CAVOK 08/M04 Q1022 NOSIG",
      "taf": "TAF LOWW 282315Z 2900/3006 02010KT CAVOK TX15/2913Z TN02/3004Z"
    },
    {
      "icao": "LPFR",
      "alert": "OK",
      "vis_m": 9999,
      "fzfg": false,
      "metar_trigger": false,
      "taf_trigger": false,
      "metar": "METAR LPFR 282300Z 26009KT 9999 FEW012 BKN022 17/15 Q1009",
      "taf": "TAF LPFR 282300Z 2900/2924 26008KT 9999 BKN016"
    },
    {
      "icao": "LPMA",
      "alert": "OK",
      "vis_m": 9999,
      "fzfg": false,
      "metar_trigger": false,
      "taf_trigger": false,
      "metar": "METAR LPMA 282300Z VRB03KT 9999 SCT015 BKN033 17/09 Q1015",
      "taf": "TAF LPMA 282300Z 2900/2924 VRB05KT 9999 SCT015 SCT030"
    },
    {
      "icao": "LPPR",
      "alert": "OK",
      "vis_m": 9999,
      "fzfg": false,
      "metar_trigger": false,
      "taf_trigger": false,
      "metar": "METAR LPPR 282300Z 12010KT CAVOK 20/12 Q1007",
      "taf": "TAF LPPR 282300Z 2900/2924 VRB05KT 9999 FEW008"
    },
    {
      "icao": "LPPS",
      "alert": "OK",
      "vis_m": 9999,
      "fzfg": false,
      "metar_trigger": false,
      "taf_trigger": false,
      "metar": "METAR LPPS 282300Z 34006KT 300V360 9999 SCT015 SCT030 16/12 Q1015",
      "taf": "TAF LPPS 282300Z 2900/3006 34007KT 9999 SCT015 BKN030"
    },
    {
      "icao": "LPPT",
      "alert": "OK",
      "vis_m": 9999,
      "fzfg": false,
      "metar_trigger": false,
      "taf_trigger": false,
      "metar": "METAR LPPT 282300Z 32007KT 280V350 9999 OVC012 15/13 Q1009",
      "taf": "TAF LPPT 282300Z 2900/3006 31007KT 9999 SCT006 SCT012"
    },
    {
      "icao": "LQBK",
      "alert": "OK",
      "vis_m": 9999,
      "fzfg": false,
      "metar_trigger": false,
      "taf_trigger": false,
      "metar": "METAR LQBK 282300Z VRB02KT CAVOK 11/05 Q1018 NOSIG",
      "taf": "TAF LQBK 282300Z 2900/2924 35005KT CAVOK TX14/2910Z TN05/2923Z"
    },
    {
      "icao": "LQSA",
      "alert": "OK",
      "vis_m": 9999,
      "fzfg": false,
      "metar_trigger": false,
      "taf_trigger": false,
      "metar": "METAR LQSA 282300Z 12005KT CAVOK 11/06 Q1018",
      "taf": "TAF LQSA 282300Z 2900/2924 29006KT 9999 SCT050 TX18/2913Z TN07/2904Z"
    },
    {
      "icao": "LQTZ",
      "alert": "OK",
      "vis_m": 9999,
      "fzfg": false,
      "metar_trigger": false,
      "taf_trigger": false,
      "metar": "METAR LQTZ 282300Z 11003KT 9999 BKN060 10/08 Q1018",
      "taf": "TAF LQTZ 282300Z 2900/2924 03006KT 9999 SCT060 TX17/2818Z TN06/2923Z"
    },
    {
      "icao": "LRBC",
      "alert": "OK",
      "vis_m": 9999,
      "fzfg": false,
      "metar_trigger": false,
      "taf_trigger": false,
      "metar": "METAR LRBC 282300Z AUTO 33006KT 9999 SCT073/// BKN100/// 09/M01 Q1021",
      "taf": "TAF LRBC 282300Z 2900/2909 35006KT CAVOK"
    },
    {
      "icao": "LRBS",
      "alert": "OK",
      "vis_m": 9999,
      "fzfg": false,
      "metar_trigger": false,
      "taf_trigger": false,
      "metar": "METAR LRBS 282300Z 07005KT CAVOK 09/05 Q1017 NOSIG",
      "taf": "TAF LRBS 282300Z 2900/2924 06012KT CAVOK"
    },
    {
      "icao": "LRBV",
      "alert": "OK",
      "vis_m": 9999,
      "fzfg": false,
      "metar_trigger": false,
      "taf_trigger": false,
      "metar": "METAR LRBV 282300Z AUTO 15005KT 9999 FEW081/// BKN100/// 07/M00 Q1019",
      "taf": "TAF LRBV 281700Z 2818/2903 VRB04KT CAVOK"
    },
    {
      "icao": "LRCL",
      "alert": "OK",
      "vis_m": 9999,
      "fzfg": false,
      "metar_trigger": false,
      "taf_trigger": false,
      "metar": "METAR LRCL 282300Z 27007KT CAVOK 05/M00 Q1019",
      "taf": "TAF LRCL 282300Z 2900/2909 VRB04KT CAVOK"
    },
    {
      "icao": "LRCV",
      "alert": "OK",
      "vis_m": 9999,
      "fzfg": false,
      "metar_trigger": false,
      "taf_trigger": false,
      "metar": "METAR LRCV 282300Z 13003KT CAVOK 11/06 Q1017",
      "taf": "TAF LRCV 282300Z 2900/2909 15006KT CAVOK"
    },
    {
      "icao": "LRIA",
      "alert": "OK",
      "vis_m": 9999,
      "fzfg": false,
      "metar_trigger": false,
      "taf_trigger": false,
      "metar": "METAR LRIA 282300Z 31003KT 250V360 CAVOK 08/M02 Q1021",
      "taf": "TAF LRIA 282300Z 2900/2909 33006KT CAVOK"
    },
    {
      "icao": "LROP",
      "alert": "OK",
      "vis_m": 9999,
      "fzfg": false,
      "metar_trigger": false,
      "taf_trigger": false,
      "metar": "METAR LROP 282300Z 06005KT CAVOK 09/05 Q1018 NOSIG",
      "taf": "TAF LROP 282300Z 2900/2924 06012KT CAVOK"
    },
    {
      "icao": "LRSB",
      "alert": "OK",
      "vis_m": 9999,
      "fzfg": false,
      "metar_trigger": false,
      "taf_trigger": false,
      "metar": "METAR LRSB 282300Z 26007KT CAVOK 08/01 Q1019",
      "taf": "TAF LRSB 282300Z 2900/2924 VRB04KT CAVOK"
    },
    {
      "icao": "LRSM",
      "alert": "OK",
      "vis_m": 9999,
      "fzfg": false,
      "metar_trigger": false,
      "taf_trigger": false,
      "metar": "METAR LRSM 282300Z AUTO 30003KT 240V360 9999 BKN080/// 09/M06 Q1020",
      "taf": "TAF LRSM 281400Z 2815/2824 35012KT CAVOK"
    },
    {
      "icao": "LRSV",
      "alert": "OK",
      "vis_m": 9999,
      "fzfg": false,
      "metar_trigger": false,
      "taf_trigger": false,
      "metar": "METAR LRSV 282300Z 34007KT CAVOK 06/M06 Q1021",
      "taf": "TAF LRSV 282300Z 2900/2909 34007KT CAVOK"
    },
    {
      "icao": "LRTM",
      "alert": "OK",
      "vis_m": 9999,
      "fzfg": false,
      "metar_trigger": false,
      "taf_trigger": false,
      "metar": "METAR LRTM 282300Z 00000KT CAVOK 07/01 Q1019",
      "taf": "TAF LRTM 282300Z 2900/2909 VRB04KT CAVOK"
    },
    {
      "icao": "LRTR",
      "alert": "OK",
      "vis_m": 9999,
      "fzfg": false,
      "metar_trigger": false,
      "taf_trigger": false,
      "metar": "METAR LRTR 282300Z 31004KT CAVOK 07/04 Q1018 NOSIG",
      "taf": "TAF LRTR 282300Z 2900/2924 01012KT CAVOK"
    },
    {
      "icao": "LTAC",
      "alert": "OK",
      "vis_m": 9999,
      "fzfg": false,
      "metar_trigger": false,
      "taf_trigger": false,
      "metar": "METAR LTAC 282320Z VRB02KT CAVOK 08/05 Q1015 NOSIG RMK RWY21C 13004KT RWY03L 17003KT 140V220 RWY21R 12004KT RWY03R 09002KT RWY21L 12005KT",
      "taf": "TAF LTAC 282240Z 2900/2924 VRB02KT CAVOK"
    },
    {
      "icao": "LTFM",
      "alert": "OK",
      "vis_m": 9999,
      "fzfg": false,
      "metar_trigger": false,
      "taf_trigger": false,
      "metar": "METAR LTFM 282320Z 09007KT 9999 SCT016 10/06 Q1019 NOSIG RMK RWY17L 07006KT RWY34L 07006KT RWY16R 07006KT RWY36 06005KT 360V100 RWY18 09006KT",
      "taf": "TAF LTFM 282240Z 2900/3006 07010KT 9999 SCT016"
    },
    {
      "icao": "LUKK",
      "alert": "OK",
      "vis_m": 9999,
      "fzfg": false,
      "metar_trigger": false,
      "taf_trigger": false,
      "metar": "METAR LUKK 282300Z 03007KT CAVOK 10/M03 Q1020 NOSIG",
      "taf": "TAF LUKK 282303Z 2900/2924 36008KT CAVOK"
    },
    {
      "icao": "LWOH",
      "alert": "OK",
      "vis_m": null,
      "fzfg": false,
      "metar_trigger": false,
      "taf_trigger": false,
      "metar": "",
      "taf": "TAF LWOH 282320Z 2900/2924 VRB02KT 9999 FEW050"
    },
    {
      "icao": "LWSK",
      "alert": "OK",
      "vis_m": 9999,
      "fzfg": false,
      "metar_trigger": false,
      "taf_trigger": false,
      "metar": "METAR LWSK 282320Z VRB02KT 9999 FEW090 12/07 Q1017 NOSIG",
      "taf": "TAF LWSK 282320Z 2900/2924 VRB02KT 9999 FEW050 SCT090"
    },
    {
      "icao": "LYBE",
      "alert": "OK",
      "vis_m": 9999,
      "fzfg": false,
      "metar_trigger": false,
      "taf_trigger": false,
      "metar": "METAR LYBE 282300Z 00000KT CAVOK 11/03 Q1018 NOSIG",
      "taf": "TAF LYBE 282300Z 2900/2924 04006KT CAVOK TX14/2911Z TN08/2924Z"
    },
    {
      "icao": "LYNI",
      "alert": "OK",
      "vis_m": 9999,
      "fzfg": false,
      "metar_trigger": false,
      "taf_trigger": false,
      "metar": "METAR LYNI 282300Z VRB02KT 9999 -RA BKN087 15/04 Q1017 NOSIG",
      "taf": "TAF LYNI 282300Z 2900/2924 34005KT CAVOK TX21/2913Z TN10/2904Z"
    },
    {
      "icao": "LYPG",
      "alert": "OK",
      "vis_m": 9999,
      "fzfg": false,
      "metar_trigger": false,
      "taf_trigger": false,
      "metar": "METAR LYPG 282300Z 01002KT CAVOK 14/10 Q1017 NOSIG",
      "taf": "TAF LYPG 282300Z 2900/2924 36004KT CAVOK TX25/2914Z TN11/2904Z"
    },
    {
      "icao": "LZIB",
      "alert": "OK",
      "vis_m": 9999,
      "fzfg": false,
      "metar_trigger": false,
      "taf_trigger": false,
      "metar": "METAR LZIB 282330Z 36006KT CAVOK 10/M04 Q1021 NOSIG",
      "taf": "TAF LZIB 282315Z 2900/3000 04009KT CAVOK"
    },
    {
      "icao": "LZKZ",
      "alert": "OK",
      "vis_m": 9999,
      "fzfg": false,
      "metar_trigger": false,
      "taf_trigger": false,
      "metar": "METAR LZKZ 282330Z 01011KT CAVOK 07/M08 Q1022 NOSIG",
      "taf": "TAF LZKZ 282315Z 2900/3000 02010KT CAVOK"
    },
    {
      "icao": "LZTT",
      "alert": "OK",
      "vis_m": 9999,
      "fzfg": false,
      "metar_trigger": false,
      "taf_trigger": false,
      "metar": "METAR LZTT 282330Z 30003KT CAVOK M03/M08 Q1022",
      "taf": "TAF LZTT 282315Z 2900/3000 09009KT 9999 FEW060"
    },
    {
      "icao": "OEJN",
      "alert": "OK",
      "vis_m": 9999,
      "fzfg": false,
      "metar_trigger": false,
      "taf_trigger": false,
      "metar": "METAR OEJN 282300Z 36008KT CAVOK 25/14 Q1008 NOSIG",
      "taf": "TAF OEJN 282300Z 2900/3006 02005KT CAVOK"
    },
    {
      "icao": "OEMA",
      "alert": "OK",
      "vis_m": 9999,
      "fzfg": false,
      "metar_trigger": false,
      "taf_trigger": false,
      "metar": "METAR OEMA 282300Z VRB03KT CAVOK 24/01 Q1012 NOSIG",
      "taf": "TAF OEMA 282300Z 2900/3006 VRB03KT 7000 NSC"
    },
    {
      "icao": "OJAI",
      "alert": "OK",
      "vis_m": null,
      "fzfg": false,
      "metar_trigger": false,
      "taf_trigger": false,
      "metar": "",
      "taf": "TAF OJAI 282238Z 2900/3006 29012KT 5000 HZ FEW035"
    },
    {
      "icao": "OMAA",
      "alert": "OK",
      "vis_m": 9999,
      "fzfg": false,
      "metar_trigger": false,
      "taf_trigger": false,
      "metar": "METAR OMAA 282300Z 10008KT CAVOK 30/16 Q1004 NOSIG",
      "taf": "TAF OMAA 282300Z 2900/3006 10007KT 8000 NSC"
    },
    {
      "icao": "OMDB",
      "alert": "OK",
      "vis_m": 9999,
      "fzfg": false,
      "metar_trigger": false,
      "taf_trigger": false,
      "metar": "METAR OMDB 282300Z 10003KT 080V140 CAVOK 31/17 Q1004 NOSIG",
      "taf": "TAF OMDB 282300Z 2900/3006 15005KT CAVOK"
    },
    {
      "icao": "UAAA",
      "alert": "OK",
      "vis_m": 9999,
      "fzfg": false,
      "metar_trigger": false,
      "taf_trigger": false,
      "metar": "METAR UAAA 282300Z VRB01MPS 9999 FEW200 11/08 Q1015 NOSIG",
      "taf": "TAF UAAA 282302Z 2900/2924 34005MPS 9999 SCT100 TX25/2909Z TN10/2901Z"
    },
    {
      "icao": "UBBB",
      "alert": "OK",
      "vis_m": 9999,
      "fzfg": false,
      "metar_trigger": false,
      "taf_trigger": false,
      "metar": "METAR UBBB 282330Z 33012KT CAVOK 11/03 Q1017 NOSIG",
      "taf": "TAF UBBB 282300Z 2900/2924 32014KT 9999 SCT040 TX13/2910Z TN09/2901Z"
    },
    {
      "icao": "UDSG",
      "alert": "OK",
      "vis_m": 9999,
      "fzfg": false,
      "metar_trigger": false,
      "taf_trigger": false,
      "metar": "METAR UDSG 282300Z 35003KT 300V050 9999 FEW049 06/02 Q1016 NOSIG",
      "taf": "TAF UDSG 282258Z 2900/2924 VRB06KT 9999 FEW050"
    },
    {
      "icao": "UDYZ",
      "alert": "OK",
      "vis_m": 9999,
      "fzfg": false,
      "metar_trigger": false,
      "taf_trigger": false,
      "metar": "METAR UDYZ 282300Z 21003KT 9999 FEW043CB 13/05 Q1013 NOSIG",
      "taf": "TAF UDYZ 282300Z 2900/2924 16006KT 9999 FEW040"
    },
    {
      "icao": "UGKO",
      "alert": "OK",
      "vis_m": 9999,
      "fzfg": false,
      "metar_trigger": false,
      "taf_trigger": false,
      "metar": "METAR UGKO 282300Z VRB02KT CAVOK 05/04 Q1017 NOSIG",
      "taf": "TAF UGKO 282300Z 2900/2924 25006KT 9999 SCT025 BKN050 TX16/2911Z TN05/2902Z"
    }
  ]
}