{
  "ts_utc": "2026-04-20T14:54:50Z",
  "threshold_m": 150,
  "source": "stations_override.txt (ICAO list) + aviationweather.gov (METAR/TAF raw)",
  "station_count": 159,
  "stations": [
    {
      "icao": "BIKF",
      "alert": "OK",
      "vis_m": 9999,
      "fzfg": false,
      "metar_trigger": false,
      "taf_trigger": false,
      "metar": "METAR BIKF 201430Z 16016KT 9999 FEW022 SCT300 11/03 Q1036",
      "taf": "TAF BIKF 201330Z 2015/2115 13014KT 9999 FEW025 TX11/2015Z TN02/2107Z"
    },
    {
      "icao": "BKPR",
      "alert": "OK",
      "vis_m": null,
      "fzfg": false,
      "metar_trigger": false,
      "taf_trigger": false,
      "metar": "",
      "taf": "TAF BKPR 201130Z 2012/2112 29010KT 9999 SCT040 BKN080"
    },
    {
      "icao": "EBCI",
      "alert": "OK",
      "vis_m": 9999,
      "fzfg": false,
      "metar_trigger": false,
      "taf_trigger": false,
      "metar": "METAR EBCI 201420Z 03006KT 340V070 9999 FEW045 11/01 Q1020 NOSIG",
      "taf": "TAF EBCI 201100Z 2012/2118 03005KT 9999 FEW035"
    },
    {
      "icao": "EDDB",
      "alert": "OK",
      "vis_m": 9999,
      "fzfg": false,
      "metar_trigger": false,
      "taf_trigger": false,
      "metar": "METAR EDDB 201450Z AUTO 02004KT 350V050 9999 -RADZ SCT039 10/08 Q1017 NOSIG",
      "taf": "TAF EDDB 201100Z 2012/2112 05009KT 9999 BKN020"
    },
    {
      "icao": "EDDH",
      "alert": "OK",
      "vis_m": 9999,
      "fzfg": false,
      "metar_trigger": false,
      "taf_trigger": false,
      "metar": "METAR EDDH 201450Z AUTO 05017KT 360V090 9999 FEW030 10/03 Q1021 TEMPO 05015G25KT",
      "taf": "TAF EDDH 201100Z 2012/2118 04013KT 9999 SCT020"
    },
    {
      "icao": "EDDK",
      "alert": "OK",
      "vis_m": 9999,
      "fzfg": false,
      "metar_trigger": false,
      "taf_trigger": false,
      "metar": "METAR EDDK 201450Z AUTO 33011KT 270V010 CAVOK 13/01 Q1019 NOSIG",
      "taf": "TAF EDDK 201100Z 2012/2118 34009KT 9999 SCT045"
    },
    {
      "icao": "EDDN",
      "alert": "OK",
      "vis_m": 9999,
      "fzfg": false,
      "metar_trigger": false,
      "taf_trigger": false,
      "metar": "METAR EDDN 201450Z AUTO 31013KT 9999 FEW046 12/01 Q1017 NOSIG",
      "taf": "TAF EDDN 201100Z 2012/2112 31010KT 9999 BKN040"
    },
    {
      "icao": "EDDS",
      "alert": "OK",
      "vis_m": 9999,
      "fzfg": false,
      "metar_trigger": false,
      "taf_trigger": false,
      "metar": "METAR EDDS 201450Z AUTO 33011KT CAVOK 13/M00 Q1016 NOSIG",
      "taf": "TAF EDDS 201100Z 2012/2112 36007KT 9999 SCT035"
    },
    {
      "icao": "EDFH",
      "alert": "OK",
      "vis_m": 9999,
      "fzfg": false,
      "metar_trigger": false,
      "taf_trigger": false,
      "metar": "METAR EDFH 201420Z 01008KT 340V050 CAVOK 10/M02 Q1018",
      "taf": "TAF EDFH 201100Z 2012/2112 35007KT 9999 SCT030"
    },
    {
      "icao": "EDJA",
      "alert": "OK",
      "vis_m": 9999,
      "fzfg": false,
      "metar_trigger": false,
      "taf_trigger": false,
      "metar": "METAR EDJA 201420Z VRB04KT 9999 FEW051 SCT059 12/02 Q1015",
      "taf": "TAF EDJA 201400Z 2015/2024 32006KT 9999 SCT045"
    },
    {
      "icao": "EDLW",
      "alert": "OK",
      "vis_m": 9999,
      "fzfg": false,
      "metar_trigger": false,
      "taf_trigger": false,
      "metar": "METAR EDLW 201420Z 32006KT 250V020 9999 FEW032 11/01 Q1019",
      "taf": "TAF EDLW 201100Z 2012/2112 33006KT 9999 SCT040"
    },
    {
      "icao": "EDNY",
      "alert": "OK",
      "vis_m": 9999,
      "fzfg": false,
      "metar_trigger": false,
      "taf_trigger": false,
      "metar": "METAR EDNY 201420Z 22007KT CAVOK 14/03 Q1015",
      "taf": "TAF EDNY 201400Z 2015/2024 04006KT 9999 FEW045"
    },
    {
      "icao": "EDSB",
      "alert": "OK",
      "vis_m": 9999,
      "fzfg": false,
      "metar_trigger": false,
      "taf_trigger": false,
      "metar": "METAR EDSB 201420Z 36007KT 320V030 CAVOK 15/03 Q1017",
      "taf": "TAF EDSB 201100Z 2012/2112 03011KT 9999 FEW035"
    },
    {
      "icao": "EETN",
      "alert": "OK",
      "vis_m": 9999,
      "fzfg": false,
      "metar_trigger": false,
      "taf_trigger": false,
      "metar": "METAR EETN 201450Z 34006KT CAVOK 09/M06 Q1024 NOSIG",
      "taf": "TAF EETN 201130Z 2012/2112 04013KT CAVOK"
    },
    {
      "icao": "EFTU",
      "alert": "OK",
      "vis_m": 9999,
      "fzfg": false,
      "metar_trigger": false,
      "taf_trigger": false,
      "metar": "METAR EFTU 201450Z AUTO 03008KT 330V080 CAVOK 13/M10 Q1025",
      "taf": "TAF EFTU 201427Z 2015/2115 03007KT CAVOK"
    },
    {
      "icao": "EGBB",
      "alert": "OK",
      "vis_m": 9999,
      "fzfg": false,
      "metar_trigger": false,
      "taf_trigger": false,
      "metar": "METAR EGBB 201420Z 09007KT 050V110 CAVOK 13/00 Q1024",
      "taf": "TAF EGBB 201053Z 2012/2112 08004KT 9999 FEW045"
    },
    {
      "icao": "EGGP",
      "alert": "OK",
      "vis_m": 9999,
      "fzfg": false,
      "metar_trigger": false,
      "taf_trigger": false,
      "metar": "METAR EGGP 201420Z 16004KT 130V210 CAVOK 14/02 Q1024",
      "taf": "TAF EGGP 201056Z 2012/2112 VRB03KT 9999 FEW025"
    },
    {
      "icao": "EGGW",
      "alert": "OK",
      "vis_m": 9999,
      "fzfg": false,
      "metar_trigger": false,
      "taf_trigger": false,
      "metar": "METAR EGGW 201420Z AUTO 05007KT 030V090 9999 FEW039 11/03 Q1023",
      "taf": "TAF EGGW 201055Z 2012/2112 05010KT 9999 SCT035"
    },
    {
      "icao": "EGKK",
      "alert": "OK",
      "vis_m": 9999,
      "fzfg": false,
      "metar_trigger": false,
      "taf_trigger": false,
      "metar": "METAR EGKK 201420Z 04011KT 9999 SCT047 13/03 Q1022",
      "taf": "TAF EGKK 201056Z 2012/2118 03010KT 9999 FEW045"
    },
    {
      "icao": "EGNM",
      "alert": "OK",
      "vis_m": 9999,
      "fzfg": false,
      "metar_trigger": false,
      "taf_trigger": false,
      "metar": "METAR EGNM 201420Z 06005KT 020V100 9999 FEW030 11/03 Q1025",
      "taf": "TAF EGNM 201056Z 2012/2112 06007KT 9999 FEW025"
    },
    {
      "icao": "EGPD",
      "alert": "OK",
      "vis_m": 9999,
      "fzfg": false,
      "metar_trigger": false,
      "taf_trigger": false,
      "metar": "METAR EGPD 201420Z COR 12007KT 090V160 9999 BKN016 09/06 Q1026 NOSIG",
      "taf": ""
    },
    {
      "icao": "EGPF",
      "alert": "OK",
      "vis_m": 9999,
      "fzfg": false,
      "metar_trigger": false,
      "taf_trigger": false,
      "metar": "METAR EGPF 201420Z AUTO 06008KT 030V100 9999 NCD 12/02 Q1025",
      "taf": "TAF EGPF 201057Z 2012/2112 06008KT 9999 FEW045"
    },
    {
      "icao": "EHBK",
      "alert": "OK",
      "vis_m": 9999,
      "fzfg": false,
      "metar_trigger": false,
      "taf_trigger": false,
      "metar": "METAR EHBK 201425Z AUTO 33006KT 280V010 9999 NSC 12/M00 Q1020 NOSIG",
      "taf": "TAF EHBK 201118Z 2012/2118 36007KT CAVOK"
    },
    {
      "icao": "EHEH",
      "alert": "OK",
      "vis_m": 9999,
      "fzfg": false,
      "metar_trigger": false,
      "taf_trigger": false,
      "metar": "METAR EHEH 201425Z AUTO 34004KT 270V030 9999 FEW074 12/03 Q1020 BLU NOSIG",
      "taf": "TAF EHEH 201131Z 2012/2118 34007KT 9999 SCT045"
    },
    {
      "icao": "EKBI",
      "alert": "OK",
      "vis_m": 9999,
      "fzfg": false,
      "metar_trigger": false,
      "taf_trigger": false,
      "metar": "METAR EKBI 201450Z AUTO 08014KT 9999 FEW045/// 11/00 Q1025",
      "taf": "TAF EKBI 201427Z 2015/2115 07014KT 9999 BKN040"
    },
    {
      "icao": "EKCH",
      "alert": "OK",
      "vis_m": 9999,
      "fzfg": false,
      "metar_trigger": false,
      "taf_trigger": false,
      "metar": "METAR EKCH 201450Z AUTO 07010KT 9999 NCD 12/M02 Q1025 NOSIG",
      "taf": "TAF EKCH 201427Z 2015/2115 09011KT CAVOK"
    },
    {
      "icao": "ENAL",
      "alert": "OK",
      "vis_m": 9999,
      "fzfg": false,
      "metar_trigger": false,
      "taf_trigger": false,
      "metar": "METAR ENAL 201420Z 31006KT 270V340 CAVOK 12/03 Q1032",
      "taf": "TAF ENAL 201400Z 2015/2024 32009KT 9999 FEW050"
    },
    {
      "icao": "ENBR",
      "alert": "OK",
      "vis_m": 9999,
      "fzfg": false,
      "metar_trigger": false,
      "taf_trigger": false,
      "metar": "METAR ENBR 201420Z 30010KT CAVOK 12/02 Q1030 NOSIG RMK WIND 1200FT 33020KT",
      "taf": ""
    },
    {
      "icao": "ENGM",
      "alert": "OK",
      "vis_m": 9999,
      "fzfg": false,
      "metar_trigger": false,
      "taf_trigger": false,
      "metar": "METAR ENGM 201420Z 01006KT 330V070 CAVOK 13/M03 Q1030 NOSIG",
      "taf": "TAF ENGM 201100Z 2012/2112 01007KT CAVOK"
    },
    {
      "icao": "ENHD",
      "alert": "OK",
      "vis_m": 9999,
      "fzfg": false,
      "metar_trigger": false,
      "taf_trigger": false,
      "metar": "METAR ENHD 201420Z 32008KT 280V340 CAVOK 11/03 Q1031",
      "taf": "TAF ENHD 201400Z 2015/2022 33008KT CAVOK"
    },
    {
      "icao": "ENTC",
      "alert": "OK",
      "vis_m": 9999,
      "fzfg": false,
      "metar_trigger": false,
      "taf_trigger": false,
      "metar": "METAR ENTC 201420Z 28018KT 9999 BKN053 08/04 Q1027 TEMPO 21009KT RMK WIND 2600FT 22018KT",
      "taf": ""
    },
    {
      "icao": "ENTO",
      "alert": "OK",
      "vis_m": 9999,
      "fzfg": false,
      "metar_trigger": false,
      "taf_trigger": false,
      "metar": "METAR ENTO 201420Z 02009KT 340V050 CAVOK 11/M01 Q1030 NOSIG",
      "taf": "TAF ENTO 201100Z 2012/2112 04010KT CAVOK"
    },
    {
      "icao": "ENVA",
      "alert": "OK",
      "vis_m": 9999,
      "fzfg": false,
      "metar_trigger": false,
      "taf_trigger": false,
      "metar": "METAR ENVA 201420Z 24007KT CAVOK 15/M01 Q1030 NOSIG RMK WIND 670FT 29007KT",
      "taf": "TAF ENVA 201100Z 2012/2112 26008KT CAVOK"
    },
    {
      "icao": "ENZV",
      "alert": "OK",
      "vis_m": 9999,
      "fzfg": false,
      "metar_trigger": false,
      "taf_trigger": false,
      "metar": "METAR ENZV 201420Z 09007KT 050V130 CAVOK 13/M03 Q1030 NOSIG",
      "taf": ""
    },
    {
      "icao": "EPGD",
      "alert": "OK",
      "vis_m": 9999,
      "fzfg": false,
      "metar_trigger": false,
      "taf_trigger": false,
      "metar": "METAR EPGD 201430Z 03017KT CAVOK 07/M02 Q1020",
      "taf": "TAF EPGD 201130Z 2012/2112 06016KT CAVOK"
    },
    {
      "icao": "EPKK",
      "alert": "OK",
      "vis_m": 9999,
      "fzfg": false,
      "metar_trigger": false,
      "taf_trigger": false,
      "metar": "METAR EPKK 201430Z 03005KT 330V040 9999 -SHRA FEW018 BKN025CB 09/04 Q1013",
      "taf": "TAF EPKK 201430Z 2015/2115 36007KT 9999 BKN030"
    },
    {
      "icao": "EPKT",
      "alert": "OK",
      "vis_m": 9999,
      "fzfg": false,
      "metar_trigger": false,
      "taf_trigger": false,
      "metar": "METAR EPKT 201430Z 03008KT 9999 -SHRA FEW017 FEW021CB BKN031 08/04 Q1013",
      "taf": "TAF EPKT 201130Z 2012/2112 31010KT 9999 BKN020"
    },
    {
      "icao": "EPLB",
      "alert": "OK",
      "vis_m": 9999,
      "fzfg": false,
      "metar_trigger": false,
      "taf_trigger": false,
      "metar": "METAR EPLB 201430Z 10011KT 9999 SCT039 11/02 Q1014",
      "taf": "TAF EPLB 201130Z 2012/2112 08014KT 9999 BKN040"
    },
    {
      "icao": "EPMO",
      "alert": "OK",
      "vis_m": 9999,
      "fzfg": false,
      "metar_trigger": false,
      "taf_trigger": false,
      "metar": "METAR EPMO 201430Z 06014KT CAVOK 12/M03 Q1015",
      "taf": "TAF EPMO 201130Z 2012/2112 06014KT CAVOK"
    },
    {
      "icao": "EPPO",
      "alert": "OK",
      "vis_m": 9999,
      "fzfg": false,
      "metar_trigger": false,
      "taf_trigger": false,
      "metar": "METAR EPPO 201430Z 13005KT 9999 FEW009 10/07 Q1015",
      "taf": "TAF EPPO 201130Z 2012/2112 07010KT 9999 OVC030"
    },
    {
      "icao": "EPRA",
      "alert": "OK",
      "vis_m": 9999,
      "fzfg": false,
      "metar_trigger": false,
      "taf_trigger": false,
      "metar": "METAR EPRA 201430Z 09010KT CAVOK 10/02 Q1014",
      "taf": "TAF EPRA 201430Z 2015/2024 08010KT 9999 BKN040"
    },
    {
      "icao": "EPRZ",
      "alert": "OK",
      "vis_m": 8000,
      "fzfg": false,
      "metar_trigger": false,
      "taf_trigger": false,
      "metar": "METAR EPRZ 201430Z 05005KT 8000 -RA SCT008 BKN025 07/06 Q1013",
      "taf": ""
    },
    {
      "icao": "EPSC",
      "alert": "OK",
      "vis_m": 9999,
      "fzfg": false,
      "metar_trigger": false,
      "taf_trigger": false,
      "metar": "METAR EPSC 201430Z 36016KT 340V040 CAVOK 14/M00 Q1017",
      "taf": "TAF EPSC 201130Z 2012/2112 03012KT CAVOK"
    },
    {
      "icao": "EPSY",
      "alert": "OK",
      "vis_m": 9999,
      "fzfg": false,
      "metar_trigger": false,
      "taf_trigger": false,
      "metar": "METAR EPSY 201430Z 05011KT 010V110 CAVOK 12/M05 Q1017",
      "taf": "TAF EPSY 201430Z 2015/2024 04010KT CAVOK"
    },
    {
      "icao": "EPWA",
      "alert": "OK",
      "vis_m": 9999,
      "fzfg": false,
      "metar_trigger": false,
      "taf_trigger": false,
      "metar": "METAR EPWA 201430Z 07012KT CAVOK 12/M03 Q1015 NOSIG",
      "taf": "TAF EPWA 201430Z 2015/2115 06010KT CAVOK"
    },
    {
      "icao": "EPWR",
      "alert": "OK",
      "vis_m": 9999,
      "fzfg": false,
      "metar_trigger": false,
      "taf_trigger": false,
      "metar": "METAR EPWR 201430Z 33006KT 290V350 9999 BKN025 10/04 Q1014",
      "taf": "TAF EPWR 201430Z 2015/2115 30008KT 9999 BKN022"
    },
    {
      "icao": "ESGG",
      "alert": "OK",
      "vis_m": 9999,
      "fzfg": false,
      "metar_trigger": false,
      "taf_trigger": false,
      "metar": "METAR ESGG 201420Z 06016KT CAVOK 13/M06 Q1026",
      "taf": "TAF ESGG 201430Z 2015/2115 04014G24KT CAVOK"
    },
    {
      "icao": "ESKN",
      "alert": "OK",
      "vis_m": 9999,
      "fzfg": false,
      "metar_trigger": false,
      "taf_trigger": false,
      "metar": "METAR ESKN 201420Z 15009KT CAVOK 11/M01 Q1027",
      "taf": "TAF ESKN 201430Z 2015/2115 14012KT CAVOK"
    },
    {
      "icao": "ESMS",
      "alert": "OK",
      "vis_m": 9999,
      "fzfg": false,
      "metar_trigger": false,
      "taf_trigger": false,
      "metar": "METAR ESMS 201420Z 07018KT CAVOK 11/M04 Q1024",
      "taf": "TAF ESMS 201427Z 2015/2115 07020KT CAVOK"
    },
    {
      "icao": "ESSA",
      "alert": "OK",
      "vis_m": 9999,
      "fzfg": false,
      "metar_trigger": false,
      "taf_trigger": false,
      "metar": "METAR ESSA 201420Z 02012KT 360V070 CAVOK 11/M06 Q1028 NOSIG",
      "taf": "TAF ESSA 201430Z 2015/2115 03013KT CAVOK"
    },
    {
      "icao": "EYKA",
      "alert": "OK",
      "vis_m": 9999,
      "fzfg": false,
      "metar_trigger": false,
      "taf_trigger": false,
      "metar": "METAR EYKA 201450Z 01011KT 340V060 CAVOK 11/M08 Q1018",
      "taf": "TAF EYKA 201100Z 2012/2112 VRB04KT 9000 NSC"
    },
    {
      "icao": "EYPA",
      "alert": "OK",
      "vis_m": 9999,
      "fzfg": false,
      "metar_trigger": false,
      "taf_trigger": false,
      "metar": "METAR EYPA 201450Z 04011KT 010V080 CAVOK 12/M09 Q1020",
      "taf": "TAF EYPA 201100Z 2012/2112 04010KT 9000 NSC"
    },
    {
      "icao": "EYVI",
      "alert": "OK",
      "vis_m": 9999,
      "fzfg": false,
      "metar_trigger": false,
      "taf_trigger": false,
      "metar": "METAR EYVI 201450Z 02012KT 350V060 CAVOK 11/M07 Q1017 NOSIG",
      "taf": "TAF EYVI 201100Z 2012/2112 03010KT 9000 NSC"
    },
    {
      "icao": "GCFV",
      "alert": "OK",
      "vis_m": 8000,
      "fzfg": false,
      "metar_trigger": false,
      "taf_trigger": false,
      "metar": "METAR GCFV 201430Z 11007KT 080V140 8000 NSC 22/18 Q1008",
      "taf": "TAF GCFV 201400Z 2015/2115 06007KT 8000 FEW020 TX22/2114Z TN17/2106Z"
    },
    {
      "icao": "GCLP",
      "alert": "OK",
      "vis_m": 9999,
      "fzfg": false,
      "metar_trigger": false,
      "taf_trigger": false,
      "metar": "METAR GCLP 201430Z 07005KT 040V100 9999 BKN020 21/16 Q1009 NOSIG",
      "taf": "TAF GCLP 201400Z 2015/2115 06009KT 9000 BKN020 TX21/2114Z TN16/2106Z"
    },
    {
      "icao": "GCTS",
      "alert": "OK",
      "vis_m": 9999,
      "fzfg": false,
      "metar_trigger": false,
      "taf_trigger": false,
      "metar": "METAR GCTS 201430Z 27014KT 240V340 9999 FEW035 26/13 Q1008 WS R07 NOSIG",
      "taf": "TAF GCTS 201400Z 2015/2115 26015KT 9999 FEW025 TX23/2114Z TN15/2106Z"
    },
    {
      "icao": "GMAD",
      "alert": "OK",
      "vis_m": 8000,
      "fzfg": false,
      "metar_trigger": false,
      "taf_trigger": false,
      "metar": "METAR GMAD 201430Z 20007KT 140V260 8000 FEW026 38/01 Q1006 NOSIG",
      "taf": "TAF GMAD 201100Z 2012/2118 28010KT 8000 NSC"
    },
    {
      "icao": "GMMN",
      "alert": "OK",
      "vis_m": 9999,
      "fzfg": false,
      "metar_trigger": false,
      "taf_trigger": false,
      "metar": "METAR GMMN 201430Z VRB03KT CAVOK 35/09 Q1008 NOSIG",
      "taf": "TAF GMMN 201100Z 2012/2118 12005KT CAVOK"
    },
    {
      "icao": "GMMX",
      "alert": "OK",
      "vis_m": 9999,
      "fzfg": false,
      "metar_trigger": false,
      "taf_trigger": false,
      "metar": "METAR GMMX 201430Z 07005KT 030V190 9999 SCT033 34/06 Q1008 NOSIG",
      "taf": "TAF GMMX 201100Z 2012/2118 08006KT CAVOK"
    },
    {
      "icao": "HEGN",
      "alert": "OK",
      "vis_m": 5000,
      "fzfg": false,
      "metar_trigger": false,
      "taf_trigger": false,
      "metar": "METAR HEGN 201400Z 34022KT 5000 SA NSC 28/01 Q1009 NOSIG",
      "taf": "TAF HEGN 201100Z 2012/2118 35018G28KT 6000 NSC"
    },
    {
      "icao": "HEMA",
      "alert": "OK",
      "vis_m": 9999,
      "fzfg": false,
      "metar_trigger": false,
      "taf_trigger": false,
      "metar": "METAR HEMA 201400Z 35014KT CAVOK 26/13 Q1008 NOSIG",
      "taf": "TAF HEMA 201100Z 2012/2118 36018G28KT CAVOK"
    },
    {
      "icao": "HESH",
      "alert": "OK",
      "vis_m": 9999,
      "fzfg": false,
      "metar_trigger": false,
      "taf_trigger": false,
      "metar": "METAR HESH 201400Z 10006KT CAVOK 30/12 Q1008 NOSIG",
      "taf": "TAF HESH 201100Z 2012/2118 02014KT CAVOK"
    },
    {
      "icao": "HESX",
      "alert": "OK",
      "vis_m": 9999,
      "fzfg": false,
      "metar_trigger": false,
      "taf_trigger": false,
      "metar": "METAR HESX 201400Z 31010KT CAVOK 25/04 Q1013 NOSIG",
      "taf": "TAF HESX 201100Z 2012/2118 32015KT CAVOK"
    },
    {
      "icao": "LATI",
      "alert": "OK",
      "vis_m": 9999,
      "fzfg": false,
      "metar_trigger": false,
      "taf_trigger": false,
      "metar": "METAR LATI 201450Z 25011KT 9999 FEW038 20/09 Q1013 NOSIG",
      "taf": "TAF LATI 201100Z 2012/2112 25014KT 9999 FEW040 BKN080 TX23/2012Z TN13/2104Z"
    },
    {
      "icao": "LBPD",
      "alert": "OK",
      "vis_m": 9999,
      "fzfg": false,
      "metar_trigger": false,
      "taf_trigger": false,
      "metar": "METAR LBPD 201430Z AUTO 13008KT 9999 BKN110/// OVC130/// 22/09 Q1008 NOSIG",
      "taf": "TAF LBPD 201100Z 2012/2112 23010KT 9999 SCT060"
    },
    {
      "icao": "LBSF",
      "alert": "OK",
      "vis_m": 9999,
      "fzfg": false,
      "metar_trigger": false,
      "taf_trigger": false,
      "metar": "METAR LBSF 201430Z 31012KT 280V340 9999 BKN069 18/05 Q1011 NOSIG",
      "taf": "TAF LBSF 201100Z 2012/2112 32014KT 9999 SCT050"
    },
    {
      "icao": "LBWN",
      "alert": "OK",
      "vis_m": 9999,
      "fzfg": false,
      "metar_trigger": false,
      "taf_trigger": false,
      "metar": "METAR LBWN 201430Z 10018KT 9999 SCT045 15/05 Q1009 TEMPO TSRA SCT030CB",
      "taf": "TAF LBWN 201100Z 2012/2112 14014KT 9999 SCT040 BKN060"
    },
    {
      "icao": "LCLK",
      "alert": "OK",
      "vis_m": 9999,
      "fzfg": false,
      "metar_trigger": false,
      "taf_trigger": false,
      "metar": "METAR LCLK 201430Z 31013KT 280V340 9999 FEW030 SCT055 24/07 Q1009 NOSIG",
      "taf": ""
    },
    {
      "icao": "LCPH",
      "alert": "OK",
      "vis_m": 9999,
      "fzfg": false,
      "metar_trigger": false,
      "taf_trigger": false,
      "metar": "METAR LCPH 201430Z 31013KT 250V320 9999 FEW025 20/11 Q1011 NOSIG",
      "taf": "TAF LCPH 201130Z 2012/2112 29015KT 9999 FEW025"
    },
    {
      "icao": "LEAL",
      "alert": "OK",
      "vis_m": 9999,
      "fzfg": false,
      "metar_trigger": false,
      "taf_trigger": false,
      "metar": "METAR LEAL 201430Z 19006KT 110V280 CAVOK 26/09 Q1012 NOSIG",
      "taf": "TAF LEAL 201100Z 2012/2112 VRB04KT CAVOK TX25/2012Z TN12/2106Z"
    },
    {
      "icao": "LEBB",
      "alert": "OK",
      "vis_m": 9999,
      "fzfg": false,
      "metar_trigger": false,
      "taf_trigger": false,
      "metar": "METAR LEBB 201430Z 28009KT 250V310 CAVOK 21/16 Q1011 NOSIG",
      "taf": "TAF LEBB 201100Z 2012/2112 31009KT 9999 FEW010 TX29/2112Z TN12/2106Z"
    },
    {
      "icao": "LEBL",
      "alert": "OK",
      "vis_m": 9999,
      "fzfg": false,
      "metar_trigger": false,
      "taf_trigger": false,
      "metar": "METAR LEBL 201430Z 22014KT 9999 FEW030 21/15 Q1012 NOSIG",
      "taf": ""
    },
    {
      "icao": "LECH",
      "alert": "OK",
      "vis_m": 9000,
      "fzfg": false,
      "metar_trigger": false,
      "taf_trigger": false,
      "metar": "METAR LECH 201430Z AUTO 14004KT 090V200 9000 NSC 19/14 Q1013",
      "taf": ""
    },
    {
      "icao": "LEMD",
      "alert": "OK",
      "vis_m": 9999,
      "fzfg": false,
      "metar_trigger": false,
      "taf_trigger": false,
      "metar": "METAR LEMD 201430Z 18007KT 130V230 9999 FEW055 27/04 Q1012 NOSIG",
      "taf": "TAF LEMD 201100Z 2012/2118 VRB04KT CAVOK TX29/2016Z TN11/2106Z"
    },
    {
      "icao": "LEMG",
      "alert": "OK",
      "vis_m": 9999,
      "fzfg": false,
      "metar_trigger": false,
      "taf_trigger": false,
      "metar": "METAR LEMG 201430Z 13007KT 110V170 CAVOK 22/07 Q1012 NOSIG",
      "taf": "TAF LEMG 201100Z 2012/2112 13010KT CAVOK TX25/2014Z TN11/2106Z"
    },
    {
      "icao": "LEVC",
      "alert": "OK",
      "vis_m": 9999,
      "fzfg": false,
      "metar_trigger": false,
      "taf_trigger": false,
      "metar": "METAR LEVC 201430Z 11009KT 060V160 CAVOK 26/11 Q1011 NOSIG",
      "taf": "TAF LEVC 201100Z 2012/2112 VRB04KT CAVOK TX29/2012Z TN13/2106Z"
    },
    {
      "icao": "LEXJ",
      "alert": "OK",
      "vis_m": 9000,
      "fzfg": false,
      "metar_trigger": false,
      "taf_trigger": false,
      "metar": "METAR LEXJ 201430Z 02005KT 320V070 9000 NSC 18/14 Q1011",
      "taf": "TAF LEXJ 201400Z 2015/2115 06009KT 9000 FEW010 TX24/2112Z TN13/2106Z"
    },
    {
      "icao": "LEZG",
      "alert": "OK",
      "vis_m": 9999,
      "fzfg": false,
      "metar_trigger": false,
      "taf_trigger": false,
      "metar": "METAR LEZG 201430Z 34003KT CAVOK 28/09 Q1010 NOSIG",
      "taf": "TAF LEZG 201100Z 2012/2112 10006KT CAVOK TX31/2015Z TN14/2106Z"
    },
    {
      "icao": "LEZL",
      "alert": "OK",
      "vis_m": 9999,
      "fzfg": false,
      "metar_trigger": false,
      "taf_trigger": false,
      "metar": "METAR LEZL 201430Z 23005KT 160V320 CAVOK 31/07 Q1009 NOSIG",
      "taf": "TAF LEZL 201400Z 2015/2115 06005KT CAVOK TX32/2015Z TN14/2106Z"
    },
    {
      "icao": "LFBD",
      "alert": "OK",
      "vis_m": 9999,
      "fzfg": false,
      "metar_trigger": false,
      "taf_trigger": false,
      "metar": "METAR LFBD 201430Z AUTO 01008KT 310V040 CAVOK 25/09 Q1011 NOSIG",
      "taf": "TAF LFBD 201100Z 2012/2118 03010KT CAVOK TX28/2115Z TN12/2105Z"
    },
    {
      "icao": "LFLL",
      "alert": "OK",
      "vis_m": 9999,
      "fzfg": false,
      "metar_trigger": false,
      "taf_trigger": false,
      "metar": "METAR LFLL 201430Z 34008KT 310V010 CAVOK 18/00 Q1014 NOSIG",
      "taf": "TAF LFLL 201100Z 2012/2118 35008KT CAVOK"
    },
    {
      "icao": "LFLS",
      "alert": "OK",
      "vis_m": 9999,
      "fzfg": false,
      "metar_trigger": false,
      "taf_trigger": false,
      "metar": "METAR LFLS 201430Z AUTO 33006KT 280V020 9999 // NSC 18/03 Q1014",
      "taf": "TAF LFLS 201400Z 2015/2115 35007KT CAVOK"
    },
    {
      "icao": "LFMN",
      "alert": "OK",
      "vis_m": 9999,
      "fzfg": false,
      "metar_trigger": false,
      "taf_trigger": false,
      "metar": "METAR LFMN 201430Z 16004KT 140V200 9999 FEW016 BKN033 19/14 Q1011 NOSIG",
      "taf": "TAF LFMN 201400Z 2015/2121 17007KT 9999 BKN033"
    },
    {
      "icao": "LFOB",
      "alert": "OK",
      "vis_m": 9999,
      "fzfg": false,
      "metar_trigger": false,
      "taf_trigger": false,
      "metar": "METAR LFOB 201430Z AUTO 05012KT 9999 FEW004 BKN050 13/03 Q1020 NOSIG",
      "taf": "TAF LFOB 201100Z 2012/2112 04012KT 9999 SCT045"
    },
    {
      "icao": "LFPO",
      "alert": "OK",
      "vis_m": 9999,
      "fzfg": false,
      "metar_trigger": false,
      "taf_trigger": false,
      "metar": "METAR LFPO 201430Z 05011KT 010V070 9999 FEW043 SCT240 15/02 Q1019 NOSIG",
      "taf": "TAF LFPO 201100Z 2012/2118 03010KT CAVOK"
    },
    {
      "icao": "LFSB",
      "alert": "OK",
      "vis_m": 9999,
      "fzfg": false,
      "metar_trigger": false,
      "taf_trigger": false,
      "metar": "METAR LFSB 201430Z AUTO 35005KT 280V030 CAVOK 17/04 Q1015 NOSIG",
      "taf": "TAF LFSB 201100Z 2012/2112 36007KT 9999 FEW050"
    },
    {
      "icao": "LGAV",
      "alert": "OK",
      "vis_m": 9999,
      "fzfg": false,
      "metar_trigger": false,
      "taf_trigger": false,
      "metar": "METAR LGAV 201420Z 22014KT 9999 FEW030 21/09 Q1013 NOSIG",
      "taf": "TAF LGAV 201100Z 2012/2112 VRB05KT 9999 FEW025"
    },
    {
      "icao": "LGTS",
      "alert": "OK",
      "vis_m": 9999,
      "fzfg": false,
      "metar_trigger": false,
      "taf_trigger": false,
      "metar": "METAR LGTS 201420Z 19010KT 9999 FEW025 22/13 Q1010 NOSIG",
      "taf": "TAF LGTS 201100Z 2012/2112 VRB03KT 9999 FEW030"
    },
    {
      "icao": "LHBP",
      "alert": "OK",
      "vis_m": 9999,
      "fzfg": false,
      "metar_trigger": false,
      "taf_trigger": false,
      "metar": "METAR LHBP 201430Z 29019KT 260V320 CAVOK 17/00 Q1012 NOSIG",
      "taf": "TAF LHBP 201115Z 2012/2112 31017G27KT CAVOK"
    },
    {
      "icao": "LHDC",
      "alert": "OK",
      "vis_m": 9999,
      "fzfg": false,
      "metar_trigger": false,
      "taf_trigger": false,
      "metar": "METAR LHDC 201415Z AUTO 04014KT 010V070 9999 //////TCU 15/05 Q1010 NOSIG",
      "taf": "TAF LHDC 201415Z 2015/2024 03014KT CAVOK"
    },
    {
      "icao": "LIBD",
      "alert": "OK",
      "vis_m": 9999,
      "fzfg": false,
      "metar_trigger": false,
      "taf_trigger": false,
      "metar": "METAR LIBD 201420Z 08007KT CAVOK 20/12 Q1012",
      "taf": "TAF LIBD 201100Z 2012/2112 VRB06KT CAVOK"
    },
    {
      "icao": "LIBG",
      "alert": "OK",
      "vis_m": 9999,
      "fzfg": false,
      "metar_trigger": false,
      "taf_trigger": false,
      "metar": "METAR LIBG 201350Z 19004KT 130V240 9999 FEW020 23/10 Q1012",
      "taf": "TAF LIBG 201400Z 2015/2024 21010KT 9999 FEW030"
    },
    {
      "icao": "LIBP",
      "alert": "OK",
      "vis_m": 9999,
      "fzfg": false,
      "metar_trigger": false,
      "taf_trigger": false,
      "metar": "METAR LIBP 201420Z AUTO 05010KT 9999 SCT098/// 20/12 Q1011",
      "taf": "TAF LIBP 201100Z 2012/2112 VRB06KT 9999 FEW040"
    },
    {
      "icao": "LIBR",
      "alert": "OK",
      "vis_m": 9999,
      "fzfg": false,
      "metar_trigger": false,
      "taf_trigger": false,
      "metar": "METAR LIBR 201420Z 07005KT CAVOK 20/14 Q1012",
      "taf": "TAF LIBR 201100Z 2012/2112 20014KT 9999 FEW040"
    },
    {
      "icao": "LICA",
      "alert": "OK",
      "vis_m": 9999,
      "fzfg": false,
      "metar_trigger": false,
      "taf_trigger": false,
      "metar": "METAR LICA 201420Z AUTO 25011KT 9999 FEW015/// 20/16 Q1015",
      "taf": "TAF LICA 201100Z 2012/2112 25012KT 9999 FEW012"
    },
    {
      "icao": "LICC",
      "alert": "OK",
      "vis_m": 9999,
      "fzfg": false,
      "metar_trigger": false,
      "taf_trigger": false,
      "metar": "METAR LICC 201420Z 07011KT 040V100 9999 FEW025 21/17 Q1014",
      "taf": "TAF LICC 201100Z 2012/2112 10010KT CAVOK"
    },
    {
      "icao": "LICJ",
      "alert": "OK",
      "vis_m": 9999,
      "fzfg": false,
      "metar_trigger": false,
      "taf_trigger": false,
      "metar": "METAR LICJ 201420Z 03010KT CAVOK 19/15 Q1014",
      "taf": "TAF LICJ 201100Z 2012/2112 02010KT CAVOK"
    },
    {
      "icao": "LIMC",
      "alert": "OK",
      "vis_m": 9999,
      "fzfg": false,
      "metar_trigger": false,
      "taf_trigger": false,
      "metar": "METAR LIMC 201420Z 14004KT 100V170 9999 SCT040 22/11 Q1010 NOSIG",
      "taf": "TAF LIMC 201100Z 2012/2118 VRB06KT 9999 SCT025 SCT070"
    },
    {
      "icao": "LIME",
      "alert": "OK",
      "vis_m": 9999,
      "fzfg": false,
      "metar_trigger": false,
      "taf_trigger": false,
      "metar": "METAR LIME 201420Z 24006KT 160V290 9999 FEW035 SCT070 21/11 Q1010 NOSIG",
      "taf": "TAF LIME 201100Z 2012/2112 VRB05KT 9999 FEW040"
    },
    {
      "icao": "LIMF",
      "alert": "OK",
      "vis_m": 9999,
      "fzfg": false,
      "metar_trigger": false,
      "taf_trigger": false,
      "metar": "METAR LIMF 201420Z VRB02KT 9999 FEW040 21/09 Q1010",
      "taf": "TAF LIMF 201100Z 2012/2112 VRB05KT CAVOK"
    },
    {
      "icao": "LIMJ",
      "alert": "OK",
      "vis_m": 9999,
      "fzfg": false,
      "metar_trigger": false,
      "taf_trigger": false,
      "metar": "METAR LIMJ 201420Z 12012KT 9999 BKN028 18/14 Q1011",
      "taf": "TAF LIMJ 201100Z 2012/2112 14010KT 9999 FEW010 BKN015"
    },
    {
      "icao": "LIPE",
      "alert": "OK",
      "vis_m": 9999,
      "fzfg": false,
      "metar_trigger": false,
      "taf_trigger": false,
      "metar": "METAR LIPE 201420Z VRB01KT 9999 FEW050 22/13 Q1010",
      "taf": "TAF LIPE 201100Z 2012/2112 VRB05KT 9999 SCT030"
    },
    {
      "icao": "LIPH",
      "alert": "OK",
      "vis_m": 9999,
      "fzfg": false,
      "metar_trigger": false,
      "taf_trigger": false,
      "metar": "METAR LIPH 201420Z 15007KT 100V190 9999 SCT040 20/12 Q1010",
      "taf": "TAF LIPH 201100Z 2012/2112 VRB06KT 9999 SCT035"
    },
    {
      "icao": "LIPQ",
      "alert": "OK",
      "vis_m": 9999,
      "fzfg": false,
      "metar_trigger": false,
      "taf_trigger": false,
      "metar": "METAR LIPQ 201420Z AUTO 20006KT 170V250 9999 NCD 20/10 Q1011",
      "taf": "TAF LIPQ 201100Z 2012/2112 VRB05KT 9999 SCT030"
    },
    {
      "icao": "LIPR",
      "alert": "OK",
      "vis_m": 9999,
      "fzfg": false,
      "metar_trigger": false,
      "taf_trigger": false,
      "metar": "METAR LIPR 201420Z 10007KT 070V140 CAVOK 21/13 Q1010",
      "taf": "TAF LIPR 201100Z 2012/2112 VRB06KT 9999 SCT040"
    },
    {
      "icao": "LIPX",
      "alert": "OK",
      "vis_m": 9999,
      "fzfg": false,
      "metar_trigger": false,
      "taf_trigger": false,
      "metar": "METAR LIPX 201420Z 15004KT 110V210 9999 FEW040 21/12 Q1010",
      "taf": "TAF LIPX 201100Z 2012/2112 10007KT 9999 FEW040"
    },
    {
      "icao": "LIPY",
      "alert": "OK",
      "vis_m": 9999,
      "fzfg": false,
      "metar_trigger": false,
      "taf_trigger": false,
      "metar": "METAR LIPY 201420Z AUTO 14005KT 100V190 9999 NCD 23/13 Q1009",
      "taf": "TAF LIPY 201100Z 2012/2112 VRB06KT 8000 FEW040"
    },
    {
      "icao": "LIPZ",
      "alert": "OK",
      "vis_m": 9999,
      "fzfg": false,
      "metar_trigger": false,
      "taf_trigger": false,
      "metar": "METAR LIPZ 201420Z 15006KT 110V180 9999 FEW020 18/13 Q1011 NOSIG",
      "taf": "TAF LIPZ 201100Z 2012/2118 12012KT 9999 FEW050"
    },
    {
      "icao": "LIRF",
      "alert": "OK",
      "vis_m": 9999,
      "fzfg": false,
      "metar_trigger": false,
      "taf_trigger": false,
      "metar": "METAR LIRF 201420Z 16010KT 140V200 CAVOK 21/15 Q1013 NOSIG",
      "taf": "TAF LIRF 201100Z 2012/2118 17010KT 9999 FEW015"
    },
    {
      "icao": "LIRN",
      "alert": "OK",
      "vis_m": 9999,
      "fzfg": false,
      "metar_trigger": false,
      "taf_trigger": false,
      "metar": "METAR LIRN 201420Z 21013KT 170V230 9999 FEW020 19/12 Q1014 NOSIG",
      "taf": "TAF LIRN 201100Z 2012/2112 20010KT 9999 FEW015"
    },
    {
      "icao": "LIRP",
      "alert": "OK",
      "vis_m": 9999,
      "fzfg": false,
      "metar_trigger": false,
      "taf_trigger": false,
      "metar": "METAR LIRP 201415Z 25007KT 9999 FEW035 SCT040 22/13 Q1012 NOSIG",
      "taf": "TAF LIRP 201100Z 2012/2112 25010KT 9999 SCT030"
    },
    {
      "icao": "LIRZ",
      "alert": "OK",
      "vis_m": 9999,
      "fzfg": false,
      "metar_trigger": false,
      "taf_trigger": false,
      "metar": "METAR LIRZ 201420Z AUTO 22007KT 9999 -RA VCTS BKN045/// 20/13 Q1011",
      "taf": "TAF LIRZ 201100Z 2012/2112 21012KT 9999 SCT060"
    },
    {
      "icao": "LJLJ",
      "alert": "OK",
      "vis_m": 9999,
      "fzfg": false,
      "metar_trigger": false,
      "taf_trigger": false,
      "metar": "METAR LJLJ 201430Z 13013KT 9999 +TSRA FEW007 BKN025CB OVC035 10/08 Q1012 NOSIG",
      "taf": "TAF LJLJ 201100Z 2012/2112 11007KT 9999 FEW020 BKN040"
    },
    {
      "icao": "LKMT",
      "alert": "OK",
      "vis_m": 9999,
      "fzfg": false,
      "metar_trigger": false,
      "taf_trigger": false,
      "metar": "METAR LKMT 201430Z 06006KT 9999 VCSH BKN041 10/05 Q1013 TEMPO SHRA FEW020TCU",
      "taf": "TAF LKMT 201100Z 2012/2112 02008KT 9999 BKN040"
    },
    {
      "icao": "LKPR",
      "alert": "OK",
      "vis_m": 5000,
      "fzfg": false,
      "metar_trigger": false,
      "taf_trigger": false,
      "metar": "METAR LKPR 201430Z 30014KT 5000 RA FEW007 BKN012 OVC024 05/04 Q1015 BECMG 7000 -RA",
      "taf": "TAF LKPR 201400Z 2015/2121 28012KT 9999 -RA BKN020"
    },
    {
      "icao": "LLBG",
      "alert": "OK",
      "vis_m": 9999,
      "fzfg": false,
      "metar_trigger": false,
      "taf_trigger": false,
      "metar": "METAR LLBG 201450Z 29010KT 9999 FEW032 SCT040 20/12 Q1012 NOSIG",
      "taf": "TAF LLBG 201107Z 2012/2112 26013KT 9999 SCT040 TX21/2012Z TN14/2103Z"
    },
    {
      "icao": "LMML",
      "alert": "OK",
      "vis_m": 9999,
      "fzfg": false,
      "metar_trigger": false,
      "taf_trigger": false,
      "metar": "METAR LMML 201445Z 22009KT 9999 FEW025 20/14 Q1016 NOSIG",
      "taf": "TAF LMML 201100Z 2012/2112 24007KT 9999 FEW015"
    },
    {
      "icao": "LOWW",
      "alert": "OK",
      "vis_m": 9999,
      "fzfg": false,
      "metar_trigger": false,
      "taf_trigger": false,
      "metar": "METAR LOWW 201420Z 34006KT CAVOK 14/03 Q1013 NOSIG",
      "taf": "TAF LOWW 201415Z 2015/2121 33010KT 9999 FEW050 TX15/2015Z TN07/2102Z"
    },
    {
      "icao": "LPFR",
      "alert": "OK",
      "vis_m": 9999,
      "fzfg": false,
      "metar_trigger": false,
      "taf_trigger": false,
      "metar": "METAR LPFR 201430Z 11012KT CAVOK 23/10 Q1010",
      "taf": "TAF LPFR 201100Z 2012/2112 11013KT CAVOK"
    },
    {
      "icao": "LPMA",
      "alert": "OK",
      "vis_m": 9999,
      "fzfg": false,
      "metar_trigger": false,
      "taf_trigger": false,
      "metar": "METAR LPMA 201430Z 06009KT 350V110 9999 FEW013 21/15 Q1003",
      "taf": ""
    },
    {
      "icao": "LPPR",
      "alert": "OK",
      "vis_m": 9999,
      "fzfg": false,
      "metar_trigger": false,
      "taf_trigger": false,
      "metar": "METAR LPPR 201430Z VRB05KT CAVOK 19/12 Q1011",
      "taf": "TAF LPPR 201100Z 2012/2112 30007KT CAVOK"
    },
    {
      "icao": "LPPS",
      "alert": "OK",
      "vis_m": 9999,
      "fzfg": false,
      "metar_trigger": false,
      "taf_trigger": false,
      "metar": "METAR LPPS 201430Z 19008KT 150V230 9999 SCT010 20/15 Q1003",
      "taf": "TAF LPPS 201100Z 2012/2118 27013KT 9999 SCT015"
    },
    {
      "icao": "LPPT",
      "alert": "OK",
      "vis_m": 9999,
      "fzfg": false,
      "metar_trigger": false,
      "taf_trigger": false,
      "metar": "METAR LPPT 201430Z 23010KT CAVOK 25/09 Q1010",
      "taf": "TAF LPPT 201100Z 2012/2118 10005KT CAVOK"
    },
    {
      "icao": "LQBK",
      "alert": "OK",
      "vis_m": 9999,
      "fzfg": false,
      "metar_trigger": false,
      "taf_trigger": false,
      "metar": "METAR LQBK 201430Z 01009KT 9999 BKN043 14/05 Q1014 NOSIG",
      "taf": "TAF LQBK 201100Z 2012/2112 30005KT 9999 FEW020 SCT045 TX16/2014Z TN08/2104Z"
    },
    {
      "icao": "LQSA",
      "alert": "OK",
      "vis_m": 9999,
      "fzfg": false,
      "metar_trigger": false,
      "taf_trigger": false,
      "metar": "METAR LQSA 201430Z 00000KT 9999 FEW040TCU SCT060 18/06 Q1010 TEMPO 24010KT SHRA",
      "taf": "TAF LQSA 201100Z 2012/2112 35006KT 9999 SCT055 TX18/2014Z TN08/2105Z"
    },
    {
      "icao": "LQTZ",
      "alert": "OK",
      "vis_m": 9999,
      "fzfg": false,
      "metar_trigger": false,
      "taf_trigger": false,
      "metar": "METAR LQTZ 201430Z 07008KT 030V110 9999 SCT040 16/07 Q1013",
      "taf": "TAF LQTZ 201100Z 2012/2112 36007KT 9999 BKN045 TX16/2013Z TN06/2104Z"
    },
    {
      "icao": "LRBC",
      "alert": "OK",
      "vis_m": 9999,
      "fzfg": false,
      "metar_trigger": false,
      "taf_trigger": false,
      "metar": "METAR LRBC 201430Z 35005KT 9999 -RA BKN043 OVC055 14/10 Q1008",
      "taf": "TAF LRBC 201400Z 2015/2024 35012KT 9999 BKN045"
    },
    {
      "icao": "LRBS",
      "alert": "OK",
      "vis_m": 9999,
      "fzfg": false,
      "metar_trigger": false,
      "taf_trigger": false,
      "metar": "METAR LRBS 201430Z 28014KT 240V350 CAVOK 21/07 Q1007 NOSIG",
      "taf": "TAF LRBS 201100Z 2012/2112 24012KT CAVOK"
    },
    {
      "icao": "LRBV",
      "alert": "OK",
      "vis_m": 9999,
      "fzfg": false,
      "metar_trigger": false,
      "taf_trigger": false,
      "metar": "METAR LRBV 201430Z 29013KT 9999 -RA SCT020 BKN043 FEW045CB 10/08 Q1009",
      "taf": "TAF LRBV 201400Z 2015/2024 29009KT CAVOK"
    },
    {
      "icao": "LRCL",
      "alert": "OK",
      "vis_m": 9999,
      "fzfg": false,
      "metar_trigger": false,
      "taf_trigger": false,
      "metar": "METAR LRCL 201430Z COR 30012KT 270V330 9999 FEW052 16/04 Q1009",
      "taf": "TAF LRCL 201400Z 2015/2024 29006KT CAVOK"
    },
    {
      "icao": "LRCV",
      "alert": "OK",
      "vis_m": 9999,
      "fzfg": false,
      "metar_trigger": false,
      "taf_trigger": false,
      "metar": "METAR LRCV 201430Z 28017KT 9999 FEW040 17/09 Q1009",
      "taf": "TAF LRCV 201400Z 2015/2024 28018KT CAVOK"
    },
    {
      "icao": "LRIA",
      "alert": "OK",
      "vis_m": 9999,
      "fzfg": false,
      "metar_trigger": false,
      "taf_trigger": false,
      "metar": "METAR LRIA 201430Z 01008KT 9999 -RA FEW021 13/10 Q1008",
      "taf": "TAF LRIA 201400Z 2015/2024 01008KT 9999 SCT035"
    },
    {
      "icao": "LROP",
      "alert": "OK",
      "vis_m": 9999,
      "fzfg": false,
      "metar_trigger": false,
      "taf_trigger": false,
      "metar": "METAR LROP 201430Z 27020KT CAVOK 21/03 Q1007 NOSIG",
      "taf": "TAF LROP 201100Z 2012/2112 24012KT CAVOK"
    },
    {
      "icao": "LRSB",
      "alert": "OK",
      "vis_m": 9999,
      "fzfg": false,
      "metar_trigger": false,
      "taf_trigger": false,
      "metar": "METAR LRSB 201430Z 28020KT 9999 SCT048 SCT070 14/04 Q1009 NOSIG",
      "taf": "TAF LRSB 201100Z 2012/2112 31013KT CAVOK"
    },
    {
      "icao": "LRSM",
      "alert": "OK",
      "vis_m": 9999,
      "fzfg": false,
      "metar_trigger": false,
      "taf_trigger": false,
      "metar": "METAR LRSM 201430Z 35006KT 9999 FEW035CB SCT042 15/07 Q1009",
      "taf": "TAF LRSM 201400Z 2015/2024 32008KT 9999 BKN045"
    },
    {
      "icao": "LRSV",
      "alert": "OK",
      "vis_m": 7000,
      "fzfg": false,
      "metar_trigger": false,
      "taf_trigger": false,
      "metar": "METAR LRSV 201430Z 34014KT 7000 -RA OVC003 07/07 Q1009 RERA",
      "taf": "TAF LRSV 201400Z 2015/2024 35010KT 9999 BKN010"
    },
    {
      "icao": "LRTM",
      "alert": "OK",
      "vis_m": 9999,
      "fzfg": false,
      "metar_trigger": false,
      "taf_trigger": false,
      "metar": "METAR LRTM 201430Z VRB02KT 9999 VCSH SCT020 FEW030CB BKN040 13/09 Q1009",
      "taf": "TAF LRTM 201400Z 2015/2024 VRB04KT CAVOK"
    },
    {
      "icao": "LRTR",
      "alert": "OK",
      "vis_m": 9999,
      "fzfg": false,
      "metar_trigger": false,
      "taf_trigger": false,
      "metar": "METAR LRTR 201430Z 29011KT 260V320 CAVOK 18/04 Q1012",
      "taf": "TAF LRTR 201100Z 2012/2112 29010KT CAVOK"
    },
    {
      "icao": "LTAC",
      "alert": "OK",
      "vis_m": 9999,
      "fzfg": false,
      "metar_trigger": false,
      "taf_trigger": false,
      "metar": "METAR LTAC 201420Z 13003KT 070V180 9999 SCT040 14/M01 Q1012 NOSIG RMK RWY21C VRB02KT RWY03L 15004KT 060V200 RWY21R 25005KT 210V280 RWY03R VRB04KT RWY21L 11004KT 060V150",
      "taf": "TAF LTAC 201040Z 2012/2112 VRB02KT 9999 SCT040"
    },
    {
      "icao": "LTFM",
      "alert": "OK",
      "vis_m": 9999,
      "fzfg": false,
      "metar_trigger": false,
      "taf_trigger": false,
      "metar": "METAR LTFM 201420Z 19009KT CAVOK 19/M01 Q1012 NOSIG RMK RWY17L 09008KT 060V120 RWY34L 19010KT 150V220 RWY16R 18008KT 150V210 RWY36 21009KT 170V250 RWY18 VRB06KT",
      "taf": "TAF LTFM 201040Z 2012/2118 VRB02KT CAVOK"
    },
    {
      "icao": "LUKK",
      "alert": "OK",
      "vis_m": 9999,
      "fzfg": false,
      "metar_trigger": false,
      "taf_trigger": false,
      "metar": "METAR LUKK 201430Z 06009KT 9999 FEW013 13/11 Q1008 TEMPO VRB16G28KT BKN035CB",
      "taf": "TAF LUKK 201124Z 2012/2112 VRB06KT 9999 SCT045"
    },
    {
      "icao": "LWOH",
      "alert": "OK",
      "vis_m": 9999,
      "fzfg": false,
      "metar_trigger": false,
      "taf_trigger": false,
      "metar": "METAR LWOH 201450Z 17006KT 9999 FEW040TCU SCT050 17/07 Q1013",
      "taf": "TAF LWOH 201435Z 2015/2115 19006KT 9999 SCT045 BKN060"
    },
    {
      "icao": "LWSK",
      "alert": "OK",
      "vis_m": 9999,
      "fzfg": false,
      "metar_trigger": false,
      "taf_trigger": false,
      "metar": "METAR LWSK 201450Z 01007KT 330V030 9999 FEW050 BKN070 20/07 Q1011 NOSIG",
      "taf": "TAF LWSK 201435Z 2015/2115 36012KT 9999 SCT050 BKN080"
    },
    {
      "icao": "LYBE",
      "alert": "OK",
      "vis_m": 9999,
      "fzfg": false,
      "metar_trigger": false,
      "taf_trigger": false,
      "metar": "METAR LYBE 201430Z 29009KT 9999 SCT040 17/07 Q1013 NOSIG",
      "taf": "TAF LYBE 201100Z 2012/2112 29009KT 9999 SCT035 TX18/2013Z TN08/2104Z"
    },
    {
      "icao": "LYNI",
      "alert": "OK",
      "vis_m": 9999,
      "fzfg": false,
      "metar_trigger": false,
      "taf_trigger": false,
      "metar": "METAR LYNI 201430Z 32010KT 290V350 9999 FEW030 15/09 Q1013 NOSIG",
      "taf": "TAF LYNI 201100Z 2012/2112 32012KT 9999 SCT040 TX16/2012Z TN05/2104Z"
    },
    {
      "icao": "LYPG",
      "alert": "OK",
      "vis_m": 9999,
      "fzfg": false,
      "metar_trigger": false,
      "taf_trigger": false,
      "metar": "METAR LYPG 201430Z VRB03KT 9999 FEW015 SCT034 18/13 Q1013 NOSIG",
      "taf": "TAF LYPG 201100Z 2012/2112 15008KT 9999 SCT033 BKN080 TX18/2013Z TN12/2104Z"
    },
    {
      "icao": "LZIB",
      "alert": "OK",
      "vis_m": 9999,
      "fzfg": false,
      "metar_trigger": false,
      "taf_trigger": false,
      "metar": "METAR LZIB 201430Z 33013KT CAVOK 15/02 Q1013 NOSIG",
      "taf": "TAF LZIB 201115Z 2012/2112 31013KT 9999 SCT030"
    },
    {
      "icao": "LZKZ",
      "alert": "OK",
      "vis_m": 9999,
      "fzfg": false,
      "metar_trigger": false,
      "taf_trigger": false,
      "metar": "METAR LZKZ 201430Z 01017KT CAVOK 13/02 Q1010 NOSIG",
      "taf": "TAF LZKZ 201115Z 2012/2112 02015KT CAVOK"
    },
    {
      "icao": "LZTT",
      "alert": "OK",
      "vis_m": 9999,
      "fzfg": false,
      "metar_trigger": false,
      "taf_trigger": false,
      "metar": "METAR LZTT 201430Z 26019KT 9999 FEW046 BKN053 09/M01 Q1010 NOSIG",
      "taf": "TAF LZTT 201115Z 2012/2112 27010KT 9999 SCT035"
    },
    {
      "icao": "OEJN",
      "alert": "OK",
      "vis_m": 9999,
      "fzfg": false,
      "metar_trigger": false,
      "taf_trigger": false,
      "metar": "METAR OEJN 201400Z 30011KT CAVOK 31/19 Q1005 NOSIG",
      "taf": "TAF OEJN 201100Z 2012/2118 30012KT 7000 FEW040"
    },
    {
      "icao": "OEMA",
      "alert": "OK",
      "vis_m": 9999,
      "fzfg": false,
      "metar_trigger": false,
      "taf_trigger": false,
      "metar": "METAR OEMA 201400Z 24015KT 9999 SCT040 33/12 Q1008 NOSIG",
      "taf": "TAF OEMA 201100Z 2012/2118 26015KT 7000 SCT045"
    },
    {
      "icao": "OJAI",
      "alert": "OK",
      "vis_m": 4000,
      "fzfg": false,
      "metar_trigger": false,
      "taf_trigger": false,
      "metar": "METAR OJAI 201400Z 27016KT 4000 BLDU FEW030 19/06 Q1013 NOSIG",
      "taf": "TAF OJAI 201100Z 2012/2118 29014KT 4000 HZ SCT030"
    },
    {
      "icao": "OMAA",
      "alert": "OK",
      "vis_m": null,
      "fzfg": false,
      "metar_trigger": false,
      "taf_trigger": false,
      "metar": "",
      "taf": ""
    },
    {
      "icao": "OMDB",
      "alert": "OK",
      "vis_m": null,
      "fzfg": false,
      "metar_trigger": false,
      "taf_trigger": false,
      "metar": "",
      "taf": ""
    },
    {
      "icao": "UAAA",
      "alert": "OK",
      "vis_m": 9999,
      "fzfg": false,
      "metar_trigger": false,
      "taf_trigger": false,
      "metar": "METAR UAAA 201430Z 12002MPS 9999 FEW100 14/04 Q1016 NOSIG",
      "taf": "TAF UAAA 201104Z 2012/2112 19003MPS 9999 FEW050 SCT100 TX20/2109Z TN03/2101Z"
    },
    {
      "icao": "UBBB",
      "alert": "OK",
      "vis_m": 9999,
      "fzfg": false,
      "metar_trigger": false,
      "taf_trigger": false,
      "metar": "METAR UBBB 201430Z 33016KT 9999 SCT049 13/09 Q1011 NOSIG",
      "taf": "TAF UBBB 201053Z 2012/2112 33018KT 9999 FEW040CB BKN040 TX13/2012Z TN09/2100Z"
    },
    {
      "icao": "UDSG",
      "alert": "OK",
      "vis_m": 9999,
      "fzfg": false,
      "metar_trigger": false,
      "taf_trigger": false,
      "metar": "METAR UDSG 201430Z 35003KT 9999 BKN040CB 09/02 Q1010 NOSIG",
      "taf": "TAF UDSG 201058Z 2012/2112 03006KT 9999 BKN040"
    },
    {
      "icao": "UDYZ",
      "alert": "OK",
      "vis_m": 9999,
      "fzfg": false,
      "metar_trigger": false,
      "taf_trigger": false,
      "metar": "METAR UDYZ 201430Z 02003KT 9999 BKN040CB 13/09 Q1008 NOSIG",
      "taf": "TAF UDYZ 201100Z 2012/2112 22006KT 9999 BKN040"
    },
    {
      "icao": "UGKO",
      "alert": "OK",
      "vis_m": 9999,
      "fzfg": false,
      "metar_trigger": false,
      "taf_trigger": false,
      "metar": "METAR UGKO 201430Z 28005KT 9999 SCT023 OVC038 12/07 Q1014 NOSIG",
      "taf": "TAF UGKO 201100Z 2012/2112 26006KT 9999 SCT030 OVC050 TX19/2110Z TN07/2103Z"
    }
  ]
}