{
  "ts_utc": "2026-02-15T20:58:38Z",
  "threshold_m": 150,
  "source": "stations_override.txt (ICAO list) + aviationweather.gov (METAR/TAF raw)",
  "station_count": 159,
  "stations": [
    {
      "icao": "BIKF",
      "alert": "OK",
      "vis_m": 9999,
      "fzfg": false,
      "metar_trigger": false,
      "taf_trigger": false,
      "metar": "METAR BIKF 152030Z 09003KT CAVOK M06/M12 Q1002",
      "taf": "TAF BIKF 151956Z 1521/1621 04008KT CAVOK TXM01/1616Z TNM06/1521Z"
    },
    {
      "icao": "BKPR",
      "alert": "OK",
      "vis_m": null,
      "fzfg": false,
      "metar_trigger": false,
      "taf_trigger": false,
      "metar": "",
      "taf": ""
    },
    {
      "icao": "EBCI",
      "alert": "OK",
      "vis_m": 9000,
      "fzfg": false,
      "metar_trigger": false,
      "taf_trigger": false,
      "metar": "METAR EBCI 152050Z 20010KT 9000 -DZ FEW007 BKN011 01/01 Q0996 TEMPO 4000 -DZ BKN004",
      "taf": "TAF EBCI 151700Z 1518/1624 18012KT 2000 -SN BKN006"
    },
    {
      "icao": "EDDB",
      "alert": "OK",
      "vis_m": 9999,
      "fzfg": false,
      "metar_trigger": false,
      "taf_trigger": false,
      "metar": "METAR EDDB 152050Z AUTO 11008KT CAVOK M04/M08 Q1010 NOSIG",
      "taf": "TAF EDDB 151700Z 1518/1618 11008KT CAVOK"
    },
    {
      "icao": "EDDH",
      "alert": "OK",
      "vis_m": 9999,
      "fzfg": false,
      "metar_trigger": false,
      "taf_trigger": false,
      "metar": "METAR EDDH 152050Z AUTO 13013KT CAVOK M02/M07 Q1005 NOSIG",
      "taf": "TAF EDDH 151700Z 1518/1624 13013KT CAVOK"
    },
    {
      "icao": "EDDK",
      "alert": "OK",
      "vis_m": 5000,
      "fzfg": false,
      "metar_trigger": false,
      "taf_trigger": false,
      "metar": "METAR EDDK 152050Z AUTO 13007KT 5000 -SN BR SCT006 BKN017 00/00 Q0999 RESN TEMPO 3000 SN BKN006",
      "taf": "TAF EDDK 151700Z 1518/1624 14012KT 3500 -SN OVC009"
    },
    {
      "icao": "EDDN",
      "alert": "OK",
      "vis_m": 9999,
      "fzfg": false,
      "metar_trigger": false,
      "taf_trigger": false,
      "metar": "METAR EDDN 152050Z AUTO 13013KT CAVOK M01/M05 Q1005 NOSIG",
      "taf": "TAF EDDN 151700Z 1518/1618 14005KT 9999 BKN030"
    },
    {
      "icao": "EDDS",
      "alert": "OK",
      "vis_m": 2600,
      "fzfg": false,
      "metar_trigger": false,
      "taf_trigger": false,
      "metar": "METAR EDDS 152050Z AUTO 12005KT 2600 -SHSN BR BKN003 FEW///CB 00/M00 Q1001 RESHSN TEMPO SN",
      "taf": ""
    },
    {
      "icao": "EDFH",
      "alert": "OK",
      "vis_m": 1800,
      "fzfg": false,
      "metar_trigger": false,
      "taf_trigger": false,
      "metar": "METAR EDFH 152050Z 15012KT 1800 -SN BR BKN002 OVC012 M01/M01 Q0997",
      "taf": ""
    },
    {
      "icao": "EDJA",
      "alert": "OK",
      "vis_m": 2000,
      "fzfg": false,
      "metar_trigger": false,
      "taf_trigger": false,
      "metar": "METAR EDJA 152050Z VRB02KT 2000 SN BKN010 OVC030 M01/M03 Q1003",
      "taf": "TAF EDJA 151700Z 1518/1603 12005KT 9999 SCT025"
    },
    {
      "icao": "EDLW",
      "alert": "OK",
      "vis_m": 4200,
      "fzfg": false,
      "metar_trigger": false,
      "taf_trigger": false,
      "metar": "METAR EDLW 152050Z 10006KT 4200 -SN SCT015 OVC019 00/M01 Q0999",
      "taf": "TAF EDLW 151700Z 1518/1618 15010KT 9999 BKN030"
    },
    {
      "icao": "EDNY",
      "alert": "OK",
      "vis_m": 3900,
      "fzfg": false,
      "metar_trigger": false,
      "taf_trigger": false,
      "metar": "METAR EDNY 152050Z AUTO 02003KT 330V060 3900 // FEW015/// BKN018/// OVC024/// 00/M00 Q1004",
      "taf": "TAF EDNY 151700Z 1518/1603 06004KT 9999 SCT040"
    },
    {
      "icao": "EDSB",
      "alert": "OK",
      "vis_m": 8000,
      "fzfg": false,
      "metar_trigger": false,
      "taf_trigger": false,
      "metar": "METAR EDSB 152050Z 20012KT 170V230 8000 RA OVC012 03/01 Q1001",
      "taf": "TAF EDSB 151700Z 1518/1618 16005KT 9999 BKN030"
    },
    {
      "icao": "EETN",
      "alert": "OK",
      "vis_m": 9999,
      "fzfg": false,
      "metar_trigger": false,
      "taf_trigger": false,
      "metar": "METAR EETN 152050Z 21004KT 9999 OVC026 M05/M07 Q1014 NOSIG",
      "taf": "TAF EETN 151730Z 1518/1618 25009KT 9999 OVC025"
    },
    {
      "icao": "EFTU",
      "alert": "OK",
      "vis_m": 9999,
      "fzfg": false,
      "metar_trigger": false,
      "taf_trigger": false,
      "metar": "METAR EFTU 152050Z AUTO VRB02KT 9999 OVC009 M14/M16 Q1014",
      "taf": "TAF EFTU 152037Z 1521/1621 VRB02KT 9999 OVC010"
    },
    {
      "icao": "EGBB",
      "alert": "OK",
      "vis_m": 9999,
      "fzfg": false,
      "metar_trigger": false,
      "taf_trigger": false,
      "metar": "METAR EGBB 152050Z 26007KT CAVOK 06/04 Q0993",
      "taf": "TAF EGBB 151704Z 1518/1618 25009KT 9999 FEW030"
    },
    {
      "icao": "EGGP",
      "alert": "OK",
      "vis_m": 9999,
      "fzfg": false,
      "metar_trigger": false,
      "taf_trigger": false,
      "metar": "METAR EGGP 152050Z 25006KT 9999 SCT030 05/03 Q0992",
      "taf": "TAF EGGP 151703Z 1518/1618 26012KT 9999 FEW025"
    },
    {
      "icao": "EGGW",
      "alert": "OK",
      "vis_m": 9999,
      "fzfg": false,
      "metar_trigger": false,
      "taf_trigger": false,
      "metar": "METAR EGGW 152050Z AUTO 26013KT 9999 NCD 05/04 Q0994",
      "taf": "TAF EGGW 151656Z 1518/1618 25012KT 9999 BKN003"
    },
    {
      "icao": "EGKK",
      "alert": "OK",
      "vis_m": 9999,
      "fzfg": false,
      "metar_trigger": false,
      "taf_trigger": false,
      "metar": "METAR EGKK 152050Z 25011KT 9999 FEW022 07/06 Q0995",
      "taf": "TAF EGKK 151656Z 1518/1624 24008KT 9999 SCT018"
    },
    {
      "icao": "EGNM",
      "alert": "OK",
      "vis_m": 9999,
      "fzfg": false,
      "metar_trigger": false,
      "taf_trigger": false,
      "metar": "METAR EGNM 152050Z 25014KT 9999 SCT015 BKN023 05/04 Q0989",
      "taf": "TAF EGNM 151702Z 1518/1618 26009KT 9999 SCT015"
    },
    {
      "icao": "EGPD",
      "alert": "OK",
      "vis_m": 9999,
      "fzfg": false,
      "metar_trigger": false,
      "taf_trigger": false,
      "metar": "METAR EGPD 152050Z COR AUTO VRB01KT 9999 NCD 01/00 Q0986 NOSIG",
      "taf": ""
    },
    {
      "icao": "EGPF",
      "alert": "OK",
      "vis_m": 5000,
      "fzfg": false,
      "metar_trigger": false,
      "taf_trigger": false,
      "metar": "METAR EGPF 152050Z VRB01KT 5000 BR BKN020CB OVC027 04/03 Q0988",
      "taf": "TAF EGPF 151701Z 1518/1618 26005KT 9999 FEW015 SCT030"
    },
    {
      "icao": "EHBK",
      "alert": "OK",
      "vis_m": 9999,
      "fzfg": false,
      "metar_trigger": false,
      "taf_trigger": false,
      "metar": "METAR EHBK 152055Z AUTO 19006KT 9999 -UP FEW005 SCT009 OVC017 01/00 Q0997 NOSIG",
      "taf": "TAF EHBK 151719Z 1518/1624 16010KT 1000 SN BKN004"
    },
    {
      "icao": "EHEH",
      "alert": "OK",
      "vis_m": 2500,
      "fzfg": false,
      "metar_trigger": false,
      "taf_trigger": false,
      "metar": "METAR EHEH 152025Z AUTO 14006KT 110V200 2500 R21/P3000D -RA FEW000 SCT003 BKN004 00/M00 Q0997 YLO TEMPO 2000 -SN SCT004 BKN006 RMK TREND REMOTE BY EHWX",
      "taf": "TAF EHEH 151740Z 1518/1624 16010G20KT 2500 -SN SNRA BKN006 OVC008"
    },
    {
      "icao": "EKBI",
      "alert": "OK",
      "vis_m": 9999,
      "fzfg": false,
      "metar_trigger": false,
      "taf_trigger": false,
      "metar": "METAR EKBI 152050Z AUTO 13018KT 9999 FEW018/// BKN110/// M03/M06 Q1004",
      "taf": "TAF EKBI 152027Z 1521/1621 15015KT CAVOK"
    },
    {
      "icao": "EKCH",
      "alert": "OK",
      "vis_m": 9999,
      "fzfg": false,
      "metar_trigger": false,
      "taf_trigger": false,
      "metar": "METAR EKCH 152050Z AUTO 14018KT 9999 BKN028/// M02/M07 Q1010 TEMPO 15018G28KT",
      "taf": "TAF EKCH 152027Z 1521/1621 15012KT CAVOK"
    },
    {
      "icao": "ENAL",
      "alert": "OK",
      "vis_m": 9999,
      "fzfg": false,
      "metar_trigger": false,
      "taf_trigger": false,
      "metar": "METAR ENAL 152050Z 19017G27KT 150V210 CAVOK 04/M05 Q0992",
      "taf": "TAF ENAL 152000Z 1521/1606 17018KT CAVOK"
    },
    {
      "icao": "ENBR",
      "alert": "OK",
      "vis_m": 9999,
      "fzfg": false,
      "metar_trigger": false,
      "taf_trigger": false,
      "metar": "METAR ENBR 152050Z 14021G31KT 9999 SCT045 02/M06 Q0996 RMK WIND 1200FT 14039G51KT",
      "taf": "TAF ENBR 151700Z 1518/1618 14022KT 9999 SCT012 BKN030"
    },
    {
      "icao": "ENGM",
      "alert": "OK",
      "vis_m": 9999,
      "fzfg": false,
      "metar_trigger": false,
      "taf_trigger": false,
      "metar": "METAR ENGM 152050Z 17006KT 9999 -SN OVC010 M08/M10 Q1006 NOSIG",
      "taf": ""
    },
    {
      "icao": "ENHD",
      "alert": "OK",
      "vis_m": 9999,
      "fzfg": false,
      "metar_trigger": false,
      "taf_trigger": false,
      "metar": "METAR ENHD 152050Z 15021G33KT 9999 FEW036 02/M06 Q0997",
      "taf": "TAF ENHD 151400Z 1515/1523 15018KT 9999 SCT008 BKN018"
    },
    {
      "icao": "ENTC",
      "alert": "OK",
      "vis_m": 9999,
      "fzfg": false,
      "metar_trigger": false,
      "taf_trigger": false,
      "metar": "METAR ENTC 152050Z VRB02KT CAVOK M05/M08 Q0998 NOSIG RMK WIND 2600FT 16017KT",
      "taf": "TAF ENTC 151700Z 1518/1618 18010KT 9999 BKN030"
    },
    {
      "icao": "ENTO",
      "alert": "OK",
      "vis_m": 9999,
      "fzfg": false,
      "metar_trigger": false,
      "taf_trigger": false,
      "metar": "METAR ENTO 152050Z 17016KT 9999 OVC013 M03/M04 Q1007 TEMPO OVC015",
      "taf": "TAF ENTO 151700Z 1518/1618 18015KT 9999 -SN OVC018"
    },
    {
      "icao": "ENVA",
      "alert": "OK",
      "vis_m": 9999,
      "fzfg": false,
      "metar_trigger": false,
      "taf_trigger": false,
      "metar": "METAR ENVA 152050Z 08009KT 060V120 CAVOK M01/M10 Q0998 RMK WIND 670FT 16024G34KT",
      "taf": "TAF ENVA 151700Z 1518/1618 08008KT CAVOK"
    },
    {
      "icao": "ENZV",
      "alert": "OK",
      "vis_m": 9999,
      "fzfg": false,
      "metar_trigger": false,
      "taf_trigger": false,
      "metar": "METAR ENZV 152050Z 15021G31KT CAVOK 02/M06 Q0998 TEMPO 16020KT",
      "taf": "TAF ENZV 151700Z 1518/1618 16022KT 9999 SCT035"
    },
    {
      "icao": "EPGD",
      "alert": "OK",
      "vis_m": 9999,
      "fzfg": false,
      "metar_trigger": false,
      "taf_trigger": false,
      "metar": "METAR EPGD 152030Z VRB01KT CAVOK M13/M14 Q1015",
      "taf": "TAF EPGD 151730Z 1518/1618 10008KT CAVOK"
    },
    {
      "icao": "EPKK",
      "alert": "OK",
      "vis_m": 9999,
      "fzfg": false,
      "metar_trigger": false,
      "taf_trigger": false,
      "metar": "METAR EPKK 152030Z 33004KT 280V020 9999 OVC020 M05/M09 Q1011",
      "taf": "TAF EPKK 152030Z 1521/1621 34005KT 9999 OVC020"
    },
    {
      "icao": "EPKT",
      "alert": "OK",
      "vis_m": 9999,
      "fzfg": false,
      "metar_trigger": false,
      "taf_trigger": false,
      "metar": "METAR EPKT 152030Z 36005KT 9999 -SN FEW009 OVC020 M06/M09 Q1011",
      "taf": "TAF EPKT 151730Z 1518/1618 35007KT 9999 OVC022"
    },
    {
      "icao": "EPLB",
      "alert": "OK",
      "vis_m": 9999,
      "fzfg": false,
      "metar_trigger": false,
      "taf_trigger": false,
      "metar": "METAR EPLB 152030Z 35005KT 320V030 9999 BKN015 M08/M10 Q1011",
      "taf": "TAF EPLB 151730Z 1518/1618 36010KT 4000 -SN BR SCT010 BKN025"
    },
    {
      "icao": "EPMO",
      "alert": "OK",
      "vis_m": 9999,
      "fzfg": false,
      "metar_trigger": false,
      "taf_trigger": false,
      "metar": "METAR EPMO 152030Z 01005KT CAVOK M11/M13 Q1014",
      "taf": "TAF EPMO 151730Z 1518/1618 01007KT CAVOK"
    },
    {
      "icao": "EPPO",
      "alert": "OK",
      "vis_m": 9999,
      "fzfg": false,
      "metar_trigger": false,
      "taf_trigger": false,
      "metar": "METAR EPPO 152030Z 08006KT CAVOK M08/M10 Q1013",
      "taf": "TAF EPPO 151730Z 1518/1618 06006KT 9999 FEW025"
    },
    {
      "icao": "EPRA",
      "alert": "OK",
      "vis_m": 9999,
      "fzfg": false,
      "metar_trigger": false,
      "taf_trigger": false,
      "metar": "METAR EPRA 152030Z 35005KT 9999 SCT025 M09/M12 Q1012",
      "taf": "TAF EPRA 152030Z 1521/1606 01006KT 9999 SCT025"
    },
    {
      "icao": "EPRZ",
      "alert": "OK",
      "vis_m": 9999,
      "fzfg": false,
      "metar_trigger": false,
      "taf_trigger": false,
      "metar": "METAR EPRZ 152030Z 32007KT 9999 -SN SCT007 OVC013 M07/M09 Q1011",
      "taf": "TAF EPRZ 151730Z 1518/1618 34010KT 6000 SCT008 BKN016"
    },
    {
      "icao": "EPSC",
      "alert": "OK",
      "vis_m": 9999,
      "fzfg": false,
      "metar_trigger": false,
      "taf_trigger": false,
      "metar": "METAR EPSC 152030Z 11007KT CAVOK M05/M09 Q1012",
      "taf": "TAF EPSC 151730Z 1518/1618 11006KT CAVOK"
    },
    {
      "icao": "EPSY",
      "alert": "OK",
      "vis_m": 9999,
      "fzfg": false,
      "metar_trigger": false,
      "taf_trigger": false,
      "metar": "METAR EPSY 152030Z 01005KT CAVOK M14/M17 Q1014",
      "taf": "TAF EPSY 152030Z 1521/1606 03007KT CAVOK"
    },
    {
      "icao": "EPWA",
      "alert": "OK",
      "vis_m": 9999,
      "fzfg": false,
      "metar_trigger": false,
      "taf_trigger": false,
      "metar": "METAR EPWA 152030Z 04009KT 010V080 CAVOK M08/M14 Q1013 NOSIG",
      "taf": "TAF EPWA 152030Z 1521/1621 03008KT CAVOK"
    },
    {
      "icao": "EPWR",
      "alert": "OK",
      "vis_m": 9999,
      "fzfg": false,
      "metar_trigger": false,
      "taf_trigger": false,
      "metar": "METAR EPWR 152030Z VRB02KT 9999 BKN032 M03/M11 Q1013",
      "taf": "TAF EPWR 152030Z 1521/1621 VRB02KT 9999 BKN035"
    },
    {
      "icao": "ESGG",
      "alert": "OK",
      "vis_m": 9999,
      "fzfg": false,
      "metar_trigger": false,
      "taf_trigger": false,
      "metar": "METAR ESGG 152050Z 15008KT CAVOK M07/M11 Q1009",
      "taf": "TAF ESGG 152030Z 1521/1621 16010KT CAVOK"
    },
    {
      "icao": "ESKN",
      "alert": "OK",
      "vis_m": 9999,
      "fzfg": false,
      "metar_trigger": false,
      "taf_trigger": false,
      "metar": "METAR ESKN 152050Z 16004KT CAVOK M11/M12 Q1013",
      "taf": "TAF ESKN 152030Z 1521/1621 14005KT CAVOK"
    },
    {
      "icao": "ESMS",
      "alert": "OK",
      "vis_m": 9999,
      "fzfg": false,
      "metar_trigger": false,
      "taf_trigger": false,
      "metar": "METAR ESMS 152050Z 13012KT 9999 SCT026 M03/M08 Q1010",
      "taf": "TAF ESMS 152027Z 1521/1621 15008KT CAVOK"
    },
    {
      "icao": "ESSA",
      "alert": "OK",
      "vis_m": 9999,
      "fzfg": false,
      "metar_trigger": false,
      "taf_trigger": false,
      "metar": "METAR ESSA 152050Z 17005KT CAVOK M09/M10 Q1013 NOSIG",
      "taf": "TAF ESSA 152030Z 1521/1621 17006KT CAVOK"
    },
    {
      "icao": "EYKA",
      "alert": "OK",
      "vis_m": 9999,
      "fzfg": false,
      "metar_trigger": false,
      "taf_trigger": false,
      "metar": "METAR EYKA 152050Z 34001KT 9999 4300W NSC M17/M20 Q1016",
      "taf": ""
    },
    {
      "icao": "EYPA",
      "alert": "OK",
      "vis_m": 9999,
      "fzfg": false,
      "metar_trigger": false,
      "taf_trigger": false,
      "metar": "METAR EYPA 152050Z 11002KT CAVOK M19/M22 Q1017",
      "taf": "TAF EYPA 151700Z 1518/1618 VRB03KT 9000 NSC"
    },
    {
      "icao": "EYVI",
      "alert": "OK",
      "vis_m": 9999,
      "fzfg": false,
      "metar_trigger": false,
      "taf_trigger": false,
      "metar": "METAR EYVI 152050Z 02008KT CAVOK M15/M19 Q1014 NOSIG",
      "taf": "TAF EYVI 151700Z 1518/1618 01007KT 9000 NSC"
    },
    {
      "icao": "GCFV",
      "alert": "OK",
      "vis_m": 9000,
      "fzfg": false,
      "metar_trigger": false,
      "taf_trigger": false,
      "metar": "METAR GCFV 152030Z 01014KT 9000 FEW020 18/14 Q1026",
      "taf": "TAF GCFV 152000Z 1521/1621 03011KT CAVOK TX25/1614Z TN17/1606Z"
    },
    {
      "icao": "GCLP",
      "alert": "OK",
      "vis_m": 9999,
      "fzfg": false,
      "metar_trigger": false,
      "taf_trigger": false,
      "metar": "METAR GCLP 152030Z 01015KT 9999 FEW027 18/14 Q1026 NOSIG",
      "taf": "TAF GCLP 152000Z 1521/1621 36012KT 9999 FEW025 TX26/1614Z TN16/1606Z"
    },
    {
      "icao": "GCTS",
      "alert": "OK",
      "vis_m": 9999,
      "fzfg": false,
      "metar_trigger": false,
      "taf_trigger": false,
      "metar": "METAR GCTS 152030Z 06014KT 9999 FEW030 18/12 Q1026 NOSIG",
      "taf": "TAF GCTS 152000Z 1521/1621 07016KT 9999 FEW030 TX27/1614Z TN18/1606Z"
    },
    {
      "icao": "GMAD",
      "alert": "OK",
      "vis_m": 9999,
      "fzfg": false,
      "metar_trigger": false,
      "taf_trigger": false,
      "metar": "METAR GMAD 152030Z 22005KT CAVOK 15/10 Q1026 NOSIG",
      "taf": "TAF GMAD 151700Z 1518/1624 20008KT 8000 NSC"
    },
    {
      "icao": "GMMN",
      "alert": "OK",
      "vis_m": 9999,
      "fzfg": false,
      "metar_trigger": false,
      "taf_trigger": false,
      "metar": "METAR GMMN 152030Z 05007KT CAVOK 11/08 Q1031 NOSIG",
      "taf": "TAF GMMN 151100Z 1512/1618 06009KT CAVOK"
    },
    {
      "icao": "GMMX",
      "alert": "OK",
      "vis_m": 9999,
      "fzfg": false,
      "metar_trigger": false,
      "taf_trigger": false,
      "metar": "METAR GMMX 152030Z 10005KT CAVOK 12/04 Q1029 NOSIG",
      "taf": "TAF GMMX 151700Z 1518/1624 24008KT 8000 NSC"
    },
    {
      "icao": "HEGN",
      "alert": "OK",
      "vis_m": 9999,
      "fzfg": false,
      "metar_trigger": false,
      "taf_trigger": false,
      "metar": "METAR HEGN 152000Z 30006KT CAVOK 19/08 Q1017 NOSIG",
      "taf": "TAF HEGN 151700Z 1518/1624 32012KT CAVOK"
    },
    {
      "icao": "HEMA",
      "alert": "OK",
      "vis_m": 9999,
      "fzfg": false,
      "metar_trigger": false,
      "taf_trigger": false,
      "metar": "METAR HEMA 152000Z 29008KT CAVOK 20/02 Q1016 NOSIG",
      "taf": "TAF HEMA 151700Z 1518/1624 30012KT CAVOK"
    },
    {
      "icao": "HESH",
      "alert": "OK",
      "vis_m": 9999,
      "fzfg": false,
      "metar_trigger": false,
      "taf_trigger": false,
      "metar": "METAR HESH 152000Z 33005KT CAVOK 20/06 Q1016 NOSIG",
      "taf": "TAF HESH 151700Z 1518/1624 36012KT CAVOK"
    },
    {
      "icao": "HESX",
      "alert": "OK",
      "vis_m": 9999,
      "fzfg": false,
      "metar_trigger": false,
      "taf_trigger": false,
      "metar": "METAR HESX 152000Z 07009KT CAVOK 17/06 Q1015 NOSIG",
      "taf": "TAF HESX 151700Z 1518/1624 15005KT 6000 NSC"
    },
    {
      "icao": "LATI",
      "alert": "OK",
      "vis_m": 9999,
      "fzfg": false,
      "metar_trigger": false,
      "taf_trigger": false,
      "metar": "METAR LATI 152050Z 12004KT 9999 SCT020 OVC055 11/08 Q1005 NOSIG",
      "taf": "TAF LATI 151700Z 1518/1618 VRB05KT 9999 RA SCT025 OVC040 TX15/1612Z TN08/1605Z"
    },
    {
      "icao": "LBPD",
      "alert": "OK",
      "vis_m": 9999,
      "fzfg": false,
      "metar_trigger": false,
      "taf_trigger": false,
      "metar": "METAR LBPD 152030Z AUTO 21004KT 170V260 9999 BKN220/// 08/06 Q1003",
      "taf": "TAF LBPD 151700Z 1518/1618 25016KT 9999 SCT030 BKN050"
    },
    {
      "icao": "LBSF",
      "alert": "OK",
      "vis_m": 9999,
      "fzfg": false,
      "metar_trigger": false,
      "taf_trigger": false,
      "metar": "METAR LBSF 152030Z AUTO 29018KT 9999 FEW033/// BKN045/// OVC071/// 03/M00 Q1005 TEMPO RA",
      "taf": "TAF LBSF 151700Z 1518/1618 29014KT 9999 BKN050"
    },
    {
      "icao": "LBWN",
      "alert": "OK",
      "vis_m": 9999,
      "fzfg": false,
      "metar_trigger": false,
      "taf_trigger": false,
      "metar": "METAR LBWN 152030Z AUTO 36007KT 9999 NSC 09/09 Q1000 NOSIG",
      "taf": "TAF LBWN 151700Z 1518/1618 10010KT 9999 BKN040"
    },
    {
      "icao": "LCLK",
      "alert": "OK",
      "vis_m": 9999,
      "fzfg": false,
      "metar_trigger": false,
      "taf_trigger": false,
      "metar": "METAR LCLK 152030Z 34005KT CAVOK 13/13 Q1019 NOSIG",
      "taf": "TAF LCLK 151730Z 1518/1618 06010KT 9999 FEW025"
    },
    {
      "icao": "LCPH",
      "alert": "OK",
      "vis_m": 9999,
      "fzfg": false,
      "metar_trigger": false,
      "taf_trigger": false,
      "metar": "METAR LCPH 152030Z 10009KT 090V160 CAVOK 16/05 Q1017 NOSIG",
      "taf": "TAF LCPH 151730Z 1518/1618 14010KT 9999 FEW020"
    },
    {
      "icao": "LEAL",
      "alert": "OK",
      "vis_m": 9999,
      "fzfg": false,
      "metar_trigger": false,
      "taf_trigger": false,
      "metar": "METAR LEAL 152030Z 31019KT CAVOK 17/05 Q1021 NOSIG",
      "taf": "TAF LEAL 151700Z 1518/1618 29012KT CAVOK TX22/1613Z TN13/1606Z"
    },
    {
      "icao": "LEBB",
      "alert": "OK",
      "vis_m": 9999,
      "fzfg": false,
      "metar_trigger": false,
      "taf_trigger": false,
      "metar": "METAR LEBB 152030Z 10004KT 070V140 9999 -RA OVC048 11/10 Q1020 NOSIG",
      "taf": "TAF LEBB 151700Z 1518/1618 20008KT 9999 FEW030 BKN050 TX15/1518Z TN10/1520Z"
    },
    {
      "icao": "LEBL",
      "alert": "OK",
      "vis_m": 9999,
      "fzfg": false,
      "metar_trigger": false,
      "taf_trigger": false,
      "metar": "METAR LEBL 152030Z 28008KT CAVOK 14/05 Q1016 NOSIG",
      "taf": "TAF LEBL 151700Z 1518/1618 22009KT 9999 FEW035 TX21/1613Z TN13/1606Z"
    },
    {
      "icao": "LECH",
      "alert": "OK",
      "vis_m": 9000,
      "fzfg": false,
      "metar_trigger": false,
      "taf_trigger": false,
      "metar": "METAR LECH 152030Z AUTO 30005KT 270V330 9000 NSC 13/01 Q1019",
      "taf": ""
    },
    {
      "icao": "LEMD",
      "alert": "OK",
      "vis_m": 9999,
      "fzfg": false,
      "metar_trigger": false,
      "taf_trigger": false,
      "metar": "METAR LEMD 152030Z 23007KT 200V270 9999 FEW050 11/03 Q1025 NOSIG",
      "taf": ""
    },
    {
      "icao": "LEMG",
      "alert": "OK",
      "vis_m": 9999,
      "fzfg": false,
      "metar_trigger": false,
      "taf_trigger": false,
      "metar": "METAR LEMG 152030Z 29019KT 9999 FEW045 14/07 Q1028 NOSIG",
      "taf": "TAF LEMG 151700Z 1518/1618 30012KT CAVOK TX19/1614Z TN12/1607Z"
    },
    {
      "icao": "LEVC",
      "alert": "OK",
      "vis_m": 9999,
      "fzfg": false,
      "metar_trigger": false,
      "taf_trigger": false,
      "metar": "METAR LEVC 152030Z 27019KT CAVOK 15/04 Q1020 NOSIG",
      "taf": "TAF LEVC 151700Z 1518/1618 27014KT CAVOK TX23/1614Z TN13/1606Z"
    },
    {
      "icao": "LEXJ",
      "alert": "OK",
      "vis_m": 5000,
      "fzfg": false,
      "metar_trigger": false,
      "taf_trigger": false,
      "metar": "METAR LEXJ 152030Z 25007KT 220V290 5000 -RA FEW015 BKN042 13/10 Q1020",
      "taf": "TAF LEXJ 152000Z 1521/1621 24009KT 9999 FEW025 BKN050 TX15/1610Z TN11/1601Z"
    },
    {
      "icao": "LEZG",
      "alert": "OK",
      "vis_m": 9999,
      "fzfg": false,
      "metar_trigger": false,
      "taf_trigger": false,
      "metar": "METAR LEZG 152030Z 23007KT 9999 SCT080 09/06 Q1021 NOSIG",
      "taf": "TAF LEZG 151700Z 1518/1618 27012KT CAVOK TX17/1612Z TN11/1606Z"
    },
    {
      "icao": "LEZL",
      "alert": "OK",
      "vis_m": 9999,
      "fzfg": false,
      "metar_trigger": false,
      "taf_trigger": false,
      "metar": "METAR LEZL 152030Z 24006KT 9999 SCT045 14/09 Q1031 NOSIG",
      "taf": "TAF LEZL 152000Z 1521/1621 28008KT 9999 SCT040 TX19/1615Z TN06/1607Z"
    },
    {
      "icao": "LFBD",
      "alert": "OK",
      "vis_m": 9999,
      "fzfg": false,
      "metar_trigger": false,
      "taf_trigger": false,
      "metar": "METAR LFBD 152030Z AUTO 28017KT 9999 OVC010 13/12 Q1015 TEMPO 27018G30KT 3000 RA",
      "taf": "TAF LFBD 151700Z 1518/1624 27015KT 9999 BKN012 TX14/1614Z TN10/1621Z"
    },
    {
      "icao": "LFLL",
      "alert": "OK",
      "vis_m": 9999,
      "fzfg": false,
      "metar_trigger": false,
      "taf_trigger": false,
      "metar": "METAR LFLL 152030Z 15007KT 9999 -RA BKN038 05/04 Q1009 NOSIG",
      "taf": "TAF LFLL 151700Z 1518/1624 16010KT 9999 OVC040"
    },
    {
      "icao": "LFLS",
      "alert": "OK",
      "vis_m": 9999,
      "fzfg": false,
      "metar_trigger": false,
      "taf_trigger": false,
      "metar": "METAR LFLS 152030Z AUTO 08013KT 9999 BKN037 OVC045 04/04 Q1010",
      "taf": ""
    },
    {
      "icao": "LFMN",
      "alert": "OK",
      "vis_m": 9999,
      "fzfg": false,
      "metar_trigger": false,
      "taf_trigger": false,
      "metar": "METAR LFMN 152030Z 32007KT CAVOK 10/04 Q1007 NOSIG",
      "taf": "TAF LFMN 152000Z 1521/1703 33010KT CAVOK"
    },
    {
      "icao": "LFOB",
      "alert": "OK",
      "vis_m": 9999,
      "fzfg": false,
      "metar_trigger": false,
      "taf_trigger": false,
      "metar": "METAR LFOB 152030Z AUTO 25004KT 220V280 9999 FEW017/// BKN037/// BKN056/// ///TCU 06/06 Q0999 TEMPO 27018G35KT 3500 SHRA SCT014 SCT020CB SCT030TCU",
      "taf": ""
    },
    {
      "icao": "LFPO",
      "alert": "OK",
      "vis_m": 9999,
      "fzfg": false,
      "metar_trigger": false,
      "taf_trigger": false,
      "metar": "METAR LFPO 152030Z 25008KT 9999 SCT033 09/08 Q1001 TEMPO 4000 -SHRA SCT030CB",
      "taf": "TAF LFPO 151700Z 1518/1624 25010KT 6000 BKN012"
    },
    {
      "icao": "LFSB",
      "alert": "OK",
      "vis_m": 9999,
      "fzfg": false,
      "metar_trigger": false,
      "taf_trigger": false,
      "metar": "METAR LFSB 152030Z AUTO 12006KT 9999 -RA OVC028/// ///CB 04/03 Q1003 TEMPO 4000 RA",
      "taf": ""
    },
    {
      "icao": "LGAV",
      "alert": "OK",
      "vis_m": 9999,
      "fzfg": false,
      "metar_trigger": false,
      "taf_trigger": false,
      "metar": "METAR LGAV 152050Z 20007KT 160V230 9999 FEW020 13/10 Q1008 NOSIG",
      "taf": "TAF LGAV 151700Z 1518/1618 21012KT 9000 FEW015 SCT025"
    },
    {
      "icao": "LGTS",
      "alert": "OK",
      "vis_m": 9999,
      "fzfg": false,
      "metar_trigger": false,
      "taf_trigger": false,
      "metar": "METAR LGTS 152050Z 10006KT 9999 -RA SCT020 12/08 Q1004 NOSIG",
      "taf": "TAF LGTS 151700Z 1518/1618 20013KT 9999 FEW025"
    },
    {
      "icao": "LHBP",
      "alert": "OK",
      "vis_m": 9999,
      "fzfg": false,
      "metar_trigger": false,
      "taf_trigger": false,
      "metar": "METAR LHBP 152030Z 31010KT 9999 BKN042 M01/M05 Q1008 NOSIG",
      "taf": "TAF LHBP 151715Z 1518/1618 31011KT CAVOK"
    },
    {
      "icao": "LHDC",
      "alert": "OK",
      "vis_m": 9999,
      "fzfg": false,
      "metar_trigger": false,
      "taf_trigger": false,
      "metar": "METAR LHDC 152015Z AUTO 36018G28KT 330V030 CAVOK M01/M07 Q1007 NOSIG",
      "taf": "TAF LHDC 151715Z 1518/1603 36018G30KT CAVOK"
    },
    {
      "icao": "LIBD",
      "alert": "OK",
      "vis_m": 9999,
      "fzfg": false,
      "metar_trigger": false,
      "taf_trigger": false,
      "metar": "METAR LIBD 152050Z 28010KT CAVOK 09/05 Q1007",
      "taf": "TAF LIBD 151700Z 1518/1618 27010KT 9999 FEW030"
    },
    {
      "icao": "LIBG",
      "alert": "OK",
      "vis_m": null,
      "fzfg": false,
      "metar_trigger": false,
      "taf_trigger": false,
      "metar": "",
      "taf": "TAF LIBG 151700Z 1518/1603 29010KT 9999 FEW040"
    },
    {
      "icao": "LIBP",
      "alert": "OK",
      "vis_m": 9999,
      "fzfg": false,
      "metar_trigger": false,
      "taf_trigger": false,
      "metar": "METAR LIBP 152050Z AUTO 21005KT 9999 NCD 06/04 Q1009",
      "taf": "TAF LIBP 151700Z 1518/1618 VRB05KT 9999 FEW030 SCT060"
    },
    {
      "icao": "LIBR",
      "alert": "OK",
      "vis_m": 9999,
      "fzfg": false,
      "metar_trigger": false,
      "taf_trigger": false,
      "metar": "METAR LIBR 152050Z 29015KT 9999 BKN030 11/06 Q1006",
      "taf": ""
    },
    {
      "icao": "LICA",
      "alert": "OK",
      "vis_m": 9999,
      "fzfg": false,
      "metar_trigger": false,
      "taf_trigger": false,
      "metar": "METAR LICA 152050Z AUTO 23006KT 9999 SCT071/// 13/11 Q1008",
      "taf": "TAF LICA 151700Z 1518/1618 28008KT 9999 OVC060"
    },
    {
      "icao": "LICC",
      "alert": "OK",
      "vis_m": 9999,
      "fzfg": false,
      "metar_trigger": false,
      "taf_trigger": false,
      "metar": "METAR LICC 152050Z 28010KT 9999 FEW020 12/09 Q1008",
      "taf": "TAF LICC 151700Z 1518/1618 27006KT 9999 SCT020"
    },
    {
      "icao": "LICJ",
      "alert": "OK",
      "vis_m": 9999,
      "fzfg": false,
      "metar_trigger": false,
      "taf_trigger": false,
      "metar": "METAR LICJ 152050Z 27018KT 9999 -RA SCT020 SCT040 14/12 Q1011",
      "taf": "TAF LICJ 151700Z 1518/1618 31016KT 9999 SCT030"
    },
    {
      "icao": "LIMC",
      "alert": "OK",
      "vis_m": 9999,
      "fzfg": false,
      "metar_trigger": false,
      "taf_trigger": false,
      "metar": "METAR LIMC 152050Z 03003KT CAVOK 06/00 Q1007 NOSIG",
      "taf": "TAF LIMC 151700Z 1518/1624 VRB06KT CAVOK"
    },
    {
      "icao": "LIME",
      "alert": "OK",
      "vis_m": 9999,
      "fzfg": false,
      "metar_trigger": false,
      "taf_trigger": false,
      "metar": "METAR LIME 152050Z VRB02KT 9999 FEW100 08/02 Q1007 NOSIG",
      "taf": "TAF LIME 151700Z 1518/1618 VRB05KT CAVOK"
    },
    {
      "icao": "LIMF",
      "alert": "OK",
      "vis_m": 9999,
      "fzfg": false,
      "metar_trigger": false,
      "taf_trigger": false,
      "metar": "METAR LIMF 152050Z 29006KT CAVOK 08/00 Q1007",
      "taf": ""
    },
    {
      "icao": "LIMJ",
      "alert": "OK",
      "vis_m": 9999,
      "fzfg": false,
      "metar_trigger": false,
      "taf_trigger": false,
      "metar": "METAR LIMJ 152050Z 36003KT 320V020 CAVOK 10/06 Q1007",
      "taf": "TAF LIMJ 151700Z 1518/1618 VRB05KT CAVOK"
    },
    {
      "icao": "LIPE",
      "alert": "OK",
      "vis_m": 9999,
      "fzfg": false,
      "metar_trigger": false,
      "taf_trigger": false,
      "metar": "METAR LIPE 152050Z 16005KT 9999 FEW070 09/04 Q1007",
      "taf": "TAF LIPE 151700Z 1518/1618 VRB05KT 9999 FEW060"
    },
    {
      "icao": "LIPH",
      "alert": "OK",
      "vis_m": 9999,
      "fzfg": false,
      "metar_trigger": false,
      "taf_trigger": false,
      "metar": "METAR LIPH 152050Z 03004KT 360V060 9999 SCT040 09/03 Q1008",
      "taf": "TAF LIPH 151700Z 1518/1618 04006KT 9999 FEW020 SCT060"
    },
    {
      "icao": "LIPQ",
      "alert": "OK",
      "vis_m": 9999,
      "fzfg": false,
      "metar_trigger": false,
      "taf_trigger": false,
      "metar": "METAR LIPQ 152050Z AUTO 13007KT 9999 SCT073/// 05/M01 Q1009",
      "taf": "TAF LIPQ 151700Z 1518/1618 VRB05KT 9999 FEW060"
    },
    {
      "icao": "LIPR",
      "alert": "OK",
      "vis_m": 9999,
      "fzfg": false,
      "metar_trigger": false,
      "taf_trigger": false,
      "metar": "METAR LIPR 152050Z 20004KT CAVOK 04/04 Q1008",
      "taf": "TAF LIPR 151700Z 1518/1618 VRB05KT CAVOK"
    },
    {
      "icao": "LIPX",
      "alert": "OK",
      "vis_m": 9999,
      "fzfg": false,
      "metar_trigger": false,
      "taf_trigger": false,
      "metar": "METAR LIPX 152050Z 14004KT CAVOK 05/02 Q1007",
      "taf": "TAF LIPX 151700Z 1518/1618 VRB05KT CAVOK"
    },
    {
      "icao": "LIPY",
      "alert": "OK",
      "vis_m": 9999,
      "fzfg": false,
      "metar_trigger": false,
      "taf_trigger": false,
      "metar": "METAR LIPY 152050Z AUTO 17003KT 9999 NCD 06/05 Q1008",
      "taf": "TAF LIPY 151700Z 1518/1618 VRB05KT 9999 FEW020"
    },
    {
      "icao": "LIPZ",
      "alert": "OK",
      "vis_m": 9999,
      "fzfg": false,
      "metar_trigger": false,
      "taf_trigger": false,
      "metar": "METAR LIPZ 152050Z 07003KT 010V120 9999 SCT060 10/05 Q1008 NOSIG",
      "taf": "TAF LIPZ 151700Z 1518/1624 VRB05KT 9999 FEW060"
    },
    {
      "icao": "LIRF",
      "alert": "OK",
      "vis_m": 9999,
      "fzfg": false,
      "metar_trigger": false,
      "taf_trigger": false,
      "metar": "METAR LIRF 152050Z 26004KT CAVOK 09/05 Q1008 NOSIG",
      "taf": "TAF LIRF 151700Z 1518/1624 35010KT CAVOK"
    },
    {
      "icao": "LIRN",
      "alert": "OK",
      "vis_m": 9999,
      "fzfg": false,
      "metar_trigger": false,
      "taf_trigger": false,
      "metar": "METAR LIRN 152050Z VRB04KT 9999 SCT080 11/05 Q1008 NOSIG",
      "taf": "TAF LIRN 151700Z 1518/1618 VRB06KT 9999 BKN080"
    },
    {
      "icao": "LIRP",
      "alert": "OK",
      "vis_m": 9999,
      "fzfg": false,
      "metar_trigger": false,
      "taf_trigger": false,
      "metar": "METAR LIRP 152045Z 16003KT CAVOK 08/07 Q1008 NOSIG",
      "taf": "TAF LIRP 151700Z 1518/1618 26005KT 9999 FEW040"
    },
    {
      "icao": "LIRZ",
      "alert": "OK",
      "vis_m": 9999,
      "fzfg": false,
      "metar_trigger": false,
      "taf_trigger": false,
      "metar": "METAR LIRZ 152050Z AUTO 35006KT 9999 NCD 05/03 Q1008",
      "taf": "TAF LIRZ 151700Z 1518/1618 02010KT 9999 BKN030"
    },
    {
      "icao": "LJLJ",
      "alert": "OK",
      "vis_m": 9999,
      "fzfg": false,
      "metar_trigger": false,
      "taf_trigger": false,
      "metar": "METAR LJLJ 152030Z 12002KT 9999 BKN050 01/M02 Q1010 NOSIG",
      "taf": "TAF LJLJ 151700Z 1518/1618 02006KT 9999 FEW065"
    },
    {
      "icao": "LKMT",
      "alert": "OK",
      "vis_m": 9999,
      "fzfg": false,
      "metar_trigger": false,
      "taf_trigger": false,
      "metar": "METAR LKMT 152030Z 36006KT 9999 OVC030 M05/M09 Q1012 NOSIG",
      "taf": "TAF LKMT 151700Z 1518/1618 01012KT 9999 BKN025"
    },
    {
      "icao": "LKPR",
      "alert": "OK",
      "vis_m": 9999,
      "fzfg": false,
      "metar_trigger": false,
      "taf_trigger": false,
      "metar": "METAR LKPR 152030Z 08004KT 050V120 CAVOK M07/M09 Q1009 NOSIG",
      "taf": "TAF LKPR 152000Z 1521/1703 14007KT CAVOK"
    },
    {
      "icao": "LLBG",
      "alert": "OK",
      "vis_m": 8000,
      "fzfg": false,
      "metar_trigger": false,
      "taf_trigger": false,
      "metar": "METAR LLBG 152050Z VRB02KT 8000 NSC 14/08 Q1016 NOSIG",
      "taf": "TAF LLBG 151716Z 1518/1618 VRB04KT CAVOK"
    },
    {
      "icao": "LMML",
      "alert": "OK",
      "vis_m": 9999,
      "fzfg": false,
      "metar_trigger": false,
      "taf_trigger": false,
      "metar": "METAR LMML 152045Z 29022KT 9999 FEW017 13/11 Q1012 NOSIG",
      "taf": "TAF LMML 151700Z 1518/1618 29020G30KT 9999 SCT020"
    },
    {
      "icao": "LOWW",
      "alert": "OK",
      "vis_m": 9999,
      "fzfg": false,
      "metar_trigger": false,
      "taf_trigger": false,
      "metar": "METAR LOWW 152050Z 35006KT CAVOK M03/M09 Q1012 NOSIG",
      "taf": "TAF LOWW 152015Z 1521/1703 35010KT 9999 SCT040 TXM01/1703Z TNM06/1602Z"
    },
    {
      "icao": "LPFR",
      "alert": "OK",
      "vis_m": 9999,
      "fzfg": false,
      "metar_trigger": false,
      "taf_trigger": false,
      "metar": "METAR LPFR 152030Z 29009KT 9999 SCT032 14/10 Q1032",
      "taf": "TAF LPFR 151700Z 1518/1618 27010KT 9999 SCT025"
    },
    {
      "icao": "LPMA",
      "alert": "OK",
      "vis_m": 9999,
      "fzfg": false,
      "metar_trigger": false,
      "taf_trigger": false,
      "metar": "METAR LPMA 152030Z 03013KT 9999 FEW016 16/11 Q1031",
      "taf": "TAF LPMA 151700Z 1518/1618 02015KT 9999 SCT015"
    },
    {
      "icao": "LPPR",
      "alert": "OK",
      "vis_m": 9999,
      "fzfg": false,
      "metar_trigger": false,
      "taf_trigger": false,
      "metar": "METAR LPPR 152030Z 21009KT 180V250 9999 BKN044 13/11 Q1028",
      "taf": "TAF LPPR 151700Z 1518/1618 22010KT 9999 SCT012 BKN025"
    },
    {
      "icao": "LPPS",
      "alert": "OK",
      "vis_m": 9999,
      "fzfg": false,
      "metar_trigger": false,
      "taf_trigger": false,
      "metar": "METAR LPPS 152030Z 09012KT 9999 SCT015 15/12 Q1032",
      "taf": "TAF LPPS 151700Z 1518/1624 06012KT 9999 SCT015"
    },
    {
      "icao": "LPPT",
      "alert": "OK",
      "vis_m": 9999,
      "fzfg": false,
      "metar_trigger": false,
      "taf_trigger": false,
      "metar": "METAR LPPT 152030Z 25007KT 9999 FEW012 BKN016 13/11 Q1032",
      "taf": "TAF LPPT 151700Z 1518/1624 29012KT 9999 SCT025"
    },
    {
      "icao": "LQBK",
      "alert": "OK",
      "vis_m": 9999,
      "fzfg": false,
      "metar_trigger": false,
      "taf_trigger": false,
      "metar": "METAR LQBK 152030Z 27003KT CAVOK 01/M04 Q1012 NOSIG",
      "taf": "TAF LQBK 151700Z 1518/1618 26005KT CAVOK TX06/1613Z TNM05/1606Z"
    },
    {
      "icao": "LQSA",
      "alert": "OK",
      "vis_m": 9999,
      "fzfg": false,
      "metar_trigger": false,
      "taf_trigger": false,
      "metar": "METAR LQSA 152030Z 30005KT 9999 SCT020 OVC030 01/M01 Q1010 NOSIG",
      "taf": "TAF LQSA 151700Z 1518/1618 31005KT 9999 SCT020 BKN030 TX08/1614Z TNM04/1605Z"
    },
    {
      "icao": "LQTZ",
      "alert": "OK",
      "vis_m": 9999,
      "fzfg": false,
      "metar_trigger": false,
      "taf_trigger": false,
      "metar": "METAR LQTZ 152030Z 31003KT 9999 FEW020 BKN035 OVC050 01/00 Q1011",
      "taf": "TAF LQTZ 151700Z 1518/1618 27005KT 9999 FEW010 BKN020 TX05/1613Z TNM06/1605Z"
    },
    {
      "icao": "LRBC",
      "alert": "OK",
      "vis_m": 2000,
      "fzfg": false,
      "metar_trigger": false,
      "taf_trigger": false,
      "metar": "METAR LRBC 152030Z 34018KT 2000 SN BR OVC008 M01/M01 Q1001",
      "taf": "TAF LRBC 152000Z 1521/1606 34020KT 5000 -SN BR OVC015"
    },
    {
      "icao": "LRBS",
      "alert": "OK",
      "vis_m": 5000,
      "fzfg": false,
      "metar_trigger": false,
      "taf_trigger": false,
      "metar": "METAR LRBS 152030Z 24013KT 5000 BR SCT002 BKN005 OVC008 09/09 Q0999 BECMG OVC010",
      "taf": "TAF LRBS 151700Z 1518/1618 VRB04KT 0600 -RA FG BKN001"
    },
    {
      "icao": "LRBV",
      "alert": "OK",
      "vis_m": 9999,
      "fzfg": false,
      "metar_trigger": false,
      "taf_trigger": false,
      "metar": "METAR LRBV 152030Z 29012KT 260V320 9999 -DZ FEW009 BKN014 BKN019 05/03 Q0998",
      "taf": "TAF LRBV 152000Z 1521/1606 27010KT 9999 SCT015 BKN035"
    },
    {
      "icao": "LRCL",
      "alert": "OK",
      "vis_m": 9999,
      "fzfg": false,
      "metar_trigger": false,
      "taf_trigger": false,
      "metar": "METAR LRCL 152030Z 28014KT 9999 OVC013 00/M02 Q1002",
      "taf": "TAF LRCL 152000Z 1521/1606 27015KT 9999 BKN010 OVC025"
    },
    {
      "icao": "LRCV",
      "alert": "OK",
      "vis_m": 9999,
      "fzfg": false,
      "metar_trigger": false,
      "taf_trigger": false,
      "metar": "METAR LRCV 152030Z 28021KT 9999 FEW015 SCT020 BKN040 03/00 Q1002",
      "taf": "TAF LRCV 152000Z 1521/1606 26017KT 9999 SCT015 BKN040"
    },
    {
      "icao": "LRIA",
      "alert": "OK",
      "vis_m": 1500,
      "fzfg": false,
      "metar_trigger": false,
      "taf_trigger": false,
      "metar": "METAR LRIA 152030Z 30020KT 1500 SN OVC006 M01/M02 Q1000",
      "taf": "TAF LRIA 152000Z 1521/1606 31012KT 5000 -SN BR OVC005"
    },
    {
      "icao": "LROP",
      "alert": "OK",
      "vis_m": 5000,
      "fzfg": false,
      "metar_trigger": false,
      "taf_trigger": false,
      "metar": "METAR LROP 152030Z 26015KT 5000 BR OVC005 09/09 Q0999 BECMG OVC010",
      "taf": "TAF LROP 151700Z 1518/1618 VRB04KT 0600 -RA FG BKN001"
    },
    {
      "icao": "LRSB",
      "alert": "OK",
      "vis_m": 9000,
      "fzfg": false,
      "metar_trigger": false,
      "taf_trigger": false,
      "metar": "METAR LRSB 152030Z 36004KT 9000 -RA SCT003 BKN005 OVC018 04/04 Q1000",
      "taf": "TAF LRSB 151700Z 1518/1618 30010KT 5000 -RA BR BKN005 OVC010"
    },
    {
      "icao": "LRSM",
      "alert": "OK",
      "vis_m": 9999,
      "fzfg": false,
      "metar_trigger": false,
      "taf_trigger": false,
      "metar": "METAR LRSM 152030Z AUTO 32014KT 9999 SCT029/// BKN033/// M01/M05 Q1005",
      "taf": ""
    },
    {
      "icao": "LRSV",
      "alert": "OK",
      "vis_m": 1500,
      "fzfg": false,
      "metar_trigger": false,
      "taf_trigger": false,
      "metar": "METAR LRSV 152030Z 30021KT 1500 SN BR BKN010 M04/M06 Q1001",
      "taf": "TAF LRSV 152000Z 1521/1606 31020KT 3000 -SN BR BKN010 BKN035"
    },
    {
      "icao": "LRTM",
      "alert": "OK",
      "vis_m": 6000,
      "fzfg": false,
      "metar_trigger": false,
      "taf_trigger": false,
      "metar": "METAR LRTM 152030Z AUTO 28012KT 6000 -RA FEW008/// SCT010/// BKN016/// 01/M00 Q1001",
      "taf": "TAF LRTM 152000Z 1521/1606 26005KT 9999 BKN010 OVC025"
    },
    {
      "icao": "LRTR",
      "alert": "OK",
      "vis_m": 9999,
      "fzfg": false,
      "metar_trigger": false,
      "taf_trigger": false,
      "metar": "METAR LRTR 152030Z 34012KT 9999 FEW015 SCT020 BKN029 01/00 Q1008",
      "taf": "TAF LRTR 151700Z 1518/1618 34014KT 9999 BKN007 BKN030"
    },
    {
      "icao": "LTAC",
      "alert": "OK",
      "vis_m": 9999,
      "fzfg": false,
      "metar_trigger": false,
      "taf_trigger": false,
      "metar": "METAR LTAC 152050Z 16004KT 110V260 CAVOK 12/01 Q1013 NOSIG",
      "taf": "TAF LTAC 151640Z 1518/1618 VRB02KT CAVOK"
    },
    {
      "icao": "LTFM",
      "alert": "OK",
      "vis_m": 9999,
      "fzfg": false,
      "metar_trigger": false,
      "taf_trigger": false,
      "metar": "METAR LTFM 152050Z 22014KT 9999 -SHRA BKN035 BKN080 13/09 Q1006 NOSIG",
      "taf": "TAF LTFM 151640Z 1518/1624 22023G35KT 9999 SCT040 BKN100"
    },
    {
      "icao": "LUKK",
      "alert": "OK",
      "vis_m": 9999,
      "fzfg": false,
      "metar_trigger": false,
      "taf_trigger": false,
      "metar": "METAR LUKK 152030Z 33011KT 9999 -RA OVC008 02/01 Q0996 NOSIG",
      "taf": "TAF LUKK 151723Z 1518/1618 32014KT 3000 -RA BR BKN003"
    },
    {
      "icao": "LWOH",
      "alert": "OK",
      "vis_m": 9999,
      "fzfg": false,
      "metar_trigger": false,
      "taf_trigger": false,
      "metar": "METAR LWOH 151950Z VRB01KT 9999 FEW015 BKN037 06/05 Q1004",
      "taf": "TAF LWOH 152025Z 1521/1621 VRB02KT 9999 FEW015 BKN040"
    },
    {
      "icao": "LWSK",
      "alert": "OK",
      "vis_m": 9999,
      "fzfg": false,
      "metar_trigger": false,
      "taf_trigger": false,
      "metar": "METAR LWSK 152050Z 36011KT 9999 DZ FEW020 BKN030 OVC080 05/03 Q1007 NOSIG",
      "taf": "TAF LWSK 152025Z 1521/1621 02015KT 9999 RA FEW005 BKN030 OVC060"
    },
    {
      "icao": "LYBE",
      "alert": "OK",
      "vis_m": 9999,
      "fzfg": false,
      "metar_trigger": false,
      "taf_trigger": false,
      "metar": "METAR LYBE 152030Z 31012KT 9999 FEW017 BKN030 00/M01 Q1011 NOSIG",
      "taf": "TAF LYBE 151700Z 1518/1618 28010KT 4000 SN BKN003 OVC025 TX07/1613Z TNM03/1606Z"
    },
    {
      "icao": "LYNI",
      "alert": "OK",
      "vis_m": 9999,
      "fzfg": false,
      "metar_trigger": false,
      "taf_trigger": false,
      "metar": "METAR LYNI 152030Z 30008KT 270V330 9999 FEW009 SCT017 BKN027 02/01 Q1009 NOSIG",
      "taf": "TAF LYNI 151700Z 1518/1618 33020G30KT 9999 SCT010 BKN040 TX08/1613Z TN01/1606Z"
    },
    {
      "icao": "LYPG",
      "alert": "OK",
      "vis_m": 9999,
      "fzfg": false,
      "metar_trigger": false,
      "taf_trigger": false,
      "metar": "METAR LYPG 152030Z 35015KT 9999 SCT050 BKN070 10/01 Q1005 NOSIG",
      "taf": "TAF LYPG 151700Z 1518/1618 36009KT 9999 SCT040 BKN080 TX13/1612Z TN07/1605Z"
    },
    {
      "icao": "LZIB",
      "alert": "OK",
      "vis_m": 9999,
      "fzfg": false,
      "metar_trigger": false,
      "taf_trigger": false,
      "metar": "METAR LZIB 152030Z 35006KT 9999 FEW035 M03/M09 Q1012 NOSIG",
      "taf": "TAF LZIB 151715Z 1518/1618 35007KT 9999 FEW025 BKN035"
    },
    {
      "icao": "LZKZ",
      "alert": "OK",
      "vis_m": 9999,
      "fzfg": false,
      "metar_trigger": false,
      "taf_trigger": false,
      "metar": "METAR LZKZ 152030Z 01017KT 9999 BKN026 M03/M07 Q1008 NOSIG",
      "taf": "TAF LZKZ 151715Z 1518/1618 36020KT 9999 FEW025"
    },
    {
      "icao": "LZTT",
      "alert": "OK",
      "vis_m": 9999,
      "fzfg": false,
      "metar_trigger": false,
      "taf_trigger": false,
      "metar": "METAR LZTT 152030Z 24007KT 9999 FEW016 M07/M10 Q1006",
      "taf": "TAF LZTT 151715Z 1518/1618 16004KT 9999 SCT015 BKN030"
    },
    {
      "icao": "OEJN",
      "alert": "OK",
      "vis_m": 9999,
      "fzfg": false,
      "metar_trigger": false,
      "taf_trigger": false,
      "metar": "METAR OEJN 152000Z VRB02KT CAVOK 26/18 Q1014 NOSIG",
      "taf": "TAF OEJN 151700Z 1518/1624 VRB03KT 7000 NSC"
    },
    {
      "icao": "OEMA",
      "alert": "OK",
      "vis_m": 9999,
      "fzfg": false,
      "metar_trigger": false,
      "taf_trigger": false,
      "metar": "METAR OEMA 152000Z 07009KT CAVOK 26/M02 Q1021 NOSIG",
      "taf": "TAF OEMA 151700Z 1518/1624 09010KT 7000 NSC"
    },
    {
      "icao": "OJAI",
      "alert": "OK",
      "vis_m": 3000,
      "fzfg": false,
      "metar_trigger": false,
      "taf_trigger": false,
      "metar": "METAR OJAI 152000Z 08009KT 3000 DU NSC 13/M02 Q1023 NOSIG",
      "taf": "TAF OJAI 151700Z 1518/1624 13010KT 3000 DU NSC"
    },
    {
      "icao": "OMAA",
      "alert": "OK",
      "vis_m": 9999,
      "fzfg": false,
      "metar_trigger": false,
      "taf_trigger": false,
      "metar": "METAR OMAA 152030Z 29009KT CAVOK 23/19 Q1014 NOSIG",
      "taf": "TAF OMAA 151700Z 1518/1700 28010KT 8000 NSC"
    },
    {
      "icao": "OMDB",
      "alert": "OK",
      "vis_m": 9999,
      "fzfg": false,
      "metar_trigger": false,
      "taf_trigger": false,
      "metar": "METAR OMDB 152030Z 27009KT 240V300 CAVOK 24/19 Q1012 NOSIG",
      "taf": "TAF OMDB 151700Z 1518/1700 28012KT CAVOK"
    },
    {
      "icao": "UAAA",
      "alert": "OK",
      "vis_m": 1700,
      "fzfg": false,
      "metar_trigger": false,
      "taf_trigger": false,
      "metar": "METAR UAAA 152030Z 15002MPS 110V200 1700 R23L/P2000D BR BKN100 01/M00 Q1014 NOSIG",
      "taf": "TAF UAAA 151701Z 1518/1618 24003MPS 1100 BR FU BKN003 OVC011 TX03/1609Z TNM02/1602Z"
    },
    {
      "icao": "UBBB",
      "alert": "OK",
      "vis_m": 9999,
      "fzfg": false,
      "metar_trigger": false,
      "taf_trigger": false,
      "metar": "METAR UBBB 152030Z 11003KT 110V180 CAVOK 06/05 Q1024 NOSIG",
      "taf": "TAF UBBB 151705Z 1518/1618 VRB04KT 9999 FEW030 TX15/1610Z TN06/1700Z"
    },
    {
      "icao": "UDSG",
      "alert": "OK",
      "vis_m": 9999,
      "fzfg": false,
      "metar_trigger": false,
      "taf_trigger": false,
      "metar": "METAR UDSG 152030Z 07003KT 9999 NSC M05/M05 Q1026 NOSIG",
      "taf": "TAF UDSG 151658Z 1518/1618 VRB06KT 9999 FEW040"
    },
    {
      "icao": "UDYZ",
      "alert": "OK",
      "vis_m": 9999,
      "fzfg": false,
      "metar_trigger": false,
      "taf_trigger": false,
      "metar": "METAR UDYZ 152030Z 05004KT 9999 NSC 05/01 Q1025 NOSIG",
      "taf": "TAF UDYZ 151700Z 1518/1618 VRB06KT 9999 FEW050"
    },
    {
      "icao": "UGKO",
      "alert": "OK",
      "vis_m": 9999,
      "fzfg": false,
      "metar_trigger": false,
      "taf_trigger": false,
      "metar": "METAR UGKO 152030Z 06017KT CAVOK 13/03 Q1015 NOSIG",
      "taf": "TAF UGKO 151700Z 1518/1618 08020KT CAVOK TX23/1611Z TN11/1603Z"
    }
  ]
}