{
  "ts_utc": "2026-02-19T23:59:38Z",
  "threshold_m": 150,
  "source": "stations_override.txt (ICAO list) + aviationweather.gov (METAR/TAF raw)",
  "station_count": 159,
  "stations": [
    {
      "icao": "BIKF",
      "alert": "OK",
      "vis_m": 9999,
      "fzfg": false,
      "metar_trigger": false,
      "taf_trigger": false,
      "metar": "METAR BIKF 192330Z 05013KT CAVOK M02/M08 Q1008",
      "taf": "TAF BIKF 192249Z 2000/2100 07010KT CAVOK TX02/2015Z TNM05/2100Z"
    },
    {
      "icao": "BKPR",
      "alert": "OK",
      "vis_m": null,
      "fzfg": false,
      "metar_trigger": false,
      "taf_trigger": false,
      "metar": "",
      "taf": "TAF BKPR 192330Z 2000/2024 18008KT 9999 FEW015 BKN030"
    },
    {
      "icao": "EBCI",
      "alert": "OK",
      "vis_m": 9999,
      "fzfg": false,
      "metar_trigger": false,
      "taf_trigger": false,
      "metar": "METAR EBCI 192350Z COR 20003KT 9999 BKN012 05/04 Q1012 TEMPO BKN008",
      "taf": "TAF EBCI 192300Z 2000/2106 VRB03KT 9999 SCT007 BKN014"
    },
    {
      "icao": "EDDB",
      "alert": "OK",
      "vis_m": 9999,
      "fzfg": false,
      "metar_trigger": false,
      "taf_trigger": false,
      "metar": "METAR EDDB 192350Z AUTO 05003KT CAVOK M07/M08 Q1020 NOSIG",
      "taf": "TAF EDDB 192300Z 2000/2024 06006KT CAVOK"
    },
    {
      "icao": "EDDH",
      "alert": "OK",
      "vis_m": 9999,
      "fzfg": false,
      "metar_trigger": false,
      "taf_trigger": false,
      "metar": "METAR EDDH 192350Z AUTO 11007KT CAVOK M05/M08 Q1020 NOSIG",
      "taf": "TAF EDDH 192300Z 2000/2106 10008KT CAVOK"
    },
    {
      "icao": "EDDK",
      "alert": "OK",
      "vis_m": 9999,
      "fzfg": false,
      "metar_trigger": false,
      "taf_trigger": false,
      "metar": "METAR EDDK 192350Z AUTO 11005KT CAVOK 01/M03 Q1014 NOSIG",
      "taf": "TAF EDDK 192300Z 2000/2106 11007KT CAVOK"
    },
    {
      "icao": "EDDN",
      "alert": "OK",
      "vis_m": 9999,
      "fzfg": false,
      "metar_trigger": false,
      "taf_trigger": false,
      "metar": "METAR EDDN 192350Z AUTO 03003KT 340V060 CAVOK 00/M02 Q1012",
      "taf": "TAF EDDN 192300Z 2000/2024 03003KT CAVOK"
    },
    {
      "icao": "EDDS",
      "alert": "OK",
      "vis_m": 7000,
      "fzfg": false,
      "metar_trigger": false,
      "taf_trigger": false,
      "metar": "METAR EDDS 192350Z AUTO 02007KT 7000 -SN FEW004 BKN008 BKN022 01/00 Q1010",
      "taf": "TAF EDDS 192300Z 2000/2024 03006KT 6000 BKN010"
    },
    {
      "icao": "EDFH",
      "alert": "OK",
      "vis_m": 9999,
      "fzfg": false,
      "metar_trigger": false,
      "taf_trigger": false,
      "metar": "METAR EDFH 192350Z 10009KT 9999 FEW012 BKN028 M00/M02 Q1011",
      "taf": "TAF EDFH 192300Z 2000/2024 12009KT 9999 BKN010"
    },
    {
      "icao": "EDJA",
      "alert": "OK",
      "vis_m": 2900,
      "fzfg": false,
      "metar_trigger": false,
      "taf_trigger": false,
      "metar": "METAR EDJA 192350Z AUTO 02005KT 2900 // BKN002/// OVC019/// M00/M01 Q1009",
      "taf": "TAF EDJA 191700Z 1918/2003 04006KT 6000 SCT004 BKN025"
    },
    {
      "icao": "EDLW",
      "alert": "OK",
      "vis_m": 9999,
      "fzfg": false,
      "metar_trigger": false,
      "taf_trigger": false,
      "metar": "METAR EDLW 192350Z AUTO 02006KT 9999 // NCD M01/M04 Q1014",
      "taf": "TAF EDLW 191700Z 1918/2018 08011KT 9999 SCT030"
    },
    {
      "icao": "EDNY",
      "alert": "OK",
      "vis_m": 9000,
      "fzfg": false,
      "metar_trigger": false,
      "taf_trigger": false,
      "metar": "METAR EDNY 192350Z AUTO 02004KT 330V080 9000 // FEW009/// BKN015/// OVC019/// 02/01 Q1009",
      "taf": ""
    },
    {
      "icao": "EDSB",
      "alert": "OK",
      "vis_m": 9999,
      "fzfg": false,
      "metar_trigger": false,
      "taf_trigger": false,
      "metar": "METAR EDSB 192350Z AUTO 02012KT 9999 // FEW008/// BKN031/// BKN046/// 03/01 Q1011",
      "taf": "TAF EDSB 192300Z 2000/2024 02012KT 9999 SCT010 BKN025"
    },
    {
      "icao": "EETN",
      "alert": "OK",
      "vis_m": 9999,
      "fzfg": false,
      "metar_trigger": false,
      "taf_trigger": false,
      "metar": "METAR EETN 192350Z 29007KT 9999 OVC008 M10/M11 Q1013",
      "taf": "TAF EETN 192330Z 2000/2024 32010KT 9999 BKN010"
    },
    {
      "icao": "EFTU",
      "alert": "OK",
      "vis_m": 9999,
      "fzfg": false,
      "metar_trigger": false,
      "taf_trigger": false,
      "metar": "METAR EFTU 192350Z AUTO 31004KT CAVOK M16/M18 Q1015",
      "taf": "TAF EFTU 192326Z 2000/2024 33002KT CAVOK"
    },
    {
      "icao": "EGBB",
      "alert": "OK",
      "vis_m": 9999,
      "fzfg": false,
      "metar_trigger": false,
      "taf_trigger": false,
      "metar": "METAR EGBB 192350Z 24005KT 9999 BKN017 04/02 Q1014",
      "taf": "TAF EGBB 192255Z 2000/2024 26007KT 9999 BKN025"
    },
    {
      "icao": "EGGP",
      "alert": "OK",
      "vis_m": 9999,
      "fzfg": false,
      "metar_trigger": false,
      "taf_trigger": false,
      "metar": "METAR EGGP 192350Z 18003KT 9999 FEW015 BKN032 03/02 Q1013",
      "taf": "TAF EGGP 192256Z 2000/2024 VRB04KT 9999 SCT025"
    },
    {
      "icao": "EGGW",
      "alert": "OK",
      "vis_m": 8000,
      "fzfg": false,
      "metar_trigger": false,
      "taf_trigger": false,
      "metar": "METAR EGGW 192350Z AUTO 28009KT 8000 OVC026 04/02 Q1013",
      "taf": "TAF EGGW 192259Z 2000/2024 27007KT 9999 FEW012 SCT025"
    },
    {
      "icao": "EGKK",
      "alert": "OK",
      "vis_m": 9999,
      "fzfg": false,
      "metar_trigger": false,
      "taf_trigger": false,
      "metar": "METAR EGKK 192350Z 25005KT 9999 BKN027 05/03 Q1015",
      "taf": "TAF EGKK 192255Z 2000/2106 25005KT 9999 BKN025"
    },
    {
      "icao": "EGNM",
      "alert": "OK",
      "vis_m": null,
      "fzfg": false,
      "metar_trigger": false,
      "taf_trigger": false,
      "metar": "",
      "taf": "TAF EGNM 191703Z 1918/2018 VRB02KT 3000 -DZ BKN003"
    },
    {
      "icao": "EGPD",
      "alert": "OK",
      "vis_m": 9999,
      "fzfg": false,
      "metar_trigger": false,
      "taf_trigger": false,
      "metar": "METAR EGPD 192350Z AUTO 16008KT 9999 FEW015 04/02 Q1006",
      "taf": "TAF EGPD 192256Z 2000/2024 17010KT 9999 SCT020"
    },
    {
      "icao": "EGPF",
      "alert": "OK",
      "vis_m": 3800,
      "fzfg": false,
      "metar_trigger": false,
      "taf_trigger": false,
      "metar": "METAR EGPF 192350Z AUTO VRB02KT 3800 BR FEW026 SCT031 03/02 Q1008",
      "taf": "TAF EGPF 192304Z 2000/2024 06005KT 9999 FEW007 SCT030"
    },
    {
      "icao": "EHBK",
      "alert": "OK",
      "vis_m": 9999,
      "fzfg": false,
      "metar_trigger": false,
      "taf_trigger": false,
      "metar": "METAR EHBK 192355Z AUTO 10004KT 050V130 9999 FEW041 02/01 Q1012",
      "taf": "TAF EHBK 192316Z 2000/2106 10005KT 9999 BKN035"
    },
    {
      "icao": "EHEH",
      "alert": "OK",
      "vis_m": 9999,
      "fzfg": false,
      "metar_trigger": false,
      "taf_trigger": false,
      "metar": "METAR EHEH 192325Z AUTO 10005KT 9999 NCD 03/00 Q1012 BLU",
      "taf": "TAF EHEH 191713Z 1918/2024 09008KT CAVOK"
    },
    {
      "icao": "EKBI",
      "alert": "OK",
      "vis_m": 9999,
      "fzfg": false,
      "metar_trigger": false,
      "taf_trigger": false,
      "metar": "METAR EKBI 192350Z AUTO 11006KT 9999 FEW170/// M05/M07 Q1020",
      "taf": "TAF EKBI 192327Z 2000/2024 10008KT CAVOK"
    },
    {
      "icao": "EKCH",
      "alert": "OK",
      "vis_m": 9999,
      "fzfg": false,
      "metar_trigger": false,
      "taf_trigger": false,
      "metar": "METAR EKCH 192350Z AUTO 07002KT 9999 NCD M05/M06 Q1022 NOSIG",
      "taf": "TAF EKCH 192327Z 2000/2024 12008KT CAVOK"
    },
    {
      "icao": "ENAL",
      "alert": "OK",
      "vis_m": 9999,
      "fzfg": false,
      "metar_trigger": false,
      "taf_trigger": false,
      "metar": "METAR ENAL 192350Z AUTO 21018KT 9999 NCD 04/M10 Q1007",
      "taf": "TAF ENAL 192300Z 2000/2009 20012KT CAVOK"
    },
    {
      "icao": "ENBR",
      "alert": "OK",
      "vis_m": 9999,
      "fzfg": false,
      "metar_trigger": false,
      "taf_trigger": false,
      "metar": "METAR ENBR 192350Z 15013KT CAVOK 01/M09 Q1013 RMK WIND 1200FT 16029G39KT",
      "taf": "TAF ENBR 192300Z 2000/2024 16018KT CAVOK"
    },
    {
      "icao": "ENGM",
      "alert": "OK",
      "vis_m": 9000,
      "fzfg": false,
      "metar_trigger": false,
      "taf_trigger": false,
      "metar": "METAR ENGM 192350Z VRB02KT 9000 4300SE SCT001 BKN003 M14/M15 Q1016",
      "taf": "TAF ENGM 192300Z 2000/2024 17005KT 9999 FEW002"
    },
    {
      "icao": "ENHD",
      "alert": "OK",
      "vis_m": 9999,
      "fzfg": false,
      "metar_trigger": false,
      "taf_trigger": false,
      "metar": "METAR ENHD 192350Z AUTO 15018G29KT 120V180 9999 NCD 01/M04 Q1014",
      "taf": "TAF ENHD 191400Z 1915/1923 17015KT CAVOK"
    },
    {
      "icao": "ENTC",
      "alert": "OK",
      "vis_m": 9999,
      "fzfg": false,
      "metar_trigger": false,
      "taf_trigger": false,
      "metar": "METAR ENTC 192350Z AUTO 17005KT 140V200 9999 NCD M10/M12 Q1008 RMK WIND 2600FT 17022KT",
      "taf": "TAF ENTC 192300Z 2000/2024 22009KT CAVOK"
    },
    {
      "icao": "ENTO",
      "alert": "OK",
      "vis_m": 9999,
      "fzfg": false,
      "metar_trigger": false,
      "taf_trigger": false,
      "metar": "METAR ENTO 192350Z AUTO 21006KT 9999 NCD M06/M06 Q1018",
      "taf": "TAF ENTO 192300Z 2000/2024 22005KT 9999 FEW010"
    },
    {
      "icao": "ENVA",
      "alert": "OK",
      "vis_m": 9999,
      "fzfg": false,
      "metar_trigger": false,
      "taf_trigger": false,
      "metar": "METAR ENVA 192350Z 10004KT 030V170 CAVOK 01/M09 Q1007 RMK WIND 670FT 19020KT",
      "taf": "TAF ENVA 192300Z 2000/2024 17009KT 9999 FEW025 BKN040"
    },
    {
      "icao": "ENZV",
      "alert": "OK",
      "vis_m": 9999,
      "fzfg": false,
      "metar_trigger": false,
      "taf_trigger": false,
      "metar": "METAR ENZV 192350Z 15016KT CAVOK 01/M07 Q1015",
      "taf": "TAF ENZV 192300Z 2000/2024 16018KT CAVOK"
    },
    {
      "icao": "EPGD",
      "alert": "OK",
      "vis_m": 9999,
      "fzfg": false,
      "metar_trigger": false,
      "taf_trigger": false,
      "metar": "METAR EPGD 192330Z 29004KT 9999 BKN030 M08/M10 Q1019",
      "taf": "TAF EPGD 192330Z 2000/2024 28005KT 9999 BKN033"
    },
    {
      "icao": "EPKK",
      "alert": "OK",
      "vis_m": 9999,
      "fzfg": false,
      "metar_trigger": false,
      "taf_trigger": false,
      "metar": "METAR EPKK 192330Z 06010KT 9999 BKN026 M05/M09 Q1016",
      "taf": "TAF EPKK 192330Z 2000/2024 05008KT 9999 OVC024"
    },
    {
      "icao": "EPKT",
      "alert": "OK",
      "vis_m": 9999,
      "fzfg": false,
      "metar_trigger": false,
      "taf_trigger": false,
      "metar": "METAR EPKT 192330Z 04007KT CAVOK M07/M10 Q1016",
      "taf": "TAF EPKT 192330Z 2000/2024 05006KT CAVOK"
    },
    {
      "icao": "EPLB",
      "alert": "OK",
      "vis_m": 2800,
      "fzfg": false,
      "metar_trigger": false,
      "taf_trigger": false,
      "metar": "METAR EPLB 192330Z 31003KT 2800 BR NSC M13/M14 Q1017",
      "taf": "TAF EPLB 192330Z 2000/2024 30003KT 2500 BR NSC"
    },
    {
      "icao": "EPMO",
      "alert": "OK",
      "vis_m": 8000,
      "fzfg": false,
      "metar_trigger": false,
      "taf_trigger": false,
      "metar": "METAR EPMO 192330Z 32004KT 300V360 8000 NSC M06/M07 Q1018",
      "taf": "TAF EPMO 192330Z 2000/2024 30004KT 8000 NSC"
    },
    {
      "icao": "EPPO",
      "alert": "OK",
      "vis_m": 9999,
      "fzfg": false,
      "metar_trigger": false,
      "taf_trigger": false,
      "metar": "METAR EPPO 192330Z 04006KT CAVOK M05/M09 Q1020",
      "taf": "TAF EPPO 192330Z 2000/2024 05005KT CAVOK"
    },
    {
      "icao": "EPRA",
      "alert": "OK",
      "vis_m": 5000,
      "fzfg": false,
      "metar_trigger": false,
      "taf_trigger": false,
      "metar": "METAR EPRA 192330Z 26004KT 5000 BR NSC M10/M12 Q1018",
      "taf": "TAF EPRA 192330Z 2000/2009 VRB03KT 5000 BR NSC"
    },
    {
      "icao": "EPRZ",
      "alert": "OK",
      "vis_m": 9999,
      "fzfg": false,
      "metar_trigger": false,
      "taf_trigger": false,
      "metar": "METAR EPRZ 192330Z 01007KT 9999 SCT033 M05/M09 Q1016",
      "taf": "TAF EPRZ 192330Z 2000/2024 03005KT 9999 BKN033"
    },
    {
      "icao": "EPSC",
      "alert": "OK",
      "vis_m": 9999,
      "fzfg": false,
      "metar_trigger": false,
      "taf_trigger": false,
      "metar": "METAR EPSC 192330Z 01002KT CAVOK M10/M11 Q1021",
      "taf": "TAF EPSC 192330Z 2000/2024 VRB02KT CAVOK"
    },
    {
      "icao": "EPSY",
      "alert": "OK",
      "vis_m": 9999,
      "fzfg": false,
      "metar_trigger": false,
      "taf_trigger": false,
      "metar": "METAR EPSY 192330Z 27004KT 9999 SCT033 BKN043 M06/M07 Q1018",
      "taf": "TAF EPSY 192330Z 2000/2009 27005KT 9999 BKN030"
    },
    {
      "icao": "EPWA",
      "alert": "OK",
      "vis_m": 7000,
      "fzfg": false,
      "metar_trigger": false,
      "taf_trigger": false,
      "metar": "METAR EPWA 192330Z 27003KT 7000 NSC M09/M10 Q1018 BECMG 3000 BR",
      "taf": "TAF EPWA 192330Z 2000/2024 29004KT 7000 NSC"
    },
    {
      "icao": "EPWR",
      "alert": "OK",
      "vis_m": 7000,
      "fzfg": false,
      "metar_trigger": false,
      "taf_trigger": false,
      "metar": "METAR EPWR 192330Z 02002KT 7000 NSC M08/M09 Q1018",
      "taf": "TAF EPWR 192330Z 2000/2024 02005KT 6000 NSC"
    },
    {
      "icao": "ESGG",
      "alert": "OK",
      "vis_m": 150,
      "fzfg": true,
      "metar_trigger": false,
      "taf_trigger": false,
      "metar": "METAR ESGG 192350Z 21004KT 0150 R03/0600N R21/P2000D FZFG VV003 M12/M13 Q1020",
      "taf": "TAF ESGG 192330Z 2000/2024 VRB03KT 9999 FEW003"
    },
    {
      "icao": "ESKN",
      "alert": "OK",
      "vis_m": 9999,
      "fzfg": false,
      "metar_trigger": false,
      "taf_trigger": false,
      "metar": "METAR ESKN 192350Z 26002KT CAVOK M12/M13 Q1018",
      "taf": "TAF ESKN 192330Z 2000/2024 28004KT CAVOK"
    },
    {
      "icao": "ESMS",
      "alert": "OK",
      "vis_m": 9999,
      "fzfg": false,
      "metar_trigger": false,
      "taf_trigger": false,
      "metar": "METAR ESMS 192350Z 10003KT CAVOK M13/M14 Q1021",
      "taf": "TAF ESMS 192327Z 2000/2024 04006KT CAVOK"
    },
    {
      "icao": "ESSA",
      "alert": "OK",
      "vis_m": 9999,
      "fzfg": false,
      "metar_trigger": false,
      "taf_trigger": false,
      "metar": "METAR ESSA 192350Z 18004KT CAVOK M13/M14 Q1017 NOSIG",
      "taf": "TAF ESSA 192330Z 2000/2024 VRB03KT CAVOK"
    },
    {
      "icao": "EYKA",
      "alert": "OK",
      "vis_m": 4600,
      "fzfg": false,
      "metar_trigger": false,
      "taf_trigger": false,
      "metar": "METAR EYKA 192350Z 28003KT 4600 BR NSC M09/M10 Q1016",
      "taf": "TAF EYKA 192300Z 2000/2024 VRB04KT 9000 BKN020"
    },
    {
      "icao": "EYPA",
      "alert": "OK",
      "vis_m": 9999,
      "fzfg": false,
      "metar_trigger": false,
      "taf_trigger": false,
      "metar": "METAR EYPA 192350Z 02005KT 9999 -SN OVC039 M05/M08 Q1018",
      "taf": "TAF EYPA 192300Z 2000/2024 VRB04KT 9000 BKN025"
    },
    {
      "icao": "EYVI",
      "alert": "OK",
      "vis_m": 7000,
      "fzfg": false,
      "metar_trigger": false,
      "taf_trigger": false,
      "metar": "METAR EYVI 192350Z 32004KT 7000 -SN OVC032 M09/M11 Q1014 NOSIG",
      "taf": "TAF EYVI 192300Z 2000/2024 VRB04KT 9000 BKN020"
    },
    {
      "icao": "GCFV",
      "alert": "OK",
      "vis_m": 9999,
      "fzfg": false,
      "metar_trigger": false,
      "taf_trigger": false,
      "metar": "METAR GCFV 192330Z AUTO 01018KT 9999 OVC021 18/13 Q1023",
      "taf": "TAF GCFV 192000Z 1921/2021 04018KT 9999 SCT015 TX21/2014Z TN16/2006Z"
    },
    {
      "icao": "GCLP",
      "alert": "OK",
      "vis_m": 9999,
      "fzfg": false,
      "metar_trigger": false,
      "taf_trigger": false,
      "metar": "METAR GCLP 192330Z 02021KT 9999 BKN020 18/12 Q1024 NOSIG",
      "taf": "TAF GCLP 192000Z 1921/2021 02020KT 9999 SCT020 TX20/2014Z TN16/2006Z"
    },
    {
      "icao": "GCTS",
      "alert": "OK",
      "vis_m": 9999,
      "fzfg": false,
      "metar_trigger": false,
      "taf_trigger": false,
      "metar": "METAR GCTS 192330Z 05013KT 9999 FEW020 17/11 Q1023 NOSIG",
      "taf": "TAF GCTS 192000Z 1921/2021 08019KT 9999 FEW020 TX23/2014Z TN16/2006Z"
    },
    {
      "icao": "GMAD",
      "alert": "OK",
      "vis_m": 6000,
      "fzfg": false,
      "metar_trigger": false,
      "taf_trigger": false,
      "metar": "METAR GMAD 192330Z 12003KT 6000 NSC 10/08 Q1020 NOSIG",
      "taf": "TAF GMAD 192300Z 2000/2106 06008KT 8000 NSC"
    },
    {
      "icao": "GMMN",
      "alert": "OK",
      "vis_m": 9999,
      "fzfg": false,
      "metar_trigger": false,
      "taf_trigger": false,
      "metar": "METAR GMMN 192330Z 05010KT 9999 FEW020 10/08 Q1026 NOSIG",
      "taf": "TAF GMMN 192300Z 2000/2106 04008KT 9999 FEW020"
    },
    {
      "icao": "GMMX",
      "alert": "OK",
      "vis_m": 9999,
      "fzfg": false,
      "metar_trigger": false,
      "taf_trigger": false,
      "metar": "METAR GMMX 192330Z 07003KT CAVOK 11/08 Q1023 NOSIG",
      "taf": "TAF GMMX 192300Z 2000/2106 04006KT CAVOK"
    },
    {
      "icao": "HEGN",
      "alert": "OK",
      "vis_m": 9999,
      "fzfg": false,
      "metar_trigger": false,
      "taf_trigger": false,
      "metar": "METAR HEGN 192300Z 29010KT CAVOK 15/05 Q1018 NOSIG",
      "taf": "TAF HEGN 192300Z 2000/2106 29014KT CAVOK"
    },
    {
      "icao": "HEMA",
      "alert": "OK",
      "vis_m": 9999,
      "fzfg": false,
      "metar_trigger": false,
      "taf_trigger": false,
      "metar": "METAR HEMA 192300Z 29010KT CAVOK 18/09 Q1017 NOSIG",
      "taf": "TAF HEMA 192300Z 2000/2106 30014KT CAVOK"
    },
    {
      "icao": "HESH",
      "alert": "OK",
      "vis_m": 9999,
      "fzfg": false,
      "metar_trigger": false,
      "taf_trigger": false,
      "metar": "METAR HESH 192300Z 33010KT CAVOK 19/11 Q1018 NOSIG",
      "taf": "TAF HESH 192300Z 2000/2106 35012KT CAVOK"
    },
    {
      "icao": "HESX",
      "alert": "OK",
      "vis_m": 9999,
      "fzfg": false,
      "metar_trigger": false,
      "taf_trigger": false,
      "metar": "METAR HESX 192300Z 04007KT CAVOK 10/07 Q1022 NOSIG",
      "taf": "TAF HESX 192300Z 2000/2106 02007KT CAVOK"
    },
    {
      "icao": "LATI",
      "alert": "OK",
      "vis_m": 9999,
      "fzfg": false,
      "metar_trigger": false,
      "taf_trigger": false,
      "metar": "METAR LATI 192350Z 14009KT 110V170 9999 SCT057 BKN110 15/04 Q1009 NOSIG",
      "taf": "TAF LATI 192300Z 2000/2024 14012KT 9999 SCT040 BKN060 TX14/2013Z TN09/2004Z"
    },
    {
      "icao": "LBPD",
      "alert": "OK",
      "vis_m": 9999,
      "fzfg": false,
      "metar_trigger": false,
      "taf_trigger": false,
      "metar": "METAR LBPD 192330Z AUTO 10005KT 060V140 9999 BKN230/// 02/01 Q1015",
      "taf": "TAF LBPD 192300Z 2000/2024 VRB03KT 9999 SCT080"
    },
    {
      "icao": "LBSF",
      "alert": "OK",
      "vis_m": 9999,
      "fzfg": false,
      "metar_trigger": false,
      "taf_trigger": false,
      "metar": "METAR LBSF 192330Z AUTO 10007KT 9999 NSC 03/M02 Q1013 NOSIG",
      "taf": "TAF LBSF 192300Z 2000/2024 11012KT 9999 BKN070"
    },
    {
      "icao": "LBWN",
      "alert": "OK",
      "vis_m": 9999,
      "fzfg": false,
      "metar_trigger": false,
      "taf_trigger": false,
      "metar": "METAR LBWN 192330Z AUTO 10007KT 9999 NSC 05/01 Q1016 NOSIG",
      "taf": "TAF LBWN 192300Z 2000/2024 09008KT 9999 SCT050"
    },
    {
      "icao": "LCLK",
      "alert": "OK",
      "vis_m": 9999,
      "fzfg": false,
      "metar_trigger": false,
      "taf_trigger": false,
      "metar": "METAR LCLK 192330Z 01005KT 340V050 9999 SCT035 BKN045 14/10 Q1023 NOSIG",
      "taf": "TAF LCLK 192330Z 2000/2100 35007KT 9999 FEW030"
    },
    {
      "icao": "LCPH",
      "alert": "OK",
      "vis_m": 9999,
      "fzfg": false,
      "metar_trigger": false,
      "taf_trigger": false,
      "metar": "METAR LCPH 192330Z 02007KT 010V080 CAVOK 10/06 Q1023 NOSIG",
      "taf": "TAF LCPH 192330Z 2000/2100 04007KT 9999 FEW025"
    },
    {
      "icao": "LEAL",
      "alert": "OK",
      "vis_m": 9999,
      "fzfg": false,
      "metar_trigger": false,
      "taf_trigger": false,
      "metar": "METAR LEAL 192330Z VRB01KT CAVOK 12/M01 Q1025 NOSIG",
      "taf": "TAF LEAL 192300Z 2000/2024 31013KT CAVOK TX18/2013Z TN09/2006Z"
    },
    {
      "icao": "LEBB",
      "alert": "OK",
      "vis_m": 9999,
      "fzfg": false,
      "metar_trigger": false,
      "taf_trigger": false,
      "metar": "METAR LEBB 192330Z AUTO 26007KT 220V290 9999 SCT045 BKN050 BKN060 09/07 Q1028",
      "taf": "TAF LEBB 192300Z 2000/2024 30009KT 9999 FEW020 BKN025 TX14/2013Z TN07/2005Z"
    },
    {
      "icao": "LEBL",
      "alert": "OK",
      "vis_m": 9999,
      "fzfg": false,
      "metar_trigger": false,
      "taf_trigger": false,
      "metar": "METAR LEBL 192330Z 27005KT 200V330 9999 FEW040 11/00 Q1017 NOSIG",
      "taf": "TAF LEBL 192300Z 2000/2024 31012KT 9999 FEW040 TX18/2013Z TN09/2006Z"
    },
    {
      "icao": "LECH",
      "alert": "OK",
      "vis_m": 9999,
      "fzfg": false,
      "metar_trigger": false,
      "taf_trigger": false,
      "metar": "METAR LECH 192330Z AUTO 30010G20KT 250V340 CAVOK 11/M02 Q1023",
      "taf": ""
    },
    {
      "icao": "LEMD",
      "alert": "OK",
      "vis_m": 9999,
      "fzfg": false,
      "metar_trigger": false,
      "taf_trigger": false,
      "metar": "METAR LEMD 192330Z 02004KT CAVOK 03/M00 Q1027 NOSIG",
      "taf": "TAF LEMD 192300Z 2000/2106 VRB04KT CAVOK TX14/2015Z TNM00/2006Z"
    },
    {
      "icao": "LEMG",
      "alert": "OK",
      "vis_m": 9999,
      "fzfg": false,
      "metar_trigger": false,
      "taf_trigger": false,
      "metar": "METAR LEMG 192330Z 28017KT CAVOK 13/03 Q1026 NOSIG",
      "taf": "TAF LEMG 192300Z 2000/2024 29012KT CAVOK TX18/2014Z TN11/2007Z"
    },
    {
      "icao": "LEVC",
      "alert": "OK",
      "vis_m": 9999,
      "fzfg": false,
      "metar_trigger": false,
      "taf_trigger": false,
      "metar": "METAR LEVC 192330Z 27006KT 250V310 CAVOK 11/M02 Q1024 NOSIG",
      "taf": "TAF LEVC 192300Z 2000/2024 27009KT CAVOK TX21/2014Z TN08/2006Z"
    },
    {
      "icao": "LEXJ",
      "alert": "OK",
      "vis_m": 7000,
      "fzfg": false,
      "metar_trigger": false,
      "taf_trigger": false,
      "metar": "METAR LEXJ 192330Z AUTO 30015KT 280V340 7000 2300E -RA BKN027 BKN034 BKN050 09/07 Q1029",
      "taf": ""
    },
    {
      "icao": "LEZG",
      "alert": "OK",
      "vis_m": 9999,
      "fzfg": false,
      "metar_trigger": false,
      "taf_trigger": false,
      "metar": "METAR LEZG 192330Z 29012KT 9999 SCT070 08/03 Q1026 NOSIG",
      "taf": "TAF LEZG 192300Z 2000/2024 28010KT CAVOK TX13/2014Z TN07/2006Z"
    },
    {
      "icao": "LEZL",
      "alert": "OK",
      "vis_m": 9999,
      "fzfg": false,
      "metar_trigger": false,
      "taf_trigger": false,
      "metar": "METAR LEZL 192330Z 06003KT 030V090 CAVOK 09/06 Q1028 NOSIG",
      "taf": "TAF LEZL 192000Z 1921/2021 04004KT CAVOK TX19/2015Z TN06/2007Z"
    },
    {
      "icao": "LFBD",
      "alert": "OK",
      "vis_m": 5000,
      "fzfg": false,
      "metar_trigger": false,
      "taf_trigger": false,
      "metar": "METAR LFBD 192330Z AUTO 32014KT 5000 -RA BR SCT017/// BKN026/// BKN039/// ///TCU 09/08 Q1024 TEMPO SHRA",
      "taf": "TAF LFBD 192300Z 2000/2106 29010KT 9999 BKN030 TX13/2013Z TN07/2006Z"
    },
    {
      "icao": "LFLL",
      "alert": "OK",
      "vis_m": 6000,
      "fzfg": false,
      "metar_trigger": false,
      "taf_trigger": false,
      "metar": "METAR LFLL 192330Z 32008KT 6000 SHRA SCT010 SCT016TCU BKN023 07/07 Q1013 TEMPO 4000",
      "taf": "TAF LFLL 192300Z 2000/2106 30010KT 9999 BKN030"
    },
    {
      "icao": "LFLS",
      "alert": "OK",
      "vis_m": 7000,
      "fzfg": false,
      "metar_trigger": false,
      "taf_trigger": false,
      "metar": "METAR LFLS 192330Z AUTO 31018KT 7000 RA BKN016/// OVC022/// ///TCU 07/05 Q1013",
      "taf": "TAF LFLS 191400Z 1915/2015 20010KT 9999 BKN035"
    },
    {
      "icao": "LFMN",
      "alert": "OK",
      "vis_m": 9999,
      "fzfg": false,
      "metar_trigger": false,
      "taf_trigger": false,
      "metar": "METAR LFMN 192330Z 32007KT CAVOK 10/03 Q1003 NOSIG",
      "taf": "TAF LFMN 192000Z 1921/2103 25020KT CAVOK"
    },
    {
      "icao": "LFOB",
      "alert": "OK",
      "vis_m": 9999,
      "fzfg": false,
      "metar_trigger": false,
      "taf_trigger": false,
      "metar": "METAR LFOB 192330Z AUTO 30011KT 9999 SCT013 BKN020 OVC026 06/05 Q1014 TEMPO 4000 -RA OVC008",
      "taf": "TAF LFOB 192300Z 2000/2024 32012KT 9999 BKN012 BKN020"
    },
    {
      "icao": "LFPO",
      "alert": "OK",
      "vis_m": 6000,
      "fzfg": false,
      "metar_trigger": false,
      "taf_trigger": false,
      "metar": "METAR LFPO 192330Z 30009KT 6000 -DZ BKN009 BKN015 07/06 Q1015 TEMPO 4000 -DZRA BKN008",
      "taf": "TAF LFPO 192300Z 2000/2106 30010G20KT 9999 SCT020"
    },
    {
      "icao": "LFSB",
      "alert": "OK",
      "vis_m": 9999,
      "fzfg": false,
      "metar_trigger": false,
      "taf_trigger": false,
      "metar": "METAR LFSB 192330Z AUTO VRB02KT 9999 -RA FEW012 BKN022 OVC031 06/05 Q1010 TEMPO OVC008",
      "taf": "TAF LFSB 192300Z 2000/2024 VRB03KT 9999 FEW010 OVC030"
    },
    {
      "icao": "LGAV",
      "alert": "OK",
      "vis_m": 9999,
      "fzfg": false,
      "metar_trigger": false,
      "taf_trigger": false,
      "metar": "METAR LGAV 192350Z VRB01KT 9999 FEW030 07/04 Q1019 NOSIG",
      "taf": "TAF LGAV 192300Z 2000/2024 21010KT 9999 FEW018"
    },
    {
      "icao": "LGTS",
      "alert": "OK",
      "vis_m": 9999,
      "fzfg": false,
      "metar_trigger": false,
      "taf_trigger": false,
      "metar": "METAR LGTS 192350Z VRB03KT 9999 FEW008 08/07 Q1016 NOSIG",
      "taf": "TAF LGTS 192300Z 2000/2024 14013KT 9999 SCT025"
    },
    {
      "icao": "LHBP",
      "alert": "OK",
      "vis_m": 9999,
      "fzfg": false,
      "metar_trigger": false,
      "taf_trigger": false,
      "metar": "METAR LHBP 192330Z 06010KT 360V090 9999 SCT008 BKN065 03/01 Q1009 NOSIG",
      "taf": "TAF LHBP 192315Z 2000/2024 05012KT 9999 SCT008 BKN070"
    },
    {
      "icao": "LHDC",
      "alert": "OK",
      "vis_m": 9999,
      "fzfg": false,
      "metar_trigger": false,
      "taf_trigger": false,
      "metar": "METAR LHDC 192315Z AUTO 06011KT CAVOK 04/01 Q1010",
      "taf": "TAF LHDC 191415Z 1915/1924 10009KT 9999 RA OVC025"
    },
    {
      "icao": "LIBD",
      "alert": "OK",
      "vis_m": 9999,
      "fzfg": false,
      "metar_trigger": false,
      "taf_trigger": false,
      "metar": "METAR LIBD 192350Z 24016KT CAVOK 13/06 Q1005",
      "taf": "TAF LIBD 192300Z 2000/2024 24012KT 9999 SCT040"
    },
    {
      "icao": "LIBG",
      "alert": "OK",
      "vis_m": null,
      "fzfg": false,
      "metar_trigger": false,
      "taf_trigger": false,
      "metar": "",
      "taf": "TAF LIBG 191700Z 1918/2003 17015G30KT 9999 SCT020"
    },
    {
      "icao": "LIBP",
      "alert": "OK",
      "vis_m": 9999,
      "fzfg": false,
      "metar_trigger": false,
      "taf_trigger": false,
      "metar": "METAR LIBP 192350Z AUTO 23007KT 9999 OVC160/// 11/05 Q1003",
      "taf": "TAF LIBP 192300Z 2000/2024 23010KT 9999 SCT040"
    },
    {
      "icao": "LIBR",
      "alert": "OK",
      "vis_m": 8000,
      "fzfg": false,
      "metar_trigger": false,
      "taf_trigger": false,
      "metar": "METAR LIBR 192350Z 19017KT 8000 TSRA BKN015CB 15/12 Q1006",
      "taf": "TAF LIBR 192300Z 2000/2024 23013G25KT 9999 SCT025"
    },
    {
      "icao": "LICA",
      "alert": "OK",
      "vis_m": 7000,
      "fzfg": false,
      "metar_trigger": false,
      "taf_trigger": false,
      "metar": "METAR LICA 192350Z AUTO 26014KT 7000 -RA FEW023/// OVC041/// 11/09 Q1012",
      "taf": "TAF LICA 192300Z 2000/2024 26020G30KT 9999 SCT030 BKN050"
    },
    {
      "icao": "LICC",
      "alert": "OK",
      "vis_m": 9999,
      "fzfg": false,
      "metar_trigger": false,
      "taf_trigger": false,
      "metar": "METAR LICC 192350Z 25020KT 9999 -RA FEW050 BKN080 11/08 Q1012",
      "taf": "TAF LICC 192300Z 2000/2024 26018G28KT 9999 FEW040"
    },
    {
      "icao": "LICJ",
      "alert": "OK",
      "vis_m": 9999,
      "fzfg": false,
      "metar_trigger": false,
      "taf_trigger": false,
      "metar": "METAR LICJ 192350Z 26024KT 9999 FEW030 SCT050 14/09 Q1013",
      "taf": "TAF LICJ 192300Z 2000/2024 27020G30KT 9999 SCT035"
    },
    {
      "icao": "LIMC",
      "alert": "OK",
      "vis_m": 9999,
      "fzfg": false,
      "metar_trigger": false,
      "taf_trigger": false,
      "metar": "METAR LIMC 192350Z VRB02KT CAVOK 04/03 Q1003 NOSIG",
      "taf": "TAF LIMC 192300Z 2000/2106 33007KT 9999 BKN025"
    },
    {
      "icao": "LIME",
      "alert": "OK",
      "vis_m": 9999,
      "fzfg": false,
      "metar_trigger": false,
      "taf_trigger": false,
      "metar": "METAR LIME 192350Z 05001KT CAVOK 03/03 Q1003 NOSIG",
      "taf": "TAF LIME 192300Z 2000/2024 VRB05KT 8000 BKN020"
    },
    {
      "icao": "LIMF",
      "alert": "OK",
      "vis_m": 9999,
      "fzfg": false,
      "metar_trigger": false,
      "taf_trigger": false,
      "metar": "METAR LIMF 192350Z VRB02KT CAVOK 02/00 Q1003",
      "taf": "TAF LIMF 192300Z 2000/2024 VRB05KT 8000 FEW040"
    },
    {
      "icao": "LIMJ",
      "alert": "OK",
      "vis_m": 9999,
      "fzfg": false,
      "metar_trigger": false,
      "taf_trigger": false,
      "metar": "METAR LIMJ 192350Z 02004KT 320V050 CAVOK 08/05 Q1003",
      "taf": "TAF LIMJ 192300Z 2000/2024 VRB05KT 9999 SCT030"
    },
    {
      "icao": "LIPE",
      "alert": "OK",
      "vis_m": 9999,
      "fzfg": false,
      "metar_trigger": false,
      "taf_trigger": false,
      "metar": "METAR LIPE 192350Z 22007KT CAVOK 05/03 Q1003",
      "taf": "TAF LIPE 192300Z 2000/2024 29007KT 9999 FEW060"
    },
    {
      "icao": "LIPH",
      "alert": "OK",
      "vis_m": 9999,
      "fzfg": false,
      "metar_trigger": false,
      "taf_trigger": false,
      "metar": "METAR LIPH 192350Z AUTO 29003KT 250V320 9999 BKN008/// BKN095/// BKN140/// 06/05 Q1002",
      "taf": "TAF LIPH 192300Z 2000/2024 VRB05KT 8000 SCT050"
    },
    {
      "icao": "LIPQ",
      "alert": "OK",
      "vis_m": 9999,
      "fzfg": false,
      "metar_trigger": false,
      "taf_trigger": false,
      "metar": "METAR LIPQ 192350Z AUTO 04004KT 9999 OVC056/// 09/08 Q1002",
      "taf": "TAF LIPQ 192300Z 2000/2024 VRB05KT 7000 BKN040"
    },
    {
      "icao": "LIPR",
      "alert": "OK",
      "vis_m": 7000,
      "fzfg": false,
      "metar_trigger": false,
      "taf_trigger": false,
      "metar": "METAR LIPR 192350Z AUTO 22003KT 7000 BKN098/// 05/04 Q1003",
      "taf": "TAF LIPR 192300Z 2000/2024 VRB05KT 9999 SCT040"
    },
    {
      "icao": "LIPX",
      "alert": "OK",
      "vis_m": 9999,
      "fzfg": false,
      "metar_trigger": false,
      "taf_trigger": false,
      "metar": "METAR LIPX 192350Z 27001KT CAVOK 05/04 Q1002",
      "taf": "TAF LIPX 192300Z 2000/2024 VRB06KT 8000 BKN030"
    },
    {
      "icao": "LIPY",
      "alert": "OK",
      "vis_m": 9999,
      "fzfg": false,
      "metar_trigger": false,
      "taf_trigger": false,
      "metar": "METAR LIPY 192350Z AUTO VRB02KT 9999 FEW081/// BKN100/// 07/06 Q1002",
      "taf": "TAF LIPY 192300Z 2000/2024 VRB05KT 9999 SCT040"
    },
    {
      "icao": "LIPZ",
      "alert": "OK",
      "vis_m": 9999,
      "fzfg": false,
      "metar_trigger": false,
      "taf_trigger": false,
      "metar": "METAR LIPZ 192350Z 33004KT 9999 SCT070 05/04 Q1002 NOSIG",
      "taf": "TAF LIPZ 192300Z 2000/2106 31005KT 9000 FEW030"
    },
    {
      "icao": "LIRF",
      "alert": "OK",
      "vis_m": 9999,
      "fzfg": false,
      "metar_trigger": false,
      "taf_trigger": false,
      "metar": "METAR LIRF 192350Z 24007KT 9999 FEW030 09/07 Q1005 RESHRA TEMPO TSRA",
      "taf": "TAF LIRF 192300Z 2000/2106 VRB05KT 9999 FEW025"
    },
    {
      "icao": "LIRN",
      "alert": "OK",
      "vis_m": 9999,
      "fzfg": false,
      "metar_trigger": false,
      "taf_trigger": false,
      "metar": "METAR LIRN 192350Z 19005KT 140V210 9999 -RA BKN040 10/08 Q1006 NOSIG",
      "taf": "TAF LIRN 192300Z 2000/2024 24008KT 9999 SCT030"
    },
    {
      "icao": "LIRP",
      "alert": "OK",
      "vis_m": 9999,
      "fzfg": false,
      "metar_trigger": false,
      "taf_trigger": false,
      "metar": "METAR LIRP 192345Z 11002KT 9999 FEW025 07/07 Q1003 NOSIG",
      "taf": "TAF LIRP 192300Z 2000/2024 11004KT 9999 FEW020 SCT060"
    },
    {
      "icao": "LIRZ",
      "alert": "OK",
      "vis_m": 9999,
      "fzfg": false,
      "metar_trigger": false,
      "taf_trigger": false,
      "metar": "METAR LIRZ 192350Z AUTO 17004KT 140V210 9999 BKN027/// 07/07 Q1004",
      "taf": "TAF LIRZ 192300Z 2000/2024 VRB05KT 8000 SCT035"
    },
    {
      "icao": "LJLJ",
      "alert": "OK",
      "vis_m": 4000,
      "fzfg": false,
      "metar_trigger": false,
      "taf_trigger": false,
      "metar": "METAR LJLJ 192330Z 05001KT 4000 -RA BR FEW003 OVC020 04/03 Q1002 NOSIG",
      "taf": "TAF LJLJ 192300Z 2000/2100 VRB02KT 7000 -RA OVC020"
    },
    {
      "icao": "LKMT",
      "alert": "OK",
      "vis_m": 6000,
      "fzfg": false,
      "metar_trigger": false,
      "taf_trigger": false,
      "metar": "METAR LKMT 192330Z 02013KT 6000 OVC020 M03/M05 Q1014 NOSIG",
      "taf": "TAF LKMT 192300Z 2000/2024 03014KT 8000 SCT012 OVC020"
    },
    {
      "icao": "LKPR",
      "alert": "OK",
      "vis_m": 9999,
      "fzfg": false,
      "metar_trigger": false,
      "taf_trigger": false,
      "metar": "METAR LKPR 192330Z 03008KT CAVOK M04/M07 Q1014 NOSIG",
      "taf": "TAF LKPR 192300Z 2000/2106 06009KT CAVOK"
    },
    {
      "icao": "LLBG",
      "alert": "OK",
      "vis_m": 9999,
      "fzfg": false,
      "metar_trigger": false,
      "taf_trigger": false,
      "metar": "METAR LLBG 192350Z VRB01KT CAVOK 11/07 Q1023 NOSIG",
      "taf": "TAF LLBG 192303Z 2000/2024 VRB04KT CAVOK"
    },
    {
      "icao": "LMML",
      "alert": "OK",
      "vis_m": 9999,
      "fzfg": false,
      "metar_trigger": false,
      "taf_trigger": false,
      "metar": "METAR LMML 192345Z 30017KT 9999 FEW020 13/05 Q1016 NOSIG",
      "taf": "TAF LMML 192300Z 2000/2024 31017KT 9999 FEW025"
    },
    {
      "icao": "LOWW",
      "alert": "OK",
      "vis_m": 2800,
      "fzfg": false,
      "metar_trigger": false,
      "taf_trigger": false,
      "metar": "METAR LOWW 192350Z 01008KT 2800 1300SW R29/P1500U SN FEW001 SCT002 BKN003 M00/M01 Q1010 TEMPO 3200 -SN",
      "taf": "TAF LOWW 192315Z 2000/2106 02007KT 3500 SN BKN002 OVC005 TXM01/2015Z TNM06/2105Z"
    },
    {
      "icao": "LPFR",
      "alert": "OK",
      "vis_m": 9999,
      "fzfg": false,
      "metar_trigger": false,
      "taf_trigger": false,
      "metar": "METAR LPFR 192330Z 34004KT CAVOK 10/06 Q1029",
      "taf": "TAF LPFR 192300Z 2000/2024 36005KT CAVOK"
    },
    {
      "icao": "LPMA",
      "alert": "OK",
      "vis_m": 9999,
      "fzfg": false,
      "metar_trigger": false,
      "taf_trigger": false,
      "metar": "METAR LPMA 192330Z 02012KT 9999 BKN016 16/09 Q1028",
      "taf": "TAF LPMA 192300Z 2000/2024 02012KT 9999 SCT015"
    },
    {
      "icao": "LPPR",
      "alert": "OK",
      "vis_m": 9999,
      "fzfg": false,
      "metar_trigger": false,
      "taf_trigger": false,
      "metar": "METAR LPPR 192330Z 00000KT CAVOK 07/06 Q1031",
      "taf": "TAF LPPR 192300Z 2000/2024 VRB02KT 9999 SCT030"
    },
    {
      "icao": "LPPS",
      "alert": "OK",
      "vis_m": 9999,
      "fzfg": false,
      "metar_trigger": false,
      "taf_trigger": false,
      "metar": "METAR LPPS 192330Z 08007KT 9999 SCT015 BKN030 16/09 Q1029",
      "taf": "TAF LPPS 192300Z 2000/2106 07010KT 9999 FEW015 BKN030"
    },
    {
      "icao": "LPPT",
      "alert": "OK",
      "vis_m": 9999,
      "fzfg": false,
      "metar_trigger": false,
      "taf_trigger": false,
      "metar": "METAR LPPT 192330Z 33006KT CAVOK 09/06 Q1030",
      "taf": "TAF LPPT 192300Z 2000/2106 32008KT CAVOK"
    },
    {
      "icao": "LQBK",
      "alert": "OK",
      "vis_m": 9999,
      "fzfg": false,
      "metar_trigger": false,
      "taf_trigger": false,
      "metar": "METAR LQBK 192330Z 16004KT CAVOK 11/05 Q1000 BECMG 30012KT 4000 RA",
      "taf": "TAF LQBK 192300Z 2000/2024 33006KT 9999 SCT015 BKN035 TX10/2000Z TNM00/2024Z"
    },
    {
      "icao": "LQSA",
      "alert": "OK",
      "vis_m": 8000,
      "fzfg": false,
      "metar_trigger": false,
      "taf_trigger": false,
      "metar": "METAR LQSA 192330Z 11009KT 080V140 8000 SHRA FEW030TCU BKN040 08/08 Q1002 NOSIG",
      "taf": ""
    },
    {
      "icao": "LQTZ",
      "alert": "OK",
      "vis_m": 9999,
      "fzfg": false,
      "metar_trigger": false,
      "taf_trigger": false,
      "metar": "METAR LQTZ 192330Z 12013KT 9999 SCT056 11/03 Q1002",
      "taf": "TAF LQTZ 192300Z 2000/2024 09006KT CAVOK TX10/2000Z TNM01/2024Z"
    },
    {
      "icao": "LRBC",
      "alert": "OK",
      "vis_m": 9999,
      "fzfg": false,
      "metar_trigger": false,
      "taf_trigger": false,
      "metar": "METAR LRBC 192330Z 21006KT CAVOK M01/M03 Q1013",
      "taf": "TAF LRBC 192300Z 2000/2009 VRB04KT CAVOK"
    },
    {
      "icao": "LRBS",
      "alert": "OK",
      "vis_m": 9999,
      "fzfg": false,
      "metar_trigger": false,
      "taf_trigger": false,
      "metar": "METAR LRBS 192330Z 00000KT CAVOK 00/M03 Q1014 NOSIG",
      "taf": "TAF LRBS 192300Z 2000/2024 VRB03KT CAVOK"
    },
    {
      "icao": "LRBV",
      "alert": "OK",
      "vis_m": 9999,
      "fzfg": false,
      "metar_trigger": false,
      "taf_trigger": false,
      "metar": "METAR LRBV 192330Z AUTO 12010KT 9999 SCT180/// M01/M05 Q1011",
      "taf": "TAF LRBV 192000Z 1921/2006 12006KT CAVOK"
    },
    {
      "icao": "LRCL",
      "alert": "OK",
      "vis_m": 9999,
      "fzfg": false,
      "metar_trigger": false,
      "taf_trigger": false,
      "metar": "METAR LRCL 192330Z 10005KT 9999 -RA OVC068 03/M02 Q1011",
      "taf": "TAF LRCL 192300Z 2000/2009 VRB04KT 9999 BKN070"
    },
    {
      "icao": "LRCV",
      "alert": "OK",
      "vis_m": 9999,
      "fzfg": false,
      "metar_trigger": false,
      "taf_trigger": false,
      "metar": "METAR LRCV 192330Z 08009KT CAVOK 02/M02 Q1012",
      "taf": "TAF LRCV 192300Z 2000/2009 08010KT CAVOK"
    },
    {
      "icao": "LRIA",
      "alert": "OK",
      "vis_m": 9999,
      "fzfg": false,
      "metar_trigger": false,
      "taf_trigger": false,
      "metar": "METAR LRIA 192330Z 10007KT CAVOK 01/M02 Q1014",
      "taf": "TAF LRIA 192300Z 2000/2009 VRB04KT CAVOK"
    },
    {
      "icao": "LROP",
      "alert": "OK",
      "vis_m": 6000,
      "fzfg": false,
      "metar_trigger": false,
      "taf_trigger": false,
      "metar": "METAR LROP 192330Z VRB02KT 6000 NSC M00/M03 Q1014 NOSIG",
      "taf": "TAF LROP 192300Z 2000/2024 VRB03KT 5000 BR NSC"
    },
    {
      "icao": "LRSB",
      "alert": "OK",
      "vis_m": 9999,
      "fzfg": false,
      "metar_trigger": false,
      "taf_trigger": false,
      "metar": "METAR LRSB 192330Z 24004KT CAVOK 01/M00 Q1010",
      "taf": "TAF LRSB 192300Z 2000/2024 VRB04KT CAVOK"
    },
    {
      "icao": "LRSM",
      "alert": "OK",
      "vis_m": 9999,
      "fzfg": false,
      "metar_trigger": false,
      "taf_trigger": false,
      "metar": "METAR LRSM 192330Z AUTO 05008KT 9999 OVC055/// 04/01 Q1011 REDZ",
      "taf": "TAF LRSM 191400Z 1915/1924 14006KT 9999 BKN035"
    },
    {
      "icao": "LRSV",
      "alert": "OK",
      "vis_m": 9999,
      "fzfg": false,
      "metar_trigger": false,
      "taf_trigger": false,
      "metar": "METAR LRSV 192330Z 23006KT CAVOK M00/M02 Q1011",
      "taf": "TAF LRSV 192300Z 2000/2009 VRB04KT CAVOK"
    },
    {
      "icao": "LRTM",
      "alert": "OK",
      "vis_m": 9999,
      "fzfg": false,
      "metar_trigger": false,
      "taf_trigger": false,
      "metar": "METAR LRTM 192330Z AUTO 06006KT 9999 -RA NCD 02/M01 Q1011",
      "taf": "TAF LRTM 191400Z 1915/1924 08007KT CAVOK"
    },
    {
      "icao": "LRTR",
      "alert": "OK",
      "vis_m": 9999,
      "fzfg": false,
      "metar_trigger": false,
      "taf_trigger": false,
      "metar": "METAR LRTR 192330Z 10009KT CAVOK 06/03 Q1007 NOSIG",
      "taf": "TAF LRTR 192300Z 2000/2024 08010KT CAVOK"
    },
    {
      "icao": "LTAC",
      "alert": "OK",
      "vis_m": 9999,
      "fzfg": false,
      "metar_trigger": false,
      "taf_trigger": false,
      "metar": "METAR LTAC 192350Z VRB01KT CAVOK M03/M05 Q1023 NOSIG",
      "taf": "TAF LTAC 192240Z 2000/2024 VRB02KT CAVOK"
    },
    {
      "icao": "LTFM",
      "alert": "OK",
      "vis_m": 9999,
      "fzfg": false,
      "metar_trigger": false,
      "taf_trigger": false,
      "metar": "METAR LTFM 192350Z 20012KT CAVOK 08/04 Q1019 NOSIG",
      "taf": "TAF LTFM 192240Z 2000/2106 19013KT CAVOK"
    },
    {
      "icao": "LUKK",
      "alert": "OK",
      "vis_m": 9999,
      "fzfg": false,
      "metar_trigger": false,
      "taf_trigger": false,
      "metar": "METAR LUKK 192330Z 16008KT CAVOK M00/M04 Q1015 NOSIG",
      "taf": "TAF LUKK 192306Z 2000/2024 VRB04KT 5000 BR SCT012"
    },
    {
      "icao": "LWOH",
      "alert": "OK",
      "vis_m": null,
      "fzfg": false,
      "metar_trigger": false,
      "taf_trigger": false,
      "metar": "",
      "taf": "TAF LWOH 192330Z 2000/2024 18012KT 9999 BKN040"
    },
    {
      "icao": "LWSK",
      "alert": "OK",
      "vis_m": 9999,
      "fzfg": false,
      "metar_trigger": false,
      "taf_trigger": false,
      "metar": "METAR LWSK 192350Z 14010KT 110V180 9999 BKN075 09/02 Q1012 NOSIG",
      "taf": "TAF LWSK 192330Z 2000/2024 15012KT 9999 BKN070"
    },
    {
      "icao": "LYBE",
      "alert": "OK",
      "vis_m": 9999,
      "fzfg": false,
      "metar_trigger": false,
      "taf_trigger": false,
      "metar": "METAR LYBE 192330Z 12013KT CAVOK 10/01 Q1006 NOSIG",
      "taf": "TAF LYBE 192300Z 2000/2024 13017KT CAVOK TX09/2000Z TN02/2024Z"
    },
    {
      "icao": "LYNI",
      "alert": "OK",
      "vis_m": 9999,
      "fzfg": false,
      "metar_trigger": false,
      "taf_trigger": false,
      "metar": "METAR LYNI 192330Z 16005KT 120V210 9999 BKN083 09/02 Q1010 NOSIG",
      "taf": "TAF LYNI 192300Z 2000/2024 11005KT CAVOK TX08/2012Z TN03/2024Z"
    },
    {
      "icao": "LYPG",
      "alert": "OK",
      "vis_m": 9999,
      "fzfg": false,
      "metar_trigger": false,
      "taf_trigger": false,
      "metar": "METAR LYPG 192330Z 13020KT 9999 FEW026 SCT043 OVC073 14/08 Q1008 NOSIG",
      "taf": "TAF LYPG 192300Z 2000/2024 14015G25KT 9999 FEW025 SCT040 OVC070 TX15/2000Z TN06/2024Z"
    },
    {
      "icao": "LZIB",
      "alert": "OK",
      "vis_m": 4500,
      "fzfg": false,
      "metar_trigger": false,
      "taf_trigger": false,
      "metar": "METAR LZIB 192330Z 03009KT 4500 -SN BR FEW004 SCT006 BKN015 01/01 Q1009 NOSIG",
      "taf": "TAF LZIB 192315Z 2000/2100 02012KT 7000 -RASN FEW004 BKN018"
    },
    {
      "icao": "LZKZ",
      "alert": "OK",
      "vis_m": 8000,
      "fzfg": false,
      "metar_trigger": false,
      "taf_trigger": false,
      "metar": "METAR LZKZ 192330Z 01012KT 8000 SCT035 01/M00 Q1012 NOSIG",
      "taf": "TAF LZKZ 192315Z 2000/2100 01012KT 7000 FEW023 BKN032 OVC040"
    },
    {
      "icao": "LZTT",
      "alert": "OK",
      "vis_m": 5000,
      "fzfg": false,
      "metar_trigger": false,
      "taf_trigger": false,
      "metar": "METAR LZTT 192330Z 06010KT 5000 BR OVC007 M02/M03 Q1011",
      "taf": "TAF LZTT 192315Z 2000/2100 07012KT 9999 FEW010 OVC022"
    },
    {
      "icao": "OEJN",
      "alert": "OK",
      "vis_m": 9999,
      "fzfg": false,
      "metar_trigger": false,
      "taf_trigger": false,
      "metar": "METAR OEJN 192300Z 36003KT CAVOK 24/18 Q1013 NOSIG",
      "taf": "TAF OEJN 192300Z 2000/2106 02006KT 7000 NSC"
    },
    {
      "icao": "OEMA",
      "alert": "OK",
      "vis_m": 8000,
      "fzfg": false,
      "metar_trigger": false,
      "taf_trigger": false,
      "metar": "METAR OEMA 192300Z 02011KT 8000 NSC 23/00 Q1019 NOSIG",
      "taf": "TAF OEMA 192300Z 2000/2106 VRB03KT 7000 NSC"
    },
    {
      "icao": "OJAI",
      "alert": "OK",
      "vis_m": null,
      "fzfg": false,
      "metar_trigger": false,
      "taf_trigger": false,
      "metar": "",
      "taf": ""
    },
    {
      "icao": "OMAA",
      "alert": "OK",
      "vis_m": 9999,
      "fzfg": false,
      "metar_trigger": false,
      "taf_trigger": false,
      "metar": "METAR OMAA 192330Z 06005KT CAVOK 20/12 Q1016 NOSIG",
      "taf": "TAF OMAA 192300Z 2000/2106 06007KT 8000 NSC"
    },
    {
      "icao": "OMDB",
      "alert": "OK",
      "vis_m": 9999,
      "fzfg": false,
      "metar_trigger": false,
      "taf_trigger": false,
      "metar": "METAR OMDB 192300Z 07004KT 010V100 CAVOK 22/12 Q1016 NOSIG",
      "taf": "TAF OMDB 192300Z 2000/2106 08005KT CAVOK"
    },
    {
      "icao": "UAAA",
      "alert": "OK",
      "vis_m": 9999,
      "fzfg": false,
      "metar_trigger": false,
      "taf_trigger": false,
      "metar": "METAR UAAA 192330Z 21002MPS 180V240 9999 BKN100 08/04 Q1022 NOSIG",
      "taf": "TAF UAAA 192302Z 2000/2024 21003MPS 9999 SCT050CB BKN100 TX12/2009Z TN06/2003Z"
    },
    {
      "icao": "UBBB",
      "alert": "OK",
      "vis_m": 9999,
      "fzfg": false,
      "metar_trigger": false,
      "taf_trigger": false,
      "metar": "METAR UBBB 192330Z 32018KT CAVOK 09/03 Q1021 NOSIG",
      "taf": "TAF UBBB 192304Z 2000/2024 32018G28KT 9999 BKN030 TX10/2010Z TN07/2002Z"
    },
    {
      "icao": "UDSG",
      "alert": "OK",
      "vis_m": 9999,
      "fzfg": false,
      "metar_trigger": false,
      "taf_trigger": false,
      "metar": "METAR UDSG 192330Z 12005KT 9999 SCT049 M06/M08 Q1024 NOSIG",
      "taf": "TAF UDSG 192258Z 2000/2024 VRB06KT 9999 SCT040"
    },
    {
      "icao": "UDYZ",
      "alert": "OK",
      "vis_m": 9999,
      "fzfg": false,
      "metar_trigger": false,
      "taf_trigger": false,
      "metar": "METAR UDYZ 192330Z 15001KT 9999 SCT043CB 02/M05 Q1024 NOSIG",
      "taf": "TAF UDYZ 192300Z 2000/2024 16006KT 9999 FEW040"
    },
    {
      "icao": "UGKO",
      "alert": "OK",
      "vis_m": 9999,
      "fzfg": false,
      "metar_trigger": false,
      "taf_trigger": false,
      "metar": "METAR UGKO 192330Z 10004KT CAVOK 03/02 Q1028 NOSIG",
      "taf": "TAF UGKO 192300Z 2000/2024 08007KT CAVOK TX17/2011Z TN02/2003Z"
    }
  ]
}