{
  "ts_utc": "2026-04-13T12:51:05Z",
  "threshold_m": 150,
  "source": "stations_override.txt (ICAO list) + aviationweather.gov (METAR/TAF raw)",
  "station_count": 159,
  "stations": [
    {
      "icao": "BIKF",
      "alert": "OK",
      "vis_m": 9999,
      "fzfg": false,
      "metar_trigger": false,
      "taf_trigger": false,
      "metar": "METAR BIKF 131230Z 05013KT 9999 -DZ OVC008 04/03 Q0996",
      "taf": "TAF BIKF 131033Z 1312/1412 05005KT 9999 -SHRA SCT018 BKN028 TX07/1412Z TN03/1322Z"
    },
    {
      "icao": "BKPR",
      "alert": "OK",
      "vis_m": 9999,
      "fzfg": false,
      "metar_trigger": false,
      "taf_trigger": false,
      "metar": "METAR BKPR 131230Z 14019KT 9999 FEW040 17/10 Q1015 NOSIG",
      "taf": "TAF BKPR 131130Z 1312/1412 15008KT 9999 FEW040"
    },
    {
      "icao": "EBCI",
      "alert": "OK",
      "vis_m": 9999,
      "fzfg": false,
      "metar_trigger": false,
      "taf_trigger": false,
      "metar": "METAR EBCI 131220Z VRB03KT 9999 FEW040 12/03 Q1013 NOSIG",
      "taf": "TAF EBCI 131115Z 1312/1418 32006KT 9999 SCT035"
    },
    {
      "icao": "EDDB",
      "alert": "OK",
      "vis_m": 9999,
      "fzfg": false,
      "metar_trigger": false,
      "taf_trigger": false,
      "metar": "METAR EDDB 131220Z AUTO 11012KT 070V130 CAVOK 14/03 Q1014 TEMPO 09015G25KT",
      "taf": "TAF EDDB 131100Z 1312/1412 09014KT CAVOK"
    },
    {
      "icao": "EDDH",
      "alert": "OK",
      "vis_m": 9999,
      "fzfg": false,
      "metar_trigger": false,
      "taf_trigger": false,
      "metar": "METAR EDDH 131220Z AUTO 09008KT 050V120 9999 FEW025 BKN038 OVC045 11/06 Q1014 NOSIG",
      "taf": "TAF EDDH 131100Z 1312/1418 08007KT 9999 BKN025"
    },
    {
      "icao": "EDDK",
      "alert": "OK",
      "vis_m": 9999,
      "fzfg": false,
      "metar_trigger": false,
      "taf_trigger": false,
      "metar": "METAR EDDK 131220Z AUTO 35003KT 310V040 9999 -RADZ FEW012 BKN030 OVC048 10/07 Q1012 NOSIG",
      "taf": "TAF EDDK 131100Z 1312/1418 VRB03KT 9999 BKN030"
    },
    {
      "icao": "EDDN",
      "alert": "OK",
      "vis_m": 9999,
      "fzfg": false,
      "metar_trigger": false,
      "taf_trigger": false,
      "metar": "METAR EDDN 131220Z AUTO VRB04KT CAVOK 12/06 Q1009 NOSIG",
      "taf": "TAF EDDN 131100Z 1312/1412 06005KT CAVOK"
    },
    {
      "icao": "EDDS",
      "alert": "OK",
      "vis_m": 9999,
      "fzfg": false,
      "metar_trigger": false,
      "taf_trigger": false,
      "metar": "METAR EDDS 131220Z AUTO 34006KT 310V020 9999 BKN006 OVC009 09/07 Q1009 NOSIG",
      "taf": "TAF EDDS 131100Z 1312/1412 36004KT 9000 SCT005 OVC015"
    },
    {
      "icao": "EDFH",
      "alert": "OK",
      "vis_m": 9999,
      "fzfg": false,
      "metar_trigger": false,
      "taf_trigger": false,
      "metar": "METAR EDFH 131220Z 33005KT 300V010 9999 -RA OVC003 06/06 Q1011",
      "taf": "TAF EDFH 131100Z 1312/1412 01005KT 9999 SCT004 BKN015"
    },
    {
      "icao": "EDJA",
      "alert": "OK",
      "vis_m": 9999,
      "fzfg": false,
      "metar_trigger": false,
      "taf_trigger": false,
      "metar": "METAR EDJA 131220Z 27004KT 230V300 9999 SCT005 OVC007 09/07 Q1008",
      "taf": "TAF EDJA 131100Z 1312/1321 02005KT 6000 SCT004 OVC006"
    },
    {
      "icao": "EDLW",
      "alert": "OK",
      "vis_m": 9999,
      "fzfg": false,
      "metar_trigger": false,
      "taf_trigger": false,
      "metar": "METAR EDLW 131220Z COR 02003KT 350V060 9999 BKN039 OVC046 10/05 Q1012",
      "taf": "TAF EDLW 131100Z 1312/1412 04005KT 9999 BKN035"
    },
    {
      "icao": "EDNY",
      "alert": "OK",
      "vis_m": 9999,
      "fzfg": false,
      "metar_trigger": false,
      "taf_trigger": false,
      "metar": "METAR EDNY 131220Z 23004KT 190V250 9999 -RA OVC008 10/08 Q1009",
      "taf": "TAF EDNY 131100Z 1312/1321 VRB03KT 9999 BKN009"
    },
    {
      "icao": "EDSB",
      "alert": "OK",
      "vis_m": 9999,
      "fzfg": false,
      "metar_trigger": false,
      "taf_trigger": false,
      "metar": "METAR EDSB 131220Z VRB02KT 9999 OVC009 10/08 Q1010",
      "taf": "TAF EDSB 131100Z 1312/1412 02005KT 9000 SCT006 BKN015"
    },
    {
      "icao": "EETN",
      "alert": "OK",
      "vis_m": 9999,
      "fzfg": false,
      "metar_trigger": false,
      "taf_trigger": false,
      "metar": "METAR EETN 131220Z 03004KT 9999 VCSH SCT035CB 10/03 Q1030 WS R08 NOSIG",
      "taf": "TAF EETN 131130Z 1312/1412 04010KT CAVOK"
    },
    {
      "icao": "EFTU",
      "alert": "OK",
      "vis_m": 9999,
      "fzfg": false,
      "metar_trigger": false,
      "taf_trigger": false,
      "metar": "METAR EFTU 131220Z AUTO 17004KT 130V210 CAVOK 12/M02 Q1030",
      "taf": "TAF EFTU 131126Z 1312/1412 21005KT CAVOK"
    },
    {
      "icao": "EGBB",
      "alert": "OK",
      "vis_m": 9999,
      "fzfg": false,
      "metar_trigger": false,
      "taf_trigger": false,
      "metar": "METAR EGBB 131220Z 15009KT 9999 BKN042 11/02 Q1012",
      "taf": "TAF EGBB 131056Z 1312/1412 18007KT 9999 SCT030"
    },
    {
      "icao": "EGGP",
      "alert": "OK",
      "vis_m": 9999,
      "fzfg": false,
      "metar_trigger": false,
      "taf_trigger": false,
      "metar": "METAR EGGP 131220Z 17006KT 130V220 9999 SCT047 12/01 Q1012",
      "taf": "TAF EGGP 131058Z 1312/1412 17007KT 9999 FEW035"
    },
    {
      "icao": "EGGW",
      "alert": "OK",
      "vis_m": 9999,
      "fzfg": false,
      "metar_trigger": false,
      "taf_trigger": false,
      "metar": "METAR EGGW 131220Z AUTO 17004KT 130V220 9999 NCD 11/01 Q1013",
      "taf": "TAF EGGW 131055Z 1312/1412 23004KT 9999 SCT035"
    },
    {
      "icao": "EGKK",
      "alert": "OK",
      "vis_m": 9999,
      "fzfg": false,
      "metar_trigger": false,
      "taf_trigger": false,
      "metar": "METAR EGKK 131220Z VRB01KT 9999 FEW013 SCT030 10/06 Q1013",
      "taf": "TAF EGKK 131053Z 1312/1418 VRB04KT 9999 SCT030"
    },
    {
      "icao": "EGNM",
      "alert": "OK",
      "vis_m": 9999,
      "fzfg": false,
      "metar_trigger": false,
      "taf_trigger": false,
      "metar": "METAR EGNM 131220Z 14005KT 100V210 9999 SCT036 12/M02 Q1012",
      "taf": "TAF EGNM 131059Z 1312/1412 VRB03KT 9999 FEW040"
    },
    {
      "icao": "EGPD",
      "alert": "OK",
      "vis_m": 9999,
      "fzfg": false,
      "metar_trigger": false,
      "taf_trigger": false,
      "metar": "METAR EGPD 131220Z COR AUTO 15014KT 120V190 9999 FEW036 11/03 Q1011 NOSIG",
      "taf": "TAF EGPD 131056Z 1312/1412 19010KT 9999 FEW040"
    },
    {
      "icao": "EGPF",
      "alert": "OK",
      "vis_m": 9999,
      "fzfg": false,
      "metar_trigger": false,
      "taf_trigger": false,
      "metar": "METAR EGPF 131220Z AUTO 14006KT 110V170 9999 FEW036/// SCT048/// //////CB 09/04 Q1011",
      "taf": "TAF EGPF 131055Z 1312/1412 19008KT 9999 FEW020"
    },
    {
      "icao": "EHBK",
      "alert": "OK",
      "vis_m": 9999,
      "fzfg": false,
      "metar_trigger": false,
      "taf_trigger": false,
      "metar": "METAR EHBK 131225Z AUTO 10005KT 060V130 9999 FEW038 10/05 Q1013 NOSIG",
      "taf": "TAF EHBK 131112Z 1312/1418 34003KT CAVOK"
    },
    {
      "icao": "EHEH",
      "alert": "OK",
      "vis_m": 9999,
      "fzfg": false,
      "metar_trigger": false,
      "taf_trigger": false,
      "metar": "METAR EHEH 131225Z AUTO 05006KT 360V080 9999 FEW089 OVC098 13/04 Q1012 BLU NOSIG RMK TREND REMOTE BY EHWX",
      "taf": "TAF EHEH 130527Z 1306/1412 VRB02KT CAVOK"
    },
    {
      "icao": "EKBI",
      "alert": "OK",
      "vis_m": 9999,
      "fzfg": false,
      "metar_trigger": false,
      "taf_trigger": false,
      "metar": "METAR EKBI 131220Z AUTO 08011KT 9999 OVC047/// 09/04 Q1017",
      "taf": "TAF EKBI 131127Z 1312/1412 10008KT 9999 BKN035"
    },
    {
      "icao": "EKCH",
      "alert": "OK",
      "vis_m": 9999,
      "fzfg": false,
      "metar_trigger": false,
      "taf_trigger": false,
      "metar": "METAR EKCH 131220Z AUTO 12012KT 9999 NCD 11/01 Q1020 NOSIG",
      "taf": "TAF EKCH 131127Z 1312/1412 12014KT 9999 BKN045"
    },
    {
      "icao": "ENAL",
      "alert": "OK",
      "vis_m": 9999,
      "fzfg": false,
      "metar_trigger": false,
      "taf_trigger": false,
      "metar": "METAR ENAL 131220Z 15010KT CAVOK 14/M03 Q1018",
      "taf": "TAF ENAL 131100Z 1312/1321 13007KT CAVOK"
    },
    {
      "icao": "ENBR",
      "alert": "OK",
      "vis_m": 9999,
      "fzfg": false,
      "metar_trigger": false,
      "taf_trigger": false,
      "metar": "METAR ENBR 131220Z 15015KT 9999 BKN054 11/M00 Q1017 TEMPO 15016G26KT RMK WIND 1200FT 14023KT",
      "taf": "TAF ENBR 131100Z 1312/1412 14015KT 9999 BKN045"
    },
    {
      "icao": "ENGM",
      "alert": "OK",
      "vis_m": 9999,
      "fzfg": false,
      "metar_trigger": false,
      "taf_trigger": false,
      "metar": "METAR ENGM 131220Z 14007KT 090V170 9999 VCSH NSC 09/M01 Q1024 NOSIG",
      "taf": "TAF ENGM 131100Z 1312/1412 10005KT CAVOK"
    },
    {
      "icao": "ENHD",
      "alert": "OK",
      "vis_m": 9999,
      "fzfg": false,
      "metar_trigger": false,
      "taf_trigger": false,
      "metar": "METAR ENHD 131220Z 12020KT 9999 BKN049 11/02 Q1017",
      "taf": "TAF ENHD 131100Z 1312/1321 14020KT 9999 SCT030"
    },
    {
      "icao": "ENTC",
      "alert": "OK",
      "vis_m": 9999,
      "fzfg": false,
      "metar_trigger": false,
      "taf_trigger": false,
      "metar": "METAR ENTC 131150Z 27004KT CAVOK 08/M05 Q1025 NOSIG RMK WIND 2600FT 18017KT",
      "taf": "TAF ENTC 131100Z 1312/1412 02004KT CAVOK"
    },
    {
      "icao": "ENTO",
      "alert": "OK",
      "vis_m": 9999,
      "fzfg": false,
      "metar_trigger": false,
      "taf_trigger": false,
      "metar": "METAR ENTO 131220Z 03004KT CAVOK 07/03 Q1023 NOSIG",
      "taf": "TAF ENTO 131100Z 1312/1412 02005KT CAVOK"
    },
    {
      "icao": "ENVA",
      "alert": "OK",
      "vis_m": 9999,
      "fzfg": false,
      "metar_trigger": false,
      "taf_trigger": false,
      "metar": "METAR ENVA 131220Z 16024G38KT CAVOK 13/M02 Q1022 NOSIG RMK WIND 670FT 17034G47KT",
      "taf": ""
    },
    {
      "icao": "ENZV",
      "alert": "OK",
      "vis_m": 9999,
      "fzfg": false,
      "metar_trigger": false,
      "taf_trigger": false,
      "metar": "METAR ENZV 131220Z 14019KT CAVOK 11/02 Q1018 NOSIG",
      "taf": "TAF ENZV 131100Z 1312/1412 14015KT 9999 SCT030"
    },
    {
      "icao": "EPGD",
      "alert": "OK",
      "vis_m": 9999,
      "fzfg": false,
      "metar_trigger": false,
      "taf_trigger": false,
      "metar": "METAR EPGD 131230Z 10014KT CAVOK 12/M01 Q1022",
      "taf": "TAF EPGD 131130Z 1312/1412 11015KT CAVOK"
    },
    {
      "icao": "EPKK",
      "alert": "OK",
      "vis_m": 9999,
      "fzfg": false,
      "metar_trigger": false,
      "taf_trigger": false,
      "metar": "METAR EPKK 131230Z 07014KT CAVOK 13/00 Q1018",
      "taf": "TAF EPKK 131130Z 1312/1412 07014KT CAVOK"
    },
    {
      "icao": "EPKT",
      "alert": "OK",
      "vis_m": 9999,
      "fzfg": false,
      "metar_trigger": false,
      "taf_trigger": false,
      "metar": "METAR EPKT 131230Z 10018KT CAVOK 11/M01 Q1018",
      "taf": "TAF EPKT 131130Z 1312/1412 09016KT CAVOK"
    },
    {
      "icao": "EPLB",
      "alert": "OK",
      "vis_m": 9999,
      "fzfg": false,
      "metar_trigger": false,
      "taf_trigger": false,
      "metar": "METAR EPLB 131230Z 13015KT CAVOK 12/M00 Q1023",
      "taf": "TAF EPLB 131130Z 1312/1412 10015KT CAVOK"
    },
    {
      "icao": "EPMO",
      "alert": "OK",
      "vis_m": 9999,
      "fzfg": false,
      "metar_trigger": false,
      "taf_trigger": false,
      "metar": "METAR EPMO 131230Z 10014KT 050V130 CAVOK 13/M01 Q1022",
      "taf": "TAF EPMO 131130Z 1312/1412 11016KT CAVOK"
    },
    {
      "icao": "EPPO",
      "alert": "OK",
      "vis_m": 9999,
      "fzfg": false,
      "metar_trigger": false,
      "taf_trigger": false,
      "metar": "METAR EPPO 131230Z 13018KT CAVOK 13/M02 Q1018",
      "taf": "TAF EPPO 131130Z 1312/1412 11018KT CAVOK"
    },
    {
      "icao": "EPRA",
      "alert": "OK",
      "vis_m": 9999,
      "fzfg": false,
      "metar_trigger": false,
      "taf_trigger": false,
      "metar": "METAR EPRA 131230Z 11015KT 070V140 CAVOK 12/M02 Q1021",
      "taf": "TAF EPRA 131130Z 1312/1321 11014KT CAVOK"
    },
    {
      "icao": "EPRZ",
      "alert": "OK",
      "vis_m": 9999,
      "fzfg": false,
      "metar_trigger": false,
      "taf_trigger": false,
      "metar": "METAR EPRZ 131230Z 11017KT CAVOK 13/M01 Q1020",
      "taf": "TAF EPRZ 131130Z 1312/1412 11014KT CAVOK"
    },
    {
      "icao": "EPSC",
      "alert": "OK",
      "vis_m": 9999,
      "fzfg": false,
      "metar_trigger": false,
      "taf_trigger": false,
      "metar": "METAR EPSC 131230Z 10015KT CAVOK 13/M01 Q1017",
      "taf": "TAF EPSC 131130Z 1312/1412 11014KT CAVOK"
    },
    {
      "icao": "EPSY",
      "alert": "OK",
      "vis_m": 9999,
      "fzfg": false,
      "metar_trigger": false,
      "taf_trigger": false,
      "metar": "METAR EPSY 131230Z 11009KT 030V190 CAVOK 12/M02 Q1023",
      "taf": "TAF EPSY 131130Z 1312/1321 11010KT CAVOK"
    },
    {
      "icao": "EPWA",
      "alert": "OK",
      "vis_m": 9999,
      "fzfg": false,
      "metar_trigger": false,
      "taf_trigger": false,
      "metar": "METAR EPWA 131230Z 12015KT CAVOK 13/M02 Q1022 NOSIG",
      "taf": "TAF EPWA 131130Z 1312/1412 11015KT CAVOK"
    },
    {
      "icao": "EPWR",
      "alert": "OK",
      "vis_m": 9999,
      "fzfg": false,
      "metar_trigger": false,
      "taf_trigger": false,
      "metar": "METAR EPWR 131230Z 09015KT CAVOK 15/M01 Q1015",
      "taf": "TAF EPWR 131130Z 1312/1412 11019KT CAVOK"
    },
    {
      "icao": "ESGG",
      "alert": "OK",
      "vis_m": 9999,
      "fzfg": false,
      "metar_trigger": false,
      "taf_trigger": false,
      "metar": "METAR ESGG 131220Z 14011KT 100V160 CAVOK 13/M01 Q1021",
      "taf": "TAF ESGG 131130Z 1312/1412 12011KT CAVOK"
    },
    {
      "icao": "ESKN",
      "alert": "OK",
      "vis_m": 9999,
      "fzfg": false,
      "metar_trigger": false,
      "taf_trigger": false,
      "metar": "METAR ESKN 131220Z 15011KT CAVOK 11/M00 Q1028",
      "taf": "TAF ESKN 131130Z 1312/1412 15011KT CAVOK"
    },
    {
      "icao": "ESMS",
      "alert": "OK",
      "vis_m": 9999,
      "fzfg": false,
      "metar_trigger": false,
      "taf_trigger": false,
      "metar": "METAR ESMS 131220Z 09016KT CAVOK 12/00 Q1020",
      "taf": "TAF ESMS 131127Z 1312/1412 11014KT 9999 BKN045"
    },
    {
      "icao": "ESSA",
      "alert": "OK",
      "vis_m": 9999,
      "fzfg": false,
      "metar_trigger": false,
      "taf_trigger": false,
      "metar": "METAR ESSA 131220Z 15011KT CAVOK 12/M01 Q1028 NOSIG",
      "taf": "TAF ESSA 131130Z 1312/1412 15011KT CAVOK"
    },
    {
      "icao": "EYKA",
      "alert": "OK",
      "vis_m": 9999,
      "fzfg": false,
      "metar_trigger": false,
      "taf_trigger": false,
      "metar": "METAR EYKA 131220Z 12009KT CAVOK 12/M00 Q1027",
      "taf": "TAF EYKA 131100Z 1312/1412 12011KT 9000 SCT045"
    },
    {
      "icao": "EYPA",
      "alert": "OK",
      "vis_m": 9999,
      "fzfg": false,
      "metar_trigger": false,
      "taf_trigger": false,
      "metar": "METAR EYPA 131220Z 12007KT 080V160 CAVOK 12/M02 Q1027",
      "taf": "TAF EYPA 131100Z 1312/1412 12009KT 9000 NSC"
    },
    {
      "icao": "EYVI",
      "alert": "OK",
      "vis_m": 9999,
      "fzfg": false,
      "metar_trigger": false,
      "taf_trigger": false,
      "metar": "METAR EYVI 131220Z 15008KT 9999 FEW046 11/00 Q1027 NOSIG",
      "taf": "TAF EYVI 131100Z 1312/1412 11010KT 9000 SCT045"
    },
    {
      "icao": "GCFV",
      "alert": "OK",
      "vis_m": 9999,
      "fzfg": false,
      "metar_trigger": false,
      "taf_trigger": false,
      "metar": "METAR GCFV 131230Z 03024KT 9999 FEW030 20/11 Q1021",
      "taf": "TAF GCFV 130800Z 1309/1409 02021KT 9999 FEW035 TX22/1314Z TN16/1406Z"
    },
    {
      "icao": "GCLP",
      "alert": "OK",
      "vis_m": 9999,
      "fzfg": false,
      "metar_trigger": false,
      "taf_trigger": false,
      "metar": "METAR GCLP 131230Z 01023KT 340V040 9999 BKN040 20/10 Q1022 NOSIG",
      "taf": "TAF GCLP 130800Z 1309/1409 01025KT 9999 SCT030 TX21/1314Z TN16/1406Z"
    },
    {
      "icao": "GCTS",
      "alert": "OK",
      "vis_m": 9999,
      "fzfg": false,
      "metar_trigger": false,
      "taf_trigger": false,
      "metar": "METAR GCTS 131230Z 07026KT 9999 FEW035 22/09 Q1022 WS R07 NOSIG",
      "taf": ""
    },
    {
      "icao": "GMAD",
      "alert": "OK",
      "vis_m": 9999,
      "fzfg": false,
      "metar_trigger": false,
      "taf_trigger": false,
      "metar": "METAR GMAD 131230Z 26007KT 190V330 CAVOK 24/11 Q1014 NOSIG",
      "taf": "TAF GMAD 131100Z 1312/1418 28008KT 8000 NSC"
    },
    {
      "icao": "GMMN",
      "alert": "OK",
      "vis_m": 9999,
      "fzfg": false,
      "metar_trigger": false,
      "taf_trigger": false,
      "metar": "METAR GMMN 131230Z 36010KT 300V060 9999 BKN030 16/10 Q1023 NOSIG",
      "taf": "TAF GMMN 131100Z 1312/1418 36012KT 9999 BKN030"
    },
    {
      "icao": "GMMX",
      "alert": "OK",
      "vis_m": 9999,
      "fzfg": false,
      "metar_trigger": false,
      "taf_trigger": false,
      "metar": "METAR GMMX 131230Z 04010KT 360V100 CAVOK 19/10 Q1020 NOSIG",
      "taf": "TAF GMMX 131100Z 1312/1418 08006KT CAVOK"
    },
    {
      "icao": "HEGN",
      "alert": "OK",
      "vis_m": 9999,
      "fzfg": false,
      "metar_trigger": false,
      "taf_trigger": false,
      "metar": "METAR HEGN 131200Z 03007KT CAVOK 28/02 Q1014 NOSIG",
      "taf": "TAF HEGN 131100Z 1312/1418 01014KT CAVOK"
    },
    {
      "icao": "HEMA",
      "alert": "OK",
      "vis_m": 9999,
      "fzfg": false,
      "metar_trigger": false,
      "taf_trigger": false,
      "metar": "METAR HEMA 131200Z 36018KT CAVOK 27/11 Q1014 NOSIG",
      "taf": "TAF HEMA 131100Z 1312/1418 35010G22KT CAVOK"
    },
    {
      "icao": "HESH",
      "alert": "OK",
      "vis_m": 9999,
      "fzfg": false,
      "metar_trigger": false,
      "taf_trigger": false,
      "metar": "METAR HESH 131200Z 01010KT CAVOK 29/07 Q1014 NOSIG",
      "taf": "TAF HESH 131100Z 1312/1418 08011KT CAVOK"
    },
    {
      "icao": "HESX",
      "alert": "OK",
      "vis_m": 9999,
      "fzfg": false,
      "metar_trigger": false,
      "taf_trigger": false,
      "metar": "METAR HESX 131200Z 03010KT CAVOK 25/08 Q1018 NOSIG",
      "taf": "TAF HESX 131100Z 1312/1418 04009KT CAVOK"
    },
    {
      "icao": "LATI",
      "alert": "OK",
      "vis_m": null,
      "fzfg": false,
      "metar_trigger": false,
      "taf_trigger": false,
      "metar": "",
      "taf": "TAF LATI 131100Z 1312/1412 VRB05KT 9999 SCT100 TX27/1312Z TN12/1404Z"
    },
    {
      "icao": "LBPD",
      "alert": "OK",
      "vis_m": 9999,
      "fzfg": false,
      "metar_trigger": false,
      "taf_trigger": false,
      "metar": "METAR LBPD 131230Z AUTO VRB05KT 9999 FEW035/// 15/07 Q1019 NOSIG",
      "taf": "TAF LBPD 131100Z 1312/1412 08010KT 9999 SCT060"
    },
    {
      "icao": "LBSF",
      "alert": "OK",
      "vis_m": 9999,
      "fzfg": false,
      "metar_trigger": false,
      "taf_trigger": false,
      "metar": "METAR LBSF 131230Z 11016KT CAVOK 15/05 Q1018 NOSIG",
      "taf": "TAF LBSF 131100Z 1312/1412 10014KT 9999 SCT050"
    },
    {
      "icao": "LBWN",
      "alert": "OK",
      "vis_m": 9999,
      "fzfg": false,
      "metar_trigger": false,
      "taf_trigger": false,
      "metar": "METAR LBWN 131230Z AUTO 11013KT 9999 NCD 12/05 Q1022 NOSIG",
      "taf": "TAF LBWN 131100Z 1312/1412 12010KT 9999 SCT040"
    },
    {
      "icao": "LCLK",
      "alert": "OK",
      "vis_m": 9999,
      "fzfg": false,
      "metar_trigger": false,
      "taf_trigger": false,
      "metar": "METAR LCLK 131230Z 14010KT 9999 FEW040 21/08 Q1018 NOSIG",
      "taf": "TAF LCLK 131130Z 1312/1412 17012KT 9999 FEW035"
    },
    {
      "icao": "LCPH",
      "alert": "OK",
      "vis_m": 9999,
      "fzfg": false,
      "metar_trigger": false,
      "taf_trigger": false,
      "metar": "METAR LCPH 131230Z 16010KT 9999 FEW040 19/12 Q1019 NOSIG",
      "taf": "TAF LCPH 131130Z 1312/1412 16012KT 9999 FEW035"
    },
    {
      "icao": "LEAL",
      "alert": "OK",
      "vis_m": 9999,
      "fzfg": false,
      "metar_trigger": false,
      "taf_trigger": false,
      "metar": "METAR LEAL 131230Z 29013KT 250V330 9999 FEW025 BKN050 19/04 Q1011 NOSIG",
      "taf": "TAF LEAL 131100Z 1312/1412 33009KT 9999 FEW040 TX20/1313Z TN10/1406Z"
    },
    {
      "icao": "LEBB",
      "alert": "OK",
      "vis_m": 9999,
      "fzfg": false,
      "metar_trigger": false,
      "taf_trigger": false,
      "metar": "METAR LEBB 131230Z 30015KT 270V330 9999 SCT030 SCT050 14/09 Q1018 NOSIG",
      "taf": "TAF LEBB 131100Z 1312/1412 31009KT 9999 FEW030 BKN045 TX14/1314Z TN06/1400Z"
    },
    {
      "icao": "LEBL",
      "alert": "OK",
      "vis_m": 9999,
      "fzfg": false,
      "metar_trigger": false,
      "taf_trigger": false,
      "metar": "METAR LEBL 131230Z 20010KT 9999 FEW030 14/10 Q1009 NOSIG",
      "taf": ""
    },
    {
      "icao": "LECH",
      "alert": "OK",
      "vis_m": 9000,
      "fzfg": false,
      "metar_trigger": false,
      "taf_trigger": false,
      "metar": "METAR LECH 131230Z AUTO 32013KT 270V030 9000 NSC 16/01 Q1010",
      "taf": "TAF LECH 131100Z 1312/1412 33019KT 9999 FEW030 TX20/1314Z TN07/1406Z"
    },
    {
      "icao": "LEMD",
      "alert": "OK",
      "vis_m": 9999,
      "fzfg": false,
      "metar_trigger": false,
      "taf_trigger": false,
      "metar": "METAR LEMD 131230Z 30011KT 280V340 9999 SCT060 14/M01 Q1016 NOSIG",
      "taf": ""
    },
    {
      "icao": "LEMG",
      "alert": "OK",
      "vis_m": 9999,
      "fzfg": false,
      "metar_trigger": false,
      "taf_trigger": false,
      "metar": "METAR LEMG 131230Z 29015G25KT 260V330 9999 FEW060 18/04 Q1017 NOSIG",
      "taf": "TAF LEMG 131100Z 1312/1412 31014KT CAVOK TX21/1314Z TN13/1407Z"
    },
    {
      "icao": "LEVC",
      "alert": "OK",
      "vis_m": 9999,
      "fzfg": false,
      "metar_trigger": false,
      "taf_trigger": false,
      "metar": "METAR LEVC 131230Z 28005KT 9999 FEW069 20/03 Q1010 NOSIG",
      "taf": "TAF LEVC 131100Z 1312/1412 33009KT 9999 FEW060 TX22/1313Z TN09/1406Z"
    },
    {
      "icao": "LEXJ",
      "alert": "OK",
      "vis_m": 9999,
      "fzfg": false,
      "metar_trigger": false,
      "taf_trigger": false,
      "metar": "METAR LEXJ 131230Z 32011KT 280V010 9999 FEW029 SCT059 BKN070 13/06 Q1019",
      "taf": ""
    },
    {
      "icao": "LEZG",
      "alert": "OK",
      "vis_m": 9999,
      "fzfg": false,
      "metar_trigger": false,
      "taf_trigger": false,
      "metar": "METAR LEZG 131230Z 31029KT 280V340 9999 FEW045 15/04 Q1013 NOSIG",
      "taf": "TAF LEZG 131100Z 1312/1412 31022KT 9999 FEW040 TX17/1313Z TN07/1406Z"
    },
    {
      "icao": "LEZL",
      "alert": "OK",
      "vis_m": 9999,
      "fzfg": false,
      "metar_trigger": false,
      "taf_trigger": false,
      "metar": "METAR LEZL 131230Z 34016G26KT 320V030 CAVOK 19/02 Q1019 NOSIG",
      "taf": "TAF LEZL 130800Z 1309/1409 33012KT CAVOK TX22/1315Z TN10/1407Z"
    },
    {
      "icao": "LFBD",
      "alert": "OK",
      "vis_m": 9999,
      "fzfg": false,
      "metar_trigger": false,
      "taf_trigger": false,
      "metar": "METAR LFBD 131230Z AUTO 07011KT 010V100 9999 FEW028/// SCT043/// BKN052/// ///CB 13/07 Q1016 TEMPO 4000 SHRA BECMG 30010KT NSC",
      "taf": "TAF LFBD 131100Z 1312/1418 01005KT 9999 BKN040 TX19/1414Z TN03/1406Z"
    },
    {
      "icao": "LFLL",
      "alert": "OK",
      "vis_m": 9000,
      "fzfg": false,
      "metar_trigger": false,
      "taf_trigger": false,
      "metar": "METAR LFLL 131230Z 33010KT 310V010 9000 -RA BKN011 OVC017 07/06 Q1013 NOSIG",
      "taf": "TAF LFLL 131100Z 1312/1418 34012KT 9999 -RA BKN018"
    },
    {
      "icao": "LFLS",
      "alert": "OK",
      "vis_m": 9999,
      "fzfg": false,
      "metar_trigger": false,
      "taf_trigger": false,
      "metar": "METAR LFLS 131230Z AUTO 32007KT 9999 -RA BKN016 OVC025 07/05 Q1012 TEMPO 4500 RA BKN014",
      "taf": "TAF LFLS 130800Z 1309/1409 33010KT 9000 -RA OVC012"
    },
    {
      "icao": "LFMN",
      "alert": "OK",
      "vis_m": 9999,
      "fzfg": false,
      "metar_trigger": false,
      "taf_trigger": false,
      "metar": "METAR LFMN 131230Z 05005KT 010V070 9999 BKN100 20/10 Q1002 NOSIG",
      "taf": ""
    },
    {
      "icao": "LFOB",
      "alert": "OK",
      "vis_m": 9999,
      "fzfg": false,
      "metar_trigger": false,
      "taf_trigger": false,
      "metar": "METAR LFOB 131230Z AUTO VRB03KT 9999 FEW022/// SCT030/// BKN048/// ///CB 12/07 Q1013 TEMPO 1500 -TSRAGS SCT009 BKN014CB",
      "taf": "TAF LFOB 131100Z 1312/1412 VRB05KT 9999 SCT030TCU OVC050"
    },
    {
      "icao": "LFPO",
      "alert": "OK",
      "vis_m": 9999,
      "fzfg": false,
      "metar_trigger": false,
      "taf_trigger": false,
      "metar": "METAR LFPO 131230Z 25008KT 200V290 9999 FEW040TCU BKN070 BKN260 13/05 Q1013 NOSIG",
      "taf": ""
    },
    {
      "icao": "LFSB",
      "alert": "OK",
      "vis_m": 9999,
      "fzfg": false,
      "metar_trigger": false,
      "taf_trigger": false,
      "metar": "METAR LFSB 131230Z AUTO 28006KT 9999 OVC011 08/07 Q1011 TEMPO BKN008",
      "taf": "TAF LFSB 131100Z 1312/1412 28007KT 9999 FEW010 BKN020"
    },
    {
      "icao": "LGAV",
      "alert": "OK",
      "vis_m": 9999,
      "fzfg": false,
      "metar_trigger": false,
      "taf_trigger": false,
      "metar": "METAR LGAV 131220Z 10007KT 070V140 9999 FEW025 19/10 Q1020 NOSIG",
      "taf": "TAF LGAV 131100Z 1312/1412 VRB05KT 9999 FEW020"
    },
    {
      "icao": "LGTS",
      "alert": "OK",
      "vis_m": 9999,
      "fzfg": false,
      "metar_trigger": false,
      "taf_trigger": false,
      "metar": "METAR LGTS 131220Z 15009KT 9999 FEW016 SCT025 18/07 Q1020 NOSIG",
      "taf": "TAF LGTS 131100Z 1312/1412 12010KT 9999 FEW025"
    },
    {
      "icao": "LHBP",
      "alert": "OK",
      "vis_m": 9999,
      "fzfg": false,
      "metar_trigger": false,
      "taf_trigger": false,
      "metar": "METAR LHBP 131230Z 10012KT CAVOK 16/01 Q1016 NOSIG",
      "taf": "TAF LHBP 131115Z 1312/1412 09012KT CAVOK"
    },
    {
      "icao": "LHDC",
      "alert": "OK",
      "vis_m": 9999,
      "fzfg": false,
      "metar_trigger": false,
      "taf_trigger": false,
      "metar": "METAR LHDC 131215Z AUTO 09011KT 060V120 CAVOK 17/M01 Q1017 NOSIG",
      "taf": "TAF LHDC 131115Z 1312/1321 07012KT CAVOK"
    },
    {
      "icao": "LIBD",
      "alert": "OK",
      "vis_m": 9999,
      "fzfg": false,
      "metar_trigger": false,
      "taf_trigger": false,
      "metar": "METAR LIBD 131220Z 17018G38KT 9999 SCT030 20/13 Q1005",
      "taf": "TAF LIBD 131100Z 1312/1412 15025G40KT 9999 FEW030"
    },
    {
      "icao": "LIBG",
      "alert": "OK",
      "vis_m": 8000,
      "fzfg": false,
      "metar_trigger": false,
      "taf_trigger": false,
      "metar": "METAR LIBG 131150Z 15019G29KT 8000 SCT010 BKN020 18/14 Q1008",
      "taf": "TAF LIBG 131100Z 1312/1321 16025G40KT 9999 BKN015"
    },
    {
      "icao": "LIBP",
      "alert": "OK",
      "vis_m": 9999,
      "fzfg": false,
      "metar_trigger": false,
      "taf_trigger": false,
      "metar": "METAR LIBP 131220Z AUTO 10007KT 060V130 9999 BKN150/// 20/14 Q1003",
      "taf": "TAF LIBP 131100Z 1312/1412 11012KT 9999 OVC012"
    },
    {
      "icao": "LIBR",
      "alert": "OK",
      "vis_m": 9999,
      "fzfg": false,
      "metar_trigger": false,
      "taf_trigger": false,
      "metar": "METAR LIBR 131220Z 17022KT 9999 FEW035 21/12 Q1009",
      "taf": "TAF LIBR 131100Z 1312/1412 16020G35KT CAVOK"
    },
    {
      "icao": "LICA",
      "alert": "OK",
      "vis_m": 9999,
      "fzfg": false,
      "metar_trigger": false,
      "taf_trigger": false,
      "metar": "METAR LICA 131220Z AUTO 07020KT 9999 FEW026/// 20/15 Q1006",
      "taf": "TAF LICA 131100Z 1312/1412 08020G30KT CAVOK"
    },
    {
      "icao": "LICC",
      "alert": "OK",
      "vis_m": 6000,
      "fzfg": false,
      "metar_trigger": false,
      "taf_trigger": false,
      "metar": "METAR LICC 131220Z 06016KT 6000 SCT020 20/16 Q1005",
      "taf": "TAF LICC 131100Z 1312/1412 07013KT 7000 FEW020"
    },
    {
      "icao": "LICJ",
      "alert": "OK",
      "vis_m": 9000,
      "fzfg": false,
      "metar_trigger": false,
      "taf_trigger": false,
      "metar": "METAR LICJ 131220Z 26014KT 9000 FEW030 18/14 Q1003",
      "taf": "TAF LICJ 131100Z 1312/1412 22014KT 7000 SCT030"
    },
    {
      "icao": "LIMC",
      "alert": "OK",
      "vis_m": 9999,
      "fzfg": false,
      "metar_trigger": false,
      "taf_trigger": false,
      "metar": "METAR LIMC 131220Z 34010KT 9999 BKN050 12/10 Q1007 NOSIG",
      "taf": "TAF LIMC 131100Z 1312/1418 35009KT 9999 BKN040"
    },
    {
      "icao": "LIME",
      "alert": "OK",
      "vis_m": 9999,
      "fzfg": false,
      "metar_trigger": false,
      "taf_trigger": false,
      "metar": "METAR LIME 131220Z 36004KT 9999 -RA SCT045 BKN060 16/10 Q1007 NOSIG",
      "taf": "TAF LIME 131100Z 1312/1412 VRB05KT 9999 BKN040"
    },
    {
      "icao": "LIMF",
      "alert": "OK",
      "vis_m": 6000,
      "fzfg": false,
      "metar_trigger": false,
      "taf_trigger": false,
      "metar": "METAR LIMF 131220Z 33010KT 6000 -RA OVC025 12/09 Q1008 RERA",
      "taf": "TAF LIMF 131100Z 1312/1412 36009KT 7000 OVC020"
    },
    {
      "icao": "LIMJ",
      "alert": "OK",
      "vis_m": 9999,
      "fzfg": false,
      "metar_trigger": false,
      "taf_trigger": false,
      "metar": "METAR LIMJ 131220Z AUTO 36013KT 330V030 9999 SCT100/// SCT220/// 20/11 Q1002",
      "taf": "TAF LIMJ 131100Z 1312/1412 02013KT 9999 SCT060"
    },
    {
      "icao": "LIPE",
      "alert": "OK",
      "vis_m": 7000,
      "fzfg": false,
      "metar_trigger": false,
      "taf_trigger": false,
      "metar": "METAR LIPE 131220Z 08009KT 7000 BKN015 16/14 Q1005",
      "taf": "TAF LIPE 131100Z 1312/1412 07012KT 7000 BKN014"
    },
    {
      "icao": "LIPH",
      "alert": "OK",
      "vis_m": 9999,
      "fzfg": false,
      "metar_trigger": false,
      "taf_trigger": false,
      "metar": "METAR LIPH 131220Z 11008KT 090V160 9999 SCT070 20/08 Q1008",
      "taf": "TAF LIPH 131100Z 1312/1412 10012KT 9999 BKN060"
    },
    {
      "icao": "LIPQ",
      "alert": "OK",
      "vis_m": 9999,
      "fzfg": false,
      "metar_trigger": false,
      "taf_trigger": false,
      "metar": "METAR LIPQ 131220Z AUTO 09010KT 9999 BKN140/// 21/05 Q1008",
      "taf": "TAF LIPQ 131100Z 1312/1412 10012KT 9999 FEW060"
    },
    {
      "icao": "LIPR",
      "alert": "OK",
      "vis_m": 9999,
      "fzfg": false,
      "metar_trigger": false,
      "taf_trigger": false,
      "metar": "METAR LIPR 131220Z 10010KT 9999 BKN035 16/14 Q1005",
      "taf": "TAF LIPR 131100Z 1312/1412 10012KT 8000 SCT012 BKN030"
    },
    {
      "icao": "LIPX",
      "alert": "OK",
      "vis_m": 9999,
      "fzfg": false,
      "metar_trigger": false,
      "taf_trigger": false,
      "metar": "METAR LIPX 131220Z 08016G26KT 9999 FEW050 BKN060 20/07 Q1007",
      "taf": "TAF LIPX 131100Z 1312/1412 09010KT 9999 SCT040"
    },
    {
      "icao": "LIPY",
      "alert": "OK",
      "vis_m": 9999,
      "fzfg": false,
      "metar_trigger": false,
      "taf_trigger": false,
      "metar": "METAR LIPY 131220Z AUTO 12009KT 090V160 9999 OVC021/// 17/13 Q1005",
      "taf": "TAF LIPY 131100Z 1312/1412 13012KT 8000 SCT012 BKN030"
    },
    {
      "icao": "LIPZ",
      "alert": "OK",
      "vis_m": 9999,
      "fzfg": false,
      "metar_trigger": false,
      "taf_trigger": false,
      "metar": "METAR LIPZ 131220Z 10010KT 9999 FEW055 SCT070 20/08 Q1008 NOSIG",
      "taf": "TAF LIPZ 131100Z 1312/1418 10012KT 9999 BKN050"
    },
    {
      "icao": "LIRF",
      "alert": "OK",
      "vis_m": 9000,
      "fzfg": false,
      "metar_trigger": false,
      "taf_trigger": false,
      "metar": "METAR LIRF 131220Z 12017KT 9000 FEW030 19/13 Q1001 NOSIG",
      "taf": "TAF LIRF 131100Z 1312/1418 14018G28KT 9999 SCT020"
    },
    {
      "icao": "LIRN",
      "alert": "OK",
      "vis_m": 8000,
      "fzfg": false,
      "metar_trigger": false,
      "taf_trigger": false,
      "metar": "METAR LIRN 131220Z 17010G20KT 070V220 8000 FEW045 21/11 Q1004 NOSIG",
      "taf": "TAF LIRN 131100Z 1312/1412 17012KT 9999 SCT050"
    },
    {
      "icao": "LIRP",
      "alert": "OK",
      "vis_m": 9999,
      "fzfg": false,
      "metar_trigger": false,
      "taf_trigger": false,
      "metar": "METAR LIRP 131215Z COR 13008KT 9999 -RA SCT060 21/11 Q1002 TEMPO 5000",
      "taf": "TAF LIRP 131100Z 1312/1412 09010KT 9999 RA BKN080"
    },
    {
      "icao": "LIRZ",
      "alert": "OK",
      "vis_m": 9999,
      "fzfg": false,
      "metar_trigger": false,
      "taf_trigger": false,
      "metar": "METAR LIRZ 131220Z AUTO 34005KT 310V010 9999 NCD 20/11 Q1002",
      "taf": "TAF LIRZ 131100Z 1312/1412 02011KT 9999 SCT040"
    },
    {
      "icao": "LJLJ",
      "alert": "OK",
      "vis_m": 9999,
      "fzfg": false,
      "metar_trigger": false,
      "taf_trigger": false,
      "metar": "METAR LJLJ 131230Z 13010KT 9999 FEW070 BKN110 BKN200 16/04 Q1011 NOSIG",
      "taf": "TAF LJLJ 131100Z 1312/1412 12005KT 9999 FEW070"
    },
    {
      "icao": "LKMT",
      "alert": "OK",
      "vis_m": 9999,
      "fzfg": false,
      "metar_trigger": false,
      "taf_trigger": false,
      "metar": "METAR LKMT 131230Z 05009KT CAVOK 15/03 Q1015 NOSIG",
      "taf": "TAF LKMT 131100Z 1312/1412 05012KT CAVOK"
    },
    {
      "icao": "LKPR",
      "alert": "OK",
      "vis_m": 9999,
      "fzfg": false,
      "metar_trigger": false,
      "taf_trigger": false,
      "metar": "METAR LKPR 131230Z 12014KT CAVOK 14/01 Q1011 NOSIG",
      "taf": "TAF LKPR 131100Z 1312/1418 11012KT CAVOK"
    },
    {
      "icao": "LLBG",
      "alert": "OK",
      "vis_m": 9999,
      "fzfg": false,
      "metar_trigger": false,
      "taf_trigger": false,
      "metar": "METAR LLBG 131220Z 31010KT 9999 FEW030 22/12 Q1017 NOSIG",
      "taf": "TAF LLBG 131105Z 1312/1412 30010KT CAVOK TX21/1312Z TN10/1403Z"
    },
    {
      "icao": "LMML",
      "alert": "OK",
      "vis_m": 4000,
      "fzfg": false,
      "metar_trigger": false,
      "taf_trigger": false,
      "metar": "METAR LMML 131245Z 21012KT 180V240 4000 DU NSC 22/15 Q1005 NOSIG",
      "taf": "TAF LMML 131100Z 1312/1412 21011KT 5000 DU NSC"
    },
    {
      "icao": "LOWW",
      "alert": "OK",
      "vis_m": 9999,
      "fzfg": false,
      "metar_trigger": false,
      "taf_trigger": false,
      "metar": "METAR LOWW 131220Z 14012KT 9999 FEW050 16/01 Q1014 NOSIG",
      "taf": "TAF LOWW 131115Z 1312/1418 14012KT 9999 SCT050 TX17/1413Z TN09/1403Z"
    },
    {
      "icao": "LPFR",
      "alert": "OK",
      "vis_m": 9999,
      "fzfg": false,
      "metar_trigger": false,
      "taf_trigger": false,
      "metar": "METAR LPFR 131230Z 31010KT 270V350 9999 SCT042 17/07 Q1022",
      "taf": "TAF LPFR 131100Z 1312/1412 32015KT 9999 SCT030"
    },
    {
      "icao": "LPMA",
      "alert": "OK",
      "vis_m": 9999,
      "fzfg": false,
      "metar_trigger": false,
      "taf_trigger": false,
      "metar": "METAR LPMA 131230Z 03011KT 360V060 9999 BKN015 17/09 Q1027",
      "taf": "TAF LPMA 131100Z 1312/1412 02012KT 9999 SCT015 SCT030"
    },
    {
      "icao": "LPPR",
      "alert": "OK",
      "vis_m": 9999,
      "fzfg": false,
      "metar_trigger": false,
      "taf_trigger": false,
      "metar": "METAR LPPR 131230Z 26007KT 230V300 9999 SCT014 SCT030 15/11 Q1021",
      "taf": "TAF LPPR 131100Z 1312/1412 21008KT 9999 SCT008 BKN016"
    },
    {
      "icao": "LPPS",
      "alert": "OK",
      "vis_m": 9999,
      "fzfg": false,
      "metar_trigger": false,
      "taf_trigger": false,
      "metar": "METAR LPPS 131230Z 02010KT 330V060 9999 FEW015 BKN030 17/07 Q1027",
      "taf": "TAF LPPS 131100Z 1312/1418 05010KT 9999 SCT015 BKN030"
    },
    {
      "icao": "LPPT",
      "alert": "OK",
      "vis_m": 9999,
      "fzfg": false,
      "metar_trigger": false,
      "taf_trigger": false,
      "metar": "METAR LPPT 131230Z 29008KT 260V330 9999 FEW030 BKN035 15/09 Q1022",
      "taf": "TAF LPPT 131100Z 1312/1418 32010KT 9999 SCT030"
    },
    {
      "icao": "LQBK",
      "alert": "OK",
      "vis_m": 9999,
      "fzfg": false,
      "metar_trigger": false,
      "taf_trigger": false,
      "metar": "METAR LQBK 131230Z 34008KT CAVOK 18/06 Q1010 NOSIG",
      "taf": ""
    },
    {
      "icao": "LQSA",
      "alert": "OK",
      "vis_m": 9999,
      "fzfg": false,
      "metar_trigger": false,
      "taf_trigger": false,
      "metar": "METAR LQSA 131230Z 17011KT CAVOK 23/01 Q1009 NOSIG",
      "taf": "TAF LQSA 131100Z 1312/1412 11007KT CAVOK TX25/1313Z TN06/1404Z"
    },
    {
      "icao": "LQTZ",
      "alert": "OK",
      "vis_m": 9999,
      "fzfg": false,
      "metar_trigger": false,
      "taf_trigger": false,
      "metar": "METAR LQTZ 131230Z 11012KT CAVOK 22/07 Q1010",
      "taf": "TAF LQTZ 131100Z 1312/1412 17006KT CAVOK TX23/1313Z TN08/1404Z"
    },
    {
      "icao": "LRBC",
      "alert": "OK",
      "vis_m": 9999,
      "fzfg": false,
      "metar_trigger": false,
      "taf_trigger": false,
      "metar": "METAR LRBC 131230Z 12008KT 9999 BKN059 13/M01 Q1022",
      "taf": "TAF LRBC 131100Z 1312/1321 15010KT CAVOK"
    },
    {
      "icao": "LRBS",
      "alert": "OK",
      "vis_m": 9999,
      "fzfg": false,
      "metar_trigger": false,
      "taf_trigger": false,
      "metar": "METAR LRBS 131230Z 09008KT 050V140 CAVOK 17/04 Q1020 NOSIG",
      "taf": "TAF LRBS 131100Z 1312/1412 08012KT CAVOK"
    },
    {
      "icao": "LRBV",
      "alert": "OK",
      "vis_m": 9999,
      "fzfg": false,
      "metar_trigger": false,
      "taf_trigger": false,
      "metar": "METAR LRBV 131230Z 06009KT 030V110 9999 FEW063 15/01 Q1018",
      "taf": "TAF LRBV 131100Z 1312/1321 09010KT CAVOK"
    },
    {
      "icao": "LRCL",
      "alert": "OK",
      "vis_m": 9999,
      "fzfg": false,
      "metar_trigger": false,
      "taf_trigger": false,
      "metar": "METAR LRCL 131230Z 11008KT CAVOK 13/00 Q1018",
      "taf": "TAF LRCL 131100Z 1312/1321 12008KT CAVOK"
    },
    {
      "icao": "LRCV",
      "alert": "OK",
      "vis_m": 9999,
      "fzfg": false,
      "metar_trigger": false,
      "taf_trigger": false,
      "metar": "METAR LRCV 131230Z 10012KT CAVOK 16/05 Q1019",
      "taf": "TAF LRCV 131100Z 1312/1321 10012KT CAVOK"
    },
    {
      "icao": "LRIA",
      "alert": "OK",
      "vis_m": 9999,
      "fzfg": false,
      "metar_trigger": false,
      "taf_trigger": false,
      "metar": "METAR LRIA 131230Z VRB02KT CAVOK 14/M02 Q1023",
      "taf": "TAF LRIA 131100Z 1312/1321 11006KT CAVOK"
    },
    {
      "icao": "LROP",
      "alert": "OK",
      "vis_m": 9999,
      "fzfg": false,
      "metar_trigger": false,
      "taf_trigger": false,
      "metar": "METAR LROP 131230Z 10009KT 060V120 CAVOK 17/M03 Q1020 NOSIG",
      "taf": "TAF LROP 131100Z 1312/1412 08012KT CAVOK"
    },
    {
      "icao": "LRSB",
      "alert": "OK",
      "vis_m": 9999,
      "fzfg": false,
      "metar_trigger": false,
      "taf_trigger": false,
      "metar": "METAR LRSB 131230Z 10013KT 9999 SCT080 16/01 Q1017",
      "taf": "TAF LRSB 131100Z 1312/1412 12014KT CAVOK"
    },
    {
      "icao": "LRSM",
      "alert": "OK",
      "vis_m": 9999,
      "fzfg": false,
      "metar_trigger": false,
      "taf_trigger": false,
      "metar": "METAR LRSM 131230Z 13008KT 090V160 CAVOK 16/M03 Q1018",
      "taf": "TAF LRSM 131100Z 1312/1321 13006KT CAVOK"
    },
    {
      "icao": "LRSV",
      "alert": "OK",
      "vis_m": 9999,
      "fzfg": false,
      "metar_trigger": false,
      "taf_trigger": false,
      "metar": "METAR LRSV 131230Z 08006KT 020V130 9999 FEW038 12/M00 Q1022",
      "taf": "TAF LRSV 131100Z 1312/1321 08006KT CAVOK"
    },
    {
      "icao": "LRTM",
      "alert": "OK",
      "vis_m": 9999,
      "fzfg": false,
      "metar_trigger": false,
      "taf_trigger": false,
      "metar": "METAR LRTM 131230Z 07005KT 030V120 9999 FEW037 15/00 Q1018",
      "taf": "TAF LRTM 131100Z 1312/1321 10008KT CAVOK"
    },
    {
      "icao": "LRTR",
      "alert": "OK",
      "vis_m": 9999,
      "fzfg": false,
      "metar_trigger": false,
      "taf_trigger": false,
      "metar": "METAR LRTR 131230Z 08012KT CAVOK 18/03 Q1015",
      "taf": "TAF LRTR 131100Z 1312/1412 10010KT CAVOK"
    },
    {
      "icao": "LTAC",
      "alert": "OK",
      "vis_m": 9999,
      "fzfg": false,
      "metar_trigger": false,
      "taf_trigger": false,
      "metar": "METAR LTAC 131220Z 23006KT 170V310 9999 FEW040 SCT180 11/M05 Q1019 NOSIG RMK RWY21C VRB06KT RWY03L 21006G17KT 140V250 RWY21R 22007KT 170V250 RWY03R VRB06KT RWY21L 22007KT 170V260",
      "taf": "TAF LTAC 131040Z 1312/1412 VRB02KT 9999 FEW040 SCT200"
    },
    {
      "icao": "LTFM",
      "alert": "OK",
      "vis_m": 9999,
      "fzfg": false,
      "metar_trigger": false,
      "taf_trigger": false,
      "metar": "METAR LTFM 131220Z 07014KT 030V090 CAVOK 11/04 Q1022 NOSIG RMK RWY17L 08016KT RWY34L 07013KT RWY16R 07015KT RWY36 08014KT RWY18 09014KT",
      "taf": "TAF LTFM 131040Z 1312/1418 07014KT CAVOK"
    },
    {
      "icao": "LUKK",
      "alert": "OK",
      "vis_m": 9999,
      "fzfg": false,
      "metar_trigger": false,
      "taf_trigger": false,
      "metar": "METAR LUKK 131230Z 11004KT 070V190 9999 FEW018 11/02 Q1023 TEMPO SCT045CB",
      "taf": "TAF LUKK 131119Z 1312/1412 VRB05KT CAVOK"
    },
    {
      "icao": "LWOH",
      "alert": "OK",
      "vis_m": 9999,
      "fzfg": false,
      "metar_trigger": false,
      "taf_trigger": false,
      "metar": "METAR LWOH 131150Z 17009KT 120V210 9999 FEW033 17/10 Q1016",
      "taf": "TAF LWOH 131140Z 1312/1412 18010KT 9999 SCT040"
    },
    {
      "icao": "LWSK",
      "alert": "OK",
      "vis_m": null,
      "fzfg": false,
      "metar_trigger": false,
      "taf_trigger": false,
      "metar": "",
      "taf": ""
    },
    {
      "icao": "LYBE",
      "alert": "OK",
      "vis_m": 9999,
      "fzfg": false,
      "metar_trigger": false,
      "taf_trigger": false,
      "metar": "METAR LYBE 131230Z 10015KT CAVOK 19/06 Q1013 NOSIG",
      "taf": "TAF LYBE 131100Z 1312/1412 11018KT CAVOK TX20/1313Z TN08/1404Z"
    },
    {
      "icao": "LYNI",
      "alert": "OK",
      "vis_m": 9999,
      "fzfg": false,
      "metar_trigger": false,
      "taf_trigger": false,
      "metar": "METAR LYNI 131230Z VRB02KT CAVOK 21/09 Q1014 NOSIG",
      "taf": "TAF LYNI 131100Z 1312/1412 11007KT CAVOK TX22/1313Z TN08/1404Z"
    },
    {
      "icao": "LYPG",
      "alert": "OK",
      "vis_m": 9999,
      "fzfg": false,
      "metar_trigger": false,
      "taf_trigger": false,
      "metar": "METAR LYPG 131230Z 29003KT 220V350 CAVOK 24/06 Q1010 NOSIG",
      "taf": "TAF LYPG 131100Z 1312/1412 16005KT CAVOK TX22/1313Z TN10/1404Z"
    },
    {
      "icao": "LZIB",
      "alert": "OK",
      "vis_m": 9999,
      "fzfg": false,
      "metar_trigger": false,
      "taf_trigger": false,
      "metar": "METAR LZIB 131230Z 11014KT CAVOK 16/M01 Q1014 NOSIG",
      "taf": "TAF LZIB 131115Z 1312/1412 12011KT CAVOK"
    },
    {
      "icao": "LZKZ",
      "alert": "OK",
      "vis_m": 9999,
      "fzfg": false,
      "metar_trigger": false,
      "taf_trigger": false,
      "metar": "METAR LZKZ 131230Z 08009KT 050V110 CAVOK 14/M03 Q1018 NOSIG",
      "taf": "TAF LZKZ 131115Z 1312/1412 08007KT CAVOK"
    },
    {
      "icao": "LZTT",
      "alert": "OK",
      "vis_m": 9999,
      "fzfg": false,
      "metar_trigger": false,
      "taf_trigger": false,
      "metar": "METAR LZTT 131230Z VRB05KT 9999 SCT063 12/M04 Q1017 NOSIG",
      "taf": "TAF LZTT 131115Z 1312/1412 10007KT 9999 SCT055"
    },
    {
      "icao": "OEJN",
      "alert": "OK",
      "vis_m": 9999,
      "fzfg": false,
      "metar_trigger": false,
      "taf_trigger": false,
      "metar": "METAR OEJN 131200Z 30017KT CAVOK 29/16 Q1010 NOSIG",
      "taf": "TAF OEJN 131100Z 1312/1418 30012KT 9999 FEW040"
    },
    {
      "icao": "OEMA",
      "alert": "OK",
      "vis_m": 9999,
      "fzfg": false,
      "metar_trigger": false,
      "taf_trigger": false,
      "metar": "METAR OEMA 131200Z 22007KT CAVOK 33/M11 Q1014 NOSIG",
      "taf": "TAF OEMA 131100Z 1312/1418 30010KT CAVOK"
    },
    {
      "icao": "OJAI",
      "alert": "OK",
      "vis_m": 5000,
      "fzfg": false,
      "metar_trigger": false,
      "taf_trigger": false,
      "metar": "METAR OJAI 131200Z 27007KT 5000 HZ NSC 19/06 Q1019 NOSIG",
      "taf": "TAF OJAI 131100Z 1312/1418 30010KT 5000 HZ SCT035"
    },
    {
      "icao": "OMAA",
      "alert": "OK",
      "vis_m": null,
      "fzfg": false,
      "metar_trigger": false,
      "taf_trigger": false,
      "metar": "",
      "taf": ""
    },
    {
      "icao": "OMDB",
      "alert": "OK",
      "vis_m": null,
      "fzfg": false,
      "metar_trigger": false,
      "taf_trigger": false,
      "metar": "",
      "taf": ""
    },
    {
      "icao": "UAAA",
      "alert": "OK",
      "vis_m": 9999,
      "fzfg": false,
      "metar_trigger": false,
      "taf_trigger": false,
      "metar": "METAR UAAA 131230Z 26003MPS 9999 SCT050CB BKN100 19/04 Q1016 NOSIG",
      "taf": "TAF UAAA 131104Z 1312/1412 19002G07MPS 9999 FEW050CB SCT100 TX22/1409Z TN07/1401Z"
    },
    {
      "icao": "UBBB",
      "alert": "OK",
      "vis_m": 9999,
      "fzfg": false,
      "metar_trigger": false,
      "taf_trigger": false,
      "metar": "METAR UBBB 131230Z 35010KT 9999 BKN035 12/08 Q1013 NOSIG",
      "taf": "TAF UBBB 131051Z 1312/1412 36010KT 9999 SCT012 BKN020 TX12/1312Z TN08/1401Z"
    },
    {
      "icao": "UDSG",
      "alert": "OK",
      "vis_m": 9999,
      "fzfg": false,
      "metar_trigger": false,
      "taf_trigger": false,
      "metar": "METAR UDSG 131230Z 36013KT 9999 SCT036CB BKN046 04/M04 Q1014 NOSIG",
      "taf": "TAF UDSG 131058Z 1312/1412 36010KT 9999 BKN050"
    },
    {
      "icao": "UDYZ",
      "alert": "OK",
      "vis_m": 9999,
      "fzfg": false,
      "metar_trigger": false,
      "taf_trigger": false,
      "metar": "METAR UDYZ 131230Z 29008KT 9999 BKN043CB 10/03 Q1012 NOSIG",
      "taf": "TAF UDYZ 131100Z 1312/1412 12006KT 9999 BKN030"
    },
    {
      "icao": "UGKO",
      "alert": "OK",
      "vis_m": 9999,
      "fzfg": false,
      "metar_trigger": false,
      "taf_trigger": false,
      "metar": "METAR UGKO 131230Z 27008KT 240V310 9999 -SHRA BKN022CB OVC034 08/06 Q1019 NOSIG",
      "taf": "TAF UGKO 131100Z 1312/1412 25007KT 9999 SCT023 OVC045 TX13/1411Z TN05/1403Z"
    }
  ]
}