{
  "ts_utc": "2026-02-11T21:01:29Z",
  "threshold_m": 150,
  "source": "stations_override.txt (ICAO list) + aviationweather.gov (METAR/TAF raw)",
  "station_count": 159,
  "stations": [
    {
      "icao": "BIKF",
      "alert": "OK",
      "vis_m": 9999,
      "fzfg": false,
      "metar_trigger": false,
      "taf_trigger": false,
      "metar": "METAR BIKF 112030Z 05004KT CAVOK M04/M09 Q1007",
      "taf": "TAF BIKF 111957Z 1121/1221 06008KT CAVOK TXM02/1218Z TNM08/1208Z"
    },
    {
      "icao": "BKPR",
      "alert": "OK",
      "vis_m": 9999,
      "fzfg": false,
      "metar_trigger": false,
      "taf_trigger": false,
      "metar": "METAR BKPR 112100Z 16006KT 9999 SCT015 BKN020 07/05 Q0999 NOSIG",
      "taf": "TAF BKPR 111730Z 1118/1218 16010KT 9999 SCT030 BKN080"
    },
    {
      "icao": "EBCI",
      "alert": "OK",
      "vis_m": 9999,
      "fzfg": false,
      "metar_trigger": false,
      "taf_trigger": false,
      "metar": "METAR EBCI 112050Z 18009KT 150V210 9999 -RA FEW008 SCT012 BKN030 09/07 Q0981 TEMPO 2800 RADZ BKN008",
      "taf": "TAF EBCI 111715Z 1118/1224 21010KT 9999 SCT012 BKN016"
    },
    {
      "icao": "EDDB",
      "alert": "OK",
      "vis_m": 3700,
      "fzfg": false,
      "metar_trigger": false,
      "taf_trigger": false,
      "metar": "METAR EDDB 112050Z AUTO 14003KT 090V230 3700 BR OVC002 04/04 Q0984 NOSIG",
      "taf": "TAF EDDB 111700Z 1118/1218 14005KT 9999 BKN020"
    },
    {
      "icao": "EDDH",
      "alert": "OK",
      "vis_m": 5000,
      "fzfg": false,
      "metar_trigger": false,
      "taf_trigger": false,
      "metar": "METAR EDDH 112050Z AUTO 07008KT 5000 BR OVC003 01/01 Q0983 REDZ TEMPO 3000",
      "taf": "TAF EDDH 111700Z 1118/1224 08007KT 3500 BR OVC003"
    },
    {
      "icao": "EDDK",
      "alert": "OK",
      "vis_m": 9999,
      "fzfg": false,
      "metar_trigger": false,
      "taf_trigger": false,
      "metar": "METAR EDDK 112050Z AUTO 15007KT CAVOK 09/07 Q0984 NOSIG",
      "taf": "TAF EDDK 111700Z 1118/1224 21007KT 9999 BKN020"
    },
    {
      "icao": "EDDN",
      "alert": "OK",
      "vis_m": 9999,
      "fzfg": false,
      "metar_trigger": false,
      "taf_trigger": false,
      "metar": "METAR EDDN 112050Z AUTO 24010KT 9999 -SHRA BKN020 BKN033 BKN046 FEW///TCU 09/06 Q0988 BECMG 17007KT",
      "taf": "TAF EDDN 111700Z 1118/1218 22007KT 9999 SCT020 BKN040"
    },
    {
      "icao": "EDDS",
      "alert": "OK",
      "vis_m": 9999,
      "fzfg": false,
      "metar_trigger": false,
      "taf_trigger": false,
      "metar": "METAR EDDS 112050Z AUTO 21007KT 180V270 CAVOK 08/05 Q0988 NOSIG",
      "taf": "TAF EDDS 111700Z 1118/1218 19006KT 9999 BKN030"
    },
    {
      "icao": "EDFH",
      "alert": "OK",
      "vis_m": 9999,
      "fzfg": false,
      "metar_trigger": false,
      "taf_trigger": false,
      "metar": "METAR EDFH 112050Z 22011KT 190V250 9999 SCT014 07/06 Q0985",
      "taf": "TAF EDFH 111700Z 1118/1218 19013KT 9999 BKN006"
    },
    {
      "icao": "EDJA",
      "alert": "OK",
      "vis_m": 9999,
      "fzfg": false,
      "metar_trigger": false,
      "taf_trigger": false,
      "metar": "METAR EDJA 112050Z 24013G26KT CAVOK 06/03 Q0991",
      "taf": ""
    },
    {
      "icao": "EDLW",
      "alert": "OK",
      "vis_m": 9999,
      "fzfg": false,
      "metar_trigger": false,
      "taf_trigger": false,
      "metar": "METAR EDLW 112050Z 21010KT 9999 BKN031 09/07 Q0983",
      "taf": "TAF EDLW 111700Z 1118/1218 21009KT 9999 FEW010 OVC030"
    },
    {
      "icao": "EDNY",
      "alert": "OK",
      "vis_m": 9999,
      "fzfg": false,
      "metar_trigger": false,
      "taf_trigger": false,
      "metar": "METAR EDNY 112050Z 18006KT CAVOK 07/03 Q0992",
      "taf": "TAF EDNY 111700Z 1118/1203 24010KT 9999 SCT040"
    },
    {
      "icao": "EDSB",
      "alert": "OK",
      "vis_m": 9999,
      "fzfg": false,
      "metar_trigger": false,
      "taf_trigger": false,
      "metar": "METAR EDSB 112050Z 19016KT CAVOK 10/07 Q0988",
      "taf": "TAF EDSB 111700Z 1118/1218 20014KT 9999 BKN030"
    },
    {
      "icao": "EETN",
      "alert": "OK",
      "vis_m": 9999,
      "fzfg": false,
      "metar_trigger": false,
      "taf_trigger": false,
      "metar": "METAR EETN 112050Z 17007KT 9999 -SN FEW045 M07/M09 Q0993 TEMPO 5000 SN",
      "taf": "TAF EETN 111730Z 1118/1218 16008KT 9999 BKN040"
    },
    {
      "icao": "EFTU",
      "alert": "OK",
      "vis_m": 9999,
      "fzfg": false,
      "metar_trigger": false,
      "taf_trigger": false,
      "metar": "METAR EFTU 112050Z AUTO 06007KT 030V090 9999 -SN BKN014 M07/M08 Q0992",
      "taf": "TAF EFTU 112035Z 1121/1221 06006KT 9999 -SN BKN016"
    },
    {
      "icao": "EGBB",
      "alert": "OK",
      "vis_m": 9999,
      "fzfg": false,
      "metar_trigger": false,
      "taf_trigger": false,
      "metar": "METAR EGBB 112050Z 19004KT 9999 BKN044 05/05 Q0976",
      "taf": "TAF EGBB 111700Z 1118/1218 19004KT 9999 SCT035"
    },
    {
      "icao": "EGGP",
      "alert": "OK",
      "vis_m": 5000,
      "fzfg": false,
      "metar_trigger": false,
      "taf_trigger": false,
      "metar": "METAR EGGP 112050Z 19001KT 5000 1200N R27/P2000 HZ SCT007 BKN020 BKN042 08/07 Q0976",
      "taf": ""
    },
    {
      "icao": "EGGW",
      "alert": "OK",
      "vis_m": 9999,
      "fzfg": false,
      "metar_trigger": false,
      "taf_trigger": false,
      "metar": "METAR EGGW 112050Z AUTO 20006KT 9999 FEW006 08/07 Q0976",
      "taf": ""
    },
    {
      "icao": "EGKK",
      "alert": "OK",
      "vis_m": 9999,
      "fzfg": false,
      "metar_trigger": false,
      "taf_trigger": false,
      "metar": "METAR EGKK 112050Z 11002KT 9999 SCT010 09/08 Q0976",
      "taf": "TAF EGKK 111658Z 1118/1224 18010KT 9999 SCT012 BKN020"
    },
    {
      "icao": "EGNM",
      "alert": "OK",
      "vis_m": 9000,
      "fzfg": false,
      "metar_trigger": false,
      "taf_trigger": false,
      "metar": "METAR EGNM 112050Z 36005KT 9000 -RA FEW004 SCT011 05/05 Q0976",
      "taf": "TAF EGNM 111702Z 1118/1218 02008KT 9999 SCT005"
    },
    {
      "icao": "EGPD",
      "alert": "OK",
      "vis_m": 9999,
      "fzfg": false,
      "metar_trigger": false,
      "taf_trigger": false,
      "metar": "METAR EGPD 112050Z AUTO 10013KT 9999 SCT016 BKN021 OVC039 03/00 Q0987 TEMPO BKN012",
      "taf": "TAF EGPD 111655Z 1118/1218 09012KT 9999 SCT012 BKN025"
    },
    {
      "icao": "EGPF",
      "alert": "OK",
      "vis_m": 9999,
      "fzfg": false,
      "metar_trigger": false,
      "taf_trigger": false,
      "metar": "METAR EGPF 112050Z AUTO 06017KT 9999 -RA BKN010 OVC014 04/03 Q0982",
      "taf": "TAF EGPF 111701Z 1118/1218 07009KT 9999 BKN016"
    },
    {
      "icao": "EHBK",
      "alert": "OK",
      "vis_m": 9999,
      "fzfg": false,
      "metar_trigger": false,
      "taf_trigger": false,
      "metar": "METAR EHBK 112055Z AUTO 19010KT 9999 FEW038 SCT044 09/07 Q0982 NOSIG",
      "taf": "TAF EHBK 111715Z 1118/1224 24007KT 9999 SCT025"
    },
    {
      "icao": "EHEH",
      "alert": "OK",
      "vis_m": 9999,
      "fzfg": false,
      "metar_trigger": false,
      "taf_trigger": false,
      "metar": "METAR EHEH 112025Z AUTO 18007KT 9999 BKN062 OVC170 08/07 Q0982 BLU NOSIG RMK TREND REMOTE BY EHWX",
      "taf": "TAF EHEH 111740Z 1118/1224 24012KT 8000 SCT030"
    },
    {
      "icao": "EKBI",
      "alert": "OK",
      "vis_m": 7000,
      "fzfg": false,
      "metar_trigger": false,
      "taf_trigger": false,
      "metar": "METAR EKBI 112050Z AUTO 08011KT 7000 OVC005/// M00/M01 Q0987",
      "taf": "TAF EKBI 112027Z 1121/1221 07011KT 9000 BKN009"
    },
    {
      "icao": "EKCH",
      "alert": "OK",
      "vis_m": 9999,
      "fzfg": false,
      "metar_trigger": false,
      "taf_trigger": false,
      "metar": "METAR EKCH 112050Z 06011KT 9999 OVC009 M00/M02 Q0988 TEMPO BKN015",
      "taf": "TAF EKCH 112027Z 1121/1221 05012KT 8000 BKN015"
    },
    {
      "icao": "ENAL",
      "alert": "OK",
      "vis_m": 9999,
      "fzfg": false,
      "metar_trigger": false,
      "taf_trigger": false,
      "metar": "METAR ENAL 112050Z 15009KT CAVOK M02/M07 Q0992",
      "taf": "TAF ENAL 112000Z 1121/1206 15008KT CAVOK"
    },
    {
      "icao": "ENBR",
      "alert": "OK",
      "vis_m": 9999,
      "fzfg": false,
      "metar_trigger": false,
      "taf_trigger": false,
      "metar": "METAR ENBR 112050Z 09002KT 9999 SCT023 OVC042 M02/M05 Q0991 RMK WIND 1200FT 17004KT",
      "taf": "TAF ENBR 111700Z 1118/1218 VRB03KT 9999 BKN035"
    },
    {
      "icao": "ENGM",
      "alert": "OK",
      "vis_m": 9999,
      "fzfg": false,
      "metar_trigger": false,
      "taf_trigger": false,
      "metar": "METAR ENGM 112050Z 07003KT 9999 -SN BKN036 M06/M10 Q0994 NOSIG",
      "taf": "TAF ENGM 111700Z 1118/1218 01008KT 9999 BKN025"
    },
    {
      "icao": "ENHD",
      "alert": "OK",
      "vis_m": 9999,
      "fzfg": false,
      "metar_trigger": false,
      "taf_trigger": false,
      "metar": "METAR ENHD 112050Z 10009KT CAVOK M02/M07 Q0991",
      "taf": "TAF ENHD 111400Z 1115/1123 09005KT CAVOK"
    },
    {
      "icao": "ENTC",
      "alert": "OK",
      "vis_m": 9999,
      "fzfg": false,
      "metar_trigger": false,
      "taf_trigger": false,
      "metar": "METAR ENTC 112050Z 00000KT CAVOK M13/M15 Q0997 NOSIG RMK WIND 2600FT 13006KT",
      "taf": "TAF ENTC 111700Z 1118/1218 VRB03KT CAVOK"
    },
    {
      "icao": "ENTO",
      "alert": "OK",
      "vis_m": 9999,
      "fzfg": false,
      "metar_trigger": false,
      "taf_trigger": false,
      "metar": "METAR ENTO 112050Z 03006KT 9999 -SN OVC015 M04/M07 Q0994 TEMPO BKN012",
      "taf": "TAF ENTO 111700Z 1118/1218 02008KT 9999 FEW015 BKN030"
    },
    {
      "icao": "ENVA",
      "alert": "OK",
      "vis_m": 9999,
      "fzfg": false,
      "metar_trigger": false,
      "taf_trigger": false,
      "metar": "METAR ENVA 112050Z 10010KT CAVOK M10/M14 Q0995 RMK WIND 670FT 10011KT",
      "taf": "TAF ENVA 111700Z 1118/1218 10005KT CAVOK"
    },
    {
      "icao": "ENZV",
      "alert": "OK",
      "vis_m": 9999,
      "fzfg": false,
      "metar_trigger": false,
      "taf_trigger": false,
      "metar": "METAR ENZV 112050Z 08005KT CAVOK M01/M08 Q0992",
      "taf": "TAF ENZV 111700Z 1118/1218 10005KT 9999 BKN040"
    },
    {
      "icao": "EPGD",
      "alert": "OK",
      "vis_m": 1100,
      "fzfg": false,
      "metar_trigger": false,
      "taf_trigger": false,
      "metar": "METAR EPGD 112030Z VRB01KT 1100 0550W R29/P2000N PRFG BR SCT000 BKN008 M00/M00 Q0986",
      "taf": "TAF EPGD 111730Z 1118/1218 VRB02KT 2000 BR OVC005"
    },
    {
      "icao": "EPKK",
      "alert": "OK",
      "vis_m": 6000,
      "fzfg": false,
      "metar_trigger": false,
      "taf_trigger": false,
      "metar": "METAR EPKK 112030Z VRB02KT 6000 OVC025 03/02 Q0988",
      "taf": "TAF EPKK 112030Z 1121/1221 24006KT 7000 BKN025"
    },
    {
      "icao": "EPKT",
      "alert": "OK",
      "vis_m": 8000,
      "fzfg": false,
      "metar_trigger": false,
      "taf_trigger": false,
      "metar": "METAR EPKT 112030Z 20007KT 8000 -RA SCT007 OVC029 04/03 Q0987",
      "taf": ""
    },
    {
      "icao": "EPLB",
      "alert": "OK",
      "vis_m": 9999,
      "fzfg": false,
      "metar_trigger": false,
      "taf_trigger": false,
      "metar": "METAR EPLB 112030Z 22010KT CAVOK 03/01 Q0989",
      "taf": "TAF EPLB 111730Z 1118/1218 18008KT CAVOK"
    },
    {
      "icao": "EPMO",
      "alert": "OK",
      "vis_m": 9999,
      "fzfg": false,
      "metar_trigger": false,
      "taf_trigger": false,
      "metar": "METAR EPMO 112030Z 16005KT CAVOK 03/01 Q0987",
      "taf": "TAF EPMO 111730Z 1118/1218 15006KT CAVOK"
    },
    {
      "icao": "EPPO",
      "alert": "OK",
      "vis_m": 9999,
      "fzfg": false,
      "metar_trigger": false,
      "taf_trigger": false,
      "metar": "METAR EPPO 112030Z 12003KT 9999 -RA SCT025 BKN044 03/01 Q0985",
      "taf": "TAF EPPO 111730Z 1118/1218 12005KT 9999 SCT035"
    },
    {
      "icao": "EPRA",
      "alert": "OK",
      "vis_m": 9999,
      "fzfg": false,
      "metar_trigger": false,
      "taf_trigger": false,
      "metar": "METAR EPRA 112030Z 17008KT 9999 FEW028 02/M00 Q0988",
      "taf": "TAF EPRA 112030Z 1121/1206 17008KT 9999 BKN040"
    },
    {
      "icao": "EPRZ",
      "alert": "OK",
      "vis_m": 9999,
      "fzfg": false,
      "metar_trigger": false,
      "taf_trigger": false,
      "metar": "METAR EPRZ 112030Z 20011KT CAVOK 04/01 Q0990",
      "taf": "TAF EPRZ 111730Z 1118/1218 19012KT 9999 BKN040"
    },
    {
      "icao": "EPSC",
      "alert": "OK",
      "vis_m": 1200,
      "fzfg": false,
      "metar_trigger": false,
      "taf_trigger": false,
      "metar": "METAR EPSC 112030Z VRB02KT 1200 R31/P2000N BR OVC002 02/02 Q0985",
      "taf": "TAF EPSC 111730Z 1118/1218 VRB02KT 2500 BR OVC005"
    },
    {
      "icao": "EPSY",
      "alert": "OK",
      "vis_m": 5000,
      "fzfg": false,
      "metar_trigger": false,
      "taf_trigger": false,
      "metar": "METAR EPSY 112030Z VRB01KT 5000 BR OVC029 01/00 Q0987",
      "taf": "TAF EPSY 112030Z 1121/1206 VRB02KT 6000 BKN030"
    },
    {
      "icao": "EPWA",
      "alert": "OK",
      "vis_m": 9999,
      "fzfg": false,
      "metar_trigger": false,
      "taf_trigger": false,
      "metar": "METAR EPWA 112030Z 16007KT CAVOK 03/00 Q0987 NOSIG",
      "taf": "TAF EPWA 112030Z 1121/1221 16008KT CAVOK"
    },
    {
      "icao": "EPWR",
      "alert": "OK",
      "vis_m": 9999,
      "fzfg": false,
      "metar_trigger": false,
      "taf_trigger": false,
      "metar": "METAR EPWR 112030Z 15004KT 140V210 9999 -RA FEW021 BKN027 03/03 Q0986",
      "taf": "TAF EPWR 112030Z 1121/1221 14005KT 9999 BKN027"
    },
    {
      "icao": "ESGG",
      "alert": "OK",
      "vis_m": 9999,
      "fzfg": false,
      "metar_trigger": false,
      "taf_trigger": false,
      "metar": "METAR ESGG 112050Z 04007KT 9999 BKN040 M03/M05 Q0990",
      "taf": "TAF ESGG 112030Z 1121/1221 04007KT 9999 BKN040"
    },
    {
      "icao": "ESKN",
      "alert": "OK",
      "vis_m": 9999,
      "fzfg": false,
      "metar_trigger": false,
      "taf_trigger": false,
      "metar": "METAR ESKN 112050Z 01006KT 340V060 9999 BKN008 M05/M07 Q0993",
      "taf": "TAF ESKN 112030Z 1121/1221 01005KT 9999 BKN007"
    },
    {
      "icao": "ESMS",
      "alert": "OK",
      "vis_m": 9999,
      "fzfg": false,
      "metar_trigger": false,
      "taf_trigger": false,
      "metar": "METAR ESMS 112050Z 05012KT 9999 OVC008 M01/M02 Q0987",
      "taf": "TAF ESMS 112027Z 1121/1221 06012KT 6000 OVC012"
    },
    {
      "icao": "ESSA",
      "alert": "OK",
      "vis_m": 9999,
      "fzfg": false,
      "metar_trigger": false,
      "taf_trigger": false,
      "metar": "METAR ESSA 112050Z 34006KT 9999 -SN BKN016 M07/M09 Q0993 TEMPO OVC012",
      "taf": "TAF ESSA 112030Z 1121/1221 35007KT 9999 -SN OVC009"
    },
    {
      "icao": "EYKA",
      "alert": "OK",
      "vis_m": 2500,
      "fzfg": false,
      "metar_trigger": false,
      "taf_trigger": false,
      "metar": "METAR EYKA 112050Z 15004KT 120V180 2500 -SN BR FEW004 SCT008 OVC019 M00/M00 Q0988",
      "taf": ""
    },
    {
      "icao": "EYPA",
      "alert": "OK",
      "vis_m": 7000,
      "fzfg": false,
      "metar_trigger": false,
      "taf_trigger": false,
      "metar": "METAR EYPA 112050Z 09006KT 7000 OVC022 M05/M07 Q0989",
      "taf": "TAF EYPA 111700Z 1118/1218 VRB05KT 5000 BR BKN015"
    },
    {
      "icao": "EYVI",
      "alert": "OK",
      "vis_m": 3900,
      "fzfg": false,
      "metar_trigger": false,
      "taf_trigger": false,
      "metar": "METAR EYVI 112050Z 17011KT 3900 SN BR SCT004 OVC019 M01/M02 Q0989 BECMG 5000 SN BR",
      "taf": "TAF EYVI 111705Z 1118/1218 17008KT 5000 SN BR SCT010 OVC015"
    },
    {
      "icao": "GCFV",
      "alert": "OK",
      "vis_m": 9999,
      "fzfg": false,
      "metar_trigger": false,
      "taf_trigger": false,
      "metar": "METAR GCFV 112030Z 02012KT 9999 BKN011 19/16 Q1025",
      "taf": "TAF GCFV 112000Z 1121/1221 04013KT 9999 BKN016 TX22/1214Z TN17/1206Z"
    },
    {
      "icao": "GCLP",
      "alert": "OK",
      "vis_m": 9999,
      "fzfg": false,
      "metar_trigger": false,
      "taf_trigger": false,
      "metar": "METAR GCLP 112030Z 01014KT 9999 FEW015 BKN020 19/16 Q1025 NOSIG",
      "taf": "TAF GCLP 112000Z 1121/1221 36015KT 9999 SCT015 TX23/1214Z TN17/1206Z"
    },
    {
      "icao": "GCTS",
      "alert": "OK",
      "vis_m": 9999,
      "fzfg": false,
      "metar_trigger": false,
      "taf_trigger": false,
      "metar": "METAR GCTS 112030Z 08012KT 9999 FEW030 18/15 Q1024 NOSIG",
      "taf": "TAF GCTS 112000Z 1121/1221 08015KT 9999 FEW020 TX25/1214Z TN17/1206Z"
    },
    {
      "icao": "GMAD",
      "alert": "OK",
      "vis_m": 1500,
      "fzfg": false,
      "metar_trigger": false,
      "taf_trigger": false,
      "metar": "METAR GMAD 112030Z 17005KT 1500 R27/1700N -DZ OVC002 15/15 Q1024 NOSIG",
      "taf": ""
    },
    {
      "icao": "GMMN",
      "alert": "OK",
      "vis_m": 4000,
      "fzfg": false,
      "metar_trigger": false,
      "taf_trigger": false,
      "metar": "SPECI GMMN 112036Z VRB02KT 4000 BR SCT003 14/13 Q1026 NOSIG",
      "taf": "TAF GMMN 111700Z 1118/1224 32006KT 8000 SCT008"
    },
    {
      "icao": "GMMX",
      "alert": "OK",
      "vis_m": 9999,
      "fzfg": false,
      "metar_trigger": false,
      "taf_trigger": false,
      "metar": "METAR GMMX 112030Z 36003KT 320V030 CAVOK 20/16 Q1025 NOSIG",
      "taf": "TAF GMMX 111700Z 1118/1224 28006KT CAVOK"
    },
    {
      "icao": "HEGN",
      "alert": "OK",
      "vis_m": 9999,
      "fzfg": false,
      "metar_trigger": false,
      "taf_trigger": false,
      "metar": "METAR HEGN 112000Z 00000KT CAVOK 20/10 Q1017 NOSIG",
      "taf": "TAF HEGN 111700Z 1118/1224 32010KT CAVOK"
    },
    {
      "icao": "HEMA",
      "alert": "OK",
      "vis_m": 9999,
      "fzfg": false,
      "metar_trigger": false,
      "taf_trigger": false,
      "metar": "METAR HEMA 112000Z 24003KT CAVOK 22/16 Q1016 NOSIG",
      "taf": "TAF HEMA 111700Z 1118/1224 29010KT CAVOK"
    },
    {
      "icao": "HESH",
      "alert": "OK",
      "vis_m": 9999,
      "fzfg": false,
      "metar_trigger": false,
      "taf_trigger": false,
      "metar": "METAR HESH 112000Z 00000KT CAVOK 20/13 Q1016 NOSIG",
      "taf": "TAF HESH 111700Z 1118/1224 34010KT CAVOK"
    },
    {
      "icao": "HESX",
      "alert": "OK",
      "vis_m": 9999,
      "fzfg": false,
      "metar_trigger": false,
      "taf_trigger": false,
      "metar": "METAR HESX 112000Z 26004KT CAVOK 16/03 Q1017 NOSIG",
      "taf": "TAF HESX 111700Z 1118/1224 27010KT CAVOK"
    },
    {
      "icao": "LATI",
      "alert": "OK",
      "vis_m": 9999,
      "fzfg": false,
      "metar_trigger": false,
      "taf_trigger": false,
      "metar": "METAR LATI 112050Z VRB01KT 9999 FEW055 OVC074 11/08 Q0997 NOSIG",
      "taf": "TAF LATI 111700Z 1118/1218 VRB05KT 9999 RA SCT040 OVC060 TX16/1212Z TN08/1205Z"
    },
    {
      "icao": "LBPD",
      "alert": "OK",
      "vis_m": 9999,
      "fzfg": false,
      "metar_trigger": false,
      "taf_trigger": false,
      "metar": "METAR LBPD 112030Z AUTO 30004KT 270V330 9999 OVC009/// 02/02 Q1004",
      "taf": "TAF LBPD 111700Z 1118/1218 VRB04KT 9999 BKN010"
    },
    {
      "icao": "LBSF",
      "alert": "OK",
      "vis_m": 9999,
      "fzfg": false,
      "metar_trigger": false,
      "taf_trigger": false,
      "metar": "METAR LBSF 112030Z AUTO 08007KT 9999 FEW011/// M00/M01 Q1001 NOSIG",
      "taf": "TAF LBSF 111700Z 1118/1218 11012KT 9999 SCT030 BKN050"
    },
    {
      "icao": "LBWN",
      "alert": "OK",
      "vis_m": 9999,
      "fzfg": false,
      "metar_trigger": false,
      "taf_trigger": false,
      "metar": "METAR LBWN 112030Z AUTO 13003KT 100V190 9999 FEW028/// 02/02 Q1003 NOSIG",
      "taf": ""
    },
    {
      "icao": "LCLK",
      "alert": "OK",
      "vis_m": 9999,
      "fzfg": false,
      "metar_trigger": false,
      "taf_trigger": false,
      "metar": "METAR LCLK 112030Z 22012KT CAVOK 13/11 Q1012 NOSIG",
      "taf": "TAF LCLK 111730Z 1118/1218 24009KT 9999 FEW030"
    },
    {
      "icao": "LCPH",
      "alert": "OK",
      "vis_m": 9999,
      "fzfg": false,
      "metar_trigger": false,
      "taf_trigger": false,
      "metar": "METAR LCPH 112030Z 25007KT 230V290 9999 BKN022 SCT033 16/12 Q1012 NOSIG",
      "taf": "TAF LCPH 111730Z 1118/1218 28015KT 9999 FEW025 SCT035"
    },
    {
      "icao": "LEAL",
      "alert": "OK",
      "vis_m": 9999,
      "fzfg": false,
      "metar_trigger": false,
      "taf_trigger": false,
      "metar": "METAR LEAL 112030Z 25019G30KT 210V270 CAVOK 22/10 Q1008 NOSIG",
      "taf": "TAF LEAL 111700Z 1118/1218 27015KT 9999 FEW030 TX23/1213Z TN12/1206Z"
    },
    {
      "icao": "LEBB",
      "alert": "OK",
      "vis_m": 9999,
      "fzfg": false,
      "metar_trigger": false,
      "taf_trigger": false,
      "metar": "METAR LEBB 112030Z VRB05KT CAVOK 16/11 Q0998 NOSIG",
      "taf": "TAF LEBB 111700Z 1118/1218 22009KT 9999 FEW035 BKN050 TX19/1118Z TN09/1208Z"
    },
    {
      "icao": "LEBL",
      "alert": "OK",
      "vis_m": 9999,
      "fzfg": false,
      "metar_trigger": false,
      "taf_trigger": false,
      "metar": "METAR LEBL 112030Z 33011KT 260V360 9999 SCT034 14/13 Q1000 NOSIG",
      "taf": ""
    },
    {
      "icao": "LECH",
      "alert": "OK",
      "vis_m": 9000,
      "fzfg": false,
      "metar_trigger": false,
      "taf_trigger": false,
      "metar": "METAR LECH 112030Z AUTO 27016KT 230V320 9000 NCD 20/09 Q1002",
      "taf": ""
    },
    {
      "icao": "LEMD",
      "alert": "OK",
      "vis_m": 9999,
      "fzfg": false,
      "metar_trigger": false,
      "taf_trigger": false,
      "metar": "METAR LEMD 112030Z 24019KT 9999 -RA SCT015 BKN050 14/14 Q1009 NOSIG",
      "taf": "TAF LEMD 111700Z 1118/1224 24010KT 9999 FEW015 TX13/1215Z TN07/1207Z"
    },
    {
      "icao": "LEMG",
      "alert": "OK",
      "vis_m": 9999,
      "fzfg": false,
      "metar_trigger": false,
      "taf_trigger": false,
      "metar": "METAR LEMG 112030Z 19003KT CAVOK 16/13 Q1019 NOSIG",
      "taf": "TAF LEMG 111700Z 1118/1218 VRB03KT 9999 FEW050 TX23/1214Z TN11/1207Z"
    },
    {
      "icao": "LEVC",
      "alert": "OK",
      "vis_m": 9999,
      "fzfg": false,
      "metar_trigger": false,
      "taf_trigger": false,
      "metar": "METAR LEVC 112030Z 26034G51KT CAVOK 20/12 Q1003 NOSIG",
      "taf": "TAF LEVC 111700Z 1118/1218 27015KT 9999 FEW045 TX21/1214Z TN15/1206Z"
    },
    {
      "icao": "LEXJ",
      "alert": "OK",
      "vis_m": 9999,
      "fzfg": false,
      "metar_trigger": false,
      "taf_trigger": false,
      "metar": "METAR LEXJ 112030Z 28026G36KT CAVOK 17/03 Q0998",
      "taf": ""
    },
    {
      "icao": "LEZG",
      "alert": "OK",
      "vis_m": 9999,
      "fzfg": false,
      "metar_trigger": false,
      "taf_trigger": false,
      "metar": "METAR LEZG 112030Z 25017KT 9999 FEW080 18/13 Q1001 NOSIG",
      "taf": ""
    },
    {
      "icao": "LEZL",
      "alert": "OK",
      "vis_m": 9999,
      "fzfg": false,
      "metar_trigger": false,
      "taf_trigger": false,
      "metar": "METAR LEZL 112030Z 23012KT 200V260 9999 OVC010 16/15 Q1020 REDZ NOSIG",
      "taf": "TAF LEZL 112000Z 1121/1221 24015KT 9999 BKN010 TX20/1215Z TN13/1207Z"
    },
    {
      "icao": "LFBD",
      "alert": "OK",
      "vis_m": 5000,
      "fzfg": false,
      "metar_trigger": false,
      "taf_trigger": false,
      "metar": "METAR LFBD 112030Z AUTO 26025G38KT 5000 -RA BR SCT024/// BKN029/// BKN036/// //////CB 14/11 Q0992 TEMPO 27025G60KT 1500 TSRA",
      "taf": ""
    },
    {
      "icao": "LFLL",
      "alert": "OK",
      "vis_m": 9999,
      "fzfg": false,
      "metar_trigger": false,
      "taf_trigger": false,
      "metar": "METAR LFLL 112030Z 17015KT CAVOK 12/06 Q0992 TEMPO 20025G35KT 3000 SHRA BKN040TCU",
      "taf": "TAF LFLL 111700Z 1118/1224 18010KT 9999 BKN050"
    },
    {
      "icao": "LFLS",
      "alert": "OK",
      "vis_m": 9999,
      "fzfg": false,
      "metar_trigger": false,
      "taf_trigger": false,
      "metar": "METAR LFLS 112030Z AUTO VRB02KT 9999 FEW060 BKN074 BKN110 12/04 Q0994 NOSIG",
      "taf": "TAF LFLS 111400Z 1115/1215 22008KT 9999 BKN040"
    },
    {
      "icao": "LFMN",
      "alert": "OK",
      "vis_m": 9999,
      "fzfg": false,
      "metar_trigger": false,
      "taf_trigger": false,
      "metar": "METAR LFMN 112030Z 33003KT CAVOK 11/09 Q0996 NOSIG",
      "taf": "TAF LFMN 112000Z 1121/1303 30008KT CAVOK"
    },
    {
      "icao": "LFOB",
      "alert": "OK",
      "vis_m": 6000,
      "fzfg": false,
      "metar_trigger": false,
      "taf_trigger": false,
      "metar": "METAR LFOB 112030Z AUTO 18012KT 6000 RA OVC008/// //////CB 10/10 Q0977 TEMPO 19020G30KT 3000 RA BKN004",
      "taf": ""
    },
    {
      "icao": "LFPO",
      "alert": "OK",
      "vis_m": 4000,
      "fzfg": false,
      "metar_trigger": false,
      "taf_trigger": false,
      "metar": "METAR LFPO 112030Z 20015KT 160V240 4000 RA BR BKN007 11/10 Q0979 TEMPO 20015G30KT 2500 RA BKN006TCU",
      "taf": "TAF LFPO 111700Z 1118/1224 17010KT 6000 SCT033 BKN073"
    },
    {
      "icao": "LFSB",
      "alert": "OK",
      "vis_m": 9999,
      "fzfg": false,
      "metar_trigger": false,
      "taf_trigger": false,
      "metar": "METAR LFSB 112030Z AUTO 13006KT CAVOK 09/05 Q0990 NOSIG",
      "taf": "TAF LFSB 111700Z 1118/1218 17006KT 9999 SCT025 BKN050"
    },
    {
      "icao": "LGAV",
      "alert": "OK",
      "vis_m": 8000,
      "fzfg": false,
      "metar_trigger": false,
      "taf_trigger": false,
      "metar": "METAR LGAV 112050Z 18009KT 150V220 8000 -RA SCT015 BKN025 13/11 Q1000 NOSIG",
      "taf": "TAF LGAV 111700Z 1118/1218 18010KT 9999 SCT020 BKN070"
    },
    {
      "icao": "LGTS",
      "alert": "OK",
      "vis_m": 9999,
      "fzfg": false,
      "metar_trigger": false,
      "taf_trigger": false,
      "metar": "METAR LGTS 112050Z 27004KT 9999 -DZ FEW020 BKN035 11/11 Q1000 NOSIG",
      "taf": "TAF LGTS 111700Z 1118/1218 14010KT 9999 FEW010 BKN030"
    },
    {
      "icao": "LHBP",
      "alert": "OK",
      "vis_m": 9999,
      "fzfg": false,
      "metar_trigger": false,
      "taf_trigger": false,
      "metar": "METAR LHBP 112030Z VRB01KT 9999 -RA NSC 04/04 Q0994 NOSIG",
      "taf": "TAF LHBP 111715Z 1118/1218 18006KT CAVOK"
    },
    {
      "icao": "LHDC",
      "alert": "OK",
      "vis_m": 9999,
      "fzfg": false,
      "metar_trigger": false,
      "taf_trigger": false,
      "metar": "METAR LHDC 112015Z AUTO 19011KT 9999 -SHRA OVC045 07/05 Q0995",
      "taf": "TAF LHDC 111415Z 1115/1124 19012KT 9999 BKN040 BKN060"
    },
    {
      "icao": "LIBD",
      "alert": "OK",
      "vis_m": 9999,
      "fzfg": false,
      "metar_trigger": false,
      "taf_trigger": false,
      "metar": "METAR LIBD 112050Z 22005KT 9999 FEW040 09/09 Q0998",
      "taf": "TAF LIBD 111700Z 1118/1218 26006KT 9999 FEW040"
    },
    {
      "icao": "LIBG",
      "alert": "OK",
      "vis_m": null,
      "fzfg": false,
      "metar_trigger": false,
      "taf_trigger": false,
      "metar": "",
      "taf": "TAF LIBG 111700Z 1118/1203 VRB04KT 9999 FEW040"
    },
    {
      "icao": "LIBP",
      "alert": "OK",
      "vis_m": 9000,
      "fzfg": false,
      "metar_trigger": false,
      "taf_trigger": false,
      "metar": "METAR LIBP 112050Z AUTO 22007KT 9000 NCD 07/07 Q0997",
      "taf": "TAF LIBP 111700Z 1118/1218 VRB05KT 9999 FEW060"
    },
    {
      "icao": "LIBR",
      "alert": "OK",
      "vis_m": 9999,
      "fzfg": false,
      "metar_trigger": false,
      "taf_trigger": false,
      "metar": "METAR LIBR 112050Z 30005KT 9999 BKN012 12/11 Q0997",
      "taf": "TAF LIBR 111700Z 1118/1218 VRB05KT 9999 SCT030"
    },
    {
      "icao": "LICA",
      "alert": "OK",
      "vis_m": 9999,
      "fzfg": false,
      "metar_trigger": false,
      "taf_trigger": false,
      "metar": "METAR LICA 112050Z AUTO 26021G31KT 9999 FEW026/// BKN029/// BKN058/// 15/12 Q1001",
      "taf": "TAF LICA 111700Z 1118/1218 25022G33KT 9999 BKN020"
    },
    {
      "icao": "LICC",
      "alert": "OK",
      "vis_m": 9999,
      "fzfg": false,
      "metar_trigger": false,
      "taf_trigger": false,
      "metar": "METAR LICC 112050Z 25017KT CAVOK 14/11 Q1003",
      "taf": "TAF LICC 111700Z 1118/1218 26018G30KT 9999 SCT030"
    },
    {
      "icao": "LICJ",
      "alert": "OK",
      "vis_m": 9999,
      "fzfg": false,
      "metar_trigger": false,
      "taf_trigger": false,
      "metar": "METAR LICJ 112050Z 21016KT CAVOK 15/11 Q1005",
      "taf": "TAF LICJ 111700Z 1118/1218 26022G35KT 9999 SCT020"
    },
    {
      "icao": "LIMC",
      "alert": "OK",
      "vis_m": 9999,
      "fzfg": false,
      "metar_trigger": false,
      "taf_trigger": false,
      "metar": "METAR LIMC 112050Z 03004KT 9999 MIFG BKN035 04/04 Q0995 NOSIG",
      "taf": "TAF LIMC 111700Z 1118/1224 VRB04KT 8000 FEW030"
    },
    {
      "icao": "LIME",
      "alert": "OK",
      "vis_m": 9999,
      "fzfg": false,
      "metar_trigger": false,
      "taf_trigger": false,
      "metar": "METAR LIME 112050Z 13002KT 9999 BKN035 09/07 Q0995 NOSIG",
      "taf": "TAF LIME 111700Z 1118/1218 VRB05KT 9999 SCT030"
    },
    {
      "icao": "LIMF",
      "alert": "OK",
      "vis_m": 9999,
      "fzfg": false,
      "metar_trigger": false,
      "taf_trigger": false,
      "metar": "METAR LIMF 112050Z 30007KT CAVOK 07/04 Q0995",
      "taf": "TAF LIMF 111700Z 1118/1218 VRB03KT 9999 FEW025"
    },
    {
      "icao": "LIMJ",
      "alert": "OK",
      "vis_m": 9999,
      "fzfg": false,
      "metar_trigger": false,
      "taf_trigger": false,
      "metar": "METAR LIMJ 112050Z 05003KT 360V090 9999 FEW016 BKN025 11/07 Q0996",
      "taf": "TAF LIMJ 111700Z 1118/1218 VRB05KT 9999 FEW015"
    },
    {
      "icao": "LIPE",
      "alert": "OK",
      "vis_m": 9999,
      "fzfg": false,
      "metar_trigger": false,
      "taf_trigger": false,
      "metar": "METAR LIPE 112050Z VRB01KT 9999 MIFG BKN018 07/07 Q0996",
      "taf": "TAF LIPE 111700Z 1118/1218 VRB05KT 8000 SCT020"
    },
    {
      "icao": "LIPH",
      "alert": "OK",
      "vis_m": 6000,
      "fzfg": false,
      "metar_trigger": false,
      "taf_trigger": false,
      "metar": "METAR LIPH 112050Z 21003KT 6000 BKN050 08/08 Q0996",
      "taf": "TAF LIPH 111700Z 1118/1218 VRB05KT 7000 BKN010"
    },
    {
      "icao": "LIPQ",
      "alert": "OK",
      "vis_m": 4600,
      "fzfg": false,
      "metar_trigger": false,
      "taf_trigger": false,
      "metar": "METAR LIPQ 112050Z AUTO 10003KT 4600 BR FEW003/// SCT020/// BKN028/// 10/10 Q0995",
      "taf": "TAF LIPQ 111700Z 1118/1218 VRB04KT 2000 BR BKN005"
    },
    {
      "icao": "LIPR",
      "alert": "OK",
      "vis_m": 8000,
      "fzfg": false,
      "metar_trigger": false,
      "taf_trigger": false,
      "metar": "METAR LIPR 112050Z VRB01KT 8000 BKN015 09/08 Q0997",
      "taf": "TAF LIPR 111700Z 1118/1218 VRB05KT 4000 BR SCT020"
    },
    {
      "icao": "LIPX",
      "alert": "OK",
      "vis_m": 8000,
      "fzfg": false,
      "metar_trigger": false,
      "taf_trigger": false,
      "metar": "METAR LIPX 112050Z 22003KT 8000 BKN040 08/08 Q0996",
      "taf": "TAF LIPX 111700Z 1118/1218 VRB05KT 8000 BKN014"
    },
    {
      "icao": "LIPY",
      "alert": "OK",
      "vis_m": 300,
      "fzfg": false,
      "metar_trigger": false,
      "taf_trigger": false,
      "metar": "METAR LIPY 112050Z AUTO 14001KT 0300 R22/P2000N FG FEW010/// 09/09 Q0997",
      "taf": "TAF LIPY 111700Z 1118/1218 VRB05KT 4000 BR SCT040"
    },
    {
      "icao": "LIPZ",
      "alert": "OK",
      "vis_m": 9000,
      "fzfg": false,
      "metar_trigger": false,
      "taf_trigger": false,
      "metar": "METAR LIPZ 112050Z 25004KT 9000 4000N BCFG NSC 08/08 Q0996 TEMPO 3000 BR",
      "taf": "TAF LIPZ 111700Z 1118/1224 VRB05KT 7000 BKN010"
    },
    {
      "icao": "LIRF",
      "alert": "OK",
      "vis_m": 9999,
      "fzfg": false,
      "metar_trigger": false,
      "taf_trigger": false,
      "metar": "METAR LIRF 112050Z 08005KT CAVOK 11/11 Q0999 NOSIG",
      "taf": "TAF LIRF 111700Z 1118/1224 VRB05KT 9999 SCT020"
    },
    {
      "icao": "LIRN",
      "alert": "OK",
      "vis_m": 9999,
      "fzfg": false,
      "metar_trigger": false,
      "taf_trigger": false,
      "metar": "METAR LIRN 112050Z 09004KT 9999 FEW030 12/11 Q1000 NOSIG",
      "taf": "TAF LIRN 111700Z 1118/1218 VRB05KT 9999 SCT020"
    },
    {
      "icao": "LIRP",
      "alert": "OK",
      "vis_m": 9999,
      "fzfg": false,
      "metar_trigger": false,
      "taf_trigger": false,
      "metar": "METAR LIRP 112045Z 23012KT 9999 BKN030 14/12 Q0996 NOSIG",
      "taf": "TAF LIRP 111700Z 1118/1218 VRB03KT 9999 FEW020"
    },
    {
      "icao": "LIRZ",
      "alert": "OK",
      "vis_m": 9999,
      "fzfg": false,
      "metar_trigger": false,
      "taf_trigger": false,
      "metar": "METAR LIRZ 112050Z AUTO 18002KT 9999 OVC026/// 11/10 Q0999",
      "taf": "TAF LIRZ 111700Z 1118/1218 19008KT 9999 BKN030"
    },
    {
      "icao": "LJLJ",
      "alert": "OK",
      "vis_m": 9999,
      "fzfg": false,
      "metar_trigger": false,
      "taf_trigger": false,
      "metar": "METAR LJLJ 112030Z 31002KT 9999 3000SE MIFG FEW001 SCT040 BKN055 05/04 Q0994 NOSIG",
      "taf": "TAF LJLJ 111700Z 1118/1218 VRB02KT 9999 FEW003 SCT030 BKN045"
    },
    {
      "icao": "LKMT",
      "alert": "OK",
      "vis_m": 9999,
      "fzfg": false,
      "metar_trigger": false,
      "taf_trigger": false,
      "metar": "METAR LKMT 112030Z 22008KT 9999 -RA SCT021 BKN032 OVC046 06/04 Q0988 TEMPO BKN018",
      "taf": "TAF LKMT 111700Z 1118/1218 22012KT 9999 BKN022"
    },
    {
      "icao": "LKPR",
      "alert": "OK",
      "vis_m": 9999,
      "fzfg": false,
      "metar_trigger": false,
      "taf_trigger": false,
      "metar": "METAR LKPR 112030Z 21014KT 9999 -RA FEW045 07/06 Q0986 NOSIG",
      "taf": "TAF LKPR 112000Z 1121/1303 22014KT 9999 BKN040"
    },
    {
      "icao": "LLBG",
      "alert": "OK",
      "vis_m": 9999,
      "fzfg": false,
      "metar_trigger": false,
      "taf_trigger": false,
      "metar": "METAR LLBG 112050Z 14006KT CAVOK 15/11 Q1016 NOSIG",
      "taf": "TAF LLBG 111702Z 1118/1218 VRB04KT CAVOK"
    },
    {
      "icao": "LMML",
      "alert": "OK",
      "vis_m": 9999,
      "fzfg": false,
      "metar_trigger": false,
      "taf_trigger": false,
      "metar": "METAR LMML 112045Z 27015KT CAVOK 16/13 Q1008 NOSIG",
      "taf": "TAF LMML 111700Z 1118/1218 23025G35KT 9999 FEW020"
    },
    {
      "icao": "LOWW",
      "alert": "OK",
      "vis_m": 9999,
      "fzfg": false,
      "metar_trigger": false,
      "taf_trigger": false,
      "metar": "METAR LOWW 112050Z 16008KT 120V180 9999 FEW038 SCT040 BKN042 06/04 Q0991 NOSIG",
      "taf": "TAF LOWW 112015Z 1121/1303 20008KT 9999 FEW050 TX08/1303Z TN03/1203Z"
    },
    {
      "icao": "LPFR",
      "alert": "OK",
      "vis_m": 8000,
      "fzfg": false,
      "metar_trigger": false,
      "taf_trigger": false,
      "metar": "METAR LPFR 112030Z 25016KT 8000 -DZ OVC006 15/15 Q1021",
      "taf": ""
    },
    {
      "icao": "LPMA",
      "alert": "OK",
      "vis_m": 9999,
      "fzfg": false,
      "metar_trigger": false,
      "taf_trigger": false,
      "metar": "METAR LPMA 112030Z 04003KT 340V080 9999 BKN015 18/12 Q1027",
      "taf": "TAF LPMA 111700Z 1118/1218 04010KT 9999 FEW015 SCT030"
    },
    {
      "icao": "LPPR",
      "alert": "OK",
      "vis_m": 9999,
      "fzfg": false,
      "metar_trigger": false,
      "taf_trigger": false,
      "metar": "METAR LPPR 112030Z 29010G20KT 250V320 9999 SCT015 BKN025 15/11 Q1014",
      "taf": "TAF LPPR 111700Z 1118/1218 26012KT 9999 BKN020"
    },
    {
      "icao": "LPPS",
      "alert": "OK",
      "vis_m": 9999,
      "fzfg": false,
      "metar_trigger": false,
      "taf_trigger": false,
      "metar": "METAR LPPS 112030Z 30006KT 9999 SCT015 BKN030 17/13 Q1027",
      "taf": "TAF LPPS 111700Z 1118/1224 27007KT 9999 FEW015 BKN030"
    },
    {
      "icao": "LPPT",
      "alert": "OK",
      "vis_m": 9999,
      "fzfg": false,
      "metar_trigger": false,
      "taf_trigger": false,
      "metar": "METAR LPPT 112030Z 26014KT 9999 FEW007 BKN014 16/14 Q1018",
      "taf": "TAF LPPT 111700Z 1118/1224 24015KT 5000 BR SCT003 BKN006"
    },
    {
      "icao": "LQBK",
      "alert": "OK",
      "vis_m": 7000,
      "fzfg": false,
      "metar_trigger": false,
      "taf_trigger": false,
      "metar": "METAR LQBK 112030Z 15002KT 7000 NSC 07/07 Q0995 NOSIG",
      "taf": "TAF LQBK 111700Z 1118/1218 16005KT 7000 SCT045 TX13/1213Z TN06/1205Z"
    },
    {
      "icao": "LQSA",
      "alert": "OK",
      "vis_m": 9999,
      "fzfg": false,
      "metar_trigger": false,
      "taf_trigger": false,
      "metar": "METAR LQSA 112030Z VRB02KT CAVOK 07/05 Q0996 NOSIG",
      "taf": "TAF LQSA 111700Z 1118/1218 11005KT 9999 BKN050 TX13/1213Z TN04/1205Z"
    },
    {
      "icao": "LQTZ",
      "alert": "OK",
      "vis_m": 9999,
      "fzfg": false,
      "metar_trigger": false,
      "taf_trigger": false,
      "metar": "METAR LQTZ 112030Z 11003KT 9999 SCT065 09/05 Q0996",
      "taf": "TAF LQTZ 111700Z 1118/1218 VRB02KT 9999 SCT060 TX15/1213Z TN04/1205Z"
    },
    {
      "icao": "LRBC",
      "alert": "OK",
      "vis_m": 400,
      "fzfg": false,
      "metar_trigger": false,
      "taf_trigger": false,
      "metar": "METAR LRBC 112030Z 16009KT 0400 R16/0750N FG VV002 01/01 Q0999",
      "taf": "TAF LRBC 112000Z 1121/1206 17010KT 0600 FG OVC001"
    },
    {
      "icao": "LRBS",
      "alert": "OK",
      "vis_m": 5000,
      "fzfg": false,
      "metar_trigger": false,
      "taf_trigger": false,
      "metar": "METAR LRBS 112030Z 00000KT 5000 BR NSC 00/M01 Q1002 BECMG 3000 BR",
      "taf": "TAF LRBS 111700Z 1118/1218 VRB04KT CAVOK"
    },
    {
      "icao": "LRBV",
      "alert": "OK",
      "vis_m": 9999,
      "fzfg": false,
      "metar_trigger": false,
      "taf_trigger": false,
      "metar": "METAR LRBV 112030Z 14005KT 100V210 CAVOK 04/M02 Q0998",
      "taf": "TAF LRBV 112000Z 1121/1206 VRB04KT CAVOK"
    },
    {
      "icao": "LRCL",
      "alert": "OK",
      "vis_m": 9999,
      "fzfg": false,
      "metar_trigger": false,
      "taf_trigger": false,
      "metar": "METAR LRCL 112030Z VRB02KT CAVOK 06/02 Q0996",
      "taf": "TAF LRCL 112000Z 1121/1206 VRB04KT CAVOK"
    },
    {
      "icao": "LRCV",
      "alert": "OK",
      "vis_m": 4000,
      "fzfg": false,
      "metar_trigger": false,
      "taf_trigger": false,
      "metar": "METAR LRCV 112030Z 29003KT 4000 BR FEW010 M01/M02 Q1001",
      "taf": "TAF LRCV 112000Z 1121/1206 VRB04KT 3000 BR SCT015"
    },
    {
      "icao": "LRIA",
      "alert": "OK",
      "vis_m": 9999,
      "fzfg": false,
      "metar_trigger": false,
      "taf_trigger": false,
      "metar": "METAR LRIA 112030Z 00000KT 9999 FEW009 02/00 Q0999",
      "taf": "TAF LRIA 112000Z 1121/1206 VRB04KT 9999 BKN010"
    },
    {
      "icao": "LROP",
      "alert": "OK",
      "vis_m": 5000,
      "fzfg": false,
      "metar_trigger": false,
      "taf_trigger": false,
      "metar": "METAR LROP 112030Z 27003KT 5000 BR NSC M00/M00 Q1002 BECMG 3000 BR",
      "taf": "TAF LROP 111700Z 1118/1218 VRB04KT CAVOK"
    },
    {
      "icao": "LRSB",
      "alert": "OK",
      "vis_m": 9999,
      "fzfg": false,
      "metar_trigger": false,
      "taf_trigger": false,
      "metar": "METAR LRSB 112030Z 35003KT 9999 SCT088 02/M00 Q0997",
      "taf": "TAF LRSB 111700Z 1118/1218 VRB04KT CAVOK"
    },
    {
      "icao": "LRSM",
      "alert": "OK",
      "vis_m": 9999,
      "fzfg": false,
      "metar_trigger": false,
      "taf_trigger": false,
      "metar": "METAR LRSM 112030Z AUTO 18008KT 9999 BKN050/// OVC065/// 07/03 Q0995",
      "taf": "TAF LRSM 111400Z 1115/1124 14007KT CAVOK"
    },
    {
      "icao": "LRSV",
      "alert": "OK",
      "vis_m": 9999,
      "fzfg": false,
      "metar_trigger": false,
      "taf_trigger": false,
      "metar": "METAR LRSV 112030Z 21011KT CAVOK 01/00 Q0995",
      "taf": "TAF LRSV 112000Z 1121/1206 20007KT CAVOK"
    },
    {
      "icao": "LRTM",
      "alert": "OK",
      "vis_m": 9999,
      "fzfg": false,
      "metar_trigger": false,
      "taf_trigger": false,
      "metar": "METAR LRTM 112030Z AUTO 08004KT 9999 NCD 03/01 Q0997",
      "taf": "TAF LRTM 112000Z 1121/1206 VRB04KT CAVOK"
    },
    {
      "icao": "LRTR",
      "alert": "OK",
      "vis_m": 9999,
      "fzfg": false,
      "metar_trigger": false,
      "taf_trigger": false,
      "metar": "METAR LRTR 112030Z 09006KT CAVOK 04/03 Q0997",
      "taf": "TAF LRTR 111700Z 1118/1218 12006KT CAVOK"
    },
    {
      "icao": "LTAC",
      "alert": "OK",
      "vis_m": 9999,
      "fzfg": false,
      "metar_trigger": false,
      "taf_trigger": false,
      "metar": "METAR LTAC 112050Z 00000KT 9999 SCT035 BKN090 04/02 Q1009 NOSIG RMK RWY21C 17002KT RWY03L 00000KT RWY21R 00000KT RWY03R VRB02KT RWY21L 00000KT",
      "taf": "TAF LTAC 111640Z 1118/1218 VRB02KT 9999 SCT040 SCT100"
    },
    {
      "icao": "LTFM",
      "alert": "OK",
      "vis_m": 9999,
      "fzfg": false,
      "metar_trigger": false,
      "taf_trigger": false,
      "metar": "METAR LTFM 112050Z 17006KT 9999 SCT040 BKN090 07/05 Q1006 NOSIG RMK RWY17L 18009KT RWY34L 18005KT RWY16R 16011KT RWY36 17007KT RWY18 18011KT",
      "taf": ""
    },
    {
      "icao": "LUKK",
      "alert": "OK",
      "vis_m": 9999,
      "fzfg": false,
      "metar_trigger": false,
      "taf_trigger": false,
      "metar": "METAR LUKK 112030Z 18010KT 9999 SCT009 OVC016 02/01 Q1000 NOSIG",
      "taf": "TAF LUKK 111700Z 1118/1218 16009KT 9999 OVC018"
    },
    {
      "icao": "LWOH",
      "alert": "OK",
      "vis_m": 9999,
      "fzfg": false,
      "metar_trigger": false,
      "taf_trigger": false,
      "metar": "METAR LWOH 111950Z 02004KT 350V050 9999 -RA SCT016 OVC038 07/05 Q0999",
      "taf": "TAF LWOH 112030Z 1121/1221 VRB02KT 9999 RA SCT015 OVC040"
    },
    {
      "icao": "LWSK",
      "alert": "OK",
      "vis_m": 9999,
      "fzfg": false,
      "metar_trigger": false,
      "taf_trigger": false,
      "metar": "METAR LWSK 112020Z 14004KT 120V180 9999 SCT023 SCT055 08/05 Q1001 NOSIG",
      "taf": "TAF LWSK 112030Z 1121/1221 14005KT 9999 BKN020 OVC050"
    },
    {
      "icao": "LYBE",
      "alert": "OK",
      "vis_m": 9999,
      "fzfg": false,
      "metar_trigger": false,
      "taf_trigger": false,
      "metar": "METAR LYBE 112030Z 13007KT CAVOK 09/05 Q0996 NOSIG",
      "taf": "TAF LYBE 111700Z 1118/1218 13008KT CAVOK TX18/1212Z TN04/1206Z"
    },
    {
      "icao": "LYNI",
      "alert": "OK",
      "vis_m": 9999,
      "fzfg": false,
      "metar_trigger": false,
      "taf_trigger": false,
      "metar": "METAR LYNI 112030Z VRB01KT 9999 SCT060 08/05 Q0999 NOSIG",
      "taf": "TAF LYNI 111700Z 1118/1218 12005KT 9999 SCT050 TX14/1212Z TN03/1206Z"
    },
    {
      "icao": "LYPG",
      "alert": "OK",
      "vis_m": 5000,
      "fzfg": false,
      "metar_trigger": false,
      "taf_trigger": false,
      "metar": "METAR LYPG 112030Z 31004KT 5000 -RA BR FEW030 SCT050 OVC070 09/09 Q0998 NOSIG",
      "taf": "TAF LYPG 111700Z 1118/1218 36005KT 8000 FEW007 BKN040 OVC070 TX11/1213Z TN08/1205Z"
    },
    {
      "icao": "LZIB",
      "alert": "OK",
      "vis_m": 4200,
      "fzfg": false,
      "metar_trigger": false,
      "taf_trigger": false,
      "metar": "METAR LZIB 112030Z 35002KT 4200 BR FEW003 03/03 Q0992 NOSIG",
      "taf": "TAF LZIB 111715Z 1118/1218 03006KT 7000 SCT004 BKN025"
    },
    {
      "icao": "LZKZ",
      "alert": "OK",
      "vis_m": 900,
      "fzfg": false,
      "metar_trigger": false,
      "taf_trigger": false,
      "metar": "METAR LZKZ 112030Z 13003KT 0900 R01/1700D FG OVC008 01/01 Q0993 NOSIG",
      "taf": "TAF LZKZ 111715Z 1118/1218 21005KT 3500 BR BKN006 OVC010"
    },
    {
      "icao": "LZTT",
      "alert": "OK",
      "vis_m": 9999,
      "fzfg": false,
      "metar_trigger": false,
      "taf_trigger": false,
      "metar": "METAR LZTT 112030Z 25010KT 9999 FEW016 03/01 Q0990",
      "taf": ""
    },
    {
      "icao": "OEJN",
      "alert": "OK",
      "vis_m": 9999,
      "fzfg": false,
      "metar_trigger": false,
      "taf_trigger": false,
      "metar": "METAR OEJN 112000Z 32007KT CAVOK 26/19 Q1014 NOSIG",
      "taf": "TAF OEJN 111700Z 1118/1224 36006KT 7000 NSC"
    },
    {
      "icao": "OEMA",
      "alert": "OK",
      "vis_m": 9999,
      "fzfg": false,
      "metar_trigger": false,
      "taf_trigger": false,
      "metar": "METAR OEMA 112000Z 24008KT CAVOK 26/08 Q1017 NOSIG",
      "taf": "TAF OEMA 111700Z 1118/1224 VRB03KT CAVOK"
    },
    {
      "icao": "OJAI",
      "alert": "OK",
      "vis_m": 4000,
      "fzfg": false,
      "metar_trigger": false,
      "taf_trigger": false,
      "metar": "METAR OJAI 112000Z 27006KT 4000 HZ NSC 10/06 Q1017 NOSIG",
      "taf": "TAF OJAI 111700Z 1118/1224 25012KT 5000 HZ FEW035"
    },
    {
      "icao": "OMAA",
      "alert": "OK",
      "vis_m": 8000,
      "fzfg": false,
      "metar_trigger": false,
      "taf_trigger": false,
      "metar": "METAR OMAA 112030Z 34004KT 320V040 8000 NSC 22/18 Q1017 NOSIG",
      "taf": "TAF OMAA 111700Z 1118/1300 01006KT 8000 NSC"
    },
    {
      "icao": "OMDB",
      "alert": "OK",
      "vis_m": 9999,
      "fzfg": false,
      "metar_trigger": false,
      "taf_trigger": false,
      "metar": "METAR OMDB 112030Z 08005KT 050V120 CAVOK 23/15 Q1017 NOSIG",
      "taf": "TAF OMDB 111700Z 1118/1300 09007KT 8000 NSC"
    },
    {
      "icao": "UAAA",
      "alert": "OK",
      "vis_m": 1400,
      "fzfg": false,
      "metar_trigger": false,
      "taf_trigger": false,
      "metar": "METAR UAAA 112030Z 02003MPS 1400 R23L/P2000D BR OVC003 M02/M03 Q1023 NOSIG RMK QBB100",
      "taf": "TAF UAAA 111702Z 1118/1218 02003G08MPS 1500 -SN BR BKN011 OVC020 TX00/1209Z TNM03/1203Z"
    },
    {
      "icao": "UBBB",
      "alert": "OK",
      "vis_m": 9999,
      "fzfg": false,
      "metar_trigger": false,
      "taf_trigger": false,
      "metar": "METAR UBBB 112030Z 14006KT 9999 -RA OVC022 04/03 Q1016 NOSIG",
      "taf": "TAF UBBB 111702Z 1118/1218 16005KT 9999 SCT012 BKN030 TX07/1210Z TN00/1201Z"
    },
    {
      "icao": "UDSG",
      "alert": "OK",
      "vis_m": 3200,
      "fzfg": false,
      "metar_trigger": false,
      "taf_trigger": false,
      "metar": "METAR UDSG 112030Z 00000KT 3200 BR OVC008 M01/M01 Q1014 NOSIG",
      "taf": "TAF UDSG 111658Z 1118/1218 VRB06KT 3000 BR OVC020"
    },
    {
      "icao": "UDYZ",
      "alert": "OK",
      "vis_m": 2700,
      "fzfg": false,
      "metar_trigger": false,
      "taf_trigger": false,
      "metar": "METAR UDYZ 112030Z VRB01KT 2700 BR BKN020CB 02/02 Q1015 NOSIG",
      "taf": "TAF UDYZ 111700Z 1118/1218 VRB04KT 6000 BKN020"
    },
    {
      "icao": "UGKO",
      "alert": "OK",
      "vis_m": 9999,
      "fzfg": false,
      "metar_trigger": false,
      "taf_trigger": false,
      "metar": "METAR UGKO 112030Z 09016KT 9999 BKN084 06/00 Q1012 NOSIG",
      "taf": "TAF UGKO 111700Z 1118/1218 08015KT 9999 BKN050 TX17/1211Z TN04/1202Z"
    }
  ]
}