{
  "ts_utc": "2026-01-25T03:23:15Z",
  "threshold_m": 150,
  "source": "stations_override.txt (ICAO list) + aviationweather.gov (METAR/TAF raw)",
  "station_count": 159,
  "stations": [
    {
      "icao": "BIKF",
      "alert": "OK",
      "vis_m": 9999,
      "fzfg": false,
      "metar_trigger": false,
      "taf_trigger": false,
      "metar": "METAR BIKF 250300Z 07014KT 9999 FEW040 OVC095 05/M00 Q1005",
      "taf": "TAF BIKF 250104Z 2503/2603 09015KT 9999 FEW025 TX04/2503Z TN01/2603Z"
    },
    {
      "icao": "BKPR",
      "alert": "OK",
      "vis_m": 9999,
      "fzfg": false,
      "metar_trigger": false,
      "taf_trigger": false,
      "metar": "METAR BKPR 250300Z 18010KT 9999 FEW015 BKN050 05/04 Q1011 NOSIG",
      "taf": "TAF BKPR 242330Z 2500/2524 18010KT 9999 BKN040"
    },
    {
      "icao": "EBCI",
      "alert": "OK",
      "vis_m": 9999,
      "fzfg": false,
      "metar_trigger": false,
      "taf_trigger": false,
      "metar": "METAR EBCI 250250Z VRB02KT CAVOK 01/M01 Q0998 NOSIG",
      "taf": "TAF EBCI 242303Z 2500/2606 16005KT CAVOK"
    },
    {
      "icao": "EDDB",
      "alert": "OK",
      "vis_m": 5000,
      "fzfg": false,
      "metar_trigger": false,
      "taf_trigger": false,
      "metar": "METAR EDDB 250250Z AUTO 09010KT 070V130 5000 BR OVC007 M03/M05 Q1007 NOSIG",
      "taf": "TAF EDDB 242300Z 2500/2524 07008KT 6000 OVC011"
    },
    {
      "icao": "EDDH",
      "alert": "OK",
      "vis_m": 7000,
      "fzfg": false,
      "metar_trigger": false,
      "taf_trigger": false,
      "metar": "METAR EDDH 250250Z AUTO 10009KT 7000 OVC009 M02/M04 Q1006 NOSIG",
      "taf": "TAF EDDH 242300Z 2500/2606 08009KT 6000 OVC008"
    },
    {
      "icao": "EDDK",
      "alert": "OK",
      "vis_m": 9999,
      "fzfg": false,
      "metar_trigger": false,
      "taf_trigger": false,
      "metar": "METAR EDDK 250250Z AUTO 12006KT 090V170 CAVOK M01/M06 Q1001 NOSIG",
      "taf": "TAF EDDK 242300Z 2500/2606 11006KT CAVOK"
    },
    {
      "icao": "EDDN",
      "alert": "OK",
      "vis_m": 7000,
      "fzfg": false,
      "metar_trigger": false,
      "taf_trigger": false,
      "metar": "METAR EDDN 250250Z AUTO VRB02KT 7000 BKN009 M03/M05 Q1001",
      "taf": "TAF EDDN 242300Z 2500/2524 10004KT 7000 OVC012"
    },
    {
      "icao": "EDDS",
      "alert": "OK",
      "vis_m": 6000,
      "fzfg": false,
      "metar_trigger": false,
      "taf_trigger": false,
      "metar": "METAR EDDS 250250Z AUTO VRB02KT 6000 NSC M03/M04 Q0999",
      "taf": "TAF EDDS 242300Z 2500/2524 VRB03KT 6000 NSC"
    },
    {
      "icao": "EDFH",
      "alert": "OK",
      "vis_m": 5000,
      "fzfg": false,
      "metar_trigger": false,
      "taf_trigger": false,
      "metar": "METAR EDFH 250250Z 15014KT 5000 BR NSC M05/M07 Q0998",
      "taf": "TAF EDFH 242300Z 2500/2524 13012KT 8000 NSC"
    },
    {
      "icao": "EDJA",
      "alert": "OK",
      "vis_m": 4100,
      "fzfg": false,
      "metar_trigger": false,
      "taf_trigger": false,
      "metar": "METAR EDJA 250250Z AUTO 00000KT 4100 OVC002/// M03/M04 Q0999",
      "taf": "TAF EDJA 250200Z 2503/2512 VRB03KT 4000 BR OVC003"
    },
    {
      "icao": "EDLW",
      "alert": "OK",
      "vis_m": 4600,
      "fzfg": false,
      "metar_trigger": false,
      "taf_trigger": false,
      "metar": "METAR EDLW 250250Z AUTO VRB02KT 4600 // BKN180/// M03/M04 Q1001",
      "taf": ""
    },
    {
      "icao": "EDNY",
      "alert": "OK",
      "vis_m": 6000,
      "fzfg": false,
      "metar_trigger": false,
      "taf_trigger": false,
      "metar": "METAR EDNY 250250Z AUTO 04003KT 6000 // OVC007/// M00/M01 Q1000",
      "taf": "TAF EDNY 250200Z 2503/2512 VRB03KT 6000 OVC007"
    },
    {
      "icao": "EDSB",
      "alert": "OK",
      "vis_m": 4500,
      "fzfg": false,
      "metar_trigger": false,
      "taf_trigger": false,
      "metar": "METAR EDSB 250250Z AUTO 03003KT 4500 OVC006/// M02/M03 Q1001",
      "taf": ""
    },
    {
      "icao": "EETN",
      "alert": "OK",
      "vis_m": 9999,
      "fzfg": false,
      "metar_trigger": false,
      "taf_trigger": false,
      "metar": "METAR EETN 250250Z 09004KT 9999 FEW002 M18/M20 Q1023",
      "taf": "TAF EETN 242330Z 2500/2524 10005KT 9999 FEW003"
    },
    {
      "icao": "EFTU",
      "alert": "OK",
      "vis_m": 9999,
      "fzfg": false,
      "metar_trigger": false,
      "taf_trigger": false,
      "metar": "METAR EFTU 250250Z AUTO VRB02KT CAVOK M12/M13 Q1022",
      "taf": "TAF EFTU 250224Z 2503/2603 14004KT 9999 SCT025"
    },
    {
      "icao": "EGBB",
      "alert": "OK",
      "vis_m": 9999,
      "fzfg": false,
      "metar_trigger": false,
      "taf_trigger": false,
      "metar": "METAR EGBB 250250Z 14011KT 9999 SCT033 06/04 Q0990",
      "taf": "TAF EGBB 242258Z 2500/2524 13012KT 9999 SCT015"
    },
    {
      "icao": "EGGP",
      "alert": "OK",
      "vis_m": 9999,
      "fzfg": false,
      "metar_trigger": false,
      "taf_trigger": false,
      "metar": "METAR EGGP 250250Z AUTO 13015KT 9999 -RA SCT021/// BKN028/// BKN037/// 06/04 Q0988",
      "taf": "TAF EGGP 242255Z 2500/2524 12018G30KT 9999 BKN025"
    },
    {
      "icao": "EGGW",
      "alert": "OK",
      "vis_m": 9999,
      "fzfg": false,
      "metar_trigger": false,
      "taf_trigger": false,
      "metar": "METAR EGGW 250250Z AUTO 13010KT 9999 OVC004 06/05 Q0992",
      "taf": "TAF EGGW 242253Z 2500/2524 13012KT 9999 FEW010 BKN025"
    },
    {
      "icao": "EGKK",
      "alert": "OK",
      "vis_m": 9999,
      "fzfg": false,
      "metar_trigger": false,
      "taf_trigger": false,
      "metar": "METAR EGKK 250250Z 14004KT 9999 -RA SCT011 BKN020 BKN035 07/07 Q0992",
      "taf": "TAF EGKK 242256Z 2500/2606 14010KT 9999 SCT020"
    },
    {
      "icao": "EGNM",
      "alert": "OK",
      "vis_m": null,
      "fzfg": false,
      "metar_trigger": false,
      "taf_trigger": false,
      "metar": "",
      "taf": "TAF EGNM 242254Z 2500/2524 11012KT 9999 BKN013"
    },
    {
      "icao": "EGPD",
      "alert": "OK",
      "vis_m": 9999,
      "fzfg": false,
      "metar_trigger": false,
      "taf_trigger": false,
      "metar": "METAR EGPD 250250Z AUTO 12013KT 9999 BKN014 BKN020 BKN025 06/03 Q1000 TEMPO BKN015",
      "taf": "TAF EGPD 242257Z 2500/2524 11013KT 9999 BKN015"
    },
    {
      "icao": "EGPF",
      "alert": "OK",
      "vis_m": 9000,
      "fzfg": false,
      "metar_trigger": false,
      "taf_trigger": false,
      "metar": "METAR EGPF 250250Z AUTO 07019KT 9000 BKN027 06/04 Q0992",
      "taf": "TAF EGPF 242257Z 2500/2524 09018G28KT 9999 SCT016 BKN030"
    },
    {
      "icao": "EHBK",
      "alert": "OK",
      "vis_m": 9000,
      "fzfg": false,
      "metar_trigger": false,
      "taf_trigger": false,
      "metar": "METAR EHBK 250255Z AUTO 10005KT 9000 NSC M00/M03 Q0999",
      "taf": "TAF EHBK 242332Z 2500/2606 08005KT 9999 NSC"
    },
    {
      "icao": "EHEH",
      "alert": "OK",
      "vis_m": null,
      "fzfg": false,
      "metar_trigger": false,
      "taf_trigger": false,
      "metar": "",
      "taf": "TAF EHEH 242342Z 2500/2606 08004KT 5000 HZ NSC"
    },
    {
      "icao": "EKBI",
      "alert": "OK",
      "vis_m": 3300,
      "fzfg": false,
      "metar_trigger": false,
      "taf_trigger": false,
      "metar": "METAR EKBI 250250Z AUTO 07011KT 3300 -SN OVC007/// M01/M01 Q1008",
      "taf": "TAF EKBI 250227Z 2503/2603 08014KT 6000 OVC007"
    },
    {
      "icao": "EKCH",
      "alert": "OK",
      "vis_m": 9999,
      "fzfg": false,
      "metar_trigger": false,
      "taf_trigger": false,
      "metar": "METAR EKCH 250250Z 09011KT 9999 OVC014 01/M02 Q1011 NOSIG",
      "taf": "TAF EKCH 250227Z 2503/2603 09013KT 9999 OVC012"
    },
    {
      "icao": "ENAL",
      "alert": "OK",
      "vis_m": 9999,
      "fzfg": false,
      "metar_trigger": false,
      "taf_trigger": false,
      "metar": "METAR ENAL 250250Z AUTO 14013KT 9999 FEW051/// OVC063/// M01/M09 Q1013",
      "taf": "TAF ENAL 250200Z 2503/2512 14012KT 9999 BKN040"
    },
    {
      "icao": "ENBR",
      "alert": "OK",
      "vis_m": 9999,
      "fzfg": false,
      "metar_trigger": false,
      "taf_trigger": false,
      "metar": "METAR ENBR 250250Z AUTO 03006KT 360V060 9999 FEW053/// M04/M13 Q1012 RMK WIND 1200FT 10009KT",
      "taf": "TAF ENBR 242300Z 2500/2524 08005KT 9999 BKN040"
    },
    {
      "icao": "ENGM",
      "alert": "OK",
      "vis_m": 9999,
      "fzfg": false,
      "metar_trigger": false,
      "taf_trigger": false,
      "metar": "METAR ENGM 250250Z 03003KT 9999 -SN FEW013 OVC049 M07/M08 Q1016",
      "taf": "TAF ENGM 242300Z 2500/2524 03008KT 9999 -SN SCT012 BKN020"
    },
    {
      "icao": "ENHD",
      "alert": "OK",
      "vis_m": 9999,
      "fzfg": false,
      "metar_trigger": false,
      "taf_trigger": false,
      "metar": "METAR ENHD 250250Z AUTO 24013KT 9999 -RA FEW029/// M00/M09 Q1012 RESN",
      "taf": ""
    },
    {
      "icao": "ENTC",
      "alert": "OK",
      "vis_m": 2000,
      "fzfg": false,
      "metar_trigger": false,
      "taf_trigger": false,
      "metar": "METAR ENTC 250250Z 18013KT 2000 -SHSN VV010 M01/M02 Q1010 RMK WIND 2600FT 28013KT",
      "taf": "TAF ENTC 242300Z 2500/2524 20012KT 6000 SCT010 BKN020"
    },
    {
      "icao": "ENTO",
      "alert": "OK",
      "vis_m": 9999,
      "fzfg": false,
      "metar_trigger": false,
      "taf_trigger": false,
      "metar": "METAR ENTO 250250Z AUTO 07005KT 040V100 9999 OVC047/// M04/M07 Q1016",
      "taf": "TAF ENTO 242300Z 2500/2524 02008KT 9999 -SN SCT010 BKN020"
    },
    {
      "icao": "ENVA",
      "alert": "OK",
      "vis_m": 9999,
      "fzfg": false,
      "metar_trigger": false,
      "taf_trigger": false,
      "metar": "METAR ENVA 250250Z AUTO 10004KT 9999 NCD M09/M14 Q1016 RMK WIND 670FT 12007KT",
      "taf": "TAF ENVA 242300Z 2500/2524 10008KT 9999 BKN050"
    },
    {
      "icao": "ENZV",
      "alert": "OK",
      "vis_m": 9999,
      "fzfg": false,
      "metar_trigger": false,
      "taf_trigger": false,
      "metar": "METAR ENZV 250250Z AUTO 09010KT 9999 NCD 01/M08 Q1011",
      "taf": "TAF ENZV 242300Z 2500/2524 08008KT 9999 BKN050"
    },
    {
      "icao": "EPGD",
      "alert": "OK",
      "vis_m": 8000,
      "fzfg": false,
      "metar_trigger": false,
      "taf_trigger": false,
      "metar": "METAR EPGD 250300Z 13008KT 8000 BKN009 M08/M09 Q1013",
      "taf": "TAF EPGD 242330Z 2500/2524 10010KT 9999 OVC045"
    },
    {
      "icao": "EPKK",
      "alert": "OK",
      "vis_m": 2000,
      "fzfg": false,
      "metar_trigger": false,
      "taf_trigger": false,
      "metar": "METAR EPKK 250300Z 06008KT 2000 BR OVC003 M02/M02 Q1007 REFZRA",
      "taf": "TAF EPKK 250230Z 2503/2603 06008KT 3000 BR OVC006"
    },
    {
      "icao": "EPKT",
      "alert": "OK",
      "vis_m": 2700,
      "fzfg": false,
      "metar_trigger": false,
      "taf_trigger": false,
      "metar": "METAR EPKT 250300Z 08007KT 2700 -FZRA BR BKN005 OVC031 M01/M02 Q1006",
      "taf": "TAF EPKT 242330Z 2500/2524 09006KT 4000 BR BKN006"
    },
    {
      "icao": "EPLB",
      "alert": "OK",
      "vis_m": 3600,
      "fzfg": false,
      "metar_trigger": false,
      "taf_trigger": false,
      "metar": "METAR EPLB 250300Z 11010KT 3600 BR BKN003 OVC005 M06/M06 Q1012",
      "taf": ""
    },
    {
      "icao": "EPMO",
      "alert": "OK",
      "vis_m": 9999,
      "fzfg": false,
      "metar_trigger": false,
      "taf_trigger": false,
      "metar": "METAR EPMO 250300Z 07012KT 9999 OVC013 M06/M07 Q1012",
      "taf": "TAF EPMO 242330Z 2500/2524 08012KT 8000 BKN022"
    },
    {
      "icao": "EPPO",
      "alert": "OK",
      "vis_m": 6000,
      "fzfg": false,
      "metar_trigger": false,
      "taf_trigger": false,
      "metar": "METAR EPPO 250300Z 09010KT 6000 OVC011 M04/M07 Q1009",
      "taf": "TAF EPPO 242330Z 2500/2524 09010KT 6000 OVC012"
    },
    {
      "icao": "EPRA",
      "alert": "OK",
      "vis_m": 4500,
      "fzfg": false,
      "metar_trigger": false,
      "taf_trigger": false,
      "metar": "METAR EPRA 250300Z 09009KT 4500 -SN OVC003 M04/M05 Q1010",
      "taf": "TAF EPRA 250230Z 2503/2512 09010KT 5000 -SN OVC004"
    },
    {
      "icao": "EPRZ",
      "alert": "OK",
      "vis_m": 6000,
      "fzfg": false,
      "metar_trigger": false,
      "taf_trigger": false,
      "metar": "METAR EPRZ 250300Z 08011KT 6000 OVC006 M01/M02 Q1009",
      "taf": "TAF EPRZ 242330Z 2500/2524 09008KT 6000 OVC006"
    },
    {
      "icao": "EPSC",
      "alert": "OK",
      "vis_m": 6000,
      "fzfg": false,
      "metar_trigger": false,
      "taf_trigger": false,
      "metar": "METAR EPSC 250300Z 09007KT 6000 BKN013 OVC015 M04/M07 Q1009",
      "taf": "TAF EPSC 242330Z 2500/2524 09010KT 9999 OVC020"
    },
    {
      "icao": "EPSY",
      "alert": "OK",
      "vis_m": 8000,
      "fzfg": false,
      "metar_trigger": false,
      "taf_trigger": false,
      "metar": "METAR EPSY 250300Z 10005KT 050V140 8000 -SN FEW007 OVC020 M08/M10 Q1014",
      "taf": "TAF EPSY 250230Z 2503/2512 10008KT 8000 OVC033"
    },
    {
      "icao": "EPWA",
      "alert": "OK",
      "vis_m": 9999,
      "fzfg": false,
      "metar_trigger": false,
      "taf_trigger": false,
      "metar": "METAR EPWA 250300Z 08012KT 9999 BKN011 M05/M07 Q1012 TEMPO BKN009",
      "taf": "TAF EPWA 250230Z 2503/2603 08010KT 8000 BKN012"
    },
    {
      "icao": "EPWR",
      "alert": "OK",
      "vis_m": 4400,
      "fzfg": false,
      "metar_trigger": false,
      "taf_trigger": false,
      "metar": "METAR EPWR 250300Z 08007KT 4400 BR SCT009 BKN012 M02/M04 Q1007",
      "taf": "TAF EPWR 250230Z 2503/2603 08006KT 6000 OVC011"
    },
    {
      "icao": "ESGG",
      "alert": "OK",
      "vis_m": 9999,
      "fzfg": false,
      "metar_trigger": false,
      "taf_trigger": false,
      "metar": "METAR ESGG 250250Z 09010KT 9999 -SN SCT017 BKN024 OVC041 M05/M07 Q1013",
      "taf": "TAF ESGG 250230Z 2503/2603 09009KT 9999 -SN SCT020 OVC040"
    },
    {
      "icao": "ESKN",
      "alert": "OK",
      "vis_m": 9999,
      "fzfg": false,
      "metar_trigger": false,
      "taf_trigger": false,
      "metar": "METAR ESKN 250250Z 08009KT 9999 BKN031 M03/M08 Q1018",
      "taf": "TAF ESKN 250230Z 2503/2603 08006KT 9999 -SN BKN030"
    },
    {
      "icao": "ESMS",
      "alert": "OK",
      "vis_m": 7000,
      "fzfg": false,
      "metar_trigger": false,
      "taf_trigger": false,
      "metar": "METAR ESMS 250250Z 10014KT 7000 OVC009 M00/M02 Q1010",
      "taf": "TAF ESMS 250227Z 2503/2603 10015KT 8000 OVC012"
    },
    {
      "icao": "ESSA",
      "alert": "OK",
      "vis_m": 9999,
      "fzfg": false,
      "metar_trigger": false,
      "taf_trigger": false,
      "metar": "METAR ESSA 250250Z 07009KT 9999 -SN FEW018 BKN042 M05/M08 Q1019 TEMPO 4000 -SN",
      "taf": "TAF ESSA 250230Z 2503/2603 07007KT 9999 -SN BKN040"
    },
    {
      "icao": "EYKA",
      "alert": "OK",
      "vis_m": 9000,
      "fzfg": false,
      "metar_trigger": false,
      "taf_trigger": false,
      "metar": "METAR EYKA 250250Z 10008KT 9000 -SN BKN040 OVC048 M10/M12 Q1018",
      "taf": "TAF EYKA 242317Z 2500/2524 10009KT 8000 OVC020"
    },
    {
      "icao": "EYPA",
      "alert": "OK",
      "vis_m": 9999,
      "fzfg": false,
      "metar_trigger": false,
      "taf_trigger": false,
      "metar": "METAR EYPA 250250Z 09006KT CAVOK M12/M15 Q1017",
      "taf": "TAF EYPA 242321Z 2500/2524 10008KT 8000 SCT010 BKN015"
    },
    {
      "icao": "EYVI",
      "alert": "OK",
      "vis_m": 9999,
      "fzfg": false,
      "metar_trigger": false,
      "taf_trigger": false,
      "metar": "METAR EYVI 250250Z 11008KT 9999 -SN OVC044 M12/M15 Q1018 NOSIG",
      "taf": "TAF EYVI 242317Z 2500/2524 10008KT 8000 OVC020"
    },
    {
      "icao": "GCFV",
      "alert": "OK",
      "vis_m": 9999,
      "fzfg": false,
      "metar_trigger": false,
      "taf_trigger": false,
      "metar": "METAR GCFV 250300Z AUTO 31007KT CAVOK 15/08 Q1027",
      "taf": "TAF GCFV 250200Z 2503/2603 33005KT 9999 FEW030 TX20/2514Z TN14/2506Z"
    },
    {
      "icao": "GCLP",
      "alert": "OK",
      "vis_m": 9999,
      "fzfg": false,
      "metar_trigger": false,
      "taf_trigger": false,
      "metar": "METAR GCLP 250300Z 34008KT 9999 SCT035 16/09 Q1028 NOSIG",
      "taf": "TAF GCLP 250200Z 2503/2603 33006KT 9999 FEW035 TX20/2514Z TN13/2506Z"
    },
    {
      "icao": "GCTS",
      "alert": "OK",
      "vis_m": 9999,
      "fzfg": false,
      "metar_trigger": false,
      "taf_trigger": false,
      "metar": "METAR GCTS 250300Z 03006KT 9999 FEW040 15/08 Q1028 NOSIG",
      "taf": "TAF GCTS 250200Z 2503/2603 01007KT 9999 SCT040 TX22/2514Z TN14/2506Z"
    },
    {
      "icao": "GMAD",
      "alert": "OK",
      "vis_m": 9999,
      "fzfg": false,
      "metar_trigger": false,
      "taf_trigger": false,
      "metar": "METAR GMAD 250300Z 16006KT 9999 FEW020 09/07 Q1023 NOSIG",
      "taf": "TAF GMAD 241700Z 2418/2524 20010KT 8000 SCT020"
    },
    {
      "icao": "GMMN",
      "alert": "OK",
      "vis_m": 9999,
      "fzfg": false,
      "metar_trigger": false,
      "taf_trigger": false,
      "metar": "METAR GMMN 250300Z 22009KT 9999 SCT016TCU SCT030 09/08 Q1025 NOSIG",
      "taf": "TAF GMMN 242300Z 2500/2606 23005KT 8000 FEW010 BKN020TCU"
    },
    {
      "icao": "GMMX",
      "alert": "OK",
      "vis_m": 8000,
      "fzfg": false,
      "metar_trigger": false,
      "taf_trigger": false,
      "metar": "METAR GMMX 250300Z VRB01KT 8000 SCT010 SCT020 07/04 Q1025 NOSIG",
      "taf": "TAF GMMX 242300Z 2500/2606 20006KT 8000 SCT020"
    },
    {
      "icao": "HEGN",
      "alert": "OK",
      "vis_m": 9999,
      "fzfg": false,
      "metar_trigger": false,
      "taf_trigger": false,
      "metar": "METAR HEGN 250300Z 00000KT CAVOK 13/M00 Q1020 NOSIG",
      "taf": "TAF HEGN 242300Z 2500/2606 30010KT CAVOK"
    },
    {
      "icao": "HEMA",
      "alert": "OK",
      "vis_m": 9999,
      "fzfg": false,
      "metar_trigger": false,
      "taf_trigger": false,
      "metar": "METAR HEMA 250300Z 31014KT CAVOK 18/04 Q1019 NOSIG",
      "taf": "TAF HEMA 242300Z 2500/2606 31012KT CAVOK"
    },
    {
      "icao": "HESH",
      "alert": "OK",
      "vis_m": 9999,
      "fzfg": false,
      "metar_trigger": false,
      "taf_trigger": false,
      "metar": "METAR HESH 250300Z 31009KT CAVOK 17/01 Q1020 NOSIG",
      "taf": "TAF HESH 242300Z 2500/2606 35008KT CAVOK"
    },
    {
      "icao": "HESX",
      "alert": "OK",
      "vis_m": 9999,
      "fzfg": false,
      "metar_trigger": false,
      "taf_trigger": false,
      "metar": "METAR HESX 250300Z 14003KT CAVOK 09/04 Q1020 NOSIG",
      "taf": "TAF HESX 242300Z 2500/2606 14007KT CAVOK"
    },
    {
      "icao": "LATI",
      "alert": "OK",
      "vis_m": 9999,
      "fzfg": false,
      "metar_trigger": false,
      "taf_trigger": false,
      "metar": "METAR LATI 250320Z 14003KT 110V170 9999 SCT062 BKN120 10/07 Q1010 NOSIG",
      "taf": "TAF LATI 242300Z 2500/2524 17008KT 9999 FEW035 BKN080 TX18/2512Z TN08/2501Z"
    },
    {
      "icao": "LBPD",
      "alert": "OK",
      "vis_m": 9999,
      "fzfg": false,
      "metar_trigger": false,
      "taf_trigger": false,
      "metar": "METAR LBPD 250300Z AUTO 27003KT 210V330 9999 OVC009/// 03/03 Q1016",
      "taf": "TAF LBPD 242300Z 2500/2524 VRB04KT 0800 FG BKN003"
    },
    {
      "icao": "LBSF",
      "alert": "OK",
      "vis_m": 600,
      "fzfg": true,
      "metar_trigger": false,
      "taf_trigger": false,
      "metar": "METAR LBSF 250300Z AUTO VRB01KT 0600 R27/0700N FG VV002 M01/M01 Q1014 NOSIG",
      "taf": "TAF LBSF 242300Z 2500/2524 VRB04KT 0800 FZFG BKN002"
    },
    {
      "icao": "LBWN",
      "alert": "OK",
      "vis_m": 6000,
      "fzfg": false,
      "metar_trigger": false,
      "taf_trigger": false,
      "metar": "METAR LBWN 250300Z AUTO 12005KT 100V160 6000 OVC019/// 07/07 Q1014 NOSIG",
      "taf": "TAF LBWN 242300Z 2500/2524 VRB03KT 3000 BR BKN005 OVC008"
    },
    {
      "icao": "LCLK",
      "alert": "OK",
      "vis_m": 9999,
      "fzfg": false,
      "metar_trigger": false,
      "taf_trigger": false,
      "metar": "METAR LCLK 250300Z 30006KT CAVOK 10/09 Q1021 NOSIG",
      "taf": "TAF LCLK 242330Z 2500/2600 35008KT 9999 FEW030"
    },
    {
      "icao": "LCPH",
      "alert": "OK",
      "vis_m": 9999,
      "fzfg": false,
      "metar_trigger": false,
      "taf_trigger": false,
      "metar": "METAR LCPH 250300Z AUTO 07006KT 9999 NCD 10/07 Q1020 NOSIG",
      "taf": "TAF LCPH 242330Z 2500/2600 07008KT 9999 FEW030"
    },
    {
      "icao": "LEAL",
      "alert": "OK",
      "vis_m": 9999,
      "fzfg": false,
      "metar_trigger": false,
      "taf_trigger": false,
      "metar": "METAR LEAL 250300Z 28017KT 250V310 CAVOK 12/01 Q1009 NOSIG",
      "taf": "TAF LEAL 242300Z 2500/2524 28018KT CAVOK TX18/2513Z TN09/2506Z"
    },
    {
      "icao": "LEBB",
      "alert": "OK",
      "vis_m": 9999,
      "fzfg": false,
      "metar_trigger": false,
      "taf_trigger": false,
      "metar": "METAR LEBB 250300Z AUTO VRB12G28KT CAVOK 10/02 Q1002",
      "taf": "TAF LEBB 242300Z 2500/2524 21009KT 9999 SCT050 TX13/2511Z TN07/2515Z"
    },
    {
      "icao": "LEBL",
      "alert": "OK",
      "vis_m": 9999,
      "fzfg": false,
      "metar_trigger": false,
      "taf_trigger": false,
      "metar": "METAR LEBL 250300Z 31009KT 9999 FEW030 07/03 Q1002 NOSIG",
      "taf": ""
    },
    {
      "icao": "LECH",
      "alert": "OK",
      "vis_m": 9999,
      "fzfg": false,
      "metar_trigger": false,
      "taf_trigger": false,
      "metar": "METAR LECH 250300Z AUTO 21004KT 170V260 CAVOK 08/M02 Q1005",
      "taf": ""
    },
    {
      "icao": "LEMD",
      "alert": "OK",
      "vis_m": 9999,
      "fzfg": false,
      "metar_trigger": false,
      "taf_trigger": false,
      "metar": "METAR LEMD 250300Z 21009KT 9999 FEW050 04/02 Q1009 WS ALL RWY NOSIG",
      "taf": "TAF LEMD 242300Z 2500/2606 23010KT 9999 FEW030 TX10/2516Z TN02/2504Z"
    },
    {
      "icao": "LEMG",
      "alert": "OK",
      "vis_m": 9999,
      "fzfg": false,
      "metar_trigger": false,
      "taf_trigger": false,
      "metar": "METAR LEMG 250300Z 29011KT 260V320 9999 FEW055 10/03 Q1017 NOSIG",
      "taf": "TAF LEMG 242300Z 2500/2524 29010KT CAVOK TX16/2514Z TN10/2507Z"
    },
    {
      "icao": "LEVC",
      "alert": "OK",
      "vis_m": 9999,
      "fzfg": false,
      "metar_trigger": false,
      "taf_trigger": false,
      "metar": "METAR LEVC 250300Z 24016KT CAVOK 09/02 Q1008 NOSIG",
      "taf": "TAF LEVC 242300Z 2500/2524 27018KT CAVOK TX17/2513Z TN08/2506Z"
    },
    {
      "icao": "LEXJ",
      "alert": "OK",
      "vis_m": 9000,
      "fzfg": false,
      "metar_trigger": false,
      "taf_trigger": false,
      "metar": "METAR LEXJ 250300Z AUTO 21011G24KT 150V250 9000 FEW076 10/01 Q1001",
      "taf": "TAF LEXJ 250200Z 2503/2603 20009KT 9999 BKN050 TX12/2514Z TN07/2603Z"
    },
    {
      "icao": "LEZG",
      "alert": "OK",
      "vis_m": 9999,
      "fzfg": false,
      "metar_trigger": false,
      "taf_trigger": false,
      "metar": "METAR LEZG 250300Z 25006KT 9999 FEW060 05/02 Q1006 NOSIG",
      "taf": "TAF LEZG 242300Z 2500/2524 26015KT 9999 FEW050 TX14/2513Z TN06/2506Z"
    },
    {
      "icao": "LEZL",
      "alert": "OK",
      "vis_m": 7000,
      "fzfg": false,
      "metar_trigger": false,
      "taf_trigger": false,
      "metar": "METAR LEZL 250300Z AUTO 24006KT 210V280 7000 FEW043 11/07 Q1018",
      "taf": "TAF LEZL 250200Z 2503/2603 24010KT CAVOK TX18/2515Z TN09/2507Z"
    },
    {
      "icao": "LFBD",
      "alert": "OK",
      "vis_m": 9999,
      "fzfg": false,
      "metar_trigger": false,
      "taf_trigger": false,
      "metar": "METAR LFBD 250300Z AUTO 19009KT 9999 -RA FEW028/// BKN048/// BKN058/// ///CB 07/06 Q1000 TEMPO 23015G25KT 4000 SHRA",
      "taf": "TAF LFBD 242300Z 2500/2606 22005KT 9999 BKN030 TX09/2512Z TN05/2502Z"
    },
    {
      "icao": "LFLL",
      "alert": "OK",
      "vis_m": 3400,
      "fzfg": false,
      "metar_trigger": false,
      "taf_trigger": false,
      "metar": "METAR LFLL 250300Z 23002KT 3400 -RA BR BKN002 BKN050 02/02 Q1000 TEMPO 0800 FG OVC001",
      "taf": ""
    },
    {
      "icao": "LFLS",
      "alert": "OK",
      "vis_m": 4700,
      "fzfg": false,
      "metar_trigger": false,
      "taf_trigger": false,
      "metar": "METAR LFLS 250300Z AUTO 08003KT 4700 -RA BR BKN036 BKN052 BKN068 02/02 Q1000 TEMPO BKN008 BKN030",
      "taf": "TAF LFLS 250200Z 2503/2603 VRB04KT 9999 SCT020 BKN040"
    },
    {
      "icao": "LFMN",
      "alert": "OK",
      "vis_m": 9999,
      "fzfg": false,
      "metar_trigger": false,
      "taf_trigger": false,
      "metar": "METAR LFMN 250300Z 02012KT 9999 SCT040 FEW046TCU BKN150 07/04 Q0999 TEMPO 4000 SHRA",
      "taf": "TAF LFMN 250200Z 2503/2609 34010KT 9999 BKN060"
    },
    {
      "icao": "LFOB",
      "alert": "OK",
      "vis_m": 9999,
      "fzfg": false,
      "metar_trigger": false,
      "taf_trigger": false,
      "metar": "METAR LFOB 250300Z AUTO 11007KT 9999 FEW011 OVC050 03/03 Q0996 TEMPO 4000 -DZ OVC004",
      "taf": "TAF LFOB 242300Z 2500/2524 13007KT 9999 BKN040"
    },
    {
      "icao": "LFPO",
      "alert": "OK",
      "vis_m": 9999,
      "fzfg": false,
      "metar_trigger": false,
      "taf_trigger": false,
      "metar": "METAR LFPO 250300Z AUTO 17006KT 9999 BKN008 BKN013 BKN054 04/02 Q0997 TEMPO 3000 BR BKN004",
      "taf": "TAF LFPO 242300Z 2500/2606 16004KT 9999 BKN040"
    },
    {
      "icao": "LFSB",
      "alert": "OK",
      "vis_m": 5000,
      "fzfg": true,
      "metar_trigger": false,
      "taf_trigger": false,
      "metar": "METAR LFSB 250300Z AUTO 32001KT 5000 BR BKN005 OVC018 02/01 Q1000 TEMPO 0300 FZFG VV///",
      "taf": "TAF LFSB 242300Z 2500/2524 VRB03KT 3000 BR OVC005"
    },
    {
      "icao": "LGAV",
      "alert": "OK",
      "vis_m": 9000,
      "fzfg": false,
      "metar_trigger": false,
      "taf_trigger": false,
      "metar": "METAR LGAV 250250Z 01003KT 9000 R21R/1100V1500D R21L/1500N FEW015 07/06 Q1016 NOSIG",
      "taf": "TAF LGAV 242300Z 2500/2524 20012KT 9999 FEW015 SCT020"
    },
    {
      "icao": "LGTS",
      "alert": "OK",
      "vis_m": 7000,
      "fzfg": false,
      "metar_trigger": false,
      "taf_trigger": false,
      "metar": "METAR LGTS 250250Z 00000KT 7000 SCT007 BKN025 09/09 Q1015 NOSIG",
      "taf": "TAF LGTS 242300Z 2500/2524 VRB03KT 9999 FEW010 BKN025"
    },
    {
      "icao": "LHBP",
      "alert": "OK",
      "vis_m": 6000,
      "fzfg": false,
      "metar_trigger": false,
      "taf_trigger": false,
      "metar": "METAR LHBP 250300Z 02003KT 340V040 6000 NSC 02/01 Q1008 NOSIG",
      "taf": "TAF LHBP 242315Z 2500/2524 06006KT 5000 BR SCT020 BKN050"
    },
    {
      "icao": "LHDC",
      "alert": "OK",
      "vis_m": 4000,
      "fzfg": false,
      "metar_trigger": false,
      "taf_trigger": false,
      "metar": "METAR LHDC 250245Z AUTO 07004KT 4000 BR NSC 01/01 Q1009",
      "taf": ""
    },
    {
      "icao": "LIBD",
      "alert": "OK",
      "vis_m": 9999,
      "fzfg": false,
      "metar_trigger": false,
      "taf_trigger": false,
      "metar": "METAR LIBD 250250Z 16011KT CAVOK 15/11 Q1004",
      "taf": "TAF LIBD 242300Z 2500/2524 15012KT 9999 SCT020"
    },
    {
      "icao": "LIBG",
      "alert": "OK",
      "vis_m": null,
      "fzfg": false,
      "metar_trigger": false,
      "taf_trigger": false,
      "metar": "",
      "taf": "TAF LIBG 241700Z 2418/2503 15006KT 7000 SCT012"
    },
    {
      "icao": "LIBP",
      "alert": "OK",
      "vis_m": 2200,
      "fzfg": false,
      "metar_trigger": false,
      "taf_trigger": false,
      "metar": "METAR LIBP 250250Z AUTO VRB02KT 2200 BR OVC002/// 08/08 Q1001",
      "taf": ""
    },
    {
      "icao": "LIBR",
      "alert": "OK",
      "vis_m": 9999,
      "fzfg": false,
      "metar_trigger": false,
      "taf_trigger": false,
      "metar": "METAR LIBR 250250Z 15010KT 9999 BKN020 15/12 Q1006",
      "taf": "TAF LIBR 242300Z 2500/2524 15016KT 9999 SCT020"
    },
    {
      "icao": "LICA",
      "alert": "OK",
      "vis_m": 9999,
      "fzfg": false,
      "metar_trigger": false,
      "taf_trigger": false,
      "metar": "METAR LICA 250250Z AUTO 07018KT 9999 BKN120/// 16/12 Q1005",
      "taf": ""
    },
    {
      "icao": "LICC",
      "alert": "OK",
      "vis_m": 9999,
      "fzfg": false,
      "metar_trigger": false,
      "taf_trigger": false,
      "metar": "METAR LICC 250250Z 05006KT CAVOK 15/12 Q1003",
      "taf": "TAF LICC 242300Z 2500/2524 VRB06KT 9999 SCT030"
    },
    {
      "icao": "LICJ",
      "alert": "OK",
      "vis_m": 9999,
      "fzfg": false,
      "metar_trigger": false,
      "taf_trigger": false,
      "metar": "METAR LICJ 250250Z 26014KT 9999 SCT030 13/10 Q1003",
      "taf": "TAF LICJ 242300Z 2500/2524 22010KT 9999 SCT030"
    },
    {
      "icao": "LIMC",
      "alert": "OK",
      "vis_m": 5000,
      "fzfg": false,
      "metar_trigger": false,
      "taf_trigger": false,
      "metar": "METAR LIMC 250250Z 02007KT 5000 RA BKN010 04/04 Q1001 NOSIG",
      "taf": "TAF LIMC 242300Z 2500/2606 VRB05KT 4000 RA BKN012"
    },
    {
      "icao": "LIME",
      "alert": "OK",
      "vis_m": 9999,
      "fzfg": false,
      "metar_trigger": false,
      "taf_trigger": false,
      "metar": "METAR LIME 250220Z 06014KT 9999 -RA BKN020 06/06 Q1000 RERA NOSIG",
      "taf": ""
    },
    {
      "icao": "LIMF",
      "alert": "OK",
      "vis_m": 7000,
      "fzfg": false,
      "metar_trigger": false,
      "taf_trigger": false,
      "metar": "METAR LIMF 250250Z 31007KT 7000 -RA SCT012 SCT030 04/02 Q1001",
      "taf": "TAF LIMF 242300Z 2500/2524 VRB03KT 4000 RA SCT020 BKN040"
    },
    {
      "icao": "LIMJ",
      "alert": "OK",
      "vis_m": 9999,
      "fzfg": false,
      "metar_trigger": false,
      "taf_trigger": false,
      "metar": "METAR LIMJ 250250Z 01006KT 310V050 CAVOK 06/02 Q1000",
      "taf": "TAF LIMJ 242300Z 2500/2524 03012KT 9999 SCT030"
    },
    {
      "icao": "LIPE",
      "alert": "OK",
      "vis_m": 1600,
      "fzfg": false,
      "metar_trigger": false,
      "taf_trigger": false,
      "metar": "METAR LIPE 250220Z VRB02KT 1600 -RA BKN005 SCT045 05/05 Q1001 RERA",
      "taf": "TAF LIPE 242300Z 2500/2524 VRB05KT 2000 -RA BR BKN004"
    },
    {
      "icao": "LIPH",
      "alert": "OK",
      "vis_m": 8000,
      "fzfg": false,
      "metar_trigger": false,
      "taf_trigger": false,
      "metar": "METAR LIPH 250250Z AUTO 04004KT 8000 RA OVC005/// 07/07 Q1002",
      "taf": "TAF LIPH 242300Z 2500/2524 VRB05KT 4000 RA BKN010"
    },
    {
      "icao": "LIPQ",
      "alert": "OK",
      "vis_m": 9999,
      "fzfg": false,
      "metar_trigger": false,
      "taf_trigger": false,
      "metar": "METAR LIPQ 250250Z AUTO 02005KT 9999 -RA BKN018/// OVC045/// 08/07 Q1002 RERA",
      "taf": "TAF LIPQ 242300Z 2500/2524 08007KT 9999 BKN020"
    },
    {
      "icao": "LIPR",
      "alert": "OK",
      "vis_m": 3700,
      "fzfg": false,
      "metar_trigger": false,
      "taf_trigger": false,
      "metar": "METAR LIPR 250250Z AUTO 23003KT 130V280 3700 -RA BR OVC051/// 07/07 Q1001",
      "taf": "TAF LIPR 242300Z 2500/2524 VRB05KT 2000 RA BKN004"
    },
    {
      "icao": "LIPX",
      "alert": "OK",
      "vis_m": 3000,
      "fzfg": false,
      "metar_trigger": false,
      "taf_trigger": false,
      "metar": "METAR LIPX 250250Z 16002KT 3000 RA BR BKN004 06/06 Q1001",
      "taf": "TAF LIPX 242300Z 2500/2524 09007KT 7000 BKN040"
    },
    {
      "icao": "LIPY",
      "alert": "OK",
      "vis_m": 2600,
      "fzfg": false,
      "metar_trigger": false,
      "taf_trigger": false,
      "metar": "METAR LIPY 250250Z AUTO VRB01KT 2600 -RA BR FEW005/// SCT014/// OVC066/// 09/08 Q1001",
      "taf": "TAF LIPY 242300Z 2500/2524 VRB05KT 2000 BR BKN010"
    },
    {
      "icao": "LIPZ",
      "alert": "OK",
      "vis_m": 4000,
      "fzfg": false,
      "metar_trigger": false,
      "taf_trigger": false,
      "metar": "METAR LIPZ 250250Z 05008KT 4000 -RA BR BKN003 07/07 Q1002 NOSIG",
      "taf": "TAF LIPZ 242300Z 2500/2606 04008KT 4000 RA BKN004"
    },
    {
      "icao": "LIRF",
      "alert": "OK",
      "vis_m": 9999,
      "fzfg": false,
      "metar_trigger": false,
      "taf_trigger": false,
      "metar": "METAR LIRF 250250Z 29009KT 9999 -RA SCT050 10/08 Q1001 RERA NOSIG",
      "taf": ""
    },
    {
      "icao": "LIRN",
      "alert": "OK",
      "vis_m": 9999,
      "fzfg": false,
      "metar_trigger": false,
      "taf_trigger": false,
      "metar": "METAR LIRN 250250Z AUTO 17008KT 120V240 9999 OVC063/// 15/11 Q1001",
      "taf": "TAF LIRN 242300Z 2500/2524 19008KT 9999 SCT030"
    },
    {
      "icao": "LIRP",
      "alert": "OK",
      "vis_m": 9999,
      "fzfg": false,
      "metar_trigger": false,
      "taf_trigger": false,
      "metar": "METAR LIRP 250245Z VRB02KT 9999 -RA SCT025 SCT040 BKN060 10/09 Q1000 NOSIG",
      "taf": "TAF LIRP 242300Z 2500/2524 12006KT 9999 SCT015 BKN030"
    },
    {
      "icao": "LIRZ",
      "alert": "OK",
      "vis_m": 7000,
      "fzfg": false,
      "metar_trigger": false,
      "taf_trigger": false,
      "metar": "METAR LIRZ 250250Z AUTO 17002KT 7000 RA BKN020/// 08/08 Q1001",
      "taf": "TAF LIRZ 242300Z 2500/2524 VRB05KT 9999 BKN030"
    },
    {
      "icao": "LJLJ",
      "alert": "OK",
      "vis_m": 600,
      "fzfg": false,
      "metar_trigger": false,
      "taf_trigger": false,
      "metar": "METAR LJLJ 250300Z VRB01KT 0600 R30/P2000N FG FEW001 BKN004 OVC027 01/01 Q1003 NOSIG",
      "taf": "TAF LJLJ 242300Z 2500/2600 VRB02KT 6000 FEW001 OVC030"
    },
    {
      "icao": "LKMT",
      "alert": "OK",
      "vis_m": 1500,
      "fzfg": false,
      "metar_trigger": false,
      "taf_trigger": false,
      "metar": "METAR LKMT 250300Z 02004KT 1500 -FZDZ BR OVC004 M01/M01 Q1006 NOSIG",
      "taf": "TAF LKMT 242300Z 2500/2524 02004KT 1600 BR OVC006"
    },
    {
      "icao": "LKPR",
      "alert": "OK",
      "vis_m": 2500,
      "fzfg": false,
      "metar_trigger": false,
      "taf_trigger": false,
      "metar": "METAR LKPR 250300Z 31002KT 2500 -SG BR SCT002 BKN003 OVC008 M03/M03 Q1003 NOSIG",
      "taf": "TAF LKPR 250200Z 2503/2609 VRB02KT 5000 BR OVC012"
    },
    {
      "icao": "LLBG",
      "alert": "OK",
      "vis_m": 9999,
      "fzfg": false,
      "metar_trigger": false,
      "taf_trigger": false,
      "metar": "METAR LLBG 250250Z VRB02KT CAVOK 09/06 Q1021 NOSIG",
      "taf": "TAF LLBG 242318Z 2500/2524 VRB04KT CAVOK"
    },
    {
      "icao": "LMML",
      "alert": "OK",
      "vis_m": 9999,
      "fzfg": false,
      "metar_trigger": false,
      "taf_trigger": false,
      "metar": "METAR LMML 250315Z AUTO 20009KT CAVOK 17/13 Q1002 NOSIG",
      "taf": "TAF LMML 242300Z 2500/2524 17018KT CAVOK"
    },
    {
      "icao": "LOWW",
      "alert": "OK",
      "vis_m": 2000,
      "fzfg": false,
      "metar_trigger": false,
      "taf_trigger": false,
      "metar": "METAR LOWW 250250Z 13010KT 2000 BR FEW001 OVC003 01/00 Q1003 BECMG 1400 BR BKN002",
      "taf": "TAF LOWW 250215Z 2503/2609 14010KT 3000 BR OVC005 TX02/2521Z TN00/2607Z"
    },
    {
      "icao": "LPFR",
      "alert": "OK",
      "vis_m": 9999,
      "fzfg": false,
      "metar_trigger": false,
      "taf_trigger": false,
      "metar": "METAR LPFR 250300Z 25017KT 9999 FEW015 SCT027 14/11 Q1019",
      "taf": ""
    },
    {
      "icao": "LPMA",
      "alert": "OK",
      "vis_m": 9999,
      "fzfg": false,
      "metar_trigger": false,
      "taf_trigger": false,
      "metar": "METAR LPMA 250300Z 26006KT 9999 FEW016 14/08 Q1026",
      "taf": "TAF LPMA 242300Z 2500/2524 VRB05KT 9999 SCT015"
    },
    {
      "icao": "LPPR",
      "alert": "OK",
      "vis_m": 5000,
      "fzfg": false,
      "metar_trigger": false,
      "taf_trigger": false,
      "metar": "METAR LPPR 250300Z 28006KT 230V310 5000 SHRA BR FEW015 FEW018CB BKN023 13/11 Q1010",
      "taf": "TAF LPPR 242300Z 2500/2524 24012KT 9999 SCT008 BKN018"
    },
    {
      "icao": "LPPS",
      "alert": "OK",
      "vis_m": 9999,
      "fzfg": false,
      "metar_trigger": false,
      "taf_trigger": false,
      "metar": "METAR LPPS 250300Z 27009KT 9999 FEW015 16/11 Q1026",
      "taf": "TAF LPPS 242300Z 2500/2606 29010KT 9999 SCT015"
    },
    {
      "icao": "LPPT",
      "alert": "OK",
      "vis_m": 9000,
      "fzfg": false,
      "metar_trigger": false,
      "taf_trigger": false,
      "metar": "METAR LPPT 250300Z 24012KT 220V280 9000 -RA SCT016 BKN020 13/11 Q1015",
      "taf": "TAF LPPT 242300Z 2500/2606 26012KT 9999 SCT012 BKN025"
    },
    {
      "icao": "LQBK",
      "alert": "OK",
      "vis_m": 2000,
      "fzfg": false,
      "metar_trigger": false,
      "taf_trigger": false,
      "metar": "METAR LQBK 250300Z VRB02KT 2000 BR NSC 00/00 Q1005 NOSIG",
      "taf": "TAF LQBK 242300Z 2500/2524 VRB02KT 2000 BR SCT040 TX09/2513Z TNM01/2505Z"
    },
    {
      "icao": "LQSA",
      "alert": "OK",
      "vis_m": 5000,
      "fzfg": false,
      "metar_trigger": false,
      "taf_trigger": false,
      "metar": "METAR LQSA 250300Z 09003KT 020V190 5000 -RA BR FEW030 BKN050 02/02 Q1006",
      "taf": "TAF LQSA 242300Z 2500/2524 11006KT 9999 BKN055 TX12/2513Z TN04/2506Z"
    },
    {
      "icao": "LQTZ",
      "alert": "OK",
      "vis_m": 1700,
      "fzfg": false,
      "metar_trigger": false,
      "taf_trigger": false,
      "metar": "METAR LQTZ 250300Z VRB02KT 1700 R09/1400U BR SCT066 M00/M00 Q1006",
      "taf": ""
    },
    {
      "icao": "LRBC",
      "alert": "OK",
      "vis_m": 5000,
      "fzfg": false,
      "metar_trigger": false,
      "taf_trigger": false,
      "metar": "METAR LRBC 250300Z 17006KT 5000 BR OVC002 M01/M01 Q1013",
      "taf": "TAF LRBC 250200Z 2503/2512 16010KT 1500 BR OVC002"
    },
    {
      "icao": "LRBS",
      "alert": "OK",
      "vis_m": 1200,
      "fzfg": false,
      "metar_trigger": false,
      "taf_trigger": false,
      "metar": "METAR LRBS 250300Z 26002KT 1200 R07/2000N BR OVC002 00/M00 Q1015 NOSIG",
      "taf": "TAF LRBS 242300Z 2500/2524 24006KT 1500 BR OVC002"
    },
    {
      "icao": "LRBV",
      "alert": "OK",
      "vis_m": 7000,
      "fzfg": false,
      "metar_trigger": false,
      "taf_trigger": false,
      "metar": "METAR LRBV 250300Z AUTO 17005KT 7000 OVC100/// M01/M02 Q1011",
      "taf": "TAF LRBV 250200Z 2503/2512 VRB04KT 5000 BR BKN005"
    },
    {
      "icao": "LRCL",
      "alert": "OK",
      "vis_m": 500,
      "fzfg": true,
      "metar_trigger": false,
      "taf_trigger": false,
      "metar": "METAR LRCL 250300Z 00000KT 0500 R25/0375N FZFG VV003 M03/M04 Q1011",
      "taf": "TAF LRCL 250200Z 2503/2512 VRB04KT 0800 FZFG BKN005"
    },
    {
      "icao": "LRCV",
      "alert": "OK",
      "vis_m": 350,
      "fzfg": true,
      "metar_trigger": false,
      "taf_trigger": false,
      "metar": "METAR LRCV 250300Z 17002KT 0350 R26/0400N FZFG VV002 M01/M01 Q1014",
      "taf": "TAF LRCV 250200Z 2503/2512 VRB04KT 0600 FZFG OVC002"
    },
    {
      "icao": "LRIA",
      "alert": "OK",
      "vis_m": 2000,
      "fzfg": false,
      "metar_trigger": false,
      "taf_trigger": false,
      "metar": "METAR LRIA 250300Z 11011KT 2000 BR OVC001 M01/M02 Q1014",
      "taf": "TAF LRIA 250200Z 2503/2512 12012KT 1500 BR OVC001"
    },
    {
      "icao": "LROP",
      "alert": "OK",
      "vis_m": 3000,
      "fzfg": false,
      "metar_trigger": false,
      "taf_trigger": false,
      "metar": "METAR LROP 250300Z 25004KT 3000 -DZ BR SCT002 OVC003 00/00 Q1015 NOSIG",
      "taf": "TAF LROP 242300Z 2500/2524 24006KT 1500 BR OVC002"
    },
    {
      "icao": "LRSB",
      "alert": "OK",
      "vis_m": 9999,
      "fzfg": false,
      "metar_trigger": false,
      "taf_trigger": false,
      "metar": "METAR LRSB 250300Z 30003KT 9999 BKN070 01/00 Q1010",
      "taf": "TAF LRSB 242300Z 2500/2524 VRB04KT 3000 BR NSC"
    },
    {
      "icao": "LRSM",
      "alert": "OK",
      "vis_m": 5000,
      "fzfg": false,
      "metar_trigger": false,
      "taf_trigger": false,
      "metar": "METAR LRSM 250300Z AUTO 10003KT 5000 BR BKN110/// OVC130/// 00/M01 Q1010",
      "taf": "TAF LRSM 250200Z 2503/2512 VRB04KT 5000 BR BKN010"
    },
    {
      "icao": "LRSV",
      "alert": "OK",
      "vis_m": 400,
      "fzfg": true,
      "metar_trigger": false,
      "taf_trigger": false,
      "metar": "METAR LRSV 250300Z 13007KT 0400 R34/1000U FZFG VV002 M02/M02 Q1010",
      "taf": ""
    },
    {
      "icao": "LRTM",
      "alert": "OK",
      "vis_m": 2500,
      "fzfg": false,
      "metar_trigger": false,
      "taf_trigger": false,
      "metar": "METAR LRTM 250300Z AUTO 05003KT 010V080 2500 BR NCD M03/M03 Q1010",
      "taf": "TAF LRTM 250200Z 2503/2512 VRB04KT 1500 BR OVC002"
    },
    {
      "icao": "LRTR",
      "alert": "OK",
      "vis_m": 9999,
      "fzfg": false,
      "metar_trigger": false,
      "taf_trigger": false,
      "metar": "METAR LRTR 250300Z 10008KT CAVOK 02/01 Q1009",
      "taf": "TAF LRTR 242300Z 2500/2524 08006KT 9999 BKN045"
    },
    {
      "icao": "LTAC",
      "alert": "OK",
      "vis_m": 500,
      "fzfg": false,
      "metar_trigger": false,
      "taf_trigger": false,
      "metar": "METAR LTAC 250250Z 35004KT 310V100 0500 R03C/0800U R21C/0800U R03L/0700U R03R/0800U -RA FG FEW007 BKN030 BKN080 03/02 Q1019 BECMG VV002",
      "taf": ""
    },
    {
      "icao": "LTFM",
      "alert": "OK",
      "vis_m": 2500,
      "fzfg": false,
      "metar_trigger": false,
      "taf_trigger": false,
      "metar": "METAR LTFM 250250Z 19008KT 2500 BR SCT010 BKN028 06/06 Q1016 NOSIG",
      "taf": "TAF LTFM 242240Z 2500/2606 18004KT 3500 BR SCT012 BKN025"
    },
    {
      "icao": "LUKK",
      "alert": "OK",
      "vis_m": 2600,
      "fzfg": true,
      "metar_trigger": false,
      "taf_trigger": false,
      "metar": "METAR LUKK 250300Z 10007KT 2600 -FZDZ BR OVC001 M03/M03 Q1016 TEMPO 0800 -FZDZ FZFG",
      "taf": "TAF LUKK 242323Z 2500/2524 12008KT 1000 FZDZ BR OVC001"
    },
    {
      "icao": "LWOH",
      "alert": "OK",
      "vis_m": null,
      "fzfg": false,
      "metar_trigger": false,
      "taf_trigger": false,
      "metar": "",
      "taf": "TAF LWOH 250225Z 2503/2603 VRB02KT 9999 SCT015 OVC030"
    },
    {
      "icao": "LWSK",
      "alert": "OK",
      "vis_m": 4000,
      "fzfg": false,
      "metar_trigger": false,
      "taf_trigger": false,
      "metar": "METAR LWSK 250320Z 00000KT 4000 BR OVC023 04/03 Q1015 NOSIG",
      "taf": "TAF LWSK 250225Z 2503/2603 VRB02KT 4000 BR OVC025"
    },
    {
      "icao": "LYBE",
      "alert": "OK",
      "vis_m": 9999,
      "fzfg": false,
      "metar_trigger": false,
      "taf_trigger": false,
      "metar": "METAR LYBE 250300Z 12005KT CAVOK 05/02 Q1008 NOSIG",
      "taf": "TAF LYBE 242300Z 2500/2524 13012KT CAVOK TX13/2513Z TN04/2503Z"
    },
    {
      "icao": "LYNI",
      "alert": "OK",
      "vis_m": 9999,
      "fzfg": false,
      "metar_trigger": false,
      "taf_trigger": false,
      "metar": "METAR LYNI 250300Z 10004KT 080V170 CAVOK 05/03 Q1012 NOSIG",
      "taf": "TAF LYNI 242300Z 2500/2524 10006KT 9999 SCT080 TX12/2513Z TN03/2505Z"
    },
    {
      "icao": "LYPG",
      "alert": "OK",
      "vis_m": 9999,
      "fzfg": false,
      "metar_trigger": false,
      "taf_trigger": false,
      "metar": "METAR LYPG 250300Z 11007KT 9999 -RA FEW026 SCT040 OVC070 11/10 Q1009 NOSIG",
      "taf": "TAF LYPG 242300Z 2500/2524 36005KT 9999 FEW010 BKN040 OVC070 TX13/2513Z TN08/2505Z"
    },
    {
      "icao": "LZIB",
      "alert": "OK",
      "vis_m": 4000,
      "fzfg": false,
      "metar_trigger": false,
      "taf_trigger": false,
      "metar": "METAR LZIB 250300Z 04006KT 4000 BR SCT003 OVC005 02/01 Q1005 TEMPO OVC002",
      "taf": "TAF LZIB 242315Z 2500/2600 05007KT 3500 BR SCT004 OVC013"
    },
    {
      "icao": "LZKZ",
      "alert": "OK",
      "vis_m": 5000,
      "fzfg": false,
      "metar_trigger": false,
      "taf_trigger": false,
      "metar": "METAR LZKZ 250300Z 32002KT 5000 BR NSC 01/01 Q1009 NOSIG",
      "taf": "TAF LZKZ 242315Z 2500/2600 23005KT 2500 BR SCT003 OVC015"
    },
    {
      "icao": "LZTT",
      "alert": "OK",
      "vis_m": 9999,
      "fzfg": false,
      "metar_trigger": false,
      "taf_trigger": false,
      "metar": "METAR LZTT 250300Z 18005KT 150V220 9999 -RA BKN030 OVC044 01/01 Q1006",
      "taf": "TAF LZTT 242315Z 2500/2600 15004KT 5000 BR SCT005 BKN030"
    },
    {
      "icao": "OEJN",
      "alert": "OK",
      "vis_m": 9999,
      "fzfg": false,
      "metar_trigger": false,
      "taf_trigger": false,
      "metar": "METAR OEJN 250300Z 36006KT 9999 FEW040 23/12 Q1015 NOSIG",
      "taf": "TAF OEJN 242300Z 2500/2606 36010KT 7000 SCT040"
    },
    {
      "icao": "OEMA",
      "alert": "OK",
      "vis_m": 7000,
      "fzfg": false,
      "metar_trigger": false,
      "taf_trigger": false,
      "metar": "METAR OEMA 250300Z 03008KT 7000 NSC 15/02 Q1021 NOSIG",
      "taf": "TAF OEMA 242300Z 2500/2606 VRB03KT 7000 NSC"
    },
    {
      "icao": "OJAI",
      "alert": "OK",
      "vis_m": 3000,
      "fzfg": false,
      "metar_trigger": false,
      "taf_trigger": false,
      "metar": "METAR OJAI 250300Z 02002KT 3000 BR NSC 02/01 Q1023 NOSIG",
      "taf": "TAF OJAI 242203Z 2500/2606 VRB02KT 3000 BR FEW030"
    },
    {
      "icao": "OMAA",
      "alert": "OK",
      "vis_m": 9999,
      "fzfg": false,
      "metar_trigger": false,
      "taf_trigger": false,
      "metar": "METAR OMAA 250300Z 13005KT CAVOK 16/02 Q1015 NOSIG",
      "taf": "TAF OMAA 242300Z 2500/2606 16010KT 8000 NSC"
    },
    {
      "icao": "OMDB",
      "alert": "OK",
      "vis_m": 9999,
      "fzfg": false,
      "metar_trigger": false,
      "taf_trigger": false,
      "metar": "METAR OMDB 250300Z 12006KT CAVOK 19/11 Q1016 NOSIG",
      "taf": "TAF OMDB 242300Z 2500/2606 10005KT 8000 NSC"
    },
    {
      "icao": "UAAA",
      "alert": "OK",
      "vis_m": 5000,
      "fzfg": false,
      "metar_trigger": false,
      "taf_trigger": false,
      "metar": "METAR UAAA 250300Z 05003MPS 5000 BR FU SCT050 OVC100 M07/M10 Q1019 NOSIG",
      "taf": "TAF UAAA 242301Z 2500/2524 23003MPS 3100 BR FU SCT011 BKN020 TXM01/2508Z TNM09/2502Z"
    },
    {
      "icao": "UBBB",
      "alert": "OK",
      "vis_m": 9999,
      "fzfg": false,
      "metar_trigger": false,
      "taf_trigger": false,
      "metar": "METAR UBBB 250300Z 31008KT 9999 BKN005 OVC022 04/03 Q1019 NOSIG",
      "taf": "TAF UBBB 242304Z 2500/2524 32006KT 9999 SCT012 BKN025 TX08/2510Z TN02/2501Z"
    },
    {
      "icao": "UDSG",
      "alert": "OK",
      "vis_m": 2100,
      "fzfg": false,
      "metar_trigger": false,
      "taf_trigger": false,
      "metar": "METAR UDSG 250300Z 00000KT 2100 BR SCT006 OVC020 M11/M11 Q1020 NOSIG",
      "taf": "TAF UDSG 242258Z 2500/2524 VRB06KT 2000 BR BKN030"
    },
    {
      "icao": "UDYZ",
      "alert": "OK",
      "vis_m": 2300,
      "fzfg": false,
      "metar_trigger": false,
      "taf_trigger": false,
      "metar": "METAR UDYZ 250300Z 03004KT 2300 BR BKN006 M04/M05 Q1023 NOSIG",
      "taf": "TAF UDYZ 242300Z 2500/2524 VRB04KT 1200 BR SCT020"
    },
    {
      "icao": "UGKO",
      "alert": "OK",
      "vis_m": 9999,
      "fzfg": false,
      "metar_trigger": false,
      "taf_trigger": false,
      "metar": "METAR UGKO 250300Z 08007KT 9999 SCT027 BKN049 05/04 Q1018 NOSIG",
      "taf": "TAF UGKO 242300Z 2500/2524 09007KT 9999 SCT020 OVC040 TX09/2511Z TN05/2504Z"
    }
  ]
}