{
  "ts_utc": "2026-06-14T12:26:26Z",
  "threshold_m": 150,
  "source": "stations_override.txt (ICAO list) + aviationweather.gov (METAR/TAF raw)",
  "station_count": 159,
  "stations": [
    {
      "icao": "BIKF",
      "alert": "OK",
      "vis_m": 9999,
      "fzfg": false,
      "metar_trigger": false,
      "taf_trigger": false,
      "metar": "METAR BIKF 141200Z 28008KT 240V320 9999 SCT017 13/09 Q1025",
      "taf": "TAF BIKF 141057Z 1412/1512 12005KT 9999 SCT020 TX14/1415Z TN08/1504Z"
    },
    {
      "icao": "BKPR",
      "alert": "OK",
      "vis_m": null,
      "fzfg": false,
      "metar_trigger": false,
      "taf_trigger": false,
      "metar": "",
      "taf": "TAF BKPR 141130Z 1412/1512 24008KT CAVOK"
    },
    {
      "icao": "EBCI",
      "alert": "OK",
      "vis_m": 9999,
      "fzfg": false,
      "metar_trigger": false,
      "taf_trigger": false,
      "metar": "METAR EBCI 141220Z 30006KT 250V360 9999 FEW035 16/08 Q1019 NOSIG",
      "taf": "TAF EBCI 141101Z 1412/1518 32010KT 9999 SCT045"
    },
    {
      "icao": "EDDB",
      "alert": "OK",
      "vis_m": 9999,
      "fzfg": false,
      "metar_trigger": false,
      "taf_trigger": false,
      "metar": "METAR EDDB 141220Z AUTO 28016KT 9999 -SHRA SCT038 BKN049 FEW///TCU 17/08 Q1008 TEMPO 28020G30KT TSRA BKN040CB",
      "taf": "TAF EDDB 141100Z 1412/1512 26015KT 9999 SCT035"
    },
    {
      "icao": "EDDH",
      "alert": "OK",
      "vis_m": 9999,
      "fzfg": false,
      "metar_trigger": false,
      "taf_trigger": false,
      "metar": "METAR EDDH 141220Z AUTO 29019G31KT 260V330 9999 SCT031 SCT040 16/09 Q1010 TEMPO 29015KT",
      "taf": "TAF EDDH 141100Z 1412/1518 29015G25KT 9999 BKN025"
    },
    {
      "icao": "EDDK",
      "alert": "OK",
      "vis_m": 9999,
      "fzfg": false,
      "metar_trigger": false,
      "taf_trigger": false,
      "metar": "METAR EDDK 141220Z AUTO 29016KT 260V320 9999 SCT039 17/09 Q1017 TEMPO 29015G25KT",
      "taf": "TAF EDDK 141100Z 1412/1518 30013KT 9999 SCT040"
    },
    {
      "icao": "EDDN",
      "alert": "OK",
      "vis_m": 9999,
      "fzfg": false,
      "metar_trigger": false,
      "taf_trigger": false,
      "metar": "METAR EDDN 141220Z AUTO 31010KT 9999 FEW043 18/08 Q1015 TEMPO 30015G25KT",
      "taf": "TAF EDDN 141100Z 1412/1512 28010KT CAVOK"
    },
    {
      "icao": "EDDS",
      "alert": "OK",
      "vis_m": 9999,
      "fzfg": false,
      "metar_trigger": false,
      "taf_trigger": false,
      "metar": "METAR EDDS 141220Z AUTO 29013KT 250V330 CAVOK 21/07 Q1015 NOSIG",
      "taf": "TAF EDDS 141100Z 1412/1512 29012KT 9999 SCT040"
    },
    {
      "icao": "EDFH",
      "alert": "OK",
      "vis_m": 9999,
      "fzfg": false,
      "metar_trigger": false,
      "taf_trigger": false,
      "metar": "METAR EDFH 141220Z 29010KT 250V340 9999 SCT038 15/07 Q1018",
      "taf": "TAF EDFH 141100Z 1412/1512 30010KT 9999 SCT040"
    },
    {
      "icao": "EDJA",
      "alert": "OK",
      "vis_m": 9999,
      "fzfg": false,
      "metar_trigger": false,
      "taf_trigger": false,
      "metar": "METAR EDJA 141220Z 28009KT 240V360 9999 SCT057 22/12 Q1016",
      "taf": "TAF EDJA 141100Z 1412/1421 32012KT CAVOK"
    },
    {
      "icao": "EDLW",
      "alert": "OK",
      "vis_m": 9999,
      "fzfg": false,
      "metar_trigger": false,
      "taf_trigger": false,
      "metar": "METAR EDLW 141220Z VRB06KT 9999 FEW026 16/10 Q1016",
      "taf": "TAF EDLW 141100Z 1412/1512 27007KT 9999 SCT040"
    },
    {
      "icao": "EDNY",
      "alert": "OK",
      "vis_m": 9999,
      "fzfg": false,
      "metar_trigger": false,
      "taf_trigger": false,
      "metar": "METAR EDNY 141220Z 25014KT CAVOK 25/05 Q1015",
      "taf": "TAF EDNY 141100Z 1412/1421 25012KT CAVOK"
    },
    {
      "icao": "EDSB",
      "alert": "OK",
      "vis_m": 9999,
      "fzfg": false,
      "metar_trigger": false,
      "taf_trigger": false,
      "metar": "METAR EDSB 141220Z 26007KT 200V310 CAVOK 21/09 Q1016",
      "taf": "TAF EDSB 141100Z 1412/1512 28005KT CAVOK"
    },
    {
      "icao": "EETN",
      "alert": "OK",
      "vis_m": 9999,
      "fzfg": false,
      "metar_trigger": false,
      "taf_trigger": false,
      "metar": "METAR EETN 141220Z 14006KT 9999 BKN018 FEW025CB 14/10 Q0999 NOSIG",
      "taf": "TAF EETN 141130Z 1412/1512 13010KT 9999 BKN020"
    },
    {
      "icao": "EFTU",
      "alert": "OK",
      "vis_m": 9999,
      "fzfg": false,
      "metar_trigger": false,
      "taf_trigger": false,
      "metar": "METAR EFTU 141220Z AUTO 20012KT 160V230 9999 BKN026 15/08 Q0998",
      "taf": "TAF EFTU 141124Z 1412/1512 18012KT 9999 BKN023"
    },
    {
      "icao": "EGBB",
      "alert": "OK",
      "vis_m": 9999,
      "fzfg": false,
      "metar_trigger": false,
      "taf_trigger": false,
      "metar": "METAR EGBB 141220Z 34006KT 290V040 9999 BKN036 17/09 Q1021",
      "taf": "TAF EGBB 141054Z 1412/1512 31008KT 9999 SCT035"
    },
    {
      "icao": "EGGP",
      "alert": "OK",
      "vis_m": 9999,
      "fzfg": false,
      "metar_trigger": false,
      "taf_trigger": false,
      "metar": "METAR EGGP 141220Z 27006KT 250V310 9999 FEW031 SCT038 16/09 Q1021",
      "taf": "TAF EGGP 141057Z 1412/1512 30007KT 9999 SCT025"
    },
    {
      "icao": "EGGW",
      "alert": "OK",
      "vis_m": 9999,
      "fzfg": false,
      "metar_trigger": false,
      "taf_trigger": false,
      "metar": "METAR EGGW 141220Z AUTO 33006KT 290V030 9999 SCT038 17/08 Q1020",
      "taf": "TAF EGGW 141058Z 1412/1512 30009KT 9999 FEW030"
    },
    {
      "icao": "EGKK",
      "alert": "OK",
      "vis_m": 9999,
      "fzfg": false,
      "metar_trigger": false,
      "taf_trigger": false,
      "metar": "METAR EGKK 141220Z 32007KT 270V360 9999 FEW030 20/08 Q1020",
      "taf": "TAF EGKK 141058Z 1412/1518 31010KT 9999 FEW035"
    },
    {
      "icao": "EGNM",
      "alert": "OK",
      "vis_m": 9999,
      "fzfg": false,
      "metar_trigger": false,
      "taf_trigger": false,
      "metar": "METAR EGNM 141220Z VRB04KT 9999 BKN042 16/08 Q1020",
      "taf": "TAF EGNM 141056Z 1412/1512 01008KT 9999 FEW030"
    },
    {
      "icao": "EGPD",
      "alert": "OK",
      "vis_m": 9999,
      "fzfg": false,
      "metar_trigger": false,
      "taf_trigger": false,
      "metar": "METAR EGPD 141220Z COR AUTO 34017KT 9999 BKN018 OVC026 12/08 Q1021 NOSIG",
      "taf": "TAF EGPD 141055Z 1412/1512 33012KT 9999 FEW016 SCT035"
    },
    {
      "icao": "EGPF",
      "alert": "OK",
      "vis_m": 9999,
      "fzfg": false,
      "metar_trigger": false,
      "taf_trigger": false,
      "metar": "METAR EGPF 141220Z AUTO 03005KT 360V060 9999 OVC047 17/08 Q1021",
      "taf": "TAF EGPF 141058Z 1412/1512 07006KT 9999 SCT045"
    },
    {
      "icao": "EHBK",
      "alert": "OK",
      "vis_m": 9999,
      "fzfg": false,
      "metar_trigger": false,
      "taf_trigger": false,
      "metar": "METAR EHBK 141155Z AUTO 28007KT 230V020 9999 FEW034 19/11 Q1018 NOSIG",
      "taf": "TAF EHBK 141110Z 1412/1518 30010KT CAVOK"
    },
    {
      "icao": "EHEH",
      "alert": "OK",
      "vis_m": 9999,
      "fzfg": false,
      "metar_trigger": false,
      "taf_trigger": false,
      "metar": "METAR EHEH 141155Z AUTO 31008KT 260V020 9999 SCT034 BKN057 BKN066 17/09 Q1018 BLU NOSIG RMK TREND REMOTE BY EHWX",
      "taf": "TAF EHEH 141109Z 1412/1518 30010KT 9999 SCT030 BKN060"
    },
    {
      "icao": "EKBI",
      "alert": "OK",
      "vis_m": 9999,
      "fzfg": false,
      "metar_trigger": false,
      "taf_trigger": false,
      "metar": "METAR EKBI 141220Z AUTO 28015KT 9999 BKN023/// OVC045/// 15/11 Q1007",
      "taf": "TAF EKBI 141127Z 1412/1512 29014KT 9999 SCT020"
    },
    {
      "icao": "EKCH",
      "alert": "OK",
      "vis_m": 9999,
      "fzfg": false,
      "metar_trigger": false,
      "taf_trigger": false,
      "metar": "METAR EKCH 141220Z AUTO 30009KT 270V340 9999 FEW030/// SCT047/// BKN072/// 16/09 Q1003 TEMPO SCT020CB",
      "taf": "TAF EKCH 141127Z 1412/1512 30010KT 9999 BKN020"
    },
    {
      "icao": "ENAL",
      "alert": "OK",
      "vis_m": 9999,
      "fzfg": false,
      "metar_trigger": false,
      "taf_trigger": false,
      "metar": "METAR ENAL 141220Z 04013KT 9999 SCT031 13/06 Q1015",
      "taf": "TAF ENAL 141100Z 1412/1421 03012KT 9999 BKN020"
    },
    {
      "icao": "ENBR",
      "alert": "OK",
      "vis_m": 9999,
      "fzfg": false,
      "metar_trigger": false,
      "taf_trigger": false,
      "metar": "METAR ENBR 141220Z 31010KT CAVOK 18/11 Q1009 NOSIG RMK WIND 1200FT 33015KT",
      "taf": "TAF ENBR 141100Z 1412/1512 33015KT CAVOK"
    },
    {
      "icao": "ENGM",
      "alert": "OK",
      "vis_m": 9999,
      "fzfg": false,
      "metar_trigger": false,
      "taf_trigger": false,
      "metar": "METAR ENGM 141220Z 36017G28KT 9999 VCTS FEW031CB SCT048 18/07 Q1003 TEMPO 06012KT",
      "taf": "TAF ENGM 141100Z 1412/1512 34008KT 9999 FEW030 SCT050"
    },
    {
      "icao": "ENHD",
      "alert": "OK",
      "vis_m": 9999,
      "fzfg": false,
      "metar_trigger": false,
      "taf_trigger": false,
      "metar": "METAR ENHD 141220Z 33010KT CAVOK 16/11 Q1009",
      "taf": "TAF ENHD 141100Z 1412/1421 33012KT CAVOK"
    },
    {
      "icao": "ENTC",
      "alert": "OK",
      "vis_m": 9999,
      "fzfg": false,
      "metar_trigger": false,
      "taf_trigger": false,
      "metar": "METAR ENTC 141220Z 03016KT 360V060 9999 FEW052 SCT064 13/05 Q1015 NOSIG RMK WIND 2600FT 09012KT",
      "taf": "TAF ENTC 141100Z 1412/1512 03012KT 9999 FEW030 BKN040"
    },
    {
      "icao": "ENTO",
      "alert": "OK",
      "vis_m": 9999,
      "fzfg": false,
      "metar_trigger": false,
      "taf_trigger": false,
      "metar": "METAR ENTO 141220Z 01005KT 9999 FEW020CB 17/10 Q1004 NOSIG",
      "taf": "TAF ENTO 141100Z 1412/1512 34012KT 9999 FEW030"
    },
    {
      "icao": "ENVA",
      "alert": "OK",
      "vis_m": 9999,
      "fzfg": false,
      "metar_trigger": false,
      "taf_trigger": false,
      "metar": "METAR ENVA 141220Z 29014KT 9999 SCT037 15/08 Q1010 NOSIG RMK WIND 670FT 29024KT",
      "taf": "TAF ENVA 141100Z 1412/1512 29015KT 9999 SCT012"
    },
    {
      "icao": "ENZV",
      "alert": "OK",
      "vis_m": 9999,
      "fzfg": false,
      "metar_trigger": false,
      "taf_trigger": false,
      "metar": "METAR ENZV 141220Z 29010KT CAVOK 16/11 Q1009 NOSIG",
      "taf": "TAF ENZV 141100Z 1412/1512 31008KT CAVOK"
    },
    {
      "icao": "EPGD",
      "alert": "OK",
      "vis_m": 9999,
      "fzfg": false,
      "metar_trigger": false,
      "taf_trigger": false,
      "metar": "METAR EPGD 141200Z 28018KT 9999 SCT023 15/10 Q1002",
      "taf": "TAF EPGD 141130Z 1412/1512 26015KT 9999 SCT025 BKN045"
    },
    {
      "icao": "EPKK",
      "alert": "OK",
      "vis_m": 9999,
      "fzfg": false,
      "metar_trigger": false,
      "taf_trigger": false,
      "metar": "METAR EPKK 141200Z 23011KT 9999 FEW036CB SCT048 17/09 Q1009",
      "taf": "TAF EPKK 141130Z 1412/1512 25010KT 9999 SCT050"
    },
    {
      "icao": "EPKT",
      "alert": "OK",
      "vis_m": 9999,
      "fzfg": false,
      "metar_trigger": false,
      "taf_trigger": false,
      "metar": "METAR EPKT 141200Z 25009KT 9999 FEW049CB 13/09 Q1009",
      "taf": "TAF EPKT 141130Z 1412/1512 25012KT 9999 SCT030"
    },
    {
      "icao": "EPLB",
      "alert": "OK",
      "vis_m": 9999,
      "fzfg": false,
      "metar_trigger": false,
      "taf_trigger": false,
      "metar": "METAR EPLB 141200Z 29011KT 9999 -SHRA FEW022 BKN041CB 12/10 Q1008",
      "taf": "TAF EPLB 141130Z 1412/1512 24015KT 9999 SCT030"
    },
    {
      "icao": "EPMO",
      "alert": "OK",
      "vis_m": 9999,
      "fzfg": false,
      "metar_trigger": false,
      "taf_trigger": false,
      "metar": "METAR EPMO 141200Z 26014KT 9999 SCT045CB 14/11 Q1005",
      "taf": "TAF EPMO 141130Z 1412/1512 24015KT 9999 SCT020"
    },
    {
      "icao": "EPPO",
      "alert": "OK",
      "vis_m": 9999,
      "fzfg": false,
      "metar_trigger": false,
      "taf_trigger": false,
      "metar": "METAR EPPO 141200Z 24019KT 9999 FEW026CB SCT030 16/08 Q1006",
      "taf": "TAF EPPO 141130Z 1412/1512 27015G25KT 9999 SCT030CB"
    },
    {
      "icao": "EPRA",
      "alert": "OK",
      "vis_m": 6000,
      "fzfg": false,
      "metar_trigger": false,
      "taf_trigger": false,
      "metar": "METAR EPRA 141200Z 25013KT 6000 -SHRA BKN025CB 14/10 Q1007",
      "taf": "TAF EPRA 141130Z 1412/1421 26012KT 9999 SCT040"
    },
    {
      "icao": "EPRZ",
      "alert": "OK",
      "vis_m": 9999,
      "fzfg": false,
      "metar_trigger": false,
      "taf_trigger": false,
      "metar": "METAR EPRZ 141200Z 28017KT 9999 FEW046 19/08 Q1008",
      "taf": "TAF EPRZ 141130Z 1412/1512 27014KT 9999 SCT030"
    },
    {
      "icao": "EPSC",
      "alert": "OK",
      "vis_m": 9999,
      "fzfg": false,
      "metar_trigger": false,
      "taf_trigger": false,
      "metar": "METAR EPSC 141200Z 23006KT 9999 FEW023 SCT027CB BKN038 13/12 Q1005",
      "taf": "TAF EPSC 141130Z 1412/1512 26012KT 9999 SCT045"
    },
    {
      "icao": "EPSY",
      "alert": "OK",
      "vis_m": 9999,
      "fzfg": false,
      "metar_trigger": false,
      "taf_trigger": false,
      "metar": "METAR EPSY 141200Z 25010KT 210V280 9999 FEW010 SCT040 12/10 Q1003",
      "taf": "TAF EPSY 141130Z 1412/1421 23012KT 9999 BKN030"
    },
    {
      "icao": "EPWA",
      "alert": "OK",
      "vis_m": 9999,
      "fzfg": false,
      "metar_trigger": false,
      "taf_trigger": false,
      "metar": "METAR EPWA 141200Z 25012KT 9999 SCT036 15/10 Q1006 NOSIG",
      "taf": "TAF EPWA 141130Z 1412/1512 25015KT 9999 BKN030"
    },
    {
      "icao": "EPWR",
      "alert": "OK",
      "vis_m": 9999,
      "fzfg": false,
      "metar_trigger": false,
      "taf_trigger": false,
      "metar": "METAR EPWR 141200Z 27017KT 230V290 9999 FEW030CB 17/08 Q1009",
      "taf": "TAF EPWR 141130Z 1412/1512 27015G25KT 9999 SCT040CB"
    },
    {
      "icao": "ESGG",
      "alert": "OK",
      "vis_m": 7000,
      "fzfg": false,
      "metar_trigger": false,
      "taf_trigger": false,
      "metar": "METAR ESGG 141220Z 30006KT 260V330 7000 SHRA SCT029CB 14/11 Q1002",
      "taf": "TAF ESGG 141130Z 1412/1512 33005KT 9999 SCT030 BKN040"
    },
    {
      "icao": "ESKN",
      "alert": "OK",
      "vis_m": 9999,
      "fzfg": false,
      "metar_trigger": false,
      "taf_trigger": false,
      "metar": "METAR ESKN 141220Z 29008KT 260V320 9999 SCT016 BKN061 13/11 Q0998",
      "taf": "TAF ESKN 141130Z 1412/1512 31007KT 9999 -RA FEW025"
    },
    {
      "icao": "ESMS",
      "alert": "OK",
      "vis_m": 9999,
      "fzfg": false,
      "metar_trigger": false,
      "taf_trigger": false,
      "metar": "METAR ESMS 141220Z 30016KT 9999 FEW032CB SCT062 16/10 Q1002",
      "taf": "TAF ESMS 141127Z 1412/1512 30012KT 9999 BKN020"
    },
    {
      "icao": "ESSA",
      "alert": "OK",
      "vis_m": 9999,
      "fzfg": false,
      "metar_trigger": false,
      "taf_trigger": false,
      "metar": "METAR ESSA 141220Z 26013KT 9999 BKN017 11/07 Q0996 NOSIG",
      "taf": "TAF ESSA 141130Z 1412/1512 27010KT 9999 -RA SCT014 BKN040"
    },
    {
      "icao": "EYKA",
      "alert": "OK",
      "vis_m": 9999,
      "fzfg": false,
      "metar_trigger": false,
      "taf_trigger": false,
      "metar": "METAR EYKA 141220Z 26011KT 9999 -SHRA FEW027 SCT052CB 13/10 Q1001",
      "taf": "TAF EYKA 141100Z 1412/1512 23010KT 9000 BKN030"
    },
    {
      "icao": "EYPA",
      "alert": "OK",
      "vis_m": 9999,
      "fzfg": false,
      "metar_trigger": false,
      "taf_trigger": false,
      "metar": "METAR EYPA 141220Z 25005KT 190V310 9999 BKN012CB BKN048 14/11 Q0999",
      "taf": "TAF EYPA 141100Z 1412/1512 24010KT 9000 BKN030"
    },
    {
      "icao": "EYVI",
      "alert": "OK",
      "vis_m": 9999,
      "fzfg": false,
      "metar_trigger": false,
      "taf_trigger": false,
      "metar": "METAR EYVI 141220Z 22014KT 9999 FEW028 15/09 Q1001 NOSIG",
      "taf": "TAF EYVI 141100Z 1412/1512 21010KT 9000 BKN030"
    },
    {
      "icao": "GCFV",
      "alert": "OK",
      "vis_m": 9999,
      "fzfg": false,
      "metar_trigger": false,
      "taf_trigger": false,
      "metar": "METAR GCFV 141200Z 04013KT 9999 FEW020 24/16 Q1020",
      "taf": "TAF GCFV 140800Z 1409/1509 03014KT 9999 FEW020 TX25/1414Z TN19/1506Z"
    },
    {
      "icao": "GCLP",
      "alert": "OK",
      "vis_m": 9999,
      "fzfg": false,
      "metar_trigger": false,
      "taf_trigger": false,
      "metar": "METAR GCLP 141200Z 03025KT 9999 FEW025 24/16 Q1020 NOSIG",
      "taf": "TAF GCLP 140800Z 1409/1509 02023KT 9999 FEW030 TX24/1414Z TN19/1506Z"
    },
    {
      "icao": "GCTS",
      "alert": "OK",
      "vis_m": 9999,
      "fzfg": false,
      "metar_trigger": false,
      "taf_trigger": false,
      "metar": "METAR GCTS 141200Z 09021KT 9999 FEW025 24/15 Q1020 WS R07 NOSIG",
      "taf": "TAF GCTS 140800Z 1409/1509 10016KT 9999 FEW020 TX26/1414Z TN18/1506Z"
    },
    {
      "icao": "GMAD",
      "alert": "OK",
      "vis_m": 8000,
      "fzfg": false,
      "metar_trigger": false,
      "taf_trigger": false,
      "metar": "METAR GMAD 141200Z 25009KT 230V310 8000 NSC 27/17 Q1016 NOSIG",
      "taf": "TAF GMAD 141100Z 1412/1518 26014KT 8000 SCT020 SCT100"
    },
    {
      "icao": "GMMN",
      "alert": "OK",
      "vis_m": 9999,
      "fzfg": false,
      "metar_trigger": false,
      "taf_trigger": false,
      "metar": "METAR GMMN 141200Z VRB07KT CAVOK 27/17 Q1019 NOSIG",
      "taf": "TAF GMMN 141100Z 1412/1518 32012KT CAVOK"
    },
    {
      "icao": "GMMX",
      "alert": "OK",
      "vis_m": 9999,
      "fzfg": false,
      "metar_trigger": false,
      "taf_trigger": false,
      "metar": "METAR GMMX 141200Z VRB06KT 9999 FEW033 29/15 Q1018 NOSIG",
      "taf": "TAF GMMX 141100Z 1412/1518 06006KT 8000 SCT090"
    },
    {
      "icao": "HEGN",
      "alert": "OK",
      "vis_m": 9999,
      "fzfg": false,
      "metar_trigger": false,
      "taf_trigger": false,
      "metar": "METAR HEGN 141100Z 08005KT CAVOK 35/13 Q1008 NOSIG",
      "taf": "TAF HEGN 141100Z 1412/1518 01010G20KT CAVOK"
    },
    {
      "icao": "HEMA",
      "alert": "OK",
      "vis_m": 9999,
      "fzfg": false,
      "metar_trigger": false,
      "taf_trigger": false,
      "metar": "METAR HEMA 141100Z 36014KT CAVOK 37/08 Q1009 NOSIG",
      "taf": "TAF HEMA 141100Z 1412/1518 36010G22KT CAVOK"
    },
    {
      "icao": "HESH",
      "alert": "OK",
      "vis_m": 9999,
      "fzfg": false,
      "metar_trigger": false,
      "taf_trigger": false,
      "metar": "METAR HESH 141100Z 02006KT CAVOK 37/12 Q1009 NOSIG",
      "taf": "TAF HESH 141100Z 1412/1518 02014KT CAVOK"
    },
    {
      "icao": "HESX",
      "alert": "OK",
      "vis_m": 9999,
      "fzfg": false,
      "metar_trigger": false,
      "taf_trigger": false,
      "metar": "METAR HESX 141100Z 31009KT CAVOK 33/16 Q1011 NOSIG",
      "taf": "TAF HESX 141100Z 1412/1518 35010KT CAVOK"
    },
    {
      "icao": "LATI",
      "alert": "OK",
      "vis_m": 9999,
      "fzfg": false,
      "metar_trigger": false,
      "taf_trigger": false,
      "metar": "METAR LATI 141220Z 32007KT 260V360 CAVOK 29/15 Q1015 NOSIG",
      "taf": "TAF LATI 141100Z 1412/1512 28012KT CAVOK TX30/1412Z TN15/1504Z"
    },
    {
      "icao": "LBPD",
      "alert": "OK",
      "vis_m": 9999,
      "fzfg": false,
      "metar_trigger": false,
      "taf_trigger": false,
      "metar": "METAR LBPD 141200Z AUTO 25010KT 9999 FEW075/// 28/11 Q1013 NOSIG",
      "taf": "TAF LBPD 141100Z 1412/1512 28013KT CAVOK"
    },
    {
      "icao": "LBSF",
      "alert": "OK",
      "vis_m": 9999,
      "fzfg": false,
      "metar_trigger": false,
      "taf_trigger": false,
      "metar": "METAR LBSF 141200Z VRB06KT 9999 FEW069 25/08 Q1016 NOSIG",
      "taf": "TAF LBSF 141100Z 1412/1512 30010KT 9999 SCT060"
    },
    {
      "icao": "LBWN",
      "alert": "OK",
      "vis_m": 9999,
      "fzfg": false,
      "metar_trigger": false,
      "taf_trigger": false,
      "metar": "METAR LBWN 141200Z 24008KT 200V280 9999 SCT040 26/13 Q1012 NOSIG",
      "taf": "TAF LBWN 141100Z 1412/1512 27012KT 9999 SCT045"
    },
    {
      "icao": "LCLK",
      "alert": "OK",
      "vis_m": 9999,
      "fzfg": false,
      "metar_trigger": false,
      "taf_trigger": false,
      "metar": "METAR LCLK 141200Z 22019KT 9999 FEW020 FEW030CB 28/20 Q1008 NOSIG RMK CB TO W",
      "taf": "TAF LCLK 141130Z 1412/1512 20020KT 9999 FEW020"
    },
    {
      "icao": "LCPH",
      "alert": "OK",
      "vis_m": 9999,
      "fzfg": false,
      "metar_trigger": false,
      "taf_trigger": false,
      "metar": "METAR LCPH 141200Z 26011KT 240V320 9999 FEW020 27/19 Q1009 NOSIG",
      "taf": "TAF LCPH 141130Z 1412/1512 26012KT 9999 SCT015"
    },
    {
      "icao": "LEAL",
      "alert": "OK",
      "vis_m": 9999,
      "fzfg": false,
      "metar_trigger": false,
      "taf_trigger": false,
      "metar": "METAR LEAL 141200Z 10009KT 070V150 9999 FEW049 28/18 Q1016 NOSIG",
      "taf": "TAF LEAL 141100Z 1412/1512 14010KT CAVOK TX29/1412Z TN21/1506Z"
    },
    {
      "icao": "LEBB",
      "alert": "OK",
      "vis_m": 9999,
      "fzfg": false,
      "metar_trigger": false,
      "taf_trigger": false,
      "metar": "METAR LEBB 141200Z 27008KT 230V300 CAVOK 31/19 Q1014 NOSIG",
      "taf": "TAF LEBB 141100Z 1412/1512 32009KT CAVOK TX34/1413Z TN18/1505Z"
    },
    {
      "icao": "LEBL",
      "alert": "OK",
      "vis_m": 9999,
      "fzfg": false,
      "metar_trigger": false,
      "taf_trigger": false,
      "metar": "METAR LEBL 141200Z 12008KT 080V170 9999 FEW050 29/14 Q1015 NOSIG",
      "taf": "TAF LEBL 141100Z 1412/1512 14008KT CAVOK TX30/1412Z TN21/1506Z"
    },
    {
      "icao": "LECH",
      "alert": "OK",
      "vis_m": 9000,
      "fzfg": false,
      "metar_trigger": false,
      "taf_trigger": false,
      "metar": "METAR LECH 141200Z AUTO 16009KT 120V200 9000 NCD 29/07 Q1017",
      "taf": "TAF LECH 141100Z 1412/1512 15010KT CAVOK TX32/1413Z TN16/1506Z"
    },
    {
      "icao": "LEMD",
      "alert": "OK",
      "vis_m": 9999,
      "fzfg": false,
      "metar_trigger": false,
      "taf_trigger": false,
      "metar": "METAR LEMD 141200Z 10004KT CAVOK 32/07 Q1016 NOSIG",
      "taf": "TAF LEMD 141100Z 1412/1518 VRB04KT 9999 FEW080 TX35/1416Z TN16/1505Z"
    },
    {
      "icao": "LEMG",
      "alert": "OK",
      "vis_m": 9999,
      "fzfg": false,
      "metar_trigger": false,
      "taf_trigger": false,
      "metar": "METAR LEMG 141200Z 15008KT 110V190 9999 SCT075 26/15 Q1016 NOSIG",
      "taf": "TAF LEMG 141100Z 1412/1512 13010KT 9999 FEW040 TX33/1512Z TN21/1505Z"
    },
    {
      "icao": "LEVC",
      "alert": "OK",
      "vis_m": 9999,
      "fzfg": false,
      "metar_trigger": false,
      "taf_trigger": false,
      "metar": "METAR LEVC 141200Z 12009KT 090V150 CAVOK 32/10 Q1015 NOSIG",
      "taf": "TAF LEVC 141100Z 1412/1512 12010KT CAVOK TX32/1412Z TN19/1506Z"
    },
    {
      "icao": "LEXJ",
      "alert": "OK",
      "vis_m": 9999,
      "fzfg": false,
      "metar_trigger": false,
      "taf_trigger": false,
      "metar": "METAR LEXJ 141200Z 06004KT 360V130 CAVOK 27/17 Q1014",
      "taf": "TAF LEXJ 140800Z 1409/1509 29008KT CAVOK TX32/1413Z TN18/1505Z"
    },
    {
      "icao": "LEZG",
      "alert": "OK",
      "vis_m": 9999,
      "fzfg": false,
      "metar_trigger": false,
      "taf_trigger": false,
      "metar": "METAR LEZG 141200Z 05004KT 320V120 CAVOK 32/05 Q1015 NOSIG",
      "taf": "TAF LEZG 141100Z 1412/1512 09005KT CAVOK TX36/1415Z TN21/1506Z"
    },
    {
      "icao": "LEZL",
      "alert": "OK",
      "vis_m": 9999,
      "fzfg": false,
      "metar_trigger": false,
      "taf_trigger": false,
      "metar": "METAR LEZL 141200Z 25012KT 220V280 9999 SCT040 28/17 Q1017 NOSIG",
      "taf": "TAF LEZL 140800Z 1409/1509 22009KT CAVOK TX32/1415Z TN18/1506Z"
    },
    {
      "icao": "LFBD",
      "alert": "OK",
      "vis_m": 9999,
      "fzfg": false,
      "metar_trigger": false,
      "taf_trigger": false,
      "metar": "METAR LFBD 141200Z AUTO 10012KT 060V130 CAVOK 32/05 Q1016 TEMPO 10017G27KT",
      "taf": "TAF LFBD 141100Z 1412/1518 06012KT CAVOK TX34/1415Z TN21/1504Z"
    },
    {
      "icao": "LFLL",
      "alert": "OK",
      "vis_m": 9999,
      "fzfg": false,
      "metar_trigger": false,
      "taf_trigger": false,
      "metar": "METAR LFLL 141200Z 35009KT 310V020 CAVOK 27/11 Q1018 NOSIG",
      "taf": "TAF LFLL 141100Z 1412/1518 01010KT CAVOK"
    },
    {
      "icao": "LFLS",
      "alert": "OK",
      "vis_m": 9999,
      "fzfg": false,
      "metar_trigger": false,
      "taf_trigger": false,
      "metar": "METAR LFLS 141200Z AUTO 35012KT 310V030 CAVOK 27/12 Q1018 NOSIG",
      "taf": "TAF LFLS 140800Z 1409/1509 36012KT CAVOK"
    },
    {
      "icao": "LFMN",
      "alert": "OK",
      "vis_m": 9999,
      "fzfg": false,
      "metar_trigger": false,
      "taf_trigger": false,
      "metar": "METAR LFMN 141200Z 16006KT 9999 BKN024 SCT260 23/17 Q1015 NOSIG",
      "taf": "TAF LFMN 140800Z 1409/1515 16005KT 9999 SCT020"
    },
    {
      "icao": "LFOB",
      "alert": "OK",
      "vis_m": 9999,
      "fzfg": false,
      "metar_trigger": false,
      "taf_trigger": false,
      "metar": "METAR LFOB 141200Z AUTO 34006KT 280V070 CAVOK 21/10 Q1019 NOSIG",
      "taf": "TAF LFOB 141100Z 1412/1512 33008KT CAVOK"
    },
    {
      "icao": "LFPO",
      "alert": "OK",
      "vis_m": 9999,
      "fzfg": false,
      "metar_trigger": false,
      "taf_trigger": false,
      "metar": "METAR LFPO 141200Z 35006KT 290V080 CAVOK 24/07 Q1019 NOSIG",
      "taf": "TAF LFPO 141100Z 1412/1518 33006KT CAVOK"
    },
    {
      "icao": "LFSB",
      "alert": "OK",
      "vis_m": 9999,
      "fzfg": false,
      "metar_trigger": false,
      "taf_trigger": false,
      "metar": "METAR LFSB 141200Z AUTO 26016KT CAVOK 26/03 Q1017 TEMPO 29015G25KT",
      "taf": "TAF LFSB 141100Z 1412/1512 28013KT CAVOK"
    },
    {
      "icao": "LGAV",
      "alert": "OK",
      "vis_m": 9999,
      "fzfg": false,
      "metar_trigger": false,
      "taf_trigger": false,
      "metar": "METAR LGAV 141220Z 07010KT 9999 SCT025 27/10 Q1015 NOSIG",
      "taf": "TAF LGAV 141100Z 1412/1512 08010KT 9999 FEW020"
    },
    {
      "icao": "LGTS",
      "alert": "OK",
      "vis_m": 9999,
      "fzfg": false,
      "metar_trigger": false,
      "taf_trigger": false,
      "metar": "METAR LGTS 141220Z 28006KT 9999 FEW020 29/12 Q1014 NOSIG",
      "taf": "TAF LGTS 141100Z 1412/1512 VRB03KT CAVOK"
    },
    {
      "icao": "LHBP",
      "alert": "OK",
      "vis_m": 9999,
      "fzfg": false,
      "metar_trigger": false,
      "taf_trigger": false,
      "metar": "METAR LHBP 141200Z 28017KT 9999 -SHRA SCT050TCU BKN066 21/11 Q1012 TEMPO 30025G35KT 4000 SHRA",
      "taf": "TAF LHBP 141115Z 1412/1512 27015G25KT CAVOK"
    },
    {
      "icao": "LHDC",
      "alert": "OK",
      "vis_m": 9999,
      "fzfg": false,
      "metar_trigger": false,
      "taf_trigger": false,
      "metar": "METAR LHDC 141145Z AUTO 24013KT 200V260 CAVOK 25/13 Q1009 NOSIG",
      "taf": "TAF LHDC 140215Z 1403/1412 16008KT CAVOK"
    },
    {
      "icao": "LIBD",
      "alert": "OK",
      "vis_m": 9999,
      "fzfg": false,
      "metar_trigger": false,
      "taf_trigger": false,
      "metar": "METAR LIBD 141220Z 08013KT CAVOK 31/11 Q1013",
      "taf": "TAF LIBD 141100Z 1412/1512 09014KT CAVOK"
    },
    {
      "icao": "LIBG",
      "alert": "OK",
      "vis_m": 9999,
      "fzfg": false,
      "metar_trigger": false,
      "taf_trigger": false,
      "metar": "METAR LIBG 141220Z AUTO 22008KT 180V260 9999 NCD 31/09 Q1015",
      "taf": "TAF LIBG 141100Z 1412/1512 18012KT CAVOK"
    },
    {
      "icao": "LIBP",
      "alert": "OK",
      "vis_m": 9999,
      "fzfg": false,
      "metar_trigger": false,
      "taf_trigger": false,
      "metar": "METAR LIBP 141220Z AUTO VRB07KT 9999 NCD 34/14 Q1011",
      "taf": "TAF LIBP 141100Z 1412/1512 09010KT CAVOK"
    },
    {
      "icao": "LIBR",
      "alert": "OK",
      "vis_m": 9999,
      "fzfg": false,
      "metar_trigger": false,
      "taf_trigger": false,
      "metar": "METAR LIBR 141220Z 10010KT CAVOK 26/20 Q1015",
      "taf": "TAF LIBR 141100Z 1412/1512 12013KT CAVOK"
    },
    {
      "icao": "LICA",
      "alert": "OK",
      "vis_m": 9999,
      "fzfg": false,
      "metar_trigger": false,
      "taf_trigger": false,
      "metar": "METAR LICA 141220Z AUTO 26011KT 230V290 9999 NCD 26/18 Q1016",
      "taf": "TAF LICA 141100Z 1412/1512 26012KT CAVOK"
    },
    {
      "icao": "LICC",
      "alert": "OK",
      "vis_m": 9999,
      "fzfg": false,
      "metar_trigger": false,
      "taf_trigger": false,
      "metar": "METAR LICC 141220Z 09008KT 060V120 9999 FEW050 28/19 Q1017",
      "taf": "TAF LICC 141100Z 1412/1512 08013KT CAVOK"
    },
    {
      "icao": "LICJ",
      "alert": "OK",
      "vis_m": 9999,
      "fzfg": false,
      "metar_trigger": false,
      "taf_trigger": false,
      "metar": "METAR LICJ 141220Z 33010KT CAVOK 25/21 Q1017",
      "taf": "TAF LICJ 141100Z 1412/1512 04012KT CAVOK"
    },
    {
      "icao": "LIMC",
      "alert": "OK",
      "vis_m": 9999,
      "fzfg": false,
      "metar_trigger": false,
      "taf_trigger": false,
      "metar": "METAR LIMC 141220Z 24007KT 200V290 CAVOK 28/16 Q1012 NOSIG",
      "taf": "TAF LIMC 141100Z 1412/1518 VRB05KT CAVOK"
    },
    {
      "icao": "LIME",
      "alert": "OK",
      "vis_m": 9999,
      "fzfg": false,
      "metar_trigger": false,
      "taf_trigger": false,
      "metar": "METAR LIME 141220Z 27010KT 240V300 CAVOK 28/15 Q1012 NOSIG",
      "taf": "TAF LIME 141100Z 1412/1512 26010KT CAVOK"
    },
    {
      "icao": "LIMF",
      "alert": "OK",
      "vis_m": 9999,
      "fzfg": false,
      "metar_trigger": false,
      "taf_trigger": false,
      "metar": "METAR LIMF 141220Z VRB03KT CAVOK 29/13 Q1013",
      "taf": "TAF LIMF 141100Z 1412/1512 VRB05KT CAVOK"
    },
    {
      "icao": "LIMJ",
      "alert": "OK",
      "vis_m": 9999,
      "fzfg": false,
      "metar_trigger": false,
      "taf_trigger": false,
      "metar": "METAR LIMJ 141220Z 17006KT 9999 SCT018 22/18 Q1015",
      "taf": "TAF LIMJ 141100Z 1412/1512 17011KT CAVOK"
    },
    {
      "icao": "LIPE",
      "alert": "OK",
      "vis_m": 9999,
      "fzfg": false,
      "metar_trigger": false,
      "taf_trigger": false,
      "metar": "METAR LIPE 141220Z 26006KT 200V310 CAVOK 32/13 Q1011",
      "taf": "TAF LIPE 141100Z 1412/1512 VRB05KT CAVOK"
    },
    {
      "icao": "LIPH",
      "alert": "OK",
      "vis_m": 9999,
      "fzfg": false,
      "metar_trigger": false,
      "taf_trigger": false,
      "metar": "METAR LIPH 141220Z VRB02KT 9999 FEW040 27/16 Q1011",
      "taf": "TAF LIPH 141100Z 1412/1512 05005KT 9999 FEW030"
    },
    {
      "icao": "LIPQ",
      "alert": "OK",
      "vis_m": 9999,
      "fzfg": false,
      "metar_trigger": false,
      "taf_trigger": false,
      "metar": "METAR LIPQ 141220Z VRB07KT 9999 FEW050 26/17 Q1011",
      "taf": "TAF LIPQ 141100Z 1412/1512 21010KT 9999 FEW060"
    },
    {
      "icao": "LIPR",
      "alert": "OK",
      "vis_m": 9999,
      "fzfg": false,
      "metar_trigger": false,
      "taf_trigger": false,
      "metar": "METAR LIPR 141220Z 27010KT 220V300 CAVOK 32/09 Q1011",
      "taf": "TAF LIPR 141100Z 1412/1512 08010KT CAVOK"
    },
    {
      "icao": "LIPX",
      "alert": "OK",
      "vis_m": 9999,
      "fzfg": false,
      "metar_trigger": false,
      "taf_trigger": false,
      "metar": "METAR LIPX 141220Z 24008KT 170V280 CAVOK 29/14 Q1011",
      "taf": "TAF LIPX 141100Z 1412/1512 26012KT CAVOK"
    },
    {
      "icao": "LIPY",
      "alert": "OK",
      "vis_m": 9999,
      "fzfg": false,
      "metar_trigger": false,
      "taf_trigger": false,
      "metar": "METAR LIPY 141220Z AUTO 04013KT 9999 NCD 29/13 Q1012",
      "taf": "TAF LIPY 141100Z 1412/1512 25013KT CAVOK"
    },
    {
      "icao": "LIPZ",
      "alert": "OK",
      "vis_m": 9999,
      "fzfg": false,
      "metar_trigger": false,
      "taf_trigger": false,
      "metar": "METAR LIPZ 141220Z 14006KT 110V170 9999 FEW045 25/19 Q1011 NOSIG",
      "taf": "TAF LIPZ 141100Z 1412/1518 15010KT 9999 FEW020"
    },
    {
      "icao": "LIRF",
      "alert": "OK",
      "vis_m": 9999,
      "fzfg": false,
      "metar_trigger": false,
      "taf_trigger": false,
      "metar": "METAR LIRF 141220Z 24010KT 210V270 CAVOK 28/11 Q1016 NOSIG",
      "taf": "TAF LIRF 141100Z 1412/1518 23012KT CAVOK"
    },
    {
      "icao": "LIRN",
      "alert": "OK",
      "vis_m": 9999,
      "fzfg": false,
      "metar_trigger": false,
      "taf_trigger": false,
      "metar": "METAR LIRN 141220Z 20009KT 160V230 CAVOK 26/17 Q1017 NOSIG",
      "taf": "TAF LIRN 141100Z 1412/1512 20010KT CAVOK"
    },
    {
      "icao": "LIRP",
      "alert": "OK",
      "vis_m": 9999,
      "fzfg": false,
      "metar_trigger": false,
      "taf_trigger": false,
      "metar": "METAR LIRP 141215Z 27008KT CAVOK 28/12 Q1015 NOSIG",
      "taf": "TAF LIRP 141100Z 1412/1512 29012KT CAVOK"
    },
    {
      "icao": "LIRZ",
      "alert": "OK",
      "vis_m": 9999,
      "fzfg": false,
      "metar_trigger": false,
      "taf_trigger": false,
      "metar": "METAR LIRZ 141220Z AUTO 23016KT 200V260 9999 NCD 31/08 Q1014",
      "taf": "TAF LIRZ 141100Z 1412/1512 22012KT CAVOK"
    },
    {
      "icao": "LJLJ",
      "alert": "OK",
      "vis_m": 9999,
      "fzfg": false,
      "metar_trigger": false,
      "taf_trigger": false,
      "metar": "METAR LJLJ 141200Z 31007KT 220V040 9999 FEW040 SCT250 27/14 Q1010 NOSIG",
      "taf": "TAF LJLJ 141100Z 1412/1512 25008KT 9999 FEW045"
    },
    {
      "icao": "LKMT",
      "alert": "OK",
      "vis_m": 9999,
      "fzfg": false,
      "metar_trigger": false,
      "taf_trigger": false,
      "metar": "METAR LKMT 141200Z 23014KT 210V280 CAVOK 17/10 Q1010 NOSIG",
      "taf": "TAF LKMT 141100Z 1412/1512 24014KT 9999 SCT033"
    },
    {
      "icao": "LKPR",
      "alert": "OK",
      "vis_m": 9999,
      "fzfg": false,
      "metar_trigger": false,
      "taf_trigger": false,
      "metar": "METAR LKPR 141200Z 26013KT 9999 FEW040 17/08 Q1013 NOSIG",
      "taf": "TAF LKPR 141100Z 1412/1518 27010KT CAVOK"
    },
    {
      "icao": "LLBG",
      "alert": "OK",
      "vis_m": 9999,
      "fzfg": false,
      "metar_trigger": false,
      "taf_trigger": false,
      "metar": "METAR LLBG 141220Z 29011KT 9999 FEW025 29/17 Q1010 NOSIG",
      "taf": "TAF LLBG 141107Z 1412/1512 29010KT 9999 FEW030 TX30/1412Z TN21/1502Z"
    },
    {
      "icao": "LMML",
      "alert": "OK",
      "vis_m": 9999,
      "fzfg": false,
      "metar_trigger": false,
      "taf_trigger": false,
      "metar": "METAR LMML 141215Z 19010KT 150V220 9999 FEW025 27/19 Q1018 NOSIG",
      "taf": "TAF LMML 141100Z 1412/1512 22008KT 9999 FEW015"
    },
    {
      "icao": "LOWW",
      "alert": "OK",
      "vis_m": 9999,
      "fzfg": false,
      "metar_trigger": false,
      "taf_trigger": false,
      "metar": "METAR LOWW 141220Z 28016KT CAVOK 21/09 Q1012 NOSIG",
      "taf": "TAF LOWW 141115Z 1412/1518 29015KT 9999 FEW050 TX22/1413Z TN14/1502Z"
    },
    {
      "icao": "LPFR",
      "alert": "OK",
      "vis_m": 9999,
      "fzfg": false,
      "metar_trigger": false,
      "taf_trigger": false,
      "metar": "METAR LPFR 141200Z 14005KT 100V170 9999 FEW014 SCT020 BKN028 22/18 Q1017",
      "taf": "TAF LPFR 141100Z 1412/1512 15005KT 9999 BKN025"
    },
    {
      "icao": "LPMA",
      "alert": "OK",
      "vis_m": 9999,
      "fzfg": false,
      "metar_trigger": false,
      "taf_trigger": false,
      "metar": "METAR LPMA 141200Z 03012KT 340V090 9999 SCT016 23/14 Q1022",
      "taf": "TAF LPMA 141100Z 1412/1512 35013KT 9999 FEW015"
    },
    {
      "icao": "LPPR",
      "alert": "OK",
      "vis_m": 9999,
      "fzfg": false,
      "metar_trigger": false,
      "taf_trigger": false,
      "metar": "METAR LPPR 141200Z 28005KT 230V330 9999 FEW035 21/18 Q1016",
      "taf": "TAF LPPR 141100Z 1412/1512 21005KT 9999 FEW035"
    },
    {
      "icao": "LPPS",
      "alert": "OK",
      "vis_m": 9999,
      "fzfg": false,
      "metar_trigger": false,
      "taf_trigger": false,
      "metar": "METAR LPPS 141200Z 34012KT 320V020 9999 FEW015 BKN030 22/14 Q1022",
      "taf": "TAF LPPS 141100Z 1412/1518 36013KT 9999 FEW015 BKN030"
    },
    {
      "icao": "LPPT",
      "alert": "OK",
      "vis_m": 9999,
      "fzfg": false,
      "metar_trigger": false,
      "taf_trigger": false,
      "metar": "METAR LPPT 141200Z 20013KT 9999 FEW032 25/16 Q1016",
      "taf": "TAF LPPT 141100Z 1412/1518 25008KT CAVOK"
    },
    {
      "icao": "LQBK",
      "alert": "OK",
      "vis_m": 9999,
      "fzfg": false,
      "metar_trigger": false,
      "taf_trigger": false,
      "metar": "METAR LQBK 141200Z 31004KT 240V340 9999 FEW045 30/14 Q1010 NOSIG",
      "taf": "TAF LQBK 141100Z 1412/1512 28005KT 9999 FEW045 TX32/1414Z TN15/1503Z"
    },
    {
      "icao": "LQSA",
      "alert": "OK",
      "vis_m": 9999,
      "fzfg": false,
      "metar_trigger": false,
      "taf_trigger": false,
      "metar": "METAR LQSA 141200Z 28013KT 250V320 CAVOK 29/09 Q1013 NOSIG",
      "taf": "TAF LQSA 141100Z 1412/1512 VRB02KT CAVOK TX30/1414Z TN12/1503Z"
    },
    {
      "icao": "LQTZ",
      "alert": "OK",
      "vis_m": 9999,
      "fzfg": false,
      "metar_trigger": false,
      "taf_trigger": false,
      "metar": "METAR LQTZ 141200Z 30007KT 260V330 9999 FEW055 29/13 Q1011",
      "taf": "TAF LQTZ 141100Z 1412/1512 VRB02KT CAVOK TX30/1413Z TN14/1503Z"
    },
    {
      "icao": "LRBC",
      "alert": "OK",
      "vis_m": 9999,
      "fzfg": false,
      "metar_trigger": false,
      "taf_trigger": false,
      "metar": "METAR LRBC 141200Z 28007KT 250V320 9999 BKN063 26/12 Q1008",
      "taf": "TAF LRBC 140200Z 1403/1412 VRB04KT CAVOK"
    },
    {
      "icao": "LRBS",
      "alert": "OK",
      "vis_m": 9999,
      "fzfg": false,
      "metar_trigger": false,
      "taf_trigger": false,
      "metar": "METAR LRBS 141200Z 29007KT 230V360 CAVOK 28/13 Q1011 NOSIG",
      "taf": "TAF LRBS 141100Z 1412/1512 27006KT CAVOK"
    },
    {
      "icao": "LRBV",
      "alert": "OK",
      "vis_m": 9999,
      "fzfg": false,
      "metar_trigger": false,
      "taf_trigger": false,
      "metar": "METAR LRBV 141200Z 29010KT 260V330 9999 VCSH FEW050CB SCT053 22/13 Q1012",
      "taf": "TAF LRBV 140200Z 1403/1412 VRB04KT 9999 SCT060"
    },
    {
      "icao": "LRCL",
      "alert": "OK",
      "vis_m": 9999,
      "fzfg": false,
      "metar_trigger": false,
      "taf_trigger": false,
      "metar": "METAR LRCL 141200Z 29015KT 240V310 9999 FEW039CB BKN062 24/08 Q1010",
      "taf": "TAF LRCL 140200Z 1403/1412 VRB04KT 9999 SCT045"
    },
    {
      "icao": "LRCV",
      "alert": "OK",
      "vis_m": 9999,
      "fzfg": false,
      "metar_trigger": false,
      "taf_trigger": false,
      "metar": "METAR LRCV 141200Z 28012KT CAVOK 27/14 Q1012",
      "taf": "TAF LRCV 140200Z 1403/1412 28008KT CAVOK"
    },
    {
      "icao": "LRIA",
      "alert": "OK",
      "vis_m": 9999,
      "fzfg": false,
      "metar_trigger": false,
      "taf_trigger": false,
      "metar": "METAR LRIA 141200Z VRB02KT 9999 FEW030CB 19/13 Q1009",
      "taf": "TAF LRIA 140200Z 1403/1412 VRB03KT CAVOK"
    },
    {
      "icao": "LROP",
      "alert": "OK",
      "vis_m": 9999,
      "fzfg": false,
      "metar_trigger": false,
      "taf_trigger": false,
      "metar": "METAR LROP 141200Z 28009KT 240V300 CAVOK 27/11 Q1011 NOSIG",
      "taf": "TAF LROP 141100Z 1412/1512 27006KT CAVOK"
    },
    {
      "icao": "LRSB",
      "alert": "OK",
      "vis_m": 9999,
      "fzfg": false,
      "metar_trigger": false,
      "taf_trigger": false,
      "metar": "METAR LRSB 141200Z 29012KT 9999 SCT055 26/12 Q1011",
      "taf": "TAF LRSB 141100Z 1412/1512 31012KT 9999 SCT080"
    },
    {
      "icao": "LRSM",
      "alert": "OK",
      "vis_m": 9999,
      "fzfg": false,
      "metar_trigger": false,
      "taf_trigger": false,
      "metar": "METAR LRSM 141200Z AUTO 27017KT 9999 FEW070/// 25/13 Q1008",
      "taf": ""
    },
    {
      "icao": "LRSV",
      "alert": "OK",
      "vis_m": 9999,
      "fzfg": false,
      "metar_trigger": false,
      "taf_trigger": false,
      "metar": "METAR LRSV 141200Z 07005KT 9999 -SHRA FEW035CB SCT048 20/13 Q1009",
      "taf": "TAF LRSV 140200Z 1403/1412 25006KT CAVOK"
    },
    {
      "icao": "LRTM",
      "alert": "OK",
      "vis_m": 9999,
      "fzfg": false,
      "metar_trigger": false,
      "taf_trigger": false,
      "metar": "METAR LRTM 141200Z VRB11KT 9999 -TSRA FEW033 SCT036CB 22/16 Q1011",
      "taf": "TAF LRTM 140200Z 1403/1412 VRB04KT 9999 SCT045"
    },
    {
      "icao": "LRTR",
      "alert": "OK",
      "vis_m": 9999,
      "fzfg": false,
      "metar_trigger": false,
      "taf_trigger": false,
      "metar": "METAR LRTR 141200Z 20009KT 160V240 9999 VCSH FEW020 SCT050CB 28/13 Q1011",
      "taf": "TAF LRTR 141100Z 1412/1512 20010KT 9999 FEW040CB"
    },
    {
      "icao": "LTAC",
      "alert": "OK",
      "vis_m": 9999,
      "fzfg": false,
      "metar_trigger": false,
      "taf_trigger": false,
      "metar": "METAR LTAC 141220Z 35005KT 310V030 9999 -TSRA FEW030CB BKN035 BKN080 19/10 Q1014 BECMG TL1250 NSW",
      "taf": "TAF LTAC 141040Z 1412/1512 VRB02KT 9999 SCT040 SCT100"
    },
    {
      "icao": "LTFM",
      "alert": "OK",
      "vis_m": 9999,
      "fzfg": false,
      "metar_trigger": false,
      "taf_trigger": false,
      "metar": "METAR LTFM 141220Z 07007KT 340V110 9999 SCT035 25/10 Q1014 NOSIG",
      "taf": "TAF LTFM 141040Z 1412/1518 03010KT 9999 SCT035"
    },
    {
      "icao": "LUKK",
      "alert": "OK",
      "vis_m": 9999,
      "fzfg": false,
      "metar_trigger": false,
      "taf_trigger": false,
      "metar": "METAR LUKK 141200Z 27013KT 9999 SCT047CB 25/12 Q1009 TEMPO SCT045CB",
      "taf": "TAF LUKK 141101Z 1412/1512 26010KT 9999 SCT040"
    },
    {
      "icao": "LWOH",
      "alert": "OK",
      "vis_m": 9999,
      "fzfg": false,
      "metar_trigger": false,
      "taf_trigger": false,
      "metar": "METAR LWOH 141220Z 16008KT 9999 FEW040 23/15 Q1017",
      "taf": "TAF LWOH 141130Z 1412/1512 15010KT CAVOK"
    },
    {
      "icao": "LWSK",
      "alert": "OK",
      "vis_m": 9999,
      "fzfg": false,
      "metar_trigger": false,
      "taf_trigger": false,
      "metar": "METAR LWSK 141220Z COR 30004KT CAVOK 30/12 Q1014 NOSIG",
      "taf": "TAF LWSK 141130Z 1412/1512 VRB02KT CAVOK"
    },
    {
      "icao": "LYBE",
      "alert": "OK",
      "vis_m": 9999,
      "fzfg": false,
      "metar_trigger": false,
      "taf_trigger": false,
      "metar": "METAR LYBE 141200Z 21009KT 160V260 CAVOK 30/12 Q1011 NOSIG",
      "taf": "TAF LYBE 141100Z 1412/1512 26010KT 9999 SCT045 TX32/1414Z TN16/1503Z"
    },
    {
      "icao": "LYNI",
      "alert": "OK",
      "vis_m": 9999,
      "fzfg": false,
      "metar_trigger": false,
      "taf_trigger": false,
      "metar": "METAR LYNI 141200Z VRB02KT CAVOK 29/09 Q1014 NOSIG",
      "taf": "TAF LYNI 141100Z 1412/1512 20006KT CAVOK TX31/1414Z TN15/1504Z"
    },
    {
      "icao": "LYPG",
      "alert": "OK",
      "vis_m": 9999,
      "fzfg": false,
      "metar_trigger": false,
      "taf_trigger": false,
      "metar": "METAR LYPG 141200Z 16007KT 100V220 CAVOK 29/14 Q1014 NOSIG",
      "taf": "TAF LYPG 141100Z 1412/1512 18008KT CAVOK TX31/1414Z TN19/1503Z"
    },
    {
      "icao": "LZIB",
      "alert": "OK",
      "vis_m": 9999,
      "fzfg": false,
      "metar_trigger": false,
      "taf_trigger": false,
      "metar": "METAR LZIB 141200Z 27020KT 9999 SCT049 23/10 Q1011 NOSIG",
      "taf": "TAF LZIB 141115Z 1412/1512 29012KT CAVOK"
    },
    {
      "icao": "LZKZ",
      "alert": "OK",
      "vis_m": 9999,
      "fzfg": false,
      "metar_trigger": false,
      "taf_trigger": false,
      "metar": "METAR LZKZ 141200Z 24016KT 9999 FEW047 24/11 Q1007 NOSIG",
      "taf": "TAF LZKZ 141115Z 1412/1512 23015KT CAVOK"
    },
    {
      "icao": "LZTT",
      "alert": "OK",
      "vis_m": 9999,
      "fzfg": false,
      "metar_trigger": false,
      "taf_trigger": false,
      "metar": "METAR LZTT 141200Z 29015KT 9999 FEW060 18/06 Q1009 NOSIG",
      "taf": "TAF LZTT 141115Z 1412/1512 27015KT 9999 SCT060"
    },
    {
      "icao": "OEJN",
      "alert": "OK",
      "vis_m": 9999,
      "fzfg": false,
      "metar_trigger": false,
      "taf_trigger": false,
      "metar": "METAR OEJN 141200Z 30012KT CAVOK 36/20 Q1004 NOSIG",
      "taf": "TAF OEJN 141100Z 1412/1518 30012KT CAVOK"
    },
    {
      "icao": "OEMA",
      "alert": "OK",
      "vis_m": 9999,
      "fzfg": false,
      "metar_trigger": false,
      "taf_trigger": false,
      "metar": "METAR OEMA 141200Z 24006KT CAVOK 43/M03 Q1009 NOSIG",
      "taf": "TAF OEMA 141100Z 1412/1518 28008KT CAVOK"
    },
    {
      "icao": "OJAI",
      "alert": "OK",
      "vis_m": 4000,
      "fzfg": false,
      "metar_trigger": false,
      "taf_trigger": false,
      "metar": "METAR OJAI 141200Z 27015KT 4000 BLDU NSC 29/08 Q1013 NOSIG",
      "taf": "TAF OJAI 141100Z 1412/1518 31010KT 5000 HZ NSC"
    },
    {
      "icao": "OMAA",
      "alert": "OK",
      "vis_m": 9999,
      "fzfg": false,
      "metar_trigger": false,
      "taf_trigger": false,
      "metar": "METAR OMAA 141200Z 32015KT CAVOK 37/27 Q1000 NOSIG",
      "taf": "TAF OMAA 141100Z 1412/1518 34012KT 8000 NSC"
    },
    {
      "icao": "OMDB",
      "alert": "OK",
      "vis_m": 9999,
      "fzfg": false,
      "metar_trigger": false,
      "taf_trigger": false,
      "metar": "METAR OMDB 141200Z 33015KT CAVOK 39/20 Q1000 NOSIG",
      "taf": "TAF OMDB 141100Z 1412/1518 32010KT 8000 NSC"
    },
    {
      "icao": "UAAA",
      "alert": "OK",
      "vis_m": 9999,
      "fzfg": false,
      "metar_trigger": false,
      "taf_trigger": false,
      "metar": "METAR UAAA 141200Z 05004MPS 9999 SCT050CB 33/11 Q1006 NOSIG",
      "taf": "TAF UAAA 141110Z 1412/1512 16003MPS 9999 SCT050CB BKN100 TX35/1509Z TN19/1500Z"
    },
    {
      "icao": "UBBB",
      "alert": "OK",
      "vis_m": 9999,
      "fzfg": false,
      "metar_trigger": false,
      "taf_trigger": false,
      "metar": "METAR UBBB 141200Z 16016KT CAVOK 29/15 Q1003 NOSIG",
      "taf": "TAF UBBB 141054Z 1412/1512 17010KT 9999 SCT040 TX30/1412Z TN19/1500Z"
    },
    {
      "icao": "UDSG",
      "alert": "OK",
      "vis_m": 9999,
      "fzfg": false,
      "metar_trigger": false,
      "taf_trigger": false,
      "metar": "METAR UDSG 141200Z 21015KT 9999 VCTS -SHRA BKN036CB 12/09 Q1014 TEMPO -TSRA",
      "taf": "TAF UDSG 141100Z 1412/1512 03006KT 9999 SCT040"
    },
    {
      "icao": "UDYZ",
      "alert": "OK",
      "vis_m": 9999,
      "fzfg": false,
      "metar_trigger": false,
      "taf_trigger": false,
      "metar": "METAR UDYZ 141200Z 35005KT 300V050 9999 VCTS SCT043CB 27/13 Q1007 NOSIG",
      "taf": "TAF UDYZ 141100Z 1412/1512 04006KT 9999 SCT040"
    },
    {
      "icao": "UGKO",
      "alert": "OK",
      "vis_m": 9999,
      "fzfg": false,
      "metar_trigger": false,
      "taf_trigger": false,
      "metar": "METAR UGKO 141200Z 28007KT 250V340 9999 SCT033CB BKN088 24/16 Q1007 NOSIG",
      "taf": "TAF UGKO 141100Z 1412/1512 26010KT 9999 BKN080 TX24/1412Z TN17/1501Z"
    }
  ]
}