{
  "ts_utc": "2026-05-25T17:23:50Z",
  "threshold_m": 150,
  "source": "stations_override.txt (ICAO list) + aviationweather.gov (METAR/TAF raw)",
  "station_count": 159,
  "stations": [
    {
      "icao": "BIKF",
      "alert": "OK",
      "vis_m": 9999,
      "fzfg": false,
      "metar_trigger": false,
      "taf_trigger": false,
      "metar": "METAR BIKF 251700Z 27015KT 9999 FEW011 SCT098 09/06 Q1011",
      "taf": "TAF BIKF 251647Z 2518/2618 24012KT 9999 -SHRA SCT015TCU BKN028 TX09/2613Z TN06/2601Z"
    },
    {
      "icao": "BKPR",
      "alert": "OK",
      "vis_m": 9999,
      "fzfg": false,
      "metar_trigger": false,
      "taf_trigger": false,
      "metar": "METAR BKPR 251700Z 01010KT CAVOK 24/10 Q1026 NOSIG",
      "taf": ""
    },
    {
      "icao": "EBCI",
      "alert": "OK",
      "vis_m": 9999,
      "fzfg": false,
      "metar_trigger": false,
      "taf_trigger": false,
      "metar": "METAR EBCI 251650Z 06008KT CAVOK 27/12 Q1031 NOSIG",
      "taf": "TAF EBCI 251100Z 2512/2618 04005KT CAVOK"
    },
    {
      "icao": "EDDB",
      "alert": "OK",
      "vis_m": 9999,
      "fzfg": false,
      "metar_trigger": false,
      "taf_trigger": false,
      "metar": "METAR EDDB 251650Z AUTO 30009KT 270V330 CAVOK 26/12 Q1029 NOSIG",
      "taf": "TAF EDDB 251100Z 2512/2612 29005KT CAVOK"
    },
    {
      "icao": "EDDH",
      "alert": "OK",
      "vis_m": 9999,
      "fzfg": false,
      "metar_trigger": false,
      "taf_trigger": false,
      "metar": "METAR EDDH 251650Z AUTO 30010KT 270V340 CAVOK 24/12 Q1031 BECMG 30005KT",
      "taf": "TAF EDDH 251100Z 2512/2618 30007KT CAVOK"
    },
    {
      "icao": "EDDK",
      "alert": "OK",
      "vis_m": 9999,
      "fzfg": false,
      "metar_trigger": false,
      "taf_trigger": false,
      "metar": "METAR EDDK 251650Z AUTO 04005KT 340V060 CAVOK 29/12 Q1030 NOSIG",
      "taf": "TAF EDDK 251100Z 2512/2618 VRB03KT CAVOK"
    },
    {
      "icao": "EDDN",
      "alert": "OK",
      "vis_m": 9999,
      "fzfg": false,
      "metar_trigger": false,
      "taf_trigger": false,
      "metar": "METAR EDDN 251650Z AUTO 36007KT 320V040 CAVOK 29/09 Q1029 NOSIG",
      "taf": "TAF EDDN 251100Z 2512/2612 VRB03KT CAVOK"
    },
    {
      "icao": "EDDS",
      "alert": "OK",
      "vis_m": 9999,
      "fzfg": false,
      "metar_trigger": false,
      "taf_trigger": false,
      "metar": "METAR EDDS 251650Z AUTO VRB07KT CAVOK 29/11 Q1029 NOSIG",
      "taf": "TAF EDDS 251100Z 2512/2612 VRB03KT CAVOK"
    },
    {
      "icao": "EDFH",
      "alert": "OK",
      "vis_m": 9999,
      "fzfg": false,
      "metar_trigger": false,
      "taf_trigger": false,
      "metar": "METAR EDFH 251650Z 36006KT CAVOK 26/09 Q1031",
      "taf": "TAF EDFH 251100Z 2512/2612 03005KT CAVOK"
    },
    {
      "icao": "EDJA",
      "alert": "OK",
      "vis_m": 9999,
      "fzfg": false,
      "metar_trigger": false,
      "taf_trigger": false,
      "metar": "METAR EDJA 251650Z 03008KT CAVOK 27/09 Q1030",
      "taf": "TAF EDJA 251400Z 2515/2524 03006KT CAVOK"
    },
    {
      "icao": "EDLW",
      "alert": "OK",
      "vis_m": 9999,
      "fzfg": false,
      "metar_trigger": false,
      "taf_trigger": false,
      "metar": "METAR EDLW 251650Z 36004KT 330V060 CAVOK 26/10 Q1031",
      "taf": "TAF EDLW 251100Z 2512/2612 VRB03KT CAVOK"
    },
    {
      "icao": "EDNY",
      "alert": "OK",
      "vis_m": 9999,
      "fzfg": false,
      "metar_trigger": false,
      "taf_trigger": false,
      "metar": "METAR EDNY 251650Z 01006KT CAVOK 29/10 Q1029",
      "taf": "TAF EDNY 251400Z 2515/2524 02004KT CAVOK"
    },
    {
      "icao": "EDSB",
      "alert": "OK",
      "vis_m": 9999,
      "fzfg": false,
      "metar_trigger": false,
      "taf_trigger": false,
      "metar": "METAR EDSB 251650Z 02007KT CAVOK 29/13 Q1028",
      "taf": "TAF EDSB 251100Z 2512/2612 02007KT CAVOK"
    },
    {
      "icao": "EETN",
      "alert": "OK",
      "vis_m": 9999,
      "fzfg": false,
      "metar_trigger": false,
      "taf_trigger": false,
      "metar": "METAR EETN 251720Z 28018KT CAVOK 13/04 Q1015 TEMPO 28018G30KT",
      "taf": "TAF EETN 251130Z 2512/2612 28020KT CAVOK"
    },
    {
      "icao": "EFTU",
      "alert": "OK",
      "vis_m": 9999,
      "fzfg": false,
      "metar_trigger": false,
      "taf_trigger": false,
      "metar": "METAR EFTU 251720Z AUTO 31011KT 270V350 CAVOK 14/01 Q1016",
      "taf": "TAF EFTU 251429Z 2515/2615 32015KT 9999 SCT047"
    },
    {
      "icao": "EGBB",
      "alert": "OK",
      "vis_m": 9999,
      "fzfg": false,
      "metar_trigger": false,
      "taf_trigger": false,
      "metar": "METAR EGBB 251650Z 18005KT 140V210 CAVOK 31/13 Q1029",
      "taf": "TAF EGBB 251659Z 2518/2618 17006KT CAVOK"
    },
    {
      "icao": "EGGP",
      "alert": "OK",
      "vis_m": 9999,
      "fzfg": false,
      "metar_trigger": false,
      "taf_trigger": false,
      "metar": "METAR EGGP 251650Z 18006KT 140V250 CAVOK 30/14 Q1027",
      "taf": "TAF EGGP 251654Z 2518/2618 18006KT CAVOK"
    },
    {
      "icao": "EGGW",
      "alert": "OK",
      "vis_m": 9999,
      "fzfg": false,
      "metar_trigger": false,
      "taf_trigger": false,
      "metar": "METAR EGGW 251650Z AUTO 12009KT 090V150 9999 NCD 30/15 Q1029",
      "taf": "TAF EGGW 251655Z 2518/2618 14007KT CAVOK"
    },
    {
      "icao": "EGKK",
      "alert": "OK",
      "vis_m": 9999,
      "fzfg": false,
      "metar_trigger": false,
      "taf_trigger": false,
      "metar": "METAR EGKK 251650Z 14006KT 110V190 CAVOK 31/15 Q1029",
      "taf": "TAF EGKK 251700Z 2518/2624 14010KT CAVOK"
    },
    {
      "icao": "EGNM",
      "alert": "OK",
      "vis_m": 9999,
      "fzfg": false,
      "metar_trigger": false,
      "taf_trigger": false,
      "metar": "METAR EGNM 251650Z 22010KT 170V260 CAVOK 29/11 Q1029",
      "taf": "TAF EGNM 251654Z 2518/2618 22010KT CAVOK"
    },
    {
      "icao": "EGPD",
      "alert": "OK",
      "vis_m": 9999,
      "fzfg": false,
      "metar_trigger": false,
      "taf_trigger": false,
      "metar": "METAR EGPD 251650Z COR AUTO 04010KT 9999 NCD 21/14 Q1027 NOSIG",
      "taf": "TAF EGPD 251656Z 2518/2618 06005KT 9999 FEW045"
    },
    {
      "icao": "EGPF",
      "alert": "OK",
      "vis_m": 9999,
      "fzfg": false,
      "metar_trigger": false,
      "taf_trigger": false,
      "metar": "METAR EGPF 251650Z AUTO 28009KT 9999 NCD 23/12 Q1028",
      "taf": "TAF EGPF 251652Z 2518/2618 29006KT 9999 FEW030"
    },
    {
      "icao": "EHBK",
      "alert": "OK",
      "vis_m": 9999,
      "fzfg": false,
      "metar_trigger": false,
      "taf_trigger": false,
      "metar": "METAR EHBK 251655Z AUTO 06007KT 320V100 9999 NCD 28/12 Q1030 NOSIG",
      "taf": "TAF EHBK 251042Z 2512/2618 06003KT CAVOK"
    },
    {
      "icao": "EHEH",
      "alert": "OK",
      "vis_m": 9999,
      "fzfg": false,
      "metar_trigger": false,
      "taf_trigger": false,
      "metar": "METAR EHEH 251655Z AUTO 04004KT 340V100 9999 ////// 28/10 Q1030 BLU NOSIG",
      "taf": "TAF EHEH 251154Z 2512/2618 06005KT CAVOK"
    },
    {
      "icao": "EKBI",
      "alert": "OK",
      "vis_m": 9999,
      "fzfg": false,
      "metar_trigger": false,
      "taf_trigger": false,
      "metar": "METAR EKBI 251650Z AUTO 28013KT 9999 NCD 20/10 Q1029",
      "taf": "TAF EKBI 251427Z 2515/2615 25015KT CAVOK"
    },
    {
      "icao": "EKCH",
      "alert": "OK",
      "vis_m": 9999,
      "fzfg": false,
      "metar_trigger": false,
      "taf_trigger": false,
      "metar": "METAR EKCH 251650Z AUTO 26015KT 9999 NCD 23/10 Q1027 NOSIG",
      "taf": "TAF EKCH 251427Z 2515/2615 28011KT CAVOK"
    },
    {
      "icao": "ENAL",
      "alert": "OK",
      "vis_m": 9999,
      "fzfg": false,
      "metar_trigger": false,
      "taf_trigger": false,
      "metar": "METAR ENAL 251650Z 23012KT 9999 FEW008 BKN018 11/09 Q1021",
      "taf": ""
    },
    {
      "icao": "ENBR",
      "alert": "OK",
      "vis_m": 9999,
      "fzfg": false,
      "metar_trigger": false,
      "taf_trigger": false,
      "metar": "METAR ENBR 251650Z 19008KT 9999 VV003 10/10 Q1026 TEMPO 3000 -RADZ BR RMK WIND 1200FT 24014KT",
      "taf": ""
    },
    {
      "icao": "ENGM",
      "alert": "OK",
      "vis_m": 9999,
      "fzfg": false,
      "metar_trigger": false,
      "taf_trigger": false,
      "metar": "METAR ENGM 251650Z 26009KT 220V310 CAVOK 19/05 Q1020 NOSIG",
      "taf": "TAF ENGM 251100Z 2512/2612 24008KT 9999 SCT040"
    },
    {
      "icao": "ENHD",
      "alert": "OK",
      "vis_m": 9999,
      "fzfg": false,
      "metar_trigger": false,
      "taf_trigger": false,
      "metar": "METAR ENHD 251650Z 22007KT 9999 SCT013 BKN035 12/10 Q1027",
      "taf": ""
    },
    {
      "icao": "ENTC",
      "alert": "OK",
      "vis_m": 9999,
      "fzfg": false,
      "metar_trigger": false,
      "taf_trigger": false,
      "metar": "METAR ENTC 251650Z 28010KT 9999 -RA SCT027 BKN032 08/05 Q1011 NOSIG RMK WIND 2600FT 23016KT",
      "taf": ""
    },
    {
      "icao": "ENTO",
      "alert": "OK",
      "vis_m": 9999,
      "fzfg": false,
      "metar_trigger": false,
      "taf_trigger": false,
      "metar": "METAR ENTO 251650Z 29008KT 250V320 CAVOK 20/09 Q1022 NOSIG",
      "taf": "TAF ENTO 251100Z 2512/2612 21012KT CAVOK"
    },
    {
      "icao": "ENVA",
      "alert": "OK",
      "vis_m": 9999,
      "fzfg": false,
      "metar_trigger": false,
      "taf_trigger": false,
      "metar": "METAR ENVA 251650Z 22004KT 200V260 9999 SCT030 BKN050 11/07 Q1021 NOSIG RMK WIND 670FT 27005KT",
      "taf": "TAF ENVA 251100Z 2512/2612 24008KT 9999 SCT020 BKN030"
    },
    {
      "icao": "ENZV",
      "alert": "OK",
      "vis_m": 9999,
      "fzfg": false,
      "metar_trigger": false,
      "taf_trigger": false,
      "metar": "METAR ENZV 251650Z 30003KT CAVOK 15/11 Q1027 NOSIG",
      "taf": "TAF ENZV 251100Z 2512/2612 24007KT 9999 SCT040"
    },
    {
      "icao": "EPGD",
      "alert": "OK",
      "vis_m": 9999,
      "fzfg": false,
      "metar_trigger": false,
      "taf_trigger": false,
      "metar": "METAR EPGD 251700Z 28019G29KT CAVOK 20/07 Q1026",
      "taf": ""
    },
    {
      "icao": "EPKK",
      "alert": "OK",
      "vis_m": 9999,
      "fzfg": false,
      "metar_trigger": false,
      "taf_trigger": false,
      "metar": "METAR EPKK 251700Z 32008KT CAVOK 24/09 Q1028",
      "taf": "TAF EPKK 251430Z 2515/2615 30010KT CAVOK"
    },
    {
      "icao": "EPKT",
      "alert": "OK",
      "vis_m": 9999,
      "fzfg": false,
      "metar_trigger": false,
      "taf_trigger": false,
      "metar": "METAR EPKT 251700Z 34007KT 320V020 CAVOK 23/09 Q1029",
      "taf": "TAF EPKT 251130Z 2512/2612 34010KT CAVOK"
    },
    {
      "icao": "EPLB",
      "alert": "OK",
      "vis_m": 9999,
      "fzfg": false,
      "metar_trigger": false,
      "taf_trigger": false,
      "metar": "METAR EPLB 251700Z 30008KT 280V350 CAVOK 24/10 Q1025",
      "taf": "TAF EPLB 251130Z 2512/2612 30010KT CAVOK"
    },
    {
      "icao": "EPMO",
      "alert": "OK",
      "vis_m": 9999,
      "fzfg": false,
      "metar_trigger": false,
      "taf_trigger": false,
      "metar": "METAR EPMO 251700Z 29011KT CAVOK 25/10 Q1026",
      "taf": "TAF EPMO 251130Z 2512/2612 29010KT CAVOK"
    },
    {
      "icao": "EPPO",
      "alert": "OK",
      "vis_m": 9999,
      "fzfg": false,
      "metar_trigger": false,
      "taf_trigger": false,
      "metar": "METAR EPPO 251700Z 31010KT CAVOK 26/09 Q1028",
      "taf": "TAF EPPO 251130Z 2512/2612 32010KT CAVOK"
    },
    {
      "icao": "EPRA",
      "alert": "OK",
      "vis_m": 9999,
      "fzfg": false,
      "metar_trigger": false,
      "taf_trigger": false,
      "metar": "METAR EPRA 251700Z 33011KT 300V360 CAVOK 24/09 Q1026",
      "taf": "TAF EPRA 251430Z 2515/2524 31010KT CAVOK"
    },
    {
      "icao": "EPRZ",
      "alert": "OK",
      "vis_m": 9999,
      "fzfg": false,
      "metar_trigger": false,
      "taf_trigger": false,
      "metar": "METAR EPRZ 251700Z 32010KT CAVOK 24/09 Q1026",
      "taf": "TAF EPRZ 251130Z 2512/2612 33012KT CAVOK"
    },
    {
      "icao": "EPSC",
      "alert": "OK",
      "vis_m": 9999,
      "fzfg": false,
      "metar_trigger": false,
      "taf_trigger": false,
      "metar": "METAR EPSC 251700Z 31011KT CAVOK 23/11 Q1029",
      "taf": ""
    },
    {
      "icao": "EPSY",
      "alert": "OK",
      "vis_m": 9999,
      "fzfg": false,
      "metar_trigger": false,
      "taf_trigger": false,
      "metar": "METAR EPSY 251700Z 32008KT 280V350 CAVOK 23/10 Q1025",
      "taf": "TAF EPSY 251430Z 2515/2524 30012KT CAVOK"
    },
    {
      "icao": "EPWA",
      "alert": "OK",
      "vis_m": 9999,
      "fzfg": false,
      "metar_trigger": false,
      "taf_trigger": false,
      "metar": "METAR EPWA 251700Z 30015KT CAVOK 24/09 Q1026 NOSIG",
      "taf": "TAF EPWA 251430Z 2515/2615 30010KT CAVOK"
    },
    {
      "icao": "EPWR",
      "alert": "OK",
      "vis_m": 9999,
      "fzfg": false,
      "metar_trigger": false,
      "taf_trigger": false,
      "metar": "METAR EPWR 251700Z 31007KT CAVOK 26/09 Q1029",
      "taf": "TAF EPWR 251430Z 2515/2615 33010KT CAVOK"
    },
    {
      "icao": "ESGG",
      "alert": "OK",
      "vis_m": 9999,
      "fzfg": false,
      "metar_trigger": false,
      "taf_trigger": false,
      "metar": "METAR ESGG 251650Z 25013KT 220V280 CAVOK 18/11 Q1024",
      "taf": "TAF ESGG 251430Z 2515/2615 26010KT CAVOK"
    },
    {
      "icao": "ESKN",
      "alert": "OK",
      "vis_m": 9999,
      "fzfg": false,
      "metar_trigger": false,
      "taf_trigger": false,
      "metar": "METAR ESKN 251650Z 29010KT 260V320 9999 BKN045 18/12 Q1019",
      "taf": "TAF ESKN 251430Z 2515/2615 30012KT CAVOK"
    },
    {
      "icao": "ESMS",
      "alert": "OK",
      "vis_m": 9999,
      "fzfg": false,
      "metar_trigger": false,
      "taf_trigger": false,
      "metar": "METAR ESMS 251650Z 30013KT CAVOK 22/11 Q1027",
      "taf": "TAF ESMS 251427Z 2515/2615 28013KT CAVOK"
    },
    {
      "icao": "ESSA",
      "alert": "OK",
      "vis_m": 9999,
      "fzfg": false,
      "metar_trigger": false,
      "taf_trigger": false,
      "metar": "METAR ESSA 251650Z 29010KT CAVOK 16/06 Q1018 NOSIG",
      "taf": "TAF ESSA 251430Z 2515/2615 27009KT 9999 SCT045"
    },
    {
      "icao": "EYKA",
      "alert": "OK",
      "vis_m": 9999,
      "fzfg": false,
      "metar_trigger": false,
      "taf_trigger": false,
      "metar": "METAR EYKA 251720Z 30010KT 270V330 CAVOK 19/08 Q1021",
      "taf": "TAF EYKA 251700Z 2518/2618 28010KT 9000 NSC"
    },
    {
      "icao": "EYPA",
      "alert": "OK",
      "vis_m": 9999,
      "fzfg": false,
      "metar_trigger": false,
      "taf_trigger": false,
      "metar": "METAR EYPA 251720Z 22006KT 190V280 CAVOK 13/10 Q1022",
      "taf": "TAF EYPA 251700Z 2518/2618 VRB03KT 9000 BKN045"
    },
    {
      "icao": "EYVI",
      "alert": "OK",
      "vis_m": 9999,
      "fzfg": false,
      "metar_trigger": false,
      "taf_trigger": false,
      "metar": "METAR EYVI 251720Z 29014KT 260V330 CAVOK 19/08 Q1020 NOSIG",
      "taf": "TAF EYVI 251700Z 2518/2618 28010KT 9000 NSC"
    },
    {
      "icao": "GCFV",
      "alert": "OK",
      "vis_m": 9999,
      "fzfg": false,
      "metar_trigger": false,
      "taf_trigger": false,
      "metar": "METAR GCFV 251700Z 06005KT 030V100 CAVOK 24/19 Q1016",
      "taf": "TAF GCFV 251400Z 2515/2615 15010KT CAVOK TX33/2614Z TN20/2606Z"
    },
    {
      "icao": "GCLP",
      "alert": "OK",
      "vis_m": 9999,
      "fzfg": false,
      "metar_trigger": false,
      "taf_trigger": false,
      "metar": "METAR GCLP 251700Z 03017KT CAVOK 23/18 Q1017 NOSIG",
      "taf": "TAF GCLP 251400Z 2515/2615 03020KT 9999 FEW020 TX29/2614Z TN20/2606Z"
    },
    {
      "icao": "GCTS",
      "alert": "OK",
      "vis_m": 9999,
      "fzfg": false,
      "metar_trigger": false,
      "taf_trigger": false,
      "metar": "METAR GCTS 251700Z 10016KT 070V130 CAVOK 24/17 Q1017 NOSIG",
      "taf": "TAF GCTS 251400Z 2515/2615 11010KT 9999 FEW015 TX30/2614Z TN21/2606Z"
    },
    {
      "icao": "GMAD",
      "alert": "OK",
      "vis_m": 9999,
      "fzfg": false,
      "metar_trigger": false,
      "taf_trigger": false,
      "metar": "METAR GMAD 251700Z 26016KT 9999 SCT040 35/06 Q1015 NOSIG",
      "taf": "TAF GMAD 251700Z 2518/2624 20008KT 8000 SCT040"
    },
    {
      "icao": "GMMN",
      "alert": "OK",
      "vis_m": 9999,
      "fzfg": false,
      "metar_trigger": false,
      "taf_trigger": false,
      "metar": "METAR GMMN 251700Z 03014KT 360V060 CAVOK 40/08 Q1017 NOSIG",
      "taf": "TAF GMMN 251100Z 2512/2618 36010KT CAVOK"
    },
    {
      "icao": "GMMX",
      "alert": "OK",
      "vis_m": 3000,
      "fzfg": false,
      "metar_trigger": false,
      "taf_trigger": false,
      "metar": "METAR GMMX 251700Z 14014G27KT 100V160 3000 TSRA BKN030 SCT040CB 33/13 Q1018 NOSIG",
      "taf": "TAF GMMX 251700Z 2518/2624 24016KT 8000 SCT033 SCT100"
    },
    {
      "icao": "HEGN",
      "alert": "OK",
      "vis_m": 9999,
      "fzfg": false,
      "metar_trigger": false,
      "taf_trigger": false,
      "metar": "METAR HEGN 251600Z 36016KT CAVOK 29/12 Q1011 NOSIG",
      "taf": "TAF HEGN 251700Z 2518/2624 33008G20KT CAVOK"
    },
    {
      "icao": "HEMA",
      "alert": "OK",
      "vis_m": 9999,
      "fzfg": false,
      "metar_trigger": false,
      "taf_trigger": false,
      "metar": "METAR HEMA 251600Z 35015KT CAVOK 28/14 Q1011 NOSIG",
      "taf": "TAF HEMA 251707Z 2518/2624 34008G20KT CAVOK"
    },
    {
      "icao": "HESH",
      "alert": "OK",
      "vis_m": 9999,
      "fzfg": false,
      "metar_trigger": false,
      "taf_trigger": false,
      "metar": "METAR HESH 251600Z 35009KT CAVOK 33/10 Q1010 NOSIG",
      "taf": "TAF HESH 251700Z 2518/2624 36014KT CAVOK"
    },
    {
      "icao": "HESX",
      "alert": "OK",
      "vis_m": 9999,
      "fzfg": false,
      "metar_trigger": false,
      "taf_trigger": false,
      "metar": "METAR HESX 251600Z 35010KT CAVOK 26/13 Q1016 NOSIG",
      "taf": "TAF HESX 251707Z 2518/2624 35010KT CAVOK"
    },
    {
      "icao": "LATI",
      "alert": "OK",
      "vis_m": 9999,
      "fzfg": false,
      "metar_trigger": false,
      "taf_trigger": false,
      "metar": "METAR LATI 251720Z 32008KT 280V340 CAVOK 24/11 Q1023 NOSIG",
      "taf": "TAF LATI 251700Z 2518/2618 VRB05KT CAVOK TX32/2612Z TN14/2604Z"
    },
    {
      "icao": "LBPD",
      "alert": "OK",
      "vis_m": 9999,
      "fzfg": false,
      "metar_trigger": false,
      "taf_trigger": false,
      "metar": "METAR LBPD 251700Z AUTO 15007KT 9999 NCD 22/16 Q1022 NOSIG",
      "taf": "TAF LBPD 251700Z 2518/2618 VRB04KT 9999 SCT060"
    },
    {
      "icao": "LBSF",
      "alert": "OK",
      "vis_m": 9999,
      "fzfg": false,
      "metar_trigger": false,
      "taf_trigger": false,
      "metar": "METAR LBSF 251700Z AUTO 01004KT 330V070 9999 FEW012/// 23/11 Q1025 NOSIG",
      "taf": "TAF LBSF 251700Z 2518/2618 04010KT 9999 SCT060"
    },
    {
      "icao": "LBWN",
      "alert": "OK",
      "vis_m": 9999,
      "fzfg": false,
      "metar_trigger": false,
      "taf_trigger": false,
      "metar": "METAR LBWN 251700Z AUTO 11003KT 9999 NSC 22/12 Q1021 NOSIG",
      "taf": "TAF LBWN 251700Z 2518/2618 VRB04KT 9999 SCT040"
    },
    {
      "icao": "LCLK",
      "alert": "OK",
      "vis_m": 9999,
      "fzfg": false,
      "metar_trigger": false,
      "taf_trigger": false,
      "metar": "METAR LCLK 251700Z 22007KT 9999 FEW025TCU SCT050 22/19 Q1016 NOSIG",
      "taf": "TAF LCLK 251130Z 2512/2612 21016KT 9999 FEW025"
    },
    {
      "icao": "LCPH",
      "alert": "OK",
      "vis_m": 9999,
      "fzfg": false,
      "metar_trigger": false,
      "taf_trigger": false,
      "metar": "METAR LCPH 251700Z 31009KT 9999 FEW020 21/17 Q1016 NOSIG",
      "taf": "TAF LCPH 251130Z 2512/2612 29012KT 9999 FEW020"
    },
    {
      "icao": "LEAL",
      "alert": "OK",
      "vis_m": 9999,
      "fzfg": false,
      "metar_trigger": false,
      "taf_trigger": false,
      "metar": "METAR LEAL 251700Z 08009KT 040V100 9999 FEW020 24/16 Q1026 NOSIG",
      "taf": "TAF LEAL 251100Z 2512/2612 09010KT CAVOK TX27/2512Z TN15/2605Z"
    },
    {
      "icao": "LEBB",
      "alert": "OK",
      "vis_m": 9999,
      "fzfg": false,
      "metar_trigger": false,
      "taf_trigger": false,
      "metar": "METAR LEBB 251700Z 14009KT 080V190 CAVOK 34/12 Q1022 NOSIG",
      "taf": "TAF LEBB 251100Z 2512/2612 13009KT CAVOK TX36/2515Z TN18/2605Z"
    },
    {
      "icao": "LEBL",
      "alert": "OK",
      "vis_m": 9999,
      "fzfg": false,
      "metar_trigger": false,
      "taf_trigger": false,
      "metar": "METAR LEBL 251700Z 10006KT 070V140 CAVOK 25/18 Q1027 NOSIG",
      "taf": "TAF LEBL 251100Z 2512/2612 12008KT 9999 FEW010 TX26/2512Z TN18/2605Z"
    },
    {
      "icao": "LECH",
      "alert": "OK",
      "vis_m": 9999,
      "fzfg": false,
      "metar_trigger": false,
      "taf_trigger": false,
      "metar": "METAR LECH 251700Z AUTO 10006KT 060V120 CAVOK 24/11 Q1028",
      "taf": "TAF LECH 251100Z 2512/2612 09009KT CAVOK TX30/2513Z TN13/2605Z"
    },
    {
      "icao": "LEMD",
      "alert": "OK",
      "vis_m": 9999,
      "fzfg": false,
      "metar_trigger": false,
      "taf_trigger": false,
      "metar": "METAR LEMD 251700Z 14007KT CAVOK 31/02 Q1025 NOSIG",
      "taf": "TAF LEMD 251100Z 2512/2618 VRB04KT CAVOK TX33/2516Z TN14/2605Z"
    },
    {
      "icao": "LEMG",
      "alert": "OK",
      "vis_m": 9999,
      "fzfg": false,
      "metar_trigger": false,
      "taf_trigger": false,
      "metar": "METAR LEMG 251700Z 13009KT 100V160 CAVOK 23/12 Q1025 NOSIG",
      "taf": "TAF LEMG 251100Z 2512/2612 13010KT CAVOK TX27/2514Z TN17/2606Z"
    },
    {
      "icao": "LEVC",
      "alert": "OK",
      "vis_m": 9999,
      "fzfg": false,
      "metar_trigger": false,
      "taf_trigger": false,
      "metar": "METAR LEVC 251700Z 08009KT 040V130 CAVOK 26/12 Q1027 NOSIG",
      "taf": "TAF LEVC 251100Z 2512/2612 09010KT CAVOK TX28/2512Z TN15/2605Z"
    },
    {
      "icao": "LEXJ",
      "alert": "OK",
      "vis_m": 9999,
      "fzfg": false,
      "metar_trigger": false,
      "taf_trigger": false,
      "metar": "METAR LEXJ 251700Z 10005KT 060V150 CAVOK 34/16 Q1020",
      "taf": "TAF LEXJ 251400Z 2515/2615 16008KT CAVOK TX36/2613Z TN18/2604Z"
    },
    {
      "icao": "LEZG",
      "alert": "OK",
      "vis_m": 9999,
      "fzfg": false,
      "metar_trigger": false,
      "taf_trigger": false,
      "metar": "METAR LEZG 251700Z 09016KT 070V130 CAVOK 32/08 Q1025 NOSIG",
      "taf": "TAF LEZG 251100Z 2512/2612 11012KT CAVOK TX34/2515Z TN17/2605Z"
    },
    {
      "icao": "LEZL",
      "alert": "OK",
      "vis_m": 9999,
      "fzfg": false,
      "metar_trigger": false,
      "taf_trigger": false,
      "metar": "METAR LEZL 251700Z 08003KT 020V150 CAVOK 36/08 Q1020 NOSIG",
      "taf": "TAF LEZL 251400Z 2515/2615 VRB03KT CAVOK TX36/2515Z TN15/2606Z"
    },
    {
      "icao": "LFBD",
      "alert": "OK",
      "vis_m": 9999,
      "fzfg": false,
      "metar_trigger": false,
      "taf_trigger": false,
      "metar": "METAR LFBD 251700Z AUTO 11010KT CAVOK 33/15 Q1024 NOSIG",
      "taf": "TAF LFBD 251100Z 2512/2618 12008KT CAVOK TX37/2615Z TN20/2605Z"
    },
    {
      "icao": "LFLL",
      "alert": "OK",
      "vis_m": 9999,
      "fzfg": false,
      "metar_trigger": false,
      "taf_trigger": false,
      "metar": "METAR LFLL 251700Z 03004KT CAVOK 32/14 Q1027 NOSIG",
      "taf": "TAF LFLL 251700Z 2518/2624 VRB04KT CAVOK"
    },
    {
      "icao": "LFLS",
      "alert": "OK",
      "vis_m": 9999,
      "fzfg": false,
      "metar_trigger": false,
      "taf_trigger": false,
      "metar": "METAR LFLS 251700Z AUTO VRB03KT CAVOK 31/12 Q1028 TEMPO FEW070CB",
      "taf": "TAF LFLS 251400Z 2515/2615 21006KT CAVOK"
    },
    {
      "icao": "LFMN",
      "alert": "OK",
      "vis_m": 9999,
      "fzfg": false,
      "metar_trigger": false,
      "taf_trigger": false,
      "metar": "METAR LFMN 251700Z 25004KT 220V280 CAVOK 29/13 Q1026 NOSIG",
      "taf": "TAF LFMN 251400Z 2515/2621 14004KT CAVOK"
    },
    {
      "icao": "LFOB",
      "alert": "OK",
      "vis_m": 9999,
      "fzfg": false,
      "metar_trigger": false,
      "taf_trigger": false,
      "metar": "METAR LFOB 251700Z AUTO 05007KT 360V070 CAVOK 29/20 Q1029 NOSIG",
      "taf": "TAF LFOB 251700Z 2518/2618 07008KT CAVOK"
    },
    {
      "icao": "LFPO",
      "alert": "OK",
      "vis_m": 9999,
      "fzfg": false,
      "metar_trigger": false,
      "taf_trigger": false,
      "metar": "METAR LFPO 251700Z 10009KT CAVOK 31/15 Q1028 NOSIG",
      "taf": "TAF LFPO 251100Z 2512/2618 09008KT CAVOK"
    },
    {
      "icao": "LFSB",
      "alert": "OK",
      "vis_m": 9999,
      "fzfg": false,
      "metar_trigger": false,
      "taf_trigger": false,
      "metar": "METAR LFSB 251700Z AUTO 01007KT 340V060 CAVOK 31/12 Q1028 NOSIG",
      "taf": "TAF LFSB 251700Z 2518/2618 36006KT CAVOK"
    },
    {
      "icao": "LGAV",
      "alert": "OK",
      "vis_m": 9999,
      "fzfg": false,
      "metar_trigger": false,
      "taf_trigger": false,
      "metar": "METAR LGAV 251650Z 05009KT 9999 FEW030 24/08 Q1022 NOSIG",
      "taf": "TAF LGAV 251700Z 2518/2618 04012KT 9999 FEW025"
    },
    {
      "icao": "LGTS",
      "alert": "OK",
      "vis_m": 9999,
      "fzfg": false,
      "metar_trigger": false,
      "taf_trigger": false,
      "metar": "METAR LGTS 251650Z 19007KT 9999 FEW025 26/11 Q1021 NOSIG",
      "taf": "TAF LGTS 251700Z 2518/2618 VRB03KT 9999 FEW025"
    },
    {
      "icao": "LHBP",
      "alert": "OK",
      "vis_m": 9999,
      "fzfg": false,
      "metar_trigger": false,
      "taf_trigger": false,
      "metar": "METAR LHBP 251700Z 33013KT CAVOK 28/11 Q1025 NOSIG",
      "taf": "TAF LHBP 251115Z 2512/2612 33012KT CAVOK"
    },
    {
      "icao": "LHDC",
      "alert": "OK",
      "vis_m": 9999,
      "fzfg": false,
      "metar_trigger": false,
      "taf_trigger": false,
      "metar": "METAR LHDC 251645Z AUTO 04011KT 010V070 CAVOK 27/10 Q1025 NOSIG",
      "taf": "TAF LHDC 251415Z 2515/2524 01008KT CAVOK"
    },
    {
      "icao": "LIBD",
      "alert": "OK",
      "vis_m": 9999,
      "fzfg": false,
      "metar_trigger": false,
      "taf_trigger": false,
      "metar": "METAR LIBD 251720Z 33005KT 300V010 CAVOK 24/11 Q1025",
      "taf": "TAF LIBD 251700Z 2518/2618 35010KT CAVOK"
    },
    {
      "icao": "LIBG",
      "alert": "OK",
      "vis_m": 9999,
      "fzfg": false,
      "metar_trigger": false,
      "taf_trigger": false,
      "metar": "METAR LIBG 251720Z AUTO 36007KT 9999 NCD 26/09 Q1024",
      "taf": "TAF LIBG 251700Z 2518/2618 32008KT CAVOK"
    },
    {
      "icao": "LIBP",
      "alert": "OK",
      "vis_m": 9999,
      "fzfg": false,
      "metar_trigger": false,
      "taf_trigger": false,
      "metar": "METAR LIBP 251720Z AUTO 04003KT 9999 NCD 26/14 Q1026",
      "taf": "TAF LIBP 251700Z 2518/2618 VRB05KT CAVOK"
    },
    {
      "icao": "LIBR",
      "alert": "OK",
      "vis_m": 9999,
      "fzfg": false,
      "metar_trigger": false,
      "taf_trigger": false,
      "metar": "METAR LIBR 251720Z 32011KT CAVOK 22/17 Q1024",
      "taf": "TAF LIBR 251700Z 2518/2618 35013KT CAVOK"
    },
    {
      "icao": "LICA",
      "alert": "OK",
      "vis_m": 9999,
      "fzfg": false,
      "metar_trigger": false,
      "taf_trigger": false,
      "metar": "METAR LICA 251720Z AUTO 23005KT 9999 FEW086/// 22/19 Q1025",
      "taf": "TAF LICA 251700Z 2518/2618 VRB05KT 9999 FEW050"
    },
    {
      "icao": "LICC",
      "alert": "OK",
      "vis_m": 9999,
      "fzfg": false,
      "metar_trigger": false,
      "taf_trigger": false,
      "metar": "METAR LICC 251720Z 12005KT CAVOK 23/14 Q1024",
      "taf": "TAF LICC 251700Z 2518/2618 VRB05KT 9999 FEW060"
    },
    {
      "icao": "LICJ",
      "alert": "OK",
      "vis_m": 9999,
      "fzfg": false,
      "metar_trigger": false,
      "taf_trigger": false,
      "metar": "METAR LICJ 251720Z 03011KT CAVOK 22/20 Q1024",
      "taf": "TAF LICJ 251700Z 2518/2618 06013KT CAVOK"
    },
    {
      "icao": "LIMC",
      "alert": "OK",
      "vis_m": 9999,
      "fzfg": false,
      "metar_trigger": false,
      "taf_trigger": false,
      "metar": "METAR LIMC 251650Z 25005KT 150V290 CAVOK 32/09 Q1026 NOSIG",
      "taf": "TAF LIMC 251700Z 2518/2624 VRB05KT CAVOK"
    },
    {
      "icao": "LIME",
      "alert": "OK",
      "vis_m": 9999,
      "fzfg": false,
      "metar_trigger": false,
      "taf_trigger": false,
      "metar": "METAR LIME 251650Z 18005KT 140V200 CAVOK 31/11 Q1026 NOSIG",
      "taf": "TAF LIME 251700Z 2518/2618 VRB05KT 9999 FEW055"
    },
    {
      "icao": "LIMF",
      "alert": "OK",
      "vis_m": 9999,
      "fzfg": false,
      "metar_trigger": false,
      "taf_trigger": false,
      "metar": "METAR LIMF 251650Z 10005KT 060V140 9999 FEW130 31/13 Q1026",
      "taf": "TAF LIMF 251700Z 2518/2618 VRB04KT CAVOK"
    },
    {
      "icao": "LIMJ",
      "alert": "OK",
      "vis_m": 9999,
      "fzfg": false,
      "metar_trigger": false,
      "taf_trigger": false,
      "metar": "METAR LIMJ 251650Z 16003KT 130V220 CAVOK 26/16 Q1026",
      "taf": "TAF LIMJ 251700Z 2518/2618 VRB05KT 9999 FEW030"
    },
    {
      "icao": "LIPE",
      "alert": "OK",
      "vis_m": 9999,
      "fzfg": false,
      "metar_trigger": false,
      "taf_trigger": false,
      "metar": "METAR LIPE 251650Z 09006KT 050V120 CAVOK 31/14 Q1026",
      "taf": "TAF LIPE 251700Z 2518/2618 VRB05KT CAVOK"
    },
    {
      "icao": "LIPH",
      "alert": "OK",
      "vis_m": 9999,
      "fzfg": false,
      "metar_trigger": false,
      "taf_trigger": false,
      "metar": "METAR LIPH 251720Z 15006KT 120V180 CAVOK 30/18 Q1025",
      "taf": "TAF LIPH 251700Z 2518/2618 VRB05KT CAVOK"
    },
    {
      "icao": "LIPQ",
      "alert": "OK",
      "vis_m": 9999,
      "fzfg": false,
      "metar_trigger": false,
      "taf_trigger": false,
      "metar": "METAR LIPQ 251720Z AUTO 15006KT 9999 NCD 27/20 Q1026",
      "taf": "TAF LIPQ 251700Z 2518/2618 VRB05KT CAVOK"
    },
    {
      "icao": "LIPR",
      "alert": "OK",
      "vis_m": 9999,
      "fzfg": false,
      "metar_trigger": false,
      "taf_trigger": false,
      "metar": "METAR LIPR 251720Z VRB02KT CAVOK 26/15 Q1026",
      "taf": "TAF LIPR 251700Z 2518/2618 VRB05KT CAVOK"
    },
    {
      "icao": "LIPX",
      "alert": "OK",
      "vis_m": 9999,
      "fzfg": false,
      "metar_trigger": false,
      "taf_trigger": false,
      "metar": "METAR LIPX 251720Z 24005KT CAVOK 31/12 Q1025",
      "taf": "TAF LIPX 251700Z 2518/2618 VRB05KT CAVOK"
    },
    {
      "icao": "LIPY",
      "alert": "OK",
      "vis_m": 9999,
      "fzfg": false,
      "metar_trigger": false,
      "taf_trigger": false,
      "metar": "METAR LIPY 251720Z AUTO 02003KT 360V060 9999 NCD 25/16 Q1026",
      "taf": "TAF LIPY 251700Z 2518/2618 VRB05KT CAVOK"
    },
    {
      "icao": "LIPZ",
      "alert": "OK",
      "vis_m": 9999,
      "fzfg": false,
      "metar_trigger": false,
      "taf_trigger": false,
      "metar": "METAR LIPZ 251650Z 16006KT CAVOK 28/18 Q1025 NOSIG",
      "taf": "TAF LIPZ 251700Z 2518/2624 17010KT CAVOK"
    },
    {
      "icao": "LIRF",
      "alert": "OK",
      "vis_m": 9999,
      "fzfg": false,
      "metar_trigger": false,
      "taf_trigger": false,
      "metar": "METAR LIRF 251650Z 28011KT CAVOK 23/17 Q1025 NOSIG",
      "taf": "TAF LIRF 251700Z 2518/2624 30010KT CAVOK"
    },
    {
      "icao": "LIRN",
      "alert": "OK",
      "vis_m": 9999,
      "fzfg": false,
      "metar_trigger": false,
      "taf_trigger": false,
      "metar": "METAR LIRN 251650Z 28008KT 260V330 CAVOK 29/12 Q1025 NOSIG",
      "taf": "TAF LIRN 251700Z 2518/2618 30010KT CAVOK"
    },
    {
      "icao": "LIRP",
      "alert": "OK",
      "vis_m": 9999,
      "fzfg": false,
      "metar_trigger": false,
      "taf_trigger": false,
      "metar": "METAR LIRP 251645Z 32011KT CAVOK 28/11 Q1025 NOSIG",
      "taf": "TAF LIRP 251700Z 2518/2618 32012KT CAVOK"
    },
    {
      "icao": "LIRZ",
      "alert": "OK",
      "vis_m": 9999,
      "fzfg": false,
      "metar_trigger": false,
      "taf_trigger": false,
      "metar": "METAR LIRZ 251720Z AUTO 04008KT 9999 NCD 27/12 Q1026",
      "taf": "TAF LIRZ 251700Z 2518/2618 05010KT CAVOK"
    },
    {
      "icao": "LJLJ",
      "alert": "OK",
      "vis_m": 9999,
      "fzfg": false,
      "metar_trigger": false,
      "taf_trigger": false,
      "metar": "METAR LJLJ 251700Z 13006KT 9999 FEW070 28/14 Q1027 NOSIG",
      "taf": "TAF LJLJ 251700Z 2518/2618 29004KT 9999 FEW070"
    },
    {
      "icao": "LKMT",
      "alert": "OK",
      "vis_m": 9999,
      "fzfg": false,
      "metar_trigger": false,
      "taf_trigger": false,
      "metar": "METAR LKMT 251700Z 01008KT 340V040 CAVOK 22/11 Q1029 NOSIG",
      "taf": "TAF LKMT 251700Z 2518/2618 01006KT CAVOK"
    },
    {
      "icao": "LKPR",
      "alert": "OK",
      "vis_m": 9999,
      "fzfg": false,
      "metar_trigger": false,
      "taf_trigger": false,
      "metar": "METAR LKPR 251700Z 02007KT 350V090 CAVOK 25/09 Q1030 NOSIG",
      "taf": "TAF LKPR 251700Z 2518/2624 34006KT CAVOK"
    },
    {
      "icao": "LLBG",
      "alert": "OK",
      "vis_m": 9999,
      "fzfg": false,
      "metar_trigger": false,
      "taf_trigger": false,
      "metar": "METAR LLBG 251720Z 35010KT 9999 SCT025 22/15 Q1016 NOSIG",
      "taf": "TAF LLBG 251702Z 2518/2618 34005KT 9999 SCT025 TX26/2611Z TN17/2603Z"
    },
    {
      "icao": "LMML",
      "alert": "OK",
      "vis_m": 9999,
      "fzfg": false,
      "metar_trigger": false,
      "taf_trigger": false,
      "metar": "METAR LMML 251715Z 07005KT 350V120 9999 FEW015 22/17 Q1024 NOSIG",
      "taf": "TAF LMML 251700Z 2518/2618 03006KT 9999 FEW012"
    },
    {
      "icao": "LOWW",
      "alert": "OK",
      "vis_m": 9999,
      "fzfg": false,
      "metar_trigger": false,
      "taf_trigger": false,
      "metar": "METAR LOWW 251650Z 34013KT CAVOK 28/10 Q1027 NOSIG",
      "taf": "TAF LOWW 251715Z 2518/2624 35012KT CAVOK TX31/2613Z TN16/2603Z"
    },
    {
      "icao": "LPFR",
      "alert": "OK",
      "vis_m": 9999,
      "fzfg": false,
      "metar_trigger": false,
      "taf_trigger": false,
      "metar": "METAR LPFR 251700Z 10013KT CAVOK 27/14 Q1021",
      "taf": "TAF LPFR 251700Z 2518/2618 08010KT CAVOK"
    },
    {
      "icao": "LPMA",
      "alert": "OK",
      "vis_m": 9999,
      "fzfg": false,
      "metar_trigger": false,
      "taf_trigger": false,
      "metar": "METAR LPMA 251700Z 04016KT 9999 FEW013 21/16 Q1018",
      "taf": "TAF LPMA 251700Z 2518/2618 03015KT 9999 SCT015"
    },
    {
      "icao": "LPPR",
      "alert": "OK",
      "vis_m": 9999,
      "fzfg": false,
      "metar_trigger": false,
      "taf_trigger": false,
      "metar": "METAR LPPR 251700Z 31004KT 190V360 CAVOK 23/13 Q1022",
      "taf": "TAF LPPR 251700Z 2518/2618 VRB02KT CAVOK"
    },
    {
      "icao": "LPPS",
      "alert": "OK",
      "vis_m": 9999,
      "fzfg": false,
      "metar_trigger": false,
      "taf_trigger": false,
      "metar": "METAR LPPS 251700Z 01011KT 340V040 9999 SCT015 20/15 Q1019",
      "taf": "TAF LPPS 251700Z 2518/2624 01010KT 9999 SCT015"
    },
    {
      "icao": "LPPT",
      "alert": "OK",
      "vis_m": 9999,
      "fzfg": false,
      "metar_trigger": false,
      "taf_trigger": false,
      "metar": "METAR LPPT 251700Z 24009KT 220V280 CAVOK 29/11 Q1021",
      "taf": "TAF LPPT 251700Z 2518/2624 24008KT CAVOK"
    },
    {
      "icao": "LQBK",
      "alert": "OK",
      "vis_m": 9999,
      "fzfg": false,
      "metar_trigger": false,
      "taf_trigger": false,
      "metar": "METAR LQBK 251700Z 01002KT CAVOK 29/14 Q1026 NOSIG",
      "taf": "TAF LQBK 251700Z 2518/2618 32005KT CAVOK TX30/2614Z TN14/2604Z"
    },
    {
      "icao": "LQSA",
      "alert": "OK",
      "vis_m": 9999,
      "fzfg": false,
      "metar_trigger": false,
      "taf_trigger": false,
      "metar": "METAR LQSA 251700Z VRB03KT CAVOK 25/10 Q1026 NOSIG",
      "taf": "TAF LQSA 251700Z 2518/2618 VRB02KT 9999 SCT060 TX28/2614Z TN11/2604Z"
    },
    {
      "icao": "LQTZ",
      "alert": "OK",
      "vis_m": 9999,
      "fzfg": false,
      "metar_trigger": false,
      "taf_trigger": false,
      "metar": "METAR LQTZ 251700Z 02005KT 340V070 9999 FEW060 27/14 Q1026",
      "taf": "TAF LQTZ 251700Z 2518/2618 32005KT 9999 SCT055 TX29/2614Z TN14/2604Z"
    },
    {
      "icao": "LRBC",
      "alert": "OK",
      "vis_m": 9999,
      "fzfg": false,
      "metar_trigger": false,
      "taf_trigger": false,
      "metar": "METAR LRBC 251700Z 35010KT CAVOK 23/11 Q1022",
      "taf": "TAF LRBC 251400Z 2515/2524 34015KT 9999 SCT055"
    },
    {
      "icao": "LRBS",
      "alert": "OK",
      "vis_m": 9999,
      "fzfg": false,
      "metar_trigger": false,
      "taf_trigger": false,
      "metar": "METAR LRBS 251700Z 27006KT 230V310 CAVOK 26/15 Q1021 NOSIG",
      "taf": "TAF LRBS 251100Z 2512/2612 28007KT CAVOK"
    },
    {
      "icao": "LRBV",
      "alert": "OK",
      "vis_m": 9999,
      "fzfg": false,
      "metar_trigger": false,
      "taf_trigger": false,
      "metar": "METAR LRBV 251700Z 30007KT CAVOK 22/13 Q1023",
      "taf": "TAF LRBV 251400Z 2515/2524 29012KT CAVOK"
    },
    {
      "icao": "LRCL",
      "alert": "OK",
      "vis_m": 9999,
      "fzfg": false,
      "metar_trigger": false,
      "taf_trigger": false,
      "metar": "METAR LRCL 251700Z 30010KT 270V330 CAVOK 25/09 Q1024",
      "taf": "TAF LRCL 251400Z 2515/2524 32012KT CAVOK"
    },
    {
      "icao": "LRCV",
      "alert": "OK",
      "vis_m": 9999,
      "fzfg": false,
      "metar_trigger": false,
      "taf_trigger": false,
      "metar": "METAR LRCV 251700Z 25007KT CAVOK 25/15 Q1022",
      "taf": "TAF LRCV 251400Z 2515/2524 29007KT CAVOK"
    },
    {
      "icao": "LRIA",
      "alert": "OK",
      "vis_m": 9999,
      "fzfg": false,
      "metar_trigger": false,
      "taf_trigger": false,
      "metar": "METAR LRIA 251700Z 32008KT CAVOK 22/08 Q1021",
      "taf": "TAF LRIA 251400Z 2515/2524 32012KT CAVOK"
    },
    {
      "icao": "LROP",
      "alert": "OK",
      "vis_m": 9999,
      "fzfg": false,
      "metar_trigger": false,
      "taf_trigger": false,
      "metar": "METAR LROP 251700Z 26007KT CAVOK 24/15 Q1021 NOSIG",
      "taf": "TAF LROP 251100Z 2512/2612 28007KT CAVOK"
    },
    {
      "icao": "LRSB",
      "alert": "OK",
      "vis_m": 9999,
      "fzfg": false,
      "metar_trigger": false,
      "taf_trigger": false,
      "metar": "METAR LRSB 251700Z 30006KT 9999 FEW048 SCT085 24/13 Q1024",
      "taf": "TAF LRSB 251100Z 2512/2612 32012KT 9999 SCT050"
    },
    {
      "icao": "LRSM",
      "alert": "OK",
      "vis_m": 9999,
      "fzfg": false,
      "metar_trigger": false,
      "taf_trigger": false,
      "metar": "METAR LRSM 251700Z AUTO 34015KT 9999 NCD 26/11 Q1024",
      "taf": "TAF LRSM 251400Z 2515/2524 33014KT CAVOK"
    },
    {
      "icao": "LRSV",
      "alert": "OK",
      "vis_m": 9999,
      "fzfg": false,
      "metar_trigger": false,
      "taf_trigger": false,
      "metar": "METAR LRSV 251700Z 31013KT CAVOK 21/07 Q1023",
      "taf": "TAF LRSV 251400Z 2515/2524 31016KT CAVOK"
    },
    {
      "icao": "LRTM",
      "alert": "OK",
      "vis_m": 9999,
      "fzfg": false,
      "metar_trigger": false,
      "taf_trigger": false,
      "metar": "METAR LRTM 251700Z 31007KT 270V330 CAVOK 26/15 Q1023",
      "taf": "TAF LRTM 251400Z 2515/2524 32012KT CAVOK"
    },
    {
      "icao": "LRTR",
      "alert": "OK",
      "vis_m": 9999,
      "fzfg": false,
      "metar_trigger": false,
      "taf_trigger": false,
      "metar": "METAR LRTR 251700Z 02006KT CAVOK 26/15 Q1024",
      "taf": "TAF LRTR 251100Z 2512/2612 35010KT CAVOK"
    },
    {
      "icao": "LTAC",
      "alert": "OK",
      "vis_m": 9999,
      "fzfg": false,
      "metar_trigger": false,
      "taf_trigger": false,
      "metar": "METAR LTAC 251650Z 05012KT 9999 SCT040 16/08 Q1021 NOSIG RMK RWY21C 04009KT RWY03L 04010KT RWY21R 04009KT RWY03R 02012KT RWY21L 03010KT",
      "taf": "TAF LTAC 251640Z 2518/2618 03012KT 9999 SCT040 SCT100"
    },
    {
      "icao": "LTFM",
      "alert": "OK",
      "vis_m": 9999,
      "fzfg": false,
      "metar_trigger": false,
      "taf_trigger": false,
      "metar": "METAR LTFM 251650Z 03005KT 350V050 CAVOK 20/11 Q1022 NOSIG RMK RWY17L 01003KT 340V060 RWY34L 02004KT 340V060 RWY16R 01003KT RWY36 04005KT RWY18 04003KT 010V070",
      "taf": "TAF LTFM 251640Z 2518/2624 VRB02KT CAVOK"
    },
    {
      "icao": "LUKK",
      "alert": "OK",
      "vis_m": 9999,
      "fzfg": false,
      "metar_trigger": false,
      "taf_trigger": false,
      "metar": "METAR LUKK 251700Z 36005KT 320V030 CAVOK 23/08 Q1020 NOSIG",
      "taf": "TAF LUKK 251710Z 2518/2618 31012KT CAVOK"
    },
    {
      "icao": "LWOH",
      "alert": "OK",
      "vis_m": 9999,
      "fzfg": false,
      "metar_trigger": false,
      "taf_trigger": false,
      "metar": "METAR LWOH 251720Z 31004KT 9999 FEW040 22/11 Q1025",
      "taf": "TAF LWOH 251705Z 2518/2618 VRB02KT 9999 SCT040"
    },
    {
      "icao": "LWSK",
      "alert": "OK",
      "vis_m": 9999,
      "fzfg": false,
      "metar_trigger": false,
      "taf_trigger": false,
      "metar": "METAR LWSK 251720Z 36008KT CAVOK 26/10 Q1023 NOSIG",
      "taf": "TAF LWSK 251705Z 2518/2618 36010KT CAVOK"
    },
    {
      "icao": "LYBE",
      "alert": "OK",
      "vis_m": 9999,
      "fzfg": false,
      "metar_trigger": false,
      "taf_trigger": false,
      "metar": "METAR LYBE 251700Z 31003KT CAVOK 28/16 Q1025 NOSIG",
      "taf": "TAF LYBE 251700Z 2518/2618 30005KT CAVOK TX32/2613Z TN16/2604Z"
    },
    {
      "icao": "LYNI",
      "alert": "OK",
      "vis_m": 9999,
      "fzfg": false,
      "metar_trigger": false,
      "taf_trigger": false,
      "metar": "METAR LYNI 251700Z 32006KT CAVOK 26/13 Q1024 NOSIG",
      "taf": "TAF LYNI 251700Z 2518/2618 06005KT CAVOK TX30/2613Z TN13/2604Z"
    },
    {
      "icao": "LYPG",
      "alert": "OK",
      "vis_m": 9999,
      "fzfg": false,
      "metar_trigger": false,
      "taf_trigger": false,
      "metar": "METAR LYPG 251700Z 20004KT 9999 FEW070 28/11 Q1022 NOSIG",
      "taf": "TAF LYPG 251700Z 2518/2618 36008KT CAVOK TX32/2613Z TN20/2604Z"
    },
    {
      "icao": "LZIB",
      "alert": "OK",
      "vis_m": 9999,
      "fzfg": false,
      "metar_trigger": false,
      "taf_trigger": false,
      "metar": "METAR LZIB 251700Z 01009KT CAVOK 28/14 Q1027 NOSIG",
      "taf": "TAF LZIB 251715Z 2518/2618 01010KT CAVOK"
    },
    {
      "icao": "LZKZ",
      "alert": "OK",
      "vis_m": 9999,
      "fzfg": false,
      "metar_trigger": false,
      "taf_trigger": false,
      "metar": "METAR LZKZ 251700Z 02016KT CAVOK 25/09 Q1026 NOSIG",
      "taf": "TAF LZKZ 251715Z 2518/2618 01012KT CAVOK"
    },
    {
      "icao": "LZTT",
      "alert": "OK",
      "vis_m": 9999,
      "fzfg": false,
      "metar_trigger": false,
      "taf_trigger": false,
      "metar": "METAR LZTT 251700Z 09010KT CAVOK 21/06 Q1028 NOSIG",
      "taf": "TAF LZTT 251715Z 2518/2618 26005KT CAVOK"
    },
    {
      "icao": "OEJN",
      "alert": "OK",
      "vis_m": 9999,
      "fzfg": false,
      "metar_trigger": false,
      "taf_trigger": false,
      "metar": "METAR OEJN 251700Z 33014KT CAVOK 30/20 Q1007 NOSIG",
      "taf": "TAF OEJN 251700Z 2518/2624 35006KT CAVOK"
    },
    {
      "icao": "OEMA",
      "alert": "OK",
      "vis_m": 9999,
      "fzfg": false,
      "metar_trigger": false,
      "taf_trigger": false,
      "metar": "METAR OEMA 251700Z 28010KT CAVOK 40/M01 Q1012 NOSIG",
      "taf": "TAF OEMA 251700Z 2518/2624 30006KT CAVOK"
    },
    {
      "icao": "OJAI",
      "alert": "OK",
      "vis_m": 5000,
      "fzfg": false,
      "metar_trigger": false,
      "taf_trigger": false,
      "metar": "METAR OJAI 251700Z 29009KT 5000 HZ NSC 22/11 Q1018 NOSIG",
      "taf": "TAF OJAI 251700Z 2518/2624 28010KT 5000 HZ NSC"
    },
    {
      "icao": "OMAA",
      "alert": "OK",
      "vis_m": 9999,
      "fzfg": false,
      "metar_trigger": false,
      "taf_trigger": false,
      "metar": "METAR OMAA 251700Z 36006KT 310V030 CAVOK 32/23 Q1005 NOSIG",
      "taf": "TAF OMAA 251700Z 2518/2700 VRB02KT 8000 NSC"
    },
    {
      "icao": "OMDB",
      "alert": "OK",
      "vis_m": 9999,
      "fzfg": false,
      "metar_trigger": false,
      "taf_trigger": false,
      "metar": "METAR OMDB 251700Z 07004KT 020V110 CAVOK 34/18 Q1006 NOSIG",
      "taf": "TAF OMDB 251700Z 2518/2700 18006KT 8000 NSC"
    },
    {
      "icao": "UAAA",
      "alert": "OK",
      "vis_m": 9999,
      "fzfg": false,
      "metar_trigger": false,
      "taf_trigger": false,
      "metar": "METAR UAAA 251700Z 15002MPS 9999 SCT100 BKN200 17/06 Q1014 NOSIG",
      "taf": "TAF UAAA 251702Z 2518/2618 19003MPS 9999 SCT100 TX25/2610Z TN11/2601Z"
    },
    {
      "icao": "UBBB",
      "alert": "OK",
      "vis_m": 9999,
      "fzfg": false,
      "metar_trigger": false,
      "taf_trigger": false,
      "metar": "METAR UBBB 251700Z 32014KT 9999 SCT060CB 18/15 Q1011 NOSIG",
      "taf": "TAF UBBB 251712Z 2518/2618 33018G28KT 9999 FEW040CB TX24/2610Z TN16/2501Z"
    },
    {
      "icao": "UDSG",
      "alert": "OK",
      "vis_m": 9999,
      "fzfg": false,
      "metar_trigger": false,
      "taf_trigger": false,
      "metar": "METAR UDSG 251700Z 35008KT 9999 FEW049CB 11/05 Q1018 NOSIG",
      "taf": "TAF UDSG 251700Z 2518/2618 36006KT 9999 SCT050"
    },
    {
      "icao": "UDYZ",
      "alert": "OK",
      "vis_m": 9999,
      "fzfg": false,
      "metar_trigger": false,
      "taf_trigger": false,
      "metar": "METAR UDYZ 251700Z 27009G23KT 9999 VCTS -SHRA BKN043CB 19/09 Q1014 TEMPO -TSRA",
      "taf": ""
    },
    {
      "icao": "UGKO",
      "alert": "OK",
      "vis_m": 9999,
      "fzfg": false,
      "metar_trigger": false,
      "taf_trigger": false,
      "metar": "METAR UGKO 251700Z 29006KT 9999 SCT016 BKN019 17/14 Q1017 NOSIG",
      "taf": "TAF UGKO 251700Z 2518/2618 27010KT 9999 BKN050 TX19/2611Z TN14/2602Z"
    }
  ]
}