{
  "ts_utc": "2026-03-01T16:58:28Z",
  "threshold_m": 150,
  "source": "stations_override.txt (ICAO list) + aviationweather.gov (METAR/TAF raw)",
  "station_count": 159,
  "stations": [
    {
      "icao": "BIKF",
      "alert": "OK",
      "vis_m": 9999,
      "fzfg": false,
      "metar_trigger": false,
      "taf_trigger": false,
      "metar": "METAR BIKF 011630Z 34014KT 9999 DRSN BKN028 M02/M08 Q1000",
      "taf": "TAF BIKF 011621Z 0118/0218 35015KT 9999 SCT030 TX00/0212Z TNM04/0200Z"
    },
    {
      "icao": "BKPR",
      "alert": "OK",
      "vis_m": 9999,
      "fzfg": false,
      "metar_trigger": false,
      "taf_trigger": false,
      "metar": "METAR BKPR 011630Z 21004KT CAVOK 12/04 Q1025 NOSIG",
      "taf": "TAF BKPR 011130Z 0112/0212 VRB05KT CAVOK"
    },
    {
      "icao": "EBCI",
      "alert": "OK",
      "vis_m": 9999,
      "fzfg": false,
      "metar_trigger": false,
      "taf_trigger": false,
      "metar": "METAR EBCI 011650Z 20010KT 9999 FEW035 11/03 Q1021 NOSIG",
      "taf": "TAF EBCI 011115Z 0112/0218 22011KT 9999 FEW025"
    },
    {
      "icao": "EDDB",
      "alert": "OK",
      "vis_m": 9999,
      "fzfg": false,
      "metar_trigger": false,
      "taf_trigger": false,
      "metar": "METAR EDDB 011650Z AUTO 24004KT CAVOK 08/02 Q1024 NOSIG",
      "taf": "TAF EDDB 011100Z 0112/0212 25008KT 9999 SCT030"
    },
    {
      "icao": "EDDH",
      "alert": "OK",
      "vis_m": 9999,
      "fzfg": false,
      "metar_trigger": false,
      "taf_trigger": false,
      "metar": "METAR EDDH 011650Z AUTO 19008KT CAVOK 10/02 Q1021 NOSIG",
      "taf": "TAF EDDH 011100Z 0112/0218 23010KT CAVOK"
    },
    {
      "icao": "EDDK",
      "alert": "OK",
      "vis_m": 9999,
      "fzfg": false,
      "metar_trigger": false,
      "taf_trigger": false,
      "metar": "METAR EDDK 011650Z AUTO 20008KT 170V230 CAVOK 12/03 Q1022 NOSIG",
      "taf": "TAF EDDK 011100Z 0112/0218 19009KT CAVOK"
    },
    {
      "icao": "EDDN",
      "alert": "OK",
      "vis_m": 9999,
      "fzfg": false,
      "metar_trigger": false,
      "taf_trigger": false,
      "metar": "METAR EDDN 011650Z AUTO 15006KT CAVOK 09/01 Q1025 NOSIG",
      "taf": "TAF EDDN 011100Z 0112/0212 14004KT 9999 FEW040"
    },
    {
      "icao": "EDDS",
      "alert": "OK",
      "vis_m": 9999,
      "fzfg": false,
      "metar_trigger": false,
      "taf_trigger": false,
      "metar": "METAR EDDS 011650Z AUTO 16004KT CAVOK 10/03 Q1024 NOSIG",
      "taf": "TAF EDDS 011100Z 0112/0212 13005KT 9999 FEW035"
    },
    {
      "icao": "EDFH",
      "alert": "OK",
      "vis_m": 9999,
      "fzfg": false,
      "metar_trigger": false,
      "taf_trigger": false,
      "metar": "METAR EDFH 011650Z 19008KT 9999 FEW044 08/01 Q1023",
      "taf": "TAF EDFH 011100Z 0112/0212 22008KT 9999 FEW040"
    },
    {
      "icao": "EDJA",
      "alert": "OK",
      "vis_m": 9999,
      "fzfg": false,
      "metar_trigger": false,
      "taf_trigger": false,
      "metar": "METAR EDJA 011650Z 07003KT 050V110 9999 OVC028 07/03 Q1025",
      "taf": "TAF EDJA 011400Z 0115/0124 08005KT 9999 BKN025"
    },
    {
      "icao": "EDLW",
      "alert": "OK",
      "vis_m": 9999,
      "fzfg": false,
      "metar_trigger": false,
      "taf_trigger": false,
      "metar": "METAR EDLW 011650Z 19010KT CAVOK 11/02 Q1021",
      "taf": "TAF EDLW 011100Z 0112/0212 19012KT CAVOK"
    },
    {
      "icao": "EDNY",
      "alert": "OK",
      "vis_m": 9999,
      "fzfg": false,
      "metar_trigger": false,
      "taf_trigger": false,
      "metar": "METAR EDNY 011650Z 24002KT 9999 OVC040 09/05 Q1025",
      "taf": ""
    },
    {
      "icao": "EDSB",
      "alert": "OK",
      "vis_m": 9999,
      "fzfg": false,
      "metar_trigger": false,
      "taf_trigger": false,
      "metar": "METAR EDSB 011650Z VRB01KT CAVOK 14/02 Q1024",
      "taf": "TAF EDSB 011100Z 0112/0212 27005KT CAVOK"
    },
    {
      "icao": "EETN",
      "alert": "OK",
      "vis_m": 4400,
      "fzfg": false,
      "metar_trigger": false,
      "taf_trigger": false,
      "metar": "METAR EETN 011650Z 22009KT 4400 BR OVC003 03/03 Q1009 TEMPO 2500 DZ OVC002",
      "taf": "TAF EETN 011130Z 0112/0212 20010KT 2000 BR OVC003"
    },
    {
      "icao": "EFTU",
      "alert": "OK",
      "vis_m": 1300,
      "fzfg": false,
      "metar_trigger": false,
      "taf_trigger": false,
      "metar": "METAR EFTU 011650Z AUTO 22005KT 1300 R26/1600D BR OVC001 02/02 Q1006 REDZ",
      "taf": "TAF EFTU 011428Z 0115/0215 18004KT 0500 -RA FG VV002"
    },
    {
      "icao": "EGBB",
      "alert": "OK",
      "vis_m": 9999,
      "fzfg": false,
      "metar_trigger": false,
      "taf_trigger": false,
      "metar": "METAR EGBB 011650Z 20010KT 160V230 9999 BKN025 13/08 Q1010",
      "taf": "TAF EGBB 011106Z 0112/0212 18012KT 9999 FEW012 SCT022"
    },
    {
      "icao": "EGGP",
      "alert": "OK",
      "vis_m": 9999,
      "fzfg": false,
      "metar_trigger": false,
      "taf_trigger": false,
      "metar": "METAR EGGP 011650Z 17010KT 9999 FEW027 SCT033 BKN041 12/07 Q1007",
      "taf": "TAF EGGP 011055Z 0112/0212 17012KT 9999 SCT030"
    },
    {
      "icao": "EGGW",
      "alert": "OK",
      "vis_m": 9999,
      "fzfg": false,
      "metar_trigger": false,
      "taf_trigger": false,
      "metar": "METAR EGGW 011650Z AUTO 20013KT 9999 SCT022 BKN030 OVC040 11/08 Q1013",
      "taf": ""
    },
    {
      "icao": "EGKK",
      "alert": "OK",
      "vis_m": 9999,
      "fzfg": false,
      "metar_trigger": false,
      "taf_trigger": false,
      "metar": "METAR EGKK 011650Z 21010KT 9999 VCSH BKN011 11/09 Q1015",
      "taf": "TAF EGKK 011055Z 0112/0218 20012KT 9999 BKN025"
    },
    {
      "icao": "EGNM",
      "alert": "OK",
      "vis_m": 9999,
      "fzfg": false,
      "metar_trigger": false,
      "taf_trigger": false,
      "metar": "METAR EGNM 011650Z 18010KT 9999 SCT026 SCT034 12/07 Q1007",
      "taf": "TAF EGNM 011054Z 0112/0212 20010KT 9999 SCT020"
    },
    {
      "icao": "EGPD",
      "alert": "OK",
      "vis_m": 9999,
      "fzfg": false,
      "metar_trigger": false,
      "taf_trigger": false,
      "metar": "METAR EGPD 011650Z AUTO 16010KT 9999 SCT008 BKN041 BKN049 08/06 Q1001 TEMPO BKN006",
      "taf": "TAF EGPD 011055Z 0112/0212 16012KT 9999 SCT012"
    },
    {
      "icao": "EGPF",
      "alert": "OK",
      "vis_m": 9999,
      "fzfg": false,
      "metar_trigger": false,
      "taf_trigger": false,
      "metar": "METAR EGPF 011650Z AUTO 17012KT 9999 -RA OVC014/// //////TCU 11/09 Q1000",
      "taf": "TAF EGPF 011056Z 0112/0212 26006KT 9999 SCT022"
    },
    {
      "icao": "EHBK",
      "alert": "OK",
      "vis_m": 9999,
      "fzfg": false,
      "metar_trigger": false,
      "taf_trigger": false,
      "metar": "METAR EHBK 011625Z AUTO 21013KT 180V250 9999 NSC 12/04 Q1021 NOSIG",
      "taf": "TAF EHBK 011113Z 0112/0218 21010KT 9999 FEW030"
    },
    {
      "icao": "EHEH",
      "alert": "OK",
      "vis_m": 9999,
      "fzfg": false,
      "metar_trigger": false,
      "taf_trigger": false,
      "metar": "METAR EHEH 011625Z AUTO 20012KT 170V230 9999 FEW046/// BKN056/// OVC061/// 12/04 Q1020 BLU BECMG 21008KT",
      "taf": "TAF EHEH 011103Z 0112/0218 20014KT CAVOK"
    },
    {
      "icao": "EKBI",
      "alert": "OK",
      "vis_m": 9999,
      "fzfg": false,
      "metar_trigger": false,
      "taf_trigger": false,
      "metar": "METAR EKBI 011650Z AUTO 18007KT 140V220 9999 FEW018/// OVC041/// 06/04 Q1019",
      "taf": "TAF EKBI 011427Z 0115/0215 23010KT CAVOK"
    },
    {
      "icao": "EKCH",
      "alert": "OK",
      "vis_m": 9999,
      "fzfg": false,
      "metar_trigger": false,
      "taf_trigger": false,
      "metar": "METAR EKCH 011650Z AUTO 23008KT 9999 BKN032/// 05/02 Q1021 NOSIG",
      "taf": "TAF EKCH 011427Z 0115/0215 23010KT 9999 FEW025"
    },
    {
      "icao": "ENAL",
      "alert": "OK",
      "vis_m": 9999,
      "fzfg": false,
      "metar_trigger": false,
      "taf_trigger": false,
      "metar": "METAR ENAL 011650Z 00000KT CAVOK 02/M03 Q1012",
      "taf": "TAF ENAL 011400Z 0115/0124 20005KT CAVOK"
    },
    {
      "icao": "ENBR",
      "alert": "OK",
      "vis_m": 9999,
      "fzfg": false,
      "metar_trigger": false,
      "taf_trigger": false,
      "metar": "METAR ENBR 011650Z 12009KT 9999 FEW030 BKN053 04/M00 Q1012 NOSIG RMK WIND 1200FT 13020KT",
      "taf": "TAF ENBR 011100Z 0112/0212 15010KT 9999 SCT030"
    },
    {
      "icao": "ENGM",
      "alert": "OK",
      "vis_m": 9999,
      "fzfg": false,
      "metar_trigger": false,
      "taf_trigger": false,
      "metar": "METAR ENGM 011650Z 00000KT 9999 FEW020 BKN038 01/M00 Q1012 NOSIG",
      "taf": ""
    },
    {
      "icao": "ENHD",
      "alert": "OK",
      "vis_m": 9999,
      "fzfg": false,
      "metar_trigger": false,
      "taf_trigger": false,
      "metar": "METAR ENHD 011650Z 12011KT 9999 FEW035 05/01 Q1012",
      "taf": "TAF ENHD 011400Z 0115/0123 17012KT 9999 FEW020"
    },
    {
      "icao": "ENTC",
      "alert": "OK",
      "vis_m": 9999,
      "fzfg": false,
      "metar_trigger": false,
      "taf_trigger": false,
      "metar": "METAR ENTC 011650Z 21016KT 9999 SCT043 BKN056 02/M01 Q1008 TEMPO 4000 -SHRASN BKN012 RMK WIND 2600FT 20020KT",
      "taf": "TAF ENTC 011100Z 0112/0212 20015KT 9999 -SHRA FEW025 BKN045"
    },
    {
      "icao": "ENTO",
      "alert": "OK",
      "vis_m": 9999,
      "fzfg": false,
      "metar_trigger": false,
      "taf_trigger": false,
      "metar": "METAR ENTO 011650Z 26005KT 220V300 CAVOK 05/M04 Q1013 NOSIG",
      "taf": ""
    },
    {
      "icao": "ENVA",
      "alert": "OK",
      "vis_m": 9999,
      "fzfg": false,
      "metar_trigger": false,
      "taf_trigger": false,
      "metar": "METAR ENVA 011650Z 11004KT 9999 FEW052 M00/M04 Q1012 RMK WIND 670FT 10005KT",
      "taf": "TAF ENVA 011100Z 0112/0212 10005KT CAVOK"
    },
    {
      "icao": "ENZV",
      "alert": "OK",
      "vis_m": 9999,
      "fzfg": false,
      "metar_trigger": false,
      "taf_trigger": false,
      "metar": "METAR ENZV 011650Z 14010KT CAVOK 06/01 Q1012 NOSIG",
      "taf": "TAF ENZV 011100Z 0112/0212 16010KT 9999 FEW020 BKN040"
    },
    {
      "icao": "EPGD",
      "alert": "OK",
      "vis_m": 9999,
      "fzfg": false,
      "metar_trigger": false,
      "taf_trigger": false,
      "metar": "METAR EPGD 011630Z 25005KT CAVOK 04/M02 Q1023",
      "taf": "TAF EPGD 011130Z 0112/0212 27015KT 9999 BKN016"
    },
    {
      "icao": "EPKK",
      "alert": "OK",
      "vis_m": 9999,
      "fzfg": false,
      "metar_trigger": false,
      "taf_trigger": false,
      "metar": "METAR EPKK 011630Z 32005KT 270V340 9999 BKN059 12/03 Q1024",
      "taf": "TAF EPKK 011430Z 0115/0215 27006KT CAVOK"
    },
    {
      "icao": "EPKT",
      "alert": "OK",
      "vis_m": 9999,
      "fzfg": false,
      "metar_trigger": false,
      "taf_trigger": false,
      "metar": "METAR EPKT 011630Z 27005KT 9999 OVC042 09/03 Q1024",
      "taf": "TAF EPKT 011130Z 0112/0212 24006KT 9999 BKN040"
    },
    {
      "icao": "EPLB",
      "alert": "OK",
      "vis_m": 9999,
      "fzfg": false,
      "metar_trigger": false,
      "taf_trigger": false,
      "metar": "METAR EPLB 011630Z 29002KT CAVOK 09/04 Q1023",
      "taf": "TAF EPLB 011130Z 0112/0212 26010KT CAVOK"
    },
    {
      "icao": "EPMO",
      "alert": "OK",
      "vis_m": 9999,
      "fzfg": false,
      "metar_trigger": false,
      "taf_trigger": false,
      "metar": "METAR EPMO 011630Z 29007KT 9999 SCT039 08/03 Q1023",
      "taf": "TAF EPMO 011130Z 0112/0212 26010KT CAVOK"
    },
    {
      "icao": "EPPO",
      "alert": "OK",
      "vis_m": 9999,
      "fzfg": false,
      "metar_trigger": false,
      "taf_trigger": false,
      "metar": "METAR EPPO 011630Z 22002KT CAVOK 08/01 Q1024",
      "taf": "TAF EPPO 011130Z 0112/0212 27010KT 9999 SCT030"
    },
    {
      "icao": "EPRA",
      "alert": "OK",
      "vis_m": 9999,
      "fzfg": false,
      "metar_trigger": false,
      "taf_trigger": false,
      "metar": "METAR EPRA 011630Z 29008KT CAVOK 11/01 Q1023",
      "taf": "TAF EPRA 011430Z 0115/0124 28008KT CAVOK"
    },
    {
      "icao": "EPRZ",
      "alert": "OK",
      "vis_m": 9999,
      "fzfg": false,
      "metar_trigger": false,
      "taf_trigger": false,
      "metar": "METAR EPRZ 011630Z 26005KT CAVOK 10/04 Q1024",
      "taf": "TAF EPRZ 011130Z 0112/0212 26012KT CAVOK"
    },
    {
      "icao": "EPSC",
      "alert": "OK",
      "vis_m": 9999,
      "fzfg": false,
      "metar_trigger": false,
      "taf_trigger": false,
      "metar": "METAR EPSC 011630Z 20003KT 170V230 CAVOK 09/M01 Q1023",
      "taf": "TAF EPSC 011130Z 0112/0212 24007KT CAVOK"
    },
    {
      "icao": "EPSY",
      "alert": "OK",
      "vis_m": 9999,
      "fzfg": false,
      "metar_trigger": false,
      "taf_trigger": false,
      "metar": "METAR EPSY 011630Z 31004KT 9999 SCT024 06/02 Q1023",
      "taf": "TAF EPSY 011430Z 0115/0124 27006KT 9999 BKN030"
    },
    {
      "icao": "EPWA",
      "alert": "OK",
      "vis_m": 9999,
      "fzfg": false,
      "metar_trigger": false,
      "taf_trigger": false,
      "metar": "METAR EPWA 011630Z 29009KT CAVOK 09/03 Q1023 NOSIG",
      "taf": "TAF EPWA 011430Z 0115/0215 28010KT CAVOK"
    },
    {
      "icao": "EPWR",
      "alert": "OK",
      "vis_m": 9999,
      "fzfg": false,
      "metar_trigger": false,
      "taf_trigger": false,
      "metar": "METAR EPWR 011630Z 27003KT 9999 -RA FEW025 OVC044 08/06 Q1025",
      "taf": "TAF EPWR 011430Z 0115/0215 28010KT CAVOK"
    },
    {
      "icao": "ESGG",
      "alert": "OK",
      "vis_m": 9999,
      "fzfg": false,
      "metar_trigger": false,
      "taf_trigger": false,
      "metar": "METAR ESGG 011650Z 25009KT 9999 SCT025 03/01 Q1016",
      "taf": "TAF ESGG 011430Z 0115/0215 25013KT 9999 SCT020"
    },
    {
      "icao": "ESKN",
      "alert": "OK",
      "vis_m": 9999,
      "fzfg": false,
      "metar_trigger": false,
      "taf_trigger": false,
      "metar": "METAR ESKN 011650Z 27012KT 9999 -DZ BKN014 03/01 Q1012",
      "taf": "TAF ESKN 011430Z 0115/0215 25018G28KT 9999 BKN015"
    },
    {
      "icao": "ESMS",
      "alert": "OK",
      "vis_m": 9999,
      "fzfg": false,
      "metar_trigger": false,
      "taf_trigger": false,
      "metar": "METAR ESMS 011650Z 24009KT 9999 FEW045 04/03 Q1020",
      "taf": "TAF ESMS 011427Z 0115/0215 25012KT 9999 SCT020"
    },
    {
      "icao": "ESSA",
      "alert": "OK",
      "vis_m": 8000,
      "fzfg": false,
      "metar_trigger": false,
      "taf_trigger": false,
      "metar": "METAR ESSA 011650Z 31009KT 8000 -DZ SCT004 BKN006 OVC009 01/01 Q1010 TEMPO 4000 -RADZ",
      "taf": "TAF ESSA 011430Z 0115/0215 28010KT 6000 OVC006"
    },
    {
      "icao": "EYKA",
      "alert": "OK",
      "vis_m": 9999,
      "fzfg": false,
      "metar_trigger": false,
      "taf_trigger": false,
      "metar": "METAR EYKA 011650Z 27008KT 9999 OVC010 02/M00 Q1021",
      "taf": "TAF EYKA 011118Z 0112/0212 26010KT 8000 SCT010 BKN015"
    },
    {
      "icao": "EYPA",
      "alert": "OK",
      "vis_m": 9999,
      "fzfg": false,
      "metar_trigger": false,
      "taf_trigger": false,
      "metar": "METAR EYPA 011650Z 23007KT 160V270 9999 OVC028 02/01 Q1019",
      "taf": "TAF EYPA 011100Z 0112/0212 25008G18KT 5000 BR BKN002 OVC005"
    },
    {
      "icao": "EYVI",
      "alert": "OK",
      "vis_m": 9999,
      "fzfg": false,
      "metar_trigger": false,
      "taf_trigger": false,
      "metar": "METAR EYVI 011650Z 28009KT 240V300 9999 BKN017 03/00 Q1020 NOSIG",
      "taf": "TAF EYVI 011110Z 0112/0212 26012KT 9000 NSC"
    },
    {
      "icao": "GCFV",
      "alert": "OK",
      "vis_m": 9999,
      "fzfg": false,
      "metar_trigger": false,
      "taf_trigger": false,
      "metar": "METAR GCFV 011630Z 35018KT 320V020 9999 FEW035 BKN040 20/09 Q1017",
      "taf": "TAF GCFV 011400Z 0115/0215 36015KT 9999 FEW030 TX21/0214Z TN14/0206Z"
    },
    {
      "icao": "GCLP",
      "alert": "OK",
      "vis_m": 9999,
      "fzfg": false,
      "metar_trigger": false,
      "taf_trigger": false,
      "metar": "METAR GCLP 011630Z 35022G32KT 9999 FEW030 SCT045 20/10 Q1018 NOSIG",
      "taf": "TAF GCLP 011400Z 0115/0215 36023KT 9999 FEW030 TX22/0214Z TN14/0206Z"
    },
    {
      "icao": "GCTS",
      "alert": "OK",
      "vis_m": 9999,
      "fzfg": false,
      "metar_trigger": false,
      "taf_trigger": false,
      "metar": "METAR GCTS 011630Z 09019KT 9999 SCT045 19/10 Q1018 WS R07 NOSIG",
      "taf": "TAF GCTS 011400Z 0115/0215 08020KT 9999 FEW030 TX22/0214Z TN12/0206Z"
    },
    {
      "icao": "GMAD",
      "alert": "OK",
      "vis_m": 8000,
      "fzfg": false,
      "metar_trigger": false,
      "taf_trigger": false,
      "metar": "METAR GMAD 011630Z 20015KT 8000 FEW033 22/11 Q1010 NOSIG",
      "taf": "TAF GMAD 011100Z 0112/0218 28012KT 8000 NSC"
    },
    {
      "icao": "GMMN",
      "alert": "OK",
      "vis_m": 6000,
      "fzfg": false,
      "metar_trigger": false,
      "taf_trigger": false,
      "metar": "METAR GMMN 011630Z 36008KT 330V030 6000 BKN015 16/13 Q1014 NOSIG",
      "taf": "TAF GMMN 011100Z 0112/0218 02004KT 6000 BKN015"
    },
    {
      "icao": "GMMX",
      "alert": "OK",
      "vis_m": 8000,
      "fzfg": false,
      "metar_trigger": false,
      "taf_trigger": false,
      "metar": "METAR GMMX 011630Z 03004KT 360V090 8000 OVC016 17/11 Q1014 NOSIG",
      "taf": "TAF GMMX 011100Z 0112/0218 04006KT 8000 SCT020 SCT080"
    },
    {
      "icao": "HEGN",
      "alert": "OK",
      "vis_m": 9999,
      "fzfg": false,
      "metar_trigger": false,
      "taf_trigger": false,
      "metar": "METAR HEGN 011600Z 34019KT CAVOK 18/01 Q1015 NOSIG",
      "taf": ""
    },
    {
      "icao": "HEMA",
      "alert": "OK",
      "vis_m": 9999,
      "fzfg": false,
      "metar_trigger": false,
      "taf_trigger": false,
      "metar": "METAR HEMA 011600Z 34010KT CAVOK 19/05 Q1015 NOSIG",
      "taf": ""
    },
    {
      "icao": "HESH",
      "alert": "OK",
      "vis_m": 9999,
      "fzfg": false,
      "metar_trigger": false,
      "taf_trigger": false,
      "metar": "METAR HESH 011600Z 02005KT CAVOK 19/04 Q1014 NOSIG",
      "taf": ""
    },
    {
      "icao": "HESX",
      "alert": "OK",
      "vis_m": 9999,
      "fzfg": false,
      "metar_trigger": false,
      "taf_trigger": false,
      "metar": "METAR HESX 011600Z 35005KT 9999 SCT030 15/04 Q1019 NOSIG",
      "taf": ""
    },
    {
      "icao": "LATI",
      "alert": "OK",
      "vis_m": 9999,
      "fzfg": false,
      "metar_trigger": false,
      "taf_trigger": false,
      "metar": "METAR LATI 011650Z 32004KT CAVOK 12/08 Q1026 NOSIG",
      "taf": "TAF LATI 011100Z 0112/0212 VRB05KT CAVOK TX18/0112Z TN04/0204Z"
    },
    {
      "icao": "LBPD",
      "alert": "OK",
      "vis_m": 9999,
      "fzfg": false,
      "metar_trigger": false,
      "taf_trigger": false,
      "metar": "METAR LBPD 011630Z AUTO 05003KT 9999 NCD 06/03 Q1028 NOSIG",
      "taf": "TAF LBPD 011100Z 0112/0212 VRB03KT 5000 BR SCT005 BKN010"
    },
    {
      "icao": "LBSF",
      "alert": "OK",
      "vis_m": 9999,
      "fzfg": false,
      "metar_trigger": false,
      "taf_trigger": false,
      "metar": "METAR LBSF 011630Z AUTO 13008KT 090V150 9999 NCD 08/M03 Q1025 NOSIG",
      "taf": "TAF LBSF 011100Z 0112/0212 VRB03KT CAVOK"
    },
    {
      "icao": "LBWN",
      "alert": "OK",
      "vis_m": 9999,
      "fzfg": false,
      "metar_trigger": false,
      "taf_trigger": false,
      "metar": "METAR LBWN 011630Z 11007KT CAVOK 03/01 Q1029 NOSIG",
      "taf": "TAF LBWN 011100Z 0112/0212 12010KT 9999 SCT035"
    },
    {
      "icao": "LCLK",
      "alert": "OK",
      "vis_m": 9999,
      "fzfg": false,
      "metar_trigger": false,
      "taf_trigger": false,
      "metar": "METAR LCLK 011630Z 34005KT 9999 FEW030 12/06 Q1021 NOSIG",
      "taf": "TAF LCLK 011130Z 0112/0212 03012KT 9999 FEW025"
    },
    {
      "icao": "LCPH",
      "alert": "OK",
      "vis_m": 9999,
      "fzfg": false,
      "metar_trigger": false,
      "taf_trigger": false,
      "metar": "METAR LCPH 011630Z 10010KT 9999 FEW040 BKN070 15/05 Q1020 NOSIG",
      "taf": "TAF LCPH 011130Z 0112/0212 26010KT 9999 FEW020"
    },
    {
      "icao": "LEAL",
      "alert": "OK",
      "vis_m": 9999,
      "fzfg": false,
      "metar_trigger": false,
      "taf_trigger": false,
      "metar": "METAR LEAL 011630Z 09009KT 060V120 9999 FEW021 BKN052 16/10 Q1023 NOSIG",
      "taf": "TAF LEAL 011100Z 0112/0212 09010KT 9999 SCT040 TX17/0112Z TN09/0207Z"
    },
    {
      "icao": "LEBB",
      "alert": "OK",
      "vis_m": 9999,
      "fzfg": false,
      "metar_trigger": false,
      "taf_trigger": false,
      "metar": "METAR LEBB 011630Z 16009G20KT 110V230 CAVOK 20/07 Q1016 NOSIG",
      "taf": "TAF LEBB 011100Z 0112/0212 12009KT CAVOK TX19/0115Z TN11/0207Z"
    },
    {
      "icao": "LEBL",
      "alert": "OK",
      "vis_m": 9999,
      "fzfg": false,
      "metar_trigger": false,
      "taf_trigger": false,
      "metar": "METAR LEBL 011630Z 22013KT 9999 FEW060 15/10 Q1023 NOSIG",
      "taf": "TAF LEBL 011100Z 0112/0212 22009KT 9999 SCT020 TX15/0112Z TN07/0206Z"
    },
    {
      "icao": "LECH",
      "alert": "OK",
      "vis_m": 9999,
      "fzfg": false,
      "metar_trigger": false,
      "taf_trigger": false,
      "metar": "METAR LECH 011630Z 11008KT 9999 FEW010 SCT021 BKN045 12/09 Q1023",
      "taf": ""
    },
    {
      "icao": "LEMD",
      "alert": "OK",
      "vis_m": 9999,
      "fzfg": false,
      "metar_trigger": false,
      "taf_trigger": false,
      "metar": "METAR LEMD 011630Z 11003KT 040V160 9999 SCT040 13/05 Q1021 NOSIG",
      "taf": "TAF LEMD 011100Z 0112/0218 VRB04KT 9999 SCT035 TX16/0115Z TN04/0207Z"
    },
    {
      "icao": "LEMG",
      "alert": "OK",
      "vis_m": 9999,
      "fzfg": false,
      "metar_trigger": false,
      "taf_trigger": false,
      "metar": "METAR LEMG 011630Z 10010KT 070V140 9999 FEW050 15/10 Q1021 NOSIG",
      "taf": "TAF LEMG 011100Z 0112/0212 12012KT 9999 FEW020 SCT040 TX18/0114Z TN10/0207Z"
    },
    {
      "icao": "LEVC",
      "alert": "OK",
      "vis_m": 9999,
      "fzfg": false,
      "metar_trigger": false,
      "taf_trigger": false,
      "metar": "METAR LEVC 011630Z 11006KT 080V150 9999 FEW032 SCT052 15/08 Q1023 NOSIG",
      "taf": "TAF LEVC 011100Z 0112/0212 10008KT 9999 FEW025 BKN050 TX17/0112Z TN08/0207Z"
    },
    {
      "icao": "LEXJ",
      "alert": "OK",
      "vis_m": 9999,
      "fzfg": false,
      "metar_trigger": false,
      "taf_trigger": false,
      "metar": "METAR LEXJ 011630Z 06004KT 010V110 CAVOK 15/08 Q1015",
      "taf": "TAF LEXJ 011400Z 0115/0215 20009KT CAVOK TX21/0215Z TN13/0207Z"
    },
    {
      "icao": "LEZG",
      "alert": "OK",
      "vis_m": 9999,
      "fzfg": false,
      "metar_trigger": false,
      "taf_trigger": false,
      "metar": "METAR LEZG 011630Z 09009KT CAVOK 16/03 Q1021 NOSIG",
      "taf": "TAF LEZG 011100Z 0112/0212 11009KT CAVOK TX17/0115Z TN07/0206Z"
    },
    {
      "icao": "LEZL",
      "alert": "OK",
      "vis_m": 9999,
      "fzfg": false,
      "metar_trigger": false,
      "taf_trigger": false,
      "metar": "METAR LEZL 011630Z 09011KT 050V130 9999 FEW048 20/10 Q1018 NOSIG",
      "taf": "TAF LEZL 011400Z 0115/0215 06008KT CAVOK TX22/0215Z TN09/0207Z"
    },
    {
      "icao": "LFBD",
      "alert": "OK",
      "vis_m": 9999,
      "fzfg": false,
      "metar_trigger": false,
      "taf_trigger": false,
      "metar": "METAR LFBD 011630Z AUTO 13012KT CAVOK 15/07 Q1020 NOSIG",
      "taf": "TAF LFBD 011100Z 0112/0218 15008KT CAVOK TX17/0214Z TN06/0206Z"
    },
    {
      "icao": "LFLL",
      "alert": "OK",
      "vis_m": 9999,
      "fzfg": false,
      "metar_trigger": false,
      "taf_trigger": false,
      "metar": "METAR LFLL 011630Z VRB01KT CAVOK 14/04 Q1023 NOSIG",
      "taf": "TAF LFLL 011100Z 0112/0218 VRB03KT CAVOK"
    },
    {
      "icao": "LFLS",
      "alert": "OK",
      "vis_m": 9999,
      "fzfg": false,
      "metar_trigger": false,
      "taf_trigger": false,
      "metar": "METAR LFLS 011630Z AUTO 29003KT 9999 FEW043 BKN084 13/06 Q1023 NOSIG",
      "taf": "TAF LFLS 011400Z 0115/0215 VRB03KT 9999 SCT043"
    },
    {
      "icao": "LFMN",
      "alert": "OK",
      "vis_m": 9999,
      "fzfg": false,
      "metar_trigger": false,
      "taf_trigger": false,
      "metar": "METAR LFMN 011630Z 09009KT 9999 FEW015 BKN066 15/11 Q1024 TEMPO FEW016TCU",
      "taf": "TAF LFMN 011400Z 0115/0221 VRB03KT 9999 FEW025"
    },
    {
      "icao": "LFOB",
      "alert": "OK",
      "vis_m": 9999,
      "fzfg": false,
      "metar_trigger": false,
      "taf_trigger": false,
      "metar": "METAR LFOB 011630Z AUTO 21010KT 180V240 9999 FEW034 SCT054 BKN120 12/05 Q1020 NOSIG",
      "taf": "TAF LFOB 011100Z 0112/0212 20012G22KT 9999 BKN020 OVC070"
    },
    {
      "icao": "LFPO",
      "alert": "OK",
      "vis_m": 9999,
      "fzfg": false,
      "metar_trigger": false,
      "taf_trigger": false,
      "metar": "METAR LFPO 011630Z 19007KT 9999 FEW040 SCT130 BKN260 12/04 Q1021 NOSIG",
      "taf": "TAF LFPO 011100Z 0112/0218 22012KT 9999 SCT030"
    },
    {
      "icao": "LFSB",
      "alert": "OK",
      "vis_m": 9999,
      "fzfg": false,
      "metar_trigger": false,
      "taf_trigger": false,
      "metar": "METAR LFSB 011630Z AUTO 13008KT 9999 FEW048 13/04 Q1024 NOSIG",
      "taf": "TAF LFSB 011100Z 0112/0212 VRB03KT 9999 FEW030"
    },
    {
      "icao": "LGAV",
      "alert": "OK",
      "vis_m": 9999,
      "fzfg": false,
      "metar_trigger": false,
      "taf_trigger": false,
      "metar": "METAR LGAV 011650Z 04006KT 9999 FEW025 10/03 Q1026 NOSIG",
      "taf": "TAF LGAV 011100Z 0112/0212 04017KT 9999 SCT025"
    },
    {
      "icao": "LGTS",
      "alert": "OK",
      "vis_m": 9999,
      "fzfg": false,
      "metar_trigger": false,
      "taf_trigger": false,
      "metar": "METAR LGTS 011650Z VRB03KT CAVOK 11/06 Q1028 NOSIG",
      "taf": "TAF LGTS 011100Z 0112/0212 VRB03KT 9999 FEW020"
    },
    {
      "icao": "LHBP",
      "alert": "OK",
      "vis_m": 9999,
      "fzfg": false,
      "metar_trigger": false,
      "taf_trigger": false,
      "metar": "METAR LHBP 011630Z 16004KT CAVOK 11/M03 Q1024 NOSIG",
      "taf": "TAF LHBP 011115Z 0112/0212 09005KT CAVOK"
    },
    {
      "icao": "LHDC",
      "alert": "OK",
      "vis_m": 9999,
      "fzfg": false,
      "metar_trigger": false,
      "taf_trigger": false,
      "metar": "METAR LHDC 011615Z AUTO 26003KT CAVOK 12/00 Q1025 NOSIG",
      "taf": "TAF LHDC 011415Z 0115/0124 VRB03KT CAVOK"
    },
    {
      "icao": "LIBD",
      "alert": "OK",
      "vis_m": 9999,
      "fzfg": false,
      "metar_trigger": false,
      "taf_trigger": false,
      "metar": "METAR LIBD 011650Z 10006KT CAVOK 13/09 Q1026",
      "taf": "TAF LIBD 011100Z 0112/0212 10010KT 9999 BKN025"
    },
    {
      "icao": "LIBG",
      "alert": "OK",
      "vis_m": 9999,
      "fzfg": false,
      "metar_trigger": false,
      "taf_trigger": false,
      "metar": "METAR LIBG 011550Z 20005KT 170V230 9999 FEW035 16/09 Q1025",
      "taf": "TAF LIBG 011400Z 0115/0124 VRB05KT 9999 SCT020"
    },
    {
      "icao": "LIBP",
      "alert": "OK",
      "vis_m": 9000,
      "fzfg": false,
      "metar_trigger": false,
      "taf_trigger": false,
      "metar": "METAR LIBP 011650Z 11002KT 9000 OVC045 13/08 Q1026",
      "taf": "TAF LIBP 011100Z 0112/0212 VRB05KT 6000 SCT030"
    },
    {
      "icao": "LIBR",
      "alert": "OK",
      "vis_m": 9999,
      "fzfg": false,
      "metar_trigger": false,
      "taf_trigger": false,
      "metar": "METAR LIBR 011650Z 13007KT CAVOK 14/10 Q1026",
      "taf": "TAF LIBR 011100Z 0112/0212 VRB05KT 9999 BKN035"
    },
    {
      "icao": "LICA",
      "alert": "OK",
      "vis_m": 9999,
      "fzfg": false,
      "metar_trigger": false,
      "taf_trigger": false,
      "metar": "METAR LICA 011650Z 09004KT CAVOK 14/10 Q1026",
      "taf": "TAF LICA 011100Z 0112/0212 VRB05KT 9999 FEW020"
    },
    {
      "icao": "LICC",
      "alert": "OK",
      "vis_m": 9999,
      "fzfg": false,
      "metar_trigger": false,
      "taf_trigger": false,
      "metar": "METAR LICC 011650Z 09004KT 9999 FEW015 SCT040 15/13 Q1026",
      "taf": "TAF LICC 011100Z 0112/0212 VRB06KT 9999 SCT035"
    },
    {
      "icao": "LICJ",
      "alert": "OK",
      "vis_m": 9999,
      "fzfg": false,
      "metar_trigger": false,
      "taf_trigger": false,
      "metar": "METAR LICJ 011650Z 07006KT CAVOK 15/11 Q1024",
      "taf": "TAF LICJ 011100Z 0112/0212 VRB05KT 9999 FEW020"
    },
    {
      "icao": "LIMC",
      "alert": "OK",
      "vis_m": 4000,
      "fzfg": false,
      "metar_trigger": false,
      "taf_trigger": false,
      "metar": "METAR LIMC 011650Z 12003KT 4000 BR BKN010 11/09 Q1025 NOSIG",
      "taf": "TAF LIMC 011100Z 0112/0218 VRB04KT 2500 BR BKN005"
    },
    {
      "icao": "LIME",
      "alert": "OK",
      "vis_m": 4000,
      "fzfg": false,
      "metar_trigger": false,
      "taf_trigger": false,
      "metar": "METAR LIME 011650Z 08002KT 4000 BR BKN010 11/09 Q1025 NOSIG",
      "taf": "TAF LIME 011100Z 0112/0212 VRB05KT 0200 FG OVC001"
    },
    {
      "icao": "LIMF",
      "alert": "OK",
      "vis_m": 1600,
      "fzfg": false,
      "metar_trigger": false,
      "taf_trigger": false,
      "metar": "METAR LIMF 011650Z 05006KT 030V090 1600 BR VCFG BKN007 10/08 Q1024",
      "taf": "TAF LIMF 011100Z 0112/0212 VRB04KT 6000 BKN030"
    },
    {
      "icao": "LIMJ",
      "alert": "OK",
      "vis_m": 9999,
      "fzfg": false,
      "metar_trigger": false,
      "taf_trigger": false,
      "metar": "METAR LIMJ 011650Z 11002KT 9999 FEW018 BKN065 14/11 Q1025",
      "taf": "TAF LIMJ 011100Z 0112/0212 VRB05KT 9999 SCT020 BKN030"
    },
    {
      "icao": "LIPE",
      "alert": "OK",
      "vis_m": 6000,
      "fzfg": false,
      "metar_trigger": false,
      "taf_trigger": false,
      "metar": "METAR LIPE 011650Z 06005KT 6000 BKN020 13/10 Q1025",
      "taf": "TAF LIPE 011100Z 0112/0212 09006KT 3500 BR BKN008"
    },
    {
      "icao": "LIPH",
      "alert": "OK",
      "vis_m": 3000,
      "fzfg": false,
      "metar_trigger": false,
      "taf_trigger": false,
      "metar": "METAR LIPH 011650Z VRB01KT 3000 BR BKN006 11/10 Q1026",
      "taf": "TAF LIPH 011100Z 0112/0212 VRB04KT 1000 FG OVC002"
    },
    {
      "icao": "LIPQ",
      "alert": "OK",
      "vis_m": 4000,
      "fzfg": false,
      "metar_trigger": false,
      "taf_trigger": false,
      "metar": "METAR LIPQ 011650Z 14001KT 4000 BR FEW010 OVC060 11/09 Q1026",
      "taf": "TAF LIPQ 011100Z 0112/0212 VRB04KT 3000 BR OVC002"
    },
    {
      "icao": "LIPR",
      "alert": "OK",
      "vis_m": 8000,
      "fzfg": false,
      "metar_trigger": false,
      "taf_trigger": false,
      "metar": "METAR LIPR 011650Z 12005KT 8000 BKN070 12/10 Q1025",
      "taf": "TAF LIPR 011100Z 0112/0212 VRB04KT 4000 BR FEW016 BKN040"
    },
    {
      "icao": "LIPX",
      "alert": "OK",
      "vis_m": 4000,
      "fzfg": false,
      "metar_trigger": false,
      "taf_trigger": false,
      "metar": "METAR LIPX 011650Z 11003KT 4000 BR BKN025 BKN065 11/09 Q1026",
      "taf": "TAF LIPX 011100Z 0112/0212 VRB05KT 1200 BR OVC004"
    },
    {
      "icao": "LIPY",
      "alert": "OK",
      "vis_m": 9999,
      "fzfg": false,
      "metar_trigger": false,
      "taf_trigger": false,
      "metar": "METAR LIPY 011650Z 14003KT 100V180 CAVOK 13/09 Q1025",
      "taf": "TAF LIPY 011100Z 0112/0212 VRB04KT 7000 FEW020 BKN040"
    },
    {
      "icao": "LIPZ",
      "alert": "OK",
      "vis_m": 4000,
      "fzfg": false,
      "metar_trigger": false,
      "taf_trigger": false,
      "metar": "METAR LIPZ 011650Z 11003KT 4000 BR BKN006 10/09 Q1026 NOSIG",
      "taf": "TAF LIPZ 011100Z 0112/0218 VRB04KT 2000 BR OVC006"
    },
    {
      "icao": "LIRF",
      "alert": "OK",
      "vis_m": 9999,
      "fzfg": false,
      "metar_trigger": false,
      "taf_trigger": false,
      "metar": "METAR LIRF 011650Z 17003KT 120V210 CAVOK 14/08 Q1025 NOSIG",
      "taf": "TAF LIRF 011100Z 0112/0218 09005KT 9999 SCT035"
    },
    {
      "icao": "LIRN",
      "alert": "OK",
      "vis_m": 9999,
      "fzfg": false,
      "metar_trigger": false,
      "taf_trigger": false,
      "metar": "METAR LIRN 011650Z VRB02KT 9999 SCT050 14/06 Q1025 NOSIG",
      "taf": "TAF LIRN 011100Z 0112/0212 VRB05KT 9999 SCT035"
    },
    {
      "icao": "LIRP",
      "alert": "OK",
      "vis_m": 9999,
      "fzfg": false,
      "metar_trigger": false,
      "taf_trigger": false,
      "metar": "METAR LIRP 011645Z 29004KT 9999 SCT030 BKN070 14/09 Q1025 NOSIG",
      "taf": "TAF LIRP 011100Z 0112/0212 09005KT 9999 SCT040"
    },
    {
      "icao": "LIRZ",
      "alert": "OK",
      "vis_m": 9999,
      "fzfg": false,
      "metar_trigger": false,
      "taf_trigger": false,
      "metar": "METAR LIRZ 011650Z 15003KT 9999 BKN060 14/06 Q1025",
      "taf": "TAF LIRZ 011100Z 0112/0212 VRB04KT 9999 SCT040"
    },
    {
      "icao": "LJLJ",
      "alert": "OK",
      "vis_m": 9999,
      "fzfg": false,
      "metar_trigger": false,
      "taf_trigger": false,
      "metar": "METAR LJLJ 011630Z VRB01KT 9999 FEW055 BKN250 12/03 Q1024 NOSIG",
      "taf": "TAF LJLJ 011100Z 0112/0212 12004KT 9999 FEW040"
    },
    {
      "icao": "LKMT",
      "alert": "OK",
      "vis_m": 9999,
      "fzfg": false,
      "metar_trigger": false,
      "taf_trigger": false,
      "metar": "METAR LKMT 011630Z 01007KT CAVOK 10/04 Q1024 NOSIG",
      "taf": "TAF LKMT 011100Z 0112/0212 23008KT 9999 SCT040"
    },
    {
      "icao": "LKPR",
      "alert": "OK",
      "vis_m": 9999,
      "fzfg": false,
      "metar_trigger": false,
      "taf_trigger": false,
      "metar": "METAR LKPR 011630Z 19006KT CAVOK 06/04 Q1025 NOSIG",
      "taf": "TAF LKPR 011400Z 0115/0221 22006KT 9999 SCT030"
    },
    {
      "icao": "LLBG",
      "alert": "OK",
      "vis_m": 9999,
      "fzfg": false,
      "metar_trigger": false,
      "taf_trigger": false,
      "metar": "METAR LLBG 011650Z 04004KT 9999 FEW045 14/06 Q1019 NOSIG RMK SCT080",
      "taf": "TAF LLBG 011107Z 0112/0212 34012KT 9999 FEW045 TX18/0112Z TN06/0203Z"
    },
    {
      "icao": "LMML",
      "alert": "OK",
      "vis_m": 9999,
      "fzfg": false,
      "metar_trigger": false,
      "taf_trigger": false,
      "metar": "METAR LMML 011645Z 08006KT 050V130 9999 FEW014 15/12 Q1025 NOSIG",
      "taf": "TAF LMML 011100Z 0112/0212 13007KT 9999 SCT015"
    },
    {
      "icao": "LOWW",
      "alert": "OK",
      "vis_m": 9999,
      "fzfg": false,
      "metar_trigger": false,
      "taf_trigger": false,
      "metar": "METAR LOWW 011650Z 05002KT 9999 FEW050 11/04 Q1025 NOSIG",
      "taf": "TAF LOWW 011415Z 0115/0221 VRB03KT CAVOK TX13/0115Z TN05/0205Z"
    },
    {
      "icao": "LPFR",
      "alert": "OK",
      "vis_m": 9999,
      "fzfg": false,
      "metar_trigger": false,
      "taf_trigger": false,
      "metar": "METAR LPFR 011630Z 11013KT 9999 FEW025 18/10 Q1018",
      "taf": "TAF LPFR 011100Z 0112/0212 09012KT CAVOK"
    },
    {
      "icao": "LPMA",
      "alert": "OK",
      "vis_m": 9999,
      "fzfg": false,
      "metar_trigger": false,
      "taf_trigger": false,
      "metar": "METAR LPMA 011630Z 35011KT 9999 SCT018 SCT033 17/08 Q1021",
      "taf": "TAF LPMA 011100Z 0112/0212 01010KT 9999 SCT018"
    },
    {
      "icao": "LPPR",
      "alert": "OK",
      "vis_m": 9999,
      "fzfg": false,
      "metar_trigger": false,
      "taf_trigger": false,
      "metar": "METAR LPPR 011630Z 24006KT 210V280 CAVOK 14/09 Q1018",
      "taf": "TAF LPPR 011100Z 0112/0212 24005KT CAVOK"
    },
    {
      "icao": "LPPS",
      "alert": "OK",
      "vis_m": 9999,
      "fzfg": false,
      "metar_trigger": false,
      "taf_trigger": false,
      "metar": "METAR LPPS 011630Z 34009KT 310V010 9999 SCT015 BKN030 16/09 Q1021",
      "taf": "TAF LPPS 011100Z 0112/0218 36010KT 9999 SCT015 SCT030"
    },
    {
      "icao": "LPPT",
      "alert": "OK",
      "vis_m": 9999,
      "fzfg": false,
      "metar_trigger": false,
      "taf_trigger": false,
      "metar": "METAR LPPT 011630Z 22009KT 9999 FEW032 17/08 Q1018",
      "taf": "TAF LPPT 011100Z 0112/0218 VRB05KT 9999 SCT025"
    },
    {
      "icao": "LQBK",
      "alert": "OK",
      "vis_m": 9999,
      "fzfg": false,
      "metar_trigger": false,
      "taf_trigger": false,
      "metar": "METAR LQBK 011630Z 29002KT CAVOK 14/06 Q1023 NOSIG",
      "taf": "TAF LQBK 011100Z 0112/0212 35006KT CAVOK TX17/0114Z TN05/0206Z"
    },
    {
      "icao": "LQSA",
      "alert": "OK",
      "vis_m": 9999,
      "fzfg": false,
      "metar_trigger": false,
      "taf_trigger": false,
      "metar": "METAR LQSA 011630Z VRB02KT CAVOK 15/02 Q1023 NOSIG",
      "taf": "TAF LQSA 011100Z 0112/0212 VRB02KT CAVOK TX19/0114Z TNM01/0205Z"
    },
    {
      "icao": "LQTZ",
      "alert": "OK",
      "vis_m": 9999,
      "fzfg": false,
      "metar_trigger": false,
      "taf_trigger": false,
      "metar": "METAR LQTZ 011630Z 11008KT CAVOK 13/04 Q1023",
      "taf": "TAF LQTZ 011100Z 0112/0212 06005KT CAVOK TX18/0114Z TNM00/0205Z"
    },
    {
      "icao": "LRBC",
      "alert": "OK",
      "vis_m": 600,
      "fzfg": true,
      "metar_trigger": false,
      "taf_trigger": false,
      "metar": "METAR LRBC 011630Z 17008KT 0600 R16/1000D FZFG VV002 M01/M01 Q1027",
      "taf": "TAF LRBC 011400Z 0115/0124 16010KT 1500 BR OVC001"
    },
    {
      "icao": "LRBS",
      "alert": "OK",
      "vis_m": 400,
      "fzfg": true,
      "metar_trigger": false,
      "taf_trigger": false,
      "metar": "METAR LRBS 011630Z 21006KT 180V240 0400 R07/0800N FZFG VV001 00/M00 Q1028 BECMG 0300 FZFG",
      "taf": ""
    },
    {
      "icao": "LRBV",
      "alert": "OK",
      "vis_m": 9999,
      "fzfg": false,
      "metar_trigger": false,
      "taf_trigger": false,
      "metar": "METAR LRBV 011630Z 26003KT 210V270 CAVOK 06/03 Q1024",
      "taf": "TAF LRBV 011400Z 0115/0124 VRB04KT CAVOK"
    },
    {
      "icao": "LRCL",
      "alert": "OK",
      "vis_m": 9999,
      "fzfg": false,
      "metar_trigger": false,
      "taf_trigger": false,
      "metar": "METAR LRCL 011630Z 00000KT CAVOK 08/M02 Q1025",
      "taf": "TAF LRCL 011400Z 0115/0124 VRB04KT CAVOK"
    },
    {
      "icao": "LRCV",
      "alert": "OK",
      "vis_m": 6000,
      "fzfg": false,
      "metar_trigger": false,
      "taf_trigger": false,
      "metar": "METAR LRCV 011630Z 18004KT 6000 NSC 01/M00 Q1028",
      "taf": "TAF LRCV 011400Z 0115/0124 VRB04KT 5000 BR NSC"
    },
    {
      "icao": "LRIA",
      "alert": "OK",
      "vis_m": 9999,
      "fzfg": false,
      "metar_trigger": false,
      "taf_trigger": false,
      "metar": "METAR LRIA 011630Z 11004KT CAVOK 04/M00 Q1026",
      "taf": "TAF LRIA 011400Z 0115/0124 VRB04KT CAVOK"
    },
    {
      "icao": "LROP",
      "alert": "OK",
      "vis_m": 250,
      "fzfg": false,
      "metar_trigger": false,
      "taf_trigger": false,
      "metar": "METAR LROP 011630Z 24006KT 0250 R08R/0450N R08L/0450N FG VV001 00/00 Q1028 NOSIG",
      "taf": ""
    },
    {
      "icao": "LRSB",
      "alert": "OK",
      "vis_m": 9999,
      "fzfg": false,
      "metar_trigger": false,
      "taf_trigger": false,
      "metar": "METAR LRSB 011630Z 24003KT CAVOK 07/M01 Q1024",
      "taf": "TAF LRSB 011100Z 0112/0212 VRB04KT CAVOK"
    },
    {
      "icao": "LRSM",
      "alert": "OK",
      "vis_m": 9999,
      "fzfg": false,
      "metar_trigger": false,
      "taf_trigger": false,
      "metar": "METAR LRSM 011630Z VRB01KT CAVOK 10/01 Q1025",
      "taf": "TAF LRSM 011400Z 0115/0124 VRB04KT CAVOK"
    },
    {
      "icao": "LRSV",
      "alert": "OK",
      "vis_m": 4000,
      "fzfg": false,
      "metar_trigger": false,
      "taf_trigger": false,
      "metar": "METAR LRSV 011630Z 14002KT 4000 BR NSC 01/01 Q1024",
      "taf": ""
    },
    {
      "icao": "LRTM",
      "alert": "OK",
      "vis_m": 9999,
      "fzfg": false,
      "metar_trigger": false,
      "taf_trigger": false,
      "metar": "METAR LRTM 011630Z 33002KT CAVOK 09/M01 Q1025",
      "taf": "TAF LRTM 011400Z 0115/0124 VRB04KT CAVOK"
    },
    {
      "icao": "LRTR",
      "alert": "OK",
      "vis_m": 9999,
      "fzfg": false,
      "metar_trigger": false,
      "taf_trigger": false,
      "metar": "METAR LRTR 011630Z 31003KT 260V340 CAVOK 12/M01 Q1025",
      "taf": "TAF LRTR 011100Z 0112/0212 VRB04KT CAVOK"
    },
    {
      "icao": "LTAC",
      "alert": "OK",
      "vis_m": 9999,
      "fzfg": false,
      "metar_trigger": false,
      "taf_trigger": false,
      "metar": "METAR LTAC 011650Z 23004KT 140V300 9999 FEW040 06/M04 Q1024 NOSIG",
      "taf": "TAF LTAC 011040Z 0112/0212 VRB02KT 9999 SCT040"
    },
    {
      "icao": "LTFM",
      "alert": "OK",
      "vis_m": 9999,
      "fzfg": false,
      "metar_trigger": false,
      "taf_trigger": false,
      "metar": "METAR LTFM 011650Z 04008KT 9999 FEW016 BKN024 05/02 Q1029 NOSIG",
      "taf": "TAF LTFM 011040Z 0112/0218 04012KT 9999 FEW016 BKN028"
    },
    {
      "icao": "LUKK",
      "alert": "OK",
      "vis_m": 9999,
      "fzfg": false,
      "metar_trigger": false,
      "taf_trigger": false,
      "metar": "METAR LUKK 011630Z 20007KT CAVOK 05/M01 Q1026 NOSIG",
      "taf": "TAF LUKK 011114Z 0112/0212 21009KT CAVOK"
    },
    {
      "icao": "LWOH",
      "alert": "OK",
      "vis_m": 9999,
      "fzfg": false,
      "metar_trigger": false,
      "taf_trigger": false,
      "metar": "METAR LWOH 011650Z VRB01KT CAVOK 08/05 Q1025",
      "taf": "TAF LWOH 011410Z 0115/0215 VRB03KT CAVOK"
    },
    {
      "icao": "LWSK",
      "alert": "OK",
      "vis_m": 9999,
      "fzfg": false,
      "metar_trigger": false,
      "taf_trigger": false,
      "metar": "METAR LWSK 011650Z 08003KT 060V120 CAVOK 11/04 Q1025 NOSIG",
      "taf": "TAF LWSK 011410Z 0115/0215 VRB02KT CAVOK"
    },
    {
      "icao": "LYBE",
      "alert": "OK",
      "vis_m": 9999,
      "fzfg": false,
      "metar_trigger": false,
      "taf_trigger": false,
      "metar": "METAR LYBE 011630Z 02004KT CAVOK 13/02 Q1024 NOSIG",
      "taf": "TAF LYBE 011100Z 0112/0212 09004KT CAVOK TX16/0113Z TN02/0206Z"
    },
    {
      "icao": "LYNI",
      "alert": "OK",
      "vis_m": 9999,
      "fzfg": false,
      "metar_trigger": false,
      "taf_trigger": false,
      "metar": "METAR LYNI 011630Z 36002KT CAVOK 15/01 Q1024 NOSIG",
      "taf": "TAF LYNI 011100Z 0112/0212 12005KT CAVOK TX16/0113Z TNM02/0205Z"
    },
    {
      "icao": "LYPG",
      "alert": "OK",
      "vis_m": 9999,
      "fzfg": false,
      "metar_trigger": false,
      "taf_trigger": false,
      "metar": "METAR LYPG 011630Z 15003KT CAVOK 14/08 Q1025 NOSIG",
      "taf": "TAF LYPG 011100Z 0112/0212 17005KT CAVOK TX17/0113Z TN03/0205Z"
    },
    {
      "icao": "LZIB",
      "alert": "OK",
      "vis_m": 9999,
      "fzfg": false,
      "metar_trigger": false,
      "taf_trigger": false,
      "metar": "METAR LZIB 011630Z 03001KT CAVOK 12/04 Q1024 NOSIG",
      "taf": "TAF LZIB 011115Z 0112/0212 07007KT CAVOK"
    },
    {
      "icao": "LZKZ",
      "alert": "OK",
      "vis_m": 9999,
      "fzfg": false,
      "metar_trigger": false,
      "taf_trigger": false,
      "metar": "METAR LZKZ 011630Z 18004KT CAVOK 09/03 Q1024 NOSIG",
      "taf": "TAF LZKZ 011115Z 0112/0212 21007KT CAVOK"
    },
    {
      "icao": "LZTT",
      "alert": "OK",
      "vis_m": 9999,
      "fzfg": false,
      "metar_trigger": false,
      "taf_trigger": false,
      "metar": "METAR LZTT 011630Z 13003KT 9999 FEW056 06/02 Q1023 NOSIG",
      "taf": "TAF LZTT 011115Z 0112/0212 06005KT CAVOK"
    },
    {
      "icao": "OEJN",
      "alert": "OK",
      "vis_m": 9999,
      "fzfg": false,
      "metar_trigger": false,
      "taf_trigger": false,
      "metar": "METAR OEJN 011600Z 33016KT 9999 FEW040 SCT100 23/11 Q1012 NOSIG",
      "taf": "TAF OEJN 011100Z 0112/0218 33014KT 9999 FEW040"
    },
    {
      "icao": "OEMA",
      "alert": "OK",
      "vis_m": 9999,
      "fzfg": false,
      "metar_trigger": false,
      "taf_trigger": false,
      "metar": "METAR OEMA 011600Z 21009KT CAVOK 24/M05 Q1013 NOSIG",
      "taf": "TAF OEMA 011100Z 0112/0218 27012KT CAVOK"
    },
    {
      "icao": "OJAI",
      "alert": "OK",
      "vis_m": 5000,
      "fzfg": false,
      "metar_trigger": false,
      "taf_trigger": false,
      "metar": "METAR OJAI 011600Z 27005KT 5000 HZ NSC 10/M02 Q1019 NOSIG",
      "taf": "TAF OJAI 011100Z 0112/0218 03010KT 5000 HZ FEW030"
    },
    {
      "icao": "OMAA",
      "alert": "OK",
      "vis_m": 9999,
      "fzfg": false,
      "metar_trigger": false,
      "taf_trigger": false,
      "metar": "METAR OMAA 011630Z AUTO 06008KT CAVOK 28/10 Q1009 NOSIG",
      "taf": "TAF OMAA 011100Z 0112/0218 21006KT CAVOK"
    },
    {
      "icao": "OMDB",
      "alert": "OK",
      "vis_m": 9999,
      "fzfg": false,
      "metar_trigger": false,
      "taf_trigger": false,
      "metar": "METAR OMDB 011630Z 06005KT CAVOK 27/08 Q1010 NOSIG",
      "taf": ""
    },
    {
      "icao": "UAAA",
      "alert": "OK",
      "vis_m": 9999,
      "fzfg": false,
      "metar_trigger": false,
      "taf_trigger": false,
      "metar": "METAR UAAA 011630Z 36002MPS 330V030 9999 SCT100 BKN200 M07/M10 Q1023 NOSIG",
      "taf": "TAF UAAA 011102Z 0112/0212 04003MPS 3100 BR FU SCT011 BKN030 TX04/0209Z TNM10/0202Z"
    },
    {
      "icao": "UBBB",
      "alert": "OK",
      "vis_m": 9999,
      "fzfg": false,
      "metar_trigger": false,
      "taf_trigger": false,
      "metar": "METAR UBBB 011630Z 33012KT 9999 BKN021 04/M00 Q1024 NOSIG",
      "taf": "TAF UBBB 011114Z 0112/0212 33016KT 9999 BKN030 TX05/0112Z TN02/0201Z"
    },
    {
      "icao": "UDSG",
      "alert": "OK",
      "vis_m": 9000,
      "fzfg": false,
      "metar_trigger": false,
      "taf_trigger": false,
      "metar": "METAR UDSG 011630Z 07002KT 9000 OVC033 M04/M05 Q1019 NOSIG",
      "taf": "TAF UDSG 011058Z 0112/0212 VRB06KT 5000 BR BKN030"
    },
    {
      "icao": "UDYZ",
      "alert": "OK",
      "vis_m": 9999,
      "fzfg": false,
      "metar_trigger": false,
      "taf_trigger": false,
      "metar": "METAR UDYZ 011630Z 09003KT 9999 FEW046 03/M02 Q1019 NOSIG",
      "taf": "TAF UDYZ 011100Z 0112/0212 04004KT 9999 SCT040"
    },
    {
      "icao": "UGKO",
      "alert": "OK",
      "vis_m": 9999,
      "fzfg": false,
      "metar_trigger": false,
      "taf_trigger": false,
      "metar": "METAR UGKO 011630Z 24012KT 9999 SCT024 BKN031 06/04 Q1023 NOSIG",
      "taf": "TAF UGKO 011100Z 0112/0212 26012KT 9999 SCT020 OVC040 TX08/0212Z TN04/0203Z"
    }
  ]
}