{
  "ts_utc": "2026-04-12T09:57:03Z",
  "threshold_m": 150,
  "source": "stations_override.txt (ICAO list) + aviationweather.gov (METAR/TAF raw)",
  "station_count": 159,
  "stations": [
    {
      "icao": "BIKF",
      "alert": "OK",
      "vis_m": 9999,
      "fzfg": false,
      "metar_trigger": false,
      "taf_trigger": false,
      "metar": "METAR BIKF 120930Z 36023KT 9999 BKN015 BKN033 OVC077 03/01 Q0996",
      "taf": "TAF BIKF 120731Z 1209/1309 36025G35KT 9999 SCT010 BKN025 TX04/1216Z TNM03/1306Z"
    },
    {
      "icao": "BKPR",
      "alert": "OK",
      "vis_m": null,
      "fzfg": false,
      "metar_trigger": false,
      "taf_trigger": false,
      "metar": "",
      "taf": "TAF BKPR 120530Z 1206/1306 09006KT 9999 FEW040 SCT080"
    },
    {
      "icao": "EBCI",
      "alert": "OK",
      "vis_m": 9999,
      "fzfg": false,
      "metar_trigger": false,
      "taf_trigger": false,
      "metar": "METAR EBCI 120950Z 21011KT 9999 FEW025 09/03 Q1016 NOSIG",
      "taf": "TAF EBCI 120506Z 1206/1312 20008KT CAVOK"
    },
    {
      "icao": "EDDB",
      "alert": "OK",
      "vis_m": 9999,
      "fzfg": false,
      "metar_trigger": false,
      "taf_trigger": false,
      "metar": "METAR EDDB 120950Z AUTO 20006KT 9999 -RA OVC018 09/03 Q1016 NOSIG",
      "taf": "TAF EDDB 120500Z 1206/1306 13008KT CAVOK"
    },
    {
      "icao": "EDDH",
      "alert": "OK",
      "vis_m": 9999,
      "fzfg": false,
      "metar_trigger": false,
      "taf_trigger": false,
      "metar": "METAR EDDH 120950Z AUTO VRB04KT 9999 FEW022 12/06 Q1016 NOSIG",
      "taf": "TAF EDDH 120500Z 1206/1312 26005KT CAVOK"
    },
    {
      "icao": "EDDK",
      "alert": "OK",
      "vis_m": 9999,
      "fzfg": false,
      "metar_trigger": false,
      "taf_trigger": false,
      "metar": "METAR EDDK 120950Z AUTO 15004KT 120V200 CAVOK 09/04 Q1017 NOSIG",
      "taf": "TAF EDDK 120500Z 1206/1312 VRB03KT 9999 FEW020"
    },
    {
      "icao": "EDDN",
      "alert": "OK",
      "vis_m": 8000,
      "fzfg": false,
      "metar_trigger": false,
      "taf_trigger": false,
      "metar": "METAR EDDN 120950Z AUTO 30007KT 8000 -RADZ OVC007 09/07 Q1016 NOSIG",
      "taf": ""
    },
    {
      "icao": "EDDS",
      "alert": "OK",
      "vis_m": 9999,
      "fzfg": false,
      "metar_trigger": false,
      "taf_trigger": false,
      "metar": "METAR EDDS 120950Z AUTO 33006KT 9999 OVC012 06/04 Q1016 NOSIG",
      "taf": "TAF EDDS 120500Z 1206/1306 31010KT 9999 BKN015"
    },
    {
      "icao": "EDFH",
      "alert": "OK",
      "vis_m": 9999,
      "fzfg": false,
      "metar_trigger": false,
      "taf_trigger": false,
      "metar": "METAR EDFH 120950Z 30006KT 260V330 CAVOK 06/02 Q1017",
      "taf": "TAF EDFH 120500Z 1206/1306 28006KT CAVOK"
    },
    {
      "icao": "EDJA",
      "alert": "OK",
      "vis_m": 9999,
      "fzfg": false,
      "metar_trigger": false,
      "taf_trigger": false,
      "metar": "METAR EDJA 120950Z 33006KT 9999 OVC005 09/08 Q1015",
      "taf": "TAF EDJA 120800Z 1209/1218 33005KT 7000 SCT005 OVC015"
    },
    {
      "icao": "EDLW",
      "alert": "OK",
      "vis_m": 9999,
      "fzfg": false,
      "metar_trigger": false,
      "taf_trigger": false,
      "metar": "METAR EDLW 120950Z 18004KT 150V220 CAVOK 10/03 Q1017",
      "taf": "TAF EDLW 120500Z 1206/1306 22006KT 9999 FEW020"
    },
    {
      "icao": "EDNY",
      "alert": "OK",
      "vis_m": 9999,
      "fzfg": false,
      "metar_trigger": false,
      "taf_trigger": false,
      "metar": "METAR EDNY 120950Z 03003KT 310V100 9999 FEW016 OVC040 12/10 Q1015",
      "taf": "TAF EDNY 120800Z 1209/1218 28005KT 9000 SCT008 OVC015"
    },
    {
      "icao": "EDSB",
      "alert": "OK",
      "vis_m": 9999,
      "fzfg": false,
      "metar_trigger": false,
      "taf_trigger": false,
      "metar": "METAR EDSB 120950Z VRB02KT 9999 SCT012 BKN044 09/06 Q1017",
      "taf": "TAF EDSB 120500Z 1206/1306 VRB03KT 9999 BKN030"
    },
    {
      "icao": "EETN",
      "alert": "OK",
      "vis_m": 9999,
      "fzfg": false,
      "metar_trigger": false,
      "taf_trigger": false,
      "metar": "METAR EETN 120950Z 10009KT CAVOK 11/M01 Q1025 NOSIG",
      "taf": "TAF EETN 120530Z 1206/1306 12007KT 9999 FEW030"
    },
    {
      "icao": "EFTU",
      "alert": "OK",
      "vis_m": 9999,
      "fzfg": false,
      "metar_trigger": false,
      "taf_trigger": false,
      "metar": "METAR EFTU 120950Z AUTO 13013KT 100V170 CAVOK 12/M03 Q1025",
      "taf": "TAF EFTU 120825Z 1209/1309 14009KT CAVOK"
    },
    {
      "icao": "EGBB",
      "alert": "OK",
      "vis_m": 9999,
      "fzfg": false,
      "metar_trigger": false,
      "taf_trigger": false,
      "metar": "METAR EGBB 120950Z 20011KT 170V240 9999 VCSH BKN026 10/05 Q1007",
      "taf": "TAF EGBB 120458Z 1206/1306 20012KT 9999 FEW030"
    },
    {
      "icao": "EGGP",
      "alert": "OK",
      "vis_m": 9999,
      "fzfg": false,
      "metar_trigger": false,
      "taf_trigger": false,
      "metar": "METAR EGGP 120950Z 22008KT 170V260 9999 SCT033TCU 11/06 Q1004",
      "taf": "TAF EGGP 120457Z 1206/1306 19009KT 9999 SCT030"
    },
    {
      "icao": "EGGW",
      "alert": "OK",
      "vis_m": 9999,
      "fzfg": false,
      "metar_trigger": false,
      "taf_trigger": false,
      "metar": "METAR EGGW 120950Z AUTO 22015KT 9999 BKN039 11/03 Q1009",
      "taf": "TAF EGGW 120501Z 1206/1306 20016KT 9999 SCT030"
    },
    {
      "icao": "EGKK",
      "alert": "OK",
      "vis_m": 9999,
      "fzfg": false,
      "metar_trigger": false,
      "taf_trigger": false,
      "metar": "METAR EGKK 120950Z 22012KT 180V250 9999 SCT034 12/04 Q1011",
      "taf": ""
    },
    {
      "icao": "EGNM",
      "alert": "OK",
      "vis_m": 9999,
      "fzfg": false,
      "metar_trigger": false,
      "taf_trigger": false,
      "metar": "METAR EGNM 120950Z 23015KT 9999 -SHRA SCT022 SCT029TCU 10/05 Q1003",
      "taf": "TAF EGNM 120457Z 1206/1306 20013KT 9999 SCT030"
    },
    {
      "icao": "EGPD",
      "alert": "OK",
      "vis_m": 9999,
      "fzfg": false,
      "metar_trigger": false,
      "taf_trigger": false,
      "metar": "METAR EGPD 120950Z COR 17022KT 9999 VCSH SCT024 BKN034 09/05 Q0994 NOSIG",
      "taf": "TAF EGPD 120453Z 1206/1306 18013KT 9999 SCT020"
    },
    {
      "icao": "EGPF",
      "alert": "OK",
      "vis_m": 9999,
      "fzfg": false,
      "metar_trigger": false,
      "taf_trigger": false,
      "metar": "METAR EGPF 120950Z AUTO 21020KT 9999 FEW027 SCT032 BKN039 10/07 Q0996",
      "taf": "TAF EGPF 120455Z 1206/1306 21010KT 9999 SCT030"
    },
    {
      "icao": "EHBK",
      "alert": "OK",
      "vis_m": 9999,
      "fzfg": false,
      "metar_trigger": false,
      "taf_trigger": false,
      "metar": "METAR EHBK 120925Z AUTO 20009KT 9999 NSC 10/04 Q1016 NOSIG",
      "taf": "TAF EHBK 120441Z 1206/1312 21008KT CAVOK"
    },
    {
      "icao": "EHEH",
      "alert": "OK",
      "vis_m": 9999,
      "fzfg": false,
      "metar_trigger": false,
      "taf_trigger": false,
      "metar": "METAR EHEH 120925Z AUTO 22010KT 9999 OVC230 12/04 Q1016 BLU NOSIG RMK TREND REMOTE BY EHWX",
      "taf": "TAF EHEH 120517Z 1206/1312 18007KT CAVOK"
    },
    {
      "icao": "EKBI",
      "alert": "OK",
      "vis_m": 9999,
      "fzfg": false,
      "metar_trigger": false,
      "taf_trigger": false,
      "metar": "METAR EKBI 120950Z AUTO 18006KT 120V220 9999 SCT019/// 10/05 Q1015",
      "taf": "TAF EKBI 120827Z 1209/1309 16005KT CAVOK"
    },
    {
      "icao": "EKCH",
      "alert": "OK",
      "vis_m": 9999,
      "fzfg": false,
      "metar_trigger": false,
      "taf_trigger": false,
      "metar": "METAR EKCH 120950Z AUTO 13012KT 9999 OVC080/// 07/01 Q1017 NOSIG",
      "taf": "TAF EKCH 120827Z 1209/1309 12012KT 9999 SCT040"
    },
    {
      "icao": "ENAL",
      "alert": "OK",
      "vis_m": 9999,
      "fzfg": false,
      "metar_trigger": false,
      "taf_trigger": false,
      "metar": "METAR ENAL 120950Z 13012KT CAVOK 10/M02 Q1008",
      "taf": "TAF ENAL 120800Z 1209/1218 14008KT CAVOK"
    },
    {
      "icao": "ENBR",
      "alert": "OK",
      "vis_m": 9999,
      "fzfg": false,
      "metar_trigger": false,
      "taf_trigger": false,
      "metar": "METAR ENBR 120950Z 13018G30KT CAVOK 10/M02 Q1007 NOSIG RMK WIND 1200FT 13031KT",
      "taf": "TAF ENBR 120500Z 1206/1306 15015KT 9999 SCT045"
    },
    {
      "icao": "ENGM",
      "alert": "OK",
      "vis_m": 9999,
      "fzfg": false,
      "metar_trigger": false,
      "taf_trigger": false,
      "metar": "METAR ENGM 120950Z 14007KT 110V170 CAVOK 05/M05 Q1018 NOSIG",
      "taf": "TAF ENGM 120500Z 1206/1306 11005KT CAVOK"
    },
    {
      "icao": "ENHD",
      "alert": "OK",
      "vis_m": 9999,
      "fzfg": false,
      "metar_trigger": false,
      "taf_trigger": false,
      "metar": "METAR ENHD 120950Z 13025KT CAVOK 09/01 Q1008",
      "taf": "TAF ENHD 120800Z 1209/1218 13025G35KT CAVOK"
    },
    {
      "icao": "ENTC",
      "alert": "OK",
      "vis_m": 9999,
      "fzfg": false,
      "metar_trigger": false,
      "taf_trigger": false,
      "metar": "METAR ENTC 120950Z COR 23003KT 9999 NCD 06/M03 Q1023 NOSIG RMK WIND 2600FT 16009KT",
      "taf": "TAF ENTC 120500Z 1206/1306 02003KT CAVOK"
    },
    {
      "icao": "ENTO",
      "alert": "OK",
      "vis_m": 9999,
      "fzfg": false,
      "metar_trigger": false,
      "taf_trigger": false,
      "metar": "METAR ENTO 120950Z 11004KT 070V140 9999 -SHRA BKN027 04/00 Q1017 TEMPO BKN014",
      "taf": ""
    },
    {
      "icao": "ENVA",
      "alert": "OK",
      "vis_m": 9999,
      "fzfg": false,
      "metar_trigger": false,
      "taf_trigger": false,
      "metar": "METAR ENVA 120950Z 13019G30KT CAVOK 09/M09 Q1018 WS R09 NOSIG RMK WIND 670FT 15026G37KT",
      "taf": "TAF ENVA 120500Z 1206/1306 12015KT CAVOK"
    },
    {
      "icao": "ENZV",
      "alert": "OK",
      "vis_m": 9999,
      "fzfg": false,
      "metar_trigger": false,
      "taf_trigger": false,
      "metar": "METAR ENZV 120950Z 13021KT CAVOK 09/01 Q1009 NOSIG",
      "taf": "TAF ENZV 120500Z 1206/1306 14017KT 9999 BKN035"
    },
    {
      "icao": "EPGD",
      "alert": "OK",
      "vis_m": 9999,
      "fzfg": false,
      "metar_trigger": false,
      "taf_trigger": false,
      "metar": "METAR EPGD 120930Z 13009KT CAVOK 10/M00 Q1021",
      "taf": "TAF EPGD 120530Z 1206/1306 VRB02KT CAVOK"
    },
    {
      "icao": "EPKK",
      "alert": "OK",
      "vis_m": 9999,
      "fzfg": false,
      "metar_trigger": false,
      "taf_trigger": false,
      "metar": "METAR EPKK 120930Z 06005KT 010V110 CAVOK 10/M03 Q1020",
      "taf": "TAF EPKK 120830Z 1209/1309 07008KT CAVOK"
    },
    {
      "icao": "EPKT",
      "alert": "OK",
      "vis_m": 9999,
      "fzfg": false,
      "metar_trigger": false,
      "taf_trigger": false,
      "metar": "METAR EPKT 120930Z 11007KT CAVOK 11/M04 Q1019",
      "taf": "TAF EPKT 120530Z 1206/1306 07004KT CAVOK"
    },
    {
      "icao": "EPLB",
      "alert": "OK",
      "vis_m": 9999,
      "fzfg": false,
      "metar_trigger": false,
      "taf_trigger": false,
      "metar": "METAR EPLB 120930Z 09003KT 050V120 9999 SCT044 10/M00 Q1021",
      "taf": "TAF EPLB 120530Z 1206/1306 VRB02KT CAVOK"
    },
    {
      "icao": "EPMO",
      "alert": "OK",
      "vis_m": 9999,
      "fzfg": false,
      "metar_trigger": false,
      "taf_trigger": false,
      "metar": "METAR EPMO 120930Z 08007KT 030V110 CAVOK 12/M02 Q1021",
      "taf": "TAF EPMO 120530Z 1206/1306 VRB02KT CAVOK"
    },
    {
      "icao": "EPPO",
      "alert": "OK",
      "vis_m": 9999,
      "fzfg": false,
      "metar_trigger": false,
      "taf_trigger": false,
      "metar": "METAR EPPO 120930Z 14014KT CAVOK 12/M03 Q1019",
      "taf": "TAF EPPO 120530Z 1206/1306 12010KT CAVOK"
    },
    {
      "icao": "EPRA",
      "alert": "OK",
      "vis_m": 9999,
      "fzfg": false,
      "metar_trigger": false,
      "taf_trigger": false,
      "metar": "METAR EPRA 120930Z 34005KT 280V020 CAVOK 11/M02 Q1021",
      "taf": "TAF EPRA 120830Z 1209/1218 09006KT CAVOK"
    },
    {
      "icao": "EPRZ",
      "alert": "OK",
      "vis_m": 9999,
      "fzfg": false,
      "metar_trigger": false,
      "taf_trigger": false,
      "metar": "METAR EPRZ 120930Z 20005KT 130V250 9999 FEW043 11/M02 Q1021",
      "taf": "TAF EPRZ 120530Z 1206/1306 VRB02KT CAVOK"
    },
    {
      "icao": "EPSC",
      "alert": "OK",
      "vis_m": 9999,
      "fzfg": false,
      "metar_trigger": false,
      "taf_trigger": false,
      "metar": "METAR EPSC 120930Z 13018KT CAVOK 10/M03 Q1017",
      "taf": "TAF EPSC 120530Z 1206/1306 11011KT CAVOK"
    },
    {
      "icao": "EPSY",
      "alert": "OK",
      "vis_m": 9999,
      "fzfg": false,
      "metar_trigger": false,
      "taf_trigger": false,
      "metar": "METAR EPSY 120930Z 06004KT 340V140 CAVOK 12/M01 Q1021",
      "taf": "TAF EPSY 120830Z 1209/1218 VRB02KT CAVOK"
    },
    {
      "icao": "EPWA",
      "alert": "OK",
      "vis_m": 9999,
      "fzfg": false,
      "metar_trigger": false,
      "taf_trigger": false,
      "metar": "METAR EPWA 120930Z 14004KT 080V190 CAVOK 12/M03 Q1021 NOSIG",
      "taf": "TAF EPWA 120830Z 1209/1309 11010KT CAVOK"
    },
    {
      "icao": "EPWR",
      "alert": "OK",
      "vis_m": 9999,
      "fzfg": false,
      "metar_trigger": false,
      "taf_trigger": false,
      "metar": "METAR EPWR 120930Z 14011KT 110V170 CAVOK 10/M02 Q1018",
      "taf": "TAF EPWR 120830Z 1209/1309 12013KT CAVOK"
    },
    {
      "icao": "ESGG",
      "alert": "OK",
      "vis_m": 9999,
      "fzfg": false,
      "metar_trigger": false,
      "taf_trigger": false,
      "metar": "METAR ESGG 120950Z 13011KT CAVOK 07/M02 Q1017",
      "taf": "TAF ESGG 120830Z 1209/1309 12010KT CAVOK"
    },
    {
      "icao": "ESKN",
      "alert": "OK",
      "vis_m": 9999,
      "fzfg": false,
      "metar_trigger": false,
      "taf_trigger": false,
      "metar": "METAR ESKN 120950Z 13009KT 090V150 CAVOK 10/M01 Q1023",
      "taf": "TAF ESKN 120830Z 1209/1309 11010KT CAVOK"
    },
    {
      "icao": "ESMS",
      "alert": "OK",
      "vis_m": 9999,
      "fzfg": false,
      "metar_trigger": false,
      "taf_trigger": false,
      "metar": "METAR ESMS 120950Z 12012KT CAVOK 07/M00 Q1017",
      "taf": "TAF ESMS 120827Z 1209/1309 12010KT CAVOK"
    },
    {
      "icao": "ESSA",
      "alert": "OK",
      "vis_m": 9999,
      "fzfg": false,
      "metar_trigger": false,
      "taf_trigger": false,
      "metar": "METAR ESSA 120950Z 15009KT CAVOK 10/M10 Q1023 NOSIG",
      "taf": "TAF ESSA 120830Z 1209/1309 11009KT CAVOK"
    },
    {
      "icao": "EYKA",
      "alert": "OK",
      "vis_m": 9999,
      "fzfg": false,
      "metar_trigger": false,
      "taf_trigger": false,
      "metar": "METAR EYKA 120950Z 07007KT 360V100 9999 BKN033 08/00 Q1023",
      "taf": "TAF EYKA 120500Z 1206/1306 VRB04KT 9000 NSC"
    },
    {
      "icao": "EYPA",
      "alert": "OK",
      "vis_m": 9999,
      "fzfg": false,
      "metar_trigger": false,
      "taf_trigger": false,
      "metar": "METAR EYPA 120950Z 29003KT 250V330 CAVOK 11/M01 Q1022",
      "taf": "TAF EYPA 120500Z 1206/1306 VRB05KT 9000 SCT045"
    },
    {
      "icao": "EYVI",
      "alert": "OK",
      "vis_m": 9999,
      "fzfg": false,
      "metar_trigger": false,
      "taf_trigger": false,
      "metar": "METAR EYVI 120950Z 08006KT 040V140 CAVOK 06/M01 Q1023 NOSIG",
      "taf": "TAF EYVI 120505Z 1206/1306 09012KT 9000 BKN020"
    },
    {
      "icao": "GCFV",
      "alert": "OK",
      "vis_m": 9999,
      "fzfg": false,
      "metar_trigger": false,
      "taf_trigger": false,
      "metar": "METAR GCFV 120930Z 01018KT 9999 SCT021 BKN025 18/13 Q1022",
      "taf": "TAF GCFV 120800Z 1209/1309 02018KT 9999 FEW020 BKN035 TX22/1214Z TN16/1306Z"
    },
    {
      "icao": "GCLP",
      "alert": "OK",
      "vis_m": 9999,
      "fzfg": false,
      "metar_trigger": false,
      "taf_trigger": false,
      "metar": "METAR GCLP 120930Z 02022KT 9999 SCT017 BKN025 18/16 Q1022 NOSIG",
      "taf": "TAF GCLP 120800Z 1209/1309 01024KT 9999 BKN030 TX22/1214Z TN15/1306Z"
    },
    {
      "icao": "GCTS",
      "alert": "OK",
      "vis_m": 9999,
      "fzfg": false,
      "metar_trigger": false,
      "taf_trigger": false,
      "metar": "METAR GCTS 120930Z 10013G23KT 060V120 9999 SCT035 20/13 Q1023 NOSIG",
      "taf": "TAF GCTS 120800Z 1209/1309 05007KT 9999 SCT040 TX23/1214Z TN15/1306Z"
    },
    {
      "icao": "GMAD",
      "alert": "OK",
      "vis_m": 8000,
      "fzfg": false,
      "metar_trigger": false,
      "taf_trigger": false,
      "metar": "METAR GMAD 120930Z 00000KT 8000 FEW016 18/12 Q1016 NOSIG",
      "taf": "TAF GMAD 120500Z 1206/1312 07004KT 8000 SCT020"
    },
    {
      "icao": "GMMN",
      "alert": "OK",
      "vis_m": 9999,
      "fzfg": false,
      "metar_trigger": false,
      "taf_trigger": false,
      "metar": "METAR GMMN 120930Z 32011KT 290V350 9999 BKN020 14/11 Q1020 NOSIG",
      "taf": "TAF GMMN 120500Z 1206/1312 26008KT 9999 BKN008"
    },
    {
      "icao": "GMMX",
      "alert": "OK",
      "vis_m": 3000,
      "fzfg": false,
      "metar_trigger": false,
      "taf_trigger": false,
      "metar": "METAR GMMX 120930Z 03007KT 360V060 3000 -DZ SCT006 BKN016 12/11 Q1019 NOSIG",
      "taf": "TAF GMMX 120500Z 1206/1312 24006KT 8000 SCT026"
    },
    {
      "icao": "HEGN",
      "alert": "OK",
      "vis_m": 9999,
      "fzfg": false,
      "metar_trigger": false,
      "taf_trigger": false,
      "metar": "METAR HEGN 120900Z 35014KT CAVOK 27/M00 Q1017 NOSIG",
      "taf": "TAF HEGN 120500Z 1206/1312 34015KT CAVOK"
    },
    {
      "icao": "HEMA",
      "alert": "OK",
      "vis_m": 9999,
      "fzfg": false,
      "metar_trigger": false,
      "taf_trigger": false,
      "metar": "METAR HEMA 120900Z 36019KT CAVOK 25/10 Q1016 NOSIG",
      "taf": "TAF HEMA 120500Z 1206/1312 36015KT CAVOK"
    },
    {
      "icao": "HESH",
      "alert": "OK",
      "vis_m": 9999,
      "fzfg": false,
      "metar_trigger": false,
      "taf_trigger": false,
      "metar": "METAR HESH 120900Z 04006KT CAVOK 26/10 Q1017 NOSIG",
      "taf": "TAF HESH 120500Z 1206/1312 02012KT CAVOK"
    },
    {
      "icao": "HESX",
      "alert": "OK",
      "vis_m": 9999,
      "fzfg": false,
      "metar_trigger": false,
      "taf_trigger": false,
      "metar": "METAR HESX 120900Z 31005KT CAVOK 23/05 Q1018 NOSIG",
      "taf": "TAF HESX 120500Z 1206/1312 32008KT CAVOK"
    },
    {
      "icao": "LATI",
      "alert": "OK",
      "vis_m": 9999,
      "fzfg": false,
      "metar_trigger": false,
      "taf_trigger": false,
      "metar": "METAR LATI 120950Z VRB02KT CAVOK 23/02 Q1016 NOSIG",
      "taf": "TAF LATI 120500Z 1206/1306 VRB03KT CAVOK TX24/1213Z TN10/1303Z"
    },
    {
      "icao": "LBPD",
      "alert": "OK",
      "vis_m": 9999,
      "fzfg": false,
      "metar_trigger": false,
      "taf_trigger": false,
      "metar": "METAR LBPD 120930Z AUTO 29004KT 210V020 9999 NCD 14/M02 Q1020 NOSIG",
      "taf": "TAF LBPD 120500Z 1206/1306 VRB04KT 9999 BKN060"
    },
    {
      "icao": "LBSF",
      "alert": "OK",
      "vis_m": 9999,
      "fzfg": false,
      "metar_trigger": false,
      "taf_trigger": false,
      "metar": "METAR LBSF 120930Z 25005KT 200V290 CAVOK 12/00 Q1019 NOSIG",
      "taf": "TAF LBSF 120500Z 1206/1306 VRB04KT 9999 BKN050"
    },
    {
      "icao": "LBWN",
      "alert": "OK",
      "vis_m": 9999,
      "fzfg": false,
      "metar_trigger": false,
      "taf_trigger": false,
      "metar": "METAR LBWN 120930Z 12009KT 090V150 9999 SCT031 11/04 Q1021 NOSIG",
      "taf": "TAF LBWN 120500Z 1206/1306 VRB03KT 9999 SCT020 BKN040"
    },
    {
      "icao": "LCLK",
      "alert": "OK",
      "vis_m": 9999,
      "fzfg": false,
      "metar_trigger": false,
      "taf_trigger": false,
      "metar": "METAR LCLK 120930Z 19013KT 9999 FEW025 SCT060 23/10 Q1014 NOSIG",
      "taf": "TAF LCLK 120530Z 1206/1306 26006KT 9999 FEW030"
    },
    {
      "icao": "LCPH",
      "alert": "OK",
      "vis_m": 9999,
      "fzfg": false,
      "metar_trigger": false,
      "taf_trigger": false,
      "metar": "METAR LCPH 120930Z 31015KT 250V320 9999 FEW030 20/11 Q1015 NOSIG",
      "taf": "TAF LCPH 120530Z 1206/1306 31015KT 9999 SCT025"
    },
    {
      "icao": "LEAL",
      "alert": "OK",
      "vis_m": 9999,
      "fzfg": false,
      "metar_trigger": false,
      "taf_trigger": false,
      "metar": "METAR LEAL 120930Z 03011G22KT 360V080 9999 -RA FEW010 SCT034 19/12 Q1008 NOSIG",
      "taf": "TAF LEAL 120500Z 1206/1306 01012KT CAVOK TX19/1213Z TN12/1206Z"
    },
    {
      "icao": "LEBB",
      "alert": "OK",
      "vis_m": 9999,
      "fzfg": false,
      "metar_trigger": false,
      "taf_trigger": false,
      "metar": "METAR LEBB 120930Z 29003KT 230V340 9999 FEW020 SCT039 BKN055 12/05 Q1018 NOSIG",
      "taf": "TAF LEBB 120500Z 1206/1306 31009KT 9999 BKN040 TX14/1214Z TN08/1300Z"
    },
    {
      "icao": "LEBL",
      "alert": "OK",
      "vis_m": 9999,
      "fzfg": false,
      "metar_trigger": false,
      "taf_trigger": false,
      "metar": "METAR LEBL 120930Z 35005KT 260V030 CAVOK 16/09 Q1010 NOSIG",
      "taf": "TAF LEBL 120500Z 1206/1306 VRB04KT CAVOK TX18/1212Z TN11/1206Z"
    },
    {
      "icao": "LECH",
      "alert": "OK",
      "vis_m": 9999,
      "fzfg": false,
      "metar_trigger": false,
      "taf_trigger": false,
      "metar": "METAR LECH 120930Z AUTO 26002KT CAVOK 14/09 Q1010",
      "taf": ""
    },
    {
      "icao": "LEMD",
      "alert": "OK",
      "vis_m": 9999,
      "fzfg": false,
      "metar_trigger": false,
      "taf_trigger": false,
      "metar": "METAR LEMD 120930Z 04004KT 350V090 9999 BKN040 SCT060 13/09 Q1012 NOSIG",
      "taf": ""
    },
    {
      "icao": "LEMG",
      "alert": "OK",
      "vis_m": 9999,
      "fzfg": false,
      "metar_trigger": false,
      "taf_trigger": false,
      "metar": "METAR LEMG 120930Z 29014KT 250V320 9999 FEW040 18/12 Q1010 NOSIG",
      "taf": "TAF LEMG 120500Z 1206/1306 30012KT 9999 FEW040 TX21/1214Z TN15/1206Z"
    },
    {
      "icao": "LEVC",
      "alert": "OK",
      "vis_m": 9999,
      "fzfg": false,
      "metar_trigger": false,
      "taf_trigger": false,
      "metar": "METAR LEVC 120930Z 32009KT 9999 SCT050 17/12 Q1010 NOSIG",
      "taf": "TAF LEVC 120500Z 1206/1306 36008KT CAVOK TX17/1213Z TN11/1206Z"
    },
    {
      "icao": "LEXJ",
      "alert": "OK",
      "vis_m": 9999,
      "fzfg": false,
      "metar_trigger": false,
      "taf_trigger": false,
      "metar": "METAR LEXJ 120930Z 09002KT 9999 FEW035 BKN048 11/03 Q1019",
      "taf": "TAF LEXJ 120800Z 1209/1309 29009KT 9999 SCT030 BKN040 TX15/1214Z TN08/1306Z"
    },
    {
      "icao": "LEZG",
      "alert": "OK",
      "vis_m": 9000,
      "fzfg": false,
      "metar_trigger": false,
      "taf_trigger": false,
      "metar": "METAR LEZG 120930Z 30015KT 9000 -RA FEW020 BKN065 09/07 Q1015 NOSIG",
      "taf": "TAF LEZG 120500Z 1206/1306 31020KT CAVOK TX12/1213Z TN07/1206Z"
    },
    {
      "icao": "LEZL",
      "alert": "OK",
      "vis_m": 9999,
      "fzfg": false,
      "metar_trigger": false,
      "taf_trigger": false,
      "metar": "METAR LEZL 120930Z 30008KT 270V330 CAVOK 16/08 Q1013 NOSIG",
      "taf": "TAF LEZL 120800Z 1209/1309 31010KT CAVOK TX21/1215Z TN09/1306Z"
    },
    {
      "icao": "LFBD",
      "alert": "OK",
      "vis_m": 9999,
      "fzfg": false,
      "metar_trigger": false,
      "taf_trigger": false,
      "metar": "METAR LFBD 120930Z AUTO 23003KT 9999 BKN008 BKN039 OVC084 10/08 Q1018 BECMG NSC",
      "taf": ""
    },
    {
      "icao": "LFLL",
      "alert": "OK",
      "vis_m": 9999,
      "fzfg": false,
      "metar_trigger": false,
      "taf_trigger": false,
      "metar": "METAR LFLL 120930Z 30011KT 9999 -RA BKN006 OVC013 08/07 Q1016 NOSIG",
      "taf": ""
    },
    {
      "icao": "LFLS",
      "alert": "OK",
      "vis_m": 9999,
      "fzfg": false,
      "metar_trigger": false,
      "taf_trigger": false,
      "metar": "METAR LFLS 120930Z AUTO 33006KT 9999 -RA OVC009/// ///TCU 08/07 Q1015 TEMPO 4000 RA BKN007",
      "taf": "TAF LFLS 120800Z 1209/1309 33008KT 9999 OVC018"
    },
    {
      "icao": "LFMN",
      "alert": "OK",
      "vis_m": 9999,
      "fzfg": false,
      "metar_trigger": false,
      "taf_trigger": false,
      "metar": "METAR LFMN 120930Z VRB02KT CAVOK 18/12 Q1011 NOSIG",
      "taf": "TAF LFMN 120800Z 1209/1315 09010KT CAVOK"
    },
    {
      "icao": "LFOB",
      "alert": "OK",
      "vis_m": 9999,
      "fzfg": false,
      "metar_trigger": false,
      "taf_trigger": false,
      "metar": "METAR LFOB 120930Z AUTO 22012KT CAVOK 11/06 Q1016 NOSIG",
      "taf": "TAF LFOB 120500Z 1206/1306 20010KT CAVOK"
    },
    {
      "icao": "LFPO",
      "alert": "OK",
      "vis_m": 9999,
      "fzfg": false,
      "metar_trigger": false,
      "taf_trigger": false,
      "metar": "METAR LFPO 120930Z 20006KT 170V230 CAVOK 10/05 Q1017 NOSIG",
      "taf": "TAF LFPO 120500Z 1206/1312 20004KT CAVOK"
    },
    {
      "icao": "LFSB",
      "alert": "OK",
      "vis_m": 9999,
      "fzfg": false,
      "metar_trigger": false,
      "taf_trigger": false,
      "metar": "METAR LFSB 120930Z AUTO 34010KT 9999 -RA FEW012 BKN068 OVC078 07/05 Q1016 TEMPO BKN008",
      "taf": "TAF LFSB 120500Z 1206/1306 32007KT 9999 OVC020"
    },
    {
      "icao": "LGAV",
      "alert": "OK",
      "vis_m": 9999,
      "fzfg": false,
      "metar_trigger": false,
      "taf_trigger": false,
      "metar": "METAR LGAV 120950Z 07007KT 030V090 9999 SCT030 17/10 Q1019 NOSIG",
      "taf": "TAF LGAV 120500Z 1206/1306 VRB05KT 9999 BKN025"
    },
    {
      "icao": "LGTS",
      "alert": "OK",
      "vis_m": 9999,
      "fzfg": false,
      "metar_trigger": false,
      "taf_trigger": false,
      "metar": "METAR LGTS 120950Z 27006KT 9999 SCT025 16/10 Q1019 NOSIG",
      "taf": "TAF LGTS 120500Z 1206/1306 13010KT 9999 FEW010 BKN025"
    },
    {
      "icao": "LHBP",
      "alert": "OK",
      "vis_m": 9999,
      "fzfg": false,
      "metar_trigger": false,
      "taf_trigger": false,
      "metar": "METAR LHBP 120930Z 13006KT 080V170 CAVOK 12/M02 Q1020 NOSIG",
      "taf": "TAF LHBP 120515Z 1206/1306 10006KT CAVOK"
    },
    {
      "icao": "LHDC",
      "alert": "OK",
      "vis_m": 9999,
      "fzfg": false,
      "metar_trigger": false,
      "taf_trigger": false,
      "metar": "METAR LHDC 120915Z AUTO VRB03KT CAVOK 13/M03 Q1021 NOSIG",
      "taf": "TAF LHDC 120815Z 1209/1218 VRB04KT CAVOK"
    },
    {
      "icao": "LIBD",
      "alert": "OK",
      "vis_m": 9999,
      "fzfg": false,
      "metar_trigger": false,
      "taf_trigger": false,
      "metar": "METAR LIBD 120950Z 14009KT CAVOK 19/12 Q1015",
      "taf": "TAF LIBD 120500Z 1206/1306 VRB05KT 9999 FEW040"
    },
    {
      "icao": "LIBG",
      "alert": "OK",
      "vis_m": 9999,
      "fzfg": false,
      "metar_trigger": false,
      "taf_trigger": false,
      "metar": "METAR LIBG 120850Z 17006KT 9999 BKN015 17/17 Q1016",
      "taf": ""
    },
    {
      "icao": "LIBP",
      "alert": "OK",
      "vis_m": 9999,
      "fzfg": false,
      "metar_trigger": false,
      "taf_trigger": false,
      "metar": "METAR LIBP 120950Z AUTO VRB02KT 9999 BKN010/// 16/14 Q1015",
      "taf": "TAF LIBP 120500Z 1206/1306 VRB05KT 6000 BKN020"
    },
    {
      "icao": "LIBR",
      "alert": "OK",
      "vis_m": 9999,
      "fzfg": false,
      "metar_trigger": false,
      "taf_trigger": false,
      "metar": "METAR LIBR 120950Z 20011KT 9999 FEW015 18/14 Q1016",
      "taf": ""
    },
    {
      "icao": "LICA",
      "alert": "OK",
      "vis_m": 9999,
      "fzfg": false,
      "metar_trigger": false,
      "taf_trigger": false,
      "metar": "METAR LICA 120950Z AUTO 08020KT 9999 NCD 19/12 Q1014",
      "taf": "TAF LICA 120500Z 1206/1306 08018KT CAVOK"
    },
    {
      "icao": "LICC",
      "alert": "OK",
      "vis_m": 9999,
      "fzfg": false,
      "metar_trigger": false,
      "taf_trigger": false,
      "metar": "METAR LICC 120950Z 06019KT 9999 FEW020 SCT060 19/14 Q1014",
      "taf": "TAF LICC 120500Z 1206/1306 VRB05KT CAVOK"
    },
    {
      "icao": "LICJ",
      "alert": "OK",
      "vis_m": 9999,
      "fzfg": false,
      "metar_trigger": false,
      "taf_trigger": false,
      "metar": "METAR LICJ 120950Z 25003KT CAVOK 21/07 Q1008",
      "taf": "TAF LICJ 120500Z 1206/1306 VRB05KT CAVOK"
    },
    {
      "icao": "LIMC",
      "alert": "OK",
      "vis_m": 9999,
      "fzfg": false,
      "metar_trigger": false,
      "taf_trigger": false,
      "metar": "METAR LIMC 120950Z 07004KT 030V120 9999 FEW040 SCT070 16/09 Q1015 NOSIG",
      "taf": "TAF LIMC 120500Z 1206/1312 VRB05KT 9999 FEW040"
    },
    {
      "icao": "LIME",
      "alert": "OK",
      "vis_m": 9999,
      "fzfg": false,
      "metar_trigger": false,
      "taf_trigger": false,
      "metar": "METAR LIME 120950Z 19003KT 140V220 CAVOK 15/09 Q1015 NOSIG",
      "taf": "TAF LIME 120500Z 1206/1306 VRB04KT 9999 FEW040"
    },
    {
      "icao": "LIMF",
      "alert": "OK",
      "vis_m": 8000,
      "fzfg": false,
      "metar_trigger": false,
      "taf_trigger": false,
      "metar": "METAR LIMF 120950Z 02004KT 8000 BKN025 OVC040 15/10 Q1015",
      "taf": "TAF LIMF 120500Z 1206/1306 VRB04KT 9999 SCT045"
    },
    {
      "icao": "LIMJ",
      "alert": "OK",
      "vis_m": 9999,
      "fzfg": false,
      "metar_trigger": false,
      "taf_trigger": false,
      "metar": "METAR LIMJ 120950Z 25005KT CAVOK 18/13 Q1012",
      "taf": "TAF LIMJ 120500Z 1206/1306 VRB05KT 9999 FEW025"
    },
    {
      "icao": "LIPE",
      "alert": "OK",
      "vis_m": 7000,
      "fzfg": false,
      "metar_trigger": false,
      "taf_trigger": false,
      "metar": "METAR LIPE 120950Z 09003KT 050V130 7000 SCT012 BKN020 15/13 Q1014",
      "taf": "TAF LIPE 120500Z 1206/1306 VRB05KT 2000 BR BKN010"
    },
    {
      "icao": "LIPH",
      "alert": "OK",
      "vis_m": 9999,
      "fzfg": false,
      "metar_trigger": false,
      "taf_trigger": false,
      "metar": "METAR LIPH 120950Z 09005KT 050V130 9999 FEW050 18/06 Q1015",
      "taf": "TAF LIPH 120500Z 1206/1306 VRB05KT CAVOK"
    },
    {
      "icao": "LIPQ",
      "alert": "OK",
      "vis_m": 9999,
      "fzfg": false,
      "metar_trigger": false,
      "taf_trigger": false,
      "metar": "METAR LIPQ 120950Z AUTO 20004KT 150V250 9999 NCD 20/05 Q1015",
      "taf": "TAF LIPQ 120500Z 1206/1306 VRB05KT 9999 FEW060"
    },
    {
      "icao": "LIPR",
      "alert": "OK",
      "vis_m": 9999,
      "fzfg": false,
      "metar_trigger": false,
      "taf_trigger": false,
      "metar": "METAR LIPR 120950Z 17004KT 110V230 9999 BKN015 16/13 Q1014",
      "taf": "TAF LIPR 120500Z 1206/1306 VRB05KT 2000 BR BKN010"
    },
    {
      "icao": "LIPX",
      "alert": "OK",
      "vis_m": 9999,
      "fzfg": false,
      "metar_trigger": false,
      "taf_trigger": false,
      "metar": "METAR LIPX 120950Z 10007KT 070V140 9999 BKN060 17/04 Q1015",
      "taf": "TAF LIPX 120500Z 1206/1306 VRB05KT CAVOK"
    },
    {
      "icao": "LIPY",
      "alert": "OK",
      "vis_m": 9999,
      "fzfg": false,
      "metar_trigger": false,
      "taf_trigger": false,
      "metar": "METAR LIPY 120950Z AUTO 15007KT 120V190 9999 SCT019/// 18/13 Q1014",
      "taf": "TAF LIPY 120500Z 1206/1306 VRB05KT 2000 BR BKN010"
    },
    {
      "icao": "LIPZ",
      "alert": "OK",
      "vis_m": 9999,
      "fzfg": false,
      "metar_trigger": false,
      "taf_trigger": false,
      "metar": "METAR LIPZ 120950Z 11005KT 080V140 CAVOK 18/07 Q1015 NOSIG",
      "taf": "TAF LIPZ 120500Z 1206/1312 VRB05KT CAVOK"
    },
    {
      "icao": "LIRF",
      "alert": "OK",
      "vis_m": 9999,
      "fzfg": false,
      "metar_trigger": false,
      "taf_trigger": false,
      "metar": "METAR LIRF 120950Z 10006KT 070V150 CAVOK 20/12 Q1012 NOSIG",
      "taf": "TAF LIRF 120500Z 1206/1312 10006KT CAVOK"
    },
    {
      "icao": "LIRN",
      "alert": "OK",
      "vis_m": 9999,
      "fzfg": false,
      "metar_trigger": false,
      "taf_trigger": false,
      "metar": "METAR LIRN 120950Z 02004KT 280V090 CAVOK 20/09 Q1013 NOSIG",
      "taf": "TAF LIRN 120500Z 1206/1306 VRB05KT CAVOK"
    },
    {
      "icao": "LIRP",
      "alert": "OK",
      "vis_m": 8000,
      "fzfg": false,
      "metar_trigger": false,
      "taf_trigger": false,
      "metar": "METAR LIRP 120915Z 10004KT 8000 NSC 16/13 Q1011 NOSIG",
      "taf": "TAF LIRP 120500Z 1206/1306 12005KT 9999 FEW010"
    },
    {
      "icao": "LIRZ",
      "alert": "OK",
      "vis_m": 9999,
      "fzfg": false,
      "metar_trigger": false,
      "taf_trigger": false,
      "metar": "METAR LIRZ 120950Z AUTO VRB02KT 9999 NCD 17/13 Q1013",
      "taf": "TAF LIRZ 120500Z 1206/1306 VRB05KT CAVOK"
    },
    {
      "icao": "LJLJ",
      "alert": "OK",
      "vis_m": 9999,
      "fzfg": false,
      "metar_trigger": false,
      "taf_trigger": false,
      "metar": "METAR LJLJ 120930Z 07003KT 350V120 CAVOK 14/05 Q1016 NOSIG",
      "taf": "TAF LJLJ 120500Z 1206/1306 VRB02KT CAVOK"
    },
    {
      "icao": "LKMT",
      "alert": "OK",
      "vis_m": 9999,
      "fzfg": false,
      "metar_trigger": false,
      "taf_trigger": false,
      "metar": "METAR LKMT 120930Z VRB02KT CAVOK 10/M01 Q1019 NOSIG",
      "taf": "TAF LKMT 120500Z 1206/1306 VRB02KT CAVOK"
    },
    {
      "icao": "LKPR",
      "alert": "OK",
      "vis_m": 9999,
      "fzfg": false,
      "metar_trigger": false,
      "taf_trigger": false,
      "metar": "METAR LKPR 120930Z 12003KT CAVOK 08/M01 Q1016 NOSIG",
      "taf": "TAF LKPR 120800Z 1209/1315 08006KT CAVOK"
    },
    {
      "icao": "LLBG",
      "alert": "OK",
      "vis_m": 9999,
      "fzfg": false,
      "metar_trigger": false,
      "taf_trigger": false,
      "metar": "METAR LLBG 120950Z 26009KT 9999 SCT035 21/10 Q1017 NOSIG",
      "taf": "TAF LLBG 120502Z 1206/1306 VRB03KT 9999 SCT025 TX20/1209Z TN11/1303Z"
    },
    {
      "icao": "LMML",
      "alert": "OK",
      "vis_m": 9999,
      "fzfg": false,
      "metar_trigger": false,
      "taf_trigger": false,
      "metar": "METAR LMML 120945Z 10023G33KT CAVOK 21/13 Q1010 NOSIG",
      "taf": "TAF LMML 120500Z 1206/1306 13008KT CAVOK"
    },
    {
      "icao": "LOWW",
      "alert": "OK",
      "vis_m": 9999,
      "fzfg": false,
      "metar_trigger": false,
      "taf_trigger": false,
      "metar": "METAR LOWW 120950Z 12011KT 090V150 CAVOK 11/02 Q1017 NOSIG",
      "taf": "TAF LOWW 120815Z 1209/1315 14013KT 9999 FEW040 TX18/1314Z TN08/1305Z"
    },
    {
      "icao": "LPFR",
      "alert": "OK",
      "vis_m": 9999,
      "fzfg": false,
      "metar_trigger": false,
      "taf_trigger": false,
      "metar": "METAR LPFR 120930Z 33022KT CAVOK 16/04 Q1016",
      "taf": "TAF LPFR 120500Z 1206/1306 31012KT CAVOK"
    },
    {
      "icao": "LPMA",
      "alert": "OK",
      "vis_m": 9999,
      "fzfg": false,
      "metar_trigger": false,
      "taf_trigger": false,
      "metar": "METAR LPMA 120930Z 01014G24KT 310V030 9999 SCT015 SCT030 15/05 Q1027",
      "taf": "TAF LPMA 120500Z 1206/1306 01015KT 9999 SCT015 SCT030"
    },
    {
      "icao": "LPPR",
      "alert": "OK",
      "vis_m": 9999,
      "fzfg": false,
      "metar_trigger": false,
      "taf_trigger": false,
      "metar": "METAR LPPR 120930Z 03007KT 350V060 9999 FEW025 SCT032 12/06 Q1021",
      "taf": "TAF LPPR 120500Z 1206/1306 36008KT 9999 FEW025"
    },
    {
      "icao": "LPPS",
      "alert": "OK",
      "vis_m": 9999,
      "fzfg": false,
      "metar_trigger": false,
      "taf_trigger": false,
      "metar": "METAR LPPS 120930Z 02016KT 9999 FEW015 BKN030 15/06 Q1027",
      "taf": "TAF LPPS 120500Z 1206/1312 02015KT 9999 SCT015 SCT030"
    },
    {
      "icao": "LPPT",
      "alert": "OK",
      "vis_m": 9999,
      "fzfg": false,
      "metar_trigger": false,
      "taf_trigger": false,
      "metar": "METAR LPPT 120930Z 35020G32KT 9999 SCT034 14/05 Q1020 WS R02",
      "taf": "TAF LPPT 120500Z 1206/1312 34018KT 9999 FEW025"
    },
    {
      "icao": "LQBK",
      "alert": "OK",
      "vis_m": 9999,
      "fzfg": false,
      "metar_trigger": false,
      "taf_trigger": false,
      "metar": "METAR LQBK 120930Z 35007KT 320V040 CAVOK 16/05 Q1017 NOSIG",
      "taf": "TAF LQBK 120500Z 1206/1306 03005KT CAVOK TX20/1214Z TN06/1304Z"
    },
    {
      "icao": "LQSA",
      "alert": "OK",
      "vis_m": 9999,
      "fzfg": false,
      "metar_trigger": false,
      "taf_trigger": false,
      "metar": "METAR LQSA 120930Z VRB03KT CAVOK 17/04 Q1016 NOSIG",
      "taf": "TAF LQSA 120500Z 1206/1306 VRB02KT CAVOK TX24/1214Z TN06/1304Z"
    },
    {
      "icao": "LQTZ",
      "alert": "OK",
      "vis_m": 9999,
      "fzfg": false,
      "metar_trigger": false,
      "taf_trigger": false,
      "metar": "METAR LQTZ 120930Z 13007KT 080V150 CAVOK 16/06 Q1017",
      "taf": "TAF LQTZ 120500Z 1206/1306 06006KT CAVOK TX21/1214Z TN07/1304Z"
    },
    {
      "icao": "LRBC",
      "alert": "OK",
      "vis_m": 9999,
      "fzfg": false,
      "metar_trigger": false,
      "taf_trigger": false,
      "metar": "METAR LRBC 120930Z VRB03KT 9999 FEW034 09/01 Q1021",
      "taf": "TAF LRBC 120800Z 1209/1218 35005KT 9999 SCT040"
    },
    {
      "icao": "LRBS",
      "alert": "OK",
      "vis_m": 9999,
      "fzfg": false,
      "metar_trigger": false,
      "taf_trigger": false,
      "metar": "METAR LRBS 120930Z COR 08005KT 040V100 9999 FEW030 SCT036 13/03 Q1021 NOSIG",
      "taf": "TAF LRBS 120500Z 1206/1306 VRB04KT 5000 BR NSC"
    },
    {
      "icao": "LRBV",
      "alert": "OK",
      "vis_m": 9999,
      "fzfg": false,
      "metar_trigger": false,
      "taf_trigger": false,
      "metar": "METAR LRBV 120930Z 30007KT 260V340 9999 SCT064 SCT075 10/M06 Q1020",
      "taf": "TAF LRBV 120800Z 1209/1218 VRB04KT CAVOK"
    },
    {
      "icao": "LRCL",
      "alert": "OK",
      "vis_m": 9999,
      "fzfg": false,
      "metar_trigger": false,
      "taf_trigger": false,
      "metar": "METAR LRCL 120930Z COR 27005KT 220V350 9999 SCT068 12/M04 Q1020",
      "taf": "TAF LRCL 120800Z 1209/1218 VRB04KT CAVOK"
    },
    {
      "icao": "LRCV",
      "alert": "OK",
      "vis_m": 9999,
      "fzfg": false,
      "metar_trigger": false,
      "taf_trigger": false,
      "metar": "METAR LRCV 120930Z VRB03KT 9999 FEW025 SCT034 13/04 Q1020",
      "taf": "TAF LRCV 120800Z 1209/1218 09006KT CAVOK"
    },
    {
      "icao": "LRIA",
      "alert": "OK",
      "vis_m": 9999,
      "fzfg": false,
      "metar_trigger": false,
      "taf_trigger": false,
      "metar": "METAR LRIA 120930Z 32005KT 280V360 9999 -RA FEW031 BKN038 09/01 Q1022",
      "taf": "TAF LRIA 120800Z 1209/1218 VRB04KT 9999 BKN035"
    },
    {
      "icao": "LROP",
      "alert": "OK",
      "vis_m": 9999,
      "fzfg": false,
      "metar_trigger": false,
      "taf_trigger": false,
      "metar": "METAR LROP 120930Z COR 06004KT 360V130 9999 FEW030TCU BKN035 13/01 Q1021 NOSIG",
      "taf": "TAF LROP 120500Z 1206/1306 VRB04KT 5000 BR NSC"
    },
    {
      "icao": "LRSB",
      "alert": "OK",
      "vis_m": 9999,
      "fzfg": false,
      "metar_trigger": false,
      "taf_trigger": false,
      "metar": "METAR LRSB 120930Z 22005KT 190V250 CAVOK 11/M05 Q1019",
      "taf": "TAF LRSB 120500Z 1206/1306 VRB04KT CAVOK"
    },
    {
      "icao": "LRSM",
      "alert": "OK",
      "vis_m": 9999,
      "fzfg": false,
      "metar_trigger": false,
      "taf_trigger": false,
      "metar": "METAR LRSM 120930Z AUTO VRB04KT 9999 NCD 12/M04 Q1021",
      "taf": ""
    },
    {
      "icao": "LRSV",
      "alert": "OK",
      "vis_m": 9999,
      "fzfg": false,
      "metar_trigger": false,
      "taf_trigger": false,
      "metar": "METAR LRSV 120930Z VRB03KT 9999 SCT040 09/M01 Q1020",
      "taf": "TAF LRSV 120800Z 1209/1218 VRB04KT 9999 SCT040"
    },
    {
      "icao": "LRTM",
      "alert": "OK",
      "vis_m": 9999,
      "fzfg": false,
      "metar_trigger": false,
      "taf_trigger": false,
      "metar": "METAR LRTM 120930Z VRB05KT 9999 FEW038 11/M03 Q1020",
      "taf": "TAF LRTM 120800Z 1209/1218 VRB04KT CAVOK"
    },
    {
      "icao": "LRTR",
      "alert": "OK",
      "vis_m": 9999,
      "fzfg": false,
      "metar_trigger": false,
      "taf_trigger": false,
      "metar": "METAR LRTR 120930Z 11006KT 060V150 CAVOK 14/M05 Q1020 NOSIG",
      "taf": "TAF LRTR 120500Z 1206/1306 08008KT CAVOK"
    },
    {
      "icao": "LTAC",
      "alert": "OK",
      "vis_m": 9999,
      "fzfg": false,
      "metar_trigger": false,
      "taf_trigger": false,
      "metar": "METAR LTAC 120950Z 28005KT 220V320 9999 BKN033 07/M01 Q1016 NOSIG",
      "taf": "TAF LTAC 120440Z 1206/1306 VRB02KT 9999 SCT040"
    },
    {
      "icao": "LTFM",
      "alert": "OK",
      "vis_m": 9999,
      "fzfg": false,
      "metar_trigger": false,
      "taf_trigger": false,
      "metar": "METAR LTFM 120950Z 07009KT 030V100 9999 FEW035 BKN090 11/02 Q1021 NOSIG",
      "taf": "TAF LTFM 120440Z 1206/1312 VRB02KT 9999 SCT035 BKN100"
    },
    {
      "icao": "LUKK",
      "alert": "OK",
      "vis_m": 9999,
      "fzfg": false,
      "metar_trigger": false,
      "taf_trigger": false,
      "metar": "METAR LUKK 120930Z VRB03KT 9999 FEW033 SCT048 09/02 Q1021 NOSIG",
      "taf": "TAF LUKK 120504Z 1206/1306 VRB06KT 9999 BKN030"
    },
    {
      "icao": "LWOH",
      "alert": "OK",
      "vis_m": 9999,
      "fzfg": false,
      "metar_trigger": false,
      "taf_trigger": false,
      "metar": "METAR LWOH 120950Z 15006KT 120V180 9999 FEW045 14/07 Q1018",
      "taf": "TAF LWOH 120830Z 1209/1309 16008KT CAVOK"
    },
    {
      "icao": "LWSK",
      "alert": "OK",
      "vis_m": 9999,
      "fzfg": false,
      "metar_trigger": false,
      "taf_trigger": false,
      "metar": "METAR LWSK 120950Z VRB03KT 9999 BKN080 16/08 Q1019 NOSIG",
      "taf": "TAF LWSK 120830Z 1209/1309 VRB02KT 9999 SCT090"
    },
    {
      "icao": "LYBE",
      "alert": "OK",
      "vis_m": 9999,
      "fzfg": false,
      "metar_trigger": false,
      "taf_trigger": false,
      "metar": "METAR LYBE 120930Z 11008KT 050V140 CAVOK 14/01 Q1019 NOSIG",
      "taf": "TAF LYBE 120500Z 1206/1306 08008KT CAVOK TX18/1213Z TN06/1206Z"
    },
    {
      "icao": "LYNI",
      "alert": "OK",
      "vis_m": 9999,
      "fzfg": false,
      "metar_trigger": false,
      "taf_trigger": false,
      "metar": "METAR LYNI 120930Z VRB02KT 9999 BKN090 14/04 Q1019 NOSIG",
      "taf": "TAF LYNI 120500Z 1206/1306 07005KT 9999 SCT045 SCT090 TX18/1213Z TN07/1304Z"
    },
    {
      "icao": "LYPG",
      "alert": "OK",
      "vis_m": 9999,
      "fzfg": false,
      "metar_trigger": false,
      "taf_trigger": false,
      "metar": "METAR LYPG 120930Z VRB02KT CAVOK 21/05 Q1016 NOSIG",
      "taf": "TAF LYPG 120500Z 1206/1306 19007KT CAVOK TX24/1213Z TN10/1303Z"
    },
    {
      "icao": "LZIB",
      "alert": "OK",
      "vis_m": 9999,
      "fzfg": false,
      "metar_trigger": false,
      "taf_trigger": false,
      "metar": "METAR LZIB 120930Z 08009KT 9999 BKN049 10/00 Q1019 BECMG 14012KT",
      "taf": "TAF LZIB 120515Z 1206/1306 04007KT 9999 SCT040 BKN047"
    },
    {
      "icao": "LZKZ",
      "alert": "OK",
      "vis_m": 9999,
      "fzfg": false,
      "metar_trigger": false,
      "taf_trigger": false,
      "metar": "METAR LZKZ 120930Z VRB02KT CAVOK 11/M03 Q1020 NOSIG",
      "taf": "TAF LZKZ 120515Z 1206/1306 VRB02KT CAVOK"
    },
    {
      "icao": "LZTT",
      "alert": "OK",
      "vis_m": 9999,
      "fzfg": false,
      "metar_trigger": false,
      "taf_trigger": false,
      "metar": "METAR LZTT 120930Z VRB03KT CAVOK 08/M05 Q1019 NOSIG",
      "taf": "TAF LZTT 120515Z 1206/1306 07008KT CAVOK"
    },
    {
      "icao": "OEJN",
      "alert": "OK",
      "vis_m": 9999,
      "fzfg": false,
      "metar_trigger": false,
      "taf_trigger": false,
      "metar": "METAR OEJN 120900Z 33010KT CAVOK 30/07 Q1013 NOSIG",
      "taf": "TAF OEJN 120500Z 1206/1312 34014KT CAVOK"
    },
    {
      "icao": "OEMA",
      "alert": "OK",
      "vis_m": 9999,
      "fzfg": false,
      "metar_trigger": false,
      "taf_trigger": false,
      "metar": "METAR OEMA 120900Z 13007KT CAVOK 28/M06 Q1016 NOSIG",
      "taf": "TAF OEMA 120500Z 1206/1312 10006KT CAVOK"
    },
    {
      "icao": "OJAI",
      "alert": "OK",
      "vis_m": null,
      "fzfg": false,
      "metar_trigger": false,
      "taf_trigger": false,
      "metar": "",
      "taf": "TAF OJAI 120500Z 1206/1312 29010KT 5000 HZ FEW030"
    },
    {
      "icao": "OMAA",
      "alert": "OK",
      "vis_m": null,
      "fzfg": false,
      "metar_trigger": false,
      "taf_trigger": false,
      "metar": "",
      "taf": ""
    },
    {
      "icao": "OMDB",
      "alert": "OK",
      "vis_m": null,
      "fzfg": false,
      "metar_trigger": false,
      "taf_trigger": false,
      "metar": "",
      "taf": ""
    },
    {
      "icao": "UAAA",
      "alert": "OK",
      "vis_m": 9999,
      "fzfg": false,
      "metar_trigger": false,
      "taf_trigger": false,
      "metar": "METAR UAAA 120930Z 01003MPS 320V060 9999 FEW050CB 20/04 Q1021 NOSIG",
      "taf": "TAF UAAA 120501Z 1206/1306 35003MPS 9999 FEW100 TX21/1208Z TN05/1301Z"
    },
    {
      "icao": "UBBB",
      "alert": "OK",
      "vis_m": 9999,
      "fzfg": false,
      "metar_trigger": false,
      "taf_trigger": false,
      "metar": "METAR UBBB 120930Z 33018KT 9999 SCT012 13/09 Q1015 NOSIG",
      "taf": "TAF UBBB 120506Z 1206/1306 35016KT 9999 SCT012 SCT040 TX13/1208Z TN08/1300Z"
    },
    {
      "icao": "UDSG",
      "alert": "OK",
      "vis_m": 9999,
      "fzfg": false,
      "metar_trigger": false,
      "taf_trigger": false,
      "metar": "METAR UDSG 120930Z 30006KT 9999 -SHRA SCT023CB OVC033 06/02 Q1012 NOSIG",
      "taf": "TAF UDSG 120458Z 1206/1306 36006KT 9999 BKN030"
    },
    {
      "icao": "UDYZ",
      "alert": "OK",
      "vis_m": 9999,
      "fzfg": false,
      "metar_trigger": false,
      "taf_trigger": false,
      "metar": "METAR UDYZ 120930Z 20006KT 9999 SCT040CB 14/05 Q1010 NOSIG",
      "taf": "TAF UDYZ 120500Z 1206/1306 20006KT 9999 BKN040"
    },
    {
      "icao": "UGKO",
      "alert": "OK",
      "vis_m": 9999,
      "fzfg": false,
      "metar_trigger": false,
      "taf_trigger": false,
      "metar": "METAR UGKO 120930Z 25004KT 9999 SCT026 BKN050 12/05 Q1017 NOSIG",
      "taf": "TAF UGKO 120500Z 1206/1306 26007KT 9999 SCT020 BKN045 TX12/1211Z TN06/1303Z"
    }
  ]
}