{
  "ts_utc": "2025-12-30T21:35:43Z",
  "threshold_m": 150,
  "source": "stations_override.txt (ICAO list) + aviationweather.gov (METAR/TAF raw)",
  "station_count": 159,
  "stations": [
    {
      "icao": "BIKF",
      "alert": "OK",
      "vis_m": 9000,
      "fzfg": false,
      "metar_trigger": false,
      "taf_trigger": false,
      "metar": "METAR BIKF 302130Z 26017KT 9000 -RA BKN011 05/05 Q1032",
      "taf": "TAF BIKF 301940Z 3021/3121 27007KT 9999 SCT017 BKN020 TX06/3021Z TNM01/3121Z"
    },
    {
      "icao": "BKPR",
      "alert": "OK",
      "vis_m": 9999,
      "fzfg": false,
      "metar_trigger": false,
      "taf_trigger": false,
      "metar": "METAR BKPR 302130Z 35006KT 9999 FEW075 M03/M08 Q1015 NOSIG",
      "taf": "TAF BKPR 301730Z 3018/3118 01009KT 9999 SCT050"
    },
    {
      "icao": "EBCI",
      "alert": "OK",
      "vis_m": 9999,
      "fzfg": false,
      "metar_trigger": false,
      "taf_trigger": false,
      "metar": "METAR EBCI 302120Z 32003KT CAVOK 00/M03 Q1030 NOSIG",
      "taf": "TAF EBCI 301718Z 3018/3124 30005KT 9999 SCT030"
    },
    {
      "icao": "EDDB",
      "alert": "OK",
      "vis_m": 9999,
      "fzfg": false,
      "metar_trigger": false,
      "taf_trigger": false,
      "metar": "METAR EDDB 302120Z AUTO 30009KT CAVOK M02/M04 Q1022 NOSIG",
      "taf": "TAF EDDB 301700Z 3018/3118 31011KT CAVOK"
    },
    {
      "icao": "EDDH",
      "alert": "OK",
      "vis_m": 9999,
      "fzfg": false,
      "metar_trigger": false,
      "taf_trigger": false,
      "metar": "METAR EDDH 302120Z AUTO 31003KT 260V340 CAVOK M03/M05 Q1025 NOSIG",
      "taf": "TAF EDDH 301700Z 3018/3124 27004KT 9999 BKN030"
    },
    {
      "icao": "EDDK",
      "alert": "OK",
      "vis_m": 9999,
      "fzfg": false,
      "metar_trigger": false,
      "taf_trigger": false,
      "metar": "METAR EDDK 302120Z AUTO 07002KT CAVOK M03/M04 Q1029 NOSIG",
      "taf": ""
    },
    {
      "icao": "EDDN",
      "alert": "OK",
      "vis_m": 9999,
      "fzfg": false,
      "metar_trigger": false,
      "taf_trigger": false,
      "metar": "METAR EDDN 302120Z AUTO 00000KT CAVOK M08/M09 Q1026",
      "taf": "TAF EDDN 301700Z 3018/3118 32005KT CAVOK"
    },
    {
      "icao": "EDDS",
      "alert": "OK",
      "vis_m": 9999,
      "fzfg": false,
      "metar_trigger": false,
      "taf_trigger": false,
      "metar": "METAR EDDS 302120Z AUTO 29002KT CAVOK M05/M08 Q1026",
      "taf": "TAF EDDS 301700Z 3018/3118 30004KT CAVOK"
    },
    {
      "icao": "EDFH",
      "alert": "OK",
      "vis_m": 9999,
      "fzfg": false,
      "metar_trigger": false,
      "taf_trigger": false,
      "metar": "METAR EDFH 302120Z COR VRB01KT CAVOK M05/M06 Q1027",
      "taf": "TAF EDFH 301700Z 3018/3118 01003KT CAVOK"
    },
    {
      "icao": "EDJA",
      "alert": "OK",
      "vis_m": 9999,
      "fzfg": false,
      "metar_trigger": false,
      "taf_trigger": false,
      "metar": "METAR EDJA 302120Z 17004KT CAVOK M07/M08 Q1025",
      "taf": "TAF EDJA 301700Z 3018/3103 VRB03KT 9999 SCT040"
    },
    {
      "icao": "EDLW",
      "alert": "OK",
      "vis_m": 9999,
      "fzfg": false,
      "metar_trigger": false,
      "taf_trigger": false,
      "metar": "METAR EDLW 302120Z COR 22007KT 9999 R24///// M02/M04 Q1028",
      "taf": "TAF EDLW 301700Z 3018/3118 24005KT CAVOK"
    },
    {
      "icao": "EDNY",
      "alert": "OK",
      "vis_m": 9999,
      "fzfg": false,
      "metar_trigger": false,
      "taf_trigger": false,
      "metar": "METAR EDNY 302120Z AUTO 04005KT 9999 // NCD M03/M05 Q1026",
      "taf": "TAF EDNY 301400Z 3015/3024 04004KT 9999 OVC040"
    },
    {
      "icao": "EDSB",
      "alert": "OK",
      "vis_m": 9999,
      "fzfg": false,
      "metar_trigger": false,
      "taf_trigger": false,
      "metar": "METAR EDSB 302120Z 07003KT CAVOK M03/M05 Q1029",
      "taf": "TAF EDSB 301700Z 3018/3118 05004KT 9999 SCT040"
    },
    {
      "icao": "EETN",
      "alert": "OK",
      "vis_m": 9999,
      "fzfg": false,
      "metar_trigger": false,
      "taf_trigger": false,
      "metar": "METAR EETN 302120Z 01013G24KT 340V040 9999 FEW028 M05/M11 Q1005 NOSIG",
      "taf": "TAF EETN 301730Z 3018/3118 01015G25KT 9999 DRSN BKN025"
    },
    {
      "icao": "EFTU",
      "alert": "OK",
      "vis_m": 9999,
      "fzfg": false,
      "metar_trigger": false,
      "taf_trigger": false,
      "metar": "METAR EFTU 302120Z AUTO 34003KT 310V050 CAVOK M09/M13 Q1009",
      "taf": "TAF EFTU 302025Z 3021/3121 35004KT CAVOK"
    },
    {
      "icao": "EGBB",
      "alert": "OK",
      "vis_m": 9999,
      "fzfg": false,
      "metar_trigger": false,
      "taf_trigger": false,
      "metar": "METAR EGBB 302120Z 34004KT 9999 BKN040 02/M00 Q1035",
      "taf": "TAF EGBB 301702Z 3018/3118 02005KT 9999 FEW020 SCT040"
    },
    {
      "icao": "EGGP",
      "alert": "OK",
      "vis_m": 9999,
      "fzfg": false,
      "metar_trigger": false,
      "taf_trigger": false,
      "metar": "METAR EGGP 302120Z 01004KT 9999 SCT035 03/M00 Q1036",
      "taf": "TAF EGGP 301654Z 3018/3118 01005KT 9999 SCT035"
    },
    {
      "icao": "EGGW",
      "alert": "OK",
      "vis_m": 9999,
      "fzfg": false,
      "metar_trigger": false,
      "taf_trigger": false,
      "metar": "METAR EGGW 302120Z AUTO 35005KT 9999 NCD 01/00 Q1034",
      "taf": "TAF EGGW 301704Z 3018/3118 01006KT 9999 FEW040"
    },
    {
      "icao": "EGKK",
      "alert": "OK",
      "vis_m": 9999,
      "fzfg": false,
      "metar_trigger": false,
      "taf_trigger": false,
      "metar": "METAR EGKK 302120Z 36004KT CAVOK 02/01 Q1034",
      "taf": "TAF EGKK 301659Z 3018/3124 01006KT 9999 FEW040"
    },
    {
      "icao": "EGNM",
      "alert": "OK",
      "vis_m": 9999,
      "fzfg": false,
      "metar_trigger": false,
      "taf_trigger": false,
      "metar": "METAR EGNM 302120Z 33008KT 9999 FEW036 01/M01 Q1035",
      "taf": "TAF EGNM 301655Z 3018/3118 35006KT 9999 SCT035"
    },
    {
      "icao": "EGPD",
      "alert": "OK",
      "vis_m": 9999,
      "fzfg": false,
      "metar_trigger": false,
      "taf_trigger": false,
      "metar": "METAR EGPD 302120Z COR 28009KT 9999 BKN031 03/M01 Q1034 NOSIG",
      "taf": "TAF EGPD 301654Z 3018/3118 28008KT 9999 SCT030"
    },
    {
      "icao": "EGPF",
      "alert": "OK",
      "vis_m": 9999,
      "fzfg": false,
      "metar_trigger": false,
      "taf_trigger": false,
      "metar": "METAR EGPF 302120Z AUTO VRB01KT 9999 NCD M04/M05 Q1037",
      "taf": "TAF EGPF 301657Z 3018/3118 VRB02KT 9999 FEW040"
    },
    {
      "icao": "EHBK",
      "alert": "OK",
      "vis_m": 9999,
      "fzfg": false,
      "metar_trigger": false,
      "taf_trigger": false,
      "metar": "METAR EHBK 302125Z AUTO VRB01KT 9999 NCD M02/M03 Q1029 NOSIG",
      "taf": "TAF EHBK 301702Z 3018/3124 34004KT 9999 BKN045"
    },
    {
      "icao": "EHEH",
      "alert": "OK",
      "vis_m": 9999,
      "fzfg": false,
      "metar_trigger": false,
      "taf_trigger": false,
      "metar": "METAR EHEH 302125Z AUTO 28003KT 240V310 9999 NCD M01/M03 Q1030 BLU NOSIG RMK TREND REMOTE BY EHWX",
      "taf": "TAF EHEH 301747Z 3018/3124 31003KT CAVOK"
    },
    {
      "icao": "EKBI",
      "alert": "OK",
      "vis_m": 9999,
      "fzfg": false,
      "metar_trigger": false,
      "taf_trigger": false,
      "metar": "METAR EKBI 302120Z AUTO 26002KT 9999 BKN094/// M05/M07 Q1023",
      "taf": "TAF EKBI 302027Z 3021/3121 VRB02KT CAVOK"
    },
    {
      "icao": "EKCH",
      "alert": "OK",
      "vis_m": 9999,
      "fzfg": false,
      "metar_trigger": false,
      "taf_trigger": false,
      "metar": "METAR EKCH 302120Z AUTO 27005KT 230V310 9999 NCD M03/M07 Q1021 NOSIG",
      "taf": "TAF EKCH 302027Z 3021/3121 28005KT CAVOK"
    },
    {
      "icao": "ENAL",
      "alert": "OK",
      "vis_m": 9999,
      "fzfg": false,
      "metar_trigger": false,
      "taf_trigger": false,
      "metar": "METAR ENAL 302120Z 32008KT 290V350 9999 FEW015 SCT022 BKN033 05/02 Q1018",
      "taf": "TAF ENAL 302000Z 3021/3106 31012KT 9999 FEW015 BKN030"
    },
    {
      "icao": "ENBR",
      "alert": "OK",
      "vis_m": 9999,
      "fzfg": false,
      "metar_trigger": false,
      "taf_trigger": false,
      "metar": "METAR ENBR 302120Z 10003KT 360V160 9999 -SHRASN FEW004 FEW010CB BKN015 01/01 Q1020 RMK WIND 1200FT 33019KT",
      "taf": "TAF ENBR 301700Z 3018/3118 14008KT 9999 -SHSN SCT010 BKN020"
    },
    {
      "icao": "ENGM",
      "alert": "OK",
      "vis_m": 9999,
      "fzfg": false,
      "metar_trigger": false,
      "taf_trigger": false,
      "metar": "METAR ENGM 302120Z 25003KT 220V280 CAVOK M03/M09 Q1015 NOSIG",
      "taf": "TAF ENGM 301700Z 3018/3118 VRB03KT CAVOK"
    },
    {
      "icao": "ENHD",
      "alert": "OK",
      "vis_m": 9999,
      "fzfg": false,
      "metar_trigger": false,
      "taf_trigger": false,
      "metar": "METAR ENHD 302120Z AUTO 33020G30KT 9999 SCT018/// SCT031/// BKN041/// 06/04 Q1021 RERA REDZ",
      "taf": "TAF ENHD 301400Z 3015/3023 VRB05KT 9999 FEW015 BKN030"
    },
    {
      "icao": "ENTC",
      "alert": "OK",
      "vis_m": 1500,
      "fzfg": false,
      "metar_trigger": false,
      "taf_trigger": false,
      "metar": "METAR ENTC 302120Z VRB02KT 1500 -SN VV015 M06/M07 Q1011 TEMPO 9999 BKN025 RMK WIND 2600FT 01009KT",
      "taf": "TAF ENTC 301700Z 3018/3118 01008KT 9999 -SHSN FEW008 SCT030 BKN035"
    },
    {
      "icao": "ENTO",
      "alert": "OK",
      "vis_m": 9999,
      "fzfg": false,
      "metar_trigger": false,
      "taf_trigger": false,
      "metar": "METAR ENTO 302120Z 24007KT 9999 SCT027 00/M08 Q1017 NOSIG",
      "taf": "TAF ENTO 301700Z 3018/3118 28005KT CAVOK"
    },
    {
      "icao": "ENVA",
      "alert": "OK",
      "vis_m": 1300,
      "fzfg": false,
      "metar_trigger": false,
      "taf_trigger": false,
      "metar": "METAR ENVA 302120Z 21003KT 170V320 1300 R09/P2000N R27/P2000N -SN VV008 00/M00 Q1011 RMK WIND 670FT 21011KT",
      "taf": ""
    },
    {
      "icao": "ENZV",
      "alert": "OK",
      "vis_m": 9999,
      "fzfg": false,
      "metar_trigger": false,
      "taf_trigger": false,
      "metar": "METAR ENZV 302120Z 05003KT 9999 -RA FEW016 SCT030 BKN040 02/01 Q1022",
      "taf": "TAF ENZV 301700Z 3018/3118 35005KT 9999 FEW015 BKN030"
    },
    {
      "icao": "EPGD",
      "alert": "OK",
      "vis_m": 3500,
      "fzfg": false,
      "metar_trigger": false,
      "taf_trigger": false,
      "metar": "METAR EPGD 302130Z 32020KT 3500 1000W SHSN FEW007 FEW010CB BKN030 M02/M04 Q1011 RESHSN",
      "taf": "TAF EPGD 301730Z 3018/3118 33018KT 8000 -SHSN SCT020CB BKN025"
    },
    {
      "icao": "EPKK",
      "alert": "OK",
      "vis_m": 9999,
      "fzfg": false,
      "metar_trigger": false,
      "taf_trigger": false,
      "metar": "METAR EPKK 302130Z 26016KT 9999 BKN023 M03/M07 Q1013",
      "taf": "TAF EPKK 302030Z 3021/3121 27012KT 9999 BKN020"
    },
    {
      "icao": "EPKT",
      "alert": "OK",
      "vis_m": 9999,
      "fzfg": false,
      "metar_trigger": false,
      "taf_trigger": false,
      "metar": "METAR EPKT 302130Z 28011KT 9999 FEW019 M05/M07 Q1014",
      "taf": "TAF EPKT 301730Z 3018/3118 28013KT 9999 FEW005 SCT020"
    },
    {
      "icao": "EPLB",
      "alert": "OK",
      "vis_m": 9999,
      "fzfg": false,
      "metar_trigger": false,
      "taf_trigger": false,
      "metar": "METAR EPLB 302130Z 30013KT 9999 -SHSN DRSN SCT011 BKN015CB BKN034 M03/M04 Q1005",
      "taf": "TAF EPLB 301730Z 3018/3118 29018KT 8000 BKN020"
    },
    {
      "icao": "EPMO",
      "alert": "OK",
      "vis_m": 800,
      "fzfg": false,
      "metar_trigger": false,
      "taf_trigger": false,
      "metar": "METAR EPMO 302130Z 31010KT 0800 R08/0800U SHSN DRSN BKN007 BKN018CB M02/M02 Q1008 RESHSN",
      "taf": ""
    },
    {
      "icao": "EPPO",
      "alert": "OK",
      "vis_m": 9999,
      "fzfg": false,
      "metar_trigger": false,
      "taf_trigger": false,
      "metar": "METAR EPPO 302130Z 29010KT CAVOK M03/M07 Q1016",
      "taf": "TAF EPPO 301730Z 3018/3118 30012KT 9999 FEW040"
    },
    {
      "icao": "EPRA",
      "alert": "OK",
      "vis_m": 5000,
      "fzfg": false,
      "metar_trigger": false,
      "taf_trigger": false,
      "metar": "METAR EPRA 302130Z 30013KT 270V330 5000 -SN BLSN OVC016 M04/M05 Q1008 RESN",
      "taf": "TAF EPRA 302030Z 3021/3106 30014KT 8000 -SN BKN025"
    },
    {
      "icao": "EPRZ",
      "alert": "OK",
      "vis_m": 9999,
      "fzfg": false,
      "metar_trigger": false,
      "taf_trigger": false,
      "metar": "METAR EPRZ 302130Z 28016KT 9999 -SHSN FEW018CB BKN028 M03/M06 Q1008",
      "taf": "TAF EPRZ 301730Z 3018/3118 27013KT 9999 BKN030"
    },
    {
      "icao": "EPSC",
      "alert": "OK",
      "vis_m": 9999,
      "fzfg": false,
      "metar_trigger": false,
      "taf_trigger": false,
      "metar": "METAR EPSC 302130Z 29007KT CAVOK M04/M09 Q1018",
      "taf": "TAF EPSC 301730Z 3018/3118 30010KT 9999 SCT040"
    },
    {
      "icao": "EPSY",
      "alert": "OK",
      "vis_m": 9999,
      "fzfg": false,
      "metar_trigger": false,
      "taf_trigger": false,
      "metar": "METAR EPSY 302130Z 32009KT 280V350 9999 FEW007 SCT040 M03/M03 Q1006",
      "taf": "TAF EPSY 302030Z 3021/3106 31010KT 9999 BKN040"
    },
    {
      "icao": "EPWA",
      "alert": "OK",
      "vis_m": 900,
      "fzfg": false,
      "metar_trigger": false,
      "taf_trigger": false,
      "metar": "METAR EPWA 302130Z 30014KT 0900 0800SE R33/1000N +SHSN BLSN SCT005 BKN010CB M02/M03 Q1008 TEMPO 0500",
      "taf": "TAF EPWA 302030Z 3021/3121 29015KT 4500 -SHSN BKN012 BKN015CB"
    },
    {
      "icao": "EPWR",
      "alert": "OK",
      "vis_m": 9999,
      "fzfg": false,
      "metar_trigger": false,
      "taf_trigger": false,
      "metar": "METAR EPWR 302130Z 29015KT CAVOK M03/M06 Q1018",
      "taf": "TAF EPWR 302030Z 3021/3121 30014KT CAVOK"
    },
    {
      "icao": "ESGG",
      "alert": "OK",
      "vis_m": 9999,
      "fzfg": false,
      "metar_trigger": false,
      "taf_trigger": false,
      "metar": "METAR ESGG 302120Z 25003KT 9999 OVC098 M02/M07 Q1017",
      "taf": "TAF ESGG 302030Z 3021/3121 VRB03KT CAVOK"
    },
    {
      "icao": "ESKN",
      "alert": "OK",
      "vis_m": 9999,
      "fzfg": false,
      "metar_trigger": false,
      "taf_trigger": false,
      "metar": "METAR ESKN 302120Z 29008KT CAVOK M05/M08 Q1014",
      "taf": "TAF ESKN 302030Z 3021/3121 30006KT CAVOK"
    },
    {
      "icao": "ESMS",
      "alert": "OK",
      "vis_m": 9999,
      "fzfg": false,
      "metar_trigger": false,
      "taf_trigger": false,
      "metar": "METAR ESMS 302120Z 29005KT CAVOK M05/M09 Q1019",
      "taf": "TAF ESMS 302027Z 3021/3121 30006KT CAVOK"
    },
    {
      "icao": "ESSA",
      "alert": "OK",
      "vis_m": 9999,
      "fzfg": false,
      "metar_trigger": false,
      "taf_trigger": false,
      "metar": "METAR ESSA 302120Z 29006KT CAVOK M08/M11 Q1013 NOSIG",
      "taf": "TAF ESSA 302030Z 3021/3121 29008KT CAVOK"
    },
    {
      "icao": "EYKA",
      "alert": "OK",
      "vis_m": 3000,
      "fzfg": false,
      "metar_trigger": false,
      "taf_trigger": false,
      "metar": "METAR EYKA 302120Z 31006KT 260V010 3000 SN BR BKN009 BKN015 OVC022 M04/M05 Q1001",
      "taf": "TAF EYKA 301707Z 3018/3118 33010KT 9000 BKN020"
    },
    {
      "icao": "EYPA",
      "alert": "OK",
      "vis_m": 9999,
      "fzfg": false,
      "metar_trigger": false,
      "taf_trigger": false,
      "metar": "METAR EYPA 302120Z 01011KT 310V030 9999 -SHSN FEW020 SCT044CB M02/M05 Q1007",
      "taf": ""
    },
    {
      "icao": "EYVI",
      "alert": "OK",
      "vis_m": 2300,
      "fzfg": false,
      "metar_trigger": false,
      "taf_trigger": false,
      "metar": "METAR EYVI 302120Z 32011KT 2300 SN SCT009 OVC037 M05/M07 Q0998 NOSIG",
      "taf": ""
    },
    {
      "icao": "GCFV",
      "alert": "OK",
      "vis_m": 9999,
      "fzfg": false,
      "metar_trigger": false,
      "taf_trigger": false,
      "metar": "METAR GCFV 302100Z 28005KT 9999 FEW025 16/12 Q1022",
      "taf": "TAF GCFV 302000Z 3021/3121 30005KT 9999 FEW025 TX21/3114Z TN14/3106Z"
    },
    {
      "icao": "GCLP",
      "alert": "OK",
      "vis_m": 9999,
      "fzfg": false,
      "metar_trigger": false,
      "taf_trigger": false,
      "metar": "METAR GCLP 302100Z 21002KT 9999 SCT027 18/14 Q1022 NOSIG",
      "taf": "TAF GCLP 302000Z 3021/3121 29003KT 9999 SCT030 TX22/3114Z TN15/3106Z"
    },
    {
      "icao": "GCTS",
      "alert": "OK",
      "vis_m": 9999,
      "fzfg": false,
      "metar_trigger": false,
      "taf_trigger": false,
      "metar": "METAR GCTS 302100Z VRB02KT 9999 FEW025 18/14 Q1022 NOSIG",
      "taf": "TAF GCTS 302000Z 3021/3121 30005KT 9999 FEW025 TX24/3114Z TN16/3106Z"
    },
    {
      "icao": "GMAD",
      "alert": "OK",
      "vis_m": 9999,
      "fzfg": false,
      "metar_trigger": false,
      "taf_trigger": false,
      "metar": "METAR GMAD 302130Z 13005KT CAVOK 12/12 Q1022 NOSIG",
      "taf": "TAF GMAD 301700Z 3018/3124 20008KT 8000 FEW020"
    },
    {
      "icao": "GMMN",
      "alert": "OK",
      "vis_m": 9999,
      "fzfg": false,
      "metar_trigger": false,
      "taf_trigger": false,
      "metar": "METAR GMMN 302130Z 16005KT 9999 BKN030 11/09 Q1021 NOSIG",
      "taf": "TAF GMMN 301700Z 3018/3124 22006KT 9999 BKN030"
    },
    {
      "icao": "GMMX",
      "alert": "OK",
      "vis_m": 9999,
      "fzfg": false,
      "metar_trigger": false,
      "taf_trigger": false,
      "metar": "METAR GMMX 302130Z 16006KT 9999 BKN080 13/10 Q1021 NOSIG",
      "taf": "TAF GMMX 301700Z 3018/3124 20005KT 8000 BKN090"
    },
    {
      "icao": "HEGN",
      "alert": "OK",
      "vis_m": 9999,
      "fzfg": false,
      "metar_trigger": false,
      "taf_trigger": false,
      "metar": "METAR HEGN 302100Z 00000KT CAVOK 15/08 Q1019 NOSIG",
      "taf": "TAF HEGN 301700Z 3018/3124 05010KT CAVOK"
    },
    {
      "icao": "HEMA",
      "alert": "OK",
      "vis_m": 9999,
      "fzfg": false,
      "metar_trigger": false,
      "taf_trigger": false,
      "metar": "METAR HEMA 302100Z 26006KT CAVOK 16/10 Q1018 NOSIG",
      "taf": "TAF HEMA 301700Z 3018/3124 09010KT CAVOK"
    },
    {
      "icao": "HESH",
      "alert": "OK",
      "vis_m": 9999,
      "fzfg": false,
      "metar_trigger": false,
      "taf_trigger": false,
      "metar": "METAR HESH 302100Z 23003KT CAVOK 17/09 Q1019 NOSIG",
      "taf": "TAF HESH 301700Z 3018/3124 05010KT CAVOK"
    },
    {
      "icao": "HESX",
      "alert": "OK",
      "vis_m": 9999,
      "fzfg": false,
      "metar_trigger": false,
      "taf_trigger": false,
      "metar": "METAR HESX 302100Z 18006KT CAVOK 15/07 Q1017 NOSIG",
      "taf": ""
    },
    {
      "icao": "LATI",
      "alert": "OK",
      "vis_m": 9999,
      "fzfg": false,
      "metar_trigger": false,
      "taf_trigger": false,
      "metar": "METAR LATI 302120Z 36004KT 310V070 9999 FEW032 BKN064 OVC076 07/M01 Q1010 NOSIG",
      "taf": ""
    },
    {
      "icao": "LBPD",
      "alert": "OK",
      "vis_m": 9999,
      "fzfg": false,
      "metar_trigger": false,
      "taf_trigger": false,
      "metar": "METAR LBPD 302130Z AUTO 28016KT 9999 OVC067/// 03/M05 Q1012",
      "taf": "TAF LBPD 301700Z 3018/3118 28016KT 9999 SCT050"
    },
    {
      "icao": "LBSF",
      "alert": "OK",
      "vis_m": 9999,
      "fzfg": false,
      "metar_trigger": false,
      "taf_trigger": false,
      "metar": "METAR LBSF 302130Z AUTO 28013KT 9999 FEW058/// M02/M07 Q1013 NOSIG",
      "taf": "TAF LBSF 301700Z 3018/3118 28012KT 9999 SCT050"
    },
    {
      "icao": "LBWN",
      "alert": "OK",
      "vis_m": 9999,
      "fzfg": false,
      "metar_trigger": false,
      "taf_trigger": false,
      "metar": "METAR LBWN 302130Z AUTO 31009KT 9999 OVC027/// 02/M03 Q1010 TEMPO 5000 -SN OVC018",
      "taf": "TAF LBWN 301700Z 3018/3118 29012KT 9999 SCT020 BKN045"
    },
    {
      "icao": "LCLK",
      "alert": "OK",
      "vis_m": 9999,
      "fzfg": false,
      "metar_trigger": false,
      "taf_trigger": false,
      "metar": "METAR LCLK 302100Z 24004KT 180V300 9999 FEW030 SCT040 14/11 Q1014 NOSIG",
      "taf": "TAF LCLK 301730Z 3018/3118 28006KT 9999 FEW025 SCT045"
    },
    {
      "icao": "LCPH",
      "alert": "OK",
      "vis_m": 9999,
      "fzfg": false,
      "metar_trigger": false,
      "taf_trigger": false,
      "metar": "METAR LCPH 302100Z 17008KT 150V230 9999 FEW025 SCT040 BKN060 16/12 Q1013 NOSIG",
      "taf": "TAF LCPH 301730Z 3018/3118 21009KT 9999 FEW025 SCT040"
    },
    {
      "icao": "LEAL",
      "alert": "OK",
      "vis_m": 9999,
      "fzfg": false,
      "metar_trigger": false,
      "taf_trigger": false,
      "metar": "METAR LEAL 302100Z 26008KT CAVOK 13/06 Q1019 NOSIG",
      "taf": "TAF LEAL 301700Z 3018/3118 29008KT CAVOK TX16/3114Z TN07/3106Z"
    },
    {
      "icao": "LEBB",
      "alert": "OK",
      "vis_m": 9999,
      "fzfg": false,
      "metar_trigger": false,
      "taf_trigger": false,
      "metar": "METAR LEBB 302100Z 03006KT 360V070 9999 FEW020 BKN028 10/07 Q1023 NOSIG",
      "taf": "TAF LEBB 301700Z 3018/3118 VRB03KT 9999 SCT010 BKN020 TX10/3114Z TN07/3108Z"
    },
    {
      "icao": "LEBL",
      "alert": "OK",
      "vis_m": 9999,
      "fzfg": false,
      "metar_trigger": false,
      "taf_trigger": false,
      "metar": "METAR LEBL 302100Z 31008KT CAVOK 08/05 Q1017 NOSIG",
      "taf": ""
    },
    {
      "icao": "LECH",
      "alert": "OK",
      "vis_m": 9000,
      "fzfg": false,
      "metar_trigger": false,
      "taf_trigger": false,
      "metar": "METAR LECH 302100Z AUTO 35004KT 320V020 9000 NCD 08/03 Q1018",
      "taf": ""
    },
    {
      "icao": "LEMD",
      "alert": "OK",
      "vis_m": 9999,
      "fzfg": false,
      "metar_trigger": false,
      "taf_trigger": false,
      "metar": "METAR LEMD 302100Z VRB02KT CAVOK 05/01 Q1020 NOSIG",
      "taf": "TAF LEMD 301700Z 3018/3124 VRB03KT CAVOK TX08/3114Z TNM02/3106Z"
    },
    {
      "icao": "LEMG",
      "alert": "OK",
      "vis_m": 9999,
      "fzfg": false,
      "metar_trigger": false,
      "taf_trigger": false,
      "metar": "METAR LEMG 302100Z 27009KT CAVOK 13/07 Q1021 NOSIG",
      "taf": "TAF LEMG 301700Z 3018/3118 29007KT CAVOK TX18/3114Z TN08/3106Z"
    },
    {
      "icao": "LEVC",
      "alert": "OK",
      "vis_m": 9999,
      "fzfg": false,
      "metar_trigger": false,
      "taf_trigger": false,
      "metar": "METAR LEVC 302100Z 30003KT 260V330 CAVOK 08/07 Q1018 NOSIG",
      "taf": "TAF LEVC 301700Z 3018/3118 29006KT CAVOK TX15/3114Z TN05/3106Z"
    },
    {
      "icao": "LEXJ",
      "alert": "OK",
      "vis_m": 9999,
      "fzfg": false,
      "metar_trigger": false,
      "taf_trigger": false,
      "metar": "METAR LEXJ 302100Z 06006KT 360V120 9999 FEW014 BKN018 10/07 Q1023",
      "taf": "TAF LEXJ 302000Z 3021/3121 VRB03KT 9999 SCT015 BKN035 TX10/3115Z TN07/3108Z"
    },
    {
      "icao": "LEZG",
      "alert": "OK",
      "vis_m": 9999,
      "fzfg": false,
      "metar_trigger": false,
      "taf_trigger": false,
      "metar": "METAR LEZG 302100Z 28012KT 9999 FEW040 08/05 Q1019 NOSIG",
      "taf": "TAF LEZG 301700Z 3018/3118 29013KT 9999 FEW020 TX11/3114Z TN05/3106Z"
    },
    {
      "icao": "LEZL",
      "alert": "OK",
      "vis_m": 5000,
      "fzfg": false,
      "metar_trigger": false,
      "taf_trigger": false,
      "metar": "METAR LEZL 302100Z 00000KT 5000 R27/P2000 R09/0500N BCFG NSC 07/07 Q1021 NOSIG",
      "taf": "TAF LEZL 302000Z 3021/3121 05005KT CAVOK TX15/3115Z TN04/3106Z"
    },
    {
      "icao": "LFBD",
      "alert": "OK",
      "vis_m": 9999,
      "fzfg": false,
      "metar_trigger": false,
      "taf_trigger": false,
      "metar": "METAR LFBD 302130Z AUTO 05007KT CAVOK M00/M02 Q1024 TEMPO 3000 BR",
      "taf": "TAF LFBD 301700Z 3018/3124 VRB03KT CAVOK TX05/3114Z TNM03/3106Z"
    },
    {
      "icao": "LFLL",
      "alert": "OK",
      "vis_m": 9999,
      "fzfg": false,
      "metar_trigger": false,
      "taf_trigger": false,
      "metar": "METAR LFLL 302130Z 33005KT 310V010 CAVOK M02/M04 Q1023 NOSIG",
      "taf": "TAF LFLL 301700Z 3018/3124 36005KT 9999 BKN030"
    },
    {
      "icao": "LFLS",
      "alert": "OK",
      "vis_m": 9999,
      "fzfg": false,
      "metar_trigger": false,
      "taf_trigger": false,
      "metar": "METAR LFLS 302130Z AUTO 33008KT CAVOK M02/M04 Q1022",
      "taf": ""
    },
    {
      "icao": "LFMN",
      "alert": "OK",
      "vis_m": 9999,
      "fzfg": false,
      "metar_trigger": false,
      "taf_trigger": false,
      "metar": "METAR LFMN 302130Z 32011KT 9999 BKN038 08/02 Q1014 NOSIG",
      "taf": "TAF LFMN 302000Z 3021/0103 33010KT CAVOK"
    },
    {
      "icao": "LFOB",
      "alert": "OK",
      "vis_m": 9999,
      "fzfg": false,
      "metar_trigger": false,
      "taf_trigger": false,
      "metar": "METAR LFOB 302130Z AUTO 35007KT CAVOK M01/M03 Q1031",
      "taf": "TAF LFOB 301100Z 3012/3112 02008KT CAVOK"
    },
    {
      "icao": "LFPO",
      "alert": "OK",
      "vis_m": 9999,
      "fzfg": false,
      "metar_trigger": false,
      "taf_trigger": false,
      "metar": "METAR LFPO 302130Z AUTO 03009KT CAVOK 01/M02 Q1030",
      "taf": "TAF LFPO 301700Z 3018/3124 01005KT CAVOK"
    },
    {
      "icao": "LFSB",
      "alert": "OK",
      "vis_m": 5000,
      "fzfg": true,
      "metar_trigger": false,
      "taf_trigger": false,
      "metar": "METAR LFSB 302130Z AUTO 30003KT 250V310 5000 BR FEW005 M05/M05 Q1027 TEMPO 0500 FZFG VV///",
      "taf": "TAF LFSB 301700Z 3018/3118 33005KT 8000 BKN040"
    },
    {
      "icao": "LGAV",
      "alert": "OK",
      "vis_m": 9999,
      "fzfg": false,
      "metar_trigger": false,
      "taf_trigger": false,
      "metar": "METAR LGAV 302120Z VRB03KT 9999 FEW025 SCT060 11/07 Q1007 NOSIG",
      "taf": "TAF LGAV 301700Z 3018/3118 VRB05KT 9999 SCT025 BKN070"
    },
    {
      "icao": "LGTS",
      "alert": "OK",
      "vis_m": 9999,
      "fzfg": false,
      "metar_trigger": false,
      "taf_trigger": false,
      "metar": "METAR LGTS 302120Z 36015KT 9999 FEW025 07/M04 Q1010 NOSIG",
      "taf": "TAF LGTS 301700Z 3018/3118 34015G25KT CAVOK"
    },
    {
      "icao": "LHBP",
      "alert": "OK",
      "vis_m": 9999,
      "fzfg": false,
      "metar_trigger": false,
      "taf_trigger": false,
      "metar": "METAR LHBP 302130Z 31014KT 9999 FEW035 M02/M05 Q1016 NOSIG",
      "taf": ""
    },
    {
      "icao": "LHDC",
      "alert": "OK",
      "vis_m": 9999,
      "fzfg": false,
      "metar_trigger": false,
      "taf_trigger": false,
      "metar": "METAR LHDC 302115Z AUTO 27006KT CAVOK M05/M09 Q1014",
      "taf": "TAF LHDC 301415Z 3015/3024 36010KT CAVOK"
    },
    {
      "icao": "LIBD",
      "alert": "OK",
      "vis_m": 9999,
      "fzfg": false,
      "metar_trigger": false,
      "taf_trigger": false,
      "metar": "METAR LIBD 302120Z 01010KT 340V040 CAVOK 11/M00 Q1013",
      "taf": "TAF LIBD 301700Z 3018/3118 30007KT 9999 FEW050"
    },
    {
      "icao": "LIBG",
      "alert": "OK",
      "vis_m": null,
      "fzfg": false,
      "metar_trigger": false,
      "taf_trigger": false,
      "metar": "",
      "taf": "TAF LIBG 301700Z 3018/3103 33007KT CAVOK"
    },
    {
      "icao": "LIBP",
      "alert": "OK",
      "vis_m": 9999,
      "fzfg": false,
      "metar_trigger": false,
      "taf_trigger": false,
      "metar": "METAR LIBP 302120Z AUTO 04009KT 9999 OVC062/// 09/M01 Q1017",
      "taf": "TAF LIBP 301700Z 3018/3118 VRB05KT 9999 SCT045"
    },
    {
      "icao": "LIBR",
      "alert": "OK",
      "vis_m": 8000,
      "fzfg": false,
      "metar_trigger": false,
      "taf_trigger": false,
      "metar": "METAR LIBR 302120Z 03015KT 8000 -RA FEW015 BKN035 11/08 Q1010 RERA",
      "taf": "TAF LIBR 301700Z 3018/3118 32006KT 9999 FEW030"
    },
    {
      "icao": "LICA",
      "alert": "OK",
      "vis_m": 9999,
      "fzfg": false,
      "metar_trigger": false,
      "taf_trigger": false,
      "metar": "METAR LICA 302120Z AUTO VRB02KT 9999 -RA OVC064/// 08/06 Q1011",
      "taf": "TAF LICA 301700Z 3018/3118 VRB05KT 9999 SCT040"
    },
    {
      "icao": "LICC",
      "alert": "OK",
      "vis_m": 9999,
      "fzfg": false,
      "metar_trigger": false,
      "taf_trigger": false,
      "metar": "METAR LICC 302120Z 26008KT 9999 SCT060 12/08 Q1012",
      "taf": "TAF LICC 301700Z 3018/3118 26010KT 9999 FEW050"
    },
    {
      "icao": "LICJ",
      "alert": "OK",
      "vis_m": 9000,
      "fzfg": false,
      "metar_trigger": false,
      "taf_trigger": false,
      "metar": "METAR LICJ 302120Z 33018KT 9000 -RA SCT025 14/10 Q1013",
      "taf": "TAF LICJ 301700Z 3018/3118 VRB06KT 9999 SCT020"
    },
    {
      "icao": "LIMC",
      "alert": "OK",
      "vis_m": 9999,
      "fzfg": false,
      "metar_trigger": false,
      "taf_trigger": false,
      "metar": "METAR LIMC 302120Z 01006KT 9999 BKN030 04/02 Q1018 NOSIG",
      "taf": "TAF LIMC 301700Z 3018/3124 02010KT 9999 SCT040"
    },
    {
      "icao": "LIME",
      "alert": "OK",
      "vis_m": 9999,
      "fzfg": false,
      "metar_trigger": false,
      "taf_trigger": false,
      "metar": "METAR LIME 302120Z 02006KT 9999 SCT030 03/01 Q1018 NOSIG",
      "taf": "TAF LIME 301700Z 3018/3118 VRB05KT 9999 SCT040"
    },
    {
      "icao": "LIMF",
      "alert": "OK",
      "vis_m": 2500,
      "fzfg": false,
      "metar_trigger": false,
      "taf_trigger": false,
      "metar": "METAR LIMF 302120Z 32003KT 300V360 2500 BR SCT012 BKN020 05/02 Q1018",
      "taf": "TAF LIMF 301700Z 3018/3118 VRB05KT 1500 BR BKN003"
    },
    {
      "icao": "LIMJ",
      "alert": "OK",
      "vis_m": 9000,
      "fzfg": false,
      "metar_trigger": false,
      "taf_trigger": false,
      "metar": "METAR LIMJ 302120Z 03022KT 9000 NSC 06/02 Q1015",
      "taf": "TAF LIMJ 301700Z 3018/3118 02014KT 9999 FEW020"
    },
    {
      "icao": "LIPE",
      "alert": "OK",
      "vis_m": 4000,
      "fzfg": false,
      "metar_trigger": false,
      "taf_trigger": false,
      "metar": "METAR LIPE 302120Z VRB01KT 4000 BR BKN035 BKN050 04/03 Q1018",
      "taf": "TAF LIPE 301700Z 3018/3118 VRB04KT 3000 BR BKN010"
    },
    {
      "icao": "LIPH",
      "alert": "OK",
      "vis_m": 9999,
      "fzfg": false,
      "metar_trigger": false,
      "taf_trigger": false,
      "metar": "METAR LIPH 302120Z 36006KT 9999 SCT060 02/M03 Q1020",
      "taf": "TAF LIPH 301700Z 3018/3118 VRB04KT 9999 SCT045"
    },
    {
      "icao": "LIPQ",
      "alert": "OK",
      "vis_m": 9999,
      "fzfg": false,
      "metar_trigger": false,
      "taf_trigger": false,
      "metar": "METAR LIPQ 302120Z AUTO 32004KT 9999 BKN081/// M01/M05 Q1019",
      "taf": "TAF LIPQ 301700Z 3018/3118 09010KT 9999 SCT050"
    },
    {
      "icao": "LIPR",
      "alert": "OK",
      "vis_m": 3000,
      "fzfg": false,
      "metar_trigger": false,
      "taf_trigger": false,
      "metar": "METAR LIPR 302120Z 24004KT 3000 -RA BR BKN045 04/03 Q1018",
      "taf": "TAF LIPR 301700Z 3018/3118 29005KT 3000 BR BKN010"
    },
    {
      "icao": "LIPX",
      "alert": "OK",
      "vis_m": 9999,
      "fzfg": false,
      "metar_trigger": false,
      "taf_trigger": false,
      "metar": "METAR LIPX 302120Z 09005KT 9999 BKN040 05/M03 Q1019",
      "taf": "TAF LIPX 301700Z 3018/3118 07006KT 9999 SCT050"
    },
    {
      "icao": "LIPY",
      "alert": "OK",
      "vis_m": 3700,
      "fzfg": false,
      "metar_trigger": false,
      "taf_trigger": false,
      "metar": "METAR LIPY 302120Z AUTO 19003KT 3700 BR OVC053/// 06/05 Q1018",
      "taf": "TAF LIPY 301700Z 3018/3118 09010KT 9999 SCT045"
    },
    {
      "icao": "LIPZ",
      "alert": "OK",
      "vis_m": 9999,
      "fzfg": false,
      "metar_trigger": false,
      "taf_trigger": false,
      "metar": "METAR LIPZ 302120Z 02008KT 9999 SCT065 03/M02 Q1019 NOSIG",
      "taf": "TAF LIPZ 301700Z 3018/3124 08010KT 9999 SCT040"
    },
    {
      "icao": "LIRF",
      "alert": "OK",
      "vis_m": 9999,
      "fzfg": false,
      "metar_trigger": false,
      "taf_trigger": false,
      "metar": "METAR LIRF 302120Z 02004KT CAVOK 07/04 Q1013 NOSIG",
      "taf": "TAF LIRF 301700Z 3018/3124 34007KT CAVOK"
    },
    {
      "icao": "LIRN",
      "alert": "OK",
      "vis_m": 9999,
      "fzfg": false,
      "metar_trigger": false,
      "taf_trigger": false,
      "metar": "METAR LIRN 302120Z AUTO VRB09KT 9999 FEW065/// 08/02 Q1013",
      "taf": "TAF LIRN 301700Z 3018/3118 02005KT CAVOK"
    },
    {
      "icao": "LIRP",
      "alert": "OK",
      "vis_m": 9999,
      "fzfg": false,
      "metar_trigger": false,
      "taf_trigger": false,
      "metar": "METAR LIRP 302115Z 12011KT CAVOK 06/03 Q1013 NOSIG",
      "taf": "TAF LIRP 301700Z 3018/3118 12005KT 9999 FEW050"
    },
    {
      "icao": "LIRZ",
      "alert": "OK",
      "vis_m": 9999,
      "fzfg": false,
      "metar_trigger": false,
      "taf_trigger": false,
      "metar": "METAR LIRZ 302120Z AUTO 04014KT 9999 NCD 06/01 Q1015",
      "taf": "TAF LIRZ 301700Z 3018/3118 03010KT 9999 SCT050"
    },
    {
      "icao": "LJLJ",
      "alert": "OK",
      "vis_m": 9999,
      "fzfg": false,
      "metar_trigger": false,
      "taf_trigger": false,
      "metar": "METAR LJLJ 302100Z VRB01KT 9999 BKN045 BKN075 M02/M03 Q1020 NOSIG",
      "taf": "TAF LJLJ 301700Z 3018/3118 30002KT 9999 BKN033"
    },
    {
      "icao": "LKMT",
      "alert": "OK",
      "vis_m": 9999,
      "fzfg": false,
      "metar_trigger": false,
      "taf_trigger": false,
      "metar": "METAR LKMT 302130Z 31009KT CAVOK M03/M08 Q1017 NOSIG",
      "taf": "TAF LKMT 301700Z 3018/3118 31010KT 9999 SCT020"
    },
    {
      "icao": "LKPR",
      "alert": "OK",
      "vis_m": 9999,
      "fzfg": false,
      "metar_trigger": false,
      "taf_trigger": false,
      "metar": "METAR LKPR 302130Z 26011KT 9999 SCT026 BKN040 M03/M06 Q1021 NOSIG",
      "taf": "TAF LKPR 302000Z 3021/0103 29013KT 9999 SCT025"
    },
    {
      "icao": "LLBG",
      "alert": "OK",
      "vis_m": 9999,
      "fzfg": false,
      "metar_trigger": false,
      "taf_trigger": false,
      "metar": "METAR LLBG 302120Z 15007KT CAVOK 13/07 Q1017 NOSIG",
      "taf": "TAF LLBG 301706Z 3018/3118 15007KT CAVOK"
    },
    {
      "icao": "LMML",
      "alert": "OK",
      "vis_m": 9999,
      "fzfg": false,
      "metar_trigger": false,
      "taf_trigger": false,
      "metar": "METAR LMML 302115Z 28008KT 9999 FEW024TCU 13/10 Q1013 NOSIG",
      "taf": "TAF LMML 301700Z 3018/3118 30015KT 9999 FEW020"
    },
    {
      "icao": "LOWW",
      "alert": "OK",
      "vis_m": 9999,
      "fzfg": false,
      "metar_trigger": false,
      "taf_trigger": false,
      "metar": "METAR LOWW 302120Z 31017KT 9999 FEW050 M01/M08 Q1020 NOSIG",
      "taf": "TAF LOWW 302015Z 3021/0103 31015KT CAVOK TX02/0103Z TNM03/3106Z"
    },
    {
      "icao": "LPFR",
      "alert": "OK",
      "vis_m": 9999,
      "fzfg": false,
      "metar_trigger": false,
      "taf_trigger": false,
      "metar": "METAR LPFR 302100Z 03007KT CAVOK 11/10 Q1020",
      "taf": "TAF LPFR 301700Z 3018/3118 06007KT CAVOK"
    },
    {
      "icao": "LPMA",
      "alert": "OK",
      "vis_m": 9999,
      "fzfg": false,
      "metar_trigger": false,
      "taf_trigger": false,
      "metar": "METAR LPMA 302100Z 01004KT 9999 SCT013 19/15 Q1019",
      "taf": "TAF LPMA 301700Z 3018/3118 VRB05KT 9999 SCT015"
    },
    {
      "icao": "LPPR",
      "alert": "OK",
      "vis_m": 7000,
      "fzfg": false,
      "metar_trigger": false,
      "taf_trigger": false,
      "metar": "METAR LPPR 302100Z 00000KT 7000 NSC 06/06 Q1021",
      "taf": "TAF LPPR 301700Z 3018/3118 VRB02KT CAVOK"
    },
    {
      "icao": "LPPS",
      "alert": "OK",
      "vis_m": 9999,
      "fzfg": false,
      "metar_trigger": false,
      "taf_trigger": false,
      "metar": "METAR LPPS 302100Z 29005KT 9999 SCT010 18/17 Q1019",
      "taf": "TAF LPPS 301700Z 3018/3124 27007KT 9999 SCT012"
    },
    {
      "icao": "LPPT",
      "alert": "OK",
      "vis_m": 9999,
      "fzfg": false,
      "metar_trigger": false,
      "taf_trigger": false,
      "metar": "METAR LPPT 302100Z VRB02KT 9999 FEW008 08/07 Q1020",
      "taf": "TAF LPPT 301700Z 3018/3124 VRB02KT 9999 FEW008"
    },
    {
      "icao": "LQBK",
      "alert": "OK",
      "vis_m": 9999,
      "fzfg": false,
      "metar_trigger": false,
      "taf_trigger": false,
      "metar": "METAR LQBK 302130Z VRB02KT CAVOK M06/M07 Q1021 NOSIG",
      "taf": "TAF LQBK 301700Z 3018/3118 30007KT 9999 SCT040 TX02/3113Z TNM07/3105Z"
    },
    {
      "icao": "LQSA",
      "alert": "OK",
      "vis_m": 9999,
      "fzfg": false,
      "metar_trigger": false,
      "taf_trigger": false,
      "metar": "METAR LQSA 302130Z VRB02KT CAVOK M07/M08 Q1018 NOSIG",
      "taf": "TAF LQSA 301700Z 3018/3118 29005KT 9999 SCT040 TXM00/3113Z TNM08/3106Z"
    },
    {
      "icao": "LQTZ",
      "alert": "OK",
      "vis_m": 8000,
      "fzfg": false,
      "metar_trigger": false,
      "taf_trigger": false,
      "metar": "METAR LQTZ 302130Z 00000KT 8000 NSC M05/M06 Q1020",
      "taf": "TAF LQTZ 301700Z 3018/3118 27005KT 9999 SCT040 TX02/3113Z TNM07/3105Z"
    },
    {
      "icao": "LRBC",
      "alert": "OK",
      "vis_m": 9999,
      "fzfg": false,
      "metar_trigger": false,
      "taf_trigger": false,
      "metar": "METAR LRBC 302100Z 28008KT CAVOK M04/M09 Q1008",
      "taf": "TAF LRBC 302000Z 3021/3106 VRB04KT 9999 BKN045"
    },
    {
      "icao": "LRBS",
      "alert": "OK",
      "vis_m": 9999,
      "fzfg": false,
      "metar_trigger": false,
      "taf_trigger": false,
      "metar": "METAR LRBS 302100Z 29003KT 260V330 CAVOK M02/M04 Q1012 NOSIG",
      "taf": "TAF LRBS 301700Z 3018/3118 02006KT CAVOK"
    },
    {
      "icao": "LRBV",
      "alert": "OK",
      "vis_m": 9999,
      "fzfg": false,
      "metar_trigger": false,
      "taf_trigger": false,
      "metar": "METAR LRBV 302100Z 28010KT 250V310 9999 FEW022 M05/M10 Q1010",
      "taf": "TAF LRBV 302000Z 3021/3106 28008KT 9999 SCT050"
    },
    {
      "icao": "LRCL",
      "alert": "OK",
      "vis_m": 9999,
      "fzfg": false,
      "metar_trigger": false,
      "taf_trigger": false,
      "metar": "METAR LRCL 302100Z 26009KT 9999 FEW070 M06/M10 Q1012",
      "taf": "TAF LRCL 302000Z 3021/3106 27007KT 9999 SCT060"
    },
    {
      "icao": "LRCV",
      "alert": "OK",
      "vis_m": 9999,
      "fzfg": false,
      "metar_trigger": false,
      "taf_trigger": false,
      "metar": "METAR LRCV 302100Z 29007KT CAVOK M04/M08 Q1014",
      "taf": "TAF LRCV 302000Z 3021/3106 30008KT CAVOK"
    },
    {
      "icao": "LRIA",
      "alert": "OK",
      "vis_m": 9999,
      "fzfg": false,
      "metar_trigger": false,
      "taf_trigger": false,
      "metar": "METAR LRIA 302100Z 24007KT 210V270 CAVOK M03/M10 Q1007",
      "taf": "TAF LRIA 302000Z 3021/3106 26008KT CAVOK"
    },
    {
      "icao": "LROP",
      "alert": "OK",
      "vis_m": 9999,
      "fzfg": false,
      "metar_trigger": false,
      "taf_trigger": false,
      "metar": "METAR LROP 302100Z 25007KT CAVOK M04/M09 Q1012 NOSIG",
      "taf": "TAF LROP 301700Z 3018/3118 02008KT CAVOK"
    },
    {
      "icao": "LRSB",
      "alert": "OK",
      "vis_m": 9999,
      "fzfg": false,
      "metar_trigger": false,
      "taf_trigger": false,
      "metar": "METAR LRSB 302100Z 28010KT 9999 FEW058 M06/M10 Q1011",
      "taf": "TAF LRSB 301700Z 3018/3118 01008KT 9999 BKN040"
    },
    {
      "icao": "LRSM",
      "alert": "OK",
      "vis_m": 9999,
      "fzfg": false,
      "metar_trigger": false,
      "taf_trigger": false,
      "metar": "METAR LRSM 302100Z AUTO 24008KT 9999 FEW065/// M05/M09 Q1012",
      "taf": "TAF LRSM 301400Z 3015/3024 29008KT 9999 BKN040"
    },
    {
      "icao": "LRSV",
      "alert": "OK",
      "vis_m": 9999,
      "fzfg": false,
      "metar_trigger": false,
      "taf_trigger": false,
      "metar": "METAR LRSV 302100Z 26008KT CAVOK M05/M13 Q1005",
      "taf": "TAF LRSV 302000Z 3021/3106 26010KT CAVOK"
    },
    {
      "icao": "LRTM",
      "alert": "OK",
      "vis_m": 9999,
      "fzfg": false,
      "metar_trigger": false,
      "taf_trigger": false,
      "metar": "METAR LRTM 302100Z AUTO 25007KT 9999 R25////// NCD M05/M09 Q1012",
      "taf": "TAF LRTM 301400Z 3015/3024 30012KT 5000 -SN SCT025 BKN040"
    },
    {
      "icao": "LRTR",
      "alert": "OK",
      "vis_m": 9999,
      "fzfg": false,
      "metar_trigger": false,
      "taf_trigger": false,
      "metar": "METAR LRTR 302100Z 32003KT CAVOK M05/M08 Q1016",
      "taf": "TAF LRTR 301700Z 3018/3118 30009KT CAVOK"
    },
    {
      "icao": "LTAC",
      "alert": "OK",
      "vis_m": 1900,
      "fzfg": false,
      "metar_trigger": false,
      "taf_trigger": false,
      "metar": "METAR LTAC 302120Z 21003KT 140V260 1900 SN BR SCT009 BKN020 BKN070 M01/M02 Q1006 NOSIG RMK RWY21C 24008KT RWY03L 22003KT RWY21R 23008KT RWY03R VRB01KT RWY21L 24006KT",
      "taf": "TAF LTAC 301640Z 3018/3118 24008KT 9999 SCT040 BKN100"
    },
    {
      "icao": "LTFM",
      "alert": "OK",
      "vis_m": 9999,
      "fzfg": false,
      "metar_trigger": false,
      "taf_trigger": false,
      "metar": "METAR LTFM 302120Z 02017KT 9999 BKN025 05/M01 Q1010 NOSIG RMK RWY17L 01015KT RWY34L 36014KT RWY16R 01014KT RWY36 01014KT RWY18 01014KT",
      "taf": ""
    },
    {
      "icao": "LUKK",
      "alert": "OK",
      "vis_m": 9999,
      "fzfg": false,
      "metar_trigger": false,
      "taf_trigger": false,
      "metar": "METAR LUKK 302130Z 24007KT CAVOK M04/M10 Q1006 NOSIG",
      "taf": "TAF LUKK 301717Z 3018/3118 29012KT 9999 SCT035"
    },
    {
      "icao": "LWOH",
      "alert": "OK",
      "vis_m": null,
      "fzfg": false,
      "metar_trigger": false,
      "taf_trigger": false,
      "metar": "",
      "taf": "TAF LWOH 302020Z 3021/3121 33010KT 9999 SCT040 BKN070"
    },
    {
      "icao": "LWSK",
      "alert": "OK",
      "vis_m": 9999,
      "fzfg": false,
      "metar_trigger": false,
      "taf_trigger": false,
      "metar": "METAR LWSK 302120Z 36017KT 9999 SCT040 BKN080 02/M09 Q1015 NOSIG",
      "taf": "TAF LWSK 302020Z 3021/3121 01015KT 9999 BKN050 BKN070"
    },
    {
      "icao": "LYBE",
      "alert": "OK",
      "vis_m": 9999,
      "fzfg": false,
      "metar_trigger": false,
      "taf_trigger": false,
      "metar": "METAR LYBE 302130Z 22007KT CAVOK M03/M07 Q1019 NOSIG",
      "taf": "TAF LYBE 301700Z 3018/3118 26008KT CAVOK TX00/3112Z TNM06/3106Z"
    },
    {
      "icao": "LYNI",
      "alert": "OK",
      "vis_m": 9999,
      "fzfg": false,
      "metar_trigger": false,
      "taf_trigger": false,
      "metar": "METAR LYNI 302130Z VRB02KT 9999 SCT045 M02/M07 Q1018 NOSIG",
      "taf": "TAF LYNI 301700Z 3018/3118 32005KT 9999 SCT035 TX01/3018Z TNM05/3103Z"
    },
    {
      "icao": "LYPG",
      "alert": "OK",
      "vis_m": 9999,
      "fzfg": false,
      "metar_trigger": false,
      "taf_trigger": false,
      "metar": "METAR LYPG 302130Z 36016KT 340V040 CAVOK 05/M11 Q1013 NOSIG",
      "taf": "TAF LYPG 301700Z 3018/3118 01015G25KT 9999 SCT090 TX07/3112Z TN03/3105Z"
    },
    {
      "icao": "LZIB",
      "alert": "OK",
      "vis_m": 9999,
      "fzfg": false,
      "metar_trigger": false,
      "taf_trigger": false,
      "metar": "METAR LZIB 302130Z 31015KT 9999 FEW025 M01/M07 Q1019 TEMPO 2000 SHSN DRSN BKN013 FEW020TCU",
      "taf": ""
    },
    {
      "icao": "LZKZ",
      "alert": "OK",
      "vis_m": 9999,
      "fzfg": false,
      "metar_trigger": false,
      "taf_trigger": false,
      "metar": "METAR LZKZ 302130Z 23004KT 9999 FEW044 M05/M10 Q1012 NOSIG",
      "taf": "TAF LZKZ 301715Z 3018/3118 30008KT 9999 FEW045"
    },
    {
      "icao": "LZTT",
      "alert": "OK",
      "vis_m": 9999,
      "fzfg": false,
      "metar_trigger": false,
      "taf_trigger": false,
      "metar": "METAR LZTT 302130Z 30006KT 230V360 9999 -SN BKN047 M06/M14 Q1009",
      "taf": "TAF LZTT 301715Z 3018/3118 28014KT 9999 -SN SCT012 BKN040"
    },
    {
      "icao": "OEJN",
      "alert": "OK",
      "vis_m": 9999,
      "fzfg": false,
      "metar_trigger": false,
      "taf_trigger": false,
      "metar": "METAR OEJN 302100Z 01005KT CAVOK 21/09 Q1016 NOSIG",
      "taf": "TAF OEJN 301700Z 3018/3124 03007KT CAVOK"
    },
    {
      "icao": "OEMA",
      "alert": "OK",
      "vis_m": 9999,
      "fzfg": false,
      "metar_trigger": false,
      "taf_trigger": false,
      "metar": "METAR OEMA 302100Z VRB02KT CAVOK 17/M03 Q1022 NOSIG",
      "taf": "TAF OEMA 301700Z 3018/3124 10010KT CAVOK"
    },
    {
      "icao": "OJAI",
      "alert": "OK",
      "vis_m": 3500,
      "fzfg": false,
      "metar_trigger": false,
      "taf_trigger": false,
      "metar": "METAR OJAI 302100Z 00000KT 3500 BR NSC 06/05 Q1020 NOSIG",
      "taf": "TAF OJAI 301700Z 3018/3124 23012KT 5000 HZ FEW030"
    },
    {
      "icao": "OMAA",
      "alert": "OK",
      "vis_m": 9999,
      "fzfg": false,
      "metar_trigger": false,
      "taf_trigger": false,
      "metar": "METAR OMAA 302100Z 29010KT CAVOK 21/10 Q1017 NOSIG",
      "taf": "TAF OMAA 301700Z 3018/0100 31013KT 8000 FEW040"
    },
    {
      "icao": "OMDB",
      "alert": "OK",
      "vis_m": 9999,
      "fzfg": false,
      "metar_trigger": false,
      "taf_trigger": false,
      "metar": "METAR OMDB 302130Z 28016KT CAVOK 23/09 Q1016 TEMPO 28020G30KT",
      "taf": "TAF OMDB 301700Z 3018/0100 29012KT 8000 FEW040"
    },
    {
      "icao": "UAAA",
      "alert": "OK",
      "vis_m": 1700,
      "fzfg": false,
      "metar_trigger": false,
      "taf_trigger": false,
      "metar": "METAR UAAA 302100Z VRB01MPS 1700 R05R/P2000N BR BKN100 OVC200 M00/M02 Q1005 NOSIG",
      "taf": "TAF UAAA 301701Z 3018/3118 VRB01MPS 3100 BR FU SCT050 BKN100 TX07/3109Z TNM02/3101Z"
    },
    {
      "icao": "UBBB",
      "alert": "OK",
      "vis_m": 9999,
      "fzfg": false,
      "metar_trigger": false,
      "taf_trigger": false,
      "metar": "METAR UBBB 302130Z 19017KT CAVOK 07/02 Q1011 NOSIG",
      "taf": "TAF UBBB 301700Z 3018/3118 19006KT 9999 SCT030 TX10/3110Z TN02/3019Z"
    },
    {
      "icao": "UDSG",
      "alert": "OK",
      "vis_m": 9999,
      "fzfg": false,
      "metar_trigger": false,
      "taf_trigger": false,
      "metar": "METAR UDSG 302100Z 09003KT 9999 NSC M15/M18 Q1015 NOSIG",
      "taf": ""
    },
    {
      "icao": "UDYZ",
      "alert": "OK",
      "vis_m": 9999,
      "fzfg": false,
      "metar_trigger": false,
      "taf_trigger": false,
      "metar": "METAR UDYZ 302100Z 04006KT 9999 NSC M08/M12 Q1018 NOSIG",
      "taf": "TAF UDYZ 301700Z 3018/3118 VRB06KT 3500 BR FEW050"
    },
    {
      "icao": "UGKO",
      "alert": "OK",
      "vis_m": 9999,
      "fzfg": false,
      "metar_trigger": false,
      "taf_trigger": false,
      "metar": "METAR UGKO 302100Z 08012KT 9999 SCT098 00/M03 Q1012 NOSIG",
      "taf": "TAF UGKO 301700Z 3018/3118 08010KT CAVOK TX04/3112Z TNM01/3020Z"
    }
  ]
}