{
  "ts_utc": "2026-01-15T17:18:55Z",
  "threshold_m": 150,
  "source": "stations_override.txt (ICAO list) + aviationweather.gov (METAR/TAF raw)",
  "station_count": 159,
  "stations": [
    {
      "icao": "BIKF",
      "alert": "OK",
      "vis_m": 9999,
      "fzfg": false,
      "metar_trigger": false,
      "taf_trigger": false,
      "metar": "METAR BIKF 151700Z 03016KT 9999 FEW018 SCT190 01/M03 Q0989",
      "taf": "TAF BIKF 151640Z 1518/1618 02020KT 9999 FEW025 SCT045 TX02/1614Z TN00/1521Z"
    },
    {
      "icao": "BKPR",
      "alert": "OK",
      "vis_m": 9999,
      "fzfg": false,
      "metar_trigger": false,
      "taf_trigger": false,
      "metar": "METAR BKPR 151700Z 33004KT 290V010 CAVOK 06/03 Q1023 NOSIG",
      "taf": "TAF BKPR 151130Z 1512/1612 30006KT 9999 BKN060"
    },
    {
      "icao": "EBCI",
      "alert": "OK",
      "vis_m": 9999,
      "fzfg": false,
      "metar_trigger": false,
      "taf_trigger": false,
      "metar": "METAR EBCI 151650Z 16009KT 140V200 CAVOK 10/06 Q1007 NOSIG",
      "taf": "TAF EBCI 151110Z 1512/1618 19012KT 9999 SCT020"
    },
    {
      "icao": "EDDB",
      "alert": "OK",
      "vis_m": 550,
      "fzfg": false,
      "metar_trigger": false,
      "taf_trigger": false,
      "metar": "METAR EDDB 151650Z AUTO 15007KT 0550 0400 R24R/P2000N R24L/0500N FG VV003 05/04 Q1015 TEMPO 0600 SCT002",
      "taf": ""
    },
    {
      "icao": "EDDH",
      "alert": "OK",
      "vis_m": 7000,
      "fzfg": false,
      "metar_trigger": false,
      "taf_trigger": false,
      "metar": "METAR EDDH 151650Z AUTO 15008KT 7000 -SHRA SCT021 BKN036 OVC046 FEW///TCU 07/06 Q1010 NOSIG",
      "taf": "TAF EDDH 151100Z 1512/1618 15008KT 9999 SCT020"
    },
    {
      "icao": "EDDK",
      "alert": "OK",
      "vis_m": 9999,
      "fzfg": false,
      "metar_trigger": false,
      "taf_trigger": false,
      "metar": "METAR EDDK 151650Z AUTO 14009KT CAVOK 10/06 Q1011 NOSIG",
      "taf": "TAF EDDK 151100Z 1512/1618 15009KT 9999 BKN030"
    },
    {
      "icao": "EDDN",
      "alert": "OK",
      "vis_m": 9999,
      "fzfg": false,
      "metar_trigger": false,
      "taf_trigger": false,
      "metar": "METAR EDDN 151650Z AUTO 10010KT CAVOK 04/03 Q1015 NOSIG",
      "taf": "TAF EDDN 151100Z 1512/1612 12007KT 9999 FEW030 BKN040"
    },
    {
      "icao": "EDDS",
      "alert": "OK",
      "vis_m": 9999,
      "fzfg": false,
      "metar_trigger": false,
      "taf_trigger": false,
      "metar": "METAR EDDS 151650Z AUTO 13003KT 100V160 CAVOK 07/03 Q1012 NOSIG",
      "taf": "TAF EDDS 151100Z 1512/1612 VRB03KT CAVOK"
    },
    {
      "icao": "EDFH",
      "alert": "OK",
      "vis_m": 9999,
      "fzfg": false,
      "metar_trigger": false,
      "taf_trigger": false,
      "metar": "METAR EDFH 151650Z 15009KT 9999 FEW014 06/05 Q1011",
      "taf": "TAF EDFH 151100Z 1512/1612 19012KT 9999 BKN030"
    },
    {
      "icao": "EDJA",
      "alert": "OK",
      "vis_m": 9999,
      "fzfg": false,
      "metar_trigger": false,
      "taf_trigger": false,
      "metar": "METAR EDJA 151650Z 06003KT CAVOK 03/01 Q1014",
      "taf": "TAF EDJA 151400Z 1515/1524 22005KT CAVOK"
    },
    {
      "icao": "EDLW",
      "alert": "OK",
      "vis_m": 9999,
      "fzfg": false,
      "metar_trigger": false,
      "taf_trigger": false,
      "metar": "METAR EDLW 151650Z 18010KT 9999 R24///// NSC 10/05 Q1009",
      "taf": "TAF EDLW 151100Z 1512/1612 18013KT 9999 SCT035"
    },
    {
      "icao": "EDNY",
      "alert": "OK",
      "vis_m": 9999,
      "fzfg": false,
      "metar_trigger": false,
      "taf_trigger": false,
      "metar": "METAR EDNY 151650Z COR 05004KT CAVOK 04/02 Q1014",
      "taf": "TAF EDNY 151400Z 1515/1524 VRB02KT CAVOK"
    },
    {
      "icao": "EDSB",
      "alert": "OK",
      "vis_m": 9999,
      "fzfg": false,
      "metar_trigger": false,
      "taf_trigger": false,
      "metar": "METAR EDSB 151650Z VRB01KT CAVOK 08/05 Q1012",
      "taf": "TAF EDSB 151100Z 1512/1612 19010KT CAVOK"
    },
    {
      "icao": "EETN",
      "alert": "OK",
      "vis_m": 9999,
      "fzfg": false,
      "metar_trigger": false,
      "taf_trigger": false,
      "metar": "METAR EETN 151650Z 18013KT 9999 DRSN OVC037 M08/M10 Q1021 TEMPO BKN008",
      "taf": "TAF EETN 151130Z 1512/1612 17012KT 9999 BKN007 BKN035"
    },
    {
      "icao": "EFTU",
      "alert": "OK",
      "vis_m": 7000,
      "fzfg": false,
      "metar_trigger": false,
      "taf_trigger": false,
      "metar": "METAR EFTU 151650Z AUTO 17005KT 7000 -SHRA OVC002 00/00 Q1017",
      "taf": "TAF EFTU 151437Z 1515/1615 16006KT 9000 SCT006 BKN015"
    },
    {
      "icao": "EGBB",
      "alert": "OK",
      "vis_m": 5000,
      "fzfg": false,
      "metar_trigger": false,
      "taf_trigger": false,
      "metar": "METAR EGBB 151650Z 02006KT 5000 -RADZ BR BKN034 OVC041 06/05 Q0997 RERA REDZ",
      "taf": "TAF EGBB 151659Z 1518/1618 35010KT 9999 BKN020"
    },
    {
      "icao": "EGGP",
      "alert": "OK",
      "vis_m": 9000,
      "fzfg": false,
      "metar_trigger": false,
      "taf_trigger": false,
      "metar": "METAR EGGP 151650Z 04004KT 9000 NSC 04/03 Q0997",
      "taf": "TAF EGGP 151659Z 1518/1618 VRB03KT 9999 FEW040"
    },
    {
      "icao": "EGGW",
      "alert": "OK",
      "vis_m": 9999,
      "fzfg": false,
      "metar_trigger": false,
      "taf_trigger": false,
      "metar": "METAR EGGW 151650Z COR 16012KT 140V200 9999 -RA OVC006TCU 08/07 Q0995",
      "taf": "TAF EGGW 151656Z 1518/1618 16010KT 9999 SCT004 BKN020"
    },
    {
      "icao": "EGKK",
      "alert": "OK",
      "vis_m": 9999,
      "fzfg": false,
      "metar_trigger": false,
      "taf_trigger": false,
      "metar": "METAR EGKK 151650Z 17012KT 140V210 9999 -RA BKN010 09/09 Q0997",
      "taf": "TAF EGKK 151654Z 1518/1624 18015KT 9999 BKN015"
    },
    {
      "icao": "EGNM",
      "alert": "OK",
      "vis_m": 9000,
      "fzfg": false,
      "metar_trigger": false,
      "taf_trigger": false,
      "metar": "METAR EGNM 151650Z VRB01KT 9000 3500E VCFG FEW010 SCT040 04/03 Q0997",
      "taf": "TAF EGNM 151657Z 1518/1618 VRB03KT 9999 FEW010"
    },
    {
      "icao": "EGPD",
      "alert": "OK",
      "vis_m": 9999,
      "fzfg": false,
      "metar_trigger": false,
      "taf_trigger": false,
      "metar": "METAR EGPD 151650Z COR AUTO 20011KT 9999 NCD 04/01 Q0996 NOSIG",
      "taf": "TAF EGPD 151656Z 1518/1618 20010KT 9999 FEW025"
    },
    {
      "icao": "EGPF",
      "alert": "OK",
      "vis_m": 9999,
      "fzfg": false,
      "metar_trigger": false,
      "taf_trigger": false,
      "metar": "METAR EGPF 151650Z AUTO 17006KT 9999 NCD 04/02 Q0996",
      "taf": "TAF EGPF 151656Z 1518/1618 21010KT 9999 FEW045"
    },
    {
      "icao": "EHBK",
      "alert": "OK",
      "vis_m": 9999,
      "fzfg": false,
      "metar_trigger": false,
      "taf_trigger": false,
      "metar": "METAR EHBK 151655Z AUTO 17010KT 9999 NSC 10/06 Q1008 NOSIG",
      "taf": "TAF EHBK 151054Z 1512/1618 20012KT 9999 BKN020"
    },
    {
      "icao": "EHEH",
      "alert": "OK",
      "vis_m": 9999,
      "fzfg": false,
      "metar_trigger": false,
      "taf_trigger": false,
      "metar": "METAR EHEH 151655Z AUTO 15006KT 120V200 9999 BKN054 OVC059 09/07 Q1007 BLU NOSIG",
      "taf": "TAF EHEH 151106Z 1512/1618 19010KT 9999 BKN020"
    },
    {
      "icao": "EKBI",
      "alert": "OK",
      "vis_m": 350,
      "fzfg": false,
      "metar_trigger": false,
      "taf_trigger": false,
      "metar": "METAR EKBI 151650Z AUTO 13005KT 0350 R09/1200N R27/1100N FG OVC002/// 04/04 Q1008",
      "taf": ""
    },
    {
      "icao": "EKCH",
      "alert": "OK",
      "vis_m": 3500,
      "fzfg": false,
      "metar_trigger": false,
      "taf_trigger": false,
      "metar": "METAR EKCH 151650Z 15011KT 3500 BR OVC003 03/03 Q1012 TEMPO 5000 OVC002",
      "taf": ""
    },
    {
      "icao": "ENAL",
      "alert": "OK",
      "vis_m": 9999,
      "fzfg": false,
      "metar_trigger": false,
      "taf_trigger": false,
      "metar": "METAR ENAL 151650Z 15012KT 9999 SCT045 07/M03 Q0997",
      "taf": "TAF ENAL 151400Z 1515/1524 12008KT 9999 SCT060"
    },
    {
      "icao": "ENBR",
      "alert": "OK",
      "vis_m": 9999,
      "fzfg": false,
      "metar_trigger": false,
      "taf_trigger": false,
      "metar": "METAR ENBR 151650Z 13016KT 9999 -SHRA FEW009 BKN020 05/02 Q0998 TEMPO 15018G28KT 4000 SHRA BKN012CB RMK WIND 1200FT 14025KT",
      "taf": "TAF ENBR 151100Z 1512/1612 14012KT 9999 -SHRA FEW020 BKN040"
    },
    {
      "icao": "ENGM",
      "alert": "OK",
      "vis_m": 9000,
      "fzfg": false,
      "metar_trigger": false,
      "taf_trigger": false,
      "metar": "METAR ENGM 151650Z VRB02KT 9000 2000E -SN OVC004 M04/M05 Q1008 TEMPO 3000 -SN BR BKN008",
      "taf": ""
    },
    {
      "icao": "ENHD",
      "alert": "OK",
      "vis_m": 9999,
      "fzfg": false,
      "metar_trigger": false,
      "taf_trigger": false,
      "metar": "METAR ENHD 151650Z 14017KT 9999 FEW012 BKN015 BKN017 05/04 Q1000 REDZ REDZRA",
      "taf": "TAF ENHD 151400Z 1515/1523 13018KT 9999 -RA FEW015 BKN030"
    },
    {
      "icao": "ENTC",
      "alert": "OK",
      "vis_m": 9999,
      "fzfg": false,
      "metar_trigger": false,
      "taf_trigger": false,
      "metar": "METAR ENTC 151650Z 20016KT CAVOK M01/M07 Q1007 NOSIG RMK WIND 2600FT 17014KT",
      "taf": "TAF ENTC 151100Z 1512/1612 20008KT CAVOK"
    },
    {
      "icao": "ENTO",
      "alert": "OK",
      "vis_m": 2200,
      "fzfg": false,
      "metar_trigger": false,
      "taf_trigger": false,
      "metar": "METAR ENTO 151650Z 12007KT 2200 RA BR BKN001 OVC002 02/02 Q1006 TEMPO 3000 -RA BKN006",
      "taf": ""
    },
    {
      "icao": "ENVA",
      "alert": "OK",
      "vis_m": 9999,
      "fzfg": false,
      "metar_trigger": false,
      "taf_trigger": false,
      "metar": "METAR ENVA 151650Z 09006KT 020V120 CAVOK 04/M03 Q1002 TEMPO 16020G30KT RMK WIND 670FT 13013G25KT",
      "taf": "TAF ENVA 151100Z 1512/1612 09008KT CAVOK"
    },
    {
      "icao": "ENZV",
      "alert": "OK",
      "vis_m": 9999,
      "fzfg": false,
      "metar_trigger": false,
      "taf_trigger": false,
      "metar": "METAR ENZV 151650Z 15014KT 9999 FEW034 BKN045 05/03 Q1001 TEMPO 15020G35KT",
      "taf": "TAF ENZV 151100Z 1512/1612 13015KT 9999 -SHRA FEW015 BKN030"
    },
    {
      "icao": "EPGD",
      "alert": "OK",
      "vis_m": 9999,
      "fzfg": false,
      "metar_trigger": false,
      "taf_trigger": false,
      "metar": "METAR EPGD 151700Z 16005KT CAVOK M01/M01 Q1019",
      "taf": "TAF EPGD 151130Z 1512/1612 16010KT 8000 NSC"
    },
    {
      "icao": "EPKK",
      "alert": "OK",
      "vis_m": 8000,
      "fzfg": false,
      "metar_trigger": false,
      "taf_trigger": false,
      "metar": "METAR EPKK 151700Z 04004KT 8000 BKN020 02/M00 Q1020",
      "taf": "TAF EPKK 151430Z 1515/1615 07005KT 9000 SCT042"
    },
    {
      "icao": "EPKT",
      "alert": "OK",
      "vis_m": 5000,
      "fzfg": false,
      "metar_trigger": false,
      "taf_trigger": false,
      "metar": "METAR EPKT 151700Z 12006KT 5000 BR OVC010 02/01 Q1019",
      "taf": "TAF EPKT 151130Z 1512/1612 15004KT 7000 NSC"
    },
    {
      "icao": "EPLB",
      "alert": "OK",
      "vis_m": 2900,
      "fzfg": false,
      "metar_trigger": false,
      "taf_trigger": false,
      "metar": "METAR EPLB 151700Z 08006KT 2900 BR OVC006 M03/M03 Q1023",
      "taf": ""
    },
    {
      "icao": "EPMO",
      "alert": "OK",
      "vis_m": 450,
      "fzfg": true,
      "metar_trigger": false,
      "taf_trigger": false,
      "metar": "METAR EPMO 151700Z 10007KT 0450 R08/0500N FZFG BKN000 M01/M01 Q1022",
      "taf": ""
    },
    {
      "icao": "EPPO",
      "alert": "OK",
      "vis_m": 2900,
      "fzfg": false,
      "metar_trigger": false,
      "taf_trigger": false,
      "metar": "METAR EPPO 151700Z 13008KT 2900 BR BKN004 OVC048 01/01 Q1018",
      "taf": ""
    },
    {
      "icao": "EPRA",
      "alert": "OK",
      "vis_m": 9999,
      "fzfg": false,
      "metar_trigger": false,
      "taf_trigger": false,
      "metar": "METAR EPRA 151700Z 13005KT 9999 SCT030 00/M01 Q1021",
      "taf": "TAF EPRA 151430Z 1515/1524 11005KT 9999 BKN025"
    },
    {
      "icao": "EPRZ",
      "alert": "OK",
      "vis_m": 5000,
      "fzfg": false,
      "metar_trigger": false,
      "taf_trigger": false,
      "metar": "METAR EPRZ 151700Z 12004KT 5000 BR BKN023 01/M00 Q1022",
      "taf": ""
    },
    {
      "icao": "EPSC",
      "alert": "OK",
      "vis_m": 6000,
      "fzfg": false,
      "metar_trigger": false,
      "taf_trigger": false,
      "metar": "METAR EPSC 151700Z 13013KT 6000 OVC006 02/01 Q1016",
      "taf": "TAF EPSC 151130Z 1512/1612 14010KT 8000 OVC012"
    },
    {
      "icao": "EPSY",
      "alert": "OK",
      "vis_m": 3000,
      "fzfg": false,
      "metar_trigger": false,
      "taf_trigger": false,
      "metar": "METAR EPSY 151700Z VRB01KT 3000 BR OVC031 M07/M08 Q1022",
      "taf": "TAF EPSY 151430Z 1515/1524 14006KT 6000 BKN035"
    },
    {
      "icao": "EPWA",
      "alert": "OK",
      "vis_m": 3300,
      "fzfg": false,
      "metar_trigger": false,
      "taf_trigger": false,
      "metar": "METAR EPWA 151700Z 11006KT 080V140 3300 BR BKN002 00/00 Q1022 TEMPO 2000 BR",
      "taf": "TAF EPWA 151430Z 1515/1615 13007KT 2000 BR SCT003 BKN020"
    },
    {
      "icao": "EPWR",
      "alert": "OK",
      "vis_m": 4000,
      "fzfg": false,
      "metar_trigger": false,
      "taf_trigger": false,
      "metar": "METAR EPWR 151700Z 10003KT 4000 BR BKN048 03/02 Q1018",
      "taf": "TAF EPWR 151430Z 1515/1615 12010KT 5000 BR OVC035"
    },
    {
      "icao": "ESGG",
      "alert": "OK",
      "vis_m": 4200,
      "fzfg": false,
      "metar_trigger": false,
      "taf_trigger": false,
      "metar": "METAR ESGG 151650Z 16009KT 140V200 4200 -RA BKN003 OVC006 02/01 Q1009",
      "taf": ""
    },
    {
      "icao": "ESKN",
      "alert": "OK",
      "vis_m": 9999,
      "fzfg": false,
      "metar_trigger": false,
      "taf_trigger": false,
      "metar": "METAR ESKN 151650Z 16006KT 9999 BKN005 01/01 Q1015",
      "taf": "TAF ESKN 151430Z 1515/1615 19006KT 9999 OVC012"
    },
    {
      "icao": "ESMS",
      "alert": "OK",
      "vis_m": 1700,
      "fzfg": false,
      "metar_trigger": false,
      "taf_trigger": false,
      "metar": "METAR ESMS 151650Z 13010KT 1700 BR OVC002 03/03 Q1013",
      "taf": "TAF ESMS 151427Z 1515/1615 16010KT 2000 -RADZ BR BKN002"
    },
    {
      "icao": "ESSA",
      "alert": "OK",
      "vis_m": 9999,
      "fzfg": false,
      "metar_trigger": false,
      "taf_trigger": false,
      "metar": "METAR ESSA 151650Z 18010KT 9999 BKN004 01/00 Q1015 TEMPO BKN006",
      "taf": "TAF ESSA 151430Z 1515/1615 19008KT 9999 SCT006 BKN015"
    },
    {
      "icao": "EYKA",
      "alert": "OK",
      "vis_m": 8000,
      "fzfg": false,
      "metar_trigger": false,
      "taf_trigger": false,
      "metar": "METAR EYKA 151650Z 14008KT 120V240 8000 OVC032 M09/M12 Q1025",
      "taf": "TAF EYKA 151705Z 1518/1618 16010KT 9000 SCT010 OVC020"
    },
    {
      "icao": "EYPA",
      "alert": "OK",
      "vis_m": 7000,
      "fzfg": false,
      "metar_trigger": false,
      "taf_trigger": false,
      "metar": "METAR EYPA 151650Z 15008KT 7000 BKN007 OVC033 M04/M05 Q1022",
      "taf": "TAF EYPA 151704Z 1518/1618 17012KT 8000 SCT010 OVC020"
    },
    {
      "icao": "EYVI",
      "alert": "OK",
      "vis_m": 9000,
      "fzfg": false,
      "metar_trigger": false,
      "taf_trigger": false,
      "metar": "METAR EYVI 151650Z 16010KT 9000 OVC006 M13/M15 Q1025 NOSIG",
      "taf": "TAF EYVI 151705Z 1518/1618 16010KT 8000 OVC005"
    },
    {
      "icao": "GCFV",
      "alert": "OK",
      "vis_m": 9999,
      "fzfg": false,
      "metar_trigger": false,
      "taf_trigger": false,
      "metar": "METAR GCFV 151700Z 03013KT 9999 SCT035 19/10 Q1023",
      "taf": "TAF GCFV 151400Z 1515/1615 04010KT 9999 SCT030 TX22/1614Z TN14/1606Z"
    },
    {
      "icao": "GCLP",
      "alert": "OK",
      "vis_m": 9999,
      "fzfg": false,
      "metar_trigger": false,
      "taf_trigger": false,
      "metar": "METAR GCLP 151700Z 02018KT 9999 BKN040 19/10 Q1023 NOSIG",
      "taf": "TAF GCLP 151400Z 1515/1615 02016KT 9999 SCT030 TX22/1614Z TN15/1606Z"
    },
    {
      "icao": "GCTS",
      "alert": "OK",
      "vis_m": 9999,
      "fzfg": false,
      "metar_trigger": false,
      "taf_trigger": false,
      "metar": "METAR GCTS 151700Z 08017KT 9999 SCT040 19/10 Q1023 NOSIG",
      "taf": "TAF GCTS 151400Z 1515/1615 08016KT 9999 BKN030 TX22/1614Z TN13/1606Z"
    },
    {
      "icao": "GMAD",
      "alert": "OK",
      "vis_m": 9999,
      "fzfg": false,
      "metar_trigger": false,
      "taf_trigger": false,
      "metar": "METAR GMAD 151700Z 26010KT 9999 FEW030 16/13 Q1021 NOSIG",
      "taf": "TAF GMAD 151100Z 1512/1618 27010KT 8000 FEW030"
    },
    {
      "icao": "GMMN",
      "alert": "OK",
      "vis_m": 9999,
      "fzfg": false,
      "metar_trigger": false,
      "taf_trigger": false,
      "metar": "METAR GMMN 151700Z 32008KT 9999 BKN020 SCT200 14/10 Q1022 NOSIG",
      "taf": "TAF GMMN 151100Z 1512/1618 26006KT 9999 FEW020"
    },
    {
      "icao": "GMMX",
      "alert": "OK",
      "vis_m": 9999,
      "fzfg": false,
      "metar_trigger": false,
      "taf_trigger": false,
      "metar": "METAR GMMX 151700Z 25003KT 230V330 9999 FEW030 16/09 Q1021 NOSIG",
      "taf": "TAF GMMX 151100Z 1512/1618 06006KT 8000 SCT026"
    },
    {
      "icao": "HEGN",
      "alert": "OK",
      "vis_m": 9999,
      "fzfg": false,
      "metar_trigger": false,
      "taf_trigger": false,
      "metar": "METAR HEGN 151600Z 35009KT CAVOK 18/09 Q1022 NOSIG",
      "taf": "TAF HEGN 151700Z 1518/1624 33010G20KT CAVOK"
    },
    {
      "icao": "HEMA",
      "alert": "OK",
      "vis_m": 9999,
      "fzfg": false,
      "metar_trigger": false,
      "taf_trigger": false,
      "metar": "METAR HEMA 151600Z 34016KT 9999 SCT020 SCT025 19/10 Q1020 NOSIG",
      "taf": "TAF HEMA 151700Z 1518/1624 34010G20KT 6000 SCT025"
    },
    {
      "icao": "HESH",
      "alert": "OK",
      "vis_m": 9999,
      "fzfg": false,
      "metar_trigger": false,
      "taf_trigger": false,
      "metar": "METAR HESH 151600Z 35010KT CAVOK 20/08 Q1021 NOSIG",
      "taf": "TAF HESH 151700Z 1518/1624 36015KT CAVOK"
    },
    {
      "icao": "HESX",
      "alert": "OK",
      "vis_m": 9999,
      "fzfg": false,
      "metar_trigger": false,
      "taf_trigger": false,
      "metar": "METAR HESX 151600Z 01006KT 9999 SCT020 BKN030 16/08 Q1024 NOSIG",
      "taf": "TAF HESX 151700Z 1518/1624 36006KT 9999 SCT020 BKN030"
    },
    {
      "icao": "LATI",
      "alert": "OK",
      "vis_m": null,
      "fzfg": false,
      "metar_trigger": false,
      "taf_trigger": false,
      "metar": "",
      "taf": "TAF LATI 151700Z 1518/1618 VRB05KT 9999 SCT025 BKN070 TX16/1612Z TN07/1604Z"
    },
    {
      "icao": "LBPD",
      "alert": "OK",
      "vis_m": 9999,
      "fzfg": false,
      "metar_trigger": false,
      "taf_trigger": false,
      "metar": "METAR LBPD 151700Z AUTO 25005KT 9999 NCD 08/02 Q1022 NOSIG",
      "taf": "TAF LBPD 151700Z 1518/1618 28010KT 9999 SCT070"
    },
    {
      "icao": "LBSF",
      "alert": "OK",
      "vis_m": 9999,
      "fzfg": false,
      "metar_trigger": false,
      "taf_trigger": false,
      "metar": "METAR LBSF 151700Z AUTO 32003KT 9999 NCD 05/01 Q1022 NOSIG",
      "taf": "TAF LBSF 151700Z 1518/1618 VRB03KT 9999 SCT060"
    },
    {
      "icao": "LBWN",
      "alert": "OK",
      "vis_m": 9999,
      "fzfg": false,
      "metar_trigger": false,
      "taf_trigger": false,
      "metar": "METAR LBWN 151700Z AUTO 01004KT 320V070 9999 FEW032/// 07/02 Q1022 NOSIG",
      "taf": ""
    },
    {
      "icao": "LCLK",
      "alert": "OK",
      "vis_m": 9999,
      "fzfg": false,
      "metar_trigger": false,
      "taf_trigger": false,
      "metar": "METAR LCLK 151700Z 33004KT 9999 FEW040 BKN050 11/08 Q1024 NOSIG",
      "taf": "TAF LCLK 151130Z 1512/1612 11010KT 9999 FEW040"
    },
    {
      "icao": "LCPH",
      "alert": "OK",
      "vis_m": 9999,
      "fzfg": false,
      "metar_trigger": false,
      "taf_trigger": false,
      "metar": "METAR LCPH 151700Z 02006KT 010V080 9999 FEW022 11/07 Q1024 NOSIG",
      "taf": "TAF LCPH 151130Z 1512/1612 23010KT 9999 FEW035 SCT045"
    },
    {
      "icao": "LEAL",
      "alert": "OK",
      "vis_m": 9999,
      "fzfg": false,
      "metar_trigger": false,
      "taf_trigger": false,
      "metar": "METAR LEAL 151700Z 19006KT 150V230 CAVOK 15/11 Q1017 NOSIG",
      "taf": "TAF LEAL 151100Z 1512/1612 VRB04KT CAVOK TX17/1513Z TN07/1606Z"
    },
    {
      "icao": "LEBB",
      "alert": "OK",
      "vis_m": 9999,
      "fzfg": false,
      "metar_trigger": false,
      "taf_trigger": false,
      "metar": "METAR LEBB 151700Z 20013G26KT 140V250 9999 -RA FEW060 BKN071 13/06 Q1011 NOSIG",
      "taf": "TAF LEBB 151100Z 1512/1612 20009KT 9999 FEW025 SCT060 TX16/1512Z TN05/1607Z"
    },
    {
      "icao": "LEBL",
      "alert": "OK",
      "vis_m": 9999,
      "fzfg": false,
      "metar_trigger": false,
      "taf_trigger": false,
      "metar": "METAR LEBL 151700Z 23008KT CAVOK 12/09 Q1015 NOSIG",
      "taf": "TAF LEBL 151100Z 1512/1612 21010KT 9999 FEW015 TX15/1512Z TN06/1606Z"
    },
    {
      "icao": "LECH",
      "alert": "OK",
      "vis_m": 9000,
      "fzfg": false,
      "metar_trigger": false,
      "taf_trigger": false,
      "metar": "METAR LECH 151700Z AUTO 17002KT 9000 NCD 11/08 Q1015",
      "taf": ""
    },
    {
      "icao": "LEMD",
      "alert": "OK",
      "vis_m": 9999,
      "fzfg": false,
      "metar_trigger": false,
      "taf_trigger": false,
      "metar": "METAR LEMD 151700Z 21009KT 150V240 9999 -RA SCT025 BKN040 OVC060 08/05 Q1016 TEMPO 3000 RA BKN014",
      "taf": ""
    },
    {
      "icao": "LEMG",
      "alert": "OK",
      "vis_m": 9999,
      "fzfg": false,
      "metar_trigger": false,
      "taf_trigger": false,
      "metar": "METAR LEMG 151700Z 19002KT 9999 SCT070 14/08 Q1019 NOSIG",
      "taf": "TAF LEMG 151100Z 1512/1612 29006KT 9999 SCT040 TX18/1514Z TN11/1607Z"
    },
    {
      "icao": "LEVC",
      "alert": "OK",
      "vis_m": 9999,
      "fzfg": false,
      "metar_trigger": false,
      "taf_trigger": false,
      "metar": "METAR LEVC 151700Z 24006KT 9999 FEW040 15/06 Q1016 NOSIG",
      "taf": "TAF LEVC 151100Z 1512/1612 26005KT CAVOK TX18/1512Z TN06/1606Z"
    },
    {
      "icao": "LEXJ",
      "alert": "OK",
      "vis_m": 9999,
      "fzfg": false,
      "metar_trigger": false,
      "taf_trigger": false,
      "metar": "METAR LEXJ 151700Z 22010KT 150V270 9999 SCT070 13/04 Q1009",
      "taf": "TAF LEXJ 151400Z 1515/1615 21009KT 9999 SCT040 BKN070 TX16/1615Z TN07/1608Z"
    },
    {
      "icao": "LEZG",
      "alert": "OK",
      "vis_m": 9999,
      "fzfg": false,
      "metar_trigger": false,
      "taf_trigger": false,
      "metar": "METAR LEZG 151700Z 11004KT 9999 SCT060 11/05 Q1015 NOSIG",
      "taf": ""
    },
    {
      "icao": "LEZL",
      "alert": "OK",
      "vis_m": 9000,
      "fzfg": false,
      "metar_trigger": false,
      "taf_trigger": false,
      "metar": "METAR LEZL 151700Z 23003KT 200V260 9000 FEW045 13/10 Q1019 NOSIG",
      "taf": ""
    },
    {
      "icao": "LFBD",
      "alert": "OK",
      "vis_m": 9999,
      "fzfg": false,
      "metar_trigger": false,
      "taf_trigger": false,
      "metar": "METAR LFBD 151700Z AUTO 23015KT 9999 -RA ///TCU 11/08 Q1009 TEMPO 4000 -RA BKN040",
      "taf": ""
    },
    {
      "icao": "LFLL",
      "alert": "OK",
      "vis_m": 9999,
      "fzfg": false,
      "metar_trigger": false,
      "taf_trigger": false,
      "metar": "METAR LFLL 151700Z 19016KT 9999 FEW036 BKN260 13/04 Q1012 NOSIG",
      "taf": "TAF LFLL 151100Z 1512/1618 18015G25KT CAVOK"
    },
    {
      "icao": "LFLS",
      "alert": "OK",
      "vis_m": 9999,
      "fzfg": false,
      "metar_trigger": false,
      "taf_trigger": false,
      "metar": "METAR LFLS 151700Z AUTO 22008KT 190V250 CAVOK 09/06 Q1013 NOSIG",
      "taf": "TAF LFLS 151400Z 1515/1615 20010KT CAVOK"
    },
    {
      "icao": "LFMN",
      "alert": "OK",
      "vis_m": 9999,
      "fzfg": false,
      "metar_trigger": false,
      "taf_trigger": false,
      "metar": "METAR LFMN 151700Z 11008KT 9999 FEW020 SCT040 14/10 Q1019 BECMG 33010KT",
      "taf": "TAF LFMN 151400Z 1515/1621 11009KT 9999 SCT024"
    },
    {
      "icao": "LFOB",
      "alert": "OK",
      "vis_m": 9999,
      "fzfg": false,
      "metar_trigger": false,
      "taf_trigger": false,
      "metar": "METAR LFOB 151700Z AUTO 18010KT 9999 FEW042 BKN050 BKN068 12/06 Q1004 NOSIG",
      "taf": ""
    },
    {
      "icao": "LFPO",
      "alert": "OK",
      "vis_m": 9999,
      "fzfg": false,
      "metar_trigger": false,
      "taf_trigger": false,
      "metar": "METAR LFPO 151700Z 16009KT CAVOK 12/06 Q1005 NOSIG",
      "taf": "TAF LFPO 151100Z 1512/1618 18010KT 9999 BKN012"
    },
    {
      "icao": "LFSB",
      "alert": "OK",
      "vis_m": 9999,
      "fzfg": false,
      "metar_trigger": false,
      "taf_trigger": false,
      "metar": "METAR LFSB 151700Z AUTO 10006KT CAVOK 08/04 Q1012 NOSIG",
      "taf": "TAF LFSB 151100Z 1512/1612 15008KT CAVOK"
    },
    {
      "icao": "LGAV",
      "alert": "OK",
      "vis_m": 9999,
      "fzfg": false,
      "metar_trigger": false,
      "taf_trigger": false,
      "metar": "METAR LGAV 151650Z 29004KT 9999 FEW030 10/05 Q1024 NOSIG",
      "taf": "TAF LGAV 151700Z 1518/1618 VRB03KT 9999 SCT025"
    },
    {
      "icao": "LGTS",
      "alert": "OK",
      "vis_m": 9999,
      "fzfg": false,
      "metar_trigger": false,
      "taf_trigger": false,
      "metar": "METAR LGTS 151650Z 12003KT CAVOK 07/05 Q1023 NOSIG",
      "taf": "TAF LGTS 151700Z 1518/1618 VRB03KT 9999 FEW030"
    },
    {
      "icao": "LHBP",
      "alert": "OK",
      "vis_m": 5000,
      "fzfg": false,
      "metar_trigger": false,
      "taf_trigger": false,
      "metar": "METAR LHBP 151700Z 08005KT 5000 BR BKN006 OVC020 M02/M03 Q1022 NOSIG",
      "taf": "TAF LHBP 151115Z 1512/1612 09005KT 2500 BR OVC005"
    },
    {
      "icao": "LHDC",
      "alert": "OK",
      "vis_m": 4700,
      "fzfg": false,
      "metar_trigger": false,
      "taf_trigger": false,
      "metar": "METAR LHDC 151645Z AUTO 08005KT 4700 BR OVC007 01/M00 Q1023 NOSIG",
      "taf": "TAF LHDC 151415Z 1515/1524 VRB03KT 5000 BR SCT004 OVC040"
    },
    {
      "icao": "LIBD",
      "alert": "OK",
      "vis_m": 9999,
      "fzfg": false,
      "metar_trigger": false,
      "taf_trigger": false,
      "metar": "METAR LIBD 151650Z 22002KT CAVOK 07/06 Q1022",
      "taf": "TAF LIBD 151100Z 1512/1612 VRB06KT 9999 FEW030"
    },
    {
      "icao": "LIBG",
      "alert": "OK",
      "vis_m": 9999,
      "fzfg": false,
      "metar_trigger": false,
      "taf_trigger": false,
      "metar": "METAR LIBG 151650Z VRB01KT 9999 FEW020 09/09 Q1022",
      "taf": "TAF LIBG 151400Z 1515/1524 VRB05KT 8000 FEW025"
    },
    {
      "icao": "LIBP",
      "alert": "OK",
      "vis_m": 9999,
      "fzfg": false,
      "metar_trigger": false,
      "taf_trigger": false,
      "metar": "METAR LIBP 151650Z AUTO VRB02KT 9999 NCD 08/05 Q1021",
      "taf": "TAF LIBP 151100Z 1512/1612 VRB05KT CAVOK"
    },
    {
      "icao": "LIBR",
      "alert": "OK",
      "vis_m": 9999,
      "fzfg": false,
      "metar_trigger": false,
      "taf_trigger": false,
      "metar": "METAR LIBR 151650Z 21004KT 9999 SCT020 13/09 Q1022",
      "taf": "TAF LIBR 151100Z 1512/1612 VRB06KT 9999 FEW025"
    },
    {
      "icao": "LICA",
      "alert": "OK",
      "vis_m": 9999,
      "fzfg": false,
      "metar_trigger": false,
      "taf_trigger": false,
      "metar": "METAR LICA 151650Z AUTO VRB01KT 9999 NCD 11/08 Q1022",
      "taf": "TAF LICA 151100Z 1512/1612 08010KT CAVOK"
    },
    {
      "icao": "LICC",
      "alert": "OK",
      "vis_m": 9999,
      "fzfg": false,
      "metar_trigger": false,
      "taf_trigger": false,
      "metar": "METAR LICC 151650Z 13003KT 080V160 9999 FEW050 15/11 Q1022",
      "taf": "TAF LICC 151100Z 1512/1612 VRB05KT 9999 SCT040"
    },
    {
      "icao": "LICJ",
      "alert": "OK",
      "vis_m": 9999,
      "fzfg": false,
      "metar_trigger": false,
      "taf_trigger": false,
      "metar": "METAR LICJ 151650Z 07006KT CAVOK 13/10 Q1020",
      "taf": "TAF LICJ 151100Z 1512/1612 05010KT CAVOK"
    },
    {
      "icao": "LIMC",
      "alert": "OK",
      "vis_m": 2000,
      "fzfg": false,
      "metar_trigger": false,
      "taf_trigger": false,
      "metar": "METAR LIMC 151650Z 17002KT 2000 -RA BR OVC005 07/06 Q1021 NOSIG",
      "taf": "TAF LIMC 151100Z 1512/1618 VRB05KT 0800 -RA FG BKN003"
    },
    {
      "icao": "LIME",
      "alert": "OK",
      "vis_m": 3000,
      "fzfg": false,
      "metar_trigger": false,
      "taf_trigger": false,
      "metar": "METAR LIME 151650Z 07001KT 3000 BR BKN010 06/06 Q1021 NOSIG",
      "taf": "TAF LIME 151100Z 1512/1612 VRB04KT 3000 BR SCT010 BKN040"
    },
    {
      "icao": "LIMF",
      "alert": "OK",
      "vis_m": 6000,
      "fzfg": false,
      "metar_trigger": false,
      "taf_trigger": false,
      "metar": "METAR LIMF 151650Z 10002KT 6000 SCT025 OVC055 06/01 Q1021",
      "taf": "TAF LIMF 151100Z 1512/1612 VRB03KT 8000 SCT050"
    },
    {
      "icao": "LIMJ",
      "alert": "OK",
      "vis_m": 9999,
      "fzfg": false,
      "metar_trigger": false,
      "taf_trigger": false,
      "metar": "METAR LIMJ 151650Z 05009KT 9999 SCT018 SCT032 11/07 Q1020",
      "taf": "TAF LIMJ 151100Z 1512/1612 04008KT 9999 SCT020 SCT050"
    },
    {
      "icao": "LIPE",
      "alert": "OK",
      "vis_m": 2000,
      "fzfg": false,
      "metar_trigger": false,
      "taf_trigger": false,
      "metar": "METAR LIPE 151650Z 05001KT 2000 BR BKN050 06/06 Q1022",
      "taf": "TAF LIPE 151100Z 1512/1612 VRB04KT 3000 BR BKN040"
    },
    {
      "icao": "LIPH",
      "alert": "OK",
      "vis_m": 8000,
      "fzfg": false,
      "metar_trigger": false,
      "taf_trigger": false,
      "metar": "METAR LIPH 151650Z VRB01KT 8000 SCT090 06/05 Q1022",
      "taf": "TAF LIPH 151100Z 1512/1612 VRB04KT 6000 SCT040"
    },
    {
      "icao": "LIPQ",
      "alert": "OK",
      "vis_m": 5000,
      "fzfg": false,
      "metar_trigger": false,
      "taf_trigger": false,
      "metar": "METAR LIPQ 151650Z AUTO 27001KT 5000 BR BKN015/// OVC037/// 09/07 Q1022",
      "taf": "TAF LIPQ 151100Z 1512/1612 VRB04KT 7000 BKN035"
    },
    {
      "icao": "LIPR",
      "alert": "OK",
      "vis_m": 4000,
      "fzfg": false,
      "metar_trigger": false,
      "taf_trigger": false,
      "metar": "METAR LIPR 151650Z 35003KT 4000 BR BKN006 08/06 Q1022",
      "taf": "TAF LIPR 151100Z 1512/1612 VRB04KT 3000 BR SCT020"
    },
    {
      "icao": "LIPX",
      "alert": "OK",
      "vis_m": 6000,
      "fzfg": false,
      "metar_trigger": false,
      "taf_trigger": false,
      "metar": "METAR LIPX 151650Z 24004KT 6000 SCT030 BKN060 07/05 Q1022",
      "taf": "TAF LIPX 151100Z 1512/1612 VRB04KT 6000 BKN050"
    },
    {
      "icao": "LIPY",
      "alert": "OK",
      "vis_m": 2900,
      "fzfg": false,
      "metar_trigger": false,
      "taf_trigger": false,
      "metar": "METAR LIPY 151650Z AUTO VRB01KT 2900 BR OVC082/// 09/08 Q1021",
      "taf": "TAF LIPY 151100Z 1512/1612 VRB05KT 7000 SCT060"
    },
    {
      "icao": "LIPZ",
      "alert": "OK",
      "vis_m": 8000,
      "fzfg": false,
      "metar_trigger": false,
      "taf_trigger": false,
      "metar": "METAR LIPZ 151650Z 22003KT 8000 SCT030 07/04 Q1022 NOSIG",
      "taf": "TAF LIPZ 151100Z 1512/1618 VRB04KT 6000 SCT040"
    },
    {
      "icao": "LIRF",
      "alert": "OK",
      "vis_m": 9999,
      "fzfg": false,
      "metar_trigger": false,
      "taf_trigger": false,
      "metar": "METAR LIRF 151650Z 13006KT 9999 SCT055 14/11 Q1021 NOSIG",
      "taf": "TAF LIRF 151100Z 1512/1618 15012KT 9999 SCT030"
    },
    {
      "icao": "LIRN",
      "alert": "OK",
      "vis_m": 9999,
      "fzfg": false,
      "metar_trigger": false,
      "taf_trigger": false,
      "metar": "METAR LIRN 151650Z 25002KT CAVOK 12/08 Q1022 NOSIG",
      "taf": "TAF LIRN 151100Z 1512/1612 VRB05KT CAVOK"
    },
    {
      "icao": "LIRP",
      "alert": "OK",
      "vis_m": 9999,
      "fzfg": false,
      "metar_trigger": false,
      "taf_trigger": false,
      "metar": "METAR LIRP 151645Z 12007KT 9999 FEW020 BKN030 12/10 Q1020 NOSIG",
      "taf": "TAF LIRP 151100Z 1512/1612 12005KT 9999 SCT020 SCT040"
    },
    {
      "icao": "LIRZ",
      "alert": "OK",
      "vis_m": 9999,
      "fzfg": false,
      "metar_trigger": false,
      "taf_trigger": false,
      "metar": "METAR LIRZ 151650Z AUTO VRB02KT 9999 SCT042/// BKN073/// 12/07 Q1021",
      "taf": "TAF LIRZ 151100Z 1512/1612 VRB05KT 9999 SCT040"
    },
    {
      "icao": "LJLJ",
      "alert": "OK",
      "vis_m": 9999,
      "fzfg": false,
      "metar_trigger": false,
      "taf_trigger": false,
      "metar": "METAR LJLJ 151700Z 00000KT 9999 FEW030 BKN045 02/01 Q1020 NOSIG",
      "taf": "TAF LJLJ 151700Z 1518/1618 30003KT 9999 FEW030 BKN045"
    },
    {
      "icao": "LKMT",
      "alert": "OK",
      "vis_m": 5000,
      "fzfg": false,
      "metar_trigger": false,
      "taf_trigger": false,
      "metar": "METAR LKMT 151700Z 22009KT 5000 BR NSC 01/00 Q1019 NOSIG",
      "taf": "TAF LKMT 151100Z 1512/1612 22008KT 6000 BKN025"
    },
    {
      "icao": "LKPR",
      "alert": "OK",
      "vis_m": 200,
      "fzfg": false,
      "metar_trigger": false,
      "taf_trigger": false,
      "metar": "METAR LKPR 151700Z 00000KT 0200 R24/0250N R30/0250N FG VV001 01/01 Q1017 NOSIG",
      "taf": "TAF LKPR 151700Z 1518/1624 VRB02KT 0200 FG VV001"
    },
    {
      "icao": "LLBG",
      "alert": "OK",
      "vis_m": 9999,
      "fzfg": false,
      "metar_trigger": false,
      "taf_trigger": false,
      "metar": "METAR LLBG 151650Z VRB03KT 9999 SCT043 14/08 Q1025 NOSIG",
      "taf": "TAF LLBG 151704Z 1518/1618 VRB03KT 9999 SCT045"
    },
    {
      "icao": "LMML",
      "alert": "OK",
      "vis_m": 9999,
      "fzfg": false,
      "metar_trigger": false,
      "taf_trigger": false,
      "metar": "METAR LMML 151715Z 13009KT 9999 FEW018 14/12 Q1021 NOSIG",
      "taf": "TAF LMML 151700Z 1518/1618 14010KT 9999 FEW017"
    },
    {
      "icao": "LOWW",
      "alert": "OK",
      "vis_m": 3000,
      "fzfg": false,
      "metar_trigger": false,
      "taf_trigger": false,
      "metar": "METAR LOWW 151650Z 14006KT 3000 BR FEW001 BKN003 M01/M02 Q1021 TEMPO BKN002",
      "taf": "TAF LOWW 151715Z 1518/1624 14006KT 2000 BR FEW001 BKN002 TX01/1621Z TNM02/1519Z"
    },
    {
      "icao": "LPFR",
      "alert": "OK",
      "vis_m": 9999,
      "fzfg": false,
      "metar_trigger": false,
      "taf_trigger": false,
      "metar": "METAR LPFR 151700Z 24009KT 9999 FEW016 SCT046 15/10 Q1018",
      "taf": "TAF LPFR 151700Z 1518/1618 24013KT 9999 SCT012 BKN025"
    },
    {
      "icao": "LPMA",
      "alert": "OK",
      "vis_m": 9999,
      "fzfg": false,
      "metar_trigger": false,
      "taf_trigger": false,
      "metar": "METAR LPMA 151700Z 18003KT 130V230 9999 FEW015 BKN025 17/11 Q1024",
      "taf": "TAF LPMA 151700Z 1518/1618 18005KT 9999 SCT012 BKN025"
    },
    {
      "icao": "LPPR",
      "alert": "OK",
      "vis_m": 9999,
      "fzfg": false,
      "metar_trigger": false,
      "taf_trigger": false,
      "metar": "METAR LPPR 151700Z 33007KT 9999 SCT017 12/10 Q1013",
      "taf": "TAF LPPR 151700Z 1518/1618 33012KT 9999 FEW015 SCT030"
    },
    {
      "icao": "LPPS",
      "alert": "OK",
      "vis_m": 9999,
      "fzfg": false,
      "metar_trigger": false,
      "taf_trigger": false,
      "metar": "METAR LPPS 151700Z 27012KT 9999 FEW015 BKN030 17/13 Q1023",
      "taf": "TAF LPPS 151700Z 1518/1624 27012KT 9999 SCT015 BKN030"
    },
    {
      "icao": "LPPT",
      "alert": "OK",
      "vis_m": 1500,
      "fzfg": false,
      "metar_trigger": false,
      "taf_trigger": false,
      "metar": "METAR LPPT 151700Z 21016KT 1500 0900SW R20/1400U RADZ BR FEW003 BKN004 FEW020CB 13/13 Q1014",
      "taf": "TAF LPPT 151700Z 1518/1624 22015KT 2000 RADZ BR SCT002 BKN004"
    },
    {
      "icao": "LQBK",
      "alert": "OK",
      "vis_m": 9999,
      "fzfg": false,
      "metar_trigger": false,
      "taf_trigger": false,
      "metar": "METAR LQBK 151700Z 15003KT CAVOK 04/03 Q1021 NOSIG",
      "taf": "TAF LQBK 151700Z 1518/1618 15005KT 9999 SCT047 TX08/1613Z TN02/1605Z"
    },
    {
      "icao": "LQSA",
      "alert": "OK",
      "vis_m": 8000,
      "fzfg": false,
      "metar_trigger": false,
      "taf_trigger": false,
      "metar": "METAR LQSA 151700Z VRB02KT 8000 BKN050 03/02 Q1023 NOSIG",
      "taf": "TAF LQSA 151700Z 1518/1618 VRB02KT 8000 FEW012 SCT050 TX04/1614Z TNM03/1605Z"
    },
    {
      "icao": "LQTZ",
      "alert": "OK",
      "vis_m": 8000,
      "fzfg": false,
      "metar_trigger": false,
      "taf_trigger": false,
      "metar": "METAR LQTZ 151700Z VRB02KT 8000 NSC 04/03 Q1022",
      "taf": "TAF LQTZ 151700Z 1518/1618 VRB02KT 6000 BKN050 TX09/1613Z TN00/1605Z"
    },
    {
      "icao": "LRBC",
      "alert": "OK",
      "vis_m": 7000,
      "fzfg": false,
      "metar_trigger": false,
      "taf_trigger": false,
      "metar": "METAR LRBC 151700Z 35003KT 7000 OVC013 M02/M06 Q1024",
      "taf": "TAF LRBC 151400Z 1515/1524 36006KT 8000 OVC015"
    },
    {
      "icao": "LRBS",
      "alert": "OK",
      "vis_m": 5000,
      "fzfg": false,
      "metar_trigger": false,
      "taf_trigger": false,
      "metar": "METAR LRBS 151700Z COR 05005KT 010V070 5000 BR NSC M01/M02 Q1024 NOSIG",
      "taf": ""
    },
    {
      "icao": "LRBV",
      "alert": "OK",
      "vis_m": 9999,
      "fzfg": false,
      "metar_trigger": false,
      "taf_trigger": false,
      "metar": "METAR LRBV 151700Z VRB07KT 9999 SCT018 BKN030 BKN040 01/01 Q1022",
      "taf": ""
    },
    {
      "icao": "LRCL",
      "alert": "OK",
      "vis_m": 2000,
      "fzfg": false,
      "metar_trigger": false,
      "taf_trigger": false,
      "metar": "METAR LRCL 151700Z COR 00000KT 2000 -DZ BR OVC015 01/M01 Q1023",
      "taf": "TAF LRCL 151400Z 1515/1524 VRB04KT 3000 BR OVC015"
    },
    {
      "icao": "LRCV",
      "alert": "OK",
      "vis_m": 9999,
      "fzfg": false,
      "metar_trigger": false,
      "taf_trigger": false,
      "metar": "METAR LRCV 151700Z 27008KT CAVOK 05/03 Q1021",
      "taf": "TAF LRCV 151400Z 1515/1524 29012KT CAVOK"
    },
    {
      "icao": "LRIA",
      "alert": "OK",
      "vis_m": 4000,
      "fzfg": false,
      "metar_trigger": false,
      "taf_trigger": false,
      "metar": "METAR LRIA 151700Z 36005KT 4000 -SN BKN025 OVC040 M05/M07 Q1025 RESN",
      "taf": "TAF LRIA 151400Z 1515/1524 VRB04KT 7000 BKN010"
    },
    {
      "icao": "LROP",
      "alert": "OK",
      "vis_m": 4000,
      "fzfg": false,
      "metar_trigger": false,
      "taf_trigger": false,
      "metar": "METAR LROP 151700Z 05008KT 4000 BR NSC M00/M02 Q1024 NOSIG",
      "taf": ""
    },
    {
      "icao": "LRSB",
      "alert": "OK",
      "vis_m": 1600,
      "fzfg": false,
      "metar_trigger": false,
      "taf_trigger": false,
      "metar": "METAR LRSB 151700Z VRB01KT 1600 BR FEW005 OVC007 02/02 Q1022",
      "taf": "TAF LRSB 151100Z 1512/1612 VRB04KT 5000 BR BKN010 OVC020"
    },
    {
      "icao": "LRSM",
      "alert": "OK",
      "vis_m": 5000,
      "fzfg": false,
      "metar_trigger": false,
      "taf_trigger": false,
      "metar": "METAR LRSM 151700Z 10003KT 060V120 5000 BR NSC 00/M01 Q1023",
      "taf": "TAF LRSM 151400Z 1515/1524 VRB04KT 5000 BR BKN005"
    },
    {
      "icao": "LRSV",
      "alert": "OK",
      "vis_m": 800,
      "fzfg": false,
      "metar_trigger": false,
      "taf_trigger": false,
      "metar": "METAR LRSV 151700Z 06005KT 0800 R34/1800D FG OVC002 M07/M07 Q1022",
      "taf": "TAF LRSV 151400Z 1515/1524 VRB04KT 1500 BR OVC005"
    },
    {
      "icao": "LRTM",
      "alert": "OK",
      "vis_m": 1900,
      "fzfg": false,
      "metar_trigger": false,
      "taf_trigger": false,
      "metar": "METAR LRTM 151700Z 24002KT 1900 BR SCT006 BKN015 OVC030 00/M00 Q1023",
      "taf": "TAF LRTM 151400Z 1515/1524 VRB04KT 3000 BR SCT010 BKN030"
    },
    {
      "icao": "LRTR",
      "alert": "OK",
      "vis_m": 4500,
      "fzfg": false,
      "metar_trigger": false,
      "taf_trigger": false,
      "metar": "METAR LRTR 151700Z 09007KT 4500 BR NSC 01/01 Q1022",
      "taf": "TAF LRTR 151100Z 1512/1612 VRB04KT 5000 BR BKN020"
    },
    {
      "icao": "LTAC",
      "alert": "OK",
      "vis_m": 9999,
      "fzfg": false,
      "metar_trigger": false,
      "taf_trigger": false,
      "metar": "METAR LTAC 151650Z 25010KT 9999 SCT030 BKN090 02/M01 Q1021 NOSIG RMK RWY21C 24010KT RWY03L 24007KT RWY21R 23009KT RWY03R 23008KT 200V260 RWY21L 24008KT",
      "taf": "TAF LTAC 151640Z 1518/1618 22008KT 9999 SCT035 BKN100"
    },
    {
      "icao": "LTFM",
      "alert": "OK",
      "vis_m": 9999,
      "fzfg": false,
      "metar_trigger": false,
      "taf_trigger": false,
      "metar": "METAR LTFM 151650Z 22014KT 9999 FEW025 BKN070 10/06 Q1022 NOSIG RMK RWY17L 21014KT RWY34L 21011KT RWY16R 22010KT RWY36 22009KT RWY18 22014KT",
      "taf": "TAF LTFM 151640Z 1518/1624 23012KT 9999 FEW025 BKN070"
    },
    {
      "icao": "LUKK",
      "alert": "OK",
      "vis_m": 9999,
      "fzfg": false,
      "metar_trigger": false,
      "taf_trigger": false,
      "metar": "METAR LUKK 151700Z 05009KT 9999 OVC047 M07/M10 Q1025 NOSIG",
      "taf": "TAF LUKK 151105Z 1512/1612 03008KT 9999 BKN012"
    },
    {
      "icao": "LWOH",
      "alert": "OK",
      "vis_m": 9999,
      "fzfg": false,
      "metar_trigger": false,
      "taf_trigger": false,
      "metar": "METAR LWOH 151650Z 03003KT 350V050 9999 FEW040 03/01 Q1024",
      "taf": "TAF LWOH 151420Z 1515/1615 VRB02KT 9999 FEW040"
    },
    {
      "icao": "LWSK",
      "alert": "OK",
      "vis_m": null,
      "fzfg": false,
      "metar_trigger": false,
      "taf_trigger": false,
      "metar": "",
      "taf": "TAF LWSK 151420Z 1515/1615 VRB02KT CAVOK"
    },
    {
      "icao": "LYBE",
      "alert": "OK",
      "vis_m": 6000,
      "fzfg": false,
      "metar_trigger": false,
      "taf_trigger": false,
      "metar": "METAR LYBE 151700Z 05002KT 6000 NSC 05/02 Q1022 NOSIG",
      "taf": "TAF LYBE 151100Z 1512/1612 18005KT 9999 SCT045 TX08/1513Z TN02/1606Z"
    },
    {
      "icao": "LYNI",
      "alert": "OK",
      "vis_m": 9999,
      "fzfg": false,
      "metar_trigger": false,
      "taf_trigger": false,
      "metar": "METAR LYNI 151700Z 11004KT 9999 FEW050 BKN070 07/04 Q1023 NOSIG",
      "taf": "TAF LYNI 151100Z 1512/1612 11004KT 9999 SCT060 TX10/1513Z TN00/1606Z"
    },
    {
      "icao": "LYPG",
      "alert": "OK",
      "vis_m": 9999,
      "fzfg": false,
      "metar_trigger": false,
      "taf_trigger": false,
      "metar": "METAR LYPG 151700Z 17003KT 9999 BKN070 08/05 Q1024 NOSIG",
      "taf": "TAF LYPG 151100Z 1512/1612 17005KT 9999 FEW040 BKN080 TX13/1513Z TN05/1605Z"
    },
    {
      "icao": "LZIB",
      "alert": "OK",
      "vis_m": 4200,
      "fzfg": false,
      "metar_trigger": false,
      "taf_trigger": false,
      "metar": "METAR LZIB 151700Z 03005KT 4200 BR SCT011 BKN015 M01/M02 Q1021 NOSIG",
      "taf": "TAF LZIB 151715Z 1518/1618 06006KT 6000 FEW007 BKN016"
    },
    {
      "icao": "LZKZ",
      "alert": "OK",
      "vis_m": 7000,
      "fzfg": false,
      "metar_trigger": false,
      "taf_trigger": false,
      "metar": "METAR LZKZ 151700Z 34003KT 7000 BKN027 OVC040 M01/M02 Q1022 NOSIG",
      "taf": "TAF LZKZ 151715Z 1518/1618 VRB02KT 9999 BKN022"
    },
    {
      "icao": "LZTT",
      "alert": "OK",
      "vis_m": 8000,
      "fzfg": false,
      "metar_trigger": false,
      "taf_trigger": false,
      "metar": "METAR LZTT 151700Z 00000KT 8000 SCT010 OVC025 00/M01 Q1019 NOSIG",
      "taf": "TAF LZTT 151715Z 1518/1618 VRB02KT 9999 SCT010 OVC025"
    },
    {
      "icao": "OEJN",
      "alert": "OK",
      "vis_m": 9999,
      "fzfg": false,
      "metar_trigger": false,
      "taf_trigger": false,
      "metar": "METAR OEJN 151700Z 33009KT 9999 FEW040 25/09 Q1015 NOSIG",
      "taf": "TAF OEJN 151100Z 1512/1618 33014KT 9999 FEW040"
    },
    {
      "icao": "OEMA",
      "alert": "OK",
      "vis_m": 9999,
      "fzfg": false,
      "metar_trigger": false,
      "taf_trigger": false,
      "metar": "METAR OEMA 151700Z 07008KT CAVOK 20/M04 Q1022 NOSIG",
      "taf": "TAF OEMA 151100Z 1512/1618 08012KT 7000 NSC"
    },
    {
      "icao": "OJAI",
      "alert": "OK",
      "vis_m": 5000,
      "fzfg": false,
      "metar_trigger": false,
      "taf_trigger": false,
      "metar": "METAR OJAI 151700Z 28002KT 5000 BR NSC 06/04 Q1025 NOSIG",
      "taf": "TAF OJAI 151653Z 1518/1624 29008KT 5000 HZ FEW030"
    },
    {
      "icao": "OMAA",
      "alert": "OK",
      "vis_m": 9999,
      "fzfg": false,
      "metar_trigger": false,
      "taf_trigger": false,
      "metar": "METAR OMAA 151700Z 30012KT CAVOK 22/15 Q1018 NOSIG",
      "taf": "TAF OMAA 151700Z 1518/1700 32012KT 8000 FEW030"
    },
    {
      "icao": "OMDB",
      "alert": "OK",
      "vis_m": 9999,
      "fzfg": false,
      "metar_trigger": false,
      "taf_trigger": false,
      "metar": "METAR OMDB 151700Z 30017KT 9999 SCT030 23/16 Q1017 NOSIG",
      "taf": "TAF OMDB 151700Z 1518/1700 29015KT 8000 FEW025"
    },
    {
      "icao": "UAAA",
      "alert": "OK",
      "vis_m": 3000,
      "fzfg": false,
      "metar_trigger": false,
      "taf_trigger": false,
      "metar": "METAR UAAA 151700Z VRB01MPS 3000 BR OVC004 M07/M08 Q1021 NOSIG RMK QBB120",
      "taf": "TAF UAAA 151110Z 1512/1612 34003G08MPS 1600 BR FU BKN011CB OVC020 TXM07/1608Z TNM10/1603Z"
    },
    {
      "icao": "UBBB",
      "alert": "OK",
      "vis_m": 9999,
      "fzfg": false,
      "metar_trigger": false,
      "taf_trigger": false,
      "metar": "METAR UBBB 151700Z 00000KT CAVOK 02/M02 Q1024 NOSIG",
      "taf": "TAF UBBB 151701Z 1518/1618 VRB04KT CAVOK TX07/1512Z TNM01/1602Z"
    },
    {
      "icao": "UDSG",
      "alert": "OK",
      "vis_m": 9999,
      "fzfg": false,
      "metar_trigger": false,
      "taf_trigger": false,
      "metar": "METAR UDSG 151700Z 07004KT 9999 NSC M19/M22 Q1020 NOSIG",
      "taf": "TAF UDSG 151058Z 1512/1612 VRB06KT 9999 FEW040"
    },
    {
      "icao": "UDYZ",
      "alert": "OK",
      "vis_m": 9999,
      "fzfg": false,
      "metar_trigger": false,
      "taf_trigger": false,
      "metar": "METAR UDYZ 151700Z VRB01KT 9999 NSC M05/M08 Q1021 NOSIG",
      "taf": "TAF UDYZ 151100Z 1512/1612 VRB06KT 6000 FEW040"
    },
    {
      "icao": "UGKO",
      "alert": "OK",
      "vis_m": 9999,
      "fzfg": false,
      "metar_trigger": false,
      "taf_trigger": false,
      "metar": "METAR UGKO 151700Z 09006KT CAVOK M01/M02 Q1023 NOSIG",
      "taf": "TAF UGKO 151700Z 1518/1618 08007KT 9999 BKN050 TX02/1612Z TNM01/1518Z"
    }
  ]
}