{
  "ts_utc": "2026-03-13T13:20:59Z",
  "threshold_m": 150,
  "source": "stations_override.txt (ICAO list) + aviationweather.gov (METAR/TAF raw)",
  "station_count": 159,
  "stations": [
    {
      "icao": "BIKF",
      "alert": "OK",
      "vis_m": 9999,
      "fzfg": false,
      "metar_trigger": false,
      "taf_trigger": false,
      "metar": "METAR BIKF 131300Z 31016KT 9999 SCT024 03/M02 Q0980",
      "taf": "TAF BIKF 131030Z 1312/1412 32018KT 9999 BKN030 TX04/1412Z TNM01/1322Z"
    },
    {
      "icao": "BKPR",
      "alert": "OK",
      "vis_m": 9999,
      "fzfg": false,
      "metar_trigger": false,
      "taf_trigger": false,
      "metar": "METAR BKPR 131300Z 08003KT 050V170 9999 FEW050 17/00 Q1016 NOSIG",
      "taf": "TAF BKPR 131130Z 1312/1412 VRB03KT 9999 FEW040"
    },
    {
      "icao": "EBCI",
      "alert": "OK",
      "vis_m": 6000,
      "fzfg": false,
      "metar_trigger": false,
      "taf_trigger": false,
      "metar": "METAR EBCI 131250Z 26009KT 240V300 6000 RA FEW010 BKN015 BKN021 06/04 Q1005 TEMPO 4500 RA",
      "taf": "TAF EBCI 131120Z 1312/1418 27010KT 9999 SCT020 BKN030"
    },
    {
      "icao": "EDDB",
      "alert": "OK",
      "vis_m": 9999,
      "fzfg": false,
      "metar_trigger": false,
      "taf_trigger": false,
      "metar": "METAR EDDB 131250Z AUTO 20020KT CAVOK 15/03 Q1007 TEMPO 21020G30KT",
      "taf": "TAF EDDB 131100Z 1312/1412 20015G25KT CAVOK"
    },
    {
      "icao": "EDDH",
      "alert": "OK",
      "vis_m": 3600,
      "fzfg": false,
      "metar_trigger": false,
      "taf_trigger": false,
      "metar": "METAR EDDH 131250Z AUTO 21013KT 3600 -SHRA BR FEW008 BKN021 OVC028 FEW///TCU 10/09 Q1002 TEMPO 28010G30KT 8000 RA BKN014",
      "taf": "TAF EDDH 131100Z 1312/1418 20020G30KT 9999 BKN025"
    },
    {
      "icao": "EDDK",
      "alert": "OK",
      "vis_m": 9999,
      "fzfg": false,
      "metar_trigger": false,
      "taf_trigger": false,
      "metar": "METAR EDDK 131250Z AUTO 19015KT 9999 SHRA FEW027 SCT041 SCT///TCU 11/07 Q1005 TEMPO 19015G25KT NSW",
      "taf": "TAF EDDK 131100Z 1312/1418 19015G25KT 9999 OVC025"
    },
    {
      "icao": "EDDN",
      "alert": "OK",
      "vis_m": 9999,
      "fzfg": false,
      "metar_trigger": false,
      "taf_trigger": false,
      "metar": "METAR EDDN 131250Z AUTO 22011KT 170V260 CAVOK 13/03 Q1010 NOSIG",
      "taf": "TAF EDDN 131100Z 1312/1412 19010KT CAVOK"
    },
    {
      "icao": "EDDS",
      "alert": "OK",
      "vis_m": 9999,
      "fzfg": false,
      "metar_trigger": false,
      "taf_trigger": false,
      "metar": "METAR EDDS 131250Z AUTO 22006KT 150V270 CAVOK 15/03 Q1010 NOSIG",
      "taf": "TAF EDDS 131100Z 1312/1412 20007KT CAVOK"
    },
    {
      "icao": "EDFH",
      "alert": "OK",
      "vis_m": 9999,
      "fzfg": false,
      "metar_trigger": false,
      "taf_trigger": false,
      "metar": "METAR EDFH 131250Z 20016KT 9999 -RA FEW008 BKN018 09/05 Q1007",
      "taf": "TAF EDFH 131100Z 1312/1412 21015G25KT 9999 BKN015"
    },
    {
      "icao": "EDJA",
      "alert": "OK",
      "vis_m": 9999,
      "fzfg": false,
      "metar_trigger": false,
      "taf_trigger": false,
      "metar": "METAR EDJA 131250Z 24012KT CAVOK 14/M02 Q1012",
      "taf": "TAF EDJA 131100Z 1312/1321 23012KT CAVOK"
    },
    {
      "icao": "EDLW",
      "alert": "OK",
      "vis_m": 9000,
      "fzfg": false,
      "metar_trigger": false,
      "taf_trigger": false,
      "metar": "METAR EDLW 131250Z 18016KT 9000 -RA FEW017 BKN034 OVC045 10/07 Q1003",
      "taf": "TAF EDLW 131100Z 1312/1412 20015KT 9999 OVC025"
    },
    {
      "icao": "EDNY",
      "alert": "OK",
      "vis_m": 9999,
      "fzfg": false,
      "metar_trigger": false,
      "taf_trigger": false,
      "metar": "METAR EDNY 131250Z COR 22006KT 190V250 CAVOK 13/04 Q1012",
      "taf": "TAF EDNY 131100Z 1312/1321 24006KT CAVOK"
    },
    {
      "icao": "EDSB",
      "alert": "OK",
      "vis_m": 9999,
      "fzfg": false,
      "metar_trigger": false,
      "taf_trigger": false,
      "metar": "METAR EDSB 131250Z 20018KT CAVOK 15/04 Q1010",
      "taf": "TAF EDSB 131100Z 1312/1412 20015G25KT CAVOK"
    },
    {
      "icao": "EETN",
      "alert": "OK",
      "vis_m": 9999,
      "fzfg": false,
      "metar_trigger": false,
      "taf_trigger": false,
      "metar": "METAR EETN 131250Z 21018G28KT CAVOK 11/01 Q1010 TEMPO 21020G32KT",
      "taf": "TAF EETN 131130Z 1312/1412 18016G26KT CAVOK"
    },
    {
      "icao": "EFTU",
      "alert": "OK",
      "vis_m": 9999,
      "fzfg": false,
      "metar_trigger": false,
      "taf_trigger": false,
      "metar": "METAR EFTU 131250Z AUTO 20017G27KT 160V230 CAVOK 06/01 Q1004",
      "taf": "TAF EFTU 131127Z 1312/1412 19017KT CAVOK"
    },
    {
      "icao": "EGBB",
      "alert": "OK",
      "vis_m": 9999,
      "fzfg": false,
      "metar_trigger": false,
      "taf_trigger": false,
      "metar": "METAR EGBB 131250Z 24014KT 190V270 9999 BKN046 09/M01 Q0998",
      "taf": "TAF EGBB 131058Z 1312/1412 22010KT 9999 FEW045"
    },
    {
      "icao": "EGGP",
      "alert": "OK",
      "vis_m": 9999,
      "fzfg": false,
      "metar_trigger": false,
      "taf_trigger": false,
      "metar": "METAR EGGP 131250Z 23015KT 9999 BKN041 07/01 Q0996",
      "taf": "TAF EGGP 131102Z 1312/1412 24016KT 9999 SCT030"
    },
    {
      "icao": "EGGW",
      "alert": "OK",
      "vis_m": 9999,
      "fzfg": false,
      "metar_trigger": false,
      "taf_trigger": false,
      "metar": "METAR EGGW 131250Z AUTO 24016KT 210V270 9999 SCT035 08/01 Q1000",
      "taf": "TAF EGGW 131053Z 1312/1412 23013KT 9999 SCT023"
    },
    {
      "icao": "EGKK",
      "alert": "OK",
      "vis_m": 9999,
      "fzfg": false,
      "metar_trigger": false,
      "taf_trigger": false,
      "metar": "METAR EGKK 131250Z 24013KT 9999 FEW045 09/M01 Q1002",
      "taf": "TAF EGKK 131056Z 1312/1418 25010KT 9999 FEW035"
    },
    {
      "icao": "EGNM",
      "alert": "OK",
      "vis_m": 9999,
      "fzfg": false,
      "metar_trigger": false,
      "taf_trigger": false,
      "metar": "METAR EGNM 131250Z 23013KT 200V260 9999 SCT023 SCT025 06/01 Q0994",
      "taf": "TAF EGNM 131200Z 1312/1412 24025G37KT 9999 SCT025"
    },
    {
      "icao": "EGPD",
      "alert": "OK",
      "vis_m": 9999,
      "fzfg": false,
      "metar_trigger": false,
      "taf_trigger": false,
      "metar": "METAR EGPD 131250Z COR AUTO 24013KT 200V280 9999 SCT043 09/M00 Q0984 NOSIG",
      "taf": "TAF EGPD 131058Z 1312/1412 24012KT 9999 FEW035"
    },
    {
      "icao": "EGPF",
      "alert": "OK",
      "vis_m": 9999,
      "fzfg": false,
      "metar_trigger": false,
      "taf_trigger": false,
      "metar": "METAR EGPF 131250Z AUTO 23019KT 9999 //////CB 06/03 Q0989",
      "taf": "TAF EGPF 131058Z 1312/1412 23014KT 9999 FEW014 SCT030"
    },
    {
      "icao": "EHBK",
      "alert": "OK",
      "vis_m": 9999,
      "fzfg": false,
      "metar_trigger": false,
      "taf_trigger": false,
      "metar": "METAR EHBK 131255Z AUTO 28006KT 220V330 9999 -RA FEW008 BKN021 OVC024 08/06 Q1005 REDZRA TEMPO 6000 RADZ",
      "taf": "TAF EHBK 131059Z 1312/1418 27016KT 7000 RADZ BKN018"
    },
    {
      "icao": "EHEH",
      "alert": "OK",
      "vis_m": 9999,
      "fzfg": false,
      "metar_trigger": false,
      "taf_trigger": false,
      "metar": "METAR EHEH 131255Z AUTO 24009G20KT 210V290 9999 DZ SCT016 BKN019 BKN023 07/05 Q1004 WHT TEMPO SCT015 RMK TREND REMOTE BY EHWX",
      "taf": ""
    },
    {
      "icao": "EKBI",
      "alert": "OK",
      "vis_m": 9999,
      "fzfg": false,
      "metar_trigger": false,
      "taf_trigger": false,
      "metar": "METAR EKBI 131250Z AUTO 23015G26KT 9999 BKN017/// BKN076/// 07/04 Q0998",
      "taf": ""
    },
    {
      "icao": "EKCH",
      "alert": "OK",
      "vis_m": 9999,
      "fzfg": false,
      "metar_trigger": false,
      "taf_trigger": false,
      "metar": "METAR EKCH 131250Z AUTO 18016KT 9999 SCT030/// SCT034/// OVC047/// 07/03 Q1001 TEMPO 17020G30KT",
      "taf": "TAF EKCH 131127Z 1312/1412 18015KT 9999 BKN040"
    },
    {
      "icao": "ENAL",
      "alert": "OK",
      "vis_m": 9999,
      "fzfg": false,
      "metar_trigger": false,
      "taf_trigger": false,
      "metar": "METAR ENAL 131250Z 17008KT 9999 FEW047 SCT058 05/01 Q0977",
      "taf": "TAF ENAL 131100Z 1312/1321 16012KT 9999 -SHRA FEW015TCU BKN030"
    },
    {
      "icao": "ENBR",
      "alert": "OK",
      "vis_m": 9999,
      "fzfg": false,
      "metar_trigger": false,
      "taf_trigger": false,
      "metar": "METAR ENBR 131250Z 17022KT 9999 -SHRA SCT007 SCT014CB BKN018 02/01 Q0981 TEMPO 19018G28KT 3000 SHRASN BKN007 SCT015CB RMK WIND 1200FT 19023KT",
      "taf": "TAF ENBR 131100Z 1312/1412 16015KT 9999 -SHRA SCT007 BKN018"
    },
    {
      "icao": "ENGM",
      "alert": "OK",
      "vis_m": 9999,
      "fzfg": false,
      "metar_trigger": false,
      "taf_trigger": false,
      "metar": "METAR ENGM 131250Z 19025KT 9999 BKN011 04/02 Q0982 TEMPO 20015G25KT BKN015",
      "taf": "TAF ENGM 131100Z 1312/1412 18015KT 9999 BKN012"
    },
    {
      "icao": "ENHD",
      "alert": "OK",
      "vis_m": 8000,
      "fzfg": false,
      "metar_trigger": false,
      "taf_trigger": false,
      "metar": "METAR ENHD 131250Z AUTO 21024KT 8000 RA FEW021/// BKN030/// BKN044/// 05/02 Q0983 RERA REDZ REDZRA",
      "taf": "TAF ENHD 131100Z 1312/1321 18015KT 9999 -SHRA FEW015TCU BKN030"
    },
    {
      "icao": "ENTC",
      "alert": "OK",
      "vis_m": 9999,
      "fzfg": false,
      "metar_trigger": false,
      "taf_trigger": false,
      "metar": "METAR ENTC 131250Z 20010KT 9999 FEW019 BKN036 04/01 Q0983 NOSIG RMK WIND 2600FT 19012KT",
      "taf": "TAF ENTC 131100Z 1312/1412 20008KT 9999 FEW015 SCT030"
    },
    {
      "icao": "ENTO",
      "alert": "OK",
      "vis_m": 9999,
      "fzfg": false,
      "metar_trigger": false,
      "taf_trigger": false,
      "metar": "METAR ENTO 131250Z 21026G37KT 9999 FEW009 BKN012 05/03 Q0986 TEMPO 20015G25KT BKN015",
      "taf": ""
    },
    {
      "icao": "ENVA",
      "alert": "OK",
      "vis_m": 9999,
      "fzfg": false,
      "metar_trigger": false,
      "taf_trigger": false,
      "metar": "METAR ENVA 131250Z 14005KT 9999 SCT045 09/00 Q0978 TEMPO 24010KT 4000 SHRA BKN012 SCT030CB RMK WIND 670FT 15015KT",
      "taf": "TAF ENVA 131100Z 1312/1412 16012KT 9999 SCT060"
    },
    {
      "icao": "ENZV",
      "alert": "OK",
      "vis_m": 4900,
      "fzfg": false,
      "metar_trigger": false,
      "taf_trigger": false,
      "metar": "METAR ENZV 131250Z 23012KT 4900 SHRASN FEW007 BKN015 03/01 Q0985 TEMPO 20018G28KT 3000 SHRASN BKN007 SCT015CB",
      "taf": "TAF ENZV 131100Z 1312/1412 19015KT 9000 -SHRA SCT015 BKN030"
    },
    {
      "icao": "EPGD",
      "alert": "OK",
      "vis_m": 9999,
      "fzfg": false,
      "metar_trigger": false,
      "taf_trigger": false,
      "metar": "METAR EPGD 131300Z 18017KT CAVOK 14/01 Q1009",
      "taf": "TAF EPGD 131130Z 1312/1412 18015KT CAVOK"
    },
    {
      "icao": "EPKK",
      "alert": "OK",
      "vis_m": 9999,
      "fzfg": false,
      "metar_trigger": false,
      "taf_trigger": false,
      "metar": "METAR EPKK 131300Z 25005KT 180V290 9999 SCT057 17/04 Q1015",
      "taf": "TAF EPKK 131130Z 1312/1412 23006KT CAVOK"
    },
    {
      "icao": "EPKT",
      "alert": "OK",
      "vis_m": 9999,
      "fzfg": false,
      "metar_trigger": false,
      "taf_trigger": false,
      "metar": "METAR EPKT 131300Z 20011KT 9999 SCT047 15/04 Q1015",
      "taf": "TAF EPKT 131130Z 1312/1412 21010KT CAVOK"
    },
    {
      "icao": "EPLB",
      "alert": "OK",
      "vis_m": 9999,
      "fzfg": false,
      "metar_trigger": false,
      "taf_trigger": false,
      "metar": "METAR EPLB 131300Z 17008KT CAVOK 17/06 Q1016",
      "taf": "TAF EPLB 131130Z 1312/1412 17010KT CAVOK"
    },
    {
      "icao": "EPMO",
      "alert": "OK",
      "vis_m": 9999,
      "fzfg": false,
      "metar_trigger": false,
      "taf_trigger": false,
      "metar": "METAR EPMO 131300Z 19013KT 160V230 CAVOK 17/05 Q1014",
      "taf": "TAF EPMO 131130Z 1312/1412 17010KT CAVOK"
    },
    {
      "icao": "EPPO",
      "alert": "OK",
      "vis_m": 9999,
      "fzfg": false,
      "metar_trigger": false,
      "taf_trigger": false,
      "metar": "METAR EPPO 131300Z 20014KT CAVOK 16/02 Q1010",
      "taf": "TAF EPPO 131130Z 1312/1412 18012KT CAVOK"
    },
    {
      "icao": "EPRA",
      "alert": "OK",
      "vis_m": 9999,
      "fzfg": false,
      "metar_trigger": false,
      "taf_trigger": false,
      "metar": "METAR EPRA 131300Z 18008KT 140V210 9999 SCT049 17/04 Q1015",
      "taf": "TAF EPRA 131130Z 1312/1321 16010KT 9999 SCT040"
    },
    {
      "icao": "EPRZ",
      "alert": "OK",
      "vis_m": 9999,
      "fzfg": false,
      "metar_trigger": false,
      "taf_trigger": false,
      "metar": "METAR EPRZ 131300Z 19013KT 150V210 CAVOK 18/03 Q1016",
      "taf": "TAF EPRZ 131130Z 1312/1412 18010KT CAVOK"
    },
    {
      "icao": "EPSC",
      "alert": "OK",
      "vis_m": 9999,
      "fzfg": false,
      "metar_trigger": false,
      "taf_trigger": false,
      "metar": "METAR EPSC 131300Z 18015KT CAVOK 15/01 Q1006",
      "taf": "TAF EPSC 131130Z 1312/1412 18015KT CAVOK"
    },
    {
      "icao": "EPSY",
      "alert": "OK",
      "vis_m": 9999,
      "fzfg": false,
      "metar_trigger": false,
      "taf_trigger": false,
      "metar": "METAR EPSY 131300Z 19013KT 9999 SCT033 15/06 Q1014",
      "taf": "TAF EPSY 131130Z 1312/1321 20016KT 9999 SCT040"
    },
    {
      "icao": "EPWA",
      "alert": "OK",
      "vis_m": 9999,
      "fzfg": false,
      "metar_trigger": false,
      "taf_trigger": false,
      "metar": "METAR EPWA 131300Z 17010KT CAVOK 17/06 Q1015 NOSIG",
      "taf": "TAF EPWA 131130Z 1312/1412 17010KT CAVOK"
    },
    {
      "icao": "EPWR",
      "alert": "OK",
      "vis_m": 9999,
      "fzfg": false,
      "metar_trigger": false,
      "taf_trigger": false,
      "metar": "METAR EPWR 131300Z 19013KT 150V230 CAVOK 17/05 Q1012",
      "taf": "TAF EPWR 131130Z 1312/1412 17012KT CAVOK"
    },
    {
      "icao": "ESGG",
      "alert": "OK",
      "vis_m": 9999,
      "fzfg": false,
      "metar_trigger": false,
      "taf_trigger": false,
      "metar": "METAR ESGG 131250Z 21023KT 9999 BKN008 OVC041 05/04 Q0995",
      "taf": "TAF ESGG 131130Z 1312/1412 19028G40KT 9999 SCT006 OVC015"
    },
    {
      "icao": "ESKN",
      "alert": "OK",
      "vis_m": 9999,
      "fzfg": false,
      "metar_trigger": false,
      "taf_trigger": false,
      "metar": "METAR ESKN 131250Z 16013KT 130V190 CAVOK 07/03 Q0997",
      "taf": "TAF ESKN 131130Z 1312/1412 15014G27KT CAVOK"
    },
    {
      "icao": "ESMS",
      "alert": "OK",
      "vis_m": 9999,
      "fzfg": false,
      "metar_trigger": false,
      "taf_trigger": false,
      "metar": "METAR ESMS 131250Z 20014KT 9999 BKN029 08/04 Q1001",
      "taf": "TAF ESMS 131127Z 1312/1412 18015KT 9999 SCT040"
    },
    {
      "icao": "ESSA",
      "alert": "OK",
      "vis_m": 9999,
      "fzfg": false,
      "metar_trigger": false,
      "taf_trigger": false,
      "metar": "METAR ESSA 131250Z 17027KT CAVOK 07/02 Q0996 NOSIG",
      "taf": "TAF ESSA 131130Z 1312/1412 18025G38KT CAVOK"
    },
    {
      "icao": "EYKA",
      "alert": "OK",
      "vis_m": 9999,
      "fzfg": false,
      "metar_trigger": false,
      "taf_trigger": false,
      "metar": "METAR EYKA 131250Z 20008KT 160V250 CAVOK 15/06 Q1015",
      "taf": "TAF EYKA 131100Z 1312/1412 VRB05KT 9000 NSC"
    },
    {
      "icao": "EYPA",
      "alert": "OK",
      "vis_m": 9999,
      "fzfg": false,
      "metar_trigger": false,
      "taf_trigger": false,
      "metar": "METAR EYPA 131250Z 19020KT CAVOK 13/04 Q1011",
      "taf": "TAF EYPA 131100Z 1312/1412 19019KT 9000 NSC"
    },
    {
      "icao": "EYVI",
      "alert": "OK",
      "vis_m": 9999,
      "fzfg": false,
      "metar_trigger": false,
      "taf_trigger": false,
      "metar": "METAR EYVI 131250Z 17012KT CAVOK 16/05 Q1017 NOSIG",
      "taf": "TAF EYVI 131102Z 1312/1412 17012KT 9000 NSC"
    },
    {
      "icao": "GCFV",
      "alert": "OK",
      "vis_m": 9999,
      "fzfg": false,
      "metar_trigger": false,
      "taf_trigger": false,
      "metar": "METAR GCFV 131300Z 02014KT 9999 FEW010 20/15 Q1020",
      "taf": "TAF GCFV 130800Z 1309/1409 03015KT CAVOK TX22/1314Z TN16/1406Z"
    },
    {
      "icao": "GCLP",
      "alert": "OK",
      "vis_m": 9999,
      "fzfg": false,
      "metar_trigger": false,
      "taf_trigger": false,
      "metar": "METAR GCLP 131300Z 01017KT 350V050 9999 FEW025 22/14 Q1019 NOSIG",
      "taf": "TAF GCLP 130800Z 1309/1409 01018KT 9999 FEW025 TX21/1314Z TN15/1406Z"
    },
    {
      "icao": "GCTS",
      "alert": "OK",
      "vis_m": 9999,
      "fzfg": false,
      "metar_trigger": false,
      "taf_trigger": false,
      "metar": "METAR GCTS 131300Z 06023KT CAVOK 25/06 Q1019 NOSIG",
      "taf": "TAF GCTS 130800Z 1309/1409 07022KT 9999 FEW025 TX22/1314Z TN16/1406Z"
    },
    {
      "icao": "GMAD",
      "alert": "OK",
      "vis_m": 9999,
      "fzfg": false,
      "metar_trigger": false,
      "taf_trigger": false,
      "metar": "METAR GMAD 131300Z 24005KT 160V280 CAVOK 28/07 Q1018 NOSIG",
      "taf": "TAF GMAD 131100Z 1312/1418 26010KT CAVOK"
    },
    {
      "icao": "GMMN",
      "alert": "OK",
      "vis_m": 9999,
      "fzfg": false,
      "metar_trigger": false,
      "taf_trigger": false,
      "metar": "METAR GMMN 131300Z 32007KT 250V010 9999 SCT020 20/16 Q1020 NOSIG",
      "taf": "TAF GMMN 131100Z 1312/1418 24004KT 5000 BKN010"
    },
    {
      "icao": "GMMX",
      "alert": "OK",
      "vis_m": 9999,
      "fzfg": false,
      "metar_trigger": false,
      "taf_trigger": false,
      "metar": "METAR GMMX 131300Z VRB03KT 9999 FEW026 23/09 Q1019 NOSIG",
      "taf": "TAF GMMX 131100Z 1312/1418 04006KT 8000 NSC"
    },
    {
      "icao": "HEGN",
      "alert": "OK",
      "vis_m": 9999,
      "fzfg": false,
      "metar_trigger": false,
      "taf_trigger": false,
      "metar": "METAR HEGN 131200Z 13007KT 9999 SCT020 BKN025 23/15 Q1009 NOSIG",
      "taf": "TAF HEGN 131100Z 1312/1418 11015KT 6000 SCT025"
    },
    {
      "icao": "HEMA",
      "alert": "OK",
      "vis_m": 9999,
      "fzfg": false,
      "metar_trigger": false,
      "taf_trigger": false,
      "metar": "METAR HEMA 131200Z 04008KT CAVOK 25/11 Q1010 NOSIG",
      "taf": "TAF HEMA 131100Z 1312/1418 10015KT 6000 SCT025"
    },
    {
      "icao": "HESH",
      "alert": "OK",
      "vis_m": 9999,
      "fzfg": false,
      "metar_trigger": false,
      "taf_trigger": false,
      "metar": "METAR HESH 131200Z 06004KT CAVOK 27/08 Q1010 NOSIG",
      "taf": "TAF HESH 131100Z 1312/1418 15015KT 6000 SCT025"
    },
    {
      "icao": "HESX",
      "alert": "OK",
      "vis_m": 6000,
      "fzfg": false,
      "metar_trigger": false,
      "taf_trigger": false,
      "metar": "METAR HESX 131200Z 07020KT 6000 FEW025 BKN100 20/10 Q1007 NOSIG",
      "taf": "TAF HESX 131106Z 1312/1418 08018G28KT 6000 BKN025"
    },
    {
      "icao": "LATI",
      "alert": "OK",
      "vis_m": 9999,
      "fzfg": false,
      "metar_trigger": false,
      "taf_trigger": false,
      "metar": "METAR LATI 131320Z 28007KT 230V340 9999 FEW055 19/07 Q1015 NOSIG",
      "taf": "TAF LATI 131100Z 1312/1412 32008KT CAVOK TX20/1312Z TN04/1405Z"
    },
    {
      "icao": "LBPD",
      "alert": "OK",
      "vis_m": 9999,
      "fzfg": false,
      "metar_trigger": false,
      "taf_trigger": false,
      "metar": "METAR LBPD 131300Z AUTO VRB04KT 9999 NCD 13/M01 Q1020 NOSIG",
      "taf": "TAF LBPD 131100Z 1312/1412 VRB04KT CAVOK"
    },
    {
      "icao": "LBSF",
      "alert": "OK",
      "vis_m": 9999,
      "fzfg": false,
      "metar_trigger": false,
      "taf_trigger": false,
      "metar": "METAR LBSF 131300Z 13013KT CAVOK 14/M06 Q1018 NOSIG",
      "taf": "TAF LBSF 131100Z 1312/1412 11010KT CAVOK"
    },
    {
      "icao": "LBWN",
      "alert": "OK",
      "vis_m": 9999,
      "fzfg": false,
      "metar_trigger": false,
      "taf_trigger": false,
      "metar": "METAR LBWN 131300Z 12012KT CAVOK 10/05 Q1020 NOSIG",
      "taf": "TAF LBWN 131100Z 1312/1412 12010KT CAVOK"
    },
    {
      "icao": "LCLK",
      "alert": "OK",
      "vis_m": 9999,
      "fzfg": false,
      "metar_trigger": false,
      "taf_trigger": false,
      "metar": "METAR LCLK 131300Z 11011KT 9999 FEW030 21/11 Q1013 NOSIG",
      "taf": "TAF LCLK 131130Z 1312/1412 08014KT 9999 FEW025"
    },
    {
      "icao": "LCPH",
      "alert": "OK",
      "vis_m": 9999,
      "fzfg": false,
      "metar_trigger": false,
      "taf_trigger": false,
      "metar": "METAR LCPH 131300Z 24006KT 170V260 9999 FEW030 SCT040 21/11 Q1013 NOSIG",
      "taf": "TAF LCPH 131130Z 1312/1412 22006KT 9999 FEW020"
    },
    {
      "icao": "LEAL",
      "alert": "OK",
      "vis_m": 9999,
      "fzfg": false,
      "metar_trigger": false,
      "taf_trigger": false,
      "metar": "METAR LEAL 131300Z 19008KT 140V230 9999 FEW013 23/11 Q1017 NOSIG",
      "taf": "TAF LEAL 131100Z 1312/1412 VRB04KT CAVOK TX23/1312Z TN12/1406Z"
    },
    {
      "icao": "LEBB",
      "alert": "OK",
      "vis_m": 9999,
      "fzfg": false,
      "metar_trigger": false,
      "taf_trigger": false,
      "metar": "METAR LEBB 131300Z COR 32006KT 270V360 9999 FEW045 20/08 Q1014 NOSIG",
      "taf": "TAF LEBB 131100Z 1312/1412 32009KT 9999 FEW040 TX20/1313Z TN07/1407Z"
    },
    {
      "icao": "LEBL",
      "alert": "OK",
      "vis_m": 9999,
      "fzfg": false,
      "metar_trigger": false,
      "taf_trigger": false,
      "metar": "METAR LEBL 131300Z 19008KT 130V210 9999 FEW018 15/11 Q1017 NOSIG",
      "taf": "TAF LEBL 131100Z 1312/1412 17006KT 9999 SCT015 TX17/1313Z TN08/1406Z"
    },
    {
      "icao": "LECH",
      "alert": "OK",
      "vis_m": 9999,
      "fzfg": false,
      "metar_trigger": false,
      "taf_trigger": false,
      "metar": "METAR LECH 131300Z AUTO 13007KT 070V160 CAVOK 18/11 Q1017",
      "taf": ""
    },
    {
      "icao": "LEMD",
      "alert": "OK",
      "vis_m": 9999,
      "fzfg": false,
      "metar_trigger": false,
      "taf_trigger": false,
      "metar": "METAR LEMD 131300Z 18006KT 110V250 9999 FEW030 18/08 Q1019 NOSIG",
      "taf": "TAF LEMD 131100Z 1312/1418 27008KT CAVOK TX19/1315Z TN09/1407Z"
    },
    {
      "icao": "LEMG",
      "alert": "OK",
      "vis_m": 9999,
      "fzfg": false,
      "metar_trigger": false,
      "taf_trigger": false,
      "metar": "METAR LEMG 131300Z 16006KT 110V190 9999 FEW030 19/11 Q1020 NOSIG",
      "taf": "TAF LEMG 131100Z 1312/1412 14010KT CAVOK TX19/1315Z TN10/1407Z"
    },
    {
      "icao": "LEVC",
      "alert": "OK",
      "vis_m": 9999,
      "fzfg": false,
      "metar_trigger": false,
      "taf_trigger": false,
      "metar": "METAR LEVC 131300Z 12008KT 090V150 9999 FEW050 22/10 Q1016 NOSIG",
      "taf": "TAF LEVC 131100Z 1312/1412 11010KT CAVOK TX23/1314Z TN11/1406Z"
    },
    {
      "icao": "LEXJ",
      "alert": "OK",
      "vis_m": 9999,
      "fzfg": false,
      "metar_trigger": false,
      "taf_trigger": false,
      "metar": "METAR LEXJ 131300Z 06003KT 350V130 9999 FEW085 16/07 Q1015",
      "taf": "TAF LEXJ 130800Z 1309/1409 20009KT 9999 SCT035 TX19/1311Z TN08/1408Z"
    },
    {
      "icao": "LEZG",
      "alert": "OK",
      "vis_m": 9999,
      "fzfg": false,
      "metar_trigger": false,
      "taf_trigger": false,
      "metar": "METAR LEZG 131300Z 34004KT 280V060 9999 FEW050 20/09 Q1016 NOSIG",
      "taf": "TAF LEZG 131100Z 1312/1412 27009KT CAVOK TX21/1314Z TN07/1406Z"
    },
    {
      "icao": "LEZL",
      "alert": "OK",
      "vis_m": 9999,
      "fzfg": false,
      "metar_trigger": false,
      "taf_trigger": false,
      "metar": "METAR LEZL 131300Z 23001KT 9999 FEW040 23/10 Q1020 NOSIG",
      "taf": "TAF LEZL 130800Z 1309/1409 05004KT CAVOK TX24/1315Z TN10/1407Z"
    },
    {
      "icao": "LFBD",
      "alert": "OK",
      "vis_m": 9999,
      "fzfg": false,
      "metar_trigger": false,
      "taf_trigger": false,
      "metar": "METAR LFBD 131300Z AUTO 24015KT 9999 OVC028 16/09 Q1014 TEMPO 4000 -RA BECMG 23010G20KT",
      "taf": "TAF LFBD 131100Z 1312/1418 23010G20KT 9999 BKN030 TX16/1312Z TN06/1406Z"
    },
    {
      "icao": "LFLL",
      "alert": "OK",
      "vis_m": 9999,
      "fzfg": false,
      "metar_trigger": false,
      "taf_trigger": false,
      "metar": "METAR LFLL 131300Z 19016KT CAVOK 16/03 Q1013 NOSIG",
      "taf": "TAF LFLL 131100Z 1312/1418 18012KT CAVOK"
    },
    {
      "icao": "LFLS",
      "alert": "OK",
      "vis_m": 9999,
      "fzfg": false,
      "metar_trigger": false,
      "taf_trigger": false,
      "metar": "METAR LFLS 131300Z AUTO 23012KT 180V260 CAVOK 16/04 Q1014 NOSIG",
      "taf": "TAF LFLS 130800Z 1309/1409 22010KT CAVOK"
    },
    {
      "icao": "LFMN",
      "alert": "OK",
      "vis_m": 9999,
      "fzfg": false,
      "metar_trigger": false,
      "taf_trigger": false,
      "metar": "METAR LFMN 131300Z 17008KT CAVOK 17/10 Q1017 NOSIG",
      "taf": "TAF LFMN 130800Z 1309/1415 34010KT CAVOK"
    },
    {
      "icao": "LFOB",
      "alert": "OK",
      "vis_m": 9999,
      "fzfg": false,
      "metar_trigger": false,
      "taf_trigger": false,
      "metar": "METAR LFOB 131300Z AUTO 23005KT 180V270 9999 -RA FEW010 SCT042 OVC048 07/06 Q1006 TEMPO 3000 SHRA SCT009 BKN013 SCT025TCU",
      "taf": "TAF LFOB 131100Z 1312/1412 30012KT 9999 BKN025 OVC040"
    },
    {
      "icao": "LFPO",
      "alert": "OK",
      "vis_m": 9999,
      "fzfg": false,
      "metar_trigger": false,
      "taf_trigger": false,
      "metar": "METAR LFPO 131300Z 32005KT 240V360 9999 -RA BKN011 BKN018 09/08 Q1006 NOSIG",
      "taf": "TAF LFPO 131100Z 1312/1418 28010KT 9999 BKN020"
    },
    {
      "icao": "LFSB",
      "alert": "OK",
      "vis_m": 9999,
      "fzfg": false,
      "metar_trigger": false,
      "taf_trigger": false,
      "metar": "METAR LFSB 131300Z AUTO VRB02KT CAVOK 16/03 Q1011 NOSIG",
      "taf": "TAF LFSB 131100Z 1312/1412 16006KT CAVOK"
    },
    {
      "icao": "LGAV",
      "alert": "OK",
      "vis_m": 9999,
      "fzfg": false,
      "metar_trigger": false,
      "taf_trigger": false,
      "metar": "METAR LGAV 131250Z 03016KT 9999 FEW025 14/06 Q1017 NOSIG",
      "taf": "TAF LGAV 131100Z 1312/1412 35015KT 9999 FEW025"
    },
    {
      "icao": "LGTS",
      "alert": "OK",
      "vis_m": 9999,
      "fzfg": false,
      "metar_trigger": false,
      "taf_trigger": false,
      "metar": "METAR LGTS 131250Z 21008KT 9999 SCT025 16/08 Q1018 NOSIG",
      "taf": "TAF LGTS 131100Z 1312/1412 VRB03KT 9999 FEW030"
    },
    {
      "icao": "LHBP",
      "alert": "OK",
      "vis_m": 9999,
      "fzfg": false,
      "metar_trigger": false,
      "taf_trigger": false,
      "metar": "METAR LHBP 131300Z 14006KT CAVOK 17/04 Q1017 NOSIG",
      "taf": "TAF LHBP 131115Z 1312/1412 14008KT CAVOK"
    },
    {
      "icao": "LHDC",
      "alert": "OK",
      "vis_m": 9999,
      "fzfg": false,
      "metar_trigger": false,
      "taf_trigger": false,
      "metar": "METAR LHDC 131245Z AUTO 17005KT 110V240 CAVOK 17/03 Q1018 NOSIG",
      "taf": "TAF LHDC 131115Z 1312/1321 19006KT CAVOK"
    },
    {
      "icao": "LIBD",
      "alert": "OK",
      "vis_m": 9999,
      "fzfg": false,
      "metar_trigger": false,
      "taf_trigger": false,
      "metar": "METAR LIBD 131250Z 02006KT 330V080 9999 FEW015 15/11 Q1017",
      "taf": "TAF LIBD 131100Z 1312/1412 04010KT 9999 SCT015"
    },
    {
      "icao": "LIBG",
      "alert": "OK",
      "vis_m": 9999,
      "fzfg": false,
      "metar_trigger": false,
      "taf_trigger": false,
      "metar": "METAR LIBG 131250Z 16005KT 9999 TS FEW020CB SCT030 16/10 Q1016",
      "taf": "TAF LIBG 131100Z 1312/1321 VRB04KT 9999 SCT020"
    },
    {
      "icao": "LIBP",
      "alert": "OK",
      "vis_m": 9999,
      "fzfg": false,
      "metar_trigger": false,
      "taf_trigger": false,
      "metar": "METAR LIBP 131250Z AUTO 05010KT 9999 FEW014/// 15/11 Q1017",
      "taf": "TAF LIBP 131100Z 1312/1412 05010KT 9999 SCT015"
    },
    {
      "icao": "LIBR",
      "alert": "OK",
      "vis_m": 9999,
      "fzfg": false,
      "metar_trigger": false,
      "taf_trigger": false,
      "metar": "METAR LIBR 131250Z 03008KT CAVOK 15/11 Q1016",
      "taf": "TAF LIBR 131100Z 1312/1412 03010KT 9999 SCT020"
    },
    {
      "icao": "LICA",
      "alert": "OK",
      "vis_m": 9999,
      "fzfg": false,
      "metar_trigger": false,
      "taf_trigger": false,
      "metar": "METAR LICA 131250Z AUTO 27007KT 230V300 9999 NCD 17/12 Q1016",
      "taf": "TAF LICA 131100Z 1312/1412 26010KT 9999 SCT020"
    },
    {
      "icao": "LICC",
      "alert": "OK",
      "vis_m": 9999,
      "fzfg": false,
      "metar_trigger": false,
      "taf_trigger": false,
      "metar": "METAR LICC 131250Z 10008KT 9999 FEW040 BKN100 17/14 Q1015",
      "taf": "TAF LICC 131100Z 1312/1412 12010KT 9999 SCT030"
    },
    {
      "icao": "LICJ",
      "alert": "OK",
      "vis_m": 9999,
      "fzfg": false,
      "metar_trigger": false,
      "taf_trigger": false,
      "metar": "METAR LICJ 131250Z 20007KT 9999 R25/P2000N R20/0050N -RA SCT060 13/10 Q1016",
      "taf": "TAF LICJ 131100Z 1312/1412 24010KT 9999 SCT040"
    },
    {
      "icao": "LIMC",
      "alert": "OK",
      "vis_m": 9999,
      "fzfg": false,
      "metar_trigger": false,
      "taf_trigger": false,
      "metar": "METAR LIMC 131250Z 22007KT 170V250 9999 FEW035 16/08 Q1016 NOSIG",
      "taf": "TAF LIMC 131100Z 1312/1418 VRB04KT 9999 FEW040"
    },
    {
      "icao": "LIME",
      "alert": "OK",
      "vis_m": 8000,
      "fzfg": false,
      "metar_trigger": false,
      "taf_trigger": false,
      "metar": "METAR LIME 131250Z 17004KT 140V200 8000 SCT025 15/09 Q1016 NOSIG",
      "taf": "TAF LIME 131100Z 1312/1412 VRB04KT 9999 FEW030"
    },
    {
      "icao": "LIMF",
      "alert": "OK",
      "vis_m": 9999,
      "fzfg": false,
      "metar_trigger": false,
      "taf_trigger": false,
      "metar": "METAR LIMF 131250Z 14006KT 110V190 9999 FEW040 16/05 Q1016",
      "taf": "TAF LIMF 131100Z 1312/1412 VRB04KT CAVOK"
    },
    {
      "icao": "LIMJ",
      "alert": "OK",
      "vis_m": 9999,
      "fzfg": false,
      "metar_trigger": false,
      "taf_trigger": false,
      "metar": "METAR LIMJ 131250Z 16003KT CAVOK 16/09 Q1017",
      "taf": "TAF LIMJ 131100Z 1312/1412 VRB05KT CAVOK"
    },
    {
      "icao": "LIPE",
      "alert": "OK",
      "vis_m": 9999,
      "fzfg": false,
      "metar_trigger": false,
      "taf_trigger": false,
      "metar": "METAR LIPE 131250Z VRB03KT 9999 FEW030 16/09 Q1017",
      "taf": "TAF LIPE 131100Z 1312/1412 VRB05KT 7000 SCT050"
    },
    {
      "icao": "LIPH",
      "alert": "OK",
      "vis_m": 9999,
      "fzfg": false,
      "metar_trigger": false,
      "taf_trigger": false,
      "metar": "METAR LIPH 131250Z VRB05KT 9999 FEW030 18/08 Q1016",
      "taf": "TAF LIPH 131100Z 1312/1412 VRB05KT 9999 FEW030"
    },
    {
      "icao": "LIPQ",
      "alert": "OK",
      "vis_m": 9999,
      "fzfg": false,
      "metar_trigger": false,
      "taf_trigger": false,
      "metar": "METAR LIPQ 131250Z AUTO 22007KT 170V270 9999 NCD 18/08 Q1016",
      "taf": "TAF LIPQ 131100Z 1312/1412 21010KT 9999 FEW040"
    },
    {
      "icao": "LIPR",
      "alert": "OK",
      "vis_m": 6000,
      "fzfg": false,
      "metar_trigger": false,
      "taf_trigger": false,
      "metar": "METAR LIPR 131250Z 06005KT 010V100 6000 FEW010 14/11 Q1017",
      "taf": "TAF LIPR 131100Z 1312/1412 04010KT 6000 SCT020"
    },
    {
      "icao": "LIPX",
      "alert": "OK",
      "vis_m": 9000,
      "fzfg": false,
      "metar_trigger": false,
      "taf_trigger": false,
      "metar": "METAR LIPX 131250Z 24007KT 200V270 9000 FEW030 SCT090 16/10 Q1016",
      "taf": "TAF LIPX 131100Z 1312/1412 VRB04KT 9999 FEW020"
    },
    {
      "icao": "LIPY",
      "alert": "OK",
      "vis_m": 9999,
      "fzfg": false,
      "metar_trigger": false,
      "taf_trigger": false,
      "metar": "METAR LIPY 131250Z AUTO 01005KT 340V040 9999 BKN002/// 14/12 Q1017",
      "taf": "TAF LIPY 131100Z 1312/1412 03010KT 7000 SCT010"
    },
    {
      "icao": "LIPZ",
      "alert": "OK",
      "vis_m": 9999,
      "fzfg": false,
      "metar_trigger": false,
      "taf_trigger": false,
      "metar": "METAR LIPZ 131250Z 20009KT CAVOK 16/09 Q1017 NOSIG",
      "taf": "TAF LIPZ 131100Z 1312/1418 VRB05KT 9999 FEW030"
    },
    {
      "icao": "LIRF",
      "alert": "OK",
      "vis_m": 9999,
      "fzfg": false,
      "metar_trigger": false,
      "taf_trigger": false,
      "metar": "METAR LIRF 131250Z 22007KT 180V260 9999 FEW040 16/08 Q1016 NOSIG",
      "taf": "TAF LIRF 131100Z 1312/1418 20010KT 9999 SCT030"
    },
    {
      "icao": "LIRN",
      "alert": "OK",
      "vis_m": 9999,
      "fzfg": false,
      "metar_trigger": false,
      "taf_trigger": false,
      "metar": "METAR LIRN 131250Z 20010KT 9999 FEW040 17/10 Q1016 NOSIG",
      "taf": "TAF LIRN 131100Z 1312/1412 VRB05KT 9999 SCT020"
    },
    {
      "icao": "LIRP",
      "alert": "OK",
      "vis_m": 9999,
      "fzfg": false,
      "metar_trigger": false,
      "taf_trigger": false,
      "metar": "METAR LIRP 131245Z 22004KT 9999 FEW030 FEW035TCU 18/08 Q1016 NOSIG",
      "taf": "TAF LIRP 131100Z 1312/1412 VRB04KT 9999 FEW030"
    },
    {
      "icao": "LIRZ",
      "alert": "OK",
      "vis_m": 9999,
      "fzfg": false,
      "metar_trigger": false,
      "taf_trigger": false,
      "metar": "METAR LIRZ 131250Z AUTO 26004KT 210V310 9999 NCD 17/06 Q1016",
      "taf": "TAF LIRZ 131100Z 1312/1412 VRB05KT 9999 FEW040"
    },
    {
      "icao": "LJLJ",
      "alert": "OK",
      "vis_m": 9999,
      "fzfg": false,
      "metar_trigger": false,
      "taf_trigger": false,
      "metar": "METAR LJLJ 131300Z 16004KT 060V200 9999 FEW037 SCT075 15/05 Q1016 NOSIG",
      "taf": "TAF LJLJ 131100Z 1312/1412 12004KT 9999 FEW030 SCT050"
    },
    {
      "icao": "LKMT",
      "alert": "OK",
      "vis_m": 9999,
      "fzfg": false,
      "metar_trigger": false,
      "taf_trigger": false,
      "metar": "METAR LKMT 131300Z 20014KT CAVOK 17/05 Q1014 NOSIG",
      "taf": "TAF LKMT 131100Z 1312/1412 20018KT CAVOK"
    },
    {
      "icao": "LKPR",
      "alert": "OK",
      "vis_m": 9999,
      "fzfg": false,
      "metar_trigger": false,
      "taf_trigger": false,
      "metar": "METAR LKPR 131300Z 16012KT CAVOK 14/03 Q1011 NOSIG",
      "taf": "TAF LKPR 131100Z 1312/1418 17012KT CAVOK"
    },
    {
      "icao": "LLBG",
      "alert": "OK",
      "vis_m": 9999,
      "fzfg": false,
      "metar_trigger": false,
      "taf_trigger": false,
      "metar": "METAR LLBG 131250Z 28013KT CAVOK 20/10 Q1011 NOSIG RMK FEW100",
      "taf": "TAF LLBG 131103Z 1312/1412 35008KT CAVOK TX22/1312Z TN15/1400Z"
    },
    {
      "icao": "LMML",
      "alert": "OK",
      "vis_m": 9999,
      "fzfg": false,
      "metar_trigger": false,
      "taf_trigger": false,
      "metar": "METAR LMML 131315Z 32012KT 260V340 9999 SCT028 18/11 Q1017 NOSIG",
      "taf": "TAF LMML 131100Z 1312/1412 28008KT 9999 SCT018"
    },
    {
      "icao": "LOWW",
      "alert": "OK",
      "vis_m": 9999,
      "fzfg": false,
      "metar_trigger": false,
      "taf_trigger": false,
      "metar": "METAR LOWW 131250Z 16016KT 130V200 CAVOK 18/05 Q1014 NOSIG",
      "taf": "TAF LOWW 131115Z 1312/1418 15012KT CAVOK TX18/1314Z TN08/1405Z"
    },
    {
      "icao": "LPFR",
      "alert": "OK",
      "vis_m": 9999,
      "fzfg": false,
      "metar_trigger": false,
      "taf_trigger": false,
      "metar": "METAR LPFR 131300Z 19007KT 160V220 9999 FEW030 19/13 Q1021",
      "taf": "TAF LPFR 131100Z 1312/1412 23012KT 9999 FEW030"
    },
    {
      "icao": "LPMA",
      "alert": "OK",
      "vis_m": 9999,
      "fzfg": false,
      "metar_trigger": false,
      "taf_trigger": false,
      "metar": "METAR LPMA 131300Z 01015KT 9999 BKN015 17/11 Q1026",
      "taf": "TAF LPMA 131100Z 1312/1412 02015KT 9999 SCT015"
    },
    {
      "icao": "LPPR",
      "alert": "OK",
      "vis_m": 2000,
      "fzfg": false,
      "metar_trigger": false,
      "taf_trigger": false,
      "metar": "METAR LPPR 131300Z 21011KT 2000 -RADZ BR BKN003 OVC005 13/12 Q1022",
      "taf": "TAF LPPR 131100Z 1312/1412 20012KT 9999 SCT008 BKN015"
    },
    {
      "icao": "LPPS",
      "alert": "OK",
      "vis_m": 9999,
      "fzfg": false,
      "metar_trigger": false,
      "taf_trigger": false,
      "metar": "METAR LPPS 131300Z 04012KT 360V090 9999 FEW015 BKN030 16/11 Q1026",
      "taf": "TAF LPPS 131100Z 1312/1418 05013KT 9999 SCT015 BKN030"
    },
    {
      "icao": "LPPT",
      "alert": "OK",
      "vis_m": 9999,
      "fzfg": false,
      "metar_trigger": false,
      "taf_trigger": false,
      "metar": "METAR LPPT 131300Z 34008KT 290V030 9999 SCT020 17/12 Q1022",
      "taf": "TAF LPPT 131100Z 1312/1418 35008KT 9999 SCT020"
    },
    {
      "icao": "LQBK",
      "alert": "OK",
      "vis_m": 9999,
      "fzfg": false,
      "metar_trigger": false,
      "taf_trigger": false,
      "metar": "METAR LQBK 131300Z 35003KT 290V060 9999 FEW040 17/05 Q1016 NOSIG",
      "taf": "TAF LQBK 131100Z 1312/1412 33005KT 9999 SCT045 TX17/1313Z TN04/1405Z"
    },
    {
      "icao": "LQSA",
      "alert": "OK",
      "vis_m": 9999,
      "fzfg": false,
      "metar_trigger": false,
      "taf_trigger": false,
      "metar": "METAR LQSA 131300Z 23004KT 170V330 9999 SCT050 17/M01 Q1015 NOSIG",
      "taf": "TAF LQSA 131100Z 1312/1412 VRB02KT 9999 SCT055 TX17/1313Z TN01/1405Z"
    },
    {
      "icao": "LQTZ",
      "alert": "OK",
      "vis_m": 9999,
      "fzfg": false,
      "metar_trigger": false,
      "taf_trigger": false,
      "metar": "METAR LQTZ 131300Z 13010KT 110V170 CAVOK 19/M00 Q1015",
      "taf": "TAF LQTZ 131100Z 1312/1412 VRB02KT 9999 SCT050 TX19/1313Z TN03/1405Z"
    },
    {
      "icao": "LRBC",
      "alert": "OK",
      "vis_m": 9999,
      "fzfg": false,
      "metar_trigger": false,
      "taf_trigger": false,
      "metar": "METAR LRBC 131300Z 17008KT 140V220 CAVOK 16/M02 Q1021",
      "taf": "TAF LRBC 131100Z 1312/1321 17008KT CAVOK"
    },
    {
      "icao": "LRBS",
      "alert": "OK",
      "vis_m": 9999,
      "fzfg": false,
      "metar_trigger": false,
      "taf_trigger": false,
      "metar": "METAR LRBS 131300Z 06005KT 340V120 CAVOK 15/01 Q1021 NOSIG",
      "taf": "TAF LRBS 131100Z 1312/1412 VRB04KT CAVOK"
    },
    {
      "icao": "LRBV",
      "alert": "OK",
      "vis_m": 9999,
      "fzfg": false,
      "metar_trigger": false,
      "taf_trigger": false,
      "metar": "METAR LRBV 131300Z 09004KT 020V190 CAVOK 16/M09 Q1018",
      "taf": "TAF LRBV 131100Z 1312/1321 08008KT CAVOK"
    },
    {
      "icao": "LRCL",
      "alert": "OK",
      "vis_m": 9999,
      "fzfg": false,
      "metar_trigger": false,
      "taf_trigger": false,
      "metar": "METAR LRCL 131300Z 09007KT 050V130 CAVOK 17/M04 Q1018",
      "taf": "TAF LRCL 131100Z 1312/1321 10006KT CAVOK"
    },
    {
      "icao": "LRCV",
      "alert": "OK",
      "vis_m": 9999,
      "fzfg": false,
      "metar_trigger": false,
      "taf_trigger": false,
      "metar": "METAR LRCV 131300Z 10007KT 070V130 CAVOK 14/M01 Q1020",
      "taf": "TAF LRCV 131100Z 1312/1321 13008KT 9999 FEW045"
    },
    {
      "icao": "LRIA",
      "alert": "OK",
      "vis_m": 9999,
      "fzfg": false,
      "metar_trigger": false,
      "taf_trigger": false,
      "metar": "METAR LRIA 131300Z 10011KT CAVOK 16/M03 Q1021",
      "taf": "TAF LRIA 131100Z 1312/1321 13010KT CAVOK"
    },
    {
      "icao": "LROP",
      "alert": "OK",
      "vis_m": 9999,
      "fzfg": false,
      "metar_trigger": false,
      "taf_trigger": false,
      "metar": "METAR LROP 131300Z 11004KT 070V180 CAVOK 16/M03 Q1021 NOSIG",
      "taf": "TAF LROP 131100Z 1312/1412 VRB04KT CAVOK"
    },
    {
      "icao": "LRSB",
      "alert": "OK",
      "vis_m": 9999,
      "fzfg": false,
      "metar_trigger": false,
      "taf_trigger": false,
      "metar": "METAR LRSB 131300Z 12009KT 100V160 CAVOK 17/M03 Q1018",
      "taf": "TAF LRSB 131100Z 1312/1412 12012KT CAVOK"
    },
    {
      "icao": "LRSM",
      "alert": "OK",
      "vis_m": 9999,
      "fzfg": false,
      "metar_trigger": false,
      "taf_trigger": false,
      "metar": "METAR LRSM 131300Z 32003KT CAVOK 19/M02 Q1018",
      "taf": "TAF LRSM 131100Z 1312/1321 VRB04KT CAVOK"
    },
    {
      "icao": "LRSV",
      "alert": "OK",
      "vis_m": 9999,
      "fzfg": false,
      "metar_trigger": false,
      "taf_trigger": false,
      "metar": "METAR LRSV 131300Z 18014KT 130V220 CAVOK 14/M04 Q1020",
      "taf": "TAF LRSV 131100Z 1312/1321 15012KT CAVOK"
    },
    {
      "icao": "LRTM",
      "alert": "OK",
      "vis_m": 9999,
      "fzfg": false,
      "metar_trigger": false,
      "taf_trigger": false,
      "metar": "METAR LRTM 131300Z 36005KT 300V050 CAVOK 18/M02 Q1018",
      "taf": "TAF LRTM 131100Z 1312/1321 VRB04KT CAVOK"
    },
    {
      "icao": "LRTR",
      "alert": "OK",
      "vis_m": 9999,
      "fzfg": false,
      "metar_trigger": false,
      "taf_trigger": false,
      "metar": "METAR LRTR 131300Z 26004KT 190V300 CAVOK 17/M00 Q1018",
      "taf": "TAF LRTR 131100Z 1312/1412 15006KT CAVOK"
    },
    {
      "icao": "LTAC",
      "alert": "OK",
      "vis_m": 9999,
      "fzfg": false,
      "metar_trigger": false,
      "taf_trigger": false,
      "metar": "METAR LTAC 131250Z VRB04KT 9999 FEW040 14/M09 Q1013 NOSIG RMK RWY21C VRB06KT RWY03L VRB03KT RWY21R 22006KT 120V280 RWY03R 23006KT 170V270 RWY21L 17005KT 110V210",
      "taf": "TAF LTAC 131040Z 1312/1412 VRB02KT 9999 FEW040"
    },
    {
      "icao": "LTFM",
      "alert": "OK",
      "vis_m": 9999,
      "fzfg": false,
      "metar_trigger": false,
      "taf_trigger": false,
      "metar": "METAR LTFM 131250Z 06012KT 020V090 9999 BKN022 08/02 Q1020 NOSIG RMK RWY17L 03013KT RWY34L 04013KT RWY16R 03012KT RWY36 04013KT RWY18 06009KT",
      "taf": "TAF LTFM 131040Z 1312/1418 05012KT 9999 BKN022"
    },
    {
      "icao": "LUKK",
      "alert": "OK",
      "vis_m": 9999,
      "fzfg": false,
      "metar_trigger": false,
      "taf_trigger": false,
      "metar": "METAR LUKK 131300Z 10010KT 070V130 CAVOK 16/M03 Q1022 NOSIG",
      "taf": "TAF LUKK 131101Z 1312/1412 12009KT CAVOK"
    },
    {
      "icao": "LWOH",
      "alert": "OK",
      "vis_m": 9999,
      "fzfg": false,
      "metar_trigger": false,
      "taf_trigger": false,
      "metar": "METAR LWOH 131320Z 14006KT 9999 SCT040 14/04 Q1015",
      "taf": "TAF LWOH 131135Z 1312/1412 16008KT 9999 SCT040"
    },
    {
      "icao": "LWSK",
      "alert": "OK",
      "vis_m": 9999,
      "fzfg": false,
      "metar_trigger": false,
      "taf_trigger": false,
      "metar": "METAR LWSK 131320Z VRB02KT CAVOK 20/02 Q1016 NOSIG",
      "taf": ""
    },
    {
      "icao": "LYBE",
      "alert": "OK",
      "vis_m": 9999,
      "fzfg": false,
      "metar_trigger": false,
      "taf_trigger": false,
      "metar": "METAR LYBE 131300Z 12012KT CAVOK 18/M01 Q1017 NOSIG",
      "taf": "TAF LYBE 131100Z 1312/1412 12012KT CAVOK TX19/1313Z TN03/1405Z"
    },
    {
      "icao": "LYNI",
      "alert": "OK",
      "vis_m": 9999,
      "fzfg": false,
      "metar_trigger": false,
      "taf_trigger": false,
      "metar": "METAR LYNI 131300Z 31004KT 250V350 CAVOK 17/M00 Q1017 NOSIG",
      "taf": "TAF LYNI 131100Z 1312/1412 10007KT CAVOK TX19/1314Z TN03/1405Z"
    },
    {
      "icao": "LYPG",
      "alert": "OK",
      "vis_m": 9999,
      "fzfg": false,
      "metar_trigger": false,
      "taf_trigger": false,
      "metar": "METAR LYPG 131300Z 20004KT 140V250 9999 FEW050 20/02 Q1015 NOSIG",
      "taf": "TAF LYPG 131100Z 1312/1412 16005KT 9999 FEW040 TX20/1313Z TN06/1405Z"
    },
    {
      "icao": "LZIB",
      "alert": "OK",
      "vis_m": 9999,
      "fzfg": false,
      "metar_trigger": false,
      "taf_trigger": false,
      "metar": "METAR LZIB 131300Z 15011KT 9999 SCT046 17/06 Q1015 NOSIG",
      "taf": "TAF LZIB 131115Z 1312/1412 17010KT CAVOK"
    },
    {
      "icao": "LZKZ",
      "alert": "OK",
      "vis_m": 9999,
      "fzfg": false,
      "metar_trigger": false,
      "taf_trigger": false,
      "metar": "METAR LZKZ 131300Z 18007KT 110V230 CAVOK 17/04 Q1017 NOSIG",
      "taf": "TAF LZKZ 131115Z 1312/1412 19009KT CAVOK"
    },
    {
      "icao": "LZTT",
      "alert": "OK",
      "vis_m": 9999,
      "fzfg": false,
      "metar_trigger": false,
      "taf_trigger": false,
      "metar": "METAR LZTT 131300Z 25008KT 220V280 9999 BKN050 13/03 Q1017 NOSIG",
      "taf": "TAF LZTT 131115Z 1312/1412 23008KT 9999 SCT050"
    },
    {
      "icao": "OEJN",
      "alert": "OK",
      "vis_m": 9999,
      "fzfg": false,
      "metar_trigger": false,
      "taf_trigger": false,
      "metar": "METAR OEJN 131300Z 27008KT CAVOK 28/17 Q1008 NOSIG",
      "taf": "TAF OEJN 131100Z 1312/1418 30012KT CAVOK"
    },
    {
      "icao": "OEMA",
      "alert": "OK",
      "vis_m": 9999,
      "fzfg": false,
      "metar_trigger": false,
      "taf_trigger": false,
      "metar": "METAR OEMA 131300Z 13005KT CAVOK 32/M06 Q1012 NOSIG",
      "taf": "TAF OEMA 131100Z 1312/1418 35008KT CAVOK"
    },
    {
      "icao": "OJAI",
      "alert": "OK",
      "vis_m": 4000,
      "fzfg": false,
      "metar_trigger": false,
      "taf_trigger": false,
      "metar": "METAR OJAI 131300Z 25012KT 4000 HZ NSC 20/01 Q1013 NOSIG",
      "taf": ""
    },
    {
      "icao": "OMAA",
      "alert": "OK",
      "vis_m": null,
      "fzfg": false,
      "metar_trigger": false,
      "taf_trigger": false,
      "metar": "",
      "taf": ""
    },
    {
      "icao": "OMDB",
      "alert": "OK",
      "vis_m": null,
      "fzfg": false,
      "metar_trigger": false,
      "taf_trigger": false,
      "metar": "",
      "taf": ""
    },
    {
      "icao": "UAAA",
      "alert": "OK",
      "vis_m": 9999,
      "fzfg": false,
      "metar_trigger": false,
      "taf_trigger": false,
      "metar": "METAR UAAA 131300Z 02003MPS 9999 FEW100 02/M05 Q1032 NOSIG",
      "taf": "TAF UAAA 131101Z 1312/1412 20003MPS 3100 BR FU FEW011 SCT100 TX06/1409Z TNM07/1401Z"
    },
    {
      "icao": "UBBB",
      "alert": "OK",
      "vis_m": 9999,
      "fzfg": false,
      "metar_trigger": false,
      "taf_trigger": false,
      "metar": "METAR UBBB 131300Z 08010KT CAVOK 09/M01 Q1025 NOSIG",
      "taf": "TAF UBBB 131055Z 1312/1412 03008KT 9999 SCT025 TX10/1312Z TN03/1402Z"
    },
    {
      "icao": "UDSG",
      "alert": "OK",
      "vis_m": 9999,
      "fzfg": false,
      "metar_trigger": false,
      "taf_trigger": false,
      "metar": "METAR UDSG 131300Z 26006KT 9999 FEW049 02/M04 Q1020 NOSIG",
      "taf": "TAF UDSG 131100Z 1312/1412 VRB06KT 9999 BKN040"
    },
    {
      "icao": "UDYZ",
      "alert": "OK",
      "vis_m": 9999,
      "fzfg": false,
      "metar_trigger": false,
      "taf_trigger": false,
      "metar": "METAR UDYZ 131300Z 23002KT 9999 FEW046 11/M05 Q1019 NOSIG",
      "taf": ""
    },
    {
      "icao": "UGKO",
      "alert": "OK",
      "vis_m": 9999,
      "fzfg": false,
      "metar_trigger": false,
      "taf_trigger": false,
      "metar": "METAR UGKO 131300Z 07022KT CAVOK 16/M03 Q1018 NOSIG",
      "taf": "TAF UGKO 131100Z 1312/1412 08020KT CAVOK TX17/1312Z TN09/1403Z"
    }
  ]
}