{
  "ts_utc": "2026-02-05T21:26:23Z",
  "threshold_m": 150,
  "source": "stations_override.txt (ICAO list) + aviationweather.gov (METAR/TAF raw)",
  "station_count": 159,
  "stations": [
    {
      "icao": "BIKF",
      "alert": "OK",
      "vis_m": 9999,
      "fzfg": false,
      "metar_trigger": false,
      "taf_trigger": false,
      "metar": "METAR BIKF 052100Z 01008KT CAVOK M00/M04 Q1005",
      "taf": "TAF BIKF 051952Z 0521/0621 05008KT CAVOK TX04/0617Z TNM00/0603Z"
    },
    {
      "icao": "BKPR",
      "alert": "OK",
      "vis_m": null,
      "fzfg": false,
      "metar_trigger": false,
      "taf_trigger": false,
      "metar": "",
      "taf": "TAF BKPR 051730Z 0518/0618 24007KT 9999 SCT040"
    },
    {
      "icao": "EBCI",
      "alert": "OK",
      "vis_m": 9999,
      "fzfg": false,
      "metar_trigger": false,
      "taf_trigger": false,
      "metar": "METAR EBCI 052120Z 15004KT 9999 FEW030 06/05 Q0986 NOSIG",
      "taf": "TAF EBCI 051703Z 0518/0624 13007KT 9999 SCT020 BKN035"
    },
    {
      "icao": "EDDB",
      "alert": "OK",
      "vis_m": 3100,
      "fzfg": false,
      "metar_trigger": false,
      "taf_trigger": false,
      "metar": "METAR EDDB 052120Z AUTO 09009KT 3100 -FZRA BR BKN004 M01/M02 Q0995 TEMPO 2000",
      "taf": "TAF EDDB 051700Z 0518/0618 09008KT 4000 BR BKN004"
    },
    {
      "icao": "EDDH",
      "alert": "OK",
      "vis_m": 9999,
      "fzfg": false,
      "metar_trigger": false,
      "taf_trigger": false,
      "metar": "METAR EDDH 052120Z AUTO 08007KT 050V120 9999 BKN009 OVC016 M02/M04 Q0995 NOSIG",
      "taf": "TAF EDDH 051700Z 0518/0624 08008KT 8000 OVC008"
    },
    {
      "icao": "EDDK",
      "alert": "OK",
      "vis_m": 9999,
      "fzfg": false,
      "metar_trigger": false,
      "taf_trigger": false,
      "metar": "METAR EDDK 052120Z AUTO 11007KT 9999 BKN010 02/01 Q0989 TEMPO OVC009",
      "taf": "TAF EDDK 051700Z 0518/0624 12008KT 9999 SCT040"
    },
    {
      "icao": "EDDN",
      "alert": "OK",
      "vis_m": 9999,
      "fzfg": false,
      "metar_trigger": false,
      "taf_trigger": false,
      "metar": "METAR EDDN 052120Z AUTO 10006KT 060V130 9999 OVC007 01/M01 Q0990 NOSIG",
      "taf": ""
    },
    {
      "icao": "EDDS",
      "alert": "OK",
      "vis_m": 9999,
      "fzfg": false,
      "metar_trigger": false,
      "taf_trigger": false,
      "metar": "METAR EDDS 052120Z AUTO 08005KT CAVOK 00/M02 Q0987",
      "taf": "TAF EDDS 051700Z 0518/0618 VRB03KT CAVOK"
    },
    {
      "icao": "EDFH",
      "alert": "OK",
      "vis_m": 500,
      "fzfg": true,
      "metar_trigger": false,
      "taf_trigger": false,
      "metar": "METAR EDFH 052120Z 14014KT 0500 R21/0600D FZFG OVC001 00/00 Q0987",
      "taf": "TAF EDFH 051700Z 0518/0618 14013KT 0200 FZFG VV000"
    },
    {
      "icao": "EDJA",
      "alert": "OK",
      "vis_m": 6000,
      "fzfg": false,
      "metar_trigger": false,
      "taf_trigger": false,
      "metar": "METAR EDJA 052120Z 04008KT 6000 NSC M00/M01 Q0987",
      "taf": "TAF EDJA 051700Z 0518/0603 06006KT CAVOK"
    },
    {
      "icao": "EDLW",
      "alert": "OK",
      "vis_m": 9999,
      "fzfg": false,
      "metar_trigger": false,
      "taf_trigger": false,
      "metar": "METAR EDLW 052050Z 04006KT CAVOK 01/00 Q0988",
      "taf": "TAF EDLW 051700Z 0518/0618 09007KT CAVOK"
    },
    {
      "icao": "EDNY",
      "alert": "OK",
      "vis_m": 9999,
      "fzfg": false,
      "metar_trigger": false,
      "taf_trigger": false,
      "metar": "METAR EDNY 052050Z 05006KT 010V070 CAVOK 01/M00 Q0987",
      "taf": ""
    },
    {
      "icao": "EDSB",
      "alert": "OK",
      "vis_m": 8000,
      "fzfg": false,
      "metar_trigger": false,
      "taf_trigger": false,
      "metar": "METAR EDSB 052050Z 02004KT 8000 NSC 02/00 Q0988",
      "taf": "TAF EDSB 051700Z 0518/0618 02004KT CAVOK"
    },
    {
      "icao": "EETN",
      "alert": "OK",
      "vis_m": 9999,
      "fzfg": false,
      "metar_trigger": false,
      "taf_trigger": false,
      "metar": "METAR EETN 052120Z 08007KT CAVOK M16/M18 Q1016 NOSIG",
      "taf": "TAF EETN 051730Z 0518/0618 08010KT CAVOK"
    },
    {
      "icao": "EFTU",
      "alert": "OK",
      "vis_m": 9999,
      "fzfg": false,
      "metar_trigger": false,
      "taf_trigger": false,
      "metar": "METAR EFTU 052120Z AUTO 08006KT CAVOK M17/M19 Q1017",
      "taf": "TAF EFTU 052027Z 0521/0621 07008KT CAVOK"
    },
    {
      "icao": "EGBB",
      "alert": "OK",
      "vis_m": 4000,
      "fzfg": false,
      "metar_trigger": false,
      "taf_trigger": false,
      "metar": "METAR EGBB 052120Z 08008KT 4000 RADZ OVC005 04/04 Q0983",
      "taf": "TAF EGBB 051658Z 0518/0618 09012KT 9999 -RA SCT006 BKN012"
    },
    {
      "icao": "EGGP",
      "alert": "OK",
      "vis_m": 9999,
      "fzfg": false,
      "metar_trigger": false,
      "taf_trigger": false,
      "metar": "METAR EGGP 052120Z 08015KT 9999 FEW017 BKN032 03/00 Q0984",
      "taf": "TAF EGGP 051703Z 0518/0618 09020G30KT 9999 BKN020"
    },
    {
      "icao": "EGGW",
      "alert": "OK",
      "vis_m": 2900,
      "fzfg": false,
      "metar_trigger": false,
      "taf_trigger": false,
      "metar": "METAR EGGW 052120Z AUTO 10010KT 2900 -DZ OVC002/// //////TCU 07/07 Q0982 REDZ",
      "taf": "TAF EGGW 051704Z 0518/0618 11010KT 6000 -RA SCT003 BKN006"
    },
    {
      "icao": "EGKK",
      "alert": "OK",
      "vis_m": 9999,
      "fzfg": false,
      "metar_trigger": false,
      "taf_trigger": false,
      "metar": "METAR EGKK 052120Z 12004KT 9999 -RA SCT009 BKN035 09/09 Q0982",
      "taf": "TAF EGKK 051703Z 0518/0624 09010KT 9999 SCT007 BKN020"
    },
    {
      "icao": "EGNM",
      "alert": "OK",
      "vis_m": 1200,
      "fzfg": false,
      "metar_trigger": false,
      "taf_trigger": false,
      "metar": "METAR EGNM 052120Z 08012G22KT 1200 R14/P1500N -RA BR BKN002 01/01 Q0987",
      "taf": ""
    },
    {
      "icao": "EGPD",
      "alert": "OK",
      "vis_m": 9999,
      "fzfg": false,
      "metar_trigger": false,
      "taf_trigger": false,
      "metar": "METAR EGPD 052120Z COR AUTO 10014G24KT 9999 -RA SCT014 SCT021 BKN027 03/01 Q0997 RERA TEMPO RA BKN012",
      "taf": "TAF EGPD 051656Z 0518/0618 09015KT 9999 BKN016"
    },
    {
      "icao": "EGPF",
      "alert": "OK",
      "vis_m": 9999,
      "fzfg": false,
      "metar_trigger": false,
      "taf_trigger": false,
      "metar": "METAR EGPF 052120Z AUTO 07020G31KT 9999 BKN019 05/01 Q0991",
      "taf": "TAF EGPF 051658Z 0518/0618 08018G30KT 9999 SCT020"
    },
    {
      "icao": "EHBK",
      "alert": "OK",
      "vis_m": 8000,
      "fzfg": false,
      "metar_trigger": false,
      "taf_trigger": false,
      "metar": "METAR EHBK 052055Z AUTO 08006KT 8000 FEW018 BKN033 OVC038 04/04 Q0987 NOSIG",
      "taf": "TAF EHBK 051720Z 0518/0624 10008KT 9999 OVC040"
    },
    {
      "icao": "EHEH",
      "alert": "OK",
      "vis_m": null,
      "fzfg": false,
      "metar_trigger": false,
      "taf_trigger": false,
      "metar": "",
      "taf": "TAF EHEH 051748Z 0518/0624 09007KT 9999 BKN025"
    },
    {
      "icao": "EKBI",
      "alert": "OK",
      "vis_m": 9999,
      "fzfg": false,
      "metar_trigger": false,
      "taf_trigger": false,
      "metar": "METAR EKBI 052120Z 06020KT 9999 -SN DRSN BKN011 M02/M03 Q0998",
      "taf": ""
    },
    {
      "icao": "EKCH",
      "alert": "OK",
      "vis_m": 4000,
      "fzfg": false,
      "metar_trigger": false,
      "taf_trigger": false,
      "metar": "METAR EKCH 052120Z 08018G28KT 4000 -SN DRSN BKN008 M01/M02 Q1000 TEMPO 07018G28KT 2500 SN BKN010",
      "taf": "TAF EKCH 052027Z 0521/0621 07018G28KT 1200 SN DRSN BKN005"
    },
    {
      "icao": "ENAL",
      "alert": "OK",
      "vis_m": 9999,
      "fzfg": false,
      "metar_trigger": false,
      "taf_trigger": false,
      "metar": "METAR ENAL 052050Z VRB01KT CAVOK M06/M11 Q1008",
      "taf": "TAF ENAL 052000Z 0521/0606 09008KT CAVOK"
    },
    {
      "icao": "ENBR",
      "alert": "OK",
      "vis_m": 9999,
      "fzfg": false,
      "metar_trigger": false,
      "taf_trigger": false,
      "metar": "METAR ENBR 052050Z VRB01KT CAVOK M05/M13 Q1006 RMK WIND 1200FT 07004KT",
      "taf": "TAF ENBR 051700Z 0518/0618 04005KT CAVOK"
    },
    {
      "icao": "ENGM",
      "alert": "OK",
      "vis_m": 9999,
      "fzfg": false,
      "metar_trigger": false,
      "taf_trigger": false,
      "metar": "METAR ENGM 052050Z 02008KT 9999 -SN OVC019 M10/M13 Q1014 NOSIG",
      "taf": "TAF ENGM 051700Z 0518/0618 02010KT 9999 -SN BKN020"
    },
    {
      "icao": "ENHD",
      "alert": "OK",
      "vis_m": 9999,
      "fzfg": false,
      "metar_trigger": false,
      "taf_trigger": false,
      "metar": "METAR ENHD 052050Z 08013KT CAVOK M01/M13 Q1005",
      "taf": "TAF ENHD 051400Z 0515/0523 06008KT CAVOK"
    },
    {
      "icao": "ENTC",
      "alert": "OK",
      "vis_m": 9999,
      "fzfg": false,
      "metar_trigger": false,
      "taf_trigger": false,
      "metar": "METAR ENTC 052050Z 20009KT 170V230 9999 BKN033 00/M02 Q1013 TEMPO 2000 SHSNRA BKN005 RMK WIND 2600FT 23009KT",
      "taf": "TAF ENTC 051700Z 0518/0618 25005KT 9999 FEW005 BKN025"
    },
    {
      "icao": "ENTO",
      "alert": "OK",
      "vis_m": 9999,
      "fzfg": false,
      "metar_trigger": false,
      "taf_trigger": false,
      "metar": "METAR ENTO 052050Z 02013KT 9999 -SN OVC018 M08/M11 Q1012 NOSIG",
      "taf": "TAF ENTO 051700Z 0518/0618 03012KT 8000 -SN BKN025"
    },
    {
      "icao": "ENVA",
      "alert": "OK",
      "vis_m": 9999,
      "fzfg": false,
      "metar_trigger": false,
      "taf_trigger": false,
      "metar": "METAR ENVA 052050Z 12009KT CAVOK M11/M20 Q1014 RMK WIND 670FT 10010KT",
      "taf": "TAF ENVA 051700Z 0518/0618 11008KT CAVOK"
    },
    {
      "icao": "ENZV",
      "alert": "OK",
      "vis_m": 9999,
      "fzfg": false,
      "metar_trigger": false,
      "taf_trigger": false,
      "metar": "METAR ENZV 052050Z VRB01KT CAVOK M04/M12 Q1005",
      "taf": "TAF ENZV 051700Z 0518/0618 08008KT CAVOK"
    },
    {
      "icao": "EPGD",
      "alert": "OK",
      "vis_m": 6000,
      "fzfg": false,
      "metar_trigger": false,
      "taf_trigger": false,
      "metar": "METAR EPGD 052100Z 09009KT 6000 BKN008 M04/M05 Q1001",
      "taf": ""
    },
    {
      "icao": "EPKK",
      "alert": "OK",
      "vis_m": 3500,
      "fzfg": false,
      "metar_trigger": false,
      "taf_trigger": false,
      "metar": "METAR EPKK 052100Z 07009KT 3500 BR OVC003 01/00 Q0997",
      "taf": "TAF EPKK 052030Z 0521/0621 06010KT 3500 BR OVC003"
    },
    {
      "icao": "EPKT",
      "alert": "OK",
      "vis_m": 6000,
      "fzfg": false,
      "metar_trigger": false,
      "taf_trigger": false,
      "metar": "METAR EPKT 052100Z 09007KT 6000 BKN006 01/00 Q0996",
      "taf": ""
    },
    {
      "icao": "EPLB",
      "alert": "OK",
      "vis_m": 2000,
      "fzfg": false,
      "metar_trigger": false,
      "taf_trigger": false,
      "metar": "METAR EPLB 052100Z 11011KT 2000 -FZDZ BR OVC002 M01/M01 Q1001",
      "taf": ""
    },
    {
      "icao": "EPMO",
      "alert": "OK",
      "vis_m": 7000,
      "fzfg": false,
      "metar_trigger": false,
      "taf_trigger": false,
      "metar": "METAR EPMO 052100Z 10009KT 7000 OVC006 M01/M01 Q1001",
      "taf": ""
    },
    {
      "icao": "EPPO",
      "alert": "OK",
      "vis_m": 2000,
      "fzfg": false,
      "metar_trigger": false,
      "taf_trigger": false,
      "metar": "METAR EPPO 052100Z 09008KT 2000 BR OVC002 M01/M02 Q0997",
      "taf": "TAF EPPO 051730Z 0518/0618 09008KT 3000 BR OVC005"
    },
    {
      "icao": "EPRA",
      "alert": "OK",
      "vis_m": 2300,
      "fzfg": false,
      "metar_trigger": false,
      "taf_trigger": false,
      "metar": "METAR EPRA 052100Z 10010KT 2300 BR OVC002 M00/M01 Q0999",
      "taf": "TAF EPRA 052030Z 0521/0606 11010KT 2000 BR OVC003"
    },
    {
      "icao": "EPRZ",
      "alert": "OK",
      "vis_m": 2600,
      "fzfg": false,
      "metar_trigger": false,
      "taf_trigger": false,
      "metar": "METAR EPRZ 052100Z 09011KT 2600 BR OVC002 01/01 Q0999",
      "taf": "TAF EPRZ 051730Z 0518/0618 09012KT 6000 OVC003"
    },
    {
      "icao": "EPSC",
      "alert": "OK",
      "vis_m": 4000,
      "fzfg": false,
      "metar_trigger": false,
      "taf_trigger": false,
      "metar": "METAR EPSC 052100Z 10007KT 4000 BR OVC006 M02/M03 Q0998",
      "taf": ""
    },
    {
      "icao": "EPSY",
      "alert": "OK",
      "vis_m": 7000,
      "fzfg": false,
      "metar_trigger": false,
      "taf_trigger": false,
      "metar": "METAR EPSY 052100Z 10006KT 060V160 7000 OVC007 M03/M04 Q1002",
      "taf": "TAF EPSY 052030Z 0521/0606 11008KT 8000 OVC006"
    },
    {
      "icao": "EPWA",
      "alert": "OK",
      "vis_m": 7000,
      "fzfg": false,
      "metar_trigger": false,
      "taf_trigger": false,
      "metar": "METAR EPWA 052100Z 10011KT 7000 -FZRA BKN004 M01/M01 Q1000 TEMPO 4000",
      "taf": "TAF EPWA 052030Z 0521/0621 10011KT 7000 OVC004"
    },
    {
      "icao": "EPWR",
      "alert": "OK",
      "vis_m": 3300,
      "fzfg": false,
      "metar_trigger": false,
      "taf_trigger": false,
      "metar": "METAR EPWR 052100Z VRB02KT 3300 BR SCT006 00/00 Q0996",
      "taf": "TAF EPWR 052030Z 0521/0621 10006KT 2500 BR BKN006"
    },
    {
      "icao": "ESGG",
      "alert": "OK",
      "vis_m": 9999,
      "fzfg": false,
      "metar_trigger": false,
      "taf_trigger": false,
      "metar": "METAR ESGG 052120Z 06013KT 9999 OVC015 M03/M07 Q1005",
      "taf": "TAF ESGG 052030Z 0521/0621 07014G24KT 9999 SCT020"
    },
    {
      "icao": "ESKN",
      "alert": "OK",
      "vis_m": 9999,
      "fzfg": false,
      "metar_trigger": false,
      "taf_trigger": false,
      "metar": "METAR ESKN 052120Z AUTO 03012KT 9999 OVC020/// M04/M06 Q1011",
      "taf": "TAF ESKN 052030Z 0521/0621 04009KT 9999 OVC018"
    },
    {
      "icao": "ESMS",
      "alert": "OK",
      "vis_m": 3000,
      "fzfg": false,
      "metar_trigger": false,
      "taf_trigger": false,
      "metar": "METAR ESMS 052120Z 08021KT 3000 -SN SCT010 OVC014 M01/M02 Q0999",
      "taf": ""
    },
    {
      "icao": "ESSA",
      "alert": "OK",
      "vis_m": 9999,
      "fzfg": false,
      "metar_trigger": false,
      "taf_trigger": false,
      "metar": "METAR ESSA 052120Z 06012KT 9999 -SN OVC009 M08/M10 Q1014 NOSIG",
      "taf": "TAF ESSA 052030Z 0521/0621 05010KT 9999 -SN OVC009"
    },
    {
      "icao": "EYKA",
      "alert": "OK",
      "vis_m": 9999,
      "fzfg": false,
      "metar_trigger": false,
      "taf_trigger": false,
      "metar": "METAR EYKA 052120Z 09006KT 9999 OVC012 M05/M07 Q1008",
      "taf": "TAF EYKA 051711Z 0518/0618 09009KT 8000 SCT010 OVC020"
    },
    {
      "icao": "EYPA",
      "alert": "OK",
      "vis_m": 9999,
      "fzfg": false,
      "metar_trigger": false,
      "taf_trigger": false,
      "metar": "METAR EYPA 052120Z 09008KT 060V120 9999 OVC031 M06/M09 Q1007",
      "taf": "TAF EYPA 051711Z 0518/0618 10010KT 8000 OVC020"
    },
    {
      "icao": "EYVI",
      "alert": "OK",
      "vis_m": 9999,
      "fzfg": false,
      "metar_trigger": false,
      "taf_trigger": false,
      "metar": "METAR EYVI 052120Z 12009KT 9999 OVC008 M06/M07 Q1007 NOSIG",
      "taf": ""
    },
    {
      "icao": "GCFV",
      "alert": "OK",
      "vis_m": 9999,
      "fzfg": false,
      "metar_trigger": false,
      "taf_trigger": false,
      "metar": "METAR GCFV 052100Z 29004KT 260V340 9999 FEW020 BKN045 20/15 Q1016",
      "taf": "TAF GCFV 052000Z 0521/0621 17007KT 9999 BKN025 TX21/0614Z TN16/0606Z"
    },
    {
      "icao": "GCLP",
      "alert": "OK",
      "vis_m": 9999,
      "fzfg": false,
      "metar_trigger": false,
      "taf_trigger": false,
      "metar": "METAR GCLP 052100Z VRB02KT 9999 SCT030 20/14 Q1016 NOSIG",
      "taf": "TAF GCLP 052000Z 0521/0621 VRB05KT 9999 SCT025 TX21/0614Z TN16/0606Z"
    },
    {
      "icao": "GCTS",
      "alert": "OK",
      "vis_m": 9999,
      "fzfg": false,
      "metar_trigger": false,
      "taf_trigger": false,
      "metar": "METAR GCTS 052100Z 10002KT 9999 FEW030 19/14 Q1016 NOSIG",
      "taf": "TAF GCTS 052000Z 0521/0621 VRB05KT 9999 SCT025 TX24/0614Z TN16/0606Z"
    },
    {
      "icao": "GMAD",
      "alert": "OK",
      "vis_m": 9999,
      "fzfg": false,
      "metar_trigger": false,
      "taf_trigger": false,
      "metar": "METAR GMAD 052100Z 00000KT 9999 FEW023 BKN033 15/14 Q1015 NOSIG",
      "taf": "TAF GMAD 051700Z 0518/0624 22006KT 8000 BKN016"
    },
    {
      "icao": "GMMN",
      "alert": "OK",
      "vis_m": 3000,
      "fzfg": false,
      "metar_trigger": false,
      "taf_trigger": false,
      "metar": "METAR GMMN 052100Z 24011KT 3000 DZ OVC006 15/14 Q1012 NOSIG",
      "taf": "TAF GMMN 051700Z 0518/0624 23018KT 9999 SCT008 BKN020"
    },
    {
      "icao": "GMMX",
      "alert": "OK",
      "vis_m": 6000,
      "fzfg": false,
      "metar_trigger": false,
      "taf_trigger": false,
      "metar": "METAR GMMX 052100Z 27004KT 240V320 6000 -RA SCT016 BKN026 16/13 Q1014 TEMPO 3000 RA BKN013",
      "taf": "TAF GMMX 051700Z 0518/0624 22006KT 8000 SCT026 SCT080"
    },
    {
      "icao": "HEGN",
      "alert": "OK",
      "vis_m": 9999,
      "fzfg": false,
      "metar_trigger": false,
      "taf_trigger": false,
      "metar": "METAR HEGN 052000Z 00000KT CAVOK 18/06 Q1013 NOSIG",
      "taf": "TAF HEGN 051700Z 0518/0624 30007KT CAVOK"
    },
    {
      "icao": "HEMA",
      "alert": "OK",
      "vis_m": 9999,
      "fzfg": false,
      "metar_trigger": false,
      "taf_trigger": false,
      "metar": "METAR HEMA 052000Z 21005KT CAVOK 17/10 Q1013 NOSIG",
      "taf": "TAF HEMA 051700Z 0518/0624 28009KT CAVOK"
    },
    {
      "icao": "HESH",
      "alert": "OK",
      "vis_m": 9999,
      "fzfg": false,
      "metar_trigger": false,
      "taf_trigger": false,
      "metar": "METAR HESH 052000Z 31003KT CAVOK 19/09 Q1013 NOSIG",
      "taf": "TAF HESH 051700Z 0518/0624 28007KT CAVOK"
    },
    {
      "icao": "HESX",
      "alert": "OK",
      "vis_m": 9999,
      "fzfg": false,
      "metar_trigger": false,
      "taf_trigger": false,
      "metar": "METAR HESX 052000Z 16006KT CAVOK 17/03 Q1012 NOSIG",
      "taf": "TAF HESX 051100Z 0512/0618 20010KT 9999 SCT020"
    },
    {
      "icao": "LATI",
      "alert": "OK",
      "vis_m": 9999,
      "fzfg": false,
      "metar_trigger": false,
      "taf_trigger": false,
      "metar": "METAR LATI 052120Z VRB01KT 9999 SCT053 SCT064 10/08 Q1000 NOSIG",
      "taf": "TAF LATI 051700Z 0518/0618 14006KT 9999 SCT050 BKN080 TX16/0615Z TN08/0605Z"
    },
    {
      "icao": "LBPD",
      "alert": "OK",
      "vis_m": 9999,
      "fzfg": false,
      "metar_trigger": false,
      "taf_trigger": false,
      "metar": "METAR LBPD 052100Z AUTO VRB02KT 9999 -SHRA SCT015/// BKN070/// OVC097/// 03/03 Q1000",
      "taf": "TAF LBPD 051700Z 0518/0618 VRB04KT 9999 BKN015 OVC025"
    },
    {
      "icao": "LBSF",
      "alert": "OK",
      "vis_m": 7000,
      "fzfg": false,
      "metar_trigger": false,
      "taf_trigger": false,
      "metar": "METAR LBSF 052100Z AUTO 00000KT 7000 FEW023/// SCT087/// 03/03 Q1000 TEMPO 4000 BR",
      "taf": "TAF LBSF 051700Z 0518/0618 10010KT 9999 BKN020 OVC040"
    },
    {
      "icao": "LBWN",
      "alert": "OK",
      "vis_m": 9999,
      "fzfg": false,
      "metar_trigger": false,
      "taf_trigger": false,
      "metar": "METAR LBWN 052100Z AUTO 11011KT 9999 OVC038/// 09/09 Q1000 NOSIG",
      "taf": "TAF LBWN 051700Z 0518/0618 10010KT 6000 RA BKN020 OVC040"
    },
    {
      "icao": "LCLK",
      "alert": "OK",
      "vis_m": 9999,
      "fzfg": false,
      "metar_trigger": false,
      "taf_trigger": false,
      "metar": "METAR LCLK 052100Z 31007KT CAVOK 13/11 Q1012 NOSIG",
      "taf": "TAF LCLK 051730Z 0518/0618 35006KT 9999 FEW025"
    },
    {
      "icao": "LCPH",
      "alert": "OK",
      "vis_m": 9999,
      "fzfg": false,
      "metar_trigger": false,
      "taf_trigger": false,
      "metar": "METAR LCPH 052100Z 13008KT 090V160 9999 FEW025 17/07 Q1011 NOSIG",
      "taf": "TAF LCPH 051730Z 0518/0618 12015KT 9999 FEW020"
    },
    {
      "icao": "LEAL",
      "alert": "OK",
      "vis_m": 9999,
      "fzfg": false,
      "metar_trigger": false,
      "taf_trigger": false,
      "metar": "METAR LEAL 052100Z 21007KT 170V250 CAVOK 16/08 Q0999 NOSIG",
      "taf": "TAF LEAL 051700Z 0518/0618 25020KT 9999 FEW020 TX18/0615Z TN08/0606Z"
    },
    {
      "icao": "LEBB",
      "alert": "OK",
      "vis_m": 9999,
      "fzfg": false,
      "metar_trigger": false,
      "taf_trigger": false,
      "metar": "METAR LEBB 052100Z 11006KT 080V140 9999 FEW058 10/09 Q0990 NOSIG",
      "taf": ""
    },
    {
      "icao": "LEBL",
      "alert": "OK",
      "vis_m": 9999,
      "fzfg": false,
      "metar_trigger": false,
      "taf_trigger": false,
      "metar": "METAR LEBL 052100Z 25012KT 9999 FEW025 14/07 Q0991 NOSIG",
      "taf": ""
    },
    {
      "icao": "LECH",
      "alert": "OK",
      "vis_m": 9999,
      "fzfg": false,
      "metar_trigger": false,
      "taf_trigger": false,
      "metar": "METAR LECH 052100Z AUTO 25022KT CAVOK 13/04 Q0994",
      "taf": ""
    },
    {
      "icao": "LEMD",
      "alert": "OK",
      "vis_m": 9000,
      "fzfg": false,
      "metar_trigger": false,
      "taf_trigger": false,
      "metar": "METAR LEMD 052100Z 23020KT 190V250 9000 -RA FEW025 SCT050 BKN065 08/06 Q0997 NOSIG",
      "taf": "TAF LEMD 051700Z 0518/0624 23015KT 9999 SCT020 TX10/0615Z TN06/0607Z"
    },
    {
      "icao": "LEMG",
      "alert": "OK",
      "vis_m": 9999,
      "fzfg": false,
      "metar_trigger": false,
      "taf_trigger": false,
      "metar": "METAR LEMG 052100Z 00000KT 9999 FEW070 14/07 Q1006 NOSIG",
      "taf": ""
    },
    {
      "icao": "LEVC",
      "alert": "OK",
      "vis_m": 9999,
      "fzfg": false,
      "metar_trigger": false,
      "taf_trigger": false,
      "metar": "METAR LEVC 052100Z 27020KT 240V300 CAVOK 17/06 Q0997 NOSIG",
      "taf": "TAF LEVC 051700Z 0518/0618 27015KT 9999 FEW035 TX20/0614Z TN11/0606Z"
    },
    {
      "icao": "LEXJ",
      "alert": "OK",
      "vis_m": 9999,
      "fzfg": false,
      "metar_trigger": false,
      "taf_trigger": false,
      "metar": "METAR LEXJ 052100Z 19005KT 9999 FEW020 11/08 Q0989",
      "taf": "TAF LEXJ 052000Z 0521/0621 20009KT 9999 SCT045 TX15/0611Z TN09/0607Z"
    },
    {
      "icao": "LEZG",
      "alert": "OK",
      "vis_m": 9999,
      "fzfg": false,
      "metar_trigger": false,
      "taf_trigger": false,
      "metar": "METAR LEZG 052100Z 24012KT 9999 FEW050 13/06 Q0993 NOSIG",
      "taf": ""
    },
    {
      "icao": "LEZL",
      "alert": "OK",
      "vis_m": 9000,
      "fzfg": false,
      "metar_trigger": false,
      "taf_trigger": false,
      "metar": "METAR LEZL 052100Z 23010KT 9000 FEW040 15/12 Q1005 NOSIG",
      "taf": "TAF LEZL 052000Z 0521/0621 23010KT 9999 FEW030 TX18/0615Z TN12/0607Z"
    },
    {
      "icao": "LFBD",
      "alert": "OK",
      "vis_m": 9999,
      "fzfg": false,
      "metar_trigger": false,
      "taf_trigger": false,
      "metar": "METAR LFBD 052100Z AUTO 22011KT 9999 FEW009 BKN030 BKN066 11/10 Q0987 TEMPO 24015G25KT 3000 SHRA BKN025TCU SCT030CB",
      "taf": "TAF LFBD 051700Z 0518/0624 22008KT 9999 BKN040 TX15/0614Z TN08/0624Z"
    },
    {
      "icao": "LFLL",
      "alert": "OK",
      "vis_m": 4000,
      "fzfg": false,
      "metar_trigger": false,
      "taf_trigger": false,
      "metar": "METAR LFLL 052100Z 00000KT 4000 RA BR BKN012 BKN030 08/08 Q0987 BECMG NSW",
      "taf": ""
    },
    {
      "icao": "LFLS",
      "alert": "OK",
      "vis_m": 7000,
      "fzfg": false,
      "metar_trigger": false,
      "taf_trigger": false,
      "metar": "METAR LFLS 052100Z AUTO 27003KT 7000 RA SCT008 BKN024 BKN048 07/07 Q0987",
      "taf": "TAF LFLS 051400Z 0515/0615 24007KT CAVOK"
    },
    {
      "icao": "LFMN",
      "alert": "OK",
      "vis_m": 2500,
      "fzfg": false,
      "metar_trigger": false,
      "taf_trigger": false,
      "metar": "METAR LFMN 052100Z 06024KT 2500 RA BR BKN010 BKN013 FEW015CB 11/10 Q0986 TEMPO TSRA",
      "taf": ""
    },
    {
      "icao": "LFOB",
      "alert": "OK",
      "vis_m": 9999,
      "fzfg": false,
      "metar_trigger": false,
      "taf_trigger": false,
      "metar": "METAR LFOB 052100Z AUTO 10007KT 9999 -RADZ ///TCU 08/08 Q0983 TEMPO 4500 -RA BKN010 OVC050",
      "taf": "TAF LFOB 051700Z 0518/0618 12010KT 9999 BKN045"
    },
    {
      "icao": "LFPO",
      "alert": "OK",
      "vis_m": 9999,
      "fzfg": false,
      "metar_trigger": false,
      "taf_trigger": false,
      "metar": "METAR LFPO 052100Z AUTO 14007KT 110V170 9999 -RA BKN033 BKN044 BKN052 10/08 Q0983 TEMPO SCT030TCU",
      "taf": "TAF LFPO 051700Z 0518/0624 10005KT 9999 SCT040 BKN060"
    },
    {
      "icao": "LFSB",
      "alert": "OK",
      "vis_m": 5000,
      "fzfg": false,
      "metar_trigger": false,
      "taf_trigger": false,
      "metar": "METAR LFSB 052100Z AUTO 33007KT 5000 BR FEW003 OVC150 03/02 Q0988 TEMPO BKN003",
      "taf": "TAF LFSB 051700Z 0518/0618 35004KT CAVOK"
    },
    {
      "icao": "LGAV",
      "alert": "OK",
      "vis_m": 9999,
      "fzfg": false,
      "metar_trigger": false,
      "taf_trigger": false,
      "metar": "METAR LGAV 052120Z VRB03KT 9999 FEW025 12/09 Q1001 NOSIG",
      "taf": "TAF LGAV 051700Z 0518/0618 23012KT 9999 FEW020 SCT030"
    },
    {
      "icao": "LGTS",
      "alert": "OK",
      "vis_m": 9999,
      "fzfg": false,
      "metar_trigger": false,
      "taf_trigger": false,
      "metar": "METAR LGTS 052120Z 10006KT 9999 FEW025 08/07 Q0999 NOSIG",
      "taf": "TAF LGTS 051700Z 0518/0618 VRB03KT 9999 FEW010 SCT025"
    },
    {
      "icao": "LHBP",
      "alert": "OK",
      "vis_m": 8000,
      "fzfg": false,
      "metar_trigger": false,
      "taf_trigger": false,
      "metar": "METAR LHBP 052100Z 11005KT 8000 -RA SCT042 BKN060 06/06 Q0996 NOSIG",
      "taf": "TAF LHBP 051715Z 0518/0618 08006KT 9999 BKN025"
    },
    {
      "icao": "LHDC",
      "alert": "OK",
      "vis_m": 9999,
      "fzfg": false,
      "metar_trigger": false,
      "taf_trigger": false,
      "metar": "METAR LHDC 052045Z AUTO VRB01KT CAVOK 06/05 Q0997",
      "taf": "TAF LHDC 051415Z 0515/0524 07005KT CAVOK"
    },
    {
      "icao": "LIBD",
      "alert": "OK",
      "vis_m": 9999,
      "fzfg": false,
      "metar_trigger": false,
      "taf_trigger": false,
      "metar": "METAR LIBD 052120Z 22008KT CAVOK 07/06 Q0999",
      "taf": "TAF LIBD 051700Z 0518/0618 VRB05KT CAVOK"
    },
    {
      "icao": "LIBG",
      "alert": "OK",
      "vis_m": null,
      "fzfg": false,
      "metar_trigger": false,
      "taf_trigger": false,
      "metar": "",
      "taf": "TAF LIBG 051700Z 0518/0603 VRB05KT 9999 SCT030"
    },
    {
      "icao": "LIBP",
      "alert": "OK",
      "vis_m": 9999,
      "fzfg": false,
      "metar_trigger": false,
      "taf_trigger": false,
      "metar": "METAR LIBP 052120Z AUTO 14009KT 120V180 9999 OVC160/// 12/09 Q0996",
      "taf": "TAF LIBP 051700Z 0518/0618 VRB05KT 9999 BKN030"
    },
    {
      "icao": "LIBR",
      "alert": "OK",
      "vis_m": 9999,
      "fzfg": false,
      "metar_trigger": false,
      "taf_trigger": false,
      "metar": "METAR LIBR 052120Z 23007KT CAVOK 10/09 Q1000",
      "taf": "TAF LIBR 051700Z 0518/0618 20014KT CAVOK"
    },
    {
      "icao": "LICA",
      "alert": "OK",
      "vis_m": 9999,
      "fzfg": false,
      "metar_trigger": false,
      "taf_trigger": false,
      "metar": "METAR LICA 052120Z AUTO VRB01KT 9999 SCT018/// BKN210/// 12/10 Q1002",
      "taf": "TAF LICA 051700Z 0518/0618 27010KT 9999 SCT040"
    },
    {
      "icao": "LICC",
      "alert": "OK",
      "vis_m": 9999,
      "fzfg": false,
      "metar_trigger": false,
      "taf_trigger": false,
      "metar": "METAR LICC 052120Z 25006KT CAVOK 12/09 Q1003",
      "taf": "TAF LICC 051700Z 0518/0618 25010KT 9999 FEW030"
    },
    {
      "icao": "LICJ",
      "alert": "OK",
      "vis_m": 9999,
      "fzfg": false,
      "metar_trigger": false,
      "taf_trigger": false,
      "metar": "METAR LICJ 052120Z 19016G26KT 9999 FEW020 SCT060 16/12 Q1001",
      "taf": "TAF LICJ 051700Z 0518/0618 22013KT 9999 FEW030"
    },
    {
      "icao": "LIMC",
      "alert": "OK",
      "vis_m": 6000,
      "fzfg": false,
      "metar_trigger": false,
      "taf_trigger": false,
      "metar": "METAR LIMC 052120Z 35002KT 6000 RA OVC032 07/06 Q0993 NOSIG",
      "taf": "TAF LIMC 051700Z 0518/0624 VRB05KT 8000 OVC040"
    },
    {
      "icao": "LIME",
      "alert": "OK",
      "vis_m": 9999,
      "fzfg": false,
      "metar_trigger": false,
      "taf_trigger": false,
      "metar": "METAR LIME 052120Z 14005KT 110V190 9999 -RA BKN040 08/05 Q0993 BECMG 4000 RA",
      "taf": "TAF LIME 051700Z 0518/0618 VRB06KT 7000 BKN045"
    },
    {
      "icao": "LIMF",
      "alert": "OK",
      "vis_m": 2500,
      "fzfg": false,
      "metar_trigger": false,
      "taf_trigger": false,
      "metar": "METAR LIMF 052120Z 06003KT 010V090 2500 RA BR SCT003 OVC030 06/05 Q0993",
      "taf": "TAF LIMF 051700Z 0518/0618 VRB05KT 7000 BKN040"
    },
    {
      "icao": "LIMJ",
      "alert": "OK",
      "vis_m": 8000,
      "fzfg": false,
      "metar_trigger": false,
      "taf_trigger": false,
      "metar": "METAR LIMJ 052120Z AUTO 14019KT 8000 -RA BKN014/// 13/11 Q0991",
      "taf": "TAF LIMJ 051700Z 0518/0618 15022KT 7000 OVC014"
    },
    {
      "icao": "LIPE",
      "alert": "OK",
      "vis_m": 9999,
      "fzfg": false,
      "metar_trigger": false,
      "taf_trigger": false,
      "metar": "METAR LIPE 052120Z 09006KT 9999 FEW060 08/07 Q0993",
      "taf": "TAF LIPE 051700Z 0518/0618 27008KT CAVOK"
    },
    {
      "icao": "LIPH",
      "alert": "OK",
      "vis_m": 9999,
      "fzfg": false,
      "metar_trigger": false,
      "taf_trigger": false,
      "metar": "METAR LIPH 052120Z 05004KT 010V080 9999 BKN009 08/07 Q0995",
      "taf": "TAF LIPH 051700Z 0518/0618 04009KT 8000 BKN040"
    },
    {
      "icao": "LIPQ",
      "alert": "OK",
      "vis_m": 9999,
      "fzfg": false,
      "metar_trigger": false,
      "taf_trigger": false,
      "metar": "METAR LIPQ 052120Z AUTO 01002KT 9999 OVC013/// 07/07 Q0996",
      "taf": "TAF LIPQ 051700Z 0518/0618 VRB05KT 9999 BKN040"
    },
    {
      "icao": "LIPR",
      "alert": "OK",
      "vis_m": 9999,
      "fzfg": false,
      "metar_trigger": false,
      "taf_trigger": false,
      "metar": "METAR LIPR 052120Z 16006KT CAVOK 11/06 Q0994",
      "taf": "TAF LIPR 051700Z 0518/0618 15010KT 9999 BKN040"
    },
    {
      "icao": "LIPX",
      "alert": "OK",
      "vis_m": 9999,
      "fzfg": false,
      "metar_trigger": false,
      "taf_trigger": false,
      "metar": "METAR LIPX 052120Z 07007KT 040V100 9999 BKN045 08/07 Q0994",
      "taf": "TAF LIPX 051700Z 0518/0618 VRB05KT 6000 SCT030 BKN050"
    },
    {
      "icao": "LIPY",
      "alert": "OK",
      "vis_m": 9999,
      "fzfg": false,
      "metar_trigger": false,
      "taf_trigger": false,
      "metar": "METAR LIPY 052120Z AUTO 16004KT 130V210 9999 BKN170/// 11/08 Q0995",
      "taf": "TAF LIPY 051700Z 0518/0618 VRB05KT 9999 BKN020"
    },
    {
      "icao": "LIPZ",
      "alert": "OK",
      "vis_m": 9999,
      "fzfg": false,
      "metar_trigger": false,
      "taf_trigger": false,
      "metar": "METAR LIPZ 052120Z 06005KT 9999 FEW008 BKN065 07/07 Q0995 NOSIG",
      "taf": "TAF LIPZ 051700Z 0518/0624 VRB05KT 9999 BKN030"
    },
    {
      "icao": "LIRF",
      "alert": "OK",
      "vis_m": 9000,
      "fzfg": false,
      "metar_trigger": false,
      "taf_trigger": false,
      "metar": "METAR LIRF 052120Z 14013KT 9000 RA FEW020 SCT035 12/10 Q0996 NOSIG",
      "taf": "TAF LIRF 051700Z 0518/0624 14015KT 9999 BKN040"
    },
    {
      "icao": "LIRN",
      "alert": "OK",
      "vis_m": 9999,
      "fzfg": false,
      "metar_trigger": false,
      "taf_trigger": false,
      "metar": "METAR LIRN 052120Z 20006KT 160V240 9999 SCT035 13/09 Q1000 NOSIG",
      "taf": "TAF LIRN 051700Z 0518/0618 VRB05KT 9999 SCT020"
    },
    {
      "icao": "LIRP",
      "alert": "OK",
      "vis_m": 9999,
      "fzfg": false,
      "metar_trigger": false,
      "taf_trigger": false,
      "metar": "METAR LIRP 052115Z 09011KT 9999 -RA SCT030 BKN060 11/10 Q0993 NOSIG",
      "taf": "TAF LIRP 051700Z 0518/0618 10005KT 9999 SCT025 BKN060"
    },
    {
      "icao": "LIRZ",
      "alert": "OK",
      "vis_m": 9999,
      "fzfg": false,
      "metar_trigger": false,
      "taf_trigger": false,
      "metar": "METAR LIRZ 052120Z AUTO 19008KT 9999 SCT049/// BKN110/// 11/06 Q0996",
      "taf": "TAF LIRZ 051700Z 0518/0618 VRB05KT 9999 BKN060"
    },
    {
      "icao": "LJLJ",
      "alert": "OK",
      "vis_m": 8000,
      "fzfg": false,
      "metar_trigger": false,
      "taf_trigger": false,
      "metar": "METAR LJLJ 052100Z 33003KT 8000 FEW002 SCT005 BKN020 04/03 Q0995 NOSIG",
      "taf": "TAF LJLJ 051700Z 0518/0618 VRB02KT 9999 FEW013 BKN035"
    },
    {
      "icao": "LKMT",
      "alert": "OK",
      "vis_m": 1800,
      "fzfg": false,
      "metar_trigger": false,
      "taf_trigger": false,
      "metar": "METAR LKMT 052100Z VRB02KT 1800 BR OVC032 01/00 Q0996 NOSIG",
      "taf": "TAF LKMT 051700Z 0518/0618 VRB02KT 4000 BR SCT014 OVC030"
    },
    {
      "icao": "LKPR",
      "alert": "OK",
      "vis_m": 4000,
      "fzfg": false,
      "metar_trigger": false,
      "taf_trigger": false,
      "metar": "METAR LKPR 052100Z 06006KT 4000 0700S R24/P2000N R30/P2000N BR BCFG FEW002 SCT005 OVC010 02/02 Q0992 NOSIG",
      "taf": "TAF LKPR 052000Z 0521/0703 08004KT 3000 BR SCT003 OVC012"
    },
    {
      "icao": "LLBG",
      "alert": "OK",
      "vis_m": 9999,
      "fzfg": false,
      "metar_trigger": false,
      "taf_trigger": false,
      "metar": "METAR LLBG 052120Z VRB03KT CAVOK 14/11 Q1012 NOSIG",
      "taf": "TAF LLBG 051719Z 0518/0618 VRB04KT CAVOK"
    },
    {
      "icao": "LMML",
      "alert": "OK",
      "vis_m": 9999,
      "fzfg": false,
      "metar_trigger": false,
      "taf_trigger": false,
      "metar": "METAR LMML 052115Z 23007KT CAVOK 15/13 Q1005 NOSIG",
      "taf": ""
    },
    {
      "icao": "LOWW",
      "alert": "OK",
      "vis_m": 9000,
      "fzfg": false,
      "metar_trigger": false,
      "taf_trigger": false,
      "metar": "METAR LOWW 052120Z 14010KT 9000 FEW009 BKN011 05/03 Q0994 TEMPO 4000 BR BKN008",
      "taf": "TAF LOWW 052015Z 0521/0703 14010KT 7000 FEW005 BKN012 TX04/0614Z TN02/0619Z"
    },
    {
      "icao": "LPFR",
      "alert": "OK",
      "vis_m": 9999,
      "fzfg": false,
      "metar_trigger": false,
      "taf_trigger": false,
      "metar": "METAR LPFR 052100Z 25014KT 9999 FEW022 15/12 Q1005",
      "taf": "TAF LPFR 051700Z 0518/0618 23017KT 9999 SCT025"
    },
    {
      "icao": "LPMA",
      "alert": "OK",
      "vis_m": 9999,
      "fzfg": false,
      "metar_trigger": false,
      "taf_trigger": false,
      "metar": "METAR LPMA 052100Z 24006KT 220V350 9999 SCT015 16/10 Q1012",
      "taf": "TAF LPMA 051700Z 0518/0618 VRB08G18KT 9999 SCT015"
    },
    {
      "icao": "LPPR",
      "alert": "OK",
      "vis_m": 9999,
      "fzfg": false,
      "metar_trigger": false,
      "taf_trigger": false,
      "metar": "METAR LPPR 052100Z 24009KT 9999 FEW018 FEW020CB BKN040 12/10 Q0996",
      "taf": "TAF LPPR 051700Z 0518/0618 24012KT 9999 SCT025"
    },
    {
      "icao": "LPPS",
      "alert": "OK",
      "vis_m": 9999,
      "fzfg": false,
      "metar_trigger": false,
      "taf_trigger": false,
      "metar": "METAR LPPS 052100Z 28011KT 9999 SCT012 SCT030 16/14 Q1012 REDZ",
      "taf": "TAF LPPS 051700Z 0518/0624 27015KT 9999 SCT015"
    },
    {
      "icao": "LPPT",
      "alert": "OK",
      "vis_m": 9999,
      "fzfg": false,
      "metar_trigger": false,
      "taf_trigger": false,
      "metar": "METAR LPPT 052100Z 24015G26KT 9999 FEW016 FEW025CB 13/11 Q1001",
      "taf": "TAF LPPT 051700Z 0518/0624 25012KT 9999 SCT025"
    },
    {
      "icao": "LQBK",
      "alert": "OK",
      "vis_m": 6000,
      "fzfg": false,
      "metar_trigger": false,
      "taf_trigger": false,
      "metar": "METAR LQBK 052100Z 00000KT 6000 FEW005 OVC007 06/06 Q0996 NOSIG",
      "taf": ""
    },
    {
      "icao": "LQSA",
      "alert": "OK",
      "vis_m": 9999,
      "fzfg": false,
      "metar_trigger": false,
      "taf_trigger": false,
      "metar": "METAR LQSA 052100Z 11003KT CAVOK 03/03 Q0997 NOSIG",
      "taf": "TAF LQSA 051700Z 0518/0618 VRB02KT 9999 BKN055 TX10/0613Z TN05/0605Z"
    },
    {
      "icao": "LQTZ",
      "alert": "OK",
      "vis_m": 8000,
      "fzfg": false,
      "metar_trigger": false,
      "taf_trigger": false,
      "metar": "METAR LQTZ 052100Z 00000KT 8000 NSC 05/05 Q0997",
      "taf": "TAF LQTZ 051700Z 0518/0618 10005KT 9999 SCT050 TX10/0613Z TN03/0605Z"
    },
    {
      "icao": "LRBC",
      "alert": "OK",
      "vis_m": 9999,
      "fzfg": false,
      "metar_trigger": false,
      "taf_trigger": false,
      "metar": "METAR LRBC 052100Z VRB01KT 9999 -RA OVC007 03/03 Q1004",
      "taf": "TAF LRBC 052000Z 0521/0606 15006KT 9999 -DZ OVC010"
    },
    {
      "icao": "LRBS",
      "alert": "OK",
      "vis_m": 5000,
      "fzfg": false,
      "metar_trigger": false,
      "taf_trigger": false,
      "metar": "METAR LRBS 052100Z 09007KT 5000 -RA BR OVC003 07/07 Q1000 NOSIG",
      "taf": "TAF LRBS 051700Z 0518/0618 08010KT 9999 SCT020 OVC030"
    },
    {
      "icao": "LRBV",
      "alert": "OK",
      "vis_m": 9999,
      "fzfg": false,
      "metar_trigger": false,
      "taf_trigger": false,
      "metar": "METAR LRBV 052100Z 07007KT 9999 FEW037 SCT044 BKN074 05/02 Q1000",
      "taf": "TAF LRBV 052000Z 0521/0606 08010KT 9999 BKN040"
    },
    {
      "icao": "LRCL",
      "alert": "OK",
      "vis_m": 9999,
      "fzfg": false,
      "metar_trigger": false,
      "taf_trigger": false,
      "metar": "METAR LRCL 052100Z 06002KT 9999 -RA OVC049 07/05 Q0999",
      "taf": "TAF LRCL 052000Z 0521/0606 VRB04KT 9999 OVC035"
    },
    {
      "icao": "LRCV",
      "alert": "OK",
      "vis_m": 250,
      "fzfg": false,
      "metar_trigger": false,
      "taf_trigger": false,
      "metar": "METAR LRCV 052100Z 27006KT 0250 R26/0325N FG VV002 03/03 Q1000",
      "taf": "TAF LRCV 052000Z 0521/0606 VRB04KT 0800 FG OVC003"
    },
    {
      "icao": "LRIA",
      "alert": "OK",
      "vis_m": 6000,
      "fzfg": false,
      "metar_trigger": false,
      "taf_trigger": false,
      "metar": "METAR LRIA 052100Z 10018KT 6000 -DZ OVC003 01/00 Q1006",
      "taf": "TAF LRIA 052000Z 0521/0606 11018KT 5000 -DZ BR OVC002"
    },
    {
      "icao": "LROP",
      "alert": "OK",
      "vis_m": 3900,
      "fzfg": false,
      "metar_trigger": false,
      "taf_trigger": false,
      "metar": "METAR LROP 052100Z 08006KT 3900 RA BR OVC002 07/07 Q1000 NOSIG",
      "taf": "TAF LROP 051700Z 0518/0618 08010KT 9999 SCT020 OVC030"
    },
    {
      "icao": "LRSB",
      "alert": "OK",
      "vis_m": 9999,
      "fzfg": false,
      "metar_trigger": false,
      "taf_trigger": false,
      "metar": "METAR LRSB 052100Z 02003KT 350V060 9999 BKN060 07/04 Q0998",
      "taf": "TAF LRSB 051700Z 0518/0618 VRB04KT 9999 BKN070"
    },
    {
      "icao": "LRSM",
      "alert": "OK",
      "vis_m": 9999,
      "fzfg": false,
      "metar_trigger": false,
      "taf_trigger": false,
      "metar": "METAR LRSM 052100Z AUTO 14007KT 9999 -SHRA OVC050/// 09/06 Q0998",
      "taf": "TAF LRSM 051400Z 0515/0524 14008KT 9999 SCT045"
    },
    {
      "icao": "LRSV",
      "alert": "OK",
      "vis_m": 150,
      "fzfg": false,
      "metar_trigger": false,
      "taf_trigger": false,
      "metar": "METAR LRSV 052100Z 11010KT 0150 R34/0325N DZ FG VV001 00/M00 Q1003",
      "taf": "TAF LRSV 052000Z 0521/0606 12010KT 0150 -DZ FG VV001"
    },
    {
      "icao": "LRTM",
      "alert": "OK",
      "vis_m": 9999,
      "fzfg": false,
      "metar_trigger": false,
      "taf_trigger": false,
      "metar": "METAR LRTM 052100Z AUTO 08007KT 9999 SCT038/// OVC049/// 08/03 Q0999",
      "taf": "TAF LRTM 052000Z 0521/0606 10006KT 9999 BKN040"
    },
    {
      "icao": "LRTR",
      "alert": "OK",
      "vis_m": 9999,
      "fzfg": false,
      "metar_trigger": false,
      "taf_trigger": false,
      "metar": "METAR LRTR 052100Z 08005KT CAVOK 04/04 Q0997",
      "taf": "TAF LRTR 051700Z 0518/0618 11006KT CAVOK"
    },
    {
      "icao": "LTAC",
      "alert": "OK",
      "vis_m": 9999,
      "fzfg": false,
      "metar_trigger": false,
      "taf_trigger": false,
      "metar": "METAR LTAC 052120Z VRB02KT 9999 -SHRA BKN030 BKN080 04/02 Q1009 NOSIG",
      "taf": "TAF LTAC 051640Z 0518/0618 VRB02KT 9999 SCT040 BKN100"
    },
    {
      "icao": "LTFM",
      "alert": "OK",
      "vis_m": 9999,
      "fzfg": false,
      "metar_trigger": false,
      "taf_trigger": false,
      "metar": "METAR LTFM 052120Z 19004KT 9999 -RA SCT035 BKN080 10/08 Q1001 NOSIG",
      "taf": "TAF LTFM 051640Z 0518/0624 14014KT 9999 -RA SCT035 BKN080"
    },
    {
      "icao": "LUKK",
      "alert": "OK",
      "vis_m": 9000,
      "fzfg": false,
      "metar_trigger": false,
      "taf_trigger": false,
      "metar": "METAR LUKK 052100Z 11011KT 9000 -FZRA OVC006 M01/M02 Q1008 NOSIG",
      "taf": "TAF LUKK 051718Z 0518/0618 12010KT 6000 OVC005"
    },
    {
      "icao": "LWOH",
      "alert": "OK",
      "vis_m": null,
      "fzfg": false,
      "metar_trigger": false,
      "taf_trigger": false,
      "metar": "",
      "taf": "TAF LWOH 052050Z 0521/0621 16005KT 9999 BKN040"
    },
    {
      "icao": "LWSK",
      "alert": "OK",
      "vis_m": 9999,
      "fzfg": false,
      "metar_trigger": false,
      "taf_trigger": false,
      "metar": "METAR LWSK 052120Z 16003KT 120V190 9999 FEW060 06/05 Q1000 NOSIG",
      "taf": "TAF LWSK 052050Z 0521/0621 VRB02KT 9999 SCT045"
    },
    {
      "icao": "LYBE",
      "alert": "OK",
      "vis_m": 9999,
      "fzfg": false,
      "metar_trigger": false,
      "taf_trigger": false,
      "metar": "METAR LYBE 052100Z 14008KT CAVOK 06/02 Q0997 NOSIG",
      "taf": "TAF LYBE 051700Z 0518/0618 09007KT CAVOK TX13/0613Z TN04/0606Z"
    },
    {
      "icao": "LYNI",
      "alert": "OK",
      "vis_m": 9999,
      "fzfg": false,
      "metar_trigger": false,
      "taf_trigger": false,
      "metar": "METAR LYNI 052100Z VRB01KT CAVOK 01/01 Q0999 NOSIG",
      "taf": "TAF LYNI 051700Z 0518/0618 10006KT 9999 SCT050 TX11/0613Z TN02/0606Z"
    },
    {
      "icao": "LYPG",
      "alert": "OK",
      "vis_m": 9999,
      "fzfg": false,
      "metar_trigger": false,
      "taf_trigger": false,
      "metar": "METAR LYPG 052100Z 08001KT 9999 FEW010 SCT050 BKN090 08/08 Q1000 NOSIG",
      "taf": "TAF LYPG 051700Z 0518/0618 36005KT 8000 FEW020 SCT040 TX14/0615Z TN08/0602Z"
    },
    {
      "icao": "LZIB",
      "alert": "OK",
      "vis_m": 7000,
      "fzfg": false,
      "metar_trigger": false,
      "taf_trigger": false,
      "metar": "METAR LZIB 052100Z 10004KT 7000 FEW011 OVC018 05/04 Q0995 NOSIG",
      "taf": "TAF LZIB 051715Z 0518/0618 12007KT 9999 BKN020"
    },
    {
      "icao": "LZKZ",
      "alert": "OK",
      "vis_m": 9999,
      "fzfg": false,
      "metar_trigger": false,
      "taf_trigger": false,
      "metar": "METAR LZKZ 052100Z 36006KT CAVOK 04/03 Q0997 NOSIG",
      "taf": "TAF LZKZ 051715Z 0518/0618 01009KT 9999 BKN030"
    },
    {
      "icao": "LZTT",
      "alert": "OK",
      "vis_m": 1100,
      "fzfg": false,
      "metar_trigger": false,
      "taf_trigger": false,
      "metar": "METAR LZTT 052100Z 00000KT 1100 R27/1000N BR OVC002 01/01 Q0996",
      "taf": ""
    },
    {
      "icao": "OEJN",
      "alert": "OK",
      "vis_m": 9999,
      "fzfg": false,
      "metar_trigger": false,
      "taf_trigger": false,
      "metar": "METAR OEJN 052100Z 00000KT 9999 SCT040 25/16 Q1011 NOSIG",
      "taf": "TAF OEJN 051700Z 0518/0624 36006KT 7000 FEW040"
    },
    {
      "icao": "OEMA",
      "alert": "OK",
      "vis_m": 9000,
      "fzfg": false,
      "metar_trigger": false,
      "taf_trigger": false,
      "metar": "METAR OEMA 052100Z 01002KT 9000 SCT040 23/00 Q1015 NOSIG",
      "taf": "TAF OEMA 051700Z 0518/0624 28006KT 7000 SCT045"
    },
    {
      "icao": "OJAI",
      "alert": "OK",
      "vis_m": 4000,
      "fzfg": false,
      "metar_trigger": false,
      "taf_trigger": false,
      "metar": "METAR OJAI 052100Z 12006KT 4000 HZ NSC 13/01 Q1015 NOSIG",
      "taf": "TAF OJAI 051700Z 0518/0624 12006KT 5000 HZ NSC"
    },
    {
      "icao": "OMAA",
      "alert": "OK",
      "vis_m": 9999,
      "fzfg": false,
      "metar_trigger": false,
      "taf_trigger": false,
      "metar": "METAR OMAA 052100Z 36004KT CAVOK 20/15 Q1019 NOSIG",
      "taf": "TAF OMAA 051700Z 0518/0700 33010KT 8000 NSC"
    },
    {
      "icao": "OMDB",
      "alert": "OK",
      "vis_m": 9999,
      "fzfg": false,
      "metar_trigger": false,
      "taf_trigger": false,
      "metar": "METAR OMDB 052100Z 36004KT 330V060 CAVOK 21/15 Q1019 NOSIG",
      "taf": "TAF OMDB 051700Z 0518/0700 30010KT 8000 NSC"
    },
    {
      "icao": "UAAA",
      "alert": "OK",
      "vis_m": 2700,
      "fzfg": false,
      "metar_trigger": false,
      "taf_trigger": false,
      "metar": "METAR UAAA 052100Z VRB01MPS 2700 BR FU BKN100 M02/M04 Q1013 NOSIG",
      "taf": "TAF UAAA 051709Z 0518/0618 20003MPS 1200 BR FU SCT050CB BKN100 TX04/0607Z TNM02/0602Z"
    },
    {
      "icao": "UBBB",
      "alert": "OK",
      "vis_m": 9999,
      "fzfg": false,
      "metar_trigger": false,
      "taf_trigger": false,
      "metar": "METAR UBBB 052100Z 27006KT 9999 -RA BKN011 OVC025 01/01 Q1024 NOSIG",
      "taf": "TAF UBBB 051702Z 0518/0618 13008KT 9999 BKN012 BKN020 TX08/0611Z TN02/0600Z"
    },
    {
      "icao": "UDSG",
      "alert": "OK",
      "vis_m": 9000,
      "fzfg": false,
      "metar_trigger": false,
      "taf_trigger": false,
      "metar": "METAR UDSG 052100Z 11002KT 9000 NSC M11/M12 Q1022 NOSIG",
      "taf": "TAF UDSG 051700Z 0518/0618 VRB06KT 9999 FEW040"
    },
    {
      "icao": "UDYZ",
      "alert": "OK",
      "vis_m": 4900,
      "fzfg": false,
      "metar_trigger": false,
      "taf_trigger": false,
      "metar": "METAR UDYZ 052100Z 10001KT 4900 BR NSC M02/M03 Q1022 NOSIG",
      "taf": "TAF UDYZ 051700Z 0518/0618 VRB04KT 6000 NSC"
    },
    {
      "icao": "UGKO",
      "alert": "OK",
      "vis_m": 9999,
      "fzfg": false,
      "metar_trigger": false,
      "taf_trigger": false,
      "metar": "METAR UGKO 052100Z 09028G41KT CAVOK 07/M02 Q1012 NOSIG",
      "taf": "TAF UGKO 051700Z 0518/0618 08032G45KT CAVOK TX15/0611Z TN05/0604Z"
    }
  ]
}