{
  "ts_utc": "2025-12-25T13:24:11Z",
  "threshold_m": 150,
  "source": "stations_override.txt (ICAO list) + aviationweather.gov (METAR/TAF raw)",
  "station_count": 159,
  "stations": [
    {
      "icao": "BIKF",
      "alert": "OK",
      "vis_m": 6000,
      "fzfg": false,
      "metar_trigger": false,
      "taf_trigger": false,
      "metar": "METAR BIKF 251300Z 16022KT 6000 -RA BR OVC005 08/08 Q1020",
      "taf": ""
    },
    {
      "icao": "BKPR",
      "alert": "OK",
      "vis_m": 9999,
      "fzfg": false,
      "metar_trigger": false,
      "taf_trigger": false,
      "metar": "METAR BKPR 251300Z 01016KT 9999 SCT015 BKN020 01/M01 Q1023 NOSIG",
      "taf": "TAF BKPR 251130Z 2512/2612 01014KT 9999 SCT013 BKN030"
    },
    {
      "icao": "EBCI",
      "alert": "OK",
      "vis_m": 9999,
      "fzfg": false,
      "metar_trigger": false,
      "taf_trigger": false,
      "metar": "METAR EBCI 251250Z 06016KT CAVOK M02/M07 Q1024 NOSIG",
      "taf": "TAF EBCI 251120Z 2512/2618 06012KT CAVOK"
    },
    {
      "icao": "EDDB",
      "alert": "OK",
      "vis_m": 9999,
      "fzfg": false,
      "metar_trigger": false,
      "taf_trigger": false,
      "metar": "METAR EDDB 251250Z AUTO 06008KT CAVOK M05/M09 Q1036 NOSIG",
      "taf": "TAF EDDB 251100Z 2512/2612 07008KT CAVOK"
    },
    {
      "icao": "EDDH",
      "alert": "OK",
      "vis_m": 9999,
      "fzfg": false,
      "metar_trigger": false,
      "taf_trigger": false,
      "metar": "METAR EDDH 251250Z AUTO 07007KT CAVOK M01/M10 Q1037 NOSIG",
      "taf": "TAF EDDH 251100Z 2512/2618 09009KT CAVOK"
    },
    {
      "icao": "EDDK",
      "alert": "OK",
      "vis_m": 9999,
      "fzfg": false,
      "metar_trigger": false,
      "taf_trigger": false,
      "metar": "METAR EDDK 251250Z AUTO 08007KT 050V110 CAVOK 03/M05 Q1027 NOSIG",
      "taf": "TAF EDDK 251100Z 2512/2618 09007KT CAVOK"
    },
    {
      "icao": "EDDN",
      "alert": "OK",
      "vis_m": 9999,
      "fzfg": false,
      "metar_trigger": false,
      "taf_trigger": false,
      "metar": "METAR EDDN 251250Z AUTO 09009KT 050V120 CAVOK 03/M04 Q1025 NOSIG",
      "taf": "TAF EDDN 251100Z 2512/2612 08010KT CAVOK"
    },
    {
      "icao": "EDDS",
      "alert": "OK",
      "vis_m": 9999,
      "fzfg": false,
      "metar_trigger": false,
      "taf_trigger": false,
      "metar": "METAR EDDS 251250Z AUTO 09011KT CAVOK 02/M03 Q1021 NOSIG",
      "taf": "TAF EDDS 251100Z 2512/2612 07010KT 9999 BKN020"
    },
    {
      "icao": "EDFH",
      "alert": "OK",
      "vis_m": 9999,
      "fzfg": false,
      "metar_trigger": false,
      "taf_trigger": false,
      "metar": "METAR EDFH 251250Z 08011KT 040V110 9999 FEW020 M01/M05 Q1023",
      "taf": "TAF EDFH 251100Z 2512/2612 09012KT 9999 BKN015"
    },
    {
      "icao": "EDJA",
      "alert": "OK",
      "vis_m": 9999,
      "fzfg": false,
      "metar_trigger": false,
      "taf_trigger": false,
      "metar": "METAR EDJA 251250Z 05010KT 030V090 9999 BKN006 M02/M04 Q1020",
      "taf": "TAF EDJA 251100Z 2512/2521 06011KT 9999 OVC005"
    },
    {
      "icao": "EDLW",
      "alert": "OK",
      "vis_m": 9999,
      "fzfg": false,
      "metar_trigger": false,
      "taf_trigger": false,
      "metar": "METAR EDLW 251250Z 03013KT CAVOK M02/M07 Q1029",
      "taf": "TAF EDLW 251100Z 2512/2612 05012KT CAVOK"
    },
    {
      "icao": "EDNY",
      "alert": "OK",
      "vis_m": 9999,
      "fzfg": false,
      "metar_trigger": false,
      "taf_trigger": false,
      "metar": "METAR EDNY 251250Z 02010KT 9999 BKN015 01/M02 Q1020",
      "taf": "TAF EDNY 251100Z 2512/2521 03010KT 9999 FEW010"
    },
    {
      "icao": "EDSB",
      "alert": "OK",
      "vis_m": 9999,
      "fzfg": false,
      "metar_trigger": false,
      "taf_trigger": false,
      "metar": "METAR EDSB 251250Z 03016KT CAVOK 02/M03 Q1022",
      "taf": "TAF EDSB 251100Z 2512/2612 03015G25KT 9999 SCT025"
    },
    {
      "icao": "EETN",
      "alert": "OK",
      "vis_m": 9999,
      "fzfg": false,
      "metar_trigger": false,
      "taf_trigger": false,
      "metar": "METAR EETN 251320Z 28019KT 9999 SCT041 06/03 Q1018 TEMPO 28020G30KT",
      "taf": "TAF EETN 251130Z 2512/2612 27018KT 9999 SCT020"
    },
    {
      "icao": "EFTU",
      "alert": "OK",
      "vis_m": 9999,
      "fzfg": false,
      "metar_trigger": false,
      "taf_trigger": false,
      "metar": "METAR EFTU 251320Z AUTO 29012G22KT 270V330 9999 BKN031 05/01 Q1019",
      "taf": "TAF EFTU 251122Z 2512/2612 28012KT 9999 BKN035"
    },
    {
      "icao": "EGBB",
      "alert": "OK",
      "vis_m": 9999,
      "fzfg": false,
      "metar_trigger": false,
      "taf_trigger": false,
      "metar": "METAR EGBB 251250Z 05017KT CAVOK 05/M01 Q1030",
      "taf": "TAF EGBB 251059Z 2512/2612 04012KT 9999 SCT020"
    },
    {
      "icao": "EGGP",
      "alert": "OK",
      "vis_m": 9999,
      "fzfg": false,
      "metar_trigger": false,
      "taf_trigger": false,
      "metar": "METAR EGGP 251250Z AUTO 06012KT 9999 BKN030/// 06/M01 Q1033",
      "taf": ""
    },
    {
      "icao": "EGGW",
      "alert": "OK",
      "vis_m": 9999,
      "fzfg": false,
      "metar_trigger": false,
      "taf_trigger": false,
      "metar": "METAR EGGW 251250Z AUTO 05016KT 9999 NCD 04/M04 Q1028",
      "taf": "TAF EGGW 251053Z 2512/2612 05013KT 9999 FEW025"
    },
    {
      "icao": "EGKK",
      "alert": "OK",
      "vis_m": 9999,
      "fzfg": false,
      "metar_trigger": false,
      "taf_trigger": false,
      "metar": "METAR EGKK 251250Z 06020G30KT 9999 FEW028 05/M01 Q1026",
      "taf": "TAF EGKK 251056Z 2512/2618 05018G30KT 9999 FEW025"
    },
    {
      "icao": "EGNM",
      "alert": "OK",
      "vis_m": null,
      "fzfg": false,
      "metar_trigger": false,
      "taf_trigger": false,
      "metar": "",
      "taf": ""
    },
    {
      "icao": "EGPD",
      "alert": "OK",
      "vis_m": 9999,
      "fzfg": false,
      "metar_trigger": false,
      "taf_trigger": false,
      "metar": "METAR EGPD 251250Z COR AUTO 35003KT 330V040 9999 OVC023 01/00 Q1039 NOSIG",
      "taf": "TAF EGPD 251056Z 2512/2612 VRB02KT 9999 BKN020"
    },
    {
      "icao": "EGPF",
      "alert": "OK",
      "vis_m": 9999,
      "fzfg": false,
      "metar_trigger": false,
      "taf_trigger": false,
      "metar": "METAR EGPF 251250Z AUTO 08008KT 040V110 9999 OVC025 06/02 Q1038",
      "taf": "TAF EGPF 251059Z 2512/2612 07005KT 9999 FEW018 SCT025"
    },
    {
      "icao": "EHBK",
      "alert": "OK",
      "vis_m": 9999,
      "fzfg": false,
      "metar_trigger": false,
      "taf_trigger": false,
      "metar": "METAR EHBK 251255Z AUTO 05015KT 9999 NCD M00/M06 Q1026 NOSIG",
      "taf": "TAF EHBK 251049Z 2512/2618 06013KT CAVOK"
    },
    {
      "icao": "EHEH",
      "alert": "OK",
      "vis_m": 9999,
      "fzfg": false,
      "metar_trigger": false,
      "taf_trigger": false,
      "metar": "METAR EHEH 251255Z AUTO 06010KT 030V090 9999 BKN110 M01/M07 Q1028 BLU NOSIG RMK TREND REMOTE BY EHWX",
      "taf": "TAF EHEH 251107Z 2512/2618 04012KT CAVOK"
    },
    {
      "icao": "EKBI",
      "alert": "OK",
      "vis_m": 9999,
      "fzfg": false,
      "metar_trigger": false,
      "taf_trigger": false,
      "metar": "METAR EKBI 251320Z AUTO 00000KT 9999 BKN220/// 01/M03 Q1038",
      "taf": "TAF EKBI 251127Z 2512/2612 VRB03KT CAVOK"
    },
    {
      "icao": "EKCH",
      "alert": "OK",
      "vis_m": 9999,
      "fzfg": false,
      "metar_trigger": false,
      "taf_trigger": false,
      "metar": "METAR EKCH 251320Z AUTO 28003KT 9999 NCD 00/M03 Q1038 NOSIG",
      "taf": "TAF EKCH 251127Z 2512/2612 VRB04KT 9999 SCT020"
    },
    {
      "icao": "ENAL",
      "alert": "OK",
      "vis_m": 9999,
      "fzfg": false,
      "metar_trigger": false,
      "taf_trigger": false,
      "metar": "METAR ENAL 251250Z 23014KT 9999 SCT023 BKN030 09/05 Q1037",
      "taf": "TAF ENAL 251100Z 2512/2521 22012KT 9999 BKN022"
    },
    {
      "icao": "ENBR",
      "alert": "OK",
      "vis_m": 9999,
      "fzfg": false,
      "metar_trigger": false,
      "taf_trigger": false,
      "metar": "METAR ENBR 251250Z 00000KT 9999 BKN029 04/03 Q1039 NOSIG RMK WIND 1200FT 36009KT",
      "taf": "TAF ENBR 251100Z 2512/2612 34008KT 9999 BKN028"
    },
    {
      "icao": "ENGM",
      "alert": "OK",
      "vis_m": 9999,
      "fzfg": false,
      "metar_trigger": false,
      "taf_trigger": false,
      "metar": "METAR ENGM 251250Z 00000KT 9999 FEW003 M05/M07 Q1033 NOSIG",
      "taf": "TAF ENGM 251100Z 2512/2612 02005KT 9999 FEW003"
    },
    {
      "icao": "ENHD",
      "alert": "OK",
      "vis_m": 9999,
      "fzfg": false,
      "metar_trigger": false,
      "taf_trigger": false,
      "metar": "METAR ENHD 251250Z AUTO 01008KT 9999 NCD 05/03 Q1037",
      "taf": "TAF ENHD 250800Z 2509/2515 03005KT 9999 BKN025"
    },
    {
      "icao": "ENTC",
      "alert": "OK",
      "vis_m": 9999,
      "fzfg": false,
      "metar_trigger": false,
      "taf_trigger": false,
      "metar": "METAR ENTC 251250Z 27016KT 9999 -RA SCT034 BKN041 04/M00 Q1012 NOSIG RMK WIND 2600FT 31040KT",
      "taf": "TAF ENTC 251100Z 2512/2612 28015KT 9999 -RA FEW009 BKN018"
    },
    {
      "icao": "ENTO",
      "alert": "OK",
      "vis_m": 9999,
      "fzfg": false,
      "metar_trigger": false,
      "taf_trigger": false,
      "metar": "METAR ENTO 251250Z AUTO 01004KT 9999 NCD M04/M04 Q1034",
      "taf": "TAF ENTO 251100Z 2512/2612 34005KT CAVOK"
    },
    {
      "icao": "ENVA",
      "alert": "OK",
      "vis_m": 9999,
      "fzfg": false,
      "metar_trigger": false,
      "taf_trigger": false,
      "metar": "METAR ENVA 251250Z 28024KT 9999 -RA FEW012 SCT019 OVC025 08/06 Q1030 NOSIG RMK WIND 670FT 28031G45KT",
      "taf": "TAF ENVA 251100Z 2512/2612 28018KT 9999 SCT018 BKN030"
    },
    {
      "icao": "ENZV",
      "alert": "OK",
      "vis_m": 9999,
      "fzfg": false,
      "metar_trigger": false,
      "taf_trigger": false,
      "metar": "METAR ENZV 251250Z COR 02004KT CAVOK 01/M00 Q1037 NOSIG",
      "taf": "TAF ENZV 251100Z 2512/2612 35008KT CAVOK"
    },
    {
      "icao": "EPGD",
      "alert": "OK",
      "vis_m": 9999,
      "fzfg": false,
      "metar_trigger": false,
      "taf_trigger": false,
      "metar": "METAR EPGD 251300Z 28008KT CAVOK M04/M10 Q1036",
      "taf": "TAF EPGD 251130Z 2512/2612 26008KT CAVOK"
    },
    {
      "icao": "EPKK",
      "alert": "OK",
      "vis_m": 9999,
      "fzfg": false,
      "metar_trigger": false,
      "taf_trigger": false,
      "metar": "METAR EPKK 251300Z 07007KT 9999 OVC009 M05/M07 Q1034",
      "taf": "TAF EPKK 251130Z 2512/2612 05010KT 9999 OVC009"
    },
    {
      "icao": "EPKT",
      "alert": "OK",
      "vis_m": 9999,
      "fzfg": false,
      "metar_trigger": false,
      "taf_trigger": false,
      "metar": "METAR EPKT 251300Z 10005KT 9999 OVC011 M05/M07 Q1034",
      "taf": "TAF EPKT 251130Z 2512/2612 06010KT 9999 OVC010"
    },
    {
      "icao": "EPLB",
      "alert": "OK",
      "vis_m": 9999,
      "fzfg": false,
      "metar_trigger": false,
      "taf_trigger": false,
      "metar": "METAR EPLB 251300Z 05007KT CAVOK M06/M12 Q1037",
      "taf": "TAF EPLB 251130Z 2512/2612 09005KT CAVOK"
    },
    {
      "icao": "EPMO",
      "alert": "OK",
      "vis_m": 9999,
      "fzfg": false,
      "metar_trigger": false,
      "taf_trigger": false,
      "metar": "METAR EPMO 251300Z VRB02KT CAVOK M04/M10 Q1037",
      "taf": "TAF EPMO 251130Z 2512/2612 VRB05KT CAVOK"
    },
    {
      "icao": "EPPO",
      "alert": "OK",
      "vis_m": 9999,
      "fzfg": false,
      "metar_trigger": false,
      "taf_trigger": false,
      "metar": "METAR EPPO 251300Z 12005KT CAVOK M04/M12 Q1037",
      "taf": "TAF EPPO 251130Z 2512/2612 09005KT CAVOK"
    },
    {
      "icao": "EPRA",
      "alert": "OK",
      "vis_m": 9999,
      "fzfg": false,
      "metar_trigger": false,
      "taf_trigger": false,
      "metar": "METAR EPRA 251300Z VRB03KT CAVOK M06/M11 Q1036",
      "taf": "TAF EPRA 251130Z 2512/2521 VRB03KT CAVOK"
    },
    {
      "icao": "EPRZ",
      "alert": "OK",
      "vis_m": 9999,
      "fzfg": false,
      "metar_trigger": false,
      "taf_trigger": false,
      "metar": "METAR EPRZ 251300Z 09009KT 9999 OVC013 M04/M07 Q1035",
      "taf": "TAF EPRZ 251130Z 2512/2612 09010KT 9999 OVC010"
    },
    {
      "icao": "EPSC",
      "alert": "OK",
      "vis_m": 9999,
      "fzfg": false,
      "metar_trigger": false,
      "taf_trigger": false,
      "metar": "METAR EPSC 251300Z 14003KT CAVOK M03/M11 Q1038",
      "taf": "TAF EPSC 251130Z 2512/2612 VRB04KT CAVOK"
    },
    {
      "icao": "EPSY",
      "alert": "OK",
      "vis_m": 9999,
      "fzfg": false,
      "metar_trigger": false,
      "taf_trigger": false,
      "metar": "METAR EPSY 251300Z 22004KT CAVOK M06/M11 Q1037",
      "taf": "TAF EPSY 251130Z 2512/2521 VRB02KT CAVOK"
    },
    {
      "icao": "EPWA",
      "alert": "OK",
      "vis_m": 9999,
      "fzfg": false,
      "metar_trigger": false,
      "taf_trigger": false,
      "metar": "METAR EPWA 251300Z 16004KT 120V180 CAVOK M05/M12 Q1037 NOSIG",
      "taf": ""
    },
    {
      "icao": "EPWR",
      "alert": "OK",
      "vis_m": 9999,
      "fzfg": false,
      "metar_trigger": false,
      "taf_trigger": false,
      "metar": "METAR EPWR 251300Z 06008KT 9999 OVC015 M05/M07 Q1036",
      "taf": "TAF EPWR 251130Z 2512/2612 08006KT 9999 BKN017"
    },
    {
      "icao": "ESGG",
      "alert": "OK",
      "vis_m": 9999,
      "fzfg": false,
      "metar_trigger": false,
      "taf_trigger": false,
      "metar": "METAR ESGG 251250Z 23009KT 9999 SCT009 OVC012 01/00 Q1036",
      "taf": "TAF ESGG 251130Z 2512/2612 26005KT 9999 BKN015"
    },
    {
      "icao": "ESKN",
      "alert": "OK",
      "vis_m": 9999,
      "fzfg": false,
      "metar_trigger": false,
      "taf_trigger": false,
      "metar": "METAR ESKN 251250Z 27014KT CAVOK 00/M01 Q1030",
      "taf": "TAF ESKN 251130Z 2512/2612 28010G20KT CAVOK"
    },
    {
      "icao": "ESMS",
      "alert": "OK",
      "vis_m": 9999,
      "fzfg": false,
      "metar_trigger": false,
      "taf_trigger": false,
      "metar": "METAR ESMS 251250Z 33005KT CAVOK M01/M02 Q1037",
      "taf": "TAF ESMS 251127Z 2512/2612 VRB03KT 9999 FEW020"
    },
    {
      "icao": "ESSA",
      "alert": "OK",
      "vis_m": 9999,
      "fzfg": false,
      "metar_trigger": false,
      "taf_trigger": false,
      "metar": "METAR ESSA 251250Z 27012KT 9999 -SN FEW036 OVC064 00/M03 Q1027 NOSIG",
      "taf": "TAF ESSA 251130Z 2512/2612 26012KT CAVOK"
    },
    {
      "icao": "EYKA",
      "alert": "OK",
      "vis_m": 9999,
      "fzfg": false,
      "metar_trigger": false,
      "taf_trigger": false,
      "metar": "METAR EYKA 251320Z 26014KT 9999 OVC019 M01/M06 Q1033",
      "taf": ""
    },
    {
      "icao": "EYPA",
      "alert": "OK",
      "vis_m": 9999,
      "fzfg": false,
      "metar_trigger": false,
      "taf_trigger": false,
      "metar": "METAR EYPA 251320Z VRB08KT 9999 OVC017 02/M01 Q1033",
      "taf": "TAF EYPA 251100Z 2512/2612 27012KT 9000 OVC025"
    },
    {
      "icao": "EYVI",
      "alert": "OK",
      "vis_m": 9999,
      "fzfg": false,
      "metar_trigger": false,
      "taf_trigger": false,
      "metar": "METAR EYVI 251320Z 27013KT 9999 OVC015 M02/M05 Q1031 NOSIG",
      "taf": "TAF EYVI 251100Z 2512/2612 27012KT 9000 OVC015"
    },
    {
      "icao": "GCFV",
      "alert": "OK",
      "vis_m": 9999,
      "fzfg": false,
      "metar_trigger": false,
      "taf_trigger": false,
      "metar": "METAR GCFV 251300Z 35015KT 310V010 9999 FEW035 20/09 Q1015",
      "taf": "TAF GCFV 250800Z 2509/2609 36015KT 9999 SCT035 TX21/2514Z TN14/2606Z"
    },
    {
      "icao": "GCLP",
      "alert": "OK",
      "vis_m": 9999,
      "fzfg": false,
      "metar_trigger": false,
      "taf_trigger": false,
      "metar": "METAR GCLP 251300Z 35013KT 320V030 9999 FEW030 SCT040 20/14 Q1016 NOSIG",
      "taf": "TAF GCLP 250800Z 2509/2609 36017KT 9999 BKN040 TX21/2514Z TN14/2606Z"
    },
    {
      "icao": "GCTS",
      "alert": "OK",
      "vis_m": 9999,
      "fzfg": false,
      "metar_trigger": false,
      "taf_trigger": false,
      "metar": "METAR GCTS 251300Z 11014KT 080V140 9999 FEW030 BKN060 21/11 Q1016 NOSIG",
      "taf": ""
    },
    {
      "icao": "GMAD",
      "alert": "OK",
      "vis_m": 9999,
      "fzfg": false,
      "metar_trigger": false,
      "taf_trigger": false,
      "metar": "METAR GMAD 251300Z 28015KT 9999 SCT026TCU 19/08 Q1011 NOSIG",
      "taf": "TAF GMAD 251100Z 2512/2618 28012KT 8000 SCT020"
    },
    {
      "icao": "GMMN",
      "alert": "OK",
      "vis_m": 9999,
      "fzfg": false,
      "metar_trigger": false,
      "taf_trigger": false,
      "metar": "METAR GMMN 251300Z 04004KT 350V070 9999 RA BKN020 14/10 Q1011 NOSIG",
      "taf": "TAF GMMN 251100Z 2512/2618 26012KT 9999 BKN020"
    },
    {
      "icao": "GMMX",
      "alert": "OK",
      "vis_m": 8000,
      "fzfg": false,
      "metar_trigger": false,
      "taf_trigger": false,
      "metar": "METAR GMMX 251300Z 27005KT 8000 SCT016 BKN020 FEW023CB 12/10 Q1012 NOSIG",
      "taf": "TAF GMMX 251100Z 2512/2618 22008KT 8000 SCT010 BKN020"
    },
    {
      "icao": "HEGN",
      "alert": "OK",
      "vis_m": 9999,
      "fzfg": false,
      "metar_trigger": false,
      "taf_trigger": false,
      "metar": "METAR HEGN 251200Z 36010KT CAVOK 24/10 Q1014 NOSIG",
      "taf": "TAF HEGN 251100Z 2512/2618 35014KT CAVOK"
    },
    {
      "icao": "HEMA",
      "alert": "OK",
      "vis_m": 9999,
      "fzfg": false,
      "metar_trigger": false,
      "taf_trigger": false,
      "metar": "METAR HEMA 251200Z 36013KT CAVOK 24/13 Q1013 NOSIG",
      "taf": "TAF HEMA 251100Z 2512/2618 01015KT 9999 SCT025"
    },
    {
      "icao": "HESH",
      "alert": "OK",
      "vis_m": 9999,
      "fzfg": false,
      "metar_trigger": false,
      "taf_trigger": false,
      "metar": "METAR HESH 251200Z 02006KT CAVOK 25/10 Q1013 NOSIG",
      "taf": "TAF HESH 251100Z 2512/2618 02012KT CAVOK"
    },
    {
      "icao": "HESX",
      "alert": "OK",
      "vis_m": 9999,
      "fzfg": false,
      "metar_trigger": false,
      "taf_trigger": false,
      "metar": "METAR HESX 251200Z 36013KT 9999 SCT020 21/10 Q1017 NOSIG",
      "taf": "TAF HESX 251100Z 2512/2618 03010KT CAVOK"
    },
    {
      "icao": "LATI",
      "alert": "OK",
      "vis_m": 9999,
      "fzfg": false,
      "metar_trigger": false,
      "taf_trigger": false,
      "metar": "METAR LATI 251320Z VRB02KT 9999 SCT098 16/04 Q1018 NOSIG",
      "taf": "TAF LATI 251100Z 2512/2612 VRB05KT 9999 FEW045 BKN090 TX16/2512Z TN03/2601Z"
    },
    {
      "icao": "LBPD",
      "alert": "OK",
      "vis_m": 7000,
      "fzfg": false,
      "metar_trigger": false,
      "taf_trigger": false,
      "metar": "METAR LBPD 251300Z AUTO 12014KT 7000 RA OVC009/// 06/06 Q1025 TEMPO 4000 RA",
      "taf": "TAF LBPD 251100Z 2512/2612 11012KT 7000 RA BKN005 OVC010"
    },
    {
      "icao": "LBSF",
      "alert": "OK",
      "vis_m": 3500,
      "fzfg": false,
      "metar_trigger": false,
      "taf_trigger": false,
      "metar": "METAR LBSF 251300Z 10003KT 070V130 3500 -SN BKN004 OVC017 M00/M01 Q1025 TEMPO BKN002",
      "taf": "TAF LBSF 251100Z 2512/2612 05010KT 2000 SN BKN002 OVC007"
    },
    {
      "icao": "LBWN",
      "alert": "OK",
      "vis_m": 9999,
      "fzfg": false,
      "metar_trigger": false,
      "taf_trigger": false,
      "metar": "METAR LBWN 251300Z AUTO 03022KT 9999 -SN FEW015/// 01/01 Q1027 NOSIG",
      "taf": "TAF LBWN 251100Z 2512/2612 04020KT 9999 SCT015 OVC030"
    },
    {
      "icao": "LCLK",
      "alert": "OK",
      "vis_m": 9999,
      "fzfg": false,
      "metar_trigger": false,
      "taf_trigger": false,
      "metar": "METAR LCLK 251300Z 04006KT 360V060 9999 FEW025 SCT060 19/15 Q1017 NOSIG",
      "taf": ""
    },
    {
      "icao": "LCPH",
      "alert": "OK",
      "vis_m": 9999,
      "fzfg": false,
      "metar_trigger": false,
      "taf_trigger": false,
      "metar": "METAR LCPH 251300Z 31008KT 9999 FEW030 20/11 Q1017 NOSIG",
      "taf": "TAF LCPH 251130Z 2512/2612 20010KT 9999 FEW025"
    },
    {
      "icao": "LEAL",
      "alert": "OK",
      "vis_m": 9999,
      "fzfg": false,
      "metar_trigger": false,
      "taf_trigger": false,
      "metar": "METAR LEAL 251300Z 30007KT 260V320 9999 RA BKN032 OVC057 10/10 Q1007 NOSIG",
      "taf": "TAF LEAL 251100Z 2512/2612 30009KT 9999 FEW030 TX11/2512Z TN06/2606Z"
    },
    {
      "icao": "LEBB",
      "alert": "OK",
      "vis_m": 9999,
      "fzfg": false,
      "metar_trigger": false,
      "taf_trigger": false,
      "metar": "METAR LEBB 251300Z VRB02KT 9999 SCT035 SCT063 09/02 Q1013 NOSIG",
      "taf": "TAF LEBB 251100Z 2512/2612 VRB03KT 9999 SCT040 TX08/2514Z TN01/2601Z"
    },
    {
      "icao": "LEBL",
      "alert": "OK",
      "vis_m": 9000,
      "fzfg": false,
      "metar_trigger": false,
      "taf_trigger": false,
      "metar": "METAR LEBL 251300Z 34008KT 310V020 9000 FEW019 BKN029 BKN048 10/08 Q1011 NOSIG",
      "taf": "TAF LEBL 251100Z 2512/2612 34008KT 9999 SCT025 TX13/2513Z TN10/2606Z"
    },
    {
      "icao": "LECH",
      "alert": "OK",
      "vis_m": 9999,
      "fzfg": false,
      "metar_trigger": false,
      "taf_trigger": false,
      "metar": "METAR LECH 251300Z AUTO 03012KT 360V060 9999 BKN025 BKN033 07/04 Q1010",
      "taf": ""
    },
    {
      "icao": "LEMD",
      "alert": "OK",
      "vis_m": 9999,
      "fzfg": false,
      "metar_trigger": false,
      "taf_trigger": false,
      "metar": "METAR LEMD 251300Z 04004KT 330V090 9999 FEW040 OVC070 04/M02 Q1009 NOSIG",
      "taf": "TAF LEMD 251100Z 2512/2618 VRB04KT 9999 SCT030 TX07/2514Z TNM00/2606Z"
    },
    {
      "icao": "LEMG",
      "alert": "OK",
      "vis_m": 9999,
      "fzfg": false,
      "metar_trigger": false,
      "taf_trigger": false,
      "metar": "METAR LEMG 251300Z 28011KT 250V320 9999 FEW040 14/07 Q1008 NOSIG",
      "taf": "TAF LEMG 251100Z 2512/2612 29010KT 9999 FEW040 TX14/2514Z TN06/2606Z"
    },
    {
      "icao": "LEVC",
      "alert": "OK",
      "vis_m": 9999,
      "fzfg": false,
      "metar_trigger": false,
      "taf_trigger": false,
      "metar": "METAR LEVC 251300Z 04013KT 360V060 9999 FEW020 BKN027 11/06 Q1009 NOSIG",
      "taf": "TAF LEVC 251100Z 2512/2612 36007KT 9999 FEW020 TX11/2512Z TN05/2606Z"
    },
    {
      "icao": "LEXJ",
      "alert": "OK",
      "vis_m": 9999,
      "fzfg": false,
      "metar_trigger": false,
      "taf_trigger": false,
      "metar": "METAR LEXJ 251300Z 30004KT 250V330 9999 FEW040 08/01 Q1013",
      "taf": "TAF LEXJ 250800Z 2509/2609 VRB03KT 9999 SCT015 BKN030 TX08/2515Z TN02/2603Z"
    },
    {
      "icao": "LEZG",
      "alert": "OK",
      "vis_m": 9999,
      "fzfg": false,
      "metar_trigger": false,
      "taf_trigger": false,
      "metar": "METAR LEZG 251300Z 29005KT 260V320 9999 OVC045 06/M02 Q1013 NOSIG",
      "taf": "TAF LEZG 251100Z 2512/2612 31009KT 9999 BKN070 TX06/2514Z TN03/2606Z"
    },
    {
      "icao": "LEZL",
      "alert": "OK",
      "vis_m": 9999,
      "fzfg": false,
      "metar_trigger": false,
      "taf_trigger": false,
      "metar": "METAR LEZL 251300Z 18002KT 9999 FEW018 13/09 Q1009 NOSIG",
      "taf": "TAF LEZL 250800Z 2509/2609 VRB03KT 9999 FEW040 TX15/2515Z TN06/2607Z"
    },
    {
      "icao": "LFBD",
      "alert": "OK",
      "vis_m": 9999,
      "fzfg": false,
      "metar_trigger": false,
      "taf_trigger": false,
      "metar": "METAR LFBD 251300Z AUTO 11005KT CAVOK 05/M01 Q1015 NOSIG",
      "taf": "TAF LFBD 251100Z 2512/2618 09005KT CAVOK TX08/2615Z TN01/2608Z"
    },
    {
      "icao": "LFLL",
      "alert": "OK",
      "vis_m": 9999,
      "fzfg": false,
      "metar_trigger": false,
      "taf_trigger": false,
      "metar": "METAR LFLL 251300Z 01003KT 330V050 9999 BKN009 01/M00 Q1018 NOSIG",
      "taf": "TAF LFLL 251100Z 2512/2618 35005KT 9999 BKN008"
    },
    {
      "icao": "LFLS",
      "alert": "OK",
      "vis_m": 9999,
      "fzfg": false,
      "metar_trigger": false,
      "taf_trigger": false,
      "metar": "METAR LFLS 251300Z AUTO 04009KT CAVOK 05/01 Q1017 NOSIG",
      "taf": "TAF LFLS 250800Z 2509/2609 VRB02KT CAVOK"
    },
    {
      "icao": "LFMN",
      "alert": "OK",
      "vis_m": 9999,
      "fzfg": false,
      "metar_trigger": false,
      "taf_trigger": false,
      "metar": "METAR LFMN 251300Z 09018KT 9999 FEW096 16/02 Q1013 NOSIG",
      "taf": ""
    },
    {
      "icao": "LFOB",
      "alert": "OK",
      "vis_m": 9999,
      "fzfg": false,
      "metar_trigger": false,
      "taf_trigger": false,
      "metar": "METAR LFOB 251300Z AUTO 05013KT CAVOK 00/M04 Q1023 NOSIG",
      "taf": "TAF LFOB 251100Z 2512/2612 05012KT CAVOK"
    },
    {
      "icao": "LFPO",
      "alert": "OK",
      "vis_m": 9999,
      "fzfg": false,
      "metar_trigger": false,
      "taf_trigger": false,
      "metar": "METAR LFPO 251300Z AUTO 07012KT CAVOK 03/M03 Q1022",
      "taf": "TAF LFPO 250500Z 2506/2612 06010G20KT CAVOK"
    },
    {
      "icao": "LFSB",
      "alert": "OK",
      "vis_m": 9999,
      "fzfg": false,
      "metar_trigger": false,
      "taf_trigger": false,
      "metar": "METAR LFSB 251300Z AUTO 01006KT 340V050 9999 OVC023 02/M02 Q1020 NOSIG",
      "taf": ""
    },
    {
      "icao": "LGAV",
      "alert": "OK",
      "vis_m": 9999,
      "fzfg": false,
      "metar_trigger": false,
      "taf_trigger": false,
      "metar": "METAR LGAV 251250Z 07005KT 9999 SCT025 17/09 Q1019 NOSIG",
      "taf": "TAF LGAV 251100Z 2512/2612 36010KT 9999 FEW020"
    },
    {
      "icao": "LGTS",
      "alert": "OK",
      "vis_m": 9999,
      "fzfg": false,
      "metar_trigger": false,
      "taf_trigger": false,
      "metar": "METAR LGTS 251250Z 33010KT 9999 FEW018 SCT040 13/08 Q1020 NOSIG",
      "taf": "TAF LGTS 251100Z 2512/2612 33016KT 8000 FEW012 BKN025"
    },
    {
      "icao": "LHBP",
      "alert": "OK",
      "vis_m": 9999,
      "fzfg": false,
      "metar_trigger": false,
      "taf_trigger": false,
      "metar": "METAR LHBP 251300Z 07008KT 040V100 9999 OVC027 05/M02 Q1030 NOSIG",
      "taf": "TAF LHBP 251115Z 2512/2612 05006KT 9999 BKN030 OVC060"
    },
    {
      "icao": "LHDC",
      "alert": "OK",
      "vis_m": 9999,
      "fzfg": false,
      "metar_trigger": false,
      "taf_trigger": false,
      "metar": "METAR LHDC 251245Z AUTO 02008KT 350V050 CAVOK 06/M00 Q1030",
      "taf": "TAF LHDC 250815Z 2509/2518 04012KT CAVOK"
    },
    {
      "icao": "LIBD",
      "alert": "OK",
      "vis_m": 9999,
      "fzfg": false,
      "metar_trigger": false,
      "taf_trigger": false,
      "metar": "METAR LIBD 251250Z 11010KT 9999 SCT020 14/10 Q1016",
      "taf": "TAF LIBD 251100Z 2512/2612 11010KT 9999 SCT040"
    },
    {
      "icao": "LIBG",
      "alert": "OK",
      "vis_m": 9999,
      "fzfg": false,
      "metar_trigger": false,
      "taf_trigger": false,
      "metar": "METAR LIBG 251250Z 08008KT CAVOK 15/15 Q1016",
      "taf": "TAF LIBG 251100Z 2512/2521 12010KT 9999 FEW030"
    },
    {
      "icao": "LIBP",
      "alert": "OK",
      "vis_m": 9999,
      "fzfg": false,
      "metar_trigger": false,
      "taf_trigger": false,
      "metar": "METAR LIBP 251250Z AUTO 05006KT 9999 NCD 13/07 Q1017",
      "taf": "TAF LIBP 251100Z 2512/2612 VRB05KT 9999 BKN060"
    },
    {
      "icao": "LIBR",
      "alert": "OK",
      "vis_m": 9999,
      "fzfg": false,
      "metar_trigger": false,
      "taf_trigger": false,
      "metar": "METAR LIBR 251250Z 11010KT CAVOK 14/10 Q1017",
      "taf": "TAF LIBR 251100Z 2512/2612 11015KT 9999 FEW040"
    },
    {
      "icao": "LICA",
      "alert": "OK",
      "vis_m": 9999,
      "fzfg": false,
      "metar_trigger": false,
      "taf_trigger": false,
      "metar": "METAR LICA 251250Z AUTO 07013KT 9999 BKN070/// 15/11 Q1014",
      "taf": "TAF LICA 251100Z 2512/2612 07012KT CAVOK"
    },
    {
      "icao": "LICC",
      "alert": "OK",
      "vis_m": 9999,
      "fzfg": false,
      "metar_trigger": false,
      "taf_trigger": false,
      "metar": "METAR LICC 251250Z 26009KT 9999 SCT060 17/16 Q1015",
      "taf": "TAF LICC 251100Z 2512/2612 27010KT 9999 FEW030 SCT050"
    },
    {
      "icao": "LICJ",
      "alert": "OK",
      "vis_m": 9999,
      "fzfg": false,
      "metar_trigger": false,
      "taf_trigger": false,
      "metar": "METAR LICJ 251250Z 20010KT 160V220 9999 SCT030 17/09 Q1012",
      "taf": "TAF LICJ 251100Z 2512/2612 21015KT 9999 SCT060"
    },
    {
      "icao": "LIMC",
      "alert": "OK",
      "vis_m": 7000,
      "fzfg": false,
      "metar_trigger": false,
      "taf_trigger": false,
      "metar": "METAR LIMC 251250Z 34004KT 290V010 7000 -RA BKN030 06/05 Q1022 NOSIG",
      "taf": "TAF LIMC 251100Z 2512/2618 VRB05KT 7000 BKN020"
    },
    {
      "icao": "LIME",
      "alert": "OK",
      "vis_m": 9000,
      "fzfg": false,
      "metar_trigger": false,
      "taf_trigger": false,
      "metar": "METAR LIME 251250Z 18003KT 150V210 9000 SCT006 BKN030 07/06 Q1022 NOSIG",
      "taf": "TAF LIME 251100Z 2512/2612 VRB05KT 7000 BKN030"
    },
    {
      "icao": "LIMF",
      "alert": "OK",
      "vis_m": 8000,
      "fzfg": false,
      "metar_trigger": false,
      "taf_trigger": false,
      "metar": "METAR LIMF 251250Z 20005KT 8000 -RA BKN020 OVC045 06/03 Q1022",
      "taf": "TAF LIMF 251100Z 2512/2612 34007KT 6000 RA BKN012"
    },
    {
      "icao": "LIMJ",
      "alert": "OK",
      "vis_m": 9999,
      "fzfg": false,
      "metar_trigger": false,
      "taf_trigger": false,
      "metar": "METAR LIMJ 251250Z 03014KT 9999 FEW060 BKN080 12/01 Q1018",
      "taf": "TAF LIMJ 251100Z 2512/2612 03016KT 9999 SCT050"
    },
    {
      "icao": "LIPE",
      "alert": "OK",
      "vis_m": 9000,
      "fzfg": false,
      "metar_trigger": false,
      "taf_trigger": false,
      "metar": "METAR LIPE 251250Z 25011KT 9000 -RA BKN008 05/04 Q1022",
      "taf": "TAF LIPE 251100Z 2512/2612 26012KT 7000 BKN008"
    },
    {
      "icao": "LIPH",
      "alert": "OK",
      "vis_m": 9999,
      "fzfg": false,
      "metar_trigger": false,
      "taf_trigger": false,
      "metar": "METAR LIPH 251250Z 07013KT 9999 BKN060 09/01 Q1023",
      "taf": "TAF LIPH 251100Z 2512/2612 05014KT 9999 FEW030"
    },
    {
      "icao": "LIPQ",
      "alert": "OK",
      "vis_m": 9999,
      "fzfg": false,
      "metar_trigger": false,
      "taf_trigger": false,
      "metar": "METAR LIPQ 251250Z AUTO 09014G24KT 9999 FEW210/// 10/M02 Q1023",
      "taf": "TAF LIPQ 251100Z 2512/2612 06015KT 9999 FEW050"
    },
    {
      "icao": "LIPR",
      "alert": "OK",
      "vis_m": 9999,
      "fzfg": false,
      "metar_trigger": false,
      "taf_trigger": false,
      "metar": "METAR LIPR 251250Z 11009KT 9999 BKN020 12/09 Q1019",
      "taf": "TAF LIPR 251100Z 2512/2612 08015KT 8000 BKN020"
    },
    {
      "icao": "LIPX",
      "alert": "OK",
      "vis_m": 9999,
      "fzfg": false,
      "metar_trigger": false,
      "taf_trigger": false,
      "metar": "METAR LIPX 251250Z 09009KT 9999 BKN070 10/01 Q1022",
      "taf": "TAF LIPX 251100Z 2512/2612 07008KT 9999 SCT050"
    },
    {
      "icao": "LIPY",
      "alert": "OK",
      "vis_m": 9999,
      "fzfg": false,
      "metar_trigger": false,
      "taf_trigger": false,
      "metar": "METAR LIPY 251250Z AUTO 08010KT 050V120 9999 BKN018/// BKN190/// 12/09 Q1019",
      "taf": "TAF LIPY 251100Z 2512/2612 10015KT 9999 SCT050"
    },
    {
      "icao": "LIPZ",
      "alert": "OK",
      "vis_m": 9999,
      "fzfg": false,
      "metar_trigger": false,
      "taf_trigger": false,
      "metar": "METAR LIPZ 251250Z 05011KT 9999 -RA BKN050 07/02 Q1023 NOSIG",
      "taf": "TAF LIPZ 251100Z 2512/2618 07015KT 9999 FEW040"
    },
    {
      "icao": "LIRF",
      "alert": "OK",
      "vis_m": 9999,
      "fzfg": false,
      "metar_trigger": false,
      "taf_trigger": false,
      "metar": "METAR LIRF 251250Z 05003KT 020V080 CAVOK 11/09 Q1014 NOSIG",
      "taf": "TAF LIRF 251100Z 2512/2618 11012KT 6000 FEW015 SCT050"
    },
    {
      "icao": "LIRN",
      "alert": "OK",
      "vis_m": 9999,
      "fzfg": false,
      "metar_trigger": false,
      "taf_trigger": false,
      "metar": "METAR LIRN 251250Z 32004KT 250V360 CAVOK 16/05 Q1014 NOSIG",
      "taf": "TAF LIRN 251100Z 2512/2612 VRB05KT 9999 FEW050"
    },
    {
      "icao": "LIRP",
      "alert": "OK",
      "vis_m": 9999,
      "fzfg": false,
      "metar_trigger": false,
      "taf_trigger": false,
      "metar": "METAR LIRP 251245Z 07015KT 9999 SCT050 SCT060 11/04 Q1015 NOSIG",
      "taf": "TAF LIRP 251100Z 2512/2612 09012KT 9999 SCT030 SCT070"
    },
    {
      "icao": "LIRZ",
      "alert": "OK",
      "vis_m": 9999,
      "fzfg": false,
      "metar_trigger": false,
      "taf_trigger": false,
      "metar": "METAR LIRZ 251250Z AUTO VRB01KT 9999 SCT100/// 10/09 Q1016",
      "taf": "TAF LIRZ 251100Z 2512/2612 04012KT 9999 BKN050"
    },
    {
      "icao": "LJLJ",
      "alert": "OK",
      "vis_m": 9999,
      "fzfg": false,
      "metar_trigger": false,
      "taf_trigger": false,
      "metar": "METAR LJLJ 251300Z VRB02KT 9999 FEW013 BKN057 03/M00 Q1027 NOSIG",
      "taf": "TAF LJLJ 251100Z 2512/2612 VRB02KT 8000 FEW015 BKN060"
    },
    {
      "icao": "LKMT",
      "alert": "OK",
      "vis_m": 9999,
      "fzfg": false,
      "metar_trigger": false,
      "taf_trigger": false,
      "metar": "METAR LKMT 251300Z 03009KT 9999 OVC011 M04/M06 Q1033 NOSIG",
      "taf": "TAF LKMT 251100Z 2512/2612 04010KT 9999 BKN012 OVC016"
    },
    {
      "icao": "LKPR",
      "alert": "OK",
      "vis_m": 9999,
      "fzfg": false,
      "metar_trigger": false,
      "taf_trigger": false,
      "metar": "METAR LKPR 251300Z 07009KT 9999 FEW049 M02/M06 Q1030 NOSIG",
      "taf": "TAF LKPR 251100Z 2512/2618 07008KT CAVOK"
    },
    {
      "icao": "LLBG",
      "alert": "OK",
      "vis_m": 9999,
      "fzfg": false,
      "metar_trigger": false,
      "taf_trigger": false,
      "metar": "METAR LLBG 251320Z 30010KT CAVOK 20/08 Q1016 NOSIG",
      "taf": "TAF LLBG 251115Z 2512/2612 30008KT CAVOK"
    },
    {
      "icao": "LMML",
      "alert": "OK",
      "vis_m": 9999,
      "fzfg": false,
      "metar_trigger": false,
      "taf_trigger": false,
      "metar": "METAR LMML 251315Z 22011KT 190V250 9999 FEW035 17/10 Q1016 NOSIG",
      "taf": "TAF LMML 251100Z 2512/2612 22012KT 9999 SCT025"
    },
    {
      "icao": "LOWW",
      "alert": "OK",
      "vis_m": 9999,
      "fzfg": false,
      "metar_trigger": false,
      "taf_trigger": false,
      "metar": "METAR LOWW 251250Z 04004KT 360V070 9999 BKN020 M00/M03 Q1031 NOSIG",
      "taf": "TAF LOWW 251115Z 2512/2618 01005KT 9999 BKN030 TX01/2613Z TNM04/2605Z"
    },
    {
      "icao": "LPFR",
      "alert": "OK",
      "vis_m": 9999,
      "fzfg": false,
      "metar_trigger": false,
      "taf_trigger": false,
      "metar": "METAR LPFR 251300Z 27010KT CAVOK 15/06 Q1009",
      "taf": "TAF LPFR 251100Z 2512/2612 26010KT CAVOK"
    },
    {
      "icao": "LPMA",
      "alert": "OK",
      "vis_m": 9999,
      "fzfg": false,
      "metar_trigger": false,
      "taf_trigger": false,
      "metar": "METAR LPMA 251300Z VRB07KT 9999 FEW016 19/07 Q1018",
      "taf": "TAF LPMA 251100Z 2512/2612 36012KT 9999 SCT015"
    },
    {
      "icao": "LPPR",
      "alert": "OK",
      "vis_m": 9999,
      "fzfg": false,
      "metar_trigger": false,
      "taf_trigger": false,
      "metar": "METAR LPPR 251300Z 09006KT 9999 BKN048 11/05 Q1011",
      "taf": "TAF LPPR 251100Z 2512/2612 03005KT 9999 SCT040"
    },
    {
      "icao": "LPPS",
      "alert": "OK",
      "vis_m": 9999,
      "fzfg": false,
      "metar_trigger": false,
      "taf_trigger": false,
      "metar": "METAR LPPS 251300Z 34012KT 320V020 9999 FEW015 19/11 Q1018",
      "taf": "TAF LPPS 251100Z 2512/2618 36012KT 9999 SCT015"
    },
    {
      "icao": "LPPT",
      "alert": "OK",
      "vis_m": 9999,
      "fzfg": false,
      "metar_trigger": false,
      "taf_trigger": false,
      "metar": "METAR LPPT 251300Z VRB03KT 9999 FEW020 SCT024 SCT040 10/04 Q1010",
      "taf": "TAF LPPT 251100Z 2512/2618 07007KT 9999 BKN035"
    },
    {
      "icao": "LQBK",
      "alert": "OK",
      "vis_m": 5000,
      "fzfg": false,
      "metar_trigger": false,
      "taf_trigger": false,
      "metar": "METAR LQBK 251300Z 01007KT 5000 DZ BR SCT005 OVC013 03/02 Q1028 NOSIG",
      "taf": "TAF LQBK 251100Z 2512/2612 04005KT 6000 SCT005 OVC012 TX04/2513Z TN00/2605Z"
    },
    {
      "icao": "LQSA",
      "alert": "OK",
      "vis_m": 8000,
      "fzfg": false,
      "metar_trigger": false,
      "taf_trigger": false,
      "metar": "METAR LQSA 251300Z 28008KT 8000 SCT020 OVC030 03/02 Q1023 NOSIG",
      "taf": "TAF LQSA 251100Z 2512/2612 28007KT 9999 SCT015 BKN035 TX03/2512Z TNM01/2606Z"
    },
    {
      "icao": "LQTZ",
      "alert": "OK",
      "vis_m": 9999,
      "fzfg": false,
      "metar_trigger": false,
      "taf_trigger": false,
      "metar": "METAR LQTZ 251300Z 12005KT 090V150 9999 -RA OVC012 02/02 Q1026",
      "taf": "TAF LQTZ 251100Z 2512/2612 04005KT 7000 BKN007 OVC015 TX04/2513Z TN00/2605Z"
    },
    {
      "icao": "LRBC",
      "alert": "OK",
      "vis_m": 9999,
      "fzfg": false,
      "metar_trigger": false,
      "taf_trigger": false,
      "metar": "METAR LRBC 251300Z 35008KT 9999 OVC012 M04/M06 Q1035",
      "taf": "TAF LRBC 251100Z 2512/2521 35010KT 9999 BKN010 OVC025"
    },
    {
      "icao": "LRBS",
      "alert": "OK",
      "vis_m": 9999,
      "fzfg": false,
      "metar_trigger": false,
      "taf_trigger": false,
      "metar": "METAR LRBS 251300Z 04018KT 010V070 9999 OVC023 M02/M07 Q1033 NOSIG",
      "taf": "TAF LRBS 251100Z 2512/2612 05016G26KT 9999 BKN025"
    },
    {
      "icao": "LRBV",
      "alert": "OK",
      "vis_m": 9999,
      "fzfg": false,
      "metar_trigger": false,
      "taf_trigger": false,
      "metar": "METAR LRBV 251300Z 10006KT CAVOK M00/M09 Q1029",
      "taf": "TAF LRBV 251100Z 2512/2521 10010KT 9999 BKN045"
    },
    {
      "icao": "LRCL",
      "alert": "OK",
      "vis_m": 9999,
      "fzfg": false,
      "metar_trigger": false,
      "taf_trigger": false,
      "metar": "METAR LRCL 251300Z 11006KT 9999 FEW070 05/M04 Q1030",
      "taf": "TAF LRCL 251100Z 2512/2521 10004KT 9999 BKN060"
    },
    {
      "icao": "LRCV",
      "alert": "OK",
      "vis_m": 1200,
      "fzfg": false,
      "metar_trigger": false,
      "taf_trigger": false,
      "metar": "METAR LRCV 251300Z 07012KT 1200 R08/1500N SN SCT005 BKN007 OVC012 M02/M02 Q1032",
      "taf": "TAF LRCV 251100Z 2512/2521 07010KT 1000 SN BKN010 OVC015"
    },
    {
      "icao": "LRIA",
      "alert": "OK",
      "vis_m": 9999,
      "fzfg": false,
      "metar_trigger": false,
      "taf_trigger": false,
      "metar": "METAR LRIA 251300Z 31006KT CAVOK M05/M09 Q1036",
      "taf": "TAF LRIA 251100Z 2512/2521 34008KT CAVOK"
    },
    {
      "icao": "LROP",
      "alert": "OK",
      "vis_m": 9999,
      "fzfg": false,
      "metar_trigger": false,
      "taf_trigger": false,
      "metar": "METAR LROP 251300Z 06022KT 9999 OVC024 M02/M09 Q1033 NOSIG",
      "taf": "TAF LROP 251100Z 2512/2612 05022KT 9999 BKN030"
    },
    {
      "icao": "LRSB",
      "alert": "OK",
      "vis_m": 9999,
      "fzfg": false,
      "metar_trigger": false,
      "taf_trigger": false,
      "metar": "METAR LRSB 251300Z 13004KT 100V190 9999 BKN019 SCT065 02/M03 Q1029",
      "taf": "TAF LRSB 251100Z 2512/2612 VRB04KT 9999 OVC020"
    },
    {
      "icao": "LRSM",
      "alert": "OK",
      "vis_m": 9999,
      "fzfg": false,
      "metar_trigger": false,
      "taf_trigger": false,
      "metar": "METAR LRSM 251300Z 09006KT 050V110 CAVOK 07/M01 Q1029",
      "taf": "TAF LRSM 251100Z 2512/2521 08007KT CAVOK"
    },
    {
      "icao": "LRSV",
      "alert": "CRITICAL",
      "vis_m": 100,
      "fzfg": true,
      "metar_trigger": true,
      "taf_trigger": false,
      "metar": "METAR LRSV 251300Z VRB02KT 0100 R34/0350N FZFG VV002 M08/M09 Q1033",
      "taf": "TAF LRSV 251100Z 2512/2521 05005KT 0200 FZFG VV001"
    },
    {
      "icao": "LRTM",
      "alert": "OK",
      "vis_m": 9999,
      "fzfg": false,
      "metar_trigger": false,
      "taf_trigger": false,
      "metar": "METAR LRTM 251300Z 03004KT CAVOK 04/M04 Q1030",
      "taf": "TAF LRTM 251100Z 2512/2521 VRB04KT 9999 SCT045"
    },
    {
      "icao": "LRTR",
      "alert": "OK",
      "vis_m": 9999,
      "fzfg": false,
      "metar_trigger": false,
      "taf_trigger": false,
      "metar": "METAR LRTR 251300Z 32004KT 290V350 CAVOK 07/01 Q1029",
      "taf": "TAF LRTR 251100Z 2512/2612 VRB04KT CAVOK"
    },
    {
      "icao": "LTAC",
      "alert": "OK",
      "vis_m": 9999,
      "fzfg": false,
      "metar_trigger": false,
      "taf_trigger": false,
      "metar": "METAR LTAC 251250Z 05009KT 9999 SCT035 BKN180 06/02 Q1021 NOSIG RMK RWY21C 04010KT RWY03L 04009KT RWY21R 03009KT RWY03R 03009KT RWY21L 04009KT",
      "taf": "TAF LTAC 251040Z 2512/2612 VRB02KT 7000 SCT035 BKN090"
    },
    {
      "icao": "LTFM",
      "alert": "OK",
      "vis_m": 9999,
      "fzfg": false,
      "metar_trigger": false,
      "taf_trigger": false,
      "metar": "METAR LTFM 251250Z 07019KT 9999 -RA BKN012 BKN022 11/08 Q1022 NOSIG RMK RWY17L 07022KT RWY34L 06019KT RWY16R 07023KT RWY36 07019KT RWY18 08021KT",
      "taf": "TAF LTFM 251040Z 2512/2618 07019G29KT 8000 -RA BKN012 BKN022"
    },
    {
      "icao": "LUKK",
      "alert": "OK",
      "vis_m": 9999,
      "fzfg": false,
      "metar_trigger": false,
      "taf_trigger": false,
      "metar": "METAR LUKK 251300Z 02005KT 340V060 CAVOK M05/M12 Q1035 NOSIG",
      "taf": "TAF LUKK 251120Z 2512/2612 35009KT CAVOK"
    },
    {
      "icao": "LWOH",
      "alert": "OK",
      "vis_m": 9999,
      "fzfg": false,
      "metar_trigger": false,
      "taf_trigger": false,
      "metar": "METAR LWOH 251320Z 27005KT 240V300 9999 FEW015 BKN035 07/04 Q1020",
      "taf": "TAF LWOH 251115Z 2512/2612 34006KT 9999 FEW015 BKN035"
    },
    {
      "icao": "LWSK",
      "alert": "OK",
      "vis_m": 9999,
      "fzfg": false,
      "metar_trigger": false,
      "taf_trigger": false,
      "metar": "METAR LWSK 251320Z 01008KT 340V040 9999 FEW020 OVC040 06/03 Q1023 NOSIG",
      "taf": "TAF LWSK 251115Z 2512/2612 35006KT 9999 SCT010 OVC030"
    },
    {
      "icao": "LYBE",
      "alert": "OK",
      "vis_m": 9999,
      "fzfg": false,
      "metar_trigger": false,
      "taf_trigger": false,
      "metar": "METAR LYBE 251300Z 11015KT 9999 SCT018 BKN043 02/M02 Q1029 NOSIG",
      "taf": "TAF LYBE 251100Z 2512/2612 10014KT 9999 SCT015 BKN033 TX03/2612Z TNM01/2606Z"
    },
    {
      "icao": "LYNI",
      "alert": "OK",
      "vis_m": 9999,
      "fzfg": false,
      "metar_trigger": false,
      "taf_trigger": false,
      "metar": "METAR LYNI 251300Z 05003KT 320V080 9999 FEW011 BKN028 OVC085 01/M03 Q1026 NOSIG",
      "taf": "TAF LYNI 251100Z 2512/2612 36005KT 9999 SCT013 BKN025 OVC070 TX02/2612Z TNM01/2606Z"
    },
    {
      "icao": "LYPG",
      "alert": "OK",
      "vis_m": 9999,
      "fzfg": false,
      "metar_trigger": false,
      "taf_trigger": false,
      "metar": "METAR LYPG 251300Z 13004KT 100V190 9999 FEW070 12/07 Q1019 NOSIG",
      "taf": "TAF LYPG 251100Z 2512/2612 18005KT CAVOK TX14/2513Z TN01/2605Z"
    },
    {
      "icao": "LZIB",
      "alert": "OK",
      "vis_m": 9999,
      "fzfg": false,
      "metar_trigger": false,
      "taf_trigger": false,
      "metar": "METAR LZIB 251300Z 03008KT 9999 BKN022 03/M02 Q1031 NOSIG",
      "taf": "TAF LZIB 251115Z 2512/2612 04006KT 9999 BKN040"
    },
    {
      "icao": "LZKZ",
      "alert": "OK",
      "vis_m": 9999,
      "fzfg": false,
      "metar_trigger": false,
      "taf_trigger": false,
      "metar": "METAR LZKZ 251300Z 03012KT 9999 FEW045 01/M04 Q1030 NOSIG",
      "taf": "TAF LZKZ 251115Z 2512/2612 01016KT CAVOK"
    },
    {
      "icao": "LZTT",
      "alert": "OK",
      "vis_m": 9999,
      "fzfg": false,
      "metar_trigger": false,
      "taf_trigger": false,
      "metar": "METAR LZTT 251300Z VRB02KT 9999 FEW023 M02/M05 Q1029 NOSIG",
      "taf": "TAF LZTT 251115Z 2512/2612 05003KT CAVOK"
    },
    {
      "icao": "OEJN",
      "alert": "OK",
      "vis_m": 8000,
      "fzfg": false,
      "metar_trigger": false,
      "taf_trigger": false,
      "metar": "METAR OEJN 251300Z 29007KT 8000 SCT040 28/24 Q1011 NOSIG",
      "taf": "TAF OEJN 251100Z 2512/2618 30010KT 7000 FEW040"
    },
    {
      "icao": "OEMA",
      "alert": "OK",
      "vis_m": 9999,
      "fzfg": false,
      "metar_trigger": false,
      "taf_trigger": false,
      "metar": "METAR OEMA 251300Z 04008KT CAVOK 24/04 Q1016 NOSIG",
      "taf": "TAF OEMA 251100Z 2512/2618 11010KT 7000 SCT045"
    },
    {
      "icao": "OJAI",
      "alert": "OK",
      "vis_m": 4500,
      "fzfg": false,
      "metar_trigger": false,
      "taf_trigger": false,
      "metar": "METAR OJAI 251300Z 10012KT 4500 HZ NSC 16/03 Q1017 NOSIG",
      "taf": "TAF OJAI 251031Z 2512/2618 12008KT 5000 HZ FEW035"
    },
    {
      "icao": "OMAA",
      "alert": "OK",
      "vis_m": 9999,
      "fzfg": false,
      "metar_trigger": false,
      "taf_trigger": false,
      "metar": "METAR OMAA 251300Z 30011KT 9999 FEW035 23/14 Q1015 NOSIG",
      "taf": "TAF OMAA 251100Z 2512/2618 32011KT 8000 FEW040"
    },
    {
      "icao": "OMDB",
      "alert": "OK",
      "vis_m": 9999,
      "fzfg": false,
      "metar_trigger": false,
      "taf_trigger": false,
      "metar": "METAR OMDB 251300Z 34007KT 300V050 9999 FEW045 24/15 Q1015 NOSIG",
      "taf": "TAF OMDB 251100Z 2512/2618 31010KT 8000 FEW040"
    },
    {
      "icao": "UAAA",
      "alert": "OK",
      "vis_m": 2700,
      "fzfg": false,
      "metar_trigger": false,
      "taf_trigger": false,
      "metar": "METAR UAAA 251300Z 14001MPS 2700 BR OVC100 M01/M05 Q1015 NOSIG",
      "taf": "TAF UAAA 251102Z 2512/2612 22003MPS 3100 BR FU SCT011 OVC030 TX04/2609Z TNM06/2601Z"
    },
    {
      "icao": "UBBB",
      "alert": "OK",
      "vis_m": 9999,
      "fzfg": false,
      "metar_trigger": false,
      "taf_trigger": false,
      "metar": "METAR UBBB 251300Z 36014G24KT 9999 SCT016 SCT032CB BKN032 05/02 Q1027 NOSIG",
      "taf": "TAF UBBB 251055Z 2512/2612 32018G28KT 9999 SCT015 FEW030CB OVC030 TX05/2512Z TN03/2602Z"
    },
    {
      "icao": "UDSG",
      "alert": "OK",
      "vis_m": 9999,
      "fzfg": false,
      "metar_trigger": false,
      "taf_trigger": false,
      "metar": "METAR UDSG 251300Z 32001KT 9999 OVC036 03/M03 Q1020 NOSIG",
      "taf": ""
    },
    {
      "icao": "UDYZ",
      "alert": "OK",
      "vis_m": 5000,
      "fzfg": false,
      "metar_trigger": false,
      "taf_trigger": false,
      "metar": "METAR UDYZ 251300Z VRB01KT 5000 BR NSC 06/M02 Q1021 NOSIG",
      "taf": "TAF UDYZ 251100Z 2512/2612 VRB04KT 6000 FEW040"
    },
    {
      "icao": "UGKO",
      "alert": "OK",
      "vis_m": 9999,
      "fzfg": false,
      "metar_trigger": false,
      "taf_trigger": false,
      "metar": "METAR UGKO 251300Z 24008KT 9999 SCT025 BKN050 09/04 Q1023 NOSIG",
      "taf": "TAF UGKO 251100Z 2512/2612 09006KT 9000 SCT023 OVC050 TX09/2512Z TN04/2603Z"
    }
  ]
}