{
  "ts_utc": "2026-05-24T18:50:15Z",
  "threshold_m": 150,
  "source": "stations_override.txt (ICAO list) + aviationweather.gov (METAR/TAF raw)",
  "station_count": 159,
  "stations": [
    {
      "icao": "BIKF",
      "alert": "OK",
      "vis_m": 9999,
      "fzfg": false,
      "metar_trigger": false,
      "taf_trigger": false,
      "metar": "METAR BIKF 241830Z 13016KT 9999 BKN021TCU BKN070 10/05 Q1005",
      "taf": "TAF BIKF 241632Z 2418/2518 19014KT 9999 -SHRA SCT015TCU BKN025 TX09/2515Z TN06/2505Z"
    },
    {
      "icao": "BKPR",
      "alert": "OK",
      "vis_m": 9999,
      "fzfg": false,
      "metar_trigger": false,
      "taf_trigger": false,
      "metar": "METAR BKPR 241830Z 30003KT 270V020 9999 FEW060 19/10 Q1026 NOSIG",
      "taf": "TAF BKPR 241730Z 2418/2518 01008KT 9999 SCT040"
    },
    {
      "icao": "EBCI",
      "alert": "OK",
      "vis_m": 9999,
      "fzfg": false,
      "metar_trigger": false,
      "taf_trigger": false,
      "metar": "METAR EBCI 241820Z 03006KT 320V050 CAVOK 25/15 Q1030 NOSIG",
      "taf": "TAF EBCI 241710Z 2418/2524 06005KT CAVOK"
    },
    {
      "icao": "EDDB",
      "alert": "OK",
      "vis_m": 9999,
      "fzfg": false,
      "metar_trigger": false,
      "taf_trigger": false,
      "metar": "METAR EDDB 241820Z AUTO 35013KT CAVOK 23/10 Q1029 NOSIG",
      "taf": "TAF EDDB 241700Z 2418/2518 34012KT CAVOK"
    },
    {
      "icao": "EDDH",
      "alert": "OK",
      "vis_m": 9999,
      "fzfg": false,
      "metar_trigger": false,
      "taf_trigger": false,
      "metar": "METAR EDDH 241820Z AUTO 32008KT CAVOK 19/11 Q1031 BECMG 34005KT",
      "taf": "TAF EDDH 241700Z 2418/2524 31010KT CAVOK"
    },
    {
      "icao": "EDDK",
      "alert": "OK",
      "vis_m": 9999,
      "fzfg": false,
      "metar_trigger": false,
      "taf_trigger": false,
      "metar": "METAR EDDK 241820Z AUTO 35003KT CAVOK 25/13 Q1030 NOSIG",
      "taf": "TAF EDDK 241700Z 2418/2524 35008KT CAVOK"
    },
    {
      "icao": "EDDN",
      "alert": "OK",
      "vis_m": 9999,
      "fzfg": false,
      "metar_trigger": false,
      "taf_trigger": false,
      "metar": "METAR EDDN 241820Z AUTO 31006KT CAVOK 27/13 Q1028 NOSIG",
      "taf": "TAF EDDN 241700Z 2418/2518 35005KT CAVOK"
    },
    {
      "icao": "EDDS",
      "alert": "OK",
      "vis_m": 9999,
      "fzfg": false,
      "metar_trigger": false,
      "taf_trigger": false,
      "metar": "METAR EDDS 241820Z AUTO 01004KT CAVOK 26/14 Q1029 NOSIG",
      "taf": "TAF EDDS 241700Z 2418/2518 01006KT CAVOK"
    },
    {
      "icao": "EDFH",
      "alert": "OK",
      "vis_m": 9999,
      "fzfg": false,
      "metar_trigger": false,
      "taf_trigger": false,
      "metar": "METAR EDFH 241820Z 01006KT CAVOK 23/14 Q1031",
      "taf": "TAF EDFH 241700Z 2418/2518 02006KT CAVOK"
    },
    {
      "icao": "EDJA",
      "alert": "OK",
      "vis_m": 9999,
      "fzfg": false,
      "metar_trigger": false,
      "taf_trigger": false,
      "metar": "METAR EDJA 241820Z 03005KT CAVOK 23/11 Q1030",
      "taf": "TAF EDJA 241700Z 2418/2503 05007KT CAVOK"
    },
    {
      "icao": "EDLW",
      "alert": "OK",
      "vis_m": 9999,
      "fzfg": false,
      "metar_trigger": false,
      "taf_trigger": false,
      "metar": "METAR EDLW 241820Z 04004KT CAVOK 23/12 Q1030",
      "taf": "TAF EDLW 241700Z 2418/2518 03005KT CAVOK"
    },
    {
      "icao": "EDNY",
      "alert": "OK",
      "vis_m": 9999,
      "fzfg": false,
      "metar_trigger": false,
      "taf_trigger": false,
      "metar": "METAR EDNY 241820Z AUTO 03007KT 9999 NCD 26/12 Q1028",
      "taf": "TAF EDNY 241700Z 2418/2503 04005KT CAVOK"
    },
    {
      "icao": "EDSB",
      "alert": "OK",
      "vis_m": 9999,
      "fzfg": false,
      "metar_trigger": false,
      "taf_trigger": false,
      "metar": "METAR EDSB 241820Z 02005KT CAVOK 26/15 Q1028",
      "taf": "TAF EDSB 241700Z 2418/2518 02007KT CAVOK"
    },
    {
      "icao": "EETN",
      "alert": "OK",
      "vis_m": 9999,
      "fzfg": false,
      "metar_trigger": false,
      "taf_trigger": false,
      "metar": "METAR EETN 241820Z 28019KT CAVOK 15/07 Q1016 NOSIG",
      "taf": "TAF EETN 241730Z 2418/2518 27018KT CAVOK"
    },
    {
      "icao": "EFTU",
      "alert": "OK",
      "vis_m": 9999,
      "fzfg": false,
      "metar_trigger": false,
      "taf_trigger": false,
      "metar": "METAR EFTU 241820Z AUTO 29009KT CAVOK 16/06 Q1016",
      "taf": "TAF EFTU 241724Z 2418/2518 31012KT CAVOK"
    },
    {
      "icao": "EGBB",
      "alert": "OK",
      "vis_m": 9999,
      "fzfg": false,
      "metar_trigger": false,
      "taf_trigger": false,
      "metar": "METAR EGBB 241820Z 19004KT CAVOK 26/09 Q1030",
      "taf": "TAF EGBB 241654Z 2418/2518 VRB02KT CAVOK"
    },
    {
      "icao": "EGGP",
      "alert": "OK",
      "vis_m": 9999,
      "fzfg": false,
      "metar_trigger": false,
      "taf_trigger": false,
      "metar": "METAR EGGP 241820Z 35008KT 320V020 CAVOK 22/10 Q1030",
      "taf": "TAF EGGP 241657Z 2418/2518 27005KT CAVOK"
    },
    {
      "icao": "EGGW",
      "alert": "OK",
      "vis_m": 9999,
      "fzfg": false,
      "metar_trigger": false,
      "taf_trigger": false,
      "metar": "METAR EGGW 241820Z AUTO 36005KT 340V040 9999 NCD 28/12 Q1030",
      "taf": "TAF EGGW 241655Z 2418/2518 VRB04KT CAVOK"
    },
    {
      "icao": "EGKK",
      "alert": "OK",
      "vis_m": 9999,
      "fzfg": false,
      "metar_trigger": false,
      "taf_trigger": false,
      "metar": "METAR EGKK 241820Z 22006KT 180V240 CAVOK 28/13 Q1029",
      "taf": "TAF EGKK 241702Z 2418/2524 VRB03KT CAVOK"
    },
    {
      "icao": "EGNM",
      "alert": "OK",
      "vis_m": 9999,
      "fzfg": false,
      "metar_trigger": false,
      "taf_trigger": false,
      "metar": "METAR EGNM 241820Z 29009KT CAVOK 22/09 Q1030",
      "taf": "TAF EGNM 241655Z 2418/2518 26006KT CAVOK"
    },
    {
      "icao": "EGPD",
      "alert": "OK",
      "vis_m": 9999,
      "fzfg": false,
      "metar_trigger": false,
      "taf_trigger": false,
      "metar": "METAR EGPD 241820Z COR AUTO 30005KT 9999 FEW048 20/12 Q1027 NOSIG",
      "taf": "TAF EGPD 241658Z 2418/2518 23007KT 9999 FEW040"
    },
    {
      "icao": "EGPF",
      "alert": "OK",
      "vis_m": 9999,
      "fzfg": false,
      "metar_trigger": false,
      "taf_trigger": false,
      "metar": "METAR EGPF 241820Z AUTO 23010KT 9999 NCD 19/11 Q1028",
      "taf": "TAF EGPF 241653Z 2418/2518 20010KT 9999 SCT030"
    },
    {
      "icao": "EHBK",
      "alert": "OK",
      "vis_m": 9999,
      "fzfg": false,
      "metar_trigger": false,
      "taf_trigger": false,
      "metar": "METAR EHBK 241825Z AUTO 05007KT 9999 NSC 24/13 Q1030 NOSIG",
      "taf": "TAF EHBK 241708Z 2418/2524 07007KT CAVOK"
    },
    {
      "icao": "EHEH",
      "alert": "OK",
      "vis_m": 9999,
      "fzfg": false,
      "metar_trigger": false,
      "taf_trigger": false,
      "metar": "METAR EHEH 241825Z AUTO 01004KT 340V040 9999 ////// 25/09 Q1030 BLU NOSIG",
      "taf": "TAF EHEH 241751Z 2418/2524 01005KT CAVOK"
    },
    {
      "icao": "EKBI",
      "alert": "OK",
      "vis_m": 9999,
      "fzfg": false,
      "metar_trigger": false,
      "taf_trigger": false,
      "metar": "METAR EKBI 241820Z AUTO 27009KT 9999 NCD 17/11 Q1030",
      "taf": "TAF EKBI 241727Z 2418/2518 29010KT CAVOK"
    },
    {
      "icao": "EKCH",
      "alert": "OK",
      "vis_m": 9999,
      "fzfg": false,
      "metar_trigger": false,
      "taf_trigger": false,
      "metar": "METAR EKCH 241820Z AUTO 33011KT 9999 NCD 18/08 Q1029 NOSIG",
      "taf": "TAF EKCH 241727Z 2418/2518 31010KT CAVOK"
    },
    {
      "icao": "ENAL",
      "alert": "OK",
      "vis_m": 9999,
      "fzfg": false,
      "metar_trigger": false,
      "taf_trigger": false,
      "metar": "METAR ENAL 241820Z 24012KT 9999 FEW013 SCT016 BKN026 10/08 Q1023",
      "taf": "TAF ENAL 241700Z 2418/2503 24015KT 9999 FEW025 BKN050"
    },
    {
      "icao": "ENBR",
      "alert": "OK",
      "vis_m": 9999,
      "fzfg": false,
      "metar_trigger": false,
      "taf_trigger": false,
      "metar": "METAR ENBR 241820Z 20008KT 9999 BKN008 11/09 Q1027 NOSIG RMK WIND 1200FT 24013KT",
      "taf": ""
    },
    {
      "icao": "ENGM",
      "alert": "OK",
      "vis_m": 9999,
      "fzfg": false,
      "metar_trigger": false,
      "taf_trigger": false,
      "metar": "METAR ENGM 241820Z 26010KT 220V300 CAVOK 18/05 Q1022 NOSIG",
      "taf": "TAF ENGM 241700Z 2418/2518 25008KT CAVOK"
    },
    {
      "icao": "ENHD",
      "alert": "OK",
      "vis_m": 9999,
      "fzfg": false,
      "metar_trigger": false,
      "taf_trigger": false,
      "metar": "METAR ENHD 241820Z 20008KT CAVOK 12/09 Q1028",
      "taf": "TAF ENHD 241400Z 2415/2422 20010KT 9999 FEW030 SCT050"
    },
    {
      "icao": "ENTC",
      "alert": "OK",
      "vis_m": 9000,
      "fzfg": false,
      "metar_trigger": false,
      "taf_trigger": false,
      "metar": "METAR ENTC 241820Z 02007KT 9000 -DZ SCT005 BKN008 BKN012 07/06 Q1007 TEMPO 4000 DZRA BECMG 18010KT RMK WIND 2600FT 20004KT",
      "taf": "TAF ENTC 241700Z 2418/2518 02008KT 9999 -RA SCT015 BKN018"
    },
    {
      "icao": "ENTO",
      "alert": "OK",
      "vis_m": 9999,
      "fzfg": false,
      "metar_trigger": false,
      "taf_trigger": false,
      "metar": "METAR ENTO 241820Z 30006KT 240V340 CAVOK 19/08 Q1024 NOSIG",
      "taf": "TAF ENTO 241700Z 2418/2518 28008KT CAVOK"
    },
    {
      "icao": "ENVA",
      "alert": "OK",
      "vis_m": 9999,
      "fzfg": false,
      "metar_trigger": false,
      "taf_trigger": false,
      "metar": "METAR ENVA 241820Z 27018KT 9999 FEW045CB BKN053 11/07 Q1021 RMK WIND 670FT 27015KT",
      "taf": "TAF ENVA 241700Z 2418/2518 26015KT 9999 SCT050"
    },
    {
      "icao": "ENZV",
      "alert": "OK",
      "vis_m": 9999,
      "fzfg": false,
      "metar_trigger": false,
      "taf_trigger": false,
      "metar": "METAR ENZV 241820Z 22007KT 9999 FEW010 13/10 Q1028 NOSIG",
      "taf": "TAF ENZV 241700Z 2418/2518 21008KT 9999 FEW040"
    },
    {
      "icao": "EPGD",
      "alert": "OK",
      "vis_m": 9999,
      "fzfg": false,
      "metar_trigger": false,
      "taf_trigger": false,
      "metar": "METAR EPGD 241830Z 29011KT CAVOK 16/09 Q1026",
      "taf": "TAF EPGD 241730Z 2418/2518 31013KT CAVOK"
    },
    {
      "icao": "EPKK",
      "alert": "OK",
      "vis_m": 9999,
      "fzfg": false,
      "metar_trigger": false,
      "taf_trigger": false,
      "metar": "METAR EPKK 241830Z 27005KT CAVOK 23/14 Q1025",
      "taf": "TAF EPKK 241730Z 2418/2518 26008KT CAVOK"
    },
    {
      "icao": "EPKT",
      "alert": "OK",
      "vis_m": 9999,
      "fzfg": false,
      "metar_trigger": false,
      "taf_trigger": false,
      "metar": "METAR EPKT 241830Z 36016KT 9999 -SHRA FEW050CB 20/15 Q1026",
      "taf": "TAF EPKT 241730Z 2418/2518 27005KT CAVOK"
    },
    {
      "icao": "EPLB",
      "alert": "OK",
      "vis_m": 9999,
      "fzfg": false,
      "metar_trigger": false,
      "taf_trigger": false,
      "metar": "METAR EPLB 241830Z 28004KT 9999 FEW070CB 19/16 Q1023",
      "taf": "TAF EPLB 241730Z 2418/2518 36010KT CAVOK"
    },
    {
      "icao": "EPMO",
      "alert": "OK",
      "vis_m": 9999,
      "fzfg": false,
      "metar_trigger": false,
      "taf_trigger": false,
      "metar": "METAR EPMO 241830Z 30005KT 270V350 CAVOK 20/17 Q1024",
      "taf": "TAF EPMO 241730Z 2418/2518 36005KT CAVOK"
    },
    {
      "icao": "EPPO",
      "alert": "OK",
      "vis_m": 9999,
      "fzfg": false,
      "metar_trigger": false,
      "taf_trigger": false,
      "metar": "METAR EPPO 241830Z 35008KT CAVOK 22/10 Q1027",
      "taf": "TAF EPPO 241730Z 2418/2518 33010KT CAVOK"
    },
    {
      "icao": "EPRA",
      "alert": "OK",
      "vis_m": 9999,
      "fzfg": false,
      "metar_trigger": false,
      "taf_trigger": false,
      "metar": "METAR EPRA 241830Z 33004KT 270V040 CAVOK 20/16 Q1024",
      "taf": "TAF EPRA 241730Z 2418/2503 31010KT CAVOK"
    },
    {
      "icao": "EPRZ",
      "alert": "OK",
      "vis_m": 9999,
      "fzfg": false,
      "metar_trigger": false,
      "taf_trigger": false,
      "metar": "METAR EPRZ 241830Z 29013KT 9999 SCT050CB 24/12 Q1024",
      "taf": "TAF EPRZ 241730Z 2418/2518 30010KT CAVOK"
    },
    {
      "icao": "EPSC",
      "alert": "OK",
      "vis_m": 9999,
      "fzfg": false,
      "metar_trigger": false,
      "taf_trigger": false,
      "metar": "METAR EPSC 241830Z 33008KT CAVOK 17/11 Q1029",
      "taf": "TAF EPSC 241730Z 2418/2518 33010KT CAVOK"
    },
    {
      "icao": "EPSY",
      "alert": "OK",
      "vis_m": 9999,
      "fzfg": false,
      "metar_trigger": false,
      "taf_trigger": false,
      "metar": "METAR EPSY 241830Z 34009KT CAVOK 18/04 Q1024",
      "taf": "TAF EPSY 241730Z 2418/2503 33008KT CAVOK"
    },
    {
      "icao": "EPWA",
      "alert": "OK",
      "vis_m": 9999,
      "fzfg": false,
      "metar_trigger": false,
      "taf_trigger": false,
      "metar": "METAR EPWA 241830Z 21003KT 9999 FEW042CB 19/18 Q1023 TEMPO 3000 SHRA",
      "taf": "TAF EPWA 241730Z 2418/2518 36005KT CAVOK"
    },
    {
      "icao": "EPWR",
      "alert": "OK",
      "vis_m": 9999,
      "fzfg": false,
      "metar_trigger": false,
      "taf_trigger": false,
      "metar": "METAR EPWR 241830Z 34004KT CAVOK 25/15 Q1025",
      "taf": "TAF EPWR 241730Z 2418/2518 20004KT CAVOK"
    },
    {
      "icao": "ESGG",
      "alert": "OK",
      "vis_m": 9999,
      "fzfg": false,
      "metar_trigger": false,
      "taf_trigger": false,
      "metar": "METAR ESGG 241820Z 27010KT 240V310 CAVOK 15/07 Q1027",
      "taf": "TAF ESGG 241730Z 2418/2518 27010KT CAVOK"
    },
    {
      "icao": "ESKN",
      "alert": "OK",
      "vis_m": 9999,
      "fzfg": false,
      "metar_trigger": false,
      "taf_trigger": false,
      "metar": "METAR ESKN 241820Z 27008KT CAVOK 19/08 Q1021",
      "taf": "TAF ESKN 241730Z 2418/2518 29010KT CAVOK"
    },
    {
      "icao": "ESMS",
      "alert": "OK",
      "vis_m": 9999,
      "fzfg": false,
      "metar_trigger": false,
      "taf_trigger": false,
      "metar": "METAR ESMS 241820Z 31014KT CAVOK 17/07 Q1028",
      "taf": "TAF ESMS 241727Z 2418/2518 30008KT CAVOK"
    },
    {
      "icao": "ESSA",
      "alert": "OK",
      "vis_m": 9999,
      "fzfg": false,
      "metar_trigger": false,
      "taf_trigger": false,
      "metar": "METAR ESSA 241820Z 26014KT CAVOK 19/06 Q1018 NOSIG",
      "taf": "TAF ESSA 241730Z 2418/2518 26010KT CAVOK"
    },
    {
      "icao": "EYKA",
      "alert": "OK",
      "vis_m": 9999,
      "fzfg": false,
      "metar_trigger": false,
      "taf_trigger": false,
      "metar": "METAR EYKA 241820Z 30009KT CAVOK 18/10 Q1021",
      "taf": "TAF EYKA 241703Z 2418/2518 29008KT 9000 SCT035"
    },
    {
      "icao": "EYPA",
      "alert": "OK",
      "vis_m": 9999,
      "fzfg": false,
      "metar_trigger": false,
      "taf_trigger": false,
      "metar": "METAR EYPA 241820Z VRB01KT CAVOK 11/10 Q1023",
      "taf": "TAF EYPA 241702Z 2418/2518 VRB03KT 9000 NSC"
    },
    {
      "icao": "EYVI",
      "alert": "OK",
      "vis_m": 9999,
      "fzfg": false,
      "metar_trigger": false,
      "taf_trigger": false,
      "metar": "METAR EYVI 241820Z 28007KT 250V310 CAVOK 18/06 Q1020 NOSIG",
      "taf": "TAF EYVI 241703Z 2418/2518 29013KT 9000 SCT040"
    },
    {
      "icao": "GCFV",
      "alert": "OK",
      "vis_m": 9999,
      "fzfg": false,
      "metar_trigger": false,
      "taf_trigger": false,
      "metar": "METAR GCFV 241830Z 29009G25KT 270V340 9999 FEW015 28/16 Q1014",
      "taf": "TAF GCFV 241400Z 2415/2515 05009KT 9999 SCT010 TX32/2514Z TN22/2506Z"
    },
    {
      "icao": "GCLP",
      "alert": "OK",
      "vis_m": 9999,
      "fzfg": false,
      "metar_trigger": false,
      "taf_trigger": false,
      "metar": "METAR GCLP 241830Z 02020KT 9999 FEW025 23/17 Q1015 NOSIG",
      "taf": "TAF GCLP 241400Z 2415/2515 02017KT 9999 FEW030 TX28/2514Z TN22/2506Z"
    },
    {
      "icao": "GCTS",
      "alert": "OK",
      "vis_m": 9999,
      "fzfg": false,
      "metar_trigger": false,
      "taf_trigger": false,
      "metar": "METAR GCTS 241830Z 09013KT CAVOK 23/17 Q1016 NOSIG",
      "taf": "TAF GCTS 241400Z 2415/2515 09012KT 9999 FEW020 TX28/2514Z TN21/2506Z"
    },
    {
      "icao": "GMAD",
      "alert": "OK",
      "vis_m": 9999,
      "fzfg": false,
      "metar_trigger": false,
      "taf_trigger": false,
      "metar": "METAR GMAD 241830Z 24010KT 9999 FEW033 SCT100 28/14 Q1014 NOSIG",
      "taf": "TAF GMAD 241700Z 2418/2524 20008KT 8000 SCT010 SCT016"
    },
    {
      "icao": "GMMN",
      "alert": "OK",
      "vis_m": 9999,
      "fzfg": false,
      "metar_trigger": false,
      "taf_trigger": false,
      "metar": "METAR GMMN 241830Z 02010KT 350V050 CAVOK 32/14 Q1017 NOSIG",
      "taf": "TAF GMMN 241700Z 2418/2524 36012KT CAVOK"
    },
    {
      "icao": "GMMX",
      "alert": "OK",
      "vis_m": 8000,
      "fzfg": false,
      "metar_trigger": false,
      "taf_trigger": false,
      "metar": "METAR GMMX 241830Z 25017KT 220V280 8000 SCT030 FEW040CB BKN100 34/09 Q1017 NOSIG",
      "taf": ""
    },
    {
      "icao": "HEGN",
      "alert": "OK",
      "vis_m": 9999,
      "fzfg": false,
      "metar_trigger": false,
      "taf_trigger": false,
      "metar": "METAR HEGN 241800Z 34014KT CAVOK 29/09 Q1014 NOSIG",
      "taf": "TAF HEGN 241700Z 2418/2524 33015KT CAVOK"
    },
    {
      "icao": "HEMA",
      "alert": "OK",
      "vis_m": 9999,
      "fzfg": false,
      "metar_trigger": false,
      "taf_trigger": false,
      "metar": "METAR HEMA 241800Z 32005KT CAVOK 28/03 Q1013 NOSIG",
      "taf": "TAF HEMA 241700Z 2418/2524 32015KT CAVOK"
    },
    {
      "icao": "HESH",
      "alert": "OK",
      "vis_m": 9999,
      "fzfg": false,
      "metar_trigger": false,
      "taf_trigger": false,
      "metar": "METAR HESH 241800Z 36006KT CAVOK 31/08 Q1012 NOSIG",
      "taf": "TAF HESH 241700Z 2418/2524 34015KT CAVOK"
    },
    {
      "icao": "HESX",
      "alert": "OK",
      "vis_m": 9999,
      "fzfg": false,
      "metar_trigger": false,
      "taf_trigger": false,
      "metar": "METAR HESX 241800Z 35006KT CAVOK 23/10 Q1018 NOSIG",
      "taf": "TAF HESX 241700Z 2418/2524 36009KT 9999 FEW025"
    },
    {
      "icao": "LATI",
      "alert": "OK",
      "vis_m": null,
      "fzfg": false,
      "metar_trigger": false,
      "taf_trigger": false,
      "metar": "",
      "taf": "TAF LATI 241700Z 2418/2518 VRB05KT CAVOK TX31/2512Z TN14/2504Z"
    },
    {
      "icao": "LBPD",
      "alert": "OK",
      "vis_m": 9999,
      "fzfg": false,
      "metar_trigger": false,
      "taf_trigger": false,
      "metar": "METAR LBPD 241830Z AUTO 20005KT 160V220 9999 -SHRA FEW054/// BKN074/// OVC100/// 18/18 Q1023 TEMPO 5000 TSRA SCT030CB",
      "taf": "TAF LBPD 241700Z 2418/2518 28010KT 9999 SCT035 BKN050"
    },
    {
      "icao": "LBSF",
      "alert": "OK",
      "vis_m": 9999,
      "fzfg": false,
      "metar_trigger": false,
      "taf_trigger": false,
      "metar": "METAR LBSF 241830Z AUTO 28004KT 9999 NCD 16/13 Q1024 NOSIG",
      "taf": "TAF LBSF 241700Z 2418/2518 VRB04KT 9999 SCT040 BKN060"
    },
    {
      "icao": "LBWN",
      "alert": "OK",
      "vis_m": 9999,
      "fzfg": false,
      "metar_trigger": false,
      "taf_trigger": false,
      "metar": "METAR LBWN 241830Z AUTO VRB02KT 9999 NCD 17/13 Q1021 NOSIG",
      "taf": "TAF LBWN 241700Z 2418/2518 35010KT 9999 SCT040"
    },
    {
      "icao": "LCLK",
      "alert": "OK",
      "vis_m": 9999,
      "fzfg": false,
      "metar_trigger": false,
      "taf_trigger": false,
      "metar": "METAR LCLK 241830Z 36006KT 9999 FEW030 21/17 Q1016 NOSIG",
      "taf": "TAF LCLK 241730Z 2418/2518 28007KT 9999 FEW020 SCT050"
    },
    {
      "icao": "LCPH",
      "alert": "OK",
      "vis_m": 9999,
      "fzfg": false,
      "metar_trigger": false,
      "taf_trigger": false,
      "metar": "METAR LCPH 241830Z 31006KT 9999 FEW017 20/16 Q1017 NOSIG",
      "taf": "TAF LCPH 241730Z 2418/2518 32010KT 9999 SCT015"
    },
    {
      "icao": "LEAL",
      "alert": "OK",
      "vis_m": 9999,
      "fzfg": false,
      "metar_trigger": false,
      "taf_trigger": false,
      "metar": "METAR LEAL 241830Z 07009KT CAVOK 25/13 Q1025 NOSIG",
      "taf": "TAF LEAL 241700Z 2418/2518 07007KT CAVOK TX28/2512Z TN15/2505Z"
    },
    {
      "icao": "LEBB",
      "alert": "OK",
      "vis_m": 9999,
      "fzfg": false,
      "metar_trigger": false,
      "taf_trigger": false,
      "metar": "METAR LEBB 241830Z 29005KT CAVOK 26/20 Q1022 NOSIG",
      "taf": "TAF LEBB 241700Z 2418/2518 12007KT CAVOK TX35/2515Z TN19/2506Z"
    },
    {
      "icao": "LEBL",
      "alert": "OK",
      "vis_m": 9999,
      "fzfg": false,
      "metar_trigger": false,
      "taf_trigger": false,
      "metar": "METAR LEBL 241830Z 18004KT 150V230 CAVOK 24/19 Q1025 NOSIG",
      "taf": "TAF LEBL 241700Z 2418/2518 20008KT CAVOK TX26/2512Z TN18/2505Z"
    },
    {
      "icao": "LECH",
      "alert": "OK",
      "vis_m": 9000,
      "fzfg": false,
      "metar_trigger": false,
      "taf_trigger": false,
      "metar": "METAR LECH 241830Z AUTO 10003KT 060V140 9000 NCD 23/13 Q1027",
      "taf": "TAF LECH 241700Z 2418/2518 VRB04KT CAVOK TX31/2513Z TN13/2505Z"
    },
    {
      "icao": "LEMD",
      "alert": "OK",
      "vis_m": 9999,
      "fzfg": false,
      "metar_trigger": false,
      "taf_trigger": false,
      "metar": "METAR LEMD 241830Z 14007KT CAVOK 30/03 Q1023 NOSIG",
      "taf": "TAF LEMD 241700Z 2418/2524 VRB04KT CAVOK TX33/2516Z TN14/2505Z"
    },
    {
      "icao": "LEMG",
      "alert": "OK",
      "vis_m": 9999,
      "fzfg": false,
      "metar_trigger": false,
      "taf_trigger": false,
      "metar": "METAR LEMG 241830Z 14003KT 110V170 CAVOK 23/10 Q1024 NOSIG",
      "taf": "TAF LEMG 241700Z 2418/2518 12010KT CAVOK TX27/2514Z TN15/2506Z"
    },
    {
      "icao": "LEVC",
      "alert": "OK",
      "vis_m": 9999,
      "fzfg": false,
      "metar_trigger": false,
      "taf_trigger": false,
      "metar": "METAR LEVC 241830Z 07007KT CAVOK 24/13 Q1025 NOSIG",
      "taf": "TAF LEVC 241700Z 2418/2518 09005KT CAVOK TX29/2512Z TN16/2505Z"
    },
    {
      "icao": "LEXJ",
      "alert": "OK",
      "vis_m": 9999,
      "fzfg": false,
      "metar_trigger": false,
      "taf_trigger": false,
      "metar": "METAR LEXJ 241830Z 07003KT 360V130 CAVOK 25/17 Q1021",
      "taf": "TAF LEXJ 241400Z 2415/2515 18007KT 9999 FEW040 TX33/2514Z TN17/2505Z"
    },
    {
      "icao": "LEZG",
      "alert": "OK",
      "vis_m": 9999,
      "fzfg": false,
      "metar_trigger": false,
      "taf_trigger": false,
      "metar": "METAR LEZG 241830Z 11013KT 080V140 CAVOK 30/04 Q1023 NOSIG",
      "taf": "TAF LEZG 241700Z 2418/2518 11012KT CAVOK TX34/2515Z TN18/2505Z"
    },
    {
      "icao": "LEZL",
      "alert": "OK",
      "vis_m": 9999,
      "fzfg": false,
      "metar_trigger": false,
      "taf_trigger": false,
      "metar": "METAR LEZL 241830Z 09005KT CAVOK 33/08 Q1019 NOSIG",
      "taf": "TAF LEZL 241400Z 2415/2515 VRB03KT CAVOK TX37/2415Z TN19/2506Z"
    },
    {
      "icao": "LFBD",
      "alert": "OK",
      "vis_m": 9999,
      "fzfg": false,
      "metar_trigger": false,
      "taf_trigger": false,
      "metar": "METAR LFBD 241830Z AUTO 10010KT CAVOK 32/16 Q1023 TEMPO SCT070TCU",
      "taf": "TAF LFBD 241700Z 2418/2524 10008KT CAVOK TX36/2515Z TN20/2505Z"
    },
    {
      "icao": "LFLL",
      "alert": "OK",
      "vis_m": 9999,
      "fzfg": false,
      "metar_trigger": false,
      "taf_trigger": false,
      "metar": "METAR LFLL 241830Z 36004KT CAVOK 29/16 Q1026 NOSIG",
      "taf": "TAF LFLL 241700Z 2418/2524 01006KT CAVOK"
    },
    {
      "icao": "LFLS",
      "alert": "OK",
      "vis_m": 9999,
      "fzfg": false,
      "metar_trigger": false,
      "taf_trigger": false,
      "metar": "METAR LFLS 241830Z AUTO 36005KT CAVOK 25/18 Q1027 NOSIG",
      "taf": "TAF LFLS 241400Z 2415/2515 VRB05KT CAVOK"
    },
    {
      "icao": "LFMN",
      "alert": "OK",
      "vis_m": 9999,
      "fzfg": false,
      "metar_trigger": false,
      "taf_trigger": false,
      "metar": "METAR LFMN 241830Z 22002KT CAVOK 25/10 Q1025 NOSIG",
      "taf": "TAF LFMN 241400Z 2415/2521 18005KT CAVOK"
    },
    {
      "icao": "LFOB",
      "alert": "OK",
      "vis_m": 9999,
      "fzfg": false,
      "metar_trigger": false,
      "taf_trigger": false,
      "metar": "METAR LFOB 241830Z AUTO 03005KT CAVOK 26/19 Q1029 NOSIG",
      "taf": "TAF LFOB 241700Z 2418/2518 06005KT CAVOK"
    },
    {
      "icao": "LFPO",
      "alert": "OK",
      "vis_m": 9999,
      "fzfg": false,
      "metar_trigger": false,
      "taf_trigger": false,
      "metar": "METAR LFPO 241830Z AUTO 06010KT CAVOK 28/16 Q1028 NOSIG",
      "taf": "TAF LFPO 241700Z 2418/2524 06008KT CAVOK"
    },
    {
      "icao": "LFSB",
      "alert": "OK",
      "vis_m": 9999,
      "fzfg": false,
      "metar_trigger": false,
      "taf_trigger": false,
      "metar": "METAR LFSB 241830Z AUTO 35008KT CAVOK 26/15 Q1027 NOSIG",
      "taf": "TAF LFSB 241700Z 2418/2518 35007KT CAVOK"
    },
    {
      "icao": "LGAV",
      "alert": "OK",
      "vis_m": 9999,
      "fzfg": false,
      "metar_trigger": false,
      "taf_trigger": false,
      "metar": "METAR LGAV 241820Z 01006KT 9999 FEW020 22/10 Q1021 NOSIG",
      "taf": "TAF LGAV 241700Z 2418/2518 04013KT 9999 FEW020 SCT070"
    },
    {
      "icao": "LGTS",
      "alert": "OK",
      "vis_m": 9999,
      "fzfg": false,
      "metar_trigger": false,
      "taf_trigger": false,
      "metar": "METAR LGTS 241820Z 10003KT 9999 FEW018TCU SCT030 20/18 Q1023 TEMPO SHRA",
      "taf": "TAF LGTS 241700Z 2418/2518 33010KT 9999 SCT025"
    },
    {
      "icao": "LHBP",
      "alert": "OK",
      "vis_m": 9999,
      "fzfg": false,
      "metar_trigger": false,
      "taf_trigger": false,
      "metar": "METAR LHBP 241830Z 00000KT CAVOK 24/13 Q1024 NOSIG",
      "taf": "TAF LHBP 241715Z 2418/2518 VRB03KT CAVOK"
    },
    {
      "icao": "LHDC",
      "alert": "OK",
      "vis_m": 9999,
      "fzfg": false,
      "metar_trigger": false,
      "taf_trigger": false,
      "metar": "METAR LHDC 241815Z AUTO 36004KT 9999 ////// 25/10 Q1024 NOSIG",
      "taf": "TAF LHDC 241715Z 2418/2503 02007KT CAVOK"
    },
    {
      "icao": "LIBD",
      "alert": "OK",
      "vis_m": 9999,
      "fzfg": false,
      "metar_trigger": false,
      "taf_trigger": false,
      "metar": "METAR LIBD 241820Z 33005KT 290V010 CAVOK 21/14 Q1023",
      "taf": "TAF LIBD 241700Z 2418/2518 33010KT CAVOK"
    },
    {
      "icao": "LIBG",
      "alert": "OK",
      "vis_m": 9999,
      "fzfg": false,
      "metar_trigger": false,
      "taf_trigger": false,
      "metar": "METAR LIBG 241820Z AUTO 35005KT 300V010 9999 SCT120/// BKN140/// 23/10 Q1022",
      "taf": "TAF LIBG 241700Z 2418/2518 02010KT CAVOK"
    },
    {
      "icao": "LIBP",
      "alert": "OK",
      "vis_m": 9999,
      "fzfg": false,
      "metar_trigger": false,
      "taf_trigger": false,
      "metar": "METAR LIBP 241820Z AUTO 33003KT 280V040 9999 NCD 23/10 Q1025",
      "taf": "TAF LIBP 241700Z 2418/2518 VRB05KT CAVOK"
    },
    {
      "icao": "LIBR",
      "alert": "OK",
      "vis_m": 9999,
      "fzfg": false,
      "metar_trigger": false,
      "taf_trigger": false,
      "metar": "METAR LIBR 241820Z 32009KT CAVOK 19/17 Q1022",
      "taf": "TAF LIBR 241700Z 2418/2518 33013KT CAVOK"
    },
    {
      "icao": "LICA",
      "alert": "OK",
      "vis_m": 9999,
      "fzfg": false,
      "metar_trigger": false,
      "taf_trigger": false,
      "metar": "METAR LICA 241820Z AUTO VRB01KT 9999 FEW091/// 20/18 Q1023",
      "taf": "TAF LICA 241700Z 2418/2518 VRB05KT 9999 SCT060"
    },
    {
      "icao": "LICC",
      "alert": "OK",
      "vis_m": 9999,
      "fzfg": false,
      "metar_trigger": false,
      "taf_trigger": false,
      "metar": "METAR LICC 241820Z 07006KT 9999 SCT090 22/13 Q1023",
      "taf": "TAF LICC 241700Z 2418/2518 08010KT 9999 FEW070"
    },
    {
      "icao": "LICJ",
      "alert": "OK",
      "vis_m": 9999,
      "fzfg": false,
      "metar_trigger": false,
      "taf_trigger": false,
      "metar": "METAR LICJ 241820Z 07010KT CAVOK 22/17 Q1022",
      "taf": "TAF LICJ 241700Z 2418/2518 05012KT CAVOK"
    },
    {
      "icao": "LIMC",
      "alert": "OK",
      "vis_m": 9999,
      "fzfg": false,
      "metar_trigger": false,
      "taf_trigger": false,
      "metar": "METAR LIMC 241820Z 21004KT CAVOK 28/13 Q1026 NOSIG",
      "taf": "TAF LIMC 241700Z 2418/2524 VRB05KT CAVOK"
    },
    {
      "icao": "LIME",
      "alert": "OK",
      "vis_m": 9999,
      "fzfg": false,
      "metar_trigger": false,
      "taf_trigger": false,
      "metar": "METAR LIME 241820Z 18003KT 130V210 CAVOK 28/12 Q1026 NOSIG",
      "taf": "TAF LIME 241700Z 2418/2518 VRB05KT CAVOK"
    },
    {
      "icao": "LIMF",
      "alert": "OK",
      "vis_m": 9999,
      "fzfg": false,
      "metar_trigger": false,
      "taf_trigger": false,
      "metar": "METAR LIMF 241820Z 12004KT CAVOK 28/15 Q1026",
      "taf": "TAF LIMF 241700Z 2418/2518 VRB04KT CAVOK"
    },
    {
      "icao": "LIMJ",
      "alert": "OK",
      "vis_m": 9999,
      "fzfg": false,
      "metar_trigger": false,
      "taf_trigger": false,
      "metar": "METAR LIMJ 241820Z 15002KT CAVOK 24/19 Q1025",
      "taf": "TAF LIMJ 241700Z 2418/2518 VRB05KT CAVOK"
    },
    {
      "icao": "LIPE",
      "alert": "OK",
      "vis_m": 9999,
      "fzfg": false,
      "metar_trigger": false,
      "taf_trigger": false,
      "metar": "METAR LIPE 241820Z 12003KT 070V160 CAVOK 28/13 Q1025",
      "taf": "TAF LIPE 241700Z 2418/2518 VRB05KT CAVOK"
    },
    {
      "icao": "LIPH",
      "alert": "OK",
      "vis_m": 9999,
      "fzfg": false,
      "metar_trigger": false,
      "taf_trigger": false,
      "metar": "METAR LIPH 241820Z 21004KT 180V240 CAVOK 28/14 Q1024",
      "taf": "TAF LIPH 241700Z 2418/2518 VRB05KT CAVOK"
    },
    {
      "icao": "LIPQ",
      "alert": "OK",
      "vis_m": 9999,
      "fzfg": false,
      "metar_trigger": false,
      "taf_trigger": false,
      "metar": "METAR LIPQ 241820Z AUTO 14004KT 9999 NCD 25/16 Q1025",
      "taf": "TAF LIPQ 241700Z 2418/2518 VRB05KT CAVOK"
    },
    {
      "icao": "LIPR",
      "alert": "OK",
      "vis_m": 9999,
      "fzfg": false,
      "metar_trigger": false,
      "taf_trigger": false,
      "metar": "METAR LIPR 241820Z VRB01KT CAVOK 25/12 Q1025",
      "taf": "TAF LIPR 241700Z 2418/2518 VRB05KT CAVOK"
    },
    {
      "icao": "LIPX",
      "alert": "OK",
      "vis_m": 9999,
      "fzfg": false,
      "metar_trigger": false,
      "taf_trigger": false,
      "metar": "METAR LIPX 241820Z 26004KT 230V300 CAVOK 29/14 Q1025",
      "taf": "TAF LIPX 241700Z 2418/2518 VRB05KT 9999 FEW050"
    },
    {
      "icao": "LIPY",
      "alert": "OK",
      "vis_m": 9999,
      "fzfg": false,
      "metar_trigger": false,
      "taf_trigger": false,
      "metar": "METAR LIPY 241820Z AUTO 34003KT 9999 NCD 22/14 Q1025",
      "taf": "TAF LIPY 241700Z 2418/2518 VRB05KT CAVOK"
    },
    {
      "icao": "LIPZ",
      "alert": "OK",
      "vis_m": 9999,
      "fzfg": false,
      "metar_trigger": false,
      "taf_trigger": false,
      "metar": "METAR LIPZ 241820Z 21005KT CAVOK 27/17 Q1025 NOSIG",
      "taf": "TAF LIPZ 241700Z 2418/2524 VRB05KT CAVOK"
    },
    {
      "icao": "LIRF",
      "alert": "OK",
      "vis_m": 9999,
      "fzfg": false,
      "metar_trigger": false,
      "taf_trigger": false,
      "metar": "METAR LIRF 241820Z 28005KT CAVOK 22/16 Q1023 NOSIG",
      "taf": "TAF LIRF 241700Z 2418/2524 VRB05KT CAVOK"
    },
    {
      "icao": "LIRN",
      "alert": "OK",
      "vis_m": 9999,
      "fzfg": false,
      "metar_trigger": false,
      "taf_trigger": false,
      "metar": "METAR LIRN 241820Z 31005KT 280V340 CAVOK 26/10 Q1023 NOSIG",
      "taf": "TAF LIRN 241700Z 2418/2518 VRB05KT CAVOK"
    },
    {
      "icao": "LIRP",
      "alert": "OK",
      "vis_m": 9999,
      "fzfg": false,
      "metar_trigger": false,
      "taf_trigger": false,
      "metar": "METAR LIRP 241815Z 32006KT CAVOK 25/13 Q1025 NOSIG",
      "taf": "TAF LIRP 241700Z 2418/2518 32010KT CAVOK"
    },
    {
      "icao": "LIRZ",
      "alert": "OK",
      "vis_m": 9999,
      "fzfg": false,
      "metar_trigger": false,
      "taf_trigger": false,
      "metar": "METAR LIRZ 241820Z AUTO 36006KT 9999 NCD 21/10 Q1025",
      "taf": "TAF LIRZ 241700Z 2418/2518 05013KT CAVOK"
    },
    {
      "icao": "LJLJ",
      "alert": "OK",
      "vis_m": 9999,
      "fzfg": false,
      "metar_trigger": false,
      "taf_trigger": false,
      "metar": "METAR LJLJ 241830Z 17004KT 150V250 9999 FEW060 24/14 Q1027 NOSIG",
      "taf": "TAF LJLJ 241700Z 2418/2518 13005KT 9999 FEW060"
    },
    {
      "icao": "LKMT",
      "alert": "OK",
      "vis_m": 9999,
      "fzfg": false,
      "metar_trigger": false,
      "taf_trigger": false,
      "metar": "METAR LKMT 241830Z 23003KT CAVOK 22/14 Q1026 NOSIG",
      "taf": "TAF LKMT 241700Z 2418/2518 VRB02KT CAVOK"
    },
    {
      "icao": "LKPR",
      "alert": "OK",
      "vis_m": 9999,
      "fzfg": false,
      "metar_trigger": false,
      "taf_trigger": false,
      "metar": "METAR LKPR 241830Z 35007KT CAVOK 24/14 Q1028 NOSIG",
      "taf": "TAF LKPR 241700Z 2418/2524 34008KT CAVOK"
    },
    {
      "icao": "LLBG",
      "alert": "OK",
      "vis_m": 9999,
      "fzfg": false,
      "metar_trigger": false,
      "taf_trigger": false,
      "metar": "METAR LLBG 241820Z 34007KT CAVOK 21/16 Q1018 NOSIG",
      "taf": "TAF LLBG 241704Z 2418/2518 35005KT CAVOK TX26/2512Z TN17/2503Z"
    },
    {
      "icao": "LMML",
      "alert": "OK",
      "vis_m": 9999,
      "fzfg": false,
      "metar_trigger": false,
      "taf_trigger": false,
      "metar": "METAR LMML 241845Z 28005KT 260V330 CAVOK 22/11 Q1023 NOSIG",
      "taf": "TAF LMML 241700Z 2418/2518 32004KT CAVOK"
    },
    {
      "icao": "LOWW",
      "alert": "OK",
      "vis_m": 9999,
      "fzfg": false,
      "metar_trigger": false,
      "taf_trigger": false,
      "metar": "METAR LOWW 241820Z 35003KT CAVOK 25/12 Q1026 NOSIG",
      "taf": "TAF LOWW 241715Z 2418/2524 22004KT CAVOK TX29/2514Z TN18/2503Z"
    },
    {
      "icao": "LPFR",
      "alert": "OK",
      "vis_m": 9999,
      "fzfg": false,
      "metar_trigger": false,
      "taf_trigger": false,
      "metar": "METAR LPFR 241830Z 09013KT CAVOK 26/12 Q1019",
      "taf": "TAF LPFR 241700Z 2418/2518 11012KT CAVOK"
    },
    {
      "icao": "LPMA",
      "alert": "OK",
      "vis_m": 9999,
      "fzfg": false,
      "metar_trigger": false,
      "taf_trigger": false,
      "metar": "METAR LPMA 241830Z 03022KT 9999 FEW015 19/15 Q1019",
      "taf": "TAF LPMA 241700Z 2418/2518 02017KT 9999 SCT015"
    },
    {
      "icao": "LPPR",
      "alert": "OK",
      "vis_m": 9999,
      "fzfg": false,
      "metar_trigger": false,
      "taf_trigger": false,
      "metar": "METAR LPPR 241830Z 28005KT 210V350 9999 -SHRA FEW015 SCT025CB SCT035 19/16 Q1020 RETS",
      "taf": "TAF LPPR 241700Z 2418/2518 26005KT 9999 FEW015"
    },
    {
      "icao": "LPPS",
      "alert": "OK",
      "vis_m": 9999,
      "fzfg": false,
      "metar_trigger": false,
      "taf_trigger": false,
      "metar": "METAR LPPS 241830Z 05012KT 360V080 9999 SCT013 BKN030 18/14 Q1020",
      "taf": "TAF LPPS 241700Z 2418/2524 05010KT 9999 SCT015 BKN030"
    },
    {
      "icao": "LPPT",
      "alert": "OK",
      "vis_m": 9999,
      "fzfg": false,
      "metar_trigger": false,
      "taf_trigger": false,
      "metar": "METAR LPPT 241830Z 23006KT 210V270 CAVOK 26/13 Q1019",
      "taf": "TAF LPPT 241700Z 2418/2524 23008KT CAVOK"
    },
    {
      "icao": "LQBK",
      "alert": "OK",
      "vis_m": 9999,
      "fzfg": false,
      "metar_trigger": false,
      "taf_trigger": false,
      "metar": "METAR LQBK 241830Z 28002KT CAVOK 20/14 Q1026 NOSIG",
      "taf": "TAF LQBK 241700Z 2418/2518 16005KT CAVOK TX28/2513Z TN12/2503Z"
    },
    {
      "icao": "LQSA",
      "alert": "OK",
      "vis_m": 9999,
      "fzfg": false,
      "metar_trigger": false,
      "taf_trigger": false,
      "metar": "METAR LQSA 241830Z 36005KT 320V040 CAVOK 20/08 Q1026 NOSIG",
      "taf": "TAF LQSA 241700Z 2418/2518 32005KT 9999 SCT060 TX27/2514Z TN10/2504Z"
    },
    {
      "icao": "LQTZ",
      "alert": "OK",
      "vis_m": 9999,
      "fzfg": false,
      "metar_trigger": false,
      "taf_trigger": false,
      "metar": "METAR LQTZ 241830Z 00000KT CAVOK 19/13 Q1026",
      "taf": "TAF LQTZ 241700Z 2418/2518 24005KT CAVOK TX28/2514Z TN09/2504Z"
    },
    {
      "icao": "LRBC",
      "alert": "OK",
      "vis_m": 9999,
      "fzfg": false,
      "metar_trigger": false,
      "taf_trigger": false,
      "metar": "METAR LRBC 241830Z 31004KT CAVOK 16/11 Q1023",
      "taf": "TAF LRBC 241700Z 2418/2503 VRB04KT CAVOK"
    },
    {
      "icao": "LRBS",
      "alert": "OK",
      "vis_m": 9999,
      "fzfg": false,
      "metar_trigger": false,
      "taf_trigger": false,
      "metar": "METAR LRBS 241830Z 00000KT CAVOK 20/11 Q1023 NOSIG",
      "taf": "TAF LRBS 241700Z 2418/2518 VRB04KT CAVOK"
    },
    {
      "icao": "LRBV",
      "alert": "OK",
      "vis_m": 9999,
      "fzfg": false,
      "metar_trigger": false,
      "taf_trigger": false,
      "metar": "METAR LRBV 241830Z 22003KT 9999 SCT084 17/11 Q1024",
      "taf": "TAF LRBV 241700Z 2418/2503 29008KT 9999 SCT050"
    },
    {
      "icao": "LRCL",
      "alert": "OK",
      "vis_m": 9999,
      "fzfg": false,
      "metar_trigger": false,
      "taf_trigger": false,
      "metar": "METAR LRCL 241830Z 26005KT CAVOK 18/09 Q1024",
      "taf": "TAF LRCL 241700Z 2418/2503 33008KT CAVOK"
    },
    {
      "icao": "LRCV",
      "alert": "OK",
      "vis_m": 9999,
      "fzfg": false,
      "metar_trigger": false,
      "taf_trigger": false,
      "metar": "METAR LRCV 241830Z VRB01KT 9999 TS SCT050CB 19/16 Q1023",
      "taf": "TAF LRCV 241700Z 2418/2503 25006KT CAVOK"
    },
    {
      "icao": "LRIA",
      "alert": "OK",
      "vis_m": 9999,
      "fzfg": false,
      "metar_trigger": false,
      "taf_trigger": false,
      "metar": "METAR LRIA 241830Z 34006KT CAVOK 18/09 Q1022",
      "taf": "TAF LRIA 241700Z 2418/2503 32006KT CAVOK"
    },
    {
      "icao": "LROP",
      "alert": "OK",
      "vis_m": 9999,
      "fzfg": false,
      "metar_trigger": false,
      "taf_trigger": false,
      "metar": "METAR LROP 241830Z 14003KT CAVOK 19/13 Q1023 NOSIG",
      "taf": "TAF LROP 241700Z 2418/2518 VRB04KT CAVOK"
    },
    {
      "icao": "LRSB",
      "alert": "OK",
      "vis_m": 9999,
      "fzfg": false,
      "metar_trigger": false,
      "taf_trigger": false,
      "metar": "METAR LRSB 241830Z 25007KT CAVOK 16/11 Q1024",
      "taf": "TAF LRSB 241700Z 2418/2518 VRB04KT CAVOK"
    },
    {
      "icao": "LRSM",
      "alert": "OK",
      "vis_m": 9999,
      "fzfg": false,
      "metar_trigger": false,
      "taf_trigger": false,
      "metar": "METAR LRSM 241830Z AUTO 29006KT 9999 NCD 21/10 Q1023",
      "taf": ""
    },
    {
      "icao": "LRSV",
      "alert": "OK",
      "vis_m": 9999,
      "fzfg": false,
      "metar_trigger": false,
      "taf_trigger": false,
      "metar": "METAR LRSV 241830Z 28006KT CAVOK 17/09 Q1023",
      "taf": "TAF LRSV 241700Z 2418/2503 31006KT CAVOK"
    },
    {
      "icao": "LRTM",
      "alert": "OK",
      "vis_m": 9999,
      "fzfg": false,
      "metar_trigger": false,
      "taf_trigger": false,
      "metar": "METAR LRTM 241830Z VRB02KT CAVOK 17/12 Q1023",
      "taf": "TAF LRTM 241700Z 2418/2503 30008KT CAVOK"
    },
    {
      "icao": "LRTR",
      "alert": "OK",
      "vis_m": 9999,
      "fzfg": false,
      "metar_trigger": false,
      "taf_trigger": false,
      "metar": "METAR LRTR 241830Z 36003KT 310V050 CAVOK 21/08 Q1023",
      "taf": "TAF LRTR 241700Z 2418/2518 01008KT CAVOK"
    },
    {
      "icao": "LTAC",
      "alert": "OK",
      "vis_m": 9999,
      "fzfg": false,
      "metar_trigger": false,
      "taf_trigger": false,
      "metar": "METAR LTAC 241820Z VRB01KT 9999 SCT040 BKN100 13/12 Q1018 NOSIG RMK RWY21C 12003KT RWY03L VRB01KT RWY21R 11003KT RWY03R VRB01KT RWY21L 09004KT",
      "taf": "TAF LTAC 241640Z 2418/2518 VRB02KT 9999 SCT040 SCT100"
    },
    {
      "icao": "LTFM",
      "alert": "OK",
      "vis_m": 9999,
      "fzfg": false,
      "metar_trigger": false,
      "taf_trigger": false,
      "metar": "METAR LTFM 241820Z 34009KT 9999 SCT035 BKN090 17/14 Q1021 NOSIG RMK RWY17L 32006KT RWY34L 32008KT RWY16R 32005KT RWY36 34009KT RWY18 33007KT",
      "taf": "TAF LTFM 241640Z 2418/2524 34010KT 9999 SCT035 BKN090"
    },
    {
      "icao": "LUKK",
      "alert": "OK",
      "vis_m": 9999,
      "fzfg": false,
      "metar_trigger": false,
      "taf_trigger": false,
      "metar": "METAR LUKK 241830Z 32008KT CAVOK 19/07 Q1021 NOSIG",
      "taf": "TAF LUKK 241708Z 2418/2518 34008KT CAVOK"
    },
    {
      "icao": "LWOH",
      "alert": "OK",
      "vis_m": null,
      "fzfg": false,
      "metar_trigger": false,
      "taf_trigger": false,
      "metar": "",
      "taf": "TAF LWOH 241705Z 2418/2518 34006KT 9999 FEW050 SCT100"
    },
    {
      "icao": "LWSK",
      "alert": "OK",
      "vis_m": null,
      "fzfg": false,
      "metar_trigger": false,
      "taf_trigger": false,
      "metar": "",
      "taf": "TAF LWSK 241705Z 2418/2518 02006KT 9999 FEW050 SCT100"
    },
    {
      "icao": "LYBE",
      "alert": "OK",
      "vis_m": 9999,
      "fzfg": false,
      "metar_trigger": false,
      "taf_trigger": false,
      "metar": "METAR LYBE 241830Z 32005KT CAVOK 21/09 Q1024 NOSIG",
      "taf": "TAF LYBE 241700Z 2418/2518 30006KT CAVOK TX30/2513Z TN13/2504Z"
    },
    {
      "icao": "LYNI",
      "alert": "OK",
      "vis_m": 9999,
      "fzfg": false,
      "metar_trigger": false,
      "taf_trigger": false,
      "metar": "METAR LYNI 241830Z 11004KT CAVOK 19/17 Q1024 NOSIG",
      "taf": "TAF LYNI 241700Z 2418/2518 28004KT 9999 SCT060 TX27/2513Z TN13/2504Z"
    },
    {
      "icao": "LYPG",
      "alert": "OK",
      "vis_m": 9999,
      "fzfg": false,
      "metar_trigger": false,
      "taf_trigger": false,
      "metar": "METAR LYPG 241830Z VRB01KT 9999 FEW090 25/13 Q1021 NOSIG",
      "taf": "TAF LYPG 241700Z 2418/2518 32008KT 9999 FEW040 TX30/2514Z TN21/2504Z"
    },
    {
      "icao": "LZIB",
      "alert": "OK",
      "vis_m": 9999,
      "fzfg": false,
      "metar_trigger": false,
      "taf_trigger": false,
      "metar": "METAR LZIB 241830Z 34003KT 300V010 CAVOK 26/13 Q1025 NOSIG",
      "taf": "TAF LZIB 241715Z 2418/2518 36009KT CAVOK"
    },
    {
      "icao": "LZKZ",
      "alert": "OK",
      "vis_m": 9999,
      "fzfg": false,
      "metar_trigger": false,
      "taf_trigger": false,
      "metar": "METAR LZKZ 241830Z 36007KT CAVOK 24/11 Q1024 NOSIG",
      "taf": "TAF LZKZ 241715Z 2418/2518 01009KT CAVOK"
    },
    {
      "icao": "LZTT",
      "alert": "OK",
      "vis_m": 9999,
      "fzfg": false,
      "metar_trigger": false,
      "taf_trigger": false,
      "metar": "METAR LZTT 241830Z VRB02KT 9999 FEW063 18/09 Q1027",
      "taf": "TAF LZTT 241715Z 2418/2518 06006KT CAVOK"
    },
    {
      "icao": "OEJN",
      "alert": "OK",
      "vis_m": 9999,
      "fzfg": false,
      "metar_trigger": false,
      "taf_trigger": false,
      "metar": "METAR OEJN 241800Z 34010KT CAVOK 30/18 Q1009 NOSIG",
      "taf": "TAF OEJN 241700Z 2418/2524 36008KT CAVOK"
    },
    {
      "icao": "OEMA",
      "alert": "OK",
      "vis_m": 9999,
      "fzfg": false,
      "metar_trigger": false,
      "taf_trigger": false,
      "metar": "METAR OEMA 241800Z 27010KT 9999 FEW045 39/M01 Q1013 NOSIG",
      "taf": "TAF OEMA 241700Z 2418/2524 30006KT 7000 NSC"
    },
    {
      "icao": "OJAI",
      "alert": "OK",
      "vis_m": 5000,
      "fzfg": false,
      "metar_trigger": false,
      "taf_trigger": false,
      "metar": "METAR OJAI 241800Z 27006KT 5000 HZ NSC 19/06 Q1020 NOSIG",
      "taf": "TAF OJAI 241700Z 2418/2524 28012KT 5000 HZ FEW035"
    },
    {
      "icao": "OMAA",
      "alert": "OK",
      "vis_m": 9999,
      "fzfg": false,
      "metar_trigger": false,
      "taf_trigger": false,
      "metar": "METAR OMAA 241830Z 02004KT 340V110 CAVOK 30/23 Q1007 NOSIG",
      "taf": "TAF OMAA 241700Z 2418/2600 VRB02KT 8000 NSC"
    },
    {
      "icao": "OMDB",
      "alert": "OK",
      "vis_m": 9999,
      "fzfg": false,
      "metar_trigger": false,
      "taf_trigger": false,
      "metar": "METAR OMDB 241830Z 33005KT 280V030 CAVOK 33/25 Q1007 NOSIG",
      "taf": "TAF OMDB 241700Z 2418/2600 05005KT 8000 NSC"
    },
    {
      "icao": "UAAA",
      "alert": "OK",
      "vis_m": 9999,
      "fzfg": false,
      "metar_trigger": false,
      "taf_trigger": false,
      "metar": "METAR UAAA 241830Z 29002MPS 230V020 9999 SCT100 11/07 Q1019 NOSIG",
      "taf": "TAF UAAA 241702Z 2418/2518 21003MPS 9999 FEW050CB SCT100 TX25/2510Z TN08/2500Z"
    },
    {
      "icao": "UBBB",
      "alert": "OK",
      "vis_m": 9999,
      "fzfg": false,
      "metar_trigger": false,
      "taf_trigger": false,
      "metar": "METAR UBBB 241830Z 12008KT 9999 -SHRA SCT040CB SCT040 20/18 Q1010 NOSIG",
      "taf": "TAF UBBB 241703Z 2418/2518 VRB04KT 9999 SCT010 FEW030CB BKN030 TX22/2510Z TN16/2501Z"
    },
    {
      "icao": "UDSG",
      "alert": "OK",
      "vis_m": 9999,
      "fzfg": false,
      "metar_trigger": false,
      "taf_trigger": false,
      "metar": "METAR UDSG 241830Z 22006KT 9999 SCT040CB 08/07 Q1017 NOSIG",
      "taf": "TAF UDSG 241700Z 2418/2518 24006KT 9999 SCT040"
    },
    {
      "icao": "UDYZ",
      "alert": "OK",
      "vis_m": 9999,
      "fzfg": false,
      "metar_trigger": false,
      "taf_trigger": false,
      "metar": "METAR UDYZ 241830Z 02005KT 9999 BKN043CB 11/10 Q1015 NOSIG",
      "taf": "TAF UDYZ 241700Z 2418/2518 04006KT 9999 BKN040"
    },
    {
      "icao": "UGKO",
      "alert": "OK",
      "vis_m": 4000,
      "fzfg": false,
      "metar_trigger": false,
      "taf_trigger": false,
      "metar": "METAR UGKO 241830Z 22005KT 4000 SHRA BKN023CB OVC054 15/15 Q1014 NOSIG",
      "taf": "TAF UGKO 241700Z 2418/2518 27010KT 9999 -RA SCT020 BKN040 TX19/2512Z TN14/2502Z"
    }
  ]
}