{
  "ts_utc": "2026-01-19T14:40:00Z",
  "threshold_m": 150,
  "source": "stations_override.txt (ICAO list) + aviationweather.gov (METAR/TAF raw)",
  "station_count": 159,
  "stations": [
    {
      "icao": "BIKF",
      "alert": "OK",
      "vis_m": 9999,
      "fzfg": false,
      "metar_trigger": false,
      "taf_trigger": false,
      "metar": "METAR BIKF 191430Z 09019KT 9999 VCSH FEW012TCU BKN030 03/M00 Q0992",
      "taf": "TAF BIKF 191322Z 1915/2015 12018G30KT 9999 -SHRA SCT030 TX06/2009Z TN03/1915Z"
    },
    {
      "icao": "BKPR",
      "alert": "OK",
      "vis_m": 9999,
      "fzfg": false,
      "metar_trigger": false,
      "taf_trigger": false,
      "metar": "METAR BKPR 191430Z 36012KT CAVOK 01/M06 Q1030 NOSIG",
      "taf": "TAF BKPR 191130Z 1912/2012 03010KT CAVOK"
    },
    {
      "icao": "EBCI",
      "alert": "OK",
      "vis_m": 9999,
      "fzfg": false,
      "metar_trigger": false,
      "taf_trigger": false,
      "metar": "METAR EBCI 191420Z 19004KT 140V220 CAVOK 09/04 Q1018 NOSIG",
      "taf": "TAF EBCI 191110Z 1912/2018 17007KT CAVOK"
    },
    {
      "icao": "EDDB",
      "alert": "OK",
      "vis_m": 9999,
      "fzfg": false,
      "metar_trigger": false,
      "taf_trigger": false,
      "metar": "METAR EDDB 191420Z AUTO 12009KT CAVOK 05/M05 Q1024 NOSIG",
      "taf": "TAF EDDB 191100Z 1912/2012 13011KT CAVOK"
    },
    {
      "icao": "EDDH",
      "alert": "OK",
      "vis_m": 9999,
      "fzfg": false,
      "metar_trigger": false,
      "taf_trigger": false,
      "metar": "METAR EDDH 191420Z AUTO 13008KT 110V180 CAVOK 03/M04 Q1021 NOSIG",
      "taf": "TAF EDDH 191100Z 1912/2018 13009KT CAVOK"
    },
    {
      "icao": "EDDK",
      "alert": "OK",
      "vis_m": 9999,
      "fzfg": false,
      "metar_trigger": false,
      "taf_trigger": false,
      "metar": "METAR EDDK 191420Z AUTO 12006KT 080V150 9999 OVC010 02/M00 Q1020 BECMG SCT010",
      "taf": "TAF EDDK 191100Z 1912/2018 12007KT 9999 OVC012"
    },
    {
      "icao": "EDDN",
      "alert": "OK",
      "vis_m": 9999,
      "fzfg": false,
      "metar_trigger": false,
      "taf_trigger": false,
      "metar": "METAR EDDN 191420Z AUTO 12013KT CAVOK 07/M07 Q1020 NOSIG",
      "taf": "TAF EDDN 191100Z 1912/2012 11008KT CAVOK"
    },
    {
      "icao": "EDDS",
      "alert": "OK",
      "vis_m": 9999,
      "fzfg": false,
      "metar_trigger": false,
      "taf_trigger": false,
      "metar": "METAR EDDS 191420Z AUTO VRB01KT CAVOK 06/M00 Q1018 NOSIG",
      "taf": "TAF EDDS 191100Z 1912/2012 VRB03KT CAVOK"
    },
    {
      "icao": "EDFH",
      "alert": "OK",
      "vis_m": 500,
      "fzfg": true,
      "metar_trigger": false,
      "taf_trigger": false,
      "metar": "METAR EDFH 191420Z 13005KT 090V150 0500 R21/0550D FZFG OVC001 M00/M01 Q1018",
      "taf": "TAF EDFH 191100Z 1912/2012 15006KT 0500 FZFG OVC001"
    },
    {
      "icao": "EDJA",
      "alert": "OK",
      "vis_m": 9999,
      "fzfg": false,
      "metar_trigger": false,
      "taf_trigger": false,
      "metar": "METAR EDJA 191420Z 01004KT CAVOK 04/02 Q1018",
      "taf": "TAF EDJA 191400Z 1915/1924 05004KT CAVOK"
    },
    {
      "icao": "EDLW",
      "alert": "OK",
      "vis_m": 9999,
      "fzfg": false,
      "metar_trigger": false,
      "taf_trigger": false,
      "metar": "METAR EDLW 191420Z 22009KT CAVOK 04/M01 Q1019",
      "taf": "TAF EDLW 191100Z 1912/2012 14004KT CAVOK"
    },
    {
      "icao": "EDNY",
      "alert": "OK",
      "vis_m": 9999,
      "fzfg": false,
      "metar_trigger": false,
      "taf_trigger": false,
      "metar": "METAR EDNY 191420Z 23005KT 200V260 CAVOK 01/M01 Q1019",
      "taf": "TAF EDNY 191400Z 1915/1924 04003KT CAVOK"
    },
    {
      "icao": "EDSB",
      "alert": "OK",
      "vis_m": 6000,
      "fzfg": false,
      "metar_trigger": false,
      "taf_trigger": false,
      "metar": "METAR EDSB 191420Z VRB02KT 6000 OVC007 02/00 Q1020",
      "taf": "TAF EDSB 191100Z 1912/2012 VRB03KT 6000 OVC006"
    },
    {
      "icao": "EETN",
      "alert": "OK",
      "vis_m": 2500,
      "fzfg": false,
      "metar_trigger": false,
      "taf_trigger": false,
      "metar": "METAR EETN 191420Z 19003KT 2500 BR OVC003 M06/M07 Q1033 TEMPO 1500",
      "taf": "TAF EETN 191130Z 1912/2012 VRB02KT 7000 OVC005"
    },
    {
      "icao": "EFTU",
      "alert": "OK",
      "vis_m": 9999,
      "fzfg": false,
      "metar_trigger": false,
      "taf_trigger": false,
      "metar": "METAR EFTU 191420Z AUTO 14005KT 9999 OVC010 M01/M03 Q1031",
      "taf": "TAF EFTU 191136Z 1912/2012 16005KT 9999 BKN008"
    },
    {
      "icao": "EGBB",
      "alert": "OK",
      "vis_m": 4000,
      "fzfg": false,
      "metar_trigger": false,
      "taf_trigger": false,
      "metar": "METAR EGBB 191420Z 15005KT 4000 -RADZ OVC004 09/08 Q1012 REDZ",
      "taf": "TAF EGBB 191056Z 1912/2012 15005KT 2000 BR BKN003"
    },
    {
      "icao": "EGGP",
      "alert": "OK",
      "vis_m": 9999,
      "fzfg": false,
      "metar_trigger": false,
      "taf_trigger": false,
      "metar": "METAR EGGP 191420Z 17007KT 140V200 9999 BKN010 06/05 Q1011",
      "taf": "TAF EGGP 191055Z 1912/2012 14006KT 9999 FEW008 BKN015"
    },
    {
      "icao": "EGGW",
      "alert": "OK",
      "vis_m": 4000,
      "fzfg": false,
      "metar_trigger": false,
      "taf_trigger": false,
      "metar": "METAR EGGW 191420Z AUTO 15008KT 4000 BR OVC004 09/08 Q1013",
      "taf": "TAF EGGW 191052Z 1912/2012 16010KT 9999 SCT010 BKN020"
    },
    {
      "icao": "EGKK",
      "alert": "OK",
      "vis_m": 9999,
      "fzfg": false,
      "metar_trigger": false,
      "taf_trigger": false,
      "metar": "METAR EGKK 191420Z 17007KT 9999 FEW013 10/09 Q1013",
      "taf": "TAF EGKK 191056Z 1912/2018 14007KT 9999 SCT010"
    },
    {
      "icao": "EGNM",
      "alert": "OK",
      "vis_m": 100,
      "fzfg": false,
      "metar_trigger": false,
      "taf_trigger": false,
      "metar": "METAR EGNM 191420Z 14004KT 0100 R32/0175N FG VV/// 06/06 Q1012",
      "taf": "TAF EGNM 191103Z 1912/2012 14005KT 0300 FG VV///"
    },
    {
      "icao": "EGPD",
      "alert": "OK",
      "vis_m": 9999,
      "fzfg": false,
      "metar_trigger": false,
      "taf_trigger": false,
      "metar": "METAR EGPD 191420Z 17003KT 9999 FEW010 BKN019 07/05 Q1012 TEMPO BKN008",
      "taf": ""
    },
    {
      "icao": "EGPF",
      "alert": "OK",
      "vis_m": 9999,
      "fzfg": false,
      "metar_trigger": false,
      "taf_trigger": false,
      "metar": "METAR EGPF 191420Z AUTO 08005KT 9999 NCD 07/04 Q1011",
      "taf": "TAF EGPF 191101Z 1912/2012 07006KT 9999 FEW015 SCT030"
    },
    {
      "icao": "EHBK",
      "alert": "OK",
      "vis_m": 9999,
      "fzfg": false,
      "metar_trigger": false,
      "taf_trigger": false,
      "metar": "METAR EHBK 191425Z AUTO 11005KT 9999 NSC 07/02 Q1018 NOSIG",
      "taf": "TAF EHBK 191106Z 1912/2018 12006KT CAVOK"
    },
    {
      "icao": "EHEH",
      "alert": "OK",
      "vis_m": 9999,
      "fzfg": false,
      "metar_trigger": false,
      "taf_trigger": false,
      "metar": "METAR EHEH 191425Z AUTO 13005KT 100V190 9999 OVC100 05/02 Q1018 BLU NOSIG RMK TREND REMOTE BY EHWX",
      "taf": "TAF EHEH 191124Z 1912/2018 16005KT CAVOK"
    },
    {
      "icao": "EKBI",
      "alert": "OK",
      "vis_m": 9999,
      "fzfg": false,
      "metar_trigger": false,
      "taf_trigger": false,
      "metar": "METAR EKBI 191420Z AUTO 10007KT 070V130 9999 NCD 01/M02 Q1022",
      "taf": "TAF EKBI 191427Z 1915/2015 12008KT CAVOK"
    },
    {
      "icao": "EKCH",
      "alert": "OK",
      "vis_m": 9999,
      "fzfg": false,
      "metar_trigger": false,
      "taf_trigger": false,
      "metar": "METAR EKCH 191420Z AUTO 12014KT 9999 NCD 02/M01 Q1025 NOSIG",
      "taf": "TAF EKCH 191427Z 1915/2015 11015KT CAVOK"
    },
    {
      "icao": "ENAL",
      "alert": "OK",
      "vis_m": 9999,
      "fzfg": false,
      "metar_trigger": false,
      "taf_trigger": false,
      "metar": "METAR ENAL 191420Z 15003KT 9999 BKN049 04/04 Q1021",
      "taf": "TAF ENAL 191400Z 1915/1924 VRB05KT 9999 -RA FEW010 BKN040"
    },
    {
      "icao": "ENBR",
      "alert": "OK",
      "vis_m": 9999,
      "fzfg": false,
      "metar_trigger": false,
      "taf_trigger": false,
      "metar": "METAR ENBR 191420Z 10002KT 9999 FEW011 BKN034 04/03 Q1021 TEMPO RA RMK WIND 1200FT 15004KT",
      "taf": "TAF ENBR 191100Z 1912/2012 12005KT 9999 FEW010 BKN050"
    },
    {
      "icao": "ENGM",
      "alert": "OK",
      "vis_m": 9999,
      "fzfg": false,
      "metar_trigger": false,
      "taf_trigger": false,
      "metar": "METAR ENGM 191420Z 15004KT 9999 FEW005 BKN022 M01/M02 Q1026 TEMPO BKN014",
      "taf": "TAF ENGM 191100Z 1912/2012 14005KT 9999 -SN FEW008 BKN020"
    },
    {
      "icao": "ENHD",
      "alert": "OK",
      "vis_m": 9999,
      "fzfg": false,
      "metar_trigger": false,
      "taf_trigger": false,
      "metar": "METAR ENHD 191420Z 18008KT CAVOK 04/01 Q1020",
      "taf": "TAF ENHD 191400Z 1915/1923 16008KT 9999 FEW050"
    },
    {
      "icao": "ENTC",
      "alert": "OK",
      "vis_m": 9999,
      "fzfg": false,
      "metar_trigger": false,
      "taf_trigger": false,
      "metar": "METAR ENTC 191350Z VRB01KT 9999 FEW005 M02/M03 Q1027 NOSIG RMK WIND 2600FT 10004KT",
      "taf": "TAF ENTC 191100Z 1912/2012 VRB05KT 9999 FEW005"
    },
    {
      "icao": "ENTO",
      "alert": "OK",
      "vis_m": 9999,
      "fzfg": false,
      "metar_trigger": false,
      "taf_trigger": false,
      "metar": "METAR ENTO 191420Z VRB02KT 9999 BKN026 00/00 Q1026 TEMPO BKN012",
      "taf": "TAF ENTO 191100Z 1912/2012 11005KT 9999 BKN018"
    },
    {
      "icao": "ENVA",
      "alert": "OK",
      "vis_m": 9999,
      "fzfg": false,
      "metar_trigger": false,
      "taf_trigger": false,
      "metar": "METAR ENVA 191420Z 10003KT 070V130 CAVOK 04/M02 Q1022 NOSIG RMK WIND 670FT 15009KT",
      "taf": "TAF ENVA 191100Z 1912/2012 09005KT CAVOK"
    },
    {
      "icao": "ENZV",
      "alert": "OK",
      "vis_m": 9999,
      "fzfg": false,
      "metar_trigger": false,
      "taf_trigger": false,
      "metar": "METAR ENZV 191420Z 00000KT CAVOK 04/00 Q1021 NOSIG",
      "taf": "TAF ENZV 191100Z 1912/2012 12005KT CAVOK"
    },
    {
      "icao": "EPGD",
      "alert": "OK",
      "vis_m": 8000,
      "fzfg": false,
      "metar_trigger": false,
      "taf_trigger": false,
      "metar": "METAR EPGD 191430Z 15005KT 8000 NSC M07/M09 Q1030",
      "taf": "TAF EPGD 191130Z 1912/2012 16006KT CAVOK"
    },
    {
      "icao": "EPKK",
      "alert": "OK",
      "vis_m": 6000,
      "fzfg": false,
      "metar_trigger": false,
      "taf_trigger": false,
      "metar": "METAR EPKK 191430Z 09002KT 6000 NSC M03/M10 Q1033",
      "taf": "TAF EPKK 191430Z 1915/2015 07003KT 6000 NSC"
    },
    {
      "icao": "EPKT",
      "alert": "OK",
      "vis_m": 9999,
      "fzfg": false,
      "metar_trigger": false,
      "taf_trigger": false,
      "metar": "METAR EPKT 191430Z 20006KT CAVOK 00/M06 Q1032",
      "taf": "TAF EPKT 191130Z 1912/2012 18006KT CAVOK"
    },
    {
      "icao": "EPLB",
      "alert": "OK",
      "vis_m": 9999,
      "fzfg": false,
      "metar_trigger": false,
      "taf_trigger": false,
      "metar": "METAR EPLB 191430Z 09006KT CAVOK M09/M12 Q1035",
      "taf": "TAF EPLB 191130Z 1912/2012 11007KT 8000 NSC"
    },
    {
      "icao": "EPMO",
      "alert": "OK",
      "vis_m": 8000,
      "fzfg": false,
      "metar_trigger": false,
      "taf_trigger": false,
      "metar": "METAR EPMO 191430Z 11005KT 090V150 8000 NSC M07/M10 Q1034",
      "taf": "TAF EPMO 191130Z 1912/2012 10006KT 7000 NSC"
    },
    {
      "icao": "EPPO",
      "alert": "OK",
      "vis_m": 9999,
      "fzfg": false,
      "metar_trigger": false,
      "taf_trigger": false,
      "metar": "METAR EPPO 191430Z 12010KT CAVOK 02/M05 Q1029",
      "taf": "TAF EPPO 191130Z 1912/2012 11010KT CAVOK"
    },
    {
      "icao": "EPRA",
      "alert": "OK",
      "vis_m": 9999,
      "fzfg": false,
      "metar_trigger": false,
      "taf_trigger": false,
      "metar": "METAR EPRA 191430Z 14006KT CAVOK M06/M12 Q1034",
      "taf": "TAF EPRA 191430Z 1915/1924 14008KT CAVOK"
    },
    {
      "icao": "EPRZ",
      "alert": "OK",
      "vis_m": 8000,
      "fzfg": false,
      "metar_trigger": false,
      "taf_trigger": false,
      "metar": "METAR EPRZ 191430Z 08010KT 8000 NSC M07/M12 Q1034",
      "taf": "TAF EPRZ 191130Z 1912/2012 08008KT CAVOK"
    },
    {
      "icao": "EPSC",
      "alert": "OK",
      "vis_m": 9999,
      "fzfg": false,
      "metar_trigger": false,
      "taf_trigger": false,
      "metar": "METAR EPSC 191430Z 13011KT CAVOK 02/M06 Q1026",
      "taf": "TAF EPSC 191130Z 1912/2012 14012KT CAVOK"
    },
    {
      "icao": "EPSY",
      "alert": "OK",
      "vis_m": 9999,
      "fzfg": false,
      "metar_trigger": false,
      "taf_trigger": false,
      "metar": "METAR EPSY 191430Z 16004KT CAVOK M10/M13 Q1034",
      "taf": "TAF EPSY 191430Z 1915/1924 15006KT CAVOK"
    },
    {
      "icao": "EPWA",
      "alert": "OK",
      "vis_m": 9999,
      "fzfg": false,
      "metar_trigger": false,
      "taf_trigger": false,
      "metar": "METAR EPWA 191430Z 12006KT CAVOK M07/M11 Q1034 NOSIG",
      "taf": "TAF EPWA 191430Z 1915/2015 13005KT CAVOK"
    },
    {
      "icao": "EPWR",
      "alert": "OK",
      "vis_m": 9999,
      "fzfg": false,
      "metar_trigger": false,
      "taf_trigger": false,
      "metar": "METAR EPWR 191430Z 14008KT CAVOK 03/M03 Q1029",
      "taf": "TAF EPWR 191430Z 1915/2015 13010KT CAVOK"
    },
    {
      "icao": "ESGG",
      "alert": "OK",
      "vis_m": 9999,
      "fzfg": false,
      "metar_trigger": false,
      "taf_trigger": false,
      "metar": "METAR ESGG 191420Z 10006KT CAVOK M01/M03 Q1025",
      "taf": "TAF ESGG 191430Z 1915/2015 10006KT 9999 FEW007"
    },
    {
      "icao": "ESKN",
      "alert": "OK",
      "vis_m": 9000,
      "fzfg": false,
      "metar_trigger": false,
      "taf_trigger": false,
      "metar": "METAR ESKN 191420Z 15005KT 9000 BKN008 01/M00 Q1029",
      "taf": "TAF ESKN 191430Z 1915/2015 16005KT 9999 BKN007"
    },
    {
      "icao": "ESMS",
      "alert": "OK",
      "vis_m": 9999,
      "fzfg": false,
      "metar_trigger": false,
      "taf_trigger": false,
      "metar": "METAR ESMS 191420Z 11009KT CAVOK 01/M01 Q1025",
      "taf": "TAF ESMS 191427Z 1915/2015 11010KT CAVOK"
    },
    {
      "icao": "ESSA",
      "alert": "OK",
      "vis_m": 9999,
      "fzfg": false,
      "metar_trigger": false,
      "taf_trigger": false,
      "metar": "METAR ESSA 191420Z 19006KT 9999 BKN010 00/M02 Q1029 TEMPO BKN009",
      "taf": "TAF ESSA 191430Z 1915/2015 16007KT 9999 OVC007"
    },
    {
      "icao": "EYKA",
      "alert": "OK",
      "vis_m": 9999,
      "fzfg": false,
      "metar_trigger": false,
      "taf_trigger": false,
      "metar": "METAR EYKA 191420Z 15003KT CAVOK M10/M14 Q1035",
      "taf": "TAF EYKA 191100Z 1912/2012 VRB04KT 9000 NSC"
    },
    {
      "icao": "EYPA",
      "alert": "OK",
      "vis_m": 9999,
      "fzfg": false,
      "metar_trigger": false,
      "taf_trigger": false,
      "metar": "METAR EYPA 191420Z 16007KT CAVOK M07/M12 Q1033",
      "taf": "TAF EYPA 191100Z 1912/2012 16010KT 9000 NSC"
    },
    {
      "icao": "EYVI",
      "alert": "OK",
      "vis_m": 9999,
      "fzfg": false,
      "metar_trigger": false,
      "taf_trigger": false,
      "metar": "METAR EYVI 191420Z COR 16006KT CAVOK M11/M14 Q1035 NOSIG",
      "taf": "TAF EYVI 191100Z 1912/2012 18008KT 9000 NSC"
    },
    {
      "icao": "GCFV",
      "alert": "OK",
      "vis_m": 9999,
      "fzfg": false,
      "metar_trigger": false,
      "taf_trigger": false,
      "metar": "METAR GCFV 191430Z 01020KT 9999 FEW030 19/10 Q1021",
      "taf": "TAF GCFV 191400Z 1915/2015 02020KT 9999 SCT035 TX21/2014Z TN14/2006Z"
    },
    {
      "icao": "GCLP",
      "alert": "OK",
      "vis_m": 9999,
      "fzfg": false,
      "metar_trigger": false,
      "taf_trigger": false,
      "metar": "METAR GCLP 191430Z 02023KT 350V050 9999 FEW040 20/08 Q1022 NOSIG",
      "taf": "TAF GCLP 191400Z 1915/2015 02023KT 9999 BKN035 TX20/2014Z TN16/2006Z"
    },
    {
      "icao": "GCTS",
      "alert": "OK",
      "vis_m": 9999,
      "fzfg": false,
      "metar_trigger": false,
      "taf_trigger": false,
      "metar": "METAR GCTS 191430Z 09022G33KT 060V120 9999 SCT040 20/09 Q1022 NOSIG",
      "taf": "TAF GCTS 191400Z 1915/2015 08020KT 9999 SCT040 TX22/2014Z TN14/2006Z"
    },
    {
      "icao": "GMAD",
      "alert": "OK",
      "vis_m": 9999,
      "fzfg": false,
      "metar_trigger": false,
      "taf_trigger": false,
      "metar": "METAR GMAD 191430Z 05007KT 360V080 CAVOK 18/07 Q1016 NOSIG",
      "taf": "TAF GMAD 191100Z 1912/2018 28013KT 8000 FEW020"
    },
    {
      "icao": "GMMN",
      "alert": "OK",
      "vis_m": 9999,
      "fzfg": false,
      "metar_trigger": false,
      "taf_trigger": false,
      "metar": "METAR GMMN 191430Z 32008KT 9999 BKN020 13/09 Q1020 NOSIG",
      "taf": "TAF GMMN 191100Z 1912/2018 30010KT 9999 BKN020"
    },
    {
      "icao": "GMMX",
      "alert": "OK",
      "vis_m": 8000,
      "fzfg": false,
      "metar_trigger": false,
      "taf_trigger": false,
      "metar": "METAR GMMX 191430Z VRB04KT 8000 BKN020 12/06 Q1020 NOSIG",
      "taf": "TAF GMMX 191100Z 1912/2018 06006KT 8000 BKN023 SCT080"
    },
    {
      "icao": "HEGN",
      "alert": "OK",
      "vis_m": 9999,
      "fzfg": false,
      "metar_trigger": false,
      "taf_trigger": false,
      "metar": "METAR HEGN 191400Z 01012KT CAVOK 21/07 Q1016 NOSIG",
      "taf": "TAF HEGN 191100Z 1912/2018 35015KT CAVOK"
    },
    {
      "icao": "HEMA",
      "alert": "OK",
      "vis_m": 9999,
      "fzfg": false,
      "metar_trigger": false,
      "taf_trigger": false,
      "metar": "METAR HEMA 191400Z 02010KT CAVOK 20/10 Q1016 NOSIG",
      "taf": "TAF HEMA 191100Z 1912/2018 36015KT CAVOK"
    },
    {
      "icao": "HESH",
      "alert": "OK",
      "vis_m": 9999,
      "fzfg": false,
      "metar_trigger": false,
      "taf_trigger": false,
      "metar": "METAR HESH 191400Z 02011KT CAVOK 21/09 Q1016 NOSIG",
      "taf": "TAF HESH 191100Z 1912/2018 01012KT CAVOK"
    },
    {
      "icao": "HESX",
      "alert": "OK",
      "vis_m": 9999,
      "fzfg": false,
      "metar_trigger": false,
      "taf_trigger": false,
      "metar": "METAR HESX 191400Z 29007KT CAVOK 17/04 Q1017 NOSIG",
      "taf": "TAF HESX 191100Z 1912/2018 28008KT CAVOK"
    },
    {
      "icao": "LATI",
      "alert": "OK",
      "vis_m": 9999,
      "fzfg": false,
      "metar_trigger": false,
      "taf_trigger": false,
      "metar": "METAR LATI 191420Z VRB02KT CAVOK 13/M09 Q1025 NOSIG",
      "taf": "TAF LATI 191100Z 1912/2012 VRB05KT CAVOK TX13/1912Z TNM04/2005Z"
    },
    {
      "icao": "LBPD",
      "alert": "OK",
      "vis_m": 9999,
      "fzfg": false,
      "metar_trigger": false,
      "taf_trigger": false,
      "metar": "METAR LBPD 191430Z AUTO 28005KT 9999 NCD 00/M08 Q1035 NOSIG",
      "taf": "TAF LBPD 191100Z 1912/2012 09008KT 9999 SCT030"
    },
    {
      "icao": "LBSF",
      "alert": "OK",
      "vis_m": 9999,
      "fzfg": false,
      "metar_trigger": false,
      "taf_trigger": false,
      "metar": "METAR LBSF 191430Z 11006KT 070V130 CAVOK M01/M08 Q1033 NOSIG",
      "taf": "TAF LBSF 191100Z 1912/2012 05008KT 9999 SCT020"
    },
    {
      "icao": "LBWN",
      "alert": "OK",
      "vis_m": 9999,
      "fzfg": false,
      "metar_trigger": false,
      "taf_trigger": false,
      "metar": "METAR LBWN 191430Z 28008KT 260V320 9999 BKN013 OVC048 M04/M06 Q1036 NOSIG",
      "taf": "TAF LBWN 191100Z 1912/2012 32012KT 9999 SCT020 BKN040"
    },
    {
      "icao": "LCLK",
      "alert": "OK",
      "vis_m": 9999,
      "fzfg": false,
      "metar_trigger": false,
      "taf_trigger": false,
      "metar": "METAR LCLK 191430Z 34012KT 330V050 9999 FEW020 SCT050 10/00 Q1022 NOSIG",
      "taf": "TAF LCLK 191130Z 1912/2012 04016KT 9999 FEW025 SCT050"
    },
    {
      "icao": "LCPH",
      "alert": "OK",
      "vis_m": 9999,
      "fzfg": false,
      "metar_trigger": false,
      "taf_trigger": false,
      "metar": "METAR LCPH 191430Z 00000KT 9999 SCT044 SCT055 12/02 Q1021 NOSIG",
      "taf": "TAF LCPH 191130Z 1912/2012 18010KT 9999 FEW030 SCT050"
    },
    {
      "icao": "LEAL",
      "alert": "OK",
      "vis_m": 9999,
      "fzfg": false,
      "metar_trigger": false,
      "taf_trigger": false,
      "metar": "METAR LEAL 191430Z 36012KT 320V020 9999 FEW015 BKN055 16/07 Q1012 NOSIG",
      "taf": "TAF LEAL 191100Z 1912/2012 02010KT 9999 FEW035 TX16/1913Z TN10/2006Z"
    },
    {
      "icao": "LEBB",
      "alert": "OK",
      "vis_m": 9999,
      "fzfg": false,
      "metar_trigger": false,
      "taf_trigger": false,
      "metar": "METAR LEBB 191430Z 30008KT 270V330 9999 FEW037 13/05 Q1017 NOSIG",
      "taf": "TAF LEBB 191100Z 1912/2012 VRB03KT 9999 BKN030 TX13/1913Z TN02/2007Z"
    },
    {
      "icao": "LEBL",
      "alert": "OK",
      "vis_m": 9999,
      "fzfg": false,
      "metar_trigger": false,
      "taf_trigger": false,
      "metar": "METAR LEBL 191430Z 02010KT 9999 BKN020 BKN030 BKN050 12/11 Q1013 NOSIG",
      "taf": "TAF LEBL 191100Z 1912/2012 01012KT 9999 SCT020 BKN030 TX15/1912Z TN09/2006Z"
    },
    {
      "icao": "LECH",
      "alert": "OK",
      "vis_m": 9999,
      "fzfg": false,
      "metar_trigger": false,
      "taf_trigger": false,
      "metar": "METAR LECH 191430Z AUTO 03012KT 350V060 9999 FEW037 BKN060 13/05 Q1013",
      "taf": ""
    },
    {
      "icao": "LEMD",
      "alert": "OK",
      "vis_m": 9999,
      "fzfg": false,
      "metar_trigger": false,
      "taf_trigger": false,
      "metar": "METAR LEMD 191430Z 31004KT 9999 FEW044 SCT058 12/01 Q1015 NOSIG",
      "taf": "TAF LEMD 191100Z 1912/2018 VRB03KT 9999 FEW045 TX10/1914Z TNM03/2006Z"
    },
    {
      "icao": "LEMG",
      "alert": "OK",
      "vis_m": 9999,
      "fzfg": false,
      "metar_trigger": false,
      "taf_trigger": false,
      "metar": "METAR LEMG 191430Z 30013G23KT CAVOK 14/03 Q1015 NOSIG",
      "taf": "TAF LEMG 191100Z 1912/2012 29012KT CAVOK TX13/1914Z TN05/2006Z"
    },
    {
      "icao": "LEVC",
      "alert": "OK",
      "vis_m": 9999,
      "fzfg": false,
      "metar_trigger": false,
      "taf_trigger": false,
      "metar": "METAR LEVC 191430Z 08008KT 050V120 9999 FEW030 BKN069 14/08 Q1013 NOSIG",
      "taf": "TAF LEVC 191100Z 1912/2012 30007KT 9999 BKN040 TX17/1913Z TN07/2006Z"
    },
    {
      "icao": "LEXJ",
      "alert": "OK",
      "vis_m": 9999,
      "fzfg": false,
      "metar_trigger": false,
      "taf_trigger": false,
      "metar": "METAR LEXJ 191430Z 28008KT 9999 FEW050 SCT065 12/06 Q1017",
      "taf": "TAF LEXJ 191400Z 1915/2015 22009KT 9999 SCT040 TX13/2014Z TN05/2006Z"
    },
    {
      "icao": "LEZG",
      "alert": "OK",
      "vis_m": 9999,
      "fzfg": false,
      "metar_trigger": false,
      "taf_trigger": false,
      "metar": "METAR LEZG 191430Z 30014KT 9999 OVC030 12/06 Q1015 NOSIG",
      "taf": "TAF LEZG 191100Z 1912/2012 30010KT 9999 SCT030 TX12/1915Z TN03/2006Z"
    },
    {
      "icao": "LEZL",
      "alert": "OK",
      "vis_m": 9999,
      "fzfg": false,
      "metar_trigger": false,
      "taf_trigger": false,
      "metar": "METAR LEZL 191430Z VRB01KT CAVOK 15/04 Q1017 NOSIG",
      "taf": "TAF LEZL 191400Z 1915/2015 36003KT CAVOK TX16/1915Z TN04/2007Z"
    },
    {
      "icao": "LFBD",
      "alert": "OK",
      "vis_m": 9999,
      "fzfg": false,
      "metar_trigger": false,
      "taf_trigger": false,
      "metar": "METAR LFBD 191430Z AUTO VRB02KT 9999 SCT012 BKN021 BKN039 12/10 Q1016 TEMPO 4000 -SHRA BKN030TCU",
      "taf": "TAF LFBD 191100Z 1912/2018 30005KT 1500 BR OVC003 TX13/1914Z TN04/2004Z"
    },
    {
      "icao": "LFLL",
      "alert": "OK",
      "vis_m": 700,
      "fzfg": false,
      "metar_trigger": false,
      "taf_trigger": false,
      "metar": "METAR LFLL 191430Z 04003KT 010V070 0700 R35L/1200N R17R/1000U R35R/1200U R17L/0750N FG OVC001 04/04 Q1018 NOSIG",
      "taf": ""
    },
    {
      "icao": "LFLS",
      "alert": "OK",
      "vis_m": 9999,
      "fzfg": false,
      "metar_trigger": false,
      "taf_trigger": false,
      "metar": "METAR LFLS 191430Z AUTO 26004KT CAVOK 09/05 Q1017 NOSIG",
      "taf": "TAF LFLS 191400Z 1915/2015 09004KT CAVOK"
    },
    {
      "icao": "LFMN",
      "alert": "OK",
      "vis_m": 9999,
      "fzfg": false,
      "metar_trigger": false,
      "taf_trigger": false,
      "metar": "METAR LFMN 191430Z 06012KT 9999 BKN090 16/03 Q1017 NOSIG",
      "taf": "TAF LFMN 191400Z 1915/2021 07025KT 9999 BKN090"
    },
    {
      "icao": "LFOB",
      "alert": "OK",
      "vis_m": 9999,
      "fzfg": false,
      "metar_trigger": false,
      "taf_trigger": false,
      "metar": "METAR LFOB 191430Z AUTO 13005KT CAVOK 09/06 Q1016 NOSIG",
      "taf": "TAF LFOB 191100Z 1912/2012 13008KT CAVOK"
    },
    {
      "icao": "LFPO",
      "alert": "OK",
      "vis_m": 9999,
      "fzfg": false,
      "metar_trigger": false,
      "taf_trigger": false,
      "metar": "METAR LFPO 191430Z 09004KT CAVOK 10/06 Q1017 NOSIG",
      "taf": "TAF LFPO 191100Z 1912/2018 10005KT CAVOK"
    },
    {
      "icao": "LFSB",
      "alert": "OK",
      "vis_m": 9999,
      "fzfg": false,
      "metar_trigger": false,
      "taf_trigger": false,
      "metar": "METAR LFSB 191430Z AUTO 36005KT CAVOK 05/02 Q1018 BECMG 2500 BR OVC004",
      "taf": "TAF LFSB 191100Z 1912/2012 11004KT CAVOK"
    },
    {
      "icao": "LGAV",
      "alert": "OK",
      "vis_m": 9999,
      "fzfg": false,
      "metar_trigger": false,
      "taf_trigger": false,
      "metar": "METAR LGAV 191420Z 36021KT 9999 FEW020 BKN035 06/M02 Q1029 NOSIG",
      "taf": "TAF LGAV 191100Z 1912/2012 02017G27KT 9999 SCT020 BKN040"
    },
    {
      "icao": "LGTS",
      "alert": "OK",
      "vis_m": 9999,
      "fzfg": false,
      "metar_trigger": false,
      "taf_trigger": false,
      "metar": "METAR LGTS 191420Z VRB03KT 9999 FEW020 SCT035 06/M04 Q1033 NOSIG",
      "taf": "TAF LGTS 191100Z 1912/2012 11008KT 9999 FEW015 BKN025"
    },
    {
      "icao": "LHBP",
      "alert": "OK",
      "vis_m": 8000,
      "fzfg": false,
      "metar_trigger": false,
      "taf_trigger": false,
      "metar": "METAR LHBP 191430Z 10006KT 060V120 8000 BKN009 M04/M06 Q1037 TEMPO FM1530 SCT010",
      "taf": "TAF LHBP 191115Z 1912/2012 10005KT 6000 OVC010"
    },
    {
      "icao": "LHDC",
      "alert": "OK",
      "vis_m": 4000,
      "fzfg": false,
      "metar_trigger": false,
      "taf_trigger": false,
      "metar": "METAR LHDC 191415Z AUTO VRB02KT 4000 BR OVC003 M05/M06 Q1038 BECMG 6000 NSW NSC",
      "taf": "TAF LHDC 191415Z 1915/1924 VRB02KT 3000 BR OVC002"
    },
    {
      "icao": "LIBD",
      "alert": "OK",
      "vis_m": 9999,
      "fzfg": false,
      "metar_trigger": false,
      "taf_trigger": false,
      "metar": "METAR LIBD 191420Z 10007KT 9999 BKN035 11/06 Q1023",
      "taf": "TAF LIBD 191100Z 1912/2012 11012KT 9999 SCT040"
    },
    {
      "icao": "LIBG",
      "alert": "OK",
      "vis_m": 9999,
      "fzfg": false,
      "metar_trigger": false,
      "taf_trigger": false,
      "metar": "METAR LIBG 191350Z 11009KT 9999 SCT040 11/10 Q1023",
      "taf": "TAF LIBG 191400Z 1915/1924 12010KT 9999 SCT030"
    },
    {
      "icao": "LIBP",
      "alert": "OK",
      "vis_m": 9999,
      "fzfg": false,
      "metar_trigger": false,
      "taf_trigger": false,
      "metar": "METAR LIBP 191420Z AUTO 12009KT 9999 OVC063/// 11/07 Q1023",
      "taf": "TAF LIBP 191100Z 1912/2012 10010KT 9999 BKN030"
    },
    {
      "icao": "LIBR",
      "alert": "OK",
      "vis_m": 9999,
      "fzfg": false,
      "metar_trigger": false,
      "taf_trigger": false,
      "metar": "METAR LIBR 191420Z 15007KT 120V180 CAVOK 11/03 Q1024",
      "taf": "TAF LIBR 191100Z 1912/2012 16010KT 9999 BKN040"
    },
    {
      "icao": "LICA",
      "alert": "OK",
      "vis_m": 9999,
      "fzfg": false,
      "metar_trigger": false,
      "taf_trigger": false,
      "metar": "METAR LICA 191420Z AUTO 07020KT 9999 -DZRA BKN017/// 13/10 Q1018",
      "taf": "TAF LICA 191100Z 1912/2012 09025G38KT 9999 SCT020 BKN070"
    },
    {
      "icao": "LICC",
      "alert": "OK",
      "vis_m": 6000,
      "fzfg": false,
      "metar_trigger": false,
      "taf_trigger": false,
      "metar": "METAR LICC 191420Z COR 11020KT 6000 BKN020 BKN040 15/13 Q1016",
      "taf": "TAF LICC 191100Z 1912/2012 08025G35KT 9999 BKN020 BKN040"
    },
    {
      "icao": "LICJ",
      "alert": "OK",
      "vis_m": 9999,
      "fzfg": false,
      "metar_trigger": false,
      "taf_trigger": false,
      "metar": "METAR LICJ 191420Z VRB03KT 9999 FEW040 SCT060 18/08 Q1010",
      "taf": "TAF LICJ 191100Z 1912/2012 08020G30KT 9999 SCT040"
    },
    {
      "icao": "LIMC",
      "alert": "OK",
      "vis_m": 9999,
      "fzfg": false,
      "metar_trigger": false,
      "taf_trigger": false,
      "metar": "METAR LIMC 191420Z 14004KT 9999 SCT040 08/02 Q1026 NOSIG",
      "taf": "TAF LIMC 191100Z 1912/2018 VRB05KT 9999 BKN040"
    },
    {
      "icao": "LIME",
      "alert": "OK",
      "vis_m": 9999,
      "fzfg": false,
      "metar_trigger": false,
      "taf_trigger": false,
      "metar": "METAR LIME 191420Z 21004KT 180V250 9999 BKN040 07/01 Q1026 NOSIG",
      "taf": "TAF LIME 191100Z 1912/2012 VRB05KT 9999 BKN045"
    },
    {
      "icao": "LIMF",
      "alert": "OK",
      "vis_m": 9999,
      "fzfg": false,
      "metar_trigger": false,
      "taf_trigger": false,
      "metar": "METAR LIMF 191420Z 23003KT 9999 BKN060 06/01 Q1026",
      "taf": "TAF LIMF 191100Z 1912/2012 VRB06KT 8000 BKN050"
    },
    {
      "icao": "LIMJ",
      "alert": "OK",
      "vis_m": 9999,
      "fzfg": false,
      "metar_trigger": false,
      "taf_trigger": false,
      "metar": "METAR LIMJ 191420Z 35012KT 310V020 CAVOK 11/02 Q1021",
      "taf": "TAF LIMJ 191100Z 1912/2012 02013KT CAVOK"
    },
    {
      "icao": "LIPE",
      "alert": "OK",
      "vis_m": 9999,
      "fzfg": false,
      "metar_trigger": false,
      "taf_trigger": false,
      "metar": "METAR LIPE 191420Z 27006KT 9999 BKN016 BKN027 05/02 Q1026",
      "taf": "TAF LIPE 191100Z 1912/2012 VRB05KT 8000 BKN030"
    },
    {
      "icao": "LIPH",
      "alert": "OK",
      "vis_m": 9999,
      "fzfg": false,
      "metar_trigger": false,
      "taf_trigger": false,
      "metar": "METAR LIPH 191420Z 06009KT CAVOK 07/M05 Q1027",
      "taf": "TAF LIPH 191100Z 1912/2012 05007KT CAVOK"
    },
    {
      "icao": "LIPQ",
      "alert": "OK",
      "vis_m": 9999,
      "fzfg": false,
      "metar_trigger": false,
      "taf_trigger": false,
      "metar": "METAR LIPQ 191420Z AUTO 11011KT 9999 NCD 06/M07 Q1028",
      "taf": "TAF LIPQ 191100Z 1912/2012 08012KT CAVOK"
    },
    {
      "icao": "LIPR",
      "alert": "OK",
      "vis_m": 9999,
      "fzfg": false,
      "metar_trigger": false,
      "taf_trigger": false,
      "metar": "METAR LIPR 191420Z 09010KT 9999 SCT030 BKN070 10/05 Q1024",
      "taf": "TAF LIPR 191100Z 1912/2012 10012KT 9999 BKN030"
    },
    {
      "icao": "LIPX",
      "alert": "OK",
      "vis_m": 9999,
      "fzfg": false,
      "metar_trigger": false,
      "taf_trigger": false,
      "metar": "METAR LIPX 191420Z 11007KT 070V140 9999 FEW070 08/M05 Q1026",
      "taf": "TAF LIPX 191100Z 1912/2012 10012KT 9999 SCT050"
    },
    {
      "icao": "LIPY",
      "alert": "OK",
      "vis_m": 9999,
      "fzfg": false,
      "metar_trigger": false,
      "taf_trigger": false,
      "metar": "METAR LIPY 191420Z AUTO 10009KT 070V130 9999 OVC041/// 12/05 Q1024",
      "taf": "TAF LIPY 191100Z 1912/2012 09012KT 9999 FEW030 SCT070"
    },
    {
      "icao": "LIPZ",
      "alert": "OK",
      "vis_m": 9999,
      "fzfg": false,
      "metar_trigger": false,
      "taf_trigger": false,
      "metar": "METAR LIPZ 191420Z 07009KT CAVOK 07/M03 Q1027",
      "taf": "TAF LIPZ 191100Z 1912/2018 04010KT CAVOK"
    },
    {
      "icao": "LIRF",
      "alert": "OK",
      "vis_m": 9999,
      "fzfg": false,
      "metar_trigger": false,
      "taf_trigger": false,
      "metar": "METAR LIRF 191420Z 11009KT 9999 -DZ FEW045 BKN050 15/06 Q1017 NOSIG",
      "taf": "TAF LIRF 191100Z 1912/2018 06014KT 9999 SCT045"
    },
    {
      "icao": "LIRN",
      "alert": "OK",
      "vis_m": 9999,
      "fzfg": false,
      "metar_trigger": false,
      "taf_trigger": false,
      "metar": "METAR LIRN 191420Z 04011KT 9999 BKN050 11/08 Q1018 NOSIG",
      "taf": "TAF LIRN 191100Z 1912/2012 05012KT 9999 SCT040"
    },
    {
      "icao": "LIRP",
      "alert": "OK",
      "vis_m": 9999,
      "fzfg": false,
      "metar_trigger": false,
      "taf_trigger": false,
      "metar": "METAR LIRP 191415Z 07014KT CAVOK 12/04 Q1020 NOSIG",
      "taf": "TAF LIRP 191100Z 1912/2012 07012KT 9999 SCT080"
    },
    {
      "icao": "LIRZ",
      "alert": "OK",
      "vis_m": 9999,
      "fzfg": false,
      "metar_trigger": false,
      "taf_trigger": false,
      "metar": "METAR LIRZ 191420Z AUTO 06016KT 9999 NCD 11/05 Q1020",
      "taf": "TAF LIRZ 191100Z 1912/2012 04017KT CAVOK"
    },
    {
      "icao": "LJLJ",
      "alert": "OK",
      "vis_m": 9999,
      "fzfg": false,
      "metar_trigger": false,
      "taf_trigger": false,
      "metar": "METAR LJLJ 191430Z 14005KT 9999 SCT025 M01/M06 Q1031 NOSIG",
      "taf": "TAF LJLJ 191100Z 1912/2012 12006KT 9999 BKN020"
    },
    {
      "icao": "LKMT",
      "alert": "OK",
      "vis_m": 9999,
      "fzfg": false,
      "metar_trigger": false,
      "taf_trigger": false,
      "metar": "METAR LKMT 191430Z 25016KT CAVOK M01/M05 Q1032 NOSIG",
      "taf": "TAF LKMT 191100Z 1912/2012 22012KT CAVOK"
    },
    {
      "icao": "LKPR",
      "alert": "OK",
      "vis_m": 9999,
      "fzfg": false,
      "metar_trigger": false,
      "taf_trigger": false,
      "metar": "METAR LKPR 191430Z 12011KT CAVOK 02/M06 Q1025 NOSIG",
      "taf": "TAF LKPR 191400Z 1915/2021 11008KT CAVOK"
    },
    {
      "icao": "LLBG",
      "alert": "OK",
      "vis_m": 9999,
      "fzfg": false,
      "metar_trigger": false,
      "taf_trigger": false,
      "metar": "METAR LLBG 191420Z 35008KT CAVOK 14/04 Q1019 NOSIG RMK SCT072",
      "taf": "TAF LLBG 191104Z 1912/2012 35012KT 9999 SCT040"
    },
    {
      "icao": "LMML",
      "alert": "OK",
      "vis_m": 9000,
      "fzfg": false,
      "metar_trigger": false,
      "taf_trigger": false,
      "metar": "METAR LMML 191415Z 09029G43KT 9000 BKN013 BKN020 16/13 Q1010 NOSIG",
      "taf": "TAF LMML 191100Z 1912/2012 11032G42KT 9000 BKN012 BKN025"
    },
    {
      "icao": "LOWW",
      "alert": "OK",
      "vis_m": 9999,
      "fzfg": false,
      "metar_trigger": false,
      "taf_trigger": false,
      "metar": "METAR LOWW 191420Z 14018KT CAVOK M02/M06 Q1033 NOSIG",
      "taf": "TAF LOWW 191415Z 1915/2021 14013KT 9999 FEW015 TXM02/1915Z TNM08/2006Z"
    },
    {
      "icao": "LPFR",
      "alert": "OK",
      "vis_m": 9999,
      "fzfg": false,
      "metar_trigger": false,
      "taf_trigger": false,
      "metar": "METAR LPFR 191430Z 35012KT CAVOK 16/05 Q1019",
      "taf": ""
    },
    {
      "icao": "LPMA",
      "alert": "OK",
      "vis_m": 9999,
      "fzfg": false,
      "metar_trigger": false,
      "taf_trigger": false,
      "metar": "METAR LPMA 191430Z 02007KT 300V090 9999 FEW015 17/09 Q1026",
      "taf": "TAF LPMA 191100Z 1912/2012 01010KT 9999 SCT015"
    },
    {
      "icao": "LPPR",
      "alert": "OK",
      "vis_m": 9999,
      "fzfg": false,
      "metar_trigger": false,
      "taf_trigger": false,
      "metar": "METAR LPPR 191430Z VRB01KT 9999 FEW008 SCT012 11/09 Q1020",
      "taf": "TAF LPPR 191100Z 1912/2012 VRB05KT 9999 SCT018 BKN030"
    },
    {
      "icao": "LPPS",
      "alert": "OK",
      "vis_m": 9999,
      "fzfg": false,
      "metar_trigger": false,
      "taf_trigger": false,
      "metar": "METAR LPPS 191430Z 36012KT 9999 FEW015 17/11 Q1026",
      "taf": "TAF LPPS 191100Z 1912/2018 02015KT 9999 SCT015 BKN030"
    },
    {
      "icao": "LPPT",
      "alert": "OK",
      "vis_m": 9999,
      "fzfg": false,
      "metar_trigger": false,
      "taf_trigger": false,
      "metar": "METAR LPPT 191430Z 33011KT 290V360 9999 FEW030 14/08 Q1020",
      "taf": "TAF LPPT 191100Z 1912/2018 32010KT 9999 SCT035"
    },
    {
      "icao": "LQBK",
      "alert": "OK",
      "vis_m": 9999,
      "fzfg": false,
      "metar_trigger": false,
      "taf_trigger": false,
      "metar": "METAR LQBK 191430Z 28003KT 9999 OVC017 M03/M05 Q1034 NOSIG",
      "taf": ""
    },
    {
      "icao": "LQSA",
      "alert": "OK",
      "vis_m": 9999,
      "fzfg": false,
      "metar_trigger": false,
      "taf_trigger": false,
      "metar": "METAR LQSA 191430Z VRB02KT CAVOK 01/M05 Q1029 NOSIG",
      "taf": "TAF LQSA 191100Z 1912/2012 VRB02KT 9999 FEW035 TX01/1913Z TNM07/2006Z"
    },
    {
      "icao": "LQTZ",
      "alert": "OK",
      "vis_m": 9999,
      "fzfg": false,
      "metar_trigger": false,
      "taf_trigger": false,
      "metar": "METAR LQTZ 191430Z 13006KT 100V160 9999 FEW020 M01/M05 Q1032",
      "taf": "TAF LQTZ 191100Z 1912/2012 10006KT 9999 SCT025 TX01/1913Z TNM07/2006Z"
    },
    {
      "icao": "LRBC",
      "alert": "OK",
      "vis_m": 9999,
      "fzfg": false,
      "metar_trigger": false,
      "taf_trigger": false,
      "metar": "METAR LRBC 191430Z 03003KT 360V070 CAVOK M03/M09 Q1038",
      "taf": "TAF LRBC 191400Z 1915/1924 VRB04KT CAVOK"
    },
    {
      "icao": "LRBS",
      "alert": "OK",
      "vis_m": 9999,
      "fzfg": false,
      "metar_trigger": false,
      "taf_trigger": false,
      "metar": "METAR LRBS 191430Z 26006KT CAVOK M02/M06 Q1039 NOSIG",
      "taf": "TAF LRBS 191100Z 1912/2012 28007KT 9999 BKN035"
    },
    {
      "icao": "LRBV",
      "alert": "OK",
      "vis_m": 9999,
      "fzfg": false,
      "metar_trigger": false,
      "taf_trigger": false,
      "metar": "METAR LRBV 191430Z 22006KT CAVOK M03/M08 Q1034",
      "taf": "TAF LRBV 191400Z 1915/1924 VRB04KT CAVOK"
    },
    {
      "icao": "LRCL",
      "alert": "OK",
      "vis_m": 9999,
      "fzfg": false,
      "metar_trigger": false,
      "taf_trigger": false,
      "metar": "METAR LRCL 191430Z 05004KT CAVOK M04/M09 Q1036",
      "taf": "TAF LRCL 191400Z 1915/1924 06006KT CAVOK"
    },
    {
      "icao": "LRCV",
      "alert": "OK",
      "vis_m": 8000,
      "fzfg": false,
      "metar_trigger": false,
      "taf_trigger": false,
      "metar": "METAR LRCV 191430Z 33004KT 8000 OVC036 M04/M08 Q1039",
      "taf": "TAF LRCV 191400Z 1915/1924 VRB04KT 8000 OVC035"
    },
    {
      "icao": "LRIA",
      "alert": "OK",
      "vis_m": 9999,
      "fzfg": false,
      "metar_trigger": false,
      "taf_trigger": false,
      "metar": "METAR LRIA 191430Z 31003KT CAVOK M08/M12 Q1039",
      "taf": "TAF LRIA 191400Z 1915/1924 VRB04KT CAVOK"
    },
    {
      "icao": "LROP",
      "alert": "OK",
      "vis_m": 9999,
      "fzfg": false,
      "metar_trigger": false,
      "taf_trigger": false,
      "metar": "METAR LROP 191430Z 26006KT CAVOK M02/M08 Q1038 NOSIG",
      "taf": "TAF LROP 191100Z 1912/2012 28007KT 9999 BKN035"
    },
    {
      "icao": "LRSB",
      "alert": "OK",
      "vis_m": 9999,
      "fzfg": false,
      "metar_trigger": false,
      "taf_trigger": false,
      "metar": "METAR LRSB 191430Z 30003KT 260V340 CAVOK M04/M09 Q1035",
      "taf": "TAF LRSB 191100Z 1912/2012 VRB04KT CAVOK"
    },
    {
      "icao": "LRSM",
      "alert": "OK",
      "vis_m": 9999,
      "fzfg": false,
      "metar_trigger": false,
      "taf_trigger": false,
      "metar": "METAR LRSM 191430Z 25005KT CAVOK M07/M08 Q1038",
      "taf": "TAF LRSM 191400Z 1915/1924 VRB04KT CAVOK"
    },
    {
      "icao": "LRSV",
      "alert": "OK",
      "vis_m": 9999,
      "fzfg": false,
      "metar_trigger": false,
      "taf_trigger": false,
      "metar": "METAR LRSV 191430Z 06005KT CAVOK M08/M11 Q1035",
      "taf": "TAF LRSV 191400Z 1915/1924 VRB04KT CAVOK"
    },
    {
      "icao": "LRTM",
      "alert": "OK",
      "vis_m": 7000,
      "fzfg": false,
      "metar_trigger": false,
      "taf_trigger": false,
      "metar": "METAR LRTM 191430Z 22003KT 7000 FEW009 M06/M11 Q1036",
      "taf": "TAF LRTM 191400Z 1915/1924 VRB04KT 5000 BR FEW010"
    },
    {
      "icao": "LRTR",
      "alert": "OK",
      "vis_m": 9999,
      "fzfg": false,
      "metar_trigger": false,
      "taf_trigger": false,
      "metar": "METAR LRTR 191430Z 29004KT CAVOK M02/M07 Q1037",
      "taf": "TAF LRTR 191100Z 1912/2012 11006KT CAVOK"
    },
    {
      "icao": "LTAC",
      "alert": "OK",
      "vis_m": 9999,
      "fzfg": false,
      "metar_trigger": false,
      "taf_trigger": false,
      "metar": "METAR LTAC 191420Z 35009KT 9999 SCT040 M01/M09 Q1023 NOSIG RMK RWY21C 34010KT RWY03L 34006KT 300V010 RWY21R 33008KT 300V360 RWY03R 33008KT 300V360 RWY21L 33011KT",
      "taf": "TAF LTAC 191040Z 1912/2012 VRB02KT 9999 SCT035"
    },
    {
      "icao": "LTFM",
      "alert": "OK",
      "vis_m": 9999,
      "fzfg": false,
      "metar_trigger": false,
      "taf_trigger": false,
      "metar": "METAR LTFM 191420Z 36021KT 9999 BKN013 BKN022 02/M00 Q1033 NOSIG RMK RWY17L 35018KT RWY34L 35022KT RWY16R 35017KT RWY36 36020KT RWY18 36020KT",
      "taf": "TAF LTFM 191040Z 1912/2018 35023G37KT 7000 -SHSNRA BKN011 BKN022"
    },
    {
      "icao": "LUKK",
      "alert": "OK",
      "vis_m": 9999,
      "fzfg": false,
      "metar_trigger": false,
      "taf_trigger": false,
      "metar": "METAR LUKK 191400Z 02005KT CAVOK M05/M09 Q1038 NOSIG",
      "taf": "TAF LUKK 191117Z 1912/2012 01009KT CAVOK"
    },
    {
      "icao": "LWOH",
      "alert": "OK",
      "vis_m": 9999,
      "fzfg": false,
      "metar_trigger": false,
      "taf_trigger": false,
      "metar": "METAR LWOH 191420Z 07009KT 9999 FEW040 05/M05 Q1027",
      "taf": "TAF LWOH 191430Z 1915/2015 04006KT 9999 FEW040"
    },
    {
      "icao": "LWSK",
      "alert": "OK",
      "vis_m": 9999,
      "fzfg": false,
      "metar_trigger": false,
      "taf_trigger": false,
      "metar": "METAR LWSK 191420Z VRB02KT CAVOK 05/M06 Q1032 NOSIG",
      "taf": "TAF LWSK 191430Z 1915/2015 VRB03KT CAVOK"
    },
    {
      "icao": "LYBE",
      "alert": "OK",
      "vis_m": 9999,
      "fzfg": false,
      "metar_trigger": false,
      "taf_trigger": false,
      "metar": "METAR LYBE 191430Z 10014KT CAVOK 00/M07 Q1035 NOSIG",
      "taf": ""
    },
    {
      "icao": "LYNI",
      "alert": "OK",
      "vis_m": 9999,
      "fzfg": false,
      "metar_trigger": false,
      "taf_trigger": false,
      "metar": "METAR LYNI 191430Z 04007KT 020V080 CAVOK 01/M08 Q1034 NOSIG",
      "taf": "TAF LYNI 191100Z 1912/2012 36004KT CAVOK TX02/1913Z TNM10/2005Z"
    },
    {
      "icao": "LYPG",
      "alert": "OK",
      "vis_m": 9999,
      "fzfg": false,
      "metar_trigger": false,
      "taf_trigger": false,
      "metar": "METAR LYPG 191430Z 16005KT 120V180 CAVOK 08/M06 Q1027 NOSIG",
      "taf": "TAF LYPG 191100Z 1912/2012 34007KT CAVOK TX08/1913Z TNM02/2004Z"
    },
    {
      "icao": "LZIB",
      "alert": "OK",
      "vis_m": 9999,
      "fzfg": false,
      "metar_trigger": false,
      "taf_trigger": false,
      "metar": "METAR LZIB 191430Z 11010KT 9999 FEW014 M02/M05 Q1035 NOSIG",
      "taf": "TAF LZIB 191115Z 1912/2012 13008KT 9999 FEW015"
    },
    {
      "icao": "LZKZ",
      "alert": "OK",
      "vis_m": 9999,
      "fzfg": false,
      "metar_trigger": false,
      "taf_trigger": false,
      "metar": "METAR LZKZ 191430Z 12003KT CAVOK M05/M08 Q1036 NOSIG",
      "taf": "TAF LZKZ 191115Z 1912/2012 VRB02KT CAVOK"
    },
    {
      "icao": "LZTT",
      "alert": "OK",
      "vis_m": 9999,
      "fzfg": false,
      "metar_trigger": false,
      "taf_trigger": false,
      "metar": "METAR LZTT 191430Z 34001KT CAVOK M02/M09 Q1031 NOSIG",
      "taf": "TAF LZTT 191115Z 1912/2012 27005KT CAVOK"
    },
    {
      "icao": "OEJN",
      "alert": "OK",
      "vis_m": 9999,
      "fzfg": false,
      "metar_trigger": false,
      "taf_trigger": false,
      "metar": "METAR OEJN 191400Z 33013KT CAVOK 27/07 Q1013 NOSIG",
      "taf": "TAF OEJN 191100Z 1912/2018 34011KT 9999 FEW040"
    },
    {
      "icao": "OEMA",
      "alert": "OK",
      "vis_m": 9999,
      "fzfg": false,
      "metar_trigger": false,
      "taf_trigger": false,
      "metar": "METAR OEMA 191400Z 29006KT CAVOK 24/M05 Q1016 NOSIG",
      "taf": "TAF OEMA 191100Z 1912/2018 30010KT CAVOK"
    },
    {
      "icao": "OJAI",
      "alert": "OK",
      "vis_m": 5000,
      "fzfg": false,
      "metar_trigger": false,
      "taf_trigger": false,
      "metar": "METAR OJAI 191400Z 29013KT 5000 HZ FEW030 10/04 Q1019 NOSIG",
      "taf": "TAF OJAI 191013Z 1912/2018 29012KT 5000 HZ SCT035"
    },
    {
      "icao": "OMAA",
      "alert": "OK",
      "vis_m": 9999,
      "fzfg": false,
      "metar_trigger": false,
      "taf_trigger": false,
      "metar": "METAR OMAA 191400Z 34009KT CAVOK 22/05 Q1014 NOSIG",
      "taf": "TAF OMAA 191100Z 1912/2018 33010KT 8000 NSC"
    },
    {
      "icao": "OMDB",
      "alert": "OK",
      "vis_m": 9999,
      "fzfg": false,
      "metar_trigger": false,
      "taf_trigger": false,
      "metar": "METAR OMDB 191430Z 35006KT CAVOK 21/14 Q1015 NOSIG",
      "taf": "TAF OMDB 191100Z 1912/2018 31010KT 8000 NSC"
    },
    {
      "icao": "UAAA",
      "alert": "OK",
      "vis_m": 2900,
      "fzfg": false,
      "metar_trigger": false,
      "taf_trigger": false,
      "metar": "METAR UAAA 191430Z VRB01MPS 2900 BR FU SCT100 BKN200 M12/M14 Q1025 NOSIG",
      "taf": "TAF UAAA 191103Z 1912/2012 20003MPS 3100 BR FU SCT050 BKN100 TXM07/2008Z TNM16/2003Z"
    },
    {
      "icao": "UBBB",
      "alert": "OK",
      "vis_m": 9999,
      "fzfg": false,
      "metar_trigger": false,
      "taf_trigger": false,
      "metar": "METAR UBBB 191430Z 02012KT 9999 BKN019 02/M02 Q1026 NOSIG",
      "taf": "TAF UBBB 191055Z 1912/2012 02012KT 9999 BKN020 TX03/1912Z TN00/2001Z"
    },
    {
      "icao": "UDSG",
      "alert": "OK",
      "vis_m": 9999,
      "fzfg": false,
      "metar_trigger": false,
      "taf_trigger": false,
      "metar": "METAR UDSG 191430Z 28003KT 230V310 9999 BKN036 M04/M10 Q1013 NOSIG",
      "taf": "TAF UDSG 191058Z 1912/2012 36006KT 5000 BR BKN030"
    },
    {
      "icao": "UDYZ",
      "alert": "OK",
      "vis_m": 9000,
      "fzfg": false,
      "metar_trigger": false,
      "taf_trigger": false,
      "metar": "METAR UDYZ 191430Z 35003KT 9000 BKN036 01/M01 Q1013 NOSIG",
      "taf": "TAF UDYZ 191100Z 1912/2012 VRB06KT 6000 BKN025"
    },
    {
      "icao": "UGKO",
      "alert": "OK",
      "vis_m": 9999,
      "fzfg": false,
      "metar_trigger": false,
      "taf_trigger": false,
      "metar": "METAR UGKO 191430Z 25007KT 9999 SCT034 OVC055 04/02 Q1020 NOSIG",
      "taf": "TAF UGKO 191100Z 1912/2012 VRB02KT 9999 SCT020 OVC050 TX06/2012Z TNM01/2002Z"
    }
  ]
}