{
  "ts_utc": "2025-12-23T07:02:41Z",
  "threshold_m": 150,
  "source": "stations_override.txt (ICAO list) + aviationweather.gov (METAR/TAF raw)",
  "station_count": 159,
  "stations": [
    {
      "icao": "BIKF",
      "alert": "OK",
      "vis_m": 9999,
      "fzfg": false,
      "metar_trigger": false,
      "taf_trigger": false,
      "metar": "METAR BIKF 230630Z 18007KT 9999 FEW049 01/M01 Q1010",
      "taf": "TAF BIKF 230433Z 2306/2406 22010KT 9999 SCT015 BKN030 TX08/2321Z TN02/2307Z"
    },
    {
      "icao": "BKPR",
      "alert": "OK",
      "vis_m": 9999,
      "fzfg": false,
      "metar_trigger": false,
      "taf_trigger": false,
      "metar": "METAR BKPR 230700Z 29009KT 9999 BKN005 M00/M00 Q1018 NOSIG",
      "taf": "TAF BKPR 230530Z 2306/2406 22008KT 9999 BKN005"
    },
    {
      "icao": "EBCI",
      "alert": "OK",
      "vis_m": 7000,
      "fzfg": false,
      "metar_trigger": false,
      "taf_trigger": false,
      "metar": "METAR EBCI 230650Z COR 07009KT 7000 BKN008 02/01 Q1012 BECMG BKN012",
      "taf": "TAF EBCI 230500Z 2306/2412 06008KT 2000 BKN002"
    },
    {
      "icao": "EDDB",
      "alert": "OK",
      "vis_m": 9999,
      "fzfg": false,
      "metar_trigger": false,
      "taf_trigger": false,
      "metar": "METAR EDDB 230650Z AUTO 07009KT 9999 OVC013 02/M00 Q1022 BECMG BKN015",
      "taf": "TAF EDDB 230500Z 2306/2406 06010KT 9999 BKN012"
    },
    {
      "icao": "EDDH",
      "alert": "OK",
      "vis_m": 9999,
      "fzfg": false,
      "metar_trigger": false,
      "taf_trigger": false,
      "metar": "METAR EDDH 230650Z AUTO 09012KT 060V120 9999 OVC007 01/M00 Q1023 TEMPO 08015G25KT OVC010",
      "taf": "TAF EDDH 230500Z 2306/2412 08013KT 9999 OVC008"
    },
    {
      "icao": "EDDK",
      "alert": "OK",
      "vis_m": 9999,
      "fzfg": false,
      "metar_trigger": false,
      "taf_trigger": false,
      "metar": "METAR EDDK 230650Z AUTO 11005KT 060V140 9999 OVC019 05/01 Q1015 NOSIG",
      "taf": "TAF EDDK 230500Z 2306/2412 10007KT 9999 OVC020"
    },
    {
      "icao": "EDDN",
      "alert": "OK",
      "vis_m": 9999,
      "fzfg": false,
      "metar_trigger": false,
      "taf_trigger": false,
      "metar": "METAR EDDN 230650Z AUTO 08007KT 040V120 9999 OVC016 03/M00 Q1014 NOSIG",
      "taf": "TAF EDDN 230500Z 2306/2406 08006KT 9000 BKN012"
    },
    {
      "icao": "EDDS",
      "alert": "OK",
      "vis_m": 9999,
      "fzfg": false,
      "metar_trigger": false,
      "taf_trigger": false,
      "metar": "METAR EDDS 230650Z AUTO 07008KT 9999 OVC008 01/M00 Q1011 NOSIG",
      "taf": "TAF EDDS 230500Z 2306/2406 07005KT 9999 BKN008"
    },
    {
      "icao": "EDFH",
      "alert": "OK",
      "vis_m": 9999,
      "fzfg": false,
      "metar_trigger": false,
      "taf_trigger": false,
      "metar": "METAR EDFH 230650Z 10015KT 060V120 9999 OVC007 01/M00 Q1012",
      "taf": "TAF EDFH 230500Z 2306/2406 10012KT 9999 BKN008"
    },
    {
      "icao": "EDJA",
      "alert": "OK",
      "vis_m": 3200,
      "fzfg": false,
      "metar_trigger": false,
      "taf_trigger": false,
      "metar": "METAR EDJA 230650Z 07007KT 050V110 3200 BR OVC002 M02/M03 Q1010",
      "taf": "TAF EDJA 230500Z 2306/2315 06007KT 3000 BR OVC002"
    },
    {
      "icao": "EDLW",
      "alert": "OK",
      "vis_m": 9999,
      "fzfg": false,
      "metar_trigger": false,
      "taf_trigger": false,
      "metar": "METAR EDLW 230650Z 05012KT 9999 OVC019 04/01 Q1015",
      "taf": "TAF EDLW 230500Z 2306/2406 06010KT 9999 OVC020"
    },
    {
      "icao": "EDNY",
      "alert": "OK",
      "vis_m": 9999,
      "fzfg": false,
      "metar_trigger": false,
      "taf_trigger": false,
      "metar": "METAR EDNY 230650Z 06005KT 9999 OVC009 M01/M02 Q1011",
      "taf": "TAF EDNY 230533Z 2306/2315 06006KT 8000 OVC006"
    },
    {
      "icao": "EDSB",
      "alert": "OK",
      "vis_m": 9999,
      "fzfg": false,
      "metar_trigger": false,
      "taf_trigger": false,
      "metar": "METAR EDSB 230650Z 04009KT 9999 BKN018 02/00 Q1012",
      "taf": "TAF EDSB 230500Z 2306/2406 05005KT 9999 SCT015"
    },
    {
      "icao": "EETN",
      "alert": "OK",
      "vis_m": 9999,
      "fzfg": false,
      "metar_trigger": false,
      "taf_trigger": false,
      "metar": "METAR EETN 230650Z 26004KT 9999 OVC037 M05/M10 Q1033 NOSIG",
      "taf": "TAF EETN 230530Z 2306/2406 VRB02KT 9999 BKN040"
    },
    {
      "icao": "EFTU",
      "alert": "OK",
      "vis_m": 9999,
      "fzfg": false,
      "metar_trigger": false,
      "taf_trigger": false,
      "metar": "METAR EFTU 230650Z AUTO VRB02KT 9999 FEW031 M09/M11 Q1034",
      "taf": "TAF EFTU 230522Z 2306/2406 04004KT CAVOK"
    },
    {
      "icao": "EGBB",
      "alert": "OK",
      "vis_m": 4300,
      "fzfg": false,
      "metar_trigger": false,
      "taf_trigger": false,
      "metar": "METAR EGBB 230650Z 06007KT 030V090 4300 BR OVC007 06/05 Q1016",
      "taf": "TAF EGBB 230455Z 2306/2406 07008KT 2500 BR OVC003"
    },
    {
      "icao": "EGGP",
      "alert": "OK",
      "vis_m": 9999,
      "fzfg": false,
      "metar_trigger": false,
      "taf_trigger": false,
      "metar": "METAR EGGP 230650Z 07006KT 9999 BKN015 06/04 Q1017",
      "taf": "TAF EGGP 230503Z 2306/2406 11006KT 9999 SCT012"
    },
    {
      "icao": "EGGW",
      "alert": "OK",
      "vis_m": 7000,
      "fzfg": false,
      "metar_trigger": false,
      "taf_trigger": false,
      "metar": "METAR EGGW 230650Z AUTO 07010KT 7000 OVC009 06/04 Q1015",
      "taf": "TAF EGGW 230457Z 2306/2406 07009KT 6000 BKN008"
    },
    {
      "icao": "EGKK",
      "alert": "OK",
      "vis_m": 9999,
      "fzfg": false,
      "metar_trigger": false,
      "taf_trigger": false,
      "metar": "METAR EGKK 230650Z 05010KT 9999 BKN011 07/06 Q1014",
      "taf": "TAF EGKK 230456Z 2306/2412 06009KT 9999 SCT016"
    },
    {
      "icao": "EGNM",
      "alert": "OK",
      "vis_m": 6000,
      "fzfg": false,
      "metar_trigger": false,
      "taf_trigger": false,
      "metar": "METAR EGNM 230650Z 06005KT 6000 SCT007 OVC011 06/05 Q1018",
      "taf": ""
    },
    {
      "icao": "EGPD",
      "alert": "OK",
      "vis_m": 9999,
      "fzfg": false,
      "metar_trigger": false,
      "taf_trigger": false,
      "metar": "METAR EGPD 230650Z AUTO 14009KT 9999 BKN011 OVC020 08/07 Q1021 TEMPO BKN009",
      "taf": "TAF EGPD 230453Z 2306/2406 15008KT 9999 SCT014 BKN016"
    },
    {
      "icao": "EGPF",
      "alert": "OK",
      "vis_m": 8000,
      "fzfg": false,
      "metar_trigger": false,
      "taf_trigger": false,
      "metar": "METAR EGPF 230650Z AUTO 06007KT 8000 BKN015 OVC020 08/07 Q1019",
      "taf": "TAF EGPF 230455Z 2306/2406 06006KT 7000 SCT020"
    },
    {
      "icao": "EHBK",
      "alert": "OK",
      "vis_m": 9999,
      "fzfg": false,
      "metar_trigger": false,
      "taf_trigger": false,
      "metar": "METAR EHBK 230655Z AUTO 08013KT 050V130 9999 OVC015 04/01 Q1013 NOSIG",
      "taf": "TAF EHBK 230514Z 2306/2412 08010KT 9999 BKN016"
    },
    {
      "icao": "EHEH",
      "alert": "OK",
      "vis_m": 9999,
      "fzfg": false,
      "metar_trigger": false,
      "taf_trigger": false,
      "metar": "METAR EHEH 230655Z AUTO 08008KT 050V120 9999 OVC017 05/01 Q1015 WHT NOSIG RMK TREND REMOTE BY EHWX",
      "taf": "TAF EHEH 230527Z 2306/2412 08012KT 9999 BKN018 OVC020"
    },
    {
      "icao": "EKBI",
      "alert": "OK",
      "vis_m": 9999,
      "fzfg": false,
      "metar_trigger": false,
      "taf_trigger": false,
      "metar": "METAR EKBI 230650Z AUTO 07013KT 9999 OVC024/// 04/01 Q1026",
      "taf": "TAF EKBI 230527Z 2306/2406 08012KT 9999 OVC030"
    },
    {
      "icao": "EKCH",
      "alert": "OK",
      "vis_m": 9999,
      "fzfg": false,
      "metar_trigger": false,
      "taf_trigger": false,
      "metar": "METAR EKCH 230650Z AUTO 06010KT 9999 BKN032/// 02/00 Q1028 NOSIG",
      "taf": "TAF EKCH 230527Z 2306/2406 05012KT 9999 BKN030"
    },
    {
      "icao": "ENAL",
      "alert": "OK",
      "vis_m": 9999,
      "fzfg": false,
      "metar_trigger": false,
      "taf_trigger": false,
      "metar": "METAR ENAL 230650Z 15010KT CAVOK 03/M05 Q1028",
      "taf": "TAF ENAL 230500Z 2306/2315 15010KT CAVOK"
    },
    {
      "icao": "ENBR",
      "alert": "OK",
      "vis_m": 9999,
      "fzfg": false,
      "metar_trigger": false,
      "taf_trigger": false,
      "metar": "METAR ENBR 230650Z 07002KT CAVOK 01/M02 Q1029 NOSIG RMK WIND 1200FT 17008KT",
      "taf": "TAF ENBR 230500Z 2306/2406 VRB03KT CAVOK"
    },
    {
      "icao": "ENGM",
      "alert": "OK",
      "vis_m": 9999,
      "fzfg": false,
      "metar_trigger": false,
      "taf_trigger": false,
      "metar": "METAR ENGM 230650Z 00000KT 9999 -SN OVC018 M02/M03 Q1034 NOSIG",
      "taf": ""
    },
    {
      "icao": "ENHD",
      "alert": "OK",
      "vis_m": 9999,
      "fzfg": false,
      "metar_trigger": false,
      "taf_trigger": false,
      "metar": "METAR ENHD 230650Z 14006KT CAVOK 03/00 Q1029",
      "taf": "TAF ENHD 230500Z 2306/2315 14006KT CAVOK"
    },
    {
      "icao": "ENTC",
      "alert": "OK",
      "vis_m": 9999,
      "fzfg": false,
      "metar_trigger": false,
      "taf_trigger": false,
      "metar": "METAR ENTC 230650Z 19004KT 170V230 9999 -DZRA FEW006 SCT011 BKN017 02/01 Q1027 TEMPO SCT007 BKN012 RMK WIND 2600FT 29017KT",
      "taf": "TAF ENTC 230500Z 2306/2406 18012KT 9999 -RADZ SCT008 BKN012"
    },
    {
      "icao": "ENTO",
      "alert": "OK",
      "vis_m": 9999,
      "fzfg": false,
      "metar_trigger": false,
      "taf_trigger": false,
      "metar": "METAR ENTO 230650Z 01006KT 9999 BKN004 OVC011 M01/M01 Q1034 TEMPO BKN006",
      "taf": ""
    },
    {
      "icao": "ENVA",
      "alert": "OK",
      "vis_m": 9999,
      "fzfg": false,
      "metar_trigger": false,
      "taf_trigger": false,
      "metar": "METAR ENVA 230650Z 08007KT CAVOK M03/M05 Q1031 NOSIG RMK WIND 670FT 11011KT",
      "taf": "TAF ENVA 230500Z 2306/2406 08005KT CAVOK"
    },
    {
      "icao": "ENZV",
      "alert": "OK",
      "vis_m": 9999,
      "fzfg": false,
      "metar_trigger": false,
      "taf_trigger": false,
      "metar": "METAR ENZV 230650Z 20005KT CAVOK 02/M01 Q1029 NOSIG",
      "taf": "TAF ENZV 230500Z 2306/2406 13003KT CAVOK"
    },
    {
      "icao": "EPGD",
      "alert": "OK",
      "vis_m": 9999,
      "fzfg": false,
      "metar_trigger": false,
      "taf_trigger": false,
      "metar": "METAR EPGD 230630Z 07003KT 9999 FEW005 FEW012TCU BKN015 03/02 Q1025",
      "taf": "TAF EPGD 230530Z 2306/2406 VRB02KT 9999 BKN023"
    },
    {
      "icao": "EPKK",
      "alert": "OK",
      "vis_m": 5000,
      "fzfg": false,
      "metar_trigger": false,
      "taf_trigger": false,
      "metar": "METAR EPKK 230630Z 04006KT 5000 -DZ BR BKN003 OVC004 00/M00 Q1019",
      "taf": "TAF EPKK 230530Z 2306/2406 06007KT 3000 -DZ BR OVC003"
    },
    {
      "icao": "EPKT",
      "alert": "OK",
      "vis_m": 1500,
      "fzfg": false,
      "metar_trigger": false,
      "taf_trigger": false,
      "metar": "METAR EPKT 230630Z 06008KT 1500 -DZ BR OVC002 M00/M00 Q1019",
      "taf": ""
    },
    {
      "icao": "EPLB",
      "alert": "OK",
      "vis_m": 9999,
      "fzfg": false,
      "metar_trigger": false,
      "taf_trigger": false,
      "metar": "METAR EPLB 230630Z 07003KT 9999 OVC030 00/M01 Q1022",
      "taf": "TAF EPLB 230530Z 2306/2406 07006KT 9999 BKN030"
    },
    {
      "icao": "EPMO",
      "alert": "OK",
      "vis_m": 9999,
      "fzfg": false,
      "metar_trigger": false,
      "taf_trigger": false,
      "metar": "METAR EPMO 230630Z 05007KT 9999 OVC031 02/M01 Q1023",
      "taf": "TAF EPMO 230530Z 2306/2406 06007KT 9999 BKN030"
    },
    {
      "icao": "EPPO",
      "alert": "OK",
      "vis_m": 9999,
      "fzfg": false,
      "metar_trigger": false,
      "taf_trigger": false,
      "metar": "METAR EPPO 230630Z 08011KT 9999 OVC021 02/M03 Q1023",
      "taf": "TAF EPPO 230530Z 2306/2406 09012KT 9999 OVC018"
    },
    {
      "icao": "EPRA",
      "alert": "OK",
      "vis_m": 9999,
      "fzfg": false,
      "metar_trigger": false,
      "taf_trigger": false,
      "metar": "METAR EPRA 230630Z 06004KT 9999 BKN031 M01/M02 Q1022",
      "taf": "TAF EPRA 230530Z 2306/2315 09008KT 9999 BKN030"
    },
    {
      "icao": "EPRZ",
      "alert": "OK",
      "vis_m": 5000,
      "fzfg": false,
      "metar_trigger": false,
      "taf_trigger": false,
      "metar": "METAR EPRZ 230630Z 08010KT 5000 BR OVC003 00/M01 Q1020",
      "taf": "TAF EPRZ 230530Z 2306/2406 08010KT 9999 OVC005"
    },
    {
      "icao": "EPSC",
      "alert": "OK",
      "vis_m": 9999,
      "fzfg": false,
      "metar_trigger": false,
      "taf_trigger": false,
      "metar": "METAR EPSC 230630Z 02004KT 9999 FEW033 01/M03 Q1025",
      "taf": "TAF EPSC 230530Z 2306/2406 08007KT 9999 OVC028"
    },
    {
      "icao": "EPSY",
      "alert": "OK",
      "vis_m": 9999,
      "fzfg": false,
      "metar_trigger": false,
      "taf_trigger": false,
      "metar": "METAR EPSY 230630Z 03002KT 9999 SCT022 OVC040 01/M01 Q1024",
      "taf": "TAF EPSY 230530Z 2306/2315 05006KT 9999 BKN030"
    },
    {
      "icao": "EPWA",
      "alert": "OK",
      "vis_m": 9999,
      "fzfg": false,
      "metar_trigger": false,
      "taf_trigger": false,
      "metar": "METAR EPWA 230630Z 07007KT 9999 FEW013 BKN033 02/00 Q1023 NOSIG",
      "taf": "TAF EPWA 230530Z 2306/2406 06007KT 9999 BKN030"
    },
    {
      "icao": "EPWR",
      "alert": "OK",
      "vis_m": 7000,
      "fzfg": false,
      "metar_trigger": false,
      "taf_trigger": false,
      "metar": "METAR EPWR 230630Z 06006KT 7000 BKN006 01/01 Q1020",
      "taf": "TAF EPWR 230530Z 2306/2406 06005KT 5000 BR OVC005"
    },
    {
      "icao": "ESGG",
      "alert": "OK",
      "vis_m": 9999,
      "fzfg": false,
      "metar_trigger": false,
      "taf_trigger": false,
      "metar": "METAR ESGG 230650Z 04007KT 9999 OVC021 M01/M02 Q1030",
      "taf": "TAF ESGG 230530Z 2306/2406 07008KT 9999 BKN020"
    },
    {
      "icao": "ESKN",
      "alert": "OK",
      "vis_m": 9999,
      "fzfg": false,
      "metar_trigger": false,
      "taf_trigger": false,
      "metar": "METAR ESKN 230650Z 01006KT 9999 -SN FEW007 SCT011 BKN023 M00/M01 Q1032",
      "taf": "TAF ESKN 230530Z 2306/2406 02006KT 9999 SCT020"
    },
    {
      "icao": "ESMS",
      "alert": "OK",
      "vis_m": 9999,
      "fzfg": false,
      "metar_trigger": false,
      "taf_trigger": false,
      "metar": "METAR ESMS 230650Z 05008KT 9999 FEW014 02/01 Q1027",
      "taf": "TAF ESMS 230527Z 2306/2406 05008KT 9999 FEW012 BKN030"
    },
    {
      "icao": "ESSA",
      "alert": "OK",
      "vis_m": 9999,
      "fzfg": false,
      "metar_trigger": false,
      "taf_trigger": false,
      "metar": "METAR ESSA 230650Z 07007KT 9999 BKN042 M02/M03 Q1033 NOSIG",
      "taf": "TAF ESSA 230530Z 2306/2406 03005KT 9999 BKN020"
    },
    {
      "icao": "EYKA",
      "alert": "OK",
      "vis_m": 9999,
      "fzfg": false,
      "metar_trigger": false,
      "taf_trigger": false,
      "metar": "METAR EYKA 230650Z 06008KT 020V090 9999 BKN010 OVC014 M00/M02 Q1026",
      "taf": "TAF EYKA 230500Z 2306/2406 04010KT 9000 SCT010 BKN015"
    },
    {
      "icao": "EYPA",
      "alert": "OK",
      "vis_m": 9999,
      "fzfg": false,
      "metar_trigger": false,
      "taf_trigger": false,
      "metar": "METAR EYPA 230650Z 07009KT 9999 BKN013 OVC018 00/M02 Q1028",
      "taf": "TAF EYPA 230500Z 2306/2406 06010KT 9000 SCT010 BKN015"
    },
    {
      "icao": "EYVI",
      "alert": "OK",
      "vis_m": 9999,
      "fzfg": false,
      "metar_trigger": false,
      "taf_trigger": false,
      "metar": "METAR EYVI 230650Z 04010KT 9999 OVC034 M02/M04 Q1025 NOSIG",
      "taf": "TAF EYVI 230500Z 2306/2406 03014KT 9000 BKN025"
    },
    {
      "icao": "GCFV",
      "alert": "OK",
      "vis_m": 9999,
      "fzfg": false,
      "metar_trigger": false,
      "taf_trigger": false,
      "metar": "METAR GCFV 230630Z 32006KT 9999 SCT030 16/10 Q1020",
      "taf": "TAF GCFV 230200Z 2303/2403 32009KT 9999 SCT025 TX22/2314Z TN15/2306Z"
    },
    {
      "icao": "GCLP",
      "alert": "OK",
      "vis_m": 9999,
      "fzfg": false,
      "metar_trigger": false,
      "taf_trigger": false,
      "metar": "METAR GCLP 230630Z 34010KT 9999 FEW033 BKN040 17/11 Q1020 NOSIG",
      "taf": "TAF GCLP 230200Z 2303/2403 01014KT 9999 BKN020 TX21/2314Z TN16/2306Z"
    },
    {
      "icao": "GCTS",
      "alert": "OK",
      "vis_m": 9999,
      "fzfg": false,
      "metar_trigger": false,
      "taf_trigger": false,
      "metar": "METAR GCTS 230630Z 03009KT 9999 FEW030 17/08 Q1021 NOSIG",
      "taf": "TAF GCTS 230200Z 2303/2403 02009KT 9999 BKN030 TX24/2314Z TN15/2306Z"
    },
    {
      "icao": "GMAD",
      "alert": "OK",
      "vis_m": 9999,
      "fzfg": false,
      "metar_trigger": false,
      "taf_trigger": false,
      "metar": "METAR GMAD 230630Z 00000KT CAVOK 07/07 Q1017 NOSIG",
      "taf": "TAF GMAD 230500Z 2306/2412 22004KT 6000 SCT020"
    },
    {
      "icao": "GMMN",
      "alert": "OK",
      "vis_m": 9999,
      "fzfg": false,
      "metar_trigger": false,
      "taf_trigger": false,
      "metar": "METAR GMMN 230630Z 21008KT 9999 SCT020 09/08 Q1018 NOSIG",
      "taf": "TAF GMMN 230500Z 2306/2412 22008KT 6000 SCT020"
    },
    {
      "icao": "GMMX",
      "alert": "OK",
      "vis_m": 8000,
      "fzfg": false,
      "metar_trigger": false,
      "taf_trigger": false,
      "metar": "METAR GMMX 230630Z 12003KT 8000 SCT023 06/06 Q1018 NOSIG",
      "taf": "TAF GMMX 230500Z 2306/2412 04004KT 8000 SCT023"
    },
    {
      "icao": "HEGN",
      "alert": "OK",
      "vis_m": 9999,
      "fzfg": false,
      "metar_trigger": false,
      "taf_trigger": false,
      "metar": "METAR HEGN 230600Z 30012KT CAVOK 16/01 Q1016 NOSIG",
      "taf": "TAF HEGN 230500Z 2306/2412 33012KT CAVOK"
    },
    {
      "icao": "HEMA",
      "alert": "OK",
      "vis_m": 9999,
      "fzfg": false,
      "metar_trigger": false,
      "taf_trigger": false,
      "metar": "METAR HEMA 230600Z 30010KT 9999 SCT020 19/04 Q1016 NOSIG",
      "taf": "TAF HEMA 230500Z 2306/2412 01012KT CAVOK"
    },
    {
      "icao": "HESH",
      "alert": "OK",
      "vis_m": 9999,
      "fzfg": false,
      "metar_trigger": false,
      "taf_trigger": false,
      "metar": "METAR HESH 230600Z 33007KT CAVOK 20/13 Q1015 NOSIG",
      "taf": "TAF HESH 230500Z 2306/2412 03010KT CAVOK"
    },
    {
      "icao": "HESX",
      "alert": "OK",
      "vis_m": 9999,
      "fzfg": false,
      "metar_trigger": false,
      "taf_trigger": false,
      "metar": "METAR HESX 230600Z 21008KT CAVOK 10/04 Q1016 NOSIG",
      "taf": "TAF HESX 230500Z 2306/2412 23009KT CAVOK"
    },
    {
      "icao": "LATI",
      "alert": "OK",
      "vis_m": 9999,
      "fzfg": false,
      "metar_trigger": false,
      "taf_trigger": false,
      "metar": "METAR LATI 230650Z VRB01KT 9999 BKN060 OVC120 06/04 Q1015 NOSIG",
      "taf": "TAF LATI 230500Z 2306/2406 VRB05KT 9999 SCT040 BKN080 TX14/2312Z TN09/2405Z"
    },
    {
      "icao": "LBPD",
      "alert": "OK",
      "vis_m": 3900,
      "fzfg": false,
      "metar_trigger": false,
      "taf_trigger": false,
      "metar": "METAR LBPD 230700Z AUTO 07005KT 3900 BR SCT004/// OVC011/// 05/05 Q1020 NOSIG",
      "taf": "TAF LBPD 230500Z 2306/2406 10006KT 7000 BKN005 OVC010"
    },
    {
      "icao": "LBSF",
      "alert": "OK",
      "vis_m": 4000,
      "fzfg": false,
      "metar_trigger": false,
      "taf_trigger": false,
      "metar": "METAR LBSF 230700Z 00000KT 4000 BR FEW024 SCT027 BKN054 01/01 Q1019 TEMPO 2000 BR",
      "taf": "TAF LBSF 230500Z 2306/2406 VRB03KT 6000 SCT014 BKN050"
    },
    {
      "icao": "LBWN",
      "alert": "OK",
      "vis_m": 9999,
      "fzfg": false,
      "metar_trigger": false,
      "taf_trigger": false,
      "metar": "METAR LBWN 230700Z 27003KT 9999 OVC006 02/02 Q1021 NOSIG",
      "taf": "TAF LBWN 230500Z 2306/2406 VRB03KT 9999 SCT006 OVC010"
    },
    {
      "icao": "LCLK",
      "alert": "OK",
      "vis_m": 9999,
      "fzfg": false,
      "metar_trigger": false,
      "taf_trigger": false,
      "metar": "METAR LCLK 230630Z 02009KT 330V040 9999 FEW030 SCT050 14/12 Q1015 NOSIG",
      "taf": ""
    },
    {
      "icao": "LCPH",
      "alert": "OK",
      "vis_m": 9999,
      "fzfg": false,
      "metar_trigger": false,
      "taf_trigger": false,
      "metar": "METAR LCPH 230630Z 07006KT 9999 FEW025 FEW030CB SCT050 BKN080 14/11 Q1013 NOSIG",
      "taf": "TAF LCPH 230530Z 2306/2406 09010KT 9999 FEW025"
    },
    {
      "icao": "LEAL",
      "alert": "OK",
      "vis_m": 9999,
      "fzfg": false,
      "metar_trigger": false,
      "taf_trigger": false,
      "metar": "METAR LEAL 230630Z 28013KT 240V300 CAVOK 11/01 Q1009 NOSIG",
      "taf": "TAF LEAL 230500Z 2306/2406 23005KT 9999 FEW040 TX15/2313Z TN07/2307Z"
    },
    {
      "icao": "LEBB",
      "alert": "OK",
      "vis_m": 9999,
      "fzfg": false,
      "metar_trigger": false,
      "taf_trigger": false,
      "metar": "METAR LEBB 230630Z 09003KT 9999 BKN050 06/05 Q1008 NOSIG",
      "taf": "TAF LEBB 230500Z 2306/2406 VRB03KT 9999 SCT035 TX11/2313Z TN07/2307Z"
    },
    {
      "icao": "LEBL",
      "alert": "OK",
      "vis_m": 9999,
      "fzfg": false,
      "metar_trigger": false,
      "taf_trigger": false,
      "metar": "METAR LEBL 230630Z 33012KT 9999 FEW025 07/02 Q1004 TEMPO 4000 SHRA FEW020TCU",
      "taf": "TAF LEBL 230500Z 2306/2406 34012KT 9999 FEW020 TX10/2313Z TN06/2306Z"
    },
    {
      "icao": "LECH",
      "alert": "OK",
      "vis_m": 9999,
      "fzfg": false,
      "metar_trigger": false,
      "taf_trigger": false,
      "metar": "METAR LECH 230630Z AUTO 07003KT 010V150 CAVOK 08/M02 Q1005",
      "taf": ""
    },
    {
      "icao": "LEMD",
      "alert": "OK",
      "vis_m": 9999,
      "fzfg": false,
      "metar_trigger": false,
      "taf_trigger": false,
      "metar": "METAR LEMD 230630Z 10003KT 070V170 CAVOK 01/01 Q1010 NOSIG",
      "taf": "TAF LEMD 230500Z 2306/2412 VRB04KT 9999 SCT020 TX08/2315Z TNM01/2306Z"
    },
    {
      "icao": "LEMG",
      "alert": "OK",
      "vis_m": 9999,
      "fzfg": false,
      "metar_trigger": false,
      "taf_trigger": false,
      "metar": "METAR LEMG 230630Z 28006KT 240V310 9999 FEW040 09/05 Q1013 NOSIG",
      "taf": "TAF LEMG 230500Z 2306/2406 32006KT 9999 FEW040 SCT050 TX15/2314Z TN07/2406Z"
    },
    {
      "icao": "LEVC",
      "alert": "OK",
      "vis_m": 9999,
      "fzfg": false,
      "metar_trigger": false,
      "taf_trigger": false,
      "metar": "METAR LEVC 230630Z 29005KT 260V320 CAVOK 05/01 Q1008 NOSIG",
      "taf": "TAF LEVC 230500Z 2306/2406 27010KT CAVOK TX14/2313Z TN07/2307Z"
    },
    {
      "icao": "LEXJ",
      "alert": "OK",
      "vis_m": 9999,
      "fzfg": false,
      "metar_trigger": false,
      "taf_trigger": false,
      "metar": "METAR LEXJ 230630Z 22011KT 9999 FEW065 08/01 Q1009",
      "taf": "TAF LEXJ 230200Z 2303/2403 22009KT 9999 FEW020 SCT040 TX12/2313Z TN06/2307Z"
    },
    {
      "icao": "LEZG",
      "alert": "OK",
      "vis_m": 9999,
      "fzfg": false,
      "metar_trigger": false,
      "taf_trigger": false,
      "metar": "METAR LEZG 230630Z 27015KT 9999 SCT050 BKN070 07/02 Q1007 NOSIG",
      "taf": "TAF LEZG 230500Z 2306/2406 27006KT 9999 FEW040 TX11/2314Z TN04/2306Z"
    },
    {
      "icao": "LEZL",
      "alert": "OK",
      "vis_m": 9999,
      "fzfg": false,
      "metar_trigger": false,
      "taf_trigger": false,
      "metar": "METAR LEZL 230630Z 18004KT 150V230 9999 SCT020 BKN045 09/09 Q1014 NOSIG",
      "taf": "TAF LEZL 230200Z 2303/2403 22005KT 9999 SCT040 TX15/2315Z TN08/2307Z"
    },
    {
      "icao": "LFBD",
      "alert": "OK",
      "vis_m": 5000,
      "fzfg": false,
      "metar_trigger": false,
      "taf_trigger": false,
      "metar": "METAR LFBD 230630Z AUTO 11006KT 5000 BR OVC002 05/05 Q1008 TEMPO 0500 FG VV///",
      "taf": "TAF LFBD 230500Z 2306/2412 15005KT 3000 BR OVC005 TX09/2314Z TN04/2306Z"
    },
    {
      "icao": "LFLL",
      "alert": "OK",
      "vis_m": 7000,
      "fzfg": false,
      "metar_trigger": false,
      "taf_trigger": false,
      "metar": "METAR LFLL 230630Z 35008KT 7000 FEW005 BKN009 05/04 Q1007 NOSIG",
      "taf": "TAF LFLL 230500Z 2306/2412 34007KT 6000 FEW006 BKN130"
    },
    {
      "icao": "LFLS",
      "alert": "OK",
      "vis_m": 6000,
      "fzfg": false,
      "metar_trigger": false,
      "taf_trigger": false,
      "metar": "METAR LFLS 230630Z AUTO VRB02KT 6000 OVC010 05/05 Q1006 TEMPO 0300 FG VV///",
      "taf": "TAF LFLS 230200Z 2303/2403 VRB03KT 6000 SCT008 BKN100"
    },
    {
      "icao": "LFMN",
      "alert": "OK",
      "vis_m": 9999,
      "fzfg": false,
      "metar_trigger": false,
      "taf_trigger": false,
      "metar": "METAR LFMN 230630Z 03015KT 9999 BKN046 BKN086 14/05 Q1005 NOSIG",
      "taf": "TAF LFMN 230200Z 2303/2409 04015KT 9999 BKN040"
    },
    {
      "icao": "LFOB",
      "alert": "OK",
      "vis_m": 5000,
      "fzfg": false,
      "metar_trigger": false,
      "taf_trigger": false,
      "metar": "METAR LFOB 230630Z AUTO 03007KT 5000 BR OVC003 03/03 Q1011 NOSIG",
      "taf": "TAF LFOB 230500Z 2306/2406 06006KT 9999 BKN008"
    },
    {
      "icao": "LFPO",
      "alert": "OK",
      "vis_m": 7000,
      "fzfg": false,
      "metar_trigger": false,
      "taf_trigger": false,
      "metar": "METAR LFPO 230641Z 10006KT 7000 BKN008 04/03 Q1010 NOSIG",
      "taf": "TAF LFPO 230500Z 2306/2412 10005KT 9999 BKN012"
    },
    {
      "icao": "LFSB",
      "alert": "OK",
      "vis_m": 9999,
      "fzfg": false,
      "metar_trigger": false,
      "taf_trigger": false,
      "metar": "METAR LFSB 230630Z AUTO 10006KT 9999 OVC011 02/M01 Q1011 TEMPO 3000 BR OVC003",
      "taf": "TAF LFSB 230500Z 2306/2406 12006KT 9999 OVC012"
    },
    {
      "icao": "LGAV",
      "alert": "OK",
      "vis_m": 9999,
      "fzfg": false,
      "metar_trigger": false,
      "taf_trigger": false,
      "metar": "METAR LGAV 230650Z 33004KT 9999 SCT020 12/07 Q1018 NOSIG",
      "taf": "TAF LGAV 230500Z 2306/2406 36010KT 9999 FEW020 SCT030 BKN070"
    },
    {
      "icao": "LGTS",
      "alert": "OK",
      "vis_m": 9999,
      "fzfg": false,
      "metar_trigger": false,
      "taf_trigger": false,
      "metar": "METAR LGTS 230650Z VRB02KT 9999 FEW008 BKN030 10/09 Q1019 NOSIG",
      "taf": ""
    },
    {
      "icao": "LHBP",
      "alert": "OK",
      "vis_m": 6000,
      "fzfg": false,
      "metar_trigger": false,
      "taf_trigger": false,
      "metar": "METAR LHBP 230700Z 11008KT 6000 BKN006 OVC020 03/02 Q1019 NOSIG",
      "taf": "TAF LHBP 230515Z 2306/2406 11007KT 9999 OVC020"
    },
    {
      "icao": "LHDC",
      "alert": "OK",
      "vis_m": 6000,
      "fzfg": false,
      "metar_trigger": false,
      "taf_trigger": false,
      "metar": "METAR LHDC 230615Z AUTO 10004KT 060V160 6000 BKN019 04/03 Q1019 TEMPO 4000 BR",
      "taf": "TAF LHDC 230515Z 2306/2315 12004KT 7000 OVC018"
    },
    {
      "icao": "LIBD",
      "alert": "OK",
      "vis_m": 8000,
      "fzfg": false,
      "metar_trigger": false,
      "taf_trigger": false,
      "metar": "METAR LIBD 230650Z 11005KT 8000 SCT020 BKN040 12/12 Q1012",
      "taf": "TAF LIBD 230500Z 2306/2406 14007KT 9999 FEW040"
    },
    {
      "icao": "LIBG",
      "alert": "OK",
      "vis_m": null,
      "fzfg": false,
      "metar_trigger": false,
      "taf_trigger": false,
      "metar": "",
      "taf": ""
    },
    {
      "icao": "LIBP",
      "alert": "OK",
      "vis_m": 9000,
      "fzfg": false,
      "metar_trigger": false,
      "taf_trigger": false,
      "metar": "METAR LIBP 230650Z AUTO VRB01KT 9000 FEW094/// 08/08 Q1011",
      "taf": "TAF LIBP 230500Z 2306/2406 VRB05KT 9999 BKN020"
    },
    {
      "icao": "LIBR",
      "alert": "OK",
      "vis_m": 9999,
      "fzfg": false,
      "metar_trigger": false,
      "taf_trigger": false,
      "metar": "METAR LIBR 230650Z 15011KT 9999 SCT045 14/12 Q1013",
      "taf": "TAF LIBR 230500Z 2306/2406 15008KT 9999 SCT040"
    },
    {
      "icao": "LICA",
      "alert": "OK",
      "vis_m": 9999,
      "fzfg": false,
      "metar_trigger": false,
      "taf_trigger": false,
      "metar": "METAR LICA 230650Z AUTO 07008KT 9999 FEW024/// SCT085/// 12/11 Q1011",
      "taf": "TAF LICA 230500Z 2306/2406 07015KT 9999 SCT040"
    },
    {
      "icao": "LICC",
      "alert": "OK",
      "vis_m": 9999,
      "fzfg": false,
      "metar_trigger": false,
      "taf_trigger": false,
      "metar": "METAR LICC 230650Z 21004KT 9999 -DZ FEW040 BKN070 12/11 Q1010",
      "taf": "TAF LICC 230500Z 2306/2406 VRB05KT 9999 SCT030"
    },
    {
      "icao": "LICJ",
      "alert": "OK",
      "vis_m": 9999,
      "fzfg": false,
      "metar_trigger": false,
      "taf_trigger": false,
      "metar": "METAR LICJ 230650Z 17007KT 130V200 9999 SCT035 15/09 Q1009",
      "taf": "TAF LICJ 230500Z 2306/2406 19012KT 9999 SCT040"
    },
    {
      "icao": "LIMC",
      "alert": "OK",
      "vis_m": 6000,
      "fzfg": false,
      "metar_trigger": false,
      "taf_trigger": false,
      "metar": "METAR LIMC 230650Z 34004KT 6000 -RA BKN040 07/07 Q1012 NOSIG",
      "taf": "TAF LIMC 230500Z 2306/2412 VRB04KT 9000 BKN050"
    },
    {
      "icao": "LIME",
      "alert": "OK",
      "vis_m": 9999,
      "fzfg": false,
      "metar_trigger": false,
      "taf_trigger": false,
      "metar": "METAR LIME 230650Z 02004KT 9999 SCT065 08/03 Q1011 NOSIG",
      "taf": "TAF LIME 230500Z 2306/2406 VRB04KT 9000 SCT050"
    },
    {
      "icao": "LIMF",
      "alert": "OK",
      "vis_m": 9999,
      "fzfg": false,
      "metar_trigger": false,
      "taf_trigger": false,
      "metar": "METAR LIMF 230650Z 30007KT 9999 OVC035 07/05 Q1012",
      "taf": "TAF LIMF 230500Z 2306/2406 VRB04KT 6000 RA SCT030 OVC060"
    },
    {
      "icao": "LIMJ",
      "alert": "OK",
      "vis_m": 9999,
      "fzfg": false,
      "metar_trigger": false,
      "taf_trigger": false,
      "metar": "METAR LIMJ 230650Z 04014KT 9999 -RA BKN038 09/06 Q1009",
      "taf": "TAF LIMJ 230500Z 2306/2406 03015KT 8000 RA BKN040"
    },
    {
      "icao": "LIPE",
      "alert": "OK",
      "vis_m": 2500,
      "fzfg": false,
      "metar_trigger": false,
      "taf_trigger": false,
      "metar": "METAR LIPE 230650Z 28003KT 2500 -DZ BR SCT004 BKN009 07/07 Q1012 REDZ",
      "taf": "TAF LIPE 230500Z 2306/2406 VRB05KT 4000 BR BKN012"
    },
    {
      "icao": "LIPH",
      "alert": "OK",
      "vis_m": 9999,
      "fzfg": false,
      "metar_trigger": false,
      "taf_trigger": false,
      "metar": "METAR LIPH 230650Z 36003KT 9999 BKN050 07/04 Q1013",
      "taf": "TAF LIPH 230500Z 2306/2406 05005KT 9999 SCT050"
    },
    {
      "icao": "LIPQ",
      "alert": "OK",
      "vis_m": 9999,
      "fzfg": false,
      "metar_trigger": false,
      "taf_trigger": false,
      "metar": "METAR LIPQ 230650Z AUTO 04004KT 9999 OVC048/// 08/06 Q1013",
      "taf": "TAF LIPQ 230500Z 2306/2406 06005KT 9999 BKN050"
    },
    {
      "icao": "LIPR",
      "alert": "OK",
      "vis_m": 4000,
      "fzfg": false,
      "metar_trigger": false,
      "taf_trigger": false,
      "metar": "METAR LIPR 230650Z 30003KT 4000 BR BKN005 09/08 Q1011",
      "taf": "TAF LIPR 230500Z 2306/2406 30007KT 4000 BR BKN020"
    },
    {
      "icao": "LIPX",
      "alert": "OK",
      "vis_m": 9999,
      "fzfg": false,
      "metar_trigger": false,
      "taf_trigger": false,
      "metar": "METAR LIPX 230650Z VRB02KT 9999 BKN045 08/05 Q1012",
      "taf": "TAF LIPX 230500Z 2306/2406 VRB05KT 8000 SCT050"
    },
    {
      "icao": "LIPY",
      "alert": "OK",
      "vis_m": 150,
      "fzfg": false,
      "metar_trigger": false,
      "taf_trigger": false,
      "metar": "METAR LIPY 230650Z AUTO VRB02KT 0150 R22/0600N FG VV002 10/10 Q1011",
      "taf": ""
    },
    {
      "icao": "LIPZ",
      "alert": "OK",
      "vis_m": 9999,
      "fzfg": false,
      "metar_trigger": false,
      "taf_trigger": false,
      "metar": "METAR LIPZ 230650Z 04006KT 9999 BKN050 07/04 Q1013 NOSIG",
      "taf": "TAF LIPZ 230500Z 2306/2412 03008KT 9999 SCT050"
    },
    {
      "icao": "LIRF",
      "alert": "OK",
      "vis_m": 5000,
      "fzfg": false,
      "metar_trigger": false,
      "taf_trigger": false,
      "metar": "METAR LIRF 230650Z 12011KT 090V160 5000 RA FEW015 SCT040 13/12 Q1008 NOSIG",
      "taf": "TAF LIRF 230500Z 2306/2412 12015KT 9999 BKN030"
    },
    {
      "icao": "LIRN",
      "alert": "OK",
      "vis_m": 9999,
      "fzfg": false,
      "metar_trigger": false,
      "taf_trigger": false,
      "metar": "METAR LIRN 230650Z 28003KT 240V310 9999 FEW040 10/08 Q1009 NOSIG",
      "taf": "TAF LIRN 230500Z 2306/2406 05005KT 9999 SCT040"
    },
    {
      "icao": "LIRP",
      "alert": "OK",
      "vis_m": 9999,
      "fzfg": false,
      "metar_trigger": false,
      "taf_trigger": false,
      "metar": "METAR LIRP 230645Z 07004KT 9999 -RA SCT035 BKN050 12/11 Q1009 NOSIG",
      "taf": "TAF LIRP 230500Z 2306/2406 06012KT 9999 SCT040 BKN060"
    },
    {
      "icao": "LIRZ",
      "alert": "OK",
      "vis_m": 5000,
      "fzfg": false,
      "metar_trigger": false,
      "taf_trigger": false,
      "metar": "METAR LIRZ 230650Z AUTO 01003KT 5000 BR BKN055/// 07/07 Q1010",
      "taf": "TAF LIRZ 230500Z 2306/2406 VRB05KT 9999 SCT040"
    },
    {
      "icao": "LJLJ",
      "alert": "OK",
      "vis_m": 7000,
      "fzfg": false,
      "metar_trigger": false,
      "taf_trigger": false,
      "metar": "METAR LJLJ 230630Z 13001KT 7000 SCT003 BKN014 BKN021 02/01 Q1015 NOSIG",
      "taf": "TAF LJLJ 230500Z 2306/2406 VRB02KT 8000 OVC010"
    },
    {
      "icao": "LKMT",
      "alert": "OK",
      "vis_m": 6000,
      "fzfg": false,
      "metar_trigger": false,
      "taf_trigger": false,
      "metar": "METAR LKMT 230630Z 04002KT 6000 OVC016 02/01 Q1018 NOSIG",
      "taf": "TAF LKMT 230500Z 2306/2406 03008KT 4500 BR OVC008"
    },
    {
      "icao": "LKPR",
      "alert": "OK",
      "vis_m": 9999,
      "fzfg": false,
      "metar_trigger": false,
      "taf_trigger": false,
      "metar": "METAR LKPR 230630Z 08011KT 9999 FEW005 BKN006 BKN012 02/01 Q1016 NOSIG",
      "taf": "TAF LKPR 230500Z 2306/2412 09010KT 9999 BKN006 OVC017"
    },
    {
      "icao": "LLBG",
      "alert": "OK",
      "vis_m": 9999,
      "fzfg": false,
      "metar_trigger": false,
      "taf_trigger": false,
      "metar": "METAR LLBG 230650Z 18010KT 9999 FEW045 16/07 Q1016 NOSIG",
      "taf": "TAF LLBG 230501Z 2306/2406 VRB04KT 9999 FEW040"
    },
    {
      "icao": "LMML",
      "alert": "OK",
      "vis_m": 9999,
      "fzfg": false,
      "metar_trigger": false,
      "taf_trigger": false,
      "metar": "METAR LMML 230645Z 19007KT 160V220 9999 FEW025 15/10 Q1010 NOSIG",
      "taf": "TAF LMML 230500Z 2306/2406 19010KT 9999 FEW025"
    },
    {
      "icao": "LOWW",
      "alert": "OK",
      "vis_m": 4500,
      "fzfg": false,
      "metar_trigger": false,
      "taf_trigger": false,
      "metar": "METAR LOWW 230650Z 12015KT 4500 DZ FEW004 OVC006 03/02 Q1016 TEMPO 6000 -DZ OVC004",
      "taf": "TAF LOWW 230515Z 2306/2412 14013KT 7000 BKN006 TX03/2311Z TN00/2407Z"
    },
    {
      "icao": "LPFR",
      "alert": "OK",
      "vis_m": 9999,
      "fzfg": false,
      "metar_trigger": false,
      "taf_trigger": false,
      "metar": "METAR LPFR 230630Z 02004KT 320V040 9999 FEW015 FEW020TCU 12/10 Q1013",
      "taf": "TAF LPFR 230500Z 2306/2406 27007KT 9999 SCT020"
    },
    {
      "icao": "LPMA",
      "alert": "OK",
      "vis_m": 9999,
      "fzfg": false,
      "metar_trigger": false,
      "taf_trigger": false,
      "metar": "METAR LPMA 230630Z 28006KT 250V310 9999 SCT015 16/09 Q1022",
      "taf": "TAF LPMA 230500Z 2306/2406 33010KT 9999 SCT015"
    },
    {
      "icao": "LPPR",
      "alert": "OK",
      "vis_m": 9999,
      "fzfg": false,
      "metar_trigger": false,
      "taf_trigger": false,
      "metar": "METAR LPPR 230630Z 31009KT 270V350 9999 SCT011 BKN017 13/12 Q1008",
      "taf": "TAF LPPR 230500Z 2306/2406 26007KT 9999 FEW015 BKN030"
    },
    {
      "icao": "LPPS",
      "alert": "OK",
      "vis_m": 9999,
      "fzfg": false,
      "metar_trigger": false,
      "taf_trigger": false,
      "metar": "METAR LPPS 230630Z 32009KT 9999 SCT015 SCT030 16/09 Q1021",
      "taf": "TAF LPPS 230500Z 2306/2412 33007KT 9999 SCT015 SCT030"
    },
    {
      "icao": "LPPT",
      "alert": "OK",
      "vis_m": 9999,
      "fzfg": false,
      "metar_trigger": false,
      "taf_trigger": false,
      "metar": "METAR LPPT 230630Z 26004KT 9999 FEW010 12/11 Q1011",
      "taf": "TAF LPPT 230500Z 2306/2412 24007KT 9999 SCT025"
    },
    {
      "icao": "LQBK",
      "alert": "OK",
      "vis_m": 6000,
      "fzfg": false,
      "metar_trigger": false,
      "taf_trigger": false,
      "metar": "METAR LQBK 230630Z 00000KT 6000 OVC012 03/02 Q1017 NOSIG",
      "taf": "TAF LQBK 230500Z 2306/2406 VRB02KT 9999 BKN015 TX06/2313Z TN01/2405Z"
    },
    {
      "icao": "LQSA",
      "alert": "OK",
      "vis_m": 9999,
      "fzfg": false,
      "metar_trigger": false,
      "taf_trigger": false,
      "metar": "METAR LQSA 230630Z 18003KT 9999 OVC006 M01/M02 Q1017 NOSIG",
      "taf": "TAF LQSA 230500Z 2306/2406 VRB02KT 9999 OVC008 TX06/2314Z TNM00/2306Z"
    },
    {
      "icao": "LQTZ",
      "alert": "OK",
      "vis_m": 7000,
      "fzfg": false,
      "metar_trigger": false,
      "taf_trigger": false,
      "metar": "METAR LQTZ 230630Z 00000KT 7000 NSC M01/M01 Q1016",
      "taf": "TAF LQTZ 230500Z 2306/2406 10005KT 9999 SCT015 BKN025 TX06/2313Z TN00/2306Z"
    },
    {
      "icao": "LRBC",
      "alert": "OK",
      "vis_m": 5000,
      "fzfg": false,
      "metar_trigger": false,
      "taf_trigger": false,
      "metar": "METAR LRBC 230630Z 15009KT 5000 BR FEW004 OVC013 03/02 Q1020",
      "taf": "TAF LRBC 230500Z 2306/2315 15007KT 9999 OVC020"
    },
    {
      "icao": "LRBS",
      "alert": "OK",
      "vis_m": 400,
      "fzfg": false,
      "metar_trigger": false,
      "taf_trigger": false,
      "metar": "METAR LRBS 230630Z 08005KT 0400 R07/0900D -DZ FG OVC001 01/00 Q1022 NOSIG",
      "taf": "TAF LRBS 230500Z 2306/2406 12006KT 0500 -DZ FG OVC001"
    },
    {
      "icao": "LRBV",
      "alert": "OK",
      "vis_m": 300,
      "fzfg": true,
      "metar_trigger": false,
      "taf_trigger": false,
      "metar": "METAR LRBV 230630Z VRB01KT 0300 R21/0450N FZFG VV001 M02/M03 Q1019",
      "taf": "TAF LRBV 230500Z 2306/2315 VRB04KT 0300 FZFG VV001"
    },
    {
      "icao": "LRCL",
      "alert": "OK",
      "vis_m": 9999,
      "fzfg": false,
      "metar_trigger": false,
      "taf_trigger": false,
      "metar": "METAR LRCL 230630Z 08004KT 9999 OVC005 00/M00 Q1019",
      "taf": "TAF LRCL 230500Z 2306/2315 VRB04KT 9999 OVC005"
    },
    {
      "icao": "LRCV",
      "alert": "OK",
      "vis_m": 1100,
      "fzfg": false,
      "metar_trigger": false,
      "taf_trigger": false,
      "metar": "METAR LRCV 230630Z 11006KT 1100 R26/1400N BR OVC002 03/03 Q1020",
      "taf": "TAF LRCV 230500Z 2306/2315 10008KT 1500 BR OVC002"
    },
    {
      "icao": "LRIA",
      "alert": "OK",
      "vis_m": 9999,
      "fzfg": false,
      "metar_trigger": false,
      "taf_trigger": false,
      "metar": "METAR LRIA 230630Z 10010KT 9999 OVC009 01/M00 Q1021",
      "taf": "TAF LRIA 230500Z 2306/2315 12006KT 9999 OVC010"
    },
    {
      "icao": "LROP",
      "alert": "OK",
      "vis_m": 500,
      "fzfg": false,
      "metar_trigger": false,
      "taf_trigger": false,
      "metar": "METAR LROP 230630Z 09006KT 0500 R08R/1400D R08L/2000D FG OVC001 01/01 Q1022 NOSIG",
      "taf": "TAF LROP 230500Z 2306/2406 12006KT 0500 -DZ FG OVC001"
    },
    {
      "icao": "LRSB",
      "alert": "OK",
      "vis_m": 400,
      "fzfg": true,
      "metar_trigger": false,
      "taf_trigger": false,
      "metar": "METAR LRSB 230630Z 27005KT 0400 R27/0800U FZFG VV002 M02/M02 Q1019",
      "taf": "TAF LRSB 230500Z 2306/2406 VRB04KT 0500 FZFG VV001"
    },
    {
      "icao": "LRSM",
      "alert": "OK",
      "vis_m": 9999,
      "fzfg": false,
      "metar_trigger": false,
      "taf_trigger": false,
      "metar": "METAR LRSM 230630Z 17003KT 9999 FEW027 BKN047 03/02 Q1020",
      "taf": "TAF LRSM 230500Z 2306/2315 VRB04KT 9999 OVC025"
    },
    {
      "icao": "LRSV",
      "alert": "CRITICAL",
      "vis_m": 100,
      "fzfg": true,
      "metar_trigger": true,
      "taf_trigger": true,
      "metar": "METAR LRSV 230630Z 09007KT 0100 R34/0300N FZFG VV001 M00/M00 Q1019",
      "taf": "TAF LRSV 230500Z 2306/2315 09006KT 0100 FZFG VV001"
    },
    {
      "icao": "LRTM",
      "alert": "OK",
      "vis_m": 6000,
      "fzfg": false,
      "metar_trigger": false,
      "taf_trigger": false,
      "metar": "METAR LRTM 230630Z 15004KT 6000 -FZDZ BKN003 OVC005 M00/M01 Q1020",
      "taf": "TAF LRTM 230500Z 2306/2315 VRB04KT 9999 OVC005"
    },
    {
      "icao": "LRTR",
      "alert": "OK",
      "vis_m": 5000,
      "fzfg": false,
      "metar_trigger": false,
      "taf_trigger": false,
      "metar": "METAR LRTR 230630Z 07006KT 040V100 5000 BR FEW003 OVC004 01/01 Q1019",
      "taf": "TAF LRTR 230500Z 2306/2406 08007KT 3000 BR OVC005"
    },
    {
      "icao": "LTAC",
      "alert": "OK",
      "vis_m": 9999,
      "fzfg": false,
      "metar_trigger": false,
      "taf_trigger": false,
      "metar": "METAR LTAC 230650Z 03006KT 9999 -RA SCT015 BKN025 BKN080 03/02 Q1016 NOSIG RMK RWY21C 02006KT RWY03L 03006KT RWY21R 01006KT RWY03R 01006KT RWY21L 01007KT",
      "taf": "TAF LTAC 230440Z 2306/2406 VRB02KT 9999 SCT035 BKN090"
    },
    {
      "icao": "LTFM",
      "alert": "OK",
      "vis_m": 8000,
      "fzfg": false,
      "metar_trigger": false,
      "taf_trigger": false,
      "metar": "METAR LTFM 230650Z 36015KT 8000 -SHRA SCT006 BKN020 10/09 Q1019 NOSIG RMK RWY17L 36016KT RWY34L 34013KT RWY16R 35016KT RWY36 02015KT 350V050 RWY18 02015KT",
      "taf": "TAF LTFM 230440Z 2306/2412 01016G26KT 9999 SCT012 BKN022"
    },
    {
      "icao": "LUKK",
      "alert": "OK",
      "vis_m": 9999,
      "fzfg": false,
      "metar_trigger": false,
      "taf_trigger": false,
      "metar": "METAR LUKK 230630Z VRB02KT 9999 OVC028 01/M02 Q1022 NOSIG",
      "taf": ""
    },
    {
      "icao": "LWOH",
      "alert": "OK",
      "vis_m": 9999,
      "fzfg": false,
      "metar_trigger": false,
      "taf_trigger": false,
      "metar": "METAR LWOH 230650Z 31003KT 9999 -RA SCT025 BKN040 04/03 Q1017",
      "taf": "TAF LWOH 230520Z 2306/2406 VRB02KT 9999 OVC035"
    },
    {
      "icao": "LWSK",
      "alert": "OK",
      "vis_m": 1500,
      "fzfg": false,
      "metar_trigger": false,
      "taf_trigger": false,
      "metar": "METAR LWSK 230650Z 04003KT 010V080 1500 BR OVC003 01/01 Q1020 NOSIG",
      "taf": "TAF LWSK 230520Z 2306/2406 VRB02KT 2500 BR OVC003"
    },
    {
      "icao": "LYBE",
      "alert": "OK",
      "vis_m": 9999,
      "fzfg": false,
      "metar_trigger": false,
      "taf_trigger": false,
      "metar": "METAR LYBE 230630Z 14005KT 9999 BKN018 05/02 Q1018 NOSIG",
      "taf": "TAF LYBE 230500Z 2306/2406 12008KT 9999 BKN023 TX08/2313Z TN03/2318Z"
    },
    {
      "icao": "LYNI",
      "alert": "OK",
      "vis_m": 9999,
      "fzfg": false,
      "metar_trigger": false,
      "taf_trigger": false,
      "metar": "METAR LYNI 230630Z 10004KT 070V130 9999 OVC007 02/01 Q1019 NOSIG",
      "taf": ""
    },
    {
      "icao": "LYPG",
      "alert": "OK",
      "vis_m": 8000,
      "fzfg": false,
      "metar_trigger": false,
      "taf_trigger": false,
      "metar": "METAR LYPG 230630Z 05003KT 8000 FEW050 01/M00 Q1017 NOSIG",
      "taf": "TAF LYPG 230500Z 2306/2406 16005KT 9999 SCT040 BKN070 TX11/2313Z TNM00/2306Z"
    },
    {
      "icao": "LZIB",
      "alert": "OK",
      "vis_m": 3500,
      "fzfg": false,
      "metar_trigger": false,
      "taf_trigger": false,
      "metar": "METAR LZIB 230700Z 10009KT 3500 -DZ BR FEW003 SCT006 OVC014 03/03 Q1017 NOSIG",
      "taf": "TAF LZIB 230515Z 2306/2406 12013KT 9999 SCT005 OVC009"
    },
    {
      "icao": "LZKZ",
      "alert": "OK",
      "vis_m": 3200,
      "fzfg": false,
      "metar_trigger": false,
      "taf_trigger": false,
      "metar": "METAR LZKZ 230700Z VRB01KT 3200 BR OVC025 04/04 Q1019 TEMPO 2700 BR",
      "taf": "TAF LZKZ 230515Z 2306/2406 21006KT 5000 BR BKN020"
    },
    {
      "icao": "LZTT",
      "alert": "OK",
      "vis_m": 9999,
      "fzfg": false,
      "metar_trigger": false,
      "taf_trigger": false,
      "metar": "METAR LZTT 230700Z 10003KT 9999 FEW003 OVC008 01/M00 Q1017 TEMPO OVC011",
      "taf": "TAF LZTT 230515Z 2306/2406 10005KT 5000 BR OVC009"
    },
    {
      "icao": "OEJN",
      "alert": "OK",
      "vis_m": 8000,
      "fzfg": false,
      "metar_trigger": false,
      "taf_trigger": false,
      "metar": "METAR OEJN 230700Z 00000KT 8000 NSC 29/21 Q1014 NOSIG",
      "taf": "TAF OEJN 230500Z 2306/2412 28008KT 7000 FEW040"
    },
    {
      "icao": "OEMA",
      "alert": "OK",
      "vis_m": 9999,
      "fzfg": false,
      "metar_trigger": false,
      "taf_trigger": false,
      "metar": "METAR OEMA 230700Z 06007KT CAVOK 20/M01 Q1020 NOSIG",
      "taf": "TAF OEMA 230500Z 2306/2412 12010KT 9999 SCT040"
    },
    {
      "icao": "OJAI",
      "alert": "OK",
      "vis_m": 4000,
      "fzfg": false,
      "metar_trigger": false,
      "taf_trigger": false,
      "metar": "METAR OJAI 230600Z 00000KT 4000 HZ NSC 07/00 Q1017 NOSIG",
      "taf": "TAF OJAI 230500Z 2306/2412 27012KT 5000 HZ FEW035"
    },
    {
      "icao": "OMAA",
      "alert": "OK",
      "vis_m": 9999,
      "fzfg": false,
      "metar_trigger": false,
      "taf_trigger": false,
      "metar": "METAR OMAA 230700Z 35005KT 310V040 CAVOK 22/10 Q1020 NOSIG",
      "taf": "TAF OMAA 230500Z 2306/2412 VRB02KT CAVOK"
    },
    {
      "icao": "OMDB",
      "alert": "OK",
      "vis_m": 9999,
      "fzfg": false,
      "metar_trigger": false,
      "taf_trigger": false,
      "metar": "METAR OMDB 230700Z 05004KT 320V120 CAVOK 22/08 Q1020 NOSIG",
      "taf": "TAF OMDB 230500Z 2306/2412 10005KT CAVOK"
    },
    {
      "icao": "UAAA",
      "alert": "OK",
      "vis_m": 9999,
      "fzfg": false,
      "metar_trigger": false,
      "taf_trigger": false,
      "metar": "METAR UAAA 230630Z 01002MPS 350V050 9999 OVC009 M04/M06 Q1026 NOSIG",
      "taf": "TAF UAAA 230500Z 2306/2406 04003MPS 5000 BR FU BKN011 OVC020 TXM02/2308Z TNM06/2401Z"
    },
    {
      "icao": "UBBB",
      "alert": "OK",
      "vis_m": 9999,
      "fzfg": false,
      "metar_trigger": false,
      "taf_trigger": false,
      "metar": "METAR UBBB 230700Z 34010KT 9999 SCT021 10/05 Q1022 NOSIG",
      "taf": "TAF UBBB 230510Z 2306/2406 33010KT 9999 BKN030 TX11/2310Z TN04/2400Z"
    },
    {
      "icao": "UDSG",
      "alert": "OK",
      "vis_m": 9000,
      "fzfg": false,
      "metar_trigger": false,
      "taf_trigger": false,
      "metar": "METAR UDSG 230630Z 35001KT 9000 FEW049 M03/M05 Q1022 NOSIG",
      "taf": "TAF UDSG 230458Z 2306/2406 VRB06KT 9999 FEW050"
    },
    {
      "icao": "UDYZ",
      "alert": "OK",
      "vis_m": 2700,
      "fzfg": false,
      "metar_trigger": false,
      "taf_trigger": false,
      "metar": "METAR UDYZ 230630Z VRB01KT 2700 BR NSC M00/M03 Q1023 NOSIG",
      "taf": "TAF UDYZ 230500Z 2306/2406 VRB04KT 5000 BR NSC"
    },
    {
      "icao": "UGKO",
      "alert": "OK",
      "vis_m": 9999,
      "fzfg": false,
      "metar_trigger": false,
      "taf_trigger": false,
      "metar": "METAR UGKO 230630Z 08007KT 9999 BKN084 09/03 Q1018 NOSIG",
      "taf": "TAF UGKO 230500Z 2306/2406 07007KT 9999 BKN080 TX16/2312Z TN06/2403Z"
    }
  ]
}