{
  "ts_utc": "2026-04-20T19:35:15Z",
  "threshold_m": 150,
  "source": "stations_override.txt (ICAO list) + aviationweather.gov (METAR/TAF raw)",
  "station_count": 159,
  "stations": [
    {
      "icao": "BIKF",
      "alert": "OK",
      "vis_m": 9999,
      "fzfg": false,
      "metar_trigger": false,
      "taf_trigger": false,
      "metar": "METAR BIKF 201930Z 16009KT CAVOK 10/05 Q1039",
      "taf": "TAF BIKF 201656Z 2018/2118 13014KT 9999 FEW025 TX11/2018Z TN02/2107Z"
    },
    {
      "icao": "BKPR",
      "alert": "OK",
      "vis_m": 9999,
      "fzfg": false,
      "metar_trigger": false,
      "taf_trigger": false,
      "metar": "METAR BKPR 201930Z 02009KT 9999 FEW060 11/07 Q1013 NOSIG",
      "taf": "TAF BKPR 201730Z 2018/2118 24010KT 9999 SCT040 BKN080"
    },
    {
      "icao": "EBCI",
      "alert": "OK",
      "vis_m": 9999,
      "fzfg": false,
      "metar_trigger": false,
      "taf_trigger": false,
      "metar": "METAR EBCI 201920Z 34004KT CAVOK 09/03 Q1021 NOSIG",
      "taf": "TAF EBCI 201700Z 2018/2124 03005KT 9999 FEW035"
    },
    {
      "icao": "EDDB",
      "alert": "OK",
      "vis_m": 9999,
      "fzfg": false,
      "metar_trigger": false,
      "taf_trigger": false,
      "metar": "METAR EDDB 201920Z AUTO 35009KT CAVOK 08/05 Q1019 NOSIG",
      "taf": "TAF EDDB 201700Z 2018/2118 02005KT CAVOK"
    },
    {
      "icao": "EDDH",
      "alert": "OK",
      "vis_m": 9999,
      "fzfg": false,
      "metar_trigger": false,
      "taf_trigger": false,
      "metar": "METAR EDDH 201920Z AUTO 05007KT 010V070 CAVOK 06/01 Q1023 NOSIG",
      "taf": "TAF EDDH 201700Z 2018/2124 04013KT 9999 FEW030"
    },
    {
      "icao": "EDDK",
      "alert": "OK",
      "vis_m": 9999,
      "fzfg": false,
      "metar_trigger": false,
      "taf_trigger": false,
      "metar": "METAR EDDK 201920Z AUTO 04010KT CAVOK 10/04 Q1020 NOSIG",
      "taf": "TAF EDDK 201700Z 2018/2124 01007KT 9999 SCT045"
    },
    {
      "icao": "EDDN",
      "alert": "OK",
      "vis_m": 9999,
      "fzfg": false,
      "metar_trigger": false,
      "taf_trigger": false,
      "metar": "METAR EDDN 201920Z AUTO 36008KT CAVOK 07/02 Q1018 NOSIG",
      "taf": "TAF EDDN 201700Z 2018/2118 34005KT 9999 SCT045"
    },
    {
      "icao": "EDDS",
      "alert": "OK",
      "vis_m": 9999,
      "fzfg": false,
      "metar_trigger": false,
      "taf_trigger": false,
      "metar": "METAR EDDS 201920Z AUTO 36006KT CAVOK 10/M00 Q1017 NOSIG",
      "taf": "TAF EDDS 201700Z 2018/2118 34008KT CAVOK"
    },
    {
      "icao": "EDFH",
      "alert": "OK",
      "vis_m": 9999,
      "fzfg": false,
      "metar_trigger": false,
      "taf_trigger": false,
      "metar": "METAR EDFH 201920Z 36006KT CAVOK 07/M01 Q1019",
      "taf": "TAF EDFH 201700Z 2018/2118 03005KT 9999 FEW045"
    },
    {
      "icao": "EDJA",
      "alert": "OK",
      "vis_m": 9999,
      "fzfg": false,
      "metar_trigger": false,
      "taf_trigger": false,
      "metar": "METAR EDJA 201920Z 01007KT 9999 FEW057 07/M00 Q1016",
      "taf": "TAF EDJA 201700Z 2018/2103 32006KT 9999 SCT045"
    },
    {
      "icao": "EDLW",
      "alert": "OK",
      "vis_m": 9999,
      "fzfg": false,
      "metar_trigger": false,
      "taf_trigger": false,
      "metar": "METAR EDLW 201920Z 02004KT 360V060 9999 SCT020 07/04 Q1021",
      "taf": "TAF EDLW 201700Z 2018/2118 03007KT 9999 SCT040"
    },
    {
      "icao": "EDNY",
      "alert": "OK",
      "vis_m": 9999,
      "fzfg": false,
      "metar_trigger": false,
      "taf_trigger": false,
      "metar": "METAR EDNY 201920Z 02008KT CAVOK 12/01 Q1016",
      "taf": "TAF EDNY 201700Z 2018/2103 04006KT 9999 FEW045"
    },
    {
      "icao": "EDSB",
      "alert": "OK",
      "vis_m": 9999,
      "fzfg": false,
      "metar_trigger": false,
      "taf_trigger": false,
      "metar": "METAR EDSB 201920Z 02007KT CAVOK 10/01 Q1018",
      "taf": "TAF EDSB 201700Z 2018/2118 03005KT CAVOK"
    },
    {
      "icao": "EETN",
      "alert": "OK",
      "vis_m": 9999,
      "fzfg": false,
      "metar_trigger": false,
      "taf_trigger": false,
      "metar": "METAR EETN 201920Z VRB01KT CAVOK 06/M04 Q1024 NOSIG",
      "taf": "TAF EETN 201730Z 2018/2118 32008KT CAVOK"
    },
    {
      "icao": "EFTU",
      "alert": "OK",
      "vis_m": 9999,
      "fzfg": false,
      "metar_trigger": false,
      "taf_trigger": false,
      "metar": "METAR EFTU 201920Z AUTO 32003KT 280V360 CAVOK 06/M06 Q1026",
      "taf": "TAF EFTU 201726Z 2018/2118 35004KT CAVOK"
    },
    {
      "icao": "EGBB",
      "alert": "OK",
      "vis_m": 9999,
      "fzfg": false,
      "metar_trigger": false,
      "taf_trigger": false,
      "metar": "METAR EGBB 201920Z 08007KT CAVOK 10/02 Q1024",
      "taf": "TAF EGBB 201654Z 2018/2118 08009KT 9999 FEW040"
    },
    {
      "icao": "EGGP",
      "alert": "OK",
      "vis_m": 9999,
      "fzfg": false,
      "metar_trigger": false,
      "taf_trigger": false,
      "metar": "METAR EGGP 201920Z 08009KT CAVOK 09/03 Q1025",
      "taf": "TAF EGGP 201653Z 2018/2118 07007KT 9999 SCT025"
    },
    {
      "icao": "EGGW",
      "alert": "OK",
      "vis_m": 9999,
      "fzfg": false,
      "metar_trigger": false,
      "taf_trigger": false,
      "metar": "METAR EGGW 201920Z AUTO 04009KT 9999 NCD 08/01 Q1024",
      "taf": "TAF EGGW 201703Z 2018/2118 05010KT 9999 FEW022 SCT040"
    },
    {
      "icao": "EGKK",
      "alert": "OK",
      "vis_m": 9999,
      "fzfg": false,
      "metar_trigger": false,
      "taf_trigger": false,
      "metar": "METAR EGKK 201920Z 08008KT 9999 FEW033 09/04 Q1023",
      "taf": "TAF EGKK 201703Z 2018/2124 03009KT 9999 FEW048"
    },
    {
      "icao": "EGNM",
      "alert": "OK",
      "vis_m": 9999,
      "fzfg": false,
      "metar_trigger": false,
      "taf_trigger": false,
      "metar": "METAR EGNM 201920Z 07004KT 020V090 9999 VCSH FEW028 SCT032 07/04 Q1026",
      "taf": "TAF EGNM 201652Z 2018/2118 06007KT 9999 FEW025"
    },
    {
      "icao": "EGPD",
      "alert": "OK",
      "vis_m": 9999,
      "fzfg": false,
      "metar_trigger": false,
      "taf_trigger": false,
      "metar": "METAR EGPD 201920Z COR AUTO 07003KT 9999 FEW011 06/04 Q1030 NOSIG",
      "taf": "TAF EGPD 201653Z 2018/2118 09006KT 9999 SCT025"
    },
    {
      "icao": "EGPF",
      "alert": "OK",
      "vis_m": 9999,
      "fzfg": false,
      "metar_trigger": false,
      "taf_trigger": false,
      "metar": "METAR EGPF 201920Z AUTO 07011KT 9999 -RA BKN037 BKN043 09/03 Q1027",
      "taf": "TAF EGPF 201656Z 2018/2118 08010KT 9999 FEW045"
    },
    {
      "icao": "EHBK",
      "alert": "OK",
      "vis_m": 9999,
      "fzfg": false,
      "metar_trigger": false,
      "taf_trigger": false,
      "metar": "METAR EHBK 201925Z AUTO 36005KT 320V040 9999 NSC 10/03 Q1020 NOSIG",
      "taf": "TAF EHBK 201701Z 2018/2124 36007KT CAVOK"
    },
    {
      "icao": "EHEH",
      "alert": "OK",
      "vis_m": 9999,
      "fzfg": false,
      "metar_trigger": false,
      "taf_trigger": false,
      "metar": "METAR EHEH 201925Z AUTO 03007KT 350V070 9999 FEW032 OVC070 10/05 Q1021 BLU NOSIG",
      "taf": "TAF EHEH 201728Z 2018/2124 34005KT CAVOK"
    },
    {
      "icao": "EKBI",
      "alert": "OK",
      "vis_m": 9999,
      "fzfg": false,
      "metar_trigger": false,
      "taf_trigger": false,
      "metar": "METAR EKBI 201920Z AUTO 02004KT 9999 NCD 07/M00 Q1027",
      "taf": "TAF EKBI 201727Z 2018/2118 05009KT CAVOK"
    },
    {
      "icao": "EKCH",
      "alert": "OK",
      "vis_m": 9999,
      "fzfg": false,
      "metar_trigger": false,
      "taf_trigger": false,
      "metar": "METAR EKCH 201920Z AUTO 08005KT 9999 NCD 07/01 Q1026 NOSIG",
      "taf": "TAF EKCH 201727Z 2018/2118 09012KT CAVOK"
    },
    {
      "icao": "ENAL",
      "alert": "OK",
      "vis_m": 9999,
      "fzfg": false,
      "metar_trigger": false,
      "taf_trigger": false,
      "metar": "METAR ENAL 201920Z 32004KT 9999 SCT003 BKN007 08/07 Q1033",
      "taf": "TAF ENAL 201700Z 2018/2103 30008KT 9999 FEW005"
    },
    {
      "icao": "ENBR",
      "alert": "OK",
      "vis_m": 9999,
      "fzfg": false,
      "metar_trigger": false,
      "taf_trigger": false,
      "metar": "METAR ENBR 201920Z 29003KT CAVOK 09/03 Q1032 NOSIG RMK WIND 1200FT 35003KT",
      "taf": "TAF ENBR 201700Z 2018/2118 30008KT CAVOK"
    },
    {
      "icao": "ENGM",
      "alert": "OK",
      "vis_m": 9999,
      "fzfg": false,
      "metar_trigger": false,
      "taf_trigger": false,
      "metar": "METAR ENGM 201920Z 35004KT 310V010 CAVOK 09/M06 Q1030 NOSIG",
      "taf": "TAF ENGM 201700Z 2018/2118 36007KT CAVOK"
    },
    {
      "icao": "ENHD",
      "alert": "OK",
      "vis_m": 9999,
      "fzfg": false,
      "metar_trigger": false,
      "taf_trigger": false,
      "metar": "METAR ENHD 201850Z 35008KT CAVOK 08/05 Q1031",
      "taf": "TAF ENHD 201400Z 2015/2022 33008KT CAVOK"
    },
    {
      "icao": "ENTC",
      "alert": "OK",
      "vis_m": 9999,
      "fzfg": false,
      "metar_trigger": false,
      "taf_trigger": false,
      "metar": "METAR ENTC 201920Z 26011KT 9999 SCT015 06/04 Q1027 TEMPO BKN012 RMK WIND 2600FT 24023KT",
      "taf": "TAF ENTC 201700Z 2018/2118 28015KT 9999 FEW020 SCT040"
    },
    {
      "icao": "ENTO",
      "alert": "OK",
      "vis_m": 9999,
      "fzfg": false,
      "metar_trigger": false,
      "taf_trigger": false,
      "metar": "METAR ENTO 201920Z 34005KT CAVOK 09/M03 Q1030 NOSIG",
      "taf": "TAF ENTO 201700Z 2018/2118 36008KT CAVOK"
    },
    {
      "icao": "ENVA",
      "alert": "OK",
      "vis_m": 9999,
      "fzfg": false,
      "metar_trigger": false,
      "taf_trigger": false,
      "metar": "METAR ENVA 201920Z 25007KT CAVOK 10/05 Q1032 NOSIG RMK WIND 670FT 28010KT",
      "taf": "TAF ENVA 201700Z 2018/2118 26008KT CAVOK"
    },
    {
      "icao": "ENZV",
      "alert": "OK",
      "vis_m": 9999,
      "fzfg": false,
      "metar_trigger": false,
      "taf_trigger": false,
      "metar": "METAR ENZV 201920Z 05006KT CAVOK 11/M03 Q1031 NOSIG",
      "taf": "TAF ENZV 201700Z 2018/2118 08006KT CAVOK"
    },
    {
      "icao": "EPGD",
      "alert": "OK",
      "vis_m": 9999,
      "fzfg": false,
      "metar_trigger": false,
      "taf_trigger": false,
      "metar": "METAR EPGD 201930Z 02008KT CAVOK 04/M01 Q1022",
      "taf": "TAF EPGD 201730Z 2018/2118 01010KT CAVOK"
    },
    {
      "icao": "EPKK",
      "alert": "OK",
      "vis_m": 9999,
      "fzfg": false,
      "metar_trigger": false,
      "taf_trigger": false,
      "metar": "METAR EPKK 201930Z 03004KT 9999 -RA BKN020 06/04 Q1015",
      "taf": "TAF EPKK 201730Z 2018/2118 04006KT 9999 BKN030"
    },
    {
      "icao": "EPKT",
      "alert": "OK",
      "vis_m": 9999,
      "fzfg": false,
      "metar_trigger": false,
      "taf_trigger": false,
      "metar": "METAR EPKT 201930Z 06006KT 9999 -RA BKN034 05/04 Q1015",
      "taf": "TAF EPKT 201730Z 2018/2118 06007KT 9999 BKN020"
    },
    {
      "icao": "EPLB",
      "alert": "OK",
      "vis_m": 9999,
      "fzfg": false,
      "metar_trigger": false,
      "taf_trigger": false,
      "metar": "METAR EPLB 201930Z 04002KT CAVOK 07/02 Q1016",
      "taf": "TAF EPLB 201730Z 2018/2118 VRB02KT CAVOK"
    },
    {
      "icao": "EPMO",
      "alert": "OK",
      "vis_m": 9999,
      "fzfg": false,
      "metar_trigger": false,
      "taf_trigger": false,
      "metar": "METAR EPMO 201930Z 02005KT CAVOK 05/M04 Q1018",
      "taf": "TAF EPMO 201730Z 2018/2118 06009KT CAVOK"
    },
    {
      "icao": "EPPO",
      "alert": "OK",
      "vis_m": 5000,
      "fzfg": false,
      "metar_trigger": false,
      "taf_trigger": false,
      "metar": "METAR EPPO 201930Z 34004KT 5000 BR NSC 06/06 Q1018",
      "taf": "TAF EPPO 201730Z 2018/2118 VRB02KT CAVOK"
    },
    {
      "icao": "EPRA",
      "alert": "OK",
      "vis_m": 9999,
      "fzfg": false,
      "metar_trigger": false,
      "taf_trigger": false,
      "metar": "METAR EPRA 201930Z 06003KT CAVOK 08/01 Q1016",
      "taf": "TAF EPRA 201730Z 2018/2103 07010KT CAVOK"
    },
    {
      "icao": "EPRZ",
      "alert": "OK",
      "vis_m": 9999,
      "fzfg": false,
      "metar_trigger": false,
      "taf_trigger": false,
      "metar": "METAR EPRZ 201930Z 05006KT 9999 -RA FEW043 06/05 Q1015",
      "taf": "TAF EPRZ 201730Z 2018/2118 07010KT 9999 BKN020"
    },
    {
      "icao": "EPSC",
      "alert": "OK",
      "vis_m": 9999,
      "fzfg": false,
      "metar_trigger": false,
      "taf_trigger": false,
      "metar": "METAR EPSC 201930Z 03009KT 350V070 CAVOK 06/M02 Q1021",
      "taf": "TAF EPSC 201730Z 2018/2118 02010KT CAVOK"
    },
    {
      "icao": "EPSY",
      "alert": "OK",
      "vis_m": 9999,
      "fzfg": false,
      "metar_trigger": false,
      "taf_trigger": false,
      "metar": "METAR EPSY 201930Z 02005KT CAVOK 05/M08 Q1019",
      "taf": "TAF EPSY 201730Z 2018/2103 04005KT CAVOK"
    },
    {
      "icao": "EPWA",
      "alert": "OK",
      "vis_m": 9999,
      "fzfg": false,
      "metar_trigger": false,
      "taf_trigger": false,
      "metar": "METAR EPWA 201930Z 04007KT 350V080 CAVOK 10/M06 Q1017 NOSIG",
      "taf": "TAF EPWA 201730Z 2018/2118 06009KT CAVOK"
    },
    {
      "icao": "EPWR",
      "alert": "OK",
      "vis_m": 9999,
      "fzfg": false,
      "metar_trigger": false,
      "taf_trigger": false,
      "metar": "METAR EPWR 201930Z 04006KT 9999 SCT015 BKN040 08/05 Q1016",
      "taf": "TAF EPWR 201730Z 2018/2118 06010KT 9999 BKN020"
    },
    {
      "icao": "ESGG",
      "alert": "OK",
      "vis_m": 9999,
      "fzfg": false,
      "metar_trigger": false,
      "taf_trigger": false,
      "metar": "METAR ESGG 201920Z 02007KT CAVOK 07/M02 Q1028",
      "taf": "TAF ESGG 201730Z 2018/2118 04014G24KT CAVOK"
    },
    {
      "icao": "ESKN",
      "alert": "OK",
      "vis_m": 9999,
      "fzfg": false,
      "metar_trigger": false,
      "taf_trigger": false,
      "metar": "METAR ESKN 201920Z VRB03KT CAVOK 03/M04 Q1028",
      "taf": "TAF ESKN 201730Z 2018/2118 17005KT CAVOK"
    },
    {
      "icao": "ESMS",
      "alert": "OK",
      "vis_m": 9999,
      "fzfg": false,
      "metar_trigger": false,
      "taf_trigger": false,
      "metar": "METAR ESMS 201920Z 07006KT CAVOK 05/M04 Q1026",
      "taf": "TAF ESMS 201727Z 2018/2118 07015KT CAVOK"
    },
    {
      "icao": "ESSA",
      "alert": "OK",
      "vis_m": 9999,
      "fzfg": false,
      "metar_trigger": false,
      "taf_trigger": false,
      "metar": "METAR ESSA 201920Z 02005KT CAVOK 03/M06 Q1028 NOSIG",
      "taf": "TAF ESSA 201730Z 2018/2118 01010KT CAVOK"
    },
    {
      "icao": "EYKA",
      "alert": "OK",
      "vis_m": 9999,
      "fzfg": false,
      "metar_trigger": false,
      "taf_trigger": false,
      "metar": "METAR EYKA 201920Z VRB01KT CAVOK 05/M06 Q1019",
      "taf": "TAF EYKA 201700Z 2018/2118 VRB03KT 9000 NSC"
    },
    {
      "icao": "EYPA",
      "alert": "OK",
      "vis_m": 9999,
      "fzfg": false,
      "metar_trigger": false,
      "taf_trigger": false,
      "metar": "METAR EYPA 201920Z 04007KT CAVOK 04/M06 Q1022",
      "taf": "TAF EYPA 201700Z 2018/2118 04010KT 9000 NSC"
    },
    {
      "icao": "EYVI",
      "alert": "OK",
      "vis_m": 9999,
      "fzfg": false,
      "metar_trigger": false,
      "taf_trigger": false,
      "metar": "METAR EYVI 201920Z 01005KT CAVOK 02/M06 Q1018 NOSIG",
      "taf": "TAF EYVI 201700Z 2018/2118 VRB03KT 9000 NSC"
    },
    {
      "icao": "GCFV",
      "alert": "OK",
      "vis_m": 9999,
      "fzfg": false,
      "metar_trigger": false,
      "taf_trigger": false,
      "metar": "METAR GCFV 201900Z 29019KT CAVOK 21/14 Q1006",
      "taf": ""
    },
    {
      "icao": "GCLP",
      "alert": "OK",
      "vis_m": 9999,
      "fzfg": false,
      "metar_trigger": false,
      "taf_trigger": false,
      "metar": "METAR GCLP 201900Z 01005KT 320V100 9999 BKN020 20/16 Q1008 NOSIG",
      "taf": "TAF GCLP 201400Z 2015/2115 06009KT 9000 BKN020 TX21/2114Z TN16/2106Z"
    },
    {
      "icao": "GCTS",
      "alert": "OK",
      "vis_m": 9999,
      "fzfg": false,
      "metar_trigger": false,
      "taf_trigger": false,
      "metar": "METAR GCTS 201900Z 11007KT 090V150 9999 SCT030 21/15 Q1008 NOSIG",
      "taf": ""
    },
    {
      "icao": "GMAD",
      "alert": "OK",
      "vis_m": 8000,
      "fzfg": false,
      "metar_trigger": false,
      "taf_trigger": false,
      "metar": "METAR GMAD 201930Z 24013KT 8000 NSC 26/08 Q1005 NOSIG",
      "taf": "TAF GMAD 201700Z 2018/2124 27010KT 8000 NSC"
    },
    {
      "icao": "GMMN",
      "alert": "OK",
      "vis_m": 9999,
      "fzfg": false,
      "metar_trigger": false,
      "taf_trigger": false,
      "metar": "METAR GMMN 201900Z 01006KT CAVOK 24/15 Q1007 NOSIG",
      "taf": "TAF GMMN 201700Z 2018/2124 36012KT CAVOK"
    },
    {
      "icao": "GMMX",
      "alert": "OK",
      "vis_m": 9999,
      "fzfg": false,
      "metar_trigger": false,
      "taf_trigger": false,
      "metar": "METAR GMMX 201930Z 02005KT 350V050 9999 SCT033 FEW040CB 28/07 Q1008 NOSIG",
      "taf": "TAF GMMX 201700Z 2018/2124 14014KT 8000 SCT033 FEW040CB"
    },
    {
      "icao": "HEGN",
      "alert": "OK",
      "vis_m": 9999,
      "fzfg": false,
      "metar_trigger": false,
      "taf_trigger": false,
      "metar": "METAR HEGN 201900Z 30007KT CAVOK 24/01 Q1012 NOSIG",
      "taf": "TAF HEGN 201700Z 2018/2124 33015G25KT 6000 NSC"
    },
    {
      "icao": "HEMA",
      "alert": "OK",
      "vis_m": 9999,
      "fzfg": false,
      "metar_trigger": false,
      "taf_trigger": false,
      "metar": "METAR HEMA 201900Z 31010KT CAVOK 24/06 Q1011 NOSIG",
      "taf": "TAF HEMA 201700Z 2018/2124 34010G20KT CAVOK"
    },
    {
      "icao": "HESH",
      "alert": "OK",
      "vis_m": 9999,
      "fzfg": false,
      "metar_trigger": false,
      "taf_trigger": false,
      "metar": "METAR HESH 201900Z 34019KT CAVOK 26/10 Q1009 NOSIG",
      "taf": "TAF HESH 201700Z 2018/2124 01010KT CAVOK"
    },
    {
      "icao": "HESX",
      "alert": "OK",
      "vis_m": 9999,
      "fzfg": false,
      "metar_trigger": false,
      "taf_trigger": false,
      "metar": "METAR HESX 201900Z 32008KT CAVOK 17/08 Q1015 NOSIG",
      "taf": "TAF HESX 201700Z 2018/2124 32010KT CAVOK"
    },
    {
      "icao": "LATI",
      "alert": "OK",
      "vis_m": 9999,
      "fzfg": false,
      "metar_trigger": false,
      "taf_trigger": false,
      "metar": "METAR LATI 201920Z VRB03KT CAVOK 15/10 Q1014 NOSIG",
      "taf": "TAF LATI 201700Z 2018/2118 VRB05KT CAVOK TX21/2112Z TN10/2102Z"
    },
    {
      "icao": "LBPD",
      "alert": "OK",
      "vis_m": 9999,
      "fzfg": false,
      "metar_trigger": false,
      "taf_trigger": false,
      "metar": "METAR LBPD 201930Z AUTO VRB01KT 9999 BKN071/// OVC098/// 13/12 Q1012",
      "taf": "TAF LBPD 201700Z 2018/2118 VRB03KT 9999 SCT060"
    },
    {
      "icao": "LBSF",
      "alert": "OK",
      "vis_m": 9999,
      "fzfg": false,
      "metar_trigger": false,
      "taf_trigger": false,
      "metar": "METAR LBSF 201930Z AUTO 28007KT 9999 NSC 10/04 Q1013 NOSIG",
      "taf": "TAF LBSF 201700Z 2018/2118 32010KT 9999 SCT050"
    },
    {
      "icao": "LBWN",
      "alert": "OK",
      "vis_m": 9999,
      "fzfg": false,
      "metar_trigger": false,
      "taf_trigger": false,
      "metar": "METAR LBWN 201930Z AUTO 00000KT 9999 NSC 12/07 Q1010 TEMPO 5000 SHRA FEW025TCU BKN040",
      "taf": "TAF LBWN 201700Z 2018/2118 10012KT 9999 SCT035 BKN045"
    },
    {
      "icao": "LCLK",
      "alert": "OK",
      "vis_m": 9999,
      "fzfg": false,
      "metar_trigger": false,
      "taf_trigger": false,
      "metar": "METAR LCLK 201930Z 31006KT CAVOK 16/07 Q1012 NOSIG",
      "taf": "TAF LCLK 201730Z 2018/2118 31008KT 9999 FEW030"
    },
    {
      "icao": "LCPH",
      "alert": "OK",
      "vis_m": 9999,
      "fzfg": false,
      "metar_trigger": false,
      "taf_trigger": false,
      "metar": "METAR LCPH 201930Z AUTO 01006KT 9999 NCD 15/10 Q1013 NOSIG",
      "taf": "TAF LCPH 201730Z 2018/2118 02007KT 9999 FEW025"
    },
    {
      "icao": "LEAL",
      "alert": "OK",
      "vis_m": 9999,
      "fzfg": false,
      "metar_trigger": false,
      "taf_trigger": false,
      "metar": "METAR LEAL 201900Z VRB02KT CAVOK 19/14 Q1011 NOSIG",
      "taf": "TAF LEAL 201700Z 2018/2118 VRB04KT CAVOK TX25/2112Z TN12/2106Z"
    },
    {
      "icao": "LEBB",
      "alert": "OK",
      "vis_m": 9000,
      "fzfg": false,
      "metar_trigger": false,
      "taf_trigger": false,
      "metar": "METAR LEBB 201900Z 30006KT 270V330 9000 BKN007 17/15 Q1011 TEMPO 3000 BR",
      "taf": "TAF LEBB 201700Z 2018/2118 28010KT 9999 FEW010 TX29/2113Z TN12/2106Z"
    },
    {
      "icao": "LEBL",
      "alert": "OK",
      "vis_m": 9999,
      "fzfg": false,
      "metar_trigger": false,
      "taf_trigger": false,
      "metar": "METAR LEBL 201900Z 13003KT 080V180 9999 FEW030 18/15 Q1013 NOSIG",
      "taf": "TAF LEBL 201700Z 2018/2118 VRB04KT 9999 FEW030 TX21/2112Z TN13/2106Z"
    },
    {
      "icao": "LECH",
      "alert": "OK",
      "vis_m": 9999,
      "fzfg": false,
      "metar_trigger": false,
      "taf_trigger": false,
      "metar": "METAR LECH 201900Z AUTO 21006KT CAVOK 18/08 Q1012",
      "taf": "TAF LECH 201700Z 2018/2118 VRB04KT CAVOK TX27/2113Z TN12/2106Z"
    },
    {
      "icao": "LEMD",
      "alert": "OK",
      "vis_m": 9999,
      "fzfg": false,
      "metar_trigger": false,
      "taf_trigger": false,
      "metar": "METAR LEMD 201900Z 26006KT CAVOK 24/03 Q1011 NOSIG",
      "taf": "TAF LEMD 201700Z 2018/2124 VRB04KT CAVOK TX29/2116Z TN11/2106Z"
    },
    {
      "icao": "LEMG",
      "alert": "OK",
      "vis_m": 9999,
      "fzfg": false,
      "metar_trigger": false,
      "taf_trigger": false,
      "metar": "METAR LEMG 201900Z 12004KT CAVOK 17/09 Q1011 NOSIG",
      "taf": "TAF LEMG 201700Z 2018/2118 13010KT CAVOK TX24/2114Z TN11/2106Z"
    },
    {
      "icao": "LEVC",
      "alert": "OK",
      "vis_m": 9999,
      "fzfg": false,
      "metar_trigger": false,
      "taf_trigger": false,
      "metar": "METAR LEVC 201900Z 04007KT 360V140 CAVOK 19/12 Q1011 NOSIG",
      "taf": "TAF LEVC 201700Z 2018/2118 05009KT CAVOK TX25/2112Z TN13/2106Z"
    },
    {
      "icao": "LEXJ",
      "alert": "OK",
      "vis_m": 8000,
      "fzfg": false,
      "metar_trigger": false,
      "taf_trigger": false,
      "metar": "METAR LEXJ 201900Z 31006KT 8000 OVC016 15/13 Q1012",
      "taf": "TAF LEXJ 201400Z 2015/2115 06009KT 9000 FEW010 TX24/2112Z TN13/2106Z"
    },
    {
      "icao": "LEZG",
      "alert": "OK",
      "vis_m": 9999,
      "fzfg": false,
      "metar_trigger": false,
      "taf_trigger": false,
      "metar": "METAR LEZG 201900Z 14004KT CAVOK 25/10 Q1009 NOSIG",
      "taf": "TAF LEZG 201700Z 2018/2118 10006KT CAVOK TX31/2115Z TN14/2106Z"
    },
    {
      "icao": "LEZL",
      "alert": "OK",
      "vis_m": 9999,
      "fzfg": false,
      "metar_trigger": false,
      "taf_trigger": false,
      "metar": "METAR LEZL 201900Z 24004KT 220V280 CAVOK 26/09 Q1008 NOSIG",
      "taf": "TAF LEZL 201400Z 2015/2115 06005KT CAVOK TX32/2015Z TN14/2106Z"
    },
    {
      "icao": "LFBD",
      "alert": "OK",
      "vis_m": 9999,
      "fzfg": false,
      "metar_trigger": false,
      "taf_trigger": false,
      "metar": "METAR LFBD 201930Z AUTO 02006KT 340V040 CAVOK 20/07 Q1011 NOSIG",
      "taf": "TAF LFBD 201700Z 2018/2124 01010KT CAVOK TX28/2115Z TN12/2105Z"
    },
    {
      "icao": "LFLL",
      "alert": "OK",
      "vis_m": 9999,
      "fzfg": false,
      "metar_trigger": false,
      "taf_trigger": false,
      "metar": "METAR LFLL 201930Z 33008KT CAVOK 14/05 Q1014 NOSIG",
      "taf": "TAF LFLL 201700Z 2018/2124 35009KT CAVOK"
    },
    {
      "icao": "LFLS",
      "alert": "OK",
      "vis_m": 9999,
      "fzfg": false,
      "metar_trigger": false,
      "taf_trigger": false,
      "metar": "METAR LFLS 201930Z AUTO 27004KT 240V330 9999 // NSC 12/05 Q1014",
      "taf": "TAF LFLS 201400Z 2015/2115 35007KT CAVOK"
    },
    {
      "icao": "LFMN",
      "alert": "OK",
      "vis_m": 9999,
      "fzfg": false,
      "metar_trigger": false,
      "taf_trigger": false,
      "metar": "METAR LFMN 201930Z VRB02KT 9999 FEW014 SCT033 BKN260 17/15 Q1011 NOSIG",
      "taf": "TAF LFMN 201400Z 2015/2121 17007KT 9999 BKN033"
    },
    {
      "icao": "LFOB",
      "alert": "OK",
      "vis_m": 9999,
      "fzfg": false,
      "metar_trigger": false,
      "taf_trigger": false,
      "metar": "METAR LFOB 201930Z AUTO 02008KT CAVOK 08/03 Q1020 NOSIG",
      "taf": "TAF LFOB 201700Z 2018/2118 04010KT 9999 SCT045"
    },
    {
      "icao": "LFPO",
      "alert": "OK",
      "vis_m": 9999,
      "fzfg": false,
      "metar_trigger": false,
      "taf_trigger": false,
      "metar": "METAR LFPO 201930Z 04012KT CAVOK 12/01 Q1019 NOSIG",
      "taf": "TAF LFPO 201700Z 2018/2124 05010KT CAVOK"
    },
    {
      "icao": "LFSB",
      "alert": "OK",
      "vis_m": 9999,
      "fzfg": false,
      "metar_trigger": false,
      "taf_trigger": false,
      "metar": "METAR LFSB 201930Z AUTO 35011KT CAVOK 11/02 Q1016 NOSIG",
      "taf": "TAF LFSB 201700Z 2018/2118 36008KT CAVOK"
    },
    {
      "icao": "LGAV",
      "alert": "OK",
      "vis_m": 9999,
      "fzfg": false,
      "metar_trigger": false,
      "taf_trigger": false,
      "metar": "METAR LGAV 201920Z 23004KT 210V300 CAVOK 16/08 Q1013 NOSIG",
      "taf": "TAF LGAV 201700Z 2018/2118 23012KT 9999 FEW025"
    },
    {
      "icao": "LGTS",
      "alert": "OK",
      "vis_m": 9999,
      "fzfg": false,
      "metar_trigger": false,
      "taf_trigger": false,
      "metar": "METAR LGTS 201920Z VRB03KT 9999 FEW025 16/13 Q1012 NOSIG",
      "taf": "TAF LGTS 201700Z 2018/2118 VRB03KT 9999 FEW030"
    },
    {
      "icao": "LHBP",
      "alert": "OK",
      "vis_m": 9999,
      "fzfg": false,
      "metar_trigger": false,
      "taf_trigger": false,
      "metar": "METAR LHBP 201930Z 30007KT CAVOK 09/M01 Q1013 NOSIG",
      "taf": "TAF LHBP 201715Z 2018/2118 30010KT CAVOK"
    },
    {
      "icao": "LHDC",
      "alert": "OK",
      "vis_m": 9999,
      "fzfg": false,
      "metar_trigger": false,
      "taf_trigger": false,
      "metar": "METAR LHDC 201915Z AUTO 02011KT 350V050 CAVOK 10/03 Q1012 NOSIG",
      "taf": "TAF LHDC 201715Z 2018/2103 02007KT CAVOK"
    },
    {
      "icao": "LIBD",
      "alert": "OK",
      "vis_m": 9999,
      "fzfg": false,
      "metar_trigger": false,
      "taf_trigger": false,
      "metar": "METAR LIBD 201920Z 21008KT CAVOK 17/12 Q1012",
      "taf": "TAF LIBD 201700Z 2018/2118 VRB05KT CAVOK"
    },
    {
      "icao": "LIBG",
      "alert": "OK",
      "vis_m": null,
      "fzfg": false,
      "metar_trigger": false,
      "taf_trigger": false,
      "metar": "",
      "taf": "TAF LIBG 201400Z 2015/2024 21010KT 9999 FEW030"
    },
    {
      "icao": "LIBP",
      "alert": "OK",
      "vis_m": 9999,
      "fzfg": false,
      "metar_trigger": false,
      "taf_trigger": false,
      "metar": "METAR LIBP 201920Z AUTO 34003KT 9999 FEW210/// 15/14 Q1011",
      "taf": "TAF LIBP 201700Z 2018/2118 VRB05KT 9999 FEW040"
    },
    {
      "icao": "LIBR",
      "alert": "OK",
      "vis_m": 9999,
      "fzfg": false,
      "metar_trigger": false,
      "taf_trigger": false,
      "metar": "METAR LIBR 201920Z 21008KT CAVOK 18/09 Q1012",
      "taf": "TAF LIBR 201700Z 2018/2118 20008KT 9999 FEW040"
    },
    {
      "icao": "LICA",
      "alert": "OK",
      "vis_m": 9999,
      "fzfg": false,
      "metar_trigger": false,
      "taf_trigger": false,
      "metar": "METAR LICA 201920Z AUTO 24003KT 9999 FEW012/// 16/15 Q1015",
      "taf": "TAF LICA 201700Z 2018/2118 25010KT 9999 FEW015"
    },
    {
      "icao": "LICC",
      "alert": "OK",
      "vis_m": 9999,
      "fzfg": false,
      "metar_trigger": false,
      "taf_trigger": false,
      "metar": "METAR LICC 201920Z VRB02KT CAVOK 17/12 Q1015",
      "taf": "TAF LICC 201700Z 2018/2118 VRB05KT CAVOK"
    },
    {
      "icao": "LICJ",
      "alert": "OK",
      "vis_m": 9999,
      "fzfg": false,
      "metar_trigger": false,
      "taf_trigger": false,
      "metar": "METAR LICJ 201920Z 11003KT CAVOK 18/15 Q1014",
      "taf": "TAF LICJ 201700Z 2018/2118 18006KT CAVOK"
    },
    {
      "icao": "LIMC",
      "alert": "OK",
      "vis_m": 9999,
      "fzfg": false,
      "metar_trigger": false,
      "taf_trigger": false,
      "metar": "METAR LIMC 201920Z 15003KT CAVOK 17/13 Q1010 NOSIG",
      "taf": "TAF LIMC 201700Z 2018/2124 VRB05KT 9999 SCT025 SCT070"
    },
    {
      "icao": "LIME",
      "alert": "OK",
      "vis_m": 9999,
      "fzfg": false,
      "metar_trigger": false,
      "taf_trigger": false,
      "metar": "METAR LIME 201920Z AUTO 01006KT 9999 FEW042/// SCT120/// 15/08 Q1010",
      "taf": "TAF LIME 201700Z 2018/2118 VRB05KT 9999 FEW040"
    },
    {
      "icao": "LIMF",
      "alert": "OK",
      "vis_m": 9999,
      "fzfg": false,
      "metar_trigger": false,
      "taf_trigger": false,
      "metar": "METAR LIMF 201920Z 09003KT 070V130 9999 FEW045 17/13 Q1009",
      "taf": "TAF LIMF 201700Z 2018/2118 VRB05KT CAVOK"
    },
    {
      "icao": "LIMJ",
      "alert": "OK",
      "vis_m": 9999,
      "fzfg": false,
      "metar_trigger": false,
      "taf_trigger": false,
      "metar": "METAR LIMJ 201920Z 12007KT 9999 FEW012 BKN035 17/15 Q1011",
      "taf": "TAF LIMJ 201700Z 2018/2118 VRB05KT 9999 BKN030"
    },
    {
      "icao": "LIPE",
      "alert": "OK",
      "vis_m": 9999,
      "fzfg": false,
      "metar_trigger": false,
      "taf_trigger": false,
      "metar": "METAR LIPE 201920Z 10005KT 9999 SCT040 19/15 Q1010",
      "taf": "TAF LIPE 201700Z 2018/2118 VRB05KT 9999 FEW040"
    },
    {
      "icao": "LIPH",
      "alert": "OK",
      "vis_m": 9999,
      "fzfg": false,
      "metar_trigger": false,
      "taf_trigger": false,
      "metar": "METAR LIPH 201920Z 07007KT 9999 SCT050 16/14 Q1011",
      "taf": "TAF LIPH 201700Z 2018/2118 VRB06KT 9999 SCT040"
    },
    {
      "icao": "LIPQ",
      "alert": "OK",
      "vis_m": 9999,
      "fzfg": false,
      "metar_trigger": false,
      "taf_trigger": false,
      "metar": "METAR LIPQ 201920Z AUTO 10008KT 060V130 9999 BKN045/// BKN180/// 15/08 Q1012",
      "taf": "TAF LIPQ 201700Z 2018/2118 VRB05KT 9999 SCT050"
    },
    {
      "icao": "LIPR",
      "alert": "OK",
      "vis_m": 9999,
      "fzfg": false,
      "metar_trigger": false,
      "taf_trigger": false,
      "metar": "METAR LIPR 201920Z VRB01KT CAVOK 15/14 Q1010",
      "taf": "TAF LIPR 201700Z 2018/2118 12010KT 9999 SCT040"
    },
    {
      "icao": "LIPX",
      "alert": "OK",
      "vis_m": 9999,
      "fzfg": false,
      "metar_trigger": false,
      "taf_trigger": false,
      "metar": "METAR LIPX 201920Z 07003KT 030V110 9999 VCTS SCT040 SCT060CB 16/09 Q1010",
      "taf": "TAF LIPX 201700Z 2018/2118 VRB05KT 9999 FEW040"
    },
    {
      "icao": "LIPY",
      "alert": "OK",
      "vis_m": 9999,
      "fzfg": false,
      "metar_trigger": false,
      "taf_trigger": false,
      "metar": "METAR LIPY 201920Z AUTO 19003KT 9999 BKN200/// 16/15 Q1010",
      "taf": "TAF LIPY 201700Z 2018/2118 12010KT 8000 SCT050"
    },
    {
      "icao": "LIPZ",
      "alert": "OK",
      "vis_m": 9999,
      "fzfg": false,
      "metar_trigger": false,
      "taf_trigger": false,
      "metar": "METAR LIPZ 201920Z 09007KT 9999 FEW015 SCT055 16/14 Q1011 NOSIG",
      "taf": "TAF LIPZ 201700Z 2018/2124 15010KT 9999 FEW050"
    },
    {
      "icao": "LIRF",
      "alert": "OK",
      "vis_m": 9999,
      "fzfg": false,
      "metar_trigger": false,
      "taf_trigger": false,
      "metar": "METAR LIRF 201920Z 15009KT 9999 SCT006 SCT010 17/16 Q1013 NOSIG",
      "taf": "TAF LIRF 201700Z 2018/2124 17010KT 9999 FEW020"
    },
    {
      "icao": "LIRN",
      "alert": "OK",
      "vis_m": 8000,
      "fzfg": false,
      "metar_trigger": false,
      "taf_trigger": false,
      "metar": "METAR LIRN 201920Z 20010KT 170V230 8000 FEW010 SCT080 17/15 Q1014 NOSIG",
      "taf": "TAF LIRN 201700Z 2018/2118 20010KT 9999 FEW020"
    },
    {
      "icao": "LIRP",
      "alert": "OK",
      "vis_m": 9999,
      "fzfg": false,
      "metar_trigger": false,
      "taf_trigger": false,
      "metar": "METAR LIRP 201915Z 26002KT 9999 SCT015 17/14 Q1012 NOSIG",
      "taf": "TAF LIRP 201700Z 2018/2118 24007KT 9999 FEW040"
    },
    {
      "icao": "LIRZ",
      "alert": "OK",
      "vis_m": 9999,
      "fzfg": false,
      "metar_trigger": false,
      "taf_trigger": false,
      "metar": "METAR LIRZ 201920Z AUTO 19004KT 140V220 9999 NCD 17/11 Q1012",
      "taf": "TAF LIRZ 201700Z 2018/2118 VRB05KT 9999 SCT050"
    },
    {
      "icao": "LJLJ",
      "alert": "OK",
      "vis_m": 9999,
      "fzfg": false,
      "metar_trigger": false,
      "taf_trigger": false,
      "metar": "METAR LJLJ 201900Z VRB02KT 9999 FEW004 SCT017 BKN075 09/08 Q1015 NOSIG",
      "taf": "TAF LJLJ 201700Z 2018/2118 14006KT 9999 SCT025 BKN045"
    },
    {
      "icao": "LKMT",
      "alert": "OK",
      "vis_m": 9999,
      "fzfg": false,
      "metar_trigger": false,
      "taf_trigger": false,
      "metar": "METAR LKMT 201930Z VRB02KT 9999 -SHRA NSC 06/06 Q1015 TEMPO FEW030TCU",
      "taf": "TAF LKMT 201700Z 2018/2118 02008KT 9999 BKN040"
    },
    {
      "icao": "LKPR",
      "alert": "OK",
      "vis_m": 9999,
      "fzfg": false,
      "metar_trigger": false,
      "taf_trigger": false,
      "metar": "METAR LKPR 201930Z 31008KT 9999 -RA FEW007 BKN022 04/03 Q1016 TEMPO BKN017",
      "taf": "TAF LKPR 201700Z 2018/2124 29010KT 9999 BKN025"
    },
    {
      "icao": "LLBG",
      "alert": "OK",
      "vis_m": 9999,
      "fzfg": false,
      "metar_trigger": false,
      "taf_trigger": false,
      "metar": "METAR LLBG 201920Z 30004KT 9999 FEW030 17/12 Q1014 NOSIG",
      "taf": "TAF LLBG 201702Z 2018/2118 VRB04KT 9999 SCT030 TX22/2110Z TN14/2103Z"
    },
    {
      "icao": "LMML",
      "alert": "OK",
      "vis_m": 9999,
      "fzfg": false,
      "metar_trigger": false,
      "taf_trigger": false,
      "metar": "METAR LMML 201915Z 20005KT 170V230 9999 FEW015 16/14 Q1016 NOSIG",
      "taf": "TAF LMML 201100Z 2012/2112 24007KT 9999 FEW015"
    },
    {
      "icao": "LOWW",
      "alert": "OK",
      "vis_m": 9999,
      "fzfg": false,
      "metar_trigger": false,
      "taf_trigger": false,
      "metar": "METAR LOWW 201920Z 01007KT 340V040 CAVOK 11/03 Q1015 NOSIG",
      "taf": "TAF LOWW 201715Z 2018/2124 34008KT 9999 FEW040 TX12/2018Z TN06/2124Z"
    },
    {
      "icao": "LPFR",
      "alert": "OK",
      "vis_m": 9999,
      "fzfg": false,
      "metar_trigger": false,
      "taf_trigger": false,
      "metar": "METAR LPFR 201900Z 08005KT CAVOK 22/10 Q1008",
      "taf": "TAF LPFR 201700Z 2018/2118 11013KT CAVOK"
    },
    {
      "icao": "LPMA",
      "alert": "OK",
      "vis_m": 9999,
      "fzfg": false,
      "metar_trigger": false,
      "taf_trigger": false,
      "metar": "METAR LPMA 201900Z 05004KT 010V080 9999 FEW013 19/14 Q1003",
      "taf": "TAF LPMA 201700Z 2018/2118 04008KT 9999 SCT015"
    },
    {
      "icao": "LPPR",
      "alert": "OK",
      "vis_m": 9999,
      "fzfg": false,
      "metar_trigger": false,
      "taf_trigger": false,
      "metar": "METAR LPPR 201900Z 00000KT CAVOK 16/12 Q1010",
      "taf": "TAF LPPR 201700Z 2018/2118 30007KT CAVOK"
    },
    {
      "icao": "LPPS",
      "alert": "OK",
      "vis_m": 9999,
      "fzfg": false,
      "metar_trigger": false,
      "taf_trigger": false,
      "metar": "METAR LPPS 201900Z 27015KT 9999 FEW010 18/15 Q1003",
      "taf": "TAF LPPS 201700Z 2018/2124 27013KT 9999 SCT015"
    },
    {
      "icao": "LPPT",
      "alert": "OK",
      "vis_m": 9999,
      "fzfg": false,
      "metar_trigger": false,
      "taf_trigger": false,
      "metar": "METAR LPPT 201900Z 36003KT CAVOK 22/07 Q1008",
      "taf": "TAF LPPT 201700Z 2018/2124 25007KT CAVOK"
    },
    {
      "icao": "LQBK",
      "alert": "OK",
      "vis_m": 9999,
      "fzfg": false,
      "metar_trigger": false,
      "taf_trigger": false,
      "metar": "METAR LQBK 201930Z 28002KT 9999 RA SCT040 10/08 Q1015 TEMPO 5000 RA",
      "taf": ""
    },
    {
      "icao": "LQSA",
      "alert": "OK",
      "vis_m": 9999,
      "fzfg": false,
      "metar_trigger": false,
      "taf_trigger": false,
      "metar": "METAR LQSA 201930Z 32004KT 9999 SCT020 BKN060 10/09 Q1014 NOSIG",
      "taf": ""
    },
    {
      "icao": "LQTZ",
      "alert": "OK",
      "vis_m": 4000,
      "fzfg": false,
      "metar_trigger": false,
      "taf_trigger": false,
      "metar": "METAR LQTZ 201930Z VRB02KT 4000 BR FEW060 07/07 Q1015",
      "taf": "TAF LQTZ 201700Z 2018/2118 06007KT 9999 BKN045 TX16/2113Z TN06/2104Z"
    },
    {
      "icao": "LRBC",
      "alert": "OK",
      "vis_m": 9999,
      "fzfg": false,
      "metar_trigger": false,
      "taf_trigger": false,
      "metar": "METAR LRBC 201900Z 35017KT 9999 -RA OVC013 09/07 Q1011",
      "taf": "TAF LRBC 201700Z 2018/2103 35012KT 9999 BKN045"
    },
    {
      "icao": "LRBS",
      "alert": "OK",
      "vis_m": 9999,
      "fzfg": false,
      "metar_trigger": false,
      "taf_trigger": false,
      "metar": "METAR LRBS 201900Z 26005KT 230V360 CAVOK 15/09 Q1009 NOSIG",
      "taf": "TAF LRBS 201700Z 2018/2118 27010KT CAVOK"
    },
    {
      "icao": "LRBV",
      "alert": "OK",
      "vis_m": 8000,
      "fzfg": false,
      "metar_trigger": false,
      "taf_trigger": false,
      "metar": "METAR LRBV 201900Z VRB03KT 8000 -SHRA FEW007 BKN038 FEW040CB 09/07 Q1011",
      "taf": "TAF LRBV 201700Z 2018/2103 28008KT 9999 SCT060"
    },
    {
      "icao": "LRCL",
      "alert": "OK",
      "vis_m": 9999,
      "fzfg": false,
      "metar_trigger": false,
      "taf_trigger": false,
      "metar": "METAR LRCL 201900Z VRB02KT CAVOK 10/05 Q1011",
      "taf": "TAF LRCL 201700Z 2018/2103 35010KT CAVOK"
    },
    {
      "icao": "LRCV",
      "alert": "OK",
      "vis_m": 9999,
      "fzfg": false,
      "metar_trigger": false,
      "taf_trigger": false,
      "metar": "METAR LRCV 201900Z 30011KT CAVOK 14/04 Q1010",
      "taf": "TAF LRCV 201700Z 2018/2103 29012KT CAVOK"
    },
    {
      "icao": "LRIA",
      "alert": "OK",
      "vis_m": 9999,
      "fzfg": false,
      "metar_trigger": false,
      "taf_trigger": false,
      "metar": "METAR LRIA 201900Z 34014KT 9999 -RA BKN005 OVC016 07/05 Q1011",
      "taf": "TAF LRIA 201700Z 2018/2103 32010KT 9999 BKN035"
    },
    {
      "icao": "LROP",
      "alert": "OK",
      "vis_m": 9999,
      "fzfg": false,
      "metar_trigger": false,
      "taf_trigger": false,
      "metar": "METAR LROP 201900Z 34003KT 270V020 CAVOK 16/06 Q1009 NOSIG",
      "taf": "TAF LROP 201700Z 2018/2118 27010KT CAVOK"
    },
    {
      "icao": "LRSB",
      "alert": "OK",
      "vis_m": 9999,
      "fzfg": false,
      "metar_trigger": false,
      "taf_trigger": false,
      "metar": "METAR LRSB 201900Z 25006KT CAVOK 09/03 Q1011",
      "taf": "TAF LRSB 201700Z 2018/2118 29012KT CAVOK"
    },
    {
      "icao": "LRSM",
      "alert": "OK",
      "vis_m": 9999,
      "fzfg": false,
      "metar_trigger": false,
      "taf_trigger": false,
      "metar": "METAR LRSM 201900Z AUTO 31009KT 9999 -SHRA FEW046/// BKN060/// BKN080/// 10/05 Q1011",
      "taf": "TAF LRSM 201400Z 2015/2024 32008KT 9999 BKN045"
    },
    {
      "icao": "LRSV",
      "alert": "OK",
      "vis_m": 9999,
      "fzfg": false,
      "metar_trigger": false,
      "taf_trigger": false,
      "metar": "METAR LRSV 201900Z 01012KT 9999 -RA BKN003 BKN030 03/03 Q1012",
      "taf": "TAF LRSV 201700Z 2018/2103 35014KT 9999 BKN010"
    },
    {
      "icao": "LRTM",
      "alert": "OK",
      "vis_m": 9999,
      "fzfg": false,
      "metar_trigger": false,
      "taf_trigger": false,
      "metar": "METAR LRTM 201900Z VRB02KT 9999 FEW017 SCT035 FEW047CB 10/07 Q1011",
      "taf": "TAF LRTM 201700Z 2018/2103 VRB04KT CAVOK"
    },
    {
      "icao": "LRTR",
      "alert": "OK",
      "vis_m": 9999,
      "fzfg": false,
      "metar_trigger": false,
      "taf_trigger": false,
      "metar": "METAR LRTR 201900Z 27008KT CAVOK 12/06 Q1013 NOSIG",
      "taf": "TAF LRTR 201700Z 2018/2118 28008KT CAVOK"
    },
    {
      "icao": "LTAC",
      "alert": "OK",
      "vis_m": 9999,
      "fzfg": false,
      "metar_trigger": false,
      "taf_trigger": false,
      "metar": "METAR LTAC 201920Z 19004KT 160V260 CAVOK 08/01 Q1013 NOSIG RMK RWY21C VRB02KT RWY03L VRB02KT RWY21R 06003KT RWY03R 15006KT RWY21L VRB02KT",
      "taf": "TAF LTAC 201640Z 2018/2118 VRB02KT CAVOK"
    },
    {
      "icao": "LTFM",
      "alert": "OK",
      "vis_m": 9999,
      "fzfg": false,
      "metar_trigger": false,
      "taf_trigger": false,
      "metar": "METAR LTFM 201920Z 20008KT CAVOK 14/M07 Q1012 NOSIG RMK RWY17L 20011KT RWY34L 20008KT RWY16R 22006KT RWY36 21006KT RWY18 19008KT",
      "taf": "TAF LTFM 201640Z 2018/2124 20012KT CAVOK"
    },
    {
      "icao": "LUKK",
      "alert": "OK",
      "vis_m": 9999,
      "fzfg": false,
      "metar_trigger": false,
      "taf_trigger": false,
      "metar": "METAR LUKK 201930Z 03011KT 9999 -SHRA SCT008 BKN018CB 07/06 Q1010 NOSIG",
      "taf": "TAF LUKK 201704Z 2018/2118 36012KT 9999 BKN010"
    },
    {
      "icao": "LWOH",
      "alert": "OK",
      "vis_m": 9999,
      "fzfg": false,
      "metar_trigger": false,
      "taf_trigger": false,
      "metar": "METAR LWOH 201850Z 04003KT 340V110 9999 FEW040 12/07 Q1014",
      "taf": "TAF LWOH 201710Z 2018/2118 22008KT 9999 FEW045 SCT080"
    },
    {
      "icao": "LWSK",
      "alert": "OK",
      "vis_m": 9999,
      "fzfg": false,
      "metar_trigger": false,
      "taf_trigger": false,
      "metar": "METAR LWSK 201920Z 06004KT 040V100 CAVOK 14/08 Q1012 NOSIG",
      "taf": "TAF LWSK 201710Z 2018/2118 VRB03KT 9999 FEW050 SCT070"
    },
    {
      "icao": "LYBE",
      "alert": "OK",
      "vis_m": 9999,
      "fzfg": false,
      "metar_trigger": false,
      "taf_trigger": false,
      "metar": "METAR LYBE 201930Z 28004KT CAVOK 12/08 Q1015 NOSIG",
      "taf": "TAF LYBE 201700Z 2018/2118 25006KT 9999 SCT040 TX15/2114Z TN08/2104Z"
    },
    {
      "icao": "LYNI",
      "alert": "OK",
      "vis_m": 9999,
      "fzfg": false,
      "metar_trigger": false,
      "taf_trigger": false,
      "metar": "METAR LYNI 201930Z 09002KT 9999 FEW040 BKN075 11/08 Q1013 NOSIG",
      "taf": "TAF LYNI 201700Z 2018/2118 25004KT 9999 SCT060 TX12/2113Z TN05/2104Z"
    },
    {
      "icao": "LYPG",
      "alert": "OK",
      "vis_m": 9999,
      "fzfg": false,
      "metar_trigger": false,
      "taf_trigger": false,
      "metar": "METAR LYPG 201930Z VRB01KT 9999 FEW030 14/12 Q1014 NOSIG",
      "taf": "TAF LYPG 201700Z 2018/2118 32005KT 9999 SCT030 SCT080 TX20/2113Z TN12/2104Z"
    },
    {
      "icao": "LZIB",
      "alert": "OK",
      "vis_m": 9999,
      "fzfg": false,
      "metar_trigger": false,
      "taf_trigger": false,
      "metar": "METAR LZIB 201930Z 36005KT CAVOK 10/02 Q1014 NOSIG",
      "taf": "TAF LZIB 201715Z 2018/2118 34006KT 9999 FEW030"
    },
    {
      "icao": "LZKZ",
      "alert": "OK",
      "vis_m": 9999,
      "fzfg": false,
      "metar_trigger": false,
      "taf_trigger": false,
      "metar": "METAR LZKZ 201930Z 02011KT 9999 SCT042 09/03 Q1013 NOSIG",
      "taf": "TAF LZKZ 201715Z 2018/2118 02015KT CAVOK"
    },
    {
      "icao": "LZTT",
      "alert": "OK",
      "vis_m": 9999,
      "fzfg": false,
      "metar_trigger": false,
      "taf_trigger": false,
      "metar": "METAR LZTT 201930Z 19003KT 150V220 9999 FEW040 BKN060 04/02 Q1013",
      "taf": "TAF LZTT 201715Z 2018/2118 13007KT 9999 FEW045"
    },
    {
      "icao": "OEJN",
      "alert": "OK",
      "vis_m": 9999,
      "fzfg": false,
      "metar_trigger": false,
      "taf_trigger": false,
      "metar": "METAR OEJN 201900Z 34010KT CAVOK 28/18 Q1007 NOSIG",
      "taf": "TAF OEJN 201700Z 2018/2124 34010KT 7000 NSC"
    },
    {
      "icao": "OEMA",
      "alert": "OK",
      "vis_m": 9999,
      "fzfg": false,
      "metar_trigger": false,
      "taf_trigger": false,
      "metar": "METAR OEMA 201900Z 22011KT 9999 SCT045 30/13 Q1011 NOSIG",
      "taf": "TAF OEMA 201700Z 2018/2124 25006KT 9999 SCT040"
    },
    {
      "icao": "OJAI",
      "alert": "OK",
      "vis_m": 5000,
      "fzfg": false,
      "metar_trigger": false,
      "taf_trigger": false,
      "metar": "METAR OJAI 201900Z 27009KT 5000 HZ NSC 13/08 Q1014 NOSIG",
      "taf": "TAF OJAI 201653Z 2018/2124 28008KT 5000 HZ NSC"
    },
    {
      "icao": "OMAA",
      "alert": "OK",
      "vis_m": null,
      "fzfg": false,
      "metar_trigger": false,
      "taf_trigger": false,
      "metar": "",
      "taf": ""
    },
    {
      "icao": "OMDB",
      "alert": "OK",
      "vis_m": null,
      "fzfg": false,
      "metar_trigger": false,
      "taf_trigger": false,
      "metar": "",
      "taf": ""
    },
    {
      "icao": "UAAA",
      "alert": "OK",
      "vis_m": 5000,
      "fzfg": false,
      "metar_trigger": false,
      "taf_trigger": false,
      "metar": "METAR UAAA 201900Z VRB01MPS 5000 BR FU NSC 07/04 Q1014 NOSIG",
      "taf": "TAF UAAA 201703Z 2018/2118 19003MPS 9999 FEW050CB SCT100 TX22/2109Z TN03/2101Z"
    },
    {
      "icao": "UBBB",
      "alert": "OK",
      "vis_m": 9999,
      "fzfg": false,
      "metar_trigger": false,
      "taf_trigger": false,
      "metar": "METAR UBBB 201930Z 32014KT 9999 -SHRA SCT050CB 11/09 Q1014 NOSIG",
      "taf": "TAF UBBB 201705Z 2018/2118 34018G28KT 9999 FEW040CB BKN040 TX12/2110Z TN09/2100Z"
    },
    {
      "icao": "UDSG",
      "alert": "OK",
      "vis_m": 9999,
      "fzfg": false,
      "metar_trigger": false,
      "taf_trigger": false,
      "metar": "METAR UDSG 201900Z 08006KT 9999 -SHRA BKN033CB 06/03 Q1012 NOSIG",
      "taf": "TAF UDSG 201658Z 2018/2118 VRB06KT 9999 BKN040"
    },
    {
      "icao": "UDYZ",
      "alert": "OK",
      "vis_m": 9999,
      "fzfg": false,
      "metar_trigger": false,
      "taf_trigger": false,
      "metar": "METAR UDYZ 201900Z 30007KT 9999 -SHRA BKN043CB 11/07 Q1009 NOSIG",
      "taf": "TAF UDYZ 201700Z 2018/2118 04006KT 9999 BKN040"
    },
    {
      "icao": "UGKO",
      "alert": "OK",
      "vis_m": 9999,
      "fzfg": false,
      "metar_trigger": false,
      "taf_trigger": false,
      "metar": "METAR UGKO 201900Z VRB02KT 9999 SCT027 BKN058 09/08 Q1015 NOSIG",
      "taf": "TAF UGKO 201700Z 2018/2118 26006KT 9999 SCT023 BKN050 TX19/2110Z TN07/2103Z"
    }
  ]
}