{
  "ts_utc": "2026-05-17T22:35:07Z",
  "threshold_m": 150,
  "source": "stations_override.txt (ICAO list) + aviationweather.gov (METAR/TAF raw)",
  "station_count": 159,
  "stations": [
    {
      "icao": "BIKF",
      "alert": "OK",
      "vis_m": 9999,
      "fzfg": false,
      "metar_trigger": false,
      "taf_trigger": false,
      "metar": "METAR BIKF 172230Z 11008KT 9999 FEW027 SCT056 06/03 Q1010",
      "taf": "TAF BIKF 171959Z 1721/1821 14015KT 9999 SCT045 TX11/1815Z TN02/1805Z"
    },
    {
      "icao": "BKPR",
      "alert": "OK",
      "vis_m": 9999,
      "fzfg": false,
      "metar_trigger": false,
      "taf_trigger": false,
      "metar": "METAR BKPR 172230Z VRB02KT 9999 BKN040 10/07 Q1015 NOSIG",
      "taf": "TAF BKPR 171730Z 1718/1818 33005KT 9999 SCT030 BKN050"
    },
    {
      "icao": "EBCI",
      "alert": "OK",
      "vis_m": 9000,
      "fzfg": false,
      "metar_trigger": false,
      "taf_trigger": false,
      "metar": "METAR EBCI 172220Z 22005KT 9000 SCT040 10/09 Q1013 TEMPO 4500 RA",
      "taf": "TAF EBCI 171702Z 1718/1824 22006KT 9999 FEW020TCU SCT030"
    },
    {
      "icao": "EDDB",
      "alert": "OK",
      "vis_m": 9999,
      "fzfg": false,
      "metar_trigger": false,
      "taf_trigger": false,
      "metar": "METAR EDDB 172220Z AUTO 11005KT CAVOK 10/05 Q1015 NOSIG",
      "taf": "TAF EDDB 171700Z 1718/1818 14004KT CAVOK"
    },
    {
      "icao": "EDDH",
      "alert": "OK",
      "vis_m": 9999,
      "fzfg": false,
      "metar_trigger": false,
      "taf_trigger": false,
      "metar": "METAR EDDH 172220Z AUTO 09003KT CAVOK 12/08 Q1014 NOSIG",
      "taf": "TAF EDDH 171700Z 1718/1824 14006KT 9999 BKN045"
    },
    {
      "icao": "EDDK",
      "alert": "OK",
      "vis_m": 9999,
      "fzfg": false,
      "metar_trigger": false,
      "taf_trigger": false,
      "metar": "METAR EDDK 172220Z AUTO 11003KT 070V150 CAVOK 11/10 Q1013 NOSIG",
      "taf": "TAF EDDK 171700Z 1718/1824 14005KT CAVOK"
    },
    {
      "icao": "EDDN",
      "alert": "OK",
      "vis_m": 9999,
      "fzfg": false,
      "metar_trigger": false,
      "taf_trigger": false,
      "metar": "METAR EDDN 172220Z AUTO 11005KT CAVOK 07/03 Q1015",
      "taf": "TAF EDDN 171700Z 1718/1818 VRB03KT CAVOK"
    },
    {
      "icao": "EDDS",
      "alert": "OK",
      "vis_m": 9999,
      "fzfg": false,
      "metar_trigger": false,
      "taf_trigger": false,
      "metar": "METAR EDDS 172220Z AUTO VRB02KT CAVOK 08/04 Q1014",
      "taf": "TAF EDDS 171700Z 1718/1818 VRB03KT CAVOK"
    },
    {
      "icao": "EDFH",
      "alert": "OK",
      "vis_m": 9999,
      "fzfg": false,
      "metar_trigger": false,
      "taf_trigger": false,
      "metar": "METAR EDFH 172220Z 15005KT CAVOK 10/06 Q1013",
      "taf": "TAF EDFH 171700Z 1718/1818 18004KT 9999 SCT030"
    },
    {
      "icao": "EDJA",
      "alert": "OK",
      "vis_m": 9999,
      "fzfg": false,
      "metar_trigger": false,
      "taf_trigger": false,
      "metar": "METAR EDJA 172220Z AUTO 17003KT 9999 // SCT100/// BKN140/// 06/03 Q1015",
      "taf": "TAF EDJA 171700Z 1718/1803 VRB03KT CAVOK"
    },
    {
      "icao": "EDLW",
      "alert": "OK",
      "vis_m": 9999,
      "fzfg": false,
      "metar_trigger": false,
      "taf_trigger": false,
      "metar": "METAR EDLW 172220Z AUTO 17003KT 9999 // OVC053/// 12/09 Q1013",
      "taf": "TAF EDLW 171700Z 1718/1818 17006KT 9999 BKN040"
    },
    {
      "icao": "EDNY",
      "alert": "OK",
      "vis_m": 9999,
      "fzfg": false,
      "metar_trigger": false,
      "taf_trigger": false,
      "metar": "METAR EDNY 172220Z AUTO VRB01KT 9999 // BKN150/// 07/04 Q1015",
      "taf": "TAF EDNY 171700Z 1718/1803 VRB02KT CAVOK"
    },
    {
      "icao": "EDSB",
      "alert": "OK",
      "vis_m": 9999,
      "fzfg": false,
      "metar_trigger": false,
      "taf_trigger": false,
      "metar": "METAR EDSB 172220Z AUTO VRB02KT 9999 // OVC120/// 10/06 Q1014",
      "taf": "TAF EDSB 171700Z 1718/1818 VRB03KT CAVOK"
    },
    {
      "icao": "EETN",
      "alert": "OK",
      "vis_m": 9999,
      "fzfg": false,
      "metar_trigger": false,
      "taf_trigger": false,
      "metar": "METAR EETN 172220Z 12002KT CAVOK 05/04 Q1019 NOSIG",
      "taf": "TAF EETN 171730Z 1718/1818 34005KT CAVOK"
    },
    {
      "icao": "EFTU",
      "alert": "OK",
      "vis_m": 1100,
      "fzfg": false,
      "metar_trigger": false,
      "taf_trigger": false,
      "metar": "METAR EFTU 172220Z AUTO VRB02KT 1100 R26/1400D BCFG VV002 06/06 Q1019",
      "taf": ""
    },
    {
      "icao": "EGBB",
      "alert": "OK",
      "vis_m": 9999,
      "fzfg": false,
      "metar_trigger": false,
      "taf_trigger": false,
      "metar": "METAR EGBB 172220Z 21004KT 170V240 9999 -SHRA BKN040 09/06 Q1010",
      "taf": "TAF EGBB 171701Z 1718/1818 22008KT 9999 SCT040"
    },
    {
      "icao": "EGGP",
      "alert": "OK",
      "vis_m": 9999,
      "fzfg": false,
      "metar_trigger": false,
      "taf_trigger": false,
      "metar": "METAR EGGP 172220Z 16006KT 130V200 9999 -RA SCT041 09/05 Q1008",
      "taf": "TAF EGGP 171704Z 1718/1818 25012KT 9999 SCT020"
    },
    {
      "icao": "EGGW",
      "alert": "OK",
      "vis_m": 9999,
      "fzfg": false,
      "metar_trigger": false,
      "taf_trigger": false,
      "metar": "METAR EGGW 172220Z AUTO 22005KT 9999 NCD 08/05 Q1010",
      "taf": "TAF EGGW 171655Z 1718/1818 26012KT 9999 SCT035"
    },
    {
      "icao": "EGKK",
      "alert": "OK",
      "vis_m": 9999,
      "fzfg": false,
      "metar_trigger": false,
      "taf_trigger": false,
      "metar": "METAR EGKK 172220Z 23005KT CAVOK 08/06 Q1012",
      "taf": "TAF EGKK 171656Z 1718/1824 24012KT 9999 SCT030"
    },
    {
      "icao": "EGNM",
      "alert": "OK",
      "vis_m": 9999,
      "fzfg": false,
      "metar_trigger": false,
      "taf_trigger": false,
      "metar": "METAR EGNM 172220Z 13004KT 9999 SCT035 06/06 Q1008",
      "taf": ""
    },
    {
      "icao": "EGPD",
      "alert": "OK",
      "vis_m": 9999,
      "fzfg": false,
      "metar_trigger": false,
      "taf_trigger": false,
      "metar": "METAR EGPD 172220Z AUTO 25003KT 220V350 9999 FEW044 06/05 Q1006",
      "taf": ""
    },
    {
      "icao": "EGPF",
      "alert": "OK",
      "vis_m": 9999,
      "fzfg": false,
      "metar_trigger": false,
      "taf_trigger": false,
      "metar": "METAR EGPF 172220Z AUTO 36001KT 9999 -RA BKN024 BKN037 08/06 Q1006",
      "taf": ""
    },
    {
      "icao": "EHBK",
      "alert": "OK",
      "vis_m": 9999,
      "fzfg": false,
      "metar_trigger": false,
      "taf_trigger": false,
      "metar": "METAR EHBK 172225Z AUTO 29003KT 240V320 9999 -DZ SCT002 BKN012 FEW015CB OVC017 10/10 Q1012 REDZ",
      "taf": "TAF EHBK 171715Z 1718/1824 20008KT 9999 BKN045"
    },
    {
      "icao": "EHEH",
      "alert": "OK",
      "vis_m": 9999,
      "fzfg": false,
      "metar_trigger": false,
      "taf_trigger": false,
      "metar": "METAR EHEH 172225Z AUTO 16004KT 9999 -RA FEW015CB OVC050 11/10 Q1012 RERA REDZ BLU",
      "taf": "TAF EHEH 171751Z 1718/1824 21004KT 9999 SCT022 BKN030"
    },
    {
      "icao": "EKBI",
      "alert": "OK",
      "vis_m": 9999,
      "fzfg": false,
      "metar_trigger": false,
      "taf_trigger": false,
      "metar": "METAR EKBI 172220Z AUTO 11004KT 9999 BKN070/// 09/08 Q1014",
      "taf": "TAF EKBI 172027Z 1721/1821 13006KT 9999 BKN030"
    },
    {
      "icao": "EKCH",
      "alert": "OK",
      "vis_m": 9999,
      "fzfg": false,
      "metar_trigger": false,
      "taf_trigger": false,
      "metar": "METAR EKCH 172220Z AUTO 14011KT 9999 BKN073/// 10/06 Q1017 NOSIG",
      "taf": "TAF EKCH 172027Z 1721/1821 14012KT CAVOK"
    },
    {
      "icao": "ENAL",
      "alert": "OK",
      "vis_m": 9999,
      "fzfg": false,
      "metar_trigger": false,
      "taf_trigger": false,
      "metar": "METAR ENAL 172220Z AUTO 04007KT 9999 NCD 07/06 Q1012",
      "taf": "TAF ENAL 172000Z 1721/1806 28008KT 9999 FEW025 SCT045"
    },
    {
      "icao": "ENBR",
      "alert": "OK",
      "vis_m": 9999,
      "fzfg": false,
      "metar_trigger": false,
      "taf_trigger": false,
      "metar": "METAR ENBR 172220Z 11004KT 9999 -RA BKN039 08/06 Q1010 RMK WIND 1200FT 13016KT",
      "taf": "TAF ENBR 171700Z 1718/1818 21004KT 9999 FEW020 BKN045"
    },
    {
      "icao": "ENGM",
      "alert": "OK",
      "vis_m": 9999,
      "fzfg": false,
      "metar_trigger": false,
      "taf_trigger": false,
      "metar": "METAR ENGM 172220Z VRB02KT CAVOK 05/03 Q1015",
      "taf": "TAF ENGM 171700Z 1718/1818 19012KT 9999 BKN030"
    },
    {
      "icao": "ENHD",
      "alert": "OK",
      "vis_m": 4100,
      "fzfg": false,
      "metar_trigger": false,
      "taf_trigger": false,
      "metar": "METAR ENHD 172220Z AUTO 13010KT 4100 +RA VV012 09/08 Q1010 REDZRA",
      "taf": "TAF ENHD 171400Z 1715/1722 19015KT 9999 SCT040"
    },
    {
      "icao": "ENTC",
      "alert": "OK",
      "vis_m": 9999,
      "fzfg": false,
      "metar_trigger": false,
      "taf_trigger": false,
      "metar": "METAR ENTC 172220Z 02012KT 9999 -SHRA SCT065 06/01 Q1011 RMK WIND 2600FT 10009KT",
      "taf": "TAF ENTC 171700Z 1718/1818 04010KT 9999 FEW030 BKN050"
    },
    {
      "icao": "ENTO",
      "alert": "OK",
      "vis_m": 9999,
      "fzfg": false,
      "metar_trigger": false,
      "taf_trigger": false,
      "metar": "METAR ENTO 172220Z AUTO 16007KT 9999 -RA FEW010/// SCT046/// 09/09 Q1015",
      "taf": "TAF ENTO 171700Z 1718/1818 20012KT 9999 BKN040"
    },
    {
      "icao": "ENVA",
      "alert": "OK",
      "vis_m": 9999,
      "fzfg": false,
      "metar_trigger": false,
      "taf_trigger": false,
      "metar": "METAR ENVA 172220Z 14004KT CAVOK 07/06 Q1014 RMK WIND 670FT 14008KT",
      "taf": "TAF ENVA 171700Z 1718/1818 24010KT 9999 SCT050"
    },
    {
      "icao": "ENZV",
      "alert": "OK",
      "vis_m": 8000,
      "fzfg": false,
      "metar_trigger": false,
      "taf_trigger": false,
      "metar": "METAR ENZV 172220Z 14007KT 8000 RA FEW009 BKN021 09/08 Q1011",
      "taf": "TAF ENZV 171700Z 1718/1818 16012KT 9999 FEW020 SCT040"
    },
    {
      "icao": "EPGD",
      "alert": "OK",
      "vis_m": 9999,
      "fzfg": false,
      "metar_trigger": false,
      "taf_trigger": false,
      "metar": "METAR EPGD 172230Z 03004KT 350V050 CAVOK 09/06 Q1018",
      "taf": "TAF EPGD 171730Z 1718/1818 05008KT CAVOK"
    },
    {
      "icao": "EPKK",
      "alert": "OK",
      "vis_m": 9999,
      "fzfg": false,
      "metar_trigger": false,
      "taf_trigger": false,
      "metar": "METAR EPKK 172230Z 25006KT 9999 BKN006 BKN010 08/07 Q1015",
      "taf": "TAF EPKK 172030Z 1721/1821 25007KT 8000 SCT007 BKN013"
    },
    {
      "icao": "EPKT",
      "alert": "OK",
      "vis_m": 2600,
      "fzfg": false,
      "metar_trigger": false,
      "taf_trigger": false,
      "metar": "METAR EPKT 172230Z 29003KT 270V330 2600 -DZ BR OVC003 07/07 Q1015",
      "taf": "TAF EPKT 171730Z 1718/1818 31006KT 9999 OVC007"
    },
    {
      "icao": "EPLB",
      "alert": "OK",
      "vis_m": 9999,
      "fzfg": false,
      "metar_trigger": false,
      "taf_trigger": false,
      "metar": "METAR EPLB 172230Z 31007KT 9999 OVC007 11/11 Q1012",
      "taf": ""
    },
    {
      "icao": "EPMO",
      "alert": "OK",
      "vis_m": 9999,
      "fzfg": false,
      "metar_trigger": false,
      "taf_trigger": false,
      "metar": "METAR EPMO 172230Z 34006KT 310V010 9999 BKN024 11/05 Q1015",
      "taf": "TAF EPMO 171730Z 1718/1818 01012KT 9999 BKN025"
    },
    {
      "icao": "EPPO",
      "alert": "OK",
      "vis_m": 9999,
      "fzfg": false,
      "metar_trigger": false,
      "taf_trigger": false,
      "metar": "METAR EPPO 172230Z 11002KT 9999 -RA NSC 09/08 Q1017",
      "taf": "TAF EPPO 171730Z 1718/1818 15006KT 9999 BKN050"
    },
    {
      "icao": "EPRA",
      "alert": "OK",
      "vis_m": 8000,
      "fzfg": false,
      "metar_trigger": false,
      "taf_trigger": false,
      "metar": "METAR EPRA 172230Z 33005KT 8000 OVC006 09/08 Q1014",
      "taf": "TAF EPRA 172030Z 1721/1806 34006KT 9999 OVC007"
    },
    {
      "icao": "EPRZ",
      "alert": "OK",
      "vis_m": 3200,
      "fzfg": false,
      "metar_trigger": false,
      "taf_trigger": false,
      "metar": "METAR EPRZ 172230Z 31007KT 3200 -DZ BR OVC002 11/11 Q1013",
      "taf": "TAF EPRZ 171730Z 1718/1818 29007KT 5000 BR OVC002"
    },
    {
      "icao": "EPSC",
      "alert": "OK",
      "vis_m": 9999,
      "fzfg": false,
      "metar_trigger": false,
      "taf_trigger": false,
      "metar": "METAR EPSC 172230Z 09007KT CAVOK 12/06 Q1016",
      "taf": ""
    },
    {
      "icao": "EPSY",
      "alert": "OK",
      "vis_m": 9999,
      "fzfg": false,
      "metar_trigger": false,
      "taf_trigger": false,
      "metar": "METAR EPSY 172200Z 01011KT CAVOK 09/04 Q1015",
      "taf": "TAF EPSY 172030Z 1721/1806 35010KT 9999 BKN040"
    },
    {
      "icao": "EPWA",
      "alert": "OK",
      "vis_m": 9999,
      "fzfg": false,
      "metar_trigger": false,
      "taf_trigger": false,
      "metar": "METAR EPWA 172230Z 35007KT 9999 BKN022 12/04 Q1014 NOSIG",
      "taf": "TAF EPWA 172030Z 1721/1821 36005KT 9999 BKN020"
    },
    {
      "icao": "EPWR",
      "alert": "OK",
      "vis_m": 9999,
      "fzfg": false,
      "metar_trigger": false,
      "taf_trigger": false,
      "metar": "METAR EPWR 172230Z VRB02KT CAVOK 09/08 Q1016",
      "taf": "TAF EPWR 172030Z 1721/1821 15010KT 9999 BKN017"
    },
    {
      "icao": "ESGG",
      "alert": "OK",
      "vis_m": 9999,
      "fzfg": false,
      "metar_trigger": false,
      "taf_trigger": false,
      "metar": "METAR ESGG 172220Z 15006KT CAVOK 09/05 Q1016",
      "taf": "TAF ESGG 172030Z 1721/1821 15005KT CAVOK"
    },
    {
      "icao": "ESKN",
      "alert": "OK",
      "vis_m": 9999,
      "fzfg": false,
      "metar_trigger": false,
      "taf_trigger": false,
      "metar": "METAR ESKN 172220Z 00000KT CAVOK 06/05 Q1018",
      "taf": "TAF ESKN 172030Z 1721/1821 17005KT CAVOK"
    },
    {
      "icao": "ESMS",
      "alert": "OK",
      "vis_m": 9999,
      "fzfg": false,
      "metar_trigger": false,
      "taf_trigger": false,
      "metar": "METAR ESMS 172220Z 11007KT CAVOK 08/05 Q1017",
      "taf": "TAF ESMS 172027Z 1721/1821 12008KT CAVOK"
    },
    {
      "icao": "ESSA",
      "alert": "OK",
      "vis_m": 9999,
      "fzfg": false,
      "metar_trigger": false,
      "taf_trigger": false,
      "metar": "METAR ESSA 172220Z VRB03KT CAVOK 09/06 Q1017 NOSIG",
      "taf": "TAF ESSA 172030Z 1721/1821 19005KT CAVOK"
    },
    {
      "icao": "EYKA",
      "alert": "OK",
      "vis_m": 9999,
      "fzfg": false,
      "metar_trigger": false,
      "taf_trigger": false,
      "metar": "METAR EYKA 172220Z 35008KT CAVOK 11/04 Q1015",
      "taf": "TAF EYKA 171700Z 1718/1818 36010KT 9000 SCT020"
    },
    {
      "icao": "EYPA",
      "alert": "OK",
      "vis_m": 9999,
      "fzfg": false,
      "metar_trigger": false,
      "taf_trigger": false,
      "metar": "METAR EYPA 172220Z AUTO 02005KT 9999 FEW074/// BKN095/// 08/05 Q1018",
      "taf": "TAF EYPA 171700Z 1718/1818 VRB03KT 8000 NSC"
    },
    {
      "icao": "EYVI",
      "alert": "OK",
      "vis_m": 9999,
      "fzfg": false,
      "metar_trigger": false,
      "taf_trigger": false,
      "metar": "METAR EYVI 172220Z 36007KT CAVOK 14/11 Q1013 NOSIG",
      "taf": "TAF EYVI 171700Z 1718/1818 35012KT 9000 NSC"
    },
    {
      "icao": "GCFV",
      "alert": "OK",
      "vis_m": 9999,
      "fzfg": false,
      "metar_trigger": false,
      "taf_trigger": false,
      "metar": "METAR GCFV 172200Z 01012KT 9999 FEW035 19/10 Q1021",
      "taf": "TAF GCFV 172000Z 1721/1821 36014KT 9999 BKN030 TX23/1814Z TN17/1806Z"
    },
    {
      "icao": "GCLP",
      "alert": "OK",
      "vis_m": 9999,
      "fzfg": false,
      "metar_trigger": false,
      "taf_trigger": false,
      "metar": "METAR GCLP 172200Z 35016KT 9999 FEW035 SCT045 19/11 Q1022 NOSIG",
      "taf": "TAF GCLP 172000Z 1721/1821 01017KT 9999 SCT030 TX23/1814Z TN18/1806Z"
    },
    {
      "icao": "GCTS",
      "alert": "OK",
      "vis_m": 9999,
      "fzfg": false,
      "metar_trigger": false,
      "taf_trigger": false,
      "metar": "METAR GCTS 172200Z 07012KT 9999 SCT044 19/09 Q1022 NOSIG",
      "taf": "TAF GCTS 172000Z 1721/1821 05018KT 9999 SCT040 TX24/1814Z TN16/1806Z"
    },
    {
      "icao": "GMAD",
      "alert": "OK",
      "vis_m": 9999,
      "fzfg": false,
      "metar_trigger": false,
      "taf_trigger": false,
      "metar": "METAR GMAD 172230Z 22004KT 180V260 CAVOK 17/12 Q1016 NOSIG",
      "taf": "TAF GMAD 171700Z 1718/1824 18006KT 8000 FEW020"
    },
    {
      "icao": "GMMN",
      "alert": "OK",
      "vis_m": 9999,
      "fzfg": false,
      "metar_trigger": false,
      "taf_trigger": false,
      "metar": "METAR GMMN 172230Z 01006KT 340V040 9999 BKN026 16/12 Q1020 NOSIG",
      "taf": "TAF GMMN 171700Z 1718/1824 34014KT 9999 SCT026"
    },
    {
      "icao": "GMMX",
      "alert": "OK",
      "vis_m": 9999,
      "fzfg": false,
      "metar_trigger": false,
      "taf_trigger": false,
      "metar": "METAR GMMX 172230Z 05009KT 020V090 9999 SCT026 BKN080 17/11 Q1019 NOSIG",
      "taf": "TAF GMMX 171700Z 1718/1824 04006KT 8000 SCT026 SCT090"
    },
    {
      "icao": "HEGN",
      "alert": "OK",
      "vis_m": 9999,
      "fzfg": false,
      "metar_trigger": false,
      "taf_trigger": false,
      "metar": "METAR HEGN 172200Z 00000KT CAVOK 29/14 Q1009 NOSIG",
      "taf": ""
    },
    {
      "icao": "HEMA",
      "alert": "OK",
      "vis_m": 9999,
      "fzfg": false,
      "metar_trigger": false,
      "taf_trigger": false,
      "metar": "METAR HEMA 172200Z 13002KT CAVOK 28/05 Q1009 NOSIG",
      "taf": ""
    },
    {
      "icao": "HESH",
      "alert": "OK",
      "vis_m": 9999,
      "fzfg": false,
      "metar_trigger": false,
      "taf_trigger": false,
      "metar": "METAR HESH 172200Z 15004KT CAVOK 26/20 Q1009 NOSIG",
      "taf": ""
    },
    {
      "icao": "HESX",
      "alert": "OK",
      "vis_m": 9999,
      "fzfg": false,
      "metar_trigger": false,
      "taf_trigger": false,
      "metar": "METAR HESX 172200Z 36007KT CAVOK 25/11 Q1010 NOSIG",
      "taf": ""
    },
    {
      "icao": "LATI",
      "alert": "OK",
      "vis_m": 9999,
      "fzfg": false,
      "metar_trigger": false,
      "taf_trigger": false,
      "metar": "METAR LATI 172220Z 13004KT 9999 BKN080 15/10 Q1014 NOSIG",
      "taf": "TAF LATI 171700Z 1718/1818 VRB03KT 9999 SCT040 TX24/1811Z TN09/1804Z"
    },
    {
      "icao": "LBPD",
      "alert": "OK",
      "vis_m": 9999,
      "fzfg": false,
      "metar_trigger": false,
      "taf_trigger": false,
      "metar": "METAR LBPD 172230Z AUTO 28017KT 9999 OVC061/// 14/08 Q1010",
      "taf": "TAF LBPD 171700Z 1718/1818 29018KT 9999 SCT020 BKN050"
    },
    {
      "icao": "LBSF",
      "alert": "OK",
      "vis_m": 9999,
      "fzfg": false,
      "metar_trigger": false,
      "taf_trigger": false,
      "metar": "METAR LBSF 172230Z AUTO 29012KT 9999 SCT014/// OVC019/// 10/07 Q1013 NOSIG",
      "taf": "TAF LBSF 171700Z 1718/1818 29012KT 9999 SCT015 BKN025 OVC040"
    },
    {
      "icao": "LBWN",
      "alert": "OK",
      "vis_m": 9999,
      "fzfg": false,
      "metar_trigger": false,
      "taf_trigger": false,
      "metar": "METAR LBWN 172230Z AUTO 26008KT 9999 NCD 12/11 Q1008 NOSIG",
      "taf": "TAF LBWN 171700Z 1718/1818 30010KT 9999 SCT020 BKN045"
    },
    {
      "icao": "LCLK",
      "alert": "OK",
      "vis_m": 9999,
      "fzfg": false,
      "metar_trigger": false,
      "taf_trigger": false,
      "metar": "METAR LCLK 172230Z 22005KT CAVOK 19/14 Q1005 NOSIG",
      "taf": "TAF LCLK 171730Z 1718/1818 20011KT 9999 FEW015"
    },
    {
      "icao": "LCPH",
      "alert": "OK",
      "vis_m": 9999,
      "fzfg": false,
      "metar_trigger": false,
      "taf_trigger": false,
      "metar": "METAR LCPH 172230Z 34006KT CAVOK 20/18 Q1005 NOSIG",
      "taf": "TAF LCPH 171730Z 1718/1818 16007KT 9999 SCT015"
    },
    {
      "icao": "LEAL",
      "alert": "OK",
      "vis_m": 9999,
      "fzfg": false,
      "metar_trigger": false,
      "taf_trigger": false,
      "metar": "METAR LEAL 172200Z 27005KT CAVOK 18/13 Q1017 NOSIG",
      "taf": ""
    },
    {
      "icao": "LEBB",
      "alert": "OK",
      "vis_m": 7000,
      "fzfg": false,
      "metar_trigger": false,
      "taf_trigger": false,
      "metar": "METAR LEBB 172200Z AUTO 30005KT 240V340 7000 -RA SCT024 BKN043 OVC050 13/12 Q1020",
      "taf": "TAF LEBB 171700Z 1718/1818 VRB03KT 9999 SCT025 TX19/1814Z TN10/1805Z"
    },
    {
      "icao": "LEBL",
      "alert": "OK",
      "vis_m": 9999,
      "fzfg": false,
      "metar_trigger": false,
      "taf_trigger": false,
      "metar": "METAR LEBL 172200Z 34003KT 9999 FEW025 16/13 Q1017 NOSIG",
      "taf": "TAF LEBL 171700Z 1718/1818 22010KT 9999 FEW040 TX21/1812Z TN15/1806Z"
    },
    {
      "icao": "LECH",
      "alert": "OK",
      "vis_m": 9000,
      "fzfg": false,
      "metar_trigger": false,
      "taf_trigger": false,
      "metar": "METAR LECH 172200Z AUTO 19003KT 140V250 9000 NSC 15/12 Q1017",
      "taf": ""
    },
    {
      "icao": "LEMD",
      "alert": "OK",
      "vis_m": 9999,
      "fzfg": false,
      "metar_trigger": false,
      "taf_trigger": false,
      "metar": "METAR LEMD 172200Z 18005KT 150V210 CAVOK 15/08 Q1016 NOSIG",
      "taf": "TAF LEMD 171700Z 1718/1824 36006KT CAVOK TX25/1816Z TN07/1805Z"
    },
    {
      "icao": "LEMG",
      "alert": "OK",
      "vis_m": 9999,
      "fzfg": false,
      "metar_trigger": false,
      "taf_trigger": false,
      "metar": "METAR LEMG 172200Z 30007KT CAVOK 16/12 Q1017 NOSIG",
      "taf": "TAF LEMG 171700Z 1718/1818 VRB03KT 9999 FEW030 TX27/1814Z TN12/1806Z"
    },
    {
      "icao": "LEVC",
      "alert": "OK",
      "vis_m": 9999,
      "fzfg": false,
      "metar_trigger": false,
      "taf_trigger": false,
      "metar": "METAR LEVC 172200Z 27005KT 9999 FEW050 16/13 Q1016 NOSIG",
      "taf": ""
    },
    {
      "icao": "LEXJ",
      "alert": "OK",
      "vis_m": 9999,
      "fzfg": false,
      "metar_trigger": false,
      "taf_trigger": false,
      "metar": "METAR LEXJ 172200Z AUTO 22001KT 9999 3700E SCT038 BKN044 OVC050 13/11 Q1020",
      "taf": "TAF LEXJ 172000Z 1721/1821 23005KT 9999 FEW020 SCT040 TX19/1813Z TN10/1805Z"
    },
    {
      "icao": "LEZG",
      "alert": "OK",
      "vis_m": 9999,
      "fzfg": false,
      "metar_trigger": false,
      "taf_trigger": false,
      "metar": "METAR LEZG 172200Z 27010KT CAVOK 15/09 Q1017 NOSIG",
      "taf": ""
    },
    {
      "icao": "LEZL",
      "alert": "OK",
      "vis_m": 9999,
      "fzfg": false,
      "metar_trigger": false,
      "taf_trigger": false,
      "metar": "METAR LEZL 172200Z 20005KT 170V230 CAVOK 18/12 Q1017 NOSIG",
      "taf": "TAF LEZL 172000Z 1721/1821 24012KT CAVOK TX28/1815Z TN13/1806Z"
    },
    {
      "icao": "LFBD",
      "alert": "OK",
      "vis_m": 9999,
      "fzfg": false,
      "metar_trigger": false,
      "taf_trigger": false,
      "metar": "METAR LFBD 172230Z AUTO 25004KT 9999 BKN033 OVC070 12/09 Q1019 NOSIG",
      "taf": "TAF LFBD 171700Z 1718/1824 30010KT CAVOK TX19/1813Z TN09/1806Z"
    },
    {
      "icao": "LFLL",
      "alert": "OK",
      "vis_m": 9999,
      "fzfg": false,
      "metar_trigger": false,
      "taf_trigger": false,
      "metar": "METAR LFLL 172200Z 28007KT 270V070 CAVOK 14/08 Q1016 NOSIG",
      "taf": "TAF LFLL 171700Z 1718/1824 VRB04KT CAVOK"
    },
    {
      "icao": "LFLS",
      "alert": "OK",
      "vis_m": 9999,
      "fzfg": false,
      "metar_trigger": false,
      "taf_trigger": false,
      "metar": "METAR LFLS 172230Z AUTO 18004KT 9999 BKN062 BKN086 10/07 Q1016",
      "taf": "TAF LFLS 171400Z 1715/1815 09007KT 9999 FEW060 SCT120"
    },
    {
      "icao": "LFMN",
      "alert": "OK",
      "vis_m": 9999,
      "fzfg": false,
      "metar_trigger": false,
      "taf_trigger": false,
      "metar": "METAR LFMN 172230Z 33006KT CAVOK 15/06 Q1015 NOSIG",
      "taf": "TAF LFMN 172000Z 1721/1903 VRB03KT CAVOK"
    },
    {
      "icao": "LFOB",
      "alert": "OK",
      "vis_m": 9999,
      "fzfg": false,
      "metar_trigger": false,
      "taf_trigger": false,
      "metar": "METAR LFOB 172230Z AUTO VRB03KT 9999 4100 NSC 08/08 Q1014 NOSIG",
      "taf": "TAF LFOB 171700Z 1718/1818 VRB03KT 9999 SCT025"
    },
    {
      "icao": "LFPO",
      "alert": "OK",
      "vis_m": 9999,
      "fzfg": false,
      "metar_trigger": false,
      "taf_trigger": false,
      "metar": "METAR LFPO 172230Z AUTO 28006KT 9999 FEW045/// BKN060/// OVC072/// ///CB 11/09 Q1014 BECMG NSC",
      "taf": "TAF LFPO 171700Z 1718/1824 29010KT 9999 SCT025"
    },
    {
      "icao": "LFSB",
      "alert": "OK",
      "vis_m": 9999,
      "fzfg": false,
      "metar_trigger": false,
      "taf_trigger": false,
      "metar": "METAR LFSB 172230Z AUTO 17005KT CAVOK 10/06 Q1014 NOSIG",
      "taf": "TAF LFSB 171700Z 1718/1818 24005KT 9999 FEW050 BKN080"
    },
    {
      "icao": "LGAV",
      "alert": "OK",
      "vis_m": 9999,
      "fzfg": false,
      "metar_trigger": false,
      "taf_trigger": false,
      "metar": "METAR LGAV 172220Z VRB02KT 9999 FEW030 14/10 Q1010 NOSIG",
      "taf": "TAF LGAV 171700Z 1718/1818 VRB05KT 9999 FEW030"
    },
    {
      "icao": "LGTS",
      "alert": "OK",
      "vis_m": 9999,
      "fzfg": false,
      "metar_trigger": false,
      "taf_trigger": false,
      "metar": "METAR LGTS 172220Z 34012KT 9999 FEW025 18/10 Q1010 NOSIG",
      "taf": "TAF LGTS 171700Z 1718/1818 33015KT 9999 FEW030"
    },
    {
      "icao": "LHBP",
      "alert": "OK",
      "vis_m": 9999,
      "fzfg": false,
      "metar_trigger": false,
      "taf_trigger": false,
      "metar": "METAR LHBP 172230Z 32006KT 9999 -SHRA SCT040 BKN057 10/08 Q1012 NOSIG",
      "taf": "TAF LHBP 171715Z 1718/1818 32013KT 9999 FEW015 BKN050"
    },
    {
      "icao": "LHDC",
      "alert": "OK",
      "vis_m": 9999,
      "fzfg": false,
      "metar_trigger": false,
      "taf_trigger": false,
      "metar": "METAR LHDC 172215Z AUTO VRB02KT CAVOK 13/09 Q1011 NOSIG",
      "taf": "TAF LHDC 172015Z 1721/1806 VRB03KT 9999 BKN030"
    },
    {
      "icao": "LIBD",
      "alert": "OK",
      "vis_m": 9999,
      "fzfg": false,
      "metar_trigger": false,
      "taf_trigger": false,
      "metar": "METAR LIBD 172220Z AUTO 22006KT 9999 NCD 10/08 Q1015",
      "taf": "TAF LIBD 171700Z 1718/1818 28007KT CAVOK"
    },
    {
      "icao": "LIBG",
      "alert": "OK",
      "vis_m": null,
      "fzfg": false,
      "metar_trigger": false,
      "taf_trigger": false,
      "metar": "",
      "taf": "TAF LIBG 171400Z 1715/1724 33012KT 9999 FEW040"
    },
    {
      "icao": "LIBP",
      "alert": "OK",
      "vis_m": 9999,
      "fzfg": false,
      "metar_trigger": false,
      "taf_trigger": false,
      "metar": "METAR LIBP 172220Z AUTO 24003KT 9999 OVC079/// 15/09 Q1015",
      "taf": "TAF LIBP 171700Z 1718/1818 VRB05KT CAVOK"
    },
    {
      "icao": "LIBR",
      "alert": "OK",
      "vis_m": 9999,
      "fzfg": false,
      "metar_trigger": false,
      "taf_trigger": false,
      "metar": "METAR LIBR 172220Z 28006KT CAVOK 14/10 Q1014",
      "taf": "TAF LIBR 171700Z 1718/1818 33013KT CAVOK"
    },
    {
      "icao": "LICA",
      "alert": "OK",
      "vis_m": 9999,
      "fzfg": false,
      "metar_trigger": false,
      "taf_trigger": false,
      "metar": "METAR LICA 172220Z AUTO 04003KT 360V070 9999 FEW034/// 12/10 Q1016",
      "taf": "TAF LICA 171700Z 1718/1818 26012KT 9999 FEW040"
    },
    {
      "icao": "LICC",
      "alert": "OK",
      "vis_m": 9999,
      "fzfg": false,
      "metar_trigger": false,
      "taf_trigger": false,
      "metar": "METAR LICC 172220Z 05006KT 9999 SCT050 18/10 Q1016",
      "taf": "TAF LICC 171700Z 1718/1818 VRB05KT 9999 SCT040"
    },
    {
      "icao": "LICJ",
      "alert": "OK",
      "vis_m": 9999,
      "fzfg": false,
      "metar_trigger": false,
      "taf_trigger": false,
      "metar": "METAR LICJ 172220Z 07004KT CAVOK 16/11 Q1016",
      "taf": "TAF LICJ 171700Z 1718/1818 VRB05KT CAVOK"
    },
    {
      "icao": "LIMC",
      "alert": "OK",
      "vis_m": 9999,
      "fzfg": false,
      "metar_trigger": false,
      "taf_trigger": false,
      "metar": "METAR LIMC 172220Z 20003KT 160V220 CAVOK 13/05 Q1014 NOSIG",
      "taf": "TAF LIMC 171700Z 1718/1824 VRB05KT 9999 FEW060"
    },
    {
      "icao": "LIME",
      "alert": "OK",
      "vis_m": 9999,
      "fzfg": false,
      "metar_trigger": false,
      "taf_trigger": false,
      "metar": "METAR LIME 172220Z 34005KT CAVOK 13/05 Q1014 NOSIG",
      "taf": "TAF LIME 171700Z 1718/1818 VRB06KT 9999 SCT065"
    },
    {
      "icao": "LIMF",
      "alert": "OK",
      "vis_m": 9999,
      "fzfg": false,
      "metar_trigger": false,
      "taf_trigger": false,
      "metar": "METAR LIMF 172220Z 35005KT 9999 SCT110 14/06 Q1014",
      "taf": "TAF LIMF 171700Z 1718/1818 VRB05KT 9999 SCT070"
    },
    {
      "icao": "LIMJ",
      "alert": "OK",
      "vis_m": 9999,
      "fzfg": false,
      "metar_trigger": false,
      "taf_trigger": false,
      "metar": "METAR LIMJ 172220Z 06003KT CAVOK 15/10 Q1015",
      "taf": "TAF LIMJ 171700Z 1718/1818 18007KT 9999 SCT020"
    },
    {
      "icao": "LIPE",
      "alert": "OK",
      "vis_m": 9999,
      "fzfg": false,
      "metar_trigger": false,
      "taf_trigger": false,
      "metar": "METAR LIPE 172220Z VRB02KT CAVOK 16/07 Q1014",
      "taf": "TAF LIPE 171700Z 1718/1818 VRB05KT 9999 FEW040"
    },
    {
      "icao": "LIPH",
      "alert": "OK",
      "vis_m": 9999,
      "fzfg": false,
      "metar_trigger": false,
      "taf_trigger": false,
      "metar": "METAR LIPH 172220Z AUTO 02004KT 9999 FEW056/// 13/10 Q1015",
      "taf": "TAF LIPH 171700Z 1718/1818 VRB05KT 9999 SCT030"
    },
    {
      "icao": "LIPQ",
      "alert": "OK",
      "vis_m": 9999,
      "fzfg": false,
      "metar_trigger": false,
      "taf_trigger": false,
      "metar": "METAR LIPQ 172220Z AUTO 10004KT 9999 BKN100/// 11/08 Q1015",
      "taf": "TAF LIPQ 171700Z 1718/1818 VRB05KT CAVOK"
    },
    {
      "icao": "LIPR",
      "alert": "OK",
      "vis_m": 9999,
      "fzfg": false,
      "metar_trigger": false,
      "taf_trigger": false,
      "metar": "METAR LIPR 172220Z AUTO VRB02KT 9999 BKN110/// 12/11 Q1014",
      "taf": "TAF LIPR 171700Z 1718/1818 VRB05KT 9999 FEW040"
    },
    {
      "icao": "LIPX",
      "alert": "OK",
      "vis_m": 9999,
      "fzfg": false,
      "metar_trigger": false,
      "taf_trigger": false,
      "metar": "METAR LIPX 172220Z VRB02KT CAVOK 13/07 Q1014",
      "taf": "TAF LIPX 171700Z 1718/1818 VRB06KT 9999 FEW040"
    },
    {
      "icao": "LIPY",
      "alert": "OK",
      "vis_m": 9999,
      "fzfg": false,
      "metar_trigger": false,
      "taf_trigger": false,
      "metar": "METAR LIPY 172220Z AUTO 19004KT 9999 FEW086/// BKN110/// 15/10 Q1014",
      "taf": "TAF LIPY 171700Z 1718/1818 VRB05KT 9999 FEW040"
    },
    {
      "icao": "LIPZ",
      "alert": "OK",
      "vis_m": 9999,
      "fzfg": false,
      "metar_trigger": false,
      "taf_trigger": false,
      "metar": "METAR LIPZ 172220Z VRB02KT CAVOK 14/12 Q1015 NOSIG",
      "taf": "TAF LIPZ 171700Z 1718/1824 VRB05KT 9999 SCT030"
    },
    {
      "icao": "LIRF",
      "alert": "OK",
      "vis_m": 9999,
      "fzfg": false,
      "metar_trigger": false,
      "taf_trigger": false,
      "metar": "METAR LIRF 172220Z 08005KT CAVOK 12/10 Q1016 NOSIG",
      "taf": "TAF LIRF 171700Z 1718/1824 VRB05KT CAVOK"
    },
    {
      "icao": "LIRN",
      "alert": "OK",
      "vis_m": 9999,
      "fzfg": false,
      "metar_trigger": false,
      "taf_trigger": false,
      "metar": "METAR LIRN 172220Z 06002KT CAVOK 15/10 Q1016 NOSIG",
      "taf": "TAF LIRN 171700Z 1718/1818 VRB05KT CAVOK"
    },
    {
      "icao": "LIRP",
      "alert": "OK",
      "vis_m": 9999,
      "fzfg": false,
      "metar_trigger": false,
      "taf_trigger": false,
      "metar": "METAR LIRP 172215Z 26002KT CAVOK 11/09 Q1015 NOSIG",
      "taf": "TAF LIRP 171700Z 1718/1818 VRB03KT 9999 FEW060"
    },
    {
      "icao": "LIRZ",
      "alert": "OK",
      "vis_m": 9999,
      "fzfg": false,
      "metar_trigger": false,
      "taf_trigger": false,
      "metar": "METAR LIRZ 172220Z AUTO 02004KT 9999 FEW063/// 09/08 Q1016",
      "taf": "TAF LIRZ 171700Z 1718/1818 VRB05KT 9999 SCT040"
    },
    {
      "icao": "LJLJ",
      "alert": "OK",
      "vis_m": 9999,
      "fzfg": false,
      "metar_trigger": false,
      "taf_trigger": false,
      "metar": "METAR LJLJ 172200Z 28005KT 9999 BKN080 10/05 Q1016 NOSIG",
      "taf": "TAF LJLJ 171700Z 1718/1818 VRB02KT 9999 FEW070"
    },
    {
      "icao": "LKMT",
      "alert": "OK",
      "vis_m": 8000,
      "fzfg": false,
      "metar_trigger": false,
      "taf_trigger": false,
      "metar": "METAR LKMT 172230Z 07003KT 8000 -RA BKN008 07/07 Q1016 NOSIG",
      "taf": "TAF LKMT 171700Z 1718/1818 01005KT 9999 -RA BKN020 OVC030"
    },
    {
      "icao": "LKPR",
      "alert": "OK",
      "vis_m": 9999,
      "fzfg": false,
      "metar_trigger": false,
      "taf_trigger": false,
      "metar": "METAR LKPR 172230Z VRB05KT CAVOK 06/04 Q1015 NOSIG",
      "taf": "TAF LKPR 172000Z 1721/1903 27004KT CAVOK"
    },
    {
      "icao": "LLBG",
      "alert": "OK",
      "vis_m": 9999,
      "fzfg": false,
      "metar_trigger": false,
      "taf_trigger": false,
      "metar": "METAR LLBG 172220Z VRB03KT CAVOK 28/10 Q1007 NOSIG",
      "taf": "TAF LLBG 171701Z 1718/1818 VRB03KT CAVOK TX36/1812Z TN22/1803Z"
    },
    {
      "icao": "LMML",
      "alert": "OK",
      "vis_m": 9999,
      "fzfg": false,
      "metar_trigger": false,
      "taf_trigger": false,
      "metar": "METAR LMML 172215Z 26004KT 220V280 CAVOK 15/11 Q1016 NOSIG",
      "taf": "TAF LMML 171700Z 1718/1818 30008KT 9999 FEW015"
    },
    {
      "icao": "LOWW",
      "alert": "OK",
      "vis_m": 9999,
      "fzfg": false,
      "metar_trigger": false,
      "taf_trigger": false,
      "metar": "METAR LOWW 172220Z 33005KT CAVOK 07/04 Q1016 NOSIG",
      "taf": "TAF LOWW 172015Z 1721/1903 32005KT CAVOK TX19/1814Z TN06/1803Z"
    },
    {
      "icao": "LPFR",
      "alert": "OK",
      "vis_m": 9999,
      "fzfg": false,
      "metar_trigger": false,
      "taf_trigger": false,
      "metar": "METAR LPFR 172200Z 30010KT CAVOK 16/10 Q1018",
      "taf": "TAF LPFR 171700Z 1718/1818 26015KT CAVOK"
    },
    {
      "icao": "LPMA",
      "alert": "OK",
      "vis_m": 9999,
      "fzfg": false,
      "metar_trigger": false,
      "taf_trigger": false,
      "metar": "METAR LPMA 172200Z 02006KT 310V120 9999 FEW016 17/10 Q1024",
      "taf": "TAF LPMA 171700Z 1718/1818 01010KT 9999 SCT015"
    },
    {
      "icao": "LPPR",
      "alert": "OK",
      "vis_m": 9999,
      "fzfg": false,
      "metar_trigger": false,
      "taf_trigger": false,
      "metar": "METAR LPPR 172200Z 33007KT 300V360 9999 FEW020 13/10 Q1019",
      "taf": "TAF LPPR 171700Z 1718/1818 32015KT 9999 SCT020"
    },
    {
      "icao": "LPPS",
      "alert": "OK",
      "vis_m": 9999,
      "fzfg": false,
      "metar_trigger": false,
      "taf_trigger": false,
      "metar": "METAR LPPS 172200Z 33012KT 9999 FEW015 SCT030 17/13 Q1025",
      "taf": "TAF LPPS 171700Z 1718/1824 35012KT 9999 FEW015 BKN030"
    },
    {
      "icao": "LPPT",
      "alert": "OK",
      "vis_m": 9999,
      "fzfg": false,
      "metar_trigger": false,
      "taf_trigger": false,
      "metar": "METAR LPPT 172200Z 33008KT 290V350 9999 FEW025 14/10 Q1020",
      "taf": "TAF LPPT 171700Z 1718/1824 30013KT 9999 SCT025"
    },
    {
      "icao": "LQBK",
      "alert": "OK",
      "vis_m": 9999,
      "fzfg": false,
      "metar_trigger": false,
      "taf_trigger": false,
      "metar": "METAR LQBK 172230Z 13001KT CAVOK 07/05 Q1016 NOSIG",
      "taf": "TAF LQBK 171700Z 1718/1818 20004KT CAVOK TX20/1814Z TN05/1804Z"
    },
    {
      "icao": "LQSA",
      "alert": "OK",
      "vis_m": 9999,
      "fzfg": false,
      "metar_trigger": false,
      "taf_trigger": false,
      "metar": "METAR LQSA 172230Z 16002KT CAVOK 05/05 Q1016",
      "taf": "TAF LQSA 171700Z 1718/1818 VRB02KT 9999 SCT050 TX21/1814Z TN04/1804Z"
    },
    {
      "icao": "LQTZ",
      "alert": "OK",
      "vis_m": 8000,
      "fzfg": false,
      "metar_trigger": false,
      "taf_trigger": false,
      "metar": "METAR LQTZ 172230Z VRB01KT 8000 NSC 07/07 Q1016",
      "taf": "TAF LQTZ 171700Z 1718/1818 28005KT 9999 SCT040 TX20/1814Z TN03/1804Z"
    },
    {
      "icao": "LRBC",
      "alert": "OK",
      "vis_m": 9999,
      "fzfg": false,
      "metar_trigger": false,
      "taf_trigger": false,
      "metar": "METAR LRBC 172230Z 05006KT CAVOK 13/07 Q1007",
      "taf": "TAF LRBC 172000Z 1721/1806 32006KT CAVOK"
    },
    {
      "icao": "LRBS",
      "alert": "OK",
      "vis_m": 9999,
      "fzfg": false,
      "metar_trigger": false,
      "taf_trigger": false,
      "metar": "METAR LRBS 172200Z 28004KT 240V310 CAVOK 12/11 Q1008 NOSIG",
      "taf": "TAF LRBS 171700Z 1718/1818 27009KT CAVOK"
    },
    {
      "icao": "LRBV",
      "alert": "OK",
      "vis_m": 9999,
      "fzfg": false,
      "metar_trigger": false,
      "taf_trigger": false,
      "metar": "METAR LRBV 172200Z AUTO 26007KT 9999 NCD 08/06 Q1010",
      "taf": "TAF LRBV 172000Z 1721/1806 22010KT CAVOK"
    },
    {
      "icao": "LRCL",
      "alert": "OK",
      "vis_m": 9999,
      "fzfg": false,
      "metar_trigger": false,
      "taf_trigger": false,
      "metar": "METAR LRCL 172200Z 28006KT 250V320 9999 -SHRA FEW045CB 14/11 Q1010",
      "taf": "TAF LRCL 172000Z 1721/1806 VRB04KT 9999 SCT055"
    },
    {
      "icao": "LRCV",
      "alert": "OK",
      "vis_m": 9999,
      "fzfg": false,
      "metar_trigger": false,
      "taf_trigger": false,
      "metar": "METAR LRCV 172230Z 29008KT 9999 OVC003 12/12 Q1011",
      "taf": ""
    },
    {
      "icao": "LRIA",
      "alert": "OK",
      "vis_m": 9999,
      "fzfg": false,
      "metar_trigger": false,
      "taf_trigger": false,
      "metar": "METAR LRIA 172200Z 25007KT CAVOK 15/07 Q1007",
      "taf": "TAF LRIA 172000Z 1721/1806 31008KT CAVOK"
    },
    {
      "icao": "LROP",
      "alert": "OK",
      "vis_m": 9999,
      "fzfg": false,
      "metar_trigger": false,
      "taf_trigger": false,
      "metar": "METAR LROP 172200Z 26006KT CAVOK 11/11 Q1009 NOSIG",
      "taf": "TAF LROP 171700Z 1718/1818 27009KT CAVOK"
    },
    {
      "icao": "LRSB",
      "alert": "OK",
      "vis_m": 9999,
      "fzfg": false,
      "metar_trigger": false,
      "taf_trigger": false,
      "metar": "METAR LRSB 172200Z VRB02KT CAVOK 08/07 Q1010",
      "taf": "TAF LRSB 171700Z 1718/1818 VRB04KT 9999 SCT050"
    },
    {
      "icao": "LRSM",
      "alert": "OK",
      "vis_m": 9999,
      "fzfg": false,
      "metar_trigger": false,
      "taf_trigger": false,
      "metar": "METAR LRSM 172200Z AUTO 24004KT 9999 FEW100/// 12/09 Q1010",
      "taf": ""
    },
    {
      "icao": "LRSV",
      "alert": "OK",
      "vis_m": 9999,
      "fzfg": false,
      "metar_trigger": false,
      "taf_trigger": false,
      "metar": "METAR LRSV 172200Z 27010KT CAVOK 15/05 Q1008",
      "taf": "TAF LRSV 172000Z 1721/1806 26006KT CAVOK"
    },
    {
      "icao": "LRTM",
      "alert": "OK",
      "vis_m": 9999,
      "fzfg": false,
      "metar_trigger": false,
      "taf_trigger": false,
      "metar": "METAR LRTM 172200Z 20003KT 180V240 CAVOK 12/10 Q1010",
      "taf": "TAF LRTM 172000Z 1721/1806 VRB04KT CAVOK"
    },
    {
      "icao": "LRTR",
      "alert": "OK",
      "vis_m": 9999,
      "fzfg": false,
      "metar_trigger": false,
      "taf_trigger": false,
      "metar": "METAR LRTR 172200Z 29009KT 9999 BKN013 OVC015 12/11 Q1012",
      "taf": "TAF LRTR 171700Z 1718/1818 30010KT 9999 BKN010 BKN045"
    },
    {
      "icao": "LTAC",
      "alert": "OK",
      "vis_m": 9999,
      "fzfg": false,
      "metar_trigger": false,
      "taf_trigger": false,
      "metar": "METAR LTAC 172220Z VRB02KT 9999 FEW040 SCT200 06/04 Q1008 NOSIG RMK RWY21C VRB02KT RWY03L VRB01KT RWY21R 00000KT RWY03R VRB01KT RWY21L 12005KT",
      "taf": "TAF LTAC 171640Z 1718/1818 VRB02KT 9999 SCT040 SCT100"
    },
    {
      "icao": "LTFM",
      "alert": "OK",
      "vis_m": 9999,
      "fzfg": false,
      "metar_trigger": false,
      "taf_trigger": false,
      "metar": "METAR LTFM 172220Z 29005KT 260V330 9999 FEW040 13/10 Q1008 NOSIG RMK RWY17L 28006KT RWY34L 28005KT RWY16R 28005KT RWY36 29005KT 240V310 RWY18 28007KT",
      "taf": "TAF LTFM 171640Z 1718/1824 21005KT 9999 SCT035"
    },
    {
      "icao": "LUKK",
      "alert": "OK",
      "vis_m": 9999,
      "fzfg": false,
      "metar_trigger": false,
      "taf_trigger": false,
      "metar": "METAR LUKK 172230Z 26002KT CAVOK 15/13 Q1005 NOSIG",
      "taf": "TAF LUKK 171702Z 1718/1818 VRB05KT CAVOK"
    },
    {
      "icao": "LWOH",
      "alert": "OK",
      "vis_m": null,
      "fzfg": false,
      "metar_trigger": false,
      "taf_trigger": false,
      "metar": "",
      "taf": "TAF LWOH 172020Z 1721/1821 VRB02KT 9999 FEW020 BKN040"
    },
    {
      "icao": "LWSK",
      "alert": "OK",
      "vis_m": 9999,
      "fzfg": false,
      "metar_trigger": false,
      "taf_trigger": false,
      "metar": "METAR LWSK 172220Z 02008KT 9999 BKN050 13/08 Q1015 NOSIG",
      "taf": "TAF LWSK 172020Z 1721/1821 02010KT 9999 BKN050"
    },
    {
      "icao": "LYBE",
      "alert": "OK",
      "vis_m": 9999,
      "fzfg": false,
      "metar_trigger": false,
      "taf_trigger": false,
      "metar": "METAR LYBE 172230Z 27010KT CAVOK 12/10 Q1014 NOSIG",
      "taf": "TAF LYBE 171700Z 1718/1818 27010KT 9999 SCT015 BKN025 TX20/1813Z TN08/1804Z"
    },
    {
      "icao": "LYNI",
      "alert": "OK",
      "vis_m": 9999,
      "fzfg": false,
      "metar_trigger": false,
      "taf_trigger": false,
      "metar": "METAR LYNI 172230Z VRB02KT 9999 FEW007 SCT017 OVC025 11/10 Q1015 NOSIG",
      "taf": "TAF LYNI 171700Z 1718/1818 30006KT 9999 SCT015 BKN025 TX21/1813Z TN09/1804Z"
    },
    {
      "icao": "LYPG",
      "alert": "OK",
      "vis_m": 9999,
      "fzfg": false,
      "metar_trigger": false,
      "taf_trigger": false,
      "metar": "METAR LYPG 172230Z 33010KT CAVOK 16/06 Q1014 NOSIG",
      "taf": "TAF LYPG 171700Z 1718/1818 36005KT 9999 FEW040 SCT080 TX22/1813Z TN13/1804Z"
    },
    {
      "icao": "LZIB",
      "alert": "OK",
      "vis_m": 9999,
      "fzfg": false,
      "metar_trigger": false,
      "taf_trigger": false,
      "metar": "METAR LZIB 172230Z 31007KT CAVOK 09/04 Q1015 NOSIG",
      "taf": "TAF LZIB 171715Z 1718/1818 35014KT 9999 FEW045"
    },
    {
      "icao": "LZKZ",
      "alert": "OK",
      "vis_m": 9999,
      "fzfg": false,
      "metar_trigger": false,
      "taf_trigger": false,
      "metar": "METAR LZKZ 172230Z 02006KT CAVOK 11/07 Q1012 NOSIG",
      "taf": ""
    },
    {
      "icao": "LZTT",
      "alert": "OK",
      "vis_m": 9999,
      "fzfg": false,
      "metar_trigger": false,
      "taf_trigger": false,
      "metar": "METAR LZTT 172230Z 30003KT 9999 FEW016 BKN032 06/05 Q1013",
      "taf": "TAF LZTT 171715Z 1718/1818 27008KT 9999 FEW010 BKN040"
    },
    {
      "icao": "OEJN",
      "alert": "OK",
      "vis_m": 9999,
      "fzfg": false,
      "metar_trigger": false,
      "taf_trigger": false,
      "metar": "METAR OEJN 172200Z 32006KT CAVOK 30/16 Q1006 NOSIG",
      "taf": "TAF OEJN 171700Z 1718/1824 36010KT CAVOK"
    },
    {
      "icao": "OEMA",
      "alert": "OK",
      "vis_m": 9999,
      "fzfg": false,
      "metar_trigger": false,
      "taf_trigger": false,
      "metar": "METAR OEMA 172200Z 05011KT CAVOK 33/M03 Q1015 NOSIG",
      "taf": "TAF OEMA 171700Z 1718/1824 02014KT CAVOK"
    },
    {
      "icao": "OJAI",
      "alert": "OK",
      "vis_m": 5000,
      "fzfg": false,
      "metar_trigger": false,
      "taf_trigger": false,
      "metar": "METAR OJAI 172200Z 26005KT 5000 HZ NSC 25/07 Q1013 NOSIG",
      "taf": "TAF OJAI 171700Z 1718/1824 25012KT 4000 DU NSC"
    },
    {
      "icao": "OMAA",
      "alert": "OK",
      "vis_m": 9999,
      "fzfg": false,
      "metar_trigger": false,
      "taf_trigger": false,
      "metar": "METAR OMAA 172230Z 30013KT CAVOK 28/20 Q1004 NOSIG",
      "taf": "TAF OMAA 171700Z 1718/1900 33011KT 8000 FEW015"
    },
    {
      "icao": "OMDB",
      "alert": "OK",
      "vis_m": 9999,
      "fzfg": false,
      "metar_trigger": false,
      "taf_trigger": false,
      "metar": "METAR OMDB 172230Z 27007KT 230V320 CAVOK 29/23 Q1004 NOSIG",
      "taf": ""
    },
    {
      "icao": "UAAA",
      "alert": "OK",
      "vis_m": 9999,
      "fzfg": false,
      "metar_trigger": false,
      "taf_trigger": false,
      "metar": "METAR UAAA 172200Z 23002MPS 9999 FEW100 12/06 Q1009 NOSIG",
      "taf": "TAF UAAA 171701Z 1718/1818 21003MPS 9999 SCT100 TX26/1810Z TN08/1801Z"
    },
    {
      "icao": "UBBB",
      "alert": "OK",
      "vis_m": 9999,
      "fzfg": false,
      "metar_trigger": false,
      "taf_trigger": false,
      "metar": "METAR UBBB 172230Z 30004KT 9999 FEW009 FEW060CB 16/15 Q1002 NOSIG",
      "taf": "TAF UBBB 171718Z 1718/1818 30010KT 8000 SCT010 SCT040CB BKN040 TX20/1810Z TN14/1801Z"
    },
    {
      "icao": "UDSG",
      "alert": "OK",
      "vis_m": 9999,
      "fzfg": false,
      "metar_trigger": false,
      "taf_trigger": false,
      "metar": "METAR UDSG 172200Z 06005KT 9999 FEW049 03/02 Q1008 NOSIG",
      "taf": "TAF UDSG 171700Z 1718/1818 06006KT 9999 SCT040"
    },
    {
      "icao": "UDYZ",
      "alert": "OK",
      "vis_m": 9999,
      "fzfg": false,
      "metar_trigger": false,
      "taf_trigger": false,
      "metar": "METAR UDYZ 172200Z 06001KT 9999 FEW046 12/09 Q1005 NOSIG",
      "taf": "TAF UDYZ 171700Z 1718/1818 04006KT 9999 SCT040"
    },
    {
      "icao": "UGKO",
      "alert": "OK",
      "vis_m": 9999,
      "fzfg": false,
      "metar_trigger": false,
      "taf_trigger": false,
      "metar": "METAR UGKO 172200Z 13005KT CAVOK 11/08 Q1001 NOSIG",
      "taf": "TAF UGKO 171700Z 1718/1818 26007KT CAVOK TX19/1811Z TN10/1802Z"
    }
  ]
}