{
  "ts_utc": "2026-05-10T22:25:07Z",
  "threshold_m": 150,
  "source": "stations_override.txt (ICAO list) + aviationweather.gov (METAR/TAF raw)",
  "station_count": 159,
  "stations": [
    {
      "icao": "BIKF",
      "alert": "OK",
      "vis_m": 2000,
      "fzfg": false,
      "metar_trigger": false,
      "taf_trigger": false,
      "metar": "METAR BIKF 102200Z 20015KT 2000 -DZ BR OVC002 07/07 Q1013",
      "taf": "TAF BIKF 101957Z 1021/1121 21015KT 2000 DZ BR BKN004 OVC007 TX08/1115Z TN06/1106Z"
    },
    {
      "icao": "BKPR",
      "alert": "OK",
      "vis_m": null,
      "fzfg": false,
      "metar_trigger": false,
      "taf_trigger": false,
      "metar": "",
      "taf": "TAF BKPR 101730Z 1018/1118 VRB03KT CAVOK"
    },
    {
      "icao": "EBCI",
      "alert": "OK",
      "vis_m": 9999,
      "fzfg": false,
      "metar_trigger": false,
      "taf_trigger": false,
      "metar": "METAR EBCI 102150Z 01009KT 9999 -RA FEW008 BKN042 10/09 Q1008 TEMPO BKN008",
      "taf": "TAF EBCI 101707Z 1018/1124 03008KT 9999 SCT040"
    },
    {
      "icao": "EDDB",
      "alert": "OK",
      "vis_m": 9999,
      "fzfg": false,
      "metar_trigger": false,
      "taf_trigger": false,
      "metar": "METAR EDDB 102220Z AUTO 09007KT CAVOK 12/08 Q1007 NOSIG",
      "taf": "TAF EDDB 101700Z 1018/1118 VRB03KT CAVOK"
    },
    {
      "icao": "EDDH",
      "alert": "OK",
      "vis_m": 9999,
      "fzfg": false,
      "metar_trigger": false,
      "taf_trigger": false,
      "metar": "METAR EDDH 102220Z AUTO 32008KT CAVOK 11/05 Q1008 NOSIG",
      "taf": "TAF EDDH 101700Z 1018/1124 34006KT 9999 SCT035"
    },
    {
      "icao": "EDDK",
      "alert": "OK",
      "vis_m": 9999,
      "fzfg": false,
      "metar_trigger": false,
      "taf_trigger": false,
      "metar": "METAR EDDK 102220Z AUTO 35004KT 320V030 9999 SHRA FEW024 FEW///CB 14/10 Q1006 TEMPO 3500",
      "taf": "TAF EDDK 101700Z 1018/1124 01008KT CAVOK"
    },
    {
      "icao": "EDDN",
      "alert": "OK",
      "vis_m": 9999,
      "fzfg": false,
      "metar_trigger": false,
      "taf_trigger": false,
      "metar": "METAR EDDN 102220Z AUTO 24005KT CAVOK 16/10 Q1006",
      "taf": "TAF EDDN 101700Z 1018/1118 07005KT CAVOK"
    },
    {
      "icao": "EDDS",
      "alert": "OK",
      "vis_m": 9999,
      "fzfg": false,
      "metar_trigger": false,
      "taf_trigger": false,
      "metar": "METAR EDDS 102220Z AUTO VRB02KT CAVOK 13/12 Q1006",
      "taf": "TAF EDDS 101700Z 1018/1118 12005KT 9999 SCT030"
    },
    {
      "icao": "EDFH",
      "alert": "OK",
      "vis_m": 4500,
      "fzfg": false,
      "metar_trigger": false,
      "taf_trigger": false,
      "metar": "METAR EDFH 102150Z 30003KT 4500 RA BR SCT002 BKN047 11/11 Q1006",
      "taf": "TAF EDFH 101700Z 1018/1118 05005KT 9999 BKN020"
    },
    {
      "icao": "EDJA",
      "alert": "OK",
      "vis_m": 9999,
      "fzfg": false,
      "metar_trigger": false,
      "taf_trigger": false,
      "metar": "METAR EDJA 102150Z AUTO 20005KT 9999 // SCT057/// SCT066/// OVC087/// 12/11 Q1008",
      "taf": "TAF EDJA 101700Z 1018/1103 24007KT 9999 SCT040 BKN055"
    },
    {
      "icao": "EDLW",
      "alert": "OK",
      "vis_m": 9999,
      "fzfg": false,
      "metar_trigger": false,
      "taf_trigger": false,
      "metar": "METAR EDLW 102150Z AUTO 02007KT 9999 // SCT024/// BKN083/// BKN110/// 11/07 Q1007",
      "taf": "TAF EDLW 101700Z 1018/1118 01005KT CAVOK"
    },
    {
      "icao": "EDNY",
      "alert": "OK",
      "vis_m": 9999,
      "fzfg": false,
      "metar_trigger": false,
      "taf_trigger": false,
      "metar": "METAR EDNY 102150Z AUTO 00000KT 9999 // OVC100/// 13/12 Q1008",
      "taf": "TAF EDNY 101700Z 1018/1103 24007KT 9999 SCT055"
    },
    {
      "icao": "EDSB",
      "alert": "OK",
      "vis_m": 9999,
      "fzfg": false,
      "metar_trigger": false,
      "taf_trigger": false,
      "metar": "METAR EDSB 102150Z 19003KT 9999 FEW015 BKN042 14/14 Q1006",
      "taf": "TAF EDSB 101700Z 1018/1118 20005KT 9999 BKN030"
    },
    {
      "icao": "EETN",
      "alert": "OK",
      "vis_m": 9999,
      "fzfg": false,
      "metar_trigger": false,
      "taf_trigger": false,
      "metar": "METAR EETN 102220Z 21003KT 9999 BKN042 10/03 Q1009",
      "taf": "TAF EETN 101730Z 1018/1118 17005KT 9999 SCT045"
    },
    {
      "icao": "EFTU",
      "alert": "OK",
      "vis_m": 9999,
      "fzfg": false,
      "metar_trigger": false,
      "taf_trigger": false,
      "metar": "METAR EFTU 102220Z AUTO 15005KT CAVOK 07/01 Q1007",
      "taf": "TAF EFTU 102033Z 1021/1121 18006KT CAVOK"
    },
    {
      "icao": "EGBB",
      "alert": "OK",
      "vis_m": 9999,
      "fzfg": false,
      "metar_trigger": false,
      "taf_trigger": false,
      "metar": "METAR EGBB 102150Z VRB02KT CAVOK 04/01 Q1015",
      "taf": ""
    },
    {
      "icao": "EGGP",
      "alert": "OK",
      "vis_m": 9999,
      "fzfg": false,
      "metar_trigger": false,
      "taf_trigger": false,
      "metar": "METAR EGGP 102150Z 29007KT CAVOK 09/03 Q1015",
      "taf": ""
    },
    {
      "icao": "EGGW",
      "alert": "OK",
      "vis_m": 9999,
      "fzfg": false,
      "metar_trigger": false,
      "taf_trigger": false,
      "metar": "METAR EGGW 102150Z AUTO 01006KT 9999 NCD 05/M00 Q1014",
      "taf": "TAF EGGW 101653Z 1018/1118 03010KT 9999 SCT040"
    },
    {
      "icao": "EGKK",
      "alert": "OK",
      "vis_m": 9999,
      "fzfg": false,
      "metar_trigger": false,
      "taf_trigger": false,
      "metar": "METAR EGKK 102150Z 03009KT CAVOK 08/03 Q1013",
      "taf": "TAF EGKK 101704Z 1018/1124 04010KT 9999 FEW035"
    },
    {
      "icao": "EGNM",
      "alert": "OK",
      "vis_m": 9999,
      "fzfg": false,
      "metar_trigger": false,
      "taf_trigger": false,
      "metar": "METAR EGNM 102150Z 27011KT 9999 FEW048 07/03 Q1013",
      "taf": "TAF EGNM 101655Z 1018/1118 VRB03KT 9999 FEW045"
    },
    {
      "icao": "EGPD",
      "alert": "OK",
      "vis_m": 9999,
      "fzfg": false,
      "metar_trigger": false,
      "taf_trigger": false,
      "metar": "METAR EGPD 102150Z AUTO 33014KT 9999 BKN017 04/02 Q1012 TEMPO SHRA BKN012",
      "taf": ""
    },
    {
      "icao": "EGPF",
      "alert": "OK",
      "vis_m": 9999,
      "fzfg": false,
      "metar_trigger": false,
      "taf_trigger": false,
      "metar": "METAR EGPF 102150Z AUTO 26010KT 9999 FEW030 09/06 Q1013",
      "taf": ""
    },
    {
      "icao": "EHBK",
      "alert": "OK",
      "vis_m": 9999,
      "fzfg": false,
      "metar_trigger": false,
      "taf_trigger": false,
      "metar": "METAR EHBK 102155Z AUTO 02014KT 350V050 9999 OVC048/// 12/07 Q1008",
      "taf": "TAF EHBK 101712Z 1018/1124 03010KT CAVOK"
    },
    {
      "icao": "EHEH",
      "alert": "OK",
      "vis_m": 9999,
      "fzfg": false,
      "metar_trigger": false,
      "taf_trigger": false,
      "metar": "METAR EHEH 102155Z AUTO 02009KT 350V070 9999 OVC072 11/05 Q1009 BLU",
      "taf": ""
    },
    {
      "icao": "EKBI",
      "alert": "OK",
      "vis_m": 9999,
      "fzfg": false,
      "metar_trigger": false,
      "taf_trigger": false,
      "metar": "METAR EKBI 102220Z AUTO 30006KT 9999 NCD 02/M00 Q1009",
      "taf": "TAF EKBI 102027Z 1021/1121 30005KT CAVOK"
    },
    {
      "icao": "EKCH",
      "alert": "OK",
      "vis_m": 9999,
      "fzfg": false,
      "metar_trigger": false,
      "taf_trigger": false,
      "metar": "METAR EKCH 102220Z AUTO 03005KT 350V050 9999 SCT061/// 09/06 Q1008 NOSIG",
      "taf": "TAF EKCH 102027Z 1021/1121 02004KT CAVOK"
    },
    {
      "icao": "ENAL",
      "alert": "OK",
      "vis_m": 9999,
      "fzfg": false,
      "metar_trigger": false,
      "taf_trigger": false,
      "metar": "METAR ENAL 102150Z 24005KT 9999 SCT038 01/M00 Q1009",
      "taf": "TAF ENAL 102000Z 1021/1106 24005KT 9999 FEW015 BKN025"
    },
    {
      "icao": "ENBR",
      "alert": "OK",
      "vis_m": 9999,
      "fzfg": false,
      "metar_trigger": false,
      "taf_trigger": false,
      "metar": "METAR ENBR 102150Z 34007KT 9999 FEW050 02/M01 Q1008 RMK WIND 1200FT 35009KT",
      "taf": "TAF ENBR 101700Z 1018/1118 30005KT 9999 FEW015 SCT030"
    },
    {
      "icao": "ENGM",
      "alert": "OK",
      "vis_m": 9999,
      "fzfg": false,
      "metar_trigger": false,
      "taf_trigger": false,
      "metar": "METAR ENGM 102150Z 19005KT CAVOK 05/M01 Q1004",
      "taf": ""
    },
    {
      "icao": "ENHD",
      "alert": "OK",
      "vis_m": 9999,
      "fzfg": false,
      "metar_trigger": false,
      "taf_trigger": false,
      "metar": "METAR ENHD 102150Z AUTO 02007KT 340V050 9999 SCT019/// BKN024/// 04/00 Q1008",
      "taf": ""
    },
    {
      "icao": "ENTC",
      "alert": "OK",
      "vis_m": 9999,
      "fzfg": false,
      "metar_trigger": false,
      "taf_trigger": false,
      "metar": "METAR ENTC 102150Z 04007KT CAVOK 05/01 Q1006 RMK WIND 2600FT 11006KT",
      "taf": "TAF ENTC 101700Z 1018/1118 02009KT 9999 FEW030"
    },
    {
      "icao": "ENTO",
      "alert": "OK",
      "vis_m": 9999,
      "fzfg": false,
      "metar_trigger": false,
      "taf_trigger": false,
      "metar": "METAR ENTO 102150Z 27004KT CAVOK 05/03 Q1004",
      "taf": "TAF ENTO 101700Z 1018/1118 20010KT 9999 SCT030"
    },
    {
      "icao": "ENVA",
      "alert": "OK",
      "vis_m": 9999,
      "fzfg": false,
      "metar_trigger": false,
      "taf_trigger": false,
      "metar": "METAR ENVA 102150Z 31006KT 9999 FEW023 SCT030 BKN039 05/01 Q1008 RMK WIND 670FT 28009KT",
      "taf": "TAF ENVA 101700Z 1018/1118 28008KT 9999 SCT045"
    },
    {
      "icao": "ENZV",
      "alert": "OK",
      "vis_m": 9999,
      "fzfg": false,
      "metar_trigger": false,
      "taf_trigger": false,
      "metar": "METAR ENZV 102150Z 17003KT 140V200 9999 SCT022 BKN035 05/01 Q1008",
      "taf": "TAF ENZV 101700Z 1018/1118 30009KT 9999 FEW015 SCT025"
    },
    {
      "icao": "EPGD",
      "alert": "OK",
      "vis_m": 9999,
      "fzfg": false,
      "metar_trigger": false,
      "taf_trigger": false,
      "metar": "METAR EPGD 102200Z 16007KT CAVOK 12/02 Q1008",
      "taf": "TAF EPGD 101730Z 1018/1118 09007KT CAVOK"
    },
    {
      "icao": "EPKK",
      "alert": "OK",
      "vis_m": 9999,
      "fzfg": false,
      "metar_trigger": false,
      "taf_trigger": false,
      "metar": "METAR EPKK 102200Z 03006KT 9999 FEW063 11/04 Q1010",
      "taf": "TAF EPKK 102030Z 1021/1121 06010KT CAVOK"
    },
    {
      "icao": "EPKT",
      "alert": "OK",
      "vis_m": 9999,
      "fzfg": false,
      "metar_trigger": false,
      "taf_trigger": false,
      "metar": "METAR EPKT 102200Z 11010KT CAVOK 11/04 Q1009",
      "taf": "TAF EPKT 101730Z 1018/1118 11010KT CAVOK"
    },
    {
      "icao": "EPLB",
      "alert": "OK",
      "vis_m": 9999,
      "fzfg": false,
      "metar_trigger": false,
      "taf_trigger": false,
      "metar": "METAR EPLB 102200Z 06007KT CAVOK 08/05 Q1012",
      "taf": "TAF EPLB 101730Z 1018/1118 11007KT CAVOK"
    },
    {
      "icao": "EPMO",
      "alert": "OK",
      "vis_m": 9999,
      "fzfg": false,
      "metar_trigger": false,
      "taf_trigger": false,
      "metar": "METAR EPMO 102200Z 09008KT CAVOK 10/04 Q1011",
      "taf": "TAF EPMO 101730Z 1018/1118 VRB02KT CAVOK"
    },
    {
      "icao": "EPPO",
      "alert": "OK",
      "vis_m": 9999,
      "fzfg": false,
      "metar_trigger": false,
      "taf_trigger": false,
      "metar": "METAR EPPO 102200Z 07001KT CAVOK 08/05 Q1008",
      "taf": "TAF EPPO 101730Z 1018/1118 19005KT CAVOK"
    },
    {
      "icao": "EPRA",
      "alert": "OK",
      "vis_m": 9999,
      "fzfg": false,
      "metar_trigger": false,
      "taf_trigger": false,
      "metar": "METAR EPRA 102200Z 13006KT CAVOK 09/03 Q1011",
      "taf": "TAF EPRA 102030Z 1021/1106 13007KT CAVOK"
    },
    {
      "icao": "EPRZ",
      "alert": "OK",
      "vis_m": 9999,
      "fzfg": false,
      "metar_trigger": false,
      "taf_trigger": false,
      "metar": "METAR EPRZ 102200Z 07003KT CAVOK 08/04 Q1011",
      "taf": "TAF EPRZ 101730Z 1018/1118 10010KT CAVOK"
    },
    {
      "icao": "EPSC",
      "alert": "OK",
      "vis_m": 9999,
      "fzfg": false,
      "metar_trigger": false,
      "taf_trigger": false,
      "metar": "METAR EPSC 102200Z 13003KT 060V160 CAVOK 08/05 Q1008",
      "taf": "TAF EPSC 101730Z 1018/1118 28010KT CAVOK"
    },
    {
      "icao": "EPSY",
      "alert": "OK",
      "vis_m": 9999,
      "fzfg": false,
      "metar_trigger": false,
      "taf_trigger": false,
      "metar": "METAR EPSY 102200Z 15005KT 080V190 CAVOK 09/04 Q1011",
      "taf": "TAF EPSY 102030Z 1021/1106 13008KT CAVOK"
    },
    {
      "icao": "EPWA",
      "alert": "OK",
      "vis_m": 9999,
      "fzfg": false,
      "metar_trigger": false,
      "taf_trigger": false,
      "metar": "METAR EPWA 102200Z 11011KT CAVOK 12/04 Q1011 NOSIG",
      "taf": "TAF EPWA 102030Z 1021/1121 12008KT CAVOK"
    },
    {
      "icao": "EPWR",
      "alert": "OK",
      "vis_m": 9999,
      "fzfg": false,
      "metar_trigger": false,
      "taf_trigger": false,
      "metar": "METAR EPWR 102200Z VRB01KT CAVOK 11/07 Q1008",
      "taf": "TAF EPWR 102030Z 1021/1121 10004KT CAVOK"
    },
    {
      "icao": "ESGG",
      "alert": "OK",
      "vis_m": 9999,
      "fzfg": false,
      "metar_trigger": false,
      "taf_trigger": false,
      "metar": "METAR ESGG 102150Z 22006KT CAVOK 04/01 Q1007",
      "taf": "TAF ESGG 102030Z 1021/1121 26009KT 9999 SCT040"
    },
    {
      "icao": "ESKN",
      "alert": "OK",
      "vis_m": 9999,
      "fzfg": false,
      "metar_trigger": false,
      "taf_trigger": false,
      "metar": "METAR ESKN 102150Z 14005KT CAVOK 08/05 Q1006",
      "taf": "TAF ESKN 102030Z 1021/1121 25006KT CAVOK"
    },
    {
      "icao": "ESMS",
      "alert": "OK",
      "vis_m": 9999,
      "fzfg": false,
      "metar_trigger": false,
      "taf_trigger": false,
      "metar": "METAR ESMS 102150Z 36003KT CAVOK 05/05 Q1008",
      "taf": "TAF ESMS 102027Z 1021/1121 36002KT CAVOK"
    },
    {
      "icao": "ESSA",
      "alert": "OK",
      "vis_m": 9999,
      "fzfg": false,
      "metar_trigger": false,
      "taf_trigger": false,
      "metar": "METAR ESSA 102150Z 20005KT CAVOK 08/02 Q1005 NOSIG",
      "taf": "TAF ESSA 102030Z 1021/1121 18007KT CAVOK"
    },
    {
      "icao": "EYKA",
      "alert": "OK",
      "vis_m": 1300,
      "fzfg": false,
      "metar_trigger": false,
      "taf_trigger": false,
      "metar": "METAR EYKA 102220Z VRB02KT 1300 R08/1800D BR NSC 03/03 Q1012",
      "taf": "TAF EYKA 101700Z 1018/1118 VRB03KT 5000 MIFG BR SCT025"
    },
    {
      "icao": "EYPA",
      "alert": "OK",
      "vis_m": 9999,
      "fzfg": false,
      "metar_trigger": false,
      "taf_trigger": false,
      "metar": "METAR EYPA 102220Z AUTO 13006KT 9999 FEW083/// 07/M00 Q1010",
      "taf": "TAF EYPA 101700Z 1018/1118 VRB03KT 9000 NSC"
    },
    {
      "icao": "EYVI",
      "alert": "OK",
      "vis_m": 3300,
      "fzfg": false,
      "metar_trigger": false,
      "taf_trigger": false,
      "metar": "METAR EYVI 102220Z 17001KT 3300 BR BKN001 BKN012 OVC042 05/05 Q1013 TEMPO 1500 BR SCT002",
      "taf": "TAF EYVI 101700Z 1018/1118 VRB03KT 8000 SCT010 BKN015"
    },
    {
      "icao": "GCFV",
      "alert": "OK",
      "vis_m": 9999,
      "fzfg": false,
      "metar_trigger": false,
      "taf_trigger": false,
      "metar": "METAR GCFV 102200Z 01006KT 9999 FEW030 21/14 Q1018",
      "taf": "TAF GCFV 102000Z 1021/1121 02005KT 9999 FEW030 TX24/1114Z TN17/1106Z"
    },
    {
      "icao": "GCLP",
      "alert": "OK",
      "vis_m": 9999,
      "fzfg": false,
      "metar_trigger": false,
      "taf_trigger": false,
      "metar": "METAR GCLP 102200Z 33005KT 9999 FEW045 BKN060 19/13 Q1018 NOSIG",
      "taf": "TAF GCLP 102000Z 1021/1121 35005KT 9999 FEW025 BKN040 TX23/1114Z TN17/1106Z"
    },
    {
      "icao": "GCTS",
      "alert": "OK",
      "vis_m": 9999,
      "fzfg": false,
      "metar_trigger": false,
      "taf_trigger": false,
      "metar": "METAR GCTS 102200Z 06006KT 9999 FEW060 20/11 Q1018 NOSIG",
      "taf": "TAF GCTS 102000Z 1021/1121 02005KT 9999 SCT030 TX23/1114Z TN16/1106Z"
    },
    {
      "icao": "GMAD",
      "alert": "OK",
      "vis_m": 9999,
      "fzfg": false,
      "metar_trigger": false,
      "taf_trigger": false,
      "metar": "METAR GMAD 102200Z 18008KT CAVOK 17/14 Q1017 NOSIG",
      "taf": "TAF GMAD 101700Z 1018/1124 20012KT 8000 NSC"
    },
    {
      "icao": "GMMN",
      "alert": "OK",
      "vis_m": 9999,
      "fzfg": false,
      "metar_trigger": false,
      "taf_trigger": false,
      "metar": "METAR GMMN 102200Z VRB02KT 9999 SCT030 16/13 Q1017 NOSIG",
      "taf": "TAF GMMN 101700Z 1018/1124 33013KT 9999 SCT030 BKN200"
    },
    {
      "icao": "GMMX",
      "alert": "OK",
      "vis_m": 9999,
      "fzfg": false,
      "metar_trigger": false,
      "taf_trigger": false,
      "metar": "METAR GMMX 102200Z 30006KT 270V340 CAVOK 17/10 Q1017 NOSIG",
      "taf": "TAF GMMX 101700Z 1018/1124 32015KT CAVOK"
    },
    {
      "icao": "HEGN",
      "alert": "OK",
      "vis_m": 9999,
      "fzfg": false,
      "metar_trigger": false,
      "taf_trigger": false,
      "metar": "METAR HEGN 102200Z 30010KT CAVOK 27/04 Q1011 NOSIG",
      "taf": "TAF HEGN 101700Z 1018/1124 33010G20KT CAVOK"
    },
    {
      "icao": "HEMA",
      "alert": "OK",
      "vis_m": 9999,
      "fzfg": false,
      "metar_trigger": false,
      "taf_trigger": false,
      "metar": "METAR HEMA 102200Z 15006KT CAVOK 26/03 Q1011 NOSIG",
      "taf": "TAF HEMA 101700Z 1018/1124 32010G20KT CAVOK"
    },
    {
      "icao": "HESH",
      "alert": "OK",
      "vis_m": 9999,
      "fzfg": false,
      "metar_trigger": false,
      "taf_trigger": false,
      "metar": "METAR HESH 102200Z 36014KT CAVOK 30/11 Q1010 NOSIG",
      "taf": "TAF HESH 101700Z 1018/1124 36010G20KT CAVOK"
    },
    {
      "icao": "HESX",
      "alert": "OK",
      "vis_m": 9999,
      "fzfg": false,
      "metar_trigger": false,
      "taf_trigger": false,
      "metar": "METAR HESX 102200Z 04007KT CAVOK 21/07 Q1015 NOSIG",
      "taf": "TAF HESX 101700Z 1018/1124 01014KT CAVOK"
    },
    {
      "icao": "LATI",
      "alert": "OK",
      "vis_m": 9999,
      "fzfg": false,
      "metar_trigger": false,
      "taf_trigger": false,
      "metar": "METAR LATI 102220Z 16003KT 9999 SCT086 16/13 Q1014 NOSIG",
      "taf": "TAF LATI 101700Z 1018/1118 VRB05KT 9999 SCT040 BKN080 TX25/1112Z TN15/1104Z"
    },
    {
      "icao": "LBPD",
      "alert": "OK",
      "vis_m": 9999,
      "fzfg": false,
      "metar_trigger": false,
      "taf_trigger": false,
      "metar": "METAR LBPD 102200Z AUTO 24002KT 9999 BKN100/// OVC130/// 17/14 Q1014",
      "taf": "TAF LBPD 101700Z 1018/1118 10010KT 9999 SCT060"
    },
    {
      "icao": "LBSF",
      "alert": "OK",
      "vis_m": 9999,
      "fzfg": false,
      "metar_trigger": false,
      "taf_trigger": false,
      "metar": "METAR LBSF 102200Z AUTO 16003KT 100V190 9999 FEW068/// SCT086/// //////CB 13/11 Q1015 NOSIG",
      "taf": "TAF LBSF 101700Z 1018/1118 13010KT 9999 SCT040 SCT060"
    },
    {
      "icao": "LBWN",
      "alert": "OK",
      "vis_m": 9999,
      "fzfg": false,
      "metar_trigger": false,
      "taf_trigger": false,
      "metar": "METAR LBWN 102200Z AUTO 02003KT 9999 NSC 12/12 Q1014 NOSIG",
      "taf": "TAF LBWN 101700Z 1018/1118 30010KT 9999 SCT045"
    },
    {
      "icao": "LCLK",
      "alert": "OK",
      "vis_m": 9999,
      "fzfg": false,
      "metar_trigger": false,
      "taf_trigger": false,
      "metar": "METAR LCLK 102200Z 00000KT CAVOK 19/09 Q1014 NOSIG",
      "taf": "TAF LCLK 101730Z 1018/1118 34006KT CAVOK"
    },
    {
      "icao": "LCPH",
      "alert": "OK",
      "vis_m": 9999,
      "fzfg": false,
      "metar_trigger": false,
      "taf_trigger": false,
      "metar": "METAR LCPH 102200Z 02004KT CAVOK 16/07 Q1014 NOSIG",
      "taf": "TAF LCPH 101730Z 1018/1118 32010KT CAVOK"
    },
    {
      "icao": "LEAL",
      "alert": "OK",
      "vis_m": 9999,
      "fzfg": false,
      "metar_trigger": false,
      "taf_trigger": false,
      "metar": "METAR LEAL 102200Z 35004KT 340V040 CAVOK 20/14 Q1013 NOSIG",
      "taf": "TAF LEAL 101700Z 1018/1118 18010KT 9999 FEW035 TX26/1112Z TN16/1105Z"
    },
    {
      "icao": "LEBB",
      "alert": "OK",
      "vis_m": 9999,
      "fzfg": false,
      "metar_trigger": false,
      "taf_trigger": false,
      "metar": "METAR LEBB 102200Z 12004KT CAVOK 13/11 Q1012 NOSIG",
      "taf": ""
    },
    {
      "icao": "LEBL",
      "alert": "OK",
      "vis_m": 9999,
      "fzfg": false,
      "metar_trigger": false,
      "taf_trigger": false,
      "metar": "METAR LEBL 102200Z 33008KT 9999 FEW030 19/12 Q1011 NOSIG",
      "taf": "TAF LEBL 101700Z 1018/1118 24010KT 9999 FEW050 TX22/1113Z TN14/1106Z"
    },
    {
      "icao": "LECH",
      "alert": "OK",
      "vis_m": 9999,
      "fzfg": false,
      "metar_trigger": false,
      "taf_trigger": false,
      "metar": "METAR LECH 102200Z AUTO 03003KT 310V090 CAVOK 15/12 Q1013",
      "taf": "TAF LECH 101700Z 1018/1118 22010KT 9999 FEW020 TX24/1114Z TN10/1105Z"
    },
    {
      "icao": "LEMD",
      "alert": "OK",
      "vis_m": 9999,
      "fzfg": false,
      "metar_trigger": false,
      "taf_trigger": false,
      "metar": "METAR LEMD 102200Z 18003KT 130V220 9999 SCT070 12/09 Q1014 NOSIG",
      "taf": "TAF LEMD 101700Z 1018/1124 20010KT 9999 SCT020 TX18/1116Z TN06/1105Z"
    },
    {
      "icao": "LEMG",
      "alert": "OK",
      "vis_m": 9999,
      "fzfg": false,
      "metar_trigger": false,
      "taf_trigger": false,
      "metar": "METAR LEMG 102200Z 31006KT CAVOK 16/10 Q1016 NOSIG",
      "taf": "TAF LEMG 101700Z 1018/1118 18006KT 9999 SCT040 TX23/1114Z TN13/1106Z"
    },
    {
      "icao": "LEVC",
      "alert": "OK",
      "vis_m": 9999,
      "fzfg": false,
      "metar_trigger": false,
      "taf_trigger": false,
      "metar": "METAR LEVC 102200Z 25006KT 9999 FEW025 SCT065 18/11 Q1013 NOSIG",
      "taf": "TAF LEVC 101700Z 1018/1118 25010KT 9999 FEW020 TX26/1112Z TN14/1105Z"
    },
    {
      "icao": "LEXJ",
      "alert": "OK",
      "vis_m": 9999,
      "fzfg": false,
      "metar_trigger": false,
      "taf_trigger": false,
      "metar": "METAR LEXJ 102200Z AUTO 00000KT CAVOK 12/11 Q1011",
      "taf": "TAF LEXJ 102000Z 1021/1121 22009KT 9999 FEW045 TX20/1112Z TN11/1104Z"
    },
    {
      "icao": "LEZG",
      "alert": "OK",
      "vis_m": 9999,
      "fzfg": false,
      "metar_trigger": false,
      "taf_trigger": false,
      "metar": "METAR LEZG 102200Z 20005KT CAVOK 13/11 Q1012 NOSIG",
      "taf": "TAF LEZG 101700Z 1018/1118 22014KT 9999 FEW020 TX23/1118Z TN12/1105Z"
    },
    {
      "icao": "LEZL",
      "alert": "OK",
      "vis_m": 9999,
      "fzfg": false,
      "metar_trigger": false,
      "taf_trigger": false,
      "metar": "METAR LEZL 102200Z 21006KT 190V250 CAVOK 16/12 Q1016 NOSIG",
      "taf": "TAF LEZL 102000Z 1021/1121 22012KT 9999 SCT030 TX23/1115Z TN11/1107Z"
    },
    {
      "icao": "LFBD",
      "alert": "OK",
      "vis_m": 9999,
      "fzfg": false,
      "metar_trigger": false,
      "taf_trigger": false,
      "metar": "METAR LFBD 102200Z AUTO 25004KT CAVOK 15/12 Q1010 NOSIG",
      "taf": "TAF LFBD 101700Z 1018/1124 30010KT 9999 SCT040 TX20/1112Z TN11/1105Z"
    },
    {
      "icao": "LFLL",
      "alert": "OK",
      "vis_m": 9999,
      "fzfg": false,
      "metar_trigger": false,
      "taf_trigger": false,
      "metar": "METAR LFLL 102200Z 17009KT 9999 FEW046CB SCT056 BKN070 14/12 Q1009 RERA RETSRA TEMPO SHRA",
      "taf": "TAF LFLL 101700Z 1018/1124 18006KT 9999 BKN030"
    },
    {
      "icao": "LFLS",
      "alert": "OK",
      "vis_m": 9999,
      "fzfg": false,
      "metar_trigger": false,
      "taf_trigger": false,
      "metar": "METAR LFLS 102200Z AUTO 25014KT 9999 TS BKN015/// BKN022/// BKN027/// ///CB 14/13 Q1009",
      "taf": ""
    },
    {
      "icao": "LFMN",
      "alert": "OK",
      "vis_m": 9999,
      "fzfg": false,
      "metar_trigger": false,
      "taf_trigger": false,
      "metar": "METAR LFMN 102200Z 13006KT 9999 SCT015 BKN023 17/15 Q1012 NOSIG",
      "taf": "TAF LFMN 102000Z 1021/1203 10007KT 9999 FEW010 BKN030"
    },
    {
      "icao": "LFOB",
      "alert": "OK",
      "vis_m": 7000,
      "fzfg": false,
      "metar_trigger": false,
      "taf_trigger": false,
      "metar": "METAR LFOB 102200Z AUTO 01011KT 7000 -RA OVC008 10/10 Q1008 TEMPO 3000 RA",
      "taf": ""
    },
    {
      "icao": "LFPO",
      "alert": "OK",
      "vis_m": 7000,
      "fzfg": false,
      "metar_trigger": false,
      "taf_trigger": false,
      "metar": "METAR LFPO 102200Z AUTO 01009KT 7000 BKN007 OVC011 12/11 Q1007 TEMPO 4000 -RADZ BECMG BKN012",
      "taf": ""
    },
    {
      "icao": "LFSB",
      "alert": "OK",
      "vis_m": 9999,
      "fzfg": false,
      "metar_trigger": false,
      "taf_trigger": false,
      "metar": "METAR LFSB 102200Z AUTO 00000KT 9999 SCT038/// BKN044/// BKN052/// ///TCU 14/13 Q1007 TEMPO FEW040CB BKN050",
      "taf": "TAF LFSB 101700Z 1018/1118 18003KT CAVOK"
    },
    {
      "icao": "LGAV",
      "alert": "OK",
      "vis_m": 9999,
      "fzfg": false,
      "metar_trigger": false,
      "taf_trigger": false,
      "metar": "METAR LGAV 102150Z 24003KT 9999 FEW025 18/12 Q1015 NOSIG",
      "taf": "TAF LGAV 101700Z 1018/1118 VRB03KT 9999 FEW025"
    },
    {
      "icao": "LGTS",
      "alert": "OK",
      "vis_m": 9999,
      "fzfg": false,
      "metar_trigger": false,
      "taf_trigger": false,
      "metar": "METAR LGTS 102150Z 10004KT 9999 FEW025 15/15 Q1014 NOSIG",
      "taf": "TAF LGTS 101700Z 1018/1118 VRB03KT 9999 FEW025"
    },
    {
      "icao": "LHBP",
      "alert": "OK",
      "vis_m": 9999,
      "fzfg": false,
      "metar_trigger": false,
      "taf_trigger": false,
      "metar": "METAR LHBP 102200Z 11004KT CAVOK 15/09 Q1010 NOSIG",
      "taf": "TAF LHBP 101715Z 1018/1118 10005KT CAVOK"
    },
    {
      "icao": "LHDC",
      "alert": "OK",
      "vis_m": 9999,
      "fzfg": false,
      "metar_trigger": false,
      "taf_trigger": false,
      "metar": "METAR LHDC 102145Z AUTO 11006KT CAVOK 13/06 Q1011 NOSIG",
      "taf": "TAF LHDC 101715Z 1018/1103 VRB03KT CAVOK"
    },
    {
      "icao": "LIBD",
      "alert": "OK",
      "vis_m": 9999,
      "fzfg": false,
      "metar_trigger": false,
      "taf_trigger": false,
      "metar": "METAR LIBD 102220Z 21010KT CAVOK 17/14 Q1012",
      "taf": "TAF LIBD 101700Z 1018/1118 22010KT CAVOK"
    },
    {
      "icao": "LIBG",
      "alert": "OK",
      "vis_m": null,
      "fzfg": false,
      "metar_trigger": false,
      "taf_trigger": false,
      "metar": "",
      "taf": "TAF LIBG 101400Z 1015/1024 18010KT 9999 SCT030"
    },
    {
      "icao": "LIBP",
      "alert": "OK",
      "vis_m": 9999,
      "fzfg": false,
      "metar_trigger": false,
      "taf_trigger": false,
      "metar": "METAR LIBP 102220Z AUTO 23003KT 9999 NCD 14/14 Q1011",
      "taf": "TAF LIBP 101700Z 1018/1118 VRB05KT 9999 SCT040"
    },
    {
      "icao": "LIBR",
      "alert": "OK",
      "vis_m": 9999,
      "fzfg": false,
      "metar_trigger": false,
      "taf_trigger": false,
      "metar": "METAR LIBR 102220Z 17006KT CAVOK 17/14 Q1013",
      "taf": "TAF LIBR 101700Z 1018/1118 18010KT 9999 FEW040"
    },
    {
      "icao": "LICA",
      "alert": "OK",
      "vis_m": 9999,
      "fzfg": false,
      "metar_trigger": false,
      "taf_trigger": false,
      "metar": "METAR LICA 102220Z AUTO 22006KT 9999 FEW021/// OVC038/// 19/17 Q1015",
      "taf": "TAF LICA 101700Z 1018/1118 26008KT 9999 FEW050"
    },
    {
      "icao": "LICC",
      "alert": "OK",
      "vis_m": 9999,
      "fzfg": false,
      "metar_trigger": false,
      "taf_trigger": false,
      "metar": "METAR LICC 102220Z 26007KT CAVOK 15/11 Q1014",
      "taf": "TAF LICC 101700Z 1018/1118 VRB05KT 9999 FEW080"
    },
    {
      "icao": "LICJ",
      "alert": "OK",
      "vis_m": 9999,
      "fzfg": false,
      "metar_trigger": false,
      "taf_trigger": false,
      "metar": "METAR LICJ 102220Z VRB02KT 9999 SCT020 17/15 Q1015",
      "taf": "TAF LICJ 101700Z 1018/1118 27010KT 9999 FEW050"
    },
    {
      "icao": "LIMC",
      "alert": "OK",
      "vis_m": 9999,
      "fzfg": false,
      "metar_trigger": false,
      "taf_trigger": false,
      "metar": "METAR LIMC 102150Z 35003KT 9999 -RA BKN020 14/12 Q1012 NOSIG",
      "taf": "TAF LIMC 101700Z 1018/1124 VRB05KT 9999 BKN040"
    },
    {
      "icao": "LIME",
      "alert": "OK",
      "vis_m": 9999,
      "fzfg": false,
      "metar_trigger": false,
      "taf_trigger": false,
      "metar": "METAR LIME 102150Z 02003KT 9999 BKN035 14/13 Q1012 NOSIG",
      "taf": "TAF LIME 101700Z 1018/1118 VRB05KT 9999 SCT030"
    },
    {
      "icao": "LIMF",
      "alert": "OK",
      "vis_m": 7000,
      "fzfg": false,
      "metar_trigger": false,
      "taf_trigger": false,
      "metar": "METAR LIMF 102150Z 35002KT 7000 SCT030 BKN050 14/13 Q1012",
      "taf": "TAF LIMF 101700Z 1018/1118 VRB05KT 4000 BR BKN005 BKN030"
    },
    {
      "icao": "LIMJ",
      "alert": "OK",
      "vis_m": 9999,
      "fzfg": false,
      "metar_trigger": false,
      "taf_trigger": false,
      "metar": "METAR LIMJ 102150Z 07003KT 9999 BKN024 17/15 Q1011",
      "taf": "TAF LIMJ 101700Z 1018/1118 VRB05KT 9999 SCT020"
    },
    {
      "icao": "LIPE",
      "alert": "OK",
      "vis_m": 8000,
      "fzfg": false,
      "metar_trigger": false,
      "taf_trigger": false,
      "metar": "METAR LIPE 102150Z 26005KT 8000 NSC 17/16 Q1011",
      "taf": "TAF LIPE 101700Z 1018/1118 VRB05KT 9999 SCT040 SCT070"
    },
    {
      "icao": "LIPH",
      "alert": "OK",
      "vis_m": 9999,
      "fzfg": false,
      "metar_trigger": false,
      "taf_trigger": false,
      "metar": "METAR LIPH 102220Z AUTO VRB01KT 9999 FEW039/// OVC047/// 15/15 Q1011",
      "taf": "TAF LIPH 101700Z 1018/1118 VRB05KT 9999 BKN070"
    },
    {
      "icao": "LIPQ",
      "alert": "OK",
      "vis_m": 9999,
      "fzfg": false,
      "metar_trigger": false,
      "taf_trigger": false,
      "metar": "METAR LIPQ 102220Z AUTO VRB02KT 9999 OVC036/// 16/14 Q1011",
      "taf": "TAF LIPQ 101700Z 1018/1118 VRB05KT 9999 SCT030"
    },
    {
      "icao": "LIPR",
      "alert": "OK",
      "vis_m": 6000,
      "fzfg": false,
      "metar_trigger": false,
      "taf_trigger": false,
      "metar": "METAR LIPR 102220Z AUTO VRB01KT 6000 SCT008/// BKN053/// 14/14 Q1011",
      "taf": "TAF LIPR 101700Z 1018/1118 10010KT 9999 FEW060"
    },
    {
      "icao": "LIPX",
      "alert": "OK",
      "vis_m": 9999,
      "fzfg": false,
      "metar_trigger": false,
      "taf_trigger": false,
      "metar": "METAR LIPX 102220Z VRB01KT 9999 OVC035 16/12 Q1011",
      "taf": "TAF LIPX 101700Z 1018/1118 VRB05KT 4000 RA"
    },
    {
      "icao": "LIPY",
      "alert": "OK",
      "vis_m": 9999,
      "fzfg": false,
      "metar_trigger": false,
      "taf_trigger": false,
      "metar": "METAR LIPY 102220Z AUTO 22003KT 9999 -RA BKN003/// BKN045/// OVC062/// 16/16 Q1012",
      "taf": "TAF LIPY 101700Z 1018/1118 VRB05KT 9999 FEW060"
    },
    {
      "icao": "LIPZ",
      "alert": "OK",
      "vis_m": 9999,
      "fzfg": false,
      "metar_trigger": false,
      "taf_trigger": false,
      "metar": "METAR LIPZ 102150Z 33003KT 310V020 9999 BKN040 16/14 Q1011 NOSIG",
      "taf": "TAF LIPZ 101700Z 1018/1124 VRB05KT 9999 SCT070"
    },
    {
      "icao": "LIRF",
      "alert": "OK",
      "vis_m": 8000,
      "fzfg": false,
      "metar_trigger": false,
      "taf_trigger": false,
      "metar": "METAR LIRF 102150Z 25006KT 8000 FEW005 SCT025 18/18 Q1012 NOSIG",
      "taf": "TAF LIRF 101700Z 1018/1124 16007KT 9999 SCT030"
    },
    {
      "icao": "LIRN",
      "alert": "OK",
      "vis_m": 8000,
      "fzfg": false,
      "metar_trigger": false,
      "taf_trigger": false,
      "metar": "METAR LIRN 102150Z 18007KT 8000 FEW010 BKN030 18/17 Q1014 NOSIG",
      "taf": "TAF LIRN 101700Z 1018/1118 20008KT 9999 SCT012 SCT030"
    },
    {
      "icao": "LIRP",
      "alert": "OK",
      "vis_m": 9999,
      "fzfg": false,
      "metar_trigger": false,
      "taf_trigger": false,
      "metar": "METAR LIRP 102145Z 24003KT 9999 SCT020 BKN060 17/15 Q1012 NOSIG",
      "taf": "TAF LIRP 101700Z 1018/1118 VRB03KT 9999 SCT030"
    },
    {
      "icao": "LIRZ",
      "alert": "OK",
      "vis_m": 9999,
      "fzfg": false,
      "metar_trigger": false,
      "taf_trigger": false,
      "metar": "METAR LIRZ 102220Z AUTO 07002KT 9999 OVC022/// 15/14 Q1012",
      "taf": "TAF LIRZ 101700Z 1018/1118 VRB05KT 9999 BKN030"
    },
    {
      "icao": "LJLJ",
      "alert": "OK",
      "vis_m": 9999,
      "fzfg": false,
      "metar_trigger": false,
      "taf_trigger": false,
      "metar": "METAR LJLJ 102200Z 08004KT 9999 FEW060 BKN075 BKN095 13/09 Q1011 NOSIG",
      "taf": "TAF LJLJ 101700Z 1018/1118 12005KT 9999 SCT040 BKN080"
    },
    {
      "icao": "LKMT",
      "alert": "OK",
      "vis_m": 9999,
      "fzfg": false,
      "metar_trigger": false,
      "taf_trigger": false,
      "metar": "METAR LKMT 102200Z 29002KT CAVOK 12/09 Q1009 NOSIG",
      "taf": "TAF LKMT 101700Z 1018/1118 VRB02KT CAVOK"
    },
    {
      "icao": "LKPR",
      "alert": "OK",
      "vis_m": 9999,
      "fzfg": false,
      "metar_trigger": false,
      "taf_trigger": false,
      "metar": "METAR LKPR 102200Z 10007KT CAVOK 13/05 Q1007 NOSIG",
      "taf": "TAF LKPR 102000Z 1021/1203 10005KT CAVOK"
    },
    {
      "icao": "LLBG",
      "alert": "OK",
      "vis_m": 9999,
      "fzfg": false,
      "metar_trigger": false,
      "taf_trigger": false,
      "metar": "METAR LLBG 102220Z VRB02KT CAVOK 19/12 Q1014 NOSIG",
      "taf": "TAF LLBG 101702Z 1018/1118 VRB04KT CAVOK TX27/1111Z TN15/1103Z"
    },
    {
      "icao": "LMML",
      "alert": "OK",
      "vis_m": 9999,
      "fzfg": false,
      "metar_trigger": false,
      "taf_trigger": false,
      "metar": "METAR LMML 102215Z 30009KT CAVOK 17/15 Q1015 NOSIG",
      "taf": "TAF LMML 101700Z 1018/1118 03012KT 9999 FEW015"
    },
    {
      "icao": "LOWW",
      "alert": "OK",
      "vis_m": 9999,
      "fzfg": false,
      "metar_trigger": false,
      "taf_trigger": false,
      "metar": "METAR LOWW 102150Z 16006KT 9999 NSC 15/11 Q1007 NOSIG",
      "taf": "TAF LOWW 102015Z 1021/1203 15010KT CAVOK TX21/1112Z TN12/1203Z"
    },
    {
      "icao": "LPFR",
      "alert": "OK",
      "vis_m": 9999,
      "fzfg": false,
      "metar_trigger": false,
      "taf_trigger": false,
      "metar": "METAR LPFR 102200Z 21009KT 9999 FEW020 17/13 Q1015",
      "taf": "TAF LPFR 101700Z 1018/1118 23013KT 9999 SCT020"
    },
    {
      "icao": "LPMA",
      "alert": "OK",
      "vis_m": 9999,
      "fzfg": false,
      "metar_trigger": false,
      "taf_trigger": false,
      "metar": "METAR LPMA 102200Z 30003KT 9999 FEW016 15/10 Q1016",
      "taf": "TAF LPMA 101700Z 1018/1118 03010KT 9999 SCT015"
    },
    {
      "icao": "LPPR",
      "alert": "OK",
      "vis_m": 9999,
      "fzfg": false,
      "metar_trigger": false,
      "taf_trigger": false,
      "metar": "METAR LPPR 102200Z 14010KT 9999 VCSH SCT014 FEW015CB BKN022 14/12 Q1009",
      "taf": ""
    },
    {
      "icao": "LPPS",
      "alert": "OK",
      "vis_m": 9999,
      "fzfg": false,
      "metar_trigger": false,
      "taf_trigger": false,
      "metar": "METAR LPPS 102200Z 28009KT 9999 FEW015 16/12 Q1016",
      "taf": "TAF LPPS 101700Z 1018/1124 27013KT 9999 SCT015"
    },
    {
      "icao": "LPPT",
      "alert": "OK",
      "vis_m": 9999,
      "fzfg": false,
      "metar_trigger": false,
      "taf_trigger": false,
      "metar": "METAR LPPT 102200Z 20016KT 9999 BKN008 FEW020CB 15/14 Q1011",
      "taf": "TAF LPPT 101700Z 1018/1124 21018KT 9999 SCT025"
    },
    {
      "icao": "LQBK",
      "alert": "OK",
      "vis_m": 9999,
      "fzfg": false,
      "metar_trigger": false,
      "taf_trigger": false,
      "metar": "METAR LQBK 102200Z 11005KT CAVOK 15/13 Q1010 NOSIG",
      "taf": ""
    },
    {
      "icao": "LQSA",
      "alert": "OK",
      "vis_m": 9999,
      "fzfg": false,
      "metar_trigger": false,
      "taf_trigger": false,
      "metar": "METAR LQSA 102200Z VRB01KT 9999 FEW050 15/11 Q1013",
      "taf": "TAF LQSA 101700Z 1018/1118 VRB02KT 9999 SCT065 TX25/1114Z TN08/1104Z"
    },
    {
      "icao": "LQTZ",
      "alert": "OK",
      "vis_m": 9999,
      "fzfg": false,
      "metar_trigger": false,
      "taf_trigger": false,
      "metar": "METAR LQTZ 102200Z VRB02KT CAVOK 12/12 Q1011",
      "taf": "TAF LQTZ 101700Z 1018/1118 10005KT CAVOK TX25/1113Z TN10/1104Z"
    },
    {
      "icao": "LRBC",
      "alert": "OK",
      "vis_m": 9999,
      "fzfg": false,
      "metar_trigger": false,
      "taf_trigger": false,
      "metar": "METAR LRBC 102200Z 12001KT 9999 BKN039 12/11 Q1014",
      "taf": "TAF LRBC 102000Z 1021/1106 VRB04KT 9999 SCT035"
    },
    {
      "icao": "LRBS",
      "alert": "OK",
      "vis_m": 9999,
      "fzfg": false,
      "metar_trigger": false,
      "taf_trigger": false,
      "metar": "METAR LRBS 102200Z VRB02KT CAVOK 15/13 Q1014 NOSIG",
      "taf": ""
    },
    {
      "icao": "LRBV",
      "alert": "OK",
      "vis_m": 9999,
      "fzfg": false,
      "metar_trigger": false,
      "taf_trigger": false,
      "metar": "METAR LRBV 102200Z AUTO 20008KT 9999 NCD 10/08 Q1014",
      "taf": "TAF LRBV 101700Z 1018/1103 VRB04KT CAVOK"
    },
    {
      "icao": "LRCL",
      "alert": "OK",
      "vis_m": 9999,
      "fzfg": false,
      "metar_trigger": false,
      "taf_trigger": false,
      "metar": "METAR LRCL 102200Z VRB02KT CAVOK 11/09 Q1013",
      "taf": "TAF LRCL 102000Z 1021/1106 VRB04KT CAVOK"
    },
    {
      "icao": "LRCV",
      "alert": "OK",
      "vis_m": 9999,
      "fzfg": false,
      "metar_trigger": false,
      "taf_trigger": false,
      "metar": "METAR LRCV 102200Z 10005KT CAVOK 13/12 Q1013",
      "taf": "TAF LRCV 102000Z 1021/1106 08007KT CAVOK"
    },
    {
      "icao": "LRIA",
      "alert": "OK",
      "vis_m": 9999,
      "fzfg": false,
      "metar_trigger": false,
      "taf_trigger": false,
      "metar": "METAR LRIA 102200Z VRB02KT CAVOK 12/10 Q1014",
      "taf": "TAF LRIA 102000Z 1021/1106 VRB04KT 9999 SCT035"
    },
    {
      "icao": "LROP",
      "alert": "OK",
      "vis_m": 9999,
      "fzfg": false,
      "metar_trigger": false,
      "taf_trigger": false,
      "metar": "METAR LROP 102200Z 08004KT CAVOK 15/13 Q1014 NOSIG",
      "taf": ""
    },
    {
      "icao": "LRSB",
      "alert": "OK",
      "vis_m": 9999,
      "fzfg": false,
      "metar_trigger": false,
      "taf_trigger": false,
      "metar": "METAR LRSB 102200Z VRB01KT 9999 BKN085 12/10 Q1013",
      "taf": "TAF LRSB 101700Z 1018/1118 VRB04KT CAVOK"
    },
    {
      "icao": "LRSM",
      "alert": "OK",
      "vis_m": 9999,
      "fzfg": false,
      "metar_trigger": false,
      "taf_trigger": false,
      "metar": "METAR LRSM 102200Z AUTO 00000KT 9999 NCD 10/07 Q1012",
      "taf": ""
    },
    {
      "icao": "LRSV",
      "alert": "OK",
      "vis_m": 9999,
      "fzfg": false,
      "metar_trigger": false,
      "taf_trigger": false,
      "metar": "METAR LRSV 102200Z 32004KT CAVOK 10/09 Q1014",
      "taf": "TAF LRSV 102000Z 1021/1106 VRB04KT 9999 BKN035"
    },
    {
      "icao": "LRTM",
      "alert": "OK",
      "vis_m": 9999,
      "fzfg": false,
      "metar_trigger": false,
      "taf_trigger": false,
      "metar": "METAR LRTM 102200Z 09003KT CAVOK 10/09 Q1013",
      "taf": "TAF LRTM 102000Z 1021/1106 VRB04KT CAVOK"
    },
    {
      "icao": "LRTR",
      "alert": "OK",
      "vis_m": 9999,
      "fzfg": false,
      "metar_trigger": false,
      "taf_trigger": false,
      "metar": "METAR LRTR 102200Z 09005KT CAVOK 12/12 Q1011",
      "taf": "TAF LRTR 101700Z 1018/1118 10008KT CAVOK"
    },
    {
      "icao": "LTAC",
      "alert": "OK",
      "vis_m": 9999,
      "fzfg": false,
      "metar_trigger": false,
      "taf_trigger": false,
      "metar": "METAR LTAC 102150Z 01003KT 350V050 9999 FEW040 BKN080 13/09 Q1017 NOSIG RMK RWY21C VRB02KT RWY03L VRB01KT RWY21R VRB01KT RWY03R 20002KT RWY21L 15004KT",
      "taf": "TAF LTAC 101640Z 1018/1118 VRB02KT 9999 FEW040 SCT100"
    },
    {
      "icao": "LTFM",
      "alert": "OK",
      "vis_m": 9999,
      "fzfg": false,
      "metar_trigger": false,
      "taf_trigger": false,
      "metar": "METAR LTFM 102150Z 17004KT 9999 FEW040 SCT090 17/11 Q1015 NOSIG RMK RWY17L 00000KT RWY34L 14003KT RWY16R 11004KT RWY36 18003KT RWY18 VRB01KT",
      "taf": "TAF LTFM 101640Z 1018/1124 13012KT 9999 SCT040 BKN090"
    },
    {
      "icao": "LUKK",
      "alert": "OK",
      "vis_m": 8000,
      "fzfg": false,
      "metar_trigger": false,
      "taf_trigger": false,
      "metar": "METAR LUKK 102200Z 35004KT 8000 NSC 10/09 Q1014 BECMG 1200 BR",
      "taf": "TAF LUKK 101710Z 1018/1118 VRB05KT CAVOK"
    },
    {
      "icao": "LWOH",
      "alert": "OK",
      "vis_m": null,
      "fzfg": false,
      "metar_trigger": false,
      "taf_trigger": false,
      "metar": "",
      "taf": "TAF LWOH 102050Z 1021/1121 34005KT 9999 FEW040"
    },
    {
      "icao": "LWSK",
      "alert": "OK",
      "vis_m": 9999,
      "fzfg": false,
      "metar_trigger": false,
      "taf_trigger": false,
      "metar": "METAR LWSK 102220Z COR VRB01KT 9999 FEW060 15/12 Q1014 NOSIG",
      "taf": "TAF LWSK 102050Z 1021/1121 VRB02KT 9999 FEW060"
    },
    {
      "icao": "LYBE",
      "alert": "OK",
      "vis_m": 9999,
      "fzfg": false,
      "metar_trigger": false,
      "taf_trigger": false,
      "metar": "METAR LYBE 102200Z 14006KT CAVOK 16/10 Q1010 NOSIG",
      "taf": "TAF LYBE 101700Z 1018/1118 14005KT CAVOK TX25/1113Z TN15/1103Z"
    },
    {
      "icao": "LYNI",
      "alert": "OK",
      "vis_m": 9999,
      "fzfg": false,
      "metar_trigger": false,
      "taf_trigger": false,
      "metar": "METAR LYNI 102200Z 10003KT 080V160 CAVOK 15/10 Q1012 NOSIG",
      "taf": "TAF LYNI 101700Z 1018/1118 08004KT CAVOK TX27/1113Z TN11/1103Z"
    },
    {
      "icao": "LYPG",
      "alert": "OK",
      "vis_m": 9999,
      "fzfg": false,
      "metar_trigger": false,
      "taf_trigger": false,
      "metar": "METAR LYPG 102200Z VRB02KT 9999 FEW034 SCT080 17/12 Q1014 NOSIG",
      "taf": "TAF LYPG 101700Z 1018/1118 36005KT 9999 FEW030 SCT040 BKN080 TX23/1114Z TN15/1104Z"
    },
    {
      "icao": "LZIB",
      "alert": "OK",
      "vis_m": 9999,
      "fzfg": false,
      "metar_trigger": false,
      "taf_trigger": false,
      "metar": "METAR LZIB 102200Z VRB03KT CAVOK 15/10 Q1007 NOSIG",
      "taf": "TAF LZIB 101715Z 1018/1118 15008KT CAVOK"
    },
    {
      "icao": "LZKZ",
      "alert": "OK",
      "vis_m": 9999,
      "fzfg": false,
      "metar_trigger": false,
      "taf_trigger": false,
      "metar": "METAR LZKZ 102200Z 36003KT CAVOK 11/06 Q1011 NOSIG",
      "taf": "TAF LZKZ 101715Z 1018/1118 VRB02KT CAVOK"
    },
    {
      "icao": "LZTT",
      "alert": "OK",
      "vis_m": 9999,
      "fzfg": false,
      "metar_trigger": false,
      "taf_trigger": false,
      "metar": "METAR LZTT 102200Z 26005KT CAVOK 09/06 Q1012",
      "taf": "TAF LZTT 101715Z 1018/1118 15005KT 9999 FEW060"
    },
    {
      "icao": "OEJN",
      "alert": "OK",
      "vis_m": 9999,
      "fzfg": false,
      "metar_trigger": false,
      "taf_trigger": false,
      "metar": "METAR OEJN 102200Z 35002KT CAVOK 30/19 Q1008 NOSIG",
      "taf": "TAF OEJN 101700Z 1018/1124 36004KT 7000 NSC"
    },
    {
      "icao": "OEMA",
      "alert": "OK",
      "vis_m": 9999,
      "fzfg": false,
      "metar_trigger": false,
      "taf_trigger": false,
      "metar": "METAR OEMA 102200Z 25012KT CAVOK 35/M02 Q1013 NOSIG",
      "taf": "TAF OEMA 101700Z 1018/1124 27005KT 9999 FEW045"
    },
    {
      "icao": "OJAI",
      "alert": "OK",
      "vis_m": 5000,
      "fzfg": false,
      "metar_trigger": false,
      "taf_trigger": false,
      "metar": "METAR OJAI 102200Z 03003KT 5000 HZ NSC 14/04 Q1017 NOSIG",
      "taf": "TAF OJAI 101700Z 1018/1124 31008KT 5000 HZ NSC"
    },
    {
      "icao": "OMAA",
      "alert": "OK",
      "vis_m": 9999,
      "fzfg": false,
      "metar_trigger": false,
      "taf_trigger": false,
      "metar": "METAR OMAA 102200Z 24005KT CAVOK 27/18 Q1006 NOSIG",
      "taf": "TAF OMAA 101700Z 1018/1200 29010KT 8000 NSC"
    },
    {
      "icao": "OMDB",
      "alert": "OK",
      "vis_m": 9999,
      "fzfg": false,
      "metar_trigger": false,
      "taf_trigger": false,
      "metar": "METAR OMDB 102200Z 18007KT CAVOK 28/18 Q1006 NOSIG",
      "taf": "TAF OMDB 101700Z 1018/1200 26010KT CAVOK"
    },
    {
      "icao": "UAAA",
      "alert": "OK",
      "vis_m": 9999,
      "fzfg": false,
      "metar_trigger": false,
      "taf_trigger": false,
      "metar": "METAR UAAA 102200Z VRB01MPS 9999 SCT050CB BKN100 12/11 Q1014 NOSIG",
      "taf": "TAF UAAA 101702Z 1018/1118 17003G08MPS 4000 BR BKN030CB OVC100 TX18/1106Z TN11/1100Z"
    },
    {
      "icao": "UBBB",
      "alert": "OK",
      "vis_m": 9999,
      "fzfg": false,
      "metar_trigger": false,
      "taf_trigger": false,
      "metar": "METAR UBBB 102200Z 18005KT CAVOK 16/15 Q1016 NOSIG",
      "taf": "TAF UBBB 101658Z 1018/1118 15008KT CAVOK TX24/1110Z TN14/1101Z"
    },
    {
      "icao": "UDSG",
      "alert": "OK",
      "vis_m": 9999,
      "fzfg": false,
      "metar_trigger": false,
      "taf_trigger": false,
      "metar": "METAR UDSG 102200Z 20001KT 9999 BKN043CB 08/06 Q1021 NOSIG",
      "taf": "TAF UDSG 101658Z 1018/1118 06006KT 9999 SCT050"
    },
    {
      "icao": "UDYZ",
      "alert": "OK",
      "vis_m": 9999,
      "fzfg": false,
      "metar_trigger": false,
      "taf_trigger": false,
      "metar": "METAR UDYZ 102200Z 18001KT 9999 NSC 16/08 Q1018 NOSIG",
      "taf": "TAF UDYZ 101700Z 1018/1118 16006KT 9999 FEW040"
    },
    {
      "icao": "UGKO",
      "alert": "OK",
      "vis_m": 9999,
      "fzfg": false,
      "metar_trigger": false,
      "taf_trigger": false,
      "metar": "METAR UGKO 102200Z 10005KT CAVOK 15/12 Q1013 NOSIG",
      "taf": "TAF UGKO 101700Z 1018/1118 08008KT CAVOK TX30/1112Z TN12/1102Z"
    }
  ]
}