{
  "ts_utc": "2026-05-15T17:08:59Z",
  "threshold_m": 150,
  "source": "stations_override.txt (ICAO list) + aviationweather.gov (METAR/TAF raw)",
  "station_count": 159,
  "stations": [
    {
      "icao": "BIKF",
      "alert": "OK",
      "vis_m": 5000,
      "fzfg": false,
      "metar_trigger": false,
      "taf_trigger": false,
      "metar": "METAR BIKF 151700Z 13029KT 5000 -DZ BKN009 OVC029 08/07 Q1003",
      "taf": "TAF BIKF 151652Z 1518/1618 13026G36KT 9999 -RA BKN012 OVC020 TX08/1518Z TN06/1609Z"
    },
    {
      "icao": "BKPR",
      "alert": "OK",
      "vis_m": 9999,
      "fzfg": false,
      "metar_trigger": false,
      "taf_trigger": false,
      "metar": "METAR BKPR 151700Z 24016KT 9999 SCT050 18/08 Q1007 NOSIG",
      "taf": "TAF BKPR 151130Z 1512/1612 24008KT 9999 SCT040"
    },
    {
      "icao": "EBCI",
      "alert": "OK",
      "vis_m": 9999,
      "fzfg": false,
      "metar_trigger": false,
      "taf_trigger": false,
      "metar": "METAR EBCI 151650Z 32004KT 280V030 9999 -SHRA FEW030 SCT040 07/04 Q1007 TEMPO 4000 SHRA",
      "taf": "TAF EBCI 151100Z 1512/1618 32009KT 9999 FEW020TCU SCT040"
    },
    {
      "icao": "EDDB",
      "alert": "OK",
      "vis_m": 9999,
      "fzfg": false,
      "metar_trigger": false,
      "taf_trigger": false,
      "metar": "METAR EDDB 151650Z AUTO 28008KT 9999 FEW047 15/05 Q1001 NOSIG",
      "taf": "TAF EDDB 151100Z 1512/1612 28005KT 9999 SCT040"
    },
    {
      "icao": "EDDH",
      "alert": "OK",
      "vis_m": 9999,
      "fzfg": false,
      "metar_trigger": false,
      "taf_trigger": false,
      "metar": "METAR EDDH 151650Z AUTO 25005KT 210V300 9999 VCSH FEW///TCU 12/05 Q1001 TEMPO 25014KT SHRA SCT025CB",
      "taf": "TAF EDDH 151100Z 1512/1618 24010KT 9999 SCT035"
    },
    {
      "icao": "EDDK",
      "alert": "OK",
      "vis_m": 9999,
      "fzfg": false,
      "metar_trigger": false,
      "taf_trigger": false,
      "metar": "METAR EDDK 151650Z AUTO 25011KT 9999 SHRA SCT047 FEW///CB 11/06 Q1004 BECMG NSW",
      "taf": "TAF EDDK 151100Z 1512/1618 30009KT 9999 SCT040"
    },
    {
      "icao": "EDDN",
      "alert": "OK",
      "vis_m": 9999,
      "fzfg": false,
      "metar_trigger": false,
      "taf_trigger": false,
      "metar": "METAR EDDN 151650Z AUTO 32008KT 290V350 9999 VCSH FEW047 FEW///CB 12/04 Q1002 TEMPO SHRA SCT030CB",
      "taf": "TAF EDDN 151100Z 1512/1612 29008KT 9999 SCT030 BKN045"
    },
    {
      "icao": "EDDS",
      "alert": "OK",
      "vis_m": 9999,
      "fzfg": false,
      "metar_trigger": false,
      "taf_trigger": false,
      "metar": "METAR EDDS 151650Z AUTO 28004KT 220V330 9999 -SHRA FEW045 FEW///TCU 10/04 Q1003 NOSIG",
      "taf": ""
    },
    {
      "icao": "EDFH",
      "alert": "OK",
      "vis_m": 9999,
      "fzfg": false,
      "metar_trigger": false,
      "taf_trigger": false,
      "metar": "METAR EDFH 151650Z 34011KT 310V010 9999 VCSH FEW008 SCT040CB 07/03 Q1004",
      "taf": ""
    },
    {
      "icao": "EDJA",
      "alert": "OK",
      "vis_m": 6000,
      "fzfg": false,
      "metar_trigger": false,
      "taf_trigger": false,
      "metar": "METAR EDJA 151650Z 28012KT 6000 -SHRA SCT029CB BKN035 OVC043 06/04 Q1003",
      "taf": ""
    },
    {
      "icao": "EDLW",
      "alert": "OK",
      "vis_m": 9999,
      "fzfg": false,
      "metar_trigger": false,
      "taf_trigger": false,
      "metar": "METAR EDLW 151650Z 26005KT 220V290 9999 -RA FEW029 BKN035 09/05 Q1004",
      "taf": "TAF EDLW 151100Z 1512/1612 25006KT 9999 SCT040"
    },
    {
      "icao": "EDNY",
      "alert": "OK",
      "vis_m": 9999,
      "fzfg": false,
      "metar_trigger": false,
      "taf_trigger": false,
      "metar": "METAR EDNY 151650Z 28005KT 230V330 9999 FEW034 BKN056 11/04 Q1003",
      "taf": "TAF EDNY 151400Z 1515/1524 25006KT 9999 BKN040"
    },
    {
      "icao": "EDSB",
      "alert": "OK",
      "vis_m": 9999,
      "fzfg": false,
      "metar_trigger": false,
      "taf_trigger": false,
      "metar": "METAR EDSB 151650Z 14005KT 100V190 CAVOK 11/06 Q1004",
      "taf": ""
    },
    {
      "icao": "EETN",
      "alert": "OK",
      "vis_m": 9999,
      "fzfg": false,
      "metar_trigger": false,
      "taf_trigger": false,
      "metar": "METAR EETN 151650Z 08008KT CAVOK 14/04 Q1005 NOSIG",
      "taf": "TAF EETN 151130Z 1512/1612 05012KT CAVOK"
    },
    {
      "icao": "EFTU",
      "alert": "OK",
      "vis_m": 9999,
      "fzfg": false,
      "metar_trigger": false,
      "taf_trigger": false,
      "metar": "METAR EFTU 151650Z AUTO 24006KT 220V280 CAVOK 17/06 Q1005",
      "taf": "TAF EFTU 151423Z 1515/1615 22009KT 9999 BKN045"
    },
    {
      "icao": "EGBB",
      "alert": "OK",
      "vis_m": 9999,
      "fzfg": false,
      "metar_trigger": false,
      "taf_trigger": false,
      "metar": "METAR EGBB 151650Z 31013KT CAVOK 12/M02 Q1007",
      "taf": "TAF EGBB 151053Z 1512/1612 32011KT 9999 SCT040"
    },
    {
      "icao": "EGGP",
      "alert": "OK",
      "vis_m": 9999,
      "fzfg": false,
      "metar_trigger": false,
      "taf_trigger": false,
      "metar": "METAR EGGP 151650Z 31011KT 9999 FEW044 11/00 Q1009",
      "taf": "TAF EGGP 151054Z 1512/1612 32010KT 9999 SCT040"
    },
    {
      "icao": "EGGW",
      "alert": "OK",
      "vis_m": 9999,
      "fzfg": false,
      "metar_trigger": false,
      "taf_trigger": false,
      "metar": "METAR EGGW 151650Z AUTO 35012KT 9999 NCD 12/M02 Q1007",
      "taf": ""
    },
    {
      "icao": "EGKK",
      "alert": "OK",
      "vis_m": 9999,
      "fzfg": false,
      "metar_trigger": false,
      "taf_trigger": false,
      "metar": "METAR EGKK 151650Z 31007KT 280V360 9999 FEW047 14/03 Q1007",
      "taf": "TAF EGKK 151057Z 1512/1618 31010KT 9999 SCT035"
    },
    {
      "icao": "EGNM",
      "alert": "OK",
      "vis_m": 9999,
      "fzfg": false,
      "metar_trigger": false,
      "taf_trigger": false,
      "metar": "METAR EGNM 151650Z 27010KT 9999 FEW049 10/M01 Q1007",
      "taf": "TAF EGNM 151054Z 1512/1612 31011KT 9999 FEW035"
    },
    {
      "icao": "EGPD",
      "alert": "OK",
      "vis_m": 9999,
      "fzfg": false,
      "metar_trigger": false,
      "taf_trigger": false,
      "metar": "METAR EGPD 151650Z AUTO 32018KT 9999 SCT031 BKN037 10/02 Q1005",
      "taf": "TAF EGPD 151100Z 1512/1612 33018G30KT 9999 FEW025 SCT035"
    },
    {
      "icao": "EGPF",
      "alert": "OK",
      "vis_m": 9999,
      "fzfg": false,
      "metar_trigger": false,
      "taf_trigger": false,
      "metar": "METAR EGPF 151650Z AUTO 31012KT 9999 NCD 12/01 Q1007",
      "taf": "TAF EGPF 151057Z 1512/1612 30010KT 9999 SCT030"
    },
    {
      "icao": "EHBK",
      "alert": "OK",
      "vis_m": 9999,
      "fzfg": false,
      "metar_trigger": false,
      "taf_trigger": false,
      "metar": "METAR EHBK 151655Z AUTO 31008KT 240V360 9999 OVC037 10/04 Q1005 NOSIG",
      "taf": "TAF EHBK 151113Z 1512/1618 27007KT 9999 SCT035"
    },
    {
      "icao": "EHEH",
      "alert": "OK",
      "vis_m": 9999,
      "fzfg": false,
      "metar_trigger": false,
      "taf_trigger": false,
      "metar": "METAR EHEH 151655Z AUTO 32008KT 250V020 9999 BKN018 BKN024 OVC044 09/05 Q1005 WHT TEMPO FEW015 SCT020CB SCT025",
      "taf": "TAF EHEH 151130Z 1512/1618 29006KT 9999 SCT030"
    },
    {
      "icao": "EKBI",
      "alert": "OK",
      "vis_m": 9999,
      "fzfg": false,
      "metar_trigger": false,
      "taf_trigger": false,
      "metar": "METAR EKBI 151650Z 19011KT 170V230 9999 -SHRA FEW013 FEW015CB BKN034 08/07 Q0997",
      "taf": "TAF EKBI 151427Z 1515/1615 19011KT 9999 BKN020"
    },
    {
      "icao": "EKCH",
      "alert": "OK",
      "vis_m": 9999,
      "fzfg": false,
      "metar_trigger": false,
      "taf_trigger": false,
      "metar": "METAR EKCH 151650Z AUTO 16013KT 9999 NCD 11/03 Q1001 NOSIG",
      "taf": "TAF EKCH 151427Z 1515/1615 15013KT 9999 SCT030"
    },
    {
      "icao": "ENAL",
      "alert": "OK",
      "vis_m": 9999,
      "fzfg": false,
      "metar_trigger": false,
      "taf_trigger": false,
      "metar": "METAR ENAL 151650Z 06009KT 9999 SCT055 14/03 Q0997",
      "taf": ""
    },
    {
      "icao": "ENBR",
      "alert": "OK",
      "vis_m": 9999,
      "fzfg": false,
      "metar_trigger": false,
      "taf_trigger": false,
      "metar": "METAR ENBR 151650Z 13006KT 090V150 9999 SCT052 14/M00 Q0995 NOSIG RMK WIND 1200FT 12005KT",
      "taf": ""
    },
    {
      "icao": "ENGM",
      "alert": "OK",
      "vis_m": 9999,
      "fzfg": false,
      "metar_trigger": false,
      "taf_trigger": false,
      "metar": "METAR ENGM 151650Z 27004KT 230V330 9999 -SHRA SCT024CB BKN030 08/03 Q1001 TEMPO TSRA",
      "taf": ""
    },
    {
      "icao": "ENHD",
      "alert": "OK",
      "vis_m": 9999,
      "fzfg": false,
      "metar_trigger": false,
      "taf_trigger": false,
      "metar": "METAR ENHD 151650Z 28004KT 240V320 9999 FEW049 12/02 Q0994",
      "taf": "TAF ENHD 151400Z 1515/1522 11008KT 9999 BKN040"
    },
    {
      "icao": "ENTC",
      "alert": "OK",
      "vis_m": 9999,
      "fzfg": false,
      "metar_trigger": false,
      "taf_trigger": false,
      "metar": "METAR ENTC 151650Z 20015KT CAVOK 12/02 Q1005 NOSIG RMK WIND 2600FT 17044KT",
      "taf": "TAF ENTC 151100Z 1512/1612 19015KT CAVOK"
    },
    {
      "icao": "ENTO",
      "alert": "OK",
      "vis_m": 9999,
      "fzfg": false,
      "metar_trigger": false,
      "taf_trigger": false,
      "metar": "METAR ENTO 151650Z 17014KT 9999 SCT025CB 11/05 Q0999 NOSIG",
      "taf": "TAF ENTO 151100Z 1512/1612 15010KT 9999 FEW010 SCT050"
    },
    {
      "icao": "ENVA",
      "alert": "OK",
      "vis_m": 9999,
      "fzfg": false,
      "metar_trigger": false,
      "taf_trigger": false,
      "metar": "METAR ENVA 151650Z 14014KT 9999 FEW055TCU 15/02 Q1001 NOSIG RMK WIND 670FT 16018KT",
      "taf": "TAF ENVA 151100Z 1512/1612 13012KT 9999 SCT050"
    },
    {
      "icao": "ENZV",
      "alert": "OK",
      "vis_m": 9999,
      "fzfg": false,
      "metar_trigger": false,
      "taf_trigger": false,
      "metar": "METAR ENZV 151650Z 25004KT 9999 BKN042 10/05 Q0994 NOSIG",
      "taf": "TAF ENZV 151100Z 1512/1612 12005KT 9999 -SHRA SCT035 BKN040"
    },
    {
      "icao": "EPGD",
      "alert": "OK",
      "vis_m": 6000,
      "fzfg": false,
      "metar_trigger": false,
      "taf_trigger": false,
      "metar": "METAR EPGD 151700Z 28003KT 6000 SHRA FEW018 BKN030CB 10/10 Q1001",
      "taf": ""
    },
    {
      "icao": "EPKK",
      "alert": "OK",
      "vis_m": 9999,
      "fzfg": false,
      "metar_trigger": false,
      "taf_trigger": false,
      "metar": "METAR EPKK 151700Z 25004KT 9999 FEW040TCU BKN053 14/10 Q1001",
      "taf": "TAF EPKK 151430Z 1515/1615 24005KT 9999 SCT050"
    },
    {
      "icao": "EPKT",
      "alert": "OK",
      "vis_m": 9999,
      "fzfg": false,
      "metar_trigger": false,
      "taf_trigger": false,
      "metar": "METAR EPKT 151700Z 24008KT 9999 FEW023 12/08 Q1001",
      "taf": "TAF EPKT 151130Z 1512/1612 20008KT 9999 BKN030"
    },
    {
      "icao": "EPLB",
      "alert": "OK",
      "vis_m": 9999,
      "fzfg": false,
      "metar_trigger": false,
      "taf_trigger": false,
      "metar": "METAR EPLB 151700Z 22015G25KT 9999 -SHRA BKN066CB 15/07 Q1003",
      "taf": "TAF EPLB 151130Z 1512/1612 18012KT CAVOK"
    },
    {
      "icao": "EPMO",
      "alert": "OK",
      "vis_m": 9999,
      "fzfg": false,
      "metar_trigger": false,
      "taf_trigger": false,
      "metar": "METAR EPMO 151700Z 04003KT 9999 FEW064CB 13/11 Q1001",
      "taf": "TAF EPMO 151130Z 1512/1612 15012KT CAVOK"
    },
    {
      "icao": "EPPO",
      "alert": "OK",
      "vis_m": 9999,
      "fzfg": false,
      "metar_trigger": false,
      "taf_trigger": false,
      "metar": "METAR EPPO 151700Z 02003KT 9999 FEW040 12/08 Q1001",
      "taf": "TAF EPPO 151130Z 1512/1612 34010KT 9999 BKN026"
    },
    {
      "icao": "EPRA",
      "alert": "OK",
      "vis_m": 9999,
      "fzfg": false,
      "metar_trigger": false,
      "taf_trigger": false,
      "metar": "METAR EPRA 151700Z 14005KT CAVOK 13/10 Q1001",
      "taf": "TAF EPRA 151430Z 1515/1524 17010KT CAVOK"
    },
    {
      "icao": "EPRZ",
      "alert": "OK",
      "vis_m": 9999,
      "fzfg": false,
      "metar_trigger": false,
      "taf_trigger": false,
      "metar": "METAR EPRZ 151700Z 18006KT 9999 SCT050CB 18/07 Q1001",
      "taf": "TAF EPRZ 151130Z 1512/1612 19014KT CAVOK"
    },
    {
      "icao": "EPSC",
      "alert": "OK",
      "vis_m": 9999,
      "fzfg": false,
      "metar_trigger": false,
      "taf_trigger": false,
      "metar": "METAR EPSC 151700Z 03003KT 360V070 CAVOK 13/08 Q1001",
      "taf": "TAF EPSC 151130Z 1512/1612 VRB04KT CAVOK"
    },
    {
      "icao": "EPSY",
      "alert": "OK",
      "vis_m": 9999,
      "fzfg": false,
      "metar_trigger": false,
      "taf_trigger": false,
      "metar": "METAR EPSY 151700Z 23009KT CAVOK 14/08 Q1000",
      "taf": "TAF EPSY 151430Z 1515/1524 15010KT CAVOK"
    },
    {
      "icao": "EPWA",
      "alert": "OK",
      "vis_m": 9999,
      "fzfg": false,
      "metar_trigger": false,
      "taf_trigger": false,
      "metar": "METAR EPWA 151700Z 16011KT CAVOK 15/09 Q1000 NOSIG",
      "taf": "TAF EPWA 151430Z 1515/1615 15010KT CAVOK"
    },
    {
      "icao": "EPWR",
      "alert": "OK",
      "vis_m": 9999,
      "fzfg": false,
      "metar_trigger": false,
      "taf_trigger": false,
      "metar": "METAR EPWR 151700Z 31006KT 9999 FEW026CB 13/09 Q1001",
      "taf": "TAF EPWR 151430Z 1515/1615 VRB02KT 9999 SCT030"
    },
    {
      "icao": "ESGG",
      "alert": "OK",
      "vis_m": 9999,
      "fzfg": false,
      "metar_trigger": false,
      "taf_trigger": false,
      "metar": "METAR ESGG 151650Z 12006KT CAVOK 11/05 Q0999",
      "taf": "TAF ESGG 151430Z 1515/1615 16010KT 9999 FEW040"
    },
    {
      "icao": "ESKN",
      "alert": "OK",
      "vis_m": 9999,
      "fzfg": false,
      "metar_trigger": false,
      "taf_trigger": false,
      "metar": "METAR ESKN 151650Z 09006KT 9999 -DZ BKN048 OVC063 10/07 Q1004",
      "taf": "TAF ESKN 151430Z 1515/1615 13010KT 9999 FEW020"
    },
    {
      "icao": "ESMS",
      "alert": "OK",
      "vis_m": 9999,
      "fzfg": false,
      "metar_trigger": false,
      "taf_trigger": false,
      "metar": "METAR ESMS 151650Z 18008KT CAVOK 12/00 Q1001",
      "taf": "TAF ESMS 151427Z 1515/1615 17007KT 9999 SCT025"
    },
    {
      "icao": "ESSA",
      "alert": "OK",
      "vis_m": 9999,
      "fzfg": false,
      "metar_trigger": false,
      "taf_trigger": false,
      "metar": "METAR ESSA 151650Z 13008KT CAVOK 12/04 Q1004 NOSIG",
      "taf": "TAF ESSA 151430Z 1515/1615 14010KT 9999 FEW040"
    },
    {
      "icao": "EYKA",
      "alert": "OK",
      "vis_m": 9999,
      "fzfg": false,
      "metar_trigger": false,
      "taf_trigger": false,
      "metar": "METAR EYKA 151650Z 12006KT CAVOK 19/06 Q1002",
      "taf": "TAF EYKA 151701Z 1518/1618 VRB03KT 9000 NSC"
    },
    {
      "icao": "EYPA",
      "alert": "OK",
      "vis_m": 9999,
      "fzfg": false,
      "metar_trigger": false,
      "taf_trigger": false,
      "metar": "METAR EYPA 151650Z 14005KT CAVOK 20/05 Q1000",
      "taf": ""
    },
    {
      "icao": "EYVI",
      "alert": "OK",
      "vis_m": 9999,
      "fzfg": false,
      "metar_trigger": false,
      "taf_trigger": false,
      "metar": "METAR EYVI 151650Z 07003KT 030V090 CAVOK 18/03 Q1002 NOSIG",
      "taf": "TAF EYVI 151701Z 1518/1618 VRB03KT CAVOK"
    },
    {
      "icao": "GCFV",
      "alert": "OK",
      "vis_m": 9999,
      "fzfg": false,
      "metar_trigger": false,
      "taf_trigger": false,
      "metar": "METAR GCFV 151700Z 01020KT 9999 FEW035 BKN045 22/11 Q1017",
      "taf": "TAF GCFV 151400Z 1515/1615 02020KT 9999 SCT035 TX24/1614Z TN17/1606Z"
    },
    {
      "icao": "GCLP",
      "alert": "OK",
      "vis_m": 9999,
      "fzfg": false,
      "metar_trigger": false,
      "taf_trigger": false,
      "metar": "METAR GCLP 151700Z 01024KT 9999 SCT030 20/13 Q1019 NOSIG",
      "taf": "TAF GCLP 151400Z 1515/1615 02022KT 9999 SCT030 TX23/1614Z TN17/1606Z"
    },
    {
      "icao": "GCTS",
      "alert": "OK",
      "vis_m": 9999,
      "fzfg": false,
      "metar_trigger": false,
      "taf_trigger": false,
      "metar": "METAR GCTS 151700Z 10016KT 9999 BKN050 20/12 Q1019 WS R07 NOSIG",
      "taf": "TAF GCTS 151400Z 1515/1615 10020KT 9999 SCT035 TX23/1614Z TN15/1606Z"
    },
    {
      "icao": "GMAD",
      "alert": "OK",
      "vis_m": 8000,
      "fzfg": false,
      "metar_trigger": false,
      "taf_trigger": false,
      "metar": "METAR GMAD 151700Z 26019KT 8000 FEW033 26/09 Q1009 NOSIG",
      "taf": "TAF GMAD 151100Z 1512/1618 26010KT 8000 SCT026 SCT100"
    },
    {
      "icao": "GMMN",
      "alert": "OK",
      "vis_m": 9999,
      "fzfg": false,
      "metar_trigger": false,
      "taf_trigger": false,
      "metar": "METAR GMMN 151700Z 33012KT 310V020 9999 BKN030 20/12 Q1015 NOSIG",
      "taf": "TAF GMMN 151100Z 1512/1618 32010KT 9999 BKN020"
    },
    {
      "icao": "GMMX",
      "alert": "OK",
      "vis_m": 8000,
      "fzfg": false,
      "metar_trigger": false,
      "taf_trigger": false,
      "metar": "METAR GMMX 151700Z 01009KT 330V050 8000 SCT010 BKN016 20/08 Q1013 TEMPO 2000 SHRA",
      "taf": "TAF GMMX 151100Z 1512/1618 36006KT 9999 SCT023 BKN080"
    },
    {
      "icao": "HEGN",
      "alert": "OK",
      "vis_m": 9999,
      "fzfg": false,
      "metar_trigger": false,
      "taf_trigger": false,
      "metar": "METAR HEGN 151600Z 35011KT CAVOK 34/05 Q1006 NOSIG",
      "taf": "TAF HEGN 151700Z 1518/1624 32015KT CAVOK"
    },
    {
      "icao": "HEMA",
      "alert": "OK",
      "vis_m": 9999,
      "fzfg": false,
      "metar_trigger": false,
      "taf_trigger": false,
      "metar": "METAR HEMA 151600Z 33013KT CAVOK 32/05 Q1006 NOSIG",
      "taf": "TAF HEMA 151700Z 1518/1624 30015KT CAVOK"
    },
    {
      "icao": "HESH",
      "alert": "OK",
      "vis_m": 9999,
      "fzfg": false,
      "metar_trigger": false,
      "taf_trigger": false,
      "metar": "METAR HESH 151600Z 02006KT CAVOK 33/10 Q1004 NOSIG",
      "taf": "TAF HESH 151700Z 1518/1624 35014KT CAVOK"
    },
    {
      "icao": "HESX",
      "alert": "OK",
      "vis_m": 9999,
      "fzfg": false,
      "metar_trigger": false,
      "taf_trigger": false,
      "metar": "METAR HESX 151600Z 33010KT CAVOK 25/08 Q1011 NOSIG",
      "taf": "TAF HESX 151700Z 1518/1624 32010KT CAVOK"
    },
    {
      "icao": "LATI",
      "alert": "OK",
      "vis_m": 9999,
      "fzfg": false,
      "metar_trigger": false,
      "taf_trigger": false,
      "metar": "METAR LATI 151650Z 22008KT 190V250 CAVOK 23/07 Q1007 NOSIG",
      "taf": "TAF LATI 151700Z 1518/1618 22010KT CAVOK TX20/1612Z TN15/1604Z"
    },
    {
      "icao": "LBPD",
      "alert": "OK",
      "vis_m": 9999,
      "fzfg": false,
      "metar_trigger": false,
      "taf_trigger": false,
      "metar": "METAR LBPD 151700Z AUTO 15009KT 9999 SCT130/// 20/11 Q1005 NOSIG",
      "taf": "TAF LBPD 151100Z 1512/1612 12010KT 9999 SCT070"
    },
    {
      "icao": "LBSF",
      "alert": "OK",
      "vis_m": 9999,
      "fzfg": false,
      "metar_trigger": false,
      "taf_trigger": false,
      "metar": "METAR LBSF 151700Z AUTO 08005KT 9999 NSC 18/10 Q1006 NOSIG",
      "taf": "TAF LBSF 151100Z 1512/1612 VRB04KT 9999 SCT060"
    },
    {
      "icao": "LBWN",
      "alert": "OK",
      "vis_m": 9999,
      "fzfg": false,
      "metar_trigger": false,
      "taf_trigger": false,
      "metar": "METAR LBWN 151700Z AUTO 11010KT 9999 NCD 15/11 Q1007 NOSIG",
      "taf": "TAF LBWN 151100Z 1512/1612 12010KT 9999 SCT045"
    },
    {
      "icao": "LCLK",
      "alert": "OK",
      "vis_m": 9999,
      "fzfg": false,
      "metar_trigger": false,
      "taf_trigger": false,
      "metar": "METAR LCLK 151700Z 21010KT 9999 FEW030 22/16 Q1005 NOSIG",
      "taf": "TAF LCLK 151130Z 1512/1612 22024KT 9999 FEW025 SCT060"
    },
    {
      "icao": "LCPH",
      "alert": "OK",
      "vis_m": 9999,
      "fzfg": false,
      "metar_trigger": false,
      "taf_trigger": false,
      "metar": "METAR LCPH 151700Z 31014KT 9999 SCT014 BKN025 20/16 Q1008 TEMPO BKN012",
      "taf": "TAF LCPH 151130Z 1512/1612 29016KT 9999 FEW012 SCT020"
    },
    {
      "icao": "LEAL",
      "alert": "OK",
      "vis_m": 9999,
      "fzfg": false,
      "metar_trigger": false,
      "taf_trigger": false,
      "metar": "METAR LEAL 151700Z VRB03KT 9999 -SHRA FEW025TCU OVC055 16/12 Q1009 NOSIG",
      "taf": "TAF LEAL 151100Z 1512/1612 30009KT 9999 FEW015 BKN060 TX26/1512Z TN11/1606Z"
    },
    {
      "icao": "LEBB",
      "alert": "OK",
      "vis_m": 9999,
      "fzfg": false,
      "metar_trigger": false,
      "taf_trigger": false,
      "metar": "METAR LEBB 151700Z 30013KT 270V340 9999 VCSH FEW032TCU 14/07 Q1014 NOSIG",
      "taf": "TAF LEBB 151100Z 1512/1612 31009KT 9999 FEW020 BKN040 TX15/1513Z TN07/1603Z"
    },
    {
      "icao": "LEBL",
      "alert": "OK",
      "vis_m": 9999,
      "fzfg": false,
      "metar_trigger": false,
      "taf_trigger": false,
      "metar": "METAR LEBL 151700Z VRB11KT 9999 FEW020 FEW050TCU 15/08 Q1007 NOSIG",
      "taf": ""
    },
    {
      "icao": "LECH",
      "alert": "OK",
      "vis_m": 9999,
      "fzfg": false,
      "metar_trigger": false,
      "taf_trigger": false,
      "metar": "METAR LECH 151700Z AUTO 34012KT 290V020 CAVOK 17/00 Q1007",
      "taf": "TAF LECH 151100Z 1512/1612 33010KT 9999 FEW040 TX21/1514Z TN07/1606Z"
    },
    {
      "icao": "LEMD",
      "alert": "OK",
      "vis_m": 9999,
      "fzfg": false,
      "metar_trigger": false,
      "taf_trigger": false,
      "metar": "METAR LEMD 151700Z 36009KT 320V060 9999 FEW065 16/M01 Q1011 NOSIG",
      "taf": ""
    },
    {
      "icao": "LEMG",
      "alert": "OK",
      "vis_m": 9999,
      "fzfg": false,
      "metar_trigger": false,
      "taf_trigger": false,
      "metar": "METAR LEMG 151700Z 29013G23KT 260V320 9999 FEW075 24/08 Q1008 WS R31 NOSIG",
      "taf": "TAF LEMG 151100Z 1512/1612 29012KT CAVOK TX27/1514Z TN16/1607Z"
    },
    {
      "icao": "LEVC",
      "alert": "OK",
      "vis_m": 9999,
      "fzfg": false,
      "metar_trigger": false,
      "taf_trigger": false,
      "metar": "METAR LEVC 151700Z 26012KT 9999 FEW035TCU SCT050 18/05 Q1008 NOSIG",
      "taf": ""
    },
    {
      "icao": "LEXJ",
      "alert": "OK",
      "vis_m": 9999,
      "fzfg": false,
      "metar_trigger": false,
      "taf_trigger": false,
      "metar": "METAR LEXJ 151700Z 32011KT 300V010 9999 FEW035 15/07 Q1015",
      "taf": "TAF LEXJ 151400Z 1515/1615 32009KT 9999 FEW025 SCT040 TX17/1615Z TN10/1603Z"
    },
    {
      "icao": "LEZG",
      "alert": "OK",
      "vis_m": 9999,
      "fzfg": false,
      "metar_trigger": false,
      "taf_trigger": false,
      "metar": "METAR LEZG 151700Z 29023KT 260V330 9999 FEW050 15/04 Q1010 NOSIG",
      "taf": "TAF LEZG 151100Z 1512/1612 32020KT 9999 FEW030 TX18/1518Z TN08/1605Z"
    },
    {
      "icao": "LEZL",
      "alert": "OK",
      "vis_m": 9999,
      "fzfg": false,
      "metar_trigger": false,
      "taf_trigger": false,
      "metar": "METAR LEZL 151700Z 33013KT CAVOK 26/07 Q1010 NOSIG",
      "taf": "TAF LEZL 151400Z 1515/1615 22014KT CAVOK TX30/1615Z TN14/1607Z"
    },
    {
      "icao": "LFBD",
      "alert": "OK",
      "vis_m": 9999,
      "fzfg": false,
      "metar_trigger": false,
      "taf_trigger": false,
      "metar": "METAR LFBD 151700Z AUTO 32015KT 9999 FEW045/// ///CB 15/04 Q1011 TEMPO 4000 SHRA BECMG BKN030",
      "taf": ""
    },
    {
      "icao": "LFLL",
      "alert": "OK",
      "vis_m": 9999,
      "fzfg": false,
      "metar_trigger": false,
      "taf_trigger": false,
      "metar": "METAR LFLL 151700Z 06006KT 020V090 9999 FEW025TCU 11/05 Q1006 NOSIG",
      "taf": "TAF LFLL 151100Z 1512/1618 32008KT 9999 FEW030 BKN050"
    },
    {
      "icao": "LFLS",
      "alert": "OK",
      "vis_m": 9999,
      "fzfg": false,
      "metar_trigger": false,
      "taf_trigger": false,
      "metar": "METAR LFLS 151700Z AUTO 35007KT 310V010 9999 FEW029 SCT062 BKN084 11/04 Q1006 TEMPO VRB15G25KT 2500 TSRA SCT025CB BKN030TCU",
      "taf": "TAF LFLS 151400Z 1515/1615 36010KT 9999 SCT025TCU BKN035"
    },
    {
      "icao": "LFMN",
      "alert": "OK",
      "vis_m": 9999,
      "fzfg": false,
      "metar_trigger": false,
      "taf_trigger": false,
      "metar": "METAR LFMN 151700Z 24017KT 9999 FEW100 20/04 Q0996 NOSIG",
      "taf": "TAF LFMN 151400Z 1515/1621 23020G30KT CAVOK"
    },
    {
      "icao": "LFOB",
      "alert": "OK",
      "vis_m": 9999,
      "fzfg": false,
      "metar_trigger": false,
      "taf_trigger": false,
      "metar": "METAR LFOB 151700Z AUTO 33011KT 9999 ///CB 11/05 Q1007 BECMG BKN025",
      "taf": "TAF LFOB 151100Z 1512/1612 32008KT 9999 BKN025"
    },
    {
      "icao": "LFPO",
      "alert": "OK",
      "vis_m": 9999,
      "fzfg": false,
      "metar_trigger": false,
      "taf_trigger": false,
      "metar": "METAR LFPO 151630Z 12003KT 9999 FEW040TCU SCT046 BKN260 09/06 Q1008 TEMPO 32015G30KT -TSRA BKN040CB",
      "taf": "TAF LFPO 151100Z 1512/1618 32008KT 9999 BKN040"
    },
    {
      "icao": "LFSB",
      "alert": "OK",
      "vis_m": 9999,
      "fzfg": false,
      "metar_trigger": false,
      "taf_trigger": false,
      "metar": "METAR LFSB 151700Z AUTO VRB02KT 9999 FEW054 SCT068 11/05 Q1005 TEMPO 30012G25KT 4000 TSRA FEW040TCU",
      "taf": "TAF LFSB 151100Z 1512/1612 31007KT 9999 FEW040 BKN050"
    },
    {
      "icao": "LGAV",
      "alert": "OK",
      "vis_m": 9999,
      "fzfg": false,
      "metar_trigger": false,
      "taf_trigger": false,
      "metar": "METAR LGAV 151650Z 22009KT 9999 FEW030 21/10 Q1009 NOSIG",
      "taf": "TAF LGAV 151100Z 1512/1612 25010KT 9999 FEW025"
    },
    {
      "icao": "LGTS",
      "alert": "OK",
      "vis_m": 9999,
      "fzfg": false,
      "metar_trigger": false,
      "taf_trigger": false,
      "metar": "METAR LGTS 151650Z 18010KT 9999 FEW030 20/15 Q1007 NOSIG",
      "taf": "TAF LGTS 151100Z 1512/1612 16013KT 9999 FEW030"
    },
    {
      "icao": "LHBP",
      "alert": "OK",
      "vis_m": 9999,
      "fzfg": false,
      "metar_trigger": false,
      "taf_trigger": false,
      "metar": "METAR LHBP 151700Z 24007KT 210V270 9999 -SHRA NSC 13/11 Q1003 TEMPO 6000 SHRA",
      "taf": "TAF LHBP 151115Z 1512/1612 21009KT CAVOK"
    },
    {
      "icao": "LHDC",
      "alert": "OK",
      "vis_m": 9999,
      "fzfg": false,
      "metar_trigger": false,
      "taf_trigger": false,
      "metar": "METAR LHDC 151645Z AUTO 17008KT 140V210 CAVOK 21/07 Q1002 TEMPO VRB18G35KT 4000 TSRA SQ SCT050CB",
      "taf": "TAF LHDC 151415Z 1515/1524 18011KT CAVOK"
    },
    {
      "icao": "LIBD",
      "alert": "OK",
      "vis_m": 9999,
      "fzfg": false,
      "metar_trigger": false,
      "taf_trigger": false,
      "metar": "METAR LIBD 151650Z 16009KT CAVOK 22/12 Q1003",
      "taf": "TAF LIBD 151100Z 1512/1612 19013KT 9999 SCT040"
    },
    {
      "icao": "LIBG",
      "alert": "OK",
      "vis_m": 9999,
      "fzfg": false,
      "metar_trigger": false,
      "taf_trigger": false,
      "metar": "METAR LIBG 151650Z 15014KT CAVOK 20/15 Q1005",
      "taf": "TAF LIBG 151400Z 1515/1524 16014KT 9999 FEW040"
    },
    {
      "icao": "LIBP",
      "alert": "OK",
      "vis_m": 9999,
      "fzfg": false,
      "metar_trigger": false,
      "taf_trigger": false,
      "metar": "METAR LIBP 151650Z AUTO 23014KT 9999 BKN086/// 22/08 Q1000",
      "taf": "TAF LIBP 151100Z 1512/1612 22015KT 9999 FEW020 SCT070"
    },
    {
      "icao": "LIBR",
      "alert": "OK",
      "vis_m": 9999,
      "fzfg": false,
      "metar_trigger": false,
      "taf_trigger": false,
      "metar": "METAR LIBR 151650Z 20015KT CAVOK 22/11 Q1005",
      "taf": "TAF LIBR 151100Z 1512/1612 17015KT 9999 FEW040"
    },
    {
      "icao": "LICA",
      "alert": "OK",
      "vis_m": 9999,
      "fzfg": false,
      "metar_trigger": false,
      "taf_trigger": false,
      "metar": "METAR LICA 151650Z AUTO 08015KT 9999 NCD 21/16 Q1004",
      "taf": "TAF LICA 151100Z 1512/1612 08014KT 9999 SCT025"
    },
    {
      "icao": "LICC",
      "alert": "OK",
      "vis_m": 9999,
      "fzfg": false,
      "metar_trigger": false,
      "taf_trigger": false,
      "metar": "METAR LICC 151650Z 06008KT 9999 FEW040 22/15 Q1005",
      "taf": "TAF LICC 151100Z 1512/1612 25010KT 9999 SCT050"
    },
    {
      "icao": "LICJ",
      "alert": "OK",
      "vis_m": 9999,
      "fzfg": false,
      "metar_trigger": false,
      "taf_trigger": false,
      "metar": "METAR LICJ 151650Z 25012KT 9999 FEW040 21/17 Q1005",
      "taf": "TAF LICJ 151100Z 1512/1612 01010KT 9999 SCT040"
    },
    {
      "icao": "LIMC",
      "alert": "OK",
      "vis_m": 9999,
      "fzfg": false,
      "metar_trigger": false,
      "taf_trigger": false,
      "metar": "METAR LIMC 151650Z VRB02KT 9999 -RA BKN050 10/08 Q1000 RERA NOSIG",
      "taf": "TAF LIMC 151100Z 1512/1618 VRB05KT 9999 FEW015 BKN040"
    },
    {
      "icao": "LIME",
      "alert": "OK",
      "vis_m": 9999,
      "fzfg": false,
      "metar_trigger": false,
      "taf_trigger": false,
      "metar": "METAR LIME 151650Z 11003KT 9999 SCT020 SCT050 12/06 Q1000 NOSIG",
      "taf": "TAF LIME 151100Z 1512/1612 12007KT 9999 SCT040"
    },
    {
      "icao": "LIMF",
      "alert": "OK",
      "vis_m": 9999,
      "fzfg": false,
      "metar_trigger": false,
      "taf_trigger": false,
      "metar": "METAR LIMF 151650Z VRB01KT 9999 -RA SCT025 BKN040 BKN090 12/08 Q1000",
      "taf": "TAF LIMF 151100Z 1512/1612 VRB05KT 9999 SCT030"
    },
    {
      "icao": "LIMJ",
      "alert": "OK",
      "vis_m": 9999,
      "fzfg": false,
      "metar_trigger": false,
      "taf_trigger": false,
      "metar": "METAR LIMJ 151650Z 02009KT 310V070 9999 -RA VCTS FEW025CB BKN030 13/08 Q1000",
      "taf": "TAF LIMJ 151100Z 1512/1612 20012KT 9999 SCT040"
    },
    {
      "icao": "LIPE",
      "alert": "OK",
      "vis_m": 9999,
      "fzfg": false,
      "metar_trigger": false,
      "taf_trigger": false,
      "metar": "METAR LIPE 151650Z 08005KT 040V100 9999 BKN006 12/12 Q1000",
      "taf": "TAF LIPE 151100Z 1512/1612 VRB05KT 7000 RA BKN060"
    },
    {
      "icao": "LIPH",
      "alert": "OK",
      "vis_m": 9999,
      "fzfg": false,
      "metar_trigger": false,
      "taf_trigger": false,
      "metar": "METAR LIPH 151650Z 06004KT 360V090 9999 FEW010 BKN080 12/11 Q1000",
      "taf": "TAF LIPH 151100Z 1512/1612 VRB06KT 7000 RA SCT010 BKN045"
    },
    {
      "icao": "LIPQ",
      "alert": "OK",
      "vis_m": 9999,
      "fzfg": false,
      "metar_trigger": false,
      "taf_trigger": false,
      "metar": "METAR LIPQ 151650Z AUTO 02005KT 350V060 9999 RA OVC059/// 12/11 Q1000",
      "taf": "TAF LIPQ 151100Z 1512/1612 19010KT 8000 RA SCT020 BKN060"
    },
    {
      "icao": "LIPR",
      "alert": "OK",
      "vis_m": 9999,
      "fzfg": false,
      "metar_trigger": false,
      "taf_trigger": false,
      "metar": "METAR LIPR 151650Z AUTO VRB02KT 9999 -RA OVC059/// 14/13 Q1001",
      "taf": "TAF LIPR 151100Z 1512/1612 VRB05KT 8000 FEW030 SCT060"
    },
    {
      "icao": "LIPX",
      "alert": "OK",
      "vis_m": 9999,
      "fzfg": false,
      "metar_trigger": false,
      "taf_trigger": false,
      "metar": "METAR LIPX 151650Z VRB02KT 9999 FEW025 BKN050 12/09 Q1000",
      "taf": "TAF LIPX 151100Z 1512/1612 08010KT 9999 BKN030"
    },
    {
      "icao": "LIPY",
      "alert": "OK",
      "vis_m": 9999,
      "fzfg": false,
      "metar_trigger": false,
      "taf_trigger": false,
      "metar": "METAR LIPY 151650Z AUTO 22006KT 9999 FEW052/// OVC081/// 18/09 Q1000",
      "taf": "TAF LIPY 151100Z 1512/1612 22013KT 9999 BKN070"
    },
    {
      "icao": "LIPZ",
      "alert": "OK",
      "vis_m": 9999,
      "fzfg": false,
      "metar_trigger": false,
      "taf_trigger": false,
      "metar": "METAR LIPZ 151650Z 06007KT 9999 FEW010 SCT070 12/11 Q1000 NOSIG",
      "taf": "TAF LIPZ 151100Z 1512/1618 04008KT 7000 RA SCT020 BKN060"
    },
    {
      "icao": "LIRF",
      "alert": "OK",
      "vis_m": 9999,
      "fzfg": false,
      "metar_trigger": false,
      "taf_trigger": false,
      "metar": "METAR LIRF 151650Z 25005KT 210V290 CAVOK 18/14 Q1002 NOSIG",
      "taf": "TAF LIRF 151100Z 1512/1618 24014KT 9999 BKN030"
    },
    {
      "icao": "LIRN",
      "alert": "OK",
      "vis_m": 9999,
      "fzfg": false,
      "metar_trigger": false,
      "taf_trigger": false,
      "metar": "METAR LIRN 151650Z 19011KT 9999 FEW030 20/12 Q1003 NOSIG",
      "taf": "TAF LIRN 151100Z 1512/1612 21012KT 9999 BKN035"
    },
    {
      "icao": "LIRP",
      "alert": "OK",
      "vis_m": 9999,
      "fzfg": false,
      "metar_trigger": false,
      "taf_trigger": false,
      "metar": "METAR LIRP 151645Z 26011KT 9999 FEW025 SCT070 15/10 Q1001 NOSIG",
      "taf": "TAF LIRP 151100Z 1512/1612 25010KT 9999 SCT020 SCT080"
    },
    {
      "icao": "LIRZ",
      "alert": "OK",
      "vis_m": 9999,
      "fzfg": false,
      "metar_trigger": false,
      "taf_trigger": false,
      "metar": "METAR LIRZ 151650Z AUTO 16004KT 140V200 9999 SCT028/// BKN049/// 14/12 Q1001",
      "taf": "TAF LIRZ 151100Z 1512/1612 20012KT 9999 SCT030"
    },
    {
      "icao": "LJLJ",
      "alert": "OK",
      "vis_m": 8000,
      "fzfg": false,
      "metar_trigger": false,
      "taf_trigger": false,
      "metar": "METAR LJLJ 151700Z VRB01KT 8000 RA FEW003 BKN030 OVC040 10/08 Q1000 NOSIG",
      "taf": "TAF LJLJ 151700Z 1518/1618 VRB02KT 9999 RA OVC030"
    },
    {
      "icao": "LKMT",
      "alert": "OK",
      "vis_m": 9999,
      "fzfg": false,
      "metar_trigger": false,
      "taf_trigger": false,
      "metar": "METAR LKMT 151700Z 25006KT 9999 SCT040 12/08 Q1002 NOSIG",
      "taf": "TAF LKMT 151100Z 1512/1612 25010KT 9999 BKN030"
    },
    {
      "icao": "LKPR",
      "alert": "OK",
      "vis_m": 9999,
      "fzfg": false,
      "metar_trigger": false,
      "taf_trigger": false,
      "metar": "METAR LKPR 151700Z 33007KT 300V050 9999 VCSH FEW050CB 12/04 Q1001 NOSIG",
      "taf": "TAF LKPR 151400Z 1515/1621 34004KT 9999 BKN045"
    },
    {
      "icao": "LLBG",
      "alert": "OK",
      "vis_m": 9999,
      "fzfg": false,
      "metar_trigger": false,
      "taf_trigger": false,
      "metar": "METAR LLBG 151650Z 27010KT 9999 SCT025 21/15 Q1009 NOSIG",
      "taf": "TAF LLBG 151703Z 1518/1618 28006KT 9999 SCT025 TX24/1610Z TN18/1604Z"
    },
    {
      "icao": "LMML",
      "alert": "OK",
      "vis_m": 9999,
      "fzfg": false,
      "metar_trigger": false,
      "taf_trigger": false,
      "metar": "METAR LMML 151645Z 19006KT 150V220 9999 FEW070TCU 22/17 Q1006 TEMPO 8000 SHRA",
      "taf": "TAF LMML 151700Z 1518/1618 VRB05KT 9999 FEW013"
    },
    {
      "icao": "LOWW",
      "alert": "OK",
      "vis_m": 9999,
      "fzfg": false,
      "metar_trigger": false,
      "taf_trigger": false,
      "metar": "METAR LOWW 151650Z 15009KT 9999 FEW038 13/07 Q1002 NOSIG",
      "taf": "TAF LOWW 151415Z 1515/1621 10005KT 9999 FEW020 BKN050 TX15/1515Z TN09/1605Z"
    },
    {
      "icao": "LPFR",
      "alert": "OK",
      "vis_m": 9999,
      "fzfg": false,
      "metar_trigger": false,
      "taf_trigger": false,
      "metar": "METAR LPFR 151700Z 32016KT 9999 FEW030 25/07 Q1011",
      "taf": "TAF LPFR 151100Z 1512/1612 33010KT CAVOK"
    },
    {
      "icao": "LPMA",
      "alert": "OK",
      "vis_m": 9999,
      "fzfg": false,
      "metar_trigger": false,
      "taf_trigger": false,
      "metar": "METAR LPMA 151700Z VRB08KT 9999 SCT015 SCT030 17/10 Q1022",
      "taf": "TAF LPMA 151100Z 1512/1612 01013KT 9999 SCT015 SCT030"
    },
    {
      "icao": "LPPR",
      "alert": "OK",
      "vis_m": 9999,
      "fzfg": false,
      "metar_trigger": false,
      "taf_trigger": false,
      "metar": "METAR LPPR 151700Z 33016KT 9999 FEW018 16/11 Q1015",
      "taf": "TAF LPPR 151100Z 1512/1612 34015KT 9999 SCT030"
    },
    {
      "icao": "LPPS",
      "alert": "OK",
      "vis_m": 9999,
      "fzfg": false,
      "metar_trigger": false,
      "taf_trigger": false,
      "metar": "METAR LPPS 151700Z 36016KT 330V040 9999 FEW015 19/10 Q1022",
      "taf": "TAF LPPS 151100Z 1512/1618 01015KT 9999 SCT014 BKN030"
    },
    {
      "icao": "LPPT",
      "alert": "OK",
      "vis_m": 9999,
      "fzfg": false,
      "metar_trigger": false,
      "taf_trigger": false,
      "metar": "METAR LPPT 151700Z 34015G25KT 9999 SCT028 17/11 Q1016",
      "taf": "TAF LPPT 151100Z 1512/1618 35015KT 9999 SCT035"
    },
    {
      "icao": "LQBK",
      "alert": "OK",
      "vis_m": 9999,
      "fzfg": false,
      "metar_trigger": false,
      "taf_trigger": false,
      "metar": "METAR LQBK 151700Z VRB03KT 9999 FEW047 15/11 Q1001 NOSIG",
      "taf": "TAF LQBK 151700Z 1518/1618 02006KT 9999 SCT040 TX14/1518Z TN10/1604Z"
    },
    {
      "icao": "LQSA",
      "alert": "OK",
      "vis_m": 9999,
      "fzfg": false,
      "metar_trigger": false,
      "taf_trigger": false,
      "metar": "METAR LQSA 151700Z 15007KT 120V180 9999 BKN055 16/08 Q1004 NOSIG",
      "taf": "TAF LQSA 151700Z 1518/1618 17006KT 9999 BKN060 TX16/1613Z TN10/1605Z"
    },
    {
      "icao": "LQTZ",
      "alert": "OK",
      "vis_m": 9999,
      "fzfg": false,
      "metar_trigger": false,
      "taf_trigger": false,
      "metar": "METAR LQTZ 151700Z 23003KT 200V260 9999 SCT050 19/08 Q1002",
      "taf": "TAF LQTZ 151700Z 1518/1618 12006KT 9999 SCT050 TX19/1610Z TN11/1604Z"
    },
    {
      "icao": "LRBC",
      "alert": "OK",
      "vis_m": 9999,
      "fzfg": false,
      "metar_trigger": false,
      "taf_trigger": false,
      "metar": "METAR LRBC 151700Z 15010KT CAVOK 19/08 Q1005",
      "taf": "TAF LRBC 151400Z 1515/1524 16008KT CAVOK"
    },
    {
      "icao": "LRBS",
      "alert": "OK",
      "vis_m": 9999,
      "fzfg": false,
      "metar_trigger": false,
      "taf_trigger": false,
      "metar": "METAR LRBS 151700Z VRB01KT CAVOK 22/07 Q1005 NOSIG",
      "taf": "TAF LRBS 151100Z 1512/1612 VRB04KT CAVOK"
    },
    {
      "icao": "LRBV",
      "alert": "OK",
      "vis_m": 9999,
      "fzfg": false,
      "metar_trigger": false,
      "taf_trigger": false,
      "metar": "METAR LRBV 151700Z 21011KT 9999 FEW053 18/07 Q1005",
      "taf": "TAF LRBV 151400Z 1515/1524 21008KT CAVOK"
    },
    {
      "icao": "LRCL",
      "alert": "OK",
      "vis_m": 9999,
      "fzfg": false,
      "metar_trigger": false,
      "taf_trigger": false,
      "metar": "METAR LRCL 151700Z 16006KT 9999 FEW068 19/08 Q1003",
      "taf": "TAF LRCL 151400Z 1515/1524 VRB04KT CAVOK"
    },
    {
      "icao": "LRCV",
      "alert": "OK",
      "vis_m": 9999,
      "fzfg": false,
      "metar_trigger": false,
      "taf_trigger": false,
      "metar": "METAR LRCV 151700Z 14005KT CAVOK 20/11 Q1005",
      "taf": "TAF LRCV 151400Z 1515/1524 VRB04KT CAVOK"
    },
    {
      "icao": "LRIA",
      "alert": "OK",
      "vis_m": 9999,
      "fzfg": false,
      "metar_trigger": false,
      "taf_trigger": false,
      "metar": "METAR LRIA 151700Z 15006KT CAVOK 19/06 Q1005",
      "taf": "TAF LRIA 151400Z 1515/1524 VRB04KT CAVOK"
    },
    {
      "icao": "LROP",
      "alert": "OK",
      "vis_m": 9999,
      "fzfg": false,
      "metar_trigger": false,
      "taf_trigger": false,
      "metar": "METAR LROP 151700Z 15005KT CAVOK 20/09 Q1005 NOSIG",
      "taf": "TAF LROP 151100Z 1512/1612 VRB04KT CAVOK"
    },
    {
      "icao": "LRSB",
      "alert": "OK",
      "vis_m": 9999,
      "fzfg": false,
      "metar_trigger": false,
      "taf_trigger": false,
      "metar": "METAR LRSB 151700Z 22003KT CAVOK 19/10 Q1004",
      "taf": "TAF LRSB 151100Z 1512/1612 VRB04KT 9999 SCT055"
    },
    {
      "icao": "LRSM",
      "alert": "OK",
      "vis_m": 9999,
      "fzfg": false,
      "metar_trigger": false,
      "taf_trigger": false,
      "metar": "METAR LRSM 151700Z AUTO 16004KT 9999 NCD 20/09 Q1003",
      "taf": "TAF LRSM 151400Z 1515/1524 19008KT CAVOK"
    },
    {
      "icao": "LRSV",
      "alert": "OK",
      "vis_m": 9999,
      "fzfg": false,
      "metar_trigger": false,
      "taf_trigger": false,
      "metar": "METAR LRSV 151700Z 12006KT CAVOK 17/08 Q1004",
      "taf": "TAF LRSV 151400Z 1515/1524 14008KT CAVOK"
    },
    {
      "icao": "LRTM",
      "alert": "OK",
      "vis_m": 9999,
      "fzfg": false,
      "metar_trigger": false,
      "taf_trigger": false,
      "metar": "METAR LRTM 151700Z 19003KT CAVOK 21/11 Q1004",
      "taf": "TAF LRTM 151400Z 1515/1524 VRB04KT CAVOK"
    },
    {
      "icao": "LRTR",
      "alert": "OK",
      "vis_m": 9999,
      "fzfg": false,
      "metar_trigger": false,
      "taf_trigger": false,
      "metar": "METAR LRTR 151700Z 21009KT 150V240 9999 4000NW -TSRA FEW020 SCT050CB 20/10 Q1002 TEMPO 3000 TSRA",
      "taf": "TAF LRTR 151100Z 1512/1612 18012KT CAVOK"
    },
    {
      "icao": "LTAC",
      "alert": "OK",
      "vis_m": 9999,
      "fzfg": false,
      "metar_trigger": false,
      "taf_trigger": false,
      "metar": "METAR LTAC 151650Z 04007KT 9999 SCT035 SCT080 13/07 Q1009 NOSIG RMK RWY21C 04004KT RWY03L 04007KT RWY21R 03005KT 280V080 RWY03R 04006KT RWY21L 03004KT",
      "taf": "TAF LTAC 151640Z 1518/1618 VRB02KT 9999 SCT040 SCT100"
    },
    {
      "icao": "LTFM",
      "alert": "OK",
      "vis_m": 9999,
      "fzfg": false,
      "metar_trigger": false,
      "taf_trigger": false,
      "metar": "METAR LTFM 151650Z 20009KT CAVOK 19/04 Q1008 NOSIG RMK RWY17L 16005KT 090V200 RWY34L 19009KT RWY16R 20006KT RWY36 20008KT RWY18 19006KT 130V230",
      "taf": "TAF LTFM 151640Z 1518/1624 18010KT CAVOK"
    },
    {
      "icao": "LUKK",
      "alert": "OK",
      "vis_m": 9999,
      "fzfg": false,
      "metar_trigger": false,
      "taf_trigger": false,
      "metar": "METAR LUKK 151700Z 23003KT 210V280 CAVOK 20/05 Q1006 NOSIG",
      "taf": "TAF LUKK 151105Z 1512/1612 VRB06KT CAVOK"
    },
    {
      "icao": "LWOH",
      "alert": "OK",
      "vis_m": 9999,
      "fzfg": false,
      "metar_trigger": false,
      "taf_trigger": false,
      "metar": "METAR LWOH 151650Z 17007KT 130V190 9999 SCT035 17/10 Q1008",
      "taf": "TAF LWOH 151150Z 1512/1612 15008KT 9999 SCT040"
    },
    {
      "icao": "LWSK",
      "alert": "OK",
      "vis_m": 9999,
      "fzfg": false,
      "metar_trigger": false,
      "taf_trigger": false,
      "metar": "METAR LWSK 151650Z 13007KT 110V170 9999 BKN090 23/09 Q1005 NOSIG",
      "taf": "TAF LWSK 151430Z 1515/1615 14010KT 9999 FEW050 SCT080 PROV30"
    },
    {
      "icao": "LYBE",
      "alert": "OK",
      "vis_m": 9999,
      "fzfg": false,
      "metar_trigger": false,
      "taf_trigger": false,
      "metar": "METAR LYBE 151700Z 17009KT CAVOK 21/10 Q1002 NOSIG",
      "taf": "TAF LYBE 151100Z 1512/1612 20010KT 9999 SCT045 TX24/1513Z TN14/1604Z"
    },
    {
      "icao": "LYNI",
      "alert": "OK",
      "vis_m": 9999,
      "fzfg": false,
      "metar_trigger": false,
      "taf_trigger": false,
      "metar": "METAR LYNI 151700Z 23005KT 170V270 9999 FEW060 21/07 Q1004 NOSIG",
      "taf": "TAF LYNI 151100Z 1512/1612 21007KT 9999 SCT060 TX25/1513Z TN10/1604Z"
    },
    {
      "icao": "LYPG",
      "alert": "OK",
      "vis_m": 9999,
      "fzfg": false,
      "metar_trigger": false,
      "taf_trigger": false,
      "metar": "METAR LYPG 151700Z 15005KT 9999 FEW033 SCT080 20/12 Q1007 NOSIG",
      "taf": "TAF LYPG 151100Z 1512/1612 16012KT 9999 FEW025 BKN040 TX22/1513Z TN14/1604Z"
    },
    {
      "icao": "LZIB",
      "alert": "OK",
      "vis_m": 9999,
      "fzfg": false,
      "metar_trigger": false,
      "taf_trigger": false,
      "metar": "METAR LZIB 151700Z 13006KT 9999 FEW040 14/08 Q1001 NOSIG",
      "taf": ""
    },
    {
      "icao": "LZKZ",
      "alert": "OK",
      "vis_m": 9999,
      "fzfg": false,
      "metar_trigger": false,
      "taf_trigger": false,
      "metar": "METAR LZKZ 151700Z 04004KT CAVOK 12/11 Q1002 NOSIG",
      "taf": ""
    },
    {
      "icao": "LZTT",
      "alert": "OK",
      "vis_m": 9999,
      "fzfg": false,
      "metar_trigger": false,
      "taf_trigger": false,
      "metar": "METAR LZTT 151700Z 14004KT 9999 FEW016 11/09 Q1003 NOSIG",
      "taf": ""
    },
    {
      "icao": "OEJN",
      "alert": "OK",
      "vis_m": 9999,
      "fzfg": false,
      "metar_trigger": false,
      "taf_trigger": false,
      "metar": "METAR OEJN 151700Z 34009KT CAVOK 32/13 Q1005 NOSIG",
      "taf": "TAF OEJN 151700Z 1518/1624 VRB03KT 7000 NSC"
    },
    {
      "icao": "OEMA",
      "alert": "OK",
      "vis_m": 9999,
      "fzfg": false,
      "metar_trigger": false,
      "taf_trigger": false,
      "metar": "METAR OEMA 151700Z 31008KT CAVOK 37/M07 Q1009 NOSIG",
      "taf": "TAF OEMA 151700Z 1518/1624 VRB03KT CAVOK"
    },
    {
      "icao": "OJAI",
      "alert": "OK",
      "vis_m": 5000,
      "fzfg": false,
      "metar_trigger": false,
      "taf_trigger": false,
      "metar": "METAR OJAI 151700Z 29009KT 5000 HZ NSC 18/04 Q1010 NOSIG",
      "taf": "TAF OJAI 151045Z 1512/1618 28018G28KT 2000 BLDU NSC"
    },
    {
      "icao": "OMAA",
      "alert": "OK",
      "vis_m": 9999,
      "fzfg": false,
      "metar_trigger": false,
      "taf_trigger": false,
      "metar": "METAR OMAA 151700Z 27008KT CAVOK 30/18 Q1002 NOSIG",
      "taf": "TAF OMAA 151700Z 1518/1700 30010KT 8000 NSC"
    },
    {
      "icao": "OMDB",
      "alert": "OK",
      "vis_m": 9999,
      "fzfg": false,
      "metar_trigger": false,
      "taf_trigger": false,
      "metar": "METAR OMDB 151700Z 23005KT 210V270 CAVOK 31/18 Q1001 NOSIG",
      "taf": "TAF OMDB 151700Z 1518/1700 20008KT CAVOK"
    },
    {
      "icao": "UAAA",
      "alert": "OK",
      "vis_m": 9999,
      "fzfg": false,
      "metar_trigger": false,
      "taf_trigger": false,
      "metar": "METAR UAAA 151700Z 22002MPS 9999 NSC 09/02 Q1016 NOSIG",
      "taf": "TAF UAAA 151102Z 1512/1612 04002G07MPS 9999 FEW050CB SCT100 TX24/1606Z TN06/1601Z"
    },
    {
      "icao": "UBBB",
      "alert": "OK",
      "vis_m": 9999,
      "fzfg": false,
      "metar_trigger": false,
      "taf_trigger": false,
      "metar": "METAR UBBB 151700Z 16008KT 140V200 9999 FEW060CB 20/17 Q1000 NOSIG",
      "taf": "TAF UBBB 151701Z 1518/1618 18010KT 9999 FEW050CB TX21/1610Z TN15/1601Z"
    },
    {
      "icao": "UDSG",
      "alert": "OK",
      "vis_m": 9999,
      "fzfg": false,
      "metar_trigger": false,
      "taf_trigger": false,
      "metar": "METAR UDSG 151700Z 33006KT 9999 SCT046CB 11/05 Q1008 NOSIG",
      "taf": "TAF UDSG 151058Z 1512/1612 24008KT 9999 BKN040"
    },
    {
      "icao": "UDYZ",
      "alert": "OK",
      "vis_m": 9999,
      "fzfg": false,
      "metar_trigger": false,
      "taf_trigger": false,
      "metar": "METAR UDYZ 151700Z 01002KT 9999 SCT043CB 14/10 Q1005 NOSIG",
      "taf": "TAF UDYZ 151100Z 1512/1612 21006KT 9999 BKN040"
    },
    {
      "icao": "UGKO",
      "alert": "OK",
      "vis_m": 9999,
      "fzfg": false,
      "metar_trigger": false,
      "taf_trigger": false,
      "metar": "METAR UGKO 151700Z 26012KT 9999 SCT010 OVC026 14/13 Q1008 NOSIG",
      "taf": "TAF UGKO 151700Z 1518/1618 26012KT 9999 BKN050 TX15/1612Z TN12/1602Z"
    }
  ]
}