{
  "ts_utc": "2026-02-22T10:11:59Z",
  "threshold_m": 150,
  "source": "stations_override.txt (ICAO list) + aviationweather.gov (METAR/TAF raw)",
  "station_count": 159,
  "stations": [
    {
      "icao": "BIKF",
      "alert": "OK",
      "vis_m": 9999,
      "fzfg": false,
      "metar_trigger": false,
      "taf_trigger": false,
      "metar": "METAR BIKF 221000Z 07017KT CAVOK 03/M05 Q0992",
      "taf": "TAF BIKF 220758Z 2209/2309 09020G30KT 9999 BKN035 TX05/2309Z TN02/2221Z"
    },
    {
      "icao": "BKPR",
      "alert": "OK",
      "vis_m": 9999,
      "fzfg": false,
      "metar_trigger": false,
      "taf_trigger": false,
      "metar": "METAR BKPR 221000Z VRB01KT 9999 SCT020 BKN030 02/00 Q1025 NOSIG",
      "taf": "TAF BKPR 220530Z 2206/2306 36008KT 9999 SCT012 BKN030"
    },
    {
      "icao": "EBCI",
      "alert": "OK",
      "vis_m": 6000,
      "fzfg": false,
      "metar_trigger": false,
      "taf_trigger": false,
      "metar": "METAR EBCI 220950Z 22017KT 6000 -RADZ SCT006 BKN009 11/10 Q1019 TEMPO 4000 RADZ",
      "taf": "TAF EBCI 220504Z 2206/2312 23014KT 8000 -DZ SCT004 BKN007"
    },
    {
      "icao": "EDDB",
      "alert": "OK",
      "vis_m": 8000,
      "fzfg": false,
      "metar_trigger": false,
      "taf_trigger": false,
      "metar": "METAR EDDB 220950Z AUTO 23012KT 8000 -RA FEW006 BKN017 OVC026 09/08 Q1012 TEMPO 4500 -RADZ BKN007",
      "taf": ""
    },
    {
      "icao": "EDDH",
      "alert": "OK",
      "vis_m": 9999,
      "fzfg": false,
      "metar_trigger": false,
      "taf_trigger": false,
      "metar": "METAR EDDH 220950Z AUTO 25008KT 210V310 9999 -SHRA BKN006 BKN///TCU 10/10 Q1010 RESHRA TEMPO 2500 RADZ",
      "taf": "TAF EDDH 220500Z 2206/2312 25010KT 9999 OVC007"
    },
    {
      "icao": "EDDK",
      "alert": "OK",
      "vis_m": 9999,
      "fzfg": false,
      "metar_trigger": false,
      "taf_trigger": false,
      "metar": "METAR EDDK 220950Z AUTO 23009KT 9999 BKN021 OVC026 13/10 Q1018 BECMG 24014KT",
      "taf": "TAF EDDK 220500Z 2206/2312 22007KT 9999 SCT015 OVC020"
    },
    {
      "icao": "EDDN",
      "alert": "OK",
      "vis_m": 4200,
      "fzfg": false,
      "metar_trigger": false,
      "taf_trigger": false,
      "metar": "METAR EDDN 220950Z AUTO 25011KT 4200 -SHRA BR OVC011 FEW///TCU 10/08 Q1021 BECMG 9999",
      "taf": "TAF EDDN 220500Z 2206/2306 23010KT 9999 SCT012 BKN020"
    },
    {
      "icao": "EDDS",
      "alert": "OK",
      "vis_m": 9999,
      "fzfg": false,
      "metar_trigger": false,
      "taf_trigger": false,
      "metar": "METAR EDDS 220950Z AUTO 22007KT 170V280 CAVOK 10/07 Q1022 NOSIG",
      "taf": "TAF EDDS 220500Z 2206/2306 21007KT 9999 BKN030"
    },
    {
      "icao": "EDFH",
      "alert": "OK",
      "vis_m": 9999,
      "fzfg": false,
      "metar_trigger": false,
      "taf_trigger": false,
      "metar": "METAR EDFH 220950Z 25015G25KT 9999 -RA OVC006 09/08 Q1020",
      "taf": "TAF EDFH 220500Z 2206/2306 26015G25KT 9999 OVC006"
    },
    {
      "icao": "EDJA",
      "alert": "OK",
      "vis_m": 9999,
      "fzfg": false,
      "metar_trigger": false,
      "taf_trigger": false,
      "metar": "METAR EDJA 220950Z 23017G28KT 9999 OVC036 07/04 Q1024",
      "taf": "TAF EDJA 220800Z 2209/2218 22013KT 9999 FEW040"
    },
    {
      "icao": "EDLW",
      "alert": "OK",
      "vis_m": 9999,
      "fzfg": false,
      "metar_trigger": false,
      "taf_trigger": false,
      "metar": "METAR EDLW 220950Z 23018KT 9999 -RA OVC014 12/10 Q1015",
      "taf": ""
    },
    {
      "icao": "EDNY",
      "alert": "OK",
      "vis_m": 9999,
      "fzfg": false,
      "metar_trigger": false,
      "taf_trigger": false,
      "metar": "METAR EDNY 220950Z 17005KT 9999 FEW015 BKN051 08/05 Q1026",
      "taf": "TAF EDNY 220800Z 2209/2218 17005KT 9999 FEW050"
    },
    {
      "icao": "EDSB",
      "alert": "OK",
      "vis_m": 9999,
      "fzfg": false,
      "metar_trigger": false,
      "taf_trigger": false,
      "metar": "METAR EDSB 220950Z 21014KT 9999 OVC027 11/08 Q1024",
      "taf": "TAF EDSB 220500Z 2206/2306 21012KT 9999 BKN025"
    },
    {
      "icao": "EETN",
      "alert": "OK",
      "vis_m": 7000,
      "fzfg": false,
      "metar_trigger": false,
      "taf_trigger": false,
      "metar": "METAR EETN 220950Z 30019G29KT 7000 BLSN BKN014 BKN049 M03/M06 Q1002 TEMPO 30020G32KT",
      "taf": ""
    },
    {
      "icao": "EFTU",
      "alert": "OK",
      "vis_m": 9999,
      "fzfg": false,
      "metar_trigger": false,
      "taf_trigger": false,
      "metar": "METAR EFTU 220950Z AUTO 32008KT 290V350 9999 OVC009 M04/M05 Q1005",
      "taf": "TAF EFTU 220829Z 2209/2309 31010KT 9999 SCT012"
    },
    {
      "icao": "EGBB",
      "alert": "OK",
      "vis_m": 9999,
      "fzfg": false,
      "metar_trigger": false,
      "taf_trigger": false,
      "metar": "METAR EGBB 220950Z 23009KT CAVOK 11/07 Q1014",
      "taf": "TAF EGBB 220456Z 2206/2306 23010KT 9999 SCT020"
    },
    {
      "icao": "EGGP",
      "alert": "OK",
      "vis_m": 9999,
      "fzfg": false,
      "metar_trigger": false,
      "taf_trigger": false,
      "metar": "METAR EGGP 220950Z 23011KT CAVOK 11/06 Q1013",
      "taf": "TAF EGGP 220459Z 2206/2306 23010KT 9999 FEW020 SCT030"
    },
    {
      "icao": "EGGW",
      "alert": "OK",
      "vis_m": 9999,
      "fzfg": false,
      "metar_trigger": false,
      "taf_trigger": false,
      "metar": "METAR EGGW 220950Z AUTO 25017KT 9999 FEW012 OVC044 12/10 Q1015",
      "taf": ""
    },
    {
      "icao": "EGKK",
      "alert": "OK",
      "vis_m": 9999,
      "fzfg": false,
      "metar_trigger": false,
      "taf_trigger": false,
      "metar": "METAR EGKK 220950Z 23010KT 9999 BKN007 12/11 Q1017",
      "taf": "TAF EGKK 220457Z 2206/2312 23012KT 9999 BKN007"
    },
    {
      "icao": "EGNM",
      "alert": "OK",
      "vis_m": 9999,
      "fzfg": false,
      "metar_trigger": false,
      "taf_trigger": false,
      "metar": "METAR EGNM 220950Z 26011KT 230V290 9999 SCT015 SCT021 10/06 Q1010",
      "taf": "TAF EGNM 220527Z 2206/2306 26018G32KT 9999 SCT030"
    },
    {
      "icao": "EGPD",
      "alert": "OK",
      "vis_m": 9999,
      "fzfg": false,
      "metar_trigger": false,
      "taf_trigger": false,
      "metar": "METAR EGPD 220950Z COR AUTO 22011KT 9999 NCD 09/05 Q1001 NOSIG",
      "taf": "TAF EGPD 220454Z 2206/2306 23009KT 9999 SCT035"
    },
    {
      "icao": "EGPF",
      "alert": "OK",
      "vis_m": 9999,
      "fzfg": false,
      "metar_trigger": false,
      "taf_trigger": false,
      "metar": "METAR EGPF 220950Z AUTO 25016KT 9999 SCT025 10/06 Q1006",
      "taf": "TAF EGPF 220500Z 2206/2306 22009KT 9999 FEW018 SCT030"
    },
    {
      "icao": "EHBK",
      "alert": "OK",
      "vis_m": 9999,
      "fzfg": false,
      "metar_trigger": false,
      "taf_trigger": false,
      "metar": "METAR EHBK 220955Z AUTO 23018KT 200V270 9999 BKN014 OVC017 12/11 Q1018 TEMPO 5000 RADZ BKN008",
      "taf": "TAF EHBK 220505Z 2206/2312 24014KT 7000 -RADZ SCT008 BKN012"
    },
    {
      "icao": "EHEH",
      "alert": "OK",
      "vis_m": 6000,
      "fzfg": false,
      "metar_trigger": false,
      "taf_trigger": false,
      "metar": "METAR EHEH 220955Z AUTO 23016KT 200V260 6000 BR FEW007 BKN008 BKN011 12/11 Q1016 REDZ GRN TEMPO 25013G25KT 4000 RADZ RMK TREND REMOTE BY EHWX",
      "taf": "TAF EHEH 220513Z 2206/2312 24012G22KT 7000 -RA FEW006 BKN008 OVC012"
    },
    {
      "icao": "EKBI",
      "alert": "OK",
      "vis_m": 1200,
      "fzfg": false,
      "metar_trigger": false,
      "taf_trigger": false,
      "metar": "METAR EKBI 220950Z AUTO 11007KT 1200 R09/P1500D R27/P1500D BCFG OVC002/// 02/02 Q1007",
      "taf": "TAF EKBI 220827Z 2209/2309 11010KT 5000 BKN003"
    },
    {
      "icao": "EKCH",
      "alert": "OK",
      "vis_m": 1700,
      "fzfg": false,
      "metar_trigger": false,
      "taf_trigger": false,
      "metar": "METAR EKCH 220950Z 13010KT 1700 -SHRASN BKN004 OVC024 01/01 Q1011 BECMG 3000 TEMPO BKN005",
      "taf": "TAF EKCH 220827Z 2209/2309 12010KT 6000 -RADZ BKN006"
    },
    {
      "icao": "ENAL",
      "alert": "OK",
      "vis_m": 9999,
      "fzfg": false,
      "metar_trigger": false,
      "taf_trigger": false,
      "metar": "METAR ENAL 220950Z 13012KT CAVOK 02/M04 Q1003",
      "taf": "TAF ENAL 220800Z 2209/2218 13009KT CAVOK"
    },
    {
      "icao": "ENBR",
      "alert": "OK",
      "vis_m": 6000,
      "fzfg": false,
      "metar_trigger": false,
      "taf_trigger": false,
      "metar": "METAR ENBR 220950Z 11005KT 070V130 6000 -SHSN VV012 01/M03 Q1002 TEMPO 1500 SNRA VV008 RMK WIND 1200FT 12014KT",
      "taf": ""
    },
    {
      "icao": "ENGM",
      "alert": "OK",
      "vis_m": 9999,
      "fzfg": false,
      "metar_trigger": false,
      "taf_trigger": false,
      "metar": "METAR ENGM 220950Z VRB01KT 9999 FEW037 M09/M11 Q1009 NOSIG",
      "taf": "TAF ENGM 220500Z 2206/2306 VRB03KT 9999 FEW040"
    },
    {
      "icao": "ENHD",
      "alert": "OK",
      "vis_m": 2500,
      "fzfg": false,
      "metar_trigger": false,
      "taf_trigger": false,
      "metar": "METAR ENHD 220950Z 14008KT 2500 SNRA SCT002 BKN005 BKN012 01/M00 Q1002",
      "taf": ""
    },
    {
      "icao": "ENTC",
      "alert": "OK",
      "vis_m": 1700,
      "fzfg": false,
      "metar_trigger": false,
      "taf_trigger": false,
      "metar": "METAR ENTC 220950Z VRB01KT 1700 -SN VV010 M02/M03 Q1001 TEMPO 0500 SHSN VV004 RMK WIND 2600FT 18006KT",
      "taf": ""
    },
    {
      "icao": "ENTO",
      "alert": "OK",
      "vis_m": 9999,
      "fzfg": false,
      "metar_trigger": false,
      "taf_trigger": false,
      "metar": "METAR ENTO 220950Z 36004KT 9999 FEW018 M05/M06 Q1010 NOSIG",
      "taf": ""
    },
    {
      "icao": "ENVA",
      "alert": "OK",
      "vis_m": 9999,
      "fzfg": false,
      "metar_trigger": false,
      "taf_trigger": false,
      "metar": "METAR ENVA 220950Z 07002KT 9999 FEW032 M01/M03 Q1007 NOSIG RMK WIND 670FT 14010KT",
      "taf": "TAF ENVA 220500Z 2206/2306 12008KT 9999 FEW010 BKN020"
    },
    {
      "icao": "ENZV",
      "alert": "OK",
      "vis_m": 9999,
      "fzfg": false,
      "metar_trigger": false,
      "taf_trigger": false,
      "metar": "METAR ENZV 220950Z 13018KT 9999 -SHRA FEW020 BKN031 OVC036 03/M00 Q1003 TEMPO 16018G28KT 4000 RASN BKN014",
      "taf": "TAF ENZV 220500Z 2206/2306 15008KT 9999 FEW020 BKN040"
    },
    {
      "icao": "EPGD",
      "alert": "OK",
      "vis_m": 9999,
      "fzfg": false,
      "metar_trigger": false,
      "taf_trigger": false,
      "metar": "METAR EPGD 221000Z 25007KT 9999 FEW011 02/M01 Q1013",
      "taf": "TAF EPGD 220530Z 2206/2306 27010KT 9999 BKN010"
    },
    {
      "icao": "EPKK",
      "alert": "OK",
      "vis_m": 9999,
      "fzfg": false,
      "metar_trigger": false,
      "taf_trigger": false,
      "metar": "METAR EPKK 221000Z 25004KT 9999 FEW060 06/01 Q1019",
      "taf": "TAF EPKK 220830Z 2209/2309 26007KT 9999 BKN050"
    },
    {
      "icao": "EPKT",
      "alert": "OK",
      "vis_m": 9999,
      "fzfg": false,
      "metar_trigger": false,
      "taf_trigger": false,
      "metar": "METAR EPKT 221000Z 21014KT 9999 -RA BKN029 05/03 Q1018",
      "taf": "TAF EPKT 220530Z 2206/2306 23007KT 9000 FEW028"
    },
    {
      "icao": "EPLB",
      "alert": "OK",
      "vis_m": 7000,
      "fzfg": false,
      "metar_trigger": false,
      "taf_trigger": false,
      "metar": "METAR EPLB 221000Z 23011KT 7000 FEW006 BKN013 OVC017 03/02 Q1017",
      "taf": "TAF EPLB 220530Z 2206/2306 25010KT 9999 BKN020"
    },
    {
      "icao": "EPMO",
      "alert": "OK",
      "vis_m": 4500,
      "fzfg": false,
      "metar_trigger": false,
      "taf_trigger": false,
      "metar": "METAR EPMO 221000Z 24008KT 4500 BR SCT006 BKN014 04/04 Q1016",
      "taf": "TAF EPMO 220530Z 2206/2306 22006KT 6000 -RA BKN008 BKN015"
    },
    {
      "icao": "EPPO",
      "alert": "OK",
      "vis_m": 700,
      "fzfg": false,
      "metar_trigger": false,
      "taf_trigger": false,
      "metar": "METAR EPPO 221000Z 19007KT 0700 R28/1000U -DZ FG OVC001 05/05 Q1014",
      "taf": ""
    },
    {
      "icao": "EPRA",
      "alert": "OK",
      "vis_m": 9999,
      "fzfg": false,
      "metar_trigger": false,
      "taf_trigger": false,
      "metar": "METAR EPRA 221000Z 23009KT 9999 BKN013 OVC031 05/03 Q1017",
      "taf": "TAF EPRA 220830Z 2209/2218 22008KT 8000 OVC020"
    },
    {
      "icao": "EPRZ",
      "alert": "OK",
      "vis_m": 9999,
      "fzfg": false,
      "metar_trigger": false,
      "taf_trigger": false,
      "metar": "METAR EPRZ 221000Z 21012KT CAVOK 04/M00 Q1019",
      "taf": "TAF EPRZ 220530Z 2206/2306 21006KT 9999 BKN020"
    },
    {
      "icao": "EPSC",
      "alert": "OK",
      "vis_m": 5000,
      "fzfg": false,
      "metar_trigger": false,
      "taf_trigger": false,
      "metar": "METAR EPSC 221000Z 14008KT 5000 -RA BR OVC002 05/05 Q1012",
      "taf": "TAF EPSC 220530Z 2206/2306 VRB03KT 2000 -RA BR OVC002"
    },
    {
      "icao": "EPSY",
      "alert": "OK",
      "vis_m": 9999,
      "fzfg": false,
      "metar_trigger": false,
      "taf_trigger": false,
      "metar": "METAR EPSY 221000Z 26007KT 220V300 9999 SCT019 03/M01 Q1014",
      "taf": "TAF EPSY 220830Z 2209/2218 30008KT 9999 BKN016"
    },
    {
      "icao": "EPWA",
      "alert": "OK",
      "vis_m": 9999,
      "fzfg": false,
      "metar_trigger": false,
      "taf_trigger": false,
      "metar": "METAR EPWA 221000Z 25009KT 9999 BKN008 05/04 Q1016 NOSIG",
      "taf": "TAF EPWA 220830Z 2209/2309 24008KT 9999 BKN008 BKN025"
    },
    {
      "icao": "EPWR",
      "alert": "OK",
      "vis_m": 9999,
      "fzfg": false,
      "metar_trigger": false,
      "taf_trigger": false,
      "metar": "METAR EPWR 221000Z 19005KT 9999 -RA SCT015 BKN020 06/05 Q1016",
      "taf": "TAF EPWR 220830Z 2209/2309 22008KT 9999 BKN040"
    },
    {
      "icao": "ESGG",
      "alert": "OK",
      "vis_m": 9999,
      "fzfg": false,
      "metar_trigger": false,
      "taf_trigger": false,
      "metar": "METAR ESGG 220950Z 11006KT CAVOK M02/M04 Q1009",
      "taf": "TAF ESGG 220830Z 2209/2309 13005KT CAVOK"
    },
    {
      "icao": "ESKN",
      "alert": "OK",
      "vis_m": 9999,
      "fzfg": false,
      "metar_trigger": false,
      "taf_trigger": false,
      "metar": "METAR ESKN 220950Z 28009KT CAVOK M02/M05 Q1010",
      "taf": "TAF ESKN 220830Z 2209/2309 27007KT CAVOK"
    },
    {
      "icao": "ESMS",
      "alert": "OK",
      "vis_m": 3500,
      "fzfg": false,
      "metar_trigger": false,
      "taf_trigger": false,
      "metar": "METAR ESMS 220950Z 11007KT 3500 -SN OVC003 00/00 Q1011",
      "taf": "TAF ESMS 220827Z 2209/2309 12010KT 7000 BKN030"
    },
    {
      "icao": "ESSA",
      "alert": "OK",
      "vis_m": 9999,
      "fzfg": false,
      "metar_trigger": false,
      "taf_trigger": false,
      "metar": "METAR ESSA 220950Z 27007KT CAVOK M04/M06 Q1009 NOSIG",
      "taf": "TAF ESSA 220830Z 2209/2309 27006KT CAVOK"
    },
    {
      "icao": "EYKA",
      "alert": "OK",
      "vis_m": 9999,
      "fzfg": false,
      "metar_trigger": false,
      "taf_trigger": false,
      "metar": "METAR EYKA 220950Z 28011KT 250V320 9999 FEW022 OVC026 02/M02 Q1011",
      "taf": "TAF EYKA 220506Z 2206/2306 27012KT 5000 BR BKN010 OVC015"
    },
    {
      "icao": "EYPA",
      "alert": "OK",
      "vis_m": 9999,
      "fzfg": false,
      "metar_trigger": false,
      "taf_trigger": false,
      "metar": "METAR EYPA 220950Z 29003KT 250V360 9999 OVC022 01/M03 Q1013",
      "taf": ""
    },
    {
      "icao": "EYVI",
      "alert": "OK",
      "vis_m": 9999,
      "fzfg": false,
      "metar_trigger": false,
      "taf_trigger": false,
      "metar": "METAR EYVI 220950Z 28012KT 9999 BKN009 02/M01 Q1010 NOSIG",
      "taf": ""
    },
    {
      "icao": "GCFV",
      "alert": "OK",
      "vis_m": 9999,
      "fzfg": false,
      "metar_trigger": false,
      "taf_trigger": false,
      "metar": "METAR GCFV 221000Z 03005KT CAVOK 20/14 Q1024",
      "taf": "TAF GCFV 220800Z 2209/2309 14005KT 8000 NSC TX25/2214Z TN17/2306Z"
    },
    {
      "icao": "GCLP",
      "alert": "OK",
      "vis_m": 9999,
      "fzfg": false,
      "metar_trigger": false,
      "taf_trigger": false,
      "metar": "METAR GCLP 221000Z 02007KT 340V040 CAVOK 20/15 Q1023 BECMG 13010KT",
      "taf": ""
    },
    {
      "icao": "GCTS",
      "alert": "OK",
      "vis_m": 9999,
      "fzfg": false,
      "metar_trigger": false,
      "taf_trigger": false,
      "metar": "METAR GCTS 221000Z 05004KT 350V150 CAVOK 20/14 Q1022 NOSIG",
      "taf": "TAF GCTS 220800Z 2209/2309 10010KT 9000 NSC TX28/2214Z TN17/2306Z"
    },
    {
      "icao": "GMAD",
      "alert": "OK",
      "vis_m": 9999,
      "fzfg": false,
      "metar_trigger": false,
      "taf_trigger": false,
      "metar": "METAR GMAD 221000Z 06008KT CAVOK 23/07 Q1024 NOSIG",
      "taf": "TAF GMAD 220500Z 2206/2312 08010KT CAVOK"
    },
    {
      "icao": "GMMN",
      "alert": "OK",
      "vis_m": 9999,
      "fzfg": false,
      "metar_trigger": false,
      "taf_trigger": false,
      "metar": "METAR GMMN 221000Z 13004KT 110V170 CAVOK 18/13 Q1026 NOSIG",
      "taf": "TAF GMMN 220500Z 2206/2312 12004KT 8000 NSC"
    },
    {
      "icao": "GMMX",
      "alert": "OK",
      "vis_m": 9999,
      "fzfg": false,
      "metar_trigger": false,
      "taf_trigger": false,
      "metar": "METAR GMMX 221000Z VRB02KT CAVOK 21/10 Q1027 NOSIG",
      "taf": "TAF GMMX 220500Z 2206/2312 08006KT 8000 NSC"
    },
    {
      "icao": "HEGN",
      "alert": "OK",
      "vis_m": 9999,
      "fzfg": false,
      "metar_trigger": false,
      "taf_trigger": false,
      "metar": "METAR HEGN 220900Z 31017KT CAVOK 25/M02 Q1014 NOSIG",
      "taf": "TAF HEGN 220500Z 2206/2312 34012G22KT CAVOK"
    },
    {
      "icao": "HEMA",
      "alert": "OK",
      "vis_m": 9999,
      "fzfg": false,
      "metar_trigger": false,
      "taf_trigger": false,
      "metar": "METAR HEMA 220900Z 34024KT CAVOK 25/06 Q1013 NOSIG",
      "taf": "TAF HEMA 220500Z 2206/2312 35016KT CAVOK"
    },
    {
      "icao": "HESH",
      "alert": "OK",
      "vis_m": 9999,
      "fzfg": false,
      "metar_trigger": false,
      "taf_trigger": false,
      "metar": "METAR HESH 220900Z 36012KT CAVOK 24/08 Q1013 NOSIG",
      "taf": "TAF HESH 220500Z 2206/2312 01014KT CAVOK"
    },
    {
      "icao": "HESX",
      "alert": "OK",
      "vis_m": 9999,
      "fzfg": false,
      "metar_trigger": false,
      "taf_trigger": false,
      "metar": "METAR HESX 220900Z 35009KT CAVOK 18/07 Q1017 NOSIG",
      "taf": "TAF HESX 220500Z 2206/2312 30009KT CAVOK"
    },
    {
      "icao": "LATI",
      "alert": "OK",
      "vis_m": 9999,
      "fzfg": false,
      "metar_trigger": false,
      "taf_trigger": false,
      "metar": "METAR LATI 220950Z 33014KT 300V010 CAVOK 13/01 Q1022 NOSIG",
      "taf": ""
    },
    {
      "icao": "LBPD",
      "alert": "OK",
      "vis_m": 9999,
      "fzfg": false,
      "metar_trigger": false,
      "taf_trigger": false,
      "metar": "METAR LBPD 221000Z AUTO 29014KT 9999 FEW054/// BKN062/// 06/M00 Q1022 NOSIG",
      "taf": "TAF LBPD 220500Z 2206/2306 27016KT 9999 SCT020 OVC030"
    },
    {
      "icao": "LBSF",
      "alert": "OK",
      "vis_m": 9999,
      "fzfg": false,
      "metar_trigger": false,
      "taf_trigger": false,
      "metar": "METAR LBSF 221000Z 27011KT 9999 FEW014 SCT038 BKN043 01/M02 Q1023 NOSIG",
      "taf": "TAF LBSF 220500Z 2206/2306 30010KT 9999 SCT020 BKN035"
    },
    {
      "icao": "LBWN",
      "alert": "OK",
      "vis_m": 9999,
      "fzfg": false,
      "metar_trigger": false,
      "taf_trigger": false,
      "metar": "METAR LBWN 221000Z 29017KT 9999 OVC015 02/M01 Q1022 NOSIG",
      "taf": "TAF LBWN 220500Z 2206/2306 30016KT 9999 OVC012"
    },
    {
      "icao": "LCLK",
      "alert": "OK",
      "vis_m": 9999,
      "fzfg": false,
      "metar_trigger": false,
      "taf_trigger": false,
      "metar": "METAR LCLK 221000Z 21013KT 9999 FEW025 SCT030 21/13 Q1013 NOSIG",
      "taf": "TAF LCLK 220530Z 2206/2306 22006KT 9999 FEW025"
    },
    {
      "icao": "LCPH",
      "alert": "OK",
      "vis_m": 9999,
      "fzfg": false,
      "metar_trigger": false,
      "taf_trigger": false,
      "metar": "METAR LCPH 221000Z 29010KT 250V320 9999 BKN025 FEW030TCU SCT035 18/10 Q1014 NOSIG",
      "taf": "TAF LCPH 220530Z 2206/2306 04007KT 9999 SCT020"
    },
    {
      "icao": "LEAL",
      "alert": "OK",
      "vis_m": 9999,
      "fzfg": false,
      "metar_trigger": false,
      "taf_trigger": false,
      "metar": "METAR LEAL 221000Z 22004KT 180V250 CAVOK 16/07 Q1030 NOSIG",
      "taf": "TAF LEAL 220500Z 2206/2306 24004KT CAVOK TX21/2213Z TN07/2206Z"
    },
    {
      "icao": "LEBB",
      "alert": "OK",
      "vis_m": 9999,
      "fzfg": false,
      "metar_trigger": false,
      "taf_trigger": false,
      "metar": "METAR LEBB 221000Z VRB02KT CAVOK 12/08 Q1030 NOSIG",
      "taf": "TAF LEBB 220500Z 2206/2306 10005KT CAVOK TX17/2212Z TN05/2206Z"
    },
    {
      "icao": "LEBL",
      "alert": "OK",
      "vis_m": 9999,
      "fzfg": false,
      "metar_trigger": false,
      "taf_trigger": false,
      "metar": "METAR LEBL 221000Z 30005KT 220V340 CAVOK 14/07 Q1028 NOSIG",
      "taf": "TAF LEBL 220500Z 2206/2306 33007KT 9999 FEW020 TX19/2213Z TN06/2207Z"
    },
    {
      "icao": "LECH",
      "alert": "OK",
      "vis_m": 9000,
      "fzfg": false,
      "metar_trigger": false,
      "taf_trigger": false,
      "metar": "METAR LECH 221000Z AUTO VRB01KT 9000 NCD 15/06 Q1029",
      "taf": ""
    },
    {
      "icao": "LEMD",
      "alert": "OK",
      "vis_m": 9999,
      "fzfg": false,
      "metar_trigger": false,
      "taf_trigger": false,
      "metar": "METAR LEMD 221000Z VRB01KT CAVOK 09/02 Q1031 NOSIG",
      "taf": "TAF LEMD 220500Z 2206/2312 VRB04KT CAVOK TX20/2216Z TN01/2207Z"
    },
    {
      "icao": "LEMG",
      "alert": "OK",
      "vis_m": 9999,
      "fzfg": false,
      "metar_trigger": false,
      "taf_trigger": false,
      "metar": "METAR LEMG 221000Z 30005KT CAVOK 13/08 Q1030 NOSIG",
      "taf": "TAF LEMG 220500Z 2206/2306 29006KT CAVOK TX19/2214Z TN10/2207Z"
    },
    {
      "icao": "LEVC",
      "alert": "OK",
      "vis_m": 9999,
      "fzfg": false,
      "metar_trigger": false,
      "taf_trigger": false,
      "metar": "METAR LEVC 221000Z VRB02KT CAVOK 15/05 Q1029 NOSIG",
      "taf": "TAF LEVC 220500Z 2206/2306 30004KT CAVOK TX21/2214Z TN06/2206Z"
    },
    {
      "icao": "LEXJ",
      "alert": "OK",
      "vis_m": 9999,
      "fzfg": false,
      "metar_trigger": false,
      "taf_trigger": false,
      "metar": "METAR LEXJ 221000Z 19003KT CAVOK 10/07 Q1030",
      "taf": "TAF LEXJ 220800Z 2209/2309 VRB03KT CAVOK TX15/2213Z TN04/2209Z"
    },
    {
      "icao": "LEZG",
      "alert": "OK",
      "vis_m": 9999,
      "fzfg": false,
      "metar_trigger": false,
      "taf_trigger": false,
      "metar": "METAR LEZG 221000Z 29007KT CAVOK 10/05 Q1030 NOSIG",
      "taf": "TAF LEZG 220500Z 2206/2306 32008KT CAVOK TX18/2214Z TN03/2206Z"
    },
    {
      "icao": "LEZL",
      "alert": "OK",
      "vis_m": 9999,
      "fzfg": false,
      "metar_trigger": false,
      "taf_trigger": false,
      "metar": "METAR LEZL 221000Z 05008KT CAVOK 16/08 Q1028 NOSIG",
      "taf": "TAF LEZL 220800Z 2209/2309 05007KT CAVOK TX22/2215Z TN08/2307Z"
    },
    {
      "icao": "LFBD",
      "alert": "OK",
      "vis_m": 9999,
      "fzfg": false,
      "metar_trigger": false,
      "taf_trigger": false,
      "metar": "METAR LFBD 221000Z AUTO 17007KT CAVOK 12/08 Q1029 NOSIG",
      "taf": "TAF LFBD 220500Z 2206/2312 VRB03KT 6000 NSC TX16/2214Z TN04/2207Z"
    },
    {
      "icao": "LFLL",
      "alert": "OK",
      "vis_m": 9999,
      "fzfg": false,
      "metar_trigger": false,
      "taf_trigger": false,
      "metar": "METAR LFLL 221000Z 14005KT CAVOK 11/05 Q1028 NOSIG",
      "taf": "TAF LFLL 220500Z 2206/2312 VRB03KT CAVOK"
    },
    {
      "icao": "LFLS",
      "alert": "OK",
      "vis_m": 9999,
      "fzfg": false,
      "metar_trigger": false,
      "taf_trigger": false,
      "metar": "METAR LFLS 221000Z AUTO 09011KT CAVOK 11/06 Q1028 NOSIG",
      "taf": "TAF LFLS 220800Z 2209/2309 07007KT CAVOK"
    },
    {
      "icao": "LFMN",
      "alert": "OK",
      "vis_m": 9999,
      "fzfg": false,
      "metar_trigger": false,
      "taf_trigger": false,
      "metar": "METAR LFMN 221000Z 09010KT 9999 SCT015 SCT210 14/11 Q1026 NOSIG",
      "taf": "TAF LFMN 220800Z 2209/2315 33010KT 9999 FEW010"
    },
    {
      "icao": "LFOB",
      "alert": "OK",
      "vis_m": 9999,
      "fzfg": false,
      "metar_trigger": false,
      "taf_trigger": false,
      "metar": "METAR LFOB 221000Z AUTO 24011KT 9999 -RADZ FEW009 BKN014 OVC021 12/11 Q1022 BECMG BKN016 OVC030",
      "taf": "TAF LFOB 220500Z 2206/2306 24012KT 9999 OVC008"
    },
    {
      "icao": "LFPO",
      "alert": "OK",
      "vis_m": 9999,
      "fzfg": false,
      "metar_trigger": false,
      "taf_trigger": false,
      "metar": "METAR LFPO 221000Z 23013KT 200V260 9999 OVC012 12/10 Q1024 NOSIG",
      "taf": "TAF LFPO 220500Z 2206/2312 24010KT 9999 BKN008"
    },
    {
      "icao": "LFSB",
      "alert": "OK",
      "vis_m": 9999,
      "fzfg": false,
      "metar_trigger": false,
      "taf_trigger": false,
      "metar": "METAR LFSB 221000Z AUTO 24009KT 210V270 9999 BKN025 BKN200 11/07 Q1026 NOSIG",
      "taf": "TAF LFSB 220500Z 2206/2306 15005KT 9999 BKN050"
    },
    {
      "icao": "LGAV",
      "alert": "OK",
      "vis_m": 9999,
      "fzfg": false,
      "metar_trigger": false,
      "taf_trigger": false,
      "metar": "METAR LGAV 220950Z 03012KT 9999 BKN025 11/05 Q1019 NOSIG",
      "taf": "TAF LGAV 220500Z 2206/2306 02015KT 9999 FEW020 SCT040"
    },
    {
      "icao": "LGTS",
      "alert": "OK",
      "vis_m": 9999,
      "fzfg": false,
      "metar_trigger": false,
      "taf_trigger": false,
      "metar": "METAR LGTS 220950Z 33008KT 9999 FEW025 BKN050 08/01 Q1023 NOSIG",
      "taf": "TAF LGTS 220500Z 2206/2306 34015KT 9999 FEW030"
    },
    {
      "icao": "LHBP",
      "alert": "OK",
      "vis_m": 9000,
      "fzfg": false,
      "metar_trigger": false,
      "taf_trigger": false,
      "metar": "METAR LHBP 221000Z VRB02KT 9000 NSC 05/02 Q1024 NOSIG",
      "taf": "TAF LHBP 220515Z 2206/2306 VRB03KT 5000 BR NSC"
    },
    {
      "icao": "LHDC",
      "alert": "OK",
      "vis_m": 8000,
      "fzfg": false,
      "metar_trigger": false,
      "taf_trigger": false,
      "metar": "METAR LHDC 220945Z AUTO 19007KT 140V210 8000 OVC009 04/02 Q1025 BECMG OVC010",
      "taf": "TAF LHDC 220815Z 2209/2218 20005KT 2000 BR OVC003"
    },
    {
      "icao": "LIBD",
      "alert": "OK",
      "vis_m": 9999,
      "fzfg": false,
      "metar_trigger": false,
      "taf_trigger": false,
      "metar": "METAR LIBD 220950Z 31010KT 280V360 9999 FEW020 13/07 Q1025",
      "taf": "TAF LIBD 220500Z 2206/2306 28013KT 9999 SCT030"
    },
    {
      "icao": "LIBG",
      "alert": "OK",
      "vis_m": 9999,
      "fzfg": false,
      "metar_trigger": false,
      "taf_trigger": false,
      "metar": "METAR LIBG 220950Z 36018KT 9999 FEW030 14/05 Q1023",
      "taf": "TAF LIBG 220800Z 2209/2218 34015KT 9999 SCT030"
    },
    {
      "icao": "LIBP",
      "alert": "OK",
      "vis_m": 9999,
      "fzfg": false,
      "metar_trigger": false,
      "taf_trigger": false,
      "metar": "METAR LIBP 220950Z AUTO 22007KT 180V250 9999 NCD 14/04 Q1027",
      "taf": "TAF LIBP 220500Z 2206/2306 VRB06KT CAVOK"
    },
    {
      "icao": "LIBR",
      "alert": "OK",
      "vis_m": 9999,
      "fzfg": false,
      "metar_trigger": false,
      "taf_trigger": false,
      "metar": "METAR LIBR 220950Z 02015KT 9999 FEW030 14/06 Q1023",
      "taf": "TAF LIBR 220500Z 2206/2306 36016KT 9999 SCT020"
    },
    {
      "icao": "LICA",
      "alert": "OK",
      "vis_m": 9999,
      "fzfg": false,
      "metar_trigger": false,
      "taf_trigger": false,
      "metar": "METAR LICA 220950Z AUTO 25010KT 9999 NCD 15/06 Q1024",
      "taf": "TAF LICA 220500Z 2206/2306 28010KT 9999 FEW020"
    },
    {
      "icao": "LICC",
      "alert": "OK",
      "vis_m": 9999,
      "fzfg": false,
      "metar_trigger": false,
      "taf_trigger": false,
      "metar": "METAR LICC 220950Z 24005KT 200V270 CAVOK 17/13 Q1024",
      "taf": "TAF LICC 220500Z 2206/2306 24006KT 9999 BKN050"
    },
    {
      "icao": "LICJ",
      "alert": "OK",
      "vis_m": 9999,
      "fzfg": false,
      "metar_trigger": false,
      "taf_trigger": false,
      "metar": "METAR LICJ 220950Z 36006KT 9999 SCT030 15/11 Q1027",
      "taf": "TAF LICJ 220500Z 2206/2306 33014KT 9999 FEW030"
    },
    {
      "icao": "LIMC",
      "alert": "OK",
      "vis_m": 8000,
      "fzfg": false,
      "metar_trigger": false,
      "taf_trigger": false,
      "metar": "METAR LIMC 220950Z 25003KT 190V340 8000 NSC 11/06 Q1026 NOSIG",
      "taf": "TAF LIMC 220500Z 2206/2312 VRB05KT CAVOK"
    },
    {
      "icao": "LIME",
      "alert": "OK",
      "vis_m": 9999,
      "fzfg": false,
      "metar_trigger": false,
      "taf_trigger": false,
      "metar": "METAR LIME 220950Z 19003KT 120V270 CAVOK 11/05 Q1026 NOSIG",
      "taf": "TAF LIME 220500Z 2206/2306 VRB05KT CAVOK"
    },
    {
      "icao": "LIMF",
      "alert": "OK",
      "vis_m": 9999,
      "fzfg": false,
      "metar_trigger": false,
      "taf_trigger": false,
      "metar": "METAR LIMF 220950Z 12003KT 080V180 9999 4500SE NSC 10/06 Q1026",
      "taf": "TAF LIMF 220500Z 2206/2306 VRB05KT CAVOK"
    },
    {
      "icao": "LIMJ",
      "alert": "OK",
      "vis_m": 9999,
      "fzfg": false,
      "metar_trigger": false,
      "taf_trigger": false,
      "metar": "METAR LIMJ 220950Z 12005KT 9999 FEW023 13/08 Q1027",
      "taf": "TAF LIMJ 220500Z 2206/2306 02006KT 9999 SCT015"
    },
    {
      "icao": "LIPE",
      "alert": "OK",
      "vis_m": 9999,
      "fzfg": false,
      "metar_trigger": false,
      "taf_trigger": false,
      "metar": "METAR LIPE 220950Z VRB02KT CAVOK 10/05 Q1026",
      "taf": "TAF LIPE 220500Z 2206/2306 VRB05KT CAVOK"
    },
    {
      "icao": "LIPH",
      "alert": "OK",
      "vis_m": 8000,
      "fzfg": false,
      "metar_trigger": false,
      "taf_trigger": false,
      "metar": "METAR LIPH 220950Z VRB02KT 8000 NSC 10/06 Q1027",
      "taf": "TAF LIPH 220500Z 2206/2306 VRB05KT 3000 BR FEW040"
    },
    {
      "icao": "LIPQ",
      "alert": "OK",
      "vis_m": 9999,
      "fzfg": false,
      "metar_trigger": false,
      "taf_trigger": false,
      "metar": "METAR LIPQ 220950Z AUTO VRB02KT 9999 NCD 11/04 Q1027",
      "taf": "TAF LIPQ 220500Z 2206/2306 VRB06KT 9999 FEW030"
    },
    {
      "icao": "LIPR",
      "alert": "OK",
      "vis_m": 9999,
      "fzfg": false,
      "metar_trigger": false,
      "taf_trigger": false,
      "metar": "METAR LIPR 220950Z 09006KT CAVOK 11/05 Q1026",
      "taf": "TAF LIPR 220500Z 2206/2306 VRB06KT CAVOK"
    },
    {
      "icao": "LIPX",
      "alert": "OK",
      "vis_m": 9999,
      "fzfg": false,
      "metar_trigger": false,
      "taf_trigger": false,
      "metar": "METAR LIPX 220950Z 06003KT 010V150 CAVOK 11/05 Q1026",
      "taf": "TAF LIPX 220500Z 2206/2306 VRB05KT CAVOK"
    },
    {
      "icao": "LIPY",
      "alert": "OK",
      "vis_m": 9999,
      "fzfg": false,
      "metar_trigger": false,
      "taf_trigger": false,
      "metar": "METAR LIPY 220950Z AUTO 24003KT 160V270 9999 NCD 14/05 Q1026",
      "taf": "TAF LIPY 220500Z 2206/2306 VRB05KT CAVOK"
    },
    {
      "icao": "LIPZ",
      "alert": "OK",
      "vis_m": 7000,
      "fzfg": false,
      "metar_trigger": false,
      "taf_trigger": false,
      "metar": "METAR LIPZ 220950Z VRB02KT 7000 NSC 10/06 Q1027 NOSIG",
      "taf": "TAF LIPZ 220500Z 2206/2312 VRB05KT 2000 BR FEW060"
    },
    {
      "icao": "LIRF",
      "alert": "OK",
      "vis_m": 9999,
      "fzfg": false,
      "metar_trigger": false,
      "taf_trigger": false,
      "metar": "METAR LIRF 220950Z 02003KT 330V070 CAVOK 14/06 Q1027 NOSIG",
      "taf": "TAF LIRF 220500Z 2206/2312 01006KT CAVOK"
    },
    {
      "icao": "LIRN",
      "alert": "OK",
      "vis_m": 9999,
      "fzfg": false,
      "metar_trigger": false,
      "taf_trigger": false,
      "metar": "METAR LIRN 220950Z 35006KT 320V030 CAVOK 16/01 Q1026 NOSIG",
      "taf": "TAF LIRN 220500Z 2206/2306 VRB05KT 9999 FEW040"
    },
    {
      "icao": "LIRP",
      "alert": "OK",
      "vis_m": 9999,
      "fzfg": false,
      "metar_trigger": false,
      "taf_trigger": false,
      "metar": "METAR LIRP 220945Z VRB03KT CAVOK 12/10 Q1028 NOSIG",
      "taf": "TAF LIRP 220500Z 2206/2306 VRB03KT CAVOK"
    },
    {
      "icao": "LIRZ",
      "alert": "OK",
      "vis_m": 9999,
      "fzfg": false,
      "metar_trigger": false,
      "taf_trigger": false,
      "metar": "METAR LIRZ 220950Z AUTO VRB02KT 9999 NCD 09/04 Q1027",
      "taf": "TAF LIRZ 220500Z 2206/2306 VRB05KT 9999 FEW030"
    },
    {
      "icao": "LJLJ",
      "alert": "OK",
      "vis_m": 3000,
      "fzfg": false,
      "metar_trigger": false,
      "taf_trigger": false,
      "metar": "METAR LJLJ 221000Z VRB01KT 3000 BR OVC002 01/00 Q1026 BECMG 5000 BKN005",
      "taf": "TAF LJLJ 220500Z 2206/2306 VRB02KT 3000 BR SCT002 BKN080"
    },
    {
      "icao": "LKMT",
      "alert": "OK",
      "vis_m": 6000,
      "fzfg": false,
      "metar_trigger": false,
      "taf_trigger": false,
      "metar": "METAR LKMT 221000Z 25008KT 6000 -RA BKN013 03/02 Q1020 NOSIG",
      "taf": "TAF LKMT 220500Z 2206/2306 23012KT 8000 BKN040"
    },
    {
      "icao": "LKPR",
      "alert": "OK",
      "vis_m": 9999,
      "fzfg": false,
      "metar_trigger": false,
      "taf_trigger": false,
      "metar": "METAR LKPR 221000Z 21019KT 9999 SCT013 09/07 Q1017 NOSIG",
      "taf": "TAF LKPR 220800Z 2209/2315 22018KT 9999 BKN030"
    },
    {
      "icao": "LLBG",
      "alert": "OK",
      "vis_m": 9999,
      "fzfg": false,
      "metar_trigger": false,
      "taf_trigger": false,
      "metar": "METAR LLBG 220950Z 26008KT 210V300 9999 SCT030 20/11 Q1016 NOSIG",
      "taf": "TAF LLBG 220500Z 2206/2306 15005KT 9999 SCT030"
    },
    {
      "icao": "LMML",
      "alert": "OK",
      "vis_m": 9999,
      "fzfg": false,
      "metar_trigger": false,
      "taf_trigger": false,
      "metar": "METAR LMML 220945Z 33015KT CAVOK 16/09 Q1026 NOSIG",
      "taf": "TAF LMML 220500Z 2206/2306 34015KT 9999 FEW021"
    },
    {
      "icao": "LOWW",
      "alert": "OK",
      "vis_m": 9000,
      "fzfg": false,
      "metar_trigger": false,
      "taf_trigger": false,
      "metar": "METAR LOWW 220950Z 18007KT 9000 1300S R16/P1500U R29/P1500D -RA BR FEW030 SCT040 BKN044 04/04 Q1022 TEMPO 4000 RA",
      "taf": "TAF LOWW 220815Z 2209/2315 19006KT 9999 BKN035 TX12/2313Z TN03/2209Z"
    },
    {
      "icao": "LPFR",
      "alert": "OK",
      "vis_m": 9999,
      "fzfg": false,
      "metar_trigger": false,
      "taf_trigger": false,
      "metar": "METAR LPFR 221000Z 07007KT CAVOK 17/04 Q1027",
      "taf": "TAF LPFR 220500Z 2206/2306 05007KT CAVOK"
    },
    {
      "icao": "LPMA",
      "alert": "OK",
      "vis_m": 9999,
      "fzfg": false,
      "metar_trigger": false,
      "taf_trigger": false,
      "metar": "METAR LPMA 221000Z 03009KT 010V070 9999 SCT016 17/10 Q1026",
      "taf": "TAF LPMA 220500Z 2206/2306 02010KT 9999 SCT015"
    },
    {
      "icao": "LPPR",
      "alert": "OK",
      "vis_m": 9999,
      "fzfg": false,
      "metar_trigger": false,
      "taf_trigger": false,
      "metar": "METAR LPPR 221000Z VRB01KT CAVOK 12/08 Q1030",
      "taf": "TAF LPPR 220500Z 2206/2306 08005KT CAVOK"
    },
    {
      "icao": "LPPS",
      "alert": "OK",
      "vis_m": 9999,
      "fzfg": false,
      "metar_trigger": false,
      "taf_trigger": false,
      "metar": "METAR LPPS 221000Z 10007KT 9999 SCT015 SCT030 16/11 Q1026",
      "taf": "TAF LPPS 220500Z 2206/2312 06008KT 9999 SCT015"
    },
    {
      "icao": "LPPT",
      "alert": "OK",
      "vis_m": 9999,
      "fzfg": false,
      "metar_trigger": false,
      "taf_trigger": false,
      "metar": "METAR LPPT 221000Z 05008KT CAVOK 13/08 Q1029",
      "taf": "TAF LPPT 220500Z 2206/2312 04005KT CAVOK"
    },
    {
      "icao": "LQBK",
      "alert": "OK",
      "vis_m": 9999,
      "fzfg": false,
      "metar_trigger": false,
      "taf_trigger": false,
      "metar": "METAR LQBK 221000Z VRB02KT CAVOK 09/04 Q1027 NOSIG",
      "taf": "TAF LQBK 220500Z 2206/2306 22005KT CAVOK TX12/2213Z TNM02/2206Z"
    },
    {
      "icao": "LQSA",
      "alert": "OK",
      "vis_m": 9999,
      "fzfg": false,
      "metar_trigger": false,
      "taf_trigger": false,
      "metar": "METAR LQSA 221000Z VRB03KT 9999 FEW012 SCT040 04/02 Q1026 NOSIG",
      "taf": "TAF LQSA 220500Z 2206/2306 VRB02KT 9999 BKN030 TX11/2214Z TNM01/2304Z"
    },
    {
      "icao": "LQTZ",
      "alert": "OK",
      "vis_m": 9999,
      "fzfg": false,
      "metar_trigger": false,
      "taf_trigger": false,
      "metar": "METAR LQTZ 221000Z VRB02KT 9999 FEW030 07/03 Q1027",
      "taf": "TAF LQTZ 220500Z 2206/2306 VRB02KT 9999 SCT040 TX11/2213Z TNM00/2206Z"
    },
    {
      "icao": "LRBC",
      "alert": "OK",
      "vis_m": 9999,
      "fzfg": false,
      "metar_trigger": false,
      "taf_trigger": false,
      "metar": "METAR LRBC 221000Z 20001KT 9999 FEW031 SCT067 04/M02 Q1022",
      "taf": "TAF LRBC 220800Z 2209/2218 VRB04KT 9999 OVC040"
    },
    {
      "icao": "LRBS",
      "alert": "OK",
      "vis_m": 9999,
      "fzfg": false,
      "metar_trigger": false,
      "taf_trigger": false,
      "metar": "METAR LRBS 221000Z 27010KT 240V310 CAVOK 02/M02 Q1023 NOSIG",
      "taf": "TAF LRBS 220500Z 2206/2306 24008KT CAVOK"
    },
    {
      "icao": "LRBV",
      "alert": "OK",
      "vis_m": 9999,
      "fzfg": false,
      "metar_trigger": false,
      "taf_trigger": false,
      "metar": "METAR LRBV 221000Z 30005KT 270V330 9999 BKN008 OVC013 01/M01 Q1023",
      "taf": "TAF LRBV 220800Z 2209/2218 30005KT 9999 BKN005 OVC010"
    },
    {
      "icao": "LRCL",
      "alert": "OK",
      "vis_m": 9999,
      "fzfg": false,
      "metar_trigger": false,
      "taf_trigger": false,
      "metar": "METAR LRCL 221000Z 00000KT 9999 BKN018 BKN055 04/00 Q1024",
      "taf": "TAF LRCL 220800Z 2209/2218 VRB03KT 9999 BKN010 BKN020"
    },
    {
      "icao": "LRCV",
      "alert": "OK",
      "vis_m": 4900,
      "fzfg": false,
      "metar_trigger": false,
      "taf_trigger": false,
      "metar": "METAR LRCV 221000Z 26006KT 4900 BR OVC003 M00/M01 Q1024",
      "taf": "TAF LRCV 220800Z 2209/2218 28005KT 3000 BR OVC002"
    },
    {
      "icao": "LRIA",
      "alert": "OK",
      "vis_m": 9999,
      "fzfg": false,
      "metar_trigger": false,
      "taf_trigger": false,
      "metar": "METAR LRIA 221000Z 31005KT CAVOK 00/M02 Q1023",
      "taf": "TAF LRIA 220800Z 2209/2218 30008KT 9999 OVC040"
    },
    {
      "icao": "LROP",
      "alert": "OK",
      "vis_m": 9999,
      "fzfg": false,
      "metar_trigger": false,
      "taf_trigger": false,
      "metar": "METAR LROP 221000Z 27008KT CAVOK 02/02 Q1023 NOSIG",
      "taf": "TAF LROP 220500Z 2206/2306 25008KT CAVOK"
    },
    {
      "icao": "LRSB",
      "alert": "OK",
      "vis_m": 6000,
      "fzfg": false,
      "metar_trigger": false,
      "taf_trigger": false,
      "metar": "METAR LRSB 221000Z 00000KT 6000 SCT015 SCT022 BKN038 03/00 Q1024 NOSIG",
      "taf": "TAF LRSB 220500Z 2206/2306 VRB03KT 1500 BR SCT002 BKN007"
    },
    {
      "icao": "LRSM",
      "alert": "OK",
      "vis_m": 6000,
      "fzfg": false,
      "metar_trigger": false,
      "taf_trigger": false,
      "metar": "METAR LRSM 221000Z VRB01KT 6000 FEW003 OVC008 03/02 Q1025",
      "taf": "TAF LRSM 220800Z 2209/2218 VRB04KT 9999 OVC015"
    },
    {
      "icao": "LRSV",
      "alert": "OK",
      "vis_m": 9999,
      "fzfg": false,
      "metar_trigger": false,
      "taf_trigger": false,
      "metar": "METAR LRSV 221000Z 19003KT CAVOK 03/M00 Q1020",
      "taf": "TAF LRSV 220800Z 2209/2218 VRB04KT 9999 SCT030"
    },
    {
      "icao": "LRTM",
      "alert": "OK",
      "vis_m": 9999,
      "fzfg": false,
      "metar_trigger": false,
      "taf_trigger": false,
      "metar": "METAR LRTM 221000Z 26004KT 230V310 9999 SCT010 BKN028 03/01 Q1024",
      "taf": "TAF LRTM 220800Z 2209/2218 22004KT 9999 SCT010 BKN030"
    },
    {
      "icao": "LRTR",
      "alert": "OK",
      "vis_m": 8000,
      "fzfg": false,
      "metar_trigger": false,
      "taf_trigger": false,
      "metar": "METAR LRTR 221000Z VRB02KT 8000 OVC008 05/03 Q1026 BECMG BKN010",
      "taf": "TAF LRTR 220500Z 2206/2306 VRB04KT 5000 BR OVC005"
    },
    {
      "icao": "LTAC",
      "alert": "OK",
      "vis_m": 9999,
      "fzfg": false,
      "metar_trigger": false,
      "taf_trigger": false,
      "metar": "METAR LTAC 220950Z 24003KT 200V260 9999 SCT008 BKN025 BKN080 06/03 Q1012 RESHRA NOSIG RMK RWY21C VRB03KT RWY03L VRB02KT RWY21R 22003KT 190V270 RWY03R VRB02KT RWY21L 23004KT 190V280",
      "taf": "TAF LTAC 220440Z 2206/2306 VRB02KT 9999 SCT040 BKN100"
    },
    {
      "icao": "LTFM",
      "alert": "OK",
      "vis_m": 9999,
      "fzfg": false,
      "metar_trigger": false,
      "taf_trigger": false,
      "metar": "METAR LTFM 220950Z 01016KT 9999 BKN008 BKN023 03/01 Q1021 NOSIG RMK RWY17L 36014KT RWY34L 34015KT RWY16R 34014KT RWY36 01017KT RWY18 01016KT",
      "taf": "TAF LTFM 220440Z 2206/2312 35026G36KT 9999 -SHRA BKN004 BKN022"
    },
    {
      "icao": "LUKK",
      "alert": "OK",
      "vis_m": 9999,
      "fzfg": false,
      "metar_trigger": false,
      "taf_trigger": false,
      "metar": "METAR LUKK 221000Z 35009KT CAVOK 03/M04 Q1021 NOSIG",
      "taf": "TAF LUKK 220509Z 2206/2306 34008KT CAVOK"
    },
    {
      "icao": "LWOH",
      "alert": "OK",
      "vis_m": 9999,
      "fzfg": false,
      "metar_trigger": false,
      "taf_trigger": false,
      "metar": "METAR LWOH 220950Z 35008KT 300V060 9999 SCT040 07/M01 Q1022",
      "taf": "TAF LWOH 220815Z 2209/2309 36010KT 9999 SCT040"
    },
    {
      "icao": "LWSK",
      "alert": "OK",
      "vis_m": 9999,
      "fzfg": false,
      "metar_trigger": false,
      "taf_trigger": false,
      "metar": "METAR LWSK 220950Z 01004KT 9999 SCT035 BKN075 05/M00 Q1025 NOSIG",
      "taf": "TAF LWSK 220815Z 2209/2309 03012KT 9999 BKN030 BKN070"
    },
    {
      "icao": "LYBE",
      "alert": "OK",
      "vis_m": 9999,
      "fzfg": false,
      "metar_trigger": false,
      "taf_trigger": false,
      "metar": "METAR LYBE 221000Z 26004KT 180V320 9999 FEW012 SCT030 06/03 Q1027 NOSIG",
      "taf": "TAF LYBE 220500Z 2206/2306 25006KT 8000 BKN020 TX10/2213Z TN02/2206Z"
    },
    {
      "icao": "LYNI",
      "alert": "OK",
      "vis_m": 9999,
      "fzfg": false,
      "metar_trigger": false,
      "taf_trigger": false,
      "metar": "METAR LYNI 221000Z 34007KT 310V010 9999 SCT009 BKN015 BKN027 04/02 Q1026 BECMG SCT010 BKN017",
      "taf": "TAF LYNI 220500Z 2206/2306 32008KT 8000 BKN007 BKN025 TX05/2212Z TN00/2305Z"
    },
    {
      "icao": "LYPG",
      "alert": "OK",
      "vis_m": 9999,
      "fzfg": false,
      "metar_trigger": false,
      "taf_trigger": false,
      "metar": "METAR LYPG 221000Z 36010KT 330V040 9999 FEW060 14/M01 Q1023 NOSIG",
      "taf": "TAF LYPG 220500Z 2206/2306 36012KT CAVOK TX16/2213Z TN02/2305Z"
    },
    {
      "icao": "LZIB",
      "alert": "OK",
      "vis_m": 1100,
      "fzfg": false,
      "metar_trigger": false,
      "taf_trigger": false,
      "metar": "METAR LZIB 221000Z 05002KT 1100 R31/1200N R22/1200D -FZRA BR BKN002 OVC004 M00/M00 Q1023 BECMG 1800 RA BR",
      "taf": ""
    },
    {
      "icao": "LZKZ",
      "alert": "OK",
      "vis_m": 3500,
      "fzfg": false,
      "metar_trigger": false,
      "taf_trigger": false,
      "metar": "METAR LZKZ 221000Z 15006KT 3500 BR BKN004 01/M00 Q1023 TEMPO SCT004 SCT007",
      "taf": ""
    },
    {
      "icao": "LZTT",
      "alert": "OK",
      "vis_m": 9999,
      "fzfg": false,
      "metar_trigger": false,
      "taf_trigger": false,
      "metar": "METAR LZTT 221000Z 21006KT 170V290 9999 FEW030 BKN050 06/01 Q1019 NOSIG",
      "taf": "TAF LZTT 220515Z 2206/2306 24008KT 9999 FEW010 SCT050"
    },
    {
      "icao": "OEJN",
      "alert": "OK",
      "vis_m": 9999,
      "fzfg": false,
      "metar_trigger": false,
      "taf_trigger": false,
      "metar": "METAR OEJN 221000Z 28008KT CAVOK 30/18 Q1010 NOSIG",
      "taf": "TAF OEJN 220500Z 2206/2312 29012KT 7000 NSC"
    },
    {
      "icao": "OEMA",
      "alert": "OK",
      "vis_m": 9999,
      "fzfg": false,
      "metar_trigger": false,
      "taf_trigger": false,
      "metar": "METAR OEMA 221000Z 11010KT CAVOK 29/M07 Q1014 NOSIG",
      "taf": "TAF OEMA 220500Z 2206/2312 12010KT 7000 NSC"
    },
    {
      "icao": "OJAI",
      "alert": "OK",
      "vis_m": 4000,
      "fzfg": false,
      "metar_trigger": false,
      "taf_trigger": false,
      "metar": "METAR OJAI 221000Z 28008KT 4000 HZ FEW030 15/06 Q1017 NOSIG",
      "taf": "TAF OJAI 220427Z 2206/2312 29004KT 2000 BR FEW030"
    },
    {
      "icao": "OMAA",
      "alert": "OK",
      "vis_m": 9999,
      "fzfg": false,
      "metar_trigger": false,
      "taf_trigger": false,
      "metar": "METAR OMAA 221000Z 29010KT 260V320 CAVOK 28/14 Q1010 NOSIG",
      "taf": "TAF OMAA 220500Z 2206/2312 25005KT 8000 NSC"
    },
    {
      "icao": "OMDB",
      "alert": "OK",
      "vis_m": 9999,
      "fzfg": false,
      "metar_trigger": false,
      "taf_trigger": false,
      "metar": "METAR OMDB 221000Z 29010KT 230V310 CAVOK 28/14 Q1010 NOSIG",
      "taf": "TAF OMDB 220500Z 2206/2312 23005KT 8000 NSC"
    },
    {
      "icao": "UAAA",
      "alert": "OK",
      "vis_m": 9999,
      "fzfg": false,
      "metar_trigger": false,
      "taf_trigger": false,
      "metar": "METAR UAAA 221000Z 33002MPS 250V020 9999 BKN200 10/03 Q1016 NOSIG",
      "taf": "TAF UAAA 220502Z 2206/2306 05003G08MPS 9999 SCT050CB BKN100 TX08/2209Z TNM02/2301Z"
    },
    {
      "icao": "UBBB",
      "alert": "OK",
      "vis_m": 9999,
      "fzfg": false,
      "metar_trigger": false,
      "taf_trigger": false,
      "metar": "METAR UBBB 221000Z 32022KT 9999 BKN015 09/04 Q1018 NOSIG",
      "taf": "TAF UBBB 220502Z 2206/2306 33016KT 9999 SCT010 BKN025 TX09/2210Z TN04/2301Z"
    },
    {
      "icao": "UDSG",
      "alert": "OK",
      "vis_m": 9999,
      "fzfg": false,
      "metar_trigger": false,
      "taf_trigger": false,
      "metar": "METAR UDSG 221000Z 08004KT 9999 SCT049 05/M02 Q1014 NOSIG",
      "taf": "TAF UDSG 220500Z 2206/2306 VRB06KT 9999 SCT050"
    },
    {
      "icao": "UDYZ",
      "alert": "OK",
      "vis_m": 9999,
      "fzfg": false,
      "metar_trigger": false,
      "taf_trigger": false,
      "metar": "METAR UDYZ 221000Z VRB01KT 9999 NSC 12/M02 Q1013 NOSIG",
      "taf": "TAF UDYZ 220500Z 2206/2306 VRB06KT 9999 FEW040"
    },
    {
      "icao": "UGKO",
      "alert": "OK",
      "vis_m": 9999,
      "fzfg": false,
      "metar_trigger": false,
      "taf_trigger": false,
      "metar": "METAR UGKO 221000Z 09013KT CAVOK 16/02 Q1009 NOSIG",
      "taf": ""
    }
  ]
}