{
  "ts_utc": "2026-04-23T15:03:40Z",
  "threshold_m": 150,
  "source": "stations_override.txt (ICAO list) + aviationweather.gov (METAR/TAF raw)",
  "station_count": 159,
  "stations": [
    {
      "icao": "BIKF",
      "alert": "OK",
      "vis_m": 9999,
      "fzfg": false,
      "metar_trigger": false,
      "taf_trigger": false,
      "metar": "METAR BIKF 231430Z 29006KT 260V340 9999 OVC019 07/02 Q1028",
      "taf": "TAF BIKF 231333Z 2315/2415 26007KT 9999 OVC015 TX08/2414Z TN04/2406Z"
    },
    {
      "icao": "BKPR",
      "alert": "OK",
      "vis_m": 9999,
      "fzfg": false,
      "metar_trigger": false,
      "taf_trigger": false,
      "metar": "METAR BKPR 231500Z 03005KT 9999 FEW070 14/M02 Q1014 NOSIG",
      "taf": "TAF BKPR 231130Z 2312/2412 34008KT 9999 SCT050"
    },
    {
      "icao": "EBCI",
      "alert": "OK",
      "vis_m": 9999,
      "fzfg": false,
      "metar_trigger": false,
      "taf_trigger": false,
      "metar": "METAR EBCI 231450Z 06010KT CAVOK 19/00 Q1027 NOSIG",
      "taf": "TAF EBCI 231120Z 2312/2418 04008KT CAVOK"
    },
    {
      "icao": "EDDB",
      "alert": "OK",
      "vis_m": 9999,
      "fzfg": false,
      "metar_trigger": false,
      "taf_trigger": false,
      "metar": "METAR EDDB 231450Z AUTO 29013KT CAVOK 16/06 Q1021 NOSIG",
      "taf": "TAF EDDB 231100Z 2312/2412 29013KT CAVOK"
    },
    {
      "icao": "EDDH",
      "alert": "OK",
      "vis_m": 9999,
      "fzfg": false,
      "metar_trigger": false,
      "taf_trigger": false,
      "metar": "METAR EDDH 231450Z AUTO 29015KT 240V320 9999 FEW019 12/07 Q1024 NOSIG",
      "taf": "TAF EDDH 231100Z 2312/2418 30013KT 9999 SCT015"
    },
    {
      "icao": "EDDK",
      "alert": "OK",
      "vis_m": 9999,
      "fzfg": false,
      "metar_trigger": false,
      "taf_trigger": false,
      "metar": "METAR EDDK 231450Z AUTO 30013KT CAVOK 19/M02 Q1026 NOSIG",
      "taf": "TAF EDDK 231100Z 2312/2418 33009KT CAVOK"
    },
    {
      "icao": "EDDN",
      "alert": "OK",
      "vis_m": 9999,
      "fzfg": false,
      "metar_trigger": false,
      "taf_trigger": false,
      "metar": "METAR EDDN 231450Z AUTO 30010KT 240V340 CAVOK 19/M01 Q1023 NOSIG",
      "taf": "TAF EDDN 231100Z 2312/2412 29007KT CAVOK"
    },
    {
      "icao": "EDDS",
      "alert": "OK",
      "vis_m": 9999,
      "fzfg": false,
      "metar_trigger": false,
      "taf_trigger": false,
      "metar": "METAR EDDS 231450Z AUTO 36005KT 300V070 CAVOK 19/M03 Q1024 NOSIG",
      "taf": "TAF EDDS 231100Z 2312/2412 VRB03KT CAVOK"
    },
    {
      "icao": "EDFH",
      "alert": "OK",
      "vis_m": 9999,
      "fzfg": false,
      "metar_trigger": false,
      "taf_trigger": false,
      "metar": "METAR EDFH 231450Z 36008KT 310V070 CAVOK 17/M03 Q1026",
      "taf": "TAF EDFH 231100Z 2312/2412 36006KT CAVOK"
    },
    {
      "icao": "EDJA",
      "alert": "OK",
      "vis_m": 9999,
      "fzfg": false,
      "metar_trigger": false,
      "taf_trigger": false,
      "metar": "METAR EDJA 231450Z 05005KT 360V100 CAVOK 17/M02 Q1024",
      "taf": "TAF EDJA 231400Z 2315/2324 05006KT CAVOK"
    },
    {
      "icao": "EDLW",
      "alert": "OK",
      "vis_m": 9999,
      "fzfg": false,
      "metar_trigger": false,
      "taf_trigger": false,
      "metar": "METAR EDLW 231450Z 33005KT 260V030 CAVOK 17/03 Q1026",
      "taf": "TAF EDLW 231100Z 2312/2412 32006KT CAVOK"
    },
    {
      "icao": "EDNY",
      "alert": "OK",
      "vis_m": 9999,
      "fzfg": false,
      "metar_trigger": false,
      "taf_trigger": false,
      "metar": "METAR EDNY 231450Z 36006KT 290V060 CAVOK 20/M03 Q1023",
      "taf": "TAF EDNY 231400Z 2315/2324 01007KT CAVOK"
    },
    {
      "icao": "EDSB",
      "alert": "OK",
      "vis_m": 9999,
      "fzfg": false,
      "metar_trigger": false,
      "taf_trigger": false,
      "metar": "METAR EDSB 231450Z 01010KT CAVOK 20/M03 Q1024",
      "taf": "TAF EDSB 231100Z 2312/2412 02008KT CAVOK"
    },
    {
      "icao": "EETN",
      "alert": "OK",
      "vis_m": 9999,
      "fzfg": false,
      "metar_trigger": false,
      "taf_trigger": false,
      "metar": "METAR EETN 231450Z 35006KT CAVOK 08/M06 Q1010 NOSIG",
      "taf": "TAF EETN 231130Z 2312/2412 32010KT CAVOK"
    },
    {
      "icao": "EFTU",
      "alert": "OK",
      "vis_m": 9999,
      "fzfg": false,
      "metar_trigger": false,
      "taf_trigger": false,
      "metar": "METAR EFTU 231450Z AUTO 34009KT 300V020 CAVOK 10/M04 Q1010",
      "taf": "TAF EFTU 231429Z 2315/2415 32009KT CAVOK"
    },
    {
      "icao": "EGBB",
      "alert": "OK",
      "vis_m": 9999,
      "fzfg": false,
      "metar_trigger": false,
      "taf_trigger": false,
      "metar": "METAR EGBB 231450Z 06011KT CAVOK 16/04 Q1029",
      "taf": "TAF EGBB 231103Z 2312/2412 09010KT CAVOK"
    },
    {
      "icao": "EGGP",
      "alert": "OK",
      "vis_m": 9999,
      "fzfg": false,
      "metar_trigger": false,
      "taf_trigger": false,
      "metar": "METAR EGGP 231450Z 12010KT CAVOK 16/04 Q1029",
      "taf": "TAF EGGP 231100Z 2312/2412 11009KT CAVOK"
    },
    {
      "icao": "EGGW",
      "alert": "OK",
      "vis_m": 9999,
      "fzfg": false,
      "metar_trigger": false,
      "taf_trigger": false,
      "metar": "METAR EGGW 231450Z AUTO 09010KT 9999 NCD 17/04 Q1029",
      "taf": "TAF EGGW 231055Z 2312/2412 07010KT CAVOK"
    },
    {
      "icao": "EGKK",
      "alert": "OK",
      "vis_m": 9999,
      "fzfg": false,
      "metar_trigger": false,
      "taf_trigger": false,
      "metar": "METAR EGKK 231450Z 07014KT CAVOK 17/05 Q1028",
      "taf": "TAF EGKK 231057Z 2312/2418 06009KT 9999 FEW045"
    },
    {
      "icao": "EGNM",
      "alert": "OK",
      "vis_m": 9999,
      "fzfg": false,
      "metar_trigger": false,
      "taf_trigger": false,
      "metar": "METAR EGNM 231450Z 07006KT 020V110 CAVOK 13/05 Q1031",
      "taf": "TAF EGNM 231059Z 2312/2412 07006KT CAVOK"
    },
    {
      "icao": "EGPD",
      "alert": "OK",
      "vis_m": 9999,
      "fzfg": false,
      "metar_trigger": false,
      "taf_trigger": false,
      "metar": "METAR EGPD 231450Z COR AUTO 17010KT 9999 NCD 13/04 Q1031 NOSIG",
      "taf": "TAF EGPD 231100Z 2312/2412 15010KT CAVOK"
    },
    {
      "icao": "EGPF",
      "alert": "OK",
      "vis_m": 9999,
      "fzfg": false,
      "metar_trigger": false,
      "taf_trigger": false,
      "metar": "METAR EGPF 231450Z AUTO 06008KT 010V090 9999 NCD 17/04 Q1030",
      "taf": "TAF EGPF 231051Z 2312/2412 07009KT CAVOK"
    },
    {
      "icao": "EHBK",
      "alert": "OK",
      "vis_m": 9999,
      "fzfg": false,
      "metar_trigger": false,
      "taf_trigger": false,
      "metar": "METAR EHBK 231455Z AUTO 36007KT 300V050 9999 NSC 19/M03 Q1027 NOSIG",
      "taf": "TAF EHBK 231114Z 2312/2418 01005KT CAVOK"
    },
    {
      "icao": "EHEH",
      "alert": "OK",
      "vis_m": 9999,
      "fzfg": false,
      "metar_trigger": false,
      "taf_trigger": false,
      "metar": "METAR EHEH 231455Z AUTO 03008KT 360V100 9999 OVC390 18/02 Q1027 BLU NOSIG",
      "taf": "TAF EHEH 231109Z 2312/2418 35004KT CAVOK"
    },
    {
      "icao": "EKBI",
      "alert": "OK",
      "vis_m": 9999,
      "fzfg": false,
      "metar_trigger": false,
      "taf_trigger": false,
      "metar": "METAR EKBI 231450Z AUTO 29016KT 9999 NCD 14/04 Q1022",
      "taf": "TAF EKBI 231427Z 2315/2415 29010KT CAVOK"
    },
    {
      "icao": "EKCH",
      "alert": "OK",
      "vis_m": 9999,
      "fzfg": false,
      "metar_trigger": false,
      "taf_trigger": false,
      "metar": "METAR EKCH 231450Z AUTO 31015G26KT 9999 NCD 17/02 Q1019 NOSIG",
      "taf": "TAF EKCH 231427Z 2315/2415 31012KT CAVOK"
    },
    {
      "icao": "ENAL",
      "alert": "OK",
      "vis_m": 8000,
      "fzfg": false,
      "metar_trigger": false,
      "taf_trigger": false,
      "metar": "METAR ENAL 231450Z 25016KT 8000 -DZ VV006 07/06 Q1027",
      "taf": "TAF ENAL 231400Z 2315/2324 24015KT 8000 -DZ SCT008 BKN015"
    },
    {
      "icao": "ENBR",
      "alert": "OK",
      "vis_m": 9999,
      "fzfg": false,
      "metar_trigger": false,
      "taf_trigger": false,
      "metar": "METAR ENBR 231450Z 32013KT 9999 FEW018 BKN025 07/04 Q1029 NOSIG RMK WIND 1200FT 33023KT",
      "taf": "TAF ENBR 231100Z 2312/2412 33012KT 9999 BKN018"
    },
    {
      "icao": "ENGM",
      "alert": "OK",
      "vis_m": 9999,
      "fzfg": false,
      "metar_trigger": false,
      "taf_trigger": false,
      "metar": "METAR ENGM 231450Z 03012KT CAVOK 18/M01 Q1017 NOSIG",
      "taf": "TAF ENGM 231100Z 2312/2412 VRB05KT CAVOK"
    },
    {
      "icao": "ENHD",
      "alert": "OK",
      "vis_m": 9999,
      "fzfg": false,
      "metar_trigger": false,
      "taf_trigger": false,
      "metar": "METAR ENHD 231450Z 33021KT 9999 FEW025 09/04 Q1028",
      "taf": "TAF ENHD 231400Z 2315/2322 34020KT 9999 FEW020"
    },
    {
      "icao": "ENTC",
      "alert": "OK",
      "vis_m": 9999,
      "fzfg": false,
      "metar_trigger": false,
      "taf_trigger": false,
      "metar": "METAR ENTC 231450Z 34017KT 9999 VCSH SCT034 BKN038 03/M03 Q1010 TEMPO 34020G30KT RMK WIND 2600FT 33046KT",
      "taf": "TAF ENTC 231100Z 2312/2412 35018KT 9999 -SHSN FEW020 BKN030"
    },
    {
      "icao": "ENTO",
      "alert": "OK",
      "vis_m": 9999,
      "fzfg": false,
      "metar_trigger": false,
      "taf_trigger": false,
      "metar": "METAR ENTO 231450Z 18007KT 160V230 CAVOK 15/04 Q1018 NOSIG",
      "taf": "TAF ENTO 231100Z 2312/2412 22012KT CAVOK"
    },
    {
      "icao": "ENVA",
      "alert": "OK",
      "vis_m": 9999,
      "fzfg": false,
      "metar_trigger": false,
      "taf_trigger": false,
      "metar": "METAR ENVA 231450Z 28020KT 9999 -DZ SCT010 BKN016 07/06 Q1021 TEMPO 27020G30KT DZ SCT006 BKN009 RMK WIND 670FT 28029KT",
      "taf": "TAF ENVA 231100Z 2312/2412 27020KT 8000 -DZ FEW006 SCT010 BKN018"
    },
    {
      "icao": "ENZV",
      "alert": "OK",
      "vis_m": 9999,
      "fzfg": false,
      "metar_trigger": false,
      "taf_trigger": false,
      "metar": "METAR ENZV 231450Z 33025KT CAVOK 10/04 Q1027 NOSIG",
      "taf": "TAF ENZV 231100Z 2312/2412 33018KT 9999 FEW030"
    },
    {
      "icao": "EPGD",
      "alert": "OK",
      "vis_m": 9999,
      "fzfg": false,
      "metar_trigger": false,
      "taf_trigger": false,
      "metar": "METAR EPGD 231500Z 01010KT 320V050 CAVOK 11/M04 Q1017",
      "taf": "TAF EPGD 231130Z 2312/2412 35012KT CAVOK"
    },
    {
      "icao": "EPKK",
      "alert": "OK",
      "vis_m": 9999,
      "fzfg": false,
      "metar_trigger": false,
      "taf_trigger": false,
      "metar": "METAR EPKK 231500Z 31014KT 290V350 9999 SCT064 16/01 Q1014",
      "taf": "TAF EPKK 231430Z 2315/2415 27012KT CAVOK"
    },
    {
      "icao": "EPKT",
      "alert": "OK",
      "vis_m": 9999,
      "fzfg": false,
      "metar_trigger": false,
      "taf_trigger": false,
      "metar": "METAR EPKT 231500Z 32011KT 280V340 CAVOK 14/01 Q1015",
      "taf": "TAF EPKT 231130Z 2312/2412 31015KT CAVOK"
    },
    {
      "icao": "EPLB",
      "alert": "OK",
      "vis_m": 9999,
      "fzfg": false,
      "metar_trigger": false,
      "taf_trigger": false,
      "metar": "METAR EPLB 231500Z 34013KT 300V010 CAVOK 16/M03 Q1009",
      "taf": "TAF EPLB 231130Z 2312/2412 33018KT CAVOK"
    },
    {
      "icao": "EPMO",
      "alert": "OK",
      "vis_m": 9999,
      "fzfg": false,
      "metar_trigger": false,
      "taf_trigger": false,
      "metar": "METAR EPMO 231500Z 33014KT 310V010 CAVOK 15/M03 Q1013",
      "taf": "TAF EPMO 231130Z 2312/2412 33016KT CAVOK"
    },
    {
      "icao": "EPPO",
      "alert": "OK",
      "vis_m": 9999,
      "fzfg": false,
      "metar_trigger": false,
      "taf_trigger": false,
      "metar": "METAR EPPO 231500Z 31013KT CAVOK 16/04 Q1017",
      "taf": "TAF EPPO 231130Z 2312/2412 30010KT CAVOK"
    },
    {
      "icao": "EPRA",
      "alert": "OK",
      "vis_m": 9999,
      "fzfg": false,
      "metar_trigger": false,
      "taf_trigger": false,
      "metar": "METAR EPRA 231500Z 33018KT CAVOK 16/M02 Q1011",
      "taf": "TAF EPRA 231430Z 2315/2324 31012KT CAVOK"
    },
    {
      "icao": "EPRZ",
      "alert": "OK",
      "vis_m": 9999,
      "fzfg": false,
      "metar_trigger": false,
      "taf_trigger": false,
      "metar": "METAR EPRZ 231500Z 32014KT CAVOK 16/M00 Q1011",
      "taf": "TAF EPRZ 231130Z 2312/2412 33017G28KT CAVOK"
    },
    {
      "icao": "EPSC",
      "alert": "OK",
      "vis_m": 9999,
      "fzfg": false,
      "metar_trigger": false,
      "taf_trigger": false,
      "metar": "METAR EPSC 231500Z 31013KT CAVOK 14/04 Q1019",
      "taf": "TAF EPSC 231130Z 2312/2412 31012KT CAVOK"
    },
    {
      "icao": "EPSY",
      "alert": "OK",
      "vis_m": 9999,
      "fzfg": false,
      "metar_trigger": false,
      "taf_trigger": false,
      "metar": "METAR EPSY 231500Z 35020G30KT CAVOK 13/M07 Q1013",
      "taf": "TAF EPSY 231430Z 2315/2324 34012KT CAVOK"
    },
    {
      "icao": "EPWA",
      "alert": "OK",
      "vis_m": 9999,
      "fzfg": false,
      "metar_trigger": false,
      "taf_trigger": false,
      "metar": "METAR EPWA 231500Z 31018KT CAVOK 17/M04 Q1012 NOSIG",
      "taf": "TAF EPWA 231430Z 2315/2415 33016KT CAVOK"
    },
    {
      "icao": "EPWR",
      "alert": "OK",
      "vis_m": 9999,
      "fzfg": false,
      "metar_trigger": false,
      "taf_trigger": false,
      "metar": "METAR EPWR 231500Z 33017KT CAVOK 18/01 Q1017",
      "taf": "TAF EPWR 231430Z 2315/2415 30014KT CAVOK"
    },
    {
      "icao": "ESGG",
      "alert": "OK",
      "vis_m": 9999,
      "fzfg": false,
      "metar_trigger": false,
      "taf_trigger": false,
      "metar": "METAR ESGG 231450Z 30010KT CAVOK 14/01 Q1018",
      "taf": "TAF ESGG 231430Z 2315/2415 30011KT CAVOK"
    },
    {
      "icao": "ESKN",
      "alert": "OK",
      "vis_m": 9999,
      "fzfg": false,
      "metar_trigger": false,
      "taf_trigger": false,
      "metar": "METAR ESKN 231450Z 29010KT CAVOK 15/02 Q1015",
      "taf": "TAF ESKN 231430Z 2315/2415 32012G22KT CAVOK"
    },
    {
      "icao": "ESMS",
      "alert": "OK",
      "vis_m": 9999,
      "fzfg": false,
      "metar_trigger": false,
      "taf_trigger": false,
      "metar": "METAR ESMS 231450Z 31017KT CAVOK 14/04 Q1018",
      "taf": "TAF ESMS 231427Z 2315/2415 31013KT CAVOK"
    },
    {
      "icao": "ESSA",
      "alert": "OK",
      "vis_m": 9999,
      "fzfg": false,
      "metar_trigger": false,
      "taf_trigger": false,
      "metar": "METAR ESSA 231450Z 30010KT 270V330 CAVOK 14/01 Q1013 NOSIG",
      "taf": "TAF ESSA 231430Z 2315/2415 34009KT CAVOK"
    },
    {
      "icao": "EYKA",
      "alert": "OK",
      "vis_m": 9999,
      "fzfg": false,
      "metar_trigger": false,
      "taf_trigger": false,
      "metar": "METAR EYKA 231450Z 36008KT 270V060 CAVOK 13/M08 Q1008",
      "taf": "TAF EYKA 231100Z 2312/2412 34011KT 9000 NSC"
    },
    {
      "icao": "EYPA",
      "alert": "OK",
      "vis_m": 9999,
      "fzfg": false,
      "metar_trigger": false,
      "taf_trigger": false,
      "metar": "METAR EYPA 231450Z 35008KT 310V040 CAVOK 06/00 Q1014",
      "taf": ""
    },
    {
      "icao": "EYVI",
      "alert": "OK",
      "vis_m": 9999,
      "fzfg": false,
      "metar_trigger": false,
      "taf_trigger": false,
      "metar": "METAR EYVI 231450Z 33018KT 300V360 CAVOK 11/M13 Q1007 NOSIG",
      "taf": "TAF EYVI 231100Z 2312/2412 35015KT 9000 NSC"
    },
    {
      "icao": "GCFV",
      "alert": "OK",
      "vis_m": 9999,
      "fzfg": false,
      "metar_trigger": false,
      "taf_trigger": false,
      "metar": "METAR GCFV 231430Z 06010KT 040V100 9999 FEW040 21/14 Q1015",
      "taf": "TAF GCFV 231400Z 2315/2415 07007KT 9999 SCT040 TX23/2414Z TN16/2406Z"
    },
    {
      "icao": "GCLP",
      "alert": "OK",
      "vis_m": 9999,
      "fzfg": false,
      "metar_trigger": false,
      "taf_trigger": false,
      "metar": "METAR GCLP 231430Z 02004KT 330V060 9999 FEW025 BKN035 19/14 Q1016 NOSIG",
      "taf": "TAF GCLP 231400Z 2315/2415 02010KT 9999 BKN040 TX23/2414Z TN16/2406Z"
    },
    {
      "icao": "GCTS",
      "alert": "OK",
      "vis_m": 9999,
      "fzfg": false,
      "metar_trigger": false,
      "taf_trigger": false,
      "metar": "METAR GCTS 231430Z 15006KT 110V210 9999 BKN040 21/13 Q1016 NOSIG",
      "taf": "TAF GCTS 231400Z 2315/2415 06010KT 9999 BKN035 TX24/2414Z TN15/2406Z"
    },
    {
      "icao": "GMAD",
      "alert": "OK",
      "vis_m": 8000,
      "fzfg": false,
      "metar_trigger": false,
      "taf_trigger": false,
      "metar": "METAR GMAD 231500Z 25013KT 210V290 8000 FEW020 24/13 Q1012 NOSIG",
      "taf": "TAF GMAD 231100Z 2312/2418 280004KT 8000 SCT016"
    },
    {
      "icao": "GMMN",
      "alert": "OK",
      "vis_m": 9999,
      "fzfg": false,
      "metar_trigger": false,
      "taf_trigger": false,
      "metar": "METAR GMMN 231500Z 01006KT 320V080 9999 BKN023 21/15 Q1014 NOSIG",
      "taf": "TAF GMMN 231100Z 2312/2418 04006KT 6000 BKN010"
    },
    {
      "icao": "GMMX",
      "alert": "OK",
      "vis_m": 8000,
      "fzfg": false,
      "metar_trigger": false,
      "taf_trigger": false,
      "metar": "METAR GMMX 231500Z 29005KT 240V010 8000 FEW013 BKN020 24/15 Q1012 NOSIG",
      "taf": "TAF GMMX 231100Z 2312/2418 28006KT 8000 FEW013 BKN020"
    },
    {
      "icao": "HEGN",
      "alert": "OK",
      "vis_m": 9999,
      "fzfg": false,
      "metar_trigger": false,
      "taf_trigger": false,
      "metar": "METAR HEGN 231400Z 36015KT CAVOK 29/06 Q1006 NOSIG",
      "taf": "TAF HEGN 231100Z 2312/2418 35018KT CAVOK"
    },
    {
      "icao": "HEMA",
      "alert": "OK",
      "vis_m": 9999,
      "fzfg": false,
      "metar_trigger": false,
      "taf_trigger": false,
      "metar": "METAR HEMA 231400Z 34015KT CAVOK 28/08 Q1007 NOSIG",
      "taf": "TAF HEMA 231100Z 2312/2418 01018G28KT CAVOK"
    },
    {
      "icao": "HESH",
      "alert": "OK",
      "vis_m": 9999,
      "fzfg": false,
      "metar_trigger": false,
      "taf_trigger": false,
      "metar": "METAR HESH 231400Z 01007KT CAVOK 31/10 Q1006 NOSIG",
      "taf": "TAF HESH 231100Z 2312/2418 01015KT CAVOK"
    },
    {
      "icao": "HESX",
      "alert": "OK",
      "vis_m": 9999,
      "fzfg": false,
      "metar_trigger": false,
      "taf_trigger": false,
      "metar": "METAR HESX 231400Z 34006KT CAVOK 28/02 Q1010 NOSIG",
      "taf": "TAF HESX 231100Z 2312/2418 35010KT CAVOK"
    },
    {
      "icao": "LATI",
      "alert": "OK",
      "vis_m": 9999,
      "fzfg": false,
      "metar_trigger": false,
      "taf_trigger": false,
      "metar": "METAR LATI 231450Z 31019KT 9999 FEW094 18/03 Q1013 NOSIG",
      "taf": "TAF LATI 231100Z 2312/2412 02010KT CAVOK TX23/2412Z TN08/2404Z"
    },
    {
      "icao": "LBPD",
      "alert": "OK",
      "vis_m": 9999,
      "fzfg": false,
      "metar_trigger": false,
      "taf_trigger": false,
      "metar": "METAR LBPD 231500Z AUTO 29013KT 260V320 9999 SCT083/// 17/M00 Q1011 NOSIG",
      "taf": "TAF LBPD 231100Z 2312/2412 29012KT 9999 SCT060"
    },
    {
      "icao": "LBSF",
      "alert": "OK",
      "vis_m": 9999,
      "fzfg": false,
      "metar_trigger": false,
      "taf_trigger": false,
      "metar": "METAR LBSF 231500Z AUTO 29014KT 9999 OVC086/// 14/M02 Q1013 NOSIG",
      "taf": "TAF LBSF 231100Z 2312/2412 30012KT 9999 SCT070"
    },
    {
      "icao": "LBWN",
      "alert": "OK",
      "vis_m": 9999,
      "fzfg": false,
      "metar_trigger": false,
      "taf_trigger": false,
      "metar": "METAR LBWN 231500Z 27018KT 9999 SCT048 16/01 Q1009 NOSIG",
      "taf": "TAF LBWN 231100Z 2312/2412 28012KT 9999 SCT030 BKN050"
    },
    {
      "icao": "LCLK",
      "alert": "OK",
      "vis_m": 9999,
      "fzfg": false,
      "metar_trigger": false,
      "taf_trigger": false,
      "metar": "METAR LCLK 231500Z 22015KT 9999 FEW020 BKN046 21/15 Q1010 NOSIG",
      "taf": "TAF LCLK 231130Z 2312/2412 21016KT 9999 FEW020"
    },
    {
      "icao": "LCPH",
      "alert": "OK",
      "vis_m": 9999,
      "fzfg": false,
      "metar_trigger": false,
      "taf_trigger": false,
      "metar": "METAR LCPH 231500Z 29006KT 250V330 9999 FEW030 20/13 Q1011 NOSIG",
      "taf": "TAF LCPH 231130Z 2312/2412 26010KT 9999 FEW018"
    },
    {
      "icao": "LEAL",
      "alert": "OK",
      "vis_m": 9999,
      "fzfg": false,
      "metar_trigger": false,
      "taf_trigger": false,
      "metar": "METAR LEAL 231430Z 08019KT 050V110 CAVOK 23/14 Q1015 NOSIG",
      "taf": "TAF LEAL 231100Z 2312/2412 08010KT 9999 FEW010 TX25/2312Z TN14/2406Z"
    },
    {
      "icao": "LEBB",
      "alert": "OK",
      "vis_m": 9999,
      "fzfg": false,
      "metar_trigger": false,
      "taf_trigger": false,
      "metar": "METAR LEBB 231430Z 11009KT 070V140 CAVOK 27/15 Q1013 NOSIG",
      "taf": "TAF LEBB 231100Z 2312/2412 13009KT 9999 FEW060 TX29/2315Z TN16/2403Z"
    },
    {
      "icao": "LEBL",
      "alert": "OK",
      "vis_m": 9999,
      "fzfg": false,
      "metar_trigger": false,
      "taf_trigger": false,
      "metar": "METAR LEBL 231430Z 07018KT CAVOK 19/11 Q1020 NOSIG",
      "taf": "TAF LEBL 231100Z 2312/2412 06015KT 9999 FEW020 TX20/2312Z TN13/2405Z"
    },
    {
      "icao": "LECH",
      "alert": "OK",
      "vis_m": 8000,
      "fzfg": false,
      "metar_trigger": false,
      "taf_trigger": false,
      "metar": "METAR LECH 231430Z AUTO 06013KT 020V100 8000 BKN031 18/10 Q1020",
      "taf": "TAF LECH 231100Z 2312/2412 05010KT 9999 BKN020 TX23/2313Z TN12/2407Z"
    },
    {
      "icao": "LEMD",
      "alert": "OK",
      "vis_m": 9999,
      "fzfg": false,
      "metar_trigger": false,
      "taf_trigger": false,
      "metar": "METAR LEMD 231430Z 17008KT 120V250 CAVOK 26/09 Q1014 NOSIG",
      "taf": ""
    },
    {
      "icao": "LEMG",
      "alert": "OK",
      "vis_m": 9999,
      "fzfg": false,
      "metar_trigger": false,
      "taf_trigger": false,
      "metar": "METAR LEMG 231430Z 15006KT 120V190 9999 SCT017 BKN025 19/16 Q1014 NOSIG",
      "taf": "TAF LEMG 231100Z 2312/2412 13008KT 9999 BKN016 TX24/2314Z TN15/2406Z"
    },
    {
      "icao": "LEVC",
      "alert": "OK",
      "vis_m": 9999,
      "fzfg": false,
      "metar_trigger": false,
      "taf_trigger": false,
      "metar": "METAR LEVC 231430Z 08015KT 030V110 9999 BKN025 20/13 Q1019 NOSIG",
      "taf": "TAF LEVC 231100Z 2312/2412 07009KT 9999 SCT020 TX22/2312Z TN14/2406Z"
    },
    {
      "icao": "LEXJ",
      "alert": "OK",
      "vis_m": 9999,
      "fzfg": false,
      "metar_trigger": false,
      "taf_trigger": false,
      "metar": "METAR LEXJ 231430Z 03004KT 330V070 CAVOK 19/15 Q1013",
      "taf": "TAF LEXJ 231400Z 2315/2415 06007KT 9999 FEW080 TX22/2315Z TN13/2403Z"
    },
    {
      "icao": "LEZG",
      "alert": "OK",
      "vis_m": 9999,
      "fzfg": false,
      "metar_trigger": false,
      "taf_trigger": false,
      "metar": "METAR LEZG 231430Z 09016KT 060V120 9999 FEW050 23/11 Q1017 NOSIG",
      "taf": "TAF LEZG 231100Z 2312/2412 11012KT 9999 SCT010 TX25/2315Z TN13/2406Z"
    },
    {
      "icao": "LEZL",
      "alert": "OK",
      "vis_m": 9999,
      "fzfg": false,
      "metar_trigger": false,
      "taf_trigger": false,
      "metar": "METAR LEZL 231430Z 23008KT 170V290 CAVOK 26/13 Q1012 NOSIG",
      "taf": "TAF LEZL 231400Z 2315/2415 23010KT CAVOK TX29/2315Z TN16/2406Z"
    },
    {
      "icao": "LFBD",
      "alert": "OK",
      "vis_m": 9999,
      "fzfg": false,
      "metar_trigger": false,
      "taf_trigger": false,
      "metar": "METAR LFBD 231500Z AUTO 11014KT 070V130 CAVOK 26/12 Q1016 TEMPO 12015G25KT",
      "taf": "TAF LFBD 231100Z 2312/2418 12010KT CAVOK TX28/2414Z TN13/2406Z"
    },
    {
      "icao": "LFLL",
      "alert": "OK",
      "vis_m": 9999,
      "fzfg": false,
      "metar_trigger": false,
      "taf_trigger": false,
      "metar": "METAR LFLL 231500Z 36005KT 330V070 CAVOK 22/05 Q1021 NOSIG",
      "taf": "TAF LFLL 231100Z 2312/2418 VRB03KT CAVOK"
    },
    {
      "icao": "LFLS",
      "alert": "OK",
      "vis_m": 9999,
      "fzfg": false,
      "metar_trigger": false,
      "taf_trigger": false,
      "metar": "METAR LFLS 231500Z AUTO 36004KT 310V080 9999 FEW058 21/07 Q1021 NOSIG",
      "taf": "TAF LFLS 231400Z 2315/2415 24008KT CAVOK"
    },
    {
      "icao": "LFMN",
      "alert": "OK",
      "vis_m": 9999,
      "fzfg": false,
      "metar_trigger": false,
      "taf_trigger": false,
      "metar": "METAR LFMN 231500Z 17007KT CAVOK 18/08 Q1021 NOSIG",
      "taf": "TAF LFMN 231400Z 2315/2421 19007KT CAVOK"
    },
    {
      "icao": "LFOB",
      "alert": "OK",
      "vis_m": 9999,
      "fzfg": false,
      "metar_trigger": false,
      "taf_trigger": false,
      "metar": "METAR LFOB 231500Z AUTO 06013KT CAVOK 21/04 Q1025 NOSIG",
      "taf": "TAF LFOB 231100Z 2312/2412 07012G22KT CAVOK"
    },
    {
      "icao": "LFPO",
      "alert": "OK",
      "vis_m": 9999,
      "fzfg": false,
      "metar_trigger": false,
      "taf_trigger": false,
      "metar": "METAR LFPO 231500Z 06012KT CAVOK 22/M00 Q1024 NOSIG",
      "taf": "TAF LFPO 231100Z 2312/2418 08012KT CAVOK"
    },
    {
      "icao": "LFSB",
      "alert": "OK",
      "vis_m": 9999,
      "fzfg": false,
      "metar_trigger": false,
      "taf_trigger": false,
      "metar": "METAR LFSB 231500Z AUTO 02005KT 350V050 CAVOK 21/02 Q1023 NOSIG",
      "taf": "TAF LFSB 231111Z 2312/2412 36008KT CAVOK"
    },
    {
      "icao": "LGAV",
      "alert": "OK",
      "vis_m": 9999,
      "fzfg": false,
      "metar_trigger": false,
      "taf_trigger": false,
      "metar": "METAR LGAV 231450Z 04013KT 9999 FEW018 BKN025 15/07 Q1014 NOSIG",
      "taf": "TAF LGAV 231100Z 2312/2412 03014KT 9999 FEW018 BKN030 BKN070"
    },
    {
      "icao": "LGTS",
      "alert": "OK",
      "vis_m": 9999,
      "fzfg": false,
      "metar_trigger": false,
      "taf_trigger": false,
      "metar": "METAR LGTS 231450Z 26005KT 9999 FEW025 18/05 Q1013 NOSIG",
      "taf": "TAF LGTS 231100Z 2312/2412 VRB03KT 9999 SCT030"
    },
    {
      "icao": "LHBP",
      "alert": "OK",
      "vis_m": 9999,
      "fzfg": false,
      "metar_trigger": false,
      "taf_trigger": false,
      "metar": "METAR LHBP 231500Z 31018KT CAVOK 19/M03 Q1013 NOSIG",
      "taf": "TAF LHBP 231115Z 2312/2412 31016G26KT CAVOK"
    },
    {
      "icao": "LHDC",
      "alert": "OK",
      "vis_m": 9999,
      "fzfg": false,
      "metar_trigger": false,
      "taf_trigger": false,
      "metar": "METAR LHDC 231445Z AUTO 28011KT 230V330 CAVOK 19/M01 Q1011 NOSIG",
      "taf": "TAF LHDC 231415Z 2315/2324 28014G24KT CAVOK"
    },
    {
      "icao": "LIBD",
      "alert": "OK",
      "vis_m": 9999,
      "fzfg": false,
      "metar_trigger": false,
      "taf_trigger": false,
      "metar": "METAR LIBD 231450Z 33011KT 300V010 CAVOK 16/04 Q1017",
      "taf": "TAF LIBD 231100Z 2312/2412 34015KT 9999 FEW030"
    },
    {
      "icao": "LIBG",
      "alert": "OK",
      "vis_m": 9999,
      "fzfg": false,
      "metar_trigger": false,
      "taf_trigger": false,
      "metar": "METAR LIBG 231350Z 36014KT 9999 FEW040 17/05 Q1016",
      "taf": "TAF LIBG 231400Z 2315/2324 35015KT 9999 FEW040"
    },
    {
      "icao": "LIBP",
      "alert": "OK",
      "vis_m": 9999,
      "fzfg": false,
      "metar_trigger": false,
      "taf_trigger": false,
      "metar": "METAR LIBP 231450Z AUTO 03009KT 330V060 9999 NCD 17/04 Q1020",
      "taf": "TAF LIBP 231100Z 2312/2412 36013KT CAVOK"
    },
    {
      "icao": "LIBR",
      "alert": "OK",
      "vis_m": 9999,
      "fzfg": false,
      "metar_trigger": false,
      "taf_trigger": false,
      "metar": "METAR LIBR 231450Z 35014KT CAVOK 16/03 Q1015",
      "taf": "TAF LIBR 231100Z 2312/2412 34013KT 9999 FEW040"
    },
    {
      "icao": "LICA",
      "alert": "OK",
      "vis_m": 9999,
      "fzfg": false,
      "metar_trigger": false,
      "taf_trigger": false,
      "metar": "METAR LICA 231450Z AUTO 26014KT 9999 FEW089/// 18/06 Q1015",
      "taf": "TAF LICA 231100Z 2312/2412 28015KT 9999 FEW040"
    },
    {
      "icao": "LICC",
      "alert": "OK",
      "vis_m": 9999,
      "fzfg": false,
      "metar_trigger": false,
      "taf_trigger": false,
      "metar": "METAR LICC 231450Z 08004KT 030V150 9999 SCT050 SCT070 16/13 Q1016",
      "taf": "TAF LICC 231100Z 2312/2412 08013KT 9999 BKN020"
    },
    {
      "icao": "LICJ",
      "alert": "OK",
      "vis_m": 9999,
      "fzfg": false,
      "metar_trigger": false,
      "taf_trigger": false,
      "metar": "METAR LICJ 231450Z 04013KT CAVOK 18/10 Q1016",
      "taf": "TAF LICJ 231100Z 2312/2412 05016KT 9999 SCT030"
    },
    {
      "icao": "LIMC",
      "alert": "OK",
      "vis_m": 9999,
      "fzfg": false,
      "metar_trigger": false,
      "taf_trigger": false,
      "metar": "METAR LIMC 231450Z 25007KT 200V290 CAVOK 22/05 Q1019 NOSIG",
      "taf": "TAF LIMC 231100Z 2312/2418 24006KT CAVOK"
    },
    {
      "icao": "LIME",
      "alert": "OK",
      "vis_m": 9999,
      "fzfg": false,
      "metar_trigger": false,
      "taf_trigger": false,
      "metar": "METAR LIME 231450Z 22006KT 130V270 CAVOK 20/07 Q1019 NOSIG",
      "taf": "TAF LIME 231100Z 2312/2412 26008KT 9999 FEW060"
    },
    {
      "icao": "LIMF",
      "alert": "OK",
      "vis_m": 9999,
      "fzfg": false,
      "metar_trigger": false,
      "taf_trigger": false,
      "metar": "METAR LIMF 231450Z 19008KT 150V230 CAVOK 21/06 Q1019",
      "taf": "TAF LIMF 231100Z 2312/2412 VRB05KT 9999 FEW060"
    },
    {
      "icao": "LIMJ",
      "alert": "OK",
      "vis_m": 9999,
      "fzfg": false,
      "metar_trigger": false,
      "taf_trigger": false,
      "metar": "METAR LIMJ 231450Z 22008KT CAVOK 17/10 Q1021",
      "taf": "TAF LIMJ 231100Z 2312/2412 22010KT 9999 FEW030"
    },
    {
      "icao": "LIPE",
      "alert": "OK",
      "vis_m": 9999,
      "fzfg": false,
      "metar_trigger": false,
      "taf_trigger": false,
      "metar": "METAR LIPE 231450Z 27003KT 230V310 CAVOK 20/03 Q1020",
      "taf": "TAF LIPE 231100Z 2312/2412 VRB05KT CAVOK"
    },
    {
      "icao": "LIPH",
      "alert": "OK",
      "vis_m": 9999,
      "fzfg": false,
      "metar_trigger": false,
      "taf_trigger": false,
      "metar": "METAR LIPH 231450Z 22009KT 190V250 CAVOK 21/04 Q1018",
      "taf": "TAF LIPH 231100Z 2312/2412 24010KT CAVOK"
    },
    {
      "icao": "LIPQ",
      "alert": "OK",
      "vis_m": 9999,
      "fzfg": false,
      "metar_trigger": false,
      "taf_trigger": false,
      "metar": "METAR LIPQ 231450Z AUTO 24008KT 9999 FEW200/// 19/05 Q1019",
      "taf": "TAF LIPQ 231100Z 2312/2412 23010KT CAVOK"
    },
    {
      "icao": "LIPR",
      "alert": "OK",
      "vis_m": 9999,
      "fzfg": false,
      "metar_trigger": false,
      "taf_trigger": false,
      "metar": "METAR LIPR 231450Z 08004KT 040V140 CAVOK 18/01 Q1020",
      "taf": "TAF LIPR 231100Z 2312/2412 02010KT CAVOK"
    },
    {
      "icao": "LIPX",
      "alert": "OK",
      "vis_m": 9999,
      "fzfg": false,
      "metar_trigger": false,
      "taf_trigger": false,
      "metar": "METAR LIPX 231450Z 24010KT CAVOK 21/04 Q1019",
      "taf": "TAF LIPX 231100Z 2312/2412 27010KT CAVOK"
    },
    {
      "icao": "LIPY",
      "alert": "OK",
      "vis_m": 9999,
      "fzfg": false,
      "metar_trigger": false,
      "taf_trigger": false,
      "metar": "METAR LIPY 231450Z AUTO 33008KT 300V360 9999 NCD 17/02 Q1020",
      "taf": "TAF LIPY 231100Z 2312/2412 01012KT CAVOK"
    },
    {
      "icao": "LIPZ",
      "alert": "OK",
      "vis_m": 9999,
      "fzfg": false,
      "metar_trigger": false,
      "taf_trigger": false,
      "metar": "METAR LIPZ 231450Z 23010KT 190V250 CAVOK 21/05 Q1018 NOSIG",
      "taf": "TAF LIPZ 231100Z 2312/2418 23010KT CAVOK"
    },
    {
      "icao": "LIRF",
      "alert": "OK",
      "vis_m": 9999,
      "fzfg": false,
      "metar_trigger": false,
      "taf_trigger": false,
      "metar": "METAR LIRF 231450Z 28015KT CAVOK 19/08 Q1017 NOSIG",
      "taf": "TAF LIRF 231100Z 2312/2418 03011KT CAVOK"
    },
    {
      "icao": "LIRN",
      "alert": "OK",
      "vis_m": 9999,
      "fzfg": false,
      "metar_trigger": false,
      "taf_trigger": false,
      "metar": "METAR LIRN 231450Z 05012KT 020V080 CAVOK 19/M00 Q1017 NOSIG",
      "taf": "TAF LIRN 231100Z 2312/2412 04015KT CAVOK"
    },
    {
      "icao": "LIRP",
      "alert": "OK",
      "vis_m": 9999,
      "fzfg": false,
      "metar_trigger": false,
      "taf_trigger": false,
      "metar": "METAR LIRP 231445Z 30011KT CAVOK 19/05 Q1020 NOSIG",
      "taf": "TAF LIRP 231100Z 2312/2412 30010KT CAVOK"
    },
    {
      "icao": "LIRZ",
      "alert": "OK",
      "vis_m": 9999,
      "fzfg": false,
      "metar_trigger": false,
      "taf_trigger": false,
      "metar": "METAR LIRZ 231450Z AUTO 05012KT 9999 NCD 18/M00 Q1019",
      "taf": "TAF LIRZ 231100Z 2312/2412 04015KT CAVOK"
    },
    {
      "icao": "LJLJ",
      "alert": "OK",
      "vis_m": 9999,
      "fzfg": false,
      "metar_trigger": false,
      "taf_trigger": false,
      "metar": "METAR LJLJ 231430Z 08004KT 010V180 CAVOK 21/M01 Q1017 NOSIG",
      "taf": "TAF LJLJ 231100Z 2312/2412 11006KT CAVOK"
    },
    {
      "icao": "LKMT",
      "alert": "OK",
      "vis_m": 9999,
      "fzfg": false,
      "metar_trigger": false,
      "taf_trigger": false,
      "metar": "METAR LKMT 231500Z 35015KT CAVOK 16/03 Q1016 NOSIG",
      "taf": "TAF LKMT 231100Z 2312/2412 34014KT CAVOK"
    },
    {
      "icao": "LKPR",
      "alert": "OK",
      "vis_m": 9999,
      "fzfg": false,
      "metar_trigger": false,
      "taf_trigger": false,
      "metar": "METAR LKPR 231500Z 32017KT CAVOK 17/M06 Q1019 NOSIG",
      "taf": "TAF LKPR 231400Z 2315/2421 30016KT CAVOK"
    },
    {
      "icao": "LLBG",
      "alert": "OK",
      "vis_m": 9999,
      "fzfg": false,
      "metar_trigger": false,
      "taf_trigger": false,
      "metar": "METAR LLBG 231450Z 35009KT CAVOK 21/11 Q1010 NOSIG",
      "taf": "TAF LLBG 231103Z 2312/2412 32012KT CAVOK TX25/2312Z TN10/2403Z"
    },
    {
      "icao": "LMML",
      "alert": "OK",
      "vis_m": 9999,
      "fzfg": false,
      "metar_trigger": false,
      "taf_trigger": false,
      "metar": "METAR LMML 231445Z 06013KT 9999 FEW022 BKN027 17/12 Q1015 NOSIG",
      "taf": "TAF LMML 231100Z 2312/2412 06012KT 9999 SCT015"
    },
    {
      "icao": "LOWW",
      "alert": "OK",
      "vis_m": 9999,
      "fzfg": false,
      "metar_trigger": false,
      "taf_trigger": false,
      "metar": "METAR LOWW 231450Z 32022KT CAVOK 20/M02 Q1016 NOSIG",
      "taf": "TAF LOWW 231415Z 2315/2421 33015KT CAVOK TX20/2415Z TN10/2403Z"
    },
    {
      "icao": "LPFR",
      "alert": "OK",
      "vis_m": 9999,
      "fzfg": false,
      "metar_trigger": false,
      "taf_trigger": false,
      "metar": "METAR LPFR 231430Z 26016KT CAVOK 19/12 Q1014",
      "taf": "TAF LPFR 231100Z 2312/2412 24015KT CAVOK"
    },
    {
      "icao": "LPMA",
      "alert": "OK",
      "vis_m": 9999,
      "fzfg": false,
      "metar_trigger": false,
      "taf_trigger": false,
      "metar": "METAR LPMA 231430Z 28010KT 230V320 9999 SCT015 20/14 Q1014",
      "taf": "TAF LPMA 231100Z 2312/2412 22013KT 9999 SCT015"
    },
    {
      "icao": "LPPR",
      "alert": "OK",
      "vis_m": 9999,
      "fzfg": false,
      "metar_trigger": false,
      "taf_trigger": false,
      "metar": "METAR LPPR 231430Z 30008KT 270V340 CAVOK 17/10 Q1013",
      "taf": "TAF LPPR 231100Z 2312/2412 29008KT CAVOK"
    },
    {
      "icao": "LPPS",
      "alert": "OK",
      "vis_m": 9999,
      "fzfg": false,
      "metar_trigger": false,
      "taf_trigger": false,
      "metar": "METAR LPPS 231430Z 35007KT 300V040 9999 FEW015 22/09 Q1014",
      "taf": "TAF LPPS 231100Z 2312/2418 VRB05KT 9999 SCT015"
    },
    {
      "icao": "LPPT",
      "alert": "OK",
      "vis_m": 9999,
      "fzfg": false,
      "metar_trigger": false,
      "taf_trigger": false,
      "metar": "METAR LPPT 231430Z 21011KT 9999 SCT034 20/12 Q1013",
      "taf": "TAF LPPT 231100Z 2312/2418 VRB05KT 9999 BKN035"
    },
    {
      "icao": "LQBK",
      "alert": "OK",
      "vis_m": 9999,
      "fzfg": false,
      "metar_trigger": false,
      "taf_trigger": false,
      "metar": "METAR LQBK 231430Z 30007KT 260V360 9999 SCT047 18/02 Q1017 NOSIG",
      "taf": "TAF LQBK 231100Z 2312/2412 29005KT CAVOK TX17/2313Z TN02/2404Z"
    },
    {
      "icao": "LQSA",
      "alert": "OK",
      "vis_m": 9999,
      "fzfg": false,
      "metar_trigger": false,
      "taf_trigger": false,
      "metar": "METAR LQSA 231430Z 33006KT 300V010 9999 SCT055 SCT074 14/M02 Q1017 NOSIG",
      "taf": "TAF LQSA 231100Z 2312/2412 28005KT 9999 SCT060 TX14/2314Z TN03/2404Z"
    },
    {
      "icao": "LQTZ",
      "alert": "OK",
      "vis_m": 9999,
      "fzfg": false,
      "metar_trigger": false,
      "taf_trigger": false,
      "metar": "METAR LQTZ 231430Z 29005KT 250V330 9999 SCT067 16/02 Q1017",
      "taf": "TAF LQTZ 231100Z 2312/2412 27005KT CAVOK TX17/2412Z TN01/2404Z"
    },
    {
      "icao": "LRBC",
      "alert": "OK",
      "vis_m": 9999,
      "fzfg": false,
      "metar_trigger": false,
      "taf_trigger": false,
      "metar": "METAR LRBC 231430Z 29012KT CAVOK 16/00 Q1005",
      "taf": "TAF LRBC 231400Z 2315/2324 32012KT CAVOK"
    },
    {
      "icao": "LRBS",
      "alert": "OK",
      "vis_m": 9999,
      "fzfg": false,
      "metar_trigger": false,
      "taf_trigger": false,
      "metar": "METAR LRBS 231430Z 28010KT 230V330 CAVOK 19/M03 Q1008 NOSIG",
      "taf": "TAF LRBS 231100Z 2312/2412 27014KT CAVOK"
    },
    {
      "icao": "LRBV",
      "alert": "OK",
      "vis_m": 9999,
      "fzfg": false,
      "metar_trigger": false,
      "taf_trigger": false,
      "metar": "METAR LRBV 231430Z 32018G29KT 280V350 9999 FEW068 SCT075 13/M01 Q1009",
      "taf": "TAF LRBV 231400Z 2315/2324 30016KT 9999 SCT060"
    },
    {
      "icao": "LRCL",
      "alert": "OK",
      "vis_m": 9999,
      "fzfg": false,
      "metar_trigger": false,
      "taf_trigger": false,
      "metar": "METAR LRCL 231430Z 28015KT CAVOK 15/M02 Q1010",
      "taf": "TAF LRCL 231400Z 2315/2324 30016KT CAVOK"
    },
    {
      "icao": "LRCV",
      "alert": "OK",
      "vis_m": 9999,
      "fzfg": false,
      "metar_trigger": false,
      "taf_trigger": false,
      "metar": "METAR LRCV 231430Z 32013KT CAVOK 18/M02 Q1010",
      "taf": "TAF LRCV 231400Z 2315/2324 30015KT CAVOK"
    },
    {
      "icao": "LRIA",
      "alert": "OK",
      "vis_m": 9999,
      "fzfg": false,
      "metar_trigger": false,
      "taf_trigger": false,
      "metar": "METAR LRIA 231430Z 34018KT CAVOK 14/01 Q1005",
      "taf": "TAF LRIA 231400Z 2315/2324 32020KT CAVOK"
    },
    {
      "icao": "LROP",
      "alert": "OK",
      "vis_m": 9999,
      "fzfg": false,
      "metar_trigger": false,
      "taf_trigger": false,
      "metar": "METAR LROP 231430Z 28014KT CAVOK 19/M01 Q1008 NOSIG",
      "taf": "TAF LROP 231100Z 2312/2412 27014KT CAVOK"
    },
    {
      "icao": "LRSB",
      "alert": "OK",
      "vis_m": 9999,
      "fzfg": false,
      "metar_trigger": false,
      "taf_trigger": false,
      "metar": "METAR LRSB 231430Z 29017KT 9999 SCT078 16/M01 Q1010",
      "taf": "TAF LRSB 231100Z 2312/2412 31014KT 9999 SCT065"
    },
    {
      "icao": "LRSM",
      "alert": "OK",
      "vis_m": 9999,
      "fzfg": false,
      "metar_trigger": false,
      "taf_trigger": false,
      "metar": "METAR LRSM 231430Z 29013KT CAVOK 19/M01 Q1010",
      "taf": "TAF LRSM 231400Z 2315/2324 31015KT CAVOK"
    },
    {
      "icao": "LRSV",
      "alert": "OK",
      "vis_m": 9999,
      "fzfg": false,
      "metar_trigger": false,
      "taf_trigger": false,
      "metar": "METAR LRSV 231430Z 32025KT CAVOK 14/M01 Q1005",
      "taf": "TAF LRSV 231400Z 2315/2324 32022KT CAVOK"
    },
    {
      "icao": "LRTM",
      "alert": "OK",
      "vis_m": 9999,
      "fzfg": false,
      "metar_trigger": false,
      "taf_trigger": false,
      "metar": "METAR LRTM 231430Z 29016KT 260V330 9999 SCT046 16/M01 Q1010",
      "taf": "TAF LRTM 231400Z 2315/2324 29017KT CAVOK"
    },
    {
      "icao": "LRTR",
      "alert": "OK",
      "vis_m": 9999,
      "fzfg": false,
      "metar_trigger": false,
      "taf_trigger": false,
      "metar": "METAR LRTR 231430Z 31010G20KT 280V340 CAVOK 18/M02 Q1013",
      "taf": "TAF LRTR 231100Z 2312/2412 31014KT CAVOK"
    },
    {
      "icao": "LTAC",
      "alert": "OK",
      "vis_m": 9999,
      "fzfg": false,
      "metar_trigger": false,
      "taf_trigger": false,
      "metar": "METAR LTAC 231450Z 32005KT 280V340 9999 BKN022 BKN080 08/03 Q1010 NOSIG RMK RWY21C 28007KT RWY03L 31005KT 270V330 RWY21R 27006KT RWY03R 29006KT 260V320 RWY21L 29007KT",
      "taf": "TAF LTAC 231040Z 2312/2412 VRB02KT 9999 SCT010 BKN025 BKN080"
    },
    {
      "icao": "LTFM",
      "alert": "OK",
      "vis_m": 9999,
      "fzfg": false,
      "metar_trigger": false,
      "taf_trigger": false,
      "metar": "METAR LTFM 231450Z VRB04KT CAVOK 14/M04 Q1012 NOSIG RMK RWY17L 10004KT 050V130 RWY34L 06003KT 350V120 RWY16R 14004KT 070V190 RWY36 06004KT 010V140 RWY18 10004KT 050V140",
      "taf": "TAF LTFM 231040Z 2312/2418 05010KT CAVOK"
    },
    {
      "icao": "LUKK",
      "alert": "OK",
      "vis_m": 9999,
      "fzfg": false,
      "metar_trigger": false,
      "taf_trigger": false,
      "metar": "METAR LUKK 231430Z 34017KT 310V020 CAVOK 13/M01 Q1005 TEMPO 30024G36KT",
      "taf": "TAF LUKK 231031Z 2312/2412 30018KT CAVOK"
    },
    {
      "icao": "LWOH",
      "alert": "OK",
      "vis_m": 9999,
      "fzfg": false,
      "metar_trigger": false,
      "taf_trigger": false,
      "metar": "METAR LWOH 231450Z 34007KT 9999 SCT040 15/01 Q1014",
      "taf": "TAF LWOH 231408Z 2315/2415 01010KT 9999 SCT050"
    },
    {
      "icao": "LWSK",
      "alert": "OK",
      "vis_m": 9999,
      "fzfg": false,
      "metar_trigger": false,
      "taf_trigger": false,
      "metar": "METAR LWSK 231450Z 35007KT 300V040 9999 FEW085 16/01 Q1014 NOSIG",
      "taf": "TAF LWSK 231408Z 2315/2415 34010KT 9999 FEW080"
    },
    {
      "icao": "LYBE",
      "alert": "OK",
      "vis_m": 9999,
      "fzfg": false,
      "metar_trigger": false,
      "taf_trigger": false,
      "metar": "METAR LYBE 231430Z 32013KT CAVOK 17/02 Q1015 NOSIG",
      "taf": "TAF LYBE 231100Z 2312/2412 31016KT CAVOK TX18/2313Z TN04/2404Z"
    },
    {
      "icao": "LYNI",
      "alert": "OK",
      "vis_m": 9999,
      "fzfg": false,
      "metar_trigger": false,
      "taf_trigger": false,
      "metar": "METAR LYNI 231430Z 32011KT 280V360 9999 SCT070 17/M02 Q1014 NOSIG",
      "taf": "TAF LYNI 231100Z 2312/2412 32017KT 9999 SCT060 TX19/2412Z TN04/2404Z"
    },
    {
      "icao": "LYPG",
      "alert": "OK",
      "vis_m": 9999,
      "fzfg": false,
      "metar_trigger": false,
      "taf_trigger": false,
      "metar": "METAR LYPG 231430Z 35011KT 320V030 9999 FEW050 20/M03 Q1014 NOSIG",
      "taf": "TAF LYPG 231100Z 2312/2412 34008KT CAVOK TX22/2412Z TN11/2404Z"
    },
    {
      "icao": "LZIB",
      "alert": "OK",
      "vis_m": 9999,
      "fzfg": false,
      "metar_trigger": false,
      "taf_trigger": false,
      "metar": "METAR LZIB 231500Z 33015KT CAVOK 18/M04 Q1015 NOSIG",
      "taf": "TAF LZIB 231115Z 2312/2412 32012KT CAVOK"
    },
    {
      "icao": "LZKZ",
      "alert": "OK",
      "vis_m": 9999,
      "fzfg": false,
      "metar_trigger": false,
      "taf_trigger": false,
      "metar": "METAR LZKZ 231500Z 35020KT CAVOK 18/M01 Q1011 NOSIG",
      "taf": "TAF LZKZ 231115Z 2312/2412 34012KT CAVOK"
    },
    {
      "icao": "LZTT",
      "alert": "OK",
      "vis_m": 9999,
      "fzfg": false,
      "metar_trigger": false,
      "taf_trigger": false,
      "metar": "METAR LZTT 231500Z 30011KT 270V340 9999 FEW056 15/M03 Q1012 NOSIG",
      "taf": "TAF LZTT 231115Z 2312/2412 27014KT 9999 FEW050"
    },
    {
      "icao": "OEJN",
      "alert": "OK",
      "vis_m": 9999,
      "fzfg": false,
      "metar_trigger": false,
      "taf_trigger": false,
      "metar": "METAR OEJN 231500Z 33011KT CAVOK 29/15 Q1004 NOSIG",
      "taf": "TAF OEJN 231100Z 2312/2418 33012KT CAVOK"
    },
    {
      "icao": "OEMA",
      "alert": "OK",
      "vis_m": 9999,
      "fzfg": false,
      "metar_trigger": false,
      "taf_trigger": false,
      "metar": "METAR OEMA 231500Z 22011KT 9999 FEW045 33/M09 Q1008 NOSIG",
      "taf": "TAF OEMA 231100Z 2312/2418 26012KT CAVOK"
    },
    {
      "icao": "OJAI",
      "alert": "OK",
      "vis_m": 5000,
      "fzfg": false,
      "metar_trigger": false,
      "taf_trigger": false,
      "metar": "METAR OJAI 231400Z 29010KT 5000 HZ NSC 24/M01 Q1011 NOSIG",
      "taf": "TAF OJAI 231100Z 2312/2418 29008KT 5000 HZ NSC"
    },
    {
      "icao": "OMAA",
      "alert": "OK",
      "vis_m": 9999,
      "fzfg": false,
      "metar_trigger": false,
      "taf_trigger": false,
      "metar": "METAR OMAA 231430Z 34015KT CAVOK 32/17 Q1006 NOSIG",
      "taf": ""
    },
    {
      "icao": "OMDB",
      "alert": "OK",
      "vis_m": 9999,
      "fzfg": false,
      "metar_trigger": false,
      "taf_trigger": false,
      "metar": "METAR OMDB 231430Z 34012KT 300V020 CAVOK 34/16 Q1006 NOSIG",
      "taf": ""
    },
    {
      "icao": "UAAA",
      "alert": "OK",
      "vis_m": 9999,
      "fzfg": false,
      "metar_trigger": false,
      "taf_trigger": false,
      "metar": "METAR UAAA 231430Z 19005MPS 9999 -SHRA BKN050CB OVC100 14/12 Q1019 NOSIG",
      "taf": ""
    },
    {
      "icao": "UBBB",
      "alert": "OK",
      "vis_m": 9999,
      "fzfg": false,
      "metar_trigger": false,
      "taf_trigger": false,
      "metar": "METAR UBBB 231500Z 33012KT 9999 BKN007 10/09 Q1008 NOSIG",
      "taf": "TAF UBBB 231104Z 2312/2412 34010KT 9999 BKN009 TX12/2312Z TN09/2401Z"
    },
    {
      "icao": "UDSG",
      "alert": "OK",
      "vis_m": 9999,
      "fzfg": false,
      "metar_trigger": false,
      "taf_trigger": false,
      "metar": "METAR UDSG 231430Z 22018KT 9999 SCT046CB 14/M01 Q1009 NOSIG",
      "taf": "TAF UDSG 231100Z 2312/2412 22006KT 9999 SCT050"
    },
    {
      "icao": "UDYZ",
      "alert": "OK",
      "vis_m": 9999,
      "fzfg": false,
      "metar_trigger": false,
      "taf_trigger": false,
      "metar": "METAR UDYZ 231430Z 25012KT 9999 SCT///CB 18/04 Q1007 NOSIG",
      "taf": "TAF UDYZ 231100Z 2312/2412 24006KT 9999 SCT040"
    },
    {
      "icao": "UGKO",
      "alert": "OK",
      "vis_m": 9999,
      "fzfg": false,
      "metar_trigger": false,
      "taf_trigger": false,
      "metar": "METAR UGKO 231430Z 26017KT 9999 -SHRA SCT015CB BKN068 11/09 Q1008 NOSIG",
      "taf": "TAF UGKO 231100Z 2312/2412 07007KT 9999 SCT020 BKN050 TX13/2411Z TN05/2403Z"
    }
  ]
}