{
  "ts_utc": "2026-06-27T21:15:48Z",
  "threshold_m": 150,
  "source": "stations_override.txt (ICAO list) + aviationweather.gov (METAR/TAF raw)",
  "station_count": 159,
  "stations": [
    {
      "icao": "BIKF",
      "alert": "OK",
      "vis_m": 9999,
      "fzfg": false,
      "metar_trigger": false,
      "taf_trigger": false,
      "metar": "METAR BIKF 272100Z 04005KT 9999 -RA FEW020 OVC038 10/09 Q1001",
      "taf": "TAF BIKF 271958Z 2721/2821 07008KT 9999 -RA FEW012 BKN020 OVC040 TX12/2815Z TN09/2805Z"
    },
    {
      "icao": "BKPR",
      "alert": "OK",
      "vis_m": 9999,
      "fzfg": false,
      "metar_trigger": false,
      "taf_trigger": false,
      "metar": "METAR BKPR 272100Z 34004KT CAVOK 25/16 Q1023 NOSIG",
      "taf": "TAF BKPR 271730Z 2718/2818 03008KT CAVOK"
    },
    {
      "icao": "EBCI",
      "alert": "OK",
      "vis_m": 9999,
      "fzfg": false,
      "metar_trigger": false,
      "taf_trigger": false,
      "metar": "METAR EBCI 272050Z 29004KT 260V330 CAVOK 26/20 Q1015 NOSIG",
      "taf": "TAF EBCI 271700Z 2718/2824 02008KT CAVOK"
    },
    {
      "icao": "EDDB",
      "alert": "OK",
      "vis_m": 9999,
      "fzfg": false,
      "metar_trigger": false,
      "taf_trigger": false,
      "metar": "METAR EDDB 272050Z AUTO 31012KT 280V340 9999 -SHRA VCTS FEW///CB 30/19 Q1017 NOSIG",
      "taf": ""
    },
    {
      "icao": "EDDH",
      "alert": "OK",
      "vis_m": 9999,
      "fzfg": false,
      "metar_trigger": false,
      "taf_trigger": false,
      "metar": "METAR EDDH 272050Z AUTO 35006KT 330V050 CAVOK 26/22 Q1015 TEMPO 33012KT",
      "taf": "TAF EDDH 271700Z 2718/2824 12008KT CAVOK"
    },
    {
      "icao": "EDDK",
      "alert": "OK",
      "vis_m": 9999,
      "fzfg": false,
      "metar_trigger": false,
      "taf_trigger": false,
      "metar": "METAR EDDK 272050Z AUTO 13005KT CAVOK 29/18 Q1013 NOSIG",
      "taf": "TAF EDDK 271700Z 2718/2824 12005KT CAVOK"
    },
    {
      "icao": "EDDN",
      "alert": "OK",
      "vis_m": 9999,
      "fzfg": false,
      "metar_trigger": false,
      "taf_trigger": false,
      "metar": "METAR EDDN 272050Z AUTO VRB02KT CAVOK 26/17 Q1017",
      "taf": "TAF EDDN 271700Z 2718/2818 10005KT CAVOK"
    },
    {
      "icao": "EDDS",
      "alert": "OK",
      "vis_m": 9999,
      "fzfg": false,
      "metar_trigger": false,
      "taf_trigger": false,
      "metar": "METAR EDDS 272050Z AUTO VRB02KT CAVOK 28/13 Q1018",
      "taf": "TAF EDDS 271700Z 2718/2818 02005KT CAVOK"
    },
    {
      "icao": "EDFH",
      "alert": "OK",
      "vis_m": 9999,
      "fzfg": false,
      "metar_trigger": false,
      "taf_trigger": false,
      "metar": "METAR EDFH 272050Z 14007KT CAVOK 29/14 Q1017",
      "taf": "TAF EDFH 271700Z 2718/2818 17007KT CAVOK"
    },
    {
      "icao": "EDJA",
      "alert": "OK",
      "vis_m": 9999,
      "fzfg": false,
      "metar_trigger": false,
      "taf_trigger": false,
      "metar": "METAR EDJA 272050Z COR VRB01KT CAVOK 21/15 Q1020",
      "taf": "TAF EDJA 271700Z 2718/2803 VRB02KT CAVOK"
    },
    {
      "icao": "EDLW",
      "alert": "OK",
      "vis_m": 9999,
      "fzfg": false,
      "metar_trigger": false,
      "taf_trigger": false,
      "metar": "METAR EDLW 272050Z AUTO 36004KT 9999 // BKN100/// BKN150/// 27/23 Q1013",
      "taf": "TAF EDLW 271700Z 2718/2818 14004KT CAVOK"
    },
    {
      "icao": "EDNY",
      "alert": "OK",
      "vis_m": 9999,
      "fzfg": false,
      "metar_trigger": false,
      "taf_trigger": false,
      "metar": "METAR EDNY 272050Z AUTO 07004KT 030V140 9999 // NCD 25/17 Q1019",
      "taf": "TAF EDNY 271700Z 2718/2803 VRB03KT CAVOK"
    },
    {
      "icao": "EDSB",
      "alert": "OK",
      "vis_m": 9999,
      "fzfg": false,
      "metar_trigger": false,
      "taf_trigger": false,
      "metar": "METAR EDSB 272050Z 00000KT CAVOK 29/21 Q1015",
      "taf": "TAF EDSB 271700Z 2718/2818 VRB03KT CAVOK"
    },
    {
      "icao": "EETN",
      "alert": "OK",
      "vis_m": 9999,
      "fzfg": false,
      "metar_trigger": false,
      "taf_trigger": false,
      "metar": "METAR EETN 272050Z VRB02KT CAVOK 19/13 Q1018 NOSIG",
      "taf": "TAF EETN 271730Z 2718/2818 29010KT CAVOK"
    },
    {
      "icao": "EFTU",
      "alert": "OK",
      "vis_m": 9999,
      "fzfg": false,
      "metar_trigger": false,
      "taf_trigger": false,
      "metar": "METAR EFTU 272050Z AUTO 00000KT CAVOK 16/13 Q1017",
      "taf": "TAF EFTU 272030Z 2721/2821 30009KT CAVOK"
    },
    {
      "icao": "EGBB",
      "alert": "OK",
      "vis_m": 9999,
      "fzfg": false,
      "metar_trigger": false,
      "taf_trigger": false,
      "metar": "METAR EGBB 272050Z 19008KT CAVOK 24/15 Q1013",
      "taf": "TAF EGBB 271700Z 2718/2818 21009KT 9999 FEW045"
    },
    {
      "icao": "EGGP",
      "alert": "OK",
      "vis_m": 9999,
      "fzfg": false,
      "metar_trigger": false,
      "taf_trigger": false,
      "metar": "METAR EGGP 272050Z 21007KT 180V240 CAVOK 23/14 Q1011",
      "taf": "TAF EGGP 271655Z 2718/2818 19014KT 9999 FEW035"
    },
    {
      "icao": "EGGW",
      "alert": "OK",
      "vis_m": 9999,
      "fzfg": false,
      "metar_trigger": false,
      "taf_trigger": false,
      "metar": "METAR EGGW 272050Z AUTO 21006KT 170V230 9999 NCD 23/15 Q1014",
      "taf": "TAF EGGW 271700Z 2718/2818 19008KT CAVOK"
    },
    {
      "icao": "EGKK",
      "alert": "OK",
      "vis_m": 9999,
      "fzfg": false,
      "metar_trigger": false,
      "taf_trigger": false,
      "metar": "METAR EGKK 272050Z 21004KT 160V240 CAVOK 22/15 Q1015",
      "taf": "TAF EGKK 271655Z 2718/2824 18008KT 9999 FEW045"
    },
    {
      "icao": "EGNM",
      "alert": "OK",
      "vis_m": 9999,
      "fzfg": false,
      "metar_trigger": false,
      "taf_trigger": false,
      "metar": "METAR EGNM 272050Z 20009KT 9999 SCT055CB 22/14 Q1012",
      "taf": ""
    },
    {
      "icao": "EGPD",
      "alert": "OK",
      "vis_m": 9999,
      "fzfg": false,
      "metar_trigger": false,
      "taf_trigger": false,
      "metar": "METAR EGPD 272050Z AUTO 18014KT 9999 FEW041 19/14 Q1007",
      "taf": "TAF EGPD 271655Z 2718/2818 17009KT 9999 SCT010"
    },
    {
      "icao": "EGPF",
      "alert": "OK",
      "vis_m": 9999,
      "fzfg": false,
      "metar_trigger": false,
      "taf_trigger": false,
      "metar": "METAR EGPF 272050Z AUTO 18015KT 9999 BKN020 OVC045 19/15 Q1007",
      "taf": "TAF EGPF 271659Z 2718/2818 19008KT 9999 BKN025"
    },
    {
      "icao": "EHBK",
      "alert": "OK",
      "vis_m": 9999,
      "fzfg": false,
      "metar_trigger": false,
      "taf_trigger": false,
      "metar": "METAR EHBK 272055Z AUTO 35004KT 300V040 9999 NSC 30/23 Q1012 NOSIG",
      "taf": "TAF EHBK 271712Z 2718/2824 18005KT CAVOK"
    },
    {
      "icao": "EHEH",
      "alert": "OK",
      "vis_m": 9999,
      "fzfg": false,
      "metar_trigger": false,
      "taf_trigger": false,
      "metar": "METAR EHEH 272055Z AUTO 01006KT 320V040 9999 SCT340 28/18 Q1012 BLU NOSIG RMK TREND REMOTE BY EHWX",
      "taf": ""
    },
    {
      "icao": "EKBI",
      "alert": "OK",
      "vis_m": 9999,
      "fzfg": false,
      "metar_trigger": false,
      "taf_trigger": false,
      "metar": "METAR EKBI 272050Z AUTO 25003KT 9999 FEW200/// FEW240/// 23/20 Q1017",
      "taf": "TAF EKBI 272027Z 2721/2821 19008KT CAVOK"
    },
    {
      "icao": "EKCH",
      "alert": "OK",
      "vis_m": 9999,
      "fzfg": false,
      "metar_trigger": false,
      "taf_trigger": false,
      "metar": "METAR EKCH 272051Z 21004KT 9999 FEW080CB SCT180 22/19 Q1016 TEMPO BKN080CB",
      "taf": ""
    },
    {
      "icao": "ENAL",
      "alert": "OK",
      "vis_m": 9999,
      "fzfg": false,
      "metar_trigger": false,
      "taf_trigger": false,
      "metar": "METAR ENAL 272050Z 36003KT 310V040 9999 FEW010 13/12 Q1010",
      "taf": "TAF ENAL 272000Z 2721/2806 06008KT 9999 FEW010 BKN040"
    },
    {
      "icao": "ENBR",
      "alert": "OK",
      "vis_m": 9999,
      "fzfg": false,
      "metar_trigger": false,
      "taf_trigger": false,
      "metar": "METAR ENBR 272050Z 16015KT 9999 BKN004 OVC037 15/14 Q1014 RMK WIND 1200FT 18016KT",
      "taf": ""
    },
    {
      "icao": "ENGM",
      "alert": "OK",
      "vis_m": 9999,
      "fzfg": false,
      "metar_trigger": false,
      "taf_trigger": false,
      "metar": "METAR ENGM 272050Z 20009KT CAVOK 22/16 Q1012 NOSIG",
      "taf": "TAF ENGM 271700Z 2718/2818 22012KT CAVOK"
    },
    {
      "icao": "ENHD",
      "alert": "OK",
      "vis_m": 9999,
      "fzfg": false,
      "metar_trigger": false,
      "taf_trigger": false,
      "metar": "METAR ENHD 272050Z AUTO 17005KT 140V200 9999 NCD 15/14 Q1015",
      "taf": "TAF ENHD 271400Z 2715/2722 18012KT 9999 FEW015 SCT030"
    },
    {
      "icao": "ENTC",
      "alert": "OK",
      "vis_m": 9999,
      "fzfg": false,
      "metar_trigger": false,
      "taf_trigger": false,
      "metar": "METAR ENTC 272050Z 25003KT 220V280 9999 BKN036 10/05 Q1016 RMK WIND 2600FT 24013KT",
      "taf": "TAF ENTC 271700Z 2718/2818 28012KT 9999 -SHRA SCT025 BKN040"
    },
    {
      "icao": "ENTO",
      "alert": "OK",
      "vis_m": 9999,
      "fzfg": false,
      "metar_trigger": false,
      "taf_trigger": false,
      "metar": "METAR ENTO 272050Z 20009KT CAVOK 19/19 Q1013 NOSIG",
      "taf": "TAF ENTO 271700Z 2718/2818 18008KT CAVOK"
    },
    {
      "icao": "ENVA",
      "alert": "OK",
      "vis_m": 9999,
      "fzfg": false,
      "metar_trigger": false,
      "taf_trigger": false,
      "metar": "METAR ENVA 272050Z 26007KT CAVOK 16/14 Q1010 RMK WIND 670FT 28008KT",
      "taf": "TAF ENVA 271700Z 2718/2818 24008KT 9999 -SHRA BKN040"
    },
    {
      "icao": "ENZV",
      "alert": "OK",
      "vis_m": 9999,
      "fzfg": false,
      "metar_trigger": false,
      "taf_trigger": false,
      "metar": "METAR ENZV 272050Z 21007KT 9999 4000W VCFG NSC 17/15 Q1015",
      "taf": ""
    },
    {
      "icao": "EPGD",
      "alert": "OK",
      "vis_m": 9999,
      "fzfg": false,
      "metar_trigger": false,
      "taf_trigger": false,
      "metar": "METAR EPGD 272100Z 13002KT CAVOK 24/18 Q1018",
      "taf": "TAF EPGD 271730Z 2718/2818 14007KT CAVOK"
    },
    {
      "icao": "EPKK",
      "alert": "OK",
      "vis_m": 9999,
      "fzfg": false,
      "metar_trigger": false,
      "taf_trigger": false,
      "metar": "METAR EPKK 272100Z VRB02KT CAVOK 25/17 Q1020",
      "taf": "TAF EPKK 272030Z 2721/2821 VRB02KT CAVOK"
    },
    {
      "icao": "EPKT",
      "alert": "OK",
      "vis_m": 9999,
      "fzfg": false,
      "metar_trigger": false,
      "taf_trigger": false,
      "metar": "METAR EPKT 272100Z VRB01KT CAVOK 27/17 Q1020",
      "taf": "TAF EPKT 271730Z 2718/2818 19006KT CAVOK"
    },
    {
      "icao": "EPLB",
      "alert": "OK",
      "vis_m": 9999,
      "fzfg": false,
      "metar_trigger": false,
      "taf_trigger": false,
      "metar": "METAR EPLB 272100Z 08002KT CAVOK 22/16 Q1020",
      "taf": "TAF EPLB 271730Z 2718/2818 VRB03KT CAVOK"
    },
    {
      "icao": "EPMO",
      "alert": "OK",
      "vis_m": 9999,
      "fzfg": false,
      "metar_trigger": false,
      "taf_trigger": false,
      "metar": "METAR EPMO 272100Z 08004KT CAVOK 26/15 Q1018",
      "taf": "TAF EPMO 271730Z 2718/2818 VRB03KT CAVOK"
    },
    {
      "icao": "EPPO",
      "alert": "OK",
      "vis_m": 9999,
      "fzfg": false,
      "metar_trigger": false,
      "taf_trigger": false,
      "metar": "METAR EPPO 272100Z 01002KT CAVOK 24/19 Q1017",
      "taf": "TAF EPPO 271730Z 2718/2818 12004KT CAVOK"
    },
    {
      "icao": "EPRA",
      "alert": "OK",
      "vis_m": 9999,
      "fzfg": false,
      "metar_trigger": false,
      "taf_trigger": false,
      "metar": "METAR EPRA 272100Z 20006KT CAVOK 25/15 Q1019",
      "taf": "TAF EPRA 272030Z 2721/2806 20005KT CAVOK"
    },
    {
      "icao": "EPRZ",
      "alert": "OK",
      "vis_m": 9999,
      "fzfg": false,
      "metar_trigger": false,
      "taf_trigger": false,
      "metar": "METAR EPRZ 272100Z 00000KT CAVOK 24/17 Q1020",
      "taf": "TAF EPRZ 271730Z 2718/2818 18006KT CAVOK"
    },
    {
      "icao": "EPSC",
      "alert": "OK",
      "vis_m": 9999,
      "fzfg": false,
      "metar_trigger": false,
      "taf_trigger": false,
      "metar": "METAR EPSC 272100Z 11005KT CAVOK 23/17 Q1016",
      "taf": "TAF EPSC 271730Z 2718/2818 15006KT CAVOK"
    },
    {
      "icao": "EPSY",
      "alert": "OK",
      "vis_m": 9999,
      "fzfg": false,
      "metar_trigger": false,
      "taf_trigger": false,
      "metar": "METAR EPSY 272100Z 00000KT CAVOK 20/17 Q1019",
      "taf": "TAF EPSY 272030Z 2721/2806 VRB02KT CAVOK"
    },
    {
      "icao": "EPWA",
      "alert": "OK",
      "vis_m": 9999,
      "fzfg": false,
      "metar_trigger": false,
      "taf_trigger": false,
      "metar": "METAR EPWA 272100Z 13004KT CAVOK 27/15 Q1018 NOSIG",
      "taf": "TAF EPWA 272030Z 2721/2821 12004KT CAVOK"
    },
    {
      "icao": "EPWR",
      "alert": "OK",
      "vis_m": 9999,
      "fzfg": false,
      "metar_trigger": false,
      "taf_trigger": false,
      "metar": "METAR EPWR 272100Z 16003KT 150V220 CAVOK 28/20 Q1018",
      "taf": "TAF EPWR 272030Z 2721/2821 16004KT CAVOK"
    },
    {
      "icao": "ESGG",
      "alert": "OK",
      "vis_m": 9999,
      "fzfg": false,
      "metar_trigger": false,
      "taf_trigger": false,
      "metar": "METAR ESGG 272050Z 23005KT CAVOK 23/20 Q1015",
      "taf": "TAF ESGG 272030Z 2721/2821 20004KT CAVOK"
    },
    {
      "icao": "ESKN",
      "alert": "OK",
      "vis_m": 9999,
      "fzfg": false,
      "metar_trigger": false,
      "taf_trigger": false,
      "metar": "METAR ESKN 272050Z 11005KT CAVOK 20/18 Q1016",
      "taf": "TAF ESKN 272030Z 2721/2821 13005KT CAVOK"
    },
    {
      "icao": "ESMS",
      "alert": "OK",
      "vis_m": 9999,
      "fzfg": false,
      "metar_trigger": false,
      "taf_trigger": false,
      "metar": "METAR ESMS 272050Z 15003KT CAVOK 22/16 Q1016",
      "taf": "TAF ESMS 272027Z 2721/2821 17006KT CAVOK"
    },
    {
      "icao": "ESSA",
      "alert": "OK",
      "vis_m": 9999,
      "fzfg": false,
      "metar_trigger": false,
      "taf_trigger": false,
      "metar": "METAR ESSA 272050Z 15009KT CAVOK 20/12 Q1015 NOSIG",
      "taf": "TAF ESSA 272030Z 2721/2821 14008KT CAVOK"
    },
    {
      "icao": "EYKA",
      "alert": "OK",
      "vis_m": 9999,
      "fzfg": false,
      "metar_trigger": false,
      "taf_trigger": false,
      "metar": "METAR EYKA 272050Z 29002KT CAVOK 20/17 Q1018",
      "taf": "TAF EYKA 271700Z 2718/2818 VRB03KT 9000 NSC"
    },
    {
      "icao": "EYPA",
      "alert": "OK",
      "vis_m": 9999,
      "fzfg": false,
      "metar_trigger": false,
      "taf_trigger": false,
      "metar": "METAR EYPA 272050Z 11002KT CAVOK 19/17 Q1018",
      "taf": "TAF EYPA 271700Z 2718/2818 VRB03KT 9000 NSC"
    },
    {
      "icao": "EYVI",
      "alert": "OK",
      "vis_m": 9999,
      "fzfg": false,
      "metar_trigger": false,
      "taf_trigger": false,
      "metar": "METAR EYVI 272050Z 28004KT CAVOK 23/16 Q1019 NOSIG",
      "taf": "TAF EYVI 271700Z 2718/2818 VRB03KT 9000 NSC"
    },
    {
      "icao": "GCFV",
      "alert": "OK",
      "vis_m": 9999,
      "fzfg": false,
      "metar_trigger": false,
      "taf_trigger": false,
      "metar": "METAR GCFV 272100Z 03014KT 9999 FEW014 22/19 Q1019",
      "taf": "TAF GCFV 272000Z 2721/2821 02014KT 9999 SCT020 TX26/2814Z TN21/2806Z"
    },
    {
      "icao": "GCLP",
      "alert": "OK",
      "vis_m": 9999,
      "fzfg": false,
      "metar_trigger": false,
      "taf_trigger": false,
      "metar": "METAR GCLP 272100Z 36018KT 9999 FEW025 23/18 Q1020 NOSIG",
      "taf": "TAF GCLP 272000Z 2721/2821 36018KT 9999 SCT025 TX27/2814Z TN21/2806Z"
    },
    {
      "icao": "GCTS",
      "alert": "OK",
      "vis_m": 9999,
      "fzfg": false,
      "metar_trigger": false,
      "taf_trigger": false,
      "metar": "METAR GCTS 272100Z 07015KT 9999 FEW035 23/17 Q1020 NOSIG",
      "taf": "TAF GCTS 272000Z 2721/2821 06015KT 9999 SCT030 TX29/2814Z TN20/2806Z"
    },
    {
      "icao": "GMAD",
      "alert": "OK",
      "vis_m": 8000,
      "fzfg": false,
      "metar_trigger": false,
      "taf_trigger": false,
      "metar": "METAR GMAD 272100Z 20004KT 8000 NSC 22/18 Q1017 NOSIG",
      "taf": "TAF GMAD 271700Z 2718/2824 20008KT 8000 SCT020"
    },
    {
      "icao": "GMMN",
      "alert": "OK",
      "vis_m": 9999,
      "fzfg": false,
      "metar_trigger": false,
      "taf_trigger": false,
      "metar": "METAR GMMN 272100Z 36008KT 340V040 9999 SCT016 21/17 Q1021 NOSIG",
      "taf": "TAF GMMN 271700Z 2718/2824 01013KT 9999 FEW020"
    },
    {
      "icao": "GMMX",
      "alert": "OK",
      "vis_m": 9999,
      "fzfg": false,
      "metar_trigger": false,
      "taf_trigger": false,
      "metar": "METAR GMMX 272100Z 04011KT 360V070 9999 FEW033 27/17 Q1019 NOSIG",
      "taf": "TAF GMMX 271700Z 2718/2824 02006KT CAVOK"
    },
    {
      "icao": "HEGN",
      "alert": "OK",
      "vis_m": 9999,
      "fzfg": false,
      "metar_trigger": false,
      "taf_trigger": false,
      "metar": "METAR HEGN 272000Z 30008KT CAVOK 30/12 Q1008 NOSIG",
      "taf": "TAF HEGN 271700Z 2718/2824 33006G18KT CAVOK"
    },
    {
      "icao": "HEMA",
      "alert": "OK",
      "vis_m": 9999,
      "fzfg": false,
      "metar_trigger": false,
      "taf_trigger": false,
      "metar": "METAR HEMA 272000Z 00000KT CAVOK 30/08 Q1006 NOSIG",
      "taf": "TAF HEMA 271700Z 2718/2824 33008G20KT CAVOK"
    },
    {
      "icao": "HESH",
      "alert": "OK",
      "vis_m": 9999,
      "fzfg": false,
      "metar_trigger": false,
      "taf_trigger": false,
      "metar": "METAR HESH 272000Z 01005KT CAVOK 31/10 Q1006 NOSIG",
      "taf": "TAF HESH 271700Z 2718/2824 35013KT CAVOK"
    },
    {
      "icao": "HESX",
      "alert": "OK",
      "vis_m": 9999,
      "fzfg": false,
      "metar_trigger": false,
      "taf_trigger": false,
      "metar": "METAR HESX 272000Z 35006KT CAVOK 26/19 Q1010 NOSIG",
      "taf": "TAF HESX 271700Z 2718/2824 02008KT CAVOK"
    },
    {
      "icao": "LATI",
      "alert": "OK",
      "vis_m": 9999,
      "fzfg": false,
      "metar_trigger": false,
      "taf_trigger": false,
      "metar": "METAR LATI 272050Z 13004KT 080V150 CAVOK 26/15 Q1017 NOSIG",
      "taf": "TAF LATI 271700Z 2718/2818 VRB05KT CAVOK TX37/2812Z TN21/2804Z"
    },
    {
      "icao": "LBPD",
      "alert": "OK",
      "vis_m": 9999,
      "fzfg": false,
      "metar_trigger": false,
      "taf_trigger": false,
      "metar": "METAR LBPD 272100Z AUTO 11010KT 9999 NCD 22/17 Q1022",
      "taf": "TAF LBPD 271700Z 2718/2818 07012KT CAVOK"
    },
    {
      "icao": "LBSF",
      "alert": "OK",
      "vis_m": 9999,
      "fzfg": false,
      "metar_trigger": false,
      "taf_trigger": false,
      "metar": "METAR LBSF 272100Z AUTO 10007KT 9999 NCD 20/16 Q1023 NOSIG",
      "taf": "TAF LBSF 271700Z 2718/2818 05010KT CAVOK"
    },
    {
      "icao": "LBWN",
      "alert": "OK",
      "vis_m": 9999,
      "fzfg": false,
      "metar_trigger": false,
      "taf_trigger": false,
      "metar": "METAR LBWN 272100Z AUTO 03004KT 9999 NCD 19/16 Q1022 NOSIG",
      "taf": "TAF LBWN 271700Z 2718/2818 11012KT CAVOK"
    },
    {
      "icao": "LCLK",
      "alert": "OK",
      "vis_m": 9999,
      "fzfg": false,
      "metar_trigger": false,
      "taf_trigger": false,
      "metar": "METAR LCLK 272100Z 23003KT CAVOK 27/22 Q1008 NOSIG",
      "taf": "TAF LCLK 271730Z 2718/2818 35009KT 9999 FEW020"
    },
    {
      "icao": "LCPH",
      "alert": "OK",
      "vis_m": 9999,
      "fzfg": false,
      "metar_trigger": false,
      "taf_trigger": false,
      "metar": "METAR LCPH 272100Z AUTO 33005KT 9999 NCD 25/23 Q1009 NOSIG",
      "taf": "TAF LCPH 271730Z 2718/2818 35007KT 9999 FEW020"
    },
    {
      "icao": "LEAL",
      "alert": "OK",
      "vis_m": 9999,
      "fzfg": false,
      "metar_trigger": false,
      "taf_trigger": false,
      "metar": "METAR LEAL 272100Z VRB02KT CAVOK 26/22 Q1019 NOSIG",
      "taf": "TAF LEAL 271700Z 2718/2818 10008KT 9999 FEW020 TX32/2812Z TN22/2806Z"
    },
    {
      "icao": "LEBB",
      "alert": "OK",
      "vis_m": 8000,
      "fzfg": false,
      "metar_trigger": false,
      "taf_trigger": false,
      "metar": "METAR LEBB 272100Z 31004KT 240V010 8000 -RA SCT018 FEW025CB BKN039 22/21 Q1021 RESHRA TEMPO TSRA",
      "taf": ""
    },
    {
      "icao": "LEBL",
      "alert": "OK",
      "vis_m": 9999,
      "fzfg": false,
      "metar_trigger": false,
      "taf_trigger": false,
      "metar": "METAR LEBL 272100Z 14002KT CAVOK 28/23 Q1019 NOSIG",
      "taf": "TAF LEBL 271700Z 2718/2818 18010KT CAVOK TX32/2812Z TN23/2805Z"
    },
    {
      "icao": "LECH",
      "alert": "OK",
      "vis_m": 9999,
      "fzfg": false,
      "metar_trigger": false,
      "taf_trigger": false,
      "metar": "METAR LECH 272100Z AUTO VRB01KT CAVOK 23/19 Q1021",
      "taf": "TAF LECH 271700Z 2718/2818 13008KT 9999 SCT015 TX34/2812Z TN19/2806Z"
    },
    {
      "icao": "LEMD",
      "alert": "OK",
      "vis_m": 9999,
      "fzfg": false,
      "metar_trigger": false,
      "taf_trigger": false,
      "metar": "METAR LEMD 272100Z 27006KT CAVOK 31/08 Q1019 NOSIG",
      "taf": "TAF LEMD 271700Z 2718/2824 22010KT CAVOK TX32/2816Z TN20/2806Z"
    },
    {
      "icao": "LEMG",
      "alert": "OK",
      "vis_m": 9999,
      "fzfg": false,
      "metar_trigger": false,
      "taf_trigger": false,
      "metar": "METAR LEMG 272100Z 15006KT 9999 FEW010 23/21 Q1019 NOSIG",
      "taf": "TAF LEMG 271700Z 2718/2818 13010KT 9999 FEW020 TX33/2813Z TN23/2805Z"
    },
    {
      "icao": "LEVC",
      "alert": "OK",
      "vis_m": 9999,
      "fzfg": false,
      "metar_trigger": false,
      "taf_trigger": false,
      "metar": "METAR LEVC 272100Z 08004KT 050V120 CAVOK 26/21 Q1019 NOSIG",
      "taf": "TAF LEVC 271700Z 2718/2818 11009KT 9999 FEW020 TX32/2812Z TN21/2806Z"
    },
    {
      "icao": "LEXJ",
      "alert": "OK",
      "vis_m": 9999,
      "fzfg": false,
      "metar_trigger": false,
      "taf_trigger": false,
      "metar": "METAR LEXJ 272100Z 31006KT 9999 FEW015 SCT030 21/19 Q1021",
      "taf": "TAF LEXJ 272000Z 2721/2821 VRB03KT 9999 SCT020 TX23/2813Z TN19/2805Z"
    },
    {
      "icao": "LEZG",
      "alert": "OK",
      "vis_m": 9999,
      "fzfg": false,
      "metar_trigger": false,
      "taf_trigger": false,
      "metar": "METAR LEZG 272100Z 09011KT CAVOK 30/15 Q1017 NOSIG",
      "taf": "TAF LEZG 271700Z 2718/2818 11010KT CAVOK TX33/2815Z TN21/2806Z"
    },
    {
      "icao": "LEZL",
      "alert": "OK",
      "vis_m": 9999,
      "fzfg": false,
      "metar_trigger": false,
      "taf_trigger": false,
      "metar": "METAR LEZL 272100Z 21008KT 170V230 CAVOK 28/18 Q1017 NOSIG",
      "taf": "TAF LEZL 272000Z 2721/2821 25010KT CAVOK TX38/2815Z TN22/2805Z"
    },
    {
      "icao": "LFBD",
      "alert": "OK",
      "vis_m": 9999,
      "fzfg": false,
      "metar_trigger": false,
      "taf_trigger": false,
      "metar": "METAR LFBD 272100Z AUTO 30008KT 260V330 9999 ///CB 25/19 Q1019 TEMPO VRB15G25KT 2000 TSRA",
      "taf": "TAF LFBD 271700Z 2718/2824 30008KT CAVOK TX31/2813Z TN21/2823Z"
    },
    {
      "icao": "LFLL",
      "alert": "OK",
      "vis_m": 9999,
      "fzfg": false,
      "metar_trigger": false,
      "taf_trigger": false,
      "metar": "METAR LFLL 272100Z 15011KT CAVOK 31/13 Q1018 NOSIG",
      "taf": "TAF LFLL 271700Z 2718/2824 19012KT CAVOK"
    },
    {
      "icao": "LFLS",
      "alert": "OK",
      "vis_m": 9999,
      "fzfg": false,
      "metar_trigger": false,
      "taf_trigger": false,
      "metar": "METAR LFLS 272100Z AUTO VRB02KT CAVOK 28/12 Q1021",
      "taf": "TAF LFLS 271400Z 2715/2815 23012KT CAVOK"
    },
    {
      "icao": "LFMN",
      "alert": "OK",
      "vis_m": 9999,
      "fzfg": false,
      "metar_trigger": false,
      "taf_trigger": false,
      "metar": "METAR LFMN 272100Z 26003KT CAVOK 28/24 Q1019 NOSIG",
      "taf": "TAF LFMN 272000Z 2721/2903 VRB04KT CAVOK"
    },
    {
      "icao": "LFOB",
      "alert": "OK",
      "vis_m": 8000,
      "fzfg": false,
      "metar_trigger": false,
      "taf_trigger": false,
      "metar": "METAR LFOB 272100Z AUTO 15016G26KT 080V190 8000 TSRA FEW022/// SCT058/// BKN076/// ///CB 21/19 Q1018 BECMG VRB03KT NSW SCT050",
      "taf": "TAF LFOB 271700Z 2718/2818 34010KT 9999 SCT050"
    },
    {
      "icao": "LFPO",
      "alert": "OK",
      "vis_m": 9999,
      "fzfg": false,
      "metar_trigger": false,
      "taf_trigger": false,
      "metar": "METAR LFPO 272100Z AUTO 29010KT 210V020 9999 TS ///CB 25/17 Q1014 TEMPO VRB15G35KT 1500 TSGRRA BECMG NSC",
      "taf": "TAF LFPO 271700Z 2718/2824 28007KT CAVOK"
    },
    {
      "icao": "LFSB",
      "alert": "OK",
      "vis_m": 9999,
      "fzfg": false,
      "metar_trigger": false,
      "taf_trigger": false,
      "metar": "METAR LFSB 272100Z AUTO 00000KT CAVOK 31/18 Q1017 NOSIG",
      "taf": "TAF LFSB 271700Z 2718/2818 VRB03KT CAVOK"
    },
    {
      "icao": "LGAV",
      "alert": "OK",
      "vis_m": 9999,
      "fzfg": false,
      "metar_trigger": false,
      "taf_trigger": false,
      "metar": "METAR LGAV 272050Z 02014KT CAVOK 28/14 Q1016 NOSIG",
      "taf": "TAF LGAV 271700Z 2718/2818 04018KT 9999 FEW025"
    },
    {
      "icao": "LGTS",
      "alert": "OK",
      "vis_m": 9999,
      "fzfg": false,
      "metar_trigger": false,
      "taf_trigger": false,
      "metar": "METAR LGTS 272050Z VRB03KT 9999 SCT025 28/15 Q1018 NOSIG",
      "taf": "TAF LGTS 271700Z 2718/2818 VRB03KT 9999 FEW030"
    },
    {
      "icao": "LHBP",
      "alert": "OK",
      "vis_m": 9999,
      "fzfg": false,
      "metar_trigger": false,
      "taf_trigger": false,
      "metar": "METAR LHBP 272100Z 12005KT CAVOK 28/15 Q1019 NOSIG",
      "taf": "TAF LHBP 271715Z 2718/2818 16005KT CAVOK"
    },
    {
      "icao": "LHDC",
      "alert": "OK",
      "vis_m": 9999,
      "fzfg": false,
      "metar_trigger": false,
      "taf_trigger": false,
      "metar": "METAR LHDC 272045Z AUTO 08003KT CAVOK 27/15 Q1020",
      "taf": "TAF LHDC 271715Z 2718/2803 07007KT CAVOK"
    },
    {
      "icao": "LIBD",
      "alert": "OK",
      "vis_m": 9999,
      "fzfg": false,
      "metar_trigger": false,
      "taf_trigger": false,
      "metar": "METAR LIBD 272050Z 25002KT CAVOK 25/23 Q1018",
      "taf": "TAF LIBD 271700Z 2718/2818 VRB05KT CAVOK"
    },
    {
      "icao": "LIBG",
      "alert": "OK",
      "vis_m": 9999,
      "fzfg": false,
      "metar_trigger": false,
      "taf_trigger": false,
      "metar": "METAR LIBG 272050Z AUTO VRB01KT 9999 NCD 26/14 Q1018",
      "taf": "TAF LIBG 271700Z 2718/2818 VRB05KT CAVOK"
    },
    {
      "icao": "LIBP",
      "alert": "OK",
      "vis_m": 9999,
      "fzfg": false,
      "metar_trigger": false,
      "taf_trigger": false,
      "metar": "METAR LIBP 272050Z AUTO 23003KT 9999 NCD 24/17 Q1019",
      "taf": "TAF LIBP 271700Z 2718/2818 VRB05KT CAVOK"
    },
    {
      "icao": "LIBR",
      "alert": "OK",
      "vis_m": 9999,
      "fzfg": false,
      "metar_trigger": false,
      "taf_trigger": false,
      "metar": "METAR LIBR 272050Z 32006KT CAVOK 26/25 Q1017",
      "taf": "TAF LIBR 271700Z 2718/2818 32010KT CAVOK"
    },
    {
      "icao": "LICA",
      "alert": "OK",
      "vis_m": 9999,
      "fzfg": false,
      "metar_trigger": false,
      "taf_trigger": false,
      "metar": "METAR LICA 272050Z AUTO 07003KT 9999 NCD 25/23 Q1019",
      "taf": "TAF LICA 271700Z 2718/2818 VRB05KT CAVOK"
    },
    {
      "icao": "LICC",
      "alert": "OK",
      "vis_m": 9999,
      "fzfg": false,
      "metar_trigger": false,
      "taf_trigger": false,
      "metar": "METAR LICC 272050Z 12003KT CAVOK 26/20 Q1018",
      "taf": "TAF LICC 271700Z 2718/2818 07010KT CAVOK"
    },
    {
      "icao": "LICJ",
      "alert": "OK",
      "vis_m": 9999,
      "fzfg": false,
      "metar_trigger": false,
      "taf_trigger": false,
      "metar": "METAR LICJ 272050Z 05006KT CAVOK 27/24 Q1018",
      "taf": "TAF LICJ 271700Z 2718/2818 06012KT CAVOK"
    },
    {
      "icao": "LIMC",
      "alert": "OK",
      "vis_m": 9999,
      "fzfg": false,
      "metar_trigger": false,
      "taf_trigger": false,
      "metar": "METAR LIMC 272050Z 01004KT CAVOK 28/20 Q1020 NOSIG",
      "taf": "TAF LIMC 271700Z 2718/2824 VRB05KT 9999 FEW050"
    },
    {
      "icao": "LIME",
      "alert": "OK",
      "vis_m": 9999,
      "fzfg": false,
      "metar_trigger": false,
      "taf_trigger": false,
      "metar": "METAR LIME 272050Z 01004KT 9999 FEW075 30/21 Q1020 NOSIG",
      "taf": "TAF LIME 271700Z 2718/2818 VRB05KT 9999 SCT050"
    },
    {
      "icao": "LIMF",
      "alert": "OK",
      "vis_m": 9999,
      "fzfg": false,
      "metar_trigger": false,
      "taf_trigger": false,
      "metar": "METAR LIMF 272050Z 33004KT CAVOK 30/21 Q1020",
      "taf": "TAF LIMF 271700Z 2718/2818 VRB05KT 9999 SCT050"
    },
    {
      "icao": "LIMJ",
      "alert": "OK",
      "vis_m": 9999,
      "fzfg": false,
      "metar_trigger": false,
      "taf_trigger": false,
      "metar": "METAR LIMJ 272050Z 02004KT CAVOK 30/17 Q1019",
      "taf": "TAF LIMJ 271700Z 2718/2818 VRB05KT CAVOK"
    },
    {
      "icao": "LIPE",
      "alert": "OK",
      "vis_m": 9999,
      "fzfg": false,
      "metar_trigger": false,
      "taf_trigger": false,
      "metar": "METAR LIPE 272050Z 11004KT CAVOK 28/19 Q1018",
      "taf": "TAF LIPE 271700Z 2718/2818 VRB05KT 9999 FEW040"
    },
    {
      "icao": "LIPH",
      "alert": "OK",
      "vis_m": 9999,
      "fzfg": false,
      "metar_trigger": false,
      "taf_trigger": false,
      "metar": "METAR LIPH 272050Z 22001KT CAVOK 26/19 Q1019",
      "taf": "TAF LIPH 271700Z 2718/2818 VRB05KT 9999 FEW040"
    },
    {
      "icao": "LIPQ",
      "alert": "OK",
      "vis_m": 9999,
      "fzfg": false,
      "metar_trigger": false,
      "taf_trigger": false,
      "metar": "METAR LIPQ 272050Z AUTO 04003KT 9999 NCD 26/20 Q1019",
      "taf": "TAF LIPQ 271700Z 2718/2818 VRB05KT 9999 FEW040"
    },
    {
      "icao": "LIPR",
      "alert": "OK",
      "vis_m": 9999,
      "fzfg": false,
      "metar_trigger": false,
      "taf_trigger": false,
      "metar": "METAR LIPR 272050Z 19002KT CAVOK 26/19 Q1018",
      "taf": "TAF LIPR 271700Z 2718/2818 VRB05KT CAVOK"
    },
    {
      "icao": "LIPX",
      "alert": "OK",
      "vis_m": 9999,
      "fzfg": false,
      "metar_trigger": false,
      "taf_trigger": false,
      "metar": "METAR LIPX 272050Z 10003KT CAVOK 30/18 Q1019",
      "taf": "TAF LIPX 271700Z 2718/2818 VRB05KT CAVOK"
    },
    {
      "icao": "LIPY",
      "alert": "OK",
      "vis_m": 9999,
      "fzfg": false,
      "metar_trigger": false,
      "taf_trigger": false,
      "metar": "METAR LIPY 272050Z AUTO 18003KT 9999 NCD 26/19 Q1018",
      "taf": "TAF LIPY 271700Z 2718/2818 VRB05KT CAVOK"
    },
    {
      "icao": "LIPZ",
      "alert": "OK",
      "vis_m": 9999,
      "fzfg": false,
      "metar_trigger": false,
      "taf_trigger": false,
      "metar": "METAR LIPZ 272050Z VRB01KT CAVOK 26/21 Q1019 NOSIG",
      "taf": "TAF LIPZ 271700Z 2718/2824 VRB05KT CAVOK"
    },
    {
      "icao": "LIRF",
      "alert": "OK",
      "vis_m": 9999,
      "fzfg": false,
      "metar_trigger": false,
      "taf_trigger": false,
      "metar": "METAR LIRF 272050Z VRB01KT CAVOK 27/25 Q1019 NOSIG",
      "taf": "TAF LIRF 271700Z 2718/2824 27010KT CAVOK"
    },
    {
      "icao": "LIRN",
      "alert": "OK",
      "vis_m": 9999,
      "fzfg": false,
      "metar_trigger": false,
      "taf_trigger": false,
      "metar": "METAR LIRN 272050Z VRB01KT CAVOK 29/20 Q1019 NOSIG",
      "taf": "TAF LIRN 271700Z 2718/2818 VRB05KT 9999 FEW050"
    },
    {
      "icao": "LIRP",
      "alert": "OK",
      "vis_m": 9999,
      "fzfg": false,
      "metar_trigger": false,
      "taf_trigger": false,
      "metar": "METAR LIRP 272045Z 20003KT CAVOK 25/20 Q1018 NOSIG",
      "taf": "TAF LIRP 271700Z 2718/2818 32012KT CAVOK"
    },
    {
      "icao": "LIRZ",
      "alert": "OK",
      "vis_m": 9999,
      "fzfg": false,
      "metar_trigger": false,
      "taf_trigger": false,
      "metar": "METAR LIRZ 272050Z AUTO VRB02KT 9999 NCD 29/18 Q1020",
      "taf": "TAF LIRZ 271700Z 2718/2818 VRB05KT CAVOK"
    },
    {
      "icao": "LJLJ",
      "alert": "OK",
      "vis_m": 9999,
      "fzfg": false,
      "metar_trigger": false,
      "taf_trigger": false,
      "metar": "METAR LJLJ 272100Z 32007KT 320V030 CAVOK 22/18 Q1021 NOSIG",
      "taf": "TAF LJLJ 271700Z 2718/2818 VRB02KT CAVOK"
    },
    {
      "icao": "LKMT",
      "alert": "OK",
      "vis_m": 9999,
      "fzfg": false,
      "metar_trigger": false,
      "taf_trigger": false,
      "metar": "METAR LKMT 272100Z 20002KT CAVOK 25/19 Q1019 NOSIG",
      "taf": "TAF LKMT 271700Z 2718/2818 19005KT CAVOK"
    },
    {
      "icao": "LKPR",
      "alert": "OK",
      "vis_m": 9999,
      "fzfg": false,
      "metar_trigger": false,
      "taf_trigger": false,
      "metar": "METAR LKPR 272100Z 12006KT CAVOK 28/16 Q1019 NOSIG",
      "taf": "TAF LKPR 272000Z 2721/2903 14006KT CAVOK"
    },
    {
      "icao": "LLBG",
      "alert": "OK",
      "vis_m": 9999,
      "fzfg": false,
      "metar_trigger": false,
      "taf_trigger": false,
      "metar": "METAR LLBG 272050Z 22004KT 9999 FEW020 25/21 Q1010 NOSIG",
      "taf": "TAF LLBG 271702Z 2718/2818 29006KT 9999 FEW020 TX31/2810Z TN23/2803Z"
    },
    {
      "icao": "LMML",
      "alert": "OK",
      "vis_m": 9999,
      "fzfg": false,
      "metar_trigger": false,
      "taf_trigger": false,
      "metar": "METAR LMML 272045Z 35007KT 300V010 9999 FEW020 27/19 Q1018 NOSIG",
      "taf": "TAF LMML 271700Z 2718/2818 01008KT 9999 FEW020"
    },
    {
      "icao": "LOWW",
      "alert": "OK",
      "vis_m": 9999,
      "fzfg": false,
      "metar_trigger": false,
      "taf_trigger": false,
      "metar": "METAR LOWW 272050Z 15006KT CAVOK 27/15 Q1019 NOSIG",
      "taf": "TAF LOWW 272015Z 2721/2903 16007KT CAVOK TX39/2814Z TN22/2803Z"
    },
    {
      "icao": "LPFR",
      "alert": "OK",
      "vis_m": 9999,
      "fzfg": false,
      "metar_trigger": false,
      "taf_trigger": false,
      "metar": "METAR LPFR 272100Z 32012KT CAVOK 25/15 Q1018",
      "taf": "TAF LPFR 271700Z 2718/2818 26013KT CAVOK"
    },
    {
      "icao": "LPMA",
      "alert": "OK",
      "vis_m": 9999,
      "fzfg": false,
      "metar_trigger": false,
      "taf_trigger": false,
      "metar": "METAR LPMA 272100Z 03008KT 9999 SCT015 22/16 Q1023",
      "taf": "TAF LPMA 271700Z 2718/2818 01012KT 9999 SCT015"
    },
    {
      "icao": "LPPR",
      "alert": "OK",
      "vis_m": 9999,
      "fzfg": false,
      "metar_trigger": false,
      "taf_trigger": false,
      "metar": "METAR LPPR 272100Z VRB02KT 9999 FEW008 19/18 Q1021",
      "taf": "TAF LPPR 271700Z 2718/2818 28007KT 9999 SCT012"
    },
    {
      "icao": "LPPS",
      "alert": "OK",
      "vis_m": 9999,
      "fzfg": false,
      "metar_trigger": false,
      "taf_trigger": false,
      "metar": "METAR LPPS 272100Z 01010KT 9999 FEW015 21/16 Q1023",
      "taf": "TAF LPPS 271700Z 2718/2824 02010KT 9999 SCT015"
    },
    {
      "icao": "LPPT",
      "alert": "OK",
      "vis_m": 9999,
      "fzfg": false,
      "metar_trigger": false,
      "taf_trigger": false,
      "metar": "METAR LPPT 272100Z 31011KT 9999 FEW016 20/17 Q1021",
      "taf": "TAF LPPT 271700Z 2718/2824 31012KT CAVOK"
    },
    {
      "icao": "LQBK",
      "alert": "OK",
      "vis_m": 9999,
      "fzfg": false,
      "metar_trigger": false,
      "taf_trigger": false,
      "metar": "METAR LQBK 272100Z 00000KT CAVOK 22/18 Q1019 NOSIG",
      "taf": "TAF LQBK 271700Z 2718/2818 15005KT CAVOK TX36/2813Z TN20/2803Z"
    },
    {
      "icao": "LQSA",
      "alert": "OK",
      "vis_m": 9999,
      "fzfg": false,
      "metar_trigger": false,
      "taf_trigger": false,
      "metar": "METAR LQSA 272100Z VRB02KT CAVOK 23/16 Q1022 NOSIG",
      "taf": "TAF LQSA 271700Z 2718/2818 VRB02KT CAVOK TX35/2813Z TN17/2803Z"
    },
    {
      "icao": "LQTZ",
      "alert": "OK",
      "vis_m": 9999,
      "fzfg": false,
      "metar_trigger": false,
      "taf_trigger": false,
      "metar": "METAR LQTZ 272100Z 00000KT CAVOK 20/18 Q1021",
      "taf": "TAF LQTZ 271700Z 2718/2818 VRB03KT CAVOK TX36/2814Z TN17/2803Z"
    },
    {
      "icao": "LRBC",
      "alert": "OK",
      "vis_m": 9999,
      "fzfg": false,
      "metar_trigger": false,
      "taf_trigger": false,
      "metar": "METAR LRBC 272100Z 00000KT CAVOK 20/15 Q1022",
      "taf": "TAF LRBC 272000Z 2721/2806 VRB04KT CAVOK"
    },
    {
      "icao": "LRBS",
      "alert": "OK",
      "vis_m": 9999,
      "fzfg": false,
      "metar_trigger": false,
      "taf_trigger": false,
      "metar": "METAR LRBS 272100Z 07002KT CAVOK 23/16 Q1022 NOSIG",
      "taf": "TAF LRBS 271700Z 2718/2818 VRB04KT CAVOK"
    },
    {
      "icao": "LRBV",
      "alert": "OK",
      "vis_m": 9999,
      "fzfg": false,
      "metar_trigger": false,
      "taf_trigger": false,
      "metar": "METAR LRBV 272100Z 28004KT 260V350 CAVOK 20/16 Q1024",
      "taf": "TAF LRBV 271700Z 2718/2803 VRB04KT CAVOK"
    },
    {
      "icao": "LRCL",
      "alert": "OK",
      "vis_m": 9999,
      "fzfg": false,
      "metar_trigger": false,
      "taf_trigger": false,
      "metar": "METAR LRCL 272100Z 26003KT CAVOK 21/14 Q1022",
      "taf": "TAF LRCL 272000Z 2721/2806 VRB04KT CAVOK"
    },
    {
      "icao": "LRCV",
      "alert": "OK",
      "vis_m": 9999,
      "fzfg": false,
      "metar_trigger": false,
      "taf_trigger": false,
      "metar": "METAR LRCV 272100Z COR 11006KT CAVOK 22/18 Q1022",
      "taf": "TAF LRCV 272000Z 2721/2806 11006KT CAVOK"
    },
    {
      "icao": "LRIA",
      "alert": "OK",
      "vis_m": 9999,
      "fzfg": false,
      "metar_trigger": false,
      "taf_trigger": false,
      "metar": "METAR LRIA 272100Z 23004KT CAVOK 23/15 Q1022",
      "taf": "TAF LRIA 272000Z 2721/2806 VRB04KT CAVOK"
    },
    {
      "icao": "LROP",
      "alert": "OK",
      "vis_m": 9999,
      "fzfg": false,
      "metar_trigger": false,
      "taf_trigger": false,
      "metar": "METAR LROP 272100Z 09004KT CAVOK 22/16 Q1022 NOSIG",
      "taf": "TAF LROP 271700Z 2718/2818 VRB04KT CAVOK"
    },
    {
      "icao": "LRSB",
      "alert": "OK",
      "vis_m": 9999,
      "fzfg": false,
      "metar_trigger": false,
      "taf_trigger": false,
      "metar": "METAR LRSB 272100Z 00000KT CAVOK 20/17 Q1023",
      "taf": "TAF LRSB 271700Z 2718/2818 VRB04KT CAVOK"
    },
    {
      "icao": "LRSM",
      "alert": "OK",
      "vis_m": 9999,
      "fzfg": false,
      "metar_trigger": false,
      "taf_trigger": false,
      "metar": "METAR LRSM 272100Z 09003KT CAVOK 23/16 Q1020",
      "taf": "TAF LRSM 272000Z 2721/2806 VRB04KT CAVOK"
    },
    {
      "icao": "LRSV",
      "alert": "OK",
      "vis_m": 9999,
      "fzfg": false,
      "metar_trigger": false,
      "taf_trigger": false,
      "metar": "METAR LRSV 272100Z 23008KT CAVOK 21/15 Q1023",
      "taf": "TAF LRSV 272000Z 2721/2806 VRB04KT CAVOK"
    },
    {
      "icao": "LRTM",
      "alert": "OK",
      "vis_m": 9999,
      "fzfg": false,
      "metar_trigger": false,
      "taf_trigger": false,
      "metar": "METAR LRTM 272100Z 08004KT 9999 FEW010 21/18 Q1022",
      "taf": "TAF LRTM 272000Z 2721/2806 VRB04KT CAVOK"
    },
    {
      "icao": "LRTR",
      "alert": "OK",
      "vis_m": 9999,
      "fzfg": false,
      "metar_trigger": false,
      "taf_trigger": false,
      "metar": "METAR LRTR 272100Z 06004KT CAVOK 24/18 Q1020",
      "taf": "TAF LRTR 271700Z 2718/2818 VRB04KT CAVOK"
    },
    {
      "icao": "LTAC",
      "alert": "OK",
      "vis_m": 9999,
      "fzfg": false,
      "metar_trigger": false,
      "taf_trigger": false,
      "metar": "METAR LTAC 272050Z 05012KT CAVOK 18/10 Q1022 NOSIG RMK RWY21C 07008KT RWY03L 05009KT RWY21R 05008KT RWY03R 03013KT RWY21L 04009KT",
      "taf": "TAF LTAC 271640Z 2718/2818 04012KT 9999 SCT040"
    },
    {
      "icao": "LTFM",
      "alert": "OK",
      "vis_m": 9999,
      "fzfg": false,
      "metar_trigger": false,
      "taf_trigger": false,
      "metar": "METAR LTFM 272050Z 07014KT 9999 FEW016 24/17 Q1020 NOSIG RMK RWY17L 07012KT RWY34L 06012KT RWY16R 06014KT RWY36 07013KT RWY18 07015KT",
      "taf": "TAF LTFM 271640Z 2718/2824 06012KT 9999 SCT016"
    },
    {
      "icao": "LUKK",
      "alert": "OK",
      "vis_m": 9999,
      "fzfg": false,
      "metar_trigger": false,
      "taf_trigger": false,
      "metar": "METAR LUKK 272100Z 29006KT CAVOK 21/16 Q1021 NOSIG",
      "taf": ""
    },
    {
      "icao": "LWOH",
      "alert": "OK",
      "vis_m": 9999,
      "fzfg": false,
      "metar_trigger": false,
      "taf_trigger": false,
      "metar": "METAR LWOH 272020Z 28003KT 9999 SCT050 21/18 Q1022",
      "taf": "TAF LWOH 272030Z 2721/2821 33005KT CAVOK"
    },
    {
      "icao": "LWSK",
      "alert": "OK",
      "vis_m": 9999,
      "fzfg": false,
      "metar_trigger": false,
      "taf_trigger": false,
      "metar": "METAR LWSK 272050Z 08003KT 040V140 9999 FEW090 29/17 Q1020 NOSIG",
      "taf": "TAF LWSK 272030Z 2721/2821 VRB03KT 9999 FEW090"
    },
    {
      "icao": "LYBE",
      "alert": "OK",
      "vis_m": 9999,
      "fzfg": false,
      "metar_trigger": false,
      "taf_trigger": false,
      "metar": "METAR LYBE 272100Z 14004KT CAVOK 26/17 Q1020 NOSIG",
      "taf": "TAF LYBE 271700Z 2718/2818 08004KT CAVOK TX37/2813Z TN22/2803Z"
    },
    {
      "icao": "LYNI",
      "alert": "OK",
      "vis_m": 9999,
      "fzfg": false,
      "metar_trigger": false,
      "taf_trigger": false,
      "metar": "METAR LYNI 272100Z 07004KT CAVOK 27/17 Q1020 NOSIG",
      "taf": "TAF LYNI 271700Z 2718/2818 09003KT CAVOK TX37/2813Z TN20/2803Z"
    },
    {
      "icao": "LYPG",
      "alert": "OK",
      "vis_m": 9999,
      "fzfg": false,
      "metar_trigger": false,
      "taf_trigger": false,
      "metar": "METAR LYPG 272100Z VRB01KT CAVOK 29/16 Q1017 NOSIG",
      "taf": "TAF LYPG 271700Z 2718/2818 36008KT CAVOK TX38/2814Z TN24/2803Z"
    },
    {
      "icao": "LZIB",
      "alert": "OK",
      "vis_m": 9999,
      "fzfg": false,
      "metar_trigger": false,
      "taf_trigger": false,
      "metar": "METAR LZIB 272100Z VRB01KT CAVOK 29/16 Q1019 NOSIG",
      "taf": "TAF LZIB 271715Z 2718/2818 08005KT CAVOK"
    },
    {
      "icao": "LZKZ",
      "alert": "OK",
      "vis_m": 9999,
      "fzfg": false,
      "metar_trigger": false,
      "taf_trigger": false,
      "metar": "METAR LZKZ 272100Z VRB01KT CAVOK 25/16 Q1021 NOSIG",
      "taf": "TAF LZKZ 271715Z 2718/2818 08005KT CAVOK"
    },
    {
      "icao": "LZTT",
      "alert": "OK",
      "vis_m": 9999,
      "fzfg": false,
      "metar_trigger": false,
      "taf_trigger": false,
      "metar": "METAR LZTT 272100Z 29003KT CAVOK 19/17 Q1024",
      "taf": "TAF LZTT 271715Z 2718/2818 VRB02KT CAVOK"
    },
    {
      "icao": "OEJN",
      "alert": "OK",
      "vis_m": 9999,
      "fzfg": false,
      "metar_trigger": false,
      "taf_trigger": false,
      "metar": "METAR OEJN 272100Z 35005KT CAVOK 30/12 Q1005 NOSIG",
      "taf": "TAF OEJN 271700Z 2718/2824 01005KT CAVOK"
    },
    {
      "icao": "OEMA",
      "alert": "OK",
      "vis_m": 9999,
      "fzfg": false,
      "metar_trigger": false,
      "taf_trigger": false,
      "metar": "METAR OEMA 272100Z 26008KT CAVOK 36/01 Q1011 NOSIG",
      "taf": "TAF OEMA 271700Z 2718/2824 29010KT CAVOK"
    },
    {
      "icao": "OJAI",
      "alert": "OK",
      "vis_m": 5000,
      "fzfg": false,
      "metar_trigger": false,
      "taf_trigger": false,
      "metar": "METAR OJAI 272100Z 28006KT 5000 HZ NSC 21/08 Q1014 NOSIG",
      "taf": "TAF OJAI 271700Z 2718/2824 30010KT 5000 HZ NSC"
    },
    {
      "icao": "OMAA",
      "alert": "OK",
      "vis_m": 9999,
      "fzfg": false,
      "metar_trigger": false,
      "taf_trigger": false,
      "metar": "METAR OMAA 272100Z 36004KT 300V030 CAVOK 31/25 Q1000 NOSIG",
      "taf": "TAF OMAA 271700Z 2718/2900 06005KT 8000 NSC"
    },
    {
      "icao": "OMDB",
      "alert": "OK",
      "vis_m": 9999,
      "fzfg": false,
      "metar_trigger": false,
      "taf_trigger": false,
      "metar": "METAR OMDB 272100Z 33005KT 290V020 CAVOK 34/25 Q1000 NOSIG",
      "taf": "TAF OMDB 271700Z 2718/2900 04005KT 8000 NSC"
    },
    {
      "icao": "UAAA",
      "alert": "OK",
      "vis_m": 9999,
      "fzfg": false,
      "metar_trigger": false,
      "taf_trigger": false,
      "metar": "METAR UAAA 272100Z 17004MPS 140V220 9999 BKN050CB OVC100 24/12 Q1008 NOSIG",
      "taf": "TAF UAAA 271701Z 2718/2818 20003MPS 9999 SCT050CB BKN100 TX35/2809Z TN20/2801Z"
    },
    {
      "icao": "UBBB",
      "alert": "OK",
      "vis_m": 9999,
      "fzfg": false,
      "metar_trigger": false,
      "taf_trigger": false,
      "metar": "METAR UBBB 272100Z 33016KT 9999 -SHRA SCT016 SCT039CB OVC039 19/18 Q1013 NOSIG",
      "taf": "TAF UBBB 271702Z 2718/2818 33014KT 9999 SCT050CB TX25/2810Z TN19/2801Z"
    },
    {
      "icao": "UDSG",
      "alert": "OK",
      "vis_m": 9999,
      "fzfg": false,
      "metar_trigger": false,
      "taf_trigger": false,
      "metar": "METAR UDSG 272100Z 10005KT 050V130 9999 FEW049 08/04 Q1021 NOSIG",
      "taf": "TAF UDSG 271658Z 2718/2818 VRB06KT 9999 FEW050"
    },
    {
      "icao": "UDYZ",
      "alert": "OK",
      "vis_m": 9999,
      "fzfg": false,
      "metar_trigger": false,
      "taf_trigger": false,
      "metar": "METAR UDYZ 272100Z 22009KT 9999 FEW046 18/05 Q1015 NOSIG",
      "taf": "TAF UDYZ 271700Z 2718/2818 04006KT 9999 FEW040"
    },
    {
      "icao": "UGKO",
      "alert": "OK",
      "vis_m": 9999,
      "fzfg": false,
      "metar_trigger": false,
      "taf_trigger": false,
      "metar": "METAR UGKO 272100Z 11003KT 070V130 9999 SCT045 15/14 Q1017 NOSIG",
      "taf": "TAF UGKO 271700Z 2718/2818 25007KT 9999 SCT023 BKN040 TX23/2811Z TN15/2802Z"
    }
  ]
}