{
  "ts_utc": "2026-02-04T14:31:08Z",
  "threshold_m": 150,
  "source": "stations_override.txt (ICAO list) + aviationweather.gov (METAR/TAF raw)",
  "station_count": 159,
  "stations": [
    {
      "icao": "BIKF",
      "alert": "OK",
      "vis_m": 9999,
      "fzfg": false,
      "metar_trigger": false,
      "taf_trigger": false,
      "metar": "METAR BIKF 041400Z 06015KT CAVOK 03/M05 Q1009",
      "taf": "TAF BIKF 041338Z 0415/0515 07015KT 9999 FEW030 TX03/0415Z TNM01/0509Z"
    },
    {
      "icao": "BKPR",
      "alert": "OK",
      "vis_m": null,
      "fzfg": false,
      "metar_trigger": false,
      "taf_trigger": false,
      "metar": "",
      "taf": "TAF BKPR 041130Z 0412/0512 17008KT 9999 SCT030 BKN080"
    },
    {
      "icao": "EBCI",
      "alert": "OK",
      "vis_m": 9999,
      "fzfg": false,
      "metar_trigger": false,
      "taf_trigger": false,
      "metar": "METAR EBCI 041420Z 11007KT 080V140 CAVOK 10/04 Q0993 NOSIG",
      "taf": "TAF EBCI 041120Z 0412/0518 13007KT CAVOK"
    },
    {
      "icao": "EDDB",
      "alert": "OK",
      "vis_m": 9000,
      "fzfg": false,
      "metar_trigger": false,
      "taf_trigger": false,
      "metar": "METAR EDDB 041420Z AUTO 07012KT 9000 BKN012 OVC017 M04/M07 Q1006 TEMPO BKN008",
      "taf": "TAF EDDB 041100Z 0412/0512 07010KT 7000 BKN009 OVC013"
    },
    {
      "icao": "EDDH",
      "alert": "OK",
      "vis_m": 7000,
      "fzfg": false,
      "metar_trigger": false,
      "taf_trigger": false,
      "metar": "METAR EDDH 041420Z AUTO 09014KT 7000 BKN014 OVC023 M04/M07 Q1005 TEMPO -FZDZ BKN009",
      "taf": ""
    },
    {
      "icao": "EDDK",
      "alert": "OK",
      "vis_m": 9999,
      "fzfg": false,
      "metar_trigger": false,
      "taf_trigger": false,
      "metar": "METAR EDDK 041420Z AUTO 15008KT CAVOK 09/03 Q0996 NOSIG",
      "taf": "TAF EDDK 041100Z 0412/0518 11007KT CAVOK"
    },
    {
      "icao": "EDDN",
      "alert": "OK",
      "vis_m": 9999,
      "fzfg": false,
      "metar_trigger": false,
      "taf_trigger": false,
      "metar": "METAR EDDN 041420Z AUTO 07006KT 030V110 CAVOK 04/00 Q0996 NOSIG",
      "taf": "TAF EDDN 041100Z 0412/0512 10008KT CAVOK"
    },
    {
      "icao": "EDDS",
      "alert": "OK",
      "vis_m": 9999,
      "fzfg": false,
      "metar_trigger": false,
      "taf_trigger": false,
      "metar": "METAR EDDS 041420Z AUTO 09008KT CAVOK 05/01 Q0993 NOSIG",
      "taf": ""
    },
    {
      "icao": "EDFH",
      "alert": "OK",
      "vis_m": 200,
      "fzfg": false,
      "metar_trigger": false,
      "taf_trigger": false,
      "metar": "METAR EDFH 041420Z 13007KT 0200 R21/0250N FG VV/// 02/01 Q0995",
      "taf": "TAF EDFH 041100Z 0412/0512 13014KT 0300 FG OVC001"
    },
    {
      "icao": "EDJA",
      "alert": "OK",
      "vis_m": 9999,
      "fzfg": false,
      "metar_trigger": false,
      "taf_trigger": false,
      "metar": "METAR EDJA 041420Z 05007KT 9999 BKN007 01/M01 Q0993",
      "taf": "TAF EDJA 041400Z 0415/0424 06006KT 9999 BKN007"
    },
    {
      "icao": "EDLW",
      "alert": "OK",
      "vis_m": 9999,
      "fzfg": false,
      "metar_trigger": false,
      "taf_trigger": false,
      "metar": "METAR EDLW 041420Z 09008KT CAVOK 11/02 Q0997",
      "taf": "TAF EDLW 041100Z 0412/0512 07008KT CAVOK"
    },
    {
      "icao": "EDNY",
      "alert": "OK",
      "vis_m": 9999,
      "fzfg": false,
      "metar_trigger": false,
      "taf_trigger": false,
      "metar": "METAR EDNY 041420Z 01008KT CAVOK 03/00 Q0993",
      "taf": "TAF EDNY 041400Z 0415/0424 03006KT CAVOK"
    },
    {
      "icao": "EDSB",
      "alert": "OK",
      "vis_m": 9999,
      "fzfg": false,
      "metar_trigger": false,
      "taf_trigger": false,
      "metar": "METAR EDSB 041420Z 02013KT CAVOK 05/03 Q0994",
      "taf": "TAF EDSB 041100Z 0412/0512 02010KT 4000 BR BKN004"
    },
    {
      "icao": "EETN",
      "alert": "OK",
      "vis_m": 9999,
      "fzfg": false,
      "metar_trigger": false,
      "taf_trigger": false,
      "metar": "METAR EETN 041420Z 10004KT 9999 FEW008 M12/M15 Q1026 TEMPO BKN010",
      "taf": "TAF EETN 041130Z 0412/0512 11006KT 9999 BKN015"
    },
    {
      "icao": "EFTU",
      "alert": "OK",
      "vis_m": 9999,
      "fzfg": false,
      "metar_trigger": false,
      "taf_trigger": false,
      "metar": "METAR EFTU 041420Z AUTO 06004KT CAVOK M09/M12 Q1026",
      "taf": "TAF EFTU 041127Z 0412/0512 08006KT CAVOK"
    },
    {
      "icao": "EGBB",
      "alert": "OK",
      "vis_m": 9999,
      "fzfg": false,
      "metar_trigger": false,
      "taf_trigger": false,
      "metar": "METAR EGBB 041420Z 09007KT 9999 FEW018 BKN030 08/06 Q0991",
      "taf": ""
    },
    {
      "icao": "EGGP",
      "alert": "OK",
      "vis_m": 9999,
      "fzfg": false,
      "metar_trigger": false,
      "taf_trigger": false,
      "metar": "METAR EGGP 041420Z 12005KT 9999 OVC010 06/04 Q0991",
      "taf": "TAF EGGP 041100Z 0412/0512 10008KT 9999 SCT020"
    },
    {
      "icao": "EGGW",
      "alert": "OK",
      "vis_m": 9999,
      "fzfg": false,
      "metar_trigger": false,
      "taf_trigger": false,
      "metar": "METAR EGGW 041420Z AUTO 10008KT 070V130 9999 BKN015 BKN021 09/06 Q0991",
      "taf": "TAF EGGW 041057Z 0412/0512 11007KT 9999 SCT020"
    },
    {
      "icao": "EGKK",
      "alert": "OK",
      "vis_m": 9999,
      "fzfg": false,
      "metar_trigger": false,
      "taf_trigger": false,
      "metar": "METAR EGKK 041420Z 08010KT 9999 FEW020 11/06 Q0989",
      "taf": "TAF EGKK 041054Z 0412/0518 08010KT 9999 FEW015"
    },
    {
      "icao": "EGNM",
      "alert": "OK",
      "vis_m": 1400,
      "fzfg": false,
      "metar_trigger": false,
      "taf_trigger": false,
      "metar": "METAR EGNM 041420Z 09003KT 060V140 1400 R14/P1500N BR BKN002 04/04 Q0992",
      "taf": "TAF EGNM 041059Z 0412/0512 11005KT 0300 FG OVC001"
    },
    {
      "icao": "EGPD",
      "alert": "OK",
      "vis_m": 9000,
      "fzfg": false,
      "metar_trigger": false,
      "taf_trigger": false,
      "metar": "METAR EGPD 041420Z 11012KT 9000 -RA BKN009 03/02 Q0997 TEMPO RA",
      "taf": "TAF EGPD 041055Z 0412/0512 10012KT 9999 BKN012"
    },
    {
      "icao": "EGPF",
      "alert": "OK",
      "vis_m": 9999,
      "fzfg": false,
      "metar_trigger": false,
      "taf_trigger": false,
      "metar": "METAR EGPF 041420Z AUTO 08010KT 9999 -RA OVC012/// //////TCU 04/03 Q0993",
      "taf": "TAF EGPF 041056Z 0412/0512 08012KT 9999 BKN020"
    },
    {
      "icao": "EHBK",
      "alert": "OK",
      "vis_m": 9999,
      "fzfg": false,
      "metar_trigger": false,
      "taf_trigger": false,
      "metar": "METAR EHBK 041425Z AUTO 08009KT 9999 NSC 08/05 Q0995 NOSIG",
      "taf": "TAF EHBK 041114Z 0412/0518 09008KT CAVOK"
    },
    {
      "icao": "EHEH",
      "alert": "OK",
      "vis_m": null,
      "fzfg": false,
      "metar_trigger": false,
      "taf_trigger": false,
      "metar": "",
      "taf": "TAF EHEH 041155Z 0412/0518 11007KT CAVOK"
    },
    {
      "icao": "EKBI",
      "alert": "OK",
      "vis_m": 9999,
      "fzfg": false,
      "metar_trigger": false,
      "taf_trigger": false,
      "metar": "METAR EKBI 041420Z AUTO 09022G32KT 9999 OVC016/// M02/M05 Q1009",
      "taf": "TAF EKBI 041427Z 0415/0515 09020KT 9999 BKN018"
    },
    {
      "icao": "EKCH",
      "alert": "OK",
      "vis_m": 9999,
      "fzfg": false,
      "metar_trigger": false,
      "taf_trigger": false,
      "metar": "METAR EKCH 041420Z AUTO 08023G35KT 9999 OVC019/// M02/M06 Q1013 TEMPO 09020G32KT",
      "taf": "TAF EKCH 041427Z 0415/0515 09018KT 9999 BKN020"
    },
    {
      "icao": "ENAL",
      "alert": "OK",
      "vis_m": 9999,
      "fzfg": false,
      "metar_trigger": false,
      "taf_trigger": false,
      "metar": "METAR ENAL 041420Z 11007KT CAVOK 01/M13 Q1014",
      "taf": "TAF ENAL 041100Z 0412/0421 11010KT CAVOK"
    },
    {
      "icao": "ENBR",
      "alert": "OK",
      "vis_m": 9999,
      "fzfg": false,
      "metar_trigger": false,
      "taf_trigger": false,
      "metar": "METAR ENBR 041420Z 08005KT CAVOK 00/M15 Q1012 NOSIG RMK WIND 1200FT 10010KT",
      "taf": "TAF ENBR 041100Z 0412/0512 VRB03KT CAVOK"
    },
    {
      "icao": "ENGM",
      "alert": "OK",
      "vis_m": 9999,
      "fzfg": false,
      "metar_trigger": false,
      "taf_trigger": false,
      "metar": "METAR ENGM 041420Z 04008KT 9999 -SN BKN022 M07/M11 Q1022 NOSIG",
      "taf": "TAF ENGM 041100Z 0412/0512 03010KT 9999 -SN BKN020"
    },
    {
      "icao": "ENHD",
      "alert": "OK",
      "vis_m": 9999,
      "fzfg": false,
      "metar_trigger": false,
      "taf_trigger": false,
      "metar": "METAR ENHD 041420Z 10020KT CAVOK M01/M13 Q1012",
      "taf": "TAF ENHD 041100Z 0412/0421 09018KT CAVOK"
    },
    {
      "icao": "ENTC",
      "alert": "OK",
      "vis_m": 9999,
      "fzfg": false,
      "metar_trigger": false,
      "taf_trigger": false,
      "metar": "METAR ENTC 041420Z 19016KT 9999 -SHRASN FEW010 SCT016 BKN023 01/M01 Q1017 TEMPO 4500 -SHRASN BKN012 RMK WIND 2600FT 26013KT",
      "taf": "TAF ENTC 041100Z 0412/0512 19012KT 9999 SCT020TCU BKN025"
    },
    {
      "icao": "ENTO",
      "alert": "OK",
      "vis_m": 9999,
      "fzfg": false,
      "metar_trigger": false,
      "taf_trigger": false,
      "metar": "METAR ENTO 041420Z 03009KT 9999 BKN026 M04/M09 Q1020 NOSIG",
      "taf": "TAF ENTO 041100Z 0412/0512 03012KT 9999 SCT012 BKN020"
    },
    {
      "icao": "ENVA",
      "alert": "OK",
      "vis_m": 9999,
      "fzfg": false,
      "metar_trigger": false,
      "taf_trigger": false,
      "metar": "METAR ENVA 041420Z 11010KT CAVOK M04/M16 Q1020 NOSIG RMK WIND 670FT 13015KT",
      "taf": "TAF ENVA 041100Z 0412/0512 11012KT CAVOK"
    },
    {
      "icao": "ENZV",
      "alert": "OK",
      "vis_m": 9999,
      "fzfg": false,
      "metar_trigger": false,
      "taf_trigger": false,
      "metar": "METAR ENZV 041420Z 09017KT CAVOK M01/M11 Q1012 TEMPO 10018G28KT",
      "taf": "TAF ENZV 041100Z 0412/0512 09018KT CAVOK"
    },
    {
      "icao": "EPGD",
      "alert": "OK",
      "vis_m": 9999,
      "fzfg": false,
      "metar_trigger": false,
      "taf_trigger": false,
      "metar": "METAR EPGD 041400Z 08011KT 9999 BKN020 M08/M12 Q1013",
      "taf": ""
    },
    {
      "icao": "EPKK",
      "alert": "OK",
      "vis_m": 8000,
      "fzfg": false,
      "metar_trigger": false,
      "taf_trigger": false,
      "metar": "METAR EPKK 041400Z 07010KT 8000 NSC M02/M04 Q1007",
      "taf": "TAF EPKK 041430Z 0415/0515 06010KT 8000 NSC"
    },
    {
      "icao": "EPKT",
      "alert": "OK",
      "vis_m": 9000,
      "fzfg": false,
      "metar_trigger": false,
      "taf_trigger": false,
      "metar": "METAR EPKT 041400Z 05006KT 9000 NSC 01/M03 Q1006",
      "taf": "TAF EPKT 041130Z 0412/0512 08005KT 7000 BKN017"
    },
    {
      "icao": "EPLB",
      "alert": "OK",
      "vis_m": 7000,
      "fzfg": false,
      "metar_trigger": false,
      "taf_trigger": false,
      "metar": "METAR EPLB 041400Z 10010KT 7000 -FZDZ OVC007 M06/M07 Q1011",
      "taf": ""
    },
    {
      "icao": "EPMO",
      "alert": "OK",
      "vis_m": 9000,
      "fzfg": false,
      "metar_trigger": false,
      "taf_trigger": false,
      "metar": "METAR EPMO 041400Z 08012KT 9000 OVC014 M08/M10 Q1012",
      "taf": "TAF EPMO 041130Z 0412/0512 09010KT 8000 BKN012"
    },
    {
      "icao": "EPPO",
      "alert": "OK",
      "vis_m": 9000,
      "fzfg": false,
      "metar_trigger": false,
      "taf_trigger": false,
      "metar": "METAR EPPO 041400Z 07009KT 9000 OVC011 M07/M10 Q1009",
      "taf": ""
    },
    {
      "icao": "EPRA",
      "alert": "OK",
      "vis_m": 8000,
      "fzfg": false,
      "metar_trigger": false,
      "taf_trigger": false,
      "metar": "METAR EPRA 041400Z 07009KT 8000 OVC007 M07/M08 Q1010",
      "taf": "TAF EPRA 041430Z 0415/0424 09010KT 8000 OVC008"
    },
    {
      "icao": "EPRZ",
      "alert": "OK",
      "vis_m": 9999,
      "fzfg": false,
      "metar_trigger": false,
      "taf_trigger": false,
      "metar": "METAR EPRZ 041400Z 08013KT 9999 OVC016 M03/M05 Q1009",
      "taf": ""
    },
    {
      "icao": "EPSC",
      "alert": "OK",
      "vis_m": 9999,
      "fzfg": false,
      "metar_trigger": false,
      "taf_trigger": false,
      "metar": "METAR EPSC 041400Z 07007KT 9999 OVC018 M05/M10 Q1009",
      "taf": "TAF EPSC 041130Z 0412/0512 09007KT 9999 BKN024"
    },
    {
      "icao": "EPSY",
      "alert": "OK",
      "vis_m": 9999,
      "fzfg": false,
      "metar_trigger": false,
      "taf_trigger": false,
      "metar": "METAR EPSY 041400Z 08007KT 030V120 9999 BKN022 M09/M12 Q1013",
      "taf": "TAF EPSY 041430Z 0415/0424 08010KT 8000 OVC032"
    },
    {
      "icao": "EPWA",
      "alert": "OK",
      "vis_m": 9999,
      "fzfg": false,
      "metar_trigger": false,
      "taf_trigger": false,
      "metar": "METAR EPWA 041400Z 10011KT 9999 FEW013 BKN029 M07/M10 Q1011 BECMG BKN013",
      "taf": "TAF EPWA 041430Z 0415/0515 09010KT 8000 BKN012"
    },
    {
      "icao": "EPWR",
      "alert": "OK",
      "vis_m": 5000,
      "fzfg": false,
      "metar_trigger": false,
      "taf_trigger": false,
      "metar": "METAR EPWR 041400Z 07005KT 5000 BR BKN009 OVC021 M01/M03 Q1006",
      "taf": "TAF EPWR 041430Z 0415/0515 07005KT 5000 BR OVC022"
    },
    {
      "icao": "ESGG",
      "alert": "OK",
      "vis_m": 9999,
      "fzfg": false,
      "metar_trigger": false,
      "taf_trigger": false,
      "metar": "METAR ESGG 041420Z 09009KT 9999 FEW025 M04/M11 Q1016",
      "taf": "TAF ESGG 041130Z 0412/0512 09015G25KT 9999 FEW030"
    },
    {
      "icao": "ESKN",
      "alert": "OK",
      "vis_m": 8000,
      "fzfg": false,
      "metar_trigger": false,
      "taf_trigger": false,
      "metar": "METAR ESKN 041420Z 06010KT 8000 -SN BKN018 M05/M08 Q1023",
      "taf": "TAF ESKN 041130Z 0412/0512 10013KT 9000 -SN BKN025"
    },
    {
      "icao": "ESMS",
      "alert": "OK",
      "vis_m": 9999,
      "fzfg": false,
      "metar_trigger": false,
      "taf_trigger": false,
      "metar": "METAR ESMS 041420Z 08021KT 9999 BKN018 M03/M07 Q1012",
      "taf": "TAF ESMS 041127Z 0412/0512 09020KT 9999 BKN017"
    },
    {
      "icao": "ESSA",
      "alert": "OK",
      "vis_m": 9999,
      "fzfg": false,
      "metar_trigger": false,
      "taf_trigger": false,
      "metar": "METAR ESSA 041420Z 08008KT 9999 BKN026 M05/M11 Q1025 NOSIG",
      "taf": "TAF ESSA 041130Z 0412/0512 08009KT 9999 BKN020"
    },
    {
      "icao": "EYKA",
      "alert": "OK",
      "vis_m": 9999,
      "fzfg": false,
      "metar_trigger": false,
      "taf_trigger": false,
      "metar": "METAR EYKA 041420Z 08011KT CAVOK M11/M15 Q1020",
      "taf": "TAF EYKA 041100Z 0412/0512 09009KT 9000 NSC"
    },
    {
      "icao": "EYPA",
      "alert": "OK",
      "vis_m": 9999,
      "fzfg": false,
      "metar_trigger": false,
      "taf_trigger": false,
      "metar": "METAR EYPA 041420Z 08011KT CAVOK M09/M16 Q1020",
      "taf": "TAF EYPA 041100Z 0412/0512 09012KT 9000 NSC"
    },
    {
      "icao": "EYVI",
      "alert": "OK",
      "vis_m": 9999,
      "fzfg": false,
      "metar_trigger": false,
      "taf_trigger": false,
      "metar": "METAR EYVI 041420Z 10009KT CAVOK M12/M15 Q1020 NOSIG",
      "taf": "TAF EYVI 041100Z 0412/0512 10010KT 9000 NSC"
    },
    {
      "icao": "GCFV",
      "alert": "OK",
      "vis_m": 9999,
      "fzfg": false,
      "metar_trigger": false,
      "taf_trigger": false,
      "metar": "METAR GCFV 041400Z 12007KT 080V150 9999 FEW025 21/15 Q1017",
      "taf": "TAF GCFV 041400Z 0415/0515 27005KT 9999 FEW025 TX22/0514Z TN14/0506Z"
    },
    {
      "icao": "GCLP",
      "alert": "OK",
      "vis_m": 9999,
      "fzfg": false,
      "metar_trigger": false,
      "taf_trigger": false,
      "metar": "METAR GCLP 041400Z 16010KT 9999 FEW025 22/16 Q1017 NOSIG",
      "taf": "TAF GCLP 041400Z 0415/0515 09010KT CAVOK TX22/0514Z TN15/0506Z"
    },
    {
      "icao": "GCTS",
      "alert": "OK",
      "vis_m": 9999,
      "fzfg": false,
      "metar_trigger": false,
      "taf_trigger": false,
      "metar": "METAR GCTS 041400Z 24014KT 9999 FEW030 21/15 Q1017 NOSIG",
      "taf": "TAF GCTS 041400Z 0415/0515 33015KT 9999 FEW030 TX25/0514Z TN16/0506Z"
    },
    {
      "icao": "GMAD",
      "alert": "OK",
      "vis_m": 6000,
      "fzfg": false,
      "metar_trigger": false,
      "taf_trigger": false,
      "metar": "METAR GMAD 041400Z 00000KT 6000 SCT010 BKN020 17/15 Q1016 NOSIG",
      "taf": "TAF GMAD 041100Z 0412/0518 26006KT 6000 SCT008 BKN013"
    },
    {
      "icao": "GMMN",
      "alert": "OK",
      "vis_m": 9999,
      "fzfg": false,
      "metar_trigger": false,
      "taf_trigger": false,
      "metar": "METAR GMMN 041400Z 23019KT 200V290 9999 BKN016 19/15 Q1013 TEMPO 23020G32KT",
      "taf": "TAF GMMN 041100Z 0412/0518 23017KT 9999 BKN016 SCT080"
    },
    {
      "icao": "GMMX",
      "alert": "OK",
      "vis_m": 9999,
      "fzfg": false,
      "metar_trigger": false,
      "taf_trigger": false,
      "metar": "METAR GMMX 041400Z 28005KT 240V340 9999 FEW023 BKN200 21/14 Q1015 NOSIG",
      "taf": "TAF GMMX 041100Z 0412/0518 24006KT 8000 NSC"
    },
    {
      "icao": "HEGN",
      "alert": "OK",
      "vis_m": 9999,
      "fzfg": false,
      "metar_trigger": false,
      "taf_trigger": false,
      "metar": "METAR HEGN 041400Z 34010KT CAVOK 21/08 Q1015 NOSIG",
      "taf": "TAF HEGN 041100Z 0412/0518 36016KT CAVOK"
    },
    {
      "icao": "HEMA",
      "alert": "OK",
      "vis_m": 9999,
      "fzfg": false,
      "metar_trigger": false,
      "taf_trigger": false,
      "metar": "METAR HEMA 041400Z 36014KT CAVOK 21/10 Q1016 NOSIG",
      "taf": "TAF HEMA 041100Z 0412/0518 35018KT CAVOK"
    },
    {
      "icao": "HESH",
      "alert": "OK",
      "vis_m": 9999,
      "fzfg": false,
      "metar_trigger": false,
      "taf_trigger": false,
      "metar": "METAR HESH 041400Z 02008KT CAVOK 22/08 Q1016 NOSIG",
      "taf": "TAF HESH 041100Z 0412/0518 02015KT CAVOK"
    },
    {
      "icao": "HESX",
      "alert": "OK",
      "vis_m": 9999,
      "fzfg": false,
      "metar_trigger": false,
      "taf_trigger": false,
      "metar": "METAR HESX 041400Z 06006KT CAVOK 18/08 Q1019 NOSIG",
      "taf": "TAF HESX 041100Z 0412/0518 06010KT CAVOK"
    },
    {
      "icao": "LATI",
      "alert": "OK",
      "vis_m": 9999,
      "fzfg": false,
      "metar_trigger": false,
      "taf_trigger": false,
      "metar": "METAR LATI 041420Z 16006KT 9999 BKN140 18/02 Q1001 NOSIG",
      "taf": "TAF LATI 041100Z 0412/0512 16014KT 9999 FEW050 BKN100 TX18/0412Z TN09/0505Z"
    },
    {
      "icao": "LBPD",
      "alert": "OK",
      "vis_m": 7000,
      "fzfg": false,
      "metar_trigger": false,
      "taf_trigger": false,
      "metar": "METAR LBPD 041400Z AUTO 31003KT 7000 OVC009/// 00/00 Q1015 NOSIG",
      "taf": "TAF LBPD 041100Z 0412/0512 VRB03KT 7000 OVC009"
    },
    {
      "icao": "LBSF",
      "alert": "OK",
      "vis_m": 9999,
      "fzfg": false,
      "metar_trigger": false,
      "taf_trigger": false,
      "metar": "METAR LBSF 041400Z 10011KT CAVOK 04/01 Q1010 NOSIG",
      "taf": "TAF LBSF 041100Z 0412/0512 10012KT 9999 SCT050 BKN070"
    },
    {
      "icao": "LBWN",
      "alert": "OK",
      "vis_m": 9999,
      "fzfg": false,
      "metar_trigger": false,
      "taf_trigger": false,
      "metar": "METAR LBWN 041400Z 13009KT 9999 SCT012 OVC033 07/06 Q1016 NOSIG",
      "taf": "TAF LBWN 041100Z 0412/0512 12010KT 9999 SCT012 BKN020"
    },
    {
      "icao": "LCLK",
      "alert": "OK",
      "vis_m": 9999,
      "fzfg": false,
      "metar_trigger": false,
      "taf_trigger": false,
      "metar": "METAR LCLK 041400Z 19007KT 9999 FEW025 19/09 Q1018 NOSIG",
      "taf": "TAF LCLK 041130Z 0412/0512 18010KT CAVOK"
    },
    {
      "icao": "LCPH",
      "alert": "OK",
      "vis_m": 9999,
      "fzfg": false,
      "metar_trigger": false,
      "taf_trigger": false,
      "metar": "METAR LCPH 041400Z AUTO 30005KT 250V320 9999 NCD 18/08 Q1018 NOSIG",
      "taf": "TAF LCPH 041130Z 0412/0512 31010KT CAVOK"
    },
    {
      "icao": "LEAL",
      "alert": "OK",
      "vis_m": 9999,
      "fzfg": false,
      "metar_trigger": false,
      "taf_trigger": false,
      "metar": "METAR LEAL 041400Z 25017KT 9999 FEW030 SCT045 16/09 Q0996 NOSIG",
      "taf": "TAF LEAL 041100Z 0412/0512 25009KT 9999 FEW030 TX17/0412Z TN10/0506Z"
    },
    {
      "icao": "LEBB",
      "alert": "OK",
      "vis_m": 9999,
      "fzfg": false,
      "metar_trigger": false,
      "taf_trigger": false,
      "metar": "METAR LEBB 041400Z 21011KT 150V260 9999 FEW045 17/06 Q0987 NOSIG",
      "taf": "TAF LEBB 041100Z 0412/0512 20009KT 9999 SCT050 TX16/0512Z TN11/0506Z"
    },
    {
      "icao": "LEBL",
      "alert": "OK",
      "vis_m": 9999,
      "fzfg": false,
      "metar_trigger": false,
      "taf_trigger": false,
      "metar": "METAR LEBL 041400Z 23013KT 9999 FEW020 BKN045 13/08 Q0991 NOSIG",
      "taf": "TAF LEBL 041100Z 0412/0512 24012KT 9999 FEW030 TX14/0414Z TN09/0506Z"
    },
    {
      "icao": "LECH",
      "alert": "OK",
      "vis_m": 9999,
      "fzfg": false,
      "metar_trigger": false,
      "taf_trigger": false,
      "metar": "METAR LECH 041400Z AUTO 23011KT CAVOK 17/04 Q0991",
      "taf": ""
    },
    {
      "icao": "LEMD",
      "alert": "OK",
      "vis_m": 9999,
      "fzfg": false,
      "metar_trigger": false,
      "taf_trigger": false,
      "metar": "METAR LEMD 041400Z 24019KT 9999 FEW018 SCT070 10/07 Q0994 NOSIG",
      "taf": "TAF LEMD 041100Z 0412/0518 22010KT 9999 SCT020 TX12/0415Z TN08/0412Z"
    },
    {
      "icao": "LEMG",
      "alert": "OK",
      "vis_m": 8000,
      "fzfg": false,
      "metar_trigger": false,
      "taf_trigger": false,
      "metar": "METAR LEMG 041400Z VRB01KT 8000 -DZ FEW030 BKN050 16/15 Q1001 NOSIG",
      "taf": "TAF LEMG 041100Z 0412/0512 29008KT 9999 SCT030 TX16/0414Z TN13/0507Z"
    },
    {
      "icao": "LEVC",
      "alert": "OK",
      "vis_m": 9999,
      "fzfg": false,
      "metar_trigger": false,
      "taf_trigger": false,
      "metar": "METAR LEVC 041400Z 26023KT 9999 FEW040 17/08 Q0994 NOSIG",
      "taf": "TAF LEVC 041100Z 0412/0512 27009KT 9999 FEW030 TX19/0412Z TN13/0506Z"
    },
    {
      "icao": "LEXJ",
      "alert": "OK",
      "vis_m": 6000,
      "fzfg": false,
      "metar_trigger": false,
      "taf_trigger": false,
      "metar": "SPECI LEXJ 041418Z 30014KT 280V340 6000 -RA FEW020 SCT045 BKN050 12/10 Q0988",
      "taf": "TAF LEXJ 041400Z 0415/0515 20009KT 9999 FEW060 TX19/0514Z TN12/0424Z"
    },
    {
      "icao": "LEZG",
      "alert": "OK",
      "vis_m": 9999,
      "fzfg": false,
      "metar_trigger": false,
      "taf_trigger": false,
      "metar": "METAR LEZG 041400Z 35002KT 9999 SCT060 13/07 Q0991 NOSIG",
      "taf": "TAF LEZG 041100Z 0412/0512 25009KT 9999 FEW030 TX13/0414Z TN08/0506Z"
    },
    {
      "icao": "LEZL",
      "alert": "OK",
      "vis_m": 9000,
      "fzfg": false,
      "metar_trigger": false,
      "taf_trigger": false,
      "metar": "METAR LEZL 041400Z 24023KT 210V280 9000 OVC010 18/16 Q1000 NOSIG",
      "taf": "TAF LEZL 041400Z 0415/0515 24020KT 9999 BKN020 TX18/0415Z TN13/0507Z"
    },
    {
      "icao": "LFBD",
      "alert": "OK",
      "vis_m": 9999,
      "fzfg": false,
      "metar_trigger": false,
      "taf_trigger": false,
      "metar": "METAR LFBD 041400Z AUTO 18010KT 9999 -RA FEW021/// SCT034/// BKN040/// ///TCU 09/08 Q0986 TEMPO 22015G25KT 2000 TSRA BKN010 BKN020CB BKN025TCU",
      "taf": "TAF LFBD 041100Z 0412/0518 16010KT CAVOK TX13/0513Z TN07/0505Z"
    },
    {
      "icao": "LFLL",
      "alert": "OK",
      "vis_m": 9999,
      "fzfg": false,
      "metar_trigger": false,
      "taf_trigger": false,
      "metar": "METAR LFLL 041400Z 12005KT 090V150 CAVOK 13/03 Q0990 NOSIG",
      "taf": "TAF LFLL 041100Z 0412/0518 14008KT CAVOK"
    },
    {
      "icao": "LFLS",
      "alert": "OK",
      "vis_m": 9999,
      "fzfg": false,
      "metar_trigger": false,
      "taf_trigger": false,
      "metar": "METAR LFLS 041400Z AUTO 19010KT 140V210 CAVOK 14/M00 Q0990 NOSIG",
      "taf": "TAF LFLS 041400Z 0415/0515 VRB03KT CAVOK"
    },
    {
      "icao": "LFMN",
      "alert": "OK",
      "vis_m": 9999,
      "fzfg": false,
      "metar_trigger": false,
      "taf_trigger": false,
      "metar": "METAR LFMN 041400Z 22005KT 190V250 9999 FEW033TCU SCT083 13/06 Q0993 NOSIG",
      "taf": "TAF LFMN 041400Z 0415/0521 21008KT 9999 FEW033 SCT080"
    },
    {
      "icao": "LFOB",
      "alert": "OK",
      "vis_m": 9999,
      "fzfg": false,
      "metar_trigger": false,
      "taf_trigger": false,
      "metar": "METAR LFOB 041400Z AUTO 12016KT 9999 FEW032 BKN060 BKN210 11/06 Q0989 TEMPO 11012G22KT",
      "taf": "TAF LFOB 041100Z 0412/0512 10010KT CAVOK"
    },
    {
      "icao": "LFPO",
      "alert": "OK",
      "vis_m": 9999,
      "fzfg": false,
      "metar_trigger": false,
      "taf_trigger": false,
      "metar": "METAR LFPO 041400Z 14011KT 9999 SCT033 BKN260 12/05 Q0989 NOSIG",
      "taf": "TAF LFPO 041100Z 0412/0518 12007KT CAVOK"
    },
    {
      "icao": "LFSB",
      "alert": "OK",
      "vis_m": 5000,
      "fzfg": false,
      "metar_trigger": false,
      "taf_trigger": false,
      "metar": "METAR LFSB 041400Z AUTO 32007KT 5000 2200 BR OVC002 03/02 Q0993 TEMPO 0350 FG VV///",
      "taf": "TAF LFSB 041130Z 0412/0512 32004KT 5000 BR BKN003"
    },
    {
      "icao": "LGAV",
      "alert": "OK",
      "vis_m": 9999,
      "fzfg": false,
      "metar_trigger": false,
      "taf_trigger": false,
      "metar": "METAR LGAV 041420Z 17010KT 9999 FEW025 16/10 Q1013 NOSIG",
      "taf": "TAF LGAV 041100Z 0412/0512 19015KT 9999 FEW020"
    },
    {
      "icao": "LGTS",
      "alert": "OK",
      "vis_m": 9999,
      "fzfg": false,
      "metar_trigger": false,
      "taf_trigger": false,
      "metar": "METAR LGTS 041420Z VRB03KT 9999 FEW018 BKN025 13/11 Q1011 NOSIG",
      "taf": "TAF LGTS 041100Z 0412/0512 14008KT 9999 FEW010 BKN030"
    },
    {
      "icao": "LHBP",
      "alert": "OK",
      "vis_m": 7000,
      "fzfg": false,
      "metar_trigger": false,
      "taf_trigger": false,
      "metar": "METAR LHBP 041400Z 07008KT 7000 BKN004 OVC020 03/03 Q1005 TEMPO SCT005 BKN012 OVC023",
      "taf": "TAF LHBP 041115Z 0412/0512 08009KT 9999 SCT008 BKN060"
    },
    {
      "icao": "LHDC",
      "alert": "OK",
      "vis_m": 8000,
      "fzfg": false,
      "metar_trigger": false,
      "taf_trigger": false,
      "metar": "METAR LHDC 041345Z AUTO 07009KT 8000 -SHRA FEW004 BKN041 06/06 Q1007 NOSIG",
      "taf": "TAF LHDC 041415Z 0415/0424 07009KT 7000 -RA FEW004 OVC040"
    },
    {
      "icao": "LIBD",
      "alert": "OK",
      "vis_m": 6000,
      "fzfg": false,
      "metar_trigger": false,
      "taf_trigger": false,
      "metar": "METAR LIBD 041420Z 14015KT 6000 -RA SCT010 BKN020 15/13 Q0994",
      "taf": "TAF LIBD 041100Z 0412/0512 18012KT 8000 BKN030"
    },
    {
      "icao": "LIBG",
      "alert": "OK",
      "vis_m": 1500,
      "fzfg": false,
      "metar_trigger": false,
      "taf_trigger": false,
      "metar": "SPECI LIBG 041400Z 16017KT 1500 +RA SCT010 SCT020 14/13 Q0996",
      "taf": "TAF LIBG 041400Z 0415/0424 17020G40KT 9999 SCT010 BKN020"
    },
    {
      "icao": "LIBP",
      "alert": "OK",
      "vis_m": 9999,
      "fzfg": false,
      "metar_trigger": false,
      "taf_trigger": false,
      "metar": "METAR LIBP 041420Z AUTO 05003KT 020V090 9999 -RA SCT012/// BKN067/// 12/11 Q0992",
      "taf": "TAF LIBP 041100Z 0412/0512 VRB05KT 9999 BKN020 OVC080"
    },
    {
      "icao": "LIBR",
      "alert": "OK",
      "vis_m": 8000,
      "fzfg": false,
      "metar_trigger": false,
      "taf_trigger": false,
      "metar": "METAR LIBR 041420Z 15021G32KT 8000 -RA BKN025 14/12 Q0996",
      "taf": "TAF LIBR 041100Z 0412/0512 16020G30KT 8000 BKN030"
    },
    {
      "icao": "LICA",
      "alert": "OK",
      "vis_m": 1500,
      "fzfg": false,
      "metar_trigger": false,
      "taf_trigger": false,
      "metar": "METAR LICA 041420Z AUTO 02007KT 310V080 1500 TSRA BR FEW021/// BKN052/// 14/11 Q0996",
      "taf": "TAF LICA 041100Z 0412/0512 07015G25KT 9999 SCT030"
    },
    {
      "icao": "LICC",
      "alert": "OK",
      "vis_m": 9999,
      "fzfg": false,
      "metar_trigger": false,
      "taf_trigger": false,
      "metar": "METAR LICC 041420Z 24022KT 9999 FEW025 17/14 Q0996",
      "taf": "TAF LICC 041100Z 0412/0512 24015G25KT 9999 SCT020 BKN030"
    },
    {
      "icao": "LICJ",
      "alert": "OK",
      "vis_m": 9999,
      "fzfg": false,
      "metar_trigger": false,
      "taf_trigger": false,
      "metar": "METAR LICJ 041420Z 23017KT 9999 SCT030 15/09 Q0997",
      "taf": "TAF LICJ 041100Z 0412/0512 24018KT 9999 SCT030"
    },
    {
      "icao": "LIMC",
      "alert": "OK",
      "vis_m": 6000,
      "fzfg": false,
      "metar_trigger": false,
      "taf_trigger": false,
      "metar": "METAR LIMC 041420Z 36006KT 6000 -RA BKN020 06/05 Q0995 NOSIG",
      "taf": "TAF LIMC 041100Z 0412/0518 VRB05KT 6000 RA BKN006"
    },
    {
      "icao": "LIME",
      "alert": "OK",
      "vis_m": 6000,
      "fzfg": false,
      "metar_trigger": false,
      "taf_trigger": false,
      "metar": "METAR LIME 041420Z 30007KT 6000 -RA FEW007 BKN030 06/06 Q0995 NOSIG",
      "taf": "TAF LIME 041100Z 0412/0512 VRB05KT 2000 RA BKN006"
    },
    {
      "icao": "LIMF",
      "alert": "OK",
      "vis_m": 8000,
      "fzfg": false,
      "metar_trigger": false,
      "taf_trigger": false,
      "metar": "METAR LIMF 041420Z 02006KT 8000 BKN010 BKN025 06/04 Q0996",
      "taf": "TAF LIMF 041100Z 0412/0512 VRB05KT 4000 RA BKN030"
    },
    {
      "icao": "LIMJ",
      "alert": "OK",
      "vis_m": 9999,
      "fzfg": false,
      "metar_trigger": false,
      "taf_trigger": false,
      "metar": "METAR LIMJ 041420Z 04012KT 9999 RA SCT039 OVC060 06/04 Q0993",
      "taf": "TAF LIMJ 041100Z 0412/0512 02015KT 7000 RA BKN030"
    },
    {
      "icao": "LIPE",
      "alert": "OK",
      "vis_m": 4000,
      "fzfg": false,
      "metar_trigger": false,
      "taf_trigger": false,
      "metar": "METAR LIPE 041420Z 26006KT 4000 -RA BR SCT004 BKN015 05/05 Q0995",
      "taf": "TAF LIPE 041100Z 0412/0512 27008KT 6000 SCT005 BKN020"
    },
    {
      "icao": "LIPH",
      "alert": "OK",
      "vis_m": 8000,
      "fzfg": false,
      "metar_trigger": false,
      "taf_trigger": false,
      "metar": "METAR LIPH 041420Z 03009KT 8000 RA SCT030 BKN050 08/08 Q0995",
      "taf": "TAF LIPH 041100Z 0412/0512 04010KT 6000 BKN020"
    },
    {
      "icao": "LIPQ",
      "alert": "OK",
      "vis_m": 9999,
      "fzfg": false,
      "metar_trigger": false,
      "taf_trigger": false,
      "metar": "METAR LIPQ 041420Z AUTO 01009KT 9999 +RA OVC026/// 08/07 Q0996",
      "taf": "TAF LIPQ 041100Z 0412/0512 03008KT 8000 BKN020"
    },
    {
      "icao": "LIPR",
      "alert": "OK",
      "vis_m": 4000,
      "fzfg": false,
      "metar_trigger": false,
      "taf_trigger": false,
      "metar": "METAR LIPR 041420Z 31006KT 4000 -RA BR SCT003 SCT025 BKN035 06/06 Q0994",
      "taf": "TAF LIPR 041100Z 0412/0512 VRB05KT 6000 SCT005 BKN020"
    },
    {
      "icao": "LIPX",
      "alert": "OK",
      "vis_m": 8000,
      "fzfg": false,
      "metar_trigger": false,
      "taf_trigger": false,
      "metar": "METAR LIPX 041420Z 07006KT 8000 -RA SCT015 BKN025 09/07 Q0994",
      "taf": "TAF LIPX 041100Z 0412/0512 VRB05KT 6000 RA BKN010"
    },
    {
      "icao": "LIPY",
      "alert": "OK",
      "vis_m": 9999,
      "fzfg": false,
      "metar_trigger": false,
      "taf_trigger": false,
      "metar": "METAR LIPY 041420Z AUTO 35004KT 9999 OVC004/// 08/08 Q0994",
      "taf": "TAF LIPY 041100Z 0412/0512 VRB05KT 6000 SCT004 OVC040"
    },
    {
      "icao": "LIPZ",
      "alert": "OK",
      "vis_m": 9999,
      "fzfg": false,
      "metar_trigger": false,
      "taf_trigger": false,
      "metar": "METAR LIPZ 041420Z 04016KT 9999 -RA SCT010 BKN050 08/07 Q0995 NOSIG",
      "taf": "TAF LIPZ 041100Z 0412/0518 04010KT 6000 SCT005 BKN020"
    },
    {
      "icao": "LIRF",
      "alert": "OK",
      "vis_m": 9000,
      "fzfg": false,
      "metar_trigger": false,
      "taf_trigger": false,
      "metar": "METAR LIRF 041420Z VRB02KT 9000 4000N -RA SCT008TCU BKN015 12/11 Q0991 RERA NOSIG",
      "taf": "TAF LIRF 041100Z 0412/0518 13008KT 9999 SCT030"
    },
    {
      "icao": "LIRN",
      "alert": "OK",
      "vis_m": 8000,
      "fzfg": false,
      "metar_trigger": false,
      "taf_trigger": false,
      "metar": "METAR LIRN 041420Z VRB03KT 8000 -RA FEW015 BKN055 11/10 Q0993 NOSIG",
      "taf": "TAF LIRN 041100Z 0412/0512 17015KT 9999 SCT030"
    },
    {
      "icao": "LIRP",
      "alert": "OK",
      "vis_m": 8000,
      "fzfg": false,
      "metar_trigger": false,
      "taf_trigger": false,
      "metar": "METAR LIRP 041415Z 09011KT 8000 -RA SCT025 BKN050 11/11 Q0991 NOSIG",
      "taf": "TAF LIRP 041100Z 0412/0512 09010KT 8000 -RA SCT020 BKN040"
    },
    {
      "icao": "LIRZ",
      "alert": "OK",
      "vis_m": 9999,
      "fzfg": false,
      "metar_trigger": false,
      "taf_trigger": false,
      "metar": "METAR LIRZ 041420Z AUTO 35006KT 9999 FEW003/// BKN076/// 11/09 Q0992",
      "taf": "TAF LIRZ 041100Z 0412/0512 VRB05KT 9999 BKN020"
    },
    {
      "icao": "LJLJ",
      "alert": "OK",
      "vis_m": 8000,
      "fzfg": false,
      "metar_trigger": false,
      "taf_trigger": false,
      "metar": "METAR LJLJ 041400Z VRB02KT 8000 -RA BKN004 OVC017 05/04 Q0999 NOSIG",
      "taf": ""
    },
    {
      "icao": "LKMT",
      "alert": "OK",
      "vis_m": 4000,
      "fzfg": false,
      "metar_trigger": false,
      "taf_trigger": false,
      "metar": "METAR LKMT 041400Z 02003KT 4000 BR BKN045 02/M01 Q1005 NOSIG",
      "taf": "TAF LKMT 041100Z 0412/0512 02005KT 4000 BR OVC020"
    },
    {
      "icao": "LKPR",
      "alert": "OK",
      "vis_m": 5000,
      "fzfg": false,
      "metar_trigger": false,
      "taf_trigger": false,
      "metar": "METAR LKPR 041400Z 09012KT 5000 BR OVC004 00/M00 Q1001 NOSIG",
      "taf": "TAF LKPR 041400Z 0415/0521 11008KT 6000 OVC008"
    },
    {
      "icao": "LLBG",
      "alert": "OK",
      "vis_m": 9999,
      "fzfg": false,
      "metar_trigger": false,
      "taf_trigger": false,
      "metar": "METAR LLBG 041420Z 35004KT 9999 FEW040 18/09 Q1019 NOSIG",
      "taf": "TAF LLBG 041109Z 0412/0512 30010KT 9999 SCT040"
    },
    {
      "icao": "LMML",
      "alert": "OK",
      "vis_m": 9999,
      "fzfg": false,
      "metar_trigger": false,
      "taf_trigger": false,
      "metar": "METAR LMML 041415Z 24015G25KT 9999 FEW021 14/10 Q1002 NOSIG",
      "taf": "TAF LMML 041100Z 0412/0512 26022G32KT 9999 FEW015 SCT035"
    },
    {
      "icao": "LOWW",
      "alert": "OK",
      "vis_m": 3400,
      "fzfg": false,
      "metar_trigger": false,
      "taf_trigger": false,
      "metar": "METAR LOWW 041420Z 11006KT 3400 BR FEW001 OVC003 02/01 Q1003 TEMPO 2500 BR",
      "taf": "TAF LOWW 041415Z 0415/0521 12009KT 4000 BR OVC004 TX03/0513Z TN02/0415Z"
    },
    {
      "icao": "LPFR",
      "alert": "OK",
      "vis_m": 4500,
      "fzfg": false,
      "metar_trigger": false,
      "taf_trigger": false,
      "metar": "METAR LPFR 041400Z 24026KT 4500 -RADZ BR FEW006 BKN018 16/15 Q1001",
      "taf": ""
    },
    {
      "icao": "LPMA",
      "alert": "OK",
      "vis_m": 9999,
      "fzfg": false,
      "metar_trigger": false,
      "taf_trigger": false,
      "metar": "METAR LPMA 041400Z 20020KT 9999 FEW015 21/14 Q1011",
      "taf": "TAF LPMA 041100Z 0412/0512 22018KT 9999 SCT015"
    },
    {
      "icao": "LPPR",
      "alert": "OK",
      "vis_m": 8000,
      "fzfg": false,
      "metar_trigger": false,
      "taf_trigger": false,
      "metar": "METAR LPPR 041400Z 23012KT 200V260 8000 BKN008 BKN015 14/13 Q0993",
      "taf": "TAF LPPR 041100Z 0412/0512 25010KT 9999 SCT012 BKN020"
    },
    {
      "icao": "LPPS",
      "alert": "OK",
      "vis_m": 9999,
      "fzfg": false,
      "metar_trigger": false,
      "taf_trigger": false,
      "metar": "METAR LPPS 041400Z 26015KT 9999 FEW014 20/16 Q1012",
      "taf": "TAF LPPS 041100Z 0412/0518 26017KT 9999 SCT013"
    },
    {
      "icao": "LPPT",
      "alert": "OK",
      "vis_m": 4000,
      "fzfg": false,
      "metar_trigger": false,
      "taf_trigger": false,
      "metar": "METAR LPPT 041400Z 24012KT 4000 -RADZ BR FEW002 BKN005 15/15 Q0997 RERA REDZ",
      "taf": "TAF LPPT 041100Z 0412/0518 23013KT 9999 SCT012 BKN020"
    },
    {
      "icao": "LQBK",
      "alert": "OK",
      "vis_m": 4000,
      "fzfg": false,
      "metar_trigger": false,
      "taf_trigger": false,
      "metar": "METAR LQBK 041400Z 29004KT 270V330 4000 BR SCT006 07/06 Q1000 NOSIG",
      "taf": "TAF LQBK 041100Z 0412/0512 VRB02KT 9999 SCT040 TX11/0414Z TN04/0505Z"
    },
    {
      "icao": "LQSA",
      "alert": "OK",
      "vis_m": 9999,
      "fzfg": false,
      "metar_trigger": false,
      "taf_trigger": false,
      "metar": "METAR LQSA 041400Z 15009G20KT 120V190 CAVOK 14/01 Q1000 NOSIG",
      "taf": "TAF LQSA 041100Z 0412/0512 11005KT 9999 SCT045 TX14/0413Z TN05/0505Z"
    },
    {
      "icao": "LQTZ",
      "alert": "OK",
      "vis_m": 9999,
      "fzfg": false,
      "metar_trigger": false,
      "taf_trigger": false,
      "metar": "METAR LQTZ 041400Z 10010KT CAVOK 14/04 Q1000",
      "taf": "TAF LQTZ 041100Z 0412/0512 10007KT 9999 SCT050 TX16/0414Z TN05/0505Z"
    },
    {
      "icao": "LRBC",
      "alert": "OK",
      "vis_m": 6000,
      "fzfg": false,
      "metar_trigger": false,
      "taf_trigger": false,
      "metar": "METAR LRBC 041400Z 16014KT 6000 OVC008 03/01 Q1013",
      "taf": "TAF LRBC 041400Z 0415/0424 16014KT 5000 BR OVC005"
    },
    {
      "icao": "LRBS",
      "alert": "OK",
      "vis_m": 9999,
      "fzfg": false,
      "metar_trigger": false,
      "taf_trigger": false,
      "metar": "METAR LRBS 041400Z 04005KT 010V080 CAVOK 04/00 Q1014 NOSIG",
      "taf": "TAF LRBS 041100Z 0412/0512 05010KT CAVOK"
    },
    {
      "icao": "LRBV",
      "alert": "OK",
      "vis_m": 9999,
      "fzfg": false,
      "metar_trigger": false,
      "taf_trigger": false,
      "metar": "METAR LRBV 041400Z 20020KT 9999 SCT065 08/01 Q1009",
      "taf": "TAF LRBV 041400Z 0415/0424 20018KT CAVOK"
    },
    {
      "icao": "LRCL",
      "alert": "OK",
      "vis_m": 9999,
      "fzfg": false,
      "metar_trigger": false,
      "taf_trigger": false,
      "metar": "METAR LRCL 041400Z 08004KT 9999 -RA BKN051 06/04 Q1008",
      "taf": "TAF LRCL 041400Z 0415/0424 08005KT 9999 BKN050"
    },
    {
      "icao": "LRCV",
      "alert": "OK",
      "vis_m": 9999,
      "fzfg": false,
      "metar_trigger": false,
      "taf_trigger": false,
      "metar": "METAR LRCV 041400Z 10003KT CAVOK 01/M03 Q1013",
      "taf": "TAF LRCV 041400Z 0415/0424 10004KT CAVOK"
    },
    {
      "icao": "LRIA",
      "alert": "OK",
      "vis_m": 9999,
      "fzfg": false,
      "metar_trigger": false,
      "taf_trigger": false,
      "metar": "METAR LRIA 041400Z 12012KT 9999 OVC012 03/00 Q1014",
      "taf": "TAF LRIA 041400Z 0415/0424 12012KT 9999 OVC010"
    },
    {
      "icao": "LROP",
      "alert": "OK",
      "vis_m": 9999,
      "fzfg": false,
      "metar_trigger": false,
      "taf_trigger": false,
      "metar": "METAR LROP 041400Z 09003KT CAVOK 04/M02 Q1014 NOSIG",
      "taf": "TAF LROP 041100Z 0412/0512 06010KT CAVOK"
    },
    {
      "icao": "LRSB",
      "alert": "OK",
      "vis_m": 9999,
      "fzfg": false,
      "metar_trigger": false,
      "taf_trigger": false,
      "metar": "METAR LRSB 041400Z 23003KT 130V300 9999 BKN070 10/04 Q1007",
      "taf": "TAF LRSB 041100Z 0412/0512 13014KT 9999 BKN065"
    },
    {
      "icao": "LRSM",
      "alert": "OK",
      "vis_m": 9999,
      "fzfg": false,
      "metar_trigger": false,
      "taf_trigger": false,
      "metar": "METAR LRSM 041400Z 12004KT 9999 -RA SCT044 06/05 Q1008",
      "taf": "TAF LRSM 041400Z 0415/0424 12005KT 9999 SCT045"
    },
    {
      "icao": "LRSV",
      "alert": "OK",
      "vis_m": 700,
      "fzfg": true,
      "metar_trigger": false,
      "taf_trigger": false,
      "metar": "METAR LRSV 041400Z 15011KT 0700 R16////// R34/1200U -FZRA FZFG OVC001 M00/M00 Q1011",
      "taf": "TAF LRSV 041400Z 0415/0424 15012KT 0800 -FZDZ FZFG OVC001"
    },
    {
      "icao": "LRTM",
      "alert": "OK",
      "vis_m": 9000,
      "fzfg": false,
      "metar_trigger": false,
      "taf_trigger": false,
      "metar": "METAR LRTM 041400Z 08006KT 9000 NSC 08/06 Q1008",
      "taf": "TAF LRTM 041400Z 0415/0424 08005KT CAVOK"
    },
    {
      "icao": "LRTR",
      "alert": "OK",
      "vis_m": 9999,
      "fzfg": false,
      "metar_trigger": false,
      "taf_trigger": false,
      "metar": "METAR LRTR 041400Z 10008KT CAVOK 10/07 Q1005",
      "taf": "TAF LRTR 041100Z 0412/0512 11012KT 9999 SCT035"
    },
    {
      "icao": "LTAC",
      "alert": "OK",
      "vis_m": 9999,
      "fzfg": false,
      "metar_trigger": false,
      "taf_trigger": false,
      "metar": "METAR LTAC 041420Z VRB03KT 9999 FEW040 BKN200 07/M01 Q1019 NOSIG",
      "taf": "TAF LTAC 041040Z 0412/0512 VRB02KT 9999 FEW040 SCT200"
    },
    {
      "icao": "LTFM",
      "alert": "OK",
      "vis_m": 9999,
      "fzfg": false,
      "metar_trigger": false,
      "taf_trigger": false,
      "metar": "METAR LTFM 041420Z 16008KT CAVOK 13/02 Q1016 NOSIG",
      "taf": "TAF LTFM 041040Z 0412/0518 20010KT CAVOK"
    },
    {
      "icao": "LUKK",
      "alert": "OK",
      "vis_m": 6000,
      "fzfg": false,
      "metar_trigger": false,
      "taf_trigger": false,
      "metar": "METAR LUKK 041400Z 14015KT 6000 -DZ OVC004 01/00 Q1018 TEMPO 14016G26KT",
      "taf": "TAF LUKK 041117Z 0412/0512 11012KT 9999 OVC010"
    },
    {
      "icao": "LWOH",
      "alert": "OK",
      "vis_m": 9999,
      "fzfg": false,
      "metar_trigger": false,
      "taf_trigger": false,
      "metar": "METAR LWOH 041420Z 07009KT 030V110 9999 SCT040 BKN090 10/03 Q1007",
      "taf": "TAF LWOH 041140Z 0412/0512 17010KT 9999 SCT040"
    },
    {
      "icao": "LWSK",
      "alert": "OK",
      "vis_m": 9999,
      "fzfg": false,
      "metar_trigger": false,
      "taf_trigger": false,
      "metar": "METAR LWSK 041420Z VRB04KT 9999 SCT025 BKN060 11/07 Q1009 NOSIG",
      "taf": "TAF LWSK 041140Z 0412/0512 14010KT 9999 FEW020 BKN050"
    },
    {
      "icao": "LYBE",
      "alert": "OK",
      "vis_m": 9999,
      "fzfg": false,
      "metar_trigger": false,
      "taf_trigger": false,
      "metar": "METAR LYBE 041400Z 08009KT CAVOK 09/02 Q1004 NOSIG",
      "taf": "TAF LYBE 041100Z 0412/0512 12018KT CAVOK TX13/0512Z TN07/0506Z"
    },
    {
      "icao": "LYNI",
      "alert": "OK",
      "vis_m": 9999,
      "fzfg": false,
      "metar_trigger": false,
      "taf_trigger": false,
      "metar": "METAR LYNI 041400Z 10010KT 9999 SCT043 12/04 Q1007 NOSIG",
      "taf": "TAF LYNI 041100Z 0412/0512 13008KT 9999 SCT045 TX13/0413Z TN05/0506Z"
    },
    {
      "icao": "LYPG",
      "alert": "OK",
      "vis_m": 9999,
      "fzfg": false,
      "metar_trigger": false,
      "taf_trigger": false,
      "metar": "METAR LYPG 041400Z 12002KT 9999 FEW090 15/09 Q1002 NOSIG",
      "taf": "TAF LYPG 041100Z 0412/0512 16005KT 9999 SCT040 BKN080 TX14/0413Z TN06/0506Z"
    },
    {
      "icao": "LZIB",
      "alert": "OK",
      "vis_m": 8000,
      "fzfg": false,
      "metar_trigger": false,
      "taf_trigger": false,
      "metar": "METAR LZIB 041400Z 07010KT 8000 -DZ SCT004 OVC005 03/02 Q1004 NOSIG",
      "taf": "TAF LZIB 041115Z 0412/0512 06009KT 7000 OVC013"
    },
    {
      "icao": "LZKZ",
      "alert": "OK",
      "vis_m": 2500,
      "fzfg": false,
      "metar_trigger": false,
      "taf_trigger": false,
      "metar": "METAR LZKZ 041400Z 35005KT 2500 BR FEW007 OVC016 03/02 Q1007 NOSIG",
      "taf": "TAF LZKZ 041115Z 0412/0512 36004KT 7000 OVC020"
    },
    {
      "icao": "LZTT",
      "alert": "OK",
      "vis_m": 9000,
      "fzfg": false,
      "metar_trigger": false,
      "taf_trigger": false,
      "metar": "METAR LZTT 041400Z 00000KT 9000 BKN004 BKN023 01/M00 Q1005 NOSIG",
      "taf": "TAF LZTT 041115Z 0412/0512 VRB02KT 9999 FEW006 BKN020"
    },
    {
      "icao": "OEJN",
      "alert": "OK",
      "vis_m": 9999,
      "fzfg": false,
      "metar_trigger": false,
      "taf_trigger": false,
      "metar": "METAR OEJN 041400Z 30009KT CAVOK 28/14 Q1011 NOSIG",
      "taf": "TAF OEJN 041100Z 0412/0518 30014KT CAVOK"
    },
    {
      "icao": "OEMA",
      "alert": "OK",
      "vis_m": 9999,
      "fzfg": false,
      "metar_trigger": false,
      "taf_trigger": false,
      "metar": "METAR OEMA 041400Z 09007KT CAVOK 26/03 Q1017 NOSIG",
      "taf": "TAF OEMA 041100Z 0412/0518 09012KT CAVOK"
    },
    {
      "icao": "OJAI",
      "alert": "OK",
      "vis_m": 5000,
      "fzfg": false,
      "metar_trigger": false,
      "taf_trigger": false,
      "metar": "METAR OJAI 041300Z 28010KT 5000 HZ SCT030 13/05 Q1020 NOSIG",
      "taf": "TAF OJAI 041100Z 0412/0518 29006KT 5000 HZ FEW035"
    },
    {
      "icao": "OMAA",
      "alert": "OK",
      "vis_m": null,
      "fzfg": false,
      "metar_trigger": false,
      "taf_trigger": false,
      "metar": "",
      "taf": "TAF OMAA 041100Z 0412/0518 VRB02KT 8000 NSC"
    },
    {
      "icao": "OMDB",
      "alert": "OK",
      "vis_m": null,
      "fzfg": false,
      "metar_trigger": false,
      "taf_trigger": false,
      "metar": "",
      "taf": "TAF OMDB 041100Z 0412/0518 30010KT 8000 NSC"
    },
    {
      "icao": "UAAA",
      "alert": "OK",
      "vis_m": 7000,
      "fzfg": false,
      "metar_trigger": false,
      "taf_trigger": false,
      "metar": "METAR UAAA 041400Z 02003MPS 7000 FEW050 SCT100 01/M01 Q1023 NOSIG",
      "taf": "TAF UAAA 041107Z 0412/0512 06003MPS 3100 BR FU SCT011 BKN030 TX06/0508Z TNM02/0502Z"
    },
    {
      "icao": "UBBB",
      "alert": "OK",
      "vis_m": 4000,
      "fzfg": false,
      "metar_trigger": false,
      "taf_trigger": false,
      "metar": "METAR UBBB 041400Z 32024G34KT 4000 -SN BKN007 OVC021 00/M00 Q1023 WS R34 NOSIG",
      "taf": "TAF UBBB 041025Z 0411/0512 32026G36KT 6000 BKN008 OVC020 TX01/0411Z TNM01/0502Z"
    },
    {
      "icao": "UDSG",
      "alert": "OK",
      "vis_m": 9999,
      "fzfg": false,
      "metar_trigger": false,
      "taf_trigger": false,
      "metar": "METAR UDSG 041400Z 35009KT 9999 FEW046 M02/M08 Q1018 NOSIG",
      "taf": "TAF UDSG 041058Z 0412/0512 VRB06KT 9999 SCT040"
    },
    {
      "icao": "UDYZ",
      "alert": "OK",
      "vis_m": 9999,
      "fzfg": false,
      "metar_trigger": false,
      "taf_trigger": false,
      "metar": "METAR UDYZ 041400Z 10007KT 9999 SCT046 05/M01 Q1017 NOSIG",
      "taf": "TAF UDYZ 041100Z 0412/0512 03006KT 9999 BKN040"
    },
    {
      "icao": "UGKO",
      "alert": "OK",
      "vis_m": 9999,
      "fzfg": false,
      "metar_trigger": false,
      "taf_trigger": false,
      "metar": "METAR UGKO 041400Z 25010KT 9999 BKN055 05/02 Q1025 NOSIG",
      "taf": "TAF UGKO 041100Z 0412/0512 25010KT 9999 SCT030 OVC050 TX13/0511Z TNM01/0503Z"
    }
  ]
}