{
  "ts_utc": "2026-03-31T08:15:35Z",
  "threshold_m": 150,
  "source": "stations_override.txt (ICAO list) + aviationweather.gov (METAR/TAF raw)",
  "station_count": 159,
  "stations": [
    {
      "icao": "BIKF",
      "alert": "OK",
      "vis_m": 6000,
      "fzfg": false,
      "metar_trigger": false,
      "taf_trigger": false,
      "metar": "METAR BIKF 310800Z 28028KT 6000 BLSN FEW004 BKN024 OVC041 01/M03 Q1001",
      "taf": "TAF BIKF 310746Z 3109/0109 27025G35KT 9999 -SHSN BKN020 TX02/3116Z TNM01/0101Z"
    },
    {
      "icao": "BKPR",
      "alert": "OK",
      "vis_m": 9999,
      "fzfg": false,
      "metar_trigger": false,
      "taf_trigger": false,
      "metar": "METAR BKPR 310800Z 03013KT 9999 SCT020 BKN035 05/01 Q1010 NOSIG",
      "taf": "TAF BKPR 310530Z 3106/0106 03010KT 9999 SCT020 BKN040"
    },
    {
      "icao": "EBCI",
      "alert": "OK",
      "vis_m": 9999,
      "fzfg": false,
      "metar_trigger": false,
      "taf_trigger": false,
      "metar": "METAR EBCI 310750Z 25006KT CAVOK 05/02 Q1029 NOSIG",
      "taf": "TAF EBCI 310500Z 3106/0112 24004KT 9999 FEW030"
    },
    {
      "icao": "EDDB",
      "alert": "OK",
      "vis_m": 9999,
      "fzfg": false,
      "metar_trigger": false,
      "taf_trigger": false,
      "metar": "METAR EDDB 310750Z AUTO 29009KT 260V320 9999 BKN010 BKN034 OVC042 05/03 Q1021 BECMG BKN015",
      "taf": ""
    },
    {
      "icao": "EDDH",
      "alert": "OK",
      "vis_m": 9999,
      "fzfg": false,
      "metar_trigger": false,
      "taf_trigger": false,
      "metar": "METAR EDDH 310750Z AUTO 28009KT 240V310 9999 BKN014 BKN018 OVC034 07/04 Q1022 BECMG BKN015",
      "taf": "TAF EDDH 310500Z 3106/0112 27008KT 9999 BKN015"
    },
    {
      "icao": "EDDK",
      "alert": "OK",
      "vis_m": 9999,
      "fzfg": false,
      "metar_trigger": false,
      "taf_trigger": false,
      "metar": "METAR EDDK 310750Z AUTO 30003KT 250V360 9999 VCSH SCT022 BKN030 BKN041 FEW///TCU 06/03 Q1027 NOSIG",
      "taf": "TAF EDDK 310500Z 3106/0112 26003KT 9999 SCT040"
    },
    {
      "icao": "EDDN",
      "alert": "OK",
      "vis_m": 9999,
      "fzfg": false,
      "metar_trigger": false,
      "taf_trigger": false,
      "metar": "METAR EDDN 310750Z AUTO 32008KT 9999 FEW017 OVC046 04/00 Q1024 TEMPO BKN012",
      "taf": "TAF EDDN 310500Z 3106/0106 31004KT 9999 SCT008 BKN040"
    },
    {
      "icao": "EDDS",
      "alert": "OK",
      "vis_m": 9999,
      "fzfg": false,
      "metar_trigger": false,
      "taf_trigger": false,
      "metar": "METAR EDDS 310750Z AUTO 32010KT 290V350 9999 FEW012 BKN034 OVC044 03/00 Q1025 NOSIG",
      "taf": "TAF EDDS 310500Z 3106/0106 31007KT 9999 BKN015"
    },
    {
      "icao": "EDFH",
      "alert": "OK",
      "vis_m": 9999,
      "fzfg": false,
      "metar_trigger": false,
      "taf_trigger": false,
      "metar": "METAR EDFH 310750Z 29007KT 9999 VCSH SCT006 BKN011 BKN015TCU 03/01 Q1026",
      "taf": ""
    },
    {
      "icao": "EDJA",
      "alert": "OK",
      "vis_m": 9999,
      "fzfg": false,
      "metar_trigger": false,
      "taf_trigger": false,
      "metar": "METAR EDJA 310750Z 35007KT 9999 FEW005 BKN007 OVC028 01/M00 Q1023",
      "taf": "TAF EDJA 310500Z 3106/3115 35007KT 9999 FEW009 OVC015"
    },
    {
      "icao": "EDLW",
      "alert": "OK",
      "vis_m": 9999,
      "fzfg": false,
      "metar_trigger": false,
      "taf_trigger": false,
      "metar": "METAR EDLW 310750Z 26005KT 220V290 9999 FEW020 BKN029 06/03 Q1026",
      "taf": "TAF EDLW 310500Z 3106/0106 25005KT 9999 SCT025"
    },
    {
      "icao": "EDNY",
      "alert": "OK",
      "vis_m": 9999,
      "fzfg": false,
      "metar_trigger": false,
      "taf_trigger": false,
      "metar": "METAR EDNY 310750Z VRB01KT 9999 FEW013 BKN028 OVC040 02/01 Q1025",
      "taf": "TAF EDNY 310500Z 3106/3115 36005KT 9999 SCT010 BKN020"
    },
    {
      "icao": "EDSB",
      "alert": "OK",
      "vis_m": 9999,
      "fzfg": false,
      "metar_trigger": false,
      "taf_trigger": false,
      "metar": "METAR EDSB 310750Z 24003KT 220V280 9999 SCT040 OVC048 04/02 Q1027",
      "taf": "TAF EDSB 310500Z 3106/0106 VRB03KT 9999 BKN035"
    },
    {
      "icao": "EETN",
      "alert": "OK",
      "vis_m": 9999,
      "fzfg": false,
      "metar_trigger": false,
      "taf_trigger": false,
      "metar": "METAR EETN 310750Z VRB02KT CAVOK 07/M01 Q1013 NOSIG",
      "taf": "TAF EETN 310530Z 3106/0106 32005KT CAVOK"
    },
    {
      "icao": "EFTU",
      "alert": "OK",
      "vis_m": 9999,
      "fzfg": false,
      "metar_trigger": false,
      "taf_trigger": false,
      "metar": "METAR EFTU 310750Z AUTO 22005KT 190V260 9999 BKN041 03/00 Q1013",
      "taf": "TAF EFTU 310527Z 3106/0106 13005KT CAVOK"
    },
    {
      "icao": "EGBB",
      "alert": "OK",
      "vis_m": 9999,
      "fzfg": false,
      "metar_trigger": false,
      "taf_trigger": false,
      "metar": "METAR EGBB 310750Z 30008KT 9999 BKN016 12/09 Q1030",
      "taf": "TAF EGBB 310459Z 3106/0106 28009KT 9999 SCT020"
    },
    {
      "icao": "EGGP",
      "alert": "OK",
      "vis_m": 9999,
      "fzfg": false,
      "metar_trigger": false,
      "taf_trigger": false,
      "metar": "METAR EGGP 310750Z 29010KT 9999 SCT011 BKN034 10/09 Q1030",
      "taf": "TAF EGGP 310456Z 3106/0106 29010KT 9999 SCT025"
    },
    {
      "icao": "EGGW",
      "alert": "OK",
      "vis_m": 9999,
      "fzfg": false,
      "metar_trigger": false,
      "taf_trigger": false,
      "metar": "METAR EGGW 310750Z AUTO 28009KT 250V310 9999 OVC013 09/06 Q1029",
      "taf": "TAF EGGW 310459Z 3106/0106 28008KT 9999 SCT020"
    },
    {
      "icao": "EGKK",
      "alert": "OK",
      "vis_m": 9999,
      "fzfg": false,
      "metar_trigger": false,
      "taf_trigger": false,
      "metar": "METAR EGKK 310750Z 26005KT 9999 BKN017 10/07 Q1030",
      "taf": "TAF EGKK 310453Z 3106/0112 26006KT 9999 BKN025"
    },
    {
      "icao": "EGNM",
      "alert": "OK",
      "vis_m": 9999,
      "fzfg": false,
      "metar_trigger": false,
      "taf_trigger": false,
      "metar": "METAR EGNM 310750Z 28014KT 9999 FEW006 SCT010 11/08 Q1027",
      "taf": "TAF EGNM 310455Z 3106/0106 27009KT 9999 SCT025"
    },
    {
      "icao": "EGPD",
      "alert": "OK",
      "vis_m": 9999,
      "fzfg": false,
      "metar_trigger": false,
      "taf_trigger": false,
      "metar": "METAR EGPD 310750Z COR AUTO 20004KT 150V250 9999 NCD 11/06 Q1023 NOSIG",
      "taf": "TAF EGPD 310455Z 3106/0106 VRB03KT 9999 SCT020"
    },
    {
      "icao": "EGPF",
      "alert": "OK",
      "vis_m": 9999,
      "fzfg": false,
      "metar_trigger": false,
      "taf_trigger": false,
      "metar": "METAR EGPF 310750Z AUTO 22013KT 9999 BKN011 OVC035 11/10 Q1026",
      "taf": ""
    },
    {
      "icao": "EHBK",
      "alert": "OK",
      "vis_m": 9999,
      "fzfg": false,
      "metar_trigger": false,
      "taf_trigger": false,
      "metar": "METAR EHBK 310755Z AUTO 21008KT 9999 NSC 04/02 Q1027 NOSIG",
      "taf": "TAF EHBK 310513Z 3106/0112 29005KT 9999 SCT030"
    },
    {
      "icao": "EHEH",
      "alert": "OK",
      "vis_m": 9999,
      "fzfg": false,
      "metar_trigger": false,
      "taf_trigger": false,
      "metar": "METAR EHEH 310755Z AUTO 26003KT 220V310 9999 OVC075 06/05 Q1027 BLU NOSIG RMK TREND REMOTE BY EHWX",
      "taf": "TAF EHEH 310528Z 3106/0112 25003KT CAVOK"
    },
    {
      "icao": "EKBI",
      "alert": "OK",
      "vis_m": 9999,
      "fzfg": false,
      "metar_trigger": false,
      "taf_trigger": false,
      "metar": "METAR EKBI 310750Z AUTO 29016KT 260V320 9999 BKN018/// 07/03 Q1018",
      "taf": "TAF EKBI 310527Z 3106/0106 30012KT 9999 BKN012"
    },
    {
      "icao": "EKCH",
      "alert": "OK",
      "vis_m": 9999,
      "fzfg": false,
      "metar_trigger": false,
      "taf_trigger": false,
      "metar": "METAR EKCH 310750Z AUTO 29013KT 9999 OVC019/// 07/04 Q1016 NOSIG",
      "taf": "TAF EKCH 310527Z 3106/0106 26010KT 9999 SCT020"
    },
    {
      "icao": "ENAL",
      "alert": "OK",
      "vis_m": 9999,
      "fzfg": false,
      "metar_trigger": false,
      "taf_trigger": false,
      "metar": "METAR ENAL 310750Z 24013KT 9999 -DZ FEW019 BKN024 06/03 Q1015",
      "taf": "TAF ENAL 310500Z 3106/3115 22012KT 9999 BKN030"
    },
    {
      "icao": "ENBR",
      "alert": "OK",
      "vis_m": 9999,
      "fzfg": false,
      "metar_trigger": false,
      "taf_trigger": false,
      "metar": "METAR ENBR 310750Z 00000KT 9999 VCSH FEW003 SCT015 BKN019 05/04 Q1019 NOSIG RMK WIND 1200FT 32008KT",
      "taf": ""
    },
    {
      "icao": "ENGM",
      "alert": "OK",
      "vis_m": 9999,
      "fzfg": false,
      "metar_trigger": false,
      "taf_trigger": false,
      "metar": "METAR ENGM 310750Z 02006KT CAVOK 03/M01 Q1013 NOSIG",
      "taf": "TAF ENGM 310500Z 3106/0106 02005KT 9999 FEW005"
    },
    {
      "icao": "ENHD",
      "alert": "OK",
      "vis_m": 9999,
      "fzfg": false,
      "metar_trigger": false,
      "taf_trigger": false,
      "metar": "METAR ENHD 310750Z 32008KT 9999 FEW012 BKN023 BKN027 07/04 Q1020",
      "taf": ""
    },
    {
      "icao": "ENTC",
      "alert": "OK",
      "vis_m": 9999,
      "fzfg": false,
      "metar_trigger": false,
      "taf_trigger": false,
      "metar": "METAR ENTC 310750Z 19017KT 9999 -SHRA BKN024 04/M00 Q1005 TEMPO BKN014 RMK WIND 2600FT 19022KT",
      "taf": ""
    },
    {
      "icao": "ENTO",
      "alert": "OK",
      "vis_m": 9999,
      "fzfg": false,
      "metar_trigger": false,
      "taf_trigger": false,
      "metar": "METAR ENTO 310750Z 36007KT 330V030 CAVOK 07/M03 Q1014 NOSIG",
      "taf": "TAF ENTO 310500Z 3106/0106 35008KT CAVOK"
    },
    {
      "icao": "ENVA",
      "alert": "OK",
      "vis_m": 9999,
      "fzfg": false,
      "metar_trigger": false,
      "taf_trigger": false,
      "metar": "METAR ENVA 310750Z 08005KT 9999 BKN030 02/M02 Q1014 NOSIG RMK WIND 670FT 19007KT",
      "taf": "TAF ENVA 310500Z 3106/0106 16008KT 9999 SCT020"
    },
    {
      "icao": "ENZV",
      "alert": "OK",
      "vis_m": 9999,
      "fzfg": false,
      "metar_trigger": false,
      "taf_trigger": false,
      "metar": "METAR ENZV 310750Z 33012KT 9999 BKN034 07/04 Q1019 NOSIG",
      "taf": ""
    },
    {
      "icao": "EPGD",
      "alert": "OK",
      "vis_m": 9999,
      "fzfg": false,
      "metar_trigger": false,
      "taf_trigger": false,
      "metar": "METAR EPGD 310800Z 28010KT 9999 BKN006 04/03 Q1016",
      "taf": "TAF EPGD 310530Z 3106/0106 29010KT 9999 OVC005"
    },
    {
      "icao": "EPKK",
      "alert": "OK",
      "vis_m": 7000,
      "fzfg": false,
      "metar_trigger": false,
      "taf_trigger": false,
      "metar": "METAR EPKK 310800Z 33006KT 290V010 7000 -RA SCT012 OVC016 05/03 Q1015",
      "taf": "TAF EPKK 310530Z 3106/0106 32009KT 5000 -RA FEW010 BKN015"
    },
    {
      "icao": "EPKT",
      "alert": "OK",
      "vis_m": 8000,
      "fzfg": false,
      "metar_trigger": false,
      "taf_trigger": false,
      "metar": "METAR EPKT 310800Z 34008KT 8000 -RA BKN007 03/02 Q1016",
      "taf": "TAF EPKT 310530Z 3106/0106 34010KT 5000 -RA BR BKN005"
    },
    {
      "icao": "EPLB",
      "alert": "OK",
      "vis_m": 9999,
      "fzfg": false,
      "metar_trigger": false,
      "taf_trigger": false,
      "metar": "METAR EPLB 310800Z 32010KT 300V360 9999 -RA FEW032 06/04 Q1011",
      "taf": "TAF EPLB 310530Z 3106/0106 33010KT 9999 -RA NSC"
    },
    {
      "icao": "EPMO",
      "alert": "OK",
      "vis_m": 9999,
      "fzfg": false,
      "metar_trigger": false,
      "taf_trigger": false,
      "metar": "METAR EPMO 310800Z 33010KT 300V020 CAVOK 08/02 Q1015",
      "taf": "TAF EPMO 310530Z 3106/0106 33007KT CAVOK"
    },
    {
      "icao": "EPPO",
      "alert": "OK",
      "vis_m": 9999,
      "fzfg": false,
      "metar_trigger": false,
      "taf_trigger": false,
      "metar": "METAR EPPO 310800Z 33007KT 9999 BKN005 04/02 Q1019",
      "taf": ""
    },
    {
      "icao": "EPRA",
      "alert": "OK",
      "vis_m": 9999,
      "fzfg": false,
      "metar_trigger": false,
      "taf_trigger": false,
      "metar": "METAR EPRA 310800Z 33012KT 9999 BKN036 07/M00 Q1013",
      "taf": "TAF EPRA 310530Z 3106/3115 34010KT 9999 BKN040"
    },
    {
      "icao": "EPRZ",
      "alert": "OK",
      "vis_m": 9999,
      "fzfg": false,
      "metar_trigger": false,
      "taf_trigger": false,
      "metar": "METAR EPRZ 310800Z 32009KT 9999 -RA BKN031 06/03 Q1012",
      "taf": "TAF EPRZ 310530Z 3106/0106 32010KT 9999 BKN048"
    },
    {
      "icao": "EPSC",
      "alert": "OK",
      "vis_m": 9999,
      "fzfg": false,
      "metar_trigger": false,
      "taf_trigger": false,
      "metar": "METAR EPSC 310800Z 26006KT 9999 FEW012 OVC034 06/03 Q1019",
      "taf": "TAF EPSC 310530Z 3106/0106 29010KT 9999 BKN018"
    },
    {
      "icao": "EPSY",
      "alert": "OK",
      "vis_m": 9999,
      "fzfg": false,
      "metar_trigger": false,
      "taf_trigger": false,
      "metar": "METAR EPSY 310800Z 33010KT 290V010 9999 FEW019 06/02 Q1015",
      "taf": "TAF EPSY 310530Z 3106/3115 34008KT CAVOK"
    },
    {
      "icao": "EPWA",
      "alert": "OK",
      "vis_m": 9999,
      "fzfg": false,
      "metar_trigger": false,
      "taf_trigger": false,
      "metar": "METAR EPWA 310800Z 34011KT CAVOK 08/01 Q1014 NOSIG",
      "taf": "TAF EPWA 310530Z 3106/0106 33009KT CAVOK"
    },
    {
      "icao": "EPWR",
      "alert": "OK",
      "vis_m": 9999,
      "fzfg": false,
      "metar_trigger": false,
      "taf_trigger": false,
      "metar": "METAR EPWR 310800Z 31012KT 9999 SCT012 BKN018 05/02 Q1019",
      "taf": "TAF EPWR 310530Z 3106/0106 31010KT 9999 BKN040"
    },
    {
      "icao": "ESGG",
      "alert": "OK",
      "vis_m": 9999,
      "fzfg": false,
      "metar_trigger": false,
      "taf_trigger": false,
      "metar": "METAR ESGG 310750Z 33009KT CAVOK 06/02 Q1012",
      "taf": "TAF ESGG 310530Z 3106/0106 25005KT CAVOK"
    },
    {
      "icao": "ESKN",
      "alert": "OK",
      "vis_m": 9999,
      "fzfg": false,
      "metar_trigger": false,
      "taf_trigger": false,
      "metar": "METAR ESKN 310750Z 25006KT 9999 FEW008 05/04 Q1012",
      "taf": "TAF ESKN 310530Z 3106/0106 22005KT 9000 NSC"
    },
    {
      "icao": "ESMS",
      "alert": "OK",
      "vis_m": 5000,
      "fzfg": false,
      "metar_trigger": false,
      "taf_trigger": false,
      "metar": "METAR ESMS 310750Z 25012KT 5000 RA FEW007 BKN015 05/05 Q1015",
      "taf": "TAF ESMS 310527Z 3106/0106 29010KT 9999 BKN015"
    },
    {
      "icao": "ESSA",
      "alert": "OK",
      "vis_m": 9999,
      "fzfg": false,
      "metar_trigger": false,
      "taf_trigger": false,
      "metar": "METAR ESSA 310750Z 18006KT 9999 SCT008 04/02 Q1012 NOSIG",
      "taf": "TAF ESSA 310530Z 3106/0106 18008KT 9999 SCT010"
    },
    {
      "icao": "EYKA",
      "alert": "OK",
      "vis_m": 9999,
      "fzfg": false,
      "metar_trigger": false,
      "taf_trigger": false,
      "metar": "METAR EYKA 310750Z 34005KT 280V030 CAVOK 08/01 Q1013",
      "taf": "TAF EYKA 310500Z 3106/0106 VRB04KT 9000 NSC"
    },
    {
      "icao": "EYPA",
      "alert": "OK",
      "vis_m": 600,
      "fzfg": false,
      "metar_trigger": false,
      "taf_trigger": false,
      "metar": "METAR EYPA 310750Z VRB02KT 0600 R19/0900D FG OVC002 02/02 Q1015",
      "taf": ""
    },
    {
      "icao": "EYVI",
      "alert": "OK",
      "vis_m": 9999,
      "fzfg": false,
      "metar_trigger": false,
      "taf_trigger": false,
      "metar": "METAR EYVI 310750Z 35012KT 9999 -RA BKN041 06/04 Q1011 NOSIG",
      "taf": "TAF EYVI 310501Z 3106/0106 35016KT 5000 RA BR SCT010 OVC025"
    },
    {
      "icao": "GCFV",
      "alert": "OK",
      "vis_m": 6000,
      "fzfg": false,
      "metar_trigger": false,
      "taf_trigger": false,
      "metar": "METAR GCFV 310800Z 06010KT 6000 NSC 19/14 Q1019",
      "taf": ""
    },
    {
      "icao": "GCLP",
      "alert": "OK",
      "vis_m": 3500,
      "fzfg": false,
      "metar_trigger": false,
      "taf_trigger": false,
      "metar": "METAR GCLP 310800Z 35006KT 300V030 3500 HZ NSC 19/11 Q1019 NOSIG",
      "taf": ""
    },
    {
      "icao": "GCTS",
      "alert": "OK",
      "vis_m": 2500,
      "fzfg": false,
      "metar_trigger": false,
      "taf_trigger": false,
      "metar": "METAR GCTS 310800Z 06016KT 2500 HZ FEW030 19/07 Q1018 NOSIG",
      "taf": ""
    },
    {
      "icao": "GMAD",
      "alert": "OK",
      "vis_m": 6000,
      "fzfg": false,
      "metar_trigger": false,
      "taf_trigger": false,
      "metar": "METAR GMAD 310800Z 15003KT 6000 NSC 16/12 Q1019 NOSIG",
      "taf": "TAF GMAD 310500Z 3106/0112 06005KT 6000 NSC"
    },
    {
      "icao": "GMMN",
      "alert": "OK",
      "vis_m": 9999,
      "fzfg": false,
      "metar_trigger": false,
      "taf_trigger": false,
      "metar": "METAR GMMN 310800Z 09005KT CAVOK 11/06 Q1022 NOSIG",
      "taf": "TAF GMMN 310500Z 3106/0112 05006KT CAVOK"
    },
    {
      "icao": "GMMX",
      "alert": "OK",
      "vis_m": 9999,
      "fzfg": false,
      "metar_trigger": false,
      "taf_trigger": false,
      "metar": "METAR GMMX 310800Z VRB02KT CAVOK 13/07 Q1021 NOSIG",
      "taf": "TAF GMMX 310500Z 3106/0112 08006KT 8000 NSC"
    },
    {
      "icao": "HEGN",
      "alert": "OK",
      "vis_m": 9999,
      "fzfg": false,
      "metar_trigger": false,
      "taf_trigger": false,
      "metar": "METAR HEGN 310800Z 35013KT 9999 SCT025 22/08 Q1014 NOSIG",
      "taf": "TAF HEGN 310500Z 3106/0112 36010KT CAVOK"
    },
    {
      "icao": "HEMA",
      "alert": "OK",
      "vis_m": 9999,
      "fzfg": false,
      "metar_trigger": false,
      "taf_trigger": false,
      "metar": "METAR HEMA 310800Z 33012KT CAVOK 25/08 Q1013 NOSIG",
      "taf": "TAF HEMA 310500Z 3106/0112 33011KT CAVOK"
    },
    {
      "icao": "HESH",
      "alert": "OK",
      "vis_m": 9999,
      "fzfg": false,
      "metar_trigger": false,
      "taf_trigger": false,
      "metar": "METAR HESH 310800Z 01013KT CAVOK 24/09 Q1013 NOSIG",
      "taf": "TAF HESH 310500Z 3106/0112 01009KT CAVOK"
    },
    {
      "icao": "HESX",
      "alert": "OK",
      "vis_m": 9999,
      "fzfg": false,
      "metar_trigger": false,
      "taf_trigger": false,
      "metar": "METAR HESX 310800Z 09011KT CAVOK 19/08 Q1012 NOSIG",
      "taf": "TAF HESX 310500Z 3106/0112 07009KT CAVOK"
    },
    {
      "icao": "LATI",
      "alert": "OK",
      "vis_m": 9999,
      "fzfg": false,
      "metar_trigger": false,
      "taf_trigger": false,
      "metar": "METAR LATI 310750Z 00000KT 9999 BKN110 12/04 Q1006 NOSIG",
      "taf": "TAF LATI 310500Z 3106/0106 VRB05KT CAVOK TX18/3111Z TN06/0104Z"
    },
    {
      "icao": "LBPD",
      "alert": "OK",
      "vis_m": 9999,
      "fzfg": false,
      "metar_trigger": false,
      "taf_trigger": false,
      "metar": "METAR LBPD 310800Z AUTO 30012KT 9999 BKN110/// 12/05 Q1008 NOSIG",
      "taf": "TAF LBPD 310500Z 3106/0106 28012KT 9999 OVC060"
    },
    {
      "icao": "LBSF",
      "alert": "OK",
      "vis_m": 9999,
      "fzfg": false,
      "metar_trigger": false,
      "taf_trigger": false,
      "metar": "METAR LBSF 310800Z 32010KT 290V350 9999 BKN019 06/01 Q1009 TEMPO BKN015",
      "taf": "TAF LBSF 310500Z 3106/0106 28012KT 9999 SCT015 BKN030"
    },
    {
      "icao": "LBWN",
      "alert": "OK",
      "vis_m": 9999,
      "fzfg": false,
      "metar_trigger": false,
      "taf_trigger": false,
      "metar": "METAR LBWN 310800Z AUTO 28014KT 9999 FEW032/// 11/05 Q1008 NOSIG",
      "taf": "TAF LBWN 310500Z 3106/0106 27012KT 9999 BKN040"
    },
    {
      "icao": "LCLK",
      "alert": "OK",
      "vis_m": 9999,
      "fzfg": false,
      "metar_trigger": false,
      "taf_trigger": false,
      "metar": "METAR LCLK 310800Z 13007KT 100V160 9999 FEW030 19/12 Q1012 NOSIG",
      "taf": "TAF LCLK 310530Z 3106/0106 26005KT 9999 FEW025"
    },
    {
      "icao": "LCPH",
      "alert": "OK",
      "vis_m": 9999,
      "fzfg": false,
      "metar_trigger": false,
      "taf_trigger": false,
      "metar": "METAR LCPH 310800Z 25006KT 190V320 9999 FEW030 19/10 Q1013 NOSIG",
      "taf": "TAF LCPH 310530Z 3106/0106 27006KT 9999 FEW030 SCT045"
    },
    {
      "icao": "LEAL",
      "alert": "OK",
      "vis_m": 9999,
      "fzfg": false,
      "metar_trigger": false,
      "taf_trigger": false,
      "metar": "METAR LEAL 310800Z 31009KT 290V350 CAVOK 18/06 Q1020 NOSIG",
      "taf": "TAF LEAL 310500Z 3106/0106 32007KT CAVOK TX20/3112Z TN08/0105Z"
    },
    {
      "icao": "LEBB",
      "alert": "OK",
      "vis_m": 9999,
      "fzfg": false,
      "metar_trigger": false,
      "taf_trigger": false,
      "metar": "METAR LEBB 310800Z 32003KT 280V360 9999 OVC027 11/10 Q1034 NOSIG",
      "taf": "TAF LEBB 310500Z 3106/0106 34009KT 9999 FEW015 BKN025 TX12/3110Z TN10/3107Z"
    },
    {
      "icao": "LEBL",
      "alert": "OK",
      "vis_m": 9999,
      "fzfg": false,
      "metar_trigger": false,
      "taf_trigger": false,
      "metar": "METAR LEBL 310800Z 31007KT 270V340 9999 FEW020 14/08 Q1018 NOSIG",
      "taf": "TAF LEBL 310500Z 3106/0106 VRB04KT CAVOK TX17/3112Z TN09/3106Z"
    },
    {
      "icao": "LECH",
      "alert": "OK",
      "vis_m": 9999,
      "fzfg": false,
      "metar_trigger": false,
      "taf_trigger": false,
      "metar": "METAR LECH 310800Z AUTO 33028G46KT 290V010 CAVOK 14/02 Q1018",
      "taf": ""
    },
    {
      "icao": "LEMD",
      "alert": "OK",
      "vis_m": 9999,
      "fzfg": false,
      "metar_trigger": false,
      "taf_trigger": false,
      "metar": "METAR LEMD 310800Z 02011KT 340V050 CAVOK 12/03 Q1026 NOSIG",
      "taf": "TAF LEMD 310500Z 3106/0112 36012KT CAVOK TX20/3115Z TN06/0106Z"
    },
    {
      "icao": "LEMG",
      "alert": "OK",
      "vis_m": 9999,
      "fzfg": false,
      "metar_trigger": false,
      "taf_trigger": false,
      "metar": "METAR LEMG 310800Z 30011KT 260V330 CAVOK 17/05 Q1022 NOSIG",
      "taf": "TAF LEMG 310500Z 3106/0106 29008KT CAVOK TX23/3113Z TN10/3107Z"
    },
    {
      "icao": "LEVC",
      "alert": "OK",
      "vis_m": 9999,
      "fzfg": false,
      "metar_trigger": false,
      "taf_trigger": false,
      "metar": "METAR LEVC 310800Z 30008KT 280V340 CAVOK 18/03 Q1020 NOSIG",
      "taf": "TAF LEVC 310500Z 3106/0106 VRB04KT CAVOK TX24/3112Z TN08/0105Z"
    },
    {
      "icao": "LEXJ",
      "alert": "OK",
      "vis_m": 8000,
      "fzfg": false,
      "metar_trigger": false,
      "taf_trigger": false,
      "metar": "METAR LEXJ 310800Z 28001KT 8000 SCT023 OVC050 12/08 Q1034",
      "taf": ""
    },
    {
      "icao": "LEZG",
      "alert": "OK",
      "vis_m": 9999,
      "fzfg": false,
      "metar_trigger": false,
      "taf_trigger": false,
      "metar": "METAR LEZG 310800Z 29020G31KT 260V330 9999 FEW040 12/03 Q1026 NOSIG",
      "taf": "TAF LEZG 310500Z 3106/0106 32020KT 9999 FEW045 TX17/3114Z TN09/0105Z"
    },
    {
      "icao": "LEZL",
      "alert": "OK",
      "vis_m": 9999,
      "fzfg": false,
      "metar_trigger": false,
      "taf_trigger": false,
      "metar": "METAR LEZL 310800Z VRB02KT CAVOK 15/07 Q1024 NOSIG",
      "taf": "TAF LEZL 310200Z 3103/0103 VRB02KT CAVOK TX29/3115Z TN10/3107Z"
    },
    {
      "icao": "LFBD",
      "alert": "OK",
      "vis_m": 9999,
      "fzfg": false,
      "metar_trigger": false,
      "taf_trigger": false,
      "metar": "METAR LFBD 310800Z AUTO 33003KT 270V030 CAVOK 09/06 Q1033 NOSIG",
      "taf": "TAF LFBD 310500Z 3106/0112 35005KT 9999 SCT040 TX15/3114Z TN05/3106Z"
    },
    {
      "icao": "LFLL",
      "alert": "OK",
      "vis_m": 9999,
      "fzfg": false,
      "metar_trigger": false,
      "taf_trigger": false,
      "metar": "METAR LFLL 310800Z 36018KT 9999 BKN018 06/01 Q1027 TEMPO SCT018",
      "taf": "TAF LFLL 310500Z 3106/0112 35010KT 9999 BKN040"
    },
    {
      "icao": "LFLS",
      "alert": "OK",
      "vis_m": 9999,
      "fzfg": false,
      "metar_trigger": false,
      "taf_trigger": false,
      "metar": "METAR LFLS 310800Z AUTO 34017KT CAVOK 05/01 Q1025 TEMPO 35020G30KT",
      "taf": "TAF LFLS 310200Z 3103/0103 35014KT 9999 SCT030"
    },
    {
      "icao": "LFMN",
      "alert": "OK",
      "vis_m": 9999,
      "fzfg": false,
      "metar_trigger": false,
      "taf_trigger": false,
      "metar": "METAR LFMN 310800Z 36013KT 330V030 CAVOK 16/M06 Q1013 NOSIG",
      "taf": "TAF LFMN 310200Z 3103/0109 33010KT CAVOK"
    },
    {
      "icao": "LFOB",
      "alert": "OK",
      "vis_m": 9999,
      "fzfg": false,
      "metar_trigger": false,
      "taf_trigger": false,
      "metar": "METAR LFOB 310800Z AUTO 31006KT 280V340 CAVOK 09/06 Q1030 NOSIG",
      "taf": "TAF LFOB 310500Z 3106/0106 32007KT 9999 SCT030"
    },
    {
      "icao": "LFPO",
      "alert": "OK",
      "vis_m": 9999,
      "fzfg": false,
      "metar_trigger": false,
      "taf_trigger": false,
      "metar": "METAR LFPO 310800Z 32007KT 9999 FEW038 BKN050 09/04 Q1031 NOSIG",
      "taf": "TAF LFPO 310500Z 3106/0112 33006KT CAVOK"
    },
    {
      "icao": "LFSB",
      "alert": "OK",
      "vis_m": 9999,
      "fzfg": false,
      "metar_trigger": false,
      "taf_trigger": false,
      "metar": "METAR LFSB 310800Z AUTO 35008KT 9999 -RA BKN020 BKN027 OVC032 04/02 Q1027 NOSIG",
      "taf": "TAF LFSB 310500Z 3106/0106 35005KT 9999 FEW015 BKN025"
    },
    {
      "icao": "LGAV",
      "alert": "OK",
      "vis_m": 9999,
      "fzfg": false,
      "metar_trigger": false,
      "taf_trigger": false,
      "metar": "METAR LGAV 310750Z VRB02KT 9999 SCT025 BKN060 16/09 Q1007 NOSIG",
      "taf": "TAF LGAV 310500Z 3106/0106 VRB05KT 9999 FEW025"
    },
    {
      "icao": "LGTS",
      "alert": "OK",
      "vis_m": 9999,
      "fzfg": false,
      "metar_trigger": false,
      "taf_trigger": false,
      "metar": "METAR LGTS 310750Z 29005KT 9999 FEW018 SCT025 14/10 Q1007 NOSIG",
      "taf": "TAF LGTS 310500Z 3106/0106 VRB03KT 9999 SCT025"
    },
    {
      "icao": "LHBP",
      "alert": "OK",
      "vis_m": 9999,
      "fzfg": false,
      "metar_trigger": false,
      "taf_trigger": false,
      "metar": "METAR LHBP 310800Z 36008KT 9999 FEW010 OVC016 05/03 Q1011 NOSIG",
      "taf": "TAF LHBP 310515Z 3106/0106 33008KT 9999 SCT020 OVC040"
    },
    {
      "icao": "LHDC",
      "alert": "OK",
      "vis_m": 9000,
      "fzfg": false,
      "metar_trigger": false,
      "taf_trigger": false,
      "metar": "METAR LHDC 310745Z AUTO 02005KT 340V050 9000 OVC010 06/04 Q1010 TEMPO BKN009",
      "taf": "TAF LHDC 310515Z 3106/3115 02008KT 9999 OVC020"
    },
    {
      "icao": "LIBD",
      "alert": "OK",
      "vis_m": 9999,
      "fzfg": false,
      "metar_trigger": false,
      "taf_trigger": false,
      "metar": "METAR LIBD 310750Z 25005KT 220V280 9999 OVC012 09/08 Q1004",
      "taf": "TAF LIBD 310500Z 3106/0106 34008KT 9999 SCT030"
    },
    {
      "icao": "LIBG",
      "alert": "OK",
      "vis_m": 9999,
      "fzfg": false,
      "metar_trigger": false,
      "taf_trigger": false,
      "metar": "METAR LIBG 310750Z 06013KT 9999 SCT015 12/12 Q1003",
      "taf": "TAF LIBG 310615Z 3107/3115 04010KT 9999 SCT020"
    },
    {
      "icao": "LIBP",
      "alert": "OK",
      "vis_m": 9999,
      "fzfg": false,
      "metar_trigger": false,
      "taf_trigger": false,
      "metar": "METAR LIBP 310750Z AUTO 01009KT 340V040 9999 RA OVC021/// 08/06 Q1009",
      "taf": "TAF LIBP 310500Z 3106/0106 34015KT 9999 SCT030"
    },
    {
      "icao": "LIBR",
      "alert": "OK",
      "vis_m": 9999,
      "fzfg": false,
      "metar_trigger": false,
      "taf_trigger": false,
      "metar": "METAR LIBR 310750Z 11008KT 080V140 9999 FEW010 SCT020 12/10 Q1004",
      "taf": "TAF LIBR 310500Z 3106/0106 14014KT 9999 BKN030"
    },
    {
      "icao": "LICA",
      "alert": "OK",
      "vis_m": 9999,
      "fzfg": false,
      "metar_trigger": false,
      "taf_trigger": false,
      "metar": "METAR LICA 310750Z AUTO 07013KT 9999 FEW086/// 13/10 Q1002",
      "taf": "TAF LICA 310500Z 3106/0106 08013KT 9999 SCT020"
    },
    {
      "icao": "LICC",
      "alert": "OK",
      "vis_m": 5000,
      "fzfg": false,
      "metar_trigger": false,
      "taf_trigger": false,
      "metar": "METAR LICC 310750Z 26003KT 230V290 5000 -RA SCT025 BKN050 11/07 Q1002",
      "taf": "TAF LICC 310500Z 3106/0106 26005KT 9999 SCT040"
    },
    {
      "icao": "LICJ",
      "alert": "OK",
      "vis_m": 9000,
      "fzfg": false,
      "metar_trigger": false,
      "taf_trigger": false,
      "metar": "METAR LICJ 310750Z 02011KT 9000 -RA FEW012 SCT030 BKN045 10/07 Q1000",
      "taf": "TAF LICJ 310500Z 3106/0106 21015KT 9999 SCT030"
    },
    {
      "icao": "LIMC",
      "alert": "OK",
      "vis_m": 9999,
      "fzfg": false,
      "metar_trigger": false,
      "taf_trigger": false,
      "metar": "METAR LIMC 310750Z 36009G19KT 310V050 CAVOK 12/M07 Q1016 NOSIG",
      "taf": "TAF LIMC 310500Z 3106/0112 01011KT CAVOK"
    },
    {
      "icao": "LIME",
      "alert": "OK",
      "vis_m": 9999,
      "fzfg": false,
      "metar_trigger": false,
      "taf_trigger": false,
      "metar": "METAR LIME 310750Z 36009KT 310V040 CAVOK 12/M11 Q1014 NOSIG",
      "taf": "TAF LIME 310500Z 3106/0106 01014KT 9999 SCT040"
    },
    {
      "icao": "LIMF",
      "alert": "OK",
      "vis_m": 9999,
      "fzfg": false,
      "metar_trigger": false,
      "taf_trigger": false,
      "metar": "METAR LIMF 310750Z VRB04KT CAVOK 09/M01 Q1016",
      "taf": "TAF LIMF 310500Z 3106/0106 VRB05KT CAVOK"
    },
    {
      "icao": "LIMJ",
      "alert": "OK",
      "vis_m": 9999,
      "fzfg": false,
      "metar_trigger": false,
      "taf_trigger": false,
      "metar": "METAR LIMJ 310750Z 03013G23KT 340V060 CAVOK 12/M06 Q1014",
      "taf": "TAF LIMJ 310500Z 3106/0106 02016KT CAVOK"
    },
    {
      "icao": "LIPE",
      "alert": "OK",
      "vis_m": 9999,
      "fzfg": false,
      "metar_trigger": false,
      "taf_trigger": false,
      "metar": "METAR LIPE 310750Z 28003KT 220V330 CAVOK 09/03 Q1014",
      "taf": ""
    },
    {
      "icao": "LIPH",
      "alert": "OK",
      "vis_m": 9999,
      "fzfg": false,
      "metar_trigger": false,
      "taf_trigger": false,
      "metar": "METAR LIPH 310750Z VRB01KT CAVOK 12/M04 Q1013",
      "taf": "TAF LIPH 310500Z 3106/0106 VRB06KT 9999 SCT040"
    },
    {
      "icao": "LIPQ",
      "alert": "OK",
      "vis_m": 9999,
      "fzfg": false,
      "metar_trigger": false,
      "taf_trigger": false,
      "metar": "METAR LIPQ 310750Z AUTO VRB02KT 9999 NCD 10/00 Q1013",
      "taf": ""
    },
    {
      "icao": "LIPR",
      "alert": "OK",
      "vis_m": 9999,
      "fzfg": false,
      "metar_trigger": false,
      "taf_trigger": false,
      "metar": "METAR LIPR 310750Z 05014KT 9999 FEW040 BKN070 11/00 Q1012",
      "taf": "TAF LIPR 310500Z 3106/0106 03007KT 9999 BKN070"
    },
    {
      "icao": "LIPX",
      "alert": "OK",
      "vis_m": 9999,
      "fzfg": false,
      "metar_trigger": false,
      "taf_trigger": false,
      "metar": "METAR LIPX 310750Z 01014KT 330V030 CAVOK 13/M10 Q1014",
      "taf": "TAF LIPX 310500Z 3106/0106 04015KT CAVOK"
    },
    {
      "icao": "LIPY",
      "alert": "OK",
      "vis_m": 9999,
      "fzfg": false,
      "metar_trigger": false,
      "taf_trigger": false,
      "metar": "METAR LIPY 310750Z AUTO 04014KT 9999 FEW087/// 11/04 Q1010",
      "taf": "TAF LIPY 310500Z 3106/0106 03015KT 9999 SCT040"
    },
    {
      "icao": "LIPZ",
      "alert": "OK",
      "vis_m": 9999,
      "fzfg": false,
      "metar_trigger": false,
      "taf_trigger": false,
      "metar": "METAR LIPZ 310750Z 35004KT 330V030 CAVOK 11/00 Q1013 NOSIG",
      "taf": "TAF LIPZ 310500Z 3106/0112 03008KT 9999 SCT040"
    },
    {
      "icao": "LIRF",
      "alert": "OK",
      "vis_m": 9999,
      "fzfg": false,
      "metar_trigger": false,
      "taf_trigger": false,
      "metar": "METAR LIRF 310750Z 01017KT CAVOK 11/03 Q1004 NOSIG",
      "taf": "TAF LIRF 310500Z 3106/0112 01015KT 9999 SCT040"
    },
    {
      "icao": "LIRN",
      "alert": "OK",
      "vis_m": 9999,
      "fzfg": false,
      "metar_trigger": false,
      "taf_trigger": false,
      "metar": "METAR LIRN 310750Z 06007KT 9999 FEW040 BKN070 10/04 Q1003 NOSIG",
      "taf": "TAF LIRN 310500Z 3106/0106 04012KT 9999 SCT040"
    },
    {
      "icao": "LIRP",
      "alert": "OK",
      "vis_m": 9999,
      "fzfg": false,
      "metar_trigger": false,
      "taf_trigger": false,
      "metar": "METAR LIRP 310745Z VRB02KT CAVOK 11/02 Q1012 NOSIG",
      "taf": "TAF LIRP 310500Z 3106/0106 05005KT 9999 SCT080"
    },
    {
      "icao": "LIRZ",
      "alert": "OK",
      "vis_m": 9999,
      "fzfg": false,
      "metar_trigger": false,
      "taf_trigger": false,
      "metar": "METAR LIRZ 310750Z AUTO 03022KT 9999 NCD 09/01 Q1008",
      "taf": "TAF LIRZ 310500Z 3106/0106 03010KT 9999 SCT030"
    },
    {
      "icao": "LJLJ",
      "alert": "OK",
      "vis_m": 9999,
      "fzfg": true,
      "metar_trigger": false,
      "taf_trigger": false,
      "metar": "METAR LJLJ 310800Z 14006KT 100V190 9999 FEW060 07/01 Q1013 NOSIG",
      "taf": "TAF LJLJ 310500Z 3106/0106 VRB02KT 0800 FZFG BKN001"
    },
    {
      "icao": "LKMT",
      "alert": "OK",
      "vis_m": 7000,
      "fzfg": false,
      "metar_trigger": false,
      "taf_trigger": false,
      "metar": "METAR LKMT 310800Z 01009KT 7000 -RA BKN010 OVC020 04/03 Q1016 NOSIG",
      "taf": "TAF LKMT 310500Z 3106/0106 02008KT 9999 -RA BKN017 OVC035"
    },
    {
      "icao": "LKPR",
      "alert": "OK",
      "vis_m": 9999,
      "fzfg": false,
      "metar_trigger": false,
      "taf_trigger": false,
      "metar": "METAR LKPR 310800Z 32012KT 9999 BKN016 BKN049 04/02 Q1020 NOSIG",
      "taf": "TAF LKPR 310500Z 3106/0112 30007KT 9999 SCT018 BKN020"
    },
    {
      "icao": "LLBG",
      "alert": "OK",
      "vis_m": 9999,
      "fzfg": false,
      "metar_trigger": false,
      "taf_trigger": false,
      "metar": "METAR LLBG 310750Z 19005KT 9999 FEW025 SCT045 19/11 Q1014 NOSIG",
      "taf": "TAF LLBG 310501Z 3106/0106 VRB04KT 9999 SCT035 TX21/3112Z TN13/0101Z"
    },
    {
      "icao": "LMML",
      "alert": "OK",
      "vis_m": 9999,
      "fzfg": false,
      "metar_trigger": false,
      "taf_trigger": false,
      "metar": "METAR LMML 310745Z 22017KT 9999 SCT020TCU 14/10 Q1004 NOSIG",
      "taf": "TAF LMML 310500Z 3106/0106 25012KT 9999 SCT022"
    },
    {
      "icao": "LOWW",
      "alert": "OK",
      "vis_m": 9999,
      "fzfg": false,
      "metar_trigger": false,
      "taf_trigger": false,
      "metar": "METAR LOWW 310750Z 32015KT 9999 -RA FEW011 BKN016 BKN022 05/03 Q1017 NOSIG",
      "taf": "TAF LOWW 310515Z 3106/0112 32015KT 9999 BKN030 TX11/0112Z TN04/0104Z"
    },
    {
      "icao": "LPFR",
      "alert": "OK",
      "vis_m": 9999,
      "fzfg": false,
      "metar_trigger": false,
      "taf_trigger": false,
      "metar": "METAR LPFR 310800Z 01007KT 330V040 CAVOK 19/06 Q1024",
      "taf": "TAF LPFR 310500Z 3106/0106 VRB05KT CAVOK"
    },
    {
      "icao": "LPMA",
      "alert": "OK",
      "vis_m": 9999,
      "fzfg": false,
      "metar_trigger": false,
      "taf_trigger": false,
      "metar": "METAR LPMA 310800Z 03014KT 360V060 9999 BKN016 16/10 Q1024",
      "taf": "TAF LPMA 310500Z 3106/0106 01015KT 9999 SCT015"
    },
    {
      "icao": "LPPR",
      "alert": "OK",
      "vis_m": 9999,
      "fzfg": false,
      "metar_trigger": false,
      "taf_trigger": false,
      "metar": "METAR LPPR 310800Z 06006KT CAVOK 15/08 Q1029",
      "taf": "TAF LPPR 310500Z 3106/0106 04005KT CAVOK"
    },
    {
      "icao": "LPPS",
      "alert": "OK",
      "vis_m": 9999,
      "fzfg": false,
      "metar_trigger": false,
      "taf_trigger": false,
      "metar": "METAR LPPS 310800Z 08019KT 9999 FEW015 16/11 Q1024",
      "taf": "TAF LPPS 310500Z 3106/0112 08015KT 9999 SCT015"
    },
    {
      "icao": "LPPT",
      "alert": "OK",
      "vis_m": 9999,
      "fzfg": false,
      "metar_trigger": false,
      "taf_trigger": false,
      "metar": "METAR LPPT 310800Z 03007KT 350V060 CAVOK 17/07 Q1026",
      "taf": "TAF LPPT 310500Z 3106/0112 03005KT CAVOK"
    },
    {
      "icao": "LQBK",
      "alert": "OK",
      "vis_m": 9999,
      "fzfg": false,
      "metar_trigger": false,
      "taf_trigger": false,
      "metar": "METAR LQBK 310800Z 31005KT 260V340 9999 BKN030 06/02 Q1014 NOSIG",
      "taf": "TAF LQBK 310500Z 3106/0106 36005KT 9999 SCT015 OVC030 TX06/3114Z TN03/3106Z"
    },
    {
      "icao": "LQSA",
      "alert": "OK",
      "vis_m": 6000,
      "fzfg": false,
      "metar_trigger": false,
      "taf_trigger": false,
      "metar": "METAR LQSA 310800Z 28003KT 240V310 6000 -DZ SCT009 BKN015 OVC025 02/02 Q1012 NOSIG",
      "taf": "TAF LQSA 310500Z 3106/0106 30007KT 7000 -RA SCT015 BKN030 TX07/3113Z TN01/0105Z"
    },
    {
      "icao": "LQTZ",
      "alert": "OK",
      "vis_m": 1200,
      "fzfg": false,
      "metar_trigger": false,
      "taf_trigger": false,
      "metar": "METAR LQTZ 310800Z 31002KT 1200 R09/1300N BR SCT001 OVC007 02/02 Q1013",
      "taf": "TAF LQTZ 310500Z 3106/0106 28005KT 9999 SCT012 BKN025 TX07/3113Z TN01/3106Z"
    },
    {
      "icao": "LRBC",
      "alert": "OK",
      "vis_m": 9999,
      "fzfg": false,
      "metar_trigger": false,
      "taf_trigger": false,
      "metar": "METAR LRBC 310800Z 35004KT 9999 OVC035 09/07 Q1006",
      "taf": "TAF LRBC 310500Z 3106/3115 33007KT 9999 OVC040"
    },
    {
      "icao": "LRBS",
      "alert": "OK",
      "vis_m": 9999,
      "fzfg": false,
      "metar_trigger": false,
      "taf_trigger": false,
      "metar": "METAR LRBS 310800Z 25008KT 9999 -RA BKN007 OVC022 07/05 Q1007 BECMG SCT010 BKN025",
      "taf": "TAF LRBS 310500Z 3106/0106 25008KT 9999 BKN010 BKN035"
    },
    {
      "icao": "LRBV",
      "alert": "OK",
      "vis_m": 9999,
      "fzfg": false,
      "metar_trigger": false,
      "taf_trigger": false,
      "metar": "METAR LRBV 310800Z 29011KT 9999 -RADZ BKN010 OVC028 06/04 Q1008",
      "taf": "TAF LRBV 310500Z 3106/3115 29010KT 9999 BKN020 BKN035"
    },
    {
      "icao": "LRCL",
      "alert": "OK",
      "vis_m": 9999,
      "fzfg": false,
      "metar_trigger": false,
      "taf_trigger": false,
      "metar": "METAR LRCL 310800Z VRB02KT 9999 -RA BKN024 07/04 Q1009",
      "taf": "TAF LRCL 310500Z 3106/3115 31006KT 9999 BKN020 BKN035"
    },
    {
      "icao": "LRCV",
      "alert": "OK",
      "vis_m": 9999,
      "fzfg": false,
      "metar_trigger": false,
      "taf_trigger": false,
      "metar": "METAR LRCV 310800Z 27011KT 9999 OVC028 08/04 Q1007",
      "taf": "TAF LRCV 310500Z 3106/3115 25012KT 9999 BKN025"
    },
    {
      "icao": "LRIA",
      "alert": "OK",
      "vis_m": 6000,
      "fzfg": false,
      "metar_trigger": false,
      "taf_trigger": false,
      "metar": "METAR LRIA 310800Z 30013KT 6000 -RA OVC005 08/06 Q1005",
      "taf": "TAF LRIA 310500Z 3106/3115 30012KT 5000 -RA BR BKN015 OVC040"
    },
    {
      "icao": "LROP",
      "alert": "OK",
      "vis_m": 8000,
      "fzfg": false,
      "metar_trigger": false,
      "taf_trigger": false,
      "metar": "METAR LROP 310800Z 24007KT 8000 -RA BKN007 BKN040 07/07 Q1007 NOSIG",
      "taf": "TAF LROP 310500Z 3106/0106 23008KT 9999 SCT020 OVC045"
    },
    {
      "icao": "LRSB",
      "alert": "OK",
      "vis_m": 9999,
      "fzfg": false,
      "metar_trigger": false,
      "taf_trigger": false,
      "metar": "METAR LRSB 310800Z 31006KT 9999 -RA FEW015 OVC028 06/03 Q1008",
      "taf": "TAF LRSB 310500Z 3106/0106 30006KT 9999 SCT010 OVC035"
    },
    {
      "icao": "LRSM",
      "alert": "OK",
      "vis_m": 6000,
      "fzfg": false,
      "metar_trigger": false,
      "taf_trigger": false,
      "metar": "METAR LRSM 310800Z 25009KT 6000 -RA BKN005 OVC008 06/05 Q1010",
      "taf": "TAF LRSM 310500Z 3106/3115 25008KT 5000 -RADZ BR BKN005 OVC015"
    },
    {
      "icao": "LRSV",
      "alert": "OK",
      "vis_m": 9000,
      "fzfg": false,
      "metar_trigger": false,
      "taf_trigger": false,
      "metar": "METAR LRSV 310800Z 30014KT 9000 -RA BKN008 BKN032 06/05 Q1005",
      "taf": "TAF LRSV 310500Z 3106/3115 32012KT 9999 OVC040"
    },
    {
      "icao": "LRTM",
      "alert": "OK",
      "vis_m": 9000,
      "fzfg": false,
      "metar_trigger": false,
      "taf_trigger": false,
      "metar": "METAR LRTM 310800Z 26009KT 9000 -RA SCT008 BKN013 OVC022 07/06 Q1008",
      "taf": "TAF LRTM 310500Z 3106/3115 23008KT 9999 BKN010 OVC025"
    },
    {
      "icao": "LRTR",
      "alert": "OK",
      "vis_m": 9999,
      "fzfg": false,
      "metar_trigger": false,
      "taf_trigger": false,
      "metar": "METAR LRTR 310800Z 29005KT 9999 SCT008 OVC034 06/06 Q1011 NOSIG",
      "taf": "TAF LRTR 310500Z 3106/0106 24006KT 9999 BKN015 BKN025"
    },
    {
      "icao": "LTAC",
      "alert": "OK",
      "vis_m": 9999,
      "fzfg": false,
      "metar_trigger": false,
      "taf_trigger": false,
      "metar": "METAR LTAC 310750Z 25004KT 210V280 9999 FEW017 BKN021 BKN080 09/04 Q1011 NOSIG RMK RWY21C 22004KT 190V250 RWY03L 20005KT 160V240 RWY21R 20004KT 150V240 RWY03R 26003KT 200V310 RWY21L 20005KT 150V240",
      "taf": "TAF LTAC 310440Z 3106/0106 VRB02KT 9999 BKN020"
    },
    {
      "icao": "LTFM",
      "alert": "OK",
      "vis_m": 9999,
      "fzfg": false,
      "metar_trigger": false,
      "taf_trigger": false,
      "metar": "METAR LTFM 310750Z 21011KT 9999 SCT040 BKN080 12/09 Q1009 NOSIG RMK RWY17L 20012KT RWY34L 21012KT RWY16R 21012KT RWY36 21013KT RWY18 21012KT",
      "taf": "TAF LTFM 310440Z 3106/0112 21012KT 9999 SCT040 BKN080"
    },
    {
      "icao": "LUKK",
      "alert": "OK",
      "vis_m": 9999,
      "fzfg": false,
      "metar_trigger": false,
      "taf_trigger": false,
      "metar": "METAR LUKK 310800Z 33008KT 9999 -RA OVC011 10/08 Q1004 TEMPO BKN012",
      "taf": "TAF LUKK 310514Z 3106/0106 31009KT 9999 BKN007 OVC015"
    },
    {
      "icao": "LWOH",
      "alert": "OK",
      "vis_m": 9999,
      "fzfg": false,
      "metar_trigger": false,
      "taf_trigger": false,
      "metar": "METAR LWOH 310750Z 33008KT 290V020 9999 FEW040 10/03 Q1006",
      "taf": ""
    },
    {
      "icao": "LWSK",
      "alert": "OK",
      "vis_m": 9999,
      "fzfg": false,
      "metar_trigger": false,
      "taf_trigger": false,
      "metar": "METAR LWSK 310750Z 34009KT 310V030 9999 FEW023 BKN050 09/02 Q1009 NOSIG",
      "taf": ""
    },
    {
      "icao": "LYBE",
      "alert": "OK",
      "vis_m": 9999,
      "fzfg": false,
      "metar_trigger": false,
      "taf_trigger": false,
      "metar": "METAR LYBE 310800Z 28010KT 9999 BKN014 07/04 Q1012 NOSIG",
      "taf": "TAF LYBE 310500Z 3106/0106 27010KT 9999 SCT015 BKN027 TX09/3113Z TN04/3106Z"
    },
    {
      "icao": "LYNI",
      "alert": "OK",
      "vis_m": 9999,
      "fzfg": false,
      "metar_trigger": false,
      "taf_trigger": false,
      "metar": "METAR LYNI 310800Z 31006KT 270V330 9999 BKN013 BKN027 06/04 Q1011 BECMG FM0830 SCT015 BKN023",
      "taf": "TAF LYNI 310500Z 3106/0106 32010KT 9999 SCT016 BKN023 TX10/3112Z TN04/3106Z"
    },
    {
      "icao": "LYPG",
      "alert": "OK",
      "vis_m": 9999,
      "fzfg": false,
      "metar_trigger": false,
      "taf_trigger": false,
      "metar": "METAR LYPG 310800Z 09004KT 050V130 9999 FEW050 SCT080 13/05 Q1007 NOSIG",
      "taf": "TAF LYPG 310500Z 3106/0106 34006KT 9999 SCT040 BKN080 TX14/3114Z TN08/3106Z"
    },
    {
      "icao": "LZIB",
      "alert": "OK",
      "vis_m": 9999,
      "fzfg": false,
      "metar_trigger": false,
      "taf_trigger": false,
      "metar": "METAR LZIB 310800Z 34017KT 9999 FEW011 SCT020 07/03 Q1015 NOSIG",
      "taf": "TAF LZIB 310515Z 3106/0106 32014KT 9999 SCT040"
    },
    {
      "icao": "LZKZ",
      "alert": "OK",
      "vis_m": 9999,
      "fzfg": false,
      "metar_trigger": false,
      "taf_trigger": false,
      "metar": "METAR LZKZ 310800Z 35013KT 9999 -RA OVC035 05/02 Q1011 NOSIG",
      "taf": "TAF LZKZ 310515Z 3106/0106 01016KT 9999 BKN040"
    },
    {
      "icao": "LZTT",
      "alert": "OK",
      "vis_m": 2000,
      "fzfg": false,
      "metar_trigger": false,
      "taf_trigger": false,
      "metar": "METAR LZTT 310800Z VRB02KT 2000 -SN BR FEW005 BKN015 OVC030 01/01 Q1011 BECMG 4500 -SNRA BR",
      "taf": "TAF LZTT 310515Z 3106/0106 VRB02KT 4500 BR BKN016"
    },
    {
      "icao": "OEJN",
      "alert": "OK",
      "vis_m": 9999,
      "fzfg": false,
      "metar_trigger": false,
      "taf_trigger": false,
      "metar": "METAR OEJN 310800Z 31006KT CAVOK 32/10 Q1011 NOSIG",
      "taf": "TAF OEJN 310500Z 3106/0112 32012KT CAVOK"
    },
    {
      "icao": "OEMA",
      "alert": "OK",
      "vis_m": 9999,
      "fzfg": false,
      "metar_trigger": false,
      "taf_trigger": false,
      "metar": "METAR OEMA 310800Z 28008KT CAVOK 28/05 Q1015 NOSIG",
      "taf": "TAF OEMA 310500Z 3106/0112 36010KT CAVOK"
    },
    {
      "icao": "OJAI",
      "alert": "OK",
      "vis_m": 4000,
      "fzfg": false,
      "metar_trigger": false,
      "taf_trigger": false,
      "metar": "METAR OJAI 310800Z 22003KT 4000 HZ BKN035 13/08 Q1016 NOSIG",
      "taf": "TAF OJAI 310450Z 3106/0112 27010KT 5000 HZ SCT035"
    },
    {
      "icao": "OMAA",
      "alert": "OK",
      "vis_m": null,
      "fzfg": false,
      "metar_trigger": false,
      "taf_trigger": false,
      "metar": "",
      "taf": ""
    },
    {
      "icao": "OMDB",
      "alert": "OK",
      "vis_m": null,
      "fzfg": false,
      "metar_trigger": false,
      "taf_trigger": false,
      "metar": "",
      "taf": ""
    },
    {
      "icao": "UAAA",
      "alert": "OK",
      "vis_m": 9999,
      "fzfg": false,
      "metar_trigger": false,
      "taf_trigger": false,
      "metar": "METAR UAAA 310800Z 03002MPS 350V110 9999 SCT100 BKN200 23/01 Q1010 NOSIG",
      "taf": "TAF UAAA 310502Z 3106/0106 34003MPS 9999 FEW050CB BKN100 TX24/3109Z TN08/0101Z"
    },
    {
      "icao": "UBBB",
      "alert": "OK",
      "vis_m": 9999,
      "fzfg": false,
      "metar_trigger": false,
      "taf_trigger": false,
      "metar": "METAR UBBB 310800Z 01008KT 9999 FEW029 17/10 Q1004 NOSIG",
      "taf": "TAF UBBB 310457Z 3106/0106 15006KT 9999 SCT025 TX16/3110Z TN08/0101Z"
    },
    {
      "icao": "UDSG",
      "alert": "OK",
      "vis_m": 9999,
      "fzfg": false,
      "metar_trigger": false,
      "taf_trigger": false,
      "metar": "METAR UDSG 310800Z 34002KT 9999 BKN049 07/M03 Q1009 NOSIG",
      "taf": "TAF UDSG 310458Z 3106/0106 27006KT 9999 SCT040"
    },
    {
      "icao": "UDYZ",
      "alert": "OK",
      "vis_m": 9999,
      "fzfg": false,
      "metar_trigger": false,
      "taf_trigger": false,
      "metar": "METAR UDYZ 310800Z 28006KT 250V320 9999 SCT043CB 14/01 Q1008 NOSIG",
      "taf": "TAF UDYZ 310500Z 3106/0106 24006KT 9999 SCT040"
    },
    {
      "icao": "UGKO",
      "alert": "OK",
      "vis_m": 9999,
      "fzfg": false,
      "metar_trigger": false,
      "taf_trigger": false,
      "metar": "METAR UGKO 310800Z 27004KT 230V310 CAVOK 13/09 Q1009 NOSIG",
      "taf": "TAF UGKO 310500Z 3106/0106 26007KT CAVOK TX18/3111Z TN05/0103Z"
    }
  ]
}