{
  "ts_utc": "2025-12-21T23:26:54Z",
  "threshold_m": 150,
  "source": "stations_override.txt (ICAO list) + aviationweather.gov (METAR/TAF raw)",
  "station_count": 114,
  "stations": [
    {
      "icao": "BIKF",
      "alert": "OK",
      "vis_m": 6000,
      "fzfg": false,
      "metar_trigger": false,
      "taf_trigger": false,
      "metar": "METAR BIKF 212300Z 13023G33KT 6000 -RA SCT009 BKN021 07/06 Q1004",
      "taf": "TAF BIKF 212256Z 2200/2300 13022G32KT 9999 BKN022 TX08/2200Z TN03/2221Z"
    },
    {
      "icao": "BKPR",
      "alert": "OK",
      "vis_m": null,
      "fzfg": false,
      "metar_trigger": false,
      "taf_trigger": false,
      "metar": "",
      "taf": "TAF BKPR 211730Z 2118/2218 VRB03KT 3000 BR BKN010"
    },
    {
      "icao": "EBBR",
      "alert": "OK",
      "vis_m": 9999,
      "fzfg": false,
      "metar_trigger": false,
      "taf_trigger": false,
      "metar": "METAR EBBR 212320Z 12006KT CAVOK 05/03 Q1007 NOSIG",
      "taf": "TAF EBBR 212302Z 2200/2306 09005KT CAVOK"
    },
    {
      "icao": "EBCI",
      "alert": "OK",
      "vis_m": 9999,
      "fzfg": false,
      "metar_trigger": false,
      "taf_trigger": false,
      "metar": "METAR EBCI 212320Z 10003KT CAVOK 06/02 Q1007 NOSIG",
      "taf": "TAF EBCI 212302Z 2200/2306 05004KT CAVOK"
    },
    {
      "icao": "EDDB",
      "alert": "OK",
      "vis_m": 7000,
      "fzfg": false,
      "metar_trigger": false,
      "taf_trigger": false,
      "metar": "METAR EDDB 212320Z AUTO 10012KT 7000 OVC004 05/04 Q1019 TEMPO 4000 BR OVC005",
      "taf": "TAF EDDB 212300Z 2200/2224 08010KT 6000 OVC004"
    },
    {
      "icao": "EDDH",
      "alert": "OK",
      "vis_m": 5000,
      "fzfg": false,
      "metar_trigger": false,
      "taf_trigger": false,
      "metar": "METAR EDDH 212320Z AUTO 10010KT 5000 BR OVC002 05/05 Q1017 TEMPO 3500",
      "taf": "TAF EDDH 212300Z 2200/2306 10011KT 6000 OVC002"
    },
    {
      "icao": "EDDK",
      "alert": "OK",
      "vis_m": 9999,
      "fzfg": false,
      "metar_trigger": false,
      "taf_trigger": false,
      "metar": "METAR EDDK 212320Z AUTO 09006KT 060V120 CAVOK 08/02 Q1008 NOSIG",
      "taf": "TAF EDDK 212300Z 2200/2306 11006KT CAVOK"
    },
    {
      "icao": "EDDN",
      "alert": "OK",
      "vis_m": 9999,
      "fzfg": false,
      "metar_trigger": false,
      "taf_trigger": false,
      "metar": "METAR EDDN 212320Z AUTO 11011KT 070V130 9999 OVC010 01/M00 Q1011",
      "taf": "TAF EDDN 212300Z 2200/2224 10006KT 9999 BKN010"
    },
    {
      "icao": "EDFH",
      "alert": "OK",
      "vis_m": 9999,
      "fzfg": false,
      "metar_trigger": false,
      "taf_trigger": false,
      "metar": "METAR EDFH 212320Z 13015G25KT 070V200 CAVOK 03/00 Q1007",
      "taf": "TAF EDFH 212300Z 2200/2224 13012KT CAVOK"
    },
    {
      "icao": "EDJA",
      "alert": "OK",
      "vis_m": 1400,
      "fzfg": false,
      "metar_trigger": false,
      "taf_trigger": false,
      "metar": "METAR EDJA 212320Z AUTO 07006KT 1400 1200 R06/1900D // VV/// M02/M02 Q1009",
      "taf": "TAF EDJA 211700Z 2118/2203 06004KT 4000 BR OVC002"
    },
    {
      "icao": "EDLW",
      "alert": "OK",
      "vis_m": 9999,
      "fzfg": false,
      "metar_trigger": false,
      "taf_trigger": false,
      "metar": "METAR EDLW 212320Z AUTO 03009KT 9999 // NCD 06/03 Q1009",
      "taf": "TAF EDLW 211700Z 2118/2218 07007KT CAVOK"
    },
    {
      "icao": "EDSB",
      "alert": "OK",
      "vis_m": 8000,
      "fzfg": false,
      "metar_trigger": false,
      "taf_trigger": false,
      "metar": "METAR EDSB 212320Z AUTO VRB02KT 8000 // SCT003/// OVC007/// 02/01 Q1009",
      "taf": "TAF EDSB 212300Z 2200/2224 03004KT 9999 BKN008"
    },
    {
      "icao": "EETN",
      "alert": "OK",
      "vis_m": 9999,
      "fzfg": false,
      "metar_trigger": false,
      "taf_trigger": false,
      "metar": "METAR EETN 212320Z 35007KT 9999 OVC009 02/01 Q1017",
      "taf": "TAF EETN 211730Z 2118/2218 34012KT 9999 SCT015 BKN020"
    },
    {
      "icao": "EFHK",
      "alert": "OK",
      "vis_m": 9999,
      "fzfg": false,
      "metar_trigger": false,
      "taf_trigger": false,
      "metar": "METAR EFHK 212320Z 32008KT 290V350 9999 BKN012 02/M00 Q1017 NOSIG",
      "taf": "TAF EFHK 212031Z 2121/2221 32009KT 9999 BKN012"
    },
    {
      "icao": "EFTU",
      "alert": "OK",
      "vis_m": 9999,
      "fzfg": false,
      "metar_trigger": false,
      "taf_trigger": false,
      "metar": "METAR EFTU 212320Z AUTO VRB02KT CAVOK 00/M00 Q1018",
      "taf": ""
    },
    {
      "icao": "EGGW",
      "alert": "OK",
      "vis_m": 2900,
      "fzfg": false,
      "metar_trigger": false,
      "taf_trigger": false,
      "metar": "METAR EGGW 212320Z AUTO 09008KT 2900 -RADZ BKN004 09/09 Q1005",
      "taf": "TAF EGGW 212257Z 2200/2224 10008KT 9999 BKN005"
    },
    {
      "icao": "EGKK",
      "alert": "OK",
      "vis_m": 8000,
      "fzfg": false,
      "metar_trigger": false,
      "taf_trigger": false,
      "metar": "METAR EGKK 212320Z 08009KT 8000 -RA NSC 10/10 Q1004",
      "taf": "TAF EGKK 212253Z 2200/2306 10008KT 9999 SCT025"
    },
    {
      "icao": "EHEH",
      "alert": "OK",
      "vis_m": 9999,
      "fzfg": false,
      "metar_trigger": false,
      "taf_trigger": false,
      "metar": "METAR EHEH 212255Z AUTO 08006KT 050V110 9999 OVC310 07/04 Q1008 BLU NOSIG RMK TREND REMOTE BY EHWX",
      "taf": "TAF EHEH 211740Z 2118/2224 09006KT CAVOK"
    },
    {
      "icao": "EKBI",
      "alert": "OK",
      "vis_m": 9999,
      "fzfg": false,
      "metar_trigger": false,
      "taf_trigger": false,
      "metar": "METAR EKBI 212320Z AUTO 09012KT 9999 SCT010/// BKN064/// 05/03 Q1020",
      "taf": "TAF EKBI 212027Z 2121/2221 10012KT 9999 BKN008"
    },
    {
      "icao": "EKCH",
      "alert": "OK",
      "vis_m": 9999,
      "fzfg": false,
      "metar_trigger": false,
      "taf_trigger": false,
      "metar": "METAR EKCH 212320Z AUTO 08009KT 9999 OVC017/// 05/03 Q1022 NOSIG",
      "taf": "TAF EKCH 212027Z 2121/2221 11007KT 9999 BKN016"
    },
    {
      "icao": "ENTO",
      "alert": "OK",
      "vis_m": 9999,
      "fzfg": false,
      "metar_trigger": false,
      "taf_trigger": false,
      "metar": "METAR ENTO 212320Z AUTO 01007KT 9999 NCD M02/M03 Q1025",
      "taf": "TAF ENTO 211700Z 2118/2218 36008KT CAVOK"
    },
    {
      "icao": "EPGD",
      "alert": "OK",
      "vis_m": 9999,
      "fzfg": false,
      "metar_trigger": false,
      "taf_trigger": false,
      "metar": "METAR EPGD 212300Z 33005KT 9999 BKN017 03/02 Q1022",
      "taf": "TAF EPGD 211730Z 2118/2218 28005KT 9999 BKN020"
    },
    {
      "icao": "EPKK",
      "alert": "OK",
      "vis_m": 5000,
      "fzfg": false,
      "metar_trigger": false,
      "taf_trigger": false,
      "metar": "METAR EPKK 212300Z 07010KT 5000 BR OVC003 03/03 Q1020",
      "taf": "TAF EPKK 212030Z 2121/2221 06007KT 5000 -DZ BR OVC003"
    },
    {
      "icao": "EPKT",
      "alert": "OK",
      "vis_m": 9999,
      "fzfg": false,
      "metar_trigger": false,
      "taf_trigger": false,
      "metar": "METAR EPKT 212300Z 07006KT 9999 OVC003 04/03 Q1019",
      "taf": "TAF EPKT 211730Z 2118/2218 09007KT 6000 OVC003"
    },
    {
      "icao": "EPWA",
      "alert": "OK",
      "vis_m": 9999,
      "fzfg": false,
      "metar_trigger": false,
      "taf_trigger": false,
      "metar": "METAR EPWA 212300Z VRB02KT 9999 BKN019 02/M01 Q1022 NOSIG",
      "taf": "TAF EPWA 212030Z 2121/2221 VRB03KT 9999 BKN019"
    },
    {
      "icao": "EPWR",
      "alert": "OK",
      "vis_m": 2500,
      "fzfg": false,
      "metar_trigger": false,
      "taf_trigger": false,
      "metar": "METAR EPWR 212300Z 08007KT 2500 BR OVC002 05/05 Q1019",
      "taf": "TAF EPWR 212030Z 2121/2221 09009KT 6000 OVC004"
    },
    {
      "icao": "ESGG",
      "alert": "OK",
      "vis_m": 8000,
      "fzfg": false,
      "metar_trigger": false,
      "taf_trigger": false,
      "metar": "METAR ESGG 212320Z 09003KT 050V110 8000 BR NSC M01/M01 Q1023",
      "taf": ""
    },
    {
      "icao": "ESKN",
      "alert": "OK",
      "vis_m": 9999,
      "fzfg": false,
      "metar_trigger": false,
      "taf_trigger": false,
      "metar": "METAR ESKN 212320Z 28003KT CAVOK M03/M03 Q1023",
      "taf": "TAF ESKN 212030Z 2121/2221 30005KT CAVOK"
    },
    {
      "icao": "ESMX",
      "alert": "OK",
      "vis_m": 200,
      "fzfg": true,
      "metar_trigger": false,
      "taf_trigger": false,
      "metar": "METAR ESMX 212320Z AUTO 01004KT 0200 R01/0700N R19/1000U FZFG VV002 M01/M01 Q1023",
      "taf": ""
    },
    {
      "icao": "EVRA",
      "alert": "OK",
      "vis_m": 9999,
      "fzfg": false,
      "metar_trigger": false,
      "taf_trigger": false,
      "metar": "METAR EVRA 212320Z 33006KT 9999 SCT019 05/02 Q1018 NOSIG",
      "taf": "TAF EVRA 212301Z 2200/2224 35010KT 9999 BKN015"
    },
    {
      "icao": "EYKA",
      "alert": "OK",
      "vis_m": 9999,
      "fzfg": false,
      "metar_trigger": false,
      "taf_trigger": false,
      "metar": "METAR EYKA 212320Z AUTO 27005KT 9999 NCD 02/02 Q1019",
      "taf": "TAF EYKA 212300Z 2200/2224 VRB04KT 8000 BKN020"
    },
    {
      "icao": "EYVI",
      "alert": "OK",
      "vis_m": 9999,
      "fzfg": false,
      "metar_trigger": false,
      "taf_trigger": false,
      "metar": "METAR EYVI 212320Z 31008KT 9999 BKN012 03/02 Q1018 BECMG BKN010",
      "taf": "TAF EYVI 212300Z 2200/2224 VRB04KT 8000 SCT010 BKN015"
    },
    {
      "icao": "GCLP",
      "alert": "OK",
      "vis_m": 9999,
      "fzfg": false,
      "metar_trigger": false,
      "taf_trigger": false,
      "metar": "METAR GCLP 212300Z 34009KT 9999 FEW025 18/12 Q1019 NOSIG",
      "taf": "TAF GCLP 212000Z 2121/2221 34008KT 9999 SCT025 BKN050 TX20/2214Z TN15/2206Z"
    },
    {
      "icao": "GCTS",
      "alert": "OK",
      "vis_m": 9999,
      "fzfg": false,
      "metar_trigger": false,
      "taf_trigger": false,
      "metar": "METAR GCTS 212300Z 35007KT 9999 FEW030 16/09 Q1020 NOSIG",
      "taf": "TAF GCTS 212000Z 2121/2221 19005KT 9999 SCT035 TX24/2214Z TN16/2206Z"
    },
    {
      "icao": "HECA",
      "alert": "OK",
      "vis_m": 9999,
      "fzfg": false,
      "metar_trigger": false,
      "taf_trigger": false,
      "metar": "METAR HECA 212300Z 16006KT CAVOK 16/01 Q1013 NOSIG",
      "taf": "TAF HECA 212300Z 2200/2326 19008KT CAVOK"
    },
    {
      "icao": "HEGN",
      "alert": "OK",
      "vis_m": 9999,
      "fzfg": false,
      "metar_trigger": false,
      "taf_trigger": false,
      "metar": "METAR HEGN 212300Z 24005KT CAVOK 15/10 Q1014 NOSIG",
      "taf": "TAF HEGN 212300Z 2200/2306 26008KT CAVOK"
    },
    {
      "icao": "HESH",
      "alert": "OK",
      "vis_m": 9999,
      "fzfg": false,
      "metar_trigger": false,
      "taf_trigger": false,
      "metar": "METAR HESH 212300Z 30005KT CAVOK 17/11 Q1015 NOSIG",
      "taf": "TAF HESH 212300Z 2200/2306 28008KT CAVOK"
    },
    {
      "icao": "HESX",
      "alert": "OK",
      "vis_m": 9999,
      "fzfg": false,
      "metar_trigger": false,
      "taf_trigger": false,
      "metar": "METAR HESX 212300Z 19005KT CAVOK 13/03 Q1013 NOSIG",
      "taf": "TAF HESX 212300Z 2200/2326 20008KT CAVOK"
    },
    {
      "icao": "LATI",
      "alert": "OK",
      "vis_m": 8000,
      "fzfg": false,
      "metar_trigger": false,
      "taf_trigger": false,
      "metar": "METAR LATI 212320Z VRB02KT 8000 NSC 03/M00 Q1015 NOSIG",
      "taf": "TAF LATI 212300Z 2200/2224 VRB05KT 7000 NSC TX17/2212Z TNM00/2205Z"
    },
    {
      "icao": "LBSF",
      "alert": "OK",
      "vis_m": 3000,
      "fzfg": false,
      "metar_trigger": false,
      "taf_trigger": false,
      "metar": "METAR LBSF 212300Z AUTO 29002KT 3000 BR BKN031/// M02/M02 Q1019 TEMPO 2000 BR",
      "taf": "TAF LBSF 212300Z 2200/2224 VRB04KT 3000 BR BKN015"
    },
    {
      "icao": "LBWN",
      "alert": "OK",
      "vis_m": 9999,
      "fzfg": false,
      "metar_trigger": false,
      "taf_trigger": false,
      "metar": "METAR LBWN 212300Z AUTO 35006KT 9999 OVC017/// 06/06 Q1020 NOSIG",
      "taf": "TAF LBWN 212300Z 2200/2224 35008KT 9999 BKN020 OVC030"
    },
    {
      "icao": "LCLK",
      "alert": "OK",
      "vis_m": 9999,
      "fzfg": false,
      "metar_trigger": false,
      "taf_trigger": false,
      "metar": "METAR LCLK 212300Z 36007KT 330V030 9999 FEW018 SCT050 15/13 Q1014 NOSIG",
      "taf": "TAF LCLK 211730Z 2118/2218 01009KT 9999 FEW020 SCT030"
    },
    {
      "icao": "LDDU",
      "alert": "OK",
      "vis_m": 9999,
      "fzfg": false,
      "metar_trigger": false,
      "taf_trigger": false,
      "metar": "METAR LDDU 212300Z 07003KT 050V110 CAVOK 08/04 Q1015",
      "taf": "TAF LDDU 212325Z 2200/2224 VRB02KT CAVOK TX15/2211Z TN08/2200Z"
    },
    {
      "icao": "LDSP",
      "alert": "OK",
      "vis_m": 9999,
      "fzfg": false,
      "metar_trigger": false,
      "taf_trigger": false,
      "metar": "METAR LDSP 212300Z AUTO VRB01KT CAVOK 07/05 Q1015",
      "taf": "TAF LDSP 212325Z 2200/2224 34004KT CAVOK TX16/2212Z TN07/2205Z"
    },
    {
      "icao": "LDZA",
      "alert": "OK",
      "vis_m": 8000,
      "fzfg": false,
      "metar_trigger": false,
      "taf_trigger": false,
      "metar": "METAR LDZA 212300Z VRB02KT 8000 FEW007 OVC020 04/03 Q1020 NOSIG",
      "taf": "TAF LDZA 212325Z 2200/2224 VRB02KT 7000 OVC015 TX06/2213Z TN03/2204Z"
    },
    {
      "icao": "LEAL",
      "alert": "OK",
      "vis_m": 9999,
      "fzfg": false,
      "metar_trigger": false,
      "taf_trigger": false,
      "metar": "METAR LEAL 212300Z 28004KT 9999 -RA BKN050 09/09 Q1005 NOSIG",
      "taf": "TAF LEAL 212300Z 2200/2224 28008KT 9999 FEW020 TX13/2213Z TN07/2207Z"
    },
    {
      "icao": "LEBL",
      "alert": "OK",
      "vis_m": 9999,
      "fzfg": false,
      "metar_trigger": false,
      "taf_trigger": false,
      "metar": "METAR LEBL 212300Z 30008KT 280V340 9999 -RA FEW028 SCT032 BKN050 12/10 Q1003 NOSIG",
      "taf": "TAF LEBL 212300Z 2200/2224 32012KT 9999 SCT040 TX12/2213Z TN07/2224Z"
    },
    {
      "icao": "LECH",
      "alert": "OK",
      "vis_m": 9999,
      "fzfg": false,
      "metar_trigger": false,
      "taf_trigger": false,
      "metar": "METAR LECH 212300Z AUTO 01005KT 350V050 9999 FEW044 SCT057 BKN070 08/05 Q1004",
      "taf": ""
    },
    {
      "icao": "LEMD",
      "alert": "OK",
      "vis_m": 9999,
      "fzfg": false,
      "metar_trigger": false,
      "taf_trigger": false,
      "metar": "METAR LEMD 212300Z 14004KT 090V170 CAVOK 00/00 Q1006 NOSIG",
      "taf": "TAF LEMD 212300Z 2200/2306 VRB04KT 9999 SCT020 TX07/2215Z TNM01/2207Z"
    },
    {
      "icao": "LEMG",
      "alert": "OK",
      "vis_m": 9999,
      "fzfg": false,
      "metar_trigger": false,
      "taf_trigger": false,
      "metar": "METAR LEMG 212300Z 00000KT 9999 FEW030 08/05 Q1009 NOSIG",
      "taf": "TAF LEMG 212300Z 2200/2224 30008KT 9999 FEW012 SCT060 TX14/2214Z TN07/2206Z"
    },
    {
      "icao": "LERS",
      "alert": "OK",
      "vis_m": 8000,
      "fzfg": false,
      "metar_trigger": false,
      "taf_trigger": false,
      "metar": "METAR LERS 212300Z AUTO 09003KT 060V120 8000 -RA SCT048 OVC050 08/07 Q1005",
      "taf": "TAF LERS 212000Z 2121/2221 VRB04KT 9999 SCT025 TX12/2213Z TN06/2206Z"
    },
    {
      "icao": "LEVC",
      "alert": "OK",
      "vis_m": 9999,
      "fzfg": false,
      "metar_trigger": false,
      "taf_trigger": false,
      "metar": "METAR LEVC 212300Z 28007KT CAVOK 09/04 Q1004 NOSIG",
      "taf": "TAF LEVC 212300Z 2200/2224 27008KT 9999 FEW025 TX12/2213Z TN05/2207Z"
    },
    {
      "icao": "LFLL",
      "alert": "OK",
      "vis_m": 9000,
      "fzfg": false,
      "metar_trigger": false,
      "taf_trigger": false,
      "metar": "METAR LFLL 212300Z 15007KT 9000 -RA NSC 08/07 Q1006 TEMPO 4500 -RA",
      "taf": "TAF LFLL 212300Z 2200/2306 14005KT CAVOK"
    },
    {
      "icao": "LFMN",
      "alert": "OK",
      "vis_m": 9000,
      "fzfg": false,
      "metar_trigger": false,
      "taf_trigger": false,
      "metar": "METAR LFMN 212300Z 05016KT 9000 RA SCT043 BKN053 13/08 Q1010 NOSIG",
      "taf": "TAF LFMN 212000Z 2121/2303 08015KT 9999 BKN040"
    },
    {
      "icao": "LFOB",
      "alert": "OK",
      "vis_m": 9999,
      "fzfg": false,
      "metar_trigger": false,
      "taf_trigger": false,
      "metar": "METAR LFOB 212300Z AUTO 10011KT CAVOK 09/08 Q1004 NOSIG",
      "taf": "TAF LFOB 212300Z 2200/2224 11012KT CAVOK"
    },
    {
      "icao": "LFPO",
      "alert": "OK",
      "vis_m": 9999,
      "fzfg": false,
      "metar_trigger": false,
      "taf_trigger": false,
      "metar": "METAR LFPO 212300Z AUTO 11010KT CAVOK 11/08 Q1003 NOSIG",
      "taf": "TAF LFPO 211700Z 2118/2224 11010KT 9999 NSC"
    },
    {
      "icao": "LFSB",
      "alert": "OK",
      "vis_m": 9999,
      "fzfg": false,
      "metar_trigger": false,
      "taf_trigger": false,
      "metar": "METAR LFSB 212300Z AUTO 06004KT CAVOK 03/01 Q1008 TEMPO 3000 BR BKN003",
      "taf": "TAF LFSB 212300Z 2200/2224 09005KT CAVOK"
    },
    {
      "icao": "LGAV",
      "alert": "OK",
      "vis_m": 9999,
      "fzfg": false,
      "metar_trigger": false,
      "taf_trigger": false,
      "metar": "METAR LGAV 212320Z 36006KT 9999 SCT035 13/09 Q1016 NOSIG",
      "taf": "TAF LGAV 212300Z 2200/2224 34010KT 9999 SCT035"
    },
    {
      "icao": "LGIR",
      "alert": "OK",
      "vis_m": 9999,
      "fzfg": false,
      "metar_trigger": false,
      "taf_trigger": false,
      "metar": "METAR LGIR 212320Z 18006KT 9999 FEW020 11/09 Q1014 NOSIG",
      "taf": "TAF LGIR 212300Z 2200/2224 18010KT 9999 SCT020 SCT080"
    },
    {
      "icao": "LGKR",
      "alert": "OK",
      "vis_m": 9999,
      "fzfg": false,
      "metar_trigger": false,
      "taf_trigger": false,
      "metar": "METAR LGKR 212320Z 00000KT 9999 FEW010 08/07 Q1014 NOSIG",
      "taf": "TAF LGKR 212300Z 2200/2224 10010KT 9999 FEW010 SCT020"
    },
    {
      "icao": "LGRP",
      "alert": "OK",
      "vis_m": 9999,
      "fzfg": false,
      "metar_trigger": false,
      "taf_trigger": false,
      "metar": "METAR LGRP 212320Z 08004KT 030V130 9999 -RA FEW012 BKN020 17/12 Q1013 NOSIG",
      "taf": "TAF LGRP 212300Z 2200/2224 12012KT 9999 FEW012 BKN020"
    },
    {
      "icao": "LGTS",
      "alert": "OK",
      "vis_m": 9999,
      "fzfg": false,
      "metar_trigger": false,
      "taf_trigger": false,
      "metar": "METAR LGTS 212320Z COR 12003KT 9999 FEW012 06/06 Q1019 NOSIG",
      "taf": "TAF LGTS 212300Z 2200/2224 VRB03KT 9999 FEW025"
    },
    {
      "icao": "LGZA",
      "alert": "OK",
      "vis_m": null,
      "fzfg": false,
      "metar_trigger": false,
      "taf_trigger": false,
      "metar": "",
      "taf": "TAF LGZA 212300Z 2200/2209 08010KT 9000 FEW020 BKN080"
    },
    {
      "icao": "LHBP",
      "alert": "OK",
      "vis_m": 7000,
      "fzfg": false,
      "metar_trigger": false,
      "taf_trigger": false,
      "metar": "METAR LHBP 212300Z 14003KT 090V180 7000 -DZ OVC004 04/03 Q1021 NOSIG",
      "taf": "TAF LHBP 212315Z 2200/2224 11005KT 7000 OVC010"
    },
    {
      "icao": "LHDC",
      "alert": "OK",
      "vis_m": 4300,
      "fzfg": false,
      "metar_trigger": false,
      "taf_trigger": false,
      "metar": "METAR LHDC 212245Z AUTO 00000KT 4300 BR OVC014 04/04 Q1021",
      "taf": ""
    },
    {
      "icao": "LIBD",
      "alert": "OK",
      "vis_m": 9999,
      "fzfg": false,
      "metar_trigger": false,
      "taf_trigger": false,
      "metar": "METAR LIBD 212320Z 22004KT CAVOK 08/08 Q1014",
      "taf": "TAF LIBD 212300Z 2200/2224 VRB05KT 9999 FEW030"
    },
    {
      "icao": "LICC",
      "alert": "OK",
      "vis_m": 9999,
      "fzfg": false,
      "metar_trigger": false,
      "taf_trigger": false,
      "metar": "METAR LICC 212320Z 04010KT 9999 SCT020 BKN130 14/13 Q1011",
      "taf": "TAF LICC 212300Z 2200/2224 VRB06KT 8000 RA BKN012"
    },
    {
      "icao": "LICJ",
      "alert": "OK",
      "vis_m": 9999,
      "fzfg": false,
      "metar_trigger": false,
      "taf_trigger": false,
      "metar": "METAR LICJ 212320Z 14004KT 120V280 9999 FEW065 14/12 Q1010",
      "taf": "TAF LICJ 212300Z 2200/2224 VRB05KT 9999 FEW040"
    },
    {
      "icao": "LIEO",
      "alert": "OK",
      "vis_m": 9999,
      "fzfg": false,
      "metar_trigger": false,
      "taf_trigger": false,
      "metar": "METAR LIEO 212320Z 21002KT 9999 SCT050 11/11 Q1009",
      "taf": "TAF LIEO 212300Z 2200/2224 VRB05KT 7000 BKN016"
    },
    {
      "icao": "LIMC",
      "alert": "OK",
      "vis_m": 9999,
      "fzfg": false,
      "metar_trigger": false,
      "taf_trigger": false,
      "metar": "METAR LIMC 212320Z 03005KT 9999 BKN035 08/06 Q1016 NOSIG",
      "taf": "TAF LIMC 212300Z 2200/2306 VRB03KT 9999 BKN035"
    },
    {
      "icao": "LIME",
      "alert": "OK",
      "vis_m": 9999,
      "fzfg": false,
      "metar_trigger": false,
      "taf_trigger": false,
      "metar": "METAR LIME 212320Z 36002KT 9999 BKN035 07/06 Q1016 NOSIG",
      "taf": "TAF LIME 212300Z 2200/2224 VRB03KT 8000 BKN035"
    },
    {
      "icao": "LIPH",
      "alert": "OK",
      "vis_m": 9999,
      "fzfg": false,
      "metar_trigger": false,
      "taf_trigger": false,
      "metar": "METAR LIPH 212320Z AUTO 01005KT 9999 NCD 05/03 Q1016",
      "taf": "TAF LIPH 212300Z 2200/2224 VRB04KT 9999 FEW030"
    },
    {
      "icao": "LIPQ",
      "alert": "OK",
      "vis_m": 9999,
      "fzfg": false,
      "metar_trigger": false,
      "taf_trigger": false,
      "metar": "METAR LIPQ 212320Z AUTO 03003KT 9999 NCD 03/02 Q1016",
      "taf": "TAF LIPQ 212300Z 2200/2224 07007KT CAVOK"
    },
    {
      "icao": "LIPX",
      "alert": "OK",
      "vis_m": 9999,
      "fzfg": false,
      "metar_trigger": false,
      "taf_trigger": false,
      "metar": "METAR LIPX 212320Z 34004KT 9999 BKN050 07/04 Q1016",
      "taf": "TAF LIPX 212300Z 2200/2224 VRB03KT 9999 BKN040"
    },
    {
      "icao": "LIPY",
      "alert": "OK",
      "vis_m": 2100,
      "fzfg": false,
      "metar_trigger": false,
      "taf_trigger": false,
      "metar": "METAR LIPY 212320Z AUTO 18002KT 2100 BR FEW030/// SCT053/// OVC075/// 10/09 Q1015",
      "taf": "TAF LIPY 212300Z 2200/2224 VRB05KT 3000 BR BKN010"
    },
    {
      "icao": "LIPZ",
      "alert": "OK",
      "vis_m": 9999,
      "fzfg": false,
      "metar_trigger": false,
      "taf_trigger": false,
      "metar": "METAR LIPZ 212320Z 02006KT 9999 FEW040 06/03 Q1016 NOSIG",
      "taf": "TAF LIPZ 212300Z 2200/2306 03005KT 9999 FEW030"
    },
    {
      "icao": "LIRA",
      "alert": "OK",
      "vis_m": 9999,
      "fzfg": false,
      "metar_trigger": false,
      "taf_trigger": false,
      "metar": "METAR LIRA 212320Z VRB02KT CAVOK 09/06 Q1012",
      "taf": "TAF LIRA 212300Z 2200/2224 05005KT 9999 FEW045"
    },
    {
      "icao": "LIRN",
      "alert": "OK",
      "vis_m": 9999,
      "fzfg": false,
      "metar_trigger": false,
      "taf_trigger": false,
      "metar": "METAR LIRN 212320Z 01005KT 260V040 9999 SCT070 13/07 Q1012 NOSIG",
      "taf": "TAF LIRN 212300Z 2200/2224 05005KT 9999 SCT060"
    },
    {
      "icao": "LLBG",
      "alert": "OK",
      "vis_m": 9999,
      "fzfg": false,
      "metar_trigger": false,
      "taf_trigger": false,
      "metar": "METAR LLBG 212320Z VRB02KT CAVOK 13/06 Q1014 NOSIG",
      "taf": "TAF LLBG 212304Z 2200/2224 VRB03KT CAVOK"
    },
    {
      "icao": "LMML",
      "alert": "OK",
      "vis_m": 9999,
      "fzfg": false,
      "metar_trigger": false,
      "taf_trigger": false,
      "metar": "METAR LMML 212315Z 15002KT CAVOK 12/12 Q1010 NOSIG",
      "taf": "TAF LMML 212300Z 2200/2224 VRB05KT 9999 SCT020"
    },
    {
      "icao": "LOWW",
      "alert": "OK",
      "vis_m": 9999,
      "fzfg": false,
      "metar_trigger": false,
      "taf_trigger": false,
      "metar": "METAR LOWW 212320Z 14010KT 9999 FEW003 BKN004 02/01 Q1019 NOSIG",
      "taf": "TAF LOWW 212315Z 2200/2306 14013KT 6000 OVC003 TX04/2303Z TN02/2200Z"
    },
    {
      "icao": "LPFR",
      "alert": "OK",
      "vis_m": 9999,
      "fzfg": false,
      "metar_trigger": false,
      "taf_trigger": false,
      "metar": "METAR LPFR 212300Z 30006KT CAVOK 08/05 Q1011",
      "taf": "TAF LPFR 212300Z 2200/2224 31005KT 9999 FEW015"
    },
    {
      "icao": "LPPR",
      "alert": "OK",
      "vis_m": 9999,
      "fzfg": false,
      "metar_trigger": false,
      "taf_trigger": false,
      "metar": "METAR LPPR 212300Z 16005KT 090V230 9999 FEW014 BKN040 07/06 Q1008",
      "taf": "TAF LPPR 212300Z 2200/2224 17005KT 9999 FEW015 SCT030"
    },
    {
      "icao": "LPPT",
      "alert": "OK",
      "vis_m": 9999,
      "fzfg": false,
      "metar_trigger": false,
      "taf_trigger": false,
      "metar": "METAR LPPT 212300Z 28005KT 9999 FEW012 07/04 Q1011",
      "taf": "TAF LPPT 212300Z 2200/2306 29007KT 9999 SCT030"
    },
    {
      "icao": "LQSA",
      "alert": "OK",
      "vis_m": 9999,
      "fzfg": false,
      "metar_trigger": false,
      "taf_trigger": false,
      "metar": "METAR LQSA 212300Z 13004KT 9999 OVC015 02/01 Q1018",
      "taf": "TAF LQSA 212300Z 2200/2224 VRB02KT 8000 BKN012 OVC020 TX03/2213Z TNM02/2205Z"
    },
    {
      "icao": "LQTZ",
      "alert": "OK",
      "vis_m": 6000,
      "fzfg": false,
      "metar_trigger": false,
      "taf_trigger": false,
      "metar": "METAR LQTZ 212300Z 11003KT 6000 FEW011 OVC017 04/04 Q1019",
      "taf": "TAF LQTZ 212300Z 2200/2224 VRB02KT 6000 OVC015 TX05/2213Z TN02/2205Z"
    },
    {
      "icao": "LRCL",
      "alert": "OK",
      "vis_m": 4000,
      "fzfg": false,
      "metar_trigger": false,
      "taf_trigger": false,
      "metar": "METAR LRCL 212300Z 11004KT 4000 BR BKN004 OVC015 05/04 Q1020",
      "taf": "TAF LRCL 212000Z 2121/2206 VRB04KT 5000 BR BKN010 OVC030"
    },
    {
      "icao": "LRCV",
      "alert": "OK",
      "vis_m": 2400,
      "fzfg": false,
      "metar_trigger": false,
      "taf_trigger": false,
      "metar": "METAR LRCV 212300Z VRB01KT 2400 BR OVC004 04/04 Q1021",
      "taf": "TAF LRCV 212000Z 2121/2206 VRB04KT 1500 BR OVC005"
    },
    {
      "icao": "LRIA",
      "alert": "OK",
      "vis_m": 3400,
      "fzfg": false,
      "metar_trigger": false,
      "taf_trigger": false,
      "metar": "METAR LRIA 212300Z 00000KT 3400 BR BKN002 OVC009 01/01 Q1022",
      "taf": "TAF LRIA 212000Z 2121/2206 30005KT 5000 BR OVC002"
    },
    {
      "icao": "LROP",
      "alert": "OK",
      "vis_m": 3000,
      "fzfg": false,
      "metar_trigger": false,
      "taf_trigger": false,
      "metar": "METAR LROP 212300Z 01003KT 3000 BR BKN003 OVC011 05/05 Q1022 BECMG 1500 BR OVC010",
      "taf": "TAF LROP 211700Z 2118/2218 VRB04KT 5000 BR SCT005 OVC015"
    },
    {
      "icao": "LRSB",
      "alert": "OK",
      "vis_m": 200,
      "fzfg": true,
      "metar_trigger": false,
      "taf_trigger": false,
      "metar": "METAR LRSB 212300Z VRB01KT 0200 R27/0550N FZFG OVC002 M01/M01 Q1020 NOSIG",
      "taf": ""
    },
    {
      "icao": "LRTR",
      "alert": "OK",
      "vis_m": 5000,
      "fzfg": false,
      "metar_trigger": false,
      "taf_trigger": false,
      "metar": "METAR LRTR 212300Z VRB02KT 5000 BR OVC003 04/04 Q1021 TEMPO 3000 BR",
      "taf": "TAF LRTR 211700Z 2118/2218 VRB04KT 5000 BR OVC005"
    },
    {
      "icao": "LTAF",
      "alert": "OK",
      "vis_m": 9999,
      "fzfg": false,
      "metar_trigger": false,
      "taf_trigger": false,
      "metar": "METAR LTAF 212250Z 02008KT CAVOK 13/01 Q1017 NOSIG RMK RWY23 04008KT 4CI200",
      "taf": "TAF LTAF 212240Z 2200/2224 03009KT CAVOK"
    },
    {
      "icao": "LTAI",
      "alert": "OK",
      "vis_m": 9999,
      "fzfg": false,
      "metar_trigger": false,
      "taf_trigger": false,
      "metar": "METAR LTAI 212250Z 36004KT 340V050 9999 SCT030 BKN080 12/09 Q1015 RESHRA NOSIG RMK RWY18C 36003KT 340V050 RWY36R 35004KT RWY18L 02004KT",
      "taf": "TAF LTAI 212240Z 2200/2224 34009KT 9999 SCT030 BKN100"
    },
    {
      "icao": "LTFM",
      "alert": "OK",
      "vis_m": 6000,
      "fzfg": false,
      "metar_trigger": false,
      "taf_trigger": false,
      "metar": "METAR LTFM 212250Z 30006KT 270V330 6000 -SHRA SCT008 FEW018TCU BKN022 11/08 Q1017 RESHRA NOSIG RMK RWY17L 34004KT 260V060 RWY34L VRB03KT RWY16R 01004KT 290V050 RWY36 29005KT 250V320 RWY18 33006KT 260V060",
      "taf": "TAF LTFM 212240Z 2200/2306 05008KT 9999 -SHRA BKN012 BKN022"
    },
    {
      "icao": "LUBL",
      "alert": "OK",
      "vis_m": null,
      "fzfg": false,
      "metar_trigger": false,
      "taf_trigger": false,
      "metar": "",
      "taf": ""
    },
    {
      "icao": "LUKK",
      "alert": "OK",
      "vis_m": 5000,
      "fzfg": false,
      "metar_trigger": false,
      "taf_trigger": false,
      "metar": "METAR LUKK 212300Z 33006KT 5000 -DZ BR OVC003 01/01 Q1021 BECMG 3000 BR",
      "taf": "TAF LUKK 211722Z 2118/2218 VRB04KT 3000 BR OVC003"
    },
    {
      "icao": "LWSK",
      "alert": "OK",
      "vis_m": 2000,
      "fzfg": false,
      "metar_trigger": false,
      "taf_trigger": false,
      "metar": "METAR LWSK 212320Z VRB02KT 2000 BR VV003 01/01 Q1020 NOSIG",
      "taf": "TAF LWSK 212320Z 2200/2224 VRB02KT 1500 BR OVC003"
    },
    {
      "icao": "LYBE",
      "alert": "OK",
      "vis_m": 6000,
      "fzfg": false,
      "metar_trigger": false,
      "taf_trigger": false,
      "metar": "METAR LYBE 212300Z 14004KT 6000 -DZ OVC008 04/04 Q1021 NOSIG",
      "taf": "TAF LYBE 212300Z 2200/2224 08004KT 5000 BR OVC010 TX08/2213Z TN03/2206Z"
    },
    {
      "icao": "LZIB",
      "alert": "OK",
      "vis_m": 6000,
      "fzfg": false,
      "metar_trigger": false,
      "taf_trigger": false,
      "metar": "METAR LZIB 212300Z 13006KT 6000 -DZ SCT003 OVC004 03/02 Q1020 NOSIG",
      "taf": "TAF LZIB 212315Z 2200/2300 14009KT 6000 OVC005"
    },
    {
      "icao": "LZKZ",
      "alert": "OK",
      "vis_m": 5000,
      "fzfg": false,
      "metar_trigger": false,
      "taf_trigger": false,
      "metar": "METAR LZKZ 212300Z 00000KT 5000 BR BKN011 OVC020 05/04 Q1020 NOSIG",
      "taf": "TAF LZKZ 212315Z 2200/2300 VRB02KT 7000 SCT011"
    },
    {
      "icao": "LZTT",
      "alert": "OK",
      "vis_m": 1200,
      "fzfg": false,
      "metar_trigger": false,
      "taf_trigger": false,
      "metar": "METAR LZTT 212300Z 29003KT 250V310 1200 R27/P2000N BR OVC003 M00/M00 Q1019",
      "taf": "TAF LZTT 212315Z 2200/2300 VRB02KT 9999 FEW003 BKN010"
    },
    {
      "icao": "OEJN",
      "alert": "OK",
      "vis_m": 9999,
      "fzfg": false,
      "metar_trigger": false,
      "taf_trigger": false,
      "metar": "METAR OEJN 212300Z 00000KT CAVOK 24/20 Q1012 NOSIG",
      "taf": "TAF OEJN 212300Z 2200/2306 VRB03KT CAVOK"
    },
    {
      "icao": "OEMA",
      "alert": "OK",
      "vis_m": 9999,
      "fzfg": false,
      "metar_trigger": false,
      "taf_trigger": false,
      "metar": "METAR OEMA 212300Z 35005KT CAVOK 14/M02 Q1018 NOSIG",
      "taf": "TAF OEMA 212300Z 2200/2306 VRB03KT CAVOK"
    },
    {
      "icao": "OERK",
      "alert": "OK",
      "vis_m": 9999,
      "fzfg": false,
      "metar_trigger": false,
      "taf_trigger": false,
      "metar": "METAR OERK 212300Z 10003KT CAVOK 08/04 Q1022 NOSIG",
      "taf": "TAF OERK 212300Z 2200/2306 VRB03KT 8000 NSC"
    },
    {
      "icao": "OJAI",
      "alert": "OK",
      "vis_m": 5000,
      "fzfg": false,
      "metar_trigger": false,
      "taf_trigger": false,
      "metar": "METAR OJAI 212300Z 06003KT 5000 HZ NSC 05/01 Q1017 NOSIG",
      "taf": "TAF OJAI 212300Z 2200/2306 12010KT 5000 HZ NSC"
    },
    {
      "icao": "OKBK",
      "alert": "OK",
      "vis_m": null,
      "fzfg": false,
      "metar_trigger": false,
      "taf_trigger": false,
      "metar": "",
      "taf": ""
    },
    {
      "icao": "OMAA",
      "alert": "OK",
      "vis_m": 9999,
      "fzfg": false,
      "metar_trigger": false,
      "taf_trigger": false,
      "metar": "METAR OMAA 212300Z 05009KT 030V160 CAVOK 17/11 Q1019 NOSIG",
      "taf": "TAF OMAA 212300Z 2200/2306 06007KT 8000 NSC"
    },
    {
      "icao": "UAAA",
      "alert": "CRITICAL",
      "vis_m": 100,
      "fzfg": true,
      "metar_trigger": true,
      "taf_trigger": false,
      "metar": "SPECI UAAA 212301Z VRB01MPS 0100 R23L/0400 FZFG VV001 M03/M03 Q1031 NOSIG RMK QBB050",
      "taf": "TAF UAAA 212302Z 2200/2224 02002MPS 0600 FZFG VV003 TXM00/2207Z TNM05/2201Z"
    },
    {
      "icao": "UCFM",
      "alert": "CRITICAL",
      "vis_m": 50,
      "fzfg": true,
      "metar_trigger": true,
      "taf_trigger": false,
      "metar": "METAR UCFM 212300Z 11003MPS 0050 R07/0250N FZFG VV001 M03/M03 Q1030 NOSIG",
      "taf": "TAF UCFM 212240Z 2200/2224 10003MPS 0300 FZFG VV001"
    },
    {
      "icao": "UDYZ",
      "alert": "OK",
      "vis_m": 2000,
      "fzfg": false,
      "metar_trigger": false,
      "taf_trigger": false,
      "metar": "METAR UDYZ 212300Z 00000KT 2000 BR NSC M03/M05 Q1023 NOSIG",
      "taf": "TAF UDYZ 212300Z 2200/2224 VRB04KT 3000 BR FEW040"
    },
    {
      "icao": "UGTB",
      "alert": "OK",
      "vis_m": 9999,
      "fzfg": false,
      "metar_trigger": false,
      "taf_trigger": false,
      "metar": "METAR UGTB 212300Z VRB02KT 9999 OVC022 02/M02 Q1022 NOSIG",
      "taf": "TAF UGTB 212300Z 2200/2224 VRB02KT 7000 OVC022 TX09/2212Z TNM00/2203Z"
    },
    {
      "icao": "UKKK",
      "alert": "OK",
      "vis_m": null,
      "fzfg": false,
      "metar_trigger": false,
      "taf_trigger": false,
      "metar": "",
      "taf": ""
    },
    {
      "icao": "UTTT",
      "alert": "OK",
      "vis_m": null,
      "fzfg": false,
      "metar_trigger": false,
      "taf_trigger": false,
      "metar": "",
      "taf": ""
    }
  ]
}