{
  "ts_utc": "2026-01-30T16:55:00Z",
  "threshold_m": 150,
  "source": "stations_override.txt (ICAO list) + aviationweather.gov (METAR/TAF raw)",
  "station_count": 159,
  "stations": [
    {
      "icao": "BIKF",
      "alert": "OK",
      "vis_m": 9999,
      "fzfg": false,
      "metar_trigger": false,
      "taf_trigger": false,
      "metar": "METAR BIKF 301630Z 01001KT CAVOK 02/00 Q0999",
      "taf": "TAF BIKF 301332Z 3015/3115 02008KT 9999 FEW040 TX03/3015Z TNM02/3023Z"
    },
    {
      "icao": "BKPR",
      "alert": "OK",
      "vis_m": null,
      "fzfg": false,
      "metar_trigger": false,
      "taf_trigger": false,
      "metar": "",
      "taf": "TAF BKPR 301130Z 3012/3112 01007KT 9999 SCT015 BKN030"
    },
    {
      "icao": "EBCI",
      "alert": "OK",
      "vis_m": 9999,
      "fzfg": false,
      "metar_trigger": false,
      "taf_trigger": false,
      "metar": "METAR EBCI 301620Z 16007KT 9999 BKN008 05/03 Q0995 BECMG BKN015",
      "taf": "TAF EBCI 301108Z 3012/3118 17007KT 9999 BKN012"
    },
    {
      "icao": "EDDB",
      "alert": "OK",
      "vis_m": 8000,
      "fzfg": false,
      "metar_trigger": false,
      "taf_trigger": false,
      "metar": "METAR EDDB 301650Z AUTO 10011KT 8000 OVC011 M01/M03 Q1006 TEMPO 2500 -SN",
      "taf": "TAF EDDB 301100Z 3012/3112 09010KT 5000 -SN OVC010"
    },
    {
      "icao": "EDDH",
      "alert": "OK",
      "vis_m": 9999,
      "fzfg": false,
      "metar_trigger": false,
      "taf_trigger": false,
      "metar": "METAR EDDH 301650Z AUTO 11011KT 080V140 9999 OVC011 M02/M04 Q1004 NOSIG",
      "taf": "TAF EDDH 301100Z 3012/3118 10012KT 9000 OVC012"
    },
    {
      "icao": "EDDK",
      "alert": "OK",
      "vis_m": 9999,
      "fzfg": false,
      "metar_trigger": false,
      "taf_trigger": false,
      "metar": "METAR EDDK 301650Z AUTO 12012KT 090V150 9999 OVC013 03/00 Q0998 NOSIG",
      "taf": ""
    },
    {
      "icao": "EDDN",
      "alert": "OK",
      "vis_m": 9999,
      "fzfg": false,
      "metar_trigger": false,
      "taf_trigger": false,
      "metar": "METAR EDDN 301650Z AUTO 11007KT 9999 OVC013 01/M01 Q1001 NOSIG",
      "taf": "TAF EDDN 301100Z 3012/3112 13005KT 8000 BKN005 BKN030"
    },
    {
      "icao": "EDDS",
      "alert": "OK",
      "vis_m": 9999,
      "fzfg": false,
      "metar_trigger": false,
      "taf_trigger": false,
      "metar": "METAR EDDS 301650Z AUTO 15002KT 9999 -RADZ BKN018 04/02 Q0998 NOSIG",
      "taf": "TAF EDDS 301100Z 3012/3112 VRB03KT 9000 BKN020"
    },
    {
      "icao": "EDFH",
      "alert": "OK",
      "vis_m": 200,
      "fzfg": true,
      "metar_trigger": false,
      "taf_trigger": false,
      "metar": "METAR EDFH 301620Z 13012KT 0200 R21/0500N -FZDZ FG VV/// 00/00 Q0997",
      "taf": "TAF EDFH 301100Z 3012/3112 14014KT 0600 FZFG VV003"
    },
    {
      "icao": "EDJA",
      "alert": "OK",
      "vis_m": 9999,
      "fzfg": false,
      "metar_trigger": false,
      "taf_trigger": false,
      "metar": "METAR EDJA 301620Z 23003KT 200V270 9999 OVC022 02/M00 Q1000",
      "taf": "TAF EDJA 301400Z 3015/3024 19003KT CAVOK"
    },
    {
      "icao": "EDLW",
      "alert": "OK",
      "vis_m": 9999,
      "fzfg": false,
      "metar_trigger": false,
      "taf_trigger": false,
      "metar": "METAR EDLW 301620Z 09007KT CAVOK 04/00 Q0997",
      "taf": "TAF EDLW 301100Z 3012/3112 11007KT CAVOK"
    },
    {
      "icao": "EDNY",
      "alert": "OK",
      "vis_m": 4800,
      "fzfg": false,
      "metar_trigger": false,
      "taf_trigger": false,
      "metar": "METAR EDNY 301620Z VRB01KT 4800 RA BR FEW009 BKN019 OVC025 01/01 Q1001",
      "taf": "TAF EDNY 301400Z 3015/3024 VRB03KT 9000 BKN006"
    },
    {
      "icao": "EDSB",
      "alert": "OK",
      "vis_m": 8000,
      "fzfg": false,
      "metar_trigger": false,
      "taf_trigger": false,
      "metar": "METAR EDSB 301620Z 04003KT 010V070 8000 BKN017 OVC024 03/02 Q1000",
      "taf": "TAF EDSB 301100Z 3012/3112 VRB03KT 6000 BKN008 OVC020"
    },
    {
      "icao": "EETN",
      "alert": "OK",
      "vis_m": 9999,
      "fzfg": false,
      "metar_trigger": false,
      "taf_trigger": false,
      "metar": "METAR EETN 301650Z 00000KT CAVOK M17/M19 Q1027 NOSIG",
      "taf": "TAF EETN 301130Z 3012/3112 12003KT 9999 SCT004"
    },
    {
      "icao": "EFTU",
      "alert": "OK",
      "vis_m": 9999,
      "fzfg": false,
      "metar_trigger": false,
      "taf_trigger": false,
      "metar": "METAR EFTU 301650Z AUTO 07002KT CAVOK M16/M17 Q1027",
      "taf": "TAF EFTU 301435Z 3015/3115 07005KT CAVOK"
    },
    {
      "icao": "EGBB",
      "alert": "OK",
      "vis_m": 9999,
      "fzfg": false,
      "metar_trigger": false,
      "taf_trigger": false,
      "metar": "METAR EGBB 301620Z 11010KT 9999 BKN027 09/06 Q0984",
      "taf": ""
    },
    {
      "icao": "EGGP",
      "alert": "OK",
      "vis_m": 9999,
      "fzfg": false,
      "metar_trigger": false,
      "taf_trigger": false,
      "metar": "METAR EGGP 301620Z 10012KT 9999 FEW005 BKN026 07/05 Q0984",
      "taf": ""
    },
    {
      "icao": "EGGW",
      "alert": "OK",
      "vis_m": 9999,
      "fzfg": false,
      "metar_trigger": false,
      "taf_trigger": false,
      "metar": "METAR EGGW 301620Z AUTO 13011KT 9999 FEW020 BKN033 08/06 Q0986",
      "taf": "TAF EGGW 301105Z 3012/3112 15008KT 3000 -RA BR BKN002"
    },
    {
      "icao": "EGKK",
      "alert": "OK",
      "vis_m": 9000,
      "fzfg": false,
      "metar_trigger": false,
      "taf_trigger": false,
      "metar": "METAR EGKK 301620Z 13009KT 9000 -RA FEW012 BKN014 09/08 Q0986",
      "taf": "TAF EGKK 301054Z 3012/3118 19008KT 9999 SCT015"
    },
    {
      "icao": "EGNM",
      "alert": "OK",
      "vis_m": 300,
      "fzfg": false,
      "metar_trigger": false,
      "taf_trigger": false,
      "metar": "METAR EGNM 301620Z 10011KT 0300 R14/0800U -DZ FG VV/// 04/04 Q0987",
      "taf": "TAF EGNM 301100Z 3012/3112 10009KT 6000 BKN004"
    },
    {
      "icao": "EGPD",
      "alert": "OK",
      "vis_m": 5000,
      "fzfg": false,
      "metar_trigger": false,
      "taf_trigger": false,
      "metar": "METAR EGPD 301620Z 14015KT 100V170 5000 RA BKN009 04/02 Q0994 TEMPO 3000 RADZ",
      "taf": ""
    },
    {
      "icao": "EGPF",
      "alert": "OK",
      "vis_m": 9999,
      "fzfg": false,
      "metar_trigger": false,
      "taf_trigger": false,
      "metar": "METAR EGPF 301620Z AUTO 07011KT 9999 OVC022 05/02 Q0988",
      "taf": ""
    },
    {
      "icao": "EHBK",
      "alert": "OK",
      "vis_m": 9999,
      "fzfg": false,
      "metar_trigger": false,
      "taf_trigger": false,
      "metar": "METAR EHBK 301625Z COR AUTO 17006KT 9999 FEW015CB OVC016 05/03 Q0996 BECMG BKN013",
      "taf": "TAF EHBK 301117Z 3012/3118 12005KT CAVOK"
    },
    {
      "icao": "EHEH",
      "alert": "OK",
      "vis_m": null,
      "fzfg": false,
      "metar_trigger": false,
      "taf_trigger": false,
      "metar": "",
      "taf": "TAF EHEH 301153Z 3012/3118 12007KT 9000 SCT008"
    },
    {
      "icao": "EKBI",
      "alert": "OK",
      "vis_m": 9999,
      "fzfg": false,
      "metar_trigger": false,
      "taf_trigger": false,
      "metar": "METAR EKBI 301650Z AUTO 10016KT 9999 -SN OVC017/// 00/M02 Q1006",
      "taf": ""
    },
    {
      "icao": "EKCH",
      "alert": "OK",
      "vis_m": 9999,
      "fzfg": false,
      "metar_trigger": false,
      "taf_trigger": false,
      "metar": "METAR EKCH 301650Z 09018KT 9999 -SN OVC014 M00/M03 Q1011 TEMPO BKN015",
      "taf": "TAF EKCH 301427Z 3015/3115 09018KT 9999 -SN OVC015"
    },
    {
      "icao": "ENAL",
      "alert": "OK",
      "vis_m": 9999,
      "fzfg": false,
      "metar_trigger": false,
      "taf_trigger": false,
      "metar": "METAR ENAL 301620Z 13014KT 9999 FEW040 M01/M12 Q1011",
      "taf": "TAF ENAL 301400Z 3015/3024 14008KT 9999 FEW045"
    },
    {
      "icao": "ENBR",
      "alert": "OK",
      "vis_m": 9999,
      "fzfg": false,
      "metar_trigger": false,
      "taf_trigger": false,
      "metar": "METAR ENBR 301620Z VRB02KT CAVOK M05/M11 Q1010 NOSIG RMK WIND 1200FT 11006KT",
      "taf": "TAF ENBR 301100Z 3012/3112 08004KT CAVOK"
    },
    {
      "icao": "ENGM",
      "alert": "OK",
      "vis_m": 9999,
      "fzfg": false,
      "metar_trigger": false,
      "taf_trigger": false,
      "metar": "METAR ENGM 301620Z 02006KT 9999 -SN OVC033 M07/M10 Q1018 NOSIG",
      "taf": "TAF ENGM 301100Z 3012/3112 02008KT 9999 -SN BKN030"
    },
    {
      "icao": "ENHD",
      "alert": "OK",
      "vis_m": 9999,
      "fzfg": false,
      "metar_trigger": false,
      "taf_trigger": false,
      "metar": "METAR ENHD 301620Z 09012KT CAVOK M02/M13 Q1010",
      "taf": "TAF ENHD 301400Z 3015/3023 10015KT CAVOK"
    },
    {
      "icao": "ENTC",
      "alert": "OK",
      "vis_m": 9999,
      "fzfg": false,
      "metar_trigger": false,
      "taf_trigger": false,
      "metar": "METAR ENTC 301620Z 18013KT CAVOK M06/M12 Q1021 NOSIG RMK WIND 2600FT 18032KT",
      "taf": "TAF ENTC 301100Z 3012/3112 18008KT CAVOK"
    },
    {
      "icao": "ENTO",
      "alert": "OK",
      "vis_m": 9999,
      "fzfg": false,
      "metar_trigger": false,
      "taf_trigger": false,
      "metar": "METAR ENTO 301620Z 08007KT 040V110 9999 OVC032 M03/M10 Q1017 NOSIG",
      "taf": "TAF ENTO 301100Z 3012/3112 02010KT 9999 -SN FEW012 BKN030"
    },
    {
      "icao": "ENVA",
      "alert": "OK",
      "vis_m": 9999,
      "fzfg": false,
      "metar_trigger": false,
      "taf_trigger": false,
      "metar": "METAR ENVA 301620Z 12010KT 080V160 CAVOK M05/M14 Q1015 NOSIG RMK WIND 670FT 16026G38KT",
      "taf": "TAF ENVA 301100Z 3012/3112 13009KT CAVOK"
    },
    {
      "icao": "ENZV",
      "alert": "OK",
      "vis_m": 9999,
      "fzfg": false,
      "metar_trigger": false,
      "taf_trigger": false,
      "metar": "METAR ENZV 301620Z 10010KT 9999 BKN046 M02/M11 Q1010 NOSIG",
      "taf": ""
    },
    {
      "icao": "EPGD",
      "alert": "OK",
      "vis_m": 9999,
      "fzfg": false,
      "metar_trigger": false,
      "taf_trigger": false,
      "metar": "METAR EPGD 301630Z 11007KT CAVOK M11/M13 Q1014",
      "taf": "TAF EPGD 301130Z 3012/3112 07012KT 9999 OVC004"
    },
    {
      "icao": "EPKK",
      "alert": "OK",
      "vis_m": 2900,
      "fzfg": false,
      "metar_trigger": false,
      "taf_trigger": false,
      "metar": "METAR EPKK 301630Z 06014KT 2900 -FZDZ BR BKN005 OVC006 M01/M02 Q1005",
      "taf": "TAF EPKK 301430Z 3015/3115 06012KT 5000 BR BKN007"
    },
    {
      "icao": "EPKT",
      "alert": "OK",
      "vis_m": 9999,
      "fzfg": false,
      "metar_trigger": false,
      "taf_trigger": false,
      "metar": "METAR EPKT 301630Z 07013KT 9999 -FZDZ BKN009 OVC020 M01/M03 Q1005",
      "taf": "TAF EPKT 301130Z 3012/3112 07010KT 9999 OVC010"
    },
    {
      "icao": "EPLB",
      "alert": "OK",
      "vis_m": 9999,
      "fzfg": false,
      "metar_trigger": false,
      "taf_trigger": false,
      "metar": "METAR EPLB 301630Z 06013KT 9999 OVC010 M06/M08 Q1010",
      "taf": ""
    },
    {
      "icao": "EPMO",
      "alert": "OK",
      "vis_m": 9999,
      "fzfg": false,
      "metar_trigger": false,
      "taf_trigger": false,
      "metar": "METAR EPMO 301630Z 07016KT 9999 SCT016 M07/M09 Q1012",
      "taf": ""
    },
    {
      "icao": "EPPO",
      "alert": "OK",
      "vis_m": 7000,
      "fzfg": false,
      "metar_trigger": false,
      "taf_trigger": false,
      "metar": "METAR EPPO 301630Z 09011KT 7000 BKN012 OVC037 M04/M06 Q1009",
      "taf": "TAF EPPO 301130Z 3012/3112 08010KT 6000 BKN009"
    },
    {
      "icao": "EPRA",
      "alert": "OK",
      "vis_m": 9999,
      "fzfg": false,
      "metar_trigger": false,
      "taf_trigger": false,
      "metar": "METAR EPRA 301630Z 08010KT 9999 OVC011 M05/M08 Q1009",
      "taf": "TAF EPRA 301430Z 3015/3024 08010KT 8000 OVC011"
    },
    {
      "icao": "EPRZ",
      "alert": "OK",
      "vis_m": 8000,
      "fzfg": false,
      "metar_trigger": false,
      "taf_trigger": false,
      "metar": "METAR EPRZ 301630Z 06012KT 020V080 8000 OVC006 M02/M03 Q1007",
      "taf": "TAF EPRZ 301130Z 3012/3112 06012KT 9999 BKN010"
    },
    {
      "icao": "EPSC",
      "alert": "OK",
      "vis_m": 8000,
      "fzfg": false,
      "metar_trigger": false,
      "taf_trigger": false,
      "metar": "METAR EPSC 301630Z 07008KT 8000 BKN008 M04/M05 Q1009",
      "taf": "TAF EPSC 301130Z 3012/3112 08012KT 9999 SCT008 OVC025"
    },
    {
      "icao": "EPSY",
      "alert": "OK",
      "vis_m": 9999,
      "fzfg": false,
      "metar_trigger": false,
      "taf_trigger": false,
      "metar": "METAR EPSY 301630Z 06007KT 030V090 CAVOK M11/M14 Q1014",
      "taf": "TAF EPSY 301430Z 3015/3024 07006KT CAVOK"
    },
    {
      "icao": "EPWA",
      "alert": "OK",
      "vis_m": 9999,
      "fzfg": false,
      "metar_trigger": false,
      "taf_trigger": false,
      "metar": "METAR EPWA 301630Z 07011KT 030V090 9999 BKN013 M06/M08 Q1011 BECMG SCT013",
      "taf": "TAF EPWA 301430Z 3015/3115 07011KT 9999 OVC013"
    },
    {
      "icao": "EPWR",
      "alert": "OK",
      "vis_m": 8000,
      "fzfg": false,
      "metar_trigger": false,
      "taf_trigger": false,
      "metar": "METAR EPWR 301630Z 07009KT 8000 BKN013 OVC023 M01/M03 Q1006",
      "taf": "TAF EPWR 301430Z 3015/3115 08010KT 9999 OVC013"
    },
    {
      "icao": "ESGG",
      "alert": "OK",
      "vis_m": 9999,
      "fzfg": false,
      "metar_trigger": false,
      "taf_trigger": false,
      "metar": "METAR ESGG 301620Z 10009KT 9999 BKN032 M04/M10 Q1014",
      "taf": "TAF ESGG 301430Z 3015/3115 10011KT 9999 BKN030"
    },
    {
      "icao": "ESKN",
      "alert": "OK",
      "vis_m": 9999,
      "fzfg": false,
      "metar_trigger": false,
      "taf_trigger": false,
      "metar": "METAR ESKN 301620Z 11015KT 9999 BKN033 M03/M10 Q1021",
      "taf": "TAF ESKN 301430Z 3015/3115 12010KT 9999 BKN035"
    },
    {
      "icao": "ESMS",
      "alert": "OK",
      "vis_m": 8000,
      "fzfg": false,
      "metar_trigger": false,
      "taf_trigger": false,
      "metar": "METAR ESMS 301620Z 09019KT 8000 OVC010 M01/M03 Q1011",
      "taf": "TAF ESMS 301427Z 3015/3115 09018KT 9999 -SN OVC018"
    },
    {
      "icao": "ESSA",
      "alert": "OK",
      "vis_m": 9999,
      "fzfg": false,
      "metar_trigger": false,
      "taf_trigger": false,
      "metar": "METAR ESSA 301620Z 09004KT 060V120 9999 SCT032 M05/M11 Q1023 NOSIG",
      "taf": "TAF ESSA 301430Z 3015/3115 12009KT 9999 BKN035"
    },
    {
      "icao": "EYKA",
      "alert": "OK",
      "vis_m": 9999,
      "fzfg": false,
      "metar_trigger": false,
      "taf_trigger": false,
      "metar": "METAR EYKA 301650Z 05007KT 020V080 CAVOK M12/M16 Q1020",
      "taf": "TAF EYKA 301100Z 3012/3112 07007KT 8000 NSC"
    },
    {
      "icao": "EYPA",
      "alert": "OK",
      "vis_m": 9999,
      "fzfg": false,
      "metar_trigger": false,
      "taf_trigger": false,
      "metar": "METAR EYPA 301650Z 09008KT 050V110 CAVOK M12/M17 Q1021",
      "taf": "TAF EYPA 301100Z 3012/3112 09009KT 8000 NSC"
    },
    {
      "icao": "EYVI",
      "alert": "OK",
      "vis_m": 9999,
      "fzfg": false,
      "metar_trigger": false,
      "taf_trigger": false,
      "metar": "METAR EYVI 301650Z 06008KT CAVOK M14/M17 Q1018 NOSIG",
      "taf": "TAF EYVI 301100Z 3012/3112 06010KT 9000 NSC"
    },
    {
      "icao": "GCFV",
      "alert": "OK",
      "vis_m": 9999,
      "fzfg": false,
      "metar_trigger": false,
      "taf_trigger": false,
      "metar": "METAR GCFV 301630Z 35017KT 310V020 9999 BKN025 21/14 Q1023",
      "taf": "TAF GCFV 301400Z 3015/3115 01014KT 9999 FEW025 TX23/3114Z TN18/3106Z"
    },
    {
      "icao": "GCLP",
      "alert": "OK",
      "vis_m": 9999,
      "fzfg": false,
      "metar_trigger": false,
      "taf_trigger": false,
      "metar": "METAR GCLP 301630Z 01019KT 9999 FEW025 22/14 Q1023 NOSIG",
      "taf": "TAF GCLP 301400Z 3015/3115 01020KT 9999 FEW025 TX22/3114Z TN17/3106Z"
    },
    {
      "icao": "GCTS",
      "alert": "OK",
      "vis_m": 9999,
      "fzfg": false,
      "metar_trigger": false,
      "taf_trigger": false,
      "metar": "METAR GCTS 301630Z 21006KT 160V270 9999 BKN025 21/15 Q1024 NOSIG",
      "taf": ""
    },
    {
      "icao": "GMAD",
      "alert": "OK",
      "vis_m": 8000,
      "fzfg": false,
      "metar_trigger": false,
      "taf_trigger": false,
      "metar": "METAR GMAD 301630Z 20006KT 8000 SCT026 SCT200 20/16 Q1021 NOSIG",
      "taf": "TAF GMAD 301100Z 3012/3118 22003KT 8000 SCT010 BKN020"
    },
    {
      "icao": "GMMN",
      "alert": "OK",
      "vis_m": 8000,
      "fzfg": false,
      "metar_trigger": false,
      "taf_trigger": false,
      "metar": "METAR GMMN 301630Z 26012KT 8000 BKN016 18/15 Q1021 BECMG RA",
      "taf": "TAF GMMN 301100Z 3012/3118 24012KT 9999 BKN011"
    },
    {
      "icao": "GMMX",
      "alert": "OK",
      "vis_m": 9999,
      "fzfg": false,
      "metar_trigger": false,
      "taf_trigger": false,
      "metar": "METAR GMMX 301630Z 31006KT 280V350 9999 BKN020 17/14 Q1023 NOSIG",
      "taf": "TAF GMMX 301100Z 3012/3118 36006KT 8000 SCT020 SCT080"
    },
    {
      "icao": "HEGN",
      "alert": "OK",
      "vis_m": 9999,
      "fzfg": false,
      "metar_trigger": false,
      "taf_trigger": false,
      "metar": "METAR HEGN 301600Z 14004KT CAVOK 22/12 Q1014 NOSIG",
      "taf": ""
    },
    {
      "icao": "HEMA",
      "alert": "OK",
      "vis_m": 9999,
      "fzfg": false,
      "metar_trigger": false,
      "taf_trigger": false,
      "metar": "METAR HEMA 301600Z 12004KT CAVOK 21/10 Q1014 NOSIG",
      "taf": ""
    },
    {
      "icao": "HESH",
      "alert": "OK",
      "vis_m": 9999,
      "fzfg": false,
      "metar_trigger": false,
      "taf_trigger": false,
      "metar": "METAR HESH 301600Z 15009KT CAVOK 23/08 Q1013 NOSIG",
      "taf": ""
    },
    {
      "icao": "HESX",
      "alert": "OK",
      "vis_m": 9999,
      "fzfg": false,
      "metar_trigger": false,
      "taf_trigger": false,
      "metar": "METAR HESX 301600Z 28011KT CAVOK 22/01 Q1012 NOSIG",
      "taf": ""
    },
    {
      "icao": "LATI",
      "alert": "OK",
      "vis_m": 9999,
      "fzfg": false,
      "metar_trigger": false,
      "taf_trigger": false,
      "metar": "METAR LATI 301650Z 32003KT 9999 -RA FEW030CB SCT040 BKN070 10/06 Q1002 NOSIG",
      "taf": ""
    },
    {
      "icao": "LBPD",
      "alert": "OK",
      "vis_m": 9999,
      "fzfg": false,
      "metar_trigger": false,
      "taf_trigger": false,
      "metar": "METAR LBPD 301630Z AUTO VRB06KT 9999 BKN057/// OVC082/// 09/05 Q1000 NOSIG",
      "taf": "TAF LBPD 301100Z 3012/3112 27012KT 9999 SCT030 BKN050"
    },
    {
      "icao": "LBSF",
      "alert": "OK",
      "vis_m": 9999,
      "fzfg": false,
      "metar_trigger": false,
      "taf_trigger": false,
      "metar": "METAR LBSF 301630Z AUTO 28005KT 9999 SCT067/// 04/02 Q1001 NOSIG",
      "taf": "TAF LBSF 301100Z 3012/3112 28010KT 9999 FEW012 SCT030 BKN050"
    },
    {
      "icao": "LBWN",
      "alert": "OK",
      "vis_m": 9999,
      "fzfg": false,
      "metar_trigger": false,
      "taf_trigger": false,
      "metar": "METAR LBWN 301630Z 30012KT 9999 OVC015 04/02 Q1001 NOSIG",
      "taf": "TAF LBWN 301100Z 3012/3112 34012KT 9999 -RA SCT018 OVC025"
    },
    {
      "icao": "LCLK",
      "alert": "OK",
      "vis_m": 9999,
      "fzfg": false,
      "metar_trigger": false,
      "taf_trigger": false,
      "metar": "METAR LCLK 301630Z 22018KT 9999 FEW040 17/11 Q1008 NOSIG",
      "taf": "TAF LCLK 301130Z 3012/3112 24020KT 8000 FEW030"
    },
    {
      "icao": "LCPH",
      "alert": "OK",
      "vis_m": 9999,
      "fzfg": false,
      "metar_trigger": false,
      "taf_trigger": false,
      "metar": "METAR LCPH 301630Z 27013KT 250V320 9999 FEW025 17/12 Q1008 NOSIG",
      "taf": "TAF LCPH 301130Z 3012/3112 26018KT 9999 FEW020 SCT030"
    },
    {
      "icao": "LEAL",
      "alert": "OK",
      "vis_m": 9999,
      "fzfg": false,
      "metar_trigger": false,
      "taf_trigger": false,
      "metar": "METAR LEAL 301630Z 13003KT 030V160 CAVOK 17/08 Q1007 NOSIG",
      "taf": "TAF LEAL 301100Z 3012/3112 27009KT CAVOK TX20/3014Z TN11/3106Z"
    },
    {
      "icao": "LEBB",
      "alert": "OK",
      "vis_m": 9999,
      "fzfg": false,
      "metar_trigger": false,
      "taf_trigger": false,
      "metar": "METAR LEBB 301630Z VRB03KT 9999 FEW045 SCT065 14/07 Q0999 NOSIG",
      "taf": "TAF LEBB 301100Z 3012/3112 22009KT 9999 FEW040 TX14/3013Z TN05/3101Z"
    },
    {
      "icao": "LEBL",
      "alert": "OK",
      "vis_m": 9999,
      "fzfg": false,
      "metar_trigger": false,
      "taf_trigger": false,
      "metar": "METAR LEBL 301630Z 25011KT 9999 FEW025 SCT060 14/11 Q1003 NOSIG",
      "taf": ""
    },
    {
      "icao": "LECH",
      "alert": "OK",
      "vis_m": 9999,
      "fzfg": false,
      "metar_trigger": false,
      "taf_trigger": false,
      "metar": "METAR LECH 301630Z AUTO 26012KT 210V310 CAVOK 15/00 Q1003",
      "taf": ""
    },
    {
      "icao": "LEMD",
      "alert": "OK",
      "vis_m": 8000,
      "fzfg": false,
      "metar_trigger": false,
      "taf_trigger": false,
      "metar": "SPECI LEMD 301633Z 21009G24KT 170V270 8000 3500 SHRA FEW030TCU SCT037 BKN046 08/08 Q1003 NOSIG",
      "taf": "TAF LEMD 301100Z 3012/3118 22010KT 9999 SCT020 TX11/3015Z TN04/3106Z"
    },
    {
      "icao": "LEMG",
      "alert": "OK",
      "vis_m": 9999,
      "fzfg": false,
      "metar_trigger": false,
      "taf_trigger": false,
      "metar": "METAR LEMG 301630Z VRB02KT 9999 BKN070 19/10 Q1012 NOSIG",
      "taf": "TAF LEMG 301100Z 3012/3112 29010KT 9999 BKN050 TX21/3015Z TN12/3106Z"
    },
    {
      "icao": "LEVC",
      "alert": "OK",
      "vis_m": 9999,
      "fzfg": false,
      "metar_trigger": false,
      "taf_trigger": false,
      "metar": "METAR LEVC 301630Z 27013KT 240V310 9999 FEW060 16/04 Q1006 NOSIG",
      "taf": "TAF LEVC 301100Z 3012/3112 26010KT CAVOK TX18/3014Z TN10/3106Z"
    },
    {
      "icao": "LEXJ",
      "alert": "OK",
      "vis_m": 9999,
      "fzfg": false,
      "metar_trigger": false,
      "taf_trigger": false,
      "metar": "METAR LEXJ 301630Z 22004KT 190V260 9999 SCT043 BKN056 11/06 Q0999",
      "taf": ""
    },
    {
      "icao": "LEZG",
      "alert": "OK",
      "vis_m": 9999,
      "fzfg": false,
      "metar_trigger": false,
      "taf_trigger": false,
      "metar": "METAR LEZG 301630Z 22009KT 190V270 9999 -RA SCT055 BKN070 13/04 Q1002 NOSIG",
      "taf": "TAF LEZG 301100Z 3012/3112 25012KT CAVOK TX15/3013Z TN06/3106Z"
    },
    {
      "icao": "LEZL",
      "alert": "OK",
      "vis_m": 9999,
      "fzfg": false,
      "metar_trigger": false,
      "taf_trigger": false,
      "metar": "METAR LEZL 301630Z 23016G26KT 200V260 9999 BKN020 18/15 Q1012 NOSIG",
      "taf": "TAF LEZL 301400Z 3015/3115 23010KT 9999 BKN020 TX18/3015Z TN10/3107Z"
    },
    {
      "icao": "LFBD",
      "alert": "OK",
      "vis_m": 9999,
      "fzfg": false,
      "metar_trigger": false,
      "taf_trigger": false,
      "metar": "METAR LFBD 301630Z AUTO 22015KT 190V250 9999 -RA FEW020/// SCT040/// BKN060/// ///CB 11/09 Q0997 TEMPO 21015G30KT 3000 SHRA",
      "taf": "TAF LFBD 301100Z 3012/3118 21010KT 9999 BKN030 TX13/3013Z TN06/3106Z"
    },
    {
      "icao": "LFLL",
      "alert": "OK",
      "vis_m": 9999,
      "fzfg": false,
      "metar_trigger": false,
      "taf_trigger": false,
      "metar": "METAR LFLL 301630Z 13006KT CAVOK 09/04 Q1000 NOSIG",
      "taf": "TAF LFLL 301100Z 3012/3118 16008KT 9999 BKN045"
    },
    {
      "icao": "LFLS",
      "alert": "OK",
      "vis_m": 9999,
      "fzfg": false,
      "metar_trigger": false,
      "taf_trigger": false,
      "metar": "METAR LFLS 301630Z AUTO 07009KT CAVOK 06/04 Q1001 NOSIG",
      "taf": "TAF LFLS 301400Z 3015/3115 09008KT 9999 SCT040"
    },
    {
      "icao": "LFMN",
      "alert": "OK",
      "vis_m": 9999,
      "fzfg": false,
      "metar_trigger": false,
      "taf_trigger": false,
      "metar": "METAR LFMN 301630Z 00000KT 9999 SCT060 13/07 Q1000 NOSIG",
      "taf": "TAF LFMN 301400Z 3015/3121 14005KT 9999 FEW025 BKN050"
    },
    {
      "icao": "LFOB",
      "alert": "OK",
      "vis_m": 9999,
      "fzfg": false,
      "metar_trigger": false,
      "taf_trigger": false,
      "metar": "METAR LFOB 301630Z AUTO 15010KT 9999 FEW036 BKN044 OVC052 10/07 Q0991 TEMPO 4500 RA BKN014 OVC040",
      "taf": "TAF LFOB 301100Z 3012/3112 18008KT 9999 BKN020"
    },
    {
      "icao": "LFPO",
      "alert": "OK",
      "vis_m": 9999,
      "fzfg": false,
      "metar_trigger": false,
      "taf_trigger": false,
      "metar": "METAR LFPO 301630Z 18010KT 9999 FEW030 SCT040 BKN110 11/06 Q0993 TEMPO 4000 -SHRA BKN014TCU",
      "taf": "TAF LFPO 301100Z 3012/3118 19010KT 9999 SCT012"
    },
    {
      "icao": "LFSB",
      "alert": "OK",
      "vis_m": 9999,
      "fzfg": false,
      "metar_trigger": false,
      "taf_trigger": false,
      "metar": "METAR LFSB 301630Z AUTO 14006KT 9999 BKN032 OVC038 05/04 Q1000 TEMPO 4500 BR",
      "taf": "TAF LFSB 301100Z 3012/3112 13007KT 8000 BKN030"
    },
    {
      "icao": "LGAV",
      "alert": "OK",
      "vis_m": 9999,
      "fzfg": false,
      "metar_trigger": false,
      "taf_trigger": false,
      "metar": "METAR LGAV 301620Z 20006KT 9999 FEW025 13/07 Q1003 NOSIG",
      "taf": "TAF LGAV 301100Z 3012/3112 25012KT 9999 SCT020"
    },
    {
      "icao": "LGTS",
      "alert": "OK",
      "vis_m": 9999,
      "fzfg": false,
      "metar_trigger": false,
      "taf_trigger": false,
      "metar": "METAR LGTS 301620Z VRB02KT 9999 FEW025 13/07 Q1000 NOSIG",
      "taf": "TAF LGTS 301100Z 3012/3112 34008KT 9999 FEW025"
    },
    {
      "icao": "LHBP",
      "alert": "OK",
      "vis_m": 5000,
      "fzfg": false,
      "metar_trigger": false,
      "taf_trigger": false,
      "metar": "METAR LHBP 301630Z 34003KT 5000 -RA BR FEW006 OVC011 04/03 Q1002 TEMPO 4000 BKN004",
      "taf": "TAF LHBP 301115Z 3012/3112 33005KT 5000 -RADZ BR SCT002 OVC020"
    },
    {
      "icao": "LHDC",
      "alert": "OK",
      "vis_m": 5000,
      "fzfg": false,
      "metar_trigger": false,
      "taf_trigger": false,
      "metar": "METAR LHDC 301615Z AUTO 04006KT 5000 -DZ BR RA OVC005 03/03 Q1001 BECMG 1200 DZ BR",
      "taf": "TAF LHDC 301415Z 3015/3024 03008KT 7000 -DZ OVC012"
    },
    {
      "icao": "LIBD",
      "alert": "OK",
      "vis_m": 9999,
      "fzfg": false,
      "metar_trigger": false,
      "taf_trigger": false,
      "metar": "METAR LIBD 301620Z 03003KT CAVOK 10/07 Q1001",
      "taf": "TAF LIBD 301100Z 3012/3112 02010KT CAVOK"
    },
    {
      "icao": "LIBG",
      "alert": "OK",
      "vis_m": 9999,
      "fzfg": false,
      "metar_trigger": false,
      "taf_trigger": false,
      "metar": "METAR LIBG 301550Z 22001KT CAVOK 14/07 Q1000",
      "taf": "TAF LIBG 301400Z 3015/3024 VRB05KT CAVOK"
    },
    {
      "icao": "LIBP",
      "alert": "OK",
      "vis_m": 9999,
      "fzfg": false,
      "metar_trigger": false,
      "taf_trigger": false,
      "metar": "METAR LIBP 301620Z AUTO 05004KT 9999 FEW230/// 09/07 Q1001",
      "taf": "TAF LIBP 301100Z 3012/3112 VRB05KT CAVOK"
    },
    {
      "icao": "LIBR",
      "alert": "OK",
      "vis_m": 9999,
      "fzfg": false,
      "metar_trigger": false,
      "taf_trigger": false,
      "metar": "METAR LIBR 301620Z 06005KT 9999 FEW045 12/06 Q1001",
      "taf": "TAF LIBR 301100Z 3012/3112 VRB05KT CAVOK"
    },
    {
      "icao": "LICA",
      "alert": "OK",
      "vis_m": 9999,
      "fzfg": false,
      "metar_trigger": false,
      "taf_trigger": false,
      "metar": "METAR LICA 301620Z AUTO 18004KT 9999 OVC043/// 11/10 Q1001",
      "taf": "TAF LICA 301100Z 3012/3112 26010KT 8000 SCT015"
    },
    {
      "icao": "LICC",
      "alert": "OK",
      "vis_m": 9999,
      "fzfg": false,
      "metar_trigger": false,
      "taf_trigger": false,
      "metar": "METAR LICC 301620Z 27014KT 9999 SCT060 17/13 Q1001",
      "taf": "TAF LICC 301100Z 3012/3112 27012KT 9999 SCT020"
    },
    {
      "icao": "LICJ",
      "alert": "OK",
      "vis_m": 9999,
      "fzfg": false,
      "metar_trigger": false,
      "taf_trigger": false,
      "metar": "METAR LICJ 301620Z 26021KT 9999 SCT020 15/10 Q1003",
      "taf": "TAF LICJ 301100Z 3012/3112 27016G26KT 9999 FEW025"
    },
    {
      "icao": "LIMC",
      "alert": "OK",
      "vis_m": 9000,
      "fzfg": false,
      "metar_trigger": false,
      "taf_trigger": false,
      "metar": "METAR LIMC 301620Z 22007KT 9000 FEW020 06/05 Q1001 NOSIG",
      "taf": "TAF LIMC 301100Z 3012/3118 VRB05KT 8000 BKN020"
    },
    {
      "icao": "LIME",
      "alert": "OK",
      "vis_m": 4000,
      "fzfg": false,
      "metar_trigger": false,
      "taf_trigger": false,
      "metar": "METAR LIME 301620Z 24005KT 4000 BR SCT025 07/05 Q1001 NOSIG",
      "taf": "TAF LIME 301100Z 3012/3112 VRB04KT 8000 SCT015"
    },
    {
      "icao": "LIMF",
      "alert": "OK",
      "vis_m": 5000,
      "fzfg": false,
      "metar_trigger": false,
      "taf_trigger": false,
      "metar": "METAR LIMF 301620Z 11001KT 5000 BR NSC 06/03 Q1001",
      "taf": "TAF LIMF 301100Z 3012/3112 VRB04KT 4000 BR BKN004"
    },
    {
      "icao": "LIMJ",
      "alert": "OK",
      "vis_m": 9999,
      "fzfg": false,
      "metar_trigger": false,
      "taf_trigger": false,
      "metar": "METAR LIMJ 301620Z 05006KT 9999 -RA SCT018 BKN038 10/05 Q1000",
      "taf": "TAF LIMJ 301100Z 3012/3112 04012KT 9999 SCT030"
    },
    {
      "icao": "LIPE",
      "alert": "OK",
      "vis_m": 5000,
      "fzfg": false,
      "metar_trigger": false,
      "taf_trigger": false,
      "metar": "METAR LIPE 301620Z VRB02KT 5000 BR BKN014 08/05 Q1001",
      "taf": "TAF LIPE 301100Z 3012/3112 VRB04KT 6000 BKN010"
    },
    {
      "icao": "LIPH",
      "alert": "OK",
      "vis_m": 7000,
      "fzfg": false,
      "metar_trigger": false,
      "taf_trigger": false,
      "metar": "METAR LIPH 301620Z 22003KT 7000 NSC 07/06 Q1001",
      "taf": "TAF LIPH 301100Z 3012/3112 VRB04KT 6000 BKN010"
    },
    {
      "icao": "LIPQ",
      "alert": "OK",
      "vis_m": 9999,
      "fzfg": false,
      "metar_trigger": false,
      "taf_trigger": false,
      "metar": "METAR LIPQ 301620Z AUTO 26004KT 9999 NCD 08/06 Q1001",
      "taf": "TAF LIPQ 301100Z 3012/3112 VRB04KT 9999 SCT040"
    },
    {
      "icao": "LIPR",
      "alert": "OK",
      "vis_m": 1500,
      "fzfg": false,
      "metar_trigger": false,
      "taf_trigger": false,
      "metar": "METAR LIPR 301620Z VRB02KT 1500 BR BKN002 04/04 Q1002",
      "taf": "TAF LIPR 301100Z 3012/3112 VRB05KT 0300 FG OVC001"
    },
    {
      "icao": "LIPX",
      "alert": "OK",
      "vis_m": 300,
      "fzfg": false,
      "metar_trigger": false,
      "taf_trigger": false,
      "metar": "METAR LIPX 301620Z VRB01KT 0300 R04/1500U FG OVC001 05/05 Q1001",
      "taf": "TAF LIPX 301100Z 3012/3112 VRB05KT 0300 FG OVC003"
    },
    {
      "icao": "LIPY",
      "alert": "OK",
      "vis_m": 9999,
      "fzfg": false,
      "metar_trigger": false,
      "taf_trigger": false,
      "metar": "METAR LIPY 301620Z AUTO 32004KT 290V350 9999 OVC008/// 07/06 Q1002",
      "taf": ""
    },
    {
      "icao": "LIPZ",
      "alert": "OK",
      "vis_m": 5000,
      "fzfg": false,
      "metar_trigger": false,
      "taf_trigger": false,
      "metar": "METAR LIPZ 301620Z 23005KT 5000 BR NSC 06/05 Q1001 NOSIG",
      "taf": "TAF LIPZ 301100Z 3012/3118 VRB04KT 3000 BR BKN010"
    },
    {
      "icao": "LIRF",
      "alert": "OK",
      "vis_m": 9999,
      "fzfg": false,
      "metar_trigger": false,
      "taf_trigger": false,
      "metar": "METAR LIRF 301620Z 17003KT 130V210 CAVOK 13/09 Q1000 NOSIG",
      "taf": "TAF LIRF 301100Z 3012/3118 09007KT 9999 FEW020"
    },
    {
      "icao": "LIRN",
      "alert": "OK",
      "vis_m": 8000,
      "fzfg": false,
      "metar_trigger": false,
      "taf_trigger": false,
      "metar": "METAR LIRN 301620Z 06004KT 040V100 8000 FEW020 BKN040 11/08 Q1001 NOSIG",
      "taf": "TAF LIRN 301100Z 3012/3112 VRB06KT 8000 FEW020"
    },
    {
      "icao": "LIRP",
      "alert": "OK",
      "vis_m": 9999,
      "fzfg": false,
      "metar_trigger": false,
      "taf_trigger": false,
      "metar": "METAR LIRP 301615Z 12006KT 9999 BKN035 SCT050 10/09 Q1000 NOSIG",
      "taf": "TAF LIRP 301100Z 3012/3112 09008KT 9999 FEW015 SCT030"
    },
    {
      "icao": "LIRZ",
      "alert": "OK",
      "vis_m": 9999,
      "fzfg": false,
      "metar_trigger": false,
      "taf_trigger": false,
      "metar": "METAR LIRZ 301620Z AUTO VRB01KT 9999 FEW092/// BKN160/// 10/07 Q1000",
      "taf": "TAF LIRZ 301100Z 3012/3112 VRB03KT 8000 FEW050"
    },
    {
      "icao": "LJLJ",
      "alert": "OK",
      "vis_m": 9999,
      "fzfg": false,
      "metar_trigger": false,
      "taf_trigger": false,
      "metar": "METAR LJLJ 301630Z 31002KT 9999 FEW015 BKN022 04/03 Q1001 NOSIG",
      "taf": "TAF LJLJ 301100Z 3012/3112 VRB02KT 9999 BKN020 BKN045"
    },
    {
      "icao": "LKMT",
      "alert": "OK",
      "vis_m": 8000,
      "fzfg": false,
      "metar_trigger": false,
      "taf_trigger": false,
      "metar": "METAR LKMT 301630Z 04006KT 8000 OVC009 00/M01 Q1003 NOSIG",
      "taf": "TAF LKMT 301100Z 3012/3112 02010KT 9999 BKN012 OVC022"
    },
    {
      "icao": "LKPR",
      "alert": "OK",
      "vis_m": 700,
      "fzfg": true,
      "metar_trigger": false,
      "taf_trigger": false,
      "metar": "METAR LKPR 301630Z 03003KT 340V050 0700 R24/1300U R30/0900U FZFG VV002 M01/M01 Q1002 NOSIG",
      "taf": "TAF LKPR 301400Z 3015/3121 05003KT 0400 FZFG VV002"
    },
    {
      "icao": "LLBG",
      "alert": "OK",
      "vis_m": 8000,
      "fzfg": false,
      "metar_trigger": false,
      "taf_trigger": false,
      "metar": "METAR LLBG 301650Z 25006KT 8000 NSC 17/11 Q1013 NOSIG",
      "taf": "TAF LLBG 301103Z 3012/3112 23014KT 8000 NSC"
    },
    {
      "icao": "LMML",
      "alert": "OK",
      "vis_m": 9999,
      "fzfg": false,
      "metar_trigger": false,
      "taf_trigger": false,
      "metar": "METAR LMML 301645Z 28018KT 9999 FEW019 15/11 Q1005 NOSIG",
      "taf": "TAF LMML 301100Z 3012/3112 28020G30KT 9999 FEW015"
    },
    {
      "icao": "LOWW",
      "alert": "OK",
      "vis_m": 9999,
      "fzfg": false,
      "metar_trigger": false,
      "taf_trigger": false,
      "metar": "METAR LOWW 301620Z 01005KT 9999 FEW012 BKN014 01/M01 Q1003 NOSIG",
      "taf": "TAF LOWW 301415Z 3015/3121 35007KT 8000 FEW010 BKN015 TX02/3015Z TNM00/3120Z"
    },
    {
      "icao": "LPFR",
      "alert": "OK",
      "vis_m": 9999,
      "fzfg": false,
      "metar_trigger": false,
      "taf_trigger": false,
      "metar": "METAR LPFR 301630Z 26020KT 9999 FEW005 16/15 Q1014",
      "taf": "TAF LPFR 301100Z 3012/3112 23010KT 9999 SCT012"
    },
    {
      "icao": "LPMA",
      "alert": "OK",
      "vis_m": 9999,
      "fzfg": false,
      "metar_trigger": false,
      "taf_trigger": false,
      "metar": "METAR LPMA 301630Z 04006KT 010V070 9999 FEW013 20/16 Q1023",
      "taf": "TAF LPMA 301100Z 3012/3112 VRB05KT 9999 SCT015"
    },
    {
      "icao": "LPPR",
      "alert": "OK",
      "vis_m": 5000,
      "fzfg": false,
      "metar_trigger": false,
      "taf_trigger": false,
      "metar": "METAR LPPR 301630Z 25013KT 220V300 5000 RA BR SCT018 FEW020CB BKN026 13/10 Q1005",
      "taf": "TAF LPPR 301100Z 3012/3112 21017KT 9999 SCT025"
    },
    {
      "icao": "LPPS",
      "alert": "OK",
      "vis_m": 2000,
      "fzfg": false,
      "metar_trigger": false,
      "taf_trigger": false,
      "metar": "METAR LPPS 301630Z 29012KT 2000 -DZ BR SCT004 BKN010 18/17 Q1023",
      "taf": "TAF LPPS 301100Z 3012/3118 27013KT 9999 SCT013 BKN030"
    },
    {
      "icao": "LPPT",
      "alert": "OK",
      "vis_m": 9999,
      "fzfg": false,
      "metar_trigger": false,
      "taf_trigger": false,
      "metar": "METAR LPPT 301630Z 27019G34KT 240V300 9999 FEW018 SCT024 15/11 Q1011 WS R20",
      "taf": "TAF LPPT 301100Z 3012/3118 25015KT 9999 FEW008 SCT012"
    },
    {
      "icao": "LQBK",
      "alert": "OK",
      "vis_m": 9999,
      "fzfg": false,
      "metar_trigger": false,
      "taf_trigger": false,
      "metar": "METAR LQBK 301630Z 05002KT CAVOK 06/03 Q1002 NOSIG",
      "taf": "TAF LQBK 301100Z 3012/3112 33005KT CAVOK TX08/3013Z TN02/3105Z"
    },
    {
      "icao": "LQSA",
      "alert": "OK",
      "vis_m": 9999,
      "fzfg": false,
      "metar_trigger": false,
      "taf_trigger": false,
      "metar": "METAR LQSA 301630Z 14003KT 9999 BKN050 05/05 Q1000 NOSIG",
      "taf": "TAF LQSA 301100Z 3012/3112 VRB02KT 9999 SCT012 BKN030 TX07/3013Z TN01/3106Z"
    },
    {
      "icao": "LQTZ",
      "alert": "OK",
      "vis_m": 9999,
      "fzfg": false,
      "metar_trigger": false,
      "taf_trigger": false,
      "metar": "METAR LQTZ 301630Z 00000KT 9999 BKN030 06/02 Q1002",
      "taf": "TAF LQTZ 301100Z 3012/3112 28005KT 9999 SCT015 BKN035 TX08/3013Z TN02/3105Z"
    },
    {
      "icao": "LRBC",
      "alert": "OK",
      "vis_m": 9999,
      "fzfg": false,
      "metar_trigger": false,
      "taf_trigger": false,
      "metar": "METAR LRBC 301630Z 35014KT 9999 OVC012 00/M02 Q1004",
      "taf": "TAF LRBC 301400Z 3015/3024 35014KT 9999 BKN010 OVC015"
    },
    {
      "icao": "LRBS",
      "alert": "OK",
      "vis_m": 9999,
      "fzfg": false,
      "metar_trigger": false,
      "taf_trigger": false,
      "metar": "METAR LRBS 301630Z 24005KT 9999 OVC012 06/04 Q1002 NOSIG",
      "taf": "TAF LRBS 301100Z 3012/3112 25008KT 9999 BKN010"
    },
    {
      "icao": "LRBV",
      "alert": "OK",
      "vis_m": 9999,
      "fzfg": false,
      "metar_trigger": false,
      "taf_trigger": false,
      "metar": "METAR LRBV 301630Z VRB02KT 9999 FEW030 OVC035 03/M00 Q1000",
      "taf": "TAF LRBV 301400Z 3015/3024 08006KT 9999 SCT025 BKN030"
    },
    {
      "icao": "LRCL",
      "alert": "OK",
      "vis_m": 8000,
      "fzfg": false,
      "metar_trigger": false,
      "taf_trigger": false,
      "metar": "METAR LRCL 301630Z 07003KT 8000 -RA BKN015 OVC020 04/03 Q1001",
      "taf": "TAF LRCL 301400Z 3015/3024 VRB04KT 9999 OVC015"
    },
    {
      "icao": "LRCV",
      "alert": "OK",
      "vis_m": 8000,
      "fzfg": false,
      "metar_trigger": false,
      "taf_trigger": false,
      "metar": "METAR LRCV 301630Z 34002KT 8000 SCT017 05/04 Q1001",
      "taf": "TAF LRCV 301400Z 3015/3024 VRB04KT 9999 SCT010 OVC015"
    },
    {
      "icao": "LRIA",
      "alert": "OK",
      "vis_m": 9999,
      "fzfg": false,
      "metar_trigger": false,
      "taf_trigger": false,
      "metar": "METAR LRIA 301630Z 33014KT 9999 OVC008 M02/M03 Q1004",
      "taf": "TAF LRIA 301400Z 3015/3024 33011KT 9999 OVC005"
    },
    {
      "icao": "LROP",
      "alert": "OK",
      "vis_m": 9999,
      "fzfg": false,
      "metar_trigger": false,
      "taf_trigger": false,
      "metar": "METAR LROP 301630Z 23005KT 9999 OVC010 06/04 Q1002 NOSIG",
      "taf": "TAF LROP 301100Z 3012/3112 25008KT 9999 OVC010"
    },
    {
      "icao": "LRSB",
      "alert": "OK",
      "vis_m": 8000,
      "fzfg": false,
      "metar_trigger": false,
      "taf_trigger": false,
      "metar": "METAR LRSB 301630Z 12002KT 8000 -RA BKN011 OVC015 04/03 Q1000",
      "taf": "TAF LRSB 301100Z 3012/3112 VRB04KT 9999 OVC010"
    },
    {
      "icao": "LRSM",
      "alert": "OK",
      "vis_m": 9999,
      "fzfg": false,
      "metar_trigger": false,
      "taf_trigger": false,
      "metar": "METAR LRSM 301630Z 35005KT 9999 -RA OVC030 05/04 Q1002",
      "taf": "TAF LRSM 301400Z 3015/3024 VRB04KT 9999 OVC025"
    },
    {
      "icao": "LRSV",
      "alert": "OK",
      "vis_m": 5000,
      "fzfg": false,
      "metar_trigger": false,
      "taf_trigger": false,
      "metar": "METAR LRSV 301630Z 35010KT 5000 -SN BR BKN005 M03/M03 Q1004",
      "taf": "TAF LRSV 301400Z 3015/3024 36012KT 9999 BKN005 OVC010"
    },
    {
      "icao": "LRTM",
      "alert": "OK",
      "vis_m": 700,
      "fzfg": false,
      "metar_trigger": false,
      "taf_trigger": false,
      "metar": "METAR LRTM 301630Z 11002KT 0700 R07/1400D -RA FG SCT002 BKN008 OVC018 02/02 Q1001",
      "taf": ""
    },
    {
      "icao": "LRTR",
      "alert": "OK",
      "vis_m": 3500,
      "fzfg": false,
      "metar_trigger": false,
      "taf_trigger": false,
      "metar": "METAR LRTR 301630Z 27004KT 3500 -DZ BR FEW003 BKN004 OVC006 03/03 Q1002 TEMPO 3000 -DZ BR",
      "taf": "TAF LRTR 301100Z 3012/3112 23006KT 3000 -DZ BR OVC005"
    },
    {
      "icao": "LTAC",
      "alert": "OK",
      "vis_m": 9999,
      "fzfg": false,
      "metar_trigger": false,
      "taf_trigger": false,
      "metar": "METAR LTAC 301620Z 32003KT 250V360 9999 FEW013 BKN029 07/05 Q1001 BECMG 18012KT",
      "taf": ""
    },
    {
      "icao": "LTFM",
      "alert": "OK",
      "vis_m": 8000,
      "fzfg": false,
      "metar_trigger": false,
      "taf_trigger": false,
      "metar": "METAR LTFM 301620Z 34007KT 8000 -SHRA BKN005 BKN025 06/05 Q1002 NOSIG",
      "taf": "TAF LTFM 301040Z 3012/3118 32014KT 9999 -SHRA BKN009 BKN025"
    },
    {
      "icao": "LUKK",
      "alert": "OK",
      "vis_m": 9999,
      "fzfg": false,
      "metar_trigger": false,
      "taf_trigger": false,
      "metar": "METAR LUKK 301630Z 01016KT 9999 -SN BKN013 OVC018 M02/M03 Q1001 TEMPO 4000 SN BKN005",
      "taf": "TAF LUKK 301117Z 3012/3112 35014KT 9999 OVC007"
    },
    {
      "icao": "LWOH",
      "alert": "OK",
      "vis_m": 9999,
      "fzfg": false,
      "metar_trigger": false,
      "taf_trigger": false,
      "metar": "METAR LWOH 301650Z 16009KT 9999 BKN035 07/03 Q1001",
      "taf": "TAF LWOH 301415Z 3015/3115 16010KT 9999 FEW015 SCT040"
    },
    {
      "icao": "LWSK",
      "alert": "OK",
      "vis_m": 9999,
      "fzfg": false,
      "metar_trigger": false,
      "taf_trigger": false,
      "metar": "METAR LWSK 301650Z 10005KT 050V120 9999 SCT040 08/04 Q1001 NOSIG",
      "taf": "TAF LWSK 301415Z 3015/3115 03006KT 9999 FEW030 SCT080"
    },
    {
      "icao": "LYBE",
      "alert": "OK",
      "vis_m": 9999,
      "fzfg": false,
      "metar_trigger": false,
      "taf_trigger": false,
      "metar": "METAR LYBE 301630Z 28004KT 9999 SCT010 OVC017 05/04 Q1003 NOSIG",
      "taf": "TAF LYBE 301100Z 3012/3112 28010KT 9999 BKN010 BKN025 TX07/3013Z TN03/3106Z"
    },
    {
      "icao": "LYNI",
      "alert": "OK",
      "vis_m": 9999,
      "fzfg": false,
      "metar_trigger": false,
      "taf_trigger": false,
      "metar": "METAR LYNI 301630Z 00000KT 9999 FEW015 BKN040 06/05 Q1002 NOSIG",
      "taf": "TAF LYNI 301100Z 3012/3112 33008KT 9999 SCT015 BKN030 TX08/3013Z TN04/3106Z"
    },
    {
      "icao": "LYPG",
      "alert": "OK",
      "vis_m": 9999,
      "fzfg": false,
      "metar_trigger": false,
      "taf_trigger": false,
      "metar": "METAR LYPG 301630Z 23003KT 190V250 9999 FEW008 SCT050 09/08 Q1001 NOSIG",
      "taf": "TAF LYPG 301100Z 3012/3112 VRB02KT 9999 FEW010 BKN033 OVC070 TX12/3112Z TN05/3106Z"
    },
    {
      "icao": "LZIB",
      "alert": "OK",
      "vis_m": 9000,
      "fzfg": false,
      "metar_trigger": false,
      "taf_trigger": false,
      "metar": "METAR LZIB 301630Z 28005KT 9000 FEW008 SCT042 02/M00 Q1003 NOSIG",
      "taf": "TAF LZIB 301115Z 3012/3112 30005KT 9999 FEW010 SCT040"
    },
    {
      "icao": "LZKZ",
      "alert": "OK",
      "vis_m": 9999,
      "fzfg": false,
      "metar_trigger": false,
      "taf_trigger": false,
      "metar": "METAR LZKZ 301630Z 36014KT 9999 SCT028 BKN035 03/M01 Q1002 NOSIG",
      "taf": "TAF LZKZ 301115Z 3012/3112 03013KT 9999 FEW020 BKN040"
    },
    {
      "icao": "LZTT",
      "alert": "OK",
      "vis_m": 2500,
      "fzfg": false,
      "metar_trigger": false,
      "taf_trigger": false,
      "metar": "METAR LZTT 301630Z 05007KT 2500 -SN BR BKN002 OVC003 M02/M02 Q1001 NOSIG",
      "taf": "TAF LZTT 301115Z 3012/3112 06009KT 8000 SCT002 OVC004"
    },
    {
      "icao": "OEJN",
      "alert": "OK",
      "vis_m": 9999,
      "fzfg": false,
      "metar_trigger": false,
      "taf_trigger": false,
      "metar": "METAR OEJN 301600Z 32009KT CAVOK 26/16 Q1013 NOSIG",
      "taf": "TAF OEJN 301100Z 3012/3118 30010KT CAVOK"
    },
    {
      "icao": "OEMA",
      "alert": "OK",
      "vis_m": 9999,
      "fzfg": false,
      "metar_trigger": false,
      "taf_trigger": false,
      "metar": "METAR OEMA 301600Z 28006KT CAVOK 27/01 Q1016 NOSIG",
      "taf": "TAF OEMA 301100Z 3012/3118 25010KT 7000 NSC"
    },
    {
      "icao": "OJAI",
      "alert": "OK",
      "vis_m": 5000,
      "fzfg": false,
      "metar_trigger": false,
      "taf_trigger": false,
      "metar": "METAR OJAI 301600Z 24010KT 5000 HZ NSC 14/05 Q1013 NOSIG",
      "taf": "TAF OJAI 301113Z 3012/3118 23006KT 5000 HZ NSC"
    },
    {
      "icao": "OMAA",
      "alert": "OK",
      "vis_m": 9999,
      "fzfg": false,
      "metar_trigger": false,
      "taf_trigger": false,
      "metar": "METAR OMAA 301630Z 30007KT CAVOK 20/11 Q1018 NOSIG",
      "taf": "TAF OMAA 301100Z 3012/3118 30012KT 8000 FEW045"
    },
    {
      "icao": "OMDB",
      "alert": "OK",
      "vis_m": 9999,
      "fzfg": false,
      "metar_trigger": false,
      "taf_trigger": false,
      "metar": "METAR OMDB 301630Z 25007KT CAVOK 21/13 Q1018 NOSIG",
      "taf": "TAF OMDB 301100Z 3012/3118 27013KT 8000 FEW040"
    },
    {
      "icao": "UAAA",
      "alert": "OK",
      "vis_m": 750,
      "fzfg": true,
      "metar_trigger": false,
      "taf_trigger": false,
      "metar": "SPECI UAAA 301644Z VRB01MPS 0750 R23L/2000 FZFG VV001 M04/M05 Q1019 NOSIG RMK QBB050",
      "taf": ""
    },
    {
      "icao": "UBBB",
      "alert": "OK",
      "vis_m": 9999,
      "fzfg": false,
      "metar_trigger": false,
      "taf_trigger": false,
      "metar": "METAR UBBB 301630Z 17012KT CAVOK 07/06 Q1009 NOSIG",
      "taf": "TAF UBBB 301054Z 3012/3112 17018KT 5000 BR BKN007 TX09/3012Z TN04/3101Z"
    },
    {
      "icao": "UDSG",
      "alert": "OK",
      "vis_m": 4400,
      "fzfg": false,
      "metar_trigger": false,
      "taf_trigger": false,
      "metar": "METAR UDSG 301630Z 10001KT 4400 BR BKN016 M07/M07 Q1014 NOSIG",
      "taf": "TAF UDSG 301058Z 3012/3112 VRB06KT 2000 BR OVC020"
    },
    {
      "icao": "UDYZ",
      "alert": "OK",
      "vis_m": 2300,
      "fzfg": false,
      "metar_trigger": false,
      "taf_trigger": false,
      "metar": "METAR UDYZ 301630Z 23003KT 2300 BR BKN014 M02/M04 Q1017 NOSIG",
      "taf": "TAF UDYZ 301100Z 3012/3112 VRB04KT 3000 BR BKN020"
    },
    {
      "icao": "UGKO",
      "alert": "OK",
      "vis_m": 9999,
      "fzfg": false,
      "metar_trigger": false,
      "taf_trigger": false,
      "metar": "METAR UGKO 301630Z 09012KT CAVOK 14/M02 Q1004 NOSIG",
      "taf": "TAF UGKO 301100Z 3012/3112 09010KT CAVOK TX17/3012Z TN07/3103Z"
    }
  ]
}