{
  "ts_utc": "2026-04-06T21:37:33Z",
  "threshold_m": 150,
  "source": "stations_override.txt (ICAO list) + aviationweather.gov (METAR/TAF raw)",
  "station_count": 159,
  "stations": [
    {
      "icao": "BIKF",
      "alert": "OK",
      "vis_m": 9999,
      "fzfg": false,
      "metar_trigger": false,
      "taf_trigger": false,
      "metar": "METAR BIKF 062130Z 12027G38KT 9999 FEW013 BKN034 BKN120 06/02 Q0983",
      "taf": "TAF BIKF 061932Z 0621/0721 10045G65KT 9000 -RA SCT013 BKN020 TX07/0703Z TN05/0721Z"
    },
    {
      "icao": "BKPR",
      "alert": "OK",
      "vis_m": 9999,
      "fzfg": false,
      "metar_trigger": false,
      "taf_trigger": false,
      "metar": "METAR BKPR 062130Z 15001KT CAVOK 10/06 Q1021 NOSIG",
      "taf": "TAF BKPR 061730Z 0618/0718 VRB05KT CAVOK"
    },
    {
      "icao": "EBCI",
      "alert": "OK",
      "vis_m": 9999,
      "fzfg": false,
      "metar_trigger": false,
      "taf_trigger": false,
      "metar": "METAR EBCI 062120Z 08004KT CAVOK 08/01 Q1026 NOSIG",
      "taf": "TAF EBCI 061701Z 0618/0724 08006KT CAVOK"
    },
    {
      "icao": "EDDB",
      "alert": "OK",
      "vis_m": 9999,
      "fzfg": false,
      "metar_trigger": false,
      "taf_trigger": false,
      "metar": "METAR EDDB 062120Z AUTO 29009KT CAVOK 07/M02 Q1025 NOSIG",
      "taf": "TAF EDDB 061700Z 0618/0718 29015G25KT CAVOK"
    },
    {
      "icao": "EDDH",
      "alert": "OK",
      "vis_m": 9999,
      "fzfg": false,
      "metar_trigger": false,
      "taf_trigger": false,
      "metar": "METAR EDDH 062120Z AUTO 27006KT CAVOK 05/02 Q1027 NOSIG",
      "taf": "TAF EDDH 061700Z 0618/0724 30014KT 9999 FEW030"
    },
    {
      "icao": "EDDK",
      "alert": "OK",
      "vis_m": 9999,
      "fzfg": false,
      "metar_trigger": false,
      "taf_trigger": false,
      "metar": "METAR EDDK 062120Z AUTO 07003KT 050V140 CAVOK 06/01 Q1027 NOSIG",
      "taf": "TAF EDDK 061700Z 0618/0724 VRB03KT CAVOK"
    },
    {
      "icao": "EDDN",
      "alert": "OK",
      "vis_m": 9999,
      "fzfg": false,
      "metar_trigger": false,
      "taf_trigger": false,
      "metar": "METAR EDDN 062120Z AUTO VRB02KT CAVOK 04/01 Q1026",
      "taf": "TAF EDDN 061700Z 0618/0718 33005KT CAVOK"
    },
    {
      "icao": "EDDS",
      "alert": "OK",
      "vis_m": 9999,
      "fzfg": false,
      "metar_trigger": false,
      "taf_trigger": false,
      "metar": "METAR EDDS 062120Z AUTO 29001KT CAVOK 08/01 Q1025",
      "taf": "TAF EDDS 061700Z 0618/0718 33005KT CAVOK"
    },
    {
      "icao": "EDFH",
      "alert": "OK",
      "vis_m": 9999,
      "fzfg": false,
      "metar_trigger": false,
      "taf_trigger": false,
      "metar": "METAR EDFH 062120Z 06004KT CAVOK 05/M01 Q1026",
      "taf": "TAF EDFH 061700Z 0618/0718 06005KT CAVOK"
    },
    {
      "icao": "EDJA",
      "alert": "OK",
      "vis_m": 9999,
      "fzfg": false,
      "metar_trigger": false,
      "taf_trigger": false,
      "metar": "METAR EDJA 062120Z AUTO 06005KT 9999 // FEW140/// 08/05 Q1025",
      "taf": "TAF EDJA 061700Z 0618/0703 VRB03KT CAVOK"
    },
    {
      "icao": "EDLW",
      "alert": "OK",
      "vis_m": 9999,
      "fzfg": false,
      "metar_trigger": false,
      "taf_trigger": false,
      "metar": "METAR EDLW 062120Z AUTO 08004KT 9999 // NCD 07/M00 Q1027",
      "taf": "TAF EDLW 061700Z 0618/0718 VRB03KT CAVOK"
    },
    {
      "icao": "EDNY",
      "alert": "OK",
      "vis_m": 9999,
      "fzfg": false,
      "metar_trigger": false,
      "taf_trigger": false,
      "metar": "METAR EDNY 062120Z AUTO 04005KT 340V080 9999 NCD 10/07 Q1025",
      "taf": "TAF EDNY 061700Z 0618/0703 VRB03KT CAVOK"
    },
    {
      "icao": "EDSB",
      "alert": "OK",
      "vis_m": 9999,
      "fzfg": false,
      "metar_trigger": false,
      "taf_trigger": false,
      "metar": "METAR EDSB 062120Z AUTO 02008KT 9999 NCD 10/02 Q1025",
      "taf": "TAF EDSB 061700Z 0618/0718 02004KT CAVOK"
    },
    {
      "icao": "EETN",
      "alert": "OK",
      "vis_m": 9999,
      "fzfg": false,
      "metar_trigger": false,
      "taf_trigger": false,
      "metar": "METAR EETN 062120Z 33007KT 9999 OVC005 03/03 Q0997 TEMPO OVC003",
      "taf": "TAF EETN 061730Z 0618/0718 32012KT 8000 RA BKN005 OVC010"
    },
    {
      "icao": "EFTU",
      "alert": "OK",
      "vis_m": 9999,
      "fzfg": false,
      "metar_trigger": false,
      "taf_trigger": false,
      "metar": "METAR EFTU 062120Z AUTO 33008KT 300V010 9999 -DZ OVC005 03/03 Q1001",
      "taf": "TAF EFTU 062036Z 0621/0721 36009KT 9999 DZRA BKN005"
    },
    {
      "icao": "EGBB",
      "alert": "OK",
      "vis_m": 9999,
      "fzfg": false,
      "metar_trigger": false,
      "taf_trigger": false,
      "metar": "METAR EGBB 062120Z 16006KT CAVOK 07/02 Q1023",
      "taf": "TAF EGBB 061655Z 0618/0718 16009KT CAVOK"
    },
    {
      "icao": "EGGP",
      "alert": "OK",
      "vis_m": 9999,
      "fzfg": false,
      "metar_trigger": false,
      "taf_trigger": false,
      "metar": "METAR EGGP 062120Z 12008KT CAVOK 09/03 Q1022",
      "taf": "TAF EGGP 061700Z 0618/0718 15012KT 9999 FEW040"
    },
    {
      "icao": "EGGW",
      "alert": "OK",
      "vis_m": 9999,
      "fzfg": false,
      "metar_trigger": false,
      "taf_trigger": false,
      "metar": "METAR EGGW 062120Z AUTO 13008KT 9999 NCD 07/M00 Q1024",
      "taf": "TAF EGGW 061657Z 0618/0718 17010KT CAVOK"
    },
    {
      "icao": "EGKK",
      "alert": "OK",
      "vis_m": 9999,
      "fzfg": false,
      "metar_trigger": false,
      "taf_trigger": false,
      "metar": "METAR EGKK 062120Z 09006KT CAVOK 07/02 Q1024",
      "taf": "TAF EGKK 061655Z 0618/0724 10007KT CAVOK"
    },
    {
      "icao": "EGNM",
      "alert": "OK",
      "vis_m": 9999,
      "fzfg": false,
      "metar_trigger": false,
      "taf_trigger": false,
      "metar": "METAR EGNM 062120Z 14006KT CAVOK 07/01 Q1023",
      "taf": ""
    },
    {
      "icao": "EGPD",
      "alert": "OK",
      "vis_m": 9999,
      "fzfg": false,
      "metar_trigger": false,
      "taf_trigger": false,
      "metar": "METAR EGPD 062120Z COR AUTO 16010KT 9999 NCD 06/04 Q1022 NOSIG",
      "taf": "TAF EGPD 061654Z 0618/0718 16009KT CAVOK"
    },
    {
      "icao": "EGPF",
      "alert": "OK",
      "vis_m": 9999,
      "fzfg": false,
      "metar_trigger": false,
      "taf_trigger": false,
      "metar": "METAR EGPF 062120Z AUTO 10006KT 9999 NCD 08/01 Q1021",
      "taf": "TAF EGPF 061656Z 0618/0718 15010KT 9999 FEW040"
    },
    {
      "icao": "EHBK",
      "alert": "OK",
      "vis_m": 9999,
      "fzfg": false,
      "metar_trigger": false,
      "taf_trigger": false,
      "metar": "METAR EHBK 062125Z AUTO 09005KT 9999 NSC 08/01 Q1026 NOSIG",
      "taf": "TAF EHBK 061656Z 0618/0724 07006KT CAVOK"
    },
    {
      "icao": "EHEH",
      "alert": "OK",
      "vis_m": 9999,
      "fzfg": false,
      "metar_trigger": false,
      "taf_trigger": false,
      "metar": "METAR EHEH 062125Z AUTO 06005KT 9999 FEW390 07/01 Q1027 BLU",
      "taf": "TAF EHEH 061703Z 0618/0724 08006KT CAVOK"
    },
    {
      "icao": "EKBI",
      "alert": "OK",
      "vis_m": 9999,
      "fzfg": false,
      "metar_trigger": false,
      "taf_trigger": false,
      "metar": "METAR EKBI 062120Z AUTO 29011KT 9999 BKN014/// 06/03 Q1024",
      "taf": "TAF EKBI 062027Z 0621/0721 27012KT 9999 BKN015"
    },
    {
      "icao": "EKCH",
      "alert": "OK",
      "vis_m": 9999,
      "fzfg": false,
      "metar_trigger": false,
      "taf_trigger": false,
      "metar": "METAR EKCH 062120Z AUTO 29013G26KT 9999 SCT023/// 07/02 Q1021 NOSIG",
      "taf": "TAF EKCH 062027Z 0621/0721 29015KT CAVOK"
    },
    {
      "icao": "ENAL",
      "alert": "OK",
      "vis_m": 9999,
      "fzfg": false,
      "metar_trigger": false,
      "taf_trigger": false,
      "metar": "METAR ENAL 062120Z 26010KT 9999 SCT047 05/M00 Q1022",
      "taf": "TAF ENAL 062000Z 0621/0706 26012KT 9999 FEW015 SCT035"
    },
    {
      "icao": "ENBR",
      "alert": "OK",
      "vis_m": 9999,
      "fzfg": false,
      "metar_trigger": false,
      "taf_trigger": false,
      "metar": "METAR ENBR 062120Z 34004KT CAVOK 02/M02 Q1024 RMK WIND 1200FT 35009KT",
      "taf": "TAF ENBR 061700Z 0618/0718 33012KT 9999 FEW025 SCT045"
    },
    {
      "icao": "ENGM",
      "alert": "OK",
      "vis_m": 9999,
      "fzfg": false,
      "metar_trigger": false,
      "taf_trigger": false,
      "metar": "METAR ENGM 062120Z 36009KT CAVOK 04/M09 Q1018",
      "taf": "TAF ENGM 061700Z 0618/0718 30008KT CAVOK"
    },
    {
      "icao": "ENHD",
      "alert": "OK",
      "vis_m": 9999,
      "fzfg": false,
      "metar_trigger": false,
      "taf_trigger": false,
      "metar": "METAR ENHD 062120Z AUTO 34007KT 9999 NCD 05/02 Q1025",
      "taf": "TAF ENHD 061400Z 0615/0622 33008KT 9999 FEW020 SCT035"
    },
    {
      "icao": "ENTC",
      "alert": "OK",
      "vis_m": 9999,
      "fzfg": false,
      "metar_trigger": false,
      "taf_trigger": false,
      "metar": "METAR ENTC 062120Z 02008KT 320V070 9999 BKN057 04/M01 Q1015 RMK WIND 2600FT 09006KT",
      "taf": "TAF ENTC 061700Z 0618/0718 02007KT 9999 BKN050"
    },
    {
      "icao": "ENTO",
      "alert": "OK",
      "vis_m": 9999,
      "fzfg": false,
      "metar_trigger": false,
      "taf_trigger": false,
      "metar": "METAR ENTO 062120Z 32009KT CAVOK 05/M05 Q1019",
      "taf": "TAF ENTO 061700Z 0618/0718 33015KT CAVOK"
    },
    {
      "icao": "ENVA",
      "alert": "OK",
      "vis_m": 9999,
      "fzfg": false,
      "metar_trigger": false,
      "taf_trigger": false,
      "metar": "METAR ENVA 062120Z 25012KT 9999 FEW037 SCT043 05/00 Q1018 RMK WIND 670FT 27014KT",
      "taf": "TAF ENVA 061700Z 0618/0718 27020KT 9999 FEW020 SCT050"
    },
    {
      "icao": "ENZV",
      "alert": "OK",
      "vis_m": 9999,
      "fzfg": false,
      "metar_trigger": false,
      "taf_trigger": false,
      "metar": "METAR ENZV 062120Z 32007KT 9999 FEW038 05/02 Q1025",
      "taf": "TAF ENZV 061700Z 0618/0718 32018KT 9999 FEW030"
    },
    {
      "icao": "EPGD",
      "alert": "OK",
      "vis_m": 9999,
      "fzfg": false,
      "metar_trigger": false,
      "taf_trigger": false,
      "metar": "METAR EPGD 062130Z 29025KT CAVOK 06/01 Q1015",
      "taf": "TAF EPGD 061730Z 0618/0718 27025G35KT 9999 BKN030"
    },
    {
      "icao": "EPKK",
      "alert": "OK",
      "vis_m": 9999,
      "fzfg": false,
      "metar_trigger": false,
      "taf_trigger": false,
      "metar": "METAR EPKK 062130Z 26008KT CAVOK 06/M04 Q1021",
      "taf": "TAF EPKK 062030Z 0621/0721 26008KT CAVOK"
    },
    {
      "icao": "EPKT",
      "alert": "OK",
      "vis_m": 9999,
      "fzfg": false,
      "metar_trigger": false,
      "taf_trigger": false,
      "metar": "METAR EPKT 062130Z 27009KT CAVOK 03/M05 Q1021",
      "taf": "TAF EPKT 061730Z 0618/0718 29012KT CAVOK"
    },
    {
      "icao": "EPLB",
      "alert": "OK",
      "vis_m": 9999,
      "fzfg": false,
      "metar_trigger": false,
      "taf_trigger": false,
      "metar": "METAR EPLB 062130Z 27012KT CAVOK 07/M02 Q1016",
      "taf": "TAF EPLB 061730Z 0618/0718 27010KT CAVOK"
    },
    {
      "icao": "EPMO",
      "alert": "OK",
      "vis_m": 9999,
      "fzfg": false,
      "metar_trigger": false,
      "taf_trigger": false,
      "metar": "METAR EPMO 062130Z 28019G31KT CAVOK 08/M01 Q1016",
      "taf": "TAF EPMO 061730Z 0618/0718 27010KT CAVOK"
    },
    {
      "icao": "EPPO",
      "alert": "OK",
      "vis_m": 9999,
      "fzfg": false,
      "metar_trigger": false,
      "taf_trigger": false,
      "metar": "METAR EPPO 062130Z 30011KT CAVOK 07/M02 Q1022",
      "taf": "TAF EPPO 061730Z 0618/0718 28015G25KT CAVOK"
    },
    {
      "icao": "EPRA",
      "alert": "OK",
      "vis_m": 9999,
      "fzfg": false,
      "metar_trigger": false,
      "taf_trigger": false,
      "metar": "METAR EPRA 062130Z 30009KT CAVOK 08/M04 Q1018",
      "taf": "TAF EPRA 062030Z 0621/0706 29010KT CAVOK"
    },
    {
      "icao": "EPRZ",
      "alert": "OK",
      "vis_m": 9999,
      "fzfg": false,
      "metar_trigger": false,
      "taf_trigger": false,
      "metar": "METAR EPRZ 062130Z 26007KT CAVOK 04/M03 Q1019",
      "taf": "TAF EPRZ 061730Z 0618/0718 29012KT CAVOK"
    },
    {
      "icao": "EPSC",
      "alert": "OK",
      "vis_m": 9999,
      "fzfg": false,
      "metar_trigger": false,
      "taf_trigger": false,
      "metar": "METAR EPSC 062130Z 28017KT CAVOK 07/00 Q1022",
      "taf": "TAF EPSC 061730Z 0618/0718 27015KT CAVOK"
    },
    {
      "icao": "EPSY",
      "alert": "OK",
      "vis_m": 9999,
      "fzfg": false,
      "metar_trigger": false,
      "taf_trigger": false,
      "metar": "METAR EPSY 062130Z 29011G22KT 250V330 9999 BKN033 07/00 Q1013",
      "taf": "TAF EPSY 062030Z 0621/0706 28012KT 9999 SCT040"
    },
    {
      "icao": "EPWA",
      "alert": "OK",
      "vis_m": 9999,
      "fzfg": false,
      "metar_trigger": false,
      "taf_trigger": false,
      "metar": "METAR EPWA 062130Z 28016KT CAVOK 08/M02 Q1016 NOSIG",
      "taf": "TAF EPWA 062030Z 0621/0721 27010KT CAVOK"
    },
    {
      "icao": "EPWR",
      "alert": "OK",
      "vis_m": 9999,
      "fzfg": false,
      "metar_trigger": false,
      "taf_trigger": false,
      "metar": "METAR EPWR 062130Z 27011KT CAVOK 07/M03 Q1023",
      "taf": "TAF EPWR 062030Z 0621/0721 27010KT CAVOK"
    },
    {
      "icao": "ESGG",
      "alert": "OK",
      "vis_m": 9999,
      "fzfg": false,
      "metar_trigger": false,
      "taf_trigger": false,
      "metar": "METAR ESGG 062120Z 26005KT CAVOK 04/01 Q1017",
      "taf": "TAF ESGG 062030Z 0621/0721 30007KT CAVOK"
    },
    {
      "icao": "ESKN",
      "alert": "OK",
      "vis_m": 9999,
      "fzfg": false,
      "metar_trigger": false,
      "taf_trigger": false,
      "metar": "METAR ESKN 062120Z 31015KT CAVOK 07/M01 Q1010",
      "taf": "TAF ESKN 062030Z 0621/0721 31008KT CAVOK"
    },
    {
      "icao": "ESMS",
      "alert": "OK",
      "vis_m": 9999,
      "fzfg": false,
      "metar_trigger": false,
      "taf_trigger": false,
      "metar": "METAR ESMS 062120Z 29014KT CAVOK 06/02 Q1020",
      "taf": "TAF ESMS 062027Z 0621/0721 29014KT CAVOK"
    },
    {
      "icao": "ESSA",
      "alert": "OK",
      "vis_m": 9999,
      "fzfg": false,
      "metar_trigger": false,
      "taf_trigger": false,
      "metar": "METAR ESSA 062120Z 02010KT CAVOK 05/M00 Q1008 NOSIG",
      "taf": "TAF ESSA 062030Z 0621/0721 30010KT 9999 BKN040"
    },
    {
      "icao": "EYKA",
      "alert": "OK",
      "vis_m": 9999,
      "fzfg": false,
      "metar_trigger": false,
      "taf_trigger": false,
      "metar": "METAR EYKA 062120Z 29012KT 9999 BKN017 OVC024 04/02 Q1006",
      "taf": "TAF EYKA 061700Z 0618/0718 28014KT 9000 BKN020"
    },
    {
      "icao": "EYPA",
      "alert": "OK",
      "vis_m": 9999,
      "fzfg": false,
      "metar_trigger": false,
      "taf_trigger": false,
      "metar": "METAR EYPA 062120Z 31006KT 280V010 9999 SCT046CB 05/01 Q1009",
      "taf": "TAF EYPA 061708Z 0618/0718 30010KT 9000 SCT040"
    },
    {
      "icao": "EYVI",
      "alert": "OK",
      "vis_m": 9999,
      "fzfg": false,
      "metar_trigger": false,
      "taf_trigger": false,
      "metar": "METAR EYVI 062120Z 27011KT 9999 -RA OVC007 03/02 Q1005 NOSIG",
      "taf": ""
    },
    {
      "icao": "GCFV",
      "alert": "OK",
      "vis_m": 9999,
      "fzfg": false,
      "metar_trigger": false,
      "taf_trigger": false,
      "metar": "METAR GCFV 062130Z 32007KT 290V350 9999 FEW020 19/13 Q1019",
      "taf": "TAF GCFV 062000Z 0621/0721 34005KT 9999 FEW030 TX23/0714Z TN17/0706Z"
    },
    {
      "icao": "GCLP",
      "alert": "OK",
      "vis_m": 9999,
      "fzfg": false,
      "metar_trigger": false,
      "taf_trigger": false,
      "metar": "METAR GCLP 062130Z 01015KT 9999 SCT025 19/14 Q1019 NOSIG",
      "taf": "TAF GCLP 062000Z 0621/0721 36015KT 9999 BKN025 TX23/0714Z TN17/0706Z"
    },
    {
      "icao": "GCTS",
      "alert": "OK",
      "vis_m": 9999,
      "fzfg": false,
      "metar_trigger": false,
      "taf_trigger": false,
      "metar": "METAR GCTS 062130Z 16002KT 9999 BKN025 19/16 Q1020 NOSIG",
      "taf": "TAF GCTS 062000Z 0621/0721 14006KT 9999 SCT025 TX22/0714Z TN18/0706Z"
    },
    {
      "icao": "GMAD",
      "alert": "OK",
      "vis_m": 6000,
      "fzfg": false,
      "metar_trigger": false,
      "taf_trigger": false,
      "metar": "METAR GMAD 062130Z 24008KT 6000 FEW026 BKN100 19/17 Q1019 NOSIG",
      "taf": "TAF GMAD 061700Z 0618/0724 18012KT 8000 SCT026 BKN080"
    },
    {
      "icao": "GMMN",
      "alert": "OK",
      "vis_m": 9999,
      "fzfg": false,
      "metar_trigger": false,
      "taf_trigger": false,
      "metar": "METAR GMMN 062130Z 13008KT 9999 SCT005 SCT100 18/12 Q1016 NOSIG",
      "taf": "TAF GMMN 061700Z 0618/0724 12010KT 9999 SCT020 BKN100"
    },
    {
      "icao": "GMMX",
      "alert": "OK",
      "vis_m": 6000,
      "fzfg": false,
      "metar_trigger": false,
      "taf_trigger": false,
      "metar": "METAR GMMX 062130Z 17007KT 6000 SCT023 BKN080 22/04 Q1017 NOSIG",
      "taf": "TAF GMMX 061700Z 0618/0724 24006KT 8000 SCT023 BKN080"
    },
    {
      "icao": "HEGN",
      "alert": "OK",
      "vis_m": 9999,
      "fzfg": false,
      "metar_trigger": false,
      "taf_trigger": false,
      "metar": "METAR HEGN 062100Z 30010KT CAVOK 21/02 Q1019 NOSIG",
      "taf": "TAF HEGN 061700Z 0618/0724 32015KT 9999 SCT025"
    },
    {
      "icao": "HEMA",
      "alert": "OK",
      "vis_m": 9999,
      "fzfg": false,
      "metar_trigger": false,
      "taf_trigger": false,
      "metar": "METAR HEMA 062100Z 31011KT CAVOK 22/04 Q1018 NOSIG",
      "taf": "TAF HEMA 061700Z 0618/0724 33015KT CAVOK"
    },
    {
      "icao": "HESH",
      "alert": "OK",
      "vis_m": 9999,
      "fzfg": false,
      "metar_trigger": false,
      "taf_trigger": false,
      "metar": "METAR HESH 062100Z 33009KT CAVOK 23/10 Q1018 NOSIG",
      "taf": "TAF HESH 061700Z 0618/0724 36015KT CAVOK"
    },
    {
      "icao": "HESX",
      "alert": "OK",
      "vis_m": 9999,
      "fzfg": false,
      "metar_trigger": false,
      "taf_trigger": false,
      "metar": "METAR HESX 062100Z 07011KT CAVOK 16/12 Q1019 NOSIG",
      "taf": "TAF HESX 061700Z 0618/0724 31009KT 9999 FEW025"
    },
    {
      "icao": "LATI",
      "alert": "OK",
      "vis_m": 9999,
      "fzfg": false,
      "metar_trigger": false,
      "taf_trigger": false,
      "metar": "METAR LATI 062120Z 15003KT CAVOK 11/07 Q1023 NOSIG",
      "taf": "TAF LATI 061700Z 0618/0718 VRB05KT CAVOK TX23/0712Z TN05/0704Z"
    },
    {
      "icao": "LBPD",
      "alert": "OK",
      "vis_m": 9999,
      "fzfg": false,
      "metar_trigger": false,
      "taf_trigger": false,
      "metar": "METAR LBPD 062130Z AUTO 22003KT 170V260 9999 NCD 15/05 Q1018",
      "taf": "TAF LBPD 061700Z 0618/0718 VRB04KT 9999 SCT080"
    },
    {
      "icao": "LBSF",
      "alert": "OK",
      "vis_m": 9999,
      "fzfg": false,
      "metar_trigger": false,
      "taf_trigger": false,
      "metar": "METAR LBSF 062130Z AUTO 00000KT 9999 NCD 09/04 Q1020 NOSIG",
      "taf": "TAF LBSF 061700Z 0618/0718 32010KT 9999 SCT080"
    },
    {
      "icao": "LBWN",
      "alert": "OK",
      "vis_m": 9999,
      "fzfg": false,
      "metar_trigger": false,
      "taf_trigger": false,
      "metar": "METAR LBWN 062130Z AUTO 34004KT 9999 NCD 11/06 Q1016 NOSIG",
      "taf": "TAF LBWN 061700Z 0618/0718 VRB03KT 9999 SCT030"
    },
    {
      "icao": "LCLK",
      "alert": "OK",
      "vis_m": 9999,
      "fzfg": false,
      "metar_trigger": false,
      "taf_trigger": false,
      "metar": "METAR LCLK 062130Z 23003KT CAVOK 13/12 Q1018 NOSIG",
      "taf": "TAF LCLK 061730Z 0618/0718 29006KT 9999 FEW025"
    },
    {
      "icao": "LCPH",
      "alert": "OK",
      "vis_m": 9999,
      "fzfg": false,
      "metar_trigger": false,
      "taf_trigger": false,
      "metar": "METAR LCPH 062130Z 01004KT 010V080 9999 FEW025 SCT035 14/11 Q1019 NOSIG",
      "taf": "TAF LCPH 061730Z 0618/0718 01007KT 9999 FEW020 SCT035"
    },
    {
      "icao": "LEAL",
      "alert": "OK",
      "vis_m": 9999,
      "fzfg": false,
      "metar_trigger": false,
      "taf_trigger": false,
      "metar": "METAR LEAL 062130Z 02003KT 350V060 CAVOK 15/12 Q1022 NOSIG",
      "taf": "TAF LEAL 061700Z 0618/0718 06010KT CAVOK TX22/0712Z TN10/0706Z"
    },
    {
      "icao": "LEBB",
      "alert": "OK",
      "vis_m": 9999,
      "fzfg": false,
      "metar_trigger": false,
      "taf_trigger": false,
      "metar": "METAR LEBB 062130Z 14010KT 100V170 CAVOK 25/04 Q1015 NOSIG",
      "taf": "TAF LEBB 061700Z 0618/0718 13009KT 9999 FEW040 TX28/0618Z TN16/0706Z"
    },
    {
      "icao": "LEBL",
      "alert": "OK",
      "vis_m": 9999,
      "fzfg": false,
      "metar_trigger": false,
      "taf_trigger": false,
      "metar": "METAR LEBL 062130Z 01001KT CAVOK 13/09 Q1024 NOSIG",
      "taf": "TAF LEBL 061700Z 0618/0718 21010KT CAVOK TX20/0712Z TN10/0705Z"
    },
    {
      "icao": "LECH",
      "alert": "OK",
      "vis_m": 9000,
      "fzfg": false,
      "metar_trigger": false,
      "taf_trigger": false,
      "metar": "METAR LECH 062130Z AUTO VRB01KT 9000 NCD 11/02 Q1024",
      "taf": "TAF LECH 061700Z 0618/0718 VRB03KT CAVOK TX23/0714Z TN09/0706Z"
    },
    {
      "icao": "LEMD",
      "alert": "OK",
      "vis_m": 9999,
      "fzfg": false,
      "metar_trigger": false,
      "taf_trigger": false,
      "metar": "METAR LEMD 062130Z 13006KT 070V180 CAVOK 18/05 Q1019 NOSIG",
      "taf": "TAF LEMD 061700Z 0618/0724 15010KT CAVOK TX25/0618Z TN09/0706Z"
    },
    {
      "icao": "LEMG",
      "alert": "OK",
      "vis_m": 9999,
      "fzfg": false,
      "metar_trigger": false,
      "taf_trigger": false,
      "metar": "METAR LEMG 062130Z 11004KT 080V140 CAVOK 17/09 Q1021 NOSIG",
      "taf": "TAF LEMG 061700Z 0618/0718 VRB03KT CAVOK TX22/0714Z TN13/0706Z"
    },
    {
      "icao": "LEVC",
      "alert": "OK",
      "vis_m": 9999,
      "fzfg": false,
      "metar_trigger": false,
      "taf_trigger": false,
      "metar": "METAR LEVC 062130Z 34003KT 300V030 CAVOK 14/06 Q1024 NOSIG",
      "taf": "TAF LEVC 061700Z 0618/0718 VRB03KT 9999 FEW015 TX22/0714Z TN08/0706Z"
    },
    {
      "icao": "LEXJ",
      "alert": "OK",
      "vis_m": 9999,
      "fzfg": false,
      "metar_trigger": false,
      "taf_trigger": false,
      "metar": "METAR LEXJ 062130Z AUTO VRB02KT CAVOK 19/09 Q1013",
      "taf": "TAF LEXJ 062000Z 0621/0721 18009KT CAVOK TX25/0714Z TN17/0708Z"
    },
    {
      "icao": "LEZG",
      "alert": "OK",
      "vis_m": 9999,
      "fzfg": false,
      "metar_trigger": false,
      "taf_trigger": false,
      "metar": "METAR LEZG 062130Z 09009KT CAVOK 17/01 Q1020 NOSIG",
      "taf": "TAF LEZG 061700Z 0618/0718 10012KT CAVOK TX28/0714Z TN10/0706Z"
    },
    {
      "icao": "LEZL",
      "alert": "OK",
      "vis_m": 9999,
      "fzfg": false,
      "metar_trigger": false,
      "taf_trigger": false,
      "metar": "METAR LEZL 062130Z 10010KT CAVOK 19/13 Q1018 NOSIG",
      "taf": "TAF LEZL 062000Z 0621/0721 VRB03KT CAVOK TX27/0715Z TN11/0706Z"
    },
    {
      "icao": "LFBD",
      "alert": "OK",
      "vis_m": 9999,
      "fzfg": false,
      "metar_trigger": false,
      "taf_trigger": false,
      "metar": "METAR LFBD 062130Z AUTO 11006KT CAVOK 18/09 Q1017 NOSIG",
      "taf": "TAF LFBD 061700Z 0618/0724 12010KT CAVOK TX27/0714Z TN13/0706Z"
    },
    {
      "icao": "LFLL",
      "alert": "OK",
      "vis_m": 9999,
      "fzfg": false,
      "metar_trigger": false,
      "taf_trigger": false,
      "metar": "METAR LFLL 062130Z 19002KT CAVOK 15/08 Q1023 NOSIG",
      "taf": "TAF LFLL 061700Z 0618/0724 VRB02KT CAVOK"
    },
    {
      "icao": "LFLS",
      "alert": "OK",
      "vis_m": 9999,
      "fzfg": false,
      "metar_trigger": false,
      "taf_trigger": false,
      "metar": "METAR LFLS 062130Z AUTO 12006KT CAVOK 09/06 Q1023",
      "taf": "TAF LFLS 061400Z 0615/0715 09005KT CAVOK"
    },
    {
      "icao": "LFMN",
      "alert": "OK",
      "vis_m": 9999,
      "fzfg": false,
      "metar_trigger": false,
      "taf_trigger": false,
      "metar": "METAR LFMN 062130Z 00000KT 9999 FEW014 14/12 Q1024 NOSIG",
      "taf": "TAF LFMN 062000Z 0621/0803 11008KT 9999 SCT028"
    },
    {
      "icao": "LFOB",
      "alert": "OK",
      "vis_m": 9999,
      "fzfg": false,
      "metar_trigger": false,
      "taf_trigger": false,
      "metar": "METAR LFOB 062130Z AUTO VRB02KT CAVOK 06/04 Q1024 NOSIG",
      "taf": "TAF LFOB 061700Z 0618/0718 09005KT CAVOK"
    },
    {
      "icao": "LFPO",
      "alert": "OK",
      "vis_m": 9999,
      "fzfg": false,
      "metar_trigger": false,
      "taf_trigger": false,
      "metar": "METAR LFPO 062130Z 11001KT CAVOK 12/05 Q1023 NOSIG",
      "taf": "TAF LFPO 061700Z 0618/0724 08007KT CAVOK"
    },
    {
      "icao": "LFSB",
      "alert": "OK",
      "vis_m": 9999,
      "fzfg": false,
      "metar_trigger": false,
      "taf_trigger": false,
      "metar": "METAR LFSB 062130Z AUTO 32005KT CAVOK 11/05 Q1024 NOSIG",
      "taf": "TAF LFSB 061700Z 0618/0718 34005KT CAVOK"
    },
    {
      "icao": "LGAV",
      "alert": "OK",
      "vis_m": 9999,
      "fzfg": false,
      "metar_trigger": false,
      "taf_trigger": false,
      "metar": "METAR LGAV 062120Z 26003KT 9999 FEW025 09/06 Q1021 NOSIG",
      "taf": "TAF LGAV 061700Z 0618/0718 30008KT 9999 FEW020"
    },
    {
      "icao": "LGTS",
      "alert": "OK",
      "vis_m": 9999,
      "fzfg": false,
      "metar_trigger": false,
      "taf_trigger": false,
      "metar": "METAR LGTS 062120Z 11005KT 9999 FEW030 12/08 Q1020 NOSIG",
      "taf": "TAF LGTS 061700Z 0618/0718 VRB03KT 9999 FEW025"
    },
    {
      "icao": "LHBP",
      "alert": "OK",
      "vis_m": 9999,
      "fzfg": false,
      "metar_trigger": false,
      "taf_trigger": false,
      "metar": "METAR LHBP 062130Z 30007KT CAVOK 09/M03 Q1023 NOSIG",
      "taf": "TAF LHBP 061715Z 0618/0718 30010G20KT CAVOK"
    },
    {
      "icao": "LHDC",
      "alert": "OK",
      "vis_m": 9999,
      "fzfg": false,
      "metar_trigger": false,
      "taf_trigger": false,
      "metar": "METAR LHDC 062115Z AUTO 04007KT CAVOK 06/M05 Q1022",
      "taf": "TAF LHDC 061715Z 0618/0703 30015G25KT CAVOK"
    },
    {
      "icao": "LIBD",
      "alert": "OK",
      "vis_m": 9999,
      "fzfg": false,
      "metar_trigger": false,
      "taf_trigger": false,
      "metar": "METAR LIBD 062120Z 22007KT CAVOK 12/08 Q1022",
      "taf": "TAF LIBD 061700Z 0618/0718 VRB05KT CAVOK"
    },
    {
      "icao": "LIBG",
      "alert": "OK",
      "vis_m": null,
      "fzfg": false,
      "metar_trigger": false,
      "taf_trigger": false,
      "metar": "",
      "taf": "TAF LIBG 061400Z 0615/0624 25006KT CAVOK"
    },
    {
      "icao": "LIBP",
      "alert": "OK",
      "vis_m": 9999,
      "fzfg": false,
      "metar_trigger": false,
      "taf_trigger": false,
      "metar": "METAR LIBP 062120Z AUTO 23004KT 9999 NCD 10/06 Q1022",
      "taf": "TAF LIBP 061700Z 0618/0718 VRB05KT CAVOK"
    },
    {
      "icao": "LIBR",
      "alert": "OK",
      "vis_m": 9999,
      "fzfg": false,
      "metar_trigger": false,
      "taf_trigger": false,
      "metar": "METAR LIBR 062120Z 24008KT CAVOK 13/09 Q1022",
      "taf": "TAF LIBR 061700Z 0618/0718 VRB05KT CAVOK"
    },
    {
      "icao": "LICA",
      "alert": "OK",
      "vis_m": 9999,
      "fzfg": false,
      "metar_trigger": false,
      "taf_trigger": false,
      "metar": "METAR LICA 062120Z AUTO 21004KT 9999 SCT015/// 12/11 Q1026",
      "taf": "TAF LICA 061700Z 0618/0718 26010KT 9999 SCT015"
    },
    {
      "icao": "LICC",
      "alert": "OK",
      "vis_m": 9999,
      "fzfg": false,
      "metar_trigger": false,
      "taf_trigger": false,
      "metar": "METAR LICC 062120Z 21004KT CAVOK 11/08 Q1025",
      "taf": "TAF LICC 061700Z 0618/0718 VRB05KT CAVOK"
    },
    {
      "icao": "LICJ",
      "alert": "OK",
      "vis_m": 9999,
      "fzfg": false,
      "metar_trigger": false,
      "taf_trigger": false,
      "metar": "METAR LICJ 062120Z 19002KT CAVOK 14/12 Q1026",
      "taf": "TAF LICJ 061700Z 0618/0718 VRB05KT CAVOK"
    },
    {
      "icao": "LIMC",
      "alert": "OK",
      "vis_m": 9999,
      "fzfg": false,
      "metar_trigger": false,
      "taf_trigger": false,
      "metar": "METAR LIMC 062120Z VRB02KT CAVOK 14/10 Q1021 NOSIG",
      "taf": "TAF LIMC 061700Z 0618/0724 VRB05KT CAVOK"
    },
    {
      "icao": "LIME",
      "alert": "OK",
      "vis_m": 9999,
      "fzfg": false,
      "metar_trigger": false,
      "taf_trigger": false,
      "metar": "METAR LIME 062120Z 01005KT CAVOK 16/10 Q1021 NOSIG",
      "taf": "TAF LIME 061700Z 0618/0718 VRB05KT CAVOK"
    },
    {
      "icao": "LIMF",
      "alert": "OK",
      "vis_m": 9999,
      "fzfg": false,
      "metar_trigger": false,
      "taf_trigger": false,
      "metar": "METAR LIMF 062120Z 24004KT 200V260 CAVOK 17/07 Q1021",
      "taf": "TAF LIMF 061700Z 0618/0718 VRB05KT CAVOK"
    },
    {
      "icao": "LIMJ",
      "alert": "OK",
      "vis_m": 9999,
      "fzfg": false,
      "metar_trigger": false,
      "taf_trigger": false,
      "metar": "METAR LIMJ 062120Z 13009KT 9999 BKN025 16/13 Q1024",
      "taf": "TAF LIMJ 061700Z 0618/0718 12012KT 9999 BKN025"
    },
    {
      "icao": "LIPE",
      "alert": "OK",
      "vis_m": 9999,
      "fzfg": false,
      "metar_trigger": false,
      "taf_trigger": false,
      "metar": "METAR LIPE 062120Z 19010KT CAVOK 17/04 Q1021",
      "taf": "TAF LIPE 061700Z 0618/0718 VRB05KT CAVOK"
    },
    {
      "icao": "LIPH",
      "alert": "OK",
      "vis_m": 9999,
      "fzfg": false,
      "metar_trigger": false,
      "taf_trigger": false,
      "metar": "METAR LIPH 062120Z AUTO VRB01KT 9999 NCD 13/09 Q1022",
      "taf": "TAF LIPH 061700Z 0618/0718 VRB05KT CAVOK"
    },
    {
      "icao": "LIPQ",
      "alert": "OK",
      "vis_m": 9999,
      "fzfg": false,
      "metar_trigger": false,
      "taf_trigger": false,
      "metar": "METAR LIPQ 062120Z AUTO 03001KT 9999 NCD 10/07 Q1022",
      "taf": "TAF LIPQ 061700Z 0618/0718 VRB05KT CAVOK"
    },
    {
      "icao": "LIPR",
      "alert": "OK",
      "vis_m": 9999,
      "fzfg": false,
      "metar_trigger": false,
      "taf_trigger": false,
      "metar": "METAR LIPR 062120Z AUTO 22005KT 9999 NCD 13/07 Q1021",
      "taf": "TAF LIPR 061700Z 0618/0718 VRB05KT CAVOK"
    },
    {
      "icao": "LIPX",
      "alert": "OK",
      "vis_m": 9999,
      "fzfg": false,
      "metar_trigger": false,
      "taf_trigger": false,
      "metar": "METAR LIPX 062120Z 05004KT 010V080 CAVOK 15/09 Q1021",
      "taf": "TAF LIPX 061700Z 0618/0718 VRB05KT CAVOK"
    },
    {
      "icao": "LIPY",
      "alert": "OK",
      "vis_m": 9999,
      "fzfg": false,
      "metar_trigger": false,
      "taf_trigger": false,
      "metar": "METAR LIPY 062120Z AUTO 19005KT 9999 NCD 12/07 Q1022",
      "taf": "TAF LIPY 061700Z 0618/0718 VRB05KT CAVOK"
    },
    {
      "icao": "LIPZ",
      "alert": "OK",
      "vis_m": 9999,
      "fzfg": false,
      "metar_trigger": false,
      "taf_trigger": false,
      "metar": "METAR LIPZ 062120Z 18003KT CAVOK 15/13 Q1022 NOSIG",
      "taf": "TAF LIPZ 061700Z 0618/0724 VRB05KT CAVOK"
    },
    {
      "icao": "LIRF",
      "alert": "OK",
      "vis_m": 9999,
      "fzfg": false,
      "metar_trigger": false,
      "taf_trigger": false,
      "metar": "METAR LIRF 062120Z VRB01KT CAVOK 12/11 Q1024 NOSIG",
      "taf": "TAF LIRF 061700Z 0618/0724 VRB05KT CAVOK"
    },
    {
      "icao": "LIRN",
      "alert": "OK",
      "vis_m": 8000,
      "fzfg": false,
      "metar_trigger": false,
      "taf_trigger": false,
      "metar": "METAR LIRN 062120Z 20004KT 8000 BKN010 14/13 Q1025 NOSIG",
      "taf": "TAF LIRN 061700Z 0618/0718 VRB05KT 9999 FEW016"
    },
    {
      "icao": "LIRP",
      "alert": "OK",
      "vis_m": 9999,
      "fzfg": false,
      "metar_trigger": false,
      "taf_trigger": false,
      "metar": "METAR LIRP 062115Z 11002KT CAVOK 11/09 Q1025 NOSIG",
      "taf": "TAF LIRP 061700Z 0618/0718 24007KT CAVOK"
    },
    {
      "icao": "LIRZ",
      "alert": "OK",
      "vis_m": 9999,
      "fzfg": false,
      "metar_trigger": false,
      "taf_trigger": false,
      "metar": "METAR LIRZ 062120Z AUTO 03006KT 9999 NCD 09/05 Q1024",
      "taf": "TAF LIRZ 061700Z 0618/0718 VRB04KT CAVOK"
    },
    {
      "icao": "LJLJ",
      "alert": "OK",
      "vis_m": 9999,
      "fzfg": false,
      "metar_trigger": false,
      "taf_trigger": false,
      "metar": "METAR LJLJ 062130Z 11006KT 9999 FEW090 14/05 Q1022 NOSIG",
      "taf": "TAF LJLJ 061700Z 0618/0718 VRB02KT 9999 FEW075"
    },
    {
      "icao": "LKMT",
      "alert": "OK",
      "vis_m": 9999,
      "fzfg": false,
      "metar_trigger": false,
      "taf_trigger": false,
      "metar": "METAR LKMT 062130Z 26003KT 220V300 CAVOK 06/M04 Q1024 NOSIG",
      "taf": "TAF LKMT 061700Z 0618/0718 28006KT CAVOK"
    },
    {
      "icao": "LKPR",
      "alert": "OK",
      "vis_m": 9999,
      "fzfg": false,
      "metar_trigger": false,
      "taf_trigger": false,
      "metar": "METAR LKPR 062130Z 32006KT CAVOK 05/M04 Q1025 NOSIG",
      "taf": "TAF LKPR 062000Z 0621/0803 30006KT CAVOK"
    },
    {
      "icao": "LLBG",
      "alert": "OK",
      "vis_m": 9999,
      "fzfg": false,
      "metar_trigger": false,
      "taf_trigger": false,
      "metar": "METAR LLBG 062120Z VRB02KT CAVOK 15/11 Q1020 NOSIG",
      "taf": "TAF LLBG 061702Z 0618/0718 VRB03KT 9999 FEW030 TX21/0711Z TN11/0703Z"
    },
    {
      "icao": "LMML",
      "alert": "OK",
      "vis_m": 9999,
      "fzfg": false,
      "metar_trigger": false,
      "taf_trigger": false,
      "metar": "METAR LMML 062115Z 24005KT 210V270 9999 FEW011 13/12 Q1026 NOSIG",
      "taf": "TAF LMML 061700Z 0618/0718 28008KT 9999 FEW012"
    },
    {
      "icao": "LOWW",
      "alert": "OK",
      "vis_m": 9999,
      "fzfg": false,
      "metar_trigger": false,
      "taf_trigger": false,
      "metar": "METAR LOWW 062120Z 34005KT CAVOK 09/M02 Q1024 NOSIG",
      "taf": "TAF LOWW 062015Z 0621/0803 32010KT 9999 FEW050 TX17/0715Z TN05/0803Z"
    },
    {
      "icao": "LPFR",
      "alert": "OK",
      "vis_m": 9999,
      "fzfg": false,
      "metar_trigger": false,
      "taf_trigger": false,
      "metar": "METAR LPFR 062130Z 08010KT 9999 FEW020 17/14 Q1015",
      "taf": "TAF LPFR 061700Z 0618/0718 09013KT 9999 SCT040"
    },
    {
      "icao": "LPMA",
      "alert": "OK",
      "vis_m": 9999,
      "fzfg": false,
      "metar_trigger": false,
      "taf_trigger": false,
      "metar": "METAR LPMA 062130Z 29005KT 9999 FEW014 16/11 Q1016",
      "taf": "TAF LPMA 061700Z 0618/0718 VRB05KT 9999 SCT014 SCT030"
    },
    {
      "icao": "LPPR",
      "alert": "OK",
      "vis_m": 9999,
      "fzfg": false,
      "metar_trigger": false,
      "taf_trigger": false,
      "metar": "METAR LPPR 062130Z 16013KT 9999 -RA SCT025 FEW030CB BKN037 16/14 Q1014",
      "taf": "TAF LPPR 061700Z 0618/0718 16012KT 9999 SCT040"
    },
    {
      "icao": "LPPS",
      "alert": "OK",
      "vis_m": 9999,
      "fzfg": false,
      "metar_trigger": false,
      "taf_trigger": false,
      "metar": "METAR LPPS 062130Z 27013KT 9999 FEW015 16/11 Q1016",
      "taf": "TAF LPPS 061700Z 0618/0724 29013KT 9999 SCT015 SCT030"
    },
    {
      "icao": "LPPT",
      "alert": "OK",
      "vis_m": 9999,
      "fzfg": false,
      "metar_trigger": false,
      "taf_trigger": false,
      "metar": "METAR LPPT 062130Z 12008KT 020V150 9999 FEW008 16/15 Q1014",
      "taf": "TAF LPPT 061700Z 0618/0724 18013KT 9999 SCT035"
    },
    {
      "icao": "LQBK",
      "alert": "OK",
      "vis_m": 9999,
      "fzfg": false,
      "metar_trigger": false,
      "taf_trigger": false,
      "metar": "METAR LQBK 062130Z VRB03KT CAVOK 10/05 Q1022 NOSIG",
      "taf": "TAF LQBK 061700Z 0618/0718 06006KT CAVOK TX22/0713Z TN08/0704Z"
    },
    {
      "icao": "LQSA",
      "alert": "OK",
      "vis_m": 9999,
      "fzfg": false,
      "metar_trigger": false,
      "taf_trigger": false,
      "metar": "METAR LQSA 062130Z VRB02KT CAVOK 09/01 Q1022",
      "taf": "TAF LQSA 061700Z 0618/0718 VRB02KT CAVOK TX21/0714Z TN03/0704Z"
    },
    {
      "icao": "LQTZ",
      "alert": "OK",
      "vis_m": 9999,
      "fzfg": false,
      "metar_trigger": false,
      "taf_trigger": false,
      "metar": "METAR LQTZ 062130Z VRB02KT CAVOK 11/08 Q1022",
      "taf": "TAF LQTZ 061700Z 0618/0718 VRB02KT 9999 SCT040 TX22/0713Z TN06/0704Z"
    },
    {
      "icao": "LRBC",
      "alert": "OK",
      "vis_m": 9999,
      "fzfg": false,
      "metar_trigger": false,
      "taf_trigger": false,
      "metar": "METAR LRBC 062130Z 35014KT 9999 -RA BKN042 05/02 Q1021",
      "taf": "TAF LRBC 062000Z 0621/0706 34007KT 9999 BKN030"
    },
    {
      "icao": "LRBS",
      "alert": "OK",
      "vis_m": 9999,
      "fzfg": false,
      "metar_trigger": false,
      "taf_trigger": false,
      "metar": "METAR LRBS 062130Z 06012KT 030V090 CAVOK 13/08 Q1017 NOSIG",
      "taf": "TAF LRBS 061700Z 0618/0718 23008KT CAVOK"
    },
    {
      "icao": "LRBV",
      "alert": "OK",
      "vis_m": 9999,
      "fzfg": false,
      "metar_trigger": false,
      "taf_trigger": false,
      "metar": "METAR LRBV 062130Z AUTO 31005KT 270V340 9999 BKN056/// BKN080/// 12/02 Q1018",
      "taf": "TAF LRBV 061700Z 0618/0703 29014KT 9999 SCT055"
    },
    {
      "icao": "LRCL",
      "alert": "OK",
      "vis_m": 9999,
      "fzfg": false,
      "metar_trigger": false,
      "taf_trigger": false,
      "metar": "METAR LRCL 062130Z 28007KT 9999 FEW071 09/M03 Q1019",
      "taf": "TAF LRCL 062000Z 0621/0706 29010KT CAVOK"
    },
    {
      "icao": "LRCV",
      "alert": "OK",
      "vis_m": 9999,
      "fzfg": false,
      "metar_trigger": false,
      "taf_trigger": false,
      "metar": "METAR LRCV 062130Z 30008KT CAVOK 15/08 Q1018",
      "taf": "TAF LRCV 062000Z 0621/0706 28008KT CAVOK"
    },
    {
      "icao": "LRIA",
      "alert": "OK",
      "vis_m": 9999,
      "fzfg": false,
      "metar_trigger": false,
      "taf_trigger": false,
      "metar": "METAR LRIA 062130Z 27006G16KT 200V330 9999 OVC048 08/M02 Q1019",
      "taf": "TAF LRIA 062000Z 0621/0706 VRB04KT CAVOK"
    },
    {
      "icao": "LROP",
      "alert": "OK",
      "vis_m": 9999,
      "fzfg": false,
      "metar_trigger": false,
      "taf_trigger": false,
      "metar": "METAR LROP 062130Z 07016KT CAVOK 12/05 Q1017 NOSIG",
      "taf": "TAF LROP 061700Z 0618/0718 23008KT CAVOK"
    },
    {
      "icao": "LRSB",
      "alert": "OK",
      "vis_m": 9999,
      "fzfg": false,
      "metar_trigger": false,
      "taf_trigger": false,
      "metar": "METAR LRSB 062130Z 29013KT CAVOK 11/M01 Q1019",
      "taf": "TAF LRSB 061700Z 0618/0718 30012KT 9999 SCT065"
    },
    {
      "icao": "LRSM",
      "alert": "OK",
      "vis_m": 9999,
      "fzfg": false,
      "metar_trigger": false,
      "taf_trigger": false,
      "metar": "METAR LRSM 062130Z AUTO 34006KT 9999 FEW085/// 06/M05 Q1021",
      "taf": "TAF LRSM 061400Z 0615/0624 34010KT CAVOK"
    },
    {
      "icao": "LRSV",
      "alert": "OK",
      "vis_m": 9999,
      "fzfg": false,
      "metar_trigger": false,
      "taf_trigger": false,
      "metar": "METAR LRSV 062130Z 23006KT 9999 SCT047 04/02 Q1019",
      "taf": "TAF LRSV 062000Z 0621/0706 34009KT 9999 BKN030"
    },
    {
      "icao": "LRTM",
      "alert": "OK",
      "vis_m": 9999,
      "fzfg": false,
      "metar_trigger": false,
      "taf_trigger": false,
      "metar": "METAR LRTM 062130Z 28010KT CAVOK 10/M00 Q1018",
      "taf": "TAF LRTM 062000Z 0621/0706 29014KT CAVOK"
    },
    {
      "icao": "LRTR",
      "alert": "OK",
      "vis_m": 9999,
      "fzfg": false,
      "metar_trigger": false,
      "taf_trigger": false,
      "metar": "METAR LRTR 062130Z 35007KT CAVOK 10/02 Q1021",
      "taf": "TAF LRTR 061700Z 0618/0718 33010KT CAVOK"
    },
    {
      "icao": "LTAC",
      "alert": "OK",
      "vis_m": 9999,
      "fzfg": false,
      "metar_trigger": false,
      "taf_trigger": false,
      "metar": "METAR LTAC 062120Z VRB02KT CAVOK 09/00 Q1018 NOSIG RMK RWY21C 03004KT RWY03L 03003KT 360V060 RWY21R 02003KT RWY03R VRB02KT RWY21L 08003KT",
      "taf": "TAF LTAC 061640Z 0618/0718 VRB02KT 9999 SCT040"
    },
    {
      "icao": "LTFM",
      "alert": "OK",
      "vis_m": 9999,
      "fzfg": false,
      "metar_trigger": false,
      "taf_trigger": false,
      "metar": "METAR LTFM 062120Z 20007KT CAVOK 11/04 Q1018 NOSIG RMK RWY17L 22012KT RWY34L 22009KT RWY16R 23009KT RWY36 22009KT RWY18 22011KT",
      "taf": "TAF LTFM 061640Z 0618/0724 20012KT CAVOK"
    },
    {
      "icao": "LUKK",
      "alert": "OK",
      "vis_m": 9999,
      "fzfg": false,
      "metar_trigger": false,
      "taf_trigger": false,
      "metar": "METAR LUKK 062130Z 36014G25KT 320V030 9999 -RA NSC 08/M01 Q1018 NOSIG",
      "taf": "TAF LUKK 061710Z 0618/0718 34014KT 9999 SCT040"
    },
    {
      "icao": "LWOH",
      "alert": "OK",
      "vis_m": null,
      "fzfg": false,
      "metar_trigger": false,
      "taf_trigger": false,
      "metar": "",
      "taf": "TAF LWOH 062025Z 0621/0721 VRB02KT CAVOK"
    },
    {
      "icao": "LWSK",
      "alert": "OK",
      "vis_m": 9999,
      "fzfg": false,
      "metar_trigger": false,
      "taf_trigger": false,
      "metar": "METAR LWSK 062120Z VRB02KT CAVOK 10/05 Q1020 NOSIG",
      "taf": "TAF LWSK 062025Z 0621/0721 VRB02KT CAVOK"
    },
    {
      "icao": "LYBE",
      "alert": "OK",
      "vis_m": 9999,
      "fzfg": false,
      "metar_trigger": false,
      "taf_trigger": false,
      "metar": "METAR LYBE 062130Z 05002KT CAVOK 12/05 Q1022 NOSIG",
      "taf": "TAF LYBE 061700Z 0618/0718 36006KT CAVOK TX18/0713Z TN09/0705Z"
    },
    {
      "icao": "LYNI",
      "alert": "OK",
      "vis_m": 9999,
      "fzfg": false,
      "metar_trigger": false,
      "taf_trigger": false,
      "metar": "METAR LYNI 062130Z VRB01KT CAVOK 11/05 Q1020 NOSIG",
      "taf": "TAF LYNI 061700Z 0618/0718 32006KT CAVOK TX19/0713Z TN07/0705Z"
    },
    {
      "icao": "LYPG",
      "alert": "OK",
      "vis_m": 9999,
      "fzfg": false,
      "metar_trigger": false,
      "taf_trigger": false,
      "metar": "METAR LYPG 062130Z 07002KT CAVOK 12/09 Q1022 NOSIG",
      "taf": "TAF LYPG 061700Z 0618/0718 36006KT CAVOK TX24/0713Z TN09/0704Z"
    },
    {
      "icao": "LZIB",
      "alert": "OK",
      "vis_m": 9999,
      "fzfg": false,
      "metar_trigger": false,
      "taf_trigger": false,
      "metar": "METAR LZIB 062130Z 30005KT 270V330 CAVOK 09/M04 Q1024 NOSIG",
      "taf": "TAF LZIB 061715Z 0618/0718 33015KT CAVOK"
    },
    {
      "icao": "LZKZ",
      "alert": "OK",
      "vis_m": 9999,
      "fzfg": false,
      "metar_trigger": false,
      "taf_trigger": false,
      "metar": "METAR LZKZ 062130Z 32010KT CAVOK 08/M07 Q1022 NOSIG",
      "taf": "TAF LZKZ 061715Z 0618/0718 01015KT CAVOK"
    },
    {
      "icao": "LZTT",
      "alert": "OK",
      "vis_m": 9999,
      "fzfg": false,
      "metar_trigger": false,
      "taf_trigger": false,
      "metar": "METAR LZTT 062130Z VRB04KT 9999 FEW063 04/M07 Q1020",
      "taf": "TAF LZTT 061715Z 0618/0718 27016KT 9999 SCT053"
    },
    {
      "icao": "OEJN",
      "alert": "OK",
      "vis_m": 9999,
      "fzfg": false,
      "metar_trigger": false,
      "taf_trigger": false,
      "metar": "METAR OEJN 062100Z 35008KT CAVOK 26/14 Q1014 NOSIG",
      "taf": "TAF OEJN 061700Z 0618/0724 35008KT CAVOK"
    },
    {
      "icao": "OEMA",
      "alert": "OK",
      "vis_m": 9999,
      "fzfg": false,
      "metar_trigger": false,
      "taf_trigger": false,
      "metar": "METAR OEMA 062100Z 31005KT 9999 SCT045 27/M09 Q1018 NOSIG",
      "taf": "TAF OEMA 061700Z 0618/0724 32008KT 7000 FEW045"
    },
    {
      "icao": "OJAI",
      "alert": "OK",
      "vis_m": 4000,
      "fzfg": false,
      "metar_trigger": false,
      "taf_trigger": false,
      "metar": "METAR OJAI 062100Z 10003KT 4000 BR NSC 07/05 Q1022 NOSIG",
      "taf": "TAF OJAI 061100Z 0612/0718 28012KT 5000 HZ BKN030"
    },
    {
      "icao": "OMAA",
      "alert": "OK",
      "vis_m": null,
      "fzfg": false,
      "metar_trigger": false,
      "taf_trigger": false,
      "metar": "",
      "taf": ""
    },
    {
      "icao": "OMDB",
      "alert": "OK",
      "vis_m": null,
      "fzfg": false,
      "metar_trigger": false,
      "taf_trigger": false,
      "metar": "",
      "taf": ""
    },
    {
      "icao": "UAAA",
      "alert": "OK",
      "vis_m": 9999,
      "fzfg": false,
      "metar_trigger": false,
      "taf_trigger": false,
      "metar": "METAR UAAA 062130Z 00000MPS 9999 SCT100 BKN200 10/07 Q1005 NOSIG",
      "taf": "TAF UAAA 061701Z 0618/0718 19002MPS 9999 FEW050CB SCT100 TX23/0710Z TN10/0701Z"
    },
    {
      "icao": "UBBB",
      "alert": "OK",
      "vis_m": 9999,
      "fzfg": false,
      "metar_trigger": false,
      "taf_trigger": false,
      "metar": "METAR UBBB 062130Z 32006KT CAVOK 09/06 Q1017 NOSIG",
      "taf": "TAF UBBB 061700Z 0618/0718 30012KT 9999 SCT020 TX16/0710Z TN09/0701Z"
    },
    {
      "icao": "UDSG",
      "alert": "OK",
      "vis_m": 9999,
      "fzfg": false,
      "metar_trigger": false,
      "taf_trigger": false,
      "metar": "METAR UDSG 062130Z 06001KT 9999 FEW049 00/M02 Q1018 NOSIG",
      "taf": "TAF UDSG 061658Z 0618/0718 VRB06KT 9999 FEW050"
    },
    {
      "icao": "UDYZ",
      "alert": "OK",
      "vis_m": 9999,
      "fzfg": false,
      "metar_trigger": false,
      "taf_trigger": false,
      "metar": "METAR UDYZ 062130Z 09004KT 320V130 9999 FEW046 08/03 Q1016 NOSIG",
      "taf": "TAF UDYZ 061700Z 0618/0718 04006KT 9999 FEW040"
    },
    {
      "icao": "UGKO",
      "alert": "OK",
      "vis_m": 7000,
      "fzfg": false,
      "metar_trigger": false,
      "taf_trigger": false,
      "metar": "METAR UGKO 062130Z 09005KT 7000 SCT018 08/07 Q1019 NOSIG",
      "taf": "TAF UGKO 061700Z 0618/0718 27007KT 9999 SCT020 BKN040 TX20/0712Z TN07/0703Z"
    }
  ]
}