{
  "ts_utc": "2025-12-26T23:14:22Z",
  "threshold_m": 150,
  "source": "stations_override.txt (ICAO list) + aviationweather.gov (METAR/TAF raw)",
  "station_count": 159,
  "stations": [
    {
      "icao": "BIKF",
      "alert": "OK",
      "vis_m": 9999,
      "fzfg": false,
      "metar_trigger": false,
      "taf_trigger": false,
      "metar": "METAR BIKF 262300Z 23008KT 9999 BKN032 02/M02 Q1045",
      "taf": "TAF BIKF 262230Z 2700/2800 24007KT 9999 BKN030 TX07/2718Z TNM01/2703Z"
    },
    {
      "icao": "BKPR",
      "alert": "OK",
      "vis_m": 9999,
      "fzfg": false,
      "metar_trigger": false,
      "taf_trigger": false,
      "metar": "METAR BKPR 262300Z 24002KT 9999 FEW015 SCT025 BKN035 M00/M01 Q1026 NOSIG",
      "taf": ""
    },
    {
      "icao": "EBCI",
      "alert": "OK",
      "vis_m": 9999,
      "fzfg": false,
      "metar_trigger": false,
      "taf_trigger": false,
      "metar": "METAR EBCI 262250Z 02007KT CAVOK M02/M04 Q1030 NOSIG",
      "taf": "TAF EBCI 261700Z 2618/2724 05008KT CAVOK"
    },
    {
      "icao": "EDDB",
      "alert": "OK",
      "vis_m": 2700,
      "fzfg": false,
      "metar_trigger": false,
      "taf_trigger": false,
      "metar": "METAR EDDB 262250Z AUTO 24004KT 2700 BR OVC002 M02/M02 Q1034 REFZDZ NOSIG",
      "taf": ""
    },
    {
      "icao": "EDDH",
      "alert": "OK",
      "vis_m": 1300,
      "fzfg": false,
      "metar_trigger": false,
      "taf_trigger": false,
      "metar": "METAR EDDH 262250Z AUTO VRB01KT 1300 1100 R23/1400N R33/1600N BR BKN001 01/01 Q1035 TEMPO 0500 FG",
      "taf": "TAF EDDH 261700Z 2618/2724 VRB03KT 2000 BR OVC003"
    },
    {
      "icao": "EDDK",
      "alert": "OK",
      "vis_m": 9999,
      "fzfg": false,
      "metar_trigger": false,
      "taf_trigger": false,
      "metar": "METAR EDDK 262250Z AUTO 05004KT CAVOK M03/M04 Q1032 NOSIG",
      "taf": "TAF EDDK 261700Z 2618/2724 VRB03KT CAVOK"
    },
    {
      "icao": "EDDN",
      "alert": "OK",
      "vis_m": 9999,
      "fzfg": false,
      "metar_trigger": false,
      "taf_trigger": false,
      "metar": "METAR EDDN 262250Z AUTO VRB01KT CAVOK M05/M06 Q1030",
      "taf": "TAF EDDN 261700Z 2618/2718 06003KT CAVOK"
    },
    {
      "icao": "EDDS",
      "alert": "OK",
      "vis_m": 9999,
      "fzfg": false,
      "metar_trigger": false,
      "taf_trigger": false,
      "metar": "METAR EDDS 262250Z AUTO 05004KT CAVOK M01/M04 Q1028",
      "taf": "TAF EDDS 261700Z 2618/2718 05004KT CAVOK"
    },
    {
      "icao": "EDFH",
      "alert": "OK",
      "vis_m": 9999,
      "fzfg": false,
      "metar_trigger": false,
      "taf_trigger": false,
      "metar": "METAR EDFH 262250Z 10010KT CAVOK 01/M02 Q1029",
      "taf": "TAF EDFH 261700Z 2618/2718 10009KT CAVOK"
    },
    {
      "icao": "EDJA",
      "alert": "OK",
      "vis_m": 7000,
      "fzfg": false,
      "metar_trigger": false,
      "taf_trigger": false,
      "metar": "METAR EDJA 262250Z AUTO 06006KT 020V090 7000 // OVC004/// M02/M03 Q1026",
      "taf": "TAF EDJA 261700Z 2618/2703 06010KT 9999 OVC005"
    },
    {
      "icao": "EDLW",
      "alert": "OK",
      "vis_m": 9999,
      "fzfg": false,
      "metar_trigger": false,
      "taf_trigger": false,
      "metar": "METAR EDLW 262250Z AUTO 05006KT 9999 // NCD M02/M05 Q1032",
      "taf": "TAF EDLW 261700Z 2618/2718 04004KT CAVOK"
    },
    {
      "icao": "EDNY",
      "alert": "OK",
      "vis_m": 9999,
      "fzfg": false,
      "metar_trigger": false,
      "taf_trigger": false,
      "metar": "METAR EDNY 262250Z AUTO 07006KT 9999 // OVC014/// M01/M03 Q1027",
      "taf": "TAF EDNY 261700Z 2618/2703 03007KT 9999 BKN015"
    },
    {
      "icao": "EDSB",
      "alert": "OK",
      "vis_m": 9999,
      "fzfg": false,
      "metar_trigger": false,
      "taf_trigger": false,
      "metar": "METAR EDSB 262250Z AUTO 04015KT 9999 // NCD 01/M02 Q1028",
      "taf": ""
    },
    {
      "icao": "EETN",
      "alert": "OK",
      "vis_m": 200,
      "fzfg": false,
      "metar_trigger": false,
      "taf_trigger": false,
      "metar": "METAR EETN 262250Z 27008KT 0200 R26/0650N FG VV001 03/03 Q1019",
      "taf": ""
    },
    {
      "icao": "EFTU",
      "alert": "OK",
      "vis_m": 500,
      "fzfg": false,
      "metar_trigger": false,
      "taf_trigger": false,
      "metar": "METAR EFTU 262250Z AUTO 27005KT 0500 R26/0600N FG VV001 01/01 Q1019",
      "taf": ""
    },
    {
      "icao": "EGBB",
      "alert": "OK",
      "vis_m": 9999,
      "fzfg": false,
      "metar_trigger": false,
      "taf_trigger": false,
      "metar": "METAR EGBB 262250Z 35005KT CAVOK 02/00 Q1034",
      "taf": "TAF EGBB 262301Z 2700/2724 03008KT 9999 FEW030"
    },
    {
      "icao": "EGGP",
      "alert": "OK",
      "vis_m": 9999,
      "fzfg": false,
      "metar_trigger": false,
      "taf_trigger": false,
      "metar": "METAR EGGP 262250Z 03006KT CAVOK 03/01 Q1036",
      "taf": "TAF EGGP 262303Z 2700/2724 04007KT CAVOK"
    },
    {
      "icao": "EGGW",
      "alert": "OK",
      "vis_m": 6000,
      "fzfg": false,
      "metar_trigger": false,
      "taf_trigger": false,
      "metar": "METAR EGGW 262250Z AUTO 02006KT 350V050 6000 SCT003 01/01 Q1032",
      "taf": "TAF EGGW 262259Z 2700/2724 03008KT 9999 FEW010"
    },
    {
      "icao": "EGKK",
      "alert": "OK",
      "vis_m": 9999,
      "fzfg": false,
      "metar_trigger": false,
      "taf_trigger": false,
      "metar": "METAR EGKK 262250Z 04006KT 9999 FEW014 03/02 Q1031",
      "taf": "TAF EGKK 262257Z 2700/2806 04007KT 9999 FEW012"
    },
    {
      "icao": "EGNM",
      "alert": "OK",
      "vis_m": 9999,
      "fzfg": false,
      "metar_trigger": false,
      "taf_trigger": false,
      "metar": "METAR EGNM 262250Z 04008KT CAVOK 02/01 Q1037",
      "taf": "TAF EGNM 262302Z 2700/2724 04008KT CAVOK"
    },
    {
      "icao": "EGPD",
      "alert": "OK",
      "vis_m": 9999,
      "fzfg": false,
      "metar_trigger": false,
      "taf_trigger": false,
      "metar": "METAR EGPD 262250Z COR AUTO 33003KT 230V030 9999 OVC019 04/02 Q1041 NOSIG",
      "taf": "TAF EGPD 262256Z 2700/2724 31006KT 9999 BKN015"
    },
    {
      "icao": "EGPF",
      "alert": "OK",
      "vis_m": 9999,
      "fzfg": false,
      "metar_trigger": false,
      "taf_trigger": false,
      "metar": "METAR EGPF 262250Z AUTO VRB01KT 9999 OVC023 03/01 Q1040",
      "taf": "TAF EGPF 262303Z 2700/2724 07005KT 9999 SCT025"
    },
    {
      "icao": "EHBK",
      "alert": "OK",
      "vis_m": 9999,
      "fzfg": false,
      "metar_trigger": false,
      "taf_trigger": false,
      "metar": "METAR EHBK 262255Z AUTO 08007KT 9999 NCD M01/M03 Q1031 NOSIG",
      "taf": "TAF EHBK 261720Z 2618/2724 05007KT CAVOK"
    },
    {
      "icao": "EHEH",
      "alert": "OK",
      "vis_m": 9999,
      "fzfg": false,
      "metar_trigger": false,
      "taf_trigger": false,
      "metar": "METAR EHEH 262255Z AUTO 05007KT 9999 NCD M01/M04 Q1032 BLU",
      "taf": "TAF EHEH 261718Z 2618/2724 06006KT CAVOK"
    },
    {
      "icao": "EKBI",
      "alert": "OK",
      "vis_m": 9999,
      "fzfg": false,
      "metar_trigger": false,
      "taf_trigger": false,
      "metar": "METAR EKBI 262250Z AUTO 25005KT 9999 OVC005/// 05/05 Q1034",
      "taf": "TAF EKBI 262027Z 2621/2721 28004KT 9000 NSC"
    },
    {
      "icao": "EKCH",
      "alert": "OK",
      "vis_m": 6000,
      "fzfg": false,
      "metar_trigger": false,
      "taf_trigger": false,
      "metar": "METAR EKCH 262250Z 29004KT 230V320 6000 OVC003 04/03 Q1033 TEMPO 3000 BR",
      "taf": "TAF EKCH 262027Z 2621/2721 30006KT 2000 BR OVC003"
    },
    {
      "icao": "ENAL",
      "alert": "OK",
      "vis_m": 9999,
      "fzfg": false,
      "metar_trigger": false,
      "taf_trigger": false,
      "metar": "METAR ENAL 262250Z AUTO 26016KT 9999 -DZ FEW007/// SCT024/// BKN036/// 07/05 Q1031 RERA REDZRA",
      "taf": ""
    },
    {
      "icao": "ENBR",
      "alert": "OK",
      "vis_m": 9999,
      "fzfg": false,
      "metar_trigger": false,
      "taf_trigger": false,
      "metar": "METAR ENBR 262250Z 30004KT 9999 FEW007 BKN023 04/03 Q1035 RMK WIND 1200FT 32016KT",
      "taf": ""
    },
    {
      "icao": "ENGM",
      "alert": "OK",
      "vis_m": 9999,
      "fzfg": false,
      "metar_trigger": false,
      "taf_trigger": false,
      "metar": "METAR ENGM 262250Z VRB02KT 9999 FEW002 M06/M07 Q1026",
      "taf": "TAF ENGM 261700Z 2618/2718 VRB03KT CAVOK"
    },
    {
      "icao": "ENHD",
      "alert": "OK",
      "vis_m": 9999,
      "fzfg": false,
      "metar_trigger": false,
      "taf_trigger": false,
      "metar": "METAR ENHD 262250Z AUTO 36010KT 9999 BKN003/// OVC004/// 06/06 Q1035 REUP",
      "taf": "TAF ENHD 261400Z 2615/2623 32005KT CAVOK"
    },
    {
      "icao": "ENTC",
      "alert": "OK",
      "vis_m": 9999,
      "fzfg": false,
      "metar_trigger": false,
      "taf_trigger": false,
      "metar": "METAR ENTC 262250Z 21018KT 9999 -SHRA FEW021 SCT025 BKN039 05/03 Q0997 RMK WIND 2600FT 19030KT",
      "taf": "TAF ENTC 261700Z 2618/2718 20018KT 9999 -RA FEW020 BKN035"
    },
    {
      "icao": "ENTO",
      "alert": "OK",
      "vis_m": 9999,
      "fzfg": false,
      "metar_trigger": false,
      "taf_trigger": false,
      "metar": "METAR ENTO 262250Z AUTO VRB02KT 9999 NCD M01/M01 Q1027",
      "taf": "TAF ENTO 261700Z 2618/2718 20005KT CAVOK"
    },
    {
      "icao": "ENVA",
      "alert": "OK",
      "vis_m": 9000,
      "fzfg": false,
      "metar_trigger": false,
      "taf_trigger": false,
      "metar": "METAR ENVA 262250Z 23016KT 9000 RA BKN017 06/05 Q1023 RMK WIND 670FT 24020G38KT",
      "taf": "TAF ENVA 261700Z 2618/2718 23008KT 9999 SCT012 BKN025"
    },
    {
      "icao": "ENZV",
      "alert": "OK",
      "vis_m": 5000,
      "fzfg": false,
      "metar_trigger": false,
      "taf_trigger": false,
      "metar": "METAR ENZV 262250Z 03004KT 5000 -SN OVC005 03/03 Q1035",
      "taf": ""
    },
    {
      "icao": "EPGD",
      "alert": "OK",
      "vis_m": 9000,
      "fzfg": false,
      "metar_trigger": false,
      "taf_trigger": false,
      "metar": "METAR EPGD 262300Z 29011KT 9000 OVC002 04/04 Q1029",
      "taf": "TAF EPGD 261730Z 2618/2718 31010KT 9999 OVC004"
    },
    {
      "icao": "EPKK",
      "alert": "OK",
      "vis_m": 1600,
      "fzfg": false,
      "metar_trigger": false,
      "taf_trigger": false,
      "metar": "METAR EPKK 262300Z 25008KT 1600 SN BR SCT006 BKN010 M02/M04 Q1031 REFZDZ",
      "taf": "TAF EPKK 262030Z 2621/2721 26007KT 5000 BR OVC009"
    },
    {
      "icao": "EPKT",
      "alert": "OK",
      "vis_m": 2300,
      "fzfg": false,
      "metar_trigger": false,
      "taf_trigger": false,
      "metar": "METAR EPKT 262300Z 26004KT 2300 -FZDZ BR OVC002 M03/M03 Q1031",
      "taf": "TAF EPKT 261730Z 2618/2718 31006KT 8000 -SG OVC007"
    },
    {
      "icao": "EPLB",
      "alert": "OK",
      "vis_m": 1800,
      "fzfg": false,
      "metar_trigger": false,
      "taf_trigger": false,
      "metar": "METAR EPLB 262300Z 30011KT 1800 BR OVC002 M00/M00 Q1026",
      "taf": "TAF EPLB 261730Z 2618/2718 29010KT 3000 BR OVC003"
    },
    {
      "icao": "EPMO",
      "alert": "OK",
      "vis_m": 1400,
      "fzfg": false,
      "metar_trigger": false,
      "taf_trigger": false,
      "metar": "METAR EPMO 262300Z 25009KT 1400 R08/1500N BR OVC002 01/01 Q1028",
      "taf": "TAF EPMO 261730Z 2618/2718 27008KT 3000 BR OVC003"
    },
    {
      "icao": "EPPO",
      "alert": "OK",
      "vis_m": 1400,
      "fzfg": false,
      "metar_trigger": false,
      "taf_trigger": false,
      "metar": "METAR EPPO 262300Z 27003KT 1400 R28/P2000D -FZDZ BR OVC001 M01/M02 Q1032",
      "taf": "TAF EPPO 261730Z 2618/2718 28004KT 1200 -FZDZ BR OVC002"
    },
    {
      "icao": "EPRA",
      "alert": "OK",
      "vis_m": 2000,
      "fzfg": false,
      "metar_trigger": false,
      "taf_trigger": false,
      "metar": "METAR EPRA 262300Z 28009KT 2000 BR OVC002 M00/M01 Q1028",
      "taf": "TAF EPRA 262030Z 2621/2706 29007KT 4000 BR OVC003"
    },
    {
      "icao": "EPRZ",
      "alert": "OK",
      "vis_m": 6000,
      "fzfg": false,
      "metar_trigger": false,
      "taf_trigger": false,
      "metar": "METAR EPRZ 262300Z 27012KT 6000 -FZDZ OVC003 M01/M02 Q1028",
      "taf": "TAF EPRZ 261730Z 2618/2718 28012KT 4500 -FZDZ -SG BR OVC004"
    },
    {
      "icao": "EPSC",
      "alert": "OK",
      "vis_m": 250,
      "fzfg": false,
      "metar_trigger": false,
      "taf_trigger": false,
      "metar": "METAR EPSC 262300Z 20004KT 0250 R31/0800N FG VV001 01/01 Q1033",
      "taf": ""
    },
    {
      "icao": "EPSY",
      "alert": "OK",
      "vis_m": 5000,
      "fzfg": false,
      "metar_trigger": false,
      "taf_trigger": false,
      "metar": "METAR EPSY 262300Z 32007KT 290V350 5000 BR OVC002 04/04 Q1027",
      "taf": "TAF EPSY 262030Z 2621/2706 31006KT 8000 OVC003"
    },
    {
      "icao": "EPWA",
      "alert": "OK",
      "vis_m": 1500,
      "fzfg": false,
      "metar_trigger": false,
      "taf_trigger": false,
      "metar": "METAR EPWA 262300Z 27009KT 1500 1300W BR OVC001 00/00 Q1028 NOSIG",
      "taf": "TAF EPWA 262030Z 2621/2721 28008KT 3000 BR OVC003"
    },
    {
      "icao": "EPWR",
      "alert": "OK",
      "vis_m": 5000,
      "fzfg": false,
      "metar_trigger": false,
      "taf_trigger": false,
      "metar": "METAR EPWR 262300Z 29005KT 5000 -SN BR FEW005 OVC011 M02/M03 Q1033",
      "taf": ""
    },
    {
      "icao": "ESGG",
      "alert": "CRITICAL",
      "vis_m": 100,
      "fzfg": true,
      "metar_trigger": true,
      "taf_trigger": false,
      "metar": "METAR ESGG 262250Z 20005KT 0100 R03/0450N R21/0450N FZFG VV002 M00/M00 Q1029",
      "taf": "TAF ESGG 262030Z 2621/2721 VRB02KT 9999 FEW002"
    },
    {
      "icao": "ESKN",
      "alert": "OK",
      "vis_m": 9999,
      "fzfg": false,
      "metar_trigger": false,
      "taf_trigger": false,
      "metar": "METAR ESKN 262250Z 27011KT CAVOK 02/00 Q1024",
      "taf": "TAF ESKN 262030Z 2621/2721 28005KT CAVOK"
    },
    {
      "icao": "ESMS",
      "alert": "OK",
      "vis_m": 100,
      "fzfg": false,
      "metar_trigger": false,
      "taf_trigger": false,
      "metar": "METAR ESMS 262250Z 31007KT 0100 R17/0450N R35/0500N FG VV002 03/03 Q1031",
      "taf": "TAF ESMS 262027Z 2621/2721 33004KT 0100 FG VV001"
    },
    {
      "icao": "ESSA",
      "alert": "OK",
      "vis_m": 8000,
      "fzfg": false,
      "metar_trigger": false,
      "taf_trigger": false,
      "metar": "METAR ESSA 262250Z 25005KT 8000 NSC M02/M02 Q1022 NOSIG",
      "taf": ""
    },
    {
      "icao": "EYKA",
      "alert": "OK",
      "vis_m": 8000,
      "fzfg": false,
      "metar_trigger": false,
      "taf_trigger": false,
      "metar": "METAR EYKA 262250Z 28005KT 8000 OVC005 04/04 Q1023",
      "taf": "TAF EYKA 262302Z 2700/2724 VRB04KT 5000 BR OVC005"
    },
    {
      "icao": "EYPA",
      "alert": "OK",
      "vis_m": 9999,
      "fzfg": false,
      "metar_trigger": false,
      "taf_trigger": false,
      "metar": "METAR EYPA 262250Z AUTO 33004KT 260V030 9999 OVC008/// 06/05 Q1025",
      "taf": "TAF EYPA 262301Z 2700/2724 VRB04KT 9000 OVC005"
    },
    {
      "icao": "EYVI",
      "alert": "OK",
      "vis_m": 9999,
      "fzfg": false,
      "metar_trigger": false,
      "taf_trigger": false,
      "metar": "METAR EYVI 262250Z 34010KT 9999 OVC003 03/02 Q1021 NOSIG",
      "taf": "TAF EYVI 262303Z 2700/2724 32008KT 5000 BR OVC002"
    },
    {
      "icao": "GCFV",
      "alert": "OK",
      "vis_m": 9999,
      "fzfg": false,
      "metar_trigger": false,
      "taf_trigger": false,
      "metar": "METAR GCFV 262300Z VRB03KT 9999 FEW025 15/12 Q1019",
      "taf": ""
    },
    {
      "icao": "GCLP",
      "alert": "OK",
      "vis_m": 9999,
      "fzfg": false,
      "metar_trigger": false,
      "taf_trigger": false,
      "metar": "METAR GCLP 262300Z VRB01KT 9999 FEW050 17/11 Q1020 NOSIG",
      "taf": ""
    },
    {
      "icao": "GCTS",
      "alert": "OK",
      "vis_m": 9999,
      "fzfg": false,
      "metar_trigger": false,
      "taf_trigger": false,
      "metar": "METAR GCTS 262300Z 01007KT 9999 FEW040 17/09 Q1020 NOSIG",
      "taf": "TAF GCTS 262000Z 2621/2721 36009KT 9999 FEW035 TX23/2714Z TN15/2706Z"
    },
    {
      "icao": "GMAD",
      "alert": "OK",
      "vis_m": 9999,
      "fzfg": false,
      "metar_trigger": false,
      "taf_trigger": false,
      "metar": "METAR GMAD 262300Z 12004KT 9999 FEW020 SCT066 11/11 Q1017 NOSIG",
      "taf": "TAF GMAD 261700Z 2618/2724 25003KT 9999 FEW026 BKN080"
    },
    {
      "icao": "GMMN",
      "alert": "OK",
      "vis_m": 9999,
      "fzfg": false,
      "metar_trigger": false,
      "taf_trigger": false,
      "metar": "METAR GMMN 262300Z 21011KT 9999 BKN030 11/10 Q1015 NOSIG",
      "taf": "TAF GMMN 261700Z 2618/2724 22006KT 9999 SCT018 SCT030"
    },
    {
      "icao": "GMMX",
      "alert": "OK",
      "vis_m": 8000,
      "fzfg": false,
      "metar_trigger": false,
      "taf_trigger": false,
      "metar": "METAR GMMX 262300Z VRB01KT 8000 SCT023 BKN080 10/08 Q1016 NOSIG",
      "taf": "TAF GMMX 261700Z 2618/2724 26006KT 8000 SCT023 BKN090"
    },
    {
      "icao": "HEGN",
      "alert": "OK",
      "vis_m": 9999,
      "fzfg": false,
      "metar_trigger": false,
      "taf_trigger": false,
      "metar": "METAR HEGN 262300Z 29012KT CAVOK 17/09 Q1013 NOSIG",
      "taf": "TAF HEGN 262300Z 2700/2806 29014KT CAVOK"
    },
    {
      "icao": "HEMA",
      "alert": "OK",
      "vis_m": 9999,
      "fzfg": false,
      "metar_trigger": false,
      "taf_trigger": false,
      "metar": "METAR HEMA 262300Z 28011KT CAVOK 17/10 Q1014 NOSIG",
      "taf": "TAF HEMA 262300Z 2700/2806 30014KT CAVOK"
    },
    {
      "icao": "HESH",
      "alert": "OK",
      "vis_m": 9999,
      "fzfg": false,
      "metar_trigger": false,
      "taf_trigger": false,
      "metar": "METAR HESH 262300Z 33006KT CAVOK 18/07 Q1013 NOSIG",
      "taf": "TAF HESH 262300Z 2700/2806 34012KT CAVOK"
    },
    {
      "icao": "HESX",
      "alert": "OK",
      "vis_m": 2000,
      "fzfg": false,
      "metar_trigger": false,
      "taf_trigger": false,
      "metar": "METAR HESX 262300Z 00000KT 2000 BR NSC 12/10 Q1016 NOSIG",
      "taf": "TAF HESX 262302Z 2700/2806 VRB03KT 6000 NSC"
    },
    {
      "icao": "LATI",
      "alert": "OK",
      "vis_m": 7000,
      "fzfg": false,
      "metar_trigger": false,
      "taf_trigger": false,
      "metar": "METAR LATI 262250Z VRB01KT 7000 NSC 03/01 Q1022 NOSIG",
      "taf": "TAF LATI 262300Z 2700/2724 VRB05KT CAVOK TX15/2712Z TN00/2705Z"
    },
    {
      "icao": "LBPD",
      "alert": "OK",
      "vis_m": 9999,
      "fzfg": false,
      "metar_trigger": false,
      "taf_trigger": false,
      "metar": "METAR LBPD 262300Z AUTO 29018KT 9999 BKN100/// 04/00 Q1021",
      "taf": "TAF LBPD 261700Z 2618/2718 28018KT 9999 SCT020"
    },
    {
      "icao": "LBSF",
      "alert": "OK",
      "vis_m": 9999,
      "fzfg": false,
      "metar_trigger": false,
      "taf_trigger": false,
      "metar": "METAR LBSF 262300Z AUTO 28013KT 9999 OVC012/// 00/M02 Q1023 NOSIG",
      "taf": "TAF LBSF 261700Z 2618/2718 29016KT 9999 SCT012 BKN020"
    },
    {
      "icao": "LBWN",
      "alert": "OK",
      "vis_m": 9999,
      "fzfg": false,
      "metar_trigger": false,
      "taf_trigger": false,
      "metar": "METAR LBWN 262300Z AUTO 33012KT 9999 BKN049/// 01/M02 Q1020 NOSIG",
      "taf": "TAF LBWN 261700Z 2618/2718 26012KT 9999 SCT015 BKN040"
    },
    {
      "icao": "LCLK",
      "alert": "OK",
      "vis_m": 9999,
      "fzfg": false,
      "metar_trigger": false,
      "taf_trigger": false,
      "metar": "METAR LCLK 262300Z 29004KT 9999 FEW030TCU SCT050 11/08 Q1011 NOSIG",
      "taf": "TAF LCLK 261730Z 2618/2718 29007KT 9999 FEW025 FEW030TCU"
    },
    {
      "icao": "LCPH",
      "alert": "OK",
      "vis_m": 9999,
      "fzfg": false,
      "metar_trigger": false,
      "taf_trigger": false,
      "metar": "METAR LCPH 262300Z 02006KT 010V080 9999 FEW035 SCT050 18/11 Q1012 NOSIG",
      "taf": "TAF LCPH 261730Z 2618/2718 33008KT 9999 FEW025 FEW030TCU SCT035"
    },
    {
      "icao": "LEAL",
      "alert": "OK",
      "vis_m": 9999,
      "fzfg": false,
      "metar_trigger": false,
      "taf_trigger": false,
      "metar": "METAR LEAL 262300Z 33003KT 9999 FEW038 11/09 Q1015 NOSIG",
      "taf": "TAF LEAL 261700Z 2618/2718 VRB05KT 9999 SCT040 TX15/2713Z TN07/2706Z"
    },
    {
      "icao": "LEBB",
      "alert": "OK",
      "vis_m": 9999,
      "fzfg": false,
      "metar_trigger": false,
      "taf_trigger": false,
      "metar": "METAR LEBB 262300Z AUTO 06001KT 9999 OVC059 07/07 Q1018",
      "taf": "TAF LEBB 261700Z 2618/2718 VRB03KT 9999 BKN045 TX14/2714Z TN03/2708Z"
    },
    {
      "icao": "LEBL",
      "alert": "OK",
      "vis_m": 9000,
      "fzfg": false,
      "metar_trigger": false,
      "taf_trigger": false,
      "metar": "METAR LEBL 262300Z 05020KT 9000 FEW010 BKN045 13/11 Q1017 NOSIG",
      "taf": ""
    },
    {
      "icao": "LECH",
      "alert": "OK",
      "vis_m": 9999,
      "fzfg": false,
      "metar_trigger": false,
      "taf_trigger": false,
      "metar": "METAR LECH 262300Z AUTO 02005KT 340V060 9999 -RA SCT021 BKN031 BKN041 09/07 Q1016",
      "taf": ""
    },
    {
      "icao": "LEMD",
      "alert": "OK",
      "vis_m": 9999,
      "fzfg": false,
      "metar_trigger": false,
      "taf_trigger": false,
      "metar": "METAR LEMD 262300Z VRB02KT 9999 FEW040 03/02 Q1015 NOSIG",
      "taf": "TAF LEMD 261700Z 2618/2724 VRB03KT CAVOK TX12/2715Z TN00/2706Z"
    },
    {
      "icao": "LEMG",
      "alert": "OK",
      "vis_m": 9999,
      "fzfg": false,
      "metar_trigger": false,
      "taf_trigger": false,
      "metar": "METAR LEMG 262300Z 30005KT CAVOK 07/06 Q1014 NOSIG",
      "taf": "TAF LEMG 261700Z 2618/2718 29006KT 9999 FEW045 TX15/2714Z TN05/2706Z"
    },
    {
      "icao": "LEVC",
      "alert": "OK",
      "vis_m": 9999,
      "fzfg": false,
      "metar_trigger": false,
      "taf_trigger": false,
      "metar": "METAR LEVC 262300Z 30005KT 9999 BKN028 10/09 Q1016 NOSIG",
      "taf": "TAF LEVC 261700Z 2618/2718 VRB04KT 9999 FEW025 BKN035 TX14/2713Z TN07/2706Z"
    },
    {
      "icao": "LEXJ",
      "alert": "OK",
      "vis_m": 9000,
      "fzfg": false,
      "metar_trigger": false,
      "taf_trigger": false,
      "metar": "METAR LEXJ 262300Z AUTO 23002KT 9000 4300E -RA SCT070 BKN080 07/06 Q1017",
      "taf": "TAF LEXJ 262000Z 2621/2721 VRB03KT 9999 BKN045 TX13/2714Z TN03/2708Z"
    },
    {
      "icao": "LEZG",
      "alert": "OK",
      "vis_m": 700,
      "fzfg": false,
      "metar_trigger": false,
      "taf_trigger": false,
      "metar": "METAR LEZG 262300Z 00000KT 0700 R30R/P2000 R12R/P2000 R30L/1600D R12L/P2000 FG FEW001 BKN010 BKN040 06/06 Q1018 NOSIG",
      "taf": ""
    },
    {
      "icao": "LEZL",
      "alert": "OK",
      "vis_m": 9999,
      "fzfg": false,
      "metar_trigger": false,
      "taf_trigger": false,
      "metar": "METAR LEZL 262300Z 07005KT 030V090 CAVOK 09/05 Q1015 NOSIG",
      "taf": "TAF LEZL 262000Z 2621/2721 VRB03KT 9999 FEW030 TX16/2715Z TN06/2707Z"
    },
    {
      "icao": "LFBD",
      "alert": "OK",
      "vis_m": 9999,
      "fzfg": false,
      "metar_trigger": false,
      "taf_trigger": false,
      "metar": "METAR LFBD 262300Z AUTO VRB02KT CAVOK 08/04 Q1019 NOSIG",
      "taf": "TAF LFBD 261700Z 2618/2724 06010KT CAVOK TX12/2714Z TN03/2707Z"
    },
    {
      "icao": "LFLL",
      "alert": "OK",
      "vis_m": 5000,
      "fzfg": false,
      "metar_trigger": false,
      "taf_trigger": false,
      "metar": "METAR LFLL 262300Z AUTO 27003KT 5000 BR OVC003 00/M00 Q1025",
      "taf": ""
    },
    {
      "icao": "LFLS",
      "alert": "OK",
      "vis_m": 5000,
      "fzfg": false,
      "metar_trigger": false,
      "taf_trigger": false,
      "metar": "METAR LFLS 262300Z AUTO VRB02KT 5000 BR BKN006 M01/M01 Q1024",
      "taf": "TAF LFLS 261400Z 2615/2715 36006KT CAVOK"
    },
    {
      "icao": "LFMN",
      "alert": "OK",
      "vis_m": 9999,
      "fzfg": false,
      "metar_trigger": false,
      "taf_trigger": false,
      "metar": "METAR LFMN 262300Z 33012KT CAVOK 08/02 Q1023 NOSIG",
      "taf": "TAF LFMN 262000Z 2621/2803 33010KT CAVOK"
    },
    {
      "icao": "LFOB",
      "alert": "OK",
      "vis_m": 6000,
      "fzfg": false,
      "metar_trigger": false,
      "taf_trigger": false,
      "metar": "METAR LFOB 262300Z AUTO 02005KT 6000 NSC M02/M03 Q1029 NOSIG",
      "taf": "TAF LFOB 261700Z 2618/2718 06008KT 8000 NSC"
    },
    {
      "icao": "LFPO",
      "alert": "OK",
      "vis_m": 9000,
      "fzfg": false,
      "metar_trigger": false,
      "taf_trigger": false,
      "metar": "METAR LFPO 262300Z AUTO 02006KT 9000 NSC M00/M02 Q1027",
      "taf": "TAF LFPO 261700Z 2618/2724 04007KT CAVOK"
    },
    {
      "icao": "LFSB",
      "alert": "OK",
      "vis_m": 9000,
      "fzfg": false,
      "metar_trigger": false,
      "taf_trigger": false,
      "metar": "METAR LFSB 262300Z AUTO 35006KT 9000 OVC018 M00/M01 Q1027 TEMPO 4000 BR BKN010",
      "taf": "TAF LFSB 261700Z 2618/2718 34004KT 8000 OVC016"
    },
    {
      "icao": "LGAV",
      "alert": "OK",
      "vis_m": 9999,
      "fzfg": false,
      "metar_trigger": false,
      "taf_trigger": false,
      "metar": "METAR LGAV 262250Z 34004KT 310V020 9999 FEW020 08/04 Q1020 NOSIG",
      "taf": "TAF LGAV 262300Z 2700/2724 01014KT 9999 FEW018 SCT030 BKN070"
    },
    {
      "icao": "LGTS",
      "alert": "OK",
      "vis_m": 9999,
      "fzfg": false,
      "metar_trigger": false,
      "taf_trigger": false,
      "metar": "METAR LGTS 262220Z 33015G25KT 9999 FEW025 08/03 Q1022 NOSIG",
      "taf": "TAF LGTS 262300Z 2700/2724 34015KT 9999 FEW025"
    },
    {
      "icao": "LHBP",
      "alert": "OK",
      "vis_m": 9000,
      "fzfg": false,
      "metar_trigger": false,
      "taf_trigger": false,
      "metar": "METAR LHBP 262300Z 28002KT 9000 NSC M04/M05 Q1028 TEMPO 4000 BCFG",
      "taf": "TAF LHBP 261715Z 2618/2718 29006KT CAVOK"
    },
    {
      "icao": "LHDC",
      "alert": "OK",
      "vis_m": 9999,
      "fzfg": false,
      "metar_trigger": false,
      "taf_trigger": false,
      "metar": "METAR LHDC 262245Z AUTO 01005KT 300V050 9999 FEW032 02/M03 Q1028",
      "taf": ""
    },
    {
      "icao": "LIBD",
      "alert": "OK",
      "vis_m": 9999,
      "fzfg": false,
      "metar_trigger": false,
      "taf_trigger": false,
      "metar": "METAR LIBD 262250Z 29005KT 9999 SCT020 10/10 Q1023",
      "taf": "TAF LIBD 261700Z 2618/2718 VRB05KT 9999 SCT020"
    },
    {
      "icao": "LIBG",
      "alert": "OK",
      "vis_m": null,
      "fzfg": false,
      "metar_trigger": false,
      "taf_trigger": false,
      "metar": "",
      "taf": "TAF LIBG 261700Z 2618/2703 03007KT CAVOK"
    },
    {
      "icao": "LIBP",
      "alert": "OK",
      "vis_m": 9999,
      "fzfg": false,
      "metar_trigger": false,
      "taf_trigger": false,
      "metar": "METAR LIBP 262250Z AUTO 23004KT 9999 OVC043/// 09/06 Q1027",
      "taf": "TAF LIBP 261700Z 2618/2718 VRB05KT 9999 OVC025"
    },
    {
      "icao": "LIBR",
      "alert": "OK",
      "vis_m": 9999,
      "fzfg": false,
      "metar_trigger": false,
      "taf_trigger": false,
      "metar": "METAR LIBR 262250Z 01012KT 9999 BKN025 14/09 Q1022",
      "taf": "TAF LIBR 261700Z 2618/2718 03012KT 9999 SCT040"
    },
    {
      "icao": "LICA",
      "alert": "OK",
      "vis_m": 9999,
      "fzfg": false,
      "metar_trigger": false,
      "taf_trigger": false,
      "metar": "METAR LICA 262250Z AUTO 03010KT 9999 NCD 11/08 Q1020",
      "taf": "TAF LICA 261700Z 2618/2718 09013KT CAVOK"
    },
    {
      "icao": "LICC",
      "alert": "OK",
      "vis_m": 9999,
      "fzfg": false,
      "metar_trigger": false,
      "taf_trigger": false,
      "metar": "METAR LICC 262250Z 07021KT 9999 FEW020 SCT060 15/14 Q1019",
      "taf": "TAF LICC 261700Z 2618/2718 07013KT 9999 SCT040"
    },
    {
      "icao": "LICJ",
      "alert": "OK",
      "vis_m": 9999,
      "fzfg": false,
      "metar_trigger": false,
      "taf_trigger": false,
      "metar": "METAR LICJ 262250Z VRB02KT CAVOK 14/10 Q1018",
      "taf": "TAF LICJ 261700Z 2618/2718 07009KT 9999 SCT040"
    },
    {
      "icao": "LIMC",
      "alert": "OK",
      "vis_m": 9999,
      "fzfg": false,
      "metar_trigger": false,
      "taf_trigger": false,
      "metar": "METAR LIMC 262250Z 01004KT 9999 BKN030 06/04 Q1029 NOSIG",
      "taf": "TAF LIMC 261700Z 2618/2724 VRB05KT 9999 FEW030"
    },
    {
      "icao": "LIME",
      "alert": "OK",
      "vis_m": 9999,
      "fzfg": false,
      "metar_trigger": false,
      "taf_trigger": false,
      "metar": "METAR LIME 262250Z 01003KT CAVOK 03/02 Q1029 NOSIG",
      "taf": "TAF LIME 261700Z 2618/2718 VRB05KT 9999 SCT030"
    },
    {
      "icao": "LIMF",
      "alert": "OK",
      "vis_m": 9999,
      "fzfg": false,
      "metar_trigger": false,
      "taf_trigger": false,
      "metar": "METAR LIMF 262250Z 36003KT 9999 BKN030 05/02 Q1029",
      "taf": "TAF LIMF 261700Z 2618/2718 VRB05KT 9999 FEW040"
    },
    {
      "icao": "LIMJ",
      "alert": "OK",
      "vis_m": 9999,
      "fzfg": false,
      "metar_trigger": false,
      "taf_trigger": false,
      "metar": "METAR LIMJ 262250Z 04018KT CAVOK 08/00 Q1025",
      "taf": "TAF LIMJ 261700Z 2618/2718 03015KT CAVOK"
    },
    {
      "icao": "LIPE",
      "alert": "OK",
      "vis_m": 9999,
      "fzfg": false,
      "metar_trigger": false,
      "taf_trigger": false,
      "metar": "METAR LIPE 262250Z 27004KT 9999 FEW030 04/02 Q1029",
      "taf": "TAF LIPE 261700Z 2618/2718 28007KT 9999 BKN025"
    },
    {
      "icao": "LIPH",
      "alert": "OK",
      "vis_m": 9999,
      "fzfg": false,
      "metar_trigger": false,
      "taf_trigger": false,
      "metar": "METAR LIPH 262250Z AUTO VRB01KT 9999 NCD 01/M00 Q1029",
      "taf": "TAF LIPH 261700Z 2618/2718 VRB04KT CAVOK"
    },
    {
      "icao": "LIPQ",
      "alert": "OK",
      "vis_m": 9999,
      "fzfg": false,
      "metar_trigger": false,
      "taf_trigger": false,
      "metar": "METAR LIPQ 262250Z AUTO 35005KT 9999 NCD 01/M02 Q1028",
      "taf": "TAF LIPQ 261700Z 2618/2718 VRB04KT CAVOK"
    },
    {
      "icao": "LIPR",
      "alert": "OK",
      "vis_m": 9999,
      "fzfg": false,
      "metar_trigger": false,
      "taf_trigger": false,
      "metar": "METAR LIPR 262250Z AUTO 30008KT 9999 OVC035/// 07/03 Q1028",
      "taf": "TAF LIPR 261700Z 2618/2718 30008KT 9999 BKN035"
    },
    {
      "icao": "LIPX",
      "alert": "OK",
      "vis_m": 9999,
      "fzfg": false,
      "metar_trigger": false,
      "taf_trigger": false,
      "metar": "METAR LIPX 262250Z 35003KT CAVOK 01/M01 Q1029",
      "taf": "TAF LIPX 261700Z 2618/2718 VRB05KT 9999 FEW030"
    },
    {
      "icao": "LIPY",
      "alert": "OK",
      "vis_m": 9999,
      "fzfg": false,
      "metar_trigger": false,
      "taf_trigger": false,
      "metar": "METAR LIPY 262250Z AUTO 23003KT 220V280 9999 OVC033/// 08/05 Q1028",
      "taf": "TAF LIPY 261700Z 2618/2718 28007KT 9999 SCT020"
    },
    {
      "icao": "LIPZ",
      "alert": "OK",
      "vis_m": 9999,
      "fzfg": false,
      "metar_trigger": false,
      "taf_trigger": false,
      "metar": "METAR LIPZ 262250Z 36006KT CAVOK 03/M00 Q1029 NOSIG",
      "taf": "TAF LIPZ 261700Z 2618/2724 VRB06KT CAVOK"
    },
    {
      "icao": "LIRF",
      "alert": "OK",
      "vis_m": 9999,
      "fzfg": false,
      "metar_trigger": false,
      "taf_trigger": false,
      "metar": "METAR LIRF 262250Z 04008KT CAVOK 08/04 Q1022 NOSIG",
      "taf": "TAF LIRF 261700Z 2618/2724 05012KT CAVOK"
    },
    {
      "icao": "LIRN",
      "alert": "OK",
      "vis_m": 9999,
      "fzfg": false,
      "metar_trigger": false,
      "taf_trigger": false,
      "metar": "METAR LIRN 262250Z 04009KT CAVOK 10/05 Q1022 NOSIG",
      "taf": "TAF LIRN 261700Z 2618/2718 06009KT CAVOK"
    },
    {
      "icao": "LIRP",
      "alert": "OK",
      "vis_m": 9999,
      "fzfg": false,
      "metar_trigger": false,
      "taf_trigger": false,
      "metar": "METAR LIRP 262245Z 12012KT CAVOK 07/03 Q1025 NOSIG",
      "taf": "TAF LIRP 261700Z 2618/2718 11012KT CAVOK"
    },
    {
      "icao": "LIRZ",
      "alert": "OK",
      "vis_m": 9999,
      "fzfg": false,
      "metar_trigger": false,
      "taf_trigger": false,
      "metar": "METAR LIRZ 262250Z AUTO 02011KT 9999 NCD 07/03 Q1025",
      "taf": "TAF LIRZ 261700Z 2618/2718 04011KT 9999 FEW030"
    },
    {
      "icao": "LJLJ",
      "alert": "OK",
      "vis_m": 400,
      "fzfg": true,
      "metar_trigger": false,
      "taf_trigger": false,
      "metar": "METAR LJLJ 262300Z 00000KT 0400 R30/0500N FZFG FEW001 M03/M04 Q1030 NOSIG",
      "taf": "TAF LJLJ 262300Z 2700/2800 30002KT 0300 FZFG VV002"
    },
    {
      "icao": "LKMT",
      "alert": "OK",
      "vis_m": 2500,
      "fzfg": false,
      "metar_trigger": false,
      "taf_trigger": false,
      "metar": "METAR LKMT 262300Z 05005KT 2500 BR SCT003 OVC008 M04/M04 Q1032 TEMPO 1200 BR BKN003",
      "taf": "TAF LKMT 261700Z 2618/2718 06004KT 3500 BR NSC"
    },
    {
      "icao": "LKPR",
      "alert": "OK",
      "vis_m": 9999,
      "fzfg": false,
      "metar_trigger": false,
      "taf_trigger": false,
      "metar": "METAR LKPR 262300Z 22005KT CAVOK M04/M05 Q1031 NOSIG",
      "taf": "TAF LKPR 262000Z 2621/2803 23004KT CAVOK"
    },
    {
      "icao": "LLBG",
      "alert": "OK",
      "vis_m": 9999,
      "fzfg": false,
      "metar_trigger": false,
      "taf_trigger": false,
      "metar": "METAR LLBG 262250Z 14004KT 9999 SCT035 14/12 Q1014 TEMPO 7000 RA FEW020TCU BKN025",
      "taf": "TAF LLBG 262308Z 2700/2724 VRB04KT 9999 SCT030"
    },
    {
      "icao": "LMML",
      "alert": "OK",
      "vis_m": 9999,
      "fzfg": false,
      "metar_trigger": false,
      "taf_trigger": false,
      "metar": "METAR LMML 262245Z 10012KT 9999 FEW026 16/11 Q1017 NOSIG",
      "taf": "TAF LMML 262300Z 2700/2724 10015KT 9999 SCT020"
    },
    {
      "icao": "LOWW",
      "alert": "OK",
      "vis_m": 9999,
      "fzfg": false,
      "metar_trigger": false,
      "taf_trigger": false,
      "metar": "METAR LOWW 262250Z 34008KT CAVOK M02/M04 Q1031 NOSIG",
      "taf": "TAF LOWW 262015Z 2621/2803 33007KT CAVOK TX03/2722Z TNM02/2700Z"
    },
    {
      "icao": "LPFR",
      "alert": "OK",
      "vis_m": 9999,
      "fzfg": false,
      "metar_trigger": false,
      "taf_trigger": false,
      "metar": "METAR LPFR 262300Z 03008KT CAVOK 08/04 Q1013",
      "taf": "TAF LPFR 261700Z 2618/2718 24007KT CAVOK"
    },
    {
      "icao": "LPMA",
      "alert": "OK",
      "vis_m": 9999,
      "fzfg": false,
      "metar_trigger": false,
      "taf_trigger": false,
      "metar": "METAR LPMA 262300Z 01007KT 9999 SCT015 16/08 Q1016",
      "taf": "TAF LPMA 261700Z 2618/2718 34008KT 9999 SCT015"
    },
    {
      "icao": "LPPR",
      "alert": "OK",
      "vis_m": 9999,
      "fzfg": false,
      "metar_trigger": false,
      "taf_trigger": false,
      "metar": "METAR LPPR 262300Z 11008KT CAVOK 07/M00 Q1015",
      "taf": "TAF LPPR 261700Z 2618/2718 13007KT CAVOK"
    },
    {
      "icao": "LPPS",
      "alert": "OK",
      "vis_m": 6000,
      "fzfg": false,
      "metar_trigger": false,
      "taf_trigger": false,
      "metar": "METAR LPPS 262300Z 31018KT 6000 -SHRA BKN012 14/13 Q1016",
      "taf": "TAF LPPS 261700Z 2618/2724 30015KT 9999 SCT015"
    },
    {
      "icao": "LPPT",
      "alert": "OK",
      "vis_m": 9999,
      "fzfg": false,
      "metar_trigger": false,
      "taf_trigger": false,
      "metar": "METAR LPPT 262300Z 06005KT CAVOK 07/06 Q1013",
      "taf": "TAF LPPT 261700Z 2618/2724 18007KT 9999 FEW030"
    },
    {
      "icao": "LQBK",
      "alert": "OK",
      "vis_m": 9999,
      "fzfg": false,
      "metar_trigger": false,
      "taf_trigger": false,
      "metar": "METAR LQBK 262300Z 18002KT 9999 BKN030 02/01 Q1031 NOSIG",
      "taf": "TAF LQBK 262300Z 2700/2724 16005KT 9999 BKN035 TX03/2713Z TNM03/2705Z"
    },
    {
      "icao": "LQSA",
      "alert": "OK",
      "vis_m": 8000,
      "fzfg": false,
      "metar_trigger": false,
      "taf_trigger": false,
      "metar": "METAR LQSA 262300Z 29004KT 8000 OVC020 01/M01 Q1028",
      "taf": "TAF LQSA 262300Z 2700/2724 VRB02KT 9999 SCT015 BKN025 TX04/2713Z TNM01/2705Z"
    },
    {
      "icao": "LQTZ",
      "alert": "OK",
      "vis_m": 6000,
      "fzfg": false,
      "metar_trigger": false,
      "taf_trigger": false,
      "metar": "METAR LQTZ 262300Z 33004KT 6000 OVC025 01/01 Q1030",
      "taf": "TAF LQTZ 262300Z 2700/2724 30005KT 7000 FEW012 BKN030 TX03/2713Z TNM04/2705Z"
    },
    {
      "icao": "LRBC",
      "alert": "OK",
      "vis_m": 9999,
      "fzfg": false,
      "metar_trigger": false,
      "taf_trigger": false,
      "metar": "METAR LRBC 262300Z 35012KT 9999 SCT030 00/M03 Q1021",
      "taf": "TAF LRBC 262000Z 2621/2706 36015KT 9999 BKN040"
    },
    {
      "icao": "LRBS",
      "alert": "OK",
      "vis_m": 1500,
      "fzfg": false,
      "metar_trigger": false,
      "taf_trigger": false,
      "metar": "METAR LRBS 262300Z 20005KT 170V230 1500 BR OVC001 M02/M02 Q1022 NOSIG",
      "taf": ""
    },
    {
      "icao": "LRBV",
      "alert": "OK",
      "vis_m": 9999,
      "fzfg": false,
      "metar_trigger": false,
      "taf_trigger": false,
      "metar": "METAR LRBV 262300Z AUTO 31014G26KT 280V340 9999 OVC030/// 01/M05 Q1022",
      "taf": "TAF LRBV 262000Z 2621/2706 30012KT 9999 BKN020 BKN050"
    },
    {
      "icao": "LRCL",
      "alert": "OK",
      "vis_m": 9999,
      "fzfg": false,
      "metar_trigger": false,
      "taf_trigger": false,
      "metar": "METAR LRCL 262300Z 30009KT 9999 BKN030 01/M02 Q1025",
      "taf": "TAF LRCL 262000Z 2621/2706 30010KT 9999 BKN035"
    },
    {
      "icao": "LRCV",
      "alert": "OK",
      "vis_m": 9999,
      "fzfg": false,
      "metar_trigger": false,
      "taf_trigger": false,
      "metar": "METAR LRCV 262300Z 28009KT CAVOK M03/M03 Q1022",
      "taf": "TAF LRCV 262000Z 2621/2706 26006KT CAVOK"
    },
    {
      "icao": "LRIA",
      "alert": "OK",
      "vis_m": 9999,
      "fzfg": false,
      "metar_trigger": false,
      "taf_trigger": false,
      "metar": "METAR LRIA 262300Z 30016KT 9999 -FZDZ OVC012 M00/M02 Q1020",
      "taf": "TAF LRIA 262000Z 2621/2706 31015KT 9999 OVC015"
    },
    {
      "icao": "LROP",
      "alert": "OK",
      "vis_m": 1100,
      "fzfg": false,
      "metar_trigger": false,
      "taf_trigger": false,
      "metar": "METAR LROP 262300Z 20005KT 170V230 1100 R08R/2000U R08L/1600U PRFG BR OVC001 M02/M02 Q1022 NOSIG",
      "taf": ""
    },
    {
      "icao": "LRSB",
      "alert": "OK",
      "vis_m": 9999,
      "fzfg": false,
      "metar_trigger": false,
      "taf_trigger": false,
      "metar": "METAR LRSB 262300Z 05003KT 010V080 9999 FEW010 BKN044 01/M02 Q1024",
      "taf": "TAF LRSB 261700Z 2618/2718 VRB04KT 9999 BKN045"
    },
    {
      "icao": "LRSM",
      "alert": "OK",
      "vis_m": 9999,
      "fzfg": false,
      "metar_trigger": false,
      "taf_trigger": false,
      "metar": "METAR LRSM 262300Z AUTO 24005KT 9999 NCD M02/M04 Q1027",
      "taf": "TAF LRSM 261400Z 2615/2624 29008KT CAVOK"
    },
    {
      "icao": "LRSV",
      "alert": "OK",
      "vis_m": 9999,
      "fzfg": false,
      "metar_trigger": false,
      "taf_trigger": false,
      "metar": "METAR LRSV 262300Z 33021G35KT 9999 BKN017 M01/M04 Q1020",
      "taf": "TAF LRSV 262000Z 2621/2706 33020KT 9999 BKN020"
    },
    {
      "icao": "LRTM",
      "alert": "OK",
      "vis_m": 9999,
      "fzfg": false,
      "metar_trigger": false,
      "taf_trigger": false,
      "metar": "METAR LRTM 262300Z AUTO VRB01KT 9999 R25////// BKN031/// M00/M04 Q1025",
      "taf": "TAF LRTM 261400Z 2615/2624 26012KT CAVOK"
    },
    {
      "icao": "LRTR",
      "alert": "OK",
      "vis_m": 8000,
      "fzfg": false,
      "metar_trigger": false,
      "taf_trigger": false,
      "metar": "METAR LRTR 262300Z 27007KT 8000 FEW004 OVC016 01/01 Q1028",
      "taf": "TAF LRTR 261700Z 2618/2718 VRB04KT 9999 BKN015"
    },
    {
      "icao": "LTAC",
      "alert": "OK",
      "vis_m": 9999,
      "fzfg": false,
      "metar_trigger": false,
      "taf_trigger": false,
      "metar": "METAR LTAC 262250Z 27008KT 240V300 9999 BKN033 BKN080 02/M04 Q1011 TEMPO FM0000 4000 BR",
      "taf": "TAF LTAC 262240Z 2700/2724 VRB02KT 9999 BKN025 BKN080"
    },
    {
      "icao": "LTFM",
      "alert": "OK",
      "vis_m": 7000,
      "fzfg": false,
      "metar_trigger": false,
      "taf_trigger": false,
      "metar": "METAR LTFM 262250Z 34018KT 7000 -RA SCT016 BKN020 06/03 Q1019 RERA NOSIG RMK RWY17L 35020KT RWY34L 33019KT RWY16R 35017KT RWY36 35018KT RWY18 35022KT",
      "taf": "TAF LTFM 262240Z 2700/2806 34015KT 9999 BKN012 BKN020"
    },
    {
      "icao": "LUKK",
      "alert": "OK",
      "vis_m": 9999,
      "fzfg": false,
      "metar_trigger": false,
      "taf_trigger": false,
      "metar": "METAR LUKK 262300Z 34011KT 300V010 9999 -SN OVC013 00/M02 Q1018 TEMPO 35018G30KT BKN008",
      "taf": "TAF LUKK 262306Z 2700/2724 33014KT 9999 BKN012"
    },
    {
      "icao": "LWOH",
      "alert": "OK",
      "vis_m": null,
      "fzfg": false,
      "metar_trigger": false,
      "taf_trigger": false,
      "metar": "",
      "taf": "TAF LWOH 262015Z 2621/2721 34006KT 9999 SCT040"
    },
    {
      "icao": "LWSK",
      "alert": "OK",
      "vis_m": 9999,
      "fzfg": false,
      "metar_trigger": false,
      "taf_trigger": false,
      "metar": "METAR LWSK 262250Z 36003KT 310V050 9999 SCT025 BKN050 03/M00 Q1026 NOSIG",
      "taf": "TAF LWSK 262015Z 2621/2721 02008KT 9999 SCT020 BKN050"
    },
    {
      "icao": "LYBE",
      "alert": "OK",
      "vis_m": 8000,
      "fzfg": false,
      "metar_trigger": false,
      "taf_trigger": false,
      "metar": "METAR LYBE 262300Z 25007KT 8000 SCT033 M00/M01 Q1030 NOSIG",
      "taf": "TAF LYBE 261700Z 2618/2718 26005KT 9999 BKN027 TX04/2713Z TNM00/2706Z"
    },
    {
      "icao": "LYNI",
      "alert": "OK",
      "vis_m": 9999,
      "fzfg": false,
      "metar_trigger": false,
      "taf_trigger": false,
      "metar": "METAR LYNI 262300Z VRB03KT 9999 OVC013 01/M00 Q1028 NOSIG",
      "taf": "TAF LYNI 261700Z 2618/2718 30007KT 9999 SCT010 OVC020 TX02/2712Z TN00/2706Z"
    },
    {
      "icao": "LYPG",
      "alert": "OK",
      "vis_m": 9999,
      "fzfg": false,
      "metar_trigger": false,
      "taf_trigger": false,
      "metar": "METAR LYPG 262300Z 30003KT CAVOK 04/00 Q1024 NOSIG",
      "taf": "TAF LYPG 261700Z 2618/2718 34008KT CAVOK TX14/2713Z TN03/2620Z"
    },
    {
      "icao": "LZIB",
      "alert": "OK",
      "vis_m": 9999,
      "fzfg": false,
      "metar_trigger": false,
      "taf_trigger": false,
      "metar": "METAR LZIB 262300Z 28003KT 240V320 CAVOK 02/M09 Q1029 NOSIG",
      "taf": ""
    },
    {
      "icao": "LZKZ",
      "alert": "OK",
      "vis_m": 9999,
      "fzfg": false,
      "metar_trigger": false,
      "taf_trigger": false,
      "metar": "METAR LZKZ 262300Z 02009KT CAVOK 00/M03 Q1027 NOSIG",
      "taf": ""
    },
    {
      "icao": "LZTT",
      "alert": "OK",
      "vis_m": 9999,
      "fzfg": false,
      "metar_trigger": false,
      "taf_trigger": false,
      "metar": "METAR LZTT 262300Z 35006KT CAVOK M06/M09 Q1026",
      "taf": ""
    },
    {
      "icao": "OEJN",
      "alert": "OK",
      "vis_m": 9999,
      "fzfg": false,
      "metar_trigger": false,
      "taf_trigger": false,
      "metar": "METAR OEJN 262300Z 32005KT CAVOK 24/22 Q1011 NOSIG",
      "taf": "TAF OEJN 262300Z 2700/2806 03005KT 7000 FEW040"
    },
    {
      "icao": "OEMA",
      "alert": "OK",
      "vis_m": 9999,
      "fzfg": false,
      "metar_trigger": false,
      "taf_trigger": false,
      "metar": "METAR OEMA 262300Z 13005KT CAVOK 18/12 Q1014 NOSIG",
      "taf": "TAF OEMA 262300Z 2700/2806 VRB03KT 7000 NSC"
    },
    {
      "icao": "OJAI",
      "alert": "OK",
      "vis_m": 2000,
      "fzfg": false,
      "metar_trigger": false,
      "taf_trigger": false,
      "metar": "METAR OJAI 262300Z 03003KT 2000 BR NSC 05/04 Q1015 NOSIG",
      "taf": ""
    },
    {
      "icao": "OMAA",
      "alert": "OK",
      "vis_m": 7000,
      "fzfg": false,
      "metar_trigger": false,
      "taf_trigger": false,
      "metar": "METAR OMAA 262300Z 30002KT 7000 NSC 20/16 Q1014 NOSIG",
      "taf": "TAF OMAA 262300Z 2700/2806 VRB02KT 6000 NSC"
    },
    {
      "icao": "OMDB",
      "alert": "OK",
      "vis_m": 9999,
      "fzfg": false,
      "metar_trigger": false,
      "taf_trigger": false,
      "metar": "METAR OMDB 262300Z VRB02KT CAVOK 20/13 Q1014 NOSIG",
      "taf": "TAF OMDB 262300Z 2700/2806 12005KT 8000 NSC"
    },
    {
      "icao": "UAAA",
      "alert": "OK",
      "vis_m": 6000,
      "fzfg": false,
      "metar_trigger": false,
      "taf_trigger": false,
      "metar": "METAR UAAA 262300Z 08003MPS 6000 OVC004 M01/M02 Q1023 NOSIG RMK QBB140",
      "taf": "TAF UAAA 261701Z 2618/2718 34003G08MPS 1100 BR BKN011CB OVC030 TX00/2709Z TNM03/2701Z"
    },
    {
      "icao": "UBBB",
      "alert": "OK",
      "vis_m": 9999,
      "fzfg": false,
      "metar_trigger": false,
      "taf_trigger": false,
      "metar": "METAR UBBB 262300Z 16012KT CAVOK 04/02 Q1009 NOSIG",
      "taf": "TAF UBBB 262303Z 2700/2724 18012KT CAVOK TX09/2710Z TN03/2702Z"
    },
    {
      "icao": "UDSG",
      "alert": "OK",
      "vis_m": 1000,
      "fzfg": false,
      "metar_trigger": false,
      "taf_trigger": false,
      "metar": "METAR UDSG 262300Z 00000KT 1000 R02/1900N SN BR FEW006 OVC020 M02/M02 Q1008 NOSIG",
      "taf": "TAF UDSG 261658Z 2618/2718 VRB06KT 3000 BR OVC020"
    },
    {
      "icao": "UDYZ",
      "alert": "OK",
      "vis_m": 1300,
      "fzfg": false,
      "metar_trigger": false,
      "taf_trigger": false,
      "metar": "METAR UDYZ 262300Z 00000KT 1300 R08/P2000U BR BKN046 00/M02 Q1010 NOSIG",
      "taf": "TAF UDYZ 261700Z 2618/2718 VRB06KT 2000 BR BKN030"
    },
    {
      "icao": "UGKO",
      "alert": "OK",
      "vis_m": 9999,
      "fzfg": false,
      "metar_trigger": false,
      "taf_trigger": false,
      "metar": "METAR UGKO 262300Z VRB02KT 9999 -SHRA SCT023CB OVC060 05/04 Q1010 NOSIG",
      "taf": "TAF UGKO 262300Z 2700/2724 24007KT 9999 OVC050 TX06/2711Z TN01/2723Z"
    }
  ]
}