{
  "ts_utc": "2026-06-05T13:26:14Z",
  "threshold_m": 150,
  "source": "stations_override.txt (ICAO list) + aviationweather.gov (METAR/TAF raw)",
  "station_count": 159,
  "stations": [
    {
      "icao": "BIKF",
      "alert": "OK",
      "vis_m": 9999,
      "fzfg": false,
      "metar_trigger": false,
      "taf_trigger": false,
      "metar": "METAR BIKF 051300Z 22013KT 9999 BKN010 OVC019 09/08 Q0986",
      "taf": "TAF BIKF 051034Z 0512/0612 12008KT 9999 -RA SCT014 BKN025 OVC035 TX11/0512Z TN06/0605Z"
    },
    {
      "icao": "BKPR",
      "alert": "OK",
      "vis_m": null,
      "fzfg": false,
      "metar_trigger": false,
      "taf_trigger": false,
      "metar": "",
      "taf": "TAF BKPR 051130Z 0512/0612 21007KT 9999 SCT050"
    },
    {
      "icao": "EBCI",
      "alert": "OK",
      "vis_m": 9999,
      "fzfg": false,
      "metar_trigger": false,
      "taf_trigger": false,
      "metar": "METAR EBCI 051250Z 23012KT 9999 FEW020 BKN035 17/11 Q1014 TEMPO 5000 SHRA",
      "taf": "TAF EBCI 051100Z 0512/0618 26010KT 9999 FEW020TCU SCT035"
    },
    {
      "icao": "EDDB",
      "alert": "OK",
      "vis_m": 9999,
      "fzfg": false,
      "metar_trigger": false,
      "taf_trigger": false,
      "metar": "METAR EDDB 051320Z AUTO 26011KT 210V290 9999 FEW047 21/10 Q1012 NOSIG",
      "taf": "TAF EDDB 051100Z 0512/0612 26010KT 9999 SCT040"
    },
    {
      "icao": "EDDH",
      "alert": "OK",
      "vis_m": 9999,
      "fzfg": false,
      "metar_trigger": false,
      "taf_trigger": false,
      "metar": "METAR EDDH 051320Z AUTO 29008KT 270V340 9999 SHRA BKN030 FEW///CB 16/11 Q1011 TEMPO -SHRA",
      "taf": "TAF EDDH 051100Z 0512/0618 22011KT 9999 SCT025"
    },
    {
      "icao": "EDDK",
      "alert": "OK",
      "vis_m": 9999,
      "fzfg": false,
      "metar_trigger": false,
      "taf_trigger": false,
      "metar": "METAR EDDK 051320Z AUTO 17008KT 130V190 9999 FEW039 SCT049 19/12 Q1014 NOSIG",
      "taf": "TAF EDDK 051100Z 0512/0618 26010KT 9999 BKN030"
    },
    {
      "icao": "EDDN",
      "alert": "OK",
      "vis_m": 9999,
      "fzfg": false,
      "metar_trigger": false,
      "taf_trigger": false,
      "metar": "METAR EDDN 051320Z AUTO 35004KT 300V050 CAVOK 18/09 Q1015 TEMPO SHRA BKN040TCU",
      "taf": "TAF EDDN 051100Z 0512/0612 26008KT 9999 SCT030"
    },
    {
      "icao": "EDDS",
      "alert": "OK",
      "vis_m": 9999,
      "fzfg": false,
      "metar_trigger": false,
      "taf_trigger": false,
      "metar": "METAR EDDS 051320Z AUTO 28007KT 240V360 9999 FEW049 19/05 Q1015 NOSIG",
      "taf": "TAF EDDS 051100Z 0512/0612 34007KT 9999 SCT035"
    },
    {
      "icao": "EDFH",
      "alert": "OK",
      "vis_m": 9999,
      "fzfg": false,
      "metar_trigger": false,
      "taf_trigger": false,
      "metar": "METAR EDFH 051250Z 27012KT 230V290 9999 -SHRA FEW027 SCT032 BKN043CB 12/10 Q1016",
      "taf": "TAF EDFH 051100Z 0512/0612 24011KT 9999 SCT020 BKN030"
    },
    {
      "icao": "EDJA",
      "alert": "OK",
      "vis_m": 9999,
      "fzfg": false,
      "metar_trigger": false,
      "taf_trigger": false,
      "metar": "METAR EDJA 051250Z 30011KT 9999 FEW041 16/09 Q1015",
      "taf": "TAF EDJA 051100Z 0512/0521 26010KT 9999 SCT035"
    },
    {
      "icao": "EDLW",
      "alert": "OK",
      "vis_m": 9999,
      "fzfg": false,
      "metar_trigger": false,
      "taf_trigger": false,
      "metar": "METAR EDLW 051250Z 20011KT 9999 VCSH FEW020 SCT032 15/12 Q1013",
      "taf": "TAF EDLW 051100Z 0512/0612 22011KT 9999 BKN035"
    },
    {
      "icao": "EDNY",
      "alert": "OK",
      "vis_m": 9999,
      "fzfg": false,
      "metar_trigger": false,
      "taf_trigger": false,
      "metar": "METAR EDNY 051250Z 23007KT 180V270 9999 FEW040 18/07 Q1016",
      "taf": "TAF EDNY 051100Z 0512/0521 23005KT 9999 FEW035"
    },
    {
      "icao": "EDSB",
      "alert": "OK",
      "vis_m": 9999,
      "fzfg": false,
      "metar_trigger": false,
      "taf_trigger": false,
      "metar": "METAR EDSB 051250Z 22008KT 200V260 9999 SCT045 20/08 Q1015",
      "taf": "TAF EDSB 051100Z 0512/0612 25009KT 9999 SCT035"
    },
    {
      "icao": "EETN",
      "alert": "OK",
      "vis_m": 9999,
      "fzfg": false,
      "metar_trigger": false,
      "taf_trigger": false,
      "metar": "METAR EETN 051320Z 16008KT 130V190 9999 SCT025 FEW033CB BKN038 20/15 Q1012 NOSIG",
      "taf": "TAF EETN 051130Z 0512/0612 15012KT 9999 BKN020 FEW030CB"
    },
    {
      "icao": "EFTU",
      "alert": "OK",
      "vis_m": 9999,
      "fzfg": false,
      "metar_trigger": false,
      "taf_trigger": false,
      "metar": "METAR EFTU 051320Z AUTO 17010KT 9999 BKN016 18/14 Q1011",
      "taf": "TAF EFTU 051122Z 0512/0612 17009KT 9999 BKN020"
    },
    {
      "icao": "EGBB",
      "alert": "OK",
      "vis_m": 9999,
      "fzfg": false,
      "metar_trigger": false,
      "taf_trigger": false,
      "metar": "METAR EGBB 051320Z 23008KT 200V270 9999 FEW040 15/05 Q1011",
      "taf": "TAF EGBB 051100Z 0512/0612 26011KT 9999 FEW040"
    },
    {
      "icao": "EGGP",
      "alert": "OK",
      "vis_m": 9999,
      "fzfg": false,
      "metar_trigger": false,
      "taf_trigger": false,
      "metar": "METAR EGGP 051320Z 22009KT 200V260 9999 FEW038 SCT045 15/05 Q1010",
      "taf": "TAF EGGP 051058Z 0512/0612 22007KT 9999 SCT045"
    },
    {
      "icao": "EGGW",
      "alert": "OK",
      "vis_m": 9999,
      "fzfg": false,
      "metar_trigger": false,
      "taf_trigger": false,
      "metar": "METAR EGGW 051320Z AUTO 24010KT 9999 FEW045 16/05 Q1012",
      "taf": "TAF EGGW 051053Z 0512/0612 26012KT 9999 SCT040"
    },
    {
      "icao": "EGKK",
      "alert": "OK",
      "vis_m": 9999,
      "fzfg": false,
      "metar_trigger": false,
      "taf_trigger": false,
      "metar": "METAR EGKK 051320Z 24011KT 200V270 9999 FEW038 17/08 Q1013",
      "taf": "TAF EGKK 051057Z 0512/0618 22009KT 9999 SCT035"
    },
    {
      "icao": "EGNM",
      "alert": "OK",
      "vis_m": 9999,
      "fzfg": false,
      "metar_trigger": false,
      "taf_trigger": false,
      "metar": "METAR EGNM 051320Z 24008KT 200V270 9999 -SHRA SCT039 SCT045 13/06 Q1009",
      "taf": "TAF EGNM 051100Z 0512/0612 27011KT 9999 FEW020 SCT035"
    },
    {
      "icao": "EGPD",
      "alert": "OK",
      "vis_m": 9999,
      "fzfg": false,
      "metar_trigger": false,
      "taf_trigger": false,
      "metar": "METAR EGPD 051320Z COR VRB03KT 9999 VCSH FEW039CB 16/05 Q1004 TEMPO SHRA",
      "taf": ""
    },
    {
      "icao": "EGPF",
      "alert": "OK",
      "vis_m": 9999,
      "fzfg": false,
      "metar_trigger": false,
      "taf_trigger": false,
      "metar": "METAR EGPF 051320Z AUTO 21015KT 9999 SCT033 15/07 Q1006",
      "taf": "TAF EGPF 051057Z 0512/0612 22011KT 9999 SCT030"
    },
    {
      "icao": "EHBK",
      "alert": "OK",
      "vis_m": 9999,
      "fzfg": false,
      "metar_trigger": false,
      "taf_trigger": false,
      "metar": "METAR EHBK 051255Z AUTO 23013KT 190V280 9999 FEW030CB SCT036 BKN045 18/11 Q1013 TEMPO 7000 -SHRA FEW025CB",
      "taf": "TAF EHBK 051112Z 0512/0618 24010KT 9999 SCT040"
    },
    {
      "icao": "EHEH",
      "alert": "OK",
      "vis_m": 9999,
      "fzfg": false,
      "metar_trigger": false,
      "taf_trigger": false,
      "metar": "METAR EHEH 051255Z AUTO 24004KT 190V310 9999 FEW056 SCT063 OVC072 16/11 Q1013 BLU TEMPO VRB12G23KT 4500 SHRA FEW012 SCT018CB",
      "taf": ""
    },
    {
      "icao": "EKBI",
      "alert": "OK",
      "vis_m": 9999,
      "fzfg": false,
      "metar_trigger": false,
      "taf_trigger": false,
      "metar": "METAR EKBI 051319Z 24013KT 210V280 9999 -SHRA FEW025TCU SCT045 17/11 Q1009",
      "taf": "TAF EKBI 051127Z 0512/0612 23013KT 9999 FEW020"
    },
    {
      "icao": "EKCH",
      "alert": "OK",
      "vis_m": 9999,
      "fzfg": false,
      "metar_trigger": false,
      "taf_trigger": false,
      "metar": "METAR EKCH 051320Z AUTO 19012KT 160V220 9999 FEW037/// 21/11 Q1009 NOSIG",
      "taf": "TAF EKCH 051127Z 0512/0612 19008KT 9999 FEW030"
    },
    {
      "icao": "ENAL",
      "alert": "OK",
      "vis_m": 9999,
      "fzfg": false,
      "metar_trigger": false,
      "taf_trigger": false,
      "metar": "METAR ENAL 051250Z 29004KT 260V320 9999 -RA SCT043 BKN058 15/10 Q0998",
      "taf": "TAF ENAL 051100Z 0512/0521 24012KT 9999 FEW020 SCT040"
    },
    {
      "icao": "ENBR",
      "alert": "OK",
      "vis_m": 9999,
      "fzfg": false,
      "metar_trigger": false,
      "taf_trigger": false,
      "metar": "METAR ENBR 051250Z 23006KT 9999 VCSH FEW003 SCT005 BKN008CB 11/11 Q1001 RERA BECMG BKN014 RMK WIND 1200FT 25011KT",
      "taf": "TAF ENBR 051100Z 0512/0612 15008KT 9999 -SHRA FEW010 BKN020"
    },
    {
      "icao": "ENGM",
      "alert": "OK",
      "vis_m": 9999,
      "fzfg": false,
      "metar_trigger": false,
      "taf_trigger": false,
      "metar": "METAR ENGM 051250Z 20017KT 9999 VCSH FEW018 SCT026 BKN034 16/12 Q1002 NOSIG",
      "taf": "TAF ENGM 051100Z 0512/0612 18012KT 9999 -SHRA FEW005 BKN015"
    },
    {
      "icao": "ENHD",
      "alert": "OK",
      "vis_m": 6000,
      "fzfg": false,
      "metar_trigger": false,
      "taf_trigger": false,
      "metar": "METAR ENHD 051250Z 25012KT 6000 -SHRA FEW007 SCT014 BKN021 12/11 Q1002",
      "taf": ""
    },
    {
      "icao": "ENTC",
      "alert": "OK",
      "vis_m": 9999,
      "fzfg": false,
      "metar_trigger": false,
      "taf_trigger": false,
      "metar": "METAR ENTC 051250Z 18018KT CAVOK 21/09 Q1005 NOSIG RMK WIND 2600FT 17041KT",
      "taf": "TAF ENTC 051100Z 0512/0612 19008KT 9999 SCT070"
    },
    {
      "icao": "ENTO",
      "alert": "OK",
      "vis_m": 9999,
      "fzfg": false,
      "metar_trigger": false,
      "taf_trigger": false,
      "metar": "METAR ENTO 051250Z 20014KT 9999 BKN015 16/12 Q1003 NOSIG",
      "taf": "TAF ENTO 051100Z 0512/0612 19015KT 9999 FEW005 BKN015"
    },
    {
      "icao": "ENVA",
      "alert": "OK",
      "vis_m": 9999,
      "fzfg": false,
      "metar_trigger": false,
      "taf_trigger": false,
      "metar": "METAR ENVA 051250Z 12007KT CAVOK 17/11 Q0997 TEMPO SHRA BKN035CB RMK WIND 670FT 14013KT",
      "taf": "TAF ENVA 051100Z 0512/0612 12008KT 9999 FEW030 BKN045"
    },
    {
      "icao": "ENZV",
      "alert": "OK",
      "vis_m": 7000,
      "fzfg": false,
      "metar_trigger": false,
      "taf_trigger": false,
      "metar": "METAR ENZV 051250Z 26012KT 7000 -DZRA VV009 12/11 Q1003 BECMG BKN014",
      "taf": "TAF ENZV 051100Z 0512/0612 23012KT 9999 -SHRA FEW008 BKN016"
    },
    {
      "icao": "EPGD",
      "alert": "OK",
      "vis_m": 4000,
      "fzfg": false,
      "metar_trigger": false,
      "taf_trigger": false,
      "metar": "METAR EPGD 051300Z 28007KT 4000 RA FEW011 BKN044 14/14 Q1012",
      "taf": "TAF EPGD 051130Z 0512/0612 30010KT 9999 BKN040"
    },
    {
      "icao": "EPKK",
      "alert": "OK",
      "vis_m": 9999,
      "fzfg": false,
      "metar_trigger": false,
      "taf_trigger": false,
      "metar": "METAR EPKK 051300Z 25012KT 9999 FEW040CB SCT050 20/15 Q1011",
      "taf": "TAF EPKK 051121Z 0512/0612 VRB02KT CAVOK"
    },
    {
      "icao": "EPKT",
      "alert": "OK",
      "vis_m": 7000,
      "fzfg": false,
      "metar_trigger": false,
      "taf_trigger": false,
      "metar": "METAR EPKT 051300Z 27011KT 7000 -SHRA FEW002 BKN006 SCT011CB 15/14 Q1013 RESHRA",
      "taf": "TAF EPKT 051126Z 0512/0612 25010KT 9999 BKN023"
    },
    {
      "icao": "EPLB",
      "alert": "OK",
      "vis_m": 9999,
      "fzfg": false,
      "metar_trigger": false,
      "taf_trigger": false,
      "metar": "METAR EPLB 051300Z 19011KT 140V220 9999 FEW034 25/17 Q1011",
      "taf": "TAF EPLB 051130Z 0512/0612 19010KT 9999 SCT030"
    },
    {
      "icao": "EPMO",
      "alert": "OK",
      "vis_m": 9999,
      "fzfg": false,
      "metar_trigger": false,
      "taf_trigger": false,
      "metar": "METAR EPMO 051300Z 21006KT 180V240 9999 FEW050TCU 24/14 Q1010",
      "taf": "TAF EPMO 051130Z 0512/0612 14005KT 9999 SCT035"
    },
    {
      "icao": "EPPO",
      "alert": "OK",
      "vis_m": 9999,
      "fzfg": false,
      "metar_trigger": false,
      "taf_trigger": false,
      "metar": "METAR EPPO 051300Z 22004KT 9999 -RA FEW009 16/13 Q1013",
      "taf": "TAF EPPO 051130Z 0512/0612 26006KT 9999 -RA FEW008 BKN045"
    },
    {
      "icao": "EPRA",
      "alert": "OK",
      "vis_m": 9999,
      "fzfg": false,
      "metar_trigger": false,
      "taf_trigger": false,
      "metar": "METAR EPRA 051300Z 29011KT 250V310 CAVOK 24/12 Q1011",
      "taf": "TAF EPRA 051130Z 0512/0521 17007KT CAVOK"
    },
    {
      "icao": "EPRZ",
      "alert": "OK",
      "vis_m": 9999,
      "fzfg": false,
      "metar_trigger": false,
      "taf_trigger": false,
      "metar": "METAR EPRZ 051300Z 18013KT 9999 FEW036 23/15 Q1012",
      "taf": "TAF EPRZ 051130Z 0512/0612 19010KT 9999 BKN030"
    },
    {
      "icao": "EPSC",
      "alert": "OK",
      "vis_m": 9999,
      "fzfg": false,
      "metar_trigger": false,
      "taf_trigger": false,
      "metar": "METAR EPSC 051300Z 20006KT 160V220 9999 SCT032 19/11 Q1011",
      "taf": "TAF EPSC 051130Z 0512/0612 23010KT 9999 SCT030"
    },
    {
      "icao": "EPSY",
      "alert": "OK",
      "vis_m": 8000,
      "fzfg": false,
      "metar_trigger": false,
      "taf_trigger": false,
      "metar": "METAR EPSY 051300Z 18007KT 140V210 8000 BKN018 22/16 Q1010",
      "taf": "TAF EPSY 051130Z 0512/0521 VRB02KT 6000 FEW010 BKN015"
    },
    {
      "icao": "EPWA",
      "alert": "OK",
      "vis_m": 9999,
      "fzfg": false,
      "metar_trigger": false,
      "taf_trigger": false,
      "metar": "METAR EPWA 051300Z 16010KT CAVOK 23/15 Q1010 NOSIG",
      "taf": "TAF EPWA 051130Z 0512/0612 20010KT 9999 SCT035"
    },
    {
      "icao": "EPWR",
      "alert": "OK",
      "vis_m": 9999,
      "fzfg": false,
      "metar_trigger": false,
      "taf_trigger": false,
      "metar": "METAR EPWR 051300Z 28007KT 9999 -RA SCT012 15/14 Q1014",
      "taf": "TAF EPWR 051130Z 0512/0612 28010KT 9999 -RA SCT009 BKN045"
    },
    {
      "icao": "ESGG",
      "alert": "OK",
      "vis_m": 9999,
      "fzfg": false,
      "metar_trigger": false,
      "taf_trigger": false,
      "metar": "METAR ESGG 051320Z 22017KT 9999 FEW023CB BKN037 16/12 Q1007",
      "taf": "TAF ESGG 051130Z 0512/0612 20012KT 9999 BKN020"
    },
    {
      "icao": "ESKN",
      "alert": "OK",
      "vis_m": 9999,
      "fzfg": false,
      "metar_trigger": false,
      "taf_trigger": false,
      "metar": "METAR ESKN 051320Z 14011KT 9999 FEW038 17/14 Q1008",
      "taf": "TAF ESKN 051130Z 0512/0612 16009KT 9999 SCT020"
    },
    {
      "icao": "ESMS",
      "alert": "OK",
      "vis_m": 9999,
      "fzfg": false,
      "metar_trigger": false,
      "taf_trigger": false,
      "metar": "METAR ESMS 051320Z 21013KT 9999 FEW024 SCT033 19/12 Q1010",
      "taf": "TAF ESMS 051127Z 0512/0612 21012KT 9999 SCT020"
    },
    {
      "icao": "ESSA",
      "alert": "OK",
      "vis_m": 9999,
      "fzfg": false,
      "metar_trigger": false,
      "taf_trigger": false,
      "metar": "METAR ESSA 051320Z 18012KT 9999 FEW028 18/11 Q1007 NOSIG",
      "taf": "TAF ESSA 051130Z 0512/0612 17010KT 9999 SCT030"
    },
    {
      "icao": "EYKA",
      "alert": "OK",
      "vis_m": 9999,
      "fzfg": false,
      "metar_trigger": false,
      "taf_trigger": false,
      "metar": "METAR EYKA 051320Z 15008KT 9999 -RA NSC 21/18 Q1012",
      "taf": "TAF EYKA 051101Z 0512/0612 16010KT 9000 BKN025"
    },
    {
      "icao": "EYPA",
      "alert": "OK",
      "vis_m": 9999,
      "fzfg": false,
      "metar_trigger": false,
      "taf_trigger": false,
      "metar": "METAR EYPA 051320Z 32004KT 260V030 9999 SCT058CB 15/14 Q1011",
      "taf": "TAF EYPA 051100Z 0512/0612 33013KT 9000 SCT010 BKN020"
    },
    {
      "icao": "EYVI",
      "alert": "OK",
      "vis_m": 9999,
      "fzfg": false,
      "metar_trigger": false,
      "taf_trigger": false,
      "metar": "METAR EYVI 051320Z 11008KT 9999 SCT031CB 20/18 Q1013 NOSIG",
      "taf": "TAF EYVI 051125Z 0512/0612 14009KT 9000 SCT030"
    },
    {
      "icao": "GCFV",
      "alert": "OK",
      "vis_m": 9999,
      "fzfg": false,
      "metar_trigger": false,
      "taf_trigger": false,
      "metar": "METAR GCFV 051300Z 03019KT 9999 FEW020 BKN027 23/16 Q1018",
      "taf": "TAF GCFV 050800Z 0509/0609 01017KT 9999 BKN025 TX26/0514Z TN19/0606Z"
    },
    {
      "icao": "GCLP",
      "alert": "OK",
      "vis_m": 9999,
      "fzfg": false,
      "metar_trigger": false,
      "taf_trigger": false,
      "metar": "METAR GCLP 051300Z 01024KT 9999 -DZ FEW015 BKN020 22/17 Q1020 NOSIG",
      "taf": "TAF GCLP 050800Z 0509/0609 36024KT 9999 SCT020 TX26/0514Z TN19/0606Z"
    },
    {
      "icao": "GCTS",
      "alert": "OK",
      "vis_m": 9999,
      "fzfg": false,
      "metar_trigger": false,
      "taf_trigger": false,
      "metar": "METAR GCTS 051300Z 10019KT 070V140 9999 SCT030 25/16 Q1019 NOSIG",
      "taf": "TAF GCTS 050800Z 0509/0609 VRB05KT 9999 SCT025 TX28/0514Z TN19/0606Z"
    },
    {
      "icao": "GMAD",
      "alert": "OK",
      "vis_m": 8000,
      "fzfg": false,
      "metar_trigger": false,
      "taf_trigger": false,
      "metar": "METAR GMAD 051300Z 25008KT 220V310 8000 BKN020 25/17 Q1012 NOSIG",
      "taf": ""
    },
    {
      "icao": "GMMN",
      "alert": "OK",
      "vis_m": 9999,
      "fzfg": false,
      "metar_trigger": false,
      "taf_trigger": false,
      "metar": "METAR GMMN 051300Z 36015KT 320V040 9999 SCT020 24/17 Q1016 NOSIG",
      "taf": "TAF GMMN 051100Z 0512/0618 36014KT 9999 SCT020"
    },
    {
      "icao": "GMMX",
      "alert": "OK",
      "vis_m": 9999,
      "fzfg": false,
      "metar_trigger": false,
      "taf_trigger": false,
      "metar": "METAR GMMX 051300Z VRB06KT 9999 SCT030 28/14 Q1014 NOSIG",
      "taf": "TAF GMMX 051100Z 0512/0618 06006KT 8000 SCT030"
    },
    {
      "icao": "HEGN",
      "alert": "OK",
      "vis_m": 9999,
      "fzfg": false,
      "metar_trigger": false,
      "taf_trigger": false,
      "metar": "METAR HEGN 051300Z 01007KT CAVOK 35/12 Q1009 NOSIG",
      "taf": "TAF HEGN 051100Z 0512/0618 01012KT CAVOK"
    },
    {
      "icao": "HEMA",
      "alert": "OK",
      "vis_m": 9999,
      "fzfg": false,
      "metar_trigger": false,
      "taf_trigger": false,
      "metar": "METAR HEMA 051300Z 34011KT CAVOK 33/12 Q1009 NOSIG",
      "taf": "TAF HEMA 051100Z 0512/0618 35010G20KT CAVOK"
    },
    {
      "icao": "HESH",
      "alert": "OK",
      "vis_m": 9999,
      "fzfg": false,
      "metar_trigger": false,
      "taf_trigger": false,
      "metar": "METAR HESH 051300Z 04006KT CAVOK 39/11 Q1009 NOSIG",
      "taf": "TAF HESH 051100Z 0512/0618 36012KT CAVOK"
    },
    {
      "icao": "HESX",
      "alert": "OK",
      "vis_m": 9999,
      "fzfg": false,
      "metar_trigger": false,
      "taf_trigger": false,
      "metar": "METAR HESX 051300Z 36007KT CAVOK 34/07 Q1013 NOSIG",
      "taf": "TAF HESX 051100Z 0512/0618 04010KT CAVOK"
    },
    {
      "icao": "LATI",
      "alert": "OK",
      "vis_m": 9999,
      "fzfg": false,
      "metar_trigger": false,
      "taf_trigger": false,
      "metar": "METAR LATI 051320Z 27008KT 220V330 9999 FEW051 28/18 Q1013 NOSIG",
      "taf": "TAF LATI 051100Z 0512/0612 28010KT CAVOK TX31/0612Z TN15/0604Z"
    },
    {
      "icao": "LBPD",
      "alert": "OK",
      "vis_m": 9999,
      "fzfg": false,
      "metar_trigger": false,
      "taf_trigger": false,
      "metar": "METAR LBPD 051300Z AUTO 11006KT 9999 FEW041/// 27/18 Q1013 NOSIG",
      "taf": "TAF LBPD 051100Z 0512/0612 10010KT 9999 FEW025 SCT040"
    },
    {
      "icao": "LBSF",
      "alert": "OK",
      "vis_m": 9999,
      "fzfg": false,
      "metar_trigger": false,
      "taf_trigger": false,
      "metar": "METAR LBSF 051300Z VRB02KT 9999 SCT067 26/13 Q1014 NOSIG",
      "taf": "TAF LBSF 051100Z 0512/0612 11010KT 9999 SCT040"
    },
    {
      "icao": "LBWN",
      "alert": "OK",
      "vis_m": 9999,
      "fzfg": false,
      "metar_trigger": false,
      "taf_trigger": false,
      "metar": "METAR LBWN 051300Z 14010KT 9999 FEW015 21/21 Q1014 NOSIG",
      "taf": "TAF LBWN 051100Z 0512/0612 12012KT 9999 SCT020"
    },
    {
      "icao": "LCLK",
      "alert": "OK",
      "vis_m": 9999,
      "fzfg": false,
      "metar_trigger": false,
      "taf_trigger": false,
      "metar": "METAR LCLK 051300Z 21019KT 9999 FEW020 29/15 Q1012 NOSIG",
      "taf": "TAF LCLK 051130Z 0512/0612 21016KT 9999 FEW020"
    },
    {
      "icao": "LCPH",
      "alert": "OK",
      "vis_m": 9999,
      "fzfg": false,
      "metar_trigger": false,
      "taf_trigger": false,
      "metar": "METAR LCPH 051300Z 31014KT 250V320 9999 FEW025 25/19 Q1013 NOSIG",
      "taf": "TAF LCPH 051130Z 0512/0612 29014KT 9999 FEW020"
    },
    {
      "icao": "LEAL",
      "alert": "OK",
      "vis_m": 9999,
      "fzfg": false,
      "metar_trigger": false,
      "taf_trigger": false,
      "metar": "METAR LEAL 051300Z 08017KT 9999 FEW043 SCT053 27/18 Q1014 NOSIG",
      "taf": "TAF LEAL 051100Z 0512/0612 06010KT 9999 SCT025 TX27/0512Z TN19/0606Z"
    },
    {
      "icao": "LEBB",
      "alert": "OK",
      "vis_m": 9999,
      "fzfg": false,
      "metar_trigger": false,
      "taf_trigger": false,
      "metar": "METAR LEBB 051300Z 07007KT 010V140 9999 FEW048 21/11 Q1017 NOSIG",
      "taf": "TAF LEBB 051100Z 0512/0612 07009KT 9999 FEW045 TX21/0514Z TN12/0603Z"
    },
    {
      "icao": "LEBL",
      "alert": "OK",
      "vis_m": 9000,
      "fzfg": false,
      "metar_trigger": false,
      "taf_trigger": false,
      "metar": "METAR LEBL 051300Z 22011KT 180V240 9000 FEW015 BKN040 21/16 Q1017 NOSIG",
      "taf": "TAF LEBL 051100Z 0512/0612 21012KT 9999 FEW020 SCT035 TX22/0512Z TN17/0606Z"
    },
    {
      "icao": "LECH",
      "alert": "OK",
      "vis_m": 3500,
      "fzfg": false,
      "metar_trigger": false,
      "taf_trigger": false,
      "metar": "METAR LECH 051300Z AUTO 05005KT 020V080 3500 BR BKN006 BKN010 16/15 Q1018",
      "taf": "TAF LECH 051100Z 0512/0612 05010KT 9999 BKN015 TX24/0513Z TN14/0606Z"
    },
    {
      "icao": "LEMD",
      "alert": "OK",
      "vis_m": 9999,
      "fzfg": false,
      "metar_trigger": false,
      "taf_trigger": false,
      "metar": "METAR LEMD 051300Z 26005KT 190V340 9999 FEW060 25/10 Q1014 NOSIG",
      "taf": ""
    },
    {
      "icao": "LEMG",
      "alert": "OK",
      "vis_m": 9999,
      "fzfg": false,
      "metar_trigger": false,
      "taf_trigger": false,
      "metar": "METAR LEMG 051300Z 08010KT 060V120 9999 FEW040 25/14 Q1014 NOSIG",
      "taf": "TAF LEMG 051100Z 0512/0612 11010KT CAVOK TX31/0514Z TN19/0606Z"
    },
    {
      "icao": "LEVC",
      "alert": "OK",
      "vis_m": 9999,
      "fzfg": false,
      "metar_trigger": false,
      "taf_trigger": false,
      "metar": "METAR LEVC 051300Z 05006KT 350V090 9999 FEW009 BKN010 19/17 Q1017 NOSIG",
      "taf": ""
    },
    {
      "icao": "LEXJ",
      "alert": "OK",
      "vis_m": 9999,
      "fzfg": false,
      "metar_trigger": false,
      "taf_trigger": false,
      "metar": "METAR LEXJ 051300Z 06008KT 9999 FEW042 17/11 Q1016",
      "taf": "TAF LEXJ 050800Z 0509/0609 07009KT 9999 BKN035 TX20/0513Z TN14/0601Z"
    },
    {
      "icao": "LEZG",
      "alert": "OK",
      "vis_m": 9999,
      "fzfg": false,
      "metar_trigger": false,
      "taf_trigger": false,
      "metar": "METAR LEZG 051300Z 25004KT CAVOK 23/07 Q1016 NOSIG",
      "taf": "TAF LEZG 051100Z 0512/0612 31010KT CAVOK TX28/0515Z TN17/0606Z"
    },
    {
      "icao": "LEZL",
      "alert": "OK",
      "vis_m": 9999,
      "fzfg": false,
      "metar_trigger": false,
      "taf_trigger": false,
      "metar": "METAR LEZL 051300Z 31005KT CAVOK 29/08 Q1013 NOSIG",
      "taf": "TAF LEZL 050800Z 0509/0609 VRB03KT CAVOK TX34/0515Z TN19/0606Z"
    },
    {
      "icao": "LFBD",
      "alert": "OK",
      "vis_m": 9999,
      "fzfg": false,
      "metar_trigger": false,
      "taf_trigger": false,
      "metar": "METAR LFBD 051300Z AUTO 19005KT 120V230 9999 FEW042 20/09 Q1017 TEMPO BKN030TCU",
      "taf": "TAF LFBD 051100Z 0512/0618 VRB03KT CAVOK TX22/0614Z TN12/0606Z"
    },
    {
      "icao": "LFLL",
      "alert": "OK",
      "vis_m": 9999,
      "fzfg": false,
      "metar_trigger": false,
      "taf_trigger": false,
      "metar": "METAR LFLL 051300Z 36008KT 330V030 9999 SCT046 BKN260 18/07 Q1017 NOSIG",
      "taf": "TAF LFLL 051100Z 0512/0618 35010KT 9999 SCT040"
    },
    {
      "icao": "LFLS",
      "alert": "OK",
      "vis_m": 9999,
      "fzfg": false,
      "metar_trigger": false,
      "taf_trigger": false,
      "metar": "METAR LFLS 051300Z AUTO 35011KT 320V020 9999 FEW037 BKN056 OVC070 17/09 Q1016 NOSIG",
      "taf": "TAF LFLS 050800Z 0509/0609 34008KT 9999 BKN030"
    },
    {
      "icao": "LFMN",
      "alert": "OK",
      "vis_m": 9999,
      "fzfg": false,
      "metar_trigger": false,
      "taf_trigger": false,
      "metar": "METAR LFMN 051300Z 13007KT 9999 FEW023 24/17 Q1011 NOSIG",
      "taf": "TAF LFMN 050800Z 0509/0615 12010KT CAVOK"
    },
    {
      "icao": "LFOB",
      "alert": "OK",
      "vis_m": 9999,
      "fzfg": false,
      "metar_trigger": false,
      "taf_trigger": false,
      "metar": "METAR LFOB 051300Z AUTO 22009KT 180V240 9999 FEW031 SCT048 OVC068 16/10 Q1015 TEMPO 4000 -SHRA BKN030TCU",
      "taf": "TAF LFOB 051100Z 0512/0612 24010KT 9999 BKN035 BKN070"
    },
    {
      "icao": "LFPO",
      "alert": "OK",
      "vis_m": 9999,
      "fzfg": false,
      "metar_trigger": false,
      "taf_trigger": false,
      "metar": "METAR LFPO 051300Z 25012KT 210V290 9999 FEW046 BKN073 18/05 Q1016 NOSIG",
      "taf": "TAF LFPO 051100Z 0512/0618 24010KT 9999 SCT033 BKN066"
    },
    {
      "icao": "LFSB",
      "alert": "OK",
      "vis_m": 9999,
      "fzfg": false,
      "metar_trigger": false,
      "taf_trigger": false,
      "metar": "METAR LFSB 051300Z AUTO 26012KT 230V300 CAVOK 19/09 Q1016 TEMPO FEW035TCU",
      "taf": "TAF LFSB 051100Z 0512/0612 27008KT 9999 FEW035 BKN070"
    },
    {
      "icao": "LGAV",
      "alert": "OK",
      "vis_m": 9999,
      "fzfg": false,
      "metar_trigger": false,
      "taf_trigger": false,
      "metar": "METAR LGAV 051320Z 06004KT 020V090 9999 FEW030 SCT040 23/15 Q1014 NOSIG",
      "taf": "TAF LGAV 051100Z 0512/0612 VRB05KT 9999 FEW030 SCT040"
    },
    {
      "icao": "LGTS",
      "alert": "OK",
      "vis_m": 9999,
      "fzfg": false,
      "metar_trigger": false,
      "taf_trigger": false,
      "metar": "METAR LGTS 051250Z 20009KT 9999 SCT030 29/15 Q1013 NOSIG",
      "taf": "TAF LGTS 051100Z 0512/0612 18013KT 9999 FEW030"
    },
    {
      "icao": "LHBP",
      "alert": "OK",
      "vis_m": 9999,
      "fzfg": false,
      "metar_trigger": false,
      "taf_trigger": false,
      "metar": "METAR LHBP 051300Z 31015KT CAVOK 24/14 Q1013 NOSIG",
      "taf": "TAF LHBP 051115Z 0512/0612 24008KT CAVOK"
    },
    {
      "icao": "LHDC",
      "alert": "OK",
      "vis_m": 9999,
      "fzfg": false,
      "metar_trigger": false,
      "taf_trigger": false,
      "metar": "METAR LHDC 051245Z AUTO 22010KT 170V250 CAVOK 26/14 Q1013 NOSIG",
      "taf": "TAF LHDC 051115Z 0512/0521 20008KT 9999 BKN040"
    },
    {
      "icao": "LIBD",
      "alert": "OK",
      "vis_m": 9999,
      "fzfg": false,
      "metar_trigger": false,
      "taf_trigger": false,
      "metar": "METAR LIBD 051250Z 08016KT CAVOK 26/17 Q1011",
      "taf": "TAF LIBD 051100Z 0512/0612 10015KT CAVOK"
    },
    {
      "icao": "LIBG",
      "alert": "OK",
      "vis_m": 9999,
      "fzfg": false,
      "metar_trigger": false,
      "taf_trigger": false,
      "metar": "METAR LIBG 051250Z AUTO 17011KT 9999 NCD 28/14 Q1012",
      "taf": "TAF LIBG 051100Z 0512/0612 16015KT CAVOK"
    },
    {
      "icao": "LIBP",
      "alert": "OK",
      "vis_m": 9999,
      "fzfg": false,
      "metar_trigger": false,
      "taf_trigger": false,
      "metar": "METAR LIBP 051250Z AUTO 02008KT 350V050 9999 OVC110/// 23/18 Q1013",
      "taf": "TAF LIBP 051100Z 0512/0612 02010KT 9999 SCT040"
    },
    {
      "icao": "LIBR",
      "alert": "OK",
      "vis_m": 9999,
      "fzfg": false,
      "metar_trigger": false,
      "taf_trigger": false,
      "metar": "METAR LIBR 051250Z 12011KT CAVOK 25/16 Q1012",
      "taf": "TAF LIBR 051100Z 0512/0612 12015KT CAVOK"
    },
    {
      "icao": "LICA",
      "alert": "OK",
      "vis_m": 9999,
      "fzfg": false,
      "metar_trigger": false,
      "taf_trigger": false,
      "metar": "METAR LICA 051250Z AUTO 24008KT 210V280 9999 NCD 27/15 Q1013",
      "taf": "TAF LICA 051100Z 0512/0612 26010KT CAVOK"
    },
    {
      "icao": "LICC",
      "alert": "OK",
      "vis_m": 9999,
      "fzfg": false,
      "metar_trigger": false,
      "taf_trigger": false,
      "metar": "METAR LICC 051250Z 06012KT CAVOK 26/18 Q1012",
      "taf": "TAF LICC 051100Z 0512/0612 09011KT CAVOK"
    },
    {
      "icao": "LICJ",
      "alert": "OK",
      "vis_m": 9999,
      "fzfg": false,
      "metar_trigger": false,
      "taf_trigger": false,
      "metar": "METAR LICJ 051250Z 06016KT CAVOK 26/19 Q1012",
      "taf": "TAF LICJ 051100Z 0512/0612 04012KT CAVOK"
    },
    {
      "icao": "LIMC",
      "alert": "OK",
      "vis_m": 9999,
      "fzfg": false,
      "metar_trigger": false,
      "taf_trigger": false,
      "metar": "METAR LIMC 051250Z 10006KT 020V160 9999 FEW060 24/09 Q1011 NOSIG",
      "taf": "TAF LIMC 051100Z 0512/0618 VRB05KT CAVOK"
    },
    {
      "icao": "LIME",
      "alert": "OK",
      "vis_m": 9999,
      "fzfg": false,
      "metar_trigger": false,
      "taf_trigger": false,
      "metar": "METAR LIME 051250Z 13006KT 050V190 9999 SCT035 23/15 Q1012 NOSIG",
      "taf": "TAF LIME 051100Z 0512/0612 13010KT 9999 SCT015"
    },
    {
      "icao": "LIMF",
      "alert": "OK",
      "vis_m": 9999,
      "fzfg": false,
      "metar_trigger": false,
      "taf_trigger": false,
      "metar": "METAR LIMF 051250Z 16006G17KT 090V220 9999 FEW050 24/10 Q1012",
      "taf": "TAF LIMF 051100Z 0512/0612 VRB05KT 9999 FEW020"
    },
    {
      "icao": "LIMJ",
      "alert": "OK",
      "vis_m": 9999,
      "fzfg": false,
      "metar_trigger": false,
      "taf_trigger": false,
      "metar": "METAR LIMJ 051250Z 15008KT 9999 SCT032 21/16 Q1012",
      "taf": "TAF LIMJ 051100Z 0512/0612 13013KT 9999 FEW020"
    },
    {
      "icao": "LIPE",
      "alert": "OK",
      "vis_m": 9999,
      "fzfg": false,
      "metar_trigger": false,
      "taf_trigger": false,
      "metar": "METAR LIPE 051250Z 11006KT 020V180 9999 BKN045 26/14 Q1010",
      "taf": "TAF LIPE 051100Z 0512/0612 20007KT 9999 FEW040"
    },
    {
      "icao": "LIPH",
      "alert": "OK",
      "vis_m": 9999,
      "fzfg": false,
      "metar_trigger": false,
      "taf_trigger": false,
      "metar": "METAR LIPH 051250Z 05005KT 350V110 9999 SCT020 22/17 Q1012",
      "taf": "TAF LIPH 051100Z 0512/0612 04007KT 9999 BKN030"
    },
    {
      "icao": "LIPQ",
      "alert": "OK",
      "vis_m": 9999,
      "fzfg": false,
      "metar_trigger": false,
      "taf_trigger": false,
      "metar": "METAR LIPQ 051250Z AUTO 19004KT 140V300 9999 BKN024/// 24/17 Q1012",
      "taf": "TAF LIPQ 051100Z 0512/0612 VRB05KT 9999 BKN030"
    },
    {
      "icao": "LIPR",
      "alert": "OK",
      "vis_m": 9999,
      "fzfg": false,
      "metar_trigger": false,
      "taf_trigger": false,
      "metar": "METAR LIPR 051250Z 09009KT 9999 FEW040 SCT060 24/17 Q1011",
      "taf": "TAF LIPR 051100Z 0512/0612 15013KT 9999 BKN040"
    },
    {
      "icao": "LIPX",
      "alert": "OK",
      "vis_m": 9999,
      "fzfg": false,
      "metar_trigger": false,
      "taf_trigger": false,
      "metar": "METAR LIPX 051250Z VRB03KT 9999 SCT040 24/17 Q1011",
      "taf": "TAF LIPX 051100Z 0512/0612 09012KT 9999 SCT020"
    },
    {
      "icao": "LIPY",
      "alert": "OK",
      "vis_m": 9999,
      "fzfg": false,
      "metar_trigger": false,
      "taf_trigger": false,
      "metar": "METAR LIPY 051250Z AUTO 12003KT 060V160 9999 BKN085/// BKN110/// 25/16 Q1012",
      "taf": "TAF LIPY 051100Z 0512/0612 14014KT 9999 FEW050"
    },
    {
      "icao": "LIPZ",
      "alert": "OK",
      "vis_m": 9999,
      "fzfg": false,
      "metar_trigger": false,
      "taf_trigger": false,
      "metar": "METAR LIPZ 051250Z 05007KT 010V080 9999 SCT025 23/17 Q1012 NOSIG",
      "taf": "TAF LIPZ 051100Z 0512/0618 05008KT 9999 FEW020 BKN040"
    },
    {
      "icao": "LIRF",
      "alert": "OK",
      "vis_m": 9999,
      "fzfg": false,
      "metar_trigger": false,
      "taf_trigger": false,
      "metar": "METAR LIRF 051250Z 24008KT 210V280 9999 FEW015CB BKN020 24/18 Q1013 NOSIG",
      "taf": "TAF LIRF 051100Z 0512/0618 23010KT 9999 SCT018"
    },
    {
      "icao": "LIRN",
      "alert": "OK",
      "vis_m": 9999,
      "fzfg": false,
      "metar_trigger": false,
      "taf_trigger": false,
      "metar": "METAR LIRN 051250Z 20009KT 150V230 CAVOK 27/15 Q1013 NOSIG",
      "taf": "TAF LIRN 051100Z 0512/0612 22010KT CAVOK"
    },
    {
      "icao": "LIRP",
      "alert": "OK",
      "vis_m": 9999,
      "fzfg": false,
      "metar_trigger": false,
      "taf_trigger": false,
      "metar": "METAR LIRP 051245Z 26011KT 9999 FEW040 24/12 Q1013 NOSIG",
      "taf": "TAF LIRP 051100Z 0512/0612 25012KT 9999 SCT030"
    },
    {
      "icao": "LIRZ",
      "alert": "OK",
      "vis_m": 9999,
      "fzfg": false,
      "metar_trigger": false,
      "taf_trigger": false,
      "metar": "METAR LIRZ 051250Z AUTO 16007KT 130V200 9999 SCT087/// 25/15 Q1013",
      "taf": "TAF LIRZ 051100Z 0512/0612 19011KT 9999 SCT040"
    },
    {
      "icao": "LJLJ",
      "alert": "OK",
      "vis_m": 9999,
      "fzfg": false,
      "metar_trigger": false,
      "taf_trigger": false,
      "metar": "METAR LJLJ 051300Z 30005KT 9999 -RA FEW003 SCT027 BKN038 14/13 Q1015 NOSIG",
      "taf": "TAF LJLJ 051100Z 0512/0612 VRB02KT 8000 -RA SCT012 BKN028"
    },
    {
      "icao": "LKMT",
      "alert": "OK",
      "vis_m": 6000,
      "fzfg": false,
      "metar_trigger": false,
      "taf_trigger": false,
      "metar": "METAR LKMT 051300Z VRB02KT 6000 -RA SCT011 OVC036 13/12 Q1015 NOSIG",
      "taf": ""
    },
    {
      "icao": "LKPR",
      "alert": "OK",
      "vis_m": 9999,
      "fzfg": false,
      "metar_trigger": false,
      "taf_trigger": false,
      "metar": "METAR LKPR 051300Z 25007KT 210V290 9999 VCSH FEW025CB SCT030 18/11 Q1014 NOSIG",
      "taf": "TAF LKPR 051100Z 0512/0618 26008KT 9999 SCT045"
    },
    {
      "icao": "LLBG",
      "alert": "OK",
      "vis_m": 9999,
      "fzfg": false,
      "metar_trigger": false,
      "taf_trigger": false,
      "metar": "METAR LLBG 051320Z 33012KT CAVOK 29/09 Q1013 NOSIG",
      "taf": "TAF LLBG 051103Z 0512/0612 31010KT CAVOK TX30/0512Z TN19/0603Z"
    },
    {
      "icao": "LMML",
      "alert": "OK",
      "vis_m": 9999,
      "fzfg": false,
      "metar_trigger": false,
      "taf_trigger": false,
      "metar": "METAR LMML 051315Z 06014KT 9999 FEW015 28/18 Q1012 NOSIG",
      "taf": "TAF LMML 051100Z 0512/0612 08008KT 9999 FEW012"
    },
    {
      "icao": "LOWW",
      "alert": "OK",
      "vis_m": 9999,
      "fzfg": false,
      "metar_trigger": false,
      "taf_trigger": false,
      "metar": "METAR LOWW 051250Z 32010KT 9999 -RA FEW019 16/12 Q1016 NOSIG",
      "taf": "TAF LOWW 051115Z 0512/0618 29010KT 9999 BKN050 TX24/0614Z TN10/0603Z"
    },
    {
      "icao": "LPFR",
      "alert": "OK",
      "vis_m": 9999,
      "fzfg": false,
      "metar_trigger": false,
      "taf_trigger": false,
      "metar": "METAR LPFR 051300Z 18007KT 130V260 CAVOK 28/05 Q1015",
      "taf": "TAF LPFR 051100Z 0512/0612 19008KT CAVOK"
    },
    {
      "icao": "LPMA",
      "alert": "OK",
      "vis_m": 9999,
      "fzfg": false,
      "metar_trigger": false,
      "taf_trigger": false,
      "metar": "METAR LPMA 051300Z 02015G25KT 350V050 9999 FEW014 23/15 Q1023",
      "taf": "TAF LPMA 051100Z 0512/0612 03015KT 9999 SCT014"
    },
    {
      "icao": "LPPR",
      "alert": "OK",
      "vis_m": 9999,
      "fzfg": false,
      "metar_trigger": false,
      "taf_trigger": false,
      "metar": "METAR LPPR 051300Z 29008KT 260V320 CAVOK 18/08 Q1018",
      "taf": "TAF LPPR 051100Z 0512/0612 29007KT 9999 FEW020"
    },
    {
      "icao": "LPPS",
      "alert": "OK",
      "vis_m": 9999,
      "fzfg": false,
      "metar_trigger": false,
      "taf_trigger": false,
      "metar": "METAR LPPS 051300Z 36011KT 330V040 9999 SCT015 21/14 Q1023",
      "taf": "TAF LPPS 051100Z 0512/0618 01013KT 9999 SCT015"
    },
    {
      "icao": "LPPT",
      "alert": "OK",
      "vis_m": 9999,
      "fzfg": false,
      "metar_trigger": false,
      "taf_trigger": false,
      "metar": "METAR LPPT 051300Z 32013KT 290V350 CAVOK 21/07 Q1018",
      "taf": "TAF LPPT 051100Z 0512/0618 32013KT CAVOK"
    },
    {
      "icao": "LQBK",
      "alert": "OK",
      "vis_m": 9999,
      "fzfg": false,
      "metar_trigger": false,
      "taf_trigger": false,
      "metar": "METAR LQBK 051300Z 33008KT CAVOK 26/13 Q1012 NOSIG",
      "taf": "TAF LQBK 051100Z 0512/0612 15005KT CAVOK TX27/0514Z TN14/0603Z"
    },
    {
      "icao": "LQSA",
      "alert": "OK",
      "vis_m": 9999,
      "fzfg": false,
      "metar_trigger": false,
      "taf_trigger": false,
      "metar": "METAR LQSA 051300Z VRB06KT 9999 SCT060 26/11 Q1013 NOSIG",
      "taf": "TAF LQSA 051100Z 0512/0612 VRB02KT CAVOK TX28/0514Z TN15/0604Z"
    },
    {
      "icao": "LQTZ",
      "alert": "OK",
      "vis_m": 9999,
      "fzfg": false,
      "metar_trigger": false,
      "taf_trigger": false,
      "metar": "METAR LQTZ 051300Z VRB03KT 9999 FEW060 27/13 Q1012",
      "taf": ""
    },
    {
      "icao": "LRBC",
      "alert": "OK",
      "vis_m": 9999,
      "fzfg": false,
      "metar_trigger": false,
      "taf_trigger": false,
      "metar": "METAR LRBC 051300Z 16012KT CAVOK 23/18 Q1014",
      "taf": "TAF LRBC 051100Z 0512/0521 16012KT 9999 SCT030"
    },
    {
      "icao": "LRBS",
      "alert": "OK",
      "vis_m": 9999,
      "fzfg": false,
      "metar_trigger": false,
      "taf_trigger": false,
      "metar": "METAR LRBS 051300Z VRB02KT 9999 BKN040 26/17 Q1014 NOSIG",
      "taf": "TAF LRBS 051100Z 0512/0612 VRB04KT 9999 SCT030"
    },
    {
      "icao": "LRBV",
      "alert": "OK",
      "vis_m": 9999,
      "fzfg": false,
      "metar_trigger": false,
      "taf_trigger": false,
      "metar": "METAR LRBV 051300Z 29005KT 260V340 9999 FEW050TCU SCT071 24/16 Q1014",
      "taf": "TAF LRBV 051100Z 0512/0521 VRB04KT 9999 SCT045"
    },
    {
      "icao": "LRCL",
      "alert": "OK",
      "vis_m": 9999,
      "fzfg": false,
      "metar_trigger": false,
      "taf_trigger": false,
      "metar": "METAR LRCL 051300Z 13006KT 080V200 9999 SCT060 27/14 Q1013",
      "taf": "TAF LRCL 051100Z 0512/0521 13009KT 9999 SCT040CB"
    },
    {
      "icao": "LRCV",
      "alert": "OK",
      "vis_m": 9999,
      "fzfg": false,
      "metar_trigger": false,
      "taf_trigger": false,
      "metar": "METAR LRCV 051300Z 15006KT 9999 SCT038 25/16 Q1014",
      "taf": "TAF LRCV 051100Z 0512/0521 10006KT 9999 SCT030"
    },
    {
      "icao": "LRIA",
      "alert": "OK",
      "vis_m": 9999,
      "fzfg": false,
      "metar_trigger": false,
      "taf_trigger": false,
      "metar": "METAR LRIA 051300Z 12012KT 090V160 9999 FEW032 26/17 Q1014",
      "taf": "TAF LRIA 051100Z 0512/0521 13012KT 9999 SCT030"
    },
    {
      "icao": "LROP",
      "alert": "OK",
      "vis_m": 9999,
      "fzfg": false,
      "metar_trigger": false,
      "taf_trigger": false,
      "metar": "METAR LROP 051300Z 07005KT 010V150 9999 BKN036 26/19 Q1014 NOSIG",
      "taf": "TAF LROP 051100Z 0512/0612 VRB04KT 9999 SCT030"
    },
    {
      "icao": "LRSB",
      "alert": "OK",
      "vis_m": 9999,
      "fzfg": false,
      "metar_trigger": false,
      "taf_trigger": false,
      "metar": "METAR LRSB 051300Z 14008KT 110V170 9999 FEW046TCU SCT075 27/15 Q1013",
      "taf": "TAF LRSB 051100Z 0512/0612 13010KT 9999 FEW045"
    },
    {
      "icao": "LRSM",
      "alert": "OK",
      "vis_m": 9999,
      "fzfg": false,
      "metar_trigger": false,
      "taf_trigger": false,
      "metar": "METAR LRSM 051300Z 26004KT 9999 FEW040CB 25/16 Q1013",
      "taf": "TAF LRSM 051100Z 0512/0521 VRB04KT 9999 FEW040"
    },
    {
      "icao": "LRSV",
      "alert": "OK",
      "vis_m": 9999,
      "fzfg": false,
      "metar_trigger": false,
      "taf_trigger": false,
      "metar": "METAR LRSV 051300Z 12013KT CAVOK 25/16 Q1014",
      "taf": "TAF LRSV 051100Z 0512/0521 14012KT 9999 SCT030"
    },
    {
      "icao": "LRTM",
      "alert": "OK",
      "vis_m": 9999,
      "fzfg": false,
      "metar_trigger": false,
      "taf_trigger": false,
      "metar": "METAR LRTM 051300Z VRB04KT 9999 SCT037 FEW040TCU 28/18 Q1012",
      "taf": "TAF LRTM 051100Z 0512/0521 15005KT 9999 SCT040"
    },
    {
      "icao": "LRTR",
      "alert": "OK",
      "vis_m": 9999,
      "fzfg": false,
      "metar_trigger": false,
      "taf_trigger": false,
      "metar": "METAR LRTR 051300Z 20007KT 110V230 9999 SCT047 26/14 Q1013",
      "taf": "TAF LRTR 051100Z 0512/0612 20008KT 9999 SCT040"
    },
    {
      "icao": "LTAC",
      "alert": "OK",
      "vis_m": 9999,
      "fzfg": false,
      "metar_trigger": false,
      "taf_trigger": false,
      "metar": "METAR LTAC 051250Z 28009KT 9999 -TSRA FEW025CB BKN030 21/11 Q1016 BECMG NSW",
      "taf": "TAF LTAC 051040Z 0512/0612 VRB02KT 9999 SCT040 BKN100"
    },
    {
      "icao": "LTFM",
      "alert": "OK",
      "vis_m": 9999,
      "fzfg": false,
      "metar_trigger": false,
      "taf_trigger": false,
      "metar": "METAR LTFM 051250Z 01014KT 9999 SCT035 22/17 Q1014 NOSIG RMK RWY17L 01013KT RWY34L 01014KT RWY16R 36014KT RWY36 01014KT RWY18 02012KT",
      "taf": "TAF LTFM 051040Z 0512/0618 03012KT 9999 SCT035"
    },
    {
      "icao": "LUKK",
      "alert": "OK",
      "vis_m": 9999,
      "fzfg": false,
      "metar_trigger": false,
      "taf_trigger": false,
      "metar": "METAR LUKK 051300Z 14008KT 100V180 9999 FEW046 26/16 Q1015 NOSIG",
      "taf": "TAF LUKK 051102Z 0512/0612 16009KT CAVOK"
    },
    {
      "icao": "LWOH",
      "alert": "OK",
      "vis_m": 9999,
      "fzfg": false,
      "metar_trigger": false,
      "taf_trigger": false,
      "metar": "METAR LWOH 051320Z 20006KT 150V250 9999 FEW045 23/12 Q1015",
      "taf": "TAF LWOH 051125Z 0512/0612 16006KT 9999 FEW050"
    },
    {
      "icao": "LWSK",
      "alert": "OK",
      "vis_m": 9999,
      "fzfg": false,
      "metar_trigger": false,
      "taf_trigger": false,
      "metar": "METAR LWSK 051320Z 15004KT 070V230 9999 FEW040 29/14 Q1013 NOSIG",
      "taf": "TAF LWSK 051125Z 0512/0612 16008KT 9999 FEW040"
    },
    {
      "icao": "LYBE",
      "alert": "OK",
      "vis_m": 9999,
      "fzfg": false,
      "metar_trigger": false,
      "taf_trigger": false,
      "metar": "METAR LYBE 051300Z 29006KT 260V320 CAVOK 27/12 Q1012 NOSIG",
      "taf": "TAF LYBE 051100Z 0512/0612 16007KT CAVOK TX28/0513Z TN15/0603Z"
    },
    {
      "icao": "LYNI",
      "alert": "OK",
      "vis_m": 9999,
      "fzfg": false,
      "metar_trigger": false,
      "taf_trigger": false,
      "metar": "METAR LYNI 051300Z 17003KT 100V250 9999 FEW047 28/13 Q1012 NOSIG",
      "taf": "TAF LYNI 051100Z 0512/0612 16005KT CAVOK TX30/0514Z TN14/0603Z"
    },
    {
      "icao": "LYPG",
      "alert": "OK",
      "vis_m": 9999,
      "fzfg": false,
      "metar_trigger": false,
      "taf_trigger": false,
      "metar": "METAR LYPG 051300Z 17006KT 120V200 9999 FEW030 28/14 Q1013 NOSIG",
      "taf": "TAF LYPG 051100Z 0512/0612 18008KT 9999 FEW034 TX28/0514Z TN18/0604Z"
    },
    {
      "icao": "LZIB",
      "alert": "OK",
      "vis_m": 9999,
      "fzfg": false,
      "metar_trigger": false,
      "taf_trigger": false,
      "metar": "METAR LZIB 051300Z 30006KT 250V360 9999 FEW022 16/11 Q1016 NOSIG",
      "taf": "TAF LZIB 051115Z 0512/0612 31008KT 9999 FEW020"
    },
    {
      "icao": "LZKZ",
      "alert": "OK",
      "vis_m": 9999,
      "fzfg": false,
      "metar_trigger": false,
      "taf_trigger": false,
      "metar": "METAR LZKZ 051300Z 18007KT 9999 SCT036 23/15 Q1013 NOSIG",
      "taf": "TAF LZKZ 051115Z 0512/0612 20011KT 9999 SCT020 BKN035"
    },
    {
      "icao": "LZTT",
      "alert": "OK",
      "vis_m": 9999,
      "fzfg": false,
      "metar_trigger": false,
      "taf_trigger": false,
      "metar": "METAR LZTT 051300Z 25010KT 9999 FEW046 SCT066 20/11 Q1014 NOSIG",
      "taf": "TAF LZTT 051115Z 0512/0612 23009KT 9999 SCT045"
    },
    {
      "icao": "OEJN",
      "alert": "OK",
      "vis_m": 9999,
      "fzfg": false,
      "metar_trigger": false,
      "taf_trigger": false,
      "metar": "METAR OEJN 051300Z 25005KT CAVOK 36/21 Q1006 NOSIG",
      "taf": "TAF OEJN 051100Z 0512/0618 27010KT CAVOK"
    },
    {
      "icao": "OEMA",
      "alert": "OK",
      "vis_m": 9999,
      "fzfg": false,
      "metar_trigger": false,
      "taf_trigger": false,
      "metar": "METAR OEMA 051300Z 29013KT CAVOK 44/M04 Q1011 NOSIG",
      "taf": "TAF OEMA 051100Z 0512/0618 33010KT CAVOK"
    },
    {
      "icao": "OJAI",
      "alert": "OK",
      "vis_m": 5000,
      "fzfg": false,
      "metar_trigger": false,
      "taf_trigger": false,
      "metar": "METAR OJAI 051300Z 27012KT 5000 HZ NSC 29/03 Q1016 NOSIG",
      "taf": "TAF OJAI 051037Z 0512/0618 30012KT 5000 HZ NSC"
    },
    {
      "icao": "OMAA",
      "alert": "OK",
      "vis_m": 9999,
      "fzfg": false,
      "metar_trigger": false,
      "taf_trigger": false,
      "metar": "METAR OMAA 051300Z 32015KT CAVOK 36/22 Q0999 NOSIG",
      "taf": "TAF OMAA 051100Z 0512/0618 30014KT 8000 NSC"
    },
    {
      "icao": "OMDB",
      "alert": "OK",
      "vis_m": 9999,
      "fzfg": false,
      "metar_trigger": false,
      "taf_trigger": false,
      "metar": "METAR OMDB 051300Z 31012KT CAVOK 36/24 Q0999 NOSIG",
      "taf": "TAF OMDB 051100Z 0512/0618 28011KT CAVOK"
    },
    {
      "icao": "UAAA",
      "alert": "OK",
      "vis_m": 9999,
      "fzfg": false,
      "metar_trigger": false,
      "taf_trigger": false,
      "metar": "METAR UAAA 051300Z 19003MPS 9999 BKN050CB OVC100 20/12 Q1015 NOSIG",
      "taf": "TAF UAAA 051101Z 0512/0612 21003MPS 9999 BKN050CB OVC100 TX23/0609Z TN16/0601Z"
    },
    {
      "icao": "UBBB",
      "alert": "OK",
      "vis_m": 9999,
      "fzfg": false,
      "metar_trigger": false,
      "taf_trigger": false,
      "metar": "METAR UBBB 051300Z 16010KT CAVOK 25/09 Q1014 NOSIG",
      "taf": "TAF UBBB 051105Z 0512/0612 13008KT CAVOK TX25/0512Z TN17/0601Z"
    },
    {
      "icao": "UDSG",
      "alert": "OK",
      "vis_m": 9999,
      "fzfg": false,
      "metar_trigger": false,
      "taf_trigger": false,
      "metar": "METAR UDSG 051300Z 19004KT 140V240 9999 FEW049CB 23/05 Q1019 NOSIG",
      "taf": "TAF UDSG 051100Z 0512/0612 24006KT 9999 FEW040"
    },
    {
      "icao": "UDYZ",
      "alert": "OK",
      "vis_m": 9999,
      "fzfg": false,
      "metar_trigger": false,
      "taf_trigger": false,
      "metar": "METAR UDYZ 051300Z 19012KT 9999 VCTS SCT043CB 29/08 Q1014 TEMPO -TSRA",
      "taf": "TAF UDYZ 051100Z 0512/0612 04006KT 9999 FEW040"
    },
    {
      "icao": "UGKO",
      "alert": "OK",
      "vis_m": 9999,
      "fzfg": false,
      "metar_trigger": false,
      "taf_trigger": false,
      "metar": "METAR UGKO 051300Z 24008KT 200V290 CAVOK 30/14 Q1011 NOSIG",
      "taf": "TAF UGKO 051100Z 0512/0612 26007KT CAVOK TX30/0512Z TN16/0602Z"
    }
  ]
}