{
  "ts_utc": "2026-02-28T04:37:01Z",
  "threshold_m": 150,
  "source": "stations_override.txt (ICAO list) + aviationweather.gov (METAR/TAF raw)",
  "station_count": 159,
  "stations": [
    {
      "icao": "BIKF",
      "alert": "OK",
      "vis_m": 9999,
      "fzfg": false,
      "metar_trigger": false,
      "taf_trigger": false,
      "metar": "METAR BIKF 280430Z 27012KT 9999 FEW030 BKN060 M02/M08 Q0999",
      "taf": "TAF BIKF 280111Z 2803/0103 25017KT 9999 FEW015 BKN035 TX02/2814Z TNM02/2806Z"
    },
    {
      "icao": "BKPR",
      "alert": "OK",
      "vis_m": 9999,
      "fzfg": false,
      "metar_trigger": false,
      "taf_trigger": false,
      "metar": "METAR BKPR 280430Z VRB01KT CAVOK M02/M04 Q1025 NOSIG",
      "taf": "TAF BKPR 272355Z 2800/2824 VRB03KT CAVOK"
    },
    {
      "icao": "EBCI",
      "alert": "OK",
      "vis_m": 9999,
      "fzfg": false,
      "metar_trigger": false,
      "taf_trigger": false,
      "metar": "METAR EBCI 280420Z 20015KT 9999 BKN033 10/07 Q1015 NOSIG",
      "taf": "TAF EBCI 272320Z 2800/0106 22012KT 9999 SCT014 BKN030"
    },
    {
      "icao": "EDDB",
      "alert": "OK",
      "vis_m": 9999,
      "fzfg": false,
      "metar_trigger": false,
      "taf_trigger": false,
      "metar": "METAR EDDB 280420Z AUTO 18005KT CAVOK 06/04 Q1017 NOSIG",
      "taf": "TAF EDDB 272300Z 2800/2824 19007KT CAVOK"
    },
    {
      "icao": "EDDH",
      "alert": "OK",
      "vis_m": 9999,
      "fzfg": false,
      "metar_trigger": false,
      "taf_trigger": false,
      "metar": "METAR EDDH 280420Z AUTO 21005KT 9999 FEW018 BKN023 BKN030 11/09 Q1013 NOSIG",
      "taf": "TAF EDDH 272300Z 2800/0106 20006KT 9999 BKN020"
    },
    {
      "icao": "EDDK",
      "alert": "OK",
      "vis_m": 9999,
      "fzfg": false,
      "metar_trigger": false,
      "taf_trigger": false,
      "metar": "METAR EDDK 280420Z AUTO 19008KT CAVOK 13/07 Q1016 NOSIG",
      "taf": "TAF EDDK 272300Z 2800/0106 17007KT CAVOK"
    },
    {
      "icao": "EDDN",
      "alert": "OK",
      "vis_m": 9999,
      "fzfg": false,
      "metar_trigger": false,
      "taf_trigger": false,
      "metar": "METAR EDDN 280420Z AUTO 13003KT 9999 1600 BR NCD 04/04 Q1019",
      "taf": "TAF EDDN 272300Z 2800/2824 13006KT CAVOK"
    },
    {
      "icao": "EDDS",
      "alert": "OK",
      "vis_m": 9999,
      "fzfg": false,
      "metar_trigger": false,
      "taf_trigger": false,
      "metar": "METAR EDDS 280420Z AUTO VRB01KT CAVOK 04/02 Q1019",
      "taf": "TAF EDDS 272300Z 2800/2824 VRB03KT CAVOK"
    },
    {
      "icao": "EDFH",
      "alert": "OK",
      "vis_m": 9999,
      "fzfg": false,
      "metar_trigger": false,
      "taf_trigger": false,
      "metar": "METAR EDFH 280420Z 22009KT 190V250 CAVOK 09/06 Q1017",
      "taf": "TAF EDFH 272300Z 2800/2824 21009KT CAVOK"
    },
    {
      "icao": "EDJA",
      "alert": "OK",
      "vis_m": 9999,
      "fzfg": false,
      "metar_trigger": false,
      "taf_trigger": false,
      "metar": "METAR EDJA 280420Z AUTO 20006G16KT 9999 // FEW150/// SCT220/// 02/M01 Q1020",
      "taf": "TAF EDJA 280200Z 2803/2812 19005KT CAVOK"
    },
    {
      "icao": "EDLW",
      "alert": "OK",
      "vis_m": 9999,
      "fzfg": false,
      "metar_trigger": false,
      "taf_trigger": false,
      "metar": "METAR EDLW 280420Z 20009KT 9999 BKN039 13/07 Q1015",
      "taf": "TAF EDLW 280420Z 2805/2824 19010KT 9999 BKN035"
    },
    {
      "icao": "EDNY",
      "alert": "OK",
      "vis_m": 9999,
      "fzfg": false,
      "metar_trigger": false,
      "taf_trigger": false,
      "metar": "METAR EDNY 280420Z AUTO VRB02KT 9999 // NCD 01/01 Q1021",
      "taf": "TAF EDNY 280200Z 2803/2812 VRB02KT CAVOK"
    },
    {
      "icao": "EDSB",
      "alert": "OK",
      "vis_m": 9999,
      "fzfg": false,
      "metar_trigger": false,
      "taf_trigger": false,
      "metar": "METAR EDSB 280420Z 21007KT CAVOK 09/05 Q1020",
      "taf": "TAF EDSB 272300Z 2800/2824 22003KT CAVOK"
    },
    {
      "icao": "EETN",
      "alert": "OK",
      "vis_m": 3300,
      "fzfg": false,
      "metar_trigger": false,
      "taf_trigger": false,
      "metar": "METAR EETN 280420Z 22007KT 3300 -DZ BR OVC002 02/02 Q1012 TEMPO 1500",
      "taf": "TAF EETN 272330Z 2800/2824 23010KT 6000 OVC004"
    },
    {
      "icao": "EFTU",
      "alert": "OK",
      "vis_m": 9999,
      "fzfg": false,
      "metar_trigger": false,
      "taf_trigger": false,
      "metar": "METAR EFTU 280420Z AUTO 24005KT 9999 OVC012 02/02 Q1010",
      "taf": "TAF EFTU 280236Z 2803/0103 25006KT 9999 FEW006 BKN015"
    },
    {
      "icao": "EGBB",
      "alert": "OK",
      "vis_m": 9999,
      "fzfg": false,
      "metar_trigger": false,
      "taf_trigger": false,
      "metar": "METAR EGBB 280420Z 35010KT 9999 -RA BKN012 BKN020 06/05 Q1011",
      "taf": "TAF EGBB 272256Z 2800/2824 33010KT 9999 SCT015"
    },
    {
      "icao": "EGGP",
      "alert": "OK",
      "vis_m": 9999,
      "fzfg": false,
      "metar_trigger": false,
      "taf_trigger": false,
      "metar": "METAR EGGP 280420Z AUTO 29006KT 9999 NCD 06/04 Q1012",
      "taf": ""
    },
    {
      "icao": "EGGW",
      "alert": "OK",
      "vis_m": 2500,
      "fzfg": false,
      "metar_trigger": false,
      "taf_trigger": false,
      "metar": "METAR EGGW 280420Z 21003KT 2500 0800W R25/P1500N BCFG FEW003 SCT006 BKN011TCU 08/08 Q1008",
      "taf": ""
    },
    {
      "icao": "EGKK",
      "alert": "OK",
      "vis_m": 6000,
      "fzfg": false,
      "metar_trigger": false,
      "taf_trigger": false,
      "metar": "METAR EGKK 280420Z VRB01KT 6000 -DZ FEW006 BKN009 09/08 Q1008",
      "taf": "TAF EGKK 272258Z 2800/0106 17006KT 9999 FEW008 SCT020"
    },
    {
      "icao": "EGNM",
      "alert": "OK",
      "vis_m": null,
      "fzfg": false,
      "metar_trigger": false,
      "taf_trigger": false,
      "metar": "",
      "taf": "TAF EGNM 272300Z 2800/2824 02009KT 9999 SCT040"
    },
    {
      "icao": "EGPD",
      "alert": "OK",
      "vis_m": 9999,
      "fzfg": false,
      "metar_trigger": false,
      "taf_trigger": false,
      "metar": "METAR EGPD 280420Z COR AUTO VRB02KT 9999 NCD M03/M04 Q1015 NOSIG",
      "taf": "TAF EGPD 272256Z 2800/2824 28004KT CAVOK"
    },
    {
      "icao": "EGPF",
      "alert": "OK",
      "vis_m": 9999,
      "fzfg": false,
      "metar_trigger": false,
      "taf_trigger": false,
      "metar": "METAR EGPF 280420Z AUTO VRB02KT 9999 -RA OVC013/// //////TCU 04/02 Q1015",
      "taf": ""
    },
    {
      "icao": "EHBK",
      "alert": "OK",
      "vis_m": 9999,
      "fzfg": false,
      "metar_trigger": false,
      "taf_trigger": false,
      "metar": "METAR EHBK 280425Z AUTO 21012KT 9999 NSC 11/07 Q1015",
      "taf": "TAF EHBK 272309Z 2800/0106 21012KT 9999 BKN030"
    },
    {
      "icao": "EHEH",
      "alert": "OK",
      "vis_m": 9999,
      "fzfg": false,
      "metar_trigger": false,
      "taf_trigger": false,
      "metar": "METAR EHEH 280425Z AUTO 20009KT 9999 OVC140 10/08 Q1014 BLU",
      "taf": "TAF EHEH 272319Z 2800/0106 20009KT 9999 SCT006 BKN007"
    },
    {
      "icao": "EKBI",
      "alert": "OK",
      "vis_m": 1900,
      "fzfg": false,
      "metar_trigger": false,
      "taf_trigger": false,
      "metar": "METAR EKBI 280420Z AUTO 13004KT 1900 BCFG OVC002/// 07/07 Q1012 REDZ",
      "taf": "TAF EKBI 280227Z 2803/0103 20005KT 1500 BR BKN003"
    },
    {
      "icao": "EKCH",
      "alert": "OK",
      "vis_m": 1200,
      "fzfg": false,
      "metar_trigger": false,
      "taf_trigger": false,
      "metar": "METAR EKCH 280420Z 18007KT 1200 R22L/P1500N R04L/P1500N R12/P1500N BR -RA BKN020 05/05 Q1013 TEMPO 1500 BKN002",
      "taf": ""
    },
    {
      "icao": "ENAL",
      "alert": "OK",
      "vis_m": 5000,
      "fzfg": false,
      "metar_trigger": false,
      "taf_trigger": false,
      "metar": "METAR ENAL 280420Z AUTO 23023G36KT 5000 RA SCT005/// SCT016/// BKN025/// 03/01 Q1010",
      "taf": "TAF ENAL 280200Z 2803/2812 21015KT 9999 SCT030"
    },
    {
      "icao": "ENBR",
      "alert": "OK",
      "vis_m": 9000,
      "fzfg": false,
      "metar_trigger": false,
      "taf_trigger": false,
      "metar": "METAR ENBR 280420Z 17001KT 9000 NSC M00/M00 Q1013 RMK WIND 1200FT 31003KT",
      "taf": "TAF ENBR 272300Z 2800/2824 VRB03KT 9999 FEW025"
    },
    {
      "icao": "ENGM",
      "alert": "OK",
      "vis_m": 500,
      "fzfg": true,
      "metar_trigger": false,
      "taf_trigger": false,
      "metar": "METAR ENGM 280420Z VRB02KT 0500 0400NW R19R/0600N R01R/0550N R19L/0750N R01L/0500N FZFG VV002 M02/M02 Q1012",
      "taf": "TAF ENGM 272300Z 2800/2824 VRB03KT 0300 FZFG VV002"
    },
    {
      "icao": "ENHD",
      "alert": "OK",
      "vis_m": 2500,
      "fzfg": true,
      "metar_trigger": false,
      "taf_trigger": false,
      "metar": "METAR ENHD 280420Z AUTO 02005KT 2500 BR NCD M00/M00 Q1013",
      "taf": "TAF ENHD 280200Z 2803/2812 VRB03KT 0300 FZFG VV002"
    },
    {
      "icao": "ENTC",
      "alert": "OK",
      "vis_m": 2500,
      "fzfg": false,
      "metar_trigger": false,
      "taf_trigger": false,
      "metar": "METAR ENTC 280420Z 20021KT 2500 -SN OVC020 M00/M01 Q0998 RMK WIND 2600FT 20030KT",
      "taf": "TAF ENTC 272300Z 2800/2824 18014KT 9999 SCT025 BKN050"
    },
    {
      "icao": "ENTO",
      "alert": "WARNING",
      "vis_m": 150,
      "fzfg": true,
      "metar_trigger": false,
      "taf_trigger": true,
      "metar": "METAR ENTO 280420Z AUTO 03003KT 350V070 0150 R18/0550N R36/0700N FZFG VV001 M02/M02 Q1012",
      "taf": "TAF ENTO 272300Z 2800/2824 02005KT 0100 FZFG VV001"
    },
    {
      "icao": "ENVA",
      "alert": "OK",
      "vis_m": 9999,
      "fzfg": false,
      "metar_trigger": false,
      "taf_trigger": false,
      "metar": "METAR ENVA 280420Z VRB02KT CAVOK M01/M02 Q1010 RMK WIND 670FT 25005KT",
      "taf": ""
    },
    {
      "icao": "ENZV",
      "alert": "OK",
      "vis_m": 400,
      "fzfg": false,
      "metar_trigger": false,
      "taf_trigger": false,
      "metar": "METAR ENZV 280420Z VRB01KT 0400 R18/0500N R36/0750N R10/0400D FG VV001 01/01 Q1013",
      "taf": ""
    },
    {
      "icao": "EPGD",
      "alert": "OK",
      "vis_m": 6000,
      "fzfg": false,
      "metar_trigger": false,
      "taf_trigger": false,
      "metar": "METAR EPGD 280430Z 27003KT 6000 NSC 05/04 Q1016",
      "taf": "TAF EPGD 272330Z 2800/2824 23006KT CAVOK"
    },
    {
      "icao": "EPKK",
      "alert": "OK",
      "vis_m": 1500,
      "fzfg": false,
      "metar_trigger": false,
      "taf_trigger": false,
      "metar": "METAR EPKK 280430Z 02001KT 1500 MIFG BR NSC M02/M02 Q1023",
      "taf": "TAF EPKK 280230Z 2803/0103 VRB02KT 2000 BR NSC"
    },
    {
      "icao": "EPKT",
      "alert": "OK",
      "vis_m": 9999,
      "fzfg": false,
      "metar_trigger": false,
      "taf_trigger": false,
      "metar": "METAR EPKT 280430Z 16004KT 130V190 CAVOK 03/01 Q1022",
      "taf": "TAF EPKT 272330Z 2800/2824 20005KT CAVOK"
    },
    {
      "icao": "EPLB",
      "alert": "OK",
      "vis_m": 9999,
      "fzfg": false,
      "metar_trigger": false,
      "taf_trigger": false,
      "metar": "METAR EPLB 280430Z 21003KT 170V230 CAVOK 02/M01 Q1023",
      "taf": "TAF EPLB 272330Z 2800/2824 VRB02KT CAVOK"
    },
    {
      "icao": "EPMO",
      "alert": "OK",
      "vis_m": 8000,
      "fzfg": false,
      "metar_trigger": false,
      "taf_trigger": false,
      "metar": "METAR EPMO 280430Z 15006KT 8000 NSC 03/03 Q1021",
      "taf": "TAF EPMO 272330Z 2800/2824 VRB03KT CAVOK"
    },
    {
      "icao": "EPPO",
      "alert": "OK",
      "vis_m": 5000,
      "fzfg": false,
      "metar_trigger": false,
      "taf_trigger": false,
      "metar": "METAR EPPO 280430Z 17003KT 5000 BR NSC 04/03 Q1018",
      "taf": ""
    },
    {
      "icao": "EPRA",
      "alert": "OK",
      "vis_m": 9999,
      "fzfg": false,
      "metar_trigger": false,
      "taf_trigger": false,
      "metar": "METAR EPRA 280430Z 17009KT CAVOK 01/M01 Q1022",
      "taf": "TAF EPRA 280230Z 2803/2812 17008KT CAVOK"
    },
    {
      "icao": "EPRZ",
      "alert": "OK",
      "vis_m": 9999,
      "fzfg": false,
      "metar_trigger": false,
      "taf_trigger": false,
      "metar": "METAR EPRZ 280430Z 17002KT CAVOK M01/M03 Q1024",
      "taf": "TAF EPRZ 272330Z 2800/2824 20005KT CAVOK"
    },
    {
      "icao": "EPSC",
      "alert": "OK",
      "vis_m": 9999,
      "fzfg": false,
      "metar_trigger": false,
      "taf_trigger": false,
      "metar": "METAR EPSC 280430Z 13006KT CAVOK 06/04 Q1016",
      "taf": "TAF EPSC 272330Z 2800/2824 19008KT CAVOK"
    },
    {
      "icao": "EPSY",
      "alert": "OK",
      "vis_m": 9999,
      "fzfg": false,
      "metar_trigger": false,
      "taf_trigger": false,
      "metar": "METAR EPSY 280430Z 17006KT CAVOK 02/01 Q1019",
      "taf": "TAF EPSY 280230Z 2803/2812 19004KT CAVOK"
    },
    {
      "icao": "EPWA",
      "alert": "OK",
      "vis_m": 9999,
      "fzfg": false,
      "metar_trigger": false,
      "taf_trigger": false,
      "metar": "METAR EPWA 280430Z 13004KT CAVOK M01/M02 Q1021 NOSIG",
      "taf": "TAF EPWA 280230Z 2803/0103 17008KT CAVOK"
    },
    {
      "icao": "EPWR",
      "alert": "OK",
      "vis_m": 9999,
      "fzfg": false,
      "metar_trigger": false,
      "taf_trigger": false,
      "metar": "METAR EPWR 280430Z 12006KT CAVOK 02/01 Q1020",
      "taf": "TAF EPWR 280230Z 2803/0103 12005KT CAVOK"
    },
    {
      "icao": "ESGG",
      "alert": "OK",
      "vis_m": 450,
      "fzfg": false,
      "metar_trigger": false,
      "taf_trigger": false,
      "metar": "METAR ESGG 280420Z 15003KT 0450 R03/1500N R21/1600U FG VV003 04/04 Q1012",
      "taf": "TAF ESGG 280230Z 2803/0103 15004KT 0100 FG VV002"
    },
    {
      "icao": "ESKN",
      "alert": "OK",
      "vis_m": 9999,
      "fzfg": false,
      "metar_trigger": false,
      "taf_trigger": false,
      "metar": "METAR ESKN 280420Z 25006KT 9999 BKN009 04/04 Q1013",
      "taf": "TAF ESKN 280230Z 2803/0103 23009KT 9999 BKN015"
    },
    {
      "icao": "ESMS",
      "alert": "OK",
      "vis_m": 2500,
      "fzfg": false,
      "metar_trigger": false,
      "taf_trigger": false,
      "metar": "METAR ESMS 280420Z AUTO 16008KT 2500 BR FEW002/// BKN057/// 06/06 Q1013",
      "taf": ""
    },
    {
      "icao": "ESSA",
      "alert": "OK",
      "vis_m": 9999,
      "fzfg": false,
      "metar_trigger": false,
      "taf_trigger": false,
      "metar": "METAR ESSA 280420Z 25008KT 9999 BKN005 02/02 Q1012 NOSIG",
      "taf": "TAF ESSA 280230Z 2803/0103 25009KT 9999 BKN012"
    },
    {
      "icao": "EYKA",
      "alert": "OK",
      "vis_m": 9999,
      "fzfg": false,
      "metar_trigger": false,
      "taf_trigger": false,
      "metar": "METAR EYKA 280420Z 19004KT 140V250 CAVOK 02/00 Q1019",
      "taf": "TAF EYKA 272300Z 2800/2824 VRB04KT 9000 NSC"
    },
    {
      "icao": "EYPA",
      "alert": "OK",
      "vis_m": 3300,
      "fzfg": false,
      "metar_trigger": false,
      "taf_trigger": false,
      "metar": "METAR EYPA 280420Z 16004KT 3300 BR NSC 02/01 Q1017",
      "taf": "TAF EYPA 272300Z 2800/2824 18008KT 5000 BR SCT005 SCT020"
    },
    {
      "icao": "EYVI",
      "alert": "OK",
      "vis_m": 9999,
      "fzfg": false,
      "metar_trigger": false,
      "taf_trigger": false,
      "metar": "METAR EYVI 280420Z 16006KT CAVOK M00/M02 Q1020 NOSIG",
      "taf": "TAF EYVI 272300Z 2800/2824 17008KT 9000 NSC"
    },
    {
      "icao": "GCFV",
      "alert": "OK",
      "vis_m": 9999,
      "fzfg": false,
      "metar_trigger": false,
      "taf_trigger": false,
      "metar": "METAR GCFV 280430Z AUTO 34013KT CAVOK 18/11 Q1018",
      "taf": "TAF GCFV 280200Z 2803/0103 01018KT 9999 SCT020 TX22/2814Z TN15/2806Z"
    },
    {
      "icao": "GCLP",
      "alert": "OK",
      "vis_m": 9999,
      "fzfg": false,
      "metar_trigger": false,
      "taf_trigger": false,
      "metar": "METAR GCLP 280430Z 35030KT 9999 FEW020 19/10 Q1019 NOSIG",
      "taf": "TAF GCLP 280200Z 2803/0103 36027KT 9999 SCT020 TX21/2814Z TN16/2806Z"
    },
    {
      "icao": "GCTS",
      "alert": "OK",
      "vis_m": 9999,
      "fzfg": false,
      "metar_trigger": false,
      "taf_trigger": false,
      "metar": "METAR GCTS 280430Z VRB07KT CAVOK 19/09 Q1020 WS R07 NOSIG",
      "taf": "TAF GCTS 280200Z 2803/0103 07015KT CAVOK TX24/2814Z TN16/2806Z"
    },
    {
      "icao": "GMAD",
      "alert": "OK",
      "vis_m": 6000,
      "fzfg": false,
      "metar_trigger": false,
      "taf_trigger": false,
      "metar": "METAR GMAD 280430Z 03004KT 6000 NSC 12/06 Q1014 NOSIG",
      "taf": "TAF GMAD 272300Z 2800/0106 14004KT 6000 NSC"
    },
    {
      "icao": "GMMN",
      "alert": "OK",
      "vis_m": 4000,
      "fzfg": false,
      "metar_trigger": false,
      "taf_trigger": false,
      "metar": "METAR GMMN 280430Z 14004KT 080V170 4000 BR SCT010 SCT016 09/08 Q1021 NOSIG",
      "taf": "TAF GMMN 272300Z 2800/0106 04005KT 8000 BKN013"
    },
    {
      "icao": "GMMX",
      "alert": "OK",
      "vis_m": 8000,
      "fzfg": false,
      "metar_trigger": false,
      "taf_trigger": false,
      "metar": "METAR GMMX 280430Z 03005KT 8000 BKN013 12/10 Q1020 NOSIG",
      "taf": "TAF GMMX 272300Z 2800/0106 02006KT 8000 NSC"
    },
    {
      "icao": "HEGN",
      "alert": "OK",
      "vis_m": 9999,
      "fzfg": false,
      "metar_trigger": false,
      "taf_trigger": false,
      "metar": "METAR HEGN 280400Z 28011KT CAVOK 12/01 Q1015 NOSIG",
      "taf": ""
    },
    {
      "icao": "HEMA",
      "alert": "OK",
      "vis_m": 9999,
      "fzfg": false,
      "metar_trigger": false,
      "taf_trigger": false,
      "metar": "METAR HEMA 280400Z 31012KT CAVOK 14/03 Q1013 NOSIG",
      "taf": ""
    },
    {
      "icao": "HESH",
      "alert": "OK",
      "vis_m": 9999,
      "fzfg": false,
      "metar_trigger": false,
      "taf_trigger": false,
      "metar": "METAR HESH 280400Z 35016KT CAVOK 14/02 Q1014 NOSIG",
      "taf": ""
    },
    {
      "icao": "HESX",
      "alert": "OK",
      "vis_m": 9999,
      "fzfg": false,
      "metar_trigger": false,
      "taf_trigger": false,
      "metar": "METAR HESX 280400Z 26003KT CAVOK 06/04 Q1017 NOSIG",
      "taf": ""
    },
    {
      "icao": "LATI",
      "alert": "OK",
      "vis_m": 9999,
      "fzfg": false,
      "metar_trigger": false,
      "taf_trigger": false,
      "metar": "METAR LATI 280420Z 17005KT 9999 SCT008 SCT025 05/03 Q1025 NOSIG",
      "taf": ""
    },
    {
      "icao": "LBPD",
      "alert": "OK",
      "vis_m": 750,
      "fzfg": true,
      "metar_trigger": false,
      "taf_trigger": false,
      "metar": "METAR LBPD 280430Z AUTO 00000KT 0750 0600NE R12/1400U FG VV002 M01/M01 Q1029 TEMPO 0300 FZFG",
      "taf": ""
    },
    {
      "icao": "LBSF",
      "alert": "OK",
      "vis_m": 9999,
      "fzfg": false,
      "metar_trigger": false,
      "taf_trigger": false,
      "metar": "METAR LBSF 280430Z 34003KT CAVOK M03/M04 Q1027 TEMPO 5000 BR",
      "taf": "TAF LBSF 272300Z 2800/2824 VRB04KT CAVOK"
    },
    {
      "icao": "LBWN",
      "alert": "OK",
      "vis_m": 9999,
      "fzfg": false,
      "metar_trigger": false,
      "taf_trigger": false,
      "metar": "METAR LBWN 280430Z AUTO VRB02KT 9999 OVC015/// 01/M01 Q1030 NOSIG",
      "taf": "TAF LBWN 272312Z 2800/2824 VRB04KT 9999 OVC015"
    },
    {
      "icao": "LCLK",
      "alert": "OK",
      "vis_m": 9999,
      "fzfg": false,
      "metar_trigger": false,
      "taf_trigger": false,
      "metar": "METAR LCLK 280430Z 31008KT 9999 FEW020 07/02 Q1017 NOSIG",
      "taf": "TAF LCLK 272330Z 2800/0100 33009KT 9999 FEW030"
    },
    {
      "icao": "LCPH",
      "alert": "OK",
      "vis_m": 9999,
      "fzfg": false,
      "metar_trigger": false,
      "taf_trigger": false,
      "metar": "METAR LCPH 280430Z 05008KT 010V080 9999 FEW030 07/M01 Q1017 NOSIG",
      "taf": "TAF LCPH 272330Z 2800/0100 05009KT 9999 FEW040"
    },
    {
      "icao": "LEAL",
      "alert": "OK",
      "vis_m": 9999,
      "fzfg": false,
      "metar_trigger": false,
      "taf_trigger": false,
      "metar": "METAR LEAL 280430Z 01006KT 9999 BKN019 14/10 Q1021 NOSIG",
      "taf": "TAF LEAL 272300Z 2800/2824 VRB04KT 9999 FEW020 TX20/2812Z TN07/2806Z"
    },
    {
      "icao": "LEBB",
      "alert": "OK",
      "vis_m": 9000,
      "fzfg": false,
      "metar_trigger": false,
      "taf_trigger": false,
      "metar": "METAR LEBB 280430Z 15001KT 9000 -RA SCT024 BKN033 10/09 Q1027 TEMPO 3000 RA",
      "taf": "TAF LEBB 272300Z 2800/2824 31009KT 9999 SCT015 BKN030 TX13/2814Z TN09/2807Z"
    },
    {
      "icao": "LEBL",
      "alert": "OK",
      "vis_m": 9000,
      "fzfg": false,
      "metar_trigger": false,
      "taf_trigger": false,
      "metar": "METAR LEBL 280430Z COR 06005KT 9000 FEW018 SCT025 BKN030 12/09 Q1023 NOSIG",
      "taf": "TAF LEBL 272300Z 2800/2824 VRB04KT 9999 BKN015 TX16/2813Z TN08/2806Z"
    },
    {
      "icao": "LECH",
      "alert": "OK",
      "vis_m": 5000,
      "fzfg": false,
      "metar_trigger": false,
      "taf_trigger": false,
      "metar": "METAR LECH 280430Z AUTO 02005KT 350V060 5000 BR FEW011 BKN018 09/08 Q1022",
      "taf": ""
    },
    {
      "icao": "LEMD",
      "alert": "OK",
      "vis_m": 9999,
      "fzfg": false,
      "metar_trigger": false,
      "taf_trigger": false,
      "metar": "METAR LEMD 280430Z 32005KT CAVOK 05/03 Q1021 NOSIG",
      "taf": "TAF LEMD 272300Z 2800/0106 VRB04KT CAVOK TX18/2815Z TN04/0106Z"
    },
    {
      "icao": "LEMG",
      "alert": "OK",
      "vis_m": 8000,
      "fzfg": false,
      "metar_trigger": false,
      "taf_trigger": false,
      "metar": "METAR LEMG 280430Z 30003KT 8000 BKN016 10/10 Q1020 NOSIG",
      "taf": "TAF LEMG 272300Z 2800/2824 29005KT 9999 BKN025 TX19/2814Z TN07/2807Z"
    },
    {
      "icao": "LEVC",
      "alert": "OK",
      "vis_m": 7000,
      "fzfg": false,
      "metar_trigger": false,
      "taf_trigger": false,
      "metar": "METAR LEVC 280430Z 32004KT 7000 SCT020 BKN024 12/09 Q1022 NOSIG",
      "taf": "TAF LEVC 272300Z 2800/2824 VRB04KT 9999 FEW020 TX18/2812Z TN09/2806Z"
    },
    {
      "icao": "LEXJ",
      "alert": "OK",
      "vis_m": 9999,
      "fzfg": false,
      "metar_trigger": false,
      "taf_trigger": false,
      "metar": "METAR LEXJ 280430Z 23006KT 9999 BKN025 BKN045 09/06 Q1027",
      "taf": "TAF LEXJ 280200Z 2803/0103 24009KT 9999 SCT020 BKN030 TX13/2815Z TN08/2807Z"
    },
    {
      "icao": "LEZG",
      "alert": "OK",
      "vis_m": 9999,
      "fzfg": false,
      "metar_trigger": false,
      "taf_trigger": false,
      "metar": "METAR LEZG 280430Z 28013KT CAVOK 10/05 Q1023 NOSIG",
      "taf": "TAF LEZG 272300Z 2800/2824 31014KT CAVOK TX17/2815Z TN06/2806Z"
    },
    {
      "icao": "LEZL",
      "alert": "OK",
      "vis_m": 9999,
      "fzfg": false,
      "metar_trigger": false,
      "taf_trigger": false,
      "metar": "METAR LEZL 280430Z 32002KT CAVOK 11/10 Q1021 NOSIG",
      "taf": "TAF LEZL 280200Z 2803/0103 02005KT CAVOK TX22/2815Z TN10/2807Z"
    },
    {
      "icao": "LFBD",
      "alert": "OK",
      "vis_m": 9999,
      "fzfg": false,
      "metar_trigger": false,
      "taf_trigger": false,
      "metar": "METAR LFBD 280430Z AUTO 24005KT CAVOK 09/08 Q1025 TEMPO 4000 -SHRA BKN030TCU",
      "taf": "TAF LFBD 272300Z 2800/0106 24005KT 9999 SCT035 TX15/2814Z TN02/0106Z"
    },
    {
      "icao": "LFLL",
      "alert": "OK",
      "vis_m": 9999,
      "fzfg": false,
      "metar_trigger": false,
      "taf_trigger": false,
      "metar": "METAR LFLL 280430Z 17005KT 9999 BKN043 10/07 Q1023 NOSIG",
      "taf": "TAF LFLL 272300Z 2800/0106 18010KT CAVOK"
    },
    {
      "icao": "LFLS",
      "alert": "OK",
      "vis_m": 9999,
      "fzfg": false,
      "metar_trigger": false,
      "taf_trigger": false,
      "metar": "METAR LFLS 280430Z AUTO 21006KT 130V230 9999 FEW035 BKN045 BKN210 08/06 Q1023 TEMPO BKN012",
      "taf": "TAF LFLS 280200Z 2803/0103 22005KT 9999 BKN032 BKN200"
    },
    {
      "icao": "LFMN",
      "alert": "OK",
      "vis_m": 9999,
      "fzfg": false,
      "metar_trigger": false,
      "taf_trigger": false,
      "metar": "METAR LFMN 280430Z 32007KT 9999 BKN036 11/08 Q1024 NOSIG",
      "taf": "TAF LFMN 272000Z 2721/0103 34010KT 9999 BKN035"
    },
    {
      "icao": "LFOB",
      "alert": "OK",
      "vis_m": 9999,
      "fzfg": false,
      "metar_trigger": false,
      "taf_trigger": false,
      "metar": "METAR LFOB 280430Z AUTO 22012KT 9999 BKN027 BKN034 OVC041 10/06 Q1016 TEMPO 4000 -SHRA BKN013TCU",
      "taf": "TAF LFOB 272300Z 2800/2824 20012KT 9999 SCT017"
    },
    {
      "icao": "LFPO",
      "alert": "OK",
      "vis_m": 9999,
      "fzfg": false,
      "metar_trigger": false,
      "taf_trigger": false,
      "metar": "METAR LFPO 280430Z 22012KT 9999 FEW015 BKN040 09/07 Q1018 NOSIG",
      "taf": "TAF LFPO 272300Z 2800/0106 22012KT 9999 BKN020"
    },
    {
      "icao": "LFSB",
      "alert": "OK",
      "vis_m": 9999,
      "fzfg": false,
      "metar_trigger": false,
      "taf_trigger": false,
      "metar": "METAR LFSB 280430Z AUTO 00000KT CAVOK 06/04 Q1021 NOSIG",
      "taf": "TAF LFSB 272300Z 2800/2824 VRB03KT CAVOK"
    },
    {
      "icao": "LGAV",
      "alert": "OK",
      "vis_m": 9999,
      "fzfg": false,
      "metar_trigger": false,
      "taf_trigger": false,
      "metar": "METAR LGAV 280420Z 35009KT 9999 SCT020 08/02 Q1026 NOSIG",
      "taf": "TAF LGAV 272300Z 2800/2824 02010KT 9999 SCT025"
    },
    {
      "icao": "LGTS",
      "alert": "OK",
      "vis_m": 9999,
      "fzfg": false,
      "metar_trigger": false,
      "taf_trigger": false,
      "metar": "METAR LGTS 280420Z 10003KT 9999 BKN030 08/06 Q1027 NOSIG",
      "taf": "TAF LGTS 272300Z 2800/2824 VRB03KT 9999 BKN030"
    },
    {
      "icao": "LHBP",
      "alert": "OK",
      "vis_m": 9999,
      "fzfg": false,
      "metar_trigger": false,
      "taf_trigger": false,
      "metar": "METAR LHBP 280430Z 01004KT CAVOK M02/M04 Q1026 NOSIG",
      "taf": "TAF LHBP 272315Z 2800/2824 08006KT CAVOK"
    },
    {
      "icao": "LHDC",
      "alert": "OK",
      "vis_m": 8000,
      "fzfg": false,
      "metar_trigger": false,
      "taf_trigger": false,
      "metar": "METAR LHDC 280415Z AUTO 07002KT 8000 NCD M03/M04 Q1027",
      "taf": ""
    },
    {
      "icao": "LIBD",
      "alert": "OK",
      "vis_m": 5000,
      "fzfg": false,
      "metar_trigger": false,
      "taf_trigger": false,
      "metar": "METAR LIBD 280420Z 24003KT 200V260 5000 BR NSC 07/07 Q1024",
      "taf": "TAF LIBD 272300Z 2800/2824 VRB05KT 7000 NSC"
    },
    {
      "icao": "LIBG",
      "alert": "OK",
      "vis_m": null,
      "fzfg": false,
      "metar_trigger": false,
      "taf_trigger": false,
      "metar": "",
      "taf": "TAF LIBG 271700Z 2718/2803 VRB05KT CAVOK"
    },
    {
      "icao": "LIBP",
      "alert": "OK",
      "vis_m": 500,
      "fzfg": false,
      "metar_trigger": false,
      "taf_trigger": false,
      "metar": "METAR LIBP 280420Z 21004KT 0500 R22/1800N FG OVC015 08/08 Q1025",
      "taf": "TAF LIBP 272300Z 2800/2824 VRB05KT 0300 FG OVC002"
    },
    {
      "icao": "LIBR",
      "alert": "OK",
      "vis_m": 6000,
      "fzfg": false,
      "metar_trigger": false,
      "taf_trigger": false,
      "metar": "METAR LIBR 280420Z 26004KT 6000 FEW010 07/06 Q1024",
      "taf": "TAF LIBR 272300Z 2800/2824 VRB05KT CAVOK"
    },
    {
      "icao": "LICA",
      "alert": "OK",
      "vis_m": 9999,
      "fzfg": false,
      "metar_trigger": false,
      "taf_trigger": false,
      "metar": "METAR LICA 280420Z 01002KT 9999 BKN025 13/09 Q1024",
      "taf": "TAF LICA 272300Z 2800/2824 VRB05KT 9999 SCT020"
    },
    {
      "icao": "LICC",
      "alert": "OK",
      "vis_m": 7000,
      "fzfg": false,
      "metar_trigger": false,
      "taf_trigger": false,
      "metar": "METAR LICC 280420Z 28006KT 7000 SCT015 13/11 Q1024",
      "taf": "TAF LICC 272300Z 2800/2824 VRB05KT 5000 BR BKN040"
    },
    {
      "icao": "LICJ",
      "alert": "OK",
      "vis_m": 9999,
      "fzfg": false,
      "metar_trigger": false,
      "taf_trigger": false,
      "metar": "METAR LICJ 280420Z 14003KT 9999 SCT025 12/09 Q1024",
      "taf": "TAF LICJ 272300Z 2800/2824 VRB05KT 9999 SCT015"
    },
    {
      "icao": "LIMC",
      "alert": "OK",
      "vis_m": 9999,
      "fzfg": false,
      "metar_trigger": false,
      "taf_trigger": false,
      "metar": "METAR LIMC 280350Z 36004KT 9999 BKN030 07/06 Q1023 NOSIG",
      "taf": "TAF LIMC 272300Z 2800/0106 VRB04KT CAVOK"
    },
    {
      "icao": "LIME",
      "alert": "OK",
      "vis_m": 8000,
      "fzfg": false,
      "metar_trigger": false,
      "taf_trigger": false,
      "metar": "METAR LIME 280420Z 01003KT 8000 SCT045 08/06 Q1023 NOSIG",
      "taf": "TAF LIME 272300Z 2800/2824 VRB05KT 9000 SCT030"
    },
    {
      "icao": "LIMF",
      "alert": "OK",
      "vis_m": 8000,
      "fzfg": false,
      "metar_trigger": false,
      "taf_trigger": false,
      "metar": "METAR LIMF 280420Z VRB01KT 8000 BKN030 09/05 Q1023",
      "taf": "TAF LIMF 272300Z 2800/2824 VRB04KT CAVOK"
    },
    {
      "icao": "LIMJ",
      "alert": "OK",
      "vis_m": 9999,
      "fzfg": false,
      "metar_trigger": false,
      "taf_trigger": false,
      "metar": "METAR LIMJ 280420Z AUTO 06003KT 020V080 9999 // OVC035/// 13/09 Q1024",
      "taf": "TAF LIMJ 272300Z 2800/2824 VRB05KT 9999 FEW010 BKN030"
    },
    {
      "icao": "LIPE",
      "alert": "OK",
      "vis_m": 9999,
      "fzfg": false,
      "metar_trigger": false,
      "taf_trigger": false,
      "metar": "METAR LIPE 280420Z 19006KT 9999 SCT030 11/07 Q1024",
      "taf": "TAF LIPE 272300Z 2800/2824 VRB04KT 4000 BR FEW020"
    },
    {
      "icao": "LIPH",
      "alert": "OK",
      "vis_m": 100,
      "fzfg": false,
      "metar_trigger": false,
      "taf_trigger": false,
      "metar": "METAR LIPH 280420Z AUTO 09003KT 0100 0050W R07/0400N // VV002 06/06 Q1024",
      "taf": "TAF LIPH 272300Z 2800/2824 VRB04KT 0200 FG OVC001"
    },
    {
      "icao": "LIPQ",
      "alert": "OK",
      "vis_m": 150,
      "fzfg": false,
      "metar_trigger": false,
      "taf_trigger": false,
      "metar": "METAR LIPQ 280420Z AUTO 06001KT 0150 R09/0550N // VV002 04/04 Q1024",
      "taf": "TAF LIPQ 272300Z 2800/2824 VRB04KT 0100 FG OVC001"
    },
    {
      "icao": "LIPR",
      "alert": "OK",
      "vis_m": 1100,
      "fzfg": false,
      "metar_trigger": false,
      "taf_trigger": false,
      "metar": "METAR LIPR 280420Z AUTO VRB01KT 1100 R30/P2000N // BKN055/// 07/07 Q1024",
      "taf": "TAF LIPR 272300Z 2800/2824 VRB04KT 1200 BR SCT010"
    },
    {
      "icao": "LIPX",
      "alert": "OK",
      "vis_m": 3000,
      "fzfg": false,
      "metar_trigger": false,
      "taf_trigger": false,
      "metar": "METAR LIPX 280420Z VRB01KT 3000 BR FEW020 04/04 Q1024",
      "taf": "TAF LIPX 272300Z 2800/2824 VRB05KT 7000 NSC"
    },
    {
      "icao": "LIPY",
      "alert": "OK",
      "vis_m": 150,
      "fzfg": false,
      "metar_trigger": false,
      "taf_trigger": false,
      "metar": "METAR LIPY 280420Z AUTO VRB01KT 0150 R22/0600N // ///////// 07/07 Q1024",
      "taf": "TAF LIPY 272300Z 2800/2824 VRB04KT 0200 FG OVC001"
    },
    {
      "icao": "LIPZ",
      "alert": "OK",
      "vis_m": 50,
      "fzfg": false,
      "metar_trigger": false,
      "taf_trigger": false,
      "metar": "METAR LIPZ 280420Z 08003KT 0050 R04R/0450N FG VV001 06/06 Q1024 NOSIG",
      "taf": "TAF LIPZ 272300Z 2800/0106 VRB04KT 0200 FG BKN002"
    },
    {
      "icao": "LIRF",
      "alert": "OK",
      "vis_m": 9999,
      "fzfg": false,
      "metar_trigger": false,
      "taf_trigger": false,
      "metar": "METAR LIRF 280420Z 34002KT 9999 SCT040 10/08 Q1024 NOSIG",
      "taf": "TAF LIRF 272300Z 2800/0106 VRB05KT 8000 BKN030"
    },
    {
      "icao": "LIRN",
      "alert": "OK",
      "vis_m": 9999,
      "fzfg": false,
      "metar_trigger": false,
      "taf_trigger": false,
      "metar": "METAR LIRN 280420Z VRB02KT 9999 BKN025 13/08 Q1024 NOSIG",
      "taf": "TAF LIRN 272300Z 2800/2824 VRB05KT 7000 BKN025"
    },
    {
      "icao": "LIRP",
      "alert": "OK",
      "vis_m": 7000,
      "fzfg": false,
      "metar_trigger": false,
      "taf_trigger": false,
      "metar": "METAR LIRP 280415Z 10002KT 7000 SCT035 09/08 Q1025 NOSIG",
      "taf": "TAF LIRP 272300Z 2800/2824 VRB03KT 9999 SCT030"
    },
    {
      "icao": "LIRZ",
      "alert": "OK",
      "vis_m": null,
      "fzfg": false,
      "metar_trigger": false,
      "taf_trigger": false,
      "metar": "",
      "taf": "TAF LIRZ 271700Z 2718/2818 VRB05KT 7000 NSC"
    },
    {
      "icao": "LJLJ",
      "alert": "OK",
      "vis_m": 9999,
      "fzfg": false,
      "metar_trigger": false,
      "taf_trigger": false,
      "metar": "METAR LJLJ 280430Z 29002KT 9999 MIFG NSC M00/M01 Q1023 NOSIG",
      "taf": "TAF LJLJ 272300Z 2800/0100 VRB02KT CAVOK"
    },
    {
      "icao": "LKMT",
      "alert": "OK",
      "vis_m": 9999,
      "fzfg": false,
      "metar_trigger": false,
      "taf_trigger": false,
      "metar": "METAR LKMT 280430Z 24010KT CAVOK 02/M00 Q1023 NOSIG",
      "taf": "TAF LKMT 272300Z 2800/2824 23011KT CAVOK"
    },
    {
      "icao": "LKPR",
      "alert": "OK",
      "vis_m": 300,
      "fzfg": false,
      "metar_trigger": false,
      "taf_trigger": false,
      "metar": "METAR LKPR 280430Z VRB01KT 0300 R24/0400N R30/0375N FG VV001 01/01 Q1021 NOSIG",
      "taf": "TAF LKPR 280200Z 2803/0109 33003KT 0400 FG VV001"
    },
    {
      "icao": "LLBG",
      "alert": "OK",
      "vis_m": 9999,
      "fzfg": false,
      "metar_trigger": false,
      "taf_trigger": false,
      "metar": "METAR LLBG 280420Z VRB02KT CAVOK 07/03 Q1017 NOSIG RMK BKN075",
      "taf": "TAF LLBG 272301Z 2800/2824 14005KT 9999 FEW050 TX16/2812Z TN06/2804Z"
    },
    {
      "icao": "LMML",
      "alert": "OK",
      "vis_m": 9999,
      "fzfg": false,
      "metar_trigger": false,
      "taf_trigger": false,
      "metar": "METAR LMML 280415Z VRB02KT 9999 FEW014 11/11 Q1024 NOSIG",
      "taf": "TAF LMML 272300Z 2800/2824 23005KT 9999 FEW015"
    },
    {
      "icao": "LOWW",
      "alert": "OK",
      "vis_m": 9999,
      "fzfg": false,
      "metar_trigger": false,
      "taf_trigger": false,
      "metar": "METAR LOWW 280420Z 13010KT CAVOK 04/00 Q1023 NOSIG",
      "taf": "TAF LOWW 280215Z 2803/0109 13012KT CAVOK TX13/2814Z TN02/0105Z"
    },
    {
      "icao": "LPFR",
      "alert": "OK",
      "vis_m": 9999,
      "fzfg": false,
      "metar_trigger": false,
      "taf_trigger": false,
      "metar": "METAR LPFR 280430Z 35011KT CAVOK 10/05 Q1022",
      "taf": "TAF LPFR 272300Z 2800/2824 33010KT 9999 FEW012"
    },
    {
      "icao": "LPMA",
      "alert": "OK",
      "vis_m": 9999,
      "fzfg": false,
      "metar_trigger": false,
      "taf_trigger": false,
      "metar": "METAR LPMA 280430Z 01013KT 340V040 9999 BKN014 15/09 Q1027",
      "taf": "TAF LPMA 272300Z 2800/2824 01015KT 9999 SCT015"
    },
    {
      "icao": "LPPR",
      "alert": "OK",
      "vis_m": 9999,
      "fzfg": false,
      "metar_trigger": false,
      "taf_trigger": false,
      "metar": "METAR LPPR 280430Z 01003KT CAVOK 05/04 Q1026",
      "taf": "TAF LPPR 272300Z 2800/2824 02007KT CAVOK"
    },
    {
      "icao": "LPPS",
      "alert": "OK",
      "vis_m": 9999,
      "fzfg": false,
      "metar_trigger": false,
      "taf_trigger": false,
      "metar": "METAR LPPS 280430Z 04012KT 9999 BKN014 15/09 Q1028",
      "taf": ""
    },
    {
      "icao": "LPPT",
      "alert": "OK",
      "vis_m": 9999,
      "fzfg": false,
      "metar_trigger": false,
      "taf_trigger": false,
      "metar": "METAR LPPT 280430Z 35015KT CAVOK 10/06 Q1025",
      "taf": "TAF LPPT 272300Z 2800/0106 35013KT 9999 FEW025"
    },
    {
      "icao": "LQBK",
      "alert": "OK",
      "vis_m": 9999,
      "fzfg": false,
      "metar_trigger": false,
      "taf_trigger": false,
      "metar": "METAR LQBK 280430Z 14005KT CAVOK 00/M00 Q1024 NOSIG",
      "taf": "TAF LQBK 272300Z 2800/2824 33005KT CAVOK TX17/2814Z TN00/2806Z"
    },
    {
      "icao": "LQSA",
      "alert": "OK",
      "vis_m": 9999,
      "fzfg": false,
      "metar_trigger": false,
      "taf_trigger": false,
      "metar": "METAR LQSA 280430Z 18001KT CAVOK M02/M02 Q1025 NOSIG",
      "taf": "TAF LQSA 272300Z 2800/2824 VRB02KT CAVOK TX18/2814Z TNM02/2805Z"
    },
    {
      "icao": "LQTZ",
      "alert": "OK",
      "vis_m": 9999,
      "fzfg": false,
      "metar_trigger": false,
      "taf_trigger": false,
      "metar": "METAR LQTZ 280430Z 00000KT CAVOK M03/M03 Q1024",
      "taf": "TAF LQTZ 272300Z 2800/2824 VRB02KT CAVOK TX18/2814Z TNM03/2806Z"
    },
    {
      "icao": "LRBC",
      "alert": "OK",
      "vis_m": 4400,
      "fzfg": false,
      "metar_trigger": false,
      "taf_trigger": false,
      "metar": "METAR LRBC 280430Z 19005KT 4400 BR SCT001 OVC002 M02/M03 Q1029",
      "taf": "TAF LRBC 280200Z 2803/2812 16008KT 3000 BR OVC002"
    },
    {
      "icao": "LRBS",
      "alert": "OK",
      "vis_m": 2000,
      "fzfg": false,
      "metar_trigger": false,
      "taf_trigger": false,
      "metar": "METAR LRBS 280430Z 05003KT 010V080 2000 BR OVC002 M02/M03 Q1031 TEMPO 1500 BR",
      "taf": "TAF LRBS 272300Z 2800/2824 VRB04KT 9999 OVC010"
    },
    {
      "icao": "LRBV",
      "alert": "OK",
      "vis_m": 5000,
      "fzfg": false,
      "metar_trigger": false,
      "taf_trigger": false,
      "metar": "METAR LRBV 280430Z AUTO 21003KT 5000 BR NCD M05/M06 Q1027",
      "taf": "TAF LRBV 280200Z 2803/2812 VRB04KT 5000 BR NSC"
    },
    {
      "icao": "LRCL",
      "alert": "OK",
      "vis_m": 9999,
      "fzfg": false,
      "metar_trigger": false,
      "taf_trigger": false,
      "metar": "METAR LRCL 280430Z 00000KT CAVOK M05/M06 Q1027",
      "taf": "TAF LRCL 280200Z 2803/2812 VRB04KT CAVOK"
    },
    {
      "icao": "LRCV",
      "alert": "OK",
      "vis_m": 600,
      "fzfg": true,
      "metar_trigger": false,
      "taf_trigger": false,
      "metar": "METAR LRCV 280430Z 08009KT 0600 R26/P2000 FZFG OVC001 M02/M02 Q1030",
      "taf": "TAF LRCV 280200Z 2803/2812 07010KT 3000 BR BKN005"
    },
    {
      "icao": "LRIA",
      "alert": "OK",
      "vis_m": 9999,
      "fzfg": false,
      "metar_trigger": false,
      "taf_trigger": false,
      "metar": "METAR LRIA 280430Z 18004KT 150V220 9999 OVC004 M03/M04 Q1030",
      "taf": "TAF LRIA 280200Z 2803/2812 12006KT 5000 BR OVC005"
    },
    {
      "icao": "LROP",
      "alert": "OK",
      "vis_m": 3500,
      "fzfg": false,
      "metar_trigger": false,
      "taf_trigger": false,
      "metar": "METAR LROP 280430Z 09003KT 040V150 3500 BR OVC002 M02/M02 Q1031 TEMPO 1500 BR",
      "taf": "TAF LROP 272300Z 2800/2824 VRB04KT 9999 OVC010"
    },
    {
      "icao": "LRSB",
      "alert": "OK",
      "vis_m": 9999,
      "fzfg": false,
      "metar_trigger": false,
      "taf_trigger": false,
      "metar": "METAR LRSB 280430Z 12002KT CAVOK M05/M06 Q1026",
      "taf": "TAF LRSB 272300Z 2800/2824 VRB04KT CAVOK"
    },
    {
      "icao": "LRSM",
      "alert": "OK",
      "vis_m": 9999,
      "fzfg": false,
      "metar_trigger": false,
      "taf_trigger": false,
      "metar": "METAR LRSM 280430Z AUTO 09003KT 9999 NCD M02/M04 Q1027",
      "taf": ""
    },
    {
      "icao": "LRSV",
      "alert": "CRITICAL",
      "vis_m": 100,
      "fzfg": true,
      "metar_trigger": true,
      "taf_trigger": false,
      "metar": "METAR LRSV 280430Z 16007KT 140V200 0100 R16/0300N FZFG VV001 M03/M03 Q1026",
      "taf": "TAF LRSV 280200Z 2803/2812 15008KT 0150 FZFG OVC001"
    },
    {
      "icao": "LRTM",
      "alert": "OK",
      "vis_m": 9999,
      "fzfg": false,
      "metar_trigger": false,
      "taf_trigger": false,
      "metar": "METAR LRTM 280430Z AUTO 10003KT 9999 NCD M04/M05 Q1028",
      "taf": "TAF LRTM 280200Z 2803/2812 VRB04KT 5000 BR NSC"
    },
    {
      "icao": "LRTR",
      "alert": "OK",
      "vis_m": 9999,
      "fzfg": false,
      "metar_trigger": false,
      "taf_trigger": false,
      "metar": "METAR LRTR 280430Z 08006KT CAVOK M00/M01 Q1027 NOSIG",
      "taf": "TAF LRTR 272300Z 2800/2824 10006KT CAVOK"
    },
    {
      "icao": "LTAC",
      "alert": "OK",
      "vis_m": 9999,
      "fzfg": false,
      "metar_trigger": false,
      "taf_trigger": false,
      "metar": "METAR LTAC 280420Z 18003KT 160V250 9999 FEW040 SCT100 M03/M04 Q1020 NOSIG RMK RWY21C 16006KT RWY03L VRB02KT RWY21R 15006KT RWY03R 16003KT RWY21L 15005KT 120V180",
      "taf": "TAF LTAC 272240Z 2800/2824 VRB02KT 9999 SCT040 SCT100"
    },
    {
      "icao": "LTFM",
      "alert": "OK",
      "vis_m": 9999,
      "fzfg": false,
      "metar_trigger": false,
      "taf_trigger": false,
      "metar": "METAR LTFM 280420Z 01014KT 9999 BKN013 BKN025 04/02 Q1028 NOSIG RMK RWY17L 01013KT RWY34L 36014KT RWY16R 36013KT RWY36 36015KT RWY18 01014KT",
      "taf": "TAF LTFM 272240Z 2800/0106 36014KT 9999 SCT017 BKN026"
    },
    {
      "icao": "LUKK",
      "alert": "OK",
      "vis_m": 1000,
      "fzfg": true,
      "metar_trigger": false,
      "taf_trigger": false,
      "metar": "METAR LUKK 280430Z VRB01KT 1000 R08/1200N BR OVC002 M03/M03 Q1030 TEMPO 0600 FZFG",
      "taf": "TAF LUKK 272313Z 2800/2824 VRB04KT 9999 BKN006"
    },
    {
      "icao": "LWOH",
      "alert": "OK",
      "vis_m": null,
      "fzfg": false,
      "metar_trigger": false,
      "taf_trigger": false,
      "metar": "",
      "taf": "TAF LWOH 280210Z 2803/0103 VRB02KT CAVOK"
    },
    {
      "icao": "LWSK",
      "alert": "OK",
      "vis_m": 9999,
      "fzfg": false,
      "metar_trigger": false,
      "taf_trigger": false,
      "metar": "METAR LWSK 280420Z 04004KT 020V180 9999 OVC010 04/01 Q1027 NOSIG",
      "taf": "TAF LWSK 280210Z 2803/0103 VRB02KT 9999 BKN010"
    },
    {
      "icao": "LYBE",
      "alert": "OK",
      "vis_m": 9999,
      "fzfg": false,
      "metar_trigger": false,
      "taf_trigger": false,
      "metar": "METAR LYBE 280430Z 12003KT CAVOK 01/M03 Q1025 NOSIG",
      "taf": "TAF LYBE 272300Z 2800/2824 08005KT CAVOK TX15/2813Z TN01/2806Z"
    },
    {
      "icao": "LYNI",
      "alert": "OK",
      "vis_m": 9999,
      "fzfg": false,
      "metar_trigger": false,
      "taf_trigger": false,
      "metar": "METAR LYNI 280430Z VRB01KT CAVOK M02/M02 Q1027 NOSIG",
      "taf": "TAF LYNI 272300Z 2800/2824 06008KT CAVOK TX15/2813Z TNM02/2805Z"
    },
    {
      "icao": "LYPG",
      "alert": "OK",
      "vis_m": 9999,
      "fzfg": false,
      "metar_trigger": false,
      "taf_trigger": false,
      "metar": "METAR LYPG 280430Z 01002KT CAVOK 04/01 Q1024 NOSIG",
      "taf": "TAF LYPG 272300Z 2800/2824 36005KT CAVOK TX19/2812Z TN03/2805Z"
    },
    {
      "icao": "LZIB",
      "alert": "OK",
      "vis_m": 9999,
      "fzfg": false,
      "metar_trigger": false,
      "taf_trigger": false,
      "metar": "METAR LZIB 280430Z 04009KT CAVOK 03/M01 Q1025 NOSIG",
      "taf": "TAF LZIB 272315Z 2800/0100 03007KT CAVOK"
    },
    {
      "icao": "LZKZ",
      "alert": "OK",
      "vis_m": 9999,
      "fzfg": false,
      "metar_trigger": false,
      "taf_trigger": false,
      "metar": "METAR LZKZ 280430Z VRB01KT CAVOK M02/M03 Q1026 NOSIG",
      "taf": "TAF LZKZ 272315Z 2800/0100 VRB02KT CAVOK"
    },
    {
      "icao": "LZTT",
      "alert": "OK",
      "vis_m": 9999,
      "fzfg": false,
      "metar_trigger": false,
      "taf_trigger": false,
      "metar": "METAR LZTT 280430Z 29003KT CAVOK M05/M06 Q1024",
      "taf": "TAF LZTT 272315Z 2800/0100 28005KT CAVOK"
    },
    {
      "icao": "OEJN",
      "alert": "OK",
      "vis_m": 9999,
      "fzfg": false,
      "metar_trigger": false,
      "taf_trigger": false,
      "metar": "METAR OEJN 280400Z 03003KT CAVOK 20/12 Q1010 NOSIG",
      "taf": "TAF OEJN 272300Z 2800/0106 03006KT 9999 FEW040"
    },
    {
      "icao": "OEMA",
      "alert": "OK",
      "vis_m": 9999,
      "fzfg": false,
      "metar_trigger": false,
      "taf_trigger": false,
      "metar": "METAR OEMA 280400Z 02003KT CAVOK 16/M03 Q1013 NOSIG",
      "taf": "TAF OEMA 272300Z 2800/0106 VRB03KT CAVOK"
    },
    {
      "icao": "OJAI",
      "alert": "OK",
      "vis_m": 4000,
      "fzfg": false,
      "metar_trigger": false,
      "taf_trigger": false,
      "metar": "METAR OJAI 280400Z 00000KT 4000 BR NSC M02/M02 Q1016 NOSIG",
      "taf": "TAF OJAI 272250Z 2800/0106 VRB02KT 5000 HZ FEW040"
    },
    {
      "icao": "OMAA",
      "alert": "OK",
      "vis_m": 9999,
      "fzfg": false,
      "metar_trigger": false,
      "taf_trigger": false,
      "metar": "METAR OMAA 280430Z 11006KT CAVOK 19/15 Q1011 NOSIG",
      "taf": "TAF OMAA 272300Z 2800/0106 14005KT 8000 NSC"
    },
    {
      "icao": "OMDB",
      "alert": "OK",
      "vis_m": 6000,
      "fzfg": false,
      "metar_trigger": false,
      "taf_trigger": false,
      "metar": "METAR OMDB 280430Z 19004KT 6000 NSC 19/14 Q1011 NOSIG",
      "taf": "TAF OMDB 272300Z 2800/0106 16005KT 8000 NSC"
    },
    {
      "icao": "UAAA",
      "alert": "OK",
      "vis_m": 9999,
      "fzfg": false,
      "metar_trigger": false,
      "taf_trigger": false,
      "metar": "METAR UAAA 280430Z 26004MPS 9999 -SN OVC029 M08/M11 Q1023 NOSIG",
      "taf": "TAF UAAA 272302Z 2800/2824 26003G08MPS 5000 BR BKN011 OVC050 TXM07/2808Z TNM12/2802Z"
    },
    {
      "icao": "UBBB",
      "alert": "OK",
      "vis_m": 9999,
      "fzfg": false,
      "metar_trigger": false,
      "taf_trigger": false,
      "metar": "METAR UBBB 280430Z 01016KT 9999 BKN010 OVC025 04/02 Q1017 NOSIG",
      "taf": "TAF UBBB 272305Z 2800/2824 02014G24KT 9999 BKN012 OVC025 TX04/2810Z TN03/2802Z"
    },
    {
      "icao": "UDSG",
      "alert": "OK",
      "vis_m": 2900,
      "fzfg": false,
      "metar_trigger": false,
      "taf_trigger": false,
      "metar": "METAR UDSG 280430Z 12006KT 2900 -SN BR OVC010 M04/M04 Q1011 NOSIG",
      "taf": "TAF UDSG 272258Z 2800/2824 VRB06KT 3000 BR BKN030"
    },
    {
      "icao": "UDYZ",
      "alert": "OK",
      "vis_m": 7000,
      "fzfg": false,
      "metar_trigger": false,
      "taf_trigger": false,
      "metar": "METAR UDYZ 280430Z 36001KT 7000 FEW033 00/M00 Q1012 NOSIG",
      "taf": "TAF UDYZ 272300Z 2800/2824 04006KT 6000 BKN030"
    },
    {
      "icao": "UGKO",
      "alert": "OK",
      "vis_m": 6000,
      "fzfg": false,
      "metar_trigger": false,
      "taf_trigger": false,
      "metar": "METAR UGKO 280430Z 10006KT 6000 -RA SCT013 BKN017 03/02 Q1017 NOSIG",
      "taf": "TAF UGKO 272300Z 2800/2824 09006KT 8000 OVC025 TX06/2818Z TN02/2803Z"
    }
  ]
}