{
  "ts_utc": "2025-12-30T19:00:51Z",
  "threshold_m": 150,
  "source": "stations_override.txt (ICAO list) + aviationweather.gov (METAR/TAF raw)",
  "station_count": 159,
  "stations": [
    {
      "icao": "BIKF",
      "alert": "OK",
      "vis_m": 9999,
      "fzfg": false,
      "metar_trigger": false,
      "taf_trigger": false,
      "metar": "METAR BIKF 301830Z 25010KT 9999 FEW012 BKN015 05/04 Q1034",
      "taf": "TAF BIKF 301632Z 3018/3118 27007KT 9999 SCT017 BKN020 TX06/3024Z TN01/3118Z"
    },
    {
      "icao": "BKPR",
      "alert": "OK",
      "vis_m": 9999,
      "fzfg": false,
      "metar_trigger": false,
      "taf_trigger": false,
      "metar": "METAR BKPR 301900Z 36006KT 9999 FEW025 BKN040 M01/M04 Q1014 NOSIG",
      "taf": "TAF BKPR 301730Z 3018/3118 01009KT 9999 SCT050"
    },
    {
      "icao": "EBCI",
      "alert": "OK",
      "vis_m": 9999,
      "fzfg": false,
      "metar_trigger": false,
      "taf_trigger": false,
      "metar": "METAR EBCI 301850Z 35003KT CAVOK 01/M03 Q1030 NOSIG",
      "taf": "TAF EBCI 301718Z 3018/3124 30005KT 9999 SCT030"
    },
    {
      "icao": "EDDB",
      "alert": "OK",
      "vis_m": 9999,
      "fzfg": false,
      "metar_trigger": false,
      "taf_trigger": false,
      "metar": "METAR EDDB 301850Z AUTO 29011KT CAVOK M01/M04 Q1022 NOSIG",
      "taf": "TAF EDDB 301700Z 3018/3118 31011KT CAVOK"
    },
    {
      "icao": "EDDH",
      "alert": "OK",
      "vis_m": 9999,
      "fzfg": false,
      "metar_trigger": false,
      "taf_trigger": false,
      "metar": "METAR EDDH 301850Z AUTO 31005KT CAVOK M03/M06 Q1026 NOSIG",
      "taf": "TAF EDDH 301700Z 3018/3124 27004KT 9999 BKN030"
    },
    {
      "icao": "EDDK",
      "alert": "OK",
      "vis_m": 9999,
      "fzfg": false,
      "metar_trigger": false,
      "taf_trigger": false,
      "metar": "METAR EDDK 301850Z AUTO 06002KT 9999 BKN046 M01/M02 Q1029 NOSIG",
      "taf": ""
    },
    {
      "icao": "EDDN",
      "alert": "OK",
      "vis_m": 9999,
      "fzfg": false,
      "metar_trigger": false,
      "taf_trigger": false,
      "metar": "METAR EDDN 301850Z AUTO 28003KT CAVOK M04/M07 Q1025 NOSIG",
      "taf": "TAF EDDN 301700Z 3018/3118 32005KT CAVOK"
    },
    {
      "icao": "EDDS",
      "alert": "OK",
      "vis_m": 9999,
      "fzfg": false,
      "metar_trigger": false,
      "taf_trigger": false,
      "metar": "METAR EDDS 301850Z AUTO 31004KT 300V360 CAVOK M02/M08 Q1025 NOSIG",
      "taf": "TAF EDDS 301700Z 3018/3118 30004KT CAVOK"
    },
    {
      "icao": "EDFH",
      "alert": "OK",
      "vis_m": 9999,
      "fzfg": false,
      "metar_trigger": false,
      "taf_trigger": false,
      "metar": "METAR EDFH 301850Z 35003KT CAVOK M02/M04 Q1026",
      "taf": "TAF EDFH 301700Z 3018/3118 01003KT CAVOK"
    },
    {
      "icao": "EDJA",
      "alert": "OK",
      "vis_m": 9999,
      "fzfg": false,
      "metar_trigger": false,
      "taf_trigger": false,
      "metar": "METAR EDJA 301850Z 01003KT 9999 BKN044 M04/M06 Q1024",
      "taf": "TAF EDJA 301700Z 3018/3103 VRB03KT 9999 SCT040"
    },
    {
      "icao": "EDLW",
      "alert": "OK",
      "vis_m": 9999,
      "fzfg": false,
      "metar_trigger": false,
      "taf_trigger": false,
      "metar": "METAR EDLW 301850Z 23004KT CAVOK M02/M04 Q1028",
      "taf": "TAF EDLW 301700Z 3018/3118 24005KT CAVOK"
    },
    {
      "icao": "EDNY",
      "alert": "OK",
      "vis_m": 9999,
      "fzfg": false,
      "metar_trigger": false,
      "taf_trigger": false,
      "metar": "METAR EDNY 301850Z AUTO 02007KT 9999 // BKN052/// M01/M05 Q1026",
      "taf": "TAF EDNY 301400Z 3015/3024 04004KT 9999 OVC040"
    },
    {
      "icao": "EDSB",
      "alert": "OK",
      "vis_m": 9999,
      "fzfg": false,
      "metar_trigger": false,
      "taf_trigger": false,
      "metar": "METAR EDSB 301850Z VRB02KT CAVOK M03/M06 Q1028",
      "taf": "TAF EDSB 301700Z 3018/3118 05004KT 9999 SCT040"
    },
    {
      "icao": "EETN",
      "alert": "OK",
      "vis_m": 9999,
      "fzfg": false,
      "metar_trigger": false,
      "taf_trigger": false,
      "metar": "METAR EETN 301850Z 01013KT 330V040 9999 OVC023 M04/M08 Q1004 TEMPO 01015G25KT",
      "taf": "TAF EETN 301730Z 3018/3118 01015G25KT 9999 DRSN BKN025"
    },
    {
      "icao": "EFTU",
      "alert": "OK",
      "vis_m": 9999,
      "fzfg": false,
      "metar_trigger": false,
      "taf_trigger": false,
      "metar": "METAR EFTU 301850Z AUTO 34005KT 290V020 CAVOK M08/M14 Q1009",
      "taf": "TAF EFTU 301731Z 3018/3118 34006KT CAVOK"
    },
    {
      "icao": "EGBB",
      "alert": "OK",
      "vis_m": 9999,
      "fzfg": false,
      "metar_trigger": false,
      "taf_trigger": false,
      "metar": "METAR EGBB 301850Z 36005KT 9999 BKN042 03/01 Q1035",
      "taf": "TAF EGBB 301702Z 3018/3118 02005KT 9999 FEW020 SCT040"
    },
    {
      "icao": "EGGP",
      "alert": "OK",
      "vis_m": 9999,
      "fzfg": false,
      "metar_trigger": false,
      "taf_trigger": false,
      "metar": "METAR EGGP 301850Z 03003KT 9999 OVC042 04/01 Q1036",
      "taf": "TAF EGGP 301654Z 3018/3118 01005KT 9999 SCT035"
    },
    {
      "icao": "EGGW",
      "alert": "OK",
      "vis_m": 9999,
      "fzfg": false,
      "metar_trigger": false,
      "taf_trigger": false,
      "metar": "METAR EGGW 301850Z AUTO 36007KT 9999 SCT038 02/01 Q1033",
      "taf": "TAF EGGW 301704Z 3018/3118 01006KT 9999 FEW040"
    },
    {
      "icao": "EGKK",
      "alert": "OK",
      "vis_m": 9999,
      "fzfg": false,
      "metar_trigger": false,
      "taf_trigger": false,
      "metar": "METAR EGKK 301850Z 34004KT 300V010 9999 FEW045 03/01 Q1033",
      "taf": "TAF EGKK 301659Z 3018/3124 01006KT 9999 FEW040"
    },
    {
      "icao": "EGNM",
      "alert": "OK",
      "vis_m": 9999,
      "fzfg": false,
      "metar_trigger": false,
      "taf_trigger": false,
      "metar": "METAR EGNM 301850Z 34007KT 9999 FEW040 02/M01 Q1035",
      "taf": "TAF EGNM 301655Z 3018/3118 35006KT 9999 SCT035"
    },
    {
      "icao": "EGPD",
      "alert": "OK",
      "vis_m": 9999,
      "fzfg": false,
      "metar_trigger": false,
      "taf_trigger": false,
      "metar": "METAR EGPD 301850Z COR AUTO 27008KT 9999 OVC031 02/M02 Q1035 NOSIG",
      "taf": "TAF EGPD 301654Z 3018/3118 28008KT 9999 SCT030"
    },
    {
      "icao": "EGPF",
      "alert": "OK",
      "vis_m": 9999,
      "fzfg": false,
      "metar_trigger": false,
      "taf_trigger": false,
      "metar": "METAR EGPF 301850Z AUTO 25001KT 9999 NCD M03/M03 Q1037",
      "taf": "TAF EGPF 301657Z 3018/3118 VRB02KT 9999 FEW040"
    },
    {
      "icao": "EHBK",
      "alert": "OK",
      "vis_m": 9999,
      "fzfg": false,
      "metar_trigger": false,
      "taf_trigger": false,
      "metar": "METAR EHBK 301855Z AUTO 30003KT 9999 NCD 01/M01 Q1029 NOSIG",
      "taf": "TAF EHBK 301702Z 3018/3124 34004KT 9999 BKN045"
    },
    {
      "icao": "EHEH",
      "alert": "OK",
      "vis_m": 9999,
      "fzfg": false,
      "metar_trigger": false,
      "taf_trigger": false,
      "metar": "METAR EHEH 301825Z AUTO 31004KT 250V350 9999 NCD M00/M02 Q1030 BLU NOSIG RMK TREND REMOTE BY EHWX",
      "taf": "TAF EHEH 301747Z 3018/3124 31003KT CAVOK"
    },
    {
      "icao": "EKBI",
      "alert": "OK",
      "vis_m": 9999,
      "fzfg": false,
      "metar_trigger": false,
      "taf_trigger": false,
      "metar": "METAR EKBI 301850Z AUTO 14001KT 9999 FEW099/// M05/M07 Q1024",
      "taf": "TAF EKBI 301727Z 3018/3118 26005KT CAVOK"
    },
    {
      "icao": "EKCH",
      "alert": "OK",
      "vis_m": 9999,
      "fzfg": false,
      "metar_trigger": false,
      "taf_trigger": false,
      "metar": "METAR EKCH 301850Z AUTO 31006KT 280V360 9999 NCD M01/M07 Q1022 NOSIG",
      "taf": "TAF EKCH 301727Z 3018/3118 31010KT CAVOK"
    },
    {
      "icao": "ENAL",
      "alert": "OK",
      "vis_m": 9999,
      "fzfg": false,
      "metar_trigger": false,
      "taf_trigger": false,
      "metar": "METAR ENAL 301850Z 31014KT 280V350 9999 FEW017 SCT024 BKN033 04/02 Q1018",
      "taf": "TAF ENAL 301700Z 3018/3103 24015KT 9999 -SHRASN FEW008 BKN015"
    },
    {
      "icao": "ENBR",
      "alert": "OK",
      "vis_m": 6000,
      "fzfg": false,
      "metar_trigger": false,
      "taf_trigger": false,
      "metar": "METAR ENBR 301850Z 07003KT 030V100 6000 -SHRA SCT003 BKN016 00/00 Q1022 TEMPO 1500 SHRASN BKN004 SCT015CB RMK WIND 1200FT 34018KT",
      "taf": "TAF ENBR 301700Z 3018/3118 14008KT 9999 -SHSN SCT010 BKN020"
    },
    {
      "icao": "ENGM",
      "alert": "OK",
      "vis_m": 9999,
      "fzfg": false,
      "metar_trigger": false,
      "taf_trigger": false,
      "metar": "METAR ENGM 301850Z 00000KT CAVOK M03/M10 Q1016 NOSIG",
      "taf": "TAF ENGM 301700Z 3018/3118 VRB03KT CAVOK"
    },
    {
      "icao": "ENHD",
      "alert": "OK",
      "vis_m": 9999,
      "fzfg": false,
      "metar_trigger": false,
      "taf_trigger": false,
      "metar": "METAR ENHD 301850Z 33020KT 9999 -SHRA SCT020 BKN038 06/03 Q1023",
      "taf": "TAF ENHD 301400Z 3015/3023 VRB05KT 9999 FEW015 BKN030"
    },
    {
      "icao": "ENTC",
      "alert": "OK",
      "vis_m": 2800,
      "fzfg": false,
      "metar_trigger": false,
      "taf_trigger": false,
      "metar": "METAR ENTC 301850Z 06003KT 340V110 2800 -SHSN VV019 M06/M07 Q1011 TEMPO 9999 -SHSN FEW008 BKN030 RMK WIND 2600FT 02010KT",
      "taf": "TAF ENTC 301700Z 3018/3118 01008KT 9999 -SHSN FEW008 SCT030 BKN035"
    },
    {
      "icao": "ENTO",
      "alert": "OK",
      "vis_m": 9999,
      "fzfg": false,
      "metar_trigger": false,
      "taf_trigger": false,
      "metar": "METAR ENTO 301850Z 26007KT 230V290 CAVOK M01/M09 Q1019 NOSIG",
      "taf": "TAF ENTO 301700Z 3018/3118 28005KT CAVOK"
    },
    {
      "icao": "ENVA",
      "alert": "OK",
      "vis_m": 9999,
      "fzfg": false,
      "metar_trigger": false,
      "taf_trigger": false,
      "metar": "METAR ENVA 301850Z 25006KT 9999 FEW016 SCT021 BKN027 00/M00 Q1014 TEMPO 0800 SHSN VV005 RMK WIND 670FT 27016KT",
      "taf": ""
    },
    {
      "icao": "ENZV",
      "alert": "OK",
      "vis_m": 9999,
      "fzfg": false,
      "metar_trigger": false,
      "taf_trigger": false,
      "metar": "METAR ENZV 301850Z VRB05G17KT 9999 -SHRA BKN005 01/01 Q1023 TEMPO SCT008 BKN020",
      "taf": "TAF ENZV 301700Z 3018/3118 35005KT 9999 FEW015 BKN030"
    },
    {
      "icao": "EPGD",
      "alert": "OK",
      "vis_m": 4500,
      "fzfg": false,
      "metar_trigger": false,
      "taf_trigger": false,
      "metar": "METAR EPGD 301830Z 32019KT 4500 -SHSN DRSN FEW010 SCT025CB M01/M04 Q1011 RESHSN",
      "taf": "TAF EPGD 301730Z 3018/3118 33018KT 8000 -SHSN SCT020CB BKN025"
    },
    {
      "icao": "EPKK",
      "alert": "OK",
      "vis_m": 9999,
      "fzfg": false,
      "metar_trigger": false,
      "taf_trigger": false,
      "metar": "METAR EPKK 301830Z 27012KT 9999 FEW020 SCT039 M03/M06 Q1012",
      "taf": "TAF EPKK 301730Z 3018/3118 27012KT 9999 FEW020 BKN040"
    },
    {
      "icao": "EPKT",
      "alert": "OK",
      "vis_m": 9999,
      "fzfg": false,
      "metar_trigger": false,
      "taf_trigger": false,
      "metar": "METAR EPKT 301830Z 30011KT 9999 FEW015 M04/M07 Q1013",
      "taf": "TAF EPKT 301730Z 3018/3118 28013KT 9999 FEW005 SCT020"
    },
    {
      "icao": "EPLB",
      "alert": "OK",
      "vis_m": 9999,
      "fzfg": false,
      "metar_trigger": false,
      "taf_trigger": false,
      "metar": "METAR EPLB 301830Z 28020G30KT 9999 -SHSN FEW011 BKN018CB OVC026 M03/M04 Q1003",
      "taf": "TAF EPLB 301730Z 3018/3118 29018KT 8000 BKN020"
    },
    {
      "icao": "EPMO",
      "alert": "OK",
      "vis_m": 500,
      "fzfg": false,
      "metar_trigger": false,
      "taf_trigger": false,
      "metar": "METAR EPMO 301830Z 31012KT 0500 R08/0700N +SHSN BLSN BKN004 BKN006CB OVC010 M02/M02 Q1007",
      "taf": "TAF EPMO 301730Z 3018/3118 29015KT 3000 SHSN BKN012 BKN016CB"
    },
    {
      "icao": "EPPO",
      "alert": "OK",
      "vis_m": 9999,
      "fzfg": false,
      "metar_trigger": false,
      "taf_trigger": false,
      "metar": "METAR EPPO 301830Z 30011KT CAVOK M02/M07 Q1016",
      "taf": "TAF EPPO 301730Z 3018/3118 30012KT 9999 FEW040"
    },
    {
      "icao": "EPRA",
      "alert": "OK",
      "vis_m": 9999,
      "fzfg": false,
      "metar_trigger": false,
      "taf_trigger": false,
      "metar": "METAR EPRA 301830Z 31020KT 9999 -SN BKN023 OVC035 M02/M06 Q1007",
      "taf": "TAF EPRA 301730Z 3018/3103 30014KT 9999 BKN035"
    },
    {
      "icao": "EPRZ",
      "alert": "OK",
      "vis_m": 9999,
      "fzfg": false,
      "metar_trigger": false,
      "taf_trigger": false,
      "metar": "METAR EPRZ 301830Z 28020G31KT 9999 FEW020CB M03/M07 Q1008 WS R27",
      "taf": "TAF EPRZ 301730Z 3018/3118 27013KT 9999 BKN030"
    },
    {
      "icao": "EPSC",
      "alert": "OK",
      "vis_m": 9999,
      "fzfg": false,
      "metar_trigger": false,
      "taf_trigger": false,
      "metar": "METAR EPSC 301830Z 31010KT 9999 FEW043 M01/M07 Q1019",
      "taf": "TAF EPSC 301730Z 3018/3118 30010KT 9999 SCT040"
    },
    {
      "icao": "EPSY",
      "alert": "OK",
      "vis_m": 9999,
      "fzfg": false,
      "metar_trigger": false,
      "taf_trigger": false,
      "metar": "METAR EPSY 301830Z 32011KT 290V010 9999 FEW015 M03/M03 Q1005",
      "taf": "TAF EPSY 301730Z 3018/3103 31010KT 9999 BKN040"
    },
    {
      "icao": "EPWA",
      "alert": "OK",
      "vis_m": 1600,
      "fzfg": false,
      "metar_trigger": false,
      "taf_trigger": false,
      "metar": "METAR EPWA 301830Z 30016KT 1600 1300W +SHSN BLSN BKN004 BKN009CB M02/M03 Q1007 NOSIG",
      "taf": "TAF EPWA 301730Z 3018/3118 29015KT 3000 SHSN BKN012 BKN016CB"
    },
    {
      "icao": "EPWR",
      "alert": "OK",
      "vis_m": 9999,
      "fzfg": false,
      "metar_trigger": false,
      "taf_trigger": false,
      "metar": "METAR EPWR 301830Z 30016KT CAVOK M01/M07 Q1017",
      "taf": "TAF EPWR 301730Z 3018/3118 30017KT CAVOK"
    },
    {
      "icao": "ESGG",
      "alert": "OK",
      "vis_m": 9999,
      "fzfg": false,
      "metar_trigger": false,
      "taf_trigger": false,
      "metar": "METAR ESGG 301850Z 26003KT CAVOK M04/M09 Q1019",
      "taf": "TAF ESGG 301730Z 3018/3118 VRB03KT CAVOK"
    },
    {
      "icao": "ESKN",
      "alert": "OK",
      "vis_m": 9999,
      "fzfg": false,
      "metar_trigger": false,
      "taf_trigger": false,
      "metar": "METAR ESKN 301850Z 30008KT CAVOK M05/M09 Q1015",
      "taf": "TAF ESKN 301730Z 3018/3118 33011KT CAVOK"
    },
    {
      "icao": "ESMS",
      "alert": "OK",
      "vis_m": 9999,
      "fzfg": false,
      "metar_trigger": false,
      "taf_trigger": false,
      "metar": "METAR ESMS 301850Z 32011KT CAVOK M03/M08 Q1020",
      "taf": "TAF ESMS 301727Z 3018/3118 32010KT CAVOK"
    },
    {
      "icao": "ESSA",
      "alert": "OK",
      "vis_m": 9999,
      "fzfg": false,
      "metar_trigger": false,
      "taf_trigger": false,
      "metar": "METAR ESSA 301850Z 30009KT CAVOK M06/M11 Q1013 NOSIG",
      "taf": "TAF ESSA 301730Z 3018/3118 33010KT CAVOK"
    },
    {
      "icao": "EYKA",
      "alert": "OK",
      "vis_m": 9999,
      "fzfg": false,
      "metar_trigger": false,
      "taf_trigger": false,
      "metar": "METAR EYKA 301850Z 29007KT 250V330 CAVOK M05/M07 Q1001",
      "taf": "TAF EYKA 301707Z 3018/3118 33010KT 9000 BKN020"
    },
    {
      "icao": "EYPA",
      "alert": "OK",
      "vis_m": 8000,
      "fzfg": false,
      "metar_trigger": false,
      "taf_trigger": false,
      "metar": "METAR EYPA 301850Z 01010G20KT 330V040 8000 -SHSN BKN046CB M02/M05 Q1006",
      "taf": "TAF EYPA 301706Z 3018/3118 36010KT 9000 SCT030"
    },
    {
      "icao": "EYVI",
      "alert": "OK",
      "vis_m": 9999,
      "fzfg": false,
      "metar_trigger": false,
      "taf_trigger": false,
      "metar": "METAR EYVI 301850Z 31009KT 280V340 9999 -SN SCT012 M06/M08 Q0997 TEMPO 1500 SN BKN010",
      "taf": "TAF EYVI 301708Z 3018/3118 33012KT 9000 SCT010 BKN015"
    },
    {
      "icao": "GCFV",
      "alert": "OK",
      "vis_m": 9999,
      "fzfg": false,
      "metar_trigger": false,
      "taf_trigger": false,
      "metar": "METAR GCFV 301830Z 00000KT 9999 FEW025 18/14 Q1021",
      "taf": "TAF GCFV 301400Z 3015/3115 13010KT 9999 FEW025 TX21/3114Z TN14/3106Z"
    },
    {
      "icao": "GCLP",
      "alert": "OK",
      "vis_m": 9999,
      "fzfg": false,
      "metar_trigger": false,
      "taf_trigger": false,
      "metar": "METAR GCLP 301830Z 16005KT 060V200 9999 BKN030 19/14 Q1021 NOSIG",
      "taf": "TAF GCLP 301400Z 3015/3115 16010KT 9999 FEW035 TX22/3114Z TN15/3106Z"
    },
    {
      "icao": "GCTS",
      "alert": "OK",
      "vis_m": 9999,
      "fzfg": false,
      "metar_trigger": false,
      "taf_trigger": false,
      "metar": "METAR GCTS 301830Z 24009KT 9999 FEW020 SCT030 19/14 Q1021 NOSIG",
      "taf": "TAF GCTS 301400Z 3015/3115 21010KT 9999 SCT025 TX24/3114Z TN16/3106Z"
    },
    {
      "icao": "GMAD",
      "alert": "OK",
      "vis_m": 9999,
      "fzfg": false,
      "metar_trigger": false,
      "taf_trigger": false,
      "metar": "METAR GMAD 301830Z 27006KT CAVOK 14/12 Q1021 NOSIG",
      "taf": "TAF GMAD 301700Z 3018/3124 20008KT 8000 FEW020"
    },
    {
      "icao": "GMMN",
      "alert": "OK",
      "vis_m": 9999,
      "fzfg": false,
      "metar_trigger": false,
      "taf_trigger": false,
      "metar": "METAR GMMN 301830Z VRB02KT 9999 BKN030 14/09 Q1020 NOSIG",
      "taf": "TAF GMMN 301700Z 3018/3124 22006KT 9999 BKN030"
    },
    {
      "icao": "GMMX",
      "alert": "OK",
      "vis_m": 9999,
      "fzfg": false,
      "metar_trigger": false,
      "taf_trigger": false,
      "metar": "METAR GMMX 301830Z 30004KT 9999 BKN080 14/09 Q1021 NOSIG",
      "taf": "TAF GMMX 301700Z 3018/3124 20005KT 8000 BKN090"
    },
    {
      "icao": "HEGN",
      "alert": "OK",
      "vis_m": 9999,
      "fzfg": false,
      "metar_trigger": false,
      "taf_trigger": false,
      "metar": "METAR HEGN 301800Z 25005KT CAVOK 17/09 Q1020 NOSIG",
      "taf": "TAF HEGN 301700Z 3018/3124 05010KT CAVOK"
    },
    {
      "icao": "HEMA",
      "alert": "OK",
      "vis_m": 9999,
      "fzfg": false,
      "metar_trigger": false,
      "taf_trigger": false,
      "metar": "METAR HEMA 301800Z 23004KT CAVOK 17/09 Q1019 NOSIG",
      "taf": "TAF HEMA 301700Z 3018/3124 09010KT CAVOK"
    },
    {
      "icao": "HESH",
      "alert": "OK",
      "vis_m": 9999,
      "fzfg": false,
      "metar_trigger": false,
      "taf_trigger": false,
      "metar": "METAR HESH 301800Z 20004KT CAVOK 20/09 Q1019 NOSIG",
      "taf": "TAF HESH 301700Z 3018/3124 05010KT CAVOK"
    },
    {
      "icao": "HESX",
      "alert": "OK",
      "vis_m": 9999,
      "fzfg": false,
      "metar_trigger": false,
      "taf_trigger": false,
      "metar": "METAR HESX 301800Z 18007KT CAVOK 16/07 Q1018 NOSIG",
      "taf": ""
    },
    {
      "icao": "LATI",
      "alert": "OK",
      "vis_m": 9999,
      "fzfg": false,
      "metar_trigger": false,
      "taf_trigger": false,
      "metar": "METAR LATI 301850Z VRB03KT CAVOK 05/M01 Q1009 NOSIG",
      "taf": ""
    },
    {
      "icao": "LBPD",
      "alert": "OK",
      "vis_m": 9999,
      "fzfg": false,
      "metar_trigger": false,
      "taf_trigger": false,
      "metar": "METAR LBPD 301830Z AUTO 27021KT 9999 SCT140/// 04/M06 Q1011 NOSIG",
      "taf": "TAF LBPD 301700Z 3018/3118 28016KT 9999 SCT050"
    },
    {
      "icao": "LBSF",
      "alert": "OK",
      "vis_m": 9999,
      "fzfg": false,
      "metar_trigger": false,
      "taf_trigger": false,
      "metar": "METAR LBSF 301830Z AUTO 28015KT 9999 SCT049/// BKN056/// M00/M04 Q1013 NOSIG",
      "taf": "TAF LBSF 301700Z 3018/3118 28012KT 9999 SCT050"
    },
    {
      "icao": "LBWN",
      "alert": "OK",
      "vis_m": 9999,
      "fzfg": false,
      "metar_trigger": false,
      "taf_trigger": false,
      "metar": "METAR LBWN 301830Z AUTO 30005KT 270V330 9999 NSC 01/M03 Q1009 NOSIG",
      "taf": "TAF LBWN 301700Z 3018/3118 29012KT 9999 SCT020 BKN045"
    },
    {
      "icao": "LCLK",
      "alert": "OK",
      "vis_m": 9999,
      "fzfg": false,
      "metar_trigger": false,
      "taf_trigger": false,
      "metar": "METAR LCLK 301830Z VRB03KT 9999 SCT030 13/10 Q1016 NOSIG",
      "taf": "TAF LCLK 301730Z 3018/3118 28006KT 9999 FEW025 SCT045"
    },
    {
      "icao": "LCPH",
      "alert": "OK",
      "vis_m": 9999,
      "fzfg": false,
      "metar_trigger": false,
      "taf_trigger": false,
      "metar": "METAR LCPH 301830Z 17008KT 160V240 9999 FEW025 SCT040 BKN060 17/10 Q1015 NOSIG",
      "taf": "TAF LCPH 301730Z 3018/3118 21009KT 9999 FEW025 SCT040"
    },
    {
      "icao": "LEAL",
      "alert": "OK",
      "vis_m": 9999,
      "fzfg": false,
      "metar_trigger": false,
      "taf_trigger": false,
      "metar": "METAR LEAL 301830Z 26005KT 230V340 CAVOK 11/07 Q1018 NOSIG",
      "taf": "TAF LEAL 301700Z 3018/3118 29008KT CAVOK TX16/3114Z TN07/3106Z"
    },
    {
      "icao": "LEBB",
      "alert": "OK",
      "vis_m": 9999,
      "fzfg": false,
      "metar_trigger": false,
      "taf_trigger": false,
      "metar": "METAR LEBB 301830Z 28002KT 9999 SCT023 BKN030 10/09 Q1022 NOSIG",
      "taf": "TAF LEBB 301700Z 3018/3118 VRB03KT 9999 SCT010 BKN020 TX10/3114Z TN07/3108Z"
    },
    {
      "icao": "LEBL",
      "alert": "OK",
      "vis_m": 9999,
      "fzfg": false,
      "metar_trigger": false,
      "taf_trigger": false,
      "metar": "METAR LEBL 301830Z 31008KT 250V350 CAVOK 09/05 Q1016 NOSIG",
      "taf": ""
    },
    {
      "icao": "LECH",
      "alert": "OK",
      "vis_m": 9000,
      "fzfg": false,
      "metar_trigger": false,
      "taf_trigger": false,
      "metar": "METAR LECH 301830Z AUTO 33007KT 290V010 9000 NCD 11/03 Q1018",
      "taf": ""
    },
    {
      "icao": "LEMD",
      "alert": "OK",
      "vis_m": 9999,
      "fzfg": false,
      "metar_trigger": false,
      "taf_trigger": false,
      "metar": "METAR LEMD 301830Z VRB02KT 9999 FEW050 05/04 Q1019 NOSIG",
      "taf": "TAF LEMD 301700Z 3018/3124 VRB03KT CAVOK TX08/3114Z TNM02/3106Z"
    },
    {
      "icao": "LEMG",
      "alert": "OK",
      "vis_m": 9999,
      "fzfg": false,
      "metar_trigger": false,
      "taf_trigger": false,
      "metar": "METAR LEMG 301830Z 28003KT 240V330 CAVOK 11/07 Q1020 NOSIG",
      "taf": "TAF LEMG 301700Z 3018/3118 29007KT CAVOK TX18/3114Z TN08/3106Z"
    },
    {
      "icao": "LEVC",
      "alert": "OK",
      "vis_m": 9999,
      "fzfg": false,
      "metar_trigger": false,
      "taf_trigger": false,
      "metar": "METAR LEVC 301830Z 15001KT CAVOK 11/08 Q1017 NOSIG",
      "taf": "TAF LEVC 301700Z 3018/3118 29006KT CAVOK TX15/3114Z TN05/3106Z"
    },
    {
      "icao": "LEXJ",
      "alert": "OK",
      "vis_m": 9999,
      "fzfg": false,
      "metar_trigger": false,
      "taf_trigger": false,
      "metar": "METAR LEXJ 301830Z 36003KT 290V050 9999 FEW018 BKN023 10/08 Q1023",
      "taf": "TAF LEXJ 301400Z 3015/3115 VRB03KT 9999 SCT010 BKN020 TX10/3115Z TN07/3108Z"
    },
    {
      "icao": "LEZG",
      "alert": "OK",
      "vis_m": 9999,
      "fzfg": false,
      "metar_trigger": false,
      "taf_trigger": false,
      "metar": "METAR LEZG 301830Z 26012KT 9999 FEW040 09/06 Q1018 NOSIG",
      "taf": "TAF LEZG 301700Z 3018/3118 29013KT 9999 FEW020 TX11/3114Z TN05/3106Z"
    },
    {
      "icao": "LEZL",
      "alert": "OK",
      "vis_m": 9999,
      "fzfg": false,
      "metar_trigger": false,
      "taf_trigger": false,
      "metar": "METAR LEZL 301830Z VRB02KT CAVOK 10/10 Q1021 NOSIG",
      "taf": "TAF LEZL 301400Z 3015/3115 05005KT CAVOK TX16/3015Z TN04/3106Z"
    },
    {
      "icao": "LFBD",
      "alert": "OK",
      "vis_m": 5000,
      "fzfg": false,
      "metar_trigger": false,
      "taf_trigger": false,
      "metar": "METAR LFBD 301830Z AUTO VRB02KT 5000 BR NSC M01/M02 Q1023 NOSIG",
      "taf": "TAF LFBD 301700Z 3018/3124 VRB03KT CAVOK TX05/3114Z TNM03/3106Z"
    },
    {
      "icao": "LFLL",
      "alert": "OK",
      "vis_m": 9999,
      "fzfg": false,
      "metar_trigger": false,
      "taf_trigger": false,
      "metar": "METAR LFLL 301830Z VRB02KT 9999 FEW032 M02/M03 Q1022 NOSIG",
      "taf": "TAF LFLL 301700Z 3018/3124 36005KT 9999 BKN030"
    },
    {
      "icao": "LFLS",
      "alert": "OK",
      "vis_m": 9999,
      "fzfg": false,
      "metar_trigger": false,
      "taf_trigger": false,
      "metar": "METAR LFLS 301830Z AUTO 35007KT 310V020 9999 FEW011 M01/M02 Q1021 TEMPO 4000 BR OVC004",
      "taf": ""
    },
    {
      "icao": "LFMN",
      "alert": "OK",
      "vis_m": 9999,
      "fzfg": false,
      "metar_trigger": false,
      "taf_trigger": false,
      "metar": "METAR LFMN 301830Z 01007KT 320V060 9999 SCT033 10/05 Q1012 NOSIG",
      "taf": "TAF LFMN 301400Z 3015/3121 10012KT 9999 FEW025"
    },
    {
      "icao": "LFOB",
      "alert": "OK",
      "vis_m": 9999,
      "fzfg": false,
      "metar_trigger": false,
      "taf_trigger": false,
      "metar": "METAR LFOB 301830Z AUTO 35005KT CAVOK M01/M02 Q1031",
      "taf": "TAF LFOB 301100Z 3012/3112 02008KT CAVOK"
    },
    {
      "icao": "LFPO",
      "alert": "OK",
      "vis_m": 9999,
      "fzfg": false,
      "metar_trigger": false,
      "taf_trigger": false,
      "metar": "METAR LFPO 301830Z AUTO 03010KT CAVOK 02/M02 Q1030",
      "taf": "TAF LFPO 301700Z 3018/3124 01005KT CAVOK"
    },
    {
      "icao": "LFSB",
      "alert": "OK",
      "vis_m": 8000,
      "fzfg": true,
      "metar_trigger": false,
      "taf_trigger": false,
      "metar": "METAR LFSB 301830Z AUTO 31005KT 8000 FEW049 M03/M04 Q1026 TEMPO 0500 FZFG VV///",
      "taf": "TAF LFSB 301700Z 3018/3118 33005KT 8000 BKN040"
    },
    {
      "icao": "LGAV",
      "alert": "OK",
      "vis_m": 9999,
      "fzfg": false,
      "metar_trigger": false,
      "taf_trigger": false,
      "metar": "METAR LGAV 301850Z COR 21009KT 180V240 9999 FEW025 13/06 Q1007 NOSIG",
      "taf": "TAF LGAV 301700Z 3018/3118 VRB05KT 9999 SCT025 BKN070"
    },
    {
      "icao": "LGTS",
      "alert": "OK",
      "vis_m": 9999,
      "fzfg": false,
      "metar_trigger": false,
      "taf_trigger": false,
      "metar": "METAR LGTS 301850Z 35014G25KT CAVOK 07/M03 Q1009 NOSIG",
      "taf": "TAF LGTS 301700Z 3018/3118 34015G25KT CAVOK"
    },
    {
      "icao": "LHBP",
      "alert": "OK",
      "vis_m": 9999,
      "fzfg": false,
      "metar_trigger": false,
      "taf_trigger": false,
      "metar": "METAR LHBP 301830Z 31013KT 9999 FEW045 M01/M07 Q1016 TEMPO 34016G26KT SHSN SCT020TCU BKN050",
      "taf": "TAF LHBP 301715Z 3018/3118 31010KT CAVOK"
    },
    {
      "icao": "LHDC",
      "alert": "OK",
      "vis_m": 9999,
      "fzfg": false,
      "metar_trigger": false,
      "taf_trigger": false,
      "metar": "METAR LHDC 301815Z AUTO 28007KT 250V310 CAVOK M03/M10 Q1014 NOSIG",
      "taf": "TAF LHDC 301415Z 3015/3024 36010KT CAVOK"
    },
    {
      "icao": "LIBD",
      "alert": "OK",
      "vis_m": 9999,
      "fzfg": false,
      "metar_trigger": false,
      "taf_trigger": false,
      "metar": "METAR LIBD 301850Z 02009KT 350V050 9999 SCT030 12/05 Q1011",
      "taf": "TAF LIBD 301700Z 3018/3118 30007KT 9999 FEW050"
    },
    {
      "icao": "LIBG",
      "alert": "OK",
      "vis_m": 9999,
      "fzfg": false,
      "metar_trigger": false,
      "taf_trigger": false,
      "metar": "METAR LIBG 301750Z 27004KT CAVOK 08/06 Q1009",
      "taf": "TAF LIBG 301700Z 3018/3103 33007KT CAVOK"
    },
    {
      "icao": "LIBP",
      "alert": "OK",
      "vis_m": 9999,
      "fzfg": false,
      "metar_trigger": false,
      "taf_trigger": false,
      "metar": "METAR LIBP 301850Z AUTO 05010KT 9999 OVC043/// 10/02 Q1015",
      "taf": "TAF LIBP 301700Z 3018/3118 VRB05KT 9999 SCT045"
    },
    {
      "icao": "LIBR",
      "alert": "OK",
      "vis_m": 9999,
      "fzfg": false,
      "metar_trigger": false,
      "taf_trigger": false,
      "metar": "METAR LIBR 301850Z 35012KT 9999 SCT025 12/07 Q1009",
      "taf": "TAF LIBR 301700Z 3018/3118 32006KT 9999 FEW030"
    },
    {
      "icao": "LICA",
      "alert": "OK",
      "vis_m": 9999,
      "fzfg": false,
      "metar_trigger": false,
      "taf_trigger": false,
      "metar": "METAR LICA 301850Z AUTO 26005KT 9999 NCD 12/07 Q1010",
      "taf": "TAF LICA 301700Z 3018/3118 VRB05KT 9999 SCT040"
    },
    {
      "icao": "LICC",
      "alert": "OK",
      "vis_m": 9999,
      "fzfg": false,
      "metar_trigger": false,
      "taf_trigger": false,
      "metar": "METAR LICC 301850Z 25008KT CAVOK 11/07 Q1011",
      "taf": "TAF LICC 301700Z 3018/3118 26010KT 9999 FEW050"
    },
    {
      "icao": "LICJ",
      "alert": "OK",
      "vis_m": 9999,
      "fzfg": false,
      "metar_trigger": false,
      "taf_trigger": false,
      "metar": "METAR LICJ 301850Z 18004KT 9999 SCT025 13/09 Q1012",
      "taf": "TAF LICJ 301700Z 3018/3118 VRB06KT 9999 SCT020"
    },
    {
      "icao": "LIMC",
      "alert": "OK",
      "vis_m": 9999,
      "fzfg": false,
      "metar_trigger": false,
      "taf_trigger": false,
      "metar": "METAR LIMC 301850Z 02007KT 9999 BKN030 02/01 Q1017 NOSIG",
      "taf": "TAF LIMC 301700Z 3018/3124 02010KT 9999 SCT040"
    },
    {
      "icao": "LIME",
      "alert": "OK",
      "vis_m": 9999,
      "fzfg": false,
      "metar_trigger": false,
      "taf_trigger": false,
      "metar": "METAR LIME 301850Z 01004KT 9999 SCT030 03/01 Q1017 NOSIG",
      "taf": "TAF LIME 301700Z 3018/3118 VRB05KT 9999 SCT040"
    },
    {
      "icao": "LIMF",
      "alert": "OK",
      "vis_m": 2500,
      "fzfg": false,
      "metar_trigger": false,
      "taf_trigger": false,
      "metar": "METAR LIMF 301850Z 29005KT 2500 BR SCT010 BKN013 03/01 Q1017",
      "taf": "TAF LIMF 301700Z 3018/3118 VRB05KT 1500 BR BKN003"
    },
    {
      "icao": "LIMJ",
      "alert": "OK",
      "vis_m": 9999,
      "fzfg": false,
      "metar_trigger": false,
      "taf_trigger": false,
      "metar": "METAR LIMJ 301850Z 04020KT CAVOK 08/03 Q1013",
      "taf": "TAF LIMJ 301700Z 3018/3118 02014KT 9999 FEW020"
    },
    {
      "icao": "LIPE",
      "alert": "OK",
      "vis_m": 4000,
      "fzfg": false,
      "metar_trigger": false,
      "taf_trigger": false,
      "metar": "METAR LIPE 301850Z 24002KT 4000 BR OVC020 04/03 Q1017",
      "taf": "TAF LIPE 301700Z 3018/3118 VRB04KT 3000 BR BKN010"
    },
    {
      "icao": "LIPH",
      "alert": "OK",
      "vis_m": 9999,
      "fzfg": false,
      "metar_trigger": false,
      "taf_trigger": false,
      "metar": "METAR LIPH 301850Z 08009KT CAVOK 03/M02 Q1018",
      "taf": "TAF LIPH 301700Z 3018/3118 VRB04KT 9999 SCT045"
    },
    {
      "icao": "LIPQ",
      "alert": "OK",
      "vis_m": 9999,
      "fzfg": false,
      "metar_trigger": false,
      "taf_trigger": false,
      "metar": "METAR LIPQ 301850Z AUTO 12005KT 9999 NCD 03/M06 Q1018",
      "taf": "TAF LIPQ 301700Z 3018/3118 09010KT 9999 SCT050"
    },
    {
      "icao": "LIPR",
      "alert": "OK",
      "vis_m": 2500,
      "fzfg": false,
      "metar_trigger": false,
      "taf_trigger": false,
      "metar": "METAR LIPR 301850Z 27005KT 2500 BR BKN015 03/02 Q1017 RERA",
      "taf": "TAF LIPR 301700Z 3018/3118 29005KT 3000 BR BKN010"
    },
    {
      "icao": "LIPX",
      "alert": "OK",
      "vis_m": 9999,
      "fzfg": false,
      "metar_trigger": false,
      "taf_trigger": false,
      "metar": "METAR LIPX 301850Z 06005KT CAVOK 05/M04 Q1017",
      "taf": "TAF LIPX 301700Z 3018/3118 07006KT 9999 SCT050"
    },
    {
      "icao": "LIPY",
      "alert": "OK",
      "vis_m": 3700,
      "fzfg": false,
      "metar_trigger": false,
      "taf_trigger": false,
      "metar": "METAR LIPY 301850Z AUTO 32005KT 3700 DZ OVC036/// 06/05 Q1016",
      "taf": "TAF LIPY 301700Z 3018/3118 09010KT 9999 SCT045"
    },
    {
      "icao": "LIPZ",
      "alert": "OK",
      "vis_m": 9999,
      "fzfg": false,
      "metar_trigger": false,
      "taf_trigger": false,
      "metar": "METAR LIPZ 301850Z 08008KT 9999 SCT060 05/00 Q1018 NOSIG",
      "taf": "TAF LIPZ 301700Z 3018/3124 08010KT 9999 SCT040"
    },
    {
      "icao": "LIRF",
      "alert": "OK",
      "vis_m": 9999,
      "fzfg": false,
      "metar_trigger": false,
      "taf_trigger": false,
      "metar": "METAR LIRF 301850Z 32004KT CAVOK 08/05 Q1012 NOSIG",
      "taf": "TAF LIRF 301700Z 3018/3124 34007KT CAVOK"
    },
    {
      "icao": "LIRN",
      "alert": "OK",
      "vis_m": 9999,
      "fzfg": false,
      "metar_trigger": false,
      "taf_trigger": false,
      "metar": "METAR LIRN 301850Z AUTO 06003KT 030V110 9999 NCD 08/04 Q1011",
      "taf": "TAF LIRN 301700Z 3018/3118 02005KT CAVOK"
    },
    {
      "icao": "LIRP",
      "alert": "OK",
      "vis_m": 9999,
      "fzfg": false,
      "metar_trigger": false,
      "taf_trigger": false,
      "metar": "METAR LIRP 301845Z 12008KT CAVOK 07/07 Q1012 NOSIG",
      "taf": "TAF LIRP 301700Z 3018/3118 12005KT 9999 FEW050"
    },
    {
      "icao": "LIRZ",
      "alert": "OK",
      "vis_m": 9999,
      "fzfg": false,
      "metar_trigger": false,
      "taf_trigger": false,
      "metar": "METAR LIRZ 301850Z AUTO 02007KT 9999 BKN066/// 07/04 Q1013",
      "taf": "TAF LIRZ 301700Z 3018/3118 03010KT 9999 SCT050"
    },
    {
      "icao": "LJLJ",
      "alert": "OK",
      "vis_m": 9999,
      "fzfg": false,
      "metar_trigger": false,
      "taf_trigger": false,
      "metar": "METAR LJLJ 301830Z 27001KT 9999 -SN FEW010 BKN027 M02/M03 Q1019 NOSIG",
      "taf": "TAF LJLJ 301700Z 3018/3118 30002KT 9999 BKN033"
    },
    {
      "icao": "LKMT",
      "alert": "OK",
      "vis_m": 9999,
      "fzfg": false,
      "metar_trigger": false,
      "taf_trigger": false,
      "metar": "METAR LKMT 301830Z 31006KT 270V340 9999 FEW048 M03/M08 Q1016 NOSIG",
      "taf": "TAF LKMT 301700Z 3018/3118 31010KT 9999 SCT020"
    },
    {
      "icao": "LKPR",
      "alert": "OK",
      "vis_m": 9999,
      "fzfg": false,
      "metar_trigger": false,
      "taf_trigger": false,
      "metar": "METAR LKPR 301830Z 27012KT 9999 -SHSN FEW020 BKN045 M02/M07 Q1020 NOSIG",
      "taf": "TAF LKPR 301700Z 3018/3124 29015KT 9999 SCT025"
    },
    {
      "icao": "LLBG",
      "alert": "OK",
      "vis_m": 9999,
      "fzfg": false,
      "metar_trigger": false,
      "taf_trigger": false,
      "metar": "METAR LLBG 301850Z COR 12005KT CAVOK 14/09 Q1019 NOSIG",
      "taf": "TAF LLBG 301706Z 3018/3118 15007KT CAVOK"
    },
    {
      "icao": "LMML",
      "alert": "OK",
      "vis_m": 9999,
      "fzfg": false,
      "metar_trigger": false,
      "taf_trigger": false,
      "metar": "METAR LMML 301845Z 30009KT 9999 FEW029 13/09 Q1013 NOSIG",
      "taf": "TAF LMML 301700Z 3018/3118 30015KT 9999 FEW020"
    },
    {
      "icao": "LOWW",
      "alert": "OK",
      "vis_m": 9999,
      "fzfg": false,
      "metar_trigger": false,
      "taf_trigger": false,
      "metar": "METAR LOWW 301850Z 31022KT 9999 FEW050 M00/M08 Q1019 NOSIG",
      "taf": "TAF LOWW 301715Z 3018/3124 31015KT CAVOK TX02/3124Z TNM03/3106Z"
    },
    {
      "icao": "LPFR",
      "alert": "OK",
      "vis_m": 9999,
      "fzfg": false,
      "metar_trigger": false,
      "taf_trigger": false,
      "metar": "METAR LPFR 301830Z 02006KT 360V070 CAVOK 12/11 Q1020",
      "taf": "TAF LPFR 301700Z 3018/3118 06007KT CAVOK"
    },
    {
      "icao": "LPMA",
      "alert": "OK",
      "vis_m": 9999,
      "fzfg": false,
      "metar_trigger": false,
      "taf_trigger": false,
      "metar": "METAR LPMA 301830Z VRB02KT 9999 SCT013 19/15 Q1018",
      "taf": "TAF LPMA 301700Z 3018/3118 VRB05KT 9999 SCT015"
    },
    {
      "icao": "LPPR",
      "alert": "OK",
      "vis_m": 7000,
      "fzfg": false,
      "metar_trigger": false,
      "taf_trigger": false,
      "metar": "METAR LPPR 301830Z 35002KT 7000 3000N BCFG NSC 08/07 Q1021",
      "taf": "TAF LPPR 301700Z 3018/3118 VRB02KT CAVOK"
    },
    {
      "icao": "LPPS",
      "alert": "OK",
      "vis_m": 9999,
      "fzfg": false,
      "metar_trigger": false,
      "taf_trigger": false,
      "metar": "METAR LPPS 301830Z 28006KT 9999 SCT010 18/16 Q1018",
      "taf": "TAF LPPS 301700Z 3018/3124 27007KT 9999 SCT012"
    },
    {
      "icao": "LPPT",
      "alert": "OK",
      "vis_m": 9999,
      "fzfg": false,
      "metar_trigger": false,
      "taf_trigger": false,
      "metar": "METAR LPPT 301830Z VRB02KT 9999 FEW012 09/08 Q1020",
      "taf": "TAF LPPT 301700Z 3018/3124 VRB02KT 9999 FEW008"
    },
    {
      "icao": "LQBK",
      "alert": "OK",
      "vis_m": 9999,
      "fzfg": false,
      "metar_trigger": false,
      "taf_trigger": false,
      "metar": "METAR LQBK 301830Z VRB03KT CAVOK M04/M05 Q1021 NOSIG",
      "taf": "TAF LQBK 301700Z 3018/3118 30007KT 9999 SCT040 TX02/3113Z TNM07/3105Z"
    },
    {
      "icao": "LQSA",
      "alert": "OK",
      "vis_m": 9999,
      "fzfg": false,
      "metar_trigger": false,
      "taf_trigger": false,
      "metar": "METAR LQSA 301830Z 27004KT CAVOK M04/M08 Q1017 NOSIG",
      "taf": "TAF LQSA 301700Z 3018/3118 29005KT 9999 SCT040 TXM00/3113Z TNM08/3106Z"
    },
    {
      "icao": "LQTZ",
      "alert": "OK",
      "vis_m": 9999,
      "fzfg": false,
      "metar_trigger": false,
      "taf_trigger": false,
      "metar": "METAR LQTZ 301830Z VRB01KT CAVOK M04/M07 Q1019",
      "taf": "TAF LQTZ 301700Z 3018/3118 27005KT 9999 SCT040 TX02/3113Z TNM07/3105Z"
    },
    {
      "icao": "LRBC",
      "alert": "OK",
      "vis_m": 9999,
      "fzfg": false,
      "metar_trigger": false,
      "taf_trigger": false,
      "metar": "METAR LRBC 301830Z 34005KT 280V010 9999 -SN SCT006 FEW028CB BKN045 M03/M05 Q1008",
      "taf": "TAF LRBC 301700Z 3018/3103 VRB04KT 9999 BKN045"
    },
    {
      "icao": "LRBS",
      "alert": "OK",
      "vis_m": 9999,
      "fzfg": false,
      "metar_trigger": false,
      "taf_trigger": false,
      "metar": "METAR LRBS 301830Z VRB02KT CAVOK M01/M04 Q1010 NOSIG",
      "taf": "TAF LRBS 301700Z 3018/3118 02006KT CAVOK"
    },
    {
      "icao": "LRBV",
      "alert": "OK",
      "vis_m": 9999,
      "fzfg": false,
      "metar_trigger": false,
      "taf_trigger": false,
      "metar": "METAR LRBV 301830Z 30004KT 260V350 9999 FEW020 SCT030 M05/M09 Q1010",
      "taf": "TAF LRBV 301700Z 3018/3103 29012KT 9999 BKN040"
    },
    {
      "icao": "LRCL",
      "alert": "OK",
      "vis_m": 9999,
      "fzfg": false,
      "metar_trigger": false,
      "taf_trigger": false,
      "metar": "METAR LRCL 301830Z 27007KT 9999 FEW044 SCT062 M04/M08 Q1012",
      "taf": "TAF LRCL 301700Z 3018/3103 28008KT 9999 BKN040"
    },
    {
      "icao": "LRCV",
      "alert": "OK",
      "vis_m": 9999,
      "fzfg": false,
      "metar_trigger": false,
      "taf_trigger": false,
      "metar": "METAR LRCV 301830Z 31009KT CAVOK M01/M04 Q1013",
      "taf": "TAF LRCV 301700Z 3018/3103 30012KT CAVOK"
    },
    {
      "icao": "LRIA",
      "alert": "OK",
      "vis_m": 9999,
      "fzfg": false,
      "metar_trigger": false,
      "taf_trigger": false,
      "metar": "METAR LRIA 301830Z 24006KT 200V280 CAVOK M02/M10 Q1008",
      "taf": "TAF LRIA 301700Z 3018/3103 28008KT CAVOK"
    },
    {
      "icao": "LROP",
      "alert": "OK",
      "vis_m": 9999,
      "fzfg": false,
      "metar_trigger": false,
      "taf_trigger": false,
      "metar": "METAR LROP 301830Z VRB02KT CAVOK M01/M05 Q1010 NOSIG",
      "taf": "TAF LROP 301700Z 3018/3118 02008KT CAVOK"
    },
    {
      "icao": "LRSB",
      "alert": "OK",
      "vis_m": 9999,
      "fzfg": false,
      "metar_trigger": false,
      "taf_trigger": false,
      "metar": "METAR LRSB 301830Z 01005KT 9999 FEW018 BKN028 M04/M05 Q1011",
      "taf": "TAF LRSB 301700Z 3018/3118 01008KT 9999 BKN040"
    },
    {
      "icao": "LRSM",
      "alert": "OK",
      "vis_m": 9999,
      "fzfg": false,
      "metar_trigger": false,
      "taf_trigger": false,
      "metar": "METAR LRSM 301830Z AUTO 23006KT 9999 NCD M05/M08 Q1012",
      "taf": "TAF LRSM 301400Z 3015/3024 29008KT 9999 BKN040"
    },
    {
      "icao": "LRSV",
      "alert": "OK",
      "vis_m": 9999,
      "fzfg": false,
      "metar_trigger": false,
      "taf_trigger": false,
      "metar": "METAR LRSV 301830Z 22007KT CAVOK M06/M10 Q1006",
      "taf": "TAF LRSV 301700Z 3018/3103 30011KT CAVOK"
    },
    {
      "icao": "LRTM",
      "alert": "OK",
      "vis_m": 9999,
      "fzfg": false,
      "metar_trigger": false,
      "taf_trigger": false,
      "metar": "METAR LRTM 301830Z AUTO 27008KT 9999 R25////// NCD M06/M09 Q1011",
      "taf": "TAF LRTM 301400Z 3015/3024 30012KT 5000 -SN SCT025 BKN040"
    },
    {
      "icao": "LRTR",
      "alert": "OK",
      "vis_m": 9999,
      "fzfg": false,
      "metar_trigger": false,
      "taf_trigger": false,
      "metar": "METAR LRTR 301830Z COR 30007KT CAVOK M03/M07 Q1016",
      "taf": "TAF LRTR 301700Z 3018/3118 30009KT CAVOK"
    },
    {
      "icao": "LTAC",
      "alert": "OK",
      "vis_m": 9999,
      "fzfg": false,
      "metar_trigger": false,
      "taf_trigger": false,
      "metar": "METAR LTAC 301850Z VRB02KT 9999 SCT040 BKN080 M02/M06 Q1007 NOSIG",
      "taf": "TAF LTAC 301640Z 3018/3118 24008KT 9999 SCT040 BKN100"
    },
    {
      "icao": "LTFM",
      "alert": "OK",
      "vis_m": 3400,
      "fzfg": false,
      "metar_trigger": false,
      "taf_trigger": false,
      "metar": "METAR LTFM 301850Z 01023KT 3400 SHSNRA SCT013 FEW018CB BKN025 03/01 Q1009 RETSRASN BECMG TL1930 9999 NSW",
      "taf": ""
    },
    {
      "icao": "LUKK",
      "alert": "OK",
      "vis_m": 9999,
      "fzfg": false,
      "metar_trigger": false,
      "taf_trigger": false,
      "metar": "METAR LUKK 301830Z 33011KT CAVOK M03/M10 Q1007 NOSIG",
      "taf": "TAF LUKK 301717Z 3018/3118 29012KT 9999 SCT035"
    },
    {
      "icao": "LWOH",
      "alert": "OK",
      "vis_m": 9999,
      "fzfg": false,
      "metar_trigger": false,
      "taf_trigger": false,
      "metar": "METAR LWOH 301850Z 33012KT 280V360 9999 SCT050 02/M05 Q1009",
      "taf": "TAF LWOH 301720Z 3018/3118 36010KT 9999 BKN040 BKN070"
    },
    {
      "icao": "LWSK",
      "alert": "OK",
      "vis_m": 9999,
      "fzfg": false,
      "metar_trigger": false,
      "taf_trigger": false,
      "metar": "METAR LWSK 301850Z 36013KT 9999 SCT040 BKN060 03/M04 Q1014 NOSIG",
      "taf": "TAF LWSK 301720Z 3018/3118 36015KT 9999 BKN050 BKN070"
    },
    {
      "icao": "LYBE",
      "alert": "OK",
      "vis_m": 9999,
      "fzfg": false,
      "metar_trigger": false,
      "taf_trigger": false,
      "metar": "METAR LYBE 301830Z 30009KT CAVOK M03/M06 Q1018 NOSIG",
      "taf": "TAF LYBE 301700Z 3018/3118 26008KT CAVOK TX00/3112Z TNM06/3106Z"
    },
    {
      "icao": "LYNI",
      "alert": "OK",
      "vis_m": 9999,
      "fzfg": false,
      "metar_trigger": false,
      "taf_trigger": false,
      "metar": "METAR LYNI 301830Z 32012KT 9999 FEW033 SCT060 01/M06 Q1017 NOSIG",
      "taf": "TAF LYNI 301700Z 3018/3118 32005KT 9999 SCT035 TX01/3018Z TNM05/3103Z"
    },
    {
      "icao": "LYPG",
      "alert": "OK",
      "vis_m": 9999,
      "fzfg": false,
      "metar_trigger": false,
      "taf_trigger": false,
      "metar": "METAR LYPG 301830Z 01016KT 9999 FEW040 BKN090 08/M08 Q1012 TEMPO 02030KT",
      "taf": "TAF LYPG 301700Z 3018/3118 01015G25KT 9999 SCT090 TX07/3112Z TN03/3105Z"
    },
    {
      "icao": "LZIB",
      "alert": "OK",
      "vis_m": 9999,
      "fzfg": false,
      "metar_trigger": false,
      "taf_trigger": false,
      "metar": "METAR LZIB 301830Z 32014KT 9999 -SHSN DRSN FEW012 SCT020 M01/M05 Q1019 NOSIG",
      "taf": ""
    },
    {
      "icao": "LZKZ",
      "alert": "OK",
      "vis_m": 9999,
      "fzfg": false,
      "metar_trigger": false,
      "taf_trigger": false,
      "metar": "METAR LZKZ 301830Z 28007KT CAVOK M04/M12 Q1011 NOSIG",
      "taf": "TAF LZKZ 301715Z 3018/3118 30008KT 9999 FEW045"
    },
    {
      "icao": "LZTT",
      "alert": "OK",
      "vis_m": 9999,
      "fzfg": false,
      "metar_trigger": false,
      "taf_trigger": false,
      "metar": "METAR LZTT 301830Z 27009KT 9999 -SN FEW018 SCT029 BKN048 M06/M10 Q1009",
      "taf": "TAF LZTT 301715Z 3018/3118 28014KT 9999 -SN SCT012 BKN040"
    },
    {
      "icao": "OEJN",
      "alert": "OK",
      "vis_m": 9999,
      "fzfg": false,
      "metar_trigger": false,
      "taf_trigger": false,
      "metar": "METAR OEJN 301800Z 35005KT CAVOK 22/06 Q1017 NOSIG",
      "taf": "TAF OEJN 301700Z 3018/3124 03007KT CAVOK"
    },
    {
      "icao": "OEMA",
      "alert": "OK",
      "vis_m": 9999,
      "fzfg": false,
      "metar_trigger": false,
      "taf_trigger": false,
      "metar": "METAR OEMA 301800Z 07006KT CAVOK 19/M02 Q1022 NOSIG",
      "taf": "TAF OEMA 301700Z 3018/3124 10010KT CAVOK"
    },
    {
      "icao": "OJAI",
      "alert": "OK",
      "vis_m": 4000,
      "fzfg": false,
      "metar_trigger": false,
      "taf_trigger": false,
      "metar": "METAR OJAI 301800Z 08003KT 4000 BR NSC 07/05 Q1020 NOSIG",
      "taf": "TAF OJAI 301700Z 3018/3124 23012KT 5000 HZ FEW030"
    },
    {
      "icao": "OMAA",
      "alert": "OK",
      "vis_m": 9999,
      "fzfg": false,
      "metar_trigger": false,
      "taf_trigger": false,
      "metar": "METAR OMAA 301800Z 29011KT CAVOK 21/08 Q1017 NOSIG",
      "taf": "TAF OMAA 301700Z 3018/0100 31013KT 8000 FEW040"
    },
    {
      "icao": "OMDB",
      "alert": "OK",
      "vis_m": 9999,
      "fzfg": false,
      "metar_trigger": false,
      "taf_trigger": false,
      "metar": "METAR OMDB 301830Z 28019KT CAVOK 23/09 Q1016 NOSIG",
      "taf": "TAF OMDB 301700Z 3018/0100 29012KT 8000 FEW040"
    },
    {
      "icao": "UAAA",
      "alert": "OK",
      "vis_m": 2400,
      "fzfg": false,
      "metar_trigger": false,
      "taf_trigger": false,
      "metar": "METAR UAAA 301830Z 21002MPS 2400 BR BKN100 OVC200 02/M01 Q1005 NOSIG",
      "taf": "TAF UAAA 301701Z 3018/3118 VRB01MPS 3100 BR FU SCT050 BKN100 TX07/3109Z TNM02/3101Z"
    },
    {
      "icao": "UBBB",
      "alert": "OK",
      "vis_m": 9999,
      "fzfg": false,
      "metar_trigger": false,
      "taf_trigger": false,
      "metar": "METAR UBBB 301830Z 14006KT CAVOK 02/00 Q1014 NOSIG",
      "taf": "TAF UBBB 301700Z 3018/3118 19006KT 9999 SCT030 TX10/3110Z TN02/3019Z"
    },
    {
      "icao": "UDSG",
      "alert": "OK",
      "vis_m": 9999,
      "fzfg": false,
      "metar_trigger": false,
      "taf_trigger": false,
      "metar": "METAR UDSG 301830Z 22002KT 9999 NSC M14/M17 Q1015 NOSIG",
      "taf": ""
    },
    {
      "icao": "UDYZ",
      "alert": "OK",
      "vis_m": 9999,
      "fzfg": false,
      "metar_trigger": false,
      "taf_trigger": false,
      "metar": "METAR UDYZ 301830Z 05005KT 9999 NSC M08/M12 Q1018 NOSIG",
      "taf": "TAF UDYZ 301700Z 3018/3118 VRB06KT 3500 BR FEW050"
    },
    {
      "icao": "UGKO",
      "alert": "OK",
      "vis_m": 9999,
      "fzfg": false,
      "metar_trigger": false,
      "taf_trigger": false,
      "metar": "METAR UGKO 301830Z 07019KT CAVOK 01/M02 Q1013 NOSIG",
      "taf": "TAF UGKO 301700Z 3018/3118 08010KT CAVOK TX04/3112Z TNM01/3020Z"
    }
  ]
}