{
  "ts_utc": "2026-03-27T20:51:04Z",
  "threshold_m": 150,
  "source": "stations_override.txt (ICAO list) + aviationweather.gov (METAR/TAF raw)",
  "station_count": 159,
  "stations": [
    {
      "icao": "BIKF",
      "alert": "OK",
      "vis_m": 9999,
      "fzfg": false,
      "metar_trigger": false,
      "taf_trigger": false,
      "metar": "METAR BIKF 272030Z 35018KT 9999 FEW025 BKN034 M02/M07 Q1003",
      "taf": "TAF BIKF 271956Z 2721/2821 33020G30KT 9999 -SHRASN SCT014 BKN020 TX01/2818Z TNM08/2808Z"
    },
    {
      "icao": "BKPR",
      "alert": "OK",
      "vis_m": 9999,
      "fzfg": false,
      "metar_trigger": false,
      "taf_trigger": false,
      "metar": "METAR BKPR 272030Z 31005KT 9999 FEW013 SCT040 05/04 Q1002 NOSIG",
      "taf": "TAF BKPR 271730Z 2718/2818 01008KT 9999 SCT012 BKN030"
    },
    {
      "icao": "EBCI",
      "alert": "OK",
      "vis_m": 9999,
      "fzfg": false,
      "metar_trigger": false,
      "taf_trigger": false,
      "metar": "METAR EBCI 272020Z 20011KT 9999 BKN030 07/M00 Q1020 NOSIG",
      "taf": "TAF EBCI 271710Z 2718/2824 20011KT 9999 BKN018"
    },
    {
      "icao": "EDDB",
      "alert": "OK",
      "vis_m": 9999,
      "fzfg": false,
      "metar_trigger": false,
      "taf_trigger": false,
      "metar": "METAR EDDB 272020Z AUTO 28005KT CAVOK 05/M02 Q1021 NOSIG",
      "taf": "TAF EDDB 271700Z 2718/2818 28006KT 9999 FEW040"
    },
    {
      "icao": "EDDH",
      "alert": "OK",
      "vis_m": 9999,
      "fzfg": false,
      "metar_trigger": false,
      "taf_trigger": false,
      "metar": "METAR EDDH 272020Z AUTO 19008KT CAVOK 06/M02 Q1018 NOSIG",
      "taf": "TAF EDDH 271700Z 2718/2824 19008KT CAVOK"
    },
    {
      "icao": "EDDK",
      "alert": "OK",
      "vis_m": 9999,
      "fzfg": false,
      "metar_trigger": false,
      "taf_trigger": false,
      "metar": "METAR EDDK 272020Z AUTO 15005KT CAVOK 05/M01 Q1021 NOSIG",
      "taf": "TAF EDDK 271700Z 2718/2824 16005KT 9999 SCT040"
    },
    {
      "icao": "EDDN",
      "alert": "OK",
      "vis_m": 9999,
      "fzfg": false,
      "metar_trigger": false,
      "taf_trigger": false,
      "metar": "METAR EDDN 272020Z AUTO VRB01KT CAVOK 00/M06 Q1022 NOSIG",
      "taf": "TAF EDDN 271700Z 2718/2818 28005KT CAVOK"
    },
    {
      "icao": "EDDS",
      "alert": "OK",
      "vis_m": 9999,
      "fzfg": false,
      "metar_trigger": false,
      "taf_trigger": false,
      "metar": "METAR EDDS 272020Z AUTO 26004KT CAVOK M00/M06 Q1022 NOSIG",
      "taf": "TAF EDDS 271700Z 2718/2818 VRB02KT CAVOK"
    },
    {
      "icao": "EDFH",
      "alert": "OK",
      "vis_m": 9999,
      "fzfg": false,
      "metar_trigger": false,
      "taf_trigger": false,
      "metar": "METAR EDFH 272020Z 21006KT CAVOK 02/M05 Q1021",
      "taf": "TAF EDFH 271700Z 2718/2818 21004KT CAVOK"
    },
    {
      "icao": "EDJA",
      "alert": "OK",
      "vis_m": 9999,
      "fzfg": false,
      "metar_trigger": false,
      "taf_trigger": false,
      "metar": "METAR EDJA 272020Z 00000KT CAVOK M02/M03 Q1021",
      "taf": "TAF EDJA 271700Z 2718/2803 03006KT 9999 BKN060"
    },
    {
      "icao": "EDLW",
      "alert": "OK",
      "vis_m": 9999,
      "fzfg": false,
      "metar_trigger": false,
      "taf_trigger": false,
      "metar": "METAR EDLW 272020Z 19007KT CAVOK 06/M02 Q1020",
      "taf": "TAF EDLW 271700Z 2718/2818 19008KT 9999 SCT040"
    },
    {
      "icao": "EDNY",
      "alert": "OK",
      "vis_m": 9999,
      "fzfg": false,
      "metar_trigger": false,
      "taf_trigger": false,
      "metar": "METAR EDNY 272020Z VRB02KT CAVOK 01/M04 Q1022",
      "taf": "TAF EDNY 271700Z 2718/2803 02006KT 9999 SCT045"
    },
    {
      "icao": "EDSB",
      "alert": "OK",
      "vis_m": 9999,
      "fzfg": false,
      "metar_trigger": false,
      "taf_trigger": false,
      "metar": "METAR EDSB 272020Z VRB02KT CAVOK 01/M05 Q1023",
      "taf": "TAF EDSB 271700Z 2718/2818 VRB02KT CAVOK"
    },
    {
      "icao": "EETN",
      "alert": "OK",
      "vis_m": 9999,
      "fzfg": false,
      "metar_trigger": false,
      "taf_trigger": false,
      "metar": "METAR EETN 272020Z VRB02KT CAVOK 01/M01 Q1016 NOSIG",
      "taf": "TAF EETN 271730Z 2718/2818 20005KT CAVOK"
    },
    {
      "icao": "EFTU",
      "alert": "OK",
      "vis_m": 9999,
      "fzfg": false,
      "metar_trigger": false,
      "taf_trigger": false,
      "metar": "METAR EFTU 272020Z AUTO 19006KT CAVOK 02/M01 Q1014",
      "taf": "TAF EFTU 272023Z 2721/2821 19006KT CAVOK"
    },
    {
      "icao": "EGBB",
      "alert": "OK",
      "vis_m": 9999,
      "fzfg": false,
      "metar_trigger": false,
      "taf_trigger": false,
      "metar": "METAR EGBB 272020Z 32013KT 9999 BKN031 08/03 Q1019",
      "taf": "TAF EGBB 271655Z 2718/2818 28009KT 9999 SCT030"
    },
    {
      "icao": "EGGP",
      "alert": "OK",
      "vis_m": 9999,
      "fzfg": false,
      "metar_trigger": false,
      "taf_trigger": false,
      "metar": "METAR EGGP 272020Z 28010KT 9999 FEW030 07/03 Q1019",
      "taf": "TAF EGGP 271715Z 2718/2818 29012KT 9999 SCT030"
    },
    {
      "icao": "EGGW",
      "alert": "OK",
      "vis_m": 9999,
      "fzfg": false,
      "metar_trigger": false,
      "taf_trigger": false,
      "metar": "METAR EGGW 272020Z AUTO 31009KT 9999 BKN044 07/05 Q1018",
      "taf": "TAF EGGW 271658Z 2718/2818 30009KT 9999 FEW030"
    },
    {
      "icao": "EGKK",
      "alert": "OK",
      "vis_m": 9999,
      "fzfg": false,
      "metar_trigger": false,
      "taf_trigger": false,
      "metar": "METAR EGKK 272020Z 31011KT 9999 -RA SCT007 BKN028 10/07 Q1018",
      "taf": "TAF EGKK 271657Z 2718/2824 22012KT 9999 BKN010"
    },
    {
      "icao": "EGNM",
      "alert": "OK",
      "vis_m": 9999,
      "fzfg": false,
      "metar_trigger": false,
      "taf_trigger": false,
      "metar": "METAR EGNM 272020Z 27013KT 9999 SCT034 04/01 Q1016",
      "taf": "TAF EGNM 271656Z 2718/2818 28012KT 9999 SCT025"
    },
    {
      "icao": "EGPD",
      "alert": "OK",
      "vis_m": 9999,
      "fzfg": false,
      "metar_trigger": false,
      "taf_trigger": false,
      "metar": "METAR EGPD 272020Z COR AUTO 23009KT 9999 NCD 04/M02 Q1009 NOSIG",
      "taf": "TAF EGPD 271700Z 2718/2818 24012KT 9999 FEW025"
    },
    {
      "icao": "EGPF",
      "alert": "OK",
      "vis_m": 9999,
      "fzfg": false,
      "metar_trigger": false,
      "taf_trigger": false,
      "metar": "METAR EGPF 272020Z AUTO 23011KT 9999 NCD 03/00 Q1014",
      "taf": "TAF EGPF 271701Z 2718/2818 25015KT 9999 FEW025"
    },
    {
      "icao": "EHBK",
      "alert": "OK",
      "vis_m": 9999,
      "fzfg": false,
      "metar_trigger": false,
      "taf_trigger": false,
      "metar": "METAR EHBK 272025Z AUTO 22011KT 190V250 9999 OVC031/// 08/M00 Q1020 NOSIG",
      "taf": "TAF EHBK 271710Z 2718/2824 22010KT 9999 FEW035 BKN048"
    },
    {
      "icao": "EHEH",
      "alert": "OK",
      "vis_m": 9999,
      "fzfg": false,
      "metar_trigger": false,
      "taf_trigger": false,
      "metar": "METAR EHEH 272025Z AUTO 20012KT 9999 -DZ OVC026 08/00 Q1019 BLU NOSIG RMK TREND REMOTE BY EHWX",
      "taf": "TAF EHEH 271759Z 2718/2824 20011KT 9999 OVC040"
    },
    {
      "icao": "EKBI",
      "alert": "OK",
      "vis_m": 9999,
      "fzfg": false,
      "metar_trigger": false,
      "taf_trigger": false,
      "metar": "METAR EKBI 272020Z AUTO 19016G26KT 9999 -RA OVC013/// 05/03 Q1014",
      "taf": "TAF EKBI 272027Z 2721/2821 20012KT 9999 BKN014"
    },
    {
      "icao": "EKCH",
      "alert": "OK",
      "vis_m": 9999,
      "fzfg": false,
      "metar_trigger": false,
      "taf_trigger": false,
      "metar": "METAR EKCH 272020Z AUTO 20008KT 9999 NCD 04/M00 Q1017 NOSIG",
      "taf": "TAF EKCH 272027Z 2721/2821 21015KT 9999 BKN040"
    },
    {
      "icao": "ENAL",
      "alert": "OK",
      "vis_m": 9999,
      "fzfg": false,
      "metar_trigger": false,
      "taf_trigger": false,
      "metar": "METAR ENAL 272020Z 23021KT 9999 -RA BKN026 05/02 Q1000",
      "taf": "TAF ENAL 272000Z 2721/2806 19015KT 9999 -SHRA FEW015TCU BKN040"
    },
    {
      "icao": "ENBR",
      "alert": "OK",
      "vis_m": 9999,
      "fzfg": false,
      "metar_trigger": false,
      "taf_trigger": false,
      "metar": "METAR ENBR 272020Z 17011KT 9999 FEW005 SCT013 04/04 Q1005 TEMPO 4000 SHRA BKN006 SCT025CB RMK WIND 1200FT 20016KT",
      "taf": "TAF ENBR 271700Z 2718/2818 16010KT 9999 SCT007 BKN018"
    },
    {
      "icao": "ENGM",
      "alert": "OK",
      "vis_m": 9999,
      "fzfg": false,
      "metar_trigger": false,
      "taf_trigger": false,
      "metar": "METAR ENGM 272020Z 19012KT 9999 -RASN OVC006 02/01 Q1007 NOSIG",
      "taf": "TAF ENGM 271700Z 2718/2818 20015KT 9999 -RA BKN015"
    },
    {
      "icao": "ENHD",
      "alert": "OK",
      "vis_m": 6000,
      "fzfg": false,
      "metar_trigger": false,
      "taf_trigger": false,
      "metar": "METAR ENHD 272020Z 17007KT 6000 FEW004 SCT008 05/04 Q1006",
      "taf": ""
    },
    {
      "icao": "ENTC",
      "alert": "OK",
      "vis_m": 9999,
      "fzfg": false,
      "metar_trigger": false,
      "taf_trigger": false,
      "metar": "METAR ENTC 272020Z 01005KT CAVOK M04/M07 Q1004 NOSIG RMK WIND 2600FT 15015KT",
      "taf": "TAF ENTC 271700Z 2718/2818 03005KT CAVOK"
    },
    {
      "icao": "ENTO",
      "alert": "OK",
      "vis_m": 7000,
      "fzfg": false,
      "metar_trigger": false,
      "taf_trigger": false,
      "metar": "METAR ENTO 272020Z 20016KT 7000 RA FEW007 SCT009 BKN011 04/04 Q1008 TEMPO 21016G26KT BKN008",
      "taf": ""
    },
    {
      "icao": "ENVA",
      "alert": "OK",
      "vis_m": 9999,
      "fzfg": false,
      "metar_trigger": false,
      "taf_trigger": false,
      "metar": "METAR ENVA 272020Z 10005KT 070V130 CAVOK 06/M02 Q1001 NOSIG RMK WIND 670FT 16012KT",
      "taf": "TAF ENVA 271700Z 2718/2818 12008KT 9999 SCT050"
    },
    {
      "icao": "ENZV",
      "alert": "OK",
      "vis_m": 9999,
      "fzfg": false,
      "metar_trigger": false,
      "taf_trigger": false,
      "metar": "METAR ENZV 272020Z 16004KT 9999 BKN009 04/04 Q1008 TEMPO SCT009 BKN025",
      "taf": "TAF ENZV 271700Z 2718/2818 20005KT 9999 -SHRA FEW020 BKN035"
    },
    {
      "icao": "EPGD",
      "alert": "OK",
      "vis_m": 500,
      "fzfg": false,
      "metar_trigger": false,
      "taf_trigger": false,
      "metar": "METAR EPGD 272030Z 21003KT 0500 R29/1800D FG OVC001 00/00 Q1020",
      "taf": ""
    },
    {
      "icao": "EPKK",
      "alert": "OK",
      "vis_m": 6000,
      "fzfg": false,
      "metar_trigger": false,
      "taf_trigger": false,
      "metar": "METAR EPKK 272030Z 23006KT 6000 -RA FEW007 BKN038 02/01 Q1016",
      "taf": "TAF EPKK 272030Z 2721/2821 24007KT 9999 -RA BKN030"
    },
    {
      "icao": "EPKT",
      "alert": "OK",
      "vis_m": 9999,
      "fzfg": false,
      "metar_trigger": false,
      "taf_trigger": false,
      "metar": "METAR EPKT 272030Z 33011KT 9999 FEW032 04/M01 Q1016",
      "taf": "TAF EPKT 271730Z 2718/2818 01010KT 9999 OVC044"
    },
    {
      "icao": "EPLB",
      "alert": "OK",
      "vis_m": 9999,
      "fzfg": false,
      "metar_trigger": false,
      "taf_trigger": false,
      "metar": "METAR EPLB 272030Z 01005KT 320V040 CAVOK 07/03 Q1014",
      "taf": "TAF EPLB 271730Z 2718/2818 01008KT CAVOK"
    },
    {
      "icao": "EPMO",
      "alert": "OK",
      "vis_m": 9999,
      "fzfg": false,
      "metar_trigger": false,
      "taf_trigger": false,
      "metar": "METAR EPMO 272030Z 36005KT CAVOK 06/M01 Q1017",
      "taf": "TAF EPMO 271730Z 2718/2818 36005KT CAVOK"
    },
    {
      "icao": "EPPO",
      "alert": "OK",
      "vis_m": 9999,
      "fzfg": false,
      "metar_trigger": false,
      "taf_trigger": false,
      "metar": "METAR EPPO 272030Z 31006KT CAVOK 02/M03 Q1020",
      "taf": "TAF EPPO 271730Z 2718/2818 32005KT CAVOK"
    },
    {
      "icao": "EPRA",
      "alert": "OK",
      "vis_m": 9999,
      "fzfg": false,
      "metar_trigger": false,
      "taf_trigger": false,
      "metar": "METAR EPRA 272030Z 34008KT CAVOK 07/M01 Q1015",
      "taf": "TAF EPRA 272030Z 2721/2806 35007KT CAVOK"
    },
    {
      "icao": "EPRZ",
      "alert": "OK",
      "vis_m": 9999,
      "fzfg": false,
      "metar_trigger": false,
      "taf_trigger": false,
      "metar": "METAR EPRZ 272030Z 28007KT CAVOK 06/04 Q1012",
      "taf": "TAF EPRZ 271730Z 2718/2818 34008KT 9999 OVC025"
    },
    {
      "icao": "EPSC",
      "alert": "OK",
      "vis_m": 9999,
      "fzfg": false,
      "metar_trigger": false,
      "taf_trigger": false,
      "metar": "METAR EPSC 272030Z 09002KT 9999 BKN046 01/M01 Q1020",
      "taf": "TAF EPSC 271730Z 2718/2818 VRB03KT CAVOK"
    },
    {
      "icao": "EPSY",
      "alert": "OK",
      "vis_m": 9999,
      "fzfg": false,
      "metar_trigger": false,
      "taf_trigger": false,
      "metar": "METAR EPSY 272030Z 01007KT CAVOK 02/M02 Q1018",
      "taf": "TAF EPSY 272030Z 2721/2806 36008KT CAVOK"
    },
    {
      "icao": "EPWA",
      "alert": "OK",
      "vis_m": 9999,
      "fzfg": false,
      "metar_trigger": false,
      "taf_trigger": false,
      "metar": "METAR EPWA 272030Z 01010KT 350V050 CAVOK 08/M02 Q1016 NOSIG",
      "taf": "TAF EPWA 272030Z 2721/2821 36008KT CAVOK"
    },
    {
      "icao": "EPWR",
      "alert": "OK",
      "vis_m": 9999,
      "fzfg": false,
      "metar_trigger": false,
      "taf_trigger": false,
      "metar": "METAR EPWR 272030Z 30009KT CAVOK 03/M04 Q1020",
      "taf": "TAF EPWR 272030Z 2721/2821 30006KT CAVOK"
    },
    {
      "icao": "ESGG",
      "alert": "OK",
      "vis_m": 9999,
      "fzfg": false,
      "metar_trigger": false,
      "taf_trigger": false,
      "metar": "METAR ESGG 272020Z 17010KT CAVOK 02/M00 Q1013",
      "taf": "TAF ESGG 272030Z 2721/2821 19010KT 9999 FEW040"
    },
    {
      "icao": "ESKN",
      "alert": "OK",
      "vis_m": 9999,
      "fzfg": false,
      "metar_trigger": false,
      "taf_trigger": false,
      "metar": "METAR ESKN 272020Z 22003KT 190V250 CAVOK 03/M00 Q1013",
      "taf": "TAF ESKN 272030Z 2721/2821 17004KT CAVOK"
    },
    {
      "icao": "ESMS",
      "alert": "OK",
      "vis_m": 9999,
      "fzfg": false,
      "metar_trigger": false,
      "taf_trigger": false,
      "metar": "METAR ESMS 272020Z 20006KT CAVOK 02/M01 Q1017",
      "taf": "TAF ESMS 272027Z 2721/2821 22010KT 9999 SCT035"
    },
    {
      "icao": "ESSA",
      "alert": "OK",
      "vis_m": 9999,
      "fzfg": false,
      "metar_trigger": false,
      "taf_trigger": false,
      "metar": "METAR ESSA 272020Z 17008KT CAVOK 03/M01 Q1012 NOSIG",
      "taf": "TAF ESSA 272030Z 2721/2821 18007KT CAVOK"
    },
    {
      "icao": "EYKA",
      "alert": "OK",
      "vis_m": 9999,
      "fzfg": false,
      "metar_trigger": false,
      "taf_trigger": false,
      "metar": "METAR EYKA 272020Z 30002KT CAVOK 02/M01 Q1018",
      "taf": "TAF EYKA 271700Z 2718/2818 VRB04KT 9000 NSC"
    },
    {
      "icao": "EYPA",
      "alert": "OK",
      "vis_m": 3900,
      "fzfg": false,
      "metar_trigger": false,
      "taf_trigger": false,
      "metar": "METAR EYPA 272020Z 24003KT 180V270 3900 BR OVC002 01/00 Q1020",
      "taf": ""
    },
    {
      "icao": "EYVI",
      "alert": "OK",
      "vis_m": 9999,
      "fzfg": false,
      "metar_trigger": false,
      "taf_trigger": false,
      "metar": "METAR EYVI 272020Z 36004KT CAVOK 01/M03 Q1017 NOSIG",
      "taf": "TAF EYVI 271700Z 2718/2818 01007KT 9000 NSC"
    },
    {
      "icao": "GCFV",
      "alert": "OK",
      "vis_m": 9999,
      "fzfg": false,
      "metar_trigger": false,
      "taf_trigger": false,
      "metar": "METAR GCFV 272030Z 33011KT 9999 FEW030 18/12 Q1016",
      "taf": "TAF GCFV 272000Z 2721/2821 33014KT 9999 SCT030 TX22/2814Z TN16/2806Z"
    },
    {
      "icao": "GCLP",
      "alert": "OK",
      "vis_m": 9999,
      "fzfg": false,
      "metar_trigger": false,
      "taf_trigger": false,
      "metar": "METAR GCLP 272030Z 36013KT 9999 SCT025 18/13 Q1017 NOSIG",
      "taf": "TAF GCLP 272000Z 2721/2821 36018KT 9999 SCT030 TX22/2814Z TN16/2806Z"
    },
    {
      "icao": "GCTS",
      "alert": "OK",
      "vis_m": 9999,
      "fzfg": false,
      "metar_trigger": false,
      "taf_trigger": false,
      "metar": "METAR GCTS 272030Z 07006KT 9999 SCT040 18/13 Q1017 NOSIG",
      "taf": "TAF GCTS 272000Z 2721/2821 29006KT 9999 SCT035 TX23/2814Z TN16/2806Z"
    },
    {
      "icao": "GMAD",
      "alert": "OK",
      "vis_m": 6000,
      "fzfg": false,
      "metar_trigger": false,
      "taf_trigger": false,
      "metar": "METAR GMAD 272030Z 24006KT 6000 OVC023 17/14 Q1013 NOSIG",
      "taf": "TAF GMAD 271700Z 2718/2824 26010KT 6000 OVC020"
    },
    {
      "icao": "GMMN",
      "alert": "OK",
      "vis_m": 9999,
      "fzfg": false,
      "metar_trigger": false,
      "taf_trigger": false,
      "metar": "METAR GMMN 272030Z 02006KT 9999 FEW020 14/12 Q1013 NOSIG",
      "taf": "TAF GMMN 271700Z 2718/2824 34012KT 9999 FEW020"
    },
    {
      "icao": "GMMX",
      "alert": "OK",
      "vis_m": 8000,
      "fzfg": false,
      "metar_trigger": false,
      "taf_trigger": false,
      "metar": "METAR GMMX 272030Z 02004KT 340V050 8000 BKN026 FEW033TCU 18/13 Q1012 NOSIG",
      "taf": "TAF GMMX 271700Z 2718/2824 24006KT 8000 BKN020"
    },
    {
      "icao": "HEGN",
      "alert": "OK",
      "vis_m": 9999,
      "fzfg": false,
      "metar_trigger": false,
      "taf_trigger": false,
      "metar": "METAR HEGN 272000Z 00000KT CAVOK 19/11 Q1017 NOSIG",
      "taf": "TAF HEGN 271700Z 2718/2824 17010KT 9999 SCT025"
    },
    {
      "icao": "HEMA",
      "alert": "OK",
      "vis_m": 9999,
      "fzfg": false,
      "metar_trigger": false,
      "taf_trigger": false,
      "metar": "METAR HEMA 272000Z 14005KT CAVOK 19/11 Q1016 NOSIG",
      "taf": "TAF HEMA 271700Z 2718/2824 19010KT CAVOK"
    },
    {
      "icao": "HESH",
      "alert": "OK",
      "vis_m": 9999,
      "fzfg": false,
      "metar_trigger": false,
      "taf_trigger": false,
      "metar": "METAR HESH 272000Z 17006KT CAVOK 21/12 Q1016 NOSIG",
      "taf": "TAF HESH 271700Z 2718/2824 30008KT 9999 SCT025"
    },
    {
      "icao": "HESX",
      "alert": "OK",
      "vis_m": 9999,
      "fzfg": false,
      "metar_trigger": false,
      "taf_trigger": false,
      "metar": "METAR HESX 272000Z 31003KT CAVOK 16/04 Q1014 NOSIG",
      "taf": "TAF HESX 271700Z 2718/2824 18010KT 9999 SCT025"
    },
    {
      "icao": "LATI",
      "alert": "OK",
      "vis_m": 9999,
      "fzfg": false,
      "metar_trigger": false,
      "taf_trigger": false,
      "metar": "METAR LATI 272050Z VRB01KT 9999 FEW055 BKN066 08/06 Q1003 NOSIG",
      "taf": "TAF LATI 271700Z 2718/2818 VRB04KT 9999 FEW025 BKN060 TX15/2812Z TN05/2804Z"
    },
    {
      "icao": "LBPD",
      "alert": "OK",
      "vis_m": 9999,
      "fzfg": false,
      "metar_trigger": false,
      "taf_trigger": false,
      "metar": "METAR LBPD 272030Z AUTO 05004KT 9999 -RA FEW053/// OVC069/// 07/07 Q1000",
      "taf": "TAF LBPD 271700Z 2718/2818 30014KT 9999 SCT030 BKN050"
    },
    {
      "icao": "LBSF",
      "alert": "OK",
      "vis_m": 9999,
      "fzfg": false,
      "metar_trigger": false,
      "taf_trigger": false,
      "metar": "METAR LBSF 272030Z AUTO VRB02KT 9999 -RA SCT038/// OVC048/// 04/03 Q1002 TEMPO RA",
      "taf": "TAF LBSF 271700Z 2718/2818 VRB04KT 9999 SCT015 BKN025 OVC040"
    },
    {
      "icao": "LBWN",
      "alert": "OK",
      "vis_m": 9999,
      "fzfg": false,
      "metar_trigger": false,
      "taf_trigger": false,
      "metar": "METAR LBWN 272030Z AUTO 10010KT 9999 SCT012/// 10/09 Q1005 NOSIG",
      "taf": "TAF LBWN 271700Z 2718/2818 10012KT 6000 RA SCT010 OVC025"
    },
    {
      "icao": "LCLK",
      "alert": "OK",
      "vis_m": 9999,
      "fzfg": false,
      "metar_trigger": false,
      "taf_trigger": false,
      "metar": "METAR LCLK 272030Z 24013KT CAVOK 15/11 Q1013 NOSIG",
      "taf": "TAF LCLK 271730Z 2718/2818 26008KT 9999 FEW020 SCT035"
    },
    {
      "icao": "LCPH",
      "alert": "OK",
      "vis_m": 9999,
      "fzfg": false,
      "metar_trigger": false,
      "taf_trigger": false,
      "metar": "METAR LCPH 272030Z 26009KT 9999 BKN024 SCT032 16/11 Q1013 NOSIG",
      "taf": "TAF LCPH 271730Z 2718/2818 33009KT 9999 FEW020 SCT040"
    },
    {
      "icao": "LEAL",
      "alert": "OK",
      "vis_m": 9999,
      "fzfg": false,
      "metar_trigger": false,
      "taf_trigger": false,
      "metar": "METAR LEAL 272030Z 00000KT CAVOK 12/09 Q1018 NOSIG",
      "taf": "TAF LEAL 271700Z 2718/2818 11009KT 9999 FEW025 TX17/2812Z TN07/2806Z"
    },
    {
      "icao": "LEBB",
      "alert": "OK",
      "vis_m": 9999,
      "fzfg": false,
      "metar_trigger": false,
      "taf_trigger": false,
      "metar": "METAR LEBB 272030Z 00000KT CAVOK 07/05 Q1026 NOSIG",
      "taf": "TAF LEBB 271700Z 2718/2818 35007KT 9999 SCT030 TX11/2812Z TN05/2801Z"
    },
    {
      "icao": "LEBL",
      "alert": "OK",
      "vis_m": 9999,
      "fzfg": false,
      "metar_trigger": false,
      "taf_trigger": false,
      "metar": "METAR LEBL 272030Z 22008KT 9999 FEW024 12/07 Q1017 NOSIG",
      "taf": "TAF LEBL 271700Z 2718/2818 16008KT 9999 FEW020 TX17/2812Z TN08/2806Z"
    },
    {
      "icao": "LECH",
      "alert": "OK",
      "vis_m": 9000,
      "fzfg": false,
      "metar_trigger": false,
      "taf_trigger": false,
      "metar": "METAR LECH 272030Z AUTO 17003KT 140V200 9000 NCD 10/03 Q1017",
      "taf": "TAF LECH 271700Z 2718/2818 33009KT 9999 FEW030 TX19/2813Z TN03/2806Z"
    },
    {
      "icao": "LEMD",
      "alert": "OK",
      "vis_m": 9999,
      "fzfg": false,
      "metar_trigger": false,
      "taf_trigger": false,
      "metar": "METAR LEMD 272030Z 01006KT 330V050 CAVOK 11/M02 Q1018 NOSIG",
      "taf": "TAF LEMD 271700Z 2718/2824 03008KT CAVOK TX19/2816Z TN01/2807Z"
    },
    {
      "icao": "LEMG",
      "alert": "OK",
      "vis_m": 9999,
      "fzfg": false,
      "metar_trigger": false,
      "taf_trigger": false,
      "metar": "METAR LEMG 272030Z 11007KT 080V140 9999 FEW025 OVC042 15/10 Q1018 NOSIG",
      "taf": "TAF LEMG 271700Z 2718/2818 12010KT 9999 FEW025 BKN045 TX17/2813Z TN13/2806Z"
    },
    {
      "icao": "LEVC",
      "alert": "OK",
      "vis_m": 9999,
      "fzfg": false,
      "metar_trigger": false,
      "taf_trigger": false,
      "metar": "METAR LEVC 272030Z VRB01KT CAVOK 13/08 Q1017 NOSIG",
      "taf": "TAF LEVC 271700Z 2718/2818 12009KT 9999 FEW025 TX20/2813Z TN06/2806Z"
    },
    {
      "icao": "LEXJ",
      "alert": "OK",
      "vis_m": 9999,
      "fzfg": false,
      "metar_trigger": false,
      "taf_trigger": false,
      "metar": "METAR LEXJ 272030Z 16002KT CAVOK 09/05 Q1026",
      "taf": "TAF LEXJ 272000Z 2721/2821 20006KT 9999 BKN030 TX12/2812Z TN07/2722Z"
    },
    {
      "icao": "LEZG",
      "alert": "OK",
      "vis_m": 9999,
      "fzfg": false,
      "metar_trigger": false,
      "taf_trigger": false,
      "metar": "METAR LEZG 272030Z 29025G35KT CAVOK 10/00 Q1019 NOSIG",
      "taf": "TAF LEZG 271700Z 2718/2818 30020KT 9999 FEW045 TX18/2814Z TN06/2806Z"
    },
    {
      "icao": "LEZL",
      "alert": "OK",
      "vis_m": 9999,
      "fzfg": false,
      "metar_trigger": false,
      "taf_trigger": false,
      "metar": "METAR LEZL 272030Z VRB02KT CAVOK 16/09 Q1015 NOSIG",
      "taf": "TAF LEZL 272000Z 2721/2821 VRB03KT CAVOK TX25/2815Z TN09/2807Z"
    },
    {
      "icao": "LFBD",
      "alert": "OK",
      "vis_m": 9999,
      "fzfg": false,
      "metar_trigger": false,
      "taf_trigger": false,
      "metar": "METAR LFBD 272030Z AUTO 34007KT 290V350 CAVOK 08/02 Q1025 NOSIG",
      "taf": "TAF LFBD 271700Z 2718/2824 33006KT CAVOK TX12/2815Z TN03/2803Z"
    },
    {
      "icao": "LFLL",
      "alert": "OK",
      "vis_m": 9999,
      "fzfg": false,
      "metar_trigger": false,
      "taf_trigger": false,
      "metar": "METAR LFLL 272030Z 36007KT CAVOK 04/M04 Q1021 NOSIG",
      "taf": "TAF LFLL 271700Z 2718/2824 36020KT CAVOK"
    },
    {
      "icao": "LFLS",
      "alert": "OK",
      "vis_m": 9999,
      "fzfg": false,
      "metar_trigger": false,
      "taf_trigger": false,
      "metar": "METAR LFLS 272030Z AUTO 35012KT CAVOK 04/M06 Q1020",
      "taf": "TAF LFLS 271400Z 2715/2815 34010KT 9999 BKN055"
    },
    {
      "icao": "LFMN",
      "alert": "OK",
      "vis_m": 9999,
      "fzfg": false,
      "metar_trigger": false,
      "taf_trigger": false,
      "metar": "METAR LFMN 272030Z 36005KT CAVOK 11/02 Q1012 NOSIG",
      "taf": "TAF LFMN 272000Z 2721/2903 35010KT CAVOK"
    },
    {
      "icao": "LFOB",
      "alert": "OK",
      "vis_m": 9999,
      "fzfg": false,
      "metar_trigger": false,
      "taf_trigger": false,
      "metar": "METAR LFOB 272030Z AUTO 21005KT 9999 -RA BKN020/// OVC027/// ///TCU 08/06 Q1021 TEMPO 4500 -RA BECMG BKN012 OVC020",
      "taf": "TAF LFOB 271700Z 2718/2818 22007KT 9999 OVC030"
    },
    {
      "icao": "LFPO",
      "alert": "OK",
      "vis_m": 9999,
      "fzfg": false,
      "metar_trigger": false,
      "taf_trigger": false,
      "metar": "METAR LFPO 272030Z 19004KT 9999 BKN036 09/02 Q1022 TEMPO -RA",
      "taf": "TAF LFPO 271700Z 2718/2824 20006KT CAVOK"
    },
    {
      "icao": "LFSB",
      "alert": "OK",
      "vis_m": 9999,
      "fzfg": false,
      "metar_trigger": false,
      "taf_trigger": false,
      "metar": "METAR LFSB 272030Z AUTO 29003KT 9999 FEW012 00/M03 Q1023 NOSIG",
      "taf": "TAF LFSB 271700Z 2718/2818 35005KT CAVOK"
    },
    {
      "icao": "LGAV",
      "alert": "OK",
      "vis_m": 9999,
      "fzfg": false,
      "metar_trigger": false,
      "taf_trigger": false,
      "metar": "METAR LGAV 272020Z 19004KT 9999 FEW025 08/05 Q1005 NOSIG",
      "taf": "TAF LGAV 271700Z 2718/2818 24013KT 9999 FEW025 SCT030"
    },
    {
      "icao": "LGTS",
      "alert": "OK",
      "vis_m": 9999,
      "fzfg": false,
      "metar_trigger": false,
      "taf_trigger": false,
      "metar": "METAR LGTS 272020Z 35006KT 9999 FEW020 11/06 Q1001 NOSIG",
      "taf": "TAF LGTS 271700Z 2718/2818 18013KT 9999 SCT025"
    },
    {
      "icao": "LHBP",
      "alert": "OK",
      "vis_m": 9999,
      "fzfg": false,
      "metar_trigger": false,
      "taf_trigger": false,
      "metar": "METAR LHBP 272030Z 35013KT 9999 -SHRA NSC 08/02 Q1008 NOSIG",
      "taf": "TAF LHBP 271715Z 2718/2818 34011KT CAVOK"
    },
    {
      "icao": "LHDC",
      "alert": "OK",
      "vis_m": 9999,
      "fzfg": false,
      "metar_trigger": false,
      "taf_trigger": false,
      "metar": "METAR LHDC 272015Z AUTO 02019G30KT 350V050 CAVOK 08/03 Q1006",
      "taf": "TAF LHDC 271415Z 2715/2724 02022G32KT CAVOK"
    },
    {
      "icao": "LIBD",
      "alert": "OK",
      "vis_m": 9999,
      "fzfg": false,
      "metar_trigger": false,
      "taf_trigger": false,
      "metar": "METAR LIBD 272020Z 27005KT 9999 -RA VCTS SCT015CB BKN035 08/07 Q1004",
      "taf": "TAF LIBD 271700Z 2718/2818 28012KT 9999 FEW010 BKN020"
    },
    {
      "icao": "LIBG",
      "alert": "OK",
      "vis_m": null,
      "fzfg": false,
      "metar_trigger": false,
      "taf_trigger": false,
      "metar": "",
      "taf": "TAF LIBG 271700Z 2718/2803 30006KT 9999 SCT030"
    },
    {
      "icao": "LIBP",
      "alert": "OK",
      "vis_m": 6000,
      "fzfg": false,
      "metar_trigger": false,
      "taf_trigger": false,
      "metar": "METAR LIBP 272020Z AUTO 29006KT 240V330 6000 +RA OVC020/// 07/06 Q1009",
      "taf": "TAF LIBP 271700Z 2718/2818 33012KT 9999 BKN015 BKN050"
    },
    {
      "icao": "LIBR",
      "alert": "OK",
      "vis_m": 9999,
      "fzfg": false,
      "metar_trigger": false,
      "taf_trigger": false,
      "metar": "METAR LIBR 272020Z 21005KT 180V240 9999 BKN015 BKN035 09/06 Q1002",
      "taf": "TAF LIBR 271700Z 2718/2818 VRB05KT 9999 BKN040"
    },
    {
      "icao": "LICA",
      "alert": "OK",
      "vis_m": 9999,
      "fzfg": false,
      "metar_trigger": false,
      "taf_trigger": false,
      "metar": "METAR LICA 272020Z AUTO 06004KT 9999 FEW033/// 06/04 Q1005",
      "taf": "TAF LICA 271700Z 2718/2818 28010KT 9999 BKN030"
    },
    {
      "icao": "LICC",
      "alert": "OK",
      "vis_m": 9999,
      "fzfg": false,
      "metar_trigger": false,
      "taf_trigger": false,
      "metar": "METAR LICC 272020Z 29012KT CAVOK 09/04 Q1005",
      "taf": "TAF LICC 271700Z 2718/2818 28015KT CAVOK"
    },
    {
      "icao": "LICJ",
      "alert": "OK",
      "vis_m": 9999,
      "fzfg": false,
      "metar_trigger": false,
      "taf_trigger": false,
      "metar": "METAR LICJ 272020Z 32019KT 9999 SCT060 12/07 Q1007",
      "taf": "TAF LICJ 271700Z 2718/2818 30016KT 9999 SCT030"
    },
    {
      "icao": "LIMC",
      "alert": "OK",
      "vis_m": 9999,
      "fzfg": false,
      "metar_trigger": false,
      "taf_trigger": false,
      "metar": "METAR LIMC 272020Z 01004KT 340V040 CAVOK 09/M07 Q1011 NOSIG",
      "taf": ""
    },
    {
      "icao": "LIME",
      "alert": "OK",
      "vis_m": 9999,
      "fzfg": false,
      "metar_trigger": false,
      "taf_trigger": false,
      "metar": "METAR LIME 272020Z 34003KT CAVOK 08/M03 Q1010 NOSIG",
      "taf": "TAF LIME 271700Z 2718/2818 01006KT CAVOK"
    },
    {
      "icao": "LIMF",
      "alert": "OK",
      "vis_m": 9999,
      "fzfg": false,
      "metar_trigger": false,
      "taf_trigger": false,
      "metar": "METAR LIMF 272020Z VRB03KT CAVOK 08/M07 Q1011",
      "taf": "TAF LIMF 271700Z 2718/2818 VRB05KT CAVOK"
    },
    {
      "icao": "LIMJ",
      "alert": "OK",
      "vis_m": 9999,
      "fzfg": false,
      "metar_trigger": false,
      "taf_trigger": false,
      "metar": "METAR LIMJ 272020Z AUTO 04006KT 010V080 9999 NCD 13/M09 Q1011",
      "taf": "TAF LIMJ 271700Z 2718/2818 36013KT CAVOK"
    },
    {
      "icao": "LIPE",
      "alert": "OK",
      "vis_m": 9999,
      "fzfg": false,
      "metar_trigger": false,
      "taf_trigger": false,
      "metar": "METAR LIPE 272020Z 24005KT CAVOK 09/M00 Q1010",
      "taf": "TAF LIPE 271700Z 2718/2818 VRB05KT CAVOK"
    },
    {
      "icao": "LIPH",
      "alert": "OK",
      "vis_m": 9999,
      "fzfg": false,
      "metar_trigger": false,
      "taf_trigger": false,
      "metar": "METAR LIPH 272020Z 03003KT 350V100 CAVOK 09/M01 Q1010",
      "taf": "TAF LIPH 271700Z 2718/2818 VRB05KT CAVOK"
    },
    {
      "icao": "LIPQ",
      "alert": "OK",
      "vis_m": 9999,
      "fzfg": false,
      "metar_trigger": false,
      "taf_trigger": false,
      "metar": "METAR LIPQ 272020Z AUTO VRB02KT 9999 BKN094/// 10/M03 Q1010",
      "taf": "TAF LIPQ 271700Z 2718/2818 VRB05KT CAVOK"
    },
    {
      "icao": "LIPR",
      "alert": "OK",
      "vis_m": 9999,
      "fzfg": false,
      "metar_trigger": false,
      "taf_trigger": false,
      "metar": "METAR LIPR 272020Z VRB02KT CAVOK 07/05 Q1010",
      "taf": "TAF LIPR 271700Z 2718/2818 VRB05KT 9999 SCT070"
    },
    {
      "icao": "LIPX",
      "alert": "OK",
      "vis_m": 9999,
      "fzfg": false,
      "metar_trigger": false,
      "taf_trigger": false,
      "metar": "METAR LIPX 272020Z 34008KT CAVOK 11/M08 Q1010",
      "taf": "TAF LIPX 271700Z 2718/2818 32012KT 9999 SCT050"
    },
    {
      "icao": "LIPY",
      "alert": "OK",
      "vis_m": 9999,
      "fzfg": false,
      "metar_trigger": false,
      "taf_trigger": false,
      "metar": "METAR LIPY 272020Z AUTO 35009G19KT 310V030 9999 -RA OVC042/// 10/05 Q1010",
      "taf": "TAF LIPY 271700Z 2718/2818 01015KT 9999 OVC050"
    },
    {
      "icao": "LIPZ",
      "alert": "OK",
      "vis_m": 9999,
      "fzfg": false,
      "metar_trigger": false,
      "taf_trigger": false,
      "metar": "METAR LIPZ 272020Z 05008KT CAVOK 08/M00 Q1011 NOSIG",
      "taf": "TAF LIPZ 271700Z 2718/2824 VRB05KT CAVOK"
    },
    {
      "icao": "LIRF",
      "alert": "OK",
      "vis_m": 9999,
      "fzfg": false,
      "metar_trigger": false,
      "taf_trigger": false,
      "metar": "METAR LIRF 272020Z 02016KT CAVOK 09/02 Q1007 NOSIG",
      "taf": "TAF LIRF 271700Z 2718/2824 01020G32KT CAVOK"
    },
    {
      "icao": "LIRN",
      "alert": "OK",
      "vis_m": 9999,
      "fzfg": false,
      "metar_trigger": false,
      "taf_trigger": false,
      "metar": "METAR LIRN 272020Z 02004KT CAVOK 09/02 Q1006 NOSIG",
      "taf": "TAF LIRN 271700Z 2718/2818 04008KT 9999 SCT050"
    },
    {
      "icao": "LIRP",
      "alert": "OK",
      "vis_m": 9999,
      "fzfg": false,
      "metar_trigger": false,
      "taf_trigger": false,
      "metar": "METAR LIRP 272015Z VRB01KT 9999 FEW060 09/02 Q1010 NOSIG",
      "taf": "TAF LIRP 271700Z 2718/2818 30005KT 9999 SCT080"
    },
    {
      "icao": "LIRZ",
      "alert": "OK",
      "vis_m": 9999,
      "fzfg": false,
      "metar_trigger": false,
      "taf_trigger": false,
      "metar": "METAR LIRZ 272020Z AUTO VRB01KT 9999 BKN055/// 05/01 Q1009",
      "taf": "TAF LIRZ 271700Z 2718/2818 35011KT 9999 SCT030"
    },
    {
      "icao": "LJLJ",
      "alert": "OK",
      "vis_m": 9999,
      "fzfg": false,
      "metar_trigger": false,
      "taf_trigger": false,
      "metar": "METAR LJLJ 272030Z 33014KT 300V010 9999 FEW060 SCT080 07/M08 Q1011 WS ALL RWY NOSIG",
      "taf": "TAF LJLJ 271700Z 2718/2818 33015G30KT 9999 FEW060 SCT090"
    },
    {
      "icao": "LKMT",
      "alert": "OK",
      "vis_m": 9999,
      "fzfg": false,
      "metar_trigger": false,
      "taf_trigger": false,
      "metar": "METAR LKMT 272030Z 06008KT 9999 -RA OVC047 02/01 Q1017 NOSIG",
      "taf": ""
    },
    {
      "icao": "LKPR",
      "alert": "OK",
      "vis_m": 9999,
      "fzfg": false,
      "metar_trigger": false,
      "taf_trigger": false,
      "metar": "METAR LKPR 272030Z 29005KT 9999 SCT043 00/M05 Q1020 NOSIG",
      "taf": "TAF LKPR 272000Z 2721/2903 30006KT CAVOK"
    },
    {
      "icao": "LLBG",
      "alert": "OK",
      "vis_m": 9999,
      "fzfg": false,
      "metar_trigger": false,
      "taf_trigger": false,
      "metar": "METAR LLBG 272020Z 14006KT 9999 FEW025 14/11 Q1016 NOSIG",
      "taf": "TAF LLBG 271705Z 2718/2818 24007KT 9999 SCT025 TX24/2812Z TN09/2803Z"
    },
    {
      "icao": "LMML",
      "alert": "OK",
      "vis_m": 9999,
      "fzfg": false,
      "metar_trigger": false,
      "taf_trigger": false,
      "metar": "METAR LMML 272045Z 31009KT 9999 -RA SCT020CB SCT044 09/05 Q1007 TEMPO 8000 SHRA",
      "taf": "TAF LMML 271700Z 2718/2818 29020KT 9999 SCT020"
    },
    {
      "icao": "LOWW",
      "alert": "OK",
      "vis_m": 9999,
      "fzfg": false,
      "metar_trigger": false,
      "taf_trigger": false,
      "metar": "METAR LOWW 272020Z 35017G29KT 9999 -RA FEW022 BKN030 04/M00 Q1017 NOSIG",
      "taf": "TAF LOWW 272015Z 2721/2903 34018KT 9999 FEW015 BKN025 TX09/2815Z TN03/2806Z"
    },
    {
      "icao": "LPFR",
      "alert": "OK",
      "vis_m": 9999,
      "fzfg": false,
      "metar_trigger": false,
      "taf_trigger": false,
      "metar": "METAR LPFR 272030Z 28005KT 250V330 CAVOK 15/10 Q1015",
      "taf": "TAF LPFR 271700Z 2718/2818 26007KT CAVOK"
    },
    {
      "icao": "LPMA",
      "alert": "OK",
      "vis_m": 9999,
      "fzfg": false,
      "metar_trigger": false,
      "taf_trigger": false,
      "metar": "METAR LPMA 272030Z 02013KT 330V060 9999 FEW016 16/10 Q1019",
      "taf": "TAF LPMA 271700Z 2718/2818 01015KT 9999 SCT015"
    },
    {
      "icao": "LPPR",
      "alert": "OK",
      "vis_m": 9999,
      "fzfg": false,
      "metar_trigger": false,
      "taf_trigger": false,
      "metar": "METAR LPPR 272030Z VRB02KT CAVOK 13/11 Q1019",
      "taf": "TAF LPPR 271700Z 2718/2818 33010KT CAVOK"
    },
    {
      "icao": "LPPS",
      "alert": "OK",
      "vis_m": 9999,
      "fzfg": false,
      "metar_trigger": false,
      "taf_trigger": false,
      "metar": "METAR LPPS 272030Z 01014KT 9999 SCT014 BKN030 16/11 Q1020",
      "taf": "TAF LPPS 271700Z 2718/2824 01015KT 9999 SCT015 SCT030"
    },
    {
      "icao": "LPPT",
      "alert": "OK",
      "vis_m": 9999,
      "fzfg": false,
      "metar_trigger": false,
      "taf_trigger": false,
      "metar": "METAR LPPT 272030Z 32013KT CAVOK 15/07 Q1017",
      "taf": "TAF LPPT 271700Z 2718/2824 33012KT CAVOK"
    },
    {
      "icao": "LQBK",
      "alert": "OK",
      "vis_m": 9999,
      "fzfg": false,
      "metar_trigger": false,
      "taf_trigger": false,
      "metar": "METAR LQBK 272030Z 31014KT 9999 -RA BKN017 OVC027 05/01 Q1009 NOSIG",
      "taf": "TAF LQBK 271700Z 2718/2818 30011KT 7000 RA SCT010 BKN015 OVC030 TX06/2813Z TN02/2806Z"
    },
    {
      "icao": "LQSA",
      "alert": "OK",
      "vis_m": 3500,
      "fzfg": false,
      "metar_trigger": false,
      "taf_trigger": false,
      "metar": "METAR LQSA 272030Z VRB02KT 3500 SN SCT006 BKN025 01/01 Q1006 NOSIG",
      "taf": "TAF LQSA 271700Z 2718/2818 31007KT 9999 SCT012 BKN030 TX04/2813Z TN00/2806Z"
    },
    {
      "icao": "LQTZ",
      "alert": "OK",
      "vis_m": 2300,
      "fzfg": false,
      "metar_trigger": false,
      "taf_trigger": false,
      "metar": "METAR LQTZ 272030Z 29006KT 2300 SN BR OVC002 00/00 Q1007",
      "taf": "TAF LQTZ 271700Z 2718/2818 27007KT 3000 RA SCT005 BKN010 OVC020 TX02/2814Z TNM01/2805Z"
    },
    {
      "icao": "LRBC",
      "alert": "OK",
      "vis_m": 9999,
      "fzfg": false,
      "metar_trigger": false,
      "taf_trigger": false,
      "metar": "METAR LRBC 272030Z 34006KT 9999 OVC033 08/04 Q1010",
      "taf": "TAF LRBC 272000Z 2721/2806 34006KT 9999 OVC035"
    },
    {
      "icao": "LRBS",
      "alert": "OK",
      "vis_m": 9999,
      "fzfg": false,
      "metar_trigger": false,
      "taf_trigger": false,
      "metar": "METAR LRBS 272030Z 06016KT 9999 -RA BKN011 BKN014 OVC017 08/07 Q1005 NOSIG",
      "taf": "TAF LRBS 271700Z 2718/2818 08020KT 9999 BKN025"
    },
    {
      "icao": "LRBV",
      "alert": "OK",
      "vis_m": 9999,
      "fzfg": false,
      "metar_trigger": false,
      "taf_trigger": false,
      "metar": "METAR LRBV 272030Z 08015KT 9999 FEW045 SCT069 07/02 Q1006",
      "taf": "TAF LRBV 272000Z 2721/2806 07015KT 9999 BKN075"
    },
    {
      "icao": "LRCL",
      "alert": "OK",
      "vis_m": 9999,
      "fzfg": false,
      "metar_trigger": false,
      "taf_trigger": false,
      "metar": "METAR LRCL 272030Z 12012KT CAVOK 10/M01 Q1006",
      "taf": "TAF LRCL 272000Z 2721/2806 09007KT 9999 BKN065"
    },
    {
      "icao": "LRCV",
      "alert": "OK",
      "vis_m": 9999,
      "fzfg": false,
      "metar_trigger": false,
      "taf_trigger": false,
      "metar": "METAR LRCV 272030Z 07015KT 9999 BKN009 OVC013 09/08 Q1003",
      "taf": "TAF LRCV 272000Z 2721/2806 07019KT 9999 BKN010 OVC030"
    },
    {
      "icao": "LRIA",
      "alert": "OK",
      "vis_m": 9999,
      "fzfg": false,
      "metar_trigger": false,
      "taf_trigger": false,
      "metar": "METAR LRIA 272030Z 30005KT CAVOK 07/02 Q1010",
      "taf": "TAF LRIA 272000Z 2721/2806 32006KT CAVOK"
    },
    {
      "icao": "LROP",
      "alert": "OK",
      "vis_m": 9999,
      "fzfg": false,
      "metar_trigger": false,
      "taf_trigger": false,
      "metar": "METAR LROP 272030Z 08018KT 9999 -RA BKN013 OVC030 09/05 Q1006 NOSIG",
      "taf": "TAF LROP 271700Z 2718/2818 08020KT 9999 BKN025"
    },
    {
      "icao": "LRSB",
      "alert": "OK",
      "vis_m": 9999,
      "fzfg": false,
      "metar_trigger": false,
      "taf_trigger": false,
      "metar": "METAR LRSB 272030Z 12005KT 9999 -RA BKN045 07/04 Q1004",
      "taf": "TAF LRSB 271700Z 2718/2818 VRB04KT 9999 BKN075"
    },
    {
      "icao": "LRSM",
      "alert": "OK",
      "vis_m": 9999,
      "fzfg": false,
      "metar_trigger": false,
      "taf_trigger": false,
      "metar": "METAR LRSM 272030Z AUTO VRB02KT 9999 SCT210/// 09/02 Q1006",
      "taf": "TAF LRSM 271400Z 2715/2724 08014KT CAVOK"
    },
    {
      "icao": "LRSV",
      "alert": "OK",
      "vis_m": 9999,
      "fzfg": false,
      "metar_trigger": false,
      "taf_trigger": false,
      "metar": "METAR LRSV 272030Z 32003KT 9999 SCT039 05/01 Q1010",
      "taf": "TAF LRSV 272000Z 2721/2806 VRB04KT 9999 BKN040"
    },
    {
      "icao": "LRTM",
      "alert": "OK",
      "vis_m": 9999,
      "fzfg": false,
      "metar_trigger": false,
      "taf_trigger": false,
      "metar": "METAR LRTM 272030Z AUTO 09008KT 050V120 9999 NCD 10/00 Q1006",
      "taf": "TAF LRTM 271700Z 2718/2803 09013KT CAVOK"
    },
    {
      "icao": "LRTR",
      "alert": "OK",
      "vis_m": 7000,
      "fzfg": false,
      "metar_trigger": false,
      "taf_trigger": false,
      "metar": "METAR LRTR 272030Z 34008KT 7000 -RA FEW006 SCT049 08/08 Q1003 NOSIG",
      "taf": "TAF LRTR 271700Z 2718/2818 VRB04KT 9999 BKN045"
    },
    {
      "icao": "LTAC",
      "alert": "OK",
      "vis_m": 9999,
      "fzfg": false,
      "metar_trigger": false,
      "taf_trigger": false,
      "metar": "METAR LTAC 272020Z VRB02KT CAVOK 06/02 Q1009 NOSIG RMK RWY21C VRB02KT RWY03L VRB02KT RWY21R 00000KT RWY03R 00000KT RWY21L 04003KT",
      "taf": "TAF LTAC 271640Z 2718/2818 VRB02KT CAVOK"
    },
    {
      "icao": "LTFM",
      "alert": "OK",
      "vis_m": 9999,
      "fzfg": false,
      "metar_trigger": false,
      "taf_trigger": false,
      "metar": "METAR LTFM 272020Z 21007KT 9999 -SHRA BKN035 BKN080 13/07 Q1005 NOSIG RMK RWY17L 22006KT RWY34L 21008KT RWY16R 23004KT RWY36 20007KT RWY18 21006KT",
      "taf": "TAF LTFM 271640Z 2718/2824 13010KT 9999 -SHRA BKN035 BKN080"
    },
    {
      "icao": "LUKK",
      "alert": "OK",
      "vis_m": 9999,
      "fzfg": false,
      "metar_trigger": false,
      "taf_trigger": false,
      "metar": "METAR LUKK 272030Z 07002KT CAVOK 08/04 Q1010 NOSIG",
      "taf": "TAF LUKK 271713Z 2718/2818 VRB05KT 9999 SCT045"
    },
    {
      "icao": "LWOH",
      "alert": "OK",
      "vis_m": 9999,
      "fzfg": false,
      "metar_trigger": false,
      "taf_trigger": false,
      "metar": "METAR LWOH 271950Z 31003KT 9999 SCT050 04/02 Q1001",
      "taf": "TAF LWOH 271730Z 2718/2818 VRB02KT 9999 SCT040 SCT080"
    },
    {
      "icao": "LWSK",
      "alert": "OK",
      "vis_m": 9999,
      "fzfg": false,
      "metar_trigger": false,
      "taf_trigger": false,
      "metar": "METAR LWSK 272050Z 05003KT 030V100 CAVOK 03/02 Q1002 NOSIG",
      "taf": "TAF LWSK 271730Z 2718/2818 34006KT 9999 FEW040 SCT080"
    },
    {
      "icao": "LYBE",
      "alert": "OK",
      "vis_m": 6000,
      "fzfg": false,
      "metar_trigger": false,
      "taf_trigger": false,
      "metar": "METAR LYBE 272030Z 17006KT 6000 RA BKN003 BKN025 06/05 Q1004 NOSIG",
      "taf": "TAF LYBE 271700Z 2718/2818 27007KT 5000 -RA BR BKN005 BKN027 TX09/2812Z TN05/2805Z"
    },
    {
      "icao": "LYNI",
      "alert": "OK",
      "vis_m": 9999,
      "fzfg": false,
      "metar_trigger": false,
      "taf_trigger": false,
      "metar": "METAR LYNI 272030Z 33006KT 300V020 9999 BKN027 07/05 Q1003 NOSIG",
      "taf": "TAF LYNI 271700Z 2718/2818 32010KT 9999 FEW013 BKN040 TX09/2718Z TN05/2806Z"
    },
    {
      "icao": "LYPG",
      "alert": "OK",
      "vis_m": 9999,
      "fzfg": false,
      "metar_trigger": false,
      "taf_trigger": false,
      "metar": "METAR LYPG 272030Z 36003KT CAVOK 08/04 Q1002 NOSIG",
      "taf": "TAF LYPG 271700Z 2718/2818 36005KT 9999 FEW040 SCT090 TX14/2812Z TN05/2805Z"
    },
    {
      "icao": "LZIB",
      "alert": "OK",
      "vis_m": 9999,
      "fzfg": false,
      "metar_trigger": false,
      "taf_trigger": false,
      "metar": "METAR LZIB 272030Z 34020KT 9999 -RA FEW010 SCT038 BKN048 04/01 Q1015 NOSIG",
      "taf": "TAF LZIB 271715Z 2718/2818 35013KT 9999 FEW016 SCT035"
    },
    {
      "icao": "LZKZ",
      "alert": "OK",
      "vis_m": 9999,
      "fzfg": false,
      "metar_trigger": false,
      "taf_trigger": false,
      "metar": "METAR LZKZ 272030Z 36026KT 9999 FEW030 06/01 Q1009 NOSIG",
      "taf": "TAF LZKZ 271715Z 2718/2818 01020KT 9999 FEW020 BKN025"
    },
    {
      "icao": "LZTT",
      "alert": "OK",
      "vis_m": 9999,
      "fzfg": false,
      "metar_trigger": false,
      "taf_trigger": false,
      "metar": "METAR LZTT 272030Z 29007G18KT 240V010 9999 -SN OVC028 01/M01 Q1011",
      "taf": ""
    },
    {
      "icao": "OEJN",
      "alert": "OK",
      "vis_m": 9999,
      "fzfg": false,
      "metar_trigger": false,
      "taf_trigger": false,
      "metar": "METAR OEJN 272000Z 36006KT CAVOK 22/10 Q1014 NOSIG",
      "taf": "TAF OEJN 271700Z 2718/2824 32010KT CAVOK"
    },
    {
      "icao": "OEMA",
      "alert": "OK",
      "vis_m": 9999,
      "fzfg": false,
      "metar_trigger": false,
      "taf_trigger": false,
      "metar": "METAR OEMA 272000Z 33004KT CAVOK 20/04 Q1017 NOSIG",
      "taf": "TAF OEMA 271700Z 2718/2824 30010KT CAVOK"
    },
    {
      "icao": "OJAI",
      "alert": "OK",
      "vis_m": 3500,
      "fzfg": false,
      "metar_trigger": false,
      "taf_trigger": false,
      "metar": "METAR OJAI 272000Z 14003KT 3500 BR NSC 08/07 Q1017 NOSIG",
      "taf": "TAF OJAI 271703Z 2718/2824 27010KT 3000 BR FEW030"
    },
    {
      "icao": "OMAA",
      "alert": "OK",
      "vis_m": null,
      "fzfg": false,
      "metar_trigger": false,
      "taf_trigger": false,
      "metar": "",
      "taf": ""
    },
    {
      "icao": "OMDB",
      "alert": "OK",
      "vis_m": null,
      "fzfg": false,
      "metar_trigger": false,
      "taf_trigger": false,
      "metar": "",
      "taf": ""
    },
    {
      "icao": "UAAA",
      "alert": "OK",
      "vis_m": 5000,
      "fzfg": false,
      "metar_trigger": false,
      "taf_trigger": false,
      "metar": "METAR UAAA 272030Z 19002MPS 5000 FU NSC 07/00 Q1012 NOSIG",
      "taf": "TAF UAAA 271704Z 2718/2818 22003MPS 9999 FEW100 TX19/2810Z TN05/2801Z"
    },
    {
      "icao": "UBBB",
      "alert": "OK",
      "vis_m": 9999,
      "fzfg": false,
      "metar_trigger": false,
      "taf_trigger": false,
      "metar": "METAR UBBB 272030Z 26012KT 9999 -SHRA BKN050CB 12/10 Q0999 NOSIG",
      "taf": "TAF UBBB 271704Z 2718/2818 28016KT 6000 -SHRA BKN007 SCT035CB OVC035 TX14/2810Z TN11/2802Z"
    },
    {
      "icao": "UDSG",
      "alert": "OK",
      "vis_m": 9000,
      "fzfg": false,
      "metar_trigger": false,
      "taf_trigger": false,
      "metar": "METAR UDSG 272030Z 32006KT 9000 -SHRA SCT030CB OVC043 04/02 Q1006 NOSIG",
      "taf": "TAF UDSG 271658Z 2718/2818 24006KT 9999 BKN040"
    },
    {
      "icao": "UDYZ",
      "alert": "OK",
      "vis_m": 9999,
      "fzfg": false,
      "metar_trigger": false,
      "taf_trigger": false,
      "metar": "METAR UDYZ 272030Z 26002KT 9999 -SHRA OVC036CB 08/07 Q1005 NOSIG",
      "taf": "TAF UDYZ 271700Z 2718/2818 04006KT 9999 BKN040"
    },
    {
      "icao": "UGKO",
      "alert": "OK",
      "vis_m": 9999,
      "fzfg": false,
      "metar_trigger": false,
      "taf_trigger": false,
      "metar": "METAR UGKO 272030Z VRB02KT 9999 SCT047 OVC059 09/08 Q1009 NOSIG",
      "taf": "TAF UGKO 271700Z 2718/2818 26006KT 9000 SCT033 OVC050 TX19/2811Z TN07/2803Z"
    }
  ]
}