{
  "ts_utc": "2026-03-22T03:16:41Z",
  "threshold_m": 150,
  "source": "stations_override.txt (ICAO list) + aviationweather.gov (METAR/TAF raw)",
  "station_count": 159,
  "stations": [
    {
      "icao": "BIKF",
      "alert": "OK",
      "vis_m": 9999,
      "fzfg": false,
      "metar_trigger": false,
      "taf_trigger": false,
      "metar": "METAR BIKF 220300Z 32021KT 9999 BKN021 BKN040 M01/M05 Q0987",
      "taf": "TAF BIKF 220109Z 2203/2303 30018KT 9999 -SHSN SCT015 BKN025 TX00/2216Z TNM03/2209Z"
    },
    {
      "icao": "BKPR",
      "alert": "OK",
      "vis_m": 9999,
      "fzfg": false,
      "metar_trigger": false,
      "taf_trigger": false,
      "metar": "METAR BKPR 220300Z 35009KT 9999 BKN080 04/M03 Q1013 NOSIG",
      "taf": "TAF BKPR 212330Z 2200/2224 03007KT 9999 SCT060"
    },
    {
      "icao": "EBCI",
      "alert": "OK",
      "vis_m": 200,
      "fzfg": false,
      "metar_trigger": false,
      "taf_trigger": false,
      "metar": "METAR EBCI 220250Z 06006KT 0200 R24/0550D FG BKN001 03/03 Q1014 NOSIG",
      "taf": ""
    },
    {
      "icao": "EDDB",
      "alert": "OK",
      "vis_m": 9999,
      "fzfg": false,
      "metar_trigger": false,
      "taf_trigger": false,
      "metar": "METAR EDDB 220250Z AUTO 08006KT CAVOK 01/M02 Q1021 NOSIG",
      "taf": "TAF EDDB 212300Z 2200/2224 08008KT CAVOK"
    },
    {
      "icao": "EDDH",
      "alert": "OK",
      "vis_m": 1600,
      "fzfg": false,
      "metar_trigger": false,
      "taf_trigger": false,
      "metar": "METAR EDDH 220250Z AUTO 06004KT 1600 1000 R05/P2000N R15/1500D BR BKN001 01/01 Q1021 BECMG 6000 FEW001",
      "taf": "TAF EDDH 212300Z 2200/2306 07004KT 7000 BKN005"
    },
    {
      "icao": "EDDK",
      "alert": "OK",
      "vis_m": 9999,
      "fzfg": false,
      "metar_trigger": false,
      "taf_trigger": false,
      "metar": "METAR EDDK 220250Z AUTO 07007KT CAVOK 06/02 Q1015 NOSIG",
      "taf": "TAF EDDK 212300Z 2200/2306 10005KT CAVOK"
    },
    {
      "icao": "EDDN",
      "alert": "OK",
      "vis_m": 9999,
      "fzfg": false,
      "metar_trigger": false,
      "taf_trigger": false,
      "metar": "METAR EDDN 220250Z AUTO 04003KT 350V080 CAVOK 03/01 Q1014",
      "taf": "TAF EDDN 212300Z 2200/2224 07005KT CAVOK"
    },
    {
      "icao": "EDDS",
      "alert": "OK",
      "vis_m": 9999,
      "fzfg": false,
      "metar_trigger": false,
      "taf_trigger": false,
      "metar": "METAR EDDS 220250Z AUTO 04007KT 9999 OVC017 03/02 Q1012",
      "taf": "TAF EDDS 212300Z 2200/2224 05007KT 9999 FEW040"
    },
    {
      "icao": "EDFH",
      "alert": "OK",
      "vis_m": 9999,
      "fzfg": false,
      "metar_trigger": false,
      "taf_trigger": false,
      "metar": "METAR EDFH 220250Z 09005KT 040V140 9999 SCT009 BKN046 05/03 Q1013",
      "taf": "TAF EDFH 212300Z 2200/2224 09009KT CAVOK"
    },
    {
      "icao": "EDJA",
      "alert": "OK",
      "vis_m": 9999,
      "fzfg": false,
      "metar_trigger": false,
      "taf_trigger": false,
      "metar": "METAR EDJA 220250Z AUTO 07007KT 040V110 9999 // OVC010/// 03/01 Q1011",
      "taf": "TAF EDJA 220200Z 2203/2212 05004KT 7000 OVC012"
    },
    {
      "icao": "EDLW",
      "alert": "OK",
      "vis_m": 6000,
      "fzfg": false,
      "metar_trigger": false,
      "taf_trigger": false,
      "metar": "METAR EDLW 220250Z AUTO 08006KT 6000 // NCD 02/01 Q1016",
      "taf": "TAF EDLW 211700Z 2118/2218 06006KT CAVOK"
    },
    {
      "icao": "EDNY",
      "alert": "OK",
      "vis_m": 9999,
      "fzfg": false,
      "metar_trigger": false,
      "taf_trigger": false,
      "metar": "METAR EDNY 220250Z AUTO 03006KT 9999 // SCT140/// 04/01 Q1011",
      "taf": "TAF EDNY 220200Z 2203/2212 04006KT 9000 NSC"
    },
    {
      "icao": "EDSB",
      "alert": "OK",
      "vis_m": 8000,
      "fzfg": false,
      "metar_trigger": false,
      "taf_trigger": false,
      "metar": "METAR EDSB 220250Z AUTO 01007KT 8000 FEW130/// 06/04 Q1012",
      "taf": "TAF EDSB 212300Z 2200/2224 04009KT 9999 FEW045"
    },
    {
      "icao": "EETN",
      "alert": "OK",
      "vis_m": 9999,
      "fzfg": false,
      "metar_trigger": false,
      "taf_trigger": false,
      "metar": "METAR EETN 220220Z 22008KT CAVOK 03/M02 Q1021",
      "taf": "TAF EETN 212330Z 2200/2224 22010KT CAVOK"
    },
    {
      "icao": "EFTU",
      "alert": "OK",
      "vis_m": 9999,
      "fzfg": false,
      "metar_trigger": false,
      "taf_trigger": false,
      "metar": "METAR EFTU 220250Z AUTO 21005KT CAVOK 02/00 Q1017",
      "taf": "TAF EFTU 220225Z 2203/2303 20007KT CAVOK"
    },
    {
      "icao": "EGBB",
      "alert": "OK",
      "vis_m": 9999,
      "fzfg": false,
      "metar_trigger": false,
      "taf_trigger": false,
      "metar": "METAR EGBB 220250Z 16004KT CAVOK 01/M01 Q1016",
      "taf": ""
    },
    {
      "icao": "EGGP",
      "alert": "OK",
      "vis_m": 4000,
      "fzfg": false,
      "metar_trigger": false,
      "taf_trigger": false,
      "metar": "METAR EGGP 220250Z 14003KT 4000 BR NSC 05/04 Q1016",
      "taf": "TAF EGGP 212254Z 2200/2224 VRB03KT 8000 NSC"
    },
    {
      "icao": "EGGW",
      "alert": "OK",
      "vis_m": 5000,
      "fzfg": false,
      "metar_trigger": false,
      "taf_trigger": false,
      "metar": "METAR EGGW 220250Z AUTO 29002KT 5000 BCFG NCD 03/02 Q1016",
      "taf": ""
    },
    {
      "icao": "EGKK",
      "alert": "OK",
      "vis_m": 9999,
      "fzfg": false,
      "metar_trigger": false,
      "taf_trigger": false,
      "metar": "METAR EGKK 220250Z VRB01KT CAVOK 01/00 Q1016",
      "taf": ""
    },
    {
      "icao": "EGNM",
      "alert": "OK",
      "vis_m": null,
      "fzfg": false,
      "metar_trigger": false,
      "taf_trigger": false,
      "metar": "",
      "taf": "TAF EGNM 212254Z 2200/2224 16005KT 3000 BR NSC"
    },
    {
      "icao": "EGPD",
      "alert": "OK",
      "vis_m": 9999,
      "fzfg": false,
      "metar_trigger": false,
      "taf_trigger": false,
      "metar": "METAR EGPD 220250Z AUTO 18014KT 9999 NCD 09/05 Q1009 TEMPO RA",
      "taf": "TAF EGPD 212258Z 2200/2224 18009KT 9999 FEW040"
    },
    {
      "icao": "EGPF",
      "alert": "OK",
      "vis_m": 5000,
      "fzfg": false,
      "metar_trigger": false,
      "taf_trigger": false,
      "metar": "METAR EGPF 220250Z AUTO 27004KT 220V320 5000 HZ NCD 07/05 Q1013",
      "taf": "TAF EGPF 212300Z 2200/2224 22005KT 2000 BR FEW030"
    },
    {
      "icao": "EHBK",
      "alert": "OK",
      "vis_m": 8000,
      "fzfg": false,
      "metar_trigger": false,
      "taf_trigger": false,
      "metar": "METAR EHBK 220255Z AUTO 09005KT 8000 NCD 04/02 Q1014",
      "taf": "TAF EHBK 212308Z 2200/2306 08006KT 4000 BR NSC"
    },
    {
      "icao": "EHEH",
      "alert": "OK",
      "vis_m": 5000,
      "fzfg": false,
      "metar_trigger": false,
      "taf_trigger": false,
      "metar": "METAR EHEH 220255Z AUTO 06005KT 5000 BR NCD 04/02 Q1015 WHT",
      "taf": "TAF EHEH 212351Z 2200/2306 02005KT 6000 NSC"
    },
    {
      "icao": "EKBI",
      "alert": "OK",
      "vis_m": 550,
      "fzfg": false,
      "metar_trigger": false,
      "taf_trigger": false,
      "metar": "METAR EKBI 220250Z AUTO 14004KT 110V170 0550 R09/1100N R27/1300U FG VV002 01/01 Q1021",
      "taf": ""
    },
    {
      "icao": "EKCH",
      "alert": "OK",
      "vis_m": 9999,
      "fzfg": false,
      "metar_trigger": false,
      "taf_trigger": false,
      "metar": "METAR EKCH 220250Z AUTO 14005KT 9999 NCD 00/M01 Q1023 NOSIG",
      "taf": "TAF EKCH 220227Z 2203/2303 17005KT CAVOK"
    },
    {
      "icao": "ENAL",
      "alert": "OK",
      "vis_m": 9999,
      "fzfg": false,
      "metar_trigger": false,
      "taf_trigger": false,
      "metar": "METAR ENAL 220250Z AUTO 21010KT 9999 FEW048/// SCT061/// 08/04 Q1006",
      "taf": "TAF ENAL 220200Z 2203/2212 21008KT 9999 -RA FEW015 BKN035"
    },
    {
      "icao": "ENBR",
      "alert": "OK",
      "vis_m": 9999,
      "fzfg": false,
      "metar_trigger": false,
      "taf_trigger": false,
      "metar": "METAR ENBR 220250Z 15021KT 9999 -DZRA BKN007 04/03 Q1013 RMK WIND 1200FT 15027KT",
      "taf": "TAF ENBR 212300Z 2200/2224 16020KT 9999 BKN005"
    },
    {
      "icao": "ENGM",
      "alert": "OK",
      "vis_m": 9999,
      "fzfg": false,
      "metar_trigger": false,
      "taf_trigger": false,
      "metar": "METAR ENGM 220250Z 20008KT 9999 OVC005 02/01 Q1015",
      "taf": "TAF ENGM 212300Z 2200/2224 20010KT 9999 BKN006"
    },
    {
      "icao": "ENHD",
      "alert": "OK",
      "vis_m": 9999,
      "fzfg": false,
      "metar_trigger": false,
      "taf_trigger": false,
      "metar": "METAR ENHD 220250Z AUTO 17014G25KT 140V200 9999 SCT003/// OVC005/// 05/04 Q1015",
      "taf": "TAF ENHD 220200Z 2203/2212 17018KT 9999 SCT002 OVC006"
    },
    {
      "icao": "ENTC",
      "alert": "OK",
      "vis_m": 9999,
      "fzfg": false,
      "metar_trigger": false,
      "taf_trigger": false,
      "metar": "METAR ENTC 220250Z 21020KT 9999 -SN FEW011 SCT021 BKN031 01/M01 Q0997 RMK WIND 2600FT 25035KT",
      "taf": "TAF ENTC 212300Z 2200/2224 21018KT 9999 FEW015CB BKN025"
    },
    {
      "icao": "ENTO",
      "alert": "OK",
      "vis_m": 9999,
      "fzfg": false,
      "metar_trigger": false,
      "taf_trigger": false,
      "metar": "METAR ENTO 220250Z AUTO 20016KT 9999 SCT005/// BKN006/// 03/02 Q1017",
      "taf": "TAF ENTO 212300Z 2200/2224 18012KT CAVOK"
    },
    {
      "icao": "ENVA",
      "alert": "OK",
      "vis_m": 9999,
      "fzfg": false,
      "metar_trigger": false,
      "taf_trigger": false,
      "metar": "METAR ENVA 220250Z AUTO 12005KT 9999 NCD 03/02 Q1008 RMK WIND 670FT 10007KT",
      "taf": "TAF ENVA 212300Z 2200/2224 11008KT 9999 FEW012 BKN030"
    },
    {
      "icao": "ENZV",
      "alert": "OK",
      "vis_m": 9999,
      "fzfg": false,
      "metar_trigger": false,
      "taf_trigger": false,
      "metar": "METAR ENZV 220250Z 17015KT 9999 OVC014 05/02 Q1016",
      "taf": "TAF ENZV 212300Z 2200/2224 17018KT 9999 BKN010"
    },
    {
      "icao": "EPGD",
      "alert": "OK",
      "vis_m": 6000,
      "fzfg": false,
      "metar_trigger": false,
      "taf_trigger": false,
      "metar": "METAR EPGD 220300Z 29001KT 6000 NSC M02/M03 Q1024",
      "taf": "TAF EPGD 212330Z 2200/2224 VRB02KT CAVOK"
    },
    {
      "icao": "EPKK",
      "alert": "OK",
      "vis_m": 9999,
      "fzfg": false,
      "metar_trigger": false,
      "taf_trigger": false,
      "metar": "METAR EPKK 220300Z 04004KT CAVOK M00/M03 Q1020",
      "taf": "TAF EPKK 220230Z 2203/2303 02005KT CAVOK"
    },
    {
      "icao": "EPKT",
      "alert": "OK",
      "vis_m": 9999,
      "fzfg": false,
      "metar_trigger": false,
      "taf_trigger": false,
      "metar": "METAR EPKT 220300Z 04002KT CAVOK M02/M04 Q1020",
      "taf": "TAF EPKT 212330Z 2200/2224 06006KT CAVOK"
    },
    {
      "icao": "EPLB",
      "alert": "OK",
      "vis_m": 9999,
      "fzfg": false,
      "metar_trigger": false,
      "taf_trigger": false,
      "metar": "METAR EPLB 220300Z 07003KT CAVOK 01/M00 Q1023",
      "taf": "TAF EPLB 212330Z 2200/2224 06005KT CAVOK"
    },
    {
      "icao": "EPMO",
      "alert": "OK",
      "vis_m": 9999,
      "fzfg": false,
      "metar_trigger": false,
      "taf_trigger": false,
      "metar": "METAR EPMO 220300Z 06005KT CAVOK M01/M02 Q1024",
      "taf": "TAF EPMO 212330Z 2200/2224 07005KT CAVOK"
    },
    {
      "icao": "EPPO",
      "alert": "OK",
      "vis_m": 9999,
      "fzfg": false,
      "metar_trigger": false,
      "taf_trigger": false,
      "metar": "METAR EPPO 220300Z 10003KT CAVOK M00/M03 Q1022",
      "taf": "TAF EPPO 212330Z 2200/2224 09006KT CAVOK"
    },
    {
      "icao": "EPRA",
      "alert": "OK",
      "vis_m": 9999,
      "fzfg": false,
      "metar_trigger": false,
      "taf_trigger": false,
      "metar": "METAR EPRA 220300Z 07005KT CAVOK 00/M03 Q1022",
      "taf": "TAF EPRA 220230Z 2203/2212 07006KT CAVOK"
    },
    {
      "icao": "EPRZ",
      "alert": "OK",
      "vis_m": 9999,
      "fzfg": false,
      "metar_trigger": false,
      "taf_trigger": false,
      "metar": "METAR EPRZ 220300Z 01005KT CAVOK 01/M01 Q1021",
      "taf": "TAF EPRZ 212330Z 2200/2224 02006KT CAVOK"
    },
    {
      "icao": "EPSC",
      "alert": "OK",
      "vis_m": 9999,
      "fzfg": false,
      "metar_trigger": false,
      "taf_trigger": false,
      "metar": "METAR EPSC 220300Z 11002KT CAVOK 00/M02 Q1023",
      "taf": "TAF EPSC 212330Z 2200/2224 07003KT CAVOK"
    },
    {
      "icao": "EPSY",
      "alert": "OK",
      "vis_m": 9999,
      "fzfg": false,
      "metar_trigger": false,
      "taf_trigger": false,
      "metar": "METAR EPSY 220300Z 04001KT CAVOK M04/M05 Q1025",
      "taf": "TAF EPSY 220230Z 2203/2212 VRB02KT CAVOK"
    },
    {
      "icao": "EPWA",
      "alert": "OK",
      "vis_m": 9999,
      "fzfg": false,
      "metar_trigger": false,
      "taf_trigger": false,
      "metar": "METAR EPWA 220300Z 08004KT CAVOK 03/M01 Q1023 NOSIG",
      "taf": "TAF EPWA 220230Z 2203/2303 07003KT CAVOK"
    },
    {
      "icao": "EPWR",
      "alert": "OK",
      "vis_m": 9999,
      "fzfg": false,
      "metar_trigger": false,
      "taf_trigger": false,
      "metar": "METAR EPWR 220300Z 13003KT CAVOK M00/M02 Q1021",
      "taf": "TAF EPWR 220230Z 2203/2303 09006KT CAVOK"
    },
    {
      "icao": "ESGG",
      "alert": "OK",
      "vis_m": 5000,
      "fzfg": false,
      "metar_trigger": false,
      "taf_trigger": false,
      "metar": "METAR ESGG 220250Z 21011KT 5000 BR BKN003 01/01 Q1021",
      "taf": "TAF ESGG 220230Z 2203/2303 21009KT 0300 FG VV002"
    },
    {
      "icao": "ESKN",
      "alert": "OK",
      "vis_m": 9999,
      "fzfg": false,
      "metar_trigger": false,
      "taf_trigger": false,
      "metar": "METAR ESKN 220250Z 23007KT CAVOK 01/M01 Q1020",
      "taf": "TAF ESKN 220230Z 2203/2303 23007KT CAVOK"
    },
    {
      "icao": "ESMS",
      "alert": "OK",
      "vis_m": 9999,
      "fzfg": false,
      "metar_trigger": false,
      "taf_trigger": false,
      "metar": "METAR ESMS 220250Z AUTO 09004KT 9999 NCD M00/M02 Q1022",
      "taf": "TAF ESMS 220227Z 2203/2303 14006KT CAVOK"
    },
    {
      "icao": "ESSA",
      "alert": "OK",
      "vis_m": 9999,
      "fzfg": false,
      "metar_trigger": false,
      "taf_trigger": false,
      "metar": "METAR ESSA 220250Z 24009KT CAVOK 03/01 Q1018 NOSIG",
      "taf": "TAF ESSA 220230Z 2203/2303 23010KT CAVOK"
    },
    {
      "icao": "EYKA",
      "alert": "OK",
      "vis_m": 9000,
      "fzfg": false,
      "metar_trigger": false,
      "taf_trigger": false,
      "metar": "METAR EYKA 220250Z 00000KT 9000 NSC M03/M03 Q1026",
      "taf": "TAF EYKA 212300Z 2200/2224 VRB03KT 5000 MIFG BR NSC"
    },
    {
      "icao": "EYPA",
      "alert": "OK",
      "vis_m": 9999,
      "fzfg": false,
      "metar_trigger": false,
      "taf_trigger": false,
      "metar": "METAR EYPA 220250Z 16003KT CAVOK M01/M02 Q1025",
      "taf": "TAF EYPA 212300Z 2200/2224 VRB03KT 8000 NSC"
    },
    {
      "icao": "EYVI",
      "alert": "OK",
      "vis_m": 5000,
      "fzfg": false,
      "metar_trigger": false,
      "taf_trigger": false,
      "metar": "METAR EYVI 220250Z VRB01KT 5000 BR NSC 01/M00 Q1025 NOSIG",
      "taf": "TAF EYVI 212300Z 2200/2224 VRB03KT 5000 MIFG BR NSC"
    },
    {
      "icao": "GCFV",
      "alert": "OK",
      "vis_m": 9999,
      "fzfg": false,
      "metar_trigger": false,
      "taf_trigger": false,
      "metar": "METAR GCFV 220300Z AUTO 20015G28KT 170V230 9999 BKN025 18/13 Q1003",
      "taf": "TAF GCFV 220200Z 2203/2303 23016KT 9999 SCT025 TX22/2214Z TN17/2206Z"
    },
    {
      "icao": "GCLP",
      "alert": "OK",
      "vis_m": 9999,
      "fzfg": false,
      "metar_trigger": false,
      "taf_trigger": false,
      "metar": "METAR GCLP 220300Z 21016KT 180V240 9999 BKN030 17/13 Q1001 NOSIG",
      "taf": "TAF GCLP 220200Z 2203/2303 22020KT 9999 SCT020 TX22/2214Z TN16/2206Z"
    },
    {
      "icao": "GCTS",
      "alert": "OK",
      "vis_m": 9999,
      "fzfg": false,
      "metar_trigger": false,
      "taf_trigger": false,
      "metar": "METAR GCTS 220300Z 28025G36KT 9999 FEW030 17/11 Q1001 NOSIG",
      "taf": "TAF GCTS 220200Z 2203/2303 26016KT 9999 SCT020 TX22/2214Z TN15/2206Z"
    },
    {
      "icao": "GMAD",
      "alert": "OK",
      "vis_m": 8000,
      "fzfg": false,
      "metar_trigger": false,
      "taf_trigger": false,
      "metar": "METAR GMAD 220300Z 16006KT 100V210 8000 -RA FEW023 SCT083 15/13 Q1006 NOSIG",
      "taf": "TAF GMAD 212300Z 2200/2306 06008KT 8000 SCT020 SCT080"
    },
    {
      "icao": "GMMN",
      "alert": "OK",
      "vis_m": 9999,
      "fzfg": false,
      "metar_trigger": false,
      "taf_trigger": false,
      "metar": "METAR GMMN 220300Z 13003KT 9999 BKN040 11/09 Q1007 NOSIG",
      "taf": "TAF GMMN 212300Z 2200/2306 16004KT 9999 BKN040"
    },
    {
      "icao": "GMMX",
      "alert": "OK",
      "vis_m": 9999,
      "fzfg": false,
      "metar_trigger": false,
      "taf_trigger": false,
      "metar": "METAR GMMX 220300Z 09004KT CAVOK 12/10 Q1006 NOSIG",
      "taf": "TAF GMMX 212300Z 2200/2306 06005KT 8000 SCT020"
    },
    {
      "icao": "HEGN",
      "alert": "OK",
      "vis_m": 9999,
      "fzfg": false,
      "metar_trigger": false,
      "taf_trigger": false,
      "metar": "METAR HEGN 220200Z 32009KT 9999 SCT020 BKN025 19/10 Q1007 NOSIG",
      "taf": "TAF HEGN 212300Z 2200/2306 28014KT 9999 SCT025"
    },
    {
      "icao": "HEMA",
      "alert": "OK",
      "vis_m": 9999,
      "fzfg": false,
      "metar_trigger": false,
      "taf_trigger": false,
      "metar": "METAR HEMA 220200Z 24010KT CAVOK 21/00 Q1006 NOSIG",
      "taf": "TAF HEMA 212300Z 2200/2306 28012KT CAVOK"
    },
    {
      "icao": "HESH",
      "alert": "OK",
      "vis_m": 9999,
      "fzfg": false,
      "metar_trigger": false,
      "taf_trigger": false,
      "metar": "METAR HESH 220200Z 27005KT CAVOK 21/09 Q1006 NOSIG",
      "taf": "TAF HESH 212300Z 2200/2306 18012KT 9999 SCT025"
    },
    {
      "icao": "HESX",
      "alert": "OK",
      "vis_m": 9999,
      "fzfg": false,
      "metar_trigger": false,
      "taf_trigger": false,
      "metar": "METAR HESX 220200Z 22004KT CAVOK 09/07 Q1008 NOSIG",
      "taf": "TAF HESX 212300Z 2200/2306 24009KT CAVOK"
    },
    {
      "icao": "LATI",
      "alert": "OK",
      "vis_m": 9999,
      "fzfg": false,
      "metar_trigger": false,
      "taf_trigger": false,
      "metar": "METAR LATI 220250Z 15002KT 9999 OVC098 09/04 Q1012 NOSIG",
      "taf": "TAF LATI 212300Z 2200/2224 VRB03KT 9999 OVC090 TX19/2213Z TN07/2205Z"
    },
    {
      "icao": "LBPD",
      "alert": "OK",
      "vis_m": 9999,
      "fzfg": false,
      "metar_trigger": false,
      "taf_trigger": false,
      "metar": "METAR LBPD 220300Z AUTO 00000KT 9999 -SHRA OVC037/// 07/06 Q1014",
      "taf": "TAF LBPD 212300Z 2200/2224 VRB04KT 9999 SCT030 OVC050"
    },
    {
      "icao": "LBSF",
      "alert": "OK",
      "vis_m": 9999,
      "fzfg": false,
      "metar_trigger": false,
      "taf_trigger": false,
      "metar": "METAR LBSF 220300Z AUTO 08004KT 050V110 9999 -RA OVC027/// 04/01 Q1014 NOSIG",
      "taf": "TAF LBSF 212300Z 2200/2224 VRB03KT 9999 SCT030 OVC050"
    },
    {
      "icao": "LBWN",
      "alert": "OK",
      "vis_m": 9999,
      "fzfg": false,
      "metar_trigger": false,
      "taf_trigger": false,
      "metar": "METAR LBWN 220300Z AUTO 01011KT 9999 OVC042/// 08/04 Q1013 NOSIG",
      "taf": "TAF LBWN 212300Z 2200/2224 01012KT 9999 SCT020 OVC040"
    },
    {
      "icao": "LCLK",
      "alert": "OK",
      "vis_m": 9999,
      "fzfg": false,
      "metar_trigger": false,
      "taf_trigger": false,
      "metar": "METAR LCLK 220300Z 26002KT 9999 FEW030TCU SCT070 09/08 Q1005 NOSIG",
      "taf": "TAF LCLK 212330Z 2200/2300 25007KT 9999 FEW030 SCT045"
    },
    {
      "icao": "LCPH",
      "alert": "OK",
      "vis_m": 7000,
      "fzfg": false,
      "metar_trigger": false,
      "taf_trigger": false,
      "metar": "METAR LCPH 220300Z AUTO 09003KT 070V180 7000 FEW029 SCT050 BKN070 11/09 Q1005 NOSIG",
      "taf": "TAF LCPH 212330Z 2200/2300 25009KT 9999 FEW020 SCT030 BKN040"
    },
    {
      "icao": "LEAL",
      "alert": "OK",
      "vis_m": 9999,
      "fzfg": false,
      "metar_trigger": false,
      "taf_trigger": false,
      "metar": "METAR LEAL 220300Z 30005KT CAVOK 10/09 Q1012 NOSIG",
      "taf": "TAF LEAL 212300Z 2200/2224 34005KT 9999 FEW020 TX17/2212Z TN06/2206Z"
    },
    {
      "icao": "LEBB",
      "alert": "OK",
      "vis_m": 9999,
      "fzfg": false,
      "metar_trigger": false,
      "taf_trigger": false,
      "metar": "METAR LEBB 220300Z AUTO 08003KT 030V120 9999 OVC012 09/08 Q1013",
      "taf": "TAF LEBB 212300Z 2200/2224 12005KT 9999 FEW030 TX16/2213Z TN06/2207Z"
    },
    {
      "icao": "LEBL",
      "alert": "OK",
      "vis_m": 9999,
      "fzfg": false,
      "metar_trigger": false,
      "taf_trigger": false,
      "metar": "METAR LEBL 220300Z 32006KT 9999 FEW030 08/05 Q1011 NOSIG",
      "taf": "TAF LEBL 212300Z 2200/2224 VRB04KT CAVOK TX16/2212Z TN07/2206Z"
    },
    {
      "icao": "LECH",
      "alert": "OK",
      "vis_m": 150,
      "fzfg": false,
      "metar_trigger": false,
      "taf_trigger": false,
      "metar": "METAR LECH 220300Z AUTO 21002KT 0150 R06/0125N FG VV005 04/03 Q1011",
      "taf": ""
    },
    {
      "icao": "LEMD",
      "alert": "OK",
      "vis_m": 7000,
      "fzfg": false,
      "metar_trigger": false,
      "taf_trigger": false,
      "metar": "METAR LEMD 220300Z 34002KT 7000 NSC 03/03 Q1012 NOSIG",
      "taf": "TAF LEMD 212300Z 2200/2306 VRB04KT CAVOK TX18/2212Z TN02/2205Z"
    },
    {
      "icao": "LEMG",
      "alert": "OK",
      "vis_m": 9999,
      "fzfg": false,
      "metar_trigger": false,
      "taf_trigger": false,
      "metar": "METAR LEMG 220300Z 09006KT 060V130 9999 FEW025 BKN045 14/10 Q1011 NOSIG",
      "taf": "TAF LEMG 212300Z 2200/2224 11010KT 9999 FEW020 BKN040 TX17/2213Z TN12/2206Z"
    },
    {
      "icao": "LEVC",
      "alert": "OK",
      "vis_m": 9999,
      "fzfg": false,
      "metar_trigger": false,
      "taf_trigger": false,
      "metar": "METAR LEVC 220300Z 25006KT CAVOK 07/06 Q1011 NOSIG",
      "taf": "TAF LEVC 212300Z 2200/2224 10006KT 9999 FEW020 TX20/2212Z TN04/2206Z"
    },
    {
      "icao": "LEXJ",
      "alert": "OK",
      "vis_m": 5000,
      "fzfg": false,
      "metar_trigger": false,
      "taf_trigger": false,
      "metar": "METAR LEXJ 220300Z AUTO 24005KT 5000 BR SCT016 09/07 Q1013",
      "taf": "TAF LEXJ 220200Z 2203/2303 21009KT 9999 FEW010 TX17/2214Z TN07/2207Z"
    },
    {
      "icao": "LEZG",
      "alert": "OK",
      "vis_m": 9999,
      "fzfg": false,
      "metar_trigger": false,
      "taf_trigger": false,
      "metar": "METAR LEZG 220300Z 26003KT CAVOK 06/03 Q1011 NOSIG",
      "taf": "TAF LEZG 212300Z 2200/2224 VRB04KT 9999 FEW010 TX20/2214Z TN05/2206Z"
    },
    {
      "icao": "LEZL",
      "alert": "OK",
      "vis_m": 9999,
      "fzfg": false,
      "metar_trigger": false,
      "taf_trigger": false,
      "metar": "METAR LEZL 220300Z AUTO 03004KT CAVOK 15/12 Q1010",
      "taf": "TAF LEZL 220200Z 2203/2303 04005KT CAVOK TX23/2215Z TN11/2207Z"
    },
    {
      "icao": "LFBD",
      "alert": "OK",
      "vis_m": 9999,
      "fzfg": false,
      "metar_trigger": false,
      "taf_trigger": false,
      "metar": "METAR LFBD 220300Z AUTO 32003KT CAVOK 07/04 Q1010 TEMPO 1500 MIFG",
      "taf": "TAF LFBD 212300Z 2200/2306 34005KT CAVOK TX18/2214Z TN05/2206Z"
    },
    {
      "icao": "LFLL",
      "alert": "OK",
      "vis_m": 9999,
      "fzfg": false,
      "metar_trigger": false,
      "taf_trigger": false,
      "metar": "METAR LFLL 220300Z 21002KT CAVOK 09/04 Q1009 NOSIG",
      "taf": "TAF LFLL 212300Z 2200/2306 VRB02KT CAVOK"
    },
    {
      "icao": "LFLS",
      "alert": "OK",
      "vis_m": 9999,
      "fzfg": false,
      "metar_trigger": false,
      "taf_trigger": false,
      "metar": "METAR LFLS 220300Z AUTO 33003KT 230V360 CAVOK 07/04 Q1009 NOSIG",
      "taf": "TAF LFLS 220200Z 2203/2303 VRB02KT 9999 FEW040 BKN070"
    },
    {
      "icao": "LFMN",
      "alert": "OK",
      "vis_m": 9999,
      "fzfg": false,
      "metar_trigger": false,
      "taf_trigger": false,
      "metar": "METAR LFMN 220300Z 34009KT 9999 -RA BKN046 09/07 Q1012 NOSIG",
      "taf": "TAF LFMN 220200Z 2203/2309 01012KT 9999 BKN040"
    },
    {
      "icao": "LFOB",
      "alert": "OK",
      "vis_m": 4500,
      "fzfg": false,
      "metar_trigger": false,
      "taf_trigger": false,
      "metar": "METAR LFOB 220300Z AUTO VRB03KT 4500 BR NSC 03/02 Q1013 NOSIG",
      "taf": "TAF LFOB 212300Z 2200/2224 VRB04KT CAVOK"
    },
    {
      "icao": "LFPO",
      "alert": "OK",
      "vis_m": 9999,
      "fzfg": false,
      "metar_trigger": false,
      "taf_trigger": false,
      "metar": "METAR LFPO 220300Z AUTO 02009KT CAVOK 08/04 Q1012 NOSIG",
      "taf": "TAF LFPO 212300Z 2200/2306 03008KT CAVOK"
    },
    {
      "icao": "LFSB",
      "alert": "OK",
      "vis_m": 9999,
      "fzfg": false,
      "metar_trigger": false,
      "taf_trigger": false,
      "metar": "METAR LFSB 220300Z AUTO VRB01KT 9999 -RA BKN037 OVC045 08/04 Q1010 TEMPO 1200 BCFG BKN014 FEW025TCU",
      "taf": "TAF LFSB 212300Z 2200/2224 34004KT 9999 FEW010 BKN040"
    },
    {
      "icao": "LGAV",
      "alert": "OK",
      "vis_m": 9999,
      "fzfg": false,
      "metar_trigger": false,
      "taf_trigger": false,
      "metar": "METAR LGAV 220250Z 35009KT 9999 SCT025 BKN060 09/06 Q1011 NOSIG",
      "taf": "TAF LGAV 212300Z 2200/2224 33010KT 9999 FEW025"
    },
    {
      "icao": "LGTS",
      "alert": "OK",
      "vis_m": 9999,
      "fzfg": false,
      "metar_trigger": false,
      "taf_trigger": false,
      "metar": "METAR LGTS 220250Z 09004KT 9999 FEW025 07/02 Q1012 NOSIG",
      "taf": "TAF LGTS 212300Z 2200/2224 VRB03KT 9999 SCT025"
    },
    {
      "icao": "LHBP",
      "alert": "OK",
      "vis_m": 9999,
      "fzfg": false,
      "metar_trigger": false,
      "taf_trigger": false,
      "metar": "METAR LHBP 220300Z 07009KT CAVOK 08/M02 Q1017 NOSIG",
      "taf": "TAF LHBP 212315Z 2200/2224 05008KT CAVOK"
    },
    {
      "icao": "LHDC",
      "alert": "OK",
      "vis_m": 9999,
      "fzfg": false,
      "metar_trigger": false,
      "taf_trigger": false,
      "metar": "METAR LHDC 220245Z AUTO 07007KT CAVOK 04/M02 Q1017",
      "taf": ""
    },
    {
      "icao": "LIBD",
      "alert": "OK",
      "vis_m": 9999,
      "fzfg": false,
      "metar_trigger": false,
      "taf_trigger": false,
      "metar": "METAR LIBD 220250Z 24006KT CAVOK 04/01 Q1012",
      "taf": "TAF LIBD 212300Z 2200/2224 25005KT 9999 SCT040"
    },
    {
      "icao": "LIBG",
      "alert": "OK",
      "vis_m": null,
      "fzfg": false,
      "metar_trigger": false,
      "taf_trigger": false,
      "metar": "",
      "taf": "TAF LIBG 211700Z 2118/2203 01006KT 9999 SCT030"
    },
    {
      "icao": "LIBP",
      "alert": "OK",
      "vis_m": 9999,
      "fzfg": false,
      "metar_trigger": false,
      "taf_trigger": false,
      "metar": "METAR LIBP 220250Z AUTO 24004KT 9999 OVC100/// 06/04 Q1012",
      "taf": "TAF LIBP 212300Z 2200/2224 23006KT 9999 SCT060"
    },
    {
      "icao": "LIBR",
      "alert": "OK",
      "vis_m": 9999,
      "fzfg": false,
      "metar_trigger": false,
      "taf_trigger": false,
      "metar": "METAR LIBR 220250Z 29005KT CAVOK 09/04 Q1011",
      "taf": "TAF LIBR 212300Z 2200/2224 35010KT 9999 FEW030"
    },
    {
      "icao": "LICA",
      "alert": "OK",
      "vis_m": 9999,
      "fzfg": false,
      "metar_trigger": false,
      "taf_trigger": false,
      "metar": "METAR LICA 220250Z AUTO 08005KT 9999 NCD 05/04 Q1012",
      "taf": "TAF LICA 212300Z 2200/2224 09012KT 9999 SCT040"
    },
    {
      "icao": "LICC",
      "alert": "OK",
      "vis_m": 9999,
      "fzfg": false,
      "metar_trigger": false,
      "taf_trigger": false,
      "metar": "METAR LICC 220250Z 26004KT 9999 SCT035 BKN080 11/08 Q1011",
      "taf": "TAF LICC 212300Z 2200/2224 VRB05KT 9999 SCT040"
    },
    {
      "icao": "LICJ",
      "alert": "OK",
      "vis_m": 9999,
      "fzfg": false,
      "metar_trigger": false,
      "taf_trigger": false,
      "metar": "METAR LICJ 220250Z AUTO 15001KT 9999 BKN081/// 11/03 Q1010",
      "taf": "TAF LICJ 212300Z 2200/2224 VRB05KT 9999 SCT040"
    },
    {
      "icao": "LIMC",
      "alert": "OK",
      "vis_m": 9999,
      "fzfg": false,
      "metar_trigger": false,
      "taf_trigger": false,
      "metar": "METAR LIMC 220250Z 34007KT 9999 BKN050 08/04 Q1013 NOSIG",
      "taf": "TAF LIMC 212300Z 2200/2306 03007KT 9999 BKN050"
    },
    {
      "icao": "LIME",
      "alert": "OK",
      "vis_m": 9999,
      "fzfg": false,
      "metar_trigger": false,
      "taf_trigger": false,
      "metar": "METAR LIME 220220Z 02003KT 9999 BKN100 08/02 Q1013 NOSIG",
      "taf": "TAF LIME 212300Z 2200/2224 05008KT 9999 SCT070"
    },
    {
      "icao": "LIMF",
      "alert": "OK",
      "vis_m": 7000,
      "fzfg": false,
      "metar_trigger": false,
      "taf_trigger": false,
      "metar": "METAR LIMF 220250Z 34011KT 7000 -RA BKN020 OVC030 06/04 Q1013",
      "taf": "TAF LIMF 212300Z 2200/2224 03010KT 6000 RA BKN050"
    },
    {
      "icao": "LIMJ",
      "alert": "OK",
      "vis_m": 9999,
      "fzfg": false,
      "metar_trigger": false,
      "taf_trigger": false,
      "metar": "METAR LIMJ 220250Z AUTO 08007KT 050V110 9999 BKN042/// BKN058/// OVC066/// 11/06 Q1012",
      "taf": "TAF LIMJ 212300Z 2200/2224 VRB05KT 9999 SCT050"
    },
    {
      "icao": "LIPE",
      "alert": "OK",
      "vis_m": 9999,
      "fzfg": false,
      "metar_trigger": false,
      "taf_trigger": false,
      "metar": "METAR LIPE 220220Z 23003KT CAVOK 04/M01 Q1013",
      "taf": "TAF LIPE 212300Z 2200/2224 VRB05KT 9999 FEW050"
    },
    {
      "icao": "LIPH",
      "alert": "OK",
      "vis_m": 9999,
      "fzfg": false,
      "metar_trigger": false,
      "taf_trigger": false,
      "metar": "METAR LIPH 220250Z AUTO 02004KT 9999 OVC110/// 09/01 Q1014",
      "taf": "TAF LIPH 212300Z 2200/2224 03006KT 9999 SCT060"
    },
    {
      "icao": "LIPQ",
      "alert": "OK",
      "vis_m": 9999,
      "fzfg": false,
      "metar_trigger": false,
      "taf_trigger": false,
      "metar": "METAR LIPQ 220250Z AUTO 32005KT 9999 OVC100/// 08/M00 Q1014",
      "taf": "TAF LIPQ 212300Z 2200/2224 06006KT 9999 SCT060"
    },
    {
      "icao": "LIPR",
      "alert": "OK",
      "vis_m": 9999,
      "fzfg": false,
      "metar_trigger": false,
      "taf_trigger": false,
      "metar": "METAR LIPR 220250Z AUTO 27005KT 9999 BKN093/// 06/02 Q1012",
      "taf": "TAF LIPR 212300Z 2200/2224 VRB04KT 9999 FEW040"
    },
    {
      "icao": "LIPX",
      "alert": "OK",
      "vis_m": 9999,
      "fzfg": false,
      "metar_trigger": false,
      "taf_trigger": false,
      "metar": "METAR LIPX 220250Z 07007KT 9999 BKN090 10/01 Q1014",
      "taf": "TAF LIPX 212300Z 2200/2224 VRB05KT 9999 SCT060"
    },
    {
      "icao": "LIPY",
      "alert": "OK",
      "vis_m": 9999,
      "fzfg": false,
      "metar_trigger": false,
      "taf_trigger": false,
      "metar": "METAR LIPY 220250Z AUTO 18003KT 9999 FEW096/// 06/02 Q1012",
      "taf": "TAF LIPY 212300Z 2200/2224 VRB05KT 9999 SCT060"
    },
    {
      "icao": "LIPZ",
      "alert": "OK",
      "vis_m": 9999,
      "fzfg": false,
      "metar_trigger": false,
      "taf_trigger": false,
      "metar": "METAR LIPZ 220250Z 03007KT CAVOK 08/02 Q1014 NOSIG",
      "taf": "TAF LIPZ 212300Z 2200/2306 03008KT 9999 SCT060"
    },
    {
      "icao": "LIRF",
      "alert": "OK",
      "vis_m": 9999,
      "fzfg": false,
      "metar_trigger": false,
      "taf_trigger": false,
      "metar": "METAR LIRF 220250Z 31006KT 9999 -RA FEW045 09/06 Q1011 NOSIG",
      "taf": "TAF LIRF 212300Z 2200/2306 03008KT 9999 SCT060"
    },
    {
      "icao": "LIRN",
      "alert": "OK",
      "vis_m": 9999,
      "fzfg": false,
      "metar_trigger": false,
      "taf_trigger": false,
      "metar": "METAR LIRN 220250Z 35003KT 9999 FEW080 10/00 Q1011 NOSIG",
      "taf": "TAF LIRN 212300Z 2200/2224 VRB06KT 9999 FEW040"
    },
    {
      "icao": "LIRP",
      "alert": "OK",
      "vis_m": 9999,
      "fzfg": false,
      "metar_trigger": false,
      "taf_trigger": false,
      "metar": "METAR LIRP 220245Z 12003KT 9999 SCT080 03/02 Q1012 NOSIG",
      "taf": "TAF LIRP 212300Z 2200/2224 10006KT 9999 SCT080"
    },
    {
      "icao": "LIRZ",
      "alert": "OK",
      "vis_m": 9999,
      "fzfg": false,
      "metar_trigger": false,
      "taf_trigger": false,
      "metar": "METAR LIRZ 220250Z AUTO 36007KT 9999 SCT059/// BKN082/// 06/M00 Q1011",
      "taf": "TAF LIRZ 212300Z 2200/2224 VRB06KT 9999 SCT040"
    },
    {
      "icao": "LJLJ",
      "alert": "OK",
      "vis_m": 9999,
      "fzfg": false,
      "metar_trigger": false,
      "taf_trigger": false,
      "metar": "METAR LJLJ 220300Z 28004KT 9999 FEW005 SCT068 BKN090 04/02 Q1015 NOSIG",
      "taf": "TAF LJLJ 212300Z 2200/2300 30005KT 9999 FEW045 BKN080"
    },
    {
      "icao": "LKMT",
      "alert": "OK",
      "vis_m": 9999,
      "fzfg": false,
      "metar_trigger": false,
      "taf_trigger": false,
      "metar": "METAR LKMT 220300Z VRB01KT CAVOK M01/M03 Q1020 NOSIG",
      "taf": "TAF LKMT 212300Z 2200/2224 04004KT CAVOK"
    },
    {
      "icao": "LKPR",
      "alert": "OK",
      "vis_m": 9999,
      "fzfg": false,
      "metar_trigger": false,
      "taf_trigger": false,
      "metar": "METAR LKPR 220300Z 08004KT CAVOK 01/M01 Q1018 NOSIG",
      "taf": "TAF LKPR 220200Z 2203/2309 10005KT 9999 SCT033"
    },
    {
      "icao": "LLBG",
      "alert": "OK",
      "vis_m": 9999,
      "fzfg": false,
      "metar_trigger": false,
      "taf_trigger": false,
      "metar": "METAR LLBG 220250Z 14009KT CAVOK 11/09 Q1008 TEMPO 7000 RA FEW025TCU BKN030 RMK FEW067 SCT090",
      "taf": "TAF LLBG 212308Z 2200/2224 16008KT 9999 SCT035 TX18/2211Z TN11/2204Z"
    },
    {
      "icao": "LMML",
      "alert": "OK",
      "vis_m": 9999,
      "fzfg": false,
      "metar_trigger": false,
      "taf_trigger": false,
      "metar": "METAR LMML 220245Z VRB01KT 9999 FEW025 10/08 Q1010 NOSIG",
      "taf": "TAF LMML 212300Z 2200/2224 15007KT 9999 SCT030"
    },
    {
      "icao": "LOWW",
      "alert": "OK",
      "vis_m": 9999,
      "fzfg": false,
      "metar_trigger": false,
      "taf_trigger": false,
      "metar": "METAR LOWW 220250Z 14003KT 9999 FEW050 07/03 Q1017 NOSIG",
      "taf": ""
    },
    {
      "icao": "LPFR",
      "alert": "OK",
      "vis_m": 9999,
      "fzfg": false,
      "metar_trigger": false,
      "taf_trigger": false,
      "metar": "METAR LPFR 220300Z 06008KT 9999 SCT018 14/13 Q1009",
      "taf": "TAF LPFR 212300Z 2200/2224 09010KT 9999 FEW040"
    },
    {
      "icao": "LPMA",
      "alert": "OK",
      "vis_m": 7000,
      "fzfg": false,
      "metar_trigger": false,
      "taf_trigger": false,
      "metar": "METAR LPMA 220300Z 04015KT 7000 SHRA BKN012 FEW018CB 16/15 Q0997",
      "taf": "TAF LPMA 212300Z 2200/2224 05010KT 9999 SCT016 SCT030"
    },
    {
      "icao": "LPPR",
      "alert": "OK",
      "vis_m": 400,
      "fzfg": false,
      "metar_trigger": false,
      "taf_trigger": false,
      "metar": "METAR LPPR 220300Z 01004KT 0400 R17/0450N FG VV002 11/11 Q1010",
      "taf": ""
    },
    {
      "icao": "LPPS",
      "alert": "OK",
      "vis_m": 9999,
      "fzfg": false,
      "metar_trigger": false,
      "taf_trigger": false,
      "metar": "METAR LPPS 220300Z 09018KT 9999 SCT008 FEW018CB 16/14 Q0999 RETSRA",
      "taf": "TAF LPPS 212300Z 2200/2306 09015KT 9999 SCT012 SCT030"
    },
    {
      "icao": "LPPT",
      "alert": "OK",
      "vis_m": 9999,
      "fzfg": false,
      "metar_trigger": false,
      "taf_trigger": false,
      "metar": "METAR LPPT 220300Z 05005KT 9999 FEW040 13/11 Q1010",
      "taf": "TAF LPPT 212300Z 2200/2306 03005KT 9999 FEW035"
    },
    {
      "icao": "LQBK",
      "alert": "OK",
      "vis_m": 9999,
      "fzfg": false,
      "metar_trigger": false,
      "taf_trigger": false,
      "metar": "METAR LQBK 220300Z 30004KT CAVOK 05/00 Q1014 NOSIG",
      "taf": "TAF LQBK 212300Z 2200/2224 15005KT CAVOK TX14/2213Z TN03/2205Z"
    },
    {
      "icao": "LQSA",
      "alert": "OK",
      "vis_m": 9999,
      "fzfg": false,
      "metar_trigger": false,
      "taf_trigger": false,
      "metar": "METAR LQSA 220300Z 11002KT CAVOK 03/M01 Q1013",
      "taf": "TAF LQSA 212300Z 2200/2224 VRB02KT 9999 SCT060 TX14/2214Z TN00/2205Z"
    },
    {
      "icao": "LQTZ",
      "alert": "OK",
      "vis_m": 9999,
      "fzfg": false,
      "metar_trigger": false,
      "taf_trigger": false,
      "metar": "METAR LQTZ 220300Z VRB02KT 9999 FEW072 05/01 Q1014",
      "taf": "TAF LQTZ 212300Z 2200/2224 16005KT 9999 SCT060 TX14/2213Z TN03/2205Z"
    },
    {
      "icao": "LRBC",
      "alert": "OK",
      "vis_m": 9999,
      "fzfg": false,
      "metar_trigger": false,
      "taf_trigger": false,
      "metar": "METAR LRBC 220300Z 35012KT 9999 BKN040 06/03 Q1019",
      "taf": "TAF LRBC 220200Z 2203/2212 35010KT 9999 BKN035"
    },
    {
      "icao": "LRBS",
      "alert": "OK",
      "vis_m": 9999,
      "fzfg": false,
      "metar_trigger": false,
      "taf_trigger": false,
      "metar": "METAR LRBS 220300Z 03008KT 360V070 9999 -RA OVC034 08/04 Q1017 NOSIG",
      "taf": "TAF LRBS 212300Z 2200/2224 04012KT 9999 BKN020 OVC040"
    },
    {
      "icao": "LRBV",
      "alert": "OK",
      "vis_m": 9999,
      "fzfg": false,
      "metar_trigger": false,
      "taf_trigger": false,
      "metar": "METAR LRBV 220300Z AUTO VRB03KT 9999 -RA FEW021/// BKN039/// OVC054/// 04/02 Q1018 REDZ",
      "taf": "TAF LRBV 220200Z 2203/2212 VRB04KT 9999 BKN030"
    },
    {
      "icao": "LRCL",
      "alert": "OK",
      "vis_m": 9999,
      "fzfg": false,
      "metar_trigger": false,
      "taf_trigger": false,
      "metar": "METAR LRCL 220300Z 24002KT 9999 OVC049 02/M03 Q1019",
      "taf": "TAF LRCL 220200Z 2203/2212 VRB04KT 9999 BKN045"
    },
    {
      "icao": "LRCV",
      "alert": "OK",
      "vis_m": 9999,
      "fzfg": false,
      "metar_trigger": false,
      "taf_trigger": false,
      "metar": "METAR LRCV 220300Z 36005KT 9999 OVC032 06/04 Q1017",
      "taf": "TAF LRCV 220200Z 2203/2212 06006KT 9999 BKN035"
    },
    {
      "icao": "LRIA",
      "alert": "OK",
      "vis_m": 9999,
      "fzfg": false,
      "metar_trigger": false,
      "taf_trigger": false,
      "metar": "METAR LRIA 220300Z 33005KT CAVOK 04/02 Q1020",
      "taf": "TAF LRIA 220200Z 2203/2212 02008KT CAVOK"
    },
    {
      "icao": "LROP",
      "alert": "OK",
      "vis_m": 9999,
      "fzfg": false,
      "metar_trigger": false,
      "taf_trigger": false,
      "metar": "METAR LROP 220300Z 04008KT 9999 -RA OVC036 08/03 Q1017 NOSIG",
      "taf": "TAF LROP 212300Z 2200/2224 04012KT 9999 BKN020 OVC040"
    },
    {
      "icao": "LRSB",
      "alert": "OK",
      "vis_m": 9999,
      "fzfg": false,
      "metar_trigger": false,
      "taf_trigger": false,
      "metar": "METAR LRSB 220300Z VRB01KT 9999 BKN030 BKN080 02/M01 Q1017",
      "taf": "TAF LRSB 212300Z 2200/2224 VRB04KT 9999 BKN045"
    },
    {
      "icao": "LRSM",
      "alert": "OK",
      "vis_m": 9999,
      "fzfg": false,
      "metar_trigger": false,
      "taf_trigger": false,
      "metar": "METAR LRSM 220300Z AUTO 12006KT 9999 BKN095/// 03/M01 Q1018",
      "taf": "TAF LRSM 220200Z 2203/2212 VRB04KT CAVOK"
    },
    {
      "icao": "LRSV",
      "alert": "OK",
      "vis_m": 9999,
      "fzfg": false,
      "metar_trigger": false,
      "taf_trigger": false,
      "metar": "METAR LRSV 220300Z 34008KT 9999 FEW027 03/02 Q1020",
      "taf": "TAF LRSV 220200Z 2203/2212 35009KT CAVOK"
    },
    {
      "icao": "LRTM",
      "alert": "OK",
      "vis_m": 9999,
      "fzfg": false,
      "metar_trigger": false,
      "taf_trigger": false,
      "metar": "METAR LRTM 220300Z AUTO 25003KT 9999 NCD 04/00 Q1018",
      "taf": "TAF LRTM 220200Z 2203/2212 VRB04KT 9999 BKN045"
    },
    {
      "icao": "LRTR",
      "alert": "OK",
      "vis_m": 9999,
      "fzfg": false,
      "metar_trigger": false,
      "taf_trigger": false,
      "metar": "METAR LRTR 220300Z COR 08008KT CAVOK 03/M03 Q1016",
      "taf": "TAF LRTR 212300Z 2200/2224 08006KT CAVOK"
    },
    {
      "icao": "LTAC",
      "alert": "OK",
      "vis_m": 9999,
      "fzfg": false,
      "metar_trigger": false,
      "taf_trigger": false,
      "metar": "METAR LTAC 220250Z VRB01KT 9999 SCT030 BKN080 04/04 Q1005 NOSIG RMK RWY21C VRB01KT RWY03L 00000KT RWY21R 00000KT RWY03R 00000KT RWY21L 00000KT",
      "taf": "TAF LTAC 212240Z 2200/2224 VRB02KT 9999 SCT040 BKN100"
    },
    {
      "icao": "LTFM",
      "alert": "OK",
      "vis_m": 1000,
      "fzfg": false,
      "metar_trigger": false,
      "taf_trigger": false,
      "metar": "METAR LTFM 220250Z 01014KT 1000 0700W R35R/0550N R17L/1100D R34L/0900D R36/1300D -RA BCFG BKN001 BKN018 08/07 Q1010 NOSIG RMK RWY17L 01012KT RWY34L 01014KT RWY16R 01014KT RWY36 02012KT RWY18 01012KT",
      "taf": "TAF LTFM 212240Z 2200/2306 02012KT 4500 -RA BR BKN003 BKN020"
    },
    {
      "icao": "LUKK",
      "alert": "OK",
      "vis_m": 9999,
      "fzfg": false,
      "metar_trigger": false,
      "taf_trigger": false,
      "metar": "METAR LUKK 220300Z 01010KT CAVOK 05/02 Q1018 NOSIG",
      "taf": "TAF LUKK 212305Z 2200/2224 03010KT 9999 SCT040"
    },
    {
      "icao": "LWOH",
      "alert": "OK",
      "vis_m": null,
      "fzfg": false,
      "metar_trigger": false,
      "taf_trigger": false,
      "metar": "",
      "taf": "TAF LWOH 220230Z 2203/2303 03006KT 9999 BKN050"
    },
    {
      "icao": "LWSK",
      "alert": "OK",
      "vis_m": 9999,
      "fzfg": false,
      "metar_trigger": false,
      "taf_trigger": false,
      "metar": "METAR LWSK 220250Z VRB02KT 9999 OVC080 07/M01 Q1014 NOSIG",
      "taf": "TAF LWSK 220230Z 2203/2303 VRB02KT 9999 BKN080"
    },
    {
      "icao": "LYBE",
      "alert": "OK",
      "vis_m": 9999,
      "fzfg": false,
      "metar_trigger": false,
      "taf_trigger": false,
      "metar": "METAR LYBE 220300Z 11006KT CAVOK 07/00 Q1015 NOSIG",
      "taf": "TAF LYBE 212300Z 2200/2224 08006KT CAVOK TX14/2213Z TN04/2205Z"
    },
    {
      "icao": "LYNI",
      "alert": "OK",
      "vis_m": 9999,
      "fzfg": false,
      "metar_trigger": false,
      "taf_trigger": false,
      "metar": "METAR LYNI 220300Z 00000KT 9999 BKN080 04/M01 Q1014 NOSIG",
      "taf": "TAF LYNI 212300Z 2200/2224 06005KT 9999 SCT080 TX12/2213Z TN00/2206Z"
    },
    {
      "icao": "LYPG",
      "alert": "OK",
      "vis_m": 9999,
      "fzfg": false,
      "metar_trigger": false,
      "taf_trigger": false,
      "metar": "METAR LYPG 220300Z 35004KT 9999 BKN090 11/M00 Q1012 NOSIG",
      "taf": "TAF LYPG 212300Z 2200/2224 36005KT 9999 BKN090 TX17/2213Z TN08/2204Z"
    },
    {
      "icao": "LZIB",
      "alert": "OK",
      "vis_m": 9999,
      "fzfg": false,
      "metar_trigger": false,
      "taf_trigger": false,
      "metar": "METAR LZIB 220300Z 03006KT CAVOK 07/02 Q1018 NOSIG",
      "taf": "TAF LZIB 212315Z 2200/2300 03005KT CAVOK"
    },
    {
      "icao": "LZKZ",
      "alert": "OK",
      "vis_m": 9999,
      "fzfg": false,
      "metar_trigger": false,
      "taf_trigger": false,
      "metar": "METAR LZKZ 220300Z 36008KT CAVOK 05/M01 Q1019 NOSIG",
      "taf": "TAF LZKZ 212315Z 2200/2300 01008KT CAVOK"
    },
    {
      "icao": "LZTT",
      "alert": "OK",
      "vis_m": 9999,
      "fzfg": false,
      "metar_trigger": false,
      "taf_trigger": false,
      "metar": "METAR LZTT 220300Z 29005KT 9999 SCT063 M03/M04 Q1018",
      "taf": "TAF LZTT 212315Z 2200/2300 VRB02KT CAVOK"
    },
    {
      "icao": "OEJN",
      "alert": "OK",
      "vis_m": 7000,
      "fzfg": false,
      "metar_trigger": false,
      "taf_trigger": false,
      "metar": "METAR OEJN 220300Z 11002KT 7000 NSC 20/07 Q1009 NOSIG",
      "taf": "TAF OEJN 212300Z 2200/2306 VRB03KT 7000 NSC"
    },
    {
      "icao": "OEMA",
      "alert": "OK",
      "vis_m": 9999,
      "fzfg": false,
      "metar_trigger": false,
      "taf_trigger": false,
      "metar": "METAR OEMA 220300Z 10005KT CAVOK 17/00 Q1013 NOSIG",
      "taf": "TAF OEMA 212300Z 2200/2306 VRB03KT 7000 NSC"
    },
    {
      "icao": "OJAI",
      "alert": "OK",
      "vis_m": 4000,
      "fzfg": false,
      "metar_trigger": false,
      "taf_trigger": false,
      "metar": "METAR OJAI 220300Z 14005KT 4000 -RA BKN030 07/05 Q1009 NOSIG",
      "taf": "TAF OJAI 212300Z 2200/2306 24014KT 4000 BR SCT020 BKN025"
    },
    {
      "icao": "OMAA",
      "alert": "OK",
      "vis_m": null,
      "fzfg": false,
      "metar_trigger": false,
      "taf_trigger": false,
      "metar": "",
      "taf": ""
    },
    {
      "icao": "OMDB",
      "alert": "OK",
      "vis_m": null,
      "fzfg": false,
      "metar_trigger": false,
      "taf_trigger": false,
      "metar": "",
      "taf": ""
    },
    {
      "icao": "UAAA",
      "alert": "OK",
      "vis_m": 9999,
      "fzfg": false,
      "metar_trigger": false,
      "taf_trigger": false,
      "metar": "METAR UAAA 220300Z VRB01MPS 9999 NSC 10/02 Q1015 NOSIG",
      "taf": "TAF UAAA 212302Z 2200/2224 20002MPS 9999 FEW050 SCT100 TX19/2209Z TN01/2201Z"
    },
    {
      "icao": "UBBB",
      "alert": "OK",
      "vis_m": 9999,
      "fzfg": false,
      "metar_trigger": false,
      "taf_trigger": false,
      "metar": "METAR UBBB 220300Z 35004KT CAVOK 07/05 Q1011 NOSIG",
      "taf": "TAF UBBB 212257Z 2200/2224 32005KT 9999 FEW030 TX16/2210Z TN06/2201Z"
    },
    {
      "icao": "UDSG",
      "alert": "OK",
      "vis_m": 6000,
      "fzfg": false,
      "metar_trigger": false,
      "taf_trigger": false,
      "metar": "METAR UDSG 220300Z 13002KT 6000 -RA SCT016 OVC033 01/01 Q1012 NOSIG",
      "taf": "TAF UDSG 212258Z 2200/2224 VRB06KT 9999 BKN040"
    },
    {
      "icao": "UDYZ",
      "alert": "OK",
      "vis_m": 9999,
      "fzfg": false,
      "metar_trigger": false,
      "taf_trigger": false,
      "metar": "METAR UDYZ 220300Z VRB02KT 9999 SCT043CB 09/07 Q1011 NOSIG",
      "taf": "TAF UDYZ 212300Z 2200/2224 06006KT 9999 SCT040"
    },
    {
      "icao": "UGKO",
      "alert": "OK",
      "vis_m": 9999,
      "fzfg": false,
      "metar_trigger": false,
      "taf_trigger": false,
      "metar": "METAR UGKO 220300Z 18002KT 9999 OVC023 09/08 Q1008 NOSIG",
      "taf": "TAF UGKO 212300Z 2200/2224 26007KT 9999 SCT020 BKN035 TX18/2212Z TN06/2203Z"
    }
  ]
}