{
  "ts_utc": "2026-07-11T14:43:52Z",
  "threshold_m": 150,
  "source": "stations_override.txt (ICAO list) + aviationweather.gov (METAR/TAF raw)",
  "station_count": 159,
  "stations": [
    {
      "icao": "BIKF",
      "alert": "OK",
      "vis_m": 5000,
      "fzfg": false,
      "metar_trigger": false,
      "taf_trigger": false,
      "metar": "METAR BIKF 111430Z 20019KT 5000 BR OVC004 11/11 Q1020",
      "taf": "TAF BIKF 111355Z 1115/1215 19020KT 6000 -DZ BKN005 OVC010 TX11/1215Z TN09/1203Z"
    },
    {
      "icao": "BKPR",
      "alert": "OK",
      "vis_m": 9999,
      "fzfg": false,
      "metar_trigger": false,
      "taf_trigger": false,
      "metar": "METAR BKPR 111430Z VRB02KT CAVOK 31/10 Q1017 NOSIG",
      "taf": "TAF BKPR 111130Z 1112/1212 26007KT 9999 SCT080"
    },
    {
      "icao": "EBCI",
      "alert": "OK",
      "vis_m": 9999,
      "fzfg": false,
      "metar_trigger": false,
      "taf_trigger": false,
      "metar": "METAR EBCI 111420Z 05010KT 020V090 CAVOK 31/11 Q1019 NOSIG",
      "taf": "TAF EBCI 111112Z 1112/1218 04008KT CAVOK"
    },
    {
      "icao": "EDDB",
      "alert": "OK",
      "vis_m": 9999,
      "fzfg": false,
      "metar_trigger": false,
      "taf_trigger": false,
      "metar": "METAR EDDB 111420Z AUTO 02008KT 320V070 CAVOK 28/11 Q1019 NOSIG",
      "taf": "TAF EDDB 111100Z 1112/1212 35009KT CAVOK"
    },
    {
      "icao": "EDDH",
      "alert": "OK",
      "vis_m": 9999,
      "fzfg": false,
      "metar_trigger": false,
      "taf_trigger": false,
      "metar": "METAR EDDH 111420Z AUTO 02009KT 340V040 CAVOK 28/13 Q1021 NOSIG",
      "taf": "TAF EDDH 111100Z 1112/1218 36007KT CAVOK"
    },
    {
      "icao": "EDDK",
      "alert": "OK",
      "vis_m": 9999,
      "fzfg": false,
      "metar_trigger": false,
      "taf_trigger": false,
      "metar": "METAR EDDK 111420Z AUTO 04008KT 350V090 CAVOK 31/15 Q1018 NOSIG",
      "taf": "TAF EDDK 111100Z 1112/1218 06007KT CAVOK"
    },
    {
      "icao": "EDDN",
      "alert": "OK",
      "vis_m": 9999,
      "fzfg": false,
      "metar_trigger": false,
      "taf_trigger": false,
      "metar": "METAR EDDN 111420Z AUTO 01009KT 320V060 CAVOK 29/12 Q1018 NOSIG",
      "taf": "TAF EDDN 111100Z 1112/1212 03005KT CAVOK"
    },
    {
      "icao": "EDDS",
      "alert": "OK",
      "vis_m": 9999,
      "fzfg": false,
      "metar_trigger": false,
      "taf_trigger": false,
      "metar": "METAR EDDS 111420Z AUTO 36008KT 300V100 CAVOK 32/05 Q1017 NOSIG",
      "taf": "TAF EDDS 111100Z 1112/1212 04008KT CAVOK"
    },
    {
      "icao": "EDFH",
      "alert": "OK",
      "vis_m": 9999,
      "fzfg": false,
      "metar_trigger": false,
      "taf_trigger": false,
      "metar": "METAR EDFH 111420Z 04008KT 360V090 CAVOK 29/11 Q1020",
      "taf": "TAF EDFH 111100Z 1112/1212 08007KT CAVOK"
    },
    {
      "icao": "EDJA",
      "alert": "OK",
      "vis_m": 9999,
      "fzfg": false,
      "metar_trigger": false,
      "taf_trigger": false,
      "metar": "METAR EDJA 111420Z 07007KT 040V110 CAVOK 29/12 Q1018",
      "taf": "TAF EDJA 111400Z 1115/1124 04005KT CAVOK"
    },
    {
      "icao": "EDLW",
      "alert": "OK",
      "vis_m": 9999,
      "fzfg": false,
      "metar_trigger": false,
      "taf_trigger": false,
      "metar": "METAR EDLW 111420Z 05007KT 350V100 CAVOK 29/12 Q1020",
      "taf": "TAF EDLW 111100Z 1112/1212 06008KT CAVOK"
    },
    {
      "icao": "EDNY",
      "alert": "OK",
      "vis_m": 9999,
      "fzfg": false,
      "metar_trigger": false,
      "taf_trigger": false,
      "metar": "METAR EDNY 111420Z 05005KT 350V160 CAVOK 31/10 Q1016",
      "taf": "TAF EDNY 111400Z 1115/1124 03006KT CAVOK"
    },
    {
      "icao": "EDSB",
      "alert": "OK",
      "vis_m": 9999,
      "fzfg": false,
      "metar_trigger": false,
      "taf_trigger": false,
      "metar": "METAR EDSB 111420Z 36011KT 330V040 CAVOK 33/11 Q1016",
      "taf": "TAF EDSB 111100Z 1112/1212 02012KT CAVOK"
    },
    {
      "icao": "EETN",
      "alert": "OK",
      "vis_m": 9999,
      "fzfg": false,
      "metar_trigger": false,
      "taf_trigger": false,
      "metar": "METAR EETN 111420Z 05010KT 020V100 CAVOK 24/17 Q1015 TEMPO FEW035CB",
      "taf": "TAF EETN 111130Z 1112/1212 04012KT 9999 SCT045"
    },
    {
      "icao": "EFTU",
      "alert": "OK",
      "vis_m": 9999,
      "fzfg": false,
      "metar_trigger": false,
      "taf_trigger": false,
      "metar": "METAR EFTU 111420Z AUTO 03007KT 360V070 CAVOK 25/14 Q1017",
      "taf": "TAF EFTU 111429Z 1115/1215 03007KT CAVOK"
    },
    {
      "icao": "EGBB",
      "alert": "OK",
      "vis_m": 9999,
      "fzfg": false,
      "metar_trigger": false,
      "taf_trigger": false,
      "metar": "METAR EGBB 111420Z 04010KT CAVOK 29/12 Q1022",
      "taf": "TAF EGBB 111101Z 1112/1212 06010KT CAVOK"
    },
    {
      "icao": "EGGP",
      "alert": "OK",
      "vis_m": 9999,
      "fzfg": false,
      "metar_trigger": false,
      "taf_trigger": false,
      "metar": "METAR EGGP 111420Z 07009KT CAVOK 29/14 Q1022",
      "taf": "TAF EGGP 111058Z 1112/1212 10007KT CAVOK"
    },
    {
      "icao": "EGGW",
      "alert": "OK",
      "vis_m": 9999,
      "fzfg": false,
      "metar_trigger": false,
      "taf_trigger": false,
      "metar": "METAR EGGW 111420Z AUTO 04011KT 360V090 9999 NCD 28/13 Q1022",
      "taf": "TAF EGGW 111053Z 1112/1212 05011KT CAVOK"
    },
    {
      "icao": "EGKK",
      "alert": "OK",
      "vis_m": 9999,
      "fzfg": false,
      "metar_trigger": false,
      "taf_trigger": false,
      "metar": "METAR EGKK 111420Z 07013KT CAVOK 27/15 Q1021",
      "taf": "TAF EGKK 111057Z 1112/1218 06010KT 9999 FEW045"
    },
    {
      "icao": "EGNM",
      "alert": "OK",
      "vis_m": 9999,
      "fzfg": false,
      "metar_trigger": false,
      "taf_trigger": false,
      "metar": "METAR EGNM 111420Z 07009KT 030V100 CAVOK 24/15 Q1025",
      "taf": "TAF EGNM 111054Z 1112/1212 06005KT CAVOK"
    },
    {
      "icao": "EGPD",
      "alert": "OK",
      "vis_m": 6000,
      "fzfg": false,
      "metar_trigger": false,
      "taf_trigger": false,
      "metar": "METAR EGPD 111420Z 05005KT 6000 OVC004 15/13 Q1029",
      "taf": ""
    },
    {
      "icao": "EGPF",
      "alert": "OK",
      "vis_m": 9999,
      "fzfg": false,
      "metar_trigger": false,
      "taf_trigger": false,
      "metar": "METAR EGPF 111420Z AUTO 07011KT 030V090 9999 OVC011 19/16 Q1027",
      "taf": "TAF EGPF 111053Z 1112/1212 07010KT 9999 BKN010"
    },
    {
      "icao": "EHBK",
      "alert": "OK",
      "vis_m": 9999,
      "fzfg": false,
      "metar_trigger": false,
      "taf_trigger": false,
      "metar": "METAR EHBK 111425Z AUTO 06008KT 320V120 9999 NCD 30/15 Q1019 NOSIG",
      "taf": "TAF EHBK 111113Z 1112/1218 06010KT CAVOK"
    },
    {
      "icao": "EHEH",
      "alert": "OK",
      "vis_m": 9999,
      "fzfg": false,
      "metar_trigger": false,
      "taf_trigger": false,
      "metar": "METAR EHEH 111425Z AUTO 06008KT 330V100 9999 NCD 29/17 Q1019 BLU NOSIG RMK TREND REMOTE BY EHWX",
      "taf": "TAF EHEH 111149Z 1112/1218 05007KT CAVOK"
    },
    {
      "icao": "EKBI",
      "alert": "OK",
      "vis_m": 9999,
      "fzfg": false,
      "metar_trigger": false,
      "taf_trigger": false,
      "metar": "METAR EKBI 111420Z AUTO 27008KT 220V310 9999 NCD 26/16 Q1022",
      "taf": "TAF EKBI 111427Z 1115/1215 29007KT CAVOK"
    },
    {
      "icao": "EKCH",
      "alert": "OK",
      "vis_m": 9999,
      "fzfg": false,
      "metar_trigger": false,
      "taf_trigger": false,
      "metar": "METAR EKCH 111420Z AUTO 36008KT 9999 NCD 25/11 Q1020 NOSIG",
      "taf": "TAF EKCH 111427Z 1115/1215 VRB04KT CAVOK"
    },
    {
      "icao": "ENAL",
      "alert": "OK",
      "vis_m": 9999,
      "fzfg": false,
      "metar_trigger": false,
      "taf_trigger": false,
      "metar": "METAR ENAL 111420Z 01008KT 330V050 CAVOK 15/10 Q1028",
      "taf": "TAF ENAL 111400Z 1115/1124 02012KT 9999 FEW020"
    },
    {
      "icao": "ENBR",
      "alert": "OK",
      "vis_m": 9999,
      "fzfg": false,
      "metar_trigger": false,
      "taf_trigger": false,
      "metar": "METAR ENBR 111420Z 31011KT CAVOK 16/11 Q1025 NOSIG RMK WIND 1200FT 33021KT",
      "taf": "TAF ENBR 111100Z 1112/1212 33010KT CAVOK"
    },
    {
      "icao": "ENGM",
      "alert": "OK",
      "vis_m": 9999,
      "fzfg": false,
      "metar_trigger": false,
      "taf_trigger": false,
      "metar": "METAR ENGM 111420Z 22014KT 9999 -TSRA FEW035CB 21/15 Q1020 TEMPO TSRA",
      "taf": "TAF ENGM 111100Z 1112/1212 VRB05KT CAVOK"
    },
    {
      "icao": "ENHD",
      "alert": "OK",
      "vis_m": 9999,
      "fzfg": false,
      "metar_trigger": false,
      "taf_trigger": false,
      "metar": "METAR ENHD 111420Z 35015KT CAVOK 16/11 Q1025",
      "taf": "TAF ENHD 111400Z 1115/1122 35018KT CAVOK"
    },
    {
      "icao": "ENTC",
      "alert": "OK",
      "vis_m": 9999,
      "fzfg": false,
      "metar_trigger": false,
      "taf_trigger": false,
      "metar": "METAR ENTC 111420Z 27013KT 9999 FEW041 BKN057 14/08 Q1024 NOSIG RMK WIND 2600FT 25008KT",
      "taf": "TAF ENTC 111100Z 1112/1212 27009KT 9999 BKN045"
    },
    {
      "icao": "ENTO",
      "alert": "OK",
      "vis_m": 9999,
      "fzfg": false,
      "metar_trigger": false,
      "taf_trigger": false,
      "metar": "METAR ENTO 111420Z 18009KT 9999 VCSH FEW040CB 23/13 Q1020 NOSIG",
      "taf": "TAF ENTO 111100Z 1112/1212 20010KT CAVOK"
    },
    {
      "icao": "ENVA",
      "alert": "OK",
      "vis_m": 9999,
      "fzfg": false,
      "metar_trigger": false,
      "taf_trigger": false,
      "metar": "METAR ENVA 111420Z 28013KT 9999 SCT030 17/10 Q1027 RMK WIND 670FT 29014KT",
      "taf": "TAF ENVA 111100Z 1112/1212 27010KT 9999 FEW030"
    },
    {
      "icao": "ENZV",
      "alert": "OK",
      "vis_m": 9999,
      "fzfg": false,
      "metar_trigger": false,
      "taf_trigger": false,
      "metar": "METAR ENZV 111420Z 33014KT CAVOK 17/10 Q1025 NOSIG",
      "taf": "TAF ENZV 111100Z 1112/1212 35012KT CAVOK"
    },
    {
      "icao": "EPGD",
      "alert": "OK",
      "vis_m": 9999,
      "fzfg": false,
      "metar_trigger": false,
      "taf_trigger": false,
      "metar": "METAR EPGD 111430Z 34014KT 300V010 9999 SCT031 20/13 Q1018",
      "taf": "TAF EPGD 111130Z 1112/1212 33012KT 9999 SCT030"
    },
    {
      "icao": "EPKK",
      "alert": "OK",
      "vis_m": 9999,
      "fzfg": false,
      "metar_trigger": false,
      "taf_trigger": false,
      "metar": "METAR EPKK 111430Z 26008KT 230V290 9999 FEW051 SCT062 21/11 Q1017",
      "taf": "TAF EPKK 111430Z 1115/1215 29008KT 9999 SCT055"
    },
    {
      "icao": "EPKT",
      "alert": "OK",
      "vis_m": 9999,
      "fzfg": false,
      "metar_trigger": false,
      "taf_trigger": false,
      "metar": "METAR EPKT 111430Z 31007KT 290V350 9999 FEW043 20/11 Q1018",
      "taf": "TAF EPKT 111130Z 1112/1212 35010KT 9999 SCT040"
    },
    {
      "icao": "EPLB",
      "alert": "OK",
      "vis_m": 9999,
      "fzfg": false,
      "metar_trigger": false,
      "taf_trigger": false,
      "metar": "METAR EPLB 111430Z 31011KT 9999 FEW047TCU 23/11 Q1015",
      "taf": "TAF EPLB 111130Z 1112/1212 31010KT 9999 SCT035"
    },
    {
      "icao": "EPMO",
      "alert": "OK",
      "vis_m": 9999,
      "fzfg": false,
      "metar_trigger": false,
      "taf_trigger": false,
      "metar": "METAR EPMO 111430Z 29012KT 9999 SCT040 FEW044CB 23/12 Q1015",
      "taf": "TAF EPMO 111130Z 1112/1212 33010KT 9999 SCT030"
    },
    {
      "icao": "EPPO",
      "alert": "OK",
      "vis_m": 9999,
      "fzfg": false,
      "metar_trigger": false,
      "taf_trigger": false,
      "metar": "METAR EPPO 111430Z 36007KT CAVOK 24/10 Q1018",
      "taf": "TAF EPPO 111130Z 1112/1212 36008KT 9999 SCT030"
    },
    {
      "icao": "EPRA",
      "alert": "OK",
      "vis_m": 9999,
      "fzfg": false,
      "metar_trigger": false,
      "taf_trigger": false,
      "metar": "METAR EPRA 111430Z 31009KT 280V350 9999 SCT036 21/11 Q1016",
      "taf": "TAF EPRA 111430Z 1115/1124 31008KT 9999 SCT040"
    },
    {
      "icao": "EPRZ",
      "alert": "OK",
      "vis_m": 9999,
      "fzfg": false,
      "metar_trigger": false,
      "taf_trigger": false,
      "metar": "METAR EPRZ 111430Z 31008KT 280V360 9999 FEW043 22/11 Q1016",
      "taf": "TAF EPRZ 111130Z 1112/1212 31008KT 9999 SCT040"
    },
    {
      "icao": "EPSC",
      "alert": "OK",
      "vis_m": 9999,
      "fzfg": false,
      "metar_trigger": false,
      "taf_trigger": false,
      "metar": "METAR EPSC 111430Z 36010KT 320V040 9999 SCT044 22/11 Q1020",
      "taf": "TAF EPSC 111130Z 1112/1212 36007KT 9999 SCT035"
    },
    {
      "icao": "EPSY",
      "alert": "OK",
      "vis_m": 9999,
      "fzfg": false,
      "metar_trigger": false,
      "taf_trigger": false,
      "metar": "METAR EPSY 111430Z 31008KT 260V340 9999 SCT032CB 20/14 Q1015",
      "taf": "TAF EPSY 111430Z 1115/1124 30010KT 9999 BKN030"
    },
    {
      "icao": "EPWA",
      "alert": "OK",
      "vis_m": 9999,
      "fzfg": false,
      "metar_trigger": false,
      "taf_trigger": false,
      "metar": "METAR EPWA 111430Z 29007KT 250V310 9999 FEW042CB SCT044 22/14 Q1015 TEMPO SHRA",
      "taf": "TAF EPWA 111430Z 1115/1215 33010KT 9999 SCT030"
    },
    {
      "icao": "EPWR",
      "alert": "OK",
      "vis_m": 9999,
      "fzfg": false,
      "metar_trigger": false,
      "taf_trigger": false,
      "metar": "METAR EPWR 111430Z 32009KT 270V360 CAVOK 24/09 Q1018",
      "taf": "TAF EPWR 111430Z 1115/1215 35008KT CAVOK"
    },
    {
      "icao": "ESGG",
      "alert": "OK",
      "vis_m": 9999,
      "fzfg": false,
      "metar_trigger": false,
      "taf_trigger": false,
      "metar": "METAR ESGG 111420Z 28007KT 250V330 9999 FEW055 26/14 Q1020",
      "taf": "TAF ESGG 111430Z 1115/1215 29008KT CAVOK"
    },
    {
      "icao": "ESKN",
      "alert": "OK",
      "vis_m": 9999,
      "fzfg": false,
      "metar_trigger": false,
      "taf_trigger": false,
      "metar": "METAR ESKN 111420Z 04007KT 350V060 CAVOK 25/14 Q1019",
      "taf": "TAF ESKN 111430Z 1115/1215 04007KT CAVOK"
    },
    {
      "icao": "ESMS",
      "alert": "OK",
      "vis_m": 9999,
      "fzfg": false,
      "metar_trigger": false,
      "taf_trigger": false,
      "metar": "METAR ESMS 111420Z 29013KT CAVOK 26/13 Q1019",
      "taf": "TAF ESMS 111427Z 1115/1215 32010KT CAVOK"
    },
    {
      "icao": "ESSA",
      "alert": "OK",
      "vis_m": 9999,
      "fzfg": false,
      "metar_trigger": false,
      "taf_trigger": false,
      "metar": "METAR ESSA 111420Z 03010KT 360V060 CAVOK 24/10 Q1019 NOSIG",
      "taf": "TAF ESSA 111430Z 1115/1215 03010KT CAVOK"
    },
    {
      "icao": "EYKA",
      "alert": "OK",
      "vis_m": 2800,
      "fzfg": false,
      "metar_trigger": false,
      "taf_trigger": false,
      "metar": "METAR EYKA 111420Z 26007KT 2800 -RA BR OVC010 15/14 Q1011",
      "taf": "TAF EYKA 111100Z 1112/1212 VRB03KT 9000 SCT005 BKN020"
    },
    {
      "icao": "EYPA",
      "alert": "OK",
      "vis_m": 4700,
      "fzfg": false,
      "metar_trigger": false,
      "taf_trigger": false,
      "metar": "METAR EYPA 111420Z 32007KT 260V040 4700 -SHRA BKN010CB OVC015 16/15 Q1013",
      "taf": "TAF EYPA 111100Z 1112/1212 34010KT 9000 BKN045"
    },
    {
      "icao": "EYVI",
      "alert": "OK",
      "vis_m": 9999,
      "fzfg": false,
      "metar_trigger": false,
      "taf_trigger": false,
      "metar": "METAR EYVI 111420Z 26006KT 9999 -SHRA SCT009 BKN013CB OVC020 15/14 Q1012 NOSIG",
      "taf": "TAF EYVI 111125Z 1112/1212 27010KT 8000 SCT010 BKN020"
    },
    {
      "icao": "GCFV",
      "alert": "OK",
      "vis_m": 9999,
      "fzfg": false,
      "metar_trigger": false,
      "taf_trigger": false,
      "metar": "METAR GCFV 111430Z 34011G21KT 290V020 9999 FEW028 BKN038 28/18 Q1014",
      "taf": "TAF GCFV 111400Z 1115/1215 35009KT 9999 SCT025 TX25/1214Z TN20/1206Z"
    },
    {
      "icao": "GCLP",
      "alert": "OK",
      "vis_m": 9999,
      "fzfg": false,
      "metar_trigger": false,
      "taf_trigger": false,
      "metar": "METAR GCLP 111430Z 03022KT 9999 SCT025 BKN050 26/19 Q1015 NOSIG",
      "taf": "TAF GCLP 111400Z 1115/1215 03020KT 9999 FEW040 BKN050 TX25/1214Z TN19/1206Z"
    },
    {
      "icao": "GCTS",
      "alert": "OK",
      "vis_m": 9999,
      "fzfg": false,
      "metar_trigger": false,
      "taf_trigger": false,
      "metar": "METAR GCTS 111430Z 21007KT 170V250 9999 FEW012 BKN030 26/18 Q1016 NOSIG",
      "taf": "TAF GCTS 111400Z 1115/1215 23010KT 9999 FEW030 TX26/1214Z TN20/1206Z"
    },
    {
      "icao": "GMAD",
      "alert": "OK",
      "vis_m": 9999,
      "fzfg": false,
      "metar_trigger": false,
      "taf_trigger": false,
      "metar": "METAR GMAD 111430Z 25015KT 9999 FEW020 29/17 Q1011 NOSIG",
      "taf": "TAF GMAD 111100Z 1112/1218 28013KT 8000 SCT020"
    },
    {
      "icao": "GMMN",
      "alert": "OK",
      "vis_m": 9999,
      "fzfg": false,
      "metar_trigger": false,
      "taf_trigger": false,
      "metar": "METAR GMMN 111430Z 31011KT 270V350 CAVOK 29/18 Q1013 NOSIG",
      "taf": "TAF GMMN 111100Z 1112/1218 34011KT 9999 FEW030"
    },
    {
      "icao": "GMMX",
      "alert": "OK",
      "vis_m": 9999,
      "fzfg": false,
      "metar_trigger": false,
      "taf_trigger": false,
      "metar": "METAR GMMX 111430Z VRB05KT 9999 FEW030 31/16 Q1013 NOSIG",
      "taf": "TAF GMMX 111100Z 1112/1218 28006KT 8000 SCT023"
    },
    {
      "icao": "HEGN",
      "alert": "OK",
      "vis_m": 9999,
      "fzfg": false,
      "metar_trigger": false,
      "taf_trigger": false,
      "metar": "METAR HEGN 111400Z 01013KT CAVOK 36/08 Q1007 NOSIG",
      "taf": "TAF HEGN 111100Z 1112/1218 35016KT CAVOK"
    },
    {
      "icao": "HEMA",
      "alert": "OK",
      "vis_m": 9999,
      "fzfg": false,
      "metar_trigger": false,
      "taf_trigger": false,
      "metar": "METAR HEMA 111400Z 33019KT CAVOK 34/11 Q1007 NOSIG",
      "taf": "TAF HEMA 111100Z 1112/1218 36012G22KT CAVOK"
    },
    {
      "icao": "HESH",
      "alert": "OK",
      "vis_m": 9999,
      "fzfg": false,
      "metar_trigger": false,
      "taf_trigger": false,
      "metar": "METAR HESH 111400Z 35010KT CAVOK 38/13 Q1006 NOSIG",
      "taf": "TAF HESH 111100Z 1112/1218 01015KT CAVOK"
    },
    {
      "icao": "HESX",
      "alert": "OK",
      "vis_m": 9999,
      "fzfg": false,
      "metar_trigger": false,
      "taf_trigger": false,
      "metar": "METAR HESX 111400Z 01012KT CAVOK 34/16 Q1012 NOSIG",
      "taf": "TAF HESX 111100Z 1112/1218 36010KT CAVOK"
    },
    {
      "icao": "LATI",
      "alert": "OK",
      "vis_m": 9999,
      "fzfg": false,
      "metar_trigger": false,
      "taf_trigger": false,
      "metar": "METAR LATI 111420Z 32008KT 290V010 CAVOK 32/14 Q1016 NOSIG",
      "taf": "TAF LATI 111100Z 1112/1212 32010KT CAVOK TX34/1112Z TN16/1204Z"
    },
    {
      "icao": "LBPD",
      "alert": "OK",
      "vis_m": 9999,
      "fzfg": false,
      "metar_trigger": false,
      "taf_trigger": false,
      "metar": "METAR LBPD 111430Z AUTO 32004KT 270V010 9999 NCD 32/08 Q1015 NOSIG",
      "taf": "TAF LBPD 111100Z 1112/1212 30010KT CAVOK"
    },
    {
      "icao": "LBSF",
      "alert": "OK",
      "vis_m": 9999,
      "fzfg": false,
      "metar_trigger": false,
      "taf_trigger": false,
      "metar": "METAR LBSF 111430Z 28005KT 210V010 CAVOK 30/08 Q1017 NOSIG",
      "taf": "TAF LBSF 111100Z 1112/1212 34010KT CAVOK"
    },
    {
      "icao": "LBWN",
      "alert": "OK",
      "vis_m": 9999,
      "fzfg": false,
      "metar_trigger": false,
      "taf_trigger": false,
      "metar": "METAR LBWN 111430Z AUTO 23008KT 190V260 9999 NCD 30/10 Q1015 NOSIG",
      "taf": "TAF LBWN 111100Z 1112/1212 25012KT 9999 SCT045"
    },
    {
      "icao": "LCLK",
      "alert": "OK",
      "vis_m": 9999,
      "fzfg": false,
      "metar_trigger": false,
      "taf_trigger": false,
      "metar": "METAR LCLK 111430Z 22014KT 9999 FEW040 32/25 Q1009 NOSIG",
      "taf": "TAF LCLK 111130Z 1112/1212 21016KT 9999 FEW025"
    },
    {
      "icao": "LCPH",
      "alert": "OK",
      "vis_m": 9999,
      "fzfg": false,
      "metar_trigger": false,
      "taf_trigger": false,
      "metar": "METAR LCPH 111430Z 31015KT 250V320 CAVOK 29/22 Q1010 NOSIG",
      "taf": "TAF LCPH 111130Z 1112/1212 27012KT 9999 FEW020"
    },
    {
      "icao": "LEAL",
      "alert": "OK",
      "vis_m": 9999,
      "fzfg": false,
      "metar_trigger": false,
      "taf_trigger": false,
      "metar": "METAR LEAL 111430Z 09015KT CAVOK 31/21 Q1011 NOSIG",
      "taf": "TAF LEAL 111100Z 1112/1212 VRB04KT 9999 FEW015 TX34/1112Z TN23/1206Z"
    },
    {
      "icao": "LEBB",
      "alert": "OK",
      "vis_m": 9999,
      "fzfg": false,
      "metar_trigger": false,
      "taf_trigger": false,
      "metar": "METAR LEBB 111430Z 05008KT 350V120 CAVOK 35/21 Q1010 NOSIG",
      "taf": ""
    },
    {
      "icao": "LEBL",
      "alert": "OK",
      "vis_m": 9999,
      "fzfg": false,
      "metar_trigger": false,
      "taf_trigger": false,
      "metar": "METAR LEBL 111430Z 10011KT 060V130 9999 SCT015 28/24 Q1013 NOSIG",
      "taf": "TAF LEBL 111100Z 1112/1212 07010KT CAVOK TX30/1112Z TN23/1205Z"
    },
    {
      "icao": "LECH",
      "alert": "OK",
      "vis_m": 9999,
      "fzfg": false,
      "metar_trigger": false,
      "taf_trigger": false,
      "metar": "METAR LECH 111430Z AUTO 12012KT 080V160 CAVOK 27/21 Q1015",
      "taf": "TAF LECH 111100Z 1112/1212 10010KT CAVOK TX34/1112Z TN19/1206Z"
    },
    {
      "icao": "LEMD",
      "alert": "OK",
      "vis_m": 9999,
      "fzfg": false,
      "metar_trigger": false,
      "taf_trigger": false,
      "metar": "METAR LEMD 111430Z 14007KT 080V200 CAVOK 38/02 Q1011 NOSIG",
      "taf": "TAF LEMD 111100Z 1112/1218 18010KT CAVOK TX38/1116Z TN19/1205Z"
    },
    {
      "icao": "LEMG",
      "alert": "OK",
      "vis_m": 9999,
      "fzfg": false,
      "metar_trigger": false,
      "taf_trigger": false,
      "metar": "METAR LEMG 111430Z 10006KT 030V150 CAVOK 28/15 Q1010 NOSIG",
      "taf": "TAF LEMG 111100Z 1112/1212 13008KT CAVOK TX34/1114Z TN21/1205Z"
    },
    {
      "icao": "LEVC",
      "alert": "OK",
      "vis_m": 9999,
      "fzfg": false,
      "metar_trigger": false,
      "taf_trigger": false,
      "metar": "METAR LEVC 111430Z 11011KT 9999 FEW025 30/22 Q1012 NOSIG",
      "taf": "TAF LEVC 111100Z 1112/1212 09012KT 9999 FEW015 TX32/1114Z TN22/1206Z"
    },
    {
      "icao": "LEXJ",
      "alert": "OK",
      "vis_m": 9999,
      "fzfg": false,
      "metar_trigger": false,
      "taf_trigger": false,
      "metar": "METAR LEXJ 111430Z 05005KT CAVOK 27/22 Q1010",
      "taf": "TAF LEXJ 111400Z 1115/1215 08009KT CAVOK TX30/1210Z TN21/1205Z"
    },
    {
      "icao": "LEZG",
      "alert": "OK",
      "vis_m": 9999,
      "fzfg": false,
      "metar_trigger": false,
      "taf_trigger": false,
      "metar": "METAR LEZG 111430Z 10006KT 020V160 CAVOK 36/10 Q1011 NOSIG",
      "taf": "TAF LEZG 111100Z 1112/1212 10010KT CAVOK TX38/1115Z TN22/1206Z"
    },
    {
      "icao": "LEZL",
      "alert": "OK",
      "vis_m": 9999,
      "fzfg": false,
      "metar_trigger": false,
      "taf_trigger": false,
      "metar": "METAR LEZL 111430Z 25010KT 200V290 CAVOK 29/16 Q1010 NOSIG",
      "taf": "TAF LEZL 111400Z 1115/1215 23011KT CAVOK TX30/1115Z TN19/1205Z"
    },
    {
      "icao": "LFBD",
      "alert": "OK",
      "vis_m": 9999,
      "fzfg": false,
      "metar_trigger": false,
      "taf_trigger": false,
      "metar": "METAR LFBD 111430Z AUTO 08008KT 040V110 CAVOK 36/13 Q1012 NOSIG",
      "taf": "TAF LFBD 111100Z 1112/1218 10005KT CAVOK TX40/1215Z TN26/1205Z"
    },
    {
      "icao": "LFLL",
      "alert": "OK",
      "vis_m": 9999,
      "fzfg": false,
      "metar_trigger": false,
      "taf_trigger": false,
      "metar": "METAR LFLL 111430Z 36008KT 320V040 CAVOK 32/13 Q1014 NOSIG",
      "taf": "TAF LFLL 111100Z 1112/1218 VRB05KT 9999 FEW100TCU"
    },
    {
      "icao": "LFLS",
      "alert": "OK",
      "vis_m": 9999,
      "fzfg": false,
      "metar_trigger": false,
      "taf_trigger": false,
      "metar": "METAR LFLS 111430Z AUTO 02006KT 310V090 CAVOK 34/13 Q1015 TEMPO VRB20G45KT 3000 TSRA BKN080CB",
      "taf": "TAF LFLS 111400Z 1115/1215 01007KT CAVOK"
    },
    {
      "icao": "LFMN",
      "alert": "OK",
      "vis_m": 9999,
      "fzfg": false,
      "metar_trigger": false,
      "taf_trigger": false,
      "metar": "METAR LFMN 111430Z 09016KT 9999 FEW016 FEW070TCU SCT160 29/24 Q1014 TEMPO 36015KT",
      "taf": "TAF LFMN 111400Z 1115/1221 09016KT 9999 FEW100CB"
    },
    {
      "icao": "LFOB",
      "alert": "OK",
      "vis_m": 9999,
      "fzfg": false,
      "metar_trigger": false,
      "taf_trigger": false,
      "metar": "METAR LFOB 111430Z AUTO 05011KT 010V090 CAVOK 34/11 Q1017 NOSIG",
      "taf": "TAF LFOB 111100Z 1112/1212 05011KT CAVOK"
    },
    {
      "icao": "LFPO",
      "alert": "OK",
      "vis_m": 9999,
      "fzfg": false,
      "metar_trigger": false,
      "taf_trigger": false,
      "metar": "METAR LFPO 111430Z 06008KT 360V120 CAVOK 35/08 Q1015 NOSIG",
      "taf": "TAF LFPO 111100Z 1112/1218 05008KT CAVOK"
    },
    {
      "icao": "LFSB",
      "alert": "OK",
      "vis_m": 9999,
      "fzfg": false,
      "metar_trigger": false,
      "taf_trigger": false,
      "metar": "METAR LFSB 111430Z AUTO 01009KT 340V040 9999 FEW010 35/15 Q1015 TEMPO FEW090CB",
      "taf": "TAF LFSB 111100Z 1112/1212 35006KT CAVOK"
    },
    {
      "icao": "LGAV",
      "alert": "OK",
      "vis_m": 9999,
      "fzfg": false,
      "metar_trigger": false,
      "taf_trigger": false,
      "metar": "METAR LGAV 111420Z 05008KT 360V090 9999 FEW030 31/11 Q1016 NOSIG",
      "taf": "TAF LGAV 111100Z 1112/1212 05012KT 9999 FEW025"
    },
    {
      "icao": "LGTS",
      "alert": "OK",
      "vis_m": 9999,
      "fzfg": false,
      "metar_trigger": false,
      "taf_trigger": false,
      "metar": "METAR LGTS 111420Z 20010KT 9999 FEW020 33/13 Q1015 NOSIG",
      "taf": "TAF LGTS 111100Z 1112/1212 VRB03KT 9999 FEW030"
    },
    {
      "icao": "LHBP",
      "alert": "OK",
      "vis_m": 9999,
      "fzfg": false,
      "metar_trigger": false,
      "taf_trigger": false,
      "metar": "METAR LHBP 111430Z 32012KT 290V350 CAVOK 30/07 Q1015 NOSIG",
      "taf": "TAF LHBP 111115Z 1112/1212 31011G21KT CAVOK"
    },
    {
      "icao": "LHDC",
      "alert": "OK",
      "vis_m": 9999,
      "fzfg": false,
      "metar_trigger": false,
      "taf_trigger": false,
      "metar": "METAR LHDC 111415Z AUTO 03010KT 350V080 CAVOK 27/11 Q1015 NOSIG",
      "taf": "TAF LHDC 111415Z 1115/1124 03009KT CAVOK"
    },
    {
      "icao": "LIBD",
      "alert": "OK",
      "vis_m": 9999,
      "fzfg": false,
      "metar_trigger": false,
      "taf_trigger": false,
      "metar": "METAR LIBD 111420Z 07015KT CAVOK 32/17 Q1015",
      "taf": "TAF LIBD 111100Z 1112/1212 09014KT CAVOK"
    },
    {
      "icao": "LIBG",
      "alert": "OK",
      "vis_m": 9999,
      "fzfg": false,
      "metar_trigger": false,
      "taf_trigger": false,
      "metar": "METAR LIBG 111420Z AUTO 21005KT 170V250 9999 NCD 34/10 Q1016",
      "taf": "TAF LIBG 111100Z 1112/1212 18012KT CAVOK"
    },
    {
      "icao": "LIBP",
      "alert": "OK",
      "vis_m": 9999,
      "fzfg": false,
      "metar_trigger": false,
      "taf_trigger": false,
      "metar": "METAR LIBP 111420Z AUTO 07010KT 9999 NCD 29/21 Q1015",
      "taf": "TAF LIBP 111100Z 1112/1212 06010KT CAVOK"
    },
    {
      "icao": "LIBR",
      "alert": "OK",
      "vis_m": 9999,
      "fzfg": false,
      "metar_trigger": false,
      "taf_trigger": false,
      "metar": "METAR LIBR 111420Z 11009KT CAVOK 30/19 Q1016",
      "taf": "TAF LIBR 111100Z 1112/1212 10015KT CAVOK"
    },
    {
      "icao": "LICA",
      "alert": "OK",
      "vis_m": 9999,
      "fzfg": false,
      "metar_trigger": false,
      "taf_trigger": false,
      "metar": "METAR LICA 111420Z AUTO 25007KT 220V280 9999 NCD 32/18 Q1016",
      "taf": "TAF LICA 111100Z 1112/1212 26010KT CAVOK"
    },
    {
      "icao": "LICC",
      "alert": "OK",
      "vis_m": 9999,
      "fzfg": false,
      "metar_trigger": false,
      "taf_trigger": false,
      "metar": "METAR LICC 111420Z 12013KT CAVOK 31/24 Q1016",
      "taf": "TAF LICC 111100Z 1112/1212 08014KT CAVOK"
    },
    {
      "icao": "LICJ",
      "alert": "OK",
      "vis_m": 9999,
      "fzfg": false,
      "metar_trigger": false,
      "taf_trigger": false,
      "metar": "METAR LICJ 111420Z 03012KT CAVOK 30/24 Q1015",
      "taf": "TAF LICJ 111100Z 1112/1212 05014KT CAVOK"
    },
    {
      "icao": "LIMC",
      "alert": "OK",
      "vis_m": 9999,
      "fzfg": false,
      "metar_trigger": false,
      "taf_trigger": false,
      "metar": "METAR LIMC 111420Z 22008KT 190V250 CAVOK 33/15 Q1014 NOSIG",
      "taf": "TAF LIMC 111100Z 1112/1218 VRB05KT CAVOK"
    },
    {
      "icao": "LIME",
      "alert": "OK",
      "vis_m": 9999,
      "fzfg": false,
      "metar_trigger": false,
      "taf_trigger": false,
      "metar": "METAR LIME 111420Z 21008KT 130V250 CAVOK 33/17 Q1014 NOSIG",
      "taf": "TAF LIME 111100Z 1112/1212 VRB06KT CAVOK"
    },
    {
      "icao": "LIMF",
      "alert": "OK",
      "vis_m": 9999,
      "fzfg": false,
      "metar_trigger": false,
      "taf_trigger": false,
      "metar": "METAR LIMF 111420Z 31007KT 280V350 9999 VCTS FEW040CB SCT100 33/17 Q1015",
      "taf": "TAF LIMF 111100Z 1112/1212 VRB06KT 9999 SCT070"
    },
    {
      "icao": "LIMJ",
      "alert": "OK",
      "vis_m": 9999,
      "fzfg": false,
      "metar_trigger": false,
      "taf_trigger": false,
      "metar": "METAR LIMJ 111420Z 19003KT 9999 FEW018 28/24 Q1015",
      "taf": "TAF LIMJ 111100Z 1112/1212 17010KT CAVOK"
    },
    {
      "icao": "LIPE",
      "alert": "OK",
      "vis_m": 9999,
      "fzfg": false,
      "metar_trigger": false,
      "taf_trigger": false,
      "metar": "METAR LIPE 111420Z VRB05KT CAVOK 34/19 Q1013",
      "taf": "TAF LIPE 111100Z 1112/1212 VRB05KT CAVOK"
    },
    {
      "icao": "LIPH",
      "alert": "OK",
      "vis_m": 9999,
      "fzfg": false,
      "metar_trigger": false,
      "taf_trigger": false,
      "metar": "METAR LIPH 111420Z 15007KT 120V200 9999 SCT050 31/21 Q1013",
      "taf": "TAF LIPH 111100Z 1112/1212 VRB06KT 9999 SCT050"
    },
    {
      "icao": "LIPQ",
      "alert": "OK",
      "vis_m": 9999,
      "fzfg": false,
      "metar_trigger": false,
      "taf_trigger": false,
      "metar": "METAR LIPQ 111420Z AUTO 19005KT 140V240 9999 NCD 31/20 Q1014",
      "taf": "TAF LIPQ 111100Z 1112/1212 20010KT 9999 SCT060"
    },
    {
      "icao": "LIPR",
      "alert": "OK",
      "vis_m": 9999,
      "fzfg": false,
      "metar_trigger": false,
      "taf_trigger": false,
      "metar": "METAR LIPR 111420Z 11010KT 070V130 9999 FEW030 30/23 Q1014",
      "taf": "TAF LIPR 111100Z 1112/1212 09013KT CAVOK"
    },
    {
      "icao": "LIPX",
      "alert": "OK",
      "vis_m": 9999,
      "fzfg": false,
      "metar_trigger": false,
      "taf_trigger": false,
      "metar": "METAR LIPX 111420Z 21006KT 160V240 CAVOK 32/21 Q1013",
      "taf": "TAF LIPX 111100Z 1112/1212 VRB06KT CAVOK"
    },
    {
      "icao": "LIPY",
      "alert": "OK",
      "vis_m": 9999,
      "fzfg": false,
      "metar_trigger": false,
      "taf_trigger": false,
      "metar": "METAR LIPY 111420Z AUTO 08010KT 050V130 9999 NCD 33/15 Q1014",
      "taf": "TAF LIPY 111100Z 1112/1212 06012KT CAVOK"
    },
    {
      "icao": "LIPZ",
      "alert": "OK",
      "vis_m": 9999,
      "fzfg": false,
      "metar_trigger": false,
      "taf_trigger": false,
      "metar": "METAR LIPZ 111420Z 13008KT CAVOK 29/23 Q1014 NOSIG",
      "taf": "TAF LIPZ 111100Z 1112/1218 15012KT 9999 SCT050"
    },
    {
      "icao": "LIRF",
      "alert": "OK",
      "vis_m": 9999,
      "fzfg": false,
      "metar_trigger": false,
      "taf_trigger": false,
      "metar": "METAR LIRF 111420Z 19008KT 150V240 CAVOK 31/21 Q1015 NOSIG",
      "taf": "TAF LIRF 111100Z 1112/1218 22010KT CAVOK"
    },
    {
      "icao": "LIRN",
      "alert": "OK",
      "vis_m": 9999,
      "fzfg": false,
      "metar_trigger": false,
      "taf_trigger": false,
      "metar": "METAR LIRN 111420Z 20009KT 160V230 CAVOK 33/15 Q1016 NOSIG",
      "taf": "TAF LIRN 111100Z 1112/1212 22010KT CAVOK"
    },
    {
      "icao": "LIRP",
      "alert": "OK",
      "vis_m": 9999,
      "fzfg": false,
      "metar_trigger": false,
      "taf_trigger": false,
      "metar": "METAR LIRP 111415Z 24014KT 9999 FEW030 32/19 Q1015 NOSIG",
      "taf": "TAF LIRP 111100Z 1112/1212 VRB03KT 9999 FEW030"
    },
    {
      "icao": "LIRZ",
      "alert": "OK",
      "vis_m": 9999,
      "fzfg": false,
      "metar_trigger": false,
      "taf_trigger": false,
      "metar": "METAR LIRZ 111420Z AUTO 21007KT 160V250 9999 FEW073/// 34/16 Q1015",
      "taf": ""
    },
    {
      "icao": "LJLJ",
      "alert": "OK",
      "vis_m": 9999,
      "fzfg": false,
      "metar_trigger": false,
      "taf_trigger": false,
      "metar": "METAR LJLJ 111430Z 30011KT 9999 FEW033 FEW060TCU SCT140 26/18 Q1015 NOSIG",
      "taf": "TAF LJLJ 111100Z 1112/1212 10004KT 9999 FEW045"
    },
    {
      "icao": "LKMT",
      "alert": "OK",
      "vis_m": 9999,
      "fzfg": false,
      "metar_trigger": false,
      "taf_trigger": false,
      "metar": "METAR LKMT 111430Z 01009KT 340V040 CAVOK 24/08 Q1018 NOSIG",
      "taf": "TAF LKMT 111100Z 1112/1212 02008KT CAVOK"
    },
    {
      "icao": "LKPR",
      "alert": "OK",
      "vis_m": 9999,
      "fzfg": false,
      "metar_trigger": false,
      "taf_trigger": false,
      "metar": "METAR LKPR 111430Z 35009KT 310V010 CAVOK 24/09 Q1019 NOSIG",
      "taf": "TAF LKPR 111400Z 1115/1221 35007KT CAVOK"
    },
    {
      "icao": "LLBG",
      "alert": "OK",
      "vis_m": 9999,
      "fzfg": false,
      "metar_trigger": false,
      "taf_trigger": false,
      "metar": "METAR LLBG 111420Z 34010KT 9999 FEW025 30/20 Q1011 NOSIG",
      "taf": "TAF LLBG 111106Z 1112/1212 29010KT CAVOK TX31/1112Z TN23/1203Z"
    },
    {
      "icao": "LMML",
      "alert": "OK",
      "vis_m": 9999,
      "fzfg": false,
      "metar_trigger": false,
      "taf_trigger": false,
      "metar": "METAR LMML 111415Z 12012KT 9999 FEW016 30/22 Q1017 NOSIG",
      "taf": "TAF LMML 111100Z 1112/1212 15008KT 9999 FEW015"
    },
    {
      "icao": "LOWW",
      "alert": "OK",
      "vis_m": 9999,
      "fzfg": false,
      "metar_trigger": false,
      "taf_trigger": false,
      "metar": "METAR LOWW 111420Z 34011KT 310V030 CAVOK 30/07 Q1016 NOSIG",
      "taf": "TAF LOWW 111415Z 1115/1221 32012KT CAVOK TX30/1115Z TN16/1203Z"
    },
    {
      "icao": "LPFR",
      "alert": "OK",
      "vis_m": 9999,
      "fzfg": false,
      "metar_trigger": false,
      "taf_trigger": false,
      "metar": "METAR LPFR 111430Z 22009KT 9999 FEW030 23/16 Q1012",
      "taf": "TAF LPFR 111100Z 1112/1212 23012KT 9999 SCT040"
    },
    {
      "icao": "LPMA",
      "alert": "OK",
      "vis_m": 9999,
      "fzfg": false,
      "metar_trigger": false,
      "taf_trigger": false,
      "metar": "METAR LPMA 111430Z 15005KT 110V170 9999 SCT016 25/16 Q1015",
      "taf": "TAF LPMA 111100Z 1112/1212 VRB05KT 9999 SCT015"
    },
    {
      "icao": "LPPR",
      "alert": "OK",
      "vis_m": 9999,
      "fzfg": false,
      "metar_trigger": false,
      "taf_trigger": false,
      "metar": "METAR LPPR 111430Z 21010KT 9999 SCT008 BKN010 21/17 Q1010",
      "taf": "TAF LPPR 111100Z 1112/1212 21010KT 9999 SCT018"
    },
    {
      "icao": "LPPS",
      "alert": "OK",
      "vis_m": 9999,
      "fzfg": false,
      "metar_trigger": false,
      "taf_trigger": false,
      "metar": "METAR LPPS 111430Z 29015KT 9999 FEW015 25/15 Q1016",
      "taf": "TAF LPPS 111100Z 1112/1218 31012KT 9999 SCT015"
    },
    {
      "icao": "LPPT",
      "alert": "OK",
      "vis_m": 9999,
      "fzfg": false,
      "metar_trigger": false,
      "taf_trigger": false,
      "metar": "METAR LPPT 111430Z VRB04KT 9999 FEW030 BKN034 24/14 Q1011 NOSIG",
      "taf": "TAF LPPT 111100Z 1112/1218 21012KT 9999 SCT025"
    },
    {
      "icao": "LQBK",
      "alert": "OK",
      "vis_m": 9999,
      "fzfg": false,
      "metar_trigger": false,
      "taf_trigger": false,
      "metar": "METAR LQBK 111430Z 21016KT CAVOK 26/16 Q1016 NOSIG",
      "taf": "TAF LQBK 111100Z 1112/1212 24006KT CAVOK TX31/1112Z TN17/1203Z"
    },
    {
      "icao": "LQSA",
      "alert": "OK",
      "vis_m": 9999,
      "fzfg": false,
      "metar_trigger": false,
      "taf_trigger": false,
      "metar": "METAR LQSA 111430Z 34004KT 300V030 CAVOK 21/16 Q1020 NOSIG",
      "taf": ""
    },
    {
      "icao": "LQTZ",
      "alert": "OK",
      "vis_m": 9999,
      "fzfg": false,
      "metar_trigger": false,
      "taf_trigger": false,
      "metar": "METAR LQTZ 111430Z 29009KT 9999 BKN060 27/15 Q1017",
      "taf": "TAF LQTZ 111100Z 1112/1212 27005KT CAVOK TX29/1112Z TN16/1203Z"
    },
    {
      "icao": "LRBC",
      "alert": "OK",
      "vis_m": 9999,
      "fzfg": false,
      "metar_trigger": false,
      "taf_trigger": false,
      "metar": "METAR LRBC 111430Z 32012KT 9999 FEW060 27/12 Q1015",
      "taf": "TAF LRBC 111400Z 1115/1124 30007KT CAVOK"
    },
    {
      "icao": "LRBS",
      "alert": "OK",
      "vis_m": 9999,
      "fzfg": false,
      "metar_trigger": false,
      "taf_trigger": false,
      "metar": "METAR LRBS 111430Z 28007KT 240V350 CAVOK 30/09 Q1015 NOSIG",
      "taf": "TAF LRBS 111100Z 1112/1212 27012KT CAVOK"
    },
    {
      "icao": "LRBV",
      "alert": "OK",
      "vis_m": 9999,
      "fzfg": false,
      "metar_trigger": false,
      "taf_trigger": false,
      "metar": "METAR LRBV 111430Z 21010KT 180V240 9999 FEW081 26/09 Q1017",
      "taf": "TAF LRBV 111400Z 1115/1124 22007KT 9999 SCT060"
    },
    {
      "icao": "LRCL",
      "alert": "OK",
      "vis_m": 9999,
      "fzfg": false,
      "metar_trigger": false,
      "taf_trigger": false,
      "metar": "METAR LRCL 111430Z 01004KT 310V050 9999 FEW019 BKN059 23/14 Q1016",
      "taf": "TAF LRCL 111400Z 1115/1124 VRB04KT 9999 SCT050"
    },
    {
      "icao": "LRCV",
      "alert": "OK",
      "vis_m": 9999,
      "fzfg": false,
      "metar_trigger": false,
      "taf_trigger": false,
      "metar": "METAR LRCV 111430Z 23007KT CAVOK 31/09 Q1015",
      "taf": "TAF LRCV 111400Z 1115/1124 22007KT CAVOK"
    },
    {
      "icao": "LRIA",
      "alert": "OK",
      "vis_m": 9999,
      "fzfg": false,
      "metar_trigger": false,
      "taf_trigger": false,
      "metar": "METAR LRIA 111430Z 34011KT CAVOK 20/14 Q1016",
      "taf": "TAF LRIA 111400Z 1115/1124 33008KT CAVOK"
    },
    {
      "icao": "LROP",
      "alert": "OK",
      "vis_m": 9999,
      "fzfg": false,
      "metar_trigger": false,
      "taf_trigger": false,
      "metar": "METAR LROP 111430Z 27010KT CAVOK 30/11 Q1015 NOSIG",
      "taf": "TAF LROP 111100Z 1112/1212 27012KT CAVOK"
    },
    {
      "icao": "LRSB",
      "alert": "OK",
      "vis_m": 9999,
      "fzfg": false,
      "metar_trigger": false,
      "taf_trigger": false,
      "metar": "METAR LRSB 111430Z 32011KT 9999 FEW053 28/09 Q1016 NOSIG",
      "taf": "TAF LRSB 111100Z 1112/1212 33012KT 9999 SCT045"
    },
    {
      "icao": "LRSM",
      "alert": "OK",
      "vis_m": 9999,
      "fzfg": false,
      "metar_trigger": false,
      "taf_trigger": false,
      "metar": "METAR LRSM 111430Z 03008KT CAVOK 23/11 Q1017",
      "taf": "TAF LRSM 111400Z 1115/1124 05009KT CAVOK"
    },
    {
      "icao": "LRSV",
      "alert": "OK",
      "vis_m": 9999,
      "fzfg": false,
      "metar_trigger": false,
      "taf_trigger": false,
      "metar": "METAR LRSV 111430Z 28012KT CAVOK 17/12 Q1016",
      "taf": "TAF LRSV 111400Z 1115/1124 28007KT CAVOK"
    },
    {
      "icao": "LRTM",
      "alert": "OK",
      "vis_m": 9999,
      "fzfg": false,
      "metar_trigger": false,
      "taf_trigger": false,
      "metar": "METAR LRTM 111430Z 34011KT 300V010 9999 TS VCSH FEW040CB 23/16 Q1015",
      "taf": "TAF LRTM 111400Z 1115/1124 VRB04KT 9999 SCT045"
    },
    {
      "icao": "LRTR",
      "alert": "OK",
      "vis_m": 9999,
      "fzfg": false,
      "metar_trigger": false,
      "taf_trigger": false,
      "metar": "METAR LRTR 111430Z 23009KT 170V290 9999 FEW055CB 32/09 Q1014",
      "taf": "TAF LRTR 111100Z 1112/1212 27008KT 9999 SCT045"
    },
    {
      "icao": "LTAC",
      "alert": "OK",
      "vis_m": 9999,
      "fzfg": false,
      "metar_trigger": false,
      "taf_trigger": false,
      "metar": "METAR LTAC 111420Z 24005KT 160V310 CAVOK 30/05 Q1017 NOSIG RMK RWY21C 18004KT 060V230 RWY03L VRB04KT RWY21R VRB04KT RWY03R VRB03KT RWY21L 34006KT 280V030",
      "taf": ""
    },
    {
      "icao": "LTFM",
      "alert": "OK",
      "vis_m": 9999,
      "fzfg": false,
      "metar_trigger": false,
      "taf_trigger": false,
      "metar": "METAR LTFM 111420Z 09013KT CAVOK 27/08 Q1017 NOSIG RMK RWY17L 08014KT RWY34L 07013KT RWY16R 09014KT RWY36 07014KT 030V100 RWY18 09012KT",
      "taf": "TAF LTFM 111040Z 1112/1218 07012KT 9999 FEW040"
    },
    {
      "icao": "LUKK",
      "alert": "OK",
      "vis_m": 9999,
      "fzfg": false,
      "metar_trigger": false,
      "taf_trigger": false,
      "metar": "METAR LUKK 111430Z 31007KT 270V010 CAVOK 26/10 Q1014 NOSIG",
      "taf": "TAF LUKK 111102Z 1112/1212 27010KT CAVOK"
    },
    {
      "icao": "LWOH",
      "alert": "OK",
      "vis_m": 9999,
      "fzfg": false,
      "metar_trigger": false,
      "taf_trigger": false,
      "metar": "METAR LWOH 111420Z 18005KT 9999 FEW040 28/15 Q1019",
      "taf": "TAF LWOH 111420Z 1115/1215 16008KT 9999 FEW040"
    },
    {
      "icao": "LWSK",
      "alert": "OK",
      "vis_m": 9999,
      "fzfg": false,
      "metar_trigger": false,
      "taf_trigger": false,
      "metar": "METAR LWSK 111420Z VRB02KT CAVOK 34/12 Q1016 NOSIG",
      "taf": "TAF LWSK 111420Z 1115/1215 VRB06KT CAVOK"
    },
    {
      "icao": "LYBE",
      "alert": "OK",
      "vis_m": 9999,
      "fzfg": false,
      "metar_trigger": false,
      "taf_trigger": false,
      "metar": "METAR LYBE 111430Z 04008KT CAVOK 30/14 Q1015 NOSIG",
      "taf": "TAF LYBE 111100Z 1112/1212 24008KT 9999 SCT045 TX31/1114Z TN18/1203Z"
    },
    {
      "icao": "LYNI",
      "alert": "OK",
      "vis_m": 9999,
      "fzfg": false,
      "metar_trigger": false,
      "taf_trigger": false,
      "metar": "METAR LYNI 111430Z 07005KT 350V110 9999 FEW050 33/10 Q1015 NOSIG",
      "taf": "TAF LYNI 111100Z 1112/1212 20006KT CAVOK TX33/1114Z TN18/1203Z"
    },
    {
      "icao": "LYPG",
      "alert": "OK",
      "vis_m": 9999,
      "fzfg": false,
      "metar_trigger": false,
      "taf_trigger": false,
      "metar": "METAR LYPG 111430Z 19009KT 160V220 9999 FEW040 35/11 Q1015 NOSIG",
      "taf": "TAF LYPG 111100Z 1112/1212 18008KT 9999 FEW050 TX34/1113Z TN22/1202Z"
    },
    {
      "icao": "LZIB",
      "alert": "OK",
      "vis_m": 9999,
      "fzfg": false,
      "metar_trigger": false,
      "taf_trigger": false,
      "metar": "METAR LZIB 111430Z 01012KT CAVOK 29/08 Q1015 NOSIG",
      "taf": "TAF LZIB 111115Z 1112/1212 33011KT CAVOK"
    },
    {
      "icao": "LZKZ",
      "alert": "OK",
      "vis_m": 9999,
      "fzfg": false,
      "metar_trigger": false,
      "taf_trigger": false,
      "metar": "METAR LZKZ 111430Z 04010KT 9999 FEW045 22/12 Q1016 NOSIG",
      "taf": "TAF LZKZ 111115Z 1112/1212 03008KT CAVOK"
    },
    {
      "icao": "LZTT",
      "alert": "OK",
      "vis_m": 9999,
      "fzfg": false,
      "metar_trigger": false,
      "taf_trigger": false,
      "metar": "METAR LZTT 111430Z 34006KT 9999 SCT060 20/09 Q1018 NOSIG",
      "taf": "TAF LZTT 111115Z 1112/1212 05005KT 9999 FEW014 BKN055"
    },
    {
      "icao": "OEJN",
      "alert": "OK",
      "vis_m": 9999,
      "fzfg": false,
      "metar_trigger": false,
      "taf_trigger": false,
      "metar": "METAR OEJN 111400Z 32018KT CAVOK 36/18 Q1004 NOSIG",
      "taf": "TAF OEJN 111100Z 1112/1218 32016KT CAVOK"
    },
    {
      "icao": "OEMA",
      "alert": "OK",
      "vis_m": 9999,
      "fzfg": false,
      "metar_trigger": false,
      "taf_trigger": false,
      "metar": "METAR OEMA 111400Z 30012KT CAVOK 45/M04 Q1008 NOSIG",
      "taf": "TAF OEMA 111100Z 1112/1218 30012KT CAVOK"
    },
    {
      "icao": "OJAI",
      "alert": "OK",
      "vis_m": 5000,
      "fzfg": false,
      "metar_trigger": false,
      "taf_trigger": false,
      "metar": "METAR OJAI 111400Z 29010KT 5000 HZ NSC 33/09 Q1014 NOSIG",
      "taf": "TAF OJAI 111100Z 1112/1218 31010KT 5000 HZ NSC"
    },
    {
      "icao": "OMAA",
      "alert": "OK",
      "vis_m": 9999,
      "fzfg": false,
      "metar_trigger": false,
      "taf_trigger": false,
      "metar": "METAR OMAA 111430Z 31008KT CAVOK 38/17 Q0999 NOSIG",
      "taf": "TAF OMAA 111100Z 1112/1218 30011KT 8000 NSC"
    },
    {
      "icao": "OMDB",
      "alert": "OK",
      "vis_m": 9999,
      "fzfg": false,
      "metar_trigger": false,
      "taf_trigger": false,
      "metar": "METAR OMDB 111430Z 27010KT 180V290 CAVOK 37/21 Q0998 NOSIG",
      "taf": "TAF OMDB 111100Z 1112/1218 26014KT 8000 NSC"
    },
    {
      "icao": "UAAA",
      "alert": "OK",
      "vis_m": 9999,
      "fzfg": false,
      "metar_trigger": false,
      "taf_trigger": false,
      "metar": "METAR UAAA 111430Z 14002MPS 9999 FEW050 SCT200 30/12 Q1005 NOSIG",
      "taf": "TAF UAAA 111103Z 1112/1212 21002MPS 9999 FEW050CB TX35/1210Z TN19/1201Z"
    },
    {
      "icao": "UBBB",
      "alert": "OK",
      "vis_m": 9999,
      "fzfg": false,
      "metar_trigger": false,
      "taf_trigger": false,
      "metar": "METAR UBBB 111430Z 35014KT CAVOK 28/19 Q1011 NOSIG",
      "taf": "TAF UBBB 111057Z 1112/1212 34012KT CAVOK TX30/1112Z TN21/1201Z"
    },
    {
      "icao": "UDSG",
      "alert": "OK",
      "vis_m": 9999,
      "fzfg": false,
      "metar_trigger": false,
      "taf_trigger": false,
      "metar": "METAR UDSG 111430Z 06015KT 9999 SCT049CB 26/17 Q1019 NOSIG",
      "taf": "TAF UDSG 111100Z 1112/1212 03006KT 9999 SCT050"
    },
    {
      "icao": "UDYZ",
      "alert": "OK",
      "vis_m": 9999,
      "fzfg": false,
      "metar_trigger": false,
      "taf_trigger": false,
      "metar": "METAR UDYZ 111430Z 03016KT 9999 FEW043CB 34/17 Q1010 TEMPO 04024G34KT",
      "taf": "TAF UDYZ 111100Z 1112/1212 04006KT 9999 FEW040"
    },
    {
      "icao": "UGKO",
      "alert": "OK",
      "vis_m": 9999,
      "fzfg": false,
      "metar_trigger": false,
      "taf_trigger": false,
      "metar": "METAR UGKO 111430Z 24012KT 9999 SCT026 BKN030 26/20 Q1016 NOSIG",
      "taf": "TAF UGKO 111100Z 1112/1212 VRB02KT 9999 SCT025 BKN060 TX28/1112Z TN20/1202Z"
    }
  ]
}