{
  "ts_utc": "2026-01-01T14:42:01Z",
  "threshold_m": 150,
  "source": "stations_override.txt (ICAO list) + aviationweather.gov (METAR/TAF raw)",
  "station_count": 159,
  "stations": [
    {
      "icao": "BIKF",
      "alert": "OK",
      "vis_m": 9999,
      "fzfg": false,
      "metar_trigger": false,
      "taf_trigger": false,
      "metar": "METAR BIKF 011430Z 05003KT 9999 FEW020 SCT180 BKN390 02/01 Q1020",
      "taf": "TAF BIKF 011331Z 0115/0215 06006KT 9999 SCT020 TX04/0115Z TNM05/0212Z"
    },
    {
      "icao": "BKPR",
      "alert": "OK",
      "vis_m": 9999,
      "fzfg": false,
      "metar_trigger": false,
      "taf_trigger": false,
      "metar": "METAR BKPR 011430Z 14006KT CAVOK 01/M10 Q1018 NOSIG",
      "taf": "TAF BKPR 011130Z 0112/0212 19009KT CAVOK"
    },
    {
      "icao": "EBCI",
      "alert": "OK",
      "vis_m": 9999,
      "fzfg": false,
      "metar_trigger": false,
      "taf_trigger": false,
      "metar": "METAR EBCI 011420Z 23016KT 9999 -RA BKN013 03/01 Q1005 TEMPO 23015G25KT",
      "taf": "TAF EBCI 011100Z 0112/0218 25012KT 9999 SCT012 BKN020"
    },
    {
      "icao": "EDDB",
      "alert": "OK",
      "vis_m": 9999,
      "fzfg": false,
      "metar_trigger": false,
      "taf_trigger": false,
      "metar": "METAR EDDB 011420Z AUTO 23023KT 9999 OVC029 03/M02 Q0993 TEMPO 23020G30KT",
      "taf": "TAF EDDB 011100Z 0112/0212 23020G30KT 9999 BKN025"
    },
    {
      "icao": "EDDH",
      "alert": "OK",
      "vis_m": 6000,
      "fzfg": false,
      "metar_trigger": false,
      "taf_trigger": false,
      "metar": "METAR EDDH 011420Z AUTO 26018G29KT 6000 2700 SHRA BR BKN010 BKN020 FEW///CB 03/02 Q0989 TEMPO 3000 SHSNRA BKN006",
      "taf": "TAF EDDH 011100Z 0112/0218 24020G35KT 9999 SCT020TCU"
    },
    {
      "icao": "EDDK",
      "alert": "OK",
      "vis_m": 9999,
      "fzfg": false,
      "metar_trigger": false,
      "taf_trigger": false,
      "metar": "METAR EDDK 011420Z AUTO 26016KT 230V290 9999 BKN018 04/00 Q1003 TEMPO 25015G25KT",
      "taf": "TAF EDDK 011100Z 0112/0218 25011KT 9999 BKN025"
    },
    {
      "icao": "EDDN",
      "alert": "OK",
      "vis_m": 9999,
      "fzfg": false,
      "metar_trigger": false,
      "taf_trigger": false,
      "metar": "METAR EDDN 011420Z AUTO 24013KT 9999 OVC017 M00/M04 Q1006 NOSIG",
      "taf": "TAF EDDN 011100Z 0112/0212 25015KT 9999 BKN020"
    },
    {
      "icao": "EDDS",
      "alert": "OK",
      "vis_m": 9999,
      "fzfg": false,
      "metar_trigger": false,
      "taf_trigger": false,
      "metar": "METAR EDDS 011420Z AUTO 36003KT 310V040 CAVOK 01/M05 Q1007 NOSIG",
      "taf": "TAF EDDS 011100Z 0112/0212 23007KT CAVOK"
    },
    {
      "icao": "EDFH",
      "alert": "OK",
      "vis_m": 9999,
      "fzfg": false,
      "metar_trigger": false,
      "taf_trigger": false,
      "metar": "METAR EDFH 011420Z COR 24017KT 210V270 9999 BKN009 M01/M02 Q1004",
      "taf": "TAF EDFH 011100Z 0112/0212 26015G25KT 9999 OVC007"
    },
    {
      "icao": "EDJA",
      "alert": "OK",
      "vis_m": 9999,
      "fzfg": false,
      "metar_trigger": false,
      "taf_trigger": false,
      "metar": "METAR EDJA 011420Z 24015G28KT CAVOK M00/M07 Q1007",
      "taf": "TAF EDJA 011400Z 0115/0124 23020G30KT CAVOK"
    },
    {
      "icao": "EDLW",
      "alert": "OK",
      "vis_m": 9999,
      "fzfg": false,
      "metar_trigger": false,
      "taf_trigger": false,
      "metar": "METAR EDLW 011420Z 23020KT 9999 -DZ SCT013 OVC015 03/01 Q1000",
      "taf": "TAF EDLW 011100Z 0112/0212 24015G25KT 9999 BKN020"
    },
    {
      "icao": "EDNY",
      "alert": "OK",
      "vis_m": 9999,
      "fzfg": false,
      "metar_trigger": false,
      "taf_trigger": false,
      "metar": "METAR EDNY 011420Z AUTO 20006KT 170V230 9999 // NCD 01/M05 Q1010",
      "taf": "TAF EDNY 010800Z 0109/0118 VRB03KT CAVOK"
    },
    {
      "icao": "EDSB",
      "alert": "OK",
      "vis_m": 9999,
      "fzfg": false,
      "metar_trigger": false,
      "taf_trigger": false,
      "metar": "METAR EDSB 011420Z 22008KT 9999 FEW023 SCT035 BKN045 00/M04 Q1011",
      "taf": "TAF EDSB 011100Z 0112/0212 22012KT 9999 BKN025"
    },
    {
      "icao": "EETN",
      "alert": "OK",
      "vis_m": 9999,
      "fzfg": false,
      "metar_trigger": false,
      "taf_trigger": false,
      "metar": "METAR EETN 011420Z 12010KT CAVOK M10/M12 Q0991 TEMPO BKN010",
      "taf": "TAF EETN 011130Z 0112/0212 13008KT 9999 SCT025"
    },
    {
      "icao": "EFTU",
      "alert": "OK",
      "vis_m": 9999,
      "fzfg": false,
      "metar_trigger": false,
      "taf_trigger": false,
      "metar": "METAR EFTU 011420Z AUTO 10014KT CAVOK M07/M11 Q0988",
      "taf": "TAF EFTU 011438Z 0115/0215 11014KT CAVOK"
    },
    {
      "icao": "EGBB",
      "alert": "OK",
      "vis_m": 9999,
      "fzfg": false,
      "metar_trigger": false,
      "taf_trigger": false,
      "metar": "METAR EGBB 011420Z 30010KT 250V320 9999 2000SE RA SCT011 BKN020CB 04/03 Q1008",
      "taf": ""
    },
    {
      "icao": "EGGP",
      "alert": "OK",
      "vis_m": 9999,
      "fzfg": false,
      "metar_trigger": false,
      "taf_trigger": false,
      "metar": "METAR EGGP 011420Z 30020KT 9999 -SHRA SCT019 BKN032 06/02 Q1008",
      "taf": "TAF EGGP 011057Z 0112/0212 32012KT 9999 SCT035"
    },
    {
      "icao": "EGGW",
      "alert": "OK",
      "vis_m": 9999,
      "fzfg": false,
      "metar_trigger": false,
      "taf_trigger": false,
      "metar": "METAR EGGW 011420Z AUTO 29016KT 9999 NCD 05/01 Q1006",
      "taf": "TAF EGGW 011100Z 0112/0212 27014KT 9999 SCT030"
    },
    {
      "icao": "EGKK",
      "alert": "OK",
      "vis_m": 9999,
      "fzfg": false,
      "metar_trigger": false,
      "taf_trigger": false,
      "metar": "METAR EGKK 011420Z 27012KT 9999 FEW021 BKN031 06/03 Q1008",
      "taf": "TAF EGKK 011054Z 0112/0218 26012KT 9999 SCT030"
    },
    {
      "icao": "EGNM",
      "alert": "OK",
      "vis_m": 9999,
      "fzfg": false,
      "metar_trigger": false,
      "taf_trigger": false,
      "metar": "METAR EGNM 011420Z 27019KT 9999 FEW013 03/M01 Q1004",
      "taf": "TAF EGNM 011101Z 0112/0212 29015KT 9999 SCT030"
    },
    {
      "icao": "EGPD",
      "alert": "OK",
      "vis_m": 9999,
      "fzfg": false,
      "metar_trigger": false,
      "taf_trigger": false,
      "metar": "METAR EGPD 011420Z AUTO 31021G31KT 9999 -RASN FEW009/// BKN014/// BKN035/// //////TCU 00/M00 Q1000 TEMPO 1500 SHSN",
      "taf": "TAF EGPD 011053Z 0112/0212 30015KT 9999 SCT012"
    },
    {
      "icao": "EGPF",
      "alert": "OK",
      "vis_m": 9999,
      "fzfg": false,
      "metar_trigger": false,
      "taf_trigger": false,
      "metar": "METAR EGPF 011420Z AUTO 29017KT 9999 NCD 05/M01 Q1005",
      "taf": "TAF EGPF 011056Z 0112/0212 29012KT 9999 FEW035"
    },
    {
      "icao": "EHBK",
      "alert": "OK",
      "vis_m": 9999,
      "fzfg": false,
      "metar_trigger": false,
      "taf_trigger": false,
      "metar": "METAR EHBK 011425Z AUTO 23014KT 200V270 9999 FEW009/// OVC012/// 03/02 Q1003 REDZ NOSIG",
      "taf": "TAF EHBK 011119Z 0112/0218 24015G25KT 9999 BKN018"
    },
    {
      "icao": "EHEH",
      "alert": "OK",
      "vis_m": 9999,
      "fzfg": false,
      "metar_trigger": false,
      "taf_trigger": false,
      "metar": "METAR EHEH 011425Z AUTO 24013KT 200V280 9999 SCT010 BKN013 OVC016 04/02 Q1002 GRN TEMPO BKN014 RMK TREND REMOTE BY EHWX",
      "taf": "TAF EHEH 011114Z 0112/0218 25018G30KT 9999 OVC017"
    },
    {
      "icao": "EKBI",
      "alert": "OK",
      "vis_m": 8000,
      "fzfg": false,
      "metar_trigger": false,
      "taf_trigger": false,
      "metar": "METAR EKBI 011420Z 27019G31KT 230V290 8000 SHRA SCT015 BKN020CB 03/02 Q0981",
      "taf": "TAF EKBI 011427Z 0115/0215 25013KT 9999 BKN015"
    },
    {
      "icao": "EKCH",
      "alert": "OK",
      "vis_m": 9999,
      "fzfg": false,
      "metar_trigger": false,
      "taf_trigger": false,
      "metar": "METAR EKCH 011420Z 25019KT 9999 BKN023 04/01 Q0980 TEMPO BKN012 SCT015CB",
      "taf": "TAF EKCH 011427Z 0115/0215 25016KT 9999 BKN015"
    },
    {
      "icao": "ENAL",
      "alert": "OK",
      "vis_m": 9999,
      "fzfg": false,
      "metar_trigger": false,
      "taf_trigger": false,
      "metar": "METAR ENAL 011420Z 05025KT 9999 BKN019 01/M02 Q0983",
      "taf": "TAF ENAL 011400Z 0115/0124 04025KT 9999 FEW015 SCT035"
    },
    {
      "icao": "ENBR",
      "alert": "OK",
      "vis_m": 9999,
      "fzfg": false,
      "metar_trigger": false,
      "taf_trigger": false,
      "metar": "METAR ENBR 011420Z 02006G16KT 330V060 9999 FEW010 01/M00 Q0976 NOSIG RMK WIND 1200FT 35016KT",
      "taf": "TAF ENBR 011100Z 0112/0212 VRB05KT 9999 -SHSNRA BKN009 SCT020CB"
    },
    {
      "icao": "ENGM",
      "alert": "OK",
      "vis_m": 9999,
      "fzfg": false,
      "metar_trigger": false,
      "taf_trigger": false,
      "metar": "METAR ENGM 011420Z 01014KT 9999 BKN018 M03/M06 Q0973 NOSIG",
      "taf": "TAF ENGM 011100Z 0112/0212 36012KT 9999 -SN BKN020"
    },
    {
      "icao": "ENHD",
      "alert": "OK",
      "vis_m": 9999,
      "fzfg": false,
      "metar_trigger": false,
      "taf_trigger": false,
      "metar": "METAR ENHD 011420Z 35025KT 9999 FEW018CB BKN022 05/02 Q0973",
      "taf": "TAF ENHD 011400Z 0115/0123 34020KT 9999 FEW020 SCT040"
    },
    {
      "icao": "ENTC",
      "alert": "OK",
      "vis_m": 9999,
      "fzfg": false,
      "metar_trigger": false,
      "taf_trigger": false,
      "metar": "METAR ENTC 011420Z 15002KT CAVOK M14/M17 Q0999 NOSIG RMK WIND 2600FT 17008KT",
      "taf": "TAF ENTC 011100Z 0112/0212 24006KT CAVOK"
    },
    {
      "icao": "ENTO",
      "alert": "OK",
      "vis_m": 9999,
      "fzfg": false,
      "metar_trigger": false,
      "taf_trigger": false,
      "metar": "METAR ENTO 011420Z 34004KT CAVOK M01/M02 Q0974 NOSIG",
      "taf": "TAF ENTO 011100Z 0112/0212 35008KT CAVOK"
    },
    {
      "icao": "ENVA",
      "alert": "OK",
      "vis_m": 7000,
      "fzfg": false,
      "metar_trigger": false,
      "taf_trigger": false,
      "metar": "METAR ENVA 011420Z 09004KT 070V130 7000 -SN VV018 M04/M05 Q0984 TEMPO 0800 SN VV008 RMK WIND 670FT 07005KT",
      "taf": ""
    },
    {
      "icao": "ENZV",
      "alert": "OK",
      "vis_m": 9999,
      "fzfg": false,
      "metar_trigger": false,
      "taf_trigger": false,
      "metar": "METAR ENZV 011420Z 29016G32KT 260V330 9999 -SHRA FEW005 SCT015 BKN022 05/03 Q0973 TEMPO 35018KT 4000 SHSNRAGS BKN012CB",
      "taf": "TAF ENZV 011100Z 0112/0212 34018KT 9999 -SHRA FEW015CB BKN035"
    },
    {
      "icao": "EPGD",
      "alert": "OK",
      "vis_m": 3300,
      "fzfg": false,
      "metar_trigger": false,
      "taf_trigger": false,
      "metar": "METAR EPGD 011430Z 22016KT 3300 -SN BR BKN007 01/M00 Q0986 RESN",
      "taf": ""
    },
    {
      "icao": "EPKK",
      "alert": "OK",
      "vis_m": 9999,
      "fzfg": false,
      "metar_trigger": false,
      "taf_trigger": false,
      "metar": "METAR EPKK 011430Z 23008KT 9999 BKN020 01/M03 Q1001",
      "taf": "TAF EPKK 011430Z 0115/0215 24012KT 8000 BKN030"
    },
    {
      "icao": "EPKT",
      "alert": "OK",
      "vis_m": 9999,
      "fzfg": false,
      "metar_trigger": false,
      "taf_trigger": false,
      "metar": "METAR EPKT 011430Z 21022KT 9999 BKN016 00/M03 Q1000",
      "taf": "TAF EPKT 011130Z 0112/0212 24007KT 8000 BKN025"
    },
    {
      "icao": "EPLB",
      "alert": "OK",
      "vis_m": 9999,
      "fzfg": false,
      "metar_trigger": false,
      "taf_trigger": false,
      "metar": "METAR EPLB 011430Z 21014KT 9999 -SN FEW015 OVC020 M01/M02 Q1000",
      "taf": "TAF EPLB 011130Z 0112/0212 18008KT 6000 -SN BKN010 BKN015"
    },
    {
      "icao": "EPMO",
      "alert": "OK",
      "vis_m": 9999,
      "fzfg": false,
      "metar_trigger": false,
      "taf_trigger": false,
      "metar": "METAR EPMO 011430Z 21014KT 180V240 9999 BKN022 01/M01 Q0995",
      "taf": "TAF EPMO 011130Z 0112/0212 21012KT 4000 -SN BR BKN010"
    },
    {
      "icao": "EPPO",
      "alert": "OK",
      "vis_m": 9999,
      "fzfg": false,
      "metar_trigger": false,
      "taf_trigger": false,
      "metar": "METAR EPPO 011430Z 24015KT 9999 OVC021 02/M03 Q0993",
      "taf": "TAF EPPO 011130Z 0112/0212 24015G25KT 9999 BKN015"
    },
    {
      "icao": "EPRA",
      "alert": "OK",
      "vis_m": 9999,
      "fzfg": false,
      "metar_trigger": false,
      "taf_trigger": false,
      "metar": "METAR EPRA 011430Z 24013KT 9999 -RA BKN010 OVC017 01/M01 Q0998",
      "taf": "TAF EPRA 011430Z 0115/0124 24015KT 9999 BKN014 OVC030"
    },
    {
      "icao": "EPRZ",
      "alert": "OK",
      "vis_m": 9999,
      "fzfg": false,
      "metar_trigger": false,
      "taf_trigger": false,
      "metar": "METAR EPRZ 011430Z 19018KT CAVOK M01/M04 Q1002",
      "taf": "TAF EPRZ 011130Z 0112/0212 21010KT 9999 OVC020"
    },
    {
      "icao": "EPSC",
      "alert": "OK",
      "vis_m": 9999,
      "fzfg": false,
      "metar_trigger": false,
      "taf_trigger": false,
      "metar": "METAR EPSC 011430Z 21014G26KT 180V250 9999 -RASN BKN008 01/M00 Q0988",
      "taf": "TAF EPSC 011130Z 0112/0212 22015KT 9999 BKN018"
    },
    {
      "icao": "EPSY",
      "alert": "OK",
      "vis_m": 4100,
      "fzfg": false,
      "metar_trigger": false,
      "taf_trigger": false,
      "metar": "METAR EPSY 011430Z 21014KT 4100 -SNRA BR SCT001 BKN004 OVC006 00/M00 Q0991",
      "taf": "TAF EPSY 011430Z 0115/0124 23014KT 4000 -SNRA BR OVC005"
    },
    {
      "icao": "EPWA",
      "alert": "OK",
      "vis_m": 9999,
      "fzfg": false,
      "metar_trigger": false,
      "taf_trigger": false,
      "metar": "METAR EPWA 011430Z 22012KT 9999 FEW018 BKN046 02/M01 Q0996 TEMPO 3000 SNRA BKN014",
      "taf": "TAF EPWA 011430Z 0115/0215 23012KT 9999 BKN020"
    },
    {
      "icao": "EPWR",
      "alert": "OK",
      "vis_m": 9999,
      "fzfg": false,
      "metar_trigger": false,
      "taf_trigger": false,
      "metar": "METAR EPWR 011430Z 22010KT 9999 SCT026 BKN035 02/M03 Q0999",
      "taf": "TAF EPWR 011430Z 0115/0215 25015G25KT 9999 FEW020 BKN030"
    },
    {
      "icao": "ESGG",
      "alert": "OK",
      "vis_m": 9999,
      "fzfg": false,
      "metar_trigger": false,
      "taf_trigger": false,
      "metar": "METAR ESGG 011420Z 25006KT 9999 SCT008 BKN017 02/01 Q0973",
      "taf": "TAF ESGG 011430Z 0115/0215 27008KT 9999 SCT006 BKN020"
    },
    {
      "icao": "ESKN",
      "alert": "OK",
      "vis_m": 9999,
      "fzfg": false,
      "metar_trigger": false,
      "taf_trigger": false,
      "metar": "METAR ESKN 011420Z 18006KT 9999 FEW028 BKN062 01/00 Q0974 NOSIG",
      "taf": "TAF ESKN 011430Z 0115/0215 19006KT 9999 SCT025"
    },
    {
      "icao": "ESMS",
      "alert": "OK",
      "vis_m": 9999,
      "fzfg": false,
      "metar_trigger": false,
      "taf_trigger": false,
      "metar": "METAR ESMS 011420Z 23018KT 9999 SCT010 BKN020 03/02 Q0979",
      "taf": "TAF ESMS 011427Z 0115/0215 24016KT 9999 SCT008 BKN015"
    },
    {
      "icao": "ESSA",
      "alert": "OK",
      "vis_m": 4100,
      "fzfg": false,
      "metar_trigger": false,
      "taf_trigger": false,
      "metar": "METAR ESSA 011420Z 11008KT 4100 -SN VV008 M00/M00 Q0974 TEMPO 5000",
      "taf": "TAF ESSA 011430Z 0115/0215 10010KT 5000 -SN VV006"
    },
    {
      "icao": "EYKA",
      "alert": "OK",
      "vis_m": 1100,
      "fzfg": false,
      "metar_trigger": false,
      "taf_trigger": false,
      "metar": "METAR EYKA 011420Z 16014KT 130V200 1100 R08/1900N SN BLSN OVC010 M05/M06 Q0992",
      "taf": "TAF EYKA 011105Z 0112/0212 18015G25KT 1500 SN BLSN BKN005 OVC010"
    },
    {
      "icao": "EYPA",
      "alert": "OK",
      "vis_m": 5000,
      "fzfg": false,
      "metar_trigger": false,
      "taf_trigger": false,
      "metar": "METAR EYPA 011420Z 18012KT 5000 -SNRA OVC004 00/M00 Q0984",
      "taf": "TAF EYPA 011104Z 0112/0212 17015G30KT 0600 +SN BLSN BKN005 OVC012"
    },
    {
      "icao": "EYVI",
      "alert": "OK",
      "vis_m": 5000,
      "fzfg": false,
      "metar_trigger": false,
      "taf_trigger": false,
      "metar": "METAR EYVI 011420Z 16016KT 5000 -SN BR OVC027 M07/M11 Q0994 BECMG 3000 SN OVC010",
      "taf": "TAF EYVI 011101Z 0112/0212 17014KT 9000 BKN020"
    },
    {
      "icao": "GCFV",
      "alert": "OK",
      "vis_m": 9999,
      "fzfg": false,
      "metar_trigger": false,
      "taf_trigger": false,
      "metar": "METAR GCFV 011430Z 20018G29KT 170V230 CAVOK 24/06 Q1009",
      "taf": "TAF GCFV 011400Z 0115/0215 20015KT 9999 FEW020 TX23/0214Z TN17/0206Z"
    },
    {
      "icao": "GCLP",
      "alert": "OK",
      "vis_m": 9999,
      "fzfg": false,
      "metar_trigger": false,
      "taf_trigger": false,
      "metar": "METAR GCLP 011430Z 21022KT 9999 SCT030 24/11 Q1008 NOSIG",
      "taf": "TAF GCLP 011400Z 0115/0215 21023KT 9999 SCT025 TX23/0214Z TN17/0206Z"
    },
    {
      "icao": "GCTS",
      "alert": "OK",
      "vis_m": 5000,
      "fzfg": false,
      "metar_trigger": false,
      "taf_trigger": false,
      "metar": "METAR GCTS 011430Z 26013KT 5000 RA SCT005 OVC020TCU 18/17 Q1009 TEMPO 4000 SHRA BKN020TCU",
      "taf": "TAF GCTS 011400Z 0115/0215 27012KT 9999 OVC020 TX25/0214Z TN18/0206Z"
    },
    {
      "icao": "GMAD",
      "alert": "OK",
      "vis_m": 9999,
      "fzfg": false,
      "metar_trigger": false,
      "taf_trigger": false,
      "metar": "METAR GMAD 011430Z 07004KT 010V130 CAVOK 25/11 Q1011 NOSIG",
      "taf": "TAF GMAD 011100Z 0112/0218 04005KT CAVOK"
    },
    {
      "icao": "GMMN",
      "alert": "OK",
      "vis_m": 9999,
      "fzfg": false,
      "metar_trigger": false,
      "taf_trigger": false,
      "metar": "METAR GMMN 011430Z 20008KT CAVOK 22/14 Q1012 NOSIG",
      "taf": "TAF GMMN 011100Z 0112/0218 16008KT CAVOK"
    },
    {
      "icao": "GMMX",
      "alert": "OK",
      "vis_m": 8000,
      "fzfg": false,
      "metar_trigger": false,
      "taf_trigger": false,
      "metar": "METAR GMMX 011430Z 04006KT 360V080 8000 SCT100 SCT200 22/09 Q1011 NOSIG",
      "taf": "TAF GMMX 011100Z 0112/0218 24008KT 8000 NSC"
    },
    {
      "icao": "HEGN",
      "alert": "OK",
      "vis_m": 9999,
      "fzfg": false,
      "metar_trigger": false,
      "taf_trigger": false,
      "metar": "METAR HEGN 011400Z 01007KT CAVOK 23/06 Q1015 NOSIG",
      "taf": "TAF HEGN 011100Z 0112/0218 31008KT CAVOK"
    },
    {
      "icao": "HEMA",
      "alert": "OK",
      "vis_m": null,
      "fzfg": false,
      "metar_trigger": false,
      "taf_trigger": false,
      "metar": "",
      "taf": "TAF HEMA 011100Z 0112/0218 30010KT CAVOK"
    },
    {
      "icao": "HESH",
      "alert": "OK",
      "vis_m": 9999,
      "fzfg": false,
      "metar_trigger": false,
      "taf_trigger": false,
      "metar": "METAR HESH 011400Z 31011KT CAVOK 25/M05 Q1013 NOSIG",
      "taf": "TAF HESH 011100Z 0112/0218 23008KT CAVOK"
    },
    {
      "icao": "HESX",
      "alert": "OK",
      "vis_m": 9999,
      "fzfg": false,
      "metar_trigger": false,
      "taf_trigger": false,
      "metar": "METAR HESX 011400Z 24012KT CAVOK 19/04 Q1014 NOSIG",
      "taf": "TAF HESX 011150Z 0112/0218 26010KT 6000 FEW025 SCT070"
    },
    {
      "icao": "LATI",
      "alert": "OK",
      "vis_m": 9999,
      "fzfg": false,
      "metar_trigger": false,
      "taf_trigger": false,
      "metar": "METAR LATI 011420Z VRB02KT CAVOK 08/M13 Q1021 NOSIG",
      "taf": "TAF LATI 011100Z 0112/0212 VRB05KT CAVOK TX10/0212Z TN00/0205Z"
    },
    {
      "icao": "LBPD",
      "alert": "OK",
      "vis_m": 9999,
      "fzfg": false,
      "metar_trigger": false,
      "taf_trigger": false,
      "metar": "METAR LBPD 011430Z AUTO VRB02KT 9999 FEW085/// 03/M12 Q1019 NOSIG",
      "taf": "TAF LBPD 011100Z 0112/0212 28014KT CAVOK"
    },
    {
      "icao": "LBSF",
      "alert": "OK",
      "vis_m": 9999,
      "fzfg": false,
      "metar_trigger": false,
      "taf_trigger": false,
      "metar": "METAR LBSF 011430Z 17003KT 140V230 9999 BKN057 M01/M10 Q1018 NOSIG",
      "taf": "TAF LBSF 011100Z 0112/0212 28010KT 9999 SCT070"
    },
    {
      "icao": "LBWN",
      "alert": "OK",
      "vis_m": 9999,
      "fzfg": false,
      "metar_trigger": false,
      "taf_trigger": false,
      "metar": "METAR LBWN 011430Z AUTO 26007KT 9999 NCD 01/M11 Q1019 NOSIG",
      "taf": "TAF LBWN 011100Z 0112/0212 27014KT CAVOK"
    },
    {
      "icao": "LCLK",
      "alert": "OK",
      "vis_m": 9999,
      "fzfg": false,
      "metar_trigger": false,
      "taf_trigger": false,
      "metar": "METAR LCLK 011430Z 31010KT 9999 FEW025 14/05 Q1010 NOSIG",
      "taf": "TAF LCLK 011130Z 0112/0212 29018KT 9999 FEW025 SCT050"
    },
    {
      "icao": "LCPH",
      "alert": "OK",
      "vis_m": 9999,
      "fzfg": false,
      "metar_trigger": false,
      "taf_trigger": false,
      "metar": "METAR LCPH 011430Z 31022KT 9999 FEW020 SCT040 13/04 Q1011 NOSIG",
      "taf": "TAF LCPH 011130Z 0112/0212 31020G30KT 9999 FEW025 SCT040"
    },
    {
      "icao": "LEAL",
      "alert": "OK",
      "vis_m": 9999,
      "fzfg": false,
      "metar_trigger": false,
      "taf_trigger": false,
      "metar": "METAR LEAL 011430Z 21004KT 150V250 9999 BKN025 15/08 Q1017 NOSIG",
      "taf": "TAF LEAL 011100Z 0112/0212 16004KT 9999 FEW030 TX15/0114Z TN07/0206Z"
    },
    {
      "icao": "LEBB",
      "alert": "OK",
      "vis_m": 9999,
      "fzfg": false,
      "metar_trigger": false,
      "taf_trigger": false,
      "metar": "METAR LEBB 011430Z 18005KT 100V260 CAVOK 12/03 Q1014 NOSIG",
      "taf": "TAF LEBB 011100Z 0112/0212 14006KT CAVOK TX12/0114Z TN03/0122Z"
    },
    {
      "icao": "LEBL",
      "alert": "OK",
      "vis_m": 9999,
      "fzfg": false,
      "metar_trigger": false,
      "taf_trigger": false,
      "metar": "METAR LEBL 011430Z 24011KT 9999 FEW017 12/07 Q1015 NOSIG",
      "taf": "TAF LEBL 011100Z 0112/0212 24012KT 9999 FEW020 TX13/0112Z TN05/0206Z"
    },
    {
      "icao": "LECH",
      "alert": "OK",
      "vis_m": 9999,
      "fzfg": false,
      "metar_trigger": false,
      "taf_trigger": false,
      "metar": "METAR LECH 011430Z AUTO 20003KT 160V250 CAVOK 11/06 Q1015",
      "taf": ""
    },
    {
      "icao": "LEMD",
      "alert": "OK",
      "vis_m": 9999,
      "fzfg": false,
      "metar_trigger": false,
      "taf_trigger": false,
      "metar": "METAR LEMD 011430Z 21003KT 130V260 9999 FEW070 BKN080 04/02 Q1016 NOSIG",
      "taf": "TAF LEMD 011100Z 0112/0218 VRB03KT 9999 SCT040 TX06/0115Z TN04/0208Z"
    },
    {
      "icao": "LEMG",
      "alert": "OK",
      "vis_m": 9999,
      "fzfg": false,
      "metar_trigger": false,
      "taf_trigger": false,
      "metar": "METAR LEMG 011430Z 10007KT 9999 FEW025 BKN035 14/11 Q1016 NOSIG",
      "taf": "TAF LEMG 011100Z 0112/0212 11006KT 9999 BKN020 TX17/0114Z TN09/0207Z"
    },
    {
      "icao": "LEVC",
      "alert": "OK",
      "vis_m": 9999,
      "fzfg": false,
      "metar_trigger": false,
      "taf_trigger": false,
      "metar": "METAR LEVC 011430Z VRB02KT CAVOK 13/07 Q1016 NOSIG",
      "taf": "TAF LEVC 011100Z 0112/0212 26004KT 9999 FEW035 TX15/0114Z TN04/0206Z"
    },
    {
      "icao": "LEXJ",
      "alert": "OK",
      "vis_m": 9999,
      "fzfg": false,
      "metar_trigger": false,
      "taf_trigger": false,
      "metar": "METAR LEXJ 011430Z VRB02KT CAVOK 11/04 Q1013",
      "taf": "TAF LEXJ 011400Z 0115/0215 10007KT CAVOK TX12/0214Z TN06/0121Z"
    },
    {
      "icao": "LEZG",
      "alert": "OK",
      "vis_m": 2000,
      "fzfg": false,
      "metar_trigger": false,
      "taf_trigger": false,
      "metar": "METAR LEZG 011430Z 06003KT 030V100 2000 BR OVC004 03/03 Q1017 NOSIG",
      "taf": ""
    },
    {
      "icao": "LEZL",
      "alert": "OK",
      "vis_m": 9000,
      "fzfg": false,
      "metar_trigger": false,
      "taf_trigger": false,
      "metar": "METAR LEZL 011430Z 05006KT 9000 -RA FEW015 OVC038 13/11 Q1014 NOSIG",
      "taf": "TAF LEZL 011400Z 0115/0215 05007KT 9999 BKN040 TX15/0115Z TN09/0207Z"
    },
    {
      "icao": "LFBD",
      "alert": "OK",
      "vis_m": 3100,
      "fzfg": false,
      "metar_trigger": false,
      "taf_trigger": false,
      "metar": "METAR LFBD 011430Z AUTO 13006KT 3100 BR OVC002 00/00 Q1015 TEMPO BKN015 BECMG 9999 NSW",
      "taf": ""
    },
    {
      "icao": "LFLL",
      "alert": "OK",
      "vis_m": 9999,
      "fzfg": false,
      "metar_trigger": false,
      "taf_trigger": false,
      "metar": "METAR LFLL 011430Z 36003KT 330V030 CAVOK 02/M03 Q1013 NOSIG",
      "taf": "TAF LFLL 011100Z 0112/0218 VRB03KT CAVOK"
    },
    {
      "icao": "LFLS",
      "alert": "OK",
      "vis_m": 9999,
      "fzfg": false,
      "metar_trigger": false,
      "taf_trigger": false,
      "metar": "METAR LFLS 011430Z AUTO 08004KT 020V120 CAVOK 05/M01 Q1013 TEMPO 24010KT",
      "taf": "TAF LFLS 011400Z 0115/0215 VRB03KT CAVOK"
    },
    {
      "icao": "LFMN",
      "alert": "OK",
      "vis_m": 9999,
      "fzfg": false,
      "metar_trigger": false,
      "taf_trigger": false,
      "metar": "METAR LFMN 011430Z 24019KT 9999 FEW050 SCT260 13/04 Q1013 NOSIG",
      "taf": "TAF LFMN 011400Z 0115/0221 24015G30KT CAVOK"
    },
    {
      "icao": "LFOB",
      "alert": "OK",
      "vis_m": 9999,
      "fzfg": false,
      "metar_trigger": false,
      "taf_trigger": false,
      "metar": "METAR LFOB 011430Z AUTO 24009KT 210V270 9999 BKN014 BKN021 BKN026 04/02 Q1009 TEMPO 4000 -RADZ BKN009",
      "taf": "TAF LFOB 011100Z 0112/0212 24009KT 9999 BKN020"
    },
    {
      "icao": "LFPO",
      "alert": "OK",
      "vis_m": 9999,
      "fzfg": false,
      "metar_trigger": false,
      "taf_trigger": false,
      "metar": "METAR LFPO 011430Z AUTO 23010KT 190V260 9999 -RA BKN026 BKN034 OVC043 03/00 Q1011",
      "taf": ""
    },
    {
      "icao": "LFSB",
      "alert": "OK",
      "vis_m": 9999,
      "fzfg": false,
      "metar_trigger": false,
      "taf_trigger": false,
      "metar": "METAR LFSB 011430Z AUTO 24008KT 200V260 CAVOK 03/M06 Q1011 NOSIG",
      "taf": "TAF LFSB 011101Z 0112/0212 16005KT CAVOK"
    },
    {
      "icao": "LGAV",
      "alert": "OK",
      "vis_m": 9999,
      "fzfg": false,
      "metar_trigger": false,
      "taf_trigger": false,
      "metar": "METAR LGAV 011420Z 01008KT 340V060 9999 FEW025 07/M05 Q1022 NOSIG",
      "taf": "TAF LGAV 011100Z 0112/0212 36012KT 9999 FEW020"
    },
    {
      "icao": "LGTS",
      "alert": "OK",
      "vis_m": 9999,
      "fzfg": false,
      "metar_trigger": false,
      "taf_trigger": false,
      "metar": "METAR LGTS 011420Z VRB03KT CAVOK 06/M10 Q1022 NOSIG",
      "taf": "TAF LGTS 011100Z 0112/0212 VRB03KT 9999 FEW030"
    },
    {
      "icao": "LHBP",
      "alert": "OK",
      "vis_m": 9999,
      "fzfg": false,
      "metar_trigger": false,
      "taf_trigger": false,
      "metar": "METAR LHBP 011430Z 18005KT CAVOK 02/M03 Q1009 NOSIG",
      "taf": "TAF LHBP 011115Z 0112/0212 19006KT CAVOK"
    },
    {
      "icao": "LHDC",
      "alert": "OK",
      "vis_m": 9999,
      "fzfg": false,
      "metar_trigger": false,
      "taf_trigger": false,
      "metar": "METAR LHDC 011415Z AUTO 18014KT 9999 BKN016 M01/M03 Q1012 NOSIG",
      "taf": "TAF LHDC 011415Z 0115/0124 18014KT 8000 SN BKN005 BKN025"
    },
    {
      "icao": "LIBD",
      "alert": "OK",
      "vis_m": 9999,
      "fzfg": false,
      "metar_trigger": false,
      "taf_trigger": false,
      "metar": "METAR LIBD 011420Z 16006KT 120V190 CAVOK 10/M03 Q1019",
      "taf": "TAF LIBD 011100Z 0112/0212 17010KT 9999 FEW050"
    },
    {
      "icao": "LIBG",
      "alert": "OK",
      "vis_m": 9999,
      "fzfg": false,
      "metar_trigger": false,
      "taf_trigger": false,
      "metar": "METAR LIBG 011350Z 21005KT 180V250 CAVOK 10/01 Q1021",
      "taf": "TAF LIBG 011400Z 0115/0124 VRB05KT CAVOK"
    },
    {
      "icao": "LIBP",
      "alert": "OK",
      "vis_m": 9999,
      "fzfg": false,
      "metar_trigger": false,
      "taf_trigger": false,
      "metar": "METAR LIBP 011420Z AUTO 07003KT 040V100 9999 NCD 09/M04 Q1017",
      "taf": "TAF LIBP 011100Z 0112/0212 VRB05KT CAVOK"
    },
    {
      "icao": "LIBR",
      "alert": "OK",
      "vis_m": 9999,
      "fzfg": false,
      "metar_trigger": false,
      "taf_trigger": false,
      "metar": "METAR LIBR 011420Z 18004KT CAVOK 09/M03 Q1021",
      "taf": "TAF LIBR 011100Z 0112/0212 VRB05KT 9999 FEW030"
    },
    {
      "icao": "LICA",
      "alert": "OK",
      "vis_m": 9999,
      "fzfg": false,
      "metar_trigger": false,
      "taf_trigger": false,
      "metar": "METAR LICA 011420Z AUTO 07013KT 9999 NCD 10/02 Q1021",
      "taf": "TAF LICA 011100Z 0112/0212 07015KT CAVOK"
    },
    {
      "icao": "LICC",
      "alert": "OK",
      "vis_m": 9999,
      "fzfg": false,
      "metar_trigger": false,
      "taf_trigger": false,
      "metar": "METAR LICC 011420Z 13004KT 090V160 9999 FEW025 SCT050 13/10 Q1021",
      "taf": "TAF LICC 011100Z 0112/0212 VRB05KT 9999 SCT030"
    },
    {
      "icao": "LICJ",
      "alert": "OK",
      "vis_m": 9999,
      "fzfg": false,
      "metar_trigger": false,
      "taf_trigger": false,
      "metar": "METAR LICJ 011420Z 21011KT 9999 FEW050 15/07 Q1019",
      "taf": "TAF LICJ 011100Z 0112/0212 VRB06KT CAVOK"
    },
    {
      "icao": "LIMC",
      "alert": "OK",
      "vis_m": 9999,
      "fzfg": false,
      "metar_trigger": false,
      "taf_trigger": false,
      "metar": "METAR LIMC 011420Z 24003KT CAVOK 04/01 Q1014 NOSIG",
      "taf": "TAF LIMC 011100Z 0112/0218 VRB04KT 8000 BKN030"
    },
    {
      "icao": "LIME",
      "alert": "OK",
      "vis_m": 9999,
      "fzfg": false,
      "metar_trigger": false,
      "taf_trigger": false,
      "metar": "METAR LIME 011420Z 22003KT 200V260 9999 BKN060 04/M01 Q1014 NOSIG",
      "taf": "TAF LIME 011100Z 0112/0212 VRB04KT 9999 SCT040"
    },
    {
      "icao": "LIMF",
      "alert": "OK",
      "vis_m": 6000,
      "fzfg": false,
      "metar_trigger": false,
      "taf_trigger": false,
      "metar": "METAR LIMF 011420Z VRB01KT 6000 SCT020 05/M01 Q1014",
      "taf": "TAF LIMF 011100Z 0112/0212 VRB04KT 8000 BKN040"
    },
    {
      "icao": "LIMJ",
      "alert": "OK",
      "vis_m": 9999,
      "fzfg": false,
      "metar_trigger": false,
      "taf_trigger": false,
      "metar": "METAR LIMJ 011420Z 12019KT 9999 FEW015 BKN028 11/08 Q1013",
      "taf": "TAF LIMJ 011100Z 0112/0212 14014KT 9999 BKN030"
    },
    {
      "icao": "LIPE",
      "alert": "OK",
      "vis_m": 9999,
      "fzfg": false,
      "metar_trigger": false,
      "taf_trigger": false,
      "metar": "METAR LIPE 011420Z 08006KT CAVOK 07/00 Q1015",
      "taf": "TAF LIPE 011100Z 0112/0212 VRB05KT CAVOK"
    },
    {
      "icao": "LIPH",
      "alert": "OK",
      "vis_m": 9999,
      "fzfg": false,
      "metar_trigger": false,
      "taf_trigger": false,
      "metar": "METAR LIPH 011420Z AUTO VRB02KT 9999 FEW052/// BKN069/// 04/M03 Q1015",
      "taf": "TAF LIPH 011100Z 0112/0212 VRB04KT CAVOK"
    },
    {
      "icao": "LIPQ",
      "alert": "OK",
      "vis_m": 9999,
      "fzfg": false,
      "metar_trigger": false,
      "taf_trigger": false,
      "metar": "METAR LIPQ 011420Z AUTO 26003KT 9999 BKN051/// 06/M02 Q1015",
      "taf": "TAF LIPQ 011100Z 0112/0212 VRB05KT 9999 BKN060"
    },
    {
      "icao": "LIPR",
      "alert": "OK",
      "vis_m": 9999,
      "fzfg": false,
      "metar_trigger": false,
      "taf_trigger": false,
      "metar": "METAR LIPR 011420Z VRB01KT 9999 FEW060 06/01 Q1016",
      "taf": "TAF LIPR 011100Z 0112/0212 VRB05KT CAVOK"
    },
    {
      "icao": "LIPX",
      "alert": "OK",
      "vis_m": 8000,
      "fzfg": false,
      "metar_trigger": false,
      "taf_trigger": false,
      "metar": "METAR LIPX 011420Z VRB01KT 8000 BKN050 03/M01 Q1015",
      "taf": "TAF LIPX 011100Z 0112/0212 VRB04KT 9999 BKN040"
    },
    {
      "icao": "LIPY",
      "alert": "OK",
      "vis_m": 9999,
      "fzfg": false,
      "metar_trigger": false,
      "taf_trigger": false,
      "metar": "METAR LIPY 011420Z AUTO 16003KT 130V190 9999 OVC041/// 09/M02 Q1016",
      "taf": "TAF LIPY 011100Z 0112/0212 VRB05KT CAVOK"
    },
    {
      "icao": "LIPZ",
      "alert": "OK",
      "vis_m": 9999,
      "fzfg": false,
      "metar_trigger": false,
      "taf_trigger": false,
      "metar": "METAR LIPZ 011420Z 06002KT 9999 BKN070 03/M01 Q1015 NOSIG",
      "taf": "TAF LIPZ 011100Z 0112/0218 VRB05KT CAVOK"
    },
    {
      "icao": "LIRF",
      "alert": "OK",
      "vis_m": 9999,
      "fzfg": false,
      "metar_trigger": false,
      "taf_trigger": false,
      "metar": "METAR LIRF 011420Z 13012KT 9999 FEW030 SCT055 11/03 Q1018 NOSIG",
      "taf": "TAF LIRF 011100Z 0112/0218 15015KT 9999 FEW040"
    },
    {
      "icao": "LIRN",
      "alert": "OK",
      "vis_m": 9999,
      "fzfg": false,
      "metar_trigger": false,
      "taf_trigger": false,
      "metar": "METAR LIRN 011420Z 19005KT 160V240 9999 FEW070 11/00 Q1020 NOSIG",
      "taf": "TAF LIRN 011100Z 0112/0212 VRB06KT CAVOK"
    },
    {
      "icao": "LIRP",
      "alert": "OK",
      "vis_m": 9999,
      "fzfg": false,
      "metar_trigger": false,
      "taf_trigger": false,
      "metar": "METAR LIRP 011415Z 12005KT 9999 SCT040 08/M00 Q1016 NOSIG",
      "taf": "TAF LIRP 011100Z 0112/0212 12006KT 9999 BKN050"
    },
    {
      "icao": "LIRZ",
      "alert": "OK",
      "vis_m": 9999,
      "fzfg": false,
      "metar_trigger": false,
      "taf_trigger": false,
      "metar": "METAR LIRZ 011420Z AUTO VRB01KT 9999 OVC027/// 01/M02 Q1017",
      "taf": "TAF LIRZ 011100Z 0112/0212 VRB03KT 9999 FEW035"
    },
    {
      "icao": "LJLJ",
      "alert": "OK",
      "vis_m": 9999,
      "fzfg": false,
      "metar_trigger": false,
      "taf_trigger": false,
      "metar": "METAR LJLJ 011430Z 26004KT 230V290 9999 FEW043 BKN047 03/M04 Q1012 NOSIG",
      "taf": "TAF LJLJ 011100Z 0112/0212 VRB02KT 9999 BKN045"
    },
    {
      "icao": "LKMT",
      "alert": "OK",
      "vis_m": 9999,
      "fzfg": false,
      "metar_trigger": false,
      "taf_trigger": false,
      "metar": "METAR LKMT 011430Z 21015KT 9999 FEW030 01/M04 Q1003 NOSIG",
      "taf": "TAF LKMT 011100Z 0112/0212 22020KT 9999 BKN018"
    },
    {
      "icao": "LKPR",
      "alert": "OK",
      "vis_m": 9999,
      "fzfg": false,
      "metar_trigger": false,
      "taf_trigger": false,
      "metar": "METAR LKPR 011430Z 21022KT 9999 BKN025 00/M04 Q1001 NOSIG",
      "taf": "TAF LKPR 011400Z 0115/0221 22018KT 9999 BKN023"
    },
    {
      "icao": "LLBG",
      "alert": "OK",
      "vis_m": 4500,
      "fzfg": false,
      "metar_trigger": false,
      "taf_trigger": false,
      "metar": "METAR LLBG 011420Z 25010KT 4500 RA FEW015TCU BKN030 14/13 Q1013 RETS NOSIG",
      "taf": "TAF LLBG 011111Z 0112/0212 22012KT 9999 SCT030 BKN040"
    },
    {
      "icao": "LMML",
      "alert": "OK",
      "vis_m": 9999,
      "fzfg": false,
      "metar_trigger": false,
      "taf_trigger": false,
      "metar": "METAR LMML 011415Z 10011KT 9999 -RA SCT023 13/09 Q1020 NOSIG",
      "taf": "TAF LMML 011100Z 0112/0212 10015KT 9999 BKN023"
    },
    {
      "icao": "LOWW",
      "alert": "OK",
      "vis_m": 9999,
      "fzfg": false,
      "metar_trigger": false,
      "taf_trigger": false,
      "metar": "METAR LOWW 011420Z 12004KT CAVOK 04/M05 Q1007 NOSIG",
      "taf": "TAF LOWW 011415Z 0115/0221 20007KT CAVOK TX06/0212Z TNM00/0122Z"
    },
    {
      "icao": "LPFR",
      "alert": "OK",
      "vis_m": 9999,
      "fzfg": false,
      "metar_trigger": false,
      "taf_trigger": false,
      "metar": "METAR LPFR 011430Z 13010KT 9999 FEW008 SCT015 BKN045 17/16 Q1011",
      "taf": "TAF LPFR 011100Z 0112/0212 07012KT 9999 BKN020"
    },
    {
      "icao": "LPMA",
      "alert": "OK",
      "vis_m": 9999,
      "fzfg": false,
      "metar_trigger": false,
      "taf_trigger": false,
      "metar": "METAR LPMA 011430Z 22024G37KT 9999 FEW014 FEW015CB BKN033 18/15 Q1000",
      "taf": "TAF LPMA 011100Z 0112/0212 22018KT 9999 SCT015 SCT030"
    },
    {
      "icao": "LPPR",
      "alert": "OK",
      "vis_m": 9999,
      "fzfg": false,
      "metar_trigger": false,
      "taf_trigger": false,
      "metar": "METAR LPPR 011430Z 11013KT 070V130 9999 -RA FEW040 10/06 Q1009",
      "taf": "TAF LPPR 011100Z 0112/0212 11015KT CAVOK"
    },
    {
      "icao": "LPPS",
      "alert": "OK",
      "vis_m": 9999,
      "fzfg": false,
      "metar_trigger": false,
      "taf_trigger": false,
      "metar": "METAR LPPS 011430Z 21025KT 9999 -RADZ SCT014 19/14 Q1000",
      "taf": "TAF LPPS 011100Z 0112/0218 21017KT 9999 SCT012 SCT030"
    },
    {
      "icao": "LPPT",
      "alert": "OK",
      "vis_m": 7000,
      "fzfg": false,
      "metar_trigger": false,
      "taf_trigger": false,
      "metar": "METAR LPPT 011430Z 08006KT 060V140 7000 -RADZ BR FEW004 BKN006 11/11 Q1009",
      "taf": "TAF LPPT 011100Z 0112/0218 09008KT 9999 BKN030"
    },
    {
      "icao": "LQBK",
      "alert": "OK",
      "vis_m": 9999,
      "fzfg": false,
      "metar_trigger": false,
      "taf_trigger": false,
      "metar": "METAR LQBK 011430Z 20010KT CAVOK 09/M03 Q1013 NOSIG",
      "taf": "TAF LQBK 011100Z 0112/0212 15005KT CAVOK TX11/0211Z TN00/0123Z"
    },
    {
      "icao": "LQSA",
      "alert": "OK",
      "vis_m": 9999,
      "fzfg": false,
      "metar_trigger": false,
      "taf_trigger": false,
      "metar": "METAR LQSA 011430Z 29011KT 220V320 CAVOK 05/M06 Q1015 NOSIG",
      "taf": "TAF LQSA 011100Z 0112/0212 VRB02KT CAVOK TX06/0212Z TNM01/0112Z"
    },
    {
      "icao": "LQTZ",
      "alert": "OK",
      "vis_m": 9999,
      "fzfg": false,
      "metar_trigger": false,
      "taf_trigger": false,
      "metar": "METAR LQTZ 011430Z 27010KT 240V300 CAVOK 08/M08 Q1014",
      "taf": "TAF LQTZ 011100Z 0112/0212 14005KT CAVOK TX10/0212Z TNM04/0121Z"
    },
    {
      "icao": "LRBC",
      "alert": "OK",
      "vis_m": 9999,
      "fzfg": false,
      "metar_trigger": false,
      "taf_trigger": false,
      "metar": "METAR LRBC 011430Z 24014KT CAVOK 00/M12 Q1012",
      "taf": "TAF LRBC 011400Z 0115/0124 25012KT CAVOK"
    },
    {
      "icao": "LRBS",
      "alert": "OK",
      "vis_m": 9999,
      "fzfg": false,
      "metar_trigger": false,
      "taf_trigger": false,
      "metar": "METAR LRBS 011430Z 25011KT CAVOK 01/M08 Q1017 NOSIG",
      "taf": "TAF LRBS 011100Z 0112/0212 25012KT CAVOK"
    },
    {
      "icao": "LRBV",
      "alert": "OK",
      "vis_m": 9999,
      "fzfg": false,
      "metar_trigger": false,
      "taf_trigger": false,
      "metar": "METAR LRBV 011430Z 00000KT 9999 -SN SCT029 BKN037 M05/M09 Q1013",
      "taf": "TAF LRBV 011400Z 0115/0124 VRB04KT 9999 BKN030"
    },
    {
      "icao": "LRCL",
      "alert": "OK",
      "vis_m": 9999,
      "fzfg": false,
      "metar_trigger": false,
      "taf_trigger": false,
      "metar": "METAR LRCL 011430Z 05005KT 9999 SCT046 M01/M06 Q1012",
      "taf": "TAF LRCL 011400Z 0115/0124 VRB04KT 9999 SCT040"
    },
    {
      "icao": "LRCV",
      "alert": "OK",
      "vis_m": 9999,
      "fzfg": false,
      "metar_trigger": false,
      "taf_trigger": false,
      "metar": "METAR LRCV 011430Z 27005KT 9999 SCT040 M00/M07 Q1017",
      "taf": "TAF LRCV 011400Z 0115/0124 21008KT 9999 SCT040"
    },
    {
      "icao": "LRIA",
      "alert": "OK",
      "vis_m": 9999,
      "fzfg": false,
      "metar_trigger": false,
      "taf_trigger": false,
      "metar": "METAR LRIA 011430Z 20007KT CAVOK 01/M11 Q1012",
      "taf": "TAF LRIA 011400Z 0115/0124 21008KT CAVOK"
    },
    {
      "icao": "LROP",
      "alert": "OK",
      "vis_m": 9999,
      "fzfg": false,
      "metar_trigger": false,
      "taf_trigger": false,
      "metar": "METAR LROP 011430Z 26009KT CAVOK 00/M11 Q1017 NOSIG",
      "taf": "TAF LROP 011100Z 0112/0212 25012KT CAVOK"
    },
    {
      "icao": "LRSB",
      "alert": "OK",
      "vis_m": 9999,
      "fzfg": false,
      "metar_trigger": false,
      "taf_trigger": false,
      "metar": "METAR LRSB 011430Z VRB01KT 9999 SCT036 BKN060 M01/M07 Q1013 NOSIG",
      "taf": "TAF LRSB 011100Z 0112/0212 VRB04KT 9999 BKN045"
    },
    {
      "icao": "LRSM",
      "alert": "OK",
      "vis_m": 7000,
      "fzfg": false,
      "metar_trigger": false,
      "taf_trigger": false,
      "metar": "METAR LRSM 011430Z AUTO 16006KT 7000 -SN SCT016/// OVC019/// M02/M04 Q1012",
      "taf": ""
    },
    {
      "icao": "LRSV",
      "alert": "OK",
      "vis_m": 9999,
      "fzfg": false,
      "metar_trigger": false,
      "taf_trigger": false,
      "metar": "METAR LRSV 011430Z 22010KT CAVOK M03/M10 Q1009",
      "taf": "TAF LRSV 011400Z 0115/0124 23010KT CAVOK"
    },
    {
      "icao": "LRTM",
      "alert": "OK",
      "vis_m": 9999,
      "fzfg": false,
      "metar_trigger": false,
      "taf_trigger": false,
      "metar": "METAR LRTM 011430Z 20006KT 9999 FEW034 M01/M06 Q1014",
      "taf": "TAF LRTM 011400Z 0115/0124 21006KT 9999 BKN035"
    },
    {
      "icao": "LRTR",
      "alert": "OK",
      "vis_m": 9999,
      "fzfg": false,
      "metar_trigger": false,
      "taf_trigger": false,
      "metar": "METAR LRTR 011430Z 15010KT CAVOK 01/M05 Q1014",
      "taf": "TAF LRTR 011100Z 0112/0212 19012KT 9999 BKN030"
    },
    {
      "icao": "LTAC",
      "alert": "OK",
      "vis_m": 9999,
      "fzfg": false,
      "metar_trigger": false,
      "taf_trigger": false,
      "metar": "METAR LTAC 011420Z 29007KT 9999 SCT040 SCT100 M04/M11 Q1014 NOSIG RMK RWY21C 29005KT 240V320 RWY03L 29005KT RWY21R 27005KT 230V320 RWY03R 27006KT RWY21L 28007KT 250V310",
      "taf": "TAF LTAC 011040Z 0112/0212 29012KT 9999 SCT035 SCT100"
    },
    {
      "icao": "LTFM",
      "alert": "OK",
      "vis_m": 9999,
      "fzfg": false,
      "metar_trigger": false,
      "taf_trigger": false,
      "metar": "METAR LTFM 011420Z 30004KT 9999 SCT040 02/M09 Q1021 NOSIG RMK RWY17L 27002KT RWY34L VRB03KT RWY16R VRB01KT RWY36 30005KT 270V330 RWY18 VRB04KT",
      "taf": "TAF LTFM 011040Z 0112/0218 31015G25KT 9999 BKN025"
    },
    {
      "icao": "LUKK",
      "alert": "OK",
      "vis_m": 9999,
      "fzfg": false,
      "metar_trigger": false,
      "taf_trigger": false,
      "metar": "METAR LUKK 011430Z 24009KT CAVOK M01/M10 Q1013 NOSIG",
      "taf": "TAF LUKK 011109Z 0112/0212 25012KT CAVOK"
    },
    {
      "icao": "LWOH",
      "alert": "OK",
      "vis_m": 9999,
      "fzfg": false,
      "metar_trigger": false,
      "taf_trigger": false,
      "metar": "METAR LWOH 011420Z VRB02KT CAVOK 02/M10 Q1019",
      "taf": "TAF LWOH 011425Z 0115/0215 VRB03KT CAVOK"
    },
    {
      "icao": "LWSK",
      "alert": "OK",
      "vis_m": 9999,
      "fzfg": false,
      "metar_trigger": false,
      "taf_trigger": false,
      "metar": "METAR LWSK 011420Z 30002KT CAVOK 04/M11 Q1020 NOSIG",
      "taf": "TAF LWSK 011425Z 0115/0215 VRB02KT CAVOK"
    },
    {
      "icao": "LYBE",
      "alert": "OK",
      "vis_m": 9999,
      "fzfg": false,
      "metar_trigger": false,
      "taf_trigger": false,
      "metar": "METAR LYBE 011430Z 18009KT CAVOK 06/M06 Q1015 NOSIG",
      "taf": "TAF LYBE 011100Z 0112/0212 19008KT CAVOK TX11/0212Z TN00/0118Z"
    },
    {
      "icao": "LYNI",
      "alert": "OK",
      "vis_m": 9999,
      "fzfg": false,
      "metar_trigger": false,
      "taf_trigger": false,
      "metar": "METAR LYNI 011430Z 10004KT 9999 FEW040 BKN070 02/M09 Q1019 NOSIG",
      "taf": "TAF LYNI 011100Z 0112/0212 18005KT 9999 SCT040 TX08/0212Z TNM02/0122Z"
    },
    {
      "icao": "LYPG",
      "alert": "OK",
      "vis_m": 9999,
      "fzfg": false,
      "metar_trigger": false,
      "taf_trigger": false,
      "metar": "METAR LYPG 011430Z VRB01KT CAVOK 06/M11 Q1021 NOSIG",
      "taf": "TAF LYPG 011100Z 0112/0212 18005KT CAVOK TX07/0113Z TNM02/0121Z"
    },
    {
      "icao": "LZIB",
      "alert": "OK",
      "vis_m": 9999,
      "fzfg": false,
      "metar_trigger": false,
      "taf_trigger": false,
      "metar": "METAR LZIB 011430Z 18006KT CAVOK 02/M05 Q1007 NOSIG",
      "taf": ""
    },
    {
      "icao": "LZKZ",
      "alert": "OK",
      "vis_m": 9999,
      "fzfg": false,
      "metar_trigger": false,
      "taf_trigger": false,
      "metar": "METAR LZKZ 011430Z 21007KT 9999 BKN007 BKN018 M01/M02 Q1008 NOSIG",
      "taf": ""
    },
    {
      "icao": "LZTT",
      "alert": "OK",
      "vis_m": 9999,
      "fzfg": false,
      "metar_trigger": false,
      "taf_trigger": false,
      "metar": "METAR LZTT 011430Z 23012KT 9999 BKN023 M01/M05 Q1002 NOSIG",
      "taf": ""
    },
    {
      "icao": "OEJN",
      "alert": "OK",
      "vis_m": 9999,
      "fzfg": false,
      "metar_trigger": false,
      "taf_trigger": false,
      "metar": "METAR OEJN 011400Z 27005KT CAVOK 28/13 Q1014 NOSIG",
      "taf": "TAF OEJN 011100Z 0112/0218 33010KT CAVOK"
    },
    {
      "icao": "OEMA",
      "alert": "OK",
      "vis_m": 9999,
      "fzfg": false,
      "metar_trigger": false,
      "taf_trigger": false,
      "metar": "METAR OEMA 011400Z 29007KT CAVOK 26/M06 Q1017 NOSIG",
      "taf": "TAF OEMA 011100Z 0112/0218 30008KT CAVOK"
    },
    {
      "icao": "OJAI",
      "alert": "OK",
      "vis_m": 4000,
      "fzfg": false,
      "metar_trigger": false,
      "taf_trigger": false,
      "metar": "METAR OJAI 011400Z 23018KT 4000 BLDU NSC 13/04 Q1013 NOSIG",
      "taf": ""
    },
    {
      "icao": "OMAA",
      "alert": "OK",
      "vis_m": 9999,
      "fzfg": false,
      "metar_trigger": false,
      "taf_trigger": false,
      "metar": "METAR OMAA 011400Z 32007KT CAVOK 21/12 Q1017 NOSIG",
      "taf": "TAF OMAA 011100Z 0112/0218 31011KT 8000 FEW040"
    },
    {
      "icao": "OMDB",
      "alert": "OK",
      "vis_m": 9999,
      "fzfg": false,
      "metar_trigger": false,
      "taf_trigger": false,
      "metar": "METAR OMDB 011430Z 27006KT CAVOK 21/10 Q1017 NOSIG",
      "taf": "TAF OMDB 011100Z 0112/0218 28010KT 8000 NSC"
    },
    {
      "icao": "UAAA",
      "alert": "OK",
      "vis_m": 9999,
      "fzfg": false,
      "metar_trigger": false,
      "taf_trigger": false,
      "metar": "METAR UAAA 011430Z 36002MPS 9999 OVC004 M00/M01 Q1021 NOSIG RMK QBB140",
      "taf": "TAF UAAA 011106Z 0112/0212 02003MPS 1200 BR BKN004 OVC011 TX02/0209Z TNM03/0202Z"
    },
    {
      "icao": "UBBB",
      "alert": "OK",
      "vis_m": 9999,
      "fzfg": false,
      "metar_trigger": false,
      "taf_trigger": false,
      "metar": "METAR UBBB 011430Z 32014KT 9999 SCT015 BKN025 05/02 Q1012 NOSIG",
      "taf": "TAF UBBB 011045Z 0112/0212 35018KT 9999 BKN025 TX05/0112Z TN04/0203Z"
    },
    {
      "icao": "UDSG",
      "alert": "OK",
      "vis_m": 2900,
      "fzfg": false,
      "metar_trigger": false,
      "taf_trigger": false,
      "metar": "METAR UDSG 011430Z 28002KT 2900 -SN BR OVC023 M04/M04 Q1004 NOSIG",
      "taf": ""
    },
    {
      "icao": "UDYZ",
      "alert": "OK",
      "vis_m": 3100,
      "fzfg": false,
      "metar_trigger": false,
      "taf_trigger": false,
      "metar": "METAR UDYZ 011430Z 00000KT 3100 BR BKN046 M01/M02 Q1005 NOSIG",
      "taf": "TAF UDYZ 011100Z 0112/0212 24006KT 3500 BR BKN020"
    },
    {
      "icao": "UGKO",
      "alert": "OK",
      "vis_m": 9999,
      "fzfg": false,
      "metar_trigger": false,
      "taf_trigger": false,
      "metar": "METAR UGKO 011430Z 24007KT 9999 -RA BKN013 OVC028 01/01 Q1007 NOSIG",
      "taf": "TAF UGKO 011100Z 0112/0212 26007KT 9999 BKN050 TX03/0211Z TNM03/0204Z"
    }
  ]
}