{
  "ts_utc": "2026-05-06T21:44:40Z",
  "threshold_m": 150,
  "source": "stations_override.txt (ICAO list) + aviationweather.gov (METAR/TAF raw)",
  "station_count": 159,
  "stations": [
    {
      "icao": "BIKF",
      "alert": "OK",
      "vis_m": 9999,
      "fzfg": false,
      "metar_trigger": false,
      "taf_trigger": false,
      "metar": "METAR BIKF 062130Z 02018KT 9999 FEW030 01/M05 Q1022",
      "taf": "TAF BIKF 061957Z 0621/0721 02018KT 9999 SCT035 TX05/0715Z TNM01/0705Z"
    },
    {
      "icao": "BKPR",
      "alert": "OK",
      "vis_m": 9999,
      "fzfg": false,
      "metar_trigger": false,
      "taf_trigger": false,
      "metar": "METAR BKPR 062130Z VRB02KT CAVOK 15/07 Q1016 NOSIG",
      "taf": "TAF BKPR 061730Z 0618/0718 24008KT 9999 SCT080"
    },
    {
      "icao": "EBCI",
      "alert": "OK",
      "vis_m": 9999,
      "fzfg": false,
      "metar_trigger": false,
      "taf_trigger": false,
      "metar": "METAR EBCI 062120Z 34004KT CAVOK 08/05 Q1012 NOSIG",
      "taf": "TAF EBCI 061720Z 0618/0724 02007KT 9999 SCT040"
    },
    {
      "icao": "EDDB",
      "alert": "OK",
      "vis_m": 9999,
      "fzfg": false,
      "metar_trigger": false,
      "taf_trigger": false,
      "metar": "METAR EDDB 062120Z AUTO 04007KT 9999 OVC014 10/08 Q1008 BECMG BKN009",
      "taf": "TAF EDDB 061700Z 0618/0718 03008KT 9999 BKN015"
    },
    {
      "icao": "EDDH",
      "alert": "OK",
      "vis_m": 9999,
      "fzfg": false,
      "metar_trigger": false,
      "taf_trigger": false,
      "metar": "METAR EDDH 062120Z AUTO 03006KT 350V060 9999 FEW015 09/07 Q1011 NOSIG",
      "taf": "TAF EDDH 061700Z 0618/0724 05007KT 9999 SCT030"
    },
    {
      "icao": "EDDK",
      "alert": "OK",
      "vis_m": 9999,
      "fzfg": false,
      "metar_trigger": false,
      "taf_trigger": false,
      "metar": "METAR EDDK 062120Z AUTO 34004KT 9999 FEW005 BKN016 OVC022 09/08 Q1010 TEMPO BKN005",
      "taf": "TAF EDDK 061700Z 0618/0724 33007KT 9999 BKN006 OVC011"
    },
    {
      "icao": "EDDN",
      "alert": "OK",
      "vis_m": 9999,
      "fzfg": false,
      "metar_trigger": false,
      "taf_trigger": false,
      "metar": "METAR EDDN 062120Z AUTO 25007KT 9999 -RA FEW012 BKN038 12/10 Q1008 NOSIG",
      "taf": "TAF EDDN 061700Z 0618/0718 24005KT 9999 BKN040"
    },
    {
      "icao": "EDDS",
      "alert": "OK",
      "vis_m": 9999,
      "fzfg": false,
      "metar_trigger": false,
      "taf_trigger": false,
      "metar": "METAR EDDS 062120Z AUTO VRB07KT 9999 -SHRA BKN046 FEW///TCU 10/08 Q1009",
      "taf": "TAF EDDS 061700Z 0618/0718 21005KT 9999 BKN045"
    },
    {
      "icao": "EDFH",
      "alert": "OK",
      "vis_m": 9999,
      "fzfg": false,
      "metar_trigger": false,
      "taf_trigger": false,
      "metar": "METAR EDFH 062120Z 31005KT 280V340 9999 SCT002 OVC005 07/06 Q1009",
      "taf": "TAF EDFH 061700Z 0618/0718 33005KT 9999 BKN010"
    },
    {
      "icao": "EDJA",
      "alert": "OK",
      "vis_m": 9999,
      "fzfg": false,
      "metar_trigger": false,
      "taf_trigger": false,
      "metar": "METAR EDJA 062120Z AUTO 22009KT 9999 // OVC160/// 08/06 Q1010",
      "taf": "TAF EDJA 061700Z 0618/0703 24015G25KT 9999 SCT020"
    },
    {
      "icao": "EDLW",
      "alert": "OK",
      "vis_m": 9999,
      "fzfg": false,
      "metar_trigger": false,
      "taf_trigger": false,
      "metar": "METAR EDLW 062120Z AUTO 33004KT 9999 // OVC008/// 08/07 Q1010",
      "taf": "TAF EDLW 061700Z 0618/0718 35005KT 9999 OVC004"
    },
    {
      "icao": "EDNY",
      "alert": "OK",
      "vis_m": 9999,
      "fzfg": false,
      "metar_trigger": false,
      "taf_trigger": false,
      "metar": "METAR EDNY 062120Z AUTO VRB02KT 9999 // BKN190/// 08/07 Q1011",
      "taf": "TAF EDNY 061700Z 0618/0703 24008KT 9999 SCT040"
    },
    {
      "icao": "EDSB",
      "alert": "OK",
      "vis_m": 7000,
      "fzfg": false,
      "metar_trigger": false,
      "taf_trigger": false,
      "metar": "METAR EDSB 062120Z 19014KT 7000 RA FEW007 OVC049 11/10 Q1010",
      "taf": "TAF EDSB 061700Z 0618/0718 23007KT 9999 BKN045"
    },
    {
      "icao": "EETN",
      "alert": "OK",
      "vis_m": 9999,
      "fzfg": false,
      "metar_trigger": false,
      "taf_trigger": false,
      "metar": "METAR EETN 062120Z VRB02KT CAVOK 04/M00 Q1014 NOSIG",
      "taf": "TAF EETN 061730Z 0618/0718 35006KT CAVOK"
    },
    {
      "icao": "EFTU",
      "alert": "OK",
      "vis_m": 9999,
      "fzfg": false,
      "metar_trigger": false,
      "taf_trigger": false,
      "metar": "METAR EFTU 062120Z AUTO VRB01KT CAVOK M02/M09 Q1014",
      "taf": "TAF EFTU 062022Z 0621/0721 02003KT CAVOK"
    },
    {
      "icao": "EGBB",
      "alert": "OK",
      "vis_m": 9999,
      "fzfg": false,
      "metar_trigger": false,
      "taf_trigger": false,
      "metar": "METAR EGBB 062050Z 11005KT CAVOK 07/04 Q1015",
      "taf": "TAF EGBB 061655Z 0618/0718 04007KT 9999 SCT035"
    },
    {
      "icao": "EGGP",
      "alert": "OK",
      "vis_m": 9999,
      "fzfg": false,
      "metar_trigger": false,
      "taf_trigger": false,
      "metar": "METAR EGGP 062120Z 13008KT CAVOK 09/03 Q1015",
      "taf": "TAF EGGP 061655Z 0618/0718 08007KT 9999 FEW035"
    },
    {
      "icao": "EGGW",
      "alert": "OK",
      "vis_m": 9999,
      "fzfg": false,
      "metar_trigger": false,
      "taf_trigger": false,
      "metar": "METAR EGGW 062120Z AUTO VRB07G18KT 9999 OVC008 08/06 Q1015",
      "taf": "TAF EGGW 061653Z 0618/0718 03009KT 9999 SCT030"
    },
    {
      "icao": "EGKK",
      "alert": "OK",
      "vis_m": 9999,
      "fzfg": false,
      "metar_trigger": false,
      "taf_trigger": false,
      "metar": "METAR EGKK 062120Z 09004KT CAVOK 10/07 Q1014",
      "taf": "TAF EGKK 061700Z 0618/0724 04010KT 9999 SCT030"
    },
    {
      "icao": "EGNM",
      "alert": "OK",
      "vis_m": 9999,
      "fzfg": false,
      "metar_trigger": false,
      "taf_trigger": false,
      "metar": "METAR EGNM 062050Z 10005KT 030V120 9999 SCT032 05/02 Q1015",
      "taf": "TAF EGNM 061653Z 0618/0718 08005KT 9999 SCT025"
    },
    {
      "icao": "EGPD",
      "alert": "OK",
      "vis_m": 9999,
      "fzfg": false,
      "metar_trigger": false,
      "taf_trigger": false,
      "metar": "METAR EGPD 062120Z COR AUTO 18011KT 9999 NCD 07/01 Q1015 NOSIG",
      "taf": "TAF EGPD 061657Z 0618/0718 17010KT 9999 FEW045"
    },
    {
      "icao": "EGPF",
      "alert": "OK",
      "vis_m": 9999,
      "fzfg": false,
      "metar_trigger": false,
      "taf_trigger": false,
      "metar": "METAR EGPF 062120Z AUTO 22003KT 9999 NCD 08/03 Q1014",
      "taf": "TAF EGPF 061653Z 0618/0718 18004KT 9999 SCT030"
    },
    {
      "icao": "EHBK",
      "alert": "OK",
      "vis_m": 9999,
      "fzfg": false,
      "metar_trigger": false,
      "taf_trigger": false,
      "metar": "METAR EHBK 062125Z AUTO 34005KT 310V020 9999 FEW009/// SCT014/// OVC016/// 09/07 Q1011",
      "taf": "TAF EHBK 061711Z 0618/0724 36005KT 9999 OVC016"
    },
    {
      "icao": "EHEH",
      "alert": "OK",
      "vis_m": 9999,
      "fzfg": false,
      "metar_trigger": false,
      "taf_trigger": false,
      "metar": "METAR EHEH 062125Z AUTO 34002KT 9999 SCT044 OVC049 09/06 Q1012 BLU",
      "taf": "TAF EHEH 061711Z 0618/0724 02007KT 9999 FEW018 BKN020"
    },
    {
      "icao": "EKBI",
      "alert": "OK",
      "vis_m": 9999,
      "fzfg": false,
      "metar_trigger": false,
      "taf_trigger": false,
      "metar": "METAR EKBI 062120Z AUTO 36007KT 9999 BKN088/// 08/01 Q1013",
      "taf": "TAF EKBI 062027Z 0621/0721 02006KT CAVOK"
    },
    {
      "icao": "EKCH",
      "alert": "OK",
      "vis_m": 9999,
      "fzfg": false,
      "metar_trigger": false,
      "taf_trigger": false,
      "metar": "METAR EKCH 062120Z AUTO VRB04KT 9999 NCD 07/04 Q1014 NOSIG",
      "taf": "TAF EKCH 062027Z 0621/0721 15008KT CAVOK"
    },
    {
      "icao": "ENAL",
      "alert": "OK",
      "vis_m": 9999,
      "fzfg": false,
      "metar_trigger": false,
      "taf_trigger": false,
      "metar": "METAR ENAL 062120Z 20009KT 9999 FEW028CB SCT058 05/00 Q1013",
      "taf": "TAF ENAL 062000Z 0621/0706 22015KT 9999 FEW025TCU SCT040"
    },
    {
      "icao": "ENBR",
      "alert": "OK",
      "vis_m": 9999,
      "fzfg": false,
      "metar_trigger": false,
      "taf_trigger": false,
      "metar": "METAR ENBR 062120Z VRB02KT 9999 VCSH FEW035TCU BKN045 03/01 Q1016 RMK WIND 1200FT 23005KT",
      "taf": "TAF ENBR 061700Z 0618/0718 VRB05KT 9999 FEW015TCU SCT025"
    },
    {
      "icao": "ENGM",
      "alert": "OK",
      "vis_m": 9999,
      "fzfg": false,
      "metar_trigger": false,
      "taf_trigger": false,
      "metar": "METAR ENGM 062120Z 29003KT CAVOK 06/M10 Q1012",
      "taf": "TAF ENGM 061700Z 0618/0718 30005KT CAVOK"
    },
    {
      "icao": "ENHD",
      "alert": "OK",
      "vis_m": 9999,
      "fzfg": false,
      "metar_trigger": false,
      "taf_trigger": false,
      "metar": "METAR ENHD 062120Z AUTO 34005KT 9999 NCD 05/00 Q1016",
      "taf": "TAF ENHD 061400Z 0615/0622 32010KT 9999 SCT035"
    },
    {
      "icao": "ENTC",
      "alert": "OK",
      "vis_m": 9999,
      "fzfg": false,
      "metar_trigger": false,
      "taf_trigger": false,
      "metar": "METAR ENTC 062120Z 02008KT CAVOK 01/M02 Q1010 RMK WIND 2600FT 10005KT",
      "taf": "TAF ENTC 061700Z 0618/0718 02008KT 9999 FEW040"
    },
    {
      "icao": "ENTO",
      "alert": "OK",
      "vis_m": 9999,
      "fzfg": false,
      "metar_trigger": false,
      "taf_trigger": false,
      "metar": "METAR ENTO 062120Z 34006KT CAVOK 05/M05 Q1012",
      "taf": "TAF ENTO 061700Z 0618/0718 19010KT CAVOK"
    },
    {
      "icao": "ENVA",
      "alert": "OK",
      "vis_m": 9999,
      "fzfg": false,
      "metar_trigger": false,
      "taf_trigger": false,
      "metar": "METAR ENVA 062120Z 15006KT 9999 FEW015 FEW025CB 02/01 Q1014 RMK WIND 670FT 16010KT",
      "taf": ""
    },
    {
      "icao": "ENZV",
      "alert": "OK",
      "vis_m": 9999,
      "fzfg": false,
      "metar_trigger": false,
      "taf_trigger": false,
      "metar": "METAR ENZV 062120Z 35009KT CAVOK 05/M01 Q1016",
      "taf": "TAF ENZV 061700Z 0618/0718 33015KT CAVOK"
    },
    {
      "icao": "EPGD",
      "alert": "OK",
      "vis_m": 9999,
      "fzfg": false,
      "metar_trigger": false,
      "taf_trigger": false,
      "metar": "METAR EPGD 062130Z 03011KT 360V070 9999 OVC003 05/05 Q1009",
      "taf": "TAF EPGD 061730Z 0618/0718 05014KT 9999 BKN006"
    },
    {
      "icao": "EPKK",
      "alert": "OK",
      "vis_m": 9999,
      "fzfg": false,
      "metar_trigger": false,
      "taf_trigger": false,
      "metar": "METAR EPKK 062130Z VRB02KT CAVOK 15/12 Q1007",
      "taf": "TAF EPKK 062030Z 0621/0721 06004KT CAVOK"
    },
    {
      "icao": "EPKT",
      "alert": "OK",
      "vis_m": 9999,
      "fzfg": false,
      "metar_trigger": false,
      "taf_trigger": false,
      "metar": "METAR EPKT 062130Z 16008KT CAVOK 19/09 Q1006",
      "taf": "TAF EPKT 061730Z 0618/0718 20007KT CAVOK"
    },
    {
      "icao": "EPLB",
      "alert": "OK",
      "vis_m": 9999,
      "fzfg": false,
      "metar_trigger": false,
      "taf_trigger": false,
      "metar": "METAR EPLB 062130Z 21009KT CAVOK 18/09 Q1007",
      "taf": "TAF EPLB 061730Z 0618/0718 19005KT CAVOK"
    },
    {
      "icao": "EPMO",
      "alert": "OK",
      "vis_m": 9999,
      "fzfg": false,
      "metar_trigger": false,
      "taf_trigger": false,
      "metar": "METAR EPMO 062130Z VRB01KT CAVOK 16/11 Q1005",
      "taf": "TAF EPMO 061730Z 0618/0718 26006KT CAVOK"
    },
    {
      "icao": "EPPO",
      "alert": "OK",
      "vis_m": 9999,
      "fzfg": false,
      "metar_trigger": false,
      "taf_trigger": false,
      "metar": "METAR EPPO 062130Z 35007KT 310V020 9999 OVC011 10/07 Q1007",
      "taf": "TAF EPPO 061730Z 0618/0718 30010KT 9999 BKN013"
    },
    {
      "icao": "EPRA",
      "alert": "OK",
      "vis_m": 9999,
      "fzfg": false,
      "metar_trigger": false,
      "taf_trigger": false,
      "metar": "METAR EPRA 062130Z 18006KT CAVOK 17/10 Q1006",
      "taf": "TAF EPRA 062030Z 0621/0706 21006KT CAVOK"
    },
    {
      "icao": "EPRZ",
      "alert": "OK",
      "vis_m": 9999,
      "fzfg": false,
      "metar_trigger": false,
      "taf_trigger": false,
      "metar": "METAR EPRZ 062130Z 19006KT CAVOK 18/08 Q1008",
      "taf": "TAF EPRZ 061730Z 0618/0718 18009KT CAVOK"
    },
    {
      "icao": "EPSC",
      "alert": "OK",
      "vis_m": 9999,
      "fzfg": false,
      "metar_trigger": false,
      "taf_trigger": false,
      "metar": "METAR EPSC 062130Z 02007KT 350V050 9999 OVC010 07/05 Q1010",
      "taf": "TAF EPSC 061730Z 0618/0718 02012KT 9999 OVC009"
    },
    {
      "icao": "EPSY",
      "alert": "OK",
      "vis_m": 9999,
      "fzfg": false,
      "metar_trigger": false,
      "taf_trigger": false,
      "metar": "METAR EPSY 062130Z 35004KT CAVOK 09/08 Q1006",
      "taf": "TAF EPSY 062030Z 0621/0706 VRB02KT CAVOK"
    },
    {
      "icao": "EPWA",
      "alert": "OK",
      "vis_m": 9999,
      "fzfg": false,
      "metar_trigger": false,
      "taf_trigger": false,
      "metar": "METAR EPWA 062130Z 11004KT CAVOK 19/11 Q1005 NOSIG",
      "taf": "TAF EPWA 062030Z 0621/0721 VRB02KT CAVOK"
    },
    {
      "icao": "EPWR",
      "alert": "OK",
      "vis_m": 9999,
      "fzfg": false,
      "metar_trigger": false,
      "taf_trigger": false,
      "metar": "METAR EPWR 062130Z 07005KT 9999 -SHRA FEW008 SCT033CB 14/14 Q1006",
      "taf": "TAF EPWR 062030Z 0621/0721 26005KT 9999 BKN030"
    },
    {
      "icao": "ESGG",
      "alert": "OK",
      "vis_m": 9999,
      "fzfg": false,
      "metar_trigger": false,
      "taf_trigger": false,
      "metar": "METAR ESGG 062120Z 29004KT CAVOK 06/M03 Q1012",
      "taf": "TAF ESGG 062030Z 0621/0721 29004KT CAVOK"
    },
    {
      "icao": "ESKN",
      "alert": "OK",
      "vis_m": 9999,
      "fzfg": false,
      "metar_trigger": false,
      "taf_trigger": false,
      "metar": "METAR ESKN 062120Z 14003KT CAVOK 04/01 Q1014",
      "taf": "TAF ESKN 062030Z 0621/0721 VRB03KT CAVOK"
    },
    {
      "icao": "ESMS",
      "alert": "OK",
      "vis_m": 9999,
      "fzfg": false,
      "metar_trigger": false,
      "taf_trigger": false,
      "metar": "METAR ESMS 062120Z 00000KT CAVOK 04/03 Q1013",
      "taf": "TAF ESMS 062027Z 0621/0721 VRB03KT CAVOK"
    },
    {
      "icao": "ESSA",
      "alert": "OK",
      "vis_m": 9999,
      "fzfg": false,
      "metar_trigger": false,
      "taf_trigger": false,
      "metar": "METAR ESSA 062120Z 16004KT CAVOK 03/M04 Q1013 NOSIG",
      "taf": "TAF ESSA 062030Z 0621/0721 15006KT CAVOK"
    },
    {
      "icao": "EYKA",
      "alert": "OK",
      "vis_m": 9999,
      "fzfg": false,
      "metar_trigger": false,
      "taf_trigger": false,
      "metar": "METAR EYKA 062120Z 35004KT 320V020 CAVOK 07/04 Q1007",
      "taf": "TAF EYKA 061700Z 0618/0718 VRB03KT 6000 SCT040"
    },
    {
      "icao": "EYPA",
      "alert": "OK",
      "vis_m": 9999,
      "fzfg": false,
      "metar_trigger": false,
      "taf_trigger": false,
      "metar": "METAR EYPA 062120Z 05011KT 020V080 9999 -SHRA SCT010CB OVC036 05/03 Q1010",
      "taf": "TAF EYPA 061700Z 0618/0718 05011KT 5000 RA BR SCT010 BKN030"
    },
    {
      "icao": "EYVI",
      "alert": "OK",
      "vis_m": 9999,
      "fzfg": false,
      "metar_trigger": false,
      "taf_trigger": false,
      "metar": "METAR EYVI 062120Z 05004KT 020V080 CAVOK 10/08 Q1006 NOSIG",
      "taf": "TAF EYVI 061700Z 0618/0718 06010KT 8000 SCT040"
    },
    {
      "icao": "GCFV",
      "alert": "OK",
      "vis_m": 9999,
      "fzfg": false,
      "metar_trigger": false,
      "taf_trigger": false,
      "metar": "METAR GCFV 062130Z 04015KT 9999 FEW020 BKN040 20/14 Q1015",
      "taf": "TAF GCFV 062000Z 0621/0721 04014KT 9999 FEW025 TX24/0714Z TN17/0706Z"
    },
    {
      "icao": "GCLP",
      "alert": "OK",
      "vis_m": 9999,
      "fzfg": false,
      "metar_trigger": false,
      "taf_trigger": false,
      "metar": "METAR GCLP 062130Z 03013KT 9999 SCT015 BKN030 20/16 Q1015 NOSIG",
      "taf": "TAF GCLP 062000Z 0621/0721 02012KT 9999 SCT030 TX22/0714Z TN17/0706Z"
    },
    {
      "icao": "GCTS",
      "alert": "OK",
      "vis_m": 9999,
      "fzfg": false,
      "metar_trigger": false,
      "taf_trigger": false,
      "metar": "METAR GCTS 062130Z 07015KT 9999 FEW020 BKN030 18/14 Q1015 NOSIG",
      "taf": "TAF GCTS 062000Z 0621/0721 08010KT 9999 BKN025 TX23/0714Z TN16/0706Z"
    },
    {
      "icao": "GMAD",
      "alert": "OK",
      "vis_m": 9999,
      "fzfg": false,
      "metar_trigger": false,
      "taf_trigger": false,
      "metar": "METAR GMAD 062130Z 18013KT 9999 FEW030 SCT200 16/11 Q1011 NOSIG",
      "taf": "TAF GMAD 061700Z 0618/0724 20012KT 8000 SCT026 SCT200"
    },
    {
      "icao": "GMMN",
      "alert": "OK",
      "vis_m": 9999,
      "fzfg": false,
      "metar_trigger": false,
      "taf_trigger": false,
      "metar": "METAR GMMN 062130Z 35007KT 9999 BKN020 15/11 Q1012 NOSIG",
      "taf": "TAF GMMN 061700Z 0618/0724 36012KT 9999 BKN040"
    },
    {
      "icao": "GMMX",
      "alert": "OK",
      "vis_m": 9999,
      "fzfg": false,
      "metar_trigger": false,
      "taf_trigger": false,
      "metar": "METAR GMMX 062130Z 36007KT 320V040 9999 SCT030 BKN100 17/11 Q1011 NOSIG",
      "taf": "TAF GMMX 061700Z 0618/0724 06006KT 8000 SCT030 BKN080"
    },
    {
      "icao": "HEGN",
      "alert": "OK",
      "vis_m": 9999,
      "fzfg": false,
      "metar_trigger": false,
      "taf_trigger": false,
      "metar": "METAR HEGN 062100Z 30010KT CAVOK 21/02 Q1013 NOSIG",
      "taf": "TAF HEGN 061700Z 0618/0724 32010G20KT CAVOK"
    },
    {
      "icao": "HEMA",
      "alert": "OK",
      "vis_m": 9999,
      "fzfg": false,
      "metar_trigger": false,
      "taf_trigger": false,
      "metar": "METAR HEMA 062100Z 30010KT CAVOK 21/03 Q1012 NOSIG",
      "taf": "TAF HEMA 061700Z 0618/0724 33010G20KT CAVOK"
    },
    {
      "icao": "HESH",
      "alert": "OK",
      "vis_m": 9999,
      "fzfg": false,
      "metar_trigger": false,
      "taf_trigger": false,
      "metar": "METAR HESH 062100Z 34012KT CAVOK 24/12 Q1012 NOSIG",
      "taf": "TAF HESH 061700Z 0618/0724 36012KT CAVOK"
    },
    {
      "icao": "HESX",
      "alert": "OK",
      "vis_m": 9999,
      "fzfg": false,
      "metar_trigger": false,
      "taf_trigger": false,
      "metar": "METAR HESX 062100Z 01009KT CAVOK 16/09 Q1017 NOSIG",
      "taf": "TAF HESX 061700Z 0618/0724 01012KT CAVOK"
    },
    {
      "icao": "LATI",
      "alert": "OK",
      "vis_m": 9999,
      "fzfg": false,
      "metar_trigger": false,
      "taf_trigger": false,
      "metar": "METAR LATI 062120Z VRB03KT 9999 BKN100 16/13 Q1017 NOSIG",
      "taf": "TAF LATI 061700Z 0618/0718 VRB05KT 9999 SCT040 BKN090 TX26/0712Z TN13/0704Z"
    },
    {
      "icao": "LBPD",
      "alert": "OK",
      "vis_m": 9999,
      "fzfg": false,
      "metar_trigger": false,
      "taf_trigger": false,
      "metar": "METAR LBPD 062130Z AUTO 12005KT 9999 NCD 12/09 Q1016",
      "taf": "TAF LBPD 061700Z 0618/0718 11010KT 9999 SCT070"
    },
    {
      "icao": "LBSF",
      "alert": "OK",
      "vis_m": 9999,
      "fzfg": false,
      "metar_trigger": false,
      "taf_trigger": false,
      "metar": "METAR LBSF 062130Z AUTO 09010KT 9999 NCD 16/07 Q1015 NOSIG",
      "taf": "TAF LBSF 061700Z 0618/0718 13010KT 9999 SCT070"
    },
    {
      "icao": "LBWN",
      "alert": "OK",
      "vis_m": 9999,
      "fzfg": false,
      "metar_trigger": false,
      "taf_trigger": false,
      "metar": "METAR LBWN 062130Z AUTO 10005KT 9999 FEW011/// 09/09 Q1017 NOSIG",
      "taf": "TAF LBWN 061700Z 0618/0718 09010KT CAVOK"
    },
    {
      "icao": "LCLK",
      "alert": "OK",
      "vis_m": 9999,
      "fzfg": false,
      "metar_trigger": false,
      "taf_trigger": false,
      "metar": "METAR LCLK 062130Z 32004KT CAVOK 14/12 Q1017 NOSIG",
      "taf": "TAF LCLK 061730Z 0618/0718 30007KT 9999 FEW030"
    },
    {
      "icao": "LCPH",
      "alert": "OK",
      "vis_m": 9999,
      "fzfg": false,
      "metar_trigger": false,
      "taf_trigger": false,
      "metar": "METAR LCPH 062130Z 02005KT 010V080 CAVOK 14/09 Q1017 NOSIG",
      "taf": "TAF LCPH 061730Z 0618/0718 02007KT 9999 FEW030"
    },
    {
      "icao": "LEAL",
      "alert": "OK",
      "vis_m": 9999,
      "fzfg": false,
      "metar_trigger": false,
      "taf_trigger": false,
      "metar": "METAR LEAL 062130Z 07004KT 020V090 9999 FEW019 19/13 Q1012 NOSIG",
      "taf": "TAF LEAL 061700Z 0618/0718 09010KT 9999 FEW020 TX23/0712Z TN14/0705Z"
    },
    {
      "icao": "LEBB",
      "alert": "OK",
      "vis_m": 9999,
      "fzfg": false,
      "metar_trigger": false,
      "taf_trigger": false,
      "metar": "METAR LEBB 062130Z 10003KT 9999 FEW015 11/11 Q1015 NOSIG",
      "taf": "TAF LEBB 061700Z 0618/0718 VRB03KT 9999 SCT015 TX21/0713Z TN07/0705Z"
    },
    {
      "icao": "LEBL",
      "alert": "OK",
      "vis_m": 9999,
      "fzfg": false,
      "metar_trigger": false,
      "taf_trigger": false,
      "metar": "METAR LEBL 062130Z 02001KT 9999 FEW020 16/11 Q1013 NOSIG",
      "taf": "TAF LEBL 061700Z 0618/0718 18009KT 9999 FEW020 TX19/0713Z TN13/0705Z"
    },
    {
      "icao": "LECH",
      "alert": "OK",
      "vis_m": 9000,
      "fzfg": false,
      "metar_trigger": false,
      "taf_trigger": false,
      "metar": "METAR LECH 062130Z AUTO 00000KT 9000 NSC 13/11 Q1013",
      "taf": "TAF LECH 061700Z 0618/0718 VRB04KT 9999 FEW020 TX20/0714Z TN09/0705Z"
    },
    {
      "icao": "LEMD",
      "alert": "OK",
      "vis_m": 9999,
      "fzfg": false,
      "metar_trigger": false,
      "taf_trigger": false,
      "metar": "METAR LEMD 062130Z 35002KT CAVOK 13/01 Q1010 NOSIG",
      "taf": "TAF LEMD 061700Z 0618/0724 VRB04KT 9999 FEW060 TX21/0716Z TN08/0705Z"
    },
    {
      "icao": "LEMG",
      "alert": "OK",
      "vis_m": 9999,
      "fzfg": false,
      "metar_trigger": false,
      "taf_trigger": false,
      "metar": "METAR LEMG 062130Z 11005KT 070V160 9999 FEW008 16/15 Q1011 NOSIG",
      "taf": "TAF LEMG 061700Z 0618/0718 10008KT 9999 FEW020 TX23/0714Z TN16/0707Z"
    },
    {
      "icao": "LEVC",
      "alert": "OK",
      "vis_m": 9999,
      "fzfg": false,
      "metar_trigger": false,
      "taf_trigger": false,
      "metar": "METAR LEVC 062130Z 04003KT 350V070 CAVOK 17/10 Q1013 NOSIG",
      "taf": "TAF LEVC 061700Z 0618/0718 12009KT 9999 FEW030 TX21/0712Z TN11/0705Z"
    },
    {
      "icao": "LEXJ",
      "alert": "OK",
      "vis_m": 9999,
      "fzfg": false,
      "metar_trigger": false,
      "taf_trigger": false,
      "metar": "METAR LEXJ 062130Z AUTO VRB01KT CAVOK 13/11 Q1014",
      "taf": "TAF LEXJ 062000Z 0621/0721 VRB03KT 9999 SCT020 TX20/0713Z TN09/0705Z"
    },
    {
      "icao": "LEZG",
      "alert": "OK",
      "vis_m": 9999,
      "fzfg": false,
      "metar_trigger": false,
      "taf_trigger": false,
      "metar": "METAR LEZG 062130Z 27008KT CAVOK 14/09 Q1013 NOSIG",
      "taf": "TAF LEZG 061700Z 0618/0718 32010KT 9999 FEW050 TX21/0714Z TN09/0705Z"
    },
    {
      "icao": "LEZL",
      "alert": "OK",
      "vis_m": 9999,
      "fzfg": false,
      "metar_trigger": false,
      "taf_trigger": false,
      "metar": "METAR LEZL 062130Z 21008KT CAVOK 18/09 Q1010 NOSIG",
      "taf": "TAF LEZL 062000Z 0621/0721 22010KT CAVOK TX25/0715Z TN13/0707Z"
    },
    {
      "icao": "LFBD",
      "alert": "OK",
      "vis_m": 9999,
      "fzfg": false,
      "metar_trigger": false,
      "taf_trigger": false,
      "metar": "METAR LFBD 062130Z AUTO 27005KT 9999 FEW024 11/09 Q1014 NOSIG",
      "taf": "TAF LFBD 061700Z 0618/0724 30010KT 9999 BKN030 TX20/0714Z TN08/0703Z"
    },
    {
      "icao": "LFLL",
      "alert": "OK",
      "vis_m": 9999,
      "fzfg": false,
      "metar_trigger": false,
      "taf_trigger": false,
      "metar": "METAR LFLL 062130Z VRB02KT 9999 FEW053TCU BKN066 11/08 Q1012 NOSIG",
      "taf": "TAF LFLL 061700Z 0618/0724 16006KT 9999 FEW040 BKN180"
    },
    {
      "icao": "LFLS",
      "alert": "OK",
      "vis_m": 9999,
      "fzfg": false,
      "metar_trigger": false,
      "taf_trigger": false,
      "metar": "METAR LFLS 062130Z AUTO 05003KT 340V090 9999 -RA FEW033 BKN056 OVC072 11/10 Q1012",
      "taf": "TAF LFLS 061400Z 0615/0715 VRB04KT 9999 SCT045"
    },
    {
      "icao": "LFMN",
      "alert": "OK",
      "vis_m": 9999,
      "fzfg": false,
      "metar_trigger": false,
      "taf_trigger": false,
      "metar": "METAR LFMN 062130Z 33007KT CAVOK 16/10 Q1010 NOSIG",
      "taf": "TAF LFMN 062000Z 0621/0803 24012KT CAVOK"
    },
    {
      "icao": "LFOB",
      "alert": "OK",
      "vis_m": 9999,
      "fzfg": false,
      "metar_trigger": false,
      "taf_trigger": false,
      "metar": "METAR LFOB 062130Z AUTO 31006KT CAVOK 09/08 Q1013 NOSIG",
      "taf": "TAF LFOB 061700Z 0618/0718 32010KT 9999 SCT030"
    },
    {
      "icao": "LFPO",
      "alert": "OK",
      "vis_m": 9999,
      "fzfg": false,
      "metar_trigger": false,
      "taf_trigger": false,
      "metar": "METAR LFPO 062130Z AUTO 34005KT 9999 FEW024 SCT036 BKN046 11/08 Q1013 NOSIG",
      "taf": "TAF LFPO 061700Z 0618/0724 34007KT CAVOK"
    },
    {
      "icao": "LFSB",
      "alert": "OK",
      "vis_m": 9999,
      "fzfg": false,
      "metar_trigger": false,
      "taf_trigger": false,
      "metar": "METAR LFSB 062130Z AUTO 21004KT 180V240 9999 FEW054 BKN078 BKN088 10/08 Q1012 TEMPO SCT030TCU",
      "taf": "TAF LFSB 061700Z 0618/0718 25005KT 9999 BKN040"
    },
    {
      "icao": "LGAV",
      "alert": "OK",
      "vis_m": 9999,
      "fzfg": false,
      "metar_trigger": false,
      "taf_trigger": false,
      "metar": "METAR LGAV 062050Z 02003KT CAVOK 13/10 Q1017 NOSIG",
      "taf": "TAF LGAV 061700Z 0618/0718 VRB03KT 9999 FEW025"
    },
    {
      "icao": "LGTS",
      "alert": "OK",
      "vis_m": 9999,
      "fzfg": false,
      "metar_trigger": false,
      "taf_trigger": false,
      "metar": "METAR LGTS 062120Z 35004KT 9999 FEW025 17/15 Q1016 NOSIG",
      "taf": "TAF LGTS 061700Z 0618/0718 VRB03KT 9999 FEW025"
    },
    {
      "icao": "LHBP",
      "alert": "OK",
      "vis_m": 9999,
      "fzfg": false,
      "metar_trigger": false,
      "taf_trigger": false,
      "metar": "METAR LHBP 062130Z 19002KT CAVOK 17/14 Q1010 NOSIG",
      "taf": "TAF LHBP 061715Z 0618/0718 21007KT CAVOK"
    },
    {
      "icao": "LHDC",
      "alert": "OK",
      "vis_m": 9999,
      "fzfg": false,
      "metar_trigger": false,
      "taf_trigger": false,
      "metar": "METAR LHDC 062115Z AUTO 17006KT CAVOK 18/09 Q1011",
      "taf": "TAF LHDC 061415Z 0615/0624 21013KT CAVOK"
    },
    {
      "icao": "LIBD",
      "alert": "OK",
      "vis_m": 9999,
      "fzfg": false,
      "metar_trigger": false,
      "taf_trigger": false,
      "metar": "METAR LIBD 062120Z 21013KT CAVOK 18/14 Q1014",
      "taf": "TAF LIBD 061700Z 0618/0718 17010KT CAVOK"
    },
    {
      "icao": "LIBG",
      "alert": "OK",
      "vis_m": null,
      "fzfg": false,
      "metar_trigger": false,
      "taf_trigger": false,
      "metar": "",
      "taf": "TAF LIBG 061400Z 0615/0624 16012KT 9999 BKN015"
    },
    {
      "icao": "LIBP",
      "alert": "OK",
      "vis_m": 9999,
      "fzfg": false,
      "metar_trigger": false,
      "taf_trigger": false,
      "metar": "METAR LIBP 062120Z AUTO VRB01KT 9999 OVC130/// 17/16 Q1011",
      "taf": "TAF LIBP 061700Z 0618/0718 VRB05KT 9999 FEW080"
    },
    {
      "icao": "LIBR",
      "alert": "OK",
      "vis_m": 9999,
      "fzfg": false,
      "metar_trigger": false,
      "taf_trigger": false,
      "metar": "METAR LIBR 062120Z 18011KT CAVOK 17/14 Q1015",
      "taf": "TAF LIBR 061700Z 0618/0718 17011KT 9999 FEW015"
    },
    {
      "icao": "LICA",
      "alert": "OK",
      "vis_m": 9999,
      "fzfg": false,
      "metar_trigger": false,
      "taf_trigger": false,
      "metar": "METAR LICA 062120Z AUTO 08012KT 9999 BKN150/// 17/15 Q1014",
      "taf": "TAF LICA 061700Z 0618/0718 08013KT 9999 FEW020"
    },
    {
      "icao": "LICC",
      "alert": "OK",
      "vis_m": 9999,
      "fzfg": false,
      "metar_trigger": false,
      "taf_trigger": false,
      "metar": "METAR LICC 062120Z 05008KT 9999 BKN010 18/14 Q1014",
      "taf": "TAF LICC 061700Z 0618/0718 06012KT 9999 SCT020"
    },
    {
      "icao": "LICJ",
      "alert": "OK",
      "vis_m": 9999,
      "fzfg": false,
      "metar_trigger": false,
      "taf_trigger": false,
      "metar": "METAR LICJ 062120Z 05009KT 9999 FEW009 19/16 Q1013",
      "taf": "TAF LICJ 061700Z 0618/0718 07012KT 9999 FEW020"
    },
    {
      "icao": "LIMC",
      "alert": "OK",
      "vis_m": 9999,
      "fzfg": false,
      "metar_trigger": false,
      "taf_trigger": false,
      "metar": "METAR LIMC 062120Z 35003KT 290V070 9999 BKN040 12/11 Q1011 NOSIG",
      "taf": "TAF LIMC 061700Z 0618/0724 01008KT 9999 BKN015"
    },
    {
      "icao": "LIME",
      "alert": "OK",
      "vis_m": 9999,
      "fzfg": false,
      "metar_trigger": false,
      "taf_trigger": false,
      "metar": "METAR LIME 062120Z 02005KT 350V050 9999 FEW070 SCT090 13/08 Q1011 NOSIG",
      "taf": "TAF LIME 061700Z 0618/0718 VRB05KT 9999 BKN020 BKN060"
    },
    {
      "icao": "LIMF",
      "alert": "OK",
      "vis_m": 9999,
      "fzfg": false,
      "metar_trigger": false,
      "taf_trigger": false,
      "metar": "METAR LIMF 062120Z 36005KT 9999 FEW015TCU BKN020 14/11 Q1011",
      "taf": "TAF LIMF 061700Z 0618/0718 VRB05KT 9999 SCT040"
    },
    {
      "icao": "LIMJ",
      "alert": "OK",
      "vis_m": 9999,
      "fzfg": false,
      "metar_trigger": false,
      "taf_trigger": false,
      "metar": "METAR LIMJ 062120Z 15011KT 9999 FEW020 BKN027 18/13 Q1011",
      "taf": "TAF LIMJ 061700Z 0618/0718 17010KT 9999 FEW030"
    },
    {
      "icao": "LIPE",
      "alert": "OK",
      "vis_m": 9999,
      "fzfg": false,
      "metar_trigger": false,
      "taf_trigger": false,
      "metar": "METAR LIPE 062120Z 18006KT CAVOK 16/08 Q1010",
      "taf": "TAF LIPE 061700Z 0618/0718 18010KT CAVOK"
    },
    {
      "icao": "LIPH",
      "alert": "OK",
      "vis_m": 9999,
      "fzfg": false,
      "metar_trigger": false,
      "taf_trigger": false,
      "metar": "METAR LIPH 062120Z AUTO VRB02KT 9999 FEW017/// 15/14 Q1011",
      "taf": "TAF LIPH 061700Z 0618/0718 VRB05KT 9999 BKN015"
    },
    {
      "icao": "LIPQ",
      "alert": "OK",
      "vis_m": 9999,
      "fzfg": false,
      "metar_trigger": false,
      "taf_trigger": false,
      "metar": "METAR LIPQ 062120Z AUTO 15007KT 9999 BKN014/// BKN120/// 16/13 Q1011",
      "taf": "TAF LIPQ 061700Z 0618/0718 15007KT 9999 BKN030"
    },
    {
      "icao": "LIPR",
      "alert": "OK",
      "vis_m": 9999,
      "fzfg": false,
      "metar_trigger": false,
      "taf_trigger": false,
      "metar": "METAR LIPR 062120Z 20003KT 140V250 CAVOK 18/12 Q1012",
      "taf": "TAF LIPR 061700Z 0618/0718 20010KT 9999 FEW050"
    },
    {
      "icao": "LIPX",
      "alert": "OK",
      "vis_m": 9999,
      "fzfg": false,
      "metar_trigger": false,
      "taf_trigger": false,
      "metar": "METAR LIPX 062120Z VRB02KT CAVOK 14/14 Q1011",
      "taf": "TAF LIPX 061700Z 0618/0718 VRB05KT 9999 SCT040"
    },
    {
      "icao": "LIPY",
      "alert": "OK",
      "vis_m": 9999,
      "fzfg": false,
      "metar_trigger": false,
      "taf_trigger": false,
      "metar": "METAR LIPY 062120Z AUTO VRB02KT 9999 OVC089/// 18/15 Q1012",
      "taf": "TAF LIPY 061700Z 0618/0718 15007KT 9999 FEW040"
    },
    {
      "icao": "LIPZ",
      "alert": "OK",
      "vis_m": 9999,
      "fzfg": false,
      "metar_trigger": false,
      "taf_trigger": false,
      "metar": "METAR LIPZ 062120Z VRB02KT CAVOK 16/15 Q1010 NOSIG",
      "taf": "TAF LIPZ 061700Z 0618/0724 02005KT 9999 BKN015"
    },
    {
      "icao": "LIRF",
      "alert": "OK",
      "vis_m": 9999,
      "fzfg": false,
      "metar_trigger": false,
      "taf_trigger": false,
      "metar": "METAR LIRF 062120Z 12007KT 9999 -RA FEW025 16/15 Q1014 NOSIG",
      "taf": "TAF LIRF 061700Z 0618/0724 19012KT 8000 BKN020"
    },
    {
      "icao": "LIRN",
      "alert": "OK",
      "vis_m": 9999,
      "fzfg": false,
      "metar_trigger": false,
      "taf_trigger": false,
      "metar": "METAR LIRN 062120Z 15003KT 110V180 9999 -RA SCT080 17/13 Q1015 NOSIG",
      "taf": "TAF LIRN 061700Z 0618/0718 VRB05KT 9999 BKN070"
    },
    {
      "icao": "LIRP",
      "alert": "OK",
      "vis_m": 9999,
      "fzfg": false,
      "metar_trigger": false,
      "taf_trigger": false,
      "metar": "METAR LIRP 062115Z 16002KT 9999 FEW025 SCT060 14/12 Q1013 NOSIG",
      "taf": "TAF LIRP 061700Z 0618/0718 24012KT 9999 SCT020 SCT050"
    },
    {
      "icao": "LIRZ",
      "alert": "OK",
      "vis_m": 9999,
      "fzfg": false,
      "metar_trigger": false,
      "taf_trigger": false,
      "metar": "METAR LIRZ 062120Z AUTO 21008KT 9999 FEW029/// BKN045/// 16/13 Q1014",
      "taf": "TAF LIRZ 061700Z 0618/0718 20012KT 9999 BKN030"
    },
    {
      "icao": "LJLJ",
      "alert": "OK",
      "vis_m": 9999,
      "fzfg": false,
      "metar_trigger": false,
      "taf_trigger": false,
      "metar": "METAR LJLJ 062130Z VRB02KT 9999 FEW007 BKN110 13/12 Q1011 NOSIG",
      "taf": "TAF LJLJ 061700Z 0618/0718 VRB02KT 9999 FEW020 BKN040"
    },
    {
      "icao": "LKMT",
      "alert": "OK",
      "vis_m": 9999,
      "fzfg": false,
      "metar_trigger": false,
      "taf_trigger": false,
      "metar": "METAR LKMT 062130Z 19013KT CAVOK 19/10 Q1006 NOSIG",
      "taf": "TAF LKMT 061700Z 0618/0718 20012KT CAVOK"
    },
    {
      "icao": "LKPR",
      "alert": "OK",
      "vis_m": 9999,
      "fzfg": false,
      "metar_trigger": false,
      "taf_trigger": false,
      "metar": "METAR LKPR 062130Z 15006KT CAVOK 12/11 Q1006 NOSIG",
      "taf": "TAF LKPR 062000Z 0621/0803 27008KT 9999 BKN050"
    },
    {
      "icao": "LLBG",
      "alert": "OK",
      "vis_m": 9999,
      "fzfg": false,
      "metar_trigger": false,
      "taf_trigger": false,
      "metar": "METAR LLBG 062120Z VRB02KT 9999 FEW030 15/10 Q1017 NOSIG",
      "taf": "TAF LLBG 061703Z 0618/0718 VRB04KT 9999 FEW030 TX23/0712Z TN13/0703Z"
    },
    {
      "icao": "LMML",
      "alert": "OK",
      "vis_m": 9999,
      "fzfg": false,
      "metar_trigger": false,
      "taf_trigger": false,
      "metar": "METAR LMML 062115Z 11019KT CAVOK 18/15 Q1011 NOSIG",
      "taf": "TAF LMML 061700Z 0618/0718 10018KT 9999 FEW015"
    },
    {
      "icao": "LOWW",
      "alert": "OK",
      "vis_m": 9999,
      "fzfg": false,
      "metar_trigger": false,
      "taf_trigger": false,
      "metar": "METAR LOWW 062120Z 17014KT CAVOK 17/10 Q1006 NOSIG",
      "taf": "TAF LOWW 062015Z 0621/0803 16012KT CAVOK TX22/0713Z TN12/0803Z"
    },
    {
      "icao": "LPFR",
      "alert": "OK",
      "vis_m": 9999,
      "fzfg": false,
      "metar_trigger": false,
      "taf_trigger": false,
      "metar": "METAR LPFR 062130Z 29011KT CAVOK 17/09 Q1010",
      "taf": "TAF LPFR 061700Z 0618/0718 26018KT 9999 FEW020"
    },
    {
      "icao": "LPMA",
      "alert": "OK",
      "vis_m": 9999,
      "fzfg": false,
      "metar_trigger": false,
      "taf_trigger": false,
      "metar": "METAR LPMA 062130Z 34006KT 300V020 9999 SCT015 16/08 Q1018",
      "taf": "TAF LPMA 061700Z 0618/0718 01015KT 9999 SCT015"
    },
    {
      "icao": "LPPR",
      "alert": "OK",
      "vis_m": 9999,
      "fzfg": false,
      "metar_trigger": false,
      "taf_trigger": false,
      "metar": "METAR LPPR 062130Z 35003KT CAVOK 13/11 Q1011",
      "taf": "TAF LPPR 061700Z 0618/0718 32015KT 9999 FEW025"
    },
    {
      "icao": "LPPS",
      "alert": "OK",
      "vis_m": 9999,
      "fzfg": false,
      "metar_trigger": false,
      "taf_trigger": false,
      "metar": "METAR LPPS 062130Z 01007KT 9999 FEW015 15/09 Q1018",
      "taf": "TAF LPPS 061700Z 0618/0724 02013KT 9999 SCT015 SCT030"
    },
    {
      "icao": "LPPT",
      "alert": "OK",
      "vis_m": 9999,
      "fzfg": false,
      "metar_trigger": false,
      "taf_trigger": false,
      "metar": "METAR LPPT 062130Z 32012KT 9999 FEW020 14/10 Q1012",
      "taf": "TAF LPPT 061700Z 0618/0724 32013KT 9999 FEW030"
    },
    {
      "icao": "LQBK",
      "alert": "OK",
      "vis_m": 9999,
      "fzfg": false,
      "metar_trigger": false,
      "taf_trigger": false,
      "metar": "METAR LQBK 062130Z 19009KT CAVOK 19/06 Q1012 NOSIG",
      "taf": "TAF LQBK 061700Z 0618/0718 20005KT CAVOK TX20/0618Z TN09/0703Z"
    },
    {
      "icao": "LQSA",
      "alert": "OK",
      "vis_m": 9999,
      "fzfg": false,
      "metar_trigger": false,
      "taf_trigger": false,
      "metar": "METAR LQSA 062130Z VRB02KT 9999 SCT055 14/09 Q1015",
      "taf": "TAF LQSA 061700Z 0618/0718 VRB02KT 9999 SCT050 TX22/0714Z TN09/0704Z"
    },
    {
      "icao": "LQTZ",
      "alert": "OK",
      "vis_m": 9999,
      "fzfg": false,
      "metar_trigger": false,
      "taf_trigger": false,
      "metar": "METAR LQTZ 062130Z 00000KT CAVOK 17/09 Q1013",
      "taf": "TAF LQTZ 061700Z 0618/0718 10005KT 9999 SCT050 TX24/0713Z TN08/0704Z"
    },
    {
      "icao": "LRBC",
      "alert": "OK",
      "vis_m": 9999,
      "fzfg": false,
      "metar_trigger": false,
      "taf_trigger": false,
      "metar": "METAR LRBC 062130Z COR 17011KT CAVOK 14/08 Q1014",
      "taf": "TAF LRBC 062000Z 0621/0706 16012KT CAVOK"
    },
    {
      "icao": "LRBS",
      "alert": "OK",
      "vis_m": 9999,
      "fzfg": false,
      "metar_trigger": false,
      "taf_trigger": false,
      "metar": "METAR LRBS 062130Z 10006KT 070V130 CAVOK 16/05 Q1015 NOSIG",
      "taf": "TAF LRBS 061700Z 0618/0718 09008KT CAVOK"
    },
    {
      "icao": "LRBV",
      "alert": "OK",
      "vis_m": 9999,
      "fzfg": false,
      "metar_trigger": false,
      "taf_trigger": false,
      "metar": "METAR LRBV 062130Z 02005KT 330V050 CAVOK 15/07 Q1015",
      "taf": ""
    },
    {
      "icao": "LRCL",
      "alert": "OK",
      "vis_m": 9999,
      "fzfg": false,
      "metar_trigger": false,
      "taf_trigger": false,
      "metar": "METAR LRCL 062130Z 25003KT CAVOK 15/08 Q1013",
      "taf": "TAF LRCL 062000Z 0621/0706 VRB04KT CAVOK"
    },
    {
      "icao": "LRCV",
      "alert": "OK",
      "vis_m": 9999,
      "fzfg": false,
      "metar_trigger": false,
      "taf_trigger": false,
      "metar": "METAR LRCV 062130Z 10006KT CAVOK 14/10 Q1014",
      "taf": "TAF LRCV 062000Z 0621/0706 08010KT CAVOK"
    },
    {
      "icao": "LRIA",
      "alert": "OK",
      "vis_m": 9999,
      "fzfg": false,
      "metar_trigger": false,
      "taf_trigger": false,
      "metar": "METAR LRIA 062130Z 18009KT CAVOK 17/06 Q1014",
      "taf": "TAF LRIA 062000Z 0621/0706 16008KT CAVOK"
    },
    {
      "icao": "LROP",
      "alert": "OK",
      "vis_m": 9999,
      "fzfg": false,
      "metar_trigger": false,
      "taf_trigger": false,
      "metar": "METAR LROP 062130Z 10006KT CAVOK 16/05 Q1015 NOSIG",
      "taf": "TAF LROP 061700Z 0618/0718 10008KT CAVOK"
    },
    {
      "icao": "LRSB",
      "alert": "OK",
      "vis_m": 9999,
      "fzfg": false,
      "metar_trigger": false,
      "taf_trigger": false,
      "metar": "METAR LRSB 062130Z 19008KT CAVOK 20/08 Q1014",
      "taf": "TAF LRSB 061700Z 0618/0718 VRB04KT CAVOK"
    },
    {
      "icao": "LRSM",
      "alert": "OK",
      "vis_m": 9999,
      "fzfg": false,
      "metar_trigger": false,
      "taf_trigger": false,
      "metar": "METAR LRSM 062130Z AUTO 00000KT 9999 NCD 12/07 Q1011",
      "taf": "TAF LRSM 061400Z 0615/0624 24012KT CAVOK"
    },
    {
      "icao": "LRSV",
      "alert": "OK",
      "vis_m": 9999,
      "fzfg": false,
      "metar_trigger": false,
      "taf_trigger": false,
      "metar": "METAR LRSV 062130Z 18010KT CAVOK 15/07 Q1012",
      "taf": "TAF LRSV 062000Z 0621/0706 17014KT CAVOK"
    },
    {
      "icao": "LRTM",
      "alert": "OK",
      "vis_m": 9999,
      "fzfg": false,
      "metar_trigger": false,
      "taf_trigger": false,
      "metar": "METAR LRTM 062130Z 28002KT CAVOK 16/08 Q1013",
      "taf": "TAF LRTM 062000Z 0621/0706 VRB04KT CAVOK"
    },
    {
      "icao": "LRTR",
      "alert": "OK",
      "vis_m": 9999,
      "fzfg": false,
      "metar_trigger": false,
      "taf_trigger": false,
      "metar": "METAR LRTR 062130Z 08006KT CAVOK 12/09 Q1011",
      "taf": "TAF LRTR 061700Z 0618/0718 VRB04KT CAVOK"
    },
    {
      "icao": "LTAC",
      "alert": "OK",
      "vis_m": 9999,
      "fzfg": false,
      "metar_trigger": false,
      "taf_trigger": false,
      "metar": "METAR LTAC 062120Z 02004KT CAVOK 05/02 Q1018 NOSIG RMK RWY21C 36003KT 340V040 RWY03L 02003KT RWY21R 36004KT RWY03R 00000KT RWY21L 34003KT 310V010",
      "taf": "TAF LTAC 061640Z 0618/0718 VRB02KT 9999 FEW040"
    },
    {
      "icao": "LTFM",
      "alert": "OK",
      "vis_m": 9999,
      "fzfg": false,
      "metar_trigger": false,
      "taf_trigger": false,
      "metar": "METAR LTFM 062120Z 09006KT 9999 SCT007 11/10 Q1017 NOSIG RMK RWY17L 10006KT RWY34L 08006KT RWY16R 10008KT RWY36 11004KT 040V130 RWY18 10006KT",
      "taf": "TAF LTFM 061640Z 0618/0724 08012KT CAVOK"
    },
    {
      "icao": "LUKK",
      "alert": "OK",
      "vis_m": 9999,
      "fzfg": false,
      "metar_trigger": false,
      "taf_trigger": false,
      "metar": "METAR LUKK 062130Z 22010KT CAVOK 13/04 Q1016 NOSIG",
      "taf": "TAF LUKK 061702Z 0618/0718 20009KT CAVOK"
    },
    {
      "icao": "LWOH",
      "alert": "OK",
      "vis_m": null,
      "fzfg": false,
      "metar_trigger": false,
      "taf_trigger": false,
      "metar": "",
      "taf": "TAF LWOH 062020Z 0621/0721 18006KT 9999 SCT050 BKN090"
    },
    {
      "icao": "LWSK",
      "alert": "OK",
      "vis_m": 9999,
      "fzfg": false,
      "metar_trigger": false,
      "taf_trigger": false,
      "metar": "METAR LWSK 062120Z VRB01KT 9999 FEW060 SCT090 16/07 Q1014 NOSIG",
      "taf": "TAF LWSK 062020Z 0621/0721 VRB02KT 9999 FEW060 SCT090"
    },
    {
      "icao": "LYBE",
      "alert": "OK",
      "vis_m": 9999,
      "fzfg": false,
      "metar_trigger": false,
      "taf_trigger": false,
      "metar": "METAR LYBE 062130Z 20008KT CAVOK 20/09 Q1011 NOSIG",
      "taf": "TAF LYBE 061700Z 0618/0718 20006KT CAVOK TX24/0618Z TN15/0704Z"
    },
    {
      "icao": "LYNI",
      "alert": "OK",
      "vis_m": 9999,
      "fzfg": false,
      "metar_trigger": false,
      "taf_trigger": false,
      "metar": "METAR LYNI 062130Z VRB01KT CAVOK 16/08 Q1014 NOSIG",
      "taf": "TAF LYNI 061700Z 0618/0718 16005KT CAVOK TX25/0618Z TN12/0704Z"
    },
    {
      "icao": "LYPG",
      "alert": "OK",
      "vis_m": 9999,
      "fzfg": false,
      "metar_trigger": false,
      "taf_trigger": false,
      "metar": "METAR LYPG 062130Z VRB01KT 9999 FEW050 BKN080 17/12 Q1017 NOSIG",
      "taf": "TAF LYPG 061700Z 0618/0718 36005KT 9999 SCT040 BKN070 TX22/0713Z TN14/0704Z"
    },
    {
      "icao": "LZIB",
      "alert": "OK",
      "vis_m": 9999,
      "fzfg": false,
      "metar_trigger": false,
      "taf_trigger": false,
      "metar": "METAR LZIB 062130Z 17013KT CAVOK 18/11 Q1007 NOSIG",
      "taf": "TAF LZIB 061715Z 0618/0718 19012KT 9999 FEW045"
    },
    {
      "icao": "LZKZ",
      "alert": "OK",
      "vis_m": 9999,
      "fzfg": false,
      "metar_trigger": false,
      "taf_trigger": false,
      "metar": "METAR LZKZ 062130Z 33004KT CAVOK 17/10 Q1010 TEMPO 23018G28KT",
      "taf": "TAF LZKZ 061715Z 0618/0718 21009KT CAVOK"
    },
    {
      "icao": "LZTT",
      "alert": "OK",
      "vis_m": 9999,
      "fzfg": false,
      "metar_trigger": false,
      "taf_trigger": false,
      "metar": "METAR LZTT 062130Z 25013KT 9999 FEW057 17/07 Q1010",
      "taf": "TAF LZTT 061715Z 0618/0718 25007KT 9999 FEW050"
    },
    {
      "icao": "OEJN",
      "alert": "OK",
      "vis_m": 9999,
      "fzfg": false,
      "metar_trigger": false,
      "taf_trigger": false,
      "metar": "METAR OEJN 062100Z 35008KT CAVOK 26/19 Q1008 NOSIG",
      "taf": "TAF OEJN 061700Z 0618/0724 35010KT 7000 FEW040"
    },
    {
      "icao": "OEMA",
      "alert": "OK",
      "vis_m": 9999,
      "fzfg": false,
      "metar_trigger": false,
      "taf_trigger": false,
      "metar": "METAR OEMA 062100Z 28011KT 9999 FEW040 33/M04 Q1012 NOSIG",
      "taf": "TAF OEMA 061700Z 0618/0724 30006KT 9999 FEW045"
    },
    {
      "icao": "OJAI",
      "alert": "OK",
      "vis_m": 5000,
      "fzfg": false,
      "metar_trigger": false,
      "taf_trigger": false,
      "metar": "METAR OJAI 062100Z 26010KT 5000 HZ NSC 11/07 Q1018 NOSIG",
      "taf": "TAF OJAI 061700Z 0618/0724 29008KT 5000 HZ FEW035"
    },
    {
      "icao": "OMAA",
      "alert": "OK",
      "vis_m": 9999,
      "fzfg": false,
      "metar_trigger": false,
      "taf_trigger": false,
      "metar": "METAR OMAA 062130Z 32005KT CAVOK 30/21 Q1005 NOSIG",
      "taf": "TAF OMAA 061700Z 0618/0800 04007KT 8000 NSC"
    },
    {
      "icao": "OMDB",
      "alert": "OK",
      "vis_m": 9999,
      "fzfg": false,
      "metar_trigger": false,
      "taf_trigger": false,
      "metar": "METAR OMDB 062130Z 30005KT 280V350 CAVOK 34/15 Q1005 NOSIG",
      "taf": "TAF OMDB 061700Z 0618/0800 VRB02KT 8000 NSC"
    },
    {
      "icao": "UAAA",
      "alert": "OK",
      "vis_m": 9999,
      "fzfg": false,
      "metar_trigger": false,
      "taf_trigger": false,
      "metar": "METAR UAAA 062130Z 13002MPS 9999 SCT100 15/09 Q1014 NOSIG",
      "taf": "TAF UAAA 061704Z 0618/0718 18002G07MPS 9999 FEW050CB SCT100 TX28/0708Z TN11/0701Z"
    },
    {
      "icao": "UBBB",
      "alert": "OK",
      "vis_m": 9999,
      "fzfg": false,
      "metar_trigger": false,
      "taf_trigger": false,
      "metar": "METAR UBBB 062130Z 17004KT CAVOK 12/09 Q1015 NOSIG",
      "taf": "TAF UBBB 061657Z 0618/0718 30005KT 9999 SCT040 TX20/0710Z TN11/0701Z"
    },
    {
      "icao": "UDSG",
      "alert": "OK",
      "vis_m": 9999,
      "fzfg": false,
      "metar_trigger": false,
      "taf_trigger": false,
      "metar": "METAR UDSG 062130Z 00000KT 9999 SCT049CB 03/02 Q1018 NOSIG",
      "taf": "TAF UDSG 061658Z 0618/0718 36006KT 9999 SCT040"
    },
    {
      "icao": "UDYZ",
      "alert": "OK",
      "vis_m": 9999,
      "fzfg": false,
      "metar_trigger": false,
      "taf_trigger": false,
      "metar": "METAR UDYZ 062130Z VRB01KT 9999 FEW043CB 09/05 Q1015 NOSIG",
      "taf": "TAF UDYZ 061700Z 0618/0718 04006KT 9999 FEW040"
    },
    {
      "icao": "UGKO",
      "alert": "OK",
      "vis_m": 9999,
      "fzfg": false,
      "metar_trigger": false,
      "taf_trigger": false,
      "metar": "METAR UGKO 062130Z VRB02KT 9999 BKN080 11/10 Q1019 NOSIG",
      "taf": "TAF UGKO 061700Z 0618/0718 25006KT 9999 SCT030 BKN045 TX18/0711Z TN08/0702Z"
    }
  ]
}