{
  "ts_utc": "2025-12-26T11:21:15Z",
  "threshold_m": 150,
  "source": "stations_override.txt (ICAO list) + aviationweather.gov (METAR/TAF raw)",
  "station_count": 159,
  "stations": [
    {
      "icao": "BIKF",
      "alert": "OK",
      "vis_m": 9999,
      "fzfg": false,
      "metar_trigger": false,
      "taf_trigger": false,
      "metar": "METAR BIKF 261100Z 25023KT 9999 BKN039 04/M02 Q1031",
      "taf": "TAF BIKF 261030Z 2612/2712 26022G32KT 9999 FEW015 BKN035 TX05/2613Z TN00/2703Z"
    },
    {
      "icao": "BKPR",
      "alert": "OK",
      "vis_m": 9999,
      "fzfg": false,
      "metar_trigger": false,
      "taf_trigger": false,
      "metar": "METAR BKPR 261100Z 35006KT 9999 SCT012 BKN035 01/M00 Q1026 NOSIG",
      "taf": ""
    },
    {
      "icao": "EBCI",
      "alert": "OK",
      "vis_m": 7000,
      "fzfg": false,
      "metar_trigger": false,
      "taf_trigger": false,
      "metar": "METAR EBCI 261050Z 05006KT 030V090 7000 NSC M02/M04 Q1027 NOSIG",
      "taf": "TAF EBCI 260502Z 2606/2712 05008KT CAVOK"
    },
    {
      "icao": "EDDB",
      "alert": "OK",
      "vis_m": 9999,
      "fzfg": false,
      "metar_trigger": false,
      "taf_trigger": false,
      "metar": "METAR EDDB 261050Z AUTO 25004KT 210V270 CAVOK M03/M07 Q1034 NOSIG",
      "taf": "TAF EDDB 260500Z 2606/2706 VRB03KT 9000 FEW010"
    },
    {
      "icao": "EDDH",
      "alert": "OK",
      "vis_m": 9999,
      "fzfg": false,
      "metar_trigger": false,
      "taf_trigger": false,
      "metar": "METAR EDDH 261050Z AUTO VRB02KT CAVOK M00/M07 Q1035 BECMG BKN008",
      "taf": "TAF EDDH 260500Z 2606/2712 VRB03KT CAVOK"
    },
    {
      "icao": "EDDK",
      "alert": "OK",
      "vis_m": 9999,
      "fzfg": false,
      "metar_trigger": false,
      "taf_trigger": false,
      "metar": "METAR EDDK 261050Z AUTO 29003KT CAVOK 01/M03 Q1030 BECMG 09006KT",
      "taf": ""
    },
    {
      "icao": "EDDN",
      "alert": "OK",
      "vis_m": 9999,
      "fzfg": false,
      "metar_trigger": false,
      "taf_trigger": false,
      "metar": "METAR EDDN 261050Z AUTO 09006KT 040V140 CAVOK 03/M02 Q1029 NOSIG",
      "taf": ""
    },
    {
      "icao": "EDDS",
      "alert": "OK",
      "vis_m": 9999,
      "fzfg": false,
      "metar_trigger": false,
      "taf_trigger": false,
      "metar": "METAR EDDS 261050Z AUTO 11005KT 070V150 CAVOK 01/M02 Q1025 NOSIG",
      "taf": "TAF EDDS 260500Z 2606/2706 VRB03KT 9999 FEW015"
    },
    {
      "icao": "EDFH",
      "alert": "OK",
      "vis_m": 9999,
      "fzfg": false,
      "metar_trigger": false,
      "taf_trigger": false,
      "metar": "METAR EDFH 261050Z 12014KT CAVOK M00/M03 Q1026",
      "taf": "TAF EDFH 260500Z 2606/2706 08010KT CAVOK"
    },
    {
      "icao": "EDJA",
      "alert": "OK",
      "vis_m": 4600,
      "fzfg": false,
      "metar_trigger": false,
      "taf_trigger": false,
      "metar": "METAR EDJA 261050Z COR 05010KT 4600 BR OVC002 M03/M04 Q1025",
      "taf": "TAF EDJA 260800Z 2609/2618 06009KT 2000 BR OVC002"
    },
    {
      "icao": "EDLW",
      "alert": "OK",
      "vis_m": 9999,
      "fzfg": false,
      "metar_trigger": false,
      "taf_trigger": false,
      "metar": "METAR EDLW 261050Z 03007KT 360V060 CAVOK M00/M04 Q1030",
      "taf": "TAF EDLW 260500Z 2606/2706 06008KT CAVOK"
    },
    {
      "icao": "EDNY",
      "alert": "OK",
      "vis_m": 8000,
      "fzfg": false,
      "metar_trigger": false,
      "taf_trigger": false,
      "metar": "METAR EDNY 261050Z COR 02006KT 350V070 8000 OVC010 M01/M03 Q1025",
      "taf": ""
    },
    {
      "icao": "EDSB",
      "alert": "OK",
      "vis_m": 9999,
      "fzfg": false,
      "metar_trigger": false,
      "taf_trigger": false,
      "metar": "METAR EDSB 261050Z 03008KT 9999 FEW016 01/M02 Q1027",
      "taf": "TAF EDSB 260500Z 2606/2706 03010KT CAVOK"
    },
    {
      "icao": "EETN",
      "alert": "OK",
      "vis_m": 9999,
      "fzfg": false,
      "metar_trigger": false,
      "taf_trigger": false,
      "metar": "METAR EETN 261050Z 32012KT 9999 OVC004 04/03 Q1022 NOSIG",
      "taf": ""
    },
    {
      "icao": "EFTU",
      "alert": "OK",
      "vis_m": 9999,
      "fzfg": false,
      "metar_trigger": false,
      "taf_trigger": false,
      "metar": "METAR EFTU 261050Z AUTO 33004KT 290V020 CAVOK 05/04 Q1024",
      "taf": "TAF EFTU 260829Z 2609/2709 32007KT CAVOK"
    },
    {
      "icao": "EGBB",
      "alert": "OK",
      "vis_m": 9999,
      "fzfg": false,
      "metar_trigger": false,
      "taf_trigger": false,
      "metar": "METAR EGBB 261050Z 06010KT CAVOK 04/00 Q1031",
      "taf": "TAF EGBB 261053Z 2612/2712 06010KT 9999 FEW030"
    },
    {
      "icao": "EGGP",
      "alert": "OK",
      "vis_m": 9999,
      "fzfg": false,
      "metar_trigger": false,
      "taf_trigger": false,
      "metar": "METAR EGGP 261050Z 07007KT CAVOK 04/M00 Q1033",
      "taf": "TAF EGGP 261054Z 2612/2712 06008KT CAVOK"
    },
    {
      "icao": "EGGW",
      "alert": "OK",
      "vis_m": 9999,
      "fzfg": false,
      "metar_trigger": false,
      "taf_trigger": false,
      "metar": "METAR EGGW 261050Z AUTO 04009KT 9999 NCD 03/00 Q1029",
      "taf": "TAF EGGW 261052Z 2612/2712 05013KT 9999 FEW015"
    },
    {
      "icao": "EGKK",
      "alert": "OK",
      "vis_m": 9999,
      "fzfg": false,
      "metar_trigger": false,
      "taf_trigger": false,
      "metar": "METAR EGKK 261050Z 04010KT 010V100 9999 SCT017 05/03 Q1028",
      "taf": "TAF EGKK 261052Z 2612/2718 05009KT 9999 SCT018"
    },
    {
      "icao": "EGNM",
      "alert": "OK",
      "vis_m": 9999,
      "fzfg": false,
      "metar_trigger": false,
      "taf_trigger": false,
      "metar": "METAR EGNM 261050Z 04008KT 9999 SCT018 04/02 Q1034",
      "taf": "TAF EGNM 261057Z 2612/2712 05008KT 9999 SCT018"
    },
    {
      "icao": "EGPD",
      "alert": "OK",
      "vis_m": 9999,
      "fzfg": false,
      "metar_trigger": false,
      "taf_trigger": false,
      "metar": "METAR EGPD 261050Z COR VRB02KT 9999 OVC023 05/03 Q1037 NOSIG",
      "taf": "TAF EGPD 261052Z 2612/2712 VRB02KT 9999 BKN020"
    },
    {
      "icao": "EGPF",
      "alert": "OK",
      "vis_m": 9999,
      "fzfg": false,
      "metar_trigger": false,
      "taf_trigger": false,
      "metar": "METAR EGPF 261050Z AUTO 05001KT 9999 OVC027 06/04 Q1037",
      "taf": "TAF EGPF 261100Z 2612/2712 06005KT 9999 SCT025"
    },
    {
      "icao": "EHBK",
      "alert": "OK",
      "vis_m": 9999,
      "fzfg": false,
      "metar_trigger": false,
      "taf_trigger": false,
      "metar": "METAR EHBK 261055Z AUTO 08013KT 040V110 9999 NCD 01/M03 Q1028 NOSIG",
      "taf": "TAF EHBK 260524Z 2606/2712 07011KT CAVOK"
    },
    {
      "icao": "EHEH",
      "alert": "OK",
      "vis_m": 9999,
      "fzfg": false,
      "metar_trigger": false,
      "taf_trigger": false,
      "metar": "METAR EHEH 261055Z AUTO 06008KT 030V100 9999 NCD M01/M05 Q1030 BLU NOSIG RMK TREND REMOTE BY EHWX",
      "taf": "TAF EHEH 260457Z 2606/2712 06008KT CAVOK"
    },
    {
      "icao": "EKBI",
      "alert": "OK",
      "vis_m": 9999,
      "fzfg": false,
      "metar_trigger": false,
      "taf_trigger": false,
      "metar": "METAR EKBI 261050Z AUTO 26003KT 9999 NCD 02/01 Q1035",
      "taf": "TAF EKBI 260828Z 2609/2709 28002KT 9999 OVC012"
    },
    {
      "icao": "EKCH",
      "alert": "OK",
      "vis_m": 9999,
      "fzfg": false,
      "metar_trigger": false,
      "taf_trigger": false,
      "metar": "METAR EKCH 261050Z 33007G17KT 300V360 9999 OVC006 05/04 Q1033 NOSIG",
      "taf": "TAF EKCH 260828Z 2609/2709 30005KT 9999 BKN006"
    },
    {
      "icao": "ENAL",
      "alert": "OK",
      "vis_m": 9999,
      "fzfg": false,
      "metar_trigger": false,
      "taf_trigger": false,
      "metar": "METAR ENAL 261050Z 16007KT 9999 VCSH FEW012 BKN016 05/04 Q1034",
      "taf": "TAF ENAL 260800Z 2609/2618 16005KT 9999 FEW015 BKN020"
    },
    {
      "icao": "ENBR",
      "alert": "OK",
      "vis_m": 9999,
      "fzfg": false,
      "metar_trigger": false,
      "taf_trigger": false,
      "metar": "METAR ENBR 261050Z VRB02KT CAVOK 02/01 Q1034 NOSIG RMK WIND 1200FT 18005KT",
      "taf": "TAF ENBR 260500Z 2606/2706 VRB03KT CAVOK"
    },
    {
      "icao": "ENGM",
      "alert": "OK",
      "vis_m": 9999,
      "fzfg": false,
      "metar_trigger": false,
      "taf_trigger": false,
      "metar": "METAR ENGM 261050Z VRB02KT CAVOK M03/M04 Q1033 NOSIG",
      "taf": "TAF ENGM 260500Z 2606/2706 VRB03KT CAVOK"
    },
    {
      "icao": "ENHD",
      "alert": "OK",
      "vis_m": 9999,
      "fzfg": false,
      "metar_trigger": false,
      "taf_trigger": false,
      "metar": "METAR ENHD 261050Z VRB02KT CAVOK 02/02 Q1034",
      "taf": "TAF ENHD 260800Z 2609/2618 10005KT CAVOK"
    },
    {
      "icao": "ENTC",
      "alert": "OK",
      "vis_m": 9999,
      "fzfg": false,
      "metar_trigger": false,
      "taf_trigger": false,
      "metar": "METAR ENTC 261050Z 27011KT 9999 BKN064 06/02 Q1018 NOSIG RMK WIND 2600FT 29024G35KT",
      "taf": "TAF ENTC 260500Z 2606/2706 26018KT 9999 FEW020 BKN035"
    },
    {
      "icao": "ENTO",
      "alert": "OK",
      "vis_m": 9999,
      "fzfg": false,
      "metar_trigger": false,
      "taf_trigger": false,
      "metar": "METAR ENTO 261050Z VRB02KT CAVOK 02/M01 Q1033 NOSIG",
      "taf": "TAF ENTO 260500Z 2606/2706 34005KT CAVOK"
    },
    {
      "icao": "ENVA",
      "alert": "OK",
      "vis_m": 9999,
      "fzfg": false,
      "metar_trigger": false,
      "taf_trigger": false,
      "metar": "METAR ENVA 261050Z 23011KT 9999 FEW012 SCT019 BKN026 06/05 Q1034 NOSIG RMK WIND 670FT 22012KT",
      "taf": ""
    },
    {
      "icao": "ENZV",
      "alert": "OK",
      "vis_m": 9999,
      "fzfg": false,
      "metar_trigger": false,
      "taf_trigger": false,
      "metar": "METAR ENZV 261050Z 00000KT CAVOK 01/M00 Q1034 NOSIG",
      "taf": "TAF ENZV 260500Z 2606/2706 VRB03KT CAVOK"
    },
    {
      "icao": "EPGD",
      "alert": "OK",
      "vis_m": 9999,
      "fzfg": false,
      "metar_trigger": false,
      "taf_trigger": false,
      "metar": "METAR EPGD 261100Z 30009KT 9999 OVC005 04/03 Q1028",
      "taf": ""
    },
    {
      "icao": "EPKK",
      "alert": "OK",
      "vis_m": 9999,
      "fzfg": false,
      "metar_trigger": false,
      "taf_trigger": false,
      "metar": "METAR EPKK 261100Z 25009KT 9999 BKN046 M03/M06 Q1029",
      "taf": "TAF EPKK 260830Z 2609/2709 25010KT 8000 OVC006"
    },
    {
      "icao": "EPKT",
      "alert": "OK",
      "vis_m": 4900,
      "fzfg": false,
      "metar_trigger": false,
      "taf_trigger": false,
      "metar": "METAR EPKT 261100Z 27008KT 4900 BR BKN049 M03/M06 Q1029",
      "taf": ""
    },
    {
      "icao": "EPLB",
      "alert": "OK",
      "vis_m": 6000,
      "fzfg": false,
      "metar_trigger": false,
      "taf_trigger": false,
      "metar": "METAR EPLB 261100Z 29015KT 6000 FEW007 OVC009 M03/M05 Q1025",
      "taf": ""
    },
    {
      "icao": "EPMO",
      "alert": "OK",
      "vis_m": 1100,
      "fzfg": false,
      "metar_trigger": false,
      "taf_trigger": false,
      "metar": "METAR EPMO 261100Z 25010KT 1100 R08/1200N -FZDZ BR OVC003 M03/M03 Q1028",
      "taf": ""
    },
    {
      "icao": "EPPO",
      "alert": "OK",
      "vis_m": 3100,
      "fzfg": false,
      "metar_trigger": false,
      "taf_trigger": false,
      "metar": "METAR EPPO 261100Z 27006KT 3100 -FZDZ BR OVC004 M04/M05 Q1032",
      "taf": ""
    },
    {
      "icao": "EPRA",
      "alert": "OK",
      "vis_m": 9000,
      "fzfg": false,
      "metar_trigger": false,
      "taf_trigger": false,
      "metar": "METAR EPRA 261100Z 29009KT 9000 OVC006 M03/M05 Q1028",
      "taf": "TAF EPRA 260830Z 2609/2618 29010KT 8000 OVC010"
    },
    {
      "icao": "EPRZ",
      "alert": "OK",
      "vis_m": 9999,
      "fzfg": false,
      "metar_trigger": false,
      "taf_trigger": false,
      "metar": "METAR EPRZ 261100Z 28012KT 9999 BKN017 M02/M08 Q1027",
      "taf": ""
    },
    {
      "icao": "EPSC",
      "alert": "OK",
      "vis_m": 9999,
      "fzfg": false,
      "metar_trigger": false,
      "taf_trigger": false,
      "metar": "METAR EPSC 261100Z VRB02KT 9999 OVC006 M01/M03 Q1032",
      "taf": "TAF EPSC 260530Z 2606/2706 24003KT 9999 OVC009"
    },
    {
      "icao": "EPSY",
      "alert": "OK",
      "vis_m": 1600,
      "fzfg": false,
      "metar_trigger": false,
      "taf_trigger": false,
      "metar": "METAR EPSY 261100Z 31007KT 1600 DZ BR OVC001 02/02 Q1026",
      "taf": "TAF EPSY 260830Z 2609/2618 30008KT 4000 BR OVC003"
    },
    {
      "icao": "EPWA",
      "alert": "OK",
      "vis_m": 1400,
      "fzfg": false,
      "metar_trigger": false,
      "taf_trigger": false,
      "metar": "METAR EPWA 261100Z 28011KT 1400 R33/1600U -SN BR OVC003 M04/M04 Q1028 REFZDZ NOSIG",
      "taf": ""
    },
    {
      "icao": "EPWR",
      "alert": "OK",
      "vis_m": 8000,
      "fzfg": false,
      "metar_trigger": false,
      "taf_trigger": false,
      "metar": "METAR EPWR 261100Z 29006KT 8000 SCT006 M04/M05 Q1032",
      "taf": "TAF EPWR 260830Z 2609/2709 29004KT 8000 OVC004"
    },
    {
      "icao": "ESGG",
      "alert": "OK",
      "vis_m": 2000,
      "fzfg": false,
      "metar_trigger": false,
      "taf_trigger": false,
      "metar": "METAR ESGG 261050Z 09003KT 2000 VV004 02/02 Q1032",
      "taf": ""
    },
    {
      "icao": "ESKN",
      "alert": "OK",
      "vis_m": 9999,
      "fzfg": false,
      "metar_trigger": false,
      "taf_trigger": false,
      "metar": "METAR ESKN 261050Z 28006KT CAVOK 04/02 Q1030",
      "taf": "TAF ESKN 260830Z 2609/2709 30008KT CAVOK"
    },
    {
      "icao": "ESMS",
      "alert": "OK",
      "vis_m": 8000,
      "fzfg": false,
      "metar_trigger": false,
      "taf_trigger": false,
      "metar": "METAR ESMS 261050Z 32008KT 8000 OVC003 04/04 Q1032",
      "taf": ""
    },
    {
      "icao": "ESSA",
      "alert": "OK",
      "vis_m": 9999,
      "fzfg": false,
      "metar_trigger": false,
      "taf_trigger": false,
      "metar": "METAR ESSA 261050Z 27006KT CAVOK 03/02 Q1029 NOSIG",
      "taf": "TAF ESSA 260830Z 2609/2709 29005KT CAVOK"
    },
    {
      "icao": "EYKA",
      "alert": "OK",
      "vis_m": 9999,
      "fzfg": false,
      "metar_trigger": false,
      "taf_trigger": false,
      "metar": "METAR EYKA 261050Z VRB05KT 9999 BKN014 05/02 Q1023",
      "taf": "TAF EYKA 261100Z 2612/2712 34010KT 8000 BKN015"
    },
    {
      "icao": "EYPA",
      "alert": "OK",
      "vis_m": 9999,
      "fzfg": false,
      "metar_trigger": false,
      "taf_trigger": false,
      "metar": "METAR EYPA 261120Z 01005KT 300V040 9999 OVC013 08/05 Q1026",
      "taf": "TAF EYPA 261100Z 2612/2712 36007KT 8000 BKN010"
    },
    {
      "icao": "EYVI",
      "alert": "OK",
      "vis_m": 9999,
      "fzfg": false,
      "metar_trigger": false,
      "taf_trigger": false,
      "metar": "METAR EYVI 261050Z 33012KT 9999 BKN013 03/01 Q1020 BECMG SCT010",
      "taf": "TAF EYVI 261100Z 2612/2712 32012KT 9000 FEW010"
    },
    {
      "icao": "GCFV",
      "alert": "OK",
      "vis_m": 9999,
      "fzfg": false,
      "metar_trigger": false,
      "taf_trigger": false,
      "metar": "METAR GCFV 261100Z 32010KT 280V360 9999 FEW030 20/12 Q1020",
      "taf": "TAF GCFV 260800Z 2609/2709 30006KT 9999 SCT035 TX22/2614Z TN15/2706Z"
    },
    {
      "icao": "GCLP",
      "alert": "OK",
      "vis_m": 9999,
      "fzfg": false,
      "metar_trigger": false,
      "taf_trigger": false,
      "metar": "METAR GCLP 261100Z 02008KT 330V060 9999 FEW045 20/10 Q1021 NOSIG",
      "taf": "TAF GCLP 260800Z 2609/2709 33005KT 9999 FEW040 TX22/2614Z TN15/2706Z"
    },
    {
      "icao": "GCTS",
      "alert": "OK",
      "vis_m": 9999,
      "fzfg": false,
      "metar_trigger": false,
      "taf_trigger": false,
      "metar": "METAR GCTS 261100Z 24006KT 200V260 9999 FEW035 20/07 Q1022 NOSIG",
      "taf": "TAF GCTS 260800Z 2609/2709 36005KT 9999 SCT040 TX23/2614Z TN15/2706Z"
    },
    {
      "icao": "GMAD",
      "alert": "OK",
      "vis_m": 9999,
      "fzfg": false,
      "metar_trigger": false,
      "taf_trigger": false,
      "metar": "METAR GMAD 261100Z 05007KT CAVOK 15/11 Q1018 NOSIG",
      "taf": "TAF GMAD 261100Z 2612/2718 06008KT 8000 SCT020"
    },
    {
      "icao": "GMMN",
      "alert": "OK",
      "vis_m": 9999,
      "fzfg": false,
      "metar_trigger": false,
      "taf_trigger": false,
      "metar": "METAR GMMN 261100Z 21011KT 9999 SCT026 SCT080 13/11 Q1016 NOSIG",
      "taf": "TAF GMMN 261100Z 2612/2718 22012KT 9999 SCT026 SCT080"
    },
    {
      "icao": "GMMX",
      "alert": "OK",
      "vis_m": 8000,
      "fzfg": false,
      "metar_trigger": false,
      "taf_trigger": false,
      "metar": "METAR GMMX 261100Z VRB02KT 8000 SCT020 13/08 Q1017 NOSIG",
      "taf": "TAF GMMX 260500Z 2606/2712 18008KT 8000 SCT020"
    },
    {
      "icao": "HEGN",
      "alert": "OK",
      "vis_m": 9999,
      "fzfg": false,
      "metar_trigger": false,
      "taf_trigger": false,
      "metar": "METAR HEGN 261100Z 34018KT CAVOK 22/10 Q1013 NOSIG",
      "taf": "TAF HEGN 261100Z 2612/2718 34016KT CAVOK"
    },
    {
      "icao": "HEMA",
      "alert": "OK",
      "vis_m": 9999,
      "fzfg": false,
      "metar_trigger": false,
      "taf_trigger": false,
      "metar": "METAR HEMA 261100Z 34016KT CAVOK 24/07 Q1014 NOSIG",
      "taf": "TAF HEMA 261100Z 2612/2718 35016KT CAVOK"
    },
    {
      "icao": "HESH",
      "alert": "OK",
      "vis_m": 9999,
      "fzfg": false,
      "metar_trigger": false,
      "taf_trigger": false,
      "metar": "METAR HESH 261100Z 36015KT CAVOK 24/03 Q1014 NOSIG",
      "taf": "TAF HESH 261100Z 2612/2718 01014KT CAVOK"
    },
    {
      "icao": "HESX",
      "alert": "OK",
      "vis_m": 9999,
      "fzfg": false,
      "metar_trigger": false,
      "taf_trigger": false,
      "metar": "METAR HESX 261100Z 35008KT 9999 SCT020 20/12 Q1018 NOSIG",
      "taf": "TAF HESX 261100Z 2612/2718 02008KT CAVOK"
    },
    {
      "icao": "LATI",
      "alert": "OK",
      "vis_m": 9999,
      "fzfg": false,
      "metar_trigger": false,
      "taf_trigger": false,
      "metar": "METAR LATI 261120Z 34004KT 300V030 CAVOK 15/05 Q1021 NOSIG",
      "taf": "TAF LATI 261100Z 2612/2712 VRB05KT CAVOK TX18/2612Z TN02/2705Z"
    },
    {
      "icao": "LBPD",
      "alert": "OK",
      "vis_m": 9999,
      "fzfg": false,
      "metar_trigger": false,
      "taf_trigger": false,
      "metar": "METAR LBPD 261100Z AUTO 31007KT 280V350 9999 OVC018/// 06/03 Q1024 NOSIG",
      "taf": "TAF LBPD 261100Z 2612/2712 28010KT 9999 SCT010 BKN020 OVC045"
    },
    {
      "icao": "LBSF",
      "alert": "OK",
      "vis_m": 9999,
      "fzfg": false,
      "metar_trigger": false,
      "taf_trigger": false,
      "metar": "METAR LBSF 261100Z 28006KT 9999 FEW011 BKN064 03/01 Q1024 NOSIG",
      "taf": "TAF LBSF 261100Z 2612/2712 30008KT 9999 SCT010 BKN025 OVC040"
    },
    {
      "icao": "LBWN",
      "alert": "OK",
      "vis_m": 9999,
      "fzfg": false,
      "metar_trigger": false,
      "taf_trigger": false,
      "metar": "METAR LBWN 261100Z AUTO 27014KT 9999 BKN014/// 03/M00 Q1022 NOSIG",
      "taf": "TAF LBWN 261100Z 2612/2712 27014KT 9999 BKN010 BKN030"
    },
    {
      "icao": "LCLK",
      "alert": "OK",
      "vis_m": 9999,
      "fzfg": false,
      "metar_trigger": false,
      "taf_trigger": false,
      "metar": "METAR LCLK 261100Z 35005KT 9999 FEW020 FEW025CB FEW030TCU SCT045 22/13 Q1014 TEMPO 5000 SHRA RMK CB TO N",
      "taf": ""
    },
    {
      "icao": "LCPH",
      "alert": "OK",
      "vis_m": 9999,
      "fzfg": false,
      "metar_trigger": false,
      "taf_trigger": false,
      "metar": "METAR LCPH 261100Z 32014KT 9999 FEW025 FEW035TCU 19/12 Q1014 NOSIG",
      "taf": ""
    },
    {
      "icao": "LEAL",
      "alert": "OK",
      "vis_m": 9999,
      "fzfg": false,
      "metar_trigger": false,
      "taf_trigger": false,
      "metar": "METAR LEAL 261100Z 30012KT 9999 SCT070 15/07 Q1010 NOSIG",
      "taf": "TAF LEAL 260500Z 2606/2706 31009KT 9999 SCT035 TX16/2612Z TN07/2606Z"
    },
    {
      "icao": "LEBB",
      "alert": "OK",
      "vis_m": 9999,
      "fzfg": false,
      "metar_trigger": false,
      "taf_trigger": false,
      "metar": "METAR LEBB 261100Z VRB01KT 9999 FEW010 SCT068 06/04 Q1016 NOSIG",
      "taf": "TAF LEBB 260500Z 2606/2706 VRB03KT 9999 FEW040 TX10/2615Z TN02/2706Z"
    },
    {
      "icao": "LEBL",
      "alert": "OK",
      "vis_m": 7000,
      "fzfg": false,
      "metar_trigger": false,
      "taf_trigger": false,
      "metar": "METAR LEBL 261100Z 11016KT 7000 -SHRA FEW015TCU BKN050 BKN060 13/12 Q1011 NOSIG",
      "taf": "TAF LEBL 260500Z 2606/2706 06014KT 9999 SCT014 TX14/2612Z TN11/2606Z"
    },
    {
      "icao": "LECH",
      "alert": "OK",
      "vis_m": 9999,
      "fzfg": false,
      "metar_trigger": false,
      "taf_trigger": false,
      "metar": "METAR LECH 261100Z AUTO 01006KT 300V070 9999 OVC020 09/06 Q1011",
      "taf": ""
    },
    {
      "icao": "LEMD",
      "alert": "OK",
      "vis_m": 9999,
      "fzfg": false,
      "metar_trigger": false,
      "taf_trigger": false,
      "metar": "METAR LEMD 261100Z VRB02KT 9999 FEW080 04/01 Q1013 NOSIG",
      "taf": "TAF LEMD 260500Z 2606/2712 VRB05KT 9999 SCT030 TX09/2614Z TN00/2706Z"
    },
    {
      "icao": "LEMG",
      "alert": "OK",
      "vis_m": 9999,
      "fzfg": false,
      "metar_trigger": false,
      "taf_trigger": false,
      "metar": "METAR LEMG 261100Z 28006KT 260V320 9999 FEW050 SCT065 14/06 Q1013 NOSIG",
      "taf": "TAF LEMG 260500Z 2606/2706 29007KT 9999 FEW040 TX15/2614Z TN06/2606Z"
    },
    {
      "icao": "LEVC",
      "alert": "OK",
      "vis_m": 9999,
      "fzfg": false,
      "metar_trigger": false,
      "taf_trigger": false,
      "metar": "METAR LEVC 261100Z 26005KT 230V290 9999 FEW017 BKN026 OVC043 11/08 Q1011 NOSIG",
      "taf": "TAF LEVC 260500Z 2606/2706 30007KT 9999 SCT025 TX14/2614Z TN08/2606Z"
    },
    {
      "icao": "LEXJ",
      "alert": "OK",
      "vis_m": 9999,
      "fzfg": false,
      "metar_trigger": false,
      "taf_trigger": false,
      "metar": "METAR LEXJ 261100Z 08003KT 030V120 9999 BKN080 06/02 Q1015",
      "taf": "TAF LEXJ 260800Z 2609/2709 VRB03KT 9999 SCT080 TX10/2614Z TN03/2609Z"
    },
    {
      "icao": "LEZG",
      "alert": "OK",
      "vis_m": 7000,
      "fzfg": false,
      "metar_trigger": false,
      "taf_trigger": false,
      "metar": "METAR LEZG 261100Z 27009KT 7000 -RA FEW010 BKN035 05/05 Q1014 NOSIG",
      "taf": "TAF LEZG 260500Z 2606/2706 28009KT 9999 BKN025 TX08/2614Z TN03/2606Z"
    },
    {
      "icao": "LEZL",
      "alert": "OK",
      "vis_m": 9999,
      "fzfg": false,
      "metar_trigger": false,
      "taf_trigger": false,
      "metar": "METAR LEZL 261100Z 02004KT 300V080 9999 FEW020 12/08 Q1014 NOSIG",
      "taf": "TAF LEZL 260800Z 2609/2709 VRB03KT CAVOK TX15/2615Z TN06/2707Z"
    },
    {
      "icao": "LFBD",
      "alert": "OK",
      "vis_m": 9999,
      "fzfg": false,
      "metar_trigger": false,
      "taf_trigger": false,
      "metar": "METAR LFBD 261100Z AUTO 06007KT CAVOK 07/03 Q1017 TEMPO 4000 -SHRA BKN040TCU",
      "taf": "TAF LFBD 260500Z 2606/2712 06005KT CAVOK TX10/2712Z TN01/2606Z"
    },
    {
      "icao": "LFLL",
      "alert": "OK",
      "vis_m": 8000,
      "fzfg": false,
      "metar_trigger": false,
      "taf_trigger": false,
      "metar": "METAR LFLL 261100Z AUTO 35004KT 300V030 8000 OVC009 02/M00 Q1023",
      "taf": "TAF LFLL 260500Z 2606/2712 VRB03KT 8000 OVC008"
    },
    {
      "icao": "LFLS",
      "alert": "OK",
      "vis_m": 9999,
      "fzfg": false,
      "metar_trigger": false,
      "taf_trigger": false,
      "metar": "METAR LFLS 261100Z AUTO 02004KT 340V070 CAVOK 04/01 Q1021 NOSIG",
      "taf": "TAF LFLS 260800Z 2609/2709 07006KT 9999 FEW015"
    },
    {
      "icao": "LFMN",
      "alert": "OK",
      "vis_m": 9999,
      "fzfg": false,
      "metar_trigger": false,
      "taf_trigger": false,
      "metar": "METAR LFMN 261100Z 07013KT 9999 BKN100 16/05 Q1020 NOSIG",
      "taf": "TAF LFMN 260800Z 2609/2715 08020G30KT CAVOK"
    },
    {
      "icao": "LFOB",
      "alert": "OK",
      "vis_m": 9000,
      "fzfg": false,
      "metar_trigger": false,
      "taf_trigger": false,
      "metar": "METAR LFOB 261100Z AUTO 07010KT 9000 NSC 00/M02 Q1026 NOSIG",
      "taf": "TAF LFOB 261100Z 2612/2712 07008KT CAVOK"
    },
    {
      "icao": "LFPO",
      "alert": "OK",
      "vis_m": 9999,
      "fzfg": false,
      "metar_trigger": false,
      "taf_trigger": false,
      "metar": "METAR LFPO 261100Z AUTO 07007KT CAVOK 02/M02 Q1025 NOSIG",
      "taf": "TAF LFPO 260500Z 2606/2712 03006KT CAVOK"
    },
    {
      "icao": "LFSB",
      "alert": "OK",
      "vis_m": 7000,
      "fzfg": false,
      "metar_trigger": false,
      "taf_trigger": false,
      "metar": "METAR LFSB 261100Z AUTO 34008KT 7000 OVC015 M00/M02 Q1025 NOSIG",
      "taf": ""
    },
    {
      "icao": "LGAV",
      "alert": "OK",
      "vis_m": 9999,
      "fzfg": false,
      "metar_trigger": false,
      "taf_trigger": false,
      "metar": "METAR LGAV 261050Z 03016KT 9999 FEW020 SCT040 14/08 Q1021 NOSIG",
      "taf": "TAF LGAV 261100Z 2612/2712 02014KT 9999 FEW018 SCT030"
    },
    {
      "icao": "LGTS",
      "alert": "OK",
      "vis_m": 9999,
      "fzfg": false,
      "metar_trigger": false,
      "taf_trigger": false,
      "metar": "METAR LGTS 261050Z 28004KT 9999 FEW020 BKN035 11/05 Q1024 NOSIG",
      "taf": "TAF LGTS 261100Z 2612/2712 VRB03KT 9999 FEW012 BKN025"
    },
    {
      "icao": "LHBP",
      "alert": "OK",
      "vis_m": 9999,
      "fzfg": false,
      "metar_trigger": false,
      "taf_trigger": false,
      "metar": "METAR LHBP 261100Z 25006KT 220V280 CAVOK 05/M01 Q1028 NOSIG",
      "taf": "TAF LHBP 260515Z 2606/2706 VRB03KT CAVOK"
    },
    {
      "icao": "LHDC",
      "alert": "OK",
      "vis_m": 9999,
      "fzfg": false,
      "metar_trigger": false,
      "taf_trigger": false,
      "metar": "METAR LHDC 261045Z AUTO 23007KT 170V260 CAVOK 02/M02 Q1028",
      "taf": ""
    },
    {
      "icao": "LIBD",
      "alert": "OK",
      "vis_m": 9999,
      "fzfg": false,
      "metar_trigger": false,
      "taf_trigger": false,
      "metar": "METAR LIBD 261050Z 32005KT 300V360 9999 SCT025 12/10 Q1022",
      "taf": "TAF LIBD 261100Z 2612/2712 VRB05KT 9999 SCT020"
    },
    {
      "icao": "LIBG",
      "alert": "OK",
      "vis_m": 9999,
      "fzfg": false,
      "metar_trigger": false,
      "taf_trigger": false,
      "metar": "METAR LIBG 261050Z 07005KT 9999 SCT020 15/14 Q1021",
      "taf": "TAF LIBG 261100Z 2612/2621 02010KT 9999 SCT020"
    },
    {
      "icao": "LIBP",
      "alert": "OK",
      "vis_m": 9999,
      "fzfg": false,
      "metar_trigger": false,
      "taf_trigger": false,
      "metar": "METAR LIBP 261050Z AUTO 01003KT 330V060 9999 -RA OVC016/// 11/11 Q1024",
      "taf": "TAF LIBP 261100Z 2612/2712 35010KT 9999 OVC020"
    },
    {
      "icao": "LIBR",
      "alert": "OK",
      "vis_m": 9999,
      "fzfg": false,
      "metar_trigger": false,
      "taf_trigger": false,
      "metar": "METAR LIBR 261050Z 05005KT 9999 FEW030 15/11 Q1021",
      "taf": "TAF LIBR 261100Z 2612/2712 04010KT 9999 SCT040"
    },
    {
      "icao": "LICA",
      "alert": "OK",
      "vis_m": 9999,
      "fzfg": false,
      "metar_trigger": false,
      "taf_trigger": false,
      "metar": "METAR LICA 261050Z AUTO 08013KT 9999 NCD 17/10 Q1019",
      "taf": "TAF LICA 260500Z 2606/2706 06010KT CAVOK"
    },
    {
      "icao": "LICC",
      "alert": "OK",
      "vis_m": 9999,
      "fzfg": false,
      "metar_trigger": false,
      "taf_trigger": false,
      "metar": "METAR LICC 261050Z 05008KT 9999 SCT040TCU BKN120 17/15 Q1018",
      "taf": "TAF LICC 260500Z 2606/2706 VRB05KT CAVOK"
    },
    {
      "icao": "LICJ",
      "alert": "OK",
      "vis_m": 9999,
      "fzfg": false,
      "metar_trigger": false,
      "taf_trigger": false,
      "metar": "METAR LICJ 261050Z 25003KT CAVOK 17/10 Q1017",
      "taf": "TAF LICJ 260500Z 2606/2706 16008KT CAVOK"
    },
    {
      "icao": "LIMC",
      "alert": "OK",
      "vis_m": 9999,
      "fzfg": false,
      "metar_trigger": false,
      "taf_trigger": false,
      "metar": "METAR LIMC 261050Z VRB07KT CAVOK 08/04 Q1027 NOSIG",
      "taf": "TAF LIMC 261100Z 2612/2718 VRB05KT 9999 FEW040"
    },
    {
      "icao": "LIME",
      "alert": "OK",
      "vis_m": 9999,
      "fzfg": false,
      "metar_trigger": false,
      "taf_trigger": false,
      "metar": "METAR LIME 261050Z 26005KT 220V290 9999 FEW015 07/04 Q1027 NOSIG",
      "taf": "TAF LIME 261100Z 2612/2712 VRB05KT 9999 SCT020"
    },
    {
      "icao": "LIMF",
      "alert": "OK",
      "vis_m": 9999,
      "fzfg": false,
      "metar_trigger": false,
      "taf_trigger": false,
      "metar": "METAR LIMF 261050Z 18005KT CAVOK 07/03 Q1027",
      "taf": "TAF LIMF 261100Z 2612/2712 VRB05KT 6000 SCT040"
    },
    {
      "icao": "LIMJ",
      "alert": "OK",
      "vis_m": 9999,
      "fzfg": false,
      "metar_trigger": false,
      "taf_trigger": false,
      "metar": "METAR LIMJ 261050Z 35009KT 300V030 CAVOK 10/03 Q1025",
      "taf": "TAF LIMJ 261100Z 2612/2712 01018G28KT 9999 FEW040"
    },
    {
      "icao": "LIPE",
      "alert": "OK",
      "vis_m": 9999,
      "fzfg": false,
      "metar_trigger": false,
      "taf_trigger": false,
      "metar": "METAR LIPE 261050Z 30006KT 260V350 CAVOK 07/02 Q1028",
      "taf": "TAF LIPE 261100Z 2612/2712 28007KT 9999 SCT020"
    },
    {
      "icao": "LIPH",
      "alert": "OK",
      "vis_m": 9999,
      "fzfg": false,
      "metar_trigger": false,
      "taf_trigger": false,
      "metar": "METAR LIPH 261050Z 36005KT 330V030 CAVOK 09/M00 Q1027",
      "taf": "TAF LIPH 261100Z 2612/2712 VRB04KT CAVOK"
    },
    {
      "icao": "LIPQ",
      "alert": "OK",
      "vis_m": 9999,
      "fzfg": false,
      "metar_trigger": false,
      "taf_trigger": false,
      "metar": "METAR LIPQ 261050Z AUTO 09012KT 9999 NCD 10/M01 Q1027",
      "taf": "TAF LIPQ 261100Z 2612/2712 08010KT CAVOK"
    },
    {
      "icao": "LIPR",
      "alert": "OK",
      "vis_m": 9999,
      "fzfg": false,
      "metar_trigger": false,
      "taf_trigger": false,
      "metar": "METAR LIPR 261050Z 29010KT 9999 BKN035 07/04 Q1026",
      "taf": "TAF LIPR 261100Z 2612/2712 31010KT 9999 BKN030"
    },
    {
      "icao": "LIPX",
      "alert": "OK",
      "vis_m": 9999,
      "fzfg": false,
      "metar_trigger": false,
      "taf_trigger": false,
      "metar": "METAR LIPX 261050Z VRB02KT 9999 SCT040 09/02 Q1027",
      "taf": "TAF LIPX 261100Z 2612/2712 VRB05KT 9999 FEW040"
    },
    {
      "icao": "LIPY",
      "alert": "OK",
      "vis_m": 9999,
      "fzfg": false,
      "metar_trigger": false,
      "taf_trigger": false,
      "metar": "METAR LIPY 261050Z AUTO 36008KT 9999 SCT034/// OVC063/// 12/04 Q1025",
      "taf": "TAF LIPY 261100Z 2612/2712 35011KT 9999 SCT020"
    },
    {
      "icao": "LIPZ",
      "alert": "OK",
      "vis_m": 9999,
      "fzfg": false,
      "metar_trigger": false,
      "taf_trigger": false,
      "metar": "METAR LIPZ 261050Z 05011KT CAVOK 08/M00 Q1027 NOSIG",
      "taf": "TAF LIPZ 261100Z 2612/2718 04010KT CAVOK"
    },
    {
      "icao": "LIRF",
      "alert": "OK",
      "vis_m": 9999,
      "fzfg": false,
      "metar_trigger": false,
      "taf_trigger": false,
      "metar": "METAR LIRF 261050Z 05010KT CAVOK 14/06 Q1020 NOSIG",
      "taf": "TAF LIRF 261100Z 2612/2718 05012KT CAVOK"
    },
    {
      "icao": "LIRN",
      "alert": "OK",
      "vis_m": 9999,
      "fzfg": false,
      "metar_trigger": false,
      "taf_trigger": false,
      "metar": "METAR LIRN 261050Z 07006KT 020V120 CAVOK 16/06 Q1020 NOSIG",
      "taf": "TAF LIRN 260500Z 2606/2706 VRB05KT CAVOK"
    },
    {
      "icao": "LIRP",
      "alert": "OK",
      "vis_m": 9999,
      "fzfg": false,
      "metar_trigger": false,
      "taf_trigger": false,
      "metar": "METAR LIRP 261045Z 10012KT CAVOK 12/05 Q1023 NOSIG",
      "taf": "TAF LIRP 261100Z 2612/2712 13012KT CAVOK"
    },
    {
      "icao": "LIRZ",
      "alert": "OK",
      "vis_m": 9999,
      "fzfg": false,
      "metar_trigger": false,
      "taf_trigger": false,
      "metar": "METAR LIRZ 261050Z AUTO 03012KT 9999 NCD 12/06 Q1022",
      "taf": "TAF LIRZ 260500Z 2606/2706 04012KT 9999 FEW030"
    },
    {
      "icao": "LJLJ",
      "alert": "OK",
      "vis_m": 9999,
      "fzfg": false,
      "metar_trigger": false,
      "taf_trigger": false,
      "metar": "METAR LJLJ 261100Z 11003KT 070V140 9999 BKN010 BKN040 03/00 Q1029 NOSIG",
      "taf": "TAF LJLJ 261100Z 2612/2712 VRB02KT 9999 SCT007 BKN040"
    },
    {
      "icao": "LKMT",
      "alert": "OK",
      "vis_m": 1400,
      "fzfg": false,
      "metar_trigger": false,
      "taf_trigger": false,
      "metar": "METAR LKMT 261100Z VRB01KT 1400 R22/P2000N R04/P2000N BR OVC002 M04/M05 Q1031 TEMPO 2000 BR",
      "taf": "TAF LKMT 261100Z 2612/2712 VRB02KT 1800 BR BKN004"
    },
    {
      "icao": "LKPR",
      "alert": "OK",
      "vis_m": 9000,
      "fzfg": false,
      "metar_trigger": false,
      "taf_trigger": false,
      "metar": "METAR LKPR 261100Z VRB02KT 9000 NSC M02/M04 Q1030 NOSIG",
      "taf": "TAF LKPR 261100Z 2612/2718 30004KT CAVOK"
    },
    {
      "icao": "LLBG",
      "alert": "OK",
      "vis_m": 9999,
      "fzfg": false,
      "metar_trigger": false,
      "taf_trigger": false,
      "metar": "METAR LLBG 261050Z VRB02KT 9999 FEW025 20/08 Q1015 NOSIG",
      "taf": "TAF LLBG 261105Z 2612/2712 29008KT 9999 SCT030"
    },
    {
      "icao": "LMML",
      "alert": "OK",
      "vis_m": 9999,
      "fzfg": false,
      "metar_trigger": false,
      "taf_trigger": false,
      "metar": "METAR LMML 261115Z 11018KT 9999 FEW030 17/12 Q1017 NOSIG",
      "taf": "TAF LMML 261100Z 2612/2712 12017KT 9999 FEW030"
    },
    {
      "icao": "LOWW",
      "alert": "OK",
      "vis_m": 9999,
      "fzfg": false,
      "metar_trigger": false,
      "taf_trigger": false,
      "metar": "METAR LOWW 261050Z 30004KT 260V350 CAVOK 00/M03 Q1030 NOSIG",
      "taf": "TAF LOWW 261115Z 2612/2718 01004KT CAVOK TX03/2713Z TNM02/2704Z"
    },
    {
      "icao": "LPFR",
      "alert": "OK",
      "vis_m": 9999,
      "fzfg": false,
      "metar_trigger": false,
      "taf_trigger": false,
      "metar": "METAR LPFR 261100Z 28007KT CAVOK 11/06 Q1015",
      "taf": "TAF LPFR 261100Z 2612/2712 25007KT CAVOK"
    },
    {
      "icao": "LPMA",
      "alert": "OK",
      "vis_m": 9999,
      "fzfg": false,
      "metar_trigger": false,
      "taf_trigger": false,
      "metar": "METAR LPMA 261100Z 12004KT 090V160 9999 FEW015 19/12 Q1020",
      "taf": "TAF LPMA 261100Z 2612/2712 VRB05KT 9999 SCT015"
    },
    {
      "icao": "LPPR",
      "alert": "OK",
      "vis_m": 9999,
      "fzfg": false,
      "metar_trigger": false,
      "taf_trigger": false,
      "metar": "METAR LPPR 261100Z 13011KT 9999 SCT046 09/03 Q1013",
      "taf": "TAF LPPR 261100Z 2612/2712 12010KT CAVOK"
    },
    {
      "icao": "LPPS",
      "alert": "OK",
      "vis_m": 9999,
      "fzfg": false,
      "metar_trigger": false,
      "taf_trigger": false,
      "metar": "METAR LPPS 261100Z 29012KT 9999 FEW015 18/12 Q1020",
      "taf": "TAF LPPS 261100Z 2612/2718 29013KT 9999 SCT015"
    },
    {
      "icao": "LPPT",
      "alert": "OK",
      "vis_m": 9999,
      "fzfg": false,
      "metar_trigger": false,
      "taf_trigger": false,
      "metar": "METAR LPPT 261100Z 08004KT 320V110 9999 FEW010 10/07 Q1014",
      "taf": "TAF LPPT 261100Z 2612/2718 08005KT 9999 SCT030"
    },
    {
      "icao": "LQBK",
      "alert": "OK",
      "vis_m": 9999,
      "fzfg": false,
      "metar_trigger": false,
      "taf_trigger": false,
      "metar": "METAR LQBK 261100Z 04003KT 360V080 9999 BKN007 OVC010 02/00 Q1031 NOSIG",
      "taf": "TAF LQBK 261100Z 2612/2712 02005KT 8000 SCT012 BKN025 TX03/2613Z TNM03/2705Z"
    },
    {
      "icao": "LQSA",
      "alert": "OK",
      "vis_m": 9999,
      "fzfg": false,
      "metar_trigger": false,
      "taf_trigger": false,
      "metar": "METAR LQSA 261100Z VRB02KT 9999 SCT015 OVC022 02/00 Q1027 NOSIG",
      "taf": "TAF LQSA 261100Z 2612/2712 VRB02KT 9999 SCT015 BKN025 TX03/2613Z TNM00/2705Z"
    },
    {
      "icao": "LQTZ",
      "alert": "OK",
      "vis_m": 7000,
      "fzfg": false,
      "metar_trigger": false,
      "taf_trigger": false,
      "metar": "METAR LQTZ 261100Z 28003KT 7000 BKN008 OVC013 02/01 Q1029",
      "taf": "TAF LQTZ 261100Z 2612/2712 29004KT 8000 SCT012 BKN025 TX03/2613Z TNM04/2705Z"
    },
    {
      "icao": "LRBC",
      "alert": "OK",
      "vis_m": 8000,
      "fzfg": false,
      "metar_trigger": false,
      "taf_trigger": false,
      "metar": "METAR LRBC 261100Z COR VRB02KT 8000 NSC M04/M05 Q1020",
      "taf": "TAF LRBC 260800Z 2609/2618 VRB04KT 9999 BKN005"
    },
    {
      "icao": "LRBS",
      "alert": "OK",
      "vis_m": 9999,
      "fzfg": false,
      "metar_trigger": false,
      "taf_trigger": false,
      "metar": "METAR LRBS 261100Z 27014KT 240V310 9999 FEW016 01/M04 Q1023 NOSIG",
      "taf": "TAF LRBS 260500Z 2606/2706 25010KT CAVOK"
    },
    {
      "icao": "LRBV",
      "alert": "OK",
      "vis_m": 9999,
      "fzfg": false,
      "metar_trigger": false,
      "taf_trigger": false,
      "metar": "METAR LRBV 261100Z 29013KT 9999 SCT025 OVC038 03/M01 Q1022",
      "taf": "TAF LRBV 260800Z 2609/2618 VRB04KT 9999 BKN050"
    },
    {
      "icao": "LRCL",
      "alert": "OK",
      "vis_m": 9999,
      "fzfg": false,
      "metar_trigger": false,
      "taf_trigger": false,
      "metar": "METAR LRCL 261100Z 27012KT CAVOK 04/M02 Q1025",
      "taf": "TAF LRCL 260800Z 2609/2618 28009KT CAVOK"
    },
    {
      "icao": "LRCV",
      "alert": "OK",
      "vis_m": 9999,
      "fzfg": false,
      "metar_trigger": false,
      "taf_trigger": false,
      "metar": "METAR LRCV 261100Z 25009KT 9999 FEW004 SCT006 M02/M03 Q1025",
      "taf": "TAF LRCV 260800Z 2609/2618 25009KT 9999 BKN010"
    },
    {
      "icao": "LRIA",
      "alert": "OK",
      "vis_m": 9999,
      "fzfg": false,
      "metar_trigger": false,
      "taf_trigger": false,
      "metar": "METAR LRIA 261100Z 26008KT 220V320 9999 SCT035 M01/M05 Q1019",
      "taf": "TAF LRIA 260800Z 2609/2618 24007KT 5000 BR BKN003"
    },
    {
      "icao": "LROP",
      "alert": "OK",
      "vis_m": 9999,
      "fzfg": false,
      "metar_trigger": false,
      "taf_trigger": false,
      "metar": "METAR LROP 261100Z 25017KT CAVOK 01/M05 Q1023 NOSIG",
      "taf": "TAF LROP 260500Z 2606/2706 25010KT CAVOK"
    },
    {
      "icao": "LRSB",
      "alert": "OK",
      "vis_m": 9999,
      "fzfg": false,
      "metar_trigger": false,
      "taf_trigger": false,
      "metar": "METAR LRSB 261100Z 29003KT 220V320 9999 FEW009 BKN065 02/M01 Q1024",
      "taf": "TAF LRSB 260500Z 2606/2706 VRB04KT 9999 BKN070"
    },
    {
      "icao": "LRSM",
      "alert": "OK",
      "vis_m": 9999,
      "fzfg": false,
      "metar_trigger": false,
      "taf_trigger": false,
      "metar": "METAR LRSM 261100Z 27008KT CAVOK 00/M03 Q1027",
      "taf": "TAF LRSM 260800Z 2609/2618 VRB04KT CAVOK"
    },
    {
      "icao": "LRSV",
      "alert": "OK",
      "vis_m": 9999,
      "fzfg": false,
      "metar_trigger": false,
      "taf_trigger": false,
      "metar": "METAR LRSV 261100Z 32023KT 9999 BKN046 M01/M07 Q1018",
      "taf": "TAF LRSV 260800Z 2609/2618 30009KT 9999 SCT040"
    },
    {
      "icao": "LRTM",
      "alert": "OK",
      "vis_m": 9999,
      "fzfg": false,
      "metar_trigger": false,
      "taf_trigger": false,
      "metar": "METAR LRTM 261100Z 23007KT 9999 FEW039 02/M01 Q1025",
      "taf": "TAF LRTM 260800Z 2609/2618 VRB04KT CAVOK"
    },
    {
      "icao": "LRTR",
      "alert": "OK",
      "vis_m": 9999,
      "fzfg": false,
      "metar_trigger": false,
      "taf_trigger": false,
      "metar": "METAR LRTR 261100Z 32006KT 9999 OVC008 02/02 Q1029",
      "taf": "TAF LRTR 260500Z 2606/2706 28006KT 5000 BR OVC005"
    },
    {
      "icao": "LTAC",
      "alert": "OK",
      "vis_m": 9999,
      "fzfg": false,
      "metar_trigger": false,
      "taf_trigger": false,
      "metar": "METAR LTAC 261050Z 26004KT 9999 BKN025 BKN080 06/02 Q1016 NOSIG RMK RWY21C 27006KT RWY03L 25003KT 210V280 RWY21R 25005KT RWY03R VRB02KT RWY21L 26005KT",
      "taf": "TAF LTAC 261040Z 2612/2712 29012KT 9999 BKN025 BKN080"
    },
    {
      "icao": "LTFM",
      "alert": "OK",
      "vis_m": 9999,
      "fzfg": false,
      "metar_trigger": false,
      "taf_trigger": false,
      "metar": "METAR LTFM 261050Z 01012KT 9999 BKN032 08/01 Q1022 NOSIG RMK RWY17L 03011KT RWY34L 01011KT RWY16R 01011KT RWY36 01011KT RWY18 01010KT",
      "taf": "TAF LTFM 261040Z 2612/2718 35012KT 9999 BKN032"
    },
    {
      "icao": "LUKK",
      "alert": "OK",
      "vis_m": 9999,
      "fzfg": false,
      "metar_trigger": false,
      "taf_trigger": false,
      "metar": "METAR LUKK 261100Z 35007KT 300V020 9999 -SN SCT026 BKN035 OVC042 M02/M09 Q1018 TEMPO 30016G26KT 5000 SN BKN010",
      "taf": "TAF LUKK 260515Z 2606/2706 29008KT 9999 SCT035"
    },
    {
      "icao": "LWOH",
      "alert": "OK",
      "vis_m": 9999,
      "fzfg": false,
      "metar_trigger": false,
      "taf_trigger": false,
      "metar": "METAR LWOH 261120Z 30007KT 270V350 9999 FEW020 SCT035 08/03 Q1022",
      "taf": "TAF LWOH 261111Z 2612/2712 31010KT 9999 FEW020 BKN035"
    },
    {
      "icao": "LWSK",
      "alert": "OK",
      "vis_m": 9999,
      "fzfg": false,
      "metar_trigger": false,
      "taf_trigger": false,
      "metar": "METAR LWSK 261120Z VRB01KT 9999 BKN015 OVC033 05/01 Q1026 NOSIG",
      "taf": "TAF LWSK 261111Z 2612/2712 VRB03KT 9999 SCT015 OVC030"
    },
    {
      "icao": "LYBE",
      "alert": "OK",
      "vis_m": 9999,
      "fzfg": false,
      "metar_trigger": false,
      "taf_trigger": false,
      "metar": "METAR LYBE 261100Z VRB05KT 9999 SCT015 BKN030 02/M02 Q1030 NOSIG",
      "taf": "TAF LYBE 261100Z 2612/2712 27005KT 9999 BKN015 BKN030 TX03/2612Z TNM00/2706Z"
    },
    {
      "icao": "LYNI",
      "alert": "OK",
      "vis_m": 9999,
      "fzfg": false,
      "metar_trigger": false,
      "taf_trigger": false,
      "metar": "METAR LYNI 261100Z 31005KT 250V360 9999 SCT015 BKN020 00/M03 Q1029 NOSIG",
      "taf": "TAF LYNI 261100Z 2612/2712 30007KT 9999 SCT010 OVC020 TX02/2712Z TN00/2706Z"
    },
    {
      "icao": "LYPG",
      "alert": "OK",
      "vis_m": 9999,
      "fzfg": false,
      "metar_trigger": false,
      "taf_trigger": false,
      "metar": "METAR LYPG 261100Z VRB01KT CAVOK 11/03 Q1023 NOSIG",
      "taf": "TAF LYPG 261100Z 2612/2712 18005KT CAVOK TX13/2613Z TN05/2705Z"
    },
    {
      "icao": "LZIB",
      "alert": "OK",
      "vis_m": 9999,
      "fzfg": false,
      "metar_trigger": false,
      "taf_trigger": false,
      "metar": "METAR LZIB 261100Z 21006KT 190V250 CAVOK 03/M02 Q1029 NOSIG",
      "taf": "TAF LZIB 261115Z 2612/2712 21006KT 9999 FEW045"
    },
    {
      "icao": "LZKZ",
      "alert": "OK",
      "vis_m": 9999,
      "fzfg": false,
      "metar_trigger": false,
      "taf_trigger": false,
      "metar": "METAR LZKZ 261100Z 00000KT CAVOK 01/M03 Q1027 NOSIG",
      "taf": "TAF LZKZ 261115Z 2612/2712 VRB02KT CAVOK"
    },
    {
      "icao": "LZTT",
      "alert": "OK",
      "vis_m": 9999,
      "fzfg": false,
      "metar_trigger": false,
      "taf_trigger": false,
      "metar": "METAR LZTT 261100Z 35004KT 300V030 9999 BKN073 00/M03 Q1025 NOSIG",
      "taf": "TAF LZTT 261115Z 2612/2712 28005KT 9999 SCT070"
    },
    {
      "icao": "OEJN",
      "alert": "OK",
      "vis_m": 9999,
      "fzfg": false,
      "metar_trigger": false,
      "taf_trigger": false,
      "metar": "METAR OEJN 261100Z 29009KT 9999 FEW040 28/23 Q1010 NOSIG",
      "taf": "TAF OEJN 261100Z 2612/2718 30010KT 9999 SCT040"
    },
    {
      "icao": "OEMA",
      "alert": "OK",
      "vis_m": 9999,
      "fzfg": false,
      "metar_trigger": false,
      "taf_trigger": false,
      "metar": "METAR OEMA 261100Z 28004KT 9999 FEW040 25/09 Q1013 NOSIG",
      "taf": "TAF OEMA 261100Z 2612/2718 26010KT 9999 SCT045"
    },
    {
      "icao": "OJAI",
      "alert": "OK",
      "vis_m": 4000,
      "fzfg": false,
      "metar_trigger": false,
      "taf_trigger": false,
      "metar": "METAR OJAI 261100Z 17003KT 4000 HZ NSC 15/04 Q1016 NOSIG",
      "taf": "TAF OJAI 261045Z 2612/2718 28010KT 4000 HZ NSC"
    },
    {
      "icao": "OMAA",
      "alert": "OK",
      "vis_m": 9999,
      "fzfg": false,
      "metar_trigger": false,
      "taf_trigger": false,
      "metar": "METAR OMAA 261100Z 30012KT 270V340 9999 SCT030 24/17 Q1013 NOSIG",
      "taf": "TAF OMAA 261100Z 2612/2718 32013KT 8000 FEW030"
    },
    {
      "icao": "OMDB",
      "alert": "OK",
      "vis_m": 9000,
      "fzfg": false,
      "metar_trigger": false,
      "taf_trigger": false,
      "metar": "METAR OMDB 261100Z 35006KT 290V070 9000 FEW036 25/14 Q1013 NOSIG",
      "taf": "TAF OMDB 261100Z 2612/2718 33010KT 8000 FEW040"
    },
    {
      "icao": "UAAA",
      "alert": "OK",
      "vis_m": 2500,
      "fzfg": false,
      "metar_trigger": false,
      "taf_trigger": false,
      "metar": "METAR UAAA 261100Z 24002MPS 2500 -RA BR BKN011 OVC018 02/01 Q1022 NOSIG",
      "taf": "TAF UAAA 261106Z 2612/2712 24003G08MPS 1500 BR SCT007 BKN015CB OVC030 TX00/2709Z TNM04/2701Z"
    },
    {
      "icao": "UBBB",
      "alert": "OK",
      "vis_m": 9999,
      "fzfg": false,
      "metar_trigger": false,
      "taf_trigger": false,
      "metar": "METAR UBBB 261100Z 22006KT 9999 SCT008 OVC018 07/06 Q1016 NOSIG",
      "taf": "TAF UBBB 261057Z 2612/2712 17005KT 9999 BKN008 OVC017 TX06/2612Z TN03/2701Z"
    },
    {
      "icao": "UDSG",
      "alert": "OK",
      "vis_m": 6000,
      "fzfg": false,
      "metar_trigger": false,
      "taf_trigger": false,
      "metar": "METAR UDSG 261100Z 06001KT 6000 OVC026 01/M02 Q1013 NOSIG",
      "taf": "TAF UDSG 261058Z 2612/2712 VRB06KT 3000 BR OVC020"
    },
    {
      "icao": "UDYZ",
      "alert": "OK",
      "vis_m": 6000,
      "fzfg": false,
      "metar_trigger": false,
      "taf_trigger": false,
      "metar": "METAR UDYZ 261100Z 09002KT 6000 BKN046 05/M01 Q1015 NOSIG",
      "taf": "TAF UDYZ 261100Z 2612/2712 VRB04KT 3500 BR BKN030"
    },
    {
      "icao": "UGKO",
      "alert": "OK",
      "vis_m": 9999,
      "fzfg": false,
      "metar_trigger": false,
      "taf_trigger": false,
      "metar": "METAR UGKO 261100Z VRB02KT 9999 BKN085 11/02 Q1016 NOSIG",
      "taf": "TAF UGKO 261100Z 2612/2712 09006KT 9999 OVC050 TX10/2612Z TN03/2703Z"
    }
  ]
}