{
  "ts_utc": "2026-03-17T03:42:44Z",
  "threshold_m": 150,
  "source": "stations_override.txt (ICAO list) + aviationweather.gov (METAR/TAF raw)",
  "station_count": 159,
  "stations": [
    {
      "icao": "BIKF",
      "alert": "OK",
      "vis_m": 9999,
      "fzfg": false,
      "metar_trigger": false,
      "taf_trigger": false,
      "metar": "METAR BIKF 170330Z 02018KT 9999 FEW021 BKN230 01/M03 Q0977",
      "taf": "TAF BIKF 170131Z 1703/1803 03023G36KT 9999 FEW035 TX02/1714Z TN00/1704Z"
    },
    {
      "icao": "BKPR",
      "alert": "OK",
      "vis_m": 9999,
      "fzfg": false,
      "metar_trigger": false,
      "taf_trigger": false,
      "metar": "METAR BKPR 170330Z 04002KT 9999 SCT085 05/01 Q1015 NOSIG",
      "taf": "TAF BKPR 162330Z 1700/1724 01008KT 9999 BKN080"
    },
    {
      "icao": "EBCI",
      "alert": "OK",
      "vis_m": 9999,
      "fzfg": false,
      "metar_trigger": false,
      "taf_trigger": false,
      "metar": "METAR EBCI 170320Z 20006KT 9999 BKN020 08/06 Q1020 NOSIG",
      "taf": "TAF EBCI 162310Z 1700/1806 21007KT 9999 SCT020 BKN040"
    },
    {
      "icao": "EDDB",
      "alert": "OK",
      "vis_m": 1900,
      "fzfg": true,
      "metar_trigger": false,
      "taf_trigger": false,
      "metar": "METAR EDDB 170320Z AUTO 24002KT 1900 0450 R24R/1500U R24L/1000U BCFG NCD M01/M01 Q1021 TEMPO 0900 FZFG",
      "taf": "TAF EDDB 162300Z 1700/1724 27007KT CAVOK"
    },
    {
      "icao": "EDDH",
      "alert": "OK",
      "vis_m": 9999,
      "fzfg": false,
      "metar_trigger": false,
      "taf_trigger": false,
      "metar": "METAR EDDH 170320Z AUTO 14003KT CAVOK 00/M01 Q1019 NOSIG",
      "taf": "TAF EDDH 162300Z 1700/1806 22004KT CAVOK"
    },
    {
      "icao": "EDDK",
      "alert": "OK",
      "vis_m": 9999,
      "fzfg": false,
      "metar_trigger": false,
      "taf_trigger": false,
      "metar": "METAR EDDK 170320Z AUTO 13006KT 9999 SCT022 SCT049 06/04 Q1020 NOSIG",
      "taf": "TAF EDDK 162300Z 1700/1806 12005KT 9999 BKN020"
    },
    {
      "icao": "EDDN",
      "alert": "OK",
      "vis_m": 8000,
      "fzfg": false,
      "metar_trigger": false,
      "taf_trigger": false,
      "metar": "METAR EDDN 170320Z AUTO 11007KT 8000 NSC M01/M01 Q1022",
      "taf": "TAF EDDN 162300Z 1700/1724 12004KT 9999 SCT030"
    },
    {
      "icao": "EDDS",
      "alert": "OK",
      "vis_m": 9999,
      "fzfg": false,
      "metar_trigger": false,
      "taf_trigger": false,
      "metar": "METAR EDDS 170320Z AUTO 24006KT 190V270 9999 -SHRA SCT020 BKN030 BKN038 FEW///TCU 05/03 Q1021",
      "taf": "TAF EDDS 162300Z 1700/1724 VRB03KT 9999 SCT040"
    },
    {
      "icao": "EDFH",
      "alert": "OK",
      "vis_m": 9999,
      "fzfg": false,
      "metar_trigger": false,
      "taf_trigger": false,
      "metar": "METAR EDFH 170320Z 25004KT 9999 SCT007 BKN036 05/04 Q1020",
      "taf": ""
    },
    {
      "icao": "EDJA",
      "alert": "OK",
      "vis_m": 9999,
      "fzfg": false,
      "metar_trigger": false,
      "taf_trigger": false,
      "metar": "METAR EDJA 170320Z AUTO 21007KT 9999 // SCT029/// OVC050/// 03/02 Q1021",
      "taf": "TAF EDJA 170200Z 1703/1712 19005KT 9999 BKN025"
    },
    {
      "icao": "EDLW",
      "alert": "OK",
      "vis_m": 9999,
      "fzfg": false,
      "metar_trigger": false,
      "taf_trigger": false,
      "metar": "METAR EDLW 170320Z AUTO 17009KT 9999 // BKN057/// BKN067/// OVC081/// 06/03 Q1019",
      "taf": "TAF EDLW 161700Z 1618/1718 25008KT 9999 BKN020"
    },
    {
      "icao": "EDNY",
      "alert": "OK",
      "vis_m": 9999,
      "fzfg": false,
      "metar_trigger": false,
      "taf_trigger": false,
      "metar": "METAR EDNY 170320Z AUTO 08002KT 9999 // BKN068/// OVC086/// 03/02 Q1022",
      "taf": "TAF EDNY 170200Z 1703/1712 VRB02KT 9999 BKN035"
    },
    {
      "icao": "EDSB",
      "alert": "OK",
      "vis_m": 9999,
      "fzfg": false,
      "metar_trigger": false,
      "taf_trigger": false,
      "metar": "METAR EDSB 170320Z 19005KT 9999 FEW022 OVC032 06/06 Q1022",
      "taf": "TAF EDSB 162300Z 1700/1724 20004KT 9999 SCT035"
    },
    {
      "icao": "EETN",
      "alert": "OK",
      "vis_m": 900,
      "fzfg": false,
      "metar_trigger": false,
      "taf_trigger": false,
      "metar": "METAR EETN 170320Z 14003KT 110V180 0900 0400E R08/2000U FG VV002 02/02 Q1017",
      "taf": "TAF EETN 162330Z 1700/1724 VRB02KT 3000 BR BKN003 OVC006"
    },
    {
      "icao": "EFTU",
      "alert": "OK",
      "vis_m": 9000,
      "fzfg": false,
      "metar_trigger": false,
      "taf_trigger": false,
      "metar": "METAR EFTU 170320Z AUTO 14004KT 9000 OVC003 01/01 Q1017",
      "taf": "TAF EFTU 170224Z 1703/1803 15006KT 8000 -RA OVC003"
    },
    {
      "icao": "EGBB",
      "alert": "OK",
      "vis_m": 9999,
      "fzfg": false,
      "metar_trigger": false,
      "taf_trigger": false,
      "metar": "METAR EGBB 170320Z 20010KT 9999 OVC009 10/08 Q1012",
      "taf": "TAF EGBB 162303Z 1700/1724 20010KT 9999 FEW014 BKN020"
    },
    {
      "icao": "EGGP",
      "alert": "OK",
      "vis_m": 9999,
      "fzfg": false,
      "metar_trigger": false,
      "taf_trigger": false,
      "metar": "METAR EGGP 170320Z 18010KT 9999 OVC026 11/08 Q1010",
      "taf": "TAF EGGP 162259Z 1700/1724 18010KT 9999 SCT020"
    },
    {
      "icao": "EGGW",
      "alert": "OK",
      "vis_m": 9999,
      "fzfg": false,
      "metar_trigger": false,
      "taf_trigger": false,
      "metar": "METAR EGGW 170320Z AUTO 21012KT 9999 OVC009 09/08 Q1014",
      "taf": ""
    },
    {
      "icao": "EGKK",
      "alert": "OK",
      "vis_m": 9999,
      "fzfg": false,
      "metar_trigger": false,
      "taf_trigger": false,
      "metar": "METAR EGKK 170320Z 21009KT 180V240 9999 SCT007 BKN019 09/08 Q1016",
      "taf": ""
    },
    {
      "icao": "EGNM",
      "alert": "OK",
      "vis_m": null,
      "fzfg": false,
      "metar_trigger": false,
      "taf_trigger": false,
      "metar": "",
      "taf": "TAF EGNM 162303Z 1700/1724 23010KT 9999 BKN010"
    },
    {
      "icao": "EGPD",
      "alert": "OK",
      "vis_m": 9999,
      "fzfg": false,
      "metar_trigger": false,
      "taf_trigger": false,
      "metar": "METAR EGPD 170320Z AUTO 18014KT 9999 BKN019 BKN024 OVC033 10/07 Q1000 TEMPO BKN014",
      "taf": ""
    },
    {
      "icao": "EGPF",
      "alert": "OK",
      "vis_m": 9999,
      "fzfg": false,
      "metar_trigger": false,
      "taf_trigger": false,
      "metar": "METAR EGPF 170320Z AUTO 19013KT 9999 OVC039 11/08 Q1002",
      "taf": ""
    },
    {
      "icao": "EHBK",
      "alert": "OK",
      "vis_m": 9999,
      "fzfg": false,
      "metar_trigger": false,
      "taf_trigger": false,
      "metar": "METAR EHBK 170325Z AUTO 20009KT 9999 OVC016/// 08/06 Q1019",
      "taf": "TAF EHBK 162304Z 1700/1806 20006KT 9999 BKN025"
    },
    {
      "icao": "EHEH",
      "alert": "OK",
      "vis_m": 9999,
      "fzfg": false,
      "metar_trigger": false,
      "taf_trigger": false,
      "metar": "METAR EHEH 170325Z AUTO 20005KT 9999 OVC016 08/06 Q1019 WHT",
      "taf": "TAF EHEH 162318Z 1700/1806 18006KT 9999 OVC025"
    },
    {
      "icao": "EKBI",
      "alert": "OK",
      "vis_m": 1100,
      "fzfg": false,
      "metar_trigger": false,
      "taf_trigger": false,
      "metar": "METAR EKBI 170320Z AUTO 16004KT 1100 R09/P1500N R27/P1500D BR OVC002/// 03/03 Q1017",
      "taf": "TAF EKBI 170227Z 1703/1803 18008KT 9999 SCT020"
    },
    {
      "icao": "EKCH",
      "alert": "OK",
      "vis_m": 9999,
      "fzfg": false,
      "metar_trigger": false,
      "taf_trigger": false,
      "metar": "METAR EKCH 170320Z 26004KT 9999 MIFG FEW040 M01/M01 Q1019 NOSIG",
      "taf": "TAF EKCH 170227Z 1703/1803 27008KT 9999 FEW030"
    },
    {
      "icao": "ENAL",
      "alert": "OK",
      "vis_m": 9999,
      "fzfg": false,
      "metar_trigger": false,
      "taf_trigger": false,
      "metar": "METAR ENAL 170320Z AUTO 18012KT 9999 NCD 08/M02 Q1000",
      "taf": "TAF ENAL 170200Z 1703/1712 19015KT 9999 BKN050"
    },
    {
      "icao": "ENBR",
      "alert": "OK",
      "vis_m": 9999,
      "fzfg": false,
      "metar_trigger": false,
      "taf_trigger": false,
      "metar": "METAR ENBR 170320Z AUTO 14019KT 9999 FEW007/// SCT010/// OVC015/// 05/02 Q1006 RMK WIND 1200FT 15024KT",
      "taf": "TAF ENBR 162300Z 1700/1724 16015KT 9999 -RA SCT015 BKN020"
    },
    {
      "icao": "ENGM",
      "alert": "OK",
      "vis_m": 9999,
      "fzfg": false,
      "metar_trigger": false,
      "taf_trigger": false,
      "metar": "METAR ENGM 170320Z 19009KT 9999 SCT005 BKN008 OVC010 01/M00 Q1011",
      "taf": "TAF ENGM 162300Z 1700/1724 18008KT 8000 -RA SCT004 BKN012"
    },
    {
      "icao": "ENHD",
      "alert": "OK",
      "vis_m": 8000,
      "fzfg": false,
      "metar_trigger": false,
      "taf_trigger": false,
      "metar": "METAR ENHD 170320Z AUTO 15017KT 8000 RA BKN004/// OVC005/// 06/05 Q1007",
      "taf": "TAF ENHD 170200Z 1703/1712 15015KT 7000 -RADZ OVC006"
    },
    {
      "icao": "ENTC",
      "alert": "OK",
      "vis_m": 9999,
      "fzfg": false,
      "metar_trigger": false,
      "taf_trigger": false,
      "metar": "METAR ENTC 170320Z AUTO 19011KT 9999 -DZRA OVC030/// 02/M02 Q1004 RMK WIND 2600FT 17009KT",
      "taf": "TAF ENTC 162300Z 1700/1724 20008KT 9999 SCT045"
    },
    {
      "icao": "ENTO",
      "alert": "OK",
      "vis_m": 9999,
      "fzfg": false,
      "metar_trigger": false,
      "taf_trigger": false,
      "metar": "METAR ENTO 170320Z AUTO 23006KT 9999 NCD 00/M01 Q1013",
      "taf": "TAF ENTO 162300Z 1700/1724 VRB03KT 9999 FEW005"
    },
    {
      "icao": "ENVA",
      "alert": "OK",
      "vis_m": 9999,
      "fzfg": false,
      "metar_trigger": false,
      "taf_trigger": false,
      "metar": "METAR ENVA 170250Z AUTO 07003KT 020V120 9999 NCD 04/M04 Q1005 RMK WIND 670FT 15011KT",
      "taf": "TAF ENVA 162300Z 1700/1724 10006KT CAVOK"
    },
    {
      "icao": "ENZV",
      "alert": "OK",
      "vis_m": 9999,
      "fzfg": false,
      "metar_trigger": false,
      "taf_trigger": false,
      "metar": "METAR ENZV 170320Z 16013KT 9999 -RADZ FEW009 SCT011 BKN024 06/05 Q1009",
      "taf": "TAF ENZV 162300Z 1700/1724 16012KT 9999 -RA SCT012 BKN030"
    },
    {
      "icao": "EPGD",
      "alert": "OK",
      "vis_m": 9999,
      "fzfg": false,
      "metar_trigger": false,
      "taf_trigger": false,
      "metar": "METAR EPGD 170330Z 26005KT 9999 BKN011 BKN032 03/01 Q1017",
      "taf": "TAF EPGD 162330Z 1700/1724 23004KT 9999 BKN020"
    },
    {
      "icao": "EPKK",
      "alert": "OK",
      "vis_m": 9999,
      "fzfg": false,
      "metar_trigger": false,
      "taf_trigger": false,
      "metar": "METAR EPKK 170330Z 19002KT 9999 OVC068 05/02 Q1019",
      "taf": "TAF EPKK 170230Z 1703/1803 VRB02KT 9999 BKN040"
    },
    {
      "icao": "EPKT",
      "alert": "OK",
      "vis_m": 6000,
      "fzfg": false,
      "metar_trigger": false,
      "taf_trigger": false,
      "metar": "METAR EPKT 170330Z 33004KT 6000 0350NW BCFG NSC M01/M01 Q1019",
      "taf": "TAF EPKT 162330Z 1700/1724 27003KT 9999 BKN040"
    },
    {
      "icao": "EPLB",
      "alert": "OK",
      "vis_m": 9000,
      "fzfg": false,
      "metar_trigger": false,
      "taf_trigger": false,
      "metar": "METAR EPLB 170330Z 33002KT 9000 FEW048 03/02 Q1018",
      "taf": "TAF EPLB 162330Z 1700/1724 30004KT CAVOK"
    },
    {
      "icao": "EPMO",
      "alert": "OK",
      "vis_m": 400,
      "fzfg": false,
      "metar_trigger": false,
      "taf_trigger": false,
      "metar": "METAR EPMO 170330Z 26004KT 0400 R08/1100U FG NSC 02/02 Q1019",
      "taf": "TAF EPMO 162330Z 1700/1724 VRB02KT CAVOK"
    },
    {
      "icao": "EPPO",
      "alert": "OK",
      "vis_m": 9999,
      "fzfg": false,
      "metar_trigger": false,
      "taf_trigger": false,
      "metar": "METAR EPPO 170330Z 28004KT CAVOK 02/01 Q1020",
      "taf": ""
    },
    {
      "icao": "EPRA",
      "alert": "OK",
      "vis_m": 9999,
      "fzfg": false,
      "metar_trigger": false,
      "taf_trigger": false,
      "metar": "METAR EPRA 170330Z 24003KT CAVOK 04/02 Q1018",
      "taf": "TAF EPRA 170230Z 1703/1712 30006KT 9999 SCT040"
    },
    {
      "icao": "EPRZ",
      "alert": "OK",
      "vis_m": 9999,
      "fzfg": false,
      "metar_trigger": false,
      "taf_trigger": false,
      "metar": "METAR EPRZ 170330Z 25002KT CAVOK 05/03 Q1018",
      "taf": "TAF EPRZ 162330Z 1700/1724 25007KT 9999 BKN040"
    },
    {
      "icao": "EPSC",
      "alert": "OK",
      "vis_m": 5000,
      "fzfg": false,
      "metar_trigger": false,
      "taf_trigger": false,
      "metar": "METAR EPSC 170330Z VRB02KT 5000 BR NSC M01/M01 Q1020",
      "taf": ""
    },
    {
      "icao": "EPSY",
      "alert": "OK",
      "vis_m": 2500,
      "fzfg": false,
      "metar_trigger": false,
      "taf_trigger": false,
      "metar": "METAR EPSY 170330Z 23002KT 2500 BR NSC M01/M01 Q1018",
      "taf": "TAF EPSY 170230Z 1703/1712 25006KT 4000 BR NSC"
    },
    {
      "icao": "EPWA",
      "alert": "OK",
      "vis_m": 6000,
      "fzfg": false,
      "metar_trigger": false,
      "taf_trigger": false,
      "metar": "METAR EPWA 170330Z 00000KT 6000 MIFG NSC 04/03 Q1018 TEMPO 3000 BR",
      "taf": "TAF EPWA 170230Z 1703/1803 VRB02KT CAVOK"
    },
    {
      "icao": "EPWR",
      "alert": "OK",
      "vis_m": 9999,
      "fzfg": false,
      "metar_trigger": false,
      "taf_trigger": false,
      "metar": "METAR EPWR 170330Z 31008KT 9999 SCT008 BKN011 BKN019 04/04 Q1020",
      "taf": "TAF EPWR 170230Z 1703/1803 26004KT 9999 BKN013"
    },
    {
      "icao": "ESGG",
      "alert": "OK",
      "vis_m": 350,
      "fzfg": false,
      "metar_trigger": false,
      "taf_trigger": false,
      "metar": "METAR ESGG 170320Z 19006KT 0350 R03/1200D R21/1200N FG VV002 02/01 Q1016",
      "taf": "TAF ESGG 170230Z 1703/1803 18004KT 3000 BR BKN002"
    },
    {
      "icao": "ESKN",
      "alert": "OK",
      "vis_m": 3700,
      "fzfg": false,
      "metar_trigger": false,
      "taf_trigger": false,
      "metar": "METAR ESKN 170320Z VRB03KT 3700 BR NSC 00/00 Q1016",
      "taf": "TAF ESKN 170230Z 1703/1803 19006KT 6000 SCT005"
    },
    {
      "icao": "ESMS",
      "alert": "OK",
      "vis_m": 800,
      "fzfg": false,
      "metar_trigger": false,
      "taf_trigger": false,
      "metar": "METAR ESMS 170320Z 24003KT 0800 R17/1100U R35/0750N MIFG NSC M00/M00 Q1018",
      "taf": ""
    },
    {
      "icao": "ESSA",
      "alert": "OK",
      "vis_m": 8000,
      "fzfg": false,
      "metar_trigger": false,
      "taf_trigger": false,
      "metar": "METAR ESSA 170320Z 19007KT 8000 BKN006 02/01 Q1015 BECMG BKN004",
      "taf": "TAF ESSA 170230Z 1703/1803 18009KT 9999 BKN006"
    },
    {
      "icao": "EYKA",
      "alert": "OK",
      "vis_m": 9999,
      "fzfg": false,
      "metar_trigger": false,
      "taf_trigger": false,
      "metar": "METAR EYKA 170320Z 16002KT CAVOK 01/M02 Q1018",
      "taf": "TAF EYKA 162300Z 1700/1724 VRB05KT 9000 NSC"
    },
    {
      "icao": "EYPA",
      "alert": "OK",
      "vis_m": 1700,
      "fzfg": false,
      "metar_trigger": false,
      "taf_trigger": false,
      "metar": "METAR EYPA 170320Z VRB01KT 1700 BR OVC003 04/04 Q1017",
      "taf": ""
    },
    {
      "icao": "EYVI",
      "alert": "OK",
      "vis_m": 9999,
      "fzfg": false,
      "metar_trigger": false,
      "taf_trigger": false,
      "metar": "METAR EYVI 170320Z 15007KT CAVOK 02/M02 Q1018 NOSIG",
      "taf": "TAF EYVI 162300Z 1700/1724 14008KT 9000 NSC"
    },
    {
      "icao": "GCFV",
      "alert": "OK",
      "vis_m": 9999,
      "fzfg": false,
      "metar_trigger": false,
      "taf_trigger": false,
      "metar": "METAR GCFV 170330Z AUTO VRB02KT 9999 OVC026 17/11 Q1011",
      "taf": "TAF GCFV 170200Z 1703/1803 32006KT 9999 SCT020 TX22/1714Z TN16/1706Z"
    },
    {
      "icao": "GCLP",
      "alert": "OK",
      "vis_m": 9999,
      "fzfg": false,
      "metar_trigger": false,
      "taf_trigger": false,
      "metar": "METAR GCLP 170330Z 26004KT 230V300 9999 FEW018 15/12 Q1011 NOSIG",
      "taf": "TAF GCLP 170200Z 1703/1803 32006KT 9999 SCT020 TX23/1714Z TN16/1706Z"
    },
    {
      "icao": "GCTS",
      "alert": "OK",
      "vis_m": 9999,
      "fzfg": false,
      "metar_trigger": false,
      "taf_trigger": false,
      "metar": "METAR GCTS 170330Z 07003KT 9999 SCT020 17/13 Q1011 NOSIG",
      "taf": "TAF GCTS 170200Z 1703/1803 09005KT 9999 SCT025 TX23/1714Z TN16/1706Z"
    },
    {
      "icao": "GMAD",
      "alert": "OK",
      "vis_m": 8000,
      "fzfg": false,
      "metar_trigger": false,
      "taf_trigger": false,
      "metar": "METAR GMAD 170330Z 07009KT 8000 NSC 15/13 Q1010 NOSIG",
      "taf": "TAF GMAD 162300Z 1700/1806 06008KT 8000 BKN013 BKN080"
    },
    {
      "icao": "GMMN",
      "alert": "OK",
      "vis_m": 6000,
      "fzfg": false,
      "metar_trigger": false,
      "taf_trigger": false,
      "metar": "METAR GMMN 170330Z 19006KT 6000 NSC 11/10 Q1011 NOSIG",
      "taf": "TAF GMMN 162300Z 1700/1806 19006KT CAVOK"
    },
    {
      "icao": "GMMX",
      "alert": "OK",
      "vis_m": 9999,
      "fzfg": false,
      "metar_trigger": false,
      "taf_trigger": false,
      "metar": "METAR GMMX 170330Z 18005KT 110V220 CAVOK 14/12 Q1012 NOSIG",
      "taf": ""
    },
    {
      "icao": "HEGN",
      "alert": "OK",
      "vis_m": null,
      "fzfg": false,
      "metar_trigger": false,
      "taf_trigger": false,
      "metar": "",
      "taf": ""
    },
    {
      "icao": "HEMA",
      "alert": "OK",
      "vis_m": null,
      "fzfg": false,
      "metar_trigger": false,
      "taf_trigger": false,
      "metar": "",
      "taf": ""
    },
    {
      "icao": "HESH",
      "alert": "OK",
      "vis_m": null,
      "fzfg": false,
      "metar_trigger": false,
      "taf_trigger": false,
      "metar": "",
      "taf": ""
    },
    {
      "icao": "HESX",
      "alert": "OK",
      "vis_m": null,
      "fzfg": false,
      "metar_trigger": false,
      "taf_trigger": false,
      "metar": "",
      "taf": ""
    },
    {
      "icao": "LATI",
      "alert": "OK",
      "vis_m": 9999,
      "fzfg": false,
      "metar_trigger": false,
      "taf_trigger": false,
      "metar": "METAR LATI 170320Z 22003KT 170V300 9999 FEW080 SCT100 13/04 Q1012 NOSIG",
      "taf": "TAF LATI 162300Z 1700/1724 VRB05KT 9999 BKN090 TX17/1712Z TN08/1704Z"
    },
    {
      "icao": "LBPD",
      "alert": "OK",
      "vis_m": 9999,
      "fzfg": false,
      "metar_trigger": false,
      "taf_trigger": false,
      "metar": "METAR LBPD 170330Z AUTO 29004KT 9999 NCD M01/M01 Q1018",
      "taf": "TAF LBPD 162300Z 1700/1724 VRB03KT 9999 BKN050"
    },
    {
      "icao": "LBSF",
      "alert": "OK",
      "vis_m": 9999,
      "fzfg": false,
      "metar_trigger": false,
      "taf_trigger": false,
      "metar": "METAR LBSF 170330Z AUTO 13004KT 9999 NSC 01/M02 Q1016 NOSIG",
      "taf": "TAF LBSF 162300Z 1700/1724 11010KT 9999 BKN050"
    },
    {
      "icao": "LBWN",
      "alert": "OK",
      "vis_m": 6000,
      "fzfg": false,
      "metar_trigger": false,
      "taf_trigger": false,
      "metar": "METAR LBWN 170330Z AUTO 20002KT 6000 NSC 02/M00 Q1018 TEMPO 4000 BR",
      "taf": "TAF LBWN 162300Z 1700/1724 VRB03KT 9999 SCT045"
    },
    {
      "icao": "LCLK",
      "alert": "OK",
      "vis_m": 9999,
      "fzfg": false,
      "metar_trigger": false,
      "taf_trigger": false,
      "metar": "METAR LCLK 170330Z VRB03KT 9999 SCT030 BKN040 11/10 Q1014 NOSIG",
      "taf": "TAF LCLK 162330Z 1700/1800 30006KT 9999 SCT025"
    },
    {
      "icao": "LCPH",
      "alert": "OK",
      "vis_m": 9999,
      "fzfg": false,
      "metar_trigger": false,
      "taf_trigger": false,
      "metar": "METAR LCPH 170330Z 05008KT 010V080 9999 FEW034 09/06 Q1013 NOSIG",
      "taf": "TAF LCPH 162330Z 1700/1800 05008KT 9999 FEW030"
    },
    {
      "icao": "LEAL",
      "alert": "OK",
      "vis_m": 9999,
      "fzfg": false,
      "metar_trigger": false,
      "taf_trigger": false,
      "metar": "METAR LEAL 170330Z 24006KT CAVOK 09/08 Q1019 NOSIG",
      "taf": "TAF LEAL 162300Z 1700/1724 VRB04KT CAVOK TX19/1712Z TN07/1706Z"
    },
    {
      "icao": "LEBB",
      "alert": "OK",
      "vis_m": 9999,
      "fzfg": false,
      "metar_trigger": false,
      "taf_trigger": false,
      "metar": "METAR LEBB 170330Z AUTO 12005KT 080V170 CAVOK 08/07 Q1016",
      "taf": "TAF LEBB 162300Z 1700/1724 11005KT 9999 FEW030 TX26/1714Z TN06/1706Z"
    },
    {
      "icao": "LEBL",
      "alert": "OK",
      "vis_m": 9999,
      "fzfg": false,
      "metar_trigger": false,
      "taf_trigger": false,
      "metar": "METAR LEBL 170330Z 33009KT CAVOK 09/06 Q1017 NOSIG",
      "taf": "TAF LEBL 162300Z 1700/1724 35005KT CAVOK TX17/1713Z TN08/1706Z"
    },
    {
      "icao": "LECH",
      "alert": "OK",
      "vis_m": 9000,
      "fzfg": false,
      "metar_trigger": false,
      "taf_trigger": false,
      "metar": "METAR LECH 170330Z AUTO 19004KT 9000 NCD 06/03 Q1017",
      "taf": ""
    },
    {
      "icao": "LEMD",
      "alert": "OK",
      "vis_m": 9999,
      "fzfg": false,
      "metar_trigger": false,
      "taf_trigger": false,
      "metar": "METAR LEMD 170330Z 35003KT CAVOK 05/03 Q1018 NOSIG",
      "taf": "TAF LEMD 162300Z 1700/1806 VRB04KT CAVOK TX22/1715Z TN02/1706Z"
    },
    {
      "icao": "LEMG",
      "alert": "OK",
      "vis_m": 9999,
      "fzfg": false,
      "metar_trigger": false,
      "taf_trigger": false,
      "metar": "METAR LEMG 170330Z 29008KT CAVOK 09/07 Q1019 NOSIG",
      "taf": "TAF LEMG 162300Z 1700/1724 29004KT CAVOK TX19/1714Z TN10/1707Z"
    },
    {
      "icao": "LEVC",
      "alert": "OK",
      "vis_m": 9999,
      "fzfg": false,
      "metar_trigger": false,
      "taf_trigger": false,
      "metar": "METAR LEVC 170330Z 27003KT 230V320 CAVOK 06/04 Q1018 NOSIG",
      "taf": "TAF LEVC 162300Z 1700/1724 27005KT CAVOK TX22/1712Z TN07/1705Z"
    },
    {
      "icao": "LEXJ",
      "alert": "OK",
      "vis_m": 7000,
      "fzfg": false,
      "metar_trigger": false,
      "taf_trigger": false,
      "metar": "METAR LEXJ 170330Z AUTO VRB01KT 7000 3400W NCD 05/04 Q1015",
      "taf": ""
    },
    {
      "icao": "LEZG",
      "alert": "OK",
      "vis_m": 9999,
      "fzfg": false,
      "metar_trigger": false,
      "taf_trigger": false,
      "metar": "METAR LEZG 170330Z VRB02KT CAVOK 06/06 Q1018 NOSIG",
      "taf": "TAF LEZG 162300Z 1700/1724 26007KT CAVOK TX21/1714Z TN05/1706Z"
    },
    {
      "icao": "LEZL",
      "alert": "OK",
      "vis_m": 9999,
      "fzfg": false,
      "metar_trigger": false,
      "taf_trigger": false,
      "metar": "METAR LEZL 170330Z AUTO 05010KT CAVOK 11/05 Q1014",
      "taf": "TAF LEZL 170200Z 1703/1803 06010KT CAVOK TX25/1715Z TN10/1707Z"
    },
    {
      "icao": "LFBD",
      "alert": "OK",
      "vis_m": 9999,
      "fzfg": false,
      "metar_trigger": false,
      "taf_trigger": false,
      "metar": "METAR LFBD 170330Z AUTO 11005KT CAVOK 06/05 Q1019 TEMPO 0500 FG VV///",
      "taf": "TAF LFBD 162300Z 1700/1806 VRB03KT CAVOK TX19/1715Z TN04/1706Z"
    },
    {
      "icao": "LFLL",
      "alert": "OK",
      "vis_m": 550,
      "fzfg": false,
      "metar_trigger": false,
      "taf_trigger": false,
      "metar": "METAR LFLL 170330Z VRB02KT 0550 R35L/0650U R17R/0700D R35R/0600D R17L/0700N FG VV/// 03/03 Q1021 TEMPO 0400 FG VV///",
      "taf": "TAF LFLL 162300Z 1700/1806 VRB02KT CAVOK"
    },
    {
      "icao": "LFLS",
      "alert": "OK",
      "vis_m": 9999,
      "fzfg": false,
      "metar_trigger": false,
      "taf_trigger": false,
      "metar": "METAR LFLS 170330Z AUTO 10003KT CAVOK 01/01 Q1020 TEMPO BKN009",
      "taf": "TAF LFLS 170200Z 1703/1803 VRB02KT CAVOK"
    },
    {
      "icao": "LFMN",
      "alert": "OK",
      "vis_m": 9999,
      "fzfg": false,
      "metar_trigger": false,
      "taf_trigger": false,
      "metar": "METAR LFMN 170330Z 36008KT 330V030 CAVOK 12/05 Q1014 NOSIG",
      "taf": "TAF LFMN 170200Z 1703/1809 33010KT CAVOK"
    },
    {
      "icao": "LFOB",
      "alert": "OK",
      "vis_m": 9999,
      "fzfg": false,
      "metar_trigger": false,
      "taf_trigger": false,
      "metar": "METAR LFOB 170330Z AUTO 20005KT 9999 BKN032 BKN140 08/06 Q1019 TEMPO 0900 FG VV///",
      "taf": "TAF LFOB 162300Z 1700/1724 VRB03KT CAVOK"
    },
    {
      "icao": "LFPO",
      "alert": "OK",
      "vis_m": 9999,
      "fzfg": false,
      "metar_trigger": false,
      "taf_trigger": false,
      "metar": "METAR LFPO 170330Z AUTO VRB02KT CAVOK 06/04 Q1021 TEMPO 4000 BR",
      "taf": "TAF LFPO 162300Z 1700/1806 20005KT CAVOK"
    },
    {
      "icao": "LFSB",
      "alert": "OK",
      "vis_m": 9999,
      "fzfg": false,
      "metar_trigger": false,
      "taf_trigger": false,
      "metar": "METAR LFSB 170330Z AUTO 16004KT CAVOK 04/02 Q1022 TEMPO 0800 BCFG BKN001",
      "taf": "TAF LFSB 162300Z 1700/1724 VRB03KT CAVOK"
    },
    {
      "icao": "LGAV",
      "alert": "OK",
      "vis_m": 9999,
      "fzfg": false,
      "metar_trigger": false,
      "taf_trigger": false,
      "metar": "METAR LGAV 170320Z 36006KT 9999 FEW020 10/05 Q1014 NOSIG",
      "taf": "TAF LGAV 162300Z 1700/1724 03012KT 9999 FEW020"
    },
    {
      "icao": "LGTS",
      "alert": "OK",
      "vis_m": 9999,
      "fzfg": false,
      "metar_trigger": false,
      "taf_trigger": false,
      "metar": "METAR LGTS 170320Z 10005KT 9999 FEW025 07/06 Q1017 NOSIG",
      "taf": "TAF LGTS 162300Z 1700/1724 VRB03KT 9999 SCT025"
    },
    {
      "icao": "LHBP",
      "alert": "OK",
      "vis_m": 9999,
      "fzfg": false,
      "metar_trigger": false,
      "taf_trigger": false,
      "metar": "METAR LHBP 170330Z 30009KT CAVOK 05/00 Q1018 NOSIG",
      "taf": "TAF LHBP 162315Z 1700/1724 31008KT CAVOK"
    },
    {
      "icao": "LHDC",
      "alert": "OK",
      "vis_m": 9999,
      "fzfg": false,
      "metar_trigger": false,
      "taf_trigger": false,
      "metar": "METAR LHDC 170315Z AUTO 00000KT CAVOK 02/M01 Q1017",
      "taf": "TAF LHDC 161715Z 1618/1703 18004KT CAVOK"
    },
    {
      "icao": "LIBD",
      "alert": "OK",
      "vis_m": 9999,
      "fzfg": false,
      "metar_trigger": false,
      "taf_trigger": false,
      "metar": "METAR LIBD 170320Z 31003KT 9999 RA SCT015 12/12 Q1012",
      "taf": "TAF LIBD 162300Z 1700/1724 VRB05KT 8000 RA SCT030"
    },
    {
      "icao": "LIBG",
      "alert": "OK",
      "vis_m": null,
      "fzfg": false,
      "metar_trigger": false,
      "taf_trigger": false,
      "metar": "",
      "taf": "TAF LIBG 161700Z 1618/1703 05010KT 9999 BKN030"
    },
    {
      "icao": "LIBP",
      "alert": "OK",
      "vis_m": 7000,
      "fzfg": false,
      "metar_trigger": false,
      "taf_trigger": false,
      "metar": "METAR LIBP 170320Z AUTO 24002KT 7000 FEW002/// SCT070/// BKN087/// 09/09 Q1014",
      "taf": "TAF LIBP 162300Z 1700/1724 VRB05KT 7000 SCT040"
    },
    {
      "icao": "LIBR",
      "alert": "OK",
      "vis_m": 9999,
      "fzfg": false,
      "metar_trigger": false,
      "taf_trigger": false,
      "metar": "METAR LIBR 170320Z 02009KT 9999 -RA FEW045 13/11 Q1012",
      "taf": "TAF LIBR 162300Z 1700/1724 VRB05KT 8000 RA SCT030"
    },
    {
      "icao": "LICA",
      "alert": "OK",
      "vis_m": 9999,
      "fzfg": false,
      "metar_trigger": false,
      "taf_trigger": false,
      "metar": "METAR LICA 170320Z AUTO 06015KT 9999 -DZRA BKN025/// 14/12 Q1008",
      "taf": "TAF LICA 162300Z 1700/1724 08022G32KT 9999 BKN040"
    },
    {
      "icao": "LICC",
      "alert": "OK",
      "vis_m": 5000,
      "fzfg": false,
      "metar_trigger": false,
      "taf_trigger": false,
      "metar": "METAR LICC 170320Z 04013KT 5000 RA SCT015 BKN070 13/12 Q1005",
      "taf": "TAF LICC 162300Z 1700/1724 06015KT 9999 BKN030"
    },
    {
      "icao": "LICJ",
      "alert": "OK",
      "vis_m": 9999,
      "fzfg": false,
      "metar_trigger": false,
      "taf_trigger": false,
      "metar": "METAR LICJ 170320Z 07013KT 9999 SCT020 14/12 Q1005",
      "taf": "TAF LICJ 162300Z 1700/1724 04018G28KT 9999 SCT025"
    },
    {
      "icao": "LIMC",
      "alert": "OK",
      "vis_m": 9999,
      "fzfg": false,
      "metar_trigger": false,
      "taf_trigger": false,
      "metar": "METAR LIMC 170320Z 33006KT CAVOK 07/M02 Q1016 NOSIG",
      "taf": "TAF LIMC 162300Z 1700/1806 01006KT CAVOK"
    },
    {
      "icao": "LIME",
      "alert": "OK",
      "vis_m": 9999,
      "fzfg": false,
      "metar_trigger": false,
      "taf_trigger": false,
      "metar": "METAR LIME 170320Z 36004KT 340V040 CAVOK 07/M02 Q1016 NOSIG",
      "taf": "TAF LIME 162300Z 1700/1724 VRB05KT CAVOK"
    },
    {
      "icao": "LIMF",
      "alert": "OK",
      "vis_m": 9999,
      "fzfg": false,
      "metar_trigger": false,
      "taf_trigger": false,
      "metar": "METAR LIMF 170320Z 29005KT CAVOK 07/M01 Q1016",
      "taf": "TAF LIMF 162300Z 1700/1724 VRB05KT CAVOK"
    },
    {
      "icao": "LIMJ",
      "alert": "OK",
      "vis_m": 9999,
      "fzfg": false,
      "metar_trigger": false,
      "taf_trigger": false,
      "metar": "METAR LIMJ 170320Z 05012KT CAVOK 13/M00 Q1014",
      "taf": "TAF LIMJ 162300Z 1700/1724 04012KT CAVOK"
    },
    {
      "icao": "LIPE",
      "alert": "OK",
      "vis_m": 9999,
      "fzfg": false,
      "metar_trigger": false,
      "taf_trigger": false,
      "metar": "METAR LIPE 170320Z VRB01KT 9999 FEW045 07/05 Q1016",
      "taf": "TAF LIPE 162300Z 1700/1724 VRB06KT CAVOK"
    },
    {
      "icao": "LIPH",
      "alert": "OK",
      "vis_m": 9999,
      "fzfg": false,
      "metar_trigger": false,
      "taf_trigger": false,
      "metar": "METAR LIPH 170320Z AUTO 36003KT 9999 NCD 08/05 Q1017",
      "taf": "TAF LIPH 162300Z 1700/1724 05007KT 9999 FEW050"
    },
    {
      "icao": "LIPQ",
      "alert": "OK",
      "vis_m": 9999,
      "fzfg": false,
      "metar_trigger": false,
      "taf_trigger": false,
      "metar": "METAR LIPQ 170320Z AUTO 12007KT 9999 NCD 06/03 Q1017",
      "taf": "TAF LIPQ 162300Z 1700/1724 08010KT 9999 FEW070"
    },
    {
      "icao": "LIPR",
      "alert": "OK",
      "vis_m": 9999,
      "fzfg": false,
      "metar_trigger": false,
      "taf_trigger": false,
      "metar": "METAR LIPR 170320Z AUTO 12004KT 090V160 9999 SCT120/// 11/08 Q1016",
      "taf": "TAF LIPR 162300Z 1700/1724 VRB05KT 9999 SCT050"
    },
    {
      "icao": "LIPX",
      "alert": "OK",
      "vis_m": 9999,
      "fzfg": false,
      "metar_trigger": false,
      "taf_trigger": false,
      "metar": "METAR LIPX 170320Z 08006KT 050V110 CAVOK 10/04 Q1016",
      "taf": "TAF LIPX 162300Z 1700/1724 VRB05KT CAVOK"
    },
    {
      "icao": "LIPY",
      "alert": "OK",
      "vis_m": 9999,
      "fzfg": false,
      "metar_trigger": false,
      "taf_trigger": false,
      "metar": "METAR LIPY 170320Z AUTO VRB02KT 9999 NCD 06/05 Q1015",
      "taf": "TAF LIPY 162300Z 1700/1724 VRB05KT 8000 FEW050"
    },
    {
      "icao": "LIPZ",
      "alert": "OK",
      "vis_m": 9999,
      "fzfg": false,
      "metar_trigger": false,
      "taf_trigger": false,
      "metar": "METAR LIPZ 170320Z 06010KT CAVOK 09/06 Q1016 NOSIG",
      "taf": "TAF LIPZ 162300Z 1700/1806 06012KT 9999 SCT050"
    },
    {
      "icao": "LIRF",
      "alert": "OK",
      "vis_m": 9999,
      "fzfg": false,
      "metar_trigger": false,
      "taf_trigger": false,
      "metar": "METAR LIRF 170320Z 07004KT CAVOK 09/06 Q1011 NOSIG",
      "taf": "TAF LIRF 162300Z 1700/1806 05006KT 9999 SCT030"
    },
    {
      "icao": "LIRN",
      "alert": "OK",
      "vis_m": 9999,
      "fzfg": false,
      "metar_trigger": false,
      "taf_trigger": false,
      "metar": "METAR LIRN 170320Z 36006KT 9999 -RA SCT080 13/09 Q1010 NOSIG",
      "taf": "TAF LIRN 162300Z 1700/1724 04014KT 9999 SCT040"
    },
    {
      "icao": "LIRP",
      "alert": "OK",
      "vis_m": 9999,
      "fzfg": false,
      "metar_trigger": false,
      "taf_trigger": false,
      "metar": "METAR LIRP 170245Z 10001KT CAVOK 07/07 Q1013 NOSIG",
      "taf": "TAF LIRP 162300Z 1700/1724 10005KT CAVOK"
    },
    {
      "icao": "LIRZ",
      "alert": "OK",
      "vis_m": 9999,
      "fzfg": false,
      "metar_trigger": false,
      "taf_trigger": false,
      "metar": "METAR LIRZ 170320Z AUTO 02008KT 320V050 9999 NCD 10/05 Q1013",
      "taf": "TAF LIRZ 162300Z 1700/1724 VRB05KT CAVOK"
    },
    {
      "icao": "LJLJ",
      "alert": "OK",
      "vis_m": 9999,
      "fzfg": false,
      "metar_trigger": false,
      "taf_trigger": false,
      "metar": "METAR LJLJ 170330Z VRB02KT 9999 FEW003 BKN008 05/04 Q1019 NOSIG",
      "taf": "TAF LJLJ 162300Z 1700/1800 VRB02KT 9999 FEW003"
    },
    {
      "icao": "LKMT",
      "alert": "OK",
      "vis_m": 9999,
      "fzfg": false,
      "metar_trigger": false,
      "taf_trigger": false,
      "metar": "METAR LKMT 170330Z 36004KT 9999 BKN023 OVC033 04/02 Q1019 NOSIG",
      "taf": "TAF LKMT 162300Z 1700/1724 VRB02KT 9999 FEW012 BKN030"
    },
    {
      "icao": "LKPR",
      "alert": "OK",
      "vis_m": 9999,
      "fzfg": false,
      "metar_trigger": false,
      "taf_trigger": false,
      "metar": "METAR LKPR 170330Z 23005KT CAVOK M01/M02 Q1021 NOSIG",
      "taf": "TAF LKPR 170200Z 1703/1809 22008KT CAVOK"
    },
    {
      "icao": "LLBG",
      "alert": "OK",
      "vis_m": 9999,
      "fzfg": false,
      "metar_trigger": false,
      "taf_trigger": false,
      "metar": "METAR LLBG 170320Z VRB01KT CAVOK 10/07 Q1014 NOSIG",
      "taf": "TAF LLBG 162317Z 1700/1724 VRB04KT CAVOK TX23/1712Z TN08/1703Z"
    },
    {
      "icao": "LMML",
      "alert": "OK",
      "vis_m": 9999,
      "fzfg": false,
      "metar_trigger": false,
      "taf_trigger": false,
      "metar": "METAR LMML 170315Z AUTO 03010KT 9999 SCT021/// 12/09 Q1002 NOSIG",
      "taf": "TAF LMML 162300Z 1700/1724 07015KT 9999 SCT018"
    },
    {
      "icao": "LOWW",
      "alert": "OK",
      "vis_m": 9999,
      "fzfg": false,
      "metar_trigger": false,
      "taf_trigger": false,
      "metar": "METAR LOWW 170320Z 31010KT 9999 FEW032 BKN034 05/00 Q1021 NOSIG",
      "taf": "TAF LOWW 170215Z 1703/1809 29010KT 9999 FEW050 TX09/1809Z TN04/1804Z"
    },
    {
      "icao": "LPFR",
      "alert": "OK",
      "vis_m": 9999,
      "fzfg": false,
      "metar_trigger": false,
      "taf_trigger": false,
      "metar": "METAR LPFR 170330Z 08011KT CAVOK 14/07 Q1013",
      "taf": "TAF LPFR 162300Z 1700/1724 07008KT CAVOK"
    },
    {
      "icao": "LPMA",
      "alert": "OK",
      "vis_m": 9999,
      "fzfg": false,
      "metar_trigger": false,
      "taf_trigger": false,
      "metar": "METAR LPMA 170330Z 24004KT 9999 BKN014 15/11 Q1011",
      "taf": "TAF LPMA 162300Z 1700/1724 VRB05KT 9999 SCT015 BKN030"
    },
    {
      "icao": "LPPR",
      "alert": "OK",
      "vis_m": 9999,
      "fzfg": false,
      "metar_trigger": false,
      "taf_trigger": false,
      "metar": "METAR LPPR 170330Z 11009KT CAVOK 14/07 Q1013",
      "taf": "TAF LPPR 162300Z 1700/1724 09008KT CAVOK"
    },
    {
      "icao": "LPPS",
      "alert": "OK",
      "vis_m": 9999,
      "fzfg": false,
      "metar_trigger": false,
      "taf_trigger": false,
      "metar": "METAR LPPS 170330Z 23003KT 9999 SCT015 BKN030 15/12 Q1011",
      "taf": "TAF LPPS 162300Z 1700/1806 VRB05KT 9999 SCT015 BKN030"
    },
    {
      "icao": "LPPT",
      "alert": "OK",
      "vis_m": 9999,
      "fzfg": false,
      "metar_trigger": false,
      "taf_trigger": false,
      "metar": "METAR LPPT 170330Z 04002KT CAVOK 10/06 Q1013",
      "taf": "TAF LPPT 162300Z 1700/1806 06010KT CAVOK"
    },
    {
      "icao": "LQBK",
      "alert": "OK",
      "vis_m": 9999,
      "fzfg": false,
      "metar_trigger": false,
      "taf_trigger": false,
      "metar": "METAR LQBK 170330Z 34010KT 9999 -RA BKN043 07/02 Q1019 NOSIG",
      "taf": "TAF LQBK 162300Z 1700/1724 30007KT 9999 SCT040 TX07/1714Z TN03/1724Z"
    },
    {
      "icao": "LQSA",
      "alert": "OK",
      "vis_m": 9999,
      "fzfg": false,
      "metar_trigger": false,
      "taf_trigger": false,
      "metar": "METAR LQSA 170330Z 31005KT CAVOK 05/M02 Q1016",
      "taf": "TAF LQSA 162300Z 1700/1724 30006KT CAVOK TX09/1711Z TN00/1724Z"
    },
    {
      "icao": "LQTZ",
      "alert": "OK",
      "vis_m": 9999,
      "fzfg": false,
      "metar_trigger": false,
      "taf_trigger": false,
      "metar": "METAR LQTZ 170330Z VRB01KT CAVOK 01/M01 Q1018",
      "taf": "TAF LQTZ 162300Z 1700/1724 27005KT CAVOK TX08/1710Z TN00/1705Z"
    },
    {
      "icao": "LRBC",
      "alert": "OK",
      "vis_m": 9999,
      "fzfg": false,
      "metar_trigger": false,
      "taf_trigger": false,
      "metar": "METAR LRBC 170330Z 01002KT CAVOK M01/M03 Q1018",
      "taf": "TAF LRBC 170200Z 1703/1712 VRB04KT CAVOK"
    },
    {
      "icao": "LRBS",
      "alert": "OK",
      "vis_m": 8000,
      "fzfg": false,
      "metar_trigger": false,
      "taf_trigger": false,
      "metar": "METAR LRBS 170330Z 00000KT 8000 NSC 01/M01 Q1018 NOSIG",
      "taf": "TAF LRBS 162300Z 1700/1724 VRB04KT CAVOK"
    },
    {
      "icao": "LRBV",
      "alert": "OK",
      "vis_m": 7000,
      "fzfg": true,
      "metar_trigger": false,
      "taf_trigger": false,
      "metar": "METAR LRBV 170330Z AUTO 00000KT 7000 1900 FZFG NCD M03/M04 Q1018",
      "taf": "TAF LRBV 170200Z 1703/1712 VRB04KT CAVOK"
    },
    {
      "icao": "LRCL",
      "alert": "OK",
      "vis_m": 9999,
      "fzfg": false,
      "metar_trigger": false,
      "taf_trigger": false,
      "metar": "METAR LRCL 170330Z 00000KT CAVOK M02/M06 Q1017",
      "taf": "TAF LRCL 170200Z 1703/1712 VRB04KT CAVOK"
    },
    {
      "icao": "LRCV",
      "alert": "OK",
      "vis_m": 9999,
      "fzfg": false,
      "metar_trigger": false,
      "taf_trigger": false,
      "metar": "METAR LRCV 170330Z 02003KT CAVOK 01/M01 Q1018",
      "taf": "TAF LRCV 170200Z 1703/1712 VRB04KT CAVOK"
    },
    {
      "icao": "LRIA",
      "alert": "OK",
      "vis_m": 9999,
      "fzfg": false,
      "metar_trigger": false,
      "taf_trigger": false,
      "metar": "METAR LRIA 170330Z 08003KT CAVOK 02/M03 Q1018",
      "taf": "TAF LRIA 170200Z 1703/1712 VRB04KT CAVOK"
    },
    {
      "icao": "LROP",
      "alert": "OK",
      "vis_m": 6000,
      "fzfg": false,
      "metar_trigger": false,
      "taf_trigger": false,
      "metar": "METAR LROP 170330Z 28005KT 6000 NSC 00/M02 Q1018 NOSIG",
      "taf": "TAF LROP 162300Z 1700/1724 VRB04KT CAVOK"
    },
    {
      "icao": "LRSB",
      "alert": "OK",
      "vis_m": 9999,
      "fzfg": false,
      "metar_trigger": false,
      "taf_trigger": false,
      "metar": "METAR LRSB 170330Z VRB01KT CAVOK M03/M04 Q1017",
      "taf": "TAF LRSB 162300Z 1700/1724 VRB04KT CAVOK"
    },
    {
      "icao": "LRSM",
      "alert": "OK",
      "vis_m": 9999,
      "fzfg": false,
      "metar_trigger": false,
      "taf_trigger": false,
      "metar": "METAR LRSM 170330Z AUTO 30004KT 260V330 9999 SCT240/// 00/M03 Q1017",
      "taf": "TAF LRSM 170200Z 1703/1712 VRB04KT CAVOK"
    },
    {
      "icao": "LRSV",
      "alert": "OK",
      "vis_m": 9999,
      "fzfg": false,
      "metar_trigger": false,
      "taf_trigger": false,
      "metar": "METAR LRSV 170330Z 19006KT CAVOK 02/M03 Q1016",
      "taf": "TAF LRSV 170200Z 1703/1712 20008KT CAVOK"
    },
    {
      "icao": "LRTM",
      "alert": "OK",
      "vis_m": 9999,
      "fzfg": false,
      "metar_trigger": false,
      "taf_trigger": false,
      "metar": "METAR LRTM 170330Z AUTO 10004KT 9999 NCD M02/M05 Q1018",
      "taf": "TAF LRTM 170200Z 1703/1712 VRB04KT CAVOK"
    },
    {
      "icao": "LRTR",
      "alert": "OK",
      "vis_m": 9999,
      "fzfg": false,
      "metar_trigger": false,
      "taf_trigger": false,
      "metar": "METAR LRTR 170330Z 09003KT CAVOK 01/M00 Q1018 NOSIG",
      "taf": "TAF LRTR 162300Z 1700/1724 VRB04KT CAVOK"
    },
    {
      "icao": "LTAC",
      "alert": "OK",
      "vis_m": 9999,
      "fzfg": false,
      "metar_trigger": false,
      "taf_trigger": false,
      "metar": "METAR LTAC 170320Z VRB01KT CAVOK M01/M04 Q1014 NOSIG RMK RWY21C VRB01KT RWY03L 00000KT RWY21R 00000KT RWY03R 04001KT RWY21L VRB01KT",
      "taf": "TAF LTAC 162240Z 1700/1724 VRB02KT CAVOK"
    },
    {
      "icao": "LTFM",
      "alert": "OK",
      "vis_m": 5000,
      "fzfg": false,
      "metar_trigger": false,
      "taf_trigger": false,
      "metar": "METAR LTFM 170320Z 34005KT 300V360 5000 BR SCT002 BKN012 05/05 Q1018 NOSIG RMK RWY17L 30004KT RWY34L 34004KT RWY16R VRB02KT RWY36 33005KT RWY18 33006KT",
      "taf": "TAF LTFM 162240Z 1700/1806 03005KT 4800 BR BKN011"
    },
    {
      "icao": "LUKK",
      "alert": "OK",
      "vis_m": 9999,
      "fzfg": false,
      "metar_trigger": false,
      "taf_trigger": false,
      "metar": "METAR LUKK 170330Z VRB01KT CAVOK 01/M01 Q1019 NOSIG",
      "taf": "TAF LUKK 162306Z 1700/1724 VRB05KT CAVOK"
    },
    {
      "icao": "LWOH",
      "alert": "OK",
      "vis_m": null,
      "fzfg": false,
      "metar_trigger": false,
      "taf_trigger": false,
      "metar": "",
      "taf": "TAF LWOH 170230Z 1703/1803 VRB02KT 9999 SCT040 BKN090"
    },
    {
      "icao": "LWSK",
      "alert": "OK",
      "vis_m": 9999,
      "fzfg": false,
      "metar_trigger": false,
      "taf_trigger": false,
      "metar": "METAR LWSK 170320Z 03007KT CAVOK 04/02 Q1016 NOSIG",
      "taf": "TAF LWSK 170230Z 1703/1803 VRB02KT CAVOK"
    },
    {
      "icao": "LYBE",
      "alert": "OK",
      "vis_m": 9999,
      "fzfg": false,
      "metar_trigger": false,
      "taf_trigger": false,
      "metar": "METAR LYBE 170330Z 34004KT CAVOK 02/M01 Q1017 NOSIG",
      "taf": "TAF LYBE 162300Z 1700/1724 06005KT CAVOK TX13/1713Z TN03/1705Z"
    },
    {
      "icao": "LYNI",
      "alert": "OK",
      "vis_m": 9999,
      "fzfg": false,
      "metar_trigger": false,
      "taf_trigger": false,
      "metar": "METAR LYNI 170330Z 33004KT CAVOK 04/M00 Q1016 NOSIG",
      "taf": "TAF LYNI 162300Z 1700/1724 33004KT CAVOK TX13/1714Z TN01/1705Z"
    },
    {
      "icao": "LYPG",
      "alert": "OK",
      "vis_m": 9999,
      "fzfg": false,
      "metar_trigger": false,
      "taf_trigger": false,
      "metar": "METAR LYPG 170330Z 31003KT 9999 BKN080 11/07 Q1013 NOSIG",
      "taf": "TAF LYPG 162300Z 1700/1724 36005KT 9999 FEW040 BKN080 TX15/1713Z TN10/1705Z"
    },
    {
      "icao": "LZIB",
      "alert": "OK",
      "vis_m": 9999,
      "fzfg": false,
      "metar_trigger": false,
      "taf_trigger": false,
      "metar": "METAR LZIB 170330Z 30011KT 9999 SCT040 05/00 Q1020 NOSIG",
      "taf": "TAF LZIB 162315Z 1700/1800 32009KT CAVOK"
    },
    {
      "icao": "LZKZ",
      "alert": "OK",
      "vis_m": 9999,
      "fzfg": false,
      "metar_trigger": false,
      "taf_trigger": false,
      "metar": "METAR LZKZ 170330Z 36015KT CAVOK 06/02 Q1017 NOSIG",
      "taf": "TAF LZKZ 162315Z 1700/1800 02011KT CAVOK"
    },
    {
      "icao": "LZTT",
      "alert": "OK",
      "vis_m": 9999,
      "fzfg": false,
      "metar_trigger": false,
      "taf_trigger": false,
      "metar": "METAR LZTT 170330Z VRB01KT 9999 BKN018 02/00 Q1017",
      "taf": "TAF LZTT 162315Z 1700/1800 10004KT 9999 FEW010 OVC020"
    },
    {
      "icao": "OEJN",
      "alert": "OK",
      "vis_m": 9999,
      "fzfg": false,
      "metar_trigger": false,
      "taf_trigger": false,
      "metar": "METAR OEJN 170300Z 36005KT 9999 SCT040 24/18 Q1008 NOSIG",
      "taf": "TAF OEJN 162300Z 1700/1806 VRB03KT 7000 NSC"
    },
    {
      "icao": "OEMA",
      "alert": "OK",
      "vis_m": 9999,
      "fzfg": false,
      "metar_trigger": false,
      "taf_trigger": false,
      "metar": "METAR OEMA 170300Z 26008KT 9999 SCT045 29/04 Q1011 NOSIG",
      "taf": "TAF OEMA 162300Z 1700/1806 02006KT 9999 SCT045"
    },
    {
      "icao": "OJAI",
      "alert": "OK",
      "vis_m": 200,
      "fzfg": false,
      "metar_trigger": false,
      "taf_trigger": false,
      "metar": "METAR OJAI 170300Z 34003KT 0200 MIFG NSC 05/05 Q1016 NOSIG",
      "taf": "TAF OJAI 162300Z 1700/1806 VRB02KT 4000 BR NSC"
    },
    {
      "icao": "OMAA",
      "alert": "OK",
      "vis_m": null,
      "fzfg": false,
      "metar_trigger": false,
      "taf_trigger": false,
      "metar": "",
      "taf": ""
    },
    {
      "icao": "OMDB",
      "alert": "OK",
      "vis_m": null,
      "fzfg": false,
      "metar_trigger": false,
      "taf_trigger": false,
      "metar": "",
      "taf": ""
    },
    {
      "icao": "UAAA",
      "alert": "OK",
      "vis_m": 9999,
      "fzfg": false,
      "metar_trigger": false,
      "taf_trigger": false,
      "metar": "METAR UAAA 170330Z 29002MPS 230V350 9999 SCT200 01/M02 Q1017 NOSIG",
      "taf": "TAF UAAA 162300Z 1700/1724 24002G07MPS 9999 SCT100 TX09/1709Z TNM01/1701Z"
    },
    {
      "icao": "UBBB",
      "alert": "OK",
      "vis_m": 9999,
      "fzfg": false,
      "metar_trigger": false,
      "taf_trigger": false,
      "metar": "METAR UBBB 170330Z 33014KT CAVOK 08/05 Q1012 NOSIG",
      "taf": "TAF UBBB 162305Z 1700/1724 32014KT 9999 BKN040 TX10/1710Z TN06/1701Z"
    },
    {
      "icao": "UDSG",
      "alert": "OK",
      "vis_m": 9999,
      "fzfg": false,
      "metar_trigger": false,
      "taf_trigger": false,
      "metar": "METAR UDSG 170330Z 27003KT 9999 SCT046 M01/M01 Q1014 NOSIG",
      "taf": ""
    },
    {
      "icao": "UDYZ",
      "alert": "OK",
      "vis_m": 9999,
      "fzfg": false,
      "metar_trigger": false,
      "taf_trigger": false,
      "metar": "METAR UDYZ 170330Z 06004KT 9999 NSC 02/01 Q1012 NOSIG",
      "taf": "TAF UDYZ 162300Z 1700/1724 VRB06KT 9999 FEW040"
    },
    {
      "icao": "UGKO",
      "alert": "OK",
      "vis_m": 9999,
      "fzfg": false,
      "metar_trigger": false,
      "taf_trigger": false,
      "metar": "METAR UGKO 170330Z VRB02KT 9999 SCT007 BKN010 OVC016 08/07 Q1017 NOSIG",
      "taf": "TAF UGKO 162300Z 1700/1724 25007KT 9999 SCT023 BKN050 TX12/1711Z TN07/1703Z"
    }
  ]
}