{
  "ts_utc": "2026-03-18T21:55:26Z",
  "threshold_m": 150,
  "source": "stations_override.txt (ICAO list) + aviationweather.gov (METAR/TAF raw)",
  "station_count": 159,
  "stations": [
    {
      "icao": "BIKF",
      "alert": "OK",
      "vis_m": 9999,
      "fzfg": false,
      "metar_trigger": false,
      "taf_trigger": false,
      "metar": "METAR BIKF 182130Z 16020KT 9999 -RA OVC015 04/01 Q1012",
      "taf": "TAF BIKF 181946Z 1821/1921 18022G32KT 7000 RA BKN010 OVC020 TX07/1912Z TN02/1921Z"
    },
    {
      "icao": "BKPR",
      "alert": "OK",
      "vis_m": null,
      "fzfg": false,
      "metar_trigger": false,
      "taf_trigger": false,
      "metar": "",
      "taf": "TAF BKPR 181730Z 1818/1918 03008KT 9999 SCT030 BKN050"
    },
    {
      "icao": "EBCI",
      "alert": "OK",
      "vis_m": 9999,
      "fzfg": false,
      "metar_trigger": false,
      "taf_trigger": false,
      "metar": "METAR EBCI 182120Z 07008KT CAVOK 07/01 Q1024 NOSIG",
      "taf": "TAF EBCI 181720Z 1818/1924 09008KT CAVOK"
    },
    {
      "icao": "EDDB",
      "alert": "OK",
      "vis_m": 9999,
      "fzfg": false,
      "metar_trigger": false,
      "taf_trigger": false,
      "metar": "METAR EDDB 182150Z AUTO 06006KT CAVOK 06/01 Q1030 NOSIG",
      "taf": "TAF EDDB 181700Z 1818/1918 07005KT CAVOK"
    },
    {
      "icao": "EDDH",
      "alert": "OK",
      "vis_m": 9999,
      "fzfg": false,
      "metar_trigger": false,
      "taf_trigger": false,
      "metar": "METAR EDDH 182150Z AUTO VRB02KT CAVOK 05/02 Q1030 NOSIG",
      "taf": ""
    },
    {
      "icao": "EDDK",
      "alert": "OK",
      "vis_m": 9999,
      "fzfg": false,
      "metar_trigger": false,
      "taf_trigger": false,
      "metar": "METAR EDDK 182150Z AUTO 07009KT CAVOK 09/02 Q1026 BECMG 06003KT",
      "taf": "TAF EDDK 181700Z 1818/1924 09009KT CAVOK"
    },
    {
      "icao": "EDDN",
      "alert": "OK",
      "vis_m": 9999,
      "fzfg": false,
      "metar_trigger": false,
      "taf_trigger": false,
      "metar": "METAR EDDN 182150Z AUTO 10006KT 060V120 CAVOK 07/01 Q1025",
      "taf": "TAF EDDN 181700Z 1818/1918 11012KT CAVOK"
    },
    {
      "icao": "EDDS",
      "alert": "OK",
      "vis_m": 9999,
      "fzfg": false,
      "metar_trigger": false,
      "taf_trigger": false,
      "metar": "METAR EDDS 182150Z AUTO 05007KT CAVOK 07/02 Q1022",
      "taf": "TAF EDDS 181700Z 1818/1918 07012KT CAVOK"
    },
    {
      "icao": "EDFH",
      "alert": "OK",
      "vis_m": 9999,
      "fzfg": false,
      "metar_trigger": false,
      "taf_trigger": false,
      "metar": "METAR EDFH 182120Z 08007KT 030V130 CAVOK 07/01 Q1024",
      "taf": "TAF EDFH 181700Z 1818/1918 08008KT CAVOK"
    },
    {
      "icao": "EDJA",
      "alert": "OK",
      "vis_m": 9999,
      "fzfg": false,
      "metar_trigger": false,
      "taf_trigger": false,
      "metar": "METAR EDJA 182120Z 07007KT CAVOK 05/01 Q1021",
      "taf": "TAF EDJA 181700Z 1818/1903 08015G25KT CAVOK"
    },
    {
      "icao": "EDLW",
      "alert": "OK",
      "vis_m": 9999,
      "fzfg": false,
      "metar_trigger": false,
      "taf_trigger": false,
      "metar": "METAR EDLW 182120Z VRB02KT CAVOK 08/02 Q1026",
      "taf": "TAF EDLW 181700Z 1818/1918 08009KT CAVOK"
    },
    {
      "icao": "EDNY",
      "alert": "OK",
      "vis_m": 9999,
      "fzfg": false,
      "metar_trigger": false,
      "taf_trigger": false,
      "metar": "METAR EDNY 182120Z AUTO 04006KT 9999 // NCD 07/01 Q1020",
      "taf": "TAF EDNY 181700Z 1818/1903 04015G25KT CAVOK"
    },
    {
      "icao": "EDSB",
      "alert": "OK",
      "vis_m": 9999,
      "fzfg": false,
      "metar_trigger": false,
      "taf_trigger": false,
      "metar": "METAR EDSB 182120Z 01009KT CAVOK 09/03 Q1022",
      "taf": "TAF EDSB 181700Z 1818/1918 03011KT CAVOK"
    },
    {
      "icao": "EETN",
      "alert": "OK",
      "vis_m": 9999,
      "fzfg": false,
      "metar_trigger": false,
      "taf_trigger": false,
      "metar": "METAR EETN 182150Z 20013KT 9999 OVC005 00/M01 Q1026 TEMPO OVC004",
      "taf": "TAF EETN 181730Z 1818/1918 20010KT 9999 FEW008"
    },
    {
      "icao": "EFTU",
      "alert": "OK",
      "vis_m": 9999,
      "fzfg": false,
      "metar_trigger": false,
      "taf_trigger": false,
      "metar": "METAR EFTU 182150Z AUTO 22009KT 9999 OVC027 03/01 Q1022",
      "taf": "TAF EFTU 182024Z 1821/1921 21009KT 9999 OVC030"
    },
    {
      "icao": "EGBB",
      "alert": "OK",
      "vis_m": 9999,
      "fzfg": false,
      "metar_trigger": false,
      "taf_trigger": false,
      "metar": "METAR EGBB 182120Z 13006KT CAVOK 10/04 Q1024",
      "taf": "TAF EGBB 181655Z 1818/1918 11006KT CAVOK"
    },
    {
      "icao": "EGGP",
      "alert": "OK",
      "vis_m": 9999,
      "fzfg": false,
      "metar_trigger": false,
      "taf_trigger": false,
      "metar": "METAR EGGP 182120Z 04003KT 360V090 CAVOK 13/07 Q1024",
      "taf": "TAF EGGP 181657Z 1818/1918 16004KT 9999 FEW030"
    },
    {
      "icao": "EGGW",
      "alert": "OK",
      "vis_m": 9999,
      "fzfg": false,
      "metar_trigger": false,
      "taf_trigger": false,
      "metar": "METAR EGGW 182120Z AUTO 10009KT 9999 NCD 07/02 Q1024",
      "taf": "TAF EGGW 181655Z 1818/1918 09010KT CAVOK"
    },
    {
      "icao": "EGKK",
      "alert": "OK",
      "vis_m": 9999,
      "fzfg": false,
      "metar_trigger": false,
      "taf_trigger": false,
      "metar": "METAR EGKK 182120Z 07005KT CAVOK 06/02 Q1024",
      "taf": "TAF EGKK 181651Z 1818/1924 08008KT CAVOK"
    },
    {
      "icao": "EGNM",
      "alert": "OK",
      "vis_m": 9999,
      "fzfg": false,
      "metar_trigger": false,
      "taf_trigger": false,
      "metar": "METAR EGNM 182120Z 03003KT CAVOK 11/08 Q1025",
      "taf": "TAF EGNM 181657Z 1818/1918 VRB03KT 9999 FEW030"
    },
    {
      "icao": "EGPD",
      "alert": "OK",
      "vis_m": 9999,
      "fzfg": false,
      "metar_trigger": false,
      "taf_trigger": false,
      "metar": "METAR EGPD 182120Z COR AUTO 14002KT 9999 NCD 08/05 Q1027 NOSIG",
      "taf": "TAF EGPD 181656Z 1818/1918 VRB03KT 9999 FEW040"
    },
    {
      "icao": "EGPF",
      "alert": "OK",
      "vis_m": 9999,
      "fzfg": false,
      "metar_trigger": false,
      "taf_trigger": false,
      "metar": "METAR EGPF 182120Z AUTO 23005KT 9999 NCD 05/03 Q1028",
      "taf": "TAF EGPF 181656Z 1818/1918 31007KT 9999 FEW040"
    },
    {
      "icao": "EHBK",
      "alert": "OK",
      "vis_m": 9999,
      "fzfg": false,
      "metar_trigger": false,
      "taf_trigger": false,
      "metar": "METAR EHBK 182125Z AUTO 06008KT 9999 NCD 08/01 Q1025 NOSIG",
      "taf": "TAF EHBK 181721Z 1818/1924 08010KT CAVOK"
    },
    {
      "icao": "EHEH",
      "alert": "OK",
      "vis_m": 9999,
      "fzfg": false,
      "metar_trigger": false,
      "taf_trigger": false,
      "metar": "METAR EHEH 182125Z AUTO 04005KT 9999 BKN320 08/02 Q1026 BLU NOSIG RMK TREND REMOTE BY EHWX",
      "taf": "TAF EHEH 181750Z 1818/1924 08006KT CAVOK"
    },
    {
      "icao": "EKBI",
      "alert": "OK",
      "vis_m": 9999,
      "fzfg": false,
      "metar_trigger": false,
      "taf_trigger": false,
      "metar": "METAR EKBI 182150Z AUTO 13003KT 9999 NCD 01/M02 Q1029",
      "taf": "TAF EKBI 182027Z 1821/1921 19005KT CAVOK"
    },
    {
      "icao": "EKCH",
      "alert": "OK",
      "vis_m": 9000,
      "fzfg": false,
      "metar_trigger": false,
      "taf_trigger": false,
      "metar": "METAR EKCH 182150Z AUTO 21001KT 9000 NCD 02/01 Q1030 NOSIG",
      "taf": "TAF EKCH 182027Z 1821/1921 19007KT CAVOK"
    },
    {
      "icao": "ENAL",
      "alert": "OK",
      "vis_m": 9999,
      "fzfg": false,
      "metar_trigger": false,
      "taf_trigger": false,
      "metar": "METAR ENAL 182120Z 25014KT 9999 SCT031 BKN039 07/05 Q1021",
      "taf": "TAF ENAL 182000Z 1821/1906 26018KT 9999 -SHRA FEW015 BKN030"
    },
    {
      "icao": "ENBR",
      "alert": "OK",
      "vis_m": 9999,
      "fzfg": false,
      "metar_trigger": false,
      "taf_trigger": false,
      "metar": "METAR ENBR 182120Z 18006KT 9999 SCT005 BKN008 06/05 Q1026 RMK WIND 1200FT 19010KT",
      "taf": "TAF ENBR 181700Z 1818/1918 19007KT 9000 SCT006 BKN040"
    },
    {
      "icao": "ENGM",
      "alert": "OK",
      "vis_m": 7000,
      "fzfg": false,
      "metar_trigger": false,
      "taf_trigger": false,
      "metar": "METAR ENGM 182120Z 20006KT 7000 1400E BCFG OVC003 05/04 Q1023 TEMPO 2000 BR",
      "taf": "TAF ENGM 181700Z 1818/1918 19010KT 4000 BR OVC003"
    },
    {
      "icao": "ENHD",
      "alert": "OK",
      "vis_m": 9000,
      "fzfg": false,
      "metar_trigger": false,
      "taf_trigger": false,
      "metar": "METAR ENHD 182120Z AUTO 13003KT 9000 OVC004/// 06/05 Q1026",
      "taf": "TAF ENHD 181400Z 1815/1823 18009KT 6000 SCT004 BKN006"
    },
    {
      "icao": "ENTC",
      "alert": "OK",
      "vis_m": 9999,
      "fzfg": false,
      "metar_trigger": false,
      "taf_trigger": false,
      "metar": "METAR ENTC 182120Z 18017KT 9999 -RA BKN026 06/00 Q0991 TEMPO SCT020CB RMK WIND 2600FT 18032KT",
      "taf": "TAF ENTC 181700Z 1818/1918 22020KT 9999 -SHRA SCT015 BKN030"
    },
    {
      "icao": "ENTO",
      "alert": "OK",
      "vis_m": 350,
      "fzfg": false,
      "metar_trigger": false,
      "taf_trigger": false,
      "metar": "METAR ENTO 182120Z AUTO 23004KT 0350 R18/1200N R36/1500N +RA VV002 05/05 Q1024",
      "taf": "TAF ENTO 181700Z 1818/1918 21010KT 3000 BR OVC003"
    },
    {
      "icao": "ENVA",
      "alert": "OK",
      "vis_m": 9999,
      "fzfg": false,
      "metar_trigger": false,
      "taf_trigger": false,
      "metar": "METAR ENVA 182120Z 29013KT 9999 SCT025 BKN031 07/05 Q1017 RMK WIND 670FT 28015KT",
      "taf": "TAF ENVA 181700Z 1818/1918 26018KT 9999 BKN040"
    },
    {
      "icao": "ENZV",
      "alert": "OK",
      "vis_m": 9999,
      "fzfg": false,
      "metar_trigger": false,
      "taf_trigger": false,
      "metar": "METAR ENZV 182120Z 00000KT 9999 SCT006 BKN012 OVC015 07/06 Q1027",
      "taf": ""
    },
    {
      "icao": "EPGD",
      "alert": "OK",
      "vis_m": 7000,
      "fzfg": false,
      "metar_trigger": false,
      "taf_trigger": false,
      "metar": "METAR EPGD 182130Z 11001KT 7000 NSC 02/01 Q1030",
      "taf": "TAF EPGD 181730Z 1818/1918 VRB02KT CAVOK"
    },
    {
      "icao": "EPKK",
      "alert": "OK",
      "vis_m": 9999,
      "fzfg": false,
      "metar_trigger": false,
      "taf_trigger": false,
      "metar": "METAR EPKK 182130Z 05004KT CAVOK 05/M03 Q1027",
      "taf": "TAF EPKK 182030Z 1821/1921 06005KT CAVOK"
    },
    {
      "icao": "EPKT",
      "alert": "OK",
      "vis_m": 9999,
      "fzfg": false,
      "metar_trigger": false,
      "taf_trigger": false,
      "metar": "METAR EPKT 182130Z 03004KT CAVOK M00/M03 Q1028",
      "taf": "TAF EPKT 181730Z 1818/1918 06005KT CAVOK"
    },
    {
      "icao": "EPLB",
      "alert": "OK",
      "vis_m": 9999,
      "fzfg": false,
      "metar_trigger": false,
      "taf_trigger": false,
      "metar": "METAR EPLB 182130Z 30002KT CAVOK 02/M02 Q1028",
      "taf": "TAF EPLB 181730Z 1818/1918 VRB02KT CAVOK"
    },
    {
      "icao": "EPMO",
      "alert": "OK",
      "vis_m": 9999,
      "fzfg": false,
      "metar_trigger": false,
      "taf_trigger": false,
      "metar": "METAR EPMO 182130Z 02003KT CAVOK 04/02 Q1029",
      "taf": "TAF EPMO 181730Z 1818/1918 01004KT CAVOK"
    },
    {
      "icao": "EPPO",
      "alert": "OK",
      "vis_m": 9999,
      "fzfg": false,
      "metar_trigger": false,
      "taf_trigger": false,
      "metar": "METAR EPPO 182130Z 07005KT CAVOK 04/00 Q1030",
      "taf": "TAF EPPO 181730Z 1818/1918 VRB02KT CAVOK"
    },
    {
      "icao": "EPRA",
      "alert": "OK",
      "vis_m": 9999,
      "fzfg": false,
      "metar_trigger": false,
      "taf_trigger": false,
      "metar": "METAR EPRA 182130Z 01002KT CAVOK 06/00 Q1028",
      "taf": "TAF EPRA 182030Z 1821/1906 06005KT CAVOK"
    },
    {
      "icao": "EPRZ",
      "alert": "OK",
      "vis_m": 9999,
      "fzfg": false,
      "metar_trigger": false,
      "taf_trigger": false,
      "metar": "METAR EPRZ 182130Z 35005KT CAVOK 05/M01 Q1027",
      "taf": "TAF EPRZ 181730Z 1818/1918 06006KT 9999 BKN050"
    },
    {
      "icao": "EPSC",
      "alert": "OK",
      "vis_m": 9999,
      "fzfg": false,
      "metar_trigger": false,
      "taf_trigger": false,
      "metar": "METAR EPSC 182130Z VRB01KT CAVOK 04/00 Q1030",
      "taf": "TAF EPSC 181730Z 1818/1918 VRB02KT CAVOK"
    },
    {
      "icao": "EPSY",
      "alert": "OK",
      "vis_m": 9999,
      "fzfg": false,
      "metar_trigger": false,
      "taf_trigger": false,
      "metar": "METAR EPSY 182130Z 02002KT CAVOK 01/M01 Q1030",
      "taf": "TAF EPSY 182030Z 1821/1906 01005KT CAVOK"
    },
    {
      "icao": "EPWA",
      "alert": "OK",
      "vis_m": 9999,
      "fzfg": false,
      "metar_trigger": false,
      "taf_trigger": false,
      "metar": "METAR EPWA 182130Z 04005KT 010V080 CAVOK 09/03 Q1029 NOSIG",
      "taf": "TAF EPWA 182030Z 1821/1921 03004KT CAVOK"
    },
    {
      "icao": "EPWR",
      "alert": "OK",
      "vis_m": 9999,
      "fzfg": false,
      "metar_trigger": false,
      "taf_trigger": false,
      "metar": "METAR EPWR 182130Z 36003KT CAVOK 05/03 Q1029",
      "taf": "TAF EPWR 182030Z 1821/1921 VRB02KT CAVOK"
    },
    {
      "icao": "ESGG",
      "alert": "OK",
      "vis_m": 9999,
      "fzfg": false,
      "metar_trigger": false,
      "taf_trigger": false,
      "metar": "METAR ESGG 182120Z 20007KT 9999 OVC032 06/02 Q1027",
      "taf": "TAF ESGG 182030Z 1821/1921 20012KT 9999 BKN020"
    },
    {
      "icao": "ESKN",
      "alert": "OK",
      "vis_m": 9999,
      "fzfg": false,
      "metar_trigger": false,
      "taf_trigger": false,
      "metar": "METAR ESKN 182120Z 24011KT 9999 BKN026 BKN033 10/03 Q1025",
      "taf": "TAF ESKN 182030Z 1821/1921 23009KT 9999 BKN035"
    },
    {
      "icao": "ESMS",
      "alert": "OK",
      "vis_m": 9999,
      "fzfg": false,
      "metar_trigger": false,
      "taf_trigger": false,
      "metar": "METAR ESMS 182120Z 09002KT CAVOK 01/00 Q1030",
      "taf": "TAF ESMS 182027Z 1821/1921 19005KT CAVOK"
    },
    {
      "icao": "ESSA",
      "alert": "OK",
      "vis_m": 9999,
      "fzfg": false,
      "metar_trigger": false,
      "taf_trigger": false,
      "metar": "METAR ESSA 182120Z 24013KT 9999 BKN021 09/05 Q1023 BECMG BKN014",
      "taf": "TAF ESSA 182030Z 1821/1921 22011KT 9999 BKN035"
    },
    {
      "icao": "EYKA",
      "alert": "OK",
      "vis_m": 4800,
      "fzfg": false,
      "metar_trigger": false,
      "taf_trigger": false,
      "metar": "METAR EYKA 182150Z 00000KT 4800 BR NSC 01/01 Q1030",
      "taf": "TAF EYKA 181700Z 1818/1918 VRB03KT 8000 NSC"
    },
    {
      "icao": "EYPA",
      "alert": "OK",
      "vis_m": 900,
      "fzfg": true,
      "metar_trigger": false,
      "taf_trigger": false,
      "metar": "METAR EYPA 182150Z VRB01KT 0900 R19/1100N FZFG VV002 M02/M02 Q1031",
      "taf": "TAF EYPA 181700Z 1818/1918 VRB03KT 0350 FZFG VV002"
    },
    {
      "icao": "EYVI",
      "alert": "OK",
      "vis_m": 9999,
      "fzfg": false,
      "metar_trigger": false,
      "taf_trigger": false,
      "metar": "METAR EYVI 182150Z 32003KT CAVOK 04/01 Q1029 NOSIG",
      "taf": "TAF EYVI 181700Z 1818/1918 VRB03KT 8000 SCT035"
    },
    {
      "icao": "GCFV",
      "alert": "OK",
      "vis_m": 9999,
      "fzfg": false,
      "metar_trigger": false,
      "taf_trigger": false,
      "metar": "METAR GCFV 182130Z 28006KT 240V340 9999 FEW020 SCT033 BKN047 15/12 Q1005",
      "taf": "TAF GCFV 182000Z 1821/1921 27008KT 9999 SCT025 TX22/1914Z TN15/1906Z"
    },
    {
      "icao": "GCLP",
      "alert": "OK",
      "vis_m": 9999,
      "fzfg": false,
      "metar_trigger": false,
      "taf_trigger": false,
      "metar": "METAR GCLP 182130Z 03006KT 9999 SCT035 16/12 Q1004 NOSIG",
      "taf": "TAF GCLP 182000Z 1821/1921 24006KT 9999 SCT030 TX22/1914Z TN15/1906Z"
    },
    {
      "icao": "GCTS",
      "alert": "OK",
      "vis_m": 9999,
      "fzfg": false,
      "metar_trigger": false,
      "taf_trigger": false,
      "metar": "METAR GCTS 182130Z 29020KT 260V320 9999 FEW030 16/07 Q1003 NOSIG",
      "taf": "TAF GCTS 182000Z 1821/1921 28023KT 9999 SCT025 TX23/1914Z TN15/1906Z"
    },
    {
      "icao": "GMAD",
      "alert": "OK",
      "vis_m": 8000,
      "fzfg": false,
      "metar_trigger": false,
      "taf_trigger": false,
      "metar": "METAR GMAD 182130Z 22006KT 8000 SCT020 18/14 Q1006 NOSIG",
      "taf": "TAF GMAD 181700Z 1818/1924 20010KT 8000 SCT020 SCT080"
    },
    {
      "icao": "GMMN",
      "alert": "OK",
      "vis_m": 9999,
      "fzfg": false,
      "metar_trigger": false,
      "taf_trigger": false,
      "metar": "METAR GMMN 182130Z 28005KT CAVOK 13/11 Q1004 NOSIG",
      "taf": "TAF GMMN 181700Z 1818/1924 32012KT 9999 SCT040"
    },
    {
      "icao": "GMMX",
      "alert": "OK",
      "vis_m": 8000,
      "fzfg": false,
      "metar_trigger": false,
      "taf_trigger": false,
      "metar": "METAR GMMX 182130Z 13007KT 050V200 8000 FEW023 21/06 Q1002 NOSIG",
      "taf": "TAF GMMX 181700Z 1818/1924 06006KT 8000 NSC"
    },
    {
      "icao": "HEGN",
      "alert": "OK",
      "vis_m": 9999,
      "fzfg": false,
      "metar_trigger": false,
      "taf_trigger": false,
      "metar": "METAR HEGN 182100Z 00000KT 9999 SCT020 BKN025 20/17 Q1001 NOSIG",
      "taf": "TAF HEGN 181700Z 1818/1924 12016KT 9999 SCT020"
    },
    {
      "icao": "HEMA",
      "alert": "OK",
      "vis_m": 9999,
      "fzfg": false,
      "metar_trigger": false,
      "taf_trigger": false,
      "metar": "METAR HEMA 182100Z 35003KT CAVOK 25/18 Q1001 NOSIG",
      "taf": "TAF HEMA 181700Z 1818/1924 13018KT 9999 SCT025"
    },
    {
      "icao": "HESH",
      "alert": "OK",
      "vis_m": 9999,
      "fzfg": false,
      "metar_trigger": false,
      "taf_trigger": false,
      "metar": "METAR HESH 182100Z 35010KT CAVOK 21/13 Q1002 NOSIG",
      "taf": "TAF HESH 181700Z 1818/1924 32014KT 9999 SCT025"
    },
    {
      "icao": "HESX",
      "alert": "OK",
      "vis_m": 9999,
      "fzfg": false,
      "metar_trigger": false,
      "taf_trigger": false,
      "metar": "METAR HESX 182100Z 22006KT CAVOK 17/04 Q1001 NOSIG",
      "taf": ""
    },
    {
      "icao": "LATI",
      "alert": "OK",
      "vis_m": 9999,
      "fzfg": false,
      "metar_trigger": false,
      "taf_trigger": false,
      "metar": "METAR LATI 182150Z 02003KT 9999 FEW066 SCT094 09/06 Q1012 NOSIG",
      "taf": "TAF LATI 181700Z 1818/1918 VRB03KT 9999 FEW050 BKN070 TX16/1912Z TN07/1905Z"
    },
    {
      "icao": "LBPD",
      "alert": "OK",
      "vis_m": 9999,
      "fzfg": false,
      "metar_trigger": false,
      "taf_trigger": false,
      "metar": "METAR LBPD 182130Z AUTO 18001KT 9999 -SHRA FEW035/// OVC040/// 06/06 Q1020",
      "taf": "TAF LBPD 181700Z 1818/1918 16010KT 9999 SCT030 OVC050"
    },
    {
      "icao": "LBSF",
      "alert": "OK",
      "vis_m": 9999,
      "fzfg": false,
      "metar_trigger": false,
      "taf_trigger": false,
      "metar": "METAR LBSF 182130Z AUTO 14008KT 9999 BKN032/// OVC064/// 04/02 Q1019 NOSIG",
      "taf": "TAF LBSF 181700Z 1818/1918 12010KT 9999 SCT030 OVC040"
    },
    {
      "icao": "LBWN",
      "alert": "OK",
      "vis_m": 9999,
      "fzfg": false,
      "metar_trigger": false,
      "taf_trigger": false,
      "metar": "METAR LBWN 182130Z AUTO 03008KT 9999 NSC 05/02 Q1020 NOSIG",
      "taf": "TAF LBWN 181700Z 1818/1918 02012KT 9999 SCT040"
    },
    {
      "icao": "LCLK",
      "alert": "OK",
      "vis_m": 8000,
      "fzfg": false,
      "metar_trigger": false,
      "taf_trigger": false,
      "metar": "METAR LCLK 182130Z 08014KT 8000 -SHRA SCT060 19/16 Q1001 NOSIG",
      "taf": ""
    },
    {
      "icao": "LCPH",
      "alert": "OK",
      "vis_m": 9999,
      "fzfg": false,
      "metar_trigger": false,
      "taf_trigger": false,
      "metar": "METAR LCPH 182130Z 08015G25KT 9999 FEW030CB 19/09 Q0999 NOSIG",
      "taf": ""
    },
    {
      "icao": "LEAL",
      "alert": "OK",
      "vis_m": 9999,
      "fzfg": false,
      "metar_trigger": false,
      "taf_trigger": false,
      "metar": "METAR LEAL 182130Z 05010KT CAVOK 16/13 Q1010 NOSIG",
      "taf": "TAF LEAL 181700Z 1818/1918 07010KT 9999 FEW020 TX19/1912Z TN11/1907Z"
    },
    {
      "icao": "LEBB",
      "alert": "OK",
      "vis_m": 9999,
      "fzfg": false,
      "metar_trigger": false,
      "taf_trigger": false,
      "metar": "METAR LEBB 182130Z 10004KT 050V140 CAVOK 11/09 Q1008 NOSIG",
      "taf": "TAF LEBB 181700Z 1818/1918 14009KT CAVOK TX20/1914Z TN08/1906Z"
    },
    {
      "icao": "LEBL",
      "alert": "OK",
      "vis_m": 9000,
      "fzfg": false,
      "metar_trigger": false,
      "taf_trigger": false,
      "metar": "METAR LEBL 182130Z 07015KT 040V100 9000 BKN017 BKN024 BKN033 14/10 Q1015 NOSIG",
      "taf": "TAF LEBL 181700Z 1818/1918 07012KT 9999 FEW020 TX16/1912Z TN10/1906Z"
    },
    {
      "icao": "LECH",
      "alert": "OK",
      "vis_m": 9999,
      "fzfg": false,
      "metar_trigger": false,
      "taf_trigger": false,
      "metar": "METAR LECH 182130Z AUTO 06008KT 040V100 9999 SCT014 SCT020 BKN031 11/09 Q1013",
      "taf": "TAF LECH 181700Z 1818/1918 11006KT 9999 FEW010 TX16/1912Z TN06/1907Z"
    },
    {
      "icao": "LEMD",
      "alert": "OK",
      "vis_m": 9999,
      "fzfg": false,
      "metar_trigger": false,
      "taf_trigger": false,
      "metar": "METAR LEMD 182130Z VRB02KT CAVOK 09/02 Q1009 NOSIG",
      "taf": "TAF LEMD 181700Z 1818/1924 VRB04KT CAVOK TX21/1915Z TN06/1907Z"
    },
    {
      "icao": "LEMG",
      "alert": "OK",
      "vis_m": 9999,
      "fzfg": false,
      "metar_trigger": false,
      "taf_trigger": false,
      "metar": "METAR LEMG 182130Z 15003KT CAVOK 14/11 Q1007 NOSIG",
      "taf": "TAF LEMG 181700Z 1818/1918 VRB03KT CAVOK TX20/1913Z TN10/1906Z"
    },
    {
      "icao": "LEVC",
      "alert": "OK",
      "vis_m": 9999,
      "fzfg": false,
      "metar_trigger": false,
      "taf_trigger": false,
      "metar": "SPECI LEVC 182144Z 05010KT 9999 FEW011 SCT015 13/11 Q1013 NOSIG",
      "taf": ""
    },
    {
      "icao": "LEXJ",
      "alert": "OK",
      "vis_m": 9999,
      "fzfg": false,
      "metar_trigger": false,
      "taf_trigger": false,
      "metar": "METAR LEXJ 182130Z VRB02KT CAVOK 10/07 Q1008",
      "taf": "TAF LEXJ 182000Z 1821/1921 33008KT CAVOK TX21/1913Z TN09/1907Z"
    },
    {
      "icao": "LEZG",
      "alert": "OK",
      "vis_m": 9999,
      "fzfg": false,
      "metar_trigger": false,
      "taf_trigger": false,
      "metar": "METAR LEZG 182130Z 10017G27KT CAVOK 12/07 Q1010 NOSIG",
      "taf": "TAF LEZG 181700Z 1818/1918 11010KT 9999 FEW020 TX18/1914Z TN08/1907Z"
    },
    {
      "icao": "LEZL",
      "alert": "OK",
      "vis_m": 9999,
      "fzfg": false,
      "metar_trigger": false,
      "taf_trigger": false,
      "metar": "METAR LEZL 182130Z 08003KT CAVOK 14/11 Q1006 NOSIG",
      "taf": "TAF LEZL 182000Z 1821/1921 07005KT CAVOK TX24/1915Z TN12/1907Z"
    },
    {
      "icao": "LFBD",
      "alert": "OK",
      "vis_m": 9999,
      "fzfg": false,
      "metar_trigger": false,
      "taf_trigger": false,
      "metar": "METAR LFBD 182130Z AUTO 13011KT CAVOK 15/07 Q1010 BECMG 06010KT",
      "taf": "TAF LFBD 181700Z 1818/1924 06010KT CAVOK TX19/1818Z TN09/1905Z"
    },
    {
      "icao": "LFLL",
      "alert": "OK",
      "vis_m": 9999,
      "fzfg": false,
      "metar_trigger": false,
      "taf_trigger": false,
      "metar": "METAR LFLL 182130Z 16004KT CAVOK 08/04 Q1017 NOSIG",
      "taf": ""
    },
    {
      "icao": "LFLS",
      "alert": "OK",
      "vis_m": 9999,
      "fzfg": false,
      "metar_trigger": false,
      "taf_trigger": false,
      "metar": "METAR LFLS 182130Z AUTO 10004KT CAVOK 02/01 Q1017",
      "taf": "TAF LFLS 181400Z 1815/1915 VRB03KT CAVOK"
    },
    {
      "icao": "LFMN",
      "alert": "OK",
      "vis_m": 9999,
      "fzfg": false,
      "metar_trigger": false,
      "taf_trigger": false,
      "metar": "METAR LFMN 182130Z 32009KT CAVOK 10/01 Q1017 NOSIG",
      "taf": ""
    },
    {
      "icao": "LFOB",
      "alert": "OK",
      "vis_m": 9999,
      "fzfg": false,
      "metar_trigger": false,
      "taf_trigger": false,
      "metar": "METAR LFOB 182130Z AUTO 07008KT CAVOK 08/01 Q1022 NOSIG",
      "taf": "TAF LFOB 181700Z 1818/1918 08010KT CAVOK"
    },
    {
      "icao": "LFPO",
      "alert": "OK",
      "vis_m": 9999,
      "fzfg": false,
      "metar_trigger": false,
      "taf_trigger": false,
      "metar": "METAR LFPO 182130Z 08013KT CAVOK 11/01 Q1020 NOSIG",
      "taf": "TAF LFPO 181700Z 1818/1924 07012G22KT CAVOK"
    },
    {
      "icao": "LFSB",
      "alert": "OK",
      "vis_m": 9999,
      "fzfg": false,
      "metar_trigger": false,
      "taf_trigger": false,
      "metar": "METAR LFSB 182130Z AUTO 11007KT 9999 FEW050 09/01 Q1019 NOSIG",
      "taf": "TAF LFSB 181700Z 1818/1918 10010KT CAVOK"
    },
    {
      "icao": "LGAV",
      "alert": "OK",
      "vis_m": 9999,
      "fzfg": false,
      "metar_trigger": false,
      "taf_trigger": false,
      "metar": "METAR LGAV 182120Z 36020KT 9999 FEW018 SCT025 BKN070 12/06 Q1011 NOSIG",
      "taf": "TAF LGAV 181700Z 1818/1918 03016KT 9999 FEW020 SCT035 BKN070"
    },
    {
      "icao": "LGTS",
      "alert": "OK",
      "vis_m": 9999,
      "fzfg": false,
      "metar_trigger": false,
      "taf_trigger": false,
      "metar": "METAR LGTS 182120Z VRB03KT 9999 SCT030 10/04 Q1016 NOSIG",
      "taf": "TAF LGTS 181700Z 1818/1918 14013KT 9999 BKN025"
    },
    {
      "icao": "LHBP",
      "alert": "OK",
      "vis_m": 9999,
      "fzfg": false,
      "metar_trigger": false,
      "taf_trigger": false,
      "metar": "METAR LHBP 182130Z 05007KT CAVOK 10/M03 Q1023 NOSIG",
      "taf": "TAF LHBP 181715Z 1818/1918 05008KT CAVOK"
    },
    {
      "icao": "LHDC",
      "alert": "OK",
      "vis_m": 9999,
      "fzfg": false,
      "metar_trigger": false,
      "taf_trigger": false,
      "metar": "METAR LHDC 182115Z AUTO 04012KT CAVOK 08/M03 Q1023",
      "taf": "TAF LHDC 181415Z 1815/1824 07014KT CAVOK"
    },
    {
      "icao": "LIBD",
      "alert": "OK",
      "vis_m": 9999,
      "fzfg": false,
      "metar_trigger": false,
      "taf_trigger": false,
      "metar": "METAR LIBD 182120Z 25008KT 9999 SCT025 09/06 Q1011",
      "taf": "TAF LIBD 181700Z 1818/1918 VRB06KT 9999 SCT030"
    },
    {
      "icao": "LIBG",
      "alert": "OK",
      "vis_m": null,
      "fzfg": false,
      "metar_trigger": false,
      "taf_trigger": false,
      "metar": "",
      "taf": "TAF LIBG 181700Z 1818/1903 VRB06KT 9999 SCT025"
    },
    {
      "icao": "LIBP",
      "alert": "OK",
      "vis_m": 9999,
      "fzfg": false,
      "metar_trigger": false,
      "taf_trigger": false,
      "metar": "METAR LIBP 182120Z AUTO 23005KT 9999 FEW029/// BKN041/// BKN120/// 06/06 Q1014",
      "taf": "TAF LIBP 181700Z 1818/1918 VRB05KT 9999 BKN020"
    },
    {
      "icao": "LIBR",
      "alert": "OK",
      "vis_m": 9999,
      "fzfg": false,
      "metar_trigger": false,
      "taf_trigger": false,
      "metar": "METAR LIBR 182120Z 24003KT 9999 SCT020 10/08 Q1011",
      "taf": "TAF LIBR 181700Z 1818/1918 08010KT 9999 BKN030"
    },
    {
      "icao": "LICA",
      "alert": "OK",
      "vis_m": 9999,
      "fzfg": false,
      "metar_trigger": false,
      "taf_trigger": false,
      "metar": "METAR LICA 182120Z AUTO 06004KT 9999 OVC110/// 08/07 Q1011",
      "taf": "TAF LICA 181700Z 1818/1918 VRB06KT 8000 SCT050"
    },
    {
      "icao": "LICC",
      "alert": "OK",
      "vis_m": 9999,
      "fzfg": false,
      "metar_trigger": false,
      "taf_trigger": false,
      "metar": "METAR LICC 182120Z 28005KT 9999 -RA BKN060 12/10 Q1010",
      "taf": "TAF LICC 181700Z 1818/1918 VRB06KT 8000 SCT035"
    },
    {
      "icao": "LICJ",
      "alert": "OK",
      "vis_m": 9999,
      "fzfg": false,
      "metar_trigger": false,
      "taf_trigger": false,
      "metar": "METAR LICJ 182120Z 17005KT 130V210 9999 FEW035 11/07 Q1011",
      "taf": "TAF LICJ 181700Z 1818/1918 34010KT 9999 SCT030"
    },
    {
      "icao": "LIMC",
      "alert": "OK",
      "vis_m": 9999,
      "fzfg": false,
      "metar_trigger": false,
      "taf_trigger": false,
      "metar": "METAR LIMC 182120Z VRB02KT 9999 FEW100 06/02 Q1021 NOSIG",
      "taf": "TAF LIMC 181700Z 1818/1924 35010KT 9999 FEW050"
    },
    {
      "icao": "LIME",
      "alert": "OK",
      "vis_m": 9999,
      "fzfg": false,
      "metar_trigger": false,
      "taf_trigger": false,
      "metar": "METAR LIME 182120Z 35004KT 9999 SCT100 10/02 Q1020 NOSIG",
      "taf": "TAF LIME 181700Z 1818/1918 01006KT 9999 FEW050"
    },
    {
      "icao": "LIMF",
      "alert": "OK",
      "vis_m": 9999,
      "fzfg": false,
      "metar_trigger": false,
      "taf_trigger": false,
      "metar": "METAR LIMF 182120Z 30004KT 9999 SCT090 08/01 Q1021",
      "taf": "TAF LIMF 181700Z 1818/1918 32010KT 9999 BKN060"
    },
    {
      "icao": "LIMJ",
      "alert": "OK",
      "vis_m": 9999,
      "fzfg": false,
      "metar_trigger": false,
      "taf_trigger": false,
      "metar": "METAR LIMJ 182120Z 04007KT CAVOK 12/01 Q1019",
      "taf": "TAF LIMJ 181700Z 1818/1918 02016KT 9999 SCT060"
    },
    {
      "icao": "LIPE",
      "alert": "OK",
      "vis_m": 9999,
      "fzfg": false,
      "metar_trigger": false,
      "taf_trigger": false,
      "metar": "METAR LIPE 182120Z 29004KT CAVOK 06/02 Q1019",
      "taf": "TAF LIPE 181700Z 1818/1918 VRB05KT 9999 SCT050"
    },
    {
      "icao": "LIPH",
      "alert": "OK",
      "vis_m": 9999,
      "fzfg": false,
      "metar_trigger": false,
      "taf_trigger": false,
      "metar": "METAR LIPH 182120Z 02003KT CAVOK 09/01 Q1020",
      "taf": "TAF LIPH 181700Z 1818/1918 08007KT 9999 SCT060"
    },
    {
      "icao": "LIPQ",
      "alert": "OK",
      "vis_m": 9999,
      "fzfg": false,
      "metar_trigger": false,
      "taf_trigger": false,
      "metar": "METAR LIPQ 182120Z AUTO 05011KT 9999 OVC160/// 15/M01 Q1019",
      "taf": "TAF LIPQ 181700Z 1818/1918 VRB05KT 9999 FEW060 SCT090"
    },
    {
      "icao": "LIPR",
      "alert": "OK",
      "vis_m": 9999,
      "fzfg": false,
      "metar_trigger": false,
      "taf_trigger": false,
      "metar": "METAR LIPR 182120Z 06011KT CAVOK 13/06 Q1017",
      "taf": "TAF LIPR 181700Z 1818/1918 04010KT 9999 BKN050"
    },
    {
      "icao": "LIPX",
      "alert": "OK",
      "vis_m": 9999,
      "fzfg": false,
      "metar_trigger": false,
      "taf_trigger": false,
      "metar": "METAR LIPX 182120Z 05004KT CAVOK 09/M02 Q1020",
      "taf": "TAF LIPX 181700Z 1818/1918 04010KT CAVOK"
    },
    {
      "icao": "LIPY",
      "alert": "OK",
      "vis_m": 9999,
      "fzfg": false,
      "metar_trigger": false,
      "taf_trigger": false,
      "metar": "METAR LIPY 182120Z AUTO 07007KT 040V100 9999 BKN080/// 13/05 Q1016",
      "taf": "TAF LIPY 181700Z 1818/1918 03012KT 9999 BKN040"
    },
    {
      "icao": "LIPZ",
      "alert": "OK",
      "vis_m": 9999,
      "fzfg": false,
      "metar_trigger": false,
      "taf_trigger": false,
      "metar": "METAR LIPZ 182120Z 06006KT CAVOK 10/03 Q1020 NOSIG",
      "taf": ""
    },
    {
      "icao": "LIRF",
      "alert": "OK",
      "vis_m": 9999,
      "fzfg": false,
      "metar_trigger": false,
      "taf_trigger": false,
      "metar": "METAR LIRF 182120Z 10004KT 050V130 9999 FEW030 10/05 Q1012 NOSIG",
      "taf": "TAF LIRF 181700Z 1818/1924 01011KT 9999 FEW050"
    },
    {
      "icao": "LIRN",
      "alert": "OK",
      "vis_m": 9999,
      "fzfg": false,
      "metar_trigger": false,
      "taf_trigger": false,
      "metar": "METAR LIRN 182120Z 05003KT CAVOK 06/04 Q1011 NOSIG",
      "taf": "TAF LIRN 181700Z 1818/1918 03008KT 9999 SCT035"
    },
    {
      "icao": "LIRP",
      "alert": "OK",
      "vis_m": 9999,
      "fzfg": false,
      "metar_trigger": false,
      "taf_trigger": false,
      "metar": "METAR LIRP 182115Z 04014G25KT 9999 FEW050 12/01 Q1015 NOSIG",
      "taf": "TAF LIRP 181700Z 1818/1918 07012KT 9999 SCT050"
    },
    {
      "icao": "LIRZ",
      "alert": "OK",
      "vis_m": 9999,
      "fzfg": false,
      "metar_trigger": false,
      "taf_trigger": false,
      "metar": "METAR LIRZ 182120Z AUTO 03019KT 9999 FEW076/// BKN130/// 10/02 Q1013",
      "taf": ""
    },
    {
      "icao": "LJLJ",
      "alert": "OK",
      "vis_m": 9999,
      "fzfg": false,
      "metar_trigger": false,
      "taf_trigger": false,
      "metar": "METAR LJLJ 182130Z 09006KT 060V140 9999 FEW065 SCT220 11/M03 Q1021 NOSIG",
      "taf": "TAF LJLJ 181700Z 1818/1918 06010KT 9999 SCT050"
    },
    {
      "icao": "LKMT",
      "alert": "OK",
      "vis_m": 9999,
      "fzfg": false,
      "metar_trigger": false,
      "taf_trigger": false,
      "metar": "METAR LKMT 182130Z 06004KT CAVOK 05/M02 Q1027 NOSIG",
      "taf": "TAF LKMT 181700Z 1818/1918 05010KT CAVOK"
    },
    {
      "icao": "LKPR",
      "alert": "OK",
      "vis_m": 9999,
      "fzfg": false,
      "metar_trigger": false,
      "taf_trigger": false,
      "metar": "METAR LKPR 182130Z 04005KT CAVOK 05/01 Q1027 NOSIG",
      "taf": "TAF LKPR 182000Z 1821/2003 04006KT CAVOK"
    },
    {
      "icao": "LLBG",
      "alert": "OK",
      "vis_m": 9999,
      "fzfg": false,
      "metar_trigger": false,
      "taf_trigger": false,
      "metar": "METAR LLBG 182150Z 12016KT CAVOK 21/12 Q0999 NOSIG",
      "taf": "TAF LLBG 181707Z 1818/1918 14007KT CAVOK TX21/1912Z TN17/1904Z"
    },
    {
      "icao": "LMML",
      "alert": "OK",
      "vis_m": 9999,
      "fzfg": false,
      "metar_trigger": false,
      "taf_trigger": false,
      "metar": "METAR LMML 182145Z 23008KT 9999 FEW013 13/12 Q1011 NOSIG",
      "taf": "TAF LMML 181700Z 1818/1918 28010KT 9999 FEW020"
    },
    {
      "icao": "LOWW",
      "alert": "OK",
      "vis_m": 9999,
      "fzfg": false,
      "metar_trigger": false,
      "taf_trigger": false,
      "metar": "METAR LOWW 182120Z 36005KT CAVOK 07/M02 Q1024 NOSIG",
      "taf": "TAF LOWW 182015Z 1821/2003 36007KT CAVOK TX14/1914Z TN02/1904Z"
    },
    {
      "icao": "LPFR",
      "alert": "OK",
      "vis_m": 9999,
      "fzfg": false,
      "metar_trigger": false,
      "taf_trigger": false,
      "metar": "METAR LPFR 182130Z 09008KT 9999 FEW025 16/14 Q1003",
      "taf": "TAF LPFR 181700Z 1818/1918 17010KT 9999 SCT015 SCT030"
    },
    {
      "icao": "LPMA",
      "alert": "OK",
      "vis_m": 9999,
      "fzfg": false,
      "metar_trigger": false,
      "taf_trigger": false,
      "metar": "METAR LPMA 182130Z 27004KT 240V300 9999 FEW013 FEW018CB 11/06 Q0997",
      "taf": "TAF LPMA 181700Z 1818/1918 22010KT 9999 SCT015"
    },
    {
      "icao": "LPPR",
      "alert": "OK",
      "vis_m": 9999,
      "fzfg": false,
      "metar_trigger": false,
      "taf_trigger": false,
      "metar": "METAR LPPR 182130Z 09005KT 050V130 CAVOK 17/08 Q1004",
      "taf": "TAF LPPR 181700Z 1818/1918 14008KT 9999 FEW018 SCT040"
    },
    {
      "icao": "LPPS",
      "alert": "OK",
      "vis_m": 9999,
      "fzfg": false,
      "metar_trigger": false,
      "taf_trigger": false,
      "metar": "METAR LPPS 182130Z 26012KT 9999 SCT014 FEW018CB SCT030 12/07 Q0997",
      "taf": "TAF LPPS 181700Z 1818/1924 27015KT 9999 SCT015 SCT030"
    },
    {
      "icao": "LPPT",
      "alert": "OK",
      "vis_m": 9999,
      "fzfg": false,
      "metar_trigger": false,
      "taf_trigger": false,
      "metar": "METAR LPPT 182130Z 13011KT 9999 FEW040 16/12 Q1002",
      "taf": "TAF LPPT 181700Z 1818/1924 14012KT 9999 SCT015 SCT035"
    },
    {
      "icao": "LQBK",
      "alert": "OK",
      "vis_m": 9999,
      "fzfg": false,
      "metar_trigger": false,
      "taf_trigger": false,
      "metar": "METAR LQBK 182130Z 33005KT CAVOK 06/00 Q1020 NOSIG",
      "taf": "TAF LQBK 181700Z 1818/1918 36006KT CAVOK TX13/1913Z TN02/1905Z"
    },
    {
      "icao": "LQSA",
      "alert": "OK",
      "vis_m": 9999,
      "fzfg": false,
      "metar_trigger": false,
      "taf_trigger": false,
      "metar": "METAR LQSA 182130Z 12003KT CAVOK 05/01 Q1017 NOSIG",
      "taf": "TAF LQSA 181700Z 1818/1918 27005KT 9999 FEW030 BKN050 TX08/1914Z TNM02/1905Z"
    },
    {
      "icao": "LQTZ",
      "alert": "OK",
      "vis_m": 9999,
      "fzfg": false,
      "metar_trigger": false,
      "taf_trigger": false,
      "metar": "METAR LQTZ 182130Z 10003KT CAVOK 06/M02 Q1019",
      "taf": "TAF LQTZ 181700Z 1818/1918 09005KT 9999 SCT070 TX12/1913Z TN00/1905Z"
    },
    {
      "icao": "LRBC",
      "alert": "OK",
      "vis_m": 9999,
      "fzfg": false,
      "metar_trigger": false,
      "taf_trigger": false,
      "metar": "METAR LRBC 182130Z 34012KT 9999 BKN029 OVC065 06/02 Q1024",
      "taf": "TAF LRBC 182000Z 1821/1906 34008KT 9999 OVC060"
    },
    {
      "icao": "LRBS",
      "alert": "OK",
      "vis_m": 9999,
      "fzfg": false,
      "metar_trigger": false,
      "taf_trigger": false,
      "metar": "METAR LRBS 182130Z 06005KT 030V090 CAVOK 05/M00 Q1022 NOSIG",
      "taf": "TAF LRBS 181700Z 1818/1918 06014KT CAVOK"
    },
    {
      "icao": "LRBV",
      "alert": "OK",
      "vis_m": 9999,
      "fzfg": false,
      "metar_trigger": false,
      "taf_trigger": false,
      "metar": "METAR LRBV 182130Z AUTO 06006KT 9999 OVC057/// 04/M02 Q1022",
      "taf": "TAF LRBV 182000Z 1821/1906 07008KT CAVOK"
    },
    {
      "icao": "LRCL",
      "alert": "OK",
      "vis_m": 9999,
      "fzfg": false,
      "metar_trigger": false,
      "taf_trigger": false,
      "metar": "METAR LRCL 182130Z COR 08004KT 9999 FEW068 06/M03 Q1023",
      "taf": "TAF LRCL 182000Z 1821/1906 08006KT CAVOK"
    },
    {
      "icao": "LRCV",
      "alert": "OK",
      "vis_m": 9999,
      "fzfg": false,
      "metar_trigger": false,
      "taf_trigger": false,
      "metar": "METAR LRCV 182130Z 07010KT CAVOK 07/01 Q1022",
      "taf": "TAF LRCV 182000Z 1821/1906 07008KT CAVOK"
    },
    {
      "icao": "LRIA",
      "alert": "OK",
      "vis_m": 9999,
      "fzfg": false,
      "metar_trigger": false,
      "taf_trigger": false,
      "metar": "METAR LRIA 182130Z 01007KT 9999 OVC020 04/02 Q1025",
      "taf": "TAF LRIA 182000Z 1821/1906 01012KT 9999 BKN025"
    },
    {
      "icao": "LROP",
      "alert": "OK",
      "vis_m": 9999,
      "fzfg": false,
      "metar_trigger": false,
      "taf_trigger": false,
      "metar": "METAR LROP 182130Z 04007KT CAVOK 05/M03 Q1022 NOSIG",
      "taf": "TAF LROP 181700Z 1818/1918 06014KT CAVOK"
    },
    {
      "icao": "LRSB",
      "alert": "OK",
      "vis_m": 9999,
      "fzfg": false,
      "metar_trigger": false,
      "taf_trigger": false,
      "metar": "METAR LRSB 182130Z 10004KT 9999 BKN065 07/M03 Q1022",
      "taf": "TAF LRSB 181700Z 1818/1918 11008KT CAVOK"
    },
    {
      "icao": "LRSM",
      "alert": "OK",
      "vis_m": 9999,
      "fzfg": false,
      "metar_trigger": false,
      "taf_trigger": false,
      "metar": "METAR LRSM 182130Z AUTO 09005KT 9999 NCD 05/M03 Q1024",
      "taf": "TAF LRSM 181400Z 1815/1824 05011KT CAVOK"
    },
    {
      "icao": "LRSV",
      "alert": "OK",
      "vis_m": 9999,
      "fzfg": false,
      "metar_trigger": false,
      "taf_trigger": false,
      "metar": "METAR LRSV 182130Z 03007KT 9999 BKN008 OVC025 03/02 Q1024",
      "taf": ""
    },
    {
      "icao": "LRTM",
      "alert": "OK",
      "vis_m": 9999,
      "fzfg": false,
      "metar_trigger": false,
      "taf_trigger": false,
      "metar": "METAR LRTM 182130Z AUTO 04005KT 9999 NCD 07/M03 Q1023",
      "taf": "TAF LRTM 181400Z 1815/1824 VRB04KT CAVOK"
    },
    {
      "icao": "LRTR",
      "alert": "OK",
      "vis_m": 9999,
      "fzfg": false,
      "metar_trigger": false,
      "taf_trigger": false,
      "metar": "METAR LRTR 182130Z 18006KT 150V220 CAVOK 05/M00 Q1021",
      "taf": "TAF LRTR 181700Z 1818/1918 VRB04KT CAVOK"
    },
    {
      "icao": "LTAC",
      "alert": "OK",
      "vis_m": 9999,
      "fzfg": false,
      "metar_trigger": false,
      "taf_trigger": false,
      "metar": "METAR LTAC 182120Z 04008KT 9999 SCT040 BKN080 09/01 Q1009 NOSIG RMK RWY21C 03007KT RWY03L 03007KT RWY21R 01006KT RWY03R 02010KT RWY21L 04008KT",
      "taf": "TAF LTAC 181640Z 1818/1918 03007KT 9999 SCT040 BKN080"
    },
    {
      "icao": "LTFM",
      "alert": "OK",
      "vis_m": 9999,
      "fzfg": false,
      "metar_trigger": false,
      "taf_trigger": false,
      "metar": "METAR LTFM 182120Z 04021KT 9999 FEW013 BKN028 08/05 Q1016 NOSIG RMK RWY17L 04018KT RWY34L 03017KT RWY16R 04020KT RWY36 04018KT RWY18 05017KT",
      "taf": ""
    },
    {
      "icao": "LUKK",
      "alert": "OK",
      "vis_m": 9999,
      "fzfg": false,
      "metar_trigger": false,
      "taf_trigger": false,
      "metar": "METAR LUKK 182130Z 04009KT 9999 OVC024 04/02 Q1024 NOSIG",
      "taf": "TAF LUKK 181710Z 1818/1918 03009KT 9999 BKN030"
    },
    {
      "icao": "LWOH",
      "alert": "OK",
      "vis_m": null,
      "fzfg": false,
      "metar_trigger": false,
      "taf_trigger": false,
      "metar": "",
      "taf": "TAF LWOH 182035Z 1821/1921 03010KT 9999 BKN040 BKN080"
    },
    {
      "icao": "LWSK",
      "alert": "OK",
      "vis_m": 9999,
      "fzfg": false,
      "metar_trigger": false,
      "taf_trigger": false,
      "metar": "METAR LWSK 182150Z 02006KT 9999 BKN050 OVC085 08/01 Q1016 NOSIG",
      "taf": "TAF LWSK 182035Z 1821/1921 02010KT 9999 BKN030 BKN080"
    },
    {
      "icao": "LYBE",
      "alert": "OK",
      "vis_m": 9999,
      "fzfg": false,
      "metar_trigger": false,
      "taf_trigger": false,
      "metar": "METAR LYBE 182130Z 10008KT CAVOK 09/M02 Q1020 NOSIG",
      "taf": "TAF LYBE 181700Z 1818/1918 11008KT CAVOK TX13/1913Z TN03/1905Z"
    },
    {
      "icao": "LYNI",
      "alert": "OK",
      "vis_m": 9999,
      "fzfg": false,
      "metar_trigger": false,
      "taf_trigger": false,
      "metar": "METAR LYNI 182130Z 06007KT 9999 BKN083 09/M00 Q1018 NOSIG",
      "taf": "TAF LYNI 181700Z 1818/1918 08012KT 9999 SCT070 TX14/1913Z TN03/1905Z"
    },
    {
      "icao": "LYPG",
      "alert": "OK",
      "vis_m": 9999,
      "fzfg": false,
      "metar_trigger": false,
      "taf_trigger": false,
      "metar": "METAR LYPG 182130Z 02010KT 340V040 9999 FEW050 BKN090 12/00 Q1013 NOSIG",
      "taf": "TAF LYPG 181700Z 1818/1918 35010KT 9999 SCT050 BKN090 TX15/1913Z TN05/1904Z"
    },
    {
      "icao": "LZIB",
      "alert": "OK",
      "vis_m": 9999,
      "fzfg": false,
      "metar_trigger": false,
      "taf_trigger": false,
      "metar": "METAR LZIB 182130Z 03008KT CAVOK 07/M02 Q1024 NOSIG",
      "taf": "TAF LZIB 181715Z 1818/1918 05008KT CAVOK"
    },
    {
      "icao": "LZKZ",
      "alert": "OK",
      "vis_m": 9999,
      "fzfg": false,
      "metar_trigger": false,
      "taf_trigger": false,
      "metar": "METAR LZKZ 182130Z 01011KT CAVOK 07/M03 Q1025 NOSIG",
      "taf": "TAF LZKZ 181715Z 1818/1918 04012KT CAVOK"
    },
    {
      "icao": "LZTT",
      "alert": "OK",
      "vis_m": 9999,
      "fzfg": false,
      "metar_trigger": false,
      "taf_trigger": false,
      "metar": "METAR LZTT 182130Z 06008KT 9999 BKN045 03/M03 Q1025",
      "taf": "TAF LZTT 181715Z 1818/1918 04011KT 9999 FEW040"
    },
    {
      "icao": "OEJN",
      "alert": "OK",
      "vis_m": 7000,
      "fzfg": false,
      "metar_trigger": false,
      "taf_trigger": false,
      "metar": "METAR OEJN 182100Z 18007KT 7000 SCT040 30/15 Q1003 NOSIG",
      "taf": "TAF OEJN 181700Z 1818/1924 19010KT 7000 SCT040"
    },
    {
      "icao": "OEMA",
      "alert": "OK",
      "vis_m": 9999,
      "fzfg": false,
      "metar_trigger": false,
      "taf_trigger": false,
      "metar": "METAR OEMA 182100Z 02003KT 9999 -RA BKN040 27/09 Q1013 NOSIG",
      "taf": "TAF OEMA 181700Z 1818/1924 09012KT 9999 BKN045"
    },
    {
      "icao": "OJAI",
      "alert": "OK",
      "vis_m": 4000,
      "fzfg": false,
      "metar_trigger": false,
      "taf_trigger": false,
      "metar": "METAR OJAI 182100Z 12008KT 4000 RA BKN030 13/10 Q1008 NOSIG",
      "taf": "TAF OJAI 181100Z 1812/1918 13018KT 4000 BLDU NSC"
    },
    {
      "icao": "OMAA",
      "alert": "OK",
      "vis_m": null,
      "fzfg": false,
      "metar_trigger": false,
      "taf_trigger": false,
      "metar": "",
      "taf": ""
    },
    {
      "icao": "OMDB",
      "alert": "OK",
      "vis_m": null,
      "fzfg": false,
      "metar_trigger": false,
      "taf_trigger": false,
      "metar": "",
      "taf": ""
    },
    {
      "icao": "UAAA",
      "alert": "OK",
      "vis_m": 5000,
      "fzfg": false,
      "metar_trigger": false,
      "taf_trigger": false,
      "metar": "METAR UAAA 182130Z 17001MPS 5000 BR FU NSC M01/M03 Q1017 NOSIG",
      "taf": "TAF UAAA 181701Z 1818/1918 16003MPS 9999 NSC TX14/1909Z TNM01/1901Z"
    },
    {
      "icao": "UBBB",
      "alert": "OK",
      "vis_m": 9999,
      "fzfg": false,
      "metar_trigger": false,
      "taf_trigger": false,
      "metar": "METAR UBBB 182130Z 05002KT CAVOK 08/03 Q1020 NOSIG",
      "taf": "TAF UBBB 181710Z 1818/1918 30006KT 9999 BKN025 TX13/1910Z TN05/1901Z"
    },
    {
      "icao": "UDSG",
      "alert": "OK",
      "vis_m": 9999,
      "fzfg": false,
      "metar_trigger": false,
      "taf_trigger": false,
      "metar": "METAR UDSG 182130Z 27004KT 9999 NSC M02/M03 Q1018 NOSIG",
      "taf": "TAF UDSG 181700Z 1818/1918 VRB06KT 9999 FEW050"
    },
    {
      "icao": "UDYZ",
      "alert": "OK",
      "vis_m": 9999,
      "fzfg": false,
      "metar_trigger": false,
      "taf_trigger": false,
      "metar": "METAR UDYZ 182130Z 14001KT 9999 NSC 05/01 Q1017 NOSIG",
      "taf": "TAF UDYZ 181700Z 1818/1918 04006KT 9999 FEW050"
    },
    {
      "icao": "UGKO",
      "alert": "OK",
      "vis_m": 9999,
      "fzfg": false,
      "metar_trigger": false,
      "taf_trigger": false,
      "metar": "METAR UGKO 182130Z 07026KT CAVOK 13/04 Q1013 NOSIG",
      "taf": "TAF UGKO 181700Z 1818/1918 09007KT CAVOK TX21/1911Z TN12/1818Z"
    }
  ]
}