{
  "ts_utc": "2026-01-07T14:23:55Z",
  "threshold_m": 150,
  "source": "stations_override.txt (ICAO list) + aviationweather.gov (METAR/TAF raw)",
  "station_count": 159,
  "stations": [
    {
      "icao": "BIKF",
      "alert": "OK",
      "vis_m": 9999,
      "fzfg": false,
      "metar_trigger": false,
      "taf_trigger": false,
      "metar": "METAR BIKF 071400Z 08020KT CAVOK M03/M11 Q1006",
      "taf": "TAF BIKF 071332Z 0715/0815 07018KT 9999 FEW035 SCT045 TX02/0812Z TNM04/0720Z"
    },
    {
      "icao": "BKPR",
      "alert": "OK",
      "vis_m": 9999,
      "fzfg": false,
      "metar_trigger": false,
      "taf_trigger": false,
      "metar": "METAR BKPR 071400Z 34010KT 9999 SCT055 05/04 Q1003 NOSIG",
      "taf": ""
    },
    {
      "icao": "EBCI",
      "alert": "OK",
      "vis_m": 9999,
      "fzfg": false,
      "metar_trigger": false,
      "taf_trigger": false,
      "metar": "METAR EBCI 071350Z 19014KT 9999 BKN012 M02/M04 Q1005 TEMPO 20016G26KT 4000 -SHSN BKN009",
      "taf": ""
    },
    {
      "icao": "EDDB",
      "alert": "OK",
      "vis_m": 9999,
      "fzfg": false,
      "metar_trigger": false,
      "taf_trigger": false,
      "metar": "METAR EDDB 071350Z AUTO 15007KT CAVOK M04/M07 Q1013 NOSIG",
      "taf": "TAF EDDB 071100Z 0712/0812 16007KT CAVOK"
    },
    {
      "icao": "EDDH",
      "alert": "OK",
      "vis_m": 9999,
      "fzfg": false,
      "metar_trigger": false,
      "taf_trigger": false,
      "metar": "METAR EDDH 071350Z AUTO 15013KT CAVOK M01/M05 Q1006 NOSIG",
      "taf": "TAF EDDH 071100Z 0712/0818 17012KT 9999 BKN025"
    },
    {
      "icao": "EDDK",
      "alert": "OK",
      "vis_m": 9999,
      "fzfg": false,
      "metar_trigger": false,
      "taf_trigger": false,
      "metar": "METAR EDDK 071350Z AUTO 15011KT 9999 FEW040 M01/M05 Q1008 TEMPO 1200 SN BKN007",
      "taf": "TAF EDDK 071100Z 0712/0818 15012KT 9999 SCT020 BKN030"
    },
    {
      "icao": "EDDN",
      "alert": "OK",
      "vis_m": 9999,
      "fzfg": false,
      "metar_trigger": false,
      "taf_trigger": false,
      "metar": "METAR EDDN 071350Z AUTO 21005KT 170V250 9999 SCT031 M02/M09 Q1012 NOSIG",
      "taf": "TAF EDDN 071100Z 0712/0812 15006KT CAVOK"
    },
    {
      "icao": "EDDS",
      "alert": "OK",
      "vis_m": 9999,
      "fzfg": false,
      "metar_trigger": false,
      "taf_trigger": false,
      "metar": "METAR EDDS 071350Z AUTO 17005KT 140V200 CAVOK M01/M08 Q1010 NOSIG",
      "taf": "TAF EDDS 071100Z 0712/0812 14004KT CAVOK"
    },
    {
      "icao": "EDFH",
      "alert": "OK",
      "vis_m": 9999,
      "fzfg": false,
      "metar_trigger": false,
      "taf_trigger": false,
      "metar": "METAR EDFH 071350Z 19010KT 9999 FEW038 BKN045 M04/M07 Q1007",
      "taf": "TAF EDFH 071100Z 0712/0812 21013KT 9999 SCT010"
    },
    {
      "icao": "EDJA",
      "alert": "OK",
      "vis_m": 9999,
      "fzfg": false,
      "metar_trigger": false,
      "taf_trigger": false,
      "metar": "METAR EDJA 071350Z 19004KT 9999 FEW049 M04/M08 Q1010",
      "taf": "TAF EDJA 071100Z 0712/0721 21004KT 9999 SCT012 BKN030"
    },
    {
      "icao": "EDLW",
      "alert": "OK",
      "vis_m": 9999,
      "fzfg": false,
      "metar_trigger": false,
      "taf_trigger": false,
      "metar": "METAR EDLW 071350Z 17020KT 9999 FEW022 M01/M05 Q1005",
      "taf": "TAF EDLW 071100Z 0712/0812 18015G25KT 9999 SCT015 BKN030"
    },
    {
      "icao": "EDNY",
      "alert": "OK",
      "vis_m": 9999,
      "fzfg": false,
      "metar_trigger": false,
      "taf_trigger": false,
      "metar": "METAR EDNY 071350Z VRB02KT 9999 FEW017 M02/M07 Q1012",
      "taf": "TAF EDNY 071100Z 0712/0721 04002KT 9999 BKN025"
    },
    {
      "icao": "EDSB",
      "alert": "OK",
      "vis_m": 9999,
      "fzfg": false,
      "metar_trigger": false,
      "taf_trigger": false,
      "metar": "METAR EDSB 071350Z 21010KT CAVOK M01/M07 Q1012",
      "taf": "TAF EDSB 071100Z 0712/0812 22007KT CAVOK"
    },
    {
      "icao": "EETN",
      "alert": "OK",
      "vis_m": 9999,
      "fzfg": false,
      "metar_trigger": false,
      "taf_trigger": false,
      "metar": "METAR EETN 071420Z VRB01KT 9999 FEW017 BKN024 M07/M08 Q1015 TEMPO BKN014",
      "taf": "TAF EETN 071130Z 0712/0812 VRB02KT 9999 BKN018"
    },
    {
      "icao": "EFTU",
      "alert": "OK",
      "vis_m": 9999,
      "fzfg": false,
      "metar_trigger": false,
      "taf_trigger": false,
      "metar": "METAR EFTU 071420Z AUTO 09011KT 9999 OVC034 M06/M08 Q1015",
      "taf": "TAF EFTU 071124Z 0712/0812 09008KT 9999 BKN025"
    },
    {
      "icao": "EGBB",
      "alert": "OK",
      "vis_m": 9999,
      "fzfg": false,
      "metar_trigger": false,
      "taf_trigger": false,
      "metar": "METAR EGBB 071350Z 30012KT 9999 BKN032 05/M01 Q1004",
      "taf": "TAF EGBB 071105Z 0712/0812 28012KT 9999 SCT025"
    },
    {
      "icao": "EGGP",
      "alert": "OK",
      "vis_m": 9999,
      "fzfg": false,
      "metar_trigger": false,
      "taf_trigger": false,
      "metar": "METAR EGGP 071350Z 30015KT 9999 VCSH FEW025 SCT045 06/00 Q1004",
      "taf": "TAF EGGP 071055Z 0712/0812 29015KT 9999 FEW025"
    },
    {
      "icao": "EGGW",
      "alert": "OK",
      "vis_m": 9999,
      "fzfg": false,
      "metar_trigger": false,
      "taf_trigger": false,
      "metar": "METAR EGGW 071350Z AUTO 28016KT 9999 OVC037 05/M00 Q1003",
      "taf": "TAF EGGW 071056Z 0712/0812 28012KT 9999 SCT030"
    },
    {
      "icao": "EGKK",
      "alert": "OK",
      "vis_m": 9999,
      "fzfg": false,
      "metar_trigger": false,
      "taf_trigger": false,
      "metar": "METAR EGKK 071350Z 28016KT 9999 FEW028 06/01 Q1005",
      "taf": "TAF EGKK 071100Z 0712/0818 27010KT 9999 FEW030"
    },
    {
      "icao": "EGNM",
      "alert": "OK",
      "vis_m": 9999,
      "fzfg": false,
      "metar_trigger": false,
      "taf_trigger": false,
      "metar": "METAR EGNM 071350Z 28020KT 9999 FEW016 04/M00 Q0999",
      "taf": "TAF EGNM 071055Z 0712/0812 28015KT 9999 FEW015"
    },
    {
      "icao": "EGPD",
      "alert": "OK",
      "vis_m": 9000,
      "fzfg": false,
      "metar_trigger": false,
      "taf_trigger": false,
      "metar": "METAR EGPD 071350Z 32007KT 9000 SCT019 SCT033 02/00 Q1002 RERA TEMPO SHRA BKN014",
      "taf": "TAF EGPD 071102Z 0712/0812 03009KT 9999 BKN024"
    },
    {
      "icao": "EGPF",
      "alert": "OK",
      "vis_m": 9999,
      "fzfg": false,
      "metar_trigger": false,
      "taf_trigger": false,
      "metar": "METAR EGPF 071350Z AUTO 29008KT 9999 NCD 05/00 Q1003",
      "taf": "TAF EGPF 071056Z 0712/0812 29010KT 9999 FEW035"
    },
    {
      "icao": "EHBK",
      "alert": "OK",
      "vis_m": 9999,
      "fzfg": false,
      "metar_trigger": false,
      "taf_trigger": false,
      "metar": "METAR EHBK 071355Z AUTO 20021KT 9999 FEW019 OVC033 M01/M04 Q1005 NOSIG",
      "taf": "TAF EHBK 071124Z 0712/0818 20017KT 2500 -SN BKN025"
    },
    {
      "icao": "EHEH",
      "alert": "OK",
      "vis_m": 5000,
      "fzfg": false,
      "metar_trigger": false,
      "taf_trigger": false,
      "metar": "METAR EHEH 071355Z AUTO 20014KT 5000 -SN FEW013 BKN016 OVC021 M00/M03 Q1004 WHT TEMPO 19017G27KT 2500 -SN FEW002 BKN004 OVC008",
      "taf": "TAF EHEH 071117Z 0712/0818 19015G25KT 2500 -SN FEW002 SCT005 BKN008"
    },
    {
      "icao": "EKBI",
      "alert": "OK",
      "vis_m": 3600,
      "fzfg": false,
      "metar_trigger": false,
      "taf_trigger": false,
      "metar": "METAR EKBI 071350Z AUTO 16012KT 120V190 3600 -SN OVC008/// M01/M02 Q1003",
      "taf": "TAF EKBI 071127Z 0712/0812 17010KT 1200 SN BKN005"
    },
    {
      "icao": "EKCH",
      "alert": "OK",
      "vis_m": 9999,
      "fzfg": false,
      "metar_trigger": false,
      "taf_trigger": false,
      "metar": "METAR EKCH 071350Z AUTO 18016KT 9999 BKN016/// 00/M03 Q1009 TEMPO 17018G28KT",
      "taf": "TAF EKCH 071127Z 0712/0812 17015KT 9999 BKN018"
    },
    {
      "icao": "ENAL",
      "alert": "OK",
      "vis_m": 9999,
      "fzfg": false,
      "metar_trigger": false,
      "taf_trigger": false,
      "metar": "METAR ENAL 071350Z 13012KT CAVOK M03/M10 Q1007",
      "taf": "TAF ENAL 071100Z 0712/0721 14009KT CAVOK"
    },
    {
      "icao": "ENBR",
      "alert": "OK",
      "vis_m": 9999,
      "fzfg": false,
      "metar_trigger": false,
      "taf_trigger": false,
      "metar": "METAR ENBR 071350Z VRB02KT CAVOK M05/M13 Q1006 NOSIG RMK WIND 1200FT 08003KT",
      "taf": "TAF ENBR 071100Z 0712/0812 06005KT CAVOK"
    },
    {
      "icao": "ENGM",
      "alert": "OK",
      "vis_m": 9999,
      "fzfg": false,
      "metar_trigger": false,
      "taf_trigger": false,
      "metar": "METAR ENGM 071350Z 03006KT 9999 FEW031 SCT043 M08/M11 Q1007 NOSIG",
      "taf": "TAF ENGM 071100Z 0712/0812 01003KT 9999 FEW015 BKN020"
    },
    {
      "icao": "ENHD",
      "alert": "OK",
      "vis_m": 9999,
      "fzfg": false,
      "metar_trigger": false,
      "taf_trigger": false,
      "metar": "METAR ENHD 071350Z 08007KT CAVOK M05/M13 Q1005",
      "taf": "TAF ENHD 071100Z 0712/0721 08009KT CAVOK"
    },
    {
      "icao": "ENTC",
      "alert": "OK",
      "vis_m": 9999,
      "fzfg": false,
      "metar_trigger": false,
      "taf_trigger": false,
      "metar": "METAR ENTC 071350Z VRB02KT CAVOK M12/M14 Q1024 NOSIG RMK WIND 2600FT 16018KT",
      "taf": "TAF ENTC 071100Z 0712/0812 VRB05KT CAVOK"
    },
    {
      "icao": "ENTO",
      "alert": "OK",
      "vis_m": 9999,
      "fzfg": false,
      "metar_trigger": false,
      "taf_trigger": false,
      "metar": "METAR ENTO 071350Z 01012KT 9999 SCT026 OVC033 M08/M11 Q1008 NOSIG",
      "taf": ""
    },
    {
      "icao": "ENVA",
      "alert": "OK",
      "vis_m": 9999,
      "fzfg": false,
      "metar_trigger": false,
      "taf_trigger": false,
      "metar": "METAR ENVA 071350Z 08007KT 9999 FEW029 M08/M13 Q1013 NOSIG RMK WIND 670FT 08011KT",
      "taf": "TAF ENVA 071100Z 0712/0812 11008KT 9999 FEW025"
    },
    {
      "icao": "ENZV",
      "alert": "OK",
      "vis_m": 9999,
      "fzfg": false,
      "metar_trigger": false,
      "taf_trigger": false,
      "metar": "METAR ENZV 071350Z 06003KT CAVOK M03/M12 Q1004 NOSIG",
      "taf": "TAF ENZV 071100Z 0712/0812 08006KT CAVOK"
    },
    {
      "icao": "EPGD",
      "alert": "OK",
      "vis_m": 9000,
      "fzfg": false,
      "metar_trigger": false,
      "taf_trigger": false,
      "metar": "METAR EPGD 071400Z 25007KT 9000 BKN004 M07/M07 Q1015",
      "taf": "TAF EPGD 071130Z 0712/0812 23005KT 8000 NSC"
    },
    {
      "icao": "EPKK",
      "alert": "OK",
      "vis_m": 9999,
      "fzfg": false,
      "metar_trigger": false,
      "taf_trigger": false,
      "metar": "METAR EPKK 071400Z VRB02KT 9999 BKN030 M04/M09 Q1014",
      "taf": "TAF EPKK 071130Z 0712/0812 04004KT 9999 SCT015 BKN045"
    },
    {
      "icao": "EPKT",
      "alert": "OK",
      "vis_m": 9999,
      "fzfg": false,
      "metar_trigger": false,
      "taf_trigger": false,
      "metar": "METAR EPKT 071400Z 03004KT 9999 OVC018 M04/M09 Q1014",
      "taf": "TAF EPKT 071130Z 0712/0812 04005KT 9999 BKN018"
    },
    {
      "icao": "EPLB",
      "alert": "OK",
      "vis_m": 3100,
      "fzfg": false,
      "metar_trigger": false,
      "taf_trigger": false,
      "metar": "METAR EPLB 071400Z 35003KT 3100 -SN BR OVC046 M04/M05 Q1015",
      "taf": "TAF EPLB 071130Z 0712/0812 02007KT 3500 -SN BR SCT020 BKN045"
    },
    {
      "icao": "EPMO",
      "alert": "OK",
      "vis_m": 1800,
      "fzfg": false,
      "metar_trigger": false,
      "taf_trigger": false,
      "metar": "METAR EPMO 071400Z VRB02KT 1800 1200E BR OVC003 M09/M09 Q1016",
      "taf": "TAF EPMO 071130Z 0712/0812 32003KT 1000 BR OVC002"
    },
    {
      "icao": "EPPO",
      "alert": "OK",
      "vis_m": 5000,
      "fzfg": false,
      "metar_trigger": false,
      "taf_trigger": false,
      "metar": "METAR EPPO 071400Z 15003KT 5000 BR FEW029 M04/M06 Q1015",
      "taf": ""
    },
    {
      "icao": "EPRA",
      "alert": "OK",
      "vis_m": 5000,
      "fzfg": false,
      "metar_trigger": false,
      "taf_trigger": false,
      "metar": "METAR EPRA 071400Z 34004KT 5000 BR NSC M07/M09 Q1015",
      "taf": "TAF EPRA 071130Z 0712/0721 32005KT 5000 BR NSC"
    },
    {
      "icao": "EPRZ",
      "alert": "OK",
      "vis_m": 3000,
      "fzfg": false,
      "metar_trigger": false,
      "taf_trigger": false,
      "metar": "METAR EPRZ 071400Z 01006KT 3000 -SN BR BKN008 OVC030 M04/M06 Q1013",
      "taf": "TAF EPRZ 071130Z 0712/0812 01007KT 3500 -SN BR OVC045"
    },
    {
      "icao": "EPSC",
      "alert": "OK",
      "vis_m": 9999,
      "fzfg": false,
      "metar_trigger": false,
      "taf_trigger": false,
      "metar": "METAR EPSC 071400Z 15009KT CAVOK M04/M08 Q1013",
      "taf": "TAF EPSC 071130Z 0712/0812 14012KT 9999 BKN030"
    },
    {
      "icao": "EPSY",
      "alert": "OK",
      "vis_m": 5000,
      "fzfg": false,
      "metar_trigger": false,
      "taf_trigger": false,
      "metar": "METAR EPSY 071400Z 18004KT 5000 BR NSC M11/M11 Q1016",
      "taf": "TAF EPSY 071130Z 0712/0721 VRB02KT 6000 NSC"
    },
    {
      "icao": "EPWA",
      "alert": "OK",
      "vis_m": 2500,
      "fzfg": false,
      "metar_trigger": false,
      "taf_trigger": false,
      "metar": "METAR EPWA 071400Z 33002KT 2500 BR BKN004 M09/M10 Q1016 TEMPO 1300 BR",
      "taf": ""
    },
    {
      "icao": "EPWR",
      "alert": "OK",
      "vis_m": 9999,
      "fzfg": false,
      "metar_trigger": false,
      "taf_trigger": false,
      "metar": "METAR EPWR 071400Z VRB01KT 9999 FEW015 BKN024 M02/M06 Q1015",
      "taf": "TAF EPWR 071130Z 0712/0812 VRB02KT 9999 BKN030"
    },
    {
      "icao": "ESGG",
      "alert": "OK",
      "vis_m": 9999,
      "fzfg": false,
      "metar_trigger": false,
      "taf_trigger": false,
      "metar": "METAR ESGG 071350Z 16006KT 9999 BKN032 M01/M03 Q1006",
      "taf": "TAF ESGG 071130Z 0712/0812 16009KT 5000 -SN SCT005 BKN015"
    },
    {
      "icao": "ESKN",
      "alert": "OK",
      "vis_m": 9999,
      "fzfg": false,
      "metar_trigger": false,
      "taf_trigger": false,
      "metar": "METAR ESKN 071350Z 06005KT 9999 BKN017 M06/M07 Q1011",
      "taf": ""
    },
    {
      "icao": "ESMS",
      "alert": "OK",
      "vis_m": 9999,
      "fzfg": false,
      "metar_trigger": false,
      "taf_trigger": false,
      "metar": "METAR ESMS 071350Z 17013KT 9999 FEW016 M02/M04 Q1009",
      "taf": "TAF ESMS 071127Z 0712/0812 20010KT 9999 BKN020"
    },
    {
      "icao": "ESSA",
      "alert": "OK",
      "vis_m": 9999,
      "fzfg": false,
      "metar_trigger": false,
      "taf_trigger": false,
      "metar": "METAR ESSA 071350Z 12004KT 090V150 9999 OVC004 M08/M08 Q1012 TEMPO BKN008",
      "taf": "TAF ESSA 071130Z 0712/0812 15008KT 9999 BKN008"
    },
    {
      "icao": "EYKA",
      "alert": "OK",
      "vis_m": 3400,
      "fzfg": false,
      "metar_trigger": false,
      "taf_trigger": false,
      "metar": "METAR EYKA 071420Z VRB02KT 3400 BR OVC003 M06/M07 Q1016",
      "taf": "TAF EYKA 071124Z 0712/0812 VRB04KT 3000 BR OVC002"
    },
    {
      "icao": "EYPA",
      "alert": "OK",
      "vis_m": 5000,
      "fzfg": false,
      "metar_trigger": false,
      "taf_trigger": false,
      "metar": "METAR EYPA 071420Z 15005KT 5000 BR NSC M09/M09 Q1016",
      "taf": "TAF EYPA 071100Z 0712/0812 VRB04KT 5000 BR SCT005"
    },
    {
      "icao": "EYVI",
      "alert": "OK",
      "vis_m": 1500,
      "fzfg": true,
      "metar_trigger": false,
      "taf_trigger": false,
      "metar": "METAR EYVI 071420Z VRB02KT 1500 R01/1400VP2000D BR OVC001 M06/M07 Q1015 TEMPO 0800 FZFG",
      "taf": "TAF EYVI 071100Z 0712/0812 VRB04KT 5000 BR OVC005"
    },
    {
      "icao": "GCFV",
      "alert": "OK",
      "vis_m": 9999,
      "fzfg": false,
      "metar_trigger": false,
      "taf_trigger": false,
      "metar": "METAR GCFV 071400Z 03024KT 9999 SCT035 19/09 Q1027",
      "taf": "TAF GCFV 070800Z 0709/0809 04024KT 9999 SCT035 TX20/0714Z TN14/0806Z"
    },
    {
      "icao": "GCLP",
      "alert": "OK",
      "vis_m": 9999,
      "fzfg": false,
      "metar_trigger": false,
      "taf_trigger": false,
      "metar": "METAR GCLP 071400Z 03024KT 9999 FEW030 SCT050 19/09 Q1027 NOSIG",
      "taf": "TAF GCLP 070800Z 0709/0809 02025KT 9999 SCT040 TX18/0714Z TN14/0806Z"
    },
    {
      "icao": "GCTS",
      "alert": "OK",
      "vis_m": 9999,
      "fzfg": false,
      "metar_trigger": false,
      "taf_trigger": false,
      "metar": "METAR GCTS 071400Z 08026KT 9999 FEW035 21/08 Q1027 NOSIG",
      "taf": "TAF GCTS 070800Z 0709/0809 08025KT 9999 SCT035 TX22/0714Z TN16/0806Z"
    },
    {
      "icao": "GMAD",
      "alert": "OK",
      "vis_m": 9999,
      "fzfg": false,
      "metar_trigger": false,
      "taf_trigger": false,
      "metar": "METAR GMAD 071400Z 00000KT CAVOK 17/07 Q1025 NOSIG",
      "taf": "TAF GMAD 071100Z 0712/0818 22006KT CAVOK"
    },
    {
      "icao": "GMMN",
      "alert": "OK",
      "vis_m": 9999,
      "fzfg": false,
      "metar_trigger": false,
      "taf_trigger": false,
      "metar": "METAR GMMN 071400Z 30004KT 240V350 9999 SCT040 14/07 Q1029 NOSIG",
      "taf": "TAF GMMN 071100Z 0712/0818 24011KT 9999 SCT040"
    },
    {
      "icao": "GMMX",
      "alert": "OK",
      "vis_m": 9999,
      "fzfg": false,
      "metar_trigger": false,
      "taf_trigger": false,
      "metar": "METAR GMMX 071400Z 05006KT 360V090 CAVOK 13/03 Q1027 NOSIG",
      "taf": "TAF GMMX 071100Z 0712/0818 06006KT 8000 NSC"
    },
    {
      "icao": "HEGN",
      "alert": "OK",
      "vis_m": 9999,
      "fzfg": false,
      "metar_trigger": false,
      "taf_trigger": false,
      "metar": "METAR HEGN 071400Z 36004KT CAVOK 25/10 Q1019 NOSIG",
      "taf": "TAF HEGN 071100Z 0712/0818 36014KT CAVOK"
    },
    {
      "icao": "HEMA",
      "alert": "OK",
      "vis_m": 4000,
      "fzfg": false,
      "metar_trigger": false,
      "taf_trigger": false,
      "metar": "METAR HEMA 071400Z 35016KT 4000 SA NSC 24/16 Q1018 NOSIG",
      "taf": "TAF HEMA 071100Z 0712/0818 36016KT 6000 NSC"
    },
    {
      "icao": "HESH",
      "alert": "OK",
      "vis_m": 9999,
      "fzfg": false,
      "metar_trigger": false,
      "taf_trigger": false,
      "metar": "METAR HESH 071400Z 03006KT CAVOK 25/11 Q1018 NOSIG",
      "taf": "TAF HESH 071100Z 0712/0818 01012KT CAVOK"
    },
    {
      "icao": "HESX",
      "alert": "OK",
      "vis_m": 6000,
      "fzfg": false,
      "metar_trigger": false,
      "taf_trigger": false,
      "metar": "METAR HESX 071400Z 03007KT 6000 NSC 22/06 Q1019 NOSIG",
      "taf": ""
    },
    {
      "icao": "LATI",
      "alert": "OK",
      "vis_m": 6000,
      "fzfg": false,
      "metar_trigger": false,
      "taf_trigger": false,
      "metar": "METAR LATI 071420Z 22005KT 170V250 6000 RA FEW016 SCT025CB BKN035 12/10 Q1003 RETS RESHRA NOSIG",
      "taf": "TAF LATI 071100Z 0712/0812 15010KT 9999 SCT040 BKN060 TX16/0712Z TN06/0806Z"
    },
    {
      "icao": "LBPD",
      "alert": "OK",
      "vis_m": 8000,
      "fzfg": false,
      "metar_trigger": false,
      "taf_trigger": false,
      "metar": "METAR LBPD 071400Z AUTO 00000KT 8000 SCT069/// BKN096/// BKN120/// 12/12 Q1006 TEMPO 5000 BR FEW003",
      "taf": "TAF LBPD 071100Z 0712/0812 VRB03KT 3000 BR OVC004"
    },
    {
      "icao": "LBSF",
      "alert": "OK",
      "vis_m": 3500,
      "fzfg": false,
      "metar_trigger": false,
      "taf_trigger": false,
      "metar": "METAR LBSF 071400Z 31008KT 280V010 3500 +RA SCT010 BKN025 OVC048 09/08 Q1006 TEMPO 2500 +RA FEW005 BKN015",
      "taf": ""
    },
    {
      "icao": "LBWN",
      "alert": "OK",
      "vis_m": 9999,
      "fzfg": false,
      "metar_trigger": false,
      "taf_trigger": false,
      "metar": "METAR LBWN 071400Z AUTO 20006KT 9999 NSC 17/11 Q1007 NOSIG",
      "taf": "TAF LBWN 071100Z 0712/0812 19012KT 9999 SCT020 BKN040"
    },
    {
      "icao": "LCLK",
      "alert": "OK",
      "vis_m": 9999,
      "fzfg": false,
      "metar_trigger": false,
      "taf_trigger": false,
      "metar": "METAR LCLK 071400Z 10003KT CAVOK 19/14 Q1022 NOSIG",
      "taf": "TAF LCLK 071130Z 0712/0812 09010KT 9999 FEW040"
    },
    {
      "icao": "LCPH",
      "alert": "OK",
      "vis_m": 9999,
      "fzfg": false,
      "metar_trigger": false,
      "taf_trigger": false,
      "metar": "METAR LCPH 071400Z 15012KT CAVOK 19/14 Q1021 NOSIG",
      "taf": "TAF LCPH 071130Z 0712/0812 15015KT 9999 FEW040"
    },
    {
      "icao": "LEAL",
      "alert": "OK",
      "vis_m": 9999,
      "fzfg": false,
      "metar_trigger": false,
      "taf_trigger": false,
      "metar": "METAR LEAL 071400Z 29012KT 250V320 CAVOK 13/M02 Q1021 NOSIG",
      "taf": "TAF LEAL 071100Z 0712/0812 29012KT CAVOK TX13/0714Z TN07/0806Z"
    },
    {
      "icao": "LEBB",
      "alert": "OK",
      "vis_m": 3000,
      "fzfg": false,
      "metar_trigger": false,
      "taf_trigger": false,
      "metar": "SPECI LEBB 071420Z 08004KT 3000 RA FEW014 BKN025 08/07 Q1020 NOSIG",
      "taf": "TAF LEBB 071100Z 0712/0812 22005KT 9999 SCT020 BKN030 TX11/0714Z TN08/0806Z"
    },
    {
      "icao": "LEBL",
      "alert": "OK",
      "vis_m": 9999,
      "fzfg": false,
      "metar_trigger": false,
      "taf_trigger": false,
      "metar": "METAR LEBL 071400Z 32006KT 280V340 CAVOK 09/M03 Q1017 NOSIG",
      "taf": ""
    },
    {
      "icao": "LECH",
      "alert": "OK",
      "vis_m": 9000,
      "fzfg": false,
      "metar_trigger": false,
      "taf_trigger": false,
      "metar": "METAR LECH 071400Z AUTO 25005KT 190V310 9000 NCD 11/M05 Q1018",
      "taf": ""
    },
    {
      "icao": "LEMD",
      "alert": "OK",
      "vis_m": 9999,
      "fzfg": false,
      "metar_trigger": false,
      "taf_trigger": false,
      "metar": "METAR LEMD 071400Z 09003KT 040V190 9999 SCT060 08/M01 Q1021 NOSIG",
      "taf": "TAF LEMD 071100Z 0712/0818 25005KT CAVOK TX08/0715Z TNM02/0806Z"
    },
    {
      "icao": "LEMG",
      "alert": "OK",
      "vis_m": 9999,
      "fzfg": false,
      "metar_trigger": false,
      "taf_trigger": false,
      "metar": "METAR LEMG 071400Z 29010KT 260V320 CAVOK 13/M00 Q1025 NOSIG",
      "taf": "TAF LEMG 071100Z 0712/0812 29012KT 9999 FEW040 TX13/0714Z TN06/0806Z"
    },
    {
      "icao": "LEVC",
      "alert": "OK",
      "vis_m": 9999,
      "fzfg": false,
      "metar_trigger": false,
      "taf_trigger": false,
      "metar": "METAR LEVC 071400Z 29012KT CAVOK 13/M02 Q1019 NOSIG",
      "taf": "TAF LEVC 071100Z 0712/0812 25012KT CAVOK TX13/0714Z TN06/0806Z"
    },
    {
      "icao": "LEXJ",
      "alert": "OK",
      "vis_m": 9000,
      "fzfg": false,
      "metar_trigger": false,
      "taf_trigger": false,
      "metar": "METAR LEXJ 071400Z 32017KT 280V360 9000 SCT025 BKN042 BKN063 12/08 Q1021",
      "taf": "TAF LEXJ 070800Z 0709/0809 24009KT 9999 BKN050 TX12/0713Z TN08/0802Z"
    },
    {
      "icao": "LEZG",
      "alert": "OK",
      "vis_m": 9999,
      "fzfg": false,
      "metar_trigger": false,
      "taf_trigger": false,
      "metar": "METAR LEZG 071400Z 29011KT 260V320 9999 FEW070 SCT085 08/M02 Q1020 NOSIG",
      "taf": "TAF LEZG 071100Z 0712/0812 30007KT 9999 FEW030 TX08/0715Z TN05/0806Z"
    },
    {
      "icao": "LEZL",
      "alert": "OK",
      "vis_m": 9999,
      "fzfg": false,
      "metar_trigger": false,
      "taf_trigger": false,
      "metar": "METAR LEZL 071400Z 20003KT 140V240 9999 FEW040 10/04 Q1027 NOSIG",
      "taf": "TAF LEZL 070800Z 0709/0809 19004KT 9999 FEW030 TX12/0715Z TN03/0807Z"
    },
    {
      "icao": "LFBD",
      "alert": "OK",
      "vis_m": 9999,
      "fzfg": false,
      "metar_trigger": false,
      "taf_trigger": false,
      "metar": "METAR LFBD 071400Z AUTO 24006KT 9999 FEW010/// BKN074/// BKN110/// ///CB 06/05 Q1015",
      "taf": "TAF LFBD 070500Z 0706/0812 19005KT CAVOK TX10/0800Z TNM01/0706Z"
    },
    {
      "icao": "LFLL",
      "alert": "OK",
      "vis_m": 9999,
      "fzfg": false,
      "metar_trigger": false,
      "taf_trigger": false,
      "metar": "METAR LFLL 071400Z 15005KT 120V190 9999 BKN046 BKN060 M00/M07 Q1015 NOSIG",
      "taf": "TAF LFLL 071100Z 0712/0818 16005KT CAVOK"
    },
    {
      "icao": "LFLS",
      "alert": "OK",
      "vis_m": 9999,
      "fzfg": false,
      "metar_trigger": false,
      "taf_trigger": false,
      "metar": "METAR LFLS 071400Z AUTO 11003KT CAVOK M01/M08 Q1014 BECMG 4000 -SN",
      "taf": "TAF LFLS 071400Z 0715/0815 VRB05KT CAVOK"
    },
    {
      "icao": "LFMN",
      "alert": "OK",
      "vis_m": 9999,
      "fzfg": false,
      "metar_trigger": false,
      "taf_trigger": false,
      "metar": "METAR LFMN 071400Z 24013KT 210V270 9999 FEW040 10/M01 Q1010 NOSIG",
      "taf": "TAF LFMN 071400Z 0715/0821 24012KT CAVOK"
    },
    {
      "icao": "LFOB",
      "alert": "OK",
      "vis_m": 9999,
      "fzfg": false,
      "metar_trigger": false,
      "taf_trigger": false,
      "metar": "METAR LFOB 071400Z AUTO 23009KT CAVOK 03/01 Q1007 NOSIG",
      "taf": ""
    },
    {
      "icao": "LFPO",
      "alert": "OK",
      "vis_m": 9999,
      "fzfg": false,
      "metar_trigger": false,
      "taf_trigger": false,
      "metar": "METAR LFPO 071400Z AUTO 24007KT 9999 4900 SCT009 BKN037 BKN046 01/M00 Q1009 NOSIG",
      "taf": "TAF LFPO 071100Z 0712/0818 22012KT 9999 BKN009"
    },
    {
      "icao": "LFSB",
      "alert": "OK",
      "vis_m": 9999,
      "fzfg": false,
      "metar_trigger": false,
      "taf_trigger": false,
      "metar": "METAR LFSB 071400Z AUTO 15007KT CAVOK M01/M07 Q1012 NOSIG",
      "taf": "TAF LFSB 071100Z 0712/0812 16005KT CAVOK"
    },
    {
      "icao": "LGAV",
      "alert": "OK",
      "vis_m": 9999,
      "fzfg": false,
      "metar_trigger": false,
      "taf_trigger": false,
      "metar": "METAR LGAV 071350Z 20019KT 9999 FEW025 19/11 Q1010 NOSIG",
      "taf": "TAF LGAV 071100Z 0712/0812 20015KT 9999 FEW020 SCT030"
    },
    {
      "icao": "LGTS",
      "alert": "OK",
      "vis_m": 9999,
      "fzfg": false,
      "metar_trigger": false,
      "taf_trigger": false,
      "metar": "METAR LGTS 071350Z 13005KT 9999 FEW025 17/12 Q1007 NOSIG",
      "taf": "TAF LGTS 071100Z 0712/0812 16013KT 9999 SCT025"
    },
    {
      "icao": "LHBP",
      "alert": "OK",
      "vis_m": 8000,
      "fzfg": false,
      "metar_trigger": false,
      "taf_trigger": false,
      "metar": "METAR LHBP 071400Z 33004KT 8000 -SN BKN048 OVC080 M01/M03 Q1011 NOSIG",
      "taf": "TAF LHBP 071115Z 0712/0812 33005KT 9999 BKN040"
    },
    {
      "icao": "LHDC",
      "alert": "OK",
      "vis_m": 9999,
      "fzfg": false,
      "metar_trigger": false,
      "taf_trigger": false,
      "metar": "METAR LHDC 071345Z AUTO 02005KT 330V050 9999 BKN028 M01/M05 Q1011 BECMG 6000 -SN",
      "taf": "TAF LHDC 071115Z 0712/0721 35008KT 9999 OVC020"
    },
    {
      "icao": "LIBD",
      "alert": "OK",
      "vis_m": 5000,
      "fzfg": false,
      "metar_trigger": false,
      "taf_trigger": false,
      "metar": "METAR LIBD 071350Z 28010KT 5000 -RA BR BKN005 OVC008 06/06 Q1005",
      "taf": "TAF LIBD 071100Z 0712/0812 28012KT 4000 RA BKN020"
    },
    {
      "icao": "LIBG",
      "alert": "OK",
      "vis_m": 3000,
      "fzfg": false,
      "metar_trigger": false,
      "taf_trigger": false,
      "metar": "SPECI LIBG 071411Z 34006KT 280V020 3000 RA FEW010 BKN020 10/10 Q1003",
      "taf": "TAF LIBG 071400Z 0715/0724 35012KT 9999 SCT015"
    },
    {
      "icao": "LIBP",
      "alert": "OK",
      "vis_m": 9999,
      "fzfg": false,
      "metar_trigger": false,
      "taf_trigger": false,
      "metar": "METAR LIBP 071350Z AUTO 34009KT 9999 BKN041/// BKN230/// 07/M00 Q1008",
      "taf": "TAF LIBP 071100Z 0712/0812 30007KT 9999 BKN030"
    },
    {
      "icao": "LIBR",
      "alert": "OK",
      "vis_m": 9999,
      "fzfg": false,
      "metar_trigger": false,
      "taf_trigger": false,
      "metar": "METAR LIBR 071350Z 34009KT 9999 BKN007 OVC030 11/10 Q1003",
      "taf": "TAF LIBR 071100Z 0712/0812 33008KT 6000 RA BKN016"
    },
    {
      "icao": "LICA",
      "alert": "OK",
      "vis_m": 9999,
      "fzfg": false,
      "metar_trigger": false,
      "taf_trigger": false,
      "metar": "METAR LICA 071350Z AUTO 27024KT 9999 RA FEW007/// SCT014/// OVC039/// 12/09 Q1006",
      "taf": "TAF LICA 071100Z 0712/0812 27013KT 9999 RA SCT050"
    },
    {
      "icao": "LICC",
      "alert": "OK",
      "vis_m": 9999,
      "fzfg": false,
      "metar_trigger": false,
      "taf_trigger": false,
      "metar": "METAR LICC 071350Z 24013KT 9999 SCT070 14/12 Q1005",
      "taf": "TAF LICC 071100Z 0712/0812 26013KT 9999 SCT050"
    },
    {
      "icao": "LICJ",
      "alert": "OK",
      "vis_m": 9999,
      "fzfg": false,
      "metar_trigger": false,
      "taf_trigger": false,
      "metar": "METAR LICJ 071350Z 27019KT 9999 FEW030 SCT040 12/04 Q1009",
      "taf": "TAF LICJ 071100Z 0712/0812 27018KT 9999 SCT030"
    },
    {
      "icao": "LIMC",
      "alert": "OK",
      "vis_m": 9999,
      "fzfg": false,
      "metar_trigger": false,
      "taf_trigger": false,
      "metar": "METAR LIMC 071350Z 24006KT CAVOK 03/M02 Q1010 NOSIG",
      "taf": "TAF LIMC 071100Z 0712/0818 VRB04KT CAVOK"
    },
    {
      "icao": "LIME",
      "alert": "OK",
      "vis_m": 9999,
      "fzfg": false,
      "metar_trigger": false,
      "taf_trigger": false,
      "metar": "METAR LIME 071350Z 23005KT 190V260 CAVOK 03/M04 Q1010 NOSIG",
      "taf": "TAF LIME 071100Z 0712/0812 VRB04KT CAVOK"
    },
    {
      "icao": "LIMF",
      "alert": "OK",
      "vis_m": 9999,
      "fzfg": false,
      "metar_trigger": false,
      "taf_trigger": false,
      "metar": "METAR LIMF 071350Z 19003KT 160V230 CAVOK 04/M09 Q1010",
      "taf": "TAF LIMF 071100Z 0712/0812 VRB03KT CAVOK"
    },
    {
      "icao": "LIMJ",
      "alert": "OK",
      "vis_m": 9999,
      "fzfg": false,
      "metar_trigger": false,
      "taf_trigger": false,
      "metar": "METAR LIMJ 071350Z 07006KT 040V120 CAVOK 07/M06 Q1010",
      "taf": "TAF LIMJ 071100Z 0712/0812 04017KT CAVOK"
    },
    {
      "icao": "LIPE",
      "alert": "OK",
      "vis_m": 9999,
      "fzfg": false,
      "metar_trigger": false,
      "taf_trigger": false,
      "metar": "METAR LIPE 071350Z 28005KT CAVOK 03/M01 Q1011",
      "taf": "TAF LIPE 071100Z 0712/0812 26007KT 9999 BKN030"
    },
    {
      "icao": "LIPH",
      "alert": "OK",
      "vis_m": 9999,
      "fzfg": false,
      "metar_trigger": false,
      "taf_trigger": false,
      "metar": "METAR LIPH 071350Z 21004KT CAVOK 06/M06 Q1010",
      "taf": "TAF LIPH 071100Z 0712/0812 VRB05KT CAVOK"
    },
    {
      "icao": "LIPQ",
      "alert": "OK",
      "vis_m": 9999,
      "fzfg": false,
      "metar_trigger": false,
      "taf_trigger": false,
      "metar": "METAR LIPQ 071350Z AUTO 13008KT 9999 NCD 04/M06 Q1010",
      "taf": "TAF LIPQ 071100Z 0712/0812 08006KT 9999 SCT070"
    },
    {
      "icao": "LIPR",
      "alert": "OK",
      "vis_m": 9999,
      "fzfg": false,
      "metar_trigger": false,
      "taf_trigger": false,
      "metar": "METAR LIPR 071350Z 28011KT 9999 BKN050 02/M02 Q1010",
      "taf": "TAF LIPR 071100Z 0712/0812 30012KT 9999 BKN030"
    },
    {
      "icao": "LIPX",
      "alert": "OK",
      "vis_m": 9999,
      "fzfg": false,
      "metar_trigger": false,
      "taf_trigger": false,
      "metar": "METAR LIPX 071350Z 26007KT CAVOK 05/M05 Q1010",
      "taf": "TAF LIPX 071100Z 0712/0812 VRB05KT CAVOK"
    },
    {
      "icao": "LIPY",
      "alert": "OK",
      "vis_m": 9999,
      "fzfg": false,
      "metar_trigger": false,
      "taf_trigger": false,
      "metar": "METAR LIPY 071350Z AUTO 30008KT 9999 -RA OVC031/// 03/M01 Q1009",
      "taf": "TAF LIPY 071100Z 0712/0812 33013KT 9999 BKN020"
    },
    {
      "icao": "LIPZ",
      "alert": "OK",
      "vis_m": 9999,
      "fzfg": false,
      "metar_trigger": false,
      "taf_trigger": false,
      "metar": "METAR LIPZ 071350Z 10006KT CAVOK 05/M07 Q1011 NOSIG",
      "taf": "TAF LIPZ 071100Z 0712/0818 VRB05KT CAVOK"
    },
    {
      "icao": "LIRF",
      "alert": "OK",
      "vis_m": 9999,
      "fzfg": false,
      "metar_trigger": false,
      "taf_trigger": false,
      "metar": "METAR LIRF 071350Z 01007KT 9999 BKN027 08/03 Q1006 NOSIG",
      "taf": "TAF LIRF 071100Z 0712/0818 01010KT 9999 FEW040"
    },
    {
      "icao": "LIRN",
      "alert": "OK",
      "vis_m": 9999,
      "fzfg": false,
      "metar_trigger": false,
      "taf_trigger": false,
      "metar": "METAR LIRN 071350Z 04003KT 360V080 9999 FEW020 BKN070 11/05 Q1004 NOSIG",
      "taf": "TAF LIRN 071100Z 0712/0812 28012KT 9999 SCT030"
    },
    {
      "icao": "LIRP",
      "alert": "OK",
      "vis_m": 9999,
      "fzfg": false,
      "metar_trigger": false,
      "taf_trigger": false,
      "metar": "METAR LIRP 071345Z 12008KT CAVOK 06/M05 Q1009 NOSIG",
      "taf": "TAF LIRP 071100Z 0712/0812 12007KT CAVOK"
    },
    {
      "icao": "LIRZ",
      "alert": "OK",
      "vis_m": 9999,
      "fzfg": false,
      "metar_trigger": false,
      "taf_trigger": false,
      "metar": "METAR LIRZ 071350Z AUTO 01011KT 9999 OVC041/// 03/M01 Q1007",
      "taf": "TAF LIRZ 071100Z 0712/0812 01013KT 9999 BKN040"
    },
    {
      "icao": "LJLJ",
      "alert": "OK",
      "vis_m": 8000,
      "fzfg": false,
      "metar_trigger": false,
      "taf_trigger": false,
      "metar": "METAR LJLJ 071400Z 09002KT 8000 -SN FEW010 BKN020 BKN065 M04/M05 Q1011 NOSIG",
      "taf": "TAF LJLJ 071100Z 0712/0812 VRB02KT 9999 FEW005 BKN080"
    },
    {
      "icao": "LKMT",
      "alert": "OK",
      "vis_m": 9999,
      "fzfg": false,
      "metar_trigger": false,
      "taf_trigger": false,
      "metar": "METAR LKMT 071400Z 02009KT 9999 OVC019 M04/M07 Q1014 NOSIG",
      "taf": "TAF LKMT 071100Z 0712/0812 02007KT 9999 BKN030"
    },
    {
      "icao": "LKPR",
      "alert": "OK",
      "vis_m": 9999,
      "fzfg": false,
      "metar_trigger": false,
      "taf_trigger": false,
      "metar": "METAR LKPR 071400Z 21008KT 160V230 9999 BKN030 M05/M10 Q1013 NOSIG",
      "taf": "TAF LKPR 071400Z 0715/0821 21006KT 9999 BKN025"
    },
    {
      "icao": "LLBG",
      "alert": "OK",
      "vis_m": 9999,
      "fzfg": false,
      "metar_trigger": false,
      "taf_trigger": false,
      "metar": "METAR LLBG 071420Z 28005KT CAVOK 20/13 Q1020 NOSIG",
      "taf": "TAF LLBG 071102Z 0712/0812 33006KT CAVOK"
    },
    {
      "icao": "LMML",
      "alert": "OK",
      "vis_m": 9999,
      "fzfg": false,
      "metar_trigger": false,
      "taf_trigger": false,
      "metar": "METAR LMML 071415Z 30014KT 9999 -RA FEW012 BKN021 12/10 Q1009 NOSIG",
      "taf": "TAF LMML 071100Z 0712/0812 28015KT 9999 SCT018"
    },
    {
      "icao": "LOWW",
      "alert": "OK",
      "vis_m": 9999,
      "fzfg": false,
      "metar_trigger": false,
      "taf_trigger": false,
      "metar": "METAR LOWW 071350Z 34014KT 310V010 9999 FEW032 BKN034 M02/M10 Q1013 NOSIG",
      "taf": "TAF LOWW 071415Z 0715/0821 32010KT 9999 FEW040 TXM02/0814Z TNM06/0805Z"
    },
    {
      "icao": "LPFR",
      "alert": "OK",
      "vis_m": 2500,
      "fzfg": false,
      "metar_trigger": false,
      "taf_trigger": false,
      "metar": "METAR LPFR 071400Z 36007KT 300V020 2500 -RADZ BR SCT003 BKN009 11/11 Q1026 RERA",
      "taf": ""
    },
    {
      "icao": "LPMA",
      "alert": "OK",
      "vis_m": 9999,
      "fzfg": false,
      "metar_trigger": false,
      "taf_trigger": false,
      "metar": "METAR LPMA 071400Z 02013KT 320V050 9999 SCT015 17/08 Q1032",
      "taf": "TAF LPMA 071100Z 0712/0812 02012KT 9999 SCT015"
    },
    {
      "icao": "LPPR",
      "alert": "OK",
      "vis_m": 9999,
      "fzfg": false,
      "metar_trigger": false,
      "taf_trigger": false,
      "metar": "METAR LPPR 071400Z 30005KT 260V010 9999 FEW020 12/08 Q1026",
      "taf": "TAF LPPR 071100Z 0712/0812 01005KT 9999 SCT015"
    },
    {
      "icao": "LPPS",
      "alert": "OK",
      "vis_m": 9999,
      "fzfg": false,
      "metar_trigger": false,
      "taf_trigger": false,
      "metar": "METAR LPPS 071400Z 05008KT 360V110 9999 SCT015 17/09 Q1033",
      "taf": "TAF LPPS 071100Z 0712/0818 02012KT 9999 SCT015"
    },
    {
      "icao": "LPPT",
      "alert": "OK",
      "vis_m": 9999,
      "fzfg": false,
      "metar_trigger": false,
      "taf_trigger": false,
      "metar": "METAR LPPT 071400Z 35013KT 9999 FEW025 SCT038 14/08 Q1026",
      "taf": "TAF LPPT 071100Z 0712/0818 34012KT 9999 SCT025"
    },
    {
      "icao": "LQBK",
      "alert": "OK",
      "vis_m": 7000,
      "fzfg": false,
      "metar_trigger": false,
      "taf_trigger": false,
      "metar": "METAR LQBK 071400Z 30005KT 260V320 7000 -SN FEW010 BKN037 M03/M04 Q1012 NOSIG",
      "taf": "TAF LQBK 071100Z 0712/0812 35006KT 7000 -SN SCT020 BKN030 TXM02/0713Z TNM07/0805Z"
    },
    {
      "icao": "LQSA",
      "alert": "OK",
      "vis_m": 6000,
      "fzfg": false,
      "metar_trigger": false,
      "taf_trigger": false,
      "metar": "METAR LQSA 071400Z 28004KT 240V330 6000 -SN SCT015 SCT020 OVC035 M03/M04 Q1008 NOSIG",
      "taf": "TAF LQSA 071100Z 0712/0812 29005KT 7000 -SN SCT012 OVC030 TXM03/0712Z TNM07/0806Z"
    },
    {
      "icao": "LQTZ",
      "alert": "OK",
      "vis_m": 6000,
      "fzfg": false,
      "metar_trigger": false,
      "taf_trigger": false,
      "metar": "METAR LQTZ 071400Z VRB02KT 6000 -SN FEW010 SCT020 OVC038 M03/M04 Q1011",
      "taf": "TAF LQTZ 071100Z 0712/0812 27007KT 9999 SCT010 BKN020 OVC040 TXM01/0812Z TNM05/0805Z"
    },
    {
      "icao": "LRBC",
      "alert": "OK",
      "vis_m": 4000,
      "fzfg": false,
      "metar_trigger": false,
      "taf_trigger": false,
      "metar": "METAR LRBC 071400Z 34010KT 4000 BR OVC004 00/M01 Q1010",
      "taf": "TAF LRBC 071100Z 0712/0721 35008KT 3000 BR OVC004"
    },
    {
      "icao": "LRBS",
      "alert": "OK",
      "vis_m": 600,
      "fzfg": false,
      "metar_trigger": false,
      "taf_trigger": false,
      "metar": "METAR LRBS 071400Z 23004KT 0600 R07/1500N -DZ FG VV001 04/04 Q1009 BECMG 1500 -RA BR",
      "taf": "TAF LRBS 071100Z 0712/0812 07006KT 0600 FG OVC001"
    },
    {
      "icao": "LRBV",
      "alert": "OK",
      "vis_m": 9999,
      "fzfg": false,
      "metar_trigger": false,
      "taf_trigger": false,
      "metar": "METAR LRBV 071400Z 31009KT 280V340 9999 FEW008 OVC012 02/01 Q1006",
      "taf": "TAF LRBV 071100Z 0712/0721 30010KT 9999 BKN035"
    },
    {
      "icao": "LRCL",
      "alert": "OK",
      "vis_m": 9999,
      "fzfg": false,
      "metar_trigger": false,
      "taf_trigger": false,
      "metar": "METAR LRCL 071400Z 35003KT 320V020 9999 BKN011 OVC025 M00/M02 Q1009",
      "taf": "TAF LRCL 071100Z 0712/0721 VRB04KT 9999 BKN010 BKN035"
    },
    {
      "icao": "LRCV",
      "alert": "OK",
      "vis_m": 2000,
      "fzfg": false,
      "metar_trigger": false,
      "taf_trigger": false,
      "metar": "METAR LRCV 071400Z 00000KT 2000 BR OVC002 03/03 Q1008",
      "taf": "TAF LRCV 071100Z 0712/0721 VRB04KT 1500 -RA BR OVC002"
    },
    {
      "icao": "LRIA",
      "alert": "OK",
      "vis_m": 2200,
      "fzfg": false,
      "metar_trigger": false,
      "taf_trigger": false,
      "metar": "METAR LRIA 071400Z 31008KT 2200 BR OVC001 00/00 Q1010",
      "taf": "TAF LRIA 071100Z 0712/0721 30006KT 0800 FG VV001"
    },
    {
      "icao": "LROP",
      "alert": "OK",
      "vis_m": 800,
      "fzfg": false,
      "metar_trigger": false,
      "taf_trigger": false,
      "metar": "METAR LROP 071400Z 22004KT 0800 R08R/1400U R08L/1600U FG BKN001 OVC002 05/05 Q1009 BECMG 1500 -RA BR",
      "taf": "TAF LROP 071100Z 0712/0812 07006KT 0600 FG OVC001"
    },
    {
      "icao": "LRSB",
      "alert": "OK",
      "vis_m": 9999,
      "fzfg": false,
      "metar_trigger": false,
      "taf_trigger": false,
      "metar": "METAR LRSB 071400Z 02004KT 9999 FEW013 OVC020 01/M01 Q1008",
      "taf": "TAF LRSB 071100Z 0712/0812 VRB04KT 9999 BKN010 OVC020"
    },
    {
      "icao": "LRSM",
      "alert": "OK",
      "vis_m": 8000,
      "fzfg": false,
      "metar_trigger": false,
      "taf_trigger": false,
      "metar": "METAR LRSM 071400Z 25004KT 8000 BKN007 OVC040 M02/M03 Q1011",
      "taf": "TAF LRSM 071100Z 0712/0721 VRB04KT 9999 BKN005 OVC020"
    },
    {
      "icao": "LRSV",
      "alert": "OK",
      "vis_m": 6000,
      "fzfg": false,
      "metar_trigger": false,
      "taf_trigger": false,
      "metar": "METAR LRSV 071400Z 33008KT 6000 SCT007 BKN020 M02/M03 Q1009",
      "taf": "TAF LRSV 071100Z 0712/0721 34010KT 5000 BR BKN005 OVC020"
    },
    {
      "icao": "LRTM",
      "alert": "OK",
      "vis_m": 9999,
      "fzfg": false,
      "metar_trigger": false,
      "taf_trigger": false,
      "metar": "METAR LRTM 071400Z VRB02KT 9999 FEW006 SCT008 BKN012 01/M00 Q1008",
      "taf": "TAF LRTM 071100Z 0712/0721 VRB04KT 5000 -RA BR BKN010 BKN045"
    },
    {
      "icao": "LRTR",
      "alert": "OK",
      "vis_m": 4000,
      "fzfg": false,
      "metar_trigger": false,
      "taf_trigger": false,
      "metar": "METAR LRTR 071400Z 27005KT 4000 -SN BR SCT003 BKN005 OVC011 M02/M02 Q1011",
      "taf": "TAF LRTR 071100Z 0712/0812 VRB04KT 3000 BR BKN005 OVC015"
    },
    {
      "icao": "LTAC",
      "alert": "OK",
      "vis_m": 9999,
      "fzfg": false,
      "metar_trigger": false,
      "taf_trigger": false,
      "metar": "METAR LTAC 071350Z 03006KT 9999 FEW040 SCT100 10/03 Q1018 NOSIG RMK RWY21C 02005KT RWY03L 02005KT RWY21R 01005KT RWY03R 02004KT RWY21L 01005KT",
      "taf": "TAF LTAC 071040Z 0712/0812 VRB02KT 9999 SCT040 SCT100"
    },
    {
      "icao": "LTFM",
      "alert": "OK",
      "vis_m": 9999,
      "fzfg": false,
      "metar_trigger": false,
      "taf_trigger": false,
      "metar": "METAR LTFM 071350Z 21014KT 9999 FEW040 BKN080 17/09 Q1011 NOSIG RMK RWY17L 21017KT RWY34L 19013KT RWY16R 20014KT RWY36 21016KT RWY18 22020KT",
      "taf": "TAF LTFM 071040Z 0712/0818 20015G25KT 9999 SCT040 BKN080"
    },
    {
      "icao": "LUKK",
      "alert": "OK",
      "vis_m": 9999,
      "fzfg": false,
      "metar_trigger": false,
      "taf_trigger": false,
      "metar": "METAR LUKK 071400Z 36007KT 330V030 9999 OVC004 02/02 Q1009 NOSIG",
      "taf": "TAF LUKK 071114Z 0712/0812 35006KT 0800 -DZ FG VV002"
    },
    {
      "icao": "LWOH",
      "alert": "OK",
      "vis_m": 5000,
      "fzfg": false,
      "metar_trigger": false,
      "taf_trigger": false,
      "metar": "METAR LWOH 071420Z VRB02KT 5000 RA SCT010 OVC030 08/08 Q1005",
      "taf": "TAF LWOH 071420Z 0715/0815 VRB02KT 9999 RA SCT010 OVC040"
    },
    {
      "icao": "LWSK",
      "alert": "OK",
      "vis_m": 6000,
      "fzfg": false,
      "metar_trigger": false,
      "taf_trigger": false,
      "metar": "METAR LWSK 071420Z VRB02KT 6000 -RA FEW015 SCT040 BKN070 10/09 Q1004 NOSIG",
      "taf": "TAF LWSK 071420Z 0715/0815 VRB02KT 6000 RA FEW015 SCT040 BKN070"
    },
    {
      "icao": "LYBE",
      "alert": "OK",
      "vis_m": 2000,
      "fzfg": false,
      "metar_trigger": false,
      "taf_trigger": false,
      "metar": "METAR LYBE 071400Z 29005KT 2000 SN BKN005 BKN027 M02/M03 Q1012 TEMPO 1200 +SN BKN002 OVC025",
      "taf": "TAF LYBE 071100Z 0712/0812 27008KT 7000 BKN007 BKN035 TXM01/0713Z TNM04/0806Z"
    },
    {
      "icao": "LYNI",
      "alert": "OK",
      "vis_m": 9999,
      "fzfg": false,
      "metar_trigger": false,
      "taf_trigger": false,
      "metar": "METAR LYNI 071400Z COR 33011KT 9999 SCT010 OVC017 M01/M04 Q1009 REFZRA NOSIG",
      "taf": "TAF LYNI 071100Z 0712/0812 34014KT 9999 SCT008 BKN012 BKN030 TXM01/0712Z TNM04/0806Z"
    },
    {
      "icao": "LYPG",
      "alert": "OK",
      "vis_m": 7000,
      "fzfg": false,
      "metar_trigger": false,
      "taf_trigger": false,
      "metar": "METAR LYPG 071400Z 31010KT 260V340 7000 RA FEW010 SCT030 OVC070 11/09 Q1003 TEMPO 5000",
      "taf": "TAF LYPG 071100Z 0712/0812 15007KT 9999 FEW020 BKN034 OVC070 TX13/0712Z TN03/0806Z"
    },
    {
      "icao": "LZIB",
      "alert": "OK",
      "vis_m": 9999,
      "fzfg": false,
      "metar_trigger": false,
      "taf_trigger": false,
      "metar": "METAR LZIB 071400Z 34012KT 9999 FEW030 M02/M08 Q1013 NOSIG",
      "taf": "TAF LZIB 071115Z 0712/0812 33009KT 9999 FEW035"
    },
    {
      "icao": "LZKZ",
      "alert": "OK",
      "vis_m": 9999,
      "fzfg": false,
      "metar_trigger": false,
      "taf_trigger": false,
      "metar": "METAR LZKZ 071400Z 36020KT 9999 DRSN OVC049 M02/M07 Q1010 NOSIG",
      "taf": ""
    },
    {
      "icao": "LZTT",
      "alert": "OK",
      "vis_m": 9999,
      "fzfg": false,
      "metar_trigger": false,
      "taf_trigger": false,
      "metar": "METAR LZTT 071400Z 10010KT 9999 FEW016 BKN046 M07/M10 Q1009 NOSIG",
      "taf": ""
    },
    {
      "icao": "OEJN",
      "alert": "OK",
      "vis_m": 8000,
      "fzfg": false,
      "metar_trigger": false,
      "taf_trigger": false,
      "metar": "METAR OEJN 071400Z 25009KT 8000 NSC 28/18 Q1015 NOSIG",
      "taf": "TAF OEJN 071100Z 0712/0818 26010KT 7000 FEW040"
    },
    {
      "icao": "OEMA",
      "alert": "OK",
      "vis_m": 9999,
      "fzfg": false,
      "metar_trigger": false,
      "taf_trigger": false,
      "metar": "METAR OEMA 071400Z 10005KT CAVOK 27/00 Q1022 NOSIG",
      "taf": "TAF OEMA 071100Z 0712/0818 10010KT 8000 NSC"
    },
    {
      "icao": "OJAI",
      "alert": "OK",
      "vis_m": 5000,
      "fzfg": false,
      "metar_trigger": false,
      "taf_trigger": false,
      "metar": "METAR OJAI 071400Z 08006KT 5000 HZ NSC 17/05 Q1024 NOSIG",
      "taf": "TAF OJAI 071100Z 0712/0818 07010KT 5000 HZ NSC"
    },
    {
      "icao": "OMAA",
      "alert": "OK",
      "vis_m": 9999,
      "fzfg": false,
      "metar_trigger": false,
      "taf_trigger": false,
      "metar": "METAR OMAA 071400Z 31011KT CAVOK 22/13 Q1020 NOSIG",
      "taf": "TAF OMAA 071100Z 0712/0818 34011KT 9999 FEW040"
    },
    {
      "icao": "OMDB",
      "alert": "OK",
      "vis_m": 9999,
      "fzfg": false,
      "metar_trigger": false,
      "taf_trigger": false,
      "metar": "METAR OMDB 071400Z 34010KT CAVOK 23/10 Q1020 NOSIG",
      "taf": "TAF OMDB 071100Z 0712/0818 34010KT 8000 FEW045"
    },
    {
      "icao": "UAAA",
      "alert": "OK",
      "vis_m": 1500,
      "fzfg": true,
      "metar_trigger": false,
      "taf_trigger": false,
      "metar": "METAR UAAA 071400Z VRB01MPS 1500 R23L/P2000U -SG BR OVC003 M04/M05 Q1032 NOSIG RMK QBB110",
      "taf": "TAF UAAA 071102Z 0712/0812 VRB01MPS 0600 FZFG VV003 TXM01/0809Z TNM05/0801Z"
    },
    {
      "icao": "UBBB",
      "alert": "OK",
      "vis_m": 50,
      "fzfg": false,
      "metar_trigger": false,
      "taf_trigger": false,
      "metar": "METAR UBBB 071400Z 17004KT 0050 R16/0150 R17/0300 FG VV001 07/06 Q1021 NOSIG",
      "taf": ""
    },
    {
      "icao": "UDSG",
      "alert": "OK",
      "vis_m": 5000,
      "fzfg": false,
      "metar_trigger": false,
      "taf_trigger": false,
      "metar": "METAR UDSG 071400Z 26001KT 5000 BR FEW049 M09/M12 Q1026 NOSIG",
      "taf": "TAF UDSG 071058Z 0712/0812 VRB06KT 5000 BR FEW040"
    },
    {
      "icao": "UDYZ",
      "alert": "OK",
      "vis_m": 4200,
      "fzfg": false,
      "metar_trigger": false,
      "taf_trigger": false,
      "metar": "METAR UDYZ 071400Z 33001KT 4200 BR NSC M03/M08 Q1028 NOSIG",
      "taf": "TAF UDYZ 071100Z 0712/0812 22006KT 2300 BR NSC"
    },
    {
      "icao": "UGKO",
      "alert": "OK",
      "vis_m": 9999,
      "fzfg": false,
      "metar_trigger": false,
      "taf_trigger": false,
      "metar": "METAR UGKO 071400Z 11007KT CAVOK 12/M01 Q1017 NOSIG",
      "taf": "TAF UGKO 071100Z 0712/0812 09010KT CAVOK TX18/0812Z TN06/0722Z"
    }
  ]
}