{
  "ts_utc": "2026-07-23T01:02:56Z",
  "threshold_m": 150,
  "source": "stations_override.txt (ICAO list) + aviationweather.gov (METAR/TAF raw)",
  "station_count": 159,
  "stations": [
    {
      "icao": "BIKF",
      "alert": "OK",
      "vis_m": 4000,
      "fzfg": false,
      "metar_trigger": false,
      "taf_trigger": false,
      "metar": "METAR BIKF 230030Z 24014KT 4000 -DZ BR OVC003 10/10 Q1008",
      "taf": "TAF BIKF 222242Z 2300/2400 22013KT 6000 -RADZ BKN008 TX13/2318Z TN10/2300Z"
    },
    {
      "icao": "BKPR",
      "alert": "OK",
      "vis_m": 9999,
      "fzfg": false,
      "metar_trigger": false,
      "taf_trigger": false,
      "metar": "METAR BKPR 230030Z VRB02KT CAVOK 11/10 Q1018 NOSIG",
      "taf": "TAF BKPR 222330Z 2300/2324 VRB05KT 9999 FEW070"
    },
    {
      "icao": "EBCI",
      "alert": "OK",
      "vis_m": 9999,
      "fzfg": false,
      "metar_trigger": false,
      "taf_trigger": false,
      "metar": "METAR EBCI 230050Z 32003KT 280V360 9999 BKN030 14/11 Q1023 NOSIG",
      "taf": "TAF EBCI 222303Z 2300/2406 31004KT 9999 SCT020 SCT035"
    },
    {
      "icao": "EDDB",
      "alert": "OK",
      "vis_m": 9999,
      "fzfg": false,
      "metar_trigger": false,
      "taf_trigger": false,
      "metar": "METAR EDDB 230050Z AUTO 28011KT 9999 -SHRA FEW010 BKN017 FEW///TCU 14/13 Q1013 NOSIG",
      "taf": "TAF EDDB 222300Z 2300/2324 27012KT 9999 SCT045"
    },
    {
      "icao": "EDDH",
      "alert": "OK",
      "vis_m": 9999,
      "fzfg": false,
      "metar_trigger": false,
      "taf_trigger": false,
      "metar": "METAR EDDH 230050Z AUTO 29009KT 9999 SCT030 BKN043 14/11 Q1016 NOSIG",
      "taf": "TAF EDDH 222300Z 2300/2406 29007KT 9999 BKN035"
    },
    {
      "icao": "EDDK",
      "alert": "OK",
      "vis_m": 9999,
      "fzfg": false,
      "metar_trigger": false,
      "taf_trigger": false,
      "metar": "METAR EDDK 230050Z AUTO 33006KT 9999 OVC047 15/11 Q1021 NOSIG",
      "taf": "TAF EDDK 222300Z 2300/2406 32005KT 9999 SCT020 BKN030"
    },
    {
      "icao": "EDDN",
      "alert": "OK",
      "vis_m": 9999,
      "fzfg": false,
      "metar_trigger": false,
      "taf_trigger": false,
      "metar": "METAR EDDN 230050Z AUTO 31004KT CAVOK 12/10 Q1019",
      "taf": "TAF EDDN 222300Z 2300/2324 30004KT CAVOK"
    },
    {
      "icao": "EDDS",
      "alert": "OK",
      "vis_m": 9999,
      "fzfg": false,
      "metar_trigger": false,
      "taf_trigger": false,
      "metar": "METAR EDDS 230050Z AUTO 31004KT CAVOK 16/09 Q1019",
      "taf": "TAF EDDS 222300Z 2300/2324 32004KT CAVOK"
    },
    {
      "icao": "EDFH",
      "alert": "OK",
      "vis_m": 9999,
      "fzfg": false,
      "metar_trigger": false,
      "taf_trigger": false,
      "metar": "METAR EDFH 230050Z 30005KT 9999 FEW016 12/10 Q1021",
      "taf": "TAF EDFH 222300Z 2300/2324 32005KT 9999 SCT040"
    },
    {
      "icao": "EDJA",
      "alert": "OK",
      "vis_m": 9999,
      "fzfg": false,
      "metar_trigger": false,
      "taf_trigger": false,
      "metar": "METAR EDJA 230050Z AUTO 20004KT 9999 // BKN075/// BKN160/// BKN190/// 13/10 Q1020",
      "taf": "TAF EDJA 221700Z 2218/2303 VRB03KT CAVOK"
    },
    {
      "icao": "EDLW",
      "alert": "OK",
      "vis_m": 9999,
      "fzfg": false,
      "metar_trigger": false,
      "taf_trigger": false,
      "metar": "METAR EDLW 230050Z AUTO 26005KT 220V300 9999 // OVC044/// 15/11 Q1020",
      "taf": "TAF EDLW 221700Z 2218/2318 28010KT 9999 BKN035"
    },
    {
      "icao": "EDNY",
      "alert": "OK",
      "vis_m": 9999,
      "fzfg": false,
      "metar_trigger": false,
      "taf_trigger": false,
      "metar": "METAR EDNY 230050Z AUTO VRB02KT 9999 // NCD 15/10 Q1020",
      "taf": "TAF EDNY 221700Z 2218/2303 20005KT CAVOK"
    },
    {
      "icao": "EDSB",
      "alert": "OK",
      "vis_m": 9999,
      "fzfg": false,
      "metar_trigger": false,
      "taf_trigger": false,
      "metar": "METAR EDSB 230050Z AUTO 03003KT CAVOK 16/11 Q1020",
      "taf": "TAF EDSB 222300Z 2300/2324 01005KT CAVOK"
    },
    {
      "icao": "EETN",
      "alert": "OK",
      "vis_m": 9999,
      "fzfg": false,
      "metar_trigger": false,
      "taf_trigger": false,
      "metar": "METAR EETN 230050Z 27007KT CAVOK 14/12 Q1007",
      "taf": "TAF EETN 222330Z 2300/2324 27008KT 9999 FEW015 BKN045"
    },
    {
      "icao": "EFTU",
      "alert": "OK",
      "vis_m": 9999,
      "fzfg": false,
      "metar_trigger": false,
      "taf_trigger": false,
      "metar": "METAR EFTU 230050Z AUTO 28004KT CAVOK 12/11 Q1007",
      "taf": "TAF EFTU 222331Z 2300/2324 27004KT CAVOK"
    },
    {
      "icao": "EGBB",
      "alert": "OK",
      "vis_m": 9999,
      "fzfg": false,
      "metar_trigger": false,
      "taf_trigger": false,
      "metar": "METAR EGBB 230050Z 31003KT CAVOK 14/13 Q1025",
      "taf": "TAF EGBB 222255Z 2300/2324 28005KT 9999 FEW040"
    },
    {
      "icao": "EGGP",
      "alert": "OK",
      "vis_m": 9999,
      "fzfg": false,
      "metar_trigger": false,
      "taf_trigger": false,
      "metar": "METAR EGGP 230050Z 26008KT 9999 FEW014 15/13 Q1025",
      "taf": "TAF EGGP 222255Z 2300/2324 30007KT 9999 FEW014 SCT025"
    },
    {
      "icao": "EGGW",
      "alert": "OK",
      "vis_m": 9999,
      "fzfg": false,
      "metar_trigger": false,
      "taf_trigger": false,
      "metar": "METAR EGGW 230050Z AUTO 25001KT 9999 NCD 14/12 Q1024",
      "taf": "TAF EGGW 222259Z 2300/2324 VRB04KT 9999 FEW045"
    },
    {
      "icao": "EGKK",
      "alert": "OK",
      "vis_m": 9999,
      "fzfg": false,
      "metar_trigger": false,
      "taf_trigger": false,
      "metar": "METAR EGKK 230050Z VRB02KT CAVOK 16/13 Q1024",
      "taf": "TAF EGKK 222256Z 2300/2406 VRB02KT 9999 FEW045"
    },
    {
      "icao": "EGNM",
      "alert": "OK",
      "vis_m": 9999,
      "fzfg": false,
      "metar_trigger": false,
      "taf_trigger": false,
      "metar": "METAR EGNM 230050Z 28009KT 9999 SCT045 16/13 Q1024",
      "taf": "TAF EGNM 222256Z 2300/2324 30007KT 9999 FEW045"
    },
    {
      "icao": "EGPD",
      "alert": "OK",
      "vis_m": 9999,
      "fzfg": false,
      "metar_trigger": false,
      "taf_trigger": false,
      "metar": "METAR EGPD 230050Z AUTO 32005KT 9999 SCT013 BKN018 OVC039 14/13 Q1023",
      "taf": ""
    },
    {
      "icao": "EGPF",
      "alert": "OK",
      "vis_m": 9999,
      "fzfg": false,
      "metar_trigger": false,
      "taf_trigger": false,
      "metar": "METAR EGPF 230050Z AUTO 29007KT 260V330 9999 FEW018 16/13 Q1025",
      "taf": "TAF EGPF 222301Z 2300/2324 29008KT 9999 FEW030"
    },
    {
      "icao": "EHBK",
      "alert": "OK",
      "vis_m": 9999,
      "fzfg": false,
      "metar_trigger": false,
      "taf_trigger": false,
      "metar": "METAR EHBK 230055Z AUTO 32005KT 280V010 9999 OVC040/// 15/11 Q1022",
      "taf": "TAF EHBK 222315Z 2300/2406 30004KT 9999 BKN035"
    },
    {
      "icao": "EHEH",
      "alert": "OK",
      "vis_m": 9999,
      "fzfg": false,
      "metar_trigger": false,
      "taf_trigger": false,
      "metar": "METAR EHEH 230055Z AUTO 28003KT 230V300 9999 OVC039 15/11 Q1022 BLU",
      "taf": "TAF EHEH 222317Z 2300/2406 29003KT 9999 BKN045"
    },
    {
      "icao": "EKBI",
      "alert": "OK",
      "vis_m": 9999,
      "fzfg": false,
      "metar_trigger": false,
      "taf_trigger": false,
      "metar": "METAR EKBI 230050Z AUTO 28005KT 9999 NCD 10/08 Q1015",
      "taf": "TAF EKBI 222327Z 2300/2324 30010KT 9999 BKN018"
    },
    {
      "icao": "EKCH",
      "alert": "OK",
      "vis_m": 9999,
      "fzfg": false,
      "metar_trigger": false,
      "taf_trigger": false,
      "metar": "METAR EKCH 230050Z AUTO 33006KT 9999 NCD 15/12 Q1012 NOSIG",
      "taf": "TAF EKCH 222327Z 2300/2324 35010KT 9999 FEW020"
    },
    {
      "icao": "ENAL",
      "alert": "OK",
      "vis_m": 9999,
      "fzfg": false,
      "metar_trigger": false,
      "taf_trigger": false,
      "metar": "METAR ENAL 230050Z AUTO 05007KT 9999 BKN025/// 11/09 Q1018",
      "taf": "TAF ENAL 222300Z 2300/2309 03008KT 9999 SCT020"
    },
    {
      "icao": "ENBR",
      "alert": "OK",
      "vis_m": 9999,
      "fzfg": false,
      "metar_trigger": false,
      "taf_trigger": false,
      "metar": "METAR ENBR 230050Z AUTO 33007KT 9999 NCD 10/09 Q1016 RMK WIND 1200FT 33011KT",
      "taf": "TAF ENBR 222300Z 2300/2324 33010KT CAVOK"
    },
    {
      "icao": "ENGM",
      "alert": "OK",
      "vis_m": 9999,
      "fzfg": false,
      "metar_trigger": false,
      "taf_trigger": false,
      "metar": "METAR ENGM 230050Z 27003KT 240V320 CAVOK 11/03 Q1016",
      "taf": "TAF ENGM 222300Z 2300/2324 01008KT CAVOK"
    },
    {
      "icao": "ENHD",
      "alert": "OK",
      "vis_m": 9999,
      "fzfg": false,
      "metar_trigger": false,
      "taf_trigger": false,
      "metar": "METAR ENHD 230050Z AUTO 34015KT 9999 OVC008/// 12/10 Q1017",
      "taf": "TAF ENHD 221400Z 2215/2222 33020KT 9999 SCT014"
    },
    {
      "icao": "ENTC",
      "alert": "OK",
      "vis_m": 9999,
      "fzfg": false,
      "metar_trigger": false,
      "taf_trigger": false,
      "metar": "METAR ENTC 230050Z AUTO 30008KT 9999 +DZRA FEW006/// SCT016/// BKN027/// 08/06 Q1014 REDZ RMK WIND 2600FT 25006KT",
      "taf": "TAF ENTC 222300Z 2300/2324 24006KT 9999 SCT020 BKN035"
    },
    {
      "icao": "ENTO",
      "alert": "OK",
      "vis_m": 9999,
      "fzfg": false,
      "metar_trigger": false,
      "taf_trigger": false,
      "metar": "METAR ENTO 230050Z AUTO 02006KT 350V050 9999 NCD 13/06 Q1015",
      "taf": "TAF ENTO 222300Z 2300/2324 36007KT CAVOK"
    },
    {
      "icao": "ENVA",
      "alert": "OK",
      "vis_m": 9999,
      "fzfg": false,
      "metar_trigger": false,
      "taf_trigger": false,
      "metar": "METAR ENVA 230050Z AUTO 33004KT 9999 FEW027/// SCT033/// BKN040/// 10/07 Q1018 RMK WIND 670FT 29006KT",
      "taf": "TAF ENVA 222300Z 2300/2324 VRB03KT 9999 BKN035"
    },
    {
      "icao": "ENZV",
      "alert": "OK",
      "vis_m": 9999,
      "fzfg": false,
      "metar_trigger": false,
      "taf_trigger": false,
      "metar": "METAR ENZV 230050Z 34010KT 9999 OVC008 12/10 Q1017",
      "taf": ""
    },
    {
      "icao": "EPGD",
      "alert": "OK",
      "vis_m": 9999,
      "fzfg": false,
      "metar_trigger": false,
      "taf_trigger": false,
      "metar": "METAR EPGD 230030Z 23005KT 9999 FEW046 14/13 Q1008",
      "taf": ""
    },
    {
      "icao": "EPKK",
      "alert": "OK",
      "vis_m": 9999,
      "fzfg": false,
      "metar_trigger": false,
      "taf_trigger": false,
      "metar": "METAR EPKK 230030Z 23003KT 9999 BKN065 15/10 Q1014",
      "taf": "TAF EPKK 222330Z 2300/2324 26003KT 9999 BKN055"
    },
    {
      "icao": "EPKT",
      "alert": "OK",
      "vis_m": 9999,
      "fzfg": false,
      "metar_trigger": false,
      "taf_trigger": false,
      "metar": "METAR EPKT 230030Z 26007KT CAVOK 12/10 Q1014",
      "taf": "TAF EPKT 222330Z 2300/2324 32005KT 9999 BKN045"
    },
    {
      "icao": "EPLB",
      "alert": "OK",
      "vis_m": 9999,
      "fzfg": false,
      "metar_trigger": false,
      "taf_trigger": false,
      "metar": "METAR EPLB 230030Z 24002KT CAVOK 16/11 Q1012",
      "taf": "TAF EPLB 222330Z 2300/2324 26007KT CAVOK"
    },
    {
      "icao": "EPMO",
      "alert": "OK",
      "vis_m": 9999,
      "fzfg": false,
      "metar_trigger": false,
      "taf_trigger": false,
      "metar": "METAR EPMO 230030Z 21007KT 9999 SCT037 15/12 Q1011",
      "taf": "TAF EPMO 222330Z 2300/2324 24007KT CAVOK"
    },
    {
      "icao": "EPPO",
      "alert": "OK",
      "vis_m": 9999,
      "fzfg": false,
      "metar_trigger": false,
      "taf_trigger": false,
      "metar": "METAR EPPO 230030Z 24006KT 9999 FEW030 BKN048 14/12 Q1011",
      "taf": "TAF EPPO 222330Z 2300/2324 24006KT CAVOK"
    },
    {
      "icao": "EPRA",
      "alert": "OK",
      "vis_m": 9999,
      "fzfg": false,
      "metar_trigger": false,
      "taf_trigger": false,
      "metar": "METAR EPRA 230030Z 26006KT CAVOK 15/11 Q1012",
      "taf": "TAF EPRA 222330Z 2300/2309 26008KT CAVOK"
    },
    {
      "icao": "EPRZ",
      "alert": "OK",
      "vis_m": 9999,
      "fzfg": false,
      "metar_trigger": false,
      "taf_trigger": false,
      "metar": "METAR EPRZ 230030Z 16002KT CAVOK 14/07 Q1013",
      "taf": "TAF EPRZ 222330Z 2300/2324 24005KT CAVOK"
    },
    {
      "icao": "EPSC",
      "alert": "OK",
      "vis_m": 9999,
      "fzfg": false,
      "metar_trigger": false,
      "taf_trigger": false,
      "metar": "METAR EPSC 230030Z 26010KT 9999 SCT005 BKN006 15/15 Q1009",
      "taf": "TAF EPSC 222330Z 2300/2324 25005KT 9999 BKN010"
    },
    {
      "icao": "EPSY",
      "alert": "OK",
      "vis_m": 9999,
      "fzfg": false,
      "metar_trigger": false,
      "taf_trigger": false,
      "metar": "METAR EPSY 230030Z 19004KT CAVOK 14/11 Q1010",
      "taf": "TAF EPSY 222330Z 2300/2309 23005KT 9999 SCT040"
    },
    {
      "icao": "EPWA",
      "alert": "OK",
      "vis_m": 9999,
      "fzfg": false,
      "metar_trigger": false,
      "taf_trigger": false,
      "metar": "METAR EPWA 230030Z 24005KT 9999 FEW045 16/11 Q1011 NOSIG",
      "taf": "TAF EPWA 222330Z 2300/2324 25008KT CAVOK"
    },
    {
      "icao": "EPWR",
      "alert": "OK",
      "vis_m": 9999,
      "fzfg": false,
      "metar_trigger": false,
      "taf_trigger": false,
      "metar": "METAR EPWR 230030Z 28010KT 9999 FEW038 16/10 Q1013",
      "taf": "TAF EPWR 222330Z 2300/2324 24008KT CAVOK"
    },
    {
      "icao": "ESGG",
      "alert": "OK",
      "vis_m": 9999,
      "fzfg": false,
      "metar_trigger": false,
      "taf_trigger": false,
      "metar": "METAR ESGG 230050Z 05005KT CAVOK 12/11 Q1013",
      "taf": "TAF ESGG 222330Z 2300/2324 02002KT CAVOK"
    },
    {
      "icao": "ESKN",
      "alert": "OK",
      "vis_m": 9999,
      "fzfg": false,
      "metar_trigger": false,
      "taf_trigger": false,
      "metar": "METAR ESKN 230050Z 29004KT CAVOK 10/10 Q1010",
      "taf": "TAF ESKN 222330Z 2300/2324 34005KT 9999 FEW010"
    },
    {
      "icao": "ESMS",
      "alert": "OK",
      "vis_m": 9999,
      "fzfg": false,
      "metar_trigger": false,
      "taf_trigger": false,
      "metar": "METAR ESMS 230050Z 33008KT CAVOK 12/12 Q1011",
      "taf": "TAF ESMS 222327Z 2300/2324 33008KT CAVOK"
    },
    {
      "icao": "ESSA",
      "alert": "OK",
      "vis_m": 9999,
      "fzfg": false,
      "metar_trigger": false,
      "taf_trigger": false,
      "metar": "METAR ESSA 230050Z 28003KT CAVOK 09/09 Q1010 NOSIG",
      "taf": "TAF ESSA 222330Z 2300/2324 32004KT CAVOK"
    },
    {
      "icao": "EYKA",
      "alert": "OK",
      "vis_m": 9999,
      "fzfg": false,
      "metar_trigger": false,
      "taf_trigger": false,
      "metar": "METAR EYKA 230050Z VRB01KT CAVOK 13/12 Q1010",
      "taf": "TAF EYKA 222304Z 2300/2324 VRB03KT 5000 BR SCT005"
    },
    {
      "icao": "EYPA",
      "alert": "OK",
      "vis_m": 9999,
      "fzfg": false,
      "metar_trigger": false,
      "taf_trigger": false,
      "metar": "METAR EYPA 230050Z 14005KT 9999 BKN068CB 14/13 Q1008",
      "taf": "TAF EYPA 222305Z 2300/2324 VRB03KT 8000 SCT010 BKN020"
    },
    {
      "icao": "EYVI",
      "alert": "OK",
      "vis_m": 9999,
      "fzfg": false,
      "metar_trigger": false,
      "taf_trigger": false,
      "metar": "METAR EYVI 230050Z 18003KT 9999 FEW017 12/12 Q1010 NOSIG",
      "taf": "TAF EYVI 222304Z 2300/2324 VRB03KT 5000 BR SCT002"
    },
    {
      "icao": "GCFV",
      "alert": "OK",
      "vis_m": 9999,
      "fzfg": false,
      "metar_trigger": false,
      "taf_trigger": false,
      "metar": "METAR GCFV 230030Z AUTO 36012KT CAVOK 23/19 Q1018",
      "taf": "TAF GCFV 222000Z 2221/2321 35012KT 9999 SCT020 TX28/2314Z TN22/2306Z"
    },
    {
      "icao": "GCLP",
      "alert": "OK",
      "vis_m": 9999,
      "fzfg": false,
      "metar_trigger": false,
      "taf_trigger": false,
      "metar": "METAR GCLP 230030Z 36023KT 9999 FEW020 24/18 Q1018 NOSIG",
      "taf": "TAF GCLP 222000Z 2221/2321 02025KT 9999 FEW025 TX29/2314Z TN23/2306Z"
    },
    {
      "icao": "GCTS",
      "alert": "OK",
      "vis_m": 9999,
      "fzfg": false,
      "metar_trigger": false,
      "taf_trigger": false,
      "metar": "METAR GCTS 230030Z 06010KT 020V080 9999 FEW025 24/19 Q1019 NOSIG",
      "taf": ""
    },
    {
      "icao": "GMAD",
      "alert": "OK",
      "vis_m": 8000,
      "fzfg": false,
      "metar_trigger": false,
      "taf_trigger": false,
      "metar": "METAR GMAD 230030Z 17003KT 140V200 8000 NSC 22/18 Q1015 NOSIG",
      "taf": "TAF GMAD 222300Z 2300/2406 06008KT 8000 NSC"
    },
    {
      "icao": "GMMN",
      "alert": "OK",
      "vis_m": 6000,
      "fzfg": false,
      "metar_trigger": false,
      "taf_trigger": false,
      "metar": "METAR GMMN 230030Z 36007KT 6000 SCT010 22/20 Q1018 NOSIG",
      "taf": "TAF GMMN 222300Z 2300/2406 04006KT 9999 FEW010"
    },
    {
      "icao": "GMMX",
      "alert": "OK",
      "vis_m": 8000,
      "fzfg": false,
      "metar_trigger": false,
      "taf_trigger": false,
      "metar": "METAR GMMX 230030Z 23005KT 8000 NSC 28/18 Q1018 NOSIG",
      "taf": "TAF GMMX 222300Z 2300/2406 28006KT 8000 NSC"
    },
    {
      "icao": "HEGN",
      "alert": "OK",
      "vis_m": 9999,
      "fzfg": false,
      "metar_trigger": false,
      "taf_trigger": false,
      "metar": "METAR HEGN 230000Z 29010KT CAVOK 33/14 Q1004 NOSIG",
      "taf": "TAF HEGN 222300Z 2300/2406 29006G18KT CAVOK"
    },
    {
      "icao": "HEMA",
      "alert": "OK",
      "vis_m": 9999,
      "fzfg": false,
      "metar_trigger": false,
      "taf_trigger": false,
      "metar": "METAR HEMA 230000Z 26008KT CAVOK 31/01 Q1003 NOSIG",
      "taf": "TAF HEMA 222300Z 2300/2406 28006G18KT CAVOK"
    },
    {
      "icao": "HESH",
      "alert": "OK",
      "vis_m": 9999,
      "fzfg": false,
      "metar_trigger": false,
      "taf_trigger": false,
      "metar": "METAR HESH 230000Z 35010KT CAVOK 34/15 Q1003 NOSIG",
      "taf": "TAF HESH 222300Z 2300/2406 32011KT CAVOK"
    },
    {
      "icao": "HESX",
      "alert": "OK",
      "vis_m": 9999,
      "fzfg": false,
      "metar_trigger": false,
      "taf_trigger": false,
      "metar": "METAR HESX 230000Z 29006KT CAVOK 24/22 Q1008 NOSIG",
      "taf": "TAF HESX 222300Z 2300/2406 32012KT CAVOK"
    },
    {
      "icao": "LATI",
      "alert": "OK",
      "vis_m": 9999,
      "fzfg": false,
      "metar_trigger": false,
      "taf_trigger": false,
      "metar": "METAR LATI 230050Z VRB02KT CAVOK 20/16 Q1013 NOSIG",
      "taf": "TAF LATI 222300Z 2300/2324 VRB03KT CAVOK TX33/2312Z TN19/2304Z"
    },
    {
      "icao": "LBPD",
      "alert": "OK",
      "vis_m": 9999,
      "fzfg": false,
      "metar_trigger": false,
      "taf_trigger": false,
      "metar": "METAR LBPD 230100Z AUTO 27011KT 9999 NCD 20/09 Q1013",
      "taf": "TAF LBPD 222300Z 2300/2324 29014KT 9999 SCT050"
    },
    {
      "icao": "LBSF",
      "alert": "OK",
      "vis_m": 9999,
      "fzfg": false,
      "metar_trigger": false,
      "taf_trigger": false,
      "metar": "METAR LBSF 230100Z AUTO 35006KT 310V040 9999 NCD 13/09 Q1016 NOSIG",
      "taf": "TAF LBSF 222300Z 2300/2324 29010KT 9999 SCT050"
    },
    {
      "icao": "LBWN",
      "alert": "OK",
      "vis_m": 9999,
      "fzfg": false,
      "metar_trigger": false,
      "taf_trigger": false,
      "metar": "METAR LBWN 230100Z AUTO 30016KT 9999 BKN013/// 17/15 Q1011 NOSIG",
      "taf": "TAF LBWN 222300Z 2300/2324 33016KT 9999 SCT010 BKN015"
    },
    {
      "icao": "LCLK",
      "alert": "OK",
      "vis_m": 9999,
      "fzfg": false,
      "metar_trigger": false,
      "taf_trigger": false,
      "metar": "METAR LCLK 230030Z 21004KT CAVOK 25/23 Q1003 NOSIG",
      "taf": "TAF LCLK 222330Z 2300/2400 28006KT 9000 FEW025"
    },
    {
      "icao": "LCPH",
      "alert": "OK",
      "vis_m": 9999,
      "fzfg": false,
      "metar_trigger": false,
      "taf_trigger": false,
      "metar": "METAR LCPH 230030Z AUTO 02004KT 9999 NCD 26/13 Q1004 NOSIG",
      "taf": "TAF LCPH 222330Z 2300/2400 01007KT 9999 FEW020"
    },
    {
      "icao": "LEAL",
      "alert": "OK",
      "vis_m": 9999,
      "fzfg": false,
      "metar_trigger": false,
      "taf_trigger": false,
      "metar": "METAR LEAL 230030Z 21001KT 9999 BKN016 29/29 Q1016 NOSIG",
      "taf": "TAF LEAL 222300Z 2300/2324 VRB04KT 9999 SCT020 TX36/2313Z TN25/2305Z"
    },
    {
      "icao": "LEBB",
      "alert": "OK",
      "vis_m": 9999,
      "fzfg": false,
      "metar_trigger": false,
      "taf_trigger": false,
      "metar": "METAR LEBB 230030Z AUTO 08002KT CAVOK 19/17 Q1018",
      "taf": "TAF LEBB 222300Z 2300/2324 VRB03KT CAVOK TX31/2313Z TN18/2305Z"
    },
    {
      "icao": "LEBL",
      "alert": "OK",
      "vis_m": 9999,
      "fzfg": false,
      "metar_trigger": false,
      "taf_trigger": false,
      "metar": "METAR LEBL 230030Z 33005KT CAVOK 25/19 Q1016 NOSIG",
      "taf": "TAF LEBL 222300Z 2300/2324 33007KT 9999 FEW020 TX31/2313Z TN24/2306Z"
    },
    {
      "icao": "LECH",
      "alert": "OK",
      "vis_m": 9000,
      "fzfg": false,
      "metar_trigger": false,
      "taf_trigger": false,
      "metar": "METAR LECH 230030Z AUTO 00000KT 9000 NCD 24/20 Q1017",
      "taf": "TAF LECH 222300Z 2300/2324 VRB03KT 9999 FEW015 TX36/2314Z TN22/2305Z"
    },
    {
      "icao": "LEMD",
      "alert": "OK",
      "vis_m": 9999,
      "fzfg": false,
      "metar_trigger": false,
      "taf_trigger": false,
      "metar": "METAR LEMD 230030Z 11003KT 080V150 CAVOK 25/06 Q1018 NOSIG",
      "taf": "TAF LEMD 222300Z 2300/2406 VRB04KT CAVOK TX38/2316Z TN22/2305Z"
    },
    {
      "icao": "LEMG",
      "alert": "OK",
      "vis_m": 9999,
      "fzfg": false,
      "metar_trigger": false,
      "taf_trigger": false,
      "metar": "METAR LEMG 230030Z 30003KT CAVOK 25/17 Q1017 NOSIG",
      "taf": "TAF LEMG 222300Z 2300/2324 29005KT CAVOK TX38/2314Z TN22/2305Z"
    },
    {
      "icao": "LEVC",
      "alert": "OK",
      "vis_m": 9999,
      "fzfg": false,
      "metar_trigger": false,
      "taf_trigger": false,
      "metar": "METAR LEVC 230030Z VRB02KT CAVOK 26/23 Q1015 NOSIG",
      "taf": "TAF LEVC 222300Z 2300/2324 VRB03KT 9999 FEW020 TX37/2313Z TN24/2305Z"
    },
    {
      "icao": "LEXJ",
      "alert": "OK",
      "vis_m": 7000,
      "fzfg": false,
      "metar_trigger": false,
      "taf_trigger": false,
      "metar": "METAR LEXJ 230030Z AUTO 25003KT 230V340 7000 NCD 19/17 Q1018",
      "taf": "TAF LEXJ 222000Z 2221/2321 VRB03KT CAVOK TX29/2312Z TN17/2305Z"
    },
    {
      "icao": "LEZG",
      "alert": "OK",
      "vis_m": 9999,
      "fzfg": false,
      "metar_trigger": false,
      "taf_trigger": false,
      "metar": "METAR LEZG 230030Z 04004KT CAVOK 27/17 Q1015 NOSIG",
      "taf": "TAF LEZG 222300Z 2300/2324 10009KT CAVOK TX42/2315Z TN24/2305Z"
    },
    {
      "icao": "LEZL",
      "alert": "OK",
      "vis_m": 9000,
      "fzfg": false,
      "metar_trigger": false,
      "taf_trigger": false,
      "metar": "METAR LEZL 230030Z AUTO 18006KT 130V210 9000 NCD 25/15 Q1016",
      "taf": "TAF LEZL 222000Z 2221/2321 VRB02KT CAVOK TX40/2315Z TN23/2305Z"
    },
    {
      "icao": "LFBD",
      "alert": "OK",
      "vis_m": 9999,
      "fzfg": false,
      "metar_trigger": false,
      "taf_trigger": false,
      "metar": "METAR LFBD 230030Z AUTO 04008KT CAVOK 24/08 Q1017 NOSIG",
      "taf": "TAF LFBD 222300Z 2300/2406 03010KT CAVOK TX36/2315Z TN20/2306Z"
    },
    {
      "icao": "LFLL",
      "alert": "OK",
      "vis_m": 9999,
      "fzfg": false,
      "metar_trigger": false,
      "taf_trigger": false,
      "metar": "METAR LFLL 230030Z 36004KT CAVOK 19/09 Q1019 NOSIG",
      "taf": "TAF LFLL 222300Z 2300/2406 36005KT CAVOK"
    },
    {
      "icao": "LFLS",
      "alert": "OK",
      "vis_m": 9999,
      "fzfg": false,
      "metar_trigger": false,
      "taf_trigger": false,
      "metar": "METAR LFLS 230030Z AUTO 14004KT 060V180 CAVOK 14/08 Q1019",
      "taf": "TAF LFLS 221400Z 2215/2315 35008KT CAVOK"
    },
    {
      "icao": "LFMN",
      "alert": "OK",
      "vis_m": 9999,
      "fzfg": false,
      "metar_trigger": false,
      "taf_trigger": false,
      "metar": "METAR LFMN 230030Z 33006KT CAVOK 25/13 Q1014 NOSIG",
      "taf": "TAF LFMN 222000Z 2221/2403 25007KT CAVOK"
    },
    {
      "icao": "LFOB",
      "alert": "OK",
      "vis_m": 9999,
      "fzfg": false,
      "metar_trigger": false,
      "taf_trigger": false,
      "metar": "METAR LFOB 230030Z AUTO 02006KT CAVOK 13/10 Q1023 NOSIG",
      "taf": "TAF LFOB 222300Z 2300/2324 03008KT CAVOK"
    },
    {
      "icao": "LFPO",
      "alert": "OK",
      "vis_m": 9999,
      "fzfg": false,
      "metar_trigger": false,
      "taf_trigger": false,
      "metar": "METAR LFPO 230030Z AUTO 03007KT CAVOK 18/11 Q1023 NOSIG",
      "taf": "TAF LFPO 222300Z 2300/2406 04008KT CAVOK"
    },
    {
      "icao": "LFSB",
      "alert": "OK",
      "vis_m": 9999,
      "fzfg": false,
      "metar_trigger": false,
      "taf_trigger": false,
      "metar": "METAR LFSB 230030Z AUTO 32007KT CAVOK 19/10 Q1020 NOSIG",
      "taf": "TAF LFSB 222300Z 2300/2324 35008KT CAVOK"
    },
    {
      "icao": "LGAV",
      "alert": "OK",
      "vis_m": 9999,
      "fzfg": false,
      "metar_trigger": false,
      "taf_trigger": false,
      "metar": "METAR LGAV 230050Z 03012KT CAVOK 27/21 Q1009 NOSIG",
      "taf": "TAF LGAV 222300Z 2300/2324 03012KT 9999 FEW025"
    },
    {
      "icao": "LGTS",
      "alert": "OK",
      "vis_m": 9999,
      "fzfg": false,
      "metar_trigger": false,
      "taf_trigger": false,
      "metar": "METAR LGTS 230050Z 36014KT CAVOK 24/11 Q1012 NOSIG",
      "taf": "TAF LGTS 222300Z 2300/2324 34015KT 9999 FEW030"
    },
    {
      "icao": "LHBP",
      "alert": "OK",
      "vis_m": 9999,
      "fzfg": false,
      "metar_trigger": false,
      "taf_trigger": false,
      "metar": "METAR LHBP 230100Z 16001KT CAVOK 11/05 Q1015 NOSIG",
      "taf": "TAF LHBP 222315Z 2300/2324 VRB03KT CAVOK"
    },
    {
      "icao": "LHDC",
      "alert": "OK",
      "vis_m": 9999,
      "fzfg": false,
      "metar_trigger": false,
      "taf_trigger": false,
      "metar": "METAR LHDC 230015Z AUTO 06003KT CAVOK 16/05 Q1015 NOSIG",
      "taf": "TAF LHDC 222315Z 2300/2309 VRB03KT CAVOK"
    },
    {
      "icao": "LIBD",
      "alert": "OK",
      "vis_m": 9999,
      "fzfg": false,
      "metar_trigger": false,
      "taf_trigger": false,
      "metar": "METAR LIBD 230050Z 26006KT CAVOK 23/15 Q1015",
      "taf": "TAF LIBD 222300Z 2300/2324 28008KT 9999 FEW030"
    },
    {
      "icao": "LIBG",
      "alert": "OK",
      "vis_m": 9999,
      "fzfg": false,
      "metar_trigger": false,
      "taf_trigger": false,
      "metar": "METAR LIBG 230050Z AUTO 28004KT 250V310 9999 BKN071/// 25/17 Q1014",
      "taf": "TAF LIBG 222300Z 2300/2324 VRB05KT 9999 FEW040"
    },
    {
      "icao": "LIBP",
      "alert": "OK",
      "vis_m": 9999,
      "fzfg": false,
      "metar_trigger": false,
      "taf_trigger": false,
      "metar": "METAR LIBP 230050Z AUTO 22005KT 9999 NCD 18/17 Q1016",
      "taf": "TAF LIBP 222300Z 2300/2324 24005KT 9999 FEW050"
    },
    {
      "icao": "LIBR",
      "alert": "OK",
      "vis_m": 9999,
      "fzfg": false,
      "metar_trigger": false,
      "taf_trigger": false,
      "metar": "METAR LIBR 230050Z 35014KT CAVOK 26/19 Q1013",
      "taf": "TAF LIBR 222300Z 2300/2324 35013KT 9999 FEW040"
    },
    {
      "icao": "LICA",
      "alert": "OK",
      "vis_m": 9999,
      "fzfg": false,
      "metar_trigger": false,
      "taf_trigger": false,
      "metar": "METAR LICA 230050Z AUTO 05005KT 9999 SCT025/// 26/22 Q1014",
      "taf": "TAF LICA 222300Z 2300/2324 08010KT 9999 SCT020"
    },
    {
      "icao": "LICC",
      "alert": "OK",
      "vis_m": 9999,
      "fzfg": false,
      "metar_trigger": false,
      "taf_trigger": false,
      "metar": "METAR LICC 230050Z 10003KT 9999 FEW020 28/22 Q1014",
      "taf": "TAF LICC 222300Z 2300/2324 VRB05KT 9999 FEW020"
    },
    {
      "icao": "LICJ",
      "alert": "OK",
      "vis_m": 9999,
      "fzfg": false,
      "metar_trigger": false,
      "taf_trigger": false,
      "metar": "METAR LICJ 230050Z 23004KT CAVOK 27/26 Q1014",
      "taf": "TAF LICJ 222300Z 2300/2324 VRB05KT CAVOK"
    },
    {
      "icao": "LIMC",
      "alert": "OK",
      "vis_m": 9999,
      "fzfg": false,
      "metar_trigger": false,
      "taf_trigger": false,
      "metar": "METAR LIMC 230050Z 01004KT CAVOK 19/15 Q1016 NOSIG",
      "taf": "TAF LIMC 222300Z 2300/2406 VRB05KT CAVOK"
    },
    {
      "icao": "LIME",
      "alert": "OK",
      "vis_m": 9999,
      "fzfg": false,
      "metar_trigger": false,
      "taf_trigger": false,
      "metar": "METAR LIME 230050Z 01003KT CAVOK 21/15 Q1016 NOSIG",
      "taf": "TAF LIME 222300Z 2300/2324 VRB05KT 9999 FEW060"
    },
    {
      "icao": "LIMF",
      "alert": "OK",
      "vis_m": 9999,
      "fzfg": false,
      "metar_trigger": false,
      "taf_trigger": false,
      "metar": "METAR LIMF 230050Z 34005KT CAVOK 22/15 Q1016",
      "taf": "TAF LIMF 222300Z 2300/2324 VRB05KT CAVOK"
    },
    {
      "icao": "LIMJ",
      "alert": "OK",
      "vis_m": 9999,
      "fzfg": false,
      "metar_trigger": false,
      "taf_trigger": false,
      "metar": "METAR LIMJ 230050Z 07004KT CAVOK 26/13 Q1013",
      "taf": "TAF LIMJ 222300Z 2300/2324 04007KT CAVOK"
    },
    {
      "icao": "LIPE",
      "alert": "OK",
      "vis_m": 9999,
      "fzfg": false,
      "metar_trigger": false,
      "taf_trigger": false,
      "metar": "METAR LIPE 230050Z 17003KT CAVOK 19/13 Q1015",
      "taf": "TAF LIPE 222300Z 2300/2324 VRB05KT 9999 FEW040"
    },
    {
      "icao": "LIPH",
      "alert": "OK",
      "vis_m": 9999,
      "fzfg": false,
      "metar_trigger": false,
      "taf_trigger": false,
      "metar": "METAR LIPH 230050Z AUTO 10002KT 9999 NCD 19/15 Q1015",
      "taf": "TAF LIPH 222300Z 2300/2324 VRB05KT 9999 FEW040"
    },
    {
      "icao": "LIPQ",
      "alert": "OK",
      "vis_m": 9999,
      "fzfg": false,
      "metar_trigger": false,
      "taf_trigger": false,
      "metar": "METAR LIPQ 230050Z AUTO 09004KT 9999 NCD 19/10 Q1016",
      "taf": "TAF LIPQ 222300Z 2300/2324 03005KT 9999 FEW040"
    },
    {
      "icao": "LIPR",
      "alert": "OK",
      "vis_m": 9999,
      "fzfg": false,
      "metar_trigger": false,
      "taf_trigger": false,
      "metar": "METAR LIPR 230050Z AUTO 15002KT 9999 NCD 17/15 Q1015",
      "taf": "TAF LIPR 222300Z 2300/2324 21005KT 9999 SCT040"
    },
    {
      "icao": "LIPX",
      "alert": "OK",
      "vis_m": 9999,
      "fzfg": false,
      "metar_trigger": false,
      "taf_trigger": false,
      "metar": "METAR LIPX 230050Z AUTO 36003KT 9999 NCD 19/14 Q1015",
      "taf": "TAF LIPX 222300Z 2300/2324 VRB05KT CAVOK"
    },
    {
      "icao": "LIPY",
      "alert": "OK",
      "vis_m": 9999,
      "fzfg": false,
      "metar_trigger": false,
      "taf_trigger": false,
      "metar": "METAR LIPY 230050Z AUTO 19003KT 9999 NCD 18/15 Q1016",
      "taf": "TAF LIPY 222300Z 2300/2324 19005KT 9999 FEW040"
    },
    {
      "icao": "LIPZ",
      "alert": "OK",
      "vis_m": 9999,
      "fzfg": false,
      "metar_trigger": false,
      "taf_trigger": false,
      "metar": "METAR LIPZ 230050Z 32003KT CAVOK 20/14 Q1015 NOSIG",
      "taf": "TAF LIPZ 222300Z 2300/2406 VRB05KT 9999 FEW040"
    },
    {
      "icao": "LIRF",
      "alert": "OK",
      "vis_m": 9999,
      "fzfg": false,
      "metar_trigger": false,
      "taf_trigger": false,
      "metar": "METAR LIRF 230050Z 35003KT CAVOK 24/16 Q1013 NOSIG",
      "taf": "TAF LIRF 222300Z 2300/2406 05006KT 9999 FEW030"
    },
    {
      "icao": "LIRN",
      "alert": "OK",
      "vis_m": 9999,
      "fzfg": false,
      "metar_trigger": false,
      "taf_trigger": false,
      "metar": "METAR LIRN 230050Z 03006KT CAVOK 25/14 Q1014 NOSIG",
      "taf": "TAF LIRN 222300Z 2300/2324 04006KT 9999 FEW030"
    },
    {
      "icao": "LIRP",
      "alert": "OK",
      "vis_m": 9999,
      "fzfg": false,
      "metar_trigger": false,
      "taf_trigger": false,
      "metar": "METAR LIRP 230045Z 07003KT CAVOK 22/15 Q1014 NOSIG",
      "taf": "TAF LIRP 222300Z 2300/2324 12005KT CAVOK"
    },
    {
      "icao": "LIRZ",
      "alert": "OK",
      "vis_m": 9999,
      "fzfg": false,
      "metar_trigger": false,
      "taf_trigger": false,
      "metar": "METAR LIRZ 230050Z AUTO 34007KT 9999 NCD 20/11 Q1015",
      "taf": "TAF LIRZ 222300Z 2300/2324 VRB05KT 9999 SCT040"
    },
    {
      "icao": "LJLJ",
      "alert": "OK",
      "vis_m": 9999,
      "fzfg": false,
      "metar_trigger": false,
      "taf_trigger": false,
      "metar": "METAR LJLJ 230030Z VRB02KT 9999 FEW090 SCT240 12/10 Q1018 NOSIG",
      "taf": "TAF LJLJ 222300Z 2300/2400 12006KT 9999 FEW090"
    },
    {
      "icao": "LKMT",
      "alert": "OK",
      "vis_m": 9999,
      "fzfg": false,
      "metar_trigger": false,
      "taf_trigger": false,
      "metar": "METAR LKMT 230030Z 20004KT 150V220 CAVOK 15/12 Q1015 NOSIG",
      "taf": "TAF LKMT 222300Z 2300/2324 23005KT CAVOK"
    },
    {
      "icao": "LKPR",
      "alert": "OK",
      "vis_m": 9999,
      "fzfg": false,
      "metar_trigger": false,
      "taf_trigger": false,
      "metar": "METAR LKPR 230030Z 26006KT CAVOK 14/09 Q1016 NOSIG",
      "taf": "TAF LKPR 222300Z 2300/2406 29008KT CAVOK"
    },
    {
      "icao": "LLBG",
      "alert": "OK",
      "vis_m": 9999,
      "fzfg": false,
      "metar_trigger": false,
      "taf_trigger": false,
      "metar": "METAR LLBG 230050Z 16007KT 9999 SCT011 SCT013 26/23 Q1005 TEMPO BKN012",
      "taf": "TAF LLBG 222310Z 2300/2324 17006KT 9999 SCT017 TX34/2311Z TN25/2303Z"
    },
    {
      "icao": "LMML",
      "alert": "OK",
      "vis_m": 8000,
      "fzfg": false,
      "metar_trigger": false,
      "taf_trigger": false,
      "metar": "METAR LMML 230045Z 07005KT 8000 FEW003 27/26 Q1014 NOSIG",
      "taf": "TAF LMML 222300Z 2300/2324 08006KT CAVOK"
    },
    {
      "icao": "LOWW",
      "alert": "OK",
      "vis_m": 9999,
      "fzfg": false,
      "metar_trigger": false,
      "taf_trigger": false,
      "metar": "METAR LOWW 230050Z 19005KT CAVOK 16/09 Q1015 NOSIG",
      "taf": "TAF LOWW 222315Z 2300/2406 24005KT 9999 FEW050 TX23/2313Z TN13/2403Z"
    },
    {
      "icao": "LPFR",
      "alert": "OK",
      "vis_m": 9999,
      "fzfg": false,
      "metar_trigger": false,
      "taf_trigger": false,
      "metar": "METAR LPFR 230030Z 35007KT CAVOK 24/14 Q1016",
      "taf": "TAF LPFR 222300Z 2300/2324 31010KT CAVOK"
    },
    {
      "icao": "LPMA",
      "alert": "OK",
      "vis_m": 9999,
      "fzfg": false,
      "metar_trigger": false,
      "taf_trigger": false,
      "metar": "METAR LPMA 230030Z 01010KT 320V030 9999 SCT016 22/17 Q1023",
      "taf": "TAF LPMA 222300Z 2300/2324 02012KT 9999 SCT015"
    },
    {
      "icao": "LPPR",
      "alert": "OK",
      "vis_m": 9999,
      "fzfg": false,
      "metar_trigger": false,
      "taf_trigger": false,
      "metar": "METAR LPPR 230030Z 15003KT 130V200 9999 FEW014 20/18 Q1018",
      "taf": "TAF LPPR 222300Z 2300/2324 VRB02KT 9999 SCT012"
    },
    {
      "icao": "LPPS",
      "alert": "OK",
      "vis_m": 9999,
      "fzfg": false,
      "metar_trigger": false,
      "taf_trigger": false,
      "metar": "METAR LPPS 230030Z 01009KT 9999 FEW015 22/16 Q1023",
      "taf": "TAF LPPS 222300Z 2300/2406 01012KT 9999 SCT015"
    },
    {
      "icao": "LPPT",
      "alert": "OK",
      "vis_m": 9999,
      "fzfg": false,
      "metar_trigger": false,
      "taf_trigger": false,
      "metar": "METAR LPPT 230030Z 29005KT 260V320 9999 FEW012 20/18 Q1019 NOSIG",
      "taf": "TAF LPPT 222300Z 2300/2406 30010KT 9999 FEW020"
    },
    {
      "icao": "LQBK",
      "alert": "OK",
      "vis_m": 9999,
      "fzfg": false,
      "metar_trigger": false,
      "taf_trigger": false,
      "metar": "METAR LQBK 230030Z VRB03KT CAVOK 12/10 Q1017 NOSIG",
      "taf": "TAF LQBK 222300Z 2300/2324 16005KT CAVOK TX27/2314Z TN11/2303Z"
    },
    {
      "icao": "LQSA",
      "alert": "OK",
      "vis_m": 9999,
      "fzfg": false,
      "metar_trigger": false,
      "taf_trigger": false,
      "metar": "METAR LQSA 230030Z VRB02KT CAVOK 11/10 Q1019",
      "taf": "TAF LQSA 222300Z 2300/2324 VRB02KT CAVOK TX25/2313Z TN10/2304Z"
    },
    {
      "icao": "LQTZ",
      "alert": "OK",
      "vis_m": 9999,
      "fzfg": false,
      "metar_trigger": false,
      "taf_trigger": false,
      "metar": "METAR LQTZ 230030Z 00000KT CAVOK 10/10 Q1018",
      "taf": "TAF LQTZ 222300Z 2300/2324 VRB02KT CAVOK TX26/2314Z TN08/2303Z"
    },
    {
      "icao": "LRBC",
      "alert": "OK",
      "vis_m": 9999,
      "fzfg": false,
      "metar_trigger": false,
      "taf_trigger": false,
      "metar": "METAR LRBC 230030Z 05004KT 010V070 CAVOK 16/14 Q1014",
      "taf": "TAF LRBC 222300Z 2300/2309 VRB04KT CAVOK"
    },
    {
      "icao": "LRBS",
      "alert": "OK",
      "vis_m": 9999,
      "fzfg": false,
      "metar_trigger": false,
      "taf_trigger": false,
      "metar": "METAR LRBS 230030Z 28002KT 9999 FEW005 BKN048 17/16 Q1014 NOSIG",
      "taf": "TAF LRBS 222300Z 2300/2324 VRB04KT CAVOK"
    },
    {
      "icao": "LRBV",
      "alert": "OK",
      "vis_m": 9999,
      "fzfg": false,
      "metar_trigger": false,
      "taf_trigger": false,
      "metar": "METAR LRBV 230030Z AUTO 29007KT 9999 OVC030/// 14/12 Q1016",
      "taf": "TAF LRBV 221700Z 2218/2303 28008KT 9999 BKN040"
    },
    {
      "icao": "LRCL",
      "alert": "OK",
      "vis_m": 9999,
      "fzfg": false,
      "metar_trigger": false,
      "taf_trigger": false,
      "metar": "METAR LRCL 230030Z VRB02KT CAVOK 11/07 Q1015",
      "taf": "TAF LRCL 222300Z 2300/2309 VRB04KT CAVOK"
    },
    {
      "icao": "LRCV",
      "alert": "OK",
      "vis_m": 9999,
      "fzfg": false,
      "metar_trigger": false,
      "taf_trigger": false,
      "metar": "METAR LRCV 230030Z 34004KT CAVOK 14/14 Q1014",
      "taf": "TAF LRCV 222300Z 2300/2309 VRB04KT CAVOK"
    },
    {
      "icao": "LRIA",
      "alert": "OK",
      "vis_m": 9999,
      "fzfg": false,
      "metar_trigger": false,
      "taf_trigger": false,
      "metar": "METAR LRIA 230030Z 25003KT CAVOK 16/14 Q1014",
      "taf": "TAF LRIA 222300Z 2300/2309 VRB04KT CAVOK"
    },
    {
      "icao": "LROP",
      "alert": "OK",
      "vis_m": 9999,
      "fzfg": false,
      "metar_trigger": false,
      "taf_trigger": false,
      "metar": "METAR LROP 230030Z 27004KT 9999 SCT022 17/17 Q1014 NOSIG",
      "taf": "TAF LROP 222300Z 2300/2324 VRB04KT CAVOK"
    },
    {
      "icao": "LRSB",
      "alert": "OK",
      "vis_m": 9999,
      "fzfg": false,
      "metar_trigger": false,
      "taf_trigger": false,
      "metar": "METAR LRSB 230030Z 12003KT 110V170 CAVOK 11/11 Q1016",
      "taf": "TAF LRSB 222300Z 2300/2324 VRB04KT 9999 SCT060"
    },
    {
      "icao": "LRSM",
      "alert": "OK",
      "vis_m": 9999,
      "fzfg": false,
      "metar_trigger": false,
      "taf_trigger": false,
      "metar": "METAR LRSM 230030Z AUTO 19004KT 9999 FEW085/// 11/06 Q1015",
      "taf": "TAF LRSM 221400Z 2215/2224 32010KT CAVOK"
    },
    {
      "icao": "LRSV",
      "alert": "OK",
      "vis_m": 9999,
      "fzfg": false,
      "metar_trigger": false,
      "taf_trigger": false,
      "metar": "METAR LRSV 230030Z 30007KT CAVOK 14/07 Q1015",
      "taf": "TAF LRSV 222300Z 2300/2309 29008KT CAVOK"
    },
    {
      "icao": "LRTM",
      "alert": "OK",
      "vis_m": 9999,
      "fzfg": false,
      "metar_trigger": false,
      "taf_trigger": false,
      "metar": "METAR LRTM 230030Z 04002KT CAVOK 12/11 Q1015",
      "taf": "TAF LRTM 222300Z 2300/2309 VRB04KT 5000 BR NSC"
    },
    {
      "icao": "LRTR",
      "alert": "OK",
      "vis_m": 9999,
      "fzfg": false,
      "metar_trigger": false,
      "taf_trigger": false,
      "metar": "METAR LRTR 230030Z 11006KT CAVOK 13/12 Q1015",
      "taf": "TAF LRTR 222300Z 2300/2324 VRB04KT CAVOK"
    },
    {
      "icao": "LTAC",
      "alert": "OK",
      "vis_m": 9999,
      "fzfg": false,
      "metar_trigger": false,
      "taf_trigger": false,
      "metar": "METAR LTAC 230050Z VRB02KT CAVOK 17/10 Q1012 NOSIG RMK RWY21C 00000KT RWY03L VRB01KT RWY21R VRB01KT RWY03R 00000KT RWY21L 00000KT",
      "taf": "TAF LTAC 222240Z 2300/2324 VRB02KT CAVOK"
    },
    {
      "icao": "LTFM",
      "alert": "OK",
      "vis_m": 9999,
      "fzfg": false,
      "metar_trigger": false,
      "taf_trigger": false,
      "metar": "METAR LTFM 230050Z 34015KT 9999 SCT025 BKN100 21/16 Q1011 RESHRA NOSIG RMK RWY17L 34013KT RWY34L 33012KT RWY16R 34010KT 300V360 RWY36 34017KT RWY18 35017KT",
      "taf": "TAF LTFM 222240Z 2300/2406 32016KT 9999 SCT025 BKN100"
    },
    {
      "icao": "LUKK",
      "alert": "OK",
      "vis_m": 9999,
      "fzfg": false,
      "metar_trigger": false,
      "taf_trigger": false,
      "metar": "METAR LUKK 230030Z 35006KT 9999 -RA NSC 16/15 Q1013 NOSIG",
      "taf": "TAF LUKK 222308Z 2300/2324 VRB05KT 9999 SCT045"
    },
    {
      "icao": "LWOH",
      "alert": "OK",
      "vis_m": null,
      "fzfg": false,
      "metar_trigger": false,
      "taf_trigger": false,
      "metar": "",
      "taf": "TAF LWOH 222356Z 2300/2324 30008KT CAVOK"
    },
    {
      "icao": "LWSK",
      "alert": "OK",
      "vis_m": 9999,
      "fzfg": false,
      "metar_trigger": false,
      "taf_trigger": false,
      "metar": "METAR LWSK 230050Z 15005KT 9999 FEW050 SCT080 15/11 Q1016 NOSIG",
      "taf": "TAF LWSK 222356Z 2300/2314 VRB02KT 9999 FEW040 SCT080"
    },
    {
      "icao": "LYBE",
      "alert": "OK",
      "vis_m": 9999,
      "fzfg": false,
      "metar_trigger": false,
      "taf_trigger": false,
      "metar": "METAR LYBE 230030Z 20005KT 180V240 CAVOK 15/10 Q1016 NOSIG",
      "taf": "TAF LYBE 222300Z 2300/2324 24005KT CAVOK TX28/2314Z TN13/2303Z"
    },
    {
      "icao": "LYNI",
      "alert": "OK",
      "vis_m": 9999,
      "fzfg": false,
      "metar_trigger": false,
      "taf_trigger": false,
      "metar": "METAR LYNI 230030Z 10003KT CAVOK 14/11 Q1016 NOSIG",
      "taf": "TAF LYNI 222300Z 2300/2324 09004KT CAVOK TX27/2314Z TN12/2303Z"
    },
    {
      "icao": "LYPG",
      "alert": "OK",
      "vis_m": 9999,
      "fzfg": false,
      "metar_trigger": false,
      "taf_trigger": false,
      "metar": "METAR LYPG 230030Z 35012KT CAVOK 23/08 Q1014 NOSIG",
      "taf": "TAF LYPG 222300Z 2300/2324 35012KT CAVOK TX32/2313Z TN22/2303Z"
    },
    {
      "icao": "LZIB",
      "alert": "OK",
      "vis_m": 9999,
      "fzfg": false,
      "metar_trigger": false,
      "taf_trigger": false,
      "metar": "METAR LZIB 230100Z 00000KT CAVOK 18/09 Q1014 NOSIG",
      "taf": "TAF LZIB 222315Z 2300/2400 VRB02KT CAVOK"
    },
    {
      "icao": "LZKZ",
      "alert": "OK",
      "vis_m": 9999,
      "fzfg": false,
      "metar_trigger": false,
      "taf_trigger": false,
      "metar": "METAR LZKZ 230100Z VRB01KT CAVOK 12/07 Q1015 NOSIG",
      "taf": "TAF LZKZ 222315Z 2300/2400 VRB02KT CAVOK"
    },
    {
      "icao": "LZTT",
      "alert": "OK",
      "vis_m": 9999,
      "fzfg": false,
      "metar_trigger": false,
      "taf_trigger": false,
      "metar": "METAR LZTT 230100Z 00000KT 9999 BKN080 09/07 Q1015",
      "taf": "TAF LZTT 222315Z 2300/2400 VRB02KT 9999 FEW040"
    },
    {
      "icao": "OEJN",
      "alert": "OK",
      "vis_m": 9999,
      "fzfg": false,
      "metar_trigger": false,
      "taf_trigger": false,
      "metar": "METAR OEJN 230100Z VRB03KT CAVOK 30/27 Q1003 NOSIG",
      "taf": "TAF OEJN 222300Z 2300/2406 VRB03KT CAVOK"
    },
    {
      "icao": "OEMA",
      "alert": "OK",
      "vis_m": 9999,
      "fzfg": false,
      "metar_trigger": false,
      "taf_trigger": false,
      "metar": "METAR OEMA 230100Z 28008KT CAVOK 35/07 Q1008 NOSIG",
      "taf": "TAF OEMA 222300Z 2300/2406 24006KT CAVOK"
    },
    {
      "icao": "OJAI",
      "alert": "OK",
      "vis_m": 5000,
      "fzfg": false,
      "metar_trigger": false,
      "taf_trigger": false,
      "metar": "METAR OJAI 230000Z 27006KT 5000 HZ NSC 22/09 Q1010 NOSIG",
      "taf": "TAF OJAI 222300Z 2300/2406 29010KT 5000 HZ NSC"
    },
    {
      "icao": "OMAA",
      "alert": "OK",
      "vis_m": 9999,
      "fzfg": false,
      "metar_trigger": false,
      "taf_trigger": false,
      "metar": "METAR OMAA 230100Z 20005KT CAVOK 30/21 Q0995 NOSIG",
      "taf": "TAF OMAA 222300Z 2300/2406 19005KT 8000 NSC"
    },
    {
      "icao": "OMDB",
      "alert": "OK",
      "vis_m": 9999,
      "fzfg": false,
      "metar_trigger": false,
      "taf_trigger": false,
      "metar": "METAR OMDB 230100Z 16005KT 110V200 CAVOK 32/23 Q0995 NOSIG",
      "taf": "TAF OMDB 222300Z 2300/2406 17006KT 8000 NSC"
    },
    {
      "icao": "UAAA",
      "alert": "OK",
      "vis_m": 9999,
      "fzfg": false,
      "metar_trigger": false,
      "taf_trigger": false,
      "metar": "METAR UAAA 230030Z VRB01MPS 9999 SCT050CB BKN100 21/17 Q1008 NOSIG",
      "taf": "TAF UAAA 222300Z 2300/2324 26005MPS 9999 SCT050CB BKN100 TX31/2309Z TN19/2300Z"
    },
    {
      "icao": "UBBB",
      "alert": "OK",
      "vis_m": 9999,
      "fzfg": false,
      "metar_trigger": false,
      "taf_trigger": false,
      "metar": "METAR UBBB 230100Z 00000KT CAVOK 23/18 Q1008 NOSIG",
      "taf": "TAF UBBB 222300Z 2300/2324 16005KT CAVOK TX33/2310Z TN22/2301Z"
    },
    {
      "icao": "UDSG",
      "alert": "OK",
      "vis_m": 9999,
      "fzfg": false,
      "metar_trigger": false,
      "taf_trigger": false,
      "metar": "METAR UDSG 230030Z VRB02KT 9999 FEW049 17/12 Q1015 NOSIG",
      "taf": "TAF UDSG 222258Z 2300/2324 06006KT 9999 FEW050"
    },
    {
      "icao": "UDYZ",
      "alert": "OK",
      "vis_m": 9999,
      "fzfg": false,
      "metar_trigger": false,
      "taf_trigger": false,
      "metar": "METAR UDYZ 230030Z 04008KT 9999 NSC 25/13 Q1009 NOSIG",
      "taf": "TAF UDYZ 222300Z 2300/2324 14006KT 9999 FEW040"
    },
    {
      "icao": "UGKO",
      "alert": "OK",
      "vis_m": 9999,
      "fzfg": false,
      "metar_trigger": false,
      "taf_trigger": false,
      "metar": "METAR UGKO 230030Z VRB02KT 9999 SCT022 BKN034 22/20 Q1007 NOSIG",
      "taf": "TAF UGKO 222300Z 2300/2324 26007KT 9999 SCT023 BKN050 TX30/2311Z TN20/2302Z"
    }
  ]
}