{
  "ts_utc": "2026-03-24T17:50:46Z",
  "threshold_m": 150,
  "source": "stations_override.txt (ICAO list) + aviationweather.gov (METAR/TAF raw)",
  "station_count": 159,
  "stations": [
    {
      "icao": "BIKF",
      "alert": "OK",
      "vis_m": 9999,
      "fzfg": false,
      "metar_trigger": false,
      "taf_trigger": false,
      "metar": "METAR BIKF 241730Z 08015KT 9999 SCT014 OVC049 M01/M07 Q0994",
      "taf": "TAF BIKF 241656Z 2418/2518 08012KT 9999 SCT020 BKN030 TXM01/2418Z TNM05/2508Z"
    },
    {
      "icao": "BKPR",
      "alert": "OK",
      "vis_m": 9999,
      "fzfg": false,
      "metar_trigger": false,
      "taf_trigger": false,
      "metar": "METAR BKPR 241730Z 34004KT 9999 BKN060 09/02 Q1016 NOSIG",
      "taf": "TAF BKPR 241730Z 2418/2518 34005KT 9999 BKN060"
    },
    {
      "icao": "EBCI",
      "alert": "OK",
      "vis_m": 9999,
      "fzfg": false,
      "metar_trigger": false,
      "taf_trigger": false,
      "metar": "METAR EBCI 241720Z 20011KT CAVOK 14/04 Q1013 NOSIG",
      "taf": "TAF EBCI 241715Z 2418/2524 22013KT CAVOK"
    },
    {
      "icao": "EDDB",
      "alert": "OK",
      "vis_m": 9999,
      "fzfg": false,
      "metar_trigger": false,
      "taf_trigger": false,
      "metar": "METAR EDDB 241720Z AUTO 21009KT CAVOK 14/03 Q1012 NOSIG",
      "taf": "TAF EDDB 241700Z 2418/2518 22012KT CAVOK"
    },
    {
      "icao": "EDDH",
      "alert": "OK",
      "vis_m": 9999,
      "fzfg": false,
      "metar_trigger": false,
      "taf_trigger": false,
      "metar": "METAR EDDH 241720Z AUTO 21009KT 9999 BKN038 13/06 Q1008 NOSIG",
      "taf": "TAF EDDH 241700Z 2418/2524 22011KT 9000 BKN035"
    },
    {
      "icao": "EDDK",
      "alert": "OK",
      "vis_m": 9999,
      "fzfg": false,
      "metar_trigger": false,
      "taf_trigger": false,
      "metar": "METAR EDDK 241720Z AUTO 22010KT 180V250 CAVOK 16/03 Q1013 NOSIG",
      "taf": "TAF EDDK 241700Z 2418/2524 19009KT CAVOK"
    },
    {
      "icao": "EDDN",
      "alert": "OK",
      "vis_m": 9999,
      "fzfg": false,
      "metar_trigger": false,
      "taf_trigger": false,
      "metar": "METAR EDDN 241720Z AUTO 20005KT CAVOK 13/01 Q1017 NOSIG",
      "taf": "TAF EDDN 241700Z 2418/2518 17004KT CAVOK"
    },
    {
      "icao": "EDDS",
      "alert": "OK",
      "vis_m": 9999,
      "fzfg": false,
      "metar_trigger": false,
      "taf_trigger": false,
      "metar": "METAR EDDS 241720Z AUTO VRB01KT CAVOK 14/M00 Q1017 NOSIG",
      "taf": "TAF EDDS 241700Z 2418/2518 20004KT CAVOK"
    },
    {
      "icao": "EDFH",
      "alert": "OK",
      "vis_m": 9999,
      "fzfg": false,
      "metar_trigger": false,
      "taf_trigger": false,
      "metar": "METAR EDFH 241720Z 23007KT 200V270 CAVOK 12/01 Q1015",
      "taf": "TAF EDFH 241700Z 2418/2518 22010KT CAVOK"
    },
    {
      "icao": "EDJA",
      "alert": "OK",
      "vis_m": 9999,
      "fzfg": false,
      "metar_trigger": false,
      "taf_trigger": false,
      "metar": "METAR EDJA 241720Z 21006KT CAVOK 10/M00 Q1018",
      "taf": "TAF EDJA 241700Z 2418/2503 20006KT CAVOK"
    },
    {
      "icao": "EDLW",
      "alert": "OK",
      "vis_m": 9999,
      "fzfg": false,
      "metar_trigger": false,
      "taf_trigger": false,
      "metar": "METAR EDLW 241720Z 21012KT 9999 R24///// NSC 15/01 Q1011",
      "taf": "TAF EDLW 241700Z 2418/2518 21013KT CAVOK"
    },
    {
      "icao": "EDNY",
      "alert": "OK",
      "vis_m": 9999,
      "fzfg": false,
      "metar_trigger": false,
      "taf_trigger": false,
      "metar": "METAR EDNY 241720Z 22003KT 190V250 CAVOK 11/M01 Q1019",
      "taf": "TAF EDNY 241700Z 2418/2503 VRB03KT CAVOK"
    },
    {
      "icao": "EDSB",
      "alert": "OK",
      "vis_m": 9999,
      "fzfg": false,
      "metar_trigger": false,
      "taf_trigger": false,
      "metar": "METAR EDSB 241720Z 19006KT CAVOK 14/03 Q1017",
      "taf": "TAF EDSB 241700Z 2418/2518 28007KT CAVOK"
    },
    {
      "icao": "EETN",
      "alert": "OK",
      "vis_m": 9999,
      "fzfg": false,
      "metar_trigger": false,
      "taf_trigger": false,
      "metar": "METAR EETN 241720Z 20011KT CAVOK 06/M05 Q1004 TEMPO 19015G25KT",
      "taf": "TAF EETN 241730Z 2418/2518 20015KT 9999 BKN045"
    },
    {
      "icao": "EFTU",
      "alert": "OK",
      "vis_m": 9999,
      "fzfg": false,
      "metar_trigger": false,
      "taf_trigger": false,
      "metar": "METAR EFTU 241720Z AUTO 20011KT 160V230 9999 -RA FEW008 OVC028 03/01 Q0999",
      "taf": "TAF EFTU 241733Z 2418/2518 20011KT 9999 -RA FEW008 BKN025"
    },
    {
      "icao": "EGBB",
      "alert": "OK",
      "vis_m": 9999,
      "fzfg": false,
      "metar_trigger": false,
      "taf_trigger": false,
      "metar": "METAR EGBB 241720Z 21012KT 160V250 9999 BKN025 12/07 Q1003",
      "taf": "TAF EGBB 241657Z 2418/2518 21015G25KT 9999 SCT025"
    },
    {
      "icao": "EGGP",
      "alert": "OK",
      "vis_m": 9999,
      "fzfg": false,
      "metar_trigger": false,
      "taf_trigger": false,
      "metar": "METAR EGGP 241720Z 21015G27KT 9999 VCSH SCT026 BKN031 11/08 Q0998",
      "taf": "TAF EGGP 241658Z 2418/2518 22020G30KT 9999 FEW012 SCT022"
    },
    {
      "icao": "EGGW",
      "alert": "OK",
      "vis_m": 9000,
      "fzfg": false,
      "metar_trigger": false,
      "taf_trigger": false,
      "metar": "METAR EGGW 241720Z 22018G29KT 9000 VCSH OVC013 11/08 Q1005",
      "taf": "TAF EGGW 241655Z 2418/2518 22017G27KT 9999 BKN020"
    },
    {
      "icao": "EGKK",
      "alert": "OK",
      "vis_m": 9000,
      "fzfg": false,
      "metar_trigger": false,
      "taf_trigger": false,
      "metar": "METAR EGKK 241720Z 22017G28KT 9000 -RA BKN009 11/09 Q1009",
      "taf": "TAF EGKK 241659Z 2418/2524 23015KT 9999 BKN016"
    },
    {
      "icao": "EGNM",
      "alert": "OK",
      "vis_m": 9999,
      "fzfg": false,
      "metar_trigger": false,
      "taf_trigger": false,
      "metar": "METAR EGNM 241720Z 24018G28KT 9999 -SHRA SCT010 BKN020 10/08 Q0996",
      "taf": "TAF EGNM 241658Z 2418/2518 22012KT 9999 FEW009 BKN018"
    },
    {
      "icao": "EGPD",
      "alert": "OK",
      "vis_m": 9999,
      "fzfg": false,
      "metar_trigger": false,
      "taf_trigger": false,
      "metar": "METAR EGPD 241720Z COR AUTO 31014KT 9999 -RA BKN037 08/03 Q0991 NOSIG",
      "taf": "TAF EGPD 241658Z 2418/2518 30009KT 9999 FEW040"
    },
    {
      "icao": "EGPF",
      "alert": "OK",
      "vis_m": 9999,
      "fzfg": false,
      "metar_trigger": false,
      "taf_trigger": false,
      "metar": "METAR EGPF 241720Z AUTO 25012KT 9999 BKN017 BKN022 OVC035 08/06 Q0993",
      "taf": "TAF EGPF 241654Z 2418/2518 23008KT 9999 FEW020"
    },
    {
      "icao": "EHBK",
      "alert": "OK",
      "vis_m": 9999,
      "fzfg": false,
      "metar_trigger": false,
      "taf_trigger": false,
      "metar": "METAR EHBK 241725Z AUTO 22016KT 9999 NSC 15/03 Q1013 TEMPO 23015G25KT",
      "taf": "TAF EHBK 241710Z 2418/2524 22014KT CAVOK"
    },
    {
      "icao": "EHEH",
      "alert": "OK",
      "vis_m": 9999,
      "fzfg": false,
      "metar_trigger": false,
      "taf_trigger": false,
      "metar": "METAR EHEH 241725Z AUTO 22014KT 190V250 9999 OVC190 15/04 Q1011 BLU TEMPO 24015G25KT",
      "taf": "TAF EHEH 241132Z 2412/2518 21015KT CAVOK"
    },
    {
      "icao": "EKBI",
      "alert": "OK",
      "vis_m": 6000,
      "fzfg": false,
      "metar_trigger": false,
      "taf_trigger": false,
      "metar": "METAR EKBI 241720Z AUTO 21011KT 180V240 6000 RA OVC004/// 07/07 Q1003",
      "taf": "TAF EKBI 241727Z 2418/2518 21015KT 2000 BR BKN004"
    },
    {
      "icao": "EKCH",
      "alert": "OK",
      "vis_m": 7000,
      "fzfg": false,
      "metar_trigger": false,
      "taf_trigger": false,
      "metar": "METAR EKCH 241720Z AUTO 23016KT 7000 BKN018/// OVC039/// 09/05 Q1006 NOSIG",
      "taf": "TAF EKCH 241727Z 2418/2518 22012KT 9000 BKN020"
    },
    {
      "icao": "ENAL",
      "alert": "OK",
      "vis_m": 9999,
      "fzfg": false,
      "metar_trigger": false,
      "taf_trigger": false,
      "metar": "METAR ENAL 241720Z 22023KT 9999 -RA FEW009 SCT022 BKN039 07/03 Q0980",
      "taf": "TAF ENAL 241700Z 2418/2503 20020KT 9999 SCT025 BKN040"
    },
    {
      "icao": "ENBR",
      "alert": "OK",
      "vis_m": 9999,
      "fzfg": false,
      "metar_trigger": false,
      "taf_trigger": false,
      "metar": "METAR ENBR 241720Z 19017KT 9999 FEW014 SCT018 BKN029 07/04 Q0990 NOSIG RMK WIND 1200FT 21022KT",
      "taf": "TAF ENBR 241700Z 2418/2518 19015KT 9999 FEW012 BKN025"
    },
    {
      "icao": "ENGM",
      "alert": "OK",
      "vis_m": 9999,
      "fzfg": false,
      "metar_trigger": false,
      "taf_trigger": false,
      "metar": "METAR ENGM 241720Z 17010KT 9999 SCT011 06/04 Q0990 TEMPO BKN011",
      "taf": "TAF ENGM 241700Z 2418/2518 19008KT 9999 BKN008"
    },
    {
      "icao": "ENHD",
      "alert": "OK",
      "vis_m": 8000,
      "fzfg": false,
      "metar_trigger": false,
      "taf_trigger": false,
      "metar": "METAR ENHD 241720Z 19012KT 8000 VV014 07/05 Q0993",
      "taf": "TAF ENHD 241400Z 2415/2423 22016KT 9999 FEW008"
    },
    {
      "icao": "ENTC",
      "alert": "OK",
      "vis_m": 9999,
      "fzfg": false,
      "metar_trigger": false,
      "taf_trigger": false,
      "metar": "METAR ENTC 241720Z 03006KT CAVOK 00/M07 Q0984 NOSIG RMK WIND 2600FT 12013KT",
      "taf": "TAF ENTC 241700Z 2418/2518 04008KT CAVOK"
    },
    {
      "icao": "ENTO",
      "alert": "OK",
      "vis_m": 9999,
      "fzfg": false,
      "metar_trigger": false,
      "taf_trigger": false,
      "metar": "METAR ENTO 241720Z 19013KT CAVOK 07/04 Q0993 NOSIG",
      "taf": "TAF ENTO 241700Z 2418/2518 19008KT 9999 FEW005"
    },
    {
      "icao": "ENVA",
      "alert": "OK",
      "vis_m": 9999,
      "fzfg": false,
      "metar_trigger": false,
      "taf_trigger": false,
      "metar": "METAR ENVA 241720Z 21012KT CAVOK 12/M03 Q0979 NOSIG RMK WIND 670FT 21014G26KT",
      "taf": "TAF ENVA 241700Z 2418/2518 16008KT 9999 SCT050"
    },
    {
      "icao": "ENZV",
      "alert": "OK",
      "vis_m": 9000,
      "fzfg": false,
      "metar_trigger": false,
      "taf_trigger": false,
      "metar": "METAR ENZV 241720Z 18009KT 9000 -DZ SCT010 BKN038 07/05 Q0994 TEMPO 4000 RADZ BR BKN008",
      "taf": "TAF ENZV 241700Z 2418/2518 17010KT 9999 FEW010 BKN040"
    },
    {
      "icao": "EPGD",
      "alert": "OK",
      "vis_m": 9999,
      "fzfg": false,
      "metar_trigger": false,
      "taf_trigger": false,
      "metar": "METAR EPGD 241730Z 20007KT CAVOK 12/01 Q1011",
      "taf": "TAF EPGD 241730Z 2418/2518 19007KT CAVOK"
    },
    {
      "icao": "EPKK",
      "alert": "OK",
      "vis_m": 9999,
      "fzfg": false,
      "metar_trigger": false,
      "taf_trigger": false,
      "metar": "METAR EPKK 241730Z VRB02KT CAVOK 10/M02 Q1016",
      "taf": "TAF EPKK 241730Z 2418/2518 VRB02KT CAVOK"
    },
    {
      "icao": "EPKT",
      "alert": "OK",
      "vis_m": 9999,
      "fzfg": false,
      "metar_trigger": false,
      "taf_trigger": false,
      "metar": "METAR EPKT 241730Z 23004KT CAVOK 09/M01 Q1016",
      "taf": "TAF EPKT 241730Z 2418/2518 26004KT CAVOK"
    },
    {
      "icao": "EPLB",
      "alert": "OK",
      "vis_m": 9999,
      "fzfg": false,
      "metar_trigger": false,
      "taf_trigger": false,
      "metar": "METAR EPLB 241730Z 16002KT CAVOK 08/M01 Q1016",
      "taf": "TAF EPLB 241730Z 2418/2518 VRB02KT CAVOK"
    },
    {
      "icao": "EPMO",
      "alert": "OK",
      "vis_m": 9999,
      "fzfg": false,
      "metar_trigger": false,
      "taf_trigger": false,
      "metar": "METAR EPMO 241730Z 21005KT CAVOK 12/01 Q1014",
      "taf": "TAF EPMO 241730Z 2418/2518 24006KT CAVOK"
    },
    {
      "icao": "EPPO",
      "alert": "OK",
      "vis_m": 9999,
      "fzfg": false,
      "metar_trigger": false,
      "taf_trigger": false,
      "metar": "METAR EPPO 241730Z 20005KT CAVOK 12/02 Q1014",
      "taf": "TAF EPPO 241730Z 2418/2518 20007KT CAVOK"
    },
    {
      "icao": "EPRA",
      "alert": "OK",
      "vis_m": 9999,
      "fzfg": false,
      "metar_trigger": false,
      "taf_trigger": false,
      "metar": "METAR EPRA 241730Z 24004KT CAVOK 12/M04 Q1015",
      "taf": "TAF EPRA 241730Z 2418/2503 23006KT CAVOK"
    },
    {
      "icao": "EPRZ",
      "alert": "OK",
      "vis_m": 9999,
      "fzfg": false,
      "metar_trigger": false,
      "taf_trigger": false,
      "metar": "METAR EPRZ 241730Z VRB01KT CAVOK 10/M04 Q1016",
      "taf": "TAF EPRZ 241730Z 2418/2518 VRB02KT CAVOK"
    },
    {
      "icao": "EPSC",
      "alert": "OK",
      "vis_m": 9999,
      "fzfg": false,
      "metar_trigger": false,
      "taf_trigger": false,
      "metar": "METAR EPSC 241730Z 20008KT 160V230 CAVOK 13/01 Q1011",
      "taf": "TAF EPSC 241730Z 2418/2518 20008KT CAVOK"
    },
    {
      "icao": "EPSY",
      "alert": "OK",
      "vis_m": 9999,
      "fzfg": false,
      "metar_trigger": false,
      "taf_trigger": false,
      "metar": "METAR EPSY 241730Z 22005KT CAVOK 08/M01 Q1013",
      "taf": "TAF EPSY 241730Z 2418/2503 22006KT CAVOK"
    },
    {
      "icao": "EPWA",
      "alert": "OK",
      "vis_m": 9999,
      "fzfg": false,
      "metar_trigger": false,
      "taf_trigger": false,
      "metar": "METAR EPWA 241730Z 22002KT CAVOK 11/M01 Q1015 NOSIG",
      "taf": "TAF EPWA 241730Z 2418/2518 24005KT CAVOK"
    },
    {
      "icao": "EPWR",
      "alert": "OK",
      "vis_m": 9999,
      "fzfg": false,
      "metar_trigger": false,
      "taf_trigger": false,
      "metar": "METAR EPWR 241730Z VRB02KT CAVOK 11/01 Q1015",
      "taf": "TAF EPWR 241730Z 2418/2518 18007KT CAVOK"
    },
    {
      "icao": "ESGG",
      "alert": "OK",
      "vis_m": 3000,
      "fzfg": false,
      "metar_trigger": false,
      "taf_trigger": false,
      "metar": "METAR ESGG 241720Z 23017KT 3000 BR OVC003 07/07 Q0999",
      "taf": "TAF ESGG 241730Z 2418/2518 21016KT 3000 -DZ BR OVC005"
    },
    {
      "icao": "ESKN",
      "alert": "OK",
      "vis_m": 9999,
      "fzfg": false,
      "metar_trigger": false,
      "taf_trigger": false,
      "metar": "METAR ESKN 241720Z 21010KT 9999 BKN030 10/04 Q0998",
      "taf": "TAF ESKN 241730Z 2418/2518 22010KT 9999 BKN030"
    },
    {
      "icao": "ESMS",
      "alert": "OK",
      "vis_m": 6000,
      "fzfg": false,
      "metar_trigger": false,
      "taf_trigger": false,
      "metar": "METAR ESMS 241720Z 23014KT 6000 FEW024 BKN033 09/04 Q1006",
      "taf": "TAF ESMS 241727Z 2418/2518 22010KT 8000 BKN025"
    },
    {
      "icao": "ESSA",
      "alert": "OK",
      "vis_m": 9999,
      "fzfg": false,
      "metar_trigger": false,
      "taf_trigger": false,
      "metar": "METAR ESSA 241720Z 18014KT 9999 BKN024 06/02 Q0996 NOSIG",
      "taf": "TAF ESSA 241730Z 2418/2518 20016G26KT 9999 BKN020"
    },
    {
      "icao": "EYKA",
      "alert": "OK",
      "vis_m": 9999,
      "fzfg": false,
      "metar_trigger": false,
      "taf_trigger": false,
      "metar": "METAR EYKA 241720Z 21004KT CAVOK 10/01 Q1012",
      "taf": "TAF EYKA 241700Z 2418/2518 VRB04KT 9000 NSC"
    },
    {
      "icao": "EYPA",
      "alert": "OK",
      "vis_m": 9999,
      "fzfg": false,
      "metar_trigger": false,
      "taf_trigger": false,
      "metar": "METAR EYPA 241720Z 19008KT CAVOK 08/02 Q1010",
      "taf": "TAF EYPA 241700Z 2418/2518 20010KT 9000 SCT045"
    },
    {
      "icao": "EYVI",
      "alert": "OK",
      "vis_m": 9999,
      "fzfg": false,
      "metar_trigger": false,
      "taf_trigger": false,
      "metar": "METAR EYVI 241720Z COR 19005KT CAVOK 08/M00 Q1013 NOSIG",
      "taf": ""
    },
    {
      "icao": "GCFV",
      "alert": "OK",
      "vis_m": 9999,
      "fzfg": false,
      "metar_trigger": false,
      "taf_trigger": false,
      "metar": "METAR GCFV 241730Z 08005KT 050V110 9999 FEW030 20/15 Q1011",
      "taf": "TAF GCFV 241400Z 2415/2515 18008KT 9999 FEW040 TX24/2514Z TN16/2506Z"
    },
    {
      "icao": "GCLP",
      "alert": "OK",
      "vis_m": 9999,
      "fzfg": false,
      "metar_trigger": false,
      "taf_trigger": false,
      "metar": "METAR GCLP 241730Z 18011KT 9999 FEW020 20/16 Q1009 NOSIG",
      "taf": "TAF GCLP 241400Z 2415/2515 20008KT 9999 SCT010 BKN020 TX22/2514Z TN15/2506Z"
    },
    {
      "icao": "GCTS",
      "alert": "OK",
      "vis_m": 9999,
      "fzfg": false,
      "metar_trigger": false,
      "taf_trigger": false,
      "metar": "METAR GCTS 241730Z 07011KT 040V100 9999 FEW025TCU BKN060 20/14 Q1009 WS R07 NOSIG",
      "taf": ""
    },
    {
      "icao": "GMAD",
      "alert": "OK",
      "vis_m": 9999,
      "fzfg": false,
      "metar_trigger": false,
      "taf_trigger": false,
      "metar": "METAR GMAD 241730Z 26010KT 9999 FEW023 26/12 Q1009 NOSIG",
      "taf": "TAF GMAD 241700Z 2418/2524 27012KT 9999 FEW023"
    },
    {
      "icao": "GMMN",
      "alert": "OK",
      "vis_m": 9999,
      "fzfg": false,
      "metar_trigger": false,
      "taf_trigger": false,
      "metar": "METAR GMMN 241730Z ///08KT 9999 FEW027TCU 19/14 Q1014 NOSIG",
      "taf": "TAF GMMN 241700Z 2418/2524 02008KT CAVOK"
    },
    {
      "icao": "GMMX",
      "alert": "OK",
      "vis_m": 9999,
      "fzfg": false,
      "metar_trigger": false,
      "taf_trigger": false,
      "metar": "METAR GMMX 241730Z 35010KT 310V030 9999 SCT023 FEW030CB BKN080 23/11 Q1012 NOSIG",
      "taf": "TAF GMMX 241700Z 2418/2524 12006KT 8000 SCT023 SCT080"
    },
    {
      "icao": "HEGN",
      "alert": "OK",
      "vis_m": 9999,
      "fzfg": false,
      "metar_trigger": false,
      "taf_trigger": false,
      "metar": "METAR HEGN 241700Z 32008KT 9999 BKN025 24/07 Q1003 NOSIG",
      "taf": "TAF HEGN 241700Z 2418/2524 29010KT 9999 SCT025"
    },
    {
      "icao": "HEMA",
      "alert": "OK",
      "vis_m": 9999,
      "fzfg": false,
      "metar_trigger": false,
      "taf_trigger": false,
      "metar": "METAR HEMA 241700Z 02006KT CAVOK 22/14 Q1005 NOSIG",
      "taf": "TAF HEMA 241700Z 2418/2524 26010KT 9999 SCT025"
    },
    {
      "icao": "HESH",
      "alert": "OK",
      "vis_m": 9999,
      "fzfg": false,
      "metar_trigger": false,
      "taf_trigger": false,
      "metar": "METAR HESH 241700Z 02005KT 9999 SCT020 BKN025 22/10 Q1003 NOSIG",
      "taf": "TAF HESH 241700Z 2418/2524 30010KT 9999 SCT025"
    },
    {
      "icao": "HESX",
      "alert": "OK",
      "vis_m": 9999,
      "fzfg": false,
      "metar_trigger": false,
      "taf_trigger": false,
      "metar": "METAR HESX 241700Z 35008KT 9999 SCT020 SCT025 19/08 Q1005 NOSIG",
      "taf": "TAF HESX 241700Z 2418/2524 31009KT 9999 SCT020 SCT070"
    },
    {
      "icao": "LATI",
      "alert": "OK",
      "vis_m": 9999,
      "fzfg": false,
      "metar_trigger": false,
      "taf_trigger": false,
      "metar": "METAR LATI 241750Z 03010KT 9999 FEW098 15/02 Q1012 NOSIG",
      "taf": ""
    },
    {
      "icao": "LBPD",
      "alert": "OK",
      "vis_m": 9999,
      "fzfg": false,
      "metar_trigger": false,
      "taf_trigger": false,
      "metar": "METAR LBPD 241730Z AUTO 00000KT 9999 OVC061/// 08/06 Q1014 NOSIG",
      "taf": "TAF LBPD 241700Z 2418/2518 12010KT 9999 BKN050"
    },
    {
      "icao": "LBSF",
      "alert": "OK",
      "vis_m": 9999,
      "fzfg": false,
      "metar_trigger": false,
      "taf_trigger": false,
      "metar": "METAR LBSF 241730Z AUTO 35004KT 320V020 9999 FEW067/// OVC085/// 08/02 Q1015 NOSIG",
      "taf": "TAF LBSF 241700Z 2418/2518 VRB03KT 9999 SCT030 BKN050"
    },
    {
      "icao": "LBWN",
      "alert": "OK",
      "vis_m": 9999,
      "fzfg": false,
      "metar_trigger": false,
      "taf_trigger": false,
      "metar": "METAR LBWN 241730Z AUTO 36003KT 330V030 9999 NSC 10/02 Q1013 NOSIG",
      "taf": "TAF LBWN 241700Z 2418/2518 04008KT 9999 SCT045"
    },
    {
      "icao": "LCLK",
      "alert": "OK",
      "vis_m": 9999,
      "fzfg": false,
      "metar_trigger": false,
      "taf_trigger": false,
      "metar": "METAR LCLK 241730Z 29002KT 9999 FEW020 FEW030TCU SCT040 15/12 Q1005 NOSIG",
      "taf": "TAF LCLK 241730Z 2418/2518 26006KT 9999 FEW020 FEW025TCU SCT045"
    },
    {
      "icao": "LCPH",
      "alert": "OK",
      "vis_m": 9999,
      "fzfg": false,
      "metar_trigger": false,
      "taf_trigger": false,
      "metar": "METAR LCPH 241730Z 26006KT 250V320 9999 -RA FEW030TCU BKN050 15/12 Q1005 NOSIG",
      "taf": "TAF LCPH 241730Z 2418/2518 02007KT 9999 FEW025TCU SCT040"
    },
    {
      "icao": "LEAL",
      "alert": "OK",
      "vis_m": 9999,
      "fzfg": false,
      "metar_trigger": false,
      "taf_trigger": false,
      "metar": "METAR LEAL 241730Z 09006KT CAVOK 15/10 Q1023 NOSIG",
      "taf": "TAF LEAL 241700Z 2418/2518 VRB04KT 9999 FEW020 TX20/2512Z TN07/2506Z"
    },
    {
      "icao": "LEBB",
      "alert": "OK",
      "vis_m": 9999,
      "fzfg": false,
      "metar_trigger": false,
      "taf_trigger": false,
      "metar": "METAR LEBB 241730Z 28008KT 250V310 CAVOK 16/09 Q1020 NOSIG",
      "taf": "TAF LEBB 241700Z 2418/2518 VRB03KT 9999 FEW030 TX13/2509Z TN06/2504Z"
    },
    {
      "icao": "LEBL",
      "alert": "OK",
      "vis_m": 9999,
      "fzfg": false,
      "metar_trigger": false,
      "taf_trigger": false,
      "metar": "METAR LEBL 241730Z 23014KT 9999 FEW060 15/12 Q1021 NOSIG",
      "taf": "TAF LEBL 241700Z 2418/2518 23012KT 9999 FEW060 TX18/2512Z TN11/2507Z"
    },
    {
      "icao": "LECH",
      "alert": "OK",
      "vis_m": 9999,
      "fzfg": false,
      "metar_trigger": false,
      "taf_trigger": false,
      "metar": "METAR LECH 241730Z AUTO 22010KT 9999 FEW070 14/01 Q1022",
      "taf": "TAF LECH 241700Z 2418/2518 24006KT CAVOK TX22/2513Z TN04/2506Z"
    },
    {
      "icao": "LEMD",
      "alert": "OK",
      "vis_m": 9999,
      "fzfg": false,
      "metar_trigger": false,
      "taf_trigger": false,
      "metar": "METAR LEMD 241730Z 17004KT 130V250 CAVOK 17/02 Q1021 NOSIG",
      "taf": "TAF LEMD 241700Z 2418/2524 VRB04KT CAVOK TX23/2516Z TN04/2507Z"
    },
    {
      "icao": "LEMG",
      "alert": "OK",
      "vis_m": 9999,
      "fzfg": false,
      "metar_trigger": false,
      "taf_trigger": false,
      "metar": "METAR LEMG 241730Z 12008KT 9999 SCT020 15/10 Q1022 NOSIG",
      "taf": "TAF LEMG 241700Z 2418/2518 13010KT 9999 SCT045 TX18/2513Z TN10/2506Z"
    },
    {
      "icao": "LEVC",
      "alert": "OK",
      "vis_m": 9999,
      "fzfg": false,
      "metar_trigger": false,
      "taf_trigger": false,
      "metar": "METAR LEVC 241730Z 14011KT CAVOK 16/05 Q1022 NOSIG",
      "taf": "TAF LEVC 241700Z 2418/2518 13010KT CAVOK TX24/2513Z TN07/2506Z"
    },
    {
      "icao": "LEXJ",
      "alert": "OK",
      "vis_m": 8000,
      "fzfg": false,
      "metar_trigger": false,
      "taf_trigger": false,
      "metar": "METAR LEXJ 241730Z 05005KT 360V120 8000 NSC 14/11 Q1020",
      "taf": "TAF LEXJ 241400Z 2415/2515 04008KT 9999 FEW040 TX12/2512Z TN11/2509Z"
    },
    {
      "icao": "LEZG",
      "alert": "OK",
      "vis_m": 9999,
      "fzfg": false,
      "metar_trigger": false,
      "taf_trigger": false,
      "metar": "METAR LEZG 241730Z 08005KT CAVOK 19/06 Q1020 NOSIG",
      "taf": "TAF LEZG 241700Z 2418/2518 VRB04KT 9999 FEW030 TX20/2514Z TN07/2506Z"
    },
    {
      "icao": "LEZL",
      "alert": "OK",
      "vis_m": 9999,
      "fzfg": false,
      "metar_trigger": false,
      "taf_trigger": false,
      "metar": "METAR LEZL 241730Z 08009KT 050V110 CAVOK 21/08 Q1019 NOSIG",
      "taf": "TAF LEZL 241400Z 2415/2515 08009KT CAVOK TX25/2515Z TN11/2507Z"
    },
    {
      "icao": "LFBD",
      "alert": "OK",
      "vis_m": 9999,
      "fzfg": false,
      "metar_trigger": false,
      "taf_trigger": false,
      "metar": "METAR LFBD 241730Z AUTO 31006KT CAVOK 19/07 Q1020 NOSIG",
      "taf": "TAF LFBD 241700Z 2418/2524 29005KT CAVOK TX19/2418Z TN07/2502Z"
    },
    {
      "icao": "LFLL",
      "alert": "OK",
      "vis_m": 9999,
      "fzfg": false,
      "metar_trigger": false,
      "taf_trigger": false,
      "metar": "METAR LFLL 241730Z VRB01KT CAVOK 16/02 Q1020 NOSIG",
      "taf": "TAF LFLL 241700Z 2418/2524 16005KT CAVOK"
    },
    {
      "icao": "LFLS",
      "alert": "OK",
      "vis_m": 9999,
      "fzfg": false,
      "metar_trigger": false,
      "taf_trigger": false,
      "metar": "METAR LFLS 241730Z AUTO 33003KT CAVOK 13/04 Q1020 NOSIG",
      "taf": "TAF LFLS 241400Z 2415/2515 VRB02KT CAVOK"
    },
    {
      "icao": "LFMN",
      "alert": "OK",
      "vis_m": 9999,
      "fzfg": false,
      "metar_trigger": false,
      "taf_trigger": false,
      "metar": "METAR LFMN 241730Z 21005KT 170V230 CAVOK 15/08 Q1019 NOSIG",
      "taf": "TAF LFMN 241400Z 2415/2521 19010KT CAVOK"
    },
    {
      "icao": "LFOB",
      "alert": "OK",
      "vis_m": 9999,
      "fzfg": false,
      "metar_trigger": false,
      "taf_trigger": false,
      "metar": "METAR LFOB 241730Z AUTO 22010KT CAVOK 15/03 Q1014 NOSIG",
      "taf": "TAF LFOB 241700Z 2418/2518 24011KT 8000 NSC"
    },
    {
      "icao": "LFPO",
      "alert": "OK",
      "vis_m": 9999,
      "fzfg": false,
      "metar_trigger": false,
      "taf_trigger": false,
      "metar": "METAR LFPO 241730Z 23011KT CAVOK 16/05 Q1016 NOSIG",
      "taf": "TAF LFPO 241700Z 2418/2524 22012KT CAVOK"
    },
    {
      "icao": "LFSB",
      "alert": "OK",
      "vis_m": 9999,
      "fzfg": false,
      "metar_trigger": false,
      "taf_trigger": false,
      "metar": "METAR LFSB 241730Z AUTO 24004KT CAVOK 14/03 Q1018 NOSIG",
      "taf": "TAF LFSB 241700Z 2418/2518 23004KT CAVOK"
    },
    {
      "icao": "LGAV",
      "alert": "OK",
      "vis_m": 9999,
      "fzfg": false,
      "metar_trigger": false,
      "taf_trigger": false,
      "metar": "METAR LGAV 241720Z 34004KT 9999 FEW020 SCT040 BKN070 10/07 Q1010 NOSIG",
      "taf": "TAF LGAV 241700Z 2418/2518 02014KT 9999 FEW025 SCT030 BKN070"
    },
    {
      "icao": "LGTS",
      "alert": "OK",
      "vis_m": 9999,
      "fzfg": false,
      "metar_trigger": false,
      "taf_trigger": false,
      "metar": "METAR LGTS 241720Z VRB02KT 9999 FEW015 SCT035 11/08 Q1013 NOSIG",
      "taf": "TAF LGTS 241700Z 2418/2518 34013KT 9999 FEW015 SCT025"
    },
    {
      "icao": "LHBP",
      "alert": "OK",
      "vis_m": 9999,
      "fzfg": false,
      "metar_trigger": false,
      "taf_trigger": false,
      "metar": "METAR LHBP 241730Z 32005KT CAVOK 10/M02 Q1017 NOSIG",
      "taf": "TAF LHBP 241715Z 2418/2518 34006KT CAVOK"
    },
    {
      "icao": "LHDC",
      "alert": "OK",
      "vis_m": 9999,
      "fzfg": false,
      "metar_trigger": false,
      "taf_trigger": false,
      "metar": "METAR LHDC 241715Z AUTO 36005KT 330V030 CAVOK 13/M02 Q1016 NOSIG",
      "taf": "TAF LHDC 241415Z 2415/2424 36010KT CAVOK"
    },
    {
      "icao": "LIBD",
      "alert": "OK",
      "vis_m": 9999,
      "fzfg": false,
      "metar_trigger": false,
      "taf_trigger": false,
      "metar": "METAR LIBD 241720Z 32010KT 290V350 CAVOK 13/07 Q1015",
      "taf": "TAF LIBD 241700Z 2418/2518 33011KT CAVOK"
    },
    {
      "icao": "LIBG",
      "alert": "OK",
      "vis_m": 9999,
      "fzfg": false,
      "metar_trigger": false,
      "taf_trigger": false,
      "metar": "METAR LIBG 241650Z 36017KT CAVOK 14/06 Q1013",
      "taf": "TAF LIBG 241700Z 2418/2503 35012KT CAVOK"
    },
    {
      "icao": "LIBP",
      "alert": "OK",
      "vis_m": 9999,
      "fzfg": false,
      "metar_trigger": false,
      "taf_trigger": false,
      "metar": "METAR LIBP 241720Z AUTO 34003KT 310V030 9999 NCD 13/07 Q1018",
      "taf": "TAF LIBP 241700Z 2418/2518 VRB05KT CAVOK"
    },
    {
      "icao": "LIBR",
      "alert": "OK",
      "vis_m": 9999,
      "fzfg": false,
      "metar_trigger": false,
      "taf_trigger": false,
      "metar": "METAR LIBR 241720Z 35013KT CAVOK 14/09 Q1013",
      "taf": "TAF LIBR 241700Z 2418/2518 34014KT 9999 FEW015"
    },
    {
      "icao": "LICA",
      "alert": "OK",
      "vis_m": 9999,
      "fzfg": false,
      "metar_trigger": false,
      "taf_trigger": false,
      "metar": "METAR LICA 241720Z AUTO VRB03KT 9999 BKN076/// 13/08 Q1014",
      "taf": "TAF LICA 241700Z 2418/2518 29010KT 9999 SCT040"
    },
    {
      "icao": "LICC",
      "alert": "OK",
      "vis_m": 9999,
      "fzfg": false,
      "metar_trigger": false,
      "taf_trigger": false,
      "metar": "METAR LICC 241720Z 28004KT 9999 FEW050 12/10 Q1015",
      "taf": "TAF LICC 241700Z 2418/2518 25010KT 9999 SCT050"
    },
    {
      "icao": "LICJ",
      "alert": "OK",
      "vis_m": 9999,
      "fzfg": false,
      "metar_trigger": false,
      "taf_trigger": false,
      "metar": "METAR LICJ 241720Z 01009KT 9999 SCT030 14/08 Q1017",
      "taf": "TAF LICJ 241700Z 2418/2518 01012KT 9999 FEW020 BKN030"
    },
    {
      "icao": "LIMC",
      "alert": "OK",
      "vis_m": 9999,
      "fzfg": false,
      "metar_trigger": false,
      "taf_trigger": false,
      "metar": "METAR LIMC 241720Z 19005KT 160V220 CAVOK 15/M00 Q1018 NOSIG",
      "taf": "TAF LIMC 241700Z 2418/2524 VRB05KT CAVOK"
    },
    {
      "icao": "LIME",
      "alert": "OK",
      "vis_m": 9999,
      "fzfg": false,
      "metar_trigger": false,
      "taf_trigger": false,
      "metar": "METAR LIME 241720Z 18003KT CAVOK 15/02 Q1018 NOSIG",
      "taf": "TAF LIME 241700Z 2418/2518 VRB05KT 9999 FEW050"
    },
    {
      "icao": "LIMF",
      "alert": "OK",
      "vis_m": 9999,
      "fzfg": false,
      "metar_trigger": false,
      "taf_trigger": false,
      "metar": "METAR LIMF 241720Z 09005KT CAVOK 15/04 Q1018",
      "taf": "TAF LIMF 241700Z 2418/2518 VRB05KT CAVOK"
    },
    {
      "icao": "LIMJ",
      "alert": "OK",
      "vis_m": 9999,
      "fzfg": false,
      "metar_trigger": false,
      "taf_trigger": false,
      "metar": "METAR LIMJ 241720Z 29004KT 250V330 CAVOK 16/07 Q1018",
      "taf": "TAF LIMJ 241700Z 2418/2518 26010KT 9999 FEW040"
    },
    {
      "icao": "LIPE",
      "alert": "OK",
      "vis_m": 9999,
      "fzfg": false,
      "metar_trigger": false,
      "taf_trigger": false,
      "metar": "METAR LIPE 241720Z VRB02KT CAVOK 16/02 Q1018",
      "taf": "TAF LIPE 241700Z 2418/2518 VRB04KT CAVOK"
    },
    {
      "icao": "LIPH",
      "alert": "OK",
      "vis_m": 9999,
      "fzfg": false,
      "metar_trigger": false,
      "taf_trigger": false,
      "metar": "METAR LIPH 241720Z 18003KT CAVOK 16/02 Q1018",
      "taf": "TAF LIPH 241700Z 2418/2518 VRB05KT CAVOK"
    },
    {
      "icao": "LIPQ",
      "alert": "OK",
      "vis_m": 9999,
      "fzfg": false,
      "metar_trigger": false,
      "taf_trigger": false,
      "metar": "METAR LIPQ 241720Z AUTO 31004KT 9999 NCD 16/M00 Q1017",
      "taf": "TAF LIPQ 241700Z 2418/2518 VRB03KT CAVOK"
    },
    {
      "icao": "LIPR",
      "alert": "OK",
      "vis_m": 9999,
      "fzfg": false,
      "metar_trigger": false,
      "taf_trigger": false,
      "metar": "METAR LIPR 241720Z 29003KT CAVOK 15/03 Q1018",
      "taf": "TAF LIPR 241700Z 2418/2518 VRB05KT CAVOK"
    },
    {
      "icao": "LIPX",
      "alert": "OK",
      "vis_m": 9999,
      "fzfg": false,
      "metar_trigger": false,
      "taf_trigger": false,
      "metar": "METAR LIPX 241720Z 23006KT CAVOK 14/03 Q1018",
      "taf": "TAF LIPX 241700Z 2418/2518 VRB05KT CAVOK"
    },
    {
      "icao": "LIPY",
      "alert": "OK",
      "vis_m": 9999,
      "fzfg": false,
      "metar_trigger": false,
      "taf_trigger": false,
      "metar": "METAR LIPY 241720Z AUTO 32005KT 9999 NCD 12/10 Q1018",
      "taf": "TAF LIPY 241700Z 2418/2518 VRB05KT CAVOK"
    },
    {
      "icao": "LIPZ",
      "alert": "OK",
      "vis_m": 9999,
      "fzfg": false,
      "metar_trigger": false,
      "taf_trigger": false,
      "metar": "METAR LIPZ 241720Z 22005KT CAVOK 14/06 Q1018 NOSIG",
      "taf": "TAF LIPZ 241700Z 2418/2524 23005KT CAVOK"
    },
    {
      "icao": "LIRF",
      "alert": "OK",
      "vis_m": 9999,
      "fzfg": false,
      "metar_trigger": false,
      "taf_trigger": false,
      "metar": "METAR LIRF 241720Z 28011KT CAVOK 15/10 Q1016 NOSIG",
      "taf": "TAF LIRF 241700Z 2418/2524 34012KT CAVOK"
    },
    {
      "icao": "LIRN",
      "alert": "OK",
      "vis_m": 9999,
      "fzfg": false,
      "metar_trigger": false,
      "taf_trigger": false,
      "metar": "METAR LIRN 241720Z 28005KT 9999 SCT060 14/07 Q1016 NOSIG",
      "taf": "TAF LIRN 241700Z 2418/2518 VRB05KT 9999 FEW040"
    },
    {
      "icao": "LIRP",
      "alert": "OK",
      "vis_m": 9999,
      "fzfg": false,
      "metar_trigger": false,
      "taf_trigger": false,
      "metar": "METAR LIRP 241715Z 30006KT CAVOK 13/03 Q1018 NOSIG",
      "taf": "TAF LIRP 241700Z 2418/2518 30010KT CAVOK"
    },
    {
      "icao": "LIRZ",
      "alert": "OK",
      "vis_m": 9999,
      "fzfg": false,
      "metar_trigger": false,
      "taf_trigger": false,
      "metar": "METAR LIRZ 241720Z AUTO 04010KT 9999 NCD 14/02 Q1017",
      "taf": "TAF LIRZ 241700Z 2418/2518 04014KT 9999 FEW040"
    },
    {
      "icao": "LJLJ",
      "alert": "OK",
      "vis_m": 9999,
      "fzfg": false,
      "metar_trigger": false,
      "taf_trigger": false,
      "metar": "METAR LJLJ 241730Z VRB01KT 9999 FEW080 10/02 Q1018 NOSIG",
      "taf": "TAF LJLJ 241700Z 2418/2518 VRB02KT 9999 FEW070"
    },
    {
      "icao": "LKMT",
      "alert": "OK",
      "vis_m": 9999,
      "fzfg": false,
      "metar_trigger": false,
      "taf_trigger": false,
      "metar": "METAR LKMT 241730Z VRB01KT CAVOK 11/M00 Q1016 NOSIG",
      "taf": "TAF LKMT 241700Z 2418/2518 05004KT CAVOK"
    },
    {
      "icao": "LKPR",
      "alert": "OK",
      "vis_m": 9999,
      "fzfg": false,
      "metar_trigger": false,
      "taf_trigger": false,
      "metar": "METAR LKPR 241730Z 20008KT 140V210 CAVOK 10/M01 Q1016 NOSIG",
      "taf": "TAF LKPR 241700Z 2418/2524 23008KT CAVOK"
    },
    {
      "icao": "LLBG",
      "alert": "OK",
      "vis_m": 9999,
      "fzfg": false,
      "metar_trigger": false,
      "taf_trigger": false,
      "metar": "METAR LLBG 241720Z 36004KT 340V050 CAVOK 16/09 Q1006 NOSIG",
      "taf": "TAF LLBG 241704Z 2418/2518 VRB03KT 9999 SCT035 TX19/2512Z TN10/2504Z"
    },
    {
      "icao": "LMML",
      "alert": "OK",
      "vis_m": 9999,
      "fzfg": false,
      "metar_trigger": false,
      "taf_trigger": false,
      "metar": "METAR LMML 241745Z 36006KT 9999 SCT024CB 13/08 Q1015 RETS TEMPO 7000 TSRA",
      "taf": "TAF LMML 241700Z 2418/2518 35011KT 9999 FEW025"
    },
    {
      "icao": "LOWW",
      "alert": "OK",
      "vis_m": 9999,
      "fzfg": false,
      "metar_trigger": false,
      "taf_trigger": false,
      "metar": "METAR LOWW 241720Z 27008KT 250V320 CAVOK 13/01 Q1018 NOSIG",
      "taf": "TAF LOWW 241715Z 2418/2524 32010KT 9999 FEW050 TX19/2513Z TN04/2504Z"
    },
    {
      "icao": "LPFR",
      "alert": "OK",
      "vis_m": 9999,
      "fzfg": false,
      "metar_trigger": false,
      "taf_trigger": false,
      "metar": "METAR LPFR 241730Z 12011KT 9999 FEW020 19/11 Q1019",
      "taf": "TAF LPFR 241700Z 2418/2518 12010KT CAVOK"
    },
    {
      "icao": "LPMA",
      "alert": "OK",
      "vis_m": 9999,
      "fzfg": false,
      "metar_trigger": false,
      "taf_trigger": false,
      "metar": "METAR LPMA 241730Z 01012G23KT 320V040 9999 SCT014 18/12 Q1017",
      "taf": "TAF LPMA 241700Z 2418/2518 02015KT 9999 SCT015"
    },
    {
      "icao": "LPPR",
      "alert": "OK",
      "vis_m": 9999,
      "fzfg": false,
      "metar_trigger": false,
      "taf_trigger": false,
      "metar": "METAR LPPR 241730Z 31008KT CAVOK 17/07 Q1020",
      "taf": "TAF LPPR 241700Z 2418/2518 32008KT CAVOK"
    },
    {
      "icao": "LPPS",
      "alert": "OK",
      "vis_m": 9999,
      "fzfg": false,
      "metar_trigger": false,
      "taf_trigger": false,
      "metar": "METAR LPPS 241730Z 04014KT 010V070 9999 SCT014 17/13 Q1017",
      "taf": "TAF LPPS 241700Z 2418/2524 05015KT 9999 SCT015 SCT030"
    },
    {
      "icao": "LPPT",
      "alert": "OK",
      "vis_m": 9999,
      "fzfg": false,
      "metar_trigger": false,
      "taf_trigger": false,
      "metar": "METAR LPPT 241730Z 32007KT 9999 FEW035 19/12 Q1020",
      "taf": "TAF LPPT 241700Z 2418/2524 31008KT CAVOK"
    },
    {
      "icao": "LQBK",
      "alert": "OK",
      "vis_m": 9999,
      "fzfg": false,
      "metar_trigger": false,
      "taf_trigger": false,
      "metar": "METAR LQBK 241730Z VRB02KT CAVOK 13/03 Q1017 NOSIG",
      "taf": "TAF LQBK 241700Z 2418/2518 15005KT CAVOK TX19/2514Z TN03/2505Z"
    },
    {
      "icao": "LQSA",
      "alert": "OK",
      "vis_m": 9999,
      "fzfg": false,
      "metar_trigger": false,
      "taf_trigger": false,
      "metar": "METAR LQSA 241730Z 00000KT 9999 FEW060 10/01 Q1017 NOSIG",
      "taf": "TAF LQSA 241700Z 2418/2518 VRB02KT CAVOK TX16/2514Z TN03/2505Z"
    },
    {
      "icao": "LQTZ",
      "alert": "OK",
      "vis_m": 9999,
      "fzfg": false,
      "metar_trigger": false,
      "taf_trigger": false,
      "metar": "METAR LQTZ 241730Z 09002KT CAVOK 12/03 Q1017",
      "taf": "TAF LQTZ 241700Z 2418/2518 VRB03KT CAVOK TX17/2514Z TN02/2505Z"
    },
    {
      "icao": "LRBC",
      "alert": "OK",
      "vis_m": 9999,
      "fzfg": false,
      "metar_trigger": false,
      "taf_trigger": false,
      "metar": "METAR LRBC 241730Z 31005KT CAVOK 07/M00 Q1016",
      "taf": "TAF LRBC 241700Z 2418/2503 VRB04KT CAVOK"
    },
    {
      "icao": "LRBS",
      "alert": "OK",
      "vis_m": 9999,
      "fzfg": false,
      "metar_trigger": false,
      "taf_trigger": false,
      "metar": "METAR LRBS 241730Z 03002KT CAVOK 13/01 Q1015 NOSIG",
      "taf": "TAF LRBS 241700Z 2418/2518 VRB04KT CAVOK"
    },
    {
      "icao": "LRBV",
      "alert": "OK",
      "vis_m": 9999,
      "fzfg": false,
      "metar_trigger": false,
      "taf_trigger": false,
      "metar": "METAR LRBV 241730Z 25004KT 9999 BKN062 09/02 Q1015",
      "taf": "TAF LRBV 241700Z 2418/2503 VRB04KT 9999 BKN060"
    },
    {
      "icao": "LRCL",
      "alert": "OK",
      "vis_m": 9999,
      "fzfg": false,
      "metar_trigger": false,
      "taf_trigger": false,
      "metar": "METAR LRCL 241730Z 31007KT CAVOK 08/M02 Q1015",
      "taf": "TAF LRCL 241700Z 2418/2503 30008KT CAVOK"
    },
    {
      "icao": "LRCV",
      "alert": "OK",
      "vis_m": 9999,
      "fzfg": false,
      "metar_trigger": false,
      "taf_trigger": false,
      "metar": "METAR LRCV 241730Z 20004KT CAVOK 12/04 Q1015",
      "taf": "TAF LRCV 241700Z 2418/2503 VRB04KT CAVOK"
    },
    {
      "icao": "LRIA",
      "alert": "OK",
      "vis_m": 9999,
      "fzfg": false,
      "metar_trigger": false,
      "taf_trigger": false,
      "metar": "METAR LRIA 241730Z 36008KT CAVOK 10/M02 Q1016",
      "taf": "TAF LRIA 241700Z 2418/2503 VRB04KT CAVOK"
    },
    {
      "icao": "LROP",
      "alert": "OK",
      "vis_m": 9999,
      "fzfg": false,
      "metar_trigger": false,
      "taf_trigger": false,
      "metar": "METAR LROP 241730Z 06003KT CAVOK 13/M02 Q1015 NOSIG",
      "taf": "TAF LROP 241700Z 2418/2518 VRB04KT CAVOK"
    },
    {
      "icao": "LRSB",
      "alert": "OK",
      "vis_m": 9999,
      "fzfg": false,
      "metar_trigger": false,
      "taf_trigger": false,
      "metar": "METAR LRSB 241730Z 24004KT 9999 SCT075 09/03 Q1015",
      "taf": "TAF LRSB 241700Z 2418/2518 VRB04KT CAVOK"
    },
    {
      "icao": "LRSM",
      "alert": "OK",
      "vis_m": 9999,
      "fzfg": false,
      "metar_trigger": false,
      "taf_trigger": false,
      "metar": "METAR LRSM 241730Z AUTO 31007KT 9999 NCD 09/M02 Q1016",
      "taf": "TAF LRSM 241400Z 2415/2424 35007KT CAVOK"
    },
    {
      "icao": "LRSV",
      "alert": "OK",
      "vis_m": 9999,
      "fzfg": false,
      "metar_trigger": false,
      "taf_trigger": false,
      "metar": "METAR LRSV 241730Z 36004KT CAVOK 09/M01 Q1015",
      "taf": "TAF LRSV 241700Z 2418/2503 VRB04KT CAVOK"
    },
    {
      "icao": "LRTM",
      "alert": "OK",
      "vis_m": 9999,
      "fzfg": false,
      "metar_trigger": false,
      "taf_trigger": false,
      "metar": "METAR LRTM 241730Z AUTO 24003KT 9999 NCD 11/M01 Q1015",
      "taf": "TAF LRTM 241400Z 2415/2424 VRB04KT 9999 SCT040"
    },
    {
      "icao": "LRTR",
      "alert": "OK",
      "vis_m": 9999,
      "fzfg": false,
      "metar_trigger": false,
      "taf_trigger": false,
      "metar": "METAR LRTR 241730Z 35006KT CAVOK 08/00 Q1016",
      "taf": "TAF LRTR 241700Z 2418/2518 VRB04KT CAVOK"
    },
    {
      "icao": "LTAC",
      "alert": "OK",
      "vis_m": 9999,
      "fzfg": false,
      "metar_trigger": false,
      "taf_trigger": false,
      "metar": "METAR LTAC 241720Z 09008KT 9999 FEW023 BKN035 09/04 Q1006 NOSIG RMK RWY21C 07007KT RWY03L 09007KT 060V120 RWY21R 07008KT RWY03R 07008KT RWY21L 07007KT",
      "taf": "TAF LTAC 241640Z 2418/2518 03009KT 9999 SCT035 BKN100"
    },
    {
      "icao": "LTFM",
      "alert": "OK",
      "vis_m": 1200,
      "fzfg": false,
      "metar_trigger": false,
      "taf_trigger": false,
      "metar": "METAR LTFM 241720Z 04015KT 1200 0600NW R35R/P1500D R17L/1100N R34L/P1500N R36/0650D -RA BCFG BKN002 BKN020 08/07 Q1011 NOSIG RMK RWY17L 04010KT RWY34L 04013KT RWY16R 04012KT RWY36 04014KT RWY18 05012KT",
      "taf": "TAF LTFM 241640Z 2418/2524 02015KT 3200 BR BKN006 BKN022"
    },
    {
      "icao": "LUKK",
      "alert": "OK",
      "vis_m": 9999,
      "fzfg": false,
      "metar_trigger": false,
      "taf_trigger": false,
      "metar": "METAR LUKK 241730Z 01006KT CAVOK 11/M01 Q1015 NOSIG",
      "taf": "TAF LUKK 241717Z 2418/2518 35006KT CAVOK"
    },
    {
      "icao": "LWOH",
      "alert": "OK",
      "vis_m": 9999,
      "fzfg": false,
      "metar_trigger": false,
      "taf_trigger": false,
      "metar": "METAR LWOH 241750Z 35007KT 300V030 9999 BKN040 09/02 Q1013",
      "taf": "TAF LWOH 241730Z 2418/2518 36010KT 9999 SCT050"
    },
    {
      "icao": "LWSK",
      "alert": "OK",
      "vis_m": 9999,
      "fzfg": false,
      "metar_trigger": false,
      "taf_trigger": false,
      "metar": "METAR LWSK 241750Z 31005KT 280V360 9999 SCT075 10/03 Q1015 NOSIG",
      "taf": "TAF LWSK 241730Z 2418/2518 32010KT CAVOK"
    },
    {
      "icao": "LYBE",
      "alert": "OK",
      "vis_m": 9999,
      "fzfg": false,
      "metar_trigger": false,
      "taf_trigger": false,
      "metar": "METAR LYBE 241730Z 36005KT CAVOK 12/01 Q1016 NOSIG",
      "taf": "TAF LYBE 241700Z 2418/2518 33006KT CAVOK TX18/2513Z TN05/2505Z"
    },
    {
      "icao": "LYNI",
      "alert": "OK",
      "vis_m": 9999,
      "fzfg": false,
      "metar_trigger": false,
      "taf_trigger": false,
      "metar": "METAR LYNI 241730Z 34006KT CAVOK 11/03 Q1016 NOSIG",
      "taf": "TAF LYNI 241700Z 2418/2518 32005KT 9999 SCT070 TX19/2514Z TN04/2505Z"
    },
    {
      "icao": "LYPG",
      "alert": "OK",
      "vis_m": 9999,
      "fzfg": false,
      "metar_trigger": false,
      "taf_trigger": false,
      "metar": "METAR LYPG 241730Z 35013KT 9999 FEW050 16/00 Q1014 TEMPO 02025KT",
      "taf": "TAF LYPG 241700Z 2418/2518 02012KT 9999 FEW050 TX20/2513Z TN06/2505Z"
    },
    {
      "icao": "LZIB",
      "alert": "OK",
      "vis_m": 9999,
      "fzfg": false,
      "metar_trigger": false,
      "taf_trigger": false,
      "metar": "METAR LZIB 241730Z 27005KT CAVOK 14/M01 Q1017 NOSIG",
      "taf": "TAF LZIB 241715Z 2418/2518 32007KT CAVOK"
    },
    {
      "icao": "LZKZ",
      "alert": "OK",
      "vis_m": 9999,
      "fzfg": false,
      "metar_trigger": false,
      "taf_trigger": false,
      "metar": "METAR LZKZ 241730Z 33008KT CAVOK 11/M02 Q1017 NOSIG",
      "taf": "TAF LZKZ 241715Z 2418/2518 01008KT CAVOK"
    },
    {
      "icao": "LZTT",
      "alert": "OK",
      "vis_m": 9999,
      "fzfg": false,
      "metar_trigger": false,
      "taf_trigger": false,
      "metar": "METAR LZTT 241730Z VRB01KT 9999 FEW060 SCT073 06/M02 Q1017 NOSIG",
      "taf": "TAF LZTT 241715Z 2418/2518 22007KT 9999 SCT050"
    },
    {
      "icao": "OEJN",
      "alert": "OK",
      "vis_m": 9999,
      "fzfg": false,
      "metar_trigger": false,
      "taf_trigger": false,
      "metar": "METAR OEJN 241700Z VRB02KT CAVOK 28/18 Q1003 NOSIG",
      "taf": "TAF OEJN 241700Z 2418/2524 19010KT 7000 NSC"
    },
    {
      "icao": "OEMA",
      "alert": "OK",
      "vis_m": 9999,
      "fzfg": false,
      "metar_trigger": false,
      "taf_trigger": false,
      "metar": "METAR OEMA 241700Z 22008KT 9999 FEW040 26/05 Q1006 NOSIG",
      "taf": "TAF OEMA 241700Z 2418/2524 26006KT 7000 SCT045"
    },
    {
      "icao": "OJAI",
      "alert": "OK",
      "vis_m": 5000,
      "fzfg": false,
      "metar_trigger": false,
      "taf_trigger": false,
      "metar": "METAR OJAI 241700Z 29005KT 5000 HZ FEW030 10/05 Q1007 NOSIG",
      "taf": "TAF OJAI 241655Z 2418/2524 25012KT 4000 HZ SCT035"
    },
    {
      "icao": "OMAA",
      "alert": "OK",
      "vis_m": null,
      "fzfg": false,
      "metar_trigger": false,
      "taf_trigger": false,
      "metar": "",
      "taf": ""
    },
    {
      "icao": "OMDB",
      "alert": "OK",
      "vis_m": null,
      "fzfg": false,
      "metar_trigger": false,
      "taf_trigger": false,
      "metar": "",
      "taf": ""
    },
    {
      "icao": "UAAA",
      "alert": "OK",
      "vis_m": 9999,
      "fzfg": false,
      "metar_trigger": false,
      "taf_trigger": false,
      "metar": "METAR UAAA 241730Z 18001MPS 9999 FEW100 06/M01 Q1023 NOSIG",
      "taf": "TAF UAAA 241702Z 2418/2518 18003MPS 9999 FEW050 SCT100 TX17/2509Z TN02/2501Z"
    },
    {
      "icao": "UBBB",
      "alert": "OK",
      "vis_m": 9999,
      "fzfg": false,
      "metar_trigger": false,
      "taf_trigger": false,
      "metar": "METAR UBBB 241730Z 31006KT CAVOK 08/07 Q1009 NOSIG",
      "taf": "TAF UBBB 241700Z 2418/2518 32006KT 3000 BR SCT003 TX14/2510Z TN07/2500Z"
    },
    {
      "icao": "UDSG",
      "alert": "OK",
      "vis_m": 9999,
      "fzfg": false,
      "metar_trigger": false,
      "taf_trigger": false,
      "metar": "METAR UDSG 241730Z 12005KT 9999 BKN049 05/M01 Q1011 NOSIG",
      "taf": "TAF UDSG 241658Z 2418/2518 VRB06KT 9999 BKN050"
    },
    {
      "icao": "UDYZ",
      "alert": "OK",
      "vis_m": 9999,
      "fzfg": false,
      "metar_trigger": false,
      "taf_trigger": false,
      "metar": "METAR UDYZ 241730Z 18003KT 070V210 9999 FEW046 12/02 Q1008 NOSIG",
      "taf": "TAF UDYZ 241700Z 2418/2518 03006KT 9999 SCT040"
    },
    {
      "icao": "UGKO",
      "alert": "OK",
      "vis_m": 9999,
      "fzfg": false,
      "metar_trigger": false,
      "taf_trigger": false,
      "metar": "METAR UGKO 241730Z 29004KT CAVOK 10/07 Q1009 NOSIG",
      "taf": "TAF UGKO 241700Z 2418/2518 26007KT 9999 SCT023 BKN060 TX13/2511Z TN07/2503Z"
    }
  ]
}