{
  "ts_utc": "2026-06-17T00:00:17Z",
  "threshold_m": 150,
  "source": "stations_override.txt (ICAO list) + aviationweather.gov (METAR/TAF raw)",
  "station_count": 159,
  "stations": [
    {
      "icao": "BIKF",
      "alert": "OK",
      "vis_m": 9999,
      "fzfg": false,
      "metar_trigger": false,
      "taf_trigger": false,
      "metar": "METAR BIKF 162330Z 27006KT 9999 R01/P1500N FEW049 BKN250 08/05 Q1008",
      "taf": "TAF BIKF 162206Z 1700/1800 18005KT 9999 BKN020 TX14/1715Z TN07/1700Z"
    },
    {
      "icao": "BKPR",
      "alert": "OK",
      "vis_m": null,
      "fzfg": false,
      "metar_trigger": false,
      "taf_trigger": false,
      "metar": "",
      "taf": "TAF BKPR 162330Z 1700/1724 35008KT CAVOK"
    },
    {
      "icao": "EBCI",
      "alert": "OK",
      "vis_m": 9999,
      "fzfg": false,
      "metar_trigger": false,
      "taf_trigger": false,
      "metar": "METAR EBCI 162350Z 24006KT 9999 FEW030 16/14 Q1019 NOSIG",
      "taf": "TAF EBCI 162313Z 1700/1806 25008KT 9999 FEW030"
    },
    {
      "icao": "EDDB",
      "alert": "OK",
      "vis_m": 9999,
      "fzfg": false,
      "metar_trigger": false,
      "taf_trigger": false,
      "metar": "METAR EDDB 162350Z AUTO 04004KT CAVOK 13/09 Q1015 NOSIG",
      "taf": "TAF EDDB 162300Z 1700/1724 33004KT CAVOK"
    },
    {
      "icao": "EDDH",
      "alert": "OK",
      "vis_m": 9999,
      "fzfg": false,
      "metar_trigger": false,
      "taf_trigger": false,
      "metar": "METAR EDDH 162350Z AUTO 33002KT CAVOK 09/07 Q1017 NOSIG",
      "taf": "TAF EDDH 162300Z 1700/1806 VRB01KT 9999 SCT035"
    },
    {
      "icao": "EDDK",
      "alert": "OK",
      "vis_m": 9999,
      "fzfg": false,
      "metar_trigger": false,
      "taf_trigger": false,
      "metar": "METAR EDDK 162350Z AUTO 11003KT CAVOK 15/14 Q1017 NOSIG",
      "taf": "TAF EDDK 162300Z 1700/1806 VRB03KT CAVOK"
    },
    {
      "icao": "EDDN",
      "alert": "OK",
      "vis_m": 9999,
      "fzfg": false,
      "metar_trigger": false,
      "taf_trigger": false,
      "metar": "METAR EDDN 162350Z AUTO 11006KT CAVOK 15/13 Q1017",
      "taf": "TAF EDDN 162300Z 1700/1724 11005KT CAVOK"
    },
    {
      "icao": "EDDS",
      "alert": "OK",
      "vis_m": 9999,
      "fzfg": false,
      "metar_trigger": false,
      "taf_trigger": false,
      "metar": "METAR EDDS 162350Z AUTO 27005KT CAVOK 17/12 Q1018",
      "taf": "TAF EDDS 162300Z 1700/1724 VRB03KT CAVOK"
    },
    {
      "icao": "EDFH",
      "alert": "OK",
      "vis_m": 9999,
      "fzfg": false,
      "metar_trigger": false,
      "taf_trigger": false,
      "metar": "METAR EDFH 162350Z 27002KT CAVOK 16/13 Q1019",
      "taf": "TAF EDFH 162300Z 1700/1724 VRB03KT CAVOK"
    },
    {
      "icao": "EDJA",
      "alert": "OK",
      "vis_m": 9999,
      "fzfg": false,
      "metar_trigger": false,
      "taf_trigger": false,
      "metar": "METAR EDJA 162350Z AUTO 22007KT 9999 // SCT110/// 17/10 Q1020",
      "taf": "TAF EDJA 161700Z 1618/1703 20007KT CAVOK"
    },
    {
      "icao": "EDLW",
      "alert": "OK",
      "vis_m": 9999,
      "fzfg": false,
      "metar_trigger": false,
      "taf_trigger": false,
      "metar": "METAR EDLW 162350Z AUTO 18003KT 160V220 9999 // BKN033/// 15/13 Q1016",
      "taf": "TAF EDLW 161700Z 1618/1718 27006KT 9999 SCT030"
    },
    {
      "icao": "EDNY",
      "alert": "OK",
      "vis_m": 9999,
      "fzfg": false,
      "metar_trigger": false,
      "taf_trigger": false,
      "metar": "METAR EDNY 162350Z AUTO 00000KT 9999 // BKN120/// 16/13 Q1020",
      "taf": "TAF EDNY 161700Z 1618/1703 VRB03KT CAVOK"
    },
    {
      "icao": "EDSB",
      "alert": "OK",
      "vis_m": 9999,
      "fzfg": false,
      "metar_trigger": false,
      "taf_trigger": false,
      "metar": "METAR EDSB 162350Z AUTO 18004KT 9999 BKN130/// 18/13 Q1018",
      "taf": "TAF EDSB 162300Z 1700/1724 VRB03KT CAVOK"
    },
    {
      "icao": "EETN",
      "alert": "OK",
      "vis_m": 9999,
      "fzfg": false,
      "metar_trigger": false,
      "taf_trigger": false,
      "metar": "METAR EETN 162350Z 27012KT 9999 SCT008 14/13 Q1002",
      "taf": "TAF EETN 162330Z 1700/1724 28012KT 9999 SCT009 BKN050"
    },
    {
      "icao": "EFTU",
      "alert": "OK",
      "vis_m": 9999,
      "fzfg": false,
      "metar_trigger": false,
      "taf_trigger": false,
      "metar": "METAR EFTU 162350Z AUTO 30007KT 9999 SCT009 BKN022 11/09 Q1004",
      "taf": "TAF EFTU 162335Z 1700/1724 32009KT 9999 BKN009"
    },
    {
      "icao": "EGBB",
      "alert": "OK",
      "vis_m": 9999,
      "fzfg": false,
      "metar_trigger": false,
      "taf_trigger": false,
      "metar": "METAR EGBB 162350Z 18006KT 9999 SCT040 17/14 Q1015",
      "taf": "TAF EGBB 162301Z 1700/1724 22009KT 9999 FEW012 SCT020"
    },
    {
      "icao": "EGGP",
      "alert": "OK",
      "vis_m": 9999,
      "fzfg": false,
      "metar_trigger": false,
      "taf_trigger": false,
      "metar": "METAR EGGP 162350Z 17006KT 150V220 9999 FEW046 15/13 Q1012",
      "taf": "TAF EGGP 162258Z 1700/1724 20010KT 9999 SCT020"
    },
    {
      "icao": "EGGW",
      "alert": "OK",
      "vis_m": 9999,
      "fzfg": false,
      "metar_trigger": false,
      "taf_trigger": false,
      "metar": "METAR EGGW 162350Z AUTO 22008KT 9999 NCD 16/14 Q1016",
      "taf": "TAF EGGW 162259Z 1700/1724 23010KT 9999 SCT020"
    },
    {
      "icao": "EGKK",
      "alert": "OK",
      "vis_m": 9999,
      "fzfg": false,
      "metar_trigger": false,
      "taf_trigger": false,
      "metar": "METAR EGKK 162350Z 22004KT 170V270 9999 BKN010 16/15 Q1017",
      "taf": "TAF EGKK 162256Z 1700/1806 22008KT 9999 FEW040"
    },
    {
      "icao": "EGNM",
      "alert": "OK",
      "vis_m": 9999,
      "fzfg": false,
      "metar_trigger": false,
      "taf_trigger": false,
      "metar": "METAR EGNM 162350Z 23010KT 9999 SCT015 16/13 Q1013",
      "taf": "TAF EGNM 162258Z 1700/1724 21009KT 9999 SCT020"
    },
    {
      "icao": "EGPD",
      "alert": "OK",
      "vis_m": 6000,
      "fzfg": false,
      "metar_trigger": false,
      "taf_trigger": false,
      "metar": "METAR EGPD 162350Z AUTO 14004KT 6000 BKN033 12/11 Q1009 TEMPO BKN003",
      "taf": "TAF EGPD 162254Z 1700/1724 16006KT 9999 SCT006"
    },
    {
      "icao": "EGPF",
      "alert": "OK",
      "vis_m": 9999,
      "fzfg": false,
      "metar_trigger": false,
      "taf_trigger": false,
      "metar": "METAR EGPF 162350Z AUTO VRB02KT 9999 OVC012 15/13 Q1009",
      "taf": ""
    },
    {
      "icao": "EHBK",
      "alert": "OK",
      "vis_m": 9999,
      "fzfg": false,
      "metar_trigger": false,
      "taf_trigger": false,
      "metar": "METAR EHBK 162355Z AUTO 25003KT 230V290 9999 FEW031/// 16/14 Q1018",
      "taf": "TAF EHBK 162312Z 1700/1806 VRB02KT CAVOK"
    },
    {
      "icao": "EHEH",
      "alert": "OK",
      "vis_m": 9999,
      "fzfg": false,
      "metar_trigger": false,
      "taf_trigger": false,
      "metar": "METAR EHEH 162325Z AUTO VRB02KT 9999 BKN220 13/13 Q1017 BLU",
      "taf": "TAF EHEH 161712Z 1618/1724 29007KT SCT038"
    },
    {
      "icao": "EKBI",
      "alert": "OK",
      "vis_m": 9999,
      "fzfg": false,
      "metar_trigger": false,
      "taf_trigger": false,
      "metar": "METAR EKBI 162350Z AUTO 27005KT 9999 OVC024/// 10/07 Q1016",
      "taf": "TAF EKBI 162327Z 1700/1724 25006KT 9999 BKN025"
    },
    {
      "icao": "EKCH",
      "alert": "OK",
      "vis_m": 9999,
      "fzfg": false,
      "metar_trigger": false,
      "taf_trigger": false,
      "metar": "METAR EKCH 162350Z AUTO 27005KT 9999 OVC033/// 12/07 Q1015 NOSIG",
      "taf": "TAF EKCH 162327Z 1700/1724 28008KT 9999 BKN030"
    },
    {
      "icao": "ENAL",
      "alert": "OK",
      "vis_m": 9999,
      "fzfg": false,
      "metar_trigger": false,
      "taf_trigger": false,
      "metar": "METAR ENAL 162350Z AUTO 06010KT 9999 NCD 10/08 Q1013",
      "taf": "TAF ENAL 162300Z 1700/1709 04012KT CAVOK"
    },
    {
      "icao": "ENBR",
      "alert": "OK",
      "vis_m": 9999,
      "fzfg": false,
      "metar_trigger": false,
      "taf_trigger": false,
      "metar": "METAR ENBR 162350Z 33003KT CAVOK 08/07 Q1013 RMK WIND 1200FT /////KT",
      "taf": "TAF ENBR 162300Z 1700/1724 31005KT CAVOK"
    },
    {
      "icao": "ENGM",
      "alert": "OK",
      "vis_m": 9999,
      "fzfg": false,
      "metar_trigger": false,
      "taf_trigger": false,
      "metar": "METAR ENGM 162350Z VRB01KT CAVOK 14/09 Q1011",
      "taf": "TAF ENGM 162300Z 1700/1724 VRB03KT CAVOK"
    },
    {
      "icao": "ENHD",
      "alert": "OK",
      "vis_m": 9999,
      "fzfg": false,
      "metar_trigger": false,
      "taf_trigger": false,
      "metar": "METAR ENHD 162350Z AUTO 31005KT 280V340 9999 SCT019/// 09/06 Q1014",
      "taf": "TAF ENHD 161400Z 1615/1622 33015KT 9999 FEW018"
    },
    {
      "icao": "ENTC",
      "alert": "OK",
      "vis_m": 9999,
      "fzfg": false,
      "metar_trigger": false,
      "taf_trigger": false,
      "metar": "METAR ENTC 162350Z 01009KT 9999 BKN020 OVC026 08/05 Q1011 RMK WIND 2600FT VRB02KT",
      "taf": "TAF ENTC 162300Z 1700/1724 01009KT 9999 BKN020"
    },
    {
      "icao": "ENTO",
      "alert": "OK",
      "vis_m": 3900,
      "fzfg": false,
      "metar_trigger": false,
      "taf_trigger": false,
      "metar": "METAR ENTO 162350Z AUTO 00000KT 3900 // NCD 10/10 Q1011",
      "taf": "TAF ENTO 162300Z 1700/1724 VRB03KT 9999 FEW010"
    },
    {
      "icao": "ENVA",
      "alert": "OK",
      "vis_m": 9999,
      "fzfg": false,
      "metar_trigger": false,
      "taf_trigger": false,
      "metar": "METAR ENVA 162350Z 23010KT 9999 SCT021 10/07 Q1014 RMK WIND 670FT 26011KT",
      "taf": "TAF ENVA 162300Z 1700/1724 27012KT 9999 FEW020 SCT030 BKN050"
    },
    {
      "icao": "ENZV",
      "alert": "OK",
      "vis_m": 9999,
      "fzfg": false,
      "metar_trigger": false,
      "taf_trigger": false,
      "metar": "METAR ENZV 162350Z AUTO 33004KT 9999 FEW018/// 10/07 Q1014",
      "taf": "TAF ENZV 162300Z 1700/1724 32005KT 9999 SCT018"
    },
    {
      "icao": "EPGD",
      "alert": "OK",
      "vis_m": 9999,
      "fzfg": false,
      "metar_trigger": false,
      "taf_trigger": false,
      "metar": "METAR EPGD 162330Z 25006KT CAVOK 09/06 Q1013",
      "taf": "TAF EPGD 162330Z 1700/1724 26006KT CAVOK"
    },
    {
      "icao": "EPKK",
      "alert": "OK",
      "vis_m": 9999,
      "fzfg": false,
      "metar_trigger": false,
      "taf_trigger": false,
      "metar": "METAR EPKK 162330Z 22003KT 200V260 9999 SCT053 15/12 Q1015",
      "taf": "TAF EPKK 162330Z 1700/1724 22005KT CAVOK"
    },
    {
      "icao": "EPKT",
      "alert": "OK",
      "vis_m": 9999,
      "fzfg": false,
      "metar_trigger": false,
      "taf_trigger": false,
      "metar": "METAR EPKT 162330Z 26004KT 9999 -SHRA SCT045CB 13/13 Q1016 RESHRA",
      "taf": "TAF EPKT 162330Z 1700/1724 23005KT CAVOK"
    },
    {
      "icao": "EPLB",
      "alert": "OK",
      "vis_m": 9999,
      "fzfg": false,
      "metar_trigger": false,
      "taf_trigger": false,
      "metar": "METAR EPLB 162330Z 00000KT CAVOK 09/08 Q1014",
      "taf": "TAF EPLB 162330Z 1700/1724 VRB02KT CAVOK"
    },
    {
      "icao": "EPMO",
      "alert": "OK",
      "vis_m": 9999,
      "fzfg": false,
      "metar_trigger": false,
      "taf_trigger": false,
      "metar": "METAR EPMO 162330Z 25007KT CAVOK 10/07 Q1014",
      "taf": "TAF EPMO 162330Z 1700/1724 25005KT CAVOK"
    },
    {
      "icao": "EPPO",
      "alert": "OK",
      "vis_m": 9999,
      "fzfg": false,
      "metar_trigger": false,
      "taf_trigger": false,
      "metar": "METAR EPPO 162330Z 35001KT CAVOK 09/08 Q1015",
      "taf": "TAF EPPO 162330Z 1700/1724 VRB02KT CAVOK"
    },
    {
      "icao": "EPRA",
      "alert": "OK",
      "vis_m": 9999,
      "fzfg": false,
      "metar_trigger": false,
      "taf_trigger": false,
      "metar": "METAR EPRA 162330Z VRB02KT CAVOK 11/07 Q1014",
      "taf": "TAF EPRA 162330Z 1700/1709 26005KT CAVOK"
    },
    {
      "icao": "EPRZ",
      "alert": "OK",
      "vis_m": 9999,
      "fzfg": false,
      "metar_trigger": false,
      "taf_trigger": false,
      "metar": "METAR EPRZ 162330Z 24003KT CAVOK 13/08 Q1015",
      "taf": "TAF EPRZ 162330Z 1700/1724 25004KT CAVOK"
    },
    {
      "icao": "EPSC",
      "alert": "OK",
      "vis_m": 9999,
      "fzfg": false,
      "metar_trigger": false,
      "taf_trigger": false,
      "metar": "METAR EPSC 162330Z 14002KT CAVOK 06/06 Q1015",
      "taf": "TAF EPSC 162330Z 1700/1724 VRB02KT CAVOK"
    },
    {
      "icao": "EPSY",
      "alert": "OK",
      "vis_m": 9999,
      "fzfg": false,
      "metar_trigger": false,
      "taf_trigger": false,
      "metar": "METAR EPSY 162330Z 28003KT 9999 BKN045 11/10 Q1013",
      "taf": "TAF EPSY 162330Z 1700/1709 27005KT 9999 BKN030"
    },
    {
      "icao": "EPWA",
      "alert": "OK",
      "vis_m": 9999,
      "fzfg": false,
      "metar_trigger": false,
      "taf_trigger": false,
      "metar": "METAR EPWA 162330Z 24003KT 200V260 CAVOK 10/09 Q1014 NOSIG",
      "taf": "TAF EPWA 162330Z 1700/1724 VRB02KT CAVOK"
    },
    {
      "icao": "EPWR",
      "alert": "OK",
      "vis_m": 9999,
      "fzfg": false,
      "metar_trigger": false,
      "taf_trigger": false,
      "metar": "METAR EPWR 162330Z 23005KT CAVOK 15/15 Q1015",
      "taf": "TAF EPWR 162330Z 1700/1724 22005KT CAVOK"
    },
    {
      "icao": "ESGG",
      "alert": "OK",
      "vis_m": 9999,
      "fzfg": false,
      "metar_trigger": false,
      "taf_trigger": false,
      "metar": "METAR ESGG 162350Z 22004KT CAVOK 09/07 Q1013",
      "taf": "TAF ESGG 162330Z 1700/1724 20005KT CAVOK"
    },
    {
      "icao": "ESKN",
      "alert": "OK",
      "vis_m": 9999,
      "fzfg": false,
      "metar_trigger": false,
      "taf_trigger": false,
      "metar": "METAR ESKN 162350Z 33002KT CAVOK 12/12 Q1010",
      "taf": "TAF ESKN 162330Z 1700/1724 29004KT CAVOK"
    },
    {
      "icao": "ESMS",
      "alert": "OK",
      "vis_m": 9999,
      "fzfg": false,
      "metar_trigger": false,
      "taf_trigger": false,
      "metar": "METAR ESMS 162350Z 28005KT CAVOK 10/07 Q1014",
      "taf": "TAF ESMS 162327Z 1700/1724 27005KT 9999 BKN030"
    },
    {
      "icao": "ESSA",
      "alert": "OK",
      "vis_m": 9999,
      "fzfg": false,
      "metar_trigger": false,
      "taf_trigger": false,
      "metar": "METAR ESSA 162350Z 27006KT CAVOK 11/09 Q1008 NOSIG",
      "taf": "TAF ESSA 162330Z 1700/1724 28007KT 9999 SCT040"
    },
    {
      "icao": "EYKA",
      "alert": "OK",
      "vis_m": 9999,
      "fzfg": false,
      "metar_trigger": false,
      "taf_trigger": false,
      "metar": "METAR EYKA 162350Z AUTO 28011KT 9999 -SHRA OVC016/// 12/11 Q1009",
      "taf": "TAF EYKA 162300Z 1700/1724 26010KT 9000 BKN010 OVC015"
    },
    {
      "icao": "EYPA",
      "alert": "OK",
      "vis_m": 9999,
      "fzfg": false,
      "metar_trigger": false,
      "taf_trigger": false,
      "metar": "METAR EYPA 162350Z VRB04KT 9999 OVC046 14/12 Q1009",
      "taf": "TAF EYPA 162300Z 1700/1724 VRB03KT 9000 SCT010 BKN020"
    },
    {
      "icao": "EYVI",
      "alert": "OK",
      "vis_m": 9999,
      "fzfg": false,
      "metar_trigger": false,
      "taf_trigger": false,
      "metar": "METAR EYVI 162350Z 28012KT 250V310 9999 BKN011 OVC015 12/11 Q1009 NOSIG",
      "taf": "TAF EYVI 162300Z 1700/1724 26010KT 9000 OVC010"
    },
    {
      "icao": "GCFV",
      "alert": "OK",
      "vis_m": 9999,
      "fzfg": false,
      "metar_trigger": false,
      "taf_trigger": false,
      "metar": "METAR GCFV 162330Z AUTO 36012KT 9999 OVC030 22/15 Q1019",
      "taf": "TAF GCFV 162000Z 1621/1721 36013KT 9999 SCT025 TX27/1714Z TN21/1706Z"
    },
    {
      "icao": "GCLP",
      "alert": "OK",
      "vis_m": 9999,
      "fzfg": false,
      "metar_trigger": false,
      "taf_trigger": false,
      "metar": "METAR GCLP 162330Z 36018KT 9999 FEW025 21/15 Q1019 NOSIG",
      "taf": "TAF GCLP 162000Z 1621/1721 36018KT 9999 BKN025 TX26/1714Z TN19/1706Z"
    },
    {
      "icao": "GCTS",
      "alert": "OK",
      "vis_m": 9999,
      "fzfg": false,
      "metar_trigger": false,
      "taf_trigger": false,
      "metar": "METAR GCTS 162330Z VRB02KT 9999 SCT030 21/16 Q1020 NOSIG",
      "taf": "TAF GCTS 162000Z 1621/1721 06010KT 9999 SCT025 TX24/1714Z TN19/1706Z"
    },
    {
      "icao": "GMAD",
      "alert": "OK",
      "vis_m": 9999,
      "fzfg": false,
      "metar_trigger": false,
      "taf_trigger": false,
      "metar": "METAR GMAD 162330Z 21004KT 180V240 9999 OVC013 20/16 Q1016 NOSIG",
      "taf": "TAF GMAD 162300Z 1700/1806 20008KT 8000 OVC013"
    },
    {
      "icao": "GMMN",
      "alert": "OK",
      "vis_m": 9999,
      "fzfg": false,
      "metar_trigger": false,
      "taf_trigger": false,
      "metar": "METAR GMMN 162330Z 36006KT 330V050 9999 SCT015 20/16 Q1016 NOSIG",
      "taf": "TAF GMMN 162300Z 1700/1806 36006KT 9999 SCT015"
    },
    {
      "icao": "GMMX",
      "alert": "OK",
      "vis_m": 9999,
      "fzfg": false,
      "metar_trigger": false,
      "taf_trigger": false,
      "metar": "METAR GMMX 162330Z 24007KT 9999 SCT026 22/14 Q1016 NOSIG",
      "taf": "TAF GMMX 162300Z 1700/1806 06006KT 8000 SCT026"
    },
    {
      "icao": "HEGN",
      "alert": "OK",
      "vis_m": 9999,
      "fzfg": false,
      "metar_trigger": false,
      "taf_trigger": false,
      "metar": "METAR HEGN 162300Z 29009KT CAVOK 29/07 Q1010 NOSIG",
      "taf": "TAF HEGN 162300Z 1700/1806 30012KT CAVOK"
    },
    {
      "icao": "HEMA",
      "alert": "OK",
      "vis_m": 9999,
      "fzfg": false,
      "metar_trigger": false,
      "taf_trigger": false,
      "metar": "METAR HEMA 162300Z 24005KT CAVOK 28/09 Q1010 NOSIG",
      "taf": "TAF HEMA 162300Z 1700/1806 26012KT CAVOK"
    },
    {
      "icao": "HESH",
      "alert": "OK",
      "vis_m": 9999,
      "fzfg": false,
      "metar_trigger": false,
      "taf_trigger": false,
      "metar": "METAR HESH 162300Z 00000KT CAVOK 29/17 Q1010 NOSIG",
      "taf": "TAF HESH 162300Z 1700/1806 33010KT CAVOK"
    },
    {
      "icao": "HESX",
      "alert": "OK",
      "vis_m": 9999,
      "fzfg": false,
      "metar_trigger": false,
      "taf_trigger": false,
      "metar": "METAR HESX 162300Z 04008KT CAVOK 23/17 Q1016 NOSIG",
      "taf": "TAF HESX 162300Z 1700/1806 03010KT CAVOK"
    },
    {
      "icao": "LATI",
      "alert": "OK",
      "vis_m": 9999,
      "fzfg": false,
      "metar_trigger": false,
      "taf_trigger": false,
      "metar": "METAR LATI 162350Z 16003KT CAVOK 19/14 Q1017 NOSIG",
      "taf": "TAF LATI 162300Z 1700/1724 VRB05KT CAVOK TX31/1712Z TN16/1704Z"
    },
    {
      "icao": "LBPD",
      "alert": "OK",
      "vis_m": 9999,
      "fzfg": false,
      "metar_trigger": false,
      "taf_trigger": false,
      "metar": "METAR LBPD 162330Z AUTO 23003KT 200V260 9999 FEW240/// 18/15 Q1019",
      "taf": "TAF LBPD 162300Z 1700/1724 VRB03KT 9999 SCT070"
    },
    {
      "icao": "LBSF",
      "alert": "OK",
      "vis_m": 9999,
      "fzfg": false,
      "metar_trigger": false,
      "taf_trigger": false,
      "metar": "METAR LBSF 162330Z AUTO VRB02KT 9999 NCD 15/11 Q1021 NOSIG",
      "taf": "TAF LBSF 162300Z 1700/1724 VRB03KT 9999 SCT070"
    },
    {
      "icao": "LBWN",
      "alert": "OK",
      "vis_m": 9999,
      "fzfg": false,
      "metar_trigger": false,
      "taf_trigger": false,
      "metar": "METAR LBWN 162330Z AUTO 01004KT 9999 NCD 16/16 Q1019 TEMPO 5000 BR",
      "taf": "TAF LBWN 162300Z 1700/1724 VRB04KT 5000 BR NSC"
    },
    {
      "icao": "LCLK",
      "alert": "OK",
      "vis_m": 9999,
      "fzfg": false,
      "metar_trigger": false,
      "taf_trigger": false,
      "metar": "METAR LCLK 162330Z 29004KT 240V340 CAVOK 22/18 Q1012 NOSIG",
      "taf": "TAF LCLK 162330Z 1700/1800 32006KT 9999 FEW020"
    },
    {
      "icao": "LCPH",
      "alert": "OK",
      "vis_m": 9999,
      "fzfg": false,
      "metar_trigger": false,
      "taf_trigger": false,
      "metar": "METAR LCPH 162330Z 01004KT CAVOK 23/15 Q1013 NOSIG",
      "taf": "TAF LCPH 162330Z 1700/1800 01008KT 9999 FEW025"
    },
    {
      "icao": "LEAL",
      "alert": "OK",
      "vis_m": 9999,
      "fzfg": false,
      "metar_trigger": false,
      "taf_trigger": false,
      "metar": "METAR LEAL 162330Z VRB02KT CAVOK 23/17 Q1019 NOSIG",
      "taf": "TAF LEAL 162300Z 1700/1724 34004KT 9999 FEW020 TX29/1712Z TN21/1705Z"
    },
    {
      "icao": "LEBB",
      "alert": "OK",
      "vis_m": 9999,
      "fzfg": false,
      "metar_trigger": false,
      "taf_trigger": false,
      "metar": "METAR LEBB 162330Z AUTO 08003KT 9999 BKN016 19/17 Q1020",
      "taf": "TAF LEBB 162300Z 1700/1724 VRB03KT CAVOK TX27/1711Z TN16/1704Z"
    },
    {
      "icao": "LEBL",
      "alert": "OK",
      "vis_m": 9999,
      "fzfg": false,
      "metar_trigger": false,
      "taf_trigger": false,
      "metar": "METAR LEBL 162330Z 31005KT 260V340 CAVOK 22/13 Q1019 NOSIG",
      "taf": "TAF LEBL 162300Z 1700/1724 35005KT CAVOK TX30/1712Z TN21/1706Z"
    },
    {
      "icao": "LECH",
      "alert": "OK",
      "vis_m": 9000,
      "fzfg": false,
      "metar_trigger": false,
      "taf_trigger": false,
      "metar": "METAR LECH 162330Z AUTO 19003KT 9000 NCD 21/15 Q1021",
      "taf": "TAF LECH 162300Z 1700/1724 VRB04KT 9999 FEW025 TX33/1713Z TN16/1705Z"
    },
    {
      "icao": "LEMD",
      "alert": "OK",
      "vis_m": 9999,
      "fzfg": false,
      "metar_trigger": false,
      "taf_trigger": false,
      "metar": "METAR LEMD 162330Z VRB01KT 9999 FEW060 24/11 Q1020 NOSIG",
      "taf": "TAF LEMD 162300Z 1700/1806 VRB05KT CAVOK TX36/1716Z TN17/1705Z"
    },
    {
      "icao": "LEMG",
      "alert": "OK",
      "vis_m": 9999,
      "fzfg": false,
      "metar_trigger": false,
      "taf_trigger": false,
      "metar": "METAR LEMG 162330Z 00000KT CAVOK 22/19 Q1018 NOSIG",
      "taf": "TAF LEMG 162300Z 1700/1724 12005KT CAVOK TX29/1714Z TN20/1706Z"
    },
    {
      "icao": "LEVC",
      "alert": "OK",
      "vis_m": 9999,
      "fzfg": false,
      "metar_trigger": false,
      "taf_trigger": false,
      "metar": "METAR LEVC 162330Z 28003KT CAVOK 22/18 Q1020 NOSIG",
      "taf": "TAF LEVC 162300Z 1700/1724 VRB04KT 9999 FEW025 TX32/1712Z TN19/1705Z"
    },
    {
      "icao": "LEXJ",
      "alert": "OK",
      "vis_m": 9999,
      "fzfg": false,
      "metar_trigger": false,
      "taf_trigger": false,
      "metar": "METAR LEXJ 162330Z AUTO 09003KT 020V140 9999 OVC014 19/16 Q1020",
      "taf": "TAF LEXJ 162000Z 1621/1721 04009KT 9999 FEW030 TX23/1715Z TN17/1705Z"
    },
    {
      "icao": "LEZG",
      "alert": "OK",
      "vis_m": 9999,
      "fzfg": false,
      "metar_trigger": false,
      "taf_trigger": false,
      "metar": "METAR LEZG 162330Z 06005KT CAVOK 26/11 Q1018 NOSIG",
      "taf": "TAF LEZG 162300Z 1700/1724 10006KT 9999 FEW060 TX35/1714Z TN21/1705Z"
    },
    {
      "icao": "LEZL",
      "alert": "OK",
      "vis_m": 9999,
      "fzfg": false,
      "metar_trigger": false,
      "taf_trigger": false,
      "metar": "METAR LEZL 162330Z AUTO 20005KT 140V230 CAVOK 27/19 Q1015",
      "taf": "TAF LEZL 162000Z 1621/1721 23010KT CAVOK TX37/1715Z TN21/1706Z"
    },
    {
      "icao": "LFBD",
      "alert": "OK",
      "vis_m": 9999,
      "fzfg": false,
      "metar_trigger": false,
      "taf_trigger": false,
      "metar": "METAR LFBD 162330Z AUTO 02004KT CAVOK 18/15 Q1020 NOSIG",
      "taf": "TAF LFBD 162300Z 1700/1806 01005KT CAVOK TX35/1716Z TN17/1704Z"
    },
    {
      "icao": "LFLL",
      "alert": "OK",
      "vis_m": 9999,
      "fzfg": false,
      "metar_trigger": false,
      "taf_trigger": false,
      "metar": "METAR LFLL 162330Z 16002KT CAVOK 21/13 Q1019 NOSIG",
      "taf": "TAF LFLL 162300Z 1700/1806 VRB04KT CAVOK"
    },
    {
      "icao": "LFLS",
      "alert": "OK",
      "vis_m": 9999,
      "fzfg": false,
      "metar_trigger": false,
      "taf_trigger": false,
      "metar": "METAR LFLS 162330Z AUTO 07003KT CAVOK 15/12 Q1020",
      "taf": "TAF LFLS 161400Z 1615/1715 VRB03KT CAVOK"
    },
    {
      "icao": "LFMN",
      "alert": "OK",
      "vis_m": 9999,
      "fzfg": false,
      "metar_trigger": false,
      "taf_trigger": false,
      "metar": "METAR LFMN 162330Z 02004KT 350V050 CAVOK 22/17 Q1018 NOSIG",
      "taf": "TAF LFMN 162000Z 1621/1803 VRB03KT CAVOK"
    },
    {
      "icao": "LFOB",
      "alert": "OK",
      "vis_m": 9999,
      "fzfg": false,
      "metar_trigger": false,
      "taf_trigger": false,
      "metar": "METAR LFOB 162330Z AUTO 29002KT CAVOK 13/13 Q1019 NOSIG",
      "taf": "TAF LFOB 162300Z 1700/1724 VRB03KT CAVOK"
    },
    {
      "icao": "LFPO",
      "alert": "OK",
      "vis_m": 9999,
      "fzfg": false,
      "metar_trigger": false,
      "taf_trigger": false,
      "metar": "METAR LFPO 162330Z AUTO 32004KT CAVOK 20/14 Q1019 NOSIG",
      "taf": "TAF LFPO 162300Z 1700/1806 34005KT CAVOK"
    },
    {
      "icao": "LFSB",
      "alert": "OK",
      "vis_m": 9999,
      "fzfg": false,
      "metar_trigger": false,
      "taf_trigger": false,
      "metar": "METAR LFSB 162330Z AUTO 00000KT CAVOK 19/14 Q1019 NOSIG",
      "taf": "TAF LFSB 162300Z 1700/1724 VRB03KT CAVOK"
    },
    {
      "icao": "LGAV",
      "alert": "OK",
      "vis_m": 9999,
      "fzfg": false,
      "metar_trigger": false,
      "taf_trigger": false,
      "metar": "METAR LGAV 162350Z 27002KT 9999 FEW025 20/13 Q1016 NOSIG",
      "taf": "TAF LGAV 162300Z 1700/1724 VRB03KT 9999 FEW025"
    },
    {
      "icao": "LGTS",
      "alert": "OK",
      "vis_m": 9999,
      "fzfg": false,
      "metar_trigger": false,
      "taf_trigger": false,
      "metar": "METAR LGTS 162350Z 31007KT 9999 FEW020TCU SCT030 25/19 Q1018 NOSIG",
      "taf": ""
    },
    {
      "icao": "LHBP",
      "alert": "OK",
      "vis_m": 9999,
      "fzfg": false,
      "metar_trigger": false,
      "taf_trigger": false,
      "metar": "METAR LHBP 162330Z 26006KT CAVOK 21/12 Q1018 NOSIG",
      "taf": "TAF LHBP 162315Z 1700/1724 22006KT CAVOK"
    },
    {
      "icao": "LHDC",
      "alert": "OK",
      "vis_m": 9999,
      "fzfg": false,
      "metar_trigger": false,
      "taf_trigger": false,
      "metar": "METAR LHDC 162315Z AUTO VRB02KT CAVOK 14/06 Q1017",
      "taf": "TAF LHDC 161715Z 1618/1703 25012KT CAVOK"
    },
    {
      "icao": "LIBD",
      "alert": "OK",
      "vis_m": 8000,
      "fzfg": false,
      "metar_trigger": false,
      "taf_trigger": false,
      "metar": "METAR LIBD 162350Z 23004KT 8000 FEW007 20/20 Q1017",
      "taf": "TAF LIBD 162300Z 1700/1724 VRB05KT CAVOK"
    },
    {
      "icao": "LIBG",
      "alert": "OK",
      "vis_m": 9999,
      "fzfg": false,
      "metar_trigger": false,
      "taf_trigger": false,
      "metar": "METAR LIBG 162350Z AUTO 25002KT 9999 NCD 21/18 Q1017",
      "taf": "TAF LIBG 162300Z 1700/1724 VRB05KT CAVOK"
    },
    {
      "icao": "LIBP",
      "alert": "OK",
      "vis_m": 9999,
      "fzfg": false,
      "metar_trigger": false,
      "taf_trigger": false,
      "metar": "METAR LIBP 162350Z AUTO 19002KT 9999 NCD 19/17 Q1018",
      "taf": "TAF LIBP 162300Z 1700/1724 VRB05KT 9999 FEW030"
    },
    {
      "icao": "LIBR",
      "alert": "OK",
      "vis_m": 9999,
      "fzfg": false,
      "metar_trigger": false,
      "taf_trigger": false,
      "metar": "METAR LIBR 162350Z 36005KT 9999 SCT003 22/22 Q1017",
      "taf": "TAF LIBR 162300Z 1700/1724 VRB05KT CAVOK"
    },
    {
      "icao": "LICA",
      "alert": "OK",
      "vis_m": 9999,
      "fzfg": false,
      "metar_trigger": false,
      "taf_trigger": false,
      "metar": "METAR LICA 162350Z AUTO 08004KT 9999 BKN017/// 20/18 Q1018",
      "taf": "TAF LICA 162300Z 1700/1724 VRB05KT 9999 SCT030"
    },
    {
      "icao": "LICC",
      "alert": "OK",
      "vis_m": 9999,
      "fzfg": false,
      "metar_trigger": false,
      "taf_trigger": false,
      "metar": "METAR LICC 162350Z 29004KT CAVOK 20/13 Q1017",
      "taf": "TAF LICC 162300Z 1700/1724 25006KT 9999 FEW040"
    },
    {
      "icao": "LICJ",
      "alert": "OK",
      "vis_m": 9999,
      "fzfg": false,
      "metar_trigger": false,
      "taf_trigger": false,
      "metar": "METAR LICJ 162350Z 18002KT CAVOK 22/20 Q1018",
      "taf": "TAF LICJ 162300Z 1700/1724 VRB05KT 9999 FEW020"
    },
    {
      "icao": "LIMC",
      "alert": "OK",
      "vis_m": 9999,
      "fzfg": false,
      "metar_trigger": false,
      "taf_trigger": false,
      "metar": "METAR LIMC 162350Z 03006KT CAVOK 20/15 Q1019 NOSIG",
      "taf": "TAF LIMC 162300Z 1700/1806 VRB05KT CAVOK"
    },
    {
      "icao": "LIME",
      "alert": "OK",
      "vis_m": 9999,
      "fzfg": false,
      "metar_trigger": false,
      "taf_trigger": false,
      "metar": "METAR LIME 162350Z 36003KT CAVOK 22/16 Q1019 NOSIG",
      "taf": "TAF LIME 162300Z 1700/1724 VRB06KT CAVOK"
    },
    {
      "icao": "LIMF",
      "alert": "OK",
      "vis_m": 9999,
      "fzfg": false,
      "metar_trigger": false,
      "taf_trigger": false,
      "metar": "METAR LIMF 162350Z 32004KT CAVOK 23/15 Q1019",
      "taf": "TAF LIMF 162300Z 1700/1724 VRB05KT CAVOK"
    },
    {
      "icao": "LIMJ",
      "alert": "OK",
      "vis_m": 9999,
      "fzfg": false,
      "metar_trigger": false,
      "taf_trigger": false,
      "metar": "METAR LIMJ 162350Z 05003KT 010V080 CAVOK 22/18 Q1018",
      "taf": "TAF LIMJ 162300Z 1700/1724 VRB05KT CAVOK"
    },
    {
      "icao": "LIPE",
      "alert": "OK",
      "vis_m": 9999,
      "fzfg": false,
      "metar_trigger": false,
      "taf_trigger": false,
      "metar": "METAR LIPE 162350Z 20005KT 9999 FEW074 24/16 Q1018",
      "taf": "TAF LIPE 162300Z 1700/1724 VRB05KT 9999 FEW018"
    },
    {
      "icao": "LIPH",
      "alert": "OK",
      "vis_m": 9999,
      "fzfg": false,
      "metar_trigger": false,
      "taf_trigger": false,
      "metar": "METAR LIPH 162350Z AUTO 36003KT 9999 NCD 20/17 Q1019",
      "taf": "TAF LIPH 162300Z 1700/1724 VRB05KT 9999 SCT045"
    },
    {
      "icao": "LIPQ",
      "alert": "OK",
      "vis_m": null,
      "fzfg": false,
      "metar_trigger": false,
      "taf_trigger": false,
      "metar": "METAR LIPQ 162350Z AUTO VRB02KT //// // NCD 18/16 Q1019",
      "taf": "TAF LIPQ 162300Z 1700/1724 VRB05KT 9999 FEW050"
    },
    {
      "icao": "LIPR",
      "alert": "OK",
      "vis_m": 9999,
      "fzfg": false,
      "metar_trigger": false,
      "taf_trigger": false,
      "metar": "METAR LIPR 162350Z AUTO 23002KT 9999 NCD 20/19 Q1018",
      "taf": "TAF LIPR 162300Z 1700/1724 VRB05KT CAVOK"
    },
    {
      "icao": "LIPX",
      "alert": "OK",
      "vis_m": 9999,
      "fzfg": false,
      "metar_trigger": false,
      "taf_trigger": false,
      "metar": "METAR LIPX 162350Z 09007KT 060V120 CAVOK 23/17 Q1018",
      "taf": "TAF LIPX 162300Z 1700/1724 VRB05KT 9999 FEW030"
    },
    {
      "icao": "LIPY",
      "alert": "OK",
      "vis_m": 9999,
      "fzfg": false,
      "metar_trigger": false,
      "taf_trigger": false,
      "metar": "METAR LIPY 162350Z AUTO 19003KT 9999 NCD 20/18 Q1018",
      "taf": "TAF LIPY 162300Z 1700/1724 VRB05KT CAVOK"
    },
    {
      "icao": "LIPZ",
      "alert": "OK",
      "vis_m": 9999,
      "fzfg": false,
      "metar_trigger": false,
      "taf_trigger": false,
      "metar": "METAR LIPZ 162350Z 15007KT CAVOK 22/18 Q1019 NOSIG",
      "taf": "TAF LIPZ 162300Z 1700/1806 VRB05KT 9999 FEW045"
    },
    {
      "icao": "LIRF",
      "alert": "OK",
      "vis_m": 9999,
      "fzfg": false,
      "metar_trigger": false,
      "taf_trigger": false,
      "metar": "METAR LIRF 162350Z 27003KT 240V310 CAVOK 20/20 Q1018 NOSIG",
      "taf": "TAF LIRF 162300Z 1700/1806 VRB05KT CAVOK"
    },
    {
      "icao": "LIRN",
      "alert": "OK",
      "vis_m": 9999,
      "fzfg": false,
      "metar_trigger": false,
      "taf_trigger": false,
      "metar": "METAR LIRN 162350Z VRB02KT CAVOK 23/20 Q1018 NOSIG",
      "taf": "TAF LIRN 162300Z 1700/1724 VRB05KT CAVOK"
    },
    {
      "icao": "LIRP",
      "alert": "OK",
      "vis_m": 9999,
      "fzfg": false,
      "metar_trigger": false,
      "taf_trigger": false,
      "metar": "METAR LIRP 162345Z 18003KT CAVOK 18/16 Q1018 NOSIG",
      "taf": "TAF LIRP 162300Z 1700/1724 VRB03KT CAVOK"
    },
    {
      "icao": "LIRZ",
      "alert": "OK",
      "vis_m": 9999,
      "fzfg": false,
      "metar_trigger": false,
      "taf_trigger": false,
      "metar": "METAR LIRZ 162350Z AUTO 36006KT 9999 NCD 20/17 Q1019",
      "taf": "TAF LIRZ 162300Z 1700/1724 VRB05KT 9999 FEW035"
    },
    {
      "icao": "LJLJ",
      "alert": "OK",
      "vis_m": 9999,
      "fzfg": false,
      "metar_trigger": false,
      "taf_trigger": false,
      "metar": "METAR LJLJ 162330Z 32004KT 290V040 9999 FEW040 SCT120 16/15 Q1021 NOSIG",
      "taf": "TAF LJLJ 162300Z 1700/1800 30004KT 9999 FEW040"
    },
    {
      "icao": "LKMT",
      "alert": "OK",
      "vis_m": 9999,
      "fzfg": false,
      "metar_trigger": false,
      "taf_trigger": false,
      "metar": "METAR LKMT 162330Z 23009KT 9999 FEW045 16/12 Q1016 NOSIG",
      "taf": "TAF LKMT 162300Z 1700/1724 23008KT CAVOK"
    },
    {
      "icao": "LKPR",
      "alert": "OK",
      "vis_m": 9999,
      "fzfg": false,
      "metar_trigger": false,
      "taf_trigger": false,
      "metar": "METAR LKPR 162330Z 22007KT CAVOK 15/14 Q1017 NOSIG",
      "taf": "TAF LKPR 162300Z 1700/1806 25008KT CAVOK"
    },
    {
      "icao": "LLBG",
      "alert": "OK",
      "vis_m": 9999,
      "fzfg": false,
      "metar_trigger": false,
      "taf_trigger": false,
      "metar": "METAR LLBG 162350Z VRB03KT 9999 BKN020 24/20 Q1013 NOSIG",
      "taf": "TAF LLBG 162313Z 1700/1724 VRB04KT 9999 SCT020 TX30/1711Z TN22/1703Z"
    },
    {
      "icao": "LMML",
      "alert": "OK",
      "vis_m": 9999,
      "fzfg": false,
      "metar_trigger": false,
      "taf_trigger": false,
      "metar": "METAR LMML 162345Z 21003KT CAVOK 22/20 Q1017 NOSIG",
      "taf": "TAF LMML 162300Z 1700/1724 29006KT 9999 FEW015"
    },
    {
      "icao": "LOWW",
      "alert": "OK",
      "vis_m": 9999,
      "fzfg": false,
      "metar_trigger": false,
      "taf_trigger": false,
      "metar": "METAR LOWW 162350Z 23005KT CAVOK 19/11 Q1018 TEMPO SHRA",
      "taf": "TAF LOWW 162315Z 1700/1806 22004KT 9999 FEW050 TX27/1714Z TN17/1703Z"
    },
    {
      "icao": "LPFR",
      "alert": "OK",
      "vis_m": 9999,
      "fzfg": false,
      "metar_trigger": false,
      "taf_trigger": false,
      "metar": "METAR LPFR 162330Z 20004KT 160V230 CAVOK 21/19 Q1015",
      "taf": "TAF LPFR 162300Z 1700/1724 VRB02KT CAVOK"
    },
    {
      "icao": "LPMA",
      "alert": "OK",
      "vis_m": 9999,
      "fzfg": false,
      "metar_trigger": false,
      "taf_trigger": false,
      "metar": "METAR LPMA 162330Z 36010KT 9999 SCT015 20/16 Q1021",
      "taf": "TAF LPMA 162300Z 1700/1724 01010KT 9999 SCT015"
    },
    {
      "icao": "LPPR",
      "alert": "OK",
      "vis_m": 9999,
      "fzfg": false,
      "metar_trigger": false,
      "taf_trigger": false,
      "metar": "METAR LPPR 162330Z VRB02KT 9999 FEW006 15/14 Q1018",
      "taf": "TAF LPPR 162300Z 1700/1724 VRB02KT 9999 SCT004"
    },
    {
      "icao": "LPPS",
      "alert": "OK",
      "vis_m": 9999,
      "fzfg": false,
      "metar_trigger": false,
      "taf_trigger": false,
      "metar": "METAR LPPS 162330Z 36004KT 320V030 9999 FEW013 19/16 Q1022",
      "taf": "TAF LPPS 162300Z 1700/1806 36008KT 9999 SCT015"
    },
    {
      "icao": "LPPT",
      "alert": "OK",
      "vis_m": 9999,
      "fzfg": false,
      "metar_trigger": false,
      "taf_trigger": false,
      "metar": "METAR LPPT 162330Z 34008KT 280V030 CAVOK 19/14 Q1017",
      "taf": "TAF LPPT 162300Z 1700/1806 33010KT CAVOK"
    },
    {
      "icao": "LQBK",
      "alert": "OK",
      "vis_m": 9999,
      "fzfg": false,
      "metar_trigger": false,
      "taf_trigger": false,
      "metar": "METAR LQBK 162330Z VRB01KT CAVOK 13/11 Q1019 NOSIG",
      "taf": "TAF LQBK 162300Z 1700/1724 33005KT CAVOK TX29/1714Z TN12/1702Z"
    },
    {
      "icao": "LQSA",
      "alert": "OK",
      "vis_m": 9999,
      "fzfg": false,
      "metar_trigger": false,
      "taf_trigger": false,
      "metar": "METAR LQSA 162330Z VRB02KT CAVOK 14/11 Q1021",
      "taf": "TAF LQSA 162300Z 1700/1724 VRB02KT CAVOK TX28/1713Z TN12/1703Z"
    },
    {
      "icao": "LQTZ",
      "alert": "OK",
      "vis_m": 9999,
      "fzfg": false,
      "metar_trigger": false,
      "taf_trigger": false,
      "metar": "METAR LQTZ 162330Z 00000KT CAVOK 12/12 Q1019",
      "taf": "TAF LQTZ 162300Z 1700/1724 11005KT CAVOK TX29/1713Z TN11/1703Z"
    },
    {
      "icao": "LRBC",
      "alert": "OK",
      "vis_m": 9999,
      "fzfg": false,
      "metar_trigger": false,
      "taf_trigger": false,
      "metar": "METAR LRBC 162330Z VRB02KT CAVOK 13/11 Q1018",
      "taf": "TAF LRBC 162300Z 1700/1709 22006KT CAVOK"
    },
    {
      "icao": "LRBS",
      "alert": "OK",
      "vis_m": 9999,
      "fzfg": false,
      "metar_trigger": false,
      "taf_trigger": false,
      "metar": "METAR LRBS 162330Z 07002KT CAVOK 15/12 Q1019 NOSIG",
      "taf": "TAF LRBS 162300Z 1700/1724 VRB04KT CAVOK"
    },
    {
      "icao": "LRBV",
      "alert": "OK",
      "vis_m": 9999,
      "fzfg": false,
      "metar_trigger": false,
      "taf_trigger": false,
      "metar": "METAR LRBV 162330Z AUTO 21012KT 9999 NCD 11/07 Q1021",
      "taf": "TAF LRBV 161700Z 1618/1703 30005KT CAVOK"
    },
    {
      "icao": "LRCL",
      "alert": "OK",
      "vis_m": 9999,
      "fzfg": false,
      "metar_trigger": false,
      "taf_trigger": false,
      "metar": "METAR LRCL 162330Z 26003KT CAVOK 13/09 Q1019",
      "taf": "TAF LRCL 162300Z 1700/1709 VRB04KT CAVOK"
    },
    {
      "icao": "LRCV",
      "alert": "OK",
      "vis_m": 9999,
      "fzfg": false,
      "metar_trigger": false,
      "taf_trigger": false,
      "metar": "METAR LRCV 162330Z 29002KT CAVOK 15/12 Q1019",
      "taf": "TAF LRCV 162300Z 1700/1709 VRB04KT CAVOK"
    },
    {
      "icao": "LRIA",
      "alert": "OK",
      "vis_m": 9999,
      "fzfg": false,
      "metar_trigger": false,
      "taf_trigger": false,
      "metar": "METAR LRIA 162330Z VRB01KT CAVOK 17/09 Q1017",
      "taf": "TAF LRIA 162300Z 1700/1709 VRB04KT CAVOK"
    },
    {
      "icao": "LROP",
      "alert": "OK",
      "vis_m": 9999,
      "fzfg": false,
      "metar_trigger": false,
      "taf_trigger": false,
      "metar": "METAR LROP 162330Z 30003KT CAVOK 17/14 Q1019 NOSIG",
      "taf": "TAF LROP 162300Z 1700/1724 VRB04KT CAVOK"
    },
    {
      "icao": "LRSB",
      "alert": "OK",
      "vis_m": 9999,
      "fzfg": false,
      "metar_trigger": false,
      "taf_trigger": false,
      "metar": "METAR LRSB 162330Z VRB04KT CAVOK 12/07 Q1020",
      "taf": "TAF LRSB 162300Z 1700/1724 VRB04KT CAVOK"
    },
    {
      "icao": "LRSM",
      "alert": "OK",
      "vis_m": 9999,
      "fzfg": false,
      "metar_trigger": false,
      "taf_trigger": false,
      "metar": "METAR LRSM 162330Z AUTO 20006KT 9999 NCD 14/07 Q1017",
      "taf": "TAF LRSM 162000Z 1621/1706 22005KT CAVOK"
    },
    {
      "icao": "LRSV",
      "alert": "OK",
      "vis_m": 9999,
      "fzfg": false,
      "metar_trigger": false,
      "taf_trigger": false,
      "metar": "METAR LRSV 162330Z 21006KT CAVOK 14/10 Q1017",
      "taf": "TAF LRSV 162300Z 1700/1709 VRB04KT CAVOK"
    },
    {
      "icao": "LRTM",
      "alert": "OK",
      "vis_m": 9999,
      "fzfg": false,
      "metar_trigger": false,
      "taf_trigger": false,
      "metar": "METAR LRTM 162330Z VRB02KT CAVOK 12/11 Q1019",
      "taf": "TAF LRTM 162300Z 1700/1709 VRB04KT CAVOK"
    },
    {
      "icao": "LRTR",
      "alert": "OK",
      "vis_m": 9999,
      "fzfg": false,
      "metar_trigger": false,
      "taf_trigger": false,
      "metar": "METAR LRTR 162330Z 10005KT CAVOK 13/12 Q1019 NOSIG",
      "taf": "TAF LRTR 162300Z 1700/1724 VRB04KT CAVOK"
    },
    {
      "icao": "LTAC",
      "alert": "OK",
      "vis_m": 9999,
      "fzfg": false,
      "metar_trigger": false,
      "taf_trigger": false,
      "metar": "METAR LTAC 162350Z VRB01KT CAVOK 15/09 Q1021 NOSIG RMK RWY21C VRB02KT RWY03L 00000KT RWY21R VRB01KT RWY03R 00000KT RWY21L 00000KT",
      "taf": "TAF LTAC 162240Z 1700/1724 VRB02KT CAVOK"
    },
    {
      "icao": "LTFM",
      "alert": "OK",
      "vis_m": 9999,
      "fzfg": false,
      "metar_trigger": false,
      "taf_trigger": false,
      "metar": "METAR LTFM 162350Z 07006KT CAVOK 20/17 Q1019 NOSIG RMK RWY17L 08005KT RWY34L 06006KT RWY16R 08006KT RWY36 07006KT 020V090 RWY18 08007KT",
      "taf": "TAF LTFM 162240Z 1700/1806 06006KT CAVOK"
    },
    {
      "icao": "LUKK",
      "alert": "OK",
      "vis_m": 9999,
      "fzfg": false,
      "metar_trigger": false,
      "taf_trigger": false,
      "metar": "METAR LUKK 162330Z 28006KT CAVOK 13/10 Q1017 NOSIG",
      "taf": "TAF LUKK 162321Z 1700/1724 VRB05KT CAVOK"
    },
    {
      "icao": "LWOH",
      "alert": "OK",
      "vis_m": null,
      "fzfg": false,
      "metar_trigger": false,
      "taf_trigger": false,
      "metar": "",
      "taf": "TAF LWOH 162030Z 1621/1721 VRB02KT 9999 SCT050"
    },
    {
      "icao": "LWSK",
      "alert": "OK",
      "vis_m": null,
      "fzfg": false,
      "metar_trigger": false,
      "taf_trigger": false,
      "metar": "",
      "taf": "TAF LWSK 162030Z 1621/1721 30006KT 9999 FEW050 BKN090"
    },
    {
      "icao": "LYBE",
      "alert": "OK",
      "vis_m": 9999,
      "fzfg": false,
      "metar_trigger": false,
      "taf_trigger": false,
      "metar": "METAR LYBE 162330Z 18003KT CAVOK 17/11 Q1019 NOSIG",
      "taf": "TAF LYBE 162300Z 1700/1724 12004KT CAVOK TX30/1713Z TN14/1704Z"
    },
    {
      "icao": "LYNI",
      "alert": "OK",
      "vis_m": 9999,
      "fzfg": false,
      "metar_trigger": false,
      "taf_trigger": false,
      "metar": "METAR LYNI 162330Z 02003KT 330V050 CAVOK 15/10 Q1020 NOSIG",
      "taf": "TAF LYNI 162300Z 1700/1724 03004KT CAVOK TX29/1714Z TN11/1703Z"
    },
    {
      "icao": "LYPG",
      "alert": "OK",
      "vis_m": 9999,
      "fzfg": false,
      "metar_trigger": false,
      "taf_trigger": false,
      "metar": "METAR LYPG 162330Z 32006KT CAVOK 22/13 Q1018 NOSIG",
      "taf": "TAF LYPG 162300Z 1700/1724 34007KT CAVOK TX32/1714Z TN18/1703Z"
    },
    {
      "icao": "LZIB",
      "alert": "OK",
      "vis_m": 9999,
      "fzfg": false,
      "metar_trigger": false,
      "taf_trigger": false,
      "metar": "METAR LZIB 162330Z 21005KT CAVOK 21/12 Q1018 NOSIG",
      "taf": "TAF LZIB 162315Z 1700/1800 29010KT 9999 SCT045"
    },
    {
      "icao": "LZKZ",
      "alert": "OK",
      "vis_m": 9999,
      "fzfg": false,
      "metar_trigger": false,
      "taf_trigger": false,
      "metar": "METAR LZKZ 162330Z VRB02KT 9999 -RA NSC 16/09 Q1017 NOSIG",
      "taf": "TAF LZKZ 162315Z 1700/1800 23005KT 9999 SCT040"
    },
    {
      "icao": "LZTT",
      "alert": "OK",
      "vis_m": 9999,
      "fzfg": false,
      "metar_trigger": false,
      "taf_trigger": false,
      "metar": "METAR LZTT 162330Z 26011KT 9999 SCT066 15/06 Q1017",
      "taf": "TAF LZTT 162315Z 1700/1800 27011KT 9999 SCT055"
    },
    {
      "icao": "OEJN",
      "alert": "OK",
      "vis_m": 9999,
      "fzfg": false,
      "metar_trigger": false,
      "taf_trigger": false,
      "metar": "METAR OEJN 162300Z 36011KT CAVOK 33/10 Q1005 NOSIG",
      "taf": "TAF OEJN 162300Z 1700/1806 36005KT CAVOK"
    },
    {
      "icao": "OEMA",
      "alert": "OK",
      "vis_m": 9999,
      "fzfg": false,
      "metar_trigger": false,
      "taf_trigger": false,
      "metar": "METAR OEMA 162300Z 30009KT CAVOK 37/04 Q1013 NOSIG",
      "taf": "TAF OEMA 162300Z 1700/1806 VRB03KT CAVOK"
    },
    {
      "icao": "OJAI",
      "alert": "OK",
      "vis_m": 5000,
      "fzfg": false,
      "metar_trigger": false,
      "taf_trigger": false,
      "metar": "METAR OJAI 162300Z 00000KT 5000 HZ NSC 17/12 Q1016 NOSIG",
      "taf": "TAF OJAI 162242Z 1700/1806 VRB02KT 5000 HZ NSC"
    },
    {
      "icao": "OMAA",
      "alert": "OK",
      "vis_m": 9999,
      "fzfg": false,
      "metar_trigger": false,
      "taf_trigger": false,
      "metar": "METAR OMAA 162330Z 22003KT 180V300 CAVOK 29/21 Q1001 NOSIG",
      "taf": "TAF OMAA 162300Z 1700/1806 21006KT 8000 NSC"
    },
    {
      "icao": "OMDB",
      "alert": "OK",
      "vis_m": 9999,
      "fzfg": false,
      "metar_trigger": false,
      "taf_trigger": false,
      "metar": "METAR OMDB 162300Z 18007KT 140V210 CAVOK 29/23 Q1001 NOSIG",
      "taf": "TAF OMDB 162300Z 1700/1806 18007KT 8000 NSC"
    },
    {
      "icao": "UAAA",
      "alert": "OK",
      "vis_m": 9999,
      "fzfg": false,
      "metar_trigger": false,
      "taf_trigger": false,
      "metar": "METAR UAAA 162330Z 11002MPS 060V140 9999 FEW050CB BKN100 17/13 Q1012 NOSIG",
      "taf": "TAF UAAA 162302Z 1700/1724 34002G07MPS 9999 SCT050CB BKN100 TX32/1710Z TN17/1701Z"
    },
    {
      "icao": "UBBB",
      "alert": "OK",
      "vis_m": 9999,
      "fzfg": false,
      "metar_trigger": false,
      "taf_trigger": false,
      "metar": "METAR UBBB 162330Z 00000KT CAVOK 21/19 Q1016 NOSIG",
      "taf": "TAF UBBB 162300Z 1700/1724 VRB04KT CAVOK TX31/1709Z TN20/1701Z"
    },
    {
      "icao": "UDSG",
      "alert": "OK",
      "vis_m": 9999,
      "fzfg": false,
      "metar_trigger": false,
      "taf_trigger": false,
      "metar": "METAR UDSG 162330Z 14002KT 9999 FEW049CB 12/10 Q1023 NOSIG",
      "taf": "TAF UDSG 162258Z 1700/1724 24006KT 9999 SCT050"
    },
    {
      "icao": "UDYZ",
      "alert": "OK",
      "vis_m": 9999,
      "fzfg": false,
      "metar_trigger": false,
      "taf_trigger": false,
      "metar": "METAR UDYZ 162330Z 35007KT 9999 NSC 21/09 Q1018 NOSIG",
      "taf": "TAF UDYZ 162300Z 1700/1724 14006KT 9999 FEW040"
    },
    {
      "icao": "UGKO",
      "alert": "OK",
      "vis_m": 9999,
      "fzfg": false,
      "metar_trigger": false,
      "taf_trigger": false,
      "metar": "METAR UGKO 162330Z AUTO 07003KT CAVOK 16/16 Q1018 NOSIG",
      "taf": "TAF UGKO 162300Z 1700/1724 26007KT CAVOK TX30/1711Z TN16/1702Z"
    }
  ]
}