{
  "ts_utc": "2026-01-13T18:37:11Z",
  "threshold_m": 150,
  "source": "stations_override.txt (ICAO list) + aviationweather.gov (METAR/TAF raw)",
  "station_count": 159,
  "stations": [
    {
      "icao": "BIKF",
      "alert": "OK",
      "vis_m": 9999,
      "fzfg": false,
      "metar_trigger": false,
      "taf_trigger": false,
      "metar": "METAR BIKF 131830Z 01014KT 9999 FEW035 M02/M09 Q0997",
      "taf": "TAF BIKF 131633Z 1318/1418 35015G25KT 9999 BKN035 TX01/1418Z TNM04/1404Z"
    },
    {
      "icao": "BKPR",
      "alert": "OK",
      "vis_m": 9999,
      "fzfg": false,
      "metar_trigger": false,
      "taf_trigger": false,
      "metar": "METAR BKPR 131830Z 33003KT 270V060 9999 FEW055 M02/M04 Q1023 NOSIG",
      "taf": "TAF BKPR 131730Z 1318/1418 VRB03KT CAVOK"
    },
    {
      "icao": "EBCI",
      "alert": "OK",
      "vis_m": 9999,
      "fzfg": false,
      "metar_trigger": false,
      "taf_trigger": false,
      "metar": "METAR EBCI 131820Z 19009KT 160V220 CAVOK 09/05 Q1008 NOSIG",
      "taf": "TAF EBCI 131704Z 1318/1424 21010KT 9999 FEW020 SCT040"
    },
    {
      "icao": "EDDB",
      "alert": "OK",
      "vis_m": 4100,
      "fzfg": false,
      "metar_trigger": false,
      "taf_trigger": false,
      "metar": "METAR EDDB 131820Z AUTO 14006KT 4100 1800 BR BKN002 BKN044 03/03 Q1013 TEMPO 2500 BR SCT002",
      "taf": "TAF EDDB 131700Z 1318/1418 15007KT 1500 BR BKN002"
    },
    {
      "icao": "EDDH",
      "alert": "OK",
      "vis_m": 5000,
      "fzfg": false,
      "metar_trigger": false,
      "taf_trigger": false,
      "metar": "METAR EDDH 131820Z AUTO 14009KT 5000 1300 R23/P2000N R15/1900N SHRA BR SCT003 BKN016 BKN021 FEW///CB 04/04 Q1008 TEMPO 2500 -DZRA BKN004",
      "taf": "TAF EDDH 131700Z 1318/1424 16008KT 6000 OVC002"
    },
    {
      "icao": "EDDK",
      "alert": "OK",
      "vis_m": 9999,
      "fzfg": false,
      "metar_trigger": false,
      "taf_trigger": false,
      "metar": "METAR EDDK 131820Z AUTO 12005KT CAVOK 08/05 Q1010 NOSIG",
      "taf": "TAF EDDK 131700Z 1318/1424 13008KT CAVOK"
    },
    {
      "icao": "EDDN",
      "alert": "OK",
      "vis_m": 9999,
      "fzfg": false,
      "metar_trigger": false,
      "taf_trigger": false,
      "metar": "METAR EDDN 131820Z AUTO 14008KT CAVOK 04/02 Q1014 NOSIG",
      "taf": "TAF EDDN 131700Z 1318/1418 12007KT 9999 SCT040"
    },
    {
      "icao": "EDDS",
      "alert": "OK",
      "vis_m": 9999,
      "fzfg": false,
      "metar_trigger": false,
      "taf_trigger": false,
      "metar": "METAR EDDS 131820Z AUTO 27001KT CAVOK 04/01 Q1013 NOSIG",
      "taf": "TAF EDDS 131700Z 1318/1418 VRB02KT CAVOK"
    },
    {
      "icao": "EDFH",
      "alert": "OK",
      "vis_m": 9999,
      "fzfg": false,
      "metar_trigger": false,
      "taf_trigger": false,
      "metar": "METAR EDFH 131820Z 19011KT CAVOK 07/05 Q1011",
      "taf": "TAF EDFH 131700Z 1318/1418 18008KT 9999 FEW040"
    },
    {
      "icao": "EDJA",
      "alert": "OK",
      "vis_m": 9999,
      "fzfg": false,
      "metar_trigger": false,
      "taf_trigger": false,
      "metar": "METAR EDJA 131820Z 14004KT CAVOK 01/M01 Q1014",
      "taf": "TAF EDJA 131700Z 1318/1403 19005KT CAVOK"
    },
    {
      "icao": "EDLW",
      "alert": "OK",
      "vis_m": 9999,
      "fzfg": false,
      "metar_trigger": false,
      "taf_trigger": false,
      "metar": "METAR EDLW 131820Z 17011KT CAVOK 09/05 Q1008",
      "taf": "TAF EDLW 131700Z 1318/1418 18012KT CAVOK"
    },
    {
      "icao": "EDNY",
      "alert": "OK",
      "vis_m": 2000,
      "fzfg": false,
      "metar_trigger": false,
      "taf_trigger": false,
      "metar": "METAR EDNY 131820Z VRB02KT 2000 0550 R24/0650U FEW003 00/00 Q1015",
      "taf": ""
    },
    {
      "icao": "EDSB",
      "alert": "OK",
      "vis_m": 9999,
      "fzfg": false,
      "metar_trigger": false,
      "taf_trigger": false,
      "metar": "METAR EDSB 131820Z 13002KT CAVOK 06/04 Q1013",
      "taf": "TAF EDSB 131700Z 1318/1418 21004KT CAVOK"
    },
    {
      "icao": "EETN",
      "alert": "OK",
      "vis_m": 9999,
      "fzfg": false,
      "metar_trigger": false,
      "taf_trigger": false,
      "metar": "METAR EETN 131820Z 16003KT 120V190 9999 OVC016 M12/M13 Q1022 TEMPO OVC014",
      "taf": "TAF EETN 131730Z 1318/1418 15005KT 9999 OVC020"
    },
    {
      "icao": "EFTU",
      "alert": "OK",
      "vis_m": 9999,
      "fzfg": false,
      "metar_trigger": false,
      "taf_trigger": false,
      "metar": "METAR EFTU 131820Z AUTO 11006KT 9999 -SHSN OVC011 M07/M09 Q1021",
      "taf": "TAF EFTU 131723Z 1318/1418 10007KT 9999 OVC015"
    },
    {
      "icao": "EGBB",
      "alert": "OK",
      "vis_m": 9999,
      "fzfg": false,
      "metar_trigger": false,
      "taf_trigger": false,
      "metar": "METAR EGBB 131820Z 32006KT CAVOK 04/02 Q1006",
      "taf": "TAF EGBB 131655Z 1318/1418 29007KT 9999 FEW025"
    },
    {
      "icao": "EGGP",
      "alert": "OK",
      "vis_m": 9999,
      "fzfg": false,
      "metar_trigger": false,
      "taf_trigger": false,
      "metar": "METAR EGGP 131820Z 28007KT CAVOK 03/01 Q1006",
      "taf": "TAF EGGP 131659Z 1318/1418 28010KT 9999 FEW035"
    },
    {
      "icao": "EGGW",
      "alert": "OK",
      "vis_m": 9999,
      "fzfg": false,
      "metar_trigger": false,
      "taf_trigger": false,
      "metar": "METAR EGGW 131820Z AUTO 33011KT 9999 FEW007 BKN012 07/06 Q1004",
      "taf": "TAF EGGW 131700Z 1318/1418 33007KT 9999 FEW008 BKN030"
    },
    {
      "icao": "EGKK",
      "alert": "OK",
      "vis_m": 9999,
      "fzfg": false,
      "metar_trigger": false,
      "taf_trigger": false,
      "metar": "METAR EGKK 131820Z 22007KT 9999 -RA BKN005 09/09 Q1005",
      "taf": "TAF EGKK 131700Z 1318/1424 19009KT 9999 BKN015"
    },
    {
      "icao": "EGNM",
      "alert": "OK",
      "vis_m": 9999,
      "fzfg": false,
      "metar_trigger": false,
      "taf_trigger": false,
      "metar": "METAR EGNM 131820Z 26006KT CAVOK 03/02 Q1004",
      "taf": "TAF EGNM 131659Z 1318/1418 27010KT 9999 FEW025"
    },
    {
      "icao": "EGPD",
      "alert": "OK",
      "vis_m": 9999,
      "fzfg": false,
      "metar_trigger": false,
      "taf_trigger": false,
      "metar": "METAR EGPD 131820Z COR AUTO 26007KT 9999 NCD 03/M01 Q0998 NOSIG",
      "taf": "TAF EGPD 131655Z 1318/1418 27009KT 9999 FEW030"
    },
    {
      "icao": "EGPF",
      "alert": "OK",
      "vis_m": 9999,
      "fzfg": false,
      "metar_trigger": false,
      "taf_trigger": false,
      "metar": "METAR EGPF 131820Z AUTO 25007KT 9999 NCD 02/M00 Q1002",
      "taf": "TAF EGPF 131658Z 1318/1418 26009KT 9999 SCT025"
    },
    {
      "icao": "EHBK",
      "alert": "OK",
      "vis_m": 9999,
      "fzfg": false,
      "metar_trigger": false,
      "taf_trigger": false,
      "metar": "METAR EHBK 131825Z AUTO 19012KT 160V230 9999 NSC 09/06 Q1008 NOSIG",
      "taf": "TAF EHBK 131714Z 1318/1424 20013KT 9999 BKN018"
    },
    {
      "icao": "EHEH",
      "alert": "OK",
      "vis_m": 9999,
      "fzfg": false,
      "metar_trigger": false,
      "taf_trigger": false,
      "metar": "METAR EHEH 131825Z AUTO 19009KT 9999 OVC059 10/06 Q1007 BLU NOSIG RMK TREND REMOTE BY EHWX",
      "taf": "TAF EHEH 131758Z 1318/1424 19010KT CAVOK"
    },
    {
      "icao": "EKBI",
      "alert": "OK",
      "vis_m": 250,
      "fzfg": false,
      "metar_trigger": false,
      "taf_trigger": false,
      "metar": "METAR EKBI 131820Z AUTO 12006KT 0250 R09/0900N R27/0650N FG VV002 03/03 Q1006",
      "taf": "TAF EKBI 131727Z 1318/1418 15007KT 0200 FG VV002"
    },
    {
      "icao": "EKCH",
      "alert": "OK",
      "vis_m": 1000,
      "fzfg": false,
      "metar_trigger": false,
      "taf_trigger": false,
      "metar": "METAR EKCH 131820Z 15009KT 1000 R22L/P1500N R04L/P1500N R12/P1500N BR VV003 03/03 Q1010 TEMPO 2000",
      "taf": "TAF EKCH 131727Z 1318/1418 15015KT 1500 BR OVC002"
    },
    {
      "icao": "ENAL",
      "alert": "OK",
      "vis_m": 9999,
      "fzfg": false,
      "metar_trigger": false,
      "taf_trigger": false,
      "metar": "METAR ENAL 131820Z 15012KT 9999 -RA BKN035 04/01 Q0999",
      "taf": "TAF ENAL 131700Z 1318/1403 13015KT 9999 BKN050"
    },
    {
      "icao": "ENBR",
      "alert": "OK",
      "vis_m": 9999,
      "fzfg": false,
      "metar_trigger": false,
      "taf_trigger": false,
      "metar": "METAR ENBR 131820Z 12010KT 9999 -RA SCT012 BKN035 03/01 Q0998 TEMPO 4000 RA BKN012 RMK WIND 1200FT 12025KT",
      "taf": "TAF ENBR 131700Z 1318/1418 13015KT 9999 -RA FEW020 BKN035"
    },
    {
      "icao": "ENGM",
      "alert": "OK",
      "vis_m": 4700,
      "fzfg": false,
      "metar_trigger": false,
      "taf_trigger": false,
      "metar": "METAR ENGM 131820Z 04004KT 4700 -SN FEW006 OVC033 M03/M04 Q1009 TEMPO 2500 -SN SCT005 BKN012",
      "taf": "TAF ENGM 131700Z 1318/1418 04010KT 8000 -SN BKN015"
    },
    {
      "icao": "ENHD",
      "alert": "OK",
      "vis_m": 6000,
      "fzfg": false,
      "metar_trigger": false,
      "taf_trigger": false,
      "metar": "METAR ENHD 131820Z 11022KT 6000 RA OVC038 03/01 Q0998",
      "taf": ""
    },
    {
      "icao": "ENTC",
      "alert": "OK",
      "vis_m": 9999,
      "fzfg": false,
      "metar_trigger": false,
      "taf_trigger": false,
      "metar": "METAR ENTC 131820Z 19019KT CAVOK M06/M13 Q1010 NOSIG RMK WIND 2600FT 18018KT",
      "taf": "TAF ENTC 131700Z 1318/1418 19012KT CAVOK"
    },
    {
      "icao": "ENTO",
      "alert": "OK",
      "vis_m": 1200,
      "fzfg": false,
      "metar_trigger": false,
      "taf_trigger": false,
      "metar": "METAR ENTO 131820Z 01007KT 1200 R18/P2000N R36/P2000N -SN VV005 M03/M03 Q1008 NOSIG",
      "taf": "TAF ENTO 131700Z 1318/1418 03008KT 3000 -SN BKN005"
    },
    {
      "icao": "ENVA",
      "alert": "OK",
      "vis_m": 9999,
      "fzfg": false,
      "metar_trigger": false,
      "taf_trigger": false,
      "metar": "METAR ENVA 131820Z 11010KT 070V210 CAVOK 01/M08 Q1005 TEMPO 15015G28KT RMK WIND 670FT 15021G35KT",
      "taf": "TAF ENVA 131700Z 1318/1418 13009KT CAVOK"
    },
    {
      "icao": "ENZV",
      "alert": "OK",
      "vis_m": 9999,
      "fzfg": false,
      "metar_trigger": false,
      "taf_trigger": false,
      "metar": "METAR ENZV 131820Z 13019KT 9999 FEW023 SCT046 04/00 Q0998 TEMPO 14018G28KT",
      "taf": "TAF ENZV 131700Z 1318/1418 13018KT 9999 -RA FEW020 BKN035"
    },
    {
      "icao": "EPGD",
      "alert": "OK",
      "vis_m": 9999,
      "fzfg": false,
      "metar_trigger": false,
      "taf_trigger": false,
      "metar": "METAR EPGD 131830Z 15009KT CAVOK M05/M07 Q1017",
      "taf": "TAF EPGD 131730Z 1318/1418 15010KT 7000 BKN030"
    },
    {
      "icao": "EPKK",
      "alert": "OK",
      "vis_m": 2300,
      "fzfg": false,
      "metar_trigger": false,
      "taf_trigger": false,
      "metar": "METAR EPKK 131830Z 05003KT 2300 BR OVC004 M03/M04 Q1018",
      "taf": "TAF EPKK 131730Z 1318/1418 VRB02KT 2000 -RASN BR OVC008"
    },
    {
      "icao": "EPKT",
      "alert": "OK",
      "vis_m": 1000,
      "fzfg": false,
      "metar_trigger": false,
      "taf_trigger": false,
      "metar": "METAR EPKT 131830Z VRB02KT 1000 R26/P2000N BR BKN002 OVC010 M01/M02 Q1018",
      "taf": "TAF EPKT 131730Z 1318/1418 VRB02KT 1300 BR BKN008"
    },
    {
      "icao": "EPLB",
      "alert": "OK",
      "vis_m": 3000,
      "fzfg": false,
      "metar_trigger": false,
      "taf_trigger": false,
      "metar": "METAR EPLB 131830Z 23001KT 3000 0350W PRFG BR FEW003 M13/M14 Q1019",
      "taf": "TAF EPLB 131730Z 1318/1418 VRB02KT 3000 BR NSC"
    },
    {
      "icao": "EPMO",
      "alert": "OK",
      "vis_m": 7000,
      "fzfg": false,
      "metar_trigger": false,
      "taf_trigger": false,
      "metar": "METAR EPMO 131830Z 13004KT 100V170 7000 BKN046 M04/M06 Q1019",
      "taf": "TAF EPMO 131730Z 1318/1418 12007KT 6000 NSC"
    },
    {
      "icao": "EPPO",
      "alert": "OK",
      "vis_m": 4100,
      "fzfg": false,
      "metar_trigger": false,
      "taf_trigger": false,
      "metar": "METAR EPPO 131830Z 13008KT 4100 BR OVC010 M02/M04 Q1016",
      "taf": "TAF EPPO 131730Z 1318/1418 15008KT 4000 BR BKN010"
    },
    {
      "icao": "EPRA",
      "alert": "OK",
      "vis_m": 6000,
      "fzfg": false,
      "metar_trigger": false,
      "taf_trigger": false,
      "metar": "METAR EPRA 131830Z VRB02KT 6000 BKN015 M10/M11 Q1019",
      "taf": "TAF EPRA 131730Z 1318/1403 12004KT 6000 BKN014"
    },
    {
      "icao": "EPRZ",
      "alert": "OK",
      "vis_m": 9999,
      "fzfg": false,
      "metar_trigger": false,
      "taf_trigger": false,
      "metar": "METAR EPRZ 131830Z 22003KT 9999 OVC013 M05/M08 Q1019",
      "taf": "TAF EPRZ 131730Z 1318/1418 20004KT 9999 BKN018"
    },
    {
      "icao": "EPSC",
      "alert": "OK",
      "vis_m": 2000,
      "fzfg": false,
      "metar_trigger": false,
      "taf_trigger": false,
      "metar": "METAR EPSC 131830Z 13011KT 2000 BR OVC002 M00/M01 Q1014 REFZRA",
      "taf": "TAF EPSC 131730Z 1318/1418 15010KT 2000 BR OVC002"
    },
    {
      "icao": "EPSY",
      "alert": "OK",
      "vis_m": 1500,
      "fzfg": false,
      "metar_trigger": false,
      "taf_trigger": false,
      "metar": "METAR EPSY 131830Z 00000KT 1500 BR NSC M12/M14 Q1019",
      "taf": "TAF EPSY 131730Z 1318/1403 VRB02KT 3000 BR NSC"
    },
    {
      "icao": "EPWA",
      "alert": "OK",
      "vis_m": 6000,
      "fzfg": false,
      "metar_trigger": false,
      "taf_trigger": false,
      "metar": "METAR EPWA 131830Z 12008KT 6000 BKN049 M06/M08 Q1019 TEMPO 4000 BR",
      "taf": "TAF EPWA 131730Z 1318/1418 12008KT 6000 NSC"
    },
    {
      "icao": "EPWR",
      "alert": "OK",
      "vis_m": 1500,
      "fzfg": false,
      "metar_trigger": false,
      "taf_trigger": false,
      "metar": "METAR EPWR 131830Z 12005KT 1500 BR OVC002 00/00 Q1017",
      "taf": ""
    },
    {
      "icao": "ESGG",
      "alert": "OK",
      "vis_m": 4100,
      "fzfg": false,
      "metar_trigger": false,
      "taf_trigger": false,
      "metar": "METAR ESGG 131820Z 14010KT 4100 -FZDZ OVC002 00/M00 Q1008",
      "taf": ""
    },
    {
      "icao": "ESKN",
      "alert": "OK",
      "vis_m": 9999,
      "fzfg": false,
      "metar_trigger": false,
      "taf_trigger": false,
      "metar": "METAR ESKN 131820Z 15006KT 9999 -SN FEW025 BKN032 01/M01 Q1015",
      "taf": "TAF ESKN 131730Z 1318/1418 11007KT 9999 BKN018"
    },
    {
      "icao": "ESMS",
      "alert": "OK",
      "vis_m": 150,
      "fzfg": false,
      "metar_trigger": false,
      "taf_trigger": false,
      "metar": "METAR ESMS 131820Z 14008KT 0150 R17/0700N R35/0650N FG VV002 02/02 Q1010",
      "taf": "TAF ESMS 131727Z 1318/1418 13010KT 0200 FG OVC002"
    },
    {
      "icao": "ESSA",
      "alert": "OK",
      "vis_m": 9999,
      "fzfg": false,
      "metar_trigger": false,
      "taf_trigger": false,
      "metar": "METAR ESSA 131820Z 13009KT 9999 BKN046 M01/M02 Q1016 TEMPO BKN008",
      "taf": "TAF ESSA 131730Z 1318/1418 14010KT 9999 -SN FEW008 BKN045"
    },
    {
      "icao": "EYKA",
      "alert": "OK",
      "vis_m": 5000,
      "fzfg": false,
      "metar_trigger": false,
      "taf_trigger": false,
      "metar": "METAR EYKA 131820Z 11001KT 5000 -SN BR FEW043 M10/M11 Q1021",
      "taf": "TAF EYKA 131700Z 1318/1418 VRB03KT 5000 BR SCT005 SCT020"
    },
    {
      "icao": "EYPA",
      "alert": "OK",
      "vis_m": 9999,
      "fzfg": false,
      "metar_trigger": false,
      "taf_trigger": false,
      "metar": "METAR EYPA 131820Z 14006KT CAVOK M11/M13 Q1020",
      "taf": "TAF EYPA 131700Z 1318/1418 VRB04KT 5000 BR SCT005 SCT020"
    },
    {
      "icao": "EYVI",
      "alert": "OK",
      "vis_m": 6000,
      "fzfg": false,
      "metar_trigger": false,
      "taf_trigger": false,
      "metar": "METAR EYVI 131820Z 10003KT 060V130 6000 OVC004 M10/M12 Q1020 NOSIG",
      "taf": "TAF EYVI 131700Z 1318/1418 VRB04KT 5000 BR BKN005"
    },
    {
      "icao": "GCFV",
      "alert": "OK",
      "vis_m": 9999,
      "fzfg": false,
      "metar_trigger": false,
      "taf_trigger": false,
      "metar": "METAR GCFV 131830Z 33015KT 9999 FEW018 SCT030 18/11 Q1018",
      "taf": "TAF GCFV 131400Z 1315/1415 33016KT 9999 SCT020 TX19/1414Z TN12/1406Z"
    },
    {
      "icao": "GCLP",
      "alert": "OK",
      "vis_m": 9999,
      "fzfg": false,
      "metar_trigger": false,
      "taf_trigger": false,
      "metar": "METAR GCLP 131830Z 36021KT 9999 BKN025 18/13 Q1019 NOSIG",
      "taf": "TAF GCLP 131400Z 1315/1415 36017KT 9999 FEW025 TX20/1414Z TN16/1406Z"
    },
    {
      "icao": "GCTS",
      "alert": "OK",
      "vis_m": 9999,
      "fzfg": false,
      "metar_trigger": false,
      "taf_trigger": false,
      "metar": "METAR GCTS 131830Z VRB01KT 9999 BKN040 19/12 Q1019 NOSIG",
      "taf": "TAF GCTS 131400Z 1315/1415 09010KT 9999 SCT040 TX22/1414Z TN13/1406Z"
    },
    {
      "icao": "GMAD",
      "alert": "OK",
      "vis_m": 6000,
      "fzfg": false,
      "metar_trigger": false,
      "taf_trigger": false,
      "metar": "METAR GMAD 131830Z 28011KT 6000 -RA SCT026 BKN080 15/09 Q1018 NOSIG",
      "taf": "TAF GMAD 131700Z 1318/1424 24012KT 6000 BKN020 BKN080"
    },
    {
      "icao": "GMMN",
      "alert": "OK",
      "vis_m": 9999,
      "fzfg": false,
      "metar_trigger": false,
      "taf_trigger": false,
      "metar": "METAR GMMN 131830Z 26005KT 9999 SCT030 SCT100 14/10 Q1017 NOSIG",
      "taf": "TAF GMMN 131700Z 1318/1424 18012KT 9999 SCT024 SCT100"
    },
    {
      "icao": "GMMX",
      "alert": "OK",
      "vis_m": 9999,
      "fzfg": false,
      "metar_trigger": false,
      "taf_trigger": false,
      "metar": "METAR GMMX 131830Z 30006KT 270V330 9999 SCT016 BKN080 13/09 Q1017 NOSIG",
      "taf": "TAF GMMX 131700Z 1318/1424 26010KT 8000 SCT016 BKN080"
    },
    {
      "icao": "HEGN",
      "alert": "OK",
      "vis_m": 9999,
      "fzfg": false,
      "metar_trigger": false,
      "taf_trigger": false,
      "metar": "METAR HEGN 131800Z 32012KT CAVOK 16/06 Q1022 NOSIG",
      "taf": "TAF HEGN 131700Z 1318/1424 30015G25KT 6000 FEW025"
    },
    {
      "icao": "HEMA",
      "alert": "OK",
      "vis_m": 9999,
      "fzfg": false,
      "metar_trigger": false,
      "taf_trigger": false,
      "metar": "METAR HEMA 131800Z 34007KT CAVOK 18/04 Q1020 NOSIG",
      "taf": "TAF HEMA 131720Z 1318/1424 31010G20KT 9999 FEW025"
    },
    {
      "icao": "HESH",
      "alert": "OK",
      "vis_m": 9999,
      "fzfg": false,
      "metar_trigger": false,
      "taf_trigger": false,
      "metar": "METAR HESH 131800Z 00000KT CAVOK 17/04 Q1021 NOSIG",
      "taf": "TAF HESH 131700Z 1318/1424 36010G20KT 6000 FEW025"
    },
    {
      "icao": "HESX",
      "alert": "OK",
      "vis_m": 9999,
      "fzfg": false,
      "metar_trigger": false,
      "taf_trigger": false,
      "metar": "METAR HESX 131800Z 31008KT CAVOK 12/03 Q1022 NOSIG",
      "taf": "TAF HESX 131720Z 1318/1424 29011KT 6000 SCT020 BKN100"
    },
    {
      "icao": "LATI",
      "alert": "OK",
      "vis_m": 9999,
      "fzfg": false,
      "metar_trigger": false,
      "taf_trigger": false,
      "metar": "METAR LATI 131820Z 16005KT 9999 SCT035 BKN066 07/02 Q1026 NOSIG",
      "taf": "TAF LATI 131700Z 1318/1418 VRB05KT 9999 SCT040 BKN060 TX14/1414Z TN04/1406Z"
    },
    {
      "icao": "LBPD",
      "alert": "OK",
      "vis_m": 9999,
      "fzfg": false,
      "metar_trigger": false,
      "taf_trigger": false,
      "metar": "METAR LBPD 131830Z AUTO 34004KT 300V360 9999 OVC080/// 00/M06 Q1022 NOSIG",
      "taf": "TAF LBPD 131700Z 1318/1418 VRB04KT 9999 SCT030 BKN050"
    },
    {
      "icao": "LBSF",
      "alert": "OK",
      "vis_m": 9999,
      "fzfg": false,
      "metar_trigger": false,
      "taf_trigger": false,
      "metar": "METAR LBSF 131830Z AUTO 10006KT 9999 OVC042/// 00/M04 Q1021 NOSIG",
      "taf": "TAF LBSF 131700Z 1318/1418 VRB04KT 9999 SCT020 BKN040"
    },
    {
      "icao": "LBWN",
      "alert": "OK",
      "vis_m": 9999,
      "fzfg": false,
      "metar_trigger": false,
      "taf_trigger": false,
      "metar": "METAR LBWN 131830Z AUTO 19003KT 170V230 9999 NSC 01/M07 Q1021 TEMPO 5000 SN",
      "taf": "TAF LBWN 131700Z 1318/1418 VRB03KT 9999 SCT045"
    },
    {
      "icao": "LCLK",
      "alert": "OK",
      "vis_m": 9999,
      "fzfg": false,
      "metar_trigger": false,
      "taf_trigger": false,
      "metar": "METAR LCLK 131830Z 31004KT 270V350 9999 FEW020 09/04 Q1015 NOSIG",
      "taf": ""
    },
    {
      "icao": "LCPH",
      "alert": "OK",
      "vis_m": 9999,
      "fzfg": false,
      "metar_trigger": false,
      "taf_trigger": false,
      "metar": "METAR LCPH 131830Z 34008KT 9999 SCT055 10/01 Q1016 NOSIG",
      "taf": ""
    },
    {
      "icao": "LEAL",
      "alert": "OK",
      "vis_m": 5000,
      "fzfg": false,
      "metar_trigger": false,
      "taf_trigger": false,
      "metar": "METAR LEAL 131830Z VRB01KT 5000 BR NSC 12/12 Q1016 NOSIG",
      "taf": "TAF LEAL 131700Z 1318/1418 VRB04KT 9999 FEW010 TX16/1413Z TN06/1406Z"
    },
    {
      "icao": "LEBB",
      "alert": "OK",
      "vis_m": 9999,
      "fzfg": false,
      "metar_trigger": false,
      "taf_trigger": false,
      "metar": "METAR LEBB 131830Z 11011KT 080V140 9999 BKN064 16/06 Q1010 NOSIG",
      "taf": "TAF LEBB 131700Z 1318/1418 15009KT 9999 FEW040 TX13/1416Z TN08/1408Z"
    },
    {
      "icao": "LEBL",
      "alert": "OK",
      "vis_m": 9000,
      "fzfg": false,
      "metar_trigger": false,
      "taf_trigger": false,
      "metar": "METAR LEBL 131830Z VRB01KT 9000 FEW015 SCT022 13/11 Q1016 NOSIG",
      "taf": "TAF LEBL 131700Z 1318/1418 VRB03KT 9999 BKN020 TX15/1412Z TN06/1406Z"
    },
    {
      "icao": "LECH",
      "alert": "OK",
      "vis_m": 50,
      "fzfg": false,
      "metar_trigger": false,
      "taf_trigger": false,
      "metar": "METAR LECH 131830Z AUTO 08002KT 0050 R06/M0050N FG VV001 09/08 Q1016",
      "taf": ""
    },
    {
      "icao": "LEMD",
      "alert": "OK",
      "vis_m": 9999,
      "fzfg": false,
      "metar_trigger": false,
      "taf_trigger": false,
      "metar": "METAR LEMD 131830Z 35004KT 9999 BKN030 BKN045 09/04 Q1014 NOSIG",
      "taf": "TAF LEMD 131700Z 1318/1424 VRB04KT 9999 SCT030 TX12/1414Z TN03/1407Z"
    },
    {
      "icao": "LEMG",
      "alert": "OK",
      "vis_m": 9999,
      "fzfg": false,
      "metar_trigger": false,
      "taf_trigger": false,
      "metar": "METAR LEMG 131830Z VRB01KT 9999 FEW070 12/10 Q1017 NOSIG",
      "taf": "TAF LEMG 131700Z 1318/1418 15007KT 9999 FEW030 TX17/1414Z TN10/1407Z"
    },
    {
      "icao": "LEVC",
      "alert": "OK",
      "vis_m": 9999,
      "fzfg": false,
      "metar_trigger": false,
      "taf_trigger": false,
      "metar": "METAR LEVC 131830Z VRB01KT CAVOK 09/08 Q1016 NOSIG",
      "taf": "TAF LEVC 131700Z 1318/1418 VRB04KT 9999 FEW015 TX19/1414Z TN04/1406Z"
    },
    {
      "icao": "LEXJ",
      "alert": "OK",
      "vis_m": 9999,
      "fzfg": false,
      "metar_trigger": false,
      "taf_trigger": false,
      "metar": "METAR LEXJ 131830Z 20016G26KT 160V260 CAVOK 16/06 Q1008",
      "taf": ""
    },
    {
      "icao": "LEZG",
      "alert": "OK",
      "vis_m": 9999,
      "fzfg": false,
      "metar_trigger": false,
      "taf_trigger": false,
      "metar": "METAR LEZG 131830Z 11007KT CAVOK 09/08 Q1014 NOSIG",
      "taf": "TAF LEZG 131700Z 1318/1418 10005KT 9999 FEW010 TX14/1415Z TN05/1406Z"
    },
    {
      "icao": "LEZL",
      "alert": "OK",
      "vis_m": 9999,
      "fzfg": false,
      "metar_trigger": false,
      "taf_trigger": false,
      "metar": "METAR LEZL 131830Z 18007KT 9999 -RA FEW025 14/13 Q1015 RERA NOSIG",
      "taf": ""
    },
    {
      "icao": "LFBD",
      "alert": "OK",
      "vis_m": 9999,
      "fzfg": false,
      "metar_trigger": false,
      "taf_trigger": false,
      "metar": "METAR LFBD 131830Z AUTO 14007KT CAVOK 10/08 Q1010 TEMPO SCT050TCU",
      "taf": "TAF LFBD 131700Z 1318/1424 15008KT CAVOK TX14/1414Z TN06/1500Z"
    },
    {
      "icao": "LFLL",
      "alert": "OK",
      "vis_m": 9999,
      "fzfg": false,
      "metar_trigger": false,
      "taf_trigger": false,
      "metar": "METAR LFLL 131830Z 18016G27KT CAVOK 13/05 Q1015 NOSIG",
      "taf": "TAF LFLL 131700Z 1318/1424 18012KT 9999 FEW035"
    },
    {
      "icao": "LFLS",
      "alert": "OK",
      "vis_m": 9999,
      "fzfg": false,
      "metar_trigger": false,
      "taf_trigger": false,
      "metar": "METAR LFLS 131830Z AUTO 21011KT CAVOK 09/05 Q1016 NOSIG",
      "taf": "TAF LFLS 131400Z 1315/1415 24008KT 9999 FEW052"
    },
    {
      "icao": "LFMN",
      "alert": "OK",
      "vis_m": 9999,
      "fzfg": false,
      "metar_trigger": false,
      "taf_trigger": false,
      "metar": "METAR LFMN 131830Z 33004KT 9999 FEW026 BKN033 BKN260 12/08 Q1021 NOSIG",
      "taf": "TAF LFMN 131400Z 1315/1421 25008KT 9999 SCT030 BKN040"
    },
    {
      "icao": "LFOB",
      "alert": "OK",
      "vis_m": 9999,
      "fzfg": false,
      "metar_trigger": false,
      "taf_trigger": false,
      "metar": "METAR LFOB 131830Z AUTO 19005KT CAVOK 10/06 Q1009 NOSIG",
      "taf": "TAF LFOB 131700Z 1318/1418 20007KT CAVOK"
    },
    {
      "icao": "LFPO",
      "alert": "OK",
      "vis_m": 9999,
      "fzfg": false,
      "metar_trigger": false,
      "taf_trigger": false,
      "metar": "METAR LFPO 131830Z 21006KT CAVOK 11/06 Q1010 NOSIG",
      "taf": "TAF LFPO 131700Z 1318/1424 19005KT CAVOK"
    },
    {
      "icao": "LFSB",
      "alert": "OK",
      "vis_m": 9999,
      "fzfg": false,
      "metar_trigger": false,
      "taf_trigger": false,
      "metar": "METAR LFSB 131830Z AUTO 19008KT CAVOK 05/02 Q1014 NOSIG",
      "taf": "TAF LFSB 131700Z 1318/1418 17005KT CAVOK"
    },
    {
      "icao": "LGAV",
      "alert": "OK",
      "vis_m": 9999,
      "fzfg": false,
      "metar_trigger": false,
      "taf_trigger": false,
      "metar": "METAR LGAV 131820Z 04004KT 350V070 9999 FEW025 06/M01 Q1024 NOSIG",
      "taf": "TAF LGAV 131700Z 1318/1418 VRB05KT 9999 FEW025"
    },
    {
      "icao": "LGTS",
      "alert": "OK",
      "vis_m": 9999,
      "fzfg": false,
      "metar_trigger": false,
      "taf_trigger": false,
      "metar": "METAR LGTS 131820Z VRB02KT 9999 FEW025 02/M05 Q1024 NOSIG",
      "taf": "TAF LGTS 131700Z 1318/1418 VRB03KT 9999 FEW025"
    },
    {
      "icao": "LHBP",
      "alert": "OK",
      "vis_m": 9999,
      "fzfg": false,
      "metar_trigger": false,
      "taf_trigger": false,
      "metar": "METAR LHBP 131830Z 10004KT 060V130 9999 OVC012 M06/M08 Q1021 NOSIG",
      "taf": "TAF LHBP 131715Z 1318/1418 VRB03KT 6000 OVC015"
    },
    {
      "icao": "LHDC",
      "alert": "OK",
      "vis_m": 9000,
      "fzfg": false,
      "metar_trigger": false,
      "taf_trigger": false,
      "metar": "METAR LHDC 131815Z AUTO 05006KT 9000 OVC012 M05/M06 Q1021 NOSIG",
      "taf": "TAF LHDC 131415Z 1315/1324 06005KT 8000 BKN010 OVC025"
    },
    {
      "icao": "LIBD",
      "alert": "OK",
      "vis_m": 9999,
      "fzfg": false,
      "metar_trigger": false,
      "taf_trigger": false,
      "metar": "METAR LIBD 131820Z 21007KT CAVOK 08/05 Q1024",
      "taf": "TAF LIBD 131700Z 1318/1418 VRB06KT 9999 FEW040"
    },
    {
      "icao": "LIBG",
      "alert": "OK",
      "vis_m": 9999,
      "fzfg": false,
      "metar_trigger": false,
      "taf_trigger": false,
      "metar": "METAR LIBG 131750Z VRB02KT CAVOK 05/05 Q1025",
      "taf": "TAF LIBG 131700Z 1318/1403 VRB04KT 9999 FEW040"
    },
    {
      "icao": "LIBP",
      "alert": "OK",
      "vis_m": 9999,
      "fzfg": false,
      "metar_trigger": false,
      "taf_trigger": false,
      "metar": "METAR LIBP 131820Z AUTO VRB02KT 9999 NCD 07/05 Q1023",
      "taf": "TAF LIBP 131700Z 1318/1418 VRB06KT CAVOK"
    },
    {
      "icao": "LIBR",
      "alert": "OK",
      "vis_m": 9999,
      "fzfg": false,
      "metar_trigger": false,
      "taf_trigger": false,
      "metar": "METAR LIBR 131820Z 17003KT CAVOK 09/05 Q1025",
      "taf": "TAF LIBR 131700Z 1318/1418 VRB06KT 9999 FEW030"
    },
    {
      "icao": "LICA",
      "alert": "OK",
      "vis_m": 9999,
      "fzfg": false,
      "metar_trigger": false,
      "taf_trigger": false,
      "metar": "METAR LICA 131820Z AUTO 07003KT 9999 NCD 05/04 Q1026",
      "taf": "TAF LICA 131700Z 1318/1418 VRB05KT 9999 FEW030"
    },
    {
      "icao": "LICC",
      "alert": "OK",
      "vis_m": 9999,
      "fzfg": false,
      "metar_trigger": false,
      "taf_trigger": false,
      "metar": "METAR LICC 131820Z 24007KT CAVOK 10/05 Q1026",
      "taf": "TAF LICC 131700Z 1318/1418 26010KT CAVOK"
    },
    {
      "icao": "LICJ",
      "alert": "OK",
      "vis_m": 9999,
      "fzfg": false,
      "metar_trigger": false,
      "taf_trigger": false,
      "metar": "METAR LICJ 131820Z 15007KT 110V190 CAVOK 13/06 Q1025",
      "taf": "TAF LICJ 131700Z 1318/1418 18010KT 9999 FEW030"
    },
    {
      "icao": "LIMC",
      "alert": "OK",
      "vis_m": 9999,
      "fzfg": false,
      "metar_trigger": false,
      "taf_trigger": false,
      "metar": "METAR LIMC 131820Z 22003KT 180V270 9999 BKN040 05/M00 Q1022 NOSIG",
      "taf": "TAF LIMC 131700Z 1318/1424 VRB05KT 9999 BKN040"
    },
    {
      "icao": "LIME",
      "alert": "OK",
      "vis_m": 4000,
      "fzfg": false,
      "metar_trigger": false,
      "taf_trigger": false,
      "metar": "METAR LIME 131820Z 08002KT 4000 -DZ BR OVC040 04/01 Q1022 NOSIG",
      "taf": "TAF LIME 131700Z 1318/1418 VRB04KT 9999 SCT035"
    },
    {
      "icao": "LIMF",
      "alert": "OK",
      "vis_m": 9999,
      "fzfg": false,
      "metar_trigger": false,
      "taf_trigger": false,
      "metar": "METAR LIMF 131820Z 21002KT CAVOK 03/M03 Q1022",
      "taf": "TAF LIMF 131700Z 1318/1418 VRB03KT CAVOK"
    },
    {
      "icao": "LIMJ",
      "alert": "OK",
      "vis_m": 9999,
      "fzfg": false,
      "metar_trigger": false,
      "taf_trigger": false,
      "metar": "METAR LIMJ 131820Z 17007KT 060V210 9999 SCT015 BKN022 BKN040 14/11 Q1021",
      "taf": "TAF LIMJ 131700Z 1318/1418 VRB05KT 9999 BKN020 BKN040"
    },
    {
      "icao": "LIPE",
      "alert": "OK",
      "vis_m": 9999,
      "fzfg": false,
      "metar_trigger": false,
      "taf_trigger": false,
      "metar": "METAR LIPE 131820Z 02002KT 9999 BKN070 05/01 Q1023",
      "taf": "TAF LIPE 131700Z 1318/1418 VRB04KT 9999 SCT020 BKN060"
    },
    {
      "icao": "LIPH",
      "alert": "OK",
      "vis_m": 9999,
      "fzfg": false,
      "metar_trigger": false,
      "taf_trigger": false,
      "metar": "METAR LIPH 131820Z 30002KT 9999 FEW050 04/01 Q1023",
      "taf": "TAF LIPH 131700Z 1318/1418 VRB04KT 8000 BKN040"
    },
    {
      "icao": "LIPQ",
      "alert": "OK",
      "vis_m": 9999,
      "fzfg": false,
      "metar_trigger": false,
      "taf_trigger": false,
      "metar": "METAR LIPQ 131820Z AUTO 35003KT 9999 OVC039/// 06/03 Q1023",
      "taf": "TAF LIPQ 131700Z 1318/1418 VRB04KT 9999 BKN035"
    },
    {
      "icao": "LIPR",
      "alert": "OK",
      "vis_m": 9999,
      "fzfg": false,
      "metar_trigger": false,
      "taf_trigger": false,
      "metar": "METAR LIPR 131820Z 32004KT 9999 BKN050 06/02 Q1023",
      "taf": "TAF LIPR 131700Z 1318/1418 VRB05KT 9999 SCT050"
    },
    {
      "icao": "LIPX",
      "alert": "OK",
      "vis_m": 9999,
      "fzfg": false,
      "metar_trigger": false,
      "taf_trigger": false,
      "metar": "METAR LIPX 131820Z 01002KT 9999 OVC030 05/01 Q1023",
      "taf": "TAF LIPX 131700Z 1318/1418 VRB04KT 9999 BKN040"
    },
    {
      "icao": "LIPY",
      "alert": "OK",
      "vis_m": 9999,
      "fzfg": false,
      "metar_trigger": false,
      "taf_trigger": false,
      "metar": "METAR LIPY 131820Z AUTO 20003KT 170V230 9999 OVC063/// 10/05 Q1023",
      "taf": "TAF LIPY 131700Z 1318/1418 VRB05KT 9999 SCT050"
    },
    {
      "icao": "LIPZ",
      "alert": "OK",
      "vis_m": 9999,
      "fzfg": false,
      "metar_trigger": false,
      "taf_trigger": false,
      "metar": "METAR LIPZ 131820Z VRB02KT 9999 BKN040 05/02 Q1023 NOSIG",
      "taf": "TAF LIPZ 131700Z 1318/1424 VRB04KT 8000 BKN040"
    },
    {
      "icao": "LIRF",
      "alert": "OK",
      "vis_m": 9999,
      "fzfg": false,
      "metar_trigger": false,
      "taf_trigger": false,
      "metar": "METAR LIRF 131820Z 09006KT 9999 SCT040 10/07 Q1024 NOSIG",
      "taf": "TAF LIRF 131700Z 1318/1424 14010KT 9999 SCT030"
    },
    {
      "icao": "LIRN",
      "alert": "OK",
      "vis_m": 9999,
      "fzfg": false,
      "metar_trigger": false,
      "taf_trigger": false,
      "metar": "METAR LIRN 131820Z VRB01KT 9999 FEW040 09/06 Q1025 NOSIG",
      "taf": "TAF LIRN 131700Z 1318/1418 VRB05KT 9999 BKN030"
    },
    {
      "icao": "LIRP",
      "alert": "OK",
      "vis_m": 9999,
      "fzfg": false,
      "metar_trigger": false,
      "taf_trigger": false,
      "metar": "METAR LIRP 131815Z 18003KT 9999 FEW025 BKN060 10/10 Q1023 NOSIG",
      "taf": "TAF LIRP 131700Z 1318/1418 VRB03KT 9999 SCT030 BKN060"
    },
    {
      "icao": "LIRZ",
      "alert": "OK",
      "vis_m": 9999,
      "fzfg": false,
      "metar_trigger": false,
      "taf_trigger": false,
      "metar": "METAR LIRZ 131820Z AUTO VRB02KT 9999 OVC046/// 10/07 Q1024",
      "taf": "TAF LIRZ 131700Z 1318/1418 VRB05KT 9999 SCT040"
    },
    {
      "icao": "LJLJ",
      "alert": "OK",
      "vis_m": 9999,
      "fzfg": false,
      "metar_trigger": false,
      "taf_trigger": false,
      "metar": "METAR LJLJ 131830Z 28007KT 9999 BKN027 01/M00 Q1021 NOSIG",
      "taf": "TAF LJLJ 131700Z 1318/1418 28004KT 9999 BKN030"
    },
    {
      "icao": "LKMT",
      "alert": "OK",
      "vis_m": 4500,
      "fzfg": false,
      "metar_trigger": false,
      "taf_trigger": false,
      "metar": "METAR LKMT 131830Z 25005KT 4500 BR SCT035 M02/M02 Q1018 TEMPO 2000 BR BKN009",
      "taf": "TAF LKMT 131700Z 1318/1418 23007KT 4000 BR SCT005 OVC015"
    },
    {
      "icao": "LKPR",
      "alert": "OK",
      "vis_m": 250,
      "fzfg": false,
      "metar_trigger": false,
      "taf_trigger": false,
      "metar": "METAR LKPR 131830Z 05004KT 020V090 0250 R24/0275D R30/0400D PRFG BKN001 BKN032 00/00 Q1016 NOSIG",
      "taf": "TAF LKPR 131700Z 1318/1424 21004KT 7000 SCT006 BKN025"
    },
    {
      "icao": "LLBG",
      "alert": "OK",
      "vis_m": 9999,
      "fzfg": false,
      "metar_trigger": false,
      "taf_trigger": false,
      "metar": "METAR LLBG 131820Z 29021KT 9999 FEW035 SCT045 14/06 Q1018 TEMPO 7000 RA FEW025TCU BKN030",
      "taf": "TAF LLBG 131704Z 1318/1418 27018G28KT 9999 SCT040"
    },
    {
      "icao": "LMML",
      "alert": "OK",
      "vis_m": 9999,
      "fzfg": false,
      "metar_trigger": false,
      "taf_trigger": false,
      "metar": "METAR LMML 131815Z 18004KT 9999 FEW027 13/09 Q1027 NOSIG",
      "taf": "TAF LMML 131700Z 1318/1418 21008KT 9999 SCT028"
    },
    {
      "icao": "LOWW",
      "alert": "OK",
      "vis_m": 4900,
      "fzfg": false,
      "metar_trigger": false,
      "taf_trigger": false,
      "metar": "METAR LOWW 131820Z 10004KT 4900 BR FEW003 SCT006 BKN024 M01/M02 Q1019 TEMPO BKN007",
      "taf": "TAF LOWW 131715Z 1318/1424 14005KT 4000 BR FEW020 BKN030 TXM01/1403Z TNM02/1424Z"
    },
    {
      "icao": "LPFR",
      "alert": "OK",
      "vis_m": 9999,
      "fzfg": false,
      "metar_trigger": false,
      "taf_trigger": false,
      "metar": "METAR LPFR 131830Z 33005KT 9999 FEW020 14/12 Q1014",
      "taf": "TAF LPFR 131700Z 1318/1418 28008KT 9999 SCT020"
    },
    {
      "icao": "LPMA",
      "alert": "OK",
      "vis_m": 9999,
      "fzfg": false,
      "metar_trigger": false,
      "taf_trigger": false,
      "metar": "METAR LPMA 131830Z 34008KT 260V010 9999 SCT015 FEW018CB 15/09 Q1020",
      "taf": "TAF LPMA 131700Z 1318/1418 34010KT 9999 SCT015"
    },
    {
      "icao": "LPPR",
      "alert": "OK",
      "vis_m": 9999,
      "fzfg": false,
      "metar_trigger": false,
      "taf_trigger": false,
      "metar": "METAR LPPR 131830Z 21004KT 180V240 9999 FEW016 BKN019 FEW022CB 12/11 Q1010",
      "taf": "TAF LPPR 131700Z 1318/1418 18010KT 9999 SCT015 SCT030"
    },
    {
      "icao": "LPPS",
      "alert": "OK",
      "vis_m": 9999,
      "fzfg": false,
      "metar_trigger": false,
      "taf_trigger": false,
      "metar": "METAR LPPS 131830Z 35016KT 9999 FEW015 15/08 Q1020",
      "taf": "TAF LPPS 131700Z 1318/1424 34015KT 9999 SCT015"
    },
    {
      "icao": "LPPT",
      "alert": "OK",
      "vis_m": 9999,
      "fzfg": false,
      "metar_trigger": false,
      "taf_trigger": false,
      "metar": "METAR LPPT 131830Z 26007KT 230V290 9999 FEW018 13/11 Q1013",
      "taf": "TAF LPPT 131700Z 1318/1424 29008KT 9999 SCT020"
    },
    {
      "icao": "LQBK",
      "alert": "OK",
      "vis_m": 9999,
      "fzfg": false,
      "metar_trigger": false,
      "taf_trigger": false,
      "metar": "METAR LQBK 131830Z VRB02KT CAVOK 02/01 Q1021 NOSIG",
      "taf": "TAF LQBK 131700Z 1318/1418 21006KT CAVOK TX11/1413Z TN02/1406Z"
    },
    {
      "icao": "LQSA",
      "alert": "OK",
      "vis_m": 9999,
      "fzfg": false,
      "metar_trigger": false,
      "taf_trigger": false,
      "metar": "METAR LQSA 131830Z VRB02KT CAVOK 01/01 Q1022 NOSIG",
      "taf": "TAF LQSA 131700Z 1318/1418 VRB02KT 8000 NSC TX08/1414Z TNM03/1406Z"
    },
    {
      "icao": "LQTZ",
      "alert": "OK",
      "vis_m": 9999,
      "fzfg": false,
      "metar_trigger": false,
      "taf_trigger": false,
      "metar": "METAR LQTZ 131830Z 33002KT CAVOK M01/M01 Q1021",
      "taf": "TAF LQTZ 131700Z 1318/1418 VRB02KT CAVOK TX04/1413Z TNM02/1405Z"
    },
    {
      "icao": "LRBC",
      "alert": "OK",
      "vis_m": 9999,
      "fzfg": false,
      "metar_trigger": false,
      "taf_trigger": false,
      "metar": "METAR LRBC 131830Z 19003KT CAVOK M02/M06 Q1018",
      "taf": "TAF LRBC 131700Z 1318/1403 17007KT CAVOK"
    },
    {
      "icao": "LRBS",
      "alert": "OK",
      "vis_m": 7000,
      "fzfg": false,
      "metar_trigger": false,
      "taf_trigger": false,
      "metar": "METAR LRBS 131830Z 24003KT 220V280 7000 -SN FEW026 OVC038 M04/M06 Q1020 NOSIG",
      "taf": "TAF LRBS 131700Z 1318/1418 25006KT 9999 BKN040"
    },
    {
      "icao": "LRBV",
      "alert": "OK",
      "vis_m": 3400,
      "fzfg": false,
      "metar_trigger": false,
      "taf_trigger": false,
      "metar": "METAR LRBV 131830Z 28002KT 3400 -SN BR FEW011 BKN022 OVC030 M06/M07 Q1017",
      "taf": "TAF LRBV 131700Z 1318/1403 VRB04KT 5000 -SN BR SCT015 OVC030"
    },
    {
      "icao": "LRCL",
      "alert": "OK",
      "vis_m": 9999,
      "fzfg": false,
      "metar_trigger": false,
      "taf_trigger": false,
      "metar": "METAR LRCL 131830Z 23003KT 9999 OVC021 M07/M09 Q1020",
      "taf": "TAF LRCL 131700Z 1318/1403 VRB04KT 9999 OVC030"
    },
    {
      "icao": "LRCV",
      "alert": "OK",
      "vis_m": 5000,
      "fzfg": false,
      "metar_trigger": false,
      "taf_trigger": false,
      "metar": "METAR LRCV 131830Z 33002KT 5000 -SN BR BKN005 OVC022 M04/M04 Q1019",
      "taf": "TAF LRCV 131700Z 1318/1403 VRB04KT 5000 -SN BR SCT005 OVC025"
    },
    {
      "icao": "LRIA",
      "alert": "OK",
      "vis_m": 9999,
      "fzfg": false,
      "metar_trigger": false,
      "taf_trigger": false,
      "metar": "METAR LRIA 131830Z 10007KT CAVOK M05/M07 Q1019",
      "taf": "TAF LRIA 131700Z 1318/1403 10008KT CAVOK"
    },
    {
      "icao": "LROP",
      "alert": "OK",
      "vis_m": 7000,
      "fzfg": false,
      "metar_trigger": false,
      "taf_trigger": false,
      "metar": "METAR LROP 131830Z 23004KT 7000 -SN OVC028 M05/M07 Q1020 NOSIG",
      "taf": "TAF LROP 131700Z 1318/1418 25006KT 9999 BKN040"
    },
    {
      "icao": "LRSB",
      "alert": "OK",
      "vis_m": 4000,
      "fzfg": false,
      "metar_trigger": false,
      "taf_trigger": false,
      "metar": "METAR LRSB 131830Z COR 24002KT 4000 -SN BR SCT016 OVC042 M05/M06 Q1018",
      "taf": "TAF LRSB 131700Z 1318/1418 VRB04KT 5000 -SN BR SCT015 OVC045"
    },
    {
      "icao": "LRSM",
      "alert": "OK",
      "vis_m": 9999,
      "fzfg": false,
      "metar_trigger": false,
      "taf_trigger": false,
      "metar": "METAR LRSM 131830Z AUTO 01004KT 9999 BKN022/// OVC033/// M05/M07 Q1021",
      "taf": "TAF LRSM 131400Z 1315/1324 12007KT 9999 OVC030"
    },
    {
      "icao": "LRSV",
      "alert": "OK",
      "vis_m": 9999,
      "fzfg": false,
      "metar_trigger": false,
      "taf_trigger": false,
      "metar": "METAR LRSV 131830Z 34006KT CAVOK M06/M08 Q1017",
      "taf": "TAF LRSV 131700Z 1318/1403 33006KT CAVOK"
    },
    {
      "icao": "LRTM",
      "alert": "OK",
      "vis_m": 6000,
      "fzfg": false,
      "metar_trigger": false,
      "taf_trigger": false,
      "metar": "METAR LRTM 131830Z AUTO 24005KT 6000 BKN030/// OVC035/// M07/M09 Q1020",
      "taf": "TAF LRTM 131400Z 1315/1324 VRB02KT 1000 -SN BR BKN010 OVC025"
    },
    {
      "icao": "LRTR",
      "alert": "OK",
      "vis_m": 6000,
      "fzfg": false,
      "metar_trigger": false,
      "taf_trigger": false,
      "metar": "METAR LRTR 131830Z 30006KT 6000 SCT021 00/00 Q1021",
      "taf": "TAF LRTR 131700Z 1318/1418 VRB04KT 5000 BR SCT025"
    },
    {
      "icao": "LTAC",
      "alert": "OK",
      "vis_m": 9999,
      "fzfg": false,
      "metar_trigger": false,
      "taf_trigger": false,
      "metar": "METAR LTAC 131820Z VRB01KT CAVOK M05/M08 Q1019 NOSIG RMK RWY21C 10006KT RWY03L VRB02KT RWY21R 09007KT RWY03R VRB01KT RWY21L 09006KT",
      "taf": "TAF LTAC 131640Z 1318/1418 VRB02KT CAVOK"
    },
    {
      "icao": "LTFM",
      "alert": "OK",
      "vis_m": 9999,
      "fzfg": false,
      "metar_trigger": false,
      "taf_trigger": false,
      "metar": "METAR LTFM 131820Z 19007KT 9999 FEW040 SCT090 00/M04 Q1023 NOSIG RMK RWY17L 21009KT RWY34L 20009KT RWY16R 22006KT RWY36 20008KT RWY18 21011KT",
      "taf": "TAF LTFM 131640Z 1318/1424 19007KT 9999 FEW040"
    },
    {
      "icao": "LUKK",
      "alert": "OK",
      "vis_m": 9999,
      "fzfg": false,
      "metar_trigger": false,
      "taf_trigger": false,
      "metar": "METAR LUKK 131830Z 14004KT 110V210 CAVOK M06/M08 Q1020 NOSIG",
      "taf": "TAF LUKK 131707Z 1318/1418 VRB04KT CAVOK"
    },
    {
      "icao": "LWOH",
      "alert": "OK",
      "vis_m": 9999,
      "fzfg": false,
      "metar_trigger": false,
      "taf_trigger": false,
      "metar": "METAR LWOH 131820Z 07007KT 9999 FEW040 03/01 Q1024",
      "taf": "TAF LWOH 131740Z 1318/1418 VRB03KT 9999 SCT040"
    },
    {
      "icao": "LWSK",
      "alert": "OK",
      "vis_m": 9999,
      "fzfg": false,
      "metar_trigger": false,
      "taf_trigger": false,
      "metar": "METAR LWSK 131820Z VRB02KT CAVOK M02/M06 Q1024 NOSIG",
      "taf": "TAF LWSK 131740Z 1318/1418 VRB02KT CAVOK"
    },
    {
      "icao": "LYBE",
      "alert": "OK",
      "vis_m": 9000,
      "fzfg": false,
      "metar_trigger": false,
      "taf_trigger": false,
      "metar": "METAR LYBE 131830Z 22003KT 9000 NSC 04/M01 Q1021 NOSIG",
      "taf": "TAF LYBE 131700Z 1318/1418 21004KT 7000 BKN040 TX06/1412Z TN00/1405Z"
    },
    {
      "icao": "LYNI",
      "alert": "OK",
      "vis_m": 8000,
      "fzfg": false,
      "metar_trigger": false,
      "taf_trigger": false,
      "metar": "METAR LYNI 131830Z 11005KT 8000 BKN050 01/M01 Q1022 NOSIG",
      "taf": "TAF LYNI 131700Z 1318/1418 24004KT 7000 BKN050 TX04/1413Z TN00/1406Z"
    },
    {
      "icao": "LYPG",
      "alert": "OK",
      "vis_m": 9999,
      "fzfg": false,
      "metar_trigger": false,
      "taf_trigger": false,
      "metar": "METAR LYPG 131830Z 02002KT 9999 BKN030 OVC070 03/01 Q1028 NOSIG",
      "taf": "TAF LYPG 131700Z 1318/1418 36005KT 9999 FEW015 BKN034 BKN070 TX11/1413Z TN01/1406Z"
    },
    {
      "icao": "LZIB",
      "alert": "OK",
      "vis_m": 5000,
      "fzfg": false,
      "metar_trigger": false,
      "taf_trigger": false,
      "metar": "METAR LZIB 131830Z VRB02KT 5000 BR SCT003 OVC005 M03/M04 Q1020 NOSIG",
      "taf": "TAF LZIB 131715Z 1318/1418 08004KT 7000 BKN007 OVC013"
    },
    {
      "icao": "LZKZ",
      "alert": "OK",
      "vis_m": 4000,
      "fzfg": false,
      "metar_trigger": false,
      "taf_trigger": false,
      "metar": "METAR LZKZ 131830Z VRB01KT 4000 -SN FEW014 BKN035 M06/M08 Q1020 TEMPO 2500 -SN",
      "taf": "TAF LZKZ 131715Z 1318/1418 VRB02KT 9999 OVC018"
    },
    {
      "icao": "LZTT",
      "alert": "OK",
      "vis_m": 9999,
      "fzfg": false,
      "metar_trigger": false,
      "taf_trigger": false,
      "metar": "METAR LZTT 131830Z VRB02KT 9999 OVC011 M07/M09 Q1016",
      "taf": "TAF LZTT 131715Z 1318/1418 VRB02KT 6000 BKN008 OVC012"
    },
    {
      "icao": "OEJN",
      "alert": "OK",
      "vis_m": 9999,
      "fzfg": false,
      "metar_trigger": false,
      "taf_trigger": false,
      "metar": "METAR OEJN 131800Z 35010KT CAVOK 24/16 Q1017 NOSIG",
      "taf": "TAF OEJN 131700Z 1318/1424 36010KT 7000 FEW040"
    },
    {
      "icao": "OEMA",
      "alert": "OK",
      "vis_m": 9999,
      "fzfg": false,
      "metar_trigger": false,
      "taf_trigger": false,
      "metar": "METAR OEMA 131800Z 23008KT CAVOK 22/06 Q1020 NOSIG",
      "taf": "TAF OEMA 131700Z 1318/1424 33008KT CAVOK"
    },
    {
      "icao": "OJAI",
      "alert": "OK",
      "vis_m": 3000,
      "fzfg": false,
      "metar_trigger": false,
      "taf_trigger": false,
      "metar": "METAR OJAI 131800Z 25024KT 3000 RA BKN025 BKN030 07/05 Q1016 NOSIG",
      "taf": "TAF OJAI 131700Z 1318/1424 24018KT 1500 RA BR FEW025TCU SCT035"
    },
    {
      "icao": "OMAA",
      "alert": "OK",
      "vis_m": 9999,
      "fzfg": false,
      "metar_trigger": false,
      "taf_trigger": false,
      "metar": "METAR OMAA 131800Z 03005KT CAVOK 20/14 Q1020 NOSIG",
      "taf": "TAF OMAA 131700Z 1318/1500 10005KT 8000 NSC"
    },
    {
      "icao": "OMDB",
      "alert": "OK",
      "vis_m": 9999,
      "fzfg": false,
      "metar_trigger": false,
      "taf_trigger": false,
      "metar": "METAR OMDB 131830Z 03003KT 360V080 CAVOK 22/14 Q1020 NOSIG",
      "taf": "TAF OMDB 131700Z 1318/1500 12005KT 8000 NSC"
    },
    {
      "icao": "UAAA",
      "alert": "OK",
      "vis_m": 600,
      "fzfg": true,
      "metar_trigger": false,
      "taf_trigger": false,
      "metar": "METAR UAAA 131830Z 25003MPS 0600 R23L/1600 FG VV001 00/M00 Q1020 NOSIG RMK QBB050",
      "taf": "TAF UAAA 131700Z 1318/1418 22003MPS 0600 FZFG VV003 TX03/1409Z TNM04/1403Z"
    },
    {
      "icao": "UBBB",
      "alert": "OK",
      "vis_m": 9999,
      "fzfg": false,
      "metar_trigger": false,
      "taf_trigger": false,
      "metar": "METAR UBBB 131830Z 35018KT 9999 -SHRA SCT014 BKN040CB OVC040 07/05 Q1010 NOSIG",
      "taf": "TAF UBBB 131712Z 1318/1418 33020KT 9999 SCT010 FEW040CB OVC040 TX06/1410Z TN03/1401Z"
    },
    {
      "icao": "UDSG",
      "alert": "OK",
      "vis_m": 5000,
      "fzfg": false,
      "metar_trigger": false,
      "taf_trigger": false,
      "metar": "METAR UDSG 131830Z 36017KT 5000 -SN BR OVC023 M04/M07 Q1007 NOSIG",
      "taf": "TAF UDSG 131700Z 1318/1418 VRB06KT 1000 BR OVC010"
    },
    {
      "icao": "UDYZ",
      "alert": "OK",
      "vis_m": 2900,
      "fzfg": false,
      "metar_trigger": false,
      "taf_trigger": false,
      "metar": "METAR UDYZ 131830Z 00000KT 2900 -SHRA BR OVC021CB 02/02 Q1005 NOSIG",
      "taf": "TAF UDYZ 131700Z 1318/1418 23006KT 2300 BR BKN030"
    },
    {
      "icao": "UGKO",
      "alert": "OK",
      "vis_m": 9999,
      "fzfg": false,
      "metar_trigger": false,
      "taf_trigger": false,
      "metar": "METAR UGKO 131830Z 25011KT 9999 -RA SCT007 BKN010 OVC061 02/01 Q1019 NOSIG",
      "taf": "TAF UGKO 131700Z 1318/1418 25010KT 9999 SCT017 OVC040 TX06/1411Z TN01/1403Z"
    }
  ]
}